Category,Real Category,Business Name,Address,City,State,Postal Code,Country,Phone,Latitude,Longitude,Map Link
perumahan,Komplek perumahan,Y Aâs Home,"R3CM+VJ6, Samofa, Kec. Samofa, Kabupaten Biak Numfor, Papua 98111","Samofa, Kec. Samofa, Kabupaten Biak Numfor",PAPUA,98111.0,Indonesia,,-1.177.602,1.360.847.018,https://maps.google.com/?cid=0x0:0xdd9257cd6cbb3cc0
perumahan,Komplek perumahan,Rumah ica,"R3CQ+7RG, Mandala, Kec. Biak Kota, Kabupaten Biak Numfor, Papua 98111","Mandala, Kec. Biak Kota, Kabupaten Biak Numfor",PAPUA,98111.0,Indonesia,,-11.786.458,1.360.901.393,https://maps.google.com/?cid=0x0:0xebb80a11cb006f68
perumahan,perumahan,Papua 98111,"Kabupaten Biak Numfor, Papua","Kabupaten Biak Numfor, Papua",PAPUA,,Indonesia,,-11.761.491,1.360.897.124,https://maps.google.com/?cid=0x0:0x2a08da43231bb9ff
perumahan,Komplek perumahan,Perumahan samsat biak,"R3MM+26R, Samofa, Kec. Samofa, Kabupaten Biak Numfor, Papua 98111","Samofa, Kec. Samofa, Kabupaten Biak Numfor",PAPUA,98111.0,Indonesia,,-11.673.939,136.083.021,https://maps.google.com/?cid=0x0:0xc7967198053e5fc9
perumahan,Perhimpunan Pengembang Perumahan,"Komplex Jl.Suci, Dolog","Jl. Suci Jl. Raya Dolog No.45, Mandala, Kec. Biak Kota, Kabupaten Biak Numfor, Papua 98111","Mandala, Kec. Biak Kota, Kabupaten Biak Numfor",PAPUA,98111.0,Indonesia,,-11.806.133,1.360.945.733,https://maps.google.com/?cid=0x0:0x91e3c370467f5bc9
perumahan,Komplek perumahan,Kompleks Rumah Dinas Pos,"R3JP+JPH, Samofa, Kec. Samofa, Kabupaten Biak Numfor, Papua 98111","Samofa, Kec. Samofa, Kabupaten Biak Numfor",PAPUA,98111.0,Indonesia,,-11.683.791,1.360.867.964,https://maps.google.com/?cid=0x0:0xa64be082e86bdee
perumahan,Komplek perumahan,Rumah Dinas Bea Cukai Biak,"Jl. Marsudi, RT.002/RW.004, Samofa, Kec. Samofa, Kabupaten Biak Numfor, Papua 98111","RT.002/RW.004, Samofa, Kec. Samofa, Kabupaten Biak Numfor",PAPUA,98111.0,Indonesia,,-11.661.145,1.360.840.071,https://maps.google.com/?cid=0x0:0x724b5b98726c39ea
perumahan,Komplek perumahan,Perumahan Artamakmur Regency,"Jl. Adibai Sumberker Samofa No.Dalam, Mandouw, Kec. Samofa, Kabupaten Biak Numfor, Papua 98118","Mandouw, Kec. Samofa, Kabupaten Biak Numfor",PAPUA,98118.0,Indonesia,81291262115.0,-11.526.874,136.088.976,https://maps.google.com/?cid=0x0:0xeec5bf472fe70b90
perumahan,Komplek perumahan,Matkussa Fams,"R39Q+XJ3, Mandala, Kec. Biak Kota, Kabupaten Biak Numfor, Papua 98111","Mandala, Kec. Biak Kota, Kabupaten Biak Numfor",PAPUA,98111.0,Indonesia,,-1.180.051,1.360.888.957,https://maps.google.com/?cid=0x0:0xfc31e27a6e77af10
perumahan,Pembangunan Perumahan,Bumex Area,"R3CH+4F6, Jl. Duku, Burokub, Kec. Biak Kota, Kabupaten Biak Numfor, Papua 98111","Jl. Duku, Burokub, Kec. Biak Kota, Kabupaten Biak Numfor",PAPUA,98111.0,Indonesia,,-11.797.118,1.360.786.323,https://maps.google.com/?cid=0x0:0x6d1c632fe83bc0ae
perumahan,Komplek perumahan,Kompleks Angkasa (AURI),"R3HV+V76, Unnamed Road, Samofa, Kec. Samofa, Kabupaten Biak Numfor, Papua 98111","Unnamed Road, Samofa, Kec. Samofa, Kabupaten Biak Numfor",PAPUA,98111.0,Indonesia,,-11.703.454,136.093.145,https://maps.google.com/?cid=0x0:0xc262cbf67731a385
perumahan,perumahan,Biak kota,"R37Q+9CF, Jl. Yenures, Mandala, Kec. Biak Kota, Kabupaten Biak Numfor, Papua 98111","Jl. Yenures, Mandala, Kec. Biak Kota, Kabupaten Biak Numfor",PAPUA,98111.0,Indonesia,,-11.865.713,1.360.885.472,https://maps.google.com/?cid=0x0:0x5abb374efc06258f
perumahan,Komplek perumahan,Kompleks Perumahan Meteorologi (BMKG),"R3PQ+V9R, Brambaken, Kec. Samofa, Kabupaten Biak Numfor, Papua 98111","Brambaken, Kec. Samofa, Kabupaten Biak Numfor",PAPUA,98111.0,Indonesia,,-11.627.595,1.360.883.854,https://maps.google.com/?cid=0x0:0xdd8868b979fb4fef
perumahan,Komplek perumahan,Rumah Dinas AP1 BIK,"R36V+RQW, Jl. M Yamin, Mandala, Kec. Biak Kota, Kabupaten Biak Numfor, Papua 98111","Jl. M Yamin, Mandala, Kec. Biak Kota, Kabupaten Biak Numfor",PAPUA,98111.0,Indonesia,,-11.878.947,1.360.944.683,https://maps.google.com/?cid=0x0:0xcf09a75f9c44a820
perumahan,perumahan,Papua 98112,"Kabupaten Biak Numfor, Papua","Kabupaten Biak Numfor, Papua",PAPUA,,Indonesia,,-11.704.798,136.068.244,https://maps.google.com/?cid=0x0:0x36b6ebf6f8a4c3c6
perumahan,Komplek perumahan,Kompleks Perumahan Pemda Samofa Biak,"R3PC+6W8, Jl. Pemda I, Samofa, Kec. Samofa, Kabupaten Biak Numfor, Papua 98112","Jl. Pemda I, Samofa, Kec. Samofa, Kabupaten Biak Numfor",PAPUA,98112.0,Indonesia,,-11.644.593,1.360.723.306,https://maps.google.com/?cid=0x0:0x26dce74efdf72670
perumahan,perumahan,Rumah Kost PI Biak,"R3QC+PCW, Yafdas, Kec. Samofa, Kabupaten Biak Numfor, Papua 98112","Yafdas, Kec. Samofa, Kabupaten Biak Numfor",PAPUA,98112.0,Indonesia,,-11.611.551,1.360.712.538,https://maps.google.com/?cid=0x0:0xdb6a2c54b19b7efc
perumahan,Komplek perumahan,Perumahan guru sorido Biak Kota,"R3P7+2WF, Sorido, Kec. Biak Kota, Kabupaten Biak Numfor, Papua 98113","Sorido, Kec. Biak Kota, Kabupaten Biak Numfor",PAPUA,98113.0,Indonesia,,-11.642.759,1.360.636.996,https://maps.google.com/?cid=0x0:0xca7b04a1ecf05056
perumahan,Komplek perumahan,YAFDAS - BIAK KOTA,"R3R9+HJ7, Jl. Yafdas, Yafdas, Kec. Samofa, Kabupaten Biak Numfor, Papua 98112","Jl. Yafdas, Yafdas, Kec. Samofa, Kabupaten Biak Numfor",PAPUA,98112.0,Indonesia,,-11.585.358,1.360.692.626,https://maps.google.com/?cid=0x0:0x99874dd23ca4c1a8
perumahan,Komplek perumahan,Rumahnya Heru Prasetiyanto,"R3P7+FMG, Sorido, Kec. Biak Kota, Kabupaten Biak Numfor, Papua","Kabupaten Biak Numfor, Papua",PAPUA,,Indonesia,85243090149.0,-1.163.885,1.360.643.445,https://maps.google.com/?cid=0x0:0xf7657691210dc139
perumahan,Pembangunan Perumahan,Perumahan Griya Kelapa Gading Sorido,"R3P4+8VG, Jl. Jendral Sudirman, Sorido, Kec. Biak Kota, Kabupaten Biak Numfor, Papua 98115","Jl. Jendral Sudirman, Sorido, Kec. Biak Kota, Kabupaten Biak Numfor",PAPUA,98115.0,Indonesia,,-11.641.764,1.360.571.917,https://maps.google.com/?cid=0x0:0xd1157d94a6d4fdac
perumahan,Komplek perumahan,Rumah Olin,"R3M6+XXJ, Sorido, Kec. Biak Kota, Kabupaten Biak Numfor, Papua","Kabupaten Biak Numfor, Papua",PAPUA,,Indonesia,,-11.650.455,1.360.623.774,https://maps.google.com/?cid=0x0:0xbb6565220f02dfc9
perumahan,Pembangunan Perumahan,Nazaret Biak PAPUA,"R3V7+9PC, Naazaret Biak, Sorido, Kec. Biak Kota, Kabupaten Biak Numfor, Papua 98113","Naazaret Biak, Sorido, Kec. Biak Kota, Kabupaten Biak Numfor",PAPUA,98113.0,Indonesia,82179854481.0,-11.565.527,1.360.642.656,https://maps.google.com/?cid=0x0:0x30fa2fe8b728dc42
perumahan,Komplek perumahan,Mantri saleh,"R3CC+3GJ, Jl. Aru IV, Waupnor, Kec. Biak Kota, Kabupaten Biak Numfor, Papua 98112","Jl. Aru IV, Waupnor, Kec. Biak Kota, Kabupaten Biak Numfor",PAPUA,98112.0,Indonesia,,-11.797.789,1.360.712.717,https://maps.google.com/?cid=0x0:0xc23054e7dbf8e00b
perumahan,perumahan,Kota biak,"R3CF+QWV, Saramom, Kec. Biak Kota, Kabupaten Biak Numfor, Papua","Kabupaten Biak Numfor, Papua",PAPUA,,Indonesia,,-11.780.147,1.360.747.955,https://maps.google.com/?cid=0x0:0x56534c1307eb20c0
perumahan,Komplek perumahan,Awom Family,"R3PC+FRR, Samofa, Kec. Samofa, Kabupaten Biak Numfor, Papua 98112","Samofa, Kec. Samofa, Kabupaten Biak Numfor",PAPUA,98112.0,Indonesia,,-11.638.609,1.360.720.548,https://maps.google.com/?cid=0x0:0xa2de2b13bfb7eedb
perumahan,Pembangunan Perumahan,B4YU 4N9913,"R3MC+Q49, Samofa, Kec. Samofa, Kabupaten Biak Numfor, Papua 98112","Samofa, Kec. Samofa, Kabupaten Biak Numfor",PAPUA,98112.0,Indonesia,,-11.649.751,1.360.699.352,https://maps.google.com/?cid=0x0:0x4407033a02084c30
perumahan,Pembangunan Perumahan,Bumex Area,"R3CH+4F6, Jl. Duku, Burokub, Kec. Biak Kota, Kabupaten Biak Numfor, Papua 98111","Jl. Duku, Burokub, Kec. Biak Kota, Kabupaten Biak Numfor",PAPUA,98111.0,Indonesia,,-11.797.118,1.360.786.323,https://maps.google.com/?cid=0x0:0x6d1c632fe83bc0ae
perumahan,Komplek perumahan,Perumahan guru sorido Biak Kota,"R3P7+2WF, Sorido, Kec. Biak Kota, Kabupaten Biak Numfor, Papua 98113","Sorido, Kec. Biak Kota, Kabupaten Biak Numfor",PAPUA,98113.0,Indonesia,,-11.642.759,1.360.636.996,https://maps.google.com/?cid=0x0:0xca7b04a1ecf05056
perumahan,perumahan,Papua 98113,"Kabupaten Biak Numfor, Papua","Kabupaten Biak Numfor, Papua",PAPUA,,Indonesia,,-115.291,1.360.634.745,https://maps.google.com/?cid=0x0:0xb1fa8f2f87b90209
perumahan,Komplek perumahan,Tongkrongan teras biru,"R3Q8+XGM, Sorido, Kec. Biak Kota, Kabupaten Biak Numfor, Papua 98113","Sorido, Kec. Biak Kota, Kabupaten Biak Numfor",PAPUA,98113.0,Indonesia,,-11.606.836,1.360.659.005,https://maps.google.com/?cid=0x0:0x987a20782ca58c3b
perumahan,Komplek perumahan,Perumahan BTN Griya Bahagia Yafdas,"R3V8+6VX, Yafdas, Kec. Samofa, Kabupaten Biak Numfor, Papua 98113","Yafdas, Kec. Samofa, Kabupaten Biak Numfor",PAPUA,98113.0,Indonesia,,-11.568.983,1.360.672.446,https://maps.google.com/?cid=0x0:0x89f97742816addf2
perumahan,Pembangunan Perumahan,Nazaret Biak PAPUA,"R3V7+9PC, Naazaret Biak, Sorido, Kec. Biak Kota, Kabupaten Biak Numfor, Papua 98113","Naazaret Biak, Sorido, Kec. Biak Kota, Kabupaten Biak Numfor",PAPUA,98113.0,Indonesia,82179854481.0,-11.565.527,1.360.642.656,https://maps.google.com/?cid=0x0:0x30fa2fe8b728dc42
perumahan,Komplek perumahan,Kabupaten biak numfor papua,"R3Q7+C58, Sorido, Kec. Biak Kota, Kabupaten Biak Numfor, Papua 98113","Sorido, Kec. Biak Kota, Kabupaten Biak Numfor",PAPUA,98113.0,Indonesia,81240657298.0,-11.614.592,1.360.629.563,https://maps.google.com/?cid=0x0:0xe93eeacd3af9e01b
perumahan,Komplek perumahan,Herland,"R3R6+C93, Sorido, Kec. Biak Kota, Kabupaten Biak Numfor, Papua 98113","Sorido, Kec. Biak Kota, Kabupaten Biak Numfor",PAPUA,98113.0,Indonesia,,-11.589.869,1.360.608.381,https://maps.google.com/?cid=0x0:0xae8d5999c5b037f0
perumahan,Komplek perumahan,TB,"R3Q8+XGM, Sorido, Kec. Biak Kota, Kabupaten Biak Numfor, Papua 98113","Sorido, Kec. Biak Kota, Kabupaten Biak Numfor",PAPUA,98113.0,Indonesia,,-11.601.059,1.360.663.016,https://maps.google.com/?cid=0x0:0x7436db2284f8f582
perumahan,perumahan,ISTHY HOUSE,"R3R6+RM3, Sorido, Kec. Biak Kota, Kabupaten Biak Numfor, Papua 98113","Sorido, Kec. Biak Kota, Kabupaten Biak Numfor",PAPUA,98113.0,Indonesia,,-11.577.517,1.360.615.865,https://maps.google.com/?cid=0x0:0xf8d66bc19c89864e
perumahan,perumahan,Kunjungan Kembali,"R3R2+VMF, Sorido, Kec. Biak Kota, Kabupaten Biak Numfor, Papua","Kabupaten Biak Numfor, Papua",PAPUA,,Indonesia,,-11.572.747,1.360.518.249,https://maps.google.com/?cid=0x0:0x27401a0aa94d151b
perumahan,Pembangunan Perumahan,Della,"R3R8+XPV, Yafdas, Kec. Samofa, Kabupaten Biak Numfor, Papua 98113","Yafdas, Kec. Samofa, Kabupaten Biak Numfor",PAPUA,98113.0,Indonesia,,-11.578.008,1.360.663.822,https://maps.google.com/?cid=0x0:0x2a1582a7b0f377b4
perumahan,Komplek perumahan,Rumah Kel.Nussy Tahalele,"R3V7+528, Unnamed Road, Sorido, Kec. Biak Kota, Kabupaten Biak Numfor, Papua 98113","Unnamed Road, Sorido, Kec. Biak Kota, Kabupaten Biak Numfor",PAPUA,98113.0,Indonesia,,-1.157.091,1.360.625.658,https://maps.google.com/?cid=0x0:0x1afcb946ce15916f
perumahan,Komplek perumahan,Perumahan Buana Mas,"R3W8+8X2, Jl. Yafdas, Dafuar, Kec. Samofa, Kabupaten Biak Numfor, Papua 98113","Jl. Yafdas, Dafuar, Kec. Samofa, Kabupaten Biak Numfor",PAPUA,98113.0,Indonesia,,-11.542.384,1.360.674.029,https://maps.google.com/?cid=0x0:0xa6e621b6f139bcad
perumahan,Pembangunan Perumahan,Datrin,"R3V9+95G, Yafdas, Kec. Samofa, Kabupaten Biak Numfor, Papua 98112","Yafdas, Kec. Samofa, Kabupaten Biak Numfor",PAPUA,98112.0,Indonesia,,-1.156.575,1.360.679.811,https://maps.google.com/?cid=0x0:0xff60885a57187493
perumahan,perumahan,Papua 98114,"Kabupaten Biak Numfor, Papua","Kabupaten Biak Numfor, Papua",PAPUA,,Indonesia,,-11.386.625,1.360.491.689,https://maps.google.com/?cid=0x0:0xb7899b24d8a2c999
perumahan,Komplek perumahan,Griya inggiri indah,"V22V+96J, Jl. Raya Sorido, Inggiri, Kec. Biak Kota, Kabupaten Biak Numfor, Papua 98115","Jl. Raya Sorido, Inggiri, Kec. Biak Kota, Kabupaten Biak Numfor",PAPUA,98115.0,Indonesia,,-11.490.426,1.360.430.055,https://maps.google.com/?cid=0x0:0x276096e92427c67
perumahan,perumahan,ISTHY HOUSE,"R3R6+RM3, Sorido, Kec. Biak Kota, Kabupaten Biak Numfor, Papua 98113","Sorido, Kec. Biak Kota, Kabupaten Biak Numfor",PAPUA,98113.0,Indonesia,,-11.577.517,1.360.615.865,https://maps.google.com/?cid=0x0:0xf8d66bc19c89864e
perumahan,Komplek perumahan,Biak kota,"R3W2+925, Jl. Raya Sorido, Sorido, Kec. Biak Kota, Kabupaten Biak Numfor, Papua","Kabupaten Biak Numfor, Papua",PAPUA,,Indonesia,,-11.541.012,1.360.500.964,https://maps.google.com/?cid=0x0:0x14e1121f404eeb05
perumahan,perumahan,Kunjungan Kembali,"R3R2+VMF, Sorido, Kec. Biak Kota, Kabupaten Biak Numfor, Papua","Kabupaten Biak Numfor, Papua",PAPUA,,Indonesia,,-11.572.747,1.360.518.249,https://maps.google.com/?cid=0x0:0x27401a0aa94d151b
perumahan,Komplek perumahan,Komplex Ujung Pagar,"V24Q+54M, Insrom, Kec. Biak Kota, Kabupaten Biak Numfor, Papua 98115","Insrom, Kec. Biak Kota, Kabupaten Biak Numfor",PAPUA,98115.0,Indonesia,82199556947.0,-11.445.401,1.360.377.849,https://maps.google.com/?cid=0x0:0x4d7f6aff8b32ed73
perumahan,Komplek perumahan,Inggiri,"R2WV+HPG, Inggiri, Kec. Biak Kota, Kabupaten Biak Numfor, Papua","Kabupaten Biak Numfor, Papua",PAPUA,,Indonesia,,-11.535.571,136.044.341,https://maps.google.com/?cid=0x0:0xd583547acaf2007e
perumahan,Perhimpunan Pengembang Perumahan,rumah Q,"V23R+5G8, Insrom, Kec. Biak Kota, Kabupaten Biak Numfor, Papua 98115","Insrom, Kec. Biak Kota, Kabupaten Biak Numfor",PAPUA,98115.0,Indonesia,,-11.465.571,1.360.415.477,https://maps.google.com/?cid=0x0:0x67d9e9deff81dea0
perumahan,Kantor Hubungan Masyarakat,Perumahan Darfuar,"V388+73H, Dafuar, Kec. Samofa, Kabupaten Biak Numfor, Papua 98156","Dafuar, Kec. Samofa, Kabupaten Biak Numfor",PAPUA,98156.0,Indonesia,,-11.343.089,1.360.652.262,https://maps.google.com/?cid=0x0:0xf62a711a193c1c86
perumahan,Komplek perumahan,Nista sandy,"V24Q+228, Insrom, Kec. Biak Kota, Kabupaten Biak Numfor, Papua","Kabupaten Biak Numfor, Papua",PAPUA,,Indonesia,,-11.449.514,1.360.375.827,https://maps.google.com/?cid=0x0:0xdc78eb2c69fbe912
perumahan,Pembangunan Perumahan,Perumahan Griya Kelapa Gading Sorido,"R3P4+8VG, Jl. Jendral Sudirman, Sorido, Kec. Biak Kota, Kabupaten Biak Numfor, Papua 98115","Jl. Jendral Sudirman, Sorido, Kec. Biak Kota, Kabupaten Biak Numfor",PAPUA,98115.0,Indonesia,,-11.641.764,1.360.571.917,https://maps.google.com/?cid=0x0:0xd1157d94a6d4fdac
perumahan,Perumahan,Rumah saldin,"V367+MC, Dafuar, Kec. Samofa, Kabupaten Biak Numfor, Papua","Kabupaten Biak Numfor, Papua",PAPUA,,Indonesia,,-11.382.818,1.360.635.884,https://maps.google.com/?cid=0x0:0x3c3dc8ded7e2b009
perumahan,Komplek perumahan,Rumah Tanta Marina mansnembra,"R2WV+7XG, Jl. Raya Sorido, Inggiri, Kec. Biak Kota, Kabupaten Biak Numfor, Papua 98115","Jl. Raya Sorido, Inggiri, Kec. Biak Kota, Kabupaten Biak Numfor",PAPUA,98115.0,Indonesia,,-11.541.613,136.044.705,https://maps.google.com/?cid=0x0:0x4c05193f037ad779
perumahan,Komplek perumahan,Yendidori biak,"V259+JFP, Yendidori, Kec. Yendidori, Kabupaten Biak Numfor, Papua","Kabupaten Biak Numfor, Papua",PAPUA,,Indonesia,,-11.409.192,1.360.186.943,https://maps.google.com/?cid=0x0:0x87b80804d5a82db
perumahan,perumahan,Papua 98115,"Kec. Biak Kota, Kabupaten Biak Numfor, Papua","Kabupaten Biak Numfor, Papua",PAPUA,,Indonesia,,-11.614.138,1.360.515.529,https://maps.google.com/?cid=0x0:0x9abbe05255913eb1
perumahan,Pembangunan Perumahan,Perumahan Griya Kelapa Gading Sorido,"R3P4+8VG, Jl. Jendral Sudirman, Sorido, Kec. Biak Kota, Kabupaten Biak Numfor, Papua 98115","Jl. Jendral Sudirman, Sorido, Kec. Biak Kota, Kabupaten Biak Numfor",PAPUA,98115.0,Indonesia,,-11.641.764,1.360.571.917,https://maps.google.com/?cid=0x0:0xd1157d94a6d4fdac
perumahan,Perhimpunan Pengembang Perumahan,rumah Q,"V23R+5G8, Insrom, Kec. Biak Kota, Kabupaten Biak Numfor, Papua 98115","Insrom, Kec. Biak Kota, Kabupaten Biak Numfor",PAPUA,98115.0,Indonesia,,-11.465.571,1.360.415.477,https://maps.google.com/?cid=0x0:0x67d9e9deff81dea0
perumahan,Komplek perumahan,Perumahan guru sorido Biak Kota,"R3P7+2WF, Sorido, Kec. Biak Kota, Kabupaten Biak Numfor, Papua 98113","Sorido, Kec. Biak Kota, Kabupaten Biak Numfor",PAPUA,98113.0,Indonesia,,-11.642.759,1.360.636.996,https://maps.google.com/?cid=0x0:0xca7b04a1ecf05056
perumahan,Komplek perumahan,Rumahnya Heru Prasetiyanto,"R3P7+FMG, Sorido, Kec. Biak Kota, Kabupaten Biak Numfor, Papua","Kabupaten Biak Numfor, Papua",PAPUA,,Indonesia,85243090149.0,-1.163.885,1.360.643.445,https://maps.google.com/?cid=0x0:0xf7657691210dc139
perumahan,Komplek perumahan,My Home,"R3Q4+HV, Sorido, Kec. Biak Kota, Kabupaten Biak Numfor, Papua 98115","Sorido, Kec. Biak Kota, Kabupaten Biak Numfor",PAPUA,98115.0,Indonesia,,-11.611.953,1.360.572.851,https://maps.google.com/?cid=0x0:0x640cab9e86906656
perumahan,Komplek perumahan,Rumah Olin,"R3M6+XXJ, Sorido, Kec. Biak Kota, Kabupaten Biak Numfor, Papua","Kabupaten Biak Numfor, Papua",PAPUA,,Indonesia,,-11.650.455,1.360.623.774,https://maps.google.com/?cid=0x0:0xbb6565220f02dfc9
perumahan,perumahan,ISTHY HOUSE,"R3R6+RM3, Sorido, Kec. Biak Kota, Kabupaten Biak Numfor, Papua 98113","Sorido, Kec. Biak Kota, Kabupaten Biak Numfor",PAPUA,98113.0,Indonesia,,-11.577.517,1.360.615.865,https://maps.google.com/?cid=0x0:0xf8d66bc19c89864e
perumahan,Komplek perumahan,Kabupaten biak numfor papua,"R3Q7+C58, Sorido, Kec. Biak Kota, Kabupaten Biak Numfor, Papua 98113","Sorido, Kec. Biak Kota, Kabupaten Biak Numfor",PAPUA,98113.0,Indonesia,81240657298.0,-11.614.592,1.360.629.563,https://maps.google.com/?cid=0x0:0xe93eeacd3af9e01b
perumahan,Komplek perumahan,Rumah Tanta Marina mansnembra,"R2WV+7XG, Jl. Raya Sorido, Inggiri, Kec. Biak Kota, Kabupaten Biak Numfor, Papua 98115","Jl. Raya Sorido, Inggiri, Kec. Biak Kota, Kabupaten Biak Numfor",PAPUA,98115.0,Indonesia,,-11.541.613,136.044.705,https://maps.google.com/?cid=0x0:0x4c05193f037ad779
perumahan,Komplek perumahan,Griya inggiri indah,"V22V+96J, Jl. Raya Sorido, Inggiri, Kec. Biak Kota, Kabupaten Biak Numfor, Papua 98115","Jl. Raya Sorido, Inggiri, Kec. Biak Kota, Kabupaten Biak Numfor",PAPUA,98115.0,Indonesia,,-11.490.426,1.360.430.055,https://maps.google.com/?cid=0x0:0x276096e92427c67
perumahan,perumahan,Kunjungan Kembali,"R3R2+VMF, Sorido, Kec. Biak Kota, Kabupaten Biak Numfor, Papua","Kabupaten Biak Numfor, Papua",PAPUA,,Indonesia,,-11.572.747,1.360.518.249,https://maps.google.com/?cid=0x0:0x27401a0aa94d151b
perumahan,Komplek perumahan,Komplex Ujung Pagar,"V24Q+54M, Insrom, Kec. Biak Kota, Kabupaten Biak Numfor, Papua 98115","Insrom, Kec. Biak Kota, Kabupaten Biak Numfor",PAPUA,98115.0,Indonesia,82199556947.0,-11.445.401,1.360.377.849,https://maps.google.com/?cid=0x0:0x4d7f6aff8b32ed73
perumahan,Komplek perumahan,Rumah Kel.Nussy Tahalele,"R3V7+528, Unnamed Road, Sorido, Kec. Biak Kota, Kabupaten Biak Numfor, Papua 98113","Unnamed Road, Sorido, Kec. Biak Kota, Kabupaten Biak Numfor",PAPUA,98113.0,Indonesia,,-1.157.091,1.360.625.658,https://maps.google.com/?cid=0x0:0x1afcb946ce15916f
perumahan,perumahan,Papua 98116,"Kec. Yendidori, Kabupaten Biak Numfor, Papua","Kabupaten Biak Numfor, Papua",PAPUA,,Indonesia,,-11.152.139,1.360.086.594,https://maps.google.com/?cid=0x0:0xa8c3dc42c3bee07d
perumahan,Komplek perumahan,Komplex Ujung Pagar,"V24Q+54M, Insrom, Kec. Biak Kota, Kabupaten Biak Numfor, Papua 98115","Insrom, Kec. Biak Kota, Kabupaten Biak Numfor",PAPUA,98115.0,Indonesia,82199556947.0,-11.445.401,1.360.377.849,https://maps.google.com/?cid=0x0:0x4d7f6aff8b32ed73
perumahan,Komplek perumahan,Yendidori biak,"V259+JFP, Yendidori, Kec. Yendidori, Kabupaten Biak Numfor, Papua","Kabupaten Biak Numfor, Papua",PAPUA,,Indonesia,,-11.409.192,1.360.186.943,https://maps.google.com/?cid=0x0:0x87b80804d5a82db
perumahan,Komplek perumahan,Biak papua,"V252+932, Adoki, Kec. Yendidori, Kabupaten Biak Numfor, Papua 98116","Adoki, Kec. Yendidori, Kabupaten Biak Numfor",PAPUA,98116.0,Indonesia,,-1.141.457,1.360.012.744,https://maps.google.com/?cid=0x0:0xee965d423dcdaf5b
perumahan,Pembangunan Perumahan,BASTIAN KORWA,"R3R2+2CP, Sorido, Kec. Biak Kota, Kabupaten Biak Numfor, Papua","Kabupaten Biak Numfor, Papua",PAPUA,,Indonesia,81248490286.0,-11.599.249,1.360.510.628,https://maps.google.com/?cid=0x0:0xfed477cba94b252f
perumahan,Kantor Hubungan Masyarakat,Perumahan Darfuar,"V388+73H, Dafuar, Kec. Samofa, Kabupaten Biak Numfor, Papua 98156","Dafuar, Kec. Samofa, Kabupaten Biak Numfor",PAPUA,98156.0,Indonesia,,-11.343.089,1.360.652.262,https://maps.google.com/?cid=0x0:0xf62a711a193c1c86
perumahan,Komplek perumahan,Nista sandy,"V24Q+228, Insrom, Kec. Biak Kota, Kabupaten Biak Numfor, Papua","Kabupaten Biak Numfor, Papua",PAPUA,,Indonesia,,-11.449.514,1.360.375.827,https://maps.google.com/?cid=0x0:0xdc78eb2c69fbe912
perumahan,Pembangunan Perumahan,Nazaret Biak PAPUA,"R3V7+9PC, Naazaret Biak, Sorido, Kec. Biak Kota, Kabupaten Biak Numfor, Papua 98113","Naazaret Biak, Sorido, Kec. Biak Kota, Kabupaten Biak Numfor",PAPUA,98113.0,Indonesia,82179854481.0,-11.565.527,1.360.642.656,https://maps.google.com/?cid=0x0:0x30fa2fe8b728dc42
perumahan,Perumahan,Rumah Bpk Godlief Kawer (Kantor Koperasi Biak Jaya Lestari - Biak Papua),"V345+GFH, Dafuar, Kec. Samofa, Kabupaten Biak Numfor, Papua 98113","Dafuar, Kec. Samofa, Kabupaten Biak Numfor",PAPUA,98113.0,Indonesia,81386990469.0,-11.436.826,1.360.587.299,https://maps.google.com/?cid=0x0:0xc109ce7ddccfa9ea
perumahan,Pembangunan Perumahan,Perumahan Griya Kelapa Gading Sorido,"R3P4+8VG, Jl. Jendral Sudirman, Sorido, Kec. Biak Kota, Kabupaten Biak Numfor, Papua 98115","Jl. Jendral Sudirman, Sorido, Kec. Biak Kota, Kabupaten Biak Numfor",PAPUA,98115.0,Indonesia,,-11.641.764,1.360.571.917,https://maps.google.com/?cid=0x0:0xd1157d94a6d4fdac
perumahan,perumahan,Kunjungan Kembali,"R3R2+VMF, Sorido, Kec. Biak Kota, Kabupaten Biak Numfor, Papua","Kabupaten Biak Numfor, Papua",PAPUA,,Indonesia,,-11.572.747,1.360.518.249,https://maps.google.com/?cid=0x0:0x27401a0aa94d151b
perumahan,Vila,Kota Biak,"Pulau Biak, Syabes, Kec. Yendidori, Kabupaten Biak Numfor, Papua","Kabupaten Biak Numfor, Papua",PAPUA,,Indonesia,,-10.381.022,1.359.800.848,https://maps.google.com/?cid=0x0:0xfec01015da554912
perumahan,Kompleks Apartemen,Sanwari,"V24P+7R9, Insrom, Kec. Biak Kota, Kabupaten Biak Numfor, Papua 98115","Insrom, Kec. Biak Kota, Kabupaten Biak Numfor",PAPUA,98115.0,Indonesia,,-11.452.751,1.360.371.258,https://maps.google.com/?cid=0x0:0x748625a0784fe814
perumahan,Perhimpunan Pengembang Perumahan,rumah Q,"V23R+5G8, Insrom, Kec. Biak Kota, Kabupaten Biak Numfor, Papua 98115","Insrom, Kec. Biak Kota, Kabupaten Biak Numfor",PAPUA,98115.0,Indonesia,,-11.465.571,1.360.415.477,https://maps.google.com/?cid=0x0:0x67d9e9deff81dea0
perumahan,Perumahan,KIFANDRA,"Griya Mandouw Indah 2 No.P.09, Kelurahan Mansinyas, Kec. Samofa, Kabupaten Biak Numfor, Papua","Kabupaten Biak Numfor, Papua",PAPUA,,Indonesia,,-11.555.538,1.360.959.858,https://maps.google.com/?cid=0x0:0x318f31f92c15beaf
perumahan,Komplek perumahan,GRIYA MANDOUW INDAH,"Mandouw, Kec. Samofa, Kabupaten Biak Numfor, Papua 98111","Kec. Samofa, Kabupaten Biak Numfor",PAPUA,98111.0,Indonesia,,-11.542.156,1.360.910.217,https://maps.google.com/?cid=0x0:0x6fbcf36b4d32d003
perumahan,Pembangunan Perumahan,Perumahan Griya Kelapa Gading Sorido,"R3P4+8VG, Jl. Jendral Sudirman, Sorido, Kec. Biak Kota, Kabupaten Biak Numfor, Papua 98115","Jl. Jendral Sudirman, Sorido, Kec. Biak Kota, Kabupaten Biak Numfor",PAPUA,98115.0,Indonesia,,-11.641.764,1.360.571.917,https://maps.google.com/?cid=0x0:0xd1157d94a6d4fdac
perumahan,perumahan,Kec. Biak Kota,"Kabupaten Biak Numfor, Papua","Kabupaten Biak Numfor, Papua",PAPUA,,Indonesia,,-11.837.602,1.360.797.406,https://maps.google.com/?cid=0x0:0x28487caea0b09c5a
perumahan,Komplek perumahan,rumah ilham,"R3HW+RGR, Samofa, Kec. Samofa, Kabupaten Biak Numfor, Papua 98118","Samofa, Kec. Samofa, Kabupaten Biak Numfor",PAPUA,98118.0,Indonesia,,-11.715.733,1.360.962.128,https://maps.google.com/?cid=0x0:0x803aebcde1595eef
perumahan,Komplek perumahan,Rumah ica,"R3CQ+7RG, Mandala, Kec. Biak Kota, Kabupaten Biak Numfor, Papua 98111","Mandala, Kec. Biak Kota, Kabupaten Biak Numfor",PAPUA,98111.0,Indonesia,,-11.786.458,1.360.901.393,https://maps.google.com/?cid=0x0:0xebb80a11cb006f68
perumahan,Komplek perumahan,Griya inggiri indah,"V22V+96J, Jl. Raya Sorido, Inggiri, Kec. Biak Kota, Kabupaten Biak Numfor, Papua 98115","Jl. Raya Sorido, Inggiri, Kec. Biak Kota, Kabupaten Biak Numfor",PAPUA,98115.0,Indonesia,,-11.490.426,1.360.430.055,https://maps.google.com/?cid=0x0:0x276096e92427c67
perumahan,Komplek perumahan,YAFDAS - BIAK KOTA,"R3R9+HJ7, Jl. Yafdas, Yafdas, Kec. Samofa, Kabupaten Biak Numfor, Papua 98112","Jl. Yafdas, Yafdas, Kec. Samofa, Kabupaten Biak Numfor",PAPUA,98112.0,Indonesia,,-11.585.358,1.360.692.626,https://maps.google.com/?cid=0x0:0x99874dd23ca4c1a8
perumahan,Komplek perumahan,Biak kota,"R47G+Q62, Swapodibo, Kec. Biak Kota, Kabupaten Biak Numfor, Papua 98118","Swapodibo, Kec. Biak Kota, Kabupaten Biak Numfor",PAPUA,98118.0,Indonesia,,-11.856.086,1.361.255.143,https://maps.google.com/?cid=0x0:0x689d90f2041bcbbe
perumahan,Komplek perumahan,Ari Waskito D,"R3CG+453, Jl. Erlangga, Burokub, Kec. Biak Kota, Kabupaten Biak Numfor, Papua 98111","Jl. Erlangga, Burokub, Kec. Biak Kota, Kabupaten Biak Numfor",PAPUA,98111.0,Indonesia,,-11.797.354,1.360.754.079,https://maps.google.com/?cid=0x0:0xded2ba212b6df5f6
perumahan,Komplek perumahan,My Home,"Jl. Yos Sudarso No.15, Mandala, Kec. Biak Kota, Kabupaten Biak Numfor, Papua 98118","Mandala, Kec. Biak Kota, Kabupaten Biak Numfor",PAPUA,98118.0,Indonesia,,-11.878.033,1.360.927.246,https://maps.google.com/?cid=0x0:0xdbbe878a2973f748
perumahan,Komplek perumahan,Matkussa Fams,"R39Q+XJ3, Mandala, Kec. Biak Kota, Kabupaten Biak Numfor, Papua 98111","Mandala, Kec. Biak Kota, Kabupaten Biak Numfor",PAPUA,98111.0,Indonesia,,-1.180.051,1.360.888.957,https://maps.google.com/?cid=0x0:0xfc31e27a6e77af10
perumahan,Komplek perumahan,Rumah,"Jl. Raya Dolog No.162, Mandala, Kec. Biak Kota, Kabupaten Biak Numfor, Papua 98111","Mandala, Kec. Biak Kota, Kabupaten Biak Numfor",PAPUA,98111.0,Indonesia,,-11.816.009,1.360.868.978,https://maps.google.com/?cid=0x0:0xa29c834e5e4b0426
perumahan,perumahan,Biak kota,"R37Q+9CF, Jl. Yenures, Mandala, Kec. Biak Kota, Kabupaten Biak Numfor, Papua 98111","Jl. Yenures, Mandala, Kec. Biak Kota, Kabupaten Biak Numfor",PAPUA,98111.0,Indonesia,,-11.865.713,1.360.885.472,https://maps.google.com/?cid=0x0:0x5abb374efc06258f
perumahan,perumahan,Papua,,Papua,PAPUA,,Indonesia,,-4.269.928,1.380.803.529,https://maps.google.com/?cid=0x0:0xeba94e9c5eefe673
perumahan,Komplek perumahan,Griya inggiri indah,"V22V+96J, Jl. Raya Sorido, Inggiri, Kec. Biak Kota, Kabupaten Biak Numfor, Papua 98115","Jl. Raya Sorido, Inggiri, Kec. Biak Kota, Kabupaten Biak Numfor",PAPUA,98115.0,Indonesia,,-11.490.426,1.360.430.055,https://maps.google.com/?cid=0x0:0x276096e92427c67
perumahan,Komplek perumahan,Perumahan Artamakmur Regency,"Jl. Adibai Sumberker Samofa No.Dalam, Mandouw, Kec. Samofa, Kabupaten Biak Numfor, Papua 98118","Mandouw, Kec. Samofa, Kabupaten Biak Numfor",PAPUA,98118.0,Indonesia,81291262115.0,-11.526.874,136.088.976,https://maps.google.com/?cid=0x0:0xeec5bf472fe70b90
perumahan,Pembangunan Perumahan,Perumahan Griya Kelapa Gading Sorido,"R3P4+8VG, Jl. Jendral Sudirman, Sorido, Kec. Biak Kota, Kabupaten Biak Numfor, Papua 98115","Jl. Jendral Sudirman, Sorido, Kec. Biak Kota, Kabupaten Biak Numfor",PAPUA,98115.0,Indonesia,,-11.641.764,1.360.571.917,https://maps.google.com/?cid=0x0:0xd1157d94a6d4fdac
perumahan,Vila,Kota Biak,"Pulau Biak, Syabes, Kec. Yendidori, Kabupaten Biak Numfor, Papua","Kabupaten Biak Numfor, Papua",PAPUA,,Indonesia,,-10.381.022,1.359.800.848,https://maps.google.com/?cid=0x0:0xfec01015da554912
perumahan,Tempat Cukur Rambut,Pindah perumahan intel korem,"jalan majapahit,jalur dua lampu merah ,biak, Samofa, Biak Numfor Regency, Papua 98111","Samofa, Biak Numfor Regency",PAPUA,98111.0,Indonesia,82214073232.0,-11.769.662,1.360.912.612,https://maps.google.com/?cid=0x0:0xa60aa5706a4ecb39
perumahan,Komplek perumahan,LOKASI RUMAH,"R3VP+64V, Mandouw, Kec. Samofa, Kabupaten Biak Numfor, Papua","Kabupaten Biak Numfor, Papua",PAPUA,,Indonesia,81250676873.0,-11.568.829,1.360.853.093,https://maps.google.com/?cid=0x0:0x2662e260e70265d5
perumahan,Komplek perumahan,PERUMAHAN PINANG INDAH VILLAGE,"Holtekamp, Samping SD Kampung Holtekamp, Jl. Hanurata, Holtekam, Kec. Muara Tami, Kota Jayapura, Papua 99351","Samping SD Kampung Holtekamp, Jl. Hanurata, Holtekam, Kec. Muara Tami, Kota Jayapura",PAPUA,99351.0,Indonesia,8219881922.0,-26.417.081,1.407.771.988,https://maps.google.com/?cid=0x0:0xafdd84ef15a42989
perumahan,Pembangunan Perumahan,Perumahan pinang indah,"9Q9Q+G97, Holtekam, Kec. Muara Tami, Kota Jayapura, Papua","Kota Jayapura, Papua",PAPUA,,Indonesia,,-26.312.155,1.407.884.322,https://maps.google.com/?cid=0x0:0x17c32e5515b5c2d
perumahan,perumahan,Kec. Biak Kota,"Kabupaten Biak Numfor, Papua","Kabupaten Biak Numfor, Papua",PAPUA,,Indonesia,,-11.837.602,1.360.797.406,https://maps.google.com/?cid=0x0:0x28487caea0b09c5a
perumahan,Komplek perumahan,Perumahan guru sorido Biak Kota,"R3P7+2WF, Sorido, Kec. Biak Kota, Kabupaten Biak Numfor, Papua 98113","Sorido, Kec. Biak Kota, Kabupaten Biak Numfor",PAPUA,98113.0,Indonesia,,-11.642.759,1.360.636.996,https://maps.google.com/?cid=0x0:0xca7b04a1ecf05056
perumahan,Komplek perumahan,Rumah Dinas Bea Cukai Biak,"Jl. Marsudi, RT.002/RW.004, Samofa, Kec. Samofa, Kabupaten Biak Numfor, Papua 98111","RT.002/RW.004, Samofa, Kec. Samofa, Kabupaten Biak Numfor",PAPUA,98111.0,Indonesia,,-11.661.145,1.360.840.071,https://maps.google.com/?cid=0x0:0x724b5b98726c39ea
perumahan,Komplek perumahan,Unani House,"R39R+4F8, Mandala, Kec. Biak Kota, Kabupaten Biak Numfor, Papua 98111","Mandala, Kec. Biak Kota, Kabupaten Biak Numfor",PAPUA,98111.0,Indonesia,,-11.822.166,1.360.912.129,https://maps.google.com/?cid=0x0:0x5012d736570421b9
perumahan,Komplek perumahan,YAFDAS - BIAK KOTA,"R3R9+HJ7, Jl. Yafdas, Yafdas, Kec. Samofa, Kabupaten Biak Numfor, Papua 98112","Jl. Yafdas, Yafdas, Kec. Samofa, Kabupaten Biak Numfor",PAPUA,98112.0,Indonesia,,-11.585.358,1.360.692.626,https://maps.google.com/?cid=0x0:0x99874dd23ca4c1a8
perumahan,perumahan,Papua 98153,"Kabupaten Biak Numfor, Papua","Kabupaten Biak Numfor, Papua",PAPUA,,Indonesia,,-0.9418311,1.360.372.508,https://maps.google.com/?cid=0x0:0xdaa7c4e762f36ed7
perumahan,Komplek perumahan,ENDRE,"X2MV+CWR, Warsansan, Distrik Biak Utara, Kabupaten Biak Numfor, Papua 98153","Warsansan, Distrik Biak Utara, Kabupaten Biak Numfor",PAPUA,98153.0,Indonesia,,-10.163.946,136.044.757,https://maps.google.com/?cid=0x0:0x9d2a2ae87c509839
perumahan,Komplek perumahan,Rumah Daud,"32VV+RXQ, Saukobye, Distrik Biak Utara, Kabupaten Biak Numfor, Papua 98153","Saukobye, Distrik Biak Utara, Kabupaten Biak Numfor",PAPUA,98153.0,Indonesia,,-0.90541,136.044.995,https://maps.google.com/?cid=0x0:0xab8411e0edb41807
perumahan,Komplek perumahan,Rumah Masgam,"32RV+H5X, Saukobye, Distrik Biak Utara, Kabupaten Biak Numfor, Papua 98153","Saukobye, Distrik Biak Utara, Kabupaten Biak Numfor",PAPUA,98153.0,Indonesia,,-0.9085012,1.360.429.787,https://maps.google.com/?cid=0x0:0x8c7b99764905c84d
perumahan,Komplek perumahan,Samofa biak,"XX6J+Q24 Jin pemda 1 biak, Syabes, Kec. Yendidori, Kabupaten Biak Numfor, Papua 98156","Syabes, Kec. Yendidori, Kabupaten Biak Numfor",PAPUA,98156.0,Indonesia,,-10.381.022,1.359.800.848,https://maps.google.com/?cid=0x0:0x98038044d0b6c9ab
perumahan,Komplek perumahan,Marires,"32Q8+58M, Rosayendi, Distrik Biak Utara, Kabupaten Biak Numfor, Papua 98153","Rosayendi, Distrik Biak Utara, Kabupaten Biak Numfor",PAPUA,98153.0,Indonesia,,-0.9120354,1.360.158.056,https://maps.google.com/?cid=0x0:0xb29a0f69c1896436
perumahan,perumahan,Kel. Y Wabdaron,"42PH+MXV, Waromi, Distrik Biak Utara, Kabupaten Biak Numfor, Papua 98153","Waromi, Distrik Biak Utara, Kabupaten Biak Numfor",PAPUA,98153.0,Indonesia,,-0.8631257,1.360.295.381,https://maps.google.com/?cid=0x0:0xc32cb0849b38e40c
perumahan,Pembangunan Perumahan,Merauke,"3289+X3, Nermnu, Distrik Biak Utara, Kabupaten Biak Numfor, Papua","Kabupaten Biak Numfor, Papua",PAPUA,,Indonesia,,-0.9325669,1.360.177.094,https://maps.google.com/?cid=0x0:0xc0acb86e04455a47
perumahan,Pembangunan Perumahan,Kampung Rosayendi,"32WH+5CQ, Rosayendi, Distrik Biak Utara, Kabupaten Biak Numfor, Papua 98153","Rosayendi, Distrik Biak Utara, Kabupaten Biak Numfor",PAPUA,98153.0,Indonesia,,-0.9042686,1.360.277.654,https://maps.google.com/?cid=0x0:0x17dfcf8eb1f2cb06
perumahan,Komplek perumahan,Mori Kapitarauw,"Jln. SMA N 01 Biak Utara, kampung Warbon, Andei, Distrik Biak Utara, Kabupaten Biak Numfor, Papua 98153","kampung Warbon, Andei, Distrik Biak Utara, Kabupaten Biak Numfor",PAPUA,98153.0,Indonesia,,-0.9199431,1.360.419.192,https://maps.google.com/?cid=0x0:0x5a70e3a6516e2cf8
perumahan,Pembangunan Perumahan,Kampung Rosayendi,"426Q+PVJ, Korem, Distrik Biak Utara, Kabupaten Biak Numfor, Papua 98153","Korem, Distrik Biak Utara, Kabupaten Biak Numfor",PAPUA,98153.0,Indonesia,,-0.8881559,1.360.396.342,https://maps.google.com/?cid=0x0:0x34edddd9a6f2be20
perumahan,Komplek perumahan,Eltim cps,"23R2+HJ, Mambesak, Distrik Biak Utara, Kabupaten Biak Numfor, Papua","Kabupaten Biak Numfor, Papua",PAPUA,,Indonesia,,-0.9585349,1.360.515.838,https://maps.google.com/?cid=0x0:0xd0596ad44a32e519
perumahan,Sekolah Dasar,Biak utara,"32WV+67H, Saukobye, Distrik Biak Utara, Kabupaten Biak Numfor, Papua","Kabupaten Biak Numfor, Papua",PAPUA,,Indonesia,,-0.9044366,1.360.432.318,https://maps.google.com/?cid=0x0:0xe136d2c885fcbe69
perumahan,Komplek perumahan,Perumahan BTN Korem Indah Permai,"XX6J+Q24, Syabes, Kec. Yendidori, Kabupaten Biak Numfor, Papua","Kabupaten Biak Numfor, Papua",PAPUA,,Indonesia,,-10.381.022,1.359.800.848,https://maps.google.com/?cid=0x0:0xc21da33a72f7e2c5
perumahan,perumahan,Papua 98152,"Kabupaten Biak Numfor, Papua","Kabupaten Biak Numfor, Papua",PAPUA,,Indonesia,,-10.707.188,1.362.474.381,https://maps.google.com/?cid=0x0:0x5f671ec5fdbb6997
perumahan,Komplek perumahan,Perumahan Artamakmur Regency,"Jl. Adibai Sumberker Samofa No.Dalam, Mandouw, Kec. Samofa, Kabupaten Biak Numfor, Papua 98118","Mandouw, Kec. Samofa, Kabupaten Biak Numfor",PAPUA,98118.0,Indonesia,81291262115.0,-11.526.874,136.088.976,https://maps.google.com/?cid=0x0:0xeec5bf472fe70b90
perumahan,Otoritas Perumahan,Perumahan Guru SMPN. 2 Biak Timur,"R7R8+67F, Bakribo, Distrik Oridek, Kabupaten Biak Numfor, Papua 98152","Bakribo, Distrik Oridek, Kabupaten Biak Numfor",PAPUA,98152.0,Indonesia,,-11.594.462,1.362.656.698,https://maps.google.com/?cid=0x0:0xf43b68db2bef09c9
perumahan,Komplek perumahan,Rumah Dinas Bea Cukai Biak,"Jl. Marsudi, RT.002/RW.004, Samofa, Kec. Samofa, Kabupaten Biak Numfor, Papua 98111","RT.002/RW.004, Samofa, Kec. Samofa, Kabupaten Biak Numfor",PAPUA,98111.0,Indonesia,,-11.661.145,1.360.840.071,https://maps.google.com/?cid=0x0:0x724b5b98726c39ea
perumahan,Komplek perumahan,Kampung Yenusi,"R6G2+83V, Mandon, Kec. Biak Tim., Kabupaten Biak Numfor, Papua 98152","Mandon, Kec. Biak Tim., Kabupaten Biak Numfor",PAPUA,98152.0,Indonesia,,-11.741.373,1.362.001.682,https://maps.google.com/?cid=0x0:0x87ada4a5e1346587
perumahan,perumahan,LKM 24 maryeno,"Jl. Raya Maraw No.km 24, maryenbo, Distrik Oridek, Kabupaten Biak Numfor, Papua","Kabupaten Biak Numfor, Papua",PAPUA,,Indonesia,,-11.575.652,1.362.305.891,https://maps.google.com/?cid=0x0:0xe2b2cd63a886658a
perumahan,Komplek perumahan,Bosnik,"R6JW+XGG, Jl. Raya Bosnik, Bindusi, Kec. Biak Tim., Kabupaten Biak Numfor, Papua","Kabupaten Biak Numfor, Papua",PAPUA,,Indonesia,,-11.675.661,1.362.463.208,https://maps.google.com/?cid=0x0:0x230072dbe9e717da
perumahan,Kompleks Apartemen,Kaumfuar Serumi Biak Timur,"Q697+XMM, Sareidi, Kec. Biak Tim., Kabupaten Biak Numfor, Papua","Kabupaten Biak Numfor, Papua",PAPUA,,Indonesia,82198455971.0,-123.004,1.362.141.841,https://maps.google.com/?cid=0x0:0xd7fc5501bf40e4e9
perumahan,Pembangunan Perumahan,Perumahan Ambroben Sup,"R4MF+FXH, Manswam, Kec. Biak Kota, Kabupaten Biak Numfor, Papua 98118","Manswam, Kec. Biak Kota, Kabupaten Biak Numfor",PAPUA,98118.0,Indonesia,,-11.663.089,1.361.249.781,https://maps.google.com/?cid=0x0:0x367c82092961a7a9
perumahan,perumahan,Boyapen (Kompleks Kel. Besar Simyapen),"V64F+J2P, Rimba Jaya, Kec. Biak Tim., Kabupaten Biak Numfor, Papua 98152","Rimba Jaya, Kec. Biak Tim., Kabupaten Biak Numfor",PAPUA,98152.0,Indonesia,,-11.434.215,1.362.225.727,https://maps.google.com/?cid=0x0:0x89be24f4eec61457
perumahan,Komplek perumahan,Desa Yenusi,"R6G4+VJ5, Yenusi, Kec. Biak Tim., Kabupaten Biak Numfor, Papua 98152","Yenusi, Kec. Biak Tim., Kabupaten Biak Numfor",PAPUA,98152.0,Indonesia,,-11.728.521,1.362.065.981,https://maps.google.com/?cid=0x0:0x811a6118c785aa23
perumahan,Komplek perumahan,GRIYA MANDOUW INDAH,"Mandouw, Kec. Samofa, Kabupaten Biak Numfor, Papua 98111","Kec. Samofa, Kabupaten Biak Numfor",PAPUA,98111.0,Indonesia,,-11.542.156,1.360.910.217,https://maps.google.com/?cid=0x0:0x6fbcf36b4d32d003
perumahan,Komplek perumahan,Mokmer 2,"R42P+98X, Mokmer, Kec. Biak Kota, Kabupaten Biak Numfor, Papua 98118","Mokmer, Kec. Biak Kota, Kabupaten Biak Numfor",PAPUA,98118.0,Indonesia,,-11.990.061,1.361.358.438,https://maps.google.com/?cid=0x0:0x83727b1af5c27303
perumahan,perumahan,Biak kota,"R3WR+JR9, Mandouw, Kec. Samofa, Kabupaten Biak Numfor, Papua","Kabupaten Biak Numfor, Papua",PAPUA,,Indonesia,,-11.534.647,1.360.920.984,https://maps.google.com/?cid=0x0:0x574797afd80e3340
perumahan,perumahan,Papua 98172,"Kabupaten Biak Numfor, Papua","Kabupaten Biak Numfor, Papua",PAPUA,,Indonesia,,-10.910.129,1.349.066.503,https://maps.google.com/?cid=0x0:0x961f86bb7868e68d
perumahan,Kompleks Kondominium,Kampung Baruki,"XQVX+V72, Distrik Numfor Barat, Kabupaten Biak Numfor, Papua 98172","Distrik Numfor Barat, Kabupaten Biak Numfor",PAPUA,98172.0,Indonesia,,-10.053.651,1.347.981.467,https://maps.google.com/?cid=0x0:0xa3cc090e78ced262
perumahan,Pembangunan Perumahan,Serbin kampung lama,"XQMW+MVF, Distrik Numfor Barat, Kabupaten Biak Numfor, Papua 98172","Distrik Numfor Barat, Kabupaten Biak Numfor",PAPUA,98172.0,Indonesia,,-10.158.241,1.347.971.566,https://maps.google.com/?cid=0x0:0xe5083fa3043ecb9e
perumahan,Pembangunan Perumahan,Kediaman ibu M Kawyan,"XRVW+C8Q, Kansai, Distrik Numfor Barat, Kabupaten Biak Numfor, Papua","Kabupaten Biak Numfor, Papua",PAPUA,,Indonesia,,-10.064.039,1.348.458.713,https://maps.google.com/?cid=0x0:0x488a23409b494fc9
perumahan,Komplek perumahan,Guru. Dortheus Rumsaro,"VV7R+52G, Pakreki, Kec. Orkeri, Kabupaten Biak Numfor, Papua","Kabupaten Biak Numfor, Papua",PAPUA,,Indonesia,,-11.370.535,1.348.900.643,https://maps.google.com/?cid=0x0:0x398d95c0f526a6c0
perumahan,Tujuan Wisata,Yenbeba,"VVG7+WR4, Yenbeba, Kec. Orkeri, Kabupaten Biak Numfor, Papua 98172","Yenbeba, Kec. Orkeri, Kabupaten Biak Numfor",PAPUA,98172.0,Indonesia,,-11.227.356,1.348.645.811,https://maps.google.com/?cid=0x0:0x481f9f795bb0335d
perumahan,Pembangunan Perumahan,Segitiga waryabo kampung semayen,"XRX3+54H, Kansai, Distrik Numfor Barat, Kabupaten Biak Numfor, Papua","Kabupaten Biak Numfor, Papua",PAPUA,,Indonesia,,-10.022.988,1.348.029.807,https://maps.google.com/?cid=0x0:0x2356b805be858fdc
perumahan,Pembangunan Perumahan,Duain numfor,"WW6Q+WH4, Duai, Distrik Bruyadori, Kabupaten Biak Numfor, Papua","Kabupaten Biak Numfor, Papua",PAPUA,,Indonesia,,-10.877.461,1.349.389.425,https://maps.google.com/?cid=0x0:0xfd6033b85b66fe67
perumahan,perumahan,Kampung inasi,"WWM4+73H, Sandau, Distrik Bruyadori, Kabupaten Biak Numfor, Papua","Kabupaten Biak Numfor, Papua",PAPUA,,Indonesia,,-1.066.821,1.349.052.309,https://maps.google.com/?cid=0x0:0xd013a26f42ca0872
perumahan,Komplek perumahan,"Pakreki, Kec. Orkeri, Kabupaten Biak Numfor","VW85+63X, Pakreki, Kec. Orkeri, Kabupaten Biak Numfor, Papua","Kabupaten Biak Numfor, Papua",PAPUA,,Indonesia,,-1.134.376,1.349.077.303,https://maps.google.com/?cid=0x0:0xdd02f103ecc40813
perumahan,Komplek perumahan,Kampung Warsa,"VVGC+74Q, Yenbeba, Kec. Orkeri, Kabupaten Biak Numfor, Papua","Kabupaten Biak Numfor, Papua",PAPUA,,Indonesia,,-11.242.869,1.348.703.628,https://maps.google.com/?cid=0x0:0x2f584edac6c93d6
perumahan,Pembangunan Perumahan,MAX BASTIAN,"2RJ9+MJH, Yenmanu, Distrik Numfor Barat, Kabupaten Biak Numfor, Papua","Kabupaten Biak Numfor, Papua",PAPUA,,Indonesia,,-0.9683181,1.348.191.138,https://maps.google.com/?cid=0x0:0xe232479342ccd71f
perumahan,Pembangunan Perumahan,Ambermasi,"2R33+G53, Kameri, Distrik Numfor Barat, Kabupaten Biak Numfor, Papua","Kabupaten Biak Numfor, Papua",PAPUA,,Indonesia,,-0.9962366,1.348.029.364,https://maps.google.com/?cid=0x0:0x8e690eb095e101ee
perumahan,Pembangunan Perumahan,wansra,"VWCH+H4R, Masyara, Kec. Orkeri, Kabupaten Biak Numfor, Papua","Kabupaten Biak Numfor, Papua",PAPUA,,Indonesia,,-112.877,13.492.697,https://maps.google.com/?cid=0x0:0xad15754cbc1837fa
perumahan,Tujuan Wisata,Pantai syoribo. Numfor timur,"3W42+CWC, Syoribo, Distrik Poiru, Kabupaten Biak Numfor, Papua 98171","Syoribo, Distrik Poiru, Kabupaten Biak Numfor",PAPUA,98171.0,Indonesia,,-0.9431875,1.349.035.625,https://maps.google.com/?cid=0x0:0x5f21bd13e30859ab
perumahan,Perumahan,Kel Wambrauw,"3V87+4W8, Asaryendi, Numfor Tim., Kabupaten Biak Numfor, Papua","Kabupaten Biak Numfor, Papua",PAPUA,,Indonesia,,-0.9347117,1.348.648.351,https://maps.google.com/?cid=0x0:0x8579a681009058fd
perumahan,perumahan,Numfor Tim.,"Kabupaten Biak Numfor, Papua","Kabupaten Biak Numfor, Papua",PAPUA,,Indonesia,,-0.9371465,1.348.613.219,https://maps.google.com/?cid=0x0:0x672e64198372012
perumahan,Pembangunan Perumahan,Indaibo,"3V8G+2C8, indaibori, Numfor Tim., Kabupaten Biak Numfor, Papua 98171","indaibori, Numfor Tim., Kabupaten Biak Numfor",PAPUA,98171.0,Indonesia,,-0.9344901,1.348.756.001,https://maps.google.com/?cid=0x0:0x4a49da88798db709
perumahan,Pembangunan Perumahan,Pyefuri,"3R5Q+W6, Pyefuri, Numfor Tim., Kabupaten Biak Numfor, Papua","Kabupaten Biak Numfor, Papua",PAPUA,,Indonesia,,-0.9954012,1.348.879.576,https://maps.google.com/?cid=0x0:0x1214674ffa1111a2
perumahan,Kantor Pemerintah,ANDEI,"3V6R+X5, Rarsibo, ANDEI, Kabupaten Biak Numfor, Papua","Kabupaten Biak Numfor, Papua",PAPUA,,Indonesia,,-0.9376956,1.348.894.644,https://maps.google.com/?cid=0x0:0x3e6278816beb9eb8
perumahan,Komplek perumahan,Kel Markus Rumbiak,"3V7J+W59, Asaryendi, Numfor Tim., Kabupaten Biak Numfor, Papua 98171","Asaryendi, Numfor Tim., Kabupaten Biak Numfor",PAPUA,98171.0,Indonesia,,-0.9345072,1.348.785.342,https://maps.google.com/?cid=0x0:0x8cc6e6f53a68b21f
perumahan,Komplek perumahan,Kam Indaibori,"3V76+4GW, Yenburwo, Numfor Tim., Kabupaten Biak Numfor, Papua","Kabupaten Biak Numfor, Papua",PAPUA,,Indonesia,,-0.9371465,1.348.613.219,https://maps.google.com/?cid=0x0:0x3e09785e6ed759a0
perumahan,Kompleks Kondominium,Kampung Baruki,"XQVX+V72, Distrik Numfor Barat, Kabupaten Biak Numfor, Papua 98172","Distrik Numfor Barat, Kabupaten Biak Numfor",PAPUA,98172.0,Indonesia,,-10.053.651,1.347.981.467,https://maps.google.com/?cid=0x0:0xa3cc090e78ced262
perumahan,Pembangunan Perumahan,MAX BASTIAN,"2RJ9+MJH, Yenmanu, Distrik Numfor Barat, Kabupaten Biak Numfor, Papua","Kabupaten Biak Numfor, Papua",PAPUA,,Indonesia,,-0.9683181,1.348.191.138,https://maps.google.com/?cid=0x0:0xe232479342ccd71f
perumahan,perumahan,Rumah Queen,"3W33+PW, Andei, Distrik Poiru, Kabupaten Biak Numfor, Papua 98171","Andei, Distrik Poiru, Kabupaten Biak Numfor",PAPUA,98171.0,Indonesia,,-0.9460365,134.904.514,https://maps.google.com/?cid=0x0:0x6de175b77fd80d14
perumahan,Pembangunan Perumahan,Kediaman ibu M Kawyan,"XRVW+C8Q, Kansai, Distrik Numfor Barat, Kabupaten Biak Numfor, Papua","Kabupaten Biak Numfor, Papua",PAPUA,,Indonesia,,-10.064.039,1.348.458.713,https://maps.google.com/?cid=0x0:0x488a23409b494fc9
perumahan,Komplek perumahan,Pasar Araima,"XWVC+X77, Bawei, Distrik Poiru, Kabupaten Biak Numfor, Papua 98171","Bawei, Distrik Poiru, Kabupaten Biak Numfor",PAPUA,98171.0,Indonesia,,-10.050.966,1.349.206.649,https://maps.google.com/?cid=0x0:0x1ea5c6109bfd64aa
perumahan,Komplek perumahan,Irbor Sauri BAWEI NUMFOR BARAT,"XWVC+X77, Bawei, Distrik Poiru, Kabupaten Biak Numfor, Papua 98171","Bawei, Distrik Poiru, Kabupaten Biak Numfor",PAPUA,98171.0,Indonesia,,-10.050.966,1.349.206.649,https://maps.google.com/?cid=0x0:0x4e4df25b8f8b219e
perumahan,perumahan,Papua 98154,"Kabupaten Biak Numfor, Papua","Kabupaten Biak Numfor, Papua",PAPUA,,Indonesia,,-0.9529483,1.358.659.561,https://maps.google.com/?cid=0x0:0x7baacb17c171a3e7
perumahan,Toko bahan makanan,Wardo,"XR9H+5MV, Kanaan, Distrik Biak Barat, Kabupaten Biak Numfor, Papua 98154","Kanaan, Distrik Biak Barat, Kabupaten Biak Numfor",PAPUA,98154.0,Indonesia,,-10.320.235,1.358.291.581,https://maps.google.com/?cid=0x0:0xd17615874189ceaa
perumahan,Komplek perumahan,Boamerica,"XR6M+W3J, Kanaan, Distrik Biak Barat, Kabupaten Biak Numfor, Papua 98154","Kanaan, Distrik Biak Barat, Kabupaten Biak Numfor",PAPUA,98154.0,Indonesia,82197577784.0,-10.363.164,1.358.325.754,https://maps.google.com/?cid=0x0:0xdcbdef544fed085b
perumahan,Pembangunan Perumahan,"KAMPUNG SOPEN, BIAK BARAT","XRW8+M74, Sopendo, Distrik Biak Barat, Kabupaten Biak Numfor, Papua 98154","Sopendo, Distrik Biak Barat, Kabupaten Biak Numfor",PAPUA,98154.0,Indonesia,,-10.033.732,1.358.156.877,https://maps.google.com/?cid=0x0:0xd698b819e14eab86
perumahan,Pembangunan Perumahan,Kampung sunbinya distrik biak barat kabupaten biak numfor,"XRMC+86, Opuri, Distrik Biak Barat, Kabupaten Biak Numfor, Papua","Kabupaten Biak Numfor, Papua",PAPUA,,Indonesia,,-10.166.831,1.358.205.371,https://maps.google.com/?cid=0x0:0x25507c13a9844819
perumahan,Komplek perumahan,"MNU SOPEN, BIAK BARAT","XRW8+FCM, Sopendo, Distrik Biak Barat, Kabupaten Biak Numfor, Papua 98154","Sopendo, Distrik Biak Barat, Kabupaten Biak Numfor",PAPUA,98154.0,Indonesia,,-10.037.835,1.358.160.592,https://maps.google.com/?cid=0x0:0x8c4a61c4389366db
perumahan,Komplek perumahan,"Kampung Yenburwo,Biak Barat,Papua","XRGH+RG, Asaryendi, Distrik Biak Barat, Kabupaten Biak Numfor, Papua","Kabupaten Biak Numfor, Papua",PAPUA,,Indonesia,,-10.239.452,13.582.905,https://maps.google.com/?cid=0x0:0x6690284683bca0b1
perumahan,Pembangunan Perumahan,kampung saswarbo,"5QF3+C65, jln. swandiwe, Wombrisauw, kota biak, Kabupaten Biak Numfor, Papua 98154","jln. swandiwe, Wombrisauw, kota biak, Kabupaten Biak Numfor",PAPUA,98154.0,Indonesia,,-0.826487,1.357.531.244,https://maps.google.com/?cid=0x0:0x517206b61c38f16e
perumahan,Komplek perumahan,Kel Bonsapia,"2QQV+RJQ, Farusi, Distrik Swandiwe, Kabupaten Biak Numfor, Papua","Kabupaten Biak Numfor, Papua",PAPUA,,Indonesia,,-0.960405,135.794.123,https://maps.google.com/?cid=0x0:0x4c3364d08c383c69
perumahan,Komplek perumahan,Biak Numfor,"XR3R+72H, Kanaan, Distrik Biak Barat, Kabupaten Biak Numfor, Papua 98154","Kanaan, Distrik Biak Barat, Kabupaten Biak Numfor",PAPUA,98154.0,Indonesia,,-1.046.817,1.358.401.064,https://maps.google.com/?cid=0x0:0x35e5504501d627c3
perumahan,Komplek perumahan,Matius Sbiak,"Mamoribo, Distrik Biak Barat, Kabupaten Biak Numfor, Papua","Kabupaten Biak Numfor, Papua",PAPUA,,Indonesia,,-0.9946768,1.358.018.199,https://maps.google.com/?cid=0x0:0xaca26b16124e50a4
perumahan,Komplek perumahan,Sosmay,"WR9Q+MHC, Sosmay, Distrik Biak Barat, Kabupaten Biak Numfor, Papua","Kabupaten Biak Numfor, Papua",PAPUA,,Indonesia,,-10.808.165,135.838.887,https://maps.google.com/?cid=0x0:0xe9ebf2aa93f2a8e8
perumahan,Komplek perumahan,Rumah Willy Esau Mandowen,"Jalan Korderi No.1, Dusun Yenburwo, Distrik Biak Barat, Kabupaten Biak Numfor, Papua","Kabupaten Biak Numfor, Papua",PAPUA,,Indonesia,,-10.299.966,1.358.297.159,https://maps.google.com/?cid=0x0:0x9fcef26fbde135a6
perumahan,Komplek perumahan,Worawur,"WVP8+XR9, Yomdori, Distrik Biak Barat, Kabupaten Biak Numfor, Papua","Kabupaten Biak Numfor, Papua",PAPUA,,Indonesia,,-10.625.958,1.358.671.127,https://maps.google.com/?cid=0x0:0x1090795886ca5d10
perumahan,perumahan,Papua 98157,"Kabupaten Biak Numfor, Papua","Kabupaten Biak Numfor, Papua",PAPUA,,Indonesia,,-0.8013579,1.358.849.587,https://maps.google.com/?cid=0x0:0xc4bb574f645569e5
perumahan,Pembangunan Perumahan,Kampung Komboi,"6W5V+H4R, Komboy, Distrik Warsa, Kabupaten Biak Numfor, Papua 98157","Komboy, Distrik Warsa, Kabupaten Biak Numfor",PAPUA,98157.0,Indonesia,,-0.791015,1.359.427.515,https://maps.google.com/?cid=0x0:0x73a28a5aa4e7647c
perumahan,Komplek perumahan,Distrik Warsa,"6W6Q+7GM, Yeruboy, Distrik Warsa, Kabupaten Biak Numfor, Papua 98157","Yeruboy, Distrik Warsa, Kabupaten Biak Numfor",PAPUA,98157.0,Indonesia,,-0.7892888,1.359.387.939,https://maps.google.com/?cid=0x0:0xa2f4bec7ac6738e0
perumahan,Komplek perumahan,Warmaz,"6W3W+FM, Aman, Distrik Warsa, Kabupaten Biak Numfor, Papua","Kabupaten Biak Numfor, Papua",PAPUA,,Indonesia,,-0.7963121,13.594.665,https://maps.google.com/?cid=0x0:0xf401778b5812c570
perumahan,Komplek perumahan,Wenand Marsyom,"5XV6+VX, Diano, Distrik Warsa, Kabupaten Biak Numfor, Papua 98157","Diano, Distrik Warsa, Kabupaten Biak Numfor",PAPUA,98157.0,Indonesia,,-0.8053289,1.359.624.353,https://maps.google.com/?cid=0x0:0x9273fa1ab2948835
perumahan,Komplek perumahan,Rumah Kel Yesaya Rumbrawer,"6W6R+4VW, Warawaf, Distrik Warsa, Kabupaten Biak Numfor, Papua","Kabupaten Biak Numfor, Papua",PAPUA,,Indonesia,,-0.7896367,1.359.422.135,https://maps.google.com/?cid=0x0:0x8c8734a2ed265620
perumahan,Komplek perumahan,Indawi . Barend Brabar,"5XJQ+P54, Sor, Distrik Yawosi, Kabupaten Biak Numfor, Papua 98157","Sor, Distrik Yawosi, Kabupaten Biak Numfor",PAPUA,98157.0,Indonesia,,-0.8181544,1.359.879.443,https://maps.google.com/?cid=0x0:0xb8b82b4e751faa9c
perumahan,Komplek perumahan,ABIWARK WELA,"5XJP+6RH, indawi, Yawosi, Biak Numfor Regency, Papua 98157","indawi, Yawosi, Biak Numfor Regency",PAPUA,98157.0,Indonesia,,-0.8197333,1.359.860.833,https://maps.google.com/?cid=0x0:0x45c9bd39920d2a69
perumahan,Komplek perumahan,Kampung Warawaf,"6W6R+4VW, Yeruboy, Distrik Warsa, Kabupaten Biak Numfor, Papua","Kabupaten Biak Numfor, Papua",PAPUA,,Indonesia,,-0.7896367,1.359.422.135,https://maps.google.com/?cid=0x0:0x5cca17d9943059ff
perumahan,Komplek perumahan,Iram home,"6WM5+C2V, Koyomi, Distrik Warsa, Kabupaten Biak Numfor, Papua 98157","Koyomi, Distrik Warsa, Kabupaten Biak Numfor",PAPUA,98157.0,Indonesia,,-0.7663773,1.359.075.341,https://maps.google.com/?cid=0x0:0xc45f7805ce443e2
perumahan,Komplek perumahan,Desa supmbrur,"4WPV+WM, Wodu/Makuker, Distrik Andey, Kabupaten Biak Numfor, Papua","Kabupaten Biak Numfor, Papua",PAPUA,,Indonesia,,-0.8626774,1.359.441.189,https://maps.google.com/?cid=0x0:0x40e52e6f07a489e9
perumahan,Lembaga Agama,MAKUKER wodu,"5WG5+RW7, Ammoy, Distrik Warsa, Kabupaten Biak Numfor, Papua 98157","Ammoy, Distrik Warsa, Kabupaten Biak Numfor",PAPUA,98157.0,Indonesia,,-0.8229707,1.359.098.053,https://maps.google.com/?cid=0x0:0xdddb7a18a81649a5
perumahan,perumahan,Kel. Y Wabdaron,"42PH+MXV, Waromi, Distrik Biak Utara, Kabupaten Biak Numfor, Papua 98153","Waromi, Distrik Biak Utara, Kabupaten Biak Numfor",PAPUA,98153.0,Indonesia,,-0.8631257,1.360.295.381,https://maps.google.com/?cid=0x0:0xc32cb0849b38e40c
perumahan,Komplek perumahan,Mnu Marsyomi,"5XV6+VX, Diano, Distrik Warsa, Kabupaten Biak Numfor, Papua 98157","Diano, Distrik Warsa, Kabupaten Biak Numfor",PAPUA,98157.0,Indonesia,,-0.8053302,1.359.623.817,https://maps.google.com/?cid=0x0:0x1dae5aae23df34aa
perumahan,perumahan,Distrik Padaido,"Kabupaten Biak Numfor, Papua","Kabupaten Biak Numfor, Papua",PAPUA,,Indonesia,,-12.535.987,1.363.759.228,https://maps.google.com/?cid=0x0:0x3fb215253a432cb0
perumahan,Komplek perumahan,DESA INBEYOMI,"QCHQ+XC2, Pai, Distrik Padaido, Kabupaten Biak Numfor, Papua 98158","Pai, Distrik Padaido, Kabupaten Biak Numfor",PAPUA,98158.0,Indonesia,,-12.201.147,1.364.385.109,https://maps.google.com/?cid=0x0:0xac34317df5bcb553
perumahan,Komplek perumahan,Kampung Manumi,"Q8CF+5CR, Sandidori, Distrik Padaido, Kabupaten Biak Numfor, Papua 98158","Sandidori, Distrik Padaido, Kabupaten Biak Numfor",PAPUA,98158.0,Indonesia,,-12.295.154,1.363.235.126,https://maps.google.com/?cid=0x0:0xa6bc192505e05509
perumahan,perumahan,KIOS BAKOV,"QCRP+6QR Kios bakov, Pai, Distrik Padaido, Kabupaten Biak Numfor, Papua 98158","Pai, Distrik Padaido, Kabupaten Biak Numfor",PAPUA,98158.0,Indonesia,,-12.093.878,1.364.369.024,https://maps.google.com/?cid=0x0:0x959c5a9e1020dd1
perumahan,Komplek perumahan,"Awai,sandidori","Q8FJ+34X, Sandidori, Distrik Padaido, Kabupaten Biak Numfor, Papua","Kabupaten Biak Numfor, Papua",PAPUA,,Indonesia,,-12.272.665,1.363.303.673,https://maps.google.com/?cid=0x0:0x90029d3171dddd49
perumahan,perumahan,Kios bakov,"QCMP+44R, Pai, Distrik Padaido, Kabupaten Biak Numfor, Papua 98158","Pai, Distrik Padaido, Kabupaten Biak Numfor",PAPUA,98158.0,Indonesia,,-12.171.311,1.364.352.755,https://maps.google.com/?cid=0x0:0x1c1646935baebc64
perumahan,Pembangunan Perumahan,Mantri korwa,"P9WG+F8F, Wundi, Distrik Padaido, Kabupaten Biak Numfor, Papua","Kabupaten Biak Numfor, Papua",PAPUA,,Indonesia,,-12.538.162,1.363.757.898,https://maps.google.com/?cid=0x0:0xe5f7099faebad7e0
perumahan,Asosiasi/organisasi,Sekretariat pps kampung sokani,"P9WG+H97, P9RG+X52sokani, Distrik Padaido, Kabupaten Biak Numfor, Papua","Kabupaten Biak Numfor, Papua",PAPUA,,Indonesia,,-12.535.987,1.363.759.228,https://maps.google.com/?cid=0x0:0x62d11a71899aeb6
perumahan,Komplek perumahan,GRIYA MANDOUW INDAH,"Mandouw, Kec. Samofa, Kabupaten Biak Numfor, Papua 98111","Kec. Samofa, Kabupaten Biak Numfor",PAPUA,98111.0,Indonesia,,-11.542.156,1.360.910.217,https://maps.google.com/?cid=0x0:0x6fbcf36b4d32d003
perumahan,Pembangunan Perumahan,Perumahan Griya Kelapa Gading Sorido,"R3P4+8VG, Jl. Jendral Sudirman, Sorido, Kec. Biak Kota, Kabupaten Biak Numfor, Papua 98115","Jl. Jendral Sudirman, Sorido, Kec. Biak Kota, Kabupaten Biak Numfor",PAPUA,98115.0,Indonesia,,-11.641.764,1.360.571.917,https://maps.google.com/?cid=0x0:0xd1157d94a6d4fdac
perumahan,Komplek perumahan,Sosmai,"XWG9+23, Rarmpimbo, Kec. Yendidori, Kabupaten Biak Numfor, Papua 98155","Rarmpimbo, Kec. Yendidori, Kabupaten Biak Numfor",PAPUA,98155.0,Indonesia,,-10.248.873,1.359.176.796,https://maps.google.com/?cid=0x0:0xb216de9a0cad12b6
perumahan,perumahan,Papua 98155,"Kabupaten Biak Numfor, Papua","Kabupaten Biak Numfor, Papua",PAPUA,,Indonesia,,-10.788.059,1.359.229.866,https://maps.google.com/?cid=0x0:0xa4f1b9a1d481f173
perumahan,Komplek perumahan,Perumahan Tentara Yomdor,"WVRC+R6H, Yomdori, Distrik Biak Barat, Kabupaten Biak Numfor, Papua 98155","Yomdori, Distrik Biak Barat, Kabupaten Biak Numfor",PAPUA,98155.0,Indonesia,81344973236.0,-10.579.476,1.358.706.098,https://maps.google.com/?cid=0x0:0x308df9667fde0ab0
perumahan,Komplek perumahan,Kampung Padwa Sup,"VWV8+QV, Urfu, Kec. Yendidori, Kabupaten Biak Numfor, Papua 98155","Urfu, Kec. Yendidori, Kabupaten Biak Numfor",PAPUA,98155.0,Indonesia,,-11.055.192,1.359.171.871,https://maps.google.com/?cid=0x0:0x6d1dbcb3c53899e5
perumahan,Komplek perumahan,Birubi,"XX66+H6, Syabes, Kec. Yendidori, Kabupaten Biak Numfor, Papua","Kabupaten Biak Numfor, Papua",PAPUA,,Indonesia,,-1.038.536,1.359.605.272,https://maps.google.com/?cid=0x0:0xd5763f879080ae6e
perumahan,Komplek perumahan,Wabribau,"VW4X+7X4, Urfu, Kec. Yendidori, Kabupaten Biak Numfor, Papua 98155","Urfu, Kec. Yendidori, Kabupaten Biak Numfor",PAPUA,98155.0,Indonesia,,-11.443.692,1.359.499.556,https://maps.google.com/?cid=0x0:0x29ea0083185b30
perumahan,Komplek perumahan,Rumah Kaleb Mnubepiom,"XX83+HJ2, Syabes, Kec. Yendidori, Kabupaten Biak Numfor, Papua","Kabupaten Biak Numfor, Papua",PAPUA,,Indonesia,,-10.336.184,1.359.540.117,https://maps.google.com/?cid=0x0:0x14c8c09b7eda2afe
perumahan,Komplek perumahan,Rumah p lukman,"WX3F+V3, Suneri, Kec. Yendidori, Kabupaten Biak Numfor, Papua","Kabupaten Biak Numfor, Papua",PAPUA,,Indonesia,,-109.533,1.359.726.817,https://maps.google.com/?cid=0x0:0xa0b6b82e8edda88d
perumahan,Perhimpunan Pengembang Perumahan,Rumah Sunyar,"WW2J+3X5, Sunyar, Kec. Yendidori, Kabupaten Biak Numfor, Papua 98155","Sunyar, Kec. Yendidori, Kabupaten Biak Numfor",PAPUA,98155.0,Indonesia,,-10.998.562,1.359.324.982,https://maps.google.com/?cid=0x0:0xd0ea67a0b5d2bfc9
perumahan,Komplek perumahan,Siyabes,"XX85+C2, Syabes, Kec. Yendidori, Kabupaten Biak Numfor, Papua","Kabupaten Biak Numfor, Papua",PAPUA,,Indonesia,,-10.339.481,1.359.576.299,https://maps.google.com/?cid=0x0:0xa7884a78aa67d62e
perumahan,Perumahan,Kampung padwa,"RWXG+W45, Padwa, Kec. Yendidori, Kabupaten Biak Numfor, Papua 98155","Padwa, Kec. Yendidori, Kabupaten Biak Numfor",PAPUA,98155.0,Indonesia,,-11.502.296,1.359.253.643,https://maps.google.com/?cid=0x0:0x99985ceb6f6f14eb
perumahan,perumahan,Amii Boseren,"VW5R+V4, Urfu, Kec. Yendidori, Kabupaten Biak Numfor, Papua","Kabupaten Biak Numfor, Papua",PAPUA,,Indonesia,,-11.402.688,1.359.403.178,https://maps.google.com/?cid=0x0:0xe3626e56858e8109
perumahan,Komplek perumahan,rumah Aminah anggresu,"XW9X+CGR, Syabes, Kec. Yendidori, Kabupaten Biak Numfor, Papua","Kabupaten Biak Numfor, Papua",PAPUA,,Indonesia,,-10.313.787,135.948.752,https://maps.google.com/?cid=0x0:0xdcf13282dabd69f3
perumahan,perumahan,Urfu Sup,"VWQQ+JW, Sunyar, Kec. Yendidori, Kabupaten Biak Numfor, Papua 98155","Sunyar, Kec. Yendidori, Kabupaten Biak Numfor",PAPUA,98155.0,Indonesia,,-11.109.255,1.359.397.515,https://maps.google.com/?cid=0x0:0xb6bafd6bf9e43d33
perumahan,perumahan,Papua 98118,"Kabupaten Biak Numfor, Papua","Kabupaten Biak Numfor, Papua",PAPUA,,Indonesia,,-11.449.556,13.610.403,https://maps.google.com/?cid=0x0:0x25e958740e846491
perumahan,Komplek perumahan,"Kompleks ssc, samofa biak.","R3MQ+338, Samofa, Kec. Samofa, Kabupaten Biak Numfor, Papua","Kabupaten Biak Numfor, Papua",PAPUA,,Indonesia,,-11.673.498,1.360.876.931,https://maps.google.com/?cid=0x0:0xebfc3f09b2a168e6
perumahan,Komplek perumahan,Perumahan Artamakmur Regency,"Jl. Adibai Sumberker Samofa No.Dalam, Mandouw, Kec. Samofa, Kabupaten Biak Numfor, Papua 98118","Mandouw, Kec. Samofa, Kabupaten Biak Numfor",PAPUA,98118.0,Indonesia,81291262115.0,-11.526.874,136.088.976,https://maps.google.com/?cid=0x0:0xeec5bf472fe70b90
perumahan,Komplek perumahan,MARSUDI UNITED,"Jl. Temini No.9, Samofa, Kec. Samofa, Kabupaten Biak Numfor, Papua 98111","Samofa, Kec. Samofa, Kabupaten Biak Numfor",PAPUA,98111.0,Indonesia,,-11.664.132,1.360.843.328,https://maps.google.com/?cid=0x0:0x7d48171159a4aa9a
perumahan,Komplek perumahan,Felis,"R3RW+569, Jl. Tanjung Sari, Mandouw, Kec. Samofa, Kabupaten Biak Numfor, Papua 98118","Jl. Tanjung Sari, Mandouw, Kec. Samofa, Kabupaten Biak Numfor",PAPUA,98118.0,Indonesia,,-11.595.919,1.360.956.132,https://maps.google.com/?cid=0x0:0xa3f6c59d226543a7
perumahan,Komplek perumahan,GRIYA MANDOUW INDAH,"Mandouw, Kec. Samofa, Kabupaten Biak Numfor, Papua 98111","Kec. Samofa, Kabupaten Biak Numfor",PAPUA,98111.0,Indonesia,,-11.542.156,1.360.910.217,https://maps.google.com/?cid=0x0:0x6fbcf36b4d32d003
perumahan,Komplek perumahan,Rumah Dinas Pajak Samofa,"R3MM+CHW, Samofa, Kec. Samofa, Kabupaten Biak Numfor, Papua 98111","Samofa, Kec. Samofa, Kabupaten Biak Numfor",PAPUA,98111.0,Indonesia,,-11.663.959,1.360.839.605,https://maps.google.com/?cid=0x0:0x3b45d4d8f10e4f71
perumahan,Komplek perumahan,Rumah raka,"R3VX+FW, Sumberker, Kec. Samofa, Kabupaten Biak Numfor, Papua 98118","Sumberker, Kec. Samofa, Kabupaten Biak Numfor",PAPUA,98118.0,Indonesia,,-115.632,1.360.998.009,https://maps.google.com/?cid=0x0:0x106c9a0133d3ff0c
perumahan,Komplek perumahan,Ibu orpa,"R3HX+P3Q, Samofa, Kec. Samofa, Kabupaten Biak Numfor, Papua 98118","Samofa, Kec. Samofa, Kabupaten Biak Numfor",PAPUA,98118.0,Indonesia,,-11.709.331,1.360.978.784,https://maps.google.com/?cid=0x0:0xcb46e7a657b1b288
perumahan,Komplek perumahan,Rumah Dinas Bea Cukai Biak,"Jl. Marsudi, RT.002/RW.004, Samofa, Kec. Samofa, Kabupaten Biak Numfor, Papua 98111","RT.002/RW.004, Samofa, Kec. Samofa, Kabupaten Biak Numfor",PAPUA,98111.0,Indonesia,,-11.661.145,1.360.840.071,https://maps.google.com/?cid=0x0:0x724b5b98726c39ea
perumahan,Pembangunan Perumahan,Rumah Eka,"R4V4+8JV, Unnamed Road, Sumberker, Samofa, Biak Numfor Regency, Papua 98118","Unnamed Road, Sumberker, Samofa, Biak Numfor Regency",PAPUA,98118.0,Indonesia,,-11.566.251,1.361.065.567,https://maps.google.com/?cid=0x0:0x88ac197529bf4b11
perumahan,Komplek perumahan,Keluarga Rumbekwan,"R3QW+CHX, Jl. Adibai Sumberker Samofa, Mandouw, Kec. Samofa, Kabupaten Biak Numfor, Papua 98118","Jl. Adibai Sumberker Samofa, Mandouw, Kec. Samofa, Kabupaten Biak Numfor",PAPUA,98118.0,Indonesia,,-1.161.386,1.360.964.962,https://maps.google.com/?cid=0x0:0x7ecf60e776e361e0
perumahan,Perumahan,Rochana's home,"Perumahan griya mandouw indah II No.p10, Mandouw, Kec. Samofa, Kabupaten Biak Numfor, Papua","Kabupaten Biak Numfor, Papua",PAPUA,,Indonesia,,-11.555.373,136.095.959,https://maps.google.com/?cid=0x0:0xbea35bff38984160
perumahan,Komplek perumahan,Indirahome,"R4Q2+65Q, Jl. Adibai Sumberker Samofa, Mandouw, Kec. Samofa, Kabupaten Biak Numfor, Papua 98118","Jl. Adibai Sumberker Samofa, Mandouw, Kec. Samofa, Kabupaten Biak Numfor",PAPUA,98118.0,Indonesia,,-11.619.116,1.361.004.775,https://maps.google.com/?cid=0x0:0xc657537776bc37dc
perumahan,perumahan,Papua 98156,"Kabupaten Biak Numfor, Papua","Kabupaten Biak Numfor, Papua",PAPUA,,Indonesia,,-10.808.865,1.360.372.508,https://maps.google.com/?cid=0x0:0x6d8c17ba7e95fe38
perumahan,Komplek perumahan,Samofa biak,"XX6J+Q24 Jin pemda 1 biak, Syabes, Kec. Yendidori, Kabupaten Biak Numfor, Papua 98156","Syabes, Kec. Yendidori, Kabupaten Biak Numfor",PAPUA,98156.0,Indonesia,,-10.381.022,1.359.800.848,https://maps.google.com/?cid=0x0:0x98038044d0b6c9ab
perumahan,Kantor Hubungan Masyarakat,Perumahan Darfuar,"V388+73H, Dafuar, Kec. Samofa, Kabupaten Biak Numfor, Papua 98156","Dafuar, Kec. Samofa, Kabupaten Biak Numfor",PAPUA,98156.0,Indonesia,,-11.343.089,1.360.652.262,https://maps.google.com/?cid=0x0:0xf62a711a193c1c86
perumahan,Perumahan,Rumah saldin,"V367+MC, Dafuar, Kec. Samofa, Kabupaten Biak Numfor, Papua","Kabupaten Biak Numfor, Papua",PAPUA,,Indonesia,,-11.382.818,1.360.635.884,https://maps.google.com/?cid=0x0:0x3c3dc8ded7e2b009
perumahan,Komplek perumahan,ABA Home,"R3XG+8M7, Jl. Petrus Kafiar, Brambaken, Kec. Samofa, Kabupaten Biak Numfor, Papua","Kabupaten Biak Numfor, Papua",PAPUA,,Indonesia,85254976413.0,-11.517.136,1.360.766.598,https://maps.google.com/?cid=0x0:0x496f4e4beb477e3c
perumahan,Komplek perumahan,Perumahan Pemda BN,"Jl. Adibai Perumahan Pemda No.29, Maryendi, Kec. Samofa, Kabupaten Biak Numfor, Papua 98156","Maryendi, Kec. Samofa, Kabupaten Biak Numfor",PAPUA,98156.0,Indonesia,,-1.138.469,136.088.134,https://maps.google.com/?cid=0x0:0x79b6a4334a0bc783
perumahan,Komplek perumahan,Perumahan Buana Mas,"R3W8+8X2, Jl. Yafdas, Dafuar, Kec. Samofa, Kabupaten Biak Numfor, Papua 98113","Jl. Yafdas, Dafuar, Kec. Samofa, Kabupaten Biak Numfor",PAPUA,98113.0,Indonesia,,-11.542.384,1.360.674.029,https://maps.google.com/?cid=0x0:0xa6e621b6f139bcad
perumahan,Komplek perumahan,Jois Dimara,"V357+6W5, Adainasnosen, Kec. Samofa, Kabupaten Biak Numfor, Papua 98156","Adainasnosen, Kec. Samofa, Kabupaten Biak Numfor",PAPUA,98156.0,Indonesia,,-11.420.013,1.360.648.533,https://maps.google.com/?cid=0x0:0xebff72b089bfd075
perumahan,Pembangunan Perumahan,Rumah Kos,"R3WG+8VJ, Jl. Petrus Kafiar, Brambaken, Kec. Samofa, Kabupaten Biak Numfor, Papua","Kabupaten Biak Numfor, Papua",PAPUA,,Indonesia,,-11.541.738,1.360.771.434,https://maps.google.com/?cid=0x0:0xda5d079be0d40c0
perumahan,perumahan,Kampung sambawofuar,"R3X9+Q87, Adainasnosen, Kec. Samofa, Kabupaten Biak Numfor, Papua 98113","Adainasnosen, Kec. Samofa, Kabupaten Biak Numfor",PAPUA,98113.0,Indonesia,,-11.505.964,1.360.682.828,https://maps.google.com/?cid=0x0:0xf3eab669443d5692
perumahan,Komplek perumahan,GRIYA MANDOUW INDAH,"Mandouw, Kec. Samofa, Kabupaten Biak Numfor, Papua 98111","Kec. Samofa, Kabupaten Biak Numfor",PAPUA,98111.0,Indonesia,,-11.542.156,1.360.910.217,https://maps.google.com/?cid=0x0:0x6fbcf36b4d32d003
perumahan,Komplek perumahan,Sam Marantika,"V357+56, Dafuar, Kec. Samofa, Kabupaten Biak Numfor, Papua","Kabupaten Biak Numfor, Papua",PAPUA,,Indonesia,,-1.142.036,136.063.013,https://maps.google.com/?cid=0x0:0xcb451f1fbe1de89
perumahan,Komplek perumahan,Anugerah Womsiwor,"R3W8+57J, Yafdas, Kec. Samofa, Kabupaten Biak Numfor, Papua 98113","Yafdas, Kec. Samofa, Kabupaten Biak Numfor",PAPUA,98113.0,Indonesia,,-11.545.391,1.360.656.383,https://maps.google.com/?cid=0x0:0xeb33de48f7988625
perumahan,Pembangunan Perumahan,Tiga Saputra,"R3W9+95M, Yafdas, Kec. Samofa, Kabupaten Biak Numfor, Papua","Kabupaten Biak Numfor, Papua",PAPUA,,Indonesia,,-11.540.438,1.360.679.248,https://maps.google.com/?cid=0x0:0xd729cb9f702e3ddc
perumahan,Komplek perumahan,RUMAH KELUARGA MAMBOBO,"5XHR+X7J, Sor, Distrik Yawosi, Kabupaten Biak Numfor, Papua","Kabupaten Biak Numfor, Papua",PAPUA,,Indonesia,,-0.8200303,1.359.906.497,https://maps.google.com/?cid=0x0:0x7c329e28dc4f1f1f
perumahan,perumahan,Distrik Yawosi,"Kabupaten Biak Numfor, Papua","Kabupaten Biak Numfor, Papua",PAPUA,,Indonesia,,-0.8350919,1.360.182.645,https://maps.google.com/?cid=0x0:0x7439514076bef34
perumahan,Pembangunan Perumahan,Kepala kKampung,"5XR9+2H, Karmon, Distrik Yawosi, Kabupaten Biak Numfor, Papua","Kabupaten Biak Numfor, Papua",PAPUA,,Indonesia,,-0.8099474,135.968.989,https://maps.google.com/?cid=0x0:0xff15851989216e28
perumahan,perumahan,Kel. Y Wabdaron,"42PH+MXV, Waromi, Distrik Biak Utara, Kabupaten Biak Numfor, Papua 98153","Waromi, Distrik Biak Utara, Kabupaten Biak Numfor",PAPUA,98153.0,Indonesia,,-0.8631257,1.360.295.381,https://maps.google.com/?cid=0x0:0xc32cb0849b38e40c
perumahan,Komplek perumahan,Kampung Sor,"5XJP+6RH, Sor, Distrik Yawosi, Kabupaten Biak Numfor, Papua 98157","Sor, Distrik Yawosi, Kabupaten Biak Numfor",PAPUA,98157.0,Indonesia,,-0.8194364,1.359.871.201,https://maps.google.com/?cid=0x0:0x786a778d77725cd6
perumahan,Komplek perumahan,RUMAH KELUARGA. Y.P.RUMBRAR,"5XHR+8FQ, Sor, Distrik Yawosi, Kabupaten Biak Numfor, Papua","Kabupaten Biak Numfor, Papua",PAPUA,,Indonesia,,-0.8216692,1.359.912.344,https://maps.google.com/?cid=0x0:0x52f4663d2da53416
perumahan,Komplek perumahan,Kampung madirai,"5288+97C, Bosnabraidi, Distrik Yawosi, Kabupaten Biak Numfor, Papua 98153","Bosnabraidi, Distrik Yawosi, Kabupaten Biak Numfor",PAPUA,98153.0,Indonesia,,-0.8340678,1.360.156.335,https://maps.google.com/?cid=0x0:0xa61c3cef60b4a1f
perumahan,Komplek perumahan,ABIWARK WELA,"5XJP+6RH, indawi, Yawosi, Biak Numfor Regency, Papua 98157","indawi, Yawosi, Biak Numfor Regency",PAPUA,98157.0,Indonesia,,-0.8197333,1.359.860.833,https://maps.google.com/?cid=0x0:0x45c9bd39920d2a69
perumahan,Pembangunan Perumahan,Orichz Home,"5XJQ+P54, Sor, Distrik Yawosi, Kabupaten Biak Numfor, Papua 98157","Sor, Distrik Yawosi, Kabupaten Biak Numfor",PAPUA,98157.0,Indonesia,,-0.8182375,1.359.879.531,https://maps.google.com/?cid=0x0:0xe6de64029c496b15
perumahan,Komplek perumahan,Indawi . Barend Brabar,"5XJQ+P54, Sor, Distrik Yawosi, Kabupaten Biak Numfor, Papua 98157","Sor, Distrik Yawosi, Kabupaten Biak Numfor",PAPUA,98157.0,Indonesia,,-0.8181544,1.359.879.443,https://maps.google.com/?cid=0x0:0xb8b82b4e751faa9c
perumahan,Pembangunan Perumahan,Katel Maran,"522G+24W, Asur, Distrik Yawosi, Kabupaten Biak Numfor, Papua 98153","Asur, Distrik Yawosi, Kabupaten Biak Numfor",PAPUA,98153.0,Indonesia,,-0.8498911,1.360.253.357,https://maps.google.com/?cid=0x0:0xacef592a2b095828
perumahan,Rumah Sakit,PUSKESMAS YAWOSI,"5XMM+R8C, Karmon, Distrik Yawosi, Kabupaten Biak Numfor, Papua 98157","Karmon, Distrik Yawosi, Kabupaten Biak Numfor",PAPUA,98157.0,Indonesia,,-0.8154325,1.359.832.747,https://maps.google.com/?cid=0x0:0x8850d6a7529f6df9
perumahan,Komplek perumahan,Simon Msiren,"5XR9+2H, Karmon, Distrik Yawosi, Kabupaten Biak Numfor, Papua","Kabupaten Biak Numfor, Papua",PAPUA,,Indonesia,,-0.8099437,1.359.689.836,https://maps.google.com/?cid=0x0:0xa07f5112c8f48089
perumahan,Komplek perumahan,Kampung Karmon,"5XJ8+48F, Karmon, Distrik Yawosi, Kabupaten Biak Numfor, Papua 98157","Karmon, Distrik Yawosi, Kabupaten Biak Numfor",PAPUA,98157.0,Indonesia,,-0.8196986,1.359.658.039,https://maps.google.com/?cid=0x0:0x465159ddd6a5056e
perumahan,perumahan,Kel. Y Wabdaron,"42PH+MXV, Waromi, Distrik Biak Utara, Kabupaten Biak Numfor, Papua 98153","Waromi, Distrik Biak Utara, Kabupaten Biak Numfor",PAPUA,98153.0,Indonesia,,-0.8631257,1.360.295.381,https://maps.google.com/?cid=0x0:0xc32cb0849b38e40c
perumahan,perumahan,Distrik Yawosi,"Kabupaten Biak Numfor, Papua","Kabupaten Biak Numfor, Papua",PAPUA,,Indonesia,,-0.8350919,1.360.182.645,https://maps.google.com/?cid=0x0:0x7439514076bef34
perumahan,Komplek perumahan,Kampung Sor,"5XJP+6RH, Sor, Distrik Yawosi, Kabupaten Biak Numfor, Papua 98157","Sor, Distrik Yawosi, Kabupaten Biak Numfor",PAPUA,98157.0,Indonesia,,-0.8194364,1.359.871.201,https://maps.google.com/?cid=0x0:0x786a778d77725cd6
perumahan,Pembangunan Perumahan,Orichz Home,"5XJQ+P54, Sor, Distrik Yawosi, Kabupaten Biak Numfor, Papua 98157","Sor, Distrik Yawosi, Kabupaten Biak Numfor",PAPUA,98157.0,Indonesia,,-0.8182375,1.359.879.531,https://maps.google.com/?cid=0x0:0xe6de64029c496b15
perumahan,Komplek perumahan,RUMAH KELUARGA MAMBOBO,"5XHR+X7J, Sor, Distrik Yawosi, Kabupaten Biak Numfor, Papua","Kabupaten Biak Numfor, Papua",PAPUA,,Indonesia,,-0.8200303,1.359.906.497,https://maps.google.com/?cid=0x0:0x7c329e28dc4f1f1f
perumahan,Komplek perumahan,Indawi . Barend Brabar,"5XJQ+P54, Sor, Distrik Yawosi, Kabupaten Biak Numfor, Papua 98157","Sor, Distrik Yawosi, Kabupaten Biak Numfor",PAPUA,98157.0,Indonesia,,-0.8181544,1.359.879.443,https://maps.google.com/?cid=0x0:0xb8b82b4e751faa9c
perumahan,Rumah Sakit,PUSKESMAS YAWOSI,"5XMM+R8C, Karmon, Distrik Yawosi, Kabupaten Biak Numfor, Papua 98157","Karmon, Distrik Yawosi, Kabupaten Biak Numfor",PAPUA,98157.0,Indonesia,,-0.8154325,1.359.832.747,https://maps.google.com/?cid=0x0:0x8850d6a7529f6df9
perumahan,Pembangunan Perumahan,Kepala kKampung,"5XR9+2H, Karmon, Distrik Yawosi, Kabupaten Biak Numfor, Papua","Kabupaten Biak Numfor, Papua",PAPUA,,Indonesia,,-0.8099474,135.968.989,https://maps.google.com/?cid=0x0:0xff15851989216e28
perumahan,Komplek perumahan,Rumah Kel Yesaya Rumbrawer,"6W6R+4VW, Warawaf, Distrik Warsa, Kabupaten Biak Numfor, Papua","Kabupaten Biak Numfor, Papua",PAPUA,,Indonesia,,-0.7896367,1.359.422.135,https://maps.google.com/?cid=0x0:0x8c8734a2ed265620
perumahan,Komplek perumahan,Tanjung Porsewi,"5279+X86, Bosnabraidi, Distrik Yawosi, Kabupaten Biak Numfor, Papua","Kabupaten Biak Numfor, Papua",PAPUA,,Indonesia,,-0.8350919,1.360.182.645,https://maps.google.com/?cid=0x0:0xe7f91cf8f2b9b415
perumahan,Pembangunan Perumahan,Kampung Komboi,"6W5V+H4R, Komboy, Distrik Warsa, Kabupaten Biak Numfor, Papua 98157","Komboy, Distrik Warsa, Kabupaten Biak Numfor",PAPUA,98157.0,Indonesia,,-0.791015,1.359.427.515,https://maps.google.com/?cid=0x0:0x73a28a5aa4e7647c
perumahan,Komplek perumahan,Kampung Karmon,"5XJ8+48F, Karmon, Distrik Yawosi, Kabupaten Biak Numfor, Papua 98157","Karmon, Distrik Yawosi, Kabupaten Biak Numfor",PAPUA,98157.0,Indonesia,,-0.8196986,1.359.658.039,https://maps.google.com/?cid=0x0:0x465159ddd6a5056e
perumahan,Komplek perumahan,RUMAH KELUARGA. Y.P.RUMBRAR,"5XHR+8FQ, Sor, Distrik Yawosi, Kabupaten Biak Numfor, Papua","Kabupaten Biak Numfor, Papua",PAPUA,,Indonesia,,-0.8216692,1.359.912.344,https://maps.google.com/?cid=0x0:0x52f4663d2da53416
perumahan,Perhimpunan Pengembang Perumahan,Yeol maran,"42HR+7JX, Yobdi, Distrik Biak Utara, Kabupaten Biak Numfor, Papua 98153","Yobdi, Distrik Biak Utara, Kabupaten Biak Numfor",PAPUA,98153.0,Indonesia,,-0.8723766,1.360.420.882,https://maps.google.com/?cid=0x0:0x64e80f810e7aefc0
perumahan,perumahan,Andei,"Distrik Biak Utara, Kabupaten Biak Numfor, Papua","Kabupaten Biak Numfor, Papua",PAPUA,,Indonesia,,-0.917489,1.360.324.844,https://maps.google.com/?cid=0x0:0x538a33a79fdea1d5
perumahan,Kantor Pemerintah,ANDEI,"3V6R+X5, Rarsibo, ANDEI, Kabupaten Biak Numfor, Papua","Kabupaten Biak Numfor, Papua",PAPUA,,Indonesia,,-0.9376956,1.348.894.644,https://maps.google.com/?cid=0x0:0x3e6278816beb9eb8
perumahan,Perhimpunan Pengembang Perumahan,Martha,"32WJ+WM, Andei, Distrik Andey, Kabupaten Biak Numfor, Papua","Kabupaten Biak Numfor, Papua",PAPUA,,Indonesia,,-0.902722,136.031.663,https://maps.google.com/?cid=0x0:0xe0f0e9f3601b7e0b
perumahan,Komplek perumahan,Rumah Daud,"32VV+RXQ, Saukobye, Distrik Biak Utara, Kabupaten Biak Numfor, Papua 98153","Saukobye, Distrik Biak Utara, Kabupaten Biak Numfor",PAPUA,98153.0,Indonesia,,-0.90541,136.044.995,https://maps.google.com/?cid=0x0:0xab8411e0edb41807
perumahan,Pembangunan Perumahan,Marthasance Family,"32WV+67H, Saukobye, Distrik Biak Utara, Kabupaten Biak Numfor, Papua","Kabupaten Biak Numfor, Papua",PAPUA,,Indonesia,,-0.9044366,1.360.432.318,https://maps.google.com/?cid=0x0:0x774bb2e81f147647
perumahan,Pembangunan Perumahan,Kampung Rosayendi,"32WH+5CQ, Rosayendi, Distrik Biak Utara, Kabupaten Biak Numfor, Papua 98153","Rosayendi, Distrik Biak Utara, Kabupaten Biak Numfor",PAPUA,98153.0,Indonesia,,-0.9042686,1.360.277.654,https://maps.google.com/?cid=0x0:0x17dfcf8eb1f2cb06
perumahan,Komplek perumahan,Rumbino Rumakito Family,"32JR+545, Andei, Distrik Andey, Kabupaten Biak Numfor, Papua","Kabupaten Biak Numfor, Papua",PAPUA,,Indonesia,,-0.9196182,1.360.403.732,https://maps.google.com/?cid=0x0:0x240d8c72872453d8
perumahan,Komplek perumahan,Rumah Masgam,"32RV+H5X, Saukobye, Distrik Biak Utara, Kabupaten Biak Numfor, Papua 98153","Saukobye, Distrik Biak Utara, Kabupaten Biak Numfor",PAPUA,98153.0,Indonesia,,-0.9085012,1.360.429.787,https://maps.google.com/?cid=0x0:0x8c7b99764905c84d
perumahan,Komplek perumahan,See cindy,"32WV+67H, Saukobye, Distrik Biak Utara, Kabupaten Biak Numfor, Papua","Kabupaten Biak Numfor, Papua",PAPUA,,Indonesia,,-0.9044366,1.360.432.318,https://maps.google.com/?cid=0x0:0x31e4c329f1cffedc
perumahan,Komplek perumahan,MARIRES,"426Q+PVJ, Korem, Rosayendi, Kabupaten Biak Numfor, Papua 98153","Korem, Rosayendi, Kabupaten Biak Numfor",PAPUA,98153.0,Indonesia,,-0.8881559,1.360.396.342,https://maps.google.com/?cid=0x0:0x15fc30d056db9595
perumahan,Komplek perumahan,Mori Kapitarauw,"Jln. SMA N 01 Biak Utara, kampung Warbon, Andei, Distrik Biak Utara, Kabupaten Biak Numfor, Papua 98153","kampung Warbon, Andei, Distrik Biak Utara, Kabupaten Biak Numfor",PAPUA,98153.0,Indonesia,,-0.9199431,1.360.419.192,https://maps.google.com/?cid=0x0:0x5a70e3a6516e2cf8
perumahan,Komplek perumahan,Rumah ku,"32VR+QM2, Saukobye, Distrik Biak Utara, Kabupaten Biak Numfor, Papua 98153","Saukobye, Distrik Biak Utara, Kabupaten Biak Numfor",PAPUA,98153.0,Indonesia,,-0.9044503,1.360.416.258,https://maps.google.com/?cid=0x0:0xc79255f71bde4833
perumahan,Gedung Apartemen,Jusak Wabiser Houses,"32MQ+P2F, Unnamed Road, Andei, Distrik Biak Utara, Kabupaten Biak Numfor, Papua 98153","Unnamed Road, Andei, Distrik Biak Utara, Kabupaten Biak Numfor",PAPUA,98153.0,Indonesia,,-0.9156799,1.360.375.613,https://maps.google.com/?cid=0x0:0x3b91647157a39d02
perumahan,perumahan,Kompleks BUPA ( Buton-Papua ),"32JP+7WQ, Andei, Distrik Biak Utara, Kabupaten Biak Numfor, Papua 98153","Andei, Distrik Biak Utara, Kabupaten Biak Numfor",PAPUA,98153.0,Indonesia,,-0.919285,1.360.373.661,https://maps.google.com/?cid=0x0:0x983c67e0dd65ea1b
perumahan,Kantor Pemerintah,ANDEI,"3V6R+X5, Rarsibo, ANDEI, Kabupaten Biak Numfor, Papua","Kabupaten Biak Numfor, Papua",PAPUA,,Indonesia,,-0.9376956,1.348.894.644,https://maps.google.com/?cid=0x0:0x3e6278816beb9eb8
perumahan,Pembangunan Perumahan,Kampung Andei,"3V76+4GW, Yenburwo, Numfor Tim., Kabupaten Biak Numfor, Papua 98171","Yenburwo, Numfor Tim., Kabupaten Biak Numfor",PAPUA,98171.0,Indonesia,,-0.9371465,1.348.613.219,https://maps.google.com/?cid=0x0:0x7822e39b7a5d0a9
perumahan,Gereja,Gereja Ebenhaizer Andei,"3V6R+V4W, Rarsibo, andei, Kabupaten Biak Numfor, Papua","Kabupaten Biak Numfor, Papua",PAPUA,,Indonesia,,-0.9383441,1.348.904.534,https://maps.google.com/?cid=0x0:0x9e7f92de2b7e6520
perumahan,Perhimpunan Pengembang Perumahan,Martha,"32WJ+WM, Andei, Distrik Andey, Kabupaten Biak Numfor, Papua","Kabupaten Biak Numfor, Papua",PAPUA,,Indonesia,,-0.902722,136.031.663,https://maps.google.com/?cid=0x0:0xe0f0e9f3601b7e0b
perumahan,Komplek perumahan,Rumbino Rumakito Family,"32JR+545, Andei, Distrik Andey, Kabupaten Biak Numfor, Papua","Kabupaten Biak Numfor, Papua",PAPUA,,Indonesia,,-0.9196182,1.360.403.732,https://maps.google.com/?cid=0x0:0x240d8c72872453d8
perumahan,perumahan,Distrik Andey,"Kabupaten Biak Numfor, Papua","Kabupaten Biak Numfor, Papua",PAPUA,,Indonesia,,-0.8632296,1.359.457.066,https://maps.google.com/?cid=0x0:0xbdf1e0ba9b83aec1
perumahan,perumahan,Kompleks BUPA ( Buton-Papua ),"32JP+7WQ, Andei, Distrik Biak Utara, Kabupaten Biak Numfor, Papua 98153","Andei, Distrik Biak Utara, Kabupaten Biak Numfor",PAPUA,98153.0,Indonesia,,-0.919285,1.360.373.661,https://maps.google.com/?cid=0x0:0x983c67e0dd65ea1b
perumahan,Komplek perumahan,Mori Kapitarauw,"Jln. SMA N 01 Biak Utara, kampung Warbon, Andei, Distrik Biak Utara, Kabupaten Biak Numfor, Papua 98153","kampung Warbon, Andei, Distrik Biak Utara, Kabupaten Biak Numfor",PAPUA,98153.0,Indonesia,,-0.9199431,1.360.419.192,https://maps.google.com/?cid=0x0:0x5a70e3a6516e2cf8
perumahan,Pembangunan Perumahan,kampung saswarbo,"5QF3+C65, jln. swandiwe, Wombrisauw, kota biak, Kabupaten Biak Numfor, Papua 98154","jln. swandiwe, Wombrisauw, kota biak, Kabupaten Biak Numfor",PAPUA,98154.0,Indonesia,,-0.826487,1.357.531.244,https://maps.google.com/?cid=0x0:0x517206b61c38f16e
perumahan,perumahan,Papua 98154,"Kabupaten Biak Numfor, Papua","Kabupaten Biak Numfor, Papua",PAPUA,,Indonesia,,-0.9529483,1.358.659.561,https://maps.google.com/?cid=0x0:0x7baacb17c171a3e7
perumahan,Komplek perumahan,Rumah Kaleb Mnubepiom,"XX83+HJ2, Syabes, Kec. Yendidori, Kabupaten Biak Numfor, Papua","Kabupaten Biak Numfor, Papua",PAPUA,,Indonesia,,-10.336.184,1.359.540.117,https://maps.google.com/?cid=0x0:0x14c8c09b7eda2afe
perumahan,Komplek perumahan,KELUARGA ZET MARYEN,"3Q3Q+RH2, Swainober, Distrik Swandiwe, Kabupaten Biak Numfor, Papua 98154","Swainober, Distrik Swandiwe, Kabupaten Biak Numfor",PAPUA,98154.0,Indonesia,,-0.944896,1.357.890.073,https://maps.google.com/?cid=0x0:0xee2266e0d0391d70
perumahan,Komplek perumahan,Birubi,"XX66+H6, Syabes, Kec. Yendidori, Kabupaten Biak Numfor, Papua","Kabupaten Biak Numfor, Papua",PAPUA,,Indonesia,,-1.038.536,1.359.605.272,https://maps.google.com/?cid=0x0:0xd5763f879080ae6e
perumahan,Toko bahan makanan,Wardo,"XR9H+5MV, Kanaan, Distrik Biak Barat, Kabupaten Biak Numfor, Papua 98154","Kanaan, Distrik Biak Barat, Kabupaten Biak Numfor",PAPUA,98154.0,Indonesia,,-10.320.235,1.358.291.581,https://maps.google.com/?cid=0x0:0xd17615874189ceaa
perumahan,Komplek perumahan,Sosmai,"XWG9+23, Rarmpimbo, Kec. Yendidori, Kabupaten Biak Numfor, Papua 98155","Rarmpimbo, Kec. Yendidori, Kabupaten Biak Numfor",PAPUA,98155.0,Indonesia,,-10.248.873,1.359.176.796,https://maps.google.com/?cid=0x0:0xb216de9a0cad12b6
perumahan,Komplek perumahan,Kel Bonsapia,"2QQV+RJQ, Farusi, Distrik Swandiwe, Kabupaten Biak Numfor, Papua","Kabupaten Biak Numfor, Papua",PAPUA,,Indonesia,,-0.960405,135.794.123,https://maps.google.com/?cid=0x0:0x4c3364d08c383c69
perumahan,Komplek perumahan,Rumah Willy Esau Mandowen,"Jalan Korderi No.1, Dusun Yenburwo, Distrik Biak Barat, Kabupaten Biak Numfor, Papua","Kabupaten Biak Numfor, Papua",PAPUA,,Indonesia,,-10.299.966,1.358.297.159,https://maps.google.com/?cid=0x0:0x9fcef26fbde135a6
perumahan,Perumahan,Kampung adaddikam,"2QQV+RJQ Alamat kampung, Farusi, Distrik Swandiwe, Kabupaten Biak Numfor, Papua","Kabupaten Biak Numfor, Papua",PAPUA,,Indonesia,,-0.960405,135.794.123,https://maps.google.com/?cid=0x0:0x3955536a9dde9cff
perumahan,Pembangunan Perumahan,Hagetama,"5PRR+CQ, Wombrisauw, Distrik Swandiwe, Kabupaten Biak Numfor, Papua 98154","Wombrisauw, Distrik Swandiwe, Kabupaten Biak Numfor",PAPUA,98154.0,Indonesia,,-0.8095526,1.357.426.138,https://maps.google.com/?cid=0x0:0x8d1c85f622bb356a
perumahan,Komplek perumahan,GRIYA MANDOUW INDAH,"Mandouw, Kec. Samofa, Kabupaten Biak Numfor, Papua 98111","Kec. Samofa, Kabupaten Biak Numfor",PAPUA,98111.0,Indonesia,,-11.542.156,1.360.910.217,https://maps.google.com/?cid=0x0:0x6fbcf36b4d32d003
perumahan,Pembangunan Perumahan,"KAMPUNG SOPEN, BIAK BARAT","XRW8+M74, Sopendo, Distrik Biak Barat, Kabupaten Biak Numfor, Papua 98154","Sopendo, Distrik Biak Barat, Kabupaten Biak Numfor",PAPUA,98154.0,Indonesia,,-10.033.732,1.358.156.877,https://maps.google.com/?cid=0x0:0xd698b819e14eab86
perumahan,Konsultan,Schouten-eilanden (Pulau Biak),"XX6J+Q24, Pulau Biak, Syabes, Kec. Yendidori, Kabupaten Biak Numfor, Papua","Kabupaten Biak Numfor, Papua",PAPUA,,Indonesia,,-10.381.022,1.359.800.848,https://maps.google.com/?cid=0x0:0xa06e1884ce12a5
perumahan,Pembangunan Perumahan,Perumahan Griya Kelapa Gading Sorido,"R3P4+8VG, Jl. Jendral Sudirman, Sorido, Kec. Biak Kota, Kabupaten Biak Numfor, Papua 98115","Jl. Jendral Sudirman, Sorido, Kec. Biak Kota, Kabupaten Biak Numfor",PAPUA,98115.0,Indonesia,,-11.641.764,1.360.571.917,https://maps.google.com/?cid=0x0:0xd1157d94a6d4fdac
perumahan,Komplek perumahan,Perumahan guru sorido Biak Kota,"R3P7+2WF, Sorido, Kec. Biak Kota, Kabupaten Biak Numfor, Papua 98113","Sorido, Kec. Biak Kota, Kabupaten Biak Numfor",PAPUA,98113.0,Indonesia,,-11.642.759,1.360.636.996,https://maps.google.com/?cid=0x0:0xca7b04a1ecf05056
perumahan,Komplek perumahan,Rumah Thasya jelani korwa,"R3P4+7Q6, Sorido, Kec. Biak Kota, Kabupaten Biak Numfor, Papua 98115","Sorido, Kec. Biak Kota, Kabupaten Biak Numfor",PAPUA,98115.0,Indonesia,,-11.640.436,1.360.576.108,https://maps.google.com/?cid=0x0:0x88833a000cc43125
perumahan,Komplek perumahan,Kampung Bruyadori,"WX78+CWH, WWJl.Sayori Raya, Bruyadori, Distrik Bruyadori, Kabupaten Biak Numfor, Papua","Kabupaten Biak Numfor, Papua",PAPUA,,Indonesia,,-10.864.326,1.349.673.492,https://maps.google.com/?cid=0x0:0x8d82f433347490f8
perumahan,Komplek perumahan,DUSUN AMBERPAREM,"XXHJ+6M, Dafi, Distrik Bruyadori, Kabupaten Biak Numfor, Papua 98171","Dafi, Distrik Bruyadori, Kabupaten Biak Numfor",PAPUA,98171.0,Indonesia,,-10.219.221,1.349.816.896,https://maps.google.com/?cid=0x0:0x2190d2408d196c29
perumahan,Pembangunan Perumahan,Arimi Jaya,"XXH9+GP, Dafi, Distrik Bruyadori, Kabupaten Biak Numfor, Papua","Kabupaten Biak Numfor, Papua",PAPUA,,Indonesia,,-10.212.449,1.349.693.266,https://maps.google.com/?cid=0x0:0x1dcf641841f4ed9f
perumahan,Pembangunan Perumahan,Mr. David Home,"WX78+CWH, Jl. Sayori Raya, Bruyadori, Distrik Bruyadori, Kabupaten Biak Numfor, Papua","Kabupaten Biak Numfor, Papua",PAPUA,,Indonesia,,-10.864.326,1.349.673.492,https://maps.google.com/?cid=0x0:0x3497c6483c9d938b
perumahan,Pembangunan Perumahan,"Noribo, Manwor Indah","VW87+X77, Rawar, Kec. Orkeri, Kabupaten Biak Numfor, Papua 98172","Rawar, Kec. Orkeri, Kabupaten Biak Numfor",PAPUA,98172.0,Indonesia,,-11.325.902,1.349.131.803,https://maps.google.com/?cid=0x0:0x6b13e8bf22a8147
perumahan,perumahan,Papua 98172,"Kabupaten Biak Numfor, Papua","Kabupaten Biak Numfor, Papua",PAPUA,,Indonesia,,-10.910.129,1.349.066.503,https://maps.google.com/?cid=0x0:0x961f86bb7868e68d
perumahan,Kompleks Kondominium,Kampung Baruki,"XQVX+V72, Distrik Numfor Barat, Kabupaten Biak Numfor, Papua 98172","Distrik Numfor Barat, Kabupaten Biak Numfor",PAPUA,98172.0,Indonesia,,-10.053.651,1.347.981.467,https://maps.google.com/?cid=0x0:0xa3cc090e78ced262
perumahan,Komplek perumahan,"Pakreki, Kec. Orkeri, Kabupaten Biak Numfor","VW85+63X, Pakreki, Kec. Orkeri, Kabupaten Biak Numfor, Papua","Kabupaten Biak Numfor, Papua",PAPUA,,Indonesia,,-1.134.376,1.349.077.303,https://maps.google.com/?cid=0x0:0xdd02f103ecc40813
perumahan,Tujuan Wisata,Yenbeba,"VVG7+WR4, Yenbeba, Kec. Orkeri, Kabupaten Biak Numfor, Papua 98172","Yenbeba, Kec. Orkeri, Kabupaten Biak Numfor",PAPUA,98172.0,Indonesia,,-11.227.356,1.348.645.811,https://maps.google.com/?cid=0x0:0x481f9f795bb0335d
perumahan,Pembangunan Perumahan,Kampung rawar-ruminur,"VV6M+7X, Pakreki, Kec. Orkeri, Kabupaten Biak Numfor, Papua","Kabupaten Biak Numfor, Papua",PAPUA,,Indonesia,,-11.393.527,1.348.849.497,https://maps.google.com/?cid=0x0:0x1e7249deee463862
perumahan,Pembangunan Perumahan,wansra,"VWCH+H4R, Masyara, Kec. Orkeri, Kabupaten Biak Numfor, Papua","Kabupaten Biak Numfor, Papua",PAPUA,,Indonesia,,-112.877,13.492.697,https://maps.google.com/?cid=0x0:0xad15754cbc1837fa
perumahan,Komplek perumahan,Kampung Warsa,"VVGC+74Q, Yenbeba, Kec. Orkeri, Kabupaten Biak Numfor, Papua","Kabupaten Biak Numfor, Papua",PAPUA,,Indonesia,,-11.242.869,1.348.703.628,https://maps.google.com/?cid=0x0:0x2f584edac6c93d6
perumahan,Pembangunan Perumahan,Serbin kampung lama,"XQMW+MVF, Distrik Numfor Barat, Kabupaten Biak Numfor, Papua 98172","Distrik Numfor Barat, Kabupaten Biak Numfor",PAPUA,98172.0,Indonesia,,-10.158.241,1.347.971.566,https://maps.google.com/?cid=0x0:0xe5083fa3043ecb9e
perumahan,perumahan,Rumah ANUGERAH,"2W8Q+7PX, Tanjakan, Syoribo, Distrik Poiru, Kabupaten Biak Numfor, Papua 98171","Tanjakan, Syoribo, Distrik Poiru, Kabupaten Biak Numfor",PAPUA,98171.0,Indonesia,,-0.9842572,1.349.393.443,https://maps.google.com/?cid=0x0:0xdd78edc44d88f307
perumahan,Pembangunan Perumahan,Pyefuri,"3R5Q+W6, Pyefuri, Numfor Tim., Kabupaten Biak Numfor, Papua","Kabupaten Biak Numfor, Papua",PAPUA,,Indonesia,,-0.9954012,1.348.879.576,https://maps.google.com/?cid=0x0:0x1214674ffa1111a2
perumahan,Pembangunan Perumahan,Segitiga waryabo kampung semayen,"XRX3+54H, Kansai, Distrik Numfor Barat, Kabupaten Biak Numfor, Papua","Kabupaten Biak Numfor, Papua",PAPUA,,Indonesia,,-10.022.988,1.348.029.807,https://maps.google.com/?cid=0x0:0x2356b805be858fdc
perumahan,Komplek perumahan,Kampung Bruyadori,"WX78+CWH, WWJl.Sayori Raya, Bruyadori, Distrik Bruyadori, Kabupaten Biak Numfor, Papua","Kabupaten Biak Numfor, Papua",PAPUA,,Indonesia,,-10.864.326,1.349.673.492,https://maps.google.com/?cid=0x0:0x8d82f433347490f8
perumahan,perumahan,Yeninar Hous,"3W33+PW, Andei, Distrik Poiru, Kabupaten Biak Numfor, Papua 98171","Andei, Distrik Poiru, Kabupaten Biak Numfor",PAPUA,98171.0,Indonesia,,-0.9447941,1.349.059.721,https://maps.google.com/?cid=0x0:0x5fc69a4752d3e06d
perumahan,perumahan,Distrik Poiru,"Kabupaten Biak Numfor, Papua","Kabupaten Biak Numfor, Papua",PAPUA,,Indonesia,,-0.9700197,1.349.424.126,https://maps.google.com/?cid=0x0:0xaa1a5134d7f11a74
perumahan,perumahan,Yeninar Hous,"3W33+PW, Andei, Distrik Poiru, Kabupaten Biak Numfor, Papua 98171","Andei, Distrik Poiru, Kabupaten Biak Numfor",PAPUA,98171.0,Indonesia,,-0.9447941,1.349.059.721,https://maps.google.com/?cid=0x0:0x5fc69a4752d3e06d
perumahan,Komplek perumahan,Irbor Sauri BAWEI NUMFOR BARAT,"XWVC+X77, Bawei, Distrik Poiru, Kabupaten Biak Numfor, Papua 98171","Bawei, Distrik Poiru, Kabupaten Biak Numfor",PAPUA,98171.0,Indonesia,,-10.050.966,1.349.206.649,https://maps.google.com/?cid=0x0:0x4e4df25b8f8b219e
perumahan,Pembangunan Perumahan,Pyefuri,"3R5Q+W6, Pyefuri, Numfor Tim., Kabupaten Biak Numfor, Papua","Kabupaten Biak Numfor, Papua",PAPUA,,Indonesia,,-0.9954012,1.348.879.576,https://maps.google.com/?cid=0x0:0x1214674ffa1111a2
perumahan,Layanan Transportasi,Kampung sauribru,"2W89+R8P, Sauribru, Distrik Poiru, Kabupaten Biak Numfor, Papua 98171","Sauribru, Distrik Poiru, Kabupaten Biak Numfor",PAPUA,98171.0,Indonesia,,-0.9829079,1.349.183.294,https://maps.google.com/?cid=0x0:0x32e16155273ef00c
perumahan,perumahan,Rumah Queen,"3W33+PW, Andei, Distrik Poiru, Kabupaten Biak Numfor, Papua 98171","Andei, Distrik Poiru, Kabupaten Biak Numfor",PAPUA,98171.0,Indonesia,,-0.9460365,134.904.514,https://maps.google.com/?cid=0x0:0x6de175b77fd80d14
perumahan,Pembangunan Perumahan,Petrus Manggombrab,"XWVM+G5W, Bawei, Distrik Poiru, Kabupaten Biak Numfor, Papua 98171","Bawei, Distrik Poiru, Kabupaten Biak Numfor",PAPUA,98171.0,Indonesia,,-10.061.304,1.349.329.377,https://maps.google.com/?cid=0x0:0xb5bd8dda9a2c2187
perumahan,Komplek perumahan,Pasar Araima,"XWVC+X77, Bawei, Distrik Poiru, Kabupaten Biak Numfor, Papua 98171","Bawei, Distrik Poiru, Kabupaten Biak Numfor",PAPUA,98171.0,Indonesia,,-10.050.966,1.349.206.649,https://maps.google.com/?cid=0x0:0x1ea5c6109bfd64aa
perumahan,Tujuan Wisata,Pantai syoribo. Numfor timur,"3W42+CWC, Syoribo, Distrik Poiru, Kabupaten Biak Numfor, Papua 98171","Syoribo, Distrik Poiru, Kabupaten Biak Numfor",PAPUA,98171.0,Indonesia,,-0.9431875,1.349.035.625,https://maps.google.com/?cid=0x0:0x5f21bd13e30859ab
perumahan,Kantor Pemerintah,ANDEI,"3V6R+X5, Rarsibo, ANDEI, Kabupaten Biak Numfor, Papua","Kabupaten Biak Numfor, Papua",PAPUA,,Indonesia,,-0.9376956,1.348.894.644,https://maps.google.com/?cid=0x0:0x3e6278816beb9eb8
perumahan,Komplek perumahan,DUSUN AMBERPAREM,"XXHJ+6M, Dafi, Distrik Bruyadori, Kabupaten Biak Numfor, Papua 98171","Dafi, Distrik Bruyadori, Kabupaten Biak Numfor",PAPUA,98171.0,Indonesia,,-10.219.221,1.349.816.896,https://maps.google.com/?cid=0x0:0x2190d2408d196c29
perumahan,Pembangunan Perumahan,Indaibo,"3V8G+2C8, indaibori, Numfor Tim., Kabupaten Biak Numfor, Papua 98171","indaibori, Numfor Tim., Kabupaten Biak Numfor",PAPUA,98171.0,Indonesia,,-0.9344901,1.348.756.001,https://maps.google.com/?cid=0x0:0x4a49da88798db709
perumahan,Perumahan,Kel Wambrauw,"3V87+4W8, Asaryendi, Numfor Tim., Kabupaten Biak Numfor, Papua","Kabupaten Biak Numfor, Papua",PAPUA,,Indonesia,,-0.9347117,1.348.648.351,https://maps.google.com/?cid=0x0:0x8579a681009058fd
perumahan,perumahan,Distrik Aimando Padaido,"Kabupaten Biak Numfor, Papua","Kabupaten Biak Numfor, Papua",PAPUA,,Indonesia,,-12.143.849,1.365.981.595,https://maps.google.com/?cid=0x0:0x7b5c29938f349564
perumahan,perumahan,Perumahan Puskesmas Pasi,"QJ93+QF2, Pasi, Distrik Aimando Padaido, Kabupaten Biak Numfor, Papua","Kabupaten Biak Numfor, Papua",PAPUA,,Indonesia,,-12.306.232,1.366.036.452,https://maps.google.com/?cid=0x0:0x24fd1710c9525aad
perumahan,Pembangunan Perumahan,Bernad home,"Kampung Bromsi, Mbromsi, Distrik Aimando Padaido, Kabupaten Biak Numfor, Papua","Kabupaten Biak Numfor, Papua",PAPUA,,Indonesia,,-12.073.231,1.365.981.595,https://maps.google.com/?cid=0x0:0x6a7ef2eeb65b4cae
perumahan,Perhimpunan Pengembang Perumahan,Saribra,"RH5X+HPF, Saribra, Distrik Aimando Padaido, Kabupaten Biak Numfor, Papua","Kabupaten Biak Numfor, Papua",PAPUA,,Indonesia,,-11.910.604,1.365.992.943,https://maps.google.com/?cid=0x0:0x5a8dff8814a42fef
perumahan,Vila,"Kel. Ruland Ronsumbre, S.Pd","QHGX+3QH, Mbromsi, Distrik Aimando Padaido, Kabupaten Biak Numfor, Papua","Kabupaten Biak Numfor, Papua",PAPUA,,Indonesia,,-1.224.825,1.365.994.991,https://maps.google.com/?cid=0x0:0x8bca8f7d24214e0c
perumahan,Dinas Kesehatan,Rumah dinas puskesmas,"QJ93+VHF, Pasi, Distrik Aimando Padaido, Kabupaten Biak Numfor, Papua","Kabupaten Biak Numfor, Papua",PAPUA,,Indonesia,,-12.303.155,1.366.039.181,https://maps.google.com/?cid=0x0:0xc6365ca18fe4772
perumahan,perumahan,Distrik Oridek,"Kabupaten Biak Numfor, Papua","Kabupaten Biak Numfor, Papua",PAPUA,,Indonesia,,-1.146.118,1.362.744.853,https://maps.google.com/?cid=0x0:0x33a1275478c34e
perumahan,,Rumah Qu,"V89G+RX3, Anggaduber, Distrik Oridek, Kabupaten Biak Numfor, Papua 98152","Anggaduber, Distrik Oridek, Kabupaten Biak Numfor",PAPUA,98152.0,Indonesia,,-11.304.908,1.363.274.138,https://maps.google.com/?cid=0x0:0xc6c93a7498bee984
perumahan,Komplek perumahan,Kampung sauri,"W77Q+GQ5, Sauri, Distrik Oridek, Kabupaten Biak Numfor, Papua 98152","Sauri, Distrik Oridek, Kabupaten Biak Numfor",PAPUA,98152.0,Indonesia,,-10.862.299,1.362.894.877,https://maps.google.com/?cid=0x0:0x1509fdf308142df2
perumahan,perumahan,Rumah Rido sanadi,"V865+WM8, Anggopi, Distrik Oridek, Kabupaten Biak Numfor, Papua 98152","Anggopi, Distrik Oridek, Kabupaten Biak Numfor",PAPUA,98152.0,Indonesia,,-11.377.076,1.363.092.094,https://maps.google.com/?cid=0x0:0x420846e2dae11a9f
perumahan,Otoritas Perumahan,Perumahan Guru SMPN. 2 Biak Timur,"R7R8+67F, Bakribo, Distrik Oridek, Kabupaten Biak Numfor, Papua 98152","Bakribo, Distrik Oridek, Kabupaten Biak Numfor",PAPUA,98152.0,Indonesia,,-11.594.462,1.362.656.698,https://maps.google.com/?cid=0x0:0xf43b68db2bef09c9
perumahan,Pembangunan Perumahan,ORIDEK PU RUMAH,"R542+8M4, Jl. Raya Bosnik, Swapodibo, Ambroben, Kabupaten Biak Numfor, Papua","Kabupaten Biak Numfor, Papua",PAPUA,,Indonesia,,-11.942.352,1.361.516.981,https://maps.google.com/?cid=0x0:0xf60be9e75cf7fe1c
perumahan,perumahan,Petrus sanadi/Anggopi,"V877+R5, Anggopi, Distrik Oridek, Kabupaten Biak Numfor, Papua","Kabupaten Biak Numfor, Papua",PAPUA,,Indonesia,,-1.135.428,136.312.988,https://maps.google.com/?cid=0x0:0x51e46bdfaa58343e
perumahan,Perhimpunan Pengembang Perumahan,Bakribo,"V735+GQX, Bakribo, Distrik Oridek, Kabupaten Biak Numfor, Papua 98152","Bakribo, Distrik Oridek, Kabupaten Biak Numfor",PAPUA,98152.0,Indonesia,,-11.461.357,1.362.594.963,https://maps.google.com/?cid=0x0:0x3b1776b3d1d6a7dc
perumahan,Komplek perumahan,KOMPLEKS CEMARA,"R7X5+4W9, Bakribo, Distrik Oridek, Kabupaten Biak Numfor, Papua 98152","Bakribo, Distrik Oridek, Kabupaten Biak Numfor",PAPUA,98152.0,Indonesia,,-11.521.899,13.626.083,https://maps.google.com/?cid=0x0:0xe6155e1f13b1617b
perumahan,Komplek perumahan,kompleks sombuk,"V852+JRF, Wadibu, Distrik Oridek, Kabupaten Biak Numfor, Papua 98152","Wadibu, Distrik Oridek, Kabupaten Biak Numfor",PAPUA,98152.0,Indonesia,,-11.409.335,1.363.020.589,https://maps.google.com/?cid=0x0:0x5370ef6424522a38
perumahan,Perhimpunan Pengembang Perumahan,Abdares Sasbekar,"V8W9+HPV, Animi, Distrik Oridek, Kabupaten Biak Numfor, Papua","Kabupaten Biak Numfor, Papua",PAPUA,,Indonesia,,-11.035.134,1.363.193.005,https://maps.google.com/?cid=0x0:0xc8b2f41864241aa2
perumahan,Pembangunan Perumahan,KUB SANDUMI STAR,"V88F+GVM, Jl, Tj. Barari, Distrik Oridek, Kabupaten Biak Numfor, Papua 98152","Jl, Tj. Barari, Distrik Oridek, Kabupaten Biak Numfor",PAPUA,98152.0,Indonesia,,-11.328.538,1.363.248.708,https://maps.google.com/?cid=0x0:0x4d8bb69882aa2cc2
perumahan,perumahan,Desa mokmer,"Jl. Raya Bosnik, Kajasi, Kec. Biak Tim., Kabupaten Biak Numfor, Papua","Kabupaten Biak Numfor, Papua",PAPUA,,Indonesia,,-11.631.362,1.362.551.919,https://maps.google.com/?cid=0x0:0x59b7e32239ea8800
perumahan,perumahan,LKM 24 maryeno,"Jl. Raya Maraw No.km 24, maryenbo, Distrik Oridek, Kabupaten Biak Numfor, Papua","Kabupaten Biak Numfor, Papua",PAPUA,,Indonesia,,-11.575.652,1.362.305.891,https://maps.google.com/?cid=0x0:0xe2b2cd63a886658a
perumahan,perumahan,Bondifuar,"Sansundi, Kabupaten Biak Numfor, Papua","Kabupaten Biak Numfor, Papua",PAPUA,,Indonesia,,-0.690129,1.358.185.211,https://maps.google.com/?cid=0x0:0x425bf86d4ccf74c7
perumahan,Komplek perumahan,Kk tony pu komplek,"8R67+FQG, Unnamed Road, Sansundi, Bondifuar, Kabupaten Biak Numfor, Papua 98161","Unnamed Road, Sansundi, Bondifuar, Kabupaten Biak Numfor",PAPUA,98161.0,Indonesia,82193013972.0,-0.688812,135.814.442,https://maps.google.com/?cid=0x0:0x9cf654d31761e07c
perumahan,Kantor Hubungan Masyarakat,Perumahan Darfuar,"V388+73H, Dafuar, Kec. Samofa, Kabupaten Biak Numfor, Papua 98156","Dafuar, Kec. Samofa, Kabupaten Biak Numfor",PAPUA,98156.0,Indonesia,,-11.343.089,1.360.652.262,https://maps.google.com/?cid=0x0:0xf62a711a193c1c86
perumahan,Komplek perumahan,Perumahan Pemda Kabupaten Supiori,"7Q66+22M, Unnamed Road, Waryesi, Kec. Supiori Tim., Kabupaten Supiori, Papua 98161","Unnamed Road, Waryesi, Kec. Supiori Tim., Kabupaten Supiori",PAPUA,98161.0,Indonesia,,-0.7399147,1.357.600.485,https://maps.google.com/?cid=0x0:0x86ffbb057d6c5929
perumahan,Rumah wisata,Pombos rumah,"7QPR+4J, Douwbo, Kec. Supiori Tim., Kabupaten Supiori, Papua 98161","Douwbo, Kec. Supiori Tim., Kabupaten Supiori",PAPUA,98161.0,Indonesia,,-0.7147191,1.357.915.554,https://maps.google.com/?cid=0x0:0x30df42e76b3cc7aa
perumahan,perumahan,Rumah Puguh,"7Q64+48M, Waryesi, Kec. Supiori Tim., Kabupaten Supiori, Papua 98161","Waryesi, Kec. Supiori Tim., Kabupaten Supiori",PAPUA,98161.0,Indonesia,,-0.7396603,1.357.557.761,https://maps.google.com/?cid=0x0:0x82944411dc0b26a3
perumahan,Perhimpunan Pengembang Perumahan,Greg room,"7QHV+GWJ, Douwbo, Kec. Supiori Tim., Kabupaten Supiori, Papua","Kabupaten Supiori, Papua",PAPUA,,Indonesia,,-0.7211642,1.357.947.633,https://maps.google.com/?cid=0x0:0x1532f7b396d85d09
housing complex,housing complex,Papua 98111,"Kabupaten Biak Numfor, Papua","Kabupaten Biak Numfor, Papua",PAPUA,,Indonesia,,-11.761.491,1.360.897.124,https://maps.google.com/?cid=0x0:0x2a08da43231bb9ff
housing complex,Komplek perumahan,Y Aâs Home,"R3CM+VJ6, Samofa, Kec. Samofa, Kabupaten Biak Numfor, Papua 98111","Samofa, Kec. Samofa, Kabupaten Biak Numfor",PAPUA,98111.0,Indonesia,,-1.177.602,1.360.847.018,https://maps.google.com/?cid=0x0:0xdd9257cd6cbb3cc0
housing complex,Perhimpunan Pengembang Perumahan,"Komplex Jl.Suci, Dolog","Jl. Suci Jl. Raya Dolog No.45, Mandala, Kec. Biak Kota, Kabupaten Biak Numfor, Papua 98111","Mandala, Kec. Biak Kota, Kabupaten Biak Numfor",PAPUA,98111.0,Indonesia,,-11.806.133,1.360.945.733,https://maps.google.com/?cid=0x0:0x91e3c370467f5bc9
housing complex,Komplek perumahan,KEL. Y. MARANDOF,"R39G+PQV, Jl. Sam Ratulangi, Burokub, Kec. Biak Kota, Kabupaten Biak Numfor, Papua 98111","Jl. Sam Ratulangi, Burokub, Kec. Biak Kota, Kabupaten Biak Numfor",PAPUA,98111.0,Indonesia,,-11.815.634,1.360.765.686,https://maps.google.com/?cid=0x0:0x205d46856a7dd00
housing complex,Pembangunan Perumahan,Bumex Area,"R3CH+4F6, Jl. Duku, Burokub, Kec. Biak Kota, Kabupaten Biak Numfor, Papua 98111","Jl. Duku, Burokub, Kec. Biak Kota, Kabupaten Biak Numfor",PAPUA,98111.0,Indonesia,,-11.797.118,1.360.786.323,https://maps.google.com/?cid=0x0:0x6d1c632fe83bc0ae
housing complex,Pembangunan Perumahan,penas,"R39G+PVC, Jalan Mawar, RT.001/RW.001, Burokub, Kec. Biak Kota, Kabupaten Biak Numfor, Papua 98111","Jalan Mawar, RT.001/RW.001, Burokub, Kec. Biak Kota, Kabupaten Biak Numfor",PAPUA,98111.0,Indonesia,,-1.180.699,1.360.771.405,https://maps.google.com/?cid=0x0:0x6d8c4e7006dc904d
housing complex,Komplek perumahan,Ibuhaji,"R37Q+F7V, Jl. Yenures, Mandala, Kec. Biak Kota, Kabupaten Biak Numfor, Papua 98111","Jl. Yenures, Mandala, Kec. Biak Kota, Kabupaten Biak Numfor",PAPUA,98111.0,Indonesia,,-11.863.498,136.088.212,https://maps.google.com/?cid=0x0:0xb44bbb37d4f88107
housing complex,Komplek perumahan,Kompleks Perumahan Meteorologi (BMKG),"R3PQ+V9R, Brambaken, Kec. Samofa, Kabupaten Biak Numfor, Papua 98111","Brambaken, Kec. Samofa, Kabupaten Biak Numfor",PAPUA,98111.0,Indonesia,,-11.627.595,1.360.883.854,https://maps.google.com/?cid=0x0:0xdd8868b979fb4fef
housing complex,Komplek perumahan,Unani House,"R39R+4F8, Mandala, Kec. Biak Kota, Kabupaten Biak Numfor, Papua 98111","Mandala, Kec. Biak Kota, Kabupaten Biak Numfor",PAPUA,98111.0,Indonesia,,-11.822.166,1.360.912.129,https://maps.google.com/?cid=0x0:0x5012d736570421b9
housing complex,Komplek perumahan,AREDOX,"R39R+G2M, Jl. Raya Dolog, Mandala, Kec. Biak Kota, Kabupaten Biak Numfor, Papua 98111","Jl. Raya Dolog, Mandala, Kec. Biak Kota, Kabupaten Biak Numfor",PAPUA,98111.0,Indonesia,,-11.813.416,1.360.901.495,https://maps.google.com/?cid=0x0:0x33798d53b68d23f7
housing complex,housing complex,Biak kota,"R37Q+9CF, Jl. Yenures, Mandala, Kec. Biak Kota, Kabupaten Biak Numfor, Papua 98111","Jl. Yenures, Mandala, Kec. Biak Kota, Kabupaten Biak Numfor",PAPUA,98111.0,Indonesia,,-11.865.713,1.360.885.472,https://maps.google.com/?cid=0x0:0x5abb374efc06258f
housing complex,Kantor Perusahaan,Mess PT. INP,"R39Q+V35, Mandala, Kec. Biak Kota, Kabupaten Biak Numfor, Papua 98111","Mandala, Kec. Biak Kota, Kabupaten Biak Numfor",PAPUA,98111.0,Indonesia,,-11.803.681,1.360.877.474,https://maps.google.com/?cid=0x0:0xa35ff36fd76871c6
housing complex,Komplek perumahan,Kompleks Rumah Dinas Pos,"R3JP+JPH, Samofa, Kec. Samofa, Kabupaten Biak Numfor, Papua 98111","Samofa, Kec. Samofa, Kabupaten Biak Numfor",PAPUA,98111.0,Indonesia,,-11.683.791,1.360.867.964,https://maps.google.com/?cid=0x0:0xa64be082e86bdee
housing complex,Gelanggang Pramuka,Jalan pramuka,"R37Q+QRV, Jl. Jend. Ahmad Yani, Mandala, Kec. Biak Kota, Kabupaten Biak Numfor, Papua 98111","Jl. Jend. Ahmad Yani, Mandala, Kec. Biak Kota, Kabupaten Biak Numfor",PAPUA,98111.0,Indonesia,,-118.551,1.360.895.575,https://maps.google.com/?cid=0x0:0x6e309b01e89fc458
housing complex,housing complex,Papua 98112,"Kabupaten Biak Numfor, Papua","Kabupaten Biak Numfor, Papua",PAPUA,,Indonesia,,-11.704.798,136.068.244,https://maps.google.com/?cid=0x0:0x36b6ebf6f8a4c3c6
housing complex,Komplek perumahan,KEL. Y. MARANDOF,"R39G+PQV, Jl. Sam Ratulangi, Burokub, Kec. Biak Kota, Kabupaten Biak Numfor, Papua 98111","Jl. Sam Ratulangi, Burokub, Kec. Biak Kota, Kabupaten Biak Numfor",PAPUA,98111.0,Indonesia,,-11.815.634,1.360.765.686,https://maps.google.com/?cid=0x0:0x205d46856a7dd00
housing complex,Pembangunan Perumahan,B4YU 4N9913,"R3MC+Q49, Samofa, Kec. Samofa, Kabupaten Biak Numfor, Papua 98112","Samofa, Kec. Samofa, Kabupaten Biak Numfor",PAPUA,98112.0,Indonesia,,-11.649.751,1.360.699.352,https://maps.google.com/?cid=0x0:0x4407033a02084c30
housing complex,Pembangunan Perumahan,Bumex Area,"R3CH+4F6, Jl. Duku, Burokub, Kec. Biak Kota, Kabupaten Biak Numfor, Papua 98111","Jl. Duku, Burokub, Kec. Biak Kota, Kabupaten Biak Numfor",PAPUA,98111.0,Indonesia,,-11.797.118,1.360.786.323,https://maps.google.com/?cid=0x0:0x6d1c632fe83bc0ae
housing complex,Komplek perumahan,Mantri saleh,"R3CC+3GJ, Jl. Aru IV, Waupnor, Kec. Biak Kota, Kabupaten Biak Numfor, Papua 98112","Jl. Aru IV, Waupnor, Kec. Biak Kota, Kabupaten Biak Numfor",PAPUA,98112.0,Indonesia,,-11.797.789,1.360.712.717,https://maps.google.com/?cid=0x0:0xc23054e7dbf8e00b
housing complex,housing complex,Kel. BATE,"Kompleks BTN Ridge 1 Biak, Adainasnosen, Kec. Samofa, Kabupaten Biak Numfor, Papua 98112","Adainasnosen, Kec. Samofa, Kabupaten Biak Numfor",PAPUA,98112.0,Indonesia,,-1.152.448,136.074.926,https://maps.google.com/?cid=0x0:0x76f8db04adec0ecb
housing complex,Komplek perumahan,Mabes aroex,"R3CC+769, Jl. Aru IV, Waupnor, Kec. Biak Kota, Kabupaten Biak Numfor, Papua 98112","Jl. Aru IV, Waupnor, Kec. Biak Kota, Kabupaten Biak Numfor",PAPUA,98112.0,Indonesia,,-1.179.331,1.360.706.004,https://maps.google.com/?cid=0x0:0x5daf264ddc253dd5
housing complex,housing complex,Ex. Gudang H. Thamrin Dahri,"R3Q8+FMJ, Sorido, Kec. Biak Kota, Kabupaten Biak Numfor, Papua","Kabupaten Biak Numfor, Papua",PAPUA,,Indonesia,,-11.612.908,1.360.666.498,https://maps.google.com/?cid=0x0:0xfafe40d215069b8f
housing complex,Komplek perumahan,Zecilya's HOME,"Jl. Papandayan No.14, Yafdas, Kec. Samofa, Kabupaten Biak Numfor, Papua 98551","Yafdas, Kec. Samofa, Kabupaten Biak Numfor",PAPUA,98551.0,Indonesia,,-11.598.946,1.360.692.685,https://maps.google.com/?cid=0x0:0x2002f7dfb089c159
housing complex,housing complex,Kel. J.Latuhihin,"R3P5+F56, Sorido, Kec. Biak Kota, Kabupaten Biak Numfor, Papua","Kabupaten Biak Numfor, Papua",PAPUA,,Indonesia,,-11.638.295,1.360.578.933,https://maps.google.com/?cid=0x0:0x41a41868afcf24a0
housing complex,housing complex,Rumah Kost PI Biak,"R3QC+PCW, Yafdas, Kec. Samofa, Kabupaten Biak Numfor, Papua 98112","Yafdas, Kec. Samofa, Kabupaten Biak Numfor",PAPUA,98112.0,Indonesia,,-11.611.551,1.360.712.538,https://maps.google.com/?cid=0x0:0xdb6a2c54b19b7efc
housing complex,housing complex,Kota biak,"R3CF+QWV, Saramom, Kec. Biak Kota, Kabupaten Biak Numfor, Papua","Kabupaten Biak Numfor, Papua",PAPUA,,Indonesia,,-11.780.147,1.360.747.955,https://maps.google.com/?cid=0x0:0x56534c1307eb20c0
housing complex,Komplek perumahan,Rumahnya Heru Prasetiyanto,"R3P7+FMG, Sorido, Kec. Biak Kota, Kabupaten Biak Numfor, Papua","Kabupaten Biak Numfor, Papua",PAPUA,,Indonesia,85243090149.0,-1.163.885,1.360.643.445,https://maps.google.com/?cid=0x0:0xf7657691210dc139
housing complex,Komplek perumahan,CH. Home,"R3PC+6W8, Jl. Pemda I, Samofa, Kec. Samofa, Kabupaten Biak Numfor, Papua 98112","Jl. Pemda I, Samofa, Kec. Samofa, Kabupaten Biak Numfor",PAPUA,98112.0,Indonesia,,-11.644.593,1.360.723.306,https://maps.google.com/?cid=0x0:0xa42fa371950e02fa
housing complex,housing complex,Papua 98113,"Kabupaten Biak Numfor, Papua","Kabupaten Biak Numfor, Papua",PAPUA,,Indonesia,,-115.291,1.360.634.745,https://maps.google.com/?cid=0x0:0xb1fa8f2f87b90209
housing complex,housing complex,ISTHY HOUSE,"R3R6+RM3, Sorido, Kec. Biak Kota, Kabupaten Biak Numfor, Papua 98113","Sorido, Kec. Biak Kota, Kabupaten Biak Numfor",PAPUA,98113.0,Indonesia,,-11.577.517,1.360.615.865,https://maps.google.com/?cid=0x0:0xf8d66bc19c89864e
housing complex,Komplek perumahan,Herland,"R3R6+C93, Sorido, Kec. Biak Kota, Kabupaten Biak Numfor, Papua 98113","Sorido, Kec. Biak Kota, Kabupaten Biak Numfor",PAPUA,98113.0,Indonesia,,-11.589.869,1.360.608.381,https://maps.google.com/?cid=0x0:0xae8d5999c5b037f0
housing complex,Pembangunan Perumahan,Della,"R3R8+XPV, Yafdas, Kec. Samofa, Kabupaten Biak Numfor, Papua 98113","Yafdas, Kec. Samofa, Kabupaten Biak Numfor",PAPUA,98113.0,Indonesia,,-11.578.008,1.360.663.822,https://maps.google.com/?cid=0x0:0x2a1582a7b0f377b4
housing complex,Komplek perumahan,Rumahnya Heru Prasetiyanto,"R3P7+FMG, Sorido, Kec. Biak Kota, Kabupaten Biak Numfor, Papua","Kabupaten Biak Numfor, Papua",PAPUA,,Indonesia,85243090149.0,-1.163.885,1.360.643.445,https://maps.google.com/?cid=0x0:0xf7657691210dc139
housing complex,Komplek perumahan,Esau hombes,"Bibit uggul, Perumnas No.12, Sorido, Kec. Biak Kota, Kabupaten Biak Numfor, Papua 98113","Perumnas No.12, Sorido, Kec. Biak Kota, Kabupaten Biak Numfor",PAPUA,98113.0,Indonesia,,-11.579.334,1.360.609.495,https://maps.google.com/?cid=0x0:0x4ce9f97b09596742
housing complex,housing complex,Ex. Gudang H. Thamrin Dahri,"R3Q8+FMJ, Sorido, Kec. Biak Kota, Kabupaten Biak Numfor, Papua","Kabupaten Biak Numfor, Papua",PAPUA,,Indonesia,,-11.612.908,1.360.666.498,https://maps.google.com/?cid=0x0:0xfafe40d215069b8f
housing complex,housing complex,Kunjungan Kembali,"R3R2+VMF, Sorido, Kec. Biak Kota, Kabupaten Biak Numfor, Papua","Kabupaten Biak Numfor, Papua",PAPUA,,Indonesia,,-11.572.747,1.360.518.249,https://maps.google.com/?cid=0x0:0x27401a0aa94d151b
housing complex,Komplek perumahan,Biak kota,"R3W2+925, Jl. Raya Sorido, Sorido, Kec. Biak Kota, Kabupaten Biak Numfor, Papua","Kabupaten Biak Numfor, Papua",PAPUA,,Indonesia,,-11.541.012,1.360.500.964,https://maps.google.com/?cid=0x0:0x14e1121f404eeb05
housing complex,Komplek perumahan,YAFDAS - BIAK KOTA,"R3R9+HJ7, Jl. Yafdas, Yafdas, Kec. Samofa, Kabupaten Biak Numfor, Papua 98112","Jl. Yafdas, Yafdas, Kec. Samofa, Kabupaten Biak Numfor",PAPUA,98112.0,Indonesia,,-11.585.358,1.360.692.626,https://maps.google.com/?cid=0x0:0x99874dd23ca4c1a8
housing complex,Pembangunan Perumahan,Haniel House,"R3V8+2VG, Jl. Kebersihan, Yafdas, Kec. Samofa, Kabupaten Biak Numfor, Papua 98113","Jl. Kebersihan, Yafdas, Kec. Samofa, Kabupaten Biak Numfor",PAPUA,98113.0,Indonesia,,-11.574.408,136.067.203,https://maps.google.com/?cid=0x0:0xd2a4a5c0fd99afbe
housing complex,Pembangunan Perumahan,Perumahan Griya Kelapa Gading Sorido,"R3P4+8VG, Jl. Jendral Sudirman, Sorido, Kec. Biak Kota, Kabupaten Biak Numfor, Papua 98115","Jl. Jendral Sudirman, Sorido, Kec. Biak Kota, Kabupaten Biak Numfor",PAPUA,98115.0,Indonesia,,-11.641.764,1.360.571.917,https://maps.google.com/?cid=0x0:0xd1157d94a6d4fdac
housing complex,Komplek perumahan,HK,"R3M7+CGP, Sorido, Kec. Biak Kota, Kabupaten Biak Numfor, Papua 98113","Sorido, Kec. Biak Kota, Kabupaten Biak Numfor",PAPUA,98113.0,Indonesia,,-11.661.664,136.063.455,https://maps.google.com/?cid=0x0:0x45dc8f86d9081aba
housing complex,Komplek perumahan,Rumah Kel.Nussy Tahalele,"R3V7+528, Unnamed Road, Sorido, Kec. Biak Kota, Kabupaten Biak Numfor, Papua 98113","Unnamed Road, Sorido, Kec. Biak Kota, Kabupaten Biak Numfor",PAPUA,98113.0,Indonesia,,-1.157.091,1.360.625.658,https://maps.google.com/?cid=0x0:0x1afcb946ce15916f
housing complex,housing complex,ISTHY HOUSE,"R3R6+RM3, Sorido, Kec. Biak Kota, Kabupaten Biak Numfor, Papua 98113","Sorido, Kec. Biak Kota, Kabupaten Biak Numfor",PAPUA,98113.0,Indonesia,,-11.577.517,1.360.615.865,https://maps.google.com/?cid=0x0:0xf8d66bc19c89864e
housing complex,housing complex,Papua 98114,"Kabupaten Biak Numfor, Papua","Kabupaten Biak Numfor, Papua",PAPUA,,Indonesia,,-11.386.625,1.360.491.689,https://maps.google.com/?cid=0x0:0xb7899b24d8a2c999
housing complex,Komplek perumahan,Biak kota,"R3W2+925, Jl. Raya Sorido, Sorido, Kec. Biak Kota, Kabupaten Biak Numfor, Papua","Kabupaten Biak Numfor, Papua",PAPUA,,Indonesia,,-11.541.012,1.360.500.964,https://maps.google.com/?cid=0x0:0x14e1121f404eeb05
housing complex,Komplek perumahan,Rumah darat sorido,"R3X3+9CR, Sorido, Kec. Biak Kota, Kabupaten Biak Numfor, Papua 98114","Sorido, Kec. Biak Kota, Kabupaten Biak Numfor",PAPUA,98114.0,Indonesia,,-11.515.743,1.360.535.334,https://maps.google.com/?cid=0x0:0xe18a3ee2816d26b4
housing complex,Komplek perumahan,HUSAIN/UNI,"R2WW+236, Inggiri, Kec. Biak Kota, Kabupaten Biak Numfor, Papua 98115","Inggiri, Kec. Biak Kota, Kabupaten Biak Numfor",PAPUA,98115.0,Indonesia,,-11.549.598,1.360.453.913,https://maps.google.com/?cid=0x0:0x5d7d9d3e19974293
housing complex,Perhimpunan Pengembang Perumahan,rumah Q,"V23R+5G8, Insrom, Kec. Biak Kota, Kabupaten Biak Numfor, Papua 98115","Insrom, Kec. Biak Kota, Kabupaten Biak Numfor",PAPUA,98115.0,Indonesia,,-11.465.571,1.360.415.477,https://maps.google.com/?cid=0x0:0x67d9e9deff81dea0
housing complex,Komplek perumahan,PABIDA HOUSE,"V376+3XQ, Jl. Adibai, Dafuar, Kec. Samofa, Kabupaten Biak Numfor, Papua 98156","Jl. Adibai, Dafuar, Kec. Samofa, Kabupaten Biak Numfor",PAPUA,98156.0,Indonesia,,-1.137.278,136.062.495,https://maps.google.com/?cid=0x0:0x4f77443ae49255fb
housing complex,Komplek perumahan,Nista sandy,"V24Q+228, Insrom, Kec. Biak Kota, Kabupaten Biak Numfor, Papua","Kabupaten Biak Numfor, Papua",PAPUA,,Indonesia,,-11.449.514,1.360.375.827,https://maps.google.com/?cid=0x0:0xdc78eb2c69fbe912
housing complex,Komplek perumahan,Esau hombes,"Bibit uggul, Perumnas No.12, Sorido, Kec. Biak Kota, Kabupaten Biak Numfor, Papua 98113","Perumnas No.12, Sorido, Kec. Biak Kota, Kabupaten Biak Numfor",PAPUA,98113.0,Indonesia,,-11.579.334,1.360.609.495,https://maps.google.com/?cid=0x0:0x4ce9f97b09596742
housing complex,Pembangunan Perumahan,Kel M.Maker,"V22R+MCW, Insrom, Kec. Biak Kota, Kabupaten Biak Numfor, Papua 98115","Insrom, Kec. Biak Kota, Kabupaten Biak Numfor",PAPUA,98115.0,Indonesia,,-1.148.271,1.360.410.703,https://maps.google.com/?cid=0x0:0x16b5337f60fce84a
housing complex,housing complex,D msen,"R3V3+QQR, Sorido, Kec. Biak Kota, Kabupaten Biak Numfor, Papua 98115","Sorido, Kec. Biak Kota, Kabupaten Biak Numfor",PAPUA,98115.0,Indonesia,,-11.555.119,1.360.543.814,https://maps.google.com/?cid=0x0:0x67e94fd05e3c563f
housing complex,Komplek perumahan,Inggiri,"R2WV+HPG, Inggiri, Kec. Biak Kota, Kabupaten Biak Numfor, Papua","Kabupaten Biak Numfor, Papua",PAPUA,,Indonesia,,-11.535.571,136.044.341,https://maps.google.com/?cid=0x0:0xd583547acaf2007e
housing complex,Komplek perumahan,Keluarga Ghuli Suhariyadi,"V22X+8MV, Inggiri, Kec. Biak Kota, Kabupaten Biak Numfor, Papua","Kabupaten Biak Numfor, Papua",PAPUA,,Indonesia,,-11.491.395,1.360.491.689,https://maps.google.com/?cid=0x0:0x58d68a10109ed046
housing complex,Komplek perumahan,sihombing,"V366+QHJ, Dafuar, Kec. Samofa, Kabupaten Biak Numfor, Papua","Kabupaten Biak Numfor, Papua",PAPUA,,Indonesia,,-11.380.438,1.360.613.927,https://maps.google.com/?cid=0x0:0x9093f219ad37de5
housing complex,housing complex,Papua 98115,"Kec. Biak Kota, Kabupaten Biak Numfor, Papua","Kabupaten Biak Numfor, Papua",PAPUA,,Indonesia,,-11.614.138,1.360.515.529,https://maps.google.com/?cid=0x0:0x9abbe05255913eb1
housing complex,Komplek perumahan,HUSAIN/UNI,"R2WW+236, Inggiri, Kec. Biak Kota, Kabupaten Biak Numfor, Papua 98115","Inggiri, Kec. Biak Kota, Kabupaten Biak Numfor",PAPUA,98115.0,Indonesia,,-11.549.598,1.360.453.913,https://maps.google.com/?cid=0x0:0x5d7d9d3e19974293
housing complex,Pembangunan Perumahan,Perumahan Griya Kelapa Gading Sorido,"R3P4+8VG, Jl. Jendral Sudirman, Sorido, Kec. Biak Kota, Kabupaten Biak Numfor, Papua 98115","Jl. Jendral Sudirman, Sorido, Kec. Biak Kota, Kabupaten Biak Numfor",PAPUA,98115.0,Indonesia,,-11.641.764,1.360.571.917,https://maps.google.com/?cid=0x0:0xd1157d94a6d4fdac
housing complex,housing complex,ISTHY HOUSE,"R3R6+RM3, Sorido, Kec. Biak Kota, Kabupaten Biak Numfor, Papua 98113","Sorido, Kec. Biak Kota, Kabupaten Biak Numfor",PAPUA,98113.0,Indonesia,,-11.577.517,1.360.615.865,https://maps.google.com/?cid=0x0:0xf8d66bc19c89864e
housing complex,housing complex,Kunjungan Kembali,"R3R2+VMF, Sorido, Kec. Biak Kota, Kabupaten Biak Numfor, Papua","Kabupaten Biak Numfor, Papua",PAPUA,,Indonesia,,-11.572.747,1.360.518.249,https://maps.google.com/?cid=0x0:0x27401a0aa94d151b
housing complex,Komplek perumahan,Esau hombes,"Bibit uggul, Perumnas No.12, Sorido, Kec. Biak Kota, Kabupaten Biak Numfor, Papua 98113","Perumnas No.12, Sorido, Kec. Biak Kota, Kabupaten Biak Numfor",PAPUA,98113.0,Indonesia,,-11.579.334,1.360.609.495,https://maps.google.com/?cid=0x0:0x4ce9f97b09596742
housing complex,Perhimpunan Pengembang Perumahan,rumah Q,"V23R+5G8, Insrom, Kec. Biak Kota, Kabupaten Biak Numfor, Papua 98115","Insrom, Kec. Biak Kota, Kabupaten Biak Numfor",PAPUA,98115.0,Indonesia,,-11.465.571,1.360.415.477,https://maps.google.com/?cid=0x0:0x67d9e9deff81dea0
housing complex,Komplek perumahan,My Home,"R3Q4+HV, Sorido, Kec. Biak Kota, Kabupaten Biak Numfor, Papua 98115","Sorido, Kec. Biak Kota, Kabupaten Biak Numfor",PAPUA,98115.0,Indonesia,,-11.611.953,1.360.572.851,https://maps.google.com/?cid=0x0:0x640cab9e86906656
housing complex,Komplek perumahan,Rumahnya Heru Prasetiyanto,"R3P7+FMG, Sorido, Kec. Biak Kota, Kabupaten Biak Numfor, Papua","Kabupaten Biak Numfor, Papua",PAPUA,,Indonesia,85243090149.0,-1.163.885,1.360.643.445,https://maps.google.com/?cid=0x0:0xf7657691210dc139
housing complex,Pembangunan Perumahan,Kel M.Maker,"V22R+MCW, Insrom, Kec. Biak Kota, Kabupaten Biak Numfor, Papua 98115","Insrom, Kec. Biak Kota, Kabupaten Biak Numfor",PAPUA,98115.0,Indonesia,,-1.148.271,1.360.410.703,https://maps.google.com/?cid=0x0:0x16b5337f60fce84a
housing complex,Komplek perumahan,Herland,"R3R6+C93, Sorido, Kec. Biak Kota, Kabupaten Biak Numfor, Papua 98113","Sorido, Kec. Biak Kota, Kabupaten Biak Numfor",PAPUA,98113.0,Indonesia,,-11.589.869,1.360.608.381,https://maps.google.com/?cid=0x0:0xae8d5999c5b037f0
housing complex,Komplek perumahan,TB,"R3Q8+XGM, Sorido, Kec. Biak Kota, Kabupaten Biak Numfor, Papua 98113","Sorido, Kec. Biak Kota, Kabupaten Biak Numfor",PAPUA,98113.0,Indonesia,,-11.601.059,1.360.663.016,https://maps.google.com/?cid=0x0:0x7436db2284f8f582
housing complex,housing complex,Kel. J.Latuhihin,"R3P5+F56, Sorido, Kec. Biak Kota, Kabupaten Biak Numfor, Papua","Kabupaten Biak Numfor, Papua",PAPUA,,Indonesia,,-11.638.295,1.360.578.933,https://maps.google.com/?cid=0x0:0x41a41868afcf24a0
housing complex,Komplek perumahan,YAFDAS - BIAK KOTA,"R3R9+HJ7, Jl. Yafdas, Yafdas, Kec. Samofa, Kabupaten Biak Numfor, Papua 98112","Jl. Yafdas, Yafdas, Kec. Samofa, Kabupaten Biak Numfor",PAPUA,98112.0,Indonesia,,-11.585.358,1.360.692.626,https://maps.google.com/?cid=0x0:0x99874dd23ca4c1a8
housing complex,housing complex,Papua 98116,"Kec. Yendidori, Kabupaten Biak Numfor, Papua","Kabupaten Biak Numfor, Papua",PAPUA,,Indonesia,,-11.152.139,1.360.086.594,https://maps.google.com/?cid=0x0:0xa8c3dc42c3bee07d
housing complex,Komplek perumahan,Biak kota,"R3W2+925, Jl. Raya Sorido, Sorido, Kec. Biak Kota, Kabupaten Biak Numfor, Papua","Kabupaten Biak Numfor, Papua",PAPUA,,Indonesia,,-11.541.012,1.360.500.964,https://maps.google.com/?cid=0x0:0x14e1121f404eeb05
housing complex,Komplek perumahan,HUSAIN/UNI,"R2WW+236, Inggiri, Kec. Biak Kota, Kabupaten Biak Numfor, Papua 98115","Inggiri, Kec. Biak Kota, Kabupaten Biak Numfor",PAPUA,98115.0,Indonesia,,-11.549.598,1.360.453.913,https://maps.google.com/?cid=0x0:0x5d7d9d3e19974293
housing complex,housing complex,Kunjungan Kembali,"R3R2+VMF, Sorido, Kec. Biak Kota, Kabupaten Biak Numfor, Papua","Kabupaten Biak Numfor, Papua",PAPUA,,Indonesia,,-11.572.747,1.360.518.249,https://maps.google.com/?cid=0x0:0x27401a0aa94d151b
housing complex,housing complex,ISTHY HOUSE,"R3R6+RM3, Sorido, Kec. Biak Kota, Kabupaten Biak Numfor, Papua 98113","Sorido, Kec. Biak Kota, Kabupaten Biak Numfor",PAPUA,98113.0,Indonesia,,-11.577.517,1.360.615.865,https://maps.google.com/?cid=0x0:0xf8d66bc19c89864e
housing complex,Komplek perumahan,Nista sandy,"V24Q+228, Insrom, Kec. Biak Kota, Kabupaten Biak Numfor, Papua","Kabupaten Biak Numfor, Papua",PAPUA,,Indonesia,,-11.449.514,1.360.375.827,https://maps.google.com/?cid=0x0:0xdc78eb2c69fbe912
housing complex,Perhimpunan Pengembang Perumahan,rumah Q,"V23R+5G8, Insrom, Kec. Biak Kota, Kabupaten Biak Numfor, Papua 98115","Insrom, Kec. Biak Kota, Kabupaten Biak Numfor",PAPUA,98115.0,Indonesia,,-11.465.571,1.360.415.477,https://maps.google.com/?cid=0x0:0x67d9e9deff81dea0
housing complex,Komplek perumahan,Esau hombes,"Bibit uggul, Perumnas No.12, Sorido, Kec. Biak Kota, Kabupaten Biak Numfor, Papua 98113","Perumnas No.12, Sorido, Kec. Biak Kota, Kabupaten Biak Numfor",PAPUA,98113.0,Indonesia,,-11.579.334,1.360.609.495,https://maps.google.com/?cid=0x0:0x4ce9f97b09596742
housing complex,Komplek perumahan,Yendidori biak,"V259+JFP, Yendidori, Kec. Yendidori, Kabupaten Biak Numfor, Papua","Kabupaten Biak Numfor, Papua",PAPUA,,Indonesia,,-11.409.192,1.360.186.943,https://maps.google.com/?cid=0x0:0x87b80804d5a82db
housing complex,Pembangunan Perumahan,Kel M.Maker,"V22R+MCW, Insrom, Kec. Biak Kota, Kabupaten Biak Numfor, Papua 98115","Insrom, Kec. Biak Kota, Kabupaten Biak Numfor",PAPUA,98115.0,Indonesia,,-1.148.271,1.360.410.703,https://maps.google.com/?cid=0x0:0x16b5337f60fce84a
housing complex,Komplek perumahan,House manuputty,"V25H+FVQ, Jl. Raya Sorido, Yendidori, Kec. Yendidori, Kabupaten Biak Numfor, Papua 98116","Jl. Raya Sorido, Yendidori, Kec. Yendidori, Kabupaten Biak Numfor",PAPUA,98116.0,Indonesia,,-11.422.124,1.360.301.051,https://maps.google.com/?cid=0x0:0x87a5133e9c95bd8c
housing complex,Komplek perumahan,House Sendow-momongan,"V25H+FVQ, Jl. Raya Sorido, Yendidori, Kec. Yendidori, Kabupaten Biak Numfor, Papua 98116","Jl. Raya Sorido, Yendidori, Kec. Yendidori, Kabupaten Biak Numfor",PAPUA,98116.0,Indonesia,,-11.427.679,1.360.304.319,https://maps.google.com/?cid=0x0:0xdf101e05d44eaf4a
housing complex,housing complex,My Home,"V22Q+9Q2, Insrom, Kec. Biak Kota, Kabupaten Biak Numfor, Papua 98115","Insrom, Kec. Biak Kota, Kabupaten Biak Numfor",PAPUA,98115.0,Indonesia,,-1.147.987,136.040.006,https://maps.google.com/?cid=0x0:0xaf2a0a648d8d30d1
housing complex,Komplek perumahan,Israel Burdam,"V23Q+Q9G, Insrom, Kec. Biak Kota, Kabupaten Biak Numfor, Papua 98115","Insrom, Kec. Biak Kota, Kabupaten Biak Numfor",PAPUA,98115.0,Indonesia,,-11.455.655,1.360.384.635,https://maps.google.com/?cid=0x0:0x3bbaaa438576b53f
housing complex,Komplek perumahan,Y Aâs Home,"R3CM+VJ6, Samofa, Kec. Samofa, Kabupaten Biak Numfor, Papua 98111","Samofa, Kec. Samofa, Kabupaten Biak Numfor",PAPUA,98111.0,Indonesia,,-1.177.602,1.360.847.018,https://maps.google.com/?cid=0x0:0xdd9257cd6cbb3cc0
housing complex,housing complex,Kec. Biak Kota,"Kabupaten Biak Numfor, Papua","Kabupaten Biak Numfor, Papua",PAPUA,,Indonesia,,-11.837.602,1.360.797.406,https://maps.google.com/?cid=0x0:0x28487caea0b09c5a
housing complex,Komplek perumahan,KEL. Y. MARANDOF,"R39G+PQV, Jl. Sam Ratulangi, Burokub, Kec. Biak Kota, Kabupaten Biak Numfor, Papua 98111","Jl. Sam Ratulangi, Burokub, Kec. Biak Kota, Kabupaten Biak Numfor",PAPUA,98111.0,Indonesia,,-11.815.634,1.360.765.686,https://maps.google.com/?cid=0x0:0x205d46856a7dd00
housing complex,Komplek perumahan,"Kompleks ssc, samofa biak.","R3MQ+338, Samofa, Kec. Samofa, Kabupaten Biak Numfor, Papua","Kabupaten Biak Numfor, Papua",PAPUA,,Indonesia,,-11.673.498,1.360.876.931,https://maps.google.com/?cid=0x0:0xebfc3f09b2a168e6
housing complex,Pembangunan Perumahan,Bumex Area,"R3CH+4F6, Jl. Duku, Burokub, Kec. Biak Kota, Kabupaten Biak Numfor, Papua 98111","Jl. Duku, Burokub, Kec. Biak Kota, Kabupaten Biak Numfor",PAPUA,98111.0,Indonesia,,-11.797.118,1.360.786.323,https://maps.google.com/?cid=0x0:0x6d1c632fe83bc0ae
housing complex,Komplek perumahan,My Home,"Jl. Yos Sudarso No.15, Mandala, Kec. Biak Kota, Kabupaten Biak Numfor, Papua 98118","Mandala, Kec. Biak Kota, Kabupaten Biak Numfor",PAPUA,98118.0,Indonesia,,-11.878.033,1.360.927.246,https://maps.google.com/?cid=0x0:0xdbbe878a2973f748
housing complex,Komplek perumahan,Rumah ica,"R3CQ+7RG, Mandala, Kec. Biak Kota, Kabupaten Biak Numfor, Papua 98111","Mandala, Kec. Biak Kota, Kabupaten Biak Numfor",PAPUA,98111.0,Indonesia,,-11.786.458,1.360.901.393,https://maps.google.com/?cid=0x0:0xebb80a11cb006f68
housing complex,Komplek perumahan,YAFDAS - BIAK KOTA,"R3R9+HJ7, Jl. Yafdas, Yafdas, Kec. Samofa, Kabupaten Biak Numfor, Papua 98112","Jl. Yafdas, Yafdas, Kec. Samofa, Kabupaten Biak Numfor",PAPUA,98112.0,Indonesia,,-11.585.358,1.360.692.626,https://maps.google.com/?cid=0x0:0x99874dd23ca4c1a8
housing complex,Komplek perumahan,Ibuhaji,"R37Q+F7V, Jl. Yenures, Mandala, Kec. Biak Kota, Kabupaten Biak Numfor, Papua 98111","Jl. Yenures, Mandala, Kec. Biak Kota, Kabupaten Biak Numfor",PAPUA,98111.0,Indonesia,,-11.863.498,136.088.212,https://maps.google.com/?cid=0x0:0xb44bbb37d4f88107
housing complex,Komplek perumahan,Biak kota,"R47G+Q62, Swapodibo, Kec. Biak Kota, Kabupaten Biak Numfor, Papua 98118","Swapodibo, Kec. Biak Kota, Kabupaten Biak Numfor",PAPUA,98118.0,Indonesia,,-11.856.086,1.361.255.143,https://maps.google.com/?cid=0x0:0x689d90f2041bcbbe
housing complex,Pembangunan Perumahan,Perumahan Griya Kelapa Gading Sorido,"R3P4+8VG, Jl. Jendral Sudirman, Sorido, Kec. Biak Kota, Kabupaten Biak Numfor, Papua 98115","Jl. Jendral Sudirman, Sorido, Kec. Biak Kota, Kabupaten Biak Numfor",PAPUA,98115.0,Indonesia,,-11.641.764,1.360.571.917,https://maps.google.com/?cid=0x0:0xd1157d94a6d4fdac
housing complex,Komplek perumahan,Rumahnya Heru Prasetiyanto,"R3P7+FMG, Sorido, Kec. Biak Kota, Kabupaten Biak Numfor, Papua","Kabupaten Biak Numfor, Papua",PAPUA,,Indonesia,85243090149.0,-1.163.885,1.360.643.445,https://maps.google.com/?cid=0x0:0xf7657691210dc139
housing complex,Komplek perumahan,Unani House,"R39R+4F8, Mandala, Kec. Biak Kota, Kabupaten Biak Numfor, Papua 98111","Mandala, Kec. Biak Kota, Kabupaten Biak Numfor",PAPUA,98111.0,Indonesia,,-11.822.166,1.360.912.129,https://maps.google.com/?cid=0x0:0x5012d736570421b9
housing complex,Komplek perumahan,GSH,"R38P+FMH, Mandala, Kec. Biak Kota, Kabupaten Biak Numfor, Papua 98111","Mandala, Kec. Biak Kota, Kabupaten Biak Numfor",PAPUA,98111.0,Indonesia,,-11.839.846,1.360.872.784,https://maps.google.com/?cid=0x0:0xc0b20dd33df76cb7
housing complex,housing complex,Kec. Biak Kota,"Kabupaten Biak Numfor, Papua","Kabupaten Biak Numfor, Papua",PAPUA,,Indonesia,,-11.837.602,1.360.797.406,https://maps.google.com/?cid=0x0:0x28487caea0b09c5a
housing complex,Pembangunan Perumahan,Perumahan Griya Kelapa Gading Sorido,"R3P4+8VG, Jl. Jendral Sudirman, Sorido, Kec. Biak Kota, Kabupaten Biak Numfor, Papua 98115","Jl. Jendral Sudirman, Sorido, Kec. Biak Kota, Kabupaten Biak Numfor",PAPUA,98115.0,Indonesia,,-11.641.764,1.360.571.917,https://maps.google.com/?cid=0x0:0xd1157d94a6d4fdac
housing complex,Kompleks Apartemen,Rumah sewa toko terapung no.6,"R3P8+HCC, Jl. Raya Sorido, Sorido, Kec. Biak Kota, Kabupaten Biak Numfor, Papua 98113","Jl. Raya Sorido, Sorido, Kec. Biak Kota, Kabupaten Biak Numfor",PAPUA,98113.0,Indonesia,,-11.636.865,1.360.659.335,https://maps.google.com/?cid=0x0:0xb09414ed6c36fee4
housing complex,Museum,Objek Wisata Goa Jepang Biak Papua,"Kampung Wisata, Binsari, Jl. Goa Jepang, Kec. Samofa, Kabupaten Biak Numfor, Papua 98118","Binsari, Jl. Goa Jepang, Kec. Samofa, Kabupaten Biak Numfor",PAPUA,98118.0,Indonesia,,-11.778.447,1.361.049.498,https://maps.google.com/?cid=0x0:0x93df93a4aad95a9b
housing complex,housing complex,Swiss-Belhotel Cendrawasih Biak,"Jl. Imam Bonjol No.46, Fandoi, Kec. Biak Kota, Kabupaten Biak Numfor, Papua 98111","Fandoi, Kec. Biak Kota, Kabupaten Biak Numfor",PAPUA,98111.0,Indonesia,9818215555.0,-11.801.431,1.360.821.927,https://maps.google.com/?cid=0x0:0xe0dc40892972b01f
housing complex,housing complex,Asana Biak Papua,"Jl. M Yamin No.04, Mandala, Kec. Biak Kota, Kabupaten Biak Numfor, Papua 98111","Mandala, Kec. Biak Kota, Kabupaten Biak Numfor",PAPUA,98111.0,Indonesia,8114743111.0,-11.918.619,1.361.049.095,https://maps.google.com/?cid=0x0:0x94321ded15c5a4a3
housing complex,Komplek perumahan,LOKASI RUMAH,"R3VP+64V, Mandouw, Kec. Samofa, Kabupaten Biak Numfor, Papua","Kabupaten Biak Numfor, Papua",PAPUA,,Indonesia,81250676873.0,-11.568.829,1.360.853.093,https://maps.google.com/?cid=0x0:0x2662e260e70265d5
housing complex,Komplek perumahan,Perumahan Artamakmur Regency,"Jl. Adibai Sumberker Samofa No.Dalam, Mandouw, Kec. Samofa, Kabupaten Biak Numfor, Papua 98118","Mandouw, Kec. Samofa, Kabupaten Biak Numfor",PAPUA,98118.0,Indonesia,81291262115.0,-11.526.874,136.088.976,https://maps.google.com/?cid=0x0:0xeec5bf472fe70b90
housing complex,housing complex,,,,PAPUA,,Indonesia,,,,https://maps.google.com/?cid=0x0:0xe0dc40892972b01f%7C/g/11j0z5hwyq%7Cid-ID
housing complex,Komplek perumahan,GRIYA MANDOUW INDAH,"Mandouw, Kec. Samofa, Kabupaten Biak Numfor, Papua 98111","Kec. Samofa, Kabupaten Biak Numfor",PAPUA,98111.0,Indonesia,,-11.542.156,1.360.910.217,https://maps.google.com/?cid=0x0:0x6fbcf36b4d32d003
housing complex,housing complex,Hotel Mapia,"Jl. Jend. Ahmad Yani No.23, Mandala, Kec. Biak Kota, Kabupaten Biak Numfor, Papua 98111","Mandala, Kec. Biak Kota, Kabupaten Biak Numfor",PAPUA,98111.0,Indonesia,98121383.0,-11.848.375,1.360.856.602,https://maps.google.com/?cid=0x0:0x15f6e40202cd7120
housing complex,housing complex,Arumbai Hotel,"Jl. Imam Bonjol No.2, Fandoi, Kec. Biak Kota, Kabupaten Biak Numfor, Papua 98111","Fandoi, Kec. Biak Kota, Kabupaten Biak Numfor",PAPUA,98111.0,Indonesia,,-11.831.962,1.360.817.419,https://maps.google.com/?cid=0x0:0x92f1df543a771343
housing complex,housing complex,Hotel Basana Inn,"Jl. Imam Bonjol, Fandoi, Biak, Kabupaten Biak Numfor, Papua 98112","Fandoi, Biak, Kabupaten Biak Numfor",PAPUA,98112.0,Indonesia,98122281.0,-11.811.297,1.360.825.355,https://maps.google.com/?cid=0x0:0x1b08ff238ba2abe9
housing complex,housing complex,,,,PAPUA,,Indonesia,,,,https://maps.google.com/?cid=0x0:0x1b08ff238ba2abe9%7C/g/11h0ft_9b%7Cid-ID
housing complex,housing complex,Papua 98153,"Kabupaten Biak Numfor, Papua","Kabupaten Biak Numfor, Papua",PAPUA,,Indonesia,,-0.9418311,1.360.372.508,https://maps.google.com/?cid=0x0:0xdaa7c4e762f36ed7
housing complex,housing complex,Kel. Y Wabdaron,"42PH+MXV, Waromi, Distrik Biak Utara, Kabupaten Biak Numfor, Papua 98153","Waromi, Distrik Biak Utara, Kabupaten Biak Numfor",PAPUA,98153.0,Indonesia,,-0.8631257,1.360.295.381,https://maps.google.com/?cid=0x0:0xc32cb0849b38e40c
housing complex,Komplek perumahan,Rumah Masgam,"32RV+H5X, Saukobye, Distrik Biak Utara, Kabupaten Biak Numfor, Papua 98153","Saukobye, Distrik Biak Utara, Kabupaten Biak Numfor",PAPUA,98153.0,Indonesia,,-0.9085012,1.360.429.787,https://maps.google.com/?cid=0x0:0x8c7b99764905c84d
housing complex,Komplek perumahan,Eltim cps,"23R2+HJ, Mambesak, Distrik Biak Utara, Kabupaten Biak Numfor, Papua","Kabupaten Biak Numfor, Papua",PAPUA,,Indonesia,,-0.9585349,1.360.515.838,https://maps.google.com/?cid=0x0:0xd0596ad44a32e519
housing complex,housing complex,Kompleks BUPA ( Buton-Papua ),"32JP+7WQ, Andei, Distrik Biak Utara, Kabupaten Biak Numfor, Papua 98153","Andei, Distrik Biak Utara, Kabupaten Biak Numfor",PAPUA,98153.0,Indonesia,,-0.919285,1.360.373.661,https://maps.google.com/?cid=0x0:0x983c67e0dd65ea1b
housing complex,Komplek perumahan,Kompleks Buton lombe,"32RV+8JW, Saukobye, Distrik Biak Utara, Kabupaten Biak Numfor, Papua 98153","Saukobye, Distrik Biak Utara, Kabupaten Biak Numfor",PAPUA,98153.0,Indonesia,,-0.9091441,1.360.440.626,https://maps.google.com/?cid=0x0:0x3d36fe8b56338607
housing complex,Komplek perumahan,Samofa biak,"XX6J+Q24 Jin pemda 1 biak, Syabes, Kec. Yendidori, Kabupaten Biak Numfor, Papua 98156","Syabes, Kec. Yendidori, Kabupaten Biak Numfor",PAPUA,98156.0,Indonesia,,-10.381.022,1.359.800.848,https://maps.google.com/?cid=0x0:0x98038044d0b6c9ab
housing complex,Komplek perumahan,RUMAH KELUARGA MAMBOBO,"5XHR+X7J, Sor, Distrik Yawosi, Kabupaten Biak Numfor, Papua","Kabupaten Biak Numfor, Papua",PAPUA,,Indonesia,,-0.8200303,1.359.906.497,https://maps.google.com/?cid=0x0:0x7c329e28dc4f1f1f
housing complex,Pembangunan Perumahan,Merauke,"3289+X3, Nermnu, Distrik Biak Utara, Kabupaten Biak Numfor, Papua","Kabupaten Biak Numfor, Papua",PAPUA,,Indonesia,,-0.9325669,1.360.177.094,https://maps.google.com/?cid=0x0:0xc0acb86e04455a47
housing complex,Komplek perumahan,Rumah ku,"32VR+QM2, Saukobye, Distrik Biak Utara, Kabupaten Biak Numfor, Papua 98153","Saukobye, Distrik Biak Utara, Kabupaten Biak Numfor",PAPUA,98153.0,Indonesia,,-0.9044503,1.360.416.258,https://maps.google.com/?cid=0x0:0xc79255f71bde4833
housing complex,Komplek perumahan,Mori Kapitarauw,"Jln. SMA N 01 Biak Utara, kampung Warbon, Andei, Distrik Biak Utara, Kabupaten Biak Numfor, Papua 98153","kampung Warbon, Andei, Distrik Biak Utara, Kabupaten Biak Numfor",PAPUA,98153.0,Indonesia,,-0.9199431,1.360.419.192,https://maps.google.com/?cid=0x0:0x5a70e3a6516e2cf8
housing complex,Komplek perumahan,Gaura victoria makuker,"X2PW+P8V, Kobeoser, Distrik Biak Utara, Kabupaten Biak Numfor, Papua","Kabupaten Biak Numfor, Papua",PAPUA,,Indonesia,,-10.123.237,1.360.450.515,https://maps.google.com/?cid=0x0:0x8f0e7dc8d0e52a56
housing complex,Pembangunan Perumahan,Amos Yatipai PRC,"322W+CPM, Jalan Mambesak Mabes P.R.C, Mambesak, Distrik Biak Utara, Kabupaten Biak Numfor, Papua 98153","Jalan Mambesak Mabes P.R.C, Mambesak, Distrik Biak Utara, Kabupaten Biak Numfor",PAPUA,98153.0,Indonesia,,-0.9489208,1.360.467.851,https://maps.google.com/?cid=0x0:0x3e8c9a3e2579e394
housing complex,Komplek perumahan,Marires,"32Q8+58M, Rosayendi, Distrik Biak Utara, Kabupaten Biak Numfor, Papua 98153","Rosayendi, Distrik Biak Utara, Kabupaten Biak Numfor",PAPUA,98153.0,Indonesia,,-0.9120354,1.360.158.056,https://maps.google.com/?cid=0x0:0xb29a0f69c1896436
housing complex,housing complex,Boyapen (Kompleks Kel. Besar Simyapen),"V64F+J2P, Rimba Jaya, Kec. Biak Tim., Kabupaten Biak Numfor, Papua 98152","Rimba Jaya, Kec. Biak Tim., Kabupaten Biak Numfor",PAPUA,98152.0,Indonesia,,-11.434.215,1.362.225.727,https://maps.google.com/?cid=0x0:0x89be24f4eec61457
housing complex,Kompleks Apartemen,Kaumfuar Serumi Biak Timur,"Q697+XMM, Sareidi, Kec. Biak Tim., Kabupaten Biak Numfor, Papua","Kabupaten Biak Numfor, Papua",PAPUA,,Indonesia,82198455971.0,-123.004,1.362.141.841,https://maps.google.com/?cid=0x0:0xd7fc5501bf40e4e9
housing complex,housing complex,Papua 98152,"Kabupaten Biak Numfor, Papua","Kabupaten Biak Numfor, Papua",PAPUA,,Indonesia,,-10.707.188,1.362.474.381,https://maps.google.com/?cid=0x0:0x5f671ec5fdbb6997
housing complex,Komplek perumahan,Desa Yenusi,"R6G4+VJ5, Yenusi, Kec. Biak Tim., Kabupaten Biak Numfor, Papua 98152","Yenusi, Kec. Biak Tim., Kabupaten Biak Numfor",PAPUA,98152.0,Indonesia,,-11.728.521,1.362.065.981,https://maps.google.com/?cid=0x0:0x811a6118c785aa23
housing complex,Komplek perumahan,YBM HOUSE,"V63F+4M, Rimba Jaya, Kec. Biak Tim., Kabupaten Biak Numfor, Papua","Kabupaten Biak Numfor, Papua",PAPUA,,Indonesia,,-11.472.061,1.362.241.568,https://maps.google.com/?cid=0x0:0x4532d15ef98cce9
housing complex,,Rumah Qu,"V89G+RX3, Anggaduber, Distrik Oridek, Kabupaten Biak Numfor, Papua 98152","Anggaduber, Distrik Oridek, Kabupaten Biak Numfor",PAPUA,98152.0,Indonesia,,-11.304.908,1.363.274.138,https://maps.google.com/?cid=0x0:0xc6c93a7498bee984
housing complex,Komplek perumahan,OKHANO HOUSE,"V63C+4X, Rimba Jaya, Kec. Biak Tim., Kabupaten Biak Numfor, Papua","Kabupaten Biak Numfor, Papua",PAPUA,,Indonesia,,-11.472.661,1.362.224.411,https://maps.google.com/?cid=0x0:0xfe53ca1c64257d3d
housing complex,Komplek perumahan,Bosnik,"R6JW+XGG, Jl. Raya Bosnik, Bindusi, Kec. Biak Tim., Kabupaten Biak Numfor, Papua","Kabupaten Biak Numfor, Papua",PAPUA,,Indonesia,,-11.675.661,1.362.463.208,https://maps.google.com/?cid=0x0:0x230072dbe9e717da
housing complex,Komplek perumahan,Kmpleks Usior,"R6JF+9VR, Jl. Raya Bosnik, Woniki, Kec. Biak Tim., Kabupaten Biak Numfor, Papua","Kabupaten Biak Numfor, Papua",PAPUA,,Indonesia,,-11.690.093,1.362.246.339,https://maps.google.com/?cid=0x0:0x864e925d3e5367ad
housing complex,Kompleks Townhouse,Komplex Arfusau,"R6JF+CH6, Jl. Raya Bosnik, Orwer, Kec. Biak Tim., Kabupaten Biak Numfor, Papua 98152","Jl. Raya Bosnik, Orwer, Kec. Biak Tim., Kabupaten Biak Numfor",PAPUA,98152.0,Indonesia,,-11.690.599,1.362.242.876,https://maps.google.com/?cid=0x0:0xdbe0e64c94fdac1
housing complex,Komplek perumahan,Kampung Yenusi,"R6G2+83V, Mandon, Kec. Biak Tim., Kabupaten Biak Numfor, Papua 98152","Mandon, Kec. Biak Tim., Kabupaten Biak Numfor",PAPUA,98152.0,Indonesia,,-11.741.373,1.362.001.682,https://maps.google.com/?cid=0x0:0x87ada4a5e1346587
housing complex,Komplek perumahan,BAENA KOMPLEX,"R7Q5+638, Kajasi, Kec. Biak Tim., Kabupaten Biak Numfor, Papua 98152","Kajasi, Kec. Biak Tim., Kabupaten Biak Numfor",PAPUA,98152.0,Indonesia,,-11.619.649,1.362.577.039,https://maps.google.com/?cid=0x0:0x76c628e49acad081
housing complex,Komplek perumahan,USIOR NASBRAREN area,"R6H6+462, Jl. Raya Bosnik, Yenusi, Kec. Biak Tim., Kabupaten Biak Numfor, Papua","Kabupaten Biak Numfor, Papua",PAPUA,,Indonesia,,-11.714.218,1.362.097.202,https://maps.google.com/?cid=0x0:0xdb9522062760e9a5
housing complex,Komplek perumahan,Keluarga bapa Korinus rumansara,"Q695+CG5, Sareidi, Kec. Biak Tim., Kabupaten Biak Numfor, Papua","Kabupaten Biak Numfor, Papua",PAPUA,,Indonesia,,-12.314.428,136.209.852,https://maps.google.com/?cid=0x0:0x78114ae08067ded1
housing complex,housing complex,Papua 98172,"Kabupaten Biak Numfor, Papua","Kabupaten Biak Numfor, Papua",PAPUA,,Indonesia,,-10.910.129,1.349.066.503,https://maps.google.com/?cid=0x0:0x961f86bb7868e68d
housing complex,Pembangunan Perumahan,"Noribo, Manwor Indah","VW87+X77, Rawar, Kec. Orkeri, Kabupaten Biak Numfor, Papua 98172","Rawar, Kec. Orkeri, Kabupaten Biak Numfor",PAPUA,98172.0,Indonesia,,-11.325.902,1.349.131.803,https://maps.google.com/?cid=0x0:0x6b13e8bf22a8147
housing complex,Komplek perumahan,Guru. Dortheus Rumsaro,"VV7R+52G, Pakreki, Kec. Orkeri, Kabupaten Biak Numfor, Papua","Kabupaten Biak Numfor, Papua",PAPUA,,Indonesia,,-11.370.535,1.348.900.643,https://maps.google.com/?cid=0x0:0x398d95c0f526a6c0
housing complex,Pembangunan Perumahan,wansra,"VWCH+H4R, Masyara, Kec. Orkeri, Kabupaten Biak Numfor, Papua","Kabupaten Biak Numfor, Papua",PAPUA,,Indonesia,,-112.877,13.492.697,https://maps.google.com/?cid=0x0:0xad15754cbc1837fa
housing complex,Pembangunan Perumahan,Segitiga waryabo kampung semayen,"XRX3+54H, Kansai, Distrik Numfor Barat, Kabupaten Biak Numfor, Papua","Kabupaten Biak Numfor, Papua",PAPUA,,Indonesia,,-10.022.988,1.348.029.807,https://maps.google.com/?cid=0x0:0x2356b805be858fdc
housing complex,housing complex,Kampung inasi,"WWM4+73H, Sandau, Distrik Bruyadori, Kabupaten Biak Numfor, Papua","Kabupaten Biak Numfor, Papua",PAPUA,,Indonesia,,-1.066.821,1.349.052.309,https://maps.google.com/?cid=0x0:0xd013a26f42ca0872
housing complex,Pembangunan Perumahan,Duain numfor,"WW6Q+WH4, Duai, Distrik Bruyadori, Kabupaten Biak Numfor, Papua","Kabupaten Biak Numfor, Papua",PAPUA,,Indonesia,,-10.877.461,1.349.389.425,https://maps.google.com/?cid=0x0:0xfd6033b85b66fe67
housing complex,Pembangunan Perumahan,Mr. David Home,"WX78+CWH, Jl. Sayori Raya, Bruyadori, Distrik Bruyadori, Kabupaten Biak Numfor, Papua","Kabupaten Biak Numfor, Papua",PAPUA,,Indonesia,,-10.864.326,1.349.673.492,https://maps.google.com/?cid=0x0:0x3497c6483c9d938b
housing complex,housing complex,Yeninar Hous,"3W33+PW, Andei, Distrik Poiru, Kabupaten Biak Numfor, Papua 98171","Andei, Distrik Poiru, Kabupaten Biak Numfor",PAPUA,98171.0,Indonesia,,-0.9447941,1.349.059.721,https://maps.google.com/?cid=0x0:0x5fc69a4752d3e06d
housing complex,Pembangunan Perumahan,Ambermasi,"2R33+G53, Kameri, Distrik Numfor Barat, Kabupaten Biak Numfor, Papua","Kabupaten Biak Numfor, Papua",PAPUA,,Indonesia,,-0.9962366,1.348.029.364,https://maps.google.com/?cid=0x0:0x8e690eb095e101ee
housing complex,Gereja,Gereja lama,"XXP9+V3, Dafi, Kabupaten Biak Numfor, Papua","Kabupaten Biak Numfor, Papua",PAPUA,,Indonesia,,-10.128.496,1.349.676.623,https://maps.google.com/?cid=0x0:0x2f773039fbbc5f70
housing complex,Pembangunan Perumahan,Kampung rawar-ruminur,"VV6M+7X, Pakreki, Kec. Orkeri, Kabupaten Biak Numfor, Papua","Kabupaten Biak Numfor, Papua",PAPUA,,Indonesia,,-11.393.527,1.348.849.497,https://maps.google.com/?cid=0x0:0x1e7249deee463862
housing complex,housing complex,Rumah ANUGERAH,"2W8Q+7PX, Tanjakan, Syoribo, Distrik Poiru, Kabupaten Biak Numfor, Papua 98171","Tanjakan, Syoribo, Distrik Poiru, Kabupaten Biak Numfor",PAPUA,98171.0,Indonesia,,-0.9842572,1.349.393.443,https://maps.google.com/?cid=0x0:0xdd78edc44d88f307
housing complex,Toko bahan makanan,Wardo,"XR9H+5MV, Kanaan, Distrik Biak Barat, Kabupaten Biak Numfor, Papua 98154","Kanaan, Distrik Biak Barat, Kabupaten Biak Numfor",PAPUA,98154.0,Indonesia,,-10.320.235,1.358.291.581,https://maps.google.com/?cid=0x0:0xd17615874189ceaa
housing complex,housing complex,Numfor Tim.,"Kabupaten Biak Numfor, Papua","Kabupaten Biak Numfor, Papua",PAPUA,,Indonesia,,-0.9371465,1.348.613.219,https://maps.google.com/?cid=0x0:0x672e64198372012
housing complex,Perumahan,Kel Wambrauw,"3V87+4W8, Asaryendi, Numfor Tim., Kabupaten Biak Numfor, Papua","Kabupaten Biak Numfor, Papua",PAPUA,,Indonesia,,-0.9347117,1.348.648.351,https://maps.google.com/?cid=0x0:0x8579a681009058fd
housing complex,housing complex,Yeninar Hous,"3W33+PW, Andei, Distrik Poiru, Kabupaten Biak Numfor, Papua 98171","Andei, Distrik Poiru, Kabupaten Biak Numfor",PAPUA,98171.0,Indonesia,,-0.9447941,1.349.059.721,https://maps.google.com/?cid=0x0:0x5fc69a4752d3e06d
housing complex,Tujuan Wisata,Pantai syoribo. Numfor timur,"3W42+CWC, Syoribo, Distrik Poiru, Kabupaten Biak Numfor, Papua 98171","Syoribo, Distrik Poiru, Kabupaten Biak Numfor",PAPUA,98171.0,Indonesia,,-0.9431875,1.349.035.625,https://maps.google.com/?cid=0x0:0x5f21bd13e30859ab
housing complex,Layanan Transportasi,Kampung sauribru,"2W89+R8P, Sauribru, Distrik Poiru, Kabupaten Biak Numfor, Papua 98171","Sauribru, Distrik Poiru, Kabupaten Biak Numfor",PAPUA,98171.0,Indonesia,,-0.9829079,1.349.183.294,https://maps.google.com/?cid=0x0:0x32e16155273ef00c
housing complex,Pembangunan Perumahan,Segitiga waryabo kampung semayen,"XRX3+54H, Kansai, Distrik Numfor Barat, Kabupaten Biak Numfor, Papua","Kabupaten Biak Numfor, Papua",PAPUA,,Indonesia,,-10.022.988,1.348.029.807,https://maps.google.com/?cid=0x0:0x2356b805be858fdc
housing complex,Pembangunan Perumahan,Ambermasi,"2R33+G53, Kameri, Distrik Numfor Barat, Kabupaten Biak Numfor, Papua","Kabupaten Biak Numfor, Papua",PAPUA,,Indonesia,,-0.9962366,1.348.029.364,https://maps.google.com/?cid=0x0:0x8e690eb095e101ee
housing complex,Pembangunan Perumahan,Perumahan Griya Kelapa Gading Sorido,"R3P4+8VG, Jl. Jendral Sudirman, Sorido, Kec. Biak Kota, Kabupaten Biak Numfor, Papua 98115","Jl. Jendral Sudirman, Sorido, Kec. Biak Kota, Kabupaten Biak Numfor",PAPUA,98115.0,Indonesia,,-11.641.764,1.360.571.917,https://maps.google.com/?cid=0x0:0xd1157d94a6d4fdac
housing complex,housing complex,Papua 98154,"Kabupaten Biak Numfor, Papua","Kabupaten Biak Numfor, Papua",PAPUA,,Indonesia,,-0.9529483,1.358.659.561,https://maps.google.com/?cid=0x0:0x7baacb17c171a3e7
housing complex,Toko bahan makanan,Wardo,"XR9H+5MV, Kanaan, Distrik Biak Barat, Kabupaten Biak Numfor, Papua 98154","Kanaan, Distrik Biak Barat, Kabupaten Biak Numfor",PAPUA,98154.0,Indonesia,,-10.320.235,1.358.291.581,https://maps.google.com/?cid=0x0:0xd17615874189ceaa
housing complex,Komplek perumahan,H Yembise,"XR8H+PM, Kanaan, Distrik Biak Barat, Kabupaten Biak Numfor, Papua 98154","Kanaan, Distrik Biak Barat, Kabupaten Biak Numfor",PAPUA,98154.0,Indonesia,,-10.333.173,135.829.197,https://maps.google.com/?cid=0x0:0xd9a362e39611c32d
housing complex,Komplek perumahan,Sosmay,"WR9Q+MHC, Sosmay, Distrik Biak Barat, Kabupaten Biak Numfor, Papua","Kabupaten Biak Numfor, Papua",PAPUA,,Indonesia,,-10.808.165,135.838.887,https://maps.google.com/?cid=0x0:0xe9ebf2aa93f2a8e8
housing complex,Komplek perumahan,Matius Sbiak,"Mamoribo, Distrik Biak Barat, Kabupaten Biak Numfor, Papua","Kabupaten Biak Numfor, Papua",PAPUA,,Indonesia,,-0.9946768,1.358.018.199,https://maps.google.com/?cid=0x0:0xaca26b16124e50a4
housing complex,Komplek perumahan,Rumah Willy Esau Mandowen,"Jalan Korderi No.1, Dusun Yenburwo, Distrik Biak Barat, Kabupaten Biak Numfor, Papua","Kabupaten Biak Numfor, Papua",PAPUA,,Indonesia,,-10.299.966,1.358.297.159,https://maps.google.com/?cid=0x0:0x9fcef26fbde135a6
housing complex,Komplek perumahan,Kel Bonsapia,"2QQV+RJQ, Farusi, Distrik Swandiwe, Kabupaten Biak Numfor, Papua","Kabupaten Biak Numfor, Papua",PAPUA,,Indonesia,,-0.960405,135.794.123,https://maps.google.com/?cid=0x0:0x4c3364d08c383c69
housing complex,Pembangunan Perumahan,Kampung sunbinya distrik biak barat kabupaten biak numfor,"XRMC+86, Opuri, Distrik Biak Barat, Kabupaten Biak Numfor, Papua","Kabupaten Biak Numfor, Papua",PAPUA,,Indonesia,,-10.166.831,1.358.205.371,https://maps.google.com/?cid=0x0:0x25507c13a9844819
housing complex,Komplek perumahan,Worawur,"WVP8+XR9, Yomdori, Distrik Biak Barat, Kabupaten Biak Numfor, Papua","Kabupaten Biak Numfor, Papua",PAPUA,,Indonesia,,-10.625.958,1.358.671.127,https://maps.google.com/?cid=0x0:0x1090795886ca5d10
housing complex,Komplek perumahan,Biak Numfor,"XR3R+72H, Kanaan, Distrik Biak Barat, Kabupaten Biak Numfor, Papua 98154","Kanaan, Distrik Biak Barat, Kabupaten Biak Numfor",PAPUA,98154.0,Indonesia,,-1.046.817,1.358.401.064,https://maps.google.com/?cid=0x0:0x35e5504501d627c3
housing complex,Komplek perumahan,"Kampung Yenburwo,Biak Barat,Papua","XRGH+RG, Asaryendi, Distrik Biak Barat, Kabupaten Biak Numfor, Papua","Kabupaten Biak Numfor, Papua",PAPUA,,Indonesia,,-10.239.452,13.582.905,https://maps.google.com/?cid=0x0:0x6690284683bca0b1
housing complex,Komplek perumahan,"MNU SOPEN, BIAK BARAT","XRW8+FCM, Sopendo, Distrik Biak Barat, Kabupaten Biak Numfor, Papua 98154","Sopendo, Distrik Biak Barat, Kabupaten Biak Numfor",PAPUA,98154.0,Indonesia,,-10.037.835,1.358.160.592,https://maps.google.com/?cid=0x0:0x8c4a61c4389366db
housing complex,Komplek perumahan,KELUARGA ZET MARYEN,"3Q3Q+RH2, Swainober, Distrik Swandiwe, Kabupaten Biak Numfor, Papua 98154","Swainober, Distrik Swandiwe, Kabupaten Biak Numfor",PAPUA,98154.0,Indonesia,,-0.944896,1.357.890.073,https://maps.google.com/?cid=0x0:0xee2266e0d0391d70
housing complex,Komplek perumahan,Kampung sosmay,"WR9M+P3X, Sosmay, Distrik Biak Barat, Kabupaten Biak Numfor, Papua","Kabupaten Biak Numfor, Papua",PAPUA,,Indonesia,,-10.806.319,1.358.327.196,https://maps.google.com/?cid=0x0:0xf6b54f8610d71ecc
housing complex,Pembangunan Perumahan,Kampung Komboi,"6W5V+H4R, Komboy, Distrik Warsa, Kabupaten Biak Numfor, Papua 98157","Komboy, Distrik Warsa, Kabupaten Biak Numfor",PAPUA,98157.0,Indonesia,,-0.791015,1.359.427.515,https://maps.google.com/?cid=0x0:0x73a28a5aa4e7647c
housing complex,housing complex,Papua 98157,"Kabupaten Biak Numfor, Papua","Kabupaten Biak Numfor, Papua",PAPUA,,Indonesia,,-0.8013579,1.358.849.587,https://maps.google.com/?cid=0x0:0xc4bb574f645569e5
housing complex,Komplek perumahan,Distrik Warsa,"6W6Q+7GM, Yeruboy, Distrik Warsa, Kabupaten Biak Numfor, Papua 98157","Yeruboy, Distrik Warsa, Kabupaten Biak Numfor",PAPUA,98157.0,Indonesia,,-0.7892888,1.359.387.939,https://maps.google.com/?cid=0x0:0xa2f4bec7ac6738e0
housing complex,Komplek perumahan,Warmaz,"6W3W+FM, Aman, Distrik Warsa, Kabupaten Biak Numfor, Papua","Kabupaten Biak Numfor, Papua",PAPUA,,Indonesia,,-0.7963121,13.594.665,https://maps.google.com/?cid=0x0:0xf401778b5812c570
housing complex,Komplek perumahan,Indawi . Barend Brabar,"5XJQ+P54, Sor, Distrik Yawosi, Kabupaten Biak Numfor, Papua 98157","Sor, Distrik Yawosi, Kabupaten Biak Numfor",PAPUA,98157.0,Indonesia,,-0.8181544,1.359.879.443,https://maps.google.com/?cid=0x0:0xb8b82b4e751faa9c
housing complex,Komplek perumahan,Iram home,"6WM5+C2V, Koyomi, Distrik Warsa, Kabupaten Biak Numfor, Papua 98157","Koyomi, Distrik Warsa, Kabupaten Biak Numfor",PAPUA,98157.0,Indonesia,,-0.7663773,1.359.075.341,https://maps.google.com/?cid=0x0:0xc45f7805ce443e2
housing complex,Komplek perumahan,Wenand Marsyom,"5XV6+VX, Diano, Distrik Warsa, Kabupaten Biak Numfor, Papua 98157","Diano, Distrik Warsa, Kabupaten Biak Numfor",PAPUA,98157.0,Indonesia,,-0.8053289,1.359.624.353,https://maps.google.com/?cid=0x0:0x9273fa1ab2948835
housing complex,Pembangunan Perumahan,Kepala kKampung,"5XR9+2H, Karmon, Distrik Yawosi, Kabupaten Biak Numfor, Papua","Kabupaten Biak Numfor, Papua",PAPUA,,Indonesia,,-0.8099474,135.968.989,https://maps.google.com/?cid=0x0:0xff15851989216e28
housing complex,Komplek perumahan,Rmh kafa,"5XR9+F6C, Kampung karui berik, Distrik Warsa, Kabupaten Biak Numfor, Papua 98157","Kampung karui berik, Distrik Warsa, Kabupaten Biak Numfor",PAPUA,98157.0,Indonesia,,-0.8087884,1.359.670.753,https://maps.google.com/?cid=0x0:0x550756a253f63b9d
housing complex,Komplek perumahan,Kampung Warawaf,"6W6R+4VW, Yeruboy, Distrik Warsa, Kabupaten Biak Numfor, Papua","Kabupaten Biak Numfor, Papua",PAPUA,,Indonesia,,-0.7896367,1.359.422.135,https://maps.google.com/?cid=0x0:0x5cca17d9943059ff
housing complex,Komplek perumahan,Mnu Marsyomi,"5XV6+VX, Diano, Distrik Warsa, Kabupaten Biak Numfor, Papua 98157","Diano, Distrik Warsa, Kabupaten Biak Numfor",PAPUA,98157.0,Indonesia,,-0.8053302,1.359.623.817,https://maps.google.com/?cid=0x0:0x1dae5aae23df34aa
housing complex,Komplek perumahan,Rumah Kel Yesaya Rumbrawer,"6W6R+4VW, Warawaf, Distrik Warsa, Kabupaten Biak Numfor, Papua","Kabupaten Biak Numfor, Papua",PAPUA,,Indonesia,,-0.7896367,1.359.422.135,https://maps.google.com/?cid=0x0:0x8c8734a2ed265620
housing complex,Pembangunan Perumahan,Orichz Home,"5XJQ+P54, Sor, Distrik Yawosi, Kabupaten Biak Numfor, Papua 98157","Sor, Distrik Yawosi, Kabupaten Biak Numfor",PAPUA,98157.0,Indonesia,,-0.8182375,1.359.879.531,https://maps.google.com/?cid=0x0:0xe6de64029c496b15
housing complex,housing complex,Kel. Y Wabdaron,"42PH+MXV, Waromi, Distrik Biak Utara, Kabupaten Biak Numfor, Papua 98153","Waromi, Distrik Biak Utara, Kabupaten Biak Numfor",PAPUA,98153.0,Indonesia,,-0.8631257,1.360.295.381,https://maps.google.com/?cid=0x0:0xc32cb0849b38e40c
housing complex,housing complex,Distrik Padaido,"Kabupaten Biak Numfor, Papua","Kabupaten Biak Numfor, Papua",PAPUA,,Indonesia,,-12.535.987,1.363.759.228,https://maps.google.com/?cid=0x0:0x3fb215253a432cb0
housing complex,Komplek perumahan,Kampung Manumi,"Q8CF+5CR, Sandidori, Distrik Padaido, Kabupaten Biak Numfor, Papua 98158","Sandidori, Distrik Padaido, Kabupaten Biak Numfor",PAPUA,98158.0,Indonesia,,-12.295.154,1.363.235.126,https://maps.google.com/?cid=0x0:0xa6bc192505e05509
housing complex,Komplek perumahan,DESA INBEYOMI,"QCHQ+XC2, Pai, Distrik Padaido, Kabupaten Biak Numfor, Papua 98158","Pai, Distrik Padaido, Kabupaten Biak Numfor",PAPUA,98158.0,Indonesia,,-12.201.147,1.364.385.109,https://maps.google.com/?cid=0x0:0xac34317df5bcb553
housing complex,housing complex,KIOS BAKOV,"QCRP+6QR Kios bakov, Pai, Distrik Padaido, Kabupaten Biak Numfor, Papua 98158","Pai, Distrik Padaido, Kabupaten Biak Numfor",PAPUA,98158.0,Indonesia,,-12.093.878,1.364.369.024,https://maps.google.com/?cid=0x0:0x959c5a9e1020dd1
housing complex,Komplek perumahan,"Awai,sandidori","Q8FJ+34X, Sandidori, Distrik Padaido, Kabupaten Biak Numfor, Papua","Kabupaten Biak Numfor, Papua",PAPUA,,Indonesia,,-12.272.665,1.363.303.673,https://maps.google.com/?cid=0x0:0x90029d3171dddd49
housing complex,housing complex,Kios bakov,"QCMP+44R, Pai, Distrik Padaido, Kabupaten Biak Numfor, Papua 98158","Pai, Distrik Padaido, Kabupaten Biak Numfor",PAPUA,98158.0,Indonesia,,-12.171.311,1.364.352.755,https://maps.google.com/?cid=0x0:0x1c1646935baebc64
housing complex,Pembangunan Perumahan,Mantri korwa,"P9WG+F8F, Wundi, Distrik Padaido, Kabupaten Biak Numfor, Papua","Kabupaten Biak Numfor, Papua",PAPUA,,Indonesia,,-12.538.162,1.363.757.898,https://maps.google.com/?cid=0x0:0xe5f7099faebad7e0
housing complex,,Penyelaman Biak Padaido,"Q92G+67, Sorina, Distrik Padaido, Kabupaten Biak Numfor, Papua","Kabupaten Biak Numfor, Papua",PAPUA,,Indonesia,82239040283.0,-1.249.458,1.363.757.171,https://maps.google.com/?cid=0x0:0x8b3d7d229db8801d
housing complex,housing complex,Papua 98155,"Kabupaten Biak Numfor, Papua","Kabupaten Biak Numfor, Papua",PAPUA,,Indonesia,,-10.788.059,1.359.229.866,https://maps.google.com/?cid=0x0:0xa4f1b9a1d481f173
housing complex,Komplek perumahan,Birubi,"XX66+H6, Syabes, Kec. Yendidori, Kabupaten Biak Numfor, Papua","Kabupaten Biak Numfor, Papua",PAPUA,,Indonesia,,-1.038.536,1.359.605.272,https://maps.google.com/?cid=0x0:0xd5763f879080ae6e
housing complex,Komplek perumahan,Yendidori biak,"V259+JFP, Yendidori, Kec. Yendidori, Kabupaten Biak Numfor, Papua","Kabupaten Biak Numfor, Papua",PAPUA,,Indonesia,,-11.409.192,1.360.186.943,https://maps.google.com/?cid=0x0:0x87b80804d5a82db
housing complex,Komplek perumahan,Mambai's home,"VW4P+76, Urfu, Kec. Yendidori, Kabupaten Biak Numfor, Papua","Kabupaten Biak Numfor, Papua",PAPUA,,Indonesia,,-11.443.773,1.359.356.072,https://maps.google.com/?cid=0x0:0x15a1c799c511309d
housing complex,Komplek perumahan,Rumah Kaleb Mnubepiom,"XX83+HJ2, Syabes, Kec. Yendidori, Kabupaten Biak Numfor, Papua","Kabupaten Biak Numfor, Papua",PAPUA,,Indonesia,,-10.336.184,1.359.540.117,https://maps.google.com/?cid=0x0:0x14c8c09b7eda2afe
housing complex,Komplek perumahan,Sosmai,"XWG9+23, Rarmpimbo, Kec. Yendidori, Kabupaten Biak Numfor, Papua 98155","Rarmpimbo, Kec. Yendidori, Kabupaten Biak Numfor",PAPUA,98155.0,Indonesia,,-10.248.873,1.359.176.796,https://maps.google.com/?cid=0x0:0xb216de9a0cad12b6
housing complex,Komplek perumahan,Siyabes,"XX85+C2, Syabes, Kec. Yendidori, Kabupaten Biak Numfor, Papua","Kabupaten Biak Numfor, Papua",PAPUA,,Indonesia,,-10.339.481,1.359.576.299,https://maps.google.com/?cid=0x0:0xa7884a78aa67d62e
housing complex,Komplek perumahan,Eko dimara,"VW9V+CP, Urfu, Kec. Yendidori, Kabupaten Biak Numfor, Papua","Kabupaten Biak Numfor, Papua",PAPUA,,Indonesia,,-11.313.892,1.359.442.824,https://maps.google.com/?cid=0x0:0x37376471850212a2
housing complex,Komplek perumahan,Worawur,"WVP8+XR9, Yomdori, Distrik Biak Barat, Kabupaten Biak Numfor, Papua","Kabupaten Biak Numfor, Papua",PAPUA,,Indonesia,,-10.625.958,1.358.671.127,https://maps.google.com/?cid=0x0:0x1090795886ca5d10
housing complex,Komplek perumahan,Waroi,"RVMG+HP, Waroi, Kec. Yendidori, Kabupaten Biak Numfor, Papua","Kabupaten Biak Numfor, Papua",PAPUA,,Indonesia,,-11.660.787,1.358.767.452,https://maps.google.com/?cid=0x0:0xe769194a90f0b60b
housing complex,Gedung Apartemen,Faishal homestay,"WX6F+V79, Suneri, Kec. Yendidori, Kabupaten Biak Numfor, Papua","Kabupaten Biak Numfor, Papua",PAPUA,,Indonesia,,-1.087.848,1.359.732.335,https://maps.google.com/?cid=0x0:0x8838768f34606085
housing complex,Komplek perumahan,Rumah pak herman/cahya,"WX69+JR, Suneri, Kec. Yendidori, Kabupaten Biak Numfor, Papua","Kabupaten Biak Numfor, Papua",PAPUA,,Indonesia,,-10.884.996,1.359.695.966,https://maps.google.com/?cid=0x0:0xf6e6071706d981c8
housing complex,Komplek perumahan,Rumah p lukman,"WX3F+V3, Suneri, Kec. Yendidori, Kabupaten Biak Numfor, Papua","Kabupaten Biak Numfor, Papua",PAPUA,,Indonesia,,-109.533,1.359.726.817,https://maps.google.com/?cid=0x0:0xa0b6b82e8edda88d
housing complex,Komplek perumahan,rumah Aminah anggresu,"XW9X+CGR, Syabes, Kec. Yendidori, Kabupaten Biak Numfor, Papua","Kabupaten Biak Numfor, Papua",PAPUA,,Indonesia,,-10.313.787,135.948.752,https://maps.google.com/?cid=0x0:0xdcf13282dabd69f3
housing complex,housing complex,Papua 98118,"Kabupaten Biak Numfor, Papua","Kabupaten Biak Numfor, Papua",PAPUA,,Indonesia,,-11.449.556,13.610.403,https://maps.google.com/?cid=0x0:0x25e958740e846491
housing complex,Komplek perumahan,MARSUDI UNITED,"Jl. Temini No.9, Samofa, Kec. Samofa, Kabupaten Biak Numfor, Papua 98111","Samofa, Kec. Samofa, Kabupaten Biak Numfor",PAPUA,98111.0,Indonesia,,-11.664.132,1.360.843.328,https://maps.google.com/?cid=0x0:0x7d48171159a4aa9a
housing complex,Komplek perumahan,"Kompleks ssc, samofa biak.","R3MQ+338, Samofa, Kec. Samofa, Kabupaten Biak Numfor, Papua","Kabupaten Biak Numfor, Papua",PAPUA,,Indonesia,,-11.673.498,1.360.876.931,https://maps.google.com/?cid=0x0:0xebfc3f09b2a168e6
housing complex,Komplek perumahan,DC HOS,"R3RX+FRP, Sumberker, Kec. Samofa, Kabupaten Biak Numfor, Papua 98118","Sumberker, Kec. Samofa, Kabupaten Biak Numfor",PAPUA,98118.0,Indonesia,,-11.587.837,1.360.995.801,https://maps.google.com/?cid=0x0:0x3a2f00166faec6d1
housing complex,Rumah Kaca,Vano house,"R4V5+6P3, Sumberker, Kec. Samofa, Kabupaten Biak Numfor, Papua 98118","Sumberker, Kec. Samofa, Kabupaten Biak Numfor",PAPUA,98118.0,Indonesia,,-11.569.982,1.361.092.959,https://maps.google.com/?cid=0x0:0xf179eaa240c7ecfd
housing complex,Komplek perumahan,Rumah Achmad Rizaldi,"R3HW+RGR, Samofa, Kec. Samofa, Kabupaten Biak Numfor, Papua 98118","Samofa, Kec. Samofa, Kabupaten Biak Numfor",PAPUA,98118.0,Indonesia,,-1.171.486,136.096.209,https://maps.google.com/?cid=0x0:0x222dfa113682dec3
housing complex,Rumah Kayu,Lokasi Acara,"R3WV+2RM, Mandouw, Kec. Samofa, Kabupaten Biak Numfor, Papua","Kabupaten Biak Numfor, Papua",PAPUA,,Indonesia,,-11.549.205,1.360.945.331,https://maps.google.com/?cid=0x0:0x75da5de883e57b11
housing complex,Komplek perumahan,rumah ilham,"R3HW+RGR, Samofa, Kec. Samofa, Kabupaten Biak Numfor, Papua 98118","Samofa, Kec. Samofa, Kabupaten Biak Numfor",PAPUA,98118.0,Indonesia,,-11.715.733,1.360.962.128,https://maps.google.com/?cid=0x0:0x803aebcde1595eef
housing complex,Komplek perumahan,Felis,"R3RW+569, Jl. Tanjung Sari, Mandouw, Kec. Samofa, Kabupaten Biak Numfor, Papua 98118","Jl. Tanjung Sari, Mandouw, Kec. Samofa, Kabupaten Biak Numfor",PAPUA,98118.0,Indonesia,,-11.595.919,1.360.956.132,https://maps.google.com/?cid=0x0:0xa3f6c59d226543a7
housing complex,Perumahan,Madw Bunga Home,"R4F3+48X, Jl. Goa Jepang, Sumberker, Kec. Samofa, Kabupaten Biak Numfor, Papua 98118","Jl. Goa Jepang, Sumberker, Kec. Samofa, Kabupaten Biak Numfor",PAPUA,98118.0,Indonesia,,-11.764.016,1.361.045.665,https://maps.google.com/?cid=0x0:0xff4855d83f37b0f0
housing complex,Komplek perumahan,Asrama Brimob Samofa,"R3JQ+G74, Jl. Etna, Samofa, Kec. Samofa, Kabupaten Biak Numfor, Papua 98111","Jl. Etna, Samofa, Kec. Samofa, Kabupaten Biak Numfor",PAPUA,98111.0,Indonesia,,-11.687.287,1.360.881.933,https://maps.google.com/?cid=0x0:0x7d89ecece3c20421
housing complex,Komplek perumahan,Happy House,"R4P2+WWV, Jl. Adibai Sumberker Samofa, Sumberker, Kec. Samofa, Kabupaten Biak Numfor, Papua 98118","Jl. Adibai Sumberker Samofa, Sumberker, Kec. Samofa, Kabupaten Biak Numfor",PAPUA,98118.0,Indonesia,,-1.162.629,1.361.023.105,https://maps.google.com/?cid=0x0:0xec8e6cfb2d4530c
housing complex,housing complex,Mandouw atas Rumahryu,"R3WV+2RM, Mandouw, Kec. Samofa, Kabupaten Biak Numfor, Papua","Kabupaten Biak Numfor, Papua",PAPUA,,Indonesia,,-1.154.519,1.360.946.719,https://maps.google.com/?cid=0x0:0x73f6ba14ed28f1ba
housing complex,Komplek perumahan,Indirahome,"R4Q2+65Q, Jl. Adibai Sumberker Samofa, Mandouw, Kec. Samofa, Kabupaten Biak Numfor, Papua 98118","Jl. Adibai Sumberker Samofa, Mandouw, Kec. Samofa, Kabupaten Biak Numfor",PAPUA,98118.0,Indonesia,,-11.619.116,1.361.004.775,https://maps.google.com/?cid=0x0:0xc657537776bc37dc
housing complex,housing complex,Papua 98156,"Kabupaten Biak Numfor, Papua","Kabupaten Biak Numfor, Papua",PAPUA,,Indonesia,,-10.808.865,1.360.372.508,https://maps.google.com/?cid=0x0:0x6d8c17ba7e95fe38
housing complex,Komplek perumahan,Samofa biak,"XX6J+Q24 Jin pemda 1 biak, Syabes, Kec. Yendidori, Kabupaten Biak Numfor, Papua 98156","Syabes, Kec. Yendidori, Kabupaten Biak Numfor",PAPUA,98156.0,Indonesia,,-10.381.022,1.359.800.848,https://maps.google.com/?cid=0x0:0x98038044d0b6c9ab
housing complex,Komplek perumahan,"Kompleks ssc, samofa biak.","R3MQ+338, Samofa, Kec. Samofa, Kabupaten Biak Numfor, Papua","Kabupaten Biak Numfor, Papua",PAPUA,,Indonesia,,-11.673.498,1.360.876.931,https://maps.google.com/?cid=0x0:0xebfc3f09b2a168e6
housing complex,Komplek perumahan,Jois Dimara,"V357+6W5, Adainasnosen, Kec. Samofa, Kabupaten Biak Numfor, Papua 98156","Adainasnosen, Kec. Samofa, Kabupaten Biak Numfor",PAPUA,98156.0,Indonesia,,-11.420.013,1.360.648.533,https://maps.google.com/?cid=0x0:0xebff72b089bfd075
housing complex,Komplek perumahan,Home,"R3R9+G5M, Yafdas, Kec. Samofa, Kabupaten Biak Numfor, Papua","Kabupaten Biak Numfor, Papua",PAPUA,,Indonesia,,-11.586.618,1.360.679.369,https://maps.google.com/?cid=0x0:0x3a47bcb7f5ecd768
housing complex,housing complex,Kampung sambawofuar,"R3X9+Q87, Adainasnosen, Kec. Samofa, Kabupaten Biak Numfor, Papua 98113","Adainasnosen, Kec. Samofa, Kabupaten Biak Numfor",PAPUA,98113.0,Indonesia,,-11.505.964,1.360.682.828,https://maps.google.com/?cid=0x0:0xf3eab669443d5692
housing complex,Komplek perumahan,Sene Families,"R3V8+VQC, Yafdas, Kec. Samofa, Kabupaten Biak Numfor, Papua","Kabupaten Biak Numfor, Papua",PAPUA,,Indonesia,,-11.553.055,1.360.668.853,https://maps.google.com/?cid=0x0:0xbda229f03e5726f2
housing complex,Komplek perumahan,Perumahan ASN Robuki,"W33C+277, Jl. Yafdas, Dafuar, Distrik Biak Utara, Kabupaten Biak Numfor, Papua","Kabupaten Biak Numfor, Papua",PAPUA,,Indonesia,,-10.974.727,136.070.668,https://maps.google.com/?cid=0x0:0x366ad0c3b0dfa52
housing complex,Komplek perumahan,JOSHUA MANSNANDIFU,"V357+6W5, Sikakfo, Adainasnosen, Kec. Samofa, Kabupaten Biak Numfor, Papua 98156","Sikakfo, Adainasnosen, Kec. Samofa, Kabupaten Biak Numfor",PAPUA,98156.0,Indonesia,,-11.417.821,1.360.640.093,https://maps.google.com/?cid=0x0:0xa61cdbd0ab291d75
housing complex,Komplek perumahan,Jhoe dimara/mansnandifu,"V357+GWJ, Dafuar, Kec. Samofa, Kabupaten Biak Numfor, Papua","Kabupaten Biak Numfor, Papua",PAPUA,,Indonesia,,-1.141.172,1.360.647.552,https://maps.google.com/?cid=0x0:0xc5b70d09bacdfb2e
housing complex,Perumahan,Rumah saldin,"V367+MC, Dafuar, Kec. Samofa, Kabupaten Biak Numfor, Papua","Kabupaten Biak Numfor, Papua",PAPUA,,Indonesia,,-11.382.818,1.360.635.884,https://maps.google.com/?cid=0x0:0x3c3dc8ded7e2b009
housing complex,Komplek perumahan,Home Sweet Home,"R3WR+JR9, Mandouw, Kec. Samofa, Kabupaten Biak Numfor, Papua","Kabupaten Biak Numfor, Papua",PAPUA,,Indonesia,,-11.534.647,1.360.920.984,https://maps.google.com/?cid=0x0:0x669f7f547b2ecff7
housing complex,Komplek perumahan,sihombing,"V366+QHJ, Dafuar, Kec. Samofa, Kabupaten Biak Numfor, Papua","Kabupaten Biak Numfor, Papua",PAPUA,,Indonesia,,-11.380.438,1.360.613.927,https://maps.google.com/?cid=0x0:0x9093f219ad37de5
housing complex,Komplek perumahan,Samofa,"R3FH+H98 kos, Samofa, Kec. Samofa, Kabupaten Biak Numfor, Papua","Kabupaten Biak Numfor, Papua",PAPUA,,Indonesia,,-11.760.754,136.078.454,https://maps.google.com/?cid=0x0:0x9555f093e435688b
housing complex,Pembangunan Perumahan,Kepala kKampung,"5XR9+2H, Karmon, Distrik Yawosi, Kabupaten Biak Numfor, Papua","Kabupaten Biak Numfor, Papua",PAPUA,,Indonesia,,-0.8099474,135.968.989,https://maps.google.com/?cid=0x0:0xff15851989216e28
housing complex,housing complex,Distrik Yawosi,"Kabupaten Biak Numfor, Papua","Kabupaten Biak Numfor, Papua",PAPUA,,Indonesia,,-0.8350919,1.360.182.645,https://maps.google.com/?cid=0x0:0x7439514076bef34
housing complex,housing complex,Kel. Y Wabdaron,"42PH+MXV, Waromi, Distrik Biak Utara, Kabupaten Biak Numfor, Papua 98153","Waromi, Distrik Biak Utara, Kabupaten Biak Numfor",PAPUA,98153.0,Indonesia,,-0.8631257,1.360.295.381,https://maps.google.com/?cid=0x0:0xc32cb0849b38e40c
housing complex,Komplek perumahan,RUMAH KELUARGA MAMBOBO,"5XHR+X7J, Sor, Distrik Yawosi, Kabupaten Biak Numfor, Papua","Kabupaten Biak Numfor, Papua",PAPUA,,Indonesia,,-0.8200303,1.359.906.497,https://maps.google.com/?cid=0x0:0x7c329e28dc4f1f1f
housing complex,Komplek perumahan,Tanjung Porsewi,"5279+X86, Bosnabraidi, Distrik Yawosi, Kabupaten Biak Numfor, Papua","Kabupaten Biak Numfor, Papua",PAPUA,,Indonesia,,-0.8350919,1.360.182.645,https://maps.google.com/?cid=0x0:0xe7f91cf8f2b9b415
housing complex,Pembangunan Perumahan,Orichz Home,"5XJQ+P54, Sor, Distrik Yawosi, Kabupaten Biak Numfor, Papua 98157","Sor, Distrik Yawosi, Kabupaten Biak Numfor",PAPUA,98157.0,Indonesia,,-0.8182375,1.359.879.531,https://maps.google.com/?cid=0x0:0xe6de64029c496b15
housing complex,Komplek perumahan,Indawi . Barend Brabar,"5XJQ+P54, Sor, Distrik Yawosi, Kabupaten Biak Numfor, Papua 98157","Sor, Distrik Yawosi, Kabupaten Biak Numfor",PAPUA,98157.0,Indonesia,,-0.8181544,1.359.879.443,https://maps.google.com/?cid=0x0:0xb8b82b4e751faa9c
housing complex,Komplek perumahan,RUMAH KELUARGA. Y.P.RUMBRAR,"5XHR+8FQ, Sor, Distrik Yawosi, Kabupaten Biak Numfor, Papua","Kabupaten Biak Numfor, Papua",PAPUA,,Indonesia,,-0.8216692,1.359.912.344,https://maps.google.com/?cid=0x0:0x52f4663d2da53416
housing complex,Komplek perumahan,Wenand Marsyom,"5XV6+VX, Diano, Distrik Warsa, Kabupaten Biak Numfor, Papua 98157","Diano, Distrik Warsa, Kabupaten Biak Numfor",PAPUA,98157.0,Indonesia,,-0.8053289,1.359.624.353,https://maps.google.com/?cid=0x0:0x9273fa1ab2948835
housing complex,Komplek perumahan,Kampung waromi,"42VM+Q4X, Waromi, Distrik Biak Utara, Kabupaten Biak Numfor, Papua 98153","Waromi, Distrik Biak Utara, Kabupaten Biak Numfor",PAPUA,98153.0,Indonesia,,-0.855504,136.032.864,https://maps.google.com/?cid=0x0:0x3cd323ab518389d4
housing complex,Komplek perumahan,Simon Msiren,"5XR9+2H, Karmon, Distrik Yawosi, Kabupaten Biak Numfor, Papua","Kabupaten Biak Numfor, Papua",PAPUA,,Indonesia,,-0.8099437,1.359.689.836,https://maps.google.com/?cid=0x0:0xa07f5112c8f48089
housing complex,Komplek perumahan,Rmh kafa,"5XR9+F6C, Kampung karui berik, Distrik Warsa, Kabupaten Biak Numfor, Papua 98157","Kampung karui berik, Distrik Warsa, Kabupaten Biak Numfor",PAPUA,98157.0,Indonesia,,-0.8087884,1.359.670.753,https://maps.google.com/?cid=0x0:0x550756a253f63b9d
housing complex,Komplek perumahan,Mnu Marsyomi,"5XV6+VX, Diano, Distrik Warsa, Kabupaten Biak Numfor, Papua 98157","Diano, Distrik Warsa, Kabupaten Biak Numfor",PAPUA,98157.0,Indonesia,,-0.8053302,1.359.623.817,https://maps.google.com/?cid=0x0:0x1dae5aae23df34aa
housing complex,Komplek perumahan,Kampung Sor,"5XJP+6RH, Sor, Distrik Yawosi, Kabupaten Biak Numfor, Papua 98157","Sor, Distrik Yawosi, Kabupaten Biak Numfor",PAPUA,98157.0,Indonesia,,-0.8194364,1.359.871.201,https://maps.google.com/?cid=0x0:0x786a778d77725cd6
housing complex,housing complex,Distrik Yawosi,"Kabupaten Biak Numfor, Papua","Kabupaten Biak Numfor, Papua",PAPUA,,Indonesia,,-0.8350919,1.360.182.645,https://maps.google.com/?cid=0x0:0x7439514076bef34
housing complex,Pembangunan Perumahan,Kepala kKampung,"5XR9+2H, Karmon, Distrik Yawosi, Kabupaten Biak Numfor, Papua","Kabupaten Biak Numfor, Papua",PAPUA,,Indonesia,,-0.8099474,135.968.989,https://maps.google.com/?cid=0x0:0xff15851989216e28
housing complex,Komplek perumahan,ABIWARK WELA,"5XJP+6RH, indawi, Yawosi, Biak Numfor Regency, Papua 98157","indawi, Yawosi, Biak Numfor Regency",PAPUA,98157.0,Indonesia,,-0.8197333,1.359.860.833,https://maps.google.com/?cid=0x0:0x45c9bd39920d2a69
housing complex,Pembangunan Perumahan,Orichz Home,"5XJQ+P54, Sor, Distrik Yawosi, Kabupaten Biak Numfor, Papua 98157","Sor, Distrik Yawosi, Kabupaten Biak Numfor",PAPUA,98157.0,Indonesia,,-0.8182375,1.359.879.531,https://maps.google.com/?cid=0x0:0xe6de64029c496b15
housing complex,Komplek perumahan,RUMAH KELUARGA MAMBOBO,"5XHR+X7J, Sor, Distrik Yawosi, Kabupaten Biak Numfor, Papua","Kabupaten Biak Numfor, Papua",PAPUA,,Indonesia,,-0.8200303,1.359.906.497,https://maps.google.com/?cid=0x0:0x7c329e28dc4f1f1f
housing complex,Komplek perumahan,Indawi . Barend Brabar,"5XJQ+P54, Sor, Distrik Yawosi, Kabupaten Biak Numfor, Papua 98157","Sor, Distrik Yawosi, Kabupaten Biak Numfor",PAPUA,98157.0,Indonesia,,-0.8181544,1.359.879.443,https://maps.google.com/?cid=0x0:0xb8b82b4e751faa9c
housing complex,Komplek perumahan,Wenand Marsyom,"5XV6+VX, Diano, Distrik Warsa, Kabupaten Biak Numfor, Papua 98157","Diano, Distrik Warsa, Kabupaten Biak Numfor",PAPUA,98157.0,Indonesia,,-0.8053289,1.359.624.353,https://maps.google.com/?cid=0x0:0x9273fa1ab2948835
housing complex,Komplek perumahan,Tanjung Porsewi,"5279+X86, Bosnabraidi, Distrik Yawosi, Kabupaten Biak Numfor, Papua","Kabupaten Biak Numfor, Papua",PAPUA,,Indonesia,,-0.8350919,1.360.182.645,https://maps.google.com/?cid=0x0:0xe7f91cf8f2b9b415
housing complex,Komplek perumahan,Mnu Marsyomi,"5XV6+VX, Diano, Distrik Warsa, Kabupaten Biak Numfor, Papua 98157","Diano, Distrik Warsa, Kabupaten Biak Numfor",PAPUA,98157.0,Indonesia,,-0.8053302,1.359.623.817,https://maps.google.com/?cid=0x0:0x1dae5aae23df34aa
housing complex,Komplek perumahan,Rmh kafa,"5XR9+F6C, Kampung karui berik, Distrik Warsa, Kabupaten Biak Numfor, Papua 98157","Kampung karui berik, Distrik Warsa, Kabupaten Biak Numfor",PAPUA,98157.0,Indonesia,,-0.8087884,1.359.670.753,https://maps.google.com/?cid=0x0:0x550756a253f63b9d
housing complex,Komplek perumahan,RUMAH KELUARGA. Y.P.RUMBRAR,"5XHR+8FQ, Sor, Distrik Yawosi, Kabupaten Biak Numfor, Papua","Kabupaten Biak Numfor, Papua",PAPUA,,Indonesia,,-0.8216692,1.359.912.344,https://maps.google.com/?cid=0x0:0x52f4663d2da53416
housing complex,Komplek perumahan,Simon Msiren,"5XR9+2H, Karmon, Distrik Yawosi, Kabupaten Biak Numfor, Papua","Kabupaten Biak Numfor, Papua",PAPUA,,Indonesia,,-0.8099437,1.359.689.836,https://maps.google.com/?cid=0x0:0xa07f5112c8f48089
housing complex,Komplek perumahan,Kampung Sor,"5XJP+6RH, Sor, Distrik Yawosi, Kabupaten Biak Numfor, Papua 98157","Sor, Distrik Yawosi, Kabupaten Biak Numfor",PAPUA,98157.0,Indonesia,,-0.8194364,1.359.871.201,https://maps.google.com/?cid=0x0:0x786a778d77725cd6
housing complex,Pembangunan Perumahan,Kampung Komboi,"6W5V+H4R, Komboy, Distrik Warsa, Kabupaten Biak Numfor, Papua 98157","Komboy, Distrik Warsa, Kabupaten Biak Numfor",PAPUA,98157.0,Indonesia,,-0.791015,1.359.427.515,https://maps.google.com/?cid=0x0:0x73a28a5aa4e7647c
housing complex,housing complex,Andei,"Distrik Biak Utara, Kabupaten Biak Numfor, Papua","Kabupaten Biak Numfor, Papua",PAPUA,,Indonesia,,-0.917489,1.360.324.844,https://maps.google.com/?cid=0x0:0x538a33a79fdea1d5
housing complex,Komplek perumahan,Rumbino Rumakito Family,"32JR+545, Andei, Distrik Andey, Kabupaten Biak Numfor, Papua","Kabupaten Biak Numfor, Papua",PAPUA,,Indonesia,,-0.9196182,1.360.403.732,https://maps.google.com/?cid=0x0:0x240d8c72872453d8
housing complex,Komplek perumahan,Rumah Daud,"32VV+RXQ, Saukobye, Distrik Biak Utara, Kabupaten Biak Numfor, Papua 98153","Saukobye, Distrik Biak Utara, Kabupaten Biak Numfor",PAPUA,98153.0,Indonesia,,-0.90541,136.044.995,https://maps.google.com/?cid=0x0:0xab8411e0edb41807
housing complex,Komplek perumahan,Mori Kapitarauw,"Jln. SMA N 01 Biak Utara, kampung Warbon, Andei, Distrik Biak Utara, Kabupaten Biak Numfor, Papua 98153","kampung Warbon, Andei, Distrik Biak Utara, Kabupaten Biak Numfor",PAPUA,98153.0,Indonesia,,-0.9199431,1.360.419.192,https://maps.google.com/?cid=0x0:0x5a70e3a6516e2cf8
housing complex,Perhimpunan Pengembang Perumahan,Martha,"32WJ+WM, Andei, Distrik Andey, Kabupaten Biak Numfor, Papua","Kabupaten Biak Numfor, Papua",PAPUA,,Indonesia,,-0.902722,136.031.663,https://maps.google.com/?cid=0x0:0xe0f0e9f3601b7e0b
housing complex,Komplek perumahan,Rumah Masgam,"32RV+H5X, Saukobye, Distrik Biak Utara, Kabupaten Biak Numfor, Papua 98153","Saukobye, Distrik Biak Utara, Kabupaten Biak Numfor",PAPUA,98153.0,Indonesia,,-0.9085012,1.360.429.787,https://maps.google.com/?cid=0x0:0x8c7b99764905c84d
housing complex,Pembangunan Perumahan,Marthasance Family,"32WV+67H, Saukobye, Distrik Biak Utara, Kabupaten Biak Numfor, Papua","Kabupaten Biak Numfor, Papua",PAPUA,,Indonesia,,-0.9044366,1.360.432.318,https://maps.google.com/?cid=0x0:0x774bb2e81f147647
housing complex,Gedung Apartemen,Jusak Wabiser Houses,"32MQ+P2F, Unnamed Road, Andei, Distrik Biak Utara, Kabupaten Biak Numfor, Papua 98153","Unnamed Road, Andei, Distrik Biak Utara, Kabupaten Biak Numfor",PAPUA,98153.0,Indonesia,,-0.9156799,1.360.375.613,https://maps.google.com/?cid=0x0:0x3b91647157a39d02
housing complex,Pembangunan Perumahan,Kampung Rosayendi,"32WH+5CQ, Rosayendi, Distrik Biak Utara, Kabupaten Biak Numfor, Papua 98153","Rosayendi, Distrik Biak Utara, Kabupaten Biak Numfor",PAPUA,98153.0,Indonesia,,-0.9042686,1.360.277.654,https://maps.google.com/?cid=0x0:0x17dfcf8eb1f2cb06
housing complex,Komplek perumahan,Kompleks Buton lombe,"32RV+8JW, Saukobye, Distrik Biak Utara, Kabupaten Biak Numfor, Papua 98153","Saukobye, Distrik Biak Utara, Kabupaten Biak Numfor",PAPUA,98153.0,Indonesia,,-0.9091441,1.360.440.626,https://maps.google.com/?cid=0x0:0x3d36fe8b56338607
housing complex,Kantor Pemerintah,Waryouwde WARBON,"Jl. S. Sembiring KP No.14, Kpg.Warbon, Distrik Biak Utara, Kabupaten Biak Numfor, Papua 98153","Kpg.Warbon, Distrik Biak Utara, Kabupaten Biak Numfor",PAPUA,98153.0,Indonesia,,-0.9100417,1.360.427.631,https://maps.google.com/?cid=0x0:0x1cc6589b68189128
housing complex,Komplek perumahan,Rumah ku,"32VR+QM2, Saukobye, Distrik Biak Utara, Kabupaten Biak Numfor, Papua 98153","Saukobye, Distrik Biak Utara, Kabupaten Biak Numfor",PAPUA,98153.0,Indonesia,,-0.9044503,1.360.416.258,https://maps.google.com/?cid=0x0:0xc79255f71bde4833
housing complex,Komplek perumahan,MARIRES,"426Q+PVJ, Korem, Rosayendi, Kabupaten Biak Numfor, Papua 98153","Korem, Rosayendi, Kabupaten Biak Numfor",PAPUA,98153.0,Indonesia,,-0.8881559,1.360.396.342,https://maps.google.com/?cid=0x0:0x15fc30d056db9595
housing complex,Komplek perumahan,"KOMPLEKS,DESA,ILIREK","47P9+H59, Yarema, Apalapsili, Kabupaten Yalimo, Papua","Kabupaten Yalimo, Papua",PAPUA,,Indonesia,,-38.635.993,1.392.679.933,https://maps.google.com/?cid=0x0:0xb493ab6837e20dd
housing complex,Komplek perumahan,Andi Awan House,"Gang Air Mancur No.007 RT/RW 03/02, Asano, Kec. Abepura, Kota: JAYAPURA, Papua","Kota: JAYAPURA, Papua",PAPUA,,Indonesia,,-26.664.156,1.406.845.648,https://maps.google.com/?cid=0x0:0xa38a2c45c0feabdb
housing complex,housing complex,Papua 98157,"Kabupaten Biak Numfor, Papua","Kabupaten Biak Numfor, Papua",PAPUA,,Indonesia,,-0.8013579,1.358.849.587,https://maps.google.com/?cid=0x0:0xc4bb574f645569e5
housing complex,housing complex,Kompleks BUPA ( Buton-Papua ),"32JP+7WQ, Andei, Distrik Biak Utara, Kabupaten Biak Numfor, Papua 98153","Andei, Distrik Biak Utara, Kabupaten Biak Numfor",PAPUA,98153.0,Indonesia,,-0.919285,1.360.373.661,https://maps.google.com/?cid=0x0:0x983c67e0dd65ea1b
housing complex,Perumahan,Andi,"Gg. Tj. 2 No.137, Perumnas 1, Kp. Waena, Kec. Heram, Kota Jayapura, Papua 99225","Perumnas 1, Kp. Waena, Kec. Heram, Kota Jayapura",PAPUA,99225.0,Indonesia,,-2.596.141,1.406.378.548,https://maps.google.com/?cid=0x0:0xe8cf5c82139378fc
housing complex,housing complex,Andin,"73PW+9W2, Koweda, Masirei, Kabupaten Waropen, Papua 98263","Koweda, Masirei, Kabupaten Waropen",PAPUA,98263.0,Indonesia,,-27.141.195,1.370.972.766,https://maps.google.com/?cid=0x0:0x426f20c536a13c55
housing complex,Komplek perumahan,Andi Iwan Home,"Btn Darsua blok. CC No. 47, Doyo Baru, Distrik Waibu, Kabupaten Jayapura, Papua 99352","Doyo Baru, Distrik Waibu, Kabupaten Jayapura",PAPUA,99352.0,Indonesia,,-25.461.145,1.404.569.747,https://maps.google.com/?cid=0x0:0xffc16eb60523859b
housing complex,Komplek perumahan,Rumbino Rumakito Family,"32JR+545, Andei, Distrik Andey, Kabupaten Biak Numfor, Papua","Kabupaten Biak Numfor, Papua",PAPUA,,Indonesia,,-0.9196182,1.360.403.732,https://maps.google.com/?cid=0x0:0x240d8c72872453d8
housing complex,housing complex,Distrik Andey,"Kabupaten Biak Numfor, Papua","Kabupaten Biak Numfor, Papua",PAPUA,,Indonesia,,-0.8632296,1.359.457.066,https://maps.google.com/?cid=0x0:0xbdf1e0ba9b83aec1
housing complex,Komplek perumahan,Mori Kapitarauw,"Jln. SMA N 01 Biak Utara, kampung Warbon, Andei, Distrik Biak Utara, Kabupaten Biak Numfor, Papua 98153","kampung Warbon, Andei, Distrik Biak Utara, Kabupaten Biak Numfor",PAPUA,98153.0,Indonesia,,-0.9199431,1.360.419.192,https://maps.google.com/?cid=0x0:0x5a70e3a6516e2cf8
housing complex,Toko bahan makanan,Wardo,"XR9H+5MV, Kanaan, Distrik Biak Barat, Kabupaten Biak Numfor, Papua 98154","Kanaan, Distrik Biak Barat, Kabupaten Biak Numfor",PAPUA,98154.0,Indonesia,,-10.320.235,1.358.291.581,https://maps.google.com/?cid=0x0:0xd17615874189ceaa
housing complex,Komplek perumahan,H Yembise,"XR8H+PM, Kanaan, Distrik Biak Barat, Kabupaten Biak Numfor, Papua 98154","Kanaan, Distrik Biak Barat, Kabupaten Biak Numfor",PAPUA,98154.0,Indonesia,,-10.333.173,135.829.197,https://maps.google.com/?cid=0x0:0xd9a362e39611c32d
housing complex,housing complex,Papua 98154,"Kabupaten Biak Numfor, Papua","Kabupaten Biak Numfor, Papua",PAPUA,,Indonesia,,-0.9529483,1.358.659.561,https://maps.google.com/?cid=0x0:0x7baacb17c171a3e7
housing complex,Komplek perumahan,KELUARGA ZET MARYEN,"3Q3Q+RH2, Swainober, Distrik Swandiwe, Kabupaten Biak Numfor, Papua 98154","Swainober, Distrik Swandiwe, Kabupaten Biak Numfor",PAPUA,98154.0,Indonesia,,-0.944896,1.357.890.073,https://maps.google.com/?cid=0x0:0xee2266e0d0391d70
housing complex,Komplek perumahan,Rumah Willy Esau Mandowen,"Jalan Korderi No.1, Dusun Yenburwo, Distrik Biak Barat, Kabupaten Biak Numfor, Papua","Kabupaten Biak Numfor, Papua",PAPUA,,Indonesia,,-10.299.966,1.358.297.159,https://maps.google.com/?cid=0x0:0x9fcef26fbde135a6
housing complex,Pembangunan Perumahan,"KAMPUNG SOPEN, BIAK BARAT","XRW8+M74, Sopendo, Distrik Biak Barat, Kabupaten Biak Numfor, Papua 98154","Sopendo, Distrik Biak Barat, Kabupaten Biak Numfor",PAPUA,98154.0,Indonesia,,-10.033.732,1.358.156.877,https://maps.google.com/?cid=0x0:0xd698b819e14eab86
housing complex,Komplek perumahan,Sosmay,"WR9Q+MHC, Sosmay, Distrik Biak Barat, Kabupaten Biak Numfor, Papua","Kabupaten Biak Numfor, Papua",PAPUA,,Indonesia,,-10.808.165,135.838.887,https://maps.google.com/?cid=0x0:0xe9ebf2aa93f2a8e8
housing complex,Komplek perumahan,Ruma neneku,"3QFJ+FR, Swaipak, Distrik Swandiwe, Kabupaten Biak Numfor, Papua","Kabupaten Biak Numfor, Papua",PAPUA,,Indonesia,,-0.9259504,1.357.819.387,https://maps.google.com/?cid=0x0:0x91ec10c82e11206a
housing complex,Pembangunan Perumahan,Hagetama,"5PRR+CQ, Wombrisauw, Distrik Swandiwe, Kabupaten Biak Numfor, Papua 98154","Wombrisauw, Distrik Swandiwe, Kabupaten Biak Numfor",PAPUA,98154.0,Indonesia,,-0.8095526,1.357.426.138,https://maps.google.com/?cid=0x0:0x8d1c85f622bb356a
housing complex,Komplek perumahan,Worawur,"WVP8+XR9, Yomdori, Distrik Biak Barat, Kabupaten Biak Numfor, Papua","Kabupaten Biak Numfor, Papua",PAPUA,,Indonesia,,-10.625.958,1.358.671.127,https://maps.google.com/?cid=0x0:0x1090795886ca5d10
housing complex,Perumahan,Kampung adaddikam,"2QQV+RJQ Alamat kampung, Farusi, Distrik Swandiwe, Kabupaten Biak Numfor, Papua","Kabupaten Biak Numfor, Papua",PAPUA,,Indonesia,,-0.960405,135.794.123,https://maps.google.com/?cid=0x0:0x3955536a9dde9cff
housing complex,Komplek perumahan,Matius Sbiak,"Mamoribo, Distrik Biak Barat, Kabupaten Biak Numfor, Papua","Kabupaten Biak Numfor, Papua",PAPUA,,Indonesia,,-0.9946768,1.358.018.199,https://maps.google.com/?cid=0x0:0xaca26b16124e50a4
housing complex,Pembangunan Perumahan,Kampung sunbinya distrik biak barat kabupaten biak numfor,"XRMC+86, Opuri, Distrik Biak Barat, Kabupaten Biak Numfor, Papua","Kabupaten Biak Numfor, Papua",PAPUA,,Indonesia,,-10.166.831,1.358.205.371,https://maps.google.com/?cid=0x0:0x25507c13a9844819
housing complex,Komplek perumahan,Biak Numfor,"XR3R+72H, Kanaan, Distrik Biak Barat, Kabupaten Biak Numfor, Papua 98154","Kanaan, Distrik Biak Barat, Kabupaten Biak Numfor",PAPUA,98154.0,Indonesia,,-1.046.817,1.358.401.064,https://maps.google.com/?cid=0x0:0x35e5504501d627c3
housing complex,housing complex,Papua 98171,Papua,Papua,PAPUA,,Indonesia,,-3.160.225,1.346.630.541,https://maps.google.com/?cid=0x0:0xcf85a6c0ad6b9347
housing complex,Pembangunan Perumahan,Arimi Jaya,"XXH9+GP, Dafi, Distrik Bruyadori, Kabupaten Biak Numfor, Papua","Kabupaten Biak Numfor, Papua",PAPUA,,Indonesia,,-10.212.449,1.349.693.266,https://maps.google.com/?cid=0x0:0x1dcf641841f4ed9f
housing complex,Komplek perumahan,DUSUN AMBERPAREM,"XXHJ+6M, Dafi, Distrik Bruyadori, Kabupaten Biak Numfor, Papua 98171","Dafi, Distrik Bruyadori, Kabupaten Biak Numfor",PAPUA,98171.0,Indonesia,,-10.219.221,1.349.816.896,https://maps.google.com/?cid=0x0:0x2190d2408d196c29
housing complex,housing complex,Kampung inasi,"WWM4+73H, Sandau, Distrik Bruyadori, Kabupaten Biak Numfor, Papua","Kabupaten Biak Numfor, Papua",PAPUA,,Indonesia,,-1.066.821,1.349.052.309,https://maps.google.com/?cid=0x0:0xd013a26f42ca0872
housing complex,Pembangunan Perumahan,Mr. David Home,"WX78+CWH, Jl. Sayori Raya, Bruyadori, Distrik Bruyadori, Kabupaten Biak Numfor, Papua","Kabupaten Biak Numfor, Papua",PAPUA,,Indonesia,,-10.864.326,1.349.673.492,https://maps.google.com/?cid=0x0:0x3497c6483c9d938b
housing complex,Pembangunan Perumahan,Duain numfor,"WW6Q+WH4, Duai, Distrik Bruyadori, Kabupaten Biak Numfor, Papua","Kabupaten Biak Numfor, Papua",PAPUA,,Indonesia,,-10.877.461,1.349.389.425,https://maps.google.com/?cid=0x0:0xfd6033b85b66fe67
housing complex,housing complex,Distrik Bruyadori,"Kabupaten Biak Numfor, Papua","Kabupaten Biak Numfor, Papua",PAPUA,,Indonesia,,-1.060.152,1.349.720.204,https://maps.google.com/?cid=0x0:0x3f8b765f19376a63
housing complex,housing complex,Papua 98172,"Kabupaten Biak Numfor, Papua","Kabupaten Biak Numfor, Papua",PAPUA,,Indonesia,,-10.910.129,1.349.066.503,https://maps.google.com/?cid=0x0:0x961f86bb7868e68d
housing complex,Komplek perumahan,Guru. Dortheus Rumsaro,"VV7R+52G, Pakreki, Kec. Orkeri, Kabupaten Biak Numfor, Papua","Kabupaten Biak Numfor, Papua",PAPUA,,Indonesia,,-11.370.535,1.348.900.643,https://maps.google.com/?cid=0x0:0x398d95c0f526a6c0
housing complex,Pembangunan Perumahan,"Noribo, Manwor Indah","VW87+X77, Rawar, Kec. Orkeri, Kabupaten Biak Numfor, Papua 98172","Rawar, Kec. Orkeri, Kabupaten Biak Numfor",PAPUA,98172.0,Indonesia,,-11.325.902,1.349.131.803,https://maps.google.com/?cid=0x0:0x6b13e8bf22a8147
housing complex,Komplek perumahan,"Pakreki, Kec. Orkeri, Kabupaten Biak Numfor","VW85+63X, Pakreki, Kec. Orkeri, Kabupaten Biak Numfor, Papua","Kabupaten Biak Numfor, Papua",PAPUA,,Indonesia,,-1.134.376,1.349.077.303,https://maps.google.com/?cid=0x0:0xdd02f103ecc40813
housing complex,Kompleks Kondominium,Kampung Baruki,"XQVX+V72, Distrik Numfor Barat, Kabupaten Biak Numfor, Papua 98172","Distrik Numfor Barat, Kabupaten Biak Numfor",PAPUA,98172.0,Indonesia,,-10.053.651,1.347.981.467,https://maps.google.com/?cid=0x0:0xa3cc090e78ced262
housing complex,Tujuan Wisata,Yenbeba,"VVG7+WR4, Yenbeba, Kec. Orkeri, Kabupaten Biak Numfor, Papua 98172","Yenbeba, Kec. Orkeri, Kabupaten Biak Numfor",PAPUA,98172.0,Indonesia,,-11.227.356,1.348.645.811,https://maps.google.com/?cid=0x0:0x481f9f795bb0335d
housing complex,housing complex,Yeninar Hous,"3W33+PW, Andei, Distrik Poiru, Kabupaten Biak Numfor, Papua 98171","Andei, Distrik Poiru, Kabupaten Biak Numfor",PAPUA,98171.0,Indonesia,,-0.9447941,1.349.059.721,https://maps.google.com/?cid=0x0:0x5fc69a4752d3e06d
housing complex,Komplek perumahan,Kampung Warsa,"VVGC+74Q, Yenbeba, Kec. Orkeri, Kabupaten Biak Numfor, Papua","Kabupaten Biak Numfor, Papua",PAPUA,,Indonesia,,-11.242.869,1.348.703.628,https://maps.google.com/?cid=0x0:0x2f584edac6c93d6
housing complex,housing complex,Kampung inasi,"WWM4+73H, Sandau, Distrik Bruyadori, Kabupaten Biak Numfor, Papua","Kabupaten Biak Numfor, Papua",PAPUA,,Indonesia,,-1.066.821,1.349.052.309,https://maps.google.com/?cid=0x0:0xd013a26f42ca0872
housing complex,Pembangunan Perumahan,Kampung rawar-ruminur,"VV6M+7X, Pakreki, Kec. Orkeri, Kabupaten Biak Numfor, Papua","Kabupaten Biak Numfor, Papua",PAPUA,,Indonesia,,-11.393.527,1.348.849.497,https://maps.google.com/?cid=0x0:0x1e7249deee463862
housing complex,Pembangunan Perumahan,Ambermasi,"2R33+G53, Kameri, Distrik Numfor Barat, Kabupaten Biak Numfor, Papua","Kabupaten Biak Numfor, Papua",PAPUA,,Indonesia,,-0.9962366,1.348.029.364,https://maps.google.com/?cid=0x0:0x8e690eb095e101ee
housing complex,Pembangunan Perumahan,Segitiga waryabo kampung semayen,"XRX3+54H, Kansai, Distrik Numfor Barat, Kabupaten Biak Numfor, Papua","Kabupaten Biak Numfor, Papua",PAPUA,,Indonesia,,-10.022.988,1.348.029.807,https://maps.google.com/?cid=0x0:0x2356b805be858fdc
housing complex,Perumahan,Kel Wambrauw,"3V87+4W8, Asaryendi, Numfor Tim., Kabupaten Biak Numfor, Papua","Kabupaten Biak Numfor, Papua",PAPUA,,Indonesia,,-0.9347117,1.348.648.351,https://maps.google.com/?cid=0x0:0x8579a681009058fd
housing complex,housing complex,Rumah ANUGERAH,"2W8Q+7PX, Tanjakan, Syoribo, Distrik Poiru, Kabupaten Biak Numfor, Papua 98171","Tanjakan, Syoribo, Distrik Poiru, Kabupaten Biak Numfor",PAPUA,98171.0,Indonesia,,-0.9842572,1.349.393.443,https://maps.google.com/?cid=0x0:0xdd78edc44d88f307
housing complex,housing complex,Distrik Poiru,"Kabupaten Biak Numfor, Papua","Kabupaten Biak Numfor, Papua",PAPUA,,Indonesia,,-0.9700197,1.349.424.126,https://maps.google.com/?cid=0x0:0xaa1a5134d7f11a74
housing complex,housing complex,Yeninar Hous,"3W33+PW, Andei, Distrik Poiru, Kabupaten Biak Numfor, Papua 98171","Andei, Distrik Poiru, Kabupaten Biak Numfor",PAPUA,98171.0,Indonesia,,-0.9447941,1.349.059.721,https://maps.google.com/?cid=0x0:0x5fc69a4752d3e06d
housing complex,housing complex,Rumah ANUGERAH,"2W8Q+7PX, Tanjakan, Syoribo, Distrik Poiru, Kabupaten Biak Numfor, Papua 98171","Tanjakan, Syoribo, Distrik Poiru, Kabupaten Biak Numfor",PAPUA,98171.0,Indonesia,,-0.9842572,1.349.393.443,https://maps.google.com/?cid=0x0:0xdd78edc44d88f307
housing complex,Pembangunan Perumahan,Petrus Manggombrab,"XWVM+G5W, Bawei, Distrik Poiru, Kabupaten Biak Numfor, Papua 98171","Bawei, Distrik Poiru, Kabupaten Biak Numfor",PAPUA,98171.0,Indonesia,,-10.061.304,1.349.329.377,https://maps.google.com/?cid=0x0:0xb5bd8dda9a2c2187
housing complex,Komplek perumahan,Irbor Sauri BAWEI NUMFOR BARAT,"XWVC+X77, Bawei, Distrik Poiru, Kabupaten Biak Numfor, Papua 98171","Bawei, Distrik Poiru, Kabupaten Biak Numfor",PAPUA,98171.0,Indonesia,,-10.050.966,1.349.206.649,https://maps.google.com/?cid=0x0:0x4e4df25b8f8b219e
housing complex,Komplek perumahan,Pasar Araima,"XWVC+X77, Bawei, Distrik Poiru, Kabupaten Biak Numfor, Papua 98171","Bawei, Distrik Poiru, Kabupaten Biak Numfor",PAPUA,98171.0,Indonesia,,-10.050.966,1.349.206.649,https://maps.google.com/?cid=0x0:0x1ea5c6109bfd64aa
housing complex,Komplek perumahan,KOMPLEKS PERHUBUNGAN,"CPW4+94J, Ardipura, Distrik Jayapura Selatan, Kota Jayapura, Papua 99222","Ardipura, Distrik Jayapura Selatan, Kota Jayapura",PAPUA,99222.0,Indonesia,,-25.540.383,1.407.052.812,https://maps.google.com/?cid=0x0:0xe5318346e6ef74ba
housing complex,Perumahan,Kel Wambrauw,"3V87+4W8, Asaryendi, Numfor Tim., Kabupaten Biak Numfor, Papua","Kabupaten Biak Numfor, Papua",PAPUA,,Indonesia,,-0.9347117,1.348.648.351,https://maps.google.com/?cid=0x0:0x8579a681009058fd
housing complex,Tujuan Wisata,Pantai syoribo. Numfor timur,"3W42+CWC, Syoribo, Distrik Poiru, Kabupaten Biak Numfor, Papua 98171","Syoribo, Distrik Poiru, Kabupaten Biak Numfor",PAPUA,98171.0,Indonesia,,-0.9431875,1.349.035.625,https://maps.google.com/?cid=0x0:0x5f21bd13e30859ab
housing complex,Pembangunan Perumahan,Indaibo,"3V8G+2C8, indaibori, Numfor Tim., Kabupaten Biak Numfor, Papua 98171","indaibori, Numfor Tim., Kabupaten Biak Numfor",PAPUA,98171.0,Indonesia,,-0.9344901,1.348.756.001,https://maps.google.com/?cid=0x0:0x4a49da88798db709
housing complex,housing complex,Distrik Aimando Padaido,"Kabupaten Biak Numfor, Papua","Kabupaten Biak Numfor, Papua",PAPUA,,Indonesia,,-12.143.849,1.365.981.595,https://maps.google.com/?cid=0x0:0x7b5c29938f349564
housing complex,Pembangunan Perumahan,Bernad home,"Kampung Bromsi, Mbromsi, Distrik Aimando Padaido, Kabupaten Biak Numfor, Papua","Kabupaten Biak Numfor, Papua",PAPUA,,Indonesia,,-12.073.231,1.365.981.595,https://maps.google.com/?cid=0x0:0x6a7ef2eeb65b4cae
housing complex,housing complex,Perumahan Puskesmas Pasi,"QJ93+QF2, Pasi, Distrik Aimando Padaido, Kabupaten Biak Numfor, Papua","Kabupaten Biak Numfor, Papua",PAPUA,,Indonesia,,-12.306.232,1.366.036.452,https://maps.google.com/?cid=0x0:0x24fd1710c9525aad
housing complex,housing complex,Padaido,"Distrik Aimando Padaido, Kabupaten Biak Numfor, Papua","Kabupaten Biak Numfor, Papua",PAPUA,,Indonesia,,-11.667.956,1.366.005.703,https://maps.google.com/?cid=0x0:0xf68916719e3bde2
housing complex,housing complex,Distrik Oridek,"Kabupaten Biak Numfor, Papua","Kabupaten Biak Numfor, Papua",PAPUA,,Indonesia,,-1.146.118,1.362.744.853,https://maps.google.com/?cid=0x0:0x33a1275478c34e
housing complex,,Rumah Qu,"V89G+RX3, Anggaduber, Distrik Oridek, Kabupaten Biak Numfor, Papua 98152","Anggaduber, Distrik Oridek, Kabupaten Biak Numfor",PAPUA,98152.0,Indonesia,,-11.304.908,1.363.274.138,https://maps.google.com/?cid=0x0:0xc6c93a7498bee984
housing complex,Perhimpunan Pengembang Perumahan,Ramprabesh,"W6HW+PX8, Sauri, Distrik Oridek, Kabupaten Biak Numfor, Papua 98152","Sauri, Distrik Oridek, Kabupaten Biak Numfor",PAPUA,98152.0,Indonesia,,-10.707.188,1.362.474.381,https://maps.google.com/?cid=0x0:0x4d6e86617d9b2fe8
housing complex,housing complex,Rumah Rido sanadi,"V865+WM8, Anggopi, Distrik Oridek, Kabupaten Biak Numfor, Papua 98152","Anggopi, Distrik Oridek, Kabupaten Biak Numfor",PAPUA,98152.0,Indonesia,,-11.377.076,1.363.092.094,https://maps.google.com/?cid=0x0:0x420846e2dae11a9f
housing complex,Komplek perumahan,Sukan Family Home,"W83Q+795, Kakur, Distrik Oridek, Kabupaten Biak Numfor, Papua","Kabupaten Biak Numfor, Papua",PAPUA,,Indonesia,,-10.968.588,1.363.384.816,https://maps.google.com/?cid=0x0:0x8e06d9e4e641be4
housing complex,Komplek perumahan,Kampung sauri,"W77Q+GQ5, Sauri, Distrik Oridek, Kabupaten Biak Numfor, Papua 98152","Sauri, Distrik Oridek, Kabupaten Biak Numfor",PAPUA,98152.0,Indonesia,,-10.862.299,1.362.894.877,https://maps.google.com/?cid=0x0:0x1509fdf308142df2
housing complex,housing complex,Petrus sanadi/Anggopi,"V877+R5, Anggopi, Distrik Oridek, Kabupaten Biak Numfor, Papua","Kabupaten Biak Numfor, Papua",PAPUA,,Indonesia,,-1.135.428,136.312.988,https://maps.google.com/?cid=0x0:0x51e46bdfaa58343e
housing complex,Komplek perumahan,KOMPLEKS CEMARA,"R7X5+4W9, Bakribo, Distrik Oridek, Kabupaten Biak Numfor, Papua 98152","Bakribo, Distrik Oridek, Kabupaten Biak Numfor",PAPUA,98152.0,Indonesia,,-11.521.899,13.626.083,https://maps.google.com/?cid=0x0:0xe6155e1f13b1617b
housing complex,Pembangunan Perumahan,Keluarga Inggamer (KING),"R7Q5+MR, Opiaref, Distrik Oridek, Kabupaten Biak Numfor, Papua","Kabupaten Biak Numfor, Papua",PAPUA,,Indonesia,,-11.607.897,136.259.555,https://maps.google.com/?cid=0x0:0x3b569193f7b93a28
housing complex,housing complex,KAMEX (KAJASBO MEXICO),"V62X+36, Kajasbo, Kec. Biak Tim., Kabupaten Biak Numfor, Papua","Kabupaten Biak Numfor, Papua",PAPUA,,Indonesia,,-11.498.523,1.362.480.262,https://maps.google.com/?cid=0x0:0x3f7caf5da81da852
housing complex,Pembangunan Perumahan,KUB SANDUMI STAR,"V88F+GVM, Jl, Tj. Barari, Distrik Oridek, Kabupaten Biak Numfor, Papua 98152","Jl, Tj. Barari, Distrik Oridek, Kabupaten Biak Numfor",PAPUA,98152.0,Indonesia,,-11.328.538,1.363.248.708,https://maps.google.com/?cid=0x0:0x4d8bb69882aa2cc2
housing complex,Perhimpunan Pengembang Perumahan,Bakribo,"V735+GQX, Bakribo, Distrik Oridek, Kabupaten Biak Numfor, Papua 98152","Bakribo, Distrik Oridek, Kabupaten Biak Numfor",PAPUA,98152.0,Indonesia,,-11.461.357,1.362.594.963,https://maps.google.com/?cid=0x0:0x3b1776b3d1d6a7dc
housing complex,housing complex,Desa mokmer,"Jl. Raya Bosnik, Kajasi, Kec. Biak Tim., Kabupaten Biak Numfor, Papua","Kabupaten Biak Numfor, Papua",PAPUA,,Indonesia,,-11.631.362,1.362.551.919,https://maps.google.com/?cid=0x0:0x59b7e32239ea8800
housing complex,Komplek perumahan,Bosnik,"R6JW+XGG, Jl. Raya Bosnik, Bindusi, Kec. Biak Tim., Kabupaten Biak Numfor, Papua","Kabupaten Biak Numfor, Papua",PAPUA,,Indonesia,,-11.675.661,1.362.463.208,https://maps.google.com/?cid=0x0:0x230072dbe9e717da
housing complex,Komplek perumahan,Rumah Kel Toni Mararu,"R3W7+R4F, Nazaret atas Sorido, Yafdas, Kec. Biak Kota, Kabupaten Biak Numfor, Papua","Kabupaten Biak Numfor, Papua",PAPUA,,Indonesia,,-11.524.832,1.360.638.593,https://maps.google.com/?cid=0x0:0x128fc6de2a2347a
housing complex,Komplek perumahan,Kk tony pu komplek,"8R67+FQG, Unnamed Road, Sansundi, Bondifuar, Kabupaten Biak Numfor, Papua 98161","Unnamed Road, Sansundi, Bondifuar, Kabupaten Biak Numfor",PAPUA,98161.0,Indonesia,82193013972.0,-0.688812,135.814.442,https://maps.google.com/?cid=0x0:0x9cf654d31761e07c
housing complex,housing complex,Bondifuar,"Sansundi, Kabupaten Biak Numfor, Papua","Kabupaten Biak Numfor, Papua",PAPUA,,Indonesia,,-0.690129,1.358.185.211,https://maps.google.com/?cid=0x0:0x425bf86d4ccf74c7
