Category,Real Category,Business Name,Address,City,State,Postal Code,Country,Phone,Latitude,Longitude,Map Link
cafe,Kafe,Cafe Socio Culture (Coffee and Eatery),"Jl. Raya Abepura Setani, Baru City, Abepura, Jayapura City, Papua 99351","Baru City, Abepura, Jayapura City",PAPUA,99351.0,Indonesia,81299939889.0,-2.610394,140.661513,https://maps.google.com/?cid=0x0:0xd714b57117860fbe
cafe,Restoran,SOCIAL HUB JAYAPURA,"Jl. Klp. 2, Entrop, Distrik Jayapura Selatan, Kota Jayapura, Papua 99224","Entrop, Distrik Jayapura Selatan, Kota Jayapura",PAPUA,99224.0,Indonesia,82349831188.0,-2.5678047,140.7017466,https://maps.google.com/?cid=0x0:0x3fd4dc6a056eeb45
cafe,Restoran,Raftel Cafe Jayapura,"9MPC+84Q, Jl. Gerilyawan, Yobe, Kec. Abepura, Kota Jayapura, Papua 99351","Jl. Gerilyawan, Yobe, Kec. Abepura, Kota Jayapura",PAPUA,99351.0,Indonesia,,-2.6141741,140.6703722,https://maps.google.com/?cid=0x0:0x22b32b53b260031b
cafe,cafe,,,,PAPUA,,Indonesia,,,,https://maps.google.com/?cid=0x0:0xd714b57117860fbeu0026onu003dNasi+Goreng+Salmonu0026midu003d/g/11rmjz9qhr
cafe,cafe,,,,PAPUA,,Indonesia,,,,https://maps.google.com/?cid=0x0:0xd714b57117860fbeu0026onu003dAyam+Betutuu0026midu003d/g/11rmjz9qhr
cafe,cafe,,,,PAPUA,,Indonesia,,,,https://maps.google.com/?cid=0x0:0xd714b57117860fbeu0026onu003dEs+Kopi+Susu+Gula+Aren+Sushoiu0026midu003d/g/11rmjz9qhr
cafe,cafe,,,,PAPUA,,Indonesia,,,,https://maps.google.com/?cid=0x0:0xd714b57117860fbeu0026onu003dSop+Igau0026midu003d/g/11rmjz9qhr
cafe,cafe,,,,PAPUA,,Indonesia,,,,https://maps.google.com/?cid=0x0:0xd714b57117860fbeu0026onu003dSushi+Rollu0026midu003d/g/11rmjz9qhr
cafe,cafe,,,,PAPUA,,Indonesia,,,,https://maps.google.com/?cid=0x0:0xd714b57117860fbeu0026onu003dAmericano+Coffeeu0026midu003d/g/11rmjz9qhr
cafe,cafe,,,,PAPUA,,Indonesia,,,,https://maps.google.com/?cid=0x0:0xd714b57117860fbeu0026onu003dSweet+Dragonu0026midu003d/g/11rmjz9qhr
cafe,cafe,,,,PAPUA,,Indonesia,,,,https://maps.google.com/?cid=0x0:0xd714b57117860fbeu0026onu003dHot+Chocolateu0026midu003d/g/11rmjz9qhr
cafe,cafe,,,,PAPUA,,Indonesia,,,,https://maps.google.com/?cid=0x0:0xd714b57117860fbeu0026onu003dApple+Berryu0026midu003d/g/11rmjz9qhr
cafe,cafe,,,,PAPUA,,Indonesia,,,,https://maps.google.com/?cid=0x0:0xd714b57117860fbeu0026onu003dFrench+Friesu0026midu003d/g/11rmjz9qhr
cafe,cafe,,,,PAPUA,,Indonesia,,,,https://maps.google.com/?cid=0x0:0xd714b57117860fbeu0026onu003dMojhito+Lycheeu0026midu003d/g/11rmjz9qhr
cafe,cafe,WARUNG MAKAN,"PJJ7+HPH, Dabra, Mamberamo Ulu, Kabupaten Mamberamo Raya, Papua","Kabupaten Mamberamo Raya, Papua",PAPUA,,Indonesia,,-3.2685642,138.6143444,https://maps.google.com/?cid=0x0:0x89958bf6b4da1593
cafe,cafe,Papua 99377,"Kabupaten Mamberamo Raya, Papua","Kabupaten Mamberamo Raya, Papua",PAPUA,,Indonesia,,-2.9302628,138.558749,https://maps.google.com/?cid=0x0:0x56875374c777610f
cafe,cafe,Baso II,"2RFM+GPR, Foau, Mamberamo Ulu, Kabupaten Mamberamo Raya, Papua 99377","Foau, Mamberamo Ulu, Kabupaten Mamberamo Raya",PAPUA,99377.0,Indonesia,,-2.9761411,138.8342577,https://maps.google.com/?cid=0x0:0x43b2737c34193c0c
cafe,Dapur Umum,Warung Makan Maduratna Kasonaweja,"Kasonaweja, Kec. Mamberamo Tengah, Kabupaten Mamberamo Raya, Papua 99376","Kec. Mamberamo Tengah, Kabupaten Mamberamo Raya",PAPUA,99376.0,Indonesia,81383138382.0,-2.3014354,138.0301517,https://maps.google.com/?cid=0x0:0xadc21a2996f23f5f
cafe,cafe,Papua 99376,"Kabupaten Mamberamo Raya, Papua","Kabupaten Mamberamo Raya, Papua",PAPUA,,Indonesia,,-2.3686909,138.1597946,https://maps.google.com/?cid=0x0:0xd5bdc7e3e560174a
cafe,Brunch,Warung Simpang Tiga,"M2FR+8PR, Burmeso, Kec. Mamberamo Tengah, Kabupaten Mamberamo Raya, Papua 99376","Burmeso, Kec. Mamberamo Tengah, Kabupaten Mamberamo Raya",PAPUA,99376.0,Indonesia,,-2.3266467,138.0417638,https://maps.google.com/?cid=0x0:0xe94b4449abf39b91
cafe,Indonesia,Homestay and waroeng dadakan,"Jl.otonom burmeso, Danau Bira, Kec. Mamberamo Tengah, Kabupaten Mamberamo Raya, Papua 99116","Danau Bira, Kec. Mamberamo Tengah, Kabupaten Mamberamo Raya",PAPUA,99116.0,Indonesia,81354073135.0,-2.3312529,138.0268449,https://maps.google.com/?cid=0x0:0x82abd3ab91688ee6
cafe,Dapur Umum,RM. RAHAYU,"P452+834, Jl. Poros Otonom, Burmeso, Kec. Mamberamo Tengah, Kabupaten Mamberamo Raya, Papua 99376","Jl. Poros Otonom, Burmeso, Kec. Mamberamo Tengah, Kabupaten Mamberamo Raya",PAPUA,99376.0,Indonesia,,-2.2917255,138.1002024,https://maps.google.com/?cid=0x0:0xdad37f8f9cc15280
cafe,Brunch,Warung Makan Maifendua,"Jl. Trans Burmeso, Danau Bira, Kec. Mamberamo Tengah, Birmeso, Papua","Birmeso, Papua",PAPUA,,Indonesia,81343162931.0,-2.3283506,138.0153284,https://maps.google.com/?cid=0x0:0x29905cbb89252cc2
cafe,Restoran,Warung Makan Barokah,"M299+HWG, Danau Bira, Kec. Mamberamo Tengah, Kabupaten Mamberamo Raya, Papua","Kabupaten Mamberamo Raya, Papua",PAPUA,,Indonesia,,-2.3309002,138.0214223,https://maps.google.com/?cid=0x0:0x126dbf15948b201e
cafe,Komplek perumahan,"Pasar Rakyat Burmeso, Mamberamo Raya","MXGW+J5X, Danau Bira, Kec. Mamberamo Tengah, Kabupaten Mamberamo Raya, Papua","Kabupaten Mamberamo Raya, Papua",PAPUA,,Indonesia,,-2.3233767,137.995483,https://maps.google.com/?cid=0x0:0xd9459978802c7aaf
cafe,cafe,Papua 99376,"Kabupaten Mamberamo Raya, Papua","Kabupaten Mamberamo Raya, Papua",PAPUA,,Indonesia,,-2.3686909,138.1597946,https://maps.google.com/?cid=0x0:0xd5bdc7e3e560174a
cafe,Brunch,Warung Simpang Tiga,"M2FR+8PR, Burmeso, Kec. Mamberamo Tengah, Kabupaten Mamberamo Raya, Papua 99376","Burmeso, Kec. Mamberamo Tengah, Kabupaten Mamberamo Raya",PAPUA,99376.0,Indonesia,,-2.3266467,138.0417638,https://maps.google.com/?cid=0x0:0xe94b4449abf39b91
cafe,Indonesia,Homestay and waroeng dadakan,"Jl.otonom burmeso, Danau Bira, Kec. Mamberamo Tengah, Kabupaten Mamberamo Raya, Papua 99116","Danau Bira, Kec. Mamberamo Tengah, Kabupaten Mamberamo Raya",PAPUA,99116.0,Indonesia,81354073135.0,-2.3312529,138.0268449,https://maps.google.com/?cid=0x0:0x82abd3ab91688ee6
cafe,Dapur Umum,Warung Makan Maduratna Kasonaweja,"Kasonaweja, Kec. Mamberamo Tengah, Kabupaten Mamberamo Raya, Papua 99376","Kec. Mamberamo Tengah, Kabupaten Mamberamo Raya",PAPUA,99376.0,Indonesia,81383138382.0,-2.3014354,138.0301517,https://maps.google.com/?cid=0x0:0xadc21a2996f23f5f
cafe,Dapur Umum,RM. RAHAYU,"P452+834, Jl. Poros Otonom, Burmeso, Kec. Mamberamo Tengah, Kabupaten Mamberamo Raya, Papua 99376","Jl. Poros Otonom, Burmeso, Kec. Mamberamo Tengah, Kabupaten Mamberamo Raya",PAPUA,99376.0,Indonesia,,-2.2917255,138.1002024,https://maps.google.com/?cid=0x0:0xdad37f8f9cc15280
cafe,Restoran,Warung Makan Barokah,"M299+HWG, Danau Bira, Kec. Mamberamo Tengah, Kabupaten Mamberamo Raya, Papua","Kabupaten Mamberamo Raya, Papua",PAPUA,,Indonesia,,-2.3309002,138.0214223,https://maps.google.com/?cid=0x0:0x126dbf15948b201e
cafe,Brunch,Warung Makan Maifendua,"Jl. Trans Burmeso, Danau Bira, Kec. Mamberamo Tengah, Birmeso, Papua","Birmeso, Papua",PAPUA,,Indonesia,81343162931.0,-2.3283506,138.0153284,https://maps.google.com/?cid=0x0:0x29905cbb89252cc2
cafe,cafe,Papua 99377,"Kabupaten Mamberamo Raya, Papua","Kabupaten Mamberamo Raya, Papua",PAPUA,,Indonesia,,-2.9302628,138.558749,https://maps.google.com/?cid=0x0:0x56875374c777610f
cafe,Rumah Makan,cafe UJM Waropen Papua,"QCR8+5C7, Kemon Jaya Sp V, Kec. Urei Faisei, Kabupaten Waropen, Papua 98261","Kemon Jaya Sp V, Kec. Urei Faisei, Kabupaten Waropen",PAPUA,98261.0,Indonesia,,-2.2095908,136.4160381,https://maps.google.com/?cid=0x0:0x8902420b92236840
cafe,Kafe,RESISTANCE CAFE (24 JAM),"Ruko, Jl. Pacific Permai, belakang kantor, KADIN, Papua",Papua,PAPUA,,Indonesia,,-2.5376957,140.7086088,https://maps.google.com/?cid=0x0:0x633297421a426da1
cafe,Hidangan Laut,Raff Cafe ( Makanan Seafood Papua),"Jl. Pacific Permai No.13, Bayangkara, Kec. Jayapura Utara, Kota Jayapura, Papua","Kota Jayapura, Papua",PAPUA,,Indonesia,81344119434.0,-2.5383781,140.7106173,https://maps.google.com/?cid=0x0:0xe88a8b266a6b8eea
cafe,Kafe,Super Custom CaFe,"CGP3+FJF, Hinekombe, Kec. Sentani, Kabupaten Jayapura, Papua 99359","Hinekombe, Kec. Sentani, Kabupaten Jayapura",PAPUA,99359.0,Indonesia,82198238704.0,-2.5638097,140.5040544,https://maps.google.com/?cid=0x0:0x9ea94be6544420c6
cafe,Restoran,Djoeragan Dapur Resto and Cafe,"Engros, Kec. Abepura, Kota Jayapura, Papua","Kota Jayapura, Papua",PAPUA,,Indonesia,81292006323.0,-2.5999813,140.7147104,https://maps.google.com/?cid=0x0:0xb8853f9fee2cdbc
cafe,Kafe,Warkop FARZHA,"476P+QM7, Jl. Selat Sunda, Remu Sel., Kecamatan Sorong Manoi, Kota Sorong, Papua Bar. 98412","Jl. Selat Sunda, Remu Sel., Kecamatan Sorong Manoi, Kota Sorong",PAPUA,98412.0,Indonesia,,-0.888099,131.2866838,https://maps.google.com/?cid=0x0:0x733c49a755f2bf2d
cafe,Kedai Kopi,F'Dry Outdoor Coffee,"8QM6+M8M, Kaimana Kota, Kec. Kaimana, Kabupaten Kaimana, Papua Bar.","Kabupaten Kaimana, Papua Bar.",PAPUA,,Indonesia,82287532082.0,-3.6657888,133.760783,https://maps.google.com/?cid=0x0:0xf9b61c70b35b5a28
cafe,cafe,Cafe Anzhar Lazhar kitchen,"5M4C+H6F, Firo, Inggerus, Kabupaten Waropen, Papua","Kabupaten Waropen, Papua",PAPUA,,Indonesia,,-2.8435717,136.670534,https://maps.google.com/?cid=0x0:0x5f0dd9ccf54016a8
cafe,Kafe,Cafe Socio Culture (Coffee and Eatery),"Jl. Raya Abepura Setani, Baru City, Abepura, Jayapura City, Papua 99351","Baru City, Abepura, Jayapura City",PAPUA,99351.0,Indonesia,81299939889.0,-2.610394,140.661513,https://maps.google.com/?cid=0x0:0xd714b57117860fbe
cafe,Brunch,Warung Makan Safira,"5CVM+PC2, Jl. Raya Mega-Fef, Ases, Distrik Fef, Kabupaten Tambrauw, Papua Bar. 98473","Jl. Raya Mega-Fef, Ases, Distrik Fef, Kabupaten Tambrauw",PAPUA,98473.0,Indonesia,,-0.8057493,132.4335025,https://maps.google.com/?cid=0x0:0xdbb6822d7fe5cd3
cafe,Kedai Kopi,Kedai Aufa,"4M9X+WV8, Jl. Cendana kampung Yaturaharja, Upt Arso X/Yaturaharja, Kec. Arso, Kabupaten Keerom, Papua 99468","Jl. Cendana kampung Yaturaharja, Upt Arso X/Yaturaharja, Kec. Arso, Kabupaten Keerom",PAPUA,99468.0,Indonesia,,-2.8802176,140.6997102,https://maps.google.com/?cid=0x0:0x70acd6254bd29ce9
cafe,Tempat Biliar,RO CafÃ©  Pool,"Jl. Karamat No.10, Karamat, Kec. Gunungpuyuh, Kabupaten Sukabumi, Jawa Barat 43122","Karamat, Kec. Gunungpuyuh, Kabupaten Sukabumi",PAPUA,43122.0,Indonesia,85798857118.0,-6.9091935,106.9217708,https://maps.google.com/?cid=0x0:0x58674a515f92dd89
cafe,Kafe,R.O. Cafe  Pool Karamat,"Jl. Karamat No.16, Karamat, Kec. Gunungpuyuh, Kota Sukabumi, Jawa Barat 43122","Karamat, Kec. Gunungpuyuh, Kota Sukabumi",PAPUA,43122.0,Indonesia,,-6.909203,106.9217791,https://maps.google.com/?cid=0x0:0x7e23757b9b9f35d0
cafe,cafe,Papua,,Papua,PAPUA,,Indonesia,,-4.269928,138.0803529,https://maps.google.com/?cid=0x0:0xeba94e9c5eefe673
cafe,Rumah Makan,cafe UJM Waropen Papua,"QCR8+5C7, Kemon Jaya Sp V, Kec. Urei Faisei, Kabupaten Waropen, Papua 98261","Kemon Jaya Sp V, Kec. Urei Faisei, Kabupaten Waropen",PAPUA,98261.0,Indonesia,,-2.2095908,136.4160381,https://maps.google.com/?cid=0x0:0x8902420b92236840
cafe,Kafe,AUSIWERINI,"QFQ4+3X7, Unnamed Road, Nubuai, Kec. Urei Faisei, Kabupaten Waropen, Papua 98261","Unnamed Road, Nubuai, Kec. Urei Faisei, Kabupaten Waropen",PAPUA,98261.0,Indonesia,,-2.2123375,136.4574074,https://maps.google.com/?cid=0x0:0xd44a7552f7501b2a
cafe,Kedai Kopi,Kedai sagena,"Q9CQ+X62, Unnamed Road, Nonomi, Kec. Waropen Bawah, Kabupaten Waropen, Papua 98261","Unnamed Road, Nonomi, Kec. Waropen Bawah, Kabupaten Waropen",PAPUA,98261.0,Indonesia,82236762244.0,-2.227605,136.3880247,https://maps.google.com/?cid=0x0:0x52229e6c8f7ba452
cafe,Rumah Kaca,Cafe Pasaden@ Urfas 3,"QCVM+R8G, Unnamed Road, Mambui, Kec. Urei Faisei, Kabupaten Waropen, Papua 98261","Unnamed Road, Mambui, Kec. Urei Faisei, Kabupaten Waropen",PAPUA,98261.0,Indonesia,81342088282.0,-2.205447,136.433335,https://maps.google.com/?cid=0x0:0x5799ac3ce9026d57
cafe,Toko Pakaian,Rebellion Cafe  Boutique,"Jl. Poros SMA N Waren No.420, Sawara Jaya Sp VI, Kec. Waropen Bawah, Kabupaten Waropen, Papua 98261","Sawara Jaya Sp VI, Kec. Waropen Bawah, Kabupaten Waropen",PAPUA,98261.0,Indonesia,8114914567.0,-2.261715,136.344696,https://maps.google.com/?cid=0x0:0xda72ecdb91bd2adf
cafe,Kedai Kopi,CORNER Cafe,"4763+6G2, Jl. Moh. Hatta, Warari, Kec. Yapen Sel., Kabupaten Kepulauan Yapen, Papua 98212","Jl. Moh. Hatta, Warari, Kec. Yapen Sel., Kabupaten Kepulauan Yapen",PAPUA,98212.0,Indonesia,85258510000.0,-1.8894765,136.2537775,https://maps.google.com/?cid=0x0:0x15dc32038ef27e93
cafe,Kedai Kopi,Cafe six6lounge  cavabonnugget,"46GQ+MHQ, Serui Kota, Kec. Yapen Sel., Kabupaten Kepulauan Yapen, Papua 98213","Serui Kota, Kec. Yapen Sel., Kabupaten Kepulauan Yapen",PAPUA,98213.0,Indonesia,82343387575.0,-1.8732783,136.2388577,https://maps.google.com/?cid=0x0:0x8e0076f773f51b5e
cafe,Kedai Kopi,Ghaiwando Caffe Outdoor,"MHGF+FHJ, Wobari, Risei Sayati, Kabupaten Waropen, Papua","Kabupaten Waropen, Papua",PAPUA,,Indonesia,,-2.3237858,136.5738995,https://maps.google.com/?cid=0x0:0xdb304f4a78fdf2f1
cafe,Kafe,Ghaiwando,"MJJF+X3, Wobari, Risei Sayati, Kabupaten Waropen, Papua","Kabupaten Waropen, Papua",PAPUA,,Indonesia,,-2.3175658,136.622748,https://maps.google.com/?cid=0x0:0xf3954c1dc915643c
cafe,Ayam,Warung makan celebes,"Q94H+VVJ, Waren Satu, Kec. Waropen Bawah, Kabupaten Waropen, Papua 98261","Waren Satu, Kec. Waropen Bawah, Kabupaten Waropen",PAPUA,98261.0,Indonesia,,-2.2425449,136.3789384,https://maps.google.com/?cid=0x0:0xd43171da454d8c24
cafe,Kafe,Karariri Coffee  Eatery,"46HQ+7HR, Jl. Hassanudin, Serui Kota, Kec. Yapen Sel., Kabupaten Kepulauan Yapen, Papua","Kabupaten Kepulauan Yapen, Papua",PAPUA,,Indonesia,,-1.8717744,136.2388775,https://maps.google.com/?cid=0x0:0x884a42394257efa9
cafe,Dapur Umum,CAFE MATA KITAAA,"46RQ+725, Unnamed Road, Mantembu, Kec. Yapen Sel., Kabupaten Kepulauan Yapen, Papua 98211","Unnamed Road, Mantembu, Kec. Yapen Sel., Kabupaten Kepulauan Yapen",PAPUA,98211.0,Indonesia,,-1.8593617,136.2376143,https://maps.google.com/?cid=0x0:0x66164c98239f5dd0
cafe,Kantor Pemerintah,Waropen,"Q97G+GH2, Waren Satu, Kec. Waropen Bawah, Kabupaten Waropen, Papua 98261","Waren Satu, Kec. Waropen Bawah, Kabupaten Waropen",PAPUA,98261.0,Indonesia,,-2.2362472,136.3763883,https://maps.google.com/?cid=0x0:0x536df782b72a092e
cafe,cafe,Benuki,"Kabupaten Mamberamo Raya, Papua","Kabupaten Mamberamo Raya, Papua",PAPUA,,Indonesia,,-2.1703445,137.6061625,https://maps.google.com/?cid=0x0:0x52cfc10baae62c4
cafe,Restoran,Pit's Corner ( Papua Specialty Coffee ),"Jalan kasuari no.2 Dok V Atas, Mandala, Jayapura Utara, Jayapura City, Papua 99114","Mandala, Jayapura Utara, Jayapura City",PAPUA,99114.0,Indonesia,9675160443.0,-2.5310642,140.71875,https://maps.google.com/?cid=0x0:0xf39f3950a3bf5ed2
cafe,Kafe,Eunikâs Coffee,"Jl. Bayangkara No.48, Hurekama, Distrik Wamena, Kabupaten Jayawijaya, Papua 99511","Hurekama, Distrik Wamena, Kabupaten Jayawijaya",PAPUA,99511.0,Indonesia,85335071504.0,-4.0985876,138.9386358,https://maps.google.com/?cid=0x0:0x34d922c3ff540195
cafe,Kedai Kopi,Binsyo Coffee,"Jl Raya Kotaraja No.93, Wai Mhorock, Kec. Abepura, Kota Jayapura, Papua 99351","Wai Mhorock, Kec. Abepura, Kota Jayapura",PAPUA,99351.0,Indonesia,85251667890.0,-2.6054242,140.6718344,https://maps.google.com/?cid=0x0:0x4ce0f038ffa9d59e
cafe,Mesin Sangrai Kopi,Alenia Papua Coffee  Kitchen,"Jl. Kemang Raya No.66 B 8, RT.8/RW.2, Bangka, Kec. Mampang Prpt., Kota Jakarta Selatan, Daerah Khusus Ibukota Jakarta 12730","RT.8/RW.2, Bangka, Kec. Mampang Prpt., Kota Jakarta Selatan",PAPUA,12730.0,Indonesia,2171790141.0,-6.2638119,106.8158777,https://maps.google.com/?cid=0x0:0xe49807fcfab68b48
cafe,Hidangan Laut,B-One Restaurant,"FP45+5CR, Numbai, Distrik Jayapura Selatan, Kota Jayapura, Papua 99222","Numbai, Distrik Jayapura Selatan, Kota Jayapura",PAPUA,99222.0,Indonesia,81344533058.0,-2.5445125,140.7085143,https://maps.google.com/?cid=0x0:0xb8053f84d614fc3e
cafe,Kedai Kopi,Bingga Caffeâ¢,"53PH+43C, Tanjung pepaya, Amban, pante, Kabupaten Manokwari, Papua Bar.","Kabupaten Manokwari, Papua Bar.",PAPUA,,Indonesia,,-0.8146919,134.0776453,https://maps.google.com/?cid=0x0:0x4130b88af0a2cc57
cafe,Dapur Umum,Umma Eatery,"Jl. Gerilyawan, Yobe, Kec. Abepura, Kota Jayapura, Papua 99351","Yobe, Kec. Abepura, Kota Jayapura",PAPUA,99351.0,Indonesia,811484688.0,-2.6139368,140.6708121,https://maps.google.com/?cid=0x0:0x81bb34f7cf8553c2
cafe,Kedai Kopi,Rumah Makan Bersama dan MR Cafee Papua,"Sp V. Manimery/ Argo Sigemeray, Distrik Bintuni, Kabupaten Teluk Bintuni, Papua Bar.","Kabupaten Teluk Bintuni, Papua Bar.",PAPUA,,Indonesia,81355323235.0,-2.1136466,133.6151242,https://maps.google.com/?cid=0x0:0xef3ba017f79d2f81
cafe,Indonesia,Homestay and waroeng dadakan,"Jl.otonom burmeso, Danau Bira, Kec. Mamberamo Tengah, Kabupaten Mamberamo Raya, Papua 99116","Danau Bira, Kec. Mamberamo Tengah, Kabupaten Mamberamo Raya",PAPUA,99116.0,Indonesia,81354073135.0,-2.3312529,138.0268449,https://maps.google.com/?cid=0x0:0x82abd3ab91688ee6
cafe,Indonesia,Warung Rizky,"Kampung Wesiri, Km 6, Distrik Bintuni, Kabupaten Teluk Bintuni, Papua Bar. 98364","Km 6, Distrik Bintuni, Kabupaten Teluk Bintuni",PAPUA,98364.0,Indonesia,,-2.0604501,133.4644802,https://maps.google.com/?cid=0x0:0x8901f778886d7990
cafe,Restoran,Yasbeer Cafe dan resto,"Engros, Kec. Abepura, Kota Jayapura, Papua","Kota Jayapura, Papua",PAPUA,,Indonesia,81248941111.0,-2.6005334,140.7153915,https://maps.google.com/?cid=0x0:0x34cbd734e60fa36b
cafe,Kafe,Kopu Kopi CafÃ© (Coffee  Eatery),"Jl. Raya Abepura, Wahno, Kec. Abepura, Kota Jayapura, Papua 99224","Wahno, Kec. Abepura, Kota Jayapura",PAPUA,99224.0,Indonesia,81263800182.0,-2.5972248,140.6796506,https://maps.google.com/?cid=0x0:0x55eedda55f616417
cafe,Brunch,Warung Makan Maifendua,"Jl. Trans Burmeso, Danau Bira, Kec. Mamberamo Tengah, Birmeso, Papua","Birmeso, Papua",PAPUA,,Indonesia,81343162931.0,-2.3283506,138.0153284,https://maps.google.com/?cid=0x0:0x29905cbb89252cc2
cafe,Kedai Kopi,Cafe Isasai,"Danau Sentani, Kp. Waena, Kec. Heram, Kota Jayapura, Papua 99351","Kp. Waena, Kec. Heram, Kota Jayapura",PAPUA,99351.0,Indonesia,,-2.598538,140.6244014,https://maps.google.com/?cid=0x0:0xc37a24107e869a96
cafe,Kafe,Saanjh Cafe,"CJ2G+C7W, Jl. Gelanggang Remaja, Waena, Kec. Heram, Kota Jayapura, Papua 99351","Jl. Gelanggang Remaja, Waena, Kec. Heram, Kota Jayapura",PAPUA,99351.0,Indonesia,,-2.5988941,140.6256974,https://maps.google.com/?cid=0x0:0xf472b389c2309050
cafe,cafe,,,,PAPUA,,Indonesia,,,,https://maps.google.com/?cid=0x0:0xc37a24107e869a96u0026onu003dJus+Alpukatu0026midu003d/g/11jrjzrk53
cafe,cafe,,,,PAPUA,,Indonesia,,,,https://maps.google.com/?cid=0x0:0xc37a24107e869a96u0026onu0026midu003d/g/11jrjzrk53
cafe,cafe,,,,PAPUA,,Indonesia,,,,https://maps.google.com/?cid=0x0:0xc37a24107e869a96u0026onu003dSagu+Bakar+Isi+Gula+Arenu0026midu003d/g/11jrjzrk53
cafe,Kafe,Tana Papua Coffee and Roastery,"Jl. Raya Abepura, Vim, Kec. Abepura, Kota Jayapura, Papua 99220","Vim, Kec. Abepura, Kota Jayapura",PAPUA,99220.0,Indonesia,82175416609.0,-2.6047712,140.6727079,https://maps.google.com/?cid=0x0:0x747c727d4b94ebf6
cafe,Restoran,Sora Cafe,"Koya Tengah, Kec. Muara Tami, Kota Jayapura, Papua 99351","Kec. Muara Tami, Kota Jayapura",PAPUA,99351.0,Indonesia,82198566899.0,-2.6440425,140.806528,https://maps.google.com/?cid=0x0:0xa841f0ad6cb359a6
cafe,cafe,Papua 98262,"Kabupaten Mamberamo Raya, Papua","Kabupaten Mamberamo Raya, Papua",PAPUA,,Indonesia,,-2.4075711,137.6061625,https://maps.google.com/?cid=0x0:0xcf10b52983f1589a
cafe,Kafe,cafe bakau holtekam kota jayapura,"9PRF+58, Nafri, Kec. Abepura, Kota Jayapura, Papua","Kota Jayapura, Papua",PAPUA,,Indonesia,8124022007.0,-2.6095335,140.7232587,https://maps.google.com/?cid=0x0:0x440c4543fd3a011e
cafe,Rumah Kaca,Cafe Pasaden@ Urfas 3,"QCVM+R8G, Unnamed Road, Mambui, Kec. Urei Faisei, Kabupaten Waropen, Papua 98261","Unnamed Road, Mambui, Kec. Urei Faisei, Kabupaten Waropen",PAPUA,98261.0,Indonesia,81342088282.0,-2.205447,136.433335,https://maps.google.com/?cid=0x0:0x5799ac3ce9026d57
hotel,hotel,Royal Mamberamo Hotel,"Jl. Dr. Sam Ratulangi No.35, Kp. Baru, Distrik Sorong, Kota Sorong, Papua Bar. 98413","Kp. Baru, Distrik Sorong, Kota Sorong",PAPUA,98413.0,Indonesia,951325666.0,-0.871573,131.250864,https://maps.google.com/?cid=0x0:0xb5e32e36111d42eb
hotel,hotel,Hotel Mariat,"479F+3XR, Jl. Ahmad Yani No.1, Klademak, Distrik Sorong, Kota Sorong, Papua Bar. 98412","Jl. Ahmad Yani No.1, Klademak, Distrik Sorong, Kota Sorong",PAPUA,98412.0,Indonesia,951323535.0,-0.8822653,131.2745998,https://maps.google.com/?cid=0x0:0xbf6ecabef3414744
hotel,hotel,Belagri Hotel and Restaurant,"Jl. Raja Ampat No.1, Kp. Baru, Distrik Sorong, Kota Sorong, Papua Bar. 98413","Kp. Baru, Distrik Sorong, Kota Sorong",PAPUA,98413.0,Indonesia,,-0.8704329,131.2517604,https://maps.google.com/?cid=0x0:0xb0064be8b2a3c2c8
hotel,hotel,Hotel Indah,"Bar, Kp. Baru, Distrik Sorong, Kota Sorong, Papua Bar. 98411","Kp. Baru, Distrik Sorong, Kota Sorong",PAPUA,98411.0,Indonesia,8124836738.0,-0.8754986,131.2441245,https://maps.google.com/?cid=0x0:0xfdd1fb50f773e5d1
hotel,hotel,Waigo Splash Hotel,"Jl. Yos. Sudarso, Kp. Baru, Distrik Sorong, Kota Sorong, Papua Bar. 98411","Kp. Baru, Distrik Sorong, Kota Sorong",PAPUA,98411.0,Indonesia,951333500.0,-0.8687594,131.2467849,https://maps.google.com/?cid=0x0:0x73c16b8e6e9a0c21
hotel,hotel,Papua 99375,"Mamberamo Ilir, Kabupaten Mamberamo Raya, Papua","Kabupaten Mamberamo Raya, Papua",PAPUA,,Indonesia,,-1.7701818,138.0010282,https://maps.google.com/?cid=0x0:0x6850629c4ca23105
hotel,Taman bermain,Pantai Tembok Berlin,"46HW+373, Kp. Baru, Distrik Sorong, Kota Sorong, Papua Bar. 98411","Kp. Baru, Distrik Sorong, Kota Sorong",PAPUA,98411.0,Indonesia,,-0.8723739,131.2456856,https://maps.google.com/?cid=0x0:0x5ea7c8af20034304
hotel,hotel,Royal Mamberamo Hotel,"Jl. Dr. Sam Ratulangi No.35, Kp. Baru, Distrik Sorong, Kota Sorong, Papua Bar. 98413","Kp. Baru, Distrik Sorong, Kota Sorong",PAPUA,98413.0,Indonesia,951325666.0,-0.871573,131.250864,https://maps.google.com/?cid=0x0:0xb5e32e36111d42eb
hotel,hotel,Belagri Hotel and Restaurant,"Jl. Raja Ampat No.1, Kp. Baru, Distrik Sorong, Kota Sorong, Papua Bar. 98413","Kp. Baru, Distrik Sorong, Kota Sorong",PAPUA,98413.0,Indonesia,,-0.8704329,131.2517604,https://maps.google.com/?cid=0x0:0xb0064be8b2a3c2c8
hotel,hotel,Hotel Mariat,"479F+3XR, Jl. Ahmad Yani No.1, Klademak, Distrik Sorong, Kota Sorong, Papua Bar. 98412","Jl. Ahmad Yani No.1, Klademak, Distrik Sorong, Kota Sorong",PAPUA,98412.0,Indonesia,951323535.0,-0.8822653,131.2745998,https://maps.google.com/?cid=0x0:0xbf6ecabef3414744
hotel,hotel,Waigo Splash Hotel,"Jl. Yos. Sudarso, Kp. Baru, Distrik Sorong, Kota Sorong, Papua Bar. 98411","Kp. Baru, Distrik Sorong, Kota Sorong",PAPUA,98411.0,Indonesia,951333500.0,-0.8687594,131.2467849,https://maps.google.com/?cid=0x0:0x73c16b8e6e9a0c21
hotel,Taman bermain,Pantai Tembok Berlin,"46HW+373, Kp. Baru, Distrik Sorong, Kota Sorong, Papua Bar. 98411","Kp. Baru, Distrik Sorong, Kota Sorong",PAPUA,98411.0,Indonesia,,-0.8723739,131.2456856,https://maps.google.com/?cid=0x0:0x5ea7c8af20034304
hotel,hotel,Hotel Indah,"Bar, Kp. Baru, Distrik Sorong, Kota Sorong, Papua Bar. 98411","Kp. Baru, Distrik Sorong, Kota Sorong",PAPUA,98411.0,Indonesia,8124836738.0,-0.8754986,131.2441245,https://maps.google.com/?cid=0x0:0xfdd1fb50f773e5d1
hotel,hotel,Marina Mamberamo,"Jl. Yos. Sudarso No.1, Kp. Baru, Distrik Sorong, Kota Sorong, Papua Bar. 98413","Kp. Baru, Distrik Sorong, Kota Sorong",PAPUA,98413.0,Indonesia,85244588484.0,-0.8757299,131.2440035,https://maps.google.com/?cid=0x0:0x90a6ebcb4c6ebcbd
hotel,hotel,Swiss-Belhotel Sorong,"Hunting, Telepon, Jl. Jend. Sudirman Kecamatan, Malawei, Kecamatan Sorong Manoi, Kota Sorong, Papua Bar. 98412","Telepon, Jl. Jend. Sudirman Kecamatan, Malawei, Kecamatan Sorong Manoi, Kota Sorong",PAPUA,98412.0,Indonesia,8114853888.0,-0.889363,131.2749649,https://maps.google.com/?cid=0x0:0x4d32c5e468c00628
hotel,hotel,Hotel Belagri Sorong,"Jl. Merapi No.8, Klabala, Distrik Sorong Barat, Kota Sorong, Papua Bar. 98411","Klabala, Distrik Sorong Barat, Kota Sorong",PAPUA,98411.0,Indonesia,951323888.0,-0.8730356,131.2547729,https://maps.google.com/?cid=0x0:0x84dae6f8c4b2e8ad
hotel,hotel,VEGA PRIME Hotel  Convention,"Jl. Frans Kaisiepo, Malaingkedi, Kec. Sorong Utara, Kota Sorong, Papua Bar. 98412","Malaingkedi, Kec. Sorong Utara, Kota Sorong",PAPUA,98412.0,Indonesia,81148501658.0,-0.8863935,131.2926608,https://maps.google.com/?cid=0x0:0x9490ccc0d9334885
hotel,hotel,Guardian Family Hotel,"Malaingkedi, Kec. Sorong Utara, Kota Sorong, Papua Bar. 98412","Kec. Sorong Utara, Kota Sorong",PAPUA,98412.0,Indonesia,8114867300.0,-0.8896485,131.2945315,https://maps.google.com/?cid=0x0:0x804a8cdc3b2513d6
hotel,hotel,Kasuari Valley Beach Resort Sorong,"Tj. Kasuari, Distrik Sorong Barat, Kota Sorong, Papua Bar. 98411","Distrik Sorong Barat, Kota Sorong",PAPUA,98411.0,Indonesia,81247423939.0,-0.8229453,131.2259207,https://maps.google.com/?cid=0x0:0x7ae87156c62b6490
hotel,hotel,Pulau Doom,,,PAPUA,,Indonesia,,-0.8833333,131.2333333,https://maps.google.com/?cid=0x0:0x1db3a7ef2f666be6
hotel,hotel,Papua 99377,"Kabupaten Mamberamo Raya, Papua","Kabupaten Mamberamo Raya, Papua",PAPUA,,Indonesia,,-2.9302628,138.558749,https://maps.google.com/?cid=0x0:0x56875374c777610f
hotel,hotel,Kec. Mamberamo Tengah,"Kabupaten Mamberamo Raya, Papua","Kabupaten Mamberamo Raya, Papua",PAPUA,,Indonesia,,-2.3745692,138.3190276,https://maps.google.com/?cid=0x0:0xca785ec66ebe94b0
hotel,hotel,Kec. Mamberamo Tengah,"Kabupaten Mamberamo Raya, Papua","Kabupaten Mamberamo Raya, Papua",PAPUA,,Indonesia,,-2.3745692,138.3190276,https://maps.google.com/?cid=0x0:0xca785ec66ebe94b0
hotel,hotel,The ignislo sorong hotel,"Basuki Rahmat Street KM 7 Sorong, Malaingkedi, Sorong Utara, Sorong City, West Papua 98412","Malaingkedi, Sorong Utara, Sorong City",PAPUA,98412.0,Indonesia,,-0.8885403,131.2925628,https://maps.google.com/?cid=0x0:0x9992b24f2542a546
hotel,hotel,RedDoorz near Dermaga Pelabuhan Rakyat,"Jl. Selat Rumberpon No.10A, Remu Sel., Kecamatan Sorong Manoi, Kota Sorong, Papua Bar. 98412","Remu Sel., Kecamatan Sorong Manoi, Kota Sorong",PAPUA,98412.0,Indonesia,895417300072.0,-0.8853147,131.2865519,https://maps.google.com/?cid=0x0:0x54d7a289f7c7cb50
hotel,hotel,City Home Stay,"Jl. Pahlawan, Remu Utara, Distrik Sorong, Kota Sorong, Papua Bar. 98412","Remu Utara, Distrik Sorong, Kota Sorong",PAPUA,98412.0,Indonesia,81250627171.0,-0.8810843,131.2794992,https://maps.google.com/?cid=0x0:0x124e6584d3551e2a
hotel,hotel,Hotel Mariat,"479F+3XR, Jl. Ahmad Yani No.1, Klademak, Distrik Sorong, Kota Sorong, Papua Bar. 98412","Jl. Ahmad Yani No.1, Klademak, Distrik Sorong, Kota Sorong",PAPUA,98412.0,Indonesia,951323535.0,-0.8822653,131.2745998,https://maps.google.com/?cid=0x0:0xbf6ecabef3414744
hotel,hotel,Ayla City Hotel,"479J+39W, Jl. Srigunting, Remu Utara, Distrik Sorong, Kota Sorong, Papua Bar. 98412","Jl. Srigunting, Remu Utara, Distrik Sorong, Kota Sorong",PAPUA,98412.0,Indonesia,82344146288.0,-0.882262,131.2809502,https://maps.google.com/?cid=0x0:0x7ef22ab0d606bc6f
hotel,hotel,Guardian Family Hotel,"Malaingkedi, Kec. Sorong Utara, Kota Sorong, Papua Bar. 98412","Kec. Sorong Utara, Kota Sorong",PAPUA,98412.0,Indonesia,8114867300.0,-0.8896485,131.2945315,https://maps.google.com/?cid=0x0:0x804a8cdc3b2513d6
hotel,hotel,Rumah Marianne,"Perumahan Arfindo, Jl. Rawa Indah, Sawagumu, Kec. Sorong Utara, Kota Sorong, Papua Bar. 98412","Jl. Rawa Indah, Sawagumu, Kec. Sorong Utara, Kota Sorong",PAPUA,98412.0,Indonesia,81242965520.0,-0.8817642,131.3115285,https://maps.google.com/?cid=0x0:0x2cb9f181d7e709a3
hotel,hotel,Hotel Belagri Sorong,"Jl. Merapi No.8, Klabala, Distrik Sorong Barat, Kota Sorong, Papua Bar. 98411","Klabala, Distrik Sorong Barat, Kota Sorong",PAPUA,98411.0,Indonesia,951323888.0,-0.8730356,131.2547729,https://maps.google.com/?cid=0x0:0x84dae6f8c4b2e8ad
hotel,hotel,Pulau Doom,,,PAPUA,,Indonesia,,-0.8833333,131.2333333,https://maps.google.com/?cid=0x0:0x1db3a7ef2f666be6
hotel,hotel,RAFA HOTEL,"9MXC+PQ7, Vim, Kec. Abepura, Kota Jayapura, Papua","Kota Jayapura, Papua",PAPUA,,Indonesia,,-2.6011488,140.6717368,https://maps.google.com/?cid=0x0:0x18c6cc75351cda98
hotel,hotel,Papua 99377,"Kabupaten Mamberamo Raya, Papua","Kabupaten Mamberamo Raya, Papua",PAPUA,,Indonesia,,-2.9302628,138.558749,https://maps.google.com/?cid=0x0:0x56875374c777610f
hotel,hotel,HOTEL PARKSIDE WAENA,"Jl. Raya Waena, Kp. Waena, Kec. Abepura, Kota Jayapura, Papua 99532","Kp. Waena, Kec. Abepura, Kota Jayapura",PAPUA,99532.0,Indonesia,8114829200.0,-2.5965369,140.6348713,https://maps.google.com/?cid=0x0:0xeecc070595c2799f
hotel,hotel,Pantai Base-G,"Tj. Ria, Kec. Jayapura Utara, Kota Jayapura, Papua","Kota Jayapura, Papua",PAPUA,,Indonesia,,-2.5174272,140.7397204,https://maps.google.com/?cid=0x0:0x9c239c300165aea7
hotel,hotel,Roemah Ciremay RedPartner,"3JFH+FV8, Jl. Ciremay No.7, Lkr. Sel., Kec. Lengkong, Kota Bandung, Jawa Barat 40263","Jl. Ciremay No.7, Lkr. Sel., Kec. Lengkong, Kota Bandung",PAPUA,40263.0,Indonesia,895417300072.0,-6.9263393,107.6297574,https://maps.google.com/?cid=0x0:0x3f336f9ee61c63d4
hotel,hotel,Hotel Karya Papua,"JGX6+2PM, Jl. R.E. Martadinata Kalinona, Nabarua, Distrik Nabire, Papua 98816","Jl. R.E. Martadinata Kalinona, Nabarua, Distrik Nabire",PAPUA,98816.0,Indonesia,82164655697.0,-3.3524082,135.5118114,https://maps.google.com/?cid=0x0:0x8196bf4b8aafbb3f
hotel,hotel,Waropen Atas,"Kabupaten Mamberamo Raya, Papua","Kabupaten Mamberamo Raya, Papua",PAPUA,,Indonesia,,-2.4516885,137.2142417,https://maps.google.com/?cid=0x0:0x2008a4bef2200c3
hotel,hotel,Hotel Maureen,"46GR+P4R, Jl. Sudirman, Serui Kota, Kec. Yapen Sel., Kabupaten Kepulauan Yapen, Papua 98213","Jl. Sudirman, Serui Kota, Kec. Yapen Sel., Kabupaten Kepulauan Yapen",PAPUA,98213.0,Indonesia,81354165909.0,-1.8731433,136.2401965,https://maps.google.com/?cid=0x0:0xb028b61c6c000d80
hotel,Hotel,HOTEL ELFANSO WIDURI,"Urei Faisei Dua, Kec. Urei Faisei, Kabupaten Waropen, Papua 98261","Kec. Urei Faisei, Kabupaten Waropen",PAPUA,98261.0,Indonesia,81280364323.0,-2.2130062,136.4439587,https://maps.google.com/?cid=0x0:0x91b0fa9d797f4c92
hotel,Hotel,Hotel Merpati Urfas,"Urei Faisei Dua, Kec. Urei Faisei, Kabupaten Waropen, Papua 98261","Kec. Urei Faisei, Kabupaten Waropen",PAPUA,98261.0,Indonesia,81329417600.0,-2.2073912,136.4433758,https://maps.google.com/?cid=0x0:0x8056a065e1249145
hotel,hotel,Hotel Baliem Pilamo,"Jl. Trikora No.114, Wamena Kota, Distrik Wamena, Kabupaten Jayawijaya, Papua 99511","Wamena Kota, Distrik Wamena, Kabupaten Jayawijaya",PAPUA,99511.0,Indonesia,81344090719.0,-4.089872,138.9452891,https://maps.google.com/?cid=0x0:0x4c66aca0c6c4c202
hotel,hotel,Benuki,"Kabupaten Mamberamo Raya, Papua","Kabupaten Mamberamo Raya, Papua",PAPUA,,Indonesia,,-2.1703445,137.6061625,https://maps.google.com/?cid=0x0:0x52cfc10baae62c4
hotel,hotel,Hotel Basana Inn,"Jl. Imam Bonjol, Fandoi, Biak, Kabupaten Biak Numfor, Papua 98112","Fandoi, Biak, Kabupaten Biak Numfor",PAPUA,98112.0,Indonesia,98122281.0,-1.1811297,136.0825355,https://maps.google.com/?cid=0x0:0x1b08ff238ba2abe9
hotel,hotel,Hotel Sahid Papua,"Jl. Klp. 2 No.18, Entrop, Distrik Jayapura Selatan, Kota Jayapura, Papua 99221","Entrop, Distrik Jayapura Selatan, Kota Jayapura",PAPUA,99221.0,Indonesia,8114814009.0,-2.5661461,140.6996539,https://maps.google.com/?cid=0x0:0x9c8a2fd141b3aa33
hotel,hotel,Grand Baliem Hotel,"Jl. Sumbawa No.1, Wamena Kota, Wamena, Jayawijaya Regency, Papua 99511","Wamena Kota, Wamena, Jayawijaya Regency",PAPUA,99511.0,Indonesia,81211516887.0,-4.0970243,138.9489266,https://maps.google.com/?cid=0x0:0xd313b387275f5f0b
hotel,hotel,,,,PAPUA,,Indonesia,,,,https://maps.google.com/?cid=0x0:0x9c8a2fd141b3aa33%7C/g/11b73kkp76%7Cid-ID
hotel,hotel,Rimba Papua Hotel,"Jl. Kwamki Narama No. 1, Kwamki, Kec. Mimika Baru, Kabupaten Mimika, Papua 99971","Kwamki, Kec. Mimika Baru, Kabupaten Mimika",PAPUA,99971.0,Indonesia,901494949.0,-4.5151124,136.884599,https://maps.google.com/?cid=0x0:0xa65056700db32492
hotel,hotel,The Baliem Valley Resort,"Desa Sekan Kecamatan Siepkosi, Pugima, Distrik Wamena, Kabupaten Jayawijaya, Papua 80034","Pugima, Distrik Wamena, Kabupaten Jayawijaya",PAPUA,80034.0,Indonesia,,-4.0595129,139.0293485,https://maps.google.com/?cid=0x0:0xa5f70df54e54f86c
hotel,hotel,Hotel Karya Papua,"JGX6+2PM, Jl. R.E. Martadinata Kalinona, Nabarua, Distrik Nabire, Papua 98816","Jl. R.E. Martadinata Kalinona, Nabarua, Distrik Nabire",PAPUA,98816.0,Indonesia,82164655697.0,-3.3524082,135.5118114,https://maps.google.com/?cid=0x0:0x8196bf4b8aafbb3f
hotel,hotel,Hotel Rainbow,"Jl. Irian No.26, Wamena Kota, Distrik Wamena, Kabupaten Jayawijaya, Papua 99511","Wamena Kota, Distrik Wamena, Kabupaten Jayawijaya",PAPUA,99511.0,Indonesia,81248000685.0,-4.0943536,138.9419192,https://maps.google.com/?cid=0x0:0x8a8c32fe134fd547
hotel,hotel,Hotel Putri Dani,"Jl. Irian No.40, Hurekama, Distrik Wamena, Kabupaten Jayawijaya, Papua 99511","Hurekama, Distrik Wamena, Kabupaten Jayawijaya",PAPUA,99511.0,Indonesia,81315241808.0,-4.0957582,138.9392487,https://maps.google.com/?cid=0x0:0x8f74e0c2ea557b12
hotel,hotel,Hotel Manna,"Jl. Imam Bonjol, Fandoi, Biak Papua, Kabupaten Biak Numfor, Papua 98112","Fandoi, Biak Papua, Kabupaten Biak Numfor",PAPUA,98112.0,Indonesia,98122224.0,-1.1808075,136.0821667,https://maps.google.com/?cid=0x0:0x58ba27a7cb3a5bd6
hotel,hotel,Hotel Anggrek,"Jl. Ambon No.1, Wamena Kota, Distrik Wamena, Kabupaten Jayawijaya, Papua 99511","Wamena Kota, Distrik Wamena, Kabupaten Jayawijaya",PAPUA,99511.0,Indonesia,,-4.0951401,138.9486951,https://maps.google.com/?cid=0x0:0x8c14510cd7032458
hotel,hotel,Hotel Rannu Jaya,"WW6V+7RM, Wamena Kota, Distrik Wamena, Kabupaten Jayawijaya, Papua 99511","Wamena Kota, Distrik Wamena, Kabupaten Jayawijaya",PAPUA,99511.0,Indonesia,82195455765.0,-4.0892985,138.9445592,https://maps.google.com/?cid=0x0:0xdd25cadd9590097a
hotel,hotel,Sawai,"Bonoi, Sawai, Kabupaten Mamberamo Raya, Papua","Kabupaten Mamberamo Raya, Papua",PAPUA,,Indonesia,,-1.766667,137.25,https://maps.google.com/?cid=0x0:0x25b25daa42d2b019
hotel,hotel,RAFA HOTEL,"9MXC+PQ7, Vim, Kec. Abepura, Kota Jayapura, Papua","Kota Jayapura, Papua",PAPUA,,Indonesia,,-2.6011488,140.6717368,https://maps.google.com/?cid=0x0:0x18c6cc75351cda98
hotel,hotel,Hotel Basana Inn,"Jl. Imam Bonjol, Fandoi, Biak, Kabupaten Biak Numfor, Papua 98112","Fandoi, Biak, Kabupaten Biak Numfor",PAPUA,98112.0,Indonesia,98122281.0,-1.1811297,136.0825355,https://maps.google.com/?cid=0x0:0x1b08ff238ba2abe9
hotel,hotel,Hotel Sahid Papua,"Jl. Klp. 2 No.18, Entrop, Distrik Jayapura Selatan, Kota Jayapura, Papua 99221","Entrop, Distrik Jayapura Selatan, Kota Jayapura",PAPUA,99221.0,Indonesia,8114814009.0,-2.5661461,140.6996539,https://maps.google.com/?cid=0x0:0x9c8a2fd141b3aa33
hotel,hotel,Horison Inn Relat Jayapura,"Jl. Pantai Klp. No.21 - 23, Argapura, Distrik Jayapura Selatan, Kota Jayapura, Papua","Kota Jayapura, Papua",PAPUA,,Indonesia,9675160779.0,-2.5537101,140.7148929,https://maps.google.com/?cid=0x0:0xb98fc1bbb5c5c494
hotel,hotel,,,,PAPUA,,Indonesia,,,,https://maps.google.com/?cid=0x0:0x9c8a2fd141b3aa33%7C/g/11b73kkp76%7Cid-ID
hotel,hotel,The Baliem Valley Resort,"Desa Sekan Kecamatan Siepkosi, Pugima, Distrik Wamena, Kabupaten Jayawijaya, Papua 80034","Pugima, Distrik Wamena, Kabupaten Jayawijaya",PAPUA,80034.0,Indonesia,,-4.0595129,139.0293485,https://maps.google.com/?cid=0x0:0xa5f70df54e54f86c
hotel,hotel,Hotel Mutiara,"CM3C+873, Jl. Perkutut, Vim, Kec. Abepura, Kota Jayapura, Papua 99225","Jl. Perkutut, Vim, Kec. Abepura, Kota Jayapura",PAPUA,99225.0,Indonesia,81348430963.0,-2.5967398,140.6706613,https://maps.google.com/?cid=0x0:0xb730b0fce1d80fe4
hotel,hotel,Hotel Rivior Sarmi,"4PVX+XHH, Sarmi, Kec. Sarmi, Kabupaten Sarmi, Papua 99373","Sarmi, Kec. Sarmi, Kabupaten Sarmi",PAPUA,99373.0,Indonesia,81247768282.0,-1.8550507,138.7489752,https://maps.google.com/?cid=0x0:0x687222ae96a90f78
hotel,hotel,Hotel Rannu Jaya,"WW6V+7RM, Wamena Kota, Distrik Wamena, Kabupaten Jayawijaya, Papua 99511","Wamena Kota, Distrik Wamena, Kabupaten Jayawijaya",PAPUA,99511.0,Indonesia,82195455765.0,-4.0892985,138.9445592,https://maps.google.com/?cid=0x0:0xdd25cadd9590097a
hotel,hotel,Hotel Surya Jaya,"Dobonsolo, Kec. Sentani, Kabupaten Jayapura, Papua 99352","Kec. Sentani, Kabupaten Jayapura",PAPUA,99352.0,Indonesia,82258897707.0,-2.5695916,140.5044756,https://maps.google.com/?cid=0x0:0x705c2fe69d32db2b
hotel,hotel,Papua 98262,"Kabupaten Mamberamo Raya, Papua","Kabupaten Mamberamo Raya, Papua",PAPUA,,Indonesia,,-2.4075711,137.6061625,https://maps.google.com/?cid=0x0:0xcf10b52983f1589a
hotel,hotel,Penginapan 69,"Kp. Waena, Kec. Heram, Kota Jayapura, Papua 99225","Kec. Heram, Kota Jayapura",PAPUA,99225.0,Indonesia,81248523621.0,-2.593495,140.6310796,https://maps.google.com/?cid=0x0:0x12711ec27878fab8
hotel,hotel,Hotel Baliem Pilamo,"Jl. Trikora No.114, Wamena Kota, Distrik Wamena, Kabupaten Jayawijaya, Papua 99511","Wamena Kota, Distrik Wamena, Kabupaten Jayawijaya",PAPUA,99511.0,Indonesia,81344090719.0,-4.089872,138.9452891,https://maps.google.com/?cid=0x0:0x4c66aca0c6c4c202
restaurant,Hidangan Laut,MAMBERAMO (LIVE) SEAFOOD,"Jl. Ahmad Yani No.7, Remu Utara, Distrik Sorong, Kota Sorong, Papua Bar. 98412","Remu Utara, Distrik Sorong, Kota Sorong",PAPUA,98412.0,Indonesia,82128836899.0,-0.8831759,131.279474,https://maps.google.com/?cid=0x0:0xf699baff63a451c
restaurant,Hidangan Laut,Republik Seafood,"Sawagumu, Kec. Sorong Utara, Kota Sorong, Papua Bar. 98412","Kec. Sorong Utara, Kota Sorong",PAPUA,98412.0,Indonesia,81344615005.0,-0.8883945,131.3109228,https://maps.google.com/?cid=0x0:0xec5acb934a352d67
restaurant,restaurant,,,,PAPUA,,Indonesia,,,,https://maps.google.com/?cid=0x0:0xf699baff63a451cu0026onu003dKepiting+Teluru0026midu003d/g/11s8ghj91_
restaurant,restaurant,,,,PAPUA,,Indonesia,,,,https://maps.google.com/?cid=0x0:0xf699baff63a451cu0026onu003dKerapu+Steam+Hong+Kongu0026midu003d/g/11s8ghj91_
restaurant,restaurant,,,,PAPUA,,Indonesia,,,,https://maps.google.com/?cid=0x0:0xf699baff63a451cu0026onu003dUdang+Gala+Spaecyu0026midu003d/g/11s8ghj91_
restaurant,restaurant,,,,PAPUA,,Indonesia,,,,https://maps.google.com/?cid=0x0:0xf699baff63a451cu0026onu003dRahang+Tuna+Paket+Besaru0026midu003d/g/11s8ghj91_
restaurant,restaurant,,,,PAPUA,,Indonesia,,,,https://maps.google.com/?cid=0x0:0xf699baff63a451cu0026onu003dUdang+Kipas+Tim+Hongkongu0026midu003d/g/11s8ghj91_
restaurant,restaurant,,,,PAPUA,,Indonesia,,,,https://maps.google.com/?cid=0x0:0xf699baff63a451cu0026onu003dTuna+Dada+Bakaru0026midu003d/g/11s8ghj91_
restaurant,restaurant,,,,PAPUA,,Indonesia,,,,https://maps.google.com/?cid=0x0:0xf699baff63a451cu0026onu003dBubur+Kepitingu0026midu003d/g/11s8ghj91_
restaurant,restaurant,,,,PAPUA,,Indonesia,,,,https://maps.google.com/?cid=0x0:0xf699baff63a451cu0026onu003dTuna+Rahang+Bakar+Rica-Ricau0026midu003d/g/11s8ghj91_
restaurant,restaurant,,,,PAPUA,,Indonesia,,,,https://maps.google.com/?cid=0x0:0xf699baff63a451cu0026onu003dNasi+Bebek+Gorengu0026midu003d/g/11s8ghj91_
restaurant,restaurant,,,,PAPUA,,Indonesia,,,,https://maps.google.com/?cid=0x0:0xf699baff63a451cu0026onu003dSeafood+Platteru0026midu003d/g/11s8ghj91_
restaurant,restaurant,,,,PAPUA,,Indonesia,,,,https://maps.google.com/?cid=0x0:0xf699baff63a451cu0026onu003dRahang+Tuna+Bakaru0026midu003d/g/11s8ghj91_
restaurant,restaurant,,,,PAPUA,,Indonesia,,,,https://maps.google.com/?cid=0x0:0xf699baff63a451cu0026onu003dSop+Asparagusu0026midu003d/g/11s8ghj91_
restaurant,restaurant,WARUNG MAKAN,"PJJ7+HPH, Dabra, Mamberamo Ulu, Kabupaten Mamberamo Raya, Papua","Kabupaten Mamberamo Raya, Papua",PAPUA,,Indonesia,,-3.2685642,138.6143444,https://maps.google.com/?cid=0x0:0x89958bf6b4da1593
restaurant,restaurant,Papua 99377,"Kabupaten Mamberamo Raya, Papua","Kabupaten Mamberamo Raya, Papua",PAPUA,,Indonesia,,-2.9302628,138.558749,https://maps.google.com/?cid=0x0:0x56875374c777610f
restaurant,restaurant,Baso II,"2RFM+GPR, Foau, Mamberamo Ulu, Kabupaten Mamberamo Raya, Papua 99377","Foau, Mamberamo Ulu, Kabupaten Mamberamo Raya",PAPUA,99377.0,Indonesia,,-2.9761411,138.8342577,https://maps.google.com/?cid=0x0:0x43b2737c34193c0c
restaurant,Dapur Umum,Warung Makan Maduratna Kasonaweja,"Kasonaweja, Kec. Mamberamo Tengah, Kabupaten Mamberamo Raya, Papua 99376","Kec. Mamberamo Tengah, Kabupaten Mamberamo Raya",PAPUA,99376.0,Indonesia,81383138382.0,-2.3014354,138.0301517,https://maps.google.com/?cid=0x0:0xadc21a2996f23f5f
restaurant,Dapur Umum,RM. RAHAYU,"P452+834, Jl. Poros Otonom, Burmeso, Kec. Mamberamo Tengah, Kabupaten Mamberamo Raya, Papua 99376","Jl. Poros Otonom, Burmeso, Kec. Mamberamo Tengah, Kabupaten Mamberamo Raya",PAPUA,99376.0,Indonesia,,-2.2917255,138.1002024,https://maps.google.com/?cid=0x0:0xdad37f8f9cc15280
restaurant,Hidangan Laut,MAMBERAMO (LIVE) SEAFOOD,"Jl. Ahmad Yani No.7, Remu Utara, Distrik Sorong, Kota Sorong, Papua Bar. 98412","Remu Utara, Distrik Sorong, Kota Sorong",PAPUA,98412.0,Indonesia,82128836899.0,-0.8831759,131.279474,https://maps.google.com/?cid=0x0:0xf699baff63a451c
restaurant,restaurant,Papua 99376,"Kabupaten Mamberamo Raya, Papua","Kabupaten Mamberamo Raya, Papua",PAPUA,,Indonesia,,-2.3686909,138.1597946,https://maps.google.com/?cid=0x0:0xd5bdc7e3e560174a
restaurant,Dapur Umum,Warung makan lestari,"M2WJ+P7W, Kasonaweja, Kec. Mamberamo Tengah, Kabupaten Mamberamo Raya, Papua","Kabupaten Mamberamo Raya, Papua",PAPUA,,Indonesia,,-2.3031389,138.0307118,https://maps.google.com/?cid=0x0:0x7cd4c12ea155d60a
restaurant,Brunch,Warung Makan Maifendua,"Jl. Trans Burmeso, Danau Bira, Kec. Mamberamo Tengah, Birmeso, Papua","Birmeso, Papua",PAPUA,,Indonesia,81343162931.0,-2.3283506,138.0153284,https://maps.google.com/?cid=0x0:0x29905cbb89252cc2
restaurant,Indonesia,Homestay and waroeng dadakan,"Jl.otonom burmeso, Danau Bira, Kec. Mamberamo Tengah, Kabupaten Mamberamo Raya, Papua 99116","Danau Bira, Kec. Mamberamo Tengah, Kabupaten Mamberamo Raya",PAPUA,99116.0,Indonesia,81354073135.0,-2.3312529,138.0268449,https://maps.google.com/?cid=0x0:0x82abd3ab91688ee6
restaurant,Restoran,Warung Makan Barokah,"M299+HWG, Danau Bira, Kec. Mamberamo Tengah, Kabupaten Mamberamo Raya, Papua","Kabupaten Mamberamo Raya, Papua",PAPUA,,Indonesia,,-2.3309002,138.0214223,https://maps.google.com/?cid=0x0:0x126dbf15948b201e
restaurant,restaurant,Warung Makan Indralis,"M29H+VG, Danau Bira, Kec. Mamberamo Tengah, Kabupaten Mamberamo Raya, Papua 99376","Danau Bira, Kec. Mamberamo Tengah, Kabupaten Mamberamo Raya",PAPUA,99376.0,Indonesia,,-2.3298513,138.0287306,https://maps.google.com/?cid=0x0:0x7117e9954e3840a5
restaurant,restaurant,Warung Makan Simpang Tiga,"P452+834, Burmeso, Kec. Mamberamo Tengah, Kabupaten Mamberamo Raya, Papua 99376","Burmeso, Kec. Mamberamo Tengah, Kabupaten Mamberamo Raya",PAPUA,99376.0,Indonesia,,-2.2917255,138.1002024,https://maps.google.com/?cid=0x0:0x710bbf7ff487a899
restaurant,restaurant,Warung Rahayu,"M29G+RRV, Burmeso, Mamberamo Tengah, Mamberamo Raya Regency, Papua","Kabupaten Mamberamo Raya, Papua",PAPUA,,Indonesia,81287305898.0,-2.330397,138.0270445,https://maps.google.com/?cid=0x0:0xc0b71c2345aa8266
restaurant,Dapur Umum,Warung Makan Maduratna Kasonaweja,"Kasonaweja, Kec. Mamberamo Tengah, Kabupaten Mamberamo Raya, Papua 99376","Kec. Mamberamo Tengah, Kabupaten Mamberamo Raya",PAPUA,99376.0,Indonesia,81383138382.0,-2.3014354,138.0301517,https://maps.google.com/?cid=0x0:0xadc21a2996f23f5f
restaurant,restaurant,Papua 99376,"Kabupaten Mamberamo Raya, Papua","Kabupaten Mamberamo Raya, Papua",PAPUA,,Indonesia,,-2.3686909,138.1597946,https://maps.google.com/?cid=0x0:0xd5bdc7e3e560174a
restaurant,Indonesia,Homestay and waroeng dadakan,"Jl.otonom burmeso, Danau Bira, Kec. Mamberamo Tengah, Kabupaten Mamberamo Raya, Papua 99116","Danau Bira, Kec. Mamberamo Tengah, Kabupaten Mamberamo Raya",PAPUA,99116.0,Indonesia,81354073135.0,-2.3312529,138.0268449,https://maps.google.com/?cid=0x0:0x82abd3ab91688ee6
restaurant,Brunch,Warung Simpang Tiga,"M2FR+8PR, Burmeso, Kec. Mamberamo Tengah, Kabupaten Mamberamo Raya, Papua 99376","Burmeso, Kec. Mamberamo Tengah, Kabupaten Mamberamo Raya",PAPUA,99376.0,Indonesia,,-2.3266467,138.0417638,https://maps.google.com/?cid=0x0:0xe94b4449abf39b91
restaurant,Restoran,Warung Makan Barokah,"M299+HWG, Danau Bira, Kec. Mamberamo Tengah, Kabupaten Mamberamo Raya, Papua","Kabupaten Mamberamo Raya, Papua",PAPUA,,Indonesia,,-2.3309002,138.0214223,https://maps.google.com/?cid=0x0:0x126dbf15948b201e
restaurant,Brunch,Warung Makan Maifendua,"Jl. Trans Burmeso, Danau Bira, Kec. Mamberamo Tengah, Birmeso, Papua","Birmeso, Papua",PAPUA,,Indonesia,81343162931.0,-2.3283506,138.0153284,https://maps.google.com/?cid=0x0:0x29905cbb89252cc2
restaurant,restaurant,Warung Makan Simpang Tiga,"P452+834, Burmeso, Kec. Mamberamo Tengah, Kabupaten Mamberamo Raya, Papua 99376","Burmeso, Kec. Mamberamo Tengah, Kabupaten Mamberamo Raya",PAPUA,99376.0,Indonesia,,-2.2917255,138.1002024,https://maps.google.com/?cid=0x0:0x710bbf7ff487a899
restaurant,restaurant,Papua 99377,"Kabupaten Mamberamo Raya, Papua","Kabupaten Mamberamo Raya, Papua",PAPUA,,Indonesia,,-2.9302628,138.558749,https://maps.google.com/?cid=0x0:0x56875374c777610f
restaurant,Restoran,So Yummy Resto,"FV3Q+QR9, Kwamki, Kec. Mimika Baru, Kabupaten Mimika, Papua 99971","Kwamki, Kec. Mimika Baru, Kabupaten Mimika",PAPUA,99971.0,Indonesia,81240005760.0,-4.5455973,136.8896159,https://maps.google.com/?cid=0x0:0xad18f6a2fb6ee6f8
restaurant,Restoran,Restaurant Yougwa,"CJ63+H23, Jl. Raya Abepura - Sentani, Asei Kecil, Kec. Sentani Tim., Kabupaten Jayapura, Papua 99351","Jl. Raya Abepura - Sentani, Asei Kecil, Kec. Sentani Tim., Kabupaten Jayapura",PAPUA,99351.0,Indonesia,8114801448.0,-2.5886245,140.602559,https://maps.google.com/?cid=0x0:0x65e60fc66014e79c
restaurant,Rumah Makan,Rumah Makan Sendok Garpu Jayapura,"Jl. Raya Abepura-Kotaraja Kota Baru, Wai Mhorock, Kec. Abepura, Kota Jayapura, Papua 99225","Wai Mhorock, Kec. Abepura, Kota Jayapura",PAPUA,99225.0,Indonesia,82310000123.0,-2.6057136,140.6694308,https://maps.google.com/?cid=0x0:0x9b347169a4f00047
restaurant,Hidangan Laut,Republik Seafood,"Sawagumu, Kec. Sorong Utara, Kota Sorong, Papua Bar. 98412","Kec. Sorong Utara, Kota Sorong",PAPUA,98412.0,Indonesia,81344615005.0,-0.8883945,131.3109228,https://maps.google.com/?cid=0x0:0xec5acb934a352d67
restaurant,restaurant,Rofaer,"Kabupaten Mamberamo Raya, Papua","Kabupaten Mamberamo Raya, Papua",PAPUA,,Indonesia,,-2.9905612,137.8822604,https://maps.google.com/?cid=0x0:0xf462a5a98b0c2ed7
restaurant,Restoran,BREAK LUNNER (Nasi Kuning - Ayam Bakar Rica - Es Milo),"Area Pakapura  Undergras, Jl. Cendrawasih, Papua 99910",Jl. Cendrawasih,PAPUA,99910.0,Indonesia,85244239623.0,-4.5412192,136.8826715,https://maps.google.com/?cid=0x0:0x70b8abb4e439935c
restaurant,Ikan Bakar,Resto Jangkar,"Jl. Yos Sudarso, Nawaripi, Kec. Mimika Baru, Kabupaten Mimika, Papua 99971","Nawaripi, Kec. Mimika Baru, Kabupaten Mimika",PAPUA,99971.0,Indonesia,82238302339.0,-4.5681968,136.8865993,https://maps.google.com/?cid=0x0:0x73ed65e33721012a
restaurant,Hidangan Laut,B-One Restaurant,"FP45+5CR, Numbai, Distrik Jayapura Selatan, Kota Jayapura, Papua 99222","Numbai, Distrik Jayapura Selatan, Kota Jayapura",PAPUA,99222.0,Indonesia,81344533058.0,-2.5445125,140.7085143,https://maps.google.com/?cid=0x0:0xb8053f84d614fc3e
restaurant,Ikan Bakar,Mujair Bakar Yudisyah Entrop,"Jl. Klp. 2 No.22, Entrop, Distrik Jayapura Selatan, Kota Jayapura, Papua 99224","Entrop, Distrik Jayapura Selatan, Kota Jayapura",PAPUA,99224.0,Indonesia,82199649123.0,-2.5688777,140.7043302,https://maps.google.com/?cid=0x0:0x5dab285767de8edf
restaurant,Indonesia,Rarampa Resto and Bar,"Jl. Mahakam 2 No.1, Kramat Pela, Kec. Kby. Baru, Kota Jakarta Selatan, Daerah Khusus Ibukota Jakarta 12130","Kramat Pela, Kec. Kby. Baru, Kota Jakarta Selatan",PAPUA,12130.0,Indonesia,217210241.0,-6.2445299,106.7949549,https://maps.google.com/?cid=0x0:0x5153aa2090e376ed
restaurant,Mi,Mandala Sentani,"CGM6+RFC, Jl. Raya Kemiri, Hinekombe, Kec. Sentani, Kabupaten Jayapura, Papua 99359","Jl. Raya Kemiri, Hinekombe, Kec. Sentani, Kabupaten Jayapura",PAPUA,99359.0,Indonesia,9675191911.0,-2.5654544,140.5110728,https://maps.google.com/?cid=0x0:0x7b5dba085f85a8f9
restaurant,Masakan Asia,RM Kuala Oriental,"Jl. Budi Utomo No.88A, Kwamki, Kec. Mimika Baru, Kabupaten Mimika, Papua 99971","Kwamki, Kec. Mimika Baru, Kabupaten Mimika",PAPUA,99971.0,Indonesia,81224989888.0,-4.5432787,136.8840215,https://maps.google.com/?cid=0x0:0xa200bb016a6f04d5
restaurant,Rumah Makan,Warung makan Ira faaza,"Masjid Al ahkam jl.polda Furia indah jlr 4 Kotaraja.Kel.wahno, Kotaraja, Kec. Abepura, Kota Jayapura, Papua","Kota Jayapura, Papua",PAPUA,,Indonesia,81216664985.0,-2.594042,140.6749254,https://maps.google.com/?cid=0x0:0xf092e063b972dad
restaurant,restaurant,Papua,,Papua,PAPUA,,Indonesia,,-4.269928,138.0803529,https://maps.google.com/?cid=0x0:0xeba94e9c5eefe673
restaurant,Rumah Makan,cafe UJM Waropen Papua,"QCR8+5C7, Kemon Jaya Sp V, Kec. Urei Faisei, Kabupaten Waropen, Papua 98261","Kemon Jaya Sp V, Kec. Urei Faisei, Kabupaten Waropen",PAPUA,98261.0,Indonesia,,-2.2095908,136.4160381,https://maps.google.com/?cid=0x0:0x8902420b92236840
restaurant,Ayam,Warung makan celebes,"Q94H+VVJ, Waren Satu, Kec. Waropen Bawah, Kabupaten Waropen, Papua 98261","Waren Satu, Kec. Waropen Bawah, Kabupaten Waropen",PAPUA,98261.0,Indonesia,,-2.2425449,136.3789384,https://maps.google.com/?cid=0x0:0xd43171da454d8c24
restaurant,Kafe,AUSIWERINI,"QFQ4+3X7, Unnamed Road, Nubuai, Kec. Urei Faisei, Kabupaten Waropen, Papua 98261","Unnamed Road, Nubuai, Kec. Urei Faisei, Kabupaten Waropen",PAPUA,98261.0,Indonesia,,-2.2123375,136.4574074,https://maps.google.com/?cid=0x0:0xd44a7552f7501b2a
restaurant,Nasi,Warung bintang timur,"QCV9+CWM, Kemon Jaya Sp V, Kec. Urei Faisei, Kabupaten Waropen, Papua 98261","Kemon Jaya Sp V, Kec. Urei Faisei, Kabupaten Waropen",PAPUA,98261.0,Indonesia,,-2.206419,136.4197968,https://maps.google.com/?cid=0x0:0xc686402bfd25f1dd
restaurant,Brunch,Rumah Makan Sulawesi,"Q98J+CRG, Jln poros waren-urfas, Nonomi, Kec. Waropen Bawah, Kabupaten Waropen, Papua 98261","Jln poros waren-urfas, Nonomi, Kec. Waropen Bawah, Kabupaten Waropen",PAPUA,98261.0,Indonesia,81344620886.0,-2.2339251,136.3820659,https://maps.google.com/?cid=0x0:0xafe62e912aeb3578
restaurant,Rumah Makan,Kemon jaya,"QCP8+MP3, Kemon Jaya Sp V, Kec. Urei Faisei, Kabupaten Waropen, Papua 98261","Kemon Jaya Sp V, Kec. Urei Faisei, Kabupaten Waropen",PAPUA,98261.0,Indonesia,,-2.214062,136.417364,https://maps.google.com/?cid=0x0:0xe856e7f344d367fe
restaurant,Kafe,TONK PU CAFE  RESTO,"Warari, Kec. Yapen Sel., Kabupaten Kepulauan Yapen, Papua 98212","Kec. Yapen Sel., Kabupaten Kepulauan Yapen",PAPUA,98212.0,Indonesia,8522342132.0,-1.8748379,136.2489907,https://maps.google.com/?cid=0x0:0x92750332302c358e
restaurant,Soto,RM. KAWANUA,"Jl. Diponegoro, Pasir Hitam, Kec. Yapen Sel., Kabupaten Kepulauan Yapen, Papua 98212","Pasir Hitam, Kec. Yapen Sel., Kabupaten Kepulauan Yapen",PAPUA,98212.0,Indonesia,85325049448.0,-1.886633,136.2393444,https://maps.google.com/?cid=0x0:0xcd89c6a914791e11
restaurant,Rumah Makan,WARUNG SEDERHANA,"QCR8+43X, Kemon Jaya Sp V, Kec. Urei Faisei, Kabupaten Waropen, Papua","Kabupaten Waropen, Papua",PAPUA,,Indonesia,,-2.2096396,136.4152311,https://maps.google.com/?cid=0x0:0x3a291e6bdd003ce7
restaurant,Brunch,Warung makan Sri rejeki,"Jln trans waren botawa, sp4baino jaya, Kec. Waropen Bawah, Kabupaten Waropen, Papua 98662","sp4baino jaya, Kec. Waropen Bawah, Kabupaten Waropen",PAPUA,98662.0,Indonesia,,-2.2420315,136.3794418,https://maps.google.com/?cid=0x0:0x544752995c8ca6e6
restaurant,Rumah Makan,Warung makan mbak AYU,"PCP8+MQ3, Jalan poros spv, Botawa, Kec. Urei Faisei, Kabupaten Waropen, Papua","Kabupaten Waropen, Papua",PAPUA,,Indonesia,,-2.2633621,136.4169369,https://maps.google.com/?cid=0x0:0x619a85f3572a8ef8
restaurant,Brunch,Gado-gado mbak AYU,"QCCC+WW2, Batu Zaman, Kec. Waropen Bawah, Kabupaten Waropen, Papua 98261","Batu Zaman, Kec. Waropen Bawah, Kabupaten Waropen",PAPUA,98261.0,Indonesia,,-2.2277296,136.4222564,https://maps.google.com/?cid=0x0:0x78a310dd6721ebc7
restaurant,Dapur Umum,Warung Barokah,"468P+V7V, Jl. Silas Papare, Tarau, Kec. Yapen Sel., Kabupaten Kepulauan Yapen, Papua 98215","Jl. Silas Papare, Tarau, Kec. Yapen Sel., Kabupaten Kepulauan Yapen",PAPUA,98215.0,Indonesia,,-1.8827508,136.2356766,https://maps.google.com/?cid=0x0:0xfba7a1534be090ca
restaurant,restaurant,Benuki,"Kabupaten Mamberamo Raya, Papua","Kabupaten Mamberamo Raya, Papua",PAPUA,,Indonesia,,-2.1703445,137.6061625,https://maps.google.com/?cid=0x0:0x52cfc10baae62c4
restaurant,Brunch,Warung Makan Maifendua,"Jl. Trans Burmeso, Danau Bira, Kec. Mamberamo Tengah, Birmeso, Papua","Birmeso, Papua",PAPUA,,Indonesia,81343162931.0,-2.3283506,138.0153284,https://maps.google.com/?cid=0x0:0x29905cbb89252cc2
restaurant,Hidangan Laut,B-One Restaurant,"FP45+5CR, Numbai, Distrik Jayapura Selatan, Kota Jayapura, Papua 99222","Numbai, Distrik Jayapura Selatan, Kota Jayapura",PAPUA,99222.0,Indonesia,81344533058.0,-2.5445125,140.7085143,https://maps.google.com/?cid=0x0:0xb8053f84d614fc3e
restaurant,Padang,Yoga Sentani Rumah Makan,"Jl. Boulevard Raya No.2 9 2, RT.5/RW.9, Penjaringan, Kec. Penjaringan, Jkt Utara, Daerah Khusus Ibukota Jakarta 14440","RT.5/RW.9, Penjaringan, Kec. Penjaringan, Jkt Utara",PAPUA,14440.0,Indonesia,214530419.0,-6.1302159,106.8038221,https://maps.google.com/?cid=0x0:0x157679ce2abceaae
restaurant,Padang,Resto Yougwa Danau Sentani,"Jl. Batu Ceper No.73 15, RT.15/RW.1, Kb. Klp., Kecamatan Gambir, Kota Jakarta Pusat, Daerah Khusus Ibukota Jakarta 10120","RT.15/RW.1, Kb. Klp., Kecamatan Gambir, Kota Jakarta Pusat",PAPUA,10120.0,Indonesia,8119622272.0,-6.162043,106.8243928,https://maps.google.com/?cid=0x0:0xd6689d47fce71c89
restaurant,restaurant,,,,PAPUA,,Indonesia,,,,https://maps.google.com/?cid=0x0:0xd6689d47fce71c89u0026onu003dIkan+Bakar+Rica+Ricau0026midu003d/g/11h1p4vbfh
restaurant,restaurant,,,,PAPUA,,Indonesia,,,,https://maps.google.com/?cid=0x0:0xd6689d47fce71c89u0026onu003dIkan+Kuah+Kuningu0026midu003d/g/11h1p4vbfh
restaurant,restaurant,,,,PAPUA,,Indonesia,,,,https://maps.google.com/?cid=0x0:0xd6689d47fce71c89u0026onu003dPapeda+Kuah+Kuningu0026midu003d/g/11h1p4vbfh
restaurant,restaurant,,,,PAPUA,,Indonesia,,,,https://maps.google.com/?cid=0x0:0xd6689d47fce71c89u0026onu003dKue+Lontaru0026midu003d/g/11h1p4vbfh
restaurant,restaurant,,,,PAPUA,,Indonesia,,,,https://maps.google.com/?cid=0x0:0xd6689d47fce71c89u0026onu003dKangkung+Bunga+Pepayau0026midu003d/g/11h1p4vbfh
restaurant,restaurant,,,,PAPUA,,Indonesia,,,,https://maps.google.com/?cid=0x0:0xd6689d47fce71c89u0026onu003dGabus+Kuah+Asamu0026midu003d/g/11h1p4vbfh
restaurant,restaurant,,,,PAPUA,,Indonesia,,,,https://maps.google.com/?cid=0x0:0xd6689d47fce71c89u0026onu003dLobster+Saus+Padangu0026midu003d/g/11h1p4vbfh
restaurant,restaurant,,,,PAPUA,,Indonesia,,,,https://maps.google.com/?cid=0x0:0xd6689d47fce71c89u0026onu003dKerapu+Asam+Manisu0026midu003d/g/11h1p4vbfh
restaurant,restaurant,,,,PAPUA,,Indonesia,,,,https://maps.google.com/?cid=0x0:0xd6689d47fce71c89u0026onu003dSate+Tunau0026midu003d/g/11h1p4vbfh
restaurant,restaurant,,,,PAPUA,,Indonesia,,,,https://maps.google.com/?cid=0x0:0xd6689d47fce71c89u0026onu003dBubur+Manadou0026midu003d/g/11h1p4vbfh
restaurant,restaurant,,,,PAPUA,,Indonesia,,,,https://maps.google.com/?cid=0x0:0xd6689d47fce71c89u0026onu003dNasi+Goreng+Seafoodu0026midu003d/g/11h1p4vbfh
restaurant,restaurant,,,,PAPUA,,Indonesia,,,,https://maps.google.com/?cid=0x0:0xd6689d47fce71c89u0026onu003dJus+Stawbery+Dan+Leciu0026midu003d/g/11h1p4vbfh
