Category,Real Category,Business Name,Address,City,State,Postal Code,Country,Phone,Latitude,Longitude,Map Link
toko bangunan,Toko Bahan Bangunan,Padma Bangunan,"Wai Mhorock, Kec. Abepura, Kota Jayapura, Papua 99225","Kec. Abepura, Kota Jayapura",PAPUA,99225.0,Indonesia,9675180108.0,-2.6096427,140.6725314,https://maps.google.com/?cid=0x0:0x908e38e219cfc28
toko bangunan,Toko Bahan Bangunan,Supermarket Multi Bangunan,"Jl Baru No.98, Wai Mhorock, Abepura, Jayapura City, Papua 99225","Wai Mhorock, Abepura, Jayapura City",PAPUA,99225.0,Indonesia,967588677.0,-2.6077336,140.6742812,https://maps.google.com/?cid=0x0:0x3b19f301c68f1d6f
toko bangunan,Pemasok Bahan Bangunan,Toko bangunan Sumber Makmur,"32CM+75G, Jl. Manokwari - Maruni, Anday, Distrik Manokwari, Kabupaten Manokwari, Papua Bar. 98315","Jl. Manokwari - Maruni, Anday, Distrik Manokwari, Kabupaten Manokwari",PAPUA,98315.0,Indonesia,8114846060.0,-0.9293075,134.0329487,https://maps.google.com/?cid=0x0:0xa0a85c7270dde255
toko bangunan,Toko Bahan Bangunan,Toko Bangunan Mutiara timur,"CJ3R+33F, Unnamed Road, Kp. Waena, Kec. Heram, Kota Jayapura, Papua 99225","Unnamed Road, Kp. Waena, Kec. Heram, Kota Jayapura",PAPUA,99225.0,Indonesia,,-2.5973134,140.6401625,https://maps.google.com/?cid=0x0:0x392e56b1342d758c
toko bangunan,Toko Bahan Bangunan,Toko Central Bangunan / AMK,"Jl. Perikanan No.08, Hamadi, Distrik Jayapura Selatan, Kota Jayapura, Papua 99222","Hamadi, Distrik Jayapura Selatan, Kota Jayapura",PAPUA,99222.0,Indonesia,82261057928.0,-2.5584767,140.7173289,https://maps.google.com/?cid=0x0:0xcfdf592c00fbd20d
toko bangunan,toko bangunan,Papua 99377,"Kabupaten Mamberamo Raya, Papua","Kabupaten Mamberamo Raya, Papua",PAPUA,,Indonesia,,-2.9302628,138.558749,https://maps.google.com/?cid=0x0:0x56875374c777610f
toko bangunan,Toko Bahan Bangunan,Toko Bangunan Mutiara timur,"CJ3R+33F, Unnamed Road, Kp. Waena, Kec. Heram, Kota Jayapura, Papua 99225","Unnamed Road, Kp. Waena, Kec. Heram, Kota Jayapura",PAPUA,99225.0,Indonesia,,-2.5973134,140.6401625,https://maps.google.com/?cid=0x0:0x392e56b1342d758c
toko bangunan,Toko,TOKO BANGUNAN SUMBER ANUGERAH,"Persatuan, Kec. Mandobo, Kabupaten Boven Digoel, Papua 99663","Kec. Mandobo, Kabupaten Boven Digoel",PAPUA,99663.0,Indonesia,,-6.0903965,140.3331897,https://maps.google.com/?cid=0x0:0x9b0d3e5a6263752a
toko bangunan,toko bangunan,Toko Mitra Bangunan,"8F8G+WJ5, Karubaga, Kec. Karubaga, Kabupaten Tolikara, Papua 99567","Karubaga, Kec. Karubaga, Kabupaten Tolikara",PAPUA,99567.0,Indonesia,81317225643.0,-3.682733,138.4766089,https://maps.google.com/?cid=0x0:0x94f019f9132886e9
toko bangunan,Pemasok Bahan Bangunan,Toko bangunan Sumber Makmur,"32CM+75G, Jl. Manokwari - Maruni, Anday, Distrik Manokwari, Kabupaten Manokwari, Papua Bar. 98315","Jl. Manokwari - Maruni, Anday, Distrik Manokwari, Kabupaten Manokwari",PAPUA,98315.0,Indonesia,8114846060.0,-0.9293075,134.0329487,https://maps.google.com/?cid=0x0:0xa0a85c7270dde255
toko bangunan,Toko Bahan Bangunan,Toko Central Bangunan / AMK,"Jl. Perikanan No.08, Hamadi, Distrik Jayapura Selatan, Kota Jayapura, Papua 99222","Hamadi, Distrik Jayapura Selatan, Kota Jayapura",PAPUA,99222.0,Indonesia,82261057928.0,-2.5584767,140.7173289,https://maps.google.com/?cid=0x0:0xcfdf592c00fbd20d
toko bangunan,Toko Bahan Bangunan,Toko Bangunan Mutiara timur,"CJ3R+33F, Unnamed Road, Kp. Waena, Kec. Heram, Kota Jayapura, Papua 99225","Unnamed Road, Kp. Waena, Kec. Heram, Kota Jayapura",PAPUA,99225.0,Indonesia,,-2.5973134,140.6401625,https://maps.google.com/?cid=0x0:0x392e56b1342d758c
toko bangunan,toko bangunan,Papua 99376,"Kabupaten Mamberamo Raya, Papua","Kabupaten Mamberamo Raya, Papua",PAPUA,,Indonesia,,-2.3686909,138.1597946,https://maps.google.com/?cid=0x0:0xd5bdc7e3e560174a
toko bangunan,Toko Bahan Bangunan,Toko bangunan mamberamo berkat jaya,"48FC+H43, Malanu, Kec. Sorong Utara, Kota Sorong, Papua Bar. 98412","Malanu, Kec. Sorong Utara, Kota Sorong",PAPUA,98412.0,Indonesia,82199670933.0,-0.8761238,131.3202814,https://maps.google.com/?cid=0x0:0x424173ba8af4f98
toko bangunan,Kios,Simpang Pasar,"M2RJ+5CW, Kasonaweja, Kec. Mamberamo Tengah, Kabupaten Mamberamo Raya, Papua 99376","Kasonaweja, Kec. Mamberamo Tengah, Kabupaten Mamberamo Raya",PAPUA,99376.0,Indonesia,81344203094.0,-2.3095167,138.031091,https://maps.google.com/?cid=0x0:0xc4b0c3afa97032b1
toko bangunan,Toko Bahan Bangunan,Supermarket Multi Bangunan,"Jl Baru No.98, Wai Mhorock, Abepura, Jayapura City, Papua 99225","Wai Mhorock, Abepura, Jayapura City",PAPUA,99225.0,Indonesia,967588677.0,-2.6077336,140.6742812,https://maps.google.com/?cid=0x0:0x3b19f301c68f1d6f
toko bangunan,Toko,TOKO BANGUNAN SUMBER ANUGERAH,"Persatuan, Kec. Mandobo, Kabupaten Boven Digoel, Papua 99663","Kec. Mandobo, Kabupaten Boven Digoel",PAPUA,99663.0,Indonesia,,-6.0903965,140.3331897,https://maps.google.com/?cid=0x0:0x9b0d3e5a6263752a
toko bangunan,toko bangunan,Kios Dalle Maraseng,"M2XJ+7H9, Kasonaweja, Kec. Mamberamo Tengah, Kabupaten Mamberamo Raya, Papua 99376","Kasonaweja, Kec. Mamberamo Tengah, Kabupaten Mamberamo Raya",PAPUA,99376.0,Indonesia,,-2.3029442,138.0314098,https://maps.google.com/?cid=0x0:0x753a02f025f6431f
toko bangunan,Toko Ponsel,Mambramo cell,"P2CQ+C55, Kasonaweja, Kec. Mamberamo Tengah, Kabupaten Mamberamo Raya, Papua","Kabupaten Mamberamo Raya, Papua",PAPUA,,Indonesia,81248417900.0,-2.278995,138.037994,https://maps.google.com/?cid=0x0:0xe82bc8001004aa72
toko bangunan,toko bangunan,Papua 99376,"Kabupaten Mamberamo Raya, Papua","Kabupaten Mamberamo Raya, Papua",PAPUA,,Indonesia,,-2.3686909,138.1597946,https://maps.google.com/?cid=0x0:0xd5bdc7e3e560174a
toko bangunan,Kios,Kios IZZAH JAYA,"Jl. Batavia, Kasonaweja, Kec. Mamberamo Tengah, Kabupaten Mamberamo Raya, Papua 98692","Kasonaweja, Kec. Mamberamo Tengah, Kabupaten Mamberamo Raya",PAPUA,98692.0,Indonesia,81240956924.0,-2.3030324,138.0307082,https://maps.google.com/?cid=0x0:0x4c59d974832d98d3
toko bangunan,Kios,Simpang Pasar,"M2RJ+5CW, Kasonaweja, Kec. Mamberamo Tengah, Kabupaten Mamberamo Raya, Papua 99376","Kasonaweja, Kec. Mamberamo Tengah, Kabupaten Mamberamo Raya",PAPUA,99376.0,Indonesia,81344203094.0,-2.3095167,138.031091,https://maps.google.com/?cid=0x0:0xc4b0c3afa97032b1
toko bangunan,Pemasok Bahan Bangunan,Toko bangunan Sumber Makmur,"32CM+75G, Jl. Manokwari - Maruni, Anday, Distrik Manokwari, Kabupaten Manokwari, Papua Bar. 98315","Jl. Manokwari - Maruni, Anday, Distrik Manokwari, Kabupaten Manokwari",PAPUA,98315.0,Indonesia,8114846060.0,-0.9293075,134.0329487,https://maps.google.com/?cid=0x0:0xa0a85c7270dde255
toko bangunan,Toko,TOKO BANGUNAN SUMBER ANUGERAH,"Persatuan, Kec. Mandobo, Kabupaten Boven Digoel, Papua 99663","Kec. Mandobo, Kabupaten Boven Digoel",PAPUA,99663.0,Indonesia,,-6.0903965,140.3331897,https://maps.google.com/?cid=0x0:0x9b0d3e5a6263752a
toko bangunan,Toko Ponsel,Mambramo cell,"P2CQ+C55, Kasonaweja, Kec. Mamberamo Tengah, Kabupaten Mamberamo Raya, Papua","Kabupaten Mamberamo Raya, Papua",PAPUA,,Indonesia,81248417900.0,-2.278995,138.037994,https://maps.google.com/?cid=0x0:0xe82bc8001004aa72
toko bangunan,Toko Bahan Bangunan,Toko bangunan mamberamo berkat jaya,"48FC+H43, Malanu, Kec. Sorong Utara, Kota Sorong, Papua Bar. 98412","Malanu, Kec. Sorong Utara, Kota Sorong",PAPUA,98412.0,Indonesia,82199670933.0,-0.8761238,131.3202814,https://maps.google.com/?cid=0x0:0x424173ba8af4f98
toko bangunan,toko bangunan,Kios Dalle Maraseng,"M2XJ+7H9, Kasonaweja, Kec. Mamberamo Tengah, Kabupaten Mamberamo Raya, Papua 99376","Kasonaweja, Kec. Mamberamo Tengah, Kabupaten Mamberamo Raya",PAPUA,99376.0,Indonesia,,-2.3029442,138.0314098,https://maps.google.com/?cid=0x0:0x753a02f025f6431f
toko bangunan,toko bangunan,Toko Mitra Bangunan,"8F8G+WJ5, Karubaga, Kec. Karubaga, Kabupaten Tolikara, Papua 99567","Karubaga, Kec. Karubaga, Kabupaten Tolikara",PAPUA,99567.0,Indonesia,81317225643.0,-3.682733,138.4766089,https://maps.google.com/?cid=0x0:0x94f019f9132886e9
toko bangunan,Toko Bahan Bangunan,ANEKA BANGUNAN,"Wosi, Kec. Manokwari Bar., Kabupaten Manokwari, Papua Bar. 98312","Kec. Manokwari Bar., Kabupaten Manokwari",PAPUA,98312.0,Indonesia,81344843001.0,-0.8631883,134.0498559,https://maps.google.com/?cid=0x0:0x3598159af16f30ea
toko bangunan,toko bangunan,TRI NOVENA HOTSPOT,"M2VJ+6FW, Kasonaweja, Kec. Mamberamo Tengah, Kabupaten Mamberamo Raya, Papua 99376","Kasonaweja, Kec. Mamberamo Tengah, Kabupaten Mamberamo Raya",PAPUA,99376.0,Indonesia,81344203094.0,-2.3068837,138.0311911,https://maps.google.com/?cid=0x0:0x5236cccca6b04599
toko bangunan,toko bangunan,Toko Mitra Bangunan,"8F8G+WJ5, Karubaga, Kec. Karubaga, Kabupaten Tolikara, Papua 99567","Karubaga, Kec. Karubaga, Kabupaten Tolikara",PAPUA,99567.0,Indonesia,81317225643.0,-3.682733,138.4766089,https://maps.google.com/?cid=0x0:0x94f019f9132886e9
toko bangunan,Toko Bahan Bangunan,TB CAHAYA FAJAR BUILDING MATERIAL STORE,"Jl. KH. Abdul Hamid No.73, Cibitung Wetan, Kec. Pamijahan, Kabupaten Bogor, Jawa Barat 16810","Cibitung Wetan, Kec. Pamijahan, Kabupaten Bogor",PAPUA,16810.0,Indonesia,,-6.6570724,106.644873,https://maps.google.com/?cid=0x0:0x89c3a23746af77ef
toko bangunan,Toko Bahan Bangunan,Tb.Sumber Bangunan Baru,"Jl. Raya Gn. Salak Endah, Gn. Picung, Kec. Pamijahan, Kabupaten Bogor, Jawa Barat 16810","Gn. Picung, Kec. Pamijahan, Kabupaten Bogor",PAPUA,16810.0,Indonesia,81360738515.0,-6.6606812,106.6670953,https://maps.google.com/?cid=0x0:0x35b2bf83588ca4e3
toko bangunan,toko bangunan,Papua,,Papua,PAPUA,,Indonesia,,-4.269928,138.0803529,https://maps.google.com/?cid=0x0:0xeba94e9c5eefe673
toko bangunan,Toko Perlengkapan Rumah,Toko Bangunan URI,"Q93M+R2X, Uri, Kec. Waropen Bawah, Kabupaten Waropen, Papua 98261","Uri, Kec. Waropen Bawah, Kabupaten Waropen",PAPUA,98261.0,Indonesia,,-2.24502,136.382778,https://maps.google.com/?cid=0x0:0xedc722ce6d2e6662
toko bangunan,Toko Bahan Bangunan,Toko Multi Bangunan,"Q97H+9V2, Sarafambai, Kec. Waropen Bawah, Kabupaten Waropen, Papua 98261","Sarafambai, Kec. Waropen Bawah, Kabupaten Waropen",PAPUA,98261.0,Indonesia,,-2.2366153,136.3796343,https://maps.google.com/?cid=0x0:0x8fe10ca526096f47
toko bangunan,Toko,Toko ajb,"Jln inpres urfas, Kemon Jaya Sp V, Kec. Urei Faisei, Kabupaten Waropen, Papua 98663","Kemon Jaya Sp V, Kec. Urei Faisei, Kabupaten Waropen",PAPUA,98663.0,Indonesia,82399530919.0,-2.209432,136.415572,https://maps.google.com/?cid=0x0:0x9d727fa236c3e1d6
toko bangunan,Toko Bahan Bangunan,Toko Resky,"jalan poros, Kemon Jaya Sp V, Kec. Waropen Bawah, Kabupaten Waropen, Papua 98261","Kemon Jaya Sp V, Kec. Waropen Bawah, Kabupaten Waropen",PAPUA,98261.0,Indonesia,85394955553.0,-2.2185432,136.4200064,https://maps.google.com/?cid=0x0:0x356450f535852163
toko bangunan,Toko Bahan Bangunan,Toko MITRA HUSNUL BANGUNAN,"46FX+82M, Warari, Kec. Yapen Sel., Kabupaten Kepulauan Yapen, Papua 98213","Warari, Kec. Yapen Sel., Kabupaten Kepulauan Yapen",PAPUA,98213.0,Indonesia,,-1.8766528,136.247547,https://maps.google.com/?cid=0x0:0xda1336700384c06c
toko bangunan,Toko Bahan Bangunan,Toko Sentral Bangunan,"46GX+QFV, Gg. KPR, Famboaman, Kec. Yapen Sel., Kabupaten Kepulauan Yapen, Papua 98213","Gg. KPR, Famboaman, Kec. Yapen Sel., Kabupaten Kepulauan Yapen",PAPUA,98213.0,Indonesia,,-1.8730096,136.2486766,https://maps.google.com/?cid=0x0:0x533299c5ca5ed566
toko bangunan,Pemasok Bahan Bangunan,Toko Abadi Serui,"467V+H28, Serui Kota, Kec. Yapen Sel., Kabupaten Kepulauan Yapen, Papua 98215","Serui Kota, Kec. Yapen Sel., Kabupaten Kepulauan Yapen",PAPUA,98215.0,Indonesia,,-1.886075,136.2425871,https://maps.google.com/?cid=0x0:0x1de8d73e649eb0cd
toko bangunan,Toko Bahan Bangunan,Toko Martoba,"47F3+PMH, Jl. Ke Menawi, Warari, Kec. Yapen Sel., Kabupaten Kepulauan Yapen, Papua 98212","Jl. Ke Menawi, Warari, Kec. Yapen Sel., Kabupaten Kepulauan Yapen",PAPUA,98212.0,Indonesia,81240716061.0,-1.8756977,136.2542315,https://maps.google.com/?cid=0x0:0x2cdece5e71c44b58
toko bangunan,,Kios Arto morro,"QC88+85J, Nonomi, Kec. Waropen Bawah, Kabupaten Waropen, Papua 98261","Nonomi, Kec. Waropen Bawah, Kabupaten Waropen",PAPUA,98261.0,Indonesia,,-2.235162,136.414555,https://maps.google.com/?cid=0x0:0xdd4f3031149c4404
toko bangunan,Toko Bahan Bangunan,TB Sinar Tarau,"467Q+CHC, Jl. Moh. Yamin, Pasir Hitam, Kec. Yapen Sel., Kabupaten Kepulauan Yapen, Papua 98215","Jl. Moh. Yamin, Pasir Hitam, Kec. Yapen Sel., Kabupaten Kepulauan Yapen",PAPUA,98215.0,Indonesia,,-1.8863276,136.2388537,https://maps.google.com/?cid=0x0:0x6590d499145ac071
toko bangunan,toko bangunan,Waropen Atas,"Kabupaten Mamberamo Raya, Papua","Kabupaten Mamberamo Raya, Papua",PAPUA,,Indonesia,,-2.4516885,137.2142417,https://maps.google.com/?cid=0x0:0x2008a4bef2200c3
toko bangunan,Toko Bahan Bangunan,Toko Bangunan Mutiara timur,"CJ3R+33F, Unnamed Road, Kp. Waena, Kec. Heram, Kota Jayapura, Papua 99225","Unnamed Road, Kp. Waena, Kec. Heram, Kota Jayapura",PAPUA,99225.0,Indonesia,,-2.5973134,140.6401625,https://maps.google.com/?cid=0x0:0x392e56b1342d758c
toko bangunan,Toko Bahan Bangunan,Toko Bangunan Mutiara timur,"CJ3R+33F, Unnamed Road, Kp. Waena, Kec. Heram, Kota Jayapura, Papua 99225","Unnamed Road, Kp. Waena, Kec. Heram, Kota Jayapura",PAPUA,99225.0,Indonesia,,-2.5973134,140.6401625,https://maps.google.com/?cid=0x0:0x392e56b1342d758c
toko bangunan,toko bangunan,Benuki,"Kabupaten Mamberamo Raya, Papua","Kabupaten Mamberamo Raya, Papua",PAPUA,,Indonesia,,-2.1703445,137.6061625,https://maps.google.com/?cid=0x0:0x52cfc10baae62c4
toko bangunan,toko bangunan,"Garden Watiaro, Kabupaten Mamberamo Raya, Papua, Indonesia","QH6C+HR, Watiaro, Benuki, Kabupaten Mamberamo Raya, Papua 98262","Watiaro, Benuki, Kabupaten Mamberamo Raya",PAPUA,98262.0,Indonesia,,-2.2385658,137.5720688,https://maps.google.com/?cid=0x0:0x20bd719fefbedb0f
toko bangunan,Toko Bahan Bangunan,Supermarket Multi Bangunan,"Jl Baru No.98, Wai Mhorock, Abepura, Jayapura City, Papua 99225","Wai Mhorock, Abepura, Jayapura City",PAPUA,99225.0,Indonesia,967588677.0,-2.6077336,140.6742812,https://maps.google.com/?cid=0x0:0x3b19f301c68f1d6f
toko bangunan,Toko Bahan Bangunan,Padma Bangunan,"Wai Mhorock, Kec. Abepura, Kota Jayapura, Papua 99225","Kec. Abepura, Kota Jayapura",PAPUA,99225.0,Indonesia,9675180108.0,-2.6096427,140.6725314,https://maps.google.com/?cid=0x0:0x908e38e219cfc28
toko bangunan,Toko Bahan Bangunan,Toko Resky,"jalan poros, Kemon Jaya Sp V, Kec. Waropen Bawah, Kabupaten Waropen, Papua 98261","Kemon Jaya Sp V, Kec. Waropen Bawah, Kabupaten Waropen",PAPUA,98261.0,Indonesia,85394955553.0,-2.2185432,136.4200064,https://maps.google.com/?cid=0x0:0x356450f535852163
toko bangunan,Toko Bahan Bangunan,TOKO WI2N JAYA,"Jl. Sasak No.2, Depok, Kec. Pancoran Mas, Kota Depok, Jawa Barat 16431","Depok, Kec. Pancoran Mas, Kota Depok",PAPUA,16431.0,Indonesia,81282768817.0,-6.4099128,106.816129,https://maps.google.com/?cid=0x0:0x73379e1e04f97ca3
toko bangunan,Toko Bahan Bangunan,Toko Material Wan Abud 104,"jalan haji saiyan rt 05 rw 06 no 25,tanjung barat jagakarsa kode pos, RT.5/RW.6, Tj. Bar., Kec. Jagakarsa, Kota Jakarta Selatan, Daerah Khusus Ibukota Jakarta 12530","RT.5/RW.6, Tj. Bar., Kec. Jagakarsa, Kota Jakarta Selatan",PAPUA,12530.0,Indonesia,81380077923.0,-6.3109194,106.8489014,https://maps.google.com/?cid=0x0:0x8519d945a14d9db6
toko bangunan,Toko Bahan Bangunan,Toko Aneka Bangunan,"Jl. Pahlawan Revolusi No.5 6, RT.8/RW.1, Pd. Bambu, Kec. Duren Sawit, Kota Jakarta Timur, Daerah Khusus Ibukota Jakarta 13470","RT.8/RW.1, Pd. Bambu, Kec. Duren Sawit, Kota Jakarta Timur",PAPUA,13470.0,Indonesia,81779308221.0,-6.2276488,106.8988242,https://maps.google.com/?cid=0x0:0x5f8fb6c23c3a6e8a
building materials,building materials,Papua 99375,"Mamberamo Ilir, Kabupaten Mamberamo Raya, Papua","Kabupaten Mamberamo Raya, Papua",PAPUA,,Indonesia,,-1.7701818,138.0010282,https://maps.google.com/?cid=0x0:0x6850629c4ca23105
building materials,building materials,Mamberamo Ilir,"Kabupaten Mamberamo Raya, Papua","Kabupaten Mamberamo Raya, Papua",PAPUA,,Indonesia,,-1.8878768,138.0010282,https://maps.google.com/?cid=0x0:0x3040c6683684fc94
building materials,building materials,Papua 99377,"Kabupaten Mamberamo Raya, Papua","Kabupaten Mamberamo Raya, Papua",PAPUA,,Indonesia,,-2.9302628,138.558749,https://maps.google.com/?cid=0x0:0x56875374c777610f
building materials,building materials,Papua 99376,"Kabupaten Mamberamo Raya, Papua","Kabupaten Mamberamo Raya, Papua",PAPUA,,Indonesia,,-2.3686909,138.1597946,https://maps.google.com/?cid=0x0:0xd5bdc7e3e560174a
building materials,building materials,Papua 99376,"Kabupaten Mamberamo Raya, Papua","Kabupaten Mamberamo Raya, Papua",PAPUA,,Indonesia,,-2.3686909,138.1597946,https://maps.google.com/?cid=0x0:0xd5bdc7e3e560174a
building materials,building materials,Papua 99377,"Kabupaten Mamberamo Raya, Papua","Kabupaten Mamberamo Raya, Papua",PAPUA,,Indonesia,,-2.9302628,138.558749,https://maps.google.com/?cid=0x0:0x56875374c777610f
building materials,Toko Bahan Bangunan,Batako pres Mr. R,"JG72+CVX, Jembatan Kali, Bumi Wonorejo, Distrik Nabire, Kabupaten Nabire, Papua 98811","Jembatan Kali, Bumi Wonorejo, Distrik Nabire, Kabupaten Nabire",PAPUA,98811.0,Indonesia,,-3.3859788,135.5022138,https://maps.google.com/?cid=0x0:0xa8412134107705e1
building materials,Toko Bahan Bangunan,BB BATAKO GORONGÂ²,"JF6R+JHQ, Jl. Perintis, Bumi Wonorejo, Distrik Nabire, Kabupaten Nabire, Papua 98818","Jl. Perintis, Bumi Wonorejo, Distrik Nabire, Kabupaten Nabire",PAPUA,98818.0,Indonesia,82399753202.0,-3.3884013,135.4914835,https://maps.google.com/?cid=0x0:0x7a685643e4c502d5
building materials,Toko Perlengkapan Rumah,Toko Bangunan URI,"Q93M+R2X, Uri, Kec. Waropen Bawah, Kabupaten Waropen, Papua 98261","Uri, Kec. Waropen Bawah, Kabupaten Waropen",PAPUA,98261.0,Indonesia,,-2.24502,136.382778,https://maps.google.com/?cid=0x0:0xedc722ce6d2e6662
building materials,building materials,Waropen Atas,"Kabupaten Mamberamo Raya, Papua","Kabupaten Mamberamo Raya, Papua",PAPUA,,Indonesia,,-2.4516885,137.2142417,https://maps.google.com/?cid=0x0:0x2008a4bef2200c3
building materials,Toko Bahan Bangunan,Toko Resky,"jalan poros, Kemon Jaya Sp V, Kec. Waropen Bawah, Kabupaten Waropen, Papua 98261","Kemon Jaya Sp V, Kec. Waropen Bawah, Kabupaten Waropen",PAPUA,98261.0,Indonesia,85394955553.0,-2.2185432,136.4200064,https://maps.google.com/?cid=0x0:0x356450f535852163
building materials,Toko,Toko ajb,"Jln inpres urfas, Kemon Jaya Sp V, Kec. Urei Faisei, Kabupaten Waropen, Papua 98663","Kemon Jaya Sp V, Kec. Urei Faisei, Kabupaten Waropen",PAPUA,98663.0,Indonesia,82399530919.0,-2.209432,136.415572,https://maps.google.com/?cid=0x0:0x9d727fa236c3e1d6
building materials,Toko Bahan Bangunan,Toko Multi Bangunan,"Q97H+9V2, Sarafambai, Kec. Waropen Bawah, Kabupaten Waropen, Papua 98261","Sarafambai, Kec. Waropen Bawah, Kabupaten Waropen",PAPUA,98261.0,Indonesia,,-2.2366153,136.3796343,https://maps.google.com/?cid=0x0:0x8fe10ca526096f47
building materials,building materials,Benuki,"Kabupaten Mamberamo Raya, Papua","Kabupaten Mamberamo Raya, Papua",PAPUA,,Indonesia,,-2.1703445,137.6061625,https://maps.google.com/?cid=0x0:0x52cfc10baae62c4
building materials,Aksesori Mebel,Somel kayu Mughni,"pantai enggros, Jl. Garuda, Wai Mhorock, Kec. Abepura, Kota Jayapura, Papua 99111","Jl. Garuda, Wai Mhorock, Kec. Abepura, Kota Jayapura",PAPUA,99111.0,Indonesia,,-2.607681,140.6833002,https://maps.google.com/?cid=0x0:0xf2a21d76e2f37778
building materials,Pemotongan Kayu,Kayu Somel,"CPQ5+XV7, Jl. Tasangkapura, Hamadi, Distrik Jayapura Selatan, Kota Jayapura, Papua","Kota Jayapura, Papua",PAPUA,,Indonesia,81344206726.0,-2.5600866,140.7096744,https://maps.google.com/?cid=0x0:0x43373a0a82b8f691
building materials,building materials,Sawai,"Bonoi, Sawai, Kabupaten Mamberamo Raya, Papua","Kabupaten Mamberamo Raya, Papua",PAPUA,,Indonesia,,-1.766667,137.25,https://maps.google.com/?cid=0x0:0x25b25daa42d2b019
building materials,building materials,Papua,,Papua,PAPUA,,Indonesia,,-4.269928,138.0803529,https://maps.google.com/?cid=0x0:0xeba94e9c5eefe673
hardware store,hardware store,Papua 99375,"Mamberamo Ilir, Kabupaten Mamberamo Raya, Papua","Kabupaten Mamberamo Raya, Papua",PAPUA,,Indonesia,,-1.7701818,138.0010282,https://maps.google.com/?cid=0x0:0x6850629c4ca23105
hardware store,hardware store,Papua 99377,"Kabupaten Mamberamo Raya, Papua","Kabupaten Mamberamo Raya, Papua",PAPUA,,Indonesia,,-2.9302628,138.558749,https://maps.google.com/?cid=0x0:0x56875374c777610f
hardware store,hardware store,Fotocopyan Sinar Arqua,"M2XM+M6V, Kasonaweja, Kec. Mamberamo Tengah, Kabupaten Mamberamo Raya, Papua","Kabupaten Mamberamo Raya, Papua",PAPUA,,Indonesia,,-2.3007677,138.033053,https://maps.google.com/?cid=0x0:0x24df74353e956e35
hardware store,hardware store,Fotocopyan Sinar Arqua,"M2XM+M6V, Kasonaweja, Kec. Mamberamo Tengah, Kabupaten Mamberamo Raya, Papua","Kabupaten Mamberamo Raya, Papua",PAPUA,,Indonesia,,-2.3007677,138.033053,https://maps.google.com/?cid=0x0:0x24df74353e956e35
hardware store,Kios,Kios IZZAH JAYA,"Jl. Batavia, Kasonaweja, Kec. Mamberamo Tengah, Kabupaten Mamberamo Raya, Papua 98692","Kasonaweja, Kec. Mamberamo Tengah, Kabupaten Mamberamo Raya",PAPUA,98692.0,Indonesia,81240956924.0,-2.3030324,138.0307082,https://maps.google.com/?cid=0x0:0x4c59d974832d98d3
hardware store,hardware store,Papua 99376,"Kabupaten Mamberamo Raya, Papua","Kabupaten Mamberamo Raya, Papua",PAPUA,,Indonesia,,-2.3686909,138.1597946,https://maps.google.com/?cid=0x0:0xd5bdc7e3e560174a
hardware store,Toko Ponsel,Mambramo cell,"P2CQ+C55, Kasonaweja, Kec. Mamberamo Tengah, Kabupaten Mamberamo Raya, Papua","Kabupaten Mamberamo Raya, Papua",PAPUA,,Indonesia,81248417900.0,-2.278995,138.037994,https://maps.google.com/?cid=0x0:0xe82bc8001004aa72
hardware store,hardware store,Kios dan bengkel Hafiza,"M2JR+9Q2, Kasonaweja, Kec. Mamberamo Tengah, Kabupaten Mamberamo Raya, Papua","Kabupaten Mamberamo Raya, Papua",PAPUA,,Indonesia,,-2.3191196,138.0418768,https://maps.google.com/?cid=0x0:0x56a82ee575045932
hardware store,hardware store,TRI NOVENA HOTSPOT,"M2VJ+6FW, Kasonaweja, Kec. Mamberamo Tengah, Kabupaten Mamberamo Raya, Papua 99376","Kasonaweja, Kec. Mamberamo Tengah, Kabupaten Mamberamo Raya",PAPUA,99376.0,Indonesia,81344203094.0,-2.3068837,138.0311911,https://maps.google.com/?cid=0x0:0x5236cccca6b04599
hardware store,hardware store,Kios Dalle Maraseng,"M2XJ+7H9, Kasonaweja, Kec. Mamberamo Tengah, Kabupaten Mamberamo Raya, Papua 99376","Kasonaweja, Kec. Mamberamo Tengah, Kabupaten Mamberamo Raya",PAPUA,99376.0,Indonesia,,-2.3029442,138.0314098,https://maps.google.com/?cid=0x0:0x753a02f025f6431f
hardware store,Toko Perlengkapan Rumah,Mr. D.I.Y,"Jl. Utarom, Kroy, Kec. Kaimana, Kabupaten Kaimana, Papua Bar. 98654","Kroy, Kec. Kaimana, Kabupaten Kaimana",PAPUA,98654.0,Indonesia,,-3.6473891,133.7383025,https://maps.google.com/?cid=0x0:0x2c16aacfd65b5619
hardware store,Toko,Toko Mahrufi,"9P3P+363, Jl. Utarum - Pasir Lombo Kaimana, Kroy, Kec. Kaimana, Kabupaten Kaimana, Papua Bar. 98654","Jl. Utarum - Pasir Lombo Kaimana, Kroy, Kec. Kaimana, Kabupaten Kaimana",PAPUA,98654.0,Indonesia,81240669633.0,-3.6473555,133.7355572,https://maps.google.com/?cid=0x0:0x4c4f7f690161b264
hardware store,Toko Bahan Bangunan,Raff Enterprises,"7XFF+CCV, Kadulang, Lapu-lapu City, 6015 Cebu, Filipina","Lapu-lapu City, Cebu, Filipina",PAPUA,,Indonesia,63325206644.0,10.2736094,123.9735481,https://maps.google.com/?cid=0x0:0xb36cdaad087ce3ef
hardware store,hardware store,Papua,,Papua,PAPUA,,Indonesia,,-4.269928,138.0803529,https://maps.google.com/?cid=0x0:0xeba94e9c5eefe673
hardware store,Toko,Toko ajb,"Jln inpres urfas, Kemon Jaya Sp V, Kec. Urei Faisei, Kabupaten Waropen, Papua 98663","Kemon Jaya Sp V, Kec. Urei Faisei, Kabupaten Waropen",PAPUA,98663.0,Indonesia,82399530919.0,-2.209432,136.415572,https://maps.google.com/?cid=0x0:0x9d727fa236c3e1d6
hardware store,Toko Bahan Bangunan,Toko Multi Bangunan,"Q97H+9V2, Sarafambai, Kec. Waropen Bawah, Kabupaten Waropen, Papua 98261","Sarafambai, Kec. Waropen Bawah, Kabupaten Waropen",PAPUA,98261.0,Indonesia,,-2.2366153,136.3796343,https://maps.google.com/?cid=0x0:0x8fe10ca526096f47
hardware store,Pemasok Bahan Bangunan,Toko Abadi Serui,"467V+H28, Serui Kota, Kec. Yapen Sel., Kabupaten Kepulauan Yapen, Papua 98215","Serui Kota, Kec. Yapen Sel., Kabupaten Kepulauan Yapen",PAPUA,98215.0,Indonesia,,-1.886075,136.2425871,https://maps.google.com/?cid=0x0:0x1de8d73e649eb0cd
hardware store,Toko Perlengkapan Rumah,Toko senyum 5000 Serui,"467Q+MGM, Jl. Moh. Yamin, Pasir Hitam, Kec. Yapen Sel., Kabupaten Kepulauan Yapen, Papua 98215","Jl. Moh. Yamin, Pasir Hitam, Kec. Yapen Sel., Kabupaten Kepulauan Yapen",PAPUA,98215.0,Indonesia,82312107327.0,-1.8857806,136.2387832,https://maps.google.com/?cid=0x0:0x8bb382ed495800b6
hardware store,Toko Bahan Bangunan,TB Sinar Tarau,"467Q+CHC, Jl. Moh. Yamin, Pasir Hitam, Kec. Yapen Sel., Kabupaten Kepulauan Yapen, Papua 98215","Jl. Moh. Yamin, Pasir Hitam, Kec. Yapen Sel., Kabupaten Kepulauan Yapen",PAPUA,98215.0,Indonesia,,-1.8863276,136.2388537,https://maps.google.com/?cid=0x0:0x6590d499145ac071
hardware store,,Toko ATK,"Q9JW+PXF, Nonomi, Kec. Waropen Bawah, Kabupaten Waropen, Papua 98261","Nonomi, Kec. Waropen Bawah, Kabupaten Waropen",PAPUA,98261.0,Indonesia,,-2.2181961,136.3974286,https://maps.google.com/?cid=0x0:0xe9860aab742029b5
hardware store,Toko Bahan Bangunan,Toko Maju Bangunan,"Jl. Mangga, Serui Kota, Kec. Yapen Sel., Kabupaten Kepulauan Yapen, Papua","Kabupaten Kepulauan Yapen, Papua",PAPUA,,Indonesia,,-1.8818407,136.2440069,https://maps.google.com/?cid=0x0:0xb489e2fdea623b09
hardware store,Toko Elektronik,"Toko Waldi Bersaudara(elektronik,atk dan alat2 listrik)","VWXP+8FG, Hurekama, Distrik Wamena, Kabupaten Jayawijaya, Papua 99511","Hurekama, Distrik Wamena, Kabupaten Jayawijaya",PAPUA,99511.0,Indonesia,,-4.1016991,138.9361964,https://maps.google.com/?cid=0x0:0xa713ef87ed3825b2
hardware store,Toko Bahan Bangunan,Toko Sentral Bangunan,"46GX+QFV, Gg. KPR, Famboaman, Kec. Yapen Sel., Kabupaten Kepulauan Yapen, Papua 98213","Gg. KPR, Famboaman, Kec. Yapen Sel., Kabupaten Kepulauan Yapen",PAPUA,98213.0,Indonesia,,-1.8730096,136.2486766,https://maps.google.com/?cid=0x0:0x533299c5ca5ed566
hardware store,Toko Buku >>u0026 Alat Sekolah,"Toko Agung, Serui","467R+RRR, Serui Kota, Kec. Yapen Sel., Kabupaten Kepulauan Yapen, Papua 98215","Serui Kota, Kec. Yapen Sel., Kabupaten Kepulauan Yapen",PAPUA,98215.0,Indonesia,,-1.8853875,136.2420135,https://maps.google.com/?cid=0x0:0xc37c3f521b0e5b49
hardware store,Toko Bahan Bangunan,TOKO KEYMART,"467R+FJ7, Jl. Diponegoro, Serui Kota, Kec. Yapen Sel., Kabupaten Kepulauan Yapen, Papua 98215","Jl. Diponegoro, Serui Kota, Kec. Yapen Sel., Kabupaten Kepulauan Yapen",PAPUA,98215.0,Indonesia,,-1.8862936,136.2415923,https://maps.google.com/?cid=0x0:0x114d109271fad46
hardware store,hardware store,Papua 98262,"Kabupaten Mamberamo Raya, Papua","Kabupaten Mamberamo Raya, Papua",PAPUA,,Indonesia,,-2.4075711,137.6061625,https://maps.google.com/?cid=0x0:0xcf10b52983f1589a
hardware store,hardware store,Fotocopyan Sinar Arqua,"M2XM+M6V, Kasonaweja, Kec. Mamberamo Tengah, Kabupaten Mamberamo Raya, Papua","Kabupaten Mamberamo Raya, Papua",PAPUA,,Indonesia,,-2.3007677,138.033053,https://maps.google.com/?cid=0x0:0x24df74353e956e35
hardware store,hardware store,Fotocopyan Sinar Arqua,"M2XM+M6V, Kasonaweja, Kec. Mamberamo Tengah, Kabupaten Mamberamo Raya, Papua","Kabupaten Mamberamo Raya, Papua",PAPUA,,Indonesia,,-2.3007677,138.033053,https://maps.google.com/?cid=0x0:0x24df74353e956e35
hardware store,hardware store,Benuki,"Kabupaten Mamberamo Raya, Papua","Kabupaten Mamberamo Raya, Papua",PAPUA,,Indonesia,,-2.1703445,137.6061625,https://maps.google.com/?cid=0x0:0x52cfc10baae62c4
hardware store,hardware store,Sawai,"Bonoi, Sawai, Kabupaten Mamberamo Raya, Papua","Kabupaten Mamberamo Raya, Papua",PAPUA,,Indonesia,,-1.766667,137.25,https://maps.google.com/?cid=0x0:0x25b25daa42d2b019
hardware store,hardware store,Papua 98262,"Kabupaten Mamberamo Raya, Papua","Kabupaten Mamberamo Raya, Papua",PAPUA,,Indonesia,,-2.4075711,137.6061625,https://maps.google.com/?cid=0x0:0xcf10b52983f1589a
supermarket bangunan,supermarket bangunan,Papua 99375,"Mamberamo Ilir, Kabupaten Mamberamo Raya, Papua","Kabupaten Mamberamo Raya, Papua",PAPUA,,Indonesia,,-1.7701818,138.0010282,https://maps.google.com/?cid=0x0:0x6850629c4ca23105
supermarket bangunan,Toko Bahan Bangunan,Supermarket Multi Bangunan,"Jl Baru No.98, Wai Mhorock, Abepura, Jayapura City, Papua 99225","Wai Mhorock, Abepura, Jayapura City",PAPUA,99225.0,Indonesia,967588677.0,-2.6077336,140.6742812,https://maps.google.com/?cid=0x0:0x3b19f301c68f1d6f
supermarket bangunan,Toko Bahan Bangunan,Padma Bangunan,"Wai Mhorock, Kec. Abepura, Kota Jayapura, Papua 99225","Kec. Abepura, Kota Jayapura",PAPUA,99225.0,Indonesia,9675180108.0,-2.6096427,140.6725314,https://maps.google.com/?cid=0x0:0x908e38e219cfc28
supermarket bangunan,Toko Bahan Bangunan,Padma Bangunan,"Wai Mhorock, Kec. Abepura, Kota Jayapura, Papua 99225","Kec. Abepura, Kota Jayapura",PAPUA,99225.0,Indonesia,9675180108.0,-2.6096427,140.6725314,https://maps.google.com/?cid=0x0:0x908e38e219cfc28
supermarket bangunan,supermarket bangunan,Papua 99377,"Kabupaten Mamberamo Raya, Papua","Kabupaten Mamberamo Raya, Papua",PAPUA,,Indonesia,,-2.9302628,138.558749,https://maps.google.com/?cid=0x0:0x56875374c777610f
supermarket bangunan,Toko Bahan Bangunan,Supermarket Multi Bangunan,"Jl Baru No.98, Wai Mhorock, Abepura, Jayapura City, Papua 99225","Wai Mhorock, Abepura, Jayapura City",PAPUA,99225.0,Indonesia,967588677.0,-2.6077336,140.6742812,https://maps.google.com/?cid=0x0:0x3b19f301c68f1d6f
supermarket bangunan,supermarket bangunan,Papua 99376,"Kabupaten Mamberamo Raya, Papua","Kabupaten Mamberamo Raya, Papua",PAPUA,,Indonesia,,-2.3686909,138.1597946,https://maps.google.com/?cid=0x0:0xd5bdc7e3e560174a
supermarket bangunan,Toko,TOKO BANGUNAN SUMBER ANUGERAH,"Persatuan, Kec. Mandobo, Kabupaten Boven Digoel, Papua 99663","Kec. Mandobo, Kabupaten Boven Digoel",PAPUA,99663.0,Indonesia,,-6.0903965,140.3331897,https://maps.google.com/?cid=0x0:0x9b0d3e5a6263752a
supermarket bangunan,Toko Bahan Bangunan,Supermarket Multi Bangunan,"Jl Baru No.98, Wai Mhorock, Abepura, Jayapura City, Papua 99225","Wai Mhorock, Abepura, Jayapura City",PAPUA,99225.0,Indonesia,967588677.0,-2.6077336,140.6742812,https://maps.google.com/?cid=0x0:0x3b19f301c68f1d6f
supermarket bangunan,Toko Bahan Bangunan,Toko bangunan sumber rejeki,"Unnamed Road, Sawar, Kec. Sarmi, Kabupaten Sarmi, Papua 99373","Sawar, Kec. Sarmi, Kabupaten Sarmi",PAPUA,99373.0,Indonesia,81234899589.0,-1.8894659,138.7600852,https://maps.google.com/?cid=0x0:0x4e88a9dfadd071fc
supermarket bangunan,Toko Bahan Bangunan,Toko Bangunan Mutiara timur,"CJ3R+33F, Unnamed Road, Kp. Waena, Kec. Heram, Kota Jayapura, Papua 99225","Unnamed Road, Kp. Waena, Kec. Heram, Kota Jayapura",PAPUA,99225.0,Indonesia,,-2.5973134,140.6401625,https://maps.google.com/?cid=0x0:0x392e56b1342d758c
supermarket bangunan,supermarket bangunan,Papua 99376,"Kabupaten Mamberamo Raya, Papua","Kabupaten Mamberamo Raya, Papua",PAPUA,,Indonesia,,-2.3686909,138.1597946,https://maps.google.com/?cid=0x0:0xd5bdc7e3e560174a
supermarket bangunan,Kios,Kios IZZAH JAYA,"Jl. Batavia, Kasonaweja, Kec. Mamberamo Tengah, Kabupaten Mamberamo Raya, Papua 98692","Kasonaweja, Kec. Mamberamo Tengah, Kabupaten Mamberamo Raya",PAPUA,98692.0,Indonesia,81240956924.0,-2.3030324,138.0307082,https://maps.google.com/?cid=0x0:0x4c59d974832d98d3
supermarket bangunan,Toko Bahan Bangunan,Supermarket Multi Bangunan,"Jl Baru No.98, Wai Mhorock, Abepura, Jayapura City, Papua 99225","Wai Mhorock, Abepura, Jayapura City",PAPUA,99225.0,Indonesia,967588677.0,-2.6077336,140.6742812,https://maps.google.com/?cid=0x0:0x3b19f301c68f1d6f
supermarket bangunan,Kios,Simpang Pasar,"M2RJ+5CW, Kasonaweja, Kec. Mamberamo Tengah, Kabupaten Mamberamo Raya, Papua 99376","Kasonaweja, Kec. Mamberamo Tengah, Kabupaten Mamberamo Raya",PAPUA,99376.0,Indonesia,81344203094.0,-2.3095167,138.031091,https://maps.google.com/?cid=0x0:0xc4b0c3afa97032b1
supermarket bangunan,Toko Bahan Bangunan,Toko bangunan sumber rejeki,"Unnamed Road, Sawar, Kec. Sarmi, Kabupaten Sarmi, Papua 99373","Sawar, Kec. Sarmi, Kabupaten Sarmi",PAPUA,99373.0,Indonesia,81234899589.0,-1.8894659,138.7600852,https://maps.google.com/?cid=0x0:0x4e88a9dfadd071fc
supermarket bangunan,Toko Bahan Bangunan,Toko Bangunan Asahan Mandiri,"9MQ8+G3R, Jl. Raya Abepura - Sentani, Kota Baru, Kec. Abepura, Kota Jayapura, Papua 99351","Jl. Raya Abepura - Sentani, Kota Baru, Kec. Abepura, Kota Jayapura",PAPUA,99351.0,Indonesia,811487674.0,-2.6111398,140.6651408,https://maps.google.com/?cid=0x0:0x38b2e62fb958cc0e
supermarket bangunan,Toko Bahan Bangunan,Toko Bangunan Mamta Jaya,"CMMX+2MC, Entrop, Distrik Jayapura Selatan, Kota Jayapura, Papua 99221","Entrop, Distrik Jayapura Selatan, Kota Jayapura",PAPUA,99221.0,Indonesia,,-2.5674278,140.6991484,https://maps.google.com/?cid=0x0:0x2e3a73f71cf583d9
supermarket bangunan,Toko Bahan Bangunan,Surya Prima,"Jl. Kelapa Dua Raya Entrop No.18, Entrop, Jayapura Selatan, Jayapura City, Papua 99221","Entrop, Jayapura Selatan, Jayapura City",PAPUA,99221.0,Indonesia,82199367291.0,-2.5685557,140.7022939,https://maps.google.com/?cid=0x0:0x52a2d9ba8f08d112
supermarket bangunan,Toko Bahan Bangunan,Toko Bangunan USAHA JAYA,"Jln Raya Tanah Hitam, Asano, Abepura, Jayapura City, Papua 93351","Asano, Abepura, Jayapura City",PAPUA,93351.0,Indonesia,811482182.0,-2.6176324,140.683841,https://maps.google.com/?cid=0x0:0xb6995fd87d51be7
supermarket bangunan,Toko Bahan Bangunan,PAPUA BANGUNAN,"42GX+945, Wosi, Kec. Manokwari Bar., Kabupaten Manokwari, Papua Bar. 98312","Wosi, Kec. Manokwari Bar., Kabupaten Manokwari",PAPUA,98312.0,Indonesia,82198055550.0,-0.874101,134.0478473,https://maps.google.com/?cid=0x0:0x2c3683b193d9430f
supermarket bangunan,Toko Bahan Bangunan,DEPO GRAHA SIMPATI,"Kamundu, Jl. Poros Simpati Jl. Blorep No.88, Klp. Lima, Kec. Merauke, Kabupaten Merauke, Papua 99615","Jl. Poros Simpati Jl. Blorep No.88, Klp. Lima, Kec. Merauke, Kabupaten Merauke",PAPUA,99615.0,Indonesia,,-8.5023088,140.41837,https://maps.google.com/?cid=0x0:0xd02bc8a1b88f33a3
supermarket bangunan,Toko Ponsel,Mambramo cell,"P2CQ+C55, Kasonaweja, Kec. Mamberamo Tengah, Kabupaten Mamberamo Raya, Papua","Kabupaten Mamberamo Raya, Papua",PAPUA,,Indonesia,81248417900.0,-2.278995,138.037994,https://maps.google.com/?cid=0x0:0xe82bc8001004aa72
supermarket bangunan,supermarket bangunan,Kios Dalle Maraseng,"M2XJ+7H9, Kasonaweja, Kec. Mamberamo Tengah, Kabupaten Mamberamo Raya, Papua 99376","Kasonaweja, Kec. Mamberamo Tengah, Kabupaten Mamberamo Raya",PAPUA,99376.0,Indonesia,,-2.3029442,138.0314098,https://maps.google.com/?cid=0x0:0x753a02f025f6431f
supermarket bangunan,supermarket bangunan,Papua 99377,"Kabupaten Mamberamo Raya, Papua","Kabupaten Mamberamo Raya, Papua",PAPUA,,Indonesia,,-2.9302628,138.558749,https://maps.google.com/?cid=0x0:0x56875374c777610f
supermarket bangunan,Toko Bahan Bangunan,Supermarket Multi Bangunan,"Jl Baru No.98, Wai Mhorock, Abepura, Jayapura City, Papua 99225","Wai Mhorock, Abepura, Jayapura City",PAPUA,99225.0,Indonesia,967588677.0,-2.6077336,140.6742812,https://maps.google.com/?cid=0x0:0x3b19f301c68f1d6f
supermarket bangunan,supermarket bangunan,Toko Mitra Bangunan,"8F8G+WJ5, Karubaga, Kec. Karubaga, Kabupaten Tolikara, Papua 99567","Karubaga, Kec. Karubaga, Kabupaten Tolikara",PAPUA,99567.0,Indonesia,81317225643.0,-3.682733,138.4766089,https://maps.google.com/?cid=0x0:0x94f019f9132886e9
supermarket bangunan,Toko Bahan Bangunan,Toko Multi Bangunan,"Q97H+9V2, Sarafambai, Kec. Waropen Bawah, Kabupaten Waropen, Papua 98261","Sarafambai, Kec. Waropen Bawah, Kabupaten Waropen",PAPUA,98261.0,Indonesia,,-2.2366153,136.3796343,https://maps.google.com/?cid=0x0:0x8fe10ca526096f47
supermarket bangunan,Toko Bahan Bangunan,TOKO BANGUNAN RYSTER MULIA,"9MXG+G7R, Wai Mhorock, Kec. Abepura, Kota Jayapura, Papua 99225","Wai Mhorock, Kec. Abepura, Kota Jayapura",PAPUA,99225.0,Indonesia,85100115858.0,-2.6011446,140.6756371,https://maps.google.com/?cid=0x0:0x4886e2a9293c5411
supermarket bangunan,Toko Bahan Bangunan,Fajar Bangunan,"Sowi, Distrik Manokwari, Kabupaten Manokwari, Papua Bar. 98315","Distrik Manokwari, Kabupaten Manokwari",PAPUA,98315.0,Indonesia,,-0.9062643,134.0359839,https://maps.google.com/?cid=0x0:0x9d0563299ba4e3f6
supermarket bangunan,supermarket bangunan,Supermarket Bahan Bangunan,"9RHH+7GW, RT.03/RW.01, Kp. Parung Jambu, Katulampa, Kec. Bogor Tim., Kota Bogor, Jawa Barat 16144","RT.03/RW.01, Kp. Parung Jambu, Katulampa, Kec. Bogor Tim., Kota Bogor",PAPUA,16144.0,Indonesia,,-6.6217717,106.8288184,https://maps.google.com/?cid=0x0:0x42209dd7c60cf003
supermarket bangunan,Toko Bahan Bangunan,Super Bangunan,"Jl. Kejayaan I No.17-19, RT.10/RW.1, Krukut, Kec. Taman Sari, Kota Jakarta Barat, Daerah Khusus Ibukota Jakarta 11140","RT.10/RW.1, Krukut, Kec. Taman Sari, Kota Jakarta Barat",PAPUA,11140.0,Indonesia,81264671628.0,-6.1564519,106.8161472,https://maps.google.com/?cid=0x0:0xa65f462a3ecf5cc
supermarket bangunan,Toko Bahan Bangunan,Toko Multi Bangunan,"Q97H+9V2, Sarafambai, Kec. Waropen Bawah, Kabupaten Waropen, Papua 98261","Sarafambai, Kec. Waropen Bawah, Kabupaten Waropen",PAPUA,98261.0,Indonesia,,-2.2366153,136.3796343,https://maps.google.com/?cid=0x0:0x8fe10ca526096f47
supermarket bangunan,supermarket bangunan,Waropen Atas,"Kabupaten Mamberamo Raya, Papua","Kabupaten Mamberamo Raya, Papua",PAPUA,,Indonesia,,-2.4516885,137.2142417,https://maps.google.com/?cid=0x0:0x2008a4bef2200c3
supermarket bangunan,Toko Bahan Bangunan,Supermarket Multi Bangunan,"Jl Baru No.98, Wai Mhorock, Abepura, Jayapura City, Papua 99225","Wai Mhorock, Abepura, Jayapura City",PAPUA,99225.0,Indonesia,967588677.0,-2.6077336,140.6742812,https://maps.google.com/?cid=0x0:0x3b19f301c68f1d6f
supermarket bangunan,supermarket bangunan,Papua,,Papua,PAPUA,,Indonesia,,-4.269928,138.0803529,https://maps.google.com/?cid=0x0:0xeba94e9c5eefe673
supermarket bangunan,Toko Perlengkapan Rumah,Toko Bangunan URI,"Q93M+R2X, Uri, Kec. Waropen Bawah, Kabupaten Waropen, Papua 98261","Uri, Kec. Waropen Bawah, Kabupaten Waropen",PAPUA,98261.0,Indonesia,,-2.24502,136.382778,https://maps.google.com/?cid=0x0:0xedc722ce6d2e6662
supermarket bangunan,supermarket bangunan,Waropen,"QC54+M74, Nonomi, Kec. Waropen Bawah, Kabupaten Waropen, Papua 98261","Nonomi, Kec. Waropen Bawah, Kabupaten Waropen",PAPUA,98261.0,Indonesia,,-2.2408669,136.4057026,https://maps.google.com/?cid=0x0:0x939ec7ca3f88c5d2
supermarket bangunan,supermarket bangunan,Benuki,"Kabupaten Mamberamo Raya, Papua","Kabupaten Mamberamo Raya, Papua",PAPUA,,Indonesia,,-2.1703445,137.6061625,https://maps.google.com/?cid=0x0:0x52cfc10baae62c4
supermarket bangunan,Toko Bahan Bangunan,Supermarket Multi Bangunan,"Jl Baru No.98, Wai Mhorock, Abepura, Jayapura City, Papua 99225","Wai Mhorock, Abepura, Jayapura City",PAPUA,99225.0,Indonesia,967588677.0,-2.6077336,140.6742812,https://maps.google.com/?cid=0x0:0x3b19f301c68f1d6f
supermarket bangunan,Toko Bahan Bangunan,Toko Bangunan Mutiara timur,"CJ3R+33F, Unnamed Road, Kp. Waena, Kec. Heram, Kota Jayapura, Papua 99225","Unnamed Road, Kp. Waena, Kec. Heram, Kota Jayapura",PAPUA,99225.0,Indonesia,,-2.5973134,140.6401625,https://maps.google.com/?cid=0x0:0x392e56b1342d758c
supermarket bangunan,Toko Bahan Bangunan,Supermarket Multi Bangunan,"Jl Baru No.98, Wai Mhorock, Abepura, Jayapura City, Papua 99225","Wai Mhorock, Abepura, Jayapura City",PAPUA,99225.0,Indonesia,967588677.0,-2.6077336,140.6742812,https://maps.google.com/?cid=0x0:0x3b19f301c68f1d6f
supermarket bangunan,Toko Bahan Bangunan,Padma Bangunan,"Wai Mhorock, Kec. Abepura, Kota Jayapura, Papua 99225","Kec. Abepura, Kota Jayapura",PAPUA,99225.0,Indonesia,9675180108.0,-2.6096427,140.6725314,https://maps.google.com/?cid=0x0:0x908e38e219cfc28
supermarket bangunan,supermarket bangunan,Sawai,"Bonoi, Sawai, Kabupaten Mamberamo Raya, Papua","Kabupaten Mamberamo Raya, Papua",PAPUA,,Indonesia,,-1.766667,137.25,https://maps.google.com/?cid=0x0:0x25b25daa42d2b019
supermarket bangunan,Toko Bahan Bangunan,Toko bangunan sumber rejeki,"Unnamed Road, Sawar, Kec. Sarmi, Kabupaten Sarmi, Papua 99373","Sawar, Kec. Sarmi, Kabupaten Sarmi",PAPUA,99373.0,Indonesia,81234899589.0,-1.8894659,138.7600852,https://maps.google.com/?cid=0x0:0x4e88a9dfadd071fc
supermarket bangunan,Toko Bahan Bangunan,Super Bangunan Supermarket Bahan Bangun No #1,"Jl. Raya Cikaret No.8, Harapan Jaya, Kec. Cibinong, Kabupaten Bogor, Jawa Barat 16914","Harapan Jaya, Kec. Cibinong, Kabupaten Bogor",PAPUA,16914.0,Indonesia,85710923235.0,-6.4669858,106.8393338,https://maps.google.com/?cid=0x0:0x53373791abd65da6
supermarket bangunan,Toko bahan makanan,SBA (Supermarket Bangunan Abadi),"Jl. Pd. Kacang No.88B, Pd. Kacang Bar., Kec. Pd. Aren, Kota Tangerang Selatan, Banten 15226","Pd. Kacang Bar., Kec. Pd. Aren, Kota Tangerang Selatan",PAPUA,15226.0,Indonesia,2173460185.0,-6.254577,106.688324,https://maps.google.com/?cid=0x0:0x370ec3ee4dda53b
supermarket bangunan,Pemasok Bahan Bangunan,Supermarket Bangunan Abadi ( Bangunan Abadi ) Meruya,"Jl. Meruya Ilir Raya No.13 3, RT.3/RW.2, Meruya Utara, Kec. Kembangan, Kota Jakarta Barat, Daerah Khusus Ibukota Jakarta 11610","RT.3/RW.2, Meruya Utara, Kec. Kembangan, Kota Jakarta Barat",PAPUA,11610.0,Indonesia,215856801.0,-6.1976477,106.7425118,https://maps.google.com/?cid=0x0:0x13872e6ebcfc2cac
supermarket bangunan,Toko Bahan Bangunan,Supermarket Bahan Bangunan Tirta Bangunan,"Jl. Raya Babakan Madang, Sentul, Kec. Babakan Madang, Kabupaten Bogor, Jawa Barat 16810","Sentul, Kec. Babakan Madang, Kabupaten Bogor",PAPUA,16810.0,Indonesia,8881300271.0,-6.5601203,106.8537161,https://maps.google.com/?cid=0x0:0xc9e77a7f8f9d2f66
supermarket bangunan,Toko Bahan Bangunan,Super Bangunan,"Jl. Kejayaan I No.17-19, RT.10/RW.1, Krukut, Kec. Taman Sari, Kota Jakarta Barat, Daerah Khusus Ibukota Jakarta 11140","RT.10/RW.1, Krukut, Kec. Taman Sari, Kota Jakarta Barat",PAPUA,11140.0,Indonesia,81264671628.0,-6.1564519,106.8161472,https://maps.google.com/?cid=0x0:0xa65f462a3ecf5cc
supermarket bangunan,Grosir bahan konstruksi,Supermarket Sumber Bangunan,"J5GG+HC7, Sukamahi, Kec. Cikarang Pusat, Kabupaten Bekasi, Jawa Barat 17530","Sukamahi, Kec. Cikarang Pusat, Kabupaten Bekasi",PAPUA,17530.0,Indonesia,,-6.3735753,107.1760423,https://maps.google.com/?cid=0x0:0x6a22acadf7672133
supermarket bangunan,Toko Bahan Bangunan,SBA (supermarket bangunan abadi),"Jl. Raya Serang, Cikande, Kec. Jayanti, Kabupaten Tangerang, Banten","Kabupaten Tangerang, Banten",PAPUA,,Indonesia,2189087921.0,-6.2073437,106.374542,https://maps.google.com/?cid=0x0:0x7090bdae7b860e4f
supermarket bangunan,Toko Perlengkapan Rumah,Supermarket bahan bangunan murah,"Jl. HOS Cokroaminoto No.8, RT.003/RW.004, Larangan Utara, Kec. Ciledug, Kota Tangerang, Banten 15151","RT.003/RW.004, Larangan Utara, Kec. Ciledug, Kota Tangerang",PAPUA,15151.0,Indonesia,82113301510.0,-6.2319742,106.7291502,https://maps.google.com/?cid=0x0:0x5c14b7cbdf6350b5
supermarket bangunan,Toko Bahan Bangunan,Super Bangunan Muara Karang,"Jl. Muara Karang Raya No.105, RT.11/RW.17, Pluit, Kec. Penjaringan, Jkt Utara, Daerah Khusus Ibukota Jakarta 14450","RT.11/RW.17, Pluit, Kec. Penjaringan, Jkt Utara",PAPUA,14450.0,Indonesia,8128218188.0,-6.1170604,106.7807172,https://maps.google.com/?cid=0x0:0xceae8e907c7218e2
supermarket bangunan,Toko Bahan Bangunan,Toko Aneka Bangunan,"Jl. Pahlawan Revolusi No.5 6, RT.8/RW.1, Pd. Bambu, Kec. Duren Sawit, Kota Jakarta Timur, Daerah Khusus Ibukota Jakarta 13470","RT.8/RW.1, Pd. Bambu, Kec. Duren Sawit, Kota Jakarta Timur",PAPUA,13470.0,Indonesia,81779308221.0,-6.2276488,106.8988242,https://maps.google.com/?cid=0x0:0x5f8fb6c23c3a6e8a
