Category,Real Category,Business Name,Address,City,State,Postal Code,Country,Phone,Latitude,Longitude,Map Link
mall,Pusat Perbelanjaan,SAGA MALL,"Kota Baru, Kec. Abepura, Kota Jayapura, Papua 99351","Kec. Abepura, Kota Jayapura",PAPUA,99351.0,Indonesia,,-2.6105845,140.6654189,https://maps.google.com/?cid=0x0:0xaf65e43ff84ff9e6
mall,Pusat Perbelanjaan,Mall Jayapura,"APO, Jl. Samratulangi, Bayangkara, Kec. Jayapura Utara, Kota Jayapura, Papua 99112","Jl. Samratulangi, Bayangkara, Kec. Jayapura Utara, Kota Jayapura",PAPUA,99112.0,Indonesia,9675150000.0,-2.5351775,140.7061874,https://maps.google.com/?cid=0x0:0x54294cb27964023
mall,Kedai Kopi,JCO COFFEE  DONUTS MALL JAYAPURA,"Jl. Kab. No.99112, Bayangkara, Kec. Jayapura Utara, Kota Jayapura, Papua 99112","Bayangkara, Kec. Jayapura Utara, Kota Jayapura",PAPUA,99112.0,Indonesia,,-2.5353252,140.7060198,https://maps.google.com/?cid=0x0:0x8cbe835113b8c269
mall,Pusat Perbelanjaan,Belakang Manokwari city mall,"43W7+F3H, Manokwari Bar., Kec. Manokwari Bar., Kabupaten Manokwari, Papua Bar. 98312","Manokwari Bar., Kec. Manokwari Bar., Kabupaten Manokwari",PAPUA,98312.0,Indonesia,,-0.8538079,134.0627452,https://maps.google.com/?cid=0x0:0x59f633fd28048da4
mall,Pusat Perbelanjaan,Manokwari City Mall (MCM),"Jl. Yos Sudarso Manokwari, Manokwari Bar., Kec. Manokwari Bar., Kabupaten Manokwari, Papua Bar. 98312","Manokwari Bar., Kec. Manokwari Bar., Kabupaten Manokwari",PAPUA,98312.0,Indonesia,8114918899.0,-0.85693,134.0678051,https://maps.google.com/?cid=0x0:0x7e7b90df1d787501
mall,Komplek perumahan,Fanindi Pantai,"43R9+J9P Bar, Padarni, Kec. Manokwari Bar., Kabupaten Manokwari, Papua Bar. 98312","Padarni, Kec. Manokwari Bar., Kabupaten Manokwari",PAPUA,98312.0,Indonesia,81344477231.0,-0.8584193,134.0684588,https://maps.google.com/?cid=0x0:0xfea55ca67440bcde
mall,Jepang,Ichiban Sushi Manokwari City Mall,"Jl. Yos Sudarso, Manokwari Bar., Kec. Manokwari Bar., Kabupaten Manokwari, Papua Bar. 98312","Manokwari Bar., Kec. Manokwari Bar., Kabupaten Manokwari",PAPUA,98312.0,Indonesia,,-0.85696,134.0676162,https://maps.google.com/?cid=0x0:0x345744965a30969a
mall,Pusat Perbelanjaan,Manokwari City Mall (MCM),"Jl. Yos Sudarso Manokwari, Manokwari Bar., Kec. Manokwari Bar., Kabupaten Manokwari, Papua Bar. 98312","Manokwari Bar., Kec. Manokwari Bar., Kabupaten Manokwari",PAPUA,98312.0,Indonesia,8114918899.0,-0.85693,134.0678051,https://maps.google.com/?cid=0x0:0x7e7b90df1d787501
mall,Pusat Perbelanjaan,Belakang Manokwari city mall,"43W7+F3H, Manokwari Bar., Kec. Manokwari Bar., Kabupaten Manokwari, Papua Bar. 98312","Manokwari Bar., Kec. Manokwari Bar., Kabupaten Manokwari",PAPUA,98312.0,Indonesia,,-0.8538079,134.0627452,https://maps.google.com/?cid=0x0:0x59f633fd28048da4
mall,Komplek perumahan,Fanindi Pantai,"43R9+J9P Bar, Padarni, Kec. Manokwari Bar., Kabupaten Manokwari, Papua Bar. 98312","Padarni, Kec. Manokwari Bar., Kabupaten Manokwari",PAPUA,98312.0,Indonesia,81344477231.0,-0.8584193,134.0684588,https://maps.google.com/?cid=0x0:0xfea55ca67440bcde
mall,mall,Papua 99377,"Kabupaten Mamberamo Raya, Papua","Kabupaten Mamberamo Raya, Papua",PAPUA,,Indonesia,,-2.9302628,138.558749,https://maps.google.com/?cid=0x0:0x56875374c777610f
mall,Kios,Simpang Pasar,"M2RJ+5CW, Kasonaweja, Kec. Mamberamo Tengah, Kabupaten Mamberamo Raya, Papua 99376","Kasonaweja, Kec. Mamberamo Tengah, Kabupaten Mamberamo Raya",PAPUA,99376.0,Indonesia,81344203094.0,-2.3095167,138.031091,https://maps.google.com/?cid=0x0:0xc4b0c3afa97032b1
mall,Kios,Kios pak Abidin,"M2JR+5VP, Kasonaweja, Kec. Mamberamo Tengah, Kabupaten Mamberamo Raya, Papua 99376","Kasonaweja, Kec. Mamberamo Tengah, Kabupaten Mamberamo Raya",PAPUA,99376.0,Indonesia,,-2.3194639,138.0418688,https://maps.google.com/?cid=0x0:0x22332825de6173bd
mall,Kios,Simpang Pasar,"M2RJ+5CW, Kasonaweja, Kec. Mamberamo Tengah, Kabupaten Mamberamo Raya, Papua 99376","Kasonaweja, Kec. Mamberamo Tengah, Kabupaten Mamberamo Raya",PAPUA,99376.0,Indonesia,81344203094.0,-2.3095167,138.031091,https://maps.google.com/?cid=0x0:0xc4b0c3afa97032b1
mall,Kios,Kios pak Abidin,"M2JR+5VP, Kasonaweja, Kec. Mamberamo Tengah, Kabupaten Mamberamo Raya, Papua 99376","Kasonaweja, Kec. Mamberamo Tengah, Kabupaten Mamberamo Raya",PAPUA,99376.0,Indonesia,,-2.3194639,138.0418688,https://maps.google.com/?cid=0x0:0x22332825de6173bd
mall,Kantor Perusahaan,DISTRIK APAWER HULU,"X955+VPQ, Sasawapece, Apawer Hulu, Kabupaten Sarmi, Papua 99374","Sasawapece, Apawer Hulu, Kabupaten Sarmi",PAPUA,99374.0,Indonesia,,-2.0402929,138.359348,https://maps.google.com/?cid=0x0:0x317cc1acc52471b
mall,Kantor Perusahaan,Apawer,"59R5+4HV, Kamenawari, Distrik Pantai Barat, Kabupaten Sarmi, Papua 99374","Kamenawari, Distrik Pantai Barat, Kabupaten Sarmi",PAPUA,99374.0,Indonesia,81248221487.0,-1.8096451,138.3589086,https://maps.google.com/?cid=0x0:0x2abeeed9cafae89f
mall,mall,Papua 99377,"Kabupaten Mamberamo Raya, Papua","Kabupaten Mamberamo Raya, Papua",PAPUA,,Indonesia,,-2.9302628,138.558749,https://maps.google.com/?cid=0x0:0x56875374c777610f
mall,mall,Kios Rafif,"5QG2+PWR, Dawai, Distrik Yapen Timur, Kabupaten Kepulauan Yapen, Papua 98252","Dawai, Distrik Yapen Timur, Kabupaten Kepulauan Yapen",PAPUA,98252.0,Indonesia,,-1.8231656,136.7520045,https://maps.google.com/?cid=0x0:0xcc155b850a2b5f90
mall,mall,Kios Rofidah,"QCHC+C28, Batu Zaman, Kec. Waropen Bawah, Kabupaten Waropen, Papua 98261","Batu Zaman, Kec. Waropen Bawah, Kabupaten Waropen",PAPUA,98261.0,Indonesia,85353931159.0,-2.2214703,136.4200868,https://maps.google.com/?cid=0x0:0x678f14dddeb8b451
mall,mall,Di burmeso,"M2FR+5P5, Danau Bira, Kec. Mamberamo Tengah, Kabupaten Mamberamo Raya, Papua","Kabupaten Mamberamo Raya, Papua",PAPUA,,Indonesia,,-2.3271153,138.0418711,https://maps.google.com/?cid=0x0:0xf8ba0947a40722d5
mall,Pusat Perbelanjaan,Pusat Grosir Metro tanah abang,"Jl. H. Fachrudin, RT.14/RW.6, Karet Tengsin, Kecamatan Tanah Abang, Kota Jakarta Pusat, Daerah Khusus Ibukota Jakarta 10240","RT.14/RW.6, Karet Tengsin, Kecamatan Tanah Abang, Kota Jakarta Pusat",PAPUA,10240.0,Indonesia,,-6.1876243,106.8156726,https://maps.google.com/?cid=0x0:0x39d0ae97f402e6a
mall,Pusat Perbelanjaan,Mall thamrin city,"Jl. Tlk. Betung Blvd, Kb. Melati, Kecamatan Tanah Abang, Kota Jakarta Pusat, Daerah Khusus Ibukota Jakarta 10230","Kb. Melati, Kecamatan Tanah Abang, Kota Jakarta Pusat",PAPUA,10230.0,Indonesia,,-6.1943235,106.8165473,https://maps.google.com/?cid=0x0:0x6d88d2cf987c6d20
mall,Pusat Perbelanjaan,Thamrin City,"Jl. Thamrin Boulevard, Kb. Melati, Kecamatan Tanah Abang, Kota Jakarta Pusat, Daerah Khusus Ibukota Jakarta 10230","Kb. Melati, Kecamatan Tanah Abang, Kota Jakarta Pusat",PAPUA,10230.0,Indonesia,2131990988.0,-6.1939374,106.8161005,https://maps.google.com/?cid=0x0:0x1b60abd2e0b3d6d1
mall,Minimarket,Mitra Bukalapak - warung rudi,"Rudi 1MB 1MTR, Jl. Familly Gg. H. Ewah Rt 07/01 no.142 kel. Kembangan Selatan kec Kembangan Jakarta Barat, Patokan samping Ayam Bakar Mas Gun, warung, Kembangan Sel., Kec. Kembangan, DKI Jakarta, Daerah Khusus Ibukota Jakarta 11610","Jl. Familly Gg. H. Ewah Rt 07/01 no.142 kel. Kembangan Selatan kec Kembangan Jakarta Barat, Patokan samping Ayam Bakar Mas Gun, warung, Kembangan Sel., Kec. Kembangan, DKI Jakarta",PAPUA,11610.0,Indonesia,81287823304.0,-6.1895123,106.7208521,https://maps.google.com/?cid=0x0:0x70dcf1398438660e
mall,Pusat Perbelanjaan,MALL THAMRIN CITY,"Thamrin City, Jl. Kebon Kacang Raya Lantai 2 Blok C9a No.5, Kb. Melati, Kecamatan Tanah Abang, Kota Jakarta Pusat, Daerah Khusus Ibukota Jakarta 10230","Jl. Kebon Kacang Raya Lantai 2 Blok C9a No.5, Kb. Melati, Kecamatan Tanah Abang, Kota Jakarta Pusat",PAPUA,10230.0,Indonesia,87777115667.0,-6.1941776,106.816001,https://maps.google.com/?cid=0x0:0x1e2ee1b85d99116a
mall,Kios,Kios Al-Roazak Waropen,"QCVR+7C3, Unnamed Road, Ureifaisei Satu/Sanggei, Kec. Urei Faisei, Kabupaten Waropen, Papua 98261","Unnamed Road, Ureifaisei Satu/Sanggei, Kec. Urei Faisei, Kabupaten Waropen",PAPUA,98261.0,Indonesia,82199102844.0,-2.2068653,136.441053,https://maps.google.com/?cid=0x0:0xdc36717acd68feb6
mall,Toko Kosmetik,Rahayu Kosmetik,"Q97J+H8C, Unnamed Road, Nonomi, Kec. Waropen Bawah, Kabupaten Waropen, Papua 98261","Unnamed Road, Nonomi, Kec. Waropen Bawah, Kabupaten Waropen",PAPUA,98261.0,Indonesia,,-2.2360548,136.38076,https://maps.google.com/?cid=0x0:0x32c86b2c03dbb2aa
mall,mall,Papua,,Papua,PAPUA,,Indonesia,,-4.269928,138.0803529,https://maps.google.com/?cid=0x0:0xeba94e9c5eefe673
mall,Pusat Perbelanjaan,Cipta karya,"Unnamed Road, Mambui, Kec. Urei Faisei, Kabupaten Waropen, Papua 98261","Mambui, Kec. Urei Faisei, Kabupaten Waropen",PAPUA,98261.0,Indonesia,82198665770.0,-2.2052326,136.4300486,https://maps.google.com/?cid=0x0:0x7e73da5d8904bba3
mall,Toko,KIOS KURNIA,"8657+H6X, Harapan Jaya Sp II, Toire Sp I, Inggerus, Kabupaten Waropen, Papua 98261","Harapan Jaya Sp II, Toire Sp I, Inggerus, Kabupaten Waropen",PAPUA,98261.0,Indonesia,,-2.691492,136.213257,https://maps.google.com/?cid=0x0:0xfd722db2067ede3b
mall,Toko Swalayan,Pasar Tradisional Aroro iroro Serui,"467R+7RF, Pasir Hitam, Kec. Yapen Sel., Kabupaten Kepulauan Yapen, Papua 98215","Pasir Hitam, Kec. Yapen Sel., Kabupaten Kepulauan Yapen",PAPUA,98215.0,Indonesia,81343027405.0,-1.8868179,136.2420603,https://maps.google.com/?cid=0x0:0x76f34336a9275e8a
mall,Toko Swalayan,FEPUZAMARKET,"EX Rumah makan Makassar, Jl. Imam Bonjol, Serui Kota, Kec. Yapen Sel., Kabupaten Kepulauan Yapen, Papua 98215","Jl. Imam Bonjol, Serui Kota, Kec. Yapen Sel., Kabupaten Kepulauan Yapen",PAPUA,98215.0,Indonesia,82312533539.0,-1.8842457,136.2433659,https://maps.google.com/?cid=0x0:0xab888c2dca481018
mall,Kios,Fadil Jaya,"Depan Kantor Distrik Urei Faisei Lembah Urei, Kabupaten Waropen, Papua 98261",Kabupaten Waropen,PAPUA,98261.0,Indonesia,81278178581.0,-2.217746,136.420656,https://maps.google.com/?cid=0x0:0xc6814632625164f4
mall,Toko bahan makanan,Toko Fitrah Talaga,"Ureifasei Tiga/Paradoi, Kec. Urei Faisei, Kabupaten Waropen, Papua 98261","Kec. Urei Faisei, Kabupaten Waropen",PAPUA,98261.0,Indonesia,,-2.2063125,136.439877,https://maps.google.com/?cid=0x0:0x5f759950d8628be1
mall,Kios,KIOS ISTANA,"Unnamed Road, Nubuai, Kec. Urei Faisei, Kabupaten Waropen, Papua 98261","Nubuai, Kec. Urei Faisei, Kabupaten Waropen",PAPUA,98261.0,Indonesia,,-2.212063,136.4537352,https://maps.google.com/?cid=0x0:0x1c513831de4ef535
mall,Toko Swalayan,Toko Papua Indah,"467V+R4Q, Serui Kota, Kec. Yapen Sel., Kabupaten Kepulauan Yapen, Papua 98215","Serui Kota, Kec. Yapen Sel., Kabupaten Kepulauan Yapen",PAPUA,98215.0,Indonesia,,-1.8854056,136.2428548,https://maps.google.com/?cid=0x0:0xde36d055f56c5bb4
mall,Kios,KIOS ZERO BRAND,"Tarau, Kec. Yapen Sel., Kabupaten Kepulauan Yapen, Papua 98215","Kec. Yapen Sel., Kabupaten Kepulauan Yapen",PAPUA,98215.0,Indonesia,81339982278.0,-1.8860927,136.2336328,https://maps.google.com/?cid=0x0:0x34311f2552dcf811
mall,Pusat Perbelanjaan,Wamena Mall,"WW4W+JH7, Wamena Kota, Distrik Wamena, Kabupaten Jayawijaya, Papua 99511","Wamena Kota, Distrik Wamena, Kabupaten Jayawijaya",PAPUA,99511.0,Indonesia,81356954606.0,-4.0934521,138.9464176,https://maps.google.com/?cid=0x0:0x99f90a37cc207474
mall,Pusat Perbelanjaan,Mall Jayapura,"APO, Jl. Samratulangi, Bayangkara, Kec. Jayapura Utara, Kota Jayapura, Papua 99112","Jl. Samratulangi, Bayangkara, Kec. Jayapura Utara, Kota Jayapura",PAPUA,99112.0,Indonesia,9675150000.0,-2.5351775,140.7061874,https://maps.google.com/?cid=0x0:0x54294cb27964023
mall,Pusat Perbelanjaan,Mall Jayapura,"APO, Jl. Samratulangi, Bayangkara, Kec. Jayapura Utara, Kota Jayapura, Papua 99112","Jl. Samratulangi, Bayangkara, Kec. Jayapura Utara, Kota Jayapura",PAPUA,99112.0,Indonesia,9675150000.0,-2.5351775,140.7061874,https://maps.google.com/?cid=0x0:0x54294cb27964023
mall,Pusat Perbelanjaan,Vision City Mega Mall,"Lot 7, 8  9, Section 429, 131 National Capital District, Waigani Dr, Port Moresby, Papua Nugini","Port Moresby, Papua Nugini",PAPUA,,Indonesia,6753028555.0,-9.4384023,147.1810598,https://maps.google.com/?cid=0x0:0x6b6056559e073ba7
mall,mall,Benuki,"Kabupaten Mamberamo Raya, Papua","Kabupaten Mamberamo Raya, Papua",PAPUA,,Indonesia,,-2.1703445,137.6061625,https://maps.google.com/?cid=0x0:0x52cfc10baae62c4
mall,Pusat Perbelanjaan,Bencoolen Mall,"Jl. Pariwisata No.1, Penurunan, Kec. Ratu Samban, Kota Bengkulu, Bengkulu","Kota Bengkulu, Bengkulu",PAPUA,,Indonesia,7365611125.0,-3.8115102,102.2682078,https://maps.google.com/?cid=0x0:0x97f1534cf73ffa6d
mall,Pusat Perbelanjaan,Mega Mall Bengkulu,"6748+FPG, Jl. KZ Abidin II Pasar Minggu, Belakang Pd., Kec. Ratu Samban, Kota Bengkulu, Bengkulu 38222","Jl. KZ Abidin II Pasar Minggu, Belakang Pd., Kec. Ratu Samban, Kota Bengkulu",PAPUA,38222.0,Indonesia,,-3.7938154,102.2668368,https://maps.google.com/?cid=0x0:0x76e1d23dac5b14e2
mall,Pusat Perbelanjaan,Matahari Dept.Store Bencoolen Mall,"Jl. Putri Gading Cempaka, Penurunan, Kec. Ratu Samban, Kota Bengkulu, Bengkulu","Kota Bengkulu, Bengkulu",PAPUA,,Indonesia,,-3.8118133,102.2682601,https://maps.google.com/?cid=0x0:0xe3b038e136dfd637
mall,Pusat Perbelanjaan,Mall Jayapura,"APO, Jl. Samratulangi, Bayangkara, Kec. Jayapura Utara, Kota Jayapura, Papua 99112","Jl. Samratulangi, Bayangkara, Kec. Jayapura Utara, Kota Jayapura",PAPUA,99112.0,Indonesia,9675150000.0,-2.5351775,140.7061874,https://maps.google.com/?cid=0x0:0x54294cb27964023
mall,Pusat Perbelanjaan,SAGA MALL,"Kota Baru, Kec. Abepura, Kota Jayapura, Papua 99351","Kec. Abepura, Kota Jayapura",PAPUA,99351.0,Indonesia,,-2.6105845,140.6654189,https://maps.google.com/?cid=0x0:0xaf65e43ff84ff9e6
mall,Kedai Kopi,JCO COFFEE  DONUTS MALL JAYAPURA,"Jl. Kab. No.99112, Bayangkara, Kec. Jayapura Utara, Kota Jayapura, Papua 99112","Bayangkara, Kec. Jayapura Utara, Kota Jayapura",PAPUA,99112.0,Indonesia,,-2.5353252,140.7060198,https://maps.google.com/?cid=0x0:0x8cbe835113b8c269
mall,mall,Papua 98262,"Kabupaten Mamberamo Raya, Papua","Kabupaten Mamberamo Raya, Papua",PAPUA,,Indonesia,,-2.4075711,137.6061625,https://maps.google.com/?cid=0x0:0xcf10b52983f1589a
mall,Pusat Perbelanjaan,Wamena Mall,"WW4W+JH7, Wamena Kota, Distrik Wamena, Kabupaten Jayawijaya, Papua 99511","Wamena Kota, Distrik Wamena, Kabupaten Jayawijaya",PAPUA,99511.0,Indonesia,81356954606.0,-4.0934521,138.9464176,https://maps.google.com/?cid=0x0:0x99f90a37cc207474
mall,mall,Sawai Mart,"Purani Jail Rd, City, Sawai Madhopur, Rajasthan 322001, India","City, Sawai Madhopur, Rajasthan",PAPUA,322001.0,Indonesia,919929426604.0,25.994643,76.3834007,https://maps.google.com/?cid=0x0:0x7c52733b997d86
mall,Pusat Perbelanjaan,Lotte Shopping Avenue Mall,"Jl. Prof. DR. Satrio No.Kav.3, RW.5, Kuningan, Karet Kuningan, Kecamatan Setiabudi, Kota Jakarta Selatan, Daerah Khusus Ibukota Jakarta 12940","RW.5, Kuningan, Karet Kuningan, Kecamatan Setiabudi, Kota Jakarta Selatan",PAPUA,12940.0,Indonesia,2129889292.0,-6.2233644,106.8232981,https://maps.google.com/?cid=0x0:0xe8323175da8b9770
supermarket,supermarket,Papua 99375,"Mamberamo Ilir, Kabupaten Mamberamo Raya, Papua","Kabupaten Mamberamo Raya, Papua",PAPUA,,Indonesia,,-1.7701818,138.0010282,https://maps.google.com/?cid=0x0:0x6850629c4ca23105
supermarket,supermarket,Kios Restu,"FW22+PR7, Warembori, Mamberamo Ilir, Kabupaten Mamberamo Raya, Papua 99375","Warembori, Mamberamo Ilir, Kabupaten Mamberamo Raya",PAPUA,99375.0,Indonesia,81240416158.0,-1.5482175,137.9020367,https://maps.google.com/?cid=0x0:0xb6424ed2ab0f31d
supermarket,Toko Bahan Bangunan,Padma Bangunan,"Wai Mhorock, Kec. Abepura, Kota Jayapura, Papua 99225","Kec. Abepura, Kota Jayapura",PAPUA,99225.0,Indonesia,9675180108.0,-2.6096427,140.6725314,https://maps.google.com/?cid=0x0:0x908e38e219cfc28
supermarket,Toko Bahan Bangunan,Supermarket Multi Bangunan,"Jl Baru No.98, Wai Mhorock, Abepura, Jayapura City, Papua 99225","Wai Mhorock, Abepura, Jayapura City",PAPUA,99225.0,Indonesia,967588677.0,-2.6077336,140.6742812,https://maps.google.com/?cid=0x0:0x3b19f301c68f1d6f
supermarket,supermarket,Papua 99377,"Kabupaten Mamberamo Raya, Papua","Kabupaten Mamberamo Raya, Papua",PAPUA,,Indonesia,,-2.9302628,138.558749,https://maps.google.com/?cid=0x0:0x56875374c777610f
supermarket,supermarket,Toko obat solata,"PJJ7+MMC, Dabra, Mamberamo Ulu, Kabupaten Mamberamo Raya, Papua 99377","Dabra, Mamberamo Ulu, Kabupaten Mamberamo Raya",PAPUA,99377.0,Indonesia,,-3.268324,138.6141529,https://maps.google.com/?cid=0x0:0xa886832c9a1d77be
supermarket,supermarket,Toko Imanuel,"PJJ7+QPQ, Dabra, Mamberamo Ulu, Kabupaten Mamberamo Raya, Papua 99377","Dabra, Mamberamo Ulu, Kabupaten Mamberamo Raya",PAPUA,99377.0,Indonesia,,-3.2680452,138.6143678,https://maps.google.com/?cid=0x0:0x10bfc3970ac4dca8
supermarket,Gudang,DMB FAMILY,"M2C8+H63, Danau Bira, Kec. Mamberamo Tengah, Kabupaten Mamberamo Raya, Papua 99376","Danau Bira, Kec. Mamberamo Tengah, Kabupaten Mamberamo Raya",PAPUA,99376.0,Indonesia,,-2.3284553,138.0150782,https://maps.google.com/?cid=0x0:0xdaf6e9b07996f6f3
supermarket,Komplek perumahan,"Pasar Rakyat Burmeso, Mamberamo Raya","MXGW+J5X, Danau Bira, Kec. Mamberamo Tengah, Kabupaten Mamberamo Raya, Papua","Kabupaten Mamberamo Raya, Papua",PAPUA,,Indonesia,,-2.3233767,137.995483,https://maps.google.com/?cid=0x0:0xd9459978802c7aaf
supermarket,supermarket,Papua 99376,"Kabupaten Mamberamo Raya, Papua","Kabupaten Mamberamo Raya, Papua",PAPUA,,Indonesia,,-2.3686909,138.1597946,https://maps.google.com/?cid=0x0:0xd5bdc7e3e560174a
supermarket,Pusat Perbelanjaan,pasar tiom,"P2CQ+C55, Kasonaweja, Kec. Mamberamo Tengah, Lanny Jaya, Papua","Lanny Jaya, Papua",PAPUA,,Indonesia,,-2.278995,138.037994,https://maps.google.com/?cid=0x0:0x666527184ea8d550
supermarket,Kios,Kios pak Abidin,"M2JR+5VP, Kasonaweja, Kec. Mamberamo Tengah, Kabupaten Mamberamo Raya, Papua 99376","Kasonaweja, Kec. Mamberamo Tengah, Kabupaten Mamberamo Raya",PAPUA,99376.0,Indonesia,,-2.3194639,138.0418688,https://maps.google.com/?cid=0x0:0x22332825de6173bd
supermarket,Toko umum,Pingir kali,"M2HJ+98, Danau Bira, Kec. Mamberamo Tengah, Kabupaten Mamberamo Raya, Papua","Kabupaten Mamberamo Raya, Papua",PAPUA,,Indonesia,,-2.321525,138.0307867,https://maps.google.com/?cid=0x0:0x5123b5fee09a46f3
supermarket,Perhimpunan Pengembang Perumahan,Pasar Bagusa,"3R3J+RX8, Bagusa, Mamberamo Ilir, Kabupaten Mamberamo Raya, Papua","Kabupaten Mamberamo Raya, Papua",PAPUA,,Indonesia,,-1.9454601,137.8324442,https://maps.google.com/?cid=0x0:0xee317d758be73be0
supermarket,Kios,Kios IZZAH JAYA,"Jl. Batavia, Kasonaweja, Kec. Mamberamo Tengah, Kabupaten Mamberamo Raya, Papua 98692","Kasonaweja, Kec. Mamberamo Tengah, Kabupaten Mamberamo Raya",PAPUA,98692.0,Indonesia,81240956924.0,-2.3030324,138.0307082,https://maps.google.com/?cid=0x0:0x4c59d974832d98d3
supermarket,supermarket,ANUGERAH JAYA CELL,"M2XJ+7H9, Kasonaweja, Kec. Mamberamo Tengah, Kabupaten Mamberamo Raya, Papua 99376","Kasonaweja, Kec. Mamberamo Tengah, Kabupaten Mamberamo Raya",PAPUA,99376.0,Indonesia,,-2.3033078,138.0307507,https://maps.google.com/?cid=0x0:0x4237821d9bc0c075
supermarket,supermarket,Fotocopyan Sinar Arqua,"M2XM+M6V, Kasonaweja, Kec. Mamberamo Tengah, Kabupaten Mamberamo Raya, Papua","Kabupaten Mamberamo Raya, Papua",PAPUA,,Indonesia,,-2.3007677,138.033053,https://maps.google.com/?cid=0x0:0x24df74353e956e35
supermarket,Kios,Kios Quin,"M2JR+9Q2, Kasonaweja, Kec. Mamberamo Tengah, Kabupaten Mamberamo Raya, Papua","Kabupaten Mamberamo Raya, Papua",PAPUA,,Indonesia,,-2.3191902,138.0418805,https://maps.google.com/?cid=0x0:0x32bff603a91f6254
supermarket,Kantor Administrasi Kota,Gersen Fc,"P23P+6J, Kasonaweja, Kec. Mamberamo Tengah, Kabupaten Mamberamo Raya, Papua","Kabupaten Mamberamo Raya, Papua",PAPUA,,Indonesia,,-2.296039,138.036437,https://maps.google.com/?cid=0x0:0x7d975c1f28a08a27
supermarket,supermarket,FC SEJAHTERA (Foto Copy SEJAHTERA/Fotocopy),"M2XM+M6V, Kasonaweja, Kec. Mamberamo Tengah, Kabupaten Mamberamo Raya, Papua","Kabupaten Mamberamo Raya, Papua",PAPUA,,Indonesia,,-2.3012485,138.0330716,https://maps.google.com/?cid=0x0:0xc66c8292e1ebf525
supermarket,Kios,Kios Wahyu,"J2JP+3F3, Danau Bira, Kec. Mamberamo Tengah, Kabupaten Mamberamo Raya, Papua","Kabupaten Mamberamo Raya, Papua",PAPUA,,Indonesia,,-2.369859,138.0361684,https://maps.google.com/?cid=0x0:0x1e88a818dbbabc9f
supermarket,supermarket,Papua 99376,"Kabupaten Mamberamo Raya, Papua","Kabupaten Mamberamo Raya, Papua",PAPUA,,Indonesia,,-2.3686909,138.1597946,https://maps.google.com/?cid=0x0:0xd5bdc7e3e560174a
supermarket,Gudang,DMB FAMILY,"M2C8+H63, Danau Bira, Kec. Mamberamo Tengah, Kabupaten Mamberamo Raya, Papua 99376","Danau Bira, Kec. Mamberamo Tengah, Kabupaten Mamberamo Raya",PAPUA,99376.0,Indonesia,,-2.3284553,138.0150782,https://maps.google.com/?cid=0x0:0xdaf6e9b07996f6f3
supermarket,Kios,Simpang Pasar,"M2RJ+5CW, Kasonaweja, Kec. Mamberamo Tengah, Kabupaten Mamberamo Raya, Papua 99376","Kasonaweja, Kec. Mamberamo Tengah, Kabupaten Mamberamo Raya",PAPUA,99376.0,Indonesia,81344203094.0,-2.3095167,138.031091,https://maps.google.com/?cid=0x0:0xc4b0c3afa97032b1
supermarket,Kios,Kios milla,"M2FR+XRM, Kampung lama, Burmeso, Kec. Mamberamo Tengah, Kabupaten Mamberamo Raya, Papua 99376","Kampung lama, Burmeso, Kec. Mamberamo Tengah, Kabupaten Mamberamo Raya",PAPUA,99376.0,Indonesia,,-2.325044,138.0420421,https://maps.google.com/?cid=0x0:0xfff2d091da3235e2
supermarket,supermarket,ANUGERAH JAYA CELL,"M2XJ+7H9, Kasonaweja, Kec. Mamberamo Tengah, Kabupaten Mamberamo Raya, Papua 99376","Kasonaweja, Kec. Mamberamo Tengah, Kabupaten Mamberamo Raya",PAPUA,99376.0,Indonesia,,-2.3033078,138.0307507,https://maps.google.com/?cid=0x0:0x4237821d9bc0c075
supermarket,Toko umum,Pingir kali,"M2HJ+98, Danau Bira, Kec. Mamberamo Tengah, Kabupaten Mamberamo Raya, Papua","Kabupaten Mamberamo Raya, Papua",PAPUA,,Indonesia,,-2.321525,138.0307867,https://maps.google.com/?cid=0x0:0x5123b5fee09a46f3
supermarket,Kios,Kios IZZAH JAYA,"Jl. Batavia, Kasonaweja, Kec. Mamberamo Tengah, Kabupaten Mamberamo Raya, Papua 98692","Kasonaweja, Kec. Mamberamo Tengah, Kabupaten Mamberamo Raya",PAPUA,98692.0,Indonesia,81240956924.0,-2.3030324,138.0307082,https://maps.google.com/?cid=0x0:0x4c59d974832d98d3
supermarket,supermarket,FC SEJAHTERA (Foto Copy SEJAHTERA/Fotocopy),"M2XM+M6V, Kasonaweja, Kec. Mamberamo Tengah, Kabupaten Mamberamo Raya, Papua","Kabupaten Mamberamo Raya, Papua",PAPUA,,Indonesia,,-2.3012485,138.0330716,https://maps.google.com/?cid=0x0:0xc66c8292e1ebf525
supermarket,Kios,Kios Quin,"M2JR+9Q2, Kasonaweja, Kec. Mamberamo Tengah, Kabupaten Mamberamo Raya, Papua","Kabupaten Mamberamo Raya, Papua",PAPUA,,Indonesia,,-2.3191902,138.0418805,https://maps.google.com/?cid=0x0:0x32bff603a91f6254
supermarket,supermarket,Fotocopyan Sinar Arqua,"M2XM+M6V, Kasonaweja, Kec. Mamberamo Tengah, Kabupaten Mamberamo Raya, Papua","Kabupaten Mamberamo Raya, Papua",PAPUA,,Indonesia,,-2.3007677,138.033053,https://maps.google.com/?cid=0x0:0x24df74353e956e35
supermarket,Toko Ponsel,Mambramo cell,"P2CQ+C55, Kasonaweja, Kec. Mamberamo Tengah, Kabupaten Mamberamo Raya, Papua","Kabupaten Mamberamo Raya, Papua",PAPUA,,Indonesia,81248417900.0,-2.278995,138.037994,https://maps.google.com/?cid=0x0:0xe82bc8001004aa72
supermarket,Kantor Administrasi Kota,Gersen Fc,"P23P+6J, Kasonaweja, Kec. Mamberamo Tengah, Kabupaten Mamberamo Raya, Papua","Kabupaten Mamberamo Raya, Papua",PAPUA,,Indonesia,,-2.296039,138.036437,https://maps.google.com/?cid=0x0:0x7d975c1f28a08a27
supermarket,Kios,Kios Wahyu,"J2JP+3F3, Danau Bira, Kec. Mamberamo Tengah, Kabupaten Mamberamo Raya, Papua","Kabupaten Mamberamo Raya, Papua",PAPUA,,Indonesia,,-2.369859,138.0361684,https://maps.google.com/?cid=0x0:0x1e88a818dbbabc9f
supermarket,Kios,Ruko Pak. Anton Renyaan,"Burmeso, Kec. Mamberamo Tengah, Kabupaten Mamberamo Raya, Papua 98629","Kec. Mamberamo Tengah, Kabupaten Mamberamo Raya",PAPUA,98629.0,Indonesia,,-2.3288486,138.0068256,https://maps.google.com/?cid=0x0:0x56f229c775c5ad8a
supermarket,supermarket,Papua 99377,"Kabupaten Mamberamo Raya, Papua","Kabupaten Mamberamo Raya, Papua",PAPUA,,Indonesia,,-2.9302628,138.558749,https://maps.google.com/?cid=0x0:0x56875374c777610f
supermarket,Pusat Perbelanjaan,Papua Supermarket  Dept. Store,"4869+F77 Bar, Sawagumu, Kec. Sorong Utara, Kota Sorong, Papua Bar. 98416","Sawagumu, Kec. Sorong Utara, Kota Sorong",PAPUA,98416.0,Indonesia,9513160123.0,-0.888831,131.3181847,https://maps.google.com/?cid=0x0:0x7b5f0926a74ad213
supermarket,Toko bahan makanan,kios FARA,"JF6V+V2P, Bumi Wonorejo, Distrik Nabire, Kabupaten Nabire, Papua 98818","Bumi Wonorejo, Distrik Nabire, Kabupaten Nabire",PAPUA,98818.0,Indonesia,85344375050.0,-3.3877963,135.4925749,https://maps.google.com/?cid=0x0:0x1a925867fb35b438
supermarket,supermarket,Asraf Kios,"FF49+2Q3, Doyo Baru, Distrik Waibu, Kabupaten Jayapura, Papua 99352","Doyo Baru, Distrik Waibu, Kabupaten Jayapura",PAPUA,99352.0,Indonesia,,-2.5449813,140.4694296,https://maps.google.com/?cid=0x0:0xe575bec370b610a5
supermarket,supermarket,KIOS HENDRI,"5M4C+H6F, Firo, Inggerus, Kabupaten Waropen, Papua","Kabupaten Waropen, Papua",PAPUA,,Indonesia,,-2.8435717,136.670534,https://maps.google.com/?cid=0x0:0x1610a42ee94712e7
supermarket,Toko Swalayan,Ranch Market Pesanggrahan,"1, Jl. Pesanggrahan No.2, Kembangan Sel., Kec. Kembangan, Kota Jakarta Barat, Daerah Khusus Ibukota Jakarta 11610","Jl. Pesanggrahan No.2, Kembangan Sel., Kec. Kembangan, Kota Jakarta Barat",PAPUA,11610.0,Indonesia,2158304842.0,-6.1883181,106.7561831,https://maps.google.com/?cid=0x0:0x59972408c2ef6a6e
supermarket,Toko Swalayan,Ranch Market Kemang,"Jl. Kemang Raya No.66 68, RT.8/RW.2, Bangka, Mampang Prapatan, South Jakarta City, Jakarta 12730","RT.8/RW.2, Bangka, Mampang Prapatan, South Jakarta City",PAPUA,12730.0,Indonesia,81382217182.0,-6.2641983,106.8159772,https://maps.google.com/?cid=0x0:0x8a811b9772a51004
supermarket,Toko Swalayan,Ranch Market Grand Indonesia,"Grand Indonesia Shoping Town East Mall, Jl. MH Thamrin No.1 Lantai LG, RT.1/RW.5, Menteng, Kec. Menteng, Kota Jakarta Pusat, Daerah Khusus Ibukota Jakarta 10310","Jl. MH Thamrin No.1 Lantai LG, RT.1/RW.5, Menteng, Kec. Menteng, Kota Jakarta Pusat",PAPUA,10310.0,Indonesia,2123599054.0,-6.1963902,106.8225851,https://maps.google.com/?cid=0x0:0xdb199471a47076d0
supermarket,Toko Swalayan,Hadi Supermarket,"Jl. Frans Kaisepo No.5, RT. 003/01, Warari, Kec. Yapen Sel., Kabupaten Kepulauan Yapen, Papua 98212","RT. 003/01, Warari, Kec. Yapen Sel., Kabupaten Kepulauan Yapen",PAPUA,98212.0,Indonesia,98334276.0,-1.8751153,136.2490809,https://maps.google.com/?cid=0x0:0xf67310d4ed062031
supermarket,supermarket,Papua,,Papua,PAPUA,,Indonesia,,-4.269928,138.0803529,https://maps.google.com/?cid=0x0:0xeba94e9c5eefe673
supermarket,Toko,Toko Limas,"46FV+8WJ, Jl. KPR, Warari, Kec. Yapen Sel., Kabupaten Kepulauan Yapen, Papua 98213","Jl. KPR, Warari, Kec. Yapen Sel., Kabupaten Kepulauan Yapen",PAPUA,98213.0,Indonesia,81354034087.0,-1.8766524,136.2447558,https://maps.google.com/?cid=0x0:0xf22d6f17118f67b3
supermarket,Toko umum,Kios Cantika,"QCJC+65J, Jln Poros, Kemon Jaya Sp V, Waropen Bawah, Waropen Regency, Papua 98261","Jln Poros, Kemon Jaya Sp V, Waropen Bawah, Waropen Regency",PAPUA,98261.0,Indonesia,,-2.219416,136.420393,https://maps.google.com/?cid=0x0:0x7a14ff21db867076
supermarket,Toko Bahan Bangunan,Toko Multi Bangunan,"Q97H+9V2, Sarafambai, Kec. Waropen Bawah, Kabupaten Waropen, Papua 98261","Sarafambai, Kec. Waropen Bawah, Kabupaten Waropen",PAPUA,98261.0,Indonesia,,-2.2366153,136.3796343,https://maps.google.com/?cid=0x0:0x8fe10ca526096f47
supermarket,Toko,Toko Merpati,"467Q+WFV, Jl. Moh. Yamin, Pasir Hitam, Kec. Yapen Sel., Kabupaten Kepulauan Yapen, Papua 98215","Jl. Moh. Yamin, Pasir Hitam, Kec. Yapen Sel., Kabupaten Kepulauan Yapen",PAPUA,98215.0,Indonesia,,-1.8851497,136.238664,https://maps.google.com/?cid=0x0:0xe5cb342ce69ffec0
supermarket,Toko umum,ARFAN BUAH,"Jl. Poros, Mambui, Kec. Urei Faisei, Kabupaten Waropen, Papua 98261","Mambui, Kec. Urei Faisei, Kabupaten Waropen",PAPUA,98261.0,Indonesia,82238411439.0,-2.2052385,136.4297002,https://maps.google.com/?cid=0x0:0x8e3455f3bbc6436
supermarket,Toko Fotokopi,Toko Harumi,"Q9JW+PXF, Batu papan, Kec. Urei Faisei, Kabupaten Waropen, Papua 98261","Batu papan, Kec. Urei Faisei, Kabupaten Waropen",PAPUA,98261.0,Indonesia,81314090011.0,-2.2081245,136.4167185,https://maps.google.com/?cid=0x0:0xeff682a7f154f141
supermarket,Kios,Kios Adli,"QCJC+VCV, Batu Zaman, Kec. Waropen Bawah, Kabupaten Waropen, Papua 98261","Batu Zaman, Kec. Waropen Bawah, Kabupaten Waropen",PAPUA,98261.0,Indonesia,81248323782.0,-2.217774,136.4210565,https://maps.google.com/?cid=0x0:0xa119f133b8c93b6e
supermarket,Kios,Kios Dilan,"QCQ7+MF5, Kemon Jaya Sp V, Kec. Urei Faisei, Kabupaten Waropen, Papua 98261","Kemon Jaya Sp V, Kec. Urei Faisei, Kabupaten Waropen",PAPUA,98261.0,Indonesia,,-2.2108684,136.4137461,https://maps.google.com/?cid=0x0:0xd5076f7a9623189
supermarket,Toko Buku,Indah Pasaraya Serui Indah,"Jl. Moh. Yamin, Serui Kota, Kec. Yapen Sel., Kabupaten Kepulauan Yapen, Papua 98215","Serui Kota, Kec. Yapen Sel., Kabupaten Kepulauan Yapen",PAPUA,98215.0,Indonesia,,-1.8836014,136.2384964,https://maps.google.com/?cid=0x0:0x7d9f1453d5882191
supermarket,Komplek perumahan,Rumah Mawar,"PC6F+J66, Botawa, Oadate, Kabupaten Waropen, Papua 98261","Botawa, Oadate, Kabupaten Waropen",PAPUA,98261.0,Indonesia,,-2.2884709,136.4230265,https://maps.google.com/?cid=0x0:0xc9548af4b3ba368d
supermarket,Kios,KIOS HENDRI,"Jln. Darat Kampunh Rorisi, Kabupaten Waropen, Papua 98261",Kabupaten Waropen,PAPUA,98261.0,Indonesia,82193708165.0,-2.6556009,136.4393054,https://maps.google.com/?cid=0x0:0xed71ea398377323
supermarket,Toko umum,Toko Atma Jaya,"Jl sp v jalur 2 timur, Batu Zaman, Kec. Waropen Bawah, Kabupaten Waropen, Papua","Kabupaten Waropen, Papua",PAPUA,,Indonesia,81253104566.0,-2.2265119,136.4233701,https://maps.google.com/?cid=0x0:0x2bf4c227274b9cf5
supermarket,supermarket,Benuki,"Kabupaten Mamberamo Raya, Papua","Kabupaten Mamberamo Raya, Papua",PAPUA,,Indonesia,,-2.1703445,137.6061625,https://maps.google.com/?cid=0x0:0x52cfc10baae62c4
supermarket,supermarket,Toko/Kios Benige,"755G+W6W, Buspun, Distrik Gresi Selatan, Kabupaten Jayapura, Papua 99357","Buspun, Distrik Gresi Selatan, Kabupaten Jayapura",PAPUA,99357.0,Indonesia,,-2.7401319,140.1755892,https://maps.google.com/?cid=0x0:0x7daa3600c156ebe7
supermarket,Pusat Perbelanjaan,Papua Supermarket  Dept. Store,"4869+F77 Bar, Sawagumu, Kec. Sorong Utara, Kota Sorong, Papua Bar. 98416","Sawagumu, Kec. Sorong Utara, Kota Sorong",PAPUA,98416.0,Indonesia,9513160123.0,-0.888831,131.3181847,https://maps.google.com/?cid=0x0:0x7b5f0926a74ad213
supermarket,supermarket,KIOS HENDRI,"5M4C+H6F, Firo, Inggerus, Kabupaten Waropen, Papua","Kabupaten Waropen, Papua",PAPUA,,Indonesia,,-2.8435717,136.670534,https://maps.google.com/?cid=0x0:0x1610a42ee94712e7
supermarket,supermarket,Kios Rizky,"7GG4+7MR, Wasior II, Distrik Wasior, Kabupaten Teluk Wondama, Papua Bar. 98362","Wasior II, Distrik Wasior, Kabupaten Teluk Wondama",PAPUA,98362.0,Indonesia,,-2.7242502,134.5066512,https://maps.google.com/?cid=0x0:0xa597a86fb80fd52d
supermarket,Restoran,Ben's Independent Grocer @ Publika,"Publika, Lot 1A, 83-95, Jln Dutamas 1, 50480 Kuala Lumpur, Wilayah Persekutuan Kuala Lumpur, Malaysia",Kuala Lumpur,PAPUA,50480.0,Indonesia,60362052036.0,3.171105,101.6643855,https://maps.google.com/?cid=0x0:0x2f75975de6db43d1
supermarket,Komplek perumahan,Rumah Bpk Gustaf. L,"4859+784, Klawuyuk, Distrik Sorong Timur, Kota Sorong, Papua Bar. 98416","Klawuyuk, Distrik Sorong Timur, Kota Sorong",PAPUA,98416.0,Indonesia,,-0.8918739,131.3183248,https://maps.google.com/?cid=0x0:0x30559e7e5eb96ee4
supermarket,Pusat Perbelanjaan,Papua Supermarket  Dept. Store,"4869+F77 Bar, Sawagumu, Kec. Sorong Utara, Kota Sorong, Papua Bar. 98416","Sawagumu, Kec. Sorong Utara, Kota Sorong",PAPUA,98416.0,Indonesia,9513160123.0,-0.888831,131.3181847,https://maps.google.com/?cid=0x0:0x7b5f0926a74ad213
supermarket,Minimarket,SAGA Supermarket  Dept. Store,"Jalan A. Yani, Ruko Kuda Laut, Klademak, Kecamatan Sorong Manoi, Kota Sorong, Papua Bar. 98414","Ruko Kuda Laut, Klademak, Kecamatan Sorong Manoi, Kota Sorong",PAPUA,98414.0,Indonesia,951322784.0,-0.8765248,131.2576755,https://maps.google.com/?cid=0x0:0x963043ed646a7e1e
supermarket,Toko Rokok Elektrik,VOB vape vapor pod Pejaten,"Jl. Pejaten Raya No.19A 13, RT.13/RW.2, Jati Padang, Ps. Minggu, Kota Jakarta Selatan, Daerah Khusus Ibukota Jakarta 12540","RT.13/RW.2, Jati Padang, Ps. Minggu, Kota Jakarta Selatan",PAPUA,12540.0,Indonesia,8568534406.0,-6.279447,106.8335622,https://maps.google.com/?cid=0x0:0x7c9e4effe1213739
