Category,Real Category,Business Name,Address,City,State,Postal Code,Country,Phone,Email,Website,Latitude,Longitude,Map Link,Details Link
komplek housing,komplek housing,Kec. Paga,"Kabupaten Sikka, Nusa Tenggara Tim.","Kabupaten Sikka, Nusa Tenggara Tim.",NUSA TENGGARA TIMUR,,Indonesia,,,,-8.777.124,1.220.455.049,https://maps.google.com/?cid=0x0:0xa953ab91d631f5e0,
komplek housing,Komplek perumahan,Pondok Gede Housing II,"Housing II, Jl. Raya Hankam, RT.001/RW.004, Jatirahayu, Pondok Gede, Bekasi, West Java","Kota Bks, Jawa Barat",NUSA TENGGARA TIMUR,,Indonesia,,,,-62.876.701,1.069.147.674,https://maps.google.com/?cid=0x0:0x2a52e601c20d18f2,
komplek housing,Kantor Perusahaan,Komplek raya housing blok E,"Komplek raya hosing blok E.6 RT.003/001, Jatiwaringin, Kec. Pd. Gede","Kota Bks, Jawa Barat",NUSA TENGGARA TIMUR,,Indonesia,,,,-62.811.216,1.069.102.168,https://maps.google.com/?cid=0x0:0x8256ca23a46e5e57,
komplek housing,komplek housing,Nusa Tenggara Tim. 86113,"Kota Uneng, Kec. Alok, Kabupaten Sikka, Nusa Tenggara Tim.","Kabupaten Sikka, Nusa Tenggara Tim.",NUSA TENGGARA TIMUR,,Indonesia,,,,-86.167.643,1.222.178.482,https://maps.google.com/?cid=0x0:0xddb39f86610c6a42,
komplek housing,komplek housing,Kec. Tebet,"Kota Jakarta Selatan, Daerah Khusus Ibukota Jakarta","Kota Jakarta Selatan, Daerah Khusus Ibukota Jakarta",NUSA TENGGARA TIMUR,,Indonesia,,,,-62.251.223,1.068.549.881,https://maps.google.com/?cid=0x0:0xd575e31c807295f9,
komplek housing,komplek housing,Kec. Mego,"Kabupaten Sikka, Nusa Tenggara Tim.","Kabupaten Sikka, Nusa Tenggara Tim.",NUSA TENGGARA TIMUR,,Indonesia,,,,-87.114.509,1.220.783.314,https://maps.google.com/?cid=0x0:0xa5687f798ee105f2,
komplek housing,Komplek perumahan,Perumahan Mawar Tamansari Residence,"J2J9+JJR, Taman Sari, Kec. Setu, Kabupaten Bekasi, Jawa Barat 17320","Taman Sari, Kec. Setu, Kabupaten Bekasi",NUSA TENGGARA TIMUR,17320.0,Indonesia,8989912391,,,-63.682.149,1.070.190.346,https://maps.google.com/?cid=0x0:0x46fc2b08e2bb3dfa,
komplek housing,Pembangunan Perumahan,MALIHAH RESIDENCE 2,"J2F4+VHF, Taman Rahayu, Kec. Setu, Kabupaten Bekasi, Jawa Barat","Kabupaten Bekasi, Jawa Barat",NUSA TENGGARA TIMUR,,Indonesia,,,,-63.753.067,107.006.424,https://maps.google.com/?cid=0x0:0x7396fd8d5af34f9a,
komplek housing,Komplek perumahan,Ruby Residence Tamansari,"J2VC+F6R, Jl. Pangkalan II, Burangkeng, Kec. Setu, Kabupaten Bekasi, Jawa Barat 17320","Jl. Pangkalan II, Burangkeng, Kec. Setu, Kabupaten Bekasi",NUSA TENGGARA TIMUR,17320.0,Indonesia,85693589513,,,-6.356.058,1.070.203.673,https://maps.google.com/?cid=0x0:0xca8c4136c6637139,
komplek housing,komplek housing,Rumah Mego,"Jl. Amal Raya No.40 6, RT.6/RW.1, Pd. Bambu, Kec. Duren Sawit, Kota Jakarta Timur, Daerah Khusus Ibukota Jakarta 13430","RT.6/RW.1, Pd. Bambu, Kec. Duren Sawit, Kota Jakarta Timur",NUSA TENGGARA TIMUR,13430.0,Indonesia,,,,-62.263.046,1.068.996.181,https://maps.google.com/?cid=0x0:0x83c9ebaa1afef2a9,
komplek housing,komplek housing,Kec. Lela,"Kabupaten Sikka, Nusa Tenggara Tim.","Kabupaten Sikka, Nusa Tenggara Tim.",NUSA TENGGARA TIMUR,,Indonesia,,,,-87.287.435,1.221.732.061,https://maps.google.com/?cid=0x0:0x60b6bf2eed028e82,
komplek housing,komplek housing,Lela,"Kec. Lela, Kabupaten Sikka, Nusa Tenggara Tim.","Kabupaten Sikka, Nusa Tenggara Tim.",NUSA TENGGARA TIMUR,,Indonesia,,,,-87.181.233,1.221.717.668,https://maps.google.com/?cid=0x0:0x84775d0c8bcdde43,
komplek housing,Komplek perumahan,Aurelia Residence,"M25W+3X2, Ciledug, Kec. Setu, Kabupaten Bekasi, Jawa Barat 17320","Ciledug, Kec. Setu, Kabupaten Bekasi",NUSA TENGGARA TIMUR,17320.0,Indonesia,,,,-63.435.648,1.070.469.169,https://maps.google.com/?cid=0x0:0x239232074729643e,
komplek housing,Pembangunan Perumahan,Metland Puri,"Petir, Kec. Cipondoh, Kota Tangerang, Banten 15147","Kec. Cipondoh, Kota Tangerang",NUSA TENGGARA TIMUR,15147.0,Indonesia,81287154606,,,-61.885.385,1.067.133.251,https://maps.google.com/?cid=0x0:0xf3f8b5c93024ab06,
komplek housing,Perumahan,Aurelia Residence 2,"Blk. H No.26, Ciledug, Kec. Setu, Kabupaten Bekasi, Jawa Barat 17320","Ciledug, Kec. Setu, Kabupaten Bekasi",NUSA TENGGARA TIMUR,17320.0,Indonesia,,,,-63.516.055,1.070.474.522,https://maps.google.com/?cid=0x0:0xc8e14ff626c70012,
komplek housing,Komplek perumahan,Kingstar Residence,"VXJW+PQ3, Pantai Makmur, Kec. Tarumajaya, Kabupaten Bekasi, Jawa Barat","Kabupaten Bekasi, Jawa Barat",NUSA TENGGARA TIMUR,,Indonesia,,,,-61.182.341,1.069.969.098,https://maps.google.com/?cid=0x0:0x470c3a95618298c8,
komplek housing,Komplek perumahan,Rumah 1,"M334+MJ6, Cibening, Kec. Setu, Kabupaten Bekasi, Jawa Barat 17320","Cibening, Kec. Setu, Kabupaten Bekasi",NUSA TENGGARA TIMUR,17320.0,Indonesia,,,,-63.450.833,1.070.565,https://maps.google.com/?cid=0x0:0xfa5e5f308d6e04c5,
komplek housing,komplek housing,Komplek Housing,"Blok Bojong Nangka I, Jl. Ring Rudal Blok Bojong Nangka I No.68, RT.001/RW.007, Jatirahayu, Kec. Pd. Melati, Kota Bks, Jawa Barat 17414","Jl. Ring Rudal Blok Bojong Nangka I No.68, RT.001/RW.007, Jatirahayu, Kec. Pd. Melati, Kota Bks",NUSA TENGGARA TIMUR,17414.0,Indonesia,,,,-6.293.724,1.069.165.114,https://maps.google.com/?cid=0x0:0x9c50464976dee674,
komplek housing,Komplek perumahan,Jln Nita - Kotin,"858C+G4Q, Tebuk, Kec. Nita, Kabupaten Sikka, Nusa Tenggara Tim.","Kabupaten Sikka, Nusa Tenggara Tim.",NUSA TENGGARA TIMUR,,Indonesia,,,,-86.836.658,1.221.703.603,https://maps.google.com/?cid=0x0:0x517562a258670649,
komplek housing,Komplek perumahan,ELSY,"85C9+9H2, Nita, Kec. Nita, Kabupaten Sikka, Nusa Tenggara Tim.","Kabupaten Sikka, Nusa Tenggara Tim.",NUSA TENGGARA TIMUR,,Indonesia,,,,-86.791.162,1.221.688.973,https://maps.google.com/?cid=0x0:0xf9ad26015841889b,
komplek housing,Komplek perumahan,Nita House,"2 Blok C3 No, Jl. Amarta Residence No.34, Citayam, Kec. Tajur Halang, Kabupaten Bogor, Jawa Barat 16320","Jl. Amarta Residence No.34, Citayam, Kec. Tajur Halang, Kabupaten Bogor",NUSA TENGGARA TIMUR,16320.0,Indonesia,,,,-64.495.225,1.067.459.029,https://maps.google.com/?cid=0x0:0x14bcd54ed8413a8e,
komplek housing,Komplek perumahan,Rumah Nita,"Jl otto iskandar gg komodo No.742, RT.001 rw015, Bojongherang, Kec. Cianjur, Kabupaten Cianjur, Jawa Barat","Kabupaten Cianjur, Jawa Barat",NUSA TENGGARA TIMUR,,Indonesia,,,,-68.155.806,1.071.388.706,https://maps.google.com/?cid=0x0:0xda849bd9d432cc83,
komplek housing,komplek housing,Kec. Alok,"Kabupaten Sikka, Nusa Tenggara Tim.","Kabupaten Sikka, Nusa Tenggara Tim.",NUSA TENGGARA TIMUR,,Indonesia,,,,-86.245.579,1.222.146.965,https://maps.google.com/?cid=0x0:0xe8b3116f53fe9712,
komplek housing,Pembangunan Perumahan,Perumahan Alok Indah,"96C8+8VW, Unnamed Road, Kota Baru, Kec. Alok Tim., Kabupaten Sikka, Nusa Tenggara Tim.","Kabupaten Sikka, Nusa Tenggara Tim.",NUSA TENGGARA TIMUR,,Indonesia,,,,-8.629.147,1.222.172.131,https://maps.google.com/?cid=0x0:0xe498d353b2b25b6a,
komplek housing,Komplek perumahan,Perumahan Alok indah 2,"9698+F89, Kota Baru, Kec. Alok Tim., Kabupaten Sikka, Nusa Tenggara Tim.","Kabupaten Sikka, Nusa Tenggara Tim.",NUSA TENGGARA TIMUR,,Indonesia,,,,-86.312.891,1.222.159.441,https://maps.google.com/?cid=0x0:0x8afabf9f9f28d6f0,
komplek housing,Komplek perumahan,Komplek Abadi,"Jl. Kolonel Sugiono No.64, RT.5/RW.4, Duren Sawit, Kec. Duren Sawit, Kota Jakarta Timur, Daerah Khusus Ibukota Jakarta 13440","RT.5/RW.4, Duren Sawit, Kec. Duren Sawit, Kota Jakarta Timur",NUSA TENGGARA TIMUR,13440.0,Indonesia,,,,-62.263.602,1.069.090.587,https://maps.google.com/?cid=0x0:0x411a933e73c7ea82,
komplek housing,Komplek perumahan,Alina Residence,"M343+37X, Jl. Sakura Raya, Rawa Atug, Ciledug, Kec. Setu, Kabupaten Bekasi, Jawa Barat 17320","Jl. Sakura Raya, Rawa Atug, Ciledug, Kec. Setu, Kabupaten Bekasi",NUSA TENGGARA TIMUR,17320.0,Indonesia,,,,-6.344.763,1.070.532.355,https://maps.google.com/?cid=0x0:0x1129cef17d89d562,
komplek housing,Komplek perumahan,Rumah 1,"M334+MJ6, Cibening, Kec. Setu, Kabupaten Bekasi, Jawa Barat 17320","Cibening, Kec. Setu, Kabupaten Bekasi",NUSA TENGGARA TIMUR,17320.0,Indonesia,,,,-63.450.833,1.070.565,https://maps.google.com/?cid=0x0:0xfa5e5f308d6e04c5,
komplek housing,Pembangunan Perumahan,Perumahan Cluster Armenia Residence,"Jl. Mede Raya, Sukamekar, Kec. Sukawangi, Kabupaten Bekasi, Jawa Barat 17620","Sukamekar, Kec. Sukawangi, Kabupaten Bekasi",NUSA TENGGARA TIMUR,17620.0,Indonesia,85777533328,,,-61.413.973,1.070.560.334,https://maps.google.com/?cid=0x0:0x61c4b596228c8b8,
komplek housing,Pembangunan Perumahan,Gardenia City 3 Muktiwari Cibitung blok gc 24 no 10,"Jl. Kp. Bulak Kunyit, Muktiwari, Kec. Cibitung, Kabupaten Bekasi, Jawa Barat 17520","Muktiwari, Kec. Cibitung, Kabupaten Bekasi",NUSA TENGGARA TIMUR,17520.0,Indonesia,,,,-62.182.911,1.071.004.182,https://maps.google.com/?cid=0x0:0x32bd4bb03767400e,
komplek housing,Hotel,Green New Residence,"Jl. Green New Residence, Kedung Pengawas, Kec. Babelan, Kabupaten Bekasi, Jawa Barat 17610","Kedung Pengawas, Kec. Babelan, Kabupaten Bekasi",NUSA TENGGARA TIMUR,17610.0,Indonesia,,,,-61.420.364,107.044.089,https://maps.google.com/?cid=0x0:0x60e56150de277511,
komplek housing,Komplek perumahan,Promenade Parkplace,"Jl. Letnan Jaja, Burangkeng, Kec. Setu, Kabupaten Bekasi, Jawa Barat 17322","Burangkeng, Kec. Setu, Kabupaten Bekasi",NUSA TENGGARA TIMUR,17322.0,Indonesia,8118777878,,,-63.458.615,1.070.316.054,https://maps.google.com/?cid=0x0:0x80b7d845b90c0560,
komplek housing,Apartemen berlayanan,Apartment TreePark City,"Jl. MH. Thamrin No.7, Cikokol, Kec. Tangerang, Kota Tangerang, Banten 15117","Cikokol, Kec. Tangerang, Kota Tangerang",NUSA TENGGARA TIMUR,15117.0,Indonesia,2129542000,,,-62.141.515,1.066.311.254,https://maps.google.com/?cid=0x0:0x2b39ae47232fe847,
komplek housing,komplek housing,Komplek Housing,"Blok Bojong Nangka I, Jl. Ring Rudal Blok Bojong Nangka I No.68, RT.001/RW.007, Jatirahayu, Kec. Pd. Melati, Kota Bks, Jawa Barat 17414","Jl. Ring Rudal Blok Bojong Nangka I No.68, RT.001/RW.007, Jatirahayu, Kec. Pd. Melati, Kota Bks",NUSA TENGGARA TIMUR,17414.0,Indonesia,,,,-6.293.724,1.069.165.114,https://maps.google.com/?cid=0x0:0x9c50464976dee674,
komplek housing,komplek housing,House,"M82C+289, Pemana, Kec. Alok, Kabupaten Sikka, Nusa Tenggara Tim.","Kabupaten Sikka, Nusa Tenggara Tim.",NUSA TENGGARA TIMUR,,Indonesia,,,,-83.498.027,122.320.794,https://maps.google.com/?cid=0x0:0x231717d73d99e090,
komplek housing,Komplek perumahan,Alok,"18, RT.18/RW.8, Pegangsaan, Kec. Menteng, Kota Jakarta Pusat, Daerah Khusus Ibukota Jakarta 10320","RT.18/RW.8, Pegangsaan, Kec. Menteng, Kota Jakarta Pusat",NUSA TENGGARA TIMUR,10320.0,Indonesia,,,,-62.039.353,1.068.555.275,https://maps.google.com/?cid=0x0:0xbe5b51a331c8d599,
komplek housing,Komplek perumahan,Tambak 23,"Jl. Tambak No.23, RT.2/RW.4, Pegangsaan, Kec. Menteng, Kota Jakarta Pusat, Daerah Khusus Ibukota Jakarta 10320","RT.2/RW.4, Pegangsaan, Kec. Menteng, Kota Jakarta Pusat",NUSA TENGGARA TIMUR,10320.0,Indonesia,,,,-62.046.844,1.068.493.624,https://maps.google.com/?cid=0x0:0xe71a5ac39b264dba,
komplek housing,komplek housing,House,"M82C+289, Pemana, Kec. Alok, Kabupaten Sikka, Nusa Tenggara Tim.","Kabupaten Sikka, Nusa Tenggara Tim.",NUSA TENGGARA TIMUR,,Indonesia,,,,-83.498.027,122.320.794,https://maps.google.com/?cid=0x0:0x231717d73d99e090,
komplek housing,komplek housing,Kec. Alok,"Kabupaten Sikka, Nusa Tenggara Tim.","Kabupaten Sikka, Nusa Tenggara Tim.",NUSA TENGGARA TIMUR,,Indonesia,,,,-86.245.579,1.222.146.965,https://maps.google.com/?cid=0x0:0xe8b3116f53fe9712,
komplek housing,Pembangunan Perumahan,Kuwuwire,"964C+FQ5, Lkr. Luar Timur, Kuwuwire, Lepolima, Kec. Alok Tim., Kabupaten Sikka, Nusa Tenggara Tim. 86116","Lkr. Luar Timur, Kuwuwire, Lepolima, Kec. Alok Tim., Kabupaten Sikka",NUSA TENGGARA TIMUR,86116.0,Indonesia,,,,-8.643.867,122.221.981,https://maps.google.com/?cid=0x0:0xb5e7e0c2df5672ac,
komplek housing,Komplek perumahan,Tambak 23,"Jl. Tambak No.23, RT.2/RW.4, Pegangsaan, Kec. Menteng, Kota Jakarta Pusat, Daerah Khusus Ibukota Jakarta 10320","RT.2/RW.4, Pegangsaan, Kec. Menteng, Kota Jakarta Pusat",NUSA TENGGARA TIMUR,10320.0,Indonesia,,,,-62.046.844,1.068.493.624,https://maps.google.com/?cid=0x0:0xe71a5ac39b264dba,
komplek housing,Komplek perumahan,Alok,"18, RT.18/RW.8, Pegangsaan, Kec. Menteng, Kota Jakarta Pusat, Daerah Khusus Ibukota Jakarta 10320","RT.18/RW.8, Pegangsaan, Kec. Menteng, Kota Jakarta Pusat",NUSA TENGGARA TIMUR,10320.0,Indonesia,,,,-62.039.353,1.068.555.275,https://maps.google.com/?cid=0x0:0xbe5b51a331c8d599,
komplek housing,komplek housing,House,"M82C+289, Pemana, Kec. Alok, Kabupaten Sikka, Nusa Tenggara Tim.","Kabupaten Sikka, Nusa Tenggara Tim.",NUSA TENGGARA TIMUR,,Indonesia,,,,-83.498.027,122.320.794,https://maps.google.com/?cid=0x0:0x231717d73d99e090,
komplek housing,Komplek perumahan,Komplek Abadi,"Jl. Kolonel Sugiono No.64, RT.5/RW.4, Duren Sawit, Kec. Duren Sawit, Kota Jakarta Timur, Daerah Khusus Ibukota Jakarta 13440","RT.5/RW.4, Duren Sawit, Kec. Duren Sawit, Kota Jakarta Timur",NUSA TENGGARA TIMUR,13440.0,Indonesia,,,,-62.263.602,1.069.090.587,https://maps.google.com/?cid=0x0:0x411a933e73c7ea82,
komplek housing,komplek housing,Nusa Tenggara Tim. 86111,"Kota Uneng, Kec. Alok, Kabupaten Sikka, Nusa Tenggara Tim.","Kabupaten Sikka, Nusa Tenggara Tim.",NUSA TENGGARA TIMUR,,Indonesia,,,,-86.139.767,1.222.125.928,https://maps.google.com/?cid=0x0:0x15b5b19775888894,
komplek housing,komplek housing,Palue,"Kabupaten Sikka, Nusa Tenggara Tim.","Kabupaten Sikka, Nusa Tenggara Tim.",NUSA TENGGARA TIMUR,,Indonesia,,,,-83.027.278,1.217.304.129,https://maps.google.com/?cid=0x0:0x417ca9cee20d2a8b,
komplek housing,komplek housing,Kec. Nelle,"Kabupaten Sikka, Nusa Tenggara Tim.","Kabupaten Sikka, Nusa Tenggara Tim.",NUSA TENGGARA TIMUR,,Indonesia,,,,-86.706.997,1.222.149.868,https://maps.google.com/?cid=0x0:0xc4faba53c04aa0f6,
komplek housing,Pembangunan Perumahan,Rumah Mr.Benny Mega,"Jalan Luar Maumere, Dusun Nara 1, Desa Lepolima, Kota Baru, Kec. Alok Tim., Kabupaten Sikka, Nusa Tenggara Tim.","Kabupaten Sikka, Nusa Tenggara Tim.",NUSA TENGGARA TIMUR,,Indonesia,,,,-86.387.741,1.222.150.992,https://maps.google.com/?cid=0x0:0x5fd6a89cfe2a902c,
komplek housing,komplek housing,House,"M82C+289, Pemana, Kec. Alok, Kabupaten Sikka, Nusa Tenggara Tim.","Kabupaten Sikka, Nusa Tenggara Tim.",NUSA TENGGARA TIMUR,,Indonesia,,,,-83.498.027,122.320.794,https://maps.google.com/?cid=0x0:0x231717d73d99e090,
komplek housing,Pembangunan Perumahan,Belakang lembaga,"96C8+582, Kota Baru, Kec. Alok Tim., Kabupaten Sikka, Nusa Tenggara Tim.","Kabupaten Sikka, Nusa Tenggara Tim.",NUSA TENGGARA TIMUR,,Indonesia,,,,-86.296.045,1.222.157.597,https://maps.google.com/?cid=0x0:0xcda8db651cad92e4,
komplek housing,Komplek perumahan,Rumah Manunai,"969M+W8X, Waioti, Kec. Alok Tim., Kabupaten Sikka, Nusa Tenggara Tim.","Kabupaten Sikka, Nusa Tenggara Tim.",NUSA TENGGARA TIMUR,,Indonesia,,,,-86.304.991,1.222.329.671,https://maps.google.com/?cid=0x0:0x666ba9cafd63a968,
komplek housing,Komplek perumahan,my home,"96J4+888, Jl. Kia Mego, RT.001/RW.007, Kota Uneng, Kec. Alok, Kabupaten Sikka, Nusa Tenggara Tim.","Kabupaten Sikka, Nusa Tenggara Tim.",NUSA TENGGARA TIMUR,,Indonesia,,,,-86.192.014,1.222.058.206,https://maps.google.com/?cid=0x0:0x616bff2862c1b364,
komplek housing,Tempat Ziarah,"Taman Replica Betlehem Nelle, Kabupaten Sikka, Provinsi Nusa Tenggara Timur.","Nelle Wutung, Kec. Nelle, Kabupaten Sikka, Nusa Tenggara Tim.","Kabupaten Sikka, Nusa Tenggara Tim.",NUSA TENGGARA TIMUR,,Indonesia,,,,-87.036.088,1.222.253.707,https://maps.google.com/?cid=0x0:0xf6fba53461d8a840,
komplek housing,komplek housing,Dusun Nele,"H992+MVP, Kojagete, Kec. Alok Tim., Kabupaten Sikka, Nusa Tenggara Tim.","Kabupaten Sikka, Nusa Tenggara Tim.",NUSA TENGGARA TIMUR,,Indonesia,,,,-84.307.853,1.223.522.071,https://maps.google.com/?cid=0x0:0x51b1d5e9bab5575e,
komplek housing,Komplek perumahan,Rumah tinggal,"96H8+2HG c'2, Kabor, Kec. Alok, Kabupaten Sikka, Nusa Tenggara Tim.","Kabupaten Sikka, Nusa Tenggara Tim.",NUSA TENGGARA TIMUR,,Indonesia,,,,-86.224.367,1.222.164.389,https://maps.google.com/?cid=0x0:0xacd65cfc965a49e3,
komplek housing,Perhimpunan Pengembang Perumahan,Rumah,"96CC+8RX, Jl baru, Beru, Kec. Alok Tim., Kabupaten Sikka, Nusa Tenggara Tim.","Kabupaten Sikka, Nusa Tenggara Tim.",NUSA TENGGARA TIMUR,,Indonesia,,,,-862.915,1.222.221.034,https://maps.google.com/?cid=0x0:0x411e305c1f861aea,
komplek housing,Komplek perumahan,Lorong gamansa c'2,"96H8+9C2, Jl. Nong Meak, Kabor, Kec. Alok, Kabupaten Sikka, Nusa Tenggara Tim.","Kabupaten Sikka, Nusa Tenggara Tim.",NUSA TENGGARA TIMUR,,Indonesia,,,,-86.216.022,1.222.160.152,https://maps.google.com/?cid=0x0:0xddf0eb7387631db0,
komplek housing,Pembangunan Perumahan,MALIHAH RESIDENCE 2,"J2F4+VHF, Taman Rahayu, Kec. Setu, Kabupaten Bekasi, Jawa Barat","Kabupaten Bekasi, Jawa Barat",NUSA TENGGARA TIMUR,,Indonesia,,,,-63.753.067,107.006.424,https://maps.google.com/?cid=0x0:0x7396fd8d5af34f9a,
komplek housing,Pengembang Realestat,CATALIA PRIVATE RESIDENCE 3,"Jl. Baru No.35-41, RT.3/RW.06, Jatimurni, Kec. Pd. Melati, Kota Bks, Jawa Barat 17341","RT.3/RW.06, Jatimurni, Kec. Pd. Melati, Kota Bks",NUSA TENGGARA TIMUR,17341.0,Indonesia,85280155595,,,-63.307.247,1.069.228.958,https://maps.google.com/?cid=0x0:0xe83868a97c64a80e,
komplek housing,Pembangunan Perumahan,Waemate,"96CF+VV3, Nangameting, Kec. Alok Tim., Kabupaten Sikka, Nusa Tenggara Tim.","Kabupaten Sikka, Nusa Tenggara Tim.",NUSA TENGGARA TIMUR,,Indonesia,,,,-86.279.478,1.222.247.016,https://maps.google.com/?cid=0x0:0x1778c758c8557014,
komplek housing,komplek housing,Kec. Waigete,"Kabupaten Sikka, Nusa Tenggara Tim.","Kabupaten Sikka, Nusa Tenggara Tim.",NUSA TENGGARA TIMUR,,Indonesia,,,,-86.130.119,1.224.201.024,https://maps.google.com/?cid=0x0:0x16594dfa6a2a7e88,
komplek housing,Komplek perumahan,Asha,"969H+MGQ, Nangameting, Kec. Alok Tim., Kabupaten Sikka, Nusa Tenggara Tim.","Kabupaten Sikka, Nusa Tenggara Tim.",NUSA TENGGARA TIMUR,,Indonesia,,,,-86.307.975,1.222.288.476,https://maps.google.com/?cid=0x0:0x29be4e117964e5e,
komplek housing,komplek housing,Kewapante,"Wairkoja, Kec. Kewapante, Kabupaten Sikka, Nusa Tenggara Tim.","Kabupaten Sikka, Nusa Tenggara Tim.",NUSA TENGGARA TIMUR,,Indonesia,,,,-8.639.874,122.285.103,https://maps.google.com/?cid=0x0:0xba7668ec3714c18a,
komplek housing,Komplek perumahan,Kewapante,"973W+799, Namangkewa, Kec. Kewapante, Kabupaten Sikka, Nusa Tenggara Tim.","Kabupaten Sikka, Nusa Tenggara Tim.",NUSA TENGGARA TIMUR,,Indonesia,,,,-86.468.407,1.222.959.976,https://maps.google.com/?cid=0x0:0x3034866efba2aaf1,
komplek housing,Pembangunan Perumahan,Rumah M. Musalimah,"976M+2R2, JL, Geliting, Kec. Kewapante, Flores, Nusa Tenggara Tim. 86181","JL, Geliting, Kec. Kewapante, Flores",NUSA TENGGARA TIMUR,86181.0,Indonesia,,,,-8.640.098,1.222.845.523,https://maps.google.com/?cid=0x0:0x4bdd465a357fa52d,
komplek housing,Komplek perumahan,Pensip,"Jl. Adi Sucipto No.10, Waioti, Kec. Alok Tim., Kabupaten Sikka, Nusa Tenggara Tim.","Kabupaten Sikka, Nusa Tenggara Tim.",NUSA TENGGARA TIMUR,,Indonesia,,,,-86.307.348,1.222.373.438,https://maps.google.com/?cid=0x0:0x920b49a03db2c334,
komplek housing,Pembangunan Perumahan,E. M,"9647+4P5, Lepolima, Kec. Alok Tim., Kabupaten Sikka, Nusa Tenggara Tim.","Kabupaten Sikka, Nusa Tenggara Tim.",NUSA TENGGARA TIMUR,,Indonesia,,,,-86.447.489,1.222.143.506,https://maps.google.com/?cid=0x0:0x8aa58bcb73c5257a,
komplek housing,Komplek perumahan,Wairotang,"976M+4VQ, Watumilok, Kec. Kangae, Kabupaten Sikka, Nusa Tenggara Tim.","Kabupaten Sikka, Nusa Tenggara Tim.",NUSA TENGGARA TIMUR,,Indonesia,,,,-86.396.625,1.222.847.344,https://maps.google.com/?cid=0x0:0xff108179819f9fe2,
komplek housing,komplek housing,Kec. Bola,"Kabupaten Sikka, Nusa Tenggara Tim.","Kabupaten Sikka, Nusa Tenggara Tim.",NUSA TENGGARA TIMUR,,Indonesia,,,,-8.744.265,1.222.997.081,https://maps.google.com/?cid=0x0:0xa85b3c83f6076567,
komplek housing,komplek housing,Nusa Tenggara Tim.,,Nusa Tenggara Tim.,NUSA TENGGARA TIMUR,,Indonesia,,,,-86.573.819,1.210.793.705,https://maps.google.com/?cid=0x0:0x1030bfbcaf71ae0,
komplek housing,Pembangunan Perumahan,Bone Bola (Home),"8XVP+G3, Golo Ndaring, Kec. Sano Nggoang, Kabupaten Manggarai Barat, Nusa Tenggara Tim.","Kabupaten Manggarai Barat, Nusa Tenggara Tim.",NUSA TENGGARA TIMUR,,Indonesia,,,,-86.561.299,1.199.851.723,https://maps.google.com/?cid=0x0:0x90faab0178e8deb0,
komplek housing,komplek housing,Dy,"CHCR+5FH, Pocolia, Kec. Poco Ranaka, Kabupaten Manggarai Timur, Nusa Tenggara Tim.","Kabupaten Manggarai Timur, Nusa Tenggara Tim.",NUSA TENGGARA TIMUR,,Indonesia,,,,-85.795.506,1.205.912.217,https://maps.google.com/?cid=0x0:0xfa175721d58e82ec,
komplek housing,Komplek perumahan,Pondok Gede Housing 1,"Jl. Cipta Raya No.45-3, RT.001/RW.003, Jatirahayu, Kec. Pd. Melati, Kota Bks, Jawa Barat 17414","RT.001/RW.003, Jatirahayu, Kec. Pd. Melati, Kota Bks",NUSA TENGGARA TIMUR,17414.0,Indonesia,,,,-62.852.504,1.069.163.397,https://maps.google.com/?cid=0x0:0x3132afedbf38cd61,
komplek housing,Komplek perumahan,Pondok Gede Housing II,"Housing II, Jl. Raya Hankam, RT.001/RW.004, Jatirahayu, Pondok Gede, Bekasi, West Java","Kota Bks, Jawa Barat",NUSA TENGGARA TIMUR,,Indonesia,,,,-62.876.701,1.069.147.674,https://maps.google.com/?cid=0x0:0x2a52e601c20d18f2,
komplek housing,Komplek perumahan,Pondok gede housing,"PW69+G7J, Jl. Teratai, RT.005/RW.003, Jatirahayu, Kec. Pd. Melati, Kota Bks, Jawa Barat 17414","Jl. Teratai, RT.005/RW.003, Jatirahayu, Kec. Pd. Melati, Kota Bks",NUSA TENGGARA TIMUR,17414.0,Indonesia,,,,-62.886.631,1.069.181.392,https://maps.google.com/?cid=0x0:0xe09247830c5049e9,
komplek housing,Komplek perumahan,Komplek Raya Housing/Molek Blok B No. 4,"PW95+CQ7, Jl. Raya Housing, RT.006/RW.011, Jatiwaringin, Kec. Pd. Gede, Kota Bks, Jawa Barat 17411","Jl. Raya Housing, RT.006/RW.011, Jatiwaringin, Kec. Pd. Gede, Kota Bks",NUSA TENGGARA TIMUR,17411.0,Indonesia,,,,-62.814.591,106.909.408,https://maps.google.com/?cid=0x0:0x47a4e28e626334ff,
komplek housing,komplek housing,Kec. Bola,"Kabupaten Sikka, Nusa Tenggara Tim.","Kabupaten Sikka, Nusa Tenggara Tim.",NUSA TENGGARA TIMUR,,Indonesia,,,,-8.744.265,1.222.997.081,https://maps.google.com/?cid=0x0:0xa85b3c83f6076567,
komplek housing,komplek housing,Nusa Tenggara Tim.,,Nusa Tenggara Tim.,NUSA TENGGARA TIMUR,,Indonesia,,,,-86.573.819,1.210.793.705,https://maps.google.com/?cid=0x0:0x1030bfbcaf71ae0,
komplek housing,Pembangunan Perumahan,Bone Bola (Home),"8XVP+G3, Golo Ndaring, Kec. Sano Nggoang, Kabupaten Manggarai Barat, Nusa Tenggara Tim.","Kabupaten Manggarai Barat, Nusa Tenggara Tim.",NUSA TENGGARA TIMUR,,Indonesia,,,,-86.561.299,1.199.851.723,https://maps.google.com/?cid=0x0:0x90faab0178e8deb0,
komplek housing,komplek housing,Khal,"6MXH+4GJ, Dalo, Pong Ruan, Kec. Kota Komba, Kabupaten Manggarai Timur, Nusa Tenggara Tim.","Kabupaten Manggarai Timur, Nusa Tenggara Tim.",NUSA TENGGARA TIMUR,,Indonesia,,,,-87.521.712,1.206.787.613,https://maps.google.com/?cid=0x0:0xad4dbfdf992b01d5,
komplek housing,Komplek perumahan,Boanawa Residence,"4MV3+MM3, Unnamed Road, Sel, Kel. Rukunlima, Ende Selatan, Ende Regency, East Nusa Tenggara","Kabupaten Ende, Nusa Tenggara Tim.",NUSA TENGGARA TIMUR,,Indonesia,,,,-8.855.862,1.216.541.615,https://maps.google.com/?cid=0x0:0x5a77a16b9f6d00bc,
komplek housing,Komplek perumahan,Komplek kampung baru,"5RMV+M59, Kel. Wolojita, Kec. Wolojita, Kabupaten Ende, Nusa Tenggara Tim.","Kabupaten Ende, Nusa Tenggara Tim.",NUSA TENGGARA TIMUR,,Indonesia,,,,-88.158.316,1.218.429.856,https://maps.google.com/?cid=0x0:0xff58d1f367025533,
komplek housing,komplek housing,Dy,"CHCR+5FH, Pocolia, Kec. Poco Ranaka, Kabupaten Manggarai Timur, Nusa Tenggara Tim.","Kabupaten Manggarai Timur, Nusa Tenggara Tim.",NUSA TENGGARA TIMUR,,Indonesia,,,,-85.795.506,1.205.912.217,https://maps.google.com/?cid=0x0:0xfa175721d58e82ec,
komplek housing,komplek housing,Depan lapangan bola kaki kalelu,"FW5P+HG4, Lamawalang, Kec. Solor Bar., Kabupaten Flores Timur, Nusa Tenggara Tim.","Kabupaten Flores Timur, Nusa Tenggara Tim.",NUSA TENGGARA TIMUR,,Indonesia,,,,-8.541.118,1.229.363.408,https://maps.google.com/?cid=0x0:0x9580a0589208bec6,
komplek housing,Komplek perumahan,Komplek Raya Housing/Molek Blok B No. 4,"PW95+CQ7, Jl. Raya Housing, RT.006/RW.011, Jatiwaringin, Kec. Pd. Gede, Kota Bks, Jawa Barat 17411","Jl. Raya Housing, RT.006/RW.011, Jatiwaringin, Kec. Pd. Gede, Kota Bks",NUSA TENGGARA TIMUR,17411.0,Indonesia,,,,-62.814.591,106.909.408,https://maps.google.com/?cid=0x0:0x47a4e28e626334ff,
komplek housing,Komplek perumahan,Pondok Gede Housing 1,"Jl. Cipta Raya No.45-3, RT.001/RW.003, Jatirahayu, Kec. Pd. Melati, Kota Bks, Jawa Barat 17414","RT.001/RW.003, Jatirahayu, Kec. Pd. Melati, Kota Bks",NUSA TENGGARA TIMUR,17414.0,Indonesia,,,,-62.852.504,1.069.163.397,https://maps.google.com/?cid=0x0:0x3132afedbf38cd61,
komplek housing,Komplek perumahan,Komplek Raya Housing Blok C No.6,"Jl. Bhineka, RT.006/RW.011, Jatiwaringin, Kec. Pd. Gede, Kota Bks, Jawa Barat 17411","RT.006/RW.011, Jatiwaringin, Kec. Pd. Gede, Kota Bks",NUSA TENGGARA TIMUR,17411.0,Indonesia,,,,-62.813.572,1.069.097.108,https://maps.google.com/?cid=0x0:0x8658ae7bd2f9a7a2,
komplek housing,Komplek perumahan,Pondok Gede Housing II,"Housing II, Jl. Raya Hankam, RT.001/RW.004, Jatirahayu, Pondok Gede, Bekasi, West Java","Kota Bks, Jawa Barat",NUSA TENGGARA TIMUR,,Indonesia,,,,-62.876.701,1.069.147.674,https://maps.google.com/?cid=0x0:0x2a52e601c20d18f2,
komplek housing,Komplek perumahan,Komplek Raya Housing Blok D no.6,"Jl. Raya Housing No.6 Blok D, RT.006/RW.011, Jatiwaringin, Pondok Gede, Bekasi, West Java 17411","RT.006/RW.011, Jatiwaringin, Pondok Gede, Bekasi",NUSA TENGGARA TIMUR,17411.0,Indonesia,218469215,,,-62.812.011,1.069.100.437,https://maps.google.com/?cid=0x0:0x1c9f453cf5cbab3a,
komplek housing,Komplek perumahan,Pondok gede housing,"PW69+G7J, Jl. Teratai, RT.005/RW.003, Jatirahayu, Kec. Pd. Melati, Kota Bks, Jawa Barat 17414","Jl. Teratai, RT.005/RW.003, Jatirahayu, Kec. Pd. Melati, Kota Bks",NUSA TENGGARA TIMUR,17414.0,Indonesia,,,,-62.886.631,1.069.181.392,https://maps.google.com/?cid=0x0:0xe09247830c5049e9,
komplek housing,Perhimpunan Pengembang Perumahan,kampung bugis,"F29P+XRV, Reroroja, Kec. Magepanda, Kabupaten Sikka, Nusa Tenggara Tim.","Kabupaten Sikka, Nusa Tenggara Tim.",NUSA TENGGARA TIMUR,,Indonesia,,,,-85.300.042,1.220.370.592,https://maps.google.com/?cid=0x0:0x6551f82c4f8809bd,
komplek housing,Komplek perumahan,Kampung Bugis Maumere,"C623+247, Jalan wuring, Wolomarang, Alok Barat, Sikka Regency, East Nusa Tenggara","Kabupaten Sikka, Nusa Tenggara Tim.",NUSA TENGGARA TIMUR,,Indonesia,,,,-85.999.501,1.222.028.011,https://maps.google.com/?cid=0x0:0x991c8e60eb45b1f4,
komplek housing,komplek housing,Kec. Magepanda,"Kabupaten Sikka, Nusa Tenggara Tim.","Kabupaten Sikka, Nusa Tenggara Tim.",NUSA TENGGARA TIMUR,,Indonesia,,,,-85.299.453,1.220.370.498,https://maps.google.com/?cid=0x0:0x6d7790c34b1db28c,
komplek housing,komplek housing,Kec. Waiblama,"Kabupaten Sikka, Nusa Tenggara Tim.","Kabupaten Sikka, Nusa Tenggara Tim.",NUSA TENGGARA TIMUR,,Indonesia,,,,-86.203.088,122.627.948,https://maps.google.com/?cid=0x0:0xefb14c7530baff74,
komplek housing,Rumah singgah,Charlin house,"C53M+3JW, Jl. Kajang Rabang, Wailiti, Kec. Alok Bar., Kabupaten Sikka, Nusa Tenggara Tim. 86114","Jl. Kajang Rabang, Wailiti, Kec. Alok Bar., Kabupaten Sikka",NUSA TENGGARA TIMUR,86114.0,Indonesia,,,,-85.972.709,1.221.840.936,https://maps.google.com/?cid=0x0:0xe1652b650a719d57,
komplek housing,Pembangunan Perumahan,Charlos home,"872F+CHJ, Blatatatin, Kec. Kangae, Kabupaten Sikka, Nusa Tenggara Tim.","Kabupaten Sikka, Nusa Tenggara Tim.",NUSA TENGGARA TIMUR,,Indonesia,,,,-86.989.138,1.222.738.958,https://maps.google.com/?cid=0x0:0x475188f284cbec0c,
komplek housing,komplek housing,Kec. Alok Bar.,"Kabupaten Sikka, Nusa Tenggara Tim.","Kabupaten Sikka, Nusa Tenggara Tim.",NUSA TENGGARA TIMUR,,Indonesia,,,,-86.051.104,1.221.989.798,https://maps.google.com/?cid=0x0:0x3d8c9bbff548daae,
komplek housing,komplek housing,House,"M82C+289, Pemana, Kec. Alok, Kabupaten Sikka, Nusa Tenggara Tim.","Kabupaten Sikka, Nusa Tenggara Tim.",NUSA TENGGARA TIMUR,,Indonesia,,,,-83.498.027,122.320.794,https://maps.google.com/?cid=0x0:0x231717d73d99e090,
komplek housing,Komplek perumahan,Nangahure,"C5J9+C4H, Jl. Raya Maumere - Magepanda, Hewuli, Kec. Alok Bar., Kabupaten Sikka, Nusa Tenggara Tim.","Kabupaten Sikka, Nusa Tenggara Tim.",NUSA TENGGARA TIMUR,,Indonesia,,,,-85.689.367,1.221.678.551,https://maps.google.com/?cid=0x0:0x8efa68b58595a37b,
komplek housing,Komplek perumahan,Nangahure lembah,"C5Q7+449, Nangahure, lembah, Wuring, Alok Barat, Sikka Regency, East Nusa Tenggara","Kabupaten Sikka, Nusa Tenggara Tim.",NUSA TENGGARA TIMUR,,Indonesia,,,,-85.622.206,1.221.628.565,https://maps.google.com/?cid=0x0:0x7dab0f6570103ebd,
komplek housing,Toko umum,Blink store mof,"C5R5+JR8, Nangahure, RT.003/RW.001, lembah, Alok Barat, Sikka Regency, East Nusa Tenggara","Kabupaten Sikka, Nusa Tenggara Tim.",NUSA TENGGARA TIMUR,,Indonesia,,,,-8.558.451,1.221.595.762,https://maps.google.com/?cid=0x0:0x144da1ee97da879d,
komplek housing,komplek housing,Nusa Tenggara Tim. 86111,"Kota Uneng, Kec. Alok, Kabupaten Sikka, Nusa Tenggara Tim.","Kabupaten Sikka, Nusa Tenggara Tim.",NUSA TENGGARA TIMUR,,Indonesia,,,,-86.139.767,1.222.125.928,https://maps.google.com/?cid=0x0:0x15b5b19775888894,
komplek housing,Pembangunan Perumahan,Yohanes Djuang Soge,"Jl. Teka Iku No.16 D, Nangameting, Kec. Alok Tim., Kabupaten Sikka, Nusa Tenggara Tim. 86111","Nangameting, Kec. Alok Tim., Kabupaten Sikka",NUSA TENGGARA TIMUR,86111.0,Indonesia,,,,-86.139.767,1.222.125.928,https://maps.google.com/?cid=0x0:0x93ed57fe56eaad8c,
komplek housing,Pembangunan Perumahan,Belakang lembaga,"96C8+582, Kota Baru, Kec. Alok Tim., Kabupaten Sikka, Nusa Tenggara Tim.","Kabupaten Sikka, Nusa Tenggara Tim.",NUSA TENGGARA TIMUR,,Indonesia,,,,-86.296.045,1.222.157.597,https://maps.google.com/?cid=0x0:0xcda8db651cad92e4,
komplek housing,Komplek perumahan,Kost NAGRAVAL,"Tuang Muut, Jl. Don Juang, Kota Uneng, Kec. Alok, Kabupaten Sikka, Nusa Tenggara Tim.","Kabupaten Sikka, Nusa Tenggara Tim.",NUSA TENGGARA TIMUR,,Indonesia,,,,-8.615,1.222.141.875,https://maps.google.com/?cid=0x0:0x6ac555f462d1116f,
komplek housing,Bengkel Mobil,Bengkel yeri Binter,"96P7+FFQ, Gg. Binter, Kota Uneng, Kec. Alok, Kabupaten Sikka, Nusa Tenggara Tim.","Kabupaten Sikka, Nusa Tenggara Tim.",NUSA TENGGARA TIMUR,,Indonesia,,,,-86.137.649,1.222.136.208,https://maps.google.com/?cid=0x0:0xc1683a9b94f72e1d,
komplek housing,komplek housing,Kec. Alok Tim.,"Kabupaten Sikka, Nusa Tenggara Tim.","Kabupaten Sikka, Nusa Tenggara Tim.",NUSA TENGGARA TIMUR,,Indonesia,,,,-86.196.707,1.222.192.584,https://maps.google.com/?cid=0x0:0xb5d8faa6e3744659,
komplek housing,Komplek perumahan,Rumah Auten,"969V+J53, Jl. Sudirman No.131, Waioti, Kec. Alok Tim., Kabupaten Sikka, Nusa Tenggara Tim. 86111","Jl. Sudirman No.131, Waioti, Kec. Alok Tim., Kabupaten Sikka",NUSA TENGGARA TIMUR,86111.0,Indonesia,,,,-86.306.609,1.222.414.583,https://maps.google.com/?cid=0x0:0xc5df6e178c5e652c,
komplek housing,Kantor Pemerintah,Rumah Dinas BMKG Maumere,"Jl. Adi Sucipto, RT.21/RW.06, Waioti, Kec. Alok Tim., Kabupaten Sikka, Nusa Tenggara Tim. 86111","RT.21/RW.06, Waioti, Kec. Alok Tim., Kabupaten Sikka",NUSA TENGGARA TIMUR,86111.0,Indonesia,,,,-86.321.488,1.222.363.854,https://maps.google.com/?cid=0x0:0x1a8d0b51c32984c5,
komplek housing,Komplek perumahan,Rumahnya Safitrin Umar,"Jl. Sudirman No.131, Waioti, Kec. Alok Tim., Kabupaten Sikka, Nusa Tenggara Tim. 86111","Waioti, Kec. Alok Tim., Kabupaten Sikka",NUSA TENGGARA TIMUR,86111.0,Indonesia,,,,-86.295.806,1.222.419.887,https://maps.google.com/?cid=0x0:0x3cd0e1ecf7143881,
komplek housing,Komplek perumahan,Rumah Bpk. Yanto Kunu,"96M6+F6H, Kota Uneng, Kec. Alok, Kabupaten Sikka, Nusa Tenggara Tim. 86111","Kota Uneng, Kec. Alok, Kabupaten Sikka",NUSA TENGGARA TIMUR,86111.0,Indonesia,,,,-86.163.422,1.222.106.975,https://maps.google.com/?cid=0x0:0x8f959787a7bf915d,
komplek housing,Hostel,Kos kosan ci,"Jl. Adi Sucipto No.24, Waioti, Kec. Alok Tim., Kabupaten Sikka, Nusa Tenggara Tim. 86111","Waioti, Kec. Alok Tim., Kabupaten Sikka",NUSA TENGGARA TIMUR,86111.0,Indonesia,,,,-86.327.141,1.222.357.723,https://maps.google.com/?cid=0x0:0x24d5a9e6602fcd8,
komplek housing,Kompleks Apartemen,Kost Taman Hijau,"jln. Dua Toru Iligetang samping kompleks Perumahan TVRI, Beru, Kec. Alok Tim., Kabupaten Sikka, Nusa Tenggara Tim. 86111","Beru, Kec. Alok Tim., Kabupaten Sikka",NUSA TENGGARA TIMUR,86111.0,Indonesia,82245746960,,,-86.296.932,1.222.231.186,https://maps.google.com/?cid=0x0:0x310f30683281d29e,
komplek housing,Komplek perumahan,FB Son's,"96F5+C25, Jl. Wairklau,Gang BMW,Kel.Madawat,Kec. Alok, Madawat, Flores, Kabupaten Sikka, Nusa Tenggara Tim. 86111","Jl. Wairklau,Gang BMW,Kel.Madawat,Kec. Alok, Madawat, Flores, Kabupaten Sikka",NUSA TENGGARA TIMUR,86111.0,Indonesia,,,,-86.264.845,1.222.076.027,https://maps.google.com/?cid=0x0:0xd76bd1fae6a0a9ae,
komplek housing,Vila,Kos Bhineka,"Jl. K.S Tubun Gang Bhineka, Kota Baru, Kec. Alok Tim., Kabupaten Sikka, Nusa Tenggara Tim. 86111","Kota Baru, Kec. Alok Tim., Kabupaten Sikka",NUSA TENGGARA TIMUR,86111.0,Indonesia,81337793784,,,-8.631.663,1.222.165.462,https://maps.google.com/?cid=0x0:0xd972488f83a5e8e,
komplek housing,Komplek perumahan,KIOS Aldika Wolomarang,"95VW+W4X, Lorong Pekuburan, ujung Aspal, Wolomarang, Nusa Tenggara Tim. 86111","Lorong Pekuburan, ujung Aspal, Wolomarang",NUSA TENGGARA TIMUR,86111.0,Indonesia,,,,-86.051.467,1.221.953.441,https://maps.google.com/?cid=0x0:0xa33c77db39d0359a,
komplek housing,komplek housing,Kec. Alok Tim.,"Kabupaten Sikka, Nusa Tenggara Tim.","Kabupaten Sikka, Nusa Tenggara Tim.",NUSA TENGGARA TIMUR,,Indonesia,,,,-86.196.707,1.222.192.584,https://maps.google.com/?cid=0x0:0xb5d8faa6e3744659,
komplek housing,Pembangunan Perumahan,Kuwuwire,"964C+FQ5, Lkr. Luar Timur, Kuwuwire, Lepolima, Kec. Alok Tim., Kabupaten Sikka, Nusa Tenggara Tim. 86116","Lkr. Luar Timur, Kuwuwire, Lepolima, Kec. Alok Tim., Kabupaten Sikka",NUSA TENGGARA TIMUR,86116.0,Indonesia,,,,-8.643.867,122.221.981,https://maps.google.com/?cid=0x0:0xb5e7e0c2df5672ac,
komplek housing,Pembangunan Perumahan,Belakang lembaga,"96C8+582, Kota Baru, Kec. Alok Tim., Kabupaten Sikka, Nusa Tenggara Tim.","Kabupaten Sikka, Nusa Tenggara Tim.",NUSA TENGGARA TIMUR,,Indonesia,,,,-86.296.045,1.222.157.597,https://maps.google.com/?cid=0x0:0xcda8db651cad92e4,
komplek housing,Pembangunan Perumahan,Belakang lembaga,"96C8+582, Kota Baru, Kec. Alok Tim., Kabupaten Sikka, Nusa Tenggara Tim.","Kabupaten Sikka, Nusa Tenggara Tim.",NUSA TENGGARA TIMUR,,Indonesia,,,,-86.296.045,1.222.157.597,https://maps.google.com/?cid=0x0:0xcda8db651cad92e4,
komplek housing,Komplek perumahan,Maumere,"96CC+M3R, Jln baru Thomas morus","Kabupaten Sikka, Nusa Tenggara Tim.",NUSA TENGGARA TIMUR,,Indonesia,,,,-86.282.676,1.222.201.283,https://maps.google.com/?cid=0x0:0x9507ee0a6e3d2cb4,
komplek housing,Komplek perumahan,Rumah Novi letor,"9698+F89, Kota Baru, Kec. Alok Tim., Kabupaten Sikka, Nusa Tenggara Tim.","Kabupaten Sikka, Nusa Tenggara Tim.",NUSA TENGGARA TIMUR,,Indonesia,,,,-86.312.708,122.215.862,https://maps.google.com/?cid=0x0:0xa0c2d3d072c4400e,
komplek housing,Pembangunan Perumahan,Belakang lembaga,"96C8+582, Kota Baru, Kec. Alok Tim., Kabupaten Sikka, Nusa Tenggara Tim.","Kabupaten Sikka, Nusa Tenggara Tim.",NUSA TENGGARA TIMUR,,Indonesia,,,,-86.296.045,1.222.157.597,https://maps.google.com/?cid=0x0:0xcda8db651cad92e4,
komplek housing,Komplek perumahan,Maumere,"96CC+M3R, Jln baru Thomas morus","Kabupaten Sikka, Nusa Tenggara Tim.",NUSA TENGGARA TIMUR,,Indonesia,,,,-86.282.676,1.222.201.283,https://maps.google.com/?cid=0x0:0x9507ee0a6e3d2cb4,
komplek housing,Komplek perumahan,Rumah Novi letor,"9698+F89, Kota Baru, Kec. Alok Tim., Kabupaten Sikka, Nusa Tenggara Tim.","Kabupaten Sikka, Nusa Tenggara Tim.",NUSA TENGGARA TIMUR,,Indonesia,,,,-86.312.708,122.215.862,https://maps.google.com/?cid=0x0:0xa0c2d3d072c4400e,
komplek housing,komplek housing,Koting,"Manubura, Kec. Nelle, Kabupaten Sikka, Nusa Tenggara Tim.","Kabupaten Sikka, Nusa Tenggara Tim.",NUSA TENGGARA TIMUR,,Indonesia,,,,-8.673.135,122.210.403,https://maps.google.com/?cid=0x0:0x8aa8527ea83cc0ea,
komplek housing,komplek housing,Komplek Housing,"Blok Bojong Nangka I, Jl. Ring Rudal Blok Bojong Nangka I No.68, RT.001/RW.007, Jatirahayu, Kec. Pd. Melati, Kota Bks, Jawa Barat 17414","Jl. Ring Rudal Blok Bojong Nangka I No.68, RT.001/RW.007, Jatirahayu, Kec. Pd. Melati, Kota Bks",NUSA TENGGARA TIMUR,17414.0,Indonesia,,,,-6.293.724,1.069.165.114,https://maps.google.com/?cid=0x0:0x9c50464976dee674,
komplek housing,komplek housing,Kec. Tebet,"Kota Jakarta Selatan, Daerah Khusus Ibukota Jakarta","Kota Jakarta Selatan, Daerah Khusus Ibukota Jakarta",NUSA TENGGARA TIMUR,,Indonesia,,,,-62.251.223,1.068.549.881,https://maps.google.com/?cid=0x0:0xd575e31c807295f9,
komplek housing,Komplek perumahan,"Nuaria, Des. Detubinga, Kec. Tanawawo-Sikka","7X5M+WQ, Bu Sel., Kec. Tana Wawo, Kabupaten Sikka, Nusa Tenggara Tim.","Kabupaten Sikka, Nusa Tenggara Tim.",NUSA TENGGARA TIMUR,,Indonesia,,,,-87.401.394,1.219.843.802,https://maps.google.com/?cid=0x0:0xbe7ed095fc2c607a,
komplek housing,Komplek perumahan,Rumah AJB Nuaria,"7X5P+JG, Detubinga, Kec. Tana Wawo, Kabupaten Sikka, Nusa Tenggara Tim.","Kabupaten Sikka, Nusa Tenggara Tim.",NUSA TENGGARA TIMUR,,Indonesia,,,,-87.409.736,1.219.862.858,https://maps.google.com/?cid=0x0:0x56d66bfb0a6f217b,
komplek housing,komplek housing,Kec. Hewokloang,"Kabupaten Sikka, Nusa Tenggara Tim.","Kabupaten Sikka, Nusa Tenggara Tim.",NUSA TENGGARA TIMUR,,Indonesia,,,,-87.012.111,1.223.132.325,https://maps.google.com/?cid=0x0:0xe64f678e900c5d34,
komplek housing,komplek housing,Bidan wati,"882M+8PR, Rubit, Kec. Hewokloang, Kabupaten Sikka, Nusa Tenggara Tim. 86181","Rubit, Kec. Hewokloang, Kabupaten Sikka",NUSA TENGGARA TIMUR,86181.0,Indonesia,,,,-86.984.601,1.223.351.884,https://maps.google.com/?cid=0x0:0x423a9d3ee31c4423,
komplek housing,Komplek perumahan,Rumah Bapak Arkadius,"Ili, Kokowahor, Kec. Kangae, Kabupaten Sikka, Nusa Tenggara Tim. 86181","Kokowahor, Kec. Kangae, Kabupaten Sikka",NUSA TENGGARA TIMUR,86181.0,Indonesia,,,,-86.784.339,1.222.678.302,https://maps.google.com/?cid=0x0:0x5d14b31c075d64ae,
komplek housing,komplek housing,Kec. Kangae,"Kabupaten Sikka, Nusa Tenggara Tim.","Kabupaten Sikka, Nusa Tenggara Tim.",NUSA TENGGARA TIMUR,,Indonesia,,,,-86.347.085,1.222.570.815,https://maps.google.com/?cid=0x0:0x26410249494795cc,
komplek housing,Pembangunan Perumahan,Rumah M. Musalimah,"976M+2R2, JL, Geliting, Kec. Kewapante, Flores, Nusa Tenggara Tim. 86181","JL, Geliting, Kec. Kewapante, Flores",NUSA TENGGARA TIMUR,86181.0,Indonesia,,,,-8.640.098,1.222.845.523,https://maps.google.com/?cid=0x0:0x4bdd465a357fa52d,
komplek housing,Komplek perumahan,Rumah Bapak Arkadius,"Ili, Kokowahor, Kec. Kangae, Kabupaten Sikka, Nusa Tenggara Tim. 86181","Kokowahor, Kec. Kangae, Kabupaten Sikka",NUSA TENGGARA TIMUR,86181.0,Indonesia,,,,-86.784.339,1.222.678.302,https://maps.google.com/?cid=0x0:0x5d14b31c075d64ae,
komplek housing,Komplek perumahan,Perumahan Primerose Emerald blok N24,"Primerose Emerald Jl. Kp. Kandang No.24, Sukaraya, Kec. Karangbahagia, Kabupaten Bekasi, Jawa Barat 17530","Sukaraya, Kec. Karangbahagia, Kabupaten Bekasi",NUSA TENGGARA TIMUR,17530.0,Indonesia,,,,-62.200.381,1.071.681.564,https://maps.google.com/?cid=0x0:0x4505ebaf6e28045e,
komplek housing,Pembangunan Perumahan,DYAH RESIDENCE 2,"Jalan H, Jl. Setapak Gg. Mesjid jami nurul jannah No.RT.003, Tonjong, Kec. Tajur Halang, Kabupaten Bogor, Jawa Barat 16320","Jl. Setapak Gg. Mesjid jami nurul jannah No.RT.003, Tonjong, Kec. Tajur Halang, Kabupaten Bogor",NUSA TENGGARA TIMUR,16320.0,Indonesia,,,,-6.498.321,1.067.661.723,https://maps.google.com/?cid=0x0:0x8cc2fab54dbd9192,
komplek housing,Otoritas Perumahan,Golden residence,"Jl. Swadaya III, Ciakar, Kec. Panongan, Kabupaten Tangerang, Banten 15710","Ciakar, Kec. Panongan, Kabupaten Tangerang",NUSA TENGGARA TIMUR,15710.0,Indonesia,89635732484,,,-62.528.167,1.065.341.385,https://maps.google.com/?cid=0x0:0xcd501989ee977db4,
komplek housing,komplek housing,Kec. Mapitara,"Kabupaten Sikka, Nusa Tenggara Tim.","Kabupaten Sikka, Nusa Tenggara Tim.",NUSA TENGGARA TIMUR,,Indonesia,,,,-87.082.289,1.224.688.978,https://maps.google.com/?cid=0x0:0xc16f649f40ff33f6,
perumahan,perumahan,Nusa Tenggara Tim.,,Nusa Tenggara Tim.,NUSA TENGGARA TIMUR,,Indonesia,,,,-86.573.819,1.210.793.705,https://maps.google.com/?cid=0x0:0x1030bfbcaf71ae0,
perumahan,Komplek perumahan,Perumahan BTN Nangahure,"C5R4+FPR, Wuring, Kec. Alok Bar., Kabupaten Sikka, Nusa Tenggara Tim.","Kabupaten Sikka, Nusa Tenggara Tim.",NUSA TENGGARA TIMUR,,Indonesia,,,,-855.875,122.156.766,https://maps.google.com/?cid=0x0:0x7d2fe98207af78ed,
perumahan,Kantor Perusahaan,Perumahan Sikka Regency,"Dunia Sawu, Jalan, Wairbleler, Waigete, Sikka Regency, East Nusa Tenggara","Kabupaten Sikka, Nusa Tenggara Tim.",NUSA TENGGARA TIMUR,,Indonesia,82147632268,,,-86.258.517,1.223.394.198,https://maps.google.com/?cid=0x0:0x4685cd3c19584942,
perumahan,Perhimpunan Pengembang Perumahan,Perumahan Pesona Safira Residence,"C5R3+FP3, Nangahore,, Wuring, Kec. Alok Bar., Kabupaten Sikka, Nusa Tenggara Tim.","Kabupaten Sikka, Nusa Tenggara Tim.",NUSA TENGGARA TIMUR,,Indonesia,81239894696,,,-85.588.735,1.221.543.092,https://maps.google.com/?cid=0x0:0xab08addf0fd7ff8c,
perumahan,Kantor Pemerintah,Kantor Desa Begu,"Jln.Mego Wati No.01, Bhera, Kec. Mego, Kabupaten Sikka, Nusa Tenggara Tim. 86153","Bhera, Kec. Mego, Kabupaten Sikka",NUSA TENGGARA TIMUR,86153.0,Indonesia,81337782031,,,-87.114.509,1.220.783.314,https://maps.google.com/?cid=0x0:0x6079561377b10ab4,
perumahan,Warnet,Rumah Ndopo Seru,"Lorong No.1, RT.01/RW.001, Wolowiro, Kec. Paga, Kabupaten Sikka, Nusa Tenggara Tim. 86153","RT.01/RW.001, Wolowiro, Kec. Paga, Kabupaten Sikka",NUSA TENGGARA TIMUR,86153.0,Indonesia,82198725232,,,-8.780.797,122.015.479,https://maps.google.com/?cid=0x0:0xb5fa0b8e10befc8,
perumahan,Komplek perumahan,Perumahan Panorama Indah I Blok B,"Jl. Penkase No.26, Alak, Kec. Alak, Kota Kupang, Nusa Tenggara Tim.","Kota Kupang, Nusa Tenggara Tim.",NUSA TENGGARA TIMUR,,Indonesia,,,,-10.193.809,1.235.553.766,https://maps.google.com/?cid=0x0:0xb70396c7d7db219e,
perumahan,perumahan,Ricky Cowboy's Homestay,"Koka beach, On the main road between Moni and Paga, on the crossroad to Koka beach, Kec. Paga, Nusa Tenggara Tim. 86153","On the main road between Moni and Paga, on the crossroad to Koka beach, Kec. Paga",NUSA TENGGARA TIMUR,86153.0,Indonesia,81247637038,,,-87.847.287,1.220.108.727,https://maps.google.com/?cid=0x0:0x43e6f50dfe734e39,
perumahan,perumahan,Koka Beach,"Wolowiro, Kec. Paga, Kabupaten Sikka, Nusa Tenggara Tim.","Kabupaten Sikka, Nusa Tenggara Tim.",NUSA TENGGARA TIMUR,,Indonesia,,,,-87.951.619,1.220.181.254,https://maps.google.com/?cid=0x0:0xcee17f07bd92284f,
perumahan,perumahan,Paga,"Wolowona, Kec. Paga, Kabupaten Sikka, Nusa Tenggara Tim.","Kabupaten Sikka, Nusa Tenggara Tim.",NUSA TENGGARA TIMUR,,Indonesia,,,,-8.769.437,122.032.402,https://maps.google.com/?cid=0x0:0xd69af70898c65b39,
perumahan,Komplek perumahan,Rumah Bryan,"kp.sagandona No.023/011, Wolowona, Kec. Paga, Kabupaten Sikka, Nusa Tenggara Tim.","Kabupaten Sikka, Nusa Tenggara Tim.",NUSA TENGGARA TIMUR,,Indonesia,,,,-8.769.437,122.032.402,https://maps.google.com/?cid=0x0:0xc8e2d4c925d5d815,
perumahan,perumahan,"Nuabaru, paga Flores NTT","62JJ+6XC, Nuabaru, Kec. Paga, Flores, Nusa Tenggara Tim.","Flores, Nusa Tenggara Tim.",NUSA TENGGARA TIMUR,,Indonesia,,,,-8.769.437,122.032.402,https://maps.google.com/?cid=0x0:0x168424523afe1574,
perumahan,Otoritas Perumahan,Nua Sesalapi,"62JJ+W9X, Sesalapi Mbengu, Mauloo, Kec. Paga, Kabupaten Sikka, Nusa Tenggara Tim.","Kabupaten Sikka, Nusa Tenggara Tim.",NUSA TENGGARA TIMUR,,Indonesia,,,,-87.676.443,1.220.309.779,https://maps.google.com/?cid=0x0:0x55671ea9cce701ef,
perumahan,Komplek perumahan,Leda rowa,"62JJ+VW, Sesalapi, Mauloo, Kec. Paga, Kabupaten Sikka, Nusa Tenggara Tim.","Kabupaten Sikka, Nusa Tenggara Tim.",NUSA TENGGARA TIMUR,,Indonesia,,,,-87.678.125,1.220.323.125,https://maps.google.com/?cid=0x0:0xbd57fe3469065fff,
perumahan,perumahan,Nusa Tenggara Tim. 86113,"Kota Uneng, Kec. Alok, Kabupaten Sikka, Nusa Tenggara Tim.","Kabupaten Sikka, Nusa Tenggara Tim.",NUSA TENGGARA TIMUR,,Indonesia,,,,-86.167.643,1.222.178.482,https://maps.google.com/?cid=0x0:0xddb39f86610c6a42,
perumahan,Klinik Kesehatan,Perumnas Maumere,"96H6+3MP, Jl. Dahlia 1, Madawat, Kec. Alok, Kabupaten Sikka, Nusa Tenggara Tim.","Kabupaten Sikka, Nusa Tenggara Tim.",NUSA TENGGARA TIMUR,,Indonesia,,,,-86.222.838,1.222.117.176,https://maps.google.com/?cid=0x0:0x206c6c9f15b5d2e3,
perumahan,Pembangunan Perumahan,PT.MAUMERE PUTRA DEVELOPMENT,"Jl. Anggrek No.17, Madawat, Kec. Alok, Kabupaten Sikka, Nusa Tenggara Tim. 86111","Madawat, Kec. Alok, Kabupaten Sikka",NUSA TENGGARA TIMUR,86111.0,Indonesia,81353928372,,,-86.209.177,1.222.093.258,https://maps.google.com/?cid=0x0:0x9977f09da0caca76,
perumahan,Otoritas Pelabuhan,Kantor Kesyahbandaran Dan Otoritas Pelabuhan L. Say Maumere,"96P9+67F, Jl. Pelabuhan, Kota Uneng, Kec. Alok, Kabupaten Sikka, Nusa Tenggara Tim.","Kabupaten Sikka, Nusa Tenggara Tim.",NUSA TENGGARA TIMUR,,Indonesia,38221147,,,-86.144.412,1.222.181.656,https://maps.google.com/?cid=0x0:0x8638ed613e546ff2,
perumahan,perumahan,Nusa Tenggara Tim.,,Nusa Tenggara Tim.,NUSA TENGGARA TIMUR,,Indonesia,,,,-86.573.819,1.210.793.705,https://maps.google.com/?cid=0x0:0x1030bfbcaf71ae0,
perumahan,Komplek perumahan,Perumahan Gloria Regency,"Waturia, Kolisia B, Kec. Magepanda, Kabupaten Sikka, Nusa Tenggara Tim. 86111","Kolisia B, Kec. Magepanda, Kabupaten Sikka",NUSA TENGGARA TIMUR,86111.0,Indonesia,81353928372,,,-85.500.341,1.221.347.679,https://maps.google.com/?cid=0x0:0xa74817ac7a773063,
perumahan,Kantor Perusahaan,Perumahan Sikka Regency,"Dunia Sawu, Jalan, Wairbleler, Waigete, Sikka Regency, East Nusa Tenggara","Kabupaten Sikka, Nusa Tenggara Tim.",NUSA TENGGARA TIMUR,,Indonesia,82147632268,,,-86.258.517,1.223.394.198,https://maps.google.com/?cid=0x0:0x4685cd3c19584942,
perumahan,Komplek perumahan,Rumah tinggal,"96H8+2HG c'2, Kabor, Kec. Alok, Kabupaten Sikka, Nusa Tenggara Tim.","Kabupaten Sikka, Nusa Tenggara Tim.",NUSA TENGGARA TIMUR,,Indonesia,,,,-86.224.367,1.222.164.389,https://maps.google.com/?cid=0x0:0xacd65cfc965a49e3,
perumahan,perumahan,Kec. Lela,"Kabupaten Sikka, Nusa Tenggara Tim.","Kabupaten Sikka, Nusa Tenggara Tim.",NUSA TENGGARA TIMUR,,Indonesia,,,,-87.287.435,1.221.732.061,https://maps.google.com/?cid=0x0:0x60b6bf2eed028e82,
perumahan,perumahan,Lela,"Kec. Lela, Kabupaten Sikka, Nusa Tenggara Tim.","Kabupaten Sikka, Nusa Tenggara Tim.",NUSA TENGGARA TIMUR,,Indonesia,,,,-87.181.233,1.221.717.668,https://maps.google.com/?cid=0x0:0x84775d0c8bcdde43,
perumahan,Komplek perumahan,Perumahan BTN Nangahure,"C5R4+FPR, Wuring, Kec. Alok Bar., Kabupaten Sikka, Nusa Tenggara Tim.","Kabupaten Sikka, Nusa Tenggara Tim.",NUSA TENGGARA TIMUR,,Indonesia,,,,-855.875,122.156.766,https://maps.google.com/?cid=0x0:0x7d2fe98207af78ed,
perumahan,Komplek perumahan,Rumah Lela,"75FC+3HF, Lela, Kec. Lela, Kabupaten Sikka, Nusa Tenggara Tim.","Kabupaten Sikka, Nusa Tenggara Tim.",NUSA TENGGARA TIMUR,,Indonesia,,,,-87.265.877,1.221.718.377,https://maps.google.com/?cid=0x0:0x5277f4cc80c81aed,
perumahan,Perhimpunan Pengembang Perumahan,Perumahan Pesona Safira Residence,"C5R3+FP3, Nangahore,, Wuring, Kec. Alok Bar., Kabupaten Sikka, Nusa Tenggara Tim.","Kabupaten Sikka, Nusa Tenggara Tim.",NUSA TENGGARA TIMUR,,Indonesia,81239894696,,,-85.588.735,1.221.543.092,https://maps.google.com/?cid=0x0:0xab08addf0fd7ff8c,
perumahan,Komplek perumahan,Dusun Tarunggawang,"75HR+W54, Iligai, Kec. Lela, Kabupaten Sikka, Nusa Tenggara Tim.","Kabupaten Sikka, Nusa Tenggara Tim.",NUSA TENGGARA TIMUR,,Indonesia,,,,-87.202.326,1.221.904.661,https://maps.google.com/?cid=0x0:0xef4c9ecfca25dad9,
perumahan,Komplek perumahan,Mageuta,"75C7+8MQ, Lela, Kec. Lela, Kabupaten Sikka, Nusa Tenggara Tim.","Kabupaten Sikka, Nusa Tenggara Tim.",NUSA TENGGARA TIMUR,,Indonesia,,,,-87.291.648,1.221.642.247,https://maps.google.com/?cid=0x0:0x7475f6375886c48e,
perumahan,perumahan,Ones Bhogar Home,"752W+6PF, Sikka, Kec. Lela, Kabupaten Sikka, Nusa Tenggara Tim.","Kabupaten Sikka, Nusa Tenggara Tim.",NUSA TENGGARA TIMUR,,Indonesia,,,,-87.497.366,1.221.969.322,https://maps.google.com/?cid=0x0:0x18020c155ff7b658,
perumahan,Perhimpunan Pengembang Perumahan,Hadeng,"75C2+QCJ, Bangboler, Hepang, Kec. Lela, Kabupaten Sikka, Nusa Tenggara Tim.","Kabupaten Sikka, Nusa Tenggara Tim.",NUSA TENGGARA TIMUR,,Indonesia,,,,-87.280.274,1.221.510.127,https://maps.google.com/?cid=0x0:0xe9d6ee46c859ed71,
perumahan,Komplek perumahan,Likasang parera,"75CG+628, Lela, Kec. Lela, Kabupaten Sikka, Nusa Tenggara Tim.","Kabupaten Sikka, Nusa Tenggara Tim.",NUSA TENGGARA TIMUR,,Indonesia,,,,-87.294.696,1.221.750.652,https://maps.google.com/?cid=0x0:0x12456c14796f8cd0,
perumahan,Komplek perumahan,Darius,"75FM+86X, Watutedang, Kec. Lela, Kabupaten Sikka, Nusa Tenggara Tim.","Kabupaten Sikka, Nusa Tenggara Tim.",NUSA TENGGARA TIMUR,,Indonesia,,,,-8.727.405,1.221.825.643,https://maps.google.com/?cid=0x0:0x24effcc766620dc4,
perumahan,Komplek perumahan,Fernandez Home,"75CF+V3P, Lela, Kec. Lela, Kabupaten Sikka, Nusa Tenggara Tim.","Kabupaten Sikka, Nusa Tenggara Tim.",NUSA TENGGARA TIMUR,,Indonesia,,,,-8.727.799,1.221.726.931,https://maps.google.com/?cid=0x0:0x90c5e2b05bd4f4a,
perumahan,Pembangunan Perumahan,Bangboler,"74CW+V3F, Bangboler, Hepang, Kec. Lela, Kabupaten Sikka, Nusa Tenggara Tim.","Kabupaten Sikka, Nusa Tenggara Tim.",NUSA TENGGARA TIMUR,,Indonesia,,,,-87.278.235,1.221.451.737,https://maps.google.com/?cid=0x0:0x90ed9fcbb2e7be1a,
perumahan,Komplek perumahan,Wulan sareng,"75CC+8GH, Lela, Kec. Lela, Kabupaten Sikka, Nusa Tenggara Tim.","Kabupaten Sikka, Nusa Tenggara Tim.",NUSA TENGGARA TIMUR,,Indonesia,,,,-8.729.054,122.171.503,https://maps.google.com/?cid=0x0:0xc0904769d83d2e65,
perumahan,Komplek perumahan,Diller 2,"75XM+MQ7, Koting C, Kec. Koting, Kabupaten Sikka, Nusa Tenggara Tim.","Kabupaten Sikka, Nusa Tenggara Tim.",NUSA TENGGARA TIMUR,,Indonesia,,,,-87.008.425,1.221.844.348,https://maps.google.com/?cid=0x0:0xb10a7a67f837ea3e,
perumahan,Pembangunan Perumahan,Renyus Parera,"75FC+2P9, Lela, Kec. Lela, Kabupaten Sikka, Nusa Tenggara Tim.","Kabupaten Sikka, Nusa Tenggara Tim.",NUSA TENGGARA TIMUR,,Indonesia,,,,-8.727.865,122.171.608,https://maps.google.com/?cid=0x0:0xc61a50c859cee0b5,
perumahan,Komplek perumahan,Anno,"75CG+X3H, Lela, Kec. Lela, Kabupaten Sikka, Nusa Tenggara Tim.","Kabupaten Sikka, Nusa Tenggara Tim.",NUSA TENGGARA TIMUR,,Indonesia,,,,-87.274.206,1.221.750.904,https://maps.google.com/?cid=0x0:0xfec27cb290b76493,
perumahan,Komplek perumahan,Nusa tenggara timur,"845M+RW9, Tilang, Kec. Nita, Kabupaten Sikka, Nusa Tenggara Tim.","Kabupaten Sikka, Nusa Tenggara Tim.",NUSA TENGGARA TIMUR,,Indonesia,,,,-8.690.455,1.221.348.629,https://maps.google.com/?cid=0x0:0x29636da98961a600,
perumahan,Komplek perumahan,Tynokarwayu,"75FJ+594, Watutedang, Kec. Lela, Kabupaten Sikka, Nusa Tenggara Tim.","Kabupaten Sikka, Nusa Tenggara Tim.",NUSA TENGGARA TIMUR,,Indonesia,,,,-87.275.047,1.221.808.926,https://maps.google.com/?cid=0x0:0x8f8599efeb991419,
perumahan,Komplek perumahan,Dihit,"74QQ+P29, Korowuwu, Kec. Lela, Kabupaten Sikka, Nusa Tenggara Tim.","Kabupaten Sikka, Nusa Tenggara Tim.",NUSA TENGGARA TIMUR,,Indonesia,,,,-87.107.078,1.221.376.024,https://maps.google.com/?cid=0x0:0x4c4a3a85e1e100c0,
perumahan,Komplek perumahan,Alberto Jarawaru,"75C8+CJJ, Belakang PLN Lela,Mageuta, Lela, Kec. Lela","Kabupaten Sikka, Nusa Tenggara Tim.",NUSA TENGGARA TIMUR,,Indonesia,,,,-87.289.206,1.221.665.245,https://maps.google.com/?cid=0x0:0xb05d51e16e8ab9f0,
perumahan,Perhimpunan Pengembang Perumahan,Rumah Lela,"Jl. Setu Indah VI A No.17 7, RT.7/RW.4, Setu, Kec. Cipayung, Kota Jakarta Timur, Daerah Khusus Ibukota Jakarta 13880","RT.7/RW.4, Setu, Kec. Cipayung, Kota Jakarta Timur",NUSA TENGGARA TIMUR,13880.0,Indonesia,,,,-63.198.761,1.069.145.629,https://maps.google.com/?cid=0x0:0x68149185ab151aa7,
perumahan,Komplek perumahan,Nondy Pasire,"75CC+98H, Lela, Kec. Lela, Kabupaten Sikka, Nusa Tenggara Tim.","Kabupaten Sikka, Nusa Tenggara Tim.",NUSA TENGGARA TIMUR,,Indonesia,,,,-8.728.749,122.170.117,https://maps.google.com/?cid=0x0:0x3d3b9fda8bd48a52,
perumahan,Hotel,Kost lela,"Jl menteng wadas selatan no 23 Rt11rw09, RT.12/RW.9, Ps. Manggis, Kecamatan Setiabudi, Kota Jakarta Selatan, Daerah Khusus Ibukota Jakarta 12970","RT.12/RW.9, Ps. Manggis, Kecamatan Setiabudi, Kota Jakarta Selatan",NUSA TENGGARA TIMUR,12970.0,Indonesia,,,,-62.138.289,1.068.414.254,https://maps.google.com/?cid=0x0:0xec47cd9ea649196b,
perumahan,perumahan,Nusa Tenggara Tim.,,Nusa Tenggara Tim.,NUSA TENGGARA TIMUR,,Indonesia,,,,-86.573.819,1.210.793.705,https://maps.google.com/?cid=0x0:0x1030bfbcaf71ae0,
perumahan,Toko Komputer,Rumah Nichaner,"Dusun Poma, RT.015/RW.006, Takaplager, Kec. Nita, Kabupaten Sikka, Nusa Tenggara Tim. 86152","RT.015/RW.006, Takaplager, Kec. Nita, Kabupaten Sikka",NUSA TENGGARA TIMUR,86152.0,Indonesia,85225080810,,,-86.678.861,1.221.831.004,https://maps.google.com/?cid=0x0:0xb26659a0624ecd7c,
perumahan,Perhimpunan Pengembang Perumahan,Wisma St.Fransiskus Xaverius Ledalero,"85MP+V4W, JL.Trans Maumere, Ende, Kec. Nita, Kabupaten Sikka, Nusa Tenggara Tim. 86152","JL.Trans Maumere, Ende, Kec. Nita, Kabupaten Sikka",NUSA TENGGARA TIMUR,86152.0,Indonesia,,,,-86.652.548,1.221.853.136,https://maps.google.com/?cid=0x0:0xce61641ec1891565,
perumahan,Pembangunan Perumahan,Perumahan Osiloa D 20,"VM2M+WQ9, Tarus, Kec. Kupang Tengah, Kabupaten Kupang, Nusa Tenggara Tim.","Kabupaten Kupang, Nusa Tenggara Tim.",NUSA TENGGARA TIMUR,,Indonesia,,,,-101.477.096,1.236.844.904,https://maps.google.com/?cid=0x0:0x2134dcbc7c2b8df0,
perumahan,Rumah Kayu,Yusnilaka AR,"Magepanda, Kec. Magepanda, Kabupaten Sikka, Nusa Tenggara Tim. 86152","Kec. Magepanda, Kabupaten Sikka",NUSA TENGGARA TIMUR,86152.0,Indonesia,,,,-85.398.197,1.220.496.542,https://maps.google.com/?cid=0x0:0xf722676ecb8fb355,
perumahan,perumahan,Nita,"Nitakloang, Kec. Nita, Kabupaten Sikka, Nusa Tenggara Tim.","Kabupaten Sikka, Nusa Tenggara Tim.",NUSA TENGGARA TIMUR,,Indonesia,,,,-8.674.624,122.161.797,https://maps.google.com/?cid=0x0:0x532a87a7448e6f26,
perumahan,Kios,Kios Mentari Indah Nita,"85G6+5P3, Nitakloang, Kec. Nita, Kabupaten Sikka, Nusa Tenggara Tim.","Kabupaten Sikka, Nusa Tenggara Tim.",NUSA TENGGARA TIMUR,,Indonesia,82145822933,,,-8.674.624,122.161.797,https://maps.google.com/?cid=0x0:0xce6d389b15bb373,
perumahan,perumahan,Pemukiman,"85G6+5Q9, Nitakloang, Kec. Nita, Kabupaten Sikka, Nusa Tenggara Tim.","Kabupaten Sikka, Nusa Tenggara Tim.",NUSA TENGGARA TIMUR,,Indonesia,,,,-86.745.784,1.221.619.693,https://maps.google.com/?cid=0x0:0xadf8c13043d892c5,
perumahan,Komplek perumahan,Nita,"HQMQ+G3J, Jl. Kp. Benda Bar., RT.02/RW.06, Cipayung, Kec. Cipayung, Kota Depok, Jawa Barat 16437","Jl. Kp. Benda Bar., RT.02/RW.06, Cipayung, Kec. Cipayung, Kota Depok",NUSA TENGGARA TIMUR,16437.0,Indonesia,,,,-64.161.662,1.067.876.425,https://maps.google.com/?cid=0x0:0x9016bbbc4bbe9227,
perumahan,Komplek perumahan,Rumah Nita,"Jl. Paseban Timur Gg. 12 No.75, RT.15/RW.3, Paseban, Kec. Senen, Kota Jakarta Pusat, Daerah Khusus Ibukota Jakarta 10440","RT.15/RW.3, Paseban, Kec. Senen, Kota Jakarta Pusat",NUSA TENGGARA TIMUR,10440.0,Indonesia,,,,-61.921.994,1.068.527.541,https://maps.google.com/?cid=0x0:0x6019bf2252edd6fe,
perumahan,Pembangunan Perumahan,nita,"Jl. Cisokan VI No.183, Abadijaya, Kec. Sukmajaya, Kota Depok, Jawa Barat 16417","Abadijaya, Kec. Sukmajaya, Kota Depok",NUSA TENGGARA TIMUR,16417.0,Indonesia,,,,-63.894.641,1.068.527.317,https://maps.google.com/?cid=0x0:0x711c7341b6191b9c,
perumahan,Komplek perumahan,Rumah Nita,"GPRR+Q4W, Kalisuren, Kec. Tajur Halang, Kabupaten Bogor, Jawa Barat 16320","Kalisuren, Kec. Tajur Halang, Kabupaten Bogor",NUSA TENGGARA TIMUR,16320.0,Indonesia,,,,-64.580.124,1.067.403.207,https://maps.google.com/?cid=0x0:0xc1a62e0d4ec2cbb1,
perumahan,Komplek perumahan,Rumah Ibu Nita Hariyono,"Jl. Beringin III No.12A Blok C12, Kedaung, Kec. Pamulang, Kota Tangerang Selatan, Banten 15414","Kedaung, Kec. Pamulang, Kota Tangerang Selatan",NUSA TENGGARA TIMUR,15414.0,Indonesia,,,,-63.064.275,1.067.318.112,https://maps.google.com/?cid=0x0:0xff707fa97042f9cd,
perumahan,Komplek perumahan,Rumah nita,"Jl. Ac. Lengkeng No.31, RT.006/RW.002, Bojong Menteng, Kec. Rawalumbu, Kota Bks, Jawa Barat 17117","RT.006/RW.002, Bojong Menteng, Kec. Rawalumbu, Kota Bks",NUSA TENGGARA TIMUR,17117.0,Indonesia,,,,-62.969.659,1.069.777.705,https://maps.google.com/?cid=0x0:0xea11a2e7cf60386b,
perumahan,Komplek perumahan,Rumah Nita,"RPM6+PRR, Jl. Dharma Griya I, RT.5/RW.12, Semanan, Kec. Kalideres, Kota Jakarta Barat, Daerah Khusus Ibukota Jakarta 11850","Jl. Dharma Griya I, RT.5/RW.12, Semanan, Kec. Kalideres, Kota Jakarta Barat",NUSA TENGGARA TIMUR,11850.0,Indonesia,,,,-61.656.307,1.067.120.085,https://maps.google.com/?cid=0x0:0x982b1df7e88c94b4,
perumahan,Komplek perumahan,PARKIRAN NITA,"Gg Sibi 2 Jl. Masjid Al Umar No.12, RT.06/RW.12, Lubang Buaya, Cipayung, East Jakarta City, Jakarta 13810","RT.06/RW.12, Lubang Buaya, Cipayung, East Jakarta City",NUSA TENGGARA TIMUR,13810.0,Indonesia,,,,-62.879.172,1.069.086.456,https://maps.google.com/?cid=0x0:0x2d8eaa54e3ca1be1,
perumahan,Pembangunan Perumahan,Nita,"Jl. Waru Raya blok D315, RT.03/Rw17, Margahayu, Kec. Bekasi Tim., Kabupaten Bekasi, Jawa Barat 17510","RT.03/Rw17, Margahayu, Kec. Bekasi Tim., Kabupaten Bekasi",NUSA TENGGARA TIMUR,17510.0,Indonesia,,,,-62.702.948,1.070.275.539,https://maps.google.com/?cid=0x0:0x4e0861d8cf229dea,
perumahan,Komplek perumahan,Rumah Nita,"Perumahan Puri Laras No.2 Blok C27, Cireundeu, Ciputat Timur, South Tangerang City, Banten","Kota Tangerang Selatan, Banten",NUSA TENGGARA TIMUR,,Indonesia,,,,-63.116.529,1.067.609.509,https://maps.google.com/?cid=0x0:0x3a4067b828e7b2a1,
perumahan,Komplek perumahan,Rumah nita,"HV65+7W7, Gg. Mandor Lipin, Cilangkap, Kec. Tapos, Kota Depok, Jawa Barat 16458","Gg. Mandor Lipin, Cilangkap, Kec. Tapos, Kota Depok",NUSA TENGGARA TIMUR,16458.0,Indonesia,,,,-64.393.477,106.859.809,https://maps.google.com/?cid=0x0:0x9d920aca39d3016a,
perumahan,Komplek perumahan,rumah nita,"Jl. Kp. Tegal Jambu, Sukahati, Kec. Citeureup, Kabupaten Bogor, Jawa Barat 16810","Sukahati, Kec. Citeureup, Kabupaten Bogor",NUSA TENGGARA TIMUR,16810.0,Indonesia,,,,-65.177.157,106.882.579,https://maps.google.com/?cid=0x0:0xb2e2043a4e20e1c3,
perumahan,Komplek perumahan,Rumah nita,"Jl. Mandor Naiman No.56, Pasir Jambu, Kec. Sukaraja, Kabupaten Bogor, Jawa Barat 16710","Pasir Jambu, Kec. Sukaraja, Kabupaten Bogor",NUSA TENGGARA TIMUR,16710.0,Indonesia,,,,-65.325.545,106.812.031,https://maps.google.com/?cid=0x0:0x4bc051af7f10d1a4,
perumahan,Komplek perumahan,Perumahan D'Nita Residence,"3QPQ+MFJ, Sako Baru, Kec. Sako, Kota Palembang, Sumatera Selatan 30961","Sako Baru, Kec. Sako, Kota Palembang",NUSA TENGGARA TIMUR,30961.0,Indonesia,81366653646,,,-29.132.805,1.047.886.521,https://maps.google.com/?cid=0x0:0x68e45549d5b147e9,
perumahan,Pembangunan Perumahan,rumah nita,"3VCR+9M7, Babakan, Kec. Cisaat, Kabupaten Sukabumi, Jawa Barat 43152","Babakan, Kec. Cisaat, Kabupaten Sukabumi",NUSA TENGGARA TIMUR,43152.0,Indonesia,87777764072,,,-69.291.191,1.068.917.692,https://maps.google.com/?cid=0x0:0xfb34ab91ef3bbca,
perumahan,Perhimpunan Pengembang Perumahan,Nita,"2R9G+R5, Bojong, Kec. Cikembar, Kabupaten Sukabumi, Jawa Barat 43157","Bojong, Kec. Cikembar, Kabupaten Sukabumi",NUSA TENGGARA TIMUR,43157.0,Indonesia,,,,-6.980.357,1.068.254.128,https://maps.google.com/?cid=0x0:0x9babb7cfee083022,
perumahan,Komplek perumahan,Rumah Nita,"Jl otto iskandar gg komodo No.742, RT.001 rw015, Bojongherang, Kec. Cianjur, Kabupaten Cianjur, Jawa Barat","Kabupaten Cianjur, Jawa Barat",NUSA TENGGARA TIMUR,,Indonesia,,,,-68.155.806,1.071.388.706,https://maps.google.com/?cid=0x0:0xda849bd9d432cc83,
perumahan,Pembangunan Perumahan,Nita,"Perumahan Bumi Indah, Jalan edelwis 3 Blok KG 02, Tahap 5, RT.07/RW.11","Kabupaten Tangerang, Banten",NUSA TENGGARA TIMUR,,Indonesia,,,,-61.530.617,1.065.555.098,https://maps.google.com/?cid=0x0:0x29156e0dc3b23a88,
perumahan,perumahan,Kec. Alok,"Kabupaten Sikka, Nusa Tenggara Tim.","Kabupaten Sikka, Nusa Tenggara Tim.",NUSA TENGGARA TIMUR,,Indonesia,,,,-86.245.579,1.222.146.965,https://maps.google.com/?cid=0x0:0xe8b3116f53fe9712,
perumahan,Pembangunan Perumahan,Perumahan Alok Indah,"96C8+8VW, Unnamed Road, Kota Baru, Kec. Alok Tim., Kabupaten Sikka, Nusa Tenggara Tim.","Kabupaten Sikka, Nusa Tenggara Tim.",NUSA TENGGARA TIMUR,,Indonesia,,,,-8.629.147,1.222.172.131,https://maps.google.com/?cid=0x0:0xe498d353b2b25b6a,
perumahan,Komplek perumahan,Perumahan Alok indah 2,"9698+F89, Kota Baru, Kec. Alok Tim., Kabupaten Sikka, Nusa Tenggara Tim.","Kabupaten Sikka, Nusa Tenggara Tim.",NUSA TENGGARA TIMUR,,Indonesia,,,,-86.312.891,1.222.159.441,https://maps.google.com/?cid=0x0:0x8afabf9f9f28d6f0,
perumahan,Komplek perumahan,Kompleks Perumahan,"96C6+G5J, Block M Ujung Aspal, Madawat, Kec. Alok, Kabupaten Sikka, Nusa Tenggara Tim.","Kabupaten Sikka, Nusa Tenggara Tim.",NUSA TENGGARA TIMUR,,Indonesia,,,,-86.286.714,1.222.103.793,https://maps.google.com/?cid=0x0:0x22437f3608e59668,
perumahan,Klinik Kesehatan,Perumnas Maumere,"96H6+3MP, Jl. Dahlia 1, Madawat, Kec. Alok, Kabupaten Sikka, Nusa Tenggara Tim.","Kabupaten Sikka, Nusa Tenggara Tim.",NUSA TENGGARA TIMUR,,Indonesia,,,,-86.222.838,1.222.117.176,https://maps.google.com/?cid=0x0:0x206c6c9f15b5d2e3,
perumahan,Pembangunan Perumahan,"Kahat, Flores, Indonesia","87VF+G4, Kokowahor, Kec. Kangae, Kabupaten Sikka, Nusa Tenggara Tim.","Kabupaten Sikka, Nusa Tenggara Tim.",NUSA TENGGARA TIMUR,,Indonesia,,,,-86.562.554,1.222.728.289,https://maps.google.com/?cid=0x0:0x40beec5ddcdc017,
perumahan,Kantor Perusahaan,Dinas Perumahan dan Kawasan Permukiman dan Pertanahan,"96F7+XVH, Jl. Gajah Mada, Madawat, Kec. Alok, Kabupaten Sikka, Nusa Tenggara Tim.","Kabupaten Sikka, Nusa Tenggara Tim.",NUSA TENGGARA TIMUR,,Indonesia,,,,-86.250.502,122.214.747,https://maps.google.com/?cid=0x0:0xf7b3d0b9c29ea90b,
perumahan,Bali,Rumah Makan Bali,"96P3+9G2, Kota Uneng, Kec. Alok, Kabupaten Sikka, Nusa Tenggara Tim.","Kabupaten Sikka, Nusa Tenggara Tim.",NUSA TENGGARA TIMUR,,Indonesia,,,,-86.141.154,1.222.037.796,https://maps.google.com/?cid=0x0:0xa9f9e1d2c7e8c556,
perumahan,Pembangunan Perumahan,Lastry,"Jl. Anyelir III, Madawat, Kec. Alok, Kabupaten Sikka, Nusa Tenggara Tim.","Kabupaten Sikka, Nusa Tenggara Tim.",NUSA TENGGARA TIMUR,,Indonesia,,,,-86.213.707,1.222.094.488,https://maps.google.com/?cid=0x0:0xd9692af5f032c412,
perumahan,Penginapan,Perumahan Puri Kimbul Permai,"95JX+HJ3, Unnamed Rd, Wolomarang, Kec. Alok Bar., Kabupaten Sikka, Nusa Tenggara Tim.","Kabupaten Sikka, Nusa Tenggara Tim.",NUSA TENGGARA TIMUR,,Indonesia,,,,-86.186.219,1.221.990.375,https://maps.google.com/?cid=0x0:0x779c7c4bf6098bfb,
perumahan,Komplek perumahan,Rumah Abel,"9689+97C, Kota Baru, Kec. Alok Tim., Kabupaten Sikka, Nusa Tenggara Tim.","Kabupaten Sikka, Nusa Tenggara Tim.",NUSA TENGGARA TIMUR,,Indonesia,,,,-8.634.099,1.222.179.289,https://maps.google.com/?cid=0x0:0xc700b3bf0ad4f9c9,
perumahan,Komplek perumahan,Lorong kincir,"96J9+JF9, Kota Uneng, Kec. Alok, Kabupaten Sikka, Nusa Tenggara Tim.","Kabupaten Sikka, Nusa Tenggara Tim.",NUSA TENGGARA TIMUR,,Indonesia,,,,-86.184.707,1.222.187.245,https://maps.google.com/?cid=0x0:0x63d22dab6bdb542c,
perumahan,Pembangunan Perumahan,MARIANO,"96H6+Q8M, Kota Uneng, Kec. Alok, Kabupaten Sikka, Nusa Tenggara Tim.","Kabupaten Sikka, Nusa Tenggara Tim.",NUSA TENGGARA TIMUR,,Indonesia,,,,-86.205.311,1.222.108.113,https://maps.google.com/?cid=0x0:0x43bf715425151f00,
perumahan,Komplek perumahan,Rumah Angel Radja,"belakang SDK Maumere IV, Jl. Wairklau, Madawat, Kec. Alok, Kabupaten Sikka, Nusa Tenggara Tim.","Kabupaten Sikka, Nusa Tenggara Tim.",NUSA TENGGARA TIMUR,,Indonesia,,,,-86.266.559,122.212.564,https://maps.google.com/?cid=0x0:0xc74335ab619717fb,
perumahan,Pembangunan Perumahan,Palem 21,"96F6+6QG, Madawat, Kec. Alok, Kabupaten Sikka, Nusa Tenggara Tim.","Kabupaten Sikka, Nusa Tenggara Tim.",NUSA TENGGARA TIMUR,,Indonesia,,,,-86.269.427,122.211.964,https://maps.google.com/?cid=0x0:0xdaf57353f13e495e,
perumahan,Komplek perumahan,Gavril Home,"9695+7HV, Madawat, Kec. Alok, Kabupaten Sikka, Nusa Tenggara Tim.","Kabupaten Sikka, Nusa Tenggara Tim.",NUSA TENGGARA TIMUR,,Indonesia,,,,-86.317.723,1.222.089.117,https://maps.google.com/?cid=0x0:0x2ceb22ffaf5320ed,
perumahan,Komplek perumahan,Rumah tinggal,"96H8+2HG c'2, Kabor, Kec. Alok, Kabupaten Sikka, Nusa Tenggara Tim.","Kabupaten Sikka, Nusa Tenggara Tim.",NUSA TENGGARA TIMUR,,Indonesia,,,,-86.224.367,1.222.164.389,https://maps.google.com/?cid=0x0:0xacd65cfc965a49e3,
perumahan,Komplek perumahan,Lorong kincir air,"96F7+VCG, Jl. Mawar, Madawat, Kec. Alok, Kabupaten Sikka, Nusa Tenggara Tim.","Kabupaten Sikka, Nusa Tenggara Tim.",NUSA TENGGARA TIMUR,,Indonesia,,,,-86.253.106,1.222.135.807,https://maps.google.com/?cid=0x0:0xd32c16d1d24db423,
perumahan,Komplek perumahan,Itonk,"Jl. Kimang Buleng, Kota Uneng, Kec. Alok, Kabupaten Sikka, Nusa Tenggara Tim.","Kabupaten Sikka, Nusa Tenggara Tim.",NUSA TENGGARA TIMUR,,Indonesia,,,,-86.185.024,1.222.106.895,https://maps.google.com/?cid=0x0:0xcb7621db02789d35,
perumahan,Komplek perumahan,RumahJabatanWakapolres,"Jl. Merpati No.8, Kota Baru, Kec. Alok Tim., Kabupaten Sikka, Nusa Tenggara Tim.","Kabupaten Sikka, Nusa Tenggara Tim.",NUSA TENGGARA TIMUR,,Indonesia,,,,-86.217.082,1.222.214.074,https://maps.google.com/?cid=0x0:0xfd6ea129015a0484,
perumahan,Komplek perumahan,Gang Mangga,"Gang Mangga, Beru, Kec. Alok Tim., Kabupaten Sikka, Nusa Tenggara Tim.","Kabupaten Sikka, Nusa Tenggara Tim.",NUSA TENGGARA TIMUR,,Indonesia,,,,-86.327.706,1.222.217.562,https://maps.google.com/?cid=0x0:0x58bf3c1d74f3b316,
perumahan,Perhimpunan Pengembang Perumahan,Lorong Belzem,"96F7+F48, Madawat, Kec. Alok, Kabupaten Sikka, Nusa Tenggara Tim.","Kabupaten Sikka, Nusa Tenggara Tim.",NUSA TENGGARA TIMUR,,Indonesia,,,,-86.263.381,1.222.128.383,https://maps.google.com/?cid=0x0:0xe999945ff43ba212,
perumahan,Komplek perumahan,Rumah Bidan Yul,"9689+F47, Kota Baru, Kec. Alok Tim., Kabupaten Sikka, Nusa Tenggara Tim.","Kabupaten Sikka, Nusa Tenggara Tim.",NUSA TENGGARA TIMUR,,Indonesia,,,,-86.338.484,1.222.178.863,https://maps.google.com/?cid=0x0:0x7b085f265af789d0,
perumahan,Komplek perumahan,", s","96H8+3H8, Jl. Nong Meak, Kabor, Kec. Alok, Kabupaten Sikka, Nusa Tenggara Tim.","Kabupaten Sikka, Nusa Tenggara Tim.",NUSA TENGGARA TIMUR,,Indonesia,,,,-86.223.264,1.222.164.614,https://maps.google.com/?cid=0x0:0xf61d75e8ad218520,
perumahan,Komplek perumahan,Rumah_Koe_Mof,"96H5+9MG, Jl. Anyelir 2, Madawat, Kec. Alok, Kabupaten Sikka, Nusa Tenggara Tim.","Kabupaten Sikka, Nusa Tenggara Tim.",NUSA TENGGARA TIMUR,,Indonesia,,,,-86.215.629,1.222.092.101,https://maps.google.com/?cid=0x0:0x442760053d18902e,
perumahan,perumahan,Nusa Tenggara Tim. 86113,"Kota Uneng, Kec. Alok, Kabupaten Sikka, Nusa Tenggara Tim.","Kabupaten Sikka, Nusa Tenggara Tim.",NUSA TENGGARA TIMUR,,Indonesia,,,,-86.167.643,1.222.178.482,https://maps.google.com/?cid=0x0:0xddb39f86610c6a42,
perumahan,Pembangunan Perumahan,Perumahan Alok Indah,"96C8+8VW, Unnamed Road, Kota Baru, Kec. Alok Tim., Kabupaten Sikka, Nusa Tenggara Tim.","Kabupaten Sikka, Nusa Tenggara Tim.",NUSA TENGGARA TIMUR,,Indonesia,,,,-8.629.147,1.222.172.131,https://maps.google.com/?cid=0x0:0xe498d353b2b25b6a,
perumahan,Pembangunan Perumahan,Belakang lembaga,"96C8+582, Kota Baru, Kec. Alok Tim., Kabupaten Sikka, Nusa Tenggara Tim.","Kabupaten Sikka, Nusa Tenggara Tim.",NUSA TENGGARA TIMUR,,Indonesia,,,,-86.296.045,1.222.157.597,https://maps.google.com/?cid=0x0:0xcda8db651cad92e4,
perumahan,perumahan,Kec. Alok,"Kabupaten Sikka, Nusa Tenggara Tim.","Kabupaten Sikka, Nusa Tenggara Tim.",NUSA TENGGARA TIMUR,,Indonesia,,,,-86.245.579,1.222.146.965,https://maps.google.com/?cid=0x0:0xe8b3116f53fe9712,
perumahan,Pembangunan Perumahan,Perumahan Alok Indah,"96C8+8VW, Unnamed Road, Kota Baru, Kec. Alok Tim., Kabupaten Sikka, Nusa Tenggara Tim.","Kabupaten Sikka, Nusa Tenggara Tim.",NUSA TENGGARA TIMUR,,Indonesia,,,,-8.629.147,1.222.172.131,https://maps.google.com/?cid=0x0:0xe498d353b2b25b6a,
perumahan,Komplek perumahan,Kompleks Perumahan,"96C6+G5J, Block M Ujung Aspal, Madawat, Kec. Alok, Kabupaten Sikka, Nusa Tenggara Tim.","Kabupaten Sikka, Nusa Tenggara Tim.",NUSA TENGGARA TIMUR,,Indonesia,,,,-86.286.714,1.222.103.793,https://maps.google.com/?cid=0x0:0x22437f3608e59668,
perumahan,Klinik Kesehatan,Perumnas Maumere,"96H6+3MP, Jl. Dahlia 1, Madawat, Kec. Alok, Kabupaten Sikka, Nusa Tenggara Tim.","Kabupaten Sikka, Nusa Tenggara Tim.",NUSA TENGGARA TIMUR,,Indonesia,,,,-86.222.838,1.222.117.176,https://maps.google.com/?cid=0x0:0x206c6c9f15b5d2e3,
perumahan,Pembangunan Perumahan,"Kahat, Flores, Indonesia","87VF+G4, Kokowahor, Kec. Kangae, Kabupaten Sikka, Nusa Tenggara Tim.","Kabupaten Sikka, Nusa Tenggara Tim.",NUSA TENGGARA TIMUR,,Indonesia,,,,-86.562.554,1.222.728.289,https://maps.google.com/?cid=0x0:0x40beec5ddcdc017,
perumahan,Pembangunan Perumahan,Lastry,"Jl. Anyelir III, Madawat, Kec. Alok, Kabupaten Sikka, Nusa Tenggara Tim.","Kabupaten Sikka, Nusa Tenggara Tim.",NUSA TENGGARA TIMUR,,Indonesia,,,,-86.213.707,1.222.094.488,https://maps.google.com/?cid=0x0:0xd9692af5f032c412,
perumahan,Pembangunan Perumahan,Palem 21,"96F6+6QG, Madawat, Kec. Alok, Kabupaten Sikka, Nusa Tenggara Tim.","Kabupaten Sikka, Nusa Tenggara Tim.",NUSA TENGGARA TIMUR,,Indonesia,,,,-86.269.427,122.211.964,https://maps.google.com/?cid=0x0:0xdaf57353f13e495e,
perumahan,Komplek perumahan,Gavril Home,"9695+7HV, Madawat, Kec. Alok, Kabupaten Sikka, Nusa Tenggara Tim.","Kabupaten Sikka, Nusa Tenggara Tim.",NUSA TENGGARA TIMUR,,Indonesia,,,,-86.317.723,1.222.089.117,https://maps.google.com/?cid=0x0:0x2ceb22ffaf5320ed,
perumahan,Komplek perumahan,Perumahan Alok indah 2,"9698+F89, Kota Baru, Kec. Alok Tim., Kabupaten Sikka, Nusa Tenggara Tim.","Kabupaten Sikka, Nusa Tenggara Tim.",NUSA TENGGARA TIMUR,,Indonesia,,,,-86.312.891,1.222.159.441,https://maps.google.com/?cid=0x0:0x8afabf9f9f28d6f0,
perumahan,Komplek perumahan,Rumah tinggal,"96H8+2HG c'2, Kabor, Kec. Alok, Kabupaten Sikka, Nusa Tenggara Tim.","Kabupaten Sikka, Nusa Tenggara Tim.",NUSA TENGGARA TIMUR,,Indonesia,,,,-86.224.367,1.222.164.389,https://maps.google.com/?cid=0x0:0xacd65cfc965a49e3,
perumahan,Penginapan,Perumahan Puri Kimbul Permai,"95JX+HJ3, Unnamed Rd, Wolomarang, Kec. Alok Bar., Kabupaten Sikka, Nusa Tenggara Tim.","Kabupaten Sikka, Nusa Tenggara Tim.",NUSA TENGGARA TIMUR,,Indonesia,,,,-86.186.219,1.221.990.375,https://maps.google.com/?cid=0x0:0x779c7c4bf6098bfb,
perumahan,Komplek perumahan,Lorong kincir,"96J9+JF9, Kota Uneng, Kec. Alok, Kabupaten Sikka, Nusa Tenggara Tim.","Kabupaten Sikka, Nusa Tenggara Tim.",NUSA TENGGARA TIMUR,,Indonesia,,,,-86.184.707,1.222.187.245,https://maps.google.com/?cid=0x0:0x63d22dab6bdb542c,
perumahan,Komplek perumahan,Rumah Abel,"9689+97C, Kota Baru, Kec. Alok Tim., Kabupaten Sikka, Nusa Tenggara Tim.","Kabupaten Sikka, Nusa Tenggara Tim.",NUSA TENGGARA TIMUR,,Indonesia,,,,-8.634.099,1.222.179.289,https://maps.google.com/?cid=0x0:0xc700b3bf0ad4f9c9,
perumahan,Komplek perumahan,Rumah Angel Radja,"belakang SDK Maumere IV, Jl. Wairklau, Madawat, Kec. Alok, Kabupaten Sikka, Nusa Tenggara Tim.","Kabupaten Sikka, Nusa Tenggara Tim.",NUSA TENGGARA TIMUR,,Indonesia,,,,-86.266.559,122.212.564,https://maps.google.com/?cid=0x0:0xc74335ab619717fb,
perumahan,Komplek perumahan,RumahJabatanWakapolres,"Jl. Merpati No.8, Kota Baru, Kec. Alok Tim., Kabupaten Sikka, Nusa Tenggara Tim.","Kabupaten Sikka, Nusa Tenggara Tim.",NUSA TENGGARA TIMUR,,Indonesia,,,,-86.217.082,1.222.214.074,https://maps.google.com/?cid=0x0:0xfd6ea129015a0484,
perumahan,Komplek perumahan,Rumah Bapa Olivier,"Jalan k.s No.86, RT.004/RW.014, Kota Baru, Kec. Alok, Kabupaten Sikka, Nusa Tenggara Tim.","Kabupaten Sikka, Nusa Tenggara Tim.",NUSA TENGGARA TIMUR,,Indonesia,,,,-86.328.387,1.222.131.133,https://maps.google.com/?cid=0x0:0x491747589e211a98,
perumahan,Komplek perumahan,", s","96H8+3H8, Jl. Nong Meak, Kabor, Kec. Alok, Kabupaten Sikka, Nusa Tenggara Tim.","Kabupaten Sikka, Nusa Tenggara Tim.",NUSA TENGGARA TIMUR,,Indonesia,,,,-86.223.264,1.222.164.614,https://maps.google.com/?cid=0x0:0xf61d75e8ad218520,
perumahan,Perhimpunan Pengembang Perumahan,Lorong Belzem,"96F7+F48, Madawat, Kec. Alok, Kabupaten Sikka, Nusa Tenggara Tim.","Kabupaten Sikka, Nusa Tenggara Tim.",NUSA TENGGARA TIMUR,,Indonesia,,,,-86.263.381,1.222.128.383,https://maps.google.com/?cid=0x0:0xe999945ff43ba212,
perumahan,perumahan,Rumah Bintang,"96F9+368, Kota Baru, Kec. Alok Tim., Kabupaten Sikka, Nusa Tenggara Tim.","Kabupaten Sikka, Nusa Tenggara Tim.",NUSA TENGGARA TIMUR,,Indonesia,,,,-8.627.529,12.221.794,https://maps.google.com/?cid=0x0:0x78679b725cb321b3,
perumahan,Komplek perumahan,Rumah Bidan Yul,"9689+F47, Kota Baru, Kec. Alok Tim., Kabupaten Sikka, Nusa Tenggara Tim.","Kabupaten Sikka, Nusa Tenggara Tim.",NUSA TENGGARA TIMUR,,Indonesia,,,,-86.338.484,1.222.178.863,https://maps.google.com/?cid=0x0:0x7b085f265af789d0,
perumahan,Komplek perumahan,home,"96H6+3MG, Jl. Dahlia 1, Madawat, Kec. Alok, Kabupaten Sikka, Nusa Tenggara Tim.","Kabupaten Sikka, Nusa Tenggara Tim.",NUSA TENGGARA TIMUR,,Indonesia,,,,-86.223.002,1.222.117.164,https://maps.google.com/?cid=0x0:0x61cca3d5ca6ca897,
perumahan,Komplek perumahan,Lorong kincir air,"96F7+VCG, Jl. Mawar, Madawat, Kec. Alok, Kabupaten Sikka, Nusa Tenggara Tim.","Kabupaten Sikka, Nusa Tenggara Tim.",NUSA TENGGARA TIMUR,,Indonesia,,,,-86.253.106,1.222.135.807,https://maps.google.com/?cid=0x0:0xd32c16d1d24db423,
perumahan,Komplek perumahan,Rumah Bpk. Doni,"96C5+8W3, Madawat, Kec. Alok, Kabupaten Sikka, Nusa Tenggara Tim.","Kabupaten Sikka, Nusa Tenggara Tim.",NUSA TENGGARA TIMUR,,Indonesia,,,,-86.292.339,1.222.097.814,https://maps.google.com/?cid=0x0:0x7b8a7f25ec8915bd,
perumahan,perumahan,Kec. Alok,"Kabupaten Sikka, Nusa Tenggara Tim.","Kabupaten Sikka, Nusa Tenggara Tim.",NUSA TENGGARA TIMUR,,Indonesia,,,,-86.245.579,1.222.146.965,https://maps.google.com/?cid=0x0:0xe8b3116f53fe9712,
perumahan,Pembangunan Perumahan,Perumahan Alok Indah,"96C8+8VW, Unnamed Road, Kota Baru, Kec. Alok Tim., Kabupaten Sikka, Nusa Tenggara Tim.","Kabupaten Sikka, Nusa Tenggara Tim.",NUSA TENGGARA TIMUR,,Indonesia,,,,-8.629.147,1.222.172.131,https://maps.google.com/?cid=0x0:0xe498d353b2b25b6a,
perumahan,Pembangunan Perumahan,Belakang lembaga,"96C8+582, Kota Baru, Kec. Alok Tim., Kabupaten Sikka, Nusa Tenggara Tim.","Kabupaten Sikka, Nusa Tenggara Tim.",NUSA TENGGARA TIMUR,,Indonesia,,,,-86.296.045,1.222.157.597,https://maps.google.com/?cid=0x0:0xcda8db651cad92e4,
perumahan,Klinik Kesehatan,Perumnas Maumere,"96H6+3MP, Jl. Dahlia 1, Madawat, Kec. Alok, Kabupaten Sikka, Nusa Tenggara Tim.","Kabupaten Sikka, Nusa Tenggara Tim.",NUSA TENGGARA TIMUR,,Indonesia,,,,-86.222.838,1.222.117.176,https://maps.google.com/?cid=0x0:0x206c6c9f15b5d2e3,
perumahan,Pembangunan Perumahan,"Kahat, Flores, Indonesia","87VF+G4, Kokowahor, Kec. Kangae, Kabupaten Sikka, Nusa Tenggara Tim.","Kabupaten Sikka, Nusa Tenggara Tim.",NUSA TENGGARA TIMUR,,Indonesia,,,,-86.562.554,1.222.728.289,https://maps.google.com/?cid=0x0:0x40beec5ddcdc017,
perumahan,Pembangunan Perumahan,Lastry,"Jl. Anyelir III, Madawat, Kec. Alok, Kabupaten Sikka, Nusa Tenggara Tim.","Kabupaten Sikka, Nusa Tenggara Tim.",NUSA TENGGARA TIMUR,,Indonesia,,,,-86.213.707,1.222.094.488,https://maps.google.com/?cid=0x0:0xd9692af5f032c412,
perumahan,Komplek perumahan,Perumahan Alok indah 2,"9698+F89, Kota Baru, Kec. Alok Tim., Kabupaten Sikka, Nusa Tenggara Tim.","Kabupaten Sikka, Nusa Tenggara Tim.",NUSA TENGGARA TIMUR,,Indonesia,,,,-86.312.891,1.222.159.441,https://maps.google.com/?cid=0x0:0x8afabf9f9f28d6f0,
perumahan,Penginapan,Perumahan Puri Kimbul Permai,"95JX+HJ3, Unnamed Rd, Wolomarang, Kec. Alok Bar., Kabupaten Sikka, Nusa Tenggara Tim.","Kabupaten Sikka, Nusa Tenggara Tim.",NUSA TENGGARA TIMUR,,Indonesia,,,,-86.186.219,1.221.990.375,https://maps.google.com/?cid=0x0:0x779c7c4bf6098bfb,
perumahan,Komplek perumahan,Lorong kincir,"96J9+JF9, Kota Uneng, Kec. Alok, Kabupaten Sikka, Nusa Tenggara Tim.","Kabupaten Sikka, Nusa Tenggara Tim.",NUSA TENGGARA TIMUR,,Indonesia,,,,-86.184.707,1.222.187.245,https://maps.google.com/?cid=0x0:0x63d22dab6bdb542c,
perumahan,Komplek perumahan,Rumah Abel,"9689+97C, Kota Baru, Kec. Alok Tim., Kabupaten Sikka, Nusa Tenggara Tim.","Kabupaten Sikka, Nusa Tenggara Tim.",NUSA TENGGARA TIMUR,,Indonesia,,,,-8.634.099,1.222.179.289,https://maps.google.com/?cid=0x0:0xc700b3bf0ad4f9c9,
perumahan,Pembangunan Perumahan,Palem 21,"96F6+6QG, Madawat, Kec. Alok, Kabupaten Sikka, Nusa Tenggara Tim.","Kabupaten Sikka, Nusa Tenggara Tim.",NUSA TENGGARA TIMUR,,Indonesia,,,,-86.269.427,122.211.964,https://maps.google.com/?cid=0x0:0xdaf57353f13e495e,
perumahan,Pembangunan Perumahan,MARIANO,"96H6+Q8M, Kota Uneng, Kec. Alok, Kabupaten Sikka, Nusa Tenggara Tim.","Kabupaten Sikka, Nusa Tenggara Tim.",NUSA TENGGARA TIMUR,,Indonesia,,,,-86.205.311,1.222.108.113,https://maps.google.com/?cid=0x0:0x43bf715425151f00,
perumahan,Komplek perumahan,Rumah Angel Radja,"belakang SDK Maumere IV, Jl. Wairklau, Madawat, Kec. Alok, Kabupaten Sikka, Nusa Tenggara Tim.","Kabupaten Sikka, Nusa Tenggara Tim.",NUSA TENGGARA TIMUR,,Indonesia,,,,-86.266.559,122.212.564,https://maps.google.com/?cid=0x0:0xc74335ab619717fb,
perumahan,Komplek perumahan,Itonk,"Jl. Kimang Buleng, Kota Uneng, Kec. Alok, Kabupaten Sikka, Nusa Tenggara Tim.","Kabupaten Sikka, Nusa Tenggara Tim.",NUSA TENGGARA TIMUR,,Indonesia,,,,-86.185.024,1.222.106.895,https://maps.google.com/?cid=0x0:0xcb7621db02789d35,
perumahan,Komplek perumahan,Lorong kincir air,"96F7+VCG, Jl. Mawar, Madawat, Kec. Alok, Kabupaten Sikka, Nusa Tenggara Tim.","Kabupaten Sikka, Nusa Tenggara Tim.",NUSA TENGGARA TIMUR,,Indonesia,,,,-86.253.106,1.222.135.807,https://maps.google.com/?cid=0x0:0xd32c16d1d24db423,
perumahan,Komplek perumahan,Rumah tinggal,"96H8+2HG c'2, Kabor, Kec. Alok, Kabupaten Sikka, Nusa Tenggara Tim.","Kabupaten Sikka, Nusa Tenggara Tim.",NUSA TENGGARA TIMUR,,Indonesia,,,,-86.224.367,1.222.164.389,https://maps.google.com/?cid=0x0:0xacd65cfc965a49e3,
perumahan,Komplek perumahan,Rumah Bapa Olivier,"Jalan k.s No.86, RT.004/RW.014, Kota Baru, Kec. Alok, Kabupaten Sikka, Nusa Tenggara Tim.","Kabupaten Sikka, Nusa Tenggara Tim.",NUSA TENGGARA TIMUR,,Indonesia,,,,-86.328.387,1.222.131.133,https://maps.google.com/?cid=0x0:0x491747589e211a98,
perumahan,Perhimpunan Pengembang Perumahan,Lorong Belzem,"96F7+F48, Madawat, Kec. Alok, Kabupaten Sikka, Nusa Tenggara Tim.","Kabupaten Sikka, Nusa Tenggara Tim.",NUSA TENGGARA TIMUR,,Indonesia,,,,-86.263.381,1.222.128.383,https://maps.google.com/?cid=0x0:0xe999945ff43ba212,
perumahan,Komplek perumahan,RumahJabatanWakapolres,"Jl. Merpati No.8, Kota Baru, Kec. Alok Tim., Kabupaten Sikka, Nusa Tenggara Tim.","Kabupaten Sikka, Nusa Tenggara Tim.",NUSA TENGGARA TIMUR,,Indonesia,,,,-86.217.082,1.222.214.074,https://maps.google.com/?cid=0x0:0xfd6ea129015a0484,
perumahan,Komplek perumahan,Rumah Bidan Yul,"9689+F47, Kota Baru, Kec. Alok Tim., Kabupaten Sikka, Nusa Tenggara Tim.","Kabupaten Sikka, Nusa Tenggara Tim.",NUSA TENGGARA TIMUR,,Indonesia,,,,-86.338.484,1.222.178.863,https://maps.google.com/?cid=0x0:0x7b085f265af789d0,
perumahan,Komplek perumahan,Rumah Bapak Fiator Nong,"9688+CRC, Jalan Garuda, Kota Baru, Kec. Alok Tim., Kabupaten Sikka, Nusa Tenggara Tim.","Kabupaten Sikka, Nusa Tenggara Tim.",NUSA TENGGARA TIMUR,,Indonesia,,,,-86.339.382,122.217.017,https://maps.google.com/?cid=0x0:0x294ab78998d4c9a9,
perumahan,Pembangunan Perumahan,Batarank,"9688+RJ2, jalan k.s tubun, Kota Baru, Kec. Alok Tim., Kabupaten Sikka, Nusa Tenggara Tim.","Kabupaten Sikka, Nusa Tenggara Tim.",NUSA TENGGARA TIMUR,,Indonesia,81217617670,,,-86.329.915,1.222.165.302,https://maps.google.com/?cid=0x0:0x4262e5cfd279ff72,
perumahan,perumahan,Rumah Bintang,"96F9+368, Kota Baru, Kec. Alok Tim., Kabupaten Sikka, Nusa Tenggara Tim.","Kabupaten Sikka, Nusa Tenggara Tim.",NUSA TENGGARA TIMUR,,Indonesia,,,,-8.627.529,12.221.794,https://maps.google.com/?cid=0x0:0x78679b725cb321b3,
perumahan,perumahan,Nusa Tenggara Tim. 86111,"Kota Uneng, Kec. Alok, Kabupaten Sikka, Nusa Tenggara Tim.","Kabupaten Sikka, Nusa Tenggara Tim.",NUSA TENGGARA TIMUR,,Indonesia,,,,-86.139.767,1.222.125.928,https://maps.google.com/?cid=0x0:0x15b5b19775888894,
perumahan,Komplek perumahan,Kecamatan palue,"MR5M+X99, Lidi, Palue, Kabupaten Sikka, Nusa Tenggara Tim.","Kabupaten Sikka, Nusa Tenggara Tim.",NUSA TENGGARA TIMUR,,Indonesia,,,,-83.400.825,1.218.334.868,https://maps.google.com/?cid=0x0:0x80ffedfc1066ecd2,
perumahan,Komplek perumahan,Mariano jM,"96P7+8FW, Jl. Raya Maumere - Magepanda, Kota Uneng, Kec. Alok, Kabupaten Sikka, Nusa Tenggara Tim.","Kabupaten Sikka, Nusa Tenggara Tim.",NUSA TENGGARA TIMUR,,Indonesia,,,,-8.614.128,1.222.136.937,https://maps.google.com/?cid=0x0:0xa5ba969b401aa04,
perumahan,Pembangunan Perumahan,Rumah Tian,"96M7+MC8, Kota Uneng, Kec. Alok, Kabupaten Sikka, Nusa Tenggara Tim.","Kabupaten Sikka, Nusa Tenggara Tim.",NUSA TENGGARA TIMUR,,Indonesia,,,,-86.158.474,1.222.135.757,https://maps.google.com/?cid=0x0:0x1f6790f3cc93065a,
perumahan,Pembangunan Perumahan,Yohanes Djuang Soge,"Jl. Teka Iku No.16 D, Nangameting, Kec. Alok Tim., Kabupaten Sikka, Nusa Tenggara Tim. 86111","Nangameting, Kec. Alok Tim., Kabupaten Sikka",NUSA TENGGARA TIMUR,86111.0,Indonesia,,,,-86.139.767,1.222.125.928,https://maps.google.com/?cid=0x0:0x93ed57fe56eaad8c,
perumahan,Pembangunan Perumahan,Barra's Homiee,"96P7+C24, Jln Jenderal Sudirman, Lorong TK Imaculata Kel, RT.009/RW.003, Waioti, Alok Timur, Sikka Regency, East Nusa Tenggara 86111","Jln Jenderal Sudirman, Lorong TK Imaculata Kel, RT.009/RW.003, Waioti, Alok Timur, Sikka Regency",NUSA TENGGARA TIMUR,86111.0,Indonesia,,,,-86.139.767,1.222.125.928,https://maps.google.com/?cid=0x0:0xeccd1c1235d7d051,
perumahan,Komplek perumahan,Kost NAGRAVAL,"Tuang Muut, Jl. Don Juang, Kota Uneng, Kec. Alok, Kabupaten Sikka, Nusa Tenggara Tim.","Kabupaten Sikka, Nusa Tenggara Tim.",NUSA TENGGARA TIMUR,,Indonesia,,,,-8.615,1.222.141.875,https://maps.google.com/?cid=0x0:0x6ac555f462d1116f,
perumahan,Bengkel Mobil,Bengkel yeri Binter,"96P7+FFQ, Gg. Binter, Kota Uneng, Kec. Alok, Kabupaten Sikka, Nusa Tenggara Tim.","Kabupaten Sikka, Nusa Tenggara Tim.",NUSA TENGGARA TIMUR,,Indonesia,,,,-86.137.649,1.222.136.208,https://maps.google.com/?cid=0x0:0xc1683a9b94f72e1d,
perumahan,perumahan,Palue,"Kabupaten Sikka, Nusa Tenggara Tim.","Kabupaten Sikka, Nusa Tenggara Tim.",NUSA TENGGARA TIMUR,,Indonesia,,,,-83.027.278,1.217.304.129,https://maps.google.com/?cid=0x0:0x417ca9cee20d2a8b,
perumahan,Komplek perumahan,Ngaru Reo,"MMMX+HR5, Jalan loimite, Rokirole, Palue, Kabupaten Sikka, Nusa Tenggara Tim.","Kabupaten Sikka, Nusa Tenggara Tim.",NUSA TENGGARA TIMUR,,Indonesia,,,,-83.161.184,1.216.995.943,https://maps.google.com/?cid=0x0:0x14217e80c358d29,
perumahan,Komplek perumahan,CAWALO,"MMQW+PVX, Rokirole, Palue, Kabupaten Sikka, Nusa Tenggara Tim.","Kabupaten Sikka, Nusa Tenggara Tim.",NUSA TENGGARA TIMUR,,Indonesia,,,,-83.106.293,1.216.972.421,https://maps.google.com/?cid=0x0:0x8d8fed7b7e66964a,
perumahan,Komplek perumahan,Vynno home,"MPXH+QMG, Jl.Protokol, Maluriwu, Palue, Kabupaten Sikka, Nusa Tenggara Tim.","Kabupaten Sikka, Nusa Tenggara Tim.",NUSA TENGGARA TIMUR,,Indonesia,,,,-82.999.592,1.217.290.947,https://maps.google.com/?cid=0x0:0xc826bb2b96d51b5,
perumahan,Komplek perumahan,MD Home,"MMRV+4P8, Rokirole, Palue, Kabupaten Sikka, Nusa Tenggara Tim.","Kabupaten Sikka, Nusa Tenggara Tim.",NUSA TENGGARA TIMUR,,Indonesia,,,,-8.309.709,1.216.943.238,https://maps.google.com/?cid=0x0:0x13aa71b4f4554fc4,
perumahan,Komplek perumahan,Nitung(Nata Rora),"MP2F+69, Nitunglea, Palue, Kabupaten Sikka, Nusa Tenggara Tim.","Kabupaten Sikka, Nusa Tenggara Tim.",NUSA TENGGARA TIMUR,,Indonesia,,,,-83.223.667,1.216.873.464,https://maps.google.com/?cid=0x0:0x9920da682c330e24,
perumahan,Komplek perumahan,Kampung Ngalu,"MPWJ+W29, Reruwairere, Palue, Kabupaten Sikka, Nusa Tenggara Tim.","Kabupaten Sikka, Nusa Tenggara Tim.",NUSA TENGGARA TIMUR,,Indonesia,,,,-83.028.532,1.217.301.638,https://maps.google.com/?cid=0x0:0x519969ae121ddb76,
perumahan,Komplek perumahan,KOA,"MMMR+24H, Rokirole, Palue, Kabupaten Sikka, Nusa Tenggara Tim.","Kabupaten Sikka, Nusa Tenggara Tim.",NUSA TENGGARA TIMUR,,Indonesia,,,,-83.174.279,1.216.903.498,https://maps.google.com/?cid=0x0:0xae6a87a9a68263fc,
perumahan,Komplek perumahan,Tudu,"MMRV+3HH, Dusun Tudu, Rokirole, Palue, Kabupaten Sikka, Nusa Tenggara Tim.","Kabupaten Sikka, Nusa Tenggara Tim.",NUSA TENGGARA TIMUR,,Indonesia,,,,-8.309.813,1.216.939.803,https://maps.google.com/?cid=0x0:0x292fa9ed9dcb0073,
perumahan,Komplek perumahan,Lundalaju,"MP9R+HMG, Lidi, Palue, Kabupaten Sikka, Nusa Tenggara Tim.","Kabupaten Sikka, Nusa Tenggara Tim.",NUSA TENGGARA TIMUR,,Indonesia,,,,-83.310.566,1.217.417.134,https://maps.google.com/?cid=0x0:0x94e66e60094e517,
perumahan,Kantor Pemerintah,Desa reruwairere,"MPWJ+W5J, Reruwairere, Palue, Kabupaten Sikka, Nusa Tenggara Tim.","Kabupaten Sikka, Nusa Tenggara Tim.",NUSA TENGGARA TIMUR,,Indonesia,,,,-83.026.717,1.217.304.044,https://maps.google.com/?cid=0x0:0x76235d4d9567c578,
perumahan,Komplek perumahan,ngaru,"MMQX+9HJ, Rokirole, Palue, Kabupaten Sikka, Nusa Tenggara Tim.","Kabupaten Sikka, Nusa Tenggara Tim.",NUSA TENGGARA TIMUR,,Indonesia,,,,-83.115.405,1.216.988.772,https://maps.google.com/?cid=0x0:0x31897b46b7e4de53,
perumahan,Komplek perumahan,Kampung Mude Wolo,"MPWH+98, Reruwairere, Palue, Kabupaten Sikka, Nusa Tenggara Tim.","Kabupaten Sikka, Nusa Tenggara Tim.",NUSA TENGGARA TIMUR,,Indonesia,,,,-83.040.461,1.217.282.735,https://maps.google.com/?cid=0x0:0x5f59f8a929590f5b,
perumahan,Komplek perumahan,Watulaki,"MPJJ+67H, Kesokoja, Palue, Kabupaten Sikka, Nusa Tenggara Tim.","Kabupaten Sikka, Nusa Tenggara Tim.",NUSA TENGGARA TIMUR,,Indonesia,,,,-83.194.277,1.217.307.274,https://maps.google.com/?cid=0x0:0x42d3848fe2fe2bf0,
perumahan,perumahan,Sanda Home,"PP29+C6H, Maluriwu, Palue, Kabupaten Sikka, Nusa Tenggara Tim.","Kabupaten Sikka, Nusa Tenggara Tim.",NUSA TENGGARA TIMUR,,Indonesia,,,,-82.989.456,1.217.181.209,https://maps.google.com/?cid=0x0:0xeeb0b03b9cc71fed,
perumahan,Komplek perumahan,GANGKENARI,"MPJH+J6X, Gangkenari, Kesokoja, Palue, Kabupaten Sikka, Nusa Tenggara Tim.","Kabupaten Sikka, Nusa Tenggara Tim.",NUSA TENGGARA TIMUR,,Indonesia,,,,-83.183.785,1.217.280.955,https://maps.google.com/?cid=0x0:0xe0ab48b2a7a5e2b2,
perumahan,Pembangunan Perumahan,Kaju Keri,"MPQ4+H53, Tuanggeo, Palue, Kabupaten Sikka, Nusa Tenggara Tim.","Kabupaten Sikka, Nusa Tenggara Tim.",NUSA TENGGARA TIMUR,,Indonesia,,,,-8.311.111,1.217.054.339,https://maps.google.com/?cid=0x0:0x959badc77c262dfa,
perumahan,Pembangunan Perumahan,Kmpg rekamuda,"RT008/RWOO4dsn tomu, Tuanggeo, Palue, Kabupaten Sikka, Nusa Tenggara Tim.","Kabupaten Sikka, Nusa Tenggara Tim.",NUSA TENGGARA TIMUR,,Indonesia,,,,-83.039.746,121.697.233,https://maps.google.com/?cid=0x0:0x17104573efa42947,
perumahan,Pusat Kesehatan Masyarakat,Puskesmas Palue,"PP2G+6PV, Reruwairere, Palue, Kabupaten Sikka, Nusa Tenggara Tim.","Kabupaten Sikka, Nusa Tenggara Tim.",NUSA TENGGARA TIMUR,,Indonesia,,,,-82.993.992,1.217.267.882,https://maps.google.com/?cid=0x0:0x392fdc5f889967bd,
perumahan,Pembangunan Perumahan,Kamp. Nata Lai,"MPQF+HCF, Kesokoja, Palue, Kabupaten Sikka, Nusa Tenggara Tim.","Kabupaten Sikka, Nusa Tenggara Tim.",NUSA TENGGARA TIMUR,,Indonesia,,,,-83.110.533,1.217.235.568,https://maps.google.com/?cid=0x0:0x7da2f468016c45c2,
perumahan,perumahan,Kec. Nelle,"Kabupaten Sikka, Nusa Tenggara Tim.","Kabupaten Sikka, Nusa Tenggara Tim.",NUSA TENGGARA TIMUR,,Indonesia,,,,-86.706.997,1.222.149.868,https://maps.google.com/?cid=0x0:0xc4faba53c04aa0f6,
perumahan,Pembangunan Perumahan,Rumah Mr.Benny Mega,"Jalan Luar Maumere, Dusun Nara 1, Desa Lepolima, Kota Baru, Kec. Alok Tim., Kabupaten Sikka, Nusa Tenggara Tim.","Kabupaten Sikka, Nusa Tenggara Tim.",NUSA TENGGARA TIMUR,,Indonesia,,,,-86.387.741,1.222.150.992,https://maps.google.com/?cid=0x0:0x5fd6a89cfe2a902c,
perumahan,Klinik Kesehatan,Perumnas Maumere,"96H6+3MP, Jl. Dahlia 1, Madawat, Kec. Alok, Kabupaten Sikka, Nusa Tenggara Tim.","Kabupaten Sikka, Nusa Tenggara Tim.",NUSA TENGGARA TIMUR,,Indonesia,,,,-86.222.838,1.222.117.176,https://maps.google.com/?cid=0x0:0x206c6c9f15b5d2e3,
perumahan,perumahan,Nusa Tenggara Tim.,,Nusa Tenggara Tim.,NUSA TENGGARA TIMUR,,Indonesia,,,,-86.573.819,1.210.793.705,https://maps.google.com/?cid=0x0:0x1030bfbcaf71ae0,
perumahan,Komplek perumahan,Rumah tinggal,"96H8+2HG c'2, Kabor, Kec. Alok, Kabupaten Sikka, Nusa Tenggara Tim.","Kabupaten Sikka, Nusa Tenggara Tim.",NUSA TENGGARA TIMUR,,Indonesia,,,,-86.224.367,1.222.164.389,https://maps.google.com/?cid=0x0:0xacd65cfc965a49e3,
perumahan,Komplek perumahan,Perumahan BTN Nangahure,"C5R4+FPR, Wuring, Kec. Alok Bar., Kabupaten Sikka, Nusa Tenggara Tim.","Kabupaten Sikka, Nusa Tenggara Tim.",NUSA TENGGARA TIMUR,,Indonesia,,,,-855.875,122.156.766,https://maps.google.com/?cid=0x0:0x7d2fe98207af78ed,
perumahan,Komplek perumahan,Perumahan Gloria Regency,"Waturia, Kolisia B, Kec. Magepanda, Kabupaten Sikka, Nusa Tenggara Tim. 86111","Kolisia B, Kec. Magepanda, Kabupaten Sikka",NUSA TENGGARA TIMUR,86111.0,Indonesia,81353928372,,,-85.500.341,1.221.347.679,https://maps.google.com/?cid=0x0:0xa74817ac7a773063,
perumahan,Perhimpunan Pengembang Perumahan,Perumahan Pesona Safira Residence,"C5R3+FP3, Nangahore,, Wuring, Kec. Alok Bar., Kabupaten Sikka, Nusa Tenggara Tim.","Kabupaten Sikka, Nusa Tenggara Tim.",NUSA TENGGARA TIMUR,,Indonesia,81239894696,,,-85.588.735,1.221.543.092,https://maps.google.com/?cid=0x0:0xab08addf0fd7ff8c,
perumahan,perumahan,Talibura,"Kec. Talibura, Kabupaten Sikka, Nusa Tenggara Tim.","Kabupaten Sikka, Nusa Tenggara Tim.",NUSA TENGGARA TIMUR,,Indonesia,,,,-8.527.175,122.512.199,https://maps.google.com/?cid=0x0:0xec694011b9ef705a,
perumahan,Perhimpunan Pengembang Perumahan,Rumah,"96CC+8RX, Jl baru, Beru, Kec. Alok Tim., Kabupaten Sikka, Nusa Tenggara Tim.","Kabupaten Sikka, Nusa Tenggara Tim.",NUSA TENGGARA TIMUR,,Indonesia,,,,-862.915,1.222.221.034,https://maps.google.com/?cid=0x0:0x411e305c1f861aea,
perumahan,Komplek perumahan,Lorong gamansa c'2,"96H8+9C2, Jl. Nong Meak, Kabor, Kec. Alok, Kabupaten Sikka, Nusa Tenggara Tim.","Kabupaten Sikka, Nusa Tenggara Tim.",NUSA TENGGARA TIMUR,,Indonesia,,,,-86.216.022,1.222.160.152,https://maps.google.com/?cid=0x0:0xddf0eb7387631db0,
perumahan,perumahan,Kec. Waigete,"Kabupaten Sikka, Nusa Tenggara Tim.","Kabupaten Sikka, Nusa Tenggara Tim.",NUSA TENGGARA TIMUR,,Indonesia,,,,-86.130.119,1.224.201.024,https://maps.google.com/?cid=0x0:0x16594dfa6a2a7e88,
perumahan,Pembangunan Perumahan,Magetuwa area,"88RJ+5M, Pogon, Kec. Waigete, Kabupaten Sikka, Nusa Tenggara Tim.","Kabupaten Sikka, Nusa Tenggara Tim.",NUSA TENGGARA TIMUR,,Indonesia,,,,-86.596.238,122.331.731,https://maps.google.com/?cid=0x0:0x88926ac378977093,
perumahan,Perhimpunan Pengembang Perumahan,GUARCHELA,"Wairterang, Kec. Waigete, Kabupaten Sikka, Nusa Tenggara Tim.","Kabupaten Sikka, Nusa Tenggara Tim.",NUSA TENGGARA TIMUR,,Indonesia,,,,-8.608.307,1.224.616.902,https://maps.google.com/?cid=0x0:0xcea1f5e348e3a65d,
perumahan,Kantor Perusahaan,Perumahan Sikka Regency,"Dunia Sawu, Jalan, Wairbleler, Waigete, Sikka Regency, East Nusa Tenggara","Kabupaten Sikka, Nusa Tenggara Tim.",NUSA TENGGARA TIMUR,,Indonesia,82147632268,,,-86.258.517,1.223.394.198,https://maps.google.com/?cid=0x0:0x4685cd3c19584942,
perumahan,Brunch,Watubala,"9FP5+XH, Wairterang, Kec. Waigete, Kabupaten Sikka, Nusa Tenggara Tim.","Kabupaten Sikka, Nusa Tenggara Tim.",NUSA TENGGARA TIMUR,,Indonesia,,,,-86.125.911,1.224.589.136,https://maps.google.com/?cid=0x0:0xc0027128a6b94896,
perumahan,Komplek perumahan,Wairmitak,"Ds, RW.mahe, kelan, Waigete, Sikka Regency, East Nusa Tenggara","Kabupaten Sikka, Nusa Tenggara Tim.",NUSA TENGGARA TIMUR,,Indonesia,,,,-86.130.119,1.224.201.024,https://maps.google.com/?cid=0x0:0xce82962302844749,
perumahan,perumahan,Norin,"CGQM+RWC, Tua Bao, Kec. Waiblama, Kabupaten Sikka, Nusa Tenggara Tim.","Kabupaten Sikka, Nusa Tenggara Tim.",NUSA TENGGARA TIMUR,,Indonesia,,,,-856.035,122.533.915,https://maps.google.com/?cid=0x0:0x56a9637a8bea334e,
perumahan,Komplek perumahan,Rumah Audrey,"9868+R3R, Jl. Nasional Maumere - Larantuka, Wairbleler, Kec. Waigete, Kabupaten Sikka, Nusa Tenggara Tim.","Kabupaten Sikka, Nusa Tenggara Tim.",NUSA TENGGARA TIMUR,,Indonesia,,,,-86.380.084,1.223.142.712,https://maps.google.com/?cid=0x0:0xfecead89a7fa000b,
perumahan,Komplek perumahan,Pomabolat area,"88RM+2V6 Kamp.Pomabolat, Aibura, Kec. Waigete, Kabupaten Sikka, Nusa Tenggara Tim.","Kabupaten Sikka, Nusa Tenggara Tim.",NUSA TENGGARA TIMUR,,Indonesia,,,,-86.599.588,1.223.346.327,https://maps.google.com/?cid=0x0:0x95f9fd117c92c6a3,
perumahan,Komplek perumahan,UTANWAIR FAMILY,"CGQ5+7P7, Nangahale, Kec. Talibura, Kabupaten Sikka, Nusa Tenggara Tim.","Kabupaten Sikka, Nusa Tenggara Tim.",NUSA TENGGARA TIMUR,,Indonesia,,,,-85.618.375,1.225.092.969,https://maps.google.com/?cid=0x0:0x7f96be5036159ff2,
perumahan,Pembangunan Perumahan,Igot,"89C2+453, Aibura, Kec. Waigete, Kabupaten Sikka, Nusa Tenggara Tim.","Kabupaten Sikka, Nusa Tenggara Tim.",NUSA TENGGARA TIMUR,,Indonesia,,,,-86.797.285,1.223.504.283,https://maps.google.com/?cid=0x0:0x35cc4d509180eb4d,
perumahan,Titik Pemandangan,Kampung wolonkolit,"88HP+98, Pogon, Kec. Waigete, Kabupaten Sikka, Nusa Tenggara Tim.","Kabupaten Sikka, Nusa Tenggara Tim.",NUSA TENGGARA TIMUR,,Indonesia,,,,-86.715.642,1.223.357.795,https://maps.google.com/?cid=0x0:0x750b4e9cfbaee7d0,
perumahan,Komplek perumahan,Biket area,"88QQ+64, Pogon, Kec. Waigete, Kabupaten Sikka, Nusa Tenggara Tim.","Kabupaten Sikka, Nusa Tenggara Tim.",NUSA TENGGARA TIMUR,,Indonesia,,,,-86.619.768,1.223.378.307,https://maps.google.com/?cid=0x0:0x4e7ada151bba9a79,
perumahan,Komplek perumahan,Rumah kia,"9899+5G, Wairbleler, Kec. Waigete, Kabupaten Sikka, Nusa Tenggara Tim.","Kabupaten Sikka, Nusa Tenggara Tim.",NUSA TENGGARA TIMUR,,Indonesia,,,,-86.321.124,1.223.188.514,https://maps.google.com/?cid=0x0:0x8c83756925c03d5c,
perumahan,Pembangunan Perumahan,Y.Y Hommy,"9CP7+V53, Egon, Kec. Waigete, Kabupaten Sikka, Nusa Tenggara Tim.","Kabupaten Sikka, Nusa Tenggara Tim.",NUSA TENGGARA TIMUR,,Indonesia,,,,-86.128.749,1.224.129.118,https://maps.google.com/?cid=0x0:0x5108bbd2f12d5572,
perumahan,Komplek perumahan,Paudolor desa runut,"9GG4+RXP, Runut, Kec. Waigete, Kabupaten Sikka, Nusa Tenggara Tim.","Kabupaten Sikka, Nusa Tenggara Tim.",NUSA TENGGARA TIMUR,,Indonesia,,,,-86.229.101,1.225.074.506,https://maps.google.com/?cid=0x0:0x3847eba289a5b89a,
perumahan,perumahan,Komplex Tuwat,"9GHW+HV, Runut, Kec. Waigete, Kabupaten Sikka, Nusa Tenggara Tim.","Kabupaten Sikka, Nusa Tenggara Tim.",NUSA TENGGARA TIMUR,,Indonesia,,,,-8.621.083,1.225.471.914,https://maps.google.com/?cid=0x0:0xae31d3e8fe39b1f8,
perumahan,Perhimpunan Pengembang Perumahan,Manetha,"9CRW+VQW, Ahuwair, Nangatobong, Kec. Waigete, Kabupaten Sikka, Nusa Tenggara Tim.","Kabupaten Sikka, Nusa Tenggara Tim.",NUSA TENGGARA TIMUR,,Indonesia,,,,-86.077.669,1.224.469.421,https://maps.google.com/?cid=0x0:0x6240094e3f78b604,
perumahan,Komplek perumahan,Aibura Area,"88FQ+V3R, Aibura, Kec. Waigete, Kabupaten Sikka, Nusa Tenggara Tim.","Kabupaten Sikka, Nusa Tenggara Tim.",NUSA TENGGARA TIMUR,,Indonesia,,,,-8.675.272,1.223.376.327,https://maps.google.com/?cid=0x0:0x277bdf032517dea3,
perumahan,Tujuan Wisata,Kampung Watumerak,"9G4M+J6P, Watudiran, Kec. Waigete, Kabupaten Sikka, Nusa Tenggara Tim.","Kabupaten Sikka, Nusa Tenggara Tim.",NUSA TENGGARA TIMUR,,Indonesia,,,,-86.434.037,1.225.330.925,https://maps.google.com/?cid=0x0:0xddd55d4a7e481f66,
perumahan,Komplek perumahan,EMMANUEL MARTINUS,"9FH6+P4, Wairterang, Kec. Waigete, Kabupaten Sikka, Nusa Tenggara Tim.","Kabupaten Sikka, Nusa Tenggara Tim.",NUSA TENGGARA TIMUR,,Indonesia,,,,-8.620.625,122.460.338,https://maps.google.com/?cid=0x0:0x7d1158dfd26e5541,
perumahan,Komplek perumahan,Wolonggetang,"9CHW+64F, Nangatobong, Kec. Waigete, Kabupaten Sikka, Nusa Tenggara Tim.","Kabupaten Sikka, Nusa Tenggara Tim.",NUSA TENGGARA TIMUR,,Indonesia,,,,-86.219.404,122.445.287,https://maps.google.com/?cid=0x0:0xda8990a2adad20f7,
perumahan,perumahan,Nusa Tenggara Tim.,,Nusa Tenggara Tim.,NUSA TENGGARA TIMUR,,Indonesia,,,,-86.573.819,1.210.793.705,https://maps.google.com/?cid=0x0:0x1030bfbcaf71ae0,
perumahan,Komplek perumahan,KEWAPANTE,"78X7+G83, Kajowair, Kec. Hewokloang, Kabupaten Sikka, Nusa Tenggara Tim.","Kabupaten Sikka, Nusa Tenggara Tim.",NUSA TENGGARA TIMUR,,Indonesia,,,,-870.123,1.223.133.049,https://maps.google.com/?cid=0x0:0x84cbb0c94d4f06f9,
perumahan,Pembangunan Perumahan,GEGE,"8788+9JF, Mekendetun, Kec. Kangae, Kabupaten Sikka, Nusa Tenggara Tim. 86181","Mekendetun, Kec. Kangae, Kabupaten Sikka",NUSA TENGGARA TIMUR,86181.0,Indonesia,,,,-86.836.465,1.222.672.135,https://maps.google.com/?cid=0x0:0x94c8e37887a1232a,
perumahan,Perhimpunan Pengembang Perumahan,Perumahan Pesona Safira Residence,"C5R3+FP3, Nangahore,, Wuring, Kec. Alok Bar., Kabupaten Sikka, Nusa Tenggara Tim.","Kabupaten Sikka, Nusa Tenggara Tim.",NUSA TENGGARA TIMUR,,Indonesia,81239894696,,,-85.588.735,1.221.543.092,https://maps.google.com/?cid=0x0:0xab08addf0fd7ff8c,
perumahan,Komplek perumahan,Rumah Bapak Arkadius,"Ili, Kokowahor, Kec. Kangae, Kabupaten Sikka, Nusa Tenggara Tim. 86181","Kokowahor, Kec. Kangae, Kabupaten Sikka",NUSA TENGGARA TIMUR,86181.0,Indonesia,,,,-86.784.339,1.222.678.302,https://maps.google.com/?cid=0x0:0x5d14b31c075d64ae,
perumahan,perumahan,Bidan wati,"882M+8PR, Rubit, Kec. Hewokloang, Kabupaten Sikka, Nusa Tenggara Tim. 86181","Rubit, Kec. Hewokloang, Kabupaten Sikka",NUSA TENGGARA TIMUR,86181.0,Indonesia,,,,-86.984.601,1.223.351.884,https://maps.google.com/?cid=0x0:0x423a9d3ee31c4423,
perumahan,perumahan,Kewapante,"Wairkoja, Kec. Kewapante, Kabupaten Sikka, Nusa Tenggara Tim.","Kabupaten Sikka, Nusa Tenggara Tim.",NUSA TENGGARA TIMUR,,Indonesia,,,,-8.639.874,122.285.103,https://maps.google.com/?cid=0x0:0xba7668ec3714c18a,
perumahan,Komplek perumahan,Perempatan jalan salib,"976P+325, Wairkoja, Kec. Kewapante, Kabupaten Sikka, Nusa Tenggara Tim.","Kabupaten Sikka, Nusa Tenggara Tim.",NUSA TENGGARA TIMUR,,Indonesia,,,,-8.639.874,122.285.103,https://maps.google.com/?cid=0x0:0xde7b859dfeaf25b5,
perumahan,Pembangunan Perumahan,Lorong Buntu,"976P+325, Wairkoja, Kec. Kewapante, Kabupaten Sikka, Nusa Tenggara Tim.","Kabupaten Sikka, Nusa Tenggara Tim.",NUSA TENGGARA TIMUR,,Indonesia,,,,-8.639.874,122.285.103,https://maps.google.com/?cid=0x0:0x27e16fba1c15ace3,
perumahan,Perhimpunan Pengembang Perumahan,Maumere Timur,"976P+325, Wairkoja, Kec. Kewapante, Kabupaten Sikka, Nusa Tenggara Tim.","Kabupaten Sikka, Nusa Tenggara Tim.",NUSA TENGGARA TIMUR,,Indonesia,,,,-8.639.874,122.285.103,https://maps.google.com/?cid=0x0:0x13e398260c906cf3,
perumahan,Komplek perumahan,Gelitin,"976P+325, Wairkoja, Kec. Kewapante, Kabupaten Sikka, Nusa Tenggara Tim.","Kabupaten Sikka, Nusa Tenggara Tim.",NUSA TENGGARA TIMUR,,Indonesia,,,,-8.639.874,122.285.103,https://maps.google.com/?cid=0x0:0x6549273c667ecd80,
perumahan,Kompleks Kondominium,Yhosph rodrigues,"976P+325, Wairkoja, Kec. Kewapante, Kabupaten Sikka, Nusa Tenggara Tim.","Kabupaten Sikka, Nusa Tenggara Tim.",NUSA TENGGARA TIMUR,,Indonesia,,,,-8.639.874,122.285.103,https://maps.google.com/?cid=0x0:0x842fd59b6c0414da,
perumahan,Komplek perumahan,Wairotang,"976M+4VQ, Watumilok, Kec. Kangae, Kabupaten Sikka, Nusa Tenggara Tim.","Kabupaten Sikka, Nusa Tenggara Tim.",NUSA TENGGARA TIMUR,,Indonesia,,,,-86.396.625,1.222.847.344,https://maps.google.com/?cid=0x0:0xff108179819f9fe2,
perumahan,Otoritas Perumahan,Perumahan BKI,"Perumahan BKI, Blk. G4 No.15, Karangraharja, Cikarang Utara, Bekasi Regency, West Java 17530","Blk. G4 No.15, Karangraharja, Cikarang Utara, Bekasi Regency",NUSA TENGGARA TIMUR,17530.0,Indonesia,,,,-62.503.352,1.071.661.489,https://maps.google.com/?cid=0x0:0xd7e6af16eec27f0b,
perumahan,perumahan,Nusa Tenggara Tim.,,Nusa Tenggara Tim.,NUSA TENGGARA TIMUR,,Indonesia,,,,-86.573.819,1.210.793.705,https://maps.google.com/?cid=0x0:0x1030bfbcaf71ae0,
perumahan,Komplek perumahan,SEJAHTERA LAND OETALU,"Desa, Penfui Tim., Kec. Kupang Tengah, Kabupaten Kupang, Nusa Tenggara Tim.","Kabupaten Kupang, Nusa Tenggara Tim.",NUSA TENGGARA TIMUR,,Indonesia,82145034333,,,-101.708.843,1.237.032.515,https://maps.google.com/?cid=0x0:0xd9b40ca3623c46f7,
perumahan,Komplek perumahan,Perumahan sejahtera land oetalu,"Rt 30, Rw 10, Desa Penfui Timur, perumahan sejahtera land, Blog E, No 80 (blok E, No 80), KAB. KUPANG, KUPANG TENGAH, NUSA TENGGARA TIMUR (NTT, 85361","Rw 10, Desa Penfui Timur, perumahan sejahtera land, Blog E, No 80 (blok E, No 80), KAB. KUPANG, KUPANG TENGAH",NUSA TENGGARA TIMUR,85361.0,Indonesia,,,,-101.724.981,1.236.651.265,https://maps.google.com/?cid=0x0:0x650ac34902e2bddf,
perumahan,Pembangunan Perumahan,PERUMAHAN FLOSINDO PERMAI,"BTN Bak Biru, Bello, Kec. Maulafa, Kota Kupang, Nusa Tenggara Tim. 85142","Bello, Kec. Maulafa, Kota Kupang",NUSA TENGGARA TIMUR,85142.0,Indonesia,85239033755,,,-102.094.093,1.236.250.254,https://maps.google.com/?cid=0x0:0x50630cb0afc8db0d,
perumahan,Kantor Perusahaan,PALMA REGENCY - PALMA GRUP,"VPP9+7HR, Jl. Teluk Naibenu, Dusun Kuanoah, Noelbaki, Kec. Kupang Tengah, Kabupaten Kupang, Nusa Tenggara Tim.","Kabupaten Kupang, Nusa Tenggara Tim.",NUSA TENGGARA TIMUR,,Indonesia,81337282180,,,-101.142.561,123.718.893,https://maps.google.com/?cid=0x0:0x35b0946b700b7ed6,
perumahan,Komplek perumahan,Engky lona,"PHPR+HGG, Jl. Sikib, Naioni, Kec. Alak, Kota Kupang, Nusa Tenggara Tim.","Kota Kupang, Nusa Tenggara Tim.",NUSA TENGGARA TIMUR,,Indonesia,82147259626,,,-102.635.508,1.235.913.162,https://maps.google.com/?cid=0x0:0x75203da38a27cf45,
perumahan,Lapangan Sepak Bola,Lapangan bola sepak,"C5GX+5P4, Semang, Kec. Welak, Kabupaten Manggarai Barat, Nusa Tenggara Tim.","Kabupaten Manggarai Barat, Nusa Tenggara Tim.",NUSA TENGGARA TIMUR,,Indonesia,,,,-85.746.069,1.201.993.381,https://maps.google.com/?cid=0x0:0xe5e73ec40bda5ea2,
perumahan,perumahan,Nusa Tenggara Tim.,,Nusa Tenggara Tim.,NUSA TENGGARA TIMUR,,Indonesia,,,,-86.573.819,1.210.793.705,https://maps.google.com/?cid=0x0:0x1030bfbcaf71ae0,
perumahan,Pembangunan Perumahan,Bone Bola (Home),"8XVP+G3, Golo Ndaring, Kec. Sano Nggoang, Kabupaten Manggarai Barat, Nusa Tenggara Tim.","Kabupaten Manggarai Barat, Nusa Tenggara Tim.",NUSA TENGGARA TIMUR,,Indonesia,,,,-86.561.299,1.199.851.723,https://maps.google.com/?cid=0x0:0x90faab0178e8deb0,
perumahan,Pembangunan Perumahan,"RD.undana unit 3 nomor 1, walikotabaru-Kupang. NUSA TENGGARA TIMUR- INDONESIA","Walikota baru, Klp. Lima, Kec. Klp. Lima, Kota Kupang, Nusa Tenggara Tim. 85228","Klp. Lima, Kec. Klp. Lima, Kota Kupang",NUSA TENGGARA TIMUR,85228.0,Indonesia,,,,-101.573.914,1.236.137.595,https://maps.google.com/?cid=0x0:0xdf2d314b41aac057,
perumahan,Komplek perumahan,Perumahan Bhoanawa,"Jl.Bhoanawa, Kel. Rukunlima, Kec. Ende Sel., Kabupaten Ende, Nusa Tenggara Tim. 86314","Kel. Rukunlima, Kec. Ende Sel., Kabupaten Ende",NUSA TENGGARA TIMUR,86314.0,Indonesia,,,,-88.564.894,1.216.534.967,https://maps.google.com/?cid=0x0:0x7d656dcf1ee30ebd,
perumahan,Pembangunan Perumahan,Perumahan KOREM 2 Oeleta,"RH67+5HV, Jl.Banobe Raya, Alak, Kec. Alak, Kota Kupang, Nusa Tenggara Tim.","Kota Kupang, Nusa Tenggara Tim.",NUSA TENGGARA TIMUR,,Indonesia,,,,-101.895.209,1.235.639.197,https://maps.google.com/?cid=0x0:0xe087c3f225ebd51e,
perumahan,Pembangunan Perumahan,PERUMAHAN BELLO PERMAI,"QJJH+6C6, Jl. H.R. Koroh, Bello, Kec. Maulafa, Kota Kupang, Nusa Tenggara Tim.","Kota Kupang, Nusa Tenggara Tim.",NUSA TENGGARA TIMUR,,Indonesia,,,,-102.194.735,1.236.285.257,https://maps.google.com/?cid=0x0:0xb2f3789c6035b2,
perumahan,Pengembang Realestat,Boanawa,"4JXX+QW6, Kel. Mbongawani, Kec. Ende Sel., Kabupaten Ende, Nusa Tenggara Tim.","Kabupaten Ende, Nusa Tenggara Tim.",NUSA TENGGARA TIMUR,,Indonesia,,,,-8.850.088,121.650.455,https://maps.google.com/?cid=0x0:0x509e7fdc804f8dff,
perumahan,perumahan,Depan lapangan bola kaki kalelu,"FW5P+HG4, Lamawalang, Kec. Solor Bar., Kabupaten Flores Timur, Nusa Tenggara Tim.","Kabupaten Flores Timur, Nusa Tenggara Tim.",NUSA TENGGARA TIMUR,,Indonesia,,,,-8.541.118,1.229.363.408,https://maps.google.com/?cid=0x0:0x9580a0589208bec6,
perumahan,Komplek perumahan,Komplek kampung baru,"5RMV+M59, Kel. Wolojita, Kec. Wolojita, Kabupaten Ende, Nusa Tenggara Tim.","Kabupaten Ende, Nusa Tenggara Tim.",NUSA TENGGARA TIMUR,,Indonesia,,,,-88.158.316,1.218.429.856,https://maps.google.com/?cid=0x0:0xff58d1f367025533,
perumahan,Pembangunan Perumahan,Lapangan Bola Perumahan BIP,"Jl. Raya Bip No.A1, RW.7, Kalisuren, Kec. Tajur Halang, Kabupaten Bogor, Jawa Barat 16320","RW.7, Kalisuren, Kec. Tajur Halang, Kabupaten Bogor",NUSA TENGGARA TIMUR,16320.0,Indonesia,,,,-64.725.232,1.067.400.253,https://maps.google.com/?cid=0x0:0xd9eabfcdc24bab0f,
perumahan,Lapangan Sepak Bola,Lapangan bola,"MPQJ+PVC, Jl. Suka Mandiri, Kedaung, Kec. Ciputat, Kota Tangerang Selatan, Banten","Kota Tangerang Selatan, Banten",NUSA TENGGARA TIMUR,,Indonesia,,,,-63.106.797,1.067.321.308,https://maps.google.com/?cid=0x0:0x13a2692e2442dc16,
perumahan,Pembangunan Perumahan,Kavling depan lapang bola,"FRRP+F6J, Kp Jl. Tarikolot, RT.03/RW.06, Nanggewer Mekar, Kec. Cibinong, Kabupaten Bogor, Jawa Barat 16912","Kp Jl. Tarikolot, RT.03/RW.06, Nanggewer Mekar, Kec. Cibinong, Kabupaten Bogor",NUSA TENGGARA TIMUR,16912.0,Indonesia,,,,-65.087.997,1.068.355.063,https://maps.google.com/?cid=0x0:0x3d31e0199c8621c4,
perumahan,perumahan,Nusa Tenggara Tim.,,Nusa Tenggara Tim.,NUSA TENGGARA TIMUR,,Indonesia,,,,-86.573.819,1.210.793.705,https://maps.google.com/?cid=0x0:0x1030bfbcaf71ae0,
perumahan,Toko Komputer,Rumah Nichaner,"Dusun Poma, RT.015/RW.006, Takaplager, Kec. Nita, Kabupaten Sikka, Nusa Tenggara Tim. 86152","RT.015/RW.006, Takaplager, Kec. Nita, Kabupaten Sikka",NUSA TENGGARA TIMUR,86152.0,Indonesia,85225080810,,,-86.678.861,1.221.831.004,https://maps.google.com/?cid=0x0:0xb26659a0624ecd7c,
perumahan,Perhimpunan Pengembang Perumahan,Wisma St.Fransiskus Xaverius Ledalero,"85MP+V4W, JL.Trans Maumere, Ende, Kec. Nita, Kabupaten Sikka, Nusa Tenggara Tim. 86152","JL.Trans Maumere, Ende, Kec. Nita, Kabupaten Sikka",NUSA TENGGARA TIMUR,86152.0,Indonesia,,,,-86.652.548,1.221.853.136,https://maps.google.com/?cid=0x0:0xce61641ec1891565,
perumahan,Padang,Usaha Pontren,"NDETE, Kec. Magepanda, Kabupaten Sikka, Nusa Tenggara Tim. 86152","Kec. Magepanda, Kabupaten Sikka",NUSA TENGGARA TIMUR,86152.0,Indonesia,82144972863,,,-85.300.043,1.220.370.593,https://maps.google.com/?cid=0x0:0xc7345e75a87bd6c3,
perumahan,perumahan,Deja Vu Cafe  Accommodation,"jln poros Jl. Raya Maumere - Magepanda No.km 20, Magepanda, Kec. Magepanda, Kabupaten Sikka, Nusa Tenggara Tim. 86152","Magepanda, Kec. Magepanda, Kabupaten Sikka",NUSA TENGGARA TIMUR,86152.0,Indonesia,81236169279,,,-85.230.988,122.065.568,https://maps.google.com/?cid=0x0:0xe8e7e6f293cf5edf,
perumahan,Nasi,warung gemoy,"depan masjid Al-Ikhlas, Jl. Raya Maumere - Magepanda, Kolisia B, Kec. Magepanda, Kabupaten Sikka, Nusa Tenggara Tim. 86152","Jl. Raya Maumere - Magepanda, Kolisia B, Kec. Magepanda, Kabupaten Sikka",NUSA TENGGARA TIMUR,86152.0,Indonesia,81262388410,,,-85.478.268,1.221.343.175,https://maps.google.com/?cid=0x0:0x8ceece23582127b5,
perumahan,perumahan,Kec. Magepanda,"Kabupaten Sikka, Nusa Tenggara Tim.","Kabupaten Sikka, Nusa Tenggara Tim.",NUSA TENGGARA TIMUR,,Indonesia,,,,-85.299.453,1.220.370.498,https://maps.google.com/?cid=0x0:0x6d7790c34b1db28c,
perumahan,Komplek perumahan,Magepanda watuwa,"C27M+X2Q, Done, Kec. Magepanda, Kabupaten Sikka, Nusa Tenggara Tim.","Kabupaten Sikka, Nusa Tenggara Tim.",NUSA TENGGARA TIMUR,,Indonesia,,,,-85.850.453,1.220.326.019,https://maps.google.com/?cid=0x0:0x2de2e8780f27a779,
perumahan,perumahan,Magepanda,"C2JW+H4, Done, Kec. Magepanda, Kabupaten Sikka, Nusa Tenggara Tim.","Kabupaten Sikka, Nusa Tenggara Tim.",NUSA TENGGARA TIMUR,,Indonesia,,,,-85.684.932,1.220.452.882,https://maps.google.com/?cid=0x0:0x615d3c4c0087bbeb,
perumahan,Balai masyarakat,RUMAH NALDY KEI,"F22X+76R, Magepanda, Kec. Magepanda, Kabupaten Sikka, Nusa Tenggara Tim.","Kabupaten Sikka, Nusa Tenggara Tim.",NUSA TENGGARA TIMUR,,Indonesia,,,,-854.901,12.204.707,https://maps.google.com/?cid=0x0:0x3ee34827a28c8913,
perumahan,Komplek perumahan,Rumah Nong Gare,"C2WF+3C, Reroroja, Kec. Magepanda, Kabupaten Sikka, Nusa Tenggara Tim.","Kabupaten Sikka, Nusa Tenggara Tim.",NUSA TENGGARA TIMUR,,Indonesia,,,,-85.552.726,1.220.235.056,https://maps.google.com/?cid=0x0:0xdae302e038c8c58b,
perumahan,Komplek perumahan,Rumah pa kosu,"F43M+4C4, Jl. Raya Maumere - Magepanda, Magepanda, Kec. Magepanda, Kabupaten Sikka, Nusa Tenggara Tim.","Kabupaten Sikka, Nusa Tenggara Tim.",NUSA TENGGARA TIMUR,,Indonesia,,,,-85.472.373,1.221.335.753,https://maps.google.com/?cid=0x0:0x3174343788d3af76,
perumahan,,KIOS 3R.,"C2CH+MRV, Done, Kec. Magepanda, Kabupaten Sikka, Nusa Tenggara Tim.","Kabupaten Sikka, Nusa Tenggara Tim.",NUSA TENGGARA TIMUR,,Indonesia,,,,-8.578.439,1.220.287.179,https://maps.google.com/?cid=0x0:0x63ebaada6f181177,
perumahan,Pembangunan Perumahan,Oskar Central,"F25W+47F, Magepanda, Kec. Magepanda, Kabupaten Sikka, Nusa Tenggara Tim.","Kabupaten Sikka, Nusa Tenggara Tim.",NUSA TENGGARA TIMUR,,Indonesia,,,,-85.421.776,1.220.456.622,https://maps.google.com/?cid=0x0:0xb24a2f6fd54380d0,
perumahan,Komplek perumahan,Bpk.Yakobus Laka,"C2XX+PQ4, Magepanda, Kec. Magepanda, Kabupaten Sikka, Nusa Tenggara Tim.","Kabupaten Sikka, Nusa Tenggara Tim.",NUSA TENGGARA TIMUR,,Indonesia,,,,-85.507.271,1.220.494.686,https://maps.google.com/?cid=0x0:0xbc89837351d58a7d,
perumahan,Komplek perumahan,Rumah om Darmo,"F34J+3G5, Jl. Raya Maumere - Magepanda, Kolisia, Kec. Magepanda, Kabupaten Sikka, Nusa Tenggara Tim.","Kabupaten Sikka, Nusa Tenggara Tim.",NUSA TENGGARA TIMUR,,Indonesia,,,,-85.448.612,1.220.813.506,https://maps.google.com/?cid=0x0:0xa8ab65a4663152e0,
perumahan,Komplek perumahan,House of Educator of Family Like Care,"F42M+JP3, Jl. Raya Maumere - Magepanda, Kolisia B, Kec. Magepanda, Kabupaten Sikka, Nusa Tenggara Tim.","Kabupaten Sikka, Nusa Tenggara Tim.",NUSA TENGGARA TIMUR,,Indonesia,,,,-8.548.483,12.213.429,https://maps.google.com/?cid=0x0:0x7252767b05aa530b,
perumahan,Komplek perumahan,Wairi'i,"C3XQ+HQ7, Kolisia, Kec. Magepanda, Kabupaten Sikka, Nusa Tenggara Tim.","Kabupaten Sikka, Nusa Tenggara Tim.",NUSA TENGGARA TIMUR,,Indonesia,,,,-85.510.944,1.220.894.255,https://maps.google.com/?cid=0x0:0xfb0f7f714a2cd3f3,
perumahan,Komplek perumahan,Priscombale,"C2VG+JH, Reroroja, Kec. Magepanda, Kabupaten Sikka, Nusa Tenggara Tim.","Kabupaten Sikka, Nusa Tenggara Tim.",NUSA TENGGARA TIMUR,,Indonesia,,,,-8.555.999,1.220.264.916,https://maps.google.com/?cid=0x0:0x8e5043c7055612c1,
perumahan,Komplek perumahan,Perumahan Gloria Regency,"Waturia, Kolisia B, Kec. Magepanda, Kabupaten Sikka, Nusa Tenggara Tim. 86111","Kolisia B, Kec. Magepanda, Kabupaten Sikka",NUSA TENGGARA TIMUR,86111.0,Indonesia,81353928372,,,-85.500.341,1.221.347.679,https://maps.google.com/?cid=0x0:0xa74817ac7a773063,
perumahan,Perhimpunan Pengembang Perumahan,kampung bugis,"F29P+XRV, Reroroja, Kec. Magepanda, Kabupaten Sikka, Nusa Tenggara Tim.","Kabupaten Sikka, Nusa Tenggara Tim.",NUSA TENGGARA TIMUR,,Indonesia,,,,-85.300.042,1.220.370.592,https://maps.google.com/?cid=0x0:0x6551f82c4f8809bd,
perumahan,Komplek perumahan,rumah om edu,"C2XF+4M, Reroroja, Kec. Magepanda, Kabupaten Sikka, Nusa Tenggara Tim.","Kabupaten Sikka, Nusa Tenggara Tim.",NUSA TENGGARA TIMUR,,Indonesia,,,,-85.521.791,122.024.242,https://maps.google.com/?cid=0x0:0xde50331bb813654b,
perumahan,Perhimpunan Pengembang Perumahan,Welasegu,"F23X+23R, Magepanda, Kec. Magepanda, Kabupaten Sikka, Nusa Tenggara Tim.","Kabupaten Sikka, Nusa Tenggara Tim.",NUSA TENGGARA TIMUR,,Indonesia,,,,-85.481.416,1.220.475.662,https://maps.google.com/?cid=0x0:0xe8b7cbd06383abca,
perumahan,Komplek perumahan,Riana Perru Centrall,"F26X+25R, Jl. Raya Magepanda, Magepanda, Kec. Magepanda, Kabupaten Sikka, Nusa Tenggara Tim.","Kabupaten Sikka, Nusa Tenggara Tim.",NUSA TENGGARA TIMUR,,Indonesia,,,,-85.398.878,1.220.478.804,https://maps.google.com/?cid=0x0:0xda1545982af61ade,
perumahan,perumahan,Rumah Firdaus,"F29P+XRV, Reroroja, Kec. Magepanda, Kabupaten Sikka, Nusa Tenggara Tim.","Kabupaten Sikka, Nusa Tenggara Tim.",NUSA TENGGARA TIMUR,,Indonesia,,,,-85.300.042,1.220.370.592,https://maps.google.com/?cid=0x0:0xcc11220d016a948c,
perumahan,Pembangunan Perumahan,Farino charvalo,"F23F+JRH, Reroroja, Kec. Magepanda, Kabupaten Sikka, Nusa Tenggara Tim.","Kabupaten Sikka, Nusa Tenggara Tim.",NUSA TENGGARA TIMUR,,Indonesia,82247701783,,,-85.459.276,1.220.246.191,https://maps.google.com/?cid=0x0:0x383d974cd657dab5,
perumahan,Pembangunan Perumahan,Bapa Mo'a Sumber Kasih,"F26W+798, Magepanda, Kec. Magepanda, Kabupaten Sikka, Nusa Tenggara Tim.","Kabupaten Sikka, Nusa Tenggara Tim.",NUSA TENGGARA TIMUR,,Indonesia,,,,-85.393.289,1.220.459.507,https://maps.google.com/?cid=0x0:0x84501368337e9e73,
perumahan,Komplek perumahan,Rumah Yoan Xavi,"F26X+HFH, Magepanda, Kec. Magepanda, Kabupaten Sikka, Nusa Tenggara Tim.","Kabupaten Sikka, Nusa Tenggara Tim.",NUSA TENGGARA TIMUR,,Indonesia,,,,-85.385.661,1.220.487.275,https://maps.google.com/?cid=0x0:0xef85536d5783cc08,
perumahan,Komplek perumahan,Rumah Finto Woge,"C2RH+WG, Reroroja, Kec. Magepanda, Kabupaten Sikka, Nusa Tenggara Tim.","Kabupaten Sikka, Nusa Tenggara Tim.",NUSA TENGGARA TIMUR,,Indonesia,,,,-85.576.504,1.220.287.976,https://maps.google.com/?cid=0x0:0x7ab13c6536e5a129,
perumahan,perumahan,Kec. Waiblama,"Kabupaten Sikka, Nusa Tenggara Tim.","Kabupaten Sikka, Nusa Tenggara Tim.",NUSA TENGGARA TIMUR,,Indonesia,,,,-86.203.088,122.627.948,https://maps.google.com/?cid=0x0:0xefb14c7530baff74,
perumahan,perumahan,Norin,"CGQM+RWC, Tua Bao, Kec. Waiblama, Kabupaten Sikka, Nusa Tenggara Tim.","Kabupaten Sikka, Nusa Tenggara Tim.",NUSA TENGGARA TIMUR,,Indonesia,,,,-856.035,122.533.915,https://maps.google.com/?cid=0x0:0x56a9637a8bea334e,
perumahan,Komplek perumahan,KAMPUNG MUDEBALI,"9JV9+76, Pruda, Kec. Waiblama, Kabupaten Sikka, Nusa Tenggara Tim.","Kabupaten Sikka, Nusa Tenggara Tim.",NUSA TENGGARA TIMUR,,Indonesia,,,,-86.067.143,1.226.180.328,https://maps.google.com/?cid=0x0:0xf6a8f3e1fbbdb810,
perumahan,Pembangunan Perumahan,7 ,"9JGH+5P, Pruda, Kec. Waiblama, Kabupaten Sikka, Nusa Tenggara Tim.","Kabupaten Sikka, Nusa Tenggara Tim.",NUSA TENGGARA TIMUR,,Indonesia,,,,-86.245.691,1.226.293.408,https://maps.google.com/?cid=0x0:0xf8f9ee6e87cfffe2,
perumahan,Komplek perumahan,RUMAH AGUSTINA WIN,"9JV9+76, Pruda, Kec. Waiblama, Kabupaten Sikka, Nusa Tenggara Tim.","Kabupaten Sikka, Nusa Tenggara Tim.",NUSA TENGGARA TIMUR,,Indonesia,,,,-86.065.364,1.226.177.882,https://maps.google.com/?cid=0x0:0x3e694339ff4fb51f,
perumahan,Komplek perumahan,Mame selung,"9JR9+G6, Pruda, Kec. Waiblama, Kabupaten Sikka, Nusa Tenggara Tim.","Kabupaten Sikka, Nusa Tenggara Tim.",NUSA TENGGARA TIMUR,,Indonesia,,,,-86.086.351,1.226.181.095,https://maps.google.com/?cid=0x0:0xd40acc5b46548336,
perumahan,perumahan,Rumah Stefan,"CJW3+RH8, Werang, Kec. Waiblama, Kabupaten Sikka, Nusa Tenggara Tim.","Kabupaten Sikka, Nusa Tenggara Tim.",NUSA TENGGARA TIMUR,,Indonesia,,,,-85.538.015,1.226.039.471,https://maps.google.com/?cid=0x0:0xe530955563c26b14,
perumahan,Perhimpunan Pengembang Perumahan,Napunkeor,"CH6X+6QQ, Tanarawa, Kec. Waiblama, Kabupaten Sikka, Nusa Tenggara Tim.","Kabupaten Sikka, Nusa Tenggara Tim.",NUSA TENGGARA TIMUR,,Indonesia,,,,-85.894.005,1.225.994.817,https://maps.google.com/?cid=0x0:0x2862dbfc189e43ac,
perumahan,Pembangunan Perumahan,"Urudetun center, kln natabola, ilin medo waiblama sikka NTT indonesia","CHW8+663, Jln natabola urudetun, Ilinmedo, Kec. Waiblama, Kabupaten Sikka, Nusa Tenggara Tim.","Kabupaten Sikka, Nusa Tenggara Tim.",NUSA TENGGARA TIMUR,,Indonesia,,,,-85.544.989,1.225.655.549,https://maps.google.com/?cid=0x0:0xca5fcb65a1b81898,
perumahan,Komplek perumahan,Kaka fonsa,"9JV9+76, Pruda, Kec. Waiblama, Kabupaten Sikka, Nusa Tenggara Tim.","Kabupaten Sikka, Nusa Tenggara Tim.",NUSA TENGGARA TIMUR,,Indonesia,,,,-86.071.188,1.226.180.897,https://maps.google.com/?cid=0x0:0x13ff41a77acfd343,
perumahan,Komplek perumahan,Rmh Risky,"CH46+J34, Tua Bao, Kec. Waiblama, Kabupaten Sikka, Nusa Tenggara Tim.","Kabupaten Sikka, Nusa Tenggara Tim.",NUSA TENGGARA TIMUR,,Indonesia,,,,-85.934.984,1.225.602.087,https://maps.google.com/?cid=0x0:0x18c5842972706eaf,
perumahan,Komplek perumahan,Urudetun,"ILin medo, Ilinmedo, Kec. Waiblama, Kabupaten Sikka, Nusa Tenggara Tim.","Kabupaten Sikka, Nusa Tenggara Tim.",NUSA TENGGARA TIMUR,,Indonesia,,,,-85.513.889,1.225.522.222,https://maps.google.com/?cid=0x0:0x6277c33cb8b832d8,
perumahan,Pembangunan Perumahan,Doniorin,"9HW8+G6C, Natarmage, Kec. Waiblama, Kabupaten Sikka, Nusa Tenggara Tim.","Kabupaten Sikka, Nusa Tenggara Tim.",NUSA TENGGARA TIMUR,,Indonesia,,,,-86.036.815,1.225.655.059,https://maps.google.com/?cid=0x0:0x50af667d49c7efdb,
perumahan,Komplek perumahan,UTANWAIR FAMILY,"CGQ5+7P7, Nangahale, Kec. Talibura, Kabupaten Sikka, Nusa Tenggara Tim.","Kabupaten Sikka, Nusa Tenggara Tim.",NUSA TENGGARA TIMUR,,Indonesia,,,,-85.618.375,1.225.092.969,https://maps.google.com/?cid=0x0:0x7f96be5036159ff2,
perumahan,perumahan,Komplex Tuwat,"9GHW+HV, Runut, Kec. Waigete, Kabupaten Sikka, Nusa Tenggara Tim.","Kabupaten Sikka, Nusa Tenggara Tim.",NUSA TENGGARA TIMUR,,Indonesia,,,,-8.621.083,1.225.471.914,https://maps.google.com/?cid=0x0:0xae31d3e8fe39b1f8,
perumahan,Komplek perumahan,Dusun Buhegahar,"FJ8G+XG, Hikong, Kec. Talibura, Kabupaten Sikka, Nusa Tenggara Tim.","Kabupaten Sikka, Nusa Tenggara Tim.",NUSA TENGGARA TIMUR,,Indonesia,,,,-85.326.606,1.226.263.521,https://maps.google.com/?cid=0x0:0x237e49ceb8e360d4,
perumahan,Brunch,Watubala,"9FP5+XH, Wairterang, Kec. Waigete, Kabupaten Sikka, Nusa Tenggara Tim.","Kabupaten Sikka, Nusa Tenggara Tim.",NUSA TENGGARA TIMUR,,Indonesia,,,,-86.125.911,1.224.589.136,https://maps.google.com/?cid=0x0:0xc0027128a6b94896,
perumahan,Perhimpunan Pengembang Perumahan,Kios Laris  Walet Watubaing,"FG88+9QM, Desa Watubaing, Kec. Talibura, Kabupaten Sikka, Nusa Tenggara Tim.","Kabupaten Sikka, Nusa Tenggara Tim.",NUSA TENGGARA TIMUR,,Indonesia,,,,-85.339.901,1.225.169.275,https://maps.google.com/?cid=0x0:0xe09737d89c78e3cd,
perumahan,Komplek perumahan,Rmh. Rhizky,"9HWC+XJ, Natarmage, Kec. Waiblama, Kabupaten Sikka, Nusa Tenggara Tim.","Kabupaten Sikka, Nusa Tenggara Tim.",NUSA TENGGARA TIMUR,,Indonesia,,,,-86.025.918,1.225.715.098,https://maps.google.com/?cid=0x0:0xd35695f0b9afc2c5,
perumahan,Pembangunan Perumahan,kampung Wairbura,"FGJM+XV, Darat Gn., Kec. Talibura, Kabupaten Sikka, Nusa Tenggara Tim.","Kabupaten Sikka, Nusa Tenggara Tim.",NUSA TENGGARA TIMUR,,Indonesia,,,,-85.175.625,1.225.346.875,https://maps.google.com/?cid=0x0:0x6e4bbc95ce5ba60f,
perumahan,Komplek perumahan,Persawahan Tabana,"FJG4+G7, Hikong, Kec. Talibura, Kabupaten Sikka, Nusa Tenggara Tim.","Kabupaten Sikka, Nusa Tenggara Tim.",NUSA TENGGARA TIMUR,,Indonesia,,,,-85.236.995,1.226.056.209,https://maps.google.com/?cid=0x0:0x5e6baada83f12784,
perumahan,perumahan,Kec. Alok Bar.,"Kabupaten Sikka, Nusa Tenggara Tim.","Kabupaten Sikka, Nusa Tenggara Tim.",NUSA TENGGARA TIMUR,,Indonesia,,,,-86.051.104,1.221.989.798,https://maps.google.com/?cid=0x0:0x3d8c9bbff548daae,
perumahan,Penginapan,Perumahan Puri Kimbul Permai,"95JX+HJ3, Unnamed Rd, Wolomarang, Kec. Alok Bar., Kabupaten Sikka, Nusa Tenggara Tim.","Kabupaten Sikka, Nusa Tenggara Tim.",NUSA TENGGARA TIMUR,,Indonesia,,,,-86.186.219,1.221.990.375,https://maps.google.com/?cid=0x0:0x779c7c4bf6098bfb,
perumahan,perumahan,Wolomaranh,"95RW+RH8, Wolomarang, Kec. Alok Bar., Kabupaten Sikka, Nusa Tenggara Tim.","Kabupaten Sikka, Nusa Tenggara Tim.",NUSA TENGGARA TIMUR,,Indonesia,,,,-86.084.511,1.221.970.436,https://maps.google.com/?cid=0x0:0x951729d61b9e1774,
perumahan,Komplek perumahan,Rumah Anjelo Mboa,"95QV+32G, Wolomarang, Kec. Alok Bar., Kabupaten Sikka, Nusa Tenggara Tim.","Kabupaten Sikka, Nusa Tenggara Tim.",NUSA TENGGARA TIMUR,,Indonesia,,,,-86.123.048,122.192.578,https://maps.google.com/?cid=0x0:0x6c5ec7b8613d2440,
perumahan,Perhimpunan Pengembang Perumahan,Rumah Labu,"95GX+R7J, Wolomarang, Kec. Alok Bar., Kabupaten Sikka, Nusa Tenggara Tim.","Kabupaten Sikka, Nusa Tenggara Tim.",NUSA TENGGARA TIMUR,,Indonesia,,,,-86.217.642,1.221.970.224,https://maps.google.com/?cid=0x0:0xedaf453084cbf9d5,
perumahan,Komplek perumahan,Ijonatar,"95MV+MHW, Wolomarang, Kec. Alok Bar., Kabupaten Sikka, Nusa Tenggara Tim.","Kabupaten Sikka, Nusa Tenggara Tim.",NUSA TENGGARA TIMUR,,Indonesia,,,,-86.157.665,1.221.939.536,https://maps.google.com/?cid=0x0:0xddd2f9647e2eb464,
perumahan,Pembangunan Perumahan,Wolomaget,"95QR+RQ, Wolomarang, Kec. Alok Bar., Kabupaten Sikka, Nusa Tenggara Tim.","Kabupaten Sikka, Nusa Tenggara Tim.",NUSA TENGGARA TIMUR,,Indonesia,,,,-86.103.947,1.221.919.122,https://maps.google.com/?cid=0x0:0xeaf8911c75df1fc6,
perumahan,Pasar,Pasar alok,"95MW+JHJ, Wolomarang, Kec. Alok Bar., Kabupaten Sikka, Nusa Tenggara Tim.","Kabupaten Sikka, Nusa Tenggara Tim.",NUSA TENGGARA TIMUR,,Indonesia,,,,-86.159.004,1.221.963.824,https://maps.google.com/?cid=0x0:0xe1a44b94423ec43b,
perumahan,Komplek perumahan,Rumah Reyy Djwaa,"95JW+M2Q, Wolomarang, Kec. Alok Bar., Kabupaten Sikka, Nusa Tenggara Tim.","Kabupaten Sikka, Nusa Tenggara Tim.",NUSA TENGGARA TIMUR,,Indonesia,,,,-86.182.982,1.221.951.158,https://maps.google.com/?cid=0x0:0x4c0dfe13d42122d6,
perumahan,Komplek perumahan,Rumah Gudang,"95WX+HFX, Wolomarang, Kec. Alok Bar., Kabupaten Sikka, Nusa Tenggara Tim.","Kabupaten Sikka, Nusa Tenggara Tim.",NUSA TENGGARA TIMUR,,Indonesia,,,,-86.035.094,1.221.987.498,https://maps.google.com/?cid=0x0:0xb4d681b7f4a7017a,
perumahan,Komplek perumahan,Sweet home,"95VV+4X2, Wolomarang, Kec. Alok Bar., Kabupaten Sikka, Nusa Tenggara Tim.","Kabupaten Sikka, Nusa Tenggara Tim.",NUSA TENGGARA TIMUR,,Indonesia,,,,-86.072.292,1.221.948.954,https://maps.google.com/?cid=0x0:0xcf87974752300a09,
perumahan,Komplek perumahan,Rumah AghArn,"C53M+3J8, Wailiti, Kec. Alok Bar., Kabupaten Sikka, Nusa Tenggara Tim.","Kabupaten Sikka, Nusa Tenggara Tim.",NUSA TENGGARA TIMUR,,Indonesia,,,,-85.973.384,1.221.840.935,https://maps.google.com/?cid=0x0:0x5e38cabfdbcd0f76,
perumahan,Komplek perumahan,B2nk Area,"95WX+H87, Wolomarang, Kec. Alok Bar., Kabupaten Sikka, Nusa Tenggara Tim.","Kabupaten Sikka, Nusa Tenggara Tim.",NUSA TENGGARA TIMUR,,Indonesia,,,,-86.036.324,122.198.507,https://maps.google.com/?cid=0x0:0xf6a224a384a9ad8d,
perumahan,Komplek perumahan,Green Home,"Jl.Soenoek No.1, Wolomarang, Kec. Alok Bar., Kabupaten Sikka, Nusa Tenggara Tim. 86114","Wolomarang, Kec. Alok Bar., Kabupaten Sikka",NUSA TENGGARA TIMUR,86114.0,Indonesia,,,,-86.024.222,1.221.986.515,https://maps.google.com/?cid=0x0:0x84d3aad9c542ec4c,
perumahan,Pembangunan Perumahan,Junior maumere,"95MX+5G4, Wolomarang, Kec. Alok Bar., Kabupaten Sikka, Nusa Tenggara Tim.","Kabupaten Sikka, Nusa Tenggara Tim.",NUSA TENGGARA TIMUR,,Indonesia,,,,-86.171.161,1.221.988.406,https://maps.google.com/?cid=0x0:0x3761280535224723,
perumahan,Komplek perumahan,RUMAH IKHO,"95VW+P9Q, Wolomarang, Kec. Alok Bar., Kabupaten Sikka, Nusa Tenggara Tim.","Kabupaten Sikka, Nusa Tenggara Tim.",NUSA TENGGARA TIMUR,,Indonesia,81337429080,,,-86.056.509,122.195.976,https://maps.google.com/?cid=0x0:0xeba4ed91a6817e3c,
perumahan,Pembangunan Perumahan,Home,"96X2+7H8, Jl. Bengkunis, Wolomarang, Kec. Alok Bar., Kabupaten Sikka, Nusa Tenggara Tim.","Kabupaten Sikka, Nusa Tenggara Tim.",NUSA TENGGARA TIMUR,,Indonesia,,,,-86.018.435,1.222.014.554,https://maps.google.com/?cid=0x0:0xc0a00b18616d28f0,
perumahan,Komplek perumahan,Lorong angkasa,"95VX+CQR, Jl. Raya Maumere - Magepanda, Wolomarang, Kec. Alok Bar., Kabupaten Sikka, Nusa Tenggara Tim.","Kabupaten Sikka, Nusa Tenggara Tim.",NUSA TENGGARA TIMUR,,Indonesia,,,,-86.063.973,1.221.993.967,https://maps.google.com/?cid=0x0:0xc86287eb4408980c,
perumahan,Pembangunan Perumahan,ivonmugi,"Wolomarang, Kec. Alok Bar., Kabupaten Sikka, Nusa Tenggara Tim.","Kabupaten Sikka, Nusa Tenggara Tim.",NUSA TENGGARA TIMUR,,Indonesia,,,,-86.043.176,1.221.968.618,https://maps.google.com/?cid=0x0:0xf574de2c6a103975,
perumahan,Pembangunan Perumahan,objek,"95XW+77F, Wolomarang, Kec. Alok Bar., Kabupaten Sikka, Nusa Tenggara Tim.","Kabupaten Sikka, Nusa Tenggara Tim.",NUSA TENGGARA TIMUR,,Indonesia,,,,-86.016.389,1.221.951.389,https://maps.google.com/?cid=0x0:0x654722732eca6ee0,
perumahan,Pembangunan Perumahan,Perumahan Alok Indah,"96C8+8VW, Unnamed Road, Kota Baru, Kec. Alok Tim., Kabupaten Sikka, Nusa Tenggara Tim.","Kabupaten Sikka, Nusa Tenggara Tim.",NUSA TENGGARA TIMUR,,Indonesia,,,,-8.629.147,1.222.172.131,https://maps.google.com/?cid=0x0:0xe498d353b2b25b6a,
perumahan,Komplek perumahan,Elisabet Mercury,"95QW+Q4, Wolomarang, Kec. Alok Bar., Kabupaten Sikka, Nusa Tenggara Tim.","Kabupaten Sikka, Nusa Tenggara Tim.",NUSA TENGGARA TIMUR,,Indonesia,,,,-86.105.117,1.221.953.481,https://maps.google.com/?cid=0x0:0x8e47f7d7b5c80e2c,
perumahan,Komplek perumahan,Rumah H Saber,"C623+4CF, Wolomarang, Kec. Alok Bar., Kabupaten Sikka, Nusa Tenggara Tim.","Kabupaten Sikka, Nusa Tenggara Tim.",NUSA TENGGARA TIMUR,,Indonesia,,,,-85.996.925,1.222.035.348,https://maps.google.com/?cid=0x0:0x838a260613710207,
perumahan,Rumah singgah,Charlin house,"C53M+3JW, Jl. Kajang Rabang, Wailiti, Kec. Alok Bar., Kabupaten Sikka, Nusa Tenggara Tim. 86114","Jl. Kajang Rabang, Wailiti, Kec. Alok Bar., Kabupaten Sikka",NUSA TENGGARA TIMUR,86114.0,Indonesia,,,,-85.972.709,1.221.840.936,https://maps.google.com/?cid=0x0:0xe1652b650a719d57,
perumahan,perumahan,Kec. Alok Bar.,"Kabupaten Sikka, Nusa Tenggara Tim.","Kabupaten Sikka, Nusa Tenggara Tim.",NUSA TENGGARA TIMUR,,Indonesia,,,,-86.051.104,1.221.989.798,https://maps.google.com/?cid=0x0:0x3d8c9bbff548daae,
perumahan,Pembangunan Perumahan,Belakang lembaga,"96C8+582, Kota Baru, Kec. Alok Tim., Kabupaten Sikka, Nusa Tenggara Tim.","Kabupaten Sikka, Nusa Tenggara Tim.",NUSA TENGGARA TIMUR,,Indonesia,,,,-86.296.045,1.222.157.597,https://maps.google.com/?cid=0x0:0xcda8db651cad92e4,
perumahan,Komplek perumahan,Kompleks Perumahan,"96C6+G5J, Block M Ujung Aspal, Madawat, Kec. Alok, Kabupaten Sikka, Nusa Tenggara Tim.","Kabupaten Sikka, Nusa Tenggara Tim.",NUSA TENGGARA TIMUR,,Indonesia,,,,-86.286.714,1.222.103.793,https://maps.google.com/?cid=0x0:0x22437f3608e59668,
perumahan,Komplek perumahan,Waidoko,"95RW+RH8, Wolomarang, Kec. Alok Bar., Kabupaten Sikka, Nusa Tenggara Tim.","Kabupaten Sikka, Nusa Tenggara Tim.",NUSA TENGGARA TIMUR,,Indonesia,,,,-86.076.704,1.221.971.857,https://maps.google.com/?cid=0x0:0xcc2ba9d6074a131b,
perumahan,Penginapan,Perumahan Puri Kimbul Permai,"95JX+HJ3, Unnamed Rd, Wolomarang, Kec. Alok Bar., Kabupaten Sikka, Nusa Tenggara Tim.","Kabupaten Sikka, Nusa Tenggara Tim.",NUSA TENGGARA TIMUR,,Indonesia,,,,-86.186.219,1.221.990.375,https://maps.google.com/?cid=0x0:0x779c7c4bf6098bfb,
perumahan,Pembangunan Perumahan,Lastry,"Jl. Anyelir III, Madawat, Kec. Alok, Kabupaten Sikka, Nusa Tenggara Tim.","Kabupaten Sikka, Nusa Tenggara Tim.",NUSA TENGGARA TIMUR,,Indonesia,,,,-86.213.707,1.222.094.488,https://maps.google.com/?cid=0x0:0xd9692af5f032c412,
perumahan,Pasar,Pasar alok,"95MW+JHJ, Wolomarang, Kec. Alok Bar., Kabupaten Sikka, Nusa Tenggara Tim.","Kabupaten Sikka, Nusa Tenggara Tim.",NUSA TENGGARA TIMUR,,Indonesia,,,,-86.159.004,1.221.963.824,https://maps.google.com/?cid=0x0:0xe1a44b94423ec43b,
perumahan,Komplek perumahan,Ijonatar,"95MV+MHW, Wolomarang, Kec. Alok Bar., Kabupaten Sikka, Nusa Tenggara Tim.","Kabupaten Sikka, Nusa Tenggara Tim.",NUSA TENGGARA TIMUR,,Indonesia,,,,-86.157.665,1.221.939.536,https://maps.google.com/?cid=0x0:0xddd2f9647e2eb464,
perumahan,Perhimpunan Pengembang Perumahan,Rumah Labu,"95GX+R7J, Wolomarang, Kec. Alok Bar., Kabupaten Sikka, Nusa Tenggara Tim.","Kabupaten Sikka, Nusa Tenggara Tim.",NUSA TENGGARA TIMUR,,Indonesia,,,,-86.217.642,1.221.970.224,https://maps.google.com/?cid=0x0:0xedaf453084cbf9d5,
perumahan,perumahan,Wolomaranh,"95RW+RH8, Wolomarang, Kec. Alok Bar., Kabupaten Sikka, Nusa Tenggara Tim.","Kabupaten Sikka, Nusa Tenggara Tim.",NUSA TENGGARA TIMUR,,Indonesia,,,,-86.084.511,1.221.970.436,https://maps.google.com/?cid=0x0:0x951729d61b9e1774,
perumahan,Komplek perumahan,Rumah Caesar,"95VW+F3J, Wolomarang, Kec. Alok Bar., Kabupaten Sikka, Nusa Tenggara Tim.","Kabupaten Sikka, Nusa Tenggara Tim.",NUSA TENGGARA TIMUR,,Indonesia,,,,-86.066.094,1.221.955.413,https://maps.google.com/?cid=0x0:0x677e6020ff27e507,
perumahan,Pembangunan Perumahan,Perumahan Alok Indah,"96C8+8VW, Unnamed Road, Kota Baru, Kec. Alok Tim., Kabupaten Sikka, Nusa Tenggara Tim.","Kabupaten Sikka, Nusa Tenggara Tim.",NUSA TENGGARA TIMUR,,Indonesia,,,,-8.629.147,1.222.172.131,https://maps.google.com/?cid=0x0:0xe498d353b2b25b6a,
perumahan,Komplek perumahan,Rumah Anjelo Mboa,"95QV+32G, Wolomarang, Kec. Alok Bar., Kabupaten Sikka, Nusa Tenggara Tim.","Kabupaten Sikka, Nusa Tenggara Tim.",NUSA TENGGARA TIMUR,,Indonesia,,,,-86.123.048,122.192.578,https://maps.google.com/?cid=0x0:0x6c5ec7b8613d2440,
perumahan,Komplek perumahan,B2nk Area,"95WX+H87, Wolomarang, Kec. Alok Bar., Kabupaten Sikka, Nusa Tenggara Tim.","Kabupaten Sikka, Nusa Tenggara Tim.",NUSA TENGGARA TIMUR,,Indonesia,,,,-86.036.324,122.198.507,https://maps.google.com/?cid=0x0:0xf6a224a384a9ad8d,
perumahan,Komplek perumahan,Kos Ibu Luh,"96Q3+393, Kota Uneng, Kec. Alok, Kabupaten Sikka, Nusa Tenggara Tim.","Kabupaten Sikka, Nusa Tenggara Tim.",NUSA TENGGARA TIMUR,,Indonesia,,,,-86.120.595,1.222.029.929,https://maps.google.com/?cid=0x0:0xcaaf120b719fc588,
perumahan,Pembangunan Perumahan,Wolomaget,"95QR+RQ, Wolomarang, Kec. Alok Bar., Kabupaten Sikka, Nusa Tenggara Tim.","Kabupaten Sikka, Nusa Tenggara Tim.",NUSA TENGGARA TIMUR,,Indonesia,,,,-86.103.947,1.221.919.122,https://maps.google.com/?cid=0x0:0xeaf8911c75df1fc6,
perumahan,Komplek perumahan,Rumah H Saber,"C623+4CF, Wolomarang, Kec. Alok Bar., Kabupaten Sikka, Nusa Tenggara Tim.","Kabupaten Sikka, Nusa Tenggara Tim.",NUSA TENGGARA TIMUR,,Indonesia,,,,-85.996.925,1.222.035.348,https://maps.google.com/?cid=0x0:0x838a260613710207,
perumahan,Komplek perumahan,Rumah Gudang,"95WX+HFX, Wolomarang, Kec. Alok Bar., Kabupaten Sikka, Nusa Tenggara Tim.","Kabupaten Sikka, Nusa Tenggara Tim.",NUSA TENGGARA TIMUR,,Indonesia,,,,-86.035.094,1.221.987.498,https://maps.google.com/?cid=0x0:0xb4d681b7f4a7017a,
perumahan,Komplek perumahan,RUMAH IKHO,"95VW+P9Q, Wolomarang, Kec. Alok Bar., Kabupaten Sikka, Nusa Tenggara Tim.","Kabupaten Sikka, Nusa Tenggara Tim.",NUSA TENGGARA TIMUR,,Indonesia,81337429080,,,-86.056.509,122.195.976,https://maps.google.com/?cid=0x0:0xeba4ed91a6817e3c,
perumahan,Pembangunan Perumahan,objek,"95XW+77F, Wolomarang, Kec. Alok Bar., Kabupaten Sikka, Nusa Tenggara Tim.","Kabupaten Sikka, Nusa Tenggara Tim.",NUSA TENGGARA TIMUR,,Indonesia,,,,-86.016.389,1.221.951.389,https://maps.google.com/?cid=0x0:0x654722732eca6ee0,
perumahan,Pembangunan Perumahan,Home,"96X2+7H8, Jl. Bengkunis, Wolomarang, Kec. Alok Bar., Kabupaten Sikka, Nusa Tenggara Tim.","Kabupaten Sikka, Nusa Tenggara Tim.",NUSA TENGGARA TIMUR,,Indonesia,,,,-86.018.435,1.222.014.554,https://maps.google.com/?cid=0x0:0xc0a00b18616d28f0,
perumahan,Pembangunan Perumahan,NTT FLORES MAUMERE,"95JR+PMR, Wolomarang, Kec. Alok Bar., Kabupaten Sikka, Nusa Tenggara Tim.","Kabupaten Sikka, Nusa Tenggara Tim.",NUSA TENGGARA TIMUR,,Indonesia,,,,-8.618.134,1.221.916.328,https://maps.google.com/?cid=0x0:0x666cbd3832564979,
perumahan,Komplek perumahan,Rumah Reyy Djwaa,"95JW+M2Q, Wolomarang, Kec. Alok Bar., Kabupaten Sikka, Nusa Tenggara Tim.","Kabupaten Sikka, Nusa Tenggara Tim.",NUSA TENGGARA TIMUR,,Indonesia,,,,-86.182.982,1.221.951.158,https://maps.google.com/?cid=0x0:0x4c0dfe13d42122d6,
perumahan,Pembangunan Perumahan,Tempat Pesta,"95VV+VP4, Wolomarang, Kec. Alok Bar., Kabupaten Sikka, Nusa Tenggara Tim.","Kabupaten Sikka, Nusa Tenggara Tim.",NUSA TENGGARA TIMUR,,Indonesia,,,,-86.053.686,1.221.943.405,https://maps.google.com/?cid=0x0:0xd2713f66923af585,
perumahan,Komplek perumahan,Green Home,"Jl.Soenoek No.1, Wolomarang, Kec. Alok Bar., Kabupaten Sikka, Nusa Tenggara Tim. 86114","Wolomarang, Kec. Alok Bar., Kabupaten Sikka",NUSA TENGGARA TIMUR,86114.0,Indonesia,,,,-86.024.222,1.221.986.515,https://maps.google.com/?cid=0x0:0x84d3aad9c542ec4c,
perumahan,Komplek perumahan,Nangahure lembah,"C5Q7+449, Nangahure, lembah, Wuring, Alok Barat, Sikka Regency, East Nusa Tenggara","Kabupaten Sikka, Nusa Tenggara Tim.",NUSA TENGGARA TIMUR,,Indonesia,,,,-85.622.206,1.221.628.565,https://maps.google.com/?cid=0x0:0x7dab0f6570103ebd,
perumahan,Komplek perumahan,Nangahure,"C5J9+C4H, Jl. Raya Maumere - Magepanda, Hewuli, Kec. Alok Bar., Kabupaten Sikka, Nusa Tenggara Tim.","Kabupaten Sikka, Nusa Tenggara Tim.",NUSA TENGGARA TIMUR,,Indonesia,,,,-85.689.367,1.221.678.551,https://maps.google.com/?cid=0x0:0x8efa68b58595a37b,
perumahan,Toko umum,Blink store mof,"C5R5+JR8, Nangahure, RT.003/RW.001, lembah, Alok Barat, Sikka Regency, East Nusa Tenggara","Kabupaten Sikka, Nusa Tenggara Tim.",NUSA TENGGARA TIMUR,,Indonesia,,,,-8.558.451,1.221.595.762,https://maps.google.com/?cid=0x0:0x144da1ee97da879d,
perumahan,perumahan,Nusa Tenggara Tim. 86111,"Kota Uneng, Kec. Alok, Kabupaten Sikka, Nusa Tenggara Tim.","Kabupaten Sikka, Nusa Tenggara Tim.",NUSA TENGGARA TIMUR,,Indonesia,,,,-86.139.767,1.222.125.928,https://maps.google.com/?cid=0x0:0x15b5b19775888894,
perumahan,Pembangunan Perumahan,Perumahan Alok Indah,"96C8+8VW, Unnamed Road, Kota Baru, Kec. Alok Tim., Kabupaten Sikka, Nusa Tenggara Tim.","Kabupaten Sikka, Nusa Tenggara Tim.",NUSA TENGGARA TIMUR,,Indonesia,,,,-8.629.147,1.222.172.131,https://maps.google.com/?cid=0x0:0xe498d353b2b25b6a,
perumahan,Pembangunan Perumahan,Belakang lembaga,"96C8+582, Kota Baru, Kec. Alok Tim., Kabupaten Sikka, Nusa Tenggara Tim.","Kabupaten Sikka, Nusa Tenggara Tim.",NUSA TENGGARA TIMUR,,Indonesia,,,,-86.296.045,1.222.157.597,https://maps.google.com/?cid=0x0:0xcda8db651cad92e4,
perumahan,Pembangunan Perumahan,Rumah Tian,"96M7+MC8, Kota Uneng, Kec. Alok, Kabupaten Sikka, Nusa Tenggara Tim.","Kabupaten Sikka, Nusa Tenggara Tim.",NUSA TENGGARA TIMUR,,Indonesia,,,,-86.158.474,1.222.135.757,https://maps.google.com/?cid=0x0:0x1f6790f3cc93065a,
perumahan,Pembangunan Perumahan,Yohanes Djuang Soge,"Jl. Teka Iku No.16 D, Nangameting, Kec. Alok Tim., Kabupaten Sikka, Nusa Tenggara Tim. 86111","Nangameting, Kec. Alok Tim., Kabupaten Sikka",NUSA TENGGARA TIMUR,86111.0,Indonesia,,,,-86.139.767,1.222.125.928,https://maps.google.com/?cid=0x0:0x93ed57fe56eaad8c,
perumahan,perumahan,Rumahnya Adinda,"96P6+7P9, Jl. Don Juang, Kota Uneng, Kec. Alok, Kabupaten Sikka, Nusa Tenggara Tim.","Kabupaten Sikka, Nusa Tenggara Tim.",NUSA TENGGARA TIMUR,,Indonesia,,,,-86.143.365,1.222.118.648,https://maps.google.com/?cid=0x0:0x1ae5aef269c15d8d,
perumahan,Pembangunan Perumahan,Barra's Homiee,"96P7+C24, Jln Jenderal Sudirman, Lorong TK Imaculata Kel, RT.009/RW.003, Waioti, Alok Timur, Sikka Regency, East Nusa Tenggara 86111","Jln Jenderal Sudirman, Lorong TK Imaculata Kel, RT.009/RW.003, Waioti, Alok Timur, Sikka Regency",NUSA TENGGARA TIMUR,86111.0,Indonesia,,,,-86.139.767,1.222.125.928,https://maps.google.com/?cid=0x0:0xeccd1c1235d7d051,
perumahan,Klinik Kesehatan,Perumnas Maumere,"96H6+3MP, Jl. Dahlia 1, Madawat, Kec. Alok, Kabupaten Sikka, Nusa Tenggara Tim.","Kabupaten Sikka, Nusa Tenggara Tim.",NUSA TENGGARA TIMUR,,Indonesia,,,,-86.222.838,1.222.117.176,https://maps.google.com/?cid=0x0:0x206c6c9f15b5d2e3,
perumahan,Komplek perumahan,Kost NAGRAVAL,"Tuang Muut, Jl. Don Juang, Kota Uneng, Kec. Alok, Kabupaten Sikka, Nusa Tenggara Tim.","Kabupaten Sikka, Nusa Tenggara Tim.",NUSA TENGGARA TIMUR,,Indonesia,,,,-8.615,1.222.141.875,https://maps.google.com/?cid=0x0:0x6ac555f462d1116f,
perumahan,Bengkel Mobil,Bengkel yeri Binter,"96P7+FFQ, Gg. Binter, Kota Uneng, Kec. Alok, Kabupaten Sikka, Nusa Tenggara Tim.","Kabupaten Sikka, Nusa Tenggara Tim.",NUSA TENGGARA TIMUR,,Indonesia,,,,-86.137.649,1.222.136.208,https://maps.google.com/?cid=0x0:0xc1683a9b94f72e1d,
perumahan,perumahan,Kec. Alok Tim.,"Kabupaten Sikka, Nusa Tenggara Tim.","Kabupaten Sikka, Nusa Tenggara Tim.",NUSA TENGGARA TIMUR,,Indonesia,,,,-86.196.707,1.222.192.584,https://maps.google.com/?cid=0x0:0xb5d8faa6e3744659,
perumahan,Komplek perumahan,Kompleks Perumahan,"96C6+G5J, Block M Ujung Aspal, Madawat, Kec. Alok, Kabupaten Sikka, Nusa Tenggara Tim.","Kabupaten Sikka, Nusa Tenggara Tim.",NUSA TENGGARA TIMUR,,Indonesia,,,,-86.286.714,1.222.103.793,https://maps.google.com/?cid=0x0:0x22437f3608e59668,
perumahan,Pembangunan Perumahan,Belakang lembaga,"96C8+582, Kota Baru, Kec. Alok Tim., Kabupaten Sikka, Nusa Tenggara Tim.","Kabupaten Sikka, Nusa Tenggara Tim.",NUSA TENGGARA TIMUR,,Indonesia,,,,-86.296.045,1.222.157.597,https://maps.google.com/?cid=0x0:0xcda8db651cad92e4,
perumahan,Pembangunan Perumahan,"Kahat, Flores, Indonesia","87VF+G4, Kokowahor, Kec. Kangae, Kabupaten Sikka, Nusa Tenggara Tim.","Kabupaten Sikka, Nusa Tenggara Tim.",NUSA TENGGARA TIMUR,,Indonesia,,,,-86.562.554,1.222.728.289,https://maps.google.com/?cid=0x0:0x40beec5ddcdc017,
perumahan,Pembangunan Perumahan,Lastry,"Jl. Anyelir III, Madawat, Kec. Alok, Kabupaten Sikka, Nusa Tenggara Tim.","Kabupaten Sikka, Nusa Tenggara Tim.",NUSA TENGGARA TIMUR,,Indonesia,,,,-86.213.707,1.222.094.488,https://maps.google.com/?cid=0x0:0xd9692af5f032c412,
perumahan,Kantor Perusahaan,Dinas Perumahan dan Kawasan Permukiman dan Pertanahan,"96F7+XVH, Jl. Gajah Mada, Madawat, Kec. Alok, Kabupaten Sikka, Nusa Tenggara Tim.","Kabupaten Sikka, Nusa Tenggara Tim.",NUSA TENGGARA TIMUR,,Indonesia,,,,-86.250.502,122.214.747,https://maps.google.com/?cid=0x0:0xf7b3d0b9c29ea90b,
perumahan,Komplek perumahan,"Kahat, Nusa tenggara Timur, Indonesia","87M9+J79, Kokowahor, Kec. Kangae, Kabupaten Sikka, Nusa Tenggara Tim.","Kabupaten Sikka, Nusa Tenggara Tim.",NUSA TENGGARA TIMUR,,Indonesia,,,,-86.659.613,1.222.682.245,https://maps.google.com/?cid=0x0:0xcaabe4b60053fbcc,
perumahan,Komplek perumahan,Koleksi Kain Tenun Sikka,"Toko Harapan Kasih, Pasar, Kota Uneng, Kec. Alok, Kabupaten Sikka, Nusa Tenggara Tim. 86113","Pasar, Kota Uneng, Kec. Alok, Kabupaten Sikka",NUSA TENGGARA TIMUR,86113.0,Indonesia,,,,-86.168.956,1.222.014.431,https://maps.google.com/?cid=0x0:0x419a6027ea07575,
perumahan,perumahan,Kota Baru,"Kec. Alok Tim., Kabupaten Sikka, Nusa Tenggara Tim.","Kabupaten Sikka, Nusa Tenggara Tim.",NUSA TENGGARA TIMUR,,Indonesia,,,,-86.311.598,122.218.588,https://maps.google.com/?cid=0x0:0xdde063d1407b4f1e,
perumahan,Komplek perumahan,Waidoko,"95RW+RH8, Wolomarang, Kec. Alok Bar., Kabupaten Sikka, Nusa Tenggara Tim.","Kabupaten Sikka, Nusa Tenggara Tim.",NUSA TENGGARA TIMUR,,Indonesia,,,,-86.076.704,1.221.971.857,https://maps.google.com/?cid=0x0:0xcc2ba9d6074a131b,
perumahan,Panti Asuhan,Rumah Remaja putri SOS Children's Village Flores,"969F+RFC, Jl. Dua toru, Beru, Kec. Alok Tim., Kabupaten Sikka, Nusa Tenggara Tim.","Kabupaten Sikka, Nusa Tenggara Tim.",NUSA TENGGARA TIMUR,,Indonesia,82340616590,,,-86.304.347,1.222.236.293,https://maps.google.com/?cid=0x0:0x56cc0ce967f15879,
perumahan,Masjid,Masjid Al-Muhajirin,"96G6+XRR, Perumnas Jl. Melati, Madawat, Kec. Alok, Kabupaten Sikka, Nusa Tenggara Tim.","Kabupaten Sikka, Nusa Tenggara Tim.",NUSA TENGGARA TIMUR,,Indonesia,,,,-86.237.739,1.222.114.539,https://maps.google.com/?cid=0x0:0xe9e26742c7aaa01a,
perumahan,Toko Roti,SukaRoti Maumere,"Jl. Gajah Mada, Madawat, Kec. Alok, Kabupaten Sikka, Nusa Tenggara Tim.","Kabupaten Sikka, Nusa Tenggara Tim.",NUSA TENGGARA TIMUR,,Indonesia,81236995366,,,-86.262.213,12.221.415,https://maps.google.com/?cid=0x0:0x8c2a8020f828b593,
perumahan,Servis Komputer,Duta Jaya Computer,"Madawat, Kec. Alok, Kabupaten Sikka, Nusa Tenggara Tim.","Kabupaten Sikka, Nusa Tenggara Tim.",NUSA TENGGARA TIMUR,,Indonesia,81218440667,,,-86.216.982,1.222.108.323,https://maps.google.com/?cid=0x0:0x8cc80fb14638ba72,
perumahan,Kantor Perusahaan,PT. GUDANG GARAM.Tbk. Meeting Point Maumere.,"Jl. Gajah Mada, Madawat, Kec. Alok, Kabupaten Sikka, Nusa Tenggara Tim.","Kabupaten Sikka, Nusa Tenggara Tim.",NUSA TENGGARA TIMUR,,Indonesia,38222940,,,-86.322.311,1.222.114.708,https://maps.google.com/?cid=0x0:0xa00e66c98c5aad63,
perumahan,perumahan,Pantai Paris Homestay,"Jl. Nasional Maumere - Larantuka, Habi, Kec. Kangae, Kabupaten Sikka, Nusa Tenggara Tim.","Kabupaten Sikka, Nusa Tenggara Tim.",NUSA TENGGARA TIMUR,,Indonesia,81246452277,,,-86.335.801,1.222.518.977,https://maps.google.com/?cid=0x0:0xad0da62dae594471,
perumahan,perumahan,Sylvia Hotel,"Jl. Gajah Mada No.88, Madawat, Kec. Alok, Kabupaten Sikka, Nusa Tenggara Tim.","Kabupaten Sikka, Nusa Tenggara Tim.",NUSA TENGGARA TIMUR,,Indonesia,38221829,,,-86.342.849,1.222.098.628,https://maps.google.com/?cid=0x0:0xf5ecab3527471bfe,
perumahan,perumahan,Hotel Mathilda,"Jl. Raya Maumere - Magepanda No.28, Kota Uneng, Kec. Alok, Kabupaten Sikka, Nusa Tenggara Tim.","Kabupaten Sikka, Nusa Tenggara Tim.",NUSA TENGGARA TIMUR,,Indonesia,81225173148,,,-86.119.193,122.208.435,https://maps.google.com/?cid=0x0:0x63afa3f1e319c6d4,
perumahan,perumahan,Merlin Hotel,"Jl. Gajah Mada, Madawat, Kec. Alok, Kabupaten Sikka, Nusa Tenggara Tim. 86111","Madawat, Kec. Alok, Kabupaten Sikka",NUSA TENGGARA TIMUR,86111.0,Indonesia,82235526007,,,-86.263.204,12.221.411,https://maps.google.com/?cid=0x0:0x2190e83e429c2f4a,
perumahan,perumahan,Floressa Guest House Dorm,"Jl. Don Thomas No.19, Kota Baru, Kec. Alok Tim., Kabupaten Sikka, Nusa Tenggara Tim. 86111","Kota Baru, Kec. Alok Tim., Kabupaten Sikka",NUSA TENGGARA TIMUR,86111.0,Indonesia,82237824652,,,-86.219.551,1.222.208.622,https://maps.google.com/?cid=0x0:0x985ea7805922cd32,
perumahan,perumahan,Hotel Benggoan 2,"Jl. Moa Toda No.49, Kota Baru, Kec. Alok Tim., Kabupaten Sikka, Nusa Tenggara Tim. 86111","Kota Baru, Kec. Alok Tim., Kabupaten Sikka",NUSA TENGGARA TIMUR,86111.0,Indonesia,81336669522,,,-86.245.875,1.222.186.225,https://maps.google.com/?cid=0x0:0xd164349feb5d03cc,
perumahan,perumahan,Waiara Village Guesthouse,"Jl. Nasional Maumere - Larantuka, Waiara, Kec. Kewapante, Kabupaten Sikka, Nusa Tenggara Tim.","Kabupaten Sikka, Nusa Tenggara Tim.",NUSA TENGGARA TIMUR,,Indonesia,81337001250,,,-86.397.002,1.223.071.628,https://maps.google.com/?cid=0x0:0x489a31c7db972c23,
perumahan,Patung,Patung Kristus Raja Maumere,"96J9+G5F, Kota Uneng, Kec. Alok, Kabupaten Sikka, Nusa Tenggara Tim.","Kabupaten Sikka, Nusa Tenggara Tim.",NUSA TENGGARA TIMUR,,Indonesia,,,,-86.186.904,122.217.907,https://maps.google.com/?cid=0x0:0x8de544edfe7c2e9e,
perumahan,Tempat Ziarah,Bukit Golgota Nilo,"947W+X94, Unnamed Road, Nitakloang, Kec. Nita, Kabupaten Sikka, Nusa Tenggara Tim.","Kabupaten Sikka, Nusa Tenggara Tim.",NUSA TENGGARA TIMUR,,Indonesia,,,,-86.351.083,1.221.459.686,https://maps.google.com/?cid=0x0:0xb1a93eba0ff1bf64,
perumahan,Agen Asuransi,Rumah Makan Bunaken,"Jl. Don Juang No.6, Kota Uneng, Kec. Alok, Kabupaten Sikka, Nusa Tenggara Tim.","Kabupaten Sikka, Nusa Tenggara Tim.",NUSA TENGGARA TIMUR,,Indonesia,,,,-86.168.285,1.222.162.698,https://maps.google.com/?cid=0x0:0xbf643195006cf6e0,
perumahan,Pembangunan Perumahan,"Urudetun center, kln natabola, ilin medo waiblama sikka NTT indonesia","CHW8+663, Jln natabola urudetun, Ilinmedo, Kec. Waiblama, Kabupaten Sikka, Nusa Tenggara Tim.","Kabupaten Sikka, Nusa Tenggara Tim.",NUSA TENGGARA TIMUR,,Indonesia,,,,-85.544.989,1.225.655.549,https://maps.google.com/?cid=0x0:0xca5fcb65a1b81898,
perumahan,Kantor Pemerintah,Kejaksaan Negeri Sikka (Maumere),"96FM+33Q, Waioti, Kec. Alok Tim., Kabupaten Sikka, Nusa Tenggara Tim.","Kabupaten Sikka, Nusa Tenggara Tim.",NUSA TENGGARA TIMUR,,Indonesia,,,,-86.272.983,1.222.327.411,https://maps.google.com/?cid=0x0:0xbaf5bdf29e077f66,
perumahan,Pembangunan Perumahan,Perumahan Alok Indah,"96C8+8VW, Unnamed Road, Kota Baru, Kec. Alok Tim., Kabupaten Sikka, Nusa Tenggara Tim.","Kabupaten Sikka, Nusa Tenggara Tim.",NUSA TENGGARA TIMUR,,Indonesia,,,,-8.629.147,1.222.172.131,https://maps.google.com/?cid=0x0:0xe498d353b2b25b6a,
perumahan,Komplek perumahan,Lorong kincir,"96J9+JF9, Kota Uneng, Kec. Alok, Kabupaten Sikka, Nusa Tenggara Tim.","Kabupaten Sikka, Nusa Tenggara Tim.",NUSA TENGGARA TIMUR,,Indonesia,,,,-86.184.707,1.222.187.245,https://maps.google.com/?cid=0x0:0x63d22dab6bdb542c,
perumahan,Pembangunan Perumahan,Perumahan Alok Indah,"96C8+8VW, Unnamed Road, Kota Baru, Kec. Alok Tim., Kabupaten Sikka, Nusa Tenggara Tim.","Kabupaten Sikka, Nusa Tenggara Tim.",NUSA TENGGARA TIMUR,,Indonesia,,,,-8.629.147,1.222.172.131,https://maps.google.com/?cid=0x0:0xe498d353b2b25b6a,
perumahan,perumahan,Kec. Alok Tim.,"Kabupaten Sikka, Nusa Tenggara Tim.","Kabupaten Sikka, Nusa Tenggara Tim.",NUSA TENGGARA TIMUR,,Indonesia,,,,-86.196.707,1.222.192.584,https://maps.google.com/?cid=0x0:0xb5d8faa6e3744659,
perumahan,Komplek perumahan,Lorong kincir,"96J9+JF9, Kota Uneng, Kec. Alok, Kabupaten Sikka, Nusa Tenggara Tim.","Kabupaten Sikka, Nusa Tenggara Tim.",NUSA TENGGARA TIMUR,,Indonesia,,,,-86.184.707,1.222.187.245,https://maps.google.com/?cid=0x0:0x63d22dab6bdb542c,
perumahan,Komplek perumahan,Lorong kincir air,"96F7+VCG, Jl. Mawar, Madawat, Kec. Alok, Kabupaten Sikka, Nusa Tenggara Tim.","Kabupaten Sikka, Nusa Tenggara Tim.",NUSA TENGGARA TIMUR,,Indonesia,,,,-86.253.106,1.222.135.807,https://maps.google.com/?cid=0x0:0xd32c16d1d24db423,
perumahan,Komplek perumahan,Perumahan Alok indah 2,"9698+F89, Kota Baru, Kec. Alok Tim., Kabupaten Sikka, Nusa Tenggara Tim.","Kabupaten Sikka, Nusa Tenggara Tim.",NUSA TENGGARA TIMUR,,Indonesia,,,,-86.312.891,1.222.159.441,https://maps.google.com/?cid=0x0:0x8afabf9f9f28d6f0,
perumahan,Pembangunan Perumahan,Belakang lembaga,"96C8+582, Kota Baru, Kec. Alok Tim., Kabupaten Sikka, Nusa Tenggara Tim.","Kabupaten Sikka, Nusa Tenggara Tim.",NUSA TENGGARA TIMUR,,Indonesia,,,,-86.296.045,1.222.157.597,https://maps.google.com/?cid=0x0:0xcda8db651cad92e4,
perumahan,Komplek perumahan,RumahJabatanWakapolres,"Jl. Merpati No.8, Kota Baru, Kec. Alok Tim., Kabupaten Sikka, Nusa Tenggara Tim.","Kabupaten Sikka, Nusa Tenggara Tim.",NUSA TENGGARA TIMUR,,Indonesia,,,,-86.217.082,1.222.214.074,https://maps.google.com/?cid=0x0:0xfd6ea129015a0484,
perumahan,Perhimpunan Pengembang Perumahan,Lorong Belzem,"96F7+F48, Madawat, Kec. Alok, Kabupaten Sikka, Nusa Tenggara Tim.","Kabupaten Sikka, Nusa Tenggara Tim.",NUSA TENGGARA TIMUR,,Indonesia,,,,-86.263.381,1.222.128.383,https://maps.google.com/?cid=0x0:0xe999945ff43ba212,
perumahan,Komplek perumahan,TaniaKeytimu,"96C9+F3H, Kota Baru, Kec. Alok Tim., Kabupaten Sikka, Nusa Tenggara Tim.","Kabupaten Sikka, Nusa Tenggara Tim.",NUSA TENGGARA TIMUR,,Indonesia,,,,-86.288.142,1.222.177.244,https://maps.google.com/?cid=0x0:0xe62bc533ba37a747,
perumahan,Komplek perumahan,Rumah tinggal,"96H8+2HG c'2, Kabor, Kec. Alok, Kabupaten Sikka, Nusa Tenggara Tim.","Kabupaten Sikka, Nusa Tenggara Tim.",NUSA TENGGARA TIMUR,,Indonesia,,,,-86.224.367,1.222.164.389,https://maps.google.com/?cid=0x0:0xacd65cfc965a49e3,
perumahan,Komplek perumahan,Maumere,"96CC+M3R, Jln baru Thomas morus","Kabupaten Sikka, Nusa Tenggara Tim.",NUSA TENGGARA TIMUR,,Indonesia,,,,-86.282.676,1.222.201.283,https://maps.google.com/?cid=0x0:0x9507ee0a6e3d2cb4,
perumahan,Pembangunan Perumahan,MARIANO,"96H6+Q8M, Kota Uneng, Kec. Alok, Kabupaten Sikka, Nusa Tenggara Tim.","Kabupaten Sikka, Nusa Tenggara Tim.",NUSA TENGGARA TIMUR,,Indonesia,,,,-86.205.311,1.222.108.113,https://maps.google.com/?cid=0x0:0x43bf715425151f00,
perumahan,Kompleks Townhouse,Sesilia,"96CG+5VV, Sentrum, Kabupaten Sikka","Kabupaten Sikka, Nusa Tenggara Tim.",NUSA TENGGARA TIMUR,,Indonesia,,,,-86.295.176,1.222.271.845,https://maps.google.com/?cid=0x0:0x2f3bc15f93efb283,
perumahan,perumahan,Rumah Bintang,"96F9+368, Kota Baru, Kec. Alok Tim., Kabupaten Sikka, Nusa Tenggara Tim.","Kabupaten Sikka, Nusa Tenggara Tim.",NUSA TENGGARA TIMUR,,Indonesia,,,,-8.627.529,12.221.794,https://maps.google.com/?cid=0x0:0x78679b725cb321b3,
perumahan,Komplek perumahan,Itonk,"Jl. Kimang Buleng, Kota Uneng, Kec. Alok, Kabupaten Sikka, Nusa Tenggara Tim.","Kabupaten Sikka, Nusa Tenggara Tim.",NUSA TENGGARA TIMUR,,Indonesia,,,,-86.185.024,1.222.106.895,https://maps.google.com/?cid=0x0:0xcb7621db02789d35,
perumahan,Pembangunan Perumahan,WOLLBY NANGAMETING,"96FH+9WV, Nangameting, Kec. Alok Tim., Kabupaten Sikka, Nusa Tenggara Tim.","Kabupaten Sikka, Nusa Tenggara Tim.",NUSA TENGGARA TIMUR,,Indonesia,,,,-86.265.074,1.222.298.056,https://maps.google.com/?cid=0x0:0xa3f32a9f42a79efa,
perumahan,Komplek perumahan,Rumah Bidan Yul,"9689+F47, Kota Baru, Kec. Alok Tim., Kabupaten Sikka, Nusa Tenggara Tim.","Kabupaten Sikka, Nusa Tenggara Tim.",NUSA TENGGARA TIMUR,,Indonesia,,,,-86.338.484,1.222.178.863,https://maps.google.com/?cid=0x0:0x7b085f265af789d0,
perumahan,Pembangunan Perumahan,EggY,"9699+GCF, Kota Baru, Kec. Alok Tim., Kabupaten Sikka, Nusa Tenggara Tim.","Kabupaten Sikka, Nusa Tenggara Tim.",NUSA TENGGARA TIMUR,,Indonesia,,,,-8.631.196,1.222.185.595,https://maps.google.com/?cid=0x0:0x8d0775e5e7b6a628,
perumahan,perumahan,Rumah rizky,"9699+V64, Kota Baru, Kec. Alok Tim., Kabupaten Sikka, Nusa Tenggara Tim.","Kabupaten Sikka, Nusa Tenggara Tim.",NUSA TENGGARA TIMUR,,Indonesia,,,,-86.303.506,1.222.180.798,https://maps.google.com/?cid=0x0:0x28d5819a6e637303,
perumahan,Komplek perumahan,Lorong queenNemoNoelBower,"96F7+W7M, Jl. Mawar, Madawat, Kec. Alok, Kabupaten Sikka, Nusa Tenggara Tim.","Kabupaten Sikka, Nusa Tenggara Tim.",NUSA TENGGARA TIMUR,,Indonesia,81237089717,,,-86.251.699,1.222.131.646,https://maps.google.com/?cid=0x0:0xf9ed1f124ea6314e,
perumahan,Komplek perumahan,Rumah Om Ben,"969H+J89, Waioti, Kec. Alok Tim., Kabupaten Sikka, Nusa Tenggara Tim.","Kabupaten Sikka, Nusa Tenggara Tim.",NUSA TENGGARA TIMUR,,Indonesia,,,,-86.309.744,1.222.282.277,https://maps.google.com/?cid=0x0:0x62cfdd4487c014f8,
perumahan,Pembangunan Perumahan,Batarank,"9688+RJ2, jalan k.s tubun, Kota Baru, Kec. Alok Tim., Kabupaten Sikka, Nusa Tenggara Tim.","Kabupaten Sikka, Nusa Tenggara Tim.",NUSA TENGGARA TIMUR,,Indonesia,81217617670,,,-86.329.915,1.222.165.302,https://maps.google.com/?cid=0x0:0x4262e5cfd279ff72,
perumahan,perumahan,Nusa Tenggara Tim. 86215,"Lokea, Kec. Larantuka, Kabupaten Flores Timur, Nusa Tenggara Tim.","Kabupaten Flores Timur, Nusa Tenggara Tim.",NUSA TENGGARA TIMUR,,Indonesia,,,,-83.411.321,1.229.851.077,https://maps.google.com/?cid=0x0:0x982f75ac7612d26f,
perumahan,Pembangunan Perumahan,Perumahan Alok Indah,"96C8+8VW, Unnamed Road, Kota Baru, Kec. Alok Tim., Kabupaten Sikka, Nusa Tenggara Tim.","Kabupaten Sikka, Nusa Tenggara Tim.",NUSA TENGGARA TIMUR,,Indonesia,,,,-8.629.147,1.222.172.131,https://maps.google.com/?cid=0x0:0xe498d353b2b25b6a,
perumahan,Komplek perumahan,Kampung NEWOK,"HJHQ+M4, Lewomada, Kec. Talibura, Kabupaten Sikka, Nusa Tenggara Tim.","Kabupaten Sikka, Nusa Tenggara Tim.",NUSA TENGGARA TIMUR,,Indonesia,,,,-84.207.788,1.226.378.559,https://maps.google.com/?cid=0x0:0xd3f1baa9de4730c3,
perumahan,Komplek perumahan,Rumah Fad,"GCF7+5FP, Desa, Kojagete, Kec. Alok Tim., Kabupaten Sikka, Nusa Tenggara Tim.","Kabupaten Sikka, Nusa Tenggara Tim.",NUSA TENGGARA TIMUR,,Indonesia,,,,-84.765.281,1.224.131.398,https://maps.google.com/?cid=0x0:0x203b4a26f49bf6c6,
perumahan,perumahan,Norin,"CGQM+RWC, Tua Bao, Kec. Waiblama, Kabupaten Sikka, Nusa Tenggara Tim.","Kabupaten Sikka, Nusa Tenggara Tim.",NUSA TENGGARA TIMUR,,Indonesia,,,,-856.035,122.533.915,https://maps.google.com/?cid=0x0:0x56a9637a8bea334e,
perumahan,Pembangunan Perumahan,Belakang lembaga,"96C8+582, Kota Baru, Kec. Alok Tim., Kabupaten Sikka, Nusa Tenggara Tim.","Kabupaten Sikka, Nusa Tenggara Tim.",NUSA TENGGARA TIMUR,,Indonesia,,,,-86.296.045,1.222.157.597,https://maps.google.com/?cid=0x0:0xcda8db651cad92e4,
perumahan,Komplek perumahan,Di Rumah Andy,"MX5M+9HX, Lohayong, Kec. Larantuka, Kabupaten Flores Timur, Nusa Tenggara Tim.","Kabupaten Flores Timur, Nusa Tenggara Tim.",NUSA TENGGARA TIMUR,,Indonesia,,,,-83.414.591,1.229.838.682,https://maps.google.com/?cid=0x0:0x249a4bacb675f336,
perumahan,Komplek perumahan,RUMAH NAWIR,"GCWW+89X, Parumaan, Kec. Alok Tim., Kabupaten Sikka, Nusa Tenggara Tim.","Kabupaten Sikka, Nusa Tenggara Tim.",NUSA TENGGARA TIMUR,,Indonesia,,,,-84.541.406,1.224.459.954,https://maps.google.com/?cid=0x0:0x4861ced0e9cb17bc,
perumahan,Komplek perumahan,RISWAL,"GCVR+XMM, Parumaan, Kec. Alok Tim., Kabupaten Sikka, Nusa Tenggara Tim.","Kabupaten Sikka, Nusa Tenggara Tim.",NUSA TENGGARA TIMUR,,Indonesia,,,,-84.545.707,1.224.416.604,https://maps.google.com/?cid=0x0:0x2e306a2ab83577c,
perumahan,Komplek perumahan,Rumah SABRI,"G96W+C7J, Kojadoi, Kec. Alok Tim., Kabupaten Sikka, Nusa Tenggara Tim.","Kabupaten Sikka, Nusa Tenggara Tim.",NUSA TENGGARA TIMUR,,Indonesia,,,,-8.488.551,12.239.561,https://maps.google.com/?cid=0x0:0x841ed00c5e40c5c8,
perumahan,Komplek perumahan,Rumah arfad,"GCF7+5FP, Desa, Kojagete, Kec. Alok Tim., Kabupaten Sikka, Nusa Tenggara Tim.","Kabupaten Sikka, Nusa Tenggara Tim.",NUSA TENGGARA TIMUR,,Indonesia,,,,-84.765.483,1.224.131.656,https://maps.google.com/?cid=0x0:0xb8e03aa5d88f5e7d,
perumahan,Komplek perumahan,Wairmitak,"Ds, RW.mahe, kelan, Waigete, Sikka Regency, East Nusa Tenggara","Kabupaten Sikka, Nusa Tenggara Tim.",NUSA TENGGARA TIMUR,,Indonesia,,,,-86.130.119,1.224.201.024,https://maps.google.com/?cid=0x0:0xce82962302844749,
perumahan,Komplek perumahan,margajong,"G94F+94C, Kojadoi, Kec. Alok Tim., Kabupaten Sikka, Nusa Tenggara Tim.","Kabupaten Sikka, Nusa Tenggara Tim.",NUSA TENGGARA TIMUR,,Indonesia,,,,-84.940.572,1.223.727.769,https://maps.google.com/?cid=0x0:0xdf422cc53aca7a0d,
perumahan,Komplek perumahan,"Wuwur, Desa Kloangpopot, Kec. Doreng, Kab. Sikka, Prov. NTT","79J5+5HF, Kloangpopot, Kec. Doreng, Kabupaten Sikka, Nusa Tenggara Tim.","Kabupaten Sikka, Nusa Tenggara Tim.",NUSA TENGGARA TIMUR,,Indonesia,,,,-87.195.625,1.223.589.219,https://maps.google.com/?cid=0x0:0x4d66ace08f156bd3,
perumahan,Komplek perumahan,P. Babi,"Pulau Babi, Parumaan, Kec. Alok Tim., Kabupaten Sikka, Nusa Tenggara Tim.","Kabupaten Sikka, Nusa Tenggara Tim.",NUSA TENGGARA TIMUR,,Indonesia,,,,-84.252.778,1.225.086.111,https://maps.google.com/?cid=0x0:0x5ae564d9bef7ac7e,
perumahan,Komplek perumahan,Rumah orrys lewar,"FJRW+34V, Kringa, Kec. Talibura, Kabupaten Sikka, Nusa Tenggara Tim.","Kabupaten Sikka, Nusa Tenggara Tim.",NUSA TENGGARA TIMUR,,Indonesia,81338570339,,,-85.097.703,1.226.452.836,https://maps.google.com/?cid=0x0:0x24bc2248f8ce4df4,
perumahan,Komplek perumahan,parumaan,"GCWV+6CH, jalan pos yandu, Parumaan, Kec. Alok Tim., Kabupaten Sikka, Nusa Tenggara Tim.","Kabupaten Sikka, Nusa Tenggara Tim.",NUSA TENGGARA TIMUR,,Indonesia,,,,-84.544.284,1.224.436.046,https://maps.google.com/?cid=0x0:0x498dae49dfc20e08,
perumahan,Perhimpunan Pengembang Perumahan,Khun parera,"MX5P+C2X, Lokea, Kec. Larantuka, Kabupaten Flores Timur, Nusa Tenggara Tim.","Kabupaten Flores Timur, Nusa Tenggara Tim.",NUSA TENGGARA TIMUR,,Indonesia,,,,-83.413.851,1.229.851.085,https://maps.google.com/?cid=0x0:0xddf2253ef23d5eec,
perumahan,Pembangunan Perumahan,Y.Y Hommy,"9CP7+V53, Egon, Kec. Waigete, Kabupaten Sikka, Nusa Tenggara Tim.","Kabupaten Sikka, Nusa Tenggara Tim.",NUSA TENGGARA TIMUR,,Indonesia,,,,-86.128.749,1.224.129.118,https://maps.google.com/?cid=0x0:0x5108bbd2f12d5572,
perumahan,Komplek perumahan,UTANWAIR FAMILY,"CGQ5+7P7, Nangahale, Kec. Talibura, Kabupaten Sikka, Nusa Tenggara Tim.","Kabupaten Sikka, Nusa Tenggara Tim.",NUSA TENGGARA TIMUR,,Indonesia,,,,-85.618.375,1.225.092.969,https://maps.google.com/?cid=0x0:0x7f96be5036159ff2,
perumahan,perumahan,Kec. Alok Tim.,"Kabupaten Sikka, Nusa Tenggara Tim.","Kabupaten Sikka, Nusa Tenggara Tim.",NUSA TENGGARA TIMUR,,Indonesia,,,,-86.196.707,1.222.192.584,https://maps.google.com/?cid=0x0:0xb5d8faa6e3744659,
perumahan,Komplek perumahan,Lorong kincir,"96J9+JF9, Kota Uneng, Kec. Alok, Kabupaten Sikka, Nusa Tenggara Tim.","Kabupaten Sikka, Nusa Tenggara Tim.",NUSA TENGGARA TIMUR,,Indonesia,,,,-86.184.707,1.222.187.245,https://maps.google.com/?cid=0x0:0x63d22dab6bdb542c,
perumahan,Komplek perumahan,Rumah Abel,"9689+97C, Kota Baru, Kec. Alok Tim., Kabupaten Sikka, Nusa Tenggara Tim.","Kabupaten Sikka, Nusa Tenggara Tim.",NUSA TENGGARA TIMUR,,Indonesia,,,,-8.634.099,1.222.179.289,https://maps.google.com/?cid=0x0:0xc700b3bf0ad4f9c9,
perumahan,Komplek perumahan,Maumere,"96CC+M3R, Jln baru Thomas morus","Kabupaten Sikka, Nusa Tenggara Tim.",NUSA TENGGARA TIMUR,,Indonesia,,,,-86.282.676,1.222.201.283,https://maps.google.com/?cid=0x0:0x9507ee0a6e3d2cb4,
perumahan,Komplek perumahan,Perumahan Alok indah 2,"9698+F89, Kota Baru, Kec. Alok Tim., Kabupaten Sikka, Nusa Tenggara Tim.","Kabupaten Sikka, Nusa Tenggara Tim.",NUSA TENGGARA TIMUR,,Indonesia,,,,-86.312.891,1.222.159.441,https://maps.google.com/?cid=0x0:0x8afabf9f9f28d6f0,
perumahan,Komplek perumahan,Rumah Om Ben,"969H+J89, Waioti, Kec. Alok Tim., Kabupaten Sikka, Nusa Tenggara Tim.","Kabupaten Sikka, Nusa Tenggara Tim.",NUSA TENGGARA TIMUR,,Indonesia,,,,-86.309.744,1.222.282.277,https://maps.google.com/?cid=0x0:0x62cfdd4487c014f8,
perumahan,Komplek perumahan,Lorong kincir air,"96F7+VCG, Jl. Mawar, Madawat, Kec. Alok, Kabupaten Sikka, Nusa Tenggara Tim.","Kabupaten Sikka, Nusa Tenggara Tim.",NUSA TENGGARA TIMUR,,Indonesia,,,,-86.253.106,1.222.135.807,https://maps.google.com/?cid=0x0:0xd32c16d1d24db423,
perumahan,Komplek perumahan,RumahJabatanWakapolres,"Jl. Merpati No.8, Kota Baru, Kec. Alok Tim., Kabupaten Sikka, Nusa Tenggara Tim.","Kabupaten Sikka, Nusa Tenggara Tim.",NUSA TENGGARA TIMUR,,Indonesia,,,,-86.217.082,1.222.214.074,https://maps.google.com/?cid=0x0:0xfd6ea129015a0484,
perumahan,Komplek perumahan,Perumahan Bukit Mas Residance Tahap 2,"963F+2PQ, Lkr. Luar Maumere, Watugong, Kec. Alok Tim., Kabupaten Sikka, Nusa Tenggara Tim.","Kabupaten Sikka, Nusa Tenggara Tim.",NUSA TENGGARA TIMUR,,Indonesia,,,,-86.474.072,1.222.243.739,https://maps.google.com/?cid=0x0:0x3d444e12ef7414b6,
perumahan,perumahan,Nusa Tenggara Tim.,,Nusa Tenggara Tim.,NUSA TENGGARA TIMUR,,Indonesia,,,,-86.573.819,1.210.793.705,https://maps.google.com/?cid=0x0:0x1030bfbcaf71ae0,
perumahan,Pembangunan Perumahan,Kuwuwire,"964C+FQ5, Lkr. Luar Timur, Kuwuwire, Lepolima, Kec. Alok Tim., Kabupaten Sikka, Nusa Tenggara Tim. 86116","Lkr. Luar Timur, Kuwuwire, Lepolima, Kec. Alok Tim., Kabupaten Sikka",NUSA TENGGARA TIMUR,86116.0,Indonesia,,,,-8.643.867,122.221.981,https://maps.google.com/?cid=0x0:0xb5e7e0c2df5672ac,
perumahan,Komplek perumahan,Nebura Desa Kojagete,"H92F+H69, Kojagete, Kec. Alok Tim., Kabupaten Sikka, Nusa Tenggara Tim.","Kabupaten Sikka, Nusa Tenggara Tim.",NUSA TENGGARA TIMUR,,Indonesia,,,,-84.485.948,122.373.094,https://maps.google.com/?cid=0x0:0x3c7dcbd719692d7c,
perumahan,Pembangunan Perumahan,JALANAN MAU MASUK KE KOTING,"85QX+5FP, Ribang, Kec. Koting, Kabupaten Sikka, Nusa Tenggara Tim.","Kabupaten Sikka, Nusa Tenggara Tim.",NUSA TENGGARA TIMUR,,Indonesia,,,,-86.620.375,1.221.987.101,https://maps.google.com/?cid=0x0:0x9c9f58b3d290c72f,
perumahan,Komplek perumahan,Mikhael Kota,"9642+G3R, Nangalimang, Kec. Alok, Kabupaten Sikka, Nusa Tenggara Tim.","Kabupaten Sikka, Nusa Tenggara Tim.",NUSA TENGGARA TIMUR,,Indonesia,,,,-86.436.471,1.222.001.457,https://maps.google.com/?cid=0x0:0xc93f7a8aefd24f62,
perumahan,Komplek perumahan,Rumah AJB Nuaria,"7X5P+JG, Detubinga, Kec. Tana Wawo, Kabupaten Sikka, Nusa Tenggara Tim.","Kabupaten Sikka, Nusa Tenggara Tim.",NUSA TENGGARA TIMUR,,Indonesia,,,,-87.409.736,1.219.862.858,https://maps.google.com/?cid=0x0:0x56d66bfb0a6f217b,
perumahan,Komplek perumahan,"Nuaria, Des. Detubinga, Kec. Tanawawo-Sikka","7X5M+WQ, Bu Sel., Kec. Tana Wawo, Kabupaten Sikka, Nusa Tenggara Tim.","Kabupaten Sikka, Nusa Tenggara Tim.",NUSA TENGGARA TIMUR,,Indonesia,,,,-87.401.394,1.219.843.802,https://maps.google.com/?cid=0x0:0xbe7ed095fc2c607a,
perumahan,perumahan,Kec. Tana Wawo,"Kabupaten Sikka, Nusa Tenggara Tim.","Kabupaten Sikka, Nusa Tenggara Tim.",NUSA TENGGARA TIMUR,,Indonesia,,,,-87.166.156,1.219.764.007,https://maps.google.com/?cid=0x0:0x22fffabbf504e63e,
perumahan,Komplek perumahan,"Desa Tuwa, Kecamatan Tanawawo, Kabupaten Sikka, NTT","72W2+CRH, Watugana, Desa Tuwa, Kec. Tana Wawo, Kabupaten Sikka","Kabupaten Sikka, Nusa Tenggara Tim.",NUSA TENGGARA TIMUR,,Indonesia,,,,-87.039.354,1.220.021.179,https://maps.google.com/?cid=0x0:0xd2e7da10da3183d9,
perumahan,perumahan,Wolowona,"7XP8+R7, Bu Utara, Kec. Tana Wawo, Kabupaten Sikka, Nusa Tenggara Tim.","Kabupaten Sikka, Nusa Tenggara Tim.",NUSA TENGGARA TIMUR,,Indonesia,,,,-87.129.844,1.219.657.257,https://maps.google.com/?cid=0x0:0x6b6c5a0ff95c9326,
perumahan,Komplek perumahan,DETUMAGE TANAWAWO,"7XJM+43G, Detumage, Renggarasi, Kec. Tana Wawo, Kabupaten Sikka, Nusa Tenggara Tim.","Kabupaten Sikka, Nusa Tenggara Tim.",NUSA TENGGARA TIMUR,,Indonesia,85321469814,,,-8.719.982,1.219.826.942,https://maps.google.com/?cid=0x0:0x4d83c7d28101c057,
perumahan,Komplek perumahan,Detunaka Desa Poma Kecamatan Tanawawo Kabupaten Sikka,"8XFH+927, Loke, Kec. Tana Wawo, Kabupaten Sikka, Nusa Tenggara Tim.","Kabupaten Sikka, Nusa Tenggara Tim.",NUSA TENGGARA TIMUR,,Indonesia,,,,-86.765.875,1.219.775.469,https://maps.google.com/?cid=0x0:0xf197180321cd9059,
perumahan,Komplek perumahan,Warundari,"7XR9+56, Bu Watuweti, Kec. Tana Wawo, Kabupaten Sikka, Nusa Tenggara Tim.","Kabupaten Sikka, Nusa Tenggara Tim.",NUSA TENGGARA TIMUR,,Indonesia,,,,-87.095.625,1.219.680.625,https://maps.google.com/?cid=0x0:0x9338a1e8c7f5c0b7,
perumahan,Komplek perumahan,"Desa Loke,Tanawawo,sikka","7XVJ+Q8Q, Renggarasi, Kec. Tana Wawo, Kabupaten Sikka, Nusa Tenggara Tim.","Kabupaten Sikka, Nusa Tenggara Tim.",NUSA TENGGARA TIMUR,,Indonesia,,,,-87.055.469,1.219.808.486,https://maps.google.com/?cid=0x0:0x63314252fec4333f,
perumahan,Pembangunan Perumahan,Wolonio Desa Tuwa,"72V3+6W, Tuwa, Kec. Tana Wawo, Kabupaten Sikka, Nusa Tenggara Tim.","Kabupaten Sikka, Nusa Tenggara Tim.",NUSA TENGGARA TIMUR,,Indonesia,,,,-87.069.116,1.220.047.502,https://maps.google.com/?cid=0x0:0xf11d37493092badb,
perumahan,Komplek perumahan,"Papa, Desa Poma, Kec. Tana Wawo, Kab. Sikka","8XJP+GX7, Tuwa, Kec. Tana Wawo, Kabupaten Sikka, Nusa Tenggara Tim.","Kabupaten Sikka, Nusa Tenggara Tim.",NUSA TENGGARA TIMUR,,Indonesia,,,,-86.687.055,1.219.874.117,https://maps.google.com/?cid=0x0:0x5fc2507618a2a345,
perumahan,Komplek perumahan,Ratebito Desa Loke Kecamatan Tanawawo Kabupaten Sikka,"8X4C+3H, Loke, Kec. Tana Wawo, Kabupaten Sikka, Nusa Tenggara Tim.","Kabupaten Sikka, Nusa Tenggara Tim.",NUSA TENGGARA TIMUR,,Indonesia,,,,-86.947.523,1.219.714.302,https://maps.google.com/?cid=0x0:0x97f32bad65cc656a,
perumahan,Komplek perumahan,Wolorea,"7XM3+QXG, Bu Watuweti, Kec. Tana Wawo, Kabupaten Sikka, Nusa Tenggara Tim.","Kabupaten Sikka, Nusa Tenggara Tim.",NUSA TENGGARA TIMUR,,Indonesia,,,,-87.155.551,1.219.549.377,https://maps.google.com/?cid=0x0:0xf990eeafff09ccca,
perumahan,Pembangunan Perumahan,Desa Napugera,"9X7M+XPR, Poma, Kec. Tana Wawo, Kabupaten Sikka, Nusa Tenggara Tim.","Kabupaten Sikka, Nusa Tenggara Tim.",NUSA TENGGARA TIMUR,,Indonesia,,,,-86.350.206,1.219.842.786,https://maps.google.com/?cid=0x0:0x29a98d651663334a,
perumahan,Komplek perumahan,Rumah adat wolofeo renggarasi,"7XHR+HCV, Renggarasi, Kec. Tana Wawo, Kabupaten Sikka, Nusa Tenggara Tim.","Kabupaten Sikka, Nusa Tenggara Tim.",NUSA TENGGARA TIMUR,,Indonesia,,,,-8.721.011,1.219.910.425,https://maps.google.com/?cid=0x0:0x1d49c5a2d179222d,
perumahan,Komplek perumahan,Ledaweki,"7XH2+Q95, Bu Watuweti, Kec. Tana Wawo, Kabupaten Sikka, Nusa Tenggara Tim.","Kabupaten Sikka, Nusa Tenggara Tim.",NUSA TENGGARA TIMUR,,Indonesia,,,,-87.206.044,1.219.509.818,https://maps.google.com/?cid=0x0:0x403de40de5a70ba5,
perumahan,Komplek perumahan,Ratelabhu,"8X2M+34, Renggarasi, Kec. Tana Wawo, Kabupaten Sikka, Nusa Tenggara Tim.","Kabupaten Sikka, Nusa Tenggara Tim.",NUSA TENGGARA TIMUR,,Indonesia,,,,-86.998.098,1.219.827.924,https://maps.google.com/?cid=0x0:0x2982ac66a692e39e,
perumahan,Komplek perumahan,Detudenu Desa Poma Kecamatan Tanawawo Kabupaten Sikka,"8XCG+H5, Loke, Kec. Tana Wawo, Kabupaten Sikka, Nusa Tenggara Tim.","Kabupaten Sikka, Nusa Tenggara Tim.",NUSA TENGGARA TIMUR,,Indonesia,,,,-86.785.205,1.219.754.897,https://maps.google.com/?cid=0x0:0x1df62e0fe16b286e,
perumahan,Perhimpunan Pengembang Perumahan,Rumah Jesen,"7XMG+9H9, Warundari jln, Kec. Tana Wawo, Kabupaten Sikka, Nusa Tenggara Tim.","Kabupaten Sikka, Nusa Tenggara Tim.",NUSA TENGGARA TIMUR,,Indonesia,,,,-87.165.794,1.219.764.864,https://maps.google.com/?cid=0x0:0x30e23c267fb493ee,
perumahan,Pembangunan Perumahan,Kampung watuteke,"7XGV+CQ, Renggarasi, Kec. Tana Wawo, Kabupaten Sikka, Nusa Tenggara Tim.","Kabupaten Sikka, Nusa Tenggara Tim.",NUSA TENGGARA TIMUR,,Indonesia,,,,-8.723.882,12.199.442,https://maps.google.com/?cid=0x0:0xd3b7dd33568428c2,
perumahan,Komplek perumahan,Kampung wolorea,"7XV3+259, Bu Watuweti, Kec. Tana Wawo, Kabupaten Sikka, Nusa Tenggara Tim.","Kabupaten Sikka, Nusa Tenggara Tim.",NUSA TENGGARA TIMUR,,Indonesia,,,,-87.074.737,1.219.529.992,https://maps.google.com/?cid=0x0:0xc252961c948775e9,
perumahan,Komplek perumahan,Wolobela,"7X63+PPH Bu NuaPuu, Bu Utara, Kec. Tana Wawo, Kabupaten Sikka, Nusa Tenggara Tim.","Kabupaten Sikka, Nusa Tenggara Tim.",NUSA TENGGARA TIMUR,,Indonesia,,,,-87.382.088,1.219.544.479,https://maps.google.com/?cid=0x0:0xae3e8f459770ff72,
perumahan,perumahan,RUMAH DOMIKUS MINGGU,"7X5M+WQ, Bu Sel., Kec. Tana Wawo, Kabupaten Sikka, Nusa Tenggara Tim.","Kabupaten Sikka, Nusa Tenggara Tim.",NUSA TENGGARA TIMUR,,Indonesia,,,,-87.401.394,1.219.843.801,https://maps.google.com/?cid=0x0:0x61362643bc442ac9,
perumahan,perumahan,Nusa Tenggara Tim.,,Nusa Tenggara Tim.,NUSA TENGGARA TIMUR,,Indonesia,,,,-86.573.819,1.210.793.705,https://maps.google.com/?cid=0x0:0x1030bfbcaf71ae0,
perumahan,Pembangunan Perumahan,Perumahan Alok Indah,"96C8+8VW, Unnamed Road, Kota Baru, Kec. Alok Tim., Kabupaten Sikka, Nusa Tenggara Tim.","Kabupaten Sikka, Nusa Tenggara Tim.",NUSA TENGGARA TIMUR,,Indonesia,,,,-8.629.147,1.222.172.131,https://maps.google.com/?cid=0x0:0xe498d353b2b25b6a,
perumahan,perumahan,Bidan wati,"882M+8PR, Rubit, Kec. Hewokloang, Kabupaten Sikka, Nusa Tenggara Tim. 86181","Rubit, Kec. Hewokloang, Kabupaten Sikka",NUSA TENGGARA TIMUR,86181.0,Indonesia,,,,-86.984.601,1.223.351.884,https://maps.google.com/?cid=0x0:0x423a9d3ee31c4423,
perumahan,Komplek perumahan,Rumah Bapak Arkadius,"Ili, Kokowahor, Kec. Kangae, Kabupaten Sikka, Nusa Tenggara Tim. 86181","Kokowahor, Kec. Kangae, Kabupaten Sikka",NUSA TENGGARA TIMUR,86181.0,Indonesia,,,,-86.784.339,1.222.678.302,https://maps.google.com/?cid=0x0:0x5d14b31c075d64ae,
perumahan,perumahan,Kec. Hewokloang,"Kabupaten Sikka, Nusa Tenggara Tim.","Kabupaten Sikka, Nusa Tenggara Tim.",NUSA TENGGARA TIMUR,,Indonesia,,,,-87.012.111,1.223.132.325,https://maps.google.com/?cid=0x0:0xe64f678e900c5d34,
perumahan,Pembangunan Perumahan,Rumah M. Musalimah,"976M+2R2, JL, Geliting, Kec. Kewapante, Flores, Nusa Tenggara Tim. 86181","JL, Geliting, Kec. Kewapante, Flores",NUSA TENGGARA TIMUR,86181.0,Indonesia,,,,-8.640.098,1.222.845.523,https://maps.google.com/?cid=0x0:0x4bdd465a357fa52d,
perumahan,Komplek perumahan,Perumahan Alok indah 2,"9698+F89, Kota Baru, Kec. Alok Tim., Kabupaten Sikka, Nusa Tenggara Tim.","Kabupaten Sikka, Nusa Tenggara Tim.",NUSA TENGGARA TIMUR,,Indonesia,,,,-86.312.891,1.222.159.441,https://maps.google.com/?cid=0x0:0x8afabf9f9f28d6f0,
perumahan,Hostel,Kost Bintang Jaya Lokaria,"Raya centis,nairoa lokaria, Langir, Kec. Kangae, Kabupaten Sikka, Nusa Tenggara Tim. 86181","Langir, Kec. Kangae, Kabupaten Sikka",NUSA TENGGARA TIMUR,86181.0,Indonesia,82231046556,,,-8.634.362,1.222.478.991,https://maps.google.com/?cid=0x0:0xb493770edf238468,
perumahan,Pusat Kesehatan Masyarakat,Puskesmas Hewokloang,"88J5+VHG Puskesmas, Munerana, Kec. Hewokloang, Kabupaten Sikka, Nusa Tenggara Tim.","Kabupaten Sikka, Nusa Tenggara Tim.",NUSA TENGGARA TIMUR,,Indonesia,,,,-86.678.153,1.223.089.423,https://maps.google.com/?cid=0x0:0x2589e04d657abe47,
perumahan,Komplek perumahan,Wegok,"883C+V9M, Jl. Raya Kewapante Ohe, Kajowair, Kec. Hewokloang, Kabupaten Sikka, Nusa Tenggara Tim.","Kabupaten Sikka, Nusa Tenggara Tim.",NUSA TENGGARA TIMUR,,Indonesia,,,,-86.952.903,1.223.209.146,https://maps.google.com/?cid=0x0:0x2e9bd7696979bf8f,
perumahan,Asosiasi/organisasi,Lepo Gahar Hewokloang,"78X7+G83, Kajowair, Kec. Hewokloang, Kabupaten Sikka, Nusa Tenggara Tim.","Kabupaten Sikka, Nusa Tenggara Tim.",NUSA TENGGARA TIMUR,,Indonesia,,,,-870.123,1.223.133.049,https://maps.google.com/?cid=0x0:0x14136fe0a9790dd9,
perumahan,Komplek perumahan,RUMAH ADE YANTO,"8842+6FQ, Hewokloang, Kec. Hewokloang, Kabupaten Sikka, Nusa Tenggara Tim.","Kabupaten Sikka, Nusa Tenggara Tim.",NUSA TENGGARA TIMUR,,Indonesia,,,,-8.694.393,1.223.012.048,https://maps.google.com/?cid=0x0:0x63887747da13cc3f,
perumahan,Komplek perumahan,Rumah Thomas Tonson/ Radja keor,"8832+3JC, Hewokloang, Kec. Hewokloang, Kabupaten Sikka, Nusa Tenggara Tim.","Kabupaten Sikka, Nusa Tenggara Tim.",NUSA TENGGARA TIMUR,,Indonesia,,,,-8.697.729,1.223.009.247,https://maps.google.com/?cid=0x0:0x743fbe00dae3f6e1,
perumahan,Komplek perumahan,Hkg home,"8842+6FQ, Hewokloang, Kec. Hewokloang, Kabupaten Sikka, Nusa Tenggara Tim.","Kabupaten Sikka, Nusa Tenggara Tim.",NUSA TENGGARA TIMUR,,Indonesia,,,,-86.944.136,1.223.012.477,https://maps.google.com/?cid=0x0:0xe88fecfec18efd3f,
perumahan,perumahan,Wolongerat,"88H5+7X, Munerana, Kec. Hewokloang, Kabupaten Sikka, Nusa Tenggara Tim.","Kabupaten Sikka, Nusa Tenggara Tim.",NUSA TENGGARA TIMUR,,Indonesia,,,,-86.717.843,1.223.099.726,https://maps.google.com/?cid=0x0:0x1af8fdfdba4006aa,
perumahan,Komplek perumahan,Pertigaan woloklereng,"885V+JC, Rubit, Kec. Hewokloang, Kabupaten Sikka, Nusa Tenggara Tim.","Kabupaten Sikka, Nusa Tenggara Tim.",NUSA TENGGARA TIMUR,,Indonesia,,,,-8.690.899,122.343.553,https://maps.google.com/?cid=0x0:0xa6e3a276f21c9164,
perumahan,Pembangunan Perumahan,Wolonplikang,"885X+62H, RT.001/RW.001, Rubit, Kec. Hewokloang, Kabupaten Sikka, Nusa Tenggara Tim.","Kabupaten Sikka, Nusa Tenggara Tim.",NUSA TENGGARA TIMUR,,Indonesia,,,,-86.919.482,1.223.475.948,https://maps.google.com/?cid=0x0:0x6ec916501d88c360,
perumahan,Komplek perumahan,Rumah Chael,"78XM+9WW, RT.001/RW.001, Baomekot, Kec. Hewokloang, Kabupaten Sikka, Nusa Tenggara Tim.","Kabupaten Sikka, Nusa Tenggara Tim.",NUSA TENGGARA TIMUR,,Indonesia,,,,-87.015.232,1.223.348.428,https://maps.google.com/?cid=0x0:0xd77939d5de90cf3c,
perumahan,Perhimpunan Pengembang Perumahan,Heopuat,"88F4+XW, Heopuat, Kec. Hewokloang, Kabupaten Sikka, Nusa Tenggara Tim.","Kabupaten Sikka, Nusa Tenggara Tim.",NUSA TENGGARA TIMUR,,Indonesia,,,,-86.750.863,1.223.073.104,https://maps.google.com/?cid=0x0:0xd35a174514289342,
perumahan,perumahan,Wolon oat,"882C+HJ, Kajowair, Kec. Hewokloang, Kabupaten Sikka, Nusa Tenggara Tim.","Kabupaten Sikka, Nusa Tenggara Tim.",NUSA TENGGARA TIMUR,,Indonesia,,,,-8.698.549,122.321.594,https://maps.google.com/?cid=0x0:0x6a967e749835cb3c,
perumahan,Perhimpunan Pengembang Perumahan,Rumah Alfred,"885C+M8, Kajowair, Kec. Hewokloang, Kabupaten Sikka, Nusa Tenggara Tim.","Kabupaten Sikka, Nusa Tenggara Tim.",NUSA TENGGARA TIMUR,,Indonesia,,,,-86.908.125,1.223.208.125,https://maps.google.com/?cid=0x0:0xf62996c9f32c9ff8,
perumahan,Komplek perumahan,Wolong gerat,"88C6+7P, Munerana, Kec. Hewokloang, Kabupaten Sikka, Nusa Tenggara Tim.","Kabupaten Sikka, Nusa Tenggara Tim.",NUSA TENGGARA TIMUR,,Indonesia,,,,-86.792.609,1.223.118.651,https://maps.google.com/?cid=0x0:0x72e57914b3a81950,
perumahan,Komplek perumahan,Kompleks Selfredo,"78WF+84W, Baomekot, Kec. Hewokloang, Kabupaten Sikka, Nusa Tenggara Tim.","Kabupaten Sikka, Nusa Tenggara Tim.",NUSA TENGGARA TIMUR,,Indonesia,,,,-87.043.784,1.223.228.811,https://maps.google.com/?cid=0x0:0x2272b86a62b1e8ca,
perumahan,Komplek perumahan,Siku Eha,"79W2+27, Wolomotong, Kec. Doreng, Kabupaten Sikka, Nusa Tenggara Tim.","Kabupaten Sikka, Nusa Tenggara Tim.",NUSA TENGGARA TIMUR,,Indonesia,,,,-87.049.445,1.223.508.864,https://maps.google.com/?cid=0x0:0x1b68d4f839f46e0c,
perumahan,Komplek perumahan,Avion Aloisius (Mahang),"88F6+6QP, Munerana, Kec. Hewokloang, Kabupaten Sikka, Nusa Tenggara Tim.","Kabupaten Sikka, Nusa Tenggara Tim.",NUSA TENGGARA TIMUR,,Indonesia,81337708336,,,-86.769.037,1.223.119.633,https://maps.google.com/?cid=0x0:0xa97550a1f93881e,
perumahan,Komplek perumahan,RM VJcmm,"882F+9X3, Wolomapa, Kec. Hewokloang, Kabupaten Sikka, Nusa Tenggara Tim.","Kabupaten Sikka, Nusa Tenggara Tim.",NUSA TENGGARA TIMUR,,Indonesia,,,,-86.990.969,1.223.244.961,https://maps.google.com/?cid=0x0:0x1ff2a5f0b0c262a8,
perumahan,Perhimpunan Pengembang Perumahan,opingvalentine,"Wolomapa, Kec. Hewokloang, Kabupaten Sikka, Nusa Tenggara Tim.","Kabupaten Sikka, Nusa Tenggara Tim.",NUSA TENGGARA TIMUR,,Indonesia,,,,-87.036.578,1.223.249.236,https://maps.google.com/?cid=0x0:0xec96aac519741a2c,
perumahan,Komplek perumahan,Rumah Moa Zello,"885J+7FH, Rubit, Kec. Hewokloang, Kabupaten Sikka, Nusa Tenggara Tim.","Kabupaten Sikka, Nusa Tenggara Tim.",NUSA TENGGARA TIMUR,,Indonesia,,,,-86.918.016,1.223.312.465,https://maps.google.com/?cid=0x0:0x313a4a0b1fe09fb5,
perumahan,Komplek perumahan,Rumah Keisha apeworen,"88H4+842, Dusun Kloangaur, Heopuat, Kec. Hewokloang, Kabupaten Sikka, Nusa Tenggara Tim.","Kabupaten Sikka, Nusa Tenggara Tim.",NUSA TENGGARA TIMUR,,Indonesia,,,,-86.725.499,1.223.060.576,https://maps.google.com/?cid=0x0:0xcbfe86e9de4fb878,
perumahan,perumahan,Kec. Kangae,"Kabupaten Sikka, Nusa Tenggara Tim.","Kabupaten Sikka, Nusa Tenggara Tim.",NUSA TENGGARA TIMUR,,Indonesia,,,,-86.347.085,1.222.570.815,https://maps.google.com/?cid=0x0:0x26410249494795cc,
perumahan,Pembangunan Perumahan,"Kahat, Flores, Indonesia","87VF+G4, Kokowahor, Kec. Kangae, Kabupaten Sikka, Nusa Tenggara Tim.","Kabupaten Sikka, Nusa Tenggara Tim.",NUSA TENGGARA TIMUR,,Indonesia,,,,-86.562.554,1.222.728.289,https://maps.google.com/?cid=0x0:0x40beec5ddcdc017,
perumahan,Komplek perumahan,"Kahat, Nusa tenggara Timur, Indonesia","87M9+J79, Kokowahor, Kec. Kangae, Kabupaten Sikka, Nusa Tenggara Tim.","Kabupaten Sikka, Nusa Tenggara Tim.",NUSA TENGGARA TIMUR,,Indonesia,,,,-86.659.613,1.222.682.245,https://maps.google.com/?cid=0x0:0xcaabe4b60053fbcc,
perumahan,Komplek perumahan,Perumahan Gloria Regency,"Waturia, Kolisia B, Kec. Magepanda, Kabupaten Sikka, Nusa Tenggara Tim. 86111","Kolisia B, Kec. Magepanda, Kabupaten Sikka",NUSA TENGGARA TIMUR,86111.0,Indonesia,81353928372,,,-85.500.341,1.221.347.679,https://maps.google.com/?cid=0x0:0xa74817ac7a773063,
perumahan,Kantor Perusahaan,Perumahan Sikka Regency,"Dunia Sawu, Jalan, Wairbleler, Waigete, Sikka Regency, East Nusa Tenggara","Kabupaten Sikka, Nusa Tenggara Tim.",NUSA TENGGARA TIMUR,,Indonesia,82147632268,,,-86.258.517,1.223.394.198,https://maps.google.com/?cid=0x0:0x4685cd3c19584942,
perumahan,Perhimpunan Pengembang Perumahan,Perumahan Pesona Safira Residence,"C5R3+FP3, Nangahore,, Wuring, Kec. Alok Bar., Kabupaten Sikka, Nusa Tenggara Tim.","Kabupaten Sikka, Nusa Tenggara Tim.",NUSA TENGGARA TIMUR,,Indonesia,81239894696,,,-85.588.735,1.221.543.092,https://maps.google.com/?cid=0x0:0xab08addf0fd7ff8c,
perumahan,perumahan,Pantai Paris Homestay,"Jl. Nasional Maumere - Larantuka, Habi, Kec. Kangae, Kabupaten Sikka, Nusa Tenggara Tim.","Kabupaten Sikka, Nusa Tenggara Tim.",NUSA TENGGARA TIMUR,,Indonesia,81246452277,,,-86.335.801,1.222.518.977,https://maps.google.com/?cid=0x0:0xad0da62dae594471,
perumahan,perumahan,Sylvia Hotel,"Jl. Gajah Mada No.88, Madawat, Kec. Alok, Kabupaten Sikka, Nusa Tenggara Tim.","Kabupaten Sikka, Nusa Tenggara Tim.",NUSA TENGGARA TIMUR,,Indonesia,38221829,,,-86.342.849,1.222.098.628,https://maps.google.com/?cid=0x0:0xf5ecab3527471bfe,
perumahan,perumahan,Hotel Mathilda,"Jl. Raya Maumere - Magepanda No.28, Kota Uneng, Kec. Alok, Kabupaten Sikka, Nusa Tenggara Tim.","Kabupaten Sikka, Nusa Tenggara Tim.",NUSA TENGGARA TIMUR,,Indonesia,81225173148,,,-86.119.193,122.208.435,https://maps.google.com/?cid=0x0:0x63afa3f1e319c6d4,
perumahan,perumahan,Wailiti Hotel,"Jl. Don Slipi, Wailiti, Kec. Alok Bar., Kabupaten Sikka, Nusa Tenggara Tim.","Kabupaten Sikka, Nusa Tenggara Tim.",NUSA TENGGARA TIMUR,,Indonesia,82147175576,,,-85.947.532,1.221.926.539,https://maps.google.com/?cid=0x0:0xbc78648a2bdf1027,
perumahan,perumahan,Merlin Hotel,"Jl. Gajah Mada, Madawat, Kec. Alok, Kabupaten Sikka, Nusa Tenggara Tim. 86111","Madawat, Kec. Alok, Kabupaten Sikka",NUSA TENGGARA TIMUR,86111.0,Indonesia,82235526007,,,-86.263.204,12.221.411,https://maps.google.com/?cid=0x0:0x2190e83e429c2f4a,
perumahan,perumahan,Floressa Guest House Dorm,"Jl. Don Thomas No.19, Kota Baru, Kec. Alok Tim., Kabupaten Sikka, Nusa Tenggara Tim. 86111","Kota Baru, Kec. Alok Tim., Kabupaten Sikka",NUSA TENGGARA TIMUR,86111.0,Indonesia,82237824652,,,-86.219.551,1.222.208.622,https://maps.google.com/?cid=0x0:0x985ea7805922cd32,
perumahan,perumahan,Hotel Benggoan 2,"Jl. Moa Toda No.49, Kota Baru, Kec. Alok Tim., Kabupaten Sikka, Nusa Tenggara Tim. 86111","Kota Baru, Kec. Alok Tim., Kabupaten Sikka",NUSA TENGGARA TIMUR,86111.0,Indonesia,81336669522,,,-86.245.875,1.222.186.225,https://maps.google.com/?cid=0x0:0xd164349feb5d03cc,
perumahan,perumahan,Waiara Village Guesthouse,"Jl. Nasional Maumere - Larantuka, Waiara, Kec. Kewapante, Kabupaten Sikka, Nusa Tenggara Tim.","Kabupaten Sikka, Nusa Tenggara Tim.",NUSA TENGGARA TIMUR,,Indonesia,81337001250,,,-86.397.002,1.223.071.628,https://maps.google.com/?cid=0x0:0x489a31c7db972c23,
perumahan,Patung,Patung Kristus Raja Maumere,"96J9+G5F, Kota Uneng, Kec. Alok, Kabupaten Sikka, Nusa Tenggara Tim.","Kabupaten Sikka, Nusa Tenggara Tim.",NUSA TENGGARA TIMUR,,Indonesia,,,,-86.186.904,122.217.907,https://maps.google.com/?cid=0x0:0x8de544edfe7c2e9e,
perumahan,Tempat Ziarah,Bukit Golgota Nilo,"947W+X94, Unnamed Road, Nitakloang, Kec. Nita, Kabupaten Sikka, Nusa Tenggara Tim.","Kabupaten Sikka, Nusa Tenggara Tim.",NUSA TENGGARA TIMUR,,Indonesia,,,,-86.351.083,1.221.459.686,https://maps.google.com/?cid=0x0:0xb1a93eba0ff1bf64,
perumahan,Kafe,Rumah Makan Rica-Rica,"968X+G5J, Terminal Lokaria","Kabupaten Sikka, Nusa Tenggara Tim.",NUSA TENGGARA TIMUR,,Indonesia,82146967667,,,-8.633.668,1.222.478.792,https://maps.google.com/?cid=0x0:0x98451460db04048c,
perumahan,Kantor Perusahaan,KALEWAIR HOME,"9724+6X, Watuliwung, Kec. Kangae, Kabupaten Sikka, Nusa Tenggara Tim.","Kabupaten Sikka, Nusa Tenggara Tim.",NUSA TENGGARA TIMUR,,Indonesia,,,,-8.649.454,1.222.574.271,https://maps.google.com/?cid=0x0:0x795f37a53882aaa8,
perumahan,Komplek perumahan,Rumah Teles,"974J+XJ, Watumilok, Kec. Kangae, Kabupaten Sikka, Nusa Tenggara Tim.","Kabupaten Sikka, Nusa Tenggara Tim.",NUSA TENGGARA TIMUR,,Indonesia,,,,-8.642.563,122.281.516,https://maps.google.com/?cid=0x0:0x7a4176a92f8ee655,
perumahan,Komplek perumahan,RUMAH ANDRIYATI,"9773+XXP, Kota Uneng, Kec. Kangae, Kabupaten Sikka, Nusa Tenggara Tim.","Kabupaten Sikka, Nusa Tenggara Tim.",NUSA TENGGARA TIMUR,,Indonesia,,,,-86.350.274,1.222.549.528,https://maps.google.com/?cid=0x0:0x8ff3eea369d45513,
perumahan,perumahan,Masrinto,"9744+32P, Watuliwung, Kec. Kangae, Kabupaten Sikka, Nusa Tenggara Tim.","Kabupaten Sikka, Nusa Tenggara Tim.",NUSA TENGGARA TIMUR,,Indonesia,,,,-86.447.962,1.222.550.815,https://maps.google.com/?cid=0x0:0xf83515fc161209a2,
perumahan,Komplek perumahan,Kompleks Belakang,"86WX+RXJ, Habi, Kec. Kangae, Kabupaten Sikka, Nusa Tenggara Tim.","Kabupaten Sikka, Nusa Tenggara Tim.",NUSA TENGGARA TIMUR,,Indonesia,,,,-8.652.923,1.222.499.031,https://maps.google.com/?cid=0x0:0x3b66a81f7a0f732e,
perumahan,Komplek perumahan,Rumah /Kios Anjelo Niler,"87Q3+J9H, Watuliwung, Kec. Kangae, Kabupaten Sikka, Nusa Tenggara Tim.","Kabupaten Sikka, Nusa Tenggara Tim.",NUSA TENGGARA TIMUR,,Indonesia,,,,-86.609.485,1.222.534.876,https://maps.google.com/?cid=0x0:0xd54597b46fa877ae,
perumahan,Pembangunan Perumahan,Home Nata,"975C+5PM, Tanaduen, Kec. Kangae, Kabupaten Sikka, Nusa Tenggara Tim.","Kabupaten Sikka, Nusa Tenggara Tim.",NUSA TENGGARA TIMUR,,Indonesia,,,,-86.420.487,1.222.717.937,https://maps.google.com/?cid=0x0:0x5583d602d96c628d,
perumahan,Komplek perumahan,Gusto gusty,"975M+927, Jl. Nasional Maumere - Larantuka, Watumilok, Kec. Kangae, Kabupaten Sikka, Nusa Tenggara Tim.","Kabupaten Sikka, Nusa Tenggara Tim.",NUSA TENGGARA TIMUR,,Indonesia,,,,-86.411.173,1.222.830.171,https://maps.google.com/?cid=0x0:0x9c397d6895b1e0f9,
perumahan,Komplek perumahan,RUMAH AURA,"9784+6F8, Jl. Nasional Maumere - Larantuka, Habi, Kec. Kangae, Kabupaten Sikka, Nusa Tenggara Tim.","Kabupaten Sikka, Nusa Tenggara Tim.",NUSA TENGGARA TIMUR,,Indonesia,,,,-86.342.249,1.222.557.689,https://maps.google.com/?cid=0x0:0xe9b8bef8f0c26385,
perumahan,perumahan,Crs,"9747+VWG, Tanaduen, Kec. Kangae, Kabupaten Sikka, Nusa Tenggara Tim.","Kabupaten Sikka, Nusa Tenggara Tim.",NUSA TENGGARA TIMUR,,Indonesia,,,,-86.428.154,1.222.648.273,https://maps.google.com/?cid=0x0:0xf1f996fc98ea42a0,
perumahan,Komplek perumahan,"Kampung Jahat, desa kokowahor, kecamatan kangae,","87M9+J79, Kokowahor, Kec. Kangae, Kabupaten Sikka, Nusa Tenggara Tim.","Kabupaten Sikka, Nusa Tenggara Tim.",NUSA TENGGARA TIMUR,,Indonesia,,,,-86.659.613,1.222.682.245,https://maps.google.com/?cid=0x0:0x2423e6f1a2b3bf54,
perumahan,Komplek perumahan,PATAS LOKARIA,"9773+XRG, Habi, Kec. Kangae, Kabupaten Sikka, Nusa Tenggara Tim.","Kabupaten Sikka, Nusa Tenggara Tim.",NUSA TENGGARA TIMUR,,Indonesia,,,,-86.350.652,1.222.545.632,https://maps.google.com/?cid=0x0:0x9ba4efe9122f0c97,
perumahan,Komplek perumahan,Doreng,"785H+J7, Ipir, Kec. Bola, Kabupaten Sikka, Nusa Tenggara Tim.","Kabupaten Sikka, Nusa Tenggara Tim.",NUSA TENGGARA TIMUR,,Indonesia,,,,-87.409.375,1.223.281.875,https://maps.google.com/?cid=0x0:0x753122273d3dd64b,
perumahan,perumahan,Nusa Tenggara Tim.,,Nusa Tenggara Tim.,NUSA TENGGARA TIMUR,,Indonesia,,,,-86.573.819,1.210.793.705,https://maps.google.com/?cid=0x0:0x1030bfbcaf71ae0,
perumahan,Pembangunan Perumahan,PERUMAHAN FLOSINDO PERMAI,"BTN Bak Biru, Bello, Kec. Maulafa, Kota Kupang, Nusa Tenggara Tim. 85142","Bello, Kec. Maulafa, Kota Kupang",NUSA TENGGARA TIMUR,85142.0,Indonesia,85239033755,,,-102.094.093,1.236.250.254,https://maps.google.com/?cid=0x0:0x50630cb0afc8db0d,
perumahan,Pembangunan Perumahan,BORA,"79PG+F72, Watumerak, Kec. Doreng, Kabupaten Sikka, Nusa Tenggara Tim.","Kabupaten Sikka, Nusa Tenggara Tim.",NUSA TENGGARA TIMUR,,Indonesia,,,,-87.138.605,1.223.756.305,https://maps.google.com/?cid=0x0:0xbe2f92e14303ef3e,
perumahan,perumahan,Kec. Mapitara,"Kabupaten Sikka, Nusa Tenggara Tim.","Kabupaten Sikka, Nusa Tenggara Tim.",NUSA TENGGARA TIMUR,,Indonesia,,,,-87.082.289,1.224.688.978,https://maps.google.com/?cid=0x0:0xc16f649f40ff33f6,
perumahan,Komplek perumahan,Hale Kecamatan Mapitara,"7FPC+GF, Hebing, Kec. Mapitara, Kabupaten Sikka, Nusa Tenggara Tim.","Kabupaten Sikka, Nusa Tenggara Tim.",NUSA TENGGARA TIMUR,,Indonesia,,,,-87.136.875,1.224.711.875,https://maps.google.com/?cid=0x0:0x3daea623711d3ecd,
perumahan,Komplek perumahan,Rumah aing,"7CGW+RC7, Dusun galit, desa gening, Kec. Mapitara, Kabupaten Sikka, Nusa Tenggara Tim.","Kabupaten Sikka, Nusa Tenggara Tim.",NUSA TENGGARA TIMUR,,Indonesia,,,,-87.229.666,1.224.460.572,https://maps.google.com/?cid=0x0:0x97fa124c1469fe63,
perumahan,perumahan,Kotin wolot,"8C4R+J77, Egon Gahar, Kec. Mapitara, Kabupaten Sikka, Nusa Tenggara Tim.","Kabupaten Sikka, Nusa Tenggara Tim.",NUSA TENGGARA TIMUR,,Indonesia,,,,-86.934.581,122.440.674,https://maps.google.com/?cid=0x0:0xc5ca1fd77a8b52d8,
perumahan,Komplek perumahan,Ruma adveny,"7CJJ+CF2, Natakoli, Kec. Mapitara, Kabupaten Sikka, Nusa Tenggara Tim.","Kabupaten Sikka, Nusa Tenggara Tim.",NUSA TENGGARA TIMUR,,Indonesia,,,,-87.189.898,1.224.311.293,https://maps.google.com/?cid=0x0:0xedff367bfc5187cf,
perumahan,Komplek perumahan,Egon Gahar,"8C6W+R22, Egon Gahar, Kec. Mapitara, Kabupaten Sikka, Nusa Tenggara Tim.","Kabupaten Sikka, Nusa Tenggara Tim.",NUSA TENGGARA TIMUR,,Indonesia,,,,-86.879.949,1.224.450.269,https://maps.google.com/?cid=0x0:0xfef9f22d7053020,
