Category,Real Category,Business Name,Address,City,State,Postal Code,Country,Phone,Latitude,Longitude,Map Link
cafe,cafe,Kuri Wamesa,"Kabupaten Teluk Wondama, Papua Bar.","Kabupaten Teluk Wondama, Papua Bar.",PAPUA BARAT,,Indonesia,,-2.8551699,134.3236557,https://maps.google.com/?cid=0x0:0x8c3430e4162f73b3
cafe,Restoran,Coffee Daeng,"2FPF+3WM, Maniwak, Distrik Wasior, Kabupaten Teluk Wondama, Papua Bar. 98362","Maniwak, Distrik Wasior, Kabupaten Teluk Wondama",PAPUA BARAT,98362.0,Indonesia,8223905921.0,-2.9647961,134.4748018,https://maps.google.com/?cid=0x0:0x8d6e9697b9b00a9a
cafe,Kafe,Coffee Brothers,"Maniwak, Manggurai PEMDA, Iriati, Distrik Wasior, Kabupaten Teluk Wondama, Papua Bar. 98362","Manggurai PEMDA, Iriati, Distrik Wasior, Kabupaten Teluk Wondama",PAPUA BARAT,98362.0,Indonesia,85244343890.0,-2.761305,134.5119245,https://maps.google.com/?cid=0x0:0x40dcc2c8a660e005
cafe,Kedai Kopi,Melanesian Coffee,"Jl. Wasior - Rado, Moru, Distrik Wasior, Kabupaten Teluk Wondama, Papua Bar. 98362","Moru, Distrik Wasior, Kabupaten Teluk Wondama",PAPUA BARAT,98362.0,Indonesia,81240930026.0,-2.7016017,134.5057633,https://maps.google.com/?cid=0x0:0xd845bbbbbdd329ed
cafe,Kedai Kopi,Melanesian Coffee,"7GF4+MHF, Wasior II, Distrik Wasior, Kabupaten Teluk Wondama, Papua Bar. 98362","Wasior II, Distrik Wasior, Kabupaten Teluk Wondama",PAPUA BARAT,98362.0,Indonesia,81328140090.0,-2.7258182,134.5064296,https://maps.google.com/?cid=0x0:0xedc90f86d0eb5a1a
cafe,Restoran,RUMAH MAKAN KRISNA,"Jln poros, Iriati, Distrik Wasior, Kabupaten Teluk Wondama, Papua Bar. 98362","Iriati, Distrik Wasior, Kabupaten Teluk Wondama",PAPUA BARAT,98362.0,Indonesia,81247570651.0,-2.7643369,134.516016,https://maps.google.com/?cid=0x0:0x96299447fa137530
cafe,Kafe seni,ALDRI WARKOP,"Iriati, Distrik Wasior, Kabupaten Teluk Wondama, Papua Bar. 98346","Distrik Wasior, Kabupaten Teluk Wondama",PAPUA BARAT,98346.0,Indonesia,82248183514.0,-2.8551699,134.3236557,https://maps.google.com/?cid=0x0:0x6f4274922c3bfa18
cafe,cafe,Quality cafe,"7GF5+RC3, Unnamed Road, Wasior I, Distrik Wasior, Kabupaten Teluk Wondama, Papua Bar. 98362","Unnamed Road, Wasior I, Distrik Wasior, Kabupaten Teluk Wondama",PAPUA BARAT,98362.0,Indonesia,,-2.7254789,134.5085328,https://maps.google.com/?cid=0x0:0xb68225f064a984c5
cafe,cafe,Papua Bar. 98362,"Kabupaten Teluk Wondama, Papua Bar.","Kabupaten Teluk Wondama, Papua Bar.",PAPUA BARAT,,Indonesia,,-2.9647961,134.4748018,https://maps.google.com/?cid=0x0:0xbea57e7dbf1a786f
cafe,Kafe,Coffee Brothers,"Maniwak, Manggurai PEMDA, Iriati, Distrik Wasior, Kabupaten Teluk Wondama, Papua Bar. 98362","Manggurai PEMDA, Iriati, Distrik Wasior, Kabupaten Teluk Wondama",PAPUA BARAT,98362.0,Indonesia,85244343890.0,-2.761305,134.5119245,https://maps.google.com/?cid=0x0:0x40dcc2c8a660e005
cafe,Restoran,Coffee Daeng,"2FPF+3WM, Maniwak, Distrik Wasior, Kabupaten Teluk Wondama, Papua Bar. 98362","Maniwak, Distrik Wasior, Kabupaten Teluk Wondama",PAPUA BARAT,98362.0,Indonesia,8223905921.0,-2.9647961,134.4748018,https://maps.google.com/?cid=0x0:0x8d6e9697b9b00a9a
cafe,Kedai Kopi,Melanesian Coffee,"7GF4+MHF, Wasior II, Distrik Wasior, Kabupaten Teluk Wondama, Papua Bar. 98362","Wasior II, Distrik Wasior, Kabupaten Teluk Wondama",PAPUA BARAT,98362.0,Indonesia,81328140090.0,-2.7258182,134.5064296,https://maps.google.com/?cid=0x0:0xedc90f86d0eb5a1a
cafe,Restoran,Warung Remoekss,"6GJ9+F7V, Iriati, Distrik Wasior, Kabupaten Teluk Wondama, Papua Bar. 98362","Iriati, Distrik Wasior, Kabupaten Teluk Wondama",PAPUA BARAT,98362.0,Indonesia,,-2.7652901,134.5166022,https://maps.google.com/?cid=0x0:0x4ea4f0c3af2f5214
cafe,Restoran,RUMAH MAKAN KRISNA,"Jln poros, Iriati, Distrik Wasior, Kabupaten Teluk Wondama, Papua Bar. 98362","Iriati, Distrik Wasior, Kabupaten Teluk Wondama",PAPUA BARAT,98362.0,Indonesia,81247570651.0,-2.7643369,134.516016,https://maps.google.com/?cid=0x0:0x96299447fa137530
cafe,Restoran,Warung Makan Gaul,"7GC5+V5W, Wasior I, Distrik Wasior, Kabupaten Teluk Wondama, Papua Bar. 98362","Wasior I, Distrik Wasior, Kabupaten Teluk Wondama",PAPUA BARAT,98362.0,Indonesia,,-2.72777,134.5079541,https://maps.google.com/?cid=0x0:0xdb9de62d01f8fe66
cafe,Kafe,Samping kelurahan Wasior,"7GF4+HM9, JL.Topay, Wasior I, Distrik Wasior, Kabupaten Teluk Wondama, Papua Bar. 98362","JL.Topay, Wasior I, Distrik Wasior, Kabupaten Teluk Wondama",PAPUA BARAT,98362.0,Indonesia,,-2.726099,134.506737,https://maps.google.com/?cid=0x0:0xa50c2762f2840a43
cafe,Dapur Umum,Dekri,"7G47+H7W, Maniwak, Distrik Wasior, Kabupaten Teluk Wondama, Papua Bar. 98362","Maniwak, Distrik Wasior, Kabupaten Teluk Wondama",PAPUA BARAT,98362.0,Indonesia,,-2.7435086,134.5131962,https://maps.google.com/?cid=0x0:0xd44d6780f949dd58
cafe,Dapur Umum,Warung Makan Josua,"6GR6+R4Q, Maniwak, Distrik Wasior, Kabupaten Teluk Wondama, Papua Bar. 98362","Maniwak, Distrik Wasior, Kabupaten Teluk Wondama",PAPUA BARAT,98362.0,Indonesia,81356713288.0,-2.7579243,134.5103664,https://maps.google.com/?cid=0x0:0xf35401302502710f
cafe,Restoran,Warung Makan Bunda,"Maniwak, Distrik Wasior, Kabupaten Teluk Wondama, Papua Bar. 98362","Distrik Wasior, Kabupaten Teluk Wondama",PAPUA BARAT,98362.0,Indonesia,81344488876.0,-2.7576822,134.5106162,https://maps.google.com/?cid=0x0:0xd15a898f639d391b
cafe,Restoran,GOLDEN STAR,"6GM8+RMM, Unnamed Road, Iriati, Distrik Wasior, Kabupaten Teluk Wondama, Papua Bar. 98362","Unnamed Road, Iriati, Distrik Wasior, Kabupaten Teluk Wondama",PAPUA BARAT,98362.0,Indonesia,,-2.7654177,134.5166783,https://maps.google.com/?cid=0x0:0xe3e5d794d5503d41
cafe,Restoran,Warung Siliwangi,"7G25+QC8, Maniwak, Distrik Wasior, Kabupaten Teluk Wondama, Papua Bar. 98362","Maniwak, Distrik Wasior, Kabupaten Teluk Wondama",PAPUA BARAT,98362.0,Indonesia,,-2.7480833,134.5085633,https://maps.google.com/?cid=0x0:0x3764a19c356243c8
cafe,Restoran,WM. Patemon,"7GF4+9P5, Wasior I, Distrik Wasior, Kabupaten Teluk Wondama, Papua Bar.","Kabupaten Teluk Wondama, Papua Bar.",PAPUA BARAT,,Indonesia,82289813708.0,-2.8551699,134.3236557,https://maps.google.com/?cid=0x0:0x7a211829fdecdecf
cafe,cafe,Papua Bar. 98361,"Kabupaten Teluk Wondama, Papua Bar.","Kabupaten Teluk Wondama, Papua Bar.",PAPUA BARAT,,Indonesia,,-2.4815085,134.2099791,https://maps.google.com/?cid=0x0:0xe298b41c3e32d0eb
cafe,Kedai Kopi,Melanesian Coffee,"7GF4+MHF, Wasior II, Distrik Wasior, Kabupaten Teluk Wondama, Papua Bar. 98362","Wasior II, Distrik Wasior, Kabupaten Teluk Wondama",PAPUA BARAT,98362.0,Indonesia,81328140090.0,-2.7258182,134.5064296,https://maps.google.com/?cid=0x0:0xedc90f86d0eb5a1a
cafe,Kafe,Coffee Brothers,"Maniwak, Manggurai PEMDA, Iriati, Distrik Wasior, Kabupaten Teluk Wondama, Papua Bar. 98362","Manggurai PEMDA, Iriati, Distrik Wasior, Kabupaten Teluk Wondama",PAPUA BARAT,98362.0,Indonesia,85244343890.0,-2.761305,134.5119245,https://maps.google.com/?cid=0x0:0x40dcc2c8a660e005
cafe,Kafe seni,ALDRI WARKOP,"Iriati, Distrik Wasior, Kabupaten Teluk Wondama, Papua Bar. 98346","Distrik Wasior, Kabupaten Teluk Wondama",PAPUA BARAT,98346.0,Indonesia,82248183514.0,-2.8551699,134.3236557,https://maps.google.com/?cid=0x0:0x6f4274922c3bfa18
cafe,Kedai Kopi,Warung Kopi Yasmin,"5GMJ+WRX, Mapolres, Isuy, Distrik Wondiboy, Kabupaten Teluk Wondama, Papua Bar. 98362","Mapolres, Isuy, Distrik Wondiboy, Kabupaten Teluk Wondama",PAPUA BARAT,98362.0,Indonesia,,-2.8151318,134.5321055,https://maps.google.com/?cid=0x0:0xdcd9c4c4ceaf5eda
cafe,cafe,Puncak Nusrowi,"Jl. Manokwari - Bintuni, Yermatum, Soug Jaya, Kabupaten Teluk Wondama, Papua Bar.","Kabupaten Teluk Wondama, Papua Bar.",PAPUA BARAT,,Indonesia,,-1.7817955,134.0542457,https://maps.google.com/?cid=0x0:0xd99e7874759ce165
cafe,Kedai Kopi,Melanesian Coffee,"Jl. Wasior - Rado, Moru, Distrik Wasior, Kabupaten Teluk Wondama, Papua Bar. 98362","Moru, Distrik Wasior, Kabupaten Teluk Wondama",PAPUA BARAT,98362.0,Indonesia,81240930026.0,-2.7016017,134.5057633,https://maps.google.com/?cid=0x0:0xd845bbbbbdd329ed
cafe,Kedai Kopi,Z COFFEE,"42HX+V6C, Jl. Trikora Rendani, Wosi, Kec. Manokwari Bar., Kabupaten Manokwari, Papua Bar. 98312","Jl. Trikora Rendani, Wosi, Kec. Manokwari Bar., Kabupaten Manokwari",PAPUA BARAT,98312.0,Indonesia,81247192526.0,-0.8703133,134.0480103,https://maps.google.com/?cid=0x0:0x52fc52684fc7839c
cafe,Pasar,Pasar Rumberpon.Teluk Wondama,"548W+QVH, Distrik Rumberpon, Kabupaten Teluk Wondama, Papua Bar.","Kabupaten Teluk Wondama, Papua Bar.",PAPUA BARAT,,Indonesia,,-1.8330605,134.1472301,https://maps.google.com/?cid=0x0:0xf57408a6936e93b1
cafe,Restoran,Pit's Corner ( Papua Specialty Coffee ),"Jalan kasuari no.2 Dok V Atas, Mandala, Jayapura Utara, Jayapura City, Papua 99114","Mandala, Jayapura Utara, Jayapura City",PAPUA BARAT,99114.0,Indonesia,9675160443.0,-2.5310642,140.71875,https://maps.google.com/?cid=0x0:0xf39f3950a3bf5ed2
cafe,Tujuan Wisata,Tanah Cinta,"83CF+5VC, Yermatum, Distrik Tahota, Kab. Manokwari Selatan, Papua Bar. 98355","Yermatum, Distrik Tahota, Kab. Manokwari Selatan",PAPUA BARAT,98355.0,Indonesia,,-1.679558,134.074642,https://maps.google.com/?cid=0x0:0x14111f69526e7d65
cafe,Grosir Kopi,Papua Coffee,"Perum Taman Buper Bhayangkara B 3/1, Kp. Waena, Kec. Heram, Kota Jayapura, Papua 99358","Kp. Waena, Kec. Heram, Kota Jayapura",PAPUA BARAT,99358.0,Indonesia,82219192019.0,-2.5932318,140.6339916,https://maps.google.com/?cid=0x0:0x6525ad08e3ef5a95
cafe,Kedai Kopi,Tempat nongkrong Coffee  Eatery,"Jl. Masjid Baitul Ula I, Cireundeu, Kec. Ciputat Tim., Kota Tangerang Selatan, Banten 15419","Cireundeu, Kec. Ciputat Tim., Kota Tangerang Selatan",PAPUA BARAT,15419.0,Indonesia,81310247785.0,-6.3125015,106.7655703,https://maps.google.com/?cid=0x0:0xc5d32d73bde5f556
cafe,Kedai Kopi,LOKASI CAFE,"Jl. Tarumanegara No.83A, Cireundeu, Kec. Ciputat Tim., Kota Tangerang Selatan, Banten 15419","Cireundeu, Kec. Ciputat Tim., Kota Tangerang Selatan",PAPUA BARAT,15419.0,Indonesia,81296148693.0,-6.3169878,106.7599577,https://maps.google.com/?cid=0x0:0xb8ed2979c75c1289
cafe,cafe,,,,PAPUA BARAT,,Indonesia,,,,https://maps.google.com/?cid=0x0:0xc5d32d73bde5f556u0026onu003dDimsum+Besaru0026midu003d/g/11vy2_yrvk
cafe,cafe,,,,PAPUA BARAT,,Indonesia,,,,https://maps.google.com/?cid=0x0:0xc5d32d73bde5f556u0026onu003dHot+Coffee+Latteu0026midu003d/g/11vy2_yrvk
cafe,cafe,,,,PAPUA BARAT,,Indonesia,,,,https://maps.google.com/?cid=0x0:0xc5d32d73bde5f556u0026onu0026midu003d/g/11vy2_yrvk
cafe,Kafe,PUA-PUA CAFE,"Jl. Budi Utomo, Nawaripi, Kec. Mimika Baru, Kabupaten Mimika, Papua 99952","Nawaripi, Kec. Mimika Baru, Kabupaten Mimika",PAPUA BARAT,99952.0,Indonesia,82346750560.0,-4.5620805,136.8806057,https://maps.google.com/?cid=0x0:0xb7cc07f877baacb2
cafe,Kafe,LAVAS'CO COFFEE  RESTO,"CVQJ+86W, Timika,, Koperapoka, Kec. Mimika Baru, Kabupaten Mimika, Papua 99971","Timika,, Koperapoka, Kec. Mimika Baru, Kabupaten Mimika",PAPUA BARAT,99971.0,Indonesia,8114909486.0,-4.5616468,136.8805836,https://maps.google.com/?cid=0x0:0xe3ccc616238019e9
cafe,cafe,,,,PAPUA BARAT,,Indonesia,,,,https://maps.google.com/?cid=0x0:0xb7cc07f877baacb2u0026onu003dAyam+Bakar+Maduu0026midu003d/g/11nns_q__c
cafe,cafe,,,,PAPUA BARAT,,Indonesia,,,,https://maps.google.com/?cid=0x0:0xb7cc07f877baacb2u0026onu003dAyam+Gorengu0026midu003d/g/11nns_q__c
cafe,cafe,,,,PAPUA BARAT,,Indonesia,,,,https://maps.google.com/?cid=0x0:0xb7cc07f877baacb2u0026onu003dGrill+Ribs+Sambal+Dabuu0026midu003d/g/11nns_q__c
cafe,cafe,,,,PAPUA BARAT,,Indonesia,,,,https://maps.google.com/?cid=0x0:0xb7cc07f877baacb2u0026onu003dBebek+Bakaru0026midu003d/g/11nns_q__c
cafe,cafe,,,,PAPUA BARAT,,Indonesia,,,,https://maps.google.com/?cid=0x0:0xb7cc07f877baacb2u0026onu003dCappuccinou0026midu003d/g/11nns_q__c
cafe,cafe,,,,PAPUA BARAT,,Indonesia,,,,https://maps.google.com/?cid=0x0:0xb7cc07f877baacb2u0026onu003dNasi+Goreng+Pua-Puau0026midu003d/g/11nns_q__c
cafe,cafe,,,,PAPUA BARAT,,Indonesia,,,,https://maps.google.com/?cid=0x0:0xb7cc07f877baacb2u0026onu003dBeef+Stroganoffu0026midu003d/g/11nns_q__c
cafe,cafe,Papua Bar. 98362,"Kabupaten Teluk Wondama, Papua Bar.","Kabupaten Teluk Wondama, Papua Bar.",PAPUA BARAT,,Indonesia,,-2.9647961,134.4748018,https://maps.google.com/?cid=0x0:0xbea57e7dbf1a786f
cafe,cafe,Papua Bar.,,Papua Bar.,PAPUA BARAT,,Indonesia,,-1.3361154,133.1747162,https://maps.google.com/?cid=0x0:0x5349c1f8c5c7cb62
cafe,Kedai Kopi,The King Mkw,"Sarinah, JL Gajah Mada, Manokwari Tim., Kec. Manokwari Bar., Kabupaten Manokwari, Papua Bar. 98312","JL Gajah Mada, Manokwari Tim., Kec. Manokwari Bar., Kabupaten Manokwari",PAPUA BARAT,98312.0,Indonesia,82298900417.0,-0.866448,134.0471176,https://maps.google.com/?cid=0x0:0xe0f51fb553643f3b
cafe,Kafe,Coffee Brothers,"Maniwak, Manggurai PEMDA, Iriati, Distrik Wasior, Kabupaten Teluk Wondama, Papua Bar. 98362","Manggurai PEMDA, Iriati, Distrik Wasior, Kabupaten Teluk Wondama",PAPUA BARAT,98362.0,Indonesia,85244343890.0,-2.761305,134.5119245,https://maps.google.com/?cid=0x0:0x40dcc2c8a660e005
cafe,Kedai Kopi,Rumto,"Jl. Tanah Baru I Blok Nusa Indah No.39, RT.8/RW.11, Grogol Utara, Kec. Kby. Lama, Kota Jakarta Selatan, Daerah Khusus Ibukota Jakarta 12210","RT.8/RW.11, Grogol Utara, Kec. Kby. Lama, Kota Jakarta Selatan",PAPUA BARAT,12210.0,Indonesia,85775271664.0,-6.212929,106.7844104,https://maps.google.com/?cid=0x0:0x4d6b0c218ebd6cf
cafe,Kafe,ROMKiT Coffee  Resto,"QQ5Q+82J, RT.7/RW.2, Kramat Pela, Kec. Kby. Baru, Kota Jakarta Selatan, Daerah Khusus Ibukota Jakarta 12130","RT.7/RW.2, Kramat Pela, Kec. Kby. Baru, Kota Jakarta Selatan",PAPUA BARAT,12130.0,Indonesia,,-6.2416551,106.7875188,https://maps.google.com/?cid=0x0:0xd69d192a31dc9b62
cafe,Tujuan Wisata,Wondama,"48VF+WFJ, Iriati, Kuri Wamesa, Kabupaten Teluk Wondama, Papua Bar.","Kabupaten Teluk Wondama, Papua Bar.",PAPUA BARAT,,Indonesia,85319092604.0,-2.8551699,134.3236557,https://maps.google.com/?cid=0x0:0x8ce6de66c8bd402f
cafe,Kedai Kopi,Melanesian Coffee,"Jl. Wasior - Rado, Moru, Distrik Wasior, Kabupaten Teluk Wondama, Papua Bar. 98362","Moru, Distrik Wasior, Kabupaten Teluk Wondama",PAPUA BARAT,98362.0,Indonesia,81240930026.0,-2.7016017,134.5057633,https://maps.google.com/?cid=0x0:0xd845bbbbbdd329ed
cafe,cafe,,,,PAPUA BARAT,,Indonesia,,,,https://maps.google.com/?cid=0x0:0xd845bbbbbdd329edu0026onu0026midu003d/g/11n7jlh0fy
cafe,cafe,Kec. Tebet,"Kota Jakarta Selatan, Daerah Khusus Ibukota Jakarta","Kota Jakarta Selatan, Daerah Khusus Ibukota Jakarta",PAPUA BARAT,,Indonesia,,-6.2251223,106.8549881,https://maps.google.com/?cid=0x0:0xd575e31c807295f9
cafe,Kafe,Coffee Brothers,"Maniwak, Manggurai PEMDA, Iriati, Distrik Wasior, Kabupaten Teluk Wondama, Papua Bar. 98362","Manggurai PEMDA, Iriati, Distrik Wasior, Kabupaten Teluk Wondama",PAPUA BARAT,98362.0,Indonesia,85244343890.0,-2.761305,134.5119245,https://maps.google.com/?cid=0x0:0x40dcc2c8a660e005
cafe,Kafe seni,ALDRI WARKOP,"Iriati, Distrik Wasior, Kabupaten Teluk Wondama, Papua Bar. 98346","Distrik Wasior, Kabupaten Teluk Wondama",PAPUA BARAT,98346.0,Indonesia,82248183514.0,-2.8551699,134.3236557,https://maps.google.com/?cid=0x0:0x6f4274922c3bfa18
cafe,cafe,Distrik Rumberpon,"Kabupaten Teluk Wondama, Papua Bar.","Kabupaten Teluk Wondama, Papua Bar.",PAPUA BARAT,,Indonesia,,-1.8449584,134.1491513,https://maps.google.com/?cid=0x0:0x3022979f8a7f5e3b
cafe,cafe,Puncak Nusrowi,"Jl. Manokwari - Bintuni, Yermatum, Soug Jaya, Kabupaten Teluk Wondama, Papua Bar.","Kabupaten Teluk Wondama, Papua Bar.",PAPUA BARAT,,Indonesia,,-1.7817955,134.0542457,https://maps.google.com/?cid=0x0:0xd99e7874759ce165
cafe,Kedai Kopi,Sinilagi - Food and Coffee,"Ruko Puri Kencana. Jalan Puri Kencana Blok K7/3U, RT.11/RW.7, Kembangan Sel., Kec. Kembangan, Kota Jakarta Barat, Daerah Khusus Ibukota Jakarta 11610","RT.11/RW.7, Kembangan Sel., Kec. Kembangan, Kota Jakarta Barat",PAPUA BARAT,11610.0,Indonesia,,-6.1907131,106.7477643,https://maps.google.com/?cid=0x0:0x542750392acff889
cafe,Kedai Kopi,Dancing Goat Coffee Co.,"Rukan Grand Puri Niaga, Ruko, Jl. Puri Kencana No.2P Blok K6, RT.11/RW.7, South Kembangan, West Jakarta City, Jakarta 11610","Ruko, Jl. Puri Kencana No.2P Blok K6, RT.11/RW.7, South Kembangan, West Jakarta City",PAPUA BARAT,11610.0,Indonesia,2122585133.0,-6.19057,106.749563,https://maps.google.com/?cid=0x0:0xc4ab5cb42930eb2
cafe,cafe,,,,PAPUA BARAT,,Indonesia,,,,https://maps.google.com/?cid=0x0:0x542750392acff889u0026onu003dSiomayu0026midu003d/g/11j02_wqd5
cafe,cafe,,,,PAPUA BARAT,,Indonesia,,,,https://maps.google.com/?cid=0x0:0x542750392acff889u0026onu003dLatte+Artu0026midu003d/g/11j02_wqd5
cafe,cafe,,,,PAPUA BARAT,,Indonesia,,,,https://maps.google.com/?cid=0x0:0x542750392acff889u0026onu003dBakmi+Wadidawu0026midu003d/g/11j02_wqd5
cafe,cafe,,,,PAPUA BARAT,,Indonesia,,,,https://maps.google.com/?cid=0x0:0x542750392acff889u0026onu003dCappuccinou0026midu003d/g/11j02_wqd5
cafe,cafe,,,,PAPUA BARAT,,Indonesia,,,,https://maps.google.com/?cid=0x0:0x542750392acff889u0026onu003dSingkong+Gorengu0026midu003d/g/11j02_wqd5
cafe,cafe,,,,PAPUA BARAT,,Indonesia,,,,https://maps.google.com/?cid=0x0:0x542750392acff889u0026onu003dNasi+Uduk+Rameu0026midu003d/g/11j02_wqd5
cafe,cafe,,,,PAPUA BARAT,,Indonesia,,,,https://maps.google.com/?cid=0x0:0x542750392acff889u0026onu003dRoti+Jadoel+Coklat+Kejuu0026midu003d/g/11j02_wqd5
cafe,cafe,,,,PAPUA BARAT,,Indonesia,,,,https://maps.google.com/?cid=0x0:0x542750392acff889u0026onu003dNasi+Daging+Seiu0026midu003d/g/11j02_wqd5
cafe,cafe,,,,PAPUA BARAT,,Indonesia,,,,https://maps.google.com/?cid=0x0:0x542750392acff889u0026onu003dNasi+Padangu0026midu003d/g/11j02_wqd5
cafe,cafe,,,,PAPUA BARAT,,Indonesia,,,,https://maps.google.com/?cid=0x0:0x542750392acff889u0026onu003dBakso+Gorengu0026midu003d/g/11j02_wqd5
cafe,cafe,,,,PAPUA BARAT,,Indonesia,,,,https://maps.google.com/?cid=0x0:0x542750392acff889u0026onu003dRoti+Jadulu0026midu003d/g/11j02_wqd5
cafe,Kedai Kopi,Melanesian Coffee,"Jl. Wasior - Rado, Moru, Distrik Wasior, Kabupaten Teluk Wondama, Papua Bar. 98362","Moru, Distrik Wasior, Kabupaten Teluk Wondama",PAPUA BARAT,98362.0,Indonesia,81240930026.0,-2.7016017,134.5057633,https://maps.google.com/?cid=0x0:0xd845bbbbbdd329ed
cafe,cafe,,,,PAPUA BARAT,,Indonesia,,,,https://maps.google.com/?cid=0x0:0xd845bbbbbdd329edu0026onu0026midu003d/g/11n7jlh0fy
cafe,Tujuan Wisata,Wondama,"48VF+WFJ, Iriati, Kuri Wamesa, Kabupaten Teluk Wondama, Papua Bar.","Kabupaten Teluk Wondama, Papua Bar.",PAPUA BARAT,,Indonesia,85319092604.0,-2.8551699,134.3236557,https://maps.google.com/?cid=0x0:0x8ce6de66c8bd402f
cafe,Kedai Kopi,Melanesian Coffee,"7GF4+MHF, Wasior II, Distrik Wasior, Kabupaten Teluk Wondama, Papua Bar. 98362","Wasior II, Distrik Wasior, Kabupaten Teluk Wondama",PAPUA BARAT,98362.0,Indonesia,81328140090.0,-2.7258182,134.5064296,https://maps.google.com/?cid=0x0:0xedc90f86d0eb5a1a
cafe,Kafe,Coffee Brothers,"Maniwak, Manggurai PEMDA, Iriati, Distrik Wasior, Kabupaten Teluk Wondama, Papua Bar. 98362","Manggurai PEMDA, Iriati, Distrik Wasior, Kabupaten Teluk Wondama",PAPUA BARAT,98362.0,Indonesia,85244343890.0,-2.761305,134.5119245,https://maps.google.com/?cid=0x0:0x40dcc2c8a660e005
cafe,Kafe seni,ALDRI WARKOP,"Iriati, Distrik Wasior, Kabupaten Teluk Wondama, Papua Bar. 98346","Distrik Wasior, Kabupaten Teluk Wondama",PAPUA BARAT,98346.0,Indonesia,82248183514.0,-2.8551699,134.3236557,https://maps.google.com/?cid=0x0:0x6f4274922c3bfa18
cafe,cafe,Wamesa,"Kabupaten Teluk Bintuni, Papua Bar.","Kabupaten Teluk Bintuni, Papua Bar.",PAPUA BARAT,,Indonesia,,-2.1434612,133.981812,https://maps.google.com/?cid=0x0:0x255b33cb1fd7a021
cafe,Kafe,Coffee Brothers,"Maniwak, Manggurai PEMDA, Iriati, Distrik Wasior, Kabupaten Teluk Wondama, Papua Bar. 98362","Manggurai PEMDA, Iriati, Distrik Wasior, Kabupaten Teluk Wondama",PAPUA BARAT,98362.0,Indonesia,85244343890.0,-2.761305,134.5119245,https://maps.google.com/?cid=0x0:0x40dcc2c8a660e005
cafe,Restoran,DEPOT AMORA,"WM78+79V, Banjar Ausoy (Sp IV), Distrik Manimeri, Kabupaten Teluk Bintuni, Papua Bar. 98364","Banjar Ausoy (Sp IV), Distrik Manimeri, Kabupaten Teluk Bintuni",PAPUA BARAT,98364.0,Indonesia,,-2.0867648,133.6659162,https://maps.google.com/?cid=0x0:0xb055930a0bae5985
cafe,cafe,Cafe and resto,"Gang 1 No.7, Bintuni Timur, Distrik Manimeri, Kabupaten Teluk Bintuni, Papua Bar.","Kabupaten Teluk Bintuni, Papua Bar.",PAPUA BARAT,,Indonesia,,-2.0889825,133.6892846,https://maps.google.com/?cid=0x0:0x8a15a7ec8f00e0f6
cafe,Kedai Kopi,Melanesian Coffee,"Jl. Wasior - Rado, Moru, Distrik Wasior, Kabupaten Teluk Wondama, Papua Bar. 98362","Moru, Distrik Wasior, Kabupaten Teluk Wondama",PAPUA BARAT,98362.0,Indonesia,81240930026.0,-2.7016017,134.5057633,https://maps.google.com/?cid=0x0:0xd845bbbbbdd329ed
cafe,cafe,Warkop Yolanda,"WPJC+67W, Korano Jaya, Distrik Manimeri, Kabupaten Teluk Bintuni, Papua Bar. 98364","Korano Jaya, Distrik Manimeri, Kabupaten Teluk Bintuni",PAPUA BARAT,98364.0,Indonesia,82398078009.0,-2.0693761,133.7207107,https://maps.google.com/?cid=0x0:0x4eb27fbe7a172fab
cafe,Dapur Umum,WarungeZ,"Jalur A SP 3, Bumi Saniari, Distrik Manimeri, Kabupaten Teluk Bintuni, Papua Bar. 98364","Bumi Saniari, Distrik Manimeri, Kabupaten Teluk Bintuni",PAPUA BARAT,98364.0,Indonesia,,-2.0490367,133.7269103,https://maps.google.com/?cid=0x0:0xb13663c80bfe452f
cafe,cafe,Papua Bar. 98364,"Kabupaten Teluk Bintuni, Papua Bar.","Kabupaten Teluk Bintuni, Papua Bar.",PAPUA BARAT,,Indonesia,,-1.8959987,133.6375314,https://maps.google.com/?cid=0x0:0x5d92307b98683ecf
cafe,Kedai Kopi,INGAT KOPI BINTUNI,"Samping Penginapan Kabira, Ingat Kopi Bintuni, Jl Raya, Bintuni Tim., Distrik Bintuni, Kabupaten Teluk Bintuni, Papua Bar. 98364","Ingat Kopi Bintuni, Jl Raya, Bintuni Tim., Distrik Bintuni, Kabupaten Teluk Bintuni",PAPUA BARAT,98364.0,Indonesia,85287200241.0,-2.1179985,133.5336587,https://maps.google.com/?cid=0x0:0xb6794b3d5220f992
cafe,Padang,Warung Makan D'NIRA /Maharani Parfum,"VGCX+9XQ, Bintuni Tim., Distrik Bintuni, Kabupaten Teluk Bintuni, Papua Bar. 98364","Bintuni Tim., Distrik Bintuni, Kabupaten Teluk Bintuni",PAPUA BARAT,98364.0,Indonesia,,-2.1290498,133.5499736,https://maps.google.com/?cid=0x0:0x2814b20ed4aa919b
cafe,Kafe,D'meong Coffee,"VGHQ+V3G, Unnamed Road, Bintuni Tim., Distrik Bintuni, Kabupaten Teluk Bintuni, Papua Bar. 98364","Unnamed Road, Bintuni Tim., Distrik Bintuni, Kabupaten Teluk Bintuni",PAPUA BARAT,98364.0,Indonesia,81246969627.0,-2.1203214,133.5377157,https://maps.google.com/?cid=0x0:0xff6cb93e8ca143e7
cafe,Kedai Kopi,Cafe  Resto Bintuni Business Center (BBC),Jln. Raya SP 5,"Kabupaten Teluk Bintuni, Papua Bar.",PAPUA BARAT,,Indonesia,,-2.1134603,133.615269,https://maps.google.com/?cid=0x0:0xe2e5143ddff55b23
cafe,Kedai Kopi,Kopisenjatb,"VGHJ+XPX, Kampung nelayan, Bintuni Tim., Distrik Bintuni, Kabupaten Teluk Bintuni, Papua Bar. 98364","Kampung nelayan, Bintuni Tim., Distrik Bintuni, Kabupaten Teluk Bintuni",PAPUA BARAT,98364.0,Indonesia,82238859339.0,-2.1200104,133.531864,https://maps.google.com/?cid=0x0:0x5bd1a1813da36b15
cafe,Kedai Kopi,Melanesian Coffee,"Jl. Wasior - Rado, Moru, Distrik Wasior, Kabupaten Teluk Wondama, Papua Bar. 98362","Moru, Distrik Wasior, Kabupaten Teluk Wondama",PAPUA BARAT,98362.0,Indonesia,81240930026.0,-2.7016017,134.5057633,https://maps.google.com/?cid=0x0:0xd845bbbbbdd329ed
cafe,Tujuan Wisata,Wondama,"48VF+WFJ, Iriati, Kuri Wamesa, Kabupaten Teluk Wondama, Papua Bar.","Kabupaten Teluk Wondama, Papua Bar.",PAPUA BARAT,,Indonesia,85319092604.0,-2.8551699,134.3236557,https://maps.google.com/?cid=0x0:0x8ce6de66c8bd402f
cafe,Kedai Kopi,Melanesian Coffee,"7GF4+MHF, Wasior II, Distrik Wasior, Kabupaten Teluk Wondama, Papua Bar. 98362","Wasior II, Distrik Wasior, Kabupaten Teluk Wondama",PAPUA BARAT,98362.0,Indonesia,81328140090.0,-2.7258182,134.5064296,https://maps.google.com/?cid=0x0:0xedc90f86d0eb5a1a
cafe,cafe,,,,PAPUA BARAT,,Indonesia,,,,https://maps.google.com/?cid=0x0:0xd845bbbbbdd329edu0026onu0026midu003d/g/11n7jlh0fy
cafe,Kafe,Coffee Brothers,"Maniwak, Manggurai PEMDA, Iriati, Distrik Wasior, Kabupaten Teluk Wondama, Papua Bar. 98362","Manggurai PEMDA, Iriati, Distrik Wasior, Kabupaten Teluk Wondama",PAPUA BARAT,98362.0,Indonesia,85244343890.0,-2.761305,134.5119245,https://maps.google.com/?cid=0x0:0x40dcc2c8a660e005
cafe,cafe,Wamesa,"Kabupaten Teluk Bintuni, Papua Bar.","Kabupaten Teluk Bintuni, Papua Bar.",PAPUA BARAT,,Indonesia,,-2.1434612,133.981812,https://maps.google.com/?cid=0x0:0x255b33cb1fd7a021
cafe,Kafe,Waanal Coffee And Resto,"Jl. Cendrawasih, Karang Senang, Kec. Kuala Kencana, Kabupaten Mimika, Papua 99910","Karang Senang, Kec. Kuala Kencana, Kabupaten Mimika",PAPUA BARAT,99910.0,Indonesia,81248677897.0,-4.4916566,136.8474106,https://maps.google.com/?cid=0x0:0xe6f6936c8a14d771
cafe,Kedai Kopi,wabisabicoffee,"Kp. Baru, Distrik Sorong, Kota Sorong, Papua Bar. 98411","Distrik Sorong, Kota Sorong",PAPUA BARAT,98411.0,Indonesia,82137563208.0,-0.8704999,131.253128,https://maps.google.com/?cid=0x0:0xd4029d1b24ccb3b3
cafe,Kedai Kopi,Z COFFEE,"42HX+V6C, Jl. Trikora Rendani, Wosi, Kec. Manokwari Bar., Kabupaten Manokwari, Papua Bar. 98312","Jl. Trikora Rendani, Wosi, Kec. Manokwari Bar., Kabupaten Manokwari",PAPUA BARAT,98312.0,Indonesia,81247192526.0,-0.8703133,134.0480103,https://maps.google.com/?cid=0x0:0x52fc52684fc7839c
cafe,Kedai Kopi,Cafe Isasai,"Danau Sentani, Kp. Waena, Kec. Heram, Kota Jayapura, Papua 99351","Kp. Waena, Kec. Heram, Kota Jayapura",PAPUA BARAT,99351.0,Indonesia,,-2.598538,140.6244014,https://maps.google.com/?cid=0x0:0xc37a24107e869a96
cafe,Kafe,Cafe Aria,"expo, Perumahan Lentera 2 no A4.gelanggang tengah, Waena, Kec. Abepura, Papua 98667","Perumahan Lentera 2 no A4.gelanggang tengah, Waena, Kec. Abepura",PAPUA BARAT,98667.0,Indonesia,,-2.5932318,140.6339916,https://maps.google.com/?cid=0x0:0xc35b3404eb912edc
cafe,Kedai Kopi,Wells Coffee  Milkbar,"9J87+CXP, Handil Jaya, Kec. Jelutung, Kota Jambi, Jambi","Kota Jambi, Jambi",PAPUA BARAT,,Indonesia,,-1.6339174,103.6149493,https://maps.google.com/?cid=0x0:0x93e8e60691bb6372
cafe,Kedai Kopi,Cafe6233,"Jalan Kampung Perepat Kapar, 42200 Klang, Selangor, Malaysia",Klang,PAPUA BARAT,42200.0,Indonesia,60176460407.0,3.112431,101.3587378,https://maps.google.com/?cid=0x0:0x4d7a532a368a10a0
cafe,cafe,Distrik Wasior,"Kabupaten Teluk Wondama, Papua Bar.","Kabupaten Teluk Wondama, Papua Bar.",PAPUA BARAT,,Indonesia,,-2.726099,134.506737,https://maps.google.com/?cid=0x0:0x54655a71cd072b6e
cafe,Kafe,Coffee Brothers,"Maniwak, Manggurai PEMDA, Iriati, Distrik Wasior, Kabupaten Teluk Wondama, Papua Bar. 98362","Manggurai PEMDA, Iriati, Distrik Wasior, Kabupaten Teluk Wondama",PAPUA BARAT,98362.0,Indonesia,85244343890.0,-2.761305,134.5119245,https://maps.google.com/?cid=0x0:0x40dcc2c8a660e005
cafe,Kedai Kopi,Melanesian Coffee,"Jl. Wasior - Rado, Moru, Distrik Wasior, Kabupaten Teluk Wondama, Papua Bar. 98362","Moru, Distrik Wasior, Kabupaten Teluk Wondama",PAPUA BARAT,98362.0,Indonesia,81240930026.0,-2.7016017,134.5057633,https://maps.google.com/?cid=0x0:0xd845bbbbbdd329ed
cafe,Restoran,RUMAH MAKAN KRISNA,"Jln poros, Iriati, Distrik Wasior, Kabupaten Teluk Wondama, Papua Bar. 98362","Iriati, Distrik Wasior, Kabupaten Teluk Wondama",PAPUA BARAT,98362.0,Indonesia,81247570651.0,-2.7643369,134.516016,https://maps.google.com/?cid=0x0:0x96299447fa137530
cafe,Kafe,Samping kelurahan Wasior,"7GF4+HM9, JL.Topay, Wasior I, Distrik Wasior, Kabupaten Teluk Wondama, Papua Bar. 98362","JL.Topay, Wasior I, Distrik Wasior, Kabupaten Teluk Wondama",PAPUA BARAT,98362.0,Indonesia,,-2.726099,134.506737,https://maps.google.com/?cid=0x0:0xa50c2762f2840a43
cafe,Restoran,Warung Remoekss,"6GJ9+F7V, Iriati, Distrik Wasior, Kabupaten Teluk Wondama, Papua Bar. 98362","Iriati, Distrik Wasior, Kabupaten Teluk Wondama",PAPUA BARAT,98362.0,Indonesia,,-2.7652901,134.5166022,https://maps.google.com/?cid=0x0:0x4ea4f0c3af2f5214
cafe,Restoran,Warung Makan Gaul,"7GC5+V5W, Wasior I, Distrik Wasior, Kabupaten Teluk Wondama, Papua Bar. 98362","Wasior I, Distrik Wasior, Kabupaten Teluk Wondama",PAPUA BARAT,98362.0,Indonesia,,-2.72777,134.5079541,https://maps.google.com/?cid=0x0:0xdb9de62d01f8fe66
cafe,Restoran,Warung Siliwangi,"7G25+QC8, Maniwak, Distrik Wasior, Kabupaten Teluk Wondama, Papua Bar. 98362","Maniwak, Distrik Wasior, Kabupaten Teluk Wondama",PAPUA BARAT,98362.0,Indonesia,,-2.7480833,134.5085633,https://maps.google.com/?cid=0x0:0x3764a19c356243c8
cafe,Restoran,Warung Makan Bunda,"Maniwak, Distrik Wasior, Kabupaten Teluk Wondama, Papua Bar. 98362","Distrik Wasior, Kabupaten Teluk Wondama",PAPUA BARAT,98362.0,Indonesia,81344488876.0,-2.7576822,134.5106162,https://maps.google.com/?cid=0x0:0xd15a898f639d391b
cafe,Dapur Umum,Warung Makan Josua,"6GR6+R4Q, Maniwak, Distrik Wasior, Kabupaten Teluk Wondama, Papua Bar. 98362","Maniwak, Distrik Wasior, Kabupaten Teluk Wondama",PAPUA BARAT,98362.0,Indonesia,81356713288.0,-2.7579243,134.5103664,https://maps.google.com/?cid=0x0:0xf35401302502710f
cafe,Komplek perumahan,Warung Makan Kedai Masabuai,"7G96+VH4, Wasior I, Distrik Wasior, Kabupaten Teluk Wondama, Papua Bar. 98362","Wasior I, Distrik Wasior, Kabupaten Teluk Wondama",PAPUA BARAT,98362.0,Indonesia,82139920848.0,-2.7303721,134.5114571,https://maps.google.com/?cid=0x0:0xc9f8a2a32007718
cafe,Restoran,GOLDEN STAR,"6GM8+RMM, Unnamed Road, Iriati, Distrik Wasior, Kabupaten Teluk Wondama, Papua Bar. 98362","Unnamed Road, Iriati, Distrik Wasior, Kabupaten Teluk Wondama",PAPUA BARAT,98362.0,Indonesia,,-2.7654177,134.5166783,https://maps.google.com/?cid=0x0:0xe3e5d794d5503d41
cafe,Dapur Umum,Dekri,"7G47+H7W, Maniwak, Distrik Wasior, Kabupaten Teluk Wondama, Papua Bar. 98362","Maniwak, Distrik Wasior, Kabupaten Teluk Wondama",PAPUA BARAT,98362.0,Indonesia,,-2.7435086,134.5131962,https://maps.google.com/?cid=0x0:0xd44d6780f949dd58
cafe,Indonesia,Warung Lumayan,"JL.Margono,waskam, Wasior II, Wasior, Teluk Wondama Regency, West Papua 98362","Wasior II, Wasior, Teluk Wondama Regency",PAPUA BARAT,98362.0,Indonesia,82288194694.0,-2.7231377,134.5056823,https://maps.google.com/?cid=0x0:0xe88c8b44ab29fdc0
cafe,cafe,Kec. Windesi,"Kabupaten Teluk Wondama, Papua Bar.","Kabupaten Teluk Wondama, Papua Bar.",PAPUA BARAT,,Indonesia,,-2.601077,134.1340439,https://maps.google.com/?cid=0x0:0x9b9a2ca4d233e89d
cafe,Kafe,Coffee Brothers,"Maniwak, Manggurai PEMDA, Iriati, Distrik Wasior, Kabupaten Teluk Wondama, Papua Bar. 98362","Manggurai PEMDA, Iriati, Distrik Wasior, Kabupaten Teluk Wondama",PAPUA BARAT,98362.0,Indonesia,85244343890.0,-2.761305,134.5119245,https://maps.google.com/?cid=0x0:0x40dcc2c8a660e005
cafe,Kedai Kopi,Melanesian Coffee,"7GF4+MHF, Wasior II, Distrik Wasior, Kabupaten Teluk Wondama, Papua Bar. 98362","Wasior II, Distrik Wasior, Kabupaten Teluk Wondama",PAPUA BARAT,98362.0,Indonesia,81328140090.0,-2.7258182,134.5064296,https://maps.google.com/?cid=0x0:0xedc90f86d0eb5a1a
cafe,Restoran,WONE Cafe and Patisserie PIK 2,"Rukan La Riviera Blok RLGC No. 31, Kabupaten Tangerang, Banten 15510",Kabupaten Tangerang,PAPUA BARAT,15510.0,Indonesia,82117843578.0,-6.0442686,106.6926894,https://maps.google.com/?cid=0x0:0xb63cd8c8fc7867bf
cafe,cafe,Kafe winda,"Jl. Kesederhanaan No.7, RT.4/RW.4, Keagungan, Kec. Taman Sari, Kota Jakarta Barat, Daerah Khusus Ibukota Jakarta 11130","RT.4/RW.4, Keagungan, Kec. Taman Sari, Kota Jakarta Barat",PAPUA BARAT,11130.0,Indonesia,83891410114.0,-6.1499978,106.8132931,https://maps.google.com/?cid=0x0:0xc8fb958de0c872be
cafe,cafe,Kec. Windesi,"Kabupaten Teluk Wondama, Papua Bar.","Kabupaten Teluk Wondama, Papua Bar.",PAPUA BARAT,,Indonesia,,-2.601077,134.1340439,https://maps.google.com/?cid=0x0:0x9b9a2ca4d233e89d
cafe,Kafe,Coffee Brothers,"Maniwak, Manggurai PEMDA, Iriati, Distrik Wasior, Kabupaten Teluk Wondama, Papua Bar. 98362","Manggurai PEMDA, Iriati, Distrik Wasior, Kabupaten Teluk Wondama",PAPUA BARAT,98362.0,Indonesia,85244343890.0,-2.761305,134.5119245,https://maps.google.com/?cid=0x0:0x40dcc2c8a660e005
cafe,Kedai Kopi,Melanesian Coffee,"7GF4+MHF, Wasior II, Distrik Wasior, Kabupaten Teluk Wondama, Papua Bar. 98362","Wasior II, Distrik Wasior, Kabupaten Teluk Wondama",PAPUA BARAT,98362.0,Indonesia,81328140090.0,-2.7258182,134.5064296,https://maps.google.com/?cid=0x0:0xedc90f86d0eb5a1a
cafe,cafe,Papua Bar. 98361,"Kabupaten Teluk Wondama, Papua Bar.","Kabupaten Teluk Wondama, Papua Bar.",PAPUA BARAT,,Indonesia,,-2.4815085,134.2099791,https://maps.google.com/?cid=0x0:0xe298b41c3e32d0eb
cafe,Kedai Kopi,Melanesian Coffee,"Jl. Wasior - Rado, Moru, Distrik Wasior, Kabupaten Teluk Wondama, Papua Bar. 98362","Moru, Distrik Wasior, Kabupaten Teluk Wondama",PAPUA BARAT,98362.0,Indonesia,81240930026.0,-2.7016017,134.5057633,https://maps.google.com/?cid=0x0:0xd845bbbbbdd329ed
cafe,Kedai Kopi,Melanesian Coffee,"7GF4+MHF, Wasior II, Distrik Wasior, Kabupaten Teluk Wondama, Papua Bar. 98362","Wasior II, Distrik Wasior, Kabupaten Teluk Wondama",PAPUA BARAT,98362.0,Indonesia,81328140090.0,-2.7258182,134.5064296,https://maps.google.com/?cid=0x0:0xedc90f86d0eb5a1a
cafe,Kedai Kopi,Warung Kopi Yasmin,"5GMJ+WRX, Mapolres, Isuy, Distrik Wondiboy, Kabupaten Teluk Wondama, Papua Bar. 98362","Mapolres, Isuy, Distrik Wondiboy, Kabupaten Teluk Wondama",PAPUA BARAT,98362.0,Indonesia,,-2.8151318,134.5321055,https://maps.google.com/?cid=0x0:0xdcd9c4c4ceaf5eda
cafe,Tujuan Wisata,Wondama,"48VF+WFJ, Iriati, Kuri Wamesa, Kabupaten Teluk Wondama, Papua Bar.","Kabupaten Teluk Wondama, Papua Bar.",PAPUA BARAT,,Indonesia,85319092604.0,-2.8551699,134.3236557,https://maps.google.com/?cid=0x0:0x8ce6de66c8bd402f
cafe,Kafe,Wilchof Cafe,"Manokwari Tim., Kec. Manokwari Bar., Kabupaten Manokwari, Papua Bar. 98312","Kec. Manokwari Bar., Kabupaten Manokwari",PAPUA BARAT,98312.0,Indonesia,8124801913.0,-0.8418764,134.0699628,https://maps.google.com/?cid=0x0:0xdf7fa1241fcb9fab
cafe,Kafe seni,ALDRI WARKOP,"Iriati, Distrik Wasior, Kabupaten Teluk Wondama, Papua Bar. 98346","Distrik Wasior, Kabupaten Teluk Wondama",PAPUA BARAT,98346.0,Indonesia,82248183514.0,-2.8551699,134.3236557,https://maps.google.com/?cid=0x0:0x6f4274922c3bfa18
cafe,Restoran,Coffee Daeng,"2FPF+3WM, Maniwak, Distrik Wasior, Kabupaten Teluk Wondama, Papua Bar. 98362","Maniwak, Distrik Wasior, Kabupaten Teluk Wondama",PAPUA BARAT,98362.0,Indonesia,8223905921.0,-2.9647961,134.4748018,https://maps.google.com/?cid=0x0:0x8d6e9697b9b00a9a
cafe,Restoran,KEDAI 78,"Iriati, Distrik Wasior, Kabupaten Teluk Wondama, Papua Bar. 98346","Distrik Wasior, Kabupaten Teluk Wondama",PAPUA BARAT,98346.0,Indonesia,81240586858.0,-2.7657168,134.5168949,https://maps.google.com/?cid=0x0:0xff6b28d3912804e8
cafe,Kafe,Coffee Brothers,"Maniwak, Manggurai PEMDA, Iriati, Distrik Wasior, Kabupaten Teluk Wondama, Papua Bar. 98362","Manggurai PEMDA, Iriati, Distrik Wasior, Kabupaten Teluk Wondama",PAPUA BARAT,98362.0,Indonesia,85244343890.0,-2.761305,134.5119245,https://maps.google.com/?cid=0x0:0x40dcc2c8a660e005
cafe,cafe,Wondiboi,"Distrik Wondiboy, Kabupaten Teluk Wondama, Papua Bar.","Kabupaten Teluk Wondama, Papua Bar.",PAPUA BARAT,,Indonesia,,-2.8046444,134.5760814,https://maps.google.com/?cid=0x0:0xe68e45ccb2c17a3e
cafe,Restoran,Coffee Daeng,"2FPF+3WM, Maniwak, Distrik Wasior, Kabupaten Teluk Wondama, Papua Bar. 98362","Maniwak, Distrik Wasior, Kabupaten Teluk Wondama",PAPUA BARAT,98362.0,Indonesia,8223905921.0,-2.9647961,134.4748018,https://maps.google.com/?cid=0x0:0x8d6e9697b9b00a9a
cafe,Kedai Kopi,Melanesian Coffee,"7GF4+MHF, Wasior II, Distrik Wasior, Kabupaten Teluk Wondama, Papua Bar. 98362","Wasior II, Distrik Wasior, Kabupaten Teluk Wondama",PAPUA BARAT,98362.0,Indonesia,81328140090.0,-2.7258182,134.5064296,https://maps.google.com/?cid=0x0:0xedc90f86d0eb5a1a
cafe,Kedai Kopi,Warung Kopi Yasmin,"5GMJ+WRX, Mapolres, Isuy, Distrik Wondiboy, Kabupaten Teluk Wondama, Papua Bar. 98362","Mapolres, Isuy, Distrik Wondiboy, Kabupaten Teluk Wondama",PAPUA BARAT,98362.0,Indonesia,,-2.8151318,134.5321055,https://maps.google.com/?cid=0x0:0xdcd9c4c4ceaf5eda
cafe,Restoran,Warung Makan Sari Rizky,"5GPJ+JR4, Isuy, Distrik Wondiboy, Kabupaten Teluk Wondama, Papua Bar. 98362","Isuy, Distrik Wondiboy, Kabupaten Teluk Wondama",PAPUA BARAT,98362.0,Indonesia,82399259382.0,-2.8134923,134.5320896,https://maps.google.com/?cid=0x0:0xb6902b1b17306d14
cafe,Toko,Kios Adira,"huntap wondiboy jalur 3, jln arah ke pantai kubiari, Wondiboi, Distrik Wondiboy, Kabupaten Teluk Wondama, Papua Bar. 98362","jln arah ke pantai kubiari, Wondiboi, Distrik Wondiboy, Kabupaten Teluk Wondama",PAPUA BARAT,98362.0,Indonesia,,-2.8066846,134.5278967,https://maps.google.com/?cid=0x0:0xe373e12068be64e
cafe,Kafe,Samping kelurahan Wasior,"7GF4+HM9, JL.Topay, Wasior I, Distrik Wasior, Kabupaten Teluk Wondama, Papua Bar. 98362","JL.Topay, Wasior I, Distrik Wasior, Kabupaten Teluk Wondama",PAPUA BARAT,98362.0,Indonesia,,-2.726099,134.506737,https://maps.google.com/?cid=0x0:0xa50c2762f2840a43
cafe,Restoran,KEDAI 78,"Iriati, Distrik Wasior, Kabupaten Teluk Wondama, Papua Bar. 98346","Distrik Wasior, Kabupaten Teluk Wondama",PAPUA BARAT,98346.0,Indonesia,81240586858.0,-2.7657168,134.5168949,https://maps.google.com/?cid=0x0:0xff6b28d3912804e8
hotel,Hotel,Hotel Krisna,"Jalan Raya, Iriati, Distrik Wasior, Kabupaten Teluk Wondama, Papua Bar. 98362","Iriati, Distrik Wasior, Kabupaten Teluk Wondama",PAPUA BARAT,98362.0,Indonesia,82152870479.0,-2.7642369,134.5164114,https://maps.google.com/?cid=0x0:0xacd390d283857065
hotel,hotel,Kuri Wamesa,"Kabupaten Teluk Wondama, Papua Bar.","Kabupaten Teluk Wondama, Papua Bar.",PAPUA BARAT,,Indonesia,,-2.8551699,134.3236557,https://maps.google.com/?cid=0x0:0x8c3430e4162f73b3
hotel,hotel,Iriati beach hotel,"6GM9+75F, Iriati, Distrik Wasior, Kabupaten Teluk Wondama, Papua Bar. 98362","Iriati, Distrik Wasior, Kabupaten Teluk Wondama",PAPUA BARAT,98362.0,Indonesia,,-2.767064,134.5164648,https://maps.google.com/?cid=0x0:0xfa321d24ce01d131
hotel,Hotel,Hotel Darmaji,"7GF6+XFG, Wasior I, Distrik Wasior, Kabupaten Teluk Wondama, Papua Bar. 98362","Wasior I, Distrik Wasior, Kabupaten Teluk Wondama",PAPUA BARAT,98362.0,Indonesia,,-2.7250695,134.5111999,https://maps.google.com/?cid=0x0:0x4ea60dd7a3f67b6c
hotel,Komplek perumahan,Waskam,"7GG4+F77, Wasior II, Distrik Wasior, Kabupaten Teluk Wondama, Papua Bar. 98362","Wasior II, Distrik Wasior, Kabupaten Teluk Wondama",PAPUA BARAT,98362.0,Indonesia,,-2.7235102,134.5052923,https://maps.google.com/?cid=0x0:0xbd29e95714ae7618
hotel,Hotel,Loster,"Jalan poros wasior rasiei, Iriati, Distrik Wasior, Kabupaten Teluk Wondama, Papua Bar. 98362","Iriati, Distrik Wasior, Kabupaten Teluk Wondama",PAPUA BARAT,98362.0,Indonesia,82253461274.0,-2.7654299,134.5166632,https://maps.google.com/?cid=0x0:0x6990f3b557bc2de3
hotel,Toko bahan makanan,Kuri Mart,"2FPF+3WM, Maniwak, Distrik Wasior, Kabupaten Teluk Wondama, Papua Bar. 98362","Maniwak, Distrik Wasior, Kabupaten Teluk Wondama",PAPUA BARAT,98362.0,Indonesia,,-2.9647961,134.4748018,https://maps.google.com/?cid=0x0:0xb22f95ce19a212d
hotel,Hotel,Penginapan Dennis,"7GC5+X7Q, Unnamed Road, Wasior I, Distrik Wasior, Kabupaten Teluk Wondama, Papua Bar. 98362","Unnamed Road, Wasior I, Distrik Wasior, Kabupaten Teluk Wondama",PAPUA BARAT,98362.0,Indonesia,8127748586.0,-2.7275478,134.5082297,https://maps.google.com/?cid=0x0:0xd160f464305d5582
hotel,Hotel,Wasior,"7GF4+HM9, Wasior I, Distrik Wasior, Kabupaten Teluk Wondama, Papua Bar. 98362","Wasior I, Distrik Wasior, Kabupaten Teluk Wondama",PAPUA BARAT,98362.0,Indonesia,,-2.726099,134.506737,https://maps.google.com/?cid=0x0:0x3ae62cf13b762208
hotel,hotel,Papua Bar. 98362,"Kabupaten Teluk Wondama, Papua Bar.","Kabupaten Teluk Wondama, Papua Bar.",PAPUA BARAT,,Indonesia,,-2.9647961,134.4748018,https://maps.google.com/?cid=0x0:0xbea57e7dbf1a786f
hotel,hotel,Iriati beach hotel,"6GM9+75F, Iriati, Distrik Wasior, Kabupaten Teluk Wondama, Papua Bar. 98362","Iriati, Distrik Wasior, Kabupaten Teluk Wondama",PAPUA BARAT,98362.0,Indonesia,,-2.767064,134.5164648,https://maps.google.com/?cid=0x0:0xfa321d24ce01d131
hotel,Hotel,Hotel Aitumieri Inn,"Unnamed Road, Maniwak, Distrik Wasior, Kabupaten Teluk Wondama, Papua Bar. 98362","Maniwak, Distrik Wasior, Kabupaten Teluk Wondama",PAPUA BARAT,98362.0,Indonesia,,-2.7390772,134.5129166,https://maps.google.com/?cid=0x0:0x5b9fd4b7f79b760a
hotel,Hotel,Loster,"Jalan poros wasior rasiei, Iriati, Distrik Wasior, Kabupaten Teluk Wondama, Papua Bar. 98362","Iriati, Distrik Wasior, Kabupaten Teluk Wondama",PAPUA BARAT,98362.0,Indonesia,82253461274.0,-2.7654299,134.5166632,https://maps.google.com/?cid=0x0:0x6990f3b557bc2de3
hotel,Hotel,Hotel Darmaji,"7GF6+XFG, Wasior I, Distrik Wasior, Kabupaten Teluk Wondama, Papua Bar. 98362","Wasior I, Distrik Wasior, Kabupaten Teluk Wondama",PAPUA BARAT,98362.0,Indonesia,,-2.7250695,134.5111999,https://maps.google.com/?cid=0x0:0x4ea60dd7a3f67b6c
hotel,Hotel,Waaior,"7H9M+FJ8 Pegunungan Wondiwoi, Maniwak, Distrik Wasior, Kabupaten Teluk Wondama, Papua Bar. 98362","Maniwak, Distrik Wasior, Kabupaten Teluk Wondama",PAPUA BARAT,98362.0,Indonesia,,-2.7313446,134.5840769,https://maps.google.com/?cid=0x0:0x869e3afbc382f862
hotel,Hotel,Penginapan Dennis,"7GC5+X7Q, Unnamed Road, Wasior I, Distrik Wasior, Kabupaten Teluk Wondama, Papua Bar. 98362","Unnamed Road, Wasior I, Distrik Wasior, Kabupaten Teluk Wondama",PAPUA BARAT,98362.0,Indonesia,8127748586.0,-2.7275478,134.5082297,https://maps.google.com/?cid=0x0:0xd160f464305d5582
hotel,Komplek perumahan,Waskam,"7GG4+F77, Wasior II, Distrik Wasior, Kabupaten Teluk Wondama, Papua Bar. 98362","Wasior II, Distrik Wasior, Kabupaten Teluk Wondama",PAPUA BARAT,98362.0,Indonesia,,-2.7235102,134.5052923,https://maps.google.com/?cid=0x0:0xbd29e95714ae7618
hotel,Penginapan,PENGINAPAN AGGRIS TALAGA,"7GF5+RF4, Unnamed Road, Wasior I, Distrik Wasior, Kabupaten Teluk Wondama, Papua Bar. 98362","Unnamed Road, Wasior I, Distrik Wasior, Kabupaten Teluk Wondama",PAPUA BARAT,98362.0,Indonesia,,-2.7254766,134.5086944,https://maps.google.com/?cid=0x0:0xf8172a2739c159a3
hotel,Hotel,Silber's,"7G77+Q5R, Maniwak, Distrik Wasior, Kabupaten Teluk Wondama, Papua Bar. 98362","Maniwak, Distrik Wasior, Kabupaten Teluk Wondama",PAPUA BARAT,98362.0,Indonesia,,-2.7355221,134.512888,https://maps.google.com/?cid=0x0:0x322d839d6d20e893
hotel,Hotel,Wasior,"7GF4+HM9, Wasior I, Distrik Wasior, Kabupaten Teluk Wondama, Papua Bar. 98362","Wasior I, Distrik Wasior, Kabupaten Teluk Wondama",PAPUA BARAT,98362.0,Indonesia,,-2.726099,134.506737,https://maps.google.com/?cid=0x0:0x3ae62cf13b762208
hotel,Tujuan Wisata,Pantai Kubiari,"5GVC+68J, Isuy, Distrik Wondiboy, Kabupaten Teluk Wondama, Papua Bar. 98362","Isuy, Distrik Wondiboy, Kabupaten Teluk Wondama",PAPUA BARAT,98362.0,Indonesia,8132814009.0,-2.806914,134.5207643,https://maps.google.com/?cid=0x0:0xdcb1950193106179
hotel,Tujuan Wisata,Pantai Rasiei,"5GH9+QCF, Rasiei, Distrik Rasiei, Kabupaten Teluk Wondama, Papua Bar. 98362","Rasiei, Distrik Rasiei, Kabupaten Teluk Wondama",PAPUA BARAT,98362.0,Indonesia,8132814009.0,-2.8205708,134.5185401,https://maps.google.com/?cid=0x0:0xceaea2863f2bd664
hotel,hotel,Naikere,"Kabupaten Teluk Wondama, Papua Bar.","Kabupaten Teluk Wondama, Papua Bar.",PAPUA BARAT,,Indonesia,,-3.199925,134.4748018,https://maps.google.com/?cid=0x0:0xea0e364c043491c5
hotel,hotel,Papua Bar. 98361,"Kabupaten Teluk Wondama, Papua Bar.","Kabupaten Teluk Wondama, Papua Bar.",PAPUA BARAT,,Indonesia,,-2.4815085,134.2099791,https://maps.google.com/?cid=0x0:0xe298b41c3e32d0eb
hotel,hotel,Swiss Belhotel Manokwari,"Jl. Yos Sudarso Manokwari No.8, Manokwari Bar., Kec. Manokwari Bar., Kabupaten Manokwari, Papua Bar. 98312","Manokwari Bar., Kec. Manokwari Bar., Kabupaten Manokwari",PAPUA BARAT,98312.0,Indonesia,8114854000.0,-0.8572937,134.0672125,https://maps.google.com/?cid=0x0:0x92c98d5e96ee2a8f
hotel,hotel,,,,PAPUA BARAT,,Indonesia,,,,https://maps.google.com/?cid=0x0:0xe96b706fef94b3a2%7C/g/120jr49w%7Cid-ID
hotel,hotel,,,,PAPUA BARAT,,Indonesia,,,,https://maps.google.com/?cid=0x0:0x92c98d5e96ee2a8f%7C/g/1yl475f47%7Cid-ID
hotel,hotel,Mahanaim Hotel dan Homestay Manokwari,"jln trikora kalidingin no 109, Wosi, Kec. Manokwari Bar., Kabupaten Manokwari, Papua Bar. 98312","Wosi, Kec. Manokwari Bar., Kabupaten Manokwari",PAPUA BARAT,98312.0,Indonesia,8124830147.0,-0.8699305,134.0471193,https://maps.google.com/?cid=0x0:0xeec6727952b4f3e6
hotel,hotel,The ignislo sorong hotel,"Basuki Rahmat Street KM 7 Sorong, Malaingkedi, Sorong Utara, Sorong City, West Papua 98412","Malaingkedi, Sorong Utara, Sorong City",PAPUA BARAT,98412.0,Indonesia,,-0.8885403,131.2925628,https://maps.google.com/?cid=0x0:0x9992b24f2542a546
hotel,hotel,Waisai Beach Hotel (WBH),"Waisai, Kec. Waigeo Sel., Kabupaten Raja Ampat, Papua Bar. 98482","Kec. Waigeo Sel., Kabupaten Raja Ampat",PAPUA BARAT,98482.0,Indonesia,81247553799.0,-0.4281731,130.8199415,https://maps.google.com/?cid=0x0:0x87348b8c39be5af1
hotel,hotel,Fajar Roon Hotel,"Jl. Trikora Wosi, Wosi, Kec. Manokwari Bar., Kabupaten Manokwari, Papua Bar. 98312","Wosi, Kec. Manokwari Bar., Kabupaten Manokwari",PAPUA BARAT,98312.0,Indonesia,85333112338.0,-0.8680273,134.0564644,https://maps.google.com/?cid=0x0:0xec6cf3d20bba5444
hotel,hotel,Hotel HI,"38C2+2X4, Fak Fak Selatan, Distrik Fakfak, Kabupaten Fakfak, Papua Bar. 98651","Fak Fak Selatan, Distrik Fakfak, Kabupaten Fakfak",PAPUA BARAT,98651.0,Indonesia,8888695878.0,-2.9299949,132.3024558,https://maps.google.com/?cid=0x0:0xa6762a3966976144
hotel,hotel,Iriati beach hotel,"6GM9+75F, Iriati, Distrik Wasior, Kabupaten Teluk Wondama, Papua Bar. 98362","Iriati, Distrik Wasior, Kabupaten Teluk Wondama",PAPUA BARAT,98362.0,Indonesia,,-2.767064,134.5164648,https://maps.google.com/?cid=0x0:0xfa321d24ce01d131
hotel,Hotel,Hotel Aitumieri Inn,"Unnamed Road, Maniwak, Distrik Wasior, Kabupaten Teluk Wondama, Papua Bar. 98362","Maniwak, Distrik Wasior, Kabupaten Teluk Wondama",PAPUA BARAT,98362.0,Indonesia,,-2.7390772,134.5129166,https://maps.google.com/?cid=0x0:0x5b9fd4b7f79b760a
hotel,Hotel,Hotel Krisna,"Jalan Raya, Iriati, Distrik Wasior, Kabupaten Teluk Wondama, Papua Bar. 98362","Iriati, Distrik Wasior, Kabupaten Teluk Wondama",PAPUA BARAT,98362.0,Indonesia,82152870479.0,-2.7642369,134.5164114,https://maps.google.com/?cid=0x0:0xacd390d283857065
hotel,Hotel,Hotel Darmaji,"7GF6+XFG, Wasior I, Distrik Wasior, Kabupaten Teluk Wondama, Papua Bar. 98362","Wasior I, Distrik Wasior, Kabupaten Teluk Wondama",PAPUA BARAT,98362.0,Indonesia,,-2.7250695,134.5111999,https://maps.google.com/?cid=0x0:0x4ea60dd7a3f67b6c
hotel,Hotel,Penginapan Dennis,"7GC5+X7Q, Unnamed Road, Wasior I, Distrik Wasior, Kabupaten Teluk Wondama, Papua Bar. 98362","Unnamed Road, Wasior I, Distrik Wasior, Kabupaten Teluk Wondama",PAPUA BARAT,98362.0,Indonesia,8127748586.0,-2.7275478,134.5082297,https://maps.google.com/?cid=0x0:0xd160f464305d5582
hotel,hotel,Rasiei,"Distrik Rasiei, Kabupaten Teluk Wondama, Papua Bar.","Kabupaten Teluk Wondama, Papua Bar.",PAPUA BARAT,,Indonesia,,-2.8153904,134.5231135,https://maps.google.com/?cid=0x0:0xfcfbd46012f90d9c
hotel,hotel,The Luxio Hotel,"Jl. Basuki Rahmat KM.12 Sorong, Malaingkedi, Kec. Sorong Utara, West Papua, Papua Bar. 98412","Malaingkedi, Kec. Sorong Utara, West Papua",PAPUA BARAT,98412.0,Indonesia,81344807777.0,-0.9040377,131.3236469,https://maps.google.com/?cid=0x0:0x4a37ba927853645b
hotel,hotel,Aimas Hotel And Convention Center,"Klamasen, Distrik Mariat, Kabupaten Sorong, Papua Bar. 98416","Distrik Mariat, Kabupaten Sorong",PAPUA BARAT,98416.0,Indonesia,8114887778.0,-0.9780957,131.3535192,https://maps.google.com/?cid=0x0:0x622ceae2f7c756cf
hotel,hotel,Hotel Rama,"42JW+GWX, Jl. Trikora Rendani, Wosi, Kec. Manokwari Bar., Kabupaten Manokwari, Papua Bar. 98312","Jl. Trikora Rendani, Wosi, Kec. Manokwari Bar., Kabupaten Manokwari",PAPUA BARAT,98312.0,Indonesia,,-0.8686391,134.0473473,https://maps.google.com/?cid=0x0:0xbc8387651670c591
hotel,hotel,Aston Sorong Hotel  Conference Center,"476V+J9X, Jl. Basuki Rahmat, Malaingkedi, Kec. Sorong Utara, Kota Sorong, Papua Bar. 98412","Jl. Basuki Rahmat, Malaingkedi, Kec. Sorong Utara, Kota Sorong",PAPUA BARAT,98412.0,Indonesia,81148500888.0,-0.8887467,131.2931592,https://maps.google.com/?cid=0x0:0x110a6a5f0a67a7f7
hotel,hotel,,,,PAPUA BARAT,,Indonesia,,,,https://maps.google.com/?cid=0x0:0x92c98d5e96ee2a8f%7C/g/1yl475f47%7Cid-ID
hotel,hotel,Swiss Belhotel Manokwari,"Jl. Yos Sudarso Manokwari No.8, Manokwari Bar., Kec. Manokwari Bar., Kabupaten Manokwari, Papua Bar. 98312","Manokwari Bar., Kec. Manokwari Bar., Kabupaten Manokwari",PAPUA BARAT,98312.0,Indonesia,8114854000.0,-0.8572937,134.0672125,https://maps.google.com/?cid=0x0:0x92c98d5e96ee2a8f
hotel,hotel,Belagri Hotel and Restaurant,"Jl. Raja Ampat No.1, Kp. Baru, Distrik Sorong, Kota Sorong, Papua Bar. 98413","Kp. Baru, Distrik Sorong, Kota Sorong",PAPUA BARAT,98413.0,Indonesia,,-0.8704329,131.2517604,https://maps.google.com/?cid=0x0:0xb0064be8b2a3c2c8
hotel,hotel,M Hotel Sorong,"Jl. Sungai Maruni, Klawuyuk, Kec. Sorong Utara, Kota Sorong, Papua Bar. 98416","Klawuyuk, Kec. Sorong Utara, Kota Sorong",PAPUA BARAT,98416.0,Indonesia,8114863111.0,-0.8858638,131.3227746,https://maps.google.com/?cid=0x0:0x9b9160ef43d35fd5
hotel,hotel,Kasuari Valley Beach Resort Sorong,"Tj. Kasuari, Distrik Sorong Barat, Kota Sorong, Papua Bar. 98411","Distrik Sorong Barat, Kota Sorong",PAPUA BARAT,98411.0,Indonesia,81247423939.0,-0.8229453,131.2259207,https://maps.google.com/?cid=0x0:0x7ae87156c62b6490
hotel,hotel,,,,PAPUA BARAT,,Indonesia,,,,https://maps.google.com/?cid=0x0:0x9b9160ef43d35fd5%7C/g/11clwlw14h%7Cid-ID
hotel,hotel,The ignislo sorong hotel,"Basuki Rahmat Street KM 7 Sorong, Malaingkedi, Sorong Utara, Sorong City, West Papua 98412","Malaingkedi, Sorong Utara, Sorong City",PAPUA BARAT,98412.0,Indonesia,,-0.8885403,131.2925628,https://maps.google.com/?cid=0x0:0x9992b24f2542a546
hotel,hotel,Darefan Hotel Sorong,"Jl. Selat Morotai, Remu Sel., Kecamatan Sorong Manoi, Kota Sorong, Papua Bar. 98412","Remu Sel., Kecamatan Sorong Manoi, Kota Sorong",PAPUA BARAT,98412.0,Indonesia,8114868887.0,-0.8877595,131.2893739,https://maps.google.com/?cid=0x0:0x5709bb2ac9cbd24
hotel,hotel,35 Inn,"476C+RFX, Jl. Ferry, Malawei, Distrik Sorong, Kota Sorong, Papua Bar. 98412","Jl. Ferry, Malawei, Distrik Sorong, Kota Sorong",PAPUA BARAT,98412.0,Indonesia,,-0.8878893,131.271243,https://maps.google.com/?cid=0x0:0xb276478752dcd2b2
hotel,hotel,Papua Bar. 98362,"Kabupaten Teluk Wondama, Papua Bar.","Kabupaten Teluk Wondama, Papua Bar.",PAPUA BARAT,,Indonesia,,-2.9647961,134.4748018,https://maps.google.com/?cid=0x0:0xbea57e7dbf1a786f
hotel,hotel,Aimas Hotel And Convention Center,"Klamasen, Distrik Mariat, Kabupaten Sorong, Papua Bar. 98416","Distrik Mariat, Kabupaten Sorong",PAPUA BARAT,98416.0,Indonesia,8114887778.0,-0.9780957,131.3535192,https://maps.google.com/?cid=0x0:0x622ceae2f7c756cf
hotel,hotel,The Luxio Hotel,"Jl. Basuki Rahmat KM.12 Sorong, Malaingkedi, Kec. Sorong Utara, West Papua, Papua Bar. 98412","Malaingkedi, Kec. Sorong Utara, West Papua",PAPUA BARAT,98412.0,Indonesia,81344807777.0,-0.9040377,131.3236469,https://maps.google.com/?cid=0x0:0x4a37ba927853645b
hotel,hotel,Royal Mamberamo Hotel,"Jl. Dr. Sam Ratulangi No.35, Kp. Baru, Distrik Sorong, Kota Sorong, Papua Bar. 98413","Kp. Baru, Distrik Sorong, Kota Sorong",PAPUA BARAT,98413.0,Indonesia,951325666.0,-0.871573,131.250864,https://maps.google.com/?cid=0x0:0xb5e32e36111d42eb
hotel,hotel,,,,PAPUA BARAT,,Indonesia,,,,https://maps.google.com/?cid=0x0:0x9b9160ef43d35fd5%7C/g/11clwlw14h%7Cid-ID
hotel,hotel,M Hotel Sorong,"Jl. Sungai Maruni, Klawuyuk, Kec. Sorong Utara, Kota Sorong, Papua Bar. 98416","Klawuyuk, Kec. Sorong Utara, Kota Sorong",PAPUA BARAT,98416.0,Indonesia,8114863111.0,-0.8858638,131.3227746,https://maps.google.com/?cid=0x0:0x9b9160ef43d35fd5
hotel,hotel,The ignislo sorong hotel,"Basuki Rahmat Street KM 7 Sorong, Malaingkedi, Sorong Utara, Sorong City, West Papua 98412","Malaingkedi, Sorong Utara, Sorong City",PAPUA BARAT,98412.0,Indonesia,,-0.8885403,131.2925628,https://maps.google.com/?cid=0x0:0x9992b24f2542a546
hotel,hotel,Aston Sorong Hotel  Conference Center,"476V+J9X, Jl. Basuki Rahmat, Malaingkedi, Kec. Sorong Utara, Kota Sorong, Papua Bar. 98412","Jl. Basuki Rahmat, Malaingkedi, Kec. Sorong Utara, Kota Sorong",PAPUA BARAT,98412.0,Indonesia,81148500888.0,-0.8887467,131.2931592,https://maps.google.com/?cid=0x0:0x110a6a5f0a67a7f7
hotel,hotel,Darefan Hotel Sorong,"Jl. Selat Morotai, Remu Sel., Kecamatan Sorong Manoi, Kota Sorong, Papua Bar. 98412","Remu Sel., Kecamatan Sorong Manoi, Kota Sorong",PAPUA BARAT,98412.0,Indonesia,8114868887.0,-0.8877595,131.2893739,https://maps.google.com/?cid=0x0:0x5709bb2ac9cbd24
hotel,hotel,Penginapan Kofiyau,"46MX+QV7, Unnamed Road, Klasuur, Distrik Sorong, Kota Sorong, Papua Bar. 98411","Unnamed Road, Klasuur, Distrik Sorong, Kota Sorong",PAPUA BARAT,98411.0,Indonesia,82398017326.0,-0.86559,131.2496721,https://maps.google.com/?cid=0x0:0xfc32a1234a9c5c47
hotel,hotel,Mangga Hotel,"Jl. Bhayangkara No.1, Manokwari Tim., Kec. Manokwari Bar., Kabupaten Manokwari, Papua Bar. 98312","Manokwari Tim., Kec. Manokwari Bar., Kabupaten Manokwari",PAPUA BARAT,98312.0,Indonesia,62986211693.0,-0.870176,134.0778405,https://maps.google.com/?cid=0x0:0x3d2ada72a869c631
hotel,hotel,Fajar Roon Hotel,"Jl. Trikora Wosi, Wosi, Kec. Manokwari Bar., Kabupaten Manokwari, Papua Bar. 98312","Wosi, Kec. Manokwari Bar., Kabupaten Manokwari",PAPUA BARAT,98312.0,Indonesia,85333112338.0,-0.8680273,134.0564644,https://maps.google.com/?cid=0x0:0xec6cf3d20bba5444
hotel,hotel,Hotel Batanta,"46GW+RMC, Kp. Baru, Distrik Sorong, Kota Sorong, Papua Bar. 98411","Kp. Baru, Distrik Sorong, Kota Sorong",PAPUA BARAT,98411.0,Indonesia,,-0.8729338,131.246629,https://maps.google.com/?cid=0x0:0xd18e7775760a134a
hotel,hotel,Hotel HI,"38C2+2X4, Fak Fak Selatan, Distrik Fakfak, Kabupaten Fakfak, Papua Bar. 98651","Fak Fak Selatan, Distrik Fakfak, Kabupaten Fakfak",PAPUA BARAT,98651.0,Indonesia,8888695878.0,-2.9299949,132.3024558,https://maps.google.com/?cid=0x0:0xa6762a3966976144
hotel,hotel,Roswar,"Waprak, Kec. Roswar, Kabupaten Teluk Wondama, Papua Bar.","Kabupaten Teluk Wondama, Papua Bar.",PAPUA BARAT,,Indonesia,,-2.010139,134.378759,https://maps.google.com/?cid=0x0:0x4e47415efb8c1520
hotel,hotel,M Hotel Sorong,"Jl. Sungai Maruni, Klawuyuk, Kec. Sorong Utara, Kota Sorong, Papua Bar. 98416","Klawuyuk, Kec. Sorong Utara, Kota Sorong",PAPUA BARAT,98416.0,Indonesia,8114863111.0,-0.8858638,131.3227746,https://maps.google.com/?cid=0x0:0x9b9160ef43d35fd5
hotel,hotel,,,,PAPUA BARAT,,Indonesia,,,,https://maps.google.com/?cid=0x0:0x9b9160ef43d35fd5%7C/g/11clwlw14h%7Cid-ID
hotel,hotel,Hotel Raja Ampat,"Jl. Fundar Sakela No.1, Waisai, City, Kabupaten Raja Ampat, Papua Bar. 98482","Waisai, City, Kabupaten Raja Ampat",PAPUA BARAT,98482.0,Indonesia,81298260747.0,-0.4224417,130.8199523,https://maps.google.com/?cid=0x0:0x3bda491b055b084
hotel,hotel,Valdos Hotel Manokwari,"43J5+F44, Jl. Trikora Wosi, Wosi, Kec. Manokwari Bar., Kabupaten Manokwari, Papua Bar. 98312","Jl. Trikora Wosi, Wosi, Kec. Manokwari Bar., Kabupaten Manokwari",PAPUA BARAT,98312.0,Indonesia,986213044.0,-0.8688721,134.0578193,https://maps.google.com/?cid=0x0:0x60b28ba9ef2d716e
hotel,hotel,Hotel HI,"38C2+2X4, Fak Fak Selatan, Distrik Fakfak, Kabupaten Fakfak, Papua Bar. 98651","Fak Fak Selatan, Distrik Fakfak, Kabupaten Fakfak",PAPUA BARAT,98651.0,Indonesia,8888695878.0,-2.9299949,132.3024558,https://maps.google.com/?cid=0x0:0xa6762a3966976144
hotel,hotel,Fajar Roon Hotel,"Jl. Trikora Wosi, Wosi, Kec. Manokwari Bar., Kabupaten Manokwari, Papua Bar. 98312","Wosi, Kec. Manokwari Bar., Kabupaten Manokwari",PAPUA BARAT,98312.0,Indonesia,85333112338.0,-0.8680273,134.0564644,https://maps.google.com/?cid=0x0:0xec6cf3d20bba5444
hotel,hotel,HOTEL F-TWO,"4797+HR6 Bar, Klaligi, Kecamatan Sorong Manoi, Kota Sorong, Papua Bar. 98412","Klaligi, Kecamatan Sorong Manoi, Kota Sorong",PAPUA BARAT,98412.0,Indonesia,,-0.8810964,131.2645222,https://maps.google.com/?cid=0x0:0xdc612394de83f39d
hotel,hotel,O,"Jl. Jend. A. Yani No.27, Malabutor, Kecamatan Sorong Manoi, Kota Sorong, Papua Bar. 98412","Malabutor, Kecamatan Sorong Manoi, Kota Sorong",PAPUA BARAT,98412.0,Indonesia,,-0.8827427,131.2828186,https://maps.google.com/?cid=0x0:0x9aebba5ddda67893
hotel,hotel,Aries Hotel,"43HH+X36, Jl. Bhayangkara, Manokwari Tim., Kec. Manokwari Bar., Kabupaten Manokwari, Papua Bar. 98312","Jl. Bhayangkara, Manokwari Tim., Kec. Manokwari Bar., Kabupaten Manokwari",PAPUA BARAT,98312.0,Indonesia,85348704163.0,-0.8700859,134.077642,https://maps.google.com/?cid=0x0:0x3725d1ade6fcfeff
hotel,Hotel,Hotel Krisna,"Jalan Raya, Iriati, Distrik Wasior, Kabupaten Teluk Wondama, Papua Bar. 98362","Iriati, Distrik Wasior, Kabupaten Teluk Wondama",PAPUA BARAT,98362.0,Indonesia,82152870479.0,-2.7642369,134.5164114,https://maps.google.com/?cid=0x0:0xacd390d283857065
hotel,hotel,Iriati beach hotel,"6GM9+75F, Iriati, Distrik Wasior, Kabupaten Teluk Wondama, Papua Bar. 98362","Iriati, Distrik Wasior, Kabupaten Teluk Wondama",PAPUA BARAT,98362.0,Indonesia,,-2.767064,134.5164648,https://maps.google.com/?cid=0x0:0xfa321d24ce01d131
hotel,Hotel,Wasior,"7GF4+HM9, Wasior I, Distrik Wasior, Kabupaten Teluk Wondama, Papua Bar. 98362","Wasior I, Distrik Wasior, Kabupaten Teluk Wondama",PAPUA BARAT,98362.0,Indonesia,,-2.726099,134.506737,https://maps.google.com/?cid=0x0:0x3ae62cf13b762208
hotel,Hotel,Hotel Darmaji,"7GF6+XFG, Wasior I, Distrik Wasior, Kabupaten Teluk Wondama, Papua Bar. 98362","Wasior I, Distrik Wasior, Kabupaten Teluk Wondama",PAPUA BARAT,98362.0,Indonesia,,-2.7250695,134.5111999,https://maps.google.com/?cid=0x0:0x4ea60dd7a3f67b6c
hotel,hotel,Mahanaim Hotel dan Homestay Manokwari,"jln trikora kalidingin no 109, Wosi, Kec. Manokwari Bar., Kabupaten Manokwari, Papua Bar. 98312","Wosi, Kec. Manokwari Bar., Kabupaten Manokwari",PAPUA BARAT,98312.0,Indonesia,8124830147.0,-0.8699305,134.0471193,https://maps.google.com/?cid=0x0:0xeec6727952b4f3e6
hotel,hotel,Distrik Rumberpon,"Kabupaten Teluk Wondama, Papua Bar.","Kabupaten Teluk Wondama, Papua Bar.",PAPUA BARAT,,Indonesia,,-1.8449584,134.1491513,https://maps.google.com/?cid=0x0:0x3022979f8a7f5e3b
hotel,hotel,Royal Mamberamo Hotel,"Jl. Dr. Sam Ratulangi No.35, Kp. Baru, Distrik Sorong, Kota Sorong, Papua Bar. 98413","Kp. Baru, Distrik Sorong, Kota Sorong",PAPUA BARAT,98413.0,Indonesia,951325666.0,-0.871573,131.250864,https://maps.google.com/?cid=0x0:0xb5e32e36111d42eb
hotel,hotel,Penginapan Kofiyau,"46MX+QV7, Unnamed Road, Klasuur, Distrik Sorong, Kota Sorong, Papua Bar. 98411","Unnamed Road, Klasuur, Distrik Sorong, Kota Sorong",PAPUA BARAT,98411.0,Indonesia,82398017326.0,-0.86559,131.2496721,https://maps.google.com/?cid=0x0:0xfc32a1234a9c5c47
hotel,hotel,,,,PAPUA BARAT,,Indonesia,,,,https://maps.google.com/?cid=0x0:0x9b9160ef43d35fd5%7C/g/11clwlw14h%7Cid-ID
hotel,hotel,Hotel Rumberpon,"Jl. Selat Rumberpon No.10a, Remu Sel., Kecamatan Sorong Manoi, Kota Sorong, Papua Bar. 98412","Remu Sel., Kecamatan Sorong Manoi, Kota Sorong",PAPUA BARAT,98412.0,Indonesia,82238504121.0,-0.885408,131.2865376,https://maps.google.com/?cid=0x0:0xceee6e69b9e3daac
hotel,hotel,Soribo Hotel,"42HX+88F, Jl. Trikora Taman Ria, Wosi, Kec. Manokwari Bar., Kabupaten Manokwari, Papua Bar. 98312","Jl. Trikora Taman Ria, Wosi, Kec. Manokwari Bar., Kabupaten Manokwari",PAPUA BARAT,98312.0,Indonesia,82399358933.0,-0.8716912,134.0482957,https://maps.google.com/?cid=0x0:0x2fa30b65d0c34345
hotel,hotel,Fajar Roon Hotel,"Jl. Trikora Wosi, Wosi, Kec. Manokwari Bar., Kabupaten Manokwari, Papua Bar. 98312","Wosi, Kec. Manokwari Bar., Kabupaten Manokwari",PAPUA BARAT,98312.0,Indonesia,85333112338.0,-0.8680273,134.0564644,https://maps.google.com/?cid=0x0:0xec6cf3d20bba5444
hotel,hotel,Penginapan Andi Riona,"sebelum jembatan, Jl. Lukas Dailon, Waisai, Distrik Kota Waisai, Kabupaten Raja Ampat, Papua Bar. 98482","Jl. Lukas Dailon, Waisai, Distrik Kota Waisai, Kabupaten Raja Ampat",PAPUA BARAT,98482.0,Indonesia,82343625890.0,-0.4166334,130.8223743,https://maps.google.com/?cid=0x0:0x22162f9d5c4740b1
hotel,hotel,Hotel Batanta,"46GW+RMC, Kp. Baru, Distrik Sorong, Kota Sorong, Papua Bar. 98411","Kp. Baru, Distrik Sorong, Kota Sorong",PAPUA BARAT,98411.0,Indonesia,,-0.8729338,131.246629,https://maps.google.com/?cid=0x0:0xd18e7775760a134a
hotel,hotel,O,"Jl. Jend. A. Yani No.27, Malabutor, Kecamatan Sorong Manoi, Kota Sorong, Papua Bar. 98412","Malabutor, Kecamatan Sorong Manoi, Kota Sorong",PAPUA BARAT,98412.0,Indonesia,,-0.8827427,131.2828186,https://maps.google.com/?cid=0x0:0x9aebba5ddda67893
hotel,hotel,Pulau Doom,,,PAPUA BARAT,,Indonesia,,-0.8833333,131.2333333,https://maps.google.com/?cid=0x0:0x1db3a7ef2f666be6
hotel,Pembangunan Perumahan,Penginapan Otawar,"Jl. Manokwari - Bintuni, Muari, Kec. Oransbari, Kab. Manokwari Selatan, Papua Bar. 98321","Muari, Kec. Oransbari, Kab. Manokwari Selatan",PAPUA BARAT,98321.0,Indonesia,82329739902.0,-1.3459844,134.2173389,https://maps.google.com/?cid=0x0:0x77fd7aa44bf09bd4
hotel,Hotel,Rumah vero,"629R+PPJ, Jl. Manokwari - Bintuni, Yermatum, Soug Jaya, Kabupaten Teluk Wondama, Papua Bar.","Kabupaten Teluk Wondama, Papua Bar.",PAPUA BARAT,,Indonesia,,-1.7806682,134.0417722,https://maps.google.com/?cid=0x0:0xb7e590310add38ad
hotel,hotel,Duairi,"Kabupaten Teluk Wondama, Papua Bar.","Kabupaten Teluk Wondama, Papua Bar.",PAPUA BARAT,,Indonesia,,-2.5401452,134.5313569,https://maps.google.com/?cid=0x0:0x857fd4c80338c7d6
hotel,hotel,Iriati beach hotel,"6GM9+75F, Iriati, Distrik Wasior, Kabupaten Teluk Wondama, Papua Bar. 98362","Iriati, Distrik Wasior, Kabupaten Teluk Wondama",PAPUA BARAT,98362.0,Indonesia,,-2.767064,134.5164648,https://maps.google.com/?cid=0x0:0xfa321d24ce01d131
hotel,Hotel,Hotel Aitumieri Inn,"Unnamed Road, Maniwak, Distrik Wasior, Kabupaten Teluk Wondama, Papua Bar. 98362","Maniwak, Distrik Wasior, Kabupaten Teluk Wondama",PAPUA BARAT,98362.0,Indonesia,,-2.7390772,134.5129166,https://maps.google.com/?cid=0x0:0x5b9fd4b7f79b760a
hotel,Hotel,Hotel Darmaji,"7GF6+XFG, Wasior I, Distrik Wasior, Kabupaten Teluk Wondama, Papua Bar. 98362","Wasior I, Distrik Wasior, Kabupaten Teluk Wondama",PAPUA BARAT,98362.0,Indonesia,,-2.7250695,134.5111999,https://maps.google.com/?cid=0x0:0x4ea60dd7a3f67b6c
hotel,Hotel,Penginapan Dennis,"7GC5+X7Q, Unnamed Road, Wasior I, Distrik Wasior, Kabupaten Teluk Wondama, Papua Bar. 98362","Unnamed Road, Wasior I, Distrik Wasior, Kabupaten Teluk Wondama",PAPUA BARAT,98362.0,Indonesia,8127748586.0,-2.7275478,134.5082297,https://maps.google.com/?cid=0x0:0xd160f464305d5582
hotel,Penginapan,PENGINAPAN AGGRIS TALAGA,"7GF5+RF4, Unnamed Road, Wasior I, Distrik Wasior, Kabupaten Teluk Wondama, Papua Bar. 98362","Unnamed Road, Wasior I, Distrik Wasior, Kabupaten Teluk Wondama",PAPUA BARAT,98362.0,Indonesia,,-2.7254766,134.5086944,https://maps.google.com/?cid=0x0:0xf8172a2739c159a3
hotel,hotel,Stoltzhammar Island,"FV3M+89, Yopenggar, Kabupaten Teluk Wondama, Papua Bar.","Kabupaten Teluk Wondama, Papua Bar.",PAPUA BARAT,,Indonesia,,-2.546634,134.8834684,https://maps.google.com/?cid=0x0:0xb916c182621976b4
hotel,hotel,Papua Bar. 98362,"Kabupaten Teluk Wondama, Papua Bar.","Kabupaten Teluk Wondama, Papua Bar.",PAPUA BARAT,,Indonesia,,-2.9647961,134.4748018,https://maps.google.com/?cid=0x0:0xbea57e7dbf1a786f
hotel,Penginapan,Putra putri kilaz,"sp4, jlr No.8, Banjar Ausoy (Sp IV), Manimeri, Teluk Bintuni Regency, West Papua 98364","jlr No.8, Banjar Ausoy (Sp IV), Manimeri, Teluk Bintuni Regency",PAPUA BARAT,98364.0,Indonesia,,-2.0909406,133.6659712,https://maps.google.com/?cid=0x0:0x953c102341ff7e60
hotel,hotel,Penginapan Kabira,"Bintuni Tim., Distrik Bintuni, Kabupaten Teluk Bintuni, Papua Bar. 98364","Distrik Bintuni, Kabupaten Teluk Bintuni",PAPUA BARAT,98364.0,Indonesia,,-2.1181021,133.5336782,https://maps.google.com/?cid=0x0:0x6b4f5e6b8503872c
hotel,hotel,Papua Bar. 98364,"Kabupaten Teluk Bintuni, Papua Bar.","Kabupaten Teluk Bintuni, Papua Bar.",PAPUA BARAT,,Indonesia,,-1.8959987,133.6375314,https://maps.google.com/?cid=0x0:0x5d92307b98683ecf
hotel,Hotel,Penginapan Sahabat,"VGQH+526, Bintuni Bar., Distrik Bintuni, Kabupaten Teluk Bintuni, Papua Bar. 98364","Bintuni Bar., Distrik Bintuni, Kabupaten Teluk Bintuni",PAPUA BARAT,98364.0,Indonesia,85243205131.0,-2.1120878,133.5275186,https://maps.google.com/?cid=0x0:0xfc8bcbe54f2c984f
hotel,hotel,Steenkool Hotel  Resto,"WG53+P73, Wesiri, Distrik Bintuni, Kabupaten Teluk Bintuni, Papua Bar. 98364","Wesiri, Distrik Bintuni, Kabupaten Teluk Bintuni",PAPUA BARAT,98364.0,Indonesia,9553236660.0,-2.0907496,133.5031777,https://maps.google.com/?cid=0x0:0x69386e6d9549e17b
hotel,Otoritas Pelabuhan,Bintuni,"Bintuni Bar., Distrik Bintuni, Kabupaten Teluk Bintuni, Papua Bar.","Kabupaten Teluk Bintuni, Papua Bar.",PAPUA BARAT,,Indonesia,,-2.11287,133.52649,https://maps.google.com/?cid=0x0:0x6831237378f07fbd
hotel,Hotel,Hotel Alkahfi,"VGJP+8GJ, Bintuni Tim., Distrik Bintuni, Kabupaten Teluk Bintuni, Papua Bar. 98364","Bintuni Tim., Distrik Bintuni, Kabupaten Teluk Bintuni",PAPUA BARAT,98364.0,Indonesia,,-2.1191651,133.536272,https://maps.google.com/?cid=0x0:0x7e3dc39c16833745
hotel,hotel,Wamesa,"Kabupaten Teluk Wondama, Papua Bar.","Kabupaten Teluk Wondama, Papua Bar.",PAPUA BARAT,,Indonesia,,-2.1544139,134.0770134,https://maps.google.com/?cid=0x0:0x66173cbf11eb7129
hotel,hotel,Mahanaim Hotel dan Homestay Manokwari,"jln trikora kalidingin no 109, Wosi, Kec. Manokwari Bar., Kabupaten Manokwari, Papua Bar. 98312","Wosi, Kec. Manokwari Bar., Kabupaten Manokwari",PAPUA BARAT,98312.0,Indonesia,8124830147.0,-0.8699305,134.0471193,https://maps.google.com/?cid=0x0:0xeec6727952b4f3e6
hotel,hotel,Swiss Belhotel Manokwari,"Jl. Yos Sudarso Manokwari No.8, Manokwari Bar., Kec. Manokwari Bar., Kabupaten Manokwari, Papua Bar. 98312","Manokwari Bar., Kec. Manokwari Bar., Kabupaten Manokwari",PAPUA BARAT,98312.0,Indonesia,8114854000.0,-0.8572937,134.0672125,https://maps.google.com/?cid=0x0:0x92c98d5e96ee2a8f
hotel,hotel,Aston Niu Manokwari,"Sogun Hill, Jl. Drs Esau Sesa No.3 Blok B, Sowi, Distrik Manokwari, Kabupaten Manokwari, Papua Bar. 98315","Jl. Drs Esau Sesa No.3 Blok B, Sowi, Distrik Manokwari, Kabupaten Manokwari",PAPUA BARAT,98315.0,Indonesia,81369878787.0,-0.8978109,134.0416499,https://maps.google.com/?cid=0x0:0xe96b706fef94b3a2
hotel,hotel,,,,PAPUA BARAT,,Indonesia,,,,https://maps.google.com/?cid=0x0:0xe96b706fef94b3a2%7C/g/120jr49w%7Cid-ID
hotel,hotel,Belagri Hotel and Restaurant,"Jl. Raja Ampat No.1, Kp. Baru, Distrik Sorong, Kota Sorong, Papua Bar. 98413","Kp. Baru, Distrik Sorong, Kota Sorong",PAPUA BARAT,98413.0,Indonesia,,-0.8704329,131.2517604,https://maps.google.com/?cid=0x0:0xb0064be8b2a3c2c8
hotel,hotel,Waisai Beach Hotel (WBH),"Waisai, Kec. Waigeo Sel., Kabupaten Raja Ampat, Papua Bar. 98482","Kec. Waigeo Sel., Kabupaten Raja Ampat",PAPUA BARAT,98482.0,Indonesia,81247553799.0,-0.4281731,130.8199415,https://maps.google.com/?cid=0x0:0x87348b8c39be5af1
hotel,hotel,M Hotel Sorong,"Jl. Sungai Maruni, Klawuyuk, Kec. Sorong Utara, Kota Sorong, Papua Bar. 98416","Klawuyuk, Kec. Sorong Utara, Kota Sorong",PAPUA BARAT,98416.0,Indonesia,8114863111.0,-0.8858638,131.3227746,https://maps.google.com/?cid=0x0:0x9b9160ef43d35fd5
hotel,hotel,,,,PAPUA BARAT,,Indonesia,,,,https://maps.google.com/?cid=0x0:0x9b9160ef43d35fd5%7C/g/11clwlw14h%7Cid-ID
hotel,hotel,Hotel Raja Ampat,"Jl. Fundar Sakela No.1, Waisai, City, Kabupaten Raja Ampat, Papua Bar. 98482","Waisai, City, Kabupaten Raja Ampat",PAPUA BARAT,98482.0,Indonesia,81298260747.0,-0.4224417,130.8199523,https://maps.google.com/?cid=0x0:0x3bda491b055b084
hotel,hotel,Valdos Hotel Manokwari,"43J5+F44, Jl. Trikora Wosi, Wosi, Kec. Manokwari Bar., Kabupaten Manokwari, Papua Bar. 98312","Jl. Trikora Wosi, Wosi, Kec. Manokwari Bar., Kabupaten Manokwari",PAPUA BARAT,98312.0,Indonesia,986213044.0,-0.8688721,134.0578193,https://maps.google.com/?cid=0x0:0x60b28ba9ef2d716e
hotel,hotel,Hotel Marannu,"HRG9+842, Waisai, Kec. Waigeo Sel., Kabupaten Raja Ampat, Papua Bar. 98482","Waisai, Kec. Waigeo Sel., Kabupaten Raja Ampat",PAPUA BARAT,98482.0,Indonesia,81258290891.0,-0.4242312,130.8177684,https://maps.google.com/?cid=0x0:0x4bfcf0ab6dd8ceba
hotel,hotel,Hotel HI,"38C2+2X4, Fak Fak Selatan, Distrik Fakfak, Kabupaten Fakfak, Papua Bar. 98651","Fak Fak Selatan, Distrik Fakfak, Kabupaten Fakfak",PAPUA BARAT,98651.0,Indonesia,8888695878.0,-2.9299949,132.3024558,https://maps.google.com/?cid=0x0:0xa6762a3966976144
hotel,hotel,Fajar Roon Hotel,"Jl. Trikora Wosi, Wosi, Kec. Manokwari Bar., Kabupaten Manokwari, Papua Bar. 98312","Wosi, Kec. Manokwari Bar., Kabupaten Manokwari",PAPUA BARAT,98312.0,Indonesia,85333112338.0,-0.8680273,134.0564644,https://maps.google.com/?cid=0x0:0xec6cf3d20bba5444
hotel,hotel,Distrik Wasior,"Kabupaten Teluk Wondama, Papua Bar.","Kabupaten Teluk Wondama, Papua Bar.",PAPUA BARAT,,Indonesia,,-2.726099,134.506737,https://maps.google.com/?cid=0x0:0x54655a71cd072b6e
hotel,hotel,Hotel Maureen,"46GR+P4R, Jl. Sudirman, Serui Kota, Kec. Yapen Sel., Kabupaten Kepulauan Yapen, Papua 98213","Jl. Sudirman, Serui Kota, Kec. Yapen Sel., Kabupaten Kepulauan Yapen",PAPUA BARAT,98213.0,Indonesia,81354165909.0,-1.8731433,136.2401965,https://maps.google.com/?cid=0x0:0xb028b61c6c000d80
hotel,hotel,O,"Jl. Jend. A. Yani No.27, Malabutor, Kecamatan Sorong Manoi, Kota Sorong, Papua Bar. 98412","Malabutor, Kecamatan Sorong Manoi, Kota Sorong",PAPUA BARAT,98412.0,Indonesia,,-0.8827427,131.2828186,https://maps.google.com/?cid=0x0:0x9aebba5ddda67893
hotel,Hotel,Hotel Darmaji,"7GF6+XFG, Wasior I, Distrik Wasior, Kabupaten Teluk Wondama, Papua Bar. 98362","Wasior I, Distrik Wasior, Kabupaten Teluk Wondama",PAPUA BARAT,98362.0,Indonesia,,-2.7250695,134.5111999,https://maps.google.com/?cid=0x0:0x4ea60dd7a3f67b6c
hotel,Hotel,Hotel Krisna,"Jalan Raya, Iriati, Distrik Wasior, Kabupaten Teluk Wondama, Papua Bar. 98362","Iriati, Distrik Wasior, Kabupaten Teluk Wondama",PAPUA BARAT,98362.0,Indonesia,82152870479.0,-2.7642369,134.5164114,https://maps.google.com/?cid=0x0:0xacd390d283857065
hotel,Hotel,Waaior,"7H9M+FJ8 Pegunungan Wondiwoi, Maniwak, Distrik Wasior, Kabupaten Teluk Wondama, Papua Bar. 98362","Maniwak, Distrik Wasior, Kabupaten Teluk Wondama",PAPUA BARAT,98362.0,Indonesia,,-2.7313446,134.5840769,https://maps.google.com/?cid=0x0:0x869e3afbc382f862
hotel,Hotel,Hotel Aitumieri Inn,"Unnamed Road, Maniwak, Distrik Wasior, Kabupaten Teluk Wondama, Papua Bar. 98362","Maniwak, Distrik Wasior, Kabupaten Teluk Wondama",PAPUA BARAT,98362.0,Indonesia,,-2.7390772,134.5129166,https://maps.google.com/?cid=0x0:0x5b9fd4b7f79b760a
hotel,Hotel,Loster,"Jalan poros wasior rasiei, Iriati, Distrik Wasior, Kabupaten Teluk Wondama, Papua Bar. 98362","Iriati, Distrik Wasior, Kabupaten Teluk Wondama",PAPUA BARAT,98362.0,Indonesia,82253461274.0,-2.7654299,134.5166632,https://maps.google.com/?cid=0x0:0x6990f3b557bc2de3
hotel,Komplek perumahan,Waskam,"7GG4+F77, Wasior II, Distrik Wasior, Kabupaten Teluk Wondama, Papua Bar. 98362","Wasior II, Distrik Wasior, Kabupaten Teluk Wondama",PAPUA BARAT,98362.0,Indonesia,,-2.7235102,134.5052923,https://maps.google.com/?cid=0x0:0xbd29e95714ae7618
hotel,Hotel,Penginapan Dennis,"7GC5+X7Q, Unnamed Road, Wasior I, Distrik Wasior, Kabupaten Teluk Wondama, Papua Bar. 98362","Unnamed Road, Wasior I, Distrik Wasior, Kabupaten Teluk Wondama",PAPUA BARAT,98362.0,Indonesia,8127748586.0,-2.7275478,134.5082297,https://maps.google.com/?cid=0x0:0xd160f464305d5582
hotel,Penginapan,PENGINAPAN AGGRIS TALAGA,"7GF5+RF4, Unnamed Road, Wasior I, Distrik Wasior, Kabupaten Teluk Wondama, Papua Bar. 98362","Unnamed Road, Wasior I, Distrik Wasior, Kabupaten Teluk Wondama",PAPUA BARAT,98362.0,Indonesia,,-2.7254766,134.5086944,https://maps.google.com/?cid=0x0:0xf8172a2739c159a3
hotel,Hotel,Wasior,"7GF4+HM9, Wasior I, Distrik Wasior, Kabupaten Teluk Wondama, Papua Bar. 98362","Wasior I, Distrik Wasior, Kabupaten Teluk Wondama",PAPUA BARAT,98362.0,Indonesia,,-2.726099,134.506737,https://maps.google.com/?cid=0x0:0x3ae62cf13b762208
hotel,Hotel,Silber's,"7G77+Q5R, Maniwak, Distrik Wasior, Kabupaten Teluk Wondama, Papua Bar. 98362","Maniwak, Distrik Wasior, Kabupaten Teluk Wondama",PAPUA BARAT,98362.0,Indonesia,,-2.7355221,134.512888,https://maps.google.com/?cid=0x0:0x322d839d6d20e893
hotel,Tujuan Wisata,Pantai Kubiari,"5GVC+68J, Isuy, Distrik Wondiboy, Kabupaten Teluk Wondama, Papua Bar. 98362","Isuy, Distrik Wondiboy, Kabupaten Teluk Wondama",PAPUA BARAT,98362.0,Indonesia,8132814009.0,-2.806914,134.5207643,https://maps.google.com/?cid=0x0:0xdcb1950193106179
hotel,hotel,Kec. Windesi,"Kabupaten Teluk Wondama, Papua Bar.","Kabupaten Teluk Wondama, Papua Bar.",PAPUA BARAT,,Indonesia,,-2.601077,134.1340439,https://maps.google.com/?cid=0x0:0x9b9a2ca4d233e89d
hotel,hotel,Mahanaim Hotel dan Homestay Manokwari,"jln trikora kalidingin no 109, Wosi, Kec. Manokwari Bar., Kabupaten Manokwari, Papua Bar. 98312","Wosi, Kec. Manokwari Bar., Kabupaten Manokwari",PAPUA BARAT,98312.0,Indonesia,8124830147.0,-0.8699305,134.0471193,https://maps.google.com/?cid=0x0:0xeec6727952b4f3e6
hotel,hotel,Aston Sorong Hotel  Conference Center,"476V+J9X, Jl. Basuki Rahmat, Malaingkedi, Kec. Sorong Utara, Kota Sorong, Papua Bar. 98412","Jl. Basuki Rahmat, Malaingkedi, Kec. Sorong Utara, Kota Sorong",PAPUA BARAT,98412.0,Indonesia,81148500888.0,-0.8887467,131.2931592,https://maps.google.com/?cid=0x0:0x110a6a5f0a67a7f7
hotel,hotel,,,,PAPUA BARAT,,Indonesia,,,,https://maps.google.com/?cid=0x0:0xe96b706fef94b3a2%7C/g/120jr49w%7Cid-ID
hotel,hotel,Waisai Beach Hotel (WBH),"Waisai, Kec. Waigeo Sel., Kabupaten Raja Ampat, Papua Bar. 98482","Kec. Waigeo Sel., Kabupaten Raja Ampat",PAPUA BARAT,98482.0,Indonesia,81247553799.0,-0.4281731,130.8199415,https://maps.google.com/?cid=0x0:0x87348b8c39be5af1
hotel,hotel,The ignislo sorong hotel,"Basuki Rahmat Street KM 7 Sorong, Malaingkedi, Sorong Utara, Sorong City, West Papua 98412","Malaingkedi, Sorong Utara, Sorong City",PAPUA BARAT,98412.0,Indonesia,,-0.8885403,131.2925628,https://maps.google.com/?cid=0x0:0x9992b24f2542a546
hotel,hotel,Kasuari Valley Beach Resort Sorong,"Tj. Kasuari, Distrik Sorong Barat, Kota Sorong, Papua Bar. 98411","Distrik Sorong Barat, Kota Sorong",PAPUA BARAT,98411.0,Indonesia,81247423939.0,-0.8229453,131.2259207,https://maps.google.com/?cid=0x0:0x7ae87156c62b6490
hotel,hotel,Darefan Hotel Sorong,"Jl. Selat Morotai, Remu Sel., Kecamatan Sorong Manoi, Kota Sorong, Papua Bar. 98412","Remu Sel., Kecamatan Sorong Manoi, Kota Sorong",PAPUA BARAT,98412.0,Indonesia,8114868887.0,-0.8877595,131.2893739,https://maps.google.com/?cid=0x0:0x5709bb2ac9cbd24
hotel,hotel,35 Inn,"476C+RFX, Jl. Ferry, Malawei, Distrik Sorong, Kota Sorong, Papua Bar. 98412","Jl. Ferry, Malawei, Distrik Sorong, Kota Sorong",PAPUA BARAT,98412.0,Indonesia,,-0.8878893,131.271243,https://maps.google.com/?cid=0x0:0xb276478752dcd2b2
hotel,hotel,Hotel Indah,"Bar, Kp. Baru, Distrik Sorong, Kota Sorong, Papua Bar. 98411","Kp. Baru, Distrik Sorong, Kota Sorong",PAPUA BARAT,98411.0,Indonesia,8124836738.0,-0.8754986,131.2441245,https://maps.google.com/?cid=0x0:0xfdd1fb50f773e5d1
hotel,hotel,Waigeo Villa,"Waisai, Kec. Waigeo Sel., Kabupaten Raja Ampat, Papua Bar. 98482","Kec. Waigeo Sel., Kabupaten Raja Ampat",PAPUA BARAT,98482.0,Indonesia,81247553799.0,-0.4365115,130.7794821,https://maps.google.com/?cid=0x0:0xd79d1ba9e325d4fc
hotel,hotel,Penginapan Andi Riona,"sebelum jembatan, Jl. Lukas Dailon, Waisai, Distrik Kota Waisai, Kabupaten Raja Ampat, Papua Bar. 98482","Jl. Lukas Dailon, Waisai, Distrik Kota Waisai, Kabupaten Raja Ampat",PAPUA BARAT,98482.0,Indonesia,82343625890.0,-0.4166334,130.8223743,https://maps.google.com/?cid=0x0:0x22162f9d5c4740b1
hotel,hotel,Intsia Beach Hotel,"Jl. Walter Monginsidi No.7, Fandoi, Kec. Biak Kota, Kabupaten Biak Numfor, Papua 98111","Fandoi, Kec. Biak Kota, Kabupaten Biak Numfor",PAPUA BARAT,98111.0,Indonesia,98121891.0,-1.1862086,136.0837686,https://maps.google.com/?cid=0x0:0x564eb7930861f544
hotel,hotel,Hotel Batanta,"46GW+RMC, Kp. Baru, Distrik Sorong, Kota Sorong, Papua Bar. 98411","Kp. Baru, Distrik Sorong, Kota Sorong",PAPUA BARAT,98411.0,Indonesia,,-0.8729338,131.246629,https://maps.google.com/?cid=0x0:0xd18e7775760a134a
hotel,hotel,Kec. Windesi,"Kabupaten Teluk Wondama, Papua Bar.","Kabupaten Teluk Wondama, Papua Bar.",PAPUA BARAT,,Indonesia,,-2.601077,134.1340439,https://maps.google.com/?cid=0x0:0x9b9a2ca4d233e89d
hotel,hotel,Waisai Beach Hotel (WBH),"Waisai, Kec. Waigeo Sel., Kabupaten Raja Ampat, Papua Bar. 98482","Kec. Waigeo Sel., Kabupaten Raja Ampat",PAPUA BARAT,98482.0,Indonesia,81247553799.0,-0.4281731,130.8199415,https://maps.google.com/?cid=0x0:0x87348b8c39be5af1
hotel,hotel,Mahanaim Hotel dan Homestay Manokwari,"jln trikora kalidingin no 109, Wosi, Kec. Manokwari Bar., Kabupaten Manokwari, Papua Bar. 98312","Wosi, Kec. Manokwari Bar., Kabupaten Manokwari",PAPUA BARAT,98312.0,Indonesia,8124830147.0,-0.8699305,134.0471193,https://maps.google.com/?cid=0x0:0xeec6727952b4f3e6
hotel,hotel,Asana Biak Papua,"Jl. M Yamin No.04, Mandala, Kec. Biak Kota, Kabupaten Biak Numfor, Papua 98111","Mandala, Kec. Biak Kota, Kabupaten Biak Numfor",PAPUA BARAT,98111.0,Indonesia,8114743111.0,-1.1918619,136.1049095,https://maps.google.com/?cid=0x0:0x94321ded15c5a4a3
hotel,hotel,HOMESTAY KARAWATU INN,"R39H+HC6, Jl. Dahlia, Burokub, Kec. Biak Kota, Kabupaten Biak Numfor, Papua 98111","Jl. Dahlia, Burokub, Kec. Biak Kota, Kabupaten Biak Numfor",PAPUA BARAT,98111.0,Indonesia,9812911069.0,-1.1810921,136.0785209,https://maps.google.com/?cid=0x0:0xa2c4864ec378cf15
hotel,hotel,Waigeo Villa,"Waisai, Kec. Waigeo Sel., Kabupaten Raja Ampat, Papua Bar. 98482","Kec. Waigeo Sel., Kabupaten Raja Ampat",PAPUA BARAT,98482.0,Indonesia,81247553799.0,-0.4365115,130.7794821,https://maps.google.com/?cid=0x0:0xd79d1ba9e325d4fc
hotel,hotel,Penginapan Andi Riona,"sebelum jembatan, Jl. Lukas Dailon, Waisai, Distrik Kota Waisai, Kabupaten Raja Ampat, Papua Bar. 98482","Jl. Lukas Dailon, Waisai, Distrik Kota Waisai, Kabupaten Raja Ampat",PAPUA BARAT,98482.0,Indonesia,82343625890.0,-0.4166334,130.8223743,https://maps.google.com/?cid=0x0:0x22162f9d5c4740b1
hotel,hotel,Intsia Beach Hotel,"Jl. Walter Monginsidi No.7, Fandoi, Kec. Biak Kota, Kabupaten Biak Numfor, Papua 98111","Fandoi, Kec. Biak Kota, Kabupaten Biak Numfor",PAPUA BARAT,98111.0,Indonesia,98121891.0,-1.1862086,136.0837686,https://maps.google.com/?cid=0x0:0x564eb7930861f544
hotel,hotel,O,"Jl. Jend. A. Yani No.27, Malabutor, Kecamatan Sorong Manoi, Kota Sorong, Papua Bar. 98412","Malabutor, Kecamatan Sorong Manoi, Kota Sorong",PAPUA BARAT,98412.0,Indonesia,,-0.8827427,131.2828186,https://maps.google.com/?cid=0x0:0x9aebba5ddda67893
hotel,hotel,Penginapan lestari,"Jl.Yan Mamoribo No.80, Mamoribo, Waisai, Kabupaten Biak Numfor, Papua 98481","Mamoribo, Waisai, Kabupaten Biak Numfor",PAPUA BARAT,98481.0,Indonesia,2198826634.0,-0.976628,135.83272,https://maps.google.com/?cid=0x0:0x335024486992d26
hotel,Hotel,Hotel Krisna,"Jalan Raya, Iriati, Distrik Wasior, Kabupaten Teluk Wondama, Papua Bar. 98362","Iriati, Distrik Wasior, Kabupaten Teluk Wondama",PAPUA BARAT,98362.0,Indonesia,82152870479.0,-2.7642369,134.5164114,https://maps.google.com/?cid=0x0:0xacd390d283857065
hotel,Hotel,Penginapan Dennis,"7GC5+X7Q, Unnamed Road, Wasior I, Distrik Wasior, Kabupaten Teluk Wondama, Papua Bar. 98362","Unnamed Road, Wasior I, Distrik Wasior, Kabupaten Teluk Wondama",PAPUA BARAT,98362.0,Indonesia,8127748586.0,-2.7275478,134.5082297,https://maps.google.com/?cid=0x0:0xd160f464305d5582
hotel,hotel,Iriati beach hotel,"6GM9+75F, Iriati, Distrik Wasior, Kabupaten Teluk Wondama, Papua Bar. 98362","Iriati, Distrik Wasior, Kabupaten Teluk Wondama",PAPUA BARAT,98362.0,Indonesia,,-2.767064,134.5164648,https://maps.google.com/?cid=0x0:0xfa321d24ce01d131
hotel,Hotel,Hotel Darmaji,"7GF6+XFG, Wasior I, Distrik Wasior, Kabupaten Teluk Wondama, Papua Bar. 98362","Wasior I, Distrik Wasior, Kabupaten Teluk Wondama",PAPUA BARAT,98362.0,Indonesia,,-2.7250695,134.5111999,https://maps.google.com/?cid=0x0:0x4ea60dd7a3f67b6c
hotel,hotel,Papua Bar. 98361,"Kabupaten Teluk Wondama, Papua Bar.","Kabupaten Teluk Wondama, Papua Bar.",PAPUA BARAT,,Indonesia,,-2.4815085,134.2099791,https://maps.google.com/?cid=0x0:0xe298b41c3e32d0eb
hotel,hotel,Swiss Belhotel Manokwari,"Jl. Yos Sudarso Manokwari No.8, Manokwari Bar., Kec. Manokwari Bar., Kabupaten Manokwari, Papua Bar. 98312","Manokwari Bar., Kec. Manokwari Bar., Kabupaten Manokwari",PAPUA BARAT,98312.0,Indonesia,8114854000.0,-0.8572937,134.0672125,https://maps.google.com/?cid=0x0:0x92c98d5e96ee2a8f
hotel,hotel,,,,PAPUA BARAT,,Indonesia,,,,https://maps.google.com/?cid=0x0:0x92c98d5e96ee2a8f%7C/g/1yl475f47%7Cid-ID
hotel,hotel,,,,PAPUA BARAT,,Indonesia,,,,https://maps.google.com/?cid=0x0:0xe96b706fef94b3a2%7C/g/120jr49w%7Cid-ID
hotel,hotel,Mahanaim Hotel dan Homestay Manokwari,"jln trikora kalidingin no 109, Wosi, Kec. Manokwari Bar., Kabupaten Manokwari, Papua Bar. 98312","Wosi, Kec. Manokwari Bar., Kabupaten Manokwari",PAPUA BARAT,98312.0,Indonesia,8124830147.0,-0.8699305,134.0471193,https://maps.google.com/?cid=0x0:0xeec6727952b4f3e6
hotel,hotel,The ignislo sorong hotel,"Basuki Rahmat Street KM 7 Sorong, Malaingkedi, Sorong Utara, Sorong City, West Papua 98412","Malaingkedi, Sorong Utara, Sorong City",PAPUA BARAT,98412.0,Indonesia,,-0.8885403,131.2925628,https://maps.google.com/?cid=0x0:0x9992b24f2542a546
hotel,hotel,Waisai Beach Hotel (WBH),"Waisai, Kec. Waigeo Sel., Kabupaten Raja Ampat, Papua Bar. 98482","Kec. Waigeo Sel., Kabupaten Raja Ampat",PAPUA BARAT,98482.0,Indonesia,81247553799.0,-0.4281731,130.8199415,https://maps.google.com/?cid=0x0:0x87348b8c39be5af1
hotel,hotel,Kasuari Valley Beach Resort Sorong,"Tj. Kasuari, Distrik Sorong Barat, Kota Sorong, Papua Bar. 98411","Distrik Sorong Barat, Kota Sorong",PAPUA BARAT,98411.0,Indonesia,81247423939.0,-0.8229453,131.2259207,https://maps.google.com/?cid=0x0:0x7ae87156c62b6490
hotel,hotel,Penginapan Kofiyau,"46MX+QV7, Unnamed Road, Klasuur, Distrik Sorong, Kota Sorong, Papua Bar. 98411","Unnamed Road, Klasuur, Distrik Sorong, Kota Sorong",PAPUA BARAT,98411.0,Indonesia,82398017326.0,-0.86559,131.2496721,https://maps.google.com/?cid=0x0:0xfc32a1234a9c5c47
hotel,hotel,Steenkool Hotel  Resto,"WG53+P73, Wesiri, Distrik Bintuni, Kabupaten Teluk Bintuni, Papua Bar. 98364","Wesiri, Distrik Bintuni, Kabupaten Teluk Bintuni",PAPUA BARAT,98364.0,Indonesia,9553236660.0,-2.0907496,133.5031777,https://maps.google.com/?cid=0x0:0x69386e6d9549e17b
hotel,hotel,35 Inn,"476C+RFX, Jl. Ferry, Malawei, Distrik Sorong, Kota Sorong, Papua Bar. 98412","Jl. Ferry, Malawei, Distrik Sorong, Kota Sorong",PAPUA BARAT,98412.0,Indonesia,,-0.8878893,131.271243,https://maps.google.com/?cid=0x0:0xb276478752dcd2b2
hotel,hotel,Aries Hotel,"43HH+X36, Jl. Bhayangkara, Manokwari Tim., Kec. Manokwari Bar., Kabupaten Manokwari, Papua Bar. 98312","Jl. Bhayangkara, Manokwari Tim., Kec. Manokwari Bar., Kabupaten Manokwari",PAPUA BARAT,98312.0,Indonesia,85348704163.0,-0.8700859,134.077642,https://maps.google.com/?cid=0x0:0x3725d1ade6fcfeff
hotel,hotel,Hotel HI,"38C2+2X4, Fak Fak Selatan, Distrik Fakfak, Kabupaten Fakfak, Papua Bar. 98651","Fak Fak Selatan, Distrik Fakfak, Kabupaten Fakfak",PAPUA BARAT,98651.0,Indonesia,8888695878.0,-2.9299949,132.3024558,https://maps.google.com/?cid=0x0:0xa6762a3966976144
hotel,hotel,Intsia Beach Hotel,"Jl. Walter Monginsidi No.7, Fandoi, Kec. Biak Kota, Kabupaten Biak Numfor, Papua 98111","Fandoi, Kec. Biak Kota, Kabupaten Biak Numfor",PAPUA BARAT,98111.0,Indonesia,98121891.0,-1.1862086,136.0837686,https://maps.google.com/?cid=0x0:0x564eb7930861f544
hotel,hotel,Wondiboi,"Distrik Wondiboy, Kabupaten Teluk Wondama, Papua Bar.","Kabupaten Teluk Wondama, Papua Bar.",PAPUA BARAT,,Indonesia,,-2.8046444,134.5760814,https://maps.google.com/?cid=0x0:0xe68e45ccb2c17a3e
hotel,hotel,Iriati beach hotel,"6GM9+75F, Iriati, Distrik Wasior, Kabupaten Teluk Wondama, Papua Bar. 98362","Iriati, Distrik Wasior, Kabupaten Teluk Wondama",PAPUA BARAT,98362.0,Indonesia,,-2.767064,134.5164648,https://maps.google.com/?cid=0x0:0xfa321d24ce01d131
hotel,Hotel,Hotel Darmaji,"7GF6+XFG, Wasior I, Distrik Wasior, Kabupaten Teluk Wondama, Papua Bar. 98362","Wasior I, Distrik Wasior, Kabupaten Teluk Wondama",PAPUA BARAT,98362.0,Indonesia,,-2.7250695,134.5111999,https://maps.google.com/?cid=0x0:0x4ea60dd7a3f67b6c
hotel,Hotel,Hotel Aitumieri Inn,"Unnamed Road, Maniwak, Distrik Wasior, Kabupaten Teluk Wondama, Papua Bar. 98362","Maniwak, Distrik Wasior, Kabupaten Teluk Wondama",PAPUA BARAT,98362.0,Indonesia,,-2.7390772,134.5129166,https://maps.google.com/?cid=0x0:0x5b9fd4b7f79b760a
hotel,Hotel,Penginapan Dennis,"7GC5+X7Q, Unnamed Road, Wasior I, Distrik Wasior, Kabupaten Teluk Wondama, Papua Bar. 98362","Unnamed Road, Wasior I, Distrik Wasior, Kabupaten Teluk Wondama",PAPUA BARAT,98362.0,Indonesia,8127748586.0,-2.7275478,134.5082297,https://maps.google.com/?cid=0x0:0xd160f464305d5582
hotel,Penginapan,PENGINAPAN AGGRIS TALAGA,"7GF5+RF4, Unnamed Road, Wasior I, Distrik Wasior, Kabupaten Teluk Wondama, Papua Bar. 98362","Unnamed Road, Wasior I, Distrik Wasior, Kabupaten Teluk Wondama",PAPUA BARAT,98362.0,Indonesia,,-2.7254766,134.5086944,https://maps.google.com/?cid=0x0:0xf8172a2739c159a3
hotel,Hotel,Wasior,"7GF4+HM9, Wasior I, Distrik Wasior, Kabupaten Teluk Wondama, Papua Bar. 98362","Wasior I, Distrik Wasior, Kabupaten Teluk Wondama",PAPUA BARAT,98362.0,Indonesia,,-2.726099,134.506737,https://maps.google.com/?cid=0x0:0x3ae62cf13b762208
hotel,Tujuan Wisata,Pantai Kubiari,"5GVC+68J, Isuy, Distrik Wondiboy, Kabupaten Teluk Wondama, Papua Bar. 98362","Isuy, Distrik Wondiboy, Kabupaten Teluk Wondama",PAPUA BARAT,98362.0,Indonesia,8132814009.0,-2.806914,134.5207643,https://maps.google.com/?cid=0x0:0xdcb1950193106179
restaurant,restaurant,Kuri Wamesa,"Kabupaten Teluk Wondama, Papua Bar.","Kabupaten Teluk Wondama, Papua Bar.",PAPUA BARAT,,Indonesia,,-2.8551699,134.3236557,https://maps.google.com/?cid=0x0:0x8c3430e4162f73b3
restaurant,Restoran,RUMAH MAKAN KRISNA,"Jln poros, Iriati, Distrik Wasior, Kabupaten Teluk Wondama, Papua Bar. 98362","Iriati, Distrik Wasior, Kabupaten Teluk Wondama",PAPUA BARAT,98362.0,Indonesia,81247570651.0,-2.7643369,134.516016,https://maps.google.com/?cid=0x0:0x96299447fa137530
restaurant,Restoran,Warung Remoekss,"6GJ9+F7V, Iriati, Distrik Wasior, Kabupaten Teluk Wondama, Papua Bar. 98362","Iriati, Distrik Wasior, Kabupaten Teluk Wondama",PAPUA BARAT,98362.0,Indonesia,,-2.7652901,134.5166022,https://maps.google.com/?cid=0x0:0x4ea4f0c3af2f5214
restaurant,Restoran,WM. Patemon,"7GF4+9P5, Wasior I, Distrik Wasior, Kabupaten Teluk Wondama, Papua Bar.","Kabupaten Teluk Wondama, Papua Bar.",PAPUA BARAT,,Indonesia,82289813708.0,-2.8551699,134.3236557,https://maps.google.com/?cid=0x0:0x7a211829fdecdecf
restaurant,Restoran,GOLDEN STAR,"6GM8+RMM, Unnamed Road, Iriati, Distrik Wasior, Kabupaten Teluk Wondama, Papua Bar. 98362","Unnamed Road, Iriati, Distrik Wasior, Kabupaten Teluk Wondama",PAPUA BARAT,98362.0,Indonesia,,-2.7654177,134.5166783,https://maps.google.com/?cid=0x0:0xe3e5d794d5503d41
restaurant,Restoran,Warung Makan Bunda,"Maniwak, Distrik Wasior, Kabupaten Teluk Wondama, Papua Bar. 98362","Distrik Wasior, Kabupaten Teluk Wondama",PAPUA BARAT,98362.0,Indonesia,81344488876.0,-2.7576822,134.5106162,https://maps.google.com/?cid=0x0:0xd15a898f639d391b
restaurant,Dapur Umum,Warung Makan Josua,"6GR6+R4Q, Maniwak, Distrik Wasior, Kabupaten Teluk Wondama, Papua Bar. 98362","Maniwak, Distrik Wasior, Kabupaten Teluk Wondama",PAPUA BARAT,98362.0,Indonesia,81356713288.0,-2.7579243,134.5103664,https://maps.google.com/?cid=0x0:0xf35401302502710f
restaurant,Restoran,Warung Makan Gaul,"7GC5+V5W, Wasior I, Distrik Wasior, Kabupaten Teluk Wondama, Papua Bar. 98362","Wasior I, Distrik Wasior, Kabupaten Teluk Wondama",PAPUA BARAT,98362.0,Indonesia,,-2.72777,134.5079541,https://maps.google.com/?cid=0x0:0xdb9de62d01f8fe66
restaurant,Restoran,Warung Siliwangi,"7G25+QC8, Maniwak, Distrik Wasior, Kabupaten Teluk Wondama, Papua Bar. 98362","Maniwak, Distrik Wasior, Kabupaten Teluk Wondama",PAPUA BARAT,98362.0,Indonesia,,-2.7480833,134.5085633,https://maps.google.com/?cid=0x0:0x3764a19c356243c8
restaurant,Komplek perumahan,Warung Makan Kedai Masabuai,"7G96+VH4, Wasior I, Distrik Wasior, Kabupaten Teluk Wondama, Papua Bar. 98362","Wasior I, Distrik Wasior, Kabupaten Teluk Wondama",PAPUA BARAT,98362.0,Indonesia,82139920848.0,-2.7303721,134.5114571,https://maps.google.com/?cid=0x0:0xc9f8a2a32007718
restaurant,Tujuan Wisata,Wondama,"48VF+WFJ, Iriati, Kuri Wamesa, Kabupaten Teluk Wondama, Papua Bar.","Kabupaten Teluk Wondama, Papua Bar.",PAPUA BARAT,,Indonesia,85319092604.0,-2.8551699,134.3236557,https://maps.google.com/?cid=0x0:0x8ce6de66c8bd402f
restaurant,Restoran,Warung Makan Sari Rizky,"5GPJ+JR4, Isuy, Distrik Wondiboy, Kabupaten Teluk Wondama, Papua Bar. 98362","Isuy, Distrik Wondiboy, Kabupaten Teluk Wondama",PAPUA BARAT,98362.0,Indonesia,82399259382.0,-2.8134923,134.5320896,https://maps.google.com/?cid=0x0:0xb6902b1b17306d14
restaurant,Dapur Umum,Dekri,"7G47+H7W, Maniwak, Distrik Wasior, Kabupaten Teluk Wondama, Papua Bar. 98362","Maniwak, Distrik Wasior, Kabupaten Teluk Wondama",PAPUA BARAT,98362.0,Indonesia,,-2.7435086,134.5131962,https://maps.google.com/?cid=0x0:0xd44d6780f949dd58
restaurant,Restoran,Wr. Makan sarwana,"6GX5+H59, Maniwak, Distrik Wasior, Kabupaten Teluk Wondama, Papua Bar. 98362","Maniwak, Distrik Wasior, Kabupaten Teluk Wondama",PAPUA BARAT,98362.0,Indonesia,85321238899.0,-2.7510959,134.5079773,https://maps.google.com/?cid=0x0:0xf64913332c5accca
restaurant,restaurant,Papua Bar. 98362,"Kabupaten Teluk Wondama, Papua Bar.","Kabupaten Teluk Wondama, Papua Bar.",PAPUA BARAT,,Indonesia,,-2.9647961,134.4748018,https://maps.google.com/?cid=0x0:0xbea57e7dbf1a786f
restaurant,Restoran,RUMAH MAKAN KRISNA,"Jln poros, Iriati, Distrik Wasior, Kabupaten Teluk Wondama, Papua Bar. 98362","Iriati, Distrik Wasior, Kabupaten Teluk Wondama",PAPUA BARAT,98362.0,Indonesia,81247570651.0,-2.7643369,134.516016,https://maps.google.com/?cid=0x0:0x96299447fa137530
restaurant,Restoran,Warung Remoekss,"6GJ9+F7V, Iriati, Distrik Wasior, Kabupaten Teluk Wondama, Papua Bar. 98362","Iriati, Distrik Wasior, Kabupaten Teluk Wondama",PAPUA BARAT,98362.0,Indonesia,,-2.7652901,134.5166022,https://maps.google.com/?cid=0x0:0x4ea4f0c3af2f5214
restaurant,Restoran,GOLDEN STAR,"6GM8+RMM, Unnamed Road, Iriati, Distrik Wasior, Kabupaten Teluk Wondama, Papua Bar. 98362","Unnamed Road, Iriati, Distrik Wasior, Kabupaten Teluk Wondama",PAPUA BARAT,98362.0,Indonesia,,-2.7654177,134.5166783,https://maps.google.com/?cid=0x0:0xe3e5d794d5503d41
restaurant,Dapur Umum,Warung Makan Josua,"6GR6+R4Q, Maniwak, Distrik Wasior, Kabupaten Teluk Wondama, Papua Bar. 98362","Maniwak, Distrik Wasior, Kabupaten Teluk Wondama",PAPUA BARAT,98362.0,Indonesia,81356713288.0,-2.7579243,134.5103664,https://maps.google.com/?cid=0x0:0xf35401302502710f
restaurant,Restoran,Warung Siliwangi,"7G25+QC8, Maniwak, Distrik Wasior, Kabupaten Teluk Wondama, Papua Bar. 98362","Maniwak, Distrik Wasior, Kabupaten Teluk Wondama",PAPUA BARAT,98362.0,Indonesia,,-2.7480833,134.5085633,https://maps.google.com/?cid=0x0:0x3764a19c356243c8
restaurant,Restoran,Warung Makan Gaul,"7GC5+V5W, Wasior I, Distrik Wasior, Kabupaten Teluk Wondama, Papua Bar. 98362","Wasior I, Distrik Wasior, Kabupaten Teluk Wondama",PAPUA BARAT,98362.0,Indonesia,,-2.72777,134.5079541,https://maps.google.com/?cid=0x0:0xdb9de62d01f8fe66
restaurant,Dapur Umum,Dekri,"7G47+H7W, Maniwak, Distrik Wasior, Kabupaten Teluk Wondama, Papua Bar. 98362","Maniwak, Distrik Wasior, Kabupaten Teluk Wondama",PAPUA BARAT,98362.0,Indonesia,,-2.7435086,134.5131962,https://maps.google.com/?cid=0x0:0xd44d6780f949dd58
restaurant,Komplek perumahan,Warung Makan Kedai Masabuai,"7G96+VH4, Wasior I, Distrik Wasior, Kabupaten Teluk Wondama, Papua Bar. 98362","Wasior I, Distrik Wasior, Kabupaten Teluk Wondama",PAPUA BARAT,98362.0,Indonesia,82139920848.0,-2.7303721,134.5114571,https://maps.google.com/?cid=0x0:0xc9f8a2a32007718
restaurant,Indonesia,Warung Lumayan,"JL.Margono,waskam, Wasior II, Wasior, Teluk Wondama Regency, West Papua 98362","Wasior II, Wasior, Teluk Wondama Regency",PAPUA BARAT,98362.0,Indonesia,82288194694.0,-2.7231377,134.5056823,https://maps.google.com/?cid=0x0:0xe88c8b44ab29fdc0
restaurant,Restoran,WM. Patemon,"7GF4+9P5, Wasior I, Distrik Wasior, Kabupaten Teluk Wondama, Papua Bar.","Kabupaten Teluk Wondama, Papua Bar.",PAPUA BARAT,,Indonesia,82289813708.0,-2.8551699,134.3236557,https://maps.google.com/?cid=0x0:0x7a211829fdecdecf
restaurant,Restoran,Warung Cahaya Rizqi,"7GF4+PV4, Wasior I, Distrik Wasior, Kabupaten Teluk Wondama, Papua Bar. 98362","Wasior I, Distrik Wasior, Kabupaten Teluk Wondama",PAPUA BARAT,98362.0,Indonesia,82199783930.0,-2.7257381,134.5072115,https://maps.google.com/?cid=0x0:0x30fb764fb2d04af7
restaurant,Dapur Umum,RM. Datuak Tan Tuah,"Wasior I, Distrik Wasior, Kabupaten Teluk Wondama, Papua Bar. 98362","Distrik Wasior, Kabupaten Teluk Wondama",PAPUA BARAT,98362.0,Indonesia,,-2.726099,134.506737,https://maps.google.com/?cid=0x0:0x699bbee0354ad85d
restaurant,Restoran,Wr. Makan sarwana,"6GX5+H59, Maniwak, Distrik Wasior, Kabupaten Teluk Wondama, Papua Bar. 98362","Maniwak, Distrik Wasior, Kabupaten Teluk Wondama",PAPUA BARAT,98362.0,Indonesia,85321238899.0,-2.7510959,134.5079773,https://maps.google.com/?cid=0x0:0xf64913332c5accca
restaurant,restaurant,Papua Bar. 98361,"Kabupaten Teluk Wondama, Papua Bar.","Kabupaten Teluk Wondama, Papua Bar.",PAPUA BARAT,,Indonesia,,-2.4815085,134.2099791,https://maps.google.com/?cid=0x0:0xe298b41c3e32d0eb
restaurant,Toko bahan makanan,Warung Barokah mas Bedjo,"Jl. Manokwari - Bintuni, Dembek, Distrik Momi Waren, Kab. Manokwari Selatan, Papua Bar. 98355","Dembek, Distrik Momi Waren, Kab. Manokwari Selatan",PAPUA BARAT,98355.0,Indonesia,85399390442.0,-1.5858411,134.1432356,https://maps.google.com/?cid=0x0:0x240902f27b7226c3
restaurant,restaurant,Rumah Makan Anugerah,"7GF4+MMM, Wasior II, Distrik Wasior, Kabupaten Teluk Wondama, Papua Bar. 98362","Wasior II, Distrik Wasior, Kabupaten Teluk Wondama",PAPUA BARAT,98362.0,Indonesia,,-2.7257797,134.5066784,https://maps.google.com/?cid=0x0:0xece303220ee01ab2
restaurant,restaurant,Pak Yanto,"C5J6+3P9, Dembek, Distrik Momi Waren, Kab. Manokwari Selatan, Papua Bar. 98355","Dembek, Distrik Momi Waren, Kab. Manokwari Selatan",PAPUA BARAT,98355.0,Indonesia,,-1.569846,134.1618439,https://maps.google.com/?cid=0x0:0x2a78a3cd3d5ae691
restaurant,Restoran,Inggandi Beach Restaurant,"43GV+7Q3, Jl. Pasir Putih No.33, Pasir Putih, Kec. Manokwari Tim., Kabupaten Manokwari, Papua Bar. 98313","Jl. Pasir Putih No.33, Pasir Putih, Kec. Manokwari Tim., Kabupaten Manokwari",PAPUA BARAT,98313.0,Indonesia,81240372255.0,-0.8780927,134.0933631,https://maps.google.com/?cid=0x0:0xba66c7a3124731e6
restaurant,Hidangan Laut,Marina Star Restaurant Seafood,"Kompleks, Jl. Bubara Jl. Pelabuhan Perikanan, Distrik Sorong, Kota Sorong, Papua Bar. 98414","Jl. Bubara Jl. Pelabuhan Perikanan, Distrik Sorong, Kota Sorong",PAPUA BARAT,98414.0,Indonesia,81240250548.0,-0.8790069,131.2552456,https://maps.google.com/?cid=0x0:0x6d780e763a272c1a
restaurant,Hidangan Laut,Marina Star Restaurant Seafood,"Kompleks, Jl. Bubara Jl. Pelabuhan Perikanan, Distrik Sorong, Kota Sorong, Papua Bar. 98414","Jl. Bubara Jl. Pelabuhan Perikanan, Distrik Sorong, Kota Sorong",PAPUA BARAT,98414.0,Indonesia,81240250548.0,-0.8790069,131.2552456,https://maps.google.com/?cid=0x0:0x6d780e763a272c1a
restaurant,Hidangan Laut,WR. Marinda Seafood,"46FV+R9P, Kp. Baru, Distrik Sorong, Kota Sorong, Papua Bar. 98411","Kp. Baru, Distrik Sorong, Kota Sorong",PAPUA BARAT,98411.0,Indonesia,85244547308.0,-0.8754085,131.2434382,https://maps.google.com/?cid=0x0:0x3954b465e868b0a3
restaurant,restaurant,,,,PAPUA BARAT,,Indonesia,,,,https://maps.google.com/?cid=0x0:0x6d780e763a272c1au0026onu003dChicken+Cordon+Bleuu0026midu003d/g/11h057j22x
restaurant,restaurant,,,,PAPUA BARAT,,Indonesia,,,,https://maps.google.com/?cid=0x0:0x6d780e763a272c1au0026onu003dAneka+Hidanganu0026midu003d/g/11h057j22x
restaurant,restaurant,,,,PAPUA BARAT,,Indonesia,,,,https://maps.google.com/?cid=0x0:0x6d780e763a272c1au0026onu003dTiger+Saus+Singaporeu0026midu003d/g/11h057j22x
restaurant,restaurant,,,,PAPUA BARAT,,Indonesia,,,,https://maps.google.com/?cid=0x0:0x6d780e763a272c1au0026onu003dNasi+Goreng+Seafoodu0026midu003d/g/11h057j22x
restaurant,restaurant,,,,PAPUA BARAT,,Indonesia,,,,https://maps.google.com/?cid=0x0:0x6d780e763a272c1au0026onu003dAneka+Menuu0026midu003d/g/11h057j22x
restaurant,restaurant,,,,PAPUA BARAT,,Indonesia,,,,https://maps.google.com/?cid=0x0:0x6d780e763a272c1au0026onu003dDada+Tuna+Bakaru0026midu003d/g/11h057j22x
restaurant,restaurant,,,,PAPUA BARAT,,Indonesia,,,,https://maps.google.com/?cid=0x0:0x6d780e763a272c1au0026onu003dUdang+Banana+Goreng+Tepungu0026midu003d/g/11h057j22x
restaurant,restaurant,,,,PAPUA BARAT,,Indonesia,,,,https://maps.google.com/?cid=0x0:0x6d780e763a272c1au0026onu003dEs+Tehu0026midu003d/g/11h057j22x
restaurant,restaurant,,,,PAPUA BARAT,,Indonesia,,,,https://maps.google.com/?cid=0x0:0x6d780e763a272c1au0026onu003dSingkong+Goreng+Lumpiau0026midu003d/g/11h057j22x
restaurant,restaurant,,,,PAPUA BARAT,,Indonesia,,,,https://maps.google.com/?cid=0x0:0x6d780e763a272c1au0026onu003dBuah+Sukunu0026midu003d/g/11h057j22x
restaurant,Restoran Amerika,Kokopelli Grill,"203 E Front St, Port Angeles, WA 98362, Amerika Serikat","Port Angeles, WA",PAPUA BARAT,98362.0,Indonesia,13604576040.0,48.1192512,-123.4304809,https://maps.google.com/?cid=0x0:0x89340e1293956614
restaurant,Hidangan Laut,Downriggers on the Water,"115 E Railroad Ave Ste 207, Port Angeles, WA 98362, Amerika Serikat","Port Angeles, WA",PAPUA BARAT,98362.0,Indonesia,13604522700.0,48.1210897,-123.4302195,https://maps.google.com/?cid=0x0:0xf55f68fedb42a66b
restaurant,Ikan Bakar,Resto Jangkar,"Jl. Yos Sudarso, Nawaripi, Kec. Mimika Baru, Kabupaten Mimika, Papua 99971","Nawaripi, Kec. Mimika Baru, Kabupaten Mimika",PAPUA BARAT,99971.0,Indonesia,82238302339.0,-4.5681968,136.8865993,https://maps.google.com/?cid=0x0:0x73ed65e33721012a
restaurant,Hidangan Laut,IKAN BAKAR LAMONGAN TIMIKA,"samping koramil, Jl. Yos Sudarso, Nawaripi, Kec. Mimika Baru, Kabupaten Mimika, Papua 99910","Jl. Yos Sudarso, Nawaripi, Kec. Mimika Baru, Kabupaten Mimika",PAPUA BARAT,99910.0,Indonesia,81336095408.0,-4.555845,136.8888241,https://maps.google.com/?cid=0x0:0xf1024d7b3a3c393b
restaurant,restaurant,,,,PAPUA BARAT,,Indonesia,,,,https://maps.google.com/?cid=0x0:0x73ed65e33721012au0026onu003dKepiting+Saus+Asam+Manisu0026midu003d/g/11cn7mb3rt
restaurant,restaurant,,,,PAPUA BARAT,,Indonesia,,,,https://maps.google.com/?cid=0x0:0x73ed65e33721012au0026onu003dKerapu+Bakaru0026midu003d/g/11cn7mb3rt
restaurant,restaurant,,,,PAPUA BARAT,,Indonesia,,,,https://maps.google.com/?cid=0x0:0x73ed65e33721012au0026onu003dIkan+Bobara+Bakaru0026midu003d/g/11cn7mb3rt
restaurant,restaurant,,,,PAPUA BARAT,,Indonesia,,,,https://maps.google.com/?cid=0x0:0x73ed65e33721012au0026onu003dPapedau0026midu003d/g/11cn7mb3rt
restaurant,restaurant,,,,PAPUA BARAT,,Indonesia,,,,https://maps.google.com/?cid=0x0:0x73ed65e33721012au0026onu003dKepiting+Lada+Hitamu0026midu003d/g/11cn7mb3rt
restaurant,restaurant,,,,PAPUA BARAT,,Indonesia,,,,https://maps.google.com/?cid=0x0:0x73ed65e33721012au0026onu003dCumi+Tepung+Dan+Tempe+Cabeu0026midu003d/g/11cn7mb3rt
restaurant,restaurant,,,,PAPUA BARAT,,Indonesia,,,,https://maps.google.com/?cid=0x0:0x73ed65e33721012au0026onu003dMie+Goreng+Ayamu0026midu003d/g/11cn7mb3rt
restaurant,restaurant,,,,PAPUA BARAT,,Indonesia,,,,https://maps.google.com/?cid=0x0:0x73ed65e33721012au0026onu003dColo+Colo+Sambal+Ikanu0026midu003d/g/11cn7mb3rt
restaurant,restaurant,,,,PAPUA BARAT,,Indonesia,,,,https://maps.google.com/?cid=0x0:0x73ed65e33721012au0026onu003dKakap+Gorengu0026midu003d/g/11cn7mb3rt
restaurant,restaurant,,,,PAPUA BARAT,,Indonesia,,,,https://maps.google.com/?cid=0x0:0x73ed65e33721012au0026onu003dKepiting+Saus+Asam+Manis+Kangkung+Nasi+Putih+Ikan+Bakaru0026midu003d/g/11cn7mb3rt
restaurant,restaurant,,,,PAPUA BARAT,,Indonesia,,,,https://maps.google.com/?cid=0x0:0x73ed65e33721012au0026onu003dIkan+Kakap+Bakaru0026midu003d/g/11cn7mb3rt
restaurant,restaurant,,,,PAPUA BARAT,,Indonesia,,,,https://maps.google.com/?cid=0x0:0x73ed65e33721012au0026onu003dDaun+Pakisu0026midu003d/g/11cn7mb3rt
restaurant,Restoran,Warung Remoekss,"6GJ9+F7V, Iriati, Distrik Wasior, Kabupaten Teluk Wondama, Papua Bar. 98362","Iriati, Distrik Wasior, Kabupaten Teluk Wondama",PAPUA BARAT,98362.0,Indonesia,,-2.7652901,134.5166022,https://maps.google.com/?cid=0x0:0x4ea4f0c3af2f5214
restaurant,Restoran,RUMAH MAKAN KRISNA,"Jln poros, Iriati, Distrik Wasior, Kabupaten Teluk Wondama, Papua Bar. 98362","Iriati, Distrik Wasior, Kabupaten Teluk Wondama",PAPUA BARAT,98362.0,Indonesia,81247570651.0,-2.7643369,134.516016,https://maps.google.com/?cid=0x0:0x96299447fa137530
restaurant,restaurant,,,,PAPUA BARAT,,Indonesia,,,,https://maps.google.com/?cid=0x0:0x4ea4f0c3af2f5214u0026onu003dSapi+Pada+Hitamu0026midu003d/g/11pz4xvhrv
restaurant,restaurant,,,,PAPUA BARAT,,Indonesia,,,,https://maps.google.com/?cid=0x0:0x4ea4f0c3af2f5214u0026onu0026midu003d/g/11pz4xvhrv
restaurant,restaurant,Roswar,"Waprak, Kec. Roswar, Kabupaten Teluk Wondama, Papua Bar.","Kabupaten Teluk Wondama, Papua Bar.",PAPUA BARAT,,Indonesia,,-2.010139,134.378759,https://maps.google.com/?cid=0x0:0x4e47415efb8c1520
restaurant,restaurant,Kec. Tebet,"Kota Jakarta Selatan, Daerah Khusus Ibukota Jakarta","Kota Jakarta Selatan, Daerah Khusus Ibukota Jakarta",PAPUA BARAT,,Indonesia,,-6.2251223,106.8549881,https://maps.google.com/?cid=0x0:0xd575e31c807295f9
restaurant,Restoran,Billy Cafe,"Jl. Merdeka No.57, Padarni, Kec. Manokwari Bar., Kabupaten Manokwari, Papua Bar. 98312","Padarni, Kec. Manokwari Bar., Kabupaten Manokwari",PAPUA BARAT,98312.0,Indonesia,81240501959.0,-0.8596376,134.0734046,https://maps.google.com/?cid=0x0:0x245b68c7c99f326f
restaurant,Restoran,Inggandi Beach Restaurant,"43GV+7Q3, Jl. Pasir Putih No.33, Pasir Putih, Kec. Manokwari Tim., Kabupaten Manokwari, Papua Bar. 98313","Jl. Pasir Putih No.33, Pasir Putih, Kec. Manokwari Tim., Kabupaten Manokwari",PAPUA BARAT,98313.0,Indonesia,81240372255.0,-0.8780927,134.0933631,https://maps.google.com/?cid=0x0:0xba66c7a3124731e6
restaurant,restaurant,,,,PAPUA BARAT,,Indonesia,,,,https://maps.google.com/?cid=0x0:0xba66c7a3124731e6u0026onu003dPapedau0026midu003d/g/11cjnncbf3
restaurant,restaurant,,,,PAPUA BARAT,,Indonesia,,,,https://maps.google.com/?cid=0x0:0xba66c7a3124731e6u0026onu003dJeruk+Hangatu0026midu003d/g/11cjnncbf3
restaurant,restaurant,,,,PAPUA BARAT,,Indonesia,,,,https://maps.google.com/?cid=0x0:0xba66c7a3124731e6u0026onu003dMenu+Lengkapu0026midu003d/g/11cjnncbf3
restaurant,restaurant,,,,PAPUA BARAT,,Indonesia,,,,https://maps.google.com/?cid=0x0:0xba66c7a3124731e6u0026onu003dEs+Campuru0026midu003d/g/11cjnncbf3
restaurant,restaurant,,,,PAPUA BARAT,,Indonesia,,,,https://maps.google.com/?cid=0x0:0xba66c7a3124731e6u0026onu003dKakap+Asam+Manisu0026midu003d/g/11cjnncbf3
restaurant,restaurant,,,,PAPUA BARAT,,Indonesia,,,,https://maps.google.com/?cid=0x0:0xba66c7a3124731e6u0026onu003dKepiting+Saus+Padangu0026midu003d/g/11cjnncbf3
restaurant,restaurant,,,,PAPUA BARAT,,Indonesia,,,,https://maps.google.com/?cid=0x0:0xba66c7a3124731e6u0026onu003dSate+Garou0026midu003d/g/11cjnncbf3
restaurant,restaurant,,,,PAPUA BARAT,,Indonesia,,,,https://maps.google.com/?cid=0x0:0xba66c7a3124731e6u0026onu003dTahu+Spesial+Inggandiu0026midu003d/g/11cjnncbf3
restaurant,restaurant,,,,PAPUA BARAT,,Indonesia,,,,https://maps.google.com/?cid=0x0:0xba66c7a3124731e6u0026onu003dTom+Yum+Soupu0026midu003d/g/11cjnncbf3
restaurant,restaurant,,,,PAPUA BARAT,,Indonesia,,,,https://maps.google.com/?cid=0x0:0xba66c7a3124731e6u0026onu003dUdang+Goreng+Mayonnaiseu0026midu003d/g/11cjnncbf3
restaurant,restaurant,,,,PAPUA BARAT,,Indonesia,,,,https://maps.google.com/?cid=0x0:0xba66c7a3124731e6u0026onu003dKwetiau+Gorengu0026midu003d/g/11cjnncbf3
restaurant,restaurant,,,,PAPUA BARAT,,Indonesia,,,,https://maps.google.com/?cid=0x0:0xba66c7a3124731e6u0026onu003dRamesu0026midu003d/g/11cjnncbf3
restaurant,restaurant,Soug Jaya,"Kabupaten Teluk Wondama, Papua Bar.","Kabupaten Teluk Wondama, Papua Bar.",PAPUA BARAT,,Indonesia,,-1.8026511,134.1001732,https://maps.google.com/?cid=0x0:0x8fa303f645c60070
restaurant,Indonesia,Yougwa Danau Sentani,"Senayan Park Mall Lantai LG #20-25, Jl. Gerbang Pemuda No.3, RT.1/RW.3, Gelora, Kecamatan Tanah Abang, Kota Jakarta Pusat, Daerah Khusus Ibukota Jakarta 10270","Jl. Gerbang Pemuda No.3, RT.1/RW.3, Gelora, Kecamatan Tanah Abang, Kota Jakarta Pusat",PAPUA BARAT,10270.0,Indonesia,2129633388.0,-6.2122871,106.8053997,https://maps.google.com/?cid=0x0:0x25579f89f3dead39
restaurant,restaurant,RM. Minang Jaya,"7G35+CRW, Maniwak, Distrik Wasior, Kabupaten Teluk Wondama, Papua Bar. 98362","Maniwak, Distrik Wasior, Kabupaten Teluk Wondama",PAPUA BARAT,98362.0,Indonesia,,-2.7467348,134.5093187,https://maps.google.com/?cid=0x0:0xb066805193329551
restaurant,restaurant,Warung Samuji,"7GM4+C56, Wasior II, Distrik Wasior, Kabupaten Teluk Wondama, Papua Bar. 98362","Wasior II, Distrik Wasior, Kabupaten Teluk Wondama",PAPUA BARAT,98362.0,Indonesia,,-2.7164571,134.5053771,https://maps.google.com/?cid=0x0:0xc3d46ec508641e07
restaurant,Padang,Resto Yougwa Danau Sentani,"Jl. Batu Ceper No.73 15, RT.15/RW.1, Kb. Klp., Kecamatan Gambir, Kota Jakarta Pusat, Daerah Khusus Ibukota Jakarta 10120","RT.15/RW.1, Kb. Klp., Kecamatan Gambir, Kota Jakarta Pusat",PAPUA BARAT,10120.0,Indonesia,8119622272.0,-6.162043,106.8243928,https://maps.google.com/?cid=0x0:0xd6689d47fce71c89
restaurant,restaurant,Duairi,"Kabupaten Teluk Wondama, Papua Bar.","Kabupaten Teluk Wondama, Papua Bar.",PAPUA BARAT,,Indonesia,,-2.5401452,134.5313569,https://maps.google.com/?cid=0x0:0x857fd4c80338c7d6
restaurant,restaurant,Wamesa,"Kabupaten Teluk Bintuni, Papua Bar.","Kabupaten Teluk Bintuni, Papua Bar.",PAPUA BARAT,,Indonesia,,-2.1434612,133.981812,https://maps.google.com/?cid=0x0:0x255b33cb1fd7a021
restaurant,Restoran,DEPOT AMORA,"WM78+79V, Banjar Ausoy (Sp IV), Distrik Manimeri, Kabupaten Teluk Bintuni, Papua Bar. 98364","Banjar Ausoy (Sp IV), Distrik Manimeri, Kabupaten Teluk Bintuni",PAPUA BARAT,98364.0,Indonesia,,-2.0867648,133.6659162,https://maps.google.com/?cid=0x0:0xb055930a0bae5985
restaurant,Kafe,Ayam Kampung Bintuni d'cafe  resto,"WMFM+2XF, Jl. Manokwari - Bintuni, Waraitama, Distrik Manimeri, Kabupaten Teluk Bintuni, Papua Bar. 98364","Jl. Manokwari - Bintuni, Waraitama, Distrik Manimeri, Kabupaten Teluk Bintuni",PAPUA BARAT,98364.0,Indonesia,82191584657.0,-2.0774299,133.6849179,https://maps.google.com/?cid=0x0:0x810d24da39b58501
restaurant,restaurant,Papua Bar. 98364,"Kabupaten Teluk Bintuni, Papua Bar.","Kabupaten Teluk Bintuni, Papua Bar.",PAPUA BARAT,,Indonesia,,-1.8959987,133.6375314,https://maps.google.com/?cid=0x0:0x5d92307b98683ecf
restaurant,Dapur Umum,WarungeZ,"Jalur A SP 3, Bumi Saniari, Distrik Manimeri, Kabupaten Teluk Bintuni, Papua Bar. 98364","Bumi Saniari, Distrik Manimeri, Kabupaten Teluk Bintuni",PAPUA BARAT,98364.0,Indonesia,,-2.0490367,133.7269103,https://maps.google.com/?cid=0x0:0xb13663c80bfe452f
restaurant,restaurant,Wamesa,"Kabupaten Teluk Bintuni, Papua Bar.","Kabupaten Teluk Bintuni, Papua Bar.",PAPUA BARAT,,Indonesia,,-2.1434612,133.981812,https://maps.google.com/?cid=0x0:0x255b33cb1fd7a021
restaurant,restaurant,Wamesa,"Kabupaten Teluk Wondama, Papua Bar.","Kabupaten Teluk Wondama, Papua Bar.",PAPUA BARAT,,Indonesia,,-2.1544139,134.0770134,https://maps.google.com/?cid=0x0:0x66173cbf11eb7129
restaurant,restaurant,Papua Bar. 98361,"Kabupaten Teluk Wondama, Papua Bar.","Kabupaten Teluk Wondama, Papua Bar.",PAPUA BARAT,,Indonesia,,-2.4815085,134.2099791,https://maps.google.com/?cid=0x0:0xe298b41c3e32d0eb
restaurant,restaurant,Distrik Wasior,"Kabupaten Teluk Wondama, Papua Bar.","Kabupaten Teluk Wondama, Papua Bar.",PAPUA BARAT,,Indonesia,,-2.726099,134.506737,https://maps.google.com/?cid=0x0:0x54655a71cd072b6e
restaurant,Restoran,RUMAH MAKAN KRISNA,"Jln poros, Iriati, Distrik Wasior, Kabupaten Teluk Wondama, Papua Bar. 98362","Iriati, Distrik Wasior, Kabupaten Teluk Wondama",PAPUA BARAT,98362.0,Indonesia,81247570651.0,-2.7643369,134.516016,https://maps.google.com/?cid=0x0:0x96299447fa137530
restaurant,Restoran,Warung Remoekss,"6GJ9+F7V, Iriati, Distrik Wasior, Kabupaten Teluk Wondama, Papua Bar. 98362","Iriati, Distrik Wasior, Kabupaten Teluk Wondama",PAPUA BARAT,98362.0,Indonesia,,-2.7652901,134.5166022,https://maps.google.com/?cid=0x0:0x4ea4f0c3af2f5214
restaurant,Restoran,Warung Makan Bunda,"Maniwak, Distrik Wasior, Kabupaten Teluk Wondama, Papua Bar. 98362","Distrik Wasior, Kabupaten Teluk Wondama",PAPUA BARAT,98362.0,Indonesia,81344488876.0,-2.7576822,134.5106162,https://maps.google.com/?cid=0x0:0xd15a898f639d391b
restaurant,Dapur Umum,Warung Makan Josua,"6GR6+R4Q, Maniwak, Distrik Wasior, Kabupaten Teluk Wondama, Papua Bar. 98362","Maniwak, Distrik Wasior, Kabupaten Teluk Wondama",PAPUA BARAT,98362.0,Indonesia,81356713288.0,-2.7579243,134.5103664,https://maps.google.com/?cid=0x0:0xf35401302502710f
restaurant,Restoran,Warung Makan Gaul,"7GC5+V5W, Wasior I, Distrik Wasior, Kabupaten Teluk Wondama, Papua Bar. 98362","Wasior I, Distrik Wasior, Kabupaten Teluk Wondama",PAPUA BARAT,98362.0,Indonesia,,-2.72777,134.5079541,https://maps.google.com/?cid=0x0:0xdb9de62d01f8fe66
restaurant,Restoran,Warung Siliwangi,"7G25+QC8, Maniwak, Distrik Wasior, Kabupaten Teluk Wondama, Papua Bar. 98362","Maniwak, Distrik Wasior, Kabupaten Teluk Wondama",PAPUA BARAT,98362.0,Indonesia,,-2.7480833,134.5085633,https://maps.google.com/?cid=0x0:0x3764a19c356243c8
restaurant,Kafe,Coffee Brothers,"Maniwak, Manggurai PEMDA, Iriati, Distrik Wasior, Kabupaten Teluk Wondama, Papua Bar. 98362","Manggurai PEMDA, Iriati, Distrik Wasior, Kabupaten Teluk Wondama",PAPUA BARAT,98362.0,Indonesia,85244343890.0,-2.761305,134.5119245,https://maps.google.com/?cid=0x0:0x40dcc2c8a660e005
restaurant,Komplek perumahan,Warung Makan Kedai Masabuai,"7G96+VH4, Wasior I, Distrik Wasior, Kabupaten Teluk Wondama, Papua Bar. 98362","Wasior I, Distrik Wasior, Kabupaten Teluk Wondama",PAPUA BARAT,98362.0,Indonesia,82139920848.0,-2.7303721,134.5114571,https://maps.google.com/?cid=0x0:0xc9f8a2a32007718
restaurant,Indonesia,Warung Lumayan,"JL.Margono,waskam, Wasior II, Wasior, Teluk Wondama Regency, West Papua 98362","Wasior II, Wasior, Teluk Wondama Regency",PAPUA BARAT,98362.0,Indonesia,82288194694.0,-2.7231377,134.5056823,https://maps.google.com/?cid=0x0:0xe88c8b44ab29fdc0
restaurant,Kedai Kopi,Melanesian Coffee,"Jl. Wasior - Rado, Moru, Distrik Wasior, Kabupaten Teluk Wondama, Papua Bar. 98362","Moru, Distrik Wasior, Kabupaten Teluk Wondama",PAPUA BARAT,98362.0,Indonesia,81240930026.0,-2.7016017,134.5057633,https://maps.google.com/?cid=0x0:0xd845bbbbbdd329ed
restaurant,Restoran,Warung Makan Moma Tuna 2,"Wasior - Nabire, Wasior I, Distrik Wasior, Kabupaten Teluk Wondama, Papua Bar. 98362","Wasior I, Distrik Wasior, Kabupaten Teluk Wondama",PAPUA BARAT,98362.0,Indonesia,82199293829.0,-2.7269813,134.5069862,https://maps.google.com/?cid=0x0:0x61b5be4b30074a55
restaurant,Dapur Umum,Dekri,"7G47+H7W, Maniwak, Distrik Wasior, Kabupaten Teluk Wondama, Papua Bar. 98362","Maniwak, Distrik Wasior, Kabupaten Teluk Wondama",PAPUA BARAT,98362.0,Indonesia,,-2.7435086,134.5131962,https://maps.google.com/?cid=0x0:0xd44d6780f949dd58
restaurant,Restoran,Warung Cahaya Rizqi,"7GF4+PV4, Wasior I, Distrik Wasior, Kabupaten Teluk Wondama, Papua Bar. 98362","Wasior I, Distrik Wasior, Kabupaten Teluk Wondama",PAPUA BARAT,98362.0,Indonesia,82199783930.0,-2.7257381,134.5072115,https://maps.google.com/?cid=0x0:0x30fb764fb2d04af7
restaurant,restaurant,Kec. Windesi,"Kabupaten Teluk Wondama, Papua Bar.","Kabupaten Teluk Wondama, Papua Bar.",PAPUA BARAT,,Indonesia,,-2.601077,134.1340439,https://maps.google.com/?cid=0x0:0x9b9a2ca4d233e89d
restaurant,Restoran,Inggandi Beach Restaurant,"43GV+7Q3, Jl. Pasir Putih No.33, Pasir Putih, Kec. Manokwari Tim., Kabupaten Manokwari, Papua Bar. 98313","Jl. Pasir Putih No.33, Pasir Putih, Kec. Manokwari Tim., Kabupaten Manokwari",PAPUA BARAT,98313.0,Indonesia,81240372255.0,-0.8780927,134.0933631,https://maps.google.com/?cid=0x0:0xba66c7a3124731e6
restaurant,Restoran,Warung Makan Sari Rizky,"5GPJ+JR4, Isuy, Distrik Wondiboy, Kabupaten Teluk Wondama, Papua Bar. 98362","Isuy, Distrik Wondiboy, Kabupaten Teluk Wondama",PAPUA BARAT,98362.0,Indonesia,82399259382.0,-2.8134923,134.5320896,https://maps.google.com/?cid=0x0:0xb6902b1b17306d14
restaurant,restaurant,Warung Samuji,"7GM4+C56, Wasior II, Distrik Wasior, Kabupaten Teluk Wondama, Papua Bar. 98362","Wasior II, Distrik Wasior, Kabupaten Teluk Wondama",PAPUA BARAT,98362.0,Indonesia,,-2.7164571,134.5053771,https://maps.google.com/?cid=0x0:0xc3d46ec508641e07
restaurant,Hidangan Laut,Marina Star Restaurant Seafood,"Kompleks, Jl. Bubara Jl. Pelabuhan Perikanan, Distrik Sorong, Kota Sorong, Papua Bar. 98414","Jl. Bubara Jl. Pelabuhan Perikanan, Distrik Sorong, Kota Sorong",PAPUA BARAT,98414.0,Indonesia,81240250548.0,-0.8790069,131.2552456,https://maps.google.com/?cid=0x0:0x6d780e763a272c1a
restaurant,Restoran,Teras Rumah Nenek,"Jl. Abdulrahman No.46, RT.12/RW.5, Cibubur, Kec. Ciracas, Jakarta, Daerah Khusus Ibukota Jakarta 13720","RT.12/RW.5, Cibubur, Kec. Ciracas, Jakarta",PAPUA BARAT,13720.0,Indonesia,85210610226.0,-6.3634003,106.881187,https://maps.google.com/?cid=0x0:0x5865ecdaf645cf7f
restaurant,Pangsit,Hwamei Chinese Restaurant @Aviary Park,"Jl. Bintaro Creative District No.15, Pd. Ranji, Kec. Ciputat Tim., Kota Tangerang Selatan, Banten 15224","Pd. Ranji, Kec. Ciputat Tim., Kota Tangerang Selatan",PAPUA BARAT,15224.0,Indonesia,81322555199.0,-6.2767027,106.7405236,https://maps.google.com/?cid=0x0:0x3b482b5798be2229
restaurant,Sunda,Vulture's Nest Restaurant,"Jl. Bintaro Creative District No.15, Pd. Ranji, Kec. Ciputat Tim., Kota Tangerang Selatan, Banten 15224","Pd. Ranji, Kec. Ciputat Tim., Kota Tangerang Selatan",PAPUA BARAT,15224.0,Indonesia,,-6.2773107,106.740497,https://maps.google.com/?cid=0x0:0xff2fd2be57497825
restaurant,Indonesia,Dapoer Kebun,"Jl. Cendrawasih 1 No.59, RT.05/RW.02, Sawah Baru, Kec. Ciputat, Kota Tangerang Selatan, Banten 15413","RT.05/RW.02, Sawah Baru, Kec. Ciputat, Kota Tangerang Selatan",PAPUA BARAT,15413.0,Indonesia,,-6.2987754,106.7218031,https://maps.google.com/?cid=0x0:0x108f60b139da6ceb
restaurant,Indonesia,Umatis Resto  Venue,"BSD City, Kavling Taman Kota Barat Lot No.II.6, Sampora, Kec. Cisauk, Kabupaten Tangerang, Banten 15345","Kavling Taman Kota Barat Lot No.II.6, Sampora, Kec. Cisauk, Kabupaten Tangerang",PAPUA BARAT,15345.0,Indonesia,81513122280.0,-6.3068601,106.6495916,https://maps.google.com/?cid=0x0:0x49e60e0c1e2a4a78
restaurant,Kedai Kopi,Tiembi - Meruya,"Blok 36, Jl. Penyelesaian Tomang I No.1, RT.3/RW.1, Meruya Utara, Kec. Kembangan, Kota Jakarta Barat, Daerah Khusus Ibukota Jakarta 11620","Jl. Penyelesaian Tomang I No.1, RT.3/RW.1, Meruya Utara, Kec. Kembangan, Kota Jakarta Barat",PAPUA BARAT,11620.0,Indonesia,8119189309.0,-6.1971517,106.7294601,https://maps.google.com/?cid=0x0:0x2b8c152c9655715e
restaurant,Restoran,Angke,"Graha Emerald, Jl. Boulevard Raya Gading Serpong No.8, Klp. Dua, Kec. Klp. Dua, Kabupaten Tangerang, Banten 15810","Jl. Boulevard Raya Gading Serpong No.8, Klp. Dua, Kec. Klp. Dua, Kabupaten Tangerang",PAPUA BARAT,15810.0,Indonesia,2154213033.0,-6.2454415,106.6280639,https://maps.google.com/?cid=0x0:0xebfe35b1555defe1
restaurant,Restoran,WONE Cafe and Patisserie PIK 2,"Rukan La Riviera Blok RLGC No. 31, Kabupaten Tangerang, Banten 15510",Kabupaten Tangerang,PAPUA BARAT,15510.0,Indonesia,82117843578.0,-6.0442686,106.6926894,https://maps.google.com/?cid=0x0:0xb63cd8c8fc7867bf
restaurant,Sulawesi Selatan,Daeng Rannu,"Cendana Loka Blok P1. 43 Boulevard Graha Raya Bintaro Tangerang, Paku Jaya, Kec. Serpong Utara, Kota Tangerang Selatan, Banten 15324","Paku Jaya, Kec. Serpong Utara, Kota Tangerang Selatan",PAPUA BARAT,15324.0,Indonesia,81110510003.0,-6.2435739,106.6744043,https://maps.google.com/?cid=0x0:0xf79e30370dc8ef0e
restaurant,Restoran,Inggandi Beach Restaurant,"43GV+7Q3, Jl. Pasir Putih No.33, Pasir Putih, Kec. Manokwari Tim., Kabupaten Manokwari, Papua Bar. 98313","Jl. Pasir Putih No.33, Pasir Putih, Kec. Manokwari Tim., Kabupaten Manokwari",PAPUA BARAT,98313.0,Indonesia,81240372255.0,-0.8780927,134.0933631,https://maps.google.com/?cid=0x0:0xba66c7a3124731e6
restaurant,restaurant,,,,PAPUA BARAT,,Indonesia,,,,https://maps.google.com/?cid=0x0:0xba66c7a3124731e6u0026onu003dPapedau0026midu003d/g/11cjnncbf3
restaurant,Restoran,Billy Cafe,"Jl. Merdeka No.57, Padarni, Kec. Manokwari Bar., Kabupaten Manokwari, Papua Bar. 98312","Padarni, Kec. Manokwari Bar., Kabupaten Manokwari",PAPUA BARAT,98312.0,Indonesia,81240501959.0,-0.8596376,134.0734046,https://maps.google.com/?cid=0x0:0x245b68c7c99f326f
restaurant,restaurant,,,,PAPUA BARAT,,Indonesia,,,,https://maps.google.com/?cid=0x0:0xba66c7a3124731e6u0026onu003dJeruk+Hangatu0026midu003d/g/11cjnncbf3
restaurant,restaurant,,,,PAPUA BARAT,,Indonesia,,,,https://maps.google.com/?cid=0x0:0xba66c7a3124731e6u0026onu003dMenu+Lengkapu0026midu003d/g/11cjnncbf3
restaurant,restaurant,,,,PAPUA BARAT,,Indonesia,,,,https://maps.google.com/?cid=0x0:0xba66c7a3124731e6u0026onu003dEs+Campuru0026midu003d/g/11cjnncbf3
restaurant,restaurant,,,,PAPUA BARAT,,Indonesia,,,,https://maps.google.com/?cid=0x0:0xba66c7a3124731e6u0026onu003dKakap+Asam+Manisu0026midu003d/g/11cjnncbf3
restaurant,restaurant,,,,PAPUA BARAT,,Indonesia,,,,https://maps.google.com/?cid=0x0:0xba66c7a3124731e6u0026onu003dKepiting+Saus+Padangu0026midu003d/g/11cjnncbf3
restaurant,restaurant,,,,PAPUA BARAT,,Indonesia,,,,https://maps.google.com/?cid=0x0:0xba66c7a3124731e6u0026onu003dSate+Garou0026midu003d/g/11cjnncbf3
restaurant,restaurant,,,,PAPUA BARAT,,Indonesia,,,,https://maps.google.com/?cid=0x0:0xba66c7a3124731e6u0026onu003dTahu+Spesial+Inggandiu0026midu003d/g/11cjnncbf3
restaurant,restaurant,,,,PAPUA BARAT,,Indonesia,,,,https://maps.google.com/?cid=0x0:0xba66c7a3124731e6u0026onu003dTom+Yum+Soupu0026midu003d/g/11cjnncbf3
restaurant,restaurant,,,,PAPUA BARAT,,Indonesia,,,,https://maps.google.com/?cid=0x0:0xba66c7a3124731e6u0026onu003dUdang+Goreng+Mayonnaiseu0026midu003d/g/11cjnncbf3
restaurant,restaurant,,,,PAPUA BARAT,,Indonesia,,,,https://maps.google.com/?cid=0x0:0xba66c7a3124731e6u0026onu003dKwetiau+Gorengu0026midu003d/g/11cjnncbf3
restaurant,restaurant,,,,PAPUA BARAT,,Indonesia,,,,https://maps.google.com/?cid=0x0:0xba66c7a3124731e6u0026onu003dRamesu0026midu003d/g/11cjnncbf3
restaurant,restaurant,Papua Bar. 98361,"Kabupaten Teluk Wondama, Papua Bar.","Kabupaten Teluk Wondama, Papua Bar.",PAPUA BARAT,,Indonesia,,-2.4815085,134.2099791,https://maps.google.com/?cid=0x0:0xe298b41c3e32d0eb
restaurant,Restoran,Inggandi Beach Restaurant,"43GV+7Q3, Jl. Pasir Putih No.33, Pasir Putih, Kec. Manokwari Tim., Kabupaten Manokwari, Papua Bar. 98313","Jl. Pasir Putih No.33, Pasir Putih, Kec. Manokwari Tim., Kabupaten Manokwari",PAPUA BARAT,98313.0,Indonesia,81240372255.0,-0.8780927,134.0933631,https://maps.google.com/?cid=0x0:0xba66c7a3124731e6
restaurant,Hidangan Laut,Marina Star Restaurant Seafood,"Kompleks, Jl. Bubara Jl. Pelabuhan Perikanan, Distrik Sorong, Kota Sorong, Papua Bar. 98414","Jl. Bubara Jl. Pelabuhan Perikanan, Distrik Sorong, Kota Sorong",PAPUA BARAT,98414.0,Indonesia,81240250548.0,-0.8790069,131.2552456,https://maps.google.com/?cid=0x0:0x6d780e763a272c1a
restaurant,Toko bahan makanan,Warung Barokah mas Bedjo,"Jl. Manokwari - Bintuni, Dembek, Distrik Momi Waren, Kab. Manokwari Selatan, Papua Bar. 98355","Dembek, Distrik Momi Waren, Kab. Manokwari Selatan",PAPUA BARAT,98355.0,Indonesia,85399390442.0,-1.5858411,134.1432356,https://maps.google.com/?cid=0x0:0x240902f27b7226c3
restaurant,restaurant,Warung Dimas Teluk Wondama,"7G25+WCP, Maniwak, Distrik Wasior, Kabupaten Teluk Wondama, Papua Bar. 98362","Maniwak, Distrik Wasior, Kabupaten Teluk Wondama",PAPUA BARAT,98362.0,Indonesia,,-2.7476549,134.5085885,https://maps.google.com/?cid=0x0:0x52158621f41d7f07
restaurant,restaurant,Warung Andrei,"7G25+97Q, Unnamed Road, Maniwak, Distrik Wasior, Kabupaten Teluk Wondama, Papua Bar. 98362","Unnamed Road, Maniwak, Distrik Wasior, Kabupaten Teluk Wondama",PAPUA BARAT,98362.0,Indonesia,,-2.7490464,134.5082358,https://maps.google.com/?cid=0x0:0xb02eede29676f2cf
restaurant,Pangsit,Hwamei Chinese Restaurant @Aviary Park,"Jl. Bintaro Creative District No.15, Pd. Ranji, Kec. Ciputat Tim., Kota Tangerang Selatan, Banten 15224","Pd. Ranji, Kec. Ciputat Tim., Kota Tangerang Selatan",PAPUA BARAT,15224.0,Indonesia,81322555199.0,-6.2767027,106.7405236,https://maps.google.com/?cid=0x0:0x3b482b5798be2229
restaurant,Sunda,Vulture's Nest Restaurant,"Jl. Bintaro Creative District No.15, Pd. Ranji, Kec. Ciputat Tim., Kota Tangerang Selatan, Banten 15224","Pd. Ranji, Kec. Ciputat Tim., Kota Tangerang Selatan",PAPUA BARAT,15224.0,Indonesia,,-6.2773107,106.740497,https://maps.google.com/?cid=0x0:0xff2fd2be57497825
restaurant,Indonesia,Umatis Resto  Venue,"BSD City, Kavling Taman Kota Barat Lot No.II.6, Sampora, Kec. Cisauk, Kabupaten Tangerang, Banten 15345","Kavling Taman Kota Barat Lot No.II.6, Sampora, Kec. Cisauk, Kabupaten Tangerang",PAPUA BARAT,15345.0,Indonesia,81513122280.0,-6.3068601,106.6495916,https://maps.google.com/?cid=0x0:0x49e60e0c1e2a4a78
restaurant,Restoran,Angke,"Graha Emerald, Jl. Boulevard Raya Gading Serpong No.8, Klp. Dua, Kec. Klp. Dua, Kabupaten Tangerang, Banten 15810","Jl. Boulevard Raya Gading Serpong No.8, Klp. Dua, Kec. Klp. Dua, Kabupaten Tangerang",PAPUA BARAT,15810.0,Indonesia,2154213033.0,-6.2454415,106.6280639,https://maps.google.com/?cid=0x0:0xebfe35b1555defe1
restaurant,Restoran,WONE Cafe and Patisserie PIK 2,"Rukan La Riviera Blok RLGC No. 31, Kabupaten Tangerang, Banten 15510",Kabupaten Tangerang,PAPUA BARAT,15510.0,Indonesia,82117843578.0,-6.0442686,106.6926894,https://maps.google.com/?cid=0x0:0xb63cd8c8fc7867bf
restaurant,Komplek perumahan,Sunshine Garden SouthCity,"Jl. Wahyudi No.12, Pd. Cabe Udik, Kec. Pamulang, Tangerang, Banten 15418","Pd. Cabe Udik, Kec. Pamulang, Tangerang",PAPUA BARAT,15418.0,Indonesia,811139985.0,-6.3437759,106.7678132,https://maps.google.com/?cid=0x0:0xb7f63de5b63c56d7
restaurant,Sulawesi Selatan,Daeng Rannu,"Cendana Loka Blok P1. 43 Boulevard Graha Raya Bintaro Tangerang, Paku Jaya, Kec. Serpong Utara, Kota Tangerang Selatan, Banten 15324","Paku Jaya, Kec. Serpong Utara, Kota Tangerang Selatan",PAPUA BARAT,15324.0,Indonesia,81110510003.0,-6.2435739,106.6744043,https://maps.google.com/?cid=0x0:0xf79e30370dc8ef0e
restaurant,restaurant,Wondiboi,"Distrik Wondiboy, Kabupaten Teluk Wondama, Papua Bar.","Kabupaten Teluk Wondama, Papua Bar.",PAPUA BARAT,,Indonesia,,-2.8046444,134.5760814,https://maps.google.com/?cid=0x0:0xe68e45ccb2c17a3e
restaurant,Restoran,Warung Makan Sari Rizky,"5GPJ+JR4, Isuy, Distrik Wondiboy, Kabupaten Teluk Wondama, Papua Bar. 98362","Isuy, Distrik Wondiboy, Kabupaten Teluk Wondama",PAPUA BARAT,98362.0,Indonesia,82399259382.0,-2.8134923,134.5320896,https://maps.google.com/?cid=0x0:0xb6902b1b17306d14
restaurant,Komplek perumahan,Warung Makan Kedai Masabuai,"7G96+VH4, Wasior I, Distrik Wasior, Kabupaten Teluk Wondama, Papua Bar. 98362","Wasior I, Distrik Wasior, Kabupaten Teluk Wondama",PAPUA BARAT,98362.0,Indonesia,82139920848.0,-2.7303721,134.5114571,https://maps.google.com/?cid=0x0:0xc9f8a2a32007718
restaurant,Kedai Kopi,Warung Kopi Yasmin,"5GMJ+WRX, Mapolres, Isuy, Distrik Wondiboy, Kabupaten Teluk Wondama, Papua Bar. 98362","Mapolres, Isuy, Distrik Wondiboy, Kabupaten Teluk Wondama",PAPUA BARAT,98362.0,Indonesia,,-2.8151318,134.5321055,https://maps.google.com/?cid=0x0:0xdcd9c4c4ceaf5eda
restaurant,Restoran,Warung Remoekss,"6GJ9+F7V, Iriati, Distrik Wasior, Kabupaten Teluk Wondama, Papua Bar. 98362","Iriati, Distrik Wasior, Kabupaten Teluk Wondama",PAPUA BARAT,98362.0,Indonesia,,-2.7652901,134.5166022,https://maps.google.com/?cid=0x0:0x4ea4f0c3af2f5214
restaurant,Indonesia,Warung Lumayan,"JL.Margono,waskam, Wasior II, Wasior, Teluk Wondama Regency, West Papua 98362","Wasior II, Wasior, Teluk Wondama Regency",PAPUA BARAT,98362.0,Indonesia,82288194694.0,-2.7231377,134.5056823,https://maps.google.com/?cid=0x0:0xe88c8b44ab29fdc0
