Category,Real Category,Business Name,Address,City,State,Postal Code,Country,Phone,Latitude,Longitude,Map Link
toko bangunan,Toko,Jaya Bangun Utama,"6GH9+VPV, Unnamed Road, Iriati, Distrik Wasior, Kabupaten Teluk Wondama, Papua Bar. 98362","Unnamed Road, Iriati, Distrik Wasior, Kabupaten Teluk Wondama",PAPUA BARAT,98362.0,Indonesia,85298357980.0,-2.7702528,134.5193086,https://maps.google.com/?cid=0x0:0x7b7706dc36edb6d8
toko bangunan,toko bangunan,Kuri Wamesa,"Kabupaten Teluk Wondama, Papua Bar.","Kabupaten Teluk Wondama, Papua Bar.",PAPUA BARAT,,Indonesia,,-2.8551699,134.3236557,https://maps.google.com/?cid=0x0:0x8c3430e4162f73b3
toko bangunan,Toko Bahan Bangunan,TOKO TOMIA UTAMA BANGUNAN,"7G87+W5P, Maniwak, Distrik Wasior, Kabupaten Teluk Wondama, Papua Bar. 98362","Maniwak, Distrik Wasior, Kabupaten Teluk Wondama",PAPUA BARAT,98362.0,Indonesia,81247372778.0,-2.7322358,134.5122614,https://maps.google.com/?cid=0x0:0x864ad61b8eeb23e4
toko bangunan,Toko Bahan Bangunan,Toko habibi,"7GC6+82H, Jln Saberi. Masabuay, Wasior I, Distrik Wasior, Kabupaten Teluk Wondama, Papua Bar. 98362","Jln Saberi. Masabuay, Wasior I, Distrik Wasior, Kabupaten Teluk Wondama",PAPUA BARAT,98362.0,Indonesia,,-2.7291953,134.5101099,https://maps.google.com/?cid=0x0:0x7307e67b2bf16401
toko bangunan,Toko Bahan Bangunan,Toko Karya Abadi,"WJ4X+24P, Tuasai, Distrik Bintuni, Kabupaten Teluk Bintuni, Papua Bar. 98364","Tuasai, Distrik Bintuni, Kabupaten Teluk Bintuni",PAPUA BARAT,98364.0,Indonesia,82244443838.0,-2.094909,133.6478193,https://maps.google.com/?cid=0x0:0x860a78b44fea4433
toko bangunan,Kantor Perusahaan,PERCETAKAN BATU TELA.CV DELY UTAMA,"6GV5+WQ, Maniwak, Distrik Wasior, Kabupaten Teluk Wondama, Papua Bar. 98362","Maniwak, Distrik Wasior, Kabupaten Teluk Wondama",PAPUA BARAT,98362.0,Indonesia,82345667749.0,-2.755202,134.5093784,https://maps.google.com/?cid=0x0:0x12f0ff77522b4d2e
toko bangunan,Toko Perlengkapan Rumah,Tomia Market,"Unnamed Road, Wasior I, Distrik Wasior, Kabupaten Teluk Wondama, Papua Bar. 98362","Wasior I, Distrik Wasior, Kabupaten Teluk Wondama",PAPUA BARAT,98362.0,Indonesia,82271556667.0,-2.9647961,134.4748018,https://maps.google.com/?cid=0x0:0x148ee745d5acd27e
toko bangunan,Toko,TOKOH SUMBER TANI,"7GP4+34J, Moru, Distrik Wasior, Kabupaten Teluk Wondama, Papua Bar.","Kabupaten Teluk Wondama, Papua Bar.",PAPUA BARAT,,Indonesia,81344779976.0,-2.7147763,134.5052515,https://maps.google.com/?cid=0x0:0x24c2be28a4b72714
toko bangunan,Toko Bahan Bangunan,TB.Wawi Mandiri,"5GRJ+2HJ, Wondiboi, Distrik Wondiboy, Kabupaten Teluk Wondama, Papua Bar. 98362","Wondiboi, Distrik Wondiboy, Kabupaten Teluk Wondama",PAPUA BARAT,98362.0,Indonesia,,-2.8102965,134.5316065,https://maps.google.com/?cid=0x0:0x4863273c6e26da8d
toko bangunan,Pasar bahan bangunan,Toko Bangunan Berkat Baru,"Wesiri, Distrik Bintuni, Kabupaten Teluk Bintuni, Papua Bar. 98364","Distrik Bintuni, Kabupaten Teluk Bintuni",PAPUA BARAT,98364.0,Indonesia,,-2.0915625,133.5054375,https://maps.google.com/?cid=0x0:0xce773245cf8675e4
toko bangunan,Toko Bahan Bangunan,Toko Rahayu Babo,"FF52+F2R, Unnamed Road, Nusei, Babo, Kabupaten Teluk Bintuni, Papua Bar. 98363","Unnamed Road, Nusei, Babo, Kabupaten Teluk Bintuni",PAPUA BARAT,98363.0,Indonesia,85244200777.0,-2.5412733,133.45003,https://maps.google.com/?cid=0x0:0x2d6ca9cad594f391
toko bangunan,toko bangunan,Papua Bar. 98362,"Kabupaten Teluk Wondama, Papua Bar.","Kabupaten Teluk Wondama, Papua Bar.",PAPUA BARAT,,Indonesia,,-2.9647961,134.4748018,https://maps.google.com/?cid=0x0:0xbea57e7dbf1a786f
toko bangunan,Toko Bahan Bangunan,TOKO TOMIA UTAMA BANGUNAN,"7G87+W5P, Maniwak, Distrik Wasior, Kabupaten Teluk Wondama, Papua Bar. 98362","Maniwak, Distrik Wasior, Kabupaten Teluk Wondama",PAPUA BARAT,98362.0,Indonesia,81247372778.0,-2.7322358,134.5122614,https://maps.google.com/?cid=0x0:0x864ad61b8eeb23e4
toko bangunan,Toko,Jaya Bangun Utama,"6GH9+VPV, Unnamed Road, Iriati, Distrik Wasior, Kabupaten Teluk Wondama, Papua Bar. 98362","Unnamed Road, Iriati, Distrik Wasior, Kabupaten Teluk Wondama",PAPUA BARAT,98362.0,Indonesia,85298357980.0,-2.7702528,134.5193086,https://maps.google.com/?cid=0x0:0x7b7706dc36edb6d8
toko bangunan,Toko Bahan Bangunan,Toko habibi,"7GC6+82H, Jln Saberi. Masabuay, Wasior I, Distrik Wasior, Kabupaten Teluk Wondama, Papua Bar. 98362","Jln Saberi. Masabuay, Wasior I, Distrik Wasior, Kabupaten Teluk Wondama",PAPUA BARAT,98362.0,Indonesia,,-2.7291953,134.5101099,https://maps.google.com/?cid=0x0:0x7307e67b2bf16401
toko bangunan,Toko,TOKOH SUMBER TANI,"7GP4+34J, Moru, Distrik Wasior, Kabupaten Teluk Wondama, Papua Bar.","Kabupaten Teluk Wondama, Papua Bar.",PAPUA BARAT,,Indonesia,81344779976.0,-2.7147763,134.5052515,https://maps.google.com/?cid=0x0:0x24c2be28a4b72714
toko bangunan,Kantor Perusahaan,PERCETAKAN BATU TELA.CV DELY UTAMA,"6GV5+WQ, Maniwak, Distrik Wasior, Kabupaten Teluk Wondama, Papua Bar. 98362","Maniwak, Distrik Wasior, Kabupaten Teluk Wondama",PAPUA BARAT,98362.0,Indonesia,82345667749.0,-2.755202,134.5093784,https://maps.google.com/?cid=0x0:0x12f0ff77522b4d2e
toko bangunan,Toko Bahan Bangunan,ANEKA BANGUNAN,"Wosi, Kec. Manokwari Bar., Kabupaten Manokwari, Papua Bar. 98312","Kec. Manokwari Bar., Kabupaten Manokwari",PAPUA BARAT,98312.0,Indonesia,81344843001.0,-0.8631883,134.0498559,https://maps.google.com/?cid=0x0:0x3598159af16f30ea
toko bangunan,Toko Bahan Bangunan,TB.Wawi Mandiri,"5GRJ+2HJ, Wondiboi, Distrik Wondiboy, Kabupaten Teluk Wondama, Papua Bar. 98362","Wondiboi, Distrik Wondiboy, Kabupaten Teluk Wondama",PAPUA BARAT,98362.0,Indonesia,,-2.8102965,134.5316065,https://maps.google.com/?cid=0x0:0x4863273c6e26da8d
toko bangunan,toko bangunan,Naikere,"Kabupaten Teluk Wondama, Papua Bar.","Kabupaten Teluk Wondama, Papua Bar.",PAPUA BARAT,,Indonesia,,-3.199925,134.4748018,https://maps.google.com/?cid=0x0:0xea0e364c043491c5
toko bangunan,Toko Perlengkapan Rumah,Tomia Market,"Unnamed Road, Wasior I, Distrik Wasior, Kabupaten Teluk Wondama, Papua Bar. 98362","Wasior I, Distrik Wasior, Kabupaten Teluk Wondama",PAPUA BARAT,98362.0,Indonesia,82271556667.0,-2.9647961,134.4748018,https://maps.google.com/?cid=0x0:0x148ee745d5acd27e
toko bangunan,Toko Perlengkapan Rumah,Toko Tomia Iriati,"6GM9+439, Unnamed Road, Iriati, Distrik Wasior, Kabupaten Teluk Wondama, Papua Bar. 98362","Unnamed Road, Iriati, Distrik Wasior, Kabupaten Teluk Wondama",PAPUA BARAT,98362.0,Indonesia,82399188146.0,-2.7672071,134.5177493,https://maps.google.com/?cid=0x0:0x67e5693debf6d8b5
toko bangunan,toko bangunan,Papua Bar. 98361,"Kabupaten Teluk Wondama, Papua Bar.","Kabupaten Teluk Wondama, Papua Bar.",PAPUA BARAT,,Indonesia,,-2.4815085,134.2099791,https://maps.google.com/?cid=0x0:0xe298b41c3e32d0eb
toko bangunan,Toko Bahan Bangunan,Toko habibi,"7GC6+82H, Jln Saberi. Masabuay, Wasior I, Distrik Wasior, Kabupaten Teluk Wondama, Papua Bar. 98362","Jln Saberi. Masabuay, Wasior I, Distrik Wasior, Kabupaten Teluk Wondama",PAPUA BARAT,98362.0,Indonesia,,-2.7291953,134.5101099,https://maps.google.com/?cid=0x0:0x7307e67b2bf16401
toko bangunan,Toko Bahan Bangunan,TOKO TOMIA UTAMA BANGUNAN,"7G87+W5P, Maniwak, Distrik Wasior, Kabupaten Teluk Wondama, Papua Bar. 98362","Maniwak, Distrik Wasior, Kabupaten Teluk Wondama",PAPUA BARAT,98362.0,Indonesia,81247372778.0,-2.7322358,134.5122614,https://maps.google.com/?cid=0x0:0x864ad61b8eeb23e4
toko bangunan,Toko Bahan Bangunan,ANEKA BANGUNAN,"Wosi, Kec. Manokwari Bar., Kabupaten Manokwari, Papua Bar. 98312","Kec. Manokwari Bar., Kabupaten Manokwari",PAPUA BARAT,98312.0,Indonesia,81344843001.0,-0.8631883,134.0498559,https://maps.google.com/?cid=0x0:0x3598159af16f30ea
toko bangunan,Toko Bahan Bangunan,Toko Karya Abadi,"WJ4X+24P, Tuasai, Distrik Bintuni, Kabupaten Teluk Bintuni, Papua Bar. 98364","Tuasai, Distrik Bintuni, Kabupaten Teluk Bintuni",PAPUA BARAT,98364.0,Indonesia,82244443838.0,-2.094909,133.6478193,https://maps.google.com/?cid=0x0:0x860a78b44fea4433
toko bangunan,Pemasok Bahan Bangunan,Toko bangunan Sumber Makmur,"32CM+75G, Jl. Manokwari - Maruni, Anday, Distrik Manokwari, Kabupaten Manokwari, Papua Bar. 98315","Jl. Manokwari - Maruni, Anday, Distrik Manokwari, Kabupaten Manokwari",PAPUA BARAT,98315.0,Indonesia,8114846060.0,-0.9293075,134.0329487,https://maps.google.com/?cid=0x0:0xa0a85c7270dde255
toko bangunan,Toko Bahan Bangunan,PAPUA BANGUNAN,"42GX+945, Wosi, Kec. Manokwari Bar., Kabupaten Manokwari, Papua Bar. 98312","Wosi, Kec. Manokwari Bar., Kabupaten Manokwari",PAPUA BARAT,98312.0,Indonesia,82198055550.0,-0.874101,134.0478473,https://maps.google.com/?cid=0x0:0x2c3683b193d9430f
toko bangunan,Toko Bahan Bangunan,Toko Bangunan,"Jl. Trikora Taman Ria No.4, Sowi, Distrik Manokwari, Kabupaten Manokwari, Papua Bar. 98315","Sowi, Distrik Manokwari, Kabupaten Manokwari",PAPUA BARAT,98315.0,Indonesia,,-0.906996,134.035784,https://maps.google.com/?cid=0x0:0xe97020a60705142f
toko bangunan,Toko Bahan Bangunan,Toko Rahayu Babo,"FF52+F2R, Unnamed Road, Nusei, Babo, Kabupaten Teluk Bintuni, Papua Bar. 98363","Unnamed Road, Nusei, Babo, Kabupaten Teluk Bintuni",PAPUA BARAT,98363.0,Indonesia,85244200777.0,-2.5412733,133.45003,https://maps.google.com/?cid=0x0:0x2d6ca9cad594f391
toko bangunan,Pemasok Bahan Bangunan,Depo Makmur Manokwari,"43P2+QWR, Jl. Trikora Wosi, Wosi, Kec. Manokwari Bar., Kabupaten Manokwari, Papua Bar. 98312","Jl. Trikora Wosi, Wosi, Kec. Manokwari Bar., Kabupaten Manokwari",PAPUA BARAT,98312.0,Indonesia,81248426402.0,-0.8630402,134.0521741,https://maps.google.com/?cid=0x0:0x387befda163fc63b
toko bangunan,Toko Bahan Bangunan,Toko Bangunan,"Jl. Gn. Salju No.70, Amban, Kec. Manokwari Bar., Kabupaten Manokwari, Papua Bar. 98314","Amban, Kec. Manokwari Bar., Kabupaten Manokwari",PAPUA BARAT,98314.0,Indonesia,,-0.8378489,134.0648609,https://maps.google.com/?cid=0x0:0x39e90745f521cce
toko bangunan,Toko Bahan Bangunan,TOKO SUMBER NIAGA BANGUNAN,"Timika Jaya, Kec. Mimika Baru, Kabupaten Mimika, Papua 99971","Kec. Mimika Baru, Kabupaten Mimika",PAPUA BARAT,99971.0,Indonesia,856095797670.0,-4.569129,136.878701,https://maps.google.com/?cid=0x0:0xcd18f7af7f50af74
toko bangunan,Toko Bahan Bangunan,Tokoh bagunan fajriani h.m,"WJ3W+GJ5, Tuasai, Distrik Bintuni, Kabupaten Teluk Bintuni, Papua Bar. 98364","Tuasai, Distrik Bintuni, Kabupaten Teluk Bintuni",PAPUA BARAT,98364.0,Indonesia,,-2.0953093,133.6466562,https://maps.google.com/?cid=0x0:0x107c1e110f767af6
toko bangunan,Pasar bahan bangunan,Toko Bangunan Berkat Baru,"Wesiri, Distrik Bintuni, Kabupaten Teluk Bintuni, Papua Bar. 98364","Distrik Bintuni, Kabupaten Teluk Bintuni",PAPUA BARAT,98364.0,Indonesia,,-2.0915625,133.5054375,https://maps.google.com/?cid=0x0:0xce773245cf8675e4
toko bangunan,toko bangunan,Rasiei,"Distrik Rasiei, Kabupaten Teluk Wondama, Papua Bar.","Kabupaten Teluk Wondama, Papua Bar.",PAPUA BARAT,,Indonesia,,-2.8153904,134.5231135,https://maps.google.com/?cid=0x0:0xfcfbd46012f90d9c
toko bangunan,Toko Bahan Bangunan,TOKO TOMIA UTAMA BANGUNAN,"7G87+W5P, Maniwak, Distrik Wasior, Kabupaten Teluk Wondama, Papua Bar. 98362","Maniwak, Distrik Wasior, Kabupaten Teluk Wondama",PAPUA BARAT,98362.0,Indonesia,81247372778.0,-2.7322358,134.5122614,https://maps.google.com/?cid=0x0:0x864ad61b8eeb23e4
toko bangunan,Toko Bahan Bangunan,Toko habibi,"7GC6+82H, Jln Saberi. Masabuay, Wasior I, Distrik Wasior, Kabupaten Teluk Wondama, Papua Bar. 98362","Jln Saberi. Masabuay, Wasior I, Distrik Wasior, Kabupaten Teluk Wondama",PAPUA BARAT,98362.0,Indonesia,,-2.7291953,134.5101099,https://maps.google.com/?cid=0x0:0x7307e67b2bf16401
toko bangunan,Toko,TOKOH SUMBER TANI,"7GP4+34J, Moru, Distrik Wasior, Kabupaten Teluk Wondama, Papua Bar.","Kabupaten Teluk Wondama, Papua Bar.",PAPUA BARAT,,Indonesia,81344779976.0,-2.7147763,134.5052515,https://maps.google.com/?cid=0x0:0x24c2be28a4b72714
toko bangunan,Toko,Jaya Bangun Utama,"6GH9+VPV, Unnamed Road, Iriati, Distrik Wasior, Kabupaten Teluk Wondama, Papua Bar. 98362","Unnamed Road, Iriati, Distrik Wasior, Kabupaten Teluk Wondama",PAPUA BARAT,98362.0,Indonesia,85298357980.0,-2.7702528,134.5193086,https://maps.google.com/?cid=0x0:0x7b7706dc36edb6d8
toko bangunan,Toko Perlengkapan Rumah,Inti Gading Keramik,"Jl Rawasari Selatan Raya Ruko C2 18 C, Kota Jakarta Pusat, Daerah Khusus Ibukota Jakarta 10570",Kota Jakarta Pusat,PAPUA BARAT,10570.0,Indonesia,81257848720.0,-6.1868941,106.873738,https://maps.google.com/?cid=0x0:0xcc814a6763c74ec7
toko bangunan,Toko Perlengkapan Rumah,Rawasari Jaya Keramik,"No Jl. Percetakan Negara No.641C 5, RT.5/RW.9, Rawasari, Kec. Cemp. Putih, Kota Jakarta Pusat, Daerah Khusus Ibukota Jakarta 10570","RT.5/RW.9, Rawasari, Kec. Cemp. Putih, Kota Jakarta Pusat",PAPUA BARAT,10570.0,Indonesia,214212536.0,-6.1874989,106.8690482,https://maps.google.com/?cid=0x0:0x16ad17374cd23249
toko bangunan,Toko,TB Wondama Sentosa,"Wasior - Nabire, Miei, Maniwak, Distrik Wasior, Kabupaten Teluk Wondama, Papua Bar. 98362","Miei, Maniwak, Distrik Wasior, Kabupaten Teluk Wondama",PAPUA BARAT,98362.0,Indonesia,8113771366.0,-2.7361124,134.5131112,https://maps.google.com/?cid=0x0:0xa4797422a9cf9482
toko bangunan,Toko Bahan Bangunan,Tokogranit.com,"Rawasari Mas, komplek rawasari mas blok b 8, Jl. Percetakan Negara No.36, RT.7/RW.4, Rawasari, Kec. Cemp. Putih, Kota Jakarta Pusat, Daerah Khusus Ibukota Jakarta 10570","komplek rawasari mas blok b 8, Jl. Percetakan Negara No.36, RT.7/RW.4, Rawasari, Kec. Cemp. Putih, Kota Jakarta Pusat",PAPUA BARAT,10570.0,Indonesia,214252515.0,-6.1891279,106.8626108,https://maps.google.com/?cid=0x0:0xf9cd85d88c97ae95
toko bangunan,Toko Bahan Bangunan,TB.Wawi Mandiri,"5GRJ+2HJ, Wondiboi, Distrik Wondiboy, Kabupaten Teluk Wondama, Papua Bar. 98362","Wondiboi, Distrik Wondiboy, Kabupaten Teluk Wondama",PAPUA BARAT,98362.0,Indonesia,,-2.8102965,134.5316065,https://maps.google.com/?cid=0x0:0x4863273c6e26da8d
toko bangunan,toko bangunan,Papua Bar.,,Papua Bar.,PAPUA BARAT,,Indonesia,,-1.3361154,133.1747162,https://maps.google.com/?cid=0x0:0x5349c1f8c5c7cb62
toko bangunan,Toko,TOKOH SUMBER TANI,"7GP4+34J, Moru, Distrik Wasior, Kabupaten Teluk Wondama, Papua Bar.","Kabupaten Teluk Wondama, Papua Bar.",PAPUA BARAT,,Indonesia,81344779976.0,-2.7147763,134.5052515,https://maps.google.com/?cid=0x0:0x24c2be28a4b72714
toko bangunan,Toko Bahan Bangunan,"TOKO BANGUNAN , TOKO HARA II","Jl. Kakatua No.1, Klamasen, Distrik Mariat, Kabupaten Sorong, Papua Bar. 98416","Klamasen, Distrik Mariat, Kabupaten Sorong",PAPUA BARAT,98416.0,Indonesia,81259105399.0,-0.9953545,131.3468536,https://maps.google.com/?cid=0x0:0x51bb1160638e98ed
toko bangunan,Toko Mebel,Indo Jaya Furniture,"Jl. Raya Bantar Gebang - Setu No.89, RT.003/RW.002, Padurenan, Kec. Mustika Jaya, Kota Bks, Jawa Barat 16340","RT.003/RW.002, Padurenan, Kec. Mustika Jaya, Kota Bks",PAPUA BARAT,16340.0,Indonesia,82110750276.0,-6.3153622,107.001443,https://maps.google.com/?cid=0x0:0xf3d1a0175d50ce8d
toko bangunan,Toko Motor Elektrik,Tangkas Motor Listrik Mustika Bekasi,"Jl. H. Djole No.28, RT.002/RW.002, Padurenan, Kec. Mustika Jaya, Kota Bks, Jawa Barat 17156","RT.002/RW.002, Padurenan, Kec. Mustika Jaya, Kota Bks",PAPUA BARAT,17156.0,Indonesia,81252000075.0,-6.3144823,106.9963584,https://maps.google.com/?cid=0x0:0xcfc0529b0d3dafe4
toko bangunan,toko bangunan,Roswar,"Waprak, Kec. Roswar, Kabupaten Teluk Wondama, Papua Bar.","Kabupaten Teluk Wondama, Papua Bar.",PAPUA BARAT,,Indonesia,,-2.010139,134.378759,https://maps.google.com/?cid=0x0:0x4e47415efb8c1520
toko bangunan,Toko Bahan Bangunan,Toko Resky,"jalan poros, Kemon Jaya Sp V, Kec. Waropen Bawah, Kabupaten Waropen, Papua 98261","Kemon Jaya Sp V, Kec. Waropen Bawah, Kabupaten Waropen",PAPUA BARAT,98261.0,Indonesia,85394955553.0,-2.2185432,136.4200064,https://maps.google.com/?cid=0x0:0x356450f535852163
toko bangunan,Toko,TB Wondama Sentosa,"Wasior - Nabire, Miei, Maniwak, Distrik Wasior, Kabupaten Teluk Wondama, Papua Bar. 98362","Miei, Maniwak, Distrik Wasior, Kabupaten Teluk Wondama",PAPUA BARAT,98362.0,Indonesia,8113771366.0,-2.7361124,134.5131112,https://maps.google.com/?cid=0x0:0xa4797422a9cf9482
toko bangunan,Toko Bahan Bangunan,Toko habibi,"7GC6+82H, Jln Saberi. Masabuay, Wasior I, Distrik Wasior, Kabupaten Teluk Wondama, Papua Bar. 98362","Jln Saberi. Masabuay, Wasior I, Distrik Wasior, Kabupaten Teluk Wondama",PAPUA BARAT,98362.0,Indonesia,,-2.7291953,134.5101099,https://maps.google.com/?cid=0x0:0x7307e67b2bf16401
toko bangunan,Toko,TOKOH SUMBER TANI,"7GP4+34J, Moru, Distrik Wasior, Kabupaten Teluk Wondama, Papua Bar.","Kabupaten Teluk Wondama, Papua Bar.",PAPUA BARAT,,Indonesia,81344779976.0,-2.7147763,134.5052515,https://maps.google.com/?cid=0x0:0x24c2be28a4b72714
toko bangunan,toko bangunan,Kec. Tebet,"Kota Jakarta Selatan, Daerah Khusus Ibukota Jakarta","Kota Jakarta Selatan, Daerah Khusus Ibukota Jakarta",PAPUA BARAT,,Indonesia,,-6.2251223,106.8549881,https://maps.google.com/?cid=0x0:0xd575e31c807295f9
toko bangunan,Toko Bahan Bangunan,Toko Rumba Raya,"G524+8HJ, Sabri, Distrik Ransiki, Kabupaten Manokwari, Papua Bar. 98355","Sabri, Distrik Ransiki, Kabupaten Manokwari",PAPUA BARAT,98355.0,Indonesia,,-1.4991633,134.1563785,https://maps.google.com/?cid=0x0:0xa9c01ef767a67dcb
toko bangunan,Toko bahan makanan,Toko Irian,"Jl. Manokwari - Bintuni, Ransiki Kota, Distrik Ransiki, Kab. Manokwari Selatan, Papua Bar. 98355","Ransiki Kota, Distrik Ransiki, Kab. Manokwari Selatan",PAPUA BARAT,98355.0,Indonesia,,-1.5078497,134.1712887,https://maps.google.com/?cid=0x0:0xf38ba09157a6ee94
toko bangunan,Toko Bahan Bangunan,PAPUA BANGUNAN,"42GX+945, Wosi, Kec. Manokwari Bar., Kabupaten Manokwari, Papua Bar. 98312","Wosi, Kec. Manokwari Bar., Kabupaten Manokwari",PAPUA BARAT,98312.0,Indonesia,82198055550.0,-0.874101,134.0478473,https://maps.google.com/?cid=0x0:0x2c3683b193d9430f
toko bangunan,toko bangunan,Distrik Rumberpon,"Kabupaten Teluk Wondama, Papua Bar.","Kabupaten Teluk Wondama, Papua Bar.",PAPUA BARAT,,Indonesia,,-1.8449584,134.1491513,https://maps.google.com/?cid=0x0:0x3022979f8a7f5e3b
toko bangunan,Toko Bahan Bangunan,Toko Karya Abadi,"WJ4X+24P, Tuasai, Distrik Bintuni, Kabupaten Teluk Bintuni, Papua Bar. 98364","Tuasai, Distrik Bintuni, Kabupaten Teluk Bintuni",PAPUA BARAT,98364.0,Indonesia,82244443838.0,-2.094909,133.6478193,https://maps.google.com/?cid=0x0:0x860a78b44fea4433
toko bangunan,Toko,Jaya Bangun Utama,"6GH9+VPV, Unnamed Road, Iriati, Distrik Wasior, Kabupaten Teluk Wondama, Papua Bar. 98362","Unnamed Road, Iriati, Distrik Wasior, Kabupaten Teluk Wondama",PAPUA BARAT,98362.0,Indonesia,85298357980.0,-2.7702528,134.5193086,https://maps.google.com/?cid=0x0:0x7b7706dc36edb6d8
toko bangunan,Toko Bahan Bangunan,ANEKA BANGUNAN,"Wosi, Kec. Manokwari Bar., Kabupaten Manokwari, Papua Bar. 98312","Kec. Manokwari Bar., Kabupaten Manokwari",PAPUA BARAT,98312.0,Indonesia,81344843001.0,-0.8631883,134.0498559,https://maps.google.com/?cid=0x0:0x3598159af16f30ea
toko bangunan,Pemasok Bahan Bangunan,Depo Makmur Manokwari,"43P2+QWR, Jl. Trikora Wosi, Wosi, Kec. Manokwari Bar., Kabupaten Manokwari, Papua Bar. 98312","Jl. Trikora Wosi, Wosi, Kec. Manokwari Bar., Kabupaten Manokwari",PAPUA BARAT,98312.0,Indonesia,81248426402.0,-0.8630402,134.0521741,https://maps.google.com/?cid=0x0:0x387befda163fc63b
toko bangunan,Toko Bahan Bangunan,Toko MITRA HUSNUL BANGUNAN,"46FX+82M, Warari, Kec. Yapen Sel., Kabupaten Kepulauan Yapen, Papua 98213","Warari, Kec. Yapen Sel., Kabupaten Kepulauan Yapen",PAPUA BARAT,98213.0,Indonesia,,-1.8766528,136.247547,https://maps.google.com/?cid=0x0:0xda1336700384c06c
toko bangunan,Toko Bahan Bangunan,Toko Multi Bangunan,"Q97H+9V2, Sarafambai, Kec. Waropen Bawah, Kabupaten Waropen, Papua 98261","Sarafambai, Kec. Waropen Bawah, Kabupaten Waropen",PAPUA BARAT,98261.0,Indonesia,,-2.2366153,136.3796343,https://maps.google.com/?cid=0x0:0x8fe10ca526096f47
toko bangunan,Toko Bahan Bangunan,Toko Rahayu Babo,"FF52+F2R, Unnamed Road, Nusei, Babo, Kabupaten Teluk Bintuni, Papua Bar. 98363","Unnamed Road, Nusei, Babo, Kabupaten Teluk Bintuni",PAPUA BARAT,98363.0,Indonesia,85244200777.0,-2.5412733,133.45003,https://maps.google.com/?cid=0x0:0x2d6ca9cad594f391
toko bangunan,Toko Bahan Bangunan,toko bangunan Yep'Mum,"4Q38+6C4, Jl. Garuda, Arso Kota, Kec. Arso, Kabupaten Keerom, Papua 99468","Jl. Garuda, Arso Kota, Kec. Arso, Kabupaten Keerom",PAPUA BARAT,99468.0,Indonesia,85244664394.0,-2.8970308,140.7661616,https://maps.google.com/?cid=0x0:0x9649c22840d7e67e
toko bangunan,Toko,Toko Rani Jaya,"QH9V+R4W, Tlk, Samabusa, Distrik Tlk. Kimi, Kabupaten Nabire, Papua 98818","Tlk, Samabusa, Distrik Tlk. Kimi, Kabupaten Nabire",PAPUA BARAT,98818.0,Indonesia,,-3.2303914,135.5928205,https://maps.google.com/?cid=0x0:0xf69706fa32650118
toko bangunan,Toko Perlengkapan Rumah,Toko Bangunan URI,"Q93M+R2X, Uri, Kec. Waropen Bawah, Kabupaten Waropen, Papua 98261","Uri, Kec. Waropen Bawah, Kabupaten Waropen",PAPUA BARAT,98261.0,Indonesia,,-2.24502,136.382778,https://maps.google.com/?cid=0x0:0xedc722ce6d2e6662
toko bangunan,Toko,Jaya Bangun Utama,"6GH9+VPV, Unnamed Road, Iriati, Distrik Wasior, Kabupaten Teluk Wondama, Papua Bar. 98362","Unnamed Road, Iriati, Distrik Wasior, Kabupaten Teluk Wondama",PAPUA BARAT,98362.0,Indonesia,85298357980.0,-2.7702528,134.5193086,https://maps.google.com/?cid=0x0:0x7b7706dc36edb6d8
toko bangunan,Toko Bahan Bangunan,TOKO TOMIA UTAMA BANGUNAN,"7G87+W5P, Maniwak, Distrik Wasior, Kabupaten Teluk Wondama, Papua Bar. 98362","Maniwak, Distrik Wasior, Kabupaten Teluk Wondama",PAPUA BARAT,98362.0,Indonesia,81247372778.0,-2.7322358,134.5122614,https://maps.google.com/?cid=0x0:0x864ad61b8eeb23e4
toko bangunan,toko bangunan,Soug Jaya,"Kabupaten Teluk Wondama, Papua Bar.","Kabupaten Teluk Wondama, Papua Bar.",PAPUA BARAT,,Indonesia,,-1.8026511,134.1001732,https://maps.google.com/?cid=0x0:0x8fa303f645c60070
toko bangunan,Pemasok Bahan Bangunan,Toko bangunan Sumber Makmur,"32CM+75G, Jl. Manokwari - Maruni, Anday, Distrik Manokwari, Kabupaten Manokwari, Papua Bar. 98315","Jl. Manokwari - Maruni, Anday, Distrik Manokwari, Kabupaten Manokwari",PAPUA BARAT,98315.0,Indonesia,8114846060.0,-0.9293075,134.0329487,https://maps.google.com/?cid=0x0:0xa0a85c7270dde255
toko bangunan,Toko Bahan Bangunan,ANEKA BANGUNAN,"Wosi, Kec. Manokwari Bar., Kabupaten Manokwari, Papua Bar. 98312","Kec. Manokwari Bar., Kabupaten Manokwari",PAPUA BARAT,98312.0,Indonesia,81344843001.0,-0.8631883,134.0498559,https://maps.google.com/?cid=0x0:0x3598159af16f30ea
toko bangunan,Toko Bahan Bangunan,Toko Bangunan Saudara,"Jl. Pasir, pantai, Wosi, Kec. Manokwari Bar., Kabupaten Manokwari, Papua Bar. 98312","pantai, Wosi, Kec. Manokwari Bar., Kabupaten Manokwari",PAPUA BARAT,98312.0,Indonesia,81219608601.0,-0.8691435,134.0499159,https://maps.google.com/?cid=0x0:0xd3c286debc960345
toko bangunan,Toko Bahan Bangunan,PAPUA BANGUNAN,"42GX+945, Wosi, Kec. Manokwari Bar., Kabupaten Manokwari, Papua Bar. 98312","Wosi, Kec. Manokwari Bar., Kabupaten Manokwari",PAPUA BARAT,98312.0,Indonesia,82198055550.0,-0.874101,134.0478473,https://maps.google.com/?cid=0x0:0x2c3683b193d9430f
toko bangunan,Toko Bahan Bangunan,Toko Karya Abadi,"WJ4X+24P, Tuasai, Distrik Bintuni, Kabupaten Teluk Bintuni, Papua Bar. 98364","Tuasai, Distrik Bintuni, Kabupaten Teluk Bintuni",PAPUA BARAT,98364.0,Indonesia,82244443838.0,-2.094909,133.6478193,https://maps.google.com/?cid=0x0:0x860a78b44fea4433
toko bangunan,Toko Bahan Bangunan,TOKO SEMUWA,"Jl. Raya Doyo Baru, Doyo Baru, Distrik Waibu, Kabupaten Jayapura, Papua 99352","Doyo Baru, Distrik Waibu, Kabupaten Jayapura",PAPUA BARAT,99352.0,Indonesia,,-2.5412248,140.467993,https://maps.google.com/?cid=0x0:0x730a161bc4f81b34
toko bangunan,Toko Bahan Bangunan,toko bangunan Yep'Mum,"4Q38+6C4, Jl. Garuda, Arso Kota, Kec. Arso, Kabupaten Keerom, Papua 99468","Jl. Garuda, Arso Kota, Kec. Arso, Kabupaten Keerom",PAPUA BARAT,99468.0,Indonesia,85244664394.0,-2.8970308,140.7661616,https://maps.google.com/?cid=0x0:0x9649c22840d7e67e
toko bangunan,Toko Bahan Bangunan,DepoTeguh,"43QF+MP2, Padarni, Kec. Manokwari Bar., Kabupaten Manokwari, Papua Bar. 98312","Padarni, Kec. Manokwari Bar., Kabupaten Manokwari",PAPUA BARAT,98312.0,Indonesia,,-0.8608702,134.0742546,https://maps.google.com/?cid=0x0:0xa7aa87e22e73b4ed
toko bangunan,Toko Bahan Bangunan,Toko Central Bangunan,"42JW+2CG, Wosi, Kec. Manokwari Bar., Kabupaten Manokwari, Papua Bar. 98312","Wosi, Kec. Manokwari Bar., Kabupaten Manokwari",PAPUA BARAT,98312.0,Indonesia,,-0.8696454,134.0463667,https://maps.google.com/?cid=0x0:0x7ec708d770758168
toko bangunan,Pemasok Bahan Bangunan,Depo Makmur Manokwari,"43P2+QWR, Jl. Trikora Wosi, Wosi, Kec. Manokwari Bar., Kabupaten Manokwari, Papua Bar. 98312","Jl. Trikora Wosi, Wosi, Kec. Manokwari Bar., Kabupaten Manokwari",PAPUA BARAT,98312.0,Indonesia,81248426402.0,-0.8630402,134.0521741,https://maps.google.com/?cid=0x0:0x387befda163fc63b
toko bangunan,Toko Bahan Bangunan,Toko Bangunan Mamta Jaya,"Entrop, Distrik Jayapura Selatan, Kota Jayapura, Papua 99221","Distrik Jayapura Selatan, Kota Jayapura",PAPUA BARAT,99221.0,Indonesia,85198498008.0,-2.5674278,140.6991484,https://maps.google.com/?cid=0x0:0x2e3a73f71cf583d9
toko bangunan,Toko Bahan Bangunan,Toko habibi,"7GC6+82H, Jln Saberi. Masabuay, Wasior I, Distrik Wasior, Kabupaten Teluk Wondama, Papua Bar. 98362","Jln Saberi. Masabuay, Wasior I, Distrik Wasior, Kabupaten Teluk Wondama",PAPUA BARAT,98362.0,Indonesia,,-2.7291953,134.5101099,https://maps.google.com/?cid=0x0:0x7307e67b2bf16401
toko bangunan,Toko,TB Wondama Sentosa,"Wasior - Nabire, Miei, Maniwak, Distrik Wasior, Kabupaten Teluk Wondama, Papua Bar. 98362","Miei, Maniwak, Distrik Wasior, Kabupaten Teluk Wondama",PAPUA BARAT,98362.0,Indonesia,8113771366.0,-2.7361124,134.5131112,https://maps.google.com/?cid=0x0:0xa4797422a9cf9482
toko bangunan,Pasar bahan bangunan,Toko Bangunan Berkat Baru,"Wesiri, Distrik Bintuni, Kabupaten Teluk Bintuni, Papua Bar. 98364","Distrik Bintuni, Kabupaten Teluk Bintuni",PAPUA BARAT,98364.0,Indonesia,,-2.0915625,133.5054375,https://maps.google.com/?cid=0x0:0xce773245cf8675e4
toko bangunan,Toko,Toko emas Mantap,"7GJ4+QF3, Unnamed Road, Wasior II, Distrik Wasior, Kabupaten Teluk Wondama, Papua Bar. 98362","Unnamed Road, Wasior II, Distrik Wasior, Kabupaten Teluk Wondama",PAPUA BARAT,98362.0,Indonesia,85214149979.0,-2.7181113,134.5061798,https://maps.google.com/?cid=0x0:0xdbaa09168ca65d71
toko bangunan,Toko Perlengkapan Rumah,Toko Cahaya Wondama,"7GG4+F77, Wasior II, Distrik Wasior, Kabupaten Teluk Wondama, Papua Bar. 98362","Wasior II, Distrik Wasior, Kabupaten Teluk Wondama",PAPUA BARAT,98362.0,Indonesia,,-2.8551699,134.3236557,https://maps.google.com/?cid=0x0:0xb23b411fd88f850d
toko bangunan,toko bangunan,Wamesa,"Kabupaten Teluk Bintuni, Papua Bar.","Kabupaten Teluk Bintuni, Papua Bar.",PAPUA BARAT,,Indonesia,,-2.1434612,133.981812,https://maps.google.com/?cid=0x0:0x255b33cb1fd7a021
toko bangunan,Toko Bahan Bangunan,Toko Karya Abadi,"WJ4X+24P, Tuasai, Distrik Bintuni, Kabupaten Teluk Bintuni, Papua Bar. 98364","Tuasai, Distrik Bintuni, Kabupaten Teluk Bintuni",PAPUA BARAT,98364.0,Indonesia,82244443838.0,-2.094909,133.6478193,https://maps.google.com/?cid=0x0:0x860a78b44fea4433
toko bangunan,Toko Bahan Bangunan,Batu bata merah dua putra,"SP1 RT.1, Waraitama, Kabupaten Teluk Bintuni, Papua Bar.","Kabupaten Teluk Bintuni, Papua Bar.",PAPUA BARAT,,Indonesia,85244764026.0,-2.0818931,133.6794221,https://maps.google.com/?cid=0x0:0x4b98139f4446c4a6
toko bangunan,Toko Bahan Bangunan,Bata Merah Jansae,"WM8P+GMW SP 1, Jalur 4, Waraitama, Distrik Manimeri, Kabupaten Teluk Bintuni, Papua Bar. 98364","Jalur 4, Waraitama, Distrik Manimeri, Kabupaten Teluk Bintuni",PAPUA BARAT,98364.0,Indonesia,81239398876.0,-2.0836485,133.6867113,https://maps.google.com/?cid=0x0:0x6f1da27cf1685bd3
toko bangunan,Toko Bahan Bangunan,Tokoh bagunan fajriani h.m,"WJ3W+GJ5, Tuasai, Distrik Bintuni, Kabupaten Teluk Bintuni, Papua Bar. 98364","Tuasai, Distrik Bintuni, Kabupaten Teluk Bintuni",PAPUA BARAT,98364.0,Indonesia,,-2.0953093,133.6466562,https://maps.google.com/?cid=0x0:0x107c1e110f767af6
toko bangunan,toko bangunan,Papua Bar. 98364,"Kabupaten Teluk Bintuni, Papua Bar.","Kabupaten Teluk Bintuni, Papua Bar.",PAPUA BARAT,,Indonesia,,-1.8959987,133.6375314,https://maps.google.com/?cid=0x0:0x5d92307b98683ecf
toko bangunan,Pasar bahan bangunan,Toko Bangunan Berkat Baru,"Wesiri, Distrik Bintuni, Kabupaten Teluk Bintuni, Papua Bar. 98364","Distrik Bintuni, Kabupaten Teluk Bintuni",PAPUA BARAT,98364.0,Indonesia,,-2.0915625,133.5054375,https://maps.google.com/?cid=0x0:0xce773245cf8675e4
toko bangunan,toko bangunan,Wamesa,"Kabupaten Teluk Wondama, Papua Bar.","Kabupaten Teluk Wondama, Papua Bar.",PAPUA BARAT,,Indonesia,,-2.1544139,134.0770134,https://maps.google.com/?cid=0x0:0x66173cbf11eb7129
toko bangunan,Toko Bahan Bangunan,Toko Karya Abadi,"WJ4X+24P, Tuasai, Distrik Bintuni, Kabupaten Teluk Bintuni, Papua Bar. 98364","Tuasai, Distrik Bintuni, Kabupaten Teluk Bintuni",PAPUA BARAT,98364.0,Indonesia,82244443838.0,-2.094909,133.6478193,https://maps.google.com/?cid=0x0:0x860a78b44fea4433
toko bangunan,Pasar bahan bangunan,Toko Bangunan Berkat Baru,"Wesiri, Distrik Bintuni, Kabupaten Teluk Bintuni, Papua Bar. 98364","Distrik Bintuni, Kabupaten Teluk Bintuni",PAPUA BARAT,98364.0,Indonesia,,-2.0915625,133.5054375,https://maps.google.com/?cid=0x0:0xce773245cf8675e4
toko bangunan,Toko Bahan Bangunan,TOKO TOMIA UTAMA BANGUNAN,"7G87+W5P, Maniwak, Distrik Wasior, Kabupaten Teluk Wondama, Papua Bar. 98362","Maniwak, Distrik Wasior, Kabupaten Teluk Wondama",PAPUA BARAT,98362.0,Indonesia,81247372778.0,-2.7322358,134.5122614,https://maps.google.com/?cid=0x0:0x864ad61b8eeb23e4
toko bangunan,Toko,TB Wondama Sentosa,"Wasior - Nabire, Miei, Maniwak, Distrik Wasior, Kabupaten Teluk Wondama, Papua Bar. 98362","Miei, Maniwak, Distrik Wasior, Kabupaten Teluk Wondama",PAPUA BARAT,98362.0,Indonesia,8113771366.0,-2.7361124,134.5131112,https://maps.google.com/?cid=0x0:0xa4797422a9cf9482
toko bangunan,Toko Bahan Bangunan,Toko habibi,"7GC6+82H, Jln Saberi. Masabuay, Wasior I, Distrik Wasior, Kabupaten Teluk Wondama, Papua Bar. 98362","Jln Saberi. Masabuay, Wasior I, Distrik Wasior, Kabupaten Teluk Wondama",PAPUA BARAT,98362.0,Indonesia,,-2.7291953,134.5101099,https://maps.google.com/?cid=0x0:0x7307e67b2bf16401
toko bangunan,Toko Bahan Bangunan,Toko Rahayu Babo,"FF52+F2R, Unnamed Road, Nusei, Babo, Kabupaten Teluk Bintuni, Papua Bar. 98363","Unnamed Road, Nusei, Babo, Kabupaten Teluk Bintuni",PAPUA BARAT,98363.0,Indonesia,85244200777.0,-2.5412733,133.45003,https://maps.google.com/?cid=0x0:0x2d6ca9cad594f391
toko bangunan,Toko Bahan Bangunan,Tokoh bagunan fajriani h.m,"WJ3W+GJ5, Tuasai, Distrik Bintuni, Kabupaten Teluk Bintuni, Papua Bar. 98364","Tuasai, Distrik Bintuni, Kabupaten Teluk Bintuni",PAPUA BARAT,98364.0,Indonesia,,-2.0953093,133.6466562,https://maps.google.com/?cid=0x0:0x107c1e110f767af6
toko bangunan,toko bangunan,Papua Bar. 98361,"Kabupaten Teluk Wondama, Papua Bar.","Kabupaten Teluk Wondama, Papua Bar.",PAPUA BARAT,,Indonesia,,-2.4815085,134.2099791,https://maps.google.com/?cid=0x0:0xe298b41c3e32d0eb
toko bangunan,Toko Bahan Bangunan,ANEKA BANGUNAN,"Wosi, Kec. Manokwari Bar., Kabupaten Manokwari, Papua Bar. 98312","Kec. Manokwari Bar., Kabupaten Manokwari",PAPUA BARAT,98312.0,Indonesia,81344843001.0,-0.8631883,134.0498559,https://maps.google.com/?cid=0x0:0x3598159af16f30ea
toko bangunan,Toko Bahan Bangunan,Toko Bangunan Agung Papua,"CJ2P+W8F, Jl. Raya Waena, Kp. Waena, Kec. Heram, Kota Jayapura, Papua 99351","Jl. Raya Waena, Kp. Waena, Kec. Heram, Kota Jayapura",PAPUA BARAT,99351.0,Indonesia,,-2.5976776,140.6357935,https://maps.google.com/?cid=0x0:0xe204736893cd26aa
toko bangunan,Toko Bahan Bangunan,TOKO YUDHA BANGUNAN 1,"VWXP+H7P, Jl. Bayangkara, Hurekama, Distrik Wamena, Kabupaten Jayawijaya, Papua 99511","Jl. Bayangkara, Hurekama, Distrik Wamena, Kabupaten Jayawijaya",PAPUA BARAT,99511.0,Indonesia,81344454364.0,-4.1010288,138.9356942,https://maps.google.com/?cid=0x0:0xa571c584f4c25eaa
toko bangunan,Toko Bahan Bangunan,PAPUA BANGUNAN,"42GX+945, Wosi, Kec. Manokwari Bar., Kabupaten Manokwari, Papua Bar. 98312","Wosi, Kec. Manokwari Bar., Kabupaten Manokwari",PAPUA BARAT,98312.0,Indonesia,82198055550.0,-0.874101,134.0478473,https://maps.google.com/?cid=0x0:0x2c3683b193d9430f
toko bangunan,Toko Bahan Bangunan,Toko Sulawesi Tekhnik,"FC5X+94, Nusei, Babo, Kabupaten Teluk Bintuni, Papua Bar. 98363","Nusei, Babo, Kabupaten Teluk Bintuni",PAPUA BARAT,98363.0,Indonesia,85254235788.0,-2.5415228,133.4478073,https://maps.google.com/?cid=0x0:0xd55ca5f310ac8df0
toko bangunan,Toko,Jaya Bangun Utama,"6GH9+VPV, Unnamed Road, Iriati, Distrik Wasior, Kabupaten Teluk Wondama, Papua Bar. 98362","Unnamed Road, Iriati, Distrik Wasior, Kabupaten Teluk Wondama",PAPUA BARAT,98362.0,Indonesia,85298357980.0,-2.7702528,134.5193086,https://maps.google.com/?cid=0x0:0x7b7706dc36edb6d8
toko bangunan,Toko Bahan Bangunan,Toko habibi,"7GC6+82H, Jln Saberi. Masabuay, Wasior I, Distrik Wasior, Kabupaten Teluk Wondama, Papua Bar. 98362","Jln Saberi. Masabuay, Wasior I, Distrik Wasior, Kabupaten Teluk Wondama",PAPUA BARAT,98362.0,Indonesia,,-2.7291953,134.5101099,https://maps.google.com/?cid=0x0:0x7307e67b2bf16401
toko bangunan,toko bangunan,Distrik Wasior,"Kabupaten Teluk Wondama, Papua Bar.","Kabupaten Teluk Wondama, Papua Bar.",PAPUA BARAT,,Indonesia,,-2.726099,134.506737,https://maps.google.com/?cid=0x0:0x54655a71cd072b6e
toko bangunan,Toko,TOKOH SUMBER TANI,"7GP4+34J, Moru, Distrik Wasior, Kabupaten Teluk Wondama, Papua Bar.","Kabupaten Teluk Wondama, Papua Bar.",PAPUA BARAT,,Indonesia,81344779976.0,-2.7147763,134.5052515,https://maps.google.com/?cid=0x0:0x24c2be28a4b72714
toko bangunan,Toko Bahan Bangunan,TOKO TOMIA UTAMA BANGUNAN,"7G87+W5P, Maniwak, Distrik Wasior, Kabupaten Teluk Wondama, Papua Bar. 98362","Maniwak, Distrik Wasior, Kabupaten Teluk Wondama",PAPUA BARAT,98362.0,Indonesia,81247372778.0,-2.7322358,134.5122614,https://maps.google.com/?cid=0x0:0x864ad61b8eeb23e4
toko bangunan,Kantor Perusahaan,PERCETAKAN BATU TELA.CV DELY UTAMA,"6GV5+WQ, Maniwak, Distrik Wasior, Kabupaten Teluk Wondama, Papua Bar. 98362","Maniwak, Distrik Wasior, Kabupaten Teluk Wondama",PAPUA BARAT,98362.0,Indonesia,82345667749.0,-2.755202,134.5093784,https://maps.google.com/?cid=0x0:0x12f0ff77522b4d2e
toko bangunan,Toko Bahan Bangunan,TB.Wawi Mandiri,"5GRJ+2HJ, Wondiboi, Distrik Wondiboy, Kabupaten Teluk Wondama, Papua Bar. 98362","Wondiboi, Distrik Wondiboy, Kabupaten Teluk Wondama",PAPUA BARAT,98362.0,Indonesia,,-2.8102965,134.5316065,https://maps.google.com/?cid=0x0:0x4863273c6e26da8d
toko bangunan,toko bangunan,Kec. Windesi,"Kabupaten Teluk Wondama, Papua Bar.","Kabupaten Teluk Wondama, Papua Bar.",PAPUA BARAT,,Indonesia,,-2.601077,134.1340439,https://maps.google.com/?cid=0x0:0x9b9a2ca4d233e89d
toko bangunan,Toko,Jaya Bangun Utama,"6GH9+VPV, Unnamed Road, Iriati, Distrik Wasior, Kabupaten Teluk Wondama, Papua Bar. 98362","Unnamed Road, Iriati, Distrik Wasior, Kabupaten Teluk Wondama",PAPUA BARAT,98362.0,Indonesia,85298357980.0,-2.7702528,134.5193086,https://maps.google.com/?cid=0x0:0x7b7706dc36edb6d8
toko bangunan,Toko Bahan Bangunan,Toko habibi,"7GC6+82H, Jln Saberi. Masabuay, Wasior I, Distrik Wasior, Kabupaten Teluk Wondama, Papua Bar. 98362","Jln Saberi. Masabuay, Wasior I, Distrik Wasior, Kabupaten Teluk Wondama",PAPUA BARAT,98362.0,Indonesia,,-2.7291953,134.5101099,https://maps.google.com/?cid=0x0:0x7307e67b2bf16401
toko bangunan,Toko,TOKOH SUMBER TANI,"7GP4+34J, Moru, Distrik Wasior, Kabupaten Teluk Wondama, Papua Bar.","Kabupaten Teluk Wondama, Papua Bar.",PAPUA BARAT,,Indonesia,81344779976.0,-2.7147763,134.5052515,https://maps.google.com/?cid=0x0:0x24c2be28a4b72714
toko bangunan,Toko,TB Wondama Sentosa,"Wasior - Nabire, Miei, Maniwak, Distrik Wasior, Kabupaten Teluk Wondama, Papua Bar. 98362","Miei, Maniwak, Distrik Wasior, Kabupaten Teluk Wondama",PAPUA BARAT,98362.0,Indonesia,8113771366.0,-2.7361124,134.5131112,https://maps.google.com/?cid=0x0:0xa4797422a9cf9482
toko bangunan,Toko Bahan Bangunan,TOKO TOMIA UTAMA BANGUNAN,"7G87+W5P, Maniwak, Distrik Wasior, Kabupaten Teluk Wondama, Papua Bar. 98362","Maniwak, Distrik Wasior, Kabupaten Teluk Wondama",PAPUA BARAT,98362.0,Indonesia,81247372778.0,-2.7322358,134.5122614,https://maps.google.com/?cid=0x0:0x864ad61b8eeb23e4
toko bangunan,Toko Bahan Bangunan,TB.Wawi Mandiri,"5GRJ+2HJ, Wondiboi, Distrik Wondiboy, Kabupaten Teluk Wondama, Papua Bar. 98362","Wondiboi, Distrik Wondiboy, Kabupaten Teluk Wondama",PAPUA BARAT,98362.0,Indonesia,,-2.8102965,134.5316065,https://maps.google.com/?cid=0x0:0x4863273c6e26da8d
toko bangunan,Pasar bahan bangunan,Toko Bangunan Berkat Baru,"Wesiri, Distrik Bintuni, Kabupaten Teluk Bintuni, Papua Bar. 98364","Distrik Bintuni, Kabupaten Teluk Bintuni",PAPUA BARAT,98364.0,Indonesia,,-2.0915625,133.5054375,https://maps.google.com/?cid=0x0:0xce773245cf8675e4
toko bangunan,Toko Bahan Bangunan,"TB. Timur Jaya, Kwitang","Jl. Kramat Kwitang 1H No.1 3, RT.3/RW.5, Kwitang, Kec. Senen, Kota Jakarta Pusat, Daerah Khusus Ibukota Jakarta 10420","RT.3/RW.5, Kwitang, Kec. Senen, Kota Jakarta Pusat",PAPUA BARAT,10420.0,Indonesia,212305040.0,-6.1839852,106.840895,https://maps.google.com/?cid=0x0:0x2b496184cabbd527
toko bangunan,,Tb. Windu Jaya,"Baler Bale Agung, Kec. Negara, Kabupaten Jembrana, Bali","Kabupaten Jembrana, Bali",PAPUA BARAT,,Indonesia,,-8.3551403,114.619455,https://maps.google.com/?cid=0x0:0x2635db2a82a2fc13
toko bangunan,toko bangunan,Toko Bangunan Windia Jaya,"8HM8+8FW, Muara Kuang, Kec. Muara Kuang, Kabupaten Ogan Ilir, Sumatera Selatan 30865","Muara Kuang, Kec. Muara Kuang, Kabupaten Ogan Ilir",PAPUA BARAT,30865.0,Indonesia,,-3.6666351,104.5662141,https://maps.google.com/?cid=0x0:0x94c00cd7714604e4
toko bangunan,Minimarket,Tb winda,"3427+R6M, Ngrejo, Hargorejo, Kec. Tirtomoyo, Kabupaten Wonogiri, Jawa Tengah 57672","Ngrejo, Hargorejo, Kec. Tirtomoyo, Kabupaten Wonogiri",PAPUA BARAT,57672.0,Indonesia,,-7.9479079,111.1130374,https://maps.google.com/?cid=0x0:0xfbec3010beced0fe
toko bangunan,Toko,Jaya Bangun Utama,"6GH9+VPV, Unnamed Road, Iriati, Distrik Wasior, Kabupaten Teluk Wondama, Papua Bar. 98362","Unnamed Road, Iriati, Distrik Wasior, Kabupaten Teluk Wondama",PAPUA BARAT,98362.0,Indonesia,85298357980.0,-2.7702528,134.5193086,https://maps.google.com/?cid=0x0:0x7b7706dc36edb6d8
toko bangunan,toko bangunan,Kec. Windesi,"Kabupaten Teluk Wondama, Papua Bar.","Kabupaten Teluk Wondama, Papua Bar.",PAPUA BARAT,,Indonesia,,-2.601077,134.1340439,https://maps.google.com/?cid=0x0:0x9b9a2ca4d233e89d
toko bangunan,Toko Bahan Bangunan,Toko habibi,"7GC6+82H, Jln Saberi. Masabuay, Wasior I, Distrik Wasior, Kabupaten Teluk Wondama, Papua Bar. 98362","Jln Saberi. Masabuay, Wasior I, Distrik Wasior, Kabupaten Teluk Wondama",PAPUA BARAT,98362.0,Indonesia,,-2.7291953,134.5101099,https://maps.google.com/?cid=0x0:0x7307e67b2bf16401
toko bangunan,Toko Bahan Bangunan,ANEKA BANGUNAN,"Wosi, Kec. Manokwari Bar., Kabupaten Manokwari, Papua Bar. 98312","Kec. Manokwari Bar., Kabupaten Manokwari",PAPUA BARAT,98312.0,Indonesia,81344843001.0,-0.8631883,134.0498559,https://maps.google.com/?cid=0x0:0x3598159af16f30ea
toko bangunan,Toko,TB Wondama Sentosa,"Wasior - Nabire, Miei, Maniwak, Distrik Wasior, Kabupaten Teluk Wondama, Papua Bar. 98362","Miei, Maniwak, Distrik Wasior, Kabupaten Teluk Wondama",PAPUA BARAT,98362.0,Indonesia,8113771366.0,-2.7361124,134.5131112,https://maps.google.com/?cid=0x0:0xa4797422a9cf9482
toko bangunan,Toko Bahan Bangunan,TOKO TOMIA UTAMA BANGUNAN,"7G87+W5P, Maniwak, Distrik Wasior, Kabupaten Teluk Wondama, Papua Bar. 98362","Maniwak, Distrik Wasior, Kabupaten Teluk Wondama",PAPUA BARAT,98362.0,Indonesia,81247372778.0,-2.7322358,134.5122614,https://maps.google.com/?cid=0x0:0x864ad61b8eeb23e4
toko bangunan,Toko Bahan Bangunan,TB.Wawi Mandiri,"5GRJ+2HJ, Wondiboi, Distrik Wondiboy, Kabupaten Teluk Wondama, Papua Bar. 98362","Wondiboi, Distrik Wondiboy, Kabupaten Teluk Wondama",PAPUA BARAT,98362.0,Indonesia,,-2.8102965,134.5316065,https://maps.google.com/?cid=0x0:0x4863273c6e26da8d
toko bangunan,Pasar bahan bangunan,Toko Bangunan Berkat Baru,"Wesiri, Distrik Bintuni, Kabupaten Teluk Bintuni, Papua Bar. 98364","Distrik Bintuni, Kabupaten Teluk Bintuni",PAPUA BARAT,98364.0,Indonesia,,-2.0915625,133.5054375,https://maps.google.com/?cid=0x0:0xce773245cf8675e4
toko bangunan,Toko Bahan Bangunan,"TB. Timur Jaya, Kwitang","Jl. Kramat Kwitang 1H No.1 3, RT.3/RW.5, Kwitang, Kec. Senen, Kota Jakarta Pusat, Daerah Khusus Ibukota Jakarta 10420","RT.3/RW.5, Kwitang, Kec. Senen, Kota Jakarta Pusat",PAPUA BARAT,10420.0,Indonesia,212305040.0,-6.1839852,106.840895,https://maps.google.com/?cid=0x0:0x2b496184cabbd527
toko bangunan,toko bangunan,Toko Bangunan Windia Jaya,"8HM8+8FW, Muara Kuang, Kec. Muara Kuang, Kabupaten Ogan Ilir, Sumatera Selatan 30865","Muara Kuang, Kec. Muara Kuang, Kabupaten Ogan Ilir",PAPUA BARAT,30865.0,Indonesia,,-3.6666351,104.5662141,https://maps.google.com/?cid=0x0:0x94c00cd7714604e4
toko bangunan,,Tb. Windu Jaya,"Baler Bale Agung, Kec. Negara, Kabupaten Jembrana, Bali","Kabupaten Jembrana, Bali",PAPUA BARAT,,Indonesia,,-8.3551403,114.619455,https://maps.google.com/?cid=0x0:0x2635db2a82a2fc13
toko bangunan,toko bangunan,Papua Bar. 98361,"Kabupaten Teluk Wondama, Papua Bar.","Kabupaten Teluk Wondama, Papua Bar.",PAPUA BARAT,,Indonesia,,-2.4815085,134.2099791,https://maps.google.com/?cid=0x0:0xe298b41c3e32d0eb
toko bangunan,Toko,Jaya Bangun Utama,"6GH9+VPV, Unnamed Road, Iriati, Distrik Wasior, Kabupaten Teluk Wondama, Papua Bar. 98362","Unnamed Road, Iriati, Distrik Wasior, Kabupaten Teluk Wondama",PAPUA BARAT,98362.0,Indonesia,85298357980.0,-2.7702528,134.5193086,https://maps.google.com/?cid=0x0:0x7b7706dc36edb6d8
toko bangunan,Toko Bahan Bangunan,TOKO TOMIA UTAMA BANGUNAN,"7G87+W5P, Maniwak, Distrik Wasior, Kabupaten Teluk Wondama, Papua Bar. 98362","Maniwak, Distrik Wasior, Kabupaten Teluk Wondama",PAPUA BARAT,98362.0,Indonesia,81247372778.0,-2.7322358,134.5122614,https://maps.google.com/?cid=0x0:0x864ad61b8eeb23e4
toko bangunan,Toko Bahan Bangunan,ANEKA BANGUNAN,"Wosi, Kec. Manokwari Bar., Kabupaten Manokwari, Papua Bar. 98312","Kec. Manokwari Bar., Kabupaten Manokwari",PAPUA BARAT,98312.0,Indonesia,81344843001.0,-0.8631883,134.0498559,https://maps.google.com/?cid=0x0:0x3598159af16f30ea
toko bangunan,toko bangunan,Kec. Windesi,"Kabupaten Teluk Wondama, Papua Bar.","Kabupaten Teluk Wondama, Papua Bar.",PAPUA BARAT,,Indonesia,,-2.601077,134.1340439,https://maps.google.com/?cid=0x0:0x9b9a2ca4d233e89d
toko bangunan,Toko Bahan Bangunan,TB.Wawi Mandiri,"5GRJ+2HJ, Wondiboi, Distrik Wondiboy, Kabupaten Teluk Wondama, Papua Bar. 98362","Wondiboi, Distrik Wondiboy, Kabupaten Teluk Wondama",PAPUA BARAT,98362.0,Indonesia,,-2.8102965,134.5316065,https://maps.google.com/?cid=0x0:0x4863273c6e26da8d
toko bangunan,Pasar bahan bangunan,Toko Bangunan Berkat Baru,"Wesiri, Distrik Bintuni, Kabupaten Teluk Bintuni, Papua Bar. 98364","Distrik Bintuni, Kabupaten Teluk Bintuni",PAPUA BARAT,98364.0,Indonesia,,-2.0915625,133.5054375,https://maps.google.com/?cid=0x0:0xce773245cf8675e4
toko bangunan,Toko Bahan Bangunan,Toko Bangunan Difian,"Bumi Wonorejo, Distrik Nabire, Kabupaten Nabire, Papua 98813","Distrik Nabire, Kabupaten Nabire",PAPUA BARAT,98813.0,Indonesia,812400013420.0,-3.4008216,135.4801451,https://maps.google.com/?cid=0x0:0x9973da42063f154
toko bangunan,toko bangunan,Wondiboi,"Distrik Wondiboy, Kabupaten Teluk Wondama, Papua Bar.","Kabupaten Teluk Wondama, Papua Bar.",PAPUA BARAT,,Indonesia,,-2.8046444,134.5760814,https://maps.google.com/?cid=0x0:0xe68e45ccb2c17a3e
toko bangunan,Toko,Jaya Bangun Utama,"6GH9+VPV, Unnamed Road, Iriati, Distrik Wasior, Kabupaten Teluk Wondama, Papua Bar. 98362","Unnamed Road, Iriati, Distrik Wasior, Kabupaten Teluk Wondama",PAPUA BARAT,98362.0,Indonesia,85298357980.0,-2.7702528,134.5193086,https://maps.google.com/?cid=0x0:0x7b7706dc36edb6d8
toko bangunan,Toko Bahan Bangunan,TB.Wawi Mandiri,"5GRJ+2HJ, Wondiboi, Distrik Wondiboy, Kabupaten Teluk Wondama, Papua Bar. 98362","Wondiboi, Distrik Wondiboy, Kabupaten Teluk Wondama",PAPUA BARAT,98362.0,Indonesia,,-2.8102965,134.5316065,https://maps.google.com/?cid=0x0:0x4863273c6e26da8d
toko bangunan,Toko Bahan Bangunan,Toko habibi,"7GC6+82H, Jln Saberi. Masabuay, Wasior I, Distrik Wasior, Kabupaten Teluk Wondama, Papua Bar. 98362","Jln Saberi. Masabuay, Wasior I, Distrik Wasior, Kabupaten Teluk Wondama",PAPUA BARAT,98362.0,Indonesia,,-2.7291953,134.5101099,https://maps.google.com/?cid=0x0:0x7307e67b2bf16401
toko bangunan,Toko,TB Wondama Sentosa,"Wasior - Nabire, Miei, Maniwak, Distrik Wasior, Kabupaten Teluk Wondama, Papua Bar. 98362","Miei, Maniwak, Distrik Wasior, Kabupaten Teluk Wondama",PAPUA BARAT,98362.0,Indonesia,8113771366.0,-2.7361124,134.5131112,https://maps.google.com/?cid=0x0:0xa4797422a9cf9482
building materials,building materials,Kuri Wamesa,"Kabupaten Teluk Wondama, Papua Bar.","Kabupaten Teluk Wondama, Papua Bar.",PAPUA BARAT,,Indonesia,,-2.8551699,134.3236557,https://maps.google.com/?cid=0x0:0x8c3430e4162f73b3
building materials,Toko,Jaya Bangun Utama,"6GH9+VPV, Unnamed Road, Iriati, Distrik Wasior, Kabupaten Teluk Wondama, Papua Bar. 98362","Unnamed Road, Iriati, Distrik Wasior, Kabupaten Teluk Wondama",PAPUA BARAT,98362.0,Indonesia,85298357980.0,-2.7702528,134.5193086,https://maps.google.com/?cid=0x0:0x7b7706dc36edb6d8
building materials,Kantor Perusahaan,PERCETAKAN BATU TELA.CV DELY UTAMA,"6GV5+WQ, Maniwak, Distrik Wasior, Kabupaten Teluk Wondama, Papua Bar. 98362","Maniwak, Distrik Wasior, Kabupaten Teluk Wondama",PAPUA BARAT,98362.0,Indonesia,82345667749.0,-2.755202,134.5093784,https://maps.google.com/?cid=0x0:0x12f0ff77522b4d2e
building materials,Toko Bahan Bangunan,Toko habibi,"7GC6+82H, Jln Saberi. Masabuay, Wasior I, Distrik Wasior, Kabupaten Teluk Wondama, Papua Bar. 98362","Jln Saberi. Masabuay, Wasior I, Distrik Wasior, Kabupaten Teluk Wondama",PAPUA BARAT,98362.0,Indonesia,,-2.7291953,134.5101099,https://maps.google.com/?cid=0x0:0x7307e67b2bf16401
building materials,Toko Bahan Bangunan,TB.Wawi Mandiri,"5GRJ+2HJ, Wondiboi, Distrik Wondiboy, Kabupaten Teluk Wondama, Papua Bar. 98362","Wondiboi, Distrik Wondiboy, Kabupaten Teluk Wondama",PAPUA BARAT,98362.0,Indonesia,,-2.8102965,134.5316065,https://maps.google.com/?cid=0x0:0x4863273c6e26da8d
building materials,building materials,MALEWA WALPAPER,"6GFC+QC4, Iriati, Distrik Wasior, Kabupaten Teluk Wondama, Papua Bar. 98362","Iriati, Distrik Wasior, Kabupaten Teluk Wondama",PAPUA BARAT,98362.0,Indonesia,82248092578.0,-2.7756207,134.5210644,https://maps.google.com/?cid=0x0:0x56d70fd60b515707
building materials,building materials,Papua Bar. 98362,"Kabupaten Teluk Wondama, Papua Bar.","Kabupaten Teluk Wondama, Papua Bar.",PAPUA BARAT,,Indonesia,,-2.9647961,134.4748018,https://maps.google.com/?cid=0x0:0xbea57e7dbf1a786f
building materials,Toko,TB Wondama Sentosa,"Wasior - Nabire, Miei, Maniwak, Distrik Wasior, Kabupaten Teluk Wondama, Papua Bar. 98362","Miei, Maniwak, Distrik Wasior, Kabupaten Teluk Wondama",PAPUA BARAT,98362.0,Indonesia,8113771366.0,-2.7361124,134.5131112,https://maps.google.com/?cid=0x0:0xa4797422a9cf9482
building materials,Toko,Jaya Bangun Utama,"6GH9+VPV, Unnamed Road, Iriati, Distrik Wasior, Kabupaten Teluk Wondama, Papua Bar. 98362","Unnamed Road, Iriati, Distrik Wasior, Kabupaten Teluk Wondama",PAPUA BARAT,98362.0,Indonesia,85298357980.0,-2.7702528,134.5193086,https://maps.google.com/?cid=0x0:0x7b7706dc36edb6d8
building materials,Kantor Perusahaan,PERCETAKAN BATU TELA.CV DELY UTAMA,"6GV5+WQ, Maniwak, Distrik Wasior, Kabupaten Teluk Wondama, Papua Bar. 98362","Maniwak, Distrik Wasior, Kabupaten Teluk Wondama",PAPUA BARAT,98362.0,Indonesia,82345667749.0,-2.755202,134.5093784,https://maps.google.com/?cid=0x0:0x12f0ff77522b4d2e
building materials,Toko Bahan Bangunan,TB.Wawi Mandiri,"5GRJ+2HJ, Wondiboi, Distrik Wondiboy, Kabupaten Teluk Wondama, Papua Bar. 98362","Wondiboi, Distrik Wondiboy, Kabupaten Teluk Wondama",PAPUA BARAT,98362.0,Indonesia,,-2.8102965,134.5316065,https://maps.google.com/?cid=0x0:0x4863273c6e26da8d
building materials,Toko,TOKOH SUMBER TANI,"7GP4+34J, Moru, Distrik Wasior, Kabupaten Teluk Wondama, Papua Bar.","Kabupaten Teluk Wondama, Papua Bar.",PAPUA BARAT,,Indonesia,81344779976.0,-2.7147763,134.5052515,https://maps.google.com/?cid=0x0:0x24c2be28a4b72714
building materials,building materials,Naikere,"Kabupaten Teluk Wondama, Papua Bar.","Kabupaten Teluk Wondama, Papua Bar.",PAPUA BARAT,,Indonesia,,-3.199925,134.4748018,https://maps.google.com/?cid=0x0:0xea0e364c043491c5
building materials,Toko Bahan Bangunan,Toko habibi,"7GC6+82H, Jln Saberi. Masabuay, Wasior I, Distrik Wasior, Kabupaten Teluk Wondama, Papua Bar. 98362","Jln Saberi. Masabuay, Wasior I, Distrik Wasior, Kabupaten Teluk Wondama",PAPUA BARAT,98362.0,Indonesia,,-2.7291953,134.5101099,https://maps.google.com/?cid=0x0:0x7307e67b2bf16401
building materials,building materials,Papua Bar. 98361,"Kabupaten Teluk Wondama, Papua Bar.","Kabupaten Teluk Wondama, Papua Bar.",PAPUA BARAT,,Indonesia,,-2.4815085,134.2099791,https://maps.google.com/?cid=0x0:0xe298b41c3e32d0eb
building materials,Toko,Jaya Bangun Utama,"6GH9+VPV, Unnamed Road, Iriati, Distrik Wasior, Kabupaten Teluk Wondama, Papua Bar. 98362","Unnamed Road, Iriati, Distrik Wasior, Kabupaten Teluk Wondama",PAPUA BARAT,98362.0,Indonesia,85298357980.0,-2.7702528,134.5193086,https://maps.google.com/?cid=0x0:0x7b7706dc36edb6d8
building materials,building materials,Rasiei,"Distrik Rasiei, Kabupaten Teluk Wondama, Papua Bar.","Kabupaten Teluk Wondama, Papua Bar.",PAPUA BARAT,,Indonesia,,-2.8153904,134.5231135,https://maps.google.com/?cid=0x0:0xfcfbd46012f90d9c
building materials,building materials,Distrik Rasiei,"Kabupaten Teluk Wondama, Papua Bar.","Kabupaten Teluk Wondama, Papua Bar.",PAPUA BARAT,,Indonesia,,-2.8282078,134.5376798,https://maps.google.com/?cid=0x0:0xe7526caa8adcb663
building materials,building materials,Papua Bar. 98362,"Kabupaten Teluk Wondama, Papua Bar.","Kabupaten Teluk Wondama, Papua Bar.",PAPUA BARAT,,Indonesia,,-2.9647961,134.4748018,https://maps.google.com/?cid=0x0:0xbea57e7dbf1a786f
building materials,building materials,Papua Bar.,,Papua Bar.,PAPUA BARAT,,Indonesia,,-1.3361154,133.1747162,https://maps.google.com/?cid=0x0:0x5349c1f8c5c7cb62
building materials,building materials,"Port Angeles, Washington 98362","Port Angeles, Washington, Amerika Serikat","Port Angeles, Washington, Amerika Serikat",PAPUA BARAT,,Indonesia,,48.0962308,-123.3006354,https://maps.google.com/?cid=0x0:0xc9ec6b9236e3603f
building materials,building materials,Roswar,"Waprak, Kec. Roswar, Kabupaten Teluk Wondama, Papua Bar.","Kabupaten Teluk Wondama, Papua Bar.",PAPUA BARAT,,Indonesia,,-2.010139,134.378759,https://maps.google.com/?cid=0x0:0x4e47415efb8c1520
building materials,Toko,Jaya Bangun Utama,"6GH9+VPV, Unnamed Road, Iriati, Distrik Wasior, Kabupaten Teluk Wondama, Papua Bar. 98362","Unnamed Road, Iriati, Distrik Wasior, Kabupaten Teluk Wondama",PAPUA BARAT,98362.0,Indonesia,85298357980.0,-2.7702528,134.5193086,https://maps.google.com/?cid=0x0:0x7b7706dc36edb6d8
building materials,Toko,TB Wondama Sentosa,"Wasior - Nabire, Miei, Maniwak, Distrik Wasior, Kabupaten Teluk Wondama, Papua Bar. 98362","Miei, Maniwak, Distrik Wasior, Kabupaten Teluk Wondama",PAPUA BARAT,98362.0,Indonesia,8113771366.0,-2.7361124,134.5131112,https://maps.google.com/?cid=0x0:0xa4797422a9cf9482
building materials,Toko,TOKOH SUMBER TANI,"7GP4+34J, Moru, Distrik Wasior, Kabupaten Teluk Wondama, Papua Bar.","Kabupaten Teluk Wondama, Papua Bar.",PAPUA BARAT,,Indonesia,81344779976.0,-2.7147763,134.5052515,https://maps.google.com/?cid=0x0:0x24c2be28a4b72714
building materials,Kontraktor Lantai,CV. Dhiya Karya Kencana - DKK EPOXY,"Jl. Kihajar Dewantoro No.212, RT.2/RW.01, Ketapang, Kec. Cipondoh, Kota Tangerang, Banten 15147","RT.2/RW.01, Ketapang, Kec. Cipondoh, Kota Tangerang",PAPUA BARAT,15147.0,Indonesia,85710258960.0,-6.1840012,106.7021658,https://maps.google.com/?cid=0x0:0x139bfb616ad2f001
building materials,Kontraktor Lantai,CV. Pesona Karya Epoxy (Jasa Epoxy Lantai),"Jl. Ketapang Raya Gg. Ampel I, Ketapang, Kec. Cipondoh, Kota Tangerang, Banten 15148","Ketapang, Kec. Cipondoh, Kota Tangerang",PAPUA BARAT,15148.0,Indonesia,81280124562.0,-6.1846652,106.6924793,https://maps.google.com/?cid=0x0:0x9317a62c3127019c
building materials,Toko,Jaya Bangun Utama,"6GH9+VPV, Unnamed Road, Iriati, Distrik Wasior, Kabupaten Teluk Wondama, Papua Bar. 98362","Unnamed Road, Iriati, Distrik Wasior, Kabupaten Teluk Wondama",PAPUA BARAT,98362.0,Indonesia,85298357980.0,-2.7702528,134.5193086,https://maps.google.com/?cid=0x0:0x7b7706dc36edb6d8
building materials,Toko Bahan Bangunan,TOKO TOMIA UTAMA BANGUNAN,"7G87+W5P, Maniwak, Distrik Wasior, Kabupaten Teluk Wondama, Papua Bar. 98362","Maniwak, Distrik Wasior, Kabupaten Teluk Wondama",PAPUA BARAT,98362.0,Indonesia,81247372778.0,-2.7322358,134.5122614,https://maps.google.com/?cid=0x0:0x864ad61b8eeb23e4
building materials,building materials,Distrik Rumberpon,"Kabupaten Teluk Wondama, Papua Bar.","Kabupaten Teluk Wondama, Papua Bar.",PAPUA BARAT,,Indonesia,,-1.8449584,134.1491513,https://maps.google.com/?cid=0x0:0x3022979f8a7f5e3b
building materials,Toko Bahan Bangunan,Tiptore Building Material,"Jl. Poros Kuda Mati, Klp. Lima, Kec. Merauke, Kabupaten Merauke, Papua 99616","Klp. Lima, Kec. Merauke, Kabupaten Merauke",PAPUA BARAT,99616.0,Indonesia,82293657714.0,-8.5061763,140.4257632,https://maps.google.com/?cid=0x0:0xbf132c61e5517b30
building materials,Toko Perlengkapan Rumah,Toko Bangunan URI,"Q93M+R2X, Uri, Kec. Waropen Bawah, Kabupaten Waropen, Papua 98261","Uri, Kec. Waropen Bawah, Kabupaten Waropen",PAPUA BARAT,98261.0,Indonesia,,-2.24502,136.382778,https://maps.google.com/?cid=0x0:0xedc722ce6d2e6662
building materials,Toko,Jaya Bangun Utama,"6GH9+VPV, Unnamed Road, Iriati, Distrik Wasior, Kabupaten Teluk Wondama, Papua Bar. 98362","Unnamed Road, Iriati, Distrik Wasior, Kabupaten Teluk Wondama",PAPUA BARAT,98362.0,Indonesia,85298357980.0,-2.7702528,134.5193086,https://maps.google.com/?cid=0x0:0x7b7706dc36edb6d8
building materials,Toko Bahan Bangunan,TOKO TOMIA UTAMA BANGUNAN,"7G87+W5P, Maniwak, Distrik Wasior, Kabupaten Teluk Wondama, Papua Bar. 98362","Maniwak, Distrik Wasior, Kabupaten Teluk Wondama",PAPUA BARAT,98362.0,Indonesia,81247372778.0,-2.7322358,134.5122614,https://maps.google.com/?cid=0x0:0x864ad61b8eeb23e4
building materials,building materials,Duairi,"Kabupaten Teluk Wondama, Papua Bar.","Kabupaten Teluk Wondama, Papua Bar.",PAPUA BARAT,,Indonesia,,-2.5401452,134.5313569,https://maps.google.com/?cid=0x0:0x857fd4c80338c7d6
building materials,Toko,Jaya Bangun Utama,"6GH9+VPV, Unnamed Road, Iriati, Distrik Wasior, Kabupaten Teluk Wondama, Papua Bar. 98362","Unnamed Road, Iriati, Distrik Wasior, Kabupaten Teluk Wondama",PAPUA BARAT,98362.0,Indonesia,85298357980.0,-2.7702528,134.5193086,https://maps.google.com/?cid=0x0:0x7b7706dc36edb6d8
building materials,Toko Bahan Bangunan,Toko habibi,"7GC6+82H, Jln Saberi. Masabuay, Wasior I, Distrik Wasior, Kabupaten Teluk Wondama, Papua Bar. 98362","Jln Saberi. Masabuay, Wasior I, Distrik Wasior, Kabupaten Teluk Wondama",PAPUA BARAT,98362.0,Indonesia,,-2.7291953,134.5101099,https://maps.google.com/?cid=0x0:0x7307e67b2bf16401
building materials,building materials,Wamesa,"Kabupaten Teluk Bintuni, Papua Bar.","Kabupaten Teluk Bintuni, Papua Bar.",PAPUA BARAT,,Indonesia,,-2.1434612,133.981812,https://maps.google.com/?cid=0x0:0x255b33cb1fd7a021
building materials,Toko Bahan Bangunan,Toko Karya Abadi,"WJ4X+24P, Tuasai, Distrik Bintuni, Kabupaten Teluk Bintuni, Papua Bar. 98364","Tuasai, Distrik Bintuni, Kabupaten Teluk Bintuni",PAPUA BARAT,98364.0,Indonesia,82244443838.0,-2.094909,133.6478193,https://maps.google.com/?cid=0x0:0x860a78b44fea4433
building materials,Bengkel Bongkar Pasang Mesin,Kios Sinar Orisa (Electrical  hand tools),"Wesiri, KM. VI, Bintuni Bar., Distrik Bintuni, Kabupaten Teluk Bintuni, Papua Bar. 98364","KM. VI, Bintuni Bar., Distrik Bintuni, Kabupaten Teluk Bintuni",PAPUA BARAT,98364.0,Indonesia,,-2.0799485,133.4873112,https://maps.google.com/?cid=0x0:0xc6c63b0efd5640c4
building materials,Toko,Toko Sinar Terang Timur,"VJXQ+V22, Jl. Raya, Tuasai, Bintuni, Tuasay, West Papua 98364","Jl. Raya, Tuasai, Bintuni, Tuasay",PAPUA BARAT,98364.0,Indonesia,8124068453.0,-2.100368,133.6375203,https://maps.google.com/?cid=0x0:0x7fae44d662c99d21
building materials,Toko Bahan Bangunan,Bata Merah Jansae,"WM8P+GMW SP 1, Jalur 4, Waraitama, Distrik Manimeri, Kabupaten Teluk Bintuni, Papua Bar. 98364","Jalur 4, Waraitama, Distrik Manimeri, Kabupaten Teluk Bintuni",PAPUA BARAT,98364.0,Indonesia,81239398876.0,-2.0836485,133.6867113,https://maps.google.com/?cid=0x0:0x6f1da27cf1685bd3
building materials,Toko Bahan Bangunan,Batu bata merah dua putra,"SP1 RT.1, Waraitama, Kabupaten Teluk Bintuni, Papua Bar.","Kabupaten Teluk Bintuni, Papua Bar.",PAPUA BARAT,,Indonesia,85244764026.0,-2.0818931,133.6794221,https://maps.google.com/?cid=0x0:0x4b98139f4446c4a6
building materials,Gudang,CV. Jaya Makmur,"VGJP+3X4, Bintuni Tim., Distrik Bintuni, Kabupaten Teluk Bintuni, Papua Bar. 98364","Bintuni Tim., Distrik Bintuni, Kabupaten Teluk Bintuni",PAPUA BARAT,98364.0,Indonesia,85254304333.0,-2.1198611,133.5374507,https://maps.google.com/?cid=0x0:0x7d9fb3e56de40bf
building materials,Toko Bahan Bangunan,Toko Aneka Makmur,"VGGW+2X5, Jl. Raya Bintuni Kalikodok, East Bintuni, Bintuni, Teluk Bintuni Regency, West Papua 98364","Jl. Raya Bintuni Kalikodok, East Bintuni, Bintuni, Teluk Bintuni Regency",PAPUA BARAT,98364.0,Indonesia,,-2.1249937,133.5474698,https://maps.google.com/?cid=0x0:0xe19d0bd12fd2296
building materials,Toko Bahan Bangunan,Tokoh bagunan fajriani h.m,"WJ3W+GJ5, Tuasai, Distrik Bintuni, Kabupaten Teluk Bintuni, Papua Bar. 98364","Tuasai, Distrik Bintuni, Kabupaten Teluk Bintuni",PAPUA BARAT,98364.0,Indonesia,,-2.0953093,133.6466562,https://maps.google.com/?cid=0x0:0x107c1e110f767af6
building materials,Minimarket,Toko zahra,"Bumi Saniari, Distrik Manimeri, Kabupaten Teluk Bintuni, Papua Bar. 98364","Distrik Manimeri, Kabupaten Teluk Bintuni",PAPUA BARAT,98364.0,Indonesia,82143334443.0,-2.0339882,133.7198351,https://maps.google.com/?cid=0x0:0xcb5fbb6bbe05c129
building materials,Toko Alat Tulis Kantor,Toko Anugrah Bintuni,"VJQ8+3PX, Bintuni Tim., Distrik Bintuni, Kabupaten Teluk Bintuni, Papua Bar.","Kabupaten Teluk Bintuni, Papua Bar.",PAPUA BARAT,,Indonesia,81371713388.0,-2.1122558,133.6168706,https://maps.google.com/?cid=0x0:0x587a62ef916942dc
building materials,Toko Bahan Bangunan,Toko habibi,"7GC6+82H, Jln Saberi. Masabuay, Wasior I, Distrik Wasior, Kabupaten Teluk Wondama, Papua Bar. 98362","Jln Saberi. Masabuay, Wasior I, Distrik Wasior, Kabupaten Teluk Wondama",PAPUA BARAT,98362.0,Indonesia,,-2.7291953,134.5101099,https://maps.google.com/?cid=0x0:0x7307e67b2bf16401
building materials,Toko,TB Wondama Sentosa,"Wasior - Nabire, Miei, Maniwak, Distrik Wasior, Kabupaten Teluk Wondama, Papua Bar. 98362","Miei, Maniwak, Distrik Wasior, Kabupaten Teluk Wondama",PAPUA BARAT,98362.0,Indonesia,8113771366.0,-2.7361124,134.5131112,https://maps.google.com/?cid=0x0:0xa4797422a9cf9482
building materials,Toko Bahan Bangunan,TOKO TOMIA UTAMA BANGUNAN,"7G87+W5P, Maniwak, Distrik Wasior, Kabupaten Teluk Wondama, Papua Bar. 98362","Maniwak, Distrik Wasior, Kabupaten Teluk Wondama",PAPUA BARAT,98362.0,Indonesia,81247372778.0,-2.7322358,134.5122614,https://maps.google.com/?cid=0x0:0x864ad61b8eeb23e4
building materials,building materials,Distrik Wasior,"Kabupaten Teluk Wondama, Papua Bar.","Kabupaten Teluk Wondama, Papua Bar.",PAPUA BARAT,,Indonesia,,-2.726099,134.506737,https://maps.google.com/?cid=0x0:0x54655a71cd072b6e
building materials,Toko,Jaya Bangun Utama,"6GH9+VPV, Unnamed Road, Iriati, Distrik Wasior, Kabupaten Teluk Wondama, Papua Bar. 98362","Unnamed Road, Iriati, Distrik Wasior, Kabupaten Teluk Wondama",PAPUA BARAT,98362.0,Indonesia,85298357980.0,-2.7702528,134.5193086,https://maps.google.com/?cid=0x0:0x7b7706dc36edb6d8
building materials,Toko,TB Wondama Sentosa,"Wasior - Nabire, Miei, Maniwak, Distrik Wasior, Kabupaten Teluk Wondama, Papua Bar. 98362","Miei, Maniwak, Distrik Wasior, Kabupaten Teluk Wondama",PAPUA BARAT,98362.0,Indonesia,8113771366.0,-2.7361124,134.5131112,https://maps.google.com/?cid=0x0:0xa4797422a9cf9482
building materials,Kantor Perusahaan,PERCETAKAN BATU TELA.CV DELY UTAMA,"6GV5+WQ, Maniwak, Distrik Wasior, Kabupaten Teluk Wondama, Papua Bar. 98362","Maniwak, Distrik Wasior, Kabupaten Teluk Wondama",PAPUA BARAT,98362.0,Indonesia,82345667749.0,-2.755202,134.5093784,https://maps.google.com/?cid=0x0:0x12f0ff77522b4d2e
building materials,Toko,TOKOH SUMBER TANI,"7GP4+34J, Moru, Distrik Wasior, Kabupaten Teluk Wondama, Papua Bar.","Kabupaten Teluk Wondama, Papua Bar.",PAPUA BARAT,,Indonesia,81344779976.0,-2.7147763,134.5052515,https://maps.google.com/?cid=0x0:0x24c2be28a4b72714
building materials,Toko Bahan Bangunan,TB.Wawi Mandiri,"5GRJ+2HJ, Wondiboi, Distrik Wondiboy, Kabupaten Teluk Wondama, Papua Bar. 98362","Wondiboi, Distrik Wondiboy, Kabupaten Teluk Wondama",PAPUA BARAT,98362.0,Indonesia,,-2.8102965,134.5316065,https://maps.google.com/?cid=0x0:0x4863273c6e26da8d
building materials,building materials,Kec. Windesi,"Kabupaten Teluk Wondama, Papua Bar.","Kabupaten Teluk Wondama, Papua Bar.",PAPUA BARAT,,Indonesia,,-2.601077,134.1340439,https://maps.google.com/?cid=0x0:0x9b9a2ca4d233e89d
building materials,Toko,Jaya Bangun Utama,"6GH9+VPV, Unnamed Road, Iriati, Distrik Wasior, Kabupaten Teluk Wondama, Papua Bar. 98362","Unnamed Road, Iriati, Distrik Wasior, Kabupaten Teluk Wondama",PAPUA BARAT,98362.0,Indonesia,85298357980.0,-2.7702528,134.5193086,https://maps.google.com/?cid=0x0:0x7b7706dc36edb6d8
building materials,Toko,TB Wondama Sentosa,"Wasior - Nabire, Miei, Maniwak, Distrik Wasior, Kabupaten Teluk Wondama, Papua Bar. 98362","Miei, Maniwak, Distrik Wasior, Kabupaten Teluk Wondama",PAPUA BARAT,98362.0,Indonesia,8113771366.0,-2.7361124,134.5131112,https://maps.google.com/?cid=0x0:0xa4797422a9cf9482
building materials,building materials,Kec. Windesi,"Kabupaten Teluk Wondama, Papua Bar.","Kabupaten Teluk Wondama, Papua Bar.",PAPUA BARAT,,Indonesia,,-2.601077,134.1340439,https://maps.google.com/?cid=0x0:0x9b9a2ca4d233e89d
building materials,Toko,Jaya Bangun Utama,"6GH9+VPV, Unnamed Road, Iriati, Distrik Wasior, Kabupaten Teluk Wondama, Papua Bar. 98362","Unnamed Road, Iriati, Distrik Wasior, Kabupaten Teluk Wondama",PAPUA BARAT,98362.0,Indonesia,85298357980.0,-2.7702528,134.5193086,https://maps.google.com/?cid=0x0:0x7b7706dc36edb6d8
building materials,Toko,TB Wondama Sentosa,"Wasior - Nabire, Miei, Maniwak, Distrik Wasior, Kabupaten Teluk Wondama, Papua Bar. 98362","Miei, Maniwak, Distrik Wasior, Kabupaten Teluk Wondama",PAPUA BARAT,98362.0,Indonesia,8113771366.0,-2.7361124,134.5131112,https://maps.google.com/?cid=0x0:0xa4797422a9cf9482
building materials,building materials,Papua Bar. 98361,"Kabupaten Teluk Wondama, Papua Bar.","Kabupaten Teluk Wondama, Papua Bar.",PAPUA BARAT,,Indonesia,,-2.4815085,134.2099791,https://maps.google.com/?cid=0x0:0xe298b41c3e32d0eb
building materials,Toko,Jaya Bangun Utama,"6GH9+VPV, Unnamed Road, Iriati, Distrik Wasior, Kabupaten Teluk Wondama, Papua Bar. 98362","Unnamed Road, Iriati, Distrik Wasior, Kabupaten Teluk Wondama",PAPUA BARAT,98362.0,Indonesia,85298357980.0,-2.7702528,134.5193086,https://maps.google.com/?cid=0x0:0x7b7706dc36edb6d8
building materials,building materials,Kec. Windesi,"Kabupaten Teluk Wondama, Papua Bar.","Kabupaten Teluk Wondama, Papua Bar.",PAPUA BARAT,,Indonesia,,-2.601077,134.1340439,https://maps.google.com/?cid=0x0:0x9b9a2ca4d233e89d
building materials,Toko,TB Wondama Sentosa,"Wasior - Nabire, Miei, Maniwak, Distrik Wasior, Kabupaten Teluk Wondama, Papua Bar. 98362","Miei, Maniwak, Distrik Wasior, Kabupaten Teluk Wondama",PAPUA BARAT,98362.0,Indonesia,8113771366.0,-2.7361124,134.5131112,https://maps.google.com/?cid=0x0:0xa4797422a9cf9482
building materials,building materials,Wondiboi,"Distrik Wondiboy, Kabupaten Teluk Wondama, Papua Bar.","Kabupaten Teluk Wondama, Papua Bar.",PAPUA BARAT,,Indonesia,,-2.8046444,134.5760814,https://maps.google.com/?cid=0x0:0xe68e45ccb2c17a3e
building materials,Toko,Jaya Bangun Utama,"6GH9+VPV, Unnamed Road, Iriati, Distrik Wasior, Kabupaten Teluk Wondama, Papua Bar. 98362","Unnamed Road, Iriati, Distrik Wasior, Kabupaten Teluk Wondama",PAPUA BARAT,98362.0,Indonesia,85298357980.0,-2.7702528,134.5193086,https://maps.google.com/?cid=0x0:0x7b7706dc36edb6d8
building materials,Toko Bahan Bangunan,TB.Wawi Mandiri,"5GRJ+2HJ, Wondiboi, Distrik Wondiboy, Kabupaten Teluk Wondama, Papua Bar. 98362","Wondiboi, Distrik Wondiboy, Kabupaten Teluk Wondama",PAPUA BARAT,98362.0,Indonesia,,-2.8102965,134.5316065,https://maps.google.com/?cid=0x0:0x4863273c6e26da8d
building materials,Toko,TB Wondama Sentosa,"Wasior - Nabire, Miei, Maniwak, Distrik Wasior, Kabupaten Teluk Wondama, Papua Bar. 98362","Miei, Maniwak, Distrik Wasior, Kabupaten Teluk Wondama",PAPUA BARAT,98362.0,Indonesia,8113771366.0,-2.7361124,134.5131112,https://maps.google.com/?cid=0x0:0xa4797422a9cf9482
hardware store,Toko Bahan Bangunan,TOKO TOMIA UTAMA BANGUNAN,"7G87+W5P, Maniwak, Distrik Wasior, Kabupaten Teluk Wondama, Papua Bar. 98362","Maniwak, Distrik Wasior, Kabupaten Teluk Wondama",PAPUA BARAT,98362.0,Indonesia,81247372778.0,-2.7322358,134.5122614,https://maps.google.com/?cid=0x0:0x864ad61b8eeb23e4
hardware store,Toko,Jaya Bangun Utama,"6GH9+VPV, Unnamed Road, Iriati, Distrik Wasior, Kabupaten Teluk Wondama, Papua Bar. 98362","Unnamed Road, Iriati, Distrik Wasior, Kabupaten Teluk Wondama",PAPUA BARAT,98362.0,Indonesia,85298357980.0,-2.7702528,134.5193086,https://maps.google.com/?cid=0x0:0x7b7706dc36edb6d8
hardware store,Toko,Jaya Bangun Utama,"6GH9+VPV, Unnamed Road, Iriati, Distrik Wasior, Kabupaten Teluk Wondama, Papua Bar. 98362","Unnamed Road, Iriati, Distrik Wasior, Kabupaten Teluk Wondama",PAPUA BARAT,98362.0,Indonesia,85298357980.0,-2.7702528,134.5193086,https://maps.google.com/?cid=0x0:0x7b7706dc36edb6d8
hardware store,hardware store,Papua Bar. 98362,"Kabupaten Teluk Wondama, Papua Bar.","Kabupaten Teluk Wondama, Papua Bar.",PAPUA BARAT,,Indonesia,,-2.9647961,134.4748018,https://maps.google.com/?cid=0x0:0xbea57e7dbf1a786f
hardware store,Toko,TB Wondama Sentosa,"Wasior - Nabire, Miei, Maniwak, Distrik Wasior, Kabupaten Teluk Wondama, Papua Bar. 98362","Miei, Maniwak, Distrik Wasior, Kabupaten Teluk Wondama",PAPUA BARAT,98362.0,Indonesia,8113771366.0,-2.7361124,134.5131112,https://maps.google.com/?cid=0x0:0xa4797422a9cf9482
hardware store,hardware store,Naikere,"Kabupaten Teluk Wondama, Papua Bar.","Kabupaten Teluk Wondama, Papua Bar.",PAPUA BARAT,,Indonesia,,-3.199925,134.4748018,https://maps.google.com/?cid=0x0:0xea0e364c043491c5
hardware store,Toko Bahan Bangunan,TOKO TOMIA UTAMA BANGUNAN,"7G87+W5P, Maniwak, Distrik Wasior, Kabupaten Teluk Wondama, Papua Bar. 98362","Maniwak, Distrik Wasior, Kabupaten Teluk Wondama",PAPUA BARAT,98362.0,Indonesia,81247372778.0,-2.7322358,134.5122614,https://maps.google.com/?cid=0x0:0x864ad61b8eeb23e4
hardware store,Toko Bahan Bangunan,Viva Hardware Kemaman- Supermarket Bahan Bangunan,"Batu 2, Jalan Air Putih, Kampung Jaya, 24000 Chukai, Terengganu, Malaysia",Chukai,PAPUA BARAT,24000.0,Indonesia,601115453353.0,4.239267,103.3991514,https://maps.google.com/?cid=0x0:0x48a2db3707f12a82
hardware store,hardware store,Distrik Nikiwar,"Kabupaten Teluk Wondama, Papua Bar.","Kabupaten Teluk Wondama, Papua Bar.",PAPUA BARAT,,Indonesia,,-2.4591355,134.154877,https://maps.google.com/?cid=0x0:0xbaab917b04d0653c
hardware store,Toko Bahan Bangunan,Weld-Tek Hardware Trading,"K-7331  K, 7332, Jalan Jakar, Kampung Jakar, 24000 Chukai, Terengganu, Malaysia",Chukai,PAPUA BARAT,24000.0,Indonesia,6098593685.0,4.2206596,103.4253334,https://maps.google.com/?cid=0x0:0x67f4ae365cd6a513
hardware store,hardware store,Rasiei,"Distrik Rasiei, Kabupaten Teluk Wondama, Papua Bar.","Kabupaten Teluk Wondama, Papua Bar.",PAPUA BARAT,,Indonesia,,-2.8153904,134.5231135,https://maps.google.com/?cid=0x0:0xfcfbd46012f90d9c
hardware store,hardware store,Distrik Rasiei,"Kabupaten Teluk Wondama, Papua Bar.","Kabupaten Teluk Wondama, Papua Bar.",PAPUA BARAT,,Indonesia,,-2.8282078,134.5376798,https://maps.google.com/?cid=0x0:0xe7526caa8adcb663
hardware store,Toko Bahan Bangunan,Jaiwan Hardware,"45, Jalan Enggang, Taman Keramat, 54200 Kuala Lumpur, Selangor, Malaysia",Kuala Lumpur,PAPUA BARAT,54200.0,Indonesia,60342560668.0,3.1680864,101.7425441,https://maps.google.com/?cid=0x0:0x6a65f249d611154f
hardware store,hardware store,Papua Bar. 98362,"Kabupaten Teluk Wondama, Papua Bar.","Kabupaten Teluk Wondama, Papua Bar.",PAPUA BARAT,,Indonesia,,-2.9647961,134.4748018,https://maps.google.com/?cid=0x0:0xbea57e7dbf1a786f
hardware store,hardware store,Papua Bar.,,Papua Bar.,PAPUA BARAT,,Indonesia,,-1.3361154,133.1747162,https://maps.google.com/?cid=0x0:0x5349c1f8c5c7cb62
hardware store,hardware store,Sunset Do it Best Hardware,"518 Marine Dr, Port Angeles, WA 98363, Amerika Serikat","Port Angeles, WA",PAPUA BARAT,98363.0,Indonesia,13604573369.0,48.121578,-123.4431013,https://maps.google.com/?cid=0x0:0xebaacf3515ecc350
hardware store,Toko Kayu,Hartnagel Building Supply,"3111 E Hwy 101, Port Angeles, WA 98362, Amerika Serikat","Port Angeles, WA",PAPUA BARAT,98362.0,Indonesia,13604528933.0,48.1053076,-123.3712524,https://maps.google.com/?cid=0x0:0x92bfd1b73d5cf3f2
hardware store,hardware store,Kec. Tebet,"Kota Jakarta Selatan, Daerah Khusus Ibukota Jakarta","Kota Jakarta Selatan, Daerah Khusus Ibukota Jakarta",PAPUA BARAT,,Indonesia,,-6.2251223,106.8549881,https://maps.google.com/?cid=0x0:0xd575e31c807295f9
hardware store,hardware store,Roswar,"Waprak, Kec. Roswar, Kabupaten Teluk Wondama, Papua Bar.","Kabupaten Teluk Wondama, Papua Bar.",PAPUA BARAT,,Indonesia,,-2.010139,134.378759,https://maps.google.com/?cid=0x0:0x4e47415efb8c1520
hardware store,hardware store,Distrik Rumberpon,"Kabupaten Teluk Wondama, Papua Bar.","Kabupaten Teluk Wondama, Papua Bar.",PAPUA BARAT,,Indonesia,,-1.8449584,134.1491513,https://maps.google.com/?cid=0x0:0x3022979f8a7f5e3b
hardware store,Toko Bahan Bangunan,TG Hardware Trading  Supplies,"Lot 90 Semambu, 6, Jalan Industri Semambu 2, Kawasan Perindustrian Semambu, 25300 Kuantan, Pahang, Malaysia",Kuantan,PAPUA BARAT,25300.0,Indonesia,6095689898.0,3.8482085,103.3294291,https://maps.google.com/?cid=0x0:0xfbb35ce5a8940742
hardware store,Toko Bahan Bangunan,Jayaware Trading  Supplies,"Lot 16603, Jalan Gambang, Kawasan Perindustrian Batu 3 Tanah Putih, 25150 Kuantan, Pahang, Malaysia",Kuantan,PAPUA BARAT,25150.0,Indonesia,6095143611.0,3.7877867,103.3000177,https://maps.google.com/?cid=0x0:0x9280262c3b6bfb70
hardware store,hardware store,Soug Jaya,"Kabupaten Teluk Wondama, Papua Bar.","Kabupaten Teluk Wondama, Papua Bar.",PAPUA BARAT,,Indonesia,,-1.8026511,134.1001732,https://maps.google.com/?cid=0x0:0x8fa303f645c60070
hardware store,Pusat Perbelanjaan,Pasar Iriati,"6GH9+4JM, Iriati, Distrik Wasior, Kabupaten Teluk Wondama, Papua Bar. 98362","Iriati, Distrik Wasior, Kabupaten Teluk Wondama",PAPUA BARAT,98362.0,Indonesia,82191876763.0,-2.7721585,134.5190364,https://maps.google.com/?cid=0x0:0xb29f17b7ed03eaf1
hardware store,hardware store,Duairi,"Kabupaten Teluk Wondama, Papua Bar.","Kabupaten Teluk Wondama, Papua Bar.",PAPUA BARAT,,Indonesia,,-2.5401452,134.5313569,https://maps.google.com/?cid=0x0:0x857fd4c80338c7d6
hardware store,Gereja,GKI Syaloom Wasior,"7GF5+WX6, Bar., Wasior I, Distrik Wasior, Kabupaten Teluk Wondama, Papua Bar. 98362","Bar., Wasior I, Distrik Wasior, Kabupaten Teluk Wondama",PAPUA BARAT,98362.0,Indonesia,81289867287.0,-2.725211,134.5098937,https://maps.google.com/?cid=0x0:0x1f3af74a52ffd129
hardware store,Kantor Perusahaan,PT. WIJAYA SENTOSA,"Dusner, Kuri Wamesa, Kabupaten Teluk Wondama, Papua Bar. 98362","Kuri Wamesa, Kabupaten Teluk Wondama",PAPUA BARAT,98362.0,Indonesia,,-2.6527627,134.3682868,https://maps.google.com/?cid=0x0:0xa614e3718310e2b5
hardware store,hardware store,SD NEGERI WASIOR,"7GF5+RM2, Wasior I, Distrik Wasior, Kabupaten Teluk Wondama, Papua Bar. 98362","Wasior I, Distrik Wasior, Kabupaten Teluk Wondama",PAPUA BARAT,98362.0,Indonesia,,-2.7254846,134.5091516,https://maps.google.com/?cid=0x0:0x8c57a8fce68d2c9b
hardware store,Toko Bahan Bangunan,WINSON HARDWARE,"Jalan, Seremban, Negeri Sembilan, Malaysia","Seremban, Negeri Sembilan, Malaysia",PAPUA BARAT,,Indonesia,,2.8057699,102.3820648,https://maps.google.com/?cid=0x0:0x6181920248c56c2
hardware store,Toko Bahan Bangunan,Ws Win Hardware Sdn Bhd,"Lot 7368,Jalan Port Dickson, Batu 8 Mambau, 70300 Seremban, Negeri Sembilan, Malaysia",Seremban,PAPUA BARAT,70300.0,Indonesia,60124423326.0,2.6352189,101.8863225,https://maps.google.com/?cid=0x0:0x1d8764e01acc0810
hardware store,Pusat Perbelanjaan,Toko Sinar Azarah,"Kompleks Pasar Sentral Blok A-08, Kel Distrik, East Bintuni, Bintuni, Teluk Bintuni Regency, West Papua 98364","Kel Distrik, East Bintuni, Bintuni, Teluk Bintuni Regency",PAPUA BARAT,98364.0,Indonesia,81240358847.0,-2.1202703,133.5356659,https://maps.google.com/?cid=0x0:0x53b541808966fad9
hardware store,Minimarket,Toko zahra,"Bumi Saniari, Distrik Manimeri, Kabupaten Teluk Bintuni, Papua Bar. 98364","Distrik Manimeri, Kabupaten Teluk Bintuni",PAPUA BARAT,98364.0,Indonesia,82143334443.0,-2.0339882,133.7198351,https://maps.google.com/?cid=0x0:0xcb5fbb6bbe05c129
hardware store,hardware store,Wamesa,"Kabupaten Teluk Wondama, Papua Bar.","Kabupaten Teluk Wondama, Papua Bar.",PAPUA BARAT,,Indonesia,,-2.1544139,134.0770134,https://maps.google.com/?cid=0x0:0x66173cbf11eb7129
hardware store,hardware store,Wamesa,"Kabupaten Teluk Wondama, Papua Bar.","Kabupaten Teluk Wondama, Papua Bar.",PAPUA BARAT,,Indonesia,,-2.1544139,134.0770134,https://maps.google.com/?cid=0x0:0x66173cbf11eb7129
hardware store,hardware store,Distrik Wasior,"Kabupaten Teluk Wondama, Papua Bar.","Kabupaten Teluk Wondama, Papua Bar.",PAPUA BARAT,,Indonesia,,-2.726099,134.506737,https://maps.google.com/?cid=0x0:0x54655a71cd072b6e
hardware store,Toko,Jaya Bangun Utama,"6GH9+VPV, Unnamed Road, Iriati, Distrik Wasior, Kabupaten Teluk Wondama, Papua Bar. 98362","Unnamed Road, Iriati, Distrik Wasior, Kabupaten Teluk Wondama",PAPUA BARAT,98362.0,Indonesia,85298357980.0,-2.7702528,134.5193086,https://maps.google.com/?cid=0x0:0x7b7706dc36edb6d8
hardware store,Toko,TB Wondama Sentosa,"Wasior - Nabire, Miei, Maniwak, Distrik Wasior, Kabupaten Teluk Wondama, Papua Bar. 98362","Miei, Maniwak, Distrik Wasior, Kabupaten Teluk Wondama",PAPUA BARAT,98362.0,Indonesia,8113771366.0,-2.7361124,134.5131112,https://maps.google.com/?cid=0x0:0xa4797422a9cf9482
hardware store,Pusat Perbelanjaan,Pasar Iriati,"6GH9+4JM, Iriati, Distrik Wasior, Kabupaten Teluk Wondama, Papua Bar. 98362","Iriati, Distrik Wasior, Kabupaten Teluk Wondama",PAPUA BARAT,98362.0,Indonesia,82191876763.0,-2.7721585,134.5190364,https://maps.google.com/?cid=0x0:0xb29f17b7ed03eaf1
hardware store,hardware store,Kec. Windesi,"Kabupaten Teluk Wondama, Papua Bar.","Kabupaten Teluk Wondama, Papua Bar.",PAPUA BARAT,,Indonesia,,-2.601077,134.1340439,https://maps.google.com/?cid=0x0:0x9b9a2ca4d233e89d
hardware store,Toko Bahan Bangunan,Toko Cat WinJaya,"3, Jl. Pahlawan Revolusi No.14, RT.3/RW.2, Pd. Bambu, Kec. Duren Sawit, Kota Jakarta Timur, Daerah Khusus Ibukota Jakarta 13470","Jl. Pahlawan Revolusi No.14, RT.3/RW.2, Pd. Bambu, Kec. Duren Sawit, Kota Jakarta Timur",PAPUA BARAT,13470.0,Indonesia,81319067686.0,-6.2287803,106.8981792,https://maps.google.com/?cid=0x0:0x133f9b0b81d25b94
hardware store,Pusat Perbelanjaan,Centra Jeep4WD,"Mall Mega Glodok Kemayoran Lt 6 blok e1 no6, ACCESORISS MOBIL 4X4, Kec. Kemayoran, Kota Jakarta Pusat, Daerah Khusus Ibukota Jakarta 10610","ACCESORISS MOBIL 4X4, Kec. Kemayoran, Kota Jakarta Pusat",PAPUA BARAT,10610.0,Indonesia,82122717871.0,-6.1545563,106.8488111,https://maps.google.com/?cid=0x0:0xe81962eb4255051e
hardware store,hardware store,Kec. Windesi,"Kabupaten Teluk Wondama, Papua Bar.","Kabupaten Teluk Wondama, Papua Bar.",PAPUA BARAT,,Indonesia,,-2.601077,134.1340439,https://maps.google.com/?cid=0x0:0x9b9a2ca4d233e89d
hardware store,Pusat Perbelanjaan,Centra Jeep4WD,"Mall Mega Glodok Kemayoran Lt 6 blok e1 no6, ACCESORISS MOBIL 4X4, Kec. Kemayoran, Kota Jakarta Pusat, Daerah Khusus Ibukota Jakarta 10610","ACCESORISS MOBIL 4X4, Kec. Kemayoran, Kota Jakarta Pusat",PAPUA BARAT,10610.0,Indonesia,82122717871.0,-6.1545563,106.8488111,https://maps.google.com/?cid=0x0:0xe81962eb4255051e
hardware store,Dealer mobil,Showroom mobil,"Jl raya angkasa kav. B6 MGK KEMAYORAN LT. 2 Blok. S. 21-23, Jakarta, Daerah Khusus Ibukota Jakarta 10610",Jakarta,PAPUA BARAT,10610.0,Indonesia,,-6.1548193,106.8493709,https://maps.google.com/?cid=0x0:0xe26b71e88273c365
hardware store,Toko,Toko WINJAYA Sewing Machinery,"Jl melati indah no 5 rt 013 rw 09, Jl. Cengkareng Indah, RT.2/RW.14, Kapuk, Kecamatan Cengkareng, Jakarta, Daerah Khusus Ibukota Jakarta 17720","Jl. Cengkareng Indah, RT.2/RW.14, Kapuk, Kecamatan Cengkareng, Jakarta",PAPUA BARAT,17720.0,Indonesia,87888345303.0,-6.1478594,106.7480465,https://maps.google.com/?cid=0x0:0xc327e3a73274892f
hardware store,hardware store,Kec. Windesi,"Kabupaten Teluk Wondama, Papua Bar.","Kabupaten Teluk Wondama, Papua Bar.",PAPUA BARAT,,Indonesia,,-2.601077,134.1340439,https://maps.google.com/?cid=0x0:0x9b9a2ca4d233e89d
hardware store,Toko Bahan Bangunan,TB.Wawi Mandiri,"5GRJ+2HJ, Wondiboi, Distrik Wondiboy, Kabupaten Teluk Wondama, Papua Bar. 98362","Wondiboi, Distrik Wondiboy, Kabupaten Teluk Wondama",PAPUA BARAT,98362.0,Indonesia,,-2.8102965,134.5316065,https://maps.google.com/?cid=0x0:0x4863273c6e26da8d
hardware store,Toko,TB Wondama Sentosa,"Wasior - Nabire, Miei, Maniwak, Distrik Wasior, Kabupaten Teluk Wondama, Papua Bar. 98362","Miei, Maniwak, Distrik Wasior, Kabupaten Teluk Wondama",PAPUA BARAT,98362.0,Indonesia,8113771366.0,-2.7361124,134.5131112,https://maps.google.com/?cid=0x0:0xa4797422a9cf9482
hardware store,hardware store,Wondiboi,"Distrik Wondiboy, Kabupaten Teluk Wondama, Papua Bar.","Kabupaten Teluk Wondama, Papua Bar.",PAPUA BARAT,,Indonesia,,-2.8046444,134.5760814,https://maps.google.com/?cid=0x0:0xe68e45ccb2c17a3e
hardware store,hardware store,"Wasior I, masabuay","7GC6+467, Wasior I, Distrik Wasior, Kabupaten Teluk Wondama, Papua Bar. 98362","Wasior I, Distrik Wasior, Kabupaten Teluk Wondama",PAPUA BARAT,98362.0,Indonesia,,-2.7300205,134.5108003,https://maps.google.com/?cid=0x0:0x599e204b29834b39
supermarket bangunan,Toko,Jaya Bangun Utama,"6GH9+VPV, Unnamed Road, Iriati, Distrik Wasior, Kabupaten Teluk Wondama, Papua Bar. 98362","Unnamed Road, Iriati, Distrik Wasior, Kabupaten Teluk Wondama",PAPUA BARAT,98362.0,Indonesia,85298357980.0,-2.7702528,134.5193086,https://maps.google.com/?cid=0x0:0x7b7706dc36edb6d8
supermarket bangunan,supermarket bangunan,Kuri Wamesa,"Kabupaten Teluk Wondama, Papua Bar.","Kabupaten Teluk Wondama, Papua Bar.",PAPUA BARAT,,Indonesia,,-2.8551699,134.3236557,https://maps.google.com/?cid=0x0:0x8c3430e4162f73b3
supermarket bangunan,Toko Bahan Bangunan,TOKO TOMIA UTAMA BANGUNAN,"7G87+W5P, Maniwak, Distrik Wasior, Kabupaten Teluk Wondama, Papua Bar. 98362","Maniwak, Distrik Wasior, Kabupaten Teluk Wondama",PAPUA BARAT,98362.0,Indonesia,81247372778.0,-2.7322358,134.5122614,https://maps.google.com/?cid=0x0:0x864ad61b8eeb23e4
supermarket bangunan,Toko,TB Wondama Sentosa,"Wasior - Nabire, Miei, Maniwak, Distrik Wasior, Kabupaten Teluk Wondama, Papua Bar. 98362","Miei, Maniwak, Distrik Wasior, Kabupaten Teluk Wondama",PAPUA BARAT,98362.0,Indonesia,8113771366.0,-2.7361124,134.5131112,https://maps.google.com/?cid=0x0:0xa4797422a9cf9482
supermarket bangunan,Toko,TOKOH SUMBER TANI,"7GP4+34J, Moru, Distrik Wasior, Kabupaten Teluk Wondama, Papua Bar.","Kabupaten Teluk Wondama, Papua Bar.",PAPUA BARAT,,Indonesia,81344779976.0,-2.7147763,134.5052515,https://maps.google.com/?cid=0x0:0x24c2be28a4b72714
supermarket bangunan,Toko Bahan Bangunan,Toko habibi,"7GC6+82H, Jln Saberi. Masabuay, Wasior I, Distrik Wasior, Kabupaten Teluk Wondama, Papua Bar. 98362","Jln Saberi. Masabuay, Wasior I, Distrik Wasior, Kabupaten Teluk Wondama",PAPUA BARAT,98362.0,Indonesia,,-2.7291953,134.5101099,https://maps.google.com/?cid=0x0:0x7307e67b2bf16401
supermarket bangunan,Toko bahan makanan,KOKO MAJU BERSAMA,"Miei, Distrik Wasior, Kabupaten Teluk Wondama, Papua Bar. 98362","Distrik Wasior, Kabupaten Teluk Wondama",PAPUA BARAT,98362.0,Indonesia,,-2.7360945,134.5122993,https://maps.google.com/?cid=0x0:0x351104c7d3094549
supermarket bangunan,Toko Bahan Bangunan,Supermarket Multi Bangunan,"Jl Baru No.98, Wai Mhorock, Abepura, Jayapura City, Papua 99225","Wai Mhorock, Abepura, Jayapura City",PAPUA BARAT,99225.0,Indonesia,967588677.0,-2.6077336,140.6742812,https://maps.google.com/?cid=0x0:0x3b19f301c68f1d6f
supermarket bangunan,Toko Bahan Bangunan,TB.Wawi Mandiri,"5GRJ+2HJ, Wondiboi, Distrik Wondiboy, Kabupaten Teluk Wondama, Papua Bar. 98362","Wondiboi, Distrik Wondiboy, Kabupaten Teluk Wondama",PAPUA BARAT,98362.0,Indonesia,,-2.8102965,134.5316065,https://maps.google.com/?cid=0x0:0x4863273c6e26da8d
supermarket bangunan,Kantor Perusahaan,PERCETAKAN BATU TELA.CV DELY UTAMA,"6GV5+WQ, Maniwak, Distrik Wasior, Kabupaten Teluk Wondama, Papua Bar. 98362","Maniwak, Distrik Wasior, Kabupaten Teluk Wondama",PAPUA BARAT,98362.0,Indonesia,82345667749.0,-2.755202,134.5093784,https://maps.google.com/?cid=0x0:0x12f0ff77522b4d2e
supermarket bangunan,supermarket bangunan,Papua Bar. 98362,"Kabupaten Teluk Wondama, Papua Bar.","Kabupaten Teluk Wondama, Papua Bar.",PAPUA BARAT,,Indonesia,,-2.9647961,134.4748018,https://maps.google.com/?cid=0x0:0xbea57e7dbf1a786f
supermarket bangunan,Toko Bahan Bangunan,TOKO TOMIA UTAMA BANGUNAN,"7G87+W5P, Maniwak, Distrik Wasior, Kabupaten Teluk Wondama, Papua Bar. 98362","Maniwak, Distrik Wasior, Kabupaten Teluk Wondama",PAPUA BARAT,98362.0,Indonesia,81247372778.0,-2.7322358,134.5122614,https://maps.google.com/?cid=0x0:0x864ad61b8eeb23e4
supermarket bangunan,Toko,Jaya Bangun Utama,"6GH9+VPV, Unnamed Road, Iriati, Distrik Wasior, Kabupaten Teluk Wondama, Papua Bar. 98362","Unnamed Road, Iriati, Distrik Wasior, Kabupaten Teluk Wondama",PAPUA BARAT,98362.0,Indonesia,85298357980.0,-2.7702528,134.5193086,https://maps.google.com/?cid=0x0:0x7b7706dc36edb6d8
supermarket bangunan,Toko,TOKOH SUMBER TANI,"7GP4+34J, Moru, Distrik Wasior, Kabupaten Teluk Wondama, Papua Bar.","Kabupaten Teluk Wondama, Papua Bar.",PAPUA BARAT,,Indonesia,81344779976.0,-2.7147763,134.5052515,https://maps.google.com/?cid=0x0:0x24c2be28a4b72714
supermarket bangunan,Toko Bahan Bangunan,Toko habibi,"7GC6+82H, Jln Saberi. Masabuay, Wasior I, Distrik Wasior, Kabupaten Teluk Wondama, Papua Bar. 98362","Jln Saberi. Masabuay, Wasior I, Distrik Wasior, Kabupaten Teluk Wondama",PAPUA BARAT,98362.0,Indonesia,,-2.7291953,134.5101099,https://maps.google.com/?cid=0x0:0x7307e67b2bf16401
supermarket bangunan,Toko bahan makanan,KOKO MAJU BERSAMA,"Miei, Distrik Wasior, Kabupaten Teluk Wondama, Papua Bar. 98362","Distrik Wasior, Kabupaten Teluk Wondama",PAPUA BARAT,98362.0,Indonesia,,-2.7360945,134.5122993,https://maps.google.com/?cid=0x0:0x351104c7d3094549
supermarket bangunan,Kantor Perusahaan,PERCETAKAN BATU TELA.CV DELY UTAMA,"6GV5+WQ, Maniwak, Distrik Wasior, Kabupaten Teluk Wondama, Papua Bar. 98362","Maniwak, Distrik Wasior, Kabupaten Teluk Wondama",PAPUA BARAT,98362.0,Indonesia,82345667749.0,-2.755202,134.5093784,https://maps.google.com/?cid=0x0:0x12f0ff77522b4d2e
supermarket bangunan,Toko Perlengkapan Rumah,Tomia Market,"Unnamed Road, Wasior I, Distrik Wasior, Kabupaten Teluk Wondama, Papua Bar. 98362","Wasior I, Distrik Wasior, Kabupaten Teluk Wondama",PAPUA BARAT,98362.0,Indonesia,82271556667.0,-2.9647961,134.4748018,https://maps.google.com/?cid=0x0:0x148ee745d5acd27e
supermarket bangunan,Toko Bahan Bangunan,TB.Wawi Mandiri,"5GRJ+2HJ, Wondiboi, Distrik Wondiboy, Kabupaten Teluk Wondama, Papua Bar. 98362","Wondiboi, Distrik Wondiboy, Kabupaten Teluk Wondama",PAPUA BARAT,98362.0,Indonesia,,-2.8102965,134.5316065,https://maps.google.com/?cid=0x0:0x4863273c6e26da8d
supermarket bangunan,Toko Bahan Bangunan,ANEKA BANGUNAN,"Wosi, Kec. Manokwari Bar., Kabupaten Manokwari, Papua Bar. 98312","Kec. Manokwari Bar., Kabupaten Manokwari",PAPUA BARAT,98312.0,Indonesia,81344843001.0,-0.8631883,134.0498559,https://maps.google.com/?cid=0x0:0x3598159af16f30ea
supermarket bangunan,supermarket bangunan,Papua Bar. 98361,"Kabupaten Teluk Wondama, Papua Bar.","Kabupaten Teluk Wondama, Papua Bar.",PAPUA BARAT,,Indonesia,,-2.4815085,134.2099791,https://maps.google.com/?cid=0x0:0xe298b41c3e32d0eb
supermarket bangunan,Pemasok Bahan Bangunan,Depo Makmur Manokwari,"43P2+QWR, Jl. Trikora Wosi, Wosi, Kec. Manokwari Bar., Kabupaten Manokwari, Papua Bar. 98312","Jl. Trikora Wosi, Wosi, Kec. Manokwari Bar., Kabupaten Manokwari",PAPUA BARAT,98312.0,Indonesia,81248426402.0,-0.8630402,134.0521741,https://maps.google.com/?cid=0x0:0x387befda163fc63b
supermarket bangunan,Toko Bahan Bangunan,Supermarket Multi Bangunan,"Jl Baru No.98, Wai Mhorock, Abepura, Jayapura City, Papua 99225","Wai Mhorock, Abepura, Jayapura City",PAPUA BARAT,99225.0,Indonesia,967588677.0,-2.6077336,140.6742812,https://maps.google.com/?cid=0x0:0x3b19f301c68f1d6f
supermarket bangunan,Toko Bahan Bangunan,Toko Bangunan,"Jl. Trikora Taman Ria No.4, Sowi, Distrik Manokwari, Kabupaten Manokwari, Papua Bar. 98315","Sowi, Distrik Manokwari, Kabupaten Manokwari",PAPUA BARAT,98315.0,Indonesia,,-0.906996,134.035784,https://maps.google.com/?cid=0x0:0xe97020a60705142f
supermarket bangunan,Toko Bahan Bangunan,Toko Bangunan Ria-Utama,"Unnamed Road, Malaingkedi, Papua Bar. 98412, Malaingkedi, Kecamatan Sorong Manoi, Kota Sorong, Papua Bar. 98412","Malaingkedi, Papua Bar.",PAPUA BARAT,98412.0,Indonesia,82199656081.0,-0.8774608,131.2993409,https://maps.google.com/?cid=0x0:0x6fa2bf791344f50d
supermarket bangunan,Toko Bahan Bangunan,Toko Bangunan,"Jl. Gn. Salju No.70, Amban, Kec. Manokwari Bar., Kabupaten Manokwari, Papua Bar. 98314","Amban, Kec. Manokwari Bar., Kabupaten Manokwari",PAPUA BARAT,98314.0,Indonesia,,-0.8378489,134.0648609,https://maps.google.com/?cid=0x0:0x39e90745f521cce
supermarket bangunan,Toko Bahan Bangunan,Toko Karya Abadi,"WJ4X+24P, Tuasai, Distrik Bintuni, Kabupaten Teluk Bintuni, Papua Bar. 98364","Tuasai, Distrik Bintuni, Kabupaten Teluk Bintuni",PAPUA BARAT,98364.0,Indonesia,82244443838.0,-2.094909,133.6478193,https://maps.google.com/?cid=0x0:0x860a78b44fea4433
supermarket bangunan,Toko Perlengkapan Rumah,Toko Bangunan URI,"Q93M+R2X, Uri, Kec. Waropen Bawah, Kabupaten Waropen, Papua 98261","Uri, Kec. Waropen Bawah, Kabupaten Waropen",PAPUA BARAT,98261.0,Indonesia,,-2.24502,136.382778,https://maps.google.com/?cid=0x0:0xedc722ce6d2e6662
supermarket bangunan,Pemasok Bahan Bangunan,Supermarket Bangunan Abadi ( Bangunan Abadi ) Meruya,"Jl. Meruya Ilir Raya No.13 3, RT.3/RW.2, Meruya Utara, Kec. Kembangan, Kota Jakarta Barat, Daerah Khusus Ibukota Jakarta 11610","RT.3/RW.2, Meruya Utara, Kec. Kembangan, Kota Jakarta Barat",PAPUA BARAT,11610.0,Indonesia,215856801.0,-6.1976477,106.7425118,https://maps.google.com/?cid=0x0:0x13872e6ebcfc2cac
supermarket bangunan,Toko Bahan Bangunan,Toko Rahayu Babo,"FF52+F2R, Unnamed Road, Nusei, Babo, Kabupaten Teluk Bintuni, Papua Bar. 98363","Unnamed Road, Nusei, Babo, Kabupaten Teluk Bintuni",PAPUA BARAT,98363.0,Indonesia,85244200777.0,-2.5412733,133.45003,https://maps.google.com/?cid=0x0:0x2d6ca9cad594f391
supermarket bangunan,Toko Bahan Bangunan,Gudang Toko Depo Bangunan,"37FJ+7G5, Jl. Fakfak - Torea, Tanama, Distrik Fakfak, Kabupaten Fakfak, Papua Bar. 98614","Jl. Fakfak - Torea, Tanama, Distrik Fakfak, Kabupaten Fakfak",PAPUA BARAT,98614.0,Indonesia,,-2.9268666,132.2813702,https://maps.google.com/?cid=0x0:0x605ba6cbab94e804
supermarket bangunan,Toko Swalayan,Toko Depo Bangunan,"379V+Q4W, Fak Fak Selatan, Distrik Fakfak, Kabupaten Fakfak, Papua Bar. 98611","Fak Fak Selatan, Distrik Fakfak, Kabupaten Fakfak",PAPUA BARAT,98611.0,Indonesia,81332930235.0,-2.9305033,132.292834,https://maps.google.com/?cid=0x0:0x8845a3bfe8af225c
supermarket bangunan,Toko Bahan Bangunan,toko bangunan,"329G+VJ9, jln trikora arfai logpond, Anday, Kabupaten Manokwari","Kabupaten Manokwari, Papua Bar.",PAPUA BARAT,,Indonesia,,-0.9303319,134.0266147,https://maps.google.com/?cid=0x0:0x7ae5f49d1c059992
supermarket bangunan,supermarket bangunan,Rasiei,"Distrik Rasiei, Kabupaten Teluk Wondama, Papua Bar.","Kabupaten Teluk Wondama, Papua Bar.",PAPUA BARAT,,Indonesia,,-2.8153904,134.5231135,https://maps.google.com/?cid=0x0:0xfcfbd46012f90d9c
supermarket bangunan,Toko Bahan Bangunan,Supermarket Multi Bangunan,"Jl Baru No.98, Wai Mhorock, Abepura, Jayapura City, Papua 99225","Wai Mhorock, Abepura, Jayapura City",PAPUA BARAT,99225.0,Indonesia,967588677.0,-2.6077336,140.6742812,https://maps.google.com/?cid=0x0:0x3b19f301c68f1d6f
supermarket bangunan,Toko Bahan Bangunan,ANEKA BANGUNAN,"Wosi, Kec. Manokwari Bar., Kabupaten Manokwari, Papua Bar. 98312","Kec. Manokwari Bar., Kabupaten Manokwari",PAPUA BARAT,98312.0,Indonesia,81344843001.0,-0.8631883,134.0498559,https://maps.google.com/?cid=0x0:0x3598159af16f30ea
supermarket bangunan,Toko Swalayan,Toko Depo Bangunan,"379V+Q4W, Fak Fak Selatan, Distrik Fakfak, Kabupaten Fakfak, Papua Bar. 98611","Fak Fak Selatan, Distrik Fakfak, Kabupaten Fakfak",PAPUA BARAT,98611.0,Indonesia,81332930235.0,-2.9305033,132.292834,https://maps.google.com/?cid=0x0:0x8845a3bfe8af225c
supermarket bangunan,Pusat Perbelanjaan,Pasar Iriati,"6GH9+4JM, Iriati, Distrik Wasior, Kabupaten Teluk Wondama, Papua Bar. 98362","Iriati, Distrik Wasior, Kabupaten Teluk Wondama",PAPUA BARAT,98362.0,Indonesia,82191876763.0,-2.7721585,134.5190364,https://maps.google.com/?cid=0x0:0xb29f17b7ed03eaf1
supermarket bangunan,Pemasok Bahan Bangunan,Depo Makmur Manokwari,"43P2+QWR, Jl. Trikora Wosi, Wosi, Kec. Manokwari Bar., Kabupaten Manokwari, Papua Bar. 98312","Jl. Trikora Wosi, Wosi, Kec. Manokwari Bar., Kabupaten Manokwari",PAPUA BARAT,98312.0,Indonesia,81248426402.0,-0.8630402,134.0521741,https://maps.google.com/?cid=0x0:0x387befda163fc63b
supermarket bangunan,Toko Perlengkapan Rumah,Toko Bangunan URI,"Q93M+R2X, Uri, Kec. Waropen Bawah, Kabupaten Waropen, Papua 98261","Uri, Kec. Waropen Bawah, Kabupaten Waropen",PAPUA BARAT,98261.0,Indonesia,,-2.24502,136.382778,https://maps.google.com/?cid=0x0:0xedc722ce6d2e6662
supermarket bangunan,Toko Bahan Bangunan,Toko Rahayu Babo,"FF52+F2R, Unnamed Road, Nusei, Babo, Kabupaten Teluk Bintuni, Papua Bar. 98363","Unnamed Road, Nusei, Babo, Kabupaten Teluk Bintuni",PAPUA BARAT,98363.0,Indonesia,85244200777.0,-2.5412733,133.45003,https://maps.google.com/?cid=0x0:0x2d6ca9cad594f391
supermarket bangunan,Toko Bahan Bangunan,Toko Karya Abadi,"WJ4X+24P, Tuasai, Distrik Bintuni, Kabupaten Teluk Bintuni, Papua Bar. 98364","Tuasai, Distrik Bintuni, Kabupaten Teluk Bintuni",PAPUA BARAT,98364.0,Indonesia,82244443838.0,-2.094909,133.6478193,https://maps.google.com/?cid=0x0:0x860a78b44fea4433
supermarket bangunan,Toko Bahan Bangunan,Padma Bangunan,"Wai Mhorock, Kec. Abepura, Kota Jayapura, Papua 99225","Kec. Abepura, Kota Jayapura",PAPUA BARAT,99225.0,Indonesia,9675180108.0,-2.6096427,140.6725314,https://maps.google.com/?cid=0x0:0x908e38e219cfc28
supermarket bangunan,Toko Bahan Bangunan,DepoTeguh,"43QF+MP2, Padarni, Kec. Manokwari Bar., Kabupaten Manokwari, Papua Bar. 98312","Padarni, Kec. Manokwari Bar., Kabupaten Manokwari",PAPUA BARAT,98312.0,Indonesia,,-0.8608702,134.0742546,https://maps.google.com/?cid=0x0:0xa7aa87e22e73b4ed
supermarket bangunan,Toko Bahan Bangunan,DEPO BANGUNAN SINAR MATAHARI,"379X+243, Jl. Fakfak - Torea, Wagom Sel., Distrik Fakfak, Kabupaten Fakfak, Papua Bar. 98651","Jl. Fakfak - Torea, Wagom Sel., Distrik Fakfak, Kabupaten Fakfak",PAPUA BARAT,98651.0,Indonesia,81232387999.0,-2.9324935,132.2978043,https://maps.google.com/?cid=0x0:0x35e53a9d40e95e48
supermarket bangunan,Toko Swalayan,Toko Depo Bangunan,"379V+Q4W, Fak Fak Selatan, Distrik Fakfak, Kabupaten Fakfak, Papua Bar. 98611","Fak Fak Selatan, Distrik Fakfak, Kabupaten Fakfak",PAPUA BARAT,98611.0,Indonesia,81332930235.0,-2.9305033,132.292834,https://maps.google.com/?cid=0x0:0x8845a3bfe8af225c
supermarket bangunan,Toko Bahan Bangunan,Roma Bangunan Telukjambe,"Jl. Wirasaba No.78, Adiarsa Tim., Kec. Karawang Tim., Karawang, Jawa Barat 41311","Adiarsa Tim., Kec. Karawang Tim., Karawang",PAPUA BARAT,41311.0,Indonesia,8119188805.0,-6.3246016,107.3130773,https://maps.google.com/?cid=0x0:0xdb30c698a2e2e882
supermarket bangunan,Toko Bahan Bangunan,Roma Bangunan Purwakarta,"Jl. Veteran, Ciseureuh, Kec. Purwakarta, Kabupaten Purwakarta, Jawa Barat","Kabupaten Purwakarta, Jawa Barat",PAPUA BARAT,,Indonesia,82121215018.0,-6.51733,107.4492801,https://maps.google.com/?cid=0x0:0x5ed39ddb5b5c4925
supermarket bangunan,Toko Bahan Bangunan,Roma Bangunan Subang,"Jl. Otto Iskandardinata No.121, Karanganyar, Kec. Subang, Kabupaten Subang, Jawa Barat 41211","Karanganyar, Kec. Subang, Kabupaten Subang",PAPUA BARAT,41211.0,Indonesia,82321365588.0,-6.5618752,107.7682229,https://maps.google.com/?cid=0x0:0x80fc93d66f0f9ba6
supermarket bangunan,Toko Bahan Bangunan,Supermarket Multi Bangunan,"Jl Baru No.98, Wai Mhorock, Abepura, Jayapura City, Papua 99225","Wai Mhorock, Abepura, Jayapura City",PAPUA BARAT,99225.0,Indonesia,967588677.0,-2.6077336,140.6742812,https://maps.google.com/?cid=0x0:0x3b19f301c68f1d6f
supermarket bangunan,supermarket bangunan,Roswar,"Waprak, Kec. Roswar, Kabupaten Teluk Wondama, Papua Bar.","Kabupaten Teluk Wondama, Papua Bar.",PAPUA BARAT,,Indonesia,,-2.010139,134.378759,https://maps.google.com/?cid=0x0:0x4e47415efb8c1520
supermarket bangunan,Pemasok Bahan Bangunan,Supermarket Bangunan Abadi ( Bangunan Abadi ) Meruya,"Jl. Meruya Ilir Raya No.13 3, RT.3/RW.2, Meruya Utara, Kec. Kembangan, Kota Jakarta Barat, Daerah Khusus Ibukota Jakarta 11610","RT.3/RW.2, Meruya Utara, Kec. Kembangan, Kota Jakarta Barat",PAPUA BARAT,11610.0,Indonesia,215856801.0,-6.1976477,106.7425118,https://maps.google.com/?cid=0x0:0x13872e6ebcfc2cac
supermarket bangunan,Toko Bahan Bangunan,Toko Bangunan Ria-Utama,"Unnamed Road, Malaingkedi, Papua Bar. 98412, Malaingkedi, Kecamatan Sorong Manoi, Kota Sorong, Papua Bar. 98412","Malaingkedi, Papua Bar.",PAPUA BARAT,98412.0,Indonesia,82199656081.0,-0.8774608,131.2993409,https://maps.google.com/?cid=0x0:0x6fa2bf791344f50d
supermarket bangunan,Toko bahan makanan,SBA (Supermarket Bangunan Abadi),"Jl. Pd. Kacang No.88B, Pd. Kacang Bar., Kec. Pd. Aren, Kota Tangerang Selatan, Banten 15226","Pd. Kacang Bar., Kec. Pd. Aren, Kota Tangerang Selatan",PAPUA BARAT,15226.0,Indonesia,2173460185.0,-6.254577,106.688324,https://maps.google.com/?cid=0x0:0x370ec3ee4dda53b
supermarket bangunan,Toko Bahan Bangunan,Gudang Toko Depo Bangunan,"37FJ+7G5, Jl. Fakfak - Torea, Tanama, Distrik Fakfak, Kabupaten Fakfak, Papua Bar. 98614","Jl. Fakfak - Torea, Tanama, Distrik Fakfak, Kabupaten Fakfak",PAPUA BARAT,98614.0,Indonesia,,-2.9268666,132.2813702,https://maps.google.com/?cid=0x0:0x605ba6cbab94e804
supermarket bangunan,Toko Perlengkapan Rumah,Toko Bangunan URI,"Q93M+R2X, Uri, Kec. Waropen Bawah, Kabupaten Waropen, Papua 98261","Uri, Kec. Waropen Bawah, Kabupaten Waropen",PAPUA BARAT,98261.0,Indonesia,,-2.24502,136.382778,https://maps.google.com/?cid=0x0:0xedc722ce6d2e6662
supermarket bangunan,Toko Bahan Bangunan,Padma Bangunan,"Wai Mhorock, Kec. Abepura, Kota Jayapura, Papua 99225","Kec. Abepura, Kota Jayapura",PAPUA BARAT,99225.0,Indonesia,9675180108.0,-2.6096427,140.6725314,https://maps.google.com/?cid=0x0:0x908e38e219cfc28
supermarket bangunan,supermarket bangunan,Distrik Rumberpon,"Kabupaten Teluk Wondama, Papua Bar.","Kabupaten Teluk Wondama, Papua Bar.",PAPUA BARAT,,Indonesia,,-1.8449584,134.1491513,https://maps.google.com/?cid=0x0:0x3022979f8a7f5e3b
supermarket bangunan,Toko Bahan Bangunan,Supermarket Multi Bangunan,"Jl Baru No.98, Wai Mhorock, Abepura, Jayapura City, Papua 99225","Wai Mhorock, Abepura, Jayapura City",PAPUA BARAT,99225.0,Indonesia,967588677.0,-2.6077336,140.6742812,https://maps.google.com/?cid=0x0:0x3b19f301c68f1d6f
supermarket bangunan,Pemasok Bahan Bangunan,Toko bangunan Sumber Makmur,"32CM+75G, Jl. Manokwari - Maruni, Anday, Distrik Manokwari, Kabupaten Manokwari, Papua Bar. 98315","Jl. Manokwari - Maruni, Anday, Distrik Manokwari, Kabupaten Manokwari",PAPUA BARAT,98315.0,Indonesia,8114846060.0,-0.9293075,134.0329487,https://maps.google.com/?cid=0x0:0xa0a85c7270dde255
supermarket bangunan,Toko Bahan Bangunan,Toko Bangunan FIRMAN,"Jl. Trikora Wosi No.168, Wosi, Kec. Manokwari Bar., Kabupaten Manokwari, Papua Bar. 98312","Wosi, Kec. Manokwari Bar., Kabupaten Manokwari",PAPUA BARAT,98312.0,Indonesia,8114118555.0,-0.8672239,134.0562233,https://maps.google.com/?cid=0x0:0xad10e51218925944
supermarket bangunan,Pemasok Bahan Bangunan,Depo Makmur Manokwari,"43P2+QWR, Jl. Trikora Wosi, Wosi, Kec. Manokwari Bar., Kabupaten Manokwari, Papua Bar. 98312","Jl. Trikora Wosi, Wosi, Kec. Manokwari Bar., Kabupaten Manokwari",PAPUA BARAT,98312.0,Indonesia,81248426402.0,-0.8630402,134.0521741,https://maps.google.com/?cid=0x0:0x387befda163fc63b
supermarket bangunan,Toko Bahan Bangunan,Toko Rahayu Babo,"FF52+F2R, Unnamed Road, Nusei, Babo, Kabupaten Teluk Bintuni, Papua Bar. 98363","Unnamed Road, Nusei, Babo, Kabupaten Teluk Bintuni",PAPUA BARAT,98363.0,Indonesia,85244200777.0,-2.5412733,133.45003,https://maps.google.com/?cid=0x0:0x2d6ca9cad594f391
supermarket bangunan,Toko Bahan Bangunan,Toko Bangunan Saudara,"Jl. Pasir, pantai, Wosi, Kec. Manokwari Bar., Kabupaten Manokwari, Papua Bar. 98312","pantai, Wosi, Kec. Manokwari Bar., Kabupaten Manokwari",PAPUA BARAT,98312.0,Indonesia,81219608601.0,-0.8691435,134.0499159,https://maps.google.com/?cid=0x0:0xd3c286debc960345
supermarket bangunan,Toko Bahan Bangunan,ANEKA BANGUNAN,"Wosi, Kec. Manokwari Bar., Kabupaten Manokwari, Papua Bar. 98312","Kec. Manokwari Bar., Kabupaten Manokwari",PAPUA BARAT,98312.0,Indonesia,81344843001.0,-0.8631883,134.0498559,https://maps.google.com/?cid=0x0:0x3598159af16f30ea
supermarket bangunan,Toko Bahan Bangunan,Toko Bangunan,"Jl. Trikora Taman Ria No.4, Sowi, Distrik Manokwari, Kabupaten Manokwari, Papua Bar. 98315","Sowi, Distrik Manokwari, Kabupaten Manokwari",PAPUA BARAT,98315.0,Indonesia,,-0.906996,134.035784,https://maps.google.com/?cid=0x0:0xe97020a60705142f
supermarket bangunan,Toko Bahan Bangunan,Toko Central Bangunan,"42JW+2CG, Wosi, Kec. Manokwari Bar., Kabupaten Manokwari, Papua Bar. 98312","Wosi, Kec. Manokwari Bar., Kabupaten Manokwari",PAPUA BARAT,98312.0,Indonesia,,-0.8696454,134.0463667,https://maps.google.com/?cid=0x0:0x7ec708d770758168
supermarket bangunan,Toko Bahan Bangunan,Toko Karya Abadi,"WJ4X+24P, Tuasai, Distrik Bintuni, Kabupaten Teluk Bintuni, Papua Bar. 98364","Tuasai, Distrik Bintuni, Kabupaten Teluk Bintuni",PAPUA BARAT,98364.0,Indonesia,82244443838.0,-2.094909,133.6478193,https://maps.google.com/?cid=0x0:0x860a78b44fea4433
supermarket bangunan,Toko Bahan Bangunan,Toko Bangunan,"Jl. Gn. Salju No.70, Amban, Kec. Manokwari Bar., Kabupaten Manokwari, Papua Bar. 98314","Amban, Kec. Manokwari Bar., Kabupaten Manokwari",PAPUA BARAT,98314.0,Indonesia,,-0.8378489,134.0648609,https://maps.google.com/?cid=0x0:0x39e90745f521cce
supermarket bangunan,Toko Perlengkapan Rumah,Toko Bangunan URI,"Q93M+R2X, Uri, Kec. Waropen Bawah, Kabupaten Waropen, Papua 98261","Uri, Kec. Waropen Bawah, Kabupaten Waropen",PAPUA BARAT,98261.0,Indonesia,,-2.24502,136.382778,https://maps.google.com/?cid=0x0:0xedc722ce6d2e6662
supermarket bangunan,Toko Swalayan,Toko Depo Bangunan,"379V+Q4W, Fak Fak Selatan, Distrik Fakfak, Kabupaten Fakfak, Papua Bar. 98611","Fak Fak Selatan, Distrik Fakfak, Kabupaten Fakfak",PAPUA BARAT,98611.0,Indonesia,81332930235.0,-2.9305033,132.292834,https://maps.google.com/?cid=0x0:0x8845a3bfe8af225c
supermarket bangunan,Toko Bahan Bangunan,Supermarket Multi Bangunan,"Jl Baru No.98, Wai Mhorock, Abepura, Jayapura City, Papua 99225","Wai Mhorock, Abepura, Jayapura City",PAPUA BARAT,99225.0,Indonesia,967588677.0,-2.6077336,140.6742812,https://maps.google.com/?cid=0x0:0x3b19f301c68f1d6f
supermarket bangunan,Toko Bahan Bangunan,Padma Bangunan,"Wai Mhorock, Kec. Abepura, Kota Jayapura, Papua 99225","Kec. Abepura, Kota Jayapura",PAPUA BARAT,99225.0,Indonesia,9675180108.0,-2.6096427,140.6725314,https://maps.google.com/?cid=0x0:0x908e38e219cfc28
supermarket bangunan,supermarket bangunan,Soug Jaya,"Kabupaten Teluk Wondama, Papua Bar.","Kabupaten Teluk Wondama, Papua Bar.",PAPUA BARAT,,Indonesia,,-1.8026511,134.1001732,https://maps.google.com/?cid=0x0:0x8fa303f645c60070
supermarket bangunan,Toko Swalayan,K-Mart,"Wijaya Grand Centre, Jl. Darmawangsa Raya No.43-44, RT.5/RW.1, Pulo, Kec. Kby. Baru, Kota Jakarta Selatan, Daerah Khusus Ibukota Jakarta 12160","Jl. Darmawangsa Raya No.43-44, RT.5/RW.1, Pulo, Kec. Kby. Baru, Kota Jakarta Selatan",PAPUA BARAT,12160.0,Indonesia,2122775526.0,-6.2545176,106.8010066,https://maps.google.com/?cid=0x0:0x67f5c5b3bd113abc
supermarket bangunan,supermarket bangunan,Duairi,"Kabupaten Teluk Wondama, Papua Bar.","Kabupaten Teluk Wondama, Papua Bar.",PAPUA BARAT,,Indonesia,,-2.5401452,134.5313569,https://maps.google.com/?cid=0x0:0x857fd4c80338c7d6
supermarket bangunan,Toko Bahan Bangunan,Supermarket Multi Bangunan,"Jl Baru No.98, Wai Mhorock, Abepura, Jayapura City, Papua 99225","Wai Mhorock, Abepura, Jayapura City",PAPUA BARAT,99225.0,Indonesia,967588677.0,-2.6077336,140.6742812,https://maps.google.com/?cid=0x0:0x3b19f301c68f1d6f
supermarket bangunan,Pusat Perbelanjaan,Pasar Iriati,"6GH9+4JM, Iriati, Distrik Wasior, Kabupaten Teluk Wondama, Papua Bar. 98362","Iriati, Distrik Wasior, Kabupaten Teluk Wondama",PAPUA BARAT,98362.0,Indonesia,82191876763.0,-2.7721585,134.5190364,https://maps.google.com/?cid=0x0:0xb29f17b7ed03eaf1
supermarket bangunan,Toko Perlengkapan Rumah,Toko Cahaya Wondama,"7GG4+F77, Wasior II, Distrik Wasior, Kabupaten Teluk Wondama, Papua Bar. 98362","Wasior II, Distrik Wasior, Kabupaten Teluk Wondama",PAPUA BARAT,98362.0,Indonesia,,-2.8551699,134.3236557,https://maps.google.com/?cid=0x0:0xb23b411fd88f850d
supermarket bangunan,Toko Bahan Bangunan,Toko Karya Abadi,"WJ4X+24P, Tuasai, Distrik Bintuni, Kabupaten Teluk Bintuni, Papua Bar. 98364","Tuasai, Distrik Bintuni, Kabupaten Teluk Bintuni",PAPUA BARAT,98364.0,Indonesia,82244443838.0,-2.094909,133.6478193,https://maps.google.com/?cid=0x0:0x860a78b44fea4433
supermarket bangunan,supermarket bangunan,Wamesa,"Kabupaten Teluk Bintuni, Papua Bar.","Kabupaten Teluk Bintuni, Papua Bar.",PAPUA BARAT,,Indonesia,,-2.1434612,133.981812,https://maps.google.com/?cid=0x0:0x255b33cb1fd7a021
supermarket bangunan,Toko Bahan Bangunan,Supermarket Multi Bangunan,"Jl Baru No.98, Wai Mhorock, Abepura, Jayapura City, Papua 99225","Wai Mhorock, Abepura, Jayapura City",PAPUA BARAT,99225.0,Indonesia,967588677.0,-2.6077336,140.6742812,https://maps.google.com/?cid=0x0:0x3b19f301c68f1d6f
supermarket bangunan,Toko Bahan Bangunan,Gudang Toko Depo Bangunan,"37FJ+7G5, Jl. Fakfak - Torea, Tanama, Distrik Fakfak, Kabupaten Fakfak, Papua Bar. 98614","Jl. Fakfak - Torea, Tanama, Distrik Fakfak, Kabupaten Fakfak",PAPUA BARAT,98614.0,Indonesia,,-2.9268666,132.2813702,https://maps.google.com/?cid=0x0:0x605ba6cbab94e804
supermarket bangunan,Toko Swalayan,Toko Depo Bangunan,"379V+Q4W, Fak Fak Selatan, Distrik Fakfak, Kabupaten Fakfak, Papua Bar. 98611","Fak Fak Selatan, Distrik Fakfak, Kabupaten Fakfak",PAPUA BARAT,98611.0,Indonesia,81332930235.0,-2.9305033,132.292834,https://maps.google.com/?cid=0x0:0x8845a3bfe8af225c
supermarket bangunan,Toko Bahan Bangunan,Tokoh bagunan fajriani h.m,"WJ3W+GJ5, Tuasai, Distrik Bintuni, Kabupaten Teluk Bintuni, Papua Bar. 98364","Tuasai, Distrik Bintuni, Kabupaten Teluk Bintuni",PAPUA BARAT,98364.0,Indonesia,,-2.0953093,133.6466562,https://maps.google.com/?cid=0x0:0x107c1e110f767af6
supermarket bangunan,supermarket bangunan,Papua Bar. 98364,"Kabupaten Teluk Bintuni, Papua Bar.","Kabupaten Teluk Bintuni, Papua Bar.",PAPUA BARAT,,Indonesia,,-1.8959987,133.6375314,https://maps.google.com/?cid=0x0:0x5d92307b98683ecf
supermarket bangunan,supermarket bangunan,Wamesa,"Kabupaten Teluk Wondama, Papua Bar.","Kabupaten Teluk Wondama, Papua Bar.",PAPUA BARAT,,Indonesia,,-2.1544139,134.0770134,https://maps.google.com/?cid=0x0:0x66173cbf11eb7129
supermarket bangunan,Toko Bahan Bangunan,Supermarket Multi Bangunan,"Jl Baru No.98, Wai Mhorock, Abepura, Jayapura City, Papua 99225","Wai Mhorock, Abepura, Jayapura City",PAPUA BARAT,99225.0,Indonesia,967588677.0,-2.6077336,140.6742812,https://maps.google.com/?cid=0x0:0x3b19f301c68f1d6f
supermarket bangunan,Toko Bahan Bangunan,Toko Bangunan Agung Papua,"CJ2P+W8F, Jl. Raya Waena, Kp. Waena, Kec. Heram, Kota Jayapura, Papua 99351","Jl. Raya Waena, Kp. Waena, Kec. Heram, Kota Jayapura",PAPUA BARAT,99351.0,Indonesia,,-2.5976776,140.6357935,https://maps.google.com/?cid=0x0:0xe204736893cd26aa
supermarket bangunan,Toko Bahan Bangunan,Toko Karya Abadi,"WJ4X+24P, Tuasai, Distrik Bintuni, Kabupaten Teluk Bintuni, Papua Bar. 98364","Tuasai, Distrik Bintuni, Kabupaten Teluk Bintuni",PAPUA BARAT,98364.0,Indonesia,82244443838.0,-2.094909,133.6478193,https://maps.google.com/?cid=0x0:0x860a78b44fea4433
supermarket bangunan,Toko Swalayan,Toko Depo Bangunan,"379V+Q4W, Fak Fak Selatan, Distrik Fakfak, Kabupaten Fakfak, Papua Bar. 98611","Fak Fak Selatan, Distrik Fakfak, Kabupaten Fakfak",PAPUA BARAT,98611.0,Indonesia,81332930235.0,-2.9305033,132.292834,https://maps.google.com/?cid=0x0:0x8845a3bfe8af225c
supermarket bangunan,Toko Bahan Bangunan,Gudang Toko Depo Bangunan,"37FJ+7G5, Jl. Fakfak - Torea, Tanama, Distrik Fakfak, Kabupaten Fakfak, Papua Bar. 98614","Jl. Fakfak - Torea, Tanama, Distrik Fakfak, Kabupaten Fakfak",PAPUA BARAT,98614.0,Indonesia,,-2.9268666,132.2813702,https://maps.google.com/?cid=0x0:0x605ba6cbab94e804
supermarket bangunan,Toko Bahan Bangunan,Surya Prima,"Jl. Kelapa Dua Raya Entrop No.18, Entrop, Jayapura Selatan, Jayapura City, Papua 99221","Entrop, Jayapura Selatan, Jayapura City",PAPUA BARAT,99221.0,Indonesia,82199367291.0,-2.5685557,140.7022939,https://maps.google.com/?cid=0x0:0x52a2d9ba8f08d112
supermarket bangunan,Toko Bahan Bangunan,TOKO BANGUNAN,"38G3+5PF, Fak Fak Utara, Distrik Fakfak, Kabupaten Fakfak, Papua Bar. 98651","Fak Fak Utara, Distrik Fakfak, Kabupaten Fakfak",PAPUA BARAT,98651.0,Indonesia,83121529512.0,-2.9245593,132.3042975,https://maps.google.com/?cid=0x0:0x3e3de1be5a573a7
supermarket bangunan,Toko Bahan Bangunan,Tokoh bagunan fajriani h.m,"WJ3W+GJ5, Tuasai, Distrik Bintuni, Kabupaten Teluk Bintuni, Papua Bar. 98364","Tuasai, Distrik Bintuni, Kabupaten Teluk Bintuni",PAPUA BARAT,98364.0,Indonesia,,-2.0953093,133.6466562,https://maps.google.com/?cid=0x0:0x107c1e110f767af6
supermarket bangunan,Toko Bahan Bangunan,Toko Bangunan Asahan Mandiri,"9MQ8+G3R, Jl. Raya Abepura - Sentani, Kota Baru, Kec. Abepura, Kota Jayapura, Papua 99351","Jl. Raya Abepura - Sentani, Kota Baru, Kec. Abepura, Kota Jayapura",PAPUA BARAT,99351.0,Indonesia,811487674.0,-2.6111398,140.6651408,https://maps.google.com/?cid=0x0:0x38b2e62fb958cc0e
supermarket bangunan,supermarket bangunan,Distrik Wasior,"Kabupaten Teluk Wondama, Papua Bar.","Kabupaten Teluk Wondama, Papua Bar.",PAPUA BARAT,,Indonesia,,-2.726099,134.506737,https://maps.google.com/?cid=0x0:0x54655a71cd072b6e
supermarket bangunan,Toko Bahan Bangunan,TOKO TOMIA UTAMA BANGUNAN,"7G87+W5P, Maniwak, Distrik Wasior, Kabupaten Teluk Wondama, Papua Bar. 98362","Maniwak, Distrik Wasior, Kabupaten Teluk Wondama",PAPUA BARAT,98362.0,Indonesia,81247372778.0,-2.7322358,134.5122614,https://maps.google.com/?cid=0x0:0x864ad61b8eeb23e4
supermarket bangunan,Toko,Jaya Bangun Utama,"6GH9+VPV, Unnamed Road, Iriati, Distrik Wasior, Kabupaten Teluk Wondama, Papua Bar. 98362","Unnamed Road, Iriati, Distrik Wasior, Kabupaten Teluk Wondama",PAPUA BARAT,98362.0,Indonesia,85298357980.0,-2.7702528,134.5193086,https://maps.google.com/?cid=0x0:0x7b7706dc36edb6d8
supermarket bangunan,Toko Bahan Bangunan,Toko habibi,"7GC6+82H, Jln Saberi. Masabuay, Wasior I, Distrik Wasior, Kabupaten Teluk Wondama, Papua Bar. 98362","Jln Saberi. Masabuay, Wasior I, Distrik Wasior, Kabupaten Teluk Wondama",PAPUA BARAT,98362.0,Indonesia,,-2.7291953,134.5101099,https://maps.google.com/?cid=0x0:0x7307e67b2bf16401
supermarket bangunan,Toko,TOKOH SUMBER TANI,"7GP4+34J, Moru, Distrik Wasior, Kabupaten Teluk Wondama, Papua Bar.","Kabupaten Teluk Wondama, Papua Bar.",PAPUA BARAT,,Indonesia,81344779976.0,-2.7147763,134.5052515,https://maps.google.com/?cid=0x0:0x24c2be28a4b72714
supermarket bangunan,Toko bahan makanan,KOKO MAJU BERSAMA,"Miei, Distrik Wasior, Kabupaten Teluk Wondama, Papua Bar. 98362","Distrik Wasior, Kabupaten Teluk Wondama",PAPUA BARAT,98362.0,Indonesia,,-2.7360945,134.5122993,https://maps.google.com/?cid=0x0:0x351104c7d3094549
supermarket bangunan,Kantor Perusahaan,PERCETAKAN BATU TELA.CV DELY UTAMA,"6GV5+WQ, Maniwak, Distrik Wasior, Kabupaten Teluk Wondama, Papua Bar. 98362","Maniwak, Distrik Wasior, Kabupaten Teluk Wondama",PAPUA BARAT,98362.0,Indonesia,82345667749.0,-2.755202,134.5093784,https://maps.google.com/?cid=0x0:0x12f0ff77522b4d2e
supermarket bangunan,Toko Bahan Bangunan,TB.Wawi Mandiri,"5GRJ+2HJ, Wondiboi, Distrik Wondiboy, Kabupaten Teluk Wondama, Papua Bar. 98362","Wondiboi, Distrik Wondiboy, Kabupaten Teluk Wondama",PAPUA BARAT,98362.0,Indonesia,,-2.8102965,134.5316065,https://maps.google.com/?cid=0x0:0x4863273c6e26da8d
supermarket bangunan,Toko Bahan Bangunan,ANEKA BANGUNAN,"Wosi, Kec. Manokwari Bar., Kabupaten Manokwari, Papua Bar. 98312","Kec. Manokwari Bar., Kabupaten Manokwari",PAPUA BARAT,98312.0,Indonesia,81344843001.0,-0.8631883,134.0498559,https://maps.google.com/?cid=0x0:0x3598159af16f30ea
supermarket bangunan,Toko Bahan Bangunan,PAPUA BANGUNAN,"42GX+945, Wosi, Kec. Manokwari Bar., Kabupaten Manokwari, Papua Bar. 98312","Wosi, Kec. Manokwari Bar., Kabupaten Manokwari",PAPUA BARAT,98312.0,Indonesia,82198055550.0,-0.874101,134.0478473,https://maps.google.com/?cid=0x0:0x2c3683b193d9430f
supermarket bangunan,Grosir bahan konstruksi,Supermarket Sumber Bangunan,"J5GG+HC7, Sukamahi, Kec. Cikarang Pusat, Kabupaten Bekasi, Jawa Barat 17530","Sukamahi, Kec. Cikarang Pusat, Kabupaten Bekasi",PAPUA BARAT,17530.0,Indonesia,,-6.3735753,107.1760423,https://maps.google.com/?cid=0x0:0x6a22acadf7672133
supermarket bangunan,Toko Bahan Bangunan,Padma Bangunan,"Wai Mhorock, Kec. Abepura, Kota Jayapura, Papua 99225","Kec. Abepura, Kota Jayapura",PAPUA BARAT,99225.0,Indonesia,9675180108.0,-2.6096427,140.6725314,https://maps.google.com/?cid=0x0:0x908e38e219cfc28
supermarket bangunan,Toko Bahan Bangunan,Supermarket Multi Bangunan,"Jl Baru No.98, Wai Mhorock, Abepura, Jayapura City, Papua 99225","Wai Mhorock, Abepura, Jayapura City",PAPUA BARAT,99225.0,Indonesia,967588677.0,-2.6077336,140.6742812,https://maps.google.com/?cid=0x0:0x3b19f301c68f1d6f
supermarket bangunan,Grosir bahan konstruksi,Supermarket Sumber Bangunan,"J5GG+HC7, Sukamahi, Kec. Cikarang Pusat, Kabupaten Bekasi, Jawa Barat 17530","Sukamahi, Kec. Cikarang Pusat, Kabupaten Bekasi",PAPUA BARAT,17530.0,Indonesia,,-6.3735753,107.1760423,https://maps.google.com/?cid=0x0:0x6a22acadf7672133
supermarket bangunan,supermarket bangunan,Papua Bar. 98361,"Kabupaten Teluk Wondama, Papua Bar.","Kabupaten Teluk Wondama, Papua Bar.",PAPUA BARAT,,Indonesia,,-2.4815085,134.2099791,https://maps.google.com/?cid=0x0:0xe298b41c3e32d0eb
supermarket bangunan,Toko Bahan Bangunan,ANEKA BANGUNAN,"Wosi, Kec. Manokwari Bar., Kabupaten Manokwari, Papua Bar. 98312","Kec. Manokwari Bar., Kabupaten Manokwari",PAPUA BARAT,98312.0,Indonesia,81344843001.0,-0.8631883,134.0498559,https://maps.google.com/?cid=0x0:0x3598159af16f30ea
supermarket bangunan,Toko Bahan Bangunan,Toko Central Bangunan,"42JW+2CG, Wosi, Kec. Manokwari Bar., Kabupaten Manokwari, Papua Bar. 98312","Wosi, Kec. Manokwari Bar., Kabupaten Manokwari",PAPUA BARAT,98312.0,Indonesia,,-0.8696454,134.0463667,https://maps.google.com/?cid=0x0:0x7ec708d770758168
supermarket bangunan,Toko Bahan Bangunan,Toko Bangunan FIRMAN,"Jl. Trikora Wosi No.168, Wosi, Kec. Manokwari Bar., Kabupaten Manokwari, Papua Bar. 98312","Wosi, Kec. Manokwari Bar., Kabupaten Manokwari",PAPUA BARAT,98312.0,Indonesia,8114118555.0,-0.8672239,134.0562233,https://maps.google.com/?cid=0x0:0xad10e51218925944
supermarket bangunan,Toko Bahan Bangunan,Supermarket Multi Bangunan,"Jl Baru No.98, Wai Mhorock, Abepura, Jayapura City, Papua 99225","Wai Mhorock, Abepura, Jayapura City",PAPUA BARAT,99225.0,Indonesia,967588677.0,-2.6077336,140.6742812,https://maps.google.com/?cid=0x0:0x3b19f301c68f1d6f
supermarket bangunan,Pemasok Bahan Bangunan,Toko bangunan Sumber Makmur,"32CM+75G, Jl. Manokwari - Maruni, Anday, Distrik Manokwari, Kabupaten Manokwari, Papua Bar. 98315","Jl. Manokwari - Maruni, Anday, Distrik Manokwari, Kabupaten Manokwari",PAPUA BARAT,98315.0,Indonesia,8114846060.0,-0.9293075,134.0329487,https://maps.google.com/?cid=0x0:0xa0a85c7270dde255
supermarket bangunan,Toko Bahan Bangunan,Toko Bangunan Difian,"Bumi Wonorejo, Distrik Nabire, Kabupaten Nabire, Papua 98813","Distrik Nabire, Kabupaten Nabire",PAPUA BARAT,98813.0,Indonesia,812400013420.0,-3.4008216,135.4801451,https://maps.google.com/?cid=0x0:0x9973da42063f154
supermarket bangunan,Toko Bahan Bangunan,Toko bangunan Cahaya Indah,"43H6+JCC, Jl. Trikora Wosi, Sanggeng, Kec. Manokwari Bar., Kabupaten Manokwari, Papua Bar. 98312","Jl. Trikora Wosi, Sanggeng, Kec. Manokwari Bar., Kabupaten Manokwari",PAPUA BARAT,98312.0,Indonesia,81248361373.0,-0.8709308,134.0610281,https://maps.google.com/?cid=0x0:0x7dfb05fd51f1167b
supermarket bangunan,Toko Bahan Bangunan,PAPUA BANGUNAN,"42GX+945, Wosi, Kec. Manokwari Bar., Kabupaten Manokwari, Papua Bar. 98312","Wosi, Kec. Manokwari Bar., Kabupaten Manokwari",PAPUA BARAT,98312.0,Indonesia,82198055550.0,-0.874101,134.0478473,https://maps.google.com/?cid=0x0:0x2c3683b193d9430f
supermarket bangunan,Toko Bahan Bangunan,Toko Bangunan,"Jl. Gn. Salju No.70, Amban, Kec. Manokwari Bar., Kabupaten Manokwari, Papua Bar. 98314","Amban, Kec. Manokwari Bar., Kabupaten Manokwari",PAPUA BARAT,98314.0,Indonesia,,-0.8378489,134.0648609,https://maps.google.com/?cid=0x0:0x39e90745f521cce
supermarket bangunan,Toko Bahan Bangunan,DEPO BANGUNAN SINAR MATAHARI,"379X+243, Jl. Fakfak - Torea, Wagom Sel., Distrik Fakfak, Kabupaten Fakfak, Papua Bar. 98651","Jl. Fakfak - Torea, Wagom Sel., Distrik Fakfak, Kabupaten Fakfak",PAPUA BARAT,98651.0,Indonesia,81232387999.0,-2.9324935,132.2978043,https://maps.google.com/?cid=0x0:0x35e53a9d40e95e48
supermarket bangunan,Pemasok Bahan Bangunan,Toko Bangunan Dwijaya Nabire,"depan pos pasar, Karang Tumaritis, Distrik Nabire, Kabupaten Nabire, Papua 98811","Karang Tumaritis, Distrik Nabire, Kabupaten Nabire",PAPUA BARAT,98811.0,Indonesia,82323624737.0,-3.3818274,135.5050689,https://maps.google.com/?cid=0x0:0x4280ea46f03634b9
supermarket bangunan,Toko Bahan Bangunan,TOKO YUDHA BANGUNAN 1,"VWXP+H7P, Jl. Bayangkara, Hurekama, Distrik Wamena, Kabupaten Jayawijaya, Papua 99511","Jl. Bayangkara, Hurekama, Distrik Wamena, Kabupaten Jayawijaya",PAPUA BARAT,99511.0,Indonesia,81344454364.0,-4.1010288,138.9356942,https://maps.google.com/?cid=0x0:0xa571c584f4c25eaa
supermarket bangunan,Toko Bahan Bangunan,TOKO BANGUNAN NABIRE SANTOSO MITRA SEJAHTERA,"Jl. Dr. Sam Ratulangi No.2, Oyehe, Distrik Nabire, Kabupaten Nabire, Papua 98817","Oyehe, Distrik Nabire, Kabupaten Nabire",PAPUA BARAT,98817.0,Indonesia,85787541264.0,-3.3600958,135.5020964,https://maps.google.com/?cid=0x0:0xb6a38fe67511aebd
supermarket bangunan,supermarket bangunan,Wondiboi,"Distrik Wondiboy, Kabupaten Teluk Wondama, Papua Bar.","Kabupaten Teluk Wondama, Papua Bar.",PAPUA BARAT,,Indonesia,,-2.8046444,134.5760814,https://maps.google.com/?cid=0x0:0xe68e45ccb2c17a3e
supermarket bangunan,Toko Bahan Bangunan,TB.Wawi Mandiri,"5GRJ+2HJ, Wondiboi, Distrik Wondiboy, Kabupaten Teluk Wondama, Papua Bar. 98362","Wondiboi, Distrik Wondiboy, Kabupaten Teluk Wondama",PAPUA BARAT,98362.0,Indonesia,,-2.8102965,134.5316065,https://maps.google.com/?cid=0x0:0x4863273c6e26da8d
supermarket bangunan,Toko Bahan Bangunan,TOKO TOMIA UTAMA BANGUNAN,"7G87+W5P, Maniwak, Distrik Wasior, Kabupaten Teluk Wondama, Papua Bar. 98362","Maniwak, Distrik Wasior, Kabupaten Teluk Wondama",PAPUA BARAT,98362.0,Indonesia,81247372778.0,-2.7322358,134.5122614,https://maps.google.com/?cid=0x0:0x864ad61b8eeb23e4
supermarket bangunan,Toko,TOKOH SUMBER TANI,"7GP4+34J, Moru, Distrik Wasior, Kabupaten Teluk Wondama, Papua Bar.","Kabupaten Teluk Wondama, Papua Bar.",PAPUA BARAT,,Indonesia,81344779976.0,-2.7147763,134.5052515,https://maps.google.com/?cid=0x0:0x24c2be28a4b72714
