Category,Real Category,Business Name,Address,City,State,Postal Code,Country,Phone,Latitude,Longitude,Map Link
mall,Toko Perlengkapan Rumah,Tomia Market,"Unnamed Road, Wasior I, Distrik Wasior, Kabupaten Teluk Wondama, Papua Bar. 98362","Wasior I, Distrik Wasior, Kabupaten Teluk Wondama",PAPUA BARAT,98362.0,Indonesia,82271556667.0,-2.9647961,134.4748018,https://maps.google.com/?cid=0x0:0x148ee745d5acd27e
mall,Toko,KURI PASAI 3,"7G77+J76, Maniwak, Distrik Wasior, Kabupaten Teluk Wondama, Papua Bar. 98362","Maniwak, Distrik Wasior, Kabupaten Teluk Wondama",PAPUA BARAT,98362.0,Indonesia,,-2.7354997,134.5133028,https://maps.google.com/?cid=0x0:0xb2ccbfae7ecba780
mall,Toko,Toko Citra Tomia,"Wasior I, Distrik Wasior, Kabupaten Teluk Wondama, Papua Bar. 98362","Distrik Wasior, Kabupaten Teluk Wondama",PAPUA BARAT,98362.0,Indonesia,,-2.7286906,134.5089811,https://maps.google.com/?cid=0x0:0x6cce89fa7272e22f
mall,Pasar,Pasar Sore,"7GG4+7FG, Wasior II, Distrik Wasior, Kabupaten Teluk Wondama, Papua Bar. 98362","Wasior II, Distrik Wasior, Kabupaten Teluk Wondama",PAPUA BARAT,98362.0,Indonesia,,-2.7243031,134.5061939,https://maps.google.com/?cid=0x0:0x9457968f36ceef07
mall,mall,Papua Bar. 98362,"Kabupaten Teluk Wondama, Papua Bar.","Kabupaten Teluk Wondama, Papua Bar.",PAPUA BARAT,,Indonesia,,-2.9647961,134.4748018,https://maps.google.com/?cid=0x0:0xbea57e7dbf1a786f
mall,Kantor Perusahaan,77Fotocopy,"7G25+QGM, Maniwak, Distrik Wasior, Kabupaten Teluk Wondama, Papua Bar. 98362","Maniwak, Distrik Wasior, Kabupaten Teluk Wondama",PAPUA BARAT,98362.0,Indonesia,85216969396.0,-2.7480417,134.5088067,https://maps.google.com/?cid=0x0:0xc78192556d2a42b9
mall,Toko Perlengkapan Rumah,Toko Tomia Iriati,"6GM9+439, Unnamed Road, Iriati, Distrik Wasior, Kabupaten Teluk Wondama, Papua Bar. 98362","Unnamed Road, Iriati, Distrik Wasior, Kabupaten Teluk Wondama",PAPUA BARAT,98362.0,Indonesia,82399188146.0,-2.7672071,134.5177493,https://maps.google.com/?cid=0x0:0x67e5693debf6d8b5
mall,Toko,TOKO PONSEL  LAPTOP SURYA JAYA WASIOR,"Wasior I, Distrik Wasior, Kabupaten Teluk Wondama, Papua Bar. 98362","Distrik Wasior, Kabupaten Teluk Wondama",PAPUA BARAT,98362.0,Indonesia,82189394167.0,-2.728786,134.5097629,https://maps.google.com/?cid=0x0:0x6c1ddcce956e263d
mall,Toko Pakaian,kios sakinah,"6GR6+X6F, Maniwak, Distrik Wasior, Kabupaten Teluk Wondama, Papua Bar. 98362","Maniwak, Distrik Wasior, Kabupaten Teluk Wondama",PAPUA BARAT,98362.0,Indonesia,81248929981.0,-2.7575732,134.5105395,https://maps.google.com/?cid=0x0:0xf53bdae468235c23
mall,Toko Perbaikan Ponsel,ANGEL Store (Konter HandPhone),"Konter HP, aksesoris, komputer, kamera, dll, Jl. Saberi, Wasior I, Distrik Wasior, Kabupaten Teluk Wondama, Papua Bar. 98362","aksesoris, komputer, kamera, dll, Jl. Saberi, Wasior I, Distrik Wasior, Kabupaten Teluk Wondama",PAPUA BARAT,98362.0,Indonesia,82187632789.0,-2.7281475,134.5085655,https://maps.google.com/?cid=0x0:0xe0b2077a3e67dcbe
mall,Toko,KURI PASAI 3,"7G77+J76, Maniwak, Distrik Wasior, Kabupaten Teluk Wondama, Papua Bar. 98362","Maniwak, Distrik Wasior, Kabupaten Teluk Wondama",PAPUA BARAT,98362.0,Indonesia,,-2.7354997,134.5133028,https://maps.google.com/?cid=0x0:0xb2ccbfae7ecba780
mall,Pusat Perbelanjaan,Pasar Iriati,"6GH9+4JM, Iriati, Distrik Wasior, Kabupaten Teluk Wondama, Papua Bar. 98362","Iriati, Distrik Wasior, Kabupaten Teluk Wondama",PAPUA BARAT,98362.0,Indonesia,82191876763.0,-2.7721585,134.5190364,https://maps.google.com/?cid=0x0:0xb29f17b7ed03eaf1
mall,Toko bahan makanan,KOKO MAJU BERSAMA,"Miei, Distrik Wasior, Kabupaten Teluk Wondama, Papua Bar. 98362","Distrik Wasior, Kabupaten Teluk Wondama",PAPUA BARAT,98362.0,Indonesia,,-2.7360945,134.5122993,https://maps.google.com/?cid=0x0:0x351104c7d3094549
mall,Terminal Feri,Pelabuhan Wasior (Wasior Port),"Unnamed Road, Papua Bar. 98362, Wasior I, Distrik Wasior, Kabupaten Teluk Wondama, Papua Bar. 98362",Papua Bar.,PAPUA BARAT,98362.0,Indonesia,81248931373.0,-2.7272696,134.5040364,https://maps.google.com/?cid=0x0:0xc9e4b55b081bc909
mall,Kios,KIOS SINAR SATRIA,"5GRJ+G5R, Wondiboi, Distrik Wondiboy, Kabupaten Teluk Wondama, Papua Bar.","Kabupaten Teluk Wondama, Papua Bar.",PAPUA BARAT,,Indonesia,,-2.8084732,134.5300944,https://maps.google.com/?cid=0x0:0xbc9ea5ab2cb77211
mall,mall,Naikere,"Kabupaten Teluk Wondama, Papua Bar.","Kabupaten Teluk Wondama, Papua Bar.",PAPUA BARAT,,Indonesia,,-3.199925,134.4748018,https://maps.google.com/?cid=0x0:0xea0e364c043491c5
mall,Kantor Perusahaan,"Tanah Polres,Iriati Huntap 2, Batu Tela Barokah 2","6GP8+5RX, Iriati, Distrik Wasior, Kabupaten Teluk Wondama, Papua Bar. 98362","Iriati, Distrik Wasior, Kabupaten Teluk Wondama",PAPUA BARAT,98362.0,Indonesia,82233894826.0,-2.7645162,134.5171145,https://maps.google.com/?cid=0x0:0xf7c514fb44c05954
mall,Toko,Kios Putra Mamisi,"M5Q5+4QH, Jln Poros, Mamisi, Nikiwar, Teluk Wondama Regency, West Papua 98361","Jln Poros, Mamisi, Nikiwar, Teluk Wondama Regency",PAPUA BARAT,98361.0,Indonesia,81248626743.0,-2.3121971,134.1594701,https://maps.google.com/?cid=0x0:0x70244aee4ee4814b
mall,Kios,Kios Mas Kuwat,"WPJC+983, Jl.Poros, Korano Jaya, Distrik Manimeri, Kabupaten Teluk Bintuni, Papua Bar. 98364","Jl.Poros, Korano Jaya, Distrik Manimeri, Kabupaten Teluk Bintuni",PAPUA BARAT,98364.0,Indonesia,82213231041.0,-2.0691057,133.7208052,https://maps.google.com/?cid=0x0:0x195cce6cfee42a75
mall,Toko Perlengkapan Rumah,Toko Tomia Iriati,"6GM9+439, Unnamed Road, Iriati, Distrik Wasior, Kabupaten Teluk Wondama, Papua Bar. 98362","Unnamed Road, Iriati, Distrik Wasior, Kabupaten Teluk Wondama",PAPUA BARAT,98362.0,Indonesia,82399188146.0,-2.7672071,134.5177493,https://maps.google.com/?cid=0x0:0x67e5693debf6d8b5
mall,mall,Rasiei,"Distrik Rasiei, Kabupaten Teluk Wondama, Papua Bar.","Kabupaten Teluk Wondama, Papua Bar.",PAPUA BARAT,,Indonesia,,-2.8153904,134.5231135,https://maps.google.com/?cid=0x0:0xfcfbd46012f90d9c
mall,Toko Perlengkapan Rumah,Tomia Market,"Unnamed Road, Wasior I, Distrik Wasior, Kabupaten Teluk Wondama, Papua Bar. 98362","Wasior I, Distrik Wasior, Kabupaten Teluk Wondama",PAPUA BARAT,98362.0,Indonesia,82271556667.0,-2.9647961,134.4748018,https://maps.google.com/?cid=0x0:0x148ee745d5acd27e
mall,mall,Papua Bar.,,Papua Bar.,PAPUA BARAT,,Indonesia,,-1.3361154,133.1747162,https://maps.google.com/?cid=0x0:0x5349c1f8c5c7cb62
mall,Pusat Perbelanjaan,Manokwari City Mall (MCM),"Jl. Yos Sudarso Manokwari, Manokwari Bar., Kec. Manokwari Bar., Kabupaten Manokwari, Papua Bar. 98312","Manokwari Bar., Kec. Manokwari Bar., Kabupaten Manokwari",PAPUA BARAT,98312.0,Indonesia,8114918899.0,-0.85693,134.0678051,https://maps.google.com/?cid=0x0:0x7e7b90df1d787501
mall,mall,Distrik Roon,"Kabupaten Teluk Wondama, Papua Bar.","Kabupaten Teluk Wondama, Papua Bar.",PAPUA BARAT,,Indonesia,,-2.4013106,134.5631431,https://maps.google.com/?cid=0x0:0x2ba62b517ea3bb98
mall,Komplek perumahan,Fanindi Pantai,"43R9+J9P Bar, Padarni, Kec. Manokwari Bar., Kabupaten Manokwari, Papua Bar. 98312","Padarni, Kec. Manokwari Bar., Kabupaten Manokwari",PAPUA BARAT,98312.0,Indonesia,81344477231.0,-0.8584193,134.0684588,https://maps.google.com/?cid=0x0:0xfea55ca67440bcde
mall,Pusat Perbelanjaan,Manokwari City Mall (MCM),"Jl. Yos Sudarso Manokwari, Manokwari Bar., Kec. Manokwari Bar., Kabupaten Manokwari, Papua Bar. 98312","Manokwari Bar., Kec. Manokwari Bar., Kabupaten Manokwari",PAPUA BARAT,98312.0,Indonesia,8114918899.0,-0.85693,134.0678051,https://maps.google.com/?cid=0x0:0x7e7b90df1d787501
mall,mall,Roswar,"Waprak, Kec. Roswar, Kabupaten Teluk Wondama, Papua Bar.","Kabupaten Teluk Wondama, Papua Bar.",PAPUA BARAT,,Indonesia,,-2.010139,134.378759,https://maps.google.com/?cid=0x0:0x4e47415efb8c1520
mall,Pasar,Pasar Sore,"7GG4+7FG, Wasior II, Distrik Wasior, Kabupaten Teluk Wondama, Papua Bar. 98362","Wasior II, Distrik Wasior, Kabupaten Teluk Wondama",PAPUA BARAT,98362.0,Indonesia,,-2.7243031,134.5061939,https://maps.google.com/?cid=0x0:0x9457968f36ceef07
mall,mall,Roti,"JFHQ+CM9, Iriati, Distrik Wasior, Kabupaten Teluk Wondama, Papua Bar. 98362","Iriati, Distrik Wasior, Kabupaten Teluk Wondama",PAPUA BARAT,98362.0,Indonesia,,-3.371463,135.48925,https://maps.google.com/?cid=0x0:0x514676c93127c27a
mall,Pusat Perbelanjaan,Pasar soyar,"7GC5+FQM, Masabuay, selatan pasar ikan, Wasior I, Distrik Wasior, Kabupaten Teluk Wondama, Papua Bar. 98362","Masabuay, selatan pasar ikan, Wasior I, Distrik Wasior, Kabupaten Teluk Wondama",PAPUA BARAT,98362.0,Indonesia,822715566.0,-2.7287807,134.5094141,https://maps.google.com/?cid=0x0:0x29ab54816e33ac1d
mall,mall,Distrik Rumberpon,"Kabupaten Teluk Wondama, Papua Bar.","Kabupaten Teluk Wondama, Papua Bar.",PAPUA BARAT,,Indonesia,,-1.8449584,134.1491513,https://maps.google.com/?cid=0x0:0x3022979f8a7f5e3b
mall,Pusat Perbelanjaan,Manokwari City Mall (MCM),"Jl. Yos Sudarso Manokwari, Manokwari Bar., Kec. Manokwari Bar., Kabupaten Manokwari, Papua Bar. 98312","Manokwari Bar., Kec. Manokwari Bar., Kabupaten Manokwari",PAPUA BARAT,98312.0,Indonesia,8114918899.0,-0.85693,134.0678051,https://maps.google.com/?cid=0x0:0x7e7b90df1d787501
mall,Tujuan Wisata,Pulau Rumberpon,"554J+PJJ, Pulau, Distrik Rumberpon, Kabupaten Teluk Wondama, Papua Bar. 98361","Pulau, Distrik Rumberpon, Kabupaten Teluk Wondama",PAPUA BARAT,98361.0,Indonesia,,-1.8431603,134.1815176,https://maps.google.com/?cid=0x0:0xb9a6a767126073ea
mall,Komplek perumahan,Fanindi Pantai,"43R9+J9P Bar, Padarni, Kec. Manokwari Bar., Kabupaten Manokwari, Papua Bar. 98312","Padarni, Kec. Manokwari Bar., Kabupaten Manokwari",PAPUA BARAT,98312.0,Indonesia,81344477231.0,-0.8584193,134.0684588,https://maps.google.com/?cid=0x0:0xfea55ca67440bcde
mall,Pusat Perbelanjaan,Belakang Manokwari city mall,"43W7+F3H, Manokwari Bar., Kec. Manokwari Bar., Kabupaten Manokwari, Papua Bar. 98312","Manokwari Bar., Kec. Manokwari Bar., Kabupaten Manokwari",PAPUA BARAT,98312.0,Indonesia,,-0.8538079,134.0627452,https://maps.google.com/?cid=0x0:0x59f633fd28048da4
mall,Jepang,Ichiban Sushi Manokwari City Mall,"Jl. Yos Sudarso, Manokwari Bar., Kec. Manokwari Bar., Kabupaten Manokwari, Papua Bar. 98312","Manokwari Bar., Kec. Manokwari Bar., Kabupaten Manokwari",PAPUA BARAT,98312.0,Indonesia,,-0.85696,134.0676162,https://maps.google.com/?cid=0x0:0x345744965a30969a
mall,mall,Soug Jaya,"Kabupaten Teluk Wondama, Papua Bar.","Kabupaten Teluk Wondama, Papua Bar.",PAPUA BARAT,,Indonesia,,-1.8026511,134.1001732,https://maps.google.com/?cid=0x0:0x8fa303f645c60070
mall,mall,Duairi,"Kabupaten Teluk Wondama, Papua Bar.","Kabupaten Teluk Wondama, Papua Bar.",PAPUA BARAT,,Indonesia,,-2.5401452,134.5313569,https://maps.google.com/?cid=0x0:0x857fd4c80338c7d6
mall,Pasar,Pasar Sore,"7GG4+7FG, Wasior II, Distrik Wasior, Kabupaten Teluk Wondama, Papua Bar. 98362","Wasior II, Distrik Wasior, Kabupaten Teluk Wondama",PAPUA BARAT,98362.0,Indonesia,,-2.7243031,134.5061939,https://maps.google.com/?cid=0x0:0x9457968f36ceef07
mall,Tujuan Wisata,Taman Nasional Teluk Cenderawasih,"FF2H+P92, Sobei Indah, Duairi, Kabupaten Teluk Wondama, Papua Bar. 98362","Sobei Indah, Duairi, Kabupaten Teluk Wondama",PAPUA BARAT,98362.0,Indonesia,,-2.548225,134.4783821,https://maps.google.com/?cid=0x0:0x758ba1aa8c8a474a
mall,Toko Pakaian Wanita,Xstore,"WM56+833, Jalan Poros sp 4, Banjar Ausoy (Sp IV), Distrik Manimeri, Kabupaten Teluk Bintuni, Papua Bar. 98364","Jalan Poros sp 4, Banjar Ausoy (Sp IV), Distrik Manimeri, Kabupaten Teluk Bintuni",PAPUA BARAT,98364.0,Indonesia,,-2.091735,133.6601729,https://maps.google.com/?cid=0x0:0x1cb8b6e408306c66
mall,Toko Pakaian,Teras Celuler,"WM67+99M, Jl. Manokwari - Bintuni, Banjar Ausoy (Sp IV), Distrik Manimeri, Kabupaten Teluk Bintuni, Papua Bar. 98364","Jl. Manokwari - Bintuni, Banjar Ausoy (Sp IV), Distrik Manimeri, Kabupaten Teluk Bintuni",PAPUA BARAT,98364.0,Indonesia,85213905880.0,-2.0890475,133.6634168,https://maps.google.com/?cid=0x0:0xfff5bc707a335e1e
mall,Toko,Kios Putra Mamisi,"M5Q5+4QH, Jln Poros, Mamisi, Nikiwar, Teluk Wondama Regency, West Papua 98361","Jln Poros, Mamisi, Nikiwar, Teluk Wondama Regency",PAPUA BARAT,98361.0,Indonesia,81248626743.0,-2.3121971,134.1594701,https://maps.google.com/?cid=0x0:0x70244aee4ee4814b
mall,Kios,Kios Mas Kuwat,"WPJC+983, Jl.Poros, Korano Jaya, Distrik Manimeri, Kabupaten Teluk Bintuni, Papua Bar. 98364","Jl.Poros, Korano Jaya, Distrik Manimeri, Kabupaten Teluk Bintuni",PAPUA BARAT,98364.0,Indonesia,82213231041.0,-2.0691057,133.7208052,https://maps.google.com/?cid=0x0:0x195cce6cfee42a75
mall,mall,Papua Bar. 98361,"Kabupaten Teluk Wondama, Papua Bar.","Kabupaten Teluk Wondama, Papua Bar.",PAPUA BARAT,,Indonesia,,-2.4815085,134.2099791,https://maps.google.com/?cid=0x0:0xe298b41c3e32d0eb
mall,mall,Distrik Wasior,"Kabupaten Teluk Wondama, Papua Bar.","Kabupaten Teluk Wondama, Papua Bar.",PAPUA BARAT,,Indonesia,,-2.726099,134.506737,https://maps.google.com/?cid=0x0:0x54655a71cd072b6e
mall,Pasar,Pasar Sore,"7GG4+7FG, Wasior II, Distrik Wasior, Kabupaten Teluk Wondama, Papua Bar. 98362","Wasior II, Distrik Wasior, Kabupaten Teluk Wondama",PAPUA BARAT,98362.0,Indonesia,,-2.7243031,134.5061939,https://maps.google.com/?cid=0x0:0x9457968f36ceef07
mall,Toko,TOKO PONSEL  LAPTOP SURYA JAYA WASIOR,"Wasior I, Distrik Wasior, Kabupaten Teluk Wondama, Papua Bar. 98362","Distrik Wasior, Kabupaten Teluk Wondama",PAPUA BARAT,98362.0,Indonesia,82189394167.0,-2.728786,134.5097629,https://maps.google.com/?cid=0x0:0x6c1ddcce956e263d
mall,Toko Perlengkapan Rumah,Toko Tomia Iriati,"6GM9+439, Unnamed Road, Iriati, Distrik Wasior, Kabupaten Teluk Wondama, Papua Bar. 98362","Unnamed Road, Iriati, Distrik Wasior, Kabupaten Teluk Wondama",PAPUA BARAT,98362.0,Indonesia,82399188146.0,-2.7672071,134.5177493,https://maps.google.com/?cid=0x0:0x67e5693debf6d8b5
mall,Toko Perbaikan Ponsel,ANGEL Store (Konter HandPhone),"Konter HP, aksesoris, komputer, kamera, dll, Jl. Saberi, Wasior I, Distrik Wasior, Kabupaten Teluk Wondama, Papua Bar. 98362","aksesoris, komputer, kamera, dll, Jl. Saberi, Wasior I, Distrik Wasior, Kabupaten Teluk Wondama",PAPUA BARAT,98362.0,Indonesia,82187632789.0,-2.7281475,134.5085655,https://maps.google.com/?cid=0x0:0xe0b2077a3e67dcbe
mall,Toko Pakaian,kios sakinah,"6GR6+X6F, Maniwak, Distrik Wasior, Kabupaten Teluk Wondama, Papua Bar. 98362","Maniwak, Distrik Wasior, Kabupaten Teluk Wondama",PAPUA BARAT,98362.0,Indonesia,81248929981.0,-2.7575732,134.5105395,https://maps.google.com/?cid=0x0:0xf53bdae468235c23
mall,Terminal Feri,Bandar Udara Wasior,"7GH4+P9R, Wasior II, Distrik Wasior, Kabupaten Teluk Wondama, Papua Bar. 98362","Wasior II, Distrik Wasior, Kabupaten Teluk Wondama",PAPUA BARAT,98362.0,Indonesia,,-2.720644,134.5059057,https://maps.google.com/?cid=0x0:0x87a71e09476ec0da
mall,Toko,KURI PASAI 3,"7G77+J76, Maniwak, Distrik Wasior, Kabupaten Teluk Wondama, Papua Bar. 98362","Maniwak, Distrik Wasior, Kabupaten Teluk Wondama",PAPUA BARAT,98362.0,Indonesia,,-2.7354997,134.5133028,https://maps.google.com/?cid=0x0:0xb2ccbfae7ecba780
mall,Toko bahan makanan,KOKO MAJU BERSAMA,"Miei, Distrik Wasior, Kabupaten Teluk Wondama, Papua Bar. 98362","Distrik Wasior, Kabupaten Teluk Wondama",PAPUA BARAT,98362.0,Indonesia,,-2.7360945,134.5122993,https://maps.google.com/?cid=0x0:0x351104c7d3094549
mall,Toko Pakaian Wanita,Outlet Sophie Paris Wasior,"7G37+22V, Maniwak, Distrik Wasior, Kabupaten Teluk Wondama, Papua Bar. 98362","Maniwak, Distrik Wasior, Kabupaten Teluk Wondama",PAPUA BARAT,98362.0,Indonesia,81248500208.0,-2.7473917,134.5125518,https://maps.google.com/?cid=0x0:0x51104a7f212841ec
mall,Kantor Perusahaan,"Tanah Polres,Iriati Huntap 2, Batu Tela Barokah 2","6GP8+5RX, Iriati, Distrik Wasior, Kabupaten Teluk Wondama, Papua Bar. 98362","Iriati, Distrik Wasior, Kabupaten Teluk Wondama",PAPUA BARAT,98362.0,Indonesia,82233894826.0,-2.7645162,134.5171145,https://maps.google.com/?cid=0x0:0xf7c514fb44c05954
mall,Kios,KIOS SINAR SATRIA,"5GRJ+G5R, Wondiboi, Distrik Wondiboy, Kabupaten Teluk Wondama, Papua Bar.","Kabupaten Teluk Wondama, Papua Bar.",PAPUA BARAT,,Indonesia,,-2.8084732,134.5300944,https://maps.google.com/?cid=0x0:0xbc9ea5ab2cb77211
mall,Pusat Perbelanjaan,Pasar Iriati,"6GH9+4JM, Iriati, Distrik Wasior, Kabupaten Teluk Wondama, Papua Bar. 98362","Iriati, Distrik Wasior, Kabupaten Teluk Wondama",PAPUA BARAT,98362.0,Indonesia,82191876763.0,-2.7721585,134.5190364,https://maps.google.com/?cid=0x0:0xb29f17b7ed03eaf1
mall,Pusat Perbelanjaan,Pasar soyar,"7GC5+FQM, Masabuay, selatan pasar ikan, Wasior I, Distrik Wasior, Kabupaten Teluk Wondama, Papua Bar. 98362","Masabuay, selatan pasar ikan, Wasior I, Distrik Wasior, Kabupaten Teluk Wondama",PAPUA BARAT,98362.0,Indonesia,822715566.0,-2.7287807,134.5094141,https://maps.google.com/?cid=0x0:0x29ab54816e33ac1d
mall,mall,Kec. Windesi,"Kabupaten Teluk Wondama, Papua Bar.","Kabupaten Teluk Wondama, Papua Bar.",PAPUA BARAT,,Indonesia,,-2.601077,134.1340439,https://maps.google.com/?cid=0x0:0x9b9a2ca4d233e89d
mall,Pusat Perbelanjaan,Manokwari City Mall (MCM),"Jl. Yos Sudarso Manokwari, Manokwari Bar., Kec. Manokwari Bar., Kabupaten Manokwari, Papua Bar. 98312","Manokwari Bar., Kec. Manokwari Bar., Kabupaten Manokwari",PAPUA BARAT,98312.0,Indonesia,8114918899.0,-0.85693,134.0678051,https://maps.google.com/?cid=0x0:0x7e7b90df1d787501
mall,Pusat Perbelanjaan,Mall Senayan City,"Jl. Asia Afrika No.Lot 19, Gelora, Kecamatan Tanah Abang, Kota Jakarta Pusat, Daerah Khusus Ibukota Jakarta 10270","Gelora, Kecamatan Tanah Abang, Kota Jakarta Pusat",PAPUA BARAT,10270.0,Indonesia,2172781000.0,-6.2271953,106.7970117,https://maps.google.com/?cid=0x0:0x300c043104acc004
mall,Pusat Perbelanjaan,MOI Kelapa Gading,"Mall Of Indonesia, Jl. Boulevard Bar. Raya Lt. 2, RT.18/RW.8, Klp. Gading Bar., Kec. Klp. Gading, Jkt Utara, Daerah Khusus Ibukota Jakarta 14240","Jl. Boulevard Bar. Raya Lt. 2, RT.18/RW.8, Klp. Gading Bar., Kec. Klp. Gading, Jkt Utara",PAPUA BARAT,14240.0,Indonesia,81217393609.0,-6.1506741,106.8908571,https://maps.google.com/?cid=0x0:0x11e13e124ce7f530
mall,Plaza,Kelapa Gading Square,"RVXR+P6Q, RT.18/RW.8, Klp. Gading Bar., Kec. Klp. Gading, Jkt Utara, Daerah Khusus Ibukota Jakarta 14240","RT.18/RW.8, Klp. Gading Bar., Kec. Klp. Gading, Jkt Utara",PAPUA BARAT,14240.0,Indonesia,,-6.1506511,106.8906225,https://maps.google.com/?cid=0x0:0xa2bbc815b7ada8fd
mall,Pusat Perbelanjaan,Grand Galaxy Park,"Jl. Boulevard Raya No.1, RT.003/RW.017, Jaka Setia, Kec. Bekasi Sel., Kota Bks, Jawa Barat 17147","RT.003/RW.017, Jaka Setia, Kec. Bekasi Sel., Kota Bks",PAPUA BARAT,17147.0,Indonesia,2129613300.0,-6.2706285,106.9722969,https://maps.google.com/?cid=0x0:0x4718498e43c68e02
mall,Kios,KIOS SINAR SATRIA,"5GRJ+G5R, Wondiboi, Distrik Wondiboy, Kabupaten Teluk Wondama, Papua Bar.","Kabupaten Teluk Wondama, Papua Bar.",PAPUA BARAT,,Indonesia,,-2.8084732,134.5300944,https://maps.google.com/?cid=0x0:0xbc9ea5ab2cb77211
mall,Pusat Perbelanjaan,ASHTA District 8,"Jl. Senopati No.83, Senayan, Kec. Kby. Baru, Kota Jakarta Selatan, Daerah Khusus Ibukota Jakarta 12190","Senayan, Kec. Kby. Baru, Kota Jakarta Selatan",PAPUA BARAT,12190.0,Indonesia,2150262888.0,-6.229976,106.8070846,https://maps.google.com/?cid=0x0:0x1042cab307c13c5f
mall,mall,Toko SURYA TOMIA,"7GC5+HCJ, Wasior I, Distrik Wasior, Kabupaten Teluk Wondama, Papua Bar. 98362","Wasior I, Distrik Wasior, Kabupaten Teluk Wondama",PAPUA BARAT,98362.0,Indonesia,,-2.7285409,134.5085221,https://maps.google.com/?cid=0x0:0x4d7b6bdf41e3fa02
mall,Pusat Perbelanjaan,Mall Plaza Senayan,"Jl. Asia Afrika No.8, RT.1/RW.3, Gelora, Kecamatan Tanah Abang, Kota Jakarta Pusat, Daerah Khusus Ibukota Jakarta 10270","RT.1/RW.3, Gelora, Kecamatan Tanah Abang, Kota Jakarta Pusat",PAPUA BARAT,10270.0,Indonesia,215725555.0,-6.2254775,106.7992649,https://maps.google.com/?cid=0x0:0x788e3a1eef75ac94
mall,Pizza,Pizza Marzano,"Senayan City Lower Ground, Jl. Asia Afrika Lot 19, Daerah Khusus Ibukota Jakarta 12210",Jl. Asia Afrika Lot 19,PAPUA BARAT,12210.0,Indonesia,2172781065.0,-6.2268064,106.7970378,https://maps.google.com/?cid=0x0:0xb570f44544859923
mall,Masakan Jepang Autentik,Sushi Hiro Senayan City,"Senayan City, Mall, Jl. Asia Afrika LT 5, RT.1/RW.3, Gelora, Kecamatan Tanah Abang, Kota Jakarta Pusat, Daerah Khusus Ibukota Jakarta 10270","Mall, Jl. Asia Afrika LT 5, RT.1/RW.3, Gelora, Kecamatan Tanah Abang, Kota Jakarta Pusat",PAPUA BARAT,10270.0,Indonesia,2172782250.0,-6.2269324,106.7969276,https://maps.google.com/?cid=0x0:0x4b8f42e9ec1e6d3c
mall,Bioskop,Cinema XXI,"Jl. Asia Afrika No.3, RT.1/RW.3, Gelora, Kecamatan Tanah Abang, Kota Jakarta Pusat, Daerah Khusus Ibukota Jakarta 10270","RT.1/RW.3, Gelora, Kecamatan Tanah Abang, Kota Jakarta Pusat",PAPUA BARAT,10270.0,Indonesia,2172781221.0,-6.2268822,106.7976424,https://maps.google.com/?cid=0x0:0x9cb47d55493750ee
mall,Indonesia,Remboelan - Senayan City,"Jl. Asia Afrika Store 5 - 23, 25, 26, Gelora, Kecamatan Tanah Abang, Kota Jakarta Pusat, Daerah Khusus Ibukota Jakarta 10270","25, 26, Gelora, Kecamatan Tanah Abang, Kota Jakarta Pusat",PAPUA BARAT,10270.0,Indonesia,2172781586.0,-6.2273225,106.7967597,https://maps.google.com/?cid=0x0:0x4d7c5240f54edd51
mall,mall,Kec. Windesi,"Kabupaten Teluk Wondama, Papua Bar.","Kabupaten Teluk Wondama, Papua Bar.",PAPUA BARAT,,Indonesia,,-2.601077,134.1340439,https://maps.google.com/?cid=0x0:0x9b9a2ca4d233e89d
mall,Pusat Perbelanjaan,Manokwari City Mall (MCM),"Jl. Yos Sudarso Manokwari, Manokwari Bar., Kec. Manokwari Bar., Kabupaten Manokwari, Papua Bar. 98312","Manokwari Bar., Kec. Manokwari Bar., Kabupaten Manokwari",PAPUA BARAT,98312.0,Indonesia,8114918899.0,-0.85693,134.0678051,https://maps.google.com/?cid=0x0:0x7e7b90df1d787501
mall,Pusat Perbelanjaan,Summarecon Mall Kelapa Gading,"Jl. Boulevard Raya, Klp. Gading Tim., Kec. Klp. Gading, Jkt Utara, Daerah Khusus Ibukota Jakarta 14240","Klp. Gading Tim., Kec. Klp. Gading, Jkt Utara",PAPUA BARAT,14240.0,Indonesia,214531101.0,-6.1572666,106.9084263,https://maps.google.com/?cid=0x0:0x1c1a278e20ff1c47
mall,Pusat Perbelanjaan,Mall Senayan City,"Jl. Asia Afrika No.Lot 19, Gelora, Kecamatan Tanah Abang, Kota Jakarta Pusat, Daerah Khusus Ibukota Jakarta 10270","Gelora, Kecamatan Tanah Abang, Kota Jakarta Pusat",PAPUA BARAT,10270.0,Indonesia,2172781000.0,-6.2271953,106.7970117,https://maps.google.com/?cid=0x0:0x300c043104acc004
mall,Pusat Perbelanjaan,MOI Kelapa Gading,"Mall Of Indonesia, Jl. Boulevard Bar. Raya Lt. 2, RT.18/RW.8, Klp. Gading Bar., Kec. Klp. Gading, Jkt Utara, Daerah Khusus Ibukota Jakarta 14240","Jl. Boulevard Bar. Raya Lt. 2, RT.18/RW.8, Klp. Gading Bar., Kec. Klp. Gading, Jkt Utara",PAPUA BARAT,14240.0,Indonesia,81217393609.0,-6.1506741,106.8908571,https://maps.google.com/?cid=0x0:0x11e13e124ce7f530
mall,Plaza,Kelapa Gading Square,"RVXR+P6Q, RT.18/RW.8, Klp. Gading Bar., Kec. Klp. Gading, Jkt Utara, Daerah Khusus Ibukota Jakarta 14240","RT.18/RW.8, Klp. Gading Bar., Kec. Klp. Gading, Jkt Utara",PAPUA BARAT,14240.0,Indonesia,,-6.1506511,106.8906225,https://maps.google.com/?cid=0x0:0xa2bbc815b7ada8fd
mall,Pusat Perbelanjaan,Mall Plaza Senayan,"Jl. Asia Afrika No.8, RT.1/RW.3, Gelora, Kecamatan Tanah Abang, Kota Jakarta Pusat, Daerah Khusus Ibukota Jakarta 10270","RT.1/RW.3, Gelora, Kecamatan Tanah Abang, Kota Jakarta Pusat",PAPUA BARAT,10270.0,Indonesia,215725555.0,-6.2254775,106.7992649,https://maps.google.com/?cid=0x0:0x788e3a1eef75ac94
mall,Pusat Perbelanjaan,Grand Galaxy Park,"Jl. Boulevard Raya No.1, RT.003/RW.017, Jaka Setia, Kec. Bekasi Sel., Kota Bks, Jawa Barat 17147","RT.003/RW.017, Jaka Setia, Kec. Bekasi Sel., Kota Bks",PAPUA BARAT,17147.0,Indonesia,2129613300.0,-6.2706285,106.9722969,https://maps.google.com/?cid=0x0:0x4718498e43c68e02
mall,Pusat Perbelanjaan,ASHTA District 8,"Jl. Senopati No.83, Senayan, Kec. Kby. Baru, Kota Jakarta Selatan, Daerah Khusus Ibukota Jakarta 12190","Senayan, Kec. Kby. Baru, Kota Jakarta Selatan",PAPUA BARAT,12190.0,Indonesia,2150262888.0,-6.229976,106.8070846,https://maps.google.com/?cid=0x0:0x1042cab307c13c5f
mall,Kios,KIOS SINAR SATRIA,"5GRJ+G5R, Wondiboi, Distrik Wondiboy, Kabupaten Teluk Wondama, Papua Bar.","Kabupaten Teluk Wondama, Papua Bar.",PAPUA BARAT,,Indonesia,,-2.8084732,134.5300944,https://maps.google.com/?cid=0x0:0xbc9ea5ab2cb77211
mall,mall,Toko SURYA TOMIA,"7GC5+HCJ, Wasior I, Distrik Wasior, Kabupaten Teluk Wondama, Papua Bar. 98362","Wasior I, Distrik Wasior, Kabupaten Teluk Wondama",PAPUA BARAT,98362.0,Indonesia,,-2.7285409,134.5085221,https://maps.google.com/?cid=0x0:0x4d7b6bdf41e3fa02
mall,mall,TOKO SAHABAT,"7GC5+JF5, Wasior I, Distrik Wasior, Kabupaten Teluk Wondama, Papua Bar. 98362","Wasior I, Distrik Wasior, Kabupaten Teluk Wondama",PAPUA BARAT,98362.0,Indonesia,,-2.7284793,134.5087219,https://maps.google.com/?cid=0x0:0x5c413494e4acfd2f
mall,Toko Khusus Anak-Anak,Wilio Mall of Indonesia,"Mall of Indonesia, Jl. Boulevard Raya Lantai 2F-D8C, RT.13/RW.18, Klp. Gading Tim., Kec. Klp. Gading, Jkt Utara, Daerah Khusus Ibukota Jakarta 14240","Jl. Boulevard Raya Lantai 2F-D8C, RT.13/RW.18, Klp. Gading Tim., Kec. Klp. Gading, Jkt Utara",PAPUA BARAT,14240.0,Indonesia,2130049702.0,-6.1510646,106.8925775,https://maps.google.com/?cid=0x0:0xfb53a704f4950914
mall,Toko Pakaian Dalam,SOGO Summarecon Mall Kelapa Gading,"Mall Kelapa Gading 2 Lt.1-3, Jl. Klp. Gading Blok M, RT.13/RW.18, Klp. Gading Tim., Kec. Klp. Gading, Jkt Utara, Daerah Khusus Ibukota Jakarta 14240","Jl. Klp. Gading Blok M, RT.13/RW.18, Klp. Gading Tim., Kec. Klp. Gading, Jkt Utara",PAPUA BARAT,14240.0,Indonesia,214533355.0,-6.156261,106.908171,https://maps.google.com/?cid=0x0:0xd2753664f8fababe
mall,Toko,Kios Putra Mamisi,"M5Q5+4QH, Jln Poros, Mamisi, Nikiwar, Teluk Wondama Regency, West Papua 98361","Jln Poros, Mamisi, Nikiwar, Teluk Wondama Regency",PAPUA BARAT,98361.0,Indonesia,81248626743.0,-2.3121971,134.1594701,https://maps.google.com/?cid=0x0:0x70244aee4ee4814b
mall,Kios,Kios Mas Kuwat,"WPJC+983, Jl.Poros, Korano Jaya, Distrik Manimeri, Kabupaten Teluk Bintuni, Papua Bar. 98364","Jl.Poros, Korano Jaya, Distrik Manimeri, Kabupaten Teluk Bintuni",PAPUA BARAT,98364.0,Indonesia,82213231041.0,-2.0691057,133.7208052,https://maps.google.com/?cid=0x0:0x195cce6cfee42a75
mall,Pusat Perbelanjaan,Mall Senayan City,"Jl. Asia Afrika No.Lot 19, Gelora, Kecamatan Tanah Abang, Kota Jakarta Pusat, Daerah Khusus Ibukota Jakarta 10270","Gelora, Kecamatan Tanah Abang, Kota Jakarta Pusat",PAPUA BARAT,10270.0,Indonesia,2172781000.0,-6.2271953,106.7970117,https://maps.google.com/?cid=0x0:0x300c043104acc004
mall,Pizza,Pizza Marzano,"Senayan City Lower Ground, Jl. Asia Afrika Lot 19, Daerah Khusus Ibukota Jakarta 12210",Jl. Asia Afrika Lot 19,PAPUA BARAT,12210.0,Indonesia,2172781065.0,-6.2268064,106.7970378,https://maps.google.com/?cid=0x0:0xb570f44544859923
mall,Masakan Jepang Autentik,Sushi Hiro Senayan City,"Senayan City, Mall, Jl. Asia Afrika LT 5, RT.1/RW.3, Gelora, Kecamatan Tanah Abang, Kota Jakarta Pusat, Daerah Khusus Ibukota Jakarta 10270","Mall, Jl. Asia Afrika LT 5, RT.1/RW.3, Gelora, Kecamatan Tanah Abang, Kota Jakarta Pusat",PAPUA BARAT,10270.0,Indonesia,2172782250.0,-6.2269324,106.7969276,https://maps.google.com/?cid=0x0:0x4b8f42e9ec1e6d3c
mall,Bioskop,Cinema XXI,"Jl. Asia Afrika No.3, RT.1/RW.3, Gelora, Kecamatan Tanah Abang, Kota Jakarta Pusat, Daerah Khusus Ibukota Jakarta 10270","RT.1/RW.3, Gelora, Kecamatan Tanah Abang, Kota Jakarta Pusat",PAPUA BARAT,10270.0,Indonesia,2172781221.0,-6.2268822,106.7976424,https://maps.google.com/?cid=0x0:0x9cb47d55493750ee
mall,Pujasera,Social Garden,"Senayan City, Ground Floor - South Lobby, Jl. Asia Afrika, RT.1/RW.3, Senayan, Jakarta, Daerah Khusus Ibukota Jakarta 10270","Ground Floor - South Lobby, Jl. Asia Afrika, RT.1/RW.3, Senayan, Jakarta",PAPUA BARAT,10270.0,Indonesia,2172781516.0,-6.2278497,106.7970357,https://maps.google.com/?cid=0x0:0x35d9c3bd7550e941
mall,Indonesia,Remboelan - Senayan City,"Jl. Asia Afrika Store 5 - 23, 25, 26, Gelora, Kecamatan Tanah Abang, Kota Jakarta Pusat, Daerah Khusus Ibukota Jakarta 10270","25, 26, Gelora, Kecamatan Tanah Abang, Kota Jakarta Pusat",PAPUA BARAT,10270.0,Indonesia,2172781586.0,-6.2273225,106.7967597,https://maps.google.com/?cid=0x0:0x4d7c5240f54edd51
mall,mall,Wondiboi,"Distrik Wondiboy, Kabupaten Teluk Wondama, Papua Bar.","Kabupaten Teluk Wondama, Papua Bar.",PAPUA BARAT,,Indonesia,,-2.8046444,134.5760814,https://maps.google.com/?cid=0x0:0xe68e45ccb2c17a3e
mall,Kios,KIOS SINAR SATRIA,"5GRJ+G5R, Wondiboi, Distrik Wondiboy, Kabupaten Teluk Wondama, Papua Bar.","Kabupaten Teluk Wondama, Papua Bar.",PAPUA BARAT,,Indonesia,,-2.8084732,134.5300944,https://maps.google.com/?cid=0x0:0xbc9ea5ab2cb77211
mall,Pasar,Pasar Sore,"7GG4+7FG, Wasior II, Distrik Wasior, Kabupaten Teluk Wondama, Papua Bar. 98362","Wasior II, Distrik Wasior, Kabupaten Teluk Wondama",PAPUA BARAT,98362.0,Indonesia,,-2.7243031,134.5061939,https://maps.google.com/?cid=0x0:0x9457968f36ceef07
mall,Pusat Perbelanjaan,Pasar soyar,"7GC5+FQM, Masabuay, selatan pasar ikan, Wasior I, Distrik Wasior, Kabupaten Teluk Wondama, Papua Bar. 98362","Masabuay, selatan pasar ikan, Wasior I, Distrik Wasior, Kabupaten Teluk Wondama",PAPUA BARAT,98362.0,Indonesia,822715566.0,-2.7287807,134.5094141,https://maps.google.com/?cid=0x0:0x29ab54816e33ac1d
supermarket,Toko bahan makanan,Kuri Mart,"2FPF+3WM, Maniwak, Distrik Wasior, Kabupaten Teluk Wondama, Papua Bar. 98362","Maniwak, Distrik Wasior, Kabupaten Teluk Wondama",PAPUA BARAT,98362.0,Indonesia,,-2.9647961,134.4748018,https://maps.google.com/?cid=0x0:0xb22f95ce19a212d
supermarket,Toko bahan makanan,Victory,"2FPF+3WM, Maniwak, Distrik Wasior, Kabupaten Teluk Wondama, Papua Bar. 98362","Maniwak, Distrik Wasior, Kabupaten Teluk Wondama",PAPUA BARAT,98362.0,Indonesia,,-2.9647961,134.4748018,https://maps.google.com/?cid=0x0:0xaa14ccf319f55d2c
supermarket,supermarket,Kuri Wamesa,"Kabupaten Teluk Wondama, Papua Bar.","Kabupaten Teluk Wondama, Papua Bar.",PAPUA BARAT,,Indonesia,,-2.8551699,134.3236557,https://maps.google.com/?cid=0x0:0x8c3430e4162f73b3
supermarket,supermarket,Papua Bar. 98362,"Kabupaten Teluk Wondama, Papua Bar.","Kabupaten Teluk Wondama, Papua Bar.",PAPUA BARAT,,Indonesia,,-2.9647961,134.4748018,https://maps.google.com/?cid=0x0:0xbea57e7dbf1a786f
supermarket,Toko bahan makanan,Kuri Mart,"2FPF+3WM, Maniwak, Distrik Wasior, Kabupaten Teluk Wondama, Papua Bar. 98362","Maniwak, Distrik Wasior, Kabupaten Teluk Wondama",PAPUA BARAT,98362.0,Indonesia,,-2.9647961,134.4748018,https://maps.google.com/?cid=0x0:0xb22f95ce19a212d
supermarket,Toko bahan makanan,KOKO MAJU BERSAMA,"Miei, Distrik Wasior, Kabupaten Teluk Wondama, Papua Bar. 98362","Distrik Wasior, Kabupaten Teluk Wondama",PAPUA BARAT,98362.0,Indonesia,,-2.7360945,134.5122993,https://maps.google.com/?cid=0x0:0x351104c7d3094549
supermarket,Toko,Kios Nisa,"7G35+RVR, Unnamed Road, Maniwak, Distrik Wasior, Kabupaten Teluk Wondama, Papua Bar. 98362","Unnamed Road, Maniwak, Distrik Wasior, Kabupaten Teluk Wondama",PAPUA BARAT,98362.0,Indonesia,81343493159.0,-2.7453834,134.5096449,https://maps.google.com/?cid=0x0:0x8358d40cbf59994
supermarket,Pusat Perbelanjaan,Pasar Iriati,"6GH9+4JM, Iriati, Distrik Wasior, Kabupaten Teluk Wondama, Papua Bar. 98362","Iriati, Distrik Wasior, Kabupaten Teluk Wondama",PAPUA BARAT,98362.0,Indonesia,82191876763.0,-2.7721585,134.5190364,https://maps.google.com/?cid=0x0:0xb29f17b7ed03eaf1
supermarket,Pusat Perbelanjaan,Pasar soyar,"7GC5+FQM, Masabuay, selatan pasar ikan, Wasior I, Distrik Wasior, Kabupaten Teluk Wondama, Papua Bar. 98362","Masabuay, selatan pasar ikan, Wasior I, Distrik Wasior, Kabupaten Teluk Wondama",PAPUA BARAT,98362.0,Indonesia,822715566.0,-2.7287807,134.5094141,https://maps.google.com/?cid=0x0:0x29ab54816e33ac1d
supermarket,Kios,Kios Rahmat Siompu,"6GX5+857, Maniwak, Distrik Wasior, Kabupaten Teluk Wondama, Papua Bar. 98362","Maniwak, Distrik Wasior, Kabupaten Teluk Wondama",PAPUA BARAT,98362.0,Indonesia,82239800832.0,-2.751704,134.507922,https://maps.google.com/?cid=0x0:0x1de05755c8b92489
supermarket,Layanan cetak digital,Fotocopy Chio,"7GM4+R33, Wasior II, Distrik Wasior, Kabupaten Teluk Wondama, Papua Bar. 98362","Wasior II, Distrik Wasior, Kabupaten Teluk Wondama",PAPUA BARAT,98362.0,Indonesia,,-2.715496,134.50517,https://maps.google.com/?cid=0x0:0xa1c3f962b62b14ae
supermarket,Toko bahan makanan,Kios Ratu Sanduay,"7GQ4+P6W, Moru, Distrik Wasior, Kabupaten Teluk Wondama, Papua Bar. 98362","Moru, Distrik Wasior, Kabupaten Teluk Wondama",PAPUA BARAT,98362.0,Indonesia,82198489865.0,-2.7106419,134.505583,https://maps.google.com/?cid=0x0:0x259bd92cfc1f79ae
supermarket,Toko,Kios umy aisyah,"5GVH+4C3, Wondiboi, Distrik Wondiboy, Kabupaten Teluk Wondama, Papua Bar. 98362","Wondiboi, Distrik Wondiboy, Kabupaten Teluk Wondama",PAPUA BARAT,98362.0,Indonesia,82347406231.0,-2.8072497,134.5285564,https://maps.google.com/?cid=0x0:0xfff521ce9c2e35cc
supermarket,supermarket,Penjual pinang/toko 3putra,"7GC5+CQG, Masabuay, selatan pasar ikan, Wasior I, Distrik Wasior, Kabupaten Teluk Wondama, Papua Bar. 98362","Masabuay, selatan pasar ikan, Wasior I, Distrik Wasior, Kabupaten Teluk Wondama",PAPUA BARAT,98362.0,Indonesia,,-2.728817,134.50975,https://maps.google.com/?cid=0x0:0x6216af00b54bc81d
supermarket,Toko sembako pemerintah,Ramli ruka,"6GM9+75F, Iriati, Distrik Wasior, Kabupaten Teluk Wondama, Papua Bar. 98362","Iriati, Distrik Wasior, Kabupaten Teluk Wondama",PAPUA BARAT,98362.0,Indonesia,,-2.7665331,134.5172165,https://maps.google.com/?cid=0x0:0xc26dd2b26a38814f
supermarket,Kios,KIOS INARAH,"48VF+WFJ, Wasior I, Kuri Wamesa, Kabupaten Teluk Wondama, Papua Bar.","Kabupaten Teluk Wondama, Papua Bar.",PAPUA BARAT,,Indonesia,,-2.8551699,134.3236557,https://maps.google.com/?cid=0x0:0xe705b57d7d693415
supermarket,Kios,Aira wondiboi,"5GRJ+2HJ, Wondiboi, Distrik Wondiboy, Kabupaten Teluk Wondama, Papua Bar. 98362","Wondiboi, Distrik Wondiboy, Kabupaten Teluk Wondama",PAPUA BARAT,98362.0,Indonesia,,-2.8097839,134.5313792,https://maps.google.com/?cid=0x0:0xe433d93f4ad9d9c6
supermarket,supermarket,Papua Bar. 98361,"Kabupaten Teluk Wondama, Papua Bar.","Kabupaten Teluk Wondama, Papua Bar.",PAPUA BARAT,,Indonesia,,-2.4815085,134.2099791,https://maps.google.com/?cid=0x0:0xe298b41c3e32d0eb
supermarket,Toko Swalayan,Hadi Supermarket  Dept. Store,"Jl. Imam Bonjol No.56, Fandoi, Kec. Biak Kota, Kabupaten Biak Numfor, Papua 98111","Fandoi, Kec. Biak Kota, Kabupaten Biak Numfor",PAPUA BARAT,98111.0,Indonesia,,-1.1800003,136.0824788,https://maps.google.com/?cid=0x0:0xdcad74b4384219ee
supermarket,Toko umum,Kios makanan,"C593+WRP, Dembek, Distrik Momi Waren, Kab. Manokwari Selatan, Papua Bar. 98355","Dembek, Distrik Momi Waren, Kab. Manokwari Selatan",PAPUA BARAT,98355.0,Indonesia,,-1.5801582,134.1545852,https://maps.google.com/?cid=0x0:0x9ef983d753dd785c
supermarket,supermarket,Kios Kurei,"J45F+MRF, Werabur, Distrik Nikiwar, Kabupaten Teluk Wondama, Papua Bar.","Kabupaten Teluk Wondama, Papua Bar.",PAPUA BARAT,,Indonesia,,-2.390823,134.1245436,https://maps.google.com/?cid=0x0:0xceeec8cce64f5094
supermarket,supermarket,Kios Dani Riski,"C5Q8+MHH, Jl. Manokwari - Bintuni, Dembek, Distrik Momi Waren, Kab. Manokwari Selatan, Papua Bar. 98355","Jl. Manokwari - Bintuni, Dembek, Distrik Momi Waren, Kab. Manokwari Selatan",PAPUA BARAT,98355.0,Indonesia,,-1.5604165,134.1664563,https://maps.google.com/?cid=0x0:0x917ed97068572ff9
supermarket,Toko bahan makanan,Kalawai Mart,"42GW+JX7, Jl. Drs Esau Sesa, Wosi, Kec. Manokwari Bar., Kabupaten Manokwari, Papua Bar. 98312","Jl. Drs Esau Sesa, Wosi, Kec. Manokwari Bar., Kabupaten Manokwari",PAPUA BARAT,98312.0,Indonesia,82239404628.0,-0.8734685,134.0474365,https://maps.google.com/?cid=0x0:0xa03f46416c062468
supermarket,supermarket,Kios Kurei,"J49H+Q3G, Werabur, Distrik Nikiwar, Kabupaten Teluk Wondama, Papua Bar.","Kabupaten Teluk Wondama, Papua Bar.",PAPUA BARAT,,Indonesia,,-2.3805709,134.1277024,https://maps.google.com/?cid=0x0:0x4c6aee3cf47ef92b
supermarket,supermarket,Rasiei,"Distrik Rasiei, Kabupaten Teluk Wondama, Papua Bar.","Kabupaten Teluk Wondama, Papua Bar.",PAPUA BARAT,,Indonesia,,-2.8153904,134.5231135,https://maps.google.com/?cid=0x0:0xfcfbd46012f90d9c
supermarket,Toko,Kios nanda,"5G3M+297, Uriemi, Distrik Rasiei, Kabupaten Teluk Wondama, Papua Bar. 98362","Uriemi, Distrik Rasiei, Kabupaten Teluk Wondama",PAPUA BARAT,98362.0,Indonesia,,-2.8484782,134.5337704,https://maps.google.com/?cid=0x0:0x4bb760e00da4c5b2
supermarket,Rumah Makan,Moma Tuna,"Ruko pemda, Isei, Distrik Rasiei, Kabupaten Teluk Wondama, Papua Bar. 98362","Isei, Distrik Rasiei, Kabupaten Teluk Wondama",PAPUA BARAT,98362.0,Indonesia,82239434124.0,-2.8244266,134.5302228,https://maps.google.com/?cid=0x0:0x48bbdda565c6b29b
supermarket,Pusat Perbelanjaan,Pasar Iriati,"6GH9+4JM, Iriati, Distrik Wasior, Kabupaten Teluk Wondama, Papua Bar. 98362","Iriati, Distrik Wasior, Kabupaten Teluk Wondama",PAPUA BARAT,98362.0,Indonesia,82191876763.0,-2.7721585,134.5190364,https://maps.google.com/?cid=0x0:0xb29f17b7ed03eaf1
supermarket,supermarket,Kios Rizky,"7GG4+7MR, Wasior II, Distrik Wasior, Kabupaten Teluk Wondama, Papua Bar. 98362","Wasior II, Distrik Wasior, Kabupaten Teluk Wondama",PAPUA BARAT,98362.0,Indonesia,,-2.7242502,134.5066512,https://maps.google.com/?cid=0x0:0xa597a86fb80fd52d
supermarket,Kantor Perusahaan,Iriati,"6GR7+7H2, Jln. Poros Wasior, Iriati, Distrik Rasiei, Kabupaten Teluk Wondama, Papua Bar. 98362","Jln. Poros Wasior, Iriati, Distrik Rasiei, Kabupaten Teluk Wondama",PAPUA BARAT,98362.0,Indonesia,,-2.7593528,134.5139038,https://maps.google.com/?cid=0x0:0x9909888ae9fc2daa
supermarket,Minimarket,GEGE Mart,"6GGC+55X, Iriati, Distrik Wasior, Kabupaten Teluk Wondama, Papua Bar. 98362","Iriati, Distrik Wasior, Kabupaten Teluk Wondama",PAPUA BARAT,98362.0,Indonesia,,-2.7745048,134.5204824,https://maps.google.com/?cid=0x0:0x136d750c5cb2648b
supermarket,Toko Swalayan,Toko Gubuk Tani,"HRFC+WGQ, Waisai, Kec. Waigeo Sel., Kabupaten Raja Ampat, Papua Bar. 98482","Waisai, Kec. Waigeo Sel., Kabupaten Raja Ampat",PAPUA BARAT,98482.0,Indonesia,81343111508.0,-0.4251576,130.821354,https://maps.google.com/?cid=0x0:0xd8f8dfe47f6582f8
supermarket,Toko bahan makanan,Gudang gubuk tani,"HRF8+8RC, Jl. Fundar Sakela, Waisai, Kec. Waigeo Sel., Kabupaten Raja Ampat, Papua Bar. 98482","Jl. Fundar Sakela, Waisai, Kec. Waigeo Sel., Kabupaten Raja Ampat",PAPUA BARAT,98482.0,Indonesia,,-0.4266848,130.8170157,https://maps.google.com/?cid=0x0:0x6482054974887b15
supermarket,Toko Swalayan,Mu Gung Hwa Supermarket - Dharmawangsa,"Jl. Darmawangsa Raya No.2 Lantai 2, RT.2/RW.1, Pulo, Kec. Kby. Baru, Kota Jakarta Selatan, Daerah Khusus Ibukota Jakarta 12160","RT.2/RW.1, Pulo, Kec. Kby. Baru, Kota Jakarta Selatan",PAPUA BARAT,12160.0,Indonesia,217233214.0,-6.2549914,106.7977871,https://maps.google.com/?cid=0x0:0xc3d58b4e04a5f570
supermarket,supermarket,Papua Bar.,,Papua Bar.,PAPUA BARAT,,Indonesia,,-1.3361154,133.1747162,https://maps.google.com/?cid=0x0:0x5349c1f8c5c7cb62
supermarket,supermarket,YOHAN Supermarket,"Jl. Ahmad Yani No.1, Klademak, Distrik Sorong, Kota Sorong, Papua Bar. 98416","Klademak, Distrik Sorong, Kota Sorong",PAPUA BARAT,98416.0,Indonesia,81241112409.0,-0.8823052,131.2743974,https://maps.google.com/?cid=0x0:0xbe43bda2dd8bc9e0
supermarket,Toko bahan makanan,McPhee's Grocery,"717 S Race St, Port Angeles, WA 98362, Amerika Serikat","Port Angeles, WA",PAPUA BARAT,98362.0,Indonesia,13604574333.0,48.1071191,-123.4238333,https://maps.google.com/?cid=0x0:0x4f960b3386620197
supermarket,Minimarket,R Corner Grocery,"256421 US-101, Port Angeles, WA 98362, Amerika Serikat",US-101,PAPUA BARAT,256421.0,Indonesia,13604572762.0,48.0939193,-123.2748297,https://maps.google.com/?cid=0x0:0x96688f3d8d6768b5
supermarket,Toko bahan makanan,Lincoln Park Grocery,"1500 W Lauridsen Blvd, Port Angeles, WA 98363, Amerika Serikat","Port Angeles, WA",PAPUA BARAT,98363.0,Indonesia,15642151436.0,48.1132309,-123.4786792,https://maps.google.com/?cid=0x0:0x9b40318807b2da62
supermarket,Minimarket,Fairmount Grocery,"1137 US-101, Port Angeles, WA 98363, Amerika Serikat","Port Angeles, WA",PAPUA BARAT,98363.0,Indonesia,13604521627.0,48.1064734,-123.4702715,https://maps.google.com/?cid=0x0:0x69562445c72d1404
supermarket,Pusat Perbelanjaan,Pasar Iriati,"6GH9+4JM, Iriati, Distrik Wasior, Kabupaten Teluk Wondama, Papua Bar. 98362","Iriati, Distrik Wasior, Kabupaten Teluk Wondama",PAPUA BARAT,98362.0,Indonesia,82191876763.0,-2.7721585,134.5190364,https://maps.google.com/?cid=0x0:0xb29f17b7ed03eaf1
supermarket,supermarket,Cahaya Surya,"6GH9+CVG, Iriati, Distrik Wasior, Kabupaten Teluk Wondama, Papua Bar. 98362","Iriati, Distrik Wasior, Kabupaten Teluk Wondama",PAPUA BARAT,98362.0,Indonesia,,-2.7714303,134.5196962,https://maps.google.com/?cid=0x0:0xfdbaf93afc57ce0a
supermarket,supermarket,Roswar,"Waprak, Kec. Roswar, Kabupaten Teluk Wondama, Papua Bar.","Kabupaten Teluk Wondama, Papua Bar.",PAPUA BARAT,,Indonesia,,-2.010139,134.378759,https://maps.google.com/?cid=0x0:0x4e47415efb8c1520
supermarket,supermarket,Kec. Tebet,"Kota Jakarta Selatan, Daerah Khusus Ibukota Jakarta","Kota Jakarta Selatan, Daerah Khusus Ibukota Jakarta",PAPUA BARAT,,Indonesia,,-6.2251223,106.8549881,https://maps.google.com/?cid=0x0:0xd575e31c807295f9
supermarket,Pasar,Pasar Rumberpon.Teluk Wondama,"548W+QVH, Distrik Rumberpon, Kabupaten Teluk Wondama, Papua Bar.","Kabupaten Teluk Wondama, Papua Bar.",PAPUA BARAT,,Indonesia,,-1.8330605,134.1472301,https://maps.google.com/?cid=0x0:0xf57408a6936e93b1
supermarket,Komplek perumahan,Kios Ainur Yembekiri,"5558+XWJ, Yembekiri I, Distrik Rumberpon, Kabupaten Teluk Wondama, Papua Bar. 98361","Yembekiri I, Distrik Rumberpon, Kabupaten Teluk Wondama",PAPUA BARAT,98361.0,Indonesia,,-1.8400463,134.1672804,https://maps.google.com/?cid=0x0:0x61f8b1db23c017a
supermarket,supermarket,Distrik Rumberpon,"Kabupaten Teluk Wondama, Papua Bar.","Kabupaten Teluk Wondama, Papua Bar.",PAPUA BARAT,,Indonesia,,-1.8449584,134.1491513,https://maps.google.com/?cid=0x0:0x3022979f8a7f5e3b
supermarket,supermarket,Soug Jaya,"Kabupaten Teluk Wondama, Papua Bar.","Kabupaten Teluk Wondama, Papua Bar.",PAPUA BARAT,,Indonesia,,-1.8026511,134.1001732,https://maps.google.com/?cid=0x0:0x8fa303f645c60070
supermarket,Pusat Perbelanjaan,Papua Supermarket  Dept. Store,"4869+F77 Bar, Sawagumu, Kec. Sorong Utara, Kota Sorong, Papua Bar. 98416","Sawagumu, Kec. Sorong Utara, Kota Sorong",PAPUA BARAT,98416.0,Indonesia,9513160123.0,-0.888831,131.3181847,https://maps.google.com/?cid=0x0:0x7b5f0926a74ad213
supermarket,supermarket,YOHAN Supermarket,"Jl. Ahmad Yani No.1, Klademak, Distrik Sorong, Kota Sorong, Papua Bar. 98416","Klademak, Distrik Sorong, Kota Sorong",PAPUA BARAT,98416.0,Indonesia,81241112409.0,-0.8823052,131.2743974,https://maps.google.com/?cid=0x0:0xbe43bda2dd8bc9e0
supermarket,Toko Swalayan,Mu Gung Hwa Supermarket - Dharmawangsa,"Jl. Darmawangsa Raya No.2 Lantai 2, RT.2/RW.1, Pulo, Kec. Kby. Baru, Kota Jakarta Selatan, Daerah Khusus Ibukota Jakarta 12160","RT.2/RW.1, Pulo, Kec. Kby. Baru, Kota Jakarta Selatan",PAPUA BARAT,12160.0,Indonesia,217233214.0,-6.2549914,106.7977871,https://maps.google.com/?cid=0x0:0xc3d58b4e04a5f570
supermarket,Supermarket Diskon,CV. Samudera,"9P4P+9J7, Jl. Sapta Taruna, Kroy, Kec. Kaimana, Kabupaten Kaimana, Papua Bar. 98654","Jl. Sapta Taruna, Kroy, Kec. Kaimana, Kabupaten Kaimana",PAPUA BARAT,98654.0,Indonesia,,-3.6440992,133.7365536,https://maps.google.com/?cid=0x0:0x64165c860713d18
supermarket,Toko Kelontong Korea,Mu Gung Hwa Supermarket - Senopati,"Jl. Senayan No.43, RT.8/RW.5, Rw. Bar., Kec. Kby. Baru, Kota Jakarta Selatan, Daerah Khusus Ibukota Jakarta 12180","RT.8/RW.5, Rw. Bar., Kec. Kby. Baru, Kota Jakarta Selatan",PAPUA BARAT,12180.0,Indonesia,217222214.0,-6.2353938,106.8158782,https://maps.google.com/?cid=0x0:0x9ffba79e59c537d5
supermarket,supermarket,Duairi,"Kabupaten Teluk Wondama, Papua Bar.","Kabupaten Teluk Wondama, Papua Bar.",PAPUA BARAT,,Indonesia,,-2.5401452,134.5313569,https://maps.google.com/?cid=0x0:0x857fd4c80338c7d6
supermarket,Toko umum,Queen Mart. Jlr.3 Sobey Indah,"FF2H+JG6, Jlr III, Sobei Indah, Duairi, Kabupaten Teluk Wondama, Papua Bar. 98362","Jlr III, Sobei Indah, Duairi, Kabupaten Teluk Wondama",PAPUA BARAT,98362.0,Indonesia,81247066679.0,-2.5484551,134.4787512,https://maps.google.com/?cid=0x0:0xe112554714af9143
supermarket,Pusat Perbelanjaan,Pasar soyar,"7GC5+FQM, Masabuay, selatan pasar ikan, Wasior I, Distrik Wasior, Kabupaten Teluk Wondama, Papua Bar. 98362","Masabuay, selatan pasar ikan, Wasior I, Distrik Wasior, Kabupaten Teluk Wondama",PAPUA BARAT,98362.0,Indonesia,822715566.0,-2.7287807,134.5094141,https://maps.google.com/?cid=0x0:0x29ab54816e33ac1d
supermarket,Komplek perumahan,Konplex Warayaru 024,"CF88+MQ, Sobei, Duairi, Kabupaten Teluk Wondama, Papua Bar.","Kabupaten Teluk Wondama, Papua Bar.",PAPUA BARAT,,Indonesia,,-2.584018,134.4688753,https://maps.google.com/?cid=0x0:0xc7f75fc7d7100d88
supermarket,Minimarket,GEGE Mart,"6GGC+55X, Iriati, Distrik Wasior, Kabupaten Teluk Wondama, Papua Bar. 98362","Iriati, Distrik Wasior, Kabupaten Teluk Wondama",PAPUA BARAT,98362.0,Indonesia,,-2.7745048,134.5204824,https://maps.google.com/?cid=0x0:0x136d750c5cb2648b
supermarket,supermarket,KIOS SETYA,"FF2H+V56, Jalur 3, Sobey Indah, Duairi, Kabupaten Teluk Wondama, Papua Bar.","Kabupaten Teluk Wondama, Papua Bar.",PAPUA BARAT,,Indonesia,,-2.5478425,134.4778896,https://maps.google.com/?cid=0x0:0x4a7de0dff7d311cb
supermarket,supermarket,Papua Bar. 98362,"Kabupaten Teluk Wondama, Papua Bar.","Kabupaten Teluk Wondama, Papua Bar.",PAPUA BARAT,,Indonesia,,-2.9647961,134.4748018,https://maps.google.com/?cid=0x0:0xbea57e7dbf1a786f
supermarket,Toko,Kios sinar kandora,"8FVW+M7F, Unnamed Road, Dotir, Distrik Wasior, Kabupaten Teluk Wondama, Papua Bar. 98362","Unnamed Road, Dotir, Distrik Wasior, Kabupaten Teluk Wondama",PAPUA BARAT,98362.0,Indonesia,,-2.655804,134.4956844,https://maps.google.com/?cid=0x0:0x39f380bc9f0e203e
supermarket,Toko bahan makanan,Makmur Mart,"Iriati, Kuri Wamesa, Kabupaten Teluk Wondama, Papua Bar. 98362","Kuri Wamesa, Kabupaten Teluk Wondama",PAPUA BARAT,98362.0,Indonesia,81359659430.0,-2.8551699,134.3236557,https://maps.google.com/?cid=0x0:0xa845e05540e4079c
supermarket,supermarket,Kios IRA,"6GW5+X37, Manopi, Distrik Wasior, Kabupaten Teluk Wondama, Papua Bar. 98362","Manopi, Distrik Wasior, Kabupaten Teluk Wondama",PAPUA BARAT,98362.0,Indonesia,,-2.7525845,134.5076679,https://maps.google.com/?cid=0x0:0xb975e1dce779f529
supermarket,supermarket,Koos IRA,"6GW5+W36, Maniwak, Distrik Wasior, Kabupaten Teluk Wondama, Papua Bar. 98362","Maniwak, Distrik Wasior, Kabupaten Teluk Wondama",PAPUA BARAT,98362.0,Indonesia,,-2.7527057,134.507648,https://maps.google.com/?cid=0x0:0xdc0283e7552d00e7
supermarket,supermarket,Wamesa,"Kabupaten Teluk Bintuni, Papua Bar.","Kabupaten Teluk Bintuni, Papua Bar.",PAPUA BARAT,,Indonesia,,-2.1434612,133.981812,https://maps.google.com/?cid=0x0:0x255b33cb1fd7a021
supermarket,Minimarket,Toko zahra,"Bumi Saniari, Distrik Manimeri, Kabupaten Teluk Bintuni, Papua Bar. 98364","Distrik Manimeri, Kabupaten Teluk Bintuni",PAPUA BARAT,98364.0,Indonesia,82143334443.0,-2.0339882,133.7198351,https://maps.google.com/?cid=0x0:0xcb5fbb6bbe05c129
supermarket,Toko,Berkah dua putri,"WM44+GJH, RW.Sp IV, Tuasai, Distrik Bintuni, Kabupaten Teluk Bintuni, Papua Bar. 98364","RW.Sp IV, Tuasai, Distrik Bintuni, Kabupaten Teluk Bintuni",PAPUA BARAT,98364.0,Indonesia,,-2.0935428,133.6565704,https://maps.google.com/?cid=0x0:0x27ef45421ad74b1a
supermarket,Kios,KIOS YOGA,"Jln. Poros, Tuasai, Distrik Manimeri, Kabupaten Teluk Bintuni, Papua Bar. 98364","Tuasai, Distrik Manimeri, Kabupaten Teluk Bintuni",PAPUA BARAT,98364.0,Indonesia,,-2.0912633,133.6596332,https://maps.google.com/?cid=0x0:0x12e77daf3f2b7b0
supermarket,Pusat Perbelanjaan,Toko Sinar Azarah,"Kompleks Pasar Sentral Blok A-08, Kel Distrik, East Bintuni, Bintuni, Teluk Bintuni Regency, West Papua 98364","Kel Distrik, East Bintuni, Bintuni, Teluk Bintuni Regency",PAPUA BARAT,98364.0,Indonesia,81240358847.0,-2.1202703,133.5356659,https://maps.google.com/?cid=0x0:0x53b541808966fad9
supermarket,supermarket,Papua Bar. 98364,"Kabupaten Teluk Bintuni, Papua Bar.","Kabupaten Teluk Bintuni, Papua Bar.",PAPUA BARAT,,Indonesia,,-1.8959987,133.6375314,https://maps.google.com/?cid=0x0:0x5d92307b98683ecf
supermarket,supermarket,Wamesa,"Kabupaten Teluk Wondama, Papua Bar.","Kabupaten Teluk Wondama, Papua Bar.",PAPUA BARAT,,Indonesia,,-2.1544139,134.0770134,https://maps.google.com/?cid=0x0:0x66173cbf11eb7129
supermarket,supermarket,Papua Bar. 98361,"Kabupaten Teluk Wondama, Papua Bar.","Kabupaten Teluk Wondama, Papua Bar.",PAPUA BARAT,,Indonesia,,-2.4815085,134.2099791,https://maps.google.com/?cid=0x0:0xe298b41c3e32d0eb
supermarket,supermarket,Distrik Wasior,"Kabupaten Teluk Wondama, Papua Bar.","Kabupaten Teluk Wondama, Papua Bar.",PAPUA BARAT,,Indonesia,,-2.726099,134.506737,https://maps.google.com/?cid=0x0:0x54655a71cd072b6e
supermarket,Toko bahan makanan,KOKO MAJU BERSAMA,"Miei, Distrik Wasior, Kabupaten Teluk Wondama, Papua Bar. 98362","Distrik Wasior, Kabupaten Teluk Wondama",PAPUA BARAT,98362.0,Indonesia,,-2.7360945,134.5122993,https://maps.google.com/?cid=0x0:0x351104c7d3094549
supermarket,Pusat Perbelanjaan,Pasar Iriati,"6GH9+4JM, Iriati, Distrik Wasior, Kabupaten Teluk Wondama, Papua Bar. 98362","Iriati, Distrik Wasior, Kabupaten Teluk Wondama",PAPUA BARAT,98362.0,Indonesia,82191876763.0,-2.7721585,134.5190364,https://maps.google.com/?cid=0x0:0xb29f17b7ed03eaf1
supermarket,Pusat Perbelanjaan,Pasar soyar,"7GC5+FQM, Masabuay, selatan pasar ikan, Wasior I, Distrik Wasior, Kabupaten Teluk Wondama, Papua Bar. 98362","Masabuay, selatan pasar ikan, Wasior I, Distrik Wasior, Kabupaten Teluk Wondama",PAPUA BARAT,98362.0,Indonesia,822715566.0,-2.7287807,134.5094141,https://maps.google.com/?cid=0x0:0x29ab54816e33ac1d
supermarket,Kios,Kios Rahmat Siompu,"6GX5+857, Maniwak, Distrik Wasior, Kabupaten Teluk Wondama, Papua Bar. 98362","Maniwak, Distrik Wasior, Kabupaten Teluk Wondama",PAPUA BARAT,98362.0,Indonesia,82239800832.0,-2.751704,134.507922,https://maps.google.com/?cid=0x0:0x1de05755c8b92489
supermarket,Layanan cetak digital,Fotocopy Chio,"7GM4+R33, Wasior II, Distrik Wasior, Kabupaten Teluk Wondama, Papua Bar. 98362","Wasior II, Distrik Wasior, Kabupaten Teluk Wondama",PAPUA BARAT,98362.0,Indonesia,,-2.715496,134.50517,https://maps.google.com/?cid=0x0:0xa1c3f962b62b14ae
supermarket,Toko bahan makanan,Kios Ratu Sanduay,"7GQ4+P6W, Moru, Distrik Wasior, Kabupaten Teluk Wondama, Papua Bar. 98362","Moru, Distrik Wasior, Kabupaten Teluk Wondama",PAPUA BARAT,98362.0,Indonesia,82198489865.0,-2.7106419,134.505583,https://maps.google.com/?cid=0x0:0x259bd92cfc1f79ae
supermarket,Toko bahan makanan,Victory,"2FPF+3WM, Maniwak, Distrik Wasior, Kabupaten Teluk Wondama, Papua Bar. 98362","Maniwak, Distrik Wasior, Kabupaten Teluk Wondama",PAPUA BARAT,98362.0,Indonesia,,-2.9647961,134.4748018,https://maps.google.com/?cid=0x0:0xaa14ccf319f55d2c
supermarket,Gereja,GKI Syaloom Wasior,"7GF5+WX6, Bar., Wasior I, Distrik Wasior, Kabupaten Teluk Wondama, Papua Bar. 98362","Bar., Wasior I, Distrik Wasior, Kabupaten Teluk Wondama",PAPUA BARAT,98362.0,Indonesia,81289867287.0,-2.725211,134.5098937,https://maps.google.com/?cid=0x0:0x1f3af74a52ffd129
supermarket,Toko sembako pemerintah,Ramli ruka,"6GM9+75F, Iriati, Distrik Wasior, Kabupaten Teluk Wondama, Papua Bar. 98362","Iriati, Distrik Wasior, Kabupaten Teluk Wondama",PAPUA BARAT,98362.0,Indonesia,,-2.7665331,134.5172165,https://maps.google.com/?cid=0x0:0xc26dd2b26a38814f
supermarket,supermarket,Penjual pinang/toko 3putra,"7GC5+CQG, Masabuay, selatan pasar ikan, Wasior I, Distrik Wasior, Kabupaten Teluk Wondama, Papua Bar. 98362","Masabuay, selatan pasar ikan, Wasior I, Distrik Wasior, Kabupaten Teluk Wondama",PAPUA BARAT,98362.0,Indonesia,,-2.728817,134.50975,https://maps.google.com/?cid=0x0:0x6216af00b54bc81d
supermarket,Kios,Aira wondiboi,"5GRJ+2HJ, Wondiboi, Distrik Wondiboy, Kabupaten Teluk Wondama, Papua Bar. 98362","Wondiboi, Distrik Wondiboy, Kabupaten Teluk Wondama",PAPUA BARAT,98362.0,Indonesia,,-2.8097839,134.5313792,https://maps.google.com/?cid=0x0:0xe433d93f4ad9d9c6
supermarket,Toko,Kios umy aisyah,"5GVH+4C3, Wondiboi, Distrik Wondiboy, Kabupaten Teluk Wondama, Papua Bar. 98362","Wondiboi, Distrik Wondiboy, Kabupaten Teluk Wondama",PAPUA BARAT,98362.0,Indonesia,82347406231.0,-2.8072497,134.5285564,https://maps.google.com/?cid=0x0:0xfff521ce9c2e35cc
supermarket,supermarket,Kios Rizky,"7GG4+7MR, Wasior II, Distrik Wasior, Kabupaten Teluk Wondama, Papua Bar. 98362","Wasior II, Distrik Wasior, Kabupaten Teluk Wondama",PAPUA BARAT,98362.0,Indonesia,,-2.7242502,134.5066512,https://maps.google.com/?cid=0x0:0xa597a86fb80fd52d
supermarket,supermarket,Kec. Windesi,"Kabupaten Teluk Wondama, Papua Bar.","Kabupaten Teluk Wondama, Papua Bar.",PAPUA BARAT,,Indonesia,,-2.601077,134.1340439,https://maps.google.com/?cid=0x0:0x9b9a2ca4d233e89d
supermarket,Toko bahan makanan,Toko Winda,"Q8R7+54, Yenbekaki, Distrik Waigeo Timur, Kabupaten Raja Ampat, Papua Bar.","Kabupaten Raja Ampat, Papua Bar.",PAPUA BARAT,,Indonesia,,-0.2095622,131.3128223,https://maps.google.com/?cid=0x0:0x9c2e8737cbb9be30
supermarket,supermarket,Kios Kurei,"J45F+MRF, Werabur, Distrik Nikiwar, Kabupaten Teluk Wondama, Papua Bar.","Kabupaten Teluk Wondama, Papua Bar.",PAPUA BARAT,,Indonesia,,-2.390823,134.1245436,https://maps.google.com/?cid=0x0:0xceeec8cce64f5094
supermarket,supermarket,Warung gembira,"7GC5+GJ5, Unnamed Road, Wasior I, Distrik Wasior, Kabupaten Teluk Wondama, Papua Bar. 98362","Unnamed Road, Wasior I, Distrik Wasior, Kabupaten Teluk Wondama",PAPUA BARAT,98362.0,Indonesia,,-2.7287309,134.5091155,https://maps.google.com/?cid=0x0:0x243162224ff36a25
supermarket,supermarket,Kios Rizky,"7GG4+7MR, Wasior II, Distrik Wasior, Kabupaten Teluk Wondama, Papua Bar. 98362","Wasior II, Distrik Wasior, Kabupaten Teluk Wondama",PAPUA BARAT,98362.0,Indonesia,,-2.7242502,134.5066512,https://maps.google.com/?cid=0x0:0xa597a86fb80fd52d
supermarket,Toko bahan makanan,Victory,"2FPF+3WM, Maniwak, Distrik Wasior, Kabupaten Teluk Wondama, Papua Bar. 98362","Maniwak, Distrik Wasior, Kabupaten Teluk Wondama",PAPUA BARAT,98362.0,Indonesia,,-2.9647961,134.4748018,https://maps.google.com/?cid=0x0:0xaa14ccf319f55d2c
supermarket,Toko bahan makanan,Toko Dua Saudara,"HRFF+P9V, Waisai, Waigeo Selatan, Waisai, Distrik Kota Waisai, Kabupaten Raja Ampat, Papua Bar. 98482","Waisai, Waigeo Selatan, Waisai, Distrik Kota Waisai, Kabupaten Raja Ampat",PAPUA BARAT,98482.0,Indonesia,81248277647.0,-0.4256342,130.8234194,https://maps.google.com/?cid=0x0:0xa818cfb481f861bb
supermarket,Toko bahan makanan,Toko Winda,"Q8R7+54, Yenbekaki, Distrik Waigeo Timur, Kabupaten Raja Ampat, Papua Bar.","Kabupaten Raja Ampat, Papua Bar.",PAPUA BARAT,,Indonesia,,-0.2095622,131.3128223,https://maps.google.com/?cid=0x0:0x9c2e8737cbb9be30
supermarket,supermarket,Kec. Windesi,"Kabupaten Teluk Wondama, Papua Bar.","Kabupaten Teluk Wondama, Papua Bar.",PAPUA BARAT,,Indonesia,,-2.601077,134.1340439,https://maps.google.com/?cid=0x0:0x9b9a2ca4d233e89d
supermarket,supermarket,Kios Kurei,"J45F+MRF, Werabur, Distrik Nikiwar, Kabupaten Teluk Wondama, Papua Bar.","Kabupaten Teluk Wondama, Papua Bar.",PAPUA BARAT,,Indonesia,,-2.390823,134.1245436,https://maps.google.com/?cid=0x0:0xceeec8cce64f5094
supermarket,supermarket,Kios Rizky,"7GG4+7MR, Wasior II, Distrik Wasior, Kabupaten Teluk Wondama, Papua Bar. 98362","Wasior II, Distrik Wasior, Kabupaten Teluk Wondama",PAPUA BARAT,98362.0,Indonesia,,-2.7242502,134.5066512,https://maps.google.com/?cid=0x0:0xa597a86fb80fd52d
supermarket,Toko Swalayan,Mu Gung Hwa Supermarket - Dharmawangsa,"Jl. Darmawangsa Raya No.2 Lantai 2, RT.2/RW.1, Pulo, Kec. Kby. Baru, Kota Jakarta Selatan, Daerah Khusus Ibukota Jakarta 12160","RT.2/RW.1, Pulo, Kec. Kby. Baru, Kota Jakarta Selatan",PAPUA BARAT,12160.0,Indonesia,217233214.0,-6.2549914,106.7977871,https://maps.google.com/?cid=0x0:0xc3d58b4e04a5f570
supermarket,Toko Swalayan,K-Mart,"Wijaya Grand Centre, Jl. Darmawangsa Raya No.43-44, RT.5/RW.1, Pulo, Kec. Kby. Baru, Kota Jakarta Selatan, Daerah Khusus Ibukota Jakarta 12160","Jl. Darmawangsa Raya No.43-44, RT.5/RW.1, Pulo, Kec. Kby. Baru, Kota Jakarta Selatan",PAPUA BARAT,12160.0,Indonesia,2122775526.0,-6.2545176,106.8010066,https://maps.google.com/?cid=0x0:0x67f5c5b3bd113abc
supermarket,supermarket,Papua Bar. 98361,"Kabupaten Teluk Wondama, Papua Bar.","Kabupaten Teluk Wondama, Papua Bar.",PAPUA BARAT,,Indonesia,,-2.4815085,134.2099791,https://maps.google.com/?cid=0x0:0xe298b41c3e32d0eb
supermarket,Toko bahan makanan,Toko Winda,"Q8R7+54, Yenbekaki, Distrik Waigeo Timur, Kabupaten Raja Ampat, Papua Bar.","Kabupaten Raja Ampat, Papua Bar.",PAPUA BARAT,,Indonesia,,-0.2095622,131.3128223,https://maps.google.com/?cid=0x0:0x9c2e8737cbb9be30
supermarket,Toko umum,Kios makanan,"C593+WRP, Dembek, Distrik Momi Waren, Kab. Manokwari Selatan, Papua Bar. 98355","Dembek, Distrik Momi Waren, Kab. Manokwari Selatan",PAPUA BARAT,98355.0,Indonesia,,-1.5801582,134.1545852,https://maps.google.com/?cid=0x0:0x9ef983d753dd785c
supermarket,supermarket,Kios Kurei,"J45F+MRF, Werabur, Distrik Nikiwar, Kabupaten Teluk Wondama, Papua Bar.","Kabupaten Teluk Wondama, Papua Bar.",PAPUA BARAT,,Indonesia,,-2.390823,134.1245436,https://maps.google.com/?cid=0x0:0xceeec8cce64f5094
supermarket,Toko Swalayan,Orchid Swalayan,"43RF+C74, Jl. Merdeka, Padarni, Kec. Manokwari Bar., Kabupaten Manokwari, Papua Bar. 98312","Jl. Merdeka, Padarni, Kec. Manokwari Bar., Kabupaten Manokwari",PAPUA BARAT,98312.0,Indonesia,986211094.0,-0.8589972,134.0731963,https://maps.google.com/?cid=0x0:0xa0da1efaf3ec9af4
supermarket,Toko bahan makanan,ORCHID SWALAYAN WOSI,"Jl. Trikora Wosi, Wosi, Kec. Manokwari Bar., Kabupaten Manokwari, Papua Bar. 98312","Wosi, Kec. Manokwari Bar., Kabupaten Manokwari",PAPUA BARAT,98312.0,Indonesia,8114863377.0,-0.8625968,134.0521198,https://maps.google.com/?cid=0x0:0xefc90cd267cb5423
supermarket,supermarket,Kios Dani Riski,"C5Q8+MHH, Jl. Manokwari - Bintuni, Dembek, Distrik Momi Waren, Kab. Manokwari Selatan, Papua Bar. 98355","Jl. Manokwari - Bintuni, Dembek, Distrik Momi Waren, Kab. Manokwari Selatan",PAPUA BARAT,98355.0,Indonesia,,-1.5604165,134.1664563,https://maps.google.com/?cid=0x0:0x917ed97068572ff9
supermarket,Toko Swalayan,Mu Gung Hwa Supermarket - Dharmawangsa,"Jl. Darmawangsa Raya No.2 Lantai 2, RT.2/RW.1, Pulo, Kec. Kby. Baru, Kota Jakarta Selatan, Daerah Khusus Ibukota Jakarta 12160","RT.2/RW.1, Pulo, Kec. Kby. Baru, Kota Jakarta Selatan",PAPUA BARAT,12160.0,Indonesia,217233214.0,-6.2549914,106.7977871,https://maps.google.com/?cid=0x0:0xc3d58b4e04a5f570
supermarket,supermarket,Kios Rizky,"7GG4+7MR, Wasior II, Distrik Wasior, Kabupaten Teluk Wondama, Papua Bar. 98362","Wasior II, Distrik Wasior, Kabupaten Teluk Wondama",PAPUA BARAT,98362.0,Indonesia,,-2.7242502,134.5066512,https://maps.google.com/?cid=0x0:0xa597a86fb80fd52d
supermarket,Toko Swalayan,K-Mart,"Wijaya Grand Centre, Jl. Darmawangsa Raya No.43-44, RT.5/RW.1, Pulo, Kec. Kby. Baru, Kota Jakarta Selatan, Daerah Khusus Ibukota Jakarta 12160","Jl. Darmawangsa Raya No.43-44, RT.5/RW.1, Pulo, Kec. Kby. Baru, Kota Jakarta Selatan",PAPUA BARAT,12160.0,Indonesia,2122775526.0,-6.2545176,106.8010066,https://maps.google.com/?cid=0x0:0x67f5c5b3bd113abc
supermarket,Toko,Kios umy aisyah,"5GVH+4C3, Wondiboi, Distrik Wondiboy, Kabupaten Teluk Wondama, Papua Bar. 98362","Wondiboi, Distrik Wondiboy, Kabupaten Teluk Wondama",PAPUA BARAT,98362.0,Indonesia,82347406231.0,-2.8072497,134.5285564,https://maps.google.com/?cid=0x0:0xfff521ce9c2e35cc
supermarket,supermarket,Wondiboi,"Distrik Wondiboy, Kabupaten Teluk Wondama, Papua Bar.","Kabupaten Teluk Wondama, Papua Bar.",PAPUA BARAT,,Indonesia,,-2.8046444,134.5760814,https://maps.google.com/?cid=0x0:0xe68e45ccb2c17a3e
supermarket,Toko,Kios didi,"5GVH+6FQ, Wondiboi, Distrik Wondiboy, Kabupaten Teluk Wondama, Papua Bar. 98362","Wondiboi, Distrik Wondiboy, Kabupaten Teluk Wondama",PAPUA BARAT,98362.0,Indonesia,85256589499.0,-2.8069111,134.5287486,https://maps.google.com/?cid=0x0:0x5abb0dc428936694
supermarket,Toko bahan makanan,Victory,"2FPF+3WM, Maniwak, Distrik Wasior, Kabupaten Teluk Wondama, Papua Bar. 98362","Maniwak, Distrik Wasior, Kabupaten Teluk Wondama",PAPUA BARAT,98362.0,Indonesia,,-2.9647961,134.4748018,https://maps.google.com/?cid=0x0:0xaa14ccf319f55d2c
supermarket,Kios,Aira wondiboi,"5GRJ+2HJ, Wondiboi, Distrik Wondiboy, Kabupaten Teluk Wondama, Papua Bar. 98362","Wondiboi, Distrik Wondiboy, Kabupaten Teluk Wondama",PAPUA BARAT,98362.0,Indonesia,,-2.8097839,134.5313792,https://maps.google.com/?cid=0x0:0xe433d93f4ad9d9c6
supermarket,Pusat Perbelanjaan,Kios Annur,"5GRJ+2HJ, Wondiboi, Distrik Wondiboy, Kabupaten Teluk Wondama, Papua Bar. 98362","Wondiboi, Distrik Wondiboy, Kabupaten Teluk Wondama",PAPUA BARAT,98362.0,Indonesia,,-2.8099165,134.5313929,https://maps.google.com/?cid=0x0:0x1a8070300634ab3b
supermarket,Toko,Kios MozzA,"5GMJ+RQG, Isuy, Distrik Wondiboy, Kabupaten Teluk Wondama, Papua Bar. 98362","Isuy, Distrik Wondiboy, Kabupaten Teluk Wondama",PAPUA BARAT,98362.0,Indonesia,,-2.8154372,134.5319421,https://maps.google.com/?cid=0x0:0x9c80c3751011f2a7
supermarket,Toko Bahan Bangunan,TB.Wawi Mandiri,"5GRJ+2HJ, Wondiboi, Distrik Wondiboy, Kabupaten Teluk Wondama, Papua Bar. 98362","Wondiboi, Distrik Wondiboy, Kabupaten Teluk Wondama",PAPUA BARAT,98362.0,Indonesia,,-2.8102965,134.5316065,https://maps.google.com/?cid=0x0:0x4863273c6e26da8d
supermarket,Pusat Perbelanjaan,Pasar Iriati,"6GH9+4JM, Iriati, Distrik Wasior, Kabupaten Teluk Wondama, Papua Bar. 98362","Iriati, Distrik Wasior, Kabupaten Teluk Wondama",PAPUA BARAT,98362.0,Indonesia,82191876763.0,-2.7721585,134.5190364,https://maps.google.com/?cid=0x0:0xb29f17b7ed03eaf1
supermarket,Toko,Kios Palopo,"Wondiboi, Distrik Wondiboy, Kabupaten Teluk Wondama, Papua Bar. 98362","Distrik Wondiboy, Kabupaten Teluk Wondama",PAPUA BARAT,98362.0,Indonesia,82239395100.0,-2.8062446,134.5294118,https://maps.google.com/?cid=0x0:0xe6996c48d845b503
supermarket,supermarket,Kios Virgin,"5GMF+R6X, Rasiei, Distrik Rasiei, Kabupaten Teluk Wondama, Papua Bar. 98362","Rasiei, Distrik Rasiei, Kabupaten Teluk Wondama",PAPUA BARAT,98362.0,Indonesia,,-2.8153904,134.5231135,https://maps.google.com/?cid=0x0:0xc31ebcd24961b8e2
supermarket,Pusat Perbelanjaan,Pasar soyar,"7GC5+FQM, Masabuay, selatan pasar ikan, Wasior I, Distrik Wasior, Kabupaten Teluk Wondama, Papua Bar. 98362","Masabuay, selatan pasar ikan, Wasior I, Distrik Wasior, Kabupaten Teluk Wondama",PAPUA BARAT,98362.0,Indonesia,822715566.0,-2.7287807,134.5094141,https://maps.google.com/?cid=0x0:0x29ab54816e33ac1d
supermarket,Toko bahan makanan,Makmur Mart,"Iriati, Kuri Wamesa, Kabupaten Teluk Wondama, Papua Bar. 98362","Kuri Wamesa, Kabupaten Teluk Wondama",PAPUA BARAT,98362.0,Indonesia,81359659430.0,-2.8551699,134.3236557,https://maps.google.com/?cid=0x0:0xa845e05540e4079c
supermarket,supermarket,Kios Rizky,"7GG4+7MR, Wasior II, Distrik Wasior, Kabupaten Teluk Wondama, Papua Bar. 98362","Wasior II, Distrik Wasior, Kabupaten Teluk Wondama",PAPUA BARAT,98362.0,Indonesia,,-2.7242502,134.5066512,https://maps.google.com/?cid=0x0:0xa597a86fb80fd52d
