Category,Real Category,Business Name,Address,City,State,Postal Code,Country,Phone,Latitude,Longitude,Map Link
perumahan,perumahan,Kuri Wamesa,"Kabupaten Teluk Wondama, Papua Bar.","Kabupaten Teluk Wondama, Papua Bar.",PAPUA BARAT,,Indonesia,,-2.8551699,134.3236557,https://maps.google.com/?cid=0x0:0x8c3430e4162f73b3
perumahan,Komplek perumahan,Nanimori teluk Wondama,"48VF+WFJ, Ambumi, Kuri Wamesa, Kabupaten Teluk Wondama, Papua Bar.","Kabupaten Teluk Wondama, Papua Bar.",PAPUA BARAT,,Indonesia,,-2.8551699,134.3236557,https://maps.google.com/?cid=0x0:0x1d89c481933e7a25
perumahan,Komplek perumahan,Teluk wondama,"48VF+WFJ, Radu, Kuri Wamesa, Kabupaten Teluk Wondama, Papua Bar.","Kabupaten Teluk Wondama, Papua Bar.",PAPUA BARAT,,Indonesia,,-2.8551699,134.3236557,https://maps.google.com/?cid=0x0:0xdaa67b435cbdf199
perumahan,Komplek perumahan,Saneuw,"6CH8+JG, Nanimori, Kuri Wamesa, Kabupaten Teluk Wondama, Papua Bar.","Kabupaten Teluk Wondama, Papua Bar.",PAPUA BARAT,,Indonesia,,-2.7709728,134.4162564,https://maps.google.com/?cid=0x0:0x3e0044538a9287ba
perumahan,Komplek perumahan,Manggurai,"Manggurai, Distrik Wasior, Kabupaten Teluk Wondama, Papua Bar. 98362","Distrik Wasior, Kabupaten Teluk Wondama",PAPUA BARAT,98362.0,Indonesia,,-2.726099,134.506737,https://maps.google.com/?cid=0x0:0x5ed2e78c8a0fff5f
perumahan,Klinik Kesehatan,Puskesmas Kuri Wamesa,"4FP4+8WJ, Unnamed Road, Ambumi, Kuri Wamesa, Kabupaten Teluk Wondama, Papua Bar.","Kabupaten Teluk Wondama, Papua Bar.",PAPUA BARAT,,Indonesia,,-2.8641606,134.457258,https://maps.google.com/?cid=0x0:0xf1d11ec752d2e572
perumahan,Komplek perumahan,Kompleks perumahan pertanian iriati wasior,"6GH9+R8, Iriati, Distrik Wasior, Kabupaten Teluk Wondama, Papua Bar. 98362","Iriati, Distrik Wasior, Kabupaten Teluk Wondama",PAPUA BARAT,98362.0,Indonesia,,-2.7703833,134.5182983,https://maps.google.com/?cid=0x0:0xb2cc19eb93c1e362
perumahan,Komplek perumahan,rumah yunadi wirawan,"6G9F+X76, Manopi, Distrik Wasior, Kabupaten Teluk Wondama, Papua Bar. 98362","Manopi, Distrik Wasior, Kabupaten Teluk Wondama",PAPUA BARAT,98362.0,Indonesia,,-2.780272,134.523614,https://maps.google.com/?cid=0x0:0x26e7ce8681bbde76
perumahan,Komplek perumahan,Sungai jawore,"48QC+P85, Ambumi, Jawore, Kabupaten Teluk Wondama, Papua Bar.","Kabupaten Teluk Wondama, Papua Bar.",PAPUA BARAT,,Indonesia,,-2.8607267,134.3208489,https://maps.google.com/?cid=0x0:0x1f4933691b539a31
perumahan,Kantor Pemerintah,Perumahan DPRD Kabupaten Teluk Wondama,"5GVJ+2JG, Wondiboi, Distrik Wondiboy, Kabupaten Teluk Wondama, Papua Bar. 98362","Wondiboi, Distrik Wondiboy, Kabupaten Teluk Wondama",PAPUA BARAT,98362.0,Indonesia,,-2.807447,134.5315867,https://maps.google.com/?cid=0x0:0xf5421e8946180f5e
perumahan,Komplek perumahan,Perumahan Dinas Kesehatan,"6GQ6+PGC, Iriati, Distrik Wasior, Kabupaten Teluk Wondama, Papua Bar. 98362","Iriati, Distrik Wasior, Kabupaten Teluk Wondama",PAPUA BARAT,98362.0,Indonesia,,-2.7606799,134.5112794,https://maps.google.com/?cid=0x0:0xfc6bb3a188a91355
perumahan,Komplek perumahan,Rumah Bernadus Setiawan,"6GQ6+XX, Iriati, Distrik Wasior, Kabupaten Teluk Wondama, Papua Bar.","Kabupaten Teluk Wondama, Papua Bar.",PAPUA BARAT,,Indonesia,,-2.7601654,134.5125658,https://maps.google.com/?cid=0x0:0x6d9d0823c3a01aa9
perumahan,Pembangunan Perumahan,Pace Krey,"6GQ7+MHJ, Iriati, Distrik Wasior, Kabupaten Teluk Wondama, Papua Bar. 98362","Iriati, Distrik Wasior, Kabupaten Teluk Wondama",PAPUA BARAT,98362.0,Indonesia,,-2.7607846,134.5138999,https://maps.google.com/?cid=0x0:0x1b0debf5eb7a766e
perumahan,Komplek perumahan,Rumah,"6GQ9+736, Huntap 3 lorong 4, Iriati, Wasior, Teluk Wondama Regency, West Papua 98362","Huntap 3 lorong 4, Iriati, Wasior, Teluk Wondama Regency",PAPUA BARAT,98362.0,Indonesia,,-2.7618448,134.5176516,https://maps.google.com/?cid=0x0:0x94db817dba53305c
perumahan,Komplek perumahan,Kompleks perumahan pertanian iriati wasior,"6GH9+R8, Iriati, Distrik Wasior, Kabupaten Teluk Wondama, Papua Bar. 98362","Iriati, Distrik Wasior, Kabupaten Teluk Wondama",PAPUA BARAT,98362.0,Indonesia,,-2.7703833,134.5182983,https://maps.google.com/?cid=0x0:0xb2cc19eb93c1e362
perumahan,Perhimpunan Pengembang Perumahan,Lorong pasar,"7GG4+6C8, Wasior II, Distrik Wasior, Kabupaten Teluk Wondama, Papua Bar.","Kabupaten Teluk Wondama, Papua Bar.",PAPUA BARAT,,Indonesia,,-2.7244679,134.5060866,https://maps.google.com/?cid=0x0:0xb9c4768d512bee45
perumahan,perumahan,Papua Bar. 98362,"Kabupaten Teluk Wondama, Papua Bar.","Kabupaten Teluk Wondama, Papua Bar.",PAPUA BARAT,,Indonesia,,-2.9647961,134.4748018,https://maps.google.com/?cid=0x0:0xbea57e7dbf1a786f
perumahan,Komplek perumahan,Jalur Empat,"6GQ7+QCM, Iriati, Distrik Wasior, Kabupaten Teluk Wondama, Papua Bar. 98362","Iriati, Distrik Wasior, Kabupaten Teluk Wondama",PAPUA BARAT,98362.0,Indonesia,,-2.7605355,134.5135595,https://maps.google.com/?cid=0x0:0x6f70817bd896c44c
perumahan,Komplek perumahan,Manggurai,"Manggurai, Distrik Wasior, Kabupaten Teluk Wondama, Papua Bar. 98362","Distrik Wasior, Kabupaten Teluk Wondama",PAPUA BARAT,98362.0,Indonesia,,-2.726099,134.506737,https://maps.google.com/?cid=0x0:0x5ed2e78c8a0fff5f
perumahan,Komplek perumahan,Perumahan Dinas Kesehatan,"6GQ6+PGC, Iriati, Distrik Wasior, Kabupaten Teluk Wondama, Papua Bar. 98362","Iriati, Distrik Wasior, Kabupaten Teluk Wondama",PAPUA BARAT,98362.0,Indonesia,,-2.7606799,134.5112794,https://maps.google.com/?cid=0x0:0xfc6bb3a188a91355
perumahan,Komplek perumahan,Rumah,"6GQ9+736, Huntap 3 lorong 4, Iriati, Wasior, Teluk Wondama Regency, West Papua 98362","Huntap 3 lorong 4, Iriati, Wasior, Teluk Wondama Regency",PAPUA BARAT,98362.0,Indonesia,,-2.7618448,134.5176516,https://maps.google.com/?cid=0x0:0x94db817dba53305c
perumahan,Perhimpunan Pengembang Perumahan,Lorong Masjid,"7GF5+66R, Wasior I, Distrik Wasior, Kabupaten Teluk Wondama, Papua Bar.","Kabupaten Teluk Wondama, Papua Bar.",PAPUA BARAT,,Indonesia,,-2.7268838,134.5080198,https://maps.google.com/?cid=0x0:0x76ea4b815a7c3206
perumahan,Komplek perumahan,rumah yunadi wirawan,"6G9F+X76, Manopi, Distrik Wasior, Kabupaten Teluk Wondama, Papua Bar. 98362","Manopi, Distrik Wasior, Kabupaten Teluk Wondama",PAPUA BARAT,98362.0,Indonesia,,-2.780272,134.523614,https://maps.google.com/?cid=0x0:0x26e7ce8681bbde76
perumahan,Pembangunan Perumahan,Perumahan Pemda I,"7GG6+746, Wasior I, Distrik Wasior, Kabupaten Teluk Wondama, Papua Bar. 98362","Wasior I, Distrik Wasior, Kabupaten Teluk Wondama",PAPUA BARAT,98362.0,Indonesia,,-2.7243453,134.5102783,https://maps.google.com/?cid=0x0:0x13ac7031260b693f
perumahan,Komplek perumahan,man'na roti,"Iriati, Distrik Wasior, Kabupaten Teluk Wondama, Papua Bar. 98362","Distrik Wasior, Kabupaten Teluk Wondama",PAPUA BARAT,98362.0,Indonesia,,-2.7607842,134.5165944,https://maps.google.com/?cid=0x0:0x860956a57e3eea4f
perumahan,Pembangunan Perumahan,Isei wasior teluk wondama,"5HHH+H9V, Isei, Distrik Rasiei, Kabupaten Teluk Wondama, Papua Bar. 98362","Isei, Distrik Rasiei, Kabupaten Teluk Wondama",PAPUA BARAT,98362.0,Indonesia,,-2.8210085,134.5784245,https://maps.google.com/?cid=0x0:0x1d7e6b77e439bfca
perumahan,Komplek perumahan,Rumah Manopi,"6HMM+H72, Jl, Manopi, Wasior, Teluk Wondama Regency, West Papua 98362","Jl, Manopi, Wasior, Teluk Wondama Regency",PAPUA BARAT,98362.0,Indonesia,,-2.7661185,134.5831393,https://maps.google.com/?cid=0x0:0xfa12e7705f9591bc
perumahan,Komplek perumahan,Bezaleel Home,"6GH9+QGJ Perumahan Dinas Pertanian, Iriati, Distrik Wasior, Kabupaten Teluk Wondama, Papua Bar. 98362","Iriati, Distrik Wasior, Kabupaten Teluk Wondama",PAPUA BARAT,98362.0,Indonesia,,-2.7705478,134.5187534,https://maps.google.com/?cid=0x0:0x468c687b8c15d1e5
perumahan,perumahan,Papua Bar. 98361,"Kabupaten Teluk Wondama, Papua Bar.","Kabupaten Teluk Wondama, Papua Bar.",PAPUA BARAT,,Indonesia,,-2.4815085,134.2099791,https://maps.google.com/?cid=0x0:0xe298b41c3e32d0eb
perumahan,Komplek perumahan,Kampung Mamisi (Distrik Nikwar),"M5X5+W2C, Mamisi, Distrik Nikiwar, Kabupaten Teluk Wondama, Papua Bar.","Kabupaten Teluk Wondama, Papua Bar.",PAPUA BARAT,,Indonesia,,-2.3001993,134.1575071,https://maps.google.com/?cid=0x0:0x24590dd735cb8ba9
perumahan,Perhimpunan Pengembang Perumahan,Wb Family,"M5Q5+587, Mamisi, Distrik Nikiwar, Kabupaten Teluk Wondama, Papua Bar. 98361","Mamisi, Distrik Nikiwar, Kabupaten Teluk Wondama",PAPUA BARAT,98361.0,Indonesia,,-2.3120951,134.1583002,https://maps.google.com/?cid=0x0:0xd34c8beb9887fdb4
perumahan,Perhimpunan Pengembang Perumahan,Kampung Isosembani,"G5X2+56Q, Isosembani, Distrik Nikiwar, Kabupaten Teluk Wondama, Papua Bar. 98361","Isosembani, Distrik Nikiwar, Kabupaten Teluk Wondama",PAPUA BARAT,98361.0,Indonesia,,-2.4520364,134.1505977,https://maps.google.com/?cid=0x0:0xe3bd5807a2250f95
perumahan,Komplek perumahan,Kampung Jenggerai,"F8H8+G49, Sandey, Kec. Windesi, Kabupaten Teluk Wondama, Papua Bar.","Kabupaten Teluk Wondama, Papua Bar.",PAPUA BARAT,,Indonesia,,-2.5212171,134.3153705,https://maps.google.com/?cid=0x0:0x8ab81fdd6fcfd420
perumahan,Klinik Medis,RS PRATAMA NIKIWAR,"G4VX+8J, Tamoge, Distrik Nikiwar, Kabupaten Teluk Wondama, Papua Bar.","Kabupaten Teluk Wondama, Papua Bar.",PAPUA BARAT,,Indonesia,,-2.456707,134.149001,https://maps.google.com/?cid=0x0:0x1eb51da3e991f15e
perumahan,Komplek perumahan,Yarapate,"R4R9+68, Yarpate, Wamesa, Kabupaten Teluk Wondama, Papua Bar.","Kabupaten Teluk Wondama, Papua Bar.",PAPUA BARAT,,Indonesia,,-2.1594547,134.1182972,https://maps.google.com/?cid=0x0:0xab0c1bd6d12f1b56
perumahan,Kompleks Apartemen,Yembekiri,"5559+X2R, Yembekiri I, Distrik Rumberpon, Kabupaten Teluk Wondama, Papua Bar. 98361","Yembekiri I, Distrik Rumberpon, Kabupaten Teluk Wondama",PAPUA BARAT,98361.0,Indonesia,,-1.8400203,134.1675312,https://maps.google.com/?cid=0x0:0xbff508c6deda7d72
perumahan,perumahan,Distrik Nikiwar,"Kabupaten Teluk Wondama, Papua Bar.","Kabupaten Teluk Wondama, Papua Bar.",PAPUA BARAT,,Indonesia,,-2.4591355,134.154877,https://maps.google.com/?cid=0x0:0xbaab917b04d0653c
perumahan,Perhimpunan Pengembang Perumahan,"Kampung karuan, wondama","Q47J+GG, Karuan, Wamesa, Kabupaten Teluk Wondama, Papua Bar.","Kabupaten Teluk Wondama, Papua Bar.",PAPUA BARAT,,Indonesia,,-2.2362204,134.1313264,https://maps.google.com/?cid=0x0:0x587f409de7c9d749
perumahan,Komplek perumahan,ANGKILO,"543W+5X, Yembekiri II, Distrik Rumberpon, Kabupaten Teluk Wondama, Papua Bar.","Kabupaten Teluk Wondama, Papua Bar.",PAPUA BARAT,,Indonesia,,-1.8470662,134.1473921,https://maps.google.com/?cid=0x0:0x9ece5455e604cdad
perumahan,Komplek perumahan,Rumah afla,"86F9+52, Sobiar, Kuri Wamesa, Kabupaten Teluk Wondama, Papua Bar.","Kabupaten Teluk Wondama, Papua Bar.",PAPUA BARAT,,Indonesia,,-2.6771185,134.2175252,https://maps.google.com/?cid=0x0:0xb0e1fb4d0d846a4c
perumahan,Otoritas Pelabuhan,Pelabuhan Nordiwar,"V85Q+9WM, Nordiwar, Kabupaten Teluk Wondama",Kabupaten Teluk Wondama,PAPUA BARAT,,Indonesia,,-2.1415344,134.3398088,https://maps.google.com/?cid=0x0:0x90a6688765437406
perumahan,perumahan,Rasiei,"Distrik Rasiei, Kabupaten Teluk Wondama, Papua Bar.","Kabupaten Teluk Wondama, Papua Bar.",PAPUA BARAT,,Indonesia,,-2.8153904,134.5231135,https://maps.google.com/?cid=0x0:0xfcfbd46012f90d9c
perumahan,Perhimpunan Pengembang Perumahan,Lorong Rasiei,"5GHH+HF4, Rasiei, Distrik Rasiei, Kabupaten Teluk Wondama, Papua Bar.","Kabupaten Teluk Wondama, Papua Bar.",PAPUA BARAT,,Indonesia,,-2.821119,134.5287064,https://maps.google.com/?cid=0x0:0xf5f5ea019276f94a
perumahan,perumahan,ASPOL RASIEI,"5GMM+P3P, Polres, Wondiboi, Distrik Wondiboy, Kabupaten Teluk Wondama, Papua Bar. 98362","Polres, Wondiboi, Distrik Wondiboy, Kabupaten Teluk Wondama",PAPUA BARAT,98362.0,Indonesia,,-2.8156568,134.5327184,https://maps.google.com/?cid=0x0:0x76ab4cf7d32698c7
perumahan,perumahan,Distrik Roon,"Kabupaten Teluk Wondama, Papua Bar.","Kabupaten Teluk Wondama, Papua Bar.",PAPUA BARAT,,Indonesia,,-2.4013106,134.5631431,https://maps.google.com/?cid=0x0:0x2ba62b517ea3bb98
perumahan,Komplek perumahan,Kampung Menarbu,"JG5W+859, Menarbu, Distrik Roon, Kabupaten Teluk Wondama, Papua Bar.","Kabupaten Teluk Wondama, Papua Bar.",PAPUA BARAT,,Indonesia,,-2.391723,134.545485,https://maps.google.com/?cid=0x0:0xc06ac0b3976ce8ff
perumahan,Perhimpunan Pengembang Perumahan,Desa Menarbu,"CFR5+C6, Sobei, Distrik Roon, Kabupaten Teluk Wondama, Papua Bar.","Kabupaten Teluk Wondama, Papua Bar.",PAPUA BARAT,,Indonesia,,-2.4013125,134.5631406,https://maps.google.com/?cid=0x0:0x78f6e501b7115afe
perumahan,Perhimpunan Pengembang Perumahan,Lorong Aise,"GG6R+88Q, Aisandami, Duairi, Kabupaten Teluk Wondama, Papua Bar.","Kabupaten Teluk Wondama, Papua Bar.",PAPUA BARAT,,Indonesia,,-2.4891538,134.5408638,https://maps.google.com/?cid=0x0:0xf4198b3da7a7b64a
perumahan,Tujuan Wisata,Kampung Niap,"JHJ5+3W9, Niab, Distrik Roon, Kabupaten Teluk Wondama, Papua Bar. 98362","Niab, Distrik Roon, Kabupaten Teluk Wondama",PAPUA BARAT,98362.0,Indonesia,,-2.3698369,134.5598592,https://maps.google.com/?cid=0x0:0x241410d695221c42
perumahan,Klinik Medis,Puskesmas Roon,"JHJ5+3W9, Niab, Distrik Roon, Kabupaten Teluk Wondama, Papua Bar. 98362","Niab, Distrik Roon, Kabupaten Teluk Wondama",PAPUA BARAT,98362.0,Indonesia,,-2.3702918,134.5593338,https://maps.google.com/?cid=0x0:0x2eef6e44a686e14
perumahan,Pembangunan Perumahan,KPR Pesona Soribo,"42HR+7M2, Wosi, Kec. Manokwari Bar., Kabupaten Manokwari, Papua Bar. 98312","Wosi, Kec. Manokwari Bar., Kabupaten Manokwari",PAPUA BARAT,98312.0,Indonesia,,-0.8718653,134.0416531,https://maps.google.com/?cid=0x0:0x8c8857e3435507a2
perumahan,Kantor Pemerintah,Kampung Yopanggar,"GH9M+72J, Yopenggar, Duairi, Kabupaten Teluk Wondama, Papua Bar.","Kabupaten Teluk Wondama, Papua Bar.",PAPUA BARAT,,Indonesia,,-2.4812997,134.582773,https://maps.google.com/?cid=0x0:0xc394b6764ea1c82c
perumahan,Komplek perumahan,Cluster Lavender,"QJ47+6JV, Jl. Lavender Raya, Klp. Dua, Kec. Klp. Dua, Kabupaten Tangerang, Banten 15810","Jl. Lavender Raya, Klp. Dua, Kec. Klp. Dua, Kabupaten Tangerang",PAPUA BARAT,15810.0,Indonesia,,-6.2443851,106.6140622,https://maps.google.com/?cid=0x0:0xe185249c406c65b2
perumahan,Komplek perumahan,Cluster Lavender 6 nomor 31,"Jl. Lavender VI No.31, Klp. Dua, Kec. Klp. Dua, Kabupaten Tangerang, Banten 15810","Klp. Dua, Kec. Klp. Dua, Kabupaten Tangerang",PAPUA BARAT,15810.0,Indonesia,,-6.24587,106.6151882,https://maps.google.com/?cid=0x0:0xcb71cdfcd7fd84a7
perumahan,perumahan,Kec. Tebet,"Kota Jakarta Selatan, Daerah Khusus Ibukota Jakarta","Kota Jakarta Selatan, Daerah Khusus Ibukota Jakarta",PAPUA BARAT,,Indonesia,,-6.2251223,106.8549881,https://maps.google.com/?cid=0x0:0xd575e31c807295f9
perumahan,perumahan,Roswar,"Waprak, Kec. Roswar, Kabupaten Teluk Wondama, Papua Bar.","Kabupaten Teluk Wondama, Papua Bar.",PAPUA BARAT,,Indonesia,,-2.010139,134.378759,https://maps.google.com/?cid=0x0:0x4e47415efb8c1520
perumahan,perumahan,Distrik Rumberpon,"Kabupaten Teluk Wondama, Papua Bar.","Kabupaten Teluk Wondama, Papua Bar.",PAPUA BARAT,,Indonesia,,-1.8449584,134.1491513,https://maps.google.com/?cid=0x0:0x3022979f8a7f5e3b
perumahan,Kompleks Apartemen,Yembekiri,"5559+X2R, Yembekiri I, Distrik Rumberpon, Kabupaten Teluk Wondama, Papua Bar. 98361","Yembekiri I, Distrik Rumberpon, Kabupaten Teluk Wondama",PAPUA BARAT,98361.0,Indonesia,,-1.8400203,134.1675312,https://maps.google.com/?cid=0x0:0xbff508c6deda7d72
perumahan,Komplek perumahan,ANGKILO,"543W+5X, Yembekiri II, Distrik Rumberpon, Kabupaten Teluk Wondama, Papua Bar.","Kabupaten Teluk Wondama, Papua Bar.",PAPUA BARAT,,Indonesia,,-1.8470662,134.1473921,https://maps.google.com/?cid=0x0:0x9ece5455e604cdad
perumahan,Tujuan Wisata,Pulau Rumberpon,"554J+PJJ, Pulau, Distrik Rumberpon, Kabupaten Teluk Wondama, Papua Bar. 98361","Pulau, Distrik Rumberpon, Kabupaten Teluk Wondama",PAPUA BARAT,98361.0,Indonesia,,-1.8431603,134.1815176,https://maps.google.com/?cid=0x0:0xb9a6a767126073ea
perumahan,Rumah wisata,Kampung yomakan,"3537+4CC, Yomakan, Distrik Rumberpon, Kabupaten Teluk Wondama, Papua Bar.","Kabupaten Teluk Wondama, Papua Bar.",PAPUA BARAT,,Indonesia,,-1.9471786,134.163509,https://maps.google.com/?cid=0x0:0x59d1ba4955c24068
perumahan,perumahan,Soug Jaya,"Kabupaten Teluk Wondama, Papua Bar.","Kabupaten Teluk Wondama, Papua Bar.",PAPUA BARAT,,Indonesia,,-1.8026511,134.1001732,https://maps.google.com/?cid=0x0:0x8fa303f645c60070
perumahan,Komplek perumahan,Kampung Seimeba,"72G5+GC, Seimeba, Distrik Tahota, Kab. Manokwari Selatan, Papua Bar.","Kab. Manokwari Selatan, Papua Bar.",PAPUA BARAT,,Indonesia,,-1.7236353,134.0085328,https://maps.google.com/?cid=0x0:0x815bf2063a7e42f1
perumahan,Komplek perumahan,ANGKILO,"543W+5X, Yembekiri II, Distrik Rumberpon, Kabupaten Teluk Wondama, Papua Bar.","Kabupaten Teluk Wondama, Papua Bar.",PAPUA BARAT,,Indonesia,,-1.8470662,134.1473921,https://maps.google.com/?cid=0x0:0x9ece5455e604cdad
perumahan,Kompleks Apartemen,Yembekiri,"5559+X2R, Yembekiri I, Distrik Rumberpon, Kabupaten Teluk Wondama, Papua Bar. 98361","Yembekiri I, Distrik Rumberpon, Kabupaten Teluk Wondama",PAPUA BARAT,98361.0,Indonesia,,-1.8400203,134.1675312,https://maps.google.com/?cid=0x0:0xbff508c6deda7d72
perumahan,Rumah wisata,Kampung yomakan,"3537+4CC, Yomakan, Distrik Rumberpon, Kabupaten Teluk Wondama, Papua Bar.","Kabupaten Teluk Wondama, Papua Bar.",PAPUA BARAT,,Indonesia,,-1.9471786,134.163509,https://maps.google.com/?cid=0x0:0x59d1ba4955c24068
perumahan,perumahan,Homestay Bapak Alan Yomakan,"3537+89, Yomakan, Kabupaten Teluk Wondama, Papua Bar.","Kabupaten Teluk Wondama, Papua Bar.",PAPUA BARAT,,Indonesia,,-1.946653,134.163424,https://maps.google.com/?cid=0x0:0x91a74b7210f707b9
perumahan,Komplek perumahan,Perumahan FAJAR SOWI DAMAI,"Sowi, Distrik Manokwari, Kabupaten Manokwari, Papua Bar. 98315","Distrik Manokwari, Kabupaten Manokwari",PAPUA BARAT,98315.0,Indonesia,81344004527.0,-0.8974311,134.0305967,https://maps.google.com/?cid=0x0:0x91ce0cb77fe5af79
perumahan,Otoritas Perumahan,Pandawa Residence - Gabus Bekasi,"Srijaya, Kec. Tambun Utara, Kabupaten Bekasi, Jawa Barat 17510","Kec. Tambun Utara, Kabupaten Bekasi",PAPUA BARAT,17510.0,Indonesia,81382679618.0,-6.1945061,107.0651959,https://maps.google.com/?cid=0x0:0x981d9c1be28210ae
perumahan,Perumahan,Perum Pandawa Residence,"Jl. Kp. Cikiwul No.2, RT.004/RW.003, Cikiwul, Kec. Bantar Gebang, Kota Bks, Jawa Barat 17152","RT.004/RW.003, Cikiwul, Kec. Bantar Gebang, Kota Bks",PAPUA BARAT,17152.0,Indonesia,,-6.3327235,106.9980249,https://maps.google.com/?cid=0x0:0xd2eb5151a9f9248a
perumahan,,Nceksains-Shop,"Pandawa Residence Blok A-16, Srijaya, Kec. Tambun Sel.","Kabupaten Bekasi, Jawa Barat",PAPUA BARAT,,Indonesia,8988193404.0,-6.1945312,107.0652188,https://maps.google.com/?cid=0x0:0x6aa52f6726988809
perumahan,perumahan,Duairi,"Kabupaten Teluk Wondama, Papua Bar.","Kabupaten Teluk Wondama, Papua Bar.",PAPUA BARAT,,Indonesia,,-2.5401452,134.5313569,https://maps.google.com/?cid=0x0:0x857fd4c80338c7d6
perumahan,Perhimpunan Pengembang Perumahan,Lorong Aise,"GG6R+88Q, Aisandami, Duairi, Kabupaten Teluk Wondama, Papua Bar.","Kabupaten Teluk Wondama, Papua Bar.",PAPUA BARAT,,Indonesia,,-2.4891538,134.5408638,https://maps.google.com/?cid=0x0:0xf4198b3da7a7b64a
perumahan,Sekolah,Jlr 4 Kompleks Warayaru,"CF78+679, Sobei, Duairi, Kabupaten Teluk Wondama, Papua Bar. 98362","Sobei, Duairi, Kabupaten Teluk Wondama",PAPUA BARAT,98362.0,Indonesia,,-2.5856602,134.4655927,https://maps.google.com/?cid=0x0:0x3669afdff187444d
perumahan,Komplek perumahan,Distrik Roon,"FF2G+C6Q, Sobei Indah, Duairi, Kabupaten Teluk Wondama, Papua Bar. 98362","Sobei Indah, Duairi, Kabupaten Teluk Wondama",PAPUA BARAT,98362.0,Indonesia,,-2.548923,134.4756027,https://maps.google.com/?cid=0x0:0xcd8ec8552b2cf3fa
perumahan,Komplek perumahan,Sobei,"CFWF+FRJ, Sobei, Duairi, Kabupaten Teluk Wondama, Papua Bar.","Kabupaten Teluk Wondama, Papua Bar.",PAPUA BARAT,,Indonesia,,-2.553779,134.474503,https://maps.google.com/?cid=0x0:0xeb7043b5fa65fce4
perumahan,Kantor Pemerintah,Kampung Yopanggar,"GH9M+72J, Yopenggar, Duairi, Kabupaten Teluk Wondama, Papua Bar.","Kabupaten Teluk Wondama, Papua Bar.",PAPUA BARAT,,Indonesia,,-2.4812997,134.582773,https://maps.google.com/?cid=0x0:0xc394b6764ea1c82c
perumahan,Komplek perumahan,Gama tower,"CFP7+CCC, Sobei, Duairi, Kabupaten Teluk Wondama, Papua Bar.","Kabupaten Teluk Wondama, Papua Bar.",PAPUA BARAT,,Indonesia,,-2.5650458,134.4640373,https://maps.google.com/?cid=0x0:0x769505dbe8df4d03
perumahan,Pondok,Homestay Buionbesayor,"GG7Q+42F, Aisandami, Duairi, Kabupaten Teluk Wondama, Papua Bar.","Kabupaten Teluk Wondama, Papua Bar.",PAPUA BARAT,,Indonesia,823992465581.0,-2.4871981,134.5375395,https://maps.google.com/?cid=0x0:0x142a23652280fe07
perumahan,Komplek perumahan,Kampung Sariay,"HHH3+F5R, Sariay, Distrik Roon, Kabupaten Teluk Wondama, Papua Bar.","Kabupaten Teluk Wondama, Papua Bar.",PAPUA BARAT,,Indonesia,,-2.4212615,134.5529032,https://maps.google.com/?cid=0x0:0x922007c12a04419e
perumahan,Tujuan Wisata,Taman Nasional Teluk Cenderawasih,"FF2H+P92, Sobei Indah, Duairi, Kabupaten Teluk Wondama, Papua Bar. 98362","Sobei Indah, Duairi, Kabupaten Teluk Wondama",PAPUA BARAT,98362.0,Indonesia,,-2.548225,134.4783821,https://maps.google.com/?cid=0x0:0x758ba1aa8c8a474a
perumahan,Pembangunan Perumahan,Rumah wasior,"7G45+GG, Maniwak, Kabupaten Teluk Wondama, Papua Bar.","Kabupaten Teluk Wondama, Papua Bar.",PAPUA BARAT,,Indonesia,,-2.7437109,134.5087779,https://maps.google.com/?cid=0x0:0x4343c56f91b36019
perumahan,Pembangunan Perumahan,Rmh Maimari,"8FJX+X9, Maimare, Kabupaten Teluk Wondama, Papua Bar.","Kabupaten Teluk Wondama, Papua Bar.",PAPUA BARAT,,Indonesia,,-2.6674895,134.4987397,https://maps.google.com/?cid=0x0:0x19af3a18fd01ce1c
perumahan,perumahan,Wamesa,"Kabupaten Teluk Bintuni, Papua Bar.","Kabupaten Teluk Bintuni, Papua Bar.",PAPUA BARAT,,Indonesia,,-2.1434612,133.981812,https://maps.google.com/?cid=0x0:0x255b33cb1fd7a021
perumahan,Komplek perumahan,RUMAH KOMANDO,"WPXC+5RV, Bumi Saniari, Distrik Manimeri, Kabupaten Teluk Bintuni, Papua Bar. 98364","Bumi Saniari, Distrik Manimeri, Kabupaten Teluk Bintuni",PAPUA BARAT,98364.0,Indonesia,,-2.052015,133.7220494,https://maps.google.com/?cid=0x0:0xa78276d52a364d5c
perumahan,perumahan,Kompleks Akom demes waraitama,"WM9Q+853, Waraitama, Distrik Manimeri, Kabupaten Teluk Bintuni, Papua Bar. 98364","Waraitama, Distrik Manimeri, Kabupaten Teluk Bintuni",PAPUA BARAT,98364.0,Indonesia,,-2.0817259,133.6879307,https://maps.google.com/?cid=0x0:0x7f6ddc9935bf8c91
perumahan,,Rumah Evan,"WM8J+XG, Waraitama, Distrik Manimeri, Kabupaten Teluk Bintuni, Papua Bar.","Kabupaten Teluk Bintuni, Papua Bar.",PAPUA BARAT,,Indonesia,,-2.08258,133.681327,https://maps.google.com/?cid=0x0:0x8810a7b394006d5b
perumahan,Komplek perumahan,Kompleks Manado,"WJ2X+2FV, Tuasai, Distrik Bintuni, Kabupaten Teluk Bintuni, Papua Bar. 98364","Tuasai, Distrik Bintuni, Kabupaten Teluk Bintuni",PAPUA BARAT,98364.0,Indonesia,,-2.0998868,133.6486759,https://maps.google.com/?cid=0x0:0xc250420825d52a06
perumahan,perumahan,Pak Kaswan,"XP2G+2CG SP 3 Jlr 5 Timur, Bumi Saniari, Distrik Manimeri, Kabupaten Teluk Bintuni, Papua Bar. 98364","Bumi Saniari, Distrik Manimeri, Kabupaten Teluk Bintuni",PAPUA BARAT,98364.0,Indonesia,,-2.0499313,133.7260674,https://maps.google.com/?cid=0x0:0x66a6dd967975d88f
perumahan,perumahan,Perumahan Kampung Korano Jaya,"WPGG+W74 Sp 2, jalur 4, Korano Jaya, Distrik Manimeri, Kabupaten Teluk Bintuni, Papua Bar. 98364","jalur 4, Korano Jaya, Distrik Manimeri, Kabupaten Teluk Bintuni",PAPUA BARAT,98364.0,Indonesia,,-2.0727485,133.725713,https://maps.google.com/?cid=0x0:0x62f113a09a1066d
perumahan,Komplek perumahan,Yarapate,"R4R9+68, Yarpate, Wamesa, Kabupaten Teluk Wondama, Papua Bar.","Kabupaten Teluk Wondama, Papua Bar.",PAPUA BARAT,,Indonesia,,-2.1594547,134.1182972,https://maps.google.com/?cid=0x0:0xab0c1bd6d12f1b56
perumahan,perumahan,Kanisius Ndityomas,"XP3J+X49, Bumi Saniari, Distrik Manimeri, Kabupaten Teluk Bintuni, Papua Bar. 98364","Bumi Saniari, Distrik Manimeri, Kabupaten Teluk Bintuni",PAPUA BARAT,98364.0,Indonesia,,-2.0450916,133.7303549,https://maps.google.com/?cid=0x0:0x3b24e0babe31d24b
perumahan,Komplek perumahan,Rumah Ferry D,"WM48+P8G, Dekat, Banjar Ausoy (Sp IV), Distrik Manimeri, Kabupaten Teluk Bintuni, Papua Bar. 98364","Dekat, Banjar Ausoy (Sp IV), Distrik Manimeri, Kabupaten Teluk Bintuni",PAPUA BARAT,98364.0,Indonesia,,-2.0931808,133.6658293,https://maps.google.com/?cid=0x0:0x22f8fef595eaca04
perumahan,Pembangunan Perumahan,Bintuni timur kampung Banjar ausoi,"VHHC+643, Bintuni Tim., sp5, ARGOSIGEMERAI, Papua Bar. 98364","Bintuni Tim., sp5, ARGOSIGEMERAI",PAPUA BARAT,98364.0,Indonesia,82198586126.0,-2.1219969,133.5703058,https://maps.google.com/?cid=0x0:0x13b6157d520e50e1
perumahan,perumahan,Home,"VJW6+966, Sp V. Manimery/ Argo Sigemeray, Distrik Bintuni, Kabupaten Teluk Bintuni, Papua Bar. 98364","Sp V. Manimery/ Argo Sigemeray, Distrik Bintuni, Kabupaten Teluk Bintuni",PAPUA BARAT,98364.0,Indonesia,,-2.1044499,133.6103193,https://maps.google.com/?cid=0x0:0xe87480310cc74182
perumahan,Pembangunan Perumahan,Oktavia home,"VJW4+Q8, Sp V. Manimery/ Argo Sigemeray, Distrik Bintuni, Kabupaten Teluk Bintuni, Papua Bar.","Kabupaten Teluk Bintuni, Papua Bar.",PAPUA BARAT,,Indonesia,82267066028.0,-2.1030245,133.6058919,https://maps.google.com/?cid=0x0:0x16a8c2e38bbeeda2
perumahan,Komplek perumahan,KOMPLEX ANAK KOS,"Bintuni Tim., Distrik Bintuni, Kabupaten Teluk Bintuni, Papua Bar. 98364","Distrik Bintuni, Kabupaten Teluk Bintuni",PAPUA BARAT,98364.0,Indonesia,,-2.1203593,133.536599,https://maps.google.com/?cid=0x0:0x514516f7e389a490
perumahan,perumahan,Wamesa,"Kabupaten Teluk Wondama, Papua Bar.","Kabupaten Teluk Wondama, Papua Bar.",PAPUA BARAT,,Indonesia,,-2.1544139,134.0770134,https://maps.google.com/?cid=0x0:0x66173cbf11eb7129
perumahan,Perhimpunan Pengembang Perumahan,"Kampung karuan, wondama","Q47J+GG, Karuan, Wamesa, Kabupaten Teluk Wondama, Papua Bar.","Kabupaten Teluk Wondama, Papua Bar.",PAPUA BARAT,,Indonesia,,-2.2362204,134.1313264,https://maps.google.com/?cid=0x0:0x587f409de7c9d749
perumahan,Komplek perumahan,Yarapate,"R4R9+68, Yarpate, Wamesa, Kabupaten Teluk Wondama, Papua Bar.","Kabupaten Teluk Wondama, Papua Bar.",PAPUA BARAT,,Indonesia,,-2.1594547,134.1182972,https://maps.google.com/?cid=0x0:0xab0c1bd6d12f1b56
perumahan,Komplek perumahan,Kampung Mamisi (Distrik Nikwar),"M5X5+W2C, Mamisi, Distrik Nikiwar, Kabupaten Teluk Wondama, Papua Bar.","Kabupaten Teluk Wondama, Papua Bar.",PAPUA BARAT,,Indonesia,,-2.3001993,134.1575071,https://maps.google.com/?cid=0x0:0x24590dd735cb8ba9
perumahan,perumahan,Distrik Wasior,"Kabupaten Teluk Wondama, Papua Bar.","Kabupaten Teluk Wondama, Papua Bar.",PAPUA BARAT,,Indonesia,,-2.726099,134.506737,https://maps.google.com/?cid=0x0:0x54655a71cd072b6e
perumahan,Komplek perumahan,Kompleks perumahan pertanian iriati wasior,"6GH9+R8, Iriati, Distrik Wasior, Kabupaten Teluk Wondama, Papua Bar. 98362","Iriati, Distrik Wasior, Kabupaten Teluk Wondama",PAPUA BARAT,98362.0,Indonesia,,-2.7703833,134.5182983,https://maps.google.com/?cid=0x0:0xb2cc19eb93c1e362
perumahan,Perhimpunan Pengembang Perumahan,Lorong pasar,"7GG4+6C8, Wasior II, Distrik Wasior, Kabupaten Teluk Wondama, Papua Bar.","Kabupaten Teluk Wondama, Papua Bar.",PAPUA BARAT,,Indonesia,,-2.7244679,134.5060866,https://maps.google.com/?cid=0x0:0xb9c4768d512bee45
perumahan,Komplek perumahan,Lekitoo's house,"7G47+462, Unnamed Road, Maniwak, Wasior, Teluk Wondama Regency, West Papua 98362","Unnamed Road, Maniwak, Wasior, Teluk Wondama Regency",PAPUA BARAT,98362.0,Indonesia,,-2.7447265,134.5130006,https://maps.google.com/?cid=0x0:0x7c2f570eb7a680c6
perumahan,Pembangunan Perumahan,Rumah wasior,"7G45+GG, Maniwak, Kabupaten Teluk Wondama, Papua Bar.","Kabupaten Teluk Wondama, Papua Bar.",PAPUA BARAT,,Indonesia,,-2.7437109,134.5087779,https://maps.google.com/?cid=0x0:0x4343c56f91b36019
perumahan,Komplek perumahan,Jalur Empat,"6GQ7+QCM, Iriati, Distrik Wasior, Kabupaten Teluk Wondama, Papua Bar. 98362","Iriati, Distrik Wasior, Kabupaten Teluk Wondama",PAPUA BARAT,98362.0,Indonesia,,-2.7605355,134.5135595,https://maps.google.com/?cid=0x0:0x6f70817bd896c44c
perumahan,Komplek perumahan,rumah yunadi wirawan,"6G9F+X76, Manopi, Distrik Wasior, Kabupaten Teluk Wondama, Papua Bar. 98362","Manopi, Distrik Wasior, Kabupaten Teluk Wondama",PAPUA BARAT,98362.0,Indonesia,,-2.780272,134.523614,https://maps.google.com/?cid=0x0:0x26e7ce8681bbde76
perumahan,Komplek perumahan,Rumah,"6GQ9+736, Huntap 3 lorong 4, Iriati, Wasior, Teluk Wondama Regency, West Papua 98362","Huntap 3 lorong 4, Iriati, Wasior, Teluk Wondama Regency",PAPUA BARAT,98362.0,Indonesia,,-2.7618448,134.5176516,https://maps.google.com/?cid=0x0:0x94db817dba53305c
perumahan,Komplek perumahan,Rumah Bernadus Setiawan,"6GQ6+XX, Iriati, Distrik Wasior, Kabupaten Teluk Wondama, Papua Bar.","Kabupaten Teluk Wondama, Papua Bar.",PAPUA BARAT,,Indonesia,,-2.7601654,134.5125658,https://maps.google.com/?cid=0x0:0x6d9d0823c3a01aa9
perumahan,Perhimpunan Pengembang Perumahan,Lorong Masjid,"7GF5+66R, Wasior I, Distrik Wasior, Kabupaten Teluk Wondama, Papua Bar.","Kabupaten Teluk Wondama, Papua Bar.",PAPUA BARAT,,Indonesia,,-2.7268838,134.5080198,https://maps.google.com/?cid=0x0:0x76ea4b815a7c3206
perumahan,Pembangunan Perumahan,Perumahan Pemda I,"7GG6+746, Wasior I, Distrik Wasior, Kabupaten Teluk Wondama, Papua Bar. 98362","Wasior I, Distrik Wasior, Kabupaten Teluk Wondama",PAPUA BARAT,98362.0,Indonesia,,-2.7243453,134.5102783,https://maps.google.com/?cid=0x0:0x13ac7031260b693f
perumahan,Komplek perumahan,Rumah Manopi,"6HMM+H72, Jl, Manopi, Wasior, Teluk Wondama Regency, West Papua 98362","Jl, Manopi, Wasior, Teluk Wondama Regency",PAPUA BARAT,98362.0,Indonesia,,-2.7661185,134.5831393,https://maps.google.com/?cid=0x0:0xfa12e7705f9591bc
perumahan,Komplek perumahan,Wasior,"5HWG+4CW, Wondiboi, Distrik Wondiboy, Kabupaten Teluk Wondama, Papua Bar.","Kabupaten Teluk Wondama, Papua Bar.",PAPUA BARAT,,Indonesia,,-2.8046444,134.5760814,https://maps.google.com/?cid=0x0:0xffc793f77cb0ce2d
perumahan,Komplek perumahan,Perumahan Dinas Kesehatan,"6GQ6+PGC, Iriati, Distrik Wasior, Kabupaten Teluk Wondama, Papua Bar. 98362","Iriati, Distrik Wasior, Kabupaten Teluk Wondama",PAPUA BARAT,98362.0,Indonesia,,-2.7606799,134.5112794,https://maps.google.com/?cid=0x0:0xfc6bb3a188a91355
perumahan,perumahan,Kec. Windesi,"Kabupaten Teluk Wondama, Papua Bar.","Kabupaten Teluk Wondama, Papua Bar.",PAPUA BARAT,,Indonesia,,-2.601077,134.1340439,https://maps.google.com/?cid=0x0:0x9b9a2ca4d233e89d
perumahan,Komplek perumahan,Kampung Jenggerai,"F8H8+G49, Sandey, Kec. Windesi, Kabupaten Teluk Wondama, Papua Bar.","Kabupaten Teluk Wondama, Papua Bar.",PAPUA BARAT,,Indonesia,,-2.5212171,134.3153705,https://maps.google.com/?cid=0x0:0x8ab81fdd6fcfd420
perumahan,Perhimpunan Pengembang Perumahan,Lorong Aise,"GG6R+88Q, Aisandami, Duairi, Kabupaten Teluk Wondama, Papua Bar.","Kabupaten Teluk Wondama, Papua Bar.",PAPUA BARAT,,Indonesia,,-2.4891538,134.5408638,https://maps.google.com/?cid=0x0:0xf4198b3da7a7b64a
perumahan,perumahan,Kec. Windesi,"Kabupaten Teluk Wondama, Papua Bar.","Kabupaten Teluk Wondama, Papua Bar.",PAPUA BARAT,,Indonesia,,-2.601077,134.1340439,https://maps.google.com/?cid=0x0:0x9b9a2ca4d233e89d
perumahan,Komplek perumahan,Kampung Jenggerai,"F8H8+G49, Sandey, Kec. Windesi, Kabupaten Teluk Wondama, Papua Bar.","Kabupaten Teluk Wondama, Papua Bar.",PAPUA BARAT,,Indonesia,,-2.5212171,134.3153705,https://maps.google.com/?cid=0x0:0x8ab81fdd6fcfd420
perumahan,Perhimpunan Pengembang Perumahan,Lorong Aise,"GG6R+88Q, Aisandami, Duairi, Kabupaten Teluk Wondama, Papua Bar.","Kabupaten Teluk Wondama, Papua Bar.",PAPUA BARAT,,Indonesia,,-2.4891538,134.5408638,https://maps.google.com/?cid=0x0:0xf4198b3da7a7b64a
perumahan,Pusat Kesehatan Masyarakat,Puskesmas Windesi,"H69F+8XM, kab desa, Wamesa Tengah, Kec. Windesi, Kabupaten Teluk Wondama, Papua Bar. 98361","kab desa, Wamesa Tengah, Kec. Windesi, Kabupaten Teluk Wondama",PAPUA BARAT,98361.0,Indonesia,,-2.4316511,134.2249214,https://maps.google.com/?cid=0x0:0x84b7353d3ba68864
perumahan,Perhimpunan Pengembang Perumahan,Kampung Isosembani,"G5X2+56Q, Isosembani, Distrik Nikiwar, Kabupaten Teluk Wondama, Papua Bar. 98361","Isosembani, Distrik Nikiwar, Kabupaten Teluk Wondama",PAPUA BARAT,98361.0,Indonesia,,-2.4520364,134.1505977,https://maps.google.com/?cid=0x0:0xe3bd5807a2250f95
perumahan,Komplek perumahan,Rumah afla,"86F9+52, Sobiar, Kuri Wamesa, Kabupaten Teluk Wondama, Papua Bar.","Kabupaten Teluk Wondama, Papua Bar.",PAPUA BARAT,,Indonesia,,-2.6771185,134.2175252,https://maps.google.com/?cid=0x0:0xb0e1fb4d0d846a4c
perumahan,Perhimpunan Pengembang Perumahan,"WERABUR, NIKIWAR","H4VC+F2X, Werabur, Distrik Nikiwar, Kabupaten Teluk Wondama, Papua Bar.","Kabupaten Teluk Wondama, Papua Bar.",PAPUA BARAT,,Indonesia,,-2.4062659,134.1201221,https://maps.google.com/?cid=0x0:0x5980a4c0746d6674
perumahan,perumahan,Papua Bar. 98361,"Kabupaten Teluk Wondama, Papua Bar.","Kabupaten Teluk Wondama, Papua Bar.",PAPUA BARAT,,Indonesia,,-2.4815085,134.2099791,https://maps.google.com/?cid=0x0:0xe298b41c3e32d0eb
perumahan,Komplek perumahan,Kampung Jenggerai,"F8H8+G49, Sandey, Kec. Windesi, Kabupaten Teluk Wondama, Papua Bar.","Kabupaten Teluk Wondama, Papua Bar.",PAPUA BARAT,,Indonesia,,-2.5212171,134.3153705,https://maps.google.com/?cid=0x0:0x8ab81fdd6fcfd420
perumahan,Perhimpunan Pengembang Perumahan,Wb Family,"M5Q5+587, Mamisi, Distrik Nikiwar, Kabupaten Teluk Wondama, Papua Bar. 98361","Mamisi, Distrik Nikiwar, Kabupaten Teluk Wondama",PAPUA BARAT,98361.0,Indonesia,,-2.3120951,134.1583002,https://maps.google.com/?cid=0x0:0xd34c8beb9887fdb4
perumahan,Pusat Kesehatan Masyarakat,Puskesmas Windesi,"H69F+8XM, kab desa, Wamesa Tengah, Kec. Windesi, Kabupaten Teluk Wondama, Papua Bar. 98361","kab desa, Wamesa Tengah, Kec. Windesi, Kabupaten Teluk Wondama",PAPUA BARAT,98361.0,Indonesia,,-2.4316511,134.2249214,https://maps.google.com/?cid=0x0:0x84b7353d3ba68864
perumahan,Perhimpunan Pengembang Perumahan,Kampung Isosembani,"G5X2+56Q, Isosembani, Distrik Nikiwar, Kabupaten Teluk Wondama, Papua Bar. 98361","Isosembani, Distrik Nikiwar, Kabupaten Teluk Wondama",PAPUA BARAT,98361.0,Indonesia,,-2.4520364,134.1505977,https://maps.google.com/?cid=0x0:0xe3bd5807a2250f95
perumahan,Perhimpunan Pengembang Perumahan,Lorong Aise,"GG6R+88Q, Aisandami, Duairi, Kabupaten Teluk Wondama, Papua Bar.","Kabupaten Teluk Wondama, Papua Bar.",PAPUA BARAT,,Indonesia,,-2.4891538,134.5408638,https://maps.google.com/?cid=0x0:0xf4198b3da7a7b64a
perumahan,Kompleks Apartemen,Yembekiri,"5559+X2R, Yembekiri I, Distrik Rumberpon, Kabupaten Teluk Wondama, Papua Bar. 98361","Yembekiri I, Distrik Rumberpon, Kabupaten Teluk Wondama",PAPUA BARAT,98361.0,Indonesia,,-1.8400203,134.1675312,https://maps.google.com/?cid=0x0:0xbff508c6deda7d72
perumahan,Komplek perumahan,Yarapate,"R4R9+68, Yarpate, Wamesa, Kabupaten Teluk Wondama, Papua Bar.","Kabupaten Teluk Wondama, Papua Bar.",PAPUA BARAT,,Indonesia,,-2.1594547,134.1182972,https://maps.google.com/?cid=0x0:0xab0c1bd6d12f1b56
perumahan,Komplek perumahan,ANGKILO,"543W+5X, Yembekiri II, Distrik Rumberpon, Kabupaten Teluk Wondama, Papua Bar.","Kabupaten Teluk Wondama, Papua Bar.",PAPUA BARAT,,Indonesia,,-1.8470662,134.1473921,https://maps.google.com/?cid=0x0:0x9ece5455e604cdad
perumahan,Perhimpunan Pengembang Perumahan,"Kampung karuan, wondama","Q47J+GG, Karuan, Wamesa, Kabupaten Teluk Wondama, Papua Bar.","Kabupaten Teluk Wondama, Papua Bar.",PAPUA BARAT,,Indonesia,,-2.2362204,134.1313264,https://maps.google.com/?cid=0x0:0x587f409de7c9d749
perumahan,Perhimpunan Pengembang Perumahan,"WERABUR, NIKIWAR","H4VC+F2X, Werabur, Distrik Nikiwar, Kabupaten Teluk Wondama, Papua Bar.","Kabupaten Teluk Wondama, Papua Bar.",PAPUA BARAT,,Indonesia,,-2.4062659,134.1201221,https://maps.google.com/?cid=0x0:0x5980a4c0746d6674
perumahan,Otoritas Pelabuhan,Pelabuhan Nordiwar,"V85Q+9WM, Nordiwar, Kabupaten Teluk Wondama",Kabupaten Teluk Wondama,PAPUA BARAT,,Indonesia,,-2.1415344,134.3398088,https://maps.google.com/?cid=0x0:0x90a6688765437406
perumahan,perumahan,Wondiboi,"Distrik Wondiboy, Kabupaten Teluk Wondama, Papua Bar.","Kabupaten Teluk Wondama, Papua Bar.",PAPUA BARAT,,Indonesia,,-2.8046444,134.5760814,https://maps.google.com/?cid=0x0:0xe68e45ccb2c17a3e
perumahan,Kantor Pemerintah,Perumahan DPRD Kabupaten Teluk Wondama,"5GVJ+2JG, Wondiboi, Distrik Wondiboy, Kabupaten Teluk Wondama, Papua Bar. 98362","Wondiboi, Distrik Wondiboy, Kabupaten Teluk Wondama",PAPUA BARAT,98362.0,Indonesia,,-2.807447,134.5315867,https://maps.google.com/?cid=0x0:0xf5421e8946180f5e
perumahan,Komplek perumahan,Wasior,"5HWG+4CW, Wondiboi, Distrik Wondiboy, Kabupaten Teluk Wondama, Papua Bar.","Kabupaten Teluk Wondama, Papua Bar.",PAPUA BARAT,,Indonesia,,-2.8046444,134.5760814,https://maps.google.com/?cid=0x0:0xffc793f77cb0ce2d
perumahan,Komplek perumahan,RiioAnakdesa,"5GVH+CM, Wondiboi, Distrik Wondiboy, Kabupaten Teluk Wondama, Papua Bar. 98362","Wondiboi, Distrik Wondiboy, Kabupaten Teluk Wondama",PAPUA BARAT,98362.0,Indonesia,,-2.806405,134.529164,https://maps.google.com/?cid=0x0:0xf1dedaa844b2b362
perumahan,Pembangunan Perumahan,Isei wasior teluk wondama,"5HHH+H9V, Isei, Distrik Rasiei, Kabupaten Teluk Wondama, Papua Bar. 98362","Isei, Distrik Rasiei, Kabupaten Teluk Wondama",PAPUA BARAT,98362.0,Indonesia,,-2.8210085,134.5784245,https://maps.google.com/?cid=0x0:0x1d7e6b77e439bfca
perumahan,Komplek perumahan,Elton Huis,"5GRH+R4, Wondiboi, Distrik Wondiboy, Kabupaten Teluk Wondama, Papua Bar. 98362","Wondiboi, Distrik Wondiboy, Kabupaten Teluk Wondama",PAPUA BARAT,98362.0,Indonesia,,-2.8079375,134.5278125,https://maps.google.com/?cid=0x0:0x162c07e1ce35015a
perumahan,Komplek perumahan,Chio,"5GRH+MM5, Unnamed Road, Wondiboi, Distrik Wondiboy, Kabupaten Teluk Wondama, Papua Bar. 98362","Unnamed Road, Wondiboi, Distrik Wondiboy, Kabupaten Teluk Wondama",PAPUA BARAT,98362.0,Indonesia,,-2.808359,134.529244,https://maps.google.com/?cid=0x0:0x9b26e49afe34cd7e
perumahan,Komplek perumahan,Y. Rumbobiar,"5GVJ+39J, Wondiboi, Distrik Wondiboy, Kabupaten Teluk Wondama, Papua Bar. 98362","Wondiboi, Distrik Wondiboy, Kabupaten Teluk Wondama",PAPUA BARAT,98362.0,Indonesia,,-2.8072998,134.5308994,https://maps.google.com/?cid=0x0:0x863e34da05d746ce
perumahan,Komplek perumahan,RK_Home,"5GRH+XMV, Huntap, Wondiboi, Distrik Wondiboy, Kabupaten Teluk Wondama, Papua Bar.","Kabupaten Teluk Wondama, Papua Bar.",PAPUA BARAT,,Indonesia,,-2.807624,134.528982,https://maps.google.com/?cid=0x0:0xb16158bf4d07cab5
perumahan,Komplek perumahan,Nall home,"5GRH+XMV, Huntap, Wondiboi, Distrik Wondiboy, Kabupaten Teluk Wondama, Papua Bar.","Kabupaten Teluk Wondama, Papua Bar.",PAPUA BARAT,,Indonesia,,-2.8077984,134.5288331,https://maps.google.com/?cid=0x0:0xb89eaa357dab3234
perumahan,Komplek perumahan,Adriell Boba,"Kompleks Perumahan Kuning, Jalan Raya, Rasiei, Distrik Wondiboy, Kabupaten Teluk Wondama, Papua Bar.","Kabupaten Teluk Wondama, Papua Bar.",PAPUA BARAT,,Indonesia,81248682444.0,-2.8075309,134.5295228,https://maps.google.com/?cid=0x0:0x19b04dd396c1d211
perumahan,Perhimpunan Pengembang Perumahan,Rumah isey,"5GJP+Q4V, Isei, Distrik Rasiei, Kabupaten Teluk Wondama, Papua Bar. 98362","Isei, Distrik Rasiei, Kabupaten Teluk Wondama",PAPUA BARAT,98362.0,Indonesia,,-2.8180073,134.5353116,https://maps.google.com/?cid=0x0:0xd034a07a568637d0
perumahan,Komplek perumahan,Perumahan Kampung Isei,"5GHP+Q96, Isei, Distrik Rasiei, Kabupaten Teluk Wondama, Papua Bar.","Kabupaten Teluk Wondama, Papua Bar.",PAPUA BARAT,,Indonesia,,-2.8205919,134.5359007,https://maps.google.com/?cid=0x0:0xf0ceb622fb66fbc6
perumahan,Komplek perumahan,Home Cici and Juis,"5GRH+4P2, Wondiboi, Distrik Wondiboy, Kabupaten Teluk Wondama, Papua Bar.","Kabupaten Teluk Wondama, Papua Bar.",PAPUA BARAT,,Indonesia,,-2.8097413,134.5292528,https://maps.google.com/?cid=0x0:0x20d021b4f8798169
housing complex,housing complex,Kuri Wamesa,"Kabupaten Teluk Wondama, Papua Bar.","Kabupaten Teluk Wondama, Papua Bar.",PAPUA BARAT,,Indonesia,,-2.8551699,134.3236557,https://maps.google.com/?cid=0x0:0x8c3430e4162f73b3
housing complex,Komplek perumahan,Nanimori teluk Wondama,"48VF+WFJ, Ambumi, Kuri Wamesa, Kabupaten Teluk Wondama, Papua Bar.","Kabupaten Teluk Wondama, Papua Bar.",PAPUA BARAT,,Indonesia,,-2.8551699,134.3236557,https://maps.google.com/?cid=0x0:0x1d89c481933e7a25
housing complex,Komplek perumahan,Teluk wondama,"48VF+WFJ, Radu, Kuri Wamesa, Kabupaten Teluk Wondama, Papua Bar.","Kabupaten Teluk Wondama, Papua Bar.",PAPUA BARAT,,Indonesia,,-2.8551699,134.3236557,https://maps.google.com/?cid=0x0:0xdaa67b435cbdf199
housing complex,Pondok,WAMESA KOST,"Jl. Allogio Timur 1 Jalan Boulevard Raya Gading Serpong No.18-20, Medang, Kec. Pagedangan, Kabupaten Tangerang, Banten 15334","Medang, Kec. Pagedangan, Kabupaten Tangerang",PAPUA BARAT,15334.0,Indonesia,,-6.2664043,106.6051875,https://maps.google.com/?cid=0x0:0xf9df382a011ebc7
housing complex,Rumah wisata,Kost VIOLET Allogio - Gading Serpong,"Gading, Serpong, 1, Jl. Alloggio Barat 7 No.30, Medang, Pagedangan, Tangerang Regency, Banten 15334","Serpong, 1, Jl. Alloggio Barat 7 No.30, Medang, Pagedangan, Tangerang Regency",PAPUA BARAT,15334.0,Indonesia,81311662688.0,-6.2654835,106.6043262,https://maps.google.com/?cid=0x0:0xd34fc3e31a7b65f8
housing complex,housing complex,Papua Bar. 98362,"Kabupaten Teluk Wondama, Papua Bar.","Kabupaten Teluk Wondama, Papua Bar.",PAPUA BARAT,,Indonesia,,-2.9647961,134.4748018,https://maps.google.com/?cid=0x0:0xbea57e7dbf1a786f
housing complex,housing complex,Kel Aliudin S,"6GQ6+5W, Iriati, Distrik Wasior, Kabupaten Teluk Wondama, Papua Bar.","Kabupaten Teluk Wondama, Papua Bar.",PAPUA BARAT,,Indonesia,,-2.763074,134.51203,https://maps.google.com/?cid=0x0:0xaadbb7fbcc8d5e72
housing complex,Komplek perumahan,Lekitoo's house,"7G47+462, Unnamed Road, Maniwak, Wasior, Teluk Wondama Regency, West Papua 98362","Unnamed Road, Maniwak, Wasior, Teluk Wondama Regency",PAPUA BARAT,98362.0,Indonesia,,-2.7447265,134.5130006,https://maps.google.com/?cid=0x0:0x7c2f570eb7a680c6
housing complex,Perhimpunan Pengembang Perumahan,Kompleks Angkur,"7GG3+RPP, Wasior II, Distrik Wasior, Kabupaten Teluk Wondama, Papua Bar. 98362","Wasior II, Distrik Wasior, Kabupaten Teluk Wondama",PAPUA BARAT,98362.0,Indonesia,,-2.7229027,134.5043297,https://maps.google.com/?cid=0x0:0x7c18e3cbf7a9e890
housing complex,Komplek perumahan,Jalur Empat,"6GQ7+QCM, Iriati, Distrik Wasior, Kabupaten Teluk Wondama, Papua Bar. 98362","Iriati, Distrik Wasior, Kabupaten Teluk Wondama",PAPUA BARAT,98362.0,Indonesia,,-2.7605355,134.5135595,https://maps.google.com/?cid=0x0:0x6f70817bd896c44c
housing complex,Komplek perumahan,Ripexx home,"6GQ8+PJJ, Iriati, Distrik Wasior, Kabupaten Teluk Wondama, Papua Bar. 98362","Iriati, Distrik Wasior, Kabupaten Teluk Wondama",PAPUA BARAT,98362.0,Indonesia,,-2.7606677,134.5165144,https://maps.google.com/?cid=0x0:0xfdba924b6badb470
housing complex,Komplek perumahan,Manggurai,"Manggurai, Distrik Wasior, Kabupaten Teluk Wondama, Papua Bar. 98362","Distrik Wasior, Kabupaten Teluk Wondama",PAPUA BARAT,98362.0,Indonesia,,-2.726099,134.506737,https://maps.google.com/?cid=0x0:0x5ed2e78c8a0fff5f
housing complex,Perhimpunan Pengembang Perumahan,Lorong Masjid,"7GF5+66R, Wasior I, Distrik Wasior, Kabupaten Teluk Wondama, Papua Bar.","Kabupaten Teluk Wondama, Papua Bar.",PAPUA BARAT,,Indonesia,,-2.7268838,134.5080198,https://maps.google.com/?cid=0x0:0x76ea4b815a7c3206
housing complex,Komplek perumahan,Bezaleel Home,"6GH9+QGJ Perumahan Dinas Pertanian, Iriati, Distrik Wasior, Kabupaten Teluk Wondama, Papua Bar. 98362","Iriati, Distrik Wasior, Kabupaten Teluk Wondama",PAPUA BARAT,98362.0,Indonesia,,-2.7705478,134.5187534,https://maps.google.com/?cid=0x0:0x468c687b8c15d1e5
housing complex,Komplek perumahan,Mess RS Wondama,"6GR6+M4V, Maniwak, Distrik Wasior, Kabupaten Teluk Wondama, Papua Bar. 98362","Maniwak, Distrik Wasior, Kabupaten Teluk Wondama",PAPUA BARAT,98362.0,Indonesia,,-2.7582575,134.5102819,https://maps.google.com/?cid=0x0:0xd445f376aaa47a6d
housing complex,Komplek perumahan,Kompleks Pertanian Sepui,"7GP5+94W, Moru, Distrik Wasior, Kabupaten Teluk Wondama, Papua Bar. 98362","Moru, Distrik Wasior, Kabupaten Teluk Wondama",PAPUA BARAT,98362.0,Indonesia,,-2.7138084,134.506664,https://maps.google.com/?cid=0x0:0xb60a94c951652ee1
housing complex,Komplek perumahan,KSD KOMPLEKS SEPUY DALAM,"Sebelah Kiri, Huntap Sepui, Jalur 03 No.15, Wasior II, Distrik Wasior, Kabupaten Teluk Wondama, Papua Bar. 98362","Huntap Sepui, Jalur 03 No.15, Wasior II, Distrik Wasior, Kabupaten Teluk Wondama",PAPUA BARAT,98362.0,Indonesia,,-2.7186236,134.5075042,https://maps.google.com/?cid=0x0:0x64b5363bf9ba4303
housing complex,Komplek perumahan,Rumah Manopi,"6HMM+H72, Jl, Manopi, Wasior, Teluk Wondama Regency, West Papua 98362","Jl, Manopi, Wasior, Teluk Wondama Regency",PAPUA BARAT,98362.0,Indonesia,,-2.7661185,134.5831393,https://maps.google.com/?cid=0x0:0xfa12e7705f9591bc
housing complex,Komplek perumahan,Rumah,"6GQ9+736, Huntap 3 lorong 4, Iriati, Wasior, Teluk Wondama Regency, West Papua 98362","Huntap 3 lorong 4, Iriati, Wasior, Teluk Wondama Regency",PAPUA BARAT,98362.0,Indonesia,,-2.7618448,134.5176516,https://maps.google.com/?cid=0x0:0x94db817dba53305c
housing complex,Perhimpunan Pengembang Perumahan,Wb Family,"M5Q5+587, Mamisi, Distrik Nikiwar, Kabupaten Teluk Wondama, Papua Bar. 98361","Mamisi, Distrik Nikiwar, Kabupaten Teluk Wondama",PAPUA BARAT,98361.0,Indonesia,,-2.3120951,134.1583002,https://maps.google.com/?cid=0x0:0xd34c8beb9887fdb4
housing complex,housing complex,Papua Bar. 98361,"Kabupaten Teluk Wondama, Papua Bar.","Kabupaten Teluk Wondama, Papua Bar.",PAPUA BARAT,,Indonesia,,-2.4815085,134.2099791,https://maps.google.com/?cid=0x0:0xe298b41c3e32d0eb
housing complex,Komplek perumahan,Kampung Mamisi (Distrik Nikwar),"M5X5+W2C, Mamisi, Distrik Nikiwar, Kabupaten Teluk Wondama, Papua Bar.","Kabupaten Teluk Wondama, Papua Bar.",PAPUA BARAT,,Indonesia,,-2.3001993,134.1575071,https://maps.google.com/?cid=0x0:0x24590dd735cb8ba9
housing complex,Perhimpunan Pengembang Perumahan,Kampung Isosembani,"G5X2+56Q, Isosembani, Distrik Nikiwar, Kabupaten Teluk Wondama, Papua Bar. 98361","Isosembani, Distrik Nikiwar, Kabupaten Teluk Wondama",PAPUA BARAT,98361.0,Indonesia,,-2.4520364,134.1505977,https://maps.google.com/?cid=0x0:0xe3bd5807a2250f95
housing complex,Kompleks Apartemen,Yembekiri,"5559+X2R, Yembekiri I, Distrik Rumberpon, Kabupaten Teluk Wondama, Papua Bar. 98361","Yembekiri I, Distrik Rumberpon, Kabupaten Teluk Wondama",PAPUA BARAT,98361.0,Indonesia,,-1.8400203,134.1675312,https://maps.google.com/?cid=0x0:0xbff508c6deda7d72
housing complex,Komplek perumahan,ANGKILO,"543W+5X, Yembekiri II, Distrik Rumberpon, Kabupaten Teluk Wondama, Papua Bar.","Kabupaten Teluk Wondama, Papua Bar.",PAPUA BARAT,,Indonesia,,-1.8470662,134.1473921,https://maps.google.com/?cid=0x0:0x9ece5455e604cdad
housing complex,Komplek perumahan,Yarapate,"R4R9+68, Yarpate, Wamesa, Kabupaten Teluk Wondama, Papua Bar.","Kabupaten Teluk Wondama, Papua Bar.",PAPUA BARAT,,Indonesia,,-2.1594547,134.1182972,https://maps.google.com/?cid=0x0:0xab0c1bd6d12f1b56
housing complex,Komplek perumahan,Kampung Jenggerai,"F8H8+G49, Sandey, Kec. Windesi, Kabupaten Teluk Wondama, Papua Bar.","Kabupaten Teluk Wondama, Papua Bar.",PAPUA BARAT,,Indonesia,,-2.5212171,134.3153705,https://maps.google.com/?cid=0x0:0x8ab81fdd6fcfd420
housing complex,Tujuan Wisata,Rumberpon,"45R7+R23, Yembekiri II, Distrik Rumberpon, Kabupaten Teluk Wondama, Papua Bar. 98361","Yembekiri II, Distrik Rumberpon, Kabupaten Teluk Wondama",PAPUA BARAT,98361.0,Indonesia,,-1.8579935,134.1625338,https://maps.google.com/?cid=0x0:0xe00aed48d902d296
housing complex,Sekolah,Jlr 4 Kompleks Warayaru,"CF78+679, Sobei, Duairi, Kabupaten Teluk Wondama, Papua Bar. 98362","Sobei, Duairi, Kabupaten Teluk Wondama",PAPUA BARAT,98362.0,Indonesia,,-2.5856602,134.4655927,https://maps.google.com/?cid=0x0:0x3669afdff187444d
housing complex,Perhimpunan Pengembang Perumahan,"Kampung karuan, wondama","Q47J+GG, Karuan, Wamesa, Kabupaten Teluk Wondama, Papua Bar.","Kabupaten Teluk Wondama, Papua Bar.",PAPUA BARAT,,Indonesia,,-2.2362204,134.1313264,https://maps.google.com/?cid=0x0:0x587f409de7c9d749
housing complex,housing complex,Werabur,"J4CJ+CJ, Werabur, Distrik Nikiwar, Kabupaten Teluk Wondama, Papua Bar.","Kabupaten Teluk Wondama, Papua Bar.",PAPUA BARAT,,Indonesia,,-2.3789417,134.1316017,https://maps.google.com/?cid=0x0:0xcabee08b0603ce15
housing complex,Klinik Medis,RS PRATAMA NIKIWAR,"G4VX+8J, Tamoge, Distrik Nikiwar, Kabupaten Teluk Wondama, Papua Bar.","Kabupaten Teluk Wondama, Papua Bar.",PAPUA BARAT,,Indonesia,,-2.456707,134.149001,https://maps.google.com/?cid=0x0:0x1eb51da3e991f15e
housing complex,housing complex,Distrik Nikiwar,"Kabupaten Teluk Wondama, Papua Bar.","Kabupaten Teluk Wondama, Papua Bar.",PAPUA BARAT,,Indonesia,,-2.4591355,134.154877,https://maps.google.com/?cid=0x0:0xbaab917b04d0653c
housing complex,Perhimpunan Pengembang Perumahan,Lorong pasar,"7GG4+6C8, Wasior II, Distrik Wasior, Kabupaten Teluk Wondama, Papua Bar.","Kabupaten Teluk Wondama, Papua Bar.",PAPUA BARAT,,Indonesia,,-2.7244679,134.5060866,https://maps.google.com/?cid=0x0:0xb9c4768d512bee45
housing complex,Perhimpunan Pengembang Perumahan,Lorong Rasiei,"5GHH+HF4, Rasiei, Distrik Rasiei, Kabupaten Teluk Wondama, Papua Bar.","Kabupaten Teluk Wondama, Papua Bar.",PAPUA BARAT,,Indonesia,,-2.821119,134.5287064,https://maps.google.com/?cid=0x0:0xf5f5ea019276f94a
housing complex,housing complex,Distrik Rasiei,"Kabupaten Teluk Wondama, Papua Bar.","Kabupaten Teluk Wondama, Papua Bar.",PAPUA BARAT,,Indonesia,,-2.8282078,134.5376798,https://maps.google.com/?cid=0x0:0xe7526caa8adcb663
housing complex,Komplek perumahan,Distrik Roon,"FF2G+C6Q, Sobei Indah, Duairi, Kabupaten Teluk Wondama, Papua Bar. 98362","Sobei Indah, Duairi, Kabupaten Teluk Wondama",PAPUA BARAT,98362.0,Indonesia,,-2.548923,134.4756027,https://maps.google.com/?cid=0x0:0xcd8ec8552b2cf3fa
housing complex,housing complex,Papua Bar.,,Papua Bar.,PAPUA BARAT,,Indonesia,,-1.3361154,133.1747162,https://maps.google.com/?cid=0x0:0x5349c1f8c5c7cb62
housing complex,Komplek perumahan,Sobei,"CFWF+FRJ, Sobei, Duairi, Kabupaten Teluk Wondama, Papua Bar.","Kabupaten Teluk Wondama, Papua Bar.",PAPUA BARAT,,Indonesia,,-2.553779,134.474503,https://maps.google.com/?cid=0x0:0xeb7043b5fa65fce4
housing complex,housing complex,Julian Klinefelter Siedlung,"VRC9+82, Niab, Distrik Roon, Kabupaten Teluk Wondama, Papua Bar.","Kabupaten Teluk Wondama, Papua Bar.",PAPUA BARAT,,Indonesia,,-2.1292028,134.8175099,https://maps.google.com/?cid=0x0:0x535cbcf7ee0ff332
housing complex,housing complex,Olympic Inn  Suites,"1510 E Front St, Port Angeles, WA 98362, Amerika Serikat","Port Angeles, WA",PAPUA BARAT,98362.0,Indonesia,13604524015.0,48.1088743,-123.406862,https://maps.google.com/?cid=0x0:0x6dedd29a21b7e283
housing complex,housing complex,"Port Angeles, Washington 98362","Port Angeles, Washington, Amerika Serikat","Port Angeles, Washington, Amerika Serikat",PAPUA BARAT,,Indonesia,,48.0962308,-123.3006354,https://maps.google.com/?cid=0x0:0xc9ec6b9236e3603f
housing complex,Komplek perumahan,Manggurai,"Manggurai, Distrik Wasior, Kabupaten Teluk Wondama, Papua Bar. 98362","Distrik Wasior, Kabupaten Teluk Wondama",PAPUA BARAT,98362.0,Indonesia,,-2.726099,134.506737,https://maps.google.com/?cid=0x0:0x5ed2e78c8a0fff5f
housing complex,housing complex,Roswar,"Waprak, Kec. Roswar, Kabupaten Teluk Wondama, Papua Bar.","Kabupaten Teluk Wondama, Papua Bar.",PAPUA BARAT,,Indonesia,,-2.010139,134.378759,https://maps.google.com/?cid=0x0:0x4e47415efb8c1520
housing complex,Pembangunan Perumahan,Perumahan Pemda I,"7GG6+746, Wasior I, Distrik Wasior, Kabupaten Teluk Wondama, Papua Bar. 98362","Wasior I, Distrik Wasior, Kabupaten Teluk Wondama",PAPUA BARAT,98362.0,Indonesia,,-2.7243453,134.5102783,https://maps.google.com/?cid=0x0:0x13ac7031260b693f
housing complex,housing complex,Distrik Rumberpon,"Kabupaten Teluk Wondama, Papua Bar.","Kabupaten Teluk Wondama, Papua Bar.",PAPUA BARAT,,Indonesia,,-1.8449584,134.1491513,https://maps.google.com/?cid=0x0:0x3022979f8a7f5e3b
housing complex,Kompleks Apartemen,Yembekiri,"5559+X2R, Yembekiri I, Distrik Rumberpon, Kabupaten Teluk Wondama, Papua Bar. 98361","Yembekiri I, Distrik Rumberpon, Kabupaten Teluk Wondama",PAPUA BARAT,98361.0,Indonesia,,-1.8400203,134.1675312,https://maps.google.com/?cid=0x0:0xbff508c6deda7d72
housing complex,Tujuan Wisata,Rumberpon,"45R7+R23, Yembekiri II, Distrik Rumberpon, Kabupaten Teluk Wondama, Papua Bar. 98361","Yembekiri II, Distrik Rumberpon, Kabupaten Teluk Wondama",PAPUA BARAT,98361.0,Indonesia,,-1.8579935,134.1625338,https://maps.google.com/?cid=0x0:0xe00aed48d902d296
housing complex,Komplek perumahan,ANGKILO,"543W+5X, Yembekiri II, Distrik Rumberpon, Kabupaten Teluk Wondama, Papua Bar.","Kabupaten Teluk Wondama, Papua Bar.",PAPUA BARAT,,Indonesia,,-1.8470662,134.1473921,https://maps.google.com/?cid=0x0:0x9ece5455e604cdad
housing complex,Kompleks Apartemen,Yembekiri,"5559+X2R, Yembekiri I, Distrik Rumberpon, Kabupaten Teluk Wondama, Papua Bar. 98361","Yembekiri I, Distrik Rumberpon, Kabupaten Teluk Wondama",PAPUA BARAT,98361.0,Indonesia,,-1.8400203,134.1675312,https://maps.google.com/?cid=0x0:0xbff508c6deda7d72
housing complex,housing complex,Soug Jaya,"Kabupaten Teluk Wondama, Papua Bar.","Kabupaten Teluk Wondama, Papua Bar.",PAPUA BARAT,,Indonesia,,-1.8026511,134.1001732,https://maps.google.com/?cid=0x0:0x8fa303f645c60070
housing complex,Komplek perumahan,Kampung Seimeba,"72G5+GC, Seimeba, Distrik Tahota, Kab. Manokwari Selatan, Papua Bar.","Kab. Manokwari Selatan, Papua Bar.",PAPUA BARAT,,Indonesia,,-1.7236353,134.0085328,https://maps.google.com/?cid=0x0:0x815bf2063a7e42f1
housing complex,Sekolah,Jlr 4 Kompleks Warayaru,"CF78+679, Sobei, Duairi, Kabupaten Teluk Wondama, Papua Bar. 98362","Sobei, Duairi, Kabupaten Teluk Wondama",PAPUA BARAT,98362.0,Indonesia,,-2.5856602,134.4655927,https://maps.google.com/?cid=0x0:0x3669afdff187444d
housing complex,housing complex,Duairi,"Kabupaten Teluk Wondama, Papua Bar.","Kabupaten Teluk Wondama, Papua Bar.",PAPUA BARAT,,Indonesia,,-2.5401452,134.5313569,https://maps.google.com/?cid=0x0:0x857fd4c80338c7d6
housing complex,Komplek perumahan,Sobei,"CFWF+FRJ, Sobei, Duairi, Kabupaten Teluk Wondama, Papua Bar.","Kabupaten Teluk Wondama, Papua Bar.",PAPUA BARAT,,Indonesia,,-2.553779,134.474503,https://maps.google.com/?cid=0x0:0xeb7043b5fa65fce4
housing complex,Kantor Pemerintah,Kampung Yopanggar,"GH9M+72J, Yopenggar, Duairi, Kabupaten Teluk Wondama, Papua Bar.","Kabupaten Teluk Wondama, Papua Bar.",PAPUA BARAT,,Indonesia,,-2.4812997,134.582773,https://maps.google.com/?cid=0x0:0xc394b6764ea1c82c
housing complex,Komplek perumahan,Selebes,"7GQ3+VCH, Moru, Distrik Wasior, Kabupaten Teluk Wondama, Papua Bar. 98362","Moru, Distrik Wasior, Kabupaten Teluk Wondama",PAPUA BARAT,98362.0,Indonesia,,-2.7103227,134.5035949,https://maps.google.com/?cid=0x0:0xdb97c976053b464
housing complex,Komplek perumahan,Manggurai,"Manggurai, Distrik Wasior, Kabupaten Teluk Wondama, Papua Bar. 98362","Distrik Wasior, Kabupaten Teluk Wondama",PAPUA BARAT,98362.0,Indonesia,,-2.726099,134.506737,https://maps.google.com/?cid=0x0:0x5ed2e78c8a0fff5f
housing complex,housing complex,Wamesa,"Kabupaten Teluk Bintuni, Papua Bar.","Kabupaten Teluk Bintuni, Papua Bar.",PAPUA BARAT,,Indonesia,,-2.1434612,133.981812,https://maps.google.com/?cid=0x0:0x255b33cb1fd7a021
housing complex,housing complex,Kompleks Akom demes waraitama,"WM9Q+853, Waraitama, Distrik Manimeri, Kabupaten Teluk Bintuni, Papua Bar. 98364","Waraitama, Distrik Manimeri, Kabupaten Teluk Bintuni",PAPUA BARAT,98364.0,Indonesia,,-2.0817259,133.6879307,https://maps.google.com/?cid=0x0:0x7f6ddc9935bf8c91
housing complex,Komplek perumahan,Kompleks Manado,"WJ2X+2FV, Tuasai, Distrik Bintuni, Kabupaten Teluk Bintuni, Papua Bar. 98364","Tuasai, Distrik Bintuni, Kabupaten Teluk Bintuni",PAPUA BARAT,98364.0,Indonesia,,-2.0998868,133.6486759,https://maps.google.com/?cid=0x0:0xc250420825d52a06
housing complex,housing complex,Pak Kaswan,"XP2G+2CG SP 3 Jlr 5 Timur, Bumi Saniari, Distrik Manimeri, Kabupaten Teluk Bintuni, Papua Bar. 98364","Bumi Saniari, Distrik Manimeri, Kabupaten Teluk Bintuni",PAPUA BARAT,98364.0,Indonesia,,-2.0499313,133.7260674,https://maps.google.com/?cid=0x0:0x66a6dd967975d88f
housing complex,Komplek perumahan,Komplex ugdohop horna,"WJ3X+CF, Tuasai, Distrik Bintuni, Kabupaten Teluk Bintuni, Papua Bar.","Kabupaten Teluk Bintuni, Papua Bar.",PAPUA BARAT,,Indonesia,,-2.0963852,133.648627,https://maps.google.com/?cid=0x0:0xc8ea605c90d54ebb
housing complex,housing complex,Kanisius Ndityomas,"XP3J+X49, Bumi Saniari, Distrik Manimeri, Kabupaten Teluk Bintuni, Papua Bar. 98364","Bumi Saniari, Distrik Manimeri, Kabupaten Teluk Bintuni",PAPUA BARAT,98364.0,Indonesia,,-2.0450916,133.7303549,https://maps.google.com/?cid=0x0:0x3b24e0babe31d24b
housing complex,housing complex,Hematang Family,"XPC7+6W9, Bumi Saniari, Distrik Manimeri, Kabupaten Teluk Bintuni, Papua Bar. 98364","Bumi Saniari, Distrik Manimeri, Kabupaten Teluk Bintuni",PAPUA BARAT,98364.0,Indonesia,,-2.0294589,133.714844,https://maps.google.com/?cid=0x0:0xcf232ed588e9b698
housing complex,Pembangunan Perumahan,Rumah Evan,"WM8J+XG, Waraitama, Distrik Manimeri, Kabupaten Teluk Bintuni, Papua Bar.","Kabupaten Teluk Bintuni, Papua Bar.",PAPUA BARAT,,Indonesia,,-2.08258,133.681327,https://maps.google.com/?cid=0x0:0x8810a7b394006d5b
housing complex,housing complex,Perumahan Kampung Korano Jaya,"WPGG+W74 Sp 2, jalur 4, Korano Jaya, Distrik Manimeri, Kabupaten Teluk Bintuni, Papua Bar. 98364","jalur 4, Korano Jaya, Distrik Manimeri, Kabupaten Teluk Bintuni",PAPUA BARAT,98364.0,Indonesia,,-2.0727485,133.725713,https://maps.google.com/?cid=0x0:0x62f113a09a1066d
housing complex,Pembangunan Perumahan,Rumah Fhandy kende,"WM57+MM7, Banjar Ausoy (Sp IV), Distrik Manimeri, Kabupaten Teluk Bintuni, Papua Bar. 98364","Banjar Ausoy (Sp IV), Distrik Manimeri, Kabupaten Teluk Bintuni",PAPUA BARAT,98364.0,Indonesia,,-2.0908361,133.6641808,https://maps.google.com/?cid=0x0:0xbd16a054c27559d3
housing complex,housing complex,Rumah Nober Salissing,"WM34+FW6, Tuasai, Distrik Manimeri, Kabupaten Teluk Bintuni, Papua Bar. 98364","Tuasai, Distrik Manimeri, Kabupaten Teluk Bintuni",PAPUA BARAT,98364.0,Indonesia,,-2.0963447,133.6572711,https://maps.google.com/?cid=0x0:0xa463c5df4efcafc0
housing complex,Komplek perumahan,muhamad home,"WM45+625, Banjar Ausoy (Sp IV), Distrik Manimeri, Kabupaten Teluk Bintuni, Papua Bar. 98364","Banjar Ausoy (Sp IV), Distrik Manimeri, Kabupaten Teluk Bintuni",PAPUA BARAT,98364.0,Indonesia,,-2.0944805,133.6575964,https://maps.google.com/?cid=0x0:0xc4de75eb028b6be7
housing complex,,Rumah ongko,"WM48+Q94, Banjar Ausoy (Sp IV), Distrik Manimeri, Kabupaten Teluk Bintuni, Papua Bar. 98364","Banjar Ausoy (Sp IV), Distrik Manimeri, Kabupaten Teluk Bintuni",PAPUA BARAT,98364.0,Indonesia,,-2.0931072,133.6659474,https://maps.google.com/?cid=0x0:0xe093900b50082a52
housing complex,Perumahan,Heri,"XP3G+JPG, Bumi Saniari, Distrik Manimeri, Kabupaten Teluk Bintuni, Papua Bar. 98364","Bumi Saniari, Distrik Manimeri, Kabupaten Teluk Bintuni",PAPUA BARAT,98364.0,Indonesia,82398401112.0,-2.046177,133.727114,https://maps.google.com/?cid=0x0:0x26990eca272876eb
housing complex,housing complex,Wamesa,"Kabupaten Teluk Wondama, Papua Bar.","Kabupaten Teluk Wondama, Papua Bar.",PAPUA BARAT,,Indonesia,,-2.1544139,134.0770134,https://maps.google.com/?cid=0x0:0x66173cbf11eb7129
housing complex,Perhimpunan Pengembang Perumahan,"Kampung karuan, wondama","Q47J+GG, Karuan, Wamesa, Kabupaten Teluk Wondama, Papua Bar.","Kabupaten Teluk Wondama, Papua Bar.",PAPUA BARAT,,Indonesia,,-2.2362204,134.1313264,https://maps.google.com/?cid=0x0:0x587f409de7c9d749
housing complex,Komplek perumahan,Yarapate,"R4R9+68, Yarpate, Wamesa, Kabupaten Teluk Wondama, Papua Bar.","Kabupaten Teluk Wondama, Papua Bar.",PAPUA BARAT,,Indonesia,,-2.1594547,134.1182972,https://maps.google.com/?cid=0x0:0xab0c1bd6d12f1b56
housing complex,housing complex,Distrik Wasior,"Kabupaten Teluk Wondama, Papua Bar.","Kabupaten Teluk Wondama, Papua Bar.",PAPUA BARAT,,Indonesia,,-2.726099,134.506737,https://maps.google.com/?cid=0x0:0x54655a71cd072b6e
housing complex,housing complex,Kel Aliudin S,"6GQ6+5W, Iriati, Distrik Wasior, Kabupaten Teluk Wondama, Papua Bar.","Kabupaten Teluk Wondama, Papua Bar.",PAPUA BARAT,,Indonesia,,-2.763074,134.51203,https://maps.google.com/?cid=0x0:0xaadbb7fbcc8d5e72
housing complex,Komplek perumahan,Lekitoo's house,"7G47+462, Unnamed Road, Maniwak, Wasior, Teluk Wondama Regency, West Papua 98362","Unnamed Road, Maniwak, Wasior, Teluk Wondama Regency",PAPUA BARAT,98362.0,Indonesia,,-2.7447265,134.5130006,https://maps.google.com/?cid=0x0:0x7c2f570eb7a680c6
housing complex,Perhimpunan Pengembang Perumahan,Kompleks Angkur,"7GG3+RPP, Wasior II, Distrik Wasior, Kabupaten Teluk Wondama, Papua Bar. 98362","Wasior II, Distrik Wasior, Kabupaten Teluk Wondama",PAPUA BARAT,98362.0,Indonesia,,-2.7229027,134.5043297,https://maps.google.com/?cid=0x0:0x7c18e3cbf7a9e890
housing complex,Komplek perumahan,Mess RS Wondama,"6GR6+M4V, Maniwak, Distrik Wasior, Kabupaten Teluk Wondama, Papua Bar. 98362","Maniwak, Distrik Wasior, Kabupaten Teluk Wondama",PAPUA BARAT,98362.0,Indonesia,,-2.7582575,134.5102819,https://maps.google.com/?cid=0x0:0xd445f376aaa47a6d
housing complex,Komplek perumahan,Manggurai,"Manggurai, Distrik Wasior, Kabupaten Teluk Wondama, Papua Bar. 98362","Distrik Wasior, Kabupaten Teluk Wondama",PAPUA BARAT,98362.0,Indonesia,,-2.726099,134.506737,https://maps.google.com/?cid=0x0:0x5ed2e78c8a0fff5f
housing complex,Pembangunan Perumahan,Rumah wasior,"7G45+GG, Maniwak, Kabupaten Teluk Wondama, Papua Bar.","Kabupaten Teluk Wondama, Papua Bar.",PAPUA BARAT,,Indonesia,,-2.7437109,134.5087779,https://maps.google.com/?cid=0x0:0x4343c56f91b36019
housing complex,Komplek perumahan,Rumah,"6GQ9+736, Huntap 3 lorong 4, Iriati, Wasior, Teluk Wondama Regency, West Papua 98362","Huntap 3 lorong 4, Iriati, Wasior, Teluk Wondama Regency",PAPUA BARAT,98362.0,Indonesia,,-2.7618448,134.5176516,https://maps.google.com/?cid=0x0:0x94db817dba53305c
housing complex,Komplek perumahan,Rumah Manopi,"6HMM+H72, Jl, Manopi, Wasior, Teluk Wondama Regency, West Papua 98362","Jl, Manopi, Wasior, Teluk Wondama Regency",PAPUA BARAT,98362.0,Indonesia,,-2.7661185,134.5831393,https://maps.google.com/?cid=0x0:0xfa12e7705f9591bc
housing complex,Komplek perumahan,Ripexx home,"6GQ8+PJJ, Iriati, Distrik Wasior, Kabupaten Teluk Wondama, Papua Bar. 98362","Iriati, Distrik Wasior, Kabupaten Teluk Wondama",PAPUA BARAT,98362.0,Indonesia,,-2.7606677,134.5165144,https://maps.google.com/?cid=0x0:0xfdba924b6badb470
housing complex,Pembangunan Perumahan,Rumahnya The Five,"7GF4+HM9, Manggurai pemda, Wasior I, Distrik Wasior, Kabupaten Teluk Wondama, Papua Bar.","Kabupaten Teluk Wondama, Papua Bar.",PAPUA BARAT,,Indonesia,,-2.726099,134.506737,https://maps.google.com/?cid=0x0:0x7e23ab33efe28c00
housing complex,Komplek perumahan,rumah yunadi wirawan,"6G9F+X76, Manopi, Distrik Wasior, Kabupaten Teluk Wondama, Papua Bar. 98362","Manopi, Distrik Wasior, Kabupaten Teluk Wondama",PAPUA BARAT,98362.0,Indonesia,,-2.780272,134.523614,https://maps.google.com/?cid=0x0:0x26e7ce8681bbde76
housing complex,Komplek perumahan,HUNTAP SEPUI,"7HR7+CPW, Wasior II, Distrik Wasior, Kabupaten Teluk Wondama, Papua Bar. 98362","Wasior II, Distrik Wasior, Kabupaten Teluk Wondama",PAPUA BARAT,98362.0,Indonesia,,-2.7088866,134.5643159,https://maps.google.com/?cid=0x0:0x2c540928cb41ea67
housing complex,Komplek perumahan,KSD KOMPLEKS SEPUY DALAM,"Sebelah Kiri, Huntap Sepui, Jalur 03 No.15, Wasior II, Distrik Wasior, Kabupaten Teluk Wondama, Papua Bar. 98362","Huntap Sepui, Jalur 03 No.15, Wasior II, Distrik Wasior, Kabupaten Teluk Wondama",PAPUA BARAT,98362.0,Indonesia,,-2.7186236,134.5075042,https://maps.google.com/?cid=0x0:0x64b5363bf9ba4303
housing complex,housing complex,Kec. Windesi,"Kabupaten Teluk Wondama, Papua Bar.","Kabupaten Teluk Wondama, Papua Bar.",PAPUA BARAT,,Indonesia,,-2.601077,134.1340439,https://maps.google.com/?cid=0x0:0x9b9a2ca4d233e89d
housing complex,housing complex,Papua 98253,"Kabupaten Kepulauan Yapen, Papua","Kabupaten Kepulauan Yapen, Papua",PAPUA BARAT,,Indonesia,,-1.692705,135.7710559,https://maps.google.com/?cid=0x0:0xe712ef09824c8ae8
housing complex,housing complex,Kec. Windesi,"Kabupaten Teluk Wondama, Papua Bar.","Kabupaten Teluk Wondama, Papua Bar.",PAPUA BARAT,,Indonesia,,-2.601077,134.1340439,https://maps.google.com/?cid=0x0:0x9b9a2ca4d233e89d
housing complex,housing complex,Papua Bar. 98361,"Kabupaten Teluk Wondama, Papua Bar.","Kabupaten Teluk Wondama, Papua Bar.",PAPUA BARAT,,Indonesia,,-2.4815085,134.2099791,https://maps.google.com/?cid=0x0:0xe298b41c3e32d0eb
housing complex,Perhimpunan Pengembang Perumahan,Wb Family,"M5Q5+587, Mamisi, Distrik Nikiwar, Kabupaten Teluk Wondama, Papua Bar. 98361","Mamisi, Distrik Nikiwar, Kabupaten Teluk Wondama",PAPUA BARAT,98361.0,Indonesia,,-2.3120951,134.1583002,https://maps.google.com/?cid=0x0:0xd34c8beb9887fdb4
housing complex,Komplek perumahan,Kampung Jenggerai,"F8H8+G49, Sandey, Kec. Windesi, Kabupaten Teluk Wondama, Papua Bar.","Kabupaten Teluk Wondama, Papua Bar.",PAPUA BARAT,,Indonesia,,-2.5212171,134.3153705,https://maps.google.com/?cid=0x0:0x8ab81fdd6fcfd420
housing complex,Kompleks Apartemen,Yembekiri,"5559+X2R, Yembekiri I, Distrik Rumberpon, Kabupaten Teluk Wondama, Papua Bar. 98361","Yembekiri I, Distrik Rumberpon, Kabupaten Teluk Wondama",PAPUA BARAT,98361.0,Indonesia,,-1.8400203,134.1675312,https://maps.google.com/?cid=0x0:0xbff508c6deda7d72
housing complex,Komplek perumahan,Kampung Mamisi (Distrik Nikwar),"M5X5+W2C, Mamisi, Distrik Nikiwar, Kabupaten Teluk Wondama, Papua Bar.","Kabupaten Teluk Wondama, Papua Bar.",PAPUA BARAT,,Indonesia,,-2.3001993,134.1575071,https://maps.google.com/?cid=0x0:0x24590dd735cb8ba9
housing complex,Komplek perumahan,ANGKILO,"543W+5X, Yembekiri II, Distrik Rumberpon, Kabupaten Teluk Wondama, Papua Bar.","Kabupaten Teluk Wondama, Papua Bar.",PAPUA BARAT,,Indonesia,,-1.8470662,134.1473921,https://maps.google.com/?cid=0x0:0x9ece5455e604cdad
housing complex,Komplek perumahan,Yarapate,"R4R9+68, Yarpate, Wamesa, Kabupaten Teluk Wondama, Papua Bar.","Kabupaten Teluk Wondama, Papua Bar.",PAPUA BARAT,,Indonesia,,-2.1594547,134.1182972,https://maps.google.com/?cid=0x0:0xab0c1bd6d12f1b56
housing complex,Tujuan Wisata,Rumberpon,"45R7+R23, Yembekiri II, Distrik Rumberpon, Kabupaten Teluk Wondama, Papua Bar. 98361","Yembekiri II, Distrik Rumberpon, Kabupaten Teluk Wondama",PAPUA BARAT,98361.0,Indonesia,,-1.8579935,134.1625338,https://maps.google.com/?cid=0x0:0xe00aed48d902d296
housing complex,Perhimpunan Pengembang Perumahan,"Kampung karuan, wondama","Q47J+GG, Karuan, Wamesa, Kabupaten Teluk Wondama, Papua Bar.","Kabupaten Teluk Wondama, Papua Bar.",PAPUA BARAT,,Indonesia,,-2.2362204,134.1313264,https://maps.google.com/?cid=0x0:0x587f409de7c9d749
housing complex,Perhimpunan Pengembang Perumahan,"WERABUR, NIKIWAR","H4VC+F2X, Werabur, Distrik Nikiwar, Kabupaten Teluk Wondama, Papua Bar.","Kabupaten Teluk Wondama, Papua Bar.",PAPUA BARAT,,Indonesia,,-2.4062659,134.1201221,https://maps.google.com/?cid=0x0:0x5980a4c0746d6674
housing complex,Perhimpunan Pengembang Perumahan,Lorong Aise,"GG6R+88Q, Aisandami, Duairi, Kabupaten Teluk Wondama, Papua Bar.","Kabupaten Teluk Wondama, Papua Bar.",PAPUA BARAT,,Indonesia,,-2.4891538,134.5408638,https://maps.google.com/?cid=0x0:0xf4198b3da7a7b64a
housing complex,Komplek perumahan,Kel. Winowoda-Adilang,"C46W+H83, Dembek, Distrik Momi Waren, Kabupaten Manokwari, Papua Bar. 98355","Dembek, Distrik Momi Waren, Kabupaten Manokwari",PAPUA BARAT,98355.0,Indonesia,,-1.5886043,134.1457828,https://maps.google.com/?cid=0x0:0x6a63c9012e0f416e
housing complex,Sekolah,Jlr 4 Kompleks Warayaru,"CF78+679, Sobei, Duairi, Kabupaten Teluk Wondama, Papua Bar. 98362","Sobei, Duairi, Kabupaten Teluk Wondama",PAPUA BARAT,98362.0,Indonesia,,-2.5856602,134.4655927,https://maps.google.com/?cid=0x0:0x3669afdff187444d
housing complex,Komplek perumahan,Sobei,"CFWF+FRJ, Sobei, Duairi, Kabupaten Teluk Wondama, Papua Bar.","Kabupaten Teluk Wondama, Papua Bar.",PAPUA BARAT,,Indonesia,,-2.553779,134.474503,https://maps.google.com/?cid=0x0:0xeb7043b5fa65fce4
housing complex,housing complex,Wondiboi,"Distrik Wondiboy, Kabupaten Teluk Wondama, Papua Bar.","Kabupaten Teluk Wondama, Papua Bar.",PAPUA BARAT,,Indonesia,,-2.8046444,134.5760814,https://maps.google.com/?cid=0x0:0xe68e45ccb2c17a3e
housing complex,Komplek perumahan,Wasior,"5HWG+4CW, Wondiboi, Distrik Wondiboy, Kabupaten Teluk Wondama, Papua Bar.","Kabupaten Teluk Wondama, Papua Bar.",PAPUA BARAT,,Indonesia,,-2.8046444,134.5760814,https://maps.google.com/?cid=0x0:0xffc793f77cb0ce2d
housing complex,Komplek perumahan,Chio,"5GRH+MM5, Unnamed Road, Wondiboi, Distrik Wondiboy, Kabupaten Teluk Wondama, Papua Bar. 98362","Unnamed Road, Wondiboi, Distrik Wondiboy, Kabupaten Teluk Wondama",PAPUA BARAT,98362.0,Indonesia,,-2.808359,134.529244,https://maps.google.com/?cid=0x0:0x9b26e49afe34cd7e
housing complex,Komplek perumahan,RiioAnakdesa,"5GVH+CM, Wondiboi, Distrik Wondiboy, Kabupaten Teluk Wondama, Papua Bar. 98362","Wondiboi, Distrik Wondiboy, Kabupaten Teluk Wondama",PAPUA BARAT,98362.0,Indonesia,,-2.806405,134.529164,https://maps.google.com/?cid=0x0:0xf1dedaa844b2b362
housing complex,Komplek perumahan,RK_Home,"5GRH+XMV, Huntap, Wondiboi, Distrik Wondiboy, Kabupaten Teluk Wondama, Papua Bar.","Kabupaten Teluk Wondama, Papua Bar.",PAPUA BARAT,,Indonesia,,-2.807624,134.528982,https://maps.google.com/?cid=0x0:0xb16158bf4d07cab5
housing complex,Komplek perumahan,Elton Huis,"5GRH+R4, Wondiboi, Distrik Wondiboy, Kabupaten Teluk Wondama, Papua Bar. 98362","Wondiboi, Distrik Wondiboy, Kabupaten Teluk Wondama",PAPUA BARAT,98362.0,Indonesia,,-2.8079375,134.5278125,https://maps.google.com/?cid=0x0:0x162c07e1ce35015a
housing complex,Komplek perumahan,Home Cici and Juis,"5GRH+4P2, Wondiboi, Distrik Wondiboy, Kabupaten Teluk Wondama, Papua Bar.","Kabupaten Teluk Wondama, Papua Bar.",PAPUA BARAT,,Indonesia,,-2.8097413,134.5292528,https://maps.google.com/?cid=0x0:0x20d021b4f8798169
housing complex,Komplek perumahan,Rumah Henny Marini,"6G3H+84, Kaibi, Distrik Wondiboy, Kabupaten Teluk Wondama, Papua Bar. 98362","Kaibi, Distrik Wondiboy, Kabupaten Teluk Wondama",PAPUA BARAT,98362.0,Indonesia,,-2.797071,134.528641,https://maps.google.com/?cid=0x0:0x2a90598f1a7c1e90
housing complex,Komplek perumahan,Manggurai,"Manggurai, Distrik Wasior, Kabupaten Teluk Wondama, Papua Bar. 98362","Distrik Wasior, Kabupaten Teluk Wondama",PAPUA BARAT,98362.0,Indonesia,,-2.726099,134.506737,https://maps.google.com/?cid=0x0:0x5ed2e78c8a0fff5f
housing complex,Komplek perumahan,Y. Rumbobiar,"5GVJ+39J, Wondiboi, Distrik Wondiboy, Kabupaten Teluk Wondama, Papua Bar. 98362","Wondiboi, Distrik Wondiboy, Kabupaten Teluk Wondama",PAPUA BARAT,98362.0,Indonesia,,-2.8072998,134.5308994,https://maps.google.com/?cid=0x0:0x863e34da05d746ce
housing complex,Pembangunan Perumahan,Isei wasior teluk wondama,"5HHH+H9V, Isei, Distrik Rasiei, Kabupaten Teluk Wondama, Papua Bar. 98362","Isei, Distrik Rasiei, Kabupaten Teluk Wondama",PAPUA BARAT,98362.0,Indonesia,,-2.8210085,134.5784245,https://maps.google.com/?cid=0x0:0x1d7e6b77e439bfca
housing complex,Pembangunan Perumahan,Rezlie Zld,"5GRH+XRJ, Perumahan Kuning, Wondiboi, Distrik Wondiboy, Kabupaten Teluk Wondama, Papua Bar. 98362","Perumahan Kuning, Wondiboi, Distrik Wondiboy, Kabupaten Teluk Wondama",PAPUA BARAT,98362.0,Indonesia,,-2.8075309,134.5295228,https://maps.google.com/?cid=0x0:0x2d1cdc3ba239539f
housing complex,Pembangunan Perumahan,MASABUAI,"7G96+HRR, Wasior I, Distrik Wasior, Kabupaten Teluk Wondama, Papua Bar. 98362","Wasior I, Distrik Wasior, Kabupaten Teluk Wondama",PAPUA BARAT,98362.0,Indonesia,81230411013.0,-2.7297392,134.5120257,https://maps.google.com/?cid=0x0:0x8b9766abc446fe3c
housing complex,Komplek perumahan,Amsal Sarumi,"Kabuow, Distrik Wondiboy, Kabupaten Teluk Wondama, Papua Bar. 98362","Distrik Wondiboy, Kabupaten Teluk Wondama",PAPUA BARAT,98362.0,Indonesia,,-2.8055538,134.5304424,https://maps.google.com/?cid=0x0:0x92373c18991d6857
