Category,Real Category,Business Name,Address,City,State,Postal Code,Country,Phone,Email,Website,Latitude,Longitude,Map Link,Details Link
mall,mall,Kalimantan Barat 78353,"Kab. Mempawah, Kalimantan Barat","Kab. Mempawah, Kalimantan Barat",KALIMANTAN BARAT,,Indonesia,,,,0.3185487,109.140438,https://maps.google.com/?cid=0x0:0x6cd6802715e150c2,
mall,Pasar,Galeri rodaduasampaitua,"9589+PW3, Anjungan Melancar, Kec. Anjongan, Kab. Mempawah, Kalimantan Barat 78353","Anjungan Melancar, Kec. Anjongan, Kab. Mempawah",KALIMANTAN BARAT,78353.0,Indonesia,81335809631.0,,,0.3667646,109.1697889,https://maps.google.com/?cid=0x0:0x2aa39d0e4b3526e2,
mall,Pemasok Air Minum Dalam Kemasan,Vrigel qua,"85WV+543, Kepayang, Kec. Anjongan, Kab. Mempawah, Kalimantan Barat 78353","Kepayang, Kec. Anjongan, Kab. Mempawah",KALIMANTAN BARAT,78353.0,Indonesia,,,,0.3453958,109.1928042,https://maps.google.com/?cid=0x0:0xa410c1f0f4aaa14d,
mall,Kantor Perusahaan,Bengkel maman,"86V3+C4G, Pak Bulu, Kec. Anjongan, Kab. Mempawah, Kalimantan Barat 78353","Pak Bulu, Kec. Anjongan, Kab. Mempawah",KALIMANTAN BARAT,78353.0,Indonesia,,,,0.3435535,109.20282,https://maps.google.com/?cid=0x0:0x2c53ef5b94270d0b,
mall,Toko Swalayan,Toko Husin,"84CW+R2P, Jl. Sungai Pinyuh - Anjungan, Anjungan Melancar, Kec. Sungai Pinyuh, Kab. Mempawah, Kalimantan Barat 78353","Jl. Sungai Pinyuh - Anjungan, Anjungan Melancar, Kec. Sungai Pinyuh, Kab. Mempawah",KALIMANTAN BARAT,78353.0,Indonesia,81649317599.0,,,0.3220971,109.1450752,https://maps.google.com/?cid=0x0:0xf33725dad155bf17,
mall,Toko umum,Target,"72RX+8W3, Jl. Sungai, Sungai Batang, Kec. Sungai Pinyuh, Kab. Mempawah, Kalimantan Barat 78353","Jl. Sungai, Sungai Batang, Kec. Sungai Pinyuh, Kab. Mempawah",KALIMANTAN BARAT,78353.0,Indonesia,,,,0.2907698,109.0498093,https://maps.google.com/?cid=0x0:0x90b27f124fb1b799,
mall,Komplek perumahan,Anjungan,"9568+7G8, Anjungan Melancar, Kec. Anjongan, Kab. Mempawah, Kalimantan Barat","Kab. Mempawah, Kalimantan Barat",KALIMANTAN BARAT,,Indonesia,85754351197.0,,,0.360661,109.1663217,https://maps.google.com/?cid=0x0:0x24c4cdfd2963d2ea,
mall,Toko bahan makanan,Toko Alongko,"655R+X8P, Peniti Besar, Segedong, Kab. Mempawah, Kalimantan Barat 78353","Peniti Besar, Segedong, Kab. Mempawah",KALIMANTAN BARAT,78353.0,Indonesia,,,,0.2099522,109.1908151,https://maps.google.com/?cid=0x0:0x8a4bca84b9f88942,
mall,Gedung Apartemen,Defandra Donuts,"9567+JFG, Anjungan Melancar, Kec. Anjongan, Kab. Mempawah, Kalimantan Barat 78353","Anjungan Melancar, Kec. Anjongan, Kab. Mempawah",KALIMANTAN BARAT,78353.0,Indonesia,81258191206.0,,,0.3615559,109.163711,https://maps.google.com/?cid=0x0:0x9aaf4b0195ffc0d2,
mall,Toko Ponsel,LORA CELL,"86R4+Q7F, Unnamed Road, Pak Bulu, Kec. Anjongan, Kab. Mempawah, Kalimantan Barat 78353","Unnamed Road, Pak Bulu, Kec. Anjongan, Kab. Mempawah",KALIMANTAN BARAT,78353.0,Indonesia,85822595883.0,,,0.3419426,109.2056767,https://maps.google.com/?cid=0x0:0xad17a6b6d9187673,
mall,Pusat Perbelanjaan,Kios Pancing,"9567+MRH, Jl. Lintas Kalimantan Poros Tengah, Anjungan Melancar, Kec. Anjongan, Kab. Mempawah, Kalimantan Barat 78353","Jl. Lintas Kalimantan Poros Tengah, Anjungan Melancar, Kec. Anjongan, Kab. Mempawah",KALIMANTAN BARAT,78353.0,Indonesia,895701708336.0,,,0.3616983,109.164611,https://maps.google.com/?cid=0x0:0x365fc4c45613b54e,
mall,Pusat Perbelanjaan,TOKO JUPHENG,"6522+7C8, Jl. Swadaya, Sungai Purun Besar, Segedong, Kab. Mempawah, Kalimantan Barat 78353","Jl. Swadaya, Sungai Purun Besar, Segedong, Kab. Mempawah",KALIMANTAN BARAT,78353.0,Indonesia,,,,0.2006503,109.151073,https://maps.google.com/?cid=0x0:0x718e5828c68aaf57,
mall,Toko Herbal,Halal Mart ANA,"Peniti Besar, Segedong, Kab. Mempawah, Kalimantan Barat 78351","Segedong, Kab. Mempawah",KALIMANTAN BARAT,78351.0,Indonesia,82396058971.0,,,0.2154456,109.2004269,https://maps.google.com/?cid=0x0:0xffcf860b56289630,
mall,Toko umum,WARUNG UJANG TAYAN,"86V3+38H, Unnamed Road, Pak Bulu, Kec. Anjongan, Kab. Mempawah, Kalimantan Barat 78353","Unnamed Road, Pak Bulu, Kec. Anjongan, Kab. Mempawah",KALIMANTAN BARAT,78353.0,Indonesia,,,,0.3426976,109.2033515,https://maps.google.com/?cid=0x0:0xc7b5ddbaecefac2d,
mall,Pusat Perbelanjaan,Pasar Tengah Sungai Pinyuh,"73HF+GX9, Jalan, Pinyuh River, Anjungan, Mempawah Regency, West Kalimantan 78353","Jalan, Pinyuh River, Anjungan, Mempawah Regency",KALIMANTAN BARAT,78353.0,Indonesia,,,,0.2787805,109.0749764,https://maps.google.com/?cid=0x0:0x63703ac3dfdd21ac,
mall,Toko Elektronik,Luffe Ponsel,"Kepayang, Kec. Anjongan, Kab. Mempawah, Kalimantan Barat 78353","Kec. Anjongan, Kab. Mempawah",KALIMANTAN BARAT,78353.0,Indonesia,,,,0.3383346,109.2137967,https://maps.google.com/?cid=0x0:0xabe6508bc52326ca,
mall,Toko bahan makanan,Indomaret Anjongan,"9567+CFX, Anjungan Melancar, Kec. Anjongan, Kab. Mempawah, Kalimantan Barat 78353","Anjungan Melancar, Kec. Anjongan, Kab. Mempawah",KALIMANTAN BARAT,78353.0,Indonesia,,,,0.3611001,109.1637404,https://maps.google.com/?cid=0x0:0x759ae8238c681e0a,
mall,Toko Ponsel,andhika ponsel,"73GC+9GQ, Sungai Pinyuh, Kec. Sungai Pinyuh, Kab. Mempawah, Kalimantan Barat 78353","Sungai Pinyuh, Kec. Sungai Pinyuh, Kab. Mempawah",KALIMANTAN BARAT,78353.0,Indonesia,82280605515.0,,,0.2759639,109.0713611,https://maps.google.com/?cid=0x0:0x72475fdd1edf085e,
mall,Toko Perlengkapan Rumah,MR D.I.Y,"73GH+MX6, Jl. Lintas Kalimantan Poros Tengah, Sungai Pinyuh, Kec. Sungai Pinyuh, Kab. Mempawah, Kalimantan Barat 78353","Jl. Lintas Kalimantan Poros Tengah, Sungai Pinyuh, Kec. Sungai Pinyuh, Kab. Mempawah",KALIMANTAN BARAT,78353.0,Indonesia,,,,0.2766774,109.0798872,https://maps.google.com/?cid=0x0:0x9f897951caf9be9,
mall,Klinik Kesehatan,apotik k.ion nano,"8249+2GC, Jl. Raya Sungai Bakau Besar Laut, Sungai Bakau Kecil, Mempawah Tim., Kab. Mempawah, Kalimantan Barat 78919","Jl. Raya Sungai Bakau Besar Laut, Sungai Bakau Kecil, Mempawah Tim., Kab. Mempawah",KALIMANTAN BARAT,78919.0,Indonesia,85654599786.0,,,0.3050674,109.0187738,https://maps.google.com/?cid=0x0:0x1d764a600940df04,
mall,Pasar,Tugu pasar bujur anjungan melancar,"9568+X2W, Jl. Lintas Kalimantan Poros Tengah, Anjungan Melancar, Kec. Anjongan, Kab. Mempawah, Kalimantan Barat 78353","Jl. Lintas Kalimantan Poros Tengah, Anjungan Melancar, Kec. Anjongan, Kab. Mempawah",KALIMANTAN BARAT,78353.0,Indonesia,,,,0.3624951,109.1650848,https://maps.google.com/?cid=0x0:0x47eb26b11d54e4c,
mall,Pasar,Anjungan,"9568+VFX, Anjungan Melancar, Kec. Anjongan, Kab. Mempawah, Kalimantan Barat","Kab. Mempawah, Kalimantan Barat",KALIMANTAN BARAT,,Indonesia,,,,0.3622346,109.1662311,https://maps.google.com/?cid=0x0:0xffc5d2da33d3a030,
mall,Kantor Pemerintah,Kantor Camat Anjongan,"954G+C5C, Anjungan Melancar, Kec. Anjongan, Kab. Mempawah, Kalimantan Barat 78353","Anjungan Melancar, Kec. Anjongan, Kab. Mempawah",KALIMANTAN BARAT,78353.0,Indonesia,,,,0.3560502,109.1753925,https://maps.google.com/?cid=0x0:0x7ab28bf950a38d19,
mall,mall,Kalimantan Barat 78911,"Kab. Mempawah, Kalimantan Barat","Kab. Mempawah, Kalimantan Barat",KALIMANTAN BARAT,,Indonesia,,,,0.3411275,108.9680522,https://maps.google.com/?cid=0x0:0xb4343e5cd7f539a5,
mall,Pusat Perbelanjaan,Omah Siregar,"Jl. Chandramidi No.2, Tengah, Kec. Mempawah Hilir, Kab. Mempawah, Kalimantan Barat 78911","Tengah, Kec. Mempawah Hilir, Kab. Mempawah",KALIMANTAN BARAT,78911.0,Indonesia,82322458886.0,,,0.3512287,108.9604755,https://maps.google.com/?cid=0x0:0xc28ebc7c32c742e1,
mall,Pusat Perbelanjaan,Pusat soflen mempawah  yukshopping13,"9X69+3JC, Jl. Adiwijaya, Antibar, Mempawah Tim., Kab. Mempawah, Kalimantan Barat 78912","Jl. Adiwijaya, Antibar, Mempawah Tim., Kab. Mempawah",KALIMANTAN BARAT,78912.0,Indonesia,,,,0.3601803,108.9690275,https://maps.google.com/?cid=0x0:0xbcbe1894f7cf8b1d,
mall,Pusat Perbelanjaan,Sumber Tiga Jaya,"9X74+3RJ, Tengah, Kec. Mempawah Hilir, Kab. Mempawah, Kalimantan Barat 78912","Tengah, Kec. Mempawah Hilir, Kab. Mempawah",KALIMANTAN BARAT,78912.0,Indonesia,81250696925.0,,,0.3627153,108.9570281,https://maps.google.com/?cid=0x0:0x9089531888895f40,
mall,Pusat Perbelanjaan,Lina,"Jln ajelani. Alfalah:3. Gang potlot, Terusan, Kec. Mempawah Hilir, Kab. Mempawah, Kalimantan Barat 78912","Terusan, Kec. Mempawah Hilir, Kab. Mempawah",KALIMANTAN BARAT,78912.0,Indonesia,85252245788.0,,,0.3642599,108.954903,https://maps.google.com/?cid=0x0:0x17b89b8375c9c5ba,
mall,Jasa penyewaan peralatan audio visual,AVP.PRODUCTION,"Antibar, Mempawah Tim., Kab. Mempawah, Kalimantan Barat 78911","Mempawah Tim., Kab. Mempawah",KALIMANTAN BARAT,78911.0,Indonesia,85828762476.0,,,0.3612026,108.984774,https://maps.google.com/?cid=0x0:0x47ca6bcfe48b47f2,
mall,Pusat Perbelanjaan,Gajah Mada,"Jl. Gusti M. Taufik, Terusan, Kec. Mempawah Hilir, Kab. Mempawah, Kalimantan Barat 78912","Terusan, Kec. Mempawah Hilir, Kab. Mempawah",KALIMANTAN BARAT,78912.0,Indonesia,,,,0.3623131,108.9610295,https://maps.google.com/?cid=0x0:0x38be282d1e19b0b8,
mall,Toko,Toko Mbk Upit,"9X5G+5QH, Parit Mailot, Antibar, Mempawah Tim., Kab. Mempawah, Kalimantan Barat 78911","Parit Mailot, Antibar, Mempawah Tim., Kab. Mempawah",KALIMANTAN BARAT,78911.0,Indonesia,,,,0.3579261,108.9769832,https://maps.google.com/?cid=0x0:0xd649476076d63ab,
mall,Pusat Perbelanjaan,Allina shop,"Jl. Abu bakar kompleks abrasi nam hoi Rt 37 RW 001 no 5c kelurahan terusan Kecamatan membawahi, Tengah, Kec. Mempawah Hilir, Kab. Mempawah, Kalimantan Barat 78912","Tengah, Kec. Mempawah Hilir, Kab. Mempawah",KALIMANTAN BARAT,78912.0,Indonesia,,,,0.3489471,108.9412834,https://maps.google.com/?cid=0x0:0x1dc558a71a23737a,
mall,Pusat Perbelanjaan,Hello Segar,"Jl. Al-Falah 2 Gg. Masjid No.3, Terusan, Kec. Mempawah Hilir, Kab. Mempawah, Kalimantan Barat 78912","Terusan, Kec. Mempawah Hilir, Kab. Mempawah",KALIMANTAN BARAT,78912.0,Indonesia,,,,0.3638328,108.9533405,https://maps.google.com/?cid=0x0:0x348803626ef00e70,
mall,Minimarket,toko cucuh,"9X66+H9G, Tengah, Kec. Mempawah Hilir, Kab. Mempawah, Kalimantan Barat 78912","Tengah, Kec. Mempawah Hilir, Kab. Mempawah",KALIMANTAN BARAT,78912.0,Indonesia,,,,0.361441,108.96096,https://maps.google.com/?cid=0x0:0xb62dbccccad92b75,
mall,Kantor Pemda,Badan Pertanahan Nasional Kabupaten Mempawah,"Jalan Daeng Menambon No.12, Tengah, Mempawah Hilir, Tengah, Kec. Mempawah Hilir, Mempawah, Kalimantan Barat 78911","Tengah, Mempawah Hilir, Tengah, Kec. Mempawah Hilir, Mempawah",KALIMANTAN BARAT,78911.0,Indonesia,561691004.0,,,0.3498732,108.9638282,https://maps.google.com/?cid=0x0:0x71011564d525fff7,
mall,Pusat Perbelanjaan,Irmafajriahstore,"9X73+PX2, Terusan, Kec. Mempawah Hilir, Kab. Mempawah, Kalimantan Barat 78912","Terusan, Kec. Mempawah Hilir, Kab. Mempawah",KALIMANTAN BARAT,78912.0,Indonesia,89677528689.0,,,0.3642599,108.954903,https://maps.google.com/?cid=0x0:0xf095fb089519a88f,
mall,Pusat Perbelanjaan,JAYA PONSEL,"Jl. Melati, Tengah, Kec. Mempawah Hilir, Kab. Mempawah, Kalimantan Barat 78912","Tengah, Kec. Mempawah Hilir, Kab. Mempawah",KALIMANTAN BARAT,78912.0,Indonesia,,,,0.3635256,108.9596674,https://maps.google.com/?cid=0x0:0x65866cdb23750791,
mall,Pusat Perbelanjaan,Lana WateR,"9X87+X8Q, menuju masuk keraton Amantubillah, Samping Toko bangunan Ajung, Jl. Adiwijaya, Pulau Pedalaman, Mempawah Tim., Kab. Mempawah, Kalimantan Barat 78912","menuju masuk keraton Amantubillah, Samping Toko bangunan Ajung, Jl. Adiwijaya, Pulau Pedalaman, Mempawah Tim., Kab. Mempawah",KALIMANTAN BARAT,78912.0,Indonesia,,,,0.3674692,108.963372,https://maps.google.com/?cid=0x0:0x37ac16bd778bdc34,
mall,Toko,Warung culiong,"9X78+RJ4, Antibar, Mempawah Tim., Kab. Mempawah, Kalimantan Barat 78912","Antibar, Mempawah Tim., Kab. Mempawah",KALIMANTAN BARAT,78912.0,Indonesia,85885869669.0,,,0.3645051,108.9665667,https://maps.google.com/?cid=0x0:0x6263c716270199c6,
mall,Toko Ikan Tropis,Atlantis Aquarium Shop,"9X66+H9X, Tengah, Kec. Mempawah Hilir, Kab. Mempawah, Kalimantan Barat 78912","Tengah, Kec. Mempawah Hilir, Kab. Mempawah",KALIMANTAN BARAT,78912.0,Indonesia,,,,0.3614873,108.960971,https://maps.google.com/?cid=0x0:0x96f15f4d820449be,
mall,Toko Pakaian,zeezaa store,"Jl. Raden Kusno, Tengah, Kec. Mempawah Hilir, Kab. Mempawah, Kalimantan Barat 78912","Tengah, Kec. Mempawah Hilir, Kab. Mempawah",KALIMANTAN BARAT,78912.0,Indonesia,85245677760.0,,,0.3490401,108.9598398,https://maps.google.com/?cid=0x0:0xd723d14ab3c0b3d1,
mall,,toko Sabako Tiasa,"9X89+4Q4, Jl. Pangsuma, Antibar, Mempawah Tim., Kab. Mempawah, Kalimantan Barat 78912","Jl. Pangsuma, Antibar, Mempawah Tim., Kab. Mempawah",KALIMANTAN BARAT,78912.0,Indonesia,82155558559.0,,,0.3652684,108.9694656,https://maps.google.com/?cid=0x0:0x534832add10e65ce,
mall,Minimarket,TOKO RR STORE,"8XFC+J6C, Parit Banjar, Mempawah Tim., Kab. Mempawah, Kalimantan Barat 78914","Parit Banjar, Mempawah Tim., Kab. Mempawah",KALIMANTAN BARAT,78914.0,Indonesia,,,,0.3240515,108.9704773,https://maps.google.com/?cid=0x0:0x18a1d16ab8c01838,
mall,Kedai Kopi,Wk Goncang Lidah Est 1970,"Jl. Gusti Moh. Taufik, Terusan, Mempawah Hilir, Terusan, Mempawah Hilir, Terusan, Kec. Mempawah Hilir, Kab. Mempawah, Kalimantan Barat 78912","Terusan, Mempawah Hilir, Terusan, Mempawah Hilir, Terusan, Kec. Mempawah Hilir, Kab. Mempawah",KALIMANTAN BARAT,78912.0,Indonesia,85252667733.0,,,0.3632247,108.9611481,https://maps.google.com/?cid=0x0:0xed4bedc6cbf3b67a,
mall,mall,Kalimantan Barat 78912,"Kab. Mempawah, Kalimantan Barat","Kab. Mempawah, Kalimantan Barat",KALIMANTAN BARAT,,Indonesia,,,,0.3678684,108.9561661,https://maps.google.com/?cid=0x0:0xefc8c9940d5ef3aa,
mall,Pusat Perbelanjaan,Lina,"Jln ajelani. Alfalah:3. Gang potlot, Terusan, Kec. Mempawah Hilir, Kab. Mempawah, Kalimantan Barat 78912","Terusan, Kec. Mempawah Hilir, Kab. Mempawah",KALIMANTAN BARAT,78912.0,Indonesia,85252245788.0,,,0.3642599,108.954903,https://maps.google.com/?cid=0x0:0x17b89b8375c9c5ba,
mall,Pusat Perbelanjaan,Sumber Tiga Jaya,"9X74+3RJ, Tengah, Kec. Mempawah Hilir, Kab. Mempawah, Kalimantan Barat 78912","Tengah, Kec. Mempawah Hilir, Kab. Mempawah",KALIMANTAN BARAT,78912.0,Indonesia,81250696925.0,,,0.3627153,108.9570281,https://maps.google.com/?cid=0x0:0x9089531888895f40,
mall,Pusat Perbelanjaan,Pusat soflen mempawah  yukshopping13,"9X69+3JC, Jl. Adiwijaya, Antibar, Mempawah Tim., Kab. Mempawah, Kalimantan Barat 78912","Jl. Adiwijaya, Antibar, Mempawah Tim., Kab. Mempawah",KALIMANTAN BARAT,78912.0,Indonesia,,,,0.3601803,108.9690275,https://maps.google.com/?cid=0x0:0xbcbe1894f7cf8b1d,
mall,Pusat Perbelanjaan,Hello Segar,"Jl. Al-Falah 2 Gg. Masjid No.3, Terusan, Kec. Mempawah Hilir, Kab. Mempawah, Kalimantan Barat 78912","Terusan, Kec. Mempawah Hilir, Kab. Mempawah",KALIMANTAN BARAT,78912.0,Indonesia,,,,0.3638328,108.9533405,https://maps.google.com/?cid=0x0:0x348803626ef00e70,
mall,Pusat Perbelanjaan,Allina shop,"Jl. Abu bakar kompleks abrasi nam hoi Rt 37 RW 001 no 5c kelurahan terusan Kecamatan membawahi, Tengah, Kec. Mempawah Hilir, Kab. Mempawah, Kalimantan Barat 78912","Tengah, Kec. Mempawah Hilir, Kab. Mempawah",KALIMANTAN BARAT,78912.0,Indonesia,,,,0.3489471,108.9412834,https://maps.google.com/?cid=0x0:0x1dc558a71a23737a,
mall,Pusat Perbelanjaan,Dinshopmpwh,"9W7X+R7W, Jl. Al Falah, Tengah, Kec. Mempawah Hilir, Kab. Mempawah, Kalimantan Barat 78912","Jl. Al Falah, Tengah, Kec. Mempawah Hilir, Kab. Mempawah",KALIMANTAN BARAT,78912.0,Indonesia,,,,0.3642496,108.9474433,https://maps.google.com/?cid=0x0:0x17ab6357ca19d4af,
mall,Pusat Perbelanjaan,Gajah Mada,"Jl. Gusti M. Taufik, Terusan, Kec. Mempawah Hilir, Kab. Mempawah, Kalimantan Barat 78912","Terusan, Kec. Mempawah Hilir, Kab. Mempawah",KALIMANTAN BARAT,78912.0,Indonesia,,,,0.3623131,108.9610295,https://maps.google.com/?cid=0x0:0x38be282d1e19b0b8,
mall,Minimarket,toko cucuh,"9X66+H9G, Tengah, Kec. Mempawah Hilir, Kab. Mempawah, Kalimantan Barat 78912","Tengah, Kec. Mempawah Hilir, Kab. Mempawah",KALIMANTAN BARAT,78912.0,Indonesia,,,,0.361441,108.96096,https://maps.google.com/?cid=0x0:0xb62dbccccad92b75,
mall,Pusat Perbelanjaan,JAYA PONSEL,"Jl. Melati, Tengah, Kec. Mempawah Hilir, Kab. Mempawah, Kalimantan Barat 78912","Tengah, Kec. Mempawah Hilir, Kab. Mempawah",KALIMANTAN BARAT,78912.0,Indonesia,,,,0.3635256,108.9596674,https://maps.google.com/?cid=0x0:0x65866cdb23750791,
mall,Pusat Perbelanjaan,Irmafajriahstore,"9X73+PX2, Terusan, Kec. Mempawah Hilir, Kab. Mempawah, Kalimantan Barat 78912","Terusan, Kec. Mempawah Hilir, Kab. Mempawah",KALIMANTAN BARAT,78912.0,Indonesia,89677528689.0,,,0.3642599,108.954903,https://maps.google.com/?cid=0x0:0xf095fb089519a88f,
mall,Pusat Perbelanjaan,Lana WateR,"9X87+X8Q, menuju masuk keraton Amantubillah, Samping Toko bangunan Ajung, Jl. Adiwijaya, Pulau Pedalaman, Mempawah Tim., Kab. Mempawah, Kalimantan Barat 78912","menuju masuk keraton Amantubillah, Samping Toko bangunan Ajung, Jl. Adiwijaya, Pulau Pedalaman, Mempawah Tim., Kab. Mempawah",KALIMANTAN BARAT,78912.0,Indonesia,,,,0.3674692,108.963372,https://maps.google.com/?cid=0x0:0x37ac16bd778bdc34,
mall,Toko Ikan Tropis,Atlantis Aquarium Shop,"9X66+H9X, Tengah, Kec. Mempawah Hilir, Kab. Mempawah, Kalimantan Barat 78912","Tengah, Kec. Mempawah Hilir, Kab. Mempawah",KALIMANTAN BARAT,78912.0,Indonesia,,,,0.3614873,108.960971,https://maps.google.com/?cid=0x0:0x96f15f4d820449be,
mall,Toko,TOKO SUHAIDI,"9XVC+GFF, Unnamed Road, Pasir, Kec. Mempawah Hilir, Kab. Mempawah, Kalimantan Barat 78919","Unnamed Road, Pasir, Kec. Mempawah Hilir, Kab. Mempawah",KALIMANTAN BARAT,78919.0,Indonesia,83125500571.0,,,0.3938115,108.9711626,https://maps.google.com/?cid=0x0:0x7aa07bf11570f6b9,
mall,Pusat Perbelanjaan,Omah Siregar,"Jl. Chandramidi No.2, Tengah, Kec. Mempawah Hilir, Kab. Mempawah, Kalimantan Barat 78911","Tengah, Kec. Mempawah Hilir, Kab. Mempawah",KALIMANTAN BARAT,78911.0,Indonesia,82322458886.0,,,0.3512287,108.9604755,https://maps.google.com/?cid=0x0:0xc28ebc7c32c742e1,
mall,Pusat Perbelanjaan,Dapoer evie,"9X94+6CG, Jl. Gst. M. Saleh Aliuddin, Terusan, Kec. Mempawah Hilir, Kab. Mempawah, Kalimantan Barat 78912","Jl. Gst. M. Saleh Aliuddin, Terusan, Kec. Mempawah Hilir, Kab. Mempawah",KALIMANTAN BARAT,78912.0,Indonesia,,,,0.3680661,108.9560932,https://maps.google.com/?cid=0x0:0xf9628ebea41bf944,
mall,Toko,Warung culiong,"9X78+RJ4, Antibar, Mempawah Tim., Kab. Mempawah, Kalimantan Barat 78912","Antibar, Mempawah Tim., Kab. Mempawah",KALIMANTAN BARAT,78912.0,Indonesia,85885869669.0,,,0.3645051,108.9665667,https://maps.google.com/?cid=0x0:0x6263c716270199c6,
mall,Toko sembako pemerintah,Toko Mak Ipan,"9X93+Q6P, Jl. Mane Pak Kasih gang cemara, Terusan, Kec. Mempawah Hilir, Kab. Mempawah, Kalimantan Barat 78912","Jl. Mane Pak Kasih gang cemara, Terusan, Kec. Mempawah Hilir, Kab. Mempawah",KALIMANTAN BARAT,78912.0,Indonesia,,,,0.3694501,108.953085,https://maps.google.com/?cid=0x0:0xe5b56cbe914e0cd3,
mall,Pusat Perbelanjaan,SNR BUAH,"9X76+9F9, Jl. Bawal, Terusan, Kec. Mempawah Hilir, Kab. Mempawah, Kalimantan Barat 78912","Jl. Bawal, Terusan, Kec. Mempawah Hilir, Kab. Mempawah",KALIMANTAN BARAT,78912.0,Indonesia,81345563121.0,,,0.3634612,108.9612275,https://maps.google.com/?cid=0x0:0xa588dc31866e5ff,
mall,Toko Pakaian,zeezaa store,"Jl. Raden Kusno, Tengah, Kec. Mempawah Hilir, Kab. Mempawah, Kalimantan Barat 78912","Tengah, Kec. Mempawah Hilir, Kab. Mempawah",KALIMANTAN BARAT,78912.0,Indonesia,85245677760.0,,,0.3490401,108.9598398,https://maps.google.com/?cid=0x0:0xd723d14ab3c0b3d1,
mall,,toko Sabako Tiasa,"9X89+4Q4, Jl. Pangsuma, Antibar, Mempawah Tim., Kab. Mempawah, Kalimantan Barat 78912","Jl. Pangsuma, Antibar, Mempawah Tim., Kab. Mempawah",KALIMANTAN BARAT,78912.0,Indonesia,82155558559.0,,,0.3652684,108.9694656,https://maps.google.com/?cid=0x0:0x534832add10e65ce,
mall,Pusat Perbelanjaan,Alakazzam Penibung,"CW4W+FWV, Jl. Gusti Sulung Lelanang, Penibung, Kec. Mempawah Hilir, Kab. Mempawah, Kalimantan Barat 78919","Jl. Gusti Sulung Lelanang, Penibung, Kec. Mempawah Hilir, Kab. Mempawah",KALIMANTAN BARAT,78919.0,Indonesia,85386476798.0,,,0.4062283,108.9473025,https://maps.google.com/?cid=0x0:0x2cbb8da173bebda0,
mall,mall,Kalimantan Barat 78913,"Kec. Mempawah Hilir, Kab. Mempawah, Kalimantan Barat","Kab. Mempawah, Kalimantan Barat",KALIMANTAN BARAT,,Indonesia,,,,0.3278357,108.9383377,https://maps.google.com/?cid=0x0:0x8576f4146636f246,
mall,Pusat Perbelanjaan,Sumber Tiga Jaya,"9X74+3RJ, Tengah, Kec. Mempawah Hilir, Kab. Mempawah, Kalimantan Barat 78912","Tengah, Kec. Mempawah Hilir, Kab. Mempawah",KALIMANTAN BARAT,78912.0,Indonesia,81250696925.0,,,0.3627153,108.9570281,https://maps.google.com/?cid=0x0:0x9089531888895f40,
mall,Pusat Perbelanjaan,Allina shop,"Jl. Abu bakar kompleks abrasi nam hoi Rt 37 RW 001 no 5c kelurahan terusan Kecamatan membawahi, Tengah, Kec. Mempawah Hilir, Kab. Mempawah, Kalimantan Barat 78912","Tengah, Kec. Mempawah Hilir, Kab. Mempawah",KALIMANTAN BARAT,78912.0,Indonesia,,,,0.3489471,108.9412834,https://maps.google.com/?cid=0x0:0x1dc558a71a23737a,
mall,Pusat Perbelanjaan,Omah Siregar,"Jl. Chandramidi No.2, Tengah, Kec. Mempawah Hilir, Kab. Mempawah, Kalimantan Barat 78911","Tengah, Kec. Mempawah Hilir, Kab. Mempawah",KALIMANTAN BARAT,78911.0,Indonesia,82322458886.0,,,0.3512287,108.9604755,https://maps.google.com/?cid=0x0:0xc28ebc7c32c742e1,
mall,Pusat Perbelanjaan,Gajah Mada,"Jl. Gusti M. Taufik, Terusan, Kec. Mempawah Hilir, Kab. Mempawah, Kalimantan Barat 78912","Terusan, Kec. Mempawah Hilir, Kab. Mempawah",KALIMANTAN BARAT,78912.0,Indonesia,,,,0.3623131,108.9610295,https://maps.google.com/?cid=0x0:0x38be282d1e19b0b8,
mall,Pusat Perbelanjaan,Dinshopmpwh,"9W7X+R7W, Jl. Al Falah, Tengah, Kec. Mempawah Hilir, Kab. Mempawah, Kalimantan Barat 78912","Jl. Al Falah, Tengah, Kec. Mempawah Hilir, Kab. Mempawah",KALIMANTAN BARAT,78912.0,Indonesia,,,,0.3642496,108.9474433,https://maps.google.com/?cid=0x0:0x17ab6357ca19d4af,
mall,Minimarket,toko cucuh,"9X66+H9G, Tengah, Kec. Mempawah Hilir, Kab. Mempawah, Kalimantan Barat 78912","Tengah, Kec. Mempawah Hilir, Kab. Mempawah",KALIMANTAN BARAT,78912.0,Indonesia,,,,0.361441,108.96096,https://maps.google.com/?cid=0x0:0xb62dbccccad92b75,
mall,Toko Ikan Tropis,Atlantis Aquarium Shop,"9X66+H9X, Tengah, Kec. Mempawah Hilir, Kab. Mempawah, Kalimantan Barat 78912","Tengah, Kec. Mempawah Hilir, Kab. Mempawah",KALIMANTAN BARAT,78912.0,Indonesia,,,,0.3614873,108.960971,https://maps.google.com/?cid=0x0:0x96f15f4d820449be,
mall,Kantor Pemda,Badan Pertanahan Nasional Kabupaten Mempawah,"Jalan Daeng Menambon No.12, Tengah, Mempawah Hilir, Tengah, Kec. Mempawah Hilir, Mempawah, Kalimantan Barat 78911","Tengah, Mempawah Hilir, Tengah, Kec. Mempawah Hilir, Mempawah",KALIMANTAN BARAT,78911.0,Indonesia,561691004.0,,,0.3498732,108.9638282,https://maps.google.com/?cid=0x0:0x71011564d525fff7,
mall,Toko Pakaian,zeezaa store,"Jl. Raden Kusno, Tengah, Kec. Mempawah Hilir, Kab. Mempawah, Kalimantan Barat 78912","Tengah, Kec. Mempawah Hilir, Kab. Mempawah",KALIMANTAN BARAT,78912.0,Indonesia,85245677760.0,,,0.3490401,108.9598398,https://maps.google.com/?cid=0x0:0xd723d14ab3c0b3d1,
mall,Tujuan Wisata,Suap,"9X73+PX2, Terusan, Kec. Mempawah Hilir, Kab. Mempawah, Kalimantan Barat","Kab. Mempawah, Kalimantan Barat",KALIMANTAN BARAT,,Indonesia,,,,0.3642599,108.954903,https://maps.google.com/?cid=0x0:0x3d3bce3333d74328,
mall,Pembangunan Perumahan,Komplek Griya Primadaya,"9X85+M2X, Terusan, Kec. Mempawah Hilir, Kab. Mempawah, Kalimantan Barat 78912","Terusan, Kec. Mempawah Hilir, Kab. Mempawah",KALIMANTAN BARAT,78912.0,Indonesia,,,,0.3667274,108.957622,https://maps.google.com/?cid=0x0:0x9a2963ddf1d6ef74,
mall,Minimarket,TOKO RR STORE,"8XFC+J6C, Parit Banjar, Mempawah Tim., Kab. Mempawah, Kalimantan Barat 78914","Parit Banjar, Mempawah Tim., Kab. Mempawah",KALIMANTAN BARAT,78914.0,Indonesia,,,,0.3240515,108.9704773,https://maps.google.com/?cid=0x0:0x18a1d16ab8c01838,
mall,Komplek perumahan,Perumahan Korpri Permai,"9X45+GW3, Unnamed Road, Tengah, Mempawah Hilir, Mempawah Regency, West Kalimantan 78912","Unnamed Road, Tengah, Mempawah Hilir, Mempawah Regency",KALIMANTAN BARAT,78912.0,Indonesia,,,,0.3562579,108.9597894,https://maps.google.com/?cid=0x0:0xac4806066e11d7f8,
mall,Kantor Pemda,"Dinas PM, KUKM dan PTSP","Jl. Daeng Manambon, Tengah, Kec. Mempawah Hilir, Kab. Mempawah, Kalimantan Barat 78912","Tengah, Kec. Mempawah Hilir, Kab. Mempawah",KALIMANTAN BARAT,78912.0,Indonesia,89629537100.0,,,0.3517767,108.9641215,https://maps.google.com/?cid=0x0:0xc3afef7d98bd57c0,
mall,Sekolah Menengah Kejuruan,SMK Negeri 1 Mempawah Hilir,"Jl. A. Djelani, Tengah, Kec. Mempawah Hilir, Kab. Mempawah, Kalimantan Barat 78912","Tengah, Kec. Mempawah Hilir, Kab. Mempawah",KALIMANTAN BARAT,78912.0,Indonesia,5616695378.0,,,0.359592,108.9503143,https://maps.google.com/?cid=0x0:0x17756224dcf1d373,
mall,Sekolah Dasar,SD Negeri 23 Mempawah Hilir,"9X26+MGF, Jl. Chandramidi, Tengah, Kec. Mempawah Hilir, Kab. Mempawah, Kalimantan Barat 78911","Jl. Chandramidi, Tengah, Kec. Mempawah Hilir, Kab. Mempawah",KALIMANTAN BARAT,78911.0,Indonesia,5618126110.0,,,0.3516819,108.9612842,https://maps.google.com/?cid=0x0:0xa7351142b007504,
mall,Kedai Kopi,Senscape - Mempawah,"Jl. Gusti M. Taufik, Terusan, Kec. Mempawah Hilir, Kab. Mempawah, Kalimantan Barat 78912","Terusan, Kec. Mempawah Hilir, Kab. Mempawah",KALIMANTAN BARAT,78912.0,Indonesia,8115736900.0,,,0.371279,108.9553434,https://maps.google.com/?cid=0x0:0xefbb6bab68852df8,
mall,Kantor SIM,Polres Mempawah,"9X55+8X9, Tengah, Kec. Mempawah Hilir, Kab. Mempawah, Kalimantan Barat 78912","Tengah, Kec. Mempawah Hilir, Kab. Mempawah",KALIMANTAN BARAT,78912.0,Indonesia,,,,0.3582861,108.959985,https://maps.google.com/?cid=0x0:0x7df210bf5dfc7df0,
mall,Toko Perhiasan,Toko mas bestari,"Jl. Melati No.25, Tengah, Kec. Mempawah Hilir, Kab. Mempawah, Kalimantan Barat 78912","Tengah, Kec. Mempawah Hilir, Kab. Mempawah",KALIMANTAN BARAT,78912.0,Indonesia,83151009756.0,,,0.3626076,108.9606316,https://maps.google.com/?cid=0x0:0x705c40a03f93a672,
mall,Pusat Perbelanjaan,Lina,"Jln ajelani. Alfalah:3. Gang potlot, Terusan, Kec. Mempawah Hilir, Kab. Mempawah, Kalimantan Barat 78912","Terusan, Kec. Mempawah Hilir, Kab. Mempawah",KALIMANTAN BARAT,78912.0,Indonesia,85252245788.0,,,0.3642599,108.954903,https://maps.google.com/?cid=0x0:0x17b89b8375c9c5ba,
mall,Pusat Perbelanjaan,JAYA PONSEL,"Jl. Melati, Tengah, Kec. Mempawah Hilir, Kab. Mempawah, Kalimantan Barat 78912","Tengah, Kec. Mempawah Hilir, Kab. Mempawah",KALIMANTAN BARAT,78912.0,Indonesia,,,,0.3635256,108.9596674,https://maps.google.com/?cid=0x0:0x65866cdb23750791,
mall,Toko Pakaian,Nura Mempawah,"Jl. Boyan No.17, Sejegi, Mempawah Tim., Kab. Mempawah, Kalimantan Barat 78918","Sejegi, Mempawah Tim., Kab. Mempawah",KALIMANTAN BARAT,78918.0,Indonesia,85752306506.0,,,0.3734514,108.9681369,https://maps.google.com/?cid=0x0:0x4c7779f9d706e8e9,
mall,Taman,Taman Wisata Kuliner Mempawah,"9X56+8HQ, Tengah, Kec. Mempawah Hilir, Kab. Mempawah, Kalimantan Barat 78912","Tengah, Kec. Mempawah Hilir, Kab. Mempawah",KALIMANTAN BARAT,78912.0,Indonesia,,,,0.3583254,108.9614864,https://maps.google.com/?cid=0x0:0x14b486e64866721a,
mall,mall,Kalimantan Barat 78914,"Kab. Mempawah, Kalimantan Barat","Kab. Mempawah, Kalimantan Barat",KALIMANTAN BARAT,,Indonesia,,,,0.3233283,108.9680522,https://maps.google.com/?cid=0x0:0xbc331085b3201097,
mall,Minimarket,TOKO RR STORE,"8XFC+J6C, Parit Banjar, Mempawah Tim., Kab. Mempawah, Kalimantan Barat 78914","Parit Banjar, Mempawah Tim., Kab. Mempawah",KALIMANTAN BARAT,78914.0,Indonesia,,,,0.3240515,108.9704773,https://maps.google.com/?cid=0x0:0x18a1d16ab8c01838,
mall,Pusat Perbelanjaan,JAYA PONSEL,"Jl. Melati, Tengah, Kec. Mempawah Hilir, Kab. Mempawah, Kalimantan Barat 78912","Tengah, Kec. Mempawah Hilir, Kab. Mempawah",KALIMANTAN BARAT,78912.0,Indonesia,,,,0.3635256,108.9596674,https://maps.google.com/?cid=0x0:0x65866cdb23750791,
mall,Pusat Perbelanjaan,Lina,"Jln ajelani. Alfalah:3. Gang potlot, Terusan, Kec. Mempawah Hilir, Kab. Mempawah, Kalimantan Barat 78912","Terusan, Kec. Mempawah Hilir, Kab. Mempawah",KALIMANTAN BARAT,78912.0,Indonesia,85252245788.0,,,0.3642599,108.954903,https://maps.google.com/?cid=0x0:0x17b89b8375c9c5ba,
mall,Taman,Taman Wisata Kuliner Mempawah,"9X56+8HQ, Tengah, Kec. Mempawah Hilir, Kab. Mempawah, Kalimantan Barat 78912","Tengah, Kec. Mempawah Hilir, Kab. Mempawah",KALIMANTAN BARAT,78912.0,Indonesia,,,,0.3583254,108.9614864,https://maps.google.com/?cid=0x0:0x14b486e64866721a,
mall,Sekolah Dasar,SD Negeri 24 Mempawah Hilir,"8XF8+54X, Unnamed Road,, Kuala Secapah, Kec. Mempawah Hilir, Kab. Mempawah, Kalimantan Barat 78914","Unnamed Road,, Kuala Secapah, Kec. Mempawah Hilir, Kab. Mempawah",KALIMANTAN BARAT,78914.0,Indonesia,,,,0.3229854,108.9653604,https://maps.google.com/?cid=0x0:0x7b7a7a0463234078,
mall,mall,Kalimantan Barat 78919,"Kab. Mempawah, Kalimantan Barat","Kab. Mempawah, Kalimantan Barat",KALIMANTAN BARAT,,Indonesia,,,,0.4345421,109.0334318,https://maps.google.com/?cid=0x0:0xda6992d03365a27a,
mall,Pusat Perbelanjaan,Alakazzam Penibung,"CW4W+FWV, Jl. Gusti Sulung Lelanang, Penibung, Kec. Mempawah Hilir, Kab. Mempawah, Kalimantan Barat 78919","Jl. Gusti Sulung Lelanang, Penibung, Kec. Mempawah Hilir, Kab. Mempawah",KALIMANTAN BARAT,78919.0,Indonesia,85386476798.0,,,0.4062283,108.9473025,https://maps.google.com/?cid=0x0:0x2cbb8da173bebda0,
mall,Toko,TOKO SUHAIDI,"9XVC+GFF, Unnamed Road, Pasir, Kec. Mempawah Hilir, Kab. Mempawah, Kalimantan Barat 78919","Unnamed Road, Pasir, Kec. Mempawah Hilir, Kab. Mempawah",KALIMANTAN BARAT,78919.0,Indonesia,83125500571.0,,,0.3938115,108.9711626,https://maps.google.com/?cid=0x0:0x7aa07bf11570f6b9,
mall,Pusat Perbelanjaan,Sumber Tiga Jaya,"9X74+3RJ, Tengah, Kec. Mempawah Hilir, Kab. Mempawah, Kalimantan Barat 78912","Tengah, Kec. Mempawah Hilir, Kab. Mempawah",KALIMANTAN BARAT,78912.0,Indonesia,81250696925.0,,,0.3627153,108.9570281,https://maps.google.com/?cid=0x0:0x9089531888895f40,
mall,Toko,Robinson mm,"Jl. Melati, Tengah, Kec. Mempawah Hilir, Kab. Mempawah, Kalimantan Barat 78912","Tengah, Kec. Mempawah Hilir, Kab. Mempawah",KALIMANTAN BARAT,78912.0,Indonesia,,,,0.362693,108.9602085,https://maps.google.com/?cid=0x0:0xc62564b9d1306225,
mall,Pusat Perbelanjaan,Lina,"Jln ajelani. Alfalah:3. Gang potlot, Terusan, Kec. Mempawah Hilir, Kab. Mempawah, Kalimantan Barat 78912","Terusan, Kec. Mempawah Hilir, Kab. Mempawah",KALIMANTAN BARAT,78912.0,Indonesia,85252245788.0,,,0.3642599,108.954903,https://maps.google.com/?cid=0x0:0x17b89b8375c9c5ba,
mall,Toko Pakaian Bekas,Lelong Dedi,"jl.raya, Parit Banjar, Mempawah Tim., Kab. Mempawah, Kalimantan Barat 78919","Parit Banjar, Mempawah Tim., Kab. Mempawah",KALIMANTAN BARAT,78919.0,Indonesia,81545750541.0,,,0.3046522,109.0197815,https://maps.google.com/?cid=0x0:0xb225316add7aae99,
mall,Toko umum,Target,"72RX+8W3, Jl. Sungai, Sungai Batang, Kec. Sungai Pinyuh, Kab. Mempawah, Kalimantan Barat 78353","Jl. Sungai, Sungai Batang, Kec. Sungai Pinyuh, Kab. Mempawah",KALIMANTAN BARAT,78353.0,Indonesia,,,,0.2907698,109.0498093,https://maps.google.com/?cid=0x0:0x90b27f124fb1b799,
mall,Pusat Perbelanjaan,Hello Segar,"Jl. Al-Falah 2 Gg. Masjid No.3, Terusan, Kec. Mempawah Hilir, Kab. Mempawah, Kalimantan Barat 78912","Terusan, Kec. Mempawah Hilir, Kab. Mempawah",KALIMANTAN BARAT,78912.0,Indonesia,,,,0.3638328,108.9533405,https://maps.google.com/?cid=0x0:0x348803626ef00e70,
mall,Pusat Perbelanjaan,Pusat soflen mempawah  yukshopping13,"9X69+3JC, Jl. Adiwijaya, Antibar, Mempawah Tim., Kab. Mempawah, Kalimantan Barat 78912","Jl. Adiwijaya, Antibar, Mempawah Tim., Kab. Mempawah",KALIMANTAN BARAT,78912.0,Indonesia,,,,0.3601803,108.9690275,https://maps.google.com/?cid=0x0:0xbcbe1894f7cf8b1d,
mall,Pusat Perbelanjaan,Gajah Mada,"Jl. Gusti M. Taufik, Terusan, Kec. Mempawah Hilir, Kab. Mempawah, Kalimantan Barat 78912","Terusan, Kec. Mempawah Hilir, Kab. Mempawah",KALIMANTAN BARAT,78912.0,Indonesia,,,,0.3623131,108.9610295,https://maps.google.com/?cid=0x0:0x38be282d1e19b0b8,
mall,Pusat Perbelanjaan,Dinshopmpwh,"9W7X+R7W, Jl. Al Falah, Tengah, Kec. Mempawah Hilir, Kab. Mempawah, Kalimantan Barat 78912","Jl. Al Falah, Tengah, Kec. Mempawah Hilir, Kab. Mempawah",KALIMANTAN BARAT,78912.0,Indonesia,,,,0.3642496,108.9474433,https://maps.google.com/?cid=0x0:0x17ab6357ca19d4af,
mall,Klinik Kesehatan,apotik k.ion nano,"8249+2GC, Jl. Raya Sungai Bakau Besar Laut, Sungai Bakau Kecil, Mempawah Tim., Kab. Mempawah, Kalimantan Barat 78919","Jl. Raya Sungai Bakau Besar Laut, Sungai Bakau Kecil, Mempawah Tim., Kab. Mempawah",KALIMANTAN BARAT,78919.0,Indonesia,85654599786.0,,,0.3050674,109.0187738,https://maps.google.com/?cid=0x0:0x1d764a600940df04,
mall,Pusat Perbelanjaan,Lana WateR,"9X87+X8Q, menuju masuk keraton Amantubillah, Samping Toko bangunan Ajung, Jl. Adiwijaya, Pulau Pedalaman, Mempawah Tim., Kab. Mempawah, Kalimantan Barat 78912","menuju masuk keraton Amantubillah, Samping Toko bangunan Ajung, Jl. Adiwijaya, Pulau Pedalaman, Mempawah Tim., Kab. Mempawah",KALIMANTAN BARAT,78912.0,Indonesia,,,,0.3674692,108.963372,https://maps.google.com/?cid=0x0:0x37ac16bd778bdc34,
mall,Pusat Perbelanjaan,JAYA PONSEL,"Jl. Melati, Tengah, Kec. Mempawah Hilir, Kab. Mempawah, Kalimantan Barat 78912","Tengah, Kec. Mempawah Hilir, Kab. Mempawah",KALIMANTAN BARAT,78912.0,Indonesia,,,,0.3635256,108.9596674,https://maps.google.com/?cid=0x0:0x65866cdb23750791,
mall,Minimarket,toko cucuh,"9X66+H9G, Tengah, Kec. Mempawah Hilir, Kab. Mempawah, Kalimantan Barat 78912","Tengah, Kec. Mempawah Hilir, Kab. Mempawah",KALIMANTAN BARAT,78912.0,Indonesia,,,,0.361441,108.96096,https://maps.google.com/?cid=0x0:0xb62dbccccad92b75,
mall,Indonesia,warung mak usu,"C242+4MF, Pasir, Kec. Mempawah Hilir, Kab. Mempawah, Kalimantan Barat 78918","Pasir, Kec. Mempawah Hilir, Kab. Mempawah",KALIMANTAN BARAT,78918.0,Indonesia,,,,0.4053125,109.0016693,https://maps.google.com/?cid=0x0:0xe683f59001f90173,
mall,Pusat Perbelanjaan,Toko nazla,"82HW+H4C, Sei Bakau Besar Laut, Kec. Sungai Pinyuh, Kab. Mempawah, Kalimantan Barat 78919","Sei Bakau Besar Laut, Kec. Sungai Pinyuh, Kab. Mempawah",KALIMANTAN BARAT,78919.0,Indonesia,85828499025.0,,,0.3289393,109.0452789,https://maps.google.com/?cid=0x0:0xe5bf085373ade3eb,
mall,Pusat Perbelanjaan,Allina shop,"Jl. Abu bakar kompleks abrasi nam hoi Rt 37 RW 001 no 5c kelurahan terusan Kecamatan membawahi, Tengah, Kec. Mempawah Hilir, Kab. Mempawah, Kalimantan Barat 78912","Tengah, Kec. Mempawah Hilir, Kab. Mempawah",KALIMANTAN BARAT,78912.0,Indonesia,,,,0.3489471,108.9412834,https://maps.google.com/?cid=0x0:0x1dc558a71a23737a,
mall,Komplek perumahan,SIMPANG 4 PENTEX THIRUX,"G583+7RW, Pentek, Kec. Sadaniang, Kab. Mempawah, Kalimantan Barat 78361","Pentek, Kec. Sadaniang, Kab. Mempawah",KALIMANTAN BARAT,78361.0,Indonesia,,,,0.515749,109.1545719,https://maps.google.com/?cid=0x0:0xa76e52c3cd0ba26d,
mall,Toko sembako pemerintah,Toko Mak Ipan,"9X93+Q6P, Jl. Mane Pak Kasih gang cemara, Terusan, Kec. Mempawah Hilir, Kab. Mempawah, Kalimantan Barat 78912","Jl. Mane Pak Kasih gang cemara, Terusan, Kec. Mempawah Hilir, Kab. Mempawah",KALIMANTAN BARAT,78912.0,Indonesia,,,,0.3694501,108.953085,https://maps.google.com/?cid=0x0:0xe5b56cbe914e0cd3,
mall,Pusat Perbelanjaan,Irmafajriahstore,"9X73+PX2, Terusan, Kec. Mempawah Hilir, Kab. Mempawah, Kalimantan Barat 78912","Terusan, Kec. Mempawah Hilir, Kab. Mempawah",KALIMANTAN BARAT,78912.0,Indonesia,89677528689.0,,,0.3642599,108.954903,https://maps.google.com/?cid=0x0:0xf095fb089519a88f,
mall,Toko Ikan Tropis,Atlantis Aquarium Shop,"9X66+H9X, Tengah, Kec. Mempawah Hilir, Kab. Mempawah, Kalimantan Barat 78912","Tengah, Kec. Mempawah Hilir, Kab. Mempawah",KALIMANTAN BARAT,78912.0,Indonesia,,,,0.3614873,108.960971,https://maps.google.com/?cid=0x0:0x96f15f4d820449be,
mall,,toko Sabako Tiasa,"9X89+4Q4, Jl. Pangsuma, Antibar, Mempawah Tim., Kab. Mempawah, Kalimantan Barat 78912","Jl. Pangsuma, Antibar, Mempawah Tim., Kab. Mempawah",KALIMANTAN BARAT,78912.0,Indonesia,82155558559.0,,,0.3652684,108.9694656,https://maps.google.com/?cid=0x0:0x534832add10e65ce,
mall,mall,Kalimantan Barat 78915,"Mempawah Tim., Kab. Mempawah, Kalimantan Barat","Kab. Mempawah, Kalimantan Barat",KALIMANTAN BARAT,,Indonesia,,,,0.3321557,109.0037125,https://maps.google.com/?cid=0x0:0x60a67c9fdfb60fc2,
mall,Toko Pakaian Bekas,Lelong Dedi,"jl.raya, Parit Banjar, Mempawah Tim., Kab. Mempawah, Kalimantan Barat 78919","Parit Banjar, Mempawah Tim., Kab. Mempawah",KALIMANTAN BARAT,78919.0,Indonesia,81545750541.0,,,0.3046522,109.0197815,https://maps.google.com/?cid=0x0:0xb225316add7aae99,
mall,Klinik Kesehatan,apotik k.ion nano,"8249+2GC, Jl. Raya Sungai Bakau Besar Laut, Sungai Bakau Kecil, Mempawah Tim., Kab. Mempawah, Kalimantan Barat 78919","Jl. Raya Sungai Bakau Besar Laut, Sungai Bakau Kecil, Mempawah Tim., Kab. Mempawah",KALIMANTAN BARAT,78919.0,Indonesia,85654599786.0,,,0.3050674,109.0187738,https://maps.google.com/?cid=0x0:0x1d764a600940df04,
mall,mall,Ibu mariani idris,"8257+GHJ, Jl. Raya Sungai Bakau Besar Laut, Sungai Bakau Kecil, Mempawah Tim., Kab. Mempawah, Kalimantan Barat 78919","Jl. Raya Sungai Bakau Besar Laut, Sungai Bakau Kecil, Mempawah Tim., Kab. Mempawah",KALIMANTAN BARAT,78919.0,Indonesia,,,,0.3088464,109.0138868,https://maps.google.com/?cid=0x0:0xd6ccc80eaef762f,
mall,mall,Kalimantan Barat 78916,"Mempawah Tim., Kab. Mempawah, Kalimantan Barat","Kab. Mempawah, Kalimantan Barat",KALIMANTAN BARAT,,Indonesia,,,,0.3521619,109.0126281,https://maps.google.com/?cid=0x0:0x66eee1d0eba280ad,
mall,Jasa penyewaan peralatan audio visual,AVP.PRODUCTION,"Antibar, Mempawah Tim., Kab. Mempawah, Kalimantan Barat 78911","Mempawah Tim., Kab. Mempawah",KALIMANTAN BARAT,78911.0,Indonesia,85828762476.0,,,0.3612026,108.984774,https://maps.google.com/?cid=0x0:0x47ca6bcfe48b47f2,
mall,Toko,Toko Mbk Upit,"9X5G+5QH, Parit Mailot, Antibar, Mempawah Tim., Kab. Mempawah, Kalimantan Barat 78911","Parit Mailot, Antibar, Mempawah Tim., Kab. Mempawah",KALIMANTAN BARAT,78911.0,Indonesia,,,,0.3579261,108.9769832,https://maps.google.com/?cid=0x0:0xd649476076d63ab,
mall,mall,Kalimantan Barat 78917,"Kab. Mempawah, Kalimantan Barat","Kab. Mempawah, Kalimantan Barat",KALIMANTAN BARAT,,Indonesia,,,,0.3943787,109.0512643,https://maps.google.com/?cid=0x0:0x2f2970a3b837ea62,
mall,Pusat Perbelanjaan,Pusat soflen mempawah  yukshopping13,"9X69+3JC, Jl. Adiwijaya, Antibar, Mempawah Tim., Kab. Mempawah, Kalimantan Barat 78912","Jl. Adiwijaya, Antibar, Mempawah Tim., Kab. Mempawah",KALIMANTAN BARAT,78912.0,Indonesia,,,,0.3601803,108.9690275,https://maps.google.com/?cid=0x0:0xbcbe1894f7cf8b1d,
mall,Toko,Robinson mm,"Jl. Melati, Tengah, Kec. Mempawah Hilir, Kab. Mempawah, Kalimantan Barat 78912","Tengah, Kec. Mempawah Hilir, Kab. Mempawah",KALIMANTAN BARAT,78912.0,Indonesia,,,,0.362693,108.9602085,https://maps.google.com/?cid=0x0:0xc62564b9d1306225,
mall,Pusat Perbelanjaan,Lina,"Jln ajelani. Alfalah:3. Gang potlot, Terusan, Kec. Mempawah Hilir, Kab. Mempawah, Kalimantan Barat 78912","Terusan, Kec. Mempawah Hilir, Kab. Mempawah",KALIMANTAN BARAT,78912.0,Indonesia,85252245788.0,,,0.3642599,108.954903,https://maps.google.com/?cid=0x0:0x17b89b8375c9c5ba,
mall,Pusat Perbelanjaan,Sumber Tiga Jaya,"9X74+3RJ, Tengah, Kec. Mempawah Hilir, Kab. Mempawah, Kalimantan Barat 78912","Tengah, Kec. Mempawah Hilir, Kab. Mempawah",KALIMANTAN BARAT,78912.0,Indonesia,81250696925.0,,,0.3627153,108.9570281,https://maps.google.com/?cid=0x0:0x9089531888895f40,
mall,Jasa penyewaan peralatan audio visual,AVP.PRODUCTION,"Antibar, Mempawah Tim., Kab. Mempawah, Kalimantan Barat 78911","Mempawah Tim., Kab. Mempawah",KALIMANTAN BARAT,78911.0,Indonesia,85828762476.0,,,0.3612026,108.984774,https://maps.google.com/?cid=0x0:0x47ca6bcfe48b47f2,
mall,,toko Sabako Tiasa,"9X89+4Q4, Jl. Pangsuma, Antibar, Mempawah Tim., Kab. Mempawah, Kalimantan Barat 78912","Jl. Pangsuma, Antibar, Mempawah Tim., Kab. Mempawah",KALIMANTAN BARAT,78912.0,Indonesia,82155558559.0,,,0.3652684,108.9694656,https://maps.google.com/?cid=0x0:0x534832add10e65ce,
mall,Pusat Perbelanjaan,Lana WateR,"9X87+X8Q, menuju masuk keraton Amantubillah, Samping Toko bangunan Ajung, Jl. Adiwijaya, Pulau Pedalaman, Mempawah Tim., Kab. Mempawah, Kalimantan Barat 78912","menuju masuk keraton Amantubillah, Samping Toko bangunan Ajung, Jl. Adiwijaya, Pulau Pedalaman, Mempawah Tim., Kab. Mempawah",KALIMANTAN BARAT,78912.0,Indonesia,,,,0.3674692,108.963372,https://maps.google.com/?cid=0x0:0x37ac16bd778bdc34,
mall,Toko,Warung culiong,"9X78+RJ4, Antibar, Mempawah Tim., Kab. Mempawah, Kalimantan Barat 78912","Antibar, Mempawah Tim., Kab. Mempawah",KALIMANTAN BARAT,78912.0,Indonesia,85885869669.0,,,0.3645051,108.9665667,https://maps.google.com/?cid=0x0:0x6263c716270199c6,
mall,Minimarket,toko cucuh,"9X66+H9G, Tengah, Kec. Mempawah Hilir, Kab. Mempawah, Kalimantan Barat 78912","Tengah, Kec. Mempawah Hilir, Kab. Mempawah",KALIMANTAN BARAT,78912.0,Indonesia,,,,0.361441,108.96096,https://maps.google.com/?cid=0x0:0xb62dbccccad92b75,
mall,Toko,TOKO SUHAIDI,"9XVC+GFF, Unnamed Road, Pasir, Kec. Mempawah Hilir, Kab. Mempawah, Kalimantan Barat 78919","Unnamed Road, Pasir, Kec. Mempawah Hilir, Kab. Mempawah",KALIMANTAN BARAT,78919.0,Indonesia,83125500571.0,,,0.3938115,108.9711626,https://maps.google.com/?cid=0x0:0x7aa07bf11570f6b9,
mall,Pusat Perbelanjaan,Gajah Mada,"Jl. Gusti M. Taufik, Terusan, Kec. Mempawah Hilir, Kab. Mempawah, Kalimantan Barat 78912","Terusan, Kec. Mempawah Hilir, Kab. Mempawah",KALIMANTAN BARAT,78912.0,Indonesia,,,,0.3623131,108.9610295,https://maps.google.com/?cid=0x0:0x38be282d1e19b0b8,
mall,Pusat Perbelanjaan,Irmafajriahstore,"9X73+PX2, Terusan, Kec. Mempawah Hilir, Kab. Mempawah, Kalimantan Barat 78912","Terusan, Kec. Mempawah Hilir, Kab. Mempawah",KALIMANTAN BARAT,78912.0,Indonesia,89677528689.0,,,0.3642599,108.954903,https://maps.google.com/?cid=0x0:0xf095fb089519a88f,
mall,Pusat Perbelanjaan,Hello Segar,"Jl. Al-Falah 2 Gg. Masjid No.3, Terusan, Kec. Mempawah Hilir, Kab. Mempawah, Kalimantan Barat 78912","Terusan, Kec. Mempawah Hilir, Kab. Mempawah",KALIMANTAN BARAT,78912.0,Indonesia,,,,0.3638328,108.9533405,https://maps.google.com/?cid=0x0:0x348803626ef00e70,
mall,Pusat Perbelanjaan,JAYA PONSEL,"Jl. Melati, Tengah, Kec. Mempawah Hilir, Kab. Mempawah, Kalimantan Barat 78912","Tengah, Kec. Mempawah Hilir, Kab. Mempawah",KALIMANTAN BARAT,78912.0,Indonesia,,,,0.3635256,108.9596674,https://maps.google.com/?cid=0x0:0x65866cdb23750791,
mall,Indonesia,warung mak usu,"C242+4MF, Pasir, Kec. Mempawah Hilir, Kab. Mempawah, Kalimantan Barat 78918","Pasir, Kec. Mempawah Hilir, Kab. Mempawah",KALIMANTAN BARAT,78918.0,Indonesia,,,,0.4053125,109.0016693,https://maps.google.com/?cid=0x0:0xe683f59001f90173,
mall,Toko Ikan Tropis,Atlantis Aquarium Shop,"9X66+H9X, Tengah, Kec. Mempawah Hilir, Kab. Mempawah, Kalimantan Barat 78912","Tengah, Kec. Mempawah Hilir, Kab. Mempawah",KALIMANTAN BARAT,78912.0,Indonesia,,,,0.3614873,108.960971,https://maps.google.com/?cid=0x0:0x96f15f4d820449be,
mall,Kantor Pemda,Badan Pertanahan Nasional Kabupaten Mempawah,"Jalan Daeng Menambon No.12, Tengah, Mempawah Hilir, Tengah, Kec. Mempawah Hilir, Mempawah, Kalimantan Barat 78911","Tengah, Mempawah Hilir, Tengah, Kec. Mempawah Hilir, Mempawah",KALIMANTAN BARAT,78911.0,Indonesia,561691004.0,,,0.3498732,108.9638282,https://maps.google.com/?cid=0x0:0x71011564d525fff7,
mall,Taman,Taman Bestari Mempawah,"9X47+Q2X, Tengah, Kec. Mempawah Hilir, Kab. Mempawah, Kalimantan Barat 78912","Tengah, Kec. Mempawah Hilir, Kab. Mempawah",KALIMANTAN BARAT,78912.0,Indonesia,,,,0.3569987,108.9626109,https://maps.google.com/?cid=0x0:0xaad980076b481f32,
mall,Pusat Perbelanjaan,SNR BUAH,"9X76+9F9, Jl. Bawal, Terusan, Kec. Mempawah Hilir, Kab. Mempawah, Kalimantan Barat 78912","Jl. Bawal, Terusan, Kec. Mempawah Hilir, Kab. Mempawah",KALIMANTAN BARAT,78912.0,Indonesia,81345563121.0,,,0.3634612,108.9612275,https://maps.google.com/?cid=0x0:0xa588dc31866e5ff,
mall,Kedai Kopi,Lokale Select Mempawah,"Jl. Sujarwo No.87-84, Tengah, Kec. Mempawah Hilir, Kab. Mempawah, Kalimantan Barat 78912","Tengah, Kec. Mempawah Hilir, Kab. Mempawah",KALIMANTAN BARAT,78912.0,Indonesia,,,,0.3627922,108.957864,https://maps.google.com/?cid=0x0:0xaa1e05a1ec71e37d,
mall,Pusat Perbelanjaan,Dapoer evie,"9X94+6CG, Jl. Gst. M. Saleh Aliuddin, Terusan, Kec. Mempawah Hilir, Kab. Mempawah, Kalimantan Barat 78912","Jl. Gst. M. Saleh Aliuddin, Terusan, Kec. Mempawah Hilir, Kab. Mempawah",KALIMANTAN BARAT,78912.0,Indonesia,,,,0.3680661,108.9560932,https://maps.google.com/?cid=0x0:0xf9628ebea41bf944,
mall,mall,Kalimantan Barat 78918,"Kec. Mempawah Hilir, Kab. Mempawah, Kalimantan Barat","Kab. Mempawah, Kalimantan Barat",KALIMANTAN BARAT,,Indonesia,,,,0.4033764,109.0156,https://maps.google.com/?cid=0x0:0xb544e15df16f3bbf,
mall,Toko,Robinson mm,"Jl. Melati, Tengah, Kec. Mempawah Hilir, Kab. Mempawah, Kalimantan Barat 78912","Tengah, Kec. Mempawah Hilir, Kab. Mempawah",KALIMANTAN BARAT,78912.0,Indonesia,,,,0.362693,108.9602085,https://maps.google.com/?cid=0x0:0xc62564b9d1306225,
mall,Pusat Perbelanjaan,Pusat soflen mempawah  yukshopping13,"9X69+3JC, Jl. Adiwijaya, Antibar, Mempawah Tim., Kab. Mempawah, Kalimantan Barat 78912","Jl. Adiwijaya, Antibar, Mempawah Tim., Kab. Mempawah",KALIMANTAN BARAT,78912.0,Indonesia,,,,0.3601803,108.9690275,https://maps.google.com/?cid=0x0:0xbcbe1894f7cf8b1d,
mall,Indonesia,warung mak usu,"C242+4MF, Pasir, Kec. Mempawah Hilir, Kab. Mempawah, Kalimantan Barat 78918","Pasir, Kec. Mempawah Hilir, Kab. Mempawah",KALIMANTAN BARAT,78918.0,Indonesia,,,,0.4053125,109.0016693,https://maps.google.com/?cid=0x0:0xe683f59001f90173,
mall,Pusat Perbelanjaan,Lina,"Jln ajelani. Alfalah:3. Gang potlot, Terusan, Kec. Mempawah Hilir, Kab. Mempawah, Kalimantan Barat 78912","Terusan, Kec. Mempawah Hilir, Kab. Mempawah",KALIMANTAN BARAT,78912.0,Indonesia,85252245788.0,,,0.3642599,108.954903,https://maps.google.com/?cid=0x0:0x17b89b8375c9c5ba,
mall,,toko Sabako Tiasa,"9X89+4Q4, Jl. Pangsuma, Antibar, Mempawah Tim., Kab. Mempawah, Kalimantan Barat 78912","Jl. Pangsuma, Antibar, Mempawah Tim., Kab. Mempawah",KALIMANTAN BARAT,78912.0,Indonesia,82155558559.0,,,0.3652684,108.9694656,https://maps.google.com/?cid=0x0:0x534832add10e65ce,
mall,Pusat Perbelanjaan,Lana WateR,"9X87+X8Q, menuju masuk keraton Amantubillah, Samping Toko bangunan Ajung, Jl. Adiwijaya, Pulau Pedalaman, Mempawah Tim., Kab. Mempawah, Kalimantan Barat 78912","menuju masuk keraton Amantubillah, Samping Toko bangunan Ajung, Jl. Adiwijaya, Pulau Pedalaman, Mempawah Tim., Kab. Mempawah",KALIMANTAN BARAT,78912.0,Indonesia,,,,0.3674692,108.963372,https://maps.google.com/?cid=0x0:0x37ac16bd778bdc34,
mall,Toko,Warung culiong,"9X78+RJ4, Antibar, Mempawah Tim., Kab. Mempawah, Kalimantan Barat 78912","Antibar, Mempawah Tim., Kab. Mempawah",KALIMANTAN BARAT,78912.0,Indonesia,85885869669.0,,,0.3645051,108.9665667,https://maps.google.com/?cid=0x0:0x6263c716270199c6,
mall,Pusat Perbelanjaan,Gajah Mada,"Jl. Gusti M. Taufik, Terusan, Kec. Mempawah Hilir, Kab. Mempawah, Kalimantan Barat 78912","Terusan, Kec. Mempawah Hilir, Kab. Mempawah",KALIMANTAN BARAT,78912.0,Indonesia,,,,0.3623131,108.9610295,https://maps.google.com/?cid=0x0:0x38be282d1e19b0b8,
mall,Jasa penyewaan peralatan audio visual,AVP.PRODUCTION,"Antibar, Mempawah Tim., Kab. Mempawah, Kalimantan Barat 78911","Mempawah Tim., Kab. Mempawah",KALIMANTAN BARAT,78911.0,Indonesia,85828762476.0,,,0.3612026,108.984774,https://maps.google.com/?cid=0x0:0x47ca6bcfe48b47f2,
mall,Pusat Perbelanjaan,Hello Segar,"Jl. Al-Falah 2 Gg. Masjid No.3, Terusan, Kec. Mempawah Hilir, Kab. Mempawah, Kalimantan Barat 78912","Terusan, Kec. Mempawah Hilir, Kab. Mempawah",KALIMANTAN BARAT,78912.0,Indonesia,,,,0.3638328,108.9533405,https://maps.google.com/?cid=0x0:0x348803626ef00e70,
mall,Pusat Perbelanjaan,Irmafajriahstore,"9X73+PX2, Terusan, Kec. Mempawah Hilir, Kab. Mempawah, Kalimantan Barat 78912","Terusan, Kec. Mempawah Hilir, Kab. Mempawah",KALIMANTAN BARAT,78912.0,Indonesia,89677528689.0,,,0.3642599,108.954903,https://maps.google.com/?cid=0x0:0xf095fb089519a88f,
mall,Minimarket,toko cucuh,"9X66+H9G, Tengah, Kec. Mempawah Hilir, Kab. Mempawah, Kalimantan Barat 78912","Tengah, Kec. Mempawah Hilir, Kab. Mempawah",KALIMANTAN BARAT,78912.0,Indonesia,,,,0.361441,108.96096,https://maps.google.com/?cid=0x0:0xb62dbccccad92b75,
mall,Pusat Perbelanjaan,JAYA PONSEL,"Jl. Melati, Tengah, Kec. Mempawah Hilir, Kab. Mempawah, Kalimantan Barat 78912","Tengah, Kec. Mempawah Hilir, Kab. Mempawah",KALIMANTAN BARAT,78912.0,Indonesia,,,,0.3635256,108.9596674,https://maps.google.com/?cid=0x0:0x65866cdb23750791,
mall,Toko,Toko Mbk Upit,"9X5G+5QH, Parit Mailot, Antibar, Mempawah Tim., Kab. Mempawah, Kalimantan Barat 78911","Parit Mailot, Antibar, Mempawah Tim., Kab. Mempawah",KALIMANTAN BARAT,78911.0,Indonesia,,,,0.3579261,108.9769832,https://maps.google.com/?cid=0x0:0xd649476076d63ab,
mall,Toko Ikan Tropis,Atlantis Aquarium Shop,"9X66+H9X, Tengah, Kec. Mempawah Hilir, Kab. Mempawah, Kalimantan Barat 78912","Tengah, Kec. Mempawah Hilir, Kab. Mempawah",KALIMANTAN BARAT,78912.0,Indonesia,,,,0.3614873,108.960971,https://maps.google.com/?cid=0x0:0x96f15f4d820449be,
mall,Kantor Pemda,Badan Pertanahan Nasional Kabupaten Mempawah,"Jalan Daeng Menambon No.12, Tengah, Mempawah Hilir, Tengah, Kec. Mempawah Hilir, Mempawah, Kalimantan Barat 78911","Tengah, Mempawah Hilir, Tengah, Kec. Mempawah Hilir, Mempawah",KALIMANTAN BARAT,78911.0,Indonesia,561691004.0,,,0.3498732,108.9638282,https://maps.google.com/?cid=0x0:0x71011564d525fff7,
mall,Toko sembako pemerintah,Toko Mak Ipan,"9X93+Q6P, Jl. Mane Pak Kasih gang cemara, Terusan, Kec. Mempawah Hilir, Kab. Mempawah, Kalimantan Barat 78912","Jl. Mane Pak Kasih gang cemara, Terusan, Kec. Mempawah Hilir, Kab. Mempawah",KALIMANTAN BARAT,78912.0,Indonesia,,,,0.3694501,108.953085,https://maps.google.com/?cid=0x0:0xe5b56cbe914e0cd3,
mall,Taman,Taman Bestari Mempawah,"9X47+Q2X, Tengah, Kec. Mempawah Hilir, Kab. Mempawah, Kalimantan Barat 78912","Tengah, Kec. Mempawah Hilir, Kab. Mempawah",KALIMANTAN BARAT,78912.0,Indonesia,,,,0.3569987,108.9626109,https://maps.google.com/?cid=0x0:0xaad980076b481f32,
mall,Tujuan Wisata,Suap,"9X73+PX2, Terusan, Kec. Mempawah Hilir, Kab. Mempawah, Kalimantan Barat","Kab. Mempawah, Kalimantan Barat",KALIMANTAN BARAT,,Indonesia,,,,0.3642599,108.954903,https://maps.google.com/?cid=0x0:0x3d3bce3333d74328,
mall,Kedai Kopi,Lokale Select Mempawah,"Jl. Sujarwo No.87-84, Tengah, Kec. Mempawah Hilir, Kab. Mempawah, Kalimantan Barat 78912","Tengah, Kec. Mempawah Hilir, Kab. Mempawah",KALIMANTAN BARAT,78912.0,Indonesia,,,,0.3627922,108.957864,https://maps.google.com/?cid=0x0:0xaa1e05a1ec71e37d,
mall,Pusat Perbelanjaan,SNR BUAH,"9X76+9F9, Jl. Bawal, Terusan, Kec. Mempawah Hilir, Kab. Mempawah, Kalimantan Barat 78912","Jl. Bawal, Terusan, Kec. Mempawah Hilir, Kab. Mempawah",KALIMANTAN BARAT,78912.0,Indonesia,81345563121.0,,,0.3634612,108.9612275,https://maps.google.com/?cid=0x0:0xa588dc31866e5ff,
mall,Pusat Perbelanjaan,Dapoer evie,"9X94+6CG, Jl. Gst. M. Saleh Aliuddin, Terusan, Kec. Mempawah Hilir, Kab. Mempawah, Kalimantan Barat 78912","Jl. Gst. M. Saleh Aliuddin, Terusan, Kec. Mempawah Hilir, Kab. Mempawah",KALIMANTAN BARAT,78912.0,Indonesia,,,,0.3680661,108.9560932,https://maps.google.com/?cid=0x0:0xf9628ebea41bf944,
mall,mall,Kalimantan Barat 78919,"Kab. Mempawah, Kalimantan Barat","Kab. Mempawah, Kalimantan Barat",KALIMANTAN BARAT,,Indonesia,,,,0.4345421,109.0334318,https://maps.google.com/?cid=0x0:0xda6992d03365a27a,
mall,Pusat Perbelanjaan,Alakazzam Penibung,"CW4W+FWV, Jl. Gusti Sulung Lelanang, Penibung, Kec. Mempawah Hilir, Kab. Mempawah, Kalimantan Barat 78919","Jl. Gusti Sulung Lelanang, Penibung, Kec. Mempawah Hilir, Kab. Mempawah",KALIMANTAN BARAT,78919.0,Indonesia,85386476798.0,,,0.4062283,108.9473025,https://maps.google.com/?cid=0x0:0x2cbb8da173bebda0,
mall,Toko,Robinson mm,"Jl. Melati, Tengah, Kec. Mempawah Hilir, Kab. Mempawah, Kalimantan Barat 78912","Tengah, Kec. Mempawah Hilir, Kab. Mempawah",KALIMANTAN BARAT,78912.0,Indonesia,,,,0.362693,108.9602085,https://maps.google.com/?cid=0x0:0xc62564b9d1306225,
mall,Pusat Perbelanjaan,Sumber Tiga Jaya,"9X74+3RJ, Tengah, Kec. Mempawah Hilir, Kab. Mempawah, Kalimantan Barat 78912","Tengah, Kec. Mempawah Hilir, Kab. Mempawah",KALIMANTAN BARAT,78912.0,Indonesia,81250696925.0,,,0.3627153,108.9570281,https://maps.google.com/?cid=0x0:0x9089531888895f40,
mall,Pusat Perbelanjaan,Pusat soflen mempawah  yukshopping13,"9X69+3JC, Jl. Adiwijaya, Antibar, Mempawah Tim., Kab. Mempawah, Kalimantan Barat 78912","Jl. Adiwijaya, Antibar, Mempawah Tim., Kab. Mempawah",KALIMANTAN BARAT,78912.0,Indonesia,,,,0.3601803,108.9690275,https://maps.google.com/?cid=0x0:0xbcbe1894f7cf8b1d,
mall,Toko,TOKO SUHAIDI,"9XVC+GFF, Unnamed Road, Pasir, Kec. Mempawah Hilir, Kab. Mempawah, Kalimantan Barat 78919","Unnamed Road, Pasir, Kec. Mempawah Hilir, Kab. Mempawah",KALIMANTAN BARAT,78919.0,Indonesia,83125500571.0,,,0.3938115,108.9711626,https://maps.google.com/?cid=0x0:0x7aa07bf11570f6b9,
mall,Salon bulu mata,FITY MUA  FITY Eyelashes,"Jl. Gusti Sulung Lelanang, Terusan, Kec. Mempawah Hilir, Kab. Mempawah, Kalimantan Barat 78919","Terusan, Kec. Mempawah Hilir, Kab. Mempawah",KALIMANTAN BARAT,78919.0,Indonesia,8164563664.0,,,0.3958125,108.9490419,https://maps.google.com/?cid=0x0:0xe6fbf0548442cd7b,
mall,Pusat Perbelanjaan,Lina,"Jln ajelani. Alfalah:3. Gang potlot, Terusan, Kec. Mempawah Hilir, Kab. Mempawah, Kalimantan Barat 78912","Terusan, Kec. Mempawah Hilir, Kab. Mempawah",KALIMANTAN BARAT,78912.0,Indonesia,85252245788.0,,,0.3642599,108.954903,https://maps.google.com/?cid=0x0:0x17b89b8375c9c5ba,
mall,Klinik Kesehatan,apotik k.ion nano,"8249+2GC, Jl. Raya Sungai Bakau Besar Laut, Sungai Bakau Kecil, Mempawah Tim., Kab. Mempawah, Kalimantan Barat 78919","Jl. Raya Sungai Bakau Besar Laut, Sungai Bakau Kecil, Mempawah Tim., Kab. Mempawah",KALIMANTAN BARAT,78919.0,Indonesia,85654599786.0,,,0.3050674,109.0187738,https://maps.google.com/?cid=0x0:0x1d764a600940df04,
mall,Toko umum,Target,"72RX+8W3, Jl. Sungai, Sungai Batang, Kec. Sungai Pinyuh, Kab. Mempawah, Kalimantan Barat 78353","Jl. Sungai, Sungai Batang, Kec. Sungai Pinyuh, Kab. Mempawah",KALIMANTAN BARAT,78353.0,Indonesia,,,,0.2907698,109.0498093,https://maps.google.com/?cid=0x0:0x90b27f124fb1b799,
mall,Pusat Perbelanjaan,Lana WateR,"9X87+X8Q, menuju masuk keraton Amantubillah, Samping Toko bangunan Ajung, Jl. Adiwijaya, Pulau Pedalaman, Mempawah Tim., Kab. Mempawah, Kalimantan Barat 78912","menuju masuk keraton Amantubillah, Samping Toko bangunan Ajung, Jl. Adiwijaya, Pulau Pedalaman, Mempawah Tim., Kab. Mempawah",KALIMANTAN BARAT,78912.0,Indonesia,,,,0.3674692,108.963372,https://maps.google.com/?cid=0x0:0x37ac16bd778bdc34,
mall,Pusat Perbelanjaan,Omah Siregar,"Jl. Chandramidi No.2, Tengah, Kec. Mempawah Hilir, Kab. Mempawah, Kalimantan Barat 78911","Tengah, Kec. Mempawah Hilir, Kab. Mempawah",KALIMANTAN BARAT,78911.0,Indonesia,82322458886.0,,,0.3512287,108.9604755,https://maps.google.com/?cid=0x0:0xc28ebc7c32c742e1,
mall,Pusat Perbelanjaan,Dinshopmpwh,"9W7X+R7W, Jl. Al Falah, Tengah, Kec. Mempawah Hilir, Kab. Mempawah, Kalimantan Barat 78912","Jl. Al Falah, Tengah, Kec. Mempawah Hilir, Kab. Mempawah",KALIMANTAN BARAT,78912.0,Indonesia,,,,0.3642496,108.9474433,https://maps.google.com/?cid=0x0:0x17ab6357ca19d4af,
mall,Pusat Perbelanjaan,Gajah Mada,"Jl. Gusti M. Taufik, Terusan, Kec. Mempawah Hilir, Kab. Mempawah, Kalimantan Barat 78912","Terusan, Kec. Mempawah Hilir, Kab. Mempawah",KALIMANTAN BARAT,78912.0,Indonesia,,,,0.3623131,108.9610295,https://maps.google.com/?cid=0x0:0x38be282d1e19b0b8,
mall,Indonesia,warung mak usu,"C242+4MF, Pasir, Kec. Mempawah Hilir, Kab. Mempawah, Kalimantan Barat 78918","Pasir, Kec. Mempawah Hilir, Kab. Mempawah",KALIMANTAN BARAT,78918.0,Indonesia,,,,0.4053125,109.0016693,https://maps.google.com/?cid=0x0:0xe683f59001f90173,
mall,Pusat Perbelanjaan,Hello Segar,"Jl. Al-Falah 2 Gg. Masjid No.3, Terusan, Kec. Mempawah Hilir, Kab. Mempawah, Kalimantan Barat 78912","Terusan, Kec. Mempawah Hilir, Kab. Mempawah",KALIMANTAN BARAT,78912.0,Indonesia,,,,0.3638328,108.9533405,https://maps.google.com/?cid=0x0:0x348803626ef00e70,
mall,,toko Sabako Tiasa,"9X89+4Q4, Jl. Pangsuma, Antibar, Mempawah Tim., Kab. Mempawah, Kalimantan Barat 78912","Jl. Pangsuma, Antibar, Mempawah Tim., Kab. Mempawah",KALIMANTAN BARAT,78912.0,Indonesia,82155558559.0,,,0.3652684,108.9694656,https://maps.google.com/?cid=0x0:0x534832add10e65ce,
mall,Pusat Perbelanjaan,Toko nazla,"82HW+H4C, Sei Bakau Besar Laut, Kec. Sungai Pinyuh, Kab. Mempawah, Kalimantan Barat 78919","Sei Bakau Besar Laut, Kec. Sungai Pinyuh, Kab. Mempawah",KALIMANTAN BARAT,78919.0,Indonesia,85828499025.0,,,0.3289393,109.0452789,https://maps.google.com/?cid=0x0:0xe5bf085373ade3eb,
mall,Minimarket,toko cucuh,"9X66+H9G, Tengah, Kec. Mempawah Hilir, Kab. Mempawah, Kalimantan Barat 78912","Tengah, Kec. Mempawah Hilir, Kab. Mempawah",KALIMANTAN BARAT,78912.0,Indonesia,,,,0.361441,108.96096,https://maps.google.com/?cid=0x0:0xb62dbccccad92b75,
mall,Komplek perumahan,SIMPANG 4 PENTEX THIRUX,"G583+7RW, Pentek, Kec. Sadaniang, Kab. Mempawah, Kalimantan Barat 78361","Pentek, Kec. Sadaniang, Kab. Mempawah",KALIMANTAN BARAT,78361.0,Indonesia,,,,0.515749,109.1545719,https://maps.google.com/?cid=0x0:0xa76e52c3cd0ba26d,
mall,Toko,Warung culiong,"9X78+RJ4, Antibar, Mempawah Tim., Kab. Mempawah, Kalimantan Barat 78912","Antibar, Mempawah Tim., Kab. Mempawah",KALIMANTAN BARAT,78912.0,Indonesia,85885869669.0,,,0.3645051,108.9665667,https://maps.google.com/?cid=0x0:0x6263c716270199c6,
mall,Pusat Perbelanjaan,Irmafajriahstore,"9X73+PX2, Terusan, Kec. Mempawah Hilir, Kab. Mempawah, Kalimantan Barat 78912","Terusan, Kec. Mempawah Hilir, Kab. Mempawah",KALIMANTAN BARAT,78912.0,Indonesia,89677528689.0,,,0.3642599,108.954903,https://maps.google.com/?cid=0x0:0xf095fb089519a88f,
mall,mall,Kalimantan Barat 78361,"Kab. Mempawah, Kalimantan Barat","Kab. Mempawah, Kalimantan Barat",KALIMANTAN BARAT,,Indonesia,,,,0.5145069,109.1642208,https://maps.google.com/?cid=0x0:0x4d77c778caf4a493,
mall,Komplek perumahan,SIMPANG 4 PENTEX THIRUX,"G583+7RW, Pentek, Kec. Sadaniang, Kab. Mempawah, Kalimantan Barat 78361","Pentek, Kec. Sadaniang, Kab. Mempawah",KALIMANTAN BARAT,78361.0,Indonesia,,,,0.515749,109.1545719,https://maps.google.com/?cid=0x0:0xa76e52c3cd0ba26d,
mall,Pasar tradisional,Pasar Tempoak,"Jalan Tempoak, Menjalin, Landak, 78362, Pentek, Kec. Sadaniang, Kab. Mempawah, Kalimantan Barat 79362","Menjalin, Landak,",KALIMANTAN BARAT,78362.0,Indonesia,85391239884.0,,,0.5414424,109.2385383,https://maps.google.com/?cid=0x0:0x161224f664ee7621,
mall,Pasar tradisional,Pasar Sekabuk,"G42H+7R7, Unnamed Road, Sekabuk, Kec. Sadaniang, Kab. Mempawah, Kalimantan Barat 78361","Unnamed Road, Sekabuk, Kec. Sadaniang, Kab. Mempawah",KALIMANTAN BARAT,78361.0,Indonesia,,,,0.5006534,109.1295452,https://maps.google.com/?cid=0x0:0xc849d89b5128d667,
mall,Minimarket,Indomaret Raya Takong,"C7H9+XHV, Sepang, Kec. Toho, Kab. Mempawah, Kalimantan Barat 78361","Sepang, Kec. Toho, Kab. Mempawah",KALIMANTAN BARAT,78361.0,Indonesia,,,,0.4299861,109.2689283,https://maps.google.com/?cid=0x0:0x819aaa4ed558514d,
mall,Toko bahan makanan,Toko Pak Dea,"C7M6+JJ2, Sepang, Kec. Toho, Kab. Mempawah, Kalimantan Barat 78361","Sepang, Kec. Toho, Kab. Mempawah",KALIMANTAN BARAT,78361.0,Indonesia,,,,0.4340162,109.2615129,https://maps.google.com/?cid=0x0:0x37f1aabbfeda917d,
mall,Layanan Transportasi,Pasar Menjalin,"F89Q+V2H, Jalan Raya, Sepahat, Kec. Menjalin, Kabupaten Landak, Kalimantan Barat 79362","Jalan Raya, Sepahat, Kec. Menjalin, Kabupaten Landak",KALIMANTAN BARAT,79362.0,Indonesia,,,,0.4696994,109.3376006,https://maps.google.com/?cid=0x0:0x7ad6a45fb2c8cbef,
mall,Toko Kelontong Asia,Toko Pito,"C7GC+GXG desa pak utan, Sepang, Kec. Toho, Kab. Mempawah, Kalimantan Barat 78361","Sepang, Kec. Toho, Kab. Mempawah",KALIMANTAN BARAT,78361.0,Indonesia,,,,0.4263007,109.27246,https://maps.google.com/?cid=0x0:0xf3d90b79e0c200ac,
mall,Pasar,Galeri rodaduasampaitua,"9589+PW3, Anjungan Melancar, Kec. Anjongan, Kab. Mempawah, Kalimantan Barat 78353","Anjungan Melancar, Kec. Anjongan, Kab. Mempawah",KALIMANTAN BARAT,78353.0,Indonesia,81335809631.0,,,0.3667646,109.1697889,https://maps.google.com/?cid=0x0:0x2aa39d0e4b3526e2,
mall,Komplek perumahan,Kediaman NIKO DEMUS,"F83H+HP2, Seibandung, Kec. Menjalin, Kabupaten Landak, Kalimantan Barat 79362","Seibandung, Kec. Menjalin, Kabupaten Landak",KALIMANTAN BARAT,79362.0,Indonesia,85750571488.0,,,0.4538978,109.3292511,https://maps.google.com/?cid=0x0:0xffd7d301fc75ba4d,
mall,Pemasok Air Minum Dalam Kemasan,Vrigel qua,"85WV+543, Kepayang, Kec. Anjongan, Kab. Mempawah, Kalimantan Barat 78353","Kepayang, Kec. Anjongan, Kab. Mempawah",KALIMANTAN BARAT,78353.0,Indonesia,,,,0.3453958,109.1928042,https://maps.google.com/?cid=0x0:0xa410c1f0f4aaa14d,
mall,Toko,Rumah Muliadi (Pak Nandot),"Kayu Tanam, Kec. Mandor, Kabupaten Landak, Kalimantan Barat","Kabupaten Landak, Kalimantan Barat",KALIMANTAN BARAT,,Indonesia,,,,0.3150605,109.2668091,https://maps.google.com/?cid=0x0:0x6e1b909e48af63fc,
mall,Toko Ponsel,LORA CELL,"86R4+Q7F, Unnamed Road, Pak Bulu, Kec. Anjongan, Kab. Mempawah, Kalimantan Barat 78353","Unnamed Road, Pak Bulu, Kec. Anjongan, Kab. Mempawah",KALIMANTAN BARAT,78353.0,Indonesia,85822595883.0,,,0.3419426,109.2056767,https://maps.google.com/?cid=0x0:0xad17a6b6d9187673,
mall,Toko umum,Target,"72RX+8W3, Jl. Sungai, Sungai Batang, Kec. Sungai Pinyuh, Kab. Mempawah, Kalimantan Barat 78353","Jl. Sungai, Sungai Batang, Kec. Sungai Pinyuh, Kab. Mempawah",KALIMANTAN BARAT,78353.0,Indonesia,,,,0.2907698,109.0498093,https://maps.google.com/?cid=0x0:0x90b27f124fb1b799,
mall,Kantor Perusahaan,Bengkel maman,"86V3+C4G, Pak Bulu, Kec. Anjongan, Kab. Mempawah, Kalimantan Barat 78353","Pak Bulu, Kec. Anjongan, Kab. Mempawah",KALIMANTAN BARAT,78353.0,Indonesia,,,,0.3435535,109.20282,https://maps.google.com/?cid=0x0:0x2c53ef5b94270d0b,
mall,Kantor Perusahaan,"Arki, JNE GOMEDIA","F82H+QJJ, Jl. Anjungan - Bengkayang, Sepahat, Kec. Menjalin, Kabupaten Landak, Kalimantan Barat 79362","Jl. Anjungan - Bengkayang, Sepahat, Kec. Menjalin, Kabupaten Landak",KALIMANTAN BARAT,79362.0,Indonesia,82256482492.0,,,0.4519586,109.3290207,https://maps.google.com/?cid=0x0:0x9198d009ac3e62d8,
mall,mall,Kalimantan Barat 78351,"Kab. Mempawah, Kalimantan Barat","Kab. Mempawah, Kalimantan Barat",KALIMANTAN BARAT,,Indonesia,,,,0.1057515,109.3307345,https://maps.google.com/?cid=0x0:0x746d9e30687aa03a,
mall,Pasar,Pasar simpang segedong,"5526+V6W, Sungai Burung, Segedong, Kab. Mempawah, Kalimantan Barat 78351","Sungai Burung, Segedong, Kab. Mempawah",KALIMANTAN BARAT,78351.0,Indonesia,,,,0.1522457,109.1605797,https://maps.google.com/?cid=0x0:0xd9ece4fd0fd70cd4,
mall,Pusat Perbelanjaan,Bright day,"5652+PJV, Peniti Besar, Segedong, Mempawah Regency, West Kalimantan 78351","Peniti Besar, Segedong, Mempawah Regency",KALIMANTAN BARAT,78351.0,Indonesia,,,,0.1593625,109.2015469,https://maps.google.com/?cid=0x0:0x50fe9e40a78bf47d,
mall,Pusat Bisnis,Siantan Grand mall,"2838+6VM, Batu Layang, Kec. Pontianak Utara, Kota Pontianak, Kalimantan Barat","Kota Pontianak, Kalimantan Barat",KALIMANTAN BARAT,,Indonesia,,,,0.0030923,109.3171563,https://maps.google.com/?cid=0x0:0xb0d9703d2b3ad308,
mall,Toko,Toko kakek jas,"563Q+PW4, Parit Gedong Intan, Peniti Dalam I, Segedong, Kab. Mempawah, Kalimantan Barat 78351","Parit Gedong Intan, Peniti Dalam I, Segedong, Kab. Mempawah",KALIMANTAN BARAT,78351.0,Indonesia,,,,0.1542674,109.2398293,https://maps.google.com/?cid=0x0:0x34d8c5b15adb3311,
mall,Toko umum,E-Waroeng Kaktik,"3694+4H6, Sei Nipah, Kec. Jongkat, Kab. Mempawah, Kalimantan Barat 78351","Sei Nipah, Kec. Jongkat, Kab. Mempawah",KALIMANTAN BARAT,78351.0,Indonesia,83151973511.0,,,0.0677939,109.2064004,https://maps.google.com/?cid=0x0:0x7fac051d3ad795f5,
mall,Toko,WAJOK SUPERMALL,"279G+877, Jl. Wajok Hilir, Wajok Hulu, Kec. Jongkat, Kab. Mempawah, Kalimantan Barat 78351","Jl. Wajok Hilir, Wajok Hulu, Kec. Jongkat, Kab. Mempawah",KALIMANTAN BARAT,78351.0,Indonesia,5614241193.0,,,0.0183415,109.2756811,https://maps.google.com/?cid=0x0:0x91f8108e4b6c9730,
mall,Mal outlet,Pontianak Mall,"X89P+C7H, Jl. Teuku Umar, Darat Sekip, Kec. Pontianak Kota, Kota Pontianak, Kalimantan Barat 78243","Jl. Teuku Umar, Darat Sekip, Kec. Pontianak Kota, Kota Pontianak",KALIMANTAN BARAT,78243.0,Indonesia,,,,-0.0314263,109.3357298,https://maps.google.com/?cid=0x0:0x3786f44dd7e8543,
mall,Toko,Ruko Herta,"Jl. Khatulistiwa No.43, Wajok Hulu, Kec. Jongkat, Kab. Mempawah, Kalimantan Barat 78351","Wajok Hulu, Kec. Jongkat, Kab. Mempawah",KALIMANTAN BARAT,78351.0,Indonesia,82158860070.0,,,0.0273699,109.2557317,https://maps.google.com/?cid=0x0:0x14ce2c42ce427b71,
mall,Markas Besar Suku,Pansa Store,"Jl. Raya Wajok Hilir (km12,5) No.14, Wajok Hilir, Kec. Jongkat, Kab. Mempawah, Kalimantan Barat 78351","Wajok Hilir, Kec. Jongkat, Kab. Mempawah",KALIMANTAN BARAT,78351.0,Indonesia,82362007200.0,,,0.0351929,109.2489471,https://maps.google.com/?cid=0x0:0x1bf70bbe7c720aaa,
mall,Pusat Perbelanjaan,UFC Pontiana,"284R+54M, Jl. Budi Utomo, Siantan Hilir, Kec. Pontianak Utara, Kota Pontianak, Kalimantan Barat 78243","Jl. Budi Utomo, Siantan Hilir, Kec. Pontianak Utara, Kota Pontianak",KALIMANTAN BARAT,78243.0,Indonesia,81348907117.0,,,0.0054573,109.340285,https://maps.google.com/?cid=0x0:0x933eb9531db57aa1,
mall,Toko Alat Pancing,Toko pancing suheng,"5652+Q9V, Jl. Parit Bugis, Parit Bugis, Segedong, Kab. Mempawah, Kalimantan Barat 78351","Jl. Parit Bugis, Parit Bugis, Segedong, Kab. Mempawah",KALIMANTAN BARAT,78351.0,Indonesia,85245170098.0,,,0.1592016,109.2010499,https://maps.google.com/?cid=0x0:0x5f323f2ec6e80e2,
mall,Toko Kacamata Hitam,K-Ion Nano kecamatan Siantan,"27CF+44C, Jl. Raya Wajok Hulu, Wajok Hulu, Kec. Jongkat, Kab. Mempawah, Kalimantan Barat 78351","Jl. Raya Wajok Hulu, Wajok Hulu, Kec. Jongkat, Kab. Mempawah",KALIMANTAN BARAT,78351.0,Indonesia,895359011968.0,,,0.0203081,109.2727537,https://maps.google.com/?cid=0x0:0x10985d79a3225854,
mall,Toko bahan makanan,Agen Telur Ayam Segedong,"552W+QRV, Unnamed Road, Segedong, Parit Bugis, Segedong, Kab. Mempawah, Kalimantan Barat 78351","Unnamed Road, Segedong, Parit Bugis, Segedong, Kab. Mempawah",KALIMANTAN BARAT,78351.0,Indonesia,85738111744.0,,,0.151979,109.1970408,https://maps.google.com/?cid=0x0:0xda28336f5835f76c,
mall,Pusat Perbelanjaan,NILA SEGAR PONTIANAK,"282W+W9M, Siantan Hilir, Kec. Pontianak Utara, Kota Pontianak, Kalimantan Barat 78243","Siantan Hilir, Kec. Pontianak Utara, Kota Pontianak",KALIMANTAN BARAT,78243.0,Indonesia,85158939979.0,,,0.0023262,109.3459097,https://maps.google.com/?cid=0x0:0x469a003377ae82da,
mall,Pusat Perbelanjaan,JEMI ANEKA,"X8PX+627, Gg. Masa Jaya II, Siantan Tengah, Kec. Pontianak Utara, Kota Pontianak, Kalimantan Barat 78243","Gg. Masa Jaya II, Siantan Tengah, Kec. Pontianak Utara, Kota Pontianak",KALIMANTAN BARAT,78243.0,Indonesia,895321260403.0,,,-0.0144583,109.3475589,https://maps.google.com/?cid=0x0:0x1b7219b7786fab8e,
mall,Pusat Bisnis,Mall Matahari,"Jl. Jendral Urip Sumoharjo No.1, Tengah, Kec. Pontianak Kota, Kota Pontianak, Kalimantan Barat 78243","Tengah, Kec. Pontianak Kota, Kota Pontianak",KALIMANTAN BARAT,78243.0,Indonesia,561766667.0,,,-0.0247212,109.3367663,https://maps.google.com/?cid=0x0:0x783e2af9252259e3,
mall,Kantor Pemerintahan Wilayah,Kantor Desa Peniti Besar,"Desa, Peniti Besar, Segedong, Kab. Mempawah, Kalimantan Barat 78351","Peniti Besar, Segedong, Kab. Mempawah",KALIMANTAN BARAT,78351.0,Indonesia,,,,0.1601072,109.2005751,https://maps.google.com/?cid=0x0:0x64ff110e893d839d,
mall,Toko Pakaian Remaja,Kedai Muslimah,"3684+XMC, Jl. Dharma Putra, RT.004/RW.013, Jungkat, Kec. Jongkat, Kab. Mempawah, Kalimantan Barat 78351","Jl. Dharma Putra, RT.004/RW.013, Jungkat, Kec. Jongkat, Kab. Mempawah",KALIMANTAN BARAT,78351.0,Indonesia,89693629445.0,,,0.0674377,109.2066551,https://maps.google.com/?cid=0x0:0xac23a45646d84589,
mall,mall,...,"Jl. Raya Wajok Hulu, Wajok Hulu, Kec. Jongkat, Kab. Mempawah, Kalimantan Barat 78351","Wajok Hulu, Kec. Jongkat, Kab. Mempawah",KALIMANTAN BARAT,78351.0,Indonesia,,,,0.0220909,109.2687223,https://maps.google.com/?cid=0x0:0xba8b64d9c12bd17f,
mall,Toko Herbal,Halal Mart ANA,"Peniti Besar, Segedong, Kab. Mempawah, Kalimantan Barat 78351","Segedong, Kab. Mempawah",KALIMANTAN BARAT,78351.0,Indonesia,82396058971.0,,,0.2154456,109.2004269,https://maps.google.com/?cid=0x0:0xffcf860b56289630,
mall,Pusat Perbelanjaan,TOKO JUPHENG,"6522+7C8, Jl. Swadaya, Sungai Purun Besar, Segedong, Kab. Mempawah, Kalimantan Barat 78353","Jl. Swadaya, Sungai Purun Besar, Segedong, Kab. Mempawah",KALIMANTAN BARAT,78353.0,Indonesia,,,,0.2006503,109.151073,https://maps.google.com/?cid=0x0:0x718e5828c68aaf57,
mall,mall,Toko no15,"5652+PM2, Parit Bugis, Segedong, Kab. Mempawah, Kalimantan Barat","Kab. Mempawah, Kalimantan Barat",KALIMANTAN BARAT,,Indonesia,,,,0.1592704,109.201642,https://maps.google.com/?cid=0x0:0x6088a3874c98cc7,
mall,Pasar,Pasar Teratai,"X8V6+7J8, Jl. Komodor Yos Sudarso, Sungai Jawi Luar, Kec. Pontianak Bar., Kota Pontianak, Kalimantan Barat 78113","Jl. Komodor Yos Sudarso, Sungai Jawi Luar, Kec. Pontianak Bar., Kota Pontianak",KALIMANTAN BARAT,78113.0,Indonesia,,,,-0.0068447,109.3115897,https://maps.google.com/?cid=0x0:0xd98cbf7ef7506e2c,
mall,Pusat Perbelanjaan,Qony Latansa (Market dan grosir),"Jl. Dharma Putra, Siantan Hilir, Kec. Pontianak Utara, Kota Pontianak, Kalimantan Barat 78243","Siantan Hilir, Kec. Pontianak Utara, Kota Pontianak",KALIMANTAN BARAT,78243.0,Indonesia,,,,-0.0023373,109.3428888,https://maps.google.com/?cid=0x0:0x8cd35699a62df6bc,
mall,Minimarket,Toko MH jaya (ecer  grosir),"Jl. Dharma Putra Gg. Dharma Putra 15 No.Depan, Siantan Hilir, Kec. Pontianak Utara, Kota Pontianak, Kalimantan Barat 78243","Siantan Hilir, Kec. Pontianak Utara, Kota Pontianak",KALIMANTAN BARAT,78243.0,Indonesia,81549081380.0,,,-0.0050074,109.3424673,https://maps.google.com/?cid=0x0:0x4427492f83b5561d,
mall,Toko Herbal,Collagen Marine,"Jl Dharma Usaha, Wajok Hilir, Kec. Jongkat, Mempawah, Kalimantan Barat 78351","Wajok Hilir, Kec. Jongkat, Mempawah",KALIMANTAN BARAT,78351.0,Indonesia,82152420363.0,,,0.0674097,109.2235509,https://maps.google.com/?cid=0x0:0x64c67536313c5a6b,
mall,mall,Kec. Jongkat,"Kab. Mempawah, Kalimantan Barat","Kab. Mempawah, Kalimantan Barat",KALIMANTAN BARAT,,Indonesia,,,,0.0634606,109.2031882,https://maps.google.com/?cid=0x0:0x2c7b4eaee305cd8a,
mall,Pusat Bisnis,Siantan Grand mall,"2838+6VM, Batu Layang, Kec. Pontianak Utara, Kota Pontianak, Kalimantan Barat","Kota Pontianak, Kalimantan Barat",KALIMANTAN BARAT,,Indonesia,,,,0.0030923,109.3171563,https://maps.google.com/?cid=0x0:0xb0d9703d2b3ad308,
mall,Mal outlet,Pontianak Mall,"X89P+C7H, Jl. Teuku Umar, Darat Sekip, Kec. Pontianak Kota, Kota Pontianak, Kalimantan Barat 78243","Jl. Teuku Umar, Darat Sekip, Kec. Pontianak Kota, Kota Pontianak",KALIMANTAN BARAT,78243.0,Indonesia,,,,-0.0314263,109.3357298,https://maps.google.com/?cid=0x0:0x3786f44dd7e8543,
mall,Pusat Perbelanjaan,UFC Pontiana,"284R+54M, Jl. Budi Utomo, Siantan Hilir, Kec. Pontianak Utara, Kota Pontianak, Kalimantan Barat 78243","Jl. Budi Utomo, Siantan Hilir, Kec. Pontianak Utara, Kota Pontianak",KALIMANTAN BARAT,78243.0,Indonesia,81348907117.0,,,0.0054573,109.340285,https://maps.google.com/?cid=0x0:0x933eb9531db57aa1,
mall,Mal outlet,Ayani Megamall,"Jl. Jenderal Ahmad Yani No.4, Parit Tokaya, Kec. Pontianak Sel., Kota Pontianak, Kalimantan Barat 78113","Parit Tokaya, Kec. Pontianak Sel., Kota Pontianak",KALIMANTAN BARAT,78113.0,Indonesia,561763888.0,,,-0.051244,109.345662,https://maps.google.com/?cid=0x0:0x5217d4caea80b3d0,
mall,Pusat Bisnis,Mall Matahari,"Jl. Jendral Urip Sumoharjo No.1, Tengah, Kec. Pontianak Kota, Kota Pontianak, Kalimantan Barat 78243","Tengah, Kec. Pontianak Kota, Kota Pontianak",KALIMANTAN BARAT,78243.0,Indonesia,561766667.0,,,-0.0247212,109.3367663,https://maps.google.com/?cid=0x0:0x783e2af9252259e3,
mall,Markas Besar Suku,Pansa Store,"Jl. Raya Wajok Hilir (km12,5) No.14, Wajok Hilir, Kec. Jongkat, Kab. Mempawah, Kalimantan Barat 78351","Wajok Hilir, Kec. Jongkat, Kab. Mempawah",KALIMANTAN BARAT,78351.0,Indonesia,82362007200.0,,,0.0351929,109.2489471,https://maps.google.com/?cid=0x0:0x1bf70bbe7c720aaa,
mall,Toko,TB Asia Gemilang,"45X5+W5F, Peniti Luar, Kec. Jongkat, Kab. Mempawah, Kalimantan Barat 78351","Peniti Luar, Kec. Jongkat, Kab. Mempawah",KALIMANTAN BARAT,78351.0,Indonesia,82255635599.0,,,0.1498099,109.1579084,https://maps.google.com/?cid=0x0:0x2aa2242ceb7e844a,
mall,Pusat Perbelanjaan,Pd Gemilang S.M,"35JP+626, Sei Nipah, Kec. Jongkat, Kab. Mempawah, Kalimantan Barat 78351","Sei Nipah, Kec. Jongkat, Kab. Mempawah",KALIMANTAN BARAT,78351.0,Indonesia,,,,0.0805332,109.1850156,https://maps.google.com/?cid=0x0:0xd0912a07cbf61ec7,
mall,Toko,Ruko Herta,"Jl. Khatulistiwa No.43, Wajok Hulu, Kec. Jongkat, Kab. Mempawah, Kalimantan Barat 78351","Wajok Hulu, Kec. Jongkat, Kab. Mempawah",KALIMANTAN BARAT,78351.0,Indonesia,82158860070.0,,,0.0273699,109.2557317,https://maps.google.com/?cid=0x0:0x14ce2c42ce427b71,
mall,Toko umum,E-Waroeng Kaktik,"3694+4H6, Sei Nipah, Kec. Jongkat, Kab. Mempawah, Kalimantan Barat 78351","Sei Nipah, Kec. Jongkat, Kab. Mempawah",KALIMANTAN BARAT,78351.0,Indonesia,83151973511.0,,,0.0677939,109.2064004,https://maps.google.com/?cid=0x0:0x7fac051d3ad795f5,
mall,Toko,WAJOK SUPERMALL,"279G+877, Jl. Wajok Hilir, Wajok Hulu, Kec. Jongkat, Kab. Mempawah, Kalimantan Barat 78351","Jl. Wajok Hilir, Wajok Hulu, Kec. Jongkat, Kab. Mempawah",KALIMANTAN BARAT,78351.0,Indonesia,5614241193.0,,,0.0183415,109.2756811,https://maps.google.com/?cid=0x0:0x91f8108e4b6c9730,
mall,Mal outlet,Mall Ramayana,"Jl. Tanjung Pura, Benua Melayu Laut, Kec. Pontianak Sel., Kota Pontianak, Kalimantan Barat 78123","Benua Melayu Laut, Kec. Pontianak Sel., Kota Pontianak",KALIMANTAN BARAT,78123.0,Indonesia,561747014.0,,,-0.036985,109.3474475,https://maps.google.com/?cid=0x0:0x6986d23d56e441c3,
mall,Toko,Pusat Souvenir Pontianak (PSP),"X8FQ+J66, Jl. Patimura, Darat Sekip, Kec. Pontianak Kota, Kota Pontianak, Kalimantan Barat 78243","Jl. Patimura, Darat Sekip, Kec. Pontianak Kota, Kota Pontianak",KALIMANTAN BARAT,78243.0,Indonesia,,,,-0.0259649,109.338025,https://maps.google.com/?cid=0x0:0x901fefc48dbeb79f,
mall,Toko Swalayan,Ls Shop,"3692+576, Sei Nipah, Kec. Jongkat, Kab. Mempawah, Kalimantan Barat 78351","Sei Nipah, Kec. Jongkat, Kab. Mempawah",KALIMANTAN BARAT,78351.0,Indonesia,,,,0.0679021,109.2006375,https://maps.google.com/?cid=0x0:0x4d8faf7f30e881ac,
mall,Pusat Perbelanjaan,Kha Nia olshop,"Jl. Budi Utomo No.5, Siantan Hilir, Kec. Pontianak Utara, Kota Pontianak, Kalimantan Barat 78243","Siantan Hilir, Kec. Pontianak Utara, Kota Pontianak",KALIMANTAN BARAT,78243.0,Indonesia,85750817752.0,,,0.0059867,109.3426978,https://maps.google.com/?cid=0x0:0x8c67d2019a8f52a0,
mall,Toko Swalayan,Citra Siantan Pasar Swalayan  Dept. Store,"X8JW+H7J, Jl. Gusti Situt Mahmud, Siantan Tengah, Kec. Pontianak Utara, Kota Pontianak, Kalimantan Barat 78243","Jl. Gusti Situt Mahmud, Siantan Tengah, Kec. Pontianak Utara, Kota Pontianak",KALIMANTAN BARAT,78243.0,Indonesia,,,,-0.0185436,109.3456415,https://maps.google.com/?cid=0x0:0xa7e1608cceddacd8,
mall,Dealer Honda,Pos Honda NSS,"359W+CF5, Sei Nipah, Kec. Jongkat, Kab. Mempawah, Kalimantan Barat 78351","Sei Nipah, Kec. Jongkat, Kab. Mempawah",KALIMANTAN BARAT,78351.0,Indonesia,89531318201.0,,,0.0685125,109.1962277,https://maps.google.com/?cid=0x0:0x491d6f26d0fb5e1b,
mall,Pasar,Pasar simpang segedong,"5526+V6W, Sungai Burung, Segedong, Kab. Mempawah, Kalimantan Barat 78351","Sungai Burung, Segedong, Kab. Mempawah",KALIMANTAN BARAT,78351.0,Indonesia,,,,0.1522457,109.1605797,https://maps.google.com/?cid=0x0:0xd9ece4fd0fd70cd4,
mall,Toko bahan makanan,VikaShop,"X8V5+C7V, Jl. Komodor Yos Sudarso Gg. Kurma Jaya, Sungai Beliung, Kec. Pontianak Bar., Kota Pontianak, Kalimantan Barat 78244","Jl. Komodor Yos Sudarso Gg. Kurma Jaya, Sungai Beliung, Kec. Pontianak Bar., Kota Pontianak",KALIMANTAN BARAT,78244.0,Indonesia,85787693994.0,,,-0.006378,109.308186,https://maps.google.com/?cid=0x0:0xff16a18acb5c1787,
mall,Minimarket,Toko MH jaya (ecer  grosir),"Jl. Dharma Putra Gg. Dharma Putra 15 No.Depan, Siantan Hilir, Kec. Pontianak Utara, Kota Pontianak, Kalimantan Barat 78243","Siantan Hilir, Kec. Pontianak Utara, Kota Pontianak",KALIMANTAN BARAT,78243.0,Indonesia,81549081380.0,,,-0.0050074,109.3424673,https://maps.google.com/?cid=0x0:0x4427492f83b5561d,
mall,Minimarket,Toko Johan,"X8WJ+FH3, Siantan Hilir, Kec. Pontianak Utara, Kota Pontianak, Kalimantan Barat 78243","Siantan Hilir, Kec. Pontianak Utara, Kota Pontianak",KALIMANTAN BARAT,78243.0,Indonesia,89689290393.0,,,-0.0038699,109.3314352,https://maps.google.com/?cid=0x0:0x9f3585238ff8fb5c,
mall,Toko Ponsel,Toko Accesories,"X8JV+H2H, Jl. Terminal Siantan, Siantan Tengah, Kec. Pontianak Utara, Kota Pontianak, Kalimantan Barat 78243","Jl. Terminal Siantan, Siantan Tengah, Kec. Pontianak Utara, Kota Pontianak",KALIMANTAN BARAT,78243.0,Indonesia,,,,-0.0185555,109.3426062,https://maps.google.com/?cid=0x0:0xb117841d93d01166,
mall,mall,Parkir Citra Siantan,"X9M4+C44, Jl. Gusti Situt Mahmud, Siantan Hulu, Kec. Pontianak Utara, Kota Pontianak, Kalimantan Barat 78243","Jl. Gusti Situt Mahmud, Siantan Hulu, Kec. Pontianak Utara, Kota Pontianak",KALIMANTAN BARAT,78243.0,Indonesia,,,,-0.0164764,109.3553418,https://maps.google.com/?cid=0x0:0xd31bdd3c46e0f06b,
mall,mall,Kec. Jongkat,"Kab. Mempawah, Kalimantan Barat","Kab. Mempawah, Kalimantan Barat",KALIMANTAN BARAT,,Indonesia,,,,0.0634606,109.2031882,https://maps.google.com/?cid=0x0:0x2c7b4eaee305cd8a,
mall,Pusat Bisnis,Siantan Grand mall,"2838+6VM, Batu Layang, Kec. Pontianak Utara, Kota Pontianak, Kalimantan Barat","Kota Pontianak, Kalimantan Barat",KALIMANTAN BARAT,,Indonesia,,,,0.0030923,109.3171563,https://maps.google.com/?cid=0x0:0xb0d9703d2b3ad308,
mall,Toko Kacamata Hitam,K-Ion Nano kecamatan Siantan,"27CF+44C, Jl. Raya Wajok Hulu, Wajok Hulu, Kec. Jongkat, Kab. Mempawah, Kalimantan Barat 78351","Jl. Raya Wajok Hulu, Wajok Hulu, Kec. Jongkat, Kab. Mempawah",KALIMANTAN BARAT,78351.0,Indonesia,895359011968.0,,,0.0203081,109.2727537,https://maps.google.com/?cid=0x0:0x10985d79a3225854,
mall,Pusat Perbelanjaan,UFC Pontiana,"284R+54M, Jl. Budi Utomo, Siantan Hilir, Kec. Pontianak Utara, Kota Pontianak, Kalimantan Barat 78243","Jl. Budi Utomo, Siantan Hilir, Kec. Pontianak Utara, Kota Pontianak",KALIMANTAN BARAT,78243.0,Indonesia,81348907117.0,,,0.0054573,109.340285,https://maps.google.com/?cid=0x0:0x933eb9531db57aa1,
mall,Pusat Perbelanjaan,Qony Latansa (Market dan grosir),"Jl. Dharma Putra, Siantan Hilir, Kec. Pontianak Utara, Kota Pontianak, Kalimantan Barat 78243","Siantan Hilir, Kec. Pontianak Utara, Kota Pontianak",KALIMANTAN BARAT,78243.0,Indonesia,,,,-0.0023373,109.3428888,https://maps.google.com/?cid=0x0:0x8cd35699a62df6bc,
mall,Pusat Bisnis,Mall Matahari,"Jl. Jendral Urip Sumoharjo No.1, Tengah, Kec. Pontianak Kota, Kota Pontianak, Kalimantan Barat 78243","Tengah, Kec. Pontianak Kota, Kota Pontianak",KALIMANTAN BARAT,78243.0,Indonesia,561766667.0,,,-0.0247212,109.3367663,https://maps.google.com/?cid=0x0:0x783e2af9252259e3,
mall,Minimarket,Toko Johan,"X8WJ+FH3, Siantan Hilir, Kec. Pontianak Utara, Kota Pontianak, Kalimantan Barat 78243","Siantan Hilir, Kec. Pontianak Utara, Kota Pontianak",KALIMANTAN BARAT,78243.0,Indonesia,89689290393.0,,,-0.0038699,109.3314352,https://maps.google.com/?cid=0x0:0x9f3585238ff8fb5c,
mall,Minimarket,Toko MH jaya (ecer  grosir),"Jl. Dharma Putra Gg. Dharma Putra 15 No.Depan, Siantan Hilir, Kec. Pontianak Utara, Kota Pontianak, Kalimantan Barat 78243","Siantan Hilir, Kec. Pontianak Utara, Kota Pontianak",KALIMANTAN BARAT,78243.0,Indonesia,81549081380.0,,,-0.0050074,109.3424673,https://maps.google.com/?cid=0x0:0x4427492f83b5561d,
mall,Markas Besar Suku,Pansa Store,"Jl. Raya Wajok Hilir (km12,5) No.14, Wajok Hilir, Kec. Jongkat, Kab. Mempawah, Kalimantan Barat 78351","Wajok Hilir, Kec. Jongkat, Kab. Mempawah",KALIMANTAN BARAT,78351.0,Indonesia,82362007200.0,,,0.0351929,109.2489471,https://maps.google.com/?cid=0x0:0x1bf70bbe7c720aaa,
mall,Toko,Ruko Herta,"Jl. Khatulistiwa No.43, Wajok Hulu, Kec. Jongkat, Kab. Mempawah, Kalimantan Barat 78351","Wajok Hulu, Kec. Jongkat, Kab. Mempawah",KALIMANTAN BARAT,78351.0,Indonesia,82158860070.0,,,0.0273699,109.2557317,https://maps.google.com/?cid=0x0:0x14ce2c42ce427b71,
mall,Mal outlet,Mall Ramayana,"Jl. Tanjung Pura, Benua Melayu Laut, Kec. Pontianak Sel., Kota Pontianak, Kalimantan Barat 78123","Benua Melayu Laut, Kec. Pontianak Sel., Kota Pontianak",KALIMANTAN BARAT,78123.0,Indonesia,561747014.0,,,-0.036985,109.3474475,https://maps.google.com/?cid=0x0:0x6986d23d56e441c3,
mall,Toko,TB Asia Gemilang,"45X5+W5F, Peniti Luar, Kec. Jongkat, Kab. Mempawah, Kalimantan Barat 78351","Peniti Luar, Kec. Jongkat, Kab. Mempawah",KALIMANTAN BARAT,78351.0,Indonesia,82255635599.0,,,0.1498099,109.1579084,https://maps.google.com/?cid=0x0:0x2aa2242ceb7e844a,
mall,Pusat Perbelanjaan,Pd Gemilang S.M,"35JP+626, Sei Nipah, Kec. Jongkat, Kab. Mempawah, Kalimantan Barat 78351","Sei Nipah, Kec. Jongkat, Kab. Mempawah",KALIMANTAN BARAT,78351.0,Indonesia,,,,0.0805332,109.1850156,https://maps.google.com/?cid=0x0:0xd0912a07cbf61ec7,
mall,Toko Swalayan,In Mart,"Idol siantan, Siantan Tengah, Kec. Pontianak Utara, Kota Pontianak, Kalimantan Barat 78351","Siantan Tengah, Kec. Pontianak Utara, Kota Pontianak",KALIMANTAN BARAT,78351.0,Indonesia,,,,-0.0167045,109.3407165,https://maps.google.com/?cid=0x0:0x4c71523440d4f6c2,
mall,Toko umum,E-Waroeng Kaktik,"3694+4H6, Sei Nipah, Kec. Jongkat, Kab. Mempawah, Kalimantan Barat 78351","Sei Nipah, Kec. Jongkat, Kab. Mempawah",KALIMANTAN BARAT,78351.0,Indonesia,83151973511.0,,,0.0677939,109.2064004,https://maps.google.com/?cid=0x0:0x7fac051d3ad795f5,
mall,Toko,WAJOK SUPERMALL,"279G+877, Jl. Wajok Hilir, Wajok Hulu, Kec. Jongkat, Kab. Mempawah, Kalimantan Barat 78351","Jl. Wajok Hilir, Wajok Hulu, Kec. Jongkat, Kab. Mempawah",KALIMANTAN BARAT,78351.0,Indonesia,5614241193.0,,,0.0183415,109.2756811,https://maps.google.com/?cid=0x0:0x91f8108e4b6c9730,
mall,Mi,SIANTAN,"276R+MH8, Jl. Khatulistiwa, Wajok Hulu, Kec. Jongkat, Kab. Mempawah, Kalimantan Barat 78351","Jl. Khatulistiwa, Wajok Hulu, Kec. Jongkat, Kab. Mempawah",KALIMANTAN BARAT,78351.0,Indonesia,82172006899.0,,,0.0116725,109.291449,https://maps.google.com/?cid=0x0:0xf2eff368b50ec766,
mall,Pusat Bisnis,"PONTIANAK,KALIMANTAN BARAT,INDONESIA","Jl. Jenderal Ahmad Yani No.114, Bansir Laut, Kec. Pontianak Tenggara, Kota Pontianak, Kalimantan Barat 78112","Bansir Laut, Kec. Pontianak Tenggara, Kota Pontianak",KALIMANTAN BARAT,78112.0,Indonesia,,,,-0.0518414,109.3452545,https://maps.google.com/?cid=0x0:0x7feda136237c68de,
mall,Toko Swalayan,Citra Siantan Pasar Swalayan  Dept. Store,"X8JW+H7J, Jl. Gusti Situt Mahmud, Siantan Tengah, Kec. Pontianak Utara, Kota Pontianak, Kalimantan Barat 78243","Jl. Gusti Situt Mahmud, Siantan Tengah, Kec. Pontianak Utara, Kota Pontianak",KALIMANTAN BARAT,78243.0,Indonesia,,,,-0.0185436,109.3456415,https://maps.google.com/?cid=0x0:0xa7e1608cceddacd8,
mall,Toko Swalayan,Ls Shop,"3692+576, Sei Nipah, Kec. Jongkat, Kab. Mempawah, Kalimantan Barat 78351","Sei Nipah, Kec. Jongkat, Kab. Mempawah",KALIMANTAN BARAT,78351.0,Indonesia,,,,0.0679021,109.2006375,https://maps.google.com/?cid=0x0:0x4d8faf7f30e881ac,
mall,Pusat Perbelanjaan,NILA SEGAR PONTIANAK,"282W+W9M, Siantan Hilir, Kec. Pontianak Utara, Kota Pontianak, Kalimantan Barat 78243","Siantan Hilir, Kec. Pontianak Utara, Kota Pontianak",KALIMANTAN BARAT,78243.0,Indonesia,85158939979.0,,,0.0023262,109.3459097,https://maps.google.com/?cid=0x0:0x469a003377ae82da,
mall,Pasar,Kompleks Siantan Indah,"Siantan Tengah, Kec. Pontianak Utara, Kota Pontianak, Kalimantan Barat 78243","Kec. Pontianak Utara, Kota Pontianak",KALIMANTAN BARAT,78243.0,Indonesia,,,,-0.0181523,109.3430991,https://maps.google.com/?cid=0x0:0x46a92a36af2ffc53,
mall,Pasar,Pasar simpang segedong,"5526+V6W, Sungai Burung, Segedong, Kab. Mempawah, Kalimantan Barat 78351","Sungai Burung, Segedong, Kab. Mempawah",KALIMANTAN BARAT,78351.0,Indonesia,,,,0.1522457,109.1605797,https://maps.google.com/?cid=0x0:0xd9ece4fd0fd70cd4,
mall,Dealer Honda,Pos Honda NSS,"359W+CF5, Sei Nipah, Kec. Jongkat, Kab. Mempawah, Kalimantan Barat 78351","Sei Nipah, Kec. Jongkat, Kab. Mempawah",KALIMANTAN BARAT,78351.0,Indonesia,89531318201.0,,,0.0685125,109.1962277,https://maps.google.com/?cid=0x0:0x491d6f26d0fb5e1b,
mall,Pusat Perbelanjaan,Homestore,"Gg. Pisang Berangan No.46, Sungai Jawi Luar, Kec. Pontianak Bar., Kota Pontianak, Kalimantan Barat 78244","Sungai Jawi Luar, Kec. Pontianak Bar., Kota Pontianak",KALIMANTAN BARAT,78244.0,Indonesia,,,,-0.0093282,109.3164826,https://maps.google.com/?cid=0x0:0xb4819aafc1a17408,
mall,Toko bahan makanan,VikaShop,"X8V5+C7V, Jl. Komodor Yos Sudarso Gg. Kurma Jaya, Sungai Beliung, Kec. Pontianak Bar., Kota Pontianak, Kalimantan Barat 78244","Jl. Komodor Yos Sudarso Gg. Kurma Jaya, Sungai Beliung, Kec. Pontianak Bar., Kota Pontianak",KALIMANTAN BARAT,78244.0,Indonesia,85787693994.0,,,-0.006378,109.308186,https://maps.google.com/?cid=0x0:0xff16a18acb5c1787,
mall,Pasar,Pasar Teratai,"X8V6+7J8, Jl. Komodor Yos Sudarso, Sungai Jawi Luar, Kec. Pontianak Bar., Kota Pontianak, Kalimantan Barat 78113","Jl. Komodor Yos Sudarso, Sungai Jawi Luar, Kec. Pontianak Bar., Kota Pontianak",KALIMANTAN BARAT,78113.0,Indonesia,,,,-0.0068447,109.3115897,https://maps.google.com/?cid=0x0:0xd98cbf7ef7506e2c,
mall,Komplek perumahan,Kantor Camat Toho,"C67C+WXG, Pak Laheng, Kec. Toho, Kab. Mempawah, Kalimantan Barat 78361","Pak Laheng, Kec. Toho, Kab. Mempawah",KALIMANTAN BARAT,78361.0,Indonesia,,,,0.4148203,109.2224621,https://maps.google.com/?cid=0x0:0xb515266777a2b6e4,
mall,Tengara budaya,Toho,"C67C+RWC, Pak Laheng, Kec. Toho, Kab. Mempawah, Kalimantan Barat","Kab. Mempawah, Kalimantan Barat",KALIMANTAN BARAT,,Indonesia,,,,0.4145726,109.2222756,https://maps.google.com/?cid=0x0:0x982551b00f8d6f23,
mall,mall,Toho,"Terap, Kec. Toho, Kab. Mempawah, Kalimantan Barat","Kab. Mempawah, Kalimantan Barat",KALIMANTAN BARAT,,Indonesia,,,,0.410227,109.225197,https://maps.google.com/?cid=0x0:0xc66e4bcddef1e471,
mall,Pusat Perbelanjaan,Bintaro Jaya Xchange Mall 2,"Jl. Lkr. Jaya No.12, Pd. Jaya, Kec. Pd. Aren, Kota Tangerang Selatan, Banten 15220","Pd. Jaya, Kec. Pd. Aren, Kota Tangerang Selatan",KALIMANTAN BARAT,15220.0,Indonesia,,,,-6.2857762,106.7292823,https://maps.google.com/?cid=0x0:0x6da7ff8662ae3675,
mall,Pusat Perbelanjaan,Bintaro Jaya Xchange Mall,"Jl. Lkr. Jaya No.24, Pd. Jaya, Kec. Pd. Aren, Tangerang, Banten 15227","Pd. Jaya, Kec. Pd. Aren, Tangerang",KALIMANTAN BARAT,15227.0,Indonesia,2129865000.0,,,-6.2853789,106.7276002,https://maps.google.com/?cid=0x0:0x7a92959c5f05e001,
mall,Kedai Kopi,TOMORO COFFEE - Bintaro Jaya Xchange Mall 2,"Bintaro Jaya Xchange Mall 2 Lantai 1, Jl. Lkr. Jaya No.12 Lt. FF, No. FF-S, 31Pd. Jaya, Kec. Pd. Aren, Kota Tangerang Selatan, Banten 15220","Jl. Lkr. Jaya No.12 Lt. FF, No. FF-S, 31Pd. Jaya, Kec. Pd. Aren, Kota Tangerang Selatan",KALIMANTAN BARAT,15220.0,Indonesia,81119983131.0,,,-6.2863331,106.7283421,https://maps.google.com/?cid=0x0:0x7e624f9dcbe1d5ca,
supermarket,supermarket,Kalimantan Barat 78353,"Kab. Mempawah, Kalimantan Barat","Kab. Mempawah, Kalimantan Barat",KALIMANTAN BARAT,,Indonesia,,,,0.3185487,109.140438,https://maps.google.com/?cid=0x0:0x6cd6802715e150c2,
supermarket,Toko bahan makanan,INDAH MART,"9578+46F, Anjungan Melancar, Kec. Anjongan, Kab. Mempawah, Kalimantan Barat 78353","Anjungan Melancar, Kec. Anjongan, Kab. Mempawah",KALIMANTAN BARAT,78353.0,Indonesia,,,,0.3628159,109.1655465,https://maps.google.com/?cid=0x0:0xed3ec26e75df28ad,
supermarket,Toko Swalayan,Warung Iyan,"Unnamed Road, Anjungan Melancar, Kec. Anjongan, Kab. Mempawah, Kalimantan Barat 78353","Anjungan Melancar, Kec. Anjongan, Kab. Mempawah",KALIMANTAN BARAT,78353.0,Indonesia,89508702233.0,,,0.3615032,109.1686828,https://maps.google.com/?cid=0x0:0xe83fbc7ea620f021,
supermarket,Toko Swalayan,MM Idola Anjongan,"9567+9R5, Anjungan Melancar, Kec. Anjongan, Kab. Mempawah, Kalimantan Barat 78353","Anjungan Melancar, Kec. Anjongan, Kab. Mempawah",KALIMANTAN BARAT,78353.0,Indonesia,81346359709.0,,,0.3608905,109.1646067,https://maps.google.com/?cid=0x0:0x8ef5bfd7582aea41,
supermarket,Toko bahan makanan,Toko dan gudang Jaya Mas,"73FM+PWW, Sungai Pinyuh, Kec. Sungai Pinyuh, Kab. Mempawah, Kalimantan Barat 78353","Sungai Pinyuh, Kec. Sungai Pinyuh, Kab. Mempawah",KALIMANTAN BARAT,78353.0,Indonesia,,,,0.2743637,109.084825,https://maps.google.com/?cid=0x0:0x2fac5fe72d50c5b,
supermarket,Toko bahan makanan,Alfamart,"Jl. Raya Anjungan Desa, RT.009/RW.002, Anjungan Dalam, Kec. Anjongan, Kab. Mempawah, Kalimantan Barat 78353","RT.009/RW.002, Anjungan Dalam, Kec. Anjongan, Kab. Mempawah",KALIMANTAN BARAT,78353.0,Indonesia,1500959.0,,,0.3622279,109.1646293,https://maps.google.com/?cid=0x0:0xd6d1254285c3065f,
supermarket,Toko Swalayan,MM Sahabat Kita,"954F+7R6, Anjungan Melancar, Kec. Anjongan, Kab. Mempawah, Kalimantan Barat 78353","Anjungan Melancar, Kec. Anjongan, Kab. Mempawah",KALIMANTAN BARAT,78353.0,Indonesia,,,,0.3556647,109.1745191,https://maps.google.com/?cid=0x0:0x9895acf48b517c16,
supermarket,Toko,Toko HUSIN,"Anjungan - Karangan Jl. Ps. Bujur, Anjungan Melancar, Kec. Anjongan, Kab. Mempawah, Kalimantan Barat 78954","Anjungan Melancar, Kec. Anjongan, Kab. Mempawah",KALIMANTAN BARAT,78954.0,Indonesia,85821781428.0,,,0.3611275,109.1647812,https://maps.google.com/?cid=0x0:0xb9d57e50f08d8f13,
supermarket,Toko Swalayan,Toko Eka,"54XX+FGP, Sungai Purun Besar, Segedong, Kab. Mempawah, Kalimantan Barat 78353","Sungai Purun Besar, Segedong, Kab. Mempawah",KALIMANTAN BARAT,78353.0,Indonesia,,,,0.1987053,109.1488396,https://maps.google.com/?cid=0x0:0xdecb4de077873724,
supermarket,Minimarket,Alfamart Anjungan Melancar,"9525+422, Anjungan Melancar, Kec. Anjongan, Kab. Mempawah, Kalimantan Barat 78353","Anjungan Melancar, Kec. Anjongan, Kab. Mempawah",KALIMANTAN BARAT,78353.0,Indonesia,,,,0.3502593,109.1575126,https://maps.google.com/?cid=0x0:0xb37325aebdc0717e,
supermarket,Pasar,Tugu pasar bujur anjungan melancar,"9568+X2W, Jl. Lintas Kalimantan Poros Tengah, Anjungan Melancar, Kec. Anjongan, Kab. Mempawah, Kalimantan Barat 78353","Jl. Lintas Kalimantan Poros Tengah, Anjungan Melancar, Kec. Anjongan, Kab. Mempawah",KALIMANTAN BARAT,78353.0,Indonesia,,,,0.3624951,109.1650848,https://maps.google.com/?cid=0x0:0x47eb26b11d54e4c,
supermarket,Toko bahan makanan,MM Sehati,"Anjungan Melancar, Kec. Anjongan, Kab. Mempawah, Kalimantan Barat 78353","Kec. Anjongan, Kab. Mempawah",KALIMANTAN BARAT,78353.0,Indonesia,,,,0.3620599,109.1648126,https://maps.google.com/?cid=0x0:0xcb0cc13b6a164580,
supermarket,Pasar,Toho Mart,"95RJ+C2V, Kecurit, Kec. Toho, Kab. Mempawah, Kalimantan Barat 78353","Kecurit, Kec. Toho, Kab. Mempawah",KALIMANTAN BARAT,78353.0,Indonesia,,,,0.3911143,109.1800468,https://maps.google.com/?cid=0x0:0x88b1d5ae0280aa73,
supermarket,Toko,Toko Mulia,"85M2+C7H, Anjungan Melancar, Kec. Anjongan, Kab. Mempawah, Kalimantan Barat 78353","Anjungan Melancar, Kec. Anjongan, Kab. Mempawah",KALIMANTAN BARAT,78353.0,Indonesia,82157985629.0,,,0.3335533,109.150743,https://maps.google.com/?cid=0x0:0x6dac7948dbd4dc36,
supermarket,Toko Swalayan,Toko sembako CAHAYA BARU IBU TINAH,"94FW+C49, Jl. Anjongan - Mempawah, Anjungan Melancar, Kec. Anjongan, Kab. Mempawah, Kalimantan Barat 78353","Jl. Anjongan - Mempawah, Anjungan Melancar, Kec. Anjongan, Kab. Mempawah",KALIMANTAN BARAT,78353.0,Indonesia,,,,0.3735455,109.1453525,https://maps.google.com/?cid=0x0:0x91ca5111b2fd8e8b,
supermarket,Toko bahan makanan,Indomaret Anjongan,"9567+CFX, Anjungan Melancar, Kec. Anjongan, Kab. Mempawah, Kalimantan Barat 78353","Anjungan Melancar, Kec. Anjongan, Kab. Mempawah",KALIMANTAN BARAT,78353.0,Indonesia,,,,0.3611001,109.1637404,https://maps.google.com/?cid=0x0:0x759ae8238c681e0a,
supermarket,Toko bahan makanan,JUVEN mart,"73J8+83V, Jl. Raya Sei Pinyuh Mempawah, Galang, Kec. Sungai Pinyuh, Kab. Mempawah, Kalimantan Barat 78353","Jl. Raya Sei Pinyuh Mempawah, Galang, Kec. Sungai Pinyuh, Kab. Mempawah",KALIMANTAN BARAT,78353.0,Indonesia,,,,0.2808741,109.0651588,https://maps.google.com/?cid=0x0:0x420f0fecd3eaea88,
supermarket,Toko,INDOMARET Sungai Pinyuh Anjungan,"73GP+XP7, Jl. Lintas Kalimantan Poros Tengah, Sungai Pinyuh, Kec. Sungai Pinyuh, Kab. Mempawah, Kalimantan Barat 78353","Jl. Lintas Kalimantan Poros Tengah, Sungai Pinyuh, Kec. Sungai Pinyuh, Kab. Mempawah",KALIMANTAN BARAT,78353.0,Indonesia,,,,0.2774124,109.0867953,https://maps.google.com/?cid=0x0:0x5324239910b88c57,
supermarket,Minimarket,INDOMARET RAYA PENIRAMAN,"64M8+36J, Peniraman, Kec. Sungai Pinyuh, Kab. Mempawah, Kalimantan Barat 78353","Peniraman, Kec. Sungai Pinyuh, Kab. Mempawah",KALIMANTAN BARAT,78353.0,Indonesia,,,,0.232719,109.1155137,https://maps.google.com/?cid=0x0:0xc12f8ec74251d296,
supermarket,Layanan Distribusi,MITRA AGUNG MART,"Sungai Pinyuh, Kec. Sungai Pinyuh, Kab. Mempawah, Kalimantan Barat 78353","Kec. Sungai Pinyuh, Kab. Mempawah",KALIMANTAN BARAT,78353.0,Indonesia,81258797052.0,,,0.2786918,109.0760717,https://maps.google.com/?cid=0x0:0xea4c62ff27130126,
supermarket,Toko,Toko Ya'kub,"Unnamed Road, 78353, Sei Bakau Besar Darat, Kec. Sungai Pinyuh, Kab. Mempawah, Kalimantan Barat 78353","78353, Sei Bakau Besar Darat, Kec. Sungai Pinyuh, Kab. Mempawah",KALIMANTAN BARAT,78353.0,Indonesia,,,,0.3056534,109.0748033,https://maps.google.com/?cid=0x0:0x42b97e10b11919c2,
supermarket,supermarket,Kalimantan Barat 78911,"Kab. Mempawah, Kalimantan Barat","Kab. Mempawah, Kalimantan Barat",KALIMANTAN BARAT,,Indonesia,,,,0.3411275,108.9680522,https://maps.google.com/?cid=0x0:0xb4343e5cd7f539a5,
supermarket,Toko Swalayan,RYN'S Mart,"Tengah, Kec. Mempawah Hilir, Kab. Mempawah, Kalimantan Barat 78912","Kec. Mempawah Hilir, Kab. Mempawah",KALIMANTAN BARAT,78912.0,Indonesia,,,,0.3575277,108.9621786,https://maps.google.com/?cid=0x0:0x25ebc4fe7c21c086,
supermarket,Toko Swalayan,DF MART,"9X34+GW8, Jl. Rumah Sakit Dr. Rubini, Tengah, Kec. Mempawah Hilir, Kab. Mempawah, Kalimantan Barat 78912","Jl. Rumah Sakit Dr. Rubini, Tengah, Kec. Mempawah Hilir, Kab. Mempawah",KALIMANTAN BARAT,78912.0,Indonesia,,,,0.353779,108.9573128,https://maps.google.com/?cid=0x0:0x2127e62900cbe30b,
supermarket,Toko Kelontong Asia,MINIMARKET SIMPLY MART,"Jl. Gusti M. Taufik, Terusan, Kec. Mempawah Hilir, Kab. Mempawah, Kalimantan Barat 78912","Terusan, Kec. Mempawah Hilir, Kab. Mempawah",KALIMANTAN BARAT,78912.0,Indonesia,82256852250.0,,,0.3666134,108.9607014,https://maps.google.com/?cid=0x0:0xcd67e1efd43e3142,
supermarket,Minimarket,Alfamart,"Jl. Adiwijaya, RT.04/RW.02, Antibar, Kec. Mempawah Hilir, Kab. Mempawah, Kalimantan Barat 78917","RT.04/RW.02, Antibar, Kec. Mempawah Hilir, Kab. Mempawah",KALIMANTAN BARAT,78917.0,Indonesia,1500959.0,,,0.3645441,108.9662636,https://maps.google.com/?cid=0x0:0x94b96a9edea5ab63,
supermarket,Toko bahan makanan,Dafira Sellular,"9XC7+Q7W Raje Pulsa / Raje Shop, Pulau Pedalaman, Mempawah Tim., Kab. Mempawah, Kalimantan Barat 78912","Pulau Pedalaman, Mempawah Tim., Kab. Mempawah",KALIMANTAN BARAT,78912.0,Indonesia,85754665155.0,,,0.3719774,108.9631938,https://maps.google.com/?cid=0x0:0x8b21d64f32bf17e9,
supermarket,Minimarket,Alfamart,"Jl. Gusti M. Taufik, RT.010/RW.011, Terusan, Kec. Mempawah Hilir, Kab. Mempawah, Kalimantan Barat 78912","RT.010/RW.011, Terusan, Kec. Mempawah Hilir, Kab. Mempawah",KALIMANTAN BARAT,78912.0,Indonesia,1500959.0,,,0.363025,108.9611542,https://maps.google.com/?cid=0x0:0x55323a837105c1ae,
supermarket,Minimarket,Alfamart,"Sujarwo, Jl. Daeng Manambon, Lainnya, Kec. Mempawah Hilir, Kab. Mempawah, Bali 78951","Jl. Daeng Manambon, Lainnya, Kec. Mempawah Hilir, Kab. Mempawah",KALIMANTAN BARAT,78951.0,Indonesia,1500959.0,,,0.3628685,108.9573212,https://maps.google.com/?cid=0x0:0xd7a44e520940ae3c,
supermarket,Pengolahan Ikan,Lapak Ikan Basah Pak Su,"9X89+3HV, Jl. Pangsuma, Antibar, Mempawah Tim., Kab. Mempawah, Kalimantan Barat","Kab. Mempawah, Kalimantan Barat",KALIMANTAN BARAT,,Indonesia,,,,0.3652343,108.9689349,https://maps.google.com/?cid=0x0:0x24d655bcb34cdd2a,
supermarket,Kafe,KTamb Minimart,"Jl. Gusti M. Taufik, Terusan, Kec. Mempawah Hilir, Kab. Mempawah, Kalimantan Barat 78912","Terusan, Kec. Mempawah Hilir, Kab. Mempawah",KALIMANTAN BARAT,78912.0,Indonesia,,,,0.3672927,108.9605206,https://maps.google.com/?cid=0x0:0xa7702e93751b077d,
supermarket,Minimarket,Zulkarnaen MZ,"8XMM+828, Unnamed Road, Pasir Panjang, Mempawah Tim., Kab. Mempawah, Kalimantan Barat 78911","Unnamed Road, Pasir Panjang, Mempawah Tim., Kab. Mempawah",KALIMANTAN BARAT,78911.0,Indonesia,,,,0.3332823,108.9825799,https://maps.google.com/?cid=0x0:0x475b46e31feeafb9,
supermarket,Minimarket,Toko Basmalah Sidogiri Pulau Pedalaman,"9X87+8W6, Jl. Adiwijaya, Pulau Pedalaman, Mempawah Tim., Kab. Mempawah, Kalimantan Barat 78912","Jl. Adiwijaya, Pulau Pedalaman, Mempawah Tim., Kab. Mempawah",KALIMANTAN BARAT,78912.0,Indonesia,87850472333.0,,,0.3657888,108.964754,https://maps.google.com/?cid=0x0:0x24ef66b5d67e140d,
supermarket,Taman,Pasar Sebukit Rama Mempawah,"9X76+7XP, Jl. Bawal, Terusan, Kec. Mempawah Hilir, Kab. Mempawah, Kalimantan Barat 78912","Jl. Bawal, Terusan, Kec. Mempawah Hilir, Kab. Mempawah",KALIMANTAN BARAT,78912.0,Indonesia,,,,0.3632056,108.9624442,https://maps.google.com/?cid=0x0:0x7b428e124ea367fb,
supermarket,Kafe,K@'TAMB DAILY  KOST,"Jl. Gusti M. Taufik No.17, Terusan, Kec. Mempawah Hilir, Kab. Mempawah, Kalimantan Barat 78912","Terusan, Kec. Mempawah Hilir, Kab. Mempawah",KALIMANTAN BARAT,78912.0,Indonesia,82141223761.0,,,0.3672947,108.9605156,https://maps.google.com/?cid=0x0:0x3a85d38e0c3176ff,
supermarket,Toko,Robinson mm,"Jl. Melati, Tengah, Kec. Mempawah Hilir, Kab. Mempawah, Kalimantan Barat 78912","Tengah, Kec. Mempawah Hilir, Kab. Mempawah",KALIMANTAN BARAT,78912.0,Indonesia,,,,0.362693,108.9602085,https://maps.google.com/?cid=0x0:0xc62564b9d1306225,
supermarket,Toko Bahan Bangunan,Cahaya Timur,"9X76+3G4, Jl. Gusti M. Taufik, Terusan, Kec. Mempawah Hilir, Kab. Mempawah, Kalimantan Barat 78912","Jl. Gusti M. Taufik, Terusan, Kec. Mempawah Hilir, Kab. Mempawah",KALIMANTAN BARAT,78912.0,Indonesia,561691240.0,,,0.3626282,108.9613223,https://maps.google.com/?cid=0x0:0x76400280ae5f614e,
supermarket,Toko Kue,Makro Bakery and Cake,"78912, Tengah, Mempawah Hilir, Mempawah Regency, West Kalimantan 78912","Tengah, Mempawah Hilir, Mempawah Regency",KALIMANTAN BARAT,78912.0,Indonesia,,,,0.3541224,108.9636499,https://maps.google.com/?cid=0x0:0x9fd96a475d289f2b,
supermarket,supermarket,Kalimantan Barat 78912,"Kab. Mempawah, Kalimantan Barat","Kab. Mempawah, Kalimantan Barat",KALIMANTAN BARAT,,Indonesia,,,,0.3678684,108.9561661,https://maps.google.com/?cid=0x0:0xefc8c9940d5ef3aa,
supermarket,Toko Swalayan,RYN'S Mart,"Tengah, Kec. Mempawah Hilir, Kab. Mempawah, Kalimantan Barat 78912","Kec. Mempawah Hilir, Kab. Mempawah",KALIMANTAN BARAT,78912.0,Indonesia,,,,0.3575277,108.9621786,https://maps.google.com/?cid=0x0:0x25ebc4fe7c21c086,
supermarket,Toko Kelontong Asia,MINIMARKET SIMPLY MART,"Jl. Gusti M. Taufik, Terusan, Kec. Mempawah Hilir, Kab. Mempawah, Kalimantan Barat 78912","Terusan, Kec. Mempawah Hilir, Kab. Mempawah",KALIMANTAN BARAT,78912.0,Indonesia,82256852250.0,,,0.3666134,108.9607014,https://maps.google.com/?cid=0x0:0xcd67e1efd43e3142,
supermarket,Toko bahan makanan,Dafira Sellular,"9XC7+Q7W Raje Pulsa / Raje Shop, Pulau Pedalaman, Mempawah Tim., Kab. Mempawah, Kalimantan Barat 78912","Pulau Pedalaman, Mempawah Tim., Kab. Mempawah",KALIMANTAN BARAT,78912.0,Indonesia,85754665155.0,,,0.3719774,108.9631938,https://maps.google.com/?cid=0x0:0x8b21d64f32bf17e9,
supermarket,Toko,JAJAN JAM MEMPAWAH @Jajan_jammpw23,"Terusan, Kec. Mempawah Hilir, Kab. Mempawah, Kalimantan Barat 78912","Kec. Mempawah Hilir, Kab. Mempawah",KALIMANTAN BARAT,78912.0,Indonesia,83151077508.0,,,0.3689638,108.9494976,https://maps.google.com/?cid=0x0:0xbbee9c871fc3a32e,
supermarket,Toko bahan makanan,TOKE PUKAT BELANAK,"Gg. Al-Huda No.41, Terusan, Kec. Mempawah Hilir, Kab. Mempawah, Kalimantan Barat 78912","Terusan, Kec. Mempawah Hilir, Kab. Mempawah",KALIMANTAN BARAT,78912.0,Indonesia,,,,0.3680314,108.9490392,https://maps.google.com/?cid=0x0:0x1e70756568da3b32,
supermarket,Kafe,K@'TAMB DAILY  KOST,"Jl. Gusti M. Taufik No.17, Terusan, Kec. Mempawah Hilir, Kab. Mempawah, Kalimantan Barat 78912","Terusan, Kec. Mempawah Hilir, Kab. Mempawah",KALIMANTAN BARAT,78912.0,Indonesia,82141223761.0,,,0.3672947,108.9605156,https://maps.google.com/?cid=0x0:0x3a85d38e0c3176ff,
supermarket,Minimarket,Alfamart,"Jl. Adiwijaya, RT.04/RW.02, Antibar, Kec. Mempawah Hilir, Kab. Mempawah, Kalimantan Barat 78917","RT.04/RW.02, Antibar, Kec. Mempawah Hilir, Kab. Mempawah",KALIMANTAN BARAT,78917.0,Indonesia,1500959.0,,,0.3645441,108.9662636,https://maps.google.com/?cid=0x0:0x94b96a9edea5ab63,
supermarket,Pasar,Kios Mitra Kampung Pasir,"9WJX+M59, Terusan, Kec. Mempawah Hilir, Kab. Mempawah, Kalimantan Barat 78912","Terusan, Kec. Mempawah Hilir, Kab. Mempawah",KALIMANTAN BARAT,78912.0,Indonesia,,,,0.3816664,108.9479835,https://maps.google.com/?cid=0x0:0x86371744f1e1a881,
supermarket,Minimarket,Alfamart,"Jl. Gusti M. Taufik, RT.010/RW.011, Terusan, Kec. Mempawah Hilir, Kab. Mempawah, Kalimantan Barat 78912","RT.010/RW.011, Terusan, Kec. Mempawah Hilir, Kab. Mempawah",KALIMANTAN BARAT,78912.0,Indonesia,1500959.0,,,0.363025,108.9611542,https://maps.google.com/?cid=0x0:0x55323a837105c1ae,
supermarket,Kafe,KTamb Minimart,"Jl. Gusti M. Taufik, Terusan, Kec. Mempawah Hilir, Kab. Mempawah, Kalimantan Barat 78912","Terusan, Kec. Mempawah Hilir, Kab. Mempawah",KALIMANTAN BARAT,78912.0,Indonesia,,,,0.3672927,108.9605206,https://maps.google.com/?cid=0x0:0xa7702e93751b077d,
supermarket,Toko Kosmetik,Mitha Bakery  Coffee Shop,"JL GST IBRAHIM SYAFIUDIN, TANJUNG BERKAT, Kec. Mempawah Hilir, Kab. Mempawah, Kalimantan Barat 78912","TANJUNG BERKAT, Kec. Mempawah Hilir, Kab. Mempawah",KALIMANTAN BARAT,78912.0,Indonesia,,,,0.3730445,108.9554606,https://maps.google.com/?cid=0x0:0xac509862ce4f5938,
supermarket,Minimarket,Alfamart,"Jl. Daeng Manambon, RT.005/RW.002, Tengah, Kec. Mempawah Hilir, Kab. Mempawah, Kalimantan Barat 78911","RT.005/RW.002, Tengah, Kec. Mempawah Hilir, Kab. Mempawah",KALIMANTAN BARAT,78911.0,Indonesia,1500959.0,,,0.3460775,108.9631237,https://maps.google.com/?cid=0x0:0xb5a6b0354827167f,
supermarket,Minimarket,Alfamart,"Sujarwo, Jl. Daeng Manambon, Lainnya, Kec. Mempawah Hilir, Kab. Mempawah, Bali 78951","Jl. Daeng Manambon, Lainnya, Kec. Mempawah Hilir, Kab. Mempawah",KALIMANTAN BARAT,78951.0,Indonesia,1500959.0,,,0.3628685,108.9573212,https://maps.google.com/?cid=0x0:0xd7a44e520940ae3c,
supermarket,Pengolahan Ikan,Lapak Ikan Basah Pak Su,"9X89+3HV, Jl. Pangsuma, Antibar, Mempawah Tim., Kab. Mempawah, Kalimantan Barat","Kab. Mempawah, Kalimantan Barat",KALIMANTAN BARAT,,Indonesia,,,,0.3652343,108.9689349,https://maps.google.com/?cid=0x0:0x24d655bcb34cdd2a,
supermarket,supermarket,Toko Diga,"9WFW+QMC, Terusan, Kec. Mempawah Hilir, Kab. Mempawah, Kalimantan Barat 78912","Terusan, Kec. Mempawah Hilir, Kab. Mempawah",KALIMANTAN BARAT,78912.0,Indonesia,,,,0.3744377,108.946646,https://maps.google.com/?cid=0x0:0xdc149b2e6db85a73,
supermarket,Minimarket,Toko Basmalah Sidogiri Pulau Pedalaman,"9X87+8W6, Jl. Adiwijaya, Pulau Pedalaman, Mempawah Tim., Kab. Mempawah, Kalimantan Barat 78912","Jl. Adiwijaya, Pulau Pedalaman, Mempawah Tim., Kab. Mempawah",KALIMANTAN BARAT,78912.0,Indonesia,87850472333.0,,,0.3657888,108.964754,https://maps.google.com/?cid=0x0:0x24ef66b5d67e140d,
supermarket,Minimarket,Indomaret GM Taufik,"9X66+Q97, Jl. Gusti M. Taufik, Tengah, Kec. Mempawah Hilir, Kab. Mempawah, Kalimantan Barat 78912","Jl. Gusti M. Taufik, Tengah, Kec. Mempawah Hilir, Kab. Mempawah",KALIMANTAN BARAT,78912.0,Indonesia,5616693367.0,,,0.3619042,108.9609066,https://maps.google.com/?cid=0x0:0xd6436ea7745572e,
supermarket,supermarket,Kalimantan Barat 78913,"Kec. Mempawah Hilir, Kab. Mempawah, Kalimantan Barat","Kab. Mempawah, Kalimantan Barat",KALIMANTAN BARAT,,Indonesia,,,,0.3278357,108.9383377,https://maps.google.com/?cid=0x0:0x8576f4146636f246,
supermarket,Toko Swalayan,RYN'S Mart,"Tengah, Kec. Mempawah Hilir, Kab. Mempawah, Kalimantan Barat 78912","Kec. Mempawah Hilir, Kab. Mempawah",KALIMANTAN BARAT,78912.0,Indonesia,,,,0.3575277,108.9621786,https://maps.google.com/?cid=0x0:0x25ebc4fe7c21c086,
supermarket,Toko Swalayan,DF MART,"9X34+GW8, Jl. Rumah Sakit Dr. Rubini, Tengah, Kec. Mempawah Hilir, Kab. Mempawah, Kalimantan Barat 78912","Jl. Rumah Sakit Dr. Rubini, Tengah, Kec. Mempawah Hilir, Kab. Mempawah",KALIMANTAN BARAT,78912.0,Indonesia,,,,0.353779,108.9573128,https://maps.google.com/?cid=0x0:0x2127e62900cbe30b,
supermarket,Toko,JAJAN JAM MEMPAWAH @Jajan_jammpw23,"Terusan, Kec. Mempawah Hilir, Kab. Mempawah, Kalimantan Barat 78912","Kec. Mempawah Hilir, Kab. Mempawah",KALIMANTAN BARAT,78912.0,Indonesia,83151077508.0,,,0.3689638,108.9494976,https://maps.google.com/?cid=0x0:0xbbee9c871fc3a32e,
supermarket,Minimarket,Alfamart,"Jl. Daeng Manambon, RT.005/RW.002, Tengah, Kec. Mempawah Hilir, Kab. Mempawah, Kalimantan Barat 78911","RT.005/RW.002, Tengah, Kec. Mempawah Hilir, Kab. Mempawah",KALIMANTAN BARAT,78911.0,Indonesia,1500959.0,,,0.3460775,108.9631237,https://maps.google.com/?cid=0x0:0xb5a6b0354827167f,
supermarket,Minimarket,Alfamart,"Sujarwo, Jl. Daeng Manambon, Lainnya, Kec. Mempawah Hilir, Kab. Mempawah, Bali 78951","Jl. Daeng Manambon, Lainnya, Kec. Mempawah Hilir, Kab. Mempawah",KALIMANTAN BARAT,78951.0,Indonesia,1500959.0,,,0.3628685,108.9573212,https://maps.google.com/?cid=0x0:0xd7a44e520940ae3c,
supermarket,Minimarket,Alfamart,"Jl. Gusti M. Taufik, RT.010/RW.011, Terusan, Kec. Mempawah Hilir, Kab. Mempawah, Kalimantan Barat 78912","RT.010/RW.011, Terusan, Kec. Mempawah Hilir, Kab. Mempawah",KALIMANTAN BARAT,78912.0,Indonesia,1500959.0,,,0.363025,108.9611542,https://maps.google.com/?cid=0x0:0x55323a837105c1ae,
supermarket,Kafe,KTamb Minimart,"Jl. Gusti M. Taufik, Terusan, Kec. Mempawah Hilir, Kab. Mempawah, Kalimantan Barat 78912","Terusan, Kec. Mempawah Hilir, Kab. Mempawah",KALIMANTAN BARAT,78912.0,Indonesia,,,,0.3672927,108.9605206,https://maps.google.com/?cid=0x0:0xa7702e93751b077d,
supermarket,Toko bahan makanan,TOKE PUKAT BELANAK,"Gg. Al-Huda No.41, Terusan, Kec. Mempawah Hilir, Kab. Mempawah, Kalimantan Barat 78912","Terusan, Kec. Mempawah Hilir, Kab. Mempawah",KALIMANTAN BARAT,78912.0,Indonesia,,,,0.3680314,108.9490392,https://maps.google.com/?cid=0x0:0x1e70756568da3b32,
supermarket,Minimarket,Alfamart,"Jl. Adiwijaya, RT.04/RW.02, Antibar, Kec. Mempawah Hilir, Kab. Mempawah, Kalimantan Barat 78917","RT.04/RW.02, Antibar, Kec. Mempawah Hilir, Kab. Mempawah",KALIMANTAN BARAT,78917.0,Indonesia,1500959.0,,,0.3645441,108.9662636,https://maps.google.com/?cid=0x0:0x94b96a9edea5ab63,
supermarket,supermarket,Kalimantan Barat 78914,"Kab. Mempawah, Kalimantan Barat","Kab. Mempawah, Kalimantan Barat",KALIMANTAN BARAT,,Indonesia,,,,0.3233283,108.9680522,https://maps.google.com/?cid=0x0:0xbc331085b3201097,
supermarket,Toko Kelontong Asia,MINIMARKET SIMPLY MART,"Jl. Gusti M. Taufik, Terusan, Kec. Mempawah Hilir, Kab. Mempawah, Kalimantan Barat 78912","Terusan, Kec. Mempawah Hilir, Kab. Mempawah",KALIMANTAN BARAT,78912.0,Indonesia,82256852250.0,,,0.3666134,108.9607014,https://maps.google.com/?cid=0x0:0xcd67e1efd43e3142,
supermarket,Toko Swalayan,DF MART,"9X34+GW8, Jl. Rumah Sakit Dr. Rubini, Tengah, Kec. Mempawah Hilir, Kab. Mempawah, Kalimantan Barat 78912","Jl. Rumah Sakit Dr. Rubini, Tengah, Kec. Mempawah Hilir, Kab. Mempawah",KALIMANTAN BARAT,78912.0,Indonesia,,,,0.353779,108.9573128,https://maps.google.com/?cid=0x0:0x2127e62900cbe30b,
supermarket,Kafe,KTamb Minimart,"Jl. Gusti M. Taufik, Terusan, Kec. Mempawah Hilir, Kab. Mempawah, Kalimantan Barat 78912","Terusan, Kec. Mempawah Hilir, Kab. Mempawah",KALIMANTAN BARAT,78912.0,Indonesia,,,,0.3672927,108.9605206,https://maps.google.com/?cid=0x0:0xa7702e93751b077d,
supermarket,Minimarket,Alfamart,"Jl. Adiwijaya, RT.04/RW.02, Antibar, Kec. Mempawah Hilir, Kab. Mempawah, Kalimantan Barat 78917","RT.04/RW.02, Antibar, Kec. Mempawah Hilir, Kab. Mempawah",KALIMANTAN BARAT,78917.0,Indonesia,1500959.0,,,0.3645441,108.9662636,https://maps.google.com/?cid=0x0:0x94b96a9edea5ab63,
supermarket,Kafe,K@'TAMB DAILY  KOST,"Jl. Gusti M. Taufik No.17, Terusan, Kec. Mempawah Hilir, Kab. Mempawah, Kalimantan Barat 78912","Terusan, Kec. Mempawah Hilir, Kab. Mempawah",KALIMANTAN BARAT,78912.0,Indonesia,82141223761.0,,,0.3672947,108.9605156,https://maps.google.com/?cid=0x0:0x3a85d38e0c3176ff,
supermarket,Minimarket,Zulkarnaen MZ,"8XMM+828, Unnamed Road, Pasir Panjang, Mempawah Tim., Kab. Mempawah, Kalimantan Barat 78911","Unnamed Road, Pasir Panjang, Mempawah Tim., Kab. Mempawah",KALIMANTAN BARAT,78911.0,Indonesia,,,,0.3332823,108.9825799,https://maps.google.com/?cid=0x0:0x475b46e31feeafb9,
supermarket,Minimarket,Alfamart,"Jl. Gusti M. Taufik, RT.010/RW.011, Terusan, Kec. Mempawah Hilir, Kab. Mempawah, Kalimantan Barat 78912","RT.010/RW.011, Terusan, Kec. Mempawah Hilir, Kab. Mempawah",KALIMANTAN BARAT,78912.0,Indonesia,1500959.0,,,0.363025,108.9611542,https://maps.google.com/?cid=0x0:0x55323a837105c1ae,
supermarket,supermarket,Kalimantan Barat 78919,"Kab. Mempawah, Kalimantan Barat","Kab. Mempawah, Kalimantan Barat",KALIMANTAN BARAT,,Indonesia,,,,0.4345421,109.0334318,https://maps.google.com/?cid=0x0:0xda6992d03365a27a,
supermarket,Toko Swalayan,RYN'S Mart,"Tengah, Kec. Mempawah Hilir, Kab. Mempawah, Kalimantan Barat 78912","Kec. Mempawah Hilir, Kab. Mempawah",KALIMANTAN BARAT,78912.0,Indonesia,,,,0.3575277,108.9621786,https://maps.google.com/?cid=0x0:0x25ebc4fe7c21c086,
supermarket,Toko Kelontong Asia,MINIMARKET SIMPLY MART,"Jl. Gusti M. Taufik, Terusan, Kec. Mempawah Hilir, Kab. Mempawah, Kalimantan Barat 78912","Terusan, Kec. Mempawah Hilir, Kab. Mempawah",KALIMANTAN BARAT,78912.0,Indonesia,82256852250.0,,,0.3666134,108.9607014,https://maps.google.com/?cid=0x0:0xcd67e1efd43e3142,
supermarket,Toko bahan makanan,Toko wanda,"8255+7CV, Pasir Wan Salim, Mempawah Tim., Kab. Mempawah, Kalimantan Barat 78919","Pasir Wan Salim, Mempawah Tim., Kab. Mempawah",KALIMANTAN BARAT,78919.0,Indonesia,,,,0.3082491,109.0085567,https://maps.google.com/?cid=0x0:0x1db086eed450a74b,
supermarket,Toko bahan makanan,Dafira Sellular,"9XC7+Q7W Raje Pulsa / Raje Shop, Pulau Pedalaman, Mempawah Tim., Kab. Mempawah, Kalimantan Barat 78912","Pulau Pedalaman, Mempawah Tim., Kab. Mempawah",KALIMANTAN BARAT,78912.0,Indonesia,85754665155.0,,,0.3719774,108.9631938,https://maps.google.com/?cid=0x0:0x8b21d64f32bf17e9,
supermarket,Toko bahan makanan,Toko Ahkim,"FWW6+GR4, Sungai Kunyit Laut, Sungai Kunyit, Kab. Mempawah, Kalimantan Barat 78371","Sungai Kunyit Laut, Sungai Kunyit, Kab. Mempawah",KALIMANTAN BARAT,78371.0,Indonesia,,,,0.4962511,108.9120871,https://maps.google.com/?cid=0x0:0x5b8e7d497f9f66ff,
supermarket,Toko,JAJAN JAM MEMPAWAH @Jajan_jammpw23,"Terusan, Kec. Mempawah Hilir, Kab. Mempawah, Kalimantan Barat 78912","Kec. Mempawah Hilir, Kab. Mempawah",KALIMANTAN BARAT,78912.0,Indonesia,83151077508.0,,,0.3689638,108.9494976,https://maps.google.com/?cid=0x0:0xbbee9c871fc3a32e,
supermarket,Minimarket,B MART,"FWV6+XPC, Jl. Raya Sungai Kunyit, Sungai Limau, Sungai Kunyit, Kab. Mempawah, Kalimantan Barat 78371","Jl. Raya Sungai Kunyit, Sungai Limau, Sungai Kunyit, Kab. Mempawah",KALIMANTAN BARAT,78371.0,Indonesia,,,,0.4949433,108.9117647,https://maps.google.com/?cid=0x0:0x2fc644a878302b2a,
supermarket,Pasar,Kios Mitra Kampung Pasir,"9WJX+M59, Terusan, Kec. Mempawah Hilir, Kab. Mempawah, Kalimantan Barat 78912","Terusan, Kec. Mempawah Hilir, Kab. Mempawah",KALIMANTAN BARAT,78912.0,Indonesia,,,,0.3816664,108.9479835,https://maps.google.com/?cid=0x0:0x86371744f1e1a881,
supermarket,Toko bahan makanan,Indomaret Semudun,"FW2Q+6R8, Semudun, Sungai Kunyit, Kab. Mempawah, Kalimantan Barat 78371","Semudun, Sungai Kunyit, Kab. Mempawah",KALIMANTAN BARAT,78371.0,Indonesia,,,,0.4505344,108.9395774,https://maps.google.com/?cid=0x0:0xd9292933ba0109b8,
supermarket,Minimarket,Alfamart,"Jl. Adiwijaya, RT.04/RW.02, Antibar, Kec. Mempawah Hilir, Kab. Mempawah, Kalimantan Barat 78917","RT.04/RW.02, Antibar, Kec. Mempawah Hilir, Kab. Mempawah",KALIMANTAN BARAT,78917.0,Indonesia,1500959.0,,,0.3645441,108.9662636,https://maps.google.com/?cid=0x0:0x94b96a9edea5ab63,
supermarket,Toko Kosmetik,Mitha Bakery  Coffee Shop,"JL GST IBRAHIM SYAFIUDIN, TANJUNG BERKAT, Kec. Mempawah Hilir, Kab. Mempawah, Kalimantan Barat 78912","TANJUNG BERKAT, Kec. Mempawah Hilir, Kab. Mempawah",KALIMANTAN BARAT,78912.0,Indonesia,,,,0.3730445,108.9554606,https://maps.google.com/?cid=0x0:0xac509862ce4f5938,
supermarket,Toko Swalayan,DF MART,"9X34+GW8, Jl. Rumah Sakit Dr. Rubini, Tengah, Kec. Mempawah Hilir, Kab. Mempawah, Kalimantan Barat 78912","Jl. Rumah Sakit Dr. Rubini, Tengah, Kec. Mempawah Hilir, Kab. Mempawah",KALIMANTAN BARAT,78912.0,Indonesia,,,,0.353779,108.9573128,https://maps.google.com/?cid=0x0:0x2127e62900cbe30b,
supermarket,Kafe,KTamb Minimart,"Jl. Gusti M. Taufik, Terusan, Kec. Mempawah Hilir, Kab. Mempawah, Kalimantan Barat 78912","Terusan, Kec. Mempawah Hilir, Kab. Mempawah",KALIMANTAN BARAT,78912.0,Indonesia,,,,0.3672927,108.9605206,https://maps.google.com/?cid=0x0:0xa7702e93751b077d,
supermarket,Pasar,Toho Mart,"95RJ+C2V, Kecurit, Kec. Toho, Kab. Mempawah, Kalimantan Barat 78353","Kecurit, Kec. Toho, Kab. Mempawah",KALIMANTAN BARAT,78353.0,Indonesia,,,,0.3911143,109.1800468,https://maps.google.com/?cid=0x0:0x88b1d5ae0280aa73,
supermarket,Toko bahan makanan,TOKE PUKAT BELANAK,"Gg. Al-Huda No.41, Terusan, Kec. Mempawah Hilir, Kab. Mempawah, Kalimantan Barat 78912","Terusan, Kec. Mempawah Hilir, Kab. Mempawah",KALIMANTAN BARAT,78912.0,Indonesia,,,,0.3680314,108.9490392,https://maps.google.com/?cid=0x0:0x1e70756568da3b32,
supermarket,Toko bahan makanan,INDAH MART,"9578+46F, Anjungan Melancar, Kec. Anjongan, Kab. Mempawah, Kalimantan Barat 78353","Anjungan Melancar, Kec. Anjongan, Kab. Mempawah",KALIMANTAN BARAT,78353.0,Indonesia,,,,0.3628159,109.1655465,https://maps.google.com/?cid=0x0:0xed3ec26e75df28ad,
supermarket,Toko Swalayan,Toko Pak Wahyu,"FWM8+C64, Sungai Limau, Sungai Kunyit, Kab. Mempawah, Kalimantan Barat 78371","Sungai Limau, Sungai Kunyit, Kab. Mempawah",KALIMANTAN BARAT,78371.0,Indonesia,,,,0.4835192,108.9155843,https://maps.google.com/?cid=0x0:0x7d7547913e8eebd4,
supermarket,Agen Gas Elpiji,Depot air galon feri,"823C+9WM, Jl. Raya Sungai Bakau Besar Laut, Sungai Bakau Kecil, Mempawah Tim., Kab. Mempawah, Kalimantan Barat 78919","Jl. Raya Sungai Bakau Besar Laut, Sungai Bakau Kecil, Mempawah Tim., Kab. Mempawah",KALIMANTAN BARAT,78919.0,Indonesia,,,,0.3034509,109.0223043,https://maps.google.com/?cid=0x0:0x7d5e2ce18a400664,
supermarket,Kafe,K@'TAMB DAILY  KOST,"Jl. Gusti M. Taufik No.17, Terusan, Kec. Mempawah Hilir, Kab. Mempawah, Kalimantan Barat 78912","Terusan, Kec. Mempawah Hilir, Kab. Mempawah",KALIMANTAN BARAT,78912.0,Indonesia,82141223761.0,,,0.3672947,108.9605156,https://maps.google.com/?cid=0x0:0x3a85d38e0c3176ff,
supermarket,Minimarket,Alfamart,"Jl. Gusti M. Taufik, RT.010/RW.011, Terusan, Kec. Mempawah Hilir, Kab. Mempawah, Kalimantan Barat 78912","RT.010/RW.011, Terusan, Kec. Mempawah Hilir, Kab. Mempawah",KALIMANTAN BARAT,78912.0,Indonesia,1500959.0,,,0.363025,108.9611542,https://maps.google.com/?cid=0x0:0x55323a837105c1ae,
supermarket,Minimarket,Alfamart,"Sujarwo, Jl. Daeng Manambon, Lainnya, Kec. Mempawah Hilir, Kab. Mempawah, Bali 78951","Jl. Daeng Manambon, Lainnya, Kec. Mempawah Hilir, Kab. Mempawah",KALIMANTAN BARAT,78951.0,Indonesia,1500959.0,,,0.3628685,108.9573212,https://maps.google.com/?cid=0x0:0xd7a44e520940ae3c,
supermarket,supermarket,Kalimantan Barat 78915,"Mempawah Tim., Kab. Mempawah, Kalimantan Barat","Kab. Mempawah, Kalimantan Barat",KALIMANTAN BARAT,,Indonesia,,,,0.3321557,109.0037125,https://maps.google.com/?cid=0x0:0x60a67c9fdfb60fc2,
supermarket,Toko bahan makanan,Toko wanda,"8255+7CV, Pasir Wan Salim, Mempawah Tim., Kab. Mempawah, Kalimantan Barat 78919","Pasir Wan Salim, Mempawah Tim., Kab. Mempawah",KALIMANTAN BARAT,78919.0,Indonesia,,,,0.3082491,109.0085567,https://maps.google.com/?cid=0x0:0x1db086eed450a74b,
supermarket,Toko,Warung Cik Las,"8XFF+7JW, kuale Mempawah Tim.,, Pasir Wan Salim, Mempawah Tim., Kab. Mempawah, Kalimantan Barat 78914","kuale Mempawah Tim.,, Pasir Wan Salim, Mempawah Tim., Kab. Mempawah",KALIMANTAN BARAT,78914.0,Indonesia,,,,0.3232444,108.9740884,https://maps.google.com/?cid=0x0:0x8ff6e619ba524ddc,
supermarket,Toko Swalayan,DF MART,"9X34+GW8, Jl. Rumah Sakit Dr. Rubini, Tengah, Kec. Mempawah Hilir, Kab. Mempawah, Kalimantan Barat 78912","Jl. Rumah Sakit Dr. Rubini, Tengah, Kec. Mempawah Hilir, Kab. Mempawah",KALIMANTAN BARAT,78912.0,Indonesia,,,,0.353779,108.9573128,https://maps.google.com/?cid=0x0:0x2127e62900cbe30b,
supermarket,Kafe,KTamb Minimart,"Jl. Gusti M. Taufik, Terusan, Kec. Mempawah Hilir, Kab. Mempawah, Kalimantan Barat 78912","Terusan, Kec. Mempawah Hilir, Kab. Mempawah",KALIMANTAN BARAT,78912.0,Indonesia,,,,0.3672927,108.9605206,https://maps.google.com/?cid=0x0:0xa7702e93751b077d,
supermarket,Kafe,K@'TAMB DAILY  KOST,"Jl. Gusti M. Taufik No.17, Terusan, Kec. Mempawah Hilir, Kab. Mempawah, Kalimantan Barat 78912","Terusan, Kec. Mempawah Hilir, Kab. Mempawah",KALIMANTAN BARAT,78912.0,Indonesia,82141223761.0,,,0.3672947,108.9605156,https://maps.google.com/?cid=0x0:0x3a85d38e0c3176ff,
supermarket,Minimarket,Zulkarnaen MZ,"8XMM+828, Unnamed Road, Pasir Panjang, Mempawah Tim., Kab. Mempawah, Kalimantan Barat 78911","Unnamed Road, Pasir Panjang, Mempawah Tim., Kab. Mempawah",KALIMANTAN BARAT,78911.0,Indonesia,,,,0.3332823,108.9825799,https://maps.google.com/?cid=0x0:0x475b46e31feeafb9,
supermarket,Restoran,Keripik along,"8266+C54, Sungai Bakau Kecil, Mempawah Tim., Kab. Mempawah, Kalimantan Barat 78919","Sungai Bakau Kecil, Mempawah Tim., Kab. Mempawah",KALIMANTAN BARAT,78919.0,Indonesia,,,,0.3109924,109.0104028,https://maps.google.com/?cid=0x0:0xe6fe5658384bc2b8,
supermarket,supermarket,Kalimantan Barat 78916,"Mempawah Tim., Kab. Mempawah, Kalimantan Barat","Kab. Mempawah, Kalimantan Barat",KALIMANTAN BARAT,,Indonesia,,,,0.3521619,109.0126281,https://maps.google.com/?cid=0x0:0x66eee1d0eba280ad,
supermarket,Toko Kelontong Asia,MINIMARKET SIMPLY MART,"Jl. Gusti M. Taufik, Terusan, Kec. Mempawah Hilir, Kab. Mempawah, Kalimantan Barat 78912","Terusan, Kec. Mempawah Hilir, Kab. Mempawah",KALIMANTAN BARAT,78912.0,Indonesia,82256852250.0,,,0.3666134,108.9607014,https://maps.google.com/?cid=0x0:0xcd67e1efd43e3142,
supermarket,Toko Swalayan,DF MART,"9X34+GW8, Jl. Rumah Sakit Dr. Rubini, Tengah, Kec. Mempawah Hilir, Kab. Mempawah, Kalimantan Barat 78912","Jl. Rumah Sakit Dr. Rubini, Tengah, Kec. Mempawah Hilir, Kab. Mempawah",KALIMANTAN BARAT,78912.0,Indonesia,,,,0.353779,108.9573128,https://maps.google.com/?cid=0x0:0x2127e62900cbe30b,
supermarket,Kafe,K@'TAMB DAILY  KOST,"Jl. Gusti M. Taufik No.17, Terusan, Kec. Mempawah Hilir, Kab. Mempawah, Kalimantan Barat 78912","Terusan, Kec. Mempawah Hilir, Kab. Mempawah",KALIMANTAN BARAT,78912.0,Indonesia,82141223761.0,,,0.3672947,108.9605156,https://maps.google.com/?cid=0x0:0x3a85d38e0c3176ff,
supermarket,Toko bahan makanan,Toko pak nisab,"Pulau Pedalaman, Mempawah Tim., Kab. Mempawah, Kalimantan Barat 78917","Mempawah Tim., Kab. Mempawah",KALIMANTAN BARAT,78917.0,Indonesia,81943240531.0,,,0.3701196,109.0061762,https://maps.google.com/?cid=0x0:0x2c134a7398287d6a,
supermarket,supermarket,Toko Agus,"9XF9+H33, Jl. Bemban, Sejegi, Mempawah Tim., Kab. Mempawah, Kalimantan Barat 78912","Jl. Bemban, Sejegi, Mempawah Tim., Kab. Mempawah",KALIMANTAN BARAT,78912.0,Indonesia,,,,0.3738755,108.9676632,https://maps.google.com/?cid=0x0:0x5c1074f9989f1475,
supermarket,Toko bahan makanan,Toko wanda,"8255+7CV, Pasir Wan Salim, Mempawah Tim., Kab. Mempawah, Kalimantan Barat 78919","Pasir Wan Salim, Mempawah Tim., Kab. Mempawah",KALIMANTAN BARAT,78919.0,Indonesia,,,,0.3082491,109.0085567,https://maps.google.com/?cid=0x0:0x1db086eed450a74b,
supermarket,Minimarket,Alfamart,"Jl. Adiwijaya, RT.04/RW.02, Antibar, Kec. Mempawah Hilir, Kab. Mempawah, Kalimantan Barat 78917","RT.04/RW.02, Antibar, Kec. Mempawah Hilir, Kab. Mempawah",KALIMANTAN BARAT,78917.0,Indonesia,1500959.0,,,0.3645441,108.9662636,https://maps.google.com/?cid=0x0:0x94b96a9edea5ab63,
supermarket,Minimarket,Alfamart,"Jl. Gusti M. Taufik, RT.010/RW.011, Terusan, Kec. Mempawah Hilir, Kab. Mempawah, Kalimantan Barat 78912","RT.010/RW.011, Terusan, Kec. Mempawah Hilir, Kab. Mempawah",KALIMANTAN BARAT,78912.0,Indonesia,1500959.0,,,0.363025,108.9611542,https://maps.google.com/?cid=0x0:0x55323a837105c1ae,
supermarket,supermarket,Kalimantan Barat 78917,"Kab. Mempawah, Kalimantan Barat","Kab. Mempawah, Kalimantan Barat",KALIMANTAN BARAT,,Indonesia,,,,0.3943787,109.0512643,https://maps.google.com/?cid=0x0:0x2f2970a3b837ea62,
supermarket,Toko Swalayan,RYN'S Mart,"Tengah, Kec. Mempawah Hilir, Kab. Mempawah, Kalimantan Barat 78912","Kec. Mempawah Hilir, Kab. Mempawah",KALIMANTAN BARAT,78912.0,Indonesia,,,,0.3575277,108.9621786,https://maps.google.com/?cid=0x0:0x25ebc4fe7c21c086,
supermarket,Minimarket,Toko Tiar,"9X96+268, Pulau Pedalaman, Mempawah Timur, Pulau Pedalaman, Pontianak, Kab. Mempawah, Kalimantan Barat 78912","Pulau Pedalaman, Mempawah Timur, Pulau Pedalaman, Pontianak, Kab. Mempawah",KALIMANTAN BARAT,78912.0,Indonesia,89665348270.0,,,0.3675349,108.9605697,https://maps.google.com/?cid=0x0:0x270669c914c017e1,
supermarket,Pasar,Toho Mart,"95RJ+C2V, Kecurit, Kec. Toho, Kab. Mempawah, Kalimantan Barat 78353","Kecurit, Kec. Toho, Kab. Mempawah",KALIMANTAN BARAT,78353.0,Indonesia,,,,0.3911143,109.1800468,https://maps.google.com/?cid=0x0:0x88b1d5ae0280aa73,
supermarket,Toko Swalayan,HS Mart,"9X76+8FW, Terusan, Kec. Mempawah Hilir, Kab. Mempawah, Kalimantan Barat 78912","Terusan, Kec. Mempawah Hilir, Kab. Mempawah",KALIMANTAN BARAT,78912.0,Indonesia,,,,0.3633688,108.9612161,https://maps.google.com/?cid=0x0:0xd36d641a3f1e251a,
supermarket,Pengolahan Ikan,Lapak Ikan Basah Pak Su,"9X89+3HV, Jl. Pangsuma, Antibar, Mempawah Tim., Kab. Mempawah, Kalimantan Barat","Kab. Mempawah, Kalimantan Barat",KALIMANTAN BARAT,,Indonesia,,,,0.3652343,108.9689349,https://maps.google.com/?cid=0x0:0x24d655bcb34cdd2a,
supermarket,Grosir Barang Kelontong,Toko Cahaya Masa,"Jl. Gusti M. Taufik No.07, Terusan, Kec. Mempawah Hilir, Kab. Mempawah, Kalimantan Barat 78912","Terusan, Kec. Mempawah Hilir, Kab. Mempawah",KALIMANTAN BARAT,78912.0,Indonesia,561691407.0,,,0.3634113,108.9612286,https://maps.google.com/?cid=0x0:0x14ded5b29bcef5c0,
supermarket,Minimarket,Indomaret GM Taufik,"9X66+Q97, Jl. Gusti M. Taufik, Tengah, Kec. Mempawah Hilir, Kab. Mempawah, Kalimantan Barat 78912","Jl. Gusti M. Taufik, Tengah, Kec. Mempawah Hilir, Kab. Mempawah",KALIMANTAN BARAT,78912.0,Indonesia,5616693367.0,,,0.3619042,108.9609066,https://maps.google.com/?cid=0x0:0xd6436ea7745572e,
supermarket,Toko bahan makanan,Dafira Sellular,"9XC7+Q7W Raje Pulsa / Raje Shop, Pulau Pedalaman, Mempawah Tim., Kab. Mempawah, Kalimantan Barat 78912","Pulau Pedalaman, Mempawah Tim., Kab. Mempawah",KALIMANTAN BARAT,78912.0,Indonesia,85754665155.0,,,0.3719774,108.9631938,https://maps.google.com/?cid=0x0:0x8b21d64f32bf17e9,
supermarket,Kafe,KTamb Minimart,"Jl. Gusti M. Taufik, Terusan, Kec. Mempawah Hilir, Kab. Mempawah, Kalimantan Barat 78912","Terusan, Kec. Mempawah Hilir, Kab. Mempawah",KALIMANTAN BARAT,78912.0,Indonesia,,,,0.3672927,108.9605206,https://maps.google.com/?cid=0x0:0xa7702e93751b077d,
supermarket,Minimarket,Alfamart,"Jl. Adiwijaya, RT.04/RW.02, Antibar, Kec. Mempawah Hilir, Kab. Mempawah, Kalimantan Barat 78917","RT.04/RW.02, Antibar, Kec. Mempawah Hilir, Kab. Mempawah",KALIMANTAN BARAT,78917.0,Indonesia,1500959.0,,,0.3645441,108.9662636,https://maps.google.com/?cid=0x0:0x94b96a9edea5ab63,
supermarket,Toko bahan makanan,Mini Market Senen,"9X76+457, Tengah, Kec. Mempawah Hilir, Kab. Mempawah, Kalimantan Barat 78912","Tengah, Kec. Mempawah Hilir, Kab. Mempawah",KALIMANTAN BARAT,78912.0,Indonesia,,,,0.3627947,108.9604067,https://maps.google.com/?cid=0x0:0xefd8cc95c8fb058d,
supermarket,Toko bahan makanan,Toko pak nisab,"Pulau Pedalaman, Mempawah Tim., Kab. Mempawah, Kalimantan Barat 78917","Mempawah Tim., Kab. Mempawah",KALIMANTAN BARAT,78917.0,Indonesia,81943240531.0,,,0.3701196,109.0061762,https://maps.google.com/?cid=0x0:0x2c134a7398287d6a,
supermarket,Toko,Warung ASONG,"9X66+3GC, Tengah, Kec. Mempawah Hilir, Kab. Mempawah, Kalimantan Barat 78912","Tengah, Kec. Mempawah Hilir, Kab. Mempawah",KALIMANTAN BARAT,78912.0,Indonesia,,,,0.3601807,108.9612681,https://maps.google.com/?cid=0x0:0xb6d9501808289d5a,
supermarket,Toko,Endra Shop,"Jl. Pulau Pedalaman, Pulau Pedalaman, Mempawah Tim., Kab. Mempawah, Kalimantan Barat 78917","Pulau Pedalaman, Mempawah Tim., Kab. Mempawah",KALIMANTAN BARAT,78917.0,Indonesia,85752255242.0,,,0.3711964,108.9625737,https://maps.google.com/?cid=0x0:0x311ec953bebdddab,
supermarket,supermarket,Penggilingan PAK AMAT,"9X77+73P, Terusan, Kec. Mempawah Hilir, Kab. Mempawah, Kalimantan Barat 78912","Terusan, Kec. Mempawah Hilir, Kab. Mempawah",KALIMANTAN BARAT,78912.0,Indonesia,,,,0.3632163,108.9627007,https://maps.google.com/?cid=0x0:0xffe2212b04f27e1,
supermarket,Toko bahan makanan,INDAH MART,"9578+46F, Anjungan Melancar, Kec. Anjongan, Kab. Mempawah, Kalimantan Barat 78353","Anjungan Melancar, Kec. Anjongan, Kab. Mempawah",KALIMANTAN BARAT,78353.0,Indonesia,,,,0.3628159,109.1655465,https://maps.google.com/?cid=0x0:0xed3ec26e75df28ad,
supermarket,Toserba,Toko Khatulistiwa,"9X76+55X, Jl. Mawar, Terusan, Kec. Mempawah Hilir, Kab. Mempawah, Kalimantan Barat 78912","Jl. Mawar, Terusan, Kec. Mempawah Hilir, Kab. Mempawah",KALIMANTAN BARAT,78912.0,Indonesia,561692117.0,,,0.3629844,108.960488,https://maps.google.com/?cid=0x0:0xf8d533a4d31a89c9,
supermarket,Toko Swalayan,MM Sahabat Kita,"954F+7R6, Anjungan Melancar, Kec. Anjongan, Kab. Mempawah, Kalimantan Barat 78353","Anjungan Melancar, Kec. Anjongan, Kab. Mempawah",KALIMANTAN BARAT,78353.0,Indonesia,,,,0.3556647,109.1745191,https://maps.google.com/?cid=0x0:0x9895acf48b517c16,
supermarket,Kafe,K@'TAMB DAILY  KOST,"Jl. Gusti M. Taufik No.17, Terusan, Kec. Mempawah Hilir, Kab. Mempawah, Kalimantan Barat 78912","Terusan, Kec. Mempawah Hilir, Kab. Mempawah",KALIMANTAN BARAT,78912.0,Indonesia,82141223761.0,,,0.3672947,108.9605156,https://maps.google.com/?cid=0x0:0x3a85d38e0c3176ff,
supermarket,Toko Swalayan,DF MART,"9X34+GW8, Jl. Rumah Sakit Dr. Rubini, Tengah, Kec. Mempawah Hilir, Kab. Mempawah, Kalimantan Barat 78912","Jl. Rumah Sakit Dr. Rubini, Tengah, Kec. Mempawah Hilir, Kab. Mempawah",KALIMANTAN BARAT,78912.0,Indonesia,,,,0.353779,108.9573128,https://maps.google.com/?cid=0x0:0x2127e62900cbe30b,
supermarket,Toko bahan makanan,Toko wanda,"8255+7CV, Pasir Wan Salim, Mempawah Tim., Kab. Mempawah, Kalimantan Barat 78919","Pasir Wan Salim, Mempawah Tim., Kab. Mempawah",KALIMANTAN BARAT,78919.0,Indonesia,,,,0.3082491,109.0085567,https://maps.google.com/?cid=0x0:0x1db086eed450a74b,
supermarket,Toko,Toko Bintang Mas,"Jl. Bawal No.58, Terusan, Kec. Mempawah Hilir, Kab. Mempawah, Kalimantan Barat 78912","Terusan, Kec. Mempawah Hilir, Kab. Mempawah",KALIMANTAN BARAT,78912.0,Indonesia,,,,0.3635224,108.9620383,https://maps.google.com/?cid=0x0:0xdfd8b9b5c4d19599,
supermarket,supermarket,Kalimantan Barat 78918,"Kec. Mempawah Hilir, Kab. Mempawah, Kalimantan Barat","Kab. Mempawah, Kalimantan Barat",KALIMANTAN BARAT,,Indonesia,,,,0.4033764,109.0156,https://maps.google.com/?cid=0x0:0xb544e15df16f3bbf,
supermarket,Toko Swalayan,RYN'S Mart,"Tengah, Kec. Mempawah Hilir, Kab. Mempawah, Kalimantan Barat 78912","Kec. Mempawah Hilir, Kab. Mempawah",KALIMANTAN BARAT,78912.0,Indonesia,,,,0.3575277,108.9621786,https://maps.google.com/?cid=0x0:0x25ebc4fe7c21c086,
supermarket,Minimarket,Toko Tiar,"9X96+268, Pulau Pedalaman, Mempawah Timur, Pulau Pedalaman, Pontianak, Kab. Mempawah, Kalimantan Barat 78912","Pulau Pedalaman, Mempawah Timur, Pulau Pedalaman, Pontianak, Kab. Mempawah",KALIMANTAN BARAT,78912.0,Indonesia,89665348270.0,,,0.3675349,108.9605697,https://maps.google.com/?cid=0x0:0x270669c914c017e1,
supermarket,Toko Swalayan,HS Mart,"9X76+8FW, Terusan, Kec. Mempawah Hilir, Kab. Mempawah, Kalimantan Barat 78912","Terusan, Kec. Mempawah Hilir, Kab. Mempawah",KALIMANTAN BARAT,78912.0,Indonesia,,,,0.3633688,108.9612161,https://maps.google.com/?cid=0x0:0xd36d641a3f1e251a,
supermarket,Toko bahan makanan,Dafira Sellular,"9XC7+Q7W Raje Pulsa / Raje Shop, Pulau Pedalaman, Mempawah Tim., Kab. Mempawah, Kalimantan Barat 78912","Pulau Pedalaman, Mempawah Tim., Kab. Mempawah",KALIMANTAN BARAT,78912.0,Indonesia,85754665155.0,,,0.3719774,108.9631938,https://maps.google.com/?cid=0x0:0x8b21d64f32bf17e9,
supermarket,Grosir Barang Kelontong,Toko Cahaya Masa,"Jl. Gusti M. Taufik No.07, Terusan, Kec. Mempawah Hilir, Kab. Mempawah, Kalimantan Barat 78912","Terusan, Kec. Mempawah Hilir, Kab. Mempawah",KALIMANTAN BARAT,78912.0,Indonesia,561691407.0,,,0.3634113,108.9612286,https://maps.google.com/?cid=0x0:0x14ded5b29bcef5c0,
supermarket,Toko Swalayan,DF MART,"9X34+GW8, Jl. Rumah Sakit Dr. Rubini, Tengah, Kec. Mempawah Hilir, Kab. Mempawah, Kalimantan Barat 78912","Jl. Rumah Sakit Dr. Rubini, Tengah, Kec. Mempawah Hilir, Kab. Mempawah",KALIMANTAN BARAT,78912.0,Indonesia,,,,0.353779,108.9573128,https://maps.google.com/?cid=0x0:0x2127e62900cbe30b,
supermarket,Minimarket,Indomaret GM Taufik,"9X66+Q97, Jl. Gusti M. Taufik, Tengah, Kec. Mempawah Hilir, Kab. Mempawah, Kalimantan Barat 78912","Jl. Gusti M. Taufik, Tengah, Kec. Mempawah Hilir, Kab. Mempawah",KALIMANTAN BARAT,78912.0,Indonesia,5616693367.0,,,0.3619042,108.9609066,https://maps.google.com/?cid=0x0:0xd6436ea7745572e,
supermarket,Kafe,KTamb Minimart,"Jl. Gusti M. Taufik, Terusan, Kec. Mempawah Hilir, Kab. Mempawah, Kalimantan Barat 78912","Terusan, Kec. Mempawah Hilir, Kab. Mempawah",KALIMANTAN BARAT,78912.0,Indonesia,,,,0.3672927,108.9605206,https://maps.google.com/?cid=0x0:0xa7702e93751b077d,
supermarket,Pengolahan Ikan,Lapak Ikan Basah Pak Su,"9X89+3HV, Jl. Pangsuma, Antibar, Mempawah Tim., Kab. Mempawah, Kalimantan Barat","Kab. Mempawah, Kalimantan Barat",KALIMANTAN BARAT,,Indonesia,,,,0.3652343,108.9689349,https://maps.google.com/?cid=0x0:0x24d655bcb34cdd2a,
supermarket,Toko,Warung ASONG,"9X66+3GC, Tengah, Kec. Mempawah Hilir, Kab. Mempawah, Kalimantan Barat 78912","Tengah, Kec. Mempawah Hilir, Kab. Mempawah",KALIMANTAN BARAT,78912.0,Indonesia,,,,0.3601807,108.9612681,https://maps.google.com/?cid=0x0:0xb6d9501808289d5a,
supermarket,Minimarket,Alfamart,"Jl. Adiwijaya, RT.04/RW.02, Antibar, Kec. Mempawah Hilir, Kab. Mempawah, Kalimantan Barat 78917","RT.04/RW.02, Antibar, Kec. Mempawah Hilir, Kab. Mempawah",KALIMANTAN BARAT,78917.0,Indonesia,1500959.0,,,0.3645441,108.9662636,https://maps.google.com/?cid=0x0:0x94b96a9edea5ab63,
supermarket,supermarket,Penggilingan PAK AMAT,"9X77+73P, Terusan, Kec. Mempawah Hilir, Kab. Mempawah, Kalimantan Barat 78912","Terusan, Kec. Mempawah Hilir, Kab. Mempawah",KALIMANTAN BARAT,78912.0,Indonesia,,,,0.3632163,108.9627007,https://maps.google.com/?cid=0x0:0xffe2212b04f27e1,
supermarket,Toko,Warung Zakaria,"9XWH+QHF, Pasir, Kec. Mempawah Hilir, Kab. Mempawah, Kalimantan Barat","Kab. Mempawah, Kalimantan Barat",KALIMANTAN BARAT,,Indonesia,,,,0.396927,108.9789271,https://maps.google.com/?cid=0x0:0x18a994bec90bf6a,
supermarket,Kafe,K@'TAMB DAILY  KOST,"Jl. Gusti M. Taufik No.17, Terusan, Kec. Mempawah Hilir, Kab. Mempawah, Kalimantan Barat 78912","Terusan, Kec. Mempawah Hilir, Kab. Mempawah",KALIMANTAN BARAT,78912.0,Indonesia,82141223761.0,,,0.3672947,108.9605156,https://maps.google.com/?cid=0x0:0x3a85d38e0c3176ff,
supermarket,Toserba,Toko Khatulistiwa,"9X76+55X, Jl. Mawar, Terusan, Kec. Mempawah Hilir, Kab. Mempawah, Kalimantan Barat 78912","Jl. Mawar, Terusan, Kec. Mempawah Hilir, Kab. Mempawah",KALIMANTAN BARAT,78912.0,Indonesia,561692117.0,,,0.3629844,108.960488,https://maps.google.com/?cid=0x0:0xf8d533a4d31a89c9,
supermarket,Toko bahan makanan,Mini Market Senen,"9X76+457, Tengah, Kec. Mempawah Hilir, Kab. Mempawah, Kalimantan Barat 78912","Tengah, Kec. Mempawah Hilir, Kab. Mempawah",KALIMANTAN BARAT,78912.0,Indonesia,,,,0.3627947,108.9604067,https://maps.google.com/?cid=0x0:0xefd8cc95c8fb058d,
supermarket,Toko,Toko Bintang Mas,"Jl. Bawal No.58, Terusan, Kec. Mempawah Hilir, Kab. Mempawah, Kalimantan Barat 78912","Terusan, Kec. Mempawah Hilir, Kab. Mempawah",KALIMANTAN BARAT,78912.0,Indonesia,,,,0.3635224,108.9620383,https://maps.google.com/?cid=0x0:0xdfd8b9b5c4d19599,
supermarket,Taman,Taman Wisata Kuliner Mempawah,"9X56+8HQ, Tengah, Kec. Mempawah Hilir, Kab. Mempawah, Kalimantan Barat 78912","Tengah, Kec. Mempawah Hilir, Kab. Mempawah",KALIMANTAN BARAT,78912.0,Indonesia,,,,0.3583254,108.9614864,https://maps.google.com/?cid=0x0:0x14b486e64866721a,
supermarket,Toko Kosmetik,Mitha Bakery  Coffee Shop,"JL GST IBRAHIM SYAFIUDIN, TANJUNG BERKAT, Kec. Mempawah Hilir, Kab. Mempawah, Kalimantan Barat 78912","TANJUNG BERKAT, Kec. Mempawah Hilir, Kab. Mempawah",KALIMANTAN BARAT,78912.0,Indonesia,,,,0.3730445,108.9554606,https://maps.google.com/?cid=0x0:0xac509862ce4f5938,
supermarket,Toko bahan makanan,Toko Sembako Bang Ade,"Terusan, Kec. Mempawah Hilir, Kab. Mempawah, Kalimantan Barat 78912","Kec. Mempawah Hilir, Kab. Mempawah",KALIMANTAN BARAT,78912.0,Indonesia,,,,0.3631883,108.962318,https://maps.google.com/?cid=0x0:0xcf34598fc5c65f6a,
supermarket,Bar Karaoke,K-Tamb Waroeng  Cafe,"GM, Jl. Gusti M. Taufik No.179, Terusan, Mempawah Hilir, Mempawah Regency, West Kalimantan 78912","Jl. Gusti M. Taufik No.179, Terusan, Mempawah Hilir, Mempawah Regency",KALIMANTAN BARAT,78912.0,Indonesia,,,,0.3672947,108.9604787,https://maps.google.com/?cid=0x0:0xd3185ac53bd5510,
supermarket,supermarket,Kalimantan Barat 78919,"Kab. Mempawah, Kalimantan Barat","Kab. Mempawah, Kalimantan Barat",KALIMANTAN BARAT,,Indonesia,,,,0.4345421,109.0334318,https://maps.google.com/?cid=0x0:0xda6992d03365a27a,
supermarket,Toko Swalayan,RYN'S Mart,"Tengah, Kec. Mempawah Hilir, Kab. Mempawah, Kalimantan Barat 78912","Kec. Mempawah Hilir, Kab. Mempawah",KALIMANTAN BARAT,78912.0,Indonesia,,,,0.3575277,108.9621786,https://maps.google.com/?cid=0x0:0x25ebc4fe7c21c086,
supermarket,Toko bahan makanan,Toko wanda,"8255+7CV, Pasir Wan Salim, Mempawah Tim., Kab. Mempawah, Kalimantan Barat 78919","Pasir Wan Salim, Mempawah Tim., Kab. Mempawah",KALIMANTAN BARAT,78919.0,Indonesia,,,,0.3082491,109.0085567,https://maps.google.com/?cid=0x0:0x1db086eed450a74b,
supermarket,Toko bahan makanan,Dafira Sellular,"9XC7+Q7W Raje Pulsa / Raje Shop, Pulau Pedalaman, Mempawah Tim., Kab. Mempawah, Kalimantan Barat 78912","Pulau Pedalaman, Mempawah Tim., Kab. Mempawah",KALIMANTAN BARAT,78912.0,Indonesia,85754665155.0,,,0.3719774,108.9631938,https://maps.google.com/?cid=0x0:0x8b21d64f32bf17e9,
supermarket,Toko,Toko sayur dan sembako toko A3,"9WMX+XH3, Jl. Gusti Sulung Lelanang, Terusan, Kec. Mempawah Hilir, Kab. Mempawah, Kalimantan Barat 78912","Jl. Gusti Sulung Lelanang, Terusan, Kec. Mempawah Hilir, Kab. Mempawah",KALIMANTAN BARAT,78912.0,Indonesia,83138581491.0,,,0.3848769,108.9489346,https://maps.google.com/?cid=0x0:0xedaf07cee059b5aa,
supermarket,Pom bensin/SPBU,Indomaret SPBU Bakau Besar,"822H+32G, Sungai Bakau Kecil, Mempawah Tim., Kab. Mempawah, Kalimantan Barat 78919","Sungai Bakau Kecil, Mempawah Tim., Kab. Mempawah",KALIMANTAN BARAT,78919.0,Indonesia,,,,0.3001907,109.0275834,https://maps.google.com/?cid=0x0:0xfaa6d02d9d9adc1,
supermarket,Toko Kelontong Asia,MINIMARKET SIMPLY MART,"Jl. Gusti M. Taufik, Terusan, Kec. Mempawah Hilir, Kab. Mempawah, Kalimantan Barat 78912","Terusan, Kec. Mempawah Hilir, Kab. Mempawah",KALIMANTAN BARAT,78912.0,Indonesia,82256852250.0,,,0.3666134,108.9607014,https://maps.google.com/?cid=0x0:0xcd67e1efd43e3142,
supermarket,Minimarket,Aldimart,"Jl. Raya, RT./RW/RW.009/005, Parit Banjar, Mempawah Tim., Kab. Mempawah, Kalimantan Barat 78919","RT./RW/RW.009/005, Parit Banjar, Mempawah Tim., Kab. Mempawah",KALIMANTAN BARAT,78919.0,Indonesia,88258544270.0,,,0.3284132,109.0328405,https://maps.google.com/?cid=0x0:0xbfdbd45bfdec761d,
supermarket,Pasar,Kios Mitra Kampung Pasir,"9WJX+M59, Terusan, Kec. Mempawah Hilir, Kab. Mempawah, Kalimantan Barat 78912","Terusan, Kec. Mempawah Hilir, Kab. Mempawah",KALIMANTAN BARAT,78912.0,Indonesia,,,,0.3816664,108.9479835,https://maps.google.com/?cid=0x0:0x86371744f1e1a881,
supermarket,Toko,JAJAN JAM MEMPAWAH @Jajan_jammpw23,"Terusan, Kec. Mempawah Hilir, Kab. Mempawah, Kalimantan Barat 78912","Kec. Mempawah Hilir, Kab. Mempawah",KALIMANTAN BARAT,78912.0,Indonesia,83151077508.0,,,0.3689638,108.9494976,https://maps.google.com/?cid=0x0:0xbbee9c871fc3a32e,
supermarket,Minimarket,B MART,"FWV6+XPC, Jl. Raya Sungai Kunyit, Sungai Limau, Sungai Kunyit, Kab. Mempawah, Kalimantan Barat 78371","Jl. Raya Sungai Kunyit, Sungai Limau, Sungai Kunyit, Kab. Mempawah",KALIMANTAN BARAT,78371.0,Indonesia,,,,0.4949433,108.9117647,https://maps.google.com/?cid=0x0:0x2fc644a878302b2a,
supermarket,Minimarket,Alfamart,"Jl. Raya Malikian Dususn Kurnia, Satu, RT.002/RW.001, Pasir, Kec. Mempawah Hilir, Kab. Mempawah, Kalimantan Barat 78919","Satu, RT.002/RW.001, Pasir, Kec. Mempawah Hilir, Kab. Mempawah",KALIMANTAN BARAT,78919.0,Indonesia,1500959.0,,,0.4463385,108.9414149,https://maps.google.com/?cid=0x0:0x923342d8dfd09c75,
supermarket,Toko Swalayan,HS Mart,"9X76+8FW, Terusan, Kec. Mempawah Hilir, Kab. Mempawah, Kalimantan Barat 78912","Terusan, Kec. Mempawah Hilir, Kab. Mempawah",KALIMANTAN BARAT,78912.0,Indonesia,,,,0.3633688,108.9612161,https://maps.google.com/?cid=0x0:0xd36d641a3f1e251a,
supermarket,Toko bahan makanan,Toko Ahkim,"FWW6+GR4, Sungai Kunyit Laut, Sungai Kunyit, Kab. Mempawah, Kalimantan Barat 78371","Sungai Kunyit Laut, Sungai Kunyit, Kab. Mempawah",KALIMANTAN BARAT,78371.0,Indonesia,,,,0.4962511,108.9120871,https://maps.google.com/?cid=0x0:0x5b8e7d497f9f66ff,
supermarket,Kafe,KTamb Minimart,"Jl. Gusti M. Taufik, Terusan, Kec. Mempawah Hilir, Kab. Mempawah, Kalimantan Barat 78912","Terusan, Kec. Mempawah Hilir, Kab. Mempawah",KALIMANTAN BARAT,78912.0,Indonesia,,,,0.3672927,108.9605206,https://maps.google.com/?cid=0x0:0xa7702e93751b077d,
supermarket,Toko Kosmetik,Mitha Bakery  Coffee Shop,"JL GST IBRAHIM SYAFIUDIN, TANJUNG BERKAT, Kec. Mempawah Hilir, Kab. Mempawah, Kalimantan Barat 78912","TANJUNG BERKAT, Kec. Mempawah Hilir, Kab. Mempawah",KALIMANTAN BARAT,78912.0,Indonesia,,,,0.3730445,108.9554606,https://maps.google.com/?cid=0x0:0xac509862ce4f5938,
supermarket,Toko bahan makanan,Indomaret Semudun,"FW2Q+6R8, Semudun, Sungai Kunyit, Kab. Mempawah, Kalimantan Barat 78371","Semudun, Sungai Kunyit, Kab. Mempawah",KALIMANTAN BARAT,78371.0,Indonesia,,,,0.4505344,108.9395774,https://maps.google.com/?cid=0x0:0xd9292933ba0109b8,
supermarket,Grosir Barang Kelontong,Toko Cahaya Masa,"Jl. Gusti M. Taufik No.07, Terusan, Kec. Mempawah Hilir, Kab. Mempawah, Kalimantan Barat 78912","Terusan, Kec. Mempawah Hilir, Kab. Mempawah",KALIMANTAN BARAT,78912.0,Indonesia,561691407.0,,,0.3634113,108.9612286,https://maps.google.com/?cid=0x0:0x14ded5b29bcef5c0,
supermarket,Toko bahan makanan,INDAH MART,"9578+46F, Anjungan Melancar, Kec. Anjongan, Kab. Mempawah, Kalimantan Barat 78353","Anjungan Melancar, Kec. Anjongan, Kab. Mempawah",KALIMANTAN BARAT,78353.0,Indonesia,,,,0.3628159,109.1655465,https://maps.google.com/?cid=0x0:0xed3ec26e75df28ad,
supermarket,Pasar,Toho Mart,"95RJ+C2V, Kecurit, Kec. Toho, Kab. Mempawah, Kalimantan Barat 78353","Kecurit, Kec. Toho, Kab. Mempawah",KALIMANTAN BARAT,78353.0,Indonesia,,,,0.3911143,109.1800468,https://maps.google.com/?cid=0x0:0x88b1d5ae0280aa73,
supermarket,Toko,Endra Shop,"Jl. Pulau Pedalaman, Pulau Pedalaman, Mempawah Tim., Kab. Mempawah, Kalimantan Barat 78917","Pulau Pedalaman, Mempawah Tim., Kab. Mempawah",KALIMANTAN BARAT,78917.0,Indonesia,85752255242.0,,,0.3711964,108.9625737,https://maps.google.com/?cid=0x0:0x311ec953bebdddab,
supermarket,Toko Swalayan,DF MART,"9X34+GW8, Jl. Rumah Sakit Dr. Rubini, Tengah, Kec. Mempawah Hilir, Kab. Mempawah, Kalimantan Barat 78912","Jl. Rumah Sakit Dr. Rubini, Tengah, Kec. Mempawah Hilir, Kab. Mempawah",KALIMANTAN BARAT,78912.0,Indonesia,,,,0.353779,108.9573128,https://maps.google.com/?cid=0x0:0x2127e62900cbe30b,
supermarket,Toko bahan makanan,TOKE PUKAT BELANAK,"Gg. Al-Huda No.41, Terusan, Kec. Mempawah Hilir, Kab. Mempawah, Kalimantan Barat 78912","Terusan, Kec. Mempawah Hilir, Kab. Mempawah",KALIMANTAN BARAT,78912.0,Indonesia,,,,0.3680314,108.9490392,https://maps.google.com/?cid=0x0:0x1e70756568da3b32,
supermarket,Kafe,K@'TAMB DAILY  KOST,"Jl. Gusti M. Taufik No.17, Terusan, Kec. Mempawah Hilir, Kab. Mempawah, Kalimantan Barat 78912","Terusan, Kec. Mempawah Hilir, Kab. Mempawah",KALIMANTAN BARAT,78912.0,Indonesia,82141223761.0,,,0.3672947,108.9605156,https://maps.google.com/?cid=0x0:0x3a85d38e0c3176ff,
supermarket,Minimarket,Indomaret GM Taufik,"9X66+Q97, Jl. Gusti M. Taufik, Tengah, Kec. Mempawah Hilir, Kab. Mempawah, Kalimantan Barat 78912","Jl. Gusti M. Taufik, Tengah, Kec. Mempawah Hilir, Kab. Mempawah",KALIMANTAN BARAT,78912.0,Indonesia,5616693367.0,,,0.3619042,108.9609066,https://maps.google.com/?cid=0x0:0xd6436ea7745572e,
supermarket,Pusat Perbelanjaan,Toko pak maan/barokah,"C7HC+V3Q, Sepang, Kec. Toho, Kab. Mempawah, Kalimantan Barat 78361","Sepang, Kec. Toho, Kab. Mempawah",KALIMANTAN BARAT,78361.0,Indonesia,85311406544.0,,,0.4296486,109.2702958,https://maps.google.com/?cid=0x0:0xe90a33e68ef7f64f,
supermarket,Kios,Q'Oz_5180 (doli),"C76V+676, Pakutan, Kec. Toho, Kab. Mempawah, Kalimantan Barat 78361","Pakutan, Kec. Toho, Kab. Mempawah",KALIMANTAN BARAT,78361.0,Indonesia,82298767119.0,,,0.4105478,109.2931415,https://maps.google.com/?cid=0x0:0x4bf8887e1b6f249c,
supermarket,Toko,Toko Sahabat Tani Terap,"96X4+V4M, Dusun balah, Terap, Kec. Toho, Kab. Mempawah, Kalimantan Barat","Kab. Mempawah, Kalimantan Barat",KALIMANTAN BARAT,,Indonesia,,,,0.3997223,109.2053022,https://maps.google.com/?cid=0x0:0x4093a247d4f500f9,
supermarket,Toko bahan makanan,Toko Indah,"C7H9+WP2, Sepang, Kec. Toho, Kab. Mempawah, Kalimantan Barat","Kab. Mempawah, Kalimantan Barat",KALIMANTAN BARAT,,Indonesia,,,,0.4299648,109.2695512,https://maps.google.com/?cid=0x0:0xd003fbf0bc0cf02e,
supermarket,Toko Perlengkapan Rumah,Toko asung,"M7J4+J35, Parigi, Kec. Mempawah Hulu, Kabupaten Landak, Kalimantan Barat 79362","Parigi, Kec. Mempawah Hulu, Kabupaten Landak",KALIMANTAN BARAT,79362.0,Indonesia,82250480879.0,,,0.6815158,109.2552446,https://maps.google.com/?cid=0x0:0x8aa4fedb53773ae3,
supermarket,Toko,TOKO AKHTAR,"F4C3+2W6, Dusun parit Senin, RT./RW/RW.012/006, Sengkubang, Kec. Mempawah Hilir, Kab. Mempawah, Kalimantan Barat","Kab. Mempawah, Kalimantan Barat",KALIMANTAN BARAT,,Indonesia,,,,0.4700392,109.1047663,https://maps.google.com/?cid=0x0:0x3e68a6e2d382cf47,
supermarket,Toko umum,TARENG,"G6XV+VHX, Pentek, Kec. Sadaniang, Tareng, Kalimantan Barat","Tareng, Kalimantan Barat",KALIMANTAN BARAT,,Indonesia,,,,0.5497411,109.2439757,https://maps.google.com/?cid=0x0:0x8431a9cb6ad8814c,
supermarket,Toko bahan makanan,INDAH MART,"9578+46F, Anjungan Melancar, Kec. Anjongan, Kab. Mempawah, Kalimantan Barat 78353","Anjungan Melancar, Kec. Anjongan, Kab. Mempawah",KALIMANTAN BARAT,78353.0,Indonesia,,,,0.3628159,109.1655465,https://maps.google.com/?cid=0x0:0xed3ec26e75df28ad,
supermarket,Toko Swalayan,Warung Iyan,"Unnamed Road, Anjungan Melancar, Kec. Anjongan, Kab. Mempawah, Kalimantan Barat 78353","Anjungan Melancar, Kec. Anjongan, Kab. Mempawah",KALIMANTAN BARAT,78353.0,Indonesia,89508702233.0,,,0.3615032,109.1686828,https://maps.google.com/?cid=0x0:0xe83fbc7ea620f021,
supermarket,Toko Kelontong Asia,Toko Akhim,"Jalan Raya Pasar Takong, RT.5/RW.2, Sepang, Toho, Mempawah Regency, West Kalimantan 78361","RT.5/RW.2, Sepang, Toho, Mempawah Regency",KALIMANTAN BARAT,78361.0,Indonesia,,,,0.4299601,109.2697852,https://maps.google.com/?cid=0x0:0x6e54eb7adcf8efa4,
supermarket,Toko Swalayan,MM Sahabat Kita,"954F+7R6, Anjungan Melancar, Kec. Anjongan, Kab. Mempawah, Kalimantan Barat 78353","Anjungan Melancar, Kec. Anjongan, Kab. Mempawah",KALIMANTAN BARAT,78353.0,Indonesia,,,,0.3556647,109.1745191,https://maps.google.com/?cid=0x0:0x9895acf48b517c16,
supermarket,Toko bahan makanan,MM Sehati,"Anjungan Melancar, Kec. Anjongan, Kab. Mempawah, Kalimantan Barat 78353","Kec. Anjongan, Kab. Mempawah",KALIMANTAN BARAT,78353.0,Indonesia,,,,0.3620599,109.1648126,https://maps.google.com/?cid=0x0:0xcb0cc13b6a164580,
supermarket,Toko Swalayan,Warung Mak.Inggrit,"972H+3J6, Sambora, Kec. Toho, Kab. Mempawah, Kalimantan Barat 79355","Sambora, Kec. Toho, Kab. Mempawah",KALIMANTAN BARAT,79355.0,Indonesia,,,,0.3501518,109.2790234,https://maps.google.com/?cid=0x0:0xf8ee5eb67906366,
supermarket,Komplek perumahan,Rumah We Mara,"C8R2+P82, Sepahat, Kec. Menjalin, Kabupaten Landak, Kalimantan Barat","Kabupaten Landak, Kalimantan Barat",KALIMANTAN BARAT,,Indonesia,,,,0.4417622,109.3007526,https://maps.google.com/?cid=0x0:0x4ad979afaa73b02a,
supermarket,Toko,Toko HUSIN,"Anjungan - Karangan Jl. Ps. Bujur, Anjungan Melancar, Kec. Anjongan, Kab. Mempawah, Kalimantan Barat 78954","Anjungan Melancar, Kec. Anjongan, Kab. Mempawah",KALIMANTAN BARAT,78954.0,Indonesia,85821781428.0,,,0.3611275,109.1647812,https://maps.google.com/?cid=0x0:0xb9d57e50f08d8f13,
supermarket,Toko Swalayan,Warung Mak ode,"86V2+V6Q, Jl. Lintas Kalimantan Poros Tengah, Pak Bulu, Kec. Anjongan, Kab. Mempawah, Kalimantan Barat 78353","Jl. Lintas Kalimantan Poros Tengah, Pak Bulu, Kec. Anjongan, Kab. Mempawah",KALIMANTAN BARAT,78353.0,Indonesia,,,,0.3447195,109.2005949,https://maps.google.com/?cid=0x0:0xc18400dddd8d6794,
supermarket,supermarket,Kalimantan Barat 78351,"Kab. Mempawah, Kalimantan Barat","Kab. Mempawah, Kalimantan Barat",KALIMANTAN BARAT,,Indonesia,,,,0.1057515,109.3307345,https://maps.google.com/?cid=0x0:0x746d9e30687aa03a,
supermarket,Toko Swalayan,Toko Eka,"54XX+FGP, Sungai Purun Besar, Segedong, Kab. Mempawah, Kalimantan Barat 78353","Sungai Purun Besar, Segedong, Kab. Mempawah",KALIMANTAN BARAT,78353.0,Indonesia,,,,0.1987053,109.1488396,https://maps.google.com/?cid=0x0:0xdecb4de077873724,
supermarket,Minimarket,Alfamart Segedong,"Jl. Parit Bujur Desa, RT.001/RW.003, Peniti Besar, Segedong, Kab. Mempawah, Kalimantan Barat 78351","RT.001/RW.003, Peniti Besar, Segedong, Kab. Mempawah",KALIMANTAN BARAT,78351.0,Indonesia,1500959.0,,,0.1607734,109.2010968,https://maps.google.com/?cid=0x0:0x6b443c737b7837dc,
supermarket,Minimarket,Toko Sumber Rejeki,"Jl. Raya Jungkat No.4, Sei Nipah, Kec. Jongkat, Kab. Mempawah, Kalimantan Barat 78351","Sei Nipah, Kec. Jongkat, Kab. Mempawah",KALIMANTAN BARAT,78351.0,Indonesia,,,,0.0634524,109.2030282,https://maps.google.com/?cid=0x0:0xef08b450ba6f24dc,
supermarket,Minimarket,WK.AKIONG,"Jl. Wajok Hilir No.49-50, Wajok Hilir, Kec. Jongkat, Kab. Mempawah, Kalimantan Barat 78351","Wajok Hilir, Kec. Jongkat, Kab. Mempawah",KALIMANTAN BARAT,78351.0,Indonesia,85751759188.0,,,0.0499718,109.2217891,https://maps.google.com/?cid=0x0:0x9c8cfa95068346d9,
supermarket,Toko umum,SantabinaMart,"Gedung Intan, Peniti Dalam I, Segedong, Kab. Mempawah, Kalimantan Barat 78351","Peniti Dalam I, Segedong, Kab. Mempawah",KALIMANTAN BARAT,78351.0,Indonesia,,,,0.1551611,109.2403103,https://maps.google.com/?cid=0x0:0x28da885ca2a5227,
supermarket,Toko Kelontong Asia,Indomaret Raya Jungkat,"Jl. Raya Jungkat No.72, Sei Nipah, Kec. Jongkat, Kab. Mempawah, Kalimantan Barat 78351","Sei Nipah, Kec. Jongkat, Kab. Mempawah",KALIMANTAN BARAT,78351.0,Indonesia,,,,0.0627261,109.2041992,https://maps.google.com/?cid=0x0:0x94c26711face58e4,
supermarket,Pusat Perbelanjaan,Bright day,"5652+PJV, Peniti Besar, Segedong, Mempawah Regency, West Kalimantan 78351","Peniti Besar, Segedong, Mempawah Regency",KALIMANTAN BARAT,78351.0,Indonesia,,,,0.1593625,109.2015469,https://maps.google.com/?cid=0x0:0x50fe9e40a78bf47d,
supermarket,Grosir Buah,Warung nisabila,"35CV+H33, Sei Nipah, Kec. Jongkat, Kab. Mempawah, Kalimantan Barat 78351","Sei Nipah, Kec. Jongkat, Kab. Mempawah",KALIMANTAN BARAT,78351.0,Indonesia,,,,0.0713866,109.1926824,https://maps.google.com/?cid=0x0:0xf3cec5a0f6aa779f,
supermarket,Toko bahan makanan,Toko Lusiana,"3638+PG3, Jl. Ahmad Yani, Jungkat, Kec. Jongkat, Kab. Mempawah, Kalimantan Barat 78351","Jl. Ahmad Yani, Jungkat, Kec. Jongkat, Kab. Mempawah",KALIMANTAN BARAT,78351.0,Indonesia,,,,0.0542584,109.2163027,https://maps.google.com/?cid=0x0:0xf42436c13d4a2273,
supermarket,Minimarket,OkeMart,"Jl. Budi Utomo, Siantan Hulu, Kec. Pontianak Utara, Kota Pontianak, Kalimantan Barat 78241","Siantan Hulu, Kec. Pontianak Utara, Kota Pontianak",KALIMANTAN BARAT,78241.0,Indonesia,,,,0.0021749,109.3575586,https://maps.google.com/?cid=0x0:0x5d7bfbf982f5b8d0,
supermarket,Toko Kelontong Asia,Makngah Tila,"36C2+QCM, Sei Nipah, Kec. Jongkat, Kab. Mempawah, Kalimantan Barat 78351","Sei Nipah, Kec. Jongkat, Kab. Mempawah",KALIMANTAN BARAT,78351.0,Indonesia,89667857836.0,,,0.071971,109.2010469,https://maps.google.com/?cid=0x0:0x7f7e6c6c507be779,
supermarket,Minimarket,Toko Agus swadaya,"35QJ+654, Jl. Sungai Nipah, Sei Nipah, Kec. Jongkat, Kab. Mempawah, Kalimantan Barat 78351","Jl. Sungai Nipah, Sei Nipah, Kec. Jongkat, Kab. Mempawah",KALIMANTAN BARAT,78351.0,Indonesia,,,,0.0880214,109.1804495,https://maps.google.com/?cid=0x0:0xe65b6659ffcad4d1,
supermarket,Toko bahan makanan,Indomaret Segedong,"5662+679, Parit Bugis, Segedong, Kab. Mempawah, Kalimantan Barat 78351","Parit Bugis, Segedong, Kab. Mempawah",KALIMANTAN BARAT,78351.0,Indonesia,,,,0.1605357,109.2007389,https://maps.google.com/?cid=0x0:0xaf318e7a68b35fb4,
supermarket,Minimarket,INDOMARET WAJO,"278M+33W, Wajok Hulu, Kec. Jongkat, Kab. Mempawah, Kalimantan Barat 78351","Wajok Hulu, Kec. Jongkat, Kab. Mempawah",KALIMANTAN BARAT,78351.0,Indonesia,,,,0.0152257,109.2827019,https://maps.google.com/?cid=0x0:0xa0d63966418d518c,
supermarket,supermarket,Wk yanda,"2858+28J, Gg. Usaha Keluarga Dalam, Batu Layang, Kec. Pontianak Utara, Kota Pontianak, Kalimantan Barat 78244","Gg. Usaha Keluarga Dalam, Batu Layang, Kec. Pontianak Utara, Kota Pontianak",KALIMANTAN BARAT,78244.0,Indonesia,,,,0.0075964,109.3157667,https://maps.google.com/?cid=0x0:0x70c4396ece202fe3,
supermarket,Minimarket,Wowonmart,"Jl. Raya Segedong No.desa, RT.02 rw01, Sungai Burung, Segedong, Kab. Mempawah, Kalimantan Barat 78351","RT.02 rw01, Sungai Burung, Segedong, Kab. Mempawah",KALIMANTAN BARAT,78351.0,Indonesia,85787490196.0,,,0.1520643,109.1605175,https://maps.google.com/?cid=0x0:0x96faf6a34284848b,
supermarket,Toko Swalayan,Warung Sayuran Nohong,"26RP+C7G, Wajok Hilir, Kec. Jongkat, Kab. Mempawah, Kalimantan Barat 78351","Wajok Hilir, Kec. Jongkat, Kab. Mempawah",KALIMANTAN BARAT,78351.0,Indonesia,,,,0.0410696,109.2357158,https://maps.google.com/?cid=0x0:0xf6fc388a9b489d7a,
supermarket,Pusat Perbelanjaan,Toko kolopan bengkrup,"56QQ+FG7, Unnamed Road, Peniti Besar, Segedong, Kab. Mempawah, Kalimantan Barat 78351","Unnamed Road, Peniti Besar, Segedong, Kab. Mempawah",KALIMANTAN BARAT,78351.0,Indonesia,,,,0.1886557,109.2387831,https://maps.google.com/?cid=0x0:0x4b343dc7fc00ceef,
supermarket,Toko Kelontong Asia,Alfamart Jungkat,"Jl. Raya Jungkat, RT.001/RW.007, Jungkat, Kec. Jongkat, Kab. Mempawah, Kalimantan Barat 78351","RT.001/RW.007, Jungkat, Kec. Jongkat, Kab. Mempawah",KALIMANTAN BARAT,78351.0,Indonesia,1500959.0,,,0.0651243,109.2007012,https://maps.google.com/?cid=0x0:0x2c2f681b79377259,
supermarket,Minimarket,Aneka buah segedong,"5652+PFX, Pasar, Parit Bugis, Segedong, Kab. Mempawah, Kalimantan Barat","Kab. Mempawah, Kalimantan Barat",KALIMANTAN BARAT,,Indonesia,,,,0.15935,109.2012474,https://maps.google.com/?cid=0x0:0xf77747c6437427c5,
supermarket,Toko bahan makanan,DEDI MART,"Jl. Parit Suka Maju, Dusun Jaya, Kencana, Desa Sungai Malaya, Kabupaten Kubu Raya, Kalimantan Barat 78393","Dusun Jaya, Kencana, Desa Sungai Malaya, Kabupaten Kubu Raya",KALIMANTAN BARAT,78393.0,Indonesia,83126044731.0,,,0.0232632,109.3897481,https://maps.google.com/?cid=0x0:0xba84697928d58b71,
supermarket,Minimarket,Alfamart Raya Jungkat,"Jl. Raya Jungkat, RT.002/RW.002, Sei Nipah, Kec. Jongkat, Kab. Mempawah, Kalimantan Barat 78351","RT.002/RW.002, Sei Nipah, Kec. Jongkat, Kab. Mempawah",KALIMANTAN BARAT,78351.0,Indonesia,1500959.0,,,0.0613004,109.2067991,https://maps.google.com/?cid=0x0:0x579c8c5011d522aa,
supermarket,Toko Swalayan,Citra Jeruju Supermarket  Toserba,"X8V6+CHP, Jl. Komodor Yos Sudarso, Sungai Jawi Luar, Kec. Pontianak Bar., Kota Pontianak, Kalimantan Barat 78244","Jl. Komodor Yos Sudarso, Sungai Jawi Luar, Kec. Pontianak Bar., Kota Pontianak",KALIMANTAN BARAT,78244.0,Indonesia,561774619.0,,,-0.0064202,109.3114554,https://maps.google.com/?cid=0x0:0xf485ecefbd60087c,
supermarket,supermarket,Kec. Jongkat,"Kab. Mempawah, Kalimantan Barat","Kab. Mempawah, Kalimantan Barat",KALIMANTAN BARAT,,Indonesia,,,,0.0634606,109.2031882,https://maps.google.com/?cid=0x0:0x2c7b4eaee305cd8a,
supermarket,Toko Swalayan,Citra Siantan Pasar Swalayan  Dept. Store,"X8JW+H7J, Jl. Gusti Situt Mahmud, Siantan Tengah, Kec. Pontianak Utara, Kota Pontianak, Kalimantan Barat 78243","Jl. Gusti Situt Mahmud, Siantan Tengah, Kec. Pontianak Utara, Kota Pontianak",KALIMANTAN BARAT,78243.0,Indonesia,,,,-0.0185436,109.3456415,https://maps.google.com/?cid=0x0:0xa7e1608cceddacd8,
supermarket,Toko Alat Tulis Kantor,Panda Atk Mart,"Jl. Budi Utomo, Siantan Hilir, Kec. Pontianak Utara, Kota Pontianak, Kalimantan Barat 78243","Siantan Hilir, Kec. Pontianak Utara, Kota Pontianak",KALIMANTAN BARAT,78243.0,Indonesia,81649116017.0,,,-0.0031113,109.3286001,https://maps.google.com/?cid=0x0:0x248af665257f13,
supermarket,Minimarket,WK.AKIONG,"Jl. Wajok Hilir No.49-50, Wajok Hilir, Kec. Jongkat, Kab. Mempawah, Kalimantan Barat 78351","Wajok Hilir, Kec. Jongkat, Kab. Mempawah",KALIMANTAN BARAT,78351.0,Indonesia,85751759188.0,,,0.0499718,109.2217891,https://maps.google.com/?cid=0x0:0x9c8cfa95068346d9,
supermarket,Toko bahan makanan,MEGA MART,"X9M9+RC9, Jl. Selat Panjang, Siantan Hulu, Kec. Pontianak Utara, Kota Pontianak, Kalimantan Barat 78243","Jl. Selat Panjang, Siantan Hulu, Kec. Pontianak Utara, Kota Pontianak",KALIMANTAN BARAT,78243.0,Indonesia,,,,-0.0154538,109.3686155,https://maps.google.com/?cid=0x0:0x7b6c515cf5c431e8,
supermarket,Pusat Perbelanjaan,MM. Idol,"X8MR+C53, Jl. Khatulistiwa, Siantan Tengah, Kec. Pontianak Utara, Kota Pontianak, Kalimantan Barat 78243","Jl. Khatulistiwa, Siantan Tengah, Kec. Pontianak Utara, Kota Pontianak",KALIMANTAN BARAT,78243.0,Indonesia,81255860962.0,,,-0.0164805,109.3404332,https://maps.google.com/?cid=0x0:0xddcd77e99c07f878,
supermarket,Toko Swalayan,Citra Jeruju Supermarket  Toserba,"X8V6+CHP, Jl. Komodor Yos Sudarso, Sungai Jawi Luar, Kec. Pontianak Bar., Kota Pontianak, Kalimantan Barat 78244","Jl. Komodor Yos Sudarso, Sungai Jawi Luar, Kec. Pontianak Bar., Kota Pontianak",KALIMANTAN BARAT,78244.0,Indonesia,561774619.0,,,-0.0064202,109.3114554,https://maps.google.com/?cid=0x0:0xf485ecefbd60087c,
supermarket,Toko Swalayan,Murah Market Mitra Jeruju (MJ),"Jl. Komodor Yos Sudarso No.1, RW.4, Sungai Beliung, Kec. Pontianak Bar., Kota Pontianak, Kalimantan Barat 78244","RW.4, Sungai Beliung, Kec. Pontianak Bar., Kota Pontianak",KALIMANTAN BARAT,78244.0,Indonesia,81250239161.0,,,-0.0068497,109.2903896,https://maps.google.com/?cid=0x0:0x34cc3586e257d6af,
supermarket,Grosir Buah,Warung nisabila,"35CV+H33, Sei Nipah, Kec. Jongkat, Kab. Mempawah, Kalimantan Barat 78351","Sei Nipah, Kec. Jongkat, Kab. Mempawah",KALIMANTAN BARAT,78351.0,Indonesia,,,,0.0713866,109.1926824,https://maps.google.com/?cid=0x0:0xf3cec5a0f6aa779f,
supermarket,Minimarket,INDOMARET WAJO,"278M+33W, Wajok Hulu, Kec. Jongkat, Kab. Mempawah, Kalimantan Barat 78351","Wajok Hulu, Kec. Jongkat, Kab. Mempawah",KALIMANTAN BARAT,78351.0,Indonesia,,,,0.0152257,109.2827019,https://maps.google.com/?cid=0x0:0xa0d63966418d518c,
supermarket,Minimarket,Indomaret Khatulistiwa,"2837+H7J, Jl. Khatulistiwa, Siantan Hilir, Kec. Pontianak Utara, Kota Pontianak, Kalimantan Barat 78244","Jl. Khatulistiwa, Siantan Hilir, Kec. Pontianak Utara, Kota Pontianak",KALIMANTAN BARAT,78244.0,Indonesia,,,,0.0039682,109.3131538,https://maps.google.com/?cid=0x0:0xa83d01ff50fca311,
supermarket,Minimarket,Toko Sumber Rejeki,"Jl. Raya Jungkat No.4, Sei Nipah, Kec. Jongkat, Kab. Mempawah, Kalimantan Barat 78351","Sei Nipah, Kec. Jongkat, Kab. Mempawah",KALIMANTAN BARAT,78351.0,Indonesia,,,,0.0634524,109.2030282,https://maps.google.com/?cid=0x0:0xef08b450ba6f24dc,
supermarket,Toko Swalayan,Warung Sayuran Nohong,"26RP+C7G, Wajok Hilir, Kec. Jongkat, Kab. Mempawah, Kalimantan Barat 78351","Wajok Hilir, Kec. Jongkat, Kab. Mempawah",KALIMANTAN BARAT,78351.0,Indonesia,,,,0.0410696,109.2357158,https://maps.google.com/?cid=0x0:0xf6fc388a9b489d7a,
supermarket,Toko Kelontong Asia,Makngah Tila,"36C2+QCM, Sei Nipah, Kec. Jongkat, Kab. Mempawah, Kalimantan Barat 78351","Sei Nipah, Kec. Jongkat, Kab. Mempawah",KALIMANTAN BARAT,78351.0,Indonesia,89667857836.0,,,0.071971,109.2010469,https://maps.google.com/?cid=0x0:0x7f7e6c6c507be779,
supermarket,Agen Pemasaran,"DAMAI NGETOP (Kepiting,Kuyung,Kerang,Kepah,Udang,Ikan,dll)","45R4+59P, Jl. Pontianak - Sei Pinyuh, Peniti Luar, Kec. Jongkat, Kab. Mempawah, Kalimantan Barat 78351","Jl. Pontianak - Sei Pinyuh, Peniti Luar, Kec. Jongkat, Kab. Mempawah",KALIMANTAN BARAT,78351.0,Indonesia,85966481709.0,,,0.1404597,109.155968,https://maps.google.com/?cid=0x0:0x7c765e8e65449408,
supermarket,Toko bahan makanan,Adi Ponsel,"Jl. Wajok Hilir No.KM 14.3, Wajok Hilir, Kec. Jongkat, Kab. Mempawah, Kalimantan Barat 78351","Wajok Hilir, Kec. Jongkat, Kab. Mempawah",KALIMANTAN BARAT,78351.0,Indonesia,82152760600.0,,,0.0415722,109.2341611,https://maps.google.com/?cid=0x0:0xe4e135f794e54776,
supermarket,Toko Kelontong Asia,Indomaret Raya Jungkat,"Jl. Raya Jungkat No.72, Sei Nipah, Kec. Jongkat, Kab. Mempawah, Kalimantan Barat 78351","Sei Nipah, Kec. Jongkat, Kab. Mempawah",KALIMANTAN BARAT,78351.0,Indonesia,,,,0.0627261,109.2041992,https://maps.google.com/?cid=0x0:0x94c26711face58e4,
supermarket,Toko Perlengkapan Rumah,Imronhome,"3662+FHM, Jl. Pendidikan, Jungkat, Kec. Jongkat, Kab. Mempawah, Kalimantan Barat 78351","Jl. Pendidikan, Jungkat, Kec. Jongkat, Kab. Mempawah",KALIMANTAN BARAT,78351.0,Indonesia,81345629294.0,,,0.0612022,109.2014271,https://maps.google.com/?cid=0x0:0xbb742630c11504b0,
supermarket,Toko bahan makanan,Toko Lusiana,"3638+PG3, Jl. Ahmad Yani, Jungkat, Kec. Jongkat, Kab. Mempawah, Kalimantan Barat 78351","Jl. Ahmad Yani, Jungkat, Kec. Jongkat, Kab. Mempawah",KALIMANTAN BARAT,78351.0,Indonesia,,,,0.0542584,109.2163027,https://maps.google.com/?cid=0x0:0xf42436c13d4a2273,
supermarket,Toko bahan makanan,Adi Ponsel 2,"Jl. Wajok Hilir No.25, Wajok Hilir, Kec. Jongkat, Kab. Mempawah, Kalimantan Barat 78351","Wajok Hilir, Kec. Jongkat, Kab. Mempawah",KALIMANTAN BARAT,78351.0,Indonesia,8994443308.0,,,0.047857,109.2242346,https://maps.google.com/?cid=0x0:0xde0c78d57a8bda9e,
supermarket,supermarket,Kec. Jongkat,"Kab. Mempawah, Kalimantan Barat","Kab. Mempawah, Kalimantan Barat",KALIMANTAN BARAT,,Indonesia,,,,0.0634606,109.2031882,https://maps.google.com/?cid=0x0:0x2c7b4eaee305cd8a,
supermarket,Minimarket,OkeMart,"Jl. Budi Utomo, Siantan Hulu, Kec. Pontianak Utara, Kota Pontianak, Kalimantan Barat 78241","Siantan Hulu, Kec. Pontianak Utara, Kota Pontianak",KALIMANTAN BARAT,78241.0,Indonesia,,,,0.0021749,109.3575586,https://maps.google.com/?cid=0x0:0x5d7bfbf982f5b8d0,
supermarket,Toko Swalayan,Citra Siantan Pasar Swalayan  Dept. Store,"X8JW+H7J, Jl. Gusti Situt Mahmud, Siantan Tengah, Kec. Pontianak Utara, Kota Pontianak, Kalimantan Barat 78243","Jl. Gusti Situt Mahmud, Siantan Tengah, Kec. Pontianak Utara, Kota Pontianak",KALIMANTAN BARAT,78243.0,Indonesia,,,,-0.0185436,109.3456415,https://maps.google.com/?cid=0x0:0xa7e1608cceddacd8,
supermarket,Toko Alat Tulis Kantor,Panda Atk Mart,"Jl. Budi Utomo, Siantan Hilir, Kec. Pontianak Utara, Kota Pontianak, Kalimantan Barat 78243","Siantan Hilir, Kec. Pontianak Utara, Kota Pontianak",KALIMANTAN BARAT,78243.0,Indonesia,81649116017.0,,,-0.0031113,109.3286001,https://maps.google.com/?cid=0x0:0x248af665257f13,
supermarket,Minimarket,WK.AKIONG,"Jl. Wajok Hilir No.49-50, Wajok Hilir, Kec. Jongkat, Kab. Mempawah, Kalimantan Barat 78351","Wajok Hilir, Kec. Jongkat, Kab. Mempawah",KALIMANTAN BARAT,78351.0,Indonesia,85751759188.0,,,0.0499718,109.2217891,https://maps.google.com/?cid=0x0:0x9c8cfa95068346d9,
supermarket,Toko bahan makanan,MEGA MART,"X9M9+RC9, Jl. Selat Panjang, Siantan Hulu, Kec. Pontianak Utara, Kota Pontianak, Kalimantan Barat 78243","Jl. Selat Panjang, Siantan Hulu, Kec. Pontianak Utara, Kota Pontianak",KALIMANTAN BARAT,78243.0,Indonesia,,,,-0.0154538,109.3686155,https://maps.google.com/?cid=0x0:0x7b6c515cf5c431e8,
supermarket,Grosir Buah,Warung nisabila,"35CV+H33, Sei Nipah, Kec. Jongkat, Kab. Mempawah, Kalimantan Barat 78351","Sei Nipah, Kec. Jongkat, Kab. Mempawah",KALIMANTAN BARAT,78351.0,Indonesia,,,,0.0713866,109.1926824,https://maps.google.com/?cid=0x0:0xf3cec5a0f6aa779f,
supermarket,Toko bahan makanan,Toko alai,"Jl. Pwan Peraman No.36, Siantan Hilir, Kec. Pontianak Utara, Kota Pontianak, Kalimantan Barat 78243","Siantan Hilir, Kec. Pontianak Utara, Kota Pontianak",KALIMANTAN BARAT,78243.0,Indonesia,,,,0.0039797,109.3339436,https://maps.google.com/?cid=0x0:0xda9bb1cc0af4f3be,
supermarket,Minimarket,INDOMARET WAJO,"278M+33W, Wajok Hulu, Kec. Jongkat, Kab. Mempawah, Kalimantan Barat 78351","Wajok Hulu, Kec. Jongkat, Kab. Mempawah",KALIMANTAN BARAT,78351.0,Indonesia,,,,0.0152257,109.2827019,https://maps.google.com/?cid=0x0:0xa0d63966418d518c,
supermarket,Toko Swalayan,Warung Sayuran Nohong,"26RP+C7G, Wajok Hilir, Kec. Jongkat, Kab. Mempawah, Kalimantan Barat 78351","Wajok Hilir, Kec. Jongkat, Kab. Mempawah",KALIMANTAN BARAT,78351.0,Indonesia,,,,0.0410696,109.2357158,https://maps.google.com/?cid=0x0:0xf6fc388a9b489d7a,
supermarket,Minimarket,Toko Sumber Rejeki,"Jl. Raya Jungkat No.4, Sei Nipah, Kec. Jongkat, Kab. Mempawah, Kalimantan Barat 78351","Sei Nipah, Kec. Jongkat, Kab. Mempawah",KALIMANTAN BARAT,78351.0,Indonesia,,,,0.0634524,109.2030282,https://maps.google.com/?cid=0x0:0xef08b450ba6f24dc,
supermarket,Toko Roti,Kaisar Supermarket And Department Store,"Jl. Patimura No.84, Darat Sekip, Kec. Pontianak Kota, Kota Pontianak, Kalimantan Barat 78117","Darat Sekip, Kec. Pontianak Kota, Kota Pontianak",KALIMANTAN BARAT,78117.0,Indonesia,,,,-0.027957,109.3391161,https://maps.google.com/?cid=0x0:0xa3b2757a80e2da24,
supermarket,Minimarket,Toko Cak Nur,"45W5+6X, Peniti Luar, Kec. Jongkat, Kab. Mempawah, Kalimantan Barat 78351","Peniti Luar, Kec. Jongkat, Kab. Mempawah",KALIMANTAN BARAT,78351.0,Indonesia,81256655984.0,,,0.1447682,109.1607442,https://maps.google.com/?cid=0x0:0xcc8c2c2da834f679,
supermarket,Toko Swalayan,Citra Jeruju Supermarket  Toserba,"X8V6+CHP, Jl. Komodor Yos Sudarso, Sungai Jawi Luar, Kec. Pontianak Bar., Kota Pontianak, Kalimantan Barat 78244","Jl. Komodor Yos Sudarso, Sungai Jawi Luar, Kec. Pontianak Bar., Kota Pontianak",KALIMANTAN BARAT,78244.0,Indonesia,561774619.0,,,-0.0064202,109.3114554,https://maps.google.com/?cid=0x0:0xf485ecefbd60087c,
supermarket,Pusat Perbelanjaan,MM. Idol,"X8MR+C53, Jl. Khatulistiwa, Siantan Tengah, Kec. Pontianak Utara, Kota Pontianak, Kalimantan Barat 78243","Jl. Khatulistiwa, Siantan Tengah, Kec. Pontianak Utara, Kota Pontianak",KALIMANTAN BARAT,78243.0,Indonesia,81255860962.0,,,-0.0164805,109.3404332,https://maps.google.com/?cid=0x0:0xddcd77e99c07f878,
supermarket,Toko bahan makanan,Toko Lusiana,"3638+PG3, Jl. Ahmad Yani, Jungkat, Kec. Jongkat, Kab. Mempawah, Kalimantan Barat 78351","Jl. Ahmad Yani, Jungkat, Kec. Jongkat, Kab. Mempawah",KALIMANTAN BARAT,78351.0,Indonesia,,,,0.0542584,109.2163027,https://maps.google.com/?cid=0x0:0xf42436c13d4a2273,
supermarket,Toko Swalayan,Murah Market Mitra Jeruju (MJ),"Jl. Komodor Yos Sudarso No.1, RW.4, Sungai Beliung, Kec. Pontianak Bar., Kota Pontianak, Kalimantan Barat 78244","RW.4, Sungai Beliung, Kec. Pontianak Bar., Kota Pontianak",KALIMANTAN BARAT,78244.0,Indonesia,81250239161.0,,,-0.0068497,109.2903896,https://maps.google.com/?cid=0x0:0x34cc3586e257d6af,
supermarket,Toko Kelontong Asia,Makngah Tila,"36C2+QCM, Sei Nipah, Kec. Jongkat, Kab. Mempawah, Kalimantan Barat 78351","Sei Nipah, Kec. Jongkat, Kab. Mempawah",KALIMANTAN BARAT,78351.0,Indonesia,89667857836.0,,,0.071971,109.2010469,https://maps.google.com/?cid=0x0:0x7f7e6c6c507be779,
supermarket,Minimarket,Toko SINAR JAYA,"Jl. Raya Jungkat No.49, Jungkat, Kec. Jongkat, Kab. Mempawah, Kalimantan Barat 78351","Jungkat, Kec. Jongkat, Kab. Mempawah",KALIMANTAN BARAT,78351.0,Indonesia,,,,0.0567652,109.2128649,https://maps.google.com/?cid=0x0:0xd0e0aada005f7749,
supermarket,Toko bahan makanan,Toko Lim tang hai,"Jl. Pwan Peraman No.11, Siantan Hilir, Kec. Pontianak Utara, Kota Pontianak, Kalimantan Barat 78243","Siantan Hilir, Kec. Pontianak Utara, Kota Pontianak",KALIMANTAN BARAT,78243.0,Indonesia,,,,0.0046543,109.3339513,https://maps.google.com/?cid=0x0:0xf570f75b7a2de94e,
supermarket,Minimarket,Indomaret Khatulistiwa,"2837+H7J, Jl. Khatulistiwa, Siantan Hilir, Kec. Pontianak Utara, Kota Pontianak, Kalimantan Barat 78244","Jl. Khatulistiwa, Siantan Hilir, Kec. Pontianak Utara, Kota Pontianak",KALIMANTAN BARAT,78244.0,Indonesia,,,,0.0039682,109.3131538,https://maps.google.com/?cid=0x0:0xa83d01ff50fca311,
supermarket,Agen Pemasaran,"DAMAI NGETOP (Kepiting,Kuyung,Kerang,Kepah,Udang,Ikan,dll)","45R4+59P, Jl. Pontianak - Sei Pinyuh, Peniti Luar, Kec. Jongkat, Kab. Mempawah, Kalimantan Barat 78351","Jl. Pontianak - Sei Pinyuh, Peniti Luar, Kec. Jongkat, Kab. Mempawah",KALIMANTAN BARAT,78351.0,Indonesia,85966481709.0,,,0.1404597,109.155968,https://maps.google.com/?cid=0x0:0x7c765e8e65449408,
supermarket,Toko Kelontong Asia,Indomaret Raya Jungkat,"Jl. Raya Jungkat No.72, Sei Nipah, Kec. Jongkat, Kab. Mempawah, Kalimantan Barat 78351","Sei Nipah, Kec. Jongkat, Kab. Mempawah",KALIMANTAN BARAT,78351.0,Indonesia,,,,0.0627261,109.2041992,https://maps.google.com/?cid=0x0:0x94c26711face58e4,
supermarket,Minimarket,MM. Mitra Buana,"X9M6+R4F, Jl. Gusti Situt Mahmud, Siantan Hulu, Kec. Pontianak Utara, Kota Pontianak, Kalimantan Barat 78243","Jl. Gusti Situt Mahmud, Siantan Hulu, Kec. Pontianak Utara, Kota Pontianak",KALIMANTAN BARAT,78243.0,Indonesia,,,,-0.015429,109.360294,https://maps.google.com/?cid=0x0:0x27f21e3dd9d3d4bd,
supermarket,Toko Kelontong Asia,Alfamart Jungkat,"Jl. Raya Jungkat, RT.001/RW.007, Jungkat, Kec. Jongkat, Kab. Mempawah, Kalimantan Barat 78351","RT.001/RW.007, Jungkat, Kec. Jongkat, Kab. Mempawah",KALIMANTAN BARAT,78351.0,Indonesia,1500959.0,,,0.0651243,109.2007012,https://maps.google.com/?cid=0x0:0x2c2f681b79377259,
supermarket,Pasar,Toho Mart,"95RJ+C2V, Kecurit, Kec. Toho, Kab. Mempawah, Kalimantan Barat 78353","Kecurit, Kec. Toho, Kab. Mempawah",KALIMANTAN BARAT,78353.0,Indonesia,,,,0.3911143,109.1800468,https://maps.google.com/?cid=0x0:0x88b1d5ae0280aa73,
supermarket,Komplek perumahan,Pasar Toho,"C69H+Q86, Pak Laheng, Kec. Toho, Kab. Mempawah, Kalimantan Barat 78361","Pak Laheng, Kec. Toho, Kab. Mempawah",KALIMANTAN BARAT,78361.0,Indonesia,,,,0.4194112,109.2282707,https://maps.google.com/?cid=0x0:0xb3b9c3e5195b1b63,
supermarket,Pusat Perbelanjaan,REDBOX Durian  Frozen Food Bogor,"Jl. KH. Ahmad Sya'yani RT. 03/07 mekarwangi, Kec. Tanah Sareal, RT.03/RW.07, Mekarwangi, Kec. Tanah Sereal, Kota Bogor, Jawa Barat 16168","Kec. Tanah Sareal, RT.03/RW.07, Mekarwangi, Kec. Tanah Sereal, Kota Bogor",KALIMANTAN BARAT,16168.0,Indonesia,81210603995.0,,,-6.5218367,106.777248,https://maps.google.com/?cid=0x0:0xa3a111a3b75ac6af,
supermarket,Sesuai untuk keluarga,EATING PLACE,"FQHH+62W, Jl. Kh. Ahmad Sya'yani, RT.03/RW.07, Mekarwangi, Kec. Tanah Sereal, Kota Bogor, Jawa Barat 16168","Jl. Kh. Ahmad Sya'yani, RT.03/RW.07, Mekarwangi, Kec. Tanah Sereal, Kota Bogor",KALIMANTAN BARAT,16168.0,Indonesia,,,,-6.5218999,106.7775872,https://maps.google.com/?cid=0x0:0xe02c609cea644abc,
