Category;Real Category;Business Name;Address;City;State;Postal Code;Country;Phone;Latitude;Longitude;Map Link
"restaurant";"Kedai Kopi";"Nongkrong Coffee";"Kedai Siblah, Kecamaten Blang Pidie, Kabupaten Aceh Barat Daya, Aceh 23763";"Kecamaten Blang Pidie, Kabupaten Aceh Barat Daya";"ACEH";"23763";"Indonesia";" 082277903321";"3.7413128";"96.8329362";"https://maps.google.com/?cid=0x0:0x252c87f138895d56"
"restaurant";"restaurant";"Aceh 23764";"Kabupaten Aceh Barat Daya, Aceh";"Kabupaten Aceh Barat Daya, Aceh";"ACEH";"";"Indonesia";"";"3.8585335";"96.8136642";"https://maps.google.com/?cid=0x0:0xffecff8e1cb94052"
"restaurant";"Rumah Makan";"Rumah Makan Aneka Rasa";"Depan asrama kodim, Jl. Sentral, Ps. Blang Pidie, Kecamaten Blang Pidie, Kabupaten Aceh Barat Daya, Aceh 23763";"Jl. Sentral, Ps. Blang Pidie, Kecamaten Blang Pidie, Kabupaten Aceh Barat Daya";"ACEH";"23763";"Indonesia";" 081375490252";"3.737112";"96.8329098";"https://maps.google.com/?cid=0x0:0xf9d297833caca65f"
"restaurant";"Mi";"Mie Kocok Blang Pidie";"PRPJ+XR9, Jl. Meulaboh - Tapaktuan, Ps. Blang Pidie, Kecamaten Blang Pidie, Kabupaten Aceh Barat Daya, Aceh 23763";"Jl. Meulaboh - Tapaktuan, Ps. Blang Pidie, Kecamaten Blang Pidie, Kabupaten Aceh Barat Daya";"ACEH";"23763";"Indonesia";"";"3.7374122";"96.8320991";"https://maps.google.com/?cid=0x0:0x14c70d1778f1bcff"
"restaurant";"Padang";"MJA KITCHEN'S";"PRQJ+QP8, Jalan Pasar Baru, Meudang Ara, Kecamaten Blang Pidie, Kabupaten Aceh Barat Daya, Aceh 23764";"Jalan Pasar Baru, Meudang Ara, Kecamaten Blang Pidie, Kabupaten Aceh Barat Daya";"ACEH";"23764";"Indonesia";" 081362793809";"3.739422";"96.8318362";"https://maps.google.com/?cid=0x0:0x9377b2d804344b71"
"restaurant";"Kafe";"Mega Kupi";"Meudang Ara, Kecamaten Blang Pidie, Kabupaten Aceh Barat Daya, Aceh 23763";"Kecamaten Blang Pidie, Kabupaten Aceh Barat Daya";"ACEH";"23763";"Indonesia";"";"3.7429808";"96.8334676";"https://maps.google.com/?cid=0x0:0xa1042416f4af2d97"
"restaurant";"Restoran";"RM Sejahtera";"PRXW+8J3, Mata Ie, Kecamaten Blang Pidie, Kabupaten Aceh Barat Daya, Aceh 23763";"Mata Ie, Kecamaten Blang Pidie, Kabupaten Aceh Barat Daya";"ACEH";"23763";"Indonesia";" 082272269184";"3.7482649";"96.8465452";"https://maps.google.com/?cid=0x0:0x7654e36edfa3dc"
"restaurant";"Restoran";"RM. Salero Tanyoe";"Jl. At-Taqwa No.125, Kedai Siblah, Kecamaten Blang Pidie, Kabupaten Aceh Barat Daya, Aceh 23763";"Kedai Siblah, Kecamaten Blang Pidie, Kabupaten Aceh Barat Daya";"ACEH";"23763";"Indonesia";" 082316635757";"3.7434059";"96.8333554";"https://maps.google.com/?cid=0x0:0xcd1510075723fa4"
"restaurant";"Bar Kopi Espresso";"UR Coffee";"Seunaloh, Kecamaten Blang Pidie, Kabupaten Aceh Barat Daya, Aceh 23764";"Kecamaten Blang Pidie, Kabupaten Aceh Barat Daya";"ACEH";"23764";"Indonesia";" 06599496644";"3.7462685";"96.8338108";"https://maps.google.com/?cid=0x0:0x386092ec24354f3e"
"restaurant";"Padang";"MUDA SEDANG MART";"Meudang Ara, Kecamaten Blang Pidie, Kabupaten Aceh Barat Daya, Aceh 23763";"Kecamaten Blang Pidie, Kabupaten Aceh Barat Daya";"ACEH";"23763";"Indonesia";" 082361139791";"3.7390911";"96.834177";"https://maps.google.com/?cid=0x0:0x8154f594317ce7b3"
"restaurant";"Restoran";"King Fried Chicken Blangpidie";"Jl. Sentral No.4 5, Ps. Blang Pidie, Kecamaten Blang Pidie, Kabupaten Aceh Barat Daya, Aceh 23763";"Ps. Blang Pidie, Kecamaten Blang Pidie, Kabupaten Aceh Barat Daya";"ACEH";"23763";"Indonesia";" 082386440780";"3.7375061";"96.8333461";"https://maps.google.com/?cid=0x0:0x87c61a6fceb89d73"
"restaurant";"Kafe";"RM  Cafe Blang Poroh";"PVH2+937, Baharu, Kecamaten Blang Pidie, Kabupaten Aceh Barat Daya, Aceh";"Kabupaten Aceh Barat Daya, Aceh";"ACEH";"";"Indonesia";"";"3.7284186";"96.850173";"https://maps.google.com/?cid=0x0:0x821d6cfc838b219d"
"restaurant";"Bakso";"Bakso Paklek Blangpidie";"PRQP+RV6, Jl. Kesehatan, Kuta Tuha, Kecamaten Blang Pidie, Kabupaten Aceh Barat Daya, Aceh 23763";"Jl. Kesehatan, Kuta Tuha, Kecamaten Blang Pidie, Kabupaten Aceh Barat Daya";"ACEH";"23763";"Indonesia";"";"3.7395426";"96.8371348";"https://maps.google.com/?cid=0x0:0x48b1b838e69b6b7f"
"restaurant";"Restoran";"Nasi Bebek  Ayam Kampung Pak Maun";"PRQM+J4J, Ps. Blang Pidie, Kecamaten Blang Pidie, Kabupaten Aceh Barat Daya, Aceh 23763";"Ps. Blang Pidie, Kecamaten Blang Pidie, Kabupaten Aceh Barat Daya";"ACEH";"23763";"Indonesia";" 082272072023";"3.7390886";"96.8327691";"https://maps.google.com/?cid=0x0:0x6c23064a1be6f73c"
"restaurant";"Kedai Kopi";"Nongkrong Coffee";"Kedai Siblah, Kecamaten Blang Pidie, Kabupaten Aceh Barat Daya, Aceh 23763";"Kecamaten Blang Pidie, Kabupaten Aceh Barat Daya";"ACEH";"23763";"Indonesia";" 082277903321";"3.7413128";"96.8329362";"https://maps.google.com/?cid=0x0:0x252c87f138895d56"
"restaurant";"Kedai Kopi";"Warung SEULAWAH";"PRQM+V9M, Meudang Ara, Kecamaten Blang Pidie, Kabupaten Aceh Barat Daya, Aceh 23763";"Meudang Ara, Kecamaten Blang Pidie, Kabupaten Aceh Barat Daya";"ACEH";"23763";"Indonesia";" 082260321693";"3.7397156";"96.8334301";"https://maps.google.com/?cid=0x0:0xa56ce8a88e0d816c"
"restaurant";"restaurant";"Aceh 23763";"Hutan Blangpidie, Kecamaten Blang Pidie, Kabupaten Aceh Barat Daya, Aceh";"Kabupaten Aceh Barat Daya, Aceh";"ACEH";"";"Indonesia";"";"3.8370991";"96.9638624";"https://maps.google.com/?cid=0x0:0xcddc5be33e66fecd"
"restaurant";"Padang";"MUDA SEDANG MART";"Meudang Ara, Kecamaten Blang Pidie, Kabupaten Aceh Barat Daya, Aceh 23763";"Kecamaten Blang Pidie, Kabupaten Aceh Barat Daya";"ACEH";"23763";"Indonesia";" 082361139791";"3.7390911";"96.834177";"https://maps.google.com/?cid=0x0:0x8154f594317ce7b3"
"restaurant";"Rumah Makan";"Rumah Makan Ayam Penyet Djokja Uenak Tenan";"PRHG+Q73, Pantai Perak, Susoh, Kabupaten Aceh Barat Daya, Aceh 23763";"Pantai Perak, Susoh, Kabupaten Aceh Barat Daya";"ACEH";"23763";"Indonesia";"";"3.7293793";"96.8256791";"https://maps.google.com/?cid=0x0:0x60a8f6f57450ef5b"
"restaurant";"Restoran";"RM. Salero Tanyoe";"Jl. At-Taqwa No.125, Kedai Siblah, Kecamaten Blang Pidie, Kabupaten Aceh Barat Daya, Aceh 23763";"Kedai Siblah, Kecamaten Blang Pidie, Kabupaten Aceh Barat Daya";"ACEH";"23763";"Indonesia";" 082316635757";"3.7434059";"96.8333554";"https://maps.google.com/?cid=0x0:0xcd1510075723fa4"
"restaurant";"Kafe";"Warong Pakjang";"PRFC+VGF, Durian Rampak, Susoh, Kabupaten Aceh Barat Daya, Aceh 23763";"Durian Rampak, Susoh, Kabupaten Aceh Barat Daya";"ACEH";"23763";"Indonesia";" 082370535334";"3.7246985";"96.8213125";"https://maps.google.com/?cid=0x0:0x23b9b283f2982980"
"restaurant";"";"Resto Cahaya";"Jl. Meulaboh - Tapaktuan, Bineh Krueng, Kec. Tangan-Tangan, Kabupaten Aceh Barat Daya, Aceh 23763";"Bineh Krueng, Kec. Tangan-Tangan, Kabupaten Aceh Barat Daya";"ACEH";"23763";"Indonesia";" 082276110586";"3.6501435";"96.913648";"https://maps.google.com/?cid=0x0:0x914d75fcbfca900f"
"restaurant";"Mi";"Mie Kocok Blang Pidie";"PRPJ+XR9, Jl. Meulaboh - Tapaktuan, Ps. Blang Pidie, Kecamaten Blang Pidie, Kabupaten Aceh Barat Daya, Aceh 23763";"Jl. Meulaboh - Tapaktuan, Ps. Blang Pidie, Kecamaten Blang Pidie, Kabupaten Aceh Barat Daya";"ACEH";"23763";"Indonesia";"";"3.7374122";"96.8320991";"https://maps.google.com/?cid=0x0:0x14c70d1778f1bcff"
"restaurant";"Rumah Makan";"Rumah Makan Aneka Rasa";"Depan asrama kodim, Jl. Sentral, Ps. Blang Pidie, Kecamaten Blang Pidie, Kabupaten Aceh Barat Daya, Aceh 23763";"Jl. Sentral, Ps. Blang Pidie, Kecamaten Blang Pidie, Kabupaten Aceh Barat Daya";"ACEH";"23763";"Indonesia";" 081375490252";"3.737112";"96.8329098";"https://maps.google.com/?cid=0x0:0xf9d297833caca65f"
"restaurant";"Padang";"MJA KITCHEN'S";"PRQJ+QP8, Jalan Pasar Baru, Meudang Ara, Kecamaten Blang Pidie, Kabupaten Aceh Barat Daya, Aceh 23764";"Jalan Pasar Baru, Meudang Ara, Kecamaten Blang Pidie, Kabupaten Aceh Barat Daya";"ACEH";"23764";"Indonesia";" 081362793809";"3.739422";"96.8318362";"https://maps.google.com/?cid=0x0:0x9377b2d804344b71"
"restaurant";"Mi";"Warung Mie Bang Oji";"PRJH+J29, Padang Hilir, Susoh, Kabupaten Aceh Barat Daya, Aceh 23763";"Padang Hilir, Susoh, Kabupaten Aceh Barat Daya";"ACEH";"23763";"Indonesia";"";"3.7314373";"96.8275356";"https://maps.google.com/?cid=0x0:0xeb6a9ce450c57a9a"
"restaurant";"Padang";"RM Kari Kambing Khas Aceh Rayeuk";"PRRM+46V, Meudang Ara, Kecamaten Blang Pidie, Kabupaten Aceh Barat Daya, Aceh 23763";"Meudang Ara, Kecamaten Blang Pidie, Kabupaten Aceh Barat Daya";"ACEH";"23763";"Indonesia";" 082273748471";"3.7403529";"96.8330494";"https://maps.google.com/?cid=0x0:0x50f7a3d980329df3"
"restaurant";"Restoran";"RM Sejahtera";"PRXW+8J3, Mata Ie, Kecamaten Blang Pidie, Kabupaten Aceh Barat Daya, Aceh 23763";"Mata Ie, Kecamaten Blang Pidie, Kabupaten Aceh Barat Daya";"ACEH";"23763";"Indonesia";" 082272269184";"3.7482649";"96.8465452";"https://maps.google.com/?cid=0x0:0x7654e36edfa3dc"
"restaurant";"restaurant";"Manggeng";"Blang Manggeng, Kec. Manggeng, Kabupaten Aceh Barat Daya, Aceh";"Kabupaten Aceh Barat Daya, Aceh";"ACEH";"";"Indonesia";"";"3.60821";"96.9188";"https://maps.google.com/?cid=0x0:0x4039d80b220dbb0"
"restaurant";"Kedai Kopi";"Kantin ANDONG";"JV7X+2XF, Sejahtera, Kec. Manggeng, Kabupaten Aceh Barat Daya, Aceh 23762";"Sejahtera, Kec. Manggeng, Kabupaten Aceh Barat Daya";"ACEH";"23762";"Indonesia";"";"3.6125646";"96.8999344";"https://maps.google.com/?cid=0x0:0xf07898178701e513"
"restaurant";"Ayam";"Warung Cek Man";"JWJ7+5QH, Panton Makmur, Kec. Manggeng, Kabupaten Aceh Barat Daya, Aceh 23762";"Panton Makmur, Kec. Manggeng, Kabupaten Aceh Barat Daya";"ACEH";"23762";"Indonesia";"";"3.6304265";"96.9144919";"https://maps.google.com/?cid=0x0:0xa0863d91d470ab79"
"restaurant";"Restoran";"Warung Pak Dhe";"JW7M+3PF, Tengah, Kec. Manggeng, Kabupaten Aceh Barat Daya, Aceh 23762";"Tengah, Kec. Manggeng, Kabupaten Aceh Barat Daya";"ACEH";"23762";"Indonesia";"";"3.6126799";"96.9342957";"https://maps.google.com/?cid=0x0:0x4575a96fc8d5a08f"
"restaurant";"Kedai Kopi";"Kantin Bang Pi'ie";"JV8X+F62, Sejahtera, Kec. Manggeng, Kabupaten Aceh Barat Daya, Aceh 23762";"Sejahtera, Kec. Manggeng, Kabupaten Aceh Barat Daya";"ACEH";"23762";"Indonesia";"";"3.6161262";"96.8980049";"https://maps.google.com/?cid=0x0:0x61cdebbff605afcb"
"restaurant";"Restoran";"Kantin Ujong Kuala Manggeng";"JW33+7HP, ujung kuala, Sejahtera, Kec. Manggeng, Kabupaten Aceh Barat Daya, Aceh 23762";"ujung kuala, Sejahtera, Kec. Manggeng, Kabupaten Aceh Barat Daya";"ACEH";"23762";"Indonesia";" 085283038431";"3.6032203";"96.9039678";"https://maps.google.com/?cid=0x0:0x95d1a641de03dc5b"
"restaurant";"Masakan Asia Tenggara";"Rumah Makan Dek Meri";"JWHC+2HQ, Jl. Meulaboh - Tapaktuan, Lhung Baro, Kec. Manggeng, Kabupaten Aceh Barat Daya, Aceh 23762";"Jl. Meulaboh - Tapaktuan, Lhung Baro, Kec. Manggeng, Kabupaten Aceh Barat Daya";"ACEH";"23762";"Indonesia";"";"3.627592";"96.9214727";"https://maps.google.com/?cid=0x0:0x846df416f4a601c5"
"restaurant";"Bar Kopi Espresso";"Cafe Gerimis";"JW62+4CG, Sejahtera, Kec. Manggeng, Kabupaten Aceh Barat Daya, Aceh 23762";"Sejahtera, Kec. Manggeng, Kabupaten Aceh Barat Daya";"ACEH";"23762";"Indonesia";"";"3.610313";"96.901066";"https://maps.google.com/?cid=0x0:0xbb8ab1e8b5afe96e"
"restaurant";"Ayam";"waroeng makpok";"JW8P+G84, Kedai, Kec. Manggeng, Kabupaten Aceh Barat Daya, Aceh";"Kabupaten Aceh Barat Daya, Aceh";"ACEH";"";"Indonesia";"";"3.6162695";"96.9358292";"https://maps.google.com/?cid=0x0:0x742fa00de64ce3e2"
"restaurant";"Mi";"Warung Mie Ayu";"JWH9+FW9, Jl. Meulaboh - Tapaktuan, Lhung Baro, Kec. Manggeng, Kabupaten Aceh Barat Daya, Aceh 23762";"Jl. Meulaboh - Tapaktuan, Lhung Baro, Kec. Manggeng, Kabupaten Aceh Barat Daya";"ACEH";"23762";"Indonesia";"";"3.6286629";"96.9198569";"https://maps.google.com/?cid=0x0:0x1e21eede848d690a"
"restaurant";"Kedai Kopi";"Break Time cafe";"JW9Q+286, Seunalop, Kec. Manggeng, Kabupaten Aceh Barat Daya, Aceh 23762";"Seunalop, Kec. Manggeng, Kabupaten Aceh Barat Daya";"ACEH";"23762";"Indonesia";"";"3.6174218";"96.9376101";"https://maps.google.com/?cid=0x0:0x26b94768aaf72b3a"
"restaurant";"Masakan Asia Tenggara";"Waroeng Mie Kak Ida";"JWH5+CQX, Jl. Tgk. Abubakar, Pante Pirak, Kec. Manggeng, Kabupaten Aceh Barat Daya, Aceh 23762";"Jl. Tgk. Abubakar, Pante Pirak, Kec. Manggeng, Kabupaten Aceh Barat Daya";"ACEH";"23762";"Indonesia";"";"3.6286065";"96.9094986";"https://maps.google.com/?cid=0x0:0xe6e1705e6bcac697"
"restaurant";"Kafe";"Warung Makan Simpang III";"JWH5+WM6, Pante Pirak, Kec. Manggeng, Kabupaten Aceh Barat Daya, Aceh 23762";"Pante Pirak, Kec. Manggeng, Kabupaten Aceh Barat Daya";"ACEH";"23762";"Indonesia";"";"3.6297805";"96.9091324";"https://maps.google.com/?cid=0x0:0x26f6af1ad016e69d"
"restaurant";"Kedai Kopi";"Gedung Putih Cafe";"JW8M+XG9, Kedai, Kec. Manggeng, Kabupaten Aceh Barat Daya, Aceh 23762";"Kedai, Kec. Manggeng, Kabupaten Aceh Barat Daya";"ACEH";"23762";"Indonesia";" 082369283265";"3.6174179";"96.9338591";"https://maps.google.com/?cid=0x0:0x1f331d0ca1e2c26a"
"restaurant";"Kedai Kopi";"Cafe Rumah Pohon";"Pantai Jilbab, Padang Baru, Susoh, Southwest Aceh Regency, Aceh 23765";"Padang Baru, Susoh, Southwest Aceh Regency";"ACEH";"23765";"Indonesia";"";"3.728577";"96.8125759";"https://maps.google.com/?cid=0x0:0xc043f680427595c0"
"restaurant";"restaurant";"Susoh";"Padang Baru, Susoh, Kabupaten Aceh Barat Daya, Aceh";"Kabupaten Aceh Barat Daya, Aceh";"ACEH";"";"Indonesia";"";"3.728577";"96.812576";"https://maps.google.com/?cid=0x0:0x4039d80b220d460"
"restaurant";"restaurant";"Warko ABG";"PRH7+54P, Padang Baru, Susoh, Kabupaten Aceh Barat Daya, Aceh 23765";"Padang Baru, Susoh, Kabupaten Aceh Barat Daya";"ACEH";"23765";"Indonesia";" 082132670801";"3.7279712";"96.8128387";"https://maps.google.com/?cid=0x0:0xbf34adc7eb69ea2e"
"restaurant";"Mi";"Warung Mie Kocok Muthmainnah";"Jl. Letkol BB Jalal No.Desa, Pulau Kayu, Susoh, Kabupaten Aceh Barat Daya, Aceh 23765";"Pulau Kayu, Susoh, Kabupaten Aceh Barat Daya";"ACEH";"23765";"Indonesia";" 081377110930";"3.7310295";"96.8052736";"https://maps.google.com/?cid=0x0:0x8725717a087221b3"
"restaurant";"Restoran";"Jambo Singgah Rasa";"PRJ3+Q35, Pulau Kayu, Susoh, Kabupaten Aceh Barat Daya, Aceh 23765";"Pulau Kayu, Susoh, Kabupaten Aceh Barat Daya";"ACEH";"23765";"Indonesia";" 085358410613";"3.7318836";"96.8027422";"https://maps.google.com/?cid=0x0:0x4994a5ea21849c0a"
"restaurant";"Rumah Makan";"Rumah Makan Kak Eli";"PRJ3+JJV, Jl. Meulaboh - Tapaktuan, Pulau Kayu, Susoh, Kabupaten Aceh Barat Daya, Aceh 23765";"Jl. Meulaboh - Tapaktuan, Pulau Kayu, Susoh, Kabupaten Aceh Barat Daya";"ACEH";"23765";"Indonesia";" 082363387050";"3.7316001";"96.8040324";"https://maps.google.com/?cid=0x0:0x2bf9ea2b3e77dac"
"restaurant";"Kedai Kopi";"Warung SEULAWAH";"PRQM+V9M, Meudang Ara, Kecamaten Blang Pidie, Kabupaten Aceh Barat Daya, Aceh 23763";"Meudang Ara, Kecamaten Blang Pidie, Kabupaten Aceh Barat Daya";"ACEH";"23763";"Indonesia";" 082260321693";"3.7397156";"96.8334301";"https://maps.google.com/?cid=0x0:0xa56ce8a88e0d816c"
"restaurant";"Rumah Makan";"Warkop Pidie Jaya";"PQQX+CR4, meranti susoh Kota Padang, Pulau Kayu, Susoh, Kabupaten Aceh Barat Daya, Aceh 23765";"meranti susoh Kota Padang, Pulau Kayu, Susoh, Kabupaten Aceh Barat Daya";"ACEH";"23765";"Indonesia";"";"3.738524";"96.7995714";"https://maps.google.com/?cid=0x0:0x7f68126c68cbc08b"
"restaurant";"Mi";"Warung nasi dan minuman indah cahya";"PRJ3+HR6, Unnamed Road, Pulau Kayu, Susoh, Kabupaten Aceh Barat Daya, Aceh 23765";"Unnamed Road, Pulau Kayu, Susoh, Kabupaten Aceh Barat Daya";"ACEH";"23765";"Indonesia";" 085277804941";"3.7314227";"96.8045125";"https://maps.google.com/?cid=0x0:0xe70d132e63456094"
"restaurant";"Restoran";"Warung Ziden";"Desa Durian Jangek No. 1, Durian Jangek, Susoh, Kabupaten Aceh Barat Daya, Aceh 23765";"Durian Jangek, Susoh, Kabupaten Aceh Barat Daya";"ACEH";"23765";"Indonesia";" 081362506260";"3.7229046";"96.8204574";"https://maps.google.com/?cid=0x0:0x2425e28439e5e324"
"restaurant";"Kafe";"Cafe ZELDA";"Kedai Susoh, Susoh, Kabupaten Aceh Barat Daya, Aceh";"Kabupaten Aceh Barat Daya, Aceh";"ACEH";"";"Indonesia";"";"3.718136";"96.814715";"https://maps.google.com/?cid=0x0:0xb521c09f810e5c48"
"restaurant";"Kafe";"Cafe Seulayang Pandang";"PR98+586, Kedai Susoh, Susoh, Kabupaten Aceh Barat Daya, Aceh 23763";"Kedai Susoh, Susoh, Kabupaten Aceh Barat Daya";"ACEH";"23763";"Indonesia";"";"3.717906";"96.8157607";"https://maps.google.com/?cid=0x0:0x7963469319078d4f"
"restaurant";"Kedai Kopi";"CUBO DULU";"JL Letko Bb Jalal, DSN SEJAHTERA, Pawoh, Susoh, Kabupaten Aceh Barat Daya, Aceh 23765";"DSN SEJAHTERA, Pawoh, Susoh, Kabupaten Aceh Barat Daya";"ACEH";"23765";"Indonesia";" 082294458153";"3.7243598";"96.8177881";"https://maps.google.com/?cid=0x0:0xf25a71a07d5f3bc3"
"restaurant";"Kafe";"Waroenk Arip";"jln.letkol bb djalal, ds, Durian Rampak, Susoh, Southwest Aceh Regency, Aceh 23763";"ds, Durian Rampak, Susoh, Southwest Aceh Regency";"ACEH";"23763";"Indonesia";"";"3.7249822";"96.8213649";"https://maps.google.com/?cid=0x0:0xd0800b743fc71001"
"restaurant";"restaurant";"Aceh 23766";"Kec. Babah Rot, Kabupaten Aceh Barat Daya, Aceh";"Kabupaten Aceh Barat Daya, Aceh";"ACEH";"";"Indonesia";"";"3.9000346";"96.6851982";"https://maps.google.com/?cid=0x0:0x4d19ceb29190eb17"
"restaurant";"Rumah Makan";"Rumah Makan";"RQ97+6CQ, Blang Makmur, Kec. Kuala Batee, Kabupaten Aceh Barat Daya, Aceh 23764";"Blang Makmur, Kec. Kuala Batee, Kabupaten Aceh Barat Daya";"ACEH";"23764";"Indonesia";" 085260694333";"3.8180908";"96.7636143";"https://maps.google.com/?cid=0x0:0x267fb35e594fff62"
"restaurant";"Ayam";"Rumah Makan Adek Abang";"WM4W+WFQ, Pantee Rakyat, Kec. Babah Rot, Kabupaten Aceh Barat Daya, Aceh 23766";"Pantee Rakyat, Kec. Babah Rot, Kabupaten Aceh Barat Daya";"ACEH";"23766";"Indonesia";"";"3.9073409";"96.6962273";"https://maps.google.com/?cid=0x0:0xb0d1c4cb2e14bce8"
"restaurant";"Indonesia";"Bakso tekjah";"RQH7+H6G, Kota Bahagia, Kec. Kuala Batee, Kabupaten Aceh Barat Daya, Aceh 23764";"Kota Bahagia, Kec. Kuala Batee, Kabupaten Aceh Barat Daya";"ACEH";"23764";"Indonesia";"";"3.8289265";"96.7630837";"https://maps.google.com/?cid=0x0:0xde08e541b9d2b7a1"
"restaurant";"Rumah Makan";"RM ADIK KAKAK";"XM55+7JJ, Jl. Meulaboh - Tapaktuan, Ie Merah, Kec. Babah Rot, Kabupaten Aceh Barat Daya, Aceh 23662";"Jl. Meulaboh - Tapaktuan, Ie Merah, Kec. Babah Rot, Kabupaten Aceh Barat Daya";"ACEH";"23662";"Indonesia";" 082274836747";"3.9582072";"96.6590014";"https://maps.google.com/?cid=0x0:0xd573e707a6cc454e"
"restaurant";"Brunch";"RUMAH MAKAN TALANG KUNIANG";"RQ88+J47 Krueng panto, Blang Makmur, Kec. Kuala Batee, Kabupaten Aceh Barat Daya, Aceh 23764";"Blang Makmur, Kec. Kuala Batee, Kabupaten Aceh Barat Daya";"ACEH";"23764";"Indonesia";" 085264271636";"3.8164452";"96.7652282";"https://maps.google.com/?cid=0x0:0xab066086fcb9c44d"
"restaurant";"Restoran";"Kedai Ayam Goreng 88";"Jl. Meulaboh - Tapaktuan, Alue Padee, Kec. Kuala Batee, Kabupaten Aceh Barat Daya, Aceh 23764";"Alue Padee, Kec. Kuala Batee, Kabupaten Aceh Barat Daya";"ACEH";"23764";"Indonesia";" 085206520577";"3.8043261";"96.7744003";"https://maps.google.com/?cid=0x0:0xbc06ee3bb04f20e5"
"restaurant";"Sulawesi Selatan";"Cafe Pulau Sepadan";"VPV4+GG2, Pantee Cermin, Kec. Babah Rot, Kabupaten Aceh Barat Daya, Aceh 23766";"Pantee Cermin, Kec. Babah Rot, Kabupaten Aceh Barat Daya";"ACEH";"23766";"Indonesia";"";"3.8937663";"96.7062577";"https://maps.google.com/?cid=0x0:0x4a45e03dbc9d876b"
"restaurant";"Dapur Umum";"RM.Munawarah Tga Setangkai";"WM8Q+G33, Jl. Meulaboh - Tapaktuan, Pantee Rakyat, Kec. Babah Rot, Kabupaten Aceh Barat Daya, Aceh 23766";"Jl. Meulaboh - Tapaktuan, Pantee Rakyat, Kec. Babah Rot, Kabupaten Aceh Barat Daya";"ACEH";"23766";"Indonesia";" 085373557644";"3.9162737";"96.6876659";"https://maps.google.com/?cid=0x0:0x64ea37d7fa7621cc"
"restaurant";"";"Aneka jajanan";"RQF6+62P, Ps. Kuta Bahagia, Kec. Kuala Batee, Kabupaten Aceh Barat Daya, Aceh 23764";"Ps. Kuta Bahagia, Kec. Kuala Batee, Kabupaten Aceh Barat Daya";"ACEH";"23764";"Indonesia";" 082361938109";"3.8230882";"96.7600895";"https://maps.google.com/?cid=0x0:0xe66fcb69ba0f2d05"
"restaurant";"Mi";"Warung Bakso Mak Yus Jawa Aceh";"VPW3+7Q5, Pantee Cermin, Kec. Babah Rot, Kabupaten Aceh Barat Daya, Aceh 23766";"Pantee Cermin, Kec. Babah Rot, Kabupaten Aceh Barat Daya";"ACEH";"23766";"Indonesia";" 082273942344";"3.895641";"96.7044712";"https://maps.google.com/?cid=0x0:0x1cfe636e0b40103c"
"restaurant";"Brunch";"Warung Kak Nur";"WRW8+HM3, Krueng Batee, Kec. Kuala Batee, Kabupaten Aceh Barat Daya, Aceh 23764";"Krueng Batee, Kec. Kuala Batee, Kabupaten Aceh Barat Daya";"ACEH";"23764";"Indonesia";"";"3.9463777";"96.8166682";"https://maps.google.com/?cid=0x0:0x1d3b260b3658df72"
"restaurant";"Rumah Makan";"Warung aneuk muda86";"VPV4+HCW, Pantee Cermin, Kec. Babah Rot, Kabupaten Aceh Barat Daya, Aceh 23766";"Pantee Cermin, Kec. Babah Rot, Kabupaten Aceh Barat Daya";"ACEH";"23766";"Indonesia";" 082324525537";"3.8939827";"96.7060721";"https://maps.google.com/?cid=0x0:0xbfb81c0d155e104e"
"restaurant";"Toko Ikan";"Warung Maka Ikan Kerling Kas Abdya";"XM64+4W, Gn. Samarinda, Kec. Babah Rot, Kabupaten Aceh Barat Daya, Aceh 23662";"Gn. Samarinda, Kec. Babah Rot, Kabupaten Aceh Barat Daya";"ACEH";"23662";"Indonesia";"";"3.9603108";"96.6569296";"https://maps.google.com/?cid=0x0:0xbeaac952cd8dec9d"
"restaurant";"restaurant";"Aceh 23767";"Kec. Babah Rot, Kabupaten Aceh Barat Daya, Aceh";"Kabupaten Aceh Barat Daya, Aceh";"ACEH";"";"Indonesia";"";"3.8500236";"96.6103778";"https://maps.google.com/?cid=0x0:0xdb51e75798ae0c5b"
"restaurant";"Komplek perumahan";"Rumah";"WJWQ+JJH, Karya baru, Kec. Babah Rot, Kabupaten Aceh Barat Daya, Aceh";"Kabupaten Aceh Barat Daya, Aceh";"ACEH";"";"Indonesia";"";"3.9465825";"96.6390423";"https://maps.google.com/?cid=0x0:0xa6e079cf0a3b84eb"
"restaurant";"Rumah Makan";"RM ADIK KAKAK";"XM55+7JJ, Jl. Meulaboh - Tapaktuan, Ie Merah, Kec. Babah Rot, Kabupaten Aceh Barat Daya, Aceh 23662";"Jl. Meulaboh - Tapaktuan, Ie Merah, Kec. Babah Rot, Kabupaten Aceh Barat Daya";"ACEH";"23662";"Indonesia";" 082274836747";"3.9582072";"96.6590014";"https://maps.google.com/?cid=0x0:0xd573e707a6cc454e"
"restaurant";"Rumah Makan";"RM.adx zai";"WMJ6+RH, Ie Merah, Kec. Babah Rot, Kabupaten Aceh Barat Daya, Aceh";"Kabupaten Aceh Barat Daya, Aceh";"ACEH";"";"Indonesia";"";"3.9320532";"96.6614522";"https://maps.google.com/?cid=0x0:0x34d8eeb497b9448a"
"restaurant";"Rumah Makan";"Rumoh deby";"WHCV+H99, Unnamed Road, Alue Bateung Brook, Kec. Darul Makmur, Kabupaten Aceh Barat Daya, Aceh 23662";"Unnamed Road, Alue Bateung Brook, Kec. Darul Makmur, Kabupaten Aceh Barat Daya";"ACEH";"23662";"Indonesia";"";"3.9214173";"96.5934745";"https://maps.google.com/?cid=0x0:0x2ae99afb8dd1a6fa"
"restaurant";"Kedai Kopi";"Sa Boba";"VJ84+32V, Gn. Samarinda, Kec. Babah Rot, Kabupaten Aceh Barat Daya, Aceh";"Kabupaten Aceh Barat Daya, Aceh";"ACEH";"";"Indonesia";"";"3.8652408";"96.6050368";"https://maps.google.com/?cid=0x0:0xbea77955345ba7f4"
"restaurant";"restaurant";"Warong Abah";"WMJ6+WR3, Ie Merah, Kec. Babah Rot, Kabupaten Aceh Barat Daya, Aceh 23766";"Ie Merah, Kec. Babah Rot, Kabupaten Aceh Barat Daya";"ACEH";"23766";"Indonesia";"";"3.9322562";"96.6620496";"https://maps.google.com/?cid=0x0:0xa79135b5ca6b97d8"
"restaurant";"Kafe";"RM  Cafe Blang Poroh";"PVH2+937, Baharu, Kecamaten Blang Pidie, Kabupaten Aceh Barat Daya, Aceh";"Kabupaten Aceh Barat Daya, Aceh";"ACEH";"";"Indonesia";"";"3.7284186";"96.850173";"https://maps.google.com/?cid=0x0:0x821d6cfc838b219d"
"restaurant";"restaurant";"Kec. Setia";"Kabupaten Aceh Barat Daya, Aceh";"Kabupaten Aceh Barat Daya, Aceh";"ACEH";"";"Indonesia";"";"3.7078495";"96.8719767";"https://maps.google.com/?cid=0x0:0x34a354e1c2218e5f"
"restaurant";"Restoran";"Susan Setia Kafe";"MVXH+7R4, Lhang, Kec. Setia, Kabupaten Aceh Barat Daya, Aceh 23763";"Lhang, Kec. Setia, Kabupaten Aceh Barat Daya";"ACEH";"23763";"Indonesia";"";"3.6981337";"96.8795674";"https://maps.google.com/?cid=0x0:0xfb8f6aaa35ac3fb8"
"restaurant";"Mi";"Warung Mie Safira";"PV69+P4G, Alue Dama, Kec. Setia, Kabupaten Aceh Barat Daya, Aceh 23763";"Alue Dama, Kec. Setia, Kabupaten Aceh Barat Daya";"ACEH";"23763";"Indonesia";"";"3.7118012";"96.8678353";"https://maps.google.com/?cid=0x0:0xe01e6099f063fe52"
"restaurant";"Kafe";"Rumah makan masakan padang";"MVXH+7G4, Lhang, Kec. Setia, Kabupaten Aceh Barat Daya, Aceh 23763";"Lhang, Kec. Setia, Kabupaten Aceh Barat Daya";"ACEH";"23763";"Indonesia";" 082304421203";"3.6982547";"96.8788101";"https://maps.google.com/?cid=0x0:0xc4b9fb6807532100"
"restaurant";"Mi";"Warung mie maknu";"PV68+WV9, Alue Dama, Kec. Setia, Kabupaten Aceh Barat Daya, Aceh 23763";"Alue Dama, Kec. Setia, Kabupaten Aceh Barat Daya";"ACEH";"23763";"Indonesia";"";"3.7123447";"96.8671821";"https://maps.google.com/?cid=0x0:0x56afe185f1116327"
"restaurant";"Kedai Kopi";"Warong Jasa Sahabat | Cekmus";"PV4C+GM4, Unnamed Road, Rambong, Kec. Setia, Kabupaten Aceh Barat Daya, Aceh 23763";"Unnamed Road, Rambong, Kec. Setia, Kabupaten Aceh Barat Daya";"ACEH";"23763";"Indonesia";" 082378522526";"3.7062588";"96.8717063";"https://maps.google.com/?cid=0x0:0x1247daf2c59bd88b"
"restaurant";"Mi";"warung mie adek abang(kak nurma)";"MVX7+3J3, dusun makmur, Ujung Tanah, Kec. Setia, Kabupaten Aceh Barat Daya, Aceh 23763";"dusun makmur, Ujung Tanah, Kec. Setia, Kabupaten Aceh Barat Daya";"ACEH";"23763";"Indonesia";" 085358544914";"3.6976389";"96.8640513";"https://maps.google.com/?cid=0x0:0x39e80a2eccd73db1"
"restaurant";"Kedai Kopi";"Warung Kopi Bang Abbas";"PV69+3QX, Pisang, Kec. Setia, Kabupaten Aceh Barat Daya, Aceh 23763";"Pisang, Kec. Setia, Kabupaten Aceh Barat Daya";"ACEH";"23763";"Indonesia";" 082211259015";"3.710239";"96.8694716";"https://maps.google.com/?cid=0x0:0xe14156c39ab5cdb2"
"restaurant";"Kedai Kopi";"WARKOP";"MVXH+7G5, Lhang, Kec. Setia, Kabupaten Aceh Barat Daya, Aceh 23763";"Lhang, Kec. Setia, Kabupaten Aceh Barat Daya";"ACEH";"23763";"Indonesia";"";"3.6981489";"96.878868";"https://maps.google.com/?cid=0x0:0x5927bc9a0e117c1b"
"restaurant";"Kedai Kopi";"Kantin ba edi";"PV39+6F, Ujung Tanah, Kec. Setia, Kabupaten Aceh Barat Daya, Aceh";"Kabupaten Aceh Barat Daya, Aceh";"ACEH";"";"Indonesia";"";"3.7030722";"96.8686948";"https://maps.google.com/?cid=0x0:0x6e9922fffc5701c1"
"restaurant";"Kedai Kopi";"Warung Kopi Cek Bi";"PV5F+VXX, Rambong, Kec. Setia, Kabupaten Aceh Barat Daya, Aceh 23763";"Rambong, Kec. Setia, Kabupaten Aceh Barat Daya";"ACEH";"23763";"Indonesia";" 085270795780";"3.70974";"96.8749751";"https://maps.google.com/?cid=0x0:0x596f296dabf94bf0"
"restaurant";"Mi";"Warung Yasir";"PV24+VJ9, Alue Dama, Kec. Setia, Kabupaten Aceh Barat Daya, Aceh 23763";"Alue Dama, Kec. Setia, Kabupaten Aceh Barat Daya";"ACEH";"23763";"Indonesia";"";"3.7027679";"96.8576548";"https://maps.google.com/?cid=0x0:0x6c9b0a10bc0f58e8"
"restaurant";"Toko bahan makanan";"Waroeng Wiwik (Wiwik RM Shop)";"PV32+WV3, Rubek Meupayong, Susoh, Kabupaten Aceh Barat Daya, Aceh 23763";"Rubek Meupayong, Susoh, Kabupaten Aceh Barat Daya";"ACEH";"23763";"Indonesia";" 081362019404";"3.7047692";"96.8521749";"https://maps.google.com/?cid=0x0:0xcda1412fbc385436"
"restaurant";"Kafe";"ZAYN CAFE";"PVG2+RQ9, Jl. Iskandar Muda, Baharu, Kecamaten Blang Pidie, Kabupaten Aceh Barat Daya, Aceh 23763";"Jl. Iskandar Muda, Baharu, Kecamaten Blang Pidie, Kabupaten Aceh Barat Daya";"ACEH";"23763";"Indonesia";" 08216666827";"3.7270493";"96.8519932";"https://maps.google.com/?cid=0x0:0xff5e20806255a91c"
"restaurant";"restaurant";"Aceh 23764";"Kabupaten Aceh Barat Daya, Aceh";"Kabupaten Aceh Barat Daya, Aceh";"ACEH";"";"Indonesia";"";"3.8585335";"96.8136642";"https://maps.google.com/?cid=0x0:0xffecff8e1cb94052"
"restaurant";"Dapur Umum";"Jeumpa barat";"PQXQ+HFH, Ujung Padang, Susoh, Kabupaten Aceh Barat Daya, Aceh 23765";"Ujung Padang, Susoh, Kabupaten Aceh Barat Daya";"ACEH";"23765";"Indonesia";"";"3.7489461";"96.7887488";"https://maps.google.com/?cid=0x0:0x90d75adc2ba9347e"
"restaurant";"restaurant";"Mie ayam pangsit/bakso wak sur";"QR8C+X6C, Jl. Meulaboh - Tapaktuan, Kuta Jeumpa, Kec. Jeumpa, Kabupaten Aceh Barat Daya, Aceh 23764";"Jl. Meulaboh - Tapaktuan, Kuta Jeumpa, Kec. Jeumpa, Kabupaten Aceh Barat Daya";"ACEH";"23764";"Indonesia";"";"3.7674494";"96.8205129";"https://maps.google.com/?cid=0x0:0x4a7f78d9a74bd68a"
"restaurant";"Kafe";"Mie Kocok Jeumpa";"QR8C+W68, Kuta Jeumpa, Kec. Jeumpa, Kabupaten Aceh Barat Daya, Aceh 23764";"Kuta Jeumpa, Kec. Jeumpa, Kabupaten Aceh Barat Daya";"ACEH";"23764";"Indonesia";"";"3.7672889";"96.8205904";"https://maps.google.com/?cid=0x0:0x71cb3665426fabce"
"restaurant";"Makanan Kecil";"Warung ALEM";"QR8C+QC9, Jl. Meulaboh - Tapaktuan, Kuta Jeumpa, Kec. Jeumpa, Kabupaten Aceh Barat Daya, Aceh 23764";"Jl. Meulaboh - Tapaktuan, Kuta Jeumpa, Kec. Jeumpa, Kabupaten Aceh Barat Daya";"ACEH";"23764";"Indonesia";"";"3.7669073";"96.8211019";"https://maps.google.com/?cid=0x0:0x23152056f38959d8"
"restaurant";"Kafe";"Warkop Cyber Jaya";"Jl. Meulaboh - Tapaktuan KM.5, Alue Sungai Pinang, Kec. Jeumpa, Kabupaten Aceh Barat Daya, Aceh 23764";"Alue Sungai Pinang, Kec. Jeumpa, Kabupaten Aceh Barat Daya";"ACEH";"23764";"Indonesia";" 085360009498";"3.7770911";"96.8137571";"https://maps.google.com/?cid=0x0:0x2d5f0dd87a39450e"
"restaurant";"Makanan Kecil";"WARUNG MIE DOREMI";"QR4G+9F9, Jalan, Ladang Neubok, Jeumpa, Southwest Aceh Regency, Aceh 23763";"Jalan, Ladang Neubok, Jeumpa, Southwest Aceh Regency";"ACEH";"23763";"Indonesia";"";"3.7559072";"96.8262356";"https://maps.google.com/?cid=0x0:0xf2b8c062192213c7"
"restaurant";"Kafe";"All day drink and food";"Aso Nanggro, Kec. Jeumpa, Kabupaten Aceh Barat Daya, Aceh 23769";"Kec. Jeumpa, Kabupaten Aceh Barat Daya";"ACEH";"23769";"Indonesia";" 085337322409";"3.749218";"96.813131";"https://maps.google.com/?cid=0x0:0x3ea6845742085772"
"restaurant";"Kafe";"D'Blang Kupi";"Cot Mane, Kec. Jeumpa, Kabupaten Aceh Barat Daya, Aceh";"Kabupaten Aceh Barat Daya, Aceh";"ACEH";"";"Indonesia";" 085260990785";"3.7649661";"96.8270607";"https://maps.google.com/?cid=0x0:0xd45be8c0f10dd4b9"
"restaurant";"Brunch";"Rumah makan mapona";"jalan nasional, Kuta Jeumpa, Kecamaten Blang Pidie, Kabupaten Aceh Barat Daya, Aceh 23764";"Kuta Jeumpa, Kecamaten Blang Pidie, Kabupaten Aceh Barat Daya";"ACEH";"23764";"Indonesia";" 082293800306";"3.7688253";"96.8176828";"https://maps.google.com/?cid=0x0:0x97d30ac66650ebc7"
"restaurant";"Pembangunan Perumahan";"Rumah Nova Sri Rahayu Sunov";"QRF9+FMP, Jl. Meulaboh - Tapaktuan, Alue Sungai Pinang, Kec. Jeumpa, Kabupaten Aceh Barat Daya, Aceh 23764";"Jl. Meulaboh - Tapaktuan, Alue Sungai Pinang, Kec. Jeumpa, Kabupaten Aceh Barat Daya";"ACEH";"23764";"Indonesia";"";"3.7737202";"96.8192073";"https://maps.google.com/?cid=0x0:0x7fa6c8cb607f6b58"
"restaurant";"Kafe";"Warong Mie  Kopi Kak Haf";"QR22+GWM, Kuta Makmur, Kec. Jeumpa, Kabupaten Aceh Barat Daya, Aceh 23765";"Kuta Makmur, Kec. Jeumpa, Kabupaten Aceh Barat Daya";"ACEH";"23765";"Indonesia";"";"3.7513304";"96.8023109";"https://maps.google.com/?cid=0x0:0xb4fa2f9a737a42de"
"restaurant";"Kafe";"Warkop Mak Woe";"QRHC+P2X, Alue Seulaseh, Kec. Jeumpa, Kabupaten Aceh Barat Daya, Aceh 23764";"Alue Seulaseh, Kec. Jeumpa, Kabupaten Aceh Barat Daya";"ACEH";"23764";"Indonesia";"";"3.7793748";"96.8201138";"https://maps.google.com/?cid=0x0:0x20c8aa7009bdca2a"
"restaurant";"Restoran";"Mie teuLom_lom";"QR45+5Q, Iku Lhung, Kec. Jeumpa, Kabupaten Aceh Barat Daya, Aceh";"Kabupaten Aceh Barat Daya, Aceh";"ACEH";"";"Indonesia";"";"3.7554064";"96.8094962";"https://maps.google.com/?cid=0x0:0xfe931476da707313"
"restaurant";"restaurant";"Aceh 24251";"Kabupaten Bireuen, Aceh";"Kabupaten Bireuen, Aceh";"ACEH";"";"Indonesia";"";"5.0881574";"96.642433";"https://maps.google.com/?cid=0x0:0x2d3a8ff5c08e4a15"
"restaurant";"Padang";"RM Balee Labang";"Blang Cot Tunong, Kec. Jeumpa, Kabupaten Bireuen, Aceh";"Kabupaten Bireuen, Aceh";"ACEH";"";"Indonesia";"";"5.2046875";"96.6766875";"https://maps.google.com/?cid=0x0:0x3576bf70390164cb"
"restaurant";"Restoran";"Rumah Makan Jeumpa Rasa";"6M46+HJM, Blang Bladeh, Kec. Jeumpa, Kabupaten Bireuen, Aceh";"Kabupaten Bireuen, Aceh";"ACEH";"";"Indonesia";" 082259746742";"5.2064618";"96.6615457";"https://maps.google.com/?cid=0x0:0x21f149fe69a3abdc"
"restaurant";"Rumah Makan";"RM Rindu Alam";"Pulo Lawang, Kec. Jeumpa, Kabupaten Bireuen, Aceh 24261";"Kec. Jeumpa, Kabupaten Bireuen";"ACEH";"24261";"Indonesia";" 081265415044";"5.1974383";"96.6447699";"https://maps.google.com/?cid=0x0:0xf6785dd7c92cb814"
"restaurant";"Padang";"RM Selera";"6M3H+PGH, Blang Cot Baroh, Kec. Jeumpa, Kabupaten Bireuen, Aceh";"Kabupaten Bireuen, Aceh";"ACEH";"";"Indonesia";" 085277113334";"5.2043227";"96.6788734";"https://maps.google.com/?cid=0x0:0x964a3d3b0c9d518c"
"restaurant";"Mi";"Rumoh Pangsit";"mns Tambo, Kec. Juli, Kabupaten Bireuen, Aceh";"Kabupaten Bireuen, Aceh";"ACEH";"";"Indonesia";" 085277230365";"5.1803039";"96.6991965";"https://maps.google.com/?cid=0x0:0xa091fe472e7e30a2"
"restaurant";"Padang";"Sinar Jaya";"6M44+VMC, JL Medan - Banda Aceh, Blang Badeh, Jeumpa, Abeuk Tingkeum, Bireuen, Kabupaten Bireuen, Aceh 24251";"JL Medan - Banda Aceh, Blang Badeh, Jeumpa, Abeuk Tingkeum, Bireuen, Kabupaten Bireuen";"ACEH";"24251";"Indonesia";" 064422351";"5.20719";"96.6566521";"https://maps.google.com/?cid=0x0:0x412f8dc25bcf7112"
"restaurant";"Sesuai untuk keluarga";"Lem Bakrie Bireuen";"Jl. Medan - B. Aceh Depan Masjid Ridha Cot Tapang, Kabupaten Bireuen, Aceh";"Kabupaten Bireuen, Aceh";"ACEH";"";"Indonesia";" 085157886164";"5.2027315";"96.6891282";"https://maps.google.com/?cid=0x0:0xc42c383e42d4f874"
"restaurant";"Restoran";"Warung CM";"T. H. Hanafiah, Juli Cot Meurak, Kec. Juli, Kabupaten Bireuen, Aceh 24261";"Juli Cot Meurak, Kec. Juli, Kabupaten Bireuen";"ACEH";"24261";"Indonesia";"";"5.192546";"96.7058868";"https://maps.google.com/?cid=0x0:0x841c4f222d3ba0b1"
"restaurant";"Padang";"Rumah Makan Saudara";"5JXV+5Q2, Pulo Lawang, Kec. Jeumpa, Kabupaten Bireuen, Aceh";"Kabupaten Bireuen, Aceh";"ACEH";"";"Indonesia";"";"5.1978822";"96.6443899";"https://maps.google.com/?cid=0x0:0x522e50c28647629f"
"restaurant";"Nasi";"Warung Ghinaa - K’War";"6M2P+924, Bireun Meunasah Dayah, Kec. Kota Juang, Kabupaten Bireuen, Aceh 24251";"Bireun Meunasah Dayah, Kec. Kota Juang, Kabupaten Bireuen";"ACEH";"24251";"Indonesia";"";"5.2008919";"96.6850656";"https://maps.google.com/?cid=0x0:0x13dbd03c278bc8e6"
"restaurant";"Mi";"Mie Pangsit Roma";"Jl. Medan Banda Aceh No.88a, Cot Tarom Tunong, Kec. Jeumpa, Kabupaten Bireuen, Aceh";"Kabupaten Bireuen, Aceh";"ACEH";"";"Indonesia";" 085260511373";"5.204703";"96.6874115";"https://maps.google.com/?cid=0x0:0x4df480e5822bbcae"
"restaurant";"Mi";"Mie Daging Lampoh Arab";"Juli Meunasah Teungoh, Kec. Juli, Kabupaten Bireuen, Aceh 24261";"Kec. Juli, Kabupaten Bireuen";"ACEH";"24261";"Indonesia";"";"5.1585215";"96.7103548";"https://maps.google.com/?cid=0x0:0x4b5932fa900350d1"
"restaurant";"Restoran";"Bakso Lampoh Arab Juli";"5P56+97V, Juli Mee Teungoh, Kec. Juli, Kabupaten Bireuen, Aceh 24261";"Juli Mee Teungoh, Kec. Juli, Kabupaten Bireuen";"ACEH";"24261";"Indonesia";"";"5.158484";"96.7106824";"https://maps.google.com/?cid=0x0:0x641d5e33647503e1"
"restaurant";"Restoran";"Waroeng Kak Nong";"JW6V+W3G, Meurandeh, Kec. Lembah Sabil, Kabupaten Aceh Barat Daya, Aceh 23762";"Meurandeh, Kec. Lembah Sabil, Kabupaten Aceh Barat Daya";"ACEH";"23762";"Indonesia";"";"3.6123143";"96.9427039";"https://maps.google.com/?cid=0x0:0x13816bfded642b15"
"restaurant";"Kedai Kopi";"Waroeng Kembar";"JW7R+2WW, Jl. Meulaboh - Tapaktuan, Meurandeh, Kec. Lembah Sabil, Kabupaten Aceh Barat Daya, Aceh 23762";"Jl. Meulaboh - Tapaktuan, Meurandeh, Kec. Lembah Sabil, Kabupaten Aceh Barat Daya";"ACEH";"23762";"Indonesia";" 081263157706";"3.6126233";"96.9423271";"https://maps.google.com/?cid=0x0:0x667233fabab6d8f9"
"restaurant";"restaurant";"Kec. Lembah Sabil";"Kabupaten Aceh Barat Daya, Aceh";"Kabupaten Aceh Barat Daya, Aceh";"ACEH";"";"Indonesia";"";"3.589112";"96.9343064";"https://maps.google.com/?cid=0x0:0x47f212bb54114078"
"restaurant";"Indonesia";"Mie Ayam Bakso Barokah";"JW7R+M24, Meurandeh, Kec. Lembah Sabil, Kabupaten Aceh Barat Daya, Aceh 23762";"Meurandeh, Kec. Lembah Sabil, Kabupaten Aceh Barat Daya";"ACEH";"23762";"Indonesia";"";"3.6141396";"96.9400676";"https://maps.google.com/?cid=0x0:0x74e1b8774adbf93e"
"restaurant";"Masakan Asia Tenggara";"Snack place (Tempat Ngemil)";"Cot Bak-U, Kec. Lembah Sabil, Kabupaten Aceh Barat Daya, Aceh 23762";"Kec. Lembah Sabil, Kabupaten Aceh Barat Daya";"ACEH";"23762";"Indonesia";"";"3.6106116";"96.9452026";"https://maps.google.com/?cid=0x0:0xc1ad7eb40bf059de"
"restaurant";"Mi";"Warung Mie Cut Da";"Kelurahan Kaye aceh, Kec. Lembah Sabil, Kabupaten Aceh Barat Daya, Aceh 23762";"Kec. Lembah Sabil, Kabupaten Aceh Barat Daya";"ACEH";"23762";"Indonesia";" 082225127162";"3.6038243";"96.9516105";"https://maps.google.com/?cid=0x0:0x9a6fa7caf04a49a2"
"restaurant";"Dapur Umum";"Nasi Padang Nadia  Sofia";"JW6V+X5M, Jl. Meulaboh - Tapaktuan, Meurandeh, Kec. Lembah Sabil, Kabupaten Aceh Barat Daya, Aceh 23762";"Jl. Meulaboh - Tapaktuan, Meurandeh, Kec. Lembah Sabil, Kabupaten Aceh Barat Daya";"ACEH";"23762";"Indonesia";" 082388115560";"3.6124544";"96.9429355";"https://maps.google.com/?cid=0x0:0x56212741c398b89e"
"restaurant";"Kedai Kopi";"Diamond Caffe";"JX35+J9M, Jl. Puskiye, Kaye Aceh, Kec. Lembah Sabil, Kabupaten Aceh Barat Daya, Aceh 23762";"Jl. Puskiye, Kaye Aceh, Kec. Lembah Sabil, Kabupaten Aceh Barat Daya";"ACEH";"23762";"Indonesia";" 082360167874";"3.6040976";"96.9584363";"https://maps.google.com/?cid=0x0:0xfe7097273594bc04"
"restaurant";"Turki";"Ottoman Kebab";"Cot Bak-U, Kec. Lembah Sabil, Kabupaten Aceh Barat Daya, Aceh 23762";"Kec. Lembah Sabil, Kabupaten Aceh Barat Daya";"ACEH";"23762";"Indonesia";" 085277751990";"3.612042";"96.9433859";"https://maps.google.com/?cid=0x0:0xe72b246becd53213"
"restaurant";"Kedai Kopi";"Warung Zakia";"JW5V+VQ8, Cot Bak-U, Kec. Lembah Sabil, Kabupaten Aceh Barat Daya, Aceh 23762";"Cot Bak-U, Kec. Lembah Sabil, Kabupaten Aceh Barat Daya";"ACEH";"23762";"Indonesia";" 082366940672";"3.6096529";"96.9444641";"https://maps.google.com/?cid=0x0:0xf18f0a7edb34a5a"
"restaurant";"";"Resto Cahaya";"Jl. Meulaboh - Tapaktuan, Bineh Krueng, Kec. Tangan-Tangan, Kabupaten Aceh Barat Daya, Aceh 23763";"Bineh Krueng, Kec. Tangan-Tangan, Kabupaten Aceh Barat Daya";"ACEH";"23763";"Indonesia";" 082276110586";"3.6501435";"96.913648";"https://maps.google.com/?cid=0x0:0x914d75fcbfca900f"
"restaurant";"Kafe";"Jasa Rimba";"JX55+8RF, Meunasah Sukon, Kec. Lembah Sabil, Kabupaten Aceh Barat Daya, Aceh 23762";"Meunasah Sukon, Kec. Lembah Sabil, Kabupaten Aceh Barat Daya";"ACEH";"23762";"Indonesia";" 082211397103";"3.6083228";"96.9595334";"https://maps.google.com/?cid=0x0:0x4f88336013fe0e9"
"restaurant";"Martabak";"Martabak Manis Bang Ren";"JW5X+45G, Cot Bak-U, Kec. Lembah Sabil, Kabupaten Aceh Barat Daya, Aceh 23762";"Cot Bak-U, Kec. Lembah Sabil, Kabupaten Aceh Barat Daya";"ACEH";"23762";"Indonesia";"";"3.6078035";"96.9479667";"https://maps.google.com/?cid=0x0:0x5f4698c1d410e7e6"
"restaurant";"Restoran";"Warung Adun";"JWW7+V3M, Jl. Meulaboh - Tapaktuan, Bineh Krueng, Kec. Tangan-Tangan, Kabupaten Aceh Barat Daya, Aceh 23762";"Jl. Meulaboh - Tapaktuan, Bineh Krueng, Kec. Tangan-Tangan, Kabupaten Aceh Barat Daya";"ACEH";"23762";"Indonesia";"";"3.6472146";"96.9126842";"https://maps.google.com/?cid=0x0:0x20dee483418be914"
"hotel";"hotel";"Aceh 23764";"Kabupaten Aceh Barat Daya, Aceh";"Kabupaten Aceh Barat Daya, Aceh";"ACEH";"";"Indonesia";"";"3.8585335";"96.8136642";"https://maps.google.com/?cid=0x0:0xffecff8e1cb94052"
"hotel";"hotel";"EVA SKY HOTEL";"Jl. Sisingamangaraja, Drien Rampak, Kec. Johan Pahlawan, Kabupaten Aceh Barat, Aceh 23616";"Drien Rampak, Kec. Johan Pahlawan, Kabupaten Aceh Barat";"ACEH";"23616";"Indonesia";" 085262456864";"4.163213";"96.1321874";"https://maps.google.com/?cid=0x0:0x580676ba7098b2c3"
"hotel";"hotel";"Grand Leuser Hotel";"PRRM+C47, Meudang Ara, Kecamaten Blang Pidie, Kabupaten Aceh Barat Daya, Aceh 23763";"Meudang Ara, Kecamaten Blang Pidie, Kabupaten Aceh Barat Daya";"ACEH";"23763";"Indonesia";" 065993009";"3.7410335";"96.8327879";"https://maps.google.com/?cid=0x0:0xd551b3628cadc5d6"
"hotel";"hotel";"RedDoorz Syariah near Pantai Bali Abdya Blang Pidie";"Jl. Iskandar Muda, Kedai Paya, Kecamaten Blang Pidie, Kabupaten Aceh Barat Daya, Aceh 23763";"Kedai Paya, Kecamaten Blang Pidie, Kabupaten Aceh Barat Daya";"ACEH";"23763";"Indonesia";" 0895417300072";"3.7332266";"96.8460907";"https://maps.google.com/?cid=0x0:0xb11b813d46f1422f"
"hotel";"hotel";"Pidie Hotel";"Jl. Medan - Banda Aceh No.Km. 1, SP. Pidie, Kec. Kota Sigli, Kabupaten Pidie, Aceh 24173";"SP. Pidie, Kec. Kota Sigli, Kabupaten Pidie";"ACEH";"24173";"Indonesia";" 085373584488";"5.3794001";"95.9496961";"https://maps.google.com/?cid=0x0:0x2d732ee8b6c6cc6"
"hotel";"hotel";"Dian Rana Hotel dan Restaurant";"Jl. Tapaktuan - Subulussalam, Lhok Bengkuang, Kec. Tapak Tuan, Kabupaten Aceh Selatan, Aceh 23711";"Lhok Bengkuang, Kec. Tapak Tuan, Kabupaten Aceh Selatan";"ACEH";"23711";"Indonesia";" 085946783337";"3.2582164";"97.1889176";"https://maps.google.com/?cid=0x0:0xa6231f47e2075433"
"hotel";"hotel";"Hotel Pantai Barat";"JHHW+QR7, Keutapang, Kec. Krueng Sabee, Kabupaten Aceh Jaya, Aceh 23655";"Keutapang, Kec. Krueng Sabee, Kabupaten Aceh Jaya";"ACEH";"23655";"Indonesia";"";"4.6294055";"95.597041";"https://maps.google.com/?cid=0x0:0x9e22dd28785fd7be"
"hotel";"hotel";"Kuta Homestay";"Depan Pesantren Khazanatul Hikam, Jl. Pendidikan, Kuta Tinggi, Kecamaten Blang Pidie, Kabupaten Aceh Barat Daya, Aceh 23764";"Jl. Pendidikan, Kuta Tinggi, Kecamaten Blang Pidie, Kabupaten Aceh Barat Daya";"ACEH";"23764";"Indonesia";" 085183045100";"3.7442471";"96.8383888";"https://maps.google.com/?cid=0x0:0xcb51a6a655b70b48"
"hotel";"hotel";"Hotel Beringin Jaya";"Seuneubok, Kec. Johan Pahlawan, Kabupaten Aceh Barat, Aceh 23611";"Kec. Johan Pahlawan, Kabupaten Aceh Barat";"ACEH";"23611";"Indonesia";" 085260017462";"4.1583951";"96.1216858";"https://maps.google.com/?cid=0x0:0xcf6323ae2d6ad160"
"hotel";"hotel";"Penginapan KANA HASYA HOMESTAY "Rumoh Jamee"";"Jl. Singgah Mata II Lr. Tripa No.8, Kuta Padang, Kec. Johan Pahlawan, Kabupaten Aceh Barat, Aceh 23614";"Kuta Padang, Kec. Johan Pahlawan, Kabupaten Aceh Barat";"ACEH";"23614";"Indonesia";" 085372826977";"4.1551432";"96.1208821";"https://maps.google.com/?cid=0x0:0x3f0c8119272ac1e7"
"hotel";"hotel";"Grand Leuser Hotel";"PRRM+C47, Meudang Ara, Kecamaten Blang Pidie, Kabupaten Aceh Barat Daya, Aceh 23763";"Meudang Ara, Kecamaten Blang Pidie, Kabupaten Aceh Barat Daya";"ACEH";"23763";"Indonesia";" 065993009";"3.7410335";"96.8327879";"https://maps.google.com/?cid=0x0:0xd551b3628cadc5d6"
"hotel";"hotel";"Aceh 23763";"Hutan Blangpidie, Kecamaten Blang Pidie, Kabupaten Aceh Barat Daya, Aceh";"Kabupaten Aceh Barat Daya, Aceh";"ACEH";"";"Indonesia";"";"3.8370991";"96.9638624";"https://maps.google.com/?cid=0x0:0xcddc5be33e66fecd"
"hotel";"hotel";"Kuta Homestay";"Depan Pesantren Khazanatul Hikam, Jl. Pendidikan, Kuta Tinggi, Kecamaten Blang Pidie, Kabupaten Aceh Barat Daya, Aceh 23764";"Jl. Pendidikan, Kuta Tinggi, Kecamaten Blang Pidie, Kabupaten Aceh Barat Daya";"ACEH";"23764";"Indonesia";" 085183045100";"3.7442471";"96.8383888";"https://maps.google.com/?cid=0x0:0xcb51a6a655b70b48"
"hotel";"hotel";"Hotel Granova";"Padang Baru, Susoh, Kabupaten Aceh Barat Daya, Aceh 23765";"Susoh, Kabupaten Aceh Barat Daya";"ACEH";"23765";"Indonesia";" 08116006464";"3.7266232";"96.8109068";"https://maps.google.com/?cid=0x0:0xd7c828aa607acb77"
"hotel";"hotel";"Grand Leuser Hotel";"PRRM+C47, Meudang Ara, Kecamaten Blang Pidie, Kabupaten Aceh Barat Daya, Aceh 23763";"Meudang Ara, Kecamaten Blang Pidie, Kabupaten Aceh Barat Daya";"ACEH";"23763";"Indonesia";" 065993009";"3.7410335";"96.8327879";"https://maps.google.com/?cid=0x0:0xd551b3628cadc5d6"
"hotel";"Tujuan Wisata";"Pantai ujung serangga";"PR86+787, desa, Pawoh, Susoh, Kabupaten Aceh Barat Daya, Aceh";"Kabupaten Aceh Barat Daya, Aceh";"ACEH";"";"Indonesia";"";"3.7156625";"96.8107969";"https://maps.google.com/?cid=0x0:0xe607ec4963b6795"
"hotel";"hotel";"Manggeng";"Blang Manggeng, Kec. Manggeng, Kabupaten Aceh Barat Daya, Aceh";"Kabupaten Aceh Barat Daya, Aceh";"ACEH";"";"Indonesia";"";"3.60821";"96.9188";"https://maps.google.com/?cid=0x0:0x4039d80b220dbb0"
"hotel";"hotel";"RedDoorz Syariah near Pantai Bali Abdya Blang Pidie";"Jl. Iskandar Muda, Kedai Paya, Kecamaten Blang Pidie, Kabupaten Aceh Barat Daya, Aceh 23763";"Kedai Paya, Kecamaten Blang Pidie, Kabupaten Aceh Barat Daya";"ACEH";"23763";"Indonesia";" 0895417300072";"3.7332266";"96.8460907";"https://maps.google.com/?cid=0x0:0xb11b813d46f1422f"
"hotel";"hotel";"Hotel Pantai Barat";"JHHW+QR7, Keutapang, Kec. Krueng Sabee, Kabupaten Aceh Jaya, Aceh 23655";"Keutapang, Kec. Krueng Sabee, Kabupaten Aceh Jaya";"ACEH";"23655";"Indonesia";"";"4.6294055";"95.597041";"https://maps.google.com/?cid=0x0:0x9e22dd28785fd7be"
"hotel";"hotel";"Kuta Homestay";"Depan Pesantren Khazanatul Hikam, Jl. Pendidikan, Kuta Tinggi, Kecamaten Blang Pidie, Kabupaten Aceh Barat Daya, Aceh 23764";"Jl. Pendidikan, Kuta Tinggi, Kecamaten Blang Pidie, Kabupaten Aceh Barat Daya";"ACEH";"23764";"Indonesia";" 085183045100";"3.7442471";"96.8383888";"https://maps.google.com/?cid=0x0:0xcb51a6a655b70b48"
"hotel";"hotel";"Hotel Beringin Jaya";"Seuneubok, Kec. Johan Pahlawan, Kabupaten Aceh Barat, Aceh 23611";"Kec. Johan Pahlawan, Kabupaten Aceh Barat";"ACEH";"23611";"Indonesia";" 085260017462";"4.1583951";"96.1216858";"https://maps.google.com/?cid=0x0:0xcf6323ae2d6ad160"
"hotel";"hotel";"Hotel Granova";"Padang Baru, Susoh, Kabupaten Aceh Barat Daya, Aceh 23765";"Susoh, Kabupaten Aceh Barat Daya";"ACEH";"23765";"Indonesia";" 08116006464";"3.7266232";"96.8109068";"https://maps.google.com/?cid=0x0:0xd7c828aa607acb77"
"hotel";"hotel";"Susoh";"Padang Baru, Susoh, Kabupaten Aceh Barat Daya, Aceh";"Kabupaten Aceh Barat Daya, Aceh";"ACEH";"";"Indonesia";"";"3.728577";"96.812576";"https://maps.google.com/?cid=0x0:0x4039d80b220d460"
"hotel";"hotel";"Grand Leuser Hotel";"PRRM+C47, Meudang Ara, Kecamaten Blang Pidie, Kabupaten Aceh Barat Daya, Aceh 23763";"Meudang Ara, Kecamaten Blang Pidie, Kabupaten Aceh Barat Daya";"ACEH";"23763";"Indonesia";" 065993009";"3.7410335";"96.8327879";"https://maps.google.com/?cid=0x0:0xd551b3628cadc5d6"
"hotel";"hotel";"RedDoorz Syariah near Pantai Bali Abdya Blang Pidie";"Jl. Iskandar Muda, Kedai Paya, Kecamaten Blang Pidie, Kabupaten Aceh Barat Daya, Aceh 23763";"Kedai Paya, Kecamaten Blang Pidie, Kabupaten Aceh Barat Daya";"ACEH";"23763";"Indonesia";" 0895417300072";"3.7332266";"96.8460907";"https://maps.google.com/?cid=0x0:0xb11b813d46f1422f"
"hotel";"hotel";"Kuta Homestay";"Depan Pesantren Khazanatul Hikam, Jl. Pendidikan, Kuta Tinggi, Kecamaten Blang Pidie, Kabupaten Aceh Barat Daya, Aceh 23764";"Jl. Pendidikan, Kuta Tinggi, Kecamaten Blang Pidie, Kabupaten Aceh Barat Daya";"ACEH";"23764";"Indonesia";" 085183045100";"3.7442471";"96.8383888";"https://maps.google.com/?cid=0x0:0xcb51a6a655b70b48"
"hotel";"hotel";"111 Ocean View";"VC75+QHQ, Jl. Lama Banda Aceh-Meulaboh, Lhok Kruet, Kec. Sampoiniet, Kabupaten Aceh Jaya, Aceh 23656";"Jl. Lama Banda Aceh-Meulaboh, Lhok Kruet, Kec. Sampoiniet, Kabupaten Aceh Jaya";"ACEH";"23656";"Indonesia";" 082276597450";"4.8644581";"95.4089803";"https://maps.google.com/?cid=0x0:0x9d7c66b332fbcde9"
"hotel";"hotel";"Aceh 23766";"Kec. Babah Rot, Kabupaten Aceh Barat Daya, Aceh";"Kabupaten Aceh Barat Daya, Aceh";"ACEH";"";"Indonesia";"";"3.9000346";"96.6851982";"https://maps.google.com/?cid=0x0:0x4d19ceb29190eb17"
"hotel";"hotel";"Grand Leuser Hotel";"PRRM+C47, Meudang Ara, Kecamaten Blang Pidie, Kabupaten Aceh Barat Daya, Aceh 23763";"Meudang Ara, Kecamaten Blang Pidie, Kabupaten Aceh Barat Daya";"ACEH";"23763";"Indonesia";" 065993009";"3.7410335";"96.8327879";"https://maps.google.com/?cid=0x0:0xd551b3628cadc5d6"
"hotel";"hotel";"Hotel Granova";"Padang Baru, Susoh, Kabupaten Aceh Barat Daya, Aceh 23765";"Susoh, Kabupaten Aceh Barat Daya";"ACEH";"23765";"Indonesia";" 08116006464";"3.7266232";"96.8109068";"https://maps.google.com/?cid=0x0:0xd7c828aa607acb77"
"hotel";"hotel";"Hotel Pantai Barat";"JHHW+QR7, Keutapang, Kec. Krueng Sabee, Kabupaten Aceh Jaya, Aceh 23655";"Keutapang, Kec. Krueng Sabee, Kabupaten Aceh Jaya";"ACEH";"23655";"Indonesia";"";"4.6294055";"95.597041";"https://maps.google.com/?cid=0x0:0x9e22dd28785fd7be"
"hotel";"hotel";"Kuta Homestay";"Depan Pesantren Khazanatul Hikam, Jl. Pendidikan, Kuta Tinggi, Kecamaten Blang Pidie, Kabupaten Aceh Barat Daya, Aceh 23764";"Jl. Pendidikan, Kuta Tinggi, Kecamaten Blang Pidie, Kabupaten Aceh Barat Daya";"ACEH";"23764";"Indonesia";" 085183045100";"3.7442471";"96.8383888";"https://maps.google.com/?cid=0x0:0xcb51a6a655b70b48"
"hotel";"hotel";"Aceh 23767";"Kec. Babah Rot, Kabupaten Aceh Barat Daya, Aceh";"Kabupaten Aceh Barat Daya, Aceh";"ACEH";"";"Indonesia";"";"3.8500236";"96.6103778";"https://maps.google.com/?cid=0x0:0xdb51e75798ae0c5b"
"hotel";"hotel";"Abaka Hotel";"H923+746, Lamglumpang, Kec. Ulee Kareng, Kota Banda Aceh, Aceh";"Kota Banda Aceh, Aceh";"ACEH";"";"Indonesia";" 08116820333";"5.5506624";"95.3527724";"https://maps.google.com/?cid=0x0:0x369db8e386d736b6"
"hotel";"hotel";"Hadrah Hotel";"Jl. T. Panglima Nyak Makam, Lambhuk, Kec. Ulee Kareng, Kota Banda Aceh, Aceh 24415";"Lambhuk, Kec. Ulee Kareng, Kota Banda Aceh";"ACEH";"24415";"Indonesia";" 02180692666";"5.5556207";"95.3441351";"https://maps.google.com/?cid=0x0:0xe9ea8ea456a7dc8d"
"hotel";"Hotel";"Hotel Mufit";"WMFG+8M8, Pantee Rakyat, Kec. Babah Rot, Kabupaten Aceh Barat Daya, Aceh 23766";"Pantee Rakyat, Kec. Babah Rot, Kabupaten Aceh Barat Daya";"ACEH";"23766";"Indonesia";"";"3.9232964";"96.6766958";"https://maps.google.com/?cid=0x0:0xbd02ec7390cbbd6e"
"hotel";"Hotel";"Kupi free";"VJCJ+2MQ, Ie Merah, Kec. Babah Rot, Kabupaten Aceh Barat Daya, Aceh";"Kabupaten Aceh Barat Daya, Aceh";"ACEH";"";"Indonesia";"";"3.8700917";"96.6317461";"https://maps.google.com/?cid=0x0:0x5eefcc562af3f9ea"
"hotel";"hotel";"Kec. Setia";"Kabupaten Aceh Barat Daya, Aceh";"Kabupaten Aceh Barat Daya, Aceh";"ACEH";"";"Indonesia";"";"3.7078495";"96.8719767";"https://maps.google.com/?cid=0x0:0x34a354e1c2218e5f"
"hotel";"hotel";"N/A";"";"";"ACEH";"";"Indonesia";"";"";"";"https://maps.google.com/?cid=0x0:0xc7d116533d0b5450%7C/g/11c1l49977%7Cid-ID"
"hotel";"hotel";"Ayani Hotel Banda Aceh";"Jl. Jend. Ahmad Yani No.20, Peunayong, Kec. Kuta Alam, Kota Banda Aceh, Aceh 23122";"Peunayong, Kec. Kuta Alam, Kota Banda Aceh";"ACEH";"23122";"Indonesia";" 06518012111";"5.5570339";"95.3193251";"https://maps.google.com/?cid=0x0:0xc7d116533d0b5450"
"hotel";"hotel";"N/A";"";"";"ACEH";"";"Indonesia";"";"";"";"https://maps.google.com/?cid=0x0:0x70e72305d8d7d91%7C/m/0c3tz97%7Cid-ID"
"hotel";"hotel";"Grand Leuser Hotel";"PRRM+C47, Meudang Ara, Kecamaten Blang Pidie, Kabupaten Aceh Barat Daya, Aceh 23763";"Meudang Ara, Kecamaten Blang Pidie, Kabupaten Aceh Barat Daya";"ACEH";"23763";"Indonesia";" 065993009";"3.7410335";"96.8327879";"https://maps.google.com/?cid=0x0:0xd551b3628cadc5d6"
"hotel";"hotel";"EVA SKY HOTEL";"Jl. Sisingamangaraja, Drien Rampak, Kec. Johan Pahlawan, Kabupaten Aceh Barat, Aceh 23616";"Drien Rampak, Kec. Johan Pahlawan, Kabupaten Aceh Barat";"ACEH";"23616";"Indonesia";" 085262456864";"4.163213";"96.1321874";"https://maps.google.com/?cid=0x0:0x580676ba7098b2c3"
"hotel";"hotel";"Hotel 61";"Jl. T. Panglima Polem No.32-34, Laksana, Kec. Kuta Alam, Kota Banda Aceh, Aceh 23122";"Laksana, Kec. Kuta Alam, Kota Banda Aceh";"ACEH";"23122";"Indonesia";" 0651638866";"5.5593663";"95.3213398";"https://maps.google.com/?cid=0x0:0x4927c09f2ecd1f3c"
"hotel";"hotel";"N/A";"";"";"ACEH";"";"Indonesia";"";"";"";"https://maps.google.com/?cid=0x0:0x4927c09f2ecd1f3c%7C/g/1hc16zhd7%7Cid-ID"
"hotel";"hotel";"Aceh House Hotel Setia Budi";"Jl. Murni No.24, Tj. Rejo, Kec. Medan Sunggal, Kota Medan, Sumatera Utara 20122";"Tj. Rejo, Kec. Medan Sunggal, Kota Medan";"ACEH";"20122";"Indonesia";" 08116382400";"3.5761365";"98.6395797";"https://maps.google.com/?cid=0x0:0xe765c89aeccc0ea3"
"hotel";"hotel";"Seventeen Hotel";"Jl. Teuku Umar No.350, Seutui, Kec. Baiturrahman, Kota Banda Aceh, Aceh 23243";"Seutui, Kec. Baiturrahman, Kota Banda Aceh";"ACEH";"23243";"Indonesia";" 034971425588";"5.54001";"95.309364";"https://maps.google.com/?cid=0x0:0x8bf5e6dedb221119"
"hotel";"hotel";"Hotel Medan";"Jl. Jend. Ahmad Yani No.17, Peunayong, Kec. Kuta Alam, Kota Banda Aceh, Aceh";"Kota Banda Aceh, Aceh";"ACEH";"";"Indonesia";" 065121501";"5.5574522";"95.3187103";"https://maps.google.com/?cid=0x0:0x42083d304b99e444"
"hotel";"hotel";"N/A";"";"";"ACEH";"";"Indonesia";"";"";"";"https://maps.google.com/?cid=0x0:0x42083d304b99e444%7C/g/1ptxwt8_b%7Cid-ID"
"hotel";"hotel";"RedDoorz Syariah near Pantai Bali Abdya Blang Pidie";"Jl. Iskandar Muda, Kedai Paya, Kecamaten Blang Pidie, Kabupaten Aceh Barat Daya, Aceh 23763";"Kedai Paya, Kecamaten Blang Pidie, Kabupaten Aceh Barat Daya";"ACEH";"23763";"Indonesia";" 0895417300072";"3.7332266";"96.8460907";"https://maps.google.com/?cid=0x0:0xb11b813d46f1422f"
"hotel";"hotel";"Hotel Granova";"Padang Baru, Susoh, Kabupaten Aceh Barat Daya, Aceh 23765";"Susoh, Kabupaten Aceh Barat Daya";"ACEH";"23765";"Indonesia";" 08116006464";"3.7266232";"96.8109068";"https://maps.google.com/?cid=0x0:0xd7c828aa607acb77"
"hotel";"hotel";"Kec. Jeumpa";"Kabupaten Aceh Barat Daya, Aceh";"Kabupaten Aceh Barat Daya, Aceh";"ACEH";"";"Indonesia";"";"3.7760811";"96.8174776";"https://maps.google.com/?cid=0x0:0x273f2a9db3ea83a5"
"hotel";"hotel";"Grand Leuser Hotel";"PRRM+C47, Meudang Ara, Kecamaten Blang Pidie, Kabupaten Aceh Barat Daya, Aceh 23763";"Meudang Ara, Kecamaten Blang Pidie, Kabupaten Aceh Barat Daya";"ACEH";"23763";"Indonesia";" 065993009";"3.7410335";"96.8327879";"https://maps.google.com/?cid=0x0:0xd551b3628cadc5d6"
"hotel";"hotel";"Hotel Medan";"Jl. Jend. Ahmad Yani No.17, Peunayong, Kec. Kuta Alam, Kota Banda Aceh, Aceh";"Kota Banda Aceh, Aceh";"ACEH";"";"Indonesia";" 065121501";"5.5574522";"95.3187103";"https://maps.google.com/?cid=0x0:0x42083d304b99e444"
"hotel";"hotel";"Hotel Granova";"Padang Baru, Susoh, Kabupaten Aceh Barat Daya, Aceh 23765";"Susoh, Kabupaten Aceh Barat Daya";"ACEH";"23765";"Indonesia";" 08116006464";"3.7266232";"96.8109068";"https://maps.google.com/?cid=0x0:0xd7c828aa607acb77"
"hotel";"hotel";"Hotel Hip Hop";"Jl. Moh. Jam No.70, Kp. Baru, Kec. Baiturrahman, Kota Banda Aceh, Aceh 23116";"Kp. Baru, Kec. Baiturrahman, Kota Banda Aceh";"ACEH";"23116";"Indonesia";" 081266870606";"5.5529895";"95.3145353";"https://maps.google.com/?cid=0x0:0x90feb7dd1c7e5bf1"
"hotel";"hotel";"RedDoorz Syariah near Pantai Bali Abdya Blang Pidie";"Jl. Iskandar Muda, Kedai Paya, Kecamaten Blang Pidie, Kabupaten Aceh Barat Daya, Aceh 23763";"Kedai Paya, Kecamaten Blang Pidie, Kabupaten Aceh Barat Daya";"ACEH";"23763";"Indonesia";" 0895417300072";"3.7332266";"96.8460907";"https://maps.google.com/?cid=0x0:0xb11b813d46f1422f"
"hotel";"hotel";"Kuta Homestay";"Depan Pesantren Khazanatul Hikam, Jl. Pendidikan, Kuta Tinggi, Kecamaten Blang Pidie, Kabupaten Aceh Barat Daya, Aceh 23764";"Jl. Pendidikan, Kuta Tinggi, Kecamaten Blang Pidie, Kabupaten Aceh Barat Daya";"ACEH";"23764";"Indonesia";" 085183045100";"3.7442471";"96.8383888";"https://maps.google.com/?cid=0x0:0xcb51a6a655b70b48"
"hotel";"hotel";"Hotel Matang Raya";"Gampong, Bireun Meunasah Dayah, Matangglumpangdua, Peusangan, Kabupaten Bireuen, Aceh 24261";"Bireun Meunasah Dayah, Matangglumpangdua, Peusangan, Kabupaten Bireuen";"ACEH";"24261";"Indonesia";" 085217020150";"5.1974569";"96.7829449";"https://maps.google.com/?cid=0x0:0x808dc5079fc246b7"
"hotel";"hotel";"N/A";"";"";"ACEH";"";"Indonesia";"";"";"";"https://maps.google.com/?cid=0x0:0x4927c09f2ecd1f3c%7C/g/1hc16zhd7%7Cid-ID"
"hotel";"hotel";"Hotel 61";"Jl. T. Panglima Polem No.32-34, Laksana, Kec. Kuta Alam, Kota Banda Aceh, Aceh 23122";"Laksana, Kec. Kuta Alam, Kota Banda Aceh";"ACEH";"23122";"Indonesia";" 0651638866";"5.5593663";"95.3213398";"https://maps.google.com/?cid=0x0:0x4927c09f2ecd1f3c"
"hotel";"hotel";"111 Ocean View";"VC75+QHQ, Jl. Lama Banda Aceh-Meulaboh, Lhok Kruet, Kec. Sampoiniet, Kabupaten Aceh Jaya, Aceh 23656";"Jl. Lama Banda Aceh-Meulaboh, Lhok Kruet, Kec. Sampoiniet, Kabupaten Aceh Jaya";"ACEH";"23656";"Indonesia";" 082276597450";"4.8644581";"95.4089803";"https://maps.google.com/?cid=0x0:0x9d7c66b332fbcde9"
"hotel";"hotel";"Joel's Bungalows Lampuuk";"Jalan Irwandi Yusuf, Lampuuk, Meunasah Lambaro, Lhoknga, Aceh Besar Regency, Aceh 23353";"Lampuuk, Meunasah Lambaro, Lhoknga, Aceh Besar Regency";"ACEH";"23353";"Indonesia";" 081375287765";"5.4824469";"95.2315676";"https://maps.google.com/?cid=0x0:0xc4961eebcda75deb"
"hotel";"hotel";"Hotel Pantai Barat";"JHHW+QR7, Keutapang, Kec. Krueng Sabee, Kabupaten Aceh Jaya, Aceh 23655";"Keutapang, Kec. Krueng Sabee, Kabupaten Aceh Jaya";"ACEH";"23655";"Indonesia";"";"4.6294055";"95.597041";"https://maps.google.com/?cid=0x0:0x9e22dd28785fd7be"
"hotel";"hotel";"Cek@n Guest House";"Keuramat, Kec. Kuta Alam, Kota Banda Aceh, Aceh";"Kota Banda Aceh, Aceh";"ACEH";"";"Indonesia";" 08116876764";"5.5643828";"95.3284545";"https://maps.google.com/?cid=0x0:0x999adffa72c97cff"
"hotel";"hotel";"Aceh 24251";"Kabupaten Bireuen, Aceh";"Kabupaten Bireuen, Aceh";"ACEH";"";"Indonesia";"";"5.0881574";"96.642433";"https://maps.google.com/?cid=0x0:0x2d3a8ff5c08e4a15"
"hotel";"hotel";"Luxury Hotel Bireuen";"Jalan Bireuen, Jl. Medan Banda Aceh No.KM 1, No. 88, Bireun Mns Reuleut, Kec. Kota Juang, Kabupaten Bireuen, Aceh 24211";"Jl. Medan Banda Aceh No.KM 1, No. 88, Bireun Mns Reuleut, Kec. Kota Juang, Kabupaten Bireuen";"ACEH";"24211";"Indonesia";" 081265188088";"5.2034392";"96.6930858";"https://maps.google.com/?cid=0x0:0x6bed885bd18fd776"
"hotel";"hotel";"RedDoorz Syariah @ Teduh Harmoni Hotel Bireuen";"Jl. Mayor. H. Abdullah Yacob, Pulo Ara Geudong Teungoh, Kec. Kota Juang, Juang, Aceh 24261";"Pulo Ara Geudong Teungoh, Kec. Kota Juang, Juang";"ACEH";"24261";"Indonesia";" 0895417300072";"5.1980286";"96.7037501";"https://maps.google.com/?cid=0x0:0x7a7c6036bf793b34"
"hotel";"hotel";"GRAND HOTEL BLANG RAYA";"Jln. Pendidikan No.1, Bireun Meunasah Blang, Kec. Kota Juang, Kabupaten Bireuen, Aceh 24261";"Bireun Meunasah Blang, Kec. Kota Juang, Kabupaten Bireuen";"ACEH";"24261";"Indonesia";" 082366150491";"5.2025842";"96.690871";"https://maps.google.com/?cid=0x0:0xed62e9b8a5ec6837"
"hotel";"hotel";"GM inn Syariah";"Pulo Ara Geudong Teungoh, Kec. Kota Juang, Kabupaten Bireuen, Aceh 24261";"Kec. Kota Juang, Kabupaten Bireuen";"ACEH";"24261";"Indonesia";" 085219729601";"5.1973913";"96.7039528";"https://maps.google.com/?cid=0x0:0xaf18d54c5512f1a9"
"hotel";"hotel";"N/A";"";"";"ACEH";"";"Indonesia";"";"";"";"https://maps.google.com/?cid=0x0:0xaeca2c5e2f83688d%7C/g/1ptx_6780%7Cid-ID"
"hotel";"hotel";"Hotel Meuligoe";"Jl. Medan - Banda Aceh No.77, Cot Gapu, Kec. Kota Juang, Kabupaten Bireuen, Aceh 24261";"Cot Gapu, Kec. Kota Juang, Kabupaten Bireuen";"ACEH";"24261";"Indonesia";" 082273327269";"5.207812";"96.7324175";"https://maps.google.com/?cid=0x0:0xaeca2c5e2f83688d"
"hotel";"hotel";"Hotel Graha Buana";"Jl. Laksamana Malahayati No.12, Geudong Geudong, Kec. Kota Juang, Kabupaten Bireuen, Aceh 24211";"Geudong Geudong, Kec. Kota Juang, Kabupaten Bireuen";"ACEH";"24211";"Indonesia";" 0644324988";"5.2062003";"96.7031987";"https://maps.google.com/?cid=0x0:0x6773a7edb066220a"
"hotel";"hotel";"Hotel Fajar Bireuen";"Jl. Mayor. H. Abdullah Yacob, Pulo Ara Geudong Teungoh, Kec. Kota Juang, Kabupaten Bireuen, Aceh 24261";"Pulo Ara Geudong Teungoh, Kec. Kota Juang, Kabupaten Bireuen";"ACEH";"24261";"Indonesia";"";"5.1999323";"96.7040658";"https://maps.google.com/?cid=0x0:0x947cbd6c01f5ff4e"
"hotel";"hotel";"Hotel Djarwal";"6P27+V2H, Geulanggang Teungoh, Kec. Kota Juang, Kabupaten Bireuen, Aceh 24261";"Geulanggang Teungoh, Kec. Kota Juang, Kabupaten Bireuen";"ACEH";"24261";"Indonesia";"";"5.2023317";"96.7125563";"https://maps.google.com/?cid=0x0:0x343f463a775d8094"
"hotel";"hotel";"Penginapan Djarwal1";"Jl. Medan - Banda Aceh, Rureh, Pulo Ara Geudong Teungoh, Kec. Kota Juang, Kabupaten Bireuen, Aceh 24211";"Rureh, Pulo Ara Geudong Teungoh, Kec. Kota Juang, Kabupaten Bireuen";"ACEH";"24211";"Indonesia";" 0644323236";"5.2015618";"96.7051859";"https://maps.google.com/?cid=0x0:0x6f973d591c314d46"
"hotel";"hotel";"Penginapan Misbahul Jannah(Mj) Biruen";"Jl. Mayor. H. Abdullah Yacob Jalan Gajah Terminal, Pulo Ara Geudong Teungoh, Kec. Kota Juang, Kabupaten Bireuen, Aceh 24261";"Pulo Ara Geudong Teungoh, Kec. Kota Juang, Kabupaten Bireuen";"ACEH";"24261";"Indonesia";" 082275582020";"5.1974974";"96.7039929";"https://maps.google.com/?cid=0x0:0xabe4b65c098bcd89"
"hotel";"hotel";"Hotel Matang Raya";"Gampong, Bireun Meunasah Dayah, Matangglumpangdua, Peusangan, Kabupaten Bireuen, Aceh 24261";"Bireun Meunasah Dayah, Matangglumpangdua, Peusangan, Kabupaten Bireuen";"ACEH";"24261";"Indonesia";" 085217020150";"5.1974569";"96.7829449";"https://maps.google.com/?cid=0x0:0x808dc5079fc246b7"
"hotel";"hotel";"Homestay Yaa Syafi";"Mns Tgk Di Gadong, Jl. Raya Bireuen - Takengon No.54, Bireun Meunasah Capa, Kota Juang, Bireuen Regency, Aceh 24261";"Jl. Raya Bireuen - Takengon No.54, Bireun Meunasah Capa, Kota Juang, Bireuen Regency";"ACEH";"24261";"Indonesia";" 081377032356";"5.1948678";"96.7023422";"https://maps.google.com/?cid=0x0:0x5a3c1d9872b86c63"
"hotel";"hotel";"RedDoorz Syariah near Pantai Bali Abdya Blang Pidie";"Jl. Iskandar Muda, Kedai Paya, Kecamaten Blang Pidie, Kabupaten Aceh Barat Daya, Aceh 23763";"Kedai Paya, Kecamaten Blang Pidie, Kabupaten Aceh Barat Daya";"ACEH";"23763";"Indonesia";" 0895417300072";"3.7332266";"96.8460907";"https://maps.google.com/?cid=0x0:0xb11b813d46f1422f"
"hotel";"Tujuan Wisata";"Pantai ujung serangga";"PR86+787, desa, Pawoh, Susoh, Kabupaten Aceh Barat Daya, Aceh";"Kabupaten Aceh Barat Daya, Aceh";"ACEH";"";"Indonesia";"";"3.7156625";"96.8107969";"https://maps.google.com/?cid=0x0:0xe607ec4963b6795"
"hotel";"Pusat Kesehatan Masyarakat";"Puskesmas Lembah Sabil";"HWWV+X34, Padang Kelele, Kec. Lembah Sabil, Kabupaten Aceh Barat Daya, Aceh 23762";"Padang Kelele, Kec. Lembah Sabil, Kabupaten Aceh Barat Daya";"ACEH";"23762";"Indonesia";"";"3.5973824";"96.9427086";"https://maps.google.com/?cid=0x0:0x85d63c0f448d6e2f"
"hotel";"hotel";"Kec. Lembah Sabil";"Kabupaten Aceh Barat Daya, Aceh";"Kabupaten Aceh Barat Daya, Aceh";"ACEH";"";"Indonesia";"";"3.589112";"96.9343064";"https://maps.google.com/?cid=0x0:0x47f212bb54114078"
"hotel";"hotel";"EVA SKY HOTEL";"Jl. Sisingamangaraja, Drien Rampak, Kec. Johan Pahlawan, Kabupaten Aceh Barat, Aceh 23616";"Drien Rampak, Kec. Johan Pahlawan, Kabupaten Aceh Barat";"ACEH";"23616";"Indonesia";" 085262456864";"4.163213";"96.1321874";"https://maps.google.com/?cid=0x0:0x580676ba7098b2c3"
"hotel";"hotel";"Penginapan KANA HASYA HOMESTAY "Rumoh Jamee"";"Jl. Singgah Mata II Lr. Tripa No.8, Kuta Padang, Kec. Johan Pahlawan, Kabupaten Aceh Barat, Aceh 23614";"Kuta Padang, Kec. Johan Pahlawan, Kabupaten Aceh Barat";"ACEH";"23614";"Indonesia";" 085372826977";"4.1551432";"96.1208821";"https://maps.google.com/?cid=0x0:0x3f0c8119272ac1e7"
"hotel";"Masjid";"Masjid Agung Baitul Makmur Kabupaten Aceh Barat";"Jl. Imam Bonjol No.100, Drien Rampak, Kec. Johan Pahlawan, Kabupaten Aceh Barat, Aceh 23611";"Drien Rampak, Kec. Johan Pahlawan, Kabupaten Aceh Barat";"ACEH";"23611";"Indonesia";"";"4.1587055";"96.1249118";"https://maps.google.com/?cid=0x0:0x7bd6dedc9ee1ea71"
"cafe";"Kedai Kopi";"Nongkrong Coffee";"Kedai Siblah, Kecamaten Blang Pidie, Kabupaten Aceh Barat Daya, Aceh 23763";"Kecamaten Blang Pidie, Kabupaten Aceh Barat Daya";"ACEH";"23763";"Indonesia";" 082277903321";"3.7413128";"96.8329362";"https://maps.google.com/?cid=0x0:0x252c87f138895d56"
"cafe";"cafe";"Aceh 23764";"Kabupaten Aceh Barat Daya, Aceh";"Kabupaten Aceh Barat Daya, Aceh";"ACEH";"";"Indonesia";"";"3.8585335";"96.8136642";"https://maps.google.com/?cid=0x0:0xffecff8e1cb94052"
"cafe";"Kafe";"Mega Kupi";"Meudang Ara, Kecamaten Blang Pidie, Kabupaten Aceh Barat Daya, Aceh 23763";"Kecamaten Blang Pidie, Kabupaten Aceh Barat Daya";"ACEH";"23763";"Indonesia";"";"3.7429808";"96.8334676";"https://maps.google.com/?cid=0x0:0xa1042416f4af2d97"
"cafe";"Kafe";"Wkwklandcoffeeshop Roastery Zona KongKouw";"Depan SD Negeri 2, Depan Lapangan Bola Kaki Persada, Jl. Persada, Kedai Siblah, Kecamaten Blang Pidie, Kabupaten Aceh Barat Daya, Aceh 23764";"Depan Lapangan Bola Kaki Persada, Jl. Persada, Kedai Siblah, Kecamaten Blang Pidie, Kabupaten Aceh Barat Daya";"ACEH";"23764";"Indonesia";" 085277707241";"3.7368471";"96.8313122";"https://maps.google.com/?cid=0x0:0x61db7c90e4d524ec"
"cafe";"Kedai Kopi";"POGE COFFE";"PRXJ+3X6, Lhung Asan, Kecamaten Blang Pidie, Kabupaten Aceh Barat Daya, Aceh 23763";"Lhung Asan, Kecamaten Blang Pidie, Kabupaten Aceh Barat Daya";"ACEH";"23763";"Indonesia";"";"3.7476624";"96.8323907";"https://maps.google.com/?cid=0x0:0x267809a33e87d554"
"cafe";"Kedai Kopi";"Kopi Ayah Nature Fajar";"Jl. Cut Meutia No.5, Meudang Ara, Kecamaten Blang Pidie, Kabupaten Aceh Barat Daya, Aceh 23763";"Meudang Ara, Kecamaten Blang Pidie, Kabupaten Aceh Barat Daya";"ACEH";"23763";"Indonesia";" 085260425187";"3.7408877";"96.8343329";"https://maps.google.com/?cid=0x0:0x36abf26fcff5dfba"
"cafe";"Restoran";"Coffee Boh Hatee";"PRQM+RVF, Meudang Ara, Kecamaten Blang Pidie, Kabupaten Aceh Barat Daya, Aceh 23763";"Meudang Ara, Kecamaten Blang Pidie, Kabupaten Aceh Barat Daya";"ACEH";"23763";"Indonesia";"";"3.7395703";"96.8346759";"https://maps.google.com/?cid=0x0:0xf9feb63c9aa428b6"
"cafe";"Kafe";"Athena Cafe";"PRPJ+QPM, Ps. Blang Pidie, Kecamaten Blang Pidie, Kabupaten Aceh Barat Daya, Aceh 23763";"Ps. Blang Pidie, Kecamaten Blang Pidie, Kabupaten Aceh Barat Daya";"ACEH";"23763";"Indonesia";" 082294967382";"3.7369511";"96.8317964";"https://maps.google.com/?cid=0x0:0xad9ac5b5133a13f7"
"cafe";"Kafe";"Cafe KAK LIS";"PRXM+M38, Seunaloh, Kecamaten Blang Pidie, Kabupaten Aceh Barat Daya, Aceh 23763";"Seunaloh, Kecamaten Blang Pidie, Kabupaten Aceh Barat Daya";"ACEH";"23763";"Indonesia";"";"3.7491744";"96.8326951";"https://maps.google.com/?cid=0x0:0xde0177c18c5156f0"
"cafe";"Kafe";"Warkop Ganggang Dama";"Jl. Pendidikan No.16, Meudang Ara, Kecamaten Blang Pidie, Kabupaten Aceh Barat Daya, Aceh 23764";"Meudang Ara, Kecamaten Blang Pidie, Kabupaten Aceh Barat Daya";"ACEH";"23764";"Indonesia";"";"3.7402857";"96.8352063";"https://maps.google.com/?cid=0x0:0x47b76a9188bdaad2"
"cafe";"Kafe";"Waroeng Sagoe Blang";"PRWV+7PC, Mata Ie, Kecamaten Blang Pidie, Kabupaten Aceh Barat Daya, Aceh 23764";"Mata Ie, Kecamaten Blang Pidie, Kabupaten Aceh Barat Daya";"ACEH";"23764";"Indonesia";"";"3.7456901";"96.844261";"https://maps.google.com/?cid=0x0:0xbfdc75bf1a9300b9"
"cafe";"Kedai Kopi";"Djambak Coffee";"Jl. Rawa Sakti, Desa Pasar, Kecamaten Blang Pidie, Kabupaten Aceh Barat Daya, Aceh 23763";"Desa Pasar, Kecamaten Blang Pidie, Kabupaten Aceh Barat Daya";"ACEH";"23763";"Indonesia";"";"3.7370614";"96.8323552";"https://maps.google.com/?cid=0x0:0xc5fa9e22aefa503e"
"cafe";"Kedai Kopi";"ABI ALEYA COFFEE ( AA KUPI )";"PRQQ+86Q, Jl. Habib Amin, Kuta Tuha, Kecamaten Blang Pidie, Kabupaten Aceh Barat Daya, Aceh 23763";"Jl. Habib Amin, Kuta Tuha, Kecamaten Blang Pidie, Kabupaten Aceh Barat Daya";"ACEH";"23763";"Indonesia";" 082272291184";"3.738344";"96.8381037";"https://maps.google.com/?cid=0x0:0x3faab0b961f72b47"
"cafe";"Kedai Teh Tradisional";"Siam Khab Blang Pidie";"PRPJ+98F, Jl. Persada, Kedai Siblah, Kecamaten Blang Pidie, Kabupaten Aceh Barat Daya, Aceh 23764";"Jl. Persada, Kedai Siblah, Kecamaten Blang Pidie, Kabupaten Aceh Barat Daya";"ACEH";"23764";"Indonesia";"";"3.7359265";"96.8308072";"https://maps.google.com/?cid=0x0:0xc2784df585bc2b4a"
"cafe";"Kedai Kopi";"Nongkrong Coffee";"Kedai Siblah, Kecamaten Blang Pidie, Kabupaten Aceh Barat Daya, Aceh 23763";"Kecamaten Blang Pidie, Kabupaten Aceh Barat Daya";"ACEH";"23763";"Indonesia";" 082277903321";"3.7413128";"96.8329362";"https://maps.google.com/?cid=0x0:0x252c87f138895d56"
"cafe";"cafe";"Aceh 23763";"Hutan Blangpidie, Kecamaten Blang Pidie, Kabupaten Aceh Barat Daya, Aceh";"Kabupaten Aceh Barat Daya, Aceh";"ACEH";"";"Indonesia";"";"3.8370991";"96.9638624";"https://maps.google.com/?cid=0x0:0xcddc5be33e66fecd"
"cafe";"Kedai Kopi";"Kopi Ayah Nature Fajar";"Jl. Cut Meutia No.5, Meudang Ara, Kecamaten Blang Pidie, Kabupaten Aceh Barat Daya, Aceh 23763";"Meudang Ara, Kecamaten Blang Pidie, Kabupaten Aceh Barat Daya";"ACEH";"23763";"Indonesia";" 085260425187";"3.7408877";"96.8343329";"https://maps.google.com/?cid=0x0:0x36abf26fcff5dfba"
"cafe";"Kafe";"TAUFIK KOPI ABDYA";"Jl.Letkol BB Djalal, Padang Hilir, Susoh, Kabupaten Aceh Barat Daya, Aceh 23763";"Padang Hilir, Susoh, Kabupaten Aceh Barat Daya";"ACEH";"23763";"Indonesia";" 082229312960";"3.7305301";"96.8261881";"https://maps.google.com/?cid=0x0:0xc7f6c37967e1f6d4"
"cafe";"Kafe";"Cafe KAK LIS";"PRXM+M38, Seunaloh, Kecamaten Blang Pidie, Kabupaten Aceh Barat Daya, Aceh 23763";"Seunaloh, Kecamaten Blang Pidie, Kabupaten Aceh Barat Daya";"ACEH";"23763";"Indonesia";"";"3.7491744";"96.8326951";"https://maps.google.com/?cid=0x0:0xde0177c18c5156f0"
"cafe";"Kafe";"Athena Cafe";"PRPJ+QPM, Ps. Blang Pidie, Kecamaten Blang Pidie, Kabupaten Aceh Barat Daya, Aceh 23763";"Ps. Blang Pidie, Kecamaten Blang Pidie, Kabupaten Aceh Barat Daya";"ACEH";"23763";"Indonesia";" 082294967382";"3.7369511";"96.8317964";"https://maps.google.com/?cid=0x0:0xad9ac5b5133a13f7"
"cafe";"Restoran";"Coffee Boh Hatee";"PRQM+RVF, Meudang Ara, Kecamaten Blang Pidie, Kabupaten Aceh Barat Daya, Aceh 23763";"Meudang Ara, Kecamaten Blang Pidie, Kabupaten Aceh Barat Daya";"ACEH";"23763";"Indonesia";"";"3.7395703";"96.8346759";"https://maps.google.com/?cid=0x0:0xf9feb63c9aa428b6"
"cafe";"Kedai Kopi";"POGE COFFE";"PRXJ+3X6, Lhung Asan, Kecamaten Blang Pidie, Kabupaten Aceh Barat Daya, Aceh 23763";"Lhung Asan, Kecamaten Blang Pidie, Kabupaten Aceh Barat Daya";"ACEH";"23763";"Indonesia";"";"3.7476624";"96.8323907";"https://maps.google.com/?cid=0x0:0x267809a33e87d554"
"cafe";"Kedai Kopi";"Djambak Coffee";"Jl. Rawa Sakti, Desa Pasar, Kecamaten Blang Pidie, Kabupaten Aceh Barat Daya, Aceh 23763";"Desa Pasar, Kecamaten Blang Pidie, Kabupaten Aceh Barat Daya";"ACEH";"23763";"Indonesia";"";"3.7370614";"96.8323552";"https://maps.google.com/?cid=0x0:0xc5fa9e22aefa503e"
"cafe";"Kedai Kopi";"Jamee kupi";"Durian Rampak, Susoh, Kabupaten Aceh Barat Daya, Aceh 23763";"Susoh, Kabupaten Aceh Barat Daya";"ACEH";"23763";"Indonesia";" 081294493489";"3.7260267";"96.8226898";"https://maps.google.com/?cid=0x0:0xd4badca78d3cf782"
"cafe";"Kafe";"Cafe Vakiesanta Abdya";"PVX2+M6P, Unnamed Road, Mata Ie, Kecamaten Blang Pidie, Kabupaten Aceh Barat Daya, Aceh 23763";"Unnamed Road, Mata Ie, Kecamaten Blang Pidie, Kabupaten Aceh Barat Daya";"ACEH";"23763";"Indonesia";" 085212579110";"3.7492152";"96.8505668";"https://maps.google.com/?cid=0x0:0x7fd865e0155e73a7"
"cafe";"Rumah Makan";"Cafe Pantai Bali";"PR5J+PP9, Ladang, Susoh, Kabupaten Aceh Barat Daya, Aceh 23763";"Ladang, Susoh, Kabupaten Aceh Barat Daya";"ACEH";"23763";"Indonesia";"";"3.7092851";"96.831869";"https://maps.google.com/?cid=0x0:0x4d3eb0316f89cc30"
"cafe";"Kafe";"AW Kupi";"PRQR+6V6, Geulumpang Payong, Kecamaten Blang Pidie, Kabupaten Aceh Barat Daya, Aceh 23763";"Geulumpang Payong, Kecamaten Blang Pidie, Kabupaten Aceh Barat Daya";"ACEH";"23763";"Indonesia";"";"3.7380429";"96.8421278";"https://maps.google.com/?cid=0x0:0x1a3f69afffaa2f52"
"cafe";"Kafe";"Mega Kupi";"Meudang Ara, Kecamaten Blang Pidie, Kabupaten Aceh Barat Daya, Aceh 23763";"Kecamaten Blang Pidie, Kabupaten Aceh Barat Daya";"ACEH";"23763";"Indonesia";"";"3.7429808";"96.8334676";"https://maps.google.com/?cid=0x0:0xa1042416f4af2d97"
"cafe";"Kafe";"Cafe Sinar Biru";"JW62+983, Sejahtera, Kec. Manggeng, Kabupaten Aceh Barat Daya, Aceh 23762";"Sejahtera, Kec. Manggeng, Kabupaten Aceh Barat Daya";"ACEH";"23762";"Indonesia";"";"3.6108829";"96.9007998";"https://maps.google.com/?cid=0x0:0x45b929bb2a252da7"
"cafe";"cafe";"Manggeng";"Blang Manggeng, Kec. Manggeng, Kabupaten Aceh Barat Daya, Aceh";"Kabupaten Aceh Barat Daya, Aceh";"ACEH";"";"Indonesia";"";"3.60821";"96.9188";"https://maps.google.com/?cid=0x0:0x4039d80b220dbb0"
"cafe";"Bar Kopi Espresso";"Cafe Gerimis";"JW62+4CG, Sejahtera, Kec. Manggeng, Kabupaten Aceh Barat Daya, Aceh 23762";"Sejahtera, Kec. Manggeng, Kabupaten Aceh Barat Daya";"ACEH";"23762";"Indonesia";"";"3.610313";"96.901066";"https://maps.google.com/?cid=0x0:0xbb8ab1e8b5afe96e"
"cafe";"Restoran";"Kantin Ujong Kuala Manggeng";"JW33+7HP, ujung kuala, Sejahtera, Kec. Manggeng, Kabupaten Aceh Barat Daya, Aceh 23762";"ujung kuala, Sejahtera, Kec. Manggeng, Kabupaten Aceh Barat Daya";"ACEH";"23762";"Indonesia";" 085283038431";"3.6032203";"96.9039678";"https://maps.google.com/?cid=0x0:0x95d1a641de03dc5b"
"cafe";"Kedai Kopi";"Gedung Putih Cafe";"JW8M+XG9, Kedai, Kec. Manggeng, Kabupaten Aceh Barat Daya, Aceh 23762";"Kedai, Kec. Manggeng, Kabupaten Aceh Barat Daya";"ACEH";"23762";"Indonesia";" 082369283265";"3.6174179";"96.9338591";"https://maps.google.com/?cid=0x0:0x1f331d0ca1e2c26a"
"cafe";"Kedai Kopi";"Kantin ANDONG";"JV7X+2XF, Sejahtera, Kec. Manggeng, Kabupaten Aceh Barat Daya, Aceh 23762";"Sejahtera, Kec. Manggeng, Kabupaten Aceh Barat Daya";"ACEH";"23762";"Indonesia";"";"3.6125646";"96.8999344";"https://maps.google.com/?cid=0x0:0xf07898178701e513"
"cafe";"Kedai Kopi";"Miji Warkop";"Kedai, Kec. Manggeng, Kabupaten Aceh Barat Daya, Aceh 23762";"Kec. Manggeng, Kabupaten Aceh Barat Daya";"ACEH";"23762";"Indonesia";"";"3.6154766";"96.9374075";"https://maps.google.com/?cid=0x0:0xf0578a814b72a564"
"cafe";"Kafe";"Kopidiriini";"JW7Q+XCV, Kedai, Kec. Manggeng, Kabupaten Aceh Barat Daya, Aceh 23762";"Kedai, Kec. Manggeng, Kabupaten Aceh Barat Daya";"ACEH";"23762";"Indonesia";" 081265088427";"3.6149906";"96.9385358";"https://maps.google.com/?cid=0x0:0x495f058c781c9aea"
"cafe";"Kedai Kopi";"Kantin Bang Pi'ie";"JV8X+F62, Sejahtera, Kec. Manggeng, Kabupaten Aceh Barat Daya, Aceh 23762";"Sejahtera, Kec. Manggeng, Kabupaten Aceh Barat Daya";"ACEH";"23762";"Indonesia";"";"3.6161262";"96.8980049";"https://maps.google.com/?cid=0x0:0x61cdebbff605afcb"
"cafe";"Kedai Kopi";"A.Y Kupi";"Jl. Meulaboh - Tapaktuan Blangpidie No.51, Paya, Kec. Manggeng, Kabupaten Aceh Barat Daya, Aceh 23762";"Paya, Kec. Manggeng, Kabupaten Aceh Barat Daya";"ACEH";"23762";"Indonesia";"";"3.6179552";"96.9336086";"https://maps.google.com/?cid=0x0:0x419cf466723e1910"
"cafe";"Kedai Kopi";"Kantin Duren";"JV7X+9QC, Unnamed Road, Sejahtera, Kec. Manggeng, Kabupaten Aceh Barat Daya, Aceh 23762";"Unnamed Road, Sejahtera, Kec. Manggeng, Kabupaten Aceh Barat Daya";"ACEH";"23762";"Indonesia";" 082162535350";"3.6134489";"96.8994046";"https://maps.google.com/?cid=0x0:0xbfeda8d99dcdf59a"
"cafe";"Kedai Kopi";"Warung Mie Maskario";"JW4G+CRG, Blang Manggeng, Kec. Manggeng, Kabupaten Aceh Barat Daya, Aceh 23762";"Blang Manggeng, Kec. Manggeng, Kabupaten Aceh Barat Daya";"ACEH";"23762";"Indonesia";" 085260005895";"3.6060502";"96.9270906";"https://maps.google.com/?cid=0x0:0xfae644341429664"
"cafe";"Kafe";"Surabaya Cafe";"JWFW+HG8, Lhok Puntoy, Kec. Manggeng, Kabupaten Aceh Barat Daya, Aceh 23762";"Lhok Puntoy, Kec. Manggeng, Kabupaten Aceh Barat Daya";"ACEH";"23762";"Indonesia";" 085277717703";"3.6239225";"96.946329";"https://maps.google.com/?cid=0x0:0x9b71fb8117a64d5b"
"cafe";"Kafe";"Warkop Tenda Biru Said Muzakir";"Jl. Teuku Raja Iskandar, Kedai, Kec. Manggeng, Kabupaten Aceh Barat Daya, Aceh 23762";"Kedai, Kec. Manggeng, Kabupaten Aceh Barat Daya";"ACEH";"23762";"Indonesia";"";"3.6164985";"96.9370759";"https://maps.google.com/?cid=0x0:0xbe7230e47fb37f16"
"cafe";"cafe";"Susoh";"Padang Baru, Susoh, Kabupaten Aceh Barat Daya, Aceh";"Kabupaten Aceh Barat Daya, Aceh";"ACEH";"";"Indonesia";"";"3.728577";"96.812576";"https://maps.google.com/?cid=0x0:0x4039d80b220d460"
"cafe";"Kafe";"KENIYO";"Jl. Letkol BB Djalal No.100, Pawoh, Susoh, Kabupaten Aceh Barat Daya, Aceh 23765";"Pawoh, Susoh, Kabupaten Aceh Barat Daya";"ACEH";"23765";"Indonesia";" 082211103441";"3.7251441";"96.818832";"https://maps.google.com/?cid=0x0:0x89318c466fc07f83"
"cafe";"Kedai Kopi";"Cafe Dapu Del";"PR86+VGW, Kedai Susoh, Susoh, Kabupaten Aceh Barat Daya, Aceh 23763";"Kedai Susoh, Susoh, Kabupaten Aceh Barat Daya";"ACEH";"23763";"Indonesia";"";"3.7172087";"96.8113031";"https://maps.google.com/?cid=0x0:0x2471afa93bb4b195"
"cafe";"Kedai Kopi";"Cafe Wahyu";"PR96+6GC, Padang Baru, Susoh, Kabupaten Aceh Barat Daya, Aceh 23765";"Padang Baru, Susoh, Kabupaten Aceh Barat Daya";"ACEH";"23765";"Indonesia";"";"3.7180579";"96.811267";"https://maps.google.com/?cid=0x0:0x535357e6aa58774e"
"cafe";"Kafe";"atika kafe";"PRG6+J9F, Padang Baru, Susoh, Kabupaten Aceh Barat Daya, Aceh 23765";"Padang Baru, Susoh, Kabupaten Aceh Barat Daya";"ACEH";"23765";"Indonesia";" 081375636190";"3.7265588";"96.8109323";"https://maps.google.com/?cid=0x0:0x95c242e230d0c7e9"
"cafe";"Kedai Kopi";"CUBO DULU";"JL Letko Bb Jalal, DSN SEJAHTERA, Pawoh, Susoh, Kabupaten Aceh Barat Daya, Aceh 23765";"DSN SEJAHTERA, Pawoh, Susoh, Kabupaten Aceh Barat Daya";"ACEH";"23765";"Indonesia";" 082294458153";"3.7243598";"96.8177881";"https://maps.google.com/?cid=0x0:0xf25a71a07d5f3bc3"
"cafe";"Kafe";"TAUFIK KOPI ABDYA";"Jl.Letkol BB Djalal, Padang Hilir, Susoh, Kabupaten Aceh Barat Daya, Aceh 23763";"Padang Hilir, Susoh, Kabupaten Aceh Barat Daya";"ACEH";"23763";"Indonesia";" 082229312960";"3.7305301";"96.8261881";"https://maps.google.com/?cid=0x0:0xc7f6c37967e1f6d4"
"cafe";"Kedai Kopi";"Aneka Kafe";"PR99+235, Unnamed Road, Kedai Susoh, Susoh, Kabupaten Aceh Barat Daya, Aceh 23763";"Unnamed Road, Kedai Susoh, Susoh, Kabupaten Aceh Barat Daya";"ACEH";"23763";"Indonesia";" 085260461220";"3.7175112";"96.8177472";"https://maps.google.com/?cid=0x0:0x1cfc900210d5160a"
"cafe";"Mi";"WARUNG MIE DEK SABDAN";"PQJX+4GV, Pulau Kayu, Susoh, Kabupaten Aceh Barat Daya, Aceh 23765";"Pulau Kayu, Susoh, Kabupaten Aceh Barat Daya";"ACEH";"23765";"Indonesia";" 082166404635";"3.7304348";"96.7987846";"https://maps.google.com/?cid=0x0:0xfff9460e04656553"
"cafe";"Kafe";"Cafe YAKUZA";"PRC8+HP8, Rumah Panjang, Susoh, Kabupaten Aceh Barat Daya, Aceh 23763";"Rumah Panjang, Susoh, Kabupaten Aceh Barat Daya";"ACEH";"23763";"Indonesia";" 082364556554";"3.7214202";"96.8168249";"https://maps.google.com/?cid=0x0:0xce691fd5dadf41bc"
"cafe";"Kafe";"UMMI CAFE  CATERING";"PRC9+673, Unnamed Road, Pinang, Susoh, Kabupaten Aceh Barat Daya, Aceh 23763";"Unnamed Road, Pinang, Susoh, Kabupaten Aceh Barat Daya";"ACEH";"23763";"Indonesia";" 085277995091";"3.7205176";"96.8181589";"https://maps.google.com/?cid=0x0:0xd0c0b5f2634fd676"
"cafe";"Kedai Kopi";"Nongkrong Coffee";"Kedai Siblah, Kecamaten Blang Pidie, Kabupaten Aceh Barat Daya, Aceh 23763";"Kecamaten Blang Pidie, Kabupaten Aceh Barat Daya";"ACEH";"23763";"Indonesia";" 082277903321";"3.7413128";"96.8329362";"https://maps.google.com/?cid=0x0:0x252c87f138895d56"
"cafe";"Kafe";"Nabot Coffee";"PR97+7V2, Kedai Susoh, Susoh, Kabupaten Aceh Barat Daya, Aceh 23763";"Kedai Susoh, Susoh, Kabupaten Aceh Barat Daya";"ACEH";"23763";"Indonesia";" 085262282283";"3.7181464";"96.8146519";"https://maps.google.com/?cid=0x0:0x93f90398cb633f"
"cafe";"Rumah Makan";"Cafe Pantai Bali";"PR5J+PP9, Ladang, Susoh, Kabupaten Aceh Barat Daya, Aceh 23763";"Ladang, Susoh, Kabupaten Aceh Barat Daya";"ACEH";"23763";"Indonesia";"";"3.7092851";"96.831869";"https://maps.google.com/?cid=0x0:0x4d3eb0316f89cc30"
"cafe";"cafe";"Aceh 23766";"Kec. Babah Rot, Kabupaten Aceh Barat Daya, Aceh";"Kabupaten Aceh Barat Daya, Aceh";"ACEH";"";"Indonesia";"";"3.9000346";"96.6851982";"https://maps.google.com/?cid=0x0:0x4d19ceb29190eb17"
"cafe";"Kedai Kopi";"Nongkrong Coffee";"Kedai Siblah, Kecamaten Blang Pidie, Kabupaten Aceh Barat Daya, Aceh 23763";"Kecamaten Blang Pidie, Kabupaten Aceh Barat Daya";"ACEH";"23763";"Indonesia";" 082277903321";"3.7413128";"96.8329362";"https://maps.google.com/?cid=0x0:0x252c87f138895d56"
"cafe";"Kafe";"Warung Alza";"RQ92+GJH, Unnamed Road, Kuala Terubu, Kec. Kuala Batee, Kabupaten Aceh Barat Daya, Aceh 23766";"Unnamed Road, Kuala Terubu, Kec. Kuala Batee, Kabupaten Aceh Barat Daya";"ACEH";"23766";"Indonesia";" 082249174900";"3.8188017";"96.7516024";"https://maps.google.com/?cid=0x0:0x259f196f398fc087"
"cafe";"Toko";"Keudee Maknda";"VP92+F73, Alue Jerjak, Kec. Babah Rot, Kabupaten Aceh Barat Daya, Aceh 23766";"Alue Jerjak, Kec. Babah Rot, Kabupaten Aceh Barat Daya";"ACEH";"23766";"Indonesia";"";"3.8686317";"96.7006855";"https://maps.google.com/?cid=0x0:0x8be7750b2f19a11e"
"cafe";"Sulawesi Selatan";"Cafe Pulau Sepadan";"VPV4+GG2, Pantee Cermin, Kec. Babah Rot, Kabupaten Aceh Barat Daya, Aceh 23766";"Pantee Cermin, Kec. Babah Rot, Kabupaten Aceh Barat Daya";"ACEH";"23766";"Indonesia";"";"3.8937663";"96.7062577";"https://maps.google.com/?cid=0x0:0x4a45e03dbc9d876b"
"cafe";"Kafe";"Warkop wak jal";"RQC6+Q83, Ps. Kuta Bahagia, Kec. Kuala Batee, Kabupaten Aceh Barat Daya, Aceh 23764";"Ps. Kuta Bahagia, Kec. Kuala Batee, Kabupaten Aceh Barat Daya";"ACEH";"23764";"Indonesia";"";"3.8218975";"96.7608088";"https://maps.google.com/?cid=0x0:0x9d72e634d0e3b522"
"cafe";"Kantor Perusahaan";"Desa Ie Mirah, Babahrot";"Jl. Meulaboh - Tapaktuan, Ie Merah, Kec. Babah Rot, Kabupaten Aceh Barat Daya, Aceh 23766";"Ie Merah, Kec. Babah Rot, Kabupaten Aceh Barat Daya";"ACEH";"23766";"Indonesia";"";"3.9423219";"96.673464";"https://maps.google.com/?cid=0x0:0xb533cce3c8d5e6cc"
"cafe";"Kafe";"TAUFIK KOPI ABDYA";"Jl.Letkol BB Djalal, Padang Hilir, Susoh, Kabupaten Aceh Barat Daya, Aceh 23763";"Padang Hilir, Susoh, Kabupaten Aceh Barat Daya";"ACEH";"23763";"Indonesia";" 082229312960";"3.7305301";"96.8261881";"https://maps.google.com/?cid=0x0:0xc7f6c37967e1f6d4"
"cafe";"Kedai Kopi";"Berkah armira";"Kuala Terubu, Kec. Kuala Batee, Kabupaten Aceh Barat Daya, Aceh";"Kabupaten Aceh Barat Daya, Aceh";"ACEH";"";"Indonesia";" 085206060302";"3.816141";"96.741371";"https://maps.google.com/?cid=0x0:0x5ae8dfcd9ad63933"
"cafe";"Kedai Kopi";"kios/warkop alesha";"RQ72+WQR, Unnamed Road, Kuala Terubu, Kec. Kuala Batee, Kabupaten Aceh Barat Daya, Aceh 23764";"Unnamed Road, Kuala Terubu, Kec. Kuala Batee, Kabupaten Aceh Barat Daya";"ACEH";"23764";"Indonesia";" 081370059167";"3.8148597";"96.7518758";"https://maps.google.com/?cid=0x0:0x4ef4faec8cc7474e"
"cafe";"Rumah Makan";"Rumah Makan";"RQ97+6CQ, Blang Makmur, Kec. Kuala Batee, Kabupaten Aceh Barat Daya, Aceh 23764";"Blang Makmur, Kec. Kuala Batee, Kabupaten Aceh Barat Daya";"ACEH";"23764";"Indonesia";" 085260694333";"3.8180908";"96.7636143";"https://maps.google.com/?cid=0x0:0x267fb35e594fff62"
"cafe";"Kedai Kopi";"Cafe Putroe";"RQH4+GW, Ps. Kuta Bahagia, Kec. Kuala Batee, Kabupaten Aceh Barat Daya, Aceh";"Kabupaten Aceh Barat Daya, Aceh";"ACEH";"";"Indonesia";"";"3.8287832";"96.7573319";"https://maps.google.com/?cid=0x0:0x6a6cd7f5bb95bc1b"
"cafe";"Kedai Kopi";"THE GIBRAN";"VMRV+968, Pantee Cermin, Kec. Babah Rot, Kabupaten Aceh Barat Daya, Aceh 23766";"Pantee Cermin, Kec. Babah Rot, Kabupaten Aceh Barat Daya";"ACEH";"23766";"Indonesia";" 085373169037";"3.890903";"96.6930797";"https://maps.google.com/?cid=0x0:0xee9c75b4cecb3f92"
"cafe";"Brunch";"Waroeng Ayah Madi";"RQ87+QW9, Jl. Lintas Barat Sumatera, Blang Makmur, Kec. Kuala Batee, Kabupaten Aceh Barat Daya, Aceh 23764";"Jl. Lintas Barat Sumatera, Blang Makmur, Kec. Kuala Batee, Kabupaten Aceh Barat Daya";"ACEH";"23764";"Indonesia";" 082368562226";"3.8169022";"96.7648524";"https://maps.google.com/?cid=0x0:0x3874b5f29169e379"
"cafe";"Kantor Perusahaan";"Desa Ie Mirah, Babahrot";"Jl. Meulaboh - Tapaktuan, Ie Merah, Kec. Babah Rot, Kabupaten Aceh Barat Daya, Aceh 23766";"Ie Merah, Kec. Babah Rot, Kabupaten Aceh Barat Daya";"ACEH";"23766";"Indonesia";"";"3.9423219";"96.673464";"https://maps.google.com/?cid=0x0:0xb533cce3c8d5e6cc"
"cafe";"cafe";"Aceh 23767";"Kec. Babah Rot, Kabupaten Aceh Barat Daya, Aceh";"Kabupaten Aceh Barat Daya, Aceh";"ACEH";"";"Indonesia";"";"3.8500236";"96.6103778";"https://maps.google.com/?cid=0x0:0xdb51e75798ae0c5b"
"cafe";"Kafe";"Sikokini coffee";"Ie Merah, Kec. Babah Rot, Kabupaten Aceh Barat Daya, Aceh 23766";"Kec. Babah Rot, Kabupaten Aceh Barat Daya";"ACEH";"23766";"Indonesia";"";"3.9389375";"96.6748125";"https://maps.google.com/?cid=0x0:0x3edbae48609edf66"
"cafe";"Kedai Kopi";"Warkop bg yet";"WP23+R9R, Pantee Cermin, Kec. Babah Rot, Kabupaten Aceh Barat Daya, Aceh 23766";"Pantee Cermin, Kec. Babah Rot, Kabupaten Aceh Barat Daya";"ACEH";"23766";"Indonesia";"";"3.9024395";"96.703592";"https://maps.google.com/?cid=0x0:0x22e393f721d7e455"
"cafe";"Kedai Kopi";"Warkop Chaniago";"XM28+R58, Ie Merah, Kec. Babah Rot, Kabupaten Aceh Barat Daya, Aceh 23766";"Ie Merah, Kec. Babah Rot, Kabupaten Aceh Barat Daya";"ACEH";"23766";"Indonesia";" 085391154884";"3.9520352";"96.665453";"https://maps.google.com/?cid=0x0:0xc1f4448659353316"
"cafe";"Toko";"Keudee Maknda";"VP92+F73, Alue Jerjak, Kec. Babah Rot, Kabupaten Aceh Barat Daya, Aceh 23766";"Alue Jerjak, Kec. Babah Rot, Kabupaten Aceh Barat Daya";"ACEH";"23766";"Indonesia";"";"3.8686317";"96.7006855";"https://maps.google.com/?cid=0x0:0x8be7750b2f19a11e"
"cafe";"Sulawesi Selatan";"Cafe Pulau Sepadan";"VPV4+GG2, Pantee Cermin, Kec. Babah Rot, Kabupaten Aceh Barat Daya, Aceh 23766";"Pantee Cermin, Kec. Babah Rot, Kabupaten Aceh Barat Daya";"ACEH";"23766";"Indonesia";"";"3.8937663";"96.7062577";"https://maps.google.com/?cid=0x0:0x4a45e03dbc9d876b"
"cafe";"Kafe";"Warung Putri";"WMVF+48G, Jl. Meulaboh - Tapaktuan, Ie Merah, Kec. Babah Rot, Kabupaten Aceh Barat Daya, Aceh 23766";"Jl. Meulaboh - Tapaktuan, Ie Merah, Kec. Babah Rot, Kabupaten Aceh Barat Daya";"ACEH";"23766";"Indonesia";" 082364237266";"3.942804";"96.673329";"https://maps.google.com/?cid=0x0:0x7f02aa7f46b77a46"
"cafe";"Kedai Kopi";"THE GIBRAN";"VMRV+968, Pantee Cermin, Kec. Babah Rot, Kabupaten Aceh Barat Daya, Aceh 23766";"Pantee Cermin, Kec. Babah Rot, Kabupaten Aceh Barat Daya";"ACEH";"23766";"Indonesia";" 085373169037";"3.890903";"96.6930797";"https://maps.google.com/?cid=0x0:0xee9c75b4cecb3f92"
"cafe";"Rumah Makan";"RM Cita Rasa";"WM4W+XC2, Pantee Rakyat, Kec. Babah Rot, Kabupaten Aceh Barat Daya, Aceh 23766";"Pantee Rakyat, Kec. Babah Rot, Kabupaten Aceh Barat Daya";"ACEH";"23766";"Indonesia";" 085276588616";"3.9073795";"96.6960241";"https://maps.google.com/?cid=0x0:0xc7f29ec425cb0725"
"cafe";"Kedai Kopi";"Sa Boba";"VJ84+32V, Gn. Samarinda, Kec. Babah Rot, Kabupaten Aceh Barat Daya, Aceh";"Kabupaten Aceh Barat Daya, Aceh";"ACEH";"";"Indonesia";"";"3.8652408";"96.6050368";"https://maps.google.com/?cid=0x0:0xbea77955345ba7f4"
"cafe";"Restoran";"Susan Setia Kafe";"MVXH+7R4, Lhang, Kec. Setia, Kabupaten Aceh Barat Daya, Aceh 23763";"Lhang, Kec. Setia, Kabupaten Aceh Barat Daya";"ACEH";"23763";"Indonesia";"";"3.6981337";"96.8795674";"https://maps.google.com/?cid=0x0:0xfb8f6aaa35ac3fb8"
"cafe";"cafe";"Kec. Setia";"Kabupaten Aceh Barat Daya, Aceh";"Kabupaten Aceh Barat Daya, Aceh";"ACEH";"";"Indonesia";"";"3.7078495";"96.8719767";"https://maps.google.com/?cid=0x0:0x34a354e1c2218e5f"
"cafe";"Kedai Kopi";"Warung Kopi Bang Abbas";"PV69+3QX, Pisang, Kec. Setia, Kabupaten Aceh Barat Daya, Aceh 23763";"Pisang, Kec. Setia, Kabupaten Aceh Barat Daya";"ACEH";"23763";"Indonesia";" 082211259015";"3.710239";"96.8694716";"https://maps.google.com/?cid=0x0:0xe14156c39ab5cdb2"
"cafe";"Kedai Kopi";"Warong Jasa Sahabat | Cekmus";"PV4C+GM4, Unnamed Road, Rambong, Kec. Setia, Kabupaten Aceh Barat Daya, Aceh 23763";"Unnamed Road, Rambong, Kec. Setia, Kabupaten Aceh Barat Daya";"ACEH";"23763";"Indonesia";" 082378522526";"3.7062588";"96.8717063";"https://maps.google.com/?cid=0x0:0x1247daf2c59bd88b"
"cafe";"Kedai Kopi";"WARKOP";"MVXH+7G5, Lhang, Kec. Setia, Kabupaten Aceh Barat Daya, Aceh 23763";"Lhang, Kec. Setia, Kabupaten Aceh Barat Daya";"ACEH";"23763";"Indonesia";"";"3.6981489";"96.878868";"https://maps.google.com/?cid=0x0:0x5927bc9a0e117c1b"
"cafe";"Kafe";"Warkop Ayah Usamah";"MVX6+CC6 Pesantren Firar Ilallah, Ujung Tanah, Kec. Setia, Kabupaten Aceh Barat Daya, Aceh 23763";"Ujung Tanah, Kec. Setia, Kabupaten Aceh Barat Daya";"ACEH";"23763";"Indonesia";" 081260741905";"3.6985253";"96.8610262";"https://maps.google.com/?cid=0x0:0xaefeccdfceac0778"
"cafe";"Mi";"Warung Yasir";"PV24+VJ9, Alue Dama, Kec. Setia, Kabupaten Aceh Barat Daya, Aceh 23763";"Alue Dama, Kec. Setia, Kabupaten Aceh Barat Daya";"ACEH";"23763";"Indonesia";"";"3.7027679";"96.8576548";"https://maps.google.com/?cid=0x0:0x6c9b0a10bc0f58e8"
"cafe";"Kedai Kopi";"Kantin ba edi";"PV39+6F, Ujung Tanah, Kec. Setia, Kabupaten Aceh Barat Daya, Aceh";"Kabupaten Aceh Barat Daya, Aceh";"ACEH";"";"Indonesia";"";"3.7030722";"96.8686948";"https://maps.google.com/?cid=0x0:0x6e9922fffc5701c1"
"cafe";"Kedai Kopi";"Warung Poeneuh";"PV4C+MXG, Rambong, Kec. Setia, Kabupaten Aceh Barat Daya, Aceh 23763";"Rambong, Kec. Setia, Kabupaten Aceh Barat Daya";"ACEH";"23763";"Indonesia";" 085270795780";"3.7066788";"96.872459";"https://maps.google.com/?cid=0x0:0x77fa45a21ac8c6d8"
"cafe";"Kedai Kopi";"Nongkrong Coffee";"Kedai Siblah, Kecamaten Blang Pidie, Kabupaten Aceh Barat Daya, Aceh 23763";"Kecamaten Blang Pidie, Kabupaten Aceh Barat Daya";"ACEH";"23763";"Indonesia";" 082277903321";"3.7413128";"96.8329362";"https://maps.google.com/?cid=0x0:0x252c87f138895d56"
"cafe";"Kafe";"ZAYN CAFE";"PVG2+RQ9, Jl. Iskandar Muda, Baharu, Kecamaten Blang Pidie, Kabupaten Aceh Barat Daya, Aceh 23763";"Jl. Iskandar Muda, Baharu, Kecamaten Blang Pidie, Kabupaten Aceh Barat Daya";"ACEH";"23763";"Indonesia";" 08216666827";"3.7270493";"96.8519932";"https://maps.google.com/?cid=0x0:0xff5e20806255a91c"
"cafe";"Kafe";"Warkop Mia Simpang 3";"PV4C+CXM, rambong, suak, Kec. Setia, Kabupaten Aceh Barat Daya, Aceh 23763";"rambong, suak, Kec. Setia, Kabupaten Aceh Barat Daya";"ACEH";"23763";"Indonesia";" 082360730005";"3.7060751";"96.8724105";"https://maps.google.com/?cid=0x0:0x9978609fbbb374f8"
"cafe";"Kafe";"TAUFIK KOPI ABDYA";"Jl.Letkol BB Djalal, Padang Hilir, Susoh, Kabupaten Aceh Barat Daya, Aceh 23763";"Padang Hilir, Susoh, Kabupaten Aceh Barat Daya";"ACEH";"23763";"Indonesia";" 082229312960";"3.7305301";"96.8261881";"https://maps.google.com/?cid=0x0:0xc7f6c37967e1f6d4"
"cafe";"Rumah Makan";"Cafe Pantai Bali";"PR5J+PP9, Ladang, Susoh, Kabupaten Aceh Barat Daya, Aceh 23763";"Ladang, Susoh, Kabupaten Aceh Barat Daya";"ACEH";"23763";"Indonesia";"";"3.7092851";"96.831869";"https://maps.google.com/?cid=0x0:0x4d3eb0316f89cc30"
"cafe";"Brunch";"Kafe Wak Joel Jeumpa";"MW65+H4P, ds padang bak jeumpa tangan2 abdya, Padang Bak Jeumpa, Kec. Tangan-Tangan, Kabupaten Aceh Barat Daya, Aceh 23762";"ds padang bak jeumpa tangan2 abdya, Padang Bak Jeumpa, Kec. Tangan-Tangan, Kabupaten Aceh Barat Daya";"ACEH";"23762";"Indonesia";"";"3.661749";"96.9077749";"https://maps.google.com/?cid=0x0:0xaca4b7e0c659fe65"
"cafe";"Kafe";"Jeumpa Caffe";"62X8+FGW, Jl. Medan Banda Aceh, Kp. Jumpa, Kec. Glumpang Tiga, Kabupaten Pidie, Aceh 24161";"Jl. Medan Banda Aceh, Kp. Jumpa, Kec. Glumpang Tiga, Kabupaten Pidie";"ACEH";"24161";"Indonesia";"";"5.2487427";"96.0163191";"https://maps.google.com/?cid=0x0:0xe02654507e302c76"
"cafe";"cafe";"Aceh 23764";"Kabupaten Aceh Barat Daya, Aceh";"Kabupaten Aceh Barat Daya, Aceh";"ACEH";"";"Indonesia";"";"3.8585335";"96.8136642";"https://maps.google.com/?cid=0x0:0xffecff8e1cb94052"
"cafe";"cafe";"Jeumpa Coffee";"JRPX+JHF, Nunang Antara, Kec. Bebesen, Kabupaten Aceh Tengah, Aceh 24519";"Nunang Antara, Kec. Bebesen, Kabupaten Aceh Tengah";"ACEH";"24519";"Indonesia";" 082360876364";"4.6365671";"96.8489171";"https://maps.google.com/?cid=0x0:0xb638ed6766fe6a3a"
"cafe";"Restoran";"LA CAFE";"QR99+JX2, Jl. Meulaboh - Tapaktuan, Kuta Jeumpa, Kec. Jeumpa, Kabupaten Aceh Barat Daya, Aceh 23764";"Jl. Meulaboh - Tapaktuan, Kuta Jeumpa, Kec. Jeumpa, Kabupaten Aceh Barat Daya";"ACEH";"23764";"Indonesia";"";"3.7690243";"96.8198916";"https://maps.google.com/?cid=0x0:0xba56f96630cca951"
"cafe";"Kafe";"Warkop Cyber Jaya";"Jl. Meulaboh - Tapaktuan KM.5, Alue Sungai Pinang, Kec. Jeumpa, Kabupaten Aceh Barat Daya, Aceh 23764";"Alue Sungai Pinang, Kec. Jeumpa, Kabupaten Aceh Barat Daya";"ACEH";"23764";"Indonesia";" 085360009498";"3.7770911";"96.8137571";"https://maps.google.com/?cid=0x0:0x2d5f0dd87a39450e"
"cafe";"Kafe";"Mie Kocok Jeumpa";"QR8C+W68, Kuta Jeumpa, Kec. Jeumpa, Kabupaten Aceh Barat Daya, Aceh 23764";"Kuta Jeumpa, Kec. Jeumpa, Kabupaten Aceh Barat Daya";"ACEH";"23764";"Indonesia";"";"3.7672889";"96.8205904";"https://maps.google.com/?cid=0x0:0x71cb3665426fabce"
"cafe";"Kafe";"All day drink and food";"Aso Nanggro, Kec. Jeumpa, Kabupaten Aceh Barat Daya, Aceh 23769";"Kec. Jeumpa, Kabupaten Aceh Barat Daya";"ACEH";"23769";"Indonesia";" 085337322409";"3.749218";"96.813131";"https://maps.google.com/?cid=0x0:0x3ea6845742085772"
"cafe";"Makanan Kecil";"Warung ALEM";"QR8C+QC9, Jl. Meulaboh - Tapaktuan, Kuta Jeumpa, Kec. Jeumpa, Kabupaten Aceh Barat Daya, Aceh 23764";"Jl. Meulaboh - Tapaktuan, Kuta Jeumpa, Kec. Jeumpa, Kabupaten Aceh Barat Daya";"ACEH";"23764";"Indonesia";"";"3.7669073";"96.8211019";"https://maps.google.com/?cid=0x0:0x23152056f38959d8"
"cafe";"Kafe";"Bundo Kanduang Coffe";"QRG8+CPP, Jl. Meulaboh - Tapaktuan, Alue Sungai Pinang, Kec. Jeumpa, Kabupaten Aceh Barat Daya, Aceh 23764";"Jl. Meulaboh - Tapaktuan, Alue Sungai Pinang, Kec. Jeumpa, Kabupaten Aceh Barat Daya";"ACEH";"23764";"Indonesia";" 085260284711";"3.7760752";"96.8168131";"https://maps.google.com/?cid=0x0:0xf202f43fa0459b8f"
"cafe";"Kafe";"Warkop Mak Woe";"QRHC+P2X, Alue Seulaseh, Kec. Jeumpa, Kabupaten Aceh Barat Daya, Aceh 23764";"Alue Seulaseh, Kec. Jeumpa, Kabupaten Aceh Barat Daya";"ACEH";"23764";"Indonesia";"";"3.7793748";"96.8201138";"https://maps.google.com/?cid=0x0:0x20c8aa7009bdca2a"
"cafe";"Minimarket";"Keude Kak Wi";"Ladang Neubok, Kec. Jeumpa, Kabupaten Aceh Barat Daya, Aceh 23765";"Kec. Jeumpa, Kabupaten Aceh Barat Daya";"ACEH";"23765";"Indonesia";" 085161155088";"3.7518653";"96.8225886";"https://maps.google.com/?cid=0x0:0xdff9140dc12d177e"
"cafe";"Kafe";"Warong Mie  Kopi Kak Haf";"QR22+GWM, Kuta Makmur, Kec. Jeumpa, Kabupaten Aceh Barat Daya, Aceh 23765";"Kuta Makmur, Kec. Jeumpa, Kabupaten Aceh Barat Daya";"ACEH";"23765";"Indonesia";"";"3.7513304";"96.8023109";"https://maps.google.com/?cid=0x0:0xb4fa2f9a737a42de"
"cafe";"Pembangunan Perumahan";"Rumah Nova Sri Rahayu Sunov";"QRF9+FMP, Jl. Meulaboh - Tapaktuan, Alue Sungai Pinang, Kec. Jeumpa, Kabupaten Aceh Barat Daya, Aceh 23764";"Jl. Meulaboh - Tapaktuan, Alue Sungai Pinang, Kec. Jeumpa, Kabupaten Aceh Barat Daya";"ACEH";"23764";"Indonesia";"";"3.7737202";"96.8192073";"https://maps.google.com/?cid=0x0:0x7fa6c8cb607f6b58"
"cafe";"Kedai Kopi";"Waroeng Kupi Nanggroe Jeumpa";"6M49+97M, Geulumpang Payong, Kec. Jeumpa, Kabupaten Bireuen, Aceh";"Kabupaten Bireuen, Aceh";"ACEH";"";"Indonesia";" 085260586958";"5.2059604";"96.6681812";"https://maps.google.com/?cid=0x0:0x487cb316080bda35"
"cafe";"cafe";"Aceh 24251";"Kabupaten Bireuen, Aceh";"Kabupaten Bireuen, Aceh";"ACEH";"";"Indonesia";"";"5.0881574";"96.642433";"https://maps.google.com/?cid=0x0:0x2d3a8ff5c08e4a15"
"cafe";"Kafe";"WARKOP TITIK TEMU";"Blang Cot Baroh, Kec. Jeumpa, Kabupaten Bireuen, Aceh 24251";"Kec. Jeumpa, Kabupaten Bireuen";"ACEH";"24251";"Indonesia";"";"5.2053939";"96.6746205";"https://maps.google.com/?cid=0x0:0xf0f9c64b88a4e5b1"
"cafe";"Kedai Kopi";"RAINBOW SHARED ENERGY JK COFFEE  ROASTERY";"Jln. Medan-B.Aceh Km, 216, Cot Tarom Tunong, Kec. Jeumpa, Kabupaten Bireuen, Aceh";"Kabupaten Bireuen, Aceh";"ACEH";"";"Indonesia";" 085167981668";"5.2037675";"96.6847119";"https://maps.google.com/?cid=0x0:0x755ecddc21f0a71"
"cafe";"Kafe";"Warkop Beng Siri";"Jl. Medan - Banda Aceh, Geulumpang Payong, Kec. Jeumpa, Kabupaten Bireuen, Aceh";"Kabupaten Bireuen, Aceh";"ACEH";"";"Indonesia";"";"5.2060439";"96.6707164";"https://maps.google.com/?cid=0x0:0xba5a71a22ca067be"
"cafe";"Kedai Kopi";"Havana Garden Coffee";"Jalan Damai, Dusun Komes, Pulo Ara Geudong Teungoh, Kec. Kota Juang, Kabupaten Bireuen, Aceh 24251";"Dusun Komes, Pulo Ara Geudong Teungoh, Kec. Kota Juang, Kabupaten Bireuen";"ACEH";"24251";"Indonesia";"";"5.1974778";"96.7036291";"https://maps.google.com/?cid=0x0:0xb403dc8d406b3998"
"cafe";"Kedai Kopi";"Jem,s Cofee";"6M47+M8J, Blang Bladeh, Kec. Jeumpa, Kabupaten Bireuen, Aceh";"Kabupaten Bireuen, Aceh";"ACEH";"";"Indonesia";" 081360500570";"5.2067007";"96.6632667";"https://maps.google.com/?cid=0x0:0x579e2b16f0fc4447"
"cafe";"Kafe";"Titik Kumpul Cafe Bireuen";"6M3Q+44F, Bireun Meunasah Blang, Kec. Kota Juang, Kabupaten Bireuen, Aceh 24251";"Bireun Meunasah Blang, Kec. Kota Juang, Kabupaten Bireuen";"ACEH";"24251";"Indonesia";"";"5.2029267";"96.6881344";"https://maps.google.com/?cid=0x0:0x942fb5805ba152a"
"cafe";"Kafe";"WARDI KIOS";"Unnamed Road, Blang Gandai, Jeumpa, Bireuen Regency, Aceh 24251";"Blang Gandai, Jeumpa, Bireuen Regency";"ACEH";"24251";"Indonesia";" 081377019565";"5.182623";"96.6603811";"https://maps.google.com/?cid=0x0:0x857a3b84d8d04e3f"
"cafe";"Kedai Kopi";"WARISAN Coffee";"6M5F+GQP, Blang Cot Baroh, Kec. Jeumpa, Kabupaten Bireuen, Aceh";"Kabupaten Bireuen, Aceh";"ACEH";"";"Indonesia";"";"5.208833";"96.6744684";"https://maps.google.com/?cid=0x0:0x80afce4f040198ae"
"cafe";"Kedai Kopi";"Indaco Roastery";"Jl. Medan - Banda Aceh No.Desa, Geulumpang Payong, Kec. Jeumpa, Kabupaten Bireuen, Aceh 24251";"Geulumpang Payong, Kec. Jeumpa, Kabupaten Bireuen";"ACEH";"24251";"Indonesia";" 08116705040";"5.2059381";"96.6698081";"https://maps.google.com/?cid=0x0:0xe25d2dab4c503e66"
"cafe";"Kedai Kopi";"Warkop REN'S KUPIE";"Jl. Utama, Alue Limeng, Kec. Jeumpa, Kabupaten Bireuen, Aceh 24251";"Alue Limeng, Kec. Jeumpa, Kabupaten Bireuen";"ACEH";"24251";"Indonesia";" 082240835808";"5.1092143";"96.6512743";"https://maps.google.com/?cid=0x0:0xa55073958e538042"
"cafe";"Kafe";"Beng kupi Raja jeumpa";"6P47+FV6, Geulanggang Teungoh, Kec. Kota Juang, Kabupaten Bireuen, Aceh 24261";"Geulanggang Teungoh, Kec. Kota Juang, Kabupaten Bireuen";"ACEH";"24261";"Indonesia";"";"5.2061744";"96.7146408";"https://maps.google.com/?cid=0x0:0xa5cca2d1690fb532"
"cafe";"Warnet";"Rafa.net";"5JPW+CFF, Abeuk Usong, Kec. Jeumpa, Kabupaten Bireuen, Aceh 24251";"Abeuk Usong, Kec. Jeumpa, Kabupaten Bireuen";"ACEH";"24251";"Indonesia";"";"5.1860603";"96.6461726";"https://maps.google.com/?cid=0x0:0xda3eedf2999e848e"
"cafe";"Kedai Kopi";"Warung Zakia";"JW5V+VQ8, Cot Bak-U, Kec. Lembah Sabil, Kabupaten Aceh Barat Daya, Aceh 23762";"Cot Bak-U, Kec. Lembah Sabil, Kabupaten Aceh Barat Daya";"ACEH";"23762";"Indonesia";" 082366940672";"3.6096529";"96.9444641";"https://maps.google.com/?cid=0x0:0xf18f0a7edb34a5a"
"cafe";"cafe";"Kec. Lembah Sabil";"Kabupaten Aceh Barat Daya, Aceh";"Kabupaten Aceh Barat Daya, Aceh";"ACEH";"";"Indonesia";"";"3.589112";"96.9343064";"https://maps.google.com/?cid=0x0:0x47f212bb54114078"
"cafe";"Kedai Kopi";"Diamond Caffe";"JX35+J9M, Jl. Puskiye, Kaye Aceh, Kec. Lembah Sabil, Kabupaten Aceh Barat Daya, Aceh 23762";"Jl. Puskiye, Kaye Aceh, Kec. Lembah Sabil, Kabupaten Aceh Barat Daya";"ACEH";"23762";"Indonesia";" 082360167874";"3.6040976";"96.9584363";"https://maps.google.com/?cid=0x0:0xfe7097273594bc04"
"cafe";"Kafe";"Jasa Rimba";"JX55+8RF, Meunasah Sukon, Kec. Lembah Sabil, Kabupaten Aceh Barat Daya, Aceh 23762";"Meunasah Sukon, Kec. Lembah Sabil, Kabupaten Aceh Barat Daya";"ACEH";"23762";"Indonesia";" 082211397103";"3.6083228";"96.9595334";"https://maps.google.com/?cid=0x0:0x4f88336013fe0e9"
"cafe";"Kedai Kopi";"Donya Kupi";"JW7R+5VX, Meurandeh, Kec. Lembah Sabil, Kabupaten Aceh Barat Daya, Aceh";"Kabupaten Aceh Barat Daya, Aceh";"ACEH";"";"Indonesia";"";"3.6129816";"96.9422369";"https://maps.google.com/?cid=0x0:0x66bfe21bcce20229"
"cafe";"Restoran";"Waroeng Kak Nong";"JW6V+W3G, Meurandeh, Kec. Lembah Sabil, Kabupaten Aceh Barat Daya, Aceh 23762";"Meurandeh, Kec. Lembah Sabil, Kabupaten Aceh Barat Daya";"ACEH";"23762";"Indonesia";"";"3.6123143";"96.9427039";"https://maps.google.com/?cid=0x0:0x13816bfded642b15"
"cafe";"Toko";"Keude Fajri";"HWPJ+GFP, Jl. Darul Ibadah, Ladang Tuha I, Kec. Lembah Sabil, Kabupaten Aceh Barat Daya, Aceh 23762";"Jl. Darul Ibadah, Ladang Tuha I, Kec. Lembah Sabil, Kabupaten Aceh Barat Daya";"ACEH";"23762";"Indonesia";"";"3.5863451";"96.9311972";"https://maps.google.com/?cid=0x0:0x9fc169e50da7d712"
"cafe";"cafe";"N/A";"";"";"ACEH";"";"Indonesia";"";"";"";"https://maps.google.com/?cid=0x0:0x15e965cfe4de458c"
"cafe";"Kedai Kopi";"ATG Coffe";"Jl. Guru Cheh beh, Alue Trienggadeng, Kec. Lembah Sabil, Kabupaten Aceh Barat Daya, Aceh 23762";"Alue Trienggadeng, Kec. Lembah Sabil, Kabupaten Aceh Barat Daya";"ACEH";"23762";"Indonesia";" 082277156963";"3.6097618";"96.9607157";"https://maps.google.com/?cid=0x0:0xbb0db88c1ae3be8b"
"cafe";"Kedai Kopi";"WARUNG BAKA";"JW6V+JCJ, Jl. Meulaboh - Tapaktuan, Cot Bak-U, Kec. Lembah Sabil, Kabupaten Aceh Barat Daya, Aceh 23762";"Jl. Meulaboh - Tapaktuan, Cot Bak-U, Kec. Lembah Sabil, Kabupaten Aceh Barat Daya";"ACEH";"23762";"Indonesia";" 082166742200";"3.6116";"96.9435297";"https://maps.google.com/?cid=0x0:0x1ce07ae1858aea49"
"cafe";"Kedai Kopi";"A.Y Kupi";"Jl. Meulaboh - Tapaktuan Blangpidie No.51, Paya, Kec. Manggeng, Kabupaten Aceh Barat Daya, Aceh 23762";"Paya, Kec. Manggeng, Kabupaten Aceh Barat Daya";"ACEH";"23762";"Indonesia";"";"3.6179552";"96.9336086";"https://maps.google.com/?cid=0x0:0x419cf466723e1910"
"cafe";"Kedai Kopi";"M. Noer Caffe";"JX45+7MP, Dusun krueng baru, Desa Kaye aceh, Meunasah Sukon, Kec. Lembah Sabil, Kabupaten Aceh Barat Daya, Aceh 23762";"Dusun krueng baru, Desa Kaye aceh, Meunasah Sukon, Kec. Lembah Sabil, Kabupaten Aceh Barat Daya";"ACEH";"23762";"Indonesia";"";"3.6057101";"96.9592122";"https://maps.google.com/?cid=0x0:0x7076e220e820e832"
"cafe";"Kedai Kopi";"Waroeng Kembar";"JW7R+2WW, Jl. Meulaboh - Tapaktuan, Meurandeh, Kec. Lembah Sabil, Kabupaten Aceh Barat Daya, Aceh 23762";"Jl. Meulaboh - Tapaktuan, Meurandeh, Kec. Lembah Sabil, Kabupaten Aceh Barat Daya";"ACEH";"23762";"Indonesia";" 081263157706";"3.6126233";"96.9423271";"https://maps.google.com/?cid=0x0:0x667233fabab6d8f9"
"cafe";"Masakan Asia Tenggara";"Warung Kanasa";"JW7R+J9R, Meurandeh, Kec. Lembah Sabil, Kabupaten Aceh Barat Daya, Aceh 23762";"Meurandeh, Kec. Lembah Sabil, Kabupaten Aceh Barat Daya";"ACEH";"23762";"Indonesia";" 081260913084";"3.6141152";"96.940883";"https://maps.google.com/?cid=0x0:0xa15346733f63bf68"
