Category;Real Category;Business Name;Address;City;State;Postal Code;Country;Phone;Latitude;Longitude;Map Link
"toko bangunan";"toko bangunan";"Aceh 23764";"Kabupaten Aceh Barat Daya, Aceh";"Kabupaten Aceh Barat Daya, Aceh";"ACEH";"";"Indonesia";"";"3.8585335";"96.8136642";"https://maps.google.com/?cid=0x0:0xffecff8e1cb94052"
"toko bangunan";"Pemasok Bahan Bangunan";"Sagoe collection";"PRQM+73V, Jl. Selamat, Ps. Blang Pidie, Kecamaten Blang Pidie, Kabupaten Aceh Barat Daya, Aceh 23763";"Jl. Selamat, Ps. Blang Pidie, Kecamaten Blang Pidie, Kabupaten Aceh Barat Daya";"ACEH";"23763";"Indonesia";"";"3.7382269";"96.8326832";"https://maps.google.com/?cid=0x0:0xf0079a9d432fdfc8"
"toko bangunan";"Toko Bahan Bangunan";"Toko Jasa Misbah";"Jl. H Ilyas Blang Pidie No.19, Mata Ie, Kecamaten Blang Pidie, Kabupaten Aceh Barat Daya, Aceh 23763";"Mata Ie, Kecamaten Blang Pidie, Kabupaten Aceh Barat Daya";"ACEH";"23763";"Indonesia";" 085260120698";"3.7399016";"96.833596";"https://maps.google.com/?cid=0x0:0x858e03396076ece7"
"toko bangunan";"Toko";"Toko Sinar Mulia";"PRQM+QJJ, Jl. H Ilyas Blang Pidie, Meudang Ara, Kecamaten Blang Pidie, Kabupaten Aceh Barat Daya, Aceh 23763";"Jl. H Ilyas Blang Pidie, Meudang Ara, Kecamaten Blang Pidie, Kabupaten Aceh Barat Daya";"ACEH";"23763";"Indonesia";" 085277334308";"3.7394531";"96.8340064";"https://maps.google.com/?cid=0x0:0x590cc39c23d8e103"
"toko bangunan";"Toko Bahan Bangunan";"toko bahan bangunan her";"RQ97+4G3, Blang Makmur, Kec. Kuala Batee, Kabupaten Aceh Barat Daya, Aceh 23764";"Blang Makmur, Kec. Kuala Batee, Kabupaten Aceh Barat Daya";"ACEH";"23764";"Indonesia";"";"3.8177648";"96.763799";"https://maps.google.com/?cid=0x0:0x1d4451bcc2d5b818"
"toko bangunan";"Toko Bahan Bangunan";"Toko Sinar Waja";"Jl. H Ilyas Blang Pidie No.53, Meudang Ara, Kecamaten Blang Pidie, Kabupaten Aceh Barat Daya, Aceh 23763";"Meudang Ara, Kecamaten Blang Pidie, Kabupaten Aceh Barat Daya";"ACEH";"23763";"Indonesia";"";"3.7398443";"96.834204";"https://maps.google.com/?cid=0x0:0x8ccb7ee6a1bf4e4"
"toko bangunan";"Toko";"Toko Helindo Abadi";"Alue Sungai Pinang, Kec. Jeumpa, Kabupaten Aceh Barat Daya, Aceh 23764";"Kec. Jeumpa, Kabupaten Aceh Barat Daya";"ACEH";"23764";"Indonesia";"";"3.7760506";"96.8178029";"https://maps.google.com/?cid=0x0:0x36da571bc959c426"
"toko bangunan";"Toko Bahan Bangunan";"Karunia Bangunan. UD";"Jl. Pendidikan No.38, Mata Ie, Kecamaten Blang Pidie, Kabupaten Aceh Barat Daya, Aceh 23763";"Mata Ie, Kecamaten Blang Pidie, Kabupaten Aceh Barat Daya";"ACEH";"23763";"Indonesia";" 085277983221";"3.7398856";"96.8350671";"https://maps.google.com/?cid=0x0:0x9975a849799b93ce"
"toko bangunan";"Toko Bahan Bangunan";"TOKO SUBUR INDAH";"Jl. H Ilyas Blang Pidie No.73, Mata Ie, Kecamaten Blang Pidie, Kabupaten Aceh Barat Daya, Aceh 23763";"Mata Ie, Kecamaten Blang Pidie, Kabupaten Aceh Barat Daya";"ACEH";"23763";"Indonesia";" 085260705367";"3.7397177";"96.8347914";"https://maps.google.com/?cid=0x0:0xc8d372c602acb872"
"toko bangunan";"Toko Bahan Bangunan";"Toko Alat Bangunan Rahmat Sarmita....";"PV3F+QQH, Lhang, Kec. Setia, Kabupaten Aceh Barat Daya, Aceh 23763";"Lhang, Kec. Setia, Kabupaten Aceh Barat Daya";"ACEH";"23763";"Indonesia";"";"3.7044338";"96.8744735";"https://maps.google.com/?cid=0x0:0xee8d92986ba7b7e3"
"toko bangunan";"Masjid";"Toko Kedai Paya Bangunan";"Jl. Iskandar Muda Dusun Suka Damai, Kedai Paya, Kecamaten Blang Pidie, Kabupaten Aceh Barat Daya, Aceh 23764";"Kedai Paya, Kecamaten Blang Pidie, Kabupaten Aceh Barat Daya";"ACEH";"23764";"Indonesia";" 081331780732";"3.7285614";"96.8506411";"https://maps.google.com/?cid=0x0:0x77733276fc35c791"
"toko bangunan";"Toko Bahan Bangunan";"UD. PRATAMA BANGUNAN";"Jl. Lintas Barat Sumatera, Padang Sikabu, Kec. Kuala Batee, Kabupaten Aceh Barat Daya, Aceh 23766";"Padang Sikabu, Kec. Kuala Batee, Kabupaten Aceh Barat Daya";"ACEH";"23766";"Indonesia";"";"3.7950567";"96.7846455";"https://maps.google.com/?cid=0x0:0x814ce770be8d0537"
"toko bangunan";"Toko Bahan Bangunan";"TOKO CAT CAHAYA WARNA";"Jl. Iskandar Muda, Geulumpang Payong, Kecamaten Blang Pidie, Kabupaten Aceh Barat Daya, Aceh 23763";"Geulumpang Payong, Kecamaten Blang Pidie, Kabupaten Aceh Barat Daya";"ACEH";"23763";"Indonesia";" 085276109976";"3.7397295";"96.8398145";"https://maps.google.com/?cid=0x0:0x9432f4a79ea8ce4a"
"toko bangunan";"Toko Bahan Bangunan";"Bintang jaya keramik";"PRPV+2W2, Geulumpang Payong, Kecamaten Blang Pidie, Kabupaten Aceh Barat Daya, Aceh 23763";"Geulumpang Payong, Kecamaten Blang Pidie, Kabupaten Aceh Barat Daya";"ACEH";"23763";"Indonesia";"";"3.7350008";"96.8447778";"https://maps.google.com/?cid=0x0:0x5bf6893b15f31775"
"toko bangunan";"toko bangunan";"Aceh 23763";"Hutan Blangpidie, Kecamaten Blang Pidie, Kabupaten Aceh Barat Daya, Aceh";"Kabupaten Aceh Barat Daya, Aceh";"ACEH";"";"Indonesia";"";"3.8370991";"96.9638624";"https://maps.google.com/?cid=0x0:0xcddc5be33e66fecd"
"toko bangunan";"Toko";"Toko Helindo Abadi";"Alue Sungai Pinang, Kec. Jeumpa, Kabupaten Aceh Barat Daya, Aceh 23764";"Kec. Jeumpa, Kabupaten Aceh Barat Daya";"ACEH";"23764";"Indonesia";"";"3.7760506";"96.8178029";"https://maps.google.com/?cid=0x0:0x36da571bc959c426"
"toko bangunan";"Toko Bahan Bangunan";"Toko Jasa Misbah";"Jl. H Ilyas Blang Pidie No.19, Mata Ie, Kecamaten Blang Pidie, Kabupaten Aceh Barat Daya, Aceh 23763";"Mata Ie, Kecamaten Blang Pidie, Kabupaten Aceh Barat Daya";"ACEH";"23763";"Indonesia";" 085260120698";"3.7399016";"96.833596";"https://maps.google.com/?cid=0x0:0x858e03396076ece7"
"toko bangunan";"Pemasok Bahan Bangunan";"Sagoe collection";"PRQM+73V, Jl. Selamat, Ps. Blang Pidie, Kecamaten Blang Pidie, Kabupaten Aceh Barat Daya, Aceh 23763";"Jl. Selamat, Ps. Blang Pidie, Kecamaten Blang Pidie, Kabupaten Aceh Barat Daya";"ACEH";"23763";"Indonesia";"";"3.7382269";"96.8326832";"https://maps.google.com/?cid=0x0:0xf0079a9d432fdfc8"
"toko bangunan";"Toko Bahan Bangunan";"Toko Alat Bangunan Rahmat Sarmita....";"PV3F+QQH, Lhang, Kec. Setia, Kabupaten Aceh Barat Daya, Aceh 23763";"Lhang, Kec. Setia, Kabupaten Aceh Barat Daya";"ACEH";"23763";"Indonesia";"";"3.7044338";"96.8744735";"https://maps.google.com/?cid=0x0:0xee8d92986ba7b7e3"
"toko bangunan";"Toko";"Toko Sinar Mulia";"PRQM+QJJ, Jl. H Ilyas Blang Pidie, Meudang Ara, Kecamaten Blang Pidie, Kabupaten Aceh Barat Daya, Aceh 23763";"Jl. H Ilyas Blang Pidie, Meudang Ara, Kecamaten Blang Pidie, Kabupaten Aceh Barat Daya";"ACEH";"23763";"Indonesia";" 085277334308";"3.7394531";"96.8340064";"https://maps.google.com/?cid=0x0:0x590cc39c23d8e103"
"toko bangunan";"Toko Bahan Bangunan";"Toko Sinar Waja";"Jl. H Ilyas Blang Pidie No.53, Meudang Ara, Kecamaten Blang Pidie, Kabupaten Aceh Barat Daya, Aceh 23763";"Meudang Ara, Kecamaten Blang Pidie, Kabupaten Aceh Barat Daya";"ACEH";"23763";"Indonesia";"";"3.7398443";"96.834204";"https://maps.google.com/?cid=0x0:0x8ccb7ee6a1bf4e4"
"toko bangunan";"Toko Bahan Bangunan";"UD. Sahabat Baru";"MW37+6FQ, Jl. Meulaboh - Tapaktuan, Adan, Kec. Tangan-Tangan, Kabupaten Aceh Barat Daya, Aceh 23762";"Jl. Meulaboh - Tapaktuan, Adan, Kec. Tangan-Tangan, Kabupaten Aceh Barat Daya";"ACEH";"23762";"Indonesia";" 085371796815";"3.6530769";"96.9137289";"https://maps.google.com/?cid=0x0:0x4e92bd9df5ae9851"
"toko bangunan";"Toko Bahan Bangunan";"Sebab Jasa";"Jl. H. Ilyas No.2, Meudang Ara, Kecamaten Blang Pidie, Kabupaten Aceh Barat Daya, Aceh 23764";"Meudang Ara, Kecamaten Blang Pidie, Kabupaten Aceh Barat Daya";"ACEH";"23764";"Indonesia";" 085260673028";"3.7397521";"96.8336861";"https://maps.google.com/?cid=0x0:0xdb22429a34ca01f0"
"toko bangunan";"Masjid";"Toko Kedai Paya Bangunan";"Jl. Iskandar Muda Dusun Suka Damai, Kedai Paya, Kecamaten Blang Pidie, Kabupaten Aceh Barat Daya, Aceh 23764";"Kedai Paya, Kecamaten Blang Pidie, Kabupaten Aceh Barat Daya";"ACEH";"23764";"Indonesia";" 081331780732";"3.7285614";"96.8506411";"https://maps.google.com/?cid=0x0:0x77733276fc35c791"
"toko bangunan";"Toko Bahan Bangunan";"SEMANGAT BARU";"PRQM+WQF, Meudang Ara, Kecamaten Blang Pidie, Kabupaten Aceh Barat Daya, Aceh 23763";"Meudang Ara, Kecamaten Blang Pidie, Kabupaten Aceh Barat Daya";"ACEH";"23763";"Indonesia";" 085359853850";"3.7398078";"96.8344221";"https://maps.google.com/?cid=0x0:0x7abdf549af83f54d"
"toko bangunan";"Toko Bahan Bangunan";"Karunia Bangunan. UD";"Jl. Pendidikan No.38, Mata Ie, Kecamaten Blang Pidie, Kabupaten Aceh Barat Daya, Aceh 23763";"Mata Ie, Kecamaten Blang Pidie, Kabupaten Aceh Barat Daya";"ACEH";"23763";"Indonesia";" 085277983221";"3.7398856";"96.8350671";"https://maps.google.com/?cid=0x0:0x9975a849799b93ce"
"toko bangunan";"Toko Bahan Bangunan";"Toko Besi Cahaya Mutiara";"PRQP+WW9, Jl. Kesehatan, Kuta Tuha, Kecamaten Blang Pidie, Kabupaten Aceh Barat Daya, Aceh 23763";"Jl. Kesehatan, Kuta Tuha, Kecamaten Blang Pidie, Kabupaten Aceh Barat Daya";"ACEH";"23763";"Indonesia";"";"3.739781";"96.8373588";"https://maps.google.com/?cid=0x0:0x5677b19368d3bf3a"
"toko bangunan";"Toko Bahan Bangunan";"TOKO SUBUR INDAH";"Jl. H Ilyas Blang Pidie No.73, Mata Ie, Kecamaten Blang Pidie, Kabupaten Aceh Barat Daya, Aceh 23763";"Mata Ie, Kecamaten Blang Pidie, Kabupaten Aceh Barat Daya";"ACEH";"23763";"Indonesia";" 085260705367";"3.7397177";"96.8347914";"https://maps.google.com/?cid=0x0:0xc8d372c602acb872"
"toko bangunan";"Toko Bahan Bangunan";"UD.PUTRI ANUGERAH JAYA";"Tengah Peulumat, Kec. Labuhan H. Tim., Kabupaten Aceh Selatan, Aceh";"Kabupaten Aceh Selatan, Aceh";"ACEH";"";"Indonesia";" 085260026719";"3.5030672";"97.0337057";"https://maps.google.com/?cid=0x0:0xd4baf86379a74362"
"toko bangunan";"toko bangunan";"Manggeng";"Blang Manggeng, Kec. Manggeng, Kabupaten Aceh Barat Daya, Aceh";"Kabupaten Aceh Barat Daya, Aceh";"ACEH";"";"Indonesia";"";"3.60821";"96.9188";"https://maps.google.com/?cid=0x0:0x4039d80b220dbb0"
"toko bangunan";"Toko Bahan Bangunan";"UD Mita Usaha";"Jl, Tengah Peulumat, Tapak Tuan, Kabupaten Aceh Selatan, Aceh 23754";"Tengah Peulumat, Tapak Tuan, Kabupaten Aceh Selatan";"ACEH";"23754";"Indonesia";" 085277924711";"3.5052806";"97.0313529";"https://maps.google.com/?cid=0x0:0x52f46386cfbac3e7"
"toko bangunan";"Toko Bahan Bangunan";"Toko Paten Jaya";"JW8Q+384, Jl. Lintas Barat Sumatera, Kedai, Kec. Manggeng, Kabupaten Aceh Barat Daya, Aceh 23762";"Jl. Lintas Barat Sumatera, Kedai, Kec. Manggeng, Kabupaten Aceh Barat Daya";"ACEH";"23762";"Indonesia";"";"3.61514";"96.9383218";"https://maps.google.com/?cid=0x0:0xc5c9be9587ec9515"
"toko bangunan";"Toko Bahan Bangunan";"Toko Cahaya Keluarga";"Paya, Kec. Manggeng, Kabupaten Aceh Barat Daya, Aceh 23294";"Kec. Manggeng, Kabupaten Aceh Barat Daya";"ACEH";"23294";"Indonesia";" 081310808090";"3.6194419";"96.9326756";"https://maps.google.com/?cid=0x0:0xd1f60f0745becfb"
"toko bangunan";"Toko Bahan Bangunan";"Toko Alat Bangunan Rahmat Sarmita....";"PV3F+QQH, Lhang, Kec. Setia, Kabupaten Aceh Barat Daya, Aceh 23763";"Lhang, Kec. Setia, Kabupaten Aceh Barat Daya";"ACEH";"23763";"Indonesia";"";"3.7044338";"96.8744735";"https://maps.google.com/?cid=0x0:0xee8d92986ba7b7e3"
"toko bangunan";"Toko Alat Listrik";"UD Naguna";"JW8P+J94, Kedai, Kec. Manggeng, Kabupaten Aceh Barat Daya, Aceh 23762";"Kedai, Kec. Manggeng, Kabupaten Aceh Barat Daya";"ACEH";"23762";"Indonesia";"";"3.616504";"96.9359438";"https://maps.google.com/?cid=0x0:0xda2286eebf0f7152"
"toko bangunan";"Toko Bahan Bangunan";"UD. Cahaya Amar";"MW27+7H7, Jl. Meulaboh - Tapaktuan, Bineh Krueng, Kec. Tangan-Tangan, Kabupaten Aceh Barat Daya, Aceh 23762";"Jl. Meulaboh - Tapaktuan, Bineh Krueng, Kec. Tangan-Tangan, Kabupaten Aceh Barat Daya";"ACEH";"23762";"Indonesia";" 085260700553";"3.6506605";"96.9139111";"https://maps.google.com/?cid=0x0:0x218625d15ea31a07"
"toko bangunan";"Toko Bahan Bangunan";"Toko Jasa Misbah";"Jl. H Ilyas Blang Pidie No.19, Mata Ie, Kecamaten Blang Pidie, Kabupaten Aceh Barat Daya, Aceh 23763";"Mata Ie, Kecamaten Blang Pidie, Kabupaten Aceh Barat Daya";"ACEH";"23763";"Indonesia";" 085260120698";"3.7399016";"96.833596";"https://maps.google.com/?cid=0x0:0x858e03396076ece7"
"toko bangunan";"Toko Bahan Bangunan";"UD. Sahabat Baru";"MW37+6FQ, Jl. Meulaboh - Tapaktuan, Adan, Kec. Tangan-Tangan, Kabupaten Aceh Barat Daya, Aceh 23762";"Jl. Meulaboh - Tapaktuan, Adan, Kec. Tangan-Tangan, Kabupaten Aceh Barat Daya";"ACEH";"23762";"Indonesia";" 085371796815";"3.6530769";"96.9137289";"https://maps.google.com/?cid=0x0:0x4e92bd9df5ae9851"
"toko bangunan";"Toko Bahan Bangunan";"Toko Alat Bangunan Rahmat Sarmita....";"PV3F+QQH, Lhang, Kec. Setia, Kabupaten Aceh Barat Daya, Aceh 23763";"Lhang, Kec. Setia, Kabupaten Aceh Barat Daya";"ACEH";"23763";"Indonesia";"";"3.7044338";"96.8744735";"https://maps.google.com/?cid=0x0:0xee8d92986ba7b7e3"
"toko bangunan";"toko bangunan";"Susoh";"Padang Baru, Susoh, Kabupaten Aceh Barat Daya, Aceh";"Kabupaten Aceh Barat Daya, Aceh";"ACEH";"";"Indonesia";"";"3.728577";"96.812576";"https://maps.google.com/?cid=0x0:0x4039d80b220d460"
"toko bangunan";"Toko Bahan Bangunan";"Toko Jasa Misbah";"Jl. H Ilyas Blang Pidie No.19, Mata Ie, Kecamaten Blang Pidie, Kabupaten Aceh Barat Daya, Aceh 23763";"Mata Ie, Kecamaten Blang Pidie, Kabupaten Aceh Barat Daya";"ACEH";"23763";"Indonesia";" 085260120698";"3.7399016";"96.833596";"https://maps.google.com/?cid=0x0:0x858e03396076ece7"
"toko bangunan";"Pemasok Bahan Bangunan";"Sagoe collection";"PRQM+73V, Jl. Selamat, Ps. Blang Pidie, Kecamaten Blang Pidie, Kabupaten Aceh Barat Daya, Aceh 23763";"Jl. Selamat, Ps. Blang Pidie, Kecamaten Blang Pidie, Kabupaten Aceh Barat Daya";"ACEH";"23763";"Indonesia";"";"3.7382269";"96.8326832";"https://maps.google.com/?cid=0x0:0xf0079a9d432fdfc8"
"toko bangunan";"Toko Bahan Bangunan";"Sebab Jasa";"Jl. H. Ilyas No.2, Meudang Ara, Kecamaten Blang Pidie, Kabupaten Aceh Barat Daya, Aceh 23764";"Meudang Ara, Kecamaten Blang Pidie, Kabupaten Aceh Barat Daya";"ACEH";"23764";"Indonesia";" 085260673028";"3.7397521";"96.8336861";"https://maps.google.com/?cid=0x0:0xdb22429a34ca01f0"
"toko bangunan";"Masjid";"Toko Kedai Paya Bangunan";"Jl. Iskandar Muda Dusun Suka Damai, Kedai Paya, Kecamaten Blang Pidie, Kabupaten Aceh Barat Daya, Aceh 23764";"Kedai Paya, Kecamaten Blang Pidie, Kabupaten Aceh Barat Daya";"ACEH";"23764";"Indonesia";" 081331780732";"3.7285614";"96.8506411";"https://maps.google.com/?cid=0x0:0x77733276fc35c791"
"toko bangunan";"Toko";"Toko Sinar Mulia";"PRQM+QJJ, Jl. H Ilyas Blang Pidie, Meudang Ara, Kecamaten Blang Pidie, Kabupaten Aceh Barat Daya, Aceh 23763";"Jl. H Ilyas Blang Pidie, Meudang Ara, Kecamaten Blang Pidie, Kabupaten Aceh Barat Daya";"ACEH";"23763";"Indonesia";" 085277334308";"3.7394531";"96.8340064";"https://maps.google.com/?cid=0x0:0x590cc39c23d8e103"
"toko bangunan";"Toko";"Toko Helindo Abadi";"Alue Sungai Pinang, Kec. Jeumpa, Kabupaten Aceh Barat Daya, Aceh 23764";"Kec. Jeumpa, Kabupaten Aceh Barat Daya";"ACEH";"23764";"Indonesia";"";"3.7760506";"96.8178029";"https://maps.google.com/?cid=0x0:0x36da571bc959c426"
"toko bangunan";"Toko Bahan Bangunan";"toko bahan bangunan her";"RQ97+4G3, Blang Makmur, Kec. Kuala Batee, Kabupaten Aceh Barat Daya, Aceh 23764";"Blang Makmur, Kec. Kuala Batee, Kabupaten Aceh Barat Daya";"ACEH";"23764";"Indonesia";"";"3.8177648";"96.763799";"https://maps.google.com/?cid=0x0:0x1d4451bcc2d5b818"
"toko bangunan";"Toko Bahan Bangunan";"UD. PRATAMA BANGUNAN";"Jl. Lintas Barat Sumatera, Padang Sikabu, Kec. Kuala Batee, Kabupaten Aceh Barat Daya, Aceh 23766";"Padang Sikabu, Kec. Kuala Batee, Kabupaten Aceh Barat Daya";"ACEH";"23766";"Indonesia";"";"3.7950567";"96.7846455";"https://maps.google.com/?cid=0x0:0x814ce770be8d0537"
"toko bangunan";"Toko Bahan Bangunan";"Karunia Bangunan. UD";"Jl. Pendidikan No.38, Mata Ie, Kecamaten Blang Pidie, Kabupaten Aceh Barat Daya, Aceh 23763";"Mata Ie, Kecamaten Blang Pidie, Kabupaten Aceh Barat Daya";"ACEH";"23763";"Indonesia";" 085277983221";"3.7398856";"96.8350671";"https://maps.google.com/?cid=0x0:0x9975a849799b93ce"
"toko bangunan";"Toko bahan makanan";"UD. Aisyah";"VPCC+JX, Alue Jerjak, Kec. Babah Rot, Kabupaten Aceh Barat Daya, Aceh";"Kabupaten Aceh Barat Daya, Aceh";"ACEH";"";"Indonesia";" 081364240904";"3.8715182";"96.7224057";"https://maps.google.com/?cid=0x0:0xdee7af3ad3529c10"
"toko bangunan";"Toko Bahan Bangunan";"Toko Sinar Waja";"Jl. H Ilyas Blang Pidie No.53, Meudang Ara, Kecamaten Blang Pidie, Kabupaten Aceh Barat Daya, Aceh 23763";"Meudang Ara, Kecamaten Blang Pidie, Kabupaten Aceh Barat Daya";"ACEH";"23763";"Indonesia";"";"3.7398443";"96.834204";"https://maps.google.com/?cid=0x0:0x8ccb7ee6a1bf4e4"
"toko bangunan";"Toko Bahan Bangunan";"UD. Sahabat Baru";"MW37+6FQ, Jl. Meulaboh - Tapaktuan, Adan, Kec. Tangan-Tangan, Kabupaten Aceh Barat Daya, Aceh 23762";"Jl. Meulaboh - Tapaktuan, Adan, Kec. Tangan-Tangan, Kabupaten Aceh Barat Daya";"ACEH";"23762";"Indonesia";" 085371796815";"3.6530769";"96.9137289";"https://maps.google.com/?cid=0x0:0x4e92bd9df5ae9851"
"toko bangunan";"toko bangunan";"Aceh 23766";"Kec. Babah Rot, Kabupaten Aceh Barat Daya, Aceh";"Kabupaten Aceh Barat Daya, Aceh";"ACEH";"";"Indonesia";"";"3.9000346";"96.6851982";"https://maps.google.com/?cid=0x0:0x4d19ceb29190eb17"
"toko bangunan";"Toko Bahan Bangunan";"toko bahan bangunan her";"RQ97+4G3, Blang Makmur, Kec. Kuala Batee, Kabupaten Aceh Barat Daya, Aceh 23764";"Blang Makmur, Kec. Kuala Batee, Kabupaten Aceh Barat Daya";"ACEH";"23764";"Indonesia";"";"3.8177648";"96.763799";"https://maps.google.com/?cid=0x0:0x1d4451bcc2d5b818"
"toko bangunan";"Toko Bahan Bangunan";"UD. PRATAMA BANGUNAN";"Jl. Lintas Barat Sumatera, Padang Sikabu, Kec. Kuala Batee, Kabupaten Aceh Barat Daya, Aceh 23766";"Padang Sikabu, Kec. Kuala Batee, Kabupaten Aceh Barat Daya";"ACEH";"23766";"Indonesia";"";"3.7950567";"96.7846455";"https://maps.google.com/?cid=0x0:0x814ce770be8d0537"
"toko bangunan";"Toko Bahan Bangunan";"Toko sinar mulia aceh";"Pantee Rakyat, Kec. Babah Rot, Kabupaten Aceh Barat Daya, Aceh 23766";"Kec. Babah Rot, Kabupaten Aceh Barat Daya";"ACEH";"23766";"Indonesia";"";"3.9102449";"96.6745042";"https://maps.google.com/?cid=0x0:0xd0366ec109cee8cc"
"toko bangunan";"Toko Bahan Bangunan";"UD BERKAH";"RQ49+RQQ, Kp. Tengah, Kec. Kuala Batee, Kabupaten Aceh Barat Daya, Aceh";"Kabupaten Aceh Barat Daya, Aceh";"ACEH";"";"Indonesia";"";"3.8070777";"96.7694752";"https://maps.google.com/?cid=0x0:0xd7964d9dfc884a32"
"toko bangunan";"Toko Bahan Bangunan";"Toko Jasa Misbah";"Jl. H Ilyas Blang Pidie No.19, Mata Ie, Kecamaten Blang Pidie, Kabupaten Aceh Barat Daya, Aceh 23763";"Mata Ie, Kecamaten Blang Pidie, Kabupaten Aceh Barat Daya";"ACEH";"23763";"Indonesia";" 085260120698";"3.7399016";"96.833596";"https://maps.google.com/?cid=0x0:0x858e03396076ece7"
"toko bangunan";"Toko";"Toko Helindo Abadi";"Alue Sungai Pinang, Kec. Jeumpa, Kabupaten Aceh Barat Daya, Aceh 23764";"Kec. Jeumpa, Kabupaten Aceh Barat Daya";"ACEH";"23764";"Indonesia";"";"3.7760506";"96.8178029";"https://maps.google.com/?cid=0x0:0x36da571bc959c426"
"toko bangunan";"Toko Bahan Bangunan";"TB. Arfaz Jaya Mandiri";"Jln. Meulaboh- Tapak tuan, Padang Sikabu, Kec. Kuala Batee, Kabupaten Aceh Barat Daya, Aceh 25537";"Padang Sikabu, Kec. Kuala Batee, Kabupaten Aceh Barat Daya";"ACEH";"25537";"Indonesia";" 085277729453";"3.7933139";"96.7874907";"https://maps.google.com/?cid=0x0:0x4f95f10c716f11d7"
"toko bangunan";"Toko Bahan Bangunan";"Sebab Jasa";"Jl. H. Ilyas No.2, Meudang Ara, Kecamaten Blang Pidie, Kabupaten Aceh Barat Daya, Aceh 23764";"Meudang Ara, Kecamaten Blang Pidie, Kabupaten Aceh Barat Daya";"ACEH";"23764";"Indonesia";" 085260673028";"3.7397521";"96.8336861";"https://maps.google.com/?cid=0x0:0xdb22429a34ca01f0"
"toko bangunan";"Toko Kaca >>u0026 Cermin";"KULI ALUMINIUM SERVICE";"Jln Nasional Desa Alue Peunawa, Dusun, Alue Lhoek, Kec. Babah Rot, Kabupaten Aceh Barat Daya, Aceh 24251";"Dusun, Alue Lhoek, Kec. Babah Rot, Kabupaten Aceh Barat Daya";"ACEH";"24251";"Indonesia";" 085260952454";"3.8410071";"96.7468444";"https://maps.google.com/?cid=0x0:0xe0c81edf42d50059"
"toko bangunan";"Pemasok Bahan Bangunan";"Sagoe collection";"PRQM+73V, Jl. Selamat, Ps. Blang Pidie, Kecamaten Blang Pidie, Kabupaten Aceh Barat Daya, Aceh 23763";"Jl. Selamat, Ps. Blang Pidie, Kecamaten Blang Pidie, Kabupaten Aceh Barat Daya";"ACEH";"23763";"Indonesia";"";"3.7382269";"96.8326832";"https://maps.google.com/?cid=0x0:0xf0079a9d432fdfc8"
"toko bangunan";"Toko Bahan Bangunan";"Gunung salak";"QQXF+QWP, Alue Padee, Kec. Kuala Batee, Kabupaten Aceh Barat Daya, Aceh 23765";"Alue Padee, Kec. Kuala Batee, Kabupaten Aceh Barat Daya";"ACEH";"23765";"Indonesia";"";"3.7994582";"96.7748298";"https://maps.google.com/?cid=0x0:0x9584116a811269ec"
"toko bangunan";"Toko Elektronik";"Toko yayang electronic";"WM4W+JMW, Pasar, Kec. Babah Rot, Kabupaten Aceh Barat Daya, Aceh 23767";"Pasar, Kec. Babah Rot, Kabupaten Aceh Barat Daya";"ACEH";"23767";"Indonesia";" 085260863333";"3.9066084";"96.6966877";"https://maps.google.com/?cid=0x0:0x7043cf61cfe1a5bb"
"toko bangunan";"Komplek perumahan";"pasar kota bahagia lamainong";"RQC6+X6G, Ps. Kuta Bahagia, Kec. Kuala Batee, Kabupaten Aceh Barat Daya, Aceh 23764";"Ps. Kuta Bahagia, Kec. Kuala Batee, Kabupaten Aceh Barat Daya";"ACEH";"23764";"Indonesia";"";"3.8224494";"96.7605933";"https://maps.google.com/?cid=0x0:0x1117f79f08039a63"
"toko bangunan";"Toko Bahan Bangunan";"Toko sinar mulia aceh";"Pantee Rakyat, Kec. Babah Rot, Kabupaten Aceh Barat Daya, Aceh 23766";"Kec. Babah Rot, Kabupaten Aceh Barat Daya";"ACEH";"23766";"Indonesia";"";"3.9102449";"96.6745042";"https://maps.google.com/?cid=0x0:0xd0366ec109cee8cc"
"toko bangunan";"toko bangunan";"Aceh 23767";"Kec. Babah Rot, Kabupaten Aceh Barat Daya, Aceh";"Kabupaten Aceh Barat Daya, Aceh";"ACEH";"";"Indonesia";"";"3.8500236";"96.6103778";"https://maps.google.com/?cid=0x0:0xdb51e75798ae0c5b"
"toko bangunan";"Toko";"Toko Sinar Mulia";"PRQM+QJJ, Jl. H Ilyas Blang Pidie, Meudang Ara, Kecamaten Blang Pidie, Kabupaten Aceh Barat Daya, Aceh 23763";"Jl. H Ilyas Blang Pidie, Meudang Ara, Kecamaten Blang Pidie, Kabupaten Aceh Barat Daya";"ACEH";"23763";"Indonesia";" 085277334308";"3.7394531";"96.8340064";"https://maps.google.com/?cid=0x0:0x590cc39c23d8e103"
"toko bangunan";"Toko Bahan Bangunan";"toko bahan bangunan her";"RQ97+4G3, Blang Makmur, Kec. Kuala Batee, Kabupaten Aceh Barat Daya, Aceh 23764";"Blang Makmur, Kec. Kuala Batee, Kabupaten Aceh Barat Daya";"ACEH";"23764";"Indonesia";"";"3.8177648";"96.763799";"https://maps.google.com/?cid=0x0:0x1d4451bcc2d5b818"
"toko bangunan";"Toko Bahan Bangunan";"Zahra Bangunan";"Jl. Dr. Mr. Mohd Hasan, Batoh, Kec. Lueng Bata, Kota Banda Aceh, Aceh 23127";"Batoh, Kec. Lueng Bata, Kota Banda Aceh";"ACEH";"23127";"Indonesia";" 083191742636";"5.5425651";"95.3305542";"https://maps.google.com/?cid=0x0:0x9785538145c2ac3"
"toko bangunan";"Toko Bahan Bangunan";"Sebab Jasa";"Jl. H. Ilyas No.2, Meudang Ara, Kecamaten Blang Pidie, Kabupaten Aceh Barat Daya, Aceh 23764";"Meudang Ara, Kecamaten Blang Pidie, Kabupaten Aceh Barat Daya";"ACEH";"23764";"Indonesia";" 085260673028";"3.7397521";"96.8336861";"https://maps.google.com/?cid=0x0:0xdb22429a34ca01f0"
"toko bangunan";"Toko Bahan Bangunan";"BERKAH JAYA BANGUNAN";"PANTAN DAMAR, Kec. Atu Lintang, Kabupaten Aceh Tengah, Aceh 24563";"Kec. Atu Lintang, Kabupaten Aceh Tengah";"ACEH";"24563";"Indonesia";" 085262481269";"4.4569413";"96.7748317";"https://maps.google.com/?cid=0x0:0xb8a18ecaae1d4e64"
"toko bangunan";"Toko Bahan Bangunan";"TOKO BESI BINTANG BANGUNAN";"Jl. Pocut Baren No.29, Keuramat, Kec. Kuta Alam, Kota Banda Aceh, Aceh 23126";"Keuramat, Kec. Kuta Alam, Kota Banda Aceh";"ACEH";"23126";"Indonesia";" 081360031288";"5.5617508";"95.3240203";"https://maps.google.com/?cid=0x0:0xa98c67e001462b53"
"toko bangunan";"Toko Bahan Bangunan";"UD Mita Usaha";"Jl, Tengah Peulumat, Tapak Tuan, Kabupaten Aceh Selatan, Aceh 23754";"Tengah Peulumat, Tapak Tuan, Kabupaten Aceh Selatan";"ACEH";"23754";"Indonesia";" 085277924711";"3.5052806";"97.0313529";"https://maps.google.com/?cid=0x0:0x52f46386cfbac3e7"
"toko bangunan";"Toko Bahan Bangunan";"Toko Bangunan Restu Baru";"Punge Jurong, Kec. Meuraxa, Kota Banda Aceh, Aceh";"Kota Banda Aceh, Aceh";"ACEH";"";"Indonesia";" 083191742636";"5.5505698";"95.3063395";"https://maps.google.com/?cid=0x0:0x19be35fae5e58e08"
"toko bangunan";"Masjid";"Toko Kedai Paya Bangunan";"Jl. Iskandar Muda Dusun Suka Damai, Kedai Paya, Kecamaten Blang Pidie, Kabupaten Aceh Barat Daya, Aceh 23764";"Kedai Paya, Kecamaten Blang Pidie, Kabupaten Aceh Barat Daya";"ACEH";"23764";"Indonesia";" 081331780732";"3.7285614";"96.8506411";"https://maps.google.com/?cid=0x0:0x77733276fc35c791"
"toko bangunan";"toko bangunan";"Ud. Jaya mandiri bangunan";"Alue jambee, Gn. Samarinda, Kec. Babah Rot, Kabupaten Aceh Barat Daya, Aceh 76114";"Gn. Samarinda, Kec. Babah Rot, Kabupaten Aceh Barat Daya";"ACEH";"76114";"Indonesia";" 082160468676";"3.9598386";"96.65698";"https://maps.google.com/?cid=0x0:0x85cb33a4cc739f26"
"toko bangunan";"Toko Bahan Bangunan";"Rezeki Kita Toko";"JL. H. Ilyas, Mata Ie, Blangpidie - Aceh Barat Daya, Kabupaten Aceh Barat Daya, Aceh 23763";"Mata Ie, Blangpidie - Aceh Barat Daya, Kabupaten Aceh Barat Daya";"ACEH";"23763";"Indonesia";" 085260269914";"3.75";"96.85";"https://maps.google.com/?cid=0x0:0x32717e98c09bb16d"
"toko bangunan";"toko bangunan";"Kec. Setia";"Kabupaten Aceh Barat Daya, Aceh";"Kabupaten Aceh Barat Daya, Aceh";"ACEH";"";"Indonesia";"";"3.7078495";"96.8719767";"https://maps.google.com/?cid=0x0:0x34a354e1c2218e5f"
"toko bangunan";"Toko Bahan Bangunan";"Toko Alat Bangunan Rahmat Sarmita....";"PV3F+QQH, Lhang, Kec. Setia, Kabupaten Aceh Barat Daya, Aceh 23763";"Lhang, Kec. Setia, Kabupaten Aceh Barat Daya";"ACEH";"23763";"Indonesia";"";"3.7044338";"96.8744735";"https://maps.google.com/?cid=0x0:0xee8d92986ba7b7e3"
"toko bangunan";"Toko Bahan Bangunan";"UD. Cahaya Amar";"MW27+7H7, Jl. Meulaboh - Tapaktuan, Bineh Krueng, Kec. Tangan-Tangan, Kabupaten Aceh Barat Daya, Aceh 23762";"Jl. Meulaboh - Tapaktuan, Bineh Krueng, Kec. Tangan-Tangan, Kabupaten Aceh Barat Daya";"ACEH";"23762";"Indonesia";" 085260700553";"3.6506605";"96.9139111";"https://maps.google.com/?cid=0x0:0x218625d15ea31a07"
"toko bangunan";"Pemasok Bahan Bangunan";"Sagoe collection";"PRQM+73V, Jl. Selamat, Ps. Blang Pidie, Kecamaten Blang Pidie, Kabupaten Aceh Barat Daya, Aceh 23763";"Jl. Selamat, Ps. Blang Pidie, Kecamaten Blang Pidie, Kabupaten Aceh Barat Daya";"ACEH";"23763";"Indonesia";"";"3.7382269";"96.8326832";"https://maps.google.com/?cid=0x0:0xf0079a9d432fdfc8"
"toko bangunan";"Toko Bahan Bangunan";"UD. Sahabat Baru";"MW37+6FQ, Jl. Meulaboh - Tapaktuan, Adan, Kec. Tangan-Tangan, Kabupaten Aceh Barat Daya, Aceh 23762";"Jl. Meulaboh - Tapaktuan, Adan, Kec. Tangan-Tangan, Kabupaten Aceh Barat Daya";"ACEH";"23762";"Indonesia";" 085371796815";"3.6530769";"96.9137289";"https://maps.google.com/?cid=0x0:0x4e92bd9df5ae9851"
"toko bangunan";"Toko Bahan Bangunan";"Toko Mitra Abadi..";"JW9M+H78, Jl. Lintas Barat Sumatera, Paya, Kec. Manggeng, Kabupaten Aceh Barat Daya, Aceh 23762";"Jl. Lintas Barat Sumatera, Paya, Kec. Manggeng, Kabupaten Aceh Barat Daya";"ACEH";"23762";"Indonesia";"";"3.6189152";"96.9332159";"https://maps.google.com/?cid=0x0:0x4b1951aa1baa9e87"
"toko bangunan";"Toko";"Toko Sinar Mulia";"PRQM+QJJ, Jl. H Ilyas Blang Pidie, Meudang Ara, Kecamaten Blang Pidie, Kabupaten Aceh Barat Daya, Aceh 23763";"Jl. H Ilyas Blang Pidie, Meudang Ara, Kecamaten Blang Pidie, Kabupaten Aceh Barat Daya";"ACEH";"23763";"Indonesia";" 085277334308";"3.7394531";"96.8340064";"https://maps.google.com/?cid=0x0:0x590cc39c23d8e103"
"toko bangunan";"Toko Bahan Bangunan";"Sebab Jasa";"Jl. H. Ilyas No.2, Meudang Ara, Kecamaten Blang Pidie, Kabupaten Aceh Barat Daya, Aceh 23764";"Meudang Ara, Kecamaten Blang Pidie, Kabupaten Aceh Barat Daya";"ACEH";"23764";"Indonesia";" 085260673028";"3.7397521";"96.8336861";"https://maps.google.com/?cid=0x0:0xdb22429a34ca01f0"
"toko bangunan";"Toko Bahan Bangunan";"Toko Setia Kawan";"JVF2+W48, Bale Atu, Kec. Lut Tawar, Kabupaten Aceh Tengah, Aceh 24519";"Bale Atu, Kec. Lut Tawar, Kabupaten Aceh Tengah";"ACEH";"24519";"Indonesia";" 064321692";"4.6247984";"96.8503199";"https://maps.google.com/?cid=0x0:0xf78c6bd2c4b87654"
"toko bangunan";"Toko Bahan Bangunan";"Toko besi Setia kawan baru";"Jl. Lebe Kader No.17, Bujang, Kec. Lut Tawar, Kabupaten Aceh Tengah, Aceh 24551";"Bujang, Kec. Lut Tawar, Kabupaten Aceh Tengah";"ACEH";"24551";"Indonesia";" 085362944848";"4.6191056";"96.8486807";"https://maps.google.com/?cid=0x0:0xc941a85a2aaff4ae"
"toko bangunan";"Toko Bahan Bangunan";"Sumber Setia";"JVF2+Q23, Bale Atu, Kec. Lut Tawar, Kabupaten Aceh Tengah, Aceh 24519";"Bale Atu, Kec. Lut Tawar, Kabupaten Aceh Tengah";"ACEH";"24519";"Indonesia";" 082364674462";"4.6243912";"96.8500313";"https://maps.google.com/?cid=0x0:0x807a7be40545f85e"
"toko bangunan";"Toko Bahan Bangunan";"UD. PRATAMA BANGUNAN";"Jl. Lintas Barat Sumatera, Padang Sikabu, Kec. Kuala Batee, Kabupaten Aceh Barat Daya, Aceh 23766";"Padang Sikabu, Kec. Kuala Batee, Kabupaten Aceh Barat Daya";"ACEH";"23766";"Indonesia";"";"3.7950567";"96.7846455";"https://maps.google.com/?cid=0x0:0x814ce770be8d0537"
"toko bangunan";"Toko Bahan Bangunan";"Toko besi setia kawan 2";"JR48+V6G, Kayu Kul, Kec. Pegasing, Kabupaten Aceh Tengah, Aceh 24552";"Kayu Kul, Kec. Pegasing, Kabupaten Aceh Tengah";"ACEH";"24552";"Indonesia";" 085275177250";"4.6071917";"96.8155702";"https://maps.google.com/?cid=0x0:0x7414a4f0d6d86917"
"toko bangunan";"Toko Bahan Bangunan";"Toko Paten Jaya";"JW8Q+384, Jl. Lintas Barat Sumatera, Kedai, Kec. Manggeng, Kabupaten Aceh Barat Daya, Aceh 23762";"Jl. Lintas Barat Sumatera, Kedai, Kec. Manggeng, Kabupaten Aceh Barat Daya";"ACEH";"23762";"Indonesia";"";"3.61514";"96.9383218";"https://maps.google.com/?cid=0x0:0xc5c9be9587ec9515"
"toko bangunan";"Toko Bahan Bangunan";"Toko Bangunan Jambo Akhie";"G8JQ+QVH, Landom, Kec. Lueng Bata, Kota Banda Aceh, Aceh 23122";"Landom, Kec. Lueng Bata, Kota Banda Aceh";"ACEH";"23122";"Indonesia";"";"5.5319478";"95.3397414";"https://maps.google.com/?cid=0x0:0x1fbef36a02b6f916"
"toko bangunan";"toko bangunan";"Aceh 23764";"Kabupaten Aceh Barat Daya, Aceh";"Kabupaten Aceh Barat Daya, Aceh";"ACEH";"";"Indonesia";"";"3.8585335";"96.8136642";"https://maps.google.com/?cid=0x0:0xffecff8e1cb94052"
"toko bangunan";"Toko Bahan Bangunan";"Zahra Bangunan";"Jl. Dr. Mr. Mohd Hasan, Batoh, Kec. Lueng Bata, Kota Banda Aceh, Aceh 23127";"Batoh, Kec. Lueng Bata, Kota Banda Aceh";"ACEH";"23127";"Indonesia";" 083191742636";"5.5425651";"95.3305542";"https://maps.google.com/?cid=0x0:0x9785538145c2ac3"
"toko bangunan";"Toko";"Toko Helindo Abadi";"Alue Sungai Pinang, Kec. Jeumpa, Kabupaten Aceh Barat Daya, Aceh 23764";"Kec. Jeumpa, Kabupaten Aceh Barat Daya";"ACEH";"23764";"Indonesia";"";"3.7760506";"96.8178029";"https://maps.google.com/?cid=0x0:0x36da571bc959c426"
"toko bangunan";"Rumah Kayu";"Rumoh Ferri";"QRG9+MRM, Alue Sungai Pinang, Kec. Jeumpa, Kabupaten Aceh Barat Daya, Aceh";"Kabupaten Aceh Barat Daya, Aceh";"ACEH";"";"Indonesia";"";"3.7767212";"96.8195503";"https://maps.google.com/?cid=0x0:0x74559ffbb3015bfa"
"toko bangunan";"toko bangunan";"Aceh 24251";"Kabupaten Bireuen, Aceh";"Kabupaten Bireuen, Aceh";"ACEH";"";"Indonesia";"";"5.0881574";"96.642433";"https://maps.google.com/?cid=0x0:0x2d3a8ff5c08e4a15"
"toko bangunan";"Toko Bahan Bangunan";"Toko Bangunan Putra Jaya";"Jl. Medan - Banda Aceh, Pulo Lawang, Kec. Jeumpa, Kabupaten Bireuen, Aceh 24251";"Pulo Lawang, Kec. Jeumpa, Kabupaten Bireuen";"ACEH";"24251";"Indonesia";" 081376934001";"5.1934733";"96.6405549";"https://maps.google.com/?cid=0x0:0x1bdf4b6036179fc2"
"toko bangunan";"Toko Bahan Bangunan";"Fajar Jeumpa";"Jl. Medan - Banda Aceh No.9, Bireun Meunasah Capa, Kec. Kota Juang, Kabupaten Bireuen, Aceh 24261";"Bireun Meunasah Capa, Kec. Kota Juang, Kabupaten Bireuen";"ACEH";"24261";"Indonesia";" 0644323102";"5.2012691";"96.7029552";"https://maps.google.com/?cid=0x0:0xbadeef9bb2b5b4b2"
"toko bangunan";"Toko Bahan Bangunan";"Toko Besi Sari Baru";"6M3J+J5H, Unnamed Road, Cot Keutapang, Kec. Jeumpa, Kabupaten Bireuen, Aceh";"Kabupaten Bireuen, Aceh";"ACEH";"";"Indonesia";"";"5.2040574";"96.6804709";"https://maps.google.com/?cid=0x0:0xf9d0f11096e6347c"
"toko bangunan";"Toko Bahan Bangunan";"Toko Besi  Bangunan Subur Jaya";"6M4C+84F, Geulumpang Payong, Kec. Jeumpa, Kabupaten Bireuen, Aceh";"Kabupaten Bireuen, Aceh";"ACEH";"";"Indonesia";"";"5.206109";"96.6702485";"https://maps.google.com/?cid=0x0:0xf6b94e0596d517c2"
"toko bangunan";"Toko Bahan Bangunan";"Toko Bangunan Hilal Jaya";"Jl. Raya Bireuen - Takengon No.Km. 2, RW.6, Mns Jok, Kec. Juli, Kabupaten Bireuen, Aceh 24250";"RW.6, Mns Jok, Kec. Juli, Kabupaten Bireuen";"ACEH";"24250";"Indonesia";" 085359233615";"5.1822989";"96.705264";"https://maps.google.com/?cid=0x0:0x8ec4c9ad8b9fcdad"
"toko bangunan";"Toko Bahan Bangunan";"Sejahtera";"JL Bireuen - Takengon, Km. 2, Keude Juli, Juli, Juli Cot Mesjid, Bireuen, Kabupaten Bireuen, Aceh 24251";"Km. 2, Keude Juli, Juli, Juli Cot Mesjid, Bireuen, Kabupaten Bireuen";"ACEH";"24251";"Indonesia";" 085277551122";"5.1765338";"96.7038873";"https://maps.google.com/?cid=0x0:0x2127a6a4c373e164"
"toko bangunan";"Toko Bahan Bangunan";"PT. Motive Mulia - Merah Putih Beton";"Blang Cot Baroh, Kec. Jeumpa, Kabupaten Bireuen, Aceh 24251";"Kec. Jeumpa, Kabupaten Bireuen";"ACEH";"24251";"Indonesia";" 081264390051";"5.2058085";"96.6741528";"https://maps.google.com/?cid=0x0:0x50d3294702e3edf5"
"toko bangunan";"Toko Bahan Bangunan";"JC";"6M3V+6QQ, Jl. Medan - Banda Aceh, Mns Blang, Kec. Kota Juang, Kabupaten Bireuen, Aceh 24261";"Jl. Medan - Banda Aceh, Mns Blang, Kec. Kota Juang, Kabupaten Bireuen";"ACEH";"24261";"Indonesia";" 085364052008";"5.2030919";"96.6944908";"https://maps.google.com/?cid=0x0:0x2151a088519df69e"
"toko bangunan";"Toko Bahan Bangunan";"Hikmah Mulia";"6M2X+QH3, Bireun Meunasah Capa, Kec. Kota Juang, Kabupaten Bireuen, Aceh 24261";"Bireun Meunasah Capa, Kec. Kota Juang, Kabupaten Bireuen";"ACEH";"24261";"Indonesia";" 085276109270";"5.201877";"96.6989183";"https://maps.google.com/?cid=0x0:0x738f262ff2a7ca72"
"toko bangunan";"Toko Bahan Bangunan";"Toko Delima Jaya";"Jl. Medan - Banda Aceh, Bireun Meunasah Capa, Kec. Kota Juang, Kabupaten Bireuen, Aceh 24211";"Bireun Meunasah Capa, Kec. Kota Juang, Kabupaten Bireuen";"ACEH";"24211";"Indonesia";" 0644323183";"5.201653";"96.699384";"https://maps.google.com/?cid=0x0:0x146eab0467417e8b"
"toko bangunan";"Toko Bahan Bangunan";"Toko Bangunan dan Listrik UMAR JAYA";"Cot Bada, Kec. Jeumpa, Kabupaten Bireuen, Aceh";"Kabupaten Bireuen, Aceh";"ACEH";"";"Indonesia";"";"5.2063046";"96.6485447";"https://maps.google.com/?cid=0x0:0xf0eb4058af2cc09b"
"toko bangunan";"Toko Bahan Bangunan";"Israwati";"JL. Medan - Banda Aceh, No. 21, Seu Lembah, Jeumpa, Seuleumbah, Bireuen, Kabupaten Bireuen, Aceh 24251";"No. 21, Seu Lembah, Jeumpa, Seuleumbah, Bireuen, Kabupaten Bireuen";"ACEH";"24251";"Indonesia";" 085362459294";"5.1940616";"96.6758408";"https://maps.google.com/?cid=0x0:0xaec1b8b0146a8ef"
"toko bangunan";"Toko Bahan Bangunan";"Toko Farhan Jaya";"5P65+VHW, Juli Meunasah Teungoh, Kec. Juli, Kabupaten Bireuen, Aceh 24261";"Juli Meunasah Teungoh, Kec. Juli, Kabupaten Bireuen";"ACEH";"24261";"Indonesia";" 082385761579";"5.1622376";"96.7089588";"https://maps.google.com/?cid=0x0:0x48b156a7ffca2643"
"toko bangunan";"Toko Bahan Bangunan";"Toko Mitra Abadi..";"JW9M+H78, Jl. Lintas Barat Sumatera, Paya, Kec. Manggeng, Kabupaten Aceh Barat Daya, Aceh 23762";"Jl. Lintas Barat Sumatera, Paya, Kec. Manggeng, Kabupaten Aceh Barat Daya";"ACEH";"23762";"Indonesia";"";"3.6189152";"96.9332159";"https://maps.google.com/?cid=0x0:0x4b1951aa1baa9e87"
"toko bangunan";"toko bangunan";"Kec. Lembah Sabil";"Kabupaten Aceh Barat Daya, Aceh";"Kabupaten Aceh Barat Daya, Aceh";"ACEH";"";"Indonesia";"";"3.589112";"96.9343064";"https://maps.google.com/?cid=0x0:0x47f212bb54114078"
"toko bangunan";"Toko Bahan Bangunan";"Toko Paten Jaya";"JW8Q+384, Jl. Lintas Barat Sumatera, Kedai, Kec. Manggeng, Kabupaten Aceh Barat Daya, Aceh 23762";"Jl. Lintas Barat Sumatera, Kedai, Kec. Manggeng, Kabupaten Aceh Barat Daya";"ACEH";"23762";"Indonesia";"";"3.61514";"96.9383218";"https://maps.google.com/?cid=0x0:0xc5c9be9587ec9515"
"toko bangunan";"Toko Bahan Bangunan";"UD. Sahabat Baru";"MW37+6FQ, Jl. Meulaboh - Tapaktuan, Adan, Kec. Tangan-Tangan, Kabupaten Aceh Barat Daya, Aceh 23762";"Jl. Meulaboh - Tapaktuan, Adan, Kec. Tangan-Tangan, Kabupaten Aceh Barat Daya";"ACEH";"23762";"Indonesia";" 085371796815";"3.6530769";"96.9137289";"https://maps.google.com/?cid=0x0:0x4e92bd9df5ae9851"
"toko bangunan";"Toko Bahan Bangunan";"Toko Cahaya Keluarga";"Paya, Kec. Manggeng, Kabupaten Aceh Barat Daya, Aceh 23294";"Kec. Manggeng, Kabupaten Aceh Barat Daya";"ACEH";"23294";"Indonesia";" 081310808090";"3.6194419";"96.9326756";"https://maps.google.com/?cid=0x0:0xd1f60f0745becfb"
"building materials";"building materials";"Aceh 23764";"Kabupaten Aceh Barat Daya, Aceh";"Kabupaten Aceh Barat Daya, Aceh";"ACEH";"";"Indonesia";"";"3.8585335";"96.8136642";"https://maps.google.com/?cid=0x0:0xffecff8e1cb94052"
"building materials";"Toko Bahan Bangunan";"Toko Jasa Misbah";"Jl. H Ilyas Blang Pidie No.19, Mata Ie, Kecamaten Blang Pidie, Kabupaten Aceh Barat Daya, Aceh 23763";"Mata Ie, Kecamaten Blang Pidie, Kabupaten Aceh Barat Daya";"ACEH";"23763";"Indonesia";" 085260120698";"3.7399016";"96.833596";"https://maps.google.com/?cid=0x0:0x858e03396076ece7"
"building materials";"Toko";"Toko Sinar Mulia";"PRQM+QJJ, Jl. H Ilyas Blang Pidie, Meudang Ara, Kecamaten Blang Pidie, Kabupaten Aceh Barat Daya, Aceh 23763";"Jl. H Ilyas Blang Pidie, Meudang Ara, Kecamaten Blang Pidie, Kabupaten Aceh Barat Daya";"ACEH";"23763";"Indonesia";" 085277334308";"3.7394531";"96.8340064";"https://maps.google.com/?cid=0x0:0x590cc39c23d8e103"
"building materials";"Pemasok Bahan Bangunan";"Sagoe collection";"PRQM+73V, Jl. Selamat, Ps. Blang Pidie, Kecamaten Blang Pidie, Kabupaten Aceh Barat Daya, Aceh 23763";"Jl. Selamat, Ps. Blang Pidie, Kecamaten Blang Pidie, Kabupaten Aceh Barat Daya";"ACEH";"23763";"Indonesia";"";"3.7382269";"96.8326832";"https://maps.google.com/?cid=0x0:0xf0079a9d432fdfc8"
"building materials";"Toko";"Toko Helindo Abadi";"Alue Sungai Pinang, Kec. Jeumpa, Kabupaten Aceh Barat Daya, Aceh 23764";"Kec. Jeumpa, Kabupaten Aceh Barat Daya";"ACEH";"23764";"Indonesia";"";"3.7760506";"96.8178029";"https://maps.google.com/?cid=0x0:0x36da571bc959c426"
"building materials";"Toko";"MR. D.I.Y Blangpidie";"Jl. Iskandar Muda, Geulumpang Payong, Kecamaten Blang Pidie, Kabupaten Aceh Barat Daya, Aceh 23764";"Geulumpang Payong, Kecamaten Blang Pidie, Kabupaten Aceh Barat Daya";"ACEH";"23764";"Indonesia";"";"3.7386537";"96.8416238";"https://maps.google.com/?cid=0x0:0x4bc9bc343ce63a26"
"building materials";"Toko Bahan Bangunan";"Karunia Bangunan. UD";"Jl. Pendidikan No.38, Mata Ie, Kecamaten Blang Pidie, Kabupaten Aceh Barat Daya, Aceh 23763";"Mata Ie, Kecamaten Blang Pidie, Kabupaten Aceh Barat Daya";"ACEH";"23763";"Indonesia";" 085277983221";"3.7398856";"96.8350671";"https://maps.google.com/?cid=0x0:0x9975a849799b93ce"
"building materials";"Toko Bahan Bangunan";"Toko Sinar Waja";"Jl. H Ilyas Blang Pidie No.53, Meudang Ara, Kecamaten Blang Pidie, Kabupaten Aceh Barat Daya, Aceh 23763";"Meudang Ara, Kecamaten Blang Pidie, Kabupaten Aceh Barat Daya";"ACEH";"23763";"Indonesia";"";"3.7398443";"96.834204";"https://maps.google.com/?cid=0x0:0x8ccb7ee6a1bf4e4"
"building materials";"Toko Bahan Bangunan";"TOKO SUBUR INDAH";"Jl. H Ilyas Blang Pidie No.73, Mata Ie, Kecamaten Blang Pidie, Kabupaten Aceh Barat Daya, Aceh 23763";"Mata Ie, Kecamaten Blang Pidie, Kabupaten Aceh Barat Daya";"ACEH";"23763";"Indonesia";" 085260705367";"3.7397177";"96.8347914";"https://maps.google.com/?cid=0x0:0xc8d372c602acb872"
"building materials";"Toko Bahan Bangunan";"UD. PRATAMA BANGUNAN";"Jl. Lintas Barat Sumatera, Padang Sikabu, Kec. Kuala Batee, Kabupaten Aceh Barat Daya, Aceh 23766";"Padang Sikabu, Kec. Kuala Batee, Kabupaten Aceh Barat Daya";"ACEH";"23766";"Indonesia";"";"3.7950567";"96.7846455";"https://maps.google.com/?cid=0x0:0x814ce770be8d0537"
"building materials";"Toko Bahan Bangunan";"TOKO CAT CAHAYA WARNA";"Jl. Iskandar Muda, Geulumpang Payong, Kecamaten Blang Pidie, Kabupaten Aceh Barat Daya, Aceh 23763";"Geulumpang Payong, Kecamaten Blang Pidie, Kabupaten Aceh Barat Daya";"ACEH";"23763";"Indonesia";" 085276109976";"3.7397295";"96.8398145";"https://maps.google.com/?cid=0x0:0x9432f4a79ea8ce4a"
"building materials";"Toko Bahan Bangunan";"Toko Besi Cahaya Mutiara";"PRQP+WW9, Jl. Kesehatan, Kuta Tuha, Kecamaten Blang Pidie, Kabupaten Aceh Barat Daya, Aceh 23763";"Jl. Kesehatan, Kuta Tuha, Kecamaten Blang Pidie, Kabupaten Aceh Barat Daya";"ACEH";"23763";"Indonesia";"";"3.739781";"96.8373588";"https://maps.google.com/?cid=0x0:0x5677b19368d3bf3a"
"building materials";"Jasa Tukang";"Surya Dunia Gypsum";"PRMV+XW9, Jl. Iskandar Muda, Geulumpang Payong, Kecamaten Blang Pidie, Kabupaten Aceh Barat Daya, Aceh 23763";"Jl. Iskandar Muda, Geulumpang Payong, Kecamaten Blang Pidie, Kabupaten Aceh Barat Daya";"ACEH";"23763";"Indonesia";" 085275586881";"3.7349212";"96.844871";"https://maps.google.com/?cid=0x0:0xa0f4bd9d545cf039"
"building materials";"Toko Bahan Bangunan";"UD BERKAH";"RQ49+RQQ, Kp. Tengah, Kec. Kuala Batee, Kabupaten Aceh Barat Daya, Aceh";"Kabupaten Aceh Barat Daya, Aceh";"ACEH";"";"Indonesia";"";"3.8070777";"96.7694752";"https://maps.google.com/?cid=0x0:0xd7964d9dfc884a32"
"building materials";"Toko Bahan Bangunan";"UD. Sahabat Baru";"MW37+6FQ, Jl. Meulaboh - Tapaktuan, Adan, Kec. Tangan-Tangan, Kabupaten Aceh Barat Daya, Aceh 23762";"Jl. Meulaboh - Tapaktuan, Adan, Kec. Tangan-Tangan, Kabupaten Aceh Barat Daya";"ACEH";"23762";"Indonesia";" 085371796815";"3.6530769";"96.9137289";"https://maps.google.com/?cid=0x0:0x4e92bd9df5ae9851"
"building materials";"building materials";"Aceh 23763";"Hutan Blangpidie, Kecamaten Blang Pidie, Kabupaten Aceh Barat Daya, Aceh";"Kabupaten Aceh Barat Daya, Aceh";"ACEH";"";"Indonesia";"";"3.8370991";"96.9638624";"https://maps.google.com/?cid=0x0:0xcddc5be33e66fecd"
"building materials";"Pemasok Bahan Bangunan";"Sagoe collection";"PRQM+73V, Jl. Selamat, Ps. Blang Pidie, Kecamaten Blang Pidie, Kabupaten Aceh Barat Daya, Aceh 23763";"Jl. Selamat, Ps. Blang Pidie, Kecamaten Blang Pidie, Kabupaten Aceh Barat Daya";"ACEH";"23763";"Indonesia";"";"3.7382269";"96.8326832";"https://maps.google.com/?cid=0x0:0xf0079a9d432fdfc8"
"building materials";"Toko Bahan Bangunan";"Toko Jasa Misbah";"Jl. H Ilyas Blang Pidie No.19, Mata Ie, Kecamaten Blang Pidie, Kabupaten Aceh Barat Daya, Aceh 23763";"Mata Ie, Kecamaten Blang Pidie, Kabupaten Aceh Barat Daya";"ACEH";"23763";"Indonesia";" 085260120698";"3.7399016";"96.833596";"https://maps.google.com/?cid=0x0:0x858e03396076ece7"
"building materials";"Toko";"Toko Helindo Abadi";"Alue Sungai Pinang, Kec. Jeumpa, Kabupaten Aceh Barat Daya, Aceh 23764";"Kec. Jeumpa, Kabupaten Aceh Barat Daya";"ACEH";"23764";"Indonesia";"";"3.7760506";"96.8178029";"https://maps.google.com/?cid=0x0:0x36da571bc959c426"
"building materials";"Toko Bahan Bangunan";"UD. Cahaya Amar";"MW27+7H7, Jl. Meulaboh - Tapaktuan, Bineh Krueng, Kec. Tangan-Tangan, Kabupaten Aceh Barat Daya, Aceh 23762";"Jl. Meulaboh - Tapaktuan, Bineh Krueng, Kec. Tangan-Tangan, Kabupaten Aceh Barat Daya";"ACEH";"23762";"Indonesia";" 085260700553";"3.6506605";"96.9139111";"https://maps.google.com/?cid=0x0:0x218625d15ea31a07"
"building materials";"Jasa Tukang";"Surya Dunia Gypsum";"PRMV+XW9, Jl. Iskandar Muda, Geulumpang Payong, Kecamaten Blang Pidie, Kabupaten Aceh Barat Daya, Aceh 23763";"Jl. Iskandar Muda, Geulumpang Payong, Kecamaten Blang Pidie, Kabupaten Aceh Barat Daya";"ACEH";"23763";"Indonesia";" 085275586881";"3.7349212";"96.844871";"https://maps.google.com/?cid=0x0:0xa0f4bd9d545cf039"
"building materials";"Toko";"Toko Sinar Mulia";"PRQM+QJJ, Jl. H Ilyas Blang Pidie, Meudang Ara, Kecamaten Blang Pidie, Kabupaten Aceh Barat Daya, Aceh 23763";"Jl. H Ilyas Blang Pidie, Meudang Ara, Kecamaten Blang Pidie, Kabupaten Aceh Barat Daya";"ACEH";"23763";"Indonesia";" 085277334308";"3.7394531";"96.8340064";"https://maps.google.com/?cid=0x0:0x590cc39c23d8e103"
"building materials";"Toko Bahan Bangunan";"Karunia Bangunan. UD";"Jl. Pendidikan No.38, Mata Ie, Kecamaten Blang Pidie, Kabupaten Aceh Barat Daya, Aceh 23763";"Mata Ie, Kecamaten Blang Pidie, Kabupaten Aceh Barat Daya";"ACEH";"23763";"Indonesia";" 085277983221";"3.7398856";"96.8350671";"https://maps.google.com/?cid=0x0:0x9975a849799b93ce"
"building materials";"Toko Bahan Bangunan";"Sebab Jasa";"Jl. H. Ilyas No.2, Meudang Ara, Kecamaten Blang Pidie, Kabupaten Aceh Barat Daya, Aceh 23764";"Meudang Ara, Kecamaten Blang Pidie, Kabupaten Aceh Barat Daya";"ACEH";"23764";"Indonesia";" 085260673028";"3.7397521";"96.8336861";"https://maps.google.com/?cid=0x0:0xdb22429a34ca01f0"
"building materials";"Pusat Perbelanjaan";"Semangat Baru";"JL. H. Ilyas, Mata Ie, Blangpidie - Aceh Barat Daya, Kabupaten Aceh Barat Daya, Aceh 23763";"Mata Ie, Blangpidie - Aceh Barat Daya, Kabupaten Aceh Barat Daya";"ACEH";"23763";"Indonesia";" 081360025242";"3.75";"96.85";"https://maps.google.com/?cid=0x0:0xcaa0ceaa525639a1"
"building materials";"Toko Bahan Bangunan";"Toko Besi Cahaya Mutiara";"PRQP+WW9, Jl. Kesehatan, Kuta Tuha, Kecamaten Blang Pidie, Kabupaten Aceh Barat Daya, Aceh 23763";"Jl. Kesehatan, Kuta Tuha, Kecamaten Blang Pidie, Kabupaten Aceh Barat Daya";"ACEH";"23763";"Indonesia";"";"3.739781";"96.8373588";"https://maps.google.com/?cid=0x0:0x5677b19368d3bf3a"
"building materials";"Toko Bahan Bangunan";"Toko Paten Jaya";"JW8Q+384, Jl. Lintas Barat Sumatera, Kedai, Kec. Manggeng, Kabupaten Aceh Barat Daya, Aceh 23762";"Jl. Lintas Barat Sumatera, Kedai, Kec. Manggeng, Kabupaten Aceh Barat Daya";"ACEH";"23762";"Indonesia";"";"3.61514";"96.9383218";"https://maps.google.com/?cid=0x0:0xc5c9be9587ec9515"
"building materials";"Toko Bahan Bangunan";"Toko Mitra Abadi..";"JW9M+H78, Jl. Lintas Barat Sumatera, Paya, Kec. Manggeng, Kabupaten Aceh Barat Daya, Aceh 23762";"Jl. Lintas Barat Sumatera, Paya, Kec. Manggeng, Kabupaten Aceh Barat Daya";"ACEH";"23762";"Indonesia";"";"3.6189152";"96.9332159";"https://maps.google.com/?cid=0x0:0x4b1951aa1baa9e87"
"building materials";"Toko Bahan Bangunan";"Toko Paten Jaya";"JW8Q+384, Jl. Lintas Barat Sumatera, Kedai, Kec. Manggeng, Kabupaten Aceh Barat Daya, Aceh 23762";"Jl. Lintas Barat Sumatera, Kedai, Kec. Manggeng, Kabupaten Aceh Barat Daya";"ACEH";"23762";"Indonesia";"";"3.61514";"96.9383218";"https://maps.google.com/?cid=0x0:0xc5c9be9587ec9515"
"building materials";"Toko Bahan Bangunan";"Toko Mitra Abadi..";"JW9M+H78, Jl. Lintas Barat Sumatera, Paya, Kec. Manggeng, Kabupaten Aceh Barat Daya, Aceh 23762";"Jl. Lintas Barat Sumatera, Paya, Kec. Manggeng, Kabupaten Aceh Barat Daya";"ACEH";"23762";"Indonesia";"";"3.6189152";"96.9332159";"https://maps.google.com/?cid=0x0:0x4b1951aa1baa9e87"
"building materials";"building materials";"Manggeng";"Blang Manggeng, Kec. Manggeng, Kabupaten Aceh Barat Daya, Aceh";"Kabupaten Aceh Barat Daya, Aceh";"ACEH";"";"Indonesia";"";"3.60821";"96.9188";"https://maps.google.com/?cid=0x0:0x4039d80b220dbb0"
"building materials";"Toko Perlengkapan Rumah";"Toko Besi Fajar Indah";"H9F4+V46, Lamgugob, Kec. Syiah Kuala, Kota Banda Aceh, Aceh 24415";"Lamgugob, Kec. Syiah Kuala, Kota Banda Aceh";"ACEH";"24415";"Indonesia";" 085270888710";"5.574656";"95.3552553";"https://maps.google.com/?cid=0x0:0xd4453c2b77f6dce1"
"building materials";"Toko Bahan Bangunan";"Toko Jasa Misbah";"Jl. H Ilyas Blang Pidie No.19, Mata Ie, Kecamaten Blang Pidie, Kabupaten Aceh Barat Daya, Aceh 23763";"Mata Ie, Kecamaten Blang Pidie, Kabupaten Aceh Barat Daya";"ACEH";"23763";"Indonesia";" 085260120698";"3.7399016";"96.833596";"https://maps.google.com/?cid=0x0:0x858e03396076ece7"
"building materials";"building materials";"Susoh";"Padang Baru, Susoh, Kabupaten Aceh Barat Daya, Aceh";"Kabupaten Aceh Barat Daya, Aceh";"ACEH";"";"Indonesia";"";"3.728577";"96.812576";"https://maps.google.com/?cid=0x0:0x4039d80b220d460"
"building materials";"Toko Bahan Bangunan";"Sebab Jasa";"Jl. H. Ilyas No.2, Meudang Ara, Kecamaten Blang Pidie, Kabupaten Aceh Barat Daya, Aceh 23764";"Meudang Ara, Kecamaten Blang Pidie, Kabupaten Aceh Barat Daya";"ACEH";"23764";"Indonesia";" 085260673028";"3.7397521";"96.8336861";"https://maps.google.com/?cid=0x0:0xdb22429a34ca01f0"
"building materials";"Toko Bahan Bangunan";"Toko Alat Bangunan Rahmat Sarmita....";"PV3F+QQH, Lhang, Kec. Setia, Kabupaten Aceh Barat Daya, Aceh 23763";"Lhang, Kec. Setia, Kabupaten Aceh Barat Daya";"ACEH";"23763";"Indonesia";"";"3.7044338";"96.8744735";"https://maps.google.com/?cid=0x0:0xee8d92986ba7b7e3"
"building materials";"Toko";"TOKO BESI MEURANTEE JAYA.";"PRR2+W93, Ujung Padang, Susoh, Kabupaten Aceh Barat Daya, Aceh";"Kabupaten Aceh Barat Daya, Aceh";"ACEH";"";"Indonesia";"";"3.7422531";"96.8009219";"https://maps.google.com/?cid=0x0:0xe8c2bc491bc16cb2"
"building materials";"Toko";"Toko Helindo Abadi";"Alue Sungai Pinang, Kec. Jeumpa, Kabupaten Aceh Barat Daya, Aceh 23764";"Kec. Jeumpa, Kabupaten Aceh Barat Daya";"ACEH";"23764";"Indonesia";"";"3.7760506";"96.8178029";"https://maps.google.com/?cid=0x0:0x36da571bc959c426"
"building materials";"Toko Bahan Bangunan";"UD. Cahaya Amar";"MW27+7H7, Jl. Meulaboh - Tapaktuan, Bineh Krueng, Kec. Tangan-Tangan, Kabupaten Aceh Barat Daya, Aceh 23762";"Jl. Meulaboh - Tapaktuan, Bineh Krueng, Kec. Tangan-Tangan, Kabupaten Aceh Barat Daya";"ACEH";"23762";"Indonesia";" 085260700553";"3.6506605";"96.9139111";"https://maps.google.com/?cid=0x0:0x218625d15ea31a07"
"building materials";"Toko Bahan Bangunan";"UD. Sahabat Baru";"MW37+6FQ, Jl. Meulaboh - Tapaktuan, Adan, Kec. Tangan-Tangan, Kabupaten Aceh Barat Daya, Aceh 23762";"Jl. Meulaboh - Tapaktuan, Adan, Kec. Tangan-Tangan, Kabupaten Aceh Barat Daya";"ACEH";"23762";"Indonesia";" 085371796815";"3.6530769";"96.9137289";"https://maps.google.com/?cid=0x0:0x4e92bd9df5ae9851"
"building materials";"Toko Bahan Bangunan";"UD. PRATAMA BANGUNAN";"Jl. Lintas Barat Sumatera, Padang Sikabu, Kec. Kuala Batee, Kabupaten Aceh Barat Daya, Aceh 23766";"Padang Sikabu, Kec. Kuala Batee, Kabupaten Aceh Barat Daya";"ACEH";"23766";"Indonesia";"";"3.7950567";"96.7846455";"https://maps.google.com/?cid=0x0:0x814ce770be8d0537"
"building materials";"Toko";"Toko Sinar Mulia";"PRQM+QJJ, Jl. H Ilyas Blang Pidie, Meudang Ara, Kecamaten Blang Pidie, Kabupaten Aceh Barat Daya, Aceh 23763";"Jl. H Ilyas Blang Pidie, Meudang Ara, Kecamaten Blang Pidie, Kabupaten Aceh Barat Daya";"ACEH";"23763";"Indonesia";" 085277334308";"3.7394531";"96.8340064";"https://maps.google.com/?cid=0x0:0x590cc39c23d8e103"
"building materials";"Toko Bahan Bangunan";"TOKO SUBUR INDAH";"Jl. H Ilyas Blang Pidie No.73, Mata Ie, Kecamaten Blang Pidie, Kabupaten Aceh Barat Daya, Aceh 23763";"Mata Ie, Kecamaten Blang Pidie, Kabupaten Aceh Barat Daya";"ACEH";"23763";"Indonesia";" 085260705367";"3.7397177";"96.8347914";"https://maps.google.com/?cid=0x0:0xc8d372c602acb872"
"building materials";"Jasa Tukang";"Surya Dunia Gypsum";"PRMV+XW9, Jl. Iskandar Muda, Geulumpang Payong, Kecamaten Blang Pidie, Kabupaten Aceh Barat Daya, Aceh 23763";"Jl. Iskandar Muda, Geulumpang Payong, Kecamaten Blang Pidie, Kabupaten Aceh Barat Daya";"ACEH";"23763";"Indonesia";" 085275586881";"3.7349212";"96.844871";"https://maps.google.com/?cid=0x0:0xa0f4bd9d545cf039"
"building materials";"Toko Bahan Bangunan";"Gunung salak";"QQXF+QWP, Alue Padee, Kec. Kuala Batee, Kabupaten Aceh Barat Daya, Aceh 23765";"Alue Padee, Kec. Kuala Batee, Kabupaten Aceh Barat Daya";"ACEH";"23765";"Indonesia";"";"3.7994582";"96.7748298";"https://maps.google.com/?cid=0x0:0x9584116a811269ec"
"building materials";"Toko Bahan Bangunan";"USAHA DUK";"Jl. Bandara Sultan Iskandar Muda, Siron, Kec. Ingin Jaya, Kabupaten Aceh Besar, Aceh 24414";"Siron, Kec. Ingin Jaya, Kabupaten Aceh Besar";"ACEH";"24414";"Indonesia";"";"5.5116371";"95.3691818";"https://maps.google.com/?cid=0x0:0xff362b279e33fba3"
"building materials";"Toko Bahan Bangunan";"UD. PRATAMA BANGUNAN";"Jl. Lintas Barat Sumatera, Padang Sikabu, Kec. Kuala Batee, Kabupaten Aceh Barat Daya, Aceh 23766";"Padang Sikabu, Kec. Kuala Batee, Kabupaten Aceh Barat Daya";"ACEH";"23766";"Indonesia";"";"3.7950567";"96.7846455";"https://maps.google.com/?cid=0x0:0x814ce770be8d0537"
"building materials";"building materials";"Aceh 23766";"Kec. Babah Rot, Kabupaten Aceh Barat Daya, Aceh";"Kabupaten Aceh Barat Daya, Aceh";"ACEH";"";"Indonesia";"";"3.9000346";"96.6851982";"https://maps.google.com/?cid=0x0:0x4d19ceb29190eb17"
"building materials";"Toko Bahan Bangunan";"Gunung salak";"QQXF+QWP, Alue Padee, Kec. Kuala Batee, Kabupaten Aceh Barat Daya, Aceh 23765";"Alue Padee, Kec. Kuala Batee, Kabupaten Aceh Barat Daya";"ACEH";"23765";"Indonesia";"";"3.7994582";"96.7748298";"https://maps.google.com/?cid=0x0:0x9584116a811269ec"
"building materials";"Toko Bahan Bangunan";"UD BERKAH";"RQ49+RQQ, Kp. Tengah, Kec. Kuala Batee, Kabupaten Aceh Barat Daya, Aceh";"Kabupaten Aceh Barat Daya, Aceh";"ACEH";"";"Indonesia";"";"3.8070777";"96.7694752";"https://maps.google.com/?cid=0x0:0xd7964d9dfc884a32"
"building materials";"Toko Bahan Bangunan";"Toko sinar mulia aceh";"Pantee Rakyat, Kec. Babah Rot, Kabupaten Aceh Barat Daya, Aceh 23766";"Kec. Babah Rot, Kabupaten Aceh Barat Daya";"ACEH";"23766";"Indonesia";"";"3.9102449";"96.6745042";"https://maps.google.com/?cid=0x0:0xd0366ec109cee8cc"
"building materials";"Toko Bahan Bangunan";"Sebab Jasa";"Jl. H. Ilyas No.2, Meudang Ara, Kecamaten Blang Pidie, Kabupaten Aceh Barat Daya, Aceh 23764";"Meudang Ara, Kecamaten Blang Pidie, Kabupaten Aceh Barat Daya";"ACEH";"23764";"Indonesia";" 085260673028";"3.7397521";"96.8336861";"https://maps.google.com/?cid=0x0:0xdb22429a34ca01f0"
"building materials";"Toko bahan makanan";"UD. Aisyah";"VPCC+JX, Alue Jerjak, Kec. Babah Rot, Kabupaten Aceh Barat Daya, Aceh";"Kabupaten Aceh Barat Daya, Aceh";"ACEH";"";"Indonesia";" 081364240904";"3.8715182";"96.7224057";"https://maps.google.com/?cid=0x0:0xdee7af3ad3529c10"
"building materials";"building materials";"TB. BINA USAHA";"RQF6+262, Ps. Kuta Bahagia, Kec. Kuala Batee, Kabupaten Aceh Barat Daya, Aceh 23764";"Ps. Kuta Bahagia, Kec. Kuala Batee, Kabupaten Aceh Barat Daya";"ACEH";"23764";"Indonesia";"";"3.8225114";"96.760506";"https://maps.google.com/?cid=0x0:0x309f3f590c2ecc17"
"building materials";"Toko Kaca >>u0026 Cermin";"KULI ALUMINIUM SERVICE";"Jln Nasional Desa Alue Peunawa, Dusun, Alue Lhoek, Kec. Babah Rot, Kabupaten Aceh Barat Daya, Aceh 24251";"Dusun, Alue Lhoek, Kec. Babah Rot, Kabupaten Aceh Barat Daya";"ACEH";"24251";"Indonesia";" 085260952454";"3.8410071";"96.7468444";"https://maps.google.com/?cid=0x0:0xe0c81edf42d50059"
"building materials";"Toko";"Toko Helindo Abadi";"Alue Sungai Pinang, Kec. Jeumpa, Kabupaten Aceh Barat Daya, Aceh 23764";"Kec. Jeumpa, Kabupaten Aceh Barat Daya";"ACEH";"23764";"Indonesia";"";"3.7760506";"96.8178029";"https://maps.google.com/?cid=0x0:0x36da571bc959c426"
"building materials";"Toko Bahan Bangunan";"Toko Jasa Misbah";"Jl. H Ilyas Blang Pidie No.19, Mata Ie, Kecamaten Blang Pidie, Kabupaten Aceh Barat Daya, Aceh 23763";"Mata Ie, Kecamaten Blang Pidie, Kabupaten Aceh Barat Daya";"ACEH";"23763";"Indonesia";" 085260120698";"3.7399016";"96.833596";"https://maps.google.com/?cid=0x0:0x858e03396076ece7"
"building materials";"Toko Bahan Bangunan";"UD.SAHABAT SEJAHTERA TANI....";"XH36+2QW, Unnamed Road, Panton Bayu, Kec. Darul Makmur, Kabupaten Nagan Raya, Aceh 23662";"Unnamed Road, Panton Bayu, Kec. Darul Makmur, Kabupaten Nagan Raya";"ACEH";"23662";"Indonesia";" 082369398737";"3.95261";"96.561965";"https://maps.google.com/?cid=0x0:0xac17b67ca1f354a9"
"building materials";"Pemasok Bahan Bangunan";"Sagoe collection";"PRQM+73V, Jl. Selamat, Ps. Blang Pidie, Kecamaten Blang Pidie, Kabupaten Aceh Barat Daya, Aceh 23763";"Jl. Selamat, Ps. Blang Pidie, Kecamaten Blang Pidie, Kabupaten Aceh Barat Daya";"ACEH";"23763";"Indonesia";"";"3.7382269";"96.8326832";"https://maps.google.com/?cid=0x0:0xf0079a9d432fdfc8"
"building materials";"Toko bahan makanan";"UD. Aisyah";"VPCC+JX, Alue Jerjak, Kec. Babah Rot, Kabupaten Aceh Barat Daya, Aceh";"Kabupaten Aceh Barat Daya, Aceh";"ACEH";"";"Indonesia";" 081364240904";"3.8715182";"96.7224057";"https://maps.google.com/?cid=0x0:0xdee7af3ad3529c10"
"building materials";"building materials";"Ud. Jaya mandiri bangunan";"Alue jambee, Gn. Samarinda, Kec. Babah Rot, Kabupaten Aceh Barat Daya, Aceh 76114";"Gn. Samarinda, Kec. Babah Rot, Kabupaten Aceh Barat Daya";"ACEH";"76114";"Indonesia";" 082160468676";"3.9598386";"96.65698";"https://maps.google.com/?cid=0x0:0x85cb33a4cc739f26"
"building materials";"Toko Bahan Bangunan";"UD. PERINTIS";"VPF4+C2, Alue Jerjak, Kec. Babah Rot, Kabupaten Aceh Barat Daya, Aceh";"Kabupaten Aceh Barat Daya, Aceh";"ACEH";"";"Indonesia";"";"3.8733183";"96.7047183";"https://maps.google.com/?cid=0x0:0xb202495763ac22dc"
"building materials";"Toko Bahan Bangunan";"Sebab Jasa";"Jl. H. Ilyas No.2, Meudang Ara, Kecamaten Blang Pidie, Kabupaten Aceh Barat Daya, Aceh 23764";"Meudang Ara, Kecamaten Blang Pidie, Kabupaten Aceh Barat Daya";"ACEH";"23764";"Indonesia";" 085260673028";"3.7397521";"96.8336861";"https://maps.google.com/?cid=0x0:0xdb22429a34ca01f0"
"building materials";"building materials";"Kec. Setia";"Kabupaten Aceh Barat Daya, Aceh";"Kabupaten Aceh Barat Daya, Aceh";"ACEH";"";"Indonesia";"";"3.7078495";"96.8719767";"https://maps.google.com/?cid=0x0:0x34a354e1c2218e5f"
"building materials";"Toko Bahan Bangunan";"Toko Alat Bangunan Rahmat Sarmita....";"PV3F+QQH, Lhang, Kec. Setia, Kabupaten Aceh Barat Daya, Aceh 23763";"Lhang, Kec. Setia, Kabupaten Aceh Barat Daya";"ACEH";"23763";"Indonesia";"";"3.7044338";"96.8744735";"https://maps.google.com/?cid=0x0:0xee8d92986ba7b7e3"
"building materials";"Toko Bahan Bangunan";"Sumber Setia";"JVF2+Q23, Bale Atu, Kec. Lut Tawar, Kabupaten Aceh Tengah, Aceh 24519";"Bale Atu, Kec. Lut Tawar, Kabupaten Aceh Tengah";"ACEH";"24519";"Indonesia";" 082364674462";"4.6243912";"96.8500313";"https://maps.google.com/?cid=0x0:0x807a7be40545f85e"
"building materials";"Pusat Perbelanjaan";"Semangat Baru";"JL. H. Ilyas, Mata Ie, Blangpidie - Aceh Barat Daya, Kabupaten Aceh Barat Daya, Aceh 23763";"Mata Ie, Blangpidie - Aceh Barat Daya, Kabupaten Aceh Barat Daya";"ACEH";"23763";"Indonesia";" 081360025242";"3.75";"96.85";"https://maps.google.com/?cid=0x0:0xcaa0ceaa525639a1"
"building materials";"Jasa Tukang";"Surya Dunia Gypsum";"PRMV+XW9, Jl. Iskandar Muda, Geulumpang Payong, Kecamaten Blang Pidie, Kabupaten Aceh Barat Daya, Aceh 23763";"Jl. Iskandar Muda, Geulumpang Payong, Kecamaten Blang Pidie, Kabupaten Aceh Barat Daya";"ACEH";"23763";"Indonesia";" 085275586881";"3.7349212";"96.844871";"https://maps.google.com/?cid=0x0:0xa0f4bd9d545cf039"
"building materials";"building materials";"Aceh 23763";"Hutan Blangpidie, Kecamaten Blang Pidie, Kabupaten Aceh Barat Daya, Aceh";"Kabupaten Aceh Barat Daya, Aceh";"ACEH";"";"Indonesia";"";"3.8370991";"96.9638624";"https://maps.google.com/?cid=0x0:0xcddc5be33e66fecd"
"building materials";"Toko Bahan Bangunan";"Rezeki Kita Toko";"JL. H. Ilyas, Mata Ie, Blangpidie - Aceh Barat Daya, Kabupaten Aceh Barat Daya, Aceh 23763";"Mata Ie, Blangpidie - Aceh Barat Daya, Kabupaten Aceh Barat Daya";"ACEH";"23763";"Indonesia";" 085260269914";"3.75";"96.85";"https://maps.google.com/?cid=0x0:0x32717e98c09bb16d"
"building materials";"Toko Bahan Bangunan";"UD. PRATAMA BANGUNAN";"Jl. Lintas Barat Sumatera, Padang Sikabu, Kec. Kuala Batee, Kabupaten Aceh Barat Daya, Aceh 23766";"Padang Sikabu, Kec. Kuala Batee, Kabupaten Aceh Barat Daya";"ACEH";"23766";"Indonesia";"";"3.7950567";"96.7846455";"https://maps.google.com/?cid=0x0:0x814ce770be8d0537"
"building materials";"Toko Bahan Bangunan";"TB. Setia Negla Utama (SNU)";"9QQW+CJW, Jl. Salam, Sawah, Cimrutu, Kec. Patimuan, Kabupaten Cilacap, Jawa Tengah 53264";"Jl. Salam, Sawah, Cimrutu, Kec. Patimuan, Kabupaten Cilacap";"ACEH";"53264";"Indonesia";" 087738229316";"-7.6113841";"108.7965664";"https://maps.google.com/?cid=0x0:0xfe126d3712915d26"
"building materials";"Toko Bahan Bangunan";"Toko Bahan Bangunan TB. Setia";"Jl. Letjen Suprapto No.6, Brebes Tengah, Brebes, Kec. Brebes, Kabupaten Brebes, Jawa Tengah 52212";"Brebes Tengah, Brebes, Kec. Brebes, Kabupaten Brebes";"ACEH";"52212";"Indonesia";" 0283672884";"-6.8699953";"109.040141";"https://maps.google.com/?cid=0x0:0x885d19d2d11777f2"
"building materials";"Toko Bahan Bangunan";"TB. SETIA JAYA";"Jl. Semboja, Semboja, Kec. Pagerbarang, Kabupaten Tegal, Jawa Tengah 52462";"Semboja, Kec. Pagerbarang, Kabupaten Tegal";"ACEH";"52462";"Indonesia";"";"-7.024155";"109.0901317";"https://maps.google.com/?cid=0x0:0xeb42c312a9ab3389"
"building materials";"Toko Bahan Bangunan";"T. B. Material Setia";"Jl. Sisingamangaraja No.57, Setiamanah, Kec. Cimahi Tengah, Kota Cimahi, Jawa Barat 40524";"Setiamanah, Kec. Cimahi Tengah, Kota Cimahi";"ACEH";"40524";"Indonesia";" 0226650830";"-6.8769576";"107.5379735";"https://maps.google.com/?cid=0x0:0xeb286e92d54110cc"
"building materials";"building materials";"Aceh 23764";"Kabupaten Aceh Barat Daya, Aceh";"Kabupaten Aceh Barat Daya, Aceh";"ACEH";"";"Indonesia";"";"3.8585335";"96.8136642";"https://maps.google.com/?cid=0x0:0xffecff8e1cb94052"
"building materials";"Toko Bahan Bangunan";"Toko Jasa Misbah";"Jl. H Ilyas Blang Pidie No.19, Mata Ie, Kecamaten Blang Pidie, Kabupaten Aceh Barat Daya, Aceh 23763";"Mata Ie, Kecamaten Blang Pidie, Kabupaten Aceh Barat Daya";"ACEH";"23763";"Indonesia";" 085260120698";"3.7399016";"96.833596";"https://maps.google.com/?cid=0x0:0x858e03396076ece7"
"building materials";"Toko Bahan Bangunan";"Sebab Jasa";"Jl. H. Ilyas No.2, Meudang Ara, Kecamaten Blang Pidie, Kabupaten Aceh Barat Daya, Aceh 23764";"Meudang Ara, Kecamaten Blang Pidie, Kabupaten Aceh Barat Daya";"ACEH";"23764";"Indonesia";" 085260673028";"3.7397521";"96.8336861";"https://maps.google.com/?cid=0x0:0xdb22429a34ca01f0"
"building materials";"Toko Bahan Bangunan";"Fajar Jeumpa";"Jl. Medan - Banda Aceh No.9, Bireun Meunasah Capa, Kec. Kota Juang, Kabupaten Bireuen, Aceh 24261";"Bireun Meunasah Capa, Kec. Kota Juang, Kabupaten Bireuen";"ACEH";"24261";"Indonesia";" 0644323102";"5.2012691";"96.7029552";"https://maps.google.com/?cid=0x0:0xbadeef9bb2b5b4b2"
"building materials";"Toko Bahan Bangunan";"Toko Besi  Bangunan Subur Jaya";"6M4C+84F, Geulumpang Payong, Kec. Jeumpa, Kabupaten Bireuen, Aceh";"Kabupaten Bireuen, Aceh";"ACEH";"";"Indonesia";"";"5.206109";"96.6702485";"https://maps.google.com/?cid=0x0:0xf6b94e0596d517c2"
"building materials";"Toko Bahan Bangunan";"Toko Bangunan dan Listrik UMAR JAYA";"Cot Bada, Kec. Jeumpa, Kabupaten Bireuen, Aceh";"Kabupaten Bireuen, Aceh";"ACEH";"";"Indonesia";"";"5.2063046";"96.6485447";"https://maps.google.com/?cid=0x0:0xf0eb4058af2cc09b"
"building materials";"Toko Bahan Bangunan";"PT. Motive Mulia - Merah Putih Beton";"Blang Cot Baroh, Kec. Jeumpa, Kabupaten Bireuen, Aceh 24251";"Kec. Jeumpa, Kabupaten Bireuen";"ACEH";"24251";"Indonesia";" 081264390051";"5.2058085";"96.6741528";"https://maps.google.com/?cid=0x0:0x50d3294702e3edf5"
"building materials";"Toko Bahan Bangunan";"Faizal";"6M2J+CPQ, Cot Keutapang, Kec. Jeumpa, Kabupaten Bireuen, Aceh 24251";"Cot Keutapang, Kec. Jeumpa, Kabupaten Bireuen";"ACEH";"24251";"Indonesia";" 085359496804";"5.201091";"96.68186";"https://maps.google.com/?cid=0x0:0x6eaa116d0c09ceb9"
"building materials";"Toko Bahan Bangunan";"Hikmah Mulia";"6M2X+QH3, Bireun Meunasah Capa, Kec. Kota Juang, Kabupaten Bireuen, Aceh 24261";"Bireun Meunasah Capa, Kec. Kota Juang, Kabupaten Bireuen";"ACEH";"24261";"Indonesia";" 085276109270";"5.201877";"96.6989183";"https://maps.google.com/?cid=0x0:0x738f262ff2a7ca72"
"building materials";"Toko Bahan Bangunan";"JC";"6M3V+6QQ, Jl. Medan - Banda Aceh, Mns Blang, Kec. Kota Juang, Kabupaten Bireuen, Aceh 24261";"Jl. Medan - Banda Aceh, Mns Blang, Kec. Kota Juang, Kabupaten Bireuen";"ACEH";"24261";"Indonesia";" 085364052008";"5.2030919";"96.6944908";"https://maps.google.com/?cid=0x0:0x2151a088519df69e"
"building materials";"Toko Bahan Bangunan";"Toko bangunan CHALIS JAYA";"Kuala Jeumpa, Kec. Jeumpa, Kabupaten Bireuen, Aceh";"Kabupaten Bireuen, Aceh";"ACEH";"";"Indonesia";"";"5.2130503";"96.6537897";"https://maps.google.com/?cid=0x0:0xe12a20439a9ab045"
"building materials";"Toko Bahan Bangunan";"Hasel Geubina";"5PW3+Q2M, Jl. Raya Bireuen - Takengon, Bireun Meunasah Capa, Kec. Kota Juang, Kabupaten Bireuen, Aceh 24261";"Jl. Raya Bireuen - Takengon, Bireun Meunasah Capa, Kec. Kota Juang, Kabupaten Bireuen";"ACEH";"24261";"Indonesia";"";"5.196955";"96.7025551";"https://maps.google.com/?cid=0x0:0xcd2632af95f8771"
"building materials";"Toko Bahan Bangunan";"Israwati";"JL. Medan - Banda Aceh, No. 21, Seu Lembah, Jeumpa, Seuleumbah, Bireuen, Kabupaten Bireuen, Aceh 24251";"No. 21, Seu Lembah, Jeumpa, Seuleumbah, Bireuen, Kabupaten Bireuen";"ACEH";"24251";"Indonesia";" 085362459294";"5.1940616";"96.6758408";"https://maps.google.com/?cid=0x0:0xaec1b8b0146a8ef"
"building materials";"Toko Bahan Bangunan";"Yah";"JL. Utama No No.04, Geudong Alue, Kec. Kota Juang, Kabupaten Bireuen, Aceh";"Kabupaten Bireuen, Aceh";"ACEH";"";"Indonesia";" 085275125662";"5.2146169";"96.704686";"https://maps.google.com/?cid=0x0:0x6c91f534cc61e1fa"
"building materials";"building materials";"Aceh 24251";"Kabupaten Bireuen, Aceh";"Kabupaten Bireuen, Aceh";"ACEH";"";"Indonesia";"";"5.0881574";"96.642433";"https://maps.google.com/?cid=0x0:0x2d3a8ff5c08e4a15"
"building materials";"Toko Bahan Bangunan";"Fajar Jeumpa";"Jl. Medan - Banda Aceh No.9, Bireun Meunasah Capa, Kec. Kota Juang, Kabupaten Bireuen, Aceh 24261";"Bireun Meunasah Capa, Kec. Kota Juang, Kabupaten Bireuen";"ACEH";"24261";"Indonesia";" 0644323102";"5.2012691";"96.7029552";"https://maps.google.com/?cid=0x0:0xbadeef9bb2b5b4b2"
"building materials";"Toko Bahan Bangunan";"PT. Motive Mulia - Merah Putih Beton";"Blang Cot Baroh, Kec. Jeumpa, Kabupaten Bireuen, Aceh 24251";"Kec. Jeumpa, Kabupaten Bireuen";"ACEH";"24251";"Indonesia";" 081264390051";"5.2058085";"96.6741528";"https://maps.google.com/?cid=0x0:0x50d3294702e3edf5"
"building materials";"Toko Bahan Bangunan";"Sejahtera";"JL Bireuen - Takengon, Km. 2, Keude Juli, Juli, Juli Cot Mesjid, Bireuen, Kabupaten Bireuen, Aceh 24251";"Km. 2, Keude Juli, Juli, Juli Cot Mesjid, Bireuen, Kabupaten Bireuen";"ACEH";"24251";"Indonesia";" 085277551122";"5.1765338";"96.7038873";"https://maps.google.com/?cid=0x0:0x2127a6a4c373e164"
"building materials";"Toko Bahan Bangunan";"Toko Besi  Bangunan Subur Jaya";"6M4C+84F, Geulumpang Payong, Kec. Jeumpa, Kabupaten Bireuen, Aceh";"Kabupaten Bireuen, Aceh";"ACEH";"";"Indonesia";"";"5.206109";"96.6702485";"https://maps.google.com/?cid=0x0:0xf6b94e0596d517c2"
"building materials";"Toko Bahan Bangunan";"Hikmah Mulia";"6M2X+QH3, Bireun Meunasah Capa, Kec. Kota Juang, Kabupaten Bireuen, Aceh 24261";"Bireun Meunasah Capa, Kec. Kota Juang, Kabupaten Bireuen";"ACEH";"24261";"Indonesia";" 085276109270";"5.201877";"96.6989183";"https://maps.google.com/?cid=0x0:0x738f262ff2a7ca72"
"building materials";"Toko Bahan Bangunan";"JC";"6M3V+6QQ, Jl. Medan - Banda Aceh, Mns Blang, Kec. Kota Juang, Kabupaten Bireuen, Aceh 24261";"Jl. Medan - Banda Aceh, Mns Blang, Kec. Kota Juang, Kabupaten Bireuen";"ACEH";"24261";"Indonesia";" 085364052008";"5.2030919";"96.6944908";"https://maps.google.com/?cid=0x0:0x2151a088519df69e"
"building materials";"Toko Bahan Bangunan";"Faizal";"6M2J+CPQ, Cot Keutapang, Kec. Jeumpa, Kabupaten Bireuen, Aceh 24251";"Cot Keutapang, Kec. Jeumpa, Kabupaten Bireuen";"ACEH";"24251";"Indonesia";" 085359496804";"5.201091";"96.68186";"https://maps.google.com/?cid=0x0:0x6eaa116d0c09ceb9"
"building materials";"Toko Bahan Bangunan";"Toko Besi Sari Baru";"6M3J+J5H, Unnamed Road, Cot Keutapang, Kec. Jeumpa, Kabupaten Bireuen, Aceh";"Kabupaten Bireuen, Aceh";"ACEH";"";"Indonesia";"";"5.2040574";"96.6804709";"https://maps.google.com/?cid=0x0:0xf9d0f11096e6347c"
"building materials";"Toko Bahan Bangunan";"Batu Giling "jamaluddin"";"5PH6+M6J, Jl. Simpang Langa Gampong, Paseh, Juli, Bireuen, Paseh, Banda Aceh, Kabupaten Bireuen, Aceh 24261";"Jl. Simpang Langa Gampong, Paseh, Juli, Bireuen, Paseh, Banda Aceh, Kabupaten Bireuen";"ACEH";"24261";"Indonesia";" 085277487834";"5.179209";"96.710519";"https://maps.google.com/?cid=0x0:0x7454fc3b42bfaee4"
"building materials";"Toko Bahan Bangunan";"Toko Bangunan Mulia Baru Lengkap  murah";"6M3Q+RWM, Bireun Mns Reuleut, Kec. Kota Juang, Kabupaten Bireuen, Aceh";"Kabupaten Bireuen, Aceh";"ACEH";"";"Indonesia";" 082227323337";"5.2047714";"96.6893602";"https://maps.google.com/?cid=0x0:0xc931c465f596f32f"
"building materials";"Toko Bahan Bangunan";"Rezeki baru";"6M3Q+VMG, Bireun Mns Reuleut, Kec. Kota Juang, Kabupaten Bireuen, Aceh 24261";"Bireun Mns Reuleut, Kec. Kota Juang, Kabupaten Bireuen";"ACEH";"24261";"Indonesia";" 085294625930";"5.2046985";"96.6891958";"https://maps.google.com/?cid=0x0:0x42dac65ef51e726d"
"building materials";"Toko Bahan Bangunan";"surabaya";"Jl. Raya Bireuen - Takengon No.16, RW.Gampoeng, Juli Meunasah Jok, Kec. Juli, Kabupaten Bireuen, Aceh 24261";"RW.Gampoeng, Juli Meunasah Jok, Kec. Juli, Kabupaten Bireuen";"ACEH";"24261";"Indonesia";" 085277457773";"5.1813403";"96.70599";"https://maps.google.com/?cid=0x0:0xaa7f5348e9a7939f"
"building materials";"Toko Bahan Bangunan";"Multazam Hardware Store";"6P38+9V7, Geulanggang Teungoh, Kec. Kota Juang, Kabupaten Bireuen, Aceh";"Kabupaten Bireuen, Aceh";"ACEH";"";"Indonesia";" 085271838137";"5.2034125";"96.7171719";"https://maps.google.com/?cid=0x0:0x618162c733c0f905"
"building materials";"Toko Bahan Bangunan";"UD. Cahaya Amar";"MW27+7H7, Jl. Meulaboh - Tapaktuan, Bineh Krueng, Kec. Tangan-Tangan, Kabupaten Aceh Barat Daya, Aceh 23762";"Jl. Meulaboh - Tapaktuan, Bineh Krueng, Kec. Tangan-Tangan, Kabupaten Aceh Barat Daya";"ACEH";"23762";"Indonesia";" 085260700553";"3.6506605";"96.9139111";"https://maps.google.com/?cid=0x0:0x218625d15ea31a07"
"building materials";"building materials";"Kec. Lembah Sabil";"Kabupaten Aceh Barat Daya, Aceh";"Kabupaten Aceh Barat Daya, Aceh";"ACEH";"";"Indonesia";"";"3.589112";"96.9343064";"https://maps.google.com/?cid=0x0:0x47f212bb54114078"
"building materials";"Toko Bahan Bangunan";"UD. Sahabat Baru";"MW37+6FQ, Jl. Meulaboh - Tapaktuan, Adan, Kec. Tangan-Tangan, Kabupaten Aceh Barat Daya, Aceh 23762";"Jl. Meulaboh - Tapaktuan, Adan, Kec. Tangan-Tangan, Kabupaten Aceh Barat Daya";"ACEH";"23762";"Indonesia";" 085371796815";"3.6530769";"96.9137289";"https://maps.google.com/?cid=0x0:0x4e92bd9df5ae9851"
"building materials";"Toko Bahan Bangunan";"Toko Paten Jaya";"JW8Q+384, Jl. Lintas Barat Sumatera, Kedai, Kec. Manggeng, Kabupaten Aceh Barat Daya, Aceh 23762";"Jl. Lintas Barat Sumatera, Kedai, Kec. Manggeng, Kabupaten Aceh Barat Daya";"ACEH";"23762";"Indonesia";"";"3.61514";"96.9383218";"https://maps.google.com/?cid=0x0:0xc5c9be9587ec9515"
"hardware store";"hardware store";"Blang Pidie";"Kecamaten Blang Pidie, Kabupaten Aceh Barat Daya, Aceh";"Kabupaten Aceh Barat Daya, Aceh";"ACEH";"";"Indonesia";"";"3.7431465";"96.8326488";"https://maps.google.com/?cid=0x0:0x69794d7032be25ca"
"hardware store";"Toko";"MR. D.I.Y Blangpidie";"Jl. Iskandar Muda, Geulumpang Payong, Kecamaten Blang Pidie, Kabupaten Aceh Barat Daya, Aceh 23764";"Geulumpang Payong, Kecamaten Blang Pidie, Kabupaten Aceh Barat Daya";"ACEH";"23764";"Indonesia";"";"3.7386537";"96.8416238";"https://maps.google.com/?cid=0x0:0x4bc9bc343ce63a26"
"hardware store";"Toko Bahan Bangunan";"Sebab Jasa";"Jl. H. Ilyas No.2, Meudang Ara, Kecamaten Blang Pidie, Kabupaten Aceh Barat Daya, Aceh 23764";"Meudang Ara, Kecamaten Blang Pidie, Kabupaten Aceh Barat Daya";"ACEH";"23764";"Indonesia";" 085260673028";"3.7397521";"96.8336861";"https://maps.google.com/?cid=0x0:0xdb22429a34ca01f0"
"hardware store";"Toko Ponsel";"KAKA CELL";"PRQP+6MV, Jl. Kesehatan, Kuta Tuha, Kecamaten Blang Pidie, Kabupaten Aceh Barat Daya, Aceh 23674";"Jl. Kesehatan, Kuta Tuha, Kecamaten Blang Pidie, Kabupaten Aceh Barat Daya";"ACEH";"23674";"Indonesia";" 085277348888";"3.7381032";"96.8366648";"https://maps.google.com/?cid=0x0:0x89739c59a12f7e76"
"hardware store";"Masjid";"Toko Kedai Paya Bangunan";"Jl. Iskandar Muda Dusun Suka Damai, Kedai Paya, Kecamaten Blang Pidie, Kabupaten Aceh Barat Daya, Aceh 23764";"Kedai Paya, Kecamaten Blang Pidie, Kabupaten Aceh Barat Daya";"ACEH";"23764";"Indonesia";" 081331780732";"3.7285614";"96.8506411";"https://maps.google.com/?cid=0x0:0x77733276fc35c791"
"hardware store";"Pemasok Bahan Bangunan";"Sagoe collection";"PRQM+73V, Jl. Selamat, Ps. Blang Pidie, Kecamaten Blang Pidie, Kabupaten Aceh Barat Daya, Aceh 23763";"Jl. Selamat, Ps. Blang Pidie, Kecamaten Blang Pidie, Kabupaten Aceh Barat Daya";"ACEH";"23763";"Indonesia";"";"3.7382269";"96.8326832";"https://maps.google.com/?cid=0x0:0xf0079a9d432fdfc8"
"hardware store";"Toko Ponsel";"Indatu Celluler Shop";"Jl. Persada, Ps. Blang Pidie, Kecamaten Blang Pidie, Kabupaten Aceh Barat Daya, Aceh 23763";"Ps. Blang Pidie, Kecamaten Blang Pidie, Kabupaten Aceh Barat Daya";"ACEH";"23763";"Indonesia";" 085277777567";"3.7374531";"96.8322051";"https://maps.google.com/?cid=0x0:0x1e2641fccb5b11fa"
"hardware store";"Toko Ponsel";"Toko Ultra Ponsel";"PRPJ+HH3, Kedai Siblah, Kecamaten Blang Pidie, Kabupaten Aceh Barat Daya, Aceh 23763";"Kedai Siblah, Kecamaten Blang Pidie, Kabupaten Aceh Barat Daya";"ACEH";"23763";"Indonesia";" 085360537373";"3.7363805";"96.8314338";"https://maps.google.com/?cid=0x0:0x86f03f15b5ec7e64"
"hardware store";"Toko bahan makanan";"Toko Namita";"PRVM+CC7, Jalan Manyang, Meudang Ara, Kecamaten Blang Pidie, Kabupaten Aceh Barat Daya, Aceh 23763";"Jalan Manyang, Meudang Ara, Kecamaten Blang Pidie, Kabupaten Aceh Barat Daya";"ACEH";"23763";"Indonesia";" 085360645445";"3.7435497";"96.8335396";"https://maps.google.com/?cid=0x0:0x24164e8d10ee28f5"
"hardware store";"Toko Alat Tulis Kantor";"Toko Putri Sulung";"Ps. Blang Pidie, Kecamaten Blang Pidie, Kabupaten Aceh Barat Daya, Aceh 23763";"Kecamaten Blang Pidie, Kabupaten Aceh Barat Daya";"ACEH";"23763";"Indonesia";" 081388844450";"3.7375173";"96.8329698";"https://maps.google.com/?cid=0x0:0xabd4d3a00f98ac09"
"hardware store";"Toko Elektronik";"Toko Malaya";"PRQM+WR4, Meudang Ara, Kecamaten Blang Pidie, Kabupaten Aceh Barat Daya, Aceh 23763";"Meudang Ara, Kecamaten Blang Pidie, Kabupaten Aceh Barat Daya";"ACEH";"23763";"Indonesia";" 082211659158";"3.7397676";"96.834575";"https://maps.google.com/?cid=0x0:0x61bbc9c7bc5b55c3"
"hardware store";"Bengkel Mobil";"ABDYA MOTOR (Jual Sparepart Mobil)";"PRQM+V46, Kedai Siblah, Kecamaten Blang Pidie, Kabupaten Aceh Barat Daya, Aceh 23763";"Kedai Siblah, Kecamaten Blang Pidie, Kabupaten Aceh Barat Daya";"ACEH";"23763";"Indonesia";" 082362346446";"3.7396666";"96.8327598";"https://maps.google.com/?cid=0x0:0xf05cbdcbf74fa532"
"hardware store";"Toko";"Toko Irvan Blangpidie";"Jalan Pasar Baru, Meudang Ara, Kecamaten Blang Pidie, Kabupaten Aceh Barat Daya, Aceh 23763";"Meudang Ara, Kecamaten Blang Pidie, Kabupaten Aceh Barat Daya";"ACEH";"23763";"Indonesia";"";"3.7394079";"96.8343768";"https://maps.google.com/?cid=0x0:0x35f79f7c902ad8d7"
"hardware store";"Dealer Sepeda Motor";"Dealer HONDA CV PAYUNG AGUNG - Blang Pidie";"Jl. H Ilyas Blang Pidie No.53, Meudang Ara, Kecamaten Blang Pidie, Kabupaten Aceh Barat Daya, Aceh 23763";"Meudang Ara, Kecamaten Blang Pidie, Kabupaten Aceh Barat Daya";"ACEH";"23763";"Indonesia";" 082277307631";"3.7398379";"96.8342179";"https://maps.google.com/?cid=0x0:0x7d2c3abe93eb0ac"
"hardware store";"hardware store";"Aceh 23763";"Hutan Blangpidie, Kecamaten Blang Pidie, Kabupaten Aceh Barat Daya, Aceh";"Kabupaten Aceh Barat Daya, Aceh";"ACEH";"";"Indonesia";"";"3.8370991";"96.9638624";"https://maps.google.com/?cid=0x0:0xcddc5be33e66fecd"
"hardware store";"Toko Bahan Bangunan";"Sebab Jasa";"Jl. H. Ilyas No.2, Meudang Ara, Kecamaten Blang Pidie, Kabupaten Aceh Barat Daya, Aceh 23764";"Meudang Ara, Kecamaten Blang Pidie, Kabupaten Aceh Barat Daya";"ACEH";"23764";"Indonesia";" 085260673028";"3.7397521";"96.8336861";"https://maps.google.com/?cid=0x0:0xdb22429a34ca01f0"
"hardware store";"Toko";"MR. D.I.Y Blangpidie";"Jl. Iskandar Muda, Geulumpang Payong, Kecamaten Blang Pidie, Kabupaten Aceh Barat Daya, Aceh 23764";"Geulumpang Payong, Kecamaten Blang Pidie, Kabupaten Aceh Barat Daya";"ACEH";"23764";"Indonesia";"";"3.7386537";"96.8416238";"https://maps.google.com/?cid=0x0:0x4bc9bc343ce63a26"
"hardware store";"Pemasok Bahan Bangunan";"Sagoe collection";"PRQM+73V, Jl. Selamat, Ps. Blang Pidie, Kecamaten Blang Pidie, Kabupaten Aceh Barat Daya, Aceh 23763";"Jl. Selamat, Ps. Blang Pidie, Kecamaten Blang Pidie, Kabupaten Aceh Barat Daya";"ACEH";"23763";"Indonesia";"";"3.7382269";"96.8326832";"https://maps.google.com/?cid=0x0:0xf0079a9d432fdfc8"
"hardware store";"Toko Ponsel";"Indatu Celluler Shop";"Jl. Persada, Ps. Blang Pidie, Kecamaten Blang Pidie, Kabupaten Aceh Barat Daya, Aceh 23763";"Ps. Blang Pidie, Kecamaten Blang Pidie, Kabupaten Aceh Barat Daya";"ACEH";"23763";"Indonesia";" 085277777567";"3.7374531";"96.8322051";"https://maps.google.com/?cid=0x0:0x1e2641fccb5b11fa"
"hardware store";"Masjid";"Toko Kedai Paya Bangunan";"Jl. Iskandar Muda Dusun Suka Damai, Kedai Paya, Kecamaten Blang Pidie, Kabupaten Aceh Barat Daya, Aceh 23764";"Kedai Paya, Kecamaten Blang Pidie, Kabupaten Aceh Barat Daya";"ACEH";"23764";"Indonesia";" 081331780732";"3.7285614";"96.8506411";"https://maps.google.com/?cid=0x0:0x77733276fc35c791"
"hardware store";"Sekolah Dasar";"SD Negeri 2 Tangan Tangan";"MWF2+WC4, Suak Labu, Kec. Tangan-Tangan, Kabupaten Aceh Barat Daya, Aceh 23762";"Suak Labu, Kec. Tangan-Tangan, Kabupaten Aceh Barat Daya";"ACEH";"23762";"Indonesia";"";"3.6747546";"96.9010847";"https://maps.google.com/?cid=0x0:0x7c9ac13558afe63b"
"hardware store";"Sekolah Dasar";"SD Negeri 1 Tangan Tangan";"MW65+F64, Padang Bak Jeumpa, Kec. Tangan-Tangan, Kabupaten Aceh Barat Daya, Aceh 23762";"Padang Bak Jeumpa, Kec. Tangan-Tangan, Kabupaten Aceh Barat Daya";"ACEH";"23762";"Indonesia";"";"3.6611382";"96.9080762";"https://maps.google.com/?cid=0x0:0x7910e12ec006175"
"hardware store";"Pom bensin/SPBU";"PERTASHOP TANGAN-TANGAN";"MWC3+556, Suak Labu, Kec. Tangan-Tangan, Kabupaten Aceh Barat Daya, Aceh 23762";"Suak Labu, Kec. Tangan-Tangan, Kabupaten Aceh Barat Daya";"ACEH";"23762";"Indonesia";"";"3.6704123";"96.9028852";"https://maps.google.com/?cid=0x0:0x4ff38d47f610e088"
"hardware store";"Tukang Jahit";"Menjait";"MW39+GHM, Adan, Kec. Tangan-Tangan, Kabupaten Aceh Barat Daya, Aceh 23762";"Adan, Kec. Tangan-Tangan, Kabupaten Aceh Barat Daya";"ACEH";"23762";"Indonesia";" 082360146211";"3.6538358";"96.9189252";"https://maps.google.com/?cid=0x0:0x9cf0feec066bd95c"
"hardware store";"Toko Perlengkapan Rumah";"Tasya Gorden";"Jl. Sentral, Ps. Blang Pidie, Kecamaten Blang Pidie, Kabupaten Aceh Barat Daya, Aceh 23763";"Ps. Blang Pidie, Kecamaten Blang Pidie, Kabupaten Aceh Barat Daya";"ACEH";"23763";"Indonesia";" 085358508383";"3.737444";"96.8326601";"https://maps.google.com/?cid=0x0:0x83d9e15e2c197d58"
"hardware store";"Toko Bahan Bangunan";"TB. Arfaz Jaya Mandiri";"Jln. Meulaboh- Tapak tuan, Padang Sikabu, Kec. Kuala Batee, Kabupaten Aceh Barat Daya, Aceh 25537";"Padang Sikabu, Kec. Kuala Batee, Kabupaten Aceh Barat Daya";"ACEH";"25537";"Indonesia";" 085277729453";"3.7933139";"96.7874907";"https://maps.google.com/?cid=0x0:0x4f95f10c716f11d7"
"hardware store";"Toko Alat Tulis Kantor";"Toko Putri Sulung";"Ps. Blang Pidie, Kecamaten Blang Pidie, Kabupaten Aceh Barat Daya, Aceh 23763";"Kecamaten Blang Pidie, Kabupaten Aceh Barat Daya";"ACEH";"23763";"Indonesia";" 081388844450";"3.7375173";"96.8329698";"https://maps.google.com/?cid=0x0:0xabd4d3a00f98ac09"
"hardware store";"Bengkel Mobil";"ABDYA MOTOR (Jual Sparepart Mobil)";"PRQM+V46, Kedai Siblah, Kecamaten Blang Pidie, Kabupaten Aceh Barat Daya, Aceh 23763";"Kedai Siblah, Kecamaten Blang Pidie, Kabupaten Aceh Barat Daya";"ACEH";"23763";"Indonesia";" 082362346446";"3.7396666";"96.8327598";"https://maps.google.com/?cid=0x0:0xf05cbdcbf74fa532"
"hardware store";"hardware store";"Manggeng";"Blang Manggeng, Kec. Manggeng, Kabupaten Aceh Barat Daya, Aceh";"Kabupaten Aceh Barat Daya, Aceh";"ACEH";"";"Indonesia";"";"3.60821";"96.9188";"https://maps.google.com/?cid=0x0:0x4039d80b220dbb0"
"hardware store";"Toko Alat Tulis Kantor";"Photo Copy Adhel";"JW8P+4VX, Kedai, Kec. Manggeng, Kabupaten Aceh Barat Daya, Aceh 23762";"Kedai, Kec. Manggeng, Kabupaten Aceh Barat Daya";"ACEH";"23762";"Indonesia";"";"3.615367";"96.9372399";"https://maps.google.com/?cid=0x0:0x2684a55abf43cf1e"
"hardware store";"Toko Alat Tulis";"Photocopy Paradifa";"Jalan nasional Meulaboh-Tapaktuan, Kedai, Kec. Manggeng, Kabupaten Aceh Barat Daya, Aceh 23762";"Kedai, Kec. Manggeng, Kabupaten Aceh Barat Daya";"ACEH";"23762";"Indonesia";"";"3.6161105";"96.9360899";"https://maps.google.com/?cid=0x0:0x8ddacc860b636f9d"
"hardware store";"Toko Bahan Bangunan";"TOKO SUBUR INDAH";"Jl. H Ilyas Blang Pidie No.73, Mata Ie, Kecamaten Blang Pidie, Kabupaten Aceh Barat Daya, Aceh 23763";"Mata Ie, Kecamaten Blang Pidie, Kabupaten Aceh Barat Daya";"ACEH";"23763";"Indonesia";" 085260705367";"3.7397177";"96.8347914";"https://maps.google.com/?cid=0x0:0xc8d372c602acb872"
"hardware store";"Toko";"MR. D.I.Y Blangpidie";"Jl. Iskandar Muda, Geulumpang Payong, Kecamaten Blang Pidie, Kabupaten Aceh Barat Daya, Aceh 23764";"Geulumpang Payong, Kecamaten Blang Pidie, Kabupaten Aceh Barat Daya";"ACEH";"23764";"Indonesia";"";"3.7386537";"96.8416238";"https://maps.google.com/?cid=0x0:0x4bc9bc343ce63a26"
"hardware store";"Toko Bahan Bangunan";"UD. Hidup Baru (Aminuudin)";"C3R8+6PQ, Jl. Meulaboh - Tapaktuan, Labuhan Tarok, Kec. Meukek, Kabupaten Aceh Selatan, Aceh 23753";"Jl. Meulaboh - Tapaktuan, Labuhan Tarok, Kec. Meukek, Kabupaten Aceh Selatan";"ACEH";"23753";"Indonesia";"";"3.4405916";"97.0668617";"https://maps.google.com/?cid=0x0:0x8388325ee9632bcd"
"hardware store";"Tukang Jahit";"Menjait";"MW39+GHM, Adan, Kec. Tangan-Tangan, Kabupaten Aceh Barat Daya, Aceh 23762";"Adan, Kec. Tangan-Tangan, Kabupaten Aceh Barat Daya";"ACEH";"23762";"Indonesia";" 082360146211";"3.6538358";"96.9189252";"https://maps.google.com/?cid=0x0:0x9cf0feec066bd95c"
"hardware store";"Toko Alat Tulis";"Foto copy Warmanidar";"JW8P+CM4, Kedai, Kec. Manggeng, Kabupaten Aceh Barat Daya, Aceh 23762";"Kedai, Kec. Manggeng, Kabupaten Aceh Barat Daya";"ACEH";"23762";"Indonesia";"";"3.6159352";"96.9367467";"https://maps.google.com/?cid=0x0:0x9e00c3248286c61b"
"hardware store";"Toko Bahan Bangunan";"TB. Arfaz Jaya Mandiri";"Jln. Meulaboh- Tapak tuan, Padang Sikabu, Kec. Kuala Batee, Kabupaten Aceh Barat Daya, Aceh 25537";"Padang Sikabu, Kec. Kuala Batee, Kabupaten Aceh Barat Daya";"ACEH";"25537";"Indonesia";" 085277729453";"3.7933139";"96.7874907";"https://maps.google.com/?cid=0x0:0x4f95f10c716f11d7"
"hardware store";"hardware store";"UD. Nikmat Baru";"Gn. Cut, Kec. Tangan-Tangan, Kabupaten Aceh Barat Daya, Aceh 23762";"Kec. Tangan-Tangan, Kabupaten Aceh Barat Daya";"ACEH";"23762";"Indonesia";"";"3.6596819";"96.909576";"https://maps.google.com/?cid=0x0:0xd8888982a304bd86"
"hardware store";"Toko Bahan Bangunan";"Sebab Jasa";"Jl. H. Ilyas No.2, Meudang Ara, Kecamaten Blang Pidie, Kabupaten Aceh Barat Daya, Aceh 23764";"Meudang Ara, Kecamaten Blang Pidie, Kabupaten Aceh Barat Daya";"ACEH";"23764";"Indonesia";" 085260673028";"3.7397521";"96.8336861";"https://maps.google.com/?cid=0x0:0xdb22429a34ca01f0"
"hardware store";"hardware store";"Susoh";"Padang Baru, Susoh, Kabupaten Aceh Barat Daya, Aceh";"Kabupaten Aceh Barat Daya, Aceh";"ACEH";"";"Indonesia";"";"3.728577";"96.812576";"https://maps.google.com/?cid=0x0:0x4039d80b220d460"
"hardware store";"Dealer Sepeda Motor";"PT.Alfa Scorpii - Susoh";"Jln letkol bb jalal, Padang Baru, Susoh, Kabupaten Aceh Barat Daya, Aceh 12345";"Padang Baru, Susoh, Kabupaten Aceh Barat Daya";"ACEH";"12345";"Indonesia";" 082269220776";"3.7257187";"96.811775";"https://maps.google.com/?cid=0x0:0xba82da7240227d21"
"hardware store";"Pemasok Bahan Bangunan";"Sagoe collection";"PRQM+73V, Jl. Selamat, Ps. Blang Pidie, Kecamaten Blang Pidie, Kabupaten Aceh Barat Daya, Aceh 23763";"Jl. Selamat, Ps. Blang Pidie, Kecamaten Blang Pidie, Kabupaten Aceh Barat Daya";"ACEH";"23763";"Indonesia";"";"3.7382269";"96.8326832";"https://maps.google.com/?cid=0x0:0xf0079a9d432fdfc8"
"hardware store";"Toko Alat Tulis Kantor";"Toko Putri Sulung";"Ps. Blang Pidie, Kecamaten Blang Pidie, Kabupaten Aceh Barat Daya, Aceh 23763";"Kecamaten Blang Pidie, Kabupaten Aceh Barat Daya";"ACEH";"23763";"Indonesia";" 081388844450";"3.7375173";"96.8329698";"https://maps.google.com/?cid=0x0:0xabd4d3a00f98ac09"
"hardware store";"Toko";"MR. D.I.Y Blangpidie";"Jl. Iskandar Muda, Geulumpang Payong, Kecamaten Blang Pidie, Kabupaten Aceh Barat Daya, Aceh 23764";"Geulumpang Payong, Kecamaten Blang Pidie, Kabupaten Aceh Barat Daya";"ACEH";"23764";"Indonesia";"";"3.7386537";"96.8416238";"https://maps.google.com/?cid=0x0:0x4bc9bc343ce63a26"
"hardware store";"Toko";"UD. NOVIRA Fhotocopy";"Desa, Pantai Perak, Susoh, Kabupaten Aceh Barat Daya, Aceh 23765";"Pantai Perak, Susoh, Kabupaten Aceh Barat Daya";"ACEH";"23765";"Indonesia";" 085277755524";"3.7284599";"96.8256629";"https://maps.google.com/?cid=0x0:0xe28122607250b6df"
"hardware store";"Toko Bahan Bangunan";"TB. Arfaz Jaya Mandiri";"Jln. Meulaboh- Tapak tuan, Padang Sikabu, Kec. Kuala Batee, Kabupaten Aceh Barat Daya, Aceh 25537";"Padang Sikabu, Kec. Kuala Batee, Kabupaten Aceh Barat Daya";"ACEH";"25537";"Indonesia";" 085277729453";"3.7933139";"96.7874907";"https://maps.google.com/?cid=0x0:0x4f95f10c716f11d7"
"hardware store";"Bengkel Mobil";"ABDYA MOTOR (Jual Sparepart Mobil)";"PRQM+V46, Kedai Siblah, Kecamaten Blang Pidie, Kabupaten Aceh Barat Daya, Aceh 23763";"Kedai Siblah, Kecamaten Blang Pidie, Kabupaten Aceh Barat Daya";"ACEH";"23763";"Indonesia";" 082362346446";"3.7396666";"96.8327598";"https://maps.google.com/?cid=0x0:0xf05cbdcbf74fa532"
"hardware store";"Toko Perlengkapan Rumah";"Tasya Gorden";"Jl. Sentral, Ps. Blang Pidie, Kecamaten Blang Pidie, Kabupaten Aceh Barat Daya, Aceh 23763";"Ps. Blang Pidie, Kecamaten Blang Pidie, Kabupaten Aceh Barat Daya";"ACEH";"23763";"Indonesia";" 085358508383";"3.737444";"96.8326601";"https://maps.google.com/?cid=0x0:0x83d9e15e2c197d58"
"hardware store";"Masjid";"Toko Kedai Paya Bangunan";"Jl. Iskandar Muda Dusun Suka Damai, Kedai Paya, Kecamaten Blang Pidie, Kabupaten Aceh Barat Daya, Aceh 23764";"Kedai Paya, Kecamaten Blang Pidie, Kabupaten Aceh Barat Daya";"ACEH";"23764";"Indonesia";" 081331780732";"3.7285614";"96.8506411";"https://maps.google.com/?cid=0x0:0x77733276fc35c791"
"hardware store";"hardware store";"Aceh 23766";"Kec. Babah Rot, Kabupaten Aceh Barat Daya, Aceh";"Kabupaten Aceh Barat Daya, Aceh";"ACEH";"";"Indonesia";"";"3.9000346";"96.6851982";"https://maps.google.com/?cid=0x0:0x4d19ceb29190eb17"
"hardware store";"Toko Bahan Bangunan";"TB. Arfaz Jaya Mandiri";"Jln. Meulaboh- Tapak tuan, Padang Sikabu, Kec. Kuala Batee, Kabupaten Aceh Barat Daya, Aceh 25537";"Padang Sikabu, Kec. Kuala Batee, Kabupaten Aceh Barat Daya";"ACEH";"25537";"Indonesia";" 085277729453";"3.7933139";"96.7874907";"https://maps.google.com/?cid=0x0:0x4f95f10c716f11d7"
"hardware store";"Toko Bahan Bangunan";"Sebab Jasa";"Jl. H. Ilyas No.2, Meudang Ara, Kecamaten Blang Pidie, Kabupaten Aceh Barat Daya, Aceh 23764";"Meudang Ara, Kecamaten Blang Pidie, Kabupaten Aceh Barat Daya";"ACEH";"23764";"Indonesia";" 085260673028";"3.7397521";"96.8336861";"https://maps.google.com/?cid=0x0:0xdb22429a34ca01f0"
"hardware store";"hardware store";"Ud. Jaya mandiri bangunan";"Alue jambee, Gn. Samarinda, Kec. Babah Rot, Kabupaten Aceh Barat Daya, Aceh 76114";"Gn. Samarinda, Kec. Babah Rot, Kabupaten Aceh Barat Daya";"ACEH";"76114";"Indonesia";" 082160468676";"3.9598386";"96.65698";"https://maps.google.com/?cid=0x0:0x85cb33a4cc739f26"
"hardware store";"Toko Bahan Bangunan";"TOKO SUBUR INDAH";"Jl. H Ilyas Blang Pidie No.73, Mata Ie, Kecamaten Blang Pidie, Kabupaten Aceh Barat Daya, Aceh 23763";"Mata Ie, Kecamaten Blang Pidie, Kabupaten Aceh Barat Daya";"ACEH";"23763";"Indonesia";" 085260705367";"3.7397177";"96.8347914";"https://maps.google.com/?cid=0x0:0xc8d372c602acb872"
"hardware store";"hardware store";"Aceh 23767";"Kec. Babah Rot, Kabupaten Aceh Barat Daya, Aceh";"Kabupaten Aceh Barat Daya, Aceh";"ACEH";"";"Indonesia";"";"3.8500236";"96.6103778";"https://maps.google.com/?cid=0x0:0xdb51e75798ae0c5b"
"hardware store";"Toko Bahan Bangunan";"UD.SAHABAT SEJAHTERA TANI....";"XH36+2QW, Unnamed Road, Panton Bayu, Kec. Darul Makmur, Kabupaten Nagan Raya, Aceh 23662";"Unnamed Road, Panton Bayu, Kec. Darul Makmur, Kabupaten Nagan Raya";"ACEH";"23662";"Indonesia";" 082369398737";"3.95261";"96.561965";"https://maps.google.com/?cid=0x0:0xac17b67ca1f354a9"
"hardware store";"Toko Bahan Bangunan";"Toko sinar mulia aceh";"Pantee Rakyat, Kec. Babah Rot, Kabupaten Aceh Barat Daya, Aceh 23766";"Kec. Babah Rot, Kabupaten Aceh Barat Daya";"ACEH";"23766";"Indonesia";"";"3.9102449";"96.6745042";"https://maps.google.com/?cid=0x0:0xd0366ec109cee8cc"
"hardware store";"hardware store";"Ud. Jaya mandiri bangunan";"Alue jambee, Gn. Samarinda, Kec. Babah Rot, Kabupaten Aceh Barat Daya, Aceh 76114";"Gn. Samarinda, Kec. Babah Rot, Kabupaten Aceh Barat Daya";"ACEH";"76114";"Indonesia";" 082160468676";"3.9598386";"96.65698";"https://maps.google.com/?cid=0x0:0x85cb33a4cc739f26"
"hardware store";"Masjid";"Toko Kedai Paya Bangunan";"Jl. Iskandar Muda Dusun Suka Damai, Kedai Paya, Kecamaten Blang Pidie, Kabupaten Aceh Barat Daya, Aceh 23764";"Kedai Paya, Kecamaten Blang Pidie, Kabupaten Aceh Barat Daya";"ACEH";"23764";"Indonesia";" 081331780732";"3.7285614";"96.8506411";"https://maps.google.com/?cid=0x0:0x77733276fc35c791"
"hardware store";"Masjid";"Mesjid Kedai paya";"PRJW+XX9, Jl. Lintas Barat Sumatera, Kedai Paya, Kecamaten Blang Pidie, Kabupaten Aceh Barat Daya, Aceh 23763";"Jl. Lintas Barat Sumatera, Kedai Paya, Kecamaten Blang Pidie, Kabupaten Aceh Barat Daya";"ACEH";"23763";"Indonesia";"";"3.7325245";"96.8474678";"https://maps.google.com/?cid=0x0:0x5683968d7640308f"
"hardware store";"Toko Bahan Bangunan";"Heng Seng Hardware - Setia Taipan 2";"Seksyen U13, No 43, Jalan Setia U13/AT, Bandar Setia Alam, 40170 Shah Alam, Selangor, Malaysia";"Shah Alam";"ACEH";"40170";"Indonesia";" +60126203573";"3.1255585";"101.4679887";"https://maps.google.com/?cid=0x0:0xb1a07f81e4dfb39d"
"hardware store";"Toko Bahan Bangunan";"Setia jaya hardware  timber sdn bhd";"LOT 3170, Jalan Kundang BT 18, Kampung Setia, 48050 Kuang, Selangor, Malaysia";"Kuang";"ACEH";"48050";"Indonesia";" +60123510360";"3.238073";"101.5378778";"https://maps.google.com/?cid=0x0:0xdb17fd5ab7e5ace1"
"hardware store";"Toko Bahan Bangunan";"Kow Hock Hardware (Setia Indah)";"19, Jln Setia 4/12, Taman Setia Indah, 81100 Johor Bahru, Johor Darul Ta'zim, Malaysia";"Johor Bahru";"ACEH";"81100";"Indonesia";" +60168736638";"1.5741789";"103.7489988";"https://maps.google.com/?cid=0x0:0x37690173982dd81"
"hardware store";"Toko Bahan Bangunan";"KHT SETIA HARDWARE SDN BHD";"No 46-1,(GROUND FLOOR, 5A, Jln Ecohill 1, SETIA ECOHILL, 43500 Semenyih, Selangor, Malaysia";"Semenyih";"ACEH";"43500";"Indonesia";" +60149772338";"2.9263925";"101.8561096";"https://maps.google.com/?cid=0x0:0x10b3445bbb8ec352"
"hardware store";"Toko Bahan Bangunan";"Setia Maju Hardware";"11, Jalan Bendahara 1/2, Taman Bendahara, 45000 Kuala Selangor, Selangor, Malaysia";"Kuala Selangor";"ACEH";"45000";"Indonesia";" +60126991225";"3.3201773";"101.2688937";"https://maps.google.com/?cid=0x0:0xfa6a0fe45e4df3d"
"hardware store";"Distributor Baja";"Heng Seng Hardware - Taman Sri Muda";"2, Jalan Setia 25/65, Taman Sri Muda, 40400 Shah Alam, Selangor, Malaysia";"Shah Alam";"ACEH";"40400";"Indonesia";" +60129230573";"3.0305761";"101.537514";"https://maps.google.com/?cid=0x0:0x4ee36d224b2207c3"
"hardware store";"Minimarket";"Jeumpa Indah Toko";"Jl Manekro 4, Ujung Kalak, Meulaboh, Aceh, Kabupaten Aceh Barat, Aceh 23681";"Ujung Kalak, Meulaboh, Aceh, Kabupaten Aceh Barat";"ACEH";"23681";"Indonesia";" 065525462";"4.1437119";"96.1281351";"https://maps.google.com/?cid=0x0:0x6102abce6f440e62"
"hardware store";"Toko";"Jeumpa Shop";"Simpang, Layung, Kec. Bubon, Kabupaten Aceh Barat, Aceh 23652";"Layung, Kec. Bubon, Kabupaten Aceh Barat";"ACEH";"23652";"Indonesia";" 082167304987";"4.2997515";"96.0859051";"https://maps.google.com/?cid=0x0:0xa4c6870254697bf7"
"hardware store";"hardware store";"Aceh 24251";"Kabupaten Bireuen, Aceh";"Kabupaten Bireuen, Aceh";"ACEH";"";"Indonesia";"";"5.0881574";"96.642433";"https://maps.google.com/?cid=0x0:0x2d3a8ff5c08e4a15"
"hardware store";"Toko Bahan Bangunan";"Multazam Hardware Store";"6P38+9V7, Geulanggang Teungoh, Kec. Kota Juang, Kabupaten Bireuen, Aceh";"Kabupaten Bireuen, Aceh";"ACEH";"";"Indonesia";" 085271838137";"5.2034125";"96.7171719";"https://maps.google.com/?cid=0x0:0x618162c733c0f905"
"hardware store";"Toko Bahan Bangunan";"Fajar Jeumpa";"Jl. Medan - Banda Aceh No.9, Bireun Meunasah Capa, Kec. Kota Juang, Kabupaten Bireuen, Aceh 24261";"Bireun Meunasah Capa, Kec. Kota Juang, Kabupaten Bireuen";"ACEH";"24261";"Indonesia";" 0644323102";"5.2012691";"96.7029552";"https://maps.google.com/?cid=0x0:0xbadeef9bb2b5b4b2"
"hardware store";"Toko Bahan Bangunan";"Toko jasa MR";"titi rumbia, Jl. Medan Banda Aceh, Bireun Meunasah Capa, Kec. Kota Juang, Kabupaten Bireuen, Aceh 24252";"Jl. Medan Banda Aceh, Bireun Meunasah Capa, Kec. Kota Juang, Kabupaten Bireuen";"ACEH";"24252";"Indonesia";"";"5.2018938";"96.6985404";"https://maps.google.com/?cid=0x0:0xb3a146bee7383b0"
"hardware store";"Toko Bahan Bangunan";"JC";"6M3V+6QQ, Jl. Medan - Banda Aceh, Mns Blang, Kec. Kota Juang, Kabupaten Bireuen, Aceh 24261";"Jl. Medan - Banda Aceh, Mns Blang, Kec. Kota Juang, Kabupaten Bireuen";"ACEH";"24261";"Indonesia";" 085364052008";"5.2030919";"96.6944908";"https://maps.google.com/?cid=0x0:0x2151a088519df69e"
"hardware store";"Toko Bahan Bangunan";"Toko Besi Sari Baru";"6M3J+J5H, Unnamed Road, Cot Keutapang, Kec. Jeumpa, Kabupaten Bireuen, Aceh";"Kabupaten Bireuen, Aceh";"ACEH";"";"Indonesia";"";"5.2040574";"96.6804709";"https://maps.google.com/?cid=0x0:0xf9d0f11096e6347c"
"hardware store";"Toko Bahan Bangunan";"Toko Besi  Bangunan Subur Jaya";"6M4C+84F, Geulumpang Payong, Kec. Jeumpa, Kabupaten Bireuen, Aceh";"Kabupaten Bireuen, Aceh";"ACEH";"";"Indonesia";"";"5.206109";"96.6702485";"https://maps.google.com/?cid=0x0:0xf6b94e0596d517c2"
"hardware store";"Toko Bahan Bangunan";"TAMAN SARI SA";"Unnamed Road, Bireun Meunasah Capa, Kec. Kota Juang, Kabupaten Bireuen, Aceh 24261";"Bireun Meunasah Capa, Kec. Kota Juang, Kabupaten Bireuen";"ACEH";"24261";"Indonesia";" 08116700342";"5.2006629";"96.7021449";"https://maps.google.com/?cid=0x0:0xd20453b61826dd76"
"hardware store";"Toko Perabot Supermarket";"Perabot rakan sepakat";"Blang Cot Tunong, Kec. Jeumpa, Kabupaten Bireuen, Aceh";"Kabupaten Bireuen, Aceh";"ACEH";"";"Indonesia";" 085297073955";"5.2051231";"96.6767292";"https://maps.google.com/?cid=0x0:0x148e0678ac0d187f"
"hardware store";"Toko Bahan Bangunan";"Toko Farhan Jaya";"5P65+VHW, Juli Meunasah Teungoh, Kec. Juli, Kabupaten Bireuen, Aceh 24261";"Juli Meunasah Teungoh, Kec. Juli, Kabupaten Bireuen";"ACEH";"24261";"Indonesia";" 082385761579";"5.1622376";"96.7089588";"https://maps.google.com/?cid=0x0:0x48b156a7ffca2643"
"hardware store";"Toko Bahan Bangunan";"Toko Besi Sumber Jaya Jeunib";"5FQJ+G2G, Jl. Medan Banda Aceh, Pangkalan, Kec. Jeunieb, Kabupaten Bireuen, Aceh";"Kabupaten Bireuen, Aceh";"ACEH";"";"Indonesia";" 085371255217";"5.1888225";"96.4800851";"https://maps.google.com/?cid=0x0:0x98031ecff8a40506"
"hardware store";"Toko Perlengkapan Rumah";"MR D.I.Y";"Jl. Medan Banda Aceh No.1, Bireun Meunasah Blang, Kec. Kota Juang, Kabupaten Bireuen, Aceh 24261";"Bireun Meunasah Blang, Kec. Kota Juang, Kabupaten Bireuen";"ACEH";"24261";"Indonesia";"";"5.2027297";"96.6974773";"https://maps.google.com/?cid=0x0:0x310ca121ff688f43"
"hardware store";"Toko Bahan Bangunan";"One HARDWARE";"Jl. Moh. Jam No.99, Kp. Baru, Kec. Baiturrahman, Kota Banda Aceh, Aceh 23242";"Kp. Baru, Kec. Baiturrahman, Kota Banda Aceh";"ACEH";"23242";"Indonesia";" 085296375922";"5.5533946";"95.3143585";"https://maps.google.com/?cid=0x0:0x96558df6ca96ec5a"
"hardware store";"Toko Bahan Bangunan";"TOKO BESI NA USAHA";"SAMPING PUSKESMAS, JALAN, Buket Teukueh, Kec. Kota Juang, Kabupaten Bireuen, Aceh 24252";"JALAN, Buket Teukueh, Kec. Kota Juang, Kabupaten Bireuen";"ACEH";"24252";"Indonesia";" 082360116038";"5.1982473";"96.7232607";"https://maps.google.com/?cid=0x0:0xe0bf2a2a061e458f"
"hardware store";"hardware store";"Kec. Lembah Sabil";"Kabupaten Aceh Barat Daya, Aceh";"Kabupaten Aceh Barat Daya, Aceh";"ACEH";"";"Indonesia";"";"3.589112";"96.9343064";"https://maps.google.com/?cid=0x0:0x47f212bb54114078"
"hardware store";"Pusat Kesehatan Masyarakat";"Puskesmas Lembah Sabil";"HWWV+X34, Padang Kelele, Kec. Lembah Sabil, Kabupaten Aceh Barat Daya, Aceh 23762";"Padang Kelele, Kec. Lembah Sabil, Kabupaten Aceh Barat Daya";"ACEH";"23762";"Indonesia";"";"3.5973824";"96.9427086";"https://maps.google.com/?cid=0x0:0x85d63c0f448d6e2f"
"hardware store";"hardware store";"UD. Nikmat Baru";"Gn. Cut, Kec. Tangan-Tangan, Kabupaten Aceh Barat Daya, Aceh 23762";"Kec. Tangan-Tangan, Kabupaten Aceh Barat Daya";"ACEH";"23762";"Indonesia";"";"3.6596819";"96.909576";"https://maps.google.com/?cid=0x0:0xd8888982a304bd86"
"supermarket bangunan";"Toko";"Toko Sinar Mulia";"PRQM+QJJ, Jl. H Ilyas Blang Pidie, Meudang Ara, Kecamaten Blang Pidie, Kabupaten Aceh Barat Daya, Aceh 23763";"Jl. H Ilyas Blang Pidie, Meudang Ara, Kecamaten Blang Pidie, Kabupaten Aceh Barat Daya";"ACEH";"23763";"Indonesia";" 085277334308";"3.7394531";"96.8340064";"https://maps.google.com/?cid=0x0:0x590cc39c23d8e103"
"supermarket bangunan";"supermarket bangunan";"Aceh 23764";"Kabupaten Aceh Barat Daya, Aceh";"Kabupaten Aceh Barat Daya, Aceh";"ACEH";"";"Indonesia";"";"3.8585335";"96.8136642";"https://maps.google.com/?cid=0x0:0xffecff8e1cb94052"
"supermarket bangunan";"Pemasok Bahan Bangunan";"Sagoe collection";"PRQM+73V, Jl. Selamat, Ps. Blang Pidie, Kecamaten Blang Pidie, Kabupaten Aceh Barat Daya, Aceh 23763";"Jl. Selamat, Ps. Blang Pidie, Kecamaten Blang Pidie, Kabupaten Aceh Barat Daya";"ACEH";"23763";"Indonesia";"";"3.7382269";"96.8326832";"https://maps.google.com/?cid=0x0:0xf0079a9d432fdfc8"
"supermarket bangunan";"Toko Bahan Bangunan";"Toko Jasa Misbah";"Jl. H Ilyas Blang Pidie No.19, Mata Ie, Kecamaten Blang Pidie, Kabupaten Aceh Barat Daya, Aceh 23763";"Mata Ie, Kecamaten Blang Pidie, Kabupaten Aceh Barat Daya";"ACEH";"23763";"Indonesia";" 085260120698";"3.7399016";"96.833596";"https://maps.google.com/?cid=0x0:0x858e03396076ece7"
"supermarket bangunan";"Toko Bahan Bangunan";"Toko Sinar Waja";"Jl. H Ilyas Blang Pidie No.53, Meudang Ara, Kecamaten Blang Pidie, Kabupaten Aceh Barat Daya, Aceh 23763";"Meudang Ara, Kecamaten Blang Pidie, Kabupaten Aceh Barat Daya";"ACEH";"23763";"Indonesia";"";"3.7398443";"96.834204";"https://maps.google.com/?cid=0x0:0x8ccb7ee6a1bf4e4"
"supermarket bangunan";"Toko Bahan Bangunan";"Sebab Jasa";"Jl. H. Ilyas No.2, Meudang Ara, Kecamaten Blang Pidie, Kabupaten Aceh Barat Daya, Aceh 23764";"Meudang Ara, Kecamaten Blang Pidie, Kabupaten Aceh Barat Daya";"ACEH";"23764";"Indonesia";" 085260673028";"3.7397521";"96.8336861";"https://maps.google.com/?cid=0x0:0xdb22429a34ca01f0"
"supermarket bangunan";"Toko Bahan Bangunan";"Karunia Bangunan. UD";"Jl. Pendidikan No.38, Mata Ie, Kecamaten Blang Pidie, Kabupaten Aceh Barat Daya, Aceh 23763";"Mata Ie, Kecamaten Blang Pidie, Kabupaten Aceh Barat Daya";"ACEH";"23763";"Indonesia";" 085277983221";"3.7398856";"96.8350671";"https://maps.google.com/?cid=0x0:0x9975a849799b93ce"
"supermarket bangunan";"Toko";"Toko Helindo Abadi";"Alue Sungai Pinang, Kec. Jeumpa, Kabupaten Aceh Barat Daya, Aceh 23764";"Kec. Jeumpa, Kabupaten Aceh Barat Daya";"ACEH";"23764";"Indonesia";"";"3.7760506";"96.8178029";"https://maps.google.com/?cid=0x0:0x36da571bc959c426"
"supermarket bangunan";"Toko Bahan Bangunan";"TOKO SUBUR INDAH";"Jl. H Ilyas Blang Pidie No.73, Mata Ie, Kecamaten Blang Pidie, Kabupaten Aceh Barat Daya, Aceh 23763";"Mata Ie, Kecamaten Blang Pidie, Kabupaten Aceh Barat Daya";"ACEH";"23763";"Indonesia";" 085260705367";"3.7397177";"96.8347914";"https://maps.google.com/?cid=0x0:0xc8d372c602acb872"
"supermarket bangunan";"Masjid";"Toko Kedai Paya Bangunan";"Jl. Iskandar Muda Dusun Suka Damai, Kedai Paya, Kecamaten Blang Pidie, Kabupaten Aceh Barat Daya, Aceh 23764";"Kedai Paya, Kecamaten Blang Pidie, Kabupaten Aceh Barat Daya";"ACEH";"23764";"Indonesia";" 081331780732";"3.7285614";"96.8506411";"https://maps.google.com/?cid=0x0:0x77733276fc35c791"
"supermarket bangunan";"Toko Bahan Bangunan";"SEMANGAT BARU";"PRQM+WQF, Meudang Ara, Kecamaten Blang Pidie, Kabupaten Aceh Barat Daya, Aceh 23763";"Meudang Ara, Kecamaten Blang Pidie, Kabupaten Aceh Barat Daya";"ACEH";"23763";"Indonesia";" 085359853850";"3.7398078";"96.8344221";"https://maps.google.com/?cid=0x0:0x7abdf549af83f54d"
"supermarket bangunan";"Toko Bahan Bangunan";"Toko Alat Bangunan Rahmat Sarmita....";"PV3F+QQH, Lhang, Kec. Setia, Kabupaten Aceh Barat Daya, Aceh 23763";"Lhang, Kec. Setia, Kabupaten Aceh Barat Daya";"ACEH";"23763";"Indonesia";"";"3.7044338";"96.8744735";"https://maps.google.com/?cid=0x0:0xee8d92986ba7b7e3"
"supermarket bangunan";"Toko Bahan Bangunan";"UD. PRATAMA BANGUNAN";"Jl. Lintas Barat Sumatera, Padang Sikabu, Kec. Kuala Batee, Kabupaten Aceh Barat Daya, Aceh 23766";"Padang Sikabu, Kec. Kuala Batee, Kabupaten Aceh Barat Daya";"ACEH";"23766";"Indonesia";"";"3.7950567";"96.7846455";"https://maps.google.com/?cid=0x0:0x814ce770be8d0537"
"supermarket bangunan";"Toko Bahan Bangunan";"Toko Besi Cahaya Mutiara";"PRQP+WW9, Jl. Kesehatan, Kuta Tuha, Kecamaten Blang Pidie, Kabupaten Aceh Barat Daya, Aceh 23763";"Jl. Kesehatan, Kuta Tuha, Kecamaten Blang Pidie, Kabupaten Aceh Barat Daya";"ACEH";"23763";"Indonesia";"";"3.739781";"96.8373588";"https://maps.google.com/?cid=0x0:0x5677b19368d3bf3a"
"supermarket bangunan";"supermarket bangunan";"Aceh 23763";"Hutan Blangpidie, Kecamaten Blang Pidie, Kabupaten Aceh Barat Daya, Aceh";"Kabupaten Aceh Barat Daya, Aceh";"ACEH";"";"Indonesia";"";"3.8370991";"96.9638624";"https://maps.google.com/?cid=0x0:0xcddc5be33e66fecd"
"supermarket bangunan";"Toko Bahan Bangunan";"Toko Alat Bangunan Rahmat Sarmita....";"PV3F+QQH, Lhang, Kec. Setia, Kabupaten Aceh Barat Daya, Aceh 23763";"Lhang, Kec. Setia, Kabupaten Aceh Barat Daya";"ACEH";"23763";"Indonesia";"";"3.7044338";"96.8744735";"https://maps.google.com/?cid=0x0:0xee8d92986ba7b7e3"
"supermarket bangunan";"Toko Bahan Bangunan";"Toko Jasa Misbah";"Jl. H Ilyas Blang Pidie No.19, Mata Ie, Kecamaten Blang Pidie, Kabupaten Aceh Barat Daya, Aceh 23763";"Mata Ie, Kecamaten Blang Pidie, Kabupaten Aceh Barat Daya";"ACEH";"23763";"Indonesia";" 085260120698";"3.7399016";"96.833596";"https://maps.google.com/?cid=0x0:0x858e03396076ece7"
"supermarket bangunan";"Toko Bahan Bangunan";"UD. Cahaya Amar";"MW27+7H7, Jl. Meulaboh - Tapaktuan, Bineh Krueng, Kec. Tangan-Tangan, Kabupaten Aceh Barat Daya, Aceh 23762";"Jl. Meulaboh - Tapaktuan, Bineh Krueng, Kec. Tangan-Tangan, Kabupaten Aceh Barat Daya";"ACEH";"23762";"Indonesia";" 085260700553";"3.6506605";"96.9139111";"https://maps.google.com/?cid=0x0:0x218625d15ea31a07"
"supermarket bangunan";"Toko Bahan Bangunan";"UD. Sahabat Baru";"MW37+6FQ, Jl. Meulaboh - Tapaktuan, Adan, Kec. Tangan-Tangan, Kabupaten Aceh Barat Daya, Aceh 23762";"Jl. Meulaboh - Tapaktuan, Adan, Kec. Tangan-Tangan, Kabupaten Aceh Barat Daya";"ACEH";"23762";"Indonesia";" 085371796815";"3.6530769";"96.9137289";"https://maps.google.com/?cid=0x0:0x4e92bd9df5ae9851"
"supermarket bangunan";"Toko";"Toko Sinar Mulia";"PRQM+QJJ, Jl. H Ilyas Blang Pidie, Meudang Ara, Kecamaten Blang Pidie, Kabupaten Aceh Barat Daya, Aceh 23763";"Jl. H Ilyas Blang Pidie, Meudang Ara, Kecamaten Blang Pidie, Kabupaten Aceh Barat Daya";"ACEH";"23763";"Indonesia";" 085277334308";"3.7394531";"96.8340064";"https://maps.google.com/?cid=0x0:0x590cc39c23d8e103"
"supermarket bangunan";"Toko Bahan Bangunan";"Toko Sinar Waja";"Jl. H Ilyas Blang Pidie No.53, Meudang Ara, Kecamaten Blang Pidie, Kabupaten Aceh Barat Daya, Aceh 23763";"Meudang Ara, Kecamaten Blang Pidie, Kabupaten Aceh Barat Daya";"ACEH";"23763";"Indonesia";"";"3.7398443";"96.834204";"https://maps.google.com/?cid=0x0:0x8ccb7ee6a1bf4e4"
"supermarket bangunan";"Toko Bahan Bangunan";"toko bahan bangunan her";"RQ97+4G3, Blang Makmur, Kec. Kuala Batee, Kabupaten Aceh Barat Daya, Aceh 23764";"Blang Makmur, Kec. Kuala Batee, Kabupaten Aceh Barat Daya";"ACEH";"23764";"Indonesia";"";"3.8177648";"96.763799";"https://maps.google.com/?cid=0x0:0x1d4451bcc2d5b818"
"supermarket bangunan";"Toko Bahan Bangunan";"TOKO SUBUR INDAH";"Jl. H Ilyas Blang Pidie No.73, Mata Ie, Kecamaten Blang Pidie, Kabupaten Aceh Barat Daya, Aceh 23763";"Mata Ie, Kecamaten Blang Pidie, Kabupaten Aceh Barat Daya";"ACEH";"23763";"Indonesia";" 085260705367";"3.7397177";"96.8347914";"https://maps.google.com/?cid=0x0:0xc8d372c602acb872"
"supermarket bangunan";"Toko";"Toko Helindo Abadi";"Alue Sungai Pinang, Kec. Jeumpa, Kabupaten Aceh Barat Daya, Aceh 23764";"Kec. Jeumpa, Kabupaten Aceh Barat Daya";"ACEH";"23764";"Indonesia";"";"3.7760506";"96.8178029";"https://maps.google.com/?cid=0x0:0x36da571bc959c426"
"supermarket bangunan";"Masjid";"Toko Kedai Paya Bangunan";"Jl. Iskandar Muda Dusun Suka Damai, Kedai Paya, Kecamaten Blang Pidie, Kabupaten Aceh Barat Daya, Aceh 23764";"Kedai Paya, Kecamaten Blang Pidie, Kabupaten Aceh Barat Daya";"ACEH";"23764";"Indonesia";" 081331780732";"3.7285614";"96.8506411";"https://maps.google.com/?cid=0x0:0x77733276fc35c791"
"supermarket bangunan";"Toko Bahan Bangunan";"Sebab Jasa";"Jl. H. Ilyas No.2, Meudang Ara, Kecamaten Blang Pidie, Kabupaten Aceh Barat Daya, Aceh 23764";"Meudang Ara, Kecamaten Blang Pidie, Kabupaten Aceh Barat Daya";"ACEH";"23764";"Indonesia";" 085260673028";"3.7397521";"96.8336861";"https://maps.google.com/?cid=0x0:0xdb22429a34ca01f0"
"supermarket bangunan";"Toko Bahan Bangunan";"Karunia Bangunan. UD";"Jl. Pendidikan No.38, Mata Ie, Kecamaten Blang Pidie, Kabupaten Aceh Barat Daya, Aceh 23763";"Mata Ie, Kecamaten Blang Pidie, Kabupaten Aceh Barat Daya";"ACEH";"23763";"Indonesia";" 085277983221";"3.7398856";"96.8350671";"https://maps.google.com/?cid=0x0:0x9975a849799b93ce"
"supermarket bangunan";"Toko Bahan Bangunan";"TOKO CAT CAHAYA WARNA";"Jl. Iskandar Muda, Geulumpang Payong, Kecamaten Blang Pidie, Kabupaten Aceh Barat Daya, Aceh 23763";"Geulumpang Payong, Kecamaten Blang Pidie, Kabupaten Aceh Barat Daya";"ACEH";"23763";"Indonesia";" 085276109976";"3.7397295";"96.8398145";"https://maps.google.com/?cid=0x0:0x9432f4a79ea8ce4a"
"supermarket bangunan";"Toko Bahan Bangunan";"Toko Paten Jaya";"JW8Q+384, Jl. Lintas Barat Sumatera, Kedai, Kec. Manggeng, Kabupaten Aceh Barat Daya, Aceh 23762";"Jl. Lintas Barat Sumatera, Kedai, Kec. Manggeng, Kabupaten Aceh Barat Daya";"ACEH";"23762";"Indonesia";"";"3.61514";"96.9383218";"https://maps.google.com/?cid=0x0:0xc5c9be9587ec9515"
"supermarket bangunan";"supermarket bangunan";"Manggeng";"Blang Manggeng, Kec. Manggeng, Kabupaten Aceh Barat Daya, Aceh";"Kabupaten Aceh Barat Daya, Aceh";"ACEH";"";"Indonesia";"";"3.60821";"96.9188";"https://maps.google.com/?cid=0x0:0x4039d80b220dbb0"
"supermarket bangunan";"Toko Bahan Bangunan";"Toko Mitra Abadi..";"JW9M+H78, Jl. Lintas Barat Sumatera, Paya, Kec. Manggeng, Kabupaten Aceh Barat Daya, Aceh 23762";"Jl. Lintas Barat Sumatera, Paya, Kec. Manggeng, Kabupaten Aceh Barat Daya";"ACEH";"23762";"Indonesia";"";"3.6189152";"96.9332159";"https://maps.google.com/?cid=0x0:0x4b1951aa1baa9e87"
"supermarket bangunan";"Toko Bahan Bangunan";"Toko Alat Bangunan Rahmat Sarmita....";"PV3F+QQH, Lhang, Kec. Setia, Kabupaten Aceh Barat Daya, Aceh 23763";"Lhang, Kec. Setia, Kabupaten Aceh Barat Daya";"ACEH";"23763";"Indonesia";"";"3.7044338";"96.8744735";"https://maps.google.com/?cid=0x0:0xee8d92986ba7b7e3"
"supermarket bangunan";"Toko Alat Listrik";"UD Naguna";"JW8P+J94, Kedai, Kec. Manggeng, Kabupaten Aceh Barat Daya, Aceh 23762";"Kedai, Kec. Manggeng, Kabupaten Aceh Barat Daya";"ACEH";"23762";"Indonesia";"";"3.616504";"96.9359438";"https://maps.google.com/?cid=0x0:0xda2286eebf0f7152"
"supermarket bangunan";"Pasar Petani";"Pasar Murah Manggeng";"JW8P+5R9, Kedai, Kec. Manggeng, Kabupaten Aceh Barat Daya, Aceh 23762";"Kedai, Kec. Manggeng, Kabupaten Aceh Barat Daya";"ACEH";"23762";"Indonesia";"";"3.6154195";"96.9371016";"https://maps.google.com/?cid=0x0:0xd822b0b9d9bb2611"
"supermarket bangunan";"Toko Perlengkapan Rumah";"Sepermarket Bahan Bangunan Asia Niaga";"Jl. Jenderal Ahmad Yani No.123, Blang Sinibong, Kec. Langsa Kota, Kota Langsa, Aceh 24375";"Blang Sinibong, Kec. Langsa Kota, Kota Langsa";"ACEH";"24375";"Indonesia";" 08116700155";"4.4725893";"97.9756602";"https://maps.google.com/?cid=0x0:0xbf87768a6495f87a"
"supermarket bangunan";"Pusat Kesenian";"Gedung Kesenian Lama Manggeng";"JW8M+WG9, Kedai, Kec. Manggeng, Kabupaten Aceh Barat Daya, Aceh 23762";"Kedai, Kec. Manggeng, Kabupaten Aceh Barat Daya";"ACEH";"23762";"Indonesia";"";"3.6172883";"96.9338441";"https://maps.google.com/?cid=0x0:0xf9047cd9c788c699"
"supermarket bangunan";"Toko Bahan Bangunan";"toko bahan bangunan her";"RQ97+4G3, Blang Makmur, Kec. Kuala Batee, Kabupaten Aceh Barat Daya, Aceh 23764";"Blang Makmur, Kec. Kuala Batee, Kabupaten Aceh Barat Daya";"ACEH";"23764";"Indonesia";"";"3.8177648";"96.763799";"https://maps.google.com/?cid=0x0:0x1d4451bcc2d5b818"
"supermarket bangunan";"Toko Bahan Bangunan";"Toko Jasa Misbah";"Jl. H Ilyas Blang Pidie No.19, Mata Ie, Kecamaten Blang Pidie, Kabupaten Aceh Barat Daya, Aceh 23763";"Mata Ie, Kecamaten Blang Pidie, Kabupaten Aceh Barat Daya";"ACEH";"23763";"Indonesia";" 085260120698";"3.7399016";"96.833596";"https://maps.google.com/?cid=0x0:0x858e03396076ece7"
"supermarket bangunan";"Toko Bahan Bangunan";"UD. Cahaya Amar";"MW27+7H7, Jl. Meulaboh - Tapaktuan, Bineh Krueng, Kec. Tangan-Tangan, Kabupaten Aceh Barat Daya, Aceh 23762";"Jl. Meulaboh - Tapaktuan, Bineh Krueng, Kec. Tangan-Tangan, Kabupaten Aceh Barat Daya";"ACEH";"23762";"Indonesia";" 085260700553";"3.6506605";"96.9139111";"https://maps.google.com/?cid=0x0:0x218625d15ea31a07"
"supermarket bangunan";"Toko Bahan Bangunan";"UD. Sahabat Baru";"MW37+6FQ, Jl. Meulaboh - Tapaktuan, Adan, Kec. Tangan-Tangan, Kabupaten Aceh Barat Daya, Aceh 23762";"Jl. Meulaboh - Tapaktuan, Adan, Kec. Tangan-Tangan, Kabupaten Aceh Barat Daya";"ACEH";"23762";"Indonesia";" 085371796815";"3.6530769";"96.9137289";"https://maps.google.com/?cid=0x0:0x4e92bd9df5ae9851"
"supermarket bangunan";"supermarket bangunan";"Susoh";"Padang Baru, Susoh, Kabupaten Aceh Barat Daya, Aceh";"Kabupaten Aceh Barat Daya, Aceh";"ACEH";"";"Indonesia";"";"3.728577";"96.812576";"https://maps.google.com/?cid=0x0:0x4039d80b220d460"
"supermarket bangunan";"Toko Bahan Bangunan";"toko bahan bangunan her";"RQ97+4G3, Blang Makmur, Kec. Kuala Batee, Kabupaten Aceh Barat Daya, Aceh 23764";"Blang Makmur, Kec. Kuala Batee, Kabupaten Aceh Barat Daya";"ACEH";"23764";"Indonesia";"";"3.8177648";"96.763799";"https://maps.google.com/?cid=0x0:0x1d4451bcc2d5b818"
"supermarket bangunan";"Toko Bahan Bangunan";"Sebab Jasa";"Jl. H. Ilyas No.2, Meudang Ara, Kecamaten Blang Pidie, Kabupaten Aceh Barat Daya, Aceh 23764";"Meudang Ara, Kecamaten Blang Pidie, Kabupaten Aceh Barat Daya";"ACEH";"23764";"Indonesia";" 085260673028";"3.7397521";"96.8336861";"https://maps.google.com/?cid=0x0:0xdb22429a34ca01f0"
"supermarket bangunan";"Toko Bahan Bangunan";"TOKO BESI BINTANG BANGUNAN";"Jl. Pocut Baren No.29, Keuramat, Kec. Kuta Alam, Kota Banda Aceh, Aceh 23126";"Keuramat, Kec. Kuta Alam, Kota Banda Aceh";"ACEH";"23126";"Indonesia";" 081360031288";"5.5617508";"95.3240203";"https://maps.google.com/?cid=0x0:0xa98c67e001462b53"
"supermarket bangunan";"Toko Perlengkapan Rumah";"Sepermarket Bahan Bangunan Asia Niaga";"Jl. Jenderal Ahmad Yani No.123, Blang Sinibong, Kec. Langsa Kota, Kota Langsa, Aceh 24375";"Blang Sinibong, Kec. Langsa Kota, Kota Langsa";"ACEH";"24375";"Indonesia";" 08116700155";"4.4725893";"97.9756602";"https://maps.google.com/?cid=0x0:0xbf87768a6495f87a"
"supermarket bangunan";"Toko Bahan Bangunan";"Toko Bangunan Sahabat Baru";"Jl. Teuku Iskandar No.2, Lamglumpang, Kec. Ulee Kareng, Kota Banda Aceh, Aceh 23127";"Lamglumpang, Kec. Ulee Kareng, Kota Banda Aceh";"ACEH";"23127";"Indonesia";" 082276639990";"5.5497336";"95.3587896";"https://maps.google.com/?cid=0x0:0xed8d0ee3ba9bd01b"
"supermarket bangunan";"Toko Bahan Bangunan";"Toko Bangunan HIJRAH";"NO WA OI54O54249, Jln Terminal No.1 No.2, Jantho Makmur, Kec. Kota Jantho, Kabupaten Aceh Besar, Aceh 23951";"Jln Terminal No.1 No.2, Jantho Makmur, Kec. Kota Jantho, Kabupaten Aceh Besar";"ACEH";"23951";"Indonesia";" 085362362328";"5.3019409";"95.5993081";"https://maps.google.com/?cid=0x0:0x6e374a714db84e4a"
"supermarket bangunan";"Toko Bahan Bangunan";"UD Mita Usaha";"Jl, Tengah Peulumat, Tapak Tuan, Kabupaten Aceh Selatan, Aceh 23754";"Tengah Peulumat, Tapak Tuan, Kabupaten Aceh Selatan";"ACEH";"23754";"Indonesia";" 085277924711";"3.5052806";"97.0313529";"https://maps.google.com/?cid=0x0:0x52f46386cfbac3e7"
"supermarket bangunan";"Toko Bahan Bangunan";"Toko bangunan / toko bahan bangunan";"H9J7+PM3, Rukoh, Kec. Syiah Kuala, Kota Banda Aceh, Aceh";"Kota Banda Aceh, Aceh";"ACEH";"";"Indonesia";"";"5.581784";"95.3641847";"https://maps.google.com/?cid=0x0:0xca53fca6947362de"
"supermarket bangunan";"Toko Bahan Bangunan";"Toko Dunia Bangunan. 24 Jam.";"H82H+CVX, Jl. Teuku Imuem Jl. Teuku Chik Di Tiro, Ateuk Pahlawan, Kec. Baiturrahman, Kota Banda Aceh, Aceh 174_175";"Kota Banda Aceh, Aceh";"ACEH";"";"Indonesia";" 085260178145";"5.5511237";"95.3297328";"https://maps.google.com/?cid=0x0:0xc5443108175d2ef2"
"supermarket bangunan";"Toko Bahan Bangunan";"Toko Bangunan Mudah Rezeki";"7XGH+VWJ, Jl. Medan - Banda Aceh, Baro Yaman, Kec. Mutiara, Kabupaten Pidie, Aceh 24186";"Jl. Medan - Banda Aceh, Baro Yaman, Kec. Mutiara, Kabupaten Pidie";"ACEH";"24186";"Indonesia";" 081269110111";"5.2772135";"95.9797531";"https://maps.google.com/?cid=0x0:0x35c5fb47563cbc1d"
"supermarket bangunan";"Toko Bahan Bangunan";"Toko Cahaya Keluarga";"Paya, Kec. Manggeng, Kabupaten Aceh Barat Daya, Aceh 23294";"Kec. Manggeng, Kabupaten Aceh Barat Daya";"ACEH";"23294";"Indonesia";" 081310808090";"3.6194419";"96.9326756";"https://maps.google.com/?cid=0x0:0xd1f60f0745becfb"
"supermarket bangunan";"Toko Bahan Bangunan";"Rezeki Kita Toko";"JL. H. Ilyas, Mata Ie, Blangpidie - Aceh Barat Daya, Kabupaten Aceh Barat Daya, Aceh 23763";"Mata Ie, Blangpidie - Aceh Barat Daya, Kabupaten Aceh Barat Daya";"ACEH";"23763";"Indonesia";" 085260269914";"3.75";"96.85";"https://maps.google.com/?cid=0x0:0x32717e98c09bb16d"
"supermarket bangunan";"Toko Bahan Bangunan";"Toko Bangunan Alue Seuribe";"Jl. Medan - Banda Aceh lama No.Km. 272, Panggoi, Kec. Muara Dua, Kota Lhokseumawe, Aceh 24352";"Panggoi, Kec. Muara Dua, Kota Lhokseumawe";"ACEH";"24352";"Indonesia";" 085371003098";"5.1885205";"97.1197355";"https://maps.google.com/?cid=0x0:0xcb7127abb6c895d3"
"supermarket bangunan";"Toko Bahan Bangunan";"toko bahan bangunan her";"RQ97+4G3, Blang Makmur, Kec. Kuala Batee, Kabupaten Aceh Barat Daya, Aceh 23764";"Blang Makmur, Kec. Kuala Batee, Kabupaten Aceh Barat Daya";"ACEH";"23764";"Indonesia";"";"3.8177648";"96.763799";"https://maps.google.com/?cid=0x0:0x1d4451bcc2d5b818"
"supermarket bangunan";"supermarket bangunan";"Aceh 23766";"Kec. Babah Rot, Kabupaten Aceh Barat Daya, Aceh";"Kabupaten Aceh Barat Daya, Aceh";"ACEH";"";"Indonesia";"";"3.9000346";"96.6851982";"https://maps.google.com/?cid=0x0:0x4d19ceb29190eb17"
"supermarket bangunan";"Toko Bahan Bangunan";"UD. PRATAMA BANGUNAN";"Jl. Lintas Barat Sumatera, Padang Sikabu, Kec. Kuala Batee, Kabupaten Aceh Barat Daya, Aceh 23766";"Padang Sikabu, Kec. Kuala Batee, Kabupaten Aceh Barat Daya";"ACEH";"23766";"Indonesia";"";"3.7950567";"96.7846455";"https://maps.google.com/?cid=0x0:0x814ce770be8d0537"
"supermarket bangunan";"Toko Bahan Bangunan";"Toko Alat Bangunan Rahmat Sarmita....";"PV3F+QQH, Lhang, Kec. Setia, Kabupaten Aceh Barat Daya, Aceh 23763";"Lhang, Kec. Setia, Kabupaten Aceh Barat Daya";"ACEH";"23763";"Indonesia";"";"3.7044338";"96.8744735";"https://maps.google.com/?cid=0x0:0xee8d92986ba7b7e3"
"supermarket bangunan";"Toko Bahan Bangunan";"Toko sinar mulia aceh";"Pantee Rakyat, Kec. Babah Rot, Kabupaten Aceh Barat Daya, Aceh 23766";"Kec. Babah Rot, Kabupaten Aceh Barat Daya";"ACEH";"23766";"Indonesia";"";"3.9102449";"96.6745042";"https://maps.google.com/?cid=0x0:0xd0366ec109cee8cc"
"supermarket bangunan";"Toko Bahan Bangunan";"TOKO JAYA BANGUNAN";"XGR7+7W8, Jl. Nasional Jl. Gampong, Alue Bilie, Kec. Darul Makmur, Kabupaten Nagan Raya, Aceh 23662";"Jl. Nasional Jl. Gampong, Alue Bilie, Kec. Darul Makmur, Kabupaten Nagan Raya";"ACEH";"23662";"Indonesia";" 082295764226";"3.9906537";"96.5148436";"https://maps.google.com/?cid=0x0:0xa04e080c122e55ff"
"supermarket bangunan";"Toko bahan makanan";"UD. Aisyah";"VPCC+JX, Alue Jerjak, Kec. Babah Rot, Kabupaten Aceh Barat Daya, Aceh";"Kabupaten Aceh Barat Daya, Aceh";"ACEH";"";"Indonesia";" 081364240904";"3.8715182";"96.7224057";"https://maps.google.com/?cid=0x0:0xdee7af3ad3529c10"
"supermarket bangunan";"Toko Bahan Bangunan";"TB. Arfaz Jaya Mandiri";"Jln. Meulaboh- Tapak tuan, Padang Sikabu, Kec. Kuala Batee, Kabupaten Aceh Barat Daya, Aceh 25537";"Padang Sikabu, Kec. Kuala Batee, Kabupaten Aceh Barat Daya";"ACEH";"25537";"Indonesia";" 085277729453";"3.7933139";"96.7874907";"https://maps.google.com/?cid=0x0:0x4f95f10c716f11d7"
"supermarket bangunan";"Toko Bahan Bangunan";"UD BERKAH";"RQ49+RQQ, Kp. Tengah, Kec. Kuala Batee, Kabupaten Aceh Barat Daya, Aceh";"Kabupaten Aceh Barat Daya, Aceh";"ACEH";"";"Indonesia";"";"3.8070777";"96.7694752";"https://maps.google.com/?cid=0x0:0xd7964d9dfc884a32"
"supermarket bangunan";"Toko Bahan Bangunan";"Toko bangunan makmur raya";"Blang Baro, Kec. Darul Makmur, Kabupaten Nagan Raya, Aceh 23662";"Kec. Darul Makmur, Kabupaten Nagan Raya";"ACEH";"23662";"Indonesia";" 085236838333";"3.9863861";"96.5094472";"https://maps.google.com/?cid=0x0:0x29d538e7200eb9e4"
"supermarket bangunan";"Toko Bahan Bangunan";"TOKO BERKAT FAMILY";"478R+RP7, Jl. Meulaboh - Tapaktuan, Simpang Peut, Kec. Kuala, Kabupaten Nagan Raya, Aceh";"Kabupaten Nagan Raya, Aceh";"ACEH";"";"Indonesia";"";"4.1170407";"96.2917915";"https://maps.google.com/?cid=0x0:0xfaed37e7670d2da1"
"supermarket bangunan";"Toko Bahan Bangunan";"Sumber Setia";"JVF2+Q23, Bale Atu, Kec. Lut Tawar, Kabupaten Aceh Tengah, Aceh 24519";"Bale Atu, Kec. Lut Tawar, Kabupaten Aceh Tengah";"ACEH";"24519";"Indonesia";" 082364674462";"4.6243912";"96.8500313";"https://maps.google.com/?cid=0x0:0x807a7be40545f85e"
"supermarket bangunan";"Toko Bahan Bangunan";"Toko Jasa Misbah";"Jl. H Ilyas Blang Pidie No.19, Mata Ie, Kecamaten Blang Pidie, Kabupaten Aceh Barat Daya, Aceh 23763";"Mata Ie, Kecamaten Blang Pidie, Kabupaten Aceh Barat Daya";"ACEH";"23763";"Indonesia";" 085260120698";"3.7399016";"96.833596";"https://maps.google.com/?cid=0x0:0x858e03396076ece7"
"supermarket bangunan";"Toko Bahan Bangunan";"Toko REZEKI TAMITA.";"Jl. Singgah Mata, Kuta Padang, Kec. Johan Pahlawan, Kabupaten Aceh Barat, Aceh 23681";"Kuta Padang, Kec. Johan Pahlawan, Kabupaten Aceh Barat";"ACEH";"23681";"Indonesia";" 081360012027";"4.145774";"96.1277489";"https://maps.google.com/?cid=0x0:0x578bf6444e5de110"
"supermarket bangunan";"supermarket bangunan";"Aceh 23767";"Kec. Babah Rot, Kabupaten Aceh Barat Daya, Aceh";"Kabupaten Aceh Barat Daya, Aceh";"ACEH";"";"Indonesia";"";"3.8500236";"96.6103778";"https://maps.google.com/?cid=0x0:0xdb51e75798ae0c5b"
"supermarket bangunan";"Toko Bahan Bangunan";"Toko sinar mulia aceh";"Pantee Rakyat, Kec. Babah Rot, Kabupaten Aceh Barat Daya, Aceh 23766";"Kec. Babah Rot, Kabupaten Aceh Barat Daya";"ACEH";"23766";"Indonesia";"";"3.9102449";"96.6745042";"https://maps.google.com/?cid=0x0:0xd0366ec109cee8cc"
"supermarket bangunan";"Toko Pertanian";"Toko Berkah Tani";"WM4W+M63, Pantee Rakyat, Kec. Babah Rot, Kabupaten Aceh Barat Daya, Aceh 23766";"Pantee Rakyat, Kec. Babah Rot, Kabupaten Aceh Barat Daya";"ACEH";"23766";"Indonesia";" 081272686060";"3.9066438";"96.6955578";"https://maps.google.com/?cid=0x0:0xab8f740224d34183"
"supermarket bangunan";"Toko Bahan Bangunan";"Toko Alat Bangunan Rahmat Sarmita....";"PV3F+QQH, Lhang, Kec. Setia, Kabupaten Aceh Barat Daya, Aceh 23763";"Lhang, Kec. Setia, Kabupaten Aceh Barat Daya";"ACEH";"23763";"Indonesia";"";"3.7044338";"96.8744735";"https://maps.google.com/?cid=0x0:0xee8d92986ba7b7e3"
"supermarket bangunan";"Toko bahan makanan";"UD. Aisyah";"VPCC+JX, Alue Jerjak, Kec. Babah Rot, Kabupaten Aceh Barat Daya, Aceh";"Kabupaten Aceh Barat Daya, Aceh";"ACEH";"";"Indonesia";" 081364240904";"3.8715182";"96.7224057";"https://maps.google.com/?cid=0x0:0xdee7af3ad3529c10"
"supermarket bangunan";"Grosir";"Toko BSM (Bahan bangunan)";"Jl. Singgah Mata No.1, Ujong Baroh, Kec. Johan Pahlawan, Kabupaten Aceh Barat, Aceh 23681";"Ujong Baroh, Kec. Johan Pahlawan, Kabupaten Aceh Barat";"ACEH";"23681";"Indonesia";" 085318181874";"4.1455825";"96.1281432";"https://maps.google.com/?cid=0x0:0xede95c029980a66c"
"supermarket bangunan";"Toko Bahan Bangunan";"Toko REZEKI TAMITA.";"Jl. Singgah Mata, Kuta Padang, Kec. Johan Pahlawan, Kabupaten Aceh Barat, Aceh 23681";"Kuta Padang, Kec. Johan Pahlawan, Kabupaten Aceh Barat";"ACEH";"23681";"Indonesia";" 081360012027";"4.145774";"96.1277489";"https://maps.google.com/?cid=0x0:0x578bf6444e5de110"
"supermarket bangunan";"Toko Bahan Bangunan";"UD.SAHABAT SEJAHTERA TANI....";"XH36+2QW, Unnamed Road, Panton Bayu, Kec. Darul Makmur, Kabupaten Nagan Raya, Aceh 23662";"Unnamed Road, Panton Bayu, Kec. Darul Makmur, Kabupaten Nagan Raya";"ACEH";"23662";"Indonesia";" 082369398737";"3.95261";"96.561965";"https://maps.google.com/?cid=0x0:0xac17b67ca1f354a9"
"supermarket bangunan";"Toko Bahan Bangunan";"UD. PRATAMA BANGUNAN";"Jl. Lintas Barat Sumatera, Padang Sikabu, Kec. Kuala Batee, Kabupaten Aceh Barat Daya, Aceh 23766";"Padang Sikabu, Kec. Kuala Batee, Kabupaten Aceh Barat Daya";"ACEH";"23766";"Indonesia";"";"3.7950567";"96.7846455";"https://maps.google.com/?cid=0x0:0x814ce770be8d0537"
"supermarket bangunan";"Toko Bahan Bangunan";"Toko Mitra Abadi..";"JW9M+H78, Jl. Lintas Barat Sumatera, Paya, Kec. Manggeng, Kabupaten Aceh Barat Daya, Aceh 23762";"Jl. Lintas Barat Sumatera, Paya, Kec. Manggeng, Kabupaten Aceh Barat Daya";"ACEH";"23762";"Indonesia";"";"3.6189152";"96.9332159";"https://maps.google.com/?cid=0x0:0x4b1951aa1baa9e87"
"supermarket bangunan";"Toko Bahan Bangunan";"Toko Jasa Misbah";"Jl. H Ilyas Blang Pidie No.19, Mata Ie, Kecamaten Blang Pidie, Kabupaten Aceh Barat Daya, Aceh 23763";"Mata Ie, Kecamaten Blang Pidie, Kabupaten Aceh Barat Daya";"ACEH";"23763";"Indonesia";" 085260120698";"3.7399016";"96.833596";"https://maps.google.com/?cid=0x0:0x858e03396076ece7"
"supermarket bangunan";"Toko Bahan Bangunan";"Toko bangunan makmur raya";"Blang Baro, Kec. Darul Makmur, Kabupaten Nagan Raya, Aceh 23662";"Kec. Darul Makmur, Kabupaten Nagan Raya";"ACEH";"23662";"Indonesia";" 085236838333";"3.9863861";"96.5094472";"https://maps.google.com/?cid=0x0:0x29d538e7200eb9e4"
"supermarket bangunan";"Toko bahan makanan";"Raja swalayan";"WM5W+6F8, Pantee Rakyat, Kec. Babah Rot, Kabupaten Aceh Barat Daya, Aceh 23766";"Pantee Rakyat, Kec. Babah Rot, Kabupaten Aceh Barat Daya";"ACEH";"23766";"Indonesia";"";"3.9079832";"96.6962114";"https://maps.google.com/?cid=0x0:0x2cf1a2c0cb22c298"
"supermarket bangunan";"Toko bahan makanan";"SWALAYAN MURNI";"WP23+R9R, Pantee Cermin, Kec. Babah Rot, Kabupaten Aceh Barat Daya, Aceh 23766";"Pantee Cermin, Kec. Babah Rot, Kabupaten Aceh Barat Daya";"ACEH";"23766";"Indonesia";"";"3.9021396";"96.7033813";"https://maps.google.com/?cid=0x0:0x6f082a6af602f529"
"supermarket bangunan";"Toko Bahan Bangunan";"Toko Alat Bangunan Rahmat Sarmita....";"PV3F+QQH, Lhang, Kec. Setia, Kabupaten Aceh Barat Daya, Aceh 23763";"Lhang, Kec. Setia, Kabupaten Aceh Barat Daya";"ACEH";"23763";"Indonesia";"";"3.7044338";"96.8744735";"https://maps.google.com/?cid=0x0:0xee8d92986ba7b7e3"
"supermarket bangunan";"supermarket bangunan";"Kec. Setia";"Kabupaten Aceh Barat Daya, Aceh";"Kabupaten Aceh Barat Daya, Aceh";"ACEH";"";"Indonesia";"";"3.7078495";"96.8719767";"https://maps.google.com/?cid=0x0:0x34a354e1c2218e5f"
"supermarket bangunan";"Toko Bahan Bangunan";"Zahra Bangunan";"Jl. Dr. Mr. Mohd Hasan, Batoh, Kec. Lueng Bata, Kota Banda Aceh, Aceh 23127";"Batoh, Kec. Lueng Bata, Kota Banda Aceh";"ACEH";"23127";"Indonesia";" 083191742636";"5.5425651";"95.3305542";"https://maps.google.com/?cid=0x0:0x9785538145c2ac3"
"supermarket bangunan";"Toko Bahan Bangunan";"Toko Mitra Abadi..";"JW9M+H78, Jl. Lintas Barat Sumatera, Paya, Kec. Manggeng, Kabupaten Aceh Barat Daya, Aceh 23762";"Jl. Lintas Barat Sumatera, Paya, Kec. Manggeng, Kabupaten Aceh Barat Daya";"ACEH";"23762";"Indonesia";"";"3.6189152";"96.9332159";"https://maps.google.com/?cid=0x0:0x4b1951aa1baa9e87"
"supermarket bangunan";"Toko Bahan Bangunan";"UD. Cahaya Amar";"MW27+7H7, Jl. Meulaboh - Tapaktuan, Bineh Krueng, Kec. Tangan-Tangan, Kabupaten Aceh Barat Daya, Aceh 23762";"Jl. Meulaboh - Tapaktuan, Bineh Krueng, Kec. Tangan-Tangan, Kabupaten Aceh Barat Daya";"ACEH";"23762";"Indonesia";" 085260700553";"3.6506605";"96.9139111";"https://maps.google.com/?cid=0x0:0x218625d15ea31a07"
"supermarket bangunan";"Toko";"Toko Sinar Mulia";"PRQM+QJJ, Jl. H Ilyas Blang Pidie, Meudang Ara, Kecamaten Blang Pidie, Kabupaten Aceh Barat Daya, Aceh 23763";"Jl. H Ilyas Blang Pidie, Meudang Ara, Kecamaten Blang Pidie, Kabupaten Aceh Barat Daya";"ACEH";"23763";"Indonesia";" 085277334308";"3.7394531";"96.8340064";"https://maps.google.com/?cid=0x0:0x590cc39c23d8e103"
"supermarket bangunan";"Toko Bahan Bangunan";"UD. PRATAMA BANGUNAN";"Jl. Lintas Barat Sumatera, Padang Sikabu, Kec. Kuala Batee, Kabupaten Aceh Barat Daya, Aceh 23766";"Padang Sikabu, Kec. Kuala Batee, Kabupaten Aceh Barat Daya";"ACEH";"23766";"Indonesia";"";"3.7950567";"96.7846455";"https://maps.google.com/?cid=0x0:0x814ce770be8d0537"
"supermarket bangunan";"Toko Bahan Bangunan";"toko bahan bangunan her";"RQ97+4G3, Blang Makmur, Kec. Kuala Batee, Kabupaten Aceh Barat Daya, Aceh 23764";"Blang Makmur, Kec. Kuala Batee, Kabupaten Aceh Barat Daya";"ACEH";"23764";"Indonesia";"";"3.8177648";"96.763799";"https://maps.google.com/?cid=0x0:0x1d4451bcc2d5b818"
"supermarket bangunan";"Toko Bahan Bangunan";"Toko Jasa Misbah";"Jl. H Ilyas Blang Pidie No.19, Mata Ie, Kecamaten Blang Pidie, Kabupaten Aceh Barat Daya, Aceh 23763";"Mata Ie, Kecamaten Blang Pidie, Kabupaten Aceh Barat Daya";"ACEH";"23763";"Indonesia";" 085260120698";"3.7399016";"96.833596";"https://maps.google.com/?cid=0x0:0x858e03396076ece7"
"supermarket bangunan";"Grosir";"TB.SUMBER REZEKI";"Ladang Tuha, Kec. Pasie Raja, Kabupaten Aceh Selatan, Aceh 23755";"Kec. Pasie Raja, Kabupaten Aceh Selatan";"ACEH";"23755";"Indonesia";" 081269590222";"3.2009136";"97.275665";"https://maps.google.com/?cid=0x0:0x52815b7d64982502"
"supermarket bangunan";"Toko Bahan Bangunan";"UD. Sahabat Baru";"MW37+6FQ, Jl. Meulaboh - Tapaktuan, Adan, Kec. Tangan-Tangan, Kabupaten Aceh Barat Daya, Aceh 23762";"Jl. Meulaboh - Tapaktuan, Adan, Kec. Tangan-Tangan, Kabupaten Aceh Barat Daya";"ACEH";"23762";"Indonesia";" 085371796815";"3.6530769";"96.9137289";"https://maps.google.com/?cid=0x0:0x4e92bd9df5ae9851"
"supermarket bangunan";"Toko Bahan Bangunan";"Sumber Setia";"JVF2+Q23, Bale Atu, Kec. Lut Tawar, Kabupaten Aceh Tengah, Aceh 24519";"Bale Atu, Kec. Lut Tawar, Kabupaten Aceh Tengah";"ACEH";"24519";"Indonesia";" 082364674462";"4.6243912";"96.8500313";"https://maps.google.com/?cid=0x0:0x807a7be40545f85e"
"supermarket bangunan";"Toko Bahan Bangunan";"Toko Setia Kawan";"JVF2+W48, Bale Atu, Kec. Lut Tawar, Kabupaten Aceh Tengah, Aceh 24519";"Bale Atu, Kec. Lut Tawar, Kabupaten Aceh Tengah";"ACEH";"24519";"Indonesia";" 064321692";"4.6247984";"96.8503199";"https://maps.google.com/?cid=0x0:0xf78c6bd2c4b87654"
"supermarket bangunan";"Toko";"Setia";"Jl. Sinar Peusangan No.12, Keude Matang Glp Dua, Kec. Peusangan, Kabupaten Bireuen, Aceh 24261";"Keude Matang Glp Dua, Kec. Peusangan, Kabupaten Bireuen";"ACEH";"24261";"Indonesia";" 085260328310";"5.1962174";"96.7875882";"https://maps.google.com/?cid=0x0:0xc9ee16d23b113ea6"
"supermarket bangunan";"supermarket bangunan";"Aceh 23764";"Kabupaten Aceh Barat Daya, Aceh";"Kabupaten Aceh Barat Daya, Aceh";"ACEH";"";"Indonesia";"";"3.8585335";"96.8136642";"https://maps.google.com/?cid=0x0:0xffecff8e1cb94052"
"supermarket bangunan";"Toko Bahan Bangunan";"Zahra Bangunan";"Jl. Dr. Mr. Mohd Hasan, Batoh, Kec. Lueng Bata, Kota Banda Aceh, Aceh 23127";"Batoh, Kec. Lueng Bata, Kota Banda Aceh";"ACEH";"23127";"Indonesia";" 083191742636";"5.5425651";"95.3305542";"https://maps.google.com/?cid=0x0:0x9785538145c2ac3"
"supermarket bangunan";"Toko Bahan Bangunan";"TOKO BANGUNAN REZEKI FAMILY";"Jl. Cut Nyak Dhien, Jeumpet Ajun, Kec. Peukan Bada, Kabupaten Aceh Besar, Aceh 23352";"Jeumpet Ajun, Kec. Peukan Bada, Kabupaten Aceh Besar";"ACEH";"23352";"Indonesia";" 085213266075";"5.5259038";"95.2841761";"https://maps.google.com/?cid=0x0:0x4897075c9f01f90a"
"supermarket bangunan";"Toko Bahan Bangunan";"UD Mita Usaha";"Jl, Tengah Peulumat, Tapak Tuan, Kabupaten Aceh Selatan, Aceh 23754";"Tengah Peulumat, Tapak Tuan, Kabupaten Aceh Selatan";"ACEH";"23754";"Indonesia";" 085277924711";"3.5052806";"97.0313529";"https://maps.google.com/?cid=0x0:0x52f46386cfbac3e7"
"supermarket bangunan";"Toko";"Toko Helindo Abadi";"Alue Sungai Pinang, Kec. Jeumpa, Kabupaten Aceh Barat Daya, Aceh 23764";"Kec. Jeumpa, Kabupaten Aceh Barat Daya";"ACEH";"23764";"Indonesia";"";"3.7760506";"96.8178029";"https://maps.google.com/?cid=0x0:0x36da571bc959c426"
"supermarket bangunan";"Rumah Kayu";"Rumoh Ferri";"QRG9+MRM, Alue Sungai Pinang, Kec. Jeumpa, Kabupaten Aceh Barat Daya, Aceh";"Kabupaten Aceh Barat Daya, Aceh";"ACEH";"";"Indonesia";"";"3.7767212";"96.8195503";"https://maps.google.com/?cid=0x0:0x74559ffbb3015bfa"
"supermarket bangunan";"Toko Bahan Bangunan";"TB. Mulia Jaya";"Psan Antar , TOKO, Jl. Ps. Wage No.5, Sawah, Kaliwadas, Kec. Bumiayu, Kabupaten Brebes, Jawa Tengah 52273";"TOKO, Jl. Ps. Wage No.5, Sawah, Kaliwadas, Kec. Bumiayu, Kabupaten Brebes";"ACEH";"52273";"Indonesia";" 02895104244";"-7.2624659";"108.9812155";"https://maps.google.com/?cid=0x0:0x659454dba058a20a"
"supermarket bangunan";"Toko Bahan Bangunan";"Supermarket Bahan Bangunan ( TB  Toserba Fajar Karya 2 Bumiayu)";"Jl. Lingkar, Negaradaha Kecil, Negaradaha, Kec. Bumiayu, Kabupaten Brebes, Jawa Tengah 52273";"Negaradaha Kecil, Negaradaha, Kec. Bumiayu, Kabupaten Brebes";"ACEH";"52273";"Indonesia";" 082327289878";"-7.2626604";"109.0230897";"https://maps.google.com/?cid=0x0:0xc03c96efa11ef06d"
"supermarket bangunan";"supermarket bangunan";"Aceh 24251";"Kabupaten Bireuen, Aceh";"Kabupaten Bireuen, Aceh";"ACEH";"";"Indonesia";"";"5.0881574";"96.642433";"https://maps.google.com/?cid=0x0:0x2d3a8ff5c08e4a15"
"supermarket bangunan";"Toko Bahan Bangunan";"Toko Bangunan Putra Jaya";"Jl. Medan - Banda Aceh, Pulo Lawang, Kec. Jeumpa, Kabupaten Bireuen, Aceh 24251";"Pulo Lawang, Kec. Jeumpa, Kabupaten Bireuen";"ACEH";"24251";"Indonesia";" 081376934001";"5.1934733";"96.6405549";"https://maps.google.com/?cid=0x0:0x1bdf4b6036179fc2"
"supermarket bangunan";"Toko Bahan Bangunan";"Fajar Jeumpa";"Jl. Medan - Banda Aceh No.9, Bireun Meunasah Capa, Kec. Kota Juang, Kabupaten Bireuen, Aceh 24261";"Bireun Meunasah Capa, Kec. Kota Juang, Kabupaten Bireuen";"ACEH";"24261";"Indonesia";" 0644323102";"5.2012691";"96.7029552";"https://maps.google.com/?cid=0x0:0xbadeef9bb2b5b4b2"
"supermarket bangunan";"Toko Bahan Bangunan";"Toko Bangunan Mulia Baru Lengkap  murah";"6M3Q+RWM, Bireun Mns Reuleut, Kec. Kota Juang, Kabupaten Bireuen, Aceh";"Kabupaten Bireuen, Aceh";"ACEH";"";"Indonesia";" 082227323337";"5.2047714";"96.6893602";"https://maps.google.com/?cid=0x0:0xc931c465f596f32f"
"supermarket bangunan";"Toko Bahan Bangunan";"Israwati";"JL. Medan - Banda Aceh, No. 21, Seu Lembah, Jeumpa, Seuleumbah, Bireuen, Kabupaten Bireuen, Aceh 24251";"No. 21, Seu Lembah, Jeumpa, Seuleumbah, Bireuen, Kabupaten Bireuen";"ACEH";"24251";"Indonesia";" 085362459294";"5.1940616";"96.6758408";"https://maps.google.com/?cid=0x0:0xaec1b8b0146a8ef"
"supermarket bangunan";"Toko Bahan Bangunan";"Toko Besi  Bangunan Subur Jaya";"6M4C+84F, Geulumpang Payong, Kec. Jeumpa, Kabupaten Bireuen, Aceh";"Kabupaten Bireuen, Aceh";"ACEH";"";"Indonesia";"";"5.206109";"96.6702485";"https://maps.google.com/?cid=0x0:0xf6b94e0596d517c2"
"supermarket bangunan";"Toko Bahan Bangunan";"PT. Motive Mulia - Merah Putih Beton";"Blang Cot Baroh, Kec. Jeumpa, Kabupaten Bireuen, Aceh 24251";"Kec. Jeumpa, Kabupaten Bireuen";"ACEH";"24251";"Indonesia";" 081264390051";"5.2058085";"96.6741528";"https://maps.google.com/?cid=0x0:0x50d3294702e3edf5"
"supermarket bangunan";"Toko Bahan Bangunan";"Sejahtera";"JL Bireuen - Takengon, Km. 2, Keude Juli, Juli, Juli Cot Mesjid, Bireuen, Kabupaten Bireuen, Aceh 24251";"Km. 2, Keude Juli, Juli, Juli Cot Mesjid, Bireuen, Kabupaten Bireuen";"ACEH";"24251";"Indonesia";" 085277551122";"5.1765338";"96.7038873";"https://maps.google.com/?cid=0x0:0x2127a6a4c373e164"
"supermarket bangunan";"Toko Bahan Bangunan";"Toko Bangunan Hilal Jaya";"Jl. Raya Bireuen - Takengon No.Km. 2, RW.6, Mns Jok, Kec. Juli, Kabupaten Bireuen, Aceh 24250";"RW.6, Mns Jok, Kec. Juli, Kabupaten Bireuen";"ACEH";"24250";"Indonesia";" 085359233615";"5.1822989";"96.705264";"https://maps.google.com/?cid=0x0:0x8ec4c9ad8b9fcdad"
"supermarket bangunan";"Toko Bahan Bangunan";"Faizal";"6M2J+CPQ, Cot Keutapang, Kec. Jeumpa, Kabupaten Bireuen, Aceh 24251";"Cot Keutapang, Kec. Jeumpa, Kabupaten Bireuen";"ACEH";"24251";"Indonesia";" 085359496804";"5.201091";"96.68186";"https://maps.google.com/?cid=0x0:0x6eaa116d0c09ceb9"
"supermarket bangunan";"Toko Bahan Bangunan";"Toko Bangunan dan Listrik UMAR JAYA";"Cot Bada, Kec. Jeumpa, Kabupaten Bireuen, Aceh";"Kabupaten Bireuen, Aceh";"ACEH";"";"Indonesia";"";"5.2063046";"96.6485447";"https://maps.google.com/?cid=0x0:0xf0eb4058af2cc09b"
"supermarket bangunan";"Toko Bahan Bangunan";"Toko bangunan CHALIS JAYA";"Kuala Jeumpa, Kec. Jeumpa, Kabupaten Bireuen, Aceh";"Kabupaten Bireuen, Aceh";"ACEH";"";"Indonesia";"";"5.2130503";"96.6537897";"https://maps.google.com/?cid=0x0:0xe12a20439a9ab045"
"supermarket bangunan";"Toko Bahan Bangunan";"Toko Delima Jaya";"Jl. Medan - Banda Aceh, Bireun Meunasah Capa, Kec. Kota Juang, Kabupaten Bireuen, Aceh 24211";"Bireun Meunasah Capa, Kec. Kota Juang, Kabupaten Bireuen";"ACEH";"24211";"Indonesia";" 0644323183";"5.201653";"96.699384";"https://maps.google.com/?cid=0x0:0x146eab0467417e8b"
"supermarket bangunan";"Toko Bahan Bangunan";"surabaya";"Jl. Raya Bireuen - Takengon No.16, RW.Gampoeng, Juli Meunasah Jok, Kec. Juli, Kabupaten Bireuen, Aceh 24261";"RW.Gampoeng, Juli Meunasah Jok, Kec. Juli, Kabupaten Bireuen";"ACEH";"24261";"Indonesia";" 085277457773";"5.1813403";"96.70599";"https://maps.google.com/?cid=0x0:0xaa7f5348e9a7939f"
"supermarket bangunan";"supermarket bangunan";"Kec. Lembah Sabil";"Kabupaten Aceh Barat Daya, Aceh";"Kabupaten Aceh Barat Daya, Aceh";"ACEH";"";"Indonesia";"";"3.589112";"96.9343064";"https://maps.google.com/?cid=0x0:0x47f212bb54114078"
"supermarket bangunan";"Toko Bahan Bangunan";"Toko Mitra Abadi..";"JW9M+H78, Jl. Lintas Barat Sumatera, Paya, Kec. Manggeng, Kabupaten Aceh Barat Daya, Aceh 23762";"Jl. Lintas Barat Sumatera, Paya, Kec. Manggeng, Kabupaten Aceh Barat Daya";"ACEH";"23762";"Indonesia";"";"3.6189152";"96.9332159";"https://maps.google.com/?cid=0x0:0x4b1951aa1baa9e87"
"supermarket bangunan";"Toko Bahan Bangunan";"UD. Sahabat Baru";"MW37+6FQ, Jl. Meulaboh - Tapaktuan, Adan, Kec. Tangan-Tangan, Kabupaten Aceh Barat Daya, Aceh 23762";"Jl. Meulaboh - Tapaktuan, Adan, Kec. Tangan-Tangan, Kabupaten Aceh Barat Daya";"ACEH";"23762";"Indonesia";" 085371796815";"3.6530769";"96.9137289";"https://maps.google.com/?cid=0x0:0x4e92bd9df5ae9851"
"supermarket bangunan";"Toko Bahan Bangunan";"UD. Cahaya Amar";"MW27+7H7, Jl. Meulaboh - Tapaktuan, Bineh Krueng, Kec. Tangan-Tangan, Kabupaten Aceh Barat Daya, Aceh 23762";"Jl. Meulaboh - Tapaktuan, Bineh Krueng, Kec. Tangan-Tangan, Kabupaten Aceh Barat Daya";"ACEH";"23762";"Indonesia";" 085260700553";"3.6506605";"96.9139111";"https://maps.google.com/?cid=0x0:0x218625d15ea31a07"
"supermarket bangunan";"Toko Bahan Bangunan";"Toko Cahaya Keluarga";"Paya, Kec. Manggeng, Kabupaten Aceh Barat Daya, Aceh 23294";"Kec. Manggeng, Kabupaten Aceh Barat Daya";"ACEH";"23294";"Indonesia";" 081310808090";"3.6194419";"96.9326756";"https://maps.google.com/?cid=0x0:0xd1f60f0745becfb"
"supermarket bangunan";"Toko Bahan Bangunan";"Toko Alat Bangunan Rahmat Sarmita....";"PV3F+QQH, Lhang, Kec. Setia, Kabupaten Aceh Barat Daya, Aceh 23763";"Lhang, Kec. Setia, Kabupaten Aceh Barat Daya";"ACEH";"23763";"Indonesia";"";"3.7044338";"96.8744735";"https://maps.google.com/?cid=0x0:0xee8d92986ba7b7e3"
"supermarket bangunan";"Grosir";"TB.SUMBER REZEKI";"Ladang Tuha, Kec. Pasie Raja, Kabupaten Aceh Selatan, Aceh 23755";"Kec. Pasie Raja, Kabupaten Aceh Selatan";"ACEH";"23755";"Indonesia";" 081269590222";"3.2009136";"97.275665";"https://maps.google.com/?cid=0x0:0x52815b7d64982502"
"supermarket bangunan";"Toko Bahan Bangunan";"toko bahan bangunan her";"RQ97+4G3, Blang Makmur, Kec. Kuala Batee, Kabupaten Aceh Barat Daya, Aceh 23764";"Blang Makmur, Kec. Kuala Batee, Kabupaten Aceh Barat Daya";"ACEH";"23764";"Indonesia";"";"3.8177648";"96.763799";"https://maps.google.com/?cid=0x0:0x1d4451bcc2d5b818"
"supermarket bangunan";"Toko Bahan Bangunan";"UD. ILHAM BARONA";"Blang Gelinggang, Kec. Sawang, Kabupaten Aceh Selatan, Aceh 23752";"Kec. Sawang, Kabupaten Aceh Selatan";"ACEH";"23752";"Indonesia";" 085277730754";"3.4039282";"97.0953092";"https://maps.google.com/?cid=0x0:0x55cdb496c3cddfb3"
"supermarket bangunan";"Pusat Perbelanjaan";"toko alat bangunan UD.Usaha Baru";"X8RV+25V, Rak Lunung, Kec. Blangkejeren, Kabupaten Gayo Lues, Aceh 24653";"Rak Lunung, Kec. Blangkejeren, Kabupaten Gayo Lues";"ACEH";"24653";"Indonesia";"";"3.9901214";"97.3429091";"https://maps.google.com/?cid=0x0:0xf60dc2da87a6f48d"
"supermarket bangunan";"Pusat Perbelanjaan";"Semangat Baru";"JL. H. Ilyas, Mata Ie, Blangpidie - Aceh Barat Daya, Kabupaten Aceh Barat Daya, Aceh 23763";"Mata Ie, Blangpidie - Aceh Barat Daya, Kabupaten Aceh Barat Daya";"ACEH";"23763";"Indonesia";" 081360025242";"3.75";"96.85";"https://maps.google.com/?cid=0x0:0xcaa0ceaa525639a1"
