Category;Real Category;Business Name;Address;City;State;Postal Code;Country;Phone;Latitude;Longitude;Map Link
"mall";"Toko Perhiasan";"Toko ilham indah";"PRQM+56M, Jl. Selamat, Ps. Blang Pidie, Kecamaten Blang Pidie, Kabupaten Aceh Barat Daya, Aceh 23763";"Jl. Selamat, Ps. Blang Pidie, Kecamaten Blang Pidie, Kabupaten Aceh Barat Daya";"ACEH";"23763";"Indonesia";"";"3.7379621";"96.8330466";"https://maps.google.com/?cid=0x0:0xf097bcce71c45ec8"
"mall";"Toko Swalayan";"Sejahtera Swalayan Blangpidie";"PRQR+GHJ, Jl. Iskandar Muda, Geulumpang Payong, Kecamaten Blang Pidie, Kabupaten Aceh Barat Daya, Aceh 23763";"Jl. Iskandar Muda, Geulumpang Payong, Kecamaten Blang Pidie, Kabupaten Aceh Barat Daya";"ACEH";"23763";"Indonesia";" 082275464951";"3.7388397";"96.8413825";"https://maps.google.com/?cid=0x0:0x31d1f689454b8ecc"
"mall";"mall";"Aceh 23764";"Kabupaten Aceh Barat Daya, Aceh";"Kabupaten Aceh Barat Daya, Aceh";"ACEH";"";"Indonesia";"";"3.8585335";"96.8136642";"https://maps.google.com/?cid=0x0:0xffecff8e1cb94052"
"mall";"Toko Ponsel";"Pamea ponsel";"Jl. Pendidikan No.16, Meudang Ara, Kecamaten Blang Pidie, Kabupaten Aceh Barat Daya, Aceh 23764";"Meudang Ara, Kecamaten Blang Pidie, Kabupaten Aceh Barat Daya";"ACEH";"23764";"Indonesia";" 082391150401";"3.7378951";"96.8344823";"https://maps.google.com/?cid=0x0:0xde8f8c33714299a0"
"mall";"Toko Bahan Bangunan";"SEMANGAT BARU";"PRQM+WQF, Meudang Ara, Kecamaten Blang Pidie, Kabupaten Aceh Barat Daya, Aceh 23763";"Meudang Ara, Kecamaten Blang Pidie, Kabupaten Aceh Barat Daya";"ACEH";"23763";"Indonesia";" 085359853850";"3.7398078";"96.8344221";"https://maps.google.com/?cid=0x0:0x7abdf549af83f54d"
"mall";"Toko Bahan Bangunan";"Jasa Misbah 02";"Unnamed Road, Meudang Ara, Kecamaten Blang Pidie, Kabupaten Aceh Barat Daya, Aceh 23763";"Meudang Ara, Kecamaten Blang Pidie, Kabupaten Aceh Barat Daya";"ACEH";"23763";"Indonesia";" 081269159843";"3.7397682";"96.8330939";"https://maps.google.com/?cid=0x0:0x2900016e92627366"
"mall";"Toko Perhiasan";"Toko Mas Diamond";"PRQM+723, Ps. Blang Pidie, Kecamaten Blang Pidie, Kabupaten Aceh Barat Daya, Aceh 23763";"Ps. Blang Pidie, Kecamaten Blang Pidie, Kabupaten Aceh Barat Daya";"ACEH";"23763";"Indonesia";"";"3.7381467";"96.8325449";"https://maps.google.com/?cid=0x0:0x2394f0038a7c59d4"
"mall";"Toko";"PRIMKOP KARTIKA 0110/ABDYA";"PRPJ+WW9, Jl. Rawa Sakti, Kepala Bandar, Kecamaten Blang Pidie, Kabupaten Aceh Barat Daya, Aceh 23763";"Jl. Rawa Sakti, Kepala Bandar, Kecamaten Blang Pidie, Kabupaten Aceh Barat Daya";"ACEH";"23763";"Indonesia";"";"3.7372881";"96.8323565";"https://maps.google.com/?cid=0x0:0xefa503e3c1c07c6f"
"mall";"Toko";"MR. D.I.Y Blangpidie";"Jl. Iskandar Muda, Geulumpang Payong, Kecamaten Blang Pidie, Kabupaten Aceh Barat Daya, Aceh 23764";"Geulumpang Payong, Kecamaten Blang Pidie, Kabupaten Aceh Barat Daya";"ACEH";"23764";"Indonesia";"";"3.7386537";"96.8416238";"https://maps.google.com/?cid=0x0:0x4bc9bc343ce63a26"
"mall";"Pedagang tekstil";"Alfianto Sofiana";"Jl. Pasar Baru No.34, Meudang Ara, Kecamaten Blang Pidie, Kabupaten Aceh Barat Daya, Aceh 23763";"Meudang Ara, Kecamaten Blang Pidie, Kabupaten Aceh Barat Daya";"ACEH";"23763";"Indonesia";" 085260188836";"3.7390817";"96.8341768";"https://maps.google.com/?cid=0x0:0xfdd65ef6d26028ad"
"mall";"Toko";"Usaha Rumahan Blangpidie";"Jl. Pendidikan No.80, Kuta Tinggi, Kecamaten Blang Pidie, Kabupaten Aceh Barat Daya, Aceh 23763";"Kuta Tinggi, Kecamaten Blang Pidie, Kabupaten Aceh Barat Daya";"ACEH";"23763";"Indonesia";" 081260263313";"3.7427045";"96.837063";"https://maps.google.com/?cid=0x0:0xf2b35df5a8ff1d64"
"mall";"Bangunan Bersejarah";"Pasar Baru Lamainong";"RQ96+J28, Jl. Lintas Barat Sumatera, Blang Makmur, Kec. Kuala Batee, Kabupaten Aceh Barat Daya, Aceh 23764";"Jl. Lintas Barat Sumatera, Blang Makmur, Kec. Kuala Batee, Kabupaten Aceh Barat Daya";"ACEH";"23764";"Indonesia";"";"3.8190401";"96.7600628";"https://maps.google.com/?cid=0x0:0x1d96f74dcb753d5e"
"mall";"Pusat Perbelanjaan";"Mentari Swalayan Blangpidie";"Jl. Selamat, Ps. Blang Pidie, Kecamaten Blang Pidie, Kabupaten Aceh Barat Daya, Aceh 23763";"Ps. Blang Pidie, Kecamaten Blang Pidie, Kabupaten Aceh Barat Daya";"ACEH";"23763";"Indonesia";" 065993315";"3.7375464";"96.8345907";"https://maps.google.com/?cid=0x0:0x8b26348b1673407e"
"mall";"Toko umum";"Galeri Sarana";"PRQP+GQ6, Jl. Kesehatan, Desa Kuta Tuha, Kec. Blangpidie, Kuta Tuha, Kecamaten Blang Pidie, Kabupaten Aceh Barat Daya, Aceh 23763";"Jl. Kesehatan, Desa Kuta Tuha, Kec. Blangpidie, Kuta Tuha, Kecamaten Blang Pidie, Kabupaten Aceh Barat Daya";"ACEH";"23763";"Indonesia";" 081388844450";"3.7387924";"96.8368896";"https://maps.google.com/?cid=0x0:0x97e2539a446b68a"
"mall";"mall";"Aceh 23763";"Hutan Blangpidie, Kecamaten Blang Pidie, Kabupaten Aceh Barat Daya, Aceh";"Kabupaten Aceh Barat Daya, Aceh";"ACEH";"";"Indonesia";"";"3.8370991";"96.9638624";"https://maps.google.com/?cid=0x0:0xcddc5be33e66fecd"
"mall";"Toko Kesehatan dan Kecantikan";"SUZUYA MALL ABDYA";"PVP2+FG2, Kedai Paya, Kecamaten Blang Pidie, Kabupaten Aceh Barat Daya, Aceh 23763";"Kedai Paya, Kecamaten Blang Pidie, Kabupaten Aceh Barat Daya";"ACEH";"23763";"Indonesia";"";"3.7361453";"96.851258";"https://maps.google.com/?cid=0x0:0xfae5965a98e7707f"
"mall";"Toko";"eM Olshop";"Jl. Datuk Tuo No.117, Panjang Baru, Susoh, Kabupaten Aceh Barat Daya, Aceh 23763";"Panjang Baru, Susoh, Kabupaten Aceh Barat Daya";"ACEH";"23763";"Indonesia";" 085276588450";"3.7158259";"96.8254444";"https://maps.google.com/?cid=0x0:0xffa7f54ae5ebae13"
"mall";"Toko umum";"cek to grosir";"PQQX+GXQ, Pulau Kayu, Susoh, Kabupaten Aceh Barat Daya, Aceh 23765";"Pulau Kayu, Susoh, Kabupaten Aceh Barat Daya";"ACEH";"23765";"Indonesia";" 081362730339";"3.7388275";"96.7999715";"https://maps.google.com/?cid=0x0:0xa4c13c14c0f778a"
"mall";"mall";"Tangan Tangan Cut";"Kec. Setia, Kabupaten Aceh Barat Daya, Aceh";"Kabupaten Aceh Barat Daya, Aceh";"ACEH";"";"Indonesia";"";"3.6888591";"96.8860381";"https://maps.google.com/?cid=0x0:0x7849e4c1cac5b691"
"mall";"Toko Bahan Bangunan";"SEMANGAT BARU";"PRQM+WQF, Meudang Ara, Kecamaten Blang Pidie, Kabupaten Aceh Barat Daya, Aceh 23763";"Meudang Ara, Kecamaten Blang Pidie, Kabupaten Aceh Barat Daya";"ACEH";"23763";"Indonesia";" 085359853850";"3.7398078";"96.8344221";"https://maps.google.com/?cid=0x0:0x7abdf549af83f54d"
"mall";"Toko";"Kedai Desi";"MW65+4QF, Gn. Cut, Kec. Tangan-Tangan, Kabupaten Aceh Barat Daya, Aceh 23762";"Gn. Cut, Kec. Tangan-Tangan, Kabupaten Aceh Barat Daya";"ACEH";"23762";"Indonesia";"";"3.6603134";"96.9094179";"https://maps.google.com/?cid=0x0:0x721a1316e097cfe8"
"mall";"Toko umum";"Galeri Sarana";"PRQP+GQ6, Jl. Kesehatan, Desa Kuta Tuha, Kec. Blangpidie, Kuta Tuha, Kecamaten Blang Pidie, Kabupaten Aceh Barat Daya, Aceh 23763";"Jl. Kesehatan, Desa Kuta Tuha, Kec. Blangpidie, Kuta Tuha, Kecamaten Blang Pidie, Kabupaten Aceh Barat Daya";"ACEH";"23763";"Indonesia";" 081388844450";"3.7387924";"96.8368896";"https://maps.google.com/?cid=0x0:0x97e2539a446b68a"
"mall";"Toko Perhiasan";"Toko ilham indah";"PRQM+56M, Jl. Selamat, Ps. Blang Pidie, Kecamaten Blang Pidie, Kabupaten Aceh Barat Daya, Aceh 23763";"Jl. Selamat, Ps. Blang Pidie, Kecamaten Blang Pidie, Kabupaten Aceh Barat Daya";"ACEH";"23763";"Indonesia";"";"3.7379621";"96.8330466";"https://maps.google.com/?cid=0x0:0xf097bcce71c45ec8"
"mall";"Toko";"TOKO ARSHOP RAINY";"PVH2+M42, Jl. Iskandar Muda, Kedai Paya, Kecamaten Blang Pidie, Kabupaten Aceh Barat Daya, Aceh 23763";"Jl. Iskandar Muda, Kedai Paya, Kecamaten Blang Pidie, Kabupaten Aceh Barat Daya";"ACEH";"23763";"Indonesia";" 085371232718";"3.7292172";"96.8502647";"https://maps.google.com/?cid=0x0:0xffe7ed6752d2abab"
"mall";"Toko Perhiasan";"Toko Mas Diamond";"PRQM+723, Ps. Blang Pidie, Kecamaten Blang Pidie, Kabupaten Aceh Barat Daya, Aceh 23763";"Ps. Blang Pidie, Kecamaten Blang Pidie, Kabupaten Aceh Barat Daya";"ACEH";"23763";"Indonesia";"";"3.7381467";"96.8325449";"https://maps.google.com/?cid=0x0:0x2394f0038a7c59d4"
"mall";"Toko bahan makanan";"Toko Maulana Surya";"MW65+M64, Padang Bak Jeumpa, Kec. Tangan-Tangan, Kabupaten Aceh Barat Daya, Aceh 23762";"Padang Bak Jeumpa, Kec. Tangan-Tangan, Kabupaten Aceh Barat Daya";"ACEH";"23762";"Indonesia";" 085276362283";"3.6616431";"96.9080916";"https://maps.google.com/?cid=0x0:0x85591c4817998514"
"mall";"Toko Bahan Bangunan";"Jasa Misbah 02";"Unnamed Road, Meudang Ara, Kecamaten Blang Pidie, Kabupaten Aceh Barat Daya, Aceh 23763";"Meudang Ara, Kecamaten Blang Pidie, Kabupaten Aceh Barat Daya";"ACEH";"23763";"Indonesia";" 081269159843";"3.7397682";"96.8330939";"https://maps.google.com/?cid=0x0:0x2900016e92627366"
"mall";"Toko bahan makanan";"Gilingan Bakso Bg Zeh";"MVPR+J46, ds, suak, Tangan Tangan Cut, Kec. Setia, Kabupaten Aceh Barat Daya, Aceh 23762";"ds, suak, Tangan Tangan Cut, Kec. Setia, Kabupaten Aceh Barat Daya";"ACEH";"23762";"Indonesia";" 085346611915";"3.6865456";"96.8902613";"https://maps.google.com/?cid=0x0:0xf007bedc3397e134"
"mall";"mall";"Manggeng";"Blang Manggeng, Kec. Manggeng, Kabupaten Aceh Barat Daya, Aceh";"Kabupaten Aceh Barat Daya, Aceh";"ACEH";"";"Indonesia";"";"3.60821";"96.9188";"https://maps.google.com/?cid=0x0:0x4039d80b220dbb0"
"mall";"Supermarket Diskon";"Nagaya Mart";"JW8P+5QV, Kedai, Kec. Manggeng, Kabupaten Aceh Barat Daya, Aceh 23762";"Kedai, Kec. Manggeng, Kabupaten Aceh Barat Daya";"ACEH";"23762";"Indonesia";"";"3.6154992";"96.936914";"https://maps.google.com/?cid=0x0:0xd75bd40605f72e18"
"mall";"Pusat Perbelanjaan";"Pasar Lama Manggeng";"JW7Q+MCV, Kedai, Kec. Manggeng, Kabupaten Aceh Barat Daya, Aceh 23762";"Kedai, Kec. Manggeng, Kabupaten Aceh Barat Daya";"ACEH";"23762";"Indonesia";"";"3.6142436";"96.9385366";"https://maps.google.com/?cid=0x0:0x427954a5357aceda"
"mall";"Toko Alat Tulis";"NIKMAT FOTOCOPY";"JWJ7+5QH, Panton Makmur, Kec. Manggeng, Kabupaten Aceh Barat Daya, Aceh 23762";"Panton Makmur, Kec. Manggeng, Kabupaten Aceh Barat Daya";"ACEH";"23762";"Indonesia";"";"3.6305711";"96.9146459";"https://maps.google.com/?cid=0x0:0x30754d601e79b39a"
"mall";"Grosir Barang Kelontong";"Keude Bg Wan";"Blang Manggeng, Kec. Manggeng, Kabupaten Aceh Barat Daya, Aceh 23762";"Kec. Manggeng, Kabupaten Aceh Barat Daya";"ACEH";"23762";"Indonesia";" 081376297095";"3.6064084";"96.9276359";"https://maps.google.com/?cid=0x0:0x51e1ac020a4fa1fd"
"mall";"Toko";"Toko Lismagaleryolshop";"Pante Pirak, Kec. Manggeng, Kabupaten Aceh Barat Daya, Aceh 23762";"Kec. Manggeng, Kabupaten Aceh Barat Daya";"ACEH";"23762";"Indonesia";" 082237924401";"3.6268873";"96.9029969";"https://maps.google.com/?cid=0x0:0xc9c0e44f0051b4ba"
"mall";"Toko Barang Pecah Belah";"Toko Heri TB pecah belah";"JW7Q+V84, Kedai, Kec. Manggeng, Kabupaten Aceh Barat Daya, Aceh 23762";"Kedai, Kec. Manggeng, Kabupaten Aceh Barat Daya";"ACEH";"23762";"Indonesia";"";"3.6146302";"96.9383152";"https://maps.google.com/?cid=0x0:0x8e57484b8773e2e4"
"mall";"Toko Swalayan";"Bumbu Hendri Basaba";"JW8P+6HF, pasar, Kec. Manggeng, Kabupaten Aceh Barat Daya, Aceh 23762";"pasar, Kec. Manggeng, Kabupaten Aceh Barat Daya";"ACEH";"23762";"Indonesia";"";"3.6155634";"96.9364279";"https://maps.google.com/?cid=0x0:0xcbfa5843be12fac6"
"mall";"Toko";"Suzuya Mall Meulaboh";"Jl. Nasional, Ujung Kalak, Kec. Johan Pahlawan, Kabupaten Aceh Barat, Aceh 23613";"Ujung Kalak, Kec. Johan Pahlawan, Kabupaten Aceh Barat";"ACEH";"23613";"Indonesia";"";"4.1446322";"96.1290008";"https://maps.google.com/?cid=0x0:0x3a4e5173a3751571"
"mall";"Pusat Perbelanjaan";"Miniso x samono Meulaboh";"Jl. Nasional, Ujong Baroh, Kec. Johan Pahlawan, Kabupaten Aceh Barat, Aceh 23612";"Ujong Baroh, Kec. Johan Pahlawan, Kabupaten Aceh Barat";"ACEH";"23612";"Indonesia";" 082368680857";"4.1465133";"96.1299406";"https://maps.google.com/?cid=0x0:0x926661777a6595a1"
"mall";"Taman bermain";"Funworld suzuya Meulaboh";"44XJ+5CH, Jl. Nasional, Ujong Baroh, Kec. Johan Pahlawan, Kabupaten Aceh Barat, Aceh 62314";"Jl. Nasional, Ujong Baroh, Kec. Johan Pahlawan, Kabupaten Aceh Barat";"ACEH";"62314";"Indonesia";"";"4.1479392";"96.1311224";"https://maps.google.com/?cid=0x0:0x622eaff10f281e21"
"mall";"mall";"Toko Husein";"PRX2+3FC, Ujung Padang, Susoh, Kabupaten Aceh Barat Daya, Aceh 23765";"Ujung Padang, Susoh, Kabupaten Aceh Barat Daya";"ACEH";"23765";"Indonesia";"";"3.747681";"96.8011349";"https://maps.google.com/?cid=0x0:0xa4332dce8384a5bc"
"mall";"Toko";"eM Olshop";"Jl. Datuk Tuo No.117, Panjang Baru, Susoh, Kabupaten Aceh Barat Daya, Aceh 23763";"Panjang Baru, Susoh, Kabupaten Aceh Barat Daya";"ACEH";"23763";"Indonesia";" 085276588450";"3.7158259";"96.8254444";"https://maps.google.com/?cid=0x0:0xffa7f54ae5ebae13"
"mall";"Pusat Perbelanjaan";"Ratu Olshop";"PV32+RJR, Rubek Meupayong, Susoh, Kabupaten Aceh Barat Daya, Aceh 23763";"Rubek Meupayong, Susoh, Kabupaten Aceh Barat Daya";"ACEH";"23763";"Indonesia";"";"3.7046125";"96.8515156";"https://maps.google.com/?cid=0x0:0xf7d61f62c968a60f"
"mall";"mall";"Aceh 23766";"Kec. Babah Rot, Kabupaten Aceh Barat Daya, Aceh";"Kabupaten Aceh Barat Daya, Aceh";"ACEH";"";"Indonesia";"";"3.9000346";"96.6851982";"https://maps.google.com/?cid=0x0:0x4d19ceb29190eb17"
"mall";"Pusat Perbelanjaan";"YakusaCell";"RQH4+XC2, Jl. Meulaboh - Tapaktuan, Gelanggang Gajah, Kec. Kuala Batee, Kabupaten Aceh Barat Daya, Aceh 23764";"Jl. Meulaboh - Tapaktuan, Gelanggang Gajah, Kec. Kuala Batee, Kabupaten Aceh Barat Daya";"ACEH";"23764";"Indonesia";" 082365409551";"3.8298776";"96.756031";"https://maps.google.com/?cid=0x0:0xd5cad902c848ceee"
"mall";"Bangunan Bersejarah";"Pasar Baru Lamainong";"RQ96+J28, Jl. Lintas Barat Sumatera, Blang Makmur, Kec. Kuala Batee, Kabupaten Aceh Barat Daya, Aceh 23764";"Jl. Lintas Barat Sumatera, Blang Makmur, Kec. Kuala Batee, Kabupaten Aceh Barat Daya";"ACEH";"23764";"Indonesia";"";"3.8190401";"96.7600628";"https://maps.google.com/?cid=0x0:0x1d96f74dcb753d5e"
"mall";"Toko Kesehatan dan Kecantikan";"SUZUYA MALL ABDYA";"PVP2+FG2, Kedai Paya, Kecamaten Blang Pidie, Kabupaten Aceh Barat Daya, Aceh 23763";"Kedai Paya, Kecamaten Blang Pidie, Kabupaten Aceh Barat Daya";"ACEH";"23763";"Indonesia";"";"3.7361453";"96.851258";"https://maps.google.com/?cid=0x0:0xfae5965a98e7707f"
"mall";"Pusat Perbelanjaan";"UD. Armida";"WMCC+CH4, Lhok Gayo, Kec. Babah Rot, Kabupaten Aceh Barat Daya, Aceh 23766";"Lhok Gayo, Kec. Babah Rot, Kabupaten Aceh Barat Daya";"ACEH";"23766";"Indonesia";"";"3.9210048";"96.6714589";"https://maps.google.com/?cid=0x0:0xde24a8d8942231bb"
"mall";"Minimarket";"Warung Nurhasanah";"QQQV+V5F, Jl. Meulaboh - Tapaktuan, Krueng Batee, Kec. Kuala Batee, Kabupaten Aceh Barat Daya, Aceh 23765";"Jl. Meulaboh - Tapaktuan, Krueng Batee, Kec. Kuala Batee, Kabupaten Aceh Barat Daya";"ACEH";"23765";"Indonesia";" 082369084805";"3.7896864";"96.7929126";"https://maps.google.com/?cid=0x0:0xf73525f5da0b6b9e"
"mall";"Pusat Perbelanjaan";"Rudi Perfume";"WM3W+G63, Jl. Ps. Rakyat, Pantee Rakyat, Kec. Babah Rot, Kabupaten Aceh Barat Daya, Aceh 23766";"Jl. Ps. Rakyat, Pantee Rakyat, Kec. Babah Rot, Kabupaten Aceh Barat Daya";"ACEH";"23766";"Indonesia";" 082363350461";"3.9037711";"96.6955426";"https://maps.google.com/?cid=0x0:0xbb8d9bb29e22529f"
"mall";"Toko";"Toko Adi Jam Service";"WM4W+P87, keudai, Pantee Rakyat, Kec. Babah Rot, Kabupaten Aceh Barat Daya, Aceh 23766";"keudai, Pantee Rakyat, Kec. Babah Rot, Kabupaten Aceh Barat Daya";"ACEH";"23766";"Indonesia";" 082386303617";"3.9067764";"96.6958088";"https://maps.google.com/?cid=0x0:0xd2bb3fff1a86ef75"
"mall";"Pusat Perbelanjaan";"Toko Baju UD.ILHAM";"WM5W+2FF, Jl. Lintas Barat Sumatera, Pantee Rakyat, Kec. Babah Rot, Kabupaten Aceh Barat Daya, Aceh 23766";"Jl. Lintas Barat Sumatera, Pantee Rakyat, Kec. Babah Rot, Kabupaten Aceh Barat Daya";"ACEH";"23766";"Indonesia";" 082365185434";"3.9075659";"96.6961595";"https://maps.google.com/?cid=0x0:0x7b5deb14299befca"
"mall";"Grosir";"Ud. RIZKY AL FUADY";"Jln. Nasional blang pidie meulaboh, Kec. Babah Rot, Aceh 23767";"Kec. Babah Rot";"ACEH";"23767";"Indonesia";" 085296299285";"3.9046519";"96.6978264";"https://maps.google.com/?cid=0x0:0x3dfbd3278402b862"
"mall";"Toko Bahan Bangunan";"SEMANGAT BARU";"PRQM+WQF, Meudang Ara, Kecamaten Blang Pidie, Kabupaten Aceh Barat Daya, Aceh 23763";"Meudang Ara, Kecamaten Blang Pidie, Kabupaten Aceh Barat Daya";"ACEH";"23763";"Indonesia";" 085359853850";"3.7398078";"96.8344221";"https://maps.google.com/?cid=0x0:0x7abdf549af83f54d"
"mall";"Toko umum";"cek to grosir";"PQQX+GXQ, Pulau Kayu, Susoh, Kabupaten Aceh Barat Daya, Aceh 23765";"Pulau Kayu, Susoh, Kabupaten Aceh Barat Daya";"ACEH";"23765";"Indonesia";" 081362730339";"3.7388275";"96.7999715";"https://maps.google.com/?cid=0x0:0xa4c13c14c0f778a"
"mall";"Toko";"Toko arkan / toko nailis";"WM4W+R9V, Pantee Rakyat, Kec. Babah Rot, Kabupaten Aceh Barat Daya, Aceh 23766";"Pantee Rakyat, Kec. Babah Rot, Kabupaten Aceh Barat Daya";"ACEH";"23766";"Indonesia";" 085275846064";"3.9071098";"96.695937";"https://maps.google.com/?cid=0x0:0xf46d6f2d44ebf29c"
"mall";"Toko";"UD. KAKAK ADEK";"QQVQ+562, Lhok Gajah, Kec. Kuala Batee, Kabupaten Aceh Barat Daya, Aceh 23765";"Lhok Gajah, Kec. Kuala Batee, Kabupaten Aceh Barat Daya";"ACEH";"23765";"Indonesia";"";"3.7928403";"96.7882076";"https://maps.google.com/?cid=0x0:0x3d9cca28e517a50f"
"mall";"Pasar";"PASAR BUAH BABAHROT";"WP32+7H3, Jl. Meulaboh - Tapaktuan, Pantee Rakyat, Kec. Babah Rot, Kabupaten Aceh Barat Daya, Aceh 23766";"Jl. Meulaboh - Tapaktuan, Pantee Rakyat, Kec. Babah Rot, Kabupaten Aceh Barat Daya";"ACEH";"23766";"Indonesia";"";"3.9031491";"96.7014239";"https://maps.google.com/?cid=0x0:0x375d9dd789572080"
"mall";"mall";"Aceh 23767";"Kec. Babah Rot, Kabupaten Aceh Barat Daya, Aceh";"Kabupaten Aceh Barat Daya, Aceh";"ACEH";"";"Indonesia";"";"3.8500236";"96.6103778";"https://maps.google.com/?cid=0x0:0xdb51e75798ae0c5b"
"mall";"Pusat Perbelanjaan";"UD. Armida";"WMCC+CH4, Lhok Gayo, Kec. Babah Rot, Kabupaten Aceh Barat Daya, Aceh 23766";"Lhok Gayo, Kec. Babah Rot, Kabupaten Aceh Barat Daya";"ACEH";"23766";"Indonesia";"";"3.9210048";"96.6714589";"https://maps.google.com/?cid=0x0:0xde24a8d8942231bb"
"mall";"mall";"UD. SIBRAN TANI";"XM55+8CJ, Gn. Samarinda, ALUE JAMBE, Kabupaten Aceh Barat Daya, Aceh 23662";"Gn. Samarinda, ALUE JAMBE, Kabupaten Aceh Barat Daya";"ACEH";"23662";"Indonesia";"";"3.9583347";"96.6585239";"https://maps.google.com/?cid=0x0:0x221a5f0b4c418db1"
"mall";"Pusat Perbelanjaan";"Toko Baju UD.ILHAM";"WM5W+2FF, Jl. Lintas Barat Sumatera, Pantee Rakyat, Kec. Babah Rot, Kabupaten Aceh Barat Daya, Aceh 23766";"Jl. Lintas Barat Sumatera, Pantee Rakyat, Kec. Babah Rot, Kabupaten Aceh Barat Daya";"ACEH";"23766";"Indonesia";" 082365185434";"3.9075659";"96.6961595";"https://maps.google.com/?cid=0x0:0x7b5deb14299befca"
"mall";"Pusat Perbelanjaan";"Rudi Perfume";"WM3W+G63, Jl. Ps. Rakyat, Pantee Rakyat, Kec. Babah Rot, Kabupaten Aceh Barat Daya, Aceh 23766";"Jl. Ps. Rakyat, Pantee Rakyat, Kec. Babah Rot, Kabupaten Aceh Barat Daya";"ACEH";"23766";"Indonesia";" 082363350461";"3.9037711";"96.6955426";"https://maps.google.com/?cid=0x0:0xbb8d9bb29e22529f"
"mall";"Grosir";"Ud. RIZKY AL FUADY";"Jln. Nasional blang pidie meulaboh, Kec. Babah Rot, Aceh 23767";"Kec. Babah Rot";"ACEH";"23767";"Indonesia";" 085296299285";"3.9046519";"96.6978264";"https://maps.google.com/?cid=0x0:0x3dfbd3278402b862"
"mall";"Toko";"Toko Mainan Anak";"WM6F+3RR, Pantee Rakyat, Kec. Babah Rot, Kabupaten Aceh Barat Daya, Aceh 23766";"Pantee Rakyat, Kec. Babah Rot, Kabupaten Aceh Barat Daya";"ACEH";"23766";"Indonesia";" 085362203065";"3.9102449";"96.6745042";"https://maps.google.com/?cid=0x0:0x1bc81c6a41d82a8f"
"mall";"Toko Kesehatan dan Kecantikan";"SUZUYA MALL ABDYA";"PVP2+FG2, Kedai Paya, Kecamaten Blang Pidie, Kabupaten Aceh Barat Daya, Aceh 23763";"Kedai Paya, Kecamaten Blang Pidie, Kabupaten Aceh Barat Daya";"ACEH";"23763";"Indonesia";"";"3.7361453";"96.851258";"https://maps.google.com/?cid=0x0:0xfae5965a98e7707f"
"mall";"Pusat Perbelanjaan";"UD. Rafi Armada grosir, swalayan";"WM4W+W7H, Jl. Meulaboh - Tapaktuan, Pantee Rakyat, Kec. Babah Rot, Kabupaten Aceh Barat Daya, Aceh 23766";"Jl. Meulaboh - Tapaktuan, Pantee Rakyat, Kec. Babah Rot, Kabupaten Aceh Barat Daya";"ACEH";"23766";"Indonesia";" 082184222882";"3.9073233";"96.6957368";"https://maps.google.com/?cid=0x0:0xac16c8f38ee08fca"
"mall";"Toko umum";"cek to grosir";"PQQX+GXQ, Pulau Kayu, Susoh, Kabupaten Aceh Barat Daya, Aceh 23765";"Pulau Kayu, Susoh, Kabupaten Aceh Barat Daya";"ACEH";"23765";"Indonesia";" 081362730339";"3.7388275";"96.7999715";"https://maps.google.com/?cid=0x0:0xa4c13c14c0f778a"
"mall";"Toko Bahan Bangunan";"Jasa Misbah 02";"Unnamed Road, Meudang Ara, Kecamaten Blang Pidie, Kabupaten Aceh Barat Daya, Aceh 23763";"Meudang Ara, Kecamaten Blang Pidie, Kabupaten Aceh Barat Daya";"ACEH";"23763";"Indonesia";" 081269159843";"3.7397682";"96.8330939";"https://maps.google.com/?cid=0x0:0x2900016e92627366"
"mall";"Bangunan Bersejarah";"Pasar Baru Lamainong";"RQ96+J28, Jl. Lintas Barat Sumatera, Blang Makmur, Kec. Kuala Batee, Kabupaten Aceh Barat Daya, Aceh 23764";"Jl. Lintas Barat Sumatera, Blang Makmur, Kec. Kuala Batee, Kabupaten Aceh Barat Daya";"ACEH";"23764";"Indonesia";"";"3.8190401";"96.7600628";"https://maps.google.com/?cid=0x0:0x1d96f74dcb753d5e"
"mall";"Toko";"eM Olshop";"Jl. Datuk Tuo No.117, Panjang Baru, Susoh, Kabupaten Aceh Barat Daya, Aceh 23763";"Panjang Baru, Susoh, Kabupaten Aceh Barat Daya";"ACEH";"23763";"Indonesia";" 085276588450";"3.7158259";"96.8254444";"https://maps.google.com/?cid=0x0:0xffa7f54ae5ebae13"
"mall";"mall";"Kec. Setia";"Kabupaten Aceh Barat Daya, Aceh";"Kabupaten Aceh Barat Daya, Aceh";"ACEH";"";"Indonesia";"";"3.7078495";"96.8719767";"https://maps.google.com/?cid=0x0:0x34a354e1c2218e5f"
"mall";"Toko Kesehatan dan Kecantikan";"SUZUYA MALL ABDYA";"PVP2+FG2, Kedai Paya, Kecamaten Blang Pidie, Kabupaten Aceh Barat Daya, Aceh 23763";"Kedai Paya, Kecamaten Blang Pidie, Kabupaten Aceh Barat Daya";"ACEH";"23763";"Indonesia";"";"3.7361453";"96.851258";"https://maps.google.com/?cid=0x0:0xfae5965a98e7707f"
"mall";"Pusat Perbelanjaan";"Pangkalan Minyak Pak Din KR";"PV87+4RC, Alue Dama, Kec. Setia, Kabupaten Aceh Barat Daya, Aceh 23763";"Alue Dama, Kec. Setia, Kabupaten Aceh Barat Daya";"ACEH";"23763";"Indonesia";"";"3.7153162";"96.8645089";"https://maps.google.com/?cid=0x0:0x25f5631b1f1081cd"
"mall";"Toko";"Rumoh Singgah Olshop";"MVX7+82G, Kuta murni, suak, Ujung Tanah, Kec. Setia, Kabupaten Aceh Barat Daya, Aceh 23763";"Kuta murni, suak, Ujung Tanah, Kec. Setia, Kabupaten Aceh Barat Daya";"ACEH";"23763";"Indonesia";" 081263721564";"3.698324";"96.8625862";"https://maps.google.com/?cid=0x0:0xfad0bf1f546bfd1e"
"mall";"Toko";"MITRA COPIER ABDYA";"Dusun Manggis, Lamkuta, Kecamaten Blang Pidie, Kabupaten Aceh Barat Daya, Aceh 32764";"Lamkuta, Kecamaten Blang Pidie, Kabupaten Aceh Barat Daya";"ACEH";"32764";"Indonesia";" 082273730162";"3.7242501";"96.856884";"https://maps.google.com/?cid=0x0:0x4b2c77a95e0f4c13"
"mall";"Toko";"TOKO ARSHOP RAINY";"PVH2+M42, Jl. Iskandar Muda, Kedai Paya, Kecamaten Blang Pidie, Kabupaten Aceh Barat Daya, Aceh 23763";"Jl. Iskandar Muda, Kedai Paya, Kecamaten Blang Pidie, Kabupaten Aceh Barat Daya";"ACEH";"23763";"Indonesia";" 085371232718";"3.7292172";"96.8502647";"https://maps.google.com/?cid=0x0:0xffe7ed6752d2abab"
"mall";"Toko Ponsel";"GSM STORE";"PRPP+RCP, Jl. Kesehatan, Kuta Tuha, Kecamaten Blang Pidie, Kabupaten Aceh Barat Daya, Aceh 23763";"Jl. Kesehatan, Kuta Tuha, Kecamaten Blang Pidie, Kabupaten Aceh Barat Daya";"ACEH";"23763";"Indonesia";" 081362622828";"3.7370834";"96.8360653";"https://maps.google.com/?cid=0x0:0x763e5ae2aa58ea48"
"mall";"Pusat Perbelanjaan";"Suzuya Mall Banda Aceh";"Jl. Teuku Umar, Lamtemen Tim., Kec. Jaya Baru, Kota Banda Aceh, Aceh 23232";"Lamtemen Tim., Kec. Jaya Baru, Kota Banda Aceh";"ACEH";"23232";"Indonesia";" 06518011022";"5.5377324";"95.3068005";"https://maps.google.com/?cid=0x0:0xc5c56efc74442dea"
"mall";"Pusat Perbelanjaan";"Plaza Aceh";"Jl. T. Hasan Dek Jl. Teuku Iskandar No.49, Beurawe, Kec. Kuta Alam, Kota Banda Aceh, Aceh 23127";"Beurawe, Kec. Kuta Alam, Kota Banda Aceh";"ACEH";"23127";"Indonesia";" 08116899890";"5.5547881";"95.3308683";"https://maps.google.com/?cid=0x0:0x45c9eb2ec9e62a76"
"mall";"Pom bensin/SPBU";"Spbu blang muko";"MVJW+MV9, Ie Lhop, Kec. Tangan-Tangan, Kabupaten Aceh Barat Daya, Aceh 23762";"Ie Lhop, Kec. Tangan-Tangan, Kabupaten Aceh Barat Daya";"ACEH";"23762";"Indonesia";"";"3.6816509";"96.8972248";"https://maps.google.com/?cid=0x0:0x3ff6063d487ddd56"
"mall";"mall";"Aceh 23763";"Hutan Blangpidie, Kecamaten Blang Pidie, Kabupaten Aceh Barat Daya, Aceh";"Kabupaten Aceh Barat Daya, Aceh";"ACEH";"";"Indonesia";"";"3.8370991";"96.9638624";"https://maps.google.com/?cid=0x0:0xcddc5be33e66fecd"
"mall";"mall";"kios setia cell";"QQ6M+4M4, Ie Mameh, Kec. Kuala Batee, Kabupaten Aceh Barat Daya, Aceh 23765";"Ie Mameh, Kec. Kuala Batee, Kabupaten Aceh Barat Daya";"ACEH";"23765";"Indonesia";"";"3.7602538";"96.7842015";"https://maps.google.com/?cid=0x0:0xfc8afbeb35e50bf8"
"mall";"Toko Ponsel";"Setia Cell";"GHGX+2FX, Jalan Raya, Sukajadi, Banjarsari, Ciamis Regency, West Java 46383";"Jalan Raya, Sukajadi, Banjarsari, Ciamis Regency";"ACEH";"46383";"Indonesia";"";"-7.4748872";"108.598719";"https://maps.google.com/?cid=0x0:0xec50b4e5e601daff"
"mall";"Toko Perbaikan Ponsel";"Yadeta Cell";"GH9W+9R4, Jl. Cigayam, Sukasari, Kacamatan Banjarsari, Kabupaten Ciamis, Jawa Barat 46383";"Jl. Cigayam, Sukasari, Kacamatan Banjarsari, Kabupaten Ciamis";"ACEH";"46383";"Indonesia";"";"-7.4816071";"108.5970711";"https://maps.google.com/?cid=0x0:0xfe1123ceceffcb43"
"mall";"Toko";"eM Olshop";"Jl. Datuk Tuo No.117, Panjang Baru, Susoh, Kabupaten Aceh Barat Daya, Aceh 23763";"Panjang Baru, Susoh, Kabupaten Aceh Barat Daya";"ACEH";"23763";"Indonesia";" 085276588450";"3.7158259";"96.8254444";"https://maps.google.com/?cid=0x0:0xffa7f54ae5ebae13"
"mall";"Pusat Perbelanjaan";"Ratu Olshop";"PV32+RJR, Rubek Meupayong, Susoh, Kabupaten Aceh Barat Daya, Aceh 23763";"Rubek Meupayong, Susoh, Kabupaten Aceh Barat Daya";"ACEH";"23763";"Indonesia";"";"3.7046125";"96.8515156";"https://maps.google.com/?cid=0x0:0xf7d61f62c968a60f"
"mall";"mall";"Aceh 23764";"Kabupaten Aceh Barat Daya, Aceh";"Kabupaten Aceh Barat Daya, Aceh";"ACEH";"";"Indonesia";"";"3.8585335";"96.8136642";"https://maps.google.com/?cid=0x0:0xffecff8e1cb94052"
"mall";"Toko";"MIFTA JAYA ELECTRIC";"Kuta Jeumpa, Kec. Jeumpa, Kabupaten Aceh Barat Daya, Aceh 23764";"Kec. Jeumpa, Kabupaten Aceh Barat Daya";"ACEH";"23764";"Indonesia";" 081281140808";"3.7718838";"96.8193095";"https://maps.google.com/?cid=0x0:0x9d71b68f1b81049a"
"mall";"Pusat Perbelanjaan";"Indomart Abdya";"QRC6+8VC, Iku Lhung, Kec. Jeumpa, Kabupaten Aceh Barat Daya, Aceh 23765";"Iku Lhung, Kec. Jeumpa, Kabupaten Aceh Barat Daya";"ACEH";"23765";"Indonesia";" 085549888800";"3.7708151";"96.812139";"https://maps.google.com/?cid=0x0:0x7b3a78aef8607da1"
"mall";"Toko";"Putra jeumpa";"62W7+5W6, Gampong jeumpa, Kec. Glumpang Tiga, Kabupaten Pidie, Aceh 24173";"Gampong jeumpa, Kec. Glumpang Tiga, Kabupaten Pidie";"ACEH";"24173";"Indonesia";" 082273722781";"5.2454043";"96.0147776";"https://maps.google.com/?cid=0x0:0x8e53b0ecdf189c1e"
"mall";"mall";"MITA JAYA CELL";"QRC9+QP8, Kuta Jeumpa, Kec. Jeumpa, Kabupaten Aceh Barat Daya, Aceh 23764";"Kuta Jeumpa, Kec. Jeumpa, Kabupaten Aceh Barat Daya";"ACEH";"23764";"Indonesia";"";"3.7719215";"96.8193375";"https://maps.google.com/?cid=0x0:0x71f2109679e8c6c3"
"mall";"Toko umum";"Grandshop aceh";"Jl.Padat karya No.68, Pulo Batee, Kec. Glumpang Tiga, Kabupaten Pidie, Aceh 24183";"Pulo Batee, Kec. Glumpang Tiga, Kabupaten Pidie";"ACEH";"24183";"Indonesia";" 085260142008";"5.2523404";"96.0151771";"https://maps.google.com/?cid=0x0:0xdf270c0d1574819e"
"mall";"mall";"Aceh 24251";"Kabupaten Bireuen, Aceh";"Kabupaten Bireuen, Aceh";"ACEH";"";"Indonesia";"";"5.0881574";"96.642433";"https://maps.google.com/?cid=0x0:0x2d3a8ff5c08e4a15"
"mall";"Mal outlet";"Suzuya Mall Bireuen";"Jl. Sultan Malikussaleh, Simpang Empat, Kec. Kota Juang, Kabupaten Bireuen, Aceh 24252";"Simpang Empat, Kec. Kota Juang, Kabupaten Bireuen";"ACEH";"24252";"Indonesia";" 06443199994";"5.201847";"96.7031014";"https://maps.google.com/?cid=0x0:0x91e2f99a078aa4c5"
"mall";"Perusahaan pengolahan makanan";"Gerai keripik nagasari jeumpa niaga";"Jl. Medan - Banda Aceh, Blang Cot Tunong, Kec. Jeumpa, Kabupaten Bireuen, Aceh";"Kabupaten Bireuen, Aceh";"ACEH";"";"Indonesia";"";"5.205204";"96.6750654";"https://maps.google.com/?cid=0x0:0x4ea4f217e2760d3a"
"mall";"Toko";"Diamond Collection";"Blang Cot Tunong, Kec. Jeumpa, Kabupaten Bireuen, Aceh 24251";"Kec. Jeumpa, Kabupaten Bireuen";"ACEH";"24251";"Indonesia";" 082277135012";"5.207202";"96.6778511";"https://maps.google.com/?cid=0x0:0x9d33da807f639c0e"
"mall";"Pusat Perbelanjaan";"Udang pancing kuala jeumpa";"Jl. Medan - Banda Aceh No.desa, Kuala Jeumpa, Kec. Jeumpa, Kabupaten Bireuen, Aceh";"Kabupaten Bireuen, Aceh";"ACEH";"";"Indonesia";" 082278993362";"5.2082139";"96.6532077";"https://maps.google.com/?cid=0x0:0x62c3afcc5cda8dbf"
"mall";"Pusat Perbelanjaan";"Nayla Olshop And Studio";"5MXW+GW8, Unnamed Road, Bireun Meunasah Dayah, Kec. Kota Juang, Kabupaten Bireuen, Aceh 24261";"Unnamed Road, Bireun Meunasah Dayah, Kec. Kota Juang, Kabupaten Bireuen";"ACEH";"24261";"Indonesia";" 081362864188";"5.1987796";"96.6973398";"https://maps.google.com/?cid=0x0:0x8fc1f2a2488cc398"
"mall";"Toko";"Mj grosir";"Bireun Mns Reuleut, Kec. Kota Juang, Kabupaten Bireuen, Aceh 24261";"Kec. Kota Juang, Kabupaten Bireuen";"ACEH";"24261";"Indonesia";"";"5.2043972";"96.6918608";"https://maps.google.com/?cid=0x0:0x681a7a0a673c1c26"
"mall";"Toko Ponsel";"I.M.H CELL";"6M3W+J55, Unnamed Road, Bireun Mns Reuleut, Kec. Kota Juang, Kabupaten Bireuen, Aceh 24261";"Unnamed Road, Bireun Mns Reuleut, Kec. Kota Juang, Kabupaten Bireuen";"ACEH";"24261";"Indonesia";" 082364053616";"5.2040125";"96.6954848";"https://maps.google.com/?cid=0x0:0xb0cf66a0fd06c217"
"mall";"Pusat Perbelanjaan";"Zulva hijab aceh";"6H3X+FWR, Matang Reuleut, Kec. Peudada, Kabupaten Bireuen, Aceh";"Kabupaten Bireuen, Aceh";"ACEH";"";"Indonesia";" 085358442448";"5.2037333";"96.5997744";"https://maps.google.com/?cid=0x0:0xf7e1307b37f11e0e"
"mall";"Pusat Perbelanjaan";"Gerai.Yumna";"6M2V+2CC, Bireun Meunasah Blang, Kec. Kota Juang, Kabupaten Bireuen, Aceh";"Kabupaten Bireuen, Aceh";"ACEH";"";"Indonesia";" 0895600577631";"5.2000592";"96.6935197";"https://maps.google.com/?cid=0x0:0x9eddedd093b739f8"
"mall";"Toko bahan makanan";"toko cek mi CM";"5PR4+5HX, Juli Cot Mesjid, Kec. Juli, Kabupaten Bireuen, Aceh 24261";"Juli Cot Mesjid, Kec. Juli, Kabupaten Bireuen";"ACEH";"24261";"Indonesia";" 081360972286";"5.1904989";"96.7064702";"https://maps.google.com/?cid=0x0:0xdbb1e38c1ec05be"
"mall";"Pusat Perbelanjaan";"Cut Aira_Gallery";"6M49+995, Jl. Medan - Banda Aceh, Geulumpang Payong, Kec. Jeumpa, Kabupaten Bireuen, Aceh";"Kabupaten Bireuen, Aceh";"ACEH";"";"Indonesia";" 082361861199";"5.2058833";"96.6684866";"https://maps.google.com/?cid=0x0:0xea7882ad9d51f1c8"
"mall";"";"warung apabudi";"6J5R+5FH, Unnamed Road, Teupok Baroh, Kec. Jeumpa, Kabupaten Bireuen, Aceh 24251";"Unnamed Road, Teupok Baroh, Kec. Jeumpa, Kabupaten Bireuen";"ACEH";"24251";"Indonesia";"";"5.2079277";"96.6412246";"https://maps.google.com/?cid=0x0:0xbe85fa3fcbe7e9cc"
"mall";"Seafood";"Pasar Induk Kota Juang Bireuen";"Bireuen, Geulanggang Gampong, Kec. Kota Juang, Kabupaten Bireuen, Aceh 24261";"Geulanggang Gampong, Kec. Kota Juang, Kabupaten Bireuen";"ACEH";"24261";"Indonesia";"";"5.1954377";"96.7077283";"https://maps.google.com/?cid=0x0:0xeba09100ed2a39ed"
"mall";"Pusat Perbelanjaan";"Pasar Lama Manggeng";"JW7Q+MCV, Kedai, Kec. Manggeng, Kabupaten Aceh Barat Daya, Aceh 23762";"Kedai, Kec. Manggeng, Kabupaten Aceh Barat Daya";"ACEH";"23762";"Indonesia";"";"3.6142436";"96.9385366";"https://maps.google.com/?cid=0x0:0x427954a5357aceda"
"mall";"mall";"Kec. Lembah Sabil";"Kabupaten Aceh Barat Daya, Aceh";"Kabupaten Aceh Barat Daya, Aceh";"ACEH";"";"Indonesia";"";"3.589112";"96.9343064";"https://maps.google.com/?cid=0x0:0x47f212bb54114078"
"mall";"Supermarket Diskon";"Nagaya Mart";"JW8P+5QV, Kedai, Kec. Manggeng, Kabupaten Aceh Barat Daya, Aceh 23762";"Kedai, Kec. Manggeng, Kabupaten Aceh Barat Daya";"ACEH";"23762";"Indonesia";"";"3.6154992";"96.936914";"https://maps.google.com/?cid=0x0:0xd75bd40605f72e18"
"mall";"Pusat Kesehatan Masyarakat";"Puskesmas Lembah Sabil";"HWWV+X34, Padang Kelele, Kec. Lembah Sabil, Kabupaten Aceh Barat Daya, Aceh 23762";"Padang Kelele, Kec. Lembah Sabil, Kabupaten Aceh Barat Daya";"ACEH";"23762";"Indonesia";"";"3.5973824";"96.9427086";"https://maps.google.com/?cid=0x0:0x85d63c0f448d6e2f"
"mall";"Toko Kesehatan dan Kecantikan";"SUZUYA MALL ABDYA";"PVP2+FG2, Kedai Paya, Kecamaten Blang Pidie, Kabupaten Aceh Barat Daya, Aceh 23763";"Kedai Paya, Kecamaten Blang Pidie, Kabupaten Aceh Barat Daya";"ACEH";"23763";"Indonesia";"";"3.7361453";"96.851258";"https://maps.google.com/?cid=0x0:0xfae5965a98e7707f"
"mall";"Grosir Barang Kelontong";"Keude Bg Wan";"Blang Manggeng, Kec. Manggeng, Kabupaten Aceh Barat Daya, Aceh 23762";"Kec. Manggeng, Kabupaten Aceh Barat Daya";"ACEH";"23762";"Indonesia";" 081376297095";"3.6064084";"96.9276359";"https://maps.google.com/?cid=0x0:0x51e1ac020a4fa1fd"
"mall";"Toko Swalayan";"Bumbu Hendri Basaba";"JW8P+6HF, pasar, Kec. Manggeng, Kabupaten Aceh Barat Daya, Aceh 23762";"pasar, Kec. Manggeng, Kabupaten Aceh Barat Daya";"ACEH";"23762";"Indonesia";"";"3.6155634";"96.9364279";"https://maps.google.com/?cid=0x0:0xcbfa5843be12fac6"
"mall";"Toko Barang Pecah Belah";"Toko Heri TB pecah belah";"JW7Q+V84, Kedai, Kec. Manggeng, Kabupaten Aceh Barat Daya, Aceh 23762";"Kedai, Kec. Manggeng, Kabupaten Aceh Barat Daya";"ACEH";"23762";"Indonesia";"";"3.6146302";"96.9383152";"https://maps.google.com/?cid=0x0:0x8e57484b8773e2e4"
"mall";"mall";"Meukat Bakong";"JW8P+6HJ, Kedai, Kec. Manggeng, Kabupaten Aceh Barat Daya, Aceh 23762";"Kedai, Kec. Manggeng, Kabupaten Aceh Barat Daya";"ACEH";"23762";"Indonesia";"";"3.6155825";"96.9363943";"https://maps.google.com/?cid=0x0:0xd59b9d72cbf77bb8"
"mall";"mall";"Aidil Store";"JW8P+3G5, Jl. At-Taqwa, Kedai, Kec. Manggeng, Kabupaten Aceh Barat Daya, Aceh 23762";"Jl. At-Taqwa, Kedai, Kec. Manggeng, Kabupaten Aceh Barat Daya";"ACEH";"23762";"Indonesia";"";"3.6151365";"96.9363696";"https://maps.google.com/?cid=0x0:0x994a960a677ec72e"
"mall";"Toko";"Kedai Desi";"MW65+4QF, Gn. Cut, Kec. Tangan-Tangan, Kabupaten Aceh Barat Daya, Aceh 23762";"Gn. Cut, Kec. Tangan-Tangan, Kabupaten Aceh Barat Daya";"ACEH";"23762";"Indonesia";"";"3.6603134";"96.9094179";"https://maps.google.com/?cid=0x0:0x721a1316e097cfe8"
"mall";"Perhimpunan Pengembang Perumahan";"Kios Syarmi Abadi";"Panton Pawoh, panton rubek, Kec. Labuhan H. Bar., Kabupaten Aceh Selatan, Aceh 23762";"panton rubek, Kec. Labuhan H. Bar., Kabupaten Aceh Selatan";"ACEH";"23762";"Indonesia";" 085275909112";"3.6042984";"96.9658045";"https://maps.google.com/?cid=0x0:0xd7260eb6addfae52"
"mall";"Toko umum";"UDNAS Sumber Jaya";"Ujung Padang, Kec. Labuhan H. Bar., Kabupaten Aceh Selatan, Aceh 23762";"Kec. Labuhan H. Bar., Kabupaten Aceh Selatan";"ACEH";"23762";"Indonesia";" 082277708999";"3.5663412";"96.9725621";"https://maps.google.com/?cid=0x0:0x973d630a0f846e26"
"mall";"Toko Alat Tulis";"NIKMAT FOTOCOPY";"JWJ7+5QH, Panton Makmur, Kec. Manggeng, Kabupaten Aceh Barat Daya, Aceh 23762";"Panton Makmur, Kec. Manggeng, Kabupaten Aceh Barat Daya";"ACEH";"23762";"Indonesia";"";"3.6305711";"96.9146459";"https://maps.google.com/?cid=0x0:0x30754d601e79b39a"
"supermarket";"Pusat Perbelanjaan";"Mentari Swalayan Blangpidie";"Jl. Selamat, Ps. Blang Pidie, Kecamaten Blang Pidie, Kabupaten Aceh Barat Daya, Aceh 23763";"Ps. Blang Pidie, Kecamaten Blang Pidie, Kabupaten Aceh Barat Daya";"ACEH";"23763";"Indonesia";" 065993315";"3.7375464";"96.8345907";"https://maps.google.com/?cid=0x0:0x8b26348b1673407e"
"supermarket";"supermarket";"Aceh 23764";"Kabupaten Aceh Barat Daya, Aceh";"Kabupaten Aceh Barat Daya, Aceh";"ACEH";"";"Indonesia";"";"3.8585335";"96.8136642";"https://maps.google.com/?cid=0x0:0xffecff8e1cb94052"
"supermarket";"Toko Swalayan";"Sejahtera Swalayan Blangpidie";"PRQR+GHJ, Jl. Iskandar Muda, Geulumpang Payong, Kecamaten Blang Pidie, Kabupaten Aceh Barat Daya, Aceh 23763";"Jl. Iskandar Muda, Geulumpang Payong, Kecamaten Blang Pidie, Kabupaten Aceh Barat Daya";"ACEH";"23763";"Indonesia";" 082275464951";"3.7388397";"96.8413825";"https://maps.google.com/?cid=0x0:0x31d1f689454b8ecc"
"supermarket";"Toko umum";"SW SWALAYAN  SW KOSMETIK  SW COFFE SHOP";"Seunaloh, Kecamaten Blang Pidie, Kabupaten Aceh Barat Daya, Aceh 23763";"Kecamaten Blang Pidie, Kabupaten Aceh Barat Daya";"ACEH";"23763";"Indonesia";"";"3.7464491";"96.8341925";"https://maps.google.com/?cid=0x0:0xdfb58d06d7bee56c"
"supermarket";"Pasar Makanan Segar";"Pasar Tradisional Blangpidie";"PRQM+Q9J, Jl. Ladang Neubok, Meudang Ara, Kecamaten Blang Pidie, Kabupaten Aceh Barat Daya, Aceh 23763";"Jl. Ladang Neubok, Meudang Ara, Kecamaten Blang Pidie, Kabupaten Aceh Barat Daya";"ACEH";"23763";"Indonesia";"";"3.7394545";"96.8334023";"https://maps.google.com/?cid=0x0:0xff94ee2a3abbfe00"
"supermarket";"Toko bahan makanan";"Toko Ozil Mart";"PRQM+MVM, Jl. Pendidikan, Meudang Ara, Kecamaten Blang Pidie, Kabupaten Aceh Barat Daya, Aceh 23763";"Jl. Pendidikan, Meudang Ara, Kecamaten Blang Pidie, Kabupaten Aceh Barat Daya";"ACEH";"23763";"Indonesia";"";"3.7392126";"96.8346739";"https://maps.google.com/?cid=0x0:0xdffa619d527ac367"
"supermarket";"Toko Pakaian";"BRANDED BLANGPIDIE";"Jl. Kesehatan No.86a, Kuta Tuha, Kecamaten Blang Pidie, Kabupaten Aceh Barat Daya, Aceh 23764";"Kuta Tuha, Kecamaten Blang Pidie, Kabupaten Aceh Barat Daya";"ACEH";"23764";"Indonesia";" 085276336790";"3.7372956";"96.835008";"https://maps.google.com/?cid=0x0:0x1fb47eb3c8501d0b"
"supermarket";"Toko";"MR. D.I.Y Blangpidie";"Jl. Iskandar Muda, Geulumpang Payong, Kecamaten Blang Pidie, Kabupaten Aceh Barat Daya, Aceh 23764";"Geulumpang Payong, Kecamaten Blang Pidie, Kabupaten Aceh Barat Daya";"ACEH";"23764";"Indonesia";"";"3.7386537";"96.8416238";"https://maps.google.com/?cid=0x0:0x4bc9bc343ce63a26"
"supermarket";"Toko Fotokopi";"UD. Nazhifa Grafika";"no 23764, Jl. Pendidikan No.16, Meudang Ara, Kecamaten Blang Pidie, Kabupaten Aceh Barat Daya, Aceh 23764";"Jl. Pendidikan No.16, Meudang Ara, Kecamaten Blang Pidie, Kabupaten Aceh Barat Daya";"ACEH";"23764";"Indonesia";" 085277567325";"3.7402911";"96.8352717";"https://maps.google.com/?cid=0x0:0x934c4908b5599079"
"supermarket";"Toko";"An-Nahla Shop Blangpidie";"Jl. Kesehatan No.30, Geulumpang Payong, Kecamaten Blang Pidie, Kabupaten Aceh Barat Daya, Aceh 23763";"Geulumpang Payong, Kecamaten Blang Pidie, Kabupaten Aceh Barat Daya";"ACEH";"23763";"Indonesia";"";"3.7403638";"96.839066";"https://maps.google.com/?cid=0x0:0x31e94fb18f97f36a"
"supermarket";"Toko Swalayan";"Toko SRC Amar JM";"Kedai Siblah, Kecamaten Blang Pidie, Kabupaten Aceh Barat Daya, Aceh 23764";"Kecamaten Blang Pidie, Kabupaten Aceh Barat Daya";"ACEH";"23764";"Indonesia";" 082362913222";"3.7407736";"96.832858";"https://maps.google.com/?cid=0x0:0x2d3c6e47becf26b4"
"supermarket";"Toko Bumbu";"UD. H.Hasyimi";"Jl. Pusat pasar No.73/74, Meudang Ara, Kecamaten Blang Pidie, Kabupaten Aceh Barat Daya, Aceh 23764";"Meudang Ara, Kecamaten Blang Pidie, Kabupaten Aceh Barat Daya";"ACEH";"23764";"Indonesia";" 081377190088";"3.7389498";"96.8339456";"https://maps.google.com/?cid=0x0:0xd29d989cf2817990"
"supermarket";"Kedai Kopi";"Nongkrong Coffee";"Kedai Siblah, Kecamaten Blang Pidie, Kabupaten Aceh Barat Daya, Aceh 23763";"Kecamaten Blang Pidie, Kabupaten Aceh Barat Daya";"ACEH";"23763";"Indonesia";" 082277903321";"3.7413128";"96.8329362";"https://maps.google.com/?cid=0x0:0x252c87f138895d56"
"supermarket";"Kafe";"Mega Kupi";"Meudang Ara, Kecamaten Blang Pidie, Kabupaten Aceh Barat Daya, Aceh 23763";"Kecamaten Blang Pidie, Kabupaten Aceh Barat Daya";"ACEH";"23763";"Indonesia";"";"3.7429808";"96.8334676";"https://maps.google.com/?cid=0x0:0xa1042416f4af2d97"
"supermarket";"supermarket";"Aceh 23763";"Hutan Blangpidie, Kecamaten Blang Pidie, Kabupaten Aceh Barat Daya, Aceh";"Kabupaten Aceh Barat Daya, Aceh";"ACEH";"";"Indonesia";"";"3.8370991";"96.9638624";"https://maps.google.com/?cid=0x0:0xcddc5be33e66fecd"
"supermarket";"Toko Swalayan";"Swalayan Caen";"PRFC+922, Durian Jangek, Susoh, Kabupaten Aceh Barat Daya, Aceh 23763";"Durian Jangek, Susoh, Kabupaten Aceh Barat Daya";"ACEH";"23763";"Indonesia";"";"3.7233789";"96.8200259";"https://maps.google.com/?cid=0x0:0x1c79db15090bbc12"
"supermarket";"Toko bahan makanan";"RH Swalayan";"Durian Rampak, Susoh, Kabupaten Aceh Barat Daya, Aceh 23763";"Susoh, Kabupaten Aceh Barat Daya";"ACEH";"23763";"Indonesia";" 082254659431";"3.725108";"96.8221124";"https://maps.google.com/?cid=0x0:0x759c7b6ab717b429"
"supermarket";"Pusat Perbelanjaan";"Mentari Swalayan Blangpidie";"Jl. Selamat, Ps. Blang Pidie, Kecamaten Blang Pidie, Kabupaten Aceh Barat Daya, Aceh 23763";"Ps. Blang Pidie, Kecamaten Blang Pidie, Kabupaten Aceh Barat Daya";"ACEH";"23763";"Indonesia";" 065993315";"3.7375464";"96.8345907";"https://maps.google.com/?cid=0x0:0x8b26348b1673407e"
"supermarket";"Toko umum";"SW SWALAYAN  SW KOSMETIK  SW COFFE SHOP";"Seunaloh, Kecamaten Blang Pidie, Kabupaten Aceh Barat Daya, Aceh 23763";"Kecamaten Blang Pidie, Kabupaten Aceh Barat Daya";"ACEH";"23763";"Indonesia";"";"3.7464491";"96.8341925";"https://maps.google.com/?cid=0x0:0xdfb58d06d7bee56c"
"supermarket";"Toko Swalayan";"Sejahtera Swalayan Blangpidie";"PRQR+GHJ, Jl. Iskandar Muda, Geulumpang Payong, Kecamaten Blang Pidie, Kabupaten Aceh Barat Daya, Aceh 23763";"Jl. Iskandar Muda, Geulumpang Payong, Kecamaten Blang Pidie, Kabupaten Aceh Barat Daya";"ACEH";"23763";"Indonesia";" 082275464951";"3.7388397";"96.8413825";"https://maps.google.com/?cid=0x0:0x31d1f689454b8ecc"
"supermarket";"Toko bahan makanan";"Toko Ozil Mart";"PRQM+MVM, Jl. Pendidikan, Meudang Ara, Kecamaten Blang Pidie, Kabupaten Aceh Barat Daya, Aceh 23763";"Jl. Pendidikan, Meudang Ara, Kecamaten Blang Pidie, Kabupaten Aceh Barat Daya";"ACEH";"23763";"Indonesia";"";"3.7392126";"96.8346739";"https://maps.google.com/?cid=0x0:0xdffa619d527ac367"
"supermarket";"Toko";"Toko Hidayat";"PRC8+23P, Rumah Panjang, Susoh, Kabupaten Aceh Barat Daya, Aceh 23763";"Rumah Panjang, Susoh, Kabupaten Aceh Barat Daya";"ACEH";"23763";"Indonesia";" 082364556554";"3.7200817";"96.8152067";"https://maps.google.com/?cid=0x0:0x98085623f34d63f0"
"supermarket";"Grosir Barang Kelontong";"SRC ANEUK LAOT";"PRF7+MFM, Padang Baru, Susoh, Kabupaten Aceh Barat Daya, Aceh 23763";"Padang Baru, Susoh, Kabupaten Aceh Barat Daya";"ACEH";"23763";"Indonesia";"";"3.7242248";"96.8136696";"https://maps.google.com/?cid=0x0:0x32f9b369e3fa796f"
"supermarket";"Toko umum";"UD Kios A2";"PR5Q+6JX, Padang Panjang, Susoh, Kabupaten Aceh Barat Daya, Aceh 23763";"Padang Panjang, Susoh, Kabupaten Aceh Barat Daya";"ACEH";"23763";"Indonesia";"";"3.7081235";"96.8391199";"https://maps.google.com/?cid=0x0:0x578ac4ca92f0b321"
"supermarket";"Toko umum";"Waroeng dekvi";"PRF9+645, Pinang, Susoh, Kabupaten Aceh Barat Daya, Aceh 23763";"Pinang, Susoh, Kabupaten Aceh Barat Daya";"ACEH";"23763";"Indonesia";"";"3.7230039";"96.8178706";"https://maps.google.com/?cid=0x0:0x2501b877a696dc49"
"supermarket";"Toko Swalayan";"Toko Alysia";"PRF7+QF2, Padang Baru, Susoh, Kabupaten Aceh Barat Daya, Aceh 23763";"Padang Baru, Susoh, Kabupaten Aceh Barat Daya";"ACEH";"23763";"Indonesia";"";"3.7243962";"96.8136255";"https://maps.google.com/?cid=0x0:0x7b167a01fc8d2a7f"
"supermarket";"Toko";"TOKO PENDI";"PRGC+6XF, Durian Rampak, Susoh, Kabupaten Aceh Barat Daya, Aceh 23763";"Durian Rampak, Susoh, Kabupaten Aceh Barat Daya";"ACEH";"23763";"Indonesia";" 082272221561";"3.725559";"96.8224116";"https://maps.google.com/?cid=0x0:0x756b7190f79f354d"
"supermarket";"Pasar";"Mulia Mart";"PRQR+CMR, Geulumpang Payong, Kecamaten Blang Pidie, Kabupaten Aceh Barat Daya, Aceh 23763";"Geulumpang Payong, Kecamaten Blang Pidie, Kabupaten Aceh Barat Daya";"ACEH";"23763";"Indonesia";" 081366343082";"3.7386048";"96.8416418";"https://maps.google.com/?cid=0x0:0x669b1ea2e79b45f6"
"supermarket";"Toko Swalayan";"Harapan Masa Swalayan";"JW9M+3GW, Paya, Kec. Manggeng, Kabupaten Aceh Barat Daya, Aceh 23762";"Paya, Kec. Manggeng, Kabupaten Aceh Barat Daya";"ACEH";"23762";"Indonesia";"";"3.6176156";"96.9339405";"https://maps.google.com/?cid=0x0:0x67bc7ac02136d145"
"supermarket";"supermarket";"Manggeng";"Blang Manggeng, Kec. Manggeng, Kabupaten Aceh Barat Daya, Aceh";"Kabupaten Aceh Barat Daya, Aceh";"ACEH";"";"Indonesia";"";"3.60821";"96.9188";"https://maps.google.com/?cid=0x0:0x4039d80b220dbb0"
"supermarket";"Supermarket Diskon";"Pasar Pagi Manggeng";"JW8Q+2HQ, Kedai, Kec. Manggeng, Kabupaten Aceh Barat Daya, Aceh 23762";"Kedai, Kec. Manggeng, Kabupaten Aceh Barat Daya";"ACEH";"23762";"Indonesia";"";"3.6150933";"96.9389696";"https://maps.google.com/?cid=0x0:0x7c1ccb7d672feb39"
"supermarket";"Pasar Petani";"Pasar Murah Manggeng";"JW8P+5R9, Kedai, Kec. Manggeng, Kabupaten Aceh Barat Daya, Aceh 23762";"Kedai, Kec. Manggeng, Kabupaten Aceh Barat Daya";"ACEH";"23762";"Indonesia";"";"3.6154195";"96.9371016";"https://maps.google.com/?cid=0x0:0xd822b0b9d9bb2611"
"supermarket";"Toko";"Toko Kelontong Tafsir";"Lhung Baro, Kec. Manggeng, Kabupaten Aceh Barat Daya, Aceh 23762";"Kec. Manggeng, Kabupaten Aceh Barat Daya";"ACEH";"23762";"Indonesia";" 081350173309";"3.6262798";"96.9237836";"https://maps.google.com/?cid=0x0:0xaf17b684c1f5e65a"
"supermarket";"supermarket";"mini market mitramar manggeng";"JWC8+767, Pante Raja, Kec. Manggeng, Kabupaten Aceh Barat Daya, Aceh 23762";"Pante Raja, Kec. Manggeng, Kabupaten Aceh Barat Daya";"ACEH";"23762";"Indonesia";" 085260344377";"3.6206532";"96.9155468";"https://maps.google.com/?cid=0x0:0xd63808b96a180c85"
"supermarket";"Toko bahan makanan";"SimpangLima Grocery Store";"Jl. Tengku Angkasa H Abdullah Ujong Rimba No 20, Kp. Baru, Kec. Baiturrahman, Kota Banda Aceh, Aceh 23242";"Kp. Baru, Kec. Baiturrahman, Kota Banda Aceh";"ACEH";"23242";"Indonesia";" 0811686677";"5.5504966";"95.3167777";"https://maps.google.com/?cid=0x0:0x22361fe0a56c2da4"
"supermarket";"Toko bahan makanan";"Darussalam Supermarket";"Jl. Utama Rukoh No.45-C, Kopelma Darussalam, Kec. Syiah Kuala, Kota Banda Aceh, Aceh 24415";"Kopelma Darussalam, Kec. Syiah Kuala, Kota Banda Aceh";"ACEH";"24415";"Indonesia";"";"5.5727133";"95.3635091";"https://maps.google.com/?cid=0x0:0x7ec192104910528b"
"supermarket";"Toko";"Toko Hidayat";"PRC8+23P, Rumah Panjang, Susoh, Kabupaten Aceh Barat Daya, Aceh 23763";"Rumah Panjang, Susoh, Kabupaten Aceh Barat Daya";"ACEH";"23763";"Indonesia";" 082364556554";"3.7200817";"96.8152067";"https://maps.google.com/?cid=0x0:0x98085623f34d63f0"
"supermarket";"supermarket";"Susoh";"Padang Baru, Susoh, Kabupaten Aceh Barat Daya, Aceh";"Kabupaten Aceh Barat Daya, Aceh";"ACEH";"";"Indonesia";"";"3.728577";"96.812576";"https://maps.google.com/?cid=0x0:0x4039d80b220d460"
"supermarket";"Toko bahan makanan";"RH Swalayan";"Durian Rampak, Susoh, Kabupaten Aceh Barat Daya, Aceh 23763";"Susoh, Kabupaten Aceh Barat Daya";"ACEH";"23763";"Indonesia";" 082254659431";"3.725108";"96.8221124";"https://maps.google.com/?cid=0x0:0x759c7b6ab717b429"
"supermarket";"Toko umum";"Kedai Mawardah";"Dusun Kedai Padang, Kedai Susoh, Susoh, Kabupaten Aceh Barat Daya, Aceh 23765";"Kedai Susoh, Susoh, Kabupaten Aceh Barat Daya";"ACEH";"23765";"Indonesia";"";"3.7189253";"96.8157119";"https://maps.google.com/?cid=0x0:0x1c8744c69139191f"
"supermarket";"Toko Swalayan";"Swalayan Caen";"PRFC+922, Durian Jangek, Susoh, Kabupaten Aceh Barat Daya, Aceh 23763";"Durian Jangek, Susoh, Kabupaten Aceh Barat Daya";"ACEH";"23763";"Indonesia";"";"3.7233789";"96.8200259";"https://maps.google.com/?cid=0x0:0x1c79db15090bbc12"
"supermarket";"Toko bahan makanan";"Kios Cek Dah";"PR98+867, Kedai Susoh, Susoh, Kabupaten Aceh Barat Daya, Aceh 23763";"Kedai Susoh, Susoh, Kabupaten Aceh Barat Daya";"ACEH";"23763";"Indonesia";"";"3.7187407";"96.8166254";"https://maps.google.com/?cid=0x0:0x5d63fab5db8501fc"
"supermarket";"Kafe";"KENIYO";"Jl. Letkol BB Djalal No.100, Pawoh, Susoh, Kabupaten Aceh Barat Daya, Aceh 23765";"Pawoh, Susoh, Kabupaten Aceh Barat Daya";"ACEH";"23765";"Indonesia";" 082211103441";"3.7251441";"96.818832";"https://maps.google.com/?cid=0x0:0x89318c466fc07f83"
"supermarket";"Toko Swalayan";"Sejahtera Swalayan Blangpidie";"PRQR+GHJ, Jl. Iskandar Muda, Geulumpang Payong, Kecamaten Blang Pidie, Kabupaten Aceh Barat Daya, Aceh 23763";"Jl. Iskandar Muda, Geulumpang Payong, Kecamaten Blang Pidie, Kabupaten Aceh Barat Daya";"ACEH";"23763";"Indonesia";" 082275464951";"3.7388397";"96.8413825";"https://maps.google.com/?cid=0x0:0x31d1f689454b8ecc"
"supermarket";"Toko bahan makanan";"Toko Zulhelmi";"PRX2+28G, Unnamed Road, Ujung Padang, Susoh, Kabupaten Aceh Barat Daya, Aceh 23765";"Unnamed Road, Ujung Padang, Susoh, Kabupaten Aceh Barat Daya";"ACEH";"23765";"Indonesia";" 082261511312";"3.7475588";"96.800818";"https://maps.google.com/?cid=0x0:0xcb6a911d3aa8987b"
"supermarket";"Toko umum";"Waroeng dekvi";"PRF9+645, Pinang, Susoh, Kabupaten Aceh Barat Daya, Aceh 23763";"Pinang, Susoh, Kabupaten Aceh Barat Daya";"ACEH";"23763";"Indonesia";"";"3.7230039";"96.8178706";"https://maps.google.com/?cid=0x0:0x2501b877a696dc49"
"supermarket";"Toko";"Rahmat Sejati";"PRF7+Q47, Padang Baru, Susoh, Kabupaten Aceh Barat Daya, Aceh 23765";"Padang Baru, Susoh, Kabupaten Aceh Barat Daya";"ACEH";"23765";"Indonesia";"";"3.7243549";"96.8127961";"https://maps.google.com/?cid=0x0:0x71745a853f6e4072"
"supermarket";"Kafe";"KOREAN COFFEE SHOP";"PRQ2+H2R, Ujung Padang, Susoh, Kabupaten Aceh Barat Daya, Aceh 23765";"Ujung Padang, Susoh, Kabupaten Aceh Barat Daya";"ACEH";"23765";"Indonesia";" 085214150164";"3.7389864";"96.8000238";"https://maps.google.com/?cid=0x0:0x29edbec88411584d"
"supermarket";"Pasar";"GIOMART";"Jl. Meulaboh - Tapaktuan, Ps. Kuta Bahagia, Kec. Kuala Batee, Kabupaten Aceh Barat Daya, Aceh 23766";"Ps. Kuta Bahagia, Kec. Kuala Batee, Kabupaten Aceh Barat Daya";"ACEH";"23766";"Indonesia";" 081375848280";"3.8212302";"96.7614453";"https://maps.google.com/?cid=0x0:0xd29c90cb79d4d8d1"
"supermarket";"supermarket";"Aceh 23766";"Kec. Babah Rot, Kabupaten Aceh Barat Daya, Aceh";"Kabupaten Aceh Barat Daya, Aceh";"ACEH";"";"Indonesia";"";"3.9000346";"96.6851982";"https://maps.google.com/?cid=0x0:0x4d19ceb29190eb17"
"supermarket";"Pusat Perbelanjaan";"UD. Rafi Armada grosir, swalayan";"WM4W+W7H, Jl. Meulaboh - Tapaktuan, Pantee Rakyat, Kec. Babah Rot, Kabupaten Aceh Barat Daya, Aceh 23766";"Jl. Meulaboh - Tapaktuan, Pantee Rakyat, Kec. Babah Rot, Kabupaten Aceh Barat Daya";"ACEH";"23766";"Indonesia";" 082184222882";"3.9073233";"96.6957368";"https://maps.google.com/?cid=0x0:0xac16c8f38ee08fca"
"supermarket";"Toko bahan makanan";"Raja swalayan";"WM5W+6F8, Pantee Rakyat, Kec. Babah Rot, Kabupaten Aceh Barat Daya, Aceh 23766";"Pantee Rakyat, Kec. Babah Rot, Kabupaten Aceh Barat Daya";"ACEH";"23766";"Indonesia";"";"3.9079832";"96.6962114";"https://maps.google.com/?cid=0x0:0x2cf1a2c0cb22c298"
"supermarket";"Toko bahan makanan";"SWALAYAN MURNI";"WP23+R9R, Pantee Cermin, Kec. Babah Rot, Kabupaten Aceh Barat Daya, Aceh 23766";"Pantee Cermin, Kec. Babah Rot, Kabupaten Aceh Barat Daya";"ACEH";"23766";"Indonesia";"";"3.9021396";"96.7033813";"https://maps.google.com/?cid=0x0:0x6f082a6af602f529"
"supermarket";"Toko Perlengkapan Rumah";"Tk Famili Baru";"WM3X+R4X, Pantee Rakyat, Kec. Babah Rot, Kabupaten Aceh Barat Daya, Aceh 23766";"Pantee Rakyat, Kec. Babah Rot, Kabupaten Aceh Barat Daya";"ACEH";"23766";"Indonesia";" 085275588885";"3.9046167";"96.6978627";"https://maps.google.com/?cid=0x0:0x632978c01b034b87"
"supermarket";"Toko Swalayan";"Mini Market Harmi Adi";"WM5W+29G, Pantee Rakyat, Kec. Babah Rot, Kabupaten Aceh Barat Daya, Aceh 23766";"Pantee Rakyat, Kec. Babah Rot, Kabupaten Aceh Barat Daya";"ACEH";"23766";"Indonesia";" 085277273375";"3.9075741";"96.6959407";"https://maps.google.com/?cid=0x0:0x2ba5d97a376ff446"
"supermarket";"Toko Ponsel";"Nuricell";"WM4V+HW9, Pantee Rakyat, Kec. Babah Rot, Kabupaten Aceh Barat Daya, Aceh 23766";"Pantee Rakyat, Kec. Babah Rot, Kabupaten Aceh Barat Daya";"ACEH";"23766";"Indonesia";"";"3.9059514";"96.6943374";"https://maps.google.com/?cid=0x0:0x70afe41babc8eef9"
"supermarket";"Toko Pertanian";"Almi Tani";"Padang Sikabu, Kec. Kuala Batee, Kabupaten Aceh Barat Daya, Aceh 23766";"Kec. Kuala Batee, Kabupaten Aceh Barat Daya";"ACEH";"23766";"Indonesia";" 082219932085";"3.7928993";"96.7883307";"https://maps.google.com/?cid=0x0:0xdfc00635cf57c07a"
"supermarket";"Toko Pertanian";"UD. MUTIA TANI";"Dusun Kampung Tengah Desa, Pantee Rakyat, Kec. Babah Rot, Kabupaten Aceh Barat Daya, Aceh 23766";"Pantee Rakyat, Kec. Babah Rot, Kabupaten Aceh Barat Daya";"ACEH";"23766";"Indonesia";" 082368903131";"3.9046947";"96.6922952";"https://maps.google.com/?cid=0x0:0xdee12fc35b91d0d8"
"supermarket";"Toko";"Tungku Hasmadi";"RQ92+RFG, Kuala Terubu, Kec. Kuala Batee, Kabupaten Aceh Barat Daya, Aceh 23764";"Kuala Terubu, Kec. Kuala Batee, Kabupaten Aceh Barat Daya";"ACEH";"23764";"Indonesia";"";"3.8195683";"96.7512363";"https://maps.google.com/?cid=0x0:0x10753b70ba9af741"
"supermarket";"Dapur Umum";"E Warong PKH Syukur Nikmat";"WM7R+C89, Pantee Rakyat, Kec. Babah Rot, Kabupaten Aceh Barat Daya, Aceh 23766";"Pantee Rakyat, Kec. Babah Rot, Kabupaten Aceh Barat Daya";"ACEH";"23766";"Indonesia";"";"3.9135271";"96.6908703";"https://maps.google.com/?cid=0x0:0x5bbc9399385af753"
"supermarket";"Kios";"KIOS KAK - ER";"VPX3+5C5, Pantee Cermin, Kec. Babah Rot, Kabupaten Aceh Barat Daya, Aceh 23766";"Pantee Cermin, Kec. Babah Rot, Kabupaten Aceh Barat Daya";"ACEH";"23766";"Indonesia";"";"3.8978933";"96.7036091";"https://maps.google.com/?cid=0x0:0xc0208baa90ecff54"
"supermarket";"Kafe";"Warung Alza";"RQ92+GJH, Unnamed Road, Kuala Terubu, Kec. Kuala Batee, Kabupaten Aceh Barat Daya, Aceh 23766";"Unnamed Road, Kuala Terubu, Kec. Kuala Batee, Kabupaten Aceh Barat Daya";"ACEH";"23766";"Indonesia";" 082249174900";"3.8188017";"96.7516024";"https://maps.google.com/?cid=0x0:0x259f196f398fc087"
"supermarket";"supermarket";"Aceh 23767";"Kec. Babah Rot, Kabupaten Aceh Barat Daya, Aceh";"Kabupaten Aceh Barat Daya, Aceh";"ACEH";"";"Indonesia";"";"3.8500236";"96.6103778";"https://maps.google.com/?cid=0x0:0xdb51e75798ae0c5b"
"supermarket";"Toko Pertanian";"Toko Berkah Tani";"WM4W+M63, Pantee Rakyat, Kec. Babah Rot, Kabupaten Aceh Barat Daya, Aceh 23766";"Pantee Rakyat, Kec. Babah Rot, Kabupaten Aceh Barat Daya";"ACEH";"23766";"Indonesia";" 081272686060";"3.9066438";"96.6955578";"https://maps.google.com/?cid=0x0:0xab8f740224d34183"
"supermarket";"Toko bahan makanan";"Raja swalayan";"WM5W+6F8, Pantee Rakyat, Kec. Babah Rot, Kabupaten Aceh Barat Daya, Aceh 23766";"Pantee Rakyat, Kec. Babah Rot, Kabupaten Aceh Barat Daya";"ACEH";"23766";"Indonesia";"";"3.9079832";"96.6962114";"https://maps.google.com/?cid=0x0:0x2cf1a2c0cb22c298"
"supermarket";"supermarket";"Kedai Kak desi";"XM32+6V5, Unnamed Road, Gn. Samarinda, Kec. Babah Rot, Kabupaten Aceh Barat Daya, Aceh 23662";"Unnamed Road, Gn. Samarinda, Kec. Babah Rot, Kabupaten Aceh Barat Daya";"ACEH";"23662";"Indonesia";"";"3.9530249";"96.6522358";"https://maps.google.com/?cid=0x0:0xaf212bc1aa1d0234"
"supermarket";"supermarket";"Kedai kak kas";"XM62+X7, Gn. Samarinda, Kec. Babah Rot, Kabupaten Aceh Barat Daya, Aceh 23662";"Gn. Samarinda, Kec. Babah Rot, Kabupaten Aceh Barat Daya";"ACEH";"23662";"Indonesia";"";"3.9625212";"96.6506867";"https://maps.google.com/?cid=0x0:0x9a5185c9fdc85ed6"
"supermarket";"supermarket";"UD. Rahmi / RM.Rahmi";"Alue Jambee, Kec. Babah Rot, Kabupaten Aceh Barat Daya, Aceh 23762";"Kec. Babah Rot, Kabupaten Aceh Barat Daya";"ACEH";"23762";"Indonesia";"";"3.9603362";"96.6568522";"https://maps.google.com/?cid=0x0:0x504a84ee57e2a0b3"
"supermarket";"Toko Swalayan";"Mini Market Harmi Adi";"WM5W+29G, Pantee Rakyat, Kec. Babah Rot, Kabupaten Aceh Barat Daya, Aceh 23766";"Pantee Rakyat, Kec. Babah Rot, Kabupaten Aceh Barat Daya";"ACEH";"23766";"Indonesia";" 085277273375";"3.9075741";"96.6959407";"https://maps.google.com/?cid=0x0:0x2ba5d97a376ff446"
"supermarket";"Toko Pakaian";"KENZIE STORE";"XM54+XVM, Jl. Meulaboh - Tapaktuan, Ie Merah, Kec. Babah Rot, Kabupaten Aceh Barat Daya, Aceh 23662";"Jl. Meulaboh - Tapaktuan, Ie Merah, Kec. Babah Rot, Kabupaten Aceh Barat Daya";"ACEH";"23662";"Indonesia";" 081268012040";"3.9599665";"96.6571613";"https://maps.google.com/?cid=0x0:0x38475f164a89f2d6"
"supermarket";"Komplek perumahan";"Rumah";"WJWQ+JJH, Karya baru, Kec. Babah Rot, Kabupaten Aceh Barat Daya, Aceh";"Kabupaten Aceh Barat Daya, Aceh";"ACEH";"";"Indonesia";"";"3.9465825";"96.6390423";"https://maps.google.com/?cid=0x0:0xa6e079cf0a3b84eb"
"supermarket";"Toko Swalayan";"GA STORe";"Blang Luah, Kec. Darul Makmur, Kabupaten Nagan Raya, Aceh";"Kabupaten Nagan Raya, Aceh";"ACEH";"";"Indonesia";" 082273981165";"3.9081989";"96.5958681";"https://maps.google.com/?cid=0x0:0xb3b0a8052d5eda3a"
"supermarket";"Pusat Perbelanjaan";"UD. Dian Alue Jambee";"XM64+6PQ, simpang alue jambee, Kec. Babah Rot, abdya, Aceh 23662";"simpang alue jambee, Kec. Babah Rot, abdya";"ACEH";"23662";"Indonesia";"";"3.9605764";"96.6568733";"https://maps.google.com/?cid=0x0:0xfb299425ee544bde"
"supermarket";"Kedai Kopi";"Keude mak rahmat";"WJWP+CW, Gn. Samarinda, Kec. Babah Rot, Kabupaten Aceh Barat Daya, Aceh";"Kabupaten Aceh Barat Daya, Aceh";"ACEH";"";"Indonesia";"";"3.9460259";"96.6372503";"https://maps.google.com/?cid=0x0:0x41c568d2a7300ded"
"supermarket";"Sekolah";"Keude ule jembatan";"WH5W+749, Blang Luah, Kec. Darul Makmur, Kabupaten Nagan Raya, Aceh 23662";"Blang Luah, Kec. Darul Makmur, Kabupaten Nagan Raya";"ACEH";"23662";"Indonesia";" 085281795994";"3.9080681";"96.5955657";"https://maps.google.com/?cid=0x0:0x5a4a4d6fb8dbc712"
"supermarket";"Minimarket";"KEDAI PAK KATINO";"WH6J+75C, Alue Bateung Brook, Kec. Darul Makmur, Kabupaten Nagan Raya, Aceh 23662";"Alue Bateung Brook, Kec. Darul Makmur, Kabupaten Nagan Raya";"ACEH";"23662";"Indonesia";"";"3.9106973";"96.580377";"https://maps.google.com/?cid=0x0:0x6c3c2a1d5e7fb0b9"
"supermarket";"supermarket";"Kec. Setia";"Kabupaten Aceh Barat Daya, Aceh";"Kabupaten Aceh Barat Daya, Aceh";"ACEH";"";"Indonesia";"";"3.7078495";"96.8719767";"https://maps.google.com/?cid=0x0:0x34a354e1c2218e5f"
"supermarket";"Toko Swalayan";"Sejahtera Swalayan Blangpidie";"PRQR+GHJ, Jl. Iskandar Muda, Geulumpang Payong, Kecamaten Blang Pidie, Kabupaten Aceh Barat Daya, Aceh 23763";"Jl. Iskandar Muda, Geulumpang Payong, Kecamaten Blang Pidie, Kabupaten Aceh Barat Daya";"ACEH";"23763";"Indonesia";" 082275464951";"3.7388397";"96.8413825";"https://maps.google.com/?cid=0x0:0x31d1f689454b8ecc"
"supermarket";"Pusat Perbelanjaan";"Mentari Swalayan Blangpidie";"Jl. Selamat, Ps. Blang Pidie, Kecamaten Blang Pidie, Kabupaten Aceh Barat Daya, Aceh 23763";"Ps. Blang Pidie, Kecamaten Blang Pidie, Kabupaten Aceh Barat Daya";"ACEH";"23763";"Indonesia";" 065993315";"3.7375464";"96.8345907";"https://maps.google.com/?cid=0x0:0x8b26348b1673407e"
"supermarket";"Gudang";"Rizki Pratama Nusa";"Jl. Iskandar Muda, Alue Dama, Kec. Setia, Kabupaten Aceh Barat Daya, Aceh 23763";"Alue Dama, Kec. Setia, Kabupaten Aceh Barat Daya";"ACEH";"23763";"Indonesia";" 081220000880";"3.7128527";"96.865179";"https://maps.google.com/?cid=0x0:0x116f9e6c53e58529"
"supermarket";"Toko bahan makanan";"Toko Namita";"PRVM+CC7, Jalan Manyang, Meudang Ara, Kecamaten Blang Pidie, Kabupaten Aceh Barat Daya, Aceh 23763";"Jalan Manyang, Meudang Ara, Kecamaten Blang Pidie, Kabupaten Aceh Barat Daya";"ACEH";"23763";"Indonesia";" 085360645445";"3.7435497";"96.8335396";"https://maps.google.com/?cid=0x0:0x24164e8d10ee28f5"
"supermarket";"Toko Swalayan";"UD. Jasa Ayah";"Jl. Iskandar Muda No.033, Alue Dama, kecamatan suak setia, Kabupaten Aceh Barat Daya, Aceh 23763";"Alue Dama, kecamatan suak setia, Kabupaten Aceh Barat Daya";"ACEH";"23763";"Indonesia";" 082294286875";"3.7126949";"96.8667008";"https://maps.google.com/?cid=0x0:0x526f21b7bbdda5ab"
"supermarket";"Toko umum";"UD Kios A2";"PR5Q+6JX, Padang Panjang, Susoh, Kabupaten Aceh Barat Daya, Aceh 23763";"Padang Panjang, Susoh, Kabupaten Aceh Barat Daya";"ACEH";"23763";"Indonesia";"";"3.7081235";"96.8391199";"https://maps.google.com/?cid=0x0:0x578ac4ca92f0b321"
"supermarket";"Minimarket";"Kedai Runcit Hari-Hari";"MVQQ+H8V, Jl. Meulaboh - Tapaktuan, Tangan Tangan Cut, Kec. Setia, Kabupaten Aceh Barat Daya, Aceh 23763";"Jl. Meulaboh - Tapaktuan, Tangan Tangan Cut, Kec. Setia, Kabupaten Aceh Barat Daya";"ACEH";"23763";"Indonesia";"";"3.6889971";"96.8883105";"https://maps.google.com/?cid=0x0:0x97cb552cf626ff08"
"supermarket";"Toko bahan makanan";"Ariesta Swalayan";"Jl. Kesehatan, Kedai Paya, Kecamaten Blang Pidie, Kabupaten Aceh Barat Daya, Aceh 23763";"Kedai Paya, Kecamaten Blang Pidie, Kabupaten Aceh Barat Daya";"ACEH";"23763";"Indonesia";" 082329286477";"3.7334151";"96.8460492";"https://maps.google.com/?cid=0x0:0x1d8c668c5e14f844"
"supermarket";"Toko bahan makanan";"RH Swalayan";"Durian Rampak, Susoh, Kabupaten Aceh Barat Daya, Aceh 23763";"Susoh, Kabupaten Aceh Barat Daya";"ACEH";"23763";"Indonesia";" 082254659431";"3.725108";"96.8221124";"https://maps.google.com/?cid=0x0:0x759c7b6ab717b429"
"supermarket";"Toko bahan makanan";"Toko Ozil Mart";"PRQM+MVM, Jl. Pendidikan, Meudang Ara, Kecamaten Blang Pidie, Kabupaten Aceh Barat Daya, Aceh 23763";"Jl. Pendidikan, Meudang Ara, Kecamaten Blang Pidie, Kabupaten Aceh Barat Daya";"ACEH";"23763";"Indonesia";"";"3.7392126";"96.8346739";"https://maps.google.com/?cid=0x0:0xdffa619d527ac367"
"supermarket";"Toko umum";"SW SWALAYAN  SW KOSMETIK  SW COFFE SHOP";"Seunaloh, Kecamaten Blang Pidie, Kabupaten Aceh Barat Daya, Aceh 23763";"Kecamaten Blang Pidie, Kabupaten Aceh Barat Daya";"ACEH";"23763";"Indonesia";"";"3.7464491";"96.8341925";"https://maps.google.com/?cid=0x0:0xdfb58d06d7bee56c"
"supermarket";"Toko Roti";"Warung kue mak cek samsimar";"PV33+GPX, Rubek Meupayong, Kec. Setia, Kabupaten Aceh Barat Daya, Aceh 23763";"Rubek Meupayong, Kec. Setia, Kabupaten Aceh Barat Daya";"ACEH";"23763";"Indonesia";"";"3.7033339";"96.8551972";"https://maps.google.com/?cid=0x0:0x1f71f6984f8b1733"
"supermarket";"Toko Swalayan";"Harapan Masa Swalayan";"JW9M+3GW, Paya, Kec. Manggeng, Kabupaten Aceh Barat Daya, Aceh 23762";"Paya, Kec. Manggeng, Kabupaten Aceh Barat Daya";"ACEH";"23762";"Indonesia";"";"3.6176156";"96.9339405";"https://maps.google.com/?cid=0x0:0x67bc7ac02136d145"
"supermarket";"Kedai Kopi";"Jeumpa Sakti";"H89F+73M, Jl. Teuku Iskandar, Lam Teungoh, Kec. Kuta Alam, Kota Banda Aceh, Aceh";"Kota Banda Aceh, Aceh";"ACEH";"";"Indonesia";" 0811687271";"5.5682096";"95.3226824";"https://maps.google.com/?cid=0x0:0x2b9ca105538b5730"
"supermarket";"supermarket";"Aceh 23764";"Kabupaten Aceh Barat Daya, Aceh";"Kabupaten Aceh Barat Daya, Aceh";"ACEH";"";"Indonesia";"";"3.8585335";"96.8136642";"https://maps.google.com/?cid=0x0:0xffecff8e1cb94052"
"supermarket";"Toko";"Jeumpa mini market";"44RG+JXG, Jl. Teuku Umar, Ujung Kalak, Kec. Johan Pahlawan, Kabupaten Aceh Barat, Aceh 23681";"Jl. Teuku Umar, Ujung Kalak, Kec. Johan Pahlawan, Kabupaten Aceh Barat";"ACEH";"23681";"Indonesia";"";"4.1415576";"96.1274414";"https://maps.google.com/?cid=0x0:0x816cc5861ca4005b"
"supermarket";"Gudang";"JEUMPA MART GROSIR";"depan spk muhammadiah, Jl. Medan - Banda Aceh, Geulanggang Teungoh, Kec. Kota Juang, Kabupaten Bireuen, Aceh 24251";"Jl. Medan - Banda Aceh, Geulanggang Teungoh, Kec. Kota Juang, Kabupaten Bireuen";"ACEH";"24251";"Indonesia";" 08123000646";"5.203192";"96.7146617";"https://maps.google.com/?cid=0x0:0x22200ba456b6af08"
"supermarket";"Toko Swalayan";"Putra Jaya Swalayan";"H982+F22, Pineung, Kec. Syiah Kuala, Kota Banda Aceh, Aceh";"Kota Banda Aceh, Aceh";"ACEH";"";"Indonesia";" 085216710983";"5.5661279";"95.3500312";"https://maps.google.com/?cid=0x0:0xcabd143f2407f6ad"
"supermarket";"Toko Swalayan";"Manggadua swalayan";"H839+Q8V, Kp. Baru, Kec. Baiturrahman, Kota Banda Aceh, Aceh 23127";"Kp. Baru, Kec. Baiturrahman, Kota Banda Aceh";"ACEH";"23127";"Indonesia";" 0811955209";"5.5544817";"95.3183031";"https://maps.google.com/?cid=0x0:0x249763ed8338990c"
"supermarket";"Toko Swalayan";"Tabina Swalayan";"Jl. Pocut Baren No.98 ABC, Keuramat, Kec. Kuta Alam, Kota Banda Aceh, Aceh 23123";"Keuramat, Kec. Kuta Alam, Kota Banda Aceh";"ACEH";"23123";"Indonesia";" 065124298";"5.5622104";"95.3272019";"https://maps.google.com/?cid=0x0:0x8a275b182b1e559b"
"supermarket";"Toko";"Jeumpa Shop";"Simpang, Layung, Kec. Bubon, Kabupaten Aceh Barat, Aceh 23652";"Layung, Kec. Bubon, Kabupaten Aceh Barat";"ACEH";"23652";"Indonesia";" 082167304987";"4.2997515";"96.0859051";"https://maps.google.com/?cid=0x0:0xa4c6870254697bf7"
"supermarket";"Toko Swalayan";"Toko Sejahtra swalayan";"Jl. Gatot Subroto, Bale Atu, Kec. Lut Tawar, Kabupaten Aceh Tengah, Aceh 24519";"Bale Atu, Kec. Lut Tawar, Kabupaten Aceh Tengah";"ACEH";"24519";"Indonesia";"";"4.6233746";"96.8499305";"https://maps.google.com/?cid=0x0:0xf93184dd2ceafe62"
"supermarket";"supermarket";"Jalan jeumpa";"H833+799, Jl. Seulanga, Punge Ujong, Kec. Meuraxa, Kota Banda Aceh, Aceh";"Kota Banda Aceh, Aceh";"ACEH";"";"Indonesia";" 082164468427";"5.5531688";"95.3034757";"https://maps.google.com/?cid=0x0:0x3dae0f2ef0b72039"
"supermarket";"Toko";"Toko Safruddin";"QR7F+82W toko safruddin abdya, Cot Mane, Kec. Jeumpa, Kabupaten Aceh Barat Daya, Aceh 23764";"Cot Mane, Kec. Jeumpa, Kabupaten Aceh Barat Daya";"ACEH";"23764";"Indonesia";" 081360698796";"3.7633718";"96.8225847";"https://maps.google.com/?cid=0x0:0x36d019f72f8b1126"
"supermarket";"Toko Pakaian";"JEUMPA SERBA 35";"Jln. Panglima cut bintang, Aso Nanggro, Kec. Jeumpa, Kabupaten Aceh Barat Daya, Aceh 24251";"Aso Nanggro, Kec. Jeumpa, Kabupaten Aceh Barat Daya";"ACEH";"24251";"Indonesia";" 081360636128";"3.7492348";"96.8131131";"https://maps.google.com/?cid=0x0:0xfdd40eafc0237f37"
"supermarket";"Minimarket";"Keude Kak Wi";"Ladang Neubok, Kec. Jeumpa, Kabupaten Aceh Barat Daya, Aceh 23765";"Kec. Jeumpa, Kabupaten Aceh Barat Daya";"ACEH";"23765";"Indonesia";" 085161155088";"3.7518653";"96.8225886";"https://maps.google.com/?cid=0x0:0xdff9140dc12d177e"
"supermarket";"Minimarket";"Warung Manda Rasini";"QRF8+RH4, Jeumpa Barat, Kec. Jeumpa, Kabupaten Aceh Barat Daya, Aceh 23764";"Jeumpa Barat, Kec. Jeumpa, Kabupaten Aceh Barat Daya";"ACEH";"23764";"Indonesia";"";"3.7746755";"96.8167722";"https://maps.google.com/?cid=0x0:0x6917110c862e2295"
"supermarket";"supermarket";"Aceh 24251";"Kabupaten Bireuen, Aceh";"Kabupaten Bireuen, Aceh";"ACEH";"";"Indonesia";"";"5.0881574";"96.642433";"https://maps.google.com/?cid=0x0:0x2d3a8ff5c08e4a15"
"supermarket";"Minimarket";"CV kasaba jaya";"4MX4+8WW Cet meugo, Mon Mane, Kec. Jeumpa, Kabupaten Bireuen, Aceh 24251";"Mon Mane, Kec. Jeumpa, Kabupaten Bireuen";"ACEH";"24251";"Indonesia";"";"5.1483529";"96.6573437";"https://maps.google.com/?cid=0x0:0x5cbff719de9e85fe"
"supermarket";"Toko";"Toko Madi Jeumpa";"6M3Q+V54, Unnamed Road, Cot Tarom Tunong, ke jeumpa, Kabupaten Bireuen, Aceh";"Kabupaten Bireuen, Aceh";"ACEH";"";"Indonesia";" 081263304593";"5.2046461";"96.6879507";"https://maps.google.com/?cid=0x0:0x45f214af46027f37"
"supermarket";"Toko bahan makanan";"Bangpan";"3MQ7+QHC, Salah Sirong Jaya, Kec. Jeumpa, Kabupaten Bireuen, Aceh 24251";"Salah Sirong Jaya, Kec. Jeumpa, Kabupaten Bireuen";"ACEH";"24251";"Indonesia";" 082310559148";"5.0900629";"96.6626334";"https://maps.google.com/?cid=0x0:0x431d375a533538b8"
"supermarket";"Gudang";"JEUMPA MART GROSIR";"depan spk muhammadiah, Jl. Medan - Banda Aceh, Geulanggang Teungoh, Kec. Kota Juang, Kabupaten Bireuen, Aceh 24251";"Jl. Medan - Banda Aceh, Geulanggang Teungoh, Kec. Kota Juang, Kabupaten Bireuen";"ACEH";"24251";"Indonesia";" 08123000646";"5.203192";"96.7146617";"https://maps.google.com/?cid=0x0:0x22200ba456b6af08"
"supermarket";"Toko Swalayan";"Sejahtera Swalayan Bireuen";"6P32+FHM, Kota Bireun, Kec. Kota Juang, Kabupaten Bireuen, Aceh 24261";"Kota Bireun, Kec. Kota Juang, Kabupaten Bireuen";"ACEH";"24261";"Indonesia";"";"5.2037105";"96.7014111";"https://maps.google.com/?cid=0x0:0x62029c169e0bd7a8"
"supermarket";"Grosir Barang Kelontong";"Toko Kelontong Jeumpa Antara";"4MQ3+M2, Cot Meugoe, Kec. Jeumpa, Kabupaten Bireuen, Aceh";"Kabupaten Bireuen, Aceh";"ACEH";"";"Indonesia";"";"5.1391875";"96.6525625";"https://maps.google.com/?cid=0x0:0xd287b673291d00a8"
"supermarket";"Toko Swalayan";"Maylink Swalayan";"Jalan Elak No.mor 93, Cot Tarom Tunong, Kec. Jeumpa, Kabupaten Bireuen, Aceh 24261";"Cot Tarom Tunong, Kec. Jeumpa, Kabupaten Bireuen";"ACEH";"24261";"Indonesia";" 085260206020";"5.2048375";"96.6848352";"https://maps.google.com/?cid=0x0:0xd49a43ce92f9b6ce"
"supermarket";"Toko";"M RIZAL";"Jaba, Alue Keutapang, Kec. Peudada, Kabupaten Bireuen, Aceh 24262";"Alue Keutapang, Kec. Peudada, Kabupaten Bireuen";"ACEH";"24262";"Indonesia";" 081264388627";"5.1577151";"96.6077662";"https://maps.google.com/?cid=0x0:0xe696b31d194615f7"
"supermarket";"Toko bahan makanan";"Wan";"5JQV+QG, Abeuk Usong, Kec. Jeumpa, Kabupaten Bireuen, Aceh";"Kabupaten Bireuen, Aceh";"ACEH";"";"Indonesia";"";"5.1894903";"96.6437349";"https://maps.google.com/?cid=0x0:0x617334f76d566cc1"
"supermarket";"Toko bahan makanan";"M.hafiz kelontong";"6M3Q+Q9M, Unnamed Road, Bireun Mns Reuleut, Kec. Kota Juang, Kabupaten Bireuen, Aceh";"Kabupaten Bireuen, Aceh";"ACEH";"";"Indonesia";" 082210777481";"5.2044594";"96.6884233";"https://maps.google.com/?cid=0x0:0x6c0c80385cab9538"
"supermarket";"Toko Makanan";"SYIFA SWALAYAN";"6M4F+3CW Syifa swalayan, Geulumpang Payong, Kec. Jeumpa, Kabupaten Bireuen, Aceh";"Kabupaten Bireuen, Aceh";"ACEH";"";"Indonesia";"";"5.2052482";"96.6735912";"https://maps.google.com/?cid=0x0:0x326e7915598e3160"
"supermarket";"Toko bahan makanan";"Penang Market";"JL. Listrik, No. 3-4, Kota Bireun, Kec. Kota Juang, Kabupaten Bireuen, Aceh 24211";"No. 3-4, Kota Bireun, Kec. Kota Juang, Kabupaten Bireuen";"ACEH";"24211";"Indonesia";" 0644323379";"5.2026115";"96.7013142";"https://maps.google.com/?cid=0x0:0x8a17b3f65964423b"
"supermarket";"Toko bahan makanan";"Keude Apa Daka";"6M63+82F, Kuala Jeumpa, Kec. Jeumpa, Kabupaten Bireuen, Aceh";"Kabupaten Bireuen, Aceh";"ACEH";"";"Indonesia";" 082282823260";"5.2108119";"96.6525456";"https://maps.google.com/?cid=0x0:0xaa44566f5e48c0d7"
"supermarket";"Minimarket";"Bintang Na Jaya";"HWQM+WW4, Jl. Tgk. Peukan, Ladang Tuha I, Kec. Lembah Sabil, Kabupaten Aceh Barat Daya, Aceh 23762";"Jl. Tgk. Peukan, Ladang Tuha I, Kec. Lembah Sabil, Kabupaten Aceh Barat Daya";"ACEH";"23762";"Indonesia";" 085294626059";"3.5897509";"96.9348286";"https://maps.google.com/?cid=0x0:0x408670cf140600f9"
"supermarket";"supermarket";"Kec. Lembah Sabil";"Kabupaten Aceh Barat Daya, Aceh";"Kabupaten Aceh Barat Daya, Aceh";"ACEH";"";"Indonesia";"";"3.589112";"96.9343064";"https://maps.google.com/?cid=0x0:0x47f212bb54114078"
"supermarket";"Toko Swalayan";"Fazalna Market";"JW7R+7JW, Jl. Meulaboh - Tapaktuan, Meurandeh, Kec. Lembah Sabil, Kabupaten Aceh Barat Daya, Aceh 23762";"Jl. Meulaboh - Tapaktuan, Meurandeh, Kec. Lembah Sabil, Kabupaten Aceh Barat Daya";"ACEH";"23762";"Indonesia";" 081377233346";"3.6132461";"96.9415683";"https://maps.google.com/?cid=0x0:0xbc34cd9f4a5d2144"
"supermarket";"Seafood";"Pasar Ikan Lembah Sabil";"JW5W+PW2, Cot Bak-U, Kec. Lembah Sabil, Kabupaten Aceh Barat Daya, Aceh 23762";"Cot Bak-U, Kec. Lembah Sabil, Kabupaten Aceh Barat Daya";"ACEH";"23762";"Indonesia";"";"3.6092584";"96.9472809";"https://maps.google.com/?cid=0x0:0x82d5824fb4330bee"
"supermarket";"Toko umum";"Keudee Alue Rambot";"Alue Rambot, Kec. Lembah Sabil, Kabupaten Aceh Barat Daya, Aceh 23762";"Kec. Lembah Sabil, Kabupaten Aceh Barat Daya";"ACEH";"23762";"Indonesia";"";"3.6021934";"96.920553";"https://maps.google.com/?cid=0x0:0x8222608fe079a21b"
"supermarket";"Toko Buah dan Sayuran";"Elva Fresh Fruit";"JW4W+2FJ, Meunasah Sukon, Kec. Lembah Sabil, Kabupaten Aceh Barat Daya, Aceh 23762";"Meunasah Sukon, Kec. Lembah Sabil, Kabupaten Aceh Barat Daya";"ACEH";"23762";"Indonesia";" 085277487207";"3.6033872";"96.9463494";"https://maps.google.com/?cid=0x0:0xaa82c47eec4d16d2"
"supermarket";"Pusat Perbelanjaan";"Sayed Maulana Minimarket";"HWQM+CF7, Ladang Tuha I, Kec. Lembah Sabil, Kabupaten Aceh Barat Daya, Aceh 23762";"Ladang Tuha I, Kec. Lembah Sabil, Kabupaten Aceh Barat Daya";"ACEH";"23762";"Indonesia";"";"3.5885353";"96.9336602";"https://maps.google.com/?cid=0x0:0x2987d5ac441dd149"
"supermarket";"Toko Swalayan";"Harapan Masa Swalayan";"JW9M+3GW, Paya, Kec. Manggeng, Kabupaten Aceh Barat Daya, Aceh 23762";"Paya, Kec. Manggeng, Kabupaten Aceh Barat Daya";"ACEH";"23762";"Indonesia";"";"3.6176156";"96.9339405";"https://maps.google.com/?cid=0x0:0x67bc7ac02136d145"
"supermarket";"Toko";"MITRAMAR";"JW8P+FC6, Jl. Meulaboh - Tapaktuan, Kedai, Kec. Manggeng, Kabupaten Aceh Barat Daya, Aceh 23762";"Jl. Meulaboh - Tapaktuan, Kedai, Kec. Manggeng, Kabupaten Aceh Barat Daya";"ACEH";"23762";"Indonesia";"";"3.6161701";"96.9360078";"https://maps.google.com/?cid=0x0:0x1a2dd2b55a166c1"
"supermarket";"Perhimpunan Pengembang Perumahan";"Raihan Olshop";"HWWG+V3V, Ladang Tuha II, Kec. Lembah Sabil, Kabupaten Aceh Barat Daya, Aceh 23762";"Ladang Tuha II, Kec. Lembah Sabil, Kabupaten Aceh Barat Daya";"ACEH";"23762";"Indonesia";" 082277114247";"3.5972395";"96.9251755";"https://maps.google.com/?cid=0x0:0x1e43b9f9cee85082"
"supermarket";"Toko";"UD.Dilla";"JW6W+2C7, Cot Bak-U, Kec. Lembah Sabil, Kabupaten Aceh Barat Daya, Aceh 23762";"Cot Bak-U, Kec. Lembah Sabil, Kabupaten Aceh Barat Daya";"ACEH";"23762";"Indonesia";"";"3.60998";"96.9459683";"https://maps.google.com/?cid=0x0:0x1ab24f9cc0edfd17"
"supermarket";"Toko Pakaian";"Gallery Azza Olshop";"JW6W+34C, Jl. Meulaboh - Tapaktuan, Cot Bak-U, Kec. Lembah Sabil, Kabupaten Aceh Barat Daya, Aceh 23762";"Jl. Meulaboh - Tapaktuan, Cot Bak-U, Kec. Lembah Sabil, Kabupaten Aceh Barat Daya";"ACEH";"23762";"Indonesia";"";"3.6101924";"96.9452758";"https://maps.google.com/?cid=0x0:0xea923943a4e9fbca"
"supermarket";"Toko umum";"UD. Sulthan Jaya - BSI Agent";"JW7R+5W, Meurandeh, Kec. Lembah Sabil, Kabupaten Aceh Barat Daya, Aceh 23762";"Meurandeh, Kec. Lembah Sabil, Kabupaten Aceh Barat Daya";"ACEH";"23762";"Indonesia";" 085270928318";"3.6129541";"96.9423465";"https://maps.google.com/?cid=0x0:0x3dcb88fe785688f2"
"supermarket";"Toko Pertanian";"UD. Lembah Tani";"JW5X+C2X, Jl. Meulaboh - Tapaktuan, Cot Bak-U, Kec. Lembah Sabil, Kabupaten Aceh Barat Daya, Aceh 23762";"Jl. Meulaboh - Tapaktuan, Cot Bak-U, Kec. Lembah Sabil, Kabupaten Aceh Barat Daya";"ACEH";"23762";"Indonesia";"";"3.6086092";"96.9476186";"https://maps.google.com/?cid=0x0:0x10b2bdcb05fddafb"
