Category;Real Category;Business Name;Address;City;State;Postal Code;Country;Phone;Latitude;Longitude;Map Link
"perumahan";"perumahan";"Blang Pidie";"Kecamaten Blang Pidie, Kabupaten Aceh Barat Daya, Aceh";"Kabupaten Aceh Barat Daya, Aceh";"ACEH";"";"Indonesia";"";"3.7431465";"96.8326488";"https://maps.google.com/?cid=0x0:0x69794d7032be25ca"
"perumahan";"perumahan";"Rumah mamak kangyusss";"PRHH+8PV, Padang Hilir, Susoh, Kabupaten Aceh Barat Daya, Aceh 23763";"Padang Hilir, Susoh, Kabupaten Aceh Barat Daya";"ACEH";"23763";"Indonesia";"";"3.7281545";"96.829447";"https://maps.google.com/?cid=0x0:0x7b597fa20a35a06"
"perumahan";"Pembangunan Perumahan";"Tanah Sawah M. Nasir G";"PRXG+VFC, Lhung Asan, Kecamaten Blang Pidie, Kabupaten Aceh Barat Daya, Aceh 23763";"Lhung Asan, Kecamaten Blang Pidie, Kabupaten Aceh Barat Daya";"ACEH";"23763";"Indonesia";"";"3.7496974";"96.8261532";"https://maps.google.com/?cid=0x0:0x982a4c8de9fe9a81"
"perumahan";"Praktisi perawat";"Komplek Sigupai";"PRPR+X3R, Unnamed Road, Geulumpang Payong, Kecamaten Blang Pidie, Kabupaten Aceh Barat Daya, Aceh 23764";"Unnamed Road, Geulumpang Payong, Kecamaten Blang Pidie, Kabupaten Aceh Barat Daya";"ACEH";"23764";"Indonesia";"";"3.7374835";"96.8401393";"https://maps.google.com/?cid=0x0:0x753f385c6aeea2d0"
"perumahan";"Perumahan";"Perumahan sigupai asri";"PRWH+C96, Lhung Asan, Kecamaten Blang Pidie, Kabupaten Aceh Barat Daya, Aceh";"Kabupaten Aceh Barat Daya, Aceh";"ACEH";"";"Indonesia";"";"3.7460321";"96.8284005";"https://maps.google.com/?cid=0x0:0x74ce4d73129056d3"
"perumahan";"Komplek perumahan";"Perumnas Persada Indah";"PVG3+VJ4, Baharu, Kecamaten Blang Pidie, Kabupaten Aceh Barat Daya, Aceh 23763";"Baharu, Kecamaten Blang Pidie, Kabupaten Aceh Barat Daya";"ACEH";"23763";"Indonesia";"";"3.7271261";"96.854082";"https://maps.google.com/?cid=0x0:0x71a96dea549ab"
"perumahan";"Pembangunan Perumahan";"KOMPLEK SIGUPAI ASRI";"PRVF+XXJ, Unnamed Road, Lhung Tarok, Kecamaten Blang Pidie, Kabupaten Aceh Barat Daya, Aceh 23763";"Unnamed Road, Lhung Tarok, Kecamaten Blang Pidie, Kabupaten Aceh Barat Daya";"ACEH";"23763";"Indonesia";"";"3.7449587";"96.8248922";"https://maps.google.com/?cid=0x0:0x7b9a930473bf2896"
"perumahan";"Toko";"MR. D.I.Y Blangpidie";"Jl. Iskandar Muda, Geulumpang Payong, Kecamaten Blang Pidie, Kabupaten Aceh Barat Daya, Aceh 23764";"Geulumpang Payong, Kecamaten Blang Pidie, Kabupaten Aceh Barat Daya";"ACEH";"23764";"Indonesia";"";"3.7386537";"96.8416238";"https://maps.google.com/?cid=0x0:0x4bc9bc343ce63a26"
"perumahan";"Komplek perumahan";"KOMPLEK RUSLAN JOHN";"PRRR+9M2, Geulumpang Payong, Kecamaten Blang Pidie, Kabupaten Aceh Barat Daya, Aceh 23763";"Geulumpang Payong, Kecamaten Blang Pidie, Kabupaten Aceh Barat Daya";"ACEH";"23763";"Indonesia";"";"3.7409292";"96.8414027";"https://maps.google.com/?cid=0x0:0x865521f5228c5cd1"
"perumahan";"Komplek perumahan";"Komplek Perumahan Pulau Teuku";"PRRV+6GP, Mata Ie, Kecamaten Blang Pidie, Kabupaten Aceh Barat Daya, Aceh 23763";"Mata Ie, Kecamaten Blang Pidie, Kabupaten Aceh Barat Daya";"ACEH";"23763";"Indonesia";"";"3.740582";"96.8438294";"https://maps.google.com/?cid=0x0:0x12776d4d398a181e"
"perumahan";"Komplek perumahan";"Perumahan";"PRPJ+7G2, Jl. Persada, Kedai Siblah, Kecamaten Blang Pidie, Kabupaten Aceh Barat Daya, Aceh 23763";"Jl. Persada, Kedai Siblah, Kecamaten Blang Pidie, Kabupaten Aceh Barat Daya";"ACEH";"23763";"Indonesia";" 085260000443";"3.7352026";"96.8315908";"https://maps.google.com/?cid=0x0:0xcbc3a7fa06f9a787"
"perumahan";"Pembangunan Perumahan";"Seunaloh";"QR2P+CH4, Seunaloh, Kecamaten Blang Pidie, Kabupaten Aceh Barat Daya, Aceh 23763";"Seunaloh, Kecamaten Blang Pidie, Kabupaten Aceh Barat Daya";"ACEH";"23763";"Indonesia";"";"3.7510148";"96.8364399";"https://maps.google.com/?cid=0x0:0x9bcc2b5128788b79"
"perumahan";"Gedung Apartemen";"RUMAH BANG ZELIL";"PVC3+QF4, Lamkuta, Kecamaten Blang Pidie, Kabupaten Aceh Barat Daya, Aceh 23763";"Lamkuta, Kecamaten Blang Pidie, Kabupaten Aceh Barat Daya";"ACEH";"23763";"Indonesia";"";"3.7218861";"96.8536972";"https://maps.google.com/?cid=0x0:0xe246edde42d9d3d5"
"perumahan";"Pasar";"desa pasar blangpidie";"PRRG+97P, Kedai Siblah, Kecamaten Blang Pidie, Kabupaten Aceh Barat Daya, Aceh";"Kabupaten Aceh Barat Daya, Aceh";"ACEH";"";"Indonesia";"";"3.7409516";"96.8257073";"https://maps.google.com/?cid=0x0:0x585ddfe7983ff5c4"
"perumahan";"perumahan";"Aceh 23763";"Hutan Blangpidie, Kecamaten Blang Pidie, Kabupaten Aceh Barat Daya, Aceh";"Kabupaten Aceh Barat Daya, Aceh";"ACEH";"";"Indonesia";"";"3.8370991";"96.9638624";"https://maps.google.com/?cid=0x0:0xcddc5be33e66fecd"
"perumahan";"Toko";"Tangan tangan cut";"MVQQ+Q62, Tangan Tangan Cut, Kec. Setia, Kabupaten Aceh Barat Daya, Aceh";"Kabupaten Aceh Barat Daya, Aceh";"ACEH";"";"Indonesia";"";"3.6893764";"96.8880157";"https://maps.google.com/?cid=0x0:0xe25d192a656a409a"
"perumahan";"perumahan";"Rumah mamak kangyusss";"PRHH+8PV, Padang Hilir, Susoh, Kabupaten Aceh Barat Daya, Aceh 23763";"Padang Hilir, Susoh, Kabupaten Aceh Barat Daya";"ACEH";"23763";"Indonesia";"";"3.7281545";"96.829447";"https://maps.google.com/?cid=0x0:0x7b597fa20a35a06"
"perumahan";"Pembangunan Perumahan";"Tanah Sawah M. Nasir G";"PRXG+VFC, Lhung Asan, Kecamaten Blang Pidie, Kabupaten Aceh Barat Daya, Aceh 23763";"Lhung Asan, Kecamaten Blang Pidie, Kabupaten Aceh Barat Daya";"ACEH";"23763";"Indonesia";"";"3.7496974";"96.8261532";"https://maps.google.com/?cid=0x0:0x982a4c8de9fe9a81"
"perumahan";"Komplek perumahan";"Komplek Perumahan Pulau Teuku";"PRRV+6GP, Mata Ie, Kecamaten Blang Pidie, Kabupaten Aceh Barat Daya, Aceh 23763";"Mata Ie, Kecamaten Blang Pidie, Kabupaten Aceh Barat Daya";"ACEH";"23763";"Indonesia";"";"3.740582";"96.8438294";"https://maps.google.com/?cid=0x0:0x12776d4d398a181e"
"perumahan";"Kompleks Bangunan Perusahaan";"Komplek Perumahan Dhuafa";"PV25+7VG, Ujung Tanah, Kec. Setia, Kabupaten Aceh Barat Daya, Aceh 23763";"Ujung Tanah, Kec. Setia, Kabupaten Aceh Barat Daya";"ACEH";"23763";"Indonesia";"";"3.7007123";"96.8596479";"https://maps.google.com/?cid=0x0:0xd2de28ea93c6b1bc"
"perumahan";"Komplek perumahan";"rumah Tia manizz";"MVRQ+R35, Tangan Tangan Cut, Kec. Setia, Kabupaten Aceh Barat Daya, Aceh";"Kabupaten Aceh Barat Daya, Aceh";"ACEH";"";"Indonesia";"";"3.6920246";"96.8877448";"https://maps.google.com/?cid=0x0:0xfe02d2afb4ad0c80"
"perumahan";"Perhimpunan Pengembang Perumahan";"Yoga firnanda";"PV67+57Q, Alue Dama, Kec. Setia, Kabupaten Aceh Barat Daya, Aceh 23763";"Alue Dama, Kec. Setia, Kabupaten Aceh Barat Daya";"ACEH";"23763";"Indonesia";"";"3.7104571";"96.8632451";"https://maps.google.com/?cid=0x0:0xd2106c1a5873a19a"
"perumahan";"Rumah wisata";"Rumah malia";"MVMW+25G, Ie Lhop, Kec. Tangan-Tangan, Kabupaten Aceh Barat Daya, Aceh";"Kabupaten Aceh Barat Daya, Aceh";"ACEH";"";"Indonesia";"";"3.6825662";"96.895422";"https://maps.google.com/?cid=0x0:0x8a7a55d98309cf54"
"perumahan";"Dokter";"Rumah dr.Yuhyi Fajrina, Sp.S";"PRPQ+3HV, Jalan Pemancar TVRI Lorong Mawar Melati, Dusun 3, Kepala Bandar, Susoh, Kabupaten Aceh Barat Daya, Aceh 23763";"Jalan Pemancar TVRI Lorong Mawar Melati, Dusun 3, Kepala Bandar, Susoh, Kabupaten Aceh Barat Daya";"ACEH";"23763";"Indonesia";"";"3.7352375";"96.8389219";"https://maps.google.com/?cid=0x0:0x15b1e3b3c599e81d"
"perumahan";"Pembangunan Perumahan";"TARZANI LAMKUTA";"PVH6+764, Lamkuta, Kecamaten Blang Pidie, Kabupaten Aceh Barat Daya, Aceh 23763";"Lamkuta, Kecamaten Blang Pidie, Kabupaten Aceh Barat Daya";"ACEH";"23763";"Indonesia";"";"3.7281261";"96.8605641";"https://maps.google.com/?cid=0x0:0xbb9774ca8ad3e1b7"
"perumahan";"Komplek perumahan";"Ruko Murhanisah";"PV4F+V2J, Jl. Iskandar Muda, Rambong, Kec. Setia, Kabupaten Aceh Barat Daya, Aceh 23763";"Jl. Iskandar Muda, Rambong, Kec. Setia, Kabupaten Aceh Barat Daya";"ACEH";"23763";"Indonesia";"";"3.707392";"96.8726748";"https://maps.google.com/?cid=0x0:0xc3647bf0286b5bce"
"perumahan";"Komplek perumahan";"Rumah Ucha";"PRWG+CW3, Lhung Asan, Kecamaten Blang Pidie, Kabupaten Aceh Barat Daya, Aceh 23763";"Lhung Asan, Kecamaten Blang Pidie, Kabupaten Aceh Barat Daya";"ACEH";"23763";"Indonesia";"";"3.7460072";"96.8272908";"https://maps.google.com/?cid=0x0:0x3d55fc4141af5cfc"
"perumahan";"Komplek perumahan";"Komplek Perumahan Seunaloh";"Lr. 2, Seunaloh, Kecamaten Blang Pidie, Kabupaten Aceh Barat Daya, Aceh 23763";"Seunaloh, Kecamaten Blang Pidie, Kabupaten Aceh Barat Daya";"ACEH";"23763";"Indonesia";"";"3.7484262";"96.8354809";"https://maps.google.com/?cid=0x0:0x1bf9d4f8b708c87a"
"perumahan";"Komplek perumahan";"Rumah";"JW8P+G5R, Kedai, Kec. Manggeng, Kabupaten Aceh Barat Daya, Aceh 23762";"Kedai, Kec. Manggeng, Kabupaten Aceh Barat Daya";"ACEH";"23762";"Indonesia";"";"3.6164705";"96.9355555";"https://maps.google.com/?cid=0x0:0x8eac7084ca8e4fb3"
"perumahan";"perumahan";"Manggeng";"Blang Manggeng, Kec. Manggeng, Kabupaten Aceh Barat Daya, Aceh";"Kabupaten Aceh Barat Daya, Aceh";"ACEH";"";"Indonesia";"";"3.60821";"96.9188";"https://maps.google.com/?cid=0x0:0x4039d80b220dbb0"
"perumahan";"Komplek perumahan";"Rumah";"JWFG+FQH, Ujung Padang, Kec. Manggeng, Kabupaten Aceh Barat Daya, Aceh 23762";"Ujung Padang, Kec. Manggeng, Kabupaten Aceh Barat Daya";"ACEH";"23762";"Indonesia";"";"3.6236757";"96.9269832";"https://maps.google.com/?cid=0x0:0x20757836e82aacce"
"perumahan";"Perumahan";"The Yarma's";"JW9M+974, Paya, Kec. Manggeng, Kabupaten Aceh Barat Daya, Aceh 23762";"Paya, Kec. Manggeng, Kabupaten Aceh Barat Daya";"ACEH";"23762";"Indonesia";"";"3.6184296";"96.9331883";"https://maps.google.com/?cid=0x0:0x48f0db89208cff45"
"perumahan";"Perumahan";"Desa kedai manggeng";"JW6M+JG4, Kedai, Kec. Manggeng, Kabupaten Aceh Barat Daya, Aceh 23762";"Kedai, Kec. Manggeng, Kabupaten Aceh Barat Daya";"ACEH";"23762";"Indonesia";"";"3.6115193";"96.9338188";"https://maps.google.com/?cid=0x0:0xf71ede59aae3c43c"
"perumahan";"perumahan";"Rumah ruski";"HXC8+276, Blang Poroh, Kec. Labuhan H. Bar., Kabupaten Aceh Selatan, Aceh 23762";"Blang Poroh, Kec. Labuhan H. Bar., Kabupaten Aceh Selatan";"ACEH";"23762";"Indonesia";"";"3.5700434";"96.9656556";"https://maps.google.com/?cid=0x0:0x78f147cd05b5a5ac"
"perumahan";"Perumahan";"Rumah Nek Gam";"JW4H+JX9, Tokoh, Kec. Manggeng, Kabupaten Aceh Barat Daya, Aceh 23762";"Tokoh, Kec. Manggeng, Kabupaten Aceh Barat Daya";"ACEH";"23762";"Indonesia";"";"3.6065383";"96.9299731";"https://maps.google.com/?cid=0x0:0x10db602598a8ba51"
"perumahan";"perumahan";"R.Iqbal ( B.Eliana)";"HWRJ+F2R, Ladang Tuha I, Kec. Lembah Sabil, Kabupaten Aceh Barat Daya, Aceh 23762";"Ladang Tuha I, Kec. Lembah Sabil, Kabupaten Aceh Barat Daya";"ACEH";"23762";"Indonesia";"";"3.591232";"96.9300194";"https://maps.google.com/?cid=0x0:0xbc04e185d604abe1"
"perumahan";"Komplek perumahan";"ladanf panah. kec manggeng kabupaten aceh barat daya";"JWFH+5M4, Ujung Padang, Kec. Manggeng, Kabupaten Aceh Barat Daya, Aceh 23762";"Ujung Padang, Kec. Manggeng, Kabupaten Aceh Barat Daya";"ACEH";"23762";"Indonesia";"";"3.6228878";"96.9291947";"https://maps.google.com/?cid=0x0:0xe5b3263f5c99537e"
"perumahan";"Gudang";"Cv bngmuu";"JW89+Q8P, Pante Raja, Kec. Manggeng, Kabupaten Aceh Barat Daya, Aceh 23762";"Pante Raja, Kec. Manggeng, Kabupaten Aceh Barat Daya";"ACEH";"23762";"Indonesia";"";"3.6164394";"96.9183551";"https://maps.google.com/?cid=0x0:0xede4f200b4d4ad56"
"perumahan";"Program Rumah Murah";"Tumbok";"JW86+34M, Sejahtera, Kec. Manggeng, Kabupaten Aceh Barat Daya, Aceh 23762";"Sejahtera, Kec. Manggeng, Kabupaten Aceh Barat Daya";"ACEH";"23762";"Indonesia";"";"3.6152";"96.9103048";"https://maps.google.com/?cid=0x0:0x37ad57ea4bef8ef0"
"perumahan";"Komplek perumahan";"Rumah Miftahul Salam";"JW7P+H7M, Jl. Jambu, Padang, Kec. Manggeng, Kabupaten Aceh Barat Daya, Aceh 23762";"Jl. Jambu, Padang, Kec. Manggeng, Kabupaten Aceh Barat Daya";"ACEH";"23762";"Indonesia";"";"3.613835";"96.935957";"https://maps.google.com/?cid=0x0:0x8ff4f32a93d70ad5"
"perumahan";"Perumahan";"Rumah siska";"JWH5+WM6, Pante Pirak, Kec. Manggeng, Kabupaten Aceh Barat Daya, Aceh 23762";"Pante Pirak, Kec. Manggeng, Kabupaten Aceh Barat Daya";"ACEH";"23762";"Indonesia";"";"3.6297843";"96.9091022";"https://maps.google.com/?cid=0x0:0xe403eed1743b1be1"
"perumahan";"Komplek perumahan";"RUMAH YR";"JW7M+PMJ, Jl. Jeruk, Padang, Kec. Manggeng, Kabupaten Aceh Barat Daya, Aceh 23762";"Jl. Jeruk, Padang, Kec. Manggeng, Kabupaten Aceh Barat Daya";"ACEH";"23762";"Indonesia";"";"3.6143387";"96.9341251";"https://maps.google.com/?cid=0x0:0x9688dff22b277b25"
"perumahan";"Komplek perumahan";"Suhelmi House";"PRH7+WP, Pawoh, Susoh, Kabupaten Aceh Barat Daya, Aceh 23765";"Pawoh, Susoh, Kabupaten Aceh Barat Daya";"ACEH";"23765";"Indonesia";"";"3.7297694";"96.8143319";"https://maps.google.com/?cid=0x0:0xe559bd7b3ff3ecdf"
"perumahan";"perumahan";"Susoh";"Padang Baru, Susoh, Kabupaten Aceh Barat Daya, Aceh";"Kabupaten Aceh Barat Daya, Aceh";"ACEH";"";"Indonesia";"";"3.728577";"96.812576";"https://maps.google.com/?cid=0x0:0x4039d80b220d460"
"perumahan";"Komplek perumahan";"RUMAH BAGUS-BAGAS";"PRG8+J9G, Pawoh, Susoh, Kabupaten Aceh Barat Daya, Aceh 23763";"Pawoh, Susoh, Kabupaten Aceh Barat Daya";"ACEH";"23763";"Indonesia";"";"3.726553";"96.8159601";"https://maps.google.com/?cid=0x0:0xd41a4921439980fd"
"perumahan";"perumahan";"Rumah mamak kangyusss";"PRHH+8PV, Padang Hilir, Susoh, Kabupaten Aceh Barat Daya, Aceh 23763";"Padang Hilir, Susoh, Kabupaten Aceh Barat Daya";"ACEH";"23763";"Indonesia";"";"3.7281545";"96.829447";"https://maps.google.com/?cid=0x0:0x7b597fa20a35a06"
"perumahan";"Komplek perumahan";"Dk";"PRC9+HC, Pinang, Susoh, Kabupaten Aceh Barat Daya, Aceh 23763";"Pinang, Susoh, Kabupaten Aceh Barat Daya";"ACEH";"23763";"Indonesia";"";"3.7214508";"96.8185022";"https://maps.google.com/?cid=0x0:0xa3f57d9a667d13bd"
"perumahan";"Komplek perumahan";"Rumah alhas";"PR8F+5PP, Jl. Pinggir Pantai, Kedai Palak Kerambil, Susoh, Kabupaten Aceh Barat Daya, Aceh 23763";"Jl. Pinggir Pantai, Kedai Palak Kerambil, Susoh, Kabupaten Aceh Barat Daya";"ACEH";"23763";"Indonesia";"";"3.7153393";"96.8243315";"https://maps.google.com/?cid=0x0:0x6b598b993f0fe4fb"
"perumahan";"Komplek perumahan";"Rumah Dinas Bea dan Cukai Meulaboh";"PQJX+4GV, Pulau Kayu, Susoh, Kabupaten Aceh Barat Daya, Aceh 23765";"Pulau Kayu, Susoh, Kabupaten Aceh Barat Daya";"ACEH";"23765";"Indonesia";"";"3.7303746";"96.7987958";"https://maps.google.com/?cid=0x0:0x806165b76756d76f"
"perumahan";"Komplek perumahan";"P.kayu";"PRH3+M4Q, Pulau Kayu, Susoh, Kabupaten Aceh Barat Daya, Aceh 23765";"Pulau Kayu, Susoh, Kabupaten Aceh Barat Daya";"ACEH";"23765";"Indonesia";"";"3.7292238";"96.8028452";"https://maps.google.com/?cid=0x0:0xc750c09ee8dfac5"
"perumahan";"Pembangunan Perumahan";"My home";"PRF6+HHP, Padang Baru, Susoh, Kabupaten Aceh Barat Daya, Aceh 23765";"Padang Baru, Susoh, Kabupaten Aceh Barat Daya";"ACEH";"23765";"Indonesia";"";"3.7239611";"96.8114507";"https://maps.google.com/?cid=0x0:0xd26ed022272aeb3b"
"perumahan";"Komplek perumahan";"Rumah Sayed zawil";"PRH3+2GJ, Pulau Kayu, Susoh, Kabupaten Aceh Barat Daya, Aceh 23765";"Pulau Kayu, Susoh, Kabupaten Aceh Barat Daya";"ACEH";"23765";"Indonesia";"";"3.7275992";"96.8037806";"https://maps.google.com/?cid=0x0:0x7a3b6a270958cea6"
"perumahan";"Pembangunan Perumahan";"SHM AN GUSNIDAR";"PRF8+QP6, Pawoh, Susoh, Kabupaten Aceh Barat Daya, Aceh 23763";"Pawoh, Susoh, Kabupaten Aceh Barat Daya";"ACEH";"23763";"Indonesia";"";"3.7247699";"96.8163351";"https://maps.google.com/?cid=0x0:0xa040d5a28087486c"
"perumahan";"Pembangunan Perumahan";"Rumah";"PRGC+7XR, Durian Rampak, Susoh, Kabupaten Aceh Barat Daya, Aceh 23763";"Durian Rampak, Susoh, Kabupaten Aceh Barat Daya";"ACEH";"23763";"Indonesia";"";"3.7258928";"96.8224472";"https://maps.google.com/?cid=0x0:0x137626461a50447a"
"perumahan";"Perumahan";"Perumahan sigupai asri";"PRWH+C96, Lhung Asan, Kecamaten Blang Pidie, Kabupaten Aceh Barat Daya, Aceh";"Kabupaten Aceh Barat Daya, Aceh";"ACEH";"";"Indonesia";"";"3.7460321";"96.8284005";"https://maps.google.com/?cid=0x0:0x74ce4d73129056d3"
"perumahan";"Perhimpunan Pengembang Perumahan";"PALAK HILIR";"PRCC+VC2, Palak Hilir, Susoh, Kabupaten Aceh Barat Daya, Aceh 23763";"Palak Hilir, Susoh, Kabupaten Aceh Barat Daya";"ACEH";"23763";"Indonesia";"";"3.7221335";"96.8210111";"https://maps.google.com/?cid=0x0:0x963695b5e33aff7b"
"perumahan";"perumahan";"Aceh 23766";"Kec. Babah Rot, Kabupaten Aceh Barat Daya, Aceh";"Kabupaten Aceh Barat Daya, Aceh";"ACEH";"";"Indonesia";"";"3.9000346";"96.6851982";"https://maps.google.com/?cid=0x0:0x4d19ceb29190eb17"
"perumahan";"Komplek perumahan";"BARATA";"RQ54+76M, Blang Makmur, Kec. Kuala Batee, Kabupaten Aceh Barat Daya, Aceh";"Kabupaten Aceh Barat Daya, Aceh";"ACEH";"";"Indonesia";"";"3.8083051";"96.756";"https://maps.google.com/?cid=0x0:0xee53eb9a15e38aab"
"perumahan";"Komplek perumahan";"Rumah wali";"RQH7+H6G, Kota Bahagia, Kec. Kuala Batee, Kabupaten Aceh Barat Daya, Aceh 23764";"Kota Bahagia, Kec. Kuala Batee, Kabupaten Aceh Barat Daya";"ACEH";"23764";"Indonesia";"";"3.8296762";"96.7638348";"https://maps.google.com/?cid=0x0:0x3b1cd2f162fdc06f"
"perumahan";"Komplek perumahan";"Perabot  batako";"RQ62+PW, Kuala Terubu, Kec. Kuala Batee, Kabupaten Aceh Barat Daya, Aceh";"Kabupaten Aceh Barat Daya, Aceh";"ACEH";"";"Indonesia";"";"3.8116942";"96.752304";"https://maps.google.com/?cid=0x0:0x2966729cc7d0f66c"
"perumahan";"Komplek perumahan";"Rumah abdre";"QQPR+QF8, Krueng Batee, Kec. Kuala Batee, Kabupaten Aceh Barat Daya, Aceh 23765";"Krueng Batee, Kec. Kuala Batee, Kabupaten Aceh Barat Daya";"ACEH";"23765";"Indonesia";"";"3.7869594";"96.7912904";"https://maps.google.com/?cid=0x0:0x629fb16d4ff2090a"
"perumahan";"Komplek perumahan";"Iqbal";"RQC4+6GR, Ps. Kuta Bahagia, Kec. Kuala Batee, Kabupaten Aceh Barat Daya, Aceh 23764";"Ps. Kuta Bahagia, Kec. Kuala Batee, Kabupaten Aceh Barat Daya";"ACEH";"23764";"Indonesia";"";"3.8206329";"96.755646";"https://maps.google.com/?cid=0x0:0x682b9c528e51f820"
"perumahan";"Pembangunan Perumahan";"M.B house";"RQ69+CQR, Kp. Tengah, Kec. Kuala Batee, Kabupaten Aceh Barat Daya, Aceh 23764";"Kp. Tengah, Kec. Kuala Batee, Kabupaten Aceh Barat Daya";"ACEH";"23764";"Indonesia";"";"3.8111593";"96.7693202";"https://maps.google.com/?cid=0x0:0x9b51902f895b8ece"
"perumahan";"Komplek perumahan";"Rumah Mitha";"RQ22+9R4, Jl. Darul Adil, Blang Makmur, Kec. Kuala Batee, Kabupaten Aceh Barat Daya, Aceh 23765";"Jl. Darul Adil, Blang Makmur, Kec. Kuala Batee, Kabupaten Aceh Barat Daya";"ACEH";"23765";"Indonesia";"";"3.8008995";"96.7520757";"https://maps.google.com/?cid=0x0:0x7147006726ea7779"
"perumahan";"Komplek perumahan";"Fajeri";"Krueng Batee, Kec. Kuala Batee, Kabupaten Aceh Barat Daya, Aceh 23765";"Kec. Kuala Batee, Kabupaten Aceh Barat Daya";"ACEH";"23765";"Indonesia";"";"3.7902677";"96.7925005";"https://maps.google.com/?cid=0x0:0x609561485ed3b6ac"
"perumahan";"Komplek perumahan";"rumah rahul";"RQG5+WF9, Ps. Kuta Bahagia, Kec. Kuala Batee, Kabupaten Aceh Barat Daya, Aceh 23764";"Ps. Kuta Bahagia, Kec. Kuala Batee, Kabupaten Aceh Barat Daya";"ACEH";"23764";"Indonesia";"";"3.8277781";"96.7593109";"https://maps.google.com/?cid=0x0:0x7f3b6a50af8a344d"
"perumahan";"Komplek perumahan";"Rumh keluarga";"RQ43+W6, Blang Makmur, Kec. Kuala Batee, Kabupaten Aceh Barat Daya, Aceh";"Kabupaten Aceh Barat Daya, Aceh";"ACEH";"";"Indonesia";"";"3.8072617";"96.75308";"https://maps.google.com/?cid=0x0:0x43e2b64515ded343"
"perumahan";"Pusat Perbelanjaan";"Lama Inong Area";"RQC5+WGC, Ps. Kuta Bahagia, Kec. Kuala Batee, Kabupaten Aceh Barat Daya, Aceh 23764";"Ps. Kuta Bahagia, Kec. Kuala Batee, Kabupaten Aceh Barat Daya";"ACEH";"23764";"Indonesia";"";"3.8223203";"96.7587673";"https://maps.google.com/?cid=0x0:0xfc99e331331c508f"
"perumahan";"Komplek perumahan";"Rumah Samsul Bahri.B";"VP7H+HQ8, Blang Dalam, Kec. Babah Rot, Kabupaten Aceh Barat Daya, Aceh 24251";"Blang Dalam, Kec. Babah Rot, Kabupaten Aceh Barat Daya";"ACEH";"24251";"Indonesia";"";"3.8639088";"96.7294741";"https://maps.google.com/?cid=0x0:0x27444cf0842ca885"
"perumahan";"Pembangunan Perumahan";"My home";"RQJ2+FRP, Gelanggang Gajah, Kec. Kuala Batee, Kabupaten Aceh Barat Daya, Aceh";"Kabupaten Aceh Barat Daya, Aceh";"ACEH";"";"Indonesia";"";"3.831597";"96.752239";"https://maps.google.com/?cid=0x0:0x45f54920fa17576b"
"perumahan";"perumahan";"Aceh 23767";"Kec. Babah Rot, Kabupaten Aceh Barat Daya, Aceh";"Kabupaten Aceh Barat Daya, Aceh";"ACEH";"";"Indonesia";"";"3.8500236";"96.6103778";"https://maps.google.com/?cid=0x0:0xdb51e75798ae0c5b"
"perumahan";"Kedai Kopi";"Rumah muhib";"WJWQ+JJH, Karya baru, Kec. Babah Rot, Kabupaten Aceh Barat Daya, Aceh";"Kabupaten Aceh Barat Daya, Aceh";"ACEH";"";"Indonesia";"";"3.946562";"96.6391173";"https://maps.google.com/?cid=0x0:0xa0af1bebcb4899b3"
"perumahan";"Komplek perumahan";"Rumah aii";"WJ4Q+6G, Ie Merah, Kec. Babah Rot, Kabupaten Aceh Barat Daya, Aceh";"Kabupaten Aceh Barat Daya, Aceh";"ACEH";"";"Indonesia";"";"3.9055346";"96.6388455";"https://maps.google.com/?cid=0x0:0xebbdfc72f475588"
"perumahan";"Komplek perumahan";"Suak Bahung";"VHHQ+M8, Krueng Seumayam, Kec. Darul Makmur, Kabupaten Nagan Raya, Aceh 23662";"Krueng Seumayam, Kec. Darul Makmur, Kabupaten Nagan Raya";"ACEH";"23662";"Indonesia";"";"3.8791253";"96.5882982";"https://maps.google.com/?cid=0x0:0x68eaffd4b31d3b3c"
"perumahan";"Pembangunan Perumahan";"Suak Baung, Nagan Raya, Aceh";"VH4J+7CR, Krueng Seumayam, Kec. Darul Makmur, Kabupaten Nagan Raya, Aceh 23662";"Krueng Seumayam, Kec. Darul Makmur, Kabupaten Nagan Raya";"ACEH";"23662";"Indonesia";"";"3.8557446";"96.5810081";"https://maps.google.com/?cid=0x0:0xf460fd8899ae2733"
"perumahan";"Komplek perumahan";"Rumah";"WJWQ+JJH, Karya baru, Kec. Babah Rot, Kabupaten Aceh Barat Daya, Aceh";"Kabupaten Aceh Barat Daya, Aceh";"ACEH";"";"Indonesia";"";"3.9465825";"96.6390423";"https://maps.google.com/?cid=0x0:0xa6e079cf0a3b84eb"
"perumahan";"Komplek perumahan";"Divisi VI Suak Baung";"QJW3+F32, Kuala Semanyam, Kec. Darul Makmur, Kabupaten Nagan Raya, Aceh 23767";"Kuala Semanyam, Kec. Darul Makmur, Kabupaten Nagan Raya";"ACEH";"23767";"Indonesia";"";"3.796125";"96.6026361";"https://maps.google.com/?cid=0x0:0x13b1d59357ec34db"
"perumahan";"Komplek perumahan";"Rumah Buk Kartiyah";"WH6Q+3W, Krueng Seumayam, Kec. Darul Makmur, Kabupaten Nagan Raya, Aceh";"Kabupaten Nagan Raya, Aceh";"ACEH";"";"Indonesia";"";"3.9099058";"96.5896913";"https://maps.google.com/?cid=0x0:0x447391d95527a33b"
"perumahan";"Komplek perumahan";"D,her";"RJ74+X7, Kuala Semanyam, Kec. Darul Makmur, Kabupaten Nagan Raya, Aceh";"Kabupaten Nagan Raya, Aceh";"ACEH";"";"Indonesia";"";"3.8153737";"96.6052488";"https://maps.google.com/?cid=0x0:0x6fcf55353784c2c2"
"perumahan";"Masjid";"Mesjid karya baru";"WJXR+22M, Unnamed Road, Gn. Samarinda, Kec. Babah Rot, Kabupaten Aceh Barat Daya, Aceh 23662";"Unnamed Road, Gn. Samarinda, Kec. Babah Rot, Kabupaten Aceh Barat Daya";"ACEH";"23662";"Indonesia";"";"3.9475784";"96.640043";"https://maps.google.com/?cid=0x0:0xc89008d4aa60bf2b"
"perumahan";"Komplek perumahan";"Divisi V Suak Baung";"RHFW+XHF, Kuala Semanyam, Kec. Darul Makmur, Kabupaten Nagan Raya, Aceh";"Kabupaten Nagan Raya, Aceh";"ACEH";"";"Indonesia";"";"3.8249328";"96.5964149";"https://maps.google.com/?cid=0x0:0x90038a159518a8fe"
"perumahan";"Komplek perumahan";"Divisi VIII Suak Baung";"RH4H+G9V, Kuala Semanyam, Kec. Darul Makmur, Kabupaten Nagan Raya, Aceh 23662";"Kuala Semanyam, Kec. Darul Makmur, Kabupaten Nagan Raya";"ACEH";"23662";"Indonesia";"";"3.80636";"96.5784327";"https://maps.google.com/?cid=0x0:0x4a288147c527fe7e"
"perumahan";"Pembangunan Perumahan";"Rumah nekbi";"VHGM+6F7, Krueng Seumayam, Kec. Darul Makmur, Kabupaten Nagan Raya, Aceh 23662";"Krueng Seumayam, Kec. Darul Makmur, Kabupaten Nagan Raya";"ACEH";"23662";"Indonesia";"";"3.8755269";"96.5836774";"https://maps.google.com/?cid=0x0:0xc0c215055118278d"
"perumahan";"Pembangunan Perumahan";"Irwanto";"WH3W+6G, Krueng Seumayam, Kec. Darul Makmur, Kabupaten Nagan Raya, Aceh";"Kabupaten Nagan Raya, Aceh";"ACEH";"";"Indonesia";"";"3.9031226";"96.5962825";"https://maps.google.com/?cid=0x0:0x67a3dab9a08a58c"
"perumahan";"perumahan";"Kec. Setia";"Kabupaten Aceh Barat Daya, Aceh";"Kabupaten Aceh Barat Daya, Aceh";"ACEH";"";"Indonesia";"";"3.7078495";"96.8719767";"https://maps.google.com/?cid=0x0:0x34a354e1c2218e5f"
"perumahan";"Kompleks Bangunan Perusahaan";"Komplek Perumahan Dhuafa";"PV25+7VG, Ujung Tanah, Kec. Setia, Kabupaten Aceh Barat Daya, Aceh 23763";"Ujung Tanah, Kec. Setia, Kabupaten Aceh Barat Daya";"ACEH";"23763";"Indonesia";"";"3.7007123";"96.8596479";"https://maps.google.com/?cid=0x0:0xd2de28ea93c6b1bc"
"perumahan";"Komplek perumahan";"PERUM PAK NAFIS";"MVVH+RJQ, Unnamed Road, Tangan Tangan Cut, Kec. Setia, Kabupaten Aceh Barat Daya, Aceh 23763";"Unnamed Road, Tangan Tangan Cut, Kec. Setia, Kabupaten Aceh Barat Daya";"ACEH";"23763";"Indonesia";"";"3.69459";"96.87912";"https://maps.google.com/?cid=0x0:0xf5a898e7286b5497"
"perumahan";"Komplek perumahan";"Perumahan 40";"PV25+7VG, Ujung Tanah, Kec. Setia, Kabupaten Aceh Barat Daya, Aceh 23763";"Ujung Tanah, Kec. Setia, Kabupaten Aceh Barat Daya";"ACEH";"23763";"Indonesia";"";"3.7006779";"96.8596988";"https://maps.google.com/?cid=0x0:0xa8cb76e6ef189c3a"
"perumahan";"Kompleks Bangunan Perusahaan";"Desa Setia Budi";"MVQF+5C7, Ujung Tanah, Kec. Setia, Kabupaten Aceh Barat Daya, Aceh";"Kabupaten Aceh Barat Daya, Aceh";"ACEH";"";"Indonesia";"";"3.6879013";"96.8735451";"https://maps.google.com/?cid=0x0:0x7145fc315a151a68"
"perumahan";"perumahan";"Rumah mamak kangyusss";"PRHH+8PV, Padang Hilir, Susoh, Kabupaten Aceh Barat Daya, Aceh 23763";"Padang Hilir, Susoh, Kabupaten Aceh Barat Daya";"ACEH";"23763";"Indonesia";"";"3.7281545";"96.829447";"https://maps.google.com/?cid=0x0:0x7b597fa20a35a06"
"perumahan";"Pembangunan Perumahan";"Pawang walet muda";"MVXG+J43, Lhang, Kec. Setia, Kabupaten Aceh Barat Daya, Aceh 23763";"Lhang, Kec. Setia, Kabupaten Aceh Barat Daya";"ACEH";"23763";"Indonesia";"";"3.6990762";"96.8745929";"https://maps.google.com/?cid=0x0:0x9233740c0fa36bb8"
"perumahan";"perumahan";"Mutia";"PV25+7VG, Ujung Tanah, Kec. Setia, Kabupaten Aceh Barat Daya, Aceh 23763";"Ujung Tanah, Kec. Setia, Kabupaten Aceh Barat Daya";"ACEH";"23763";"Indonesia";"";"3.7007276";"96.8596948";"https://maps.google.com/?cid=0x0:0xcc7f11d4b1cab5a9"
"perumahan";"Kompleks Bangunan Perusahaan";"Komplek Kutaraja Permai";"PV69+5JG, Pisang, Kec. Setia, Kabupaten Aceh Barat Daya, Aceh";"Kabupaten Aceh Barat Daya, Aceh";"ACEH";"";"Indonesia";"";"3.7099503";"96.8686632";"https://maps.google.com/?cid=0x0:0x2e440e290c9e3b1e"
"perumahan";"Perhimpunan Pengembang Perumahan";"Yoga firnanda";"PV67+57Q, Alue Dama, Kec. Setia, Kabupaten Aceh Barat Daya, Aceh 23763";"Alue Dama, Kec. Setia, Kabupaten Aceh Barat Daya";"ACEH";"23763";"Indonesia";"";"3.7104571";"96.8632451";"https://maps.google.com/?cid=0x0:0xd2106c1a5873a19a"
"perumahan";"Kompleks Bangunan Perusahaan";"Cnzoo";"PV4C+GM4, Rambong, Kec. Setia, Kabupaten Aceh Barat Daya, Aceh 23763";"Rambong, Kec. Setia, Kabupaten Aceh Barat Daya";"ACEH";"23763";"Indonesia";"";"3.7064272";"96.8718825";"https://maps.google.com/?cid=0x0:0x7e3b1fa1313c4fd4"
"perumahan";"Komplek perumahan";"Ruko Murhanisah";"PV4F+V2J, Jl. Iskandar Muda, Rambong, Kec. Setia, Kabupaten Aceh Barat Daya, Aceh 23763";"Jl. Iskandar Muda, Rambong, Kec. Setia, Kabupaten Aceh Barat Daya";"ACEH";"23763";"Indonesia";"";"3.707392";"96.8726748";"https://maps.google.com/?cid=0x0:0xc3647bf0286b5bce"
"perumahan";"Toko";"Tangan tangan cut";"MVQQ+Q62, Tangan Tangan Cut, Kec. Setia, Kabupaten Aceh Barat Daya, Aceh";"Kabupaten Aceh Barat Daya, Aceh";"ACEH";"";"Indonesia";"";"3.6893764";"96.8880157";"https://maps.google.com/?cid=0x0:0xe25d192a656a409a"
"perumahan";"Komplek perumahan";"rumah Tia manizz";"MVRQ+R35, Tangan Tangan Cut, Kec. Setia, Kabupaten Aceh Barat Daya, Aceh";"Kabupaten Aceh Barat Daya, Aceh";"ACEH";"";"Indonesia";"";"3.6920246";"96.8877448";"https://maps.google.com/?cid=0x0:0xfe02d2afb4ad0c80"
"perumahan";"perumahan";"Jeumpa Barat";"QRG7+2V3, Kuta Jeumpa, Kec. Jeumpa, Kabupaten Aceh Barat Daya, Aceh 23764";"Kuta Jeumpa, Kec. Jeumpa, Kabupaten Aceh Barat Daya";"ACEH";"23764";"Indonesia";"";"3.7750181";"96.8146628";"https://maps.google.com/?cid=0x0:0x2e551a8d1a28496c"
"perumahan";"perumahan";"Aceh 23764";"Kabupaten Aceh Barat Daya, Aceh";"Kabupaten Aceh Barat Daya, Aceh";"ACEH";"";"Indonesia";"";"3.8585335";"96.8136642";"https://maps.google.com/?cid=0x0:0xffecff8e1cb94052"
"perumahan";"Komplek perumahan";"GAMPONG KUTA JEUMPA";"QR99+G3M, Jln nasional, Kuta Jeumpa, Kec. Jeumpa, Kabupaten Aceh Barat Daya, Aceh";"Kabupaten Aceh Barat Daya, Aceh";"ACEH";"";"Indonesia";"";"3.7688253";"96.8176828";"https://maps.google.com/?cid=0x0:0x1356720507ab2a88"
"perumahan";"Komplek perumahan";"Rumah ERINUR Spd.";"QRM3+PMX, Alue Rambot, Kec. Jeumpa, Kabupaten Aceh Barat Daya, Aceh";"Kabupaten Aceh Barat Daya, Aceh";"ACEH";"";"Indonesia";"";"3.7842746";"96.8044873";"https://maps.google.com/?cid=0x0:0xdd475da54e39d4a7"
"perumahan";"Komplek perumahan";"Hasannuddin ubat";"QRC9+QP3, Kuta Jeumpa, Kec. Jeumpa, Kabupaten Aceh Barat Daya, Aceh 23764";"Kuta Jeumpa, Kec. Jeumpa, Kabupaten Aceh Barat Daya";"ACEH";"23764";"Indonesia";"";"3.7718084";"96.8180097";"https://maps.google.com/?cid=0x0:0xe60f27c1333c570f"
"perumahan";"Komplek perumahan";"SIMPANG 4 BAK MEE";"QR43+86R, Iku Lhung, Kec. Jeumpa, Kabupaten Aceh Barat Daya, Aceh 23765";"Iku Lhung, Kec. Jeumpa, Kabupaten Aceh Barat Daya";"ACEH";"23765";"Indonesia";"";"3.7558608";"96.8030251";"https://maps.google.com/?cid=0x0:0xd9aa42b207fca4be"
"perumahan";"Komplek perumahan";"RUMAH DAULAYY";"QRHC+G6Q, Sejahtera desa, Alue Seulaseh, Kec. Jeumpa, Kabupaten Aceh Barat Daya, Aceh";"Kabupaten Aceh Barat Daya, Aceh";"ACEH";"";"Indonesia";"";"3.7788275";"96.8206081";"https://maps.google.com/?cid=0x0:0xa1e5b90baa2c9f53"
"perumahan";"Komplek perumahan";"Rumah muhed";"QRG8+FJH, Kuta Jeumpa, Kec. Jeumpa, Kabupaten Aceh Barat Daya, Aceh 23764";"Kuta Jeumpa, Kec. Jeumpa, Kabupaten Aceh Barat Daya";"ACEH";"23764";"Indonesia";"";"3.7761875";"96.8166094";"https://maps.google.com/?cid=0x0:0x77766b72e94f2a14"
"perumahan";"Komplek perumahan";"Rumah M.ANAS NASA";"QR7F+549, Jl. Ladang Neubok, Cot Mane, Kec. Jeumpa, Kabupaten Aceh Barat Daya, Aceh 23764";"Jl. Ladang Neubok, Cot Mane, Kec. Jeumpa, Kabupaten Aceh Barat Daya";"ACEH";"23764";"Indonesia";"";"3.7629879";"96.8227069";"https://maps.google.com/?cid=0x0:0xa9bf8c6990409e61"
"perumahan";"Rumah Kayu";"Rumah una";"QRM4+H27, Alue Rambot, Kec. Jeumpa, Kabupaten Aceh Barat Daya, Aceh 23765";"Alue Rambot, Kec. Jeumpa, Kabupaten Aceh Barat Daya";"ACEH";"23765";"Indonesia";"";"3.7831556";"96.8057346";"https://maps.google.com/?cid=0x0:0xe24f3d59308b1569"
"perumahan";"Komplek perumahan";"Rumah Said Fahmie";"QRG8+R23, Jl. Meulaboh - Tapaktuan, Alue Sungai Pinang, Kec. Jeumpa, Kabupaten Aceh Barat Daya, Aceh 23764";"Jl. Meulaboh - Tapaktuan, Alue Sungai Pinang, Kec. Jeumpa, Kabupaten Aceh Barat Daya";"ACEH";"23764";"Indonesia";"";"3.7763673";"96.8159343";"https://maps.google.com/?cid=0x0:0xb31fec2b317e1bd6"
"perumahan";"Komplek perumahan";"Rumah bg azki";"QR6F+58M, Cot Mane, Kec. Jeumpa, Kabupaten Aceh Barat Daya, Aceh 23764";"Cot Mane, Kec. Jeumpa, Kabupaten Aceh Barat Daya";"ACEH";"23764";"Indonesia";"";"3.7603295";"96.8233069";"https://maps.google.com/?cid=0x0:0x71d0381021038106"
"perumahan";"Otoritas Perumahan";"Perumahan Kredit";"QQ4X+JH4, Kuta Makmur, Kec. Jeumpa, Kabupaten Aceh Barat Daya, Aceh 23765";"Kuta Makmur, Kec. Jeumpa, Kabupaten Aceh Barat Daya";"ACEH";"23765";"Indonesia";"";"3.756519";"96.7989433";"https://maps.google.com/?cid=0x0:0x75e33ccde4b0edfc"
"perumahan";"Komplek perumahan";"Lorong kameng";"QR7G+MPF, Cot Mane, Kec. Jeumpa, Kabupaten Aceh Barat Daya, Aceh 23764";"Cot Mane, Kec. Jeumpa, Kabupaten Aceh Barat Daya";"ACEH";"23764";"Indonesia";"";"3.7641819";"96.826811";"https://maps.google.com/?cid=0x0:0x48c950621be05bff"
"perumahan";"perumahan";"Aceh 24251";"Kabupaten Bireuen, Aceh";"Kabupaten Bireuen, Aceh";"ACEH";"";"Indonesia";"";"5.0881574";"96.642433";"https://maps.google.com/?cid=0x0:0x2d3a8ff5c08e4a15"
"perumahan";"Komplek perumahan";"Jeumpa Permai";"Jl. Tgk Makam, Geulumpang Payong, Kec. Jeumpa, Kabupaten Bireuen, Aceh 24251";"Geulumpang Payong, Kec. Jeumpa, Kabupaten Bireuen";"ACEH";"24251";"Indonesia";"";"5.2139681";"96.6736002";"https://maps.google.com/?cid=0x0:0xe815905584c7f4df"
"perumahan";"Perhimpunan Pengembang Perumahan";"Saiful s";"5MM6+688, Blang Gandai, Kec. Jeumpa, Kabupaten Bireuen, Aceh 24251";"Blang Gandai, Kec. Jeumpa, Kabupaten Bireuen";"ACEH";"24251";"Indonesia";"";"5.1830427";"96.6608375";"https://maps.google.com/?cid=0x0:0xedb2d8b68a24709d"
"perumahan";"Pembangunan Perumahan";"Salah sirong jaya";"3MG5+J33, Salah Sirong Jaya, Kec. Jeumpa, Kabupaten Bireuen, Aceh 24251";"Salah Sirong Jaya, Kec. Jeumpa, Kabupaten Bireuen";"ACEH";"24251";"Indonesia";"";"5.0765005";"96.6576582";"https://maps.google.com/?cid=0x0:0x91a27ff154866032"
"perumahan";"Pembangunan Perumahan";"Rumah orang tua";"3MG5+J3, Salah Sirong Jaya, Kec. Jeumpa, Kabupaten Bireuen, Aceh";"Kabupaten Bireuen, Aceh";"ACEH";"";"Indonesia";"";"5.0765119";"96.6576753";"https://maps.google.com/?cid=0x0:0x2a34892f60bf7fe8"
"perumahan";"Komplek perumahan";"Rumah Safira";"6M2M+R6V, Cot Keutapang, Kec. Jeumpa, Kabupaten Bireuen, Aceh 24251";"Cot Keutapang, Kec. Jeumpa, Kabupaten Bireuen";"ACEH";"24251";"Indonesia";"";"5.2017954";"96.6826943";"https://maps.google.com/?cid=0x0:0x458e52a704d87a5e"
"perumahan";"Komplek perumahan";"Rumah";"5M2W+5GH, Batee Raya, Kec. Juli, Kabupaten Bireuen, Aceh";"Kabupaten Bireuen, Aceh";"ACEH";"";"Indonesia";"";"5.1504455";"96.6963466";"https://maps.google.com/?cid=0x0:0x2d46e5625e5bac85"
"perumahan";"Komplek perumahan";"Rumah bang JAMAL";"4M7Q+V3J, Teupin Manee, Kec. Juli, Kabupaten Bireuen, Aceh";"Kabupaten Bireuen, Aceh";"ACEH";"";"Indonesia";"";"5.1147132";"96.6876423";"https://maps.google.com/?cid=0x0:0xc2930cf29a5fe0d4"
"perumahan";"Perumahan";"BLOK E KOMPLEK GRAND LIPAH";"6M7G+4JV, Lipah Rayeuk, Kec. Jeumpa, Kabupaten Bireuen, Aceh";"Kabupaten Bireuen, Aceh";"ACEH";"";"Indonesia";"";"5.2128384";"96.6765501";"https://maps.google.com/?cid=0x0:0xf54f75b256347c5"
"perumahan";"Komplek perumahan";"Rumah Reza Alzikri";"6M3J+J4P, Cot Keutapang, Kec. Jeumpa, Kabupaten Bireuen, Aceh";"Kabupaten Bireuen, Aceh";"ACEH";"";"Indonesia";"";"5.2038001";"96.680982";"https://maps.google.com/?cid=0x0:0x2492314df0ea0f07"
"perumahan";"Komplek perumahan";"Rumah miftahul jannah re";"5PH3+V3M, Juli Meunasah Tambo, Kec. Juli, Kabupaten Bireuen, Aceh 24261";"Juli Meunasah Tambo, Kec. Juli, Kabupaten Bireuen";"ACEH";"24261";"Indonesia";"";"5.1797192";"96.702661";"https://maps.google.com/?cid=0x0:0x79fe09882d3fa124"
"perumahan";"Komplek perumahan";"Perumahan hj.Fatimah";"6J3Q+XF7, Teupok Baroh, Kec. Jeumpa, Kabupaten Bireuen, Aceh";"Kabupaten Bireuen, Aceh";"ACEH";"";"Indonesia";"";"5.2049217";"96.6386812";"https://maps.google.com/?cid=0x0:0xb18283bb7d2db748"
"perumahan";"perumahan";"Rumah BgLahCobra";"6M85+XCV, Mon Jambee, Kec. Jeumpa, Kabupaten Bireuen, Aceh";"Kabupaten Bireuen, Aceh";"ACEH";"";"Indonesia";"";"5.2174896";"96.6585547";"https://maps.google.com/?cid=0x0:0x27ae40640da63caa"
"perumahan";"Komplek perumahan";"Rumah tgk.Yusri";"5JGV+H7M, Mon Mane, Kec. Jeumpa, Kabupaten Bireuen, Aceh 24251";"Mon Mane, Kec. Jeumpa, Kabupaten Bireuen";"ACEH";"24251";"Indonesia";"";"5.176393";"96.643521";"https://maps.google.com/?cid=0x0:0xcf23933b00fb380f"
"perumahan";"perumahan";"Kec. Lembah Sabil";"Kabupaten Aceh Barat Daya, Aceh";"Kabupaten Aceh Barat Daya, Aceh";"ACEH";"";"Indonesia";"";"3.589112";"96.9343064";"https://maps.google.com/?cid=0x0:0x47f212bb54114078"
"perumahan";"Pembangunan Perumahan";"Perumahan 30 Tokoh ll";"JW3H+532, Tokoh II, Kec. Lembah Sabil, Kabupaten Aceh Barat Daya, Aceh 23762";"Tokoh II, Kec. Lembah Sabil, Kabupaten Aceh Barat Daya";"ACEH";"23762";"Indonesia";"";"3.6028923";"96.9276345";"https://maps.google.com/?cid=0x0:0xab6ba5a6df8d7649"
"perumahan";"Bantuan Rumah";"TOKOH II";"JW3M+M59, Tokoh II, Kec. Lembah Sabil, Kabupaten Aceh Barat Daya, Aceh 23762";"Tokoh II, Kec. Lembah Sabil, Kabupaten Aceh Barat Daya";"ACEH";"23762";"Indonesia";"";"3.6041693";"96.93299";"https://maps.google.com/?cid=0x0:0x810cad24848fee31"
"perumahan";"Perumahan";"Rumah Ibu Nilawati atau Tgl Alm Rasyidin";"JW6W+2C7, Cot Bak-U, Kec. Lembah Sabil, Kabupaten Aceh Barat Daya, Aceh 23762";"Cot Bak-U, Kec. Lembah Sabil, Kabupaten Aceh Barat Daya";"ACEH";"23762";"Indonesia";" 085235420346";"3.6099416";"96.9461127";"https://maps.google.com/?cid=0x0:0x9f6453e224113876"
"perumahan";"Pembangunan Perumahan";"Perumahan Tokoh II";"JW3H+54G, Tokoh II, Kec. Lembah Sabil, Kabupaten Aceh Barat Daya, Aceh 23762";"Tokoh II, Kec. Lembah Sabil, Kabupaten Aceh Barat Daya";"ACEH";"23762";"Indonesia";"";"3.602935";"96.9278247";"https://maps.google.com/?cid=0x0:0x9b5a0b232a90b2fb"
"perumahan";"Perhimpunan Pengembang Perumahan";"Perumahan Gampoeng Blang";"HWRM+2V2, Ladang Tuha I, Kec. Lembah Sabil, Kabupaten Aceh Barat Daya, Aceh";"Kabupaten Aceh Barat Daya, Aceh";"ACEH";"";"Indonesia";"";"3.5900246";"96.9346327";"https://maps.google.com/?cid=0x0:0x686754604624ed01"
"perumahan";"Toko Herbal";"Kikie_Nadia";"JW2W+H3, Meunasah Tengah, Kec. Lembah Sabil, Kabupaten Aceh Barat Daya, Aceh 23762";"Meunasah Tengah, Kec. Lembah Sabil, Kabupaten Aceh Barat Daya";"ACEH";"23762";"Indonesia";"";"3.601407";"96.9452141";"https://maps.google.com/?cid=0x0:0x8d61d619b5718ef9"
"perumahan";"Pembangunan Perumahan";"Perumahan Tsunami Suak Udeung";"HWX7+5HP, Alue Rambot, Kec. Lembah Sabil, Kabupaten Aceh Barat Daya, Aceh 23762";"Alue Rambot, Kec. Lembah Sabil, Kabupaten Aceh Barat Daya";"ACEH";"23762";"Indonesia";"";"3.59796";"96.9139608";"https://maps.google.com/?cid=0x0:0xbf157d45cb83e4ca"
"perumahan";"Komplek perumahan";"Perumahan Rakyat Paya Itek";"JWCX+RCR, Suka Damai, Kec. Lembah Sabil, Kabupaten Aceh Barat Daya, Aceh 23762";"Suka Damai, Kec. Lembah Sabil, Kabupaten Aceh Barat Daya";"ACEH";"23762";"Indonesia";"";"3.6221072";"96.9485005";"https://maps.google.com/?cid=0x0:0x946376e934cd8466"
"perumahan";"Komplek perumahan";"Rumah Deddy Handrian";"JX33+379, Meunasah Sukon, Kec. Lembah Sabil, Kabupaten Aceh Barat Daya, Aceh 23762";"Meunasah Sukon, Kec. Lembah Sabil, Kabupaten Aceh Barat Daya";"ACEH";"23762";"Indonesia";"";"3.6026722";"96.9532262";"https://maps.google.com/?cid=0x0:0x98b8bd2d213107a1"
"perumahan";"Perhimpunan Pengembang Perumahan";"Keluarga besar Aman family";"JW5X+45G, Cot Bak-U, Kec. Lembah Sabil, Kabupaten Aceh Barat Daya, Aceh 23762";"Cot Bak-U, Kec. Lembah Sabil, Kabupaten Aceh Barat Daya";"ACEH";"23762";"Indonesia";"";"3.6077593";"96.9479533";"https://maps.google.com/?cid=0x0:0x37fd7bd410365a9"
"perumahan";"Pembangunan Perumahan";"Lembah Permai Residence";"JX52+R3W, Jl. Guru Chibeeh, Cot Bak-U, Kec. Lembah Sabil, Kabupaten Aceh Barat Daya, Aceh 23762";"Jl. Guru Chibeeh, Cot Bak-U, Kec. Lembah Sabil, Kabupaten Aceh Barat Daya";"ACEH";"23762";"Indonesia";"";"3.6095377";"96.9503013";"https://maps.google.com/?cid=0x0:0xee8fd4934ed41e5f"
"perumahan";"Sekolah";"meurandeh";"JW8R+V9C, Jl. Jirat Panyang, Meurandeh, Kec. Lembah Sabil, Kabupaten Aceh Barat Daya, Aceh 23762";"Jl. Jirat Panyang, Meurandeh, Kec. Lembah Sabil, Kabupaten Aceh Barat Daya";"ACEH";"23762";"Indonesia";"";"3.6171986";"96.9408898";"https://maps.google.com/?cid=0x0:0xab3964b0f23fdc18"
"perumahan";"Toko Perlengkapan Rumah";"Rida olshop";"JX76+FP2, Meunasah Sukon, Kec. Lembah Sabil, Kabupaten Aceh Barat Daya, Aceh 23762";"Meunasah Sukon, Kec. Lembah Sabil, Kabupaten Aceh Barat Daya";"ACEH";"23762";"Indonesia";"";"3.6136919";"96.9618627";"https://maps.google.com/?cid=0x0:0x6347fe238560076"
"housing complex";"housing complex";"Aceh 23764";"Kabupaten Aceh Barat Daya, Aceh";"Kabupaten Aceh Barat Daya, Aceh";"ACEH";"";"Indonesia";"";"3.8585335";"96.8136642";"https://maps.google.com/?cid=0x0:0xffecff8e1cb94052"
"housing complex";"Pembangunan Perumahan";"Tanah Sawah M. Nasir G";"PRXG+VFC, Lhung Asan, Kecamaten Blang Pidie, Kabupaten Aceh Barat Daya, Aceh 23763";"Lhung Asan, Kecamaten Blang Pidie, Kabupaten Aceh Barat Daya";"ACEH";"23763";"Indonesia";"";"3.7496974";"96.8261532";"https://maps.google.com/?cid=0x0:0x982a4c8de9fe9a81"
"housing complex";"Komplek perumahan";"KOMPLEK RUSLAN JOHN";"PRRR+9M2, Geulumpang Payong, Kecamaten Blang Pidie, Kabupaten Aceh Barat Daya, Aceh 23763";"Geulumpang Payong, Kecamaten Blang Pidie, Kabupaten Aceh Barat Daya";"ACEH";"23763";"Indonesia";"";"3.7409292";"96.8414027";"https://maps.google.com/?cid=0x0:0x865521f5228c5cd1"
"housing complex";"Praktisi perawat";"Komplek Sigupai";"PRPR+X3R, Unnamed Road, Geulumpang Payong, Kecamaten Blang Pidie, Kabupaten Aceh Barat Daya, Aceh 23764";"Unnamed Road, Geulumpang Payong, Kecamaten Blang Pidie, Kabupaten Aceh Barat Daya";"ACEH";"23764";"Indonesia";"";"3.7374835";"96.8401393";"https://maps.google.com/?cid=0x0:0x753f385c6aeea2d0"
"housing complex";"Komplek perumahan";"Rumah ERINUR Spd.";"QRM3+PMX, Alue Rambot, Kec. Jeumpa, Kabupaten Aceh Barat Daya, Aceh";"Kabupaten Aceh Barat Daya, Aceh";"ACEH";"";"Indonesia";"";"3.7842746";"96.8044873";"https://maps.google.com/?cid=0x0:0xdd475da54e39d4a7"
"housing complex";"Gudang";"Gudang tungku batu bara";"PRVM+732, Kedai Siblah, Kecamaten Blang Pidie, Kabupaten Aceh Barat Daya, Aceh";"Kabupaten Aceh Barat Daya, Aceh";"ACEH";"";"Indonesia";"";"3.7431465";"96.8326488";"https://maps.google.com/?cid=0x0:0xdb0551b18b62e51e"
"housing complex";"Komplek perumahan";"Rumah Ucha";"PRWG+CW3, Lhung Asan, Kecamaten Blang Pidie, Kabupaten Aceh Barat Daya, Aceh 23763";"Lhung Asan, Kecamaten Blang Pidie, Kabupaten Aceh Barat Daya";"ACEH";"23763";"Indonesia";"";"3.7460072";"96.8272908";"https://maps.google.com/?cid=0x0:0x3d55fc4141af5cfc"
"housing complex";"Komplek perumahan";"BARATA";"RQ54+76M, Blang Makmur, Kec. Kuala Batee, Kabupaten Aceh Barat Daya, Aceh";"Kabupaten Aceh Barat Daya, Aceh";"ACEH";"";"Indonesia";"";"3.8083051";"96.756";"https://maps.google.com/?cid=0x0:0xee53eb9a15e38aab"
"housing complex";"Komplek perumahan";"Perumahan";"PRPJ+7G2, Jl. Persada, Kedai Siblah, Kecamaten Blang Pidie, Kabupaten Aceh Barat Daya, Aceh 23763";"Jl. Persada, Kedai Siblah, Kecamaten Blang Pidie, Kabupaten Aceh Barat Daya";"ACEH";"23763";"Indonesia";" 085260000443";"3.7352026";"96.8315908";"https://maps.google.com/?cid=0x0:0xcbc3a7fa06f9a787"
"housing complex";"Komplek perumahan";"Komplek Perumahan Pulau Teuku";"PRRV+6GP, Mata Ie, Kecamaten Blang Pidie, Kabupaten Aceh Barat Daya, Aceh 23763";"Mata Ie, Kecamaten Blang Pidie, Kabupaten Aceh Barat Daya";"ACEH";"23763";"Indonesia";"";"3.740582";"96.8438294";"https://maps.google.com/?cid=0x0:0x12776d4d398a181e"
"housing complex";"Pembangunan Perumahan";"Doorsmeer 241D";"RQC6+PCV, Dusun Padang harapan, rumoh panyang, Kec. Kuala Batee, Kabupaten Aceh Barat Daya, Aceh";"Kabupaten Aceh Barat Daya, Aceh";"ACEH";"";"Indonesia";"";"3.8218685";"96.7610323";"https://maps.google.com/?cid=0x0:0x4b028201313134fd"
"housing complex";"Komplek perumahan";"RUMAH DAULAYY";"QRHC+G6Q, Sejahtera desa, Alue Seulaseh, Kec. Jeumpa, Kabupaten Aceh Barat Daya, Aceh";"Kabupaten Aceh Barat Daya, Aceh";"ACEH";"";"Indonesia";"";"3.7788275";"96.8206081";"https://maps.google.com/?cid=0x0:0xa1e5b90baa2c9f53"
"housing complex";"housing complex";"Grand Leuser Hotel";"PRRM+C47, Meudang Ara, Kecamaten Blang Pidie, Kabupaten Aceh Barat Daya, Aceh 23763";"Meudang Ara, Kecamaten Blang Pidie, Kabupaten Aceh Barat Daya";"ACEH";"23763";"Indonesia";" 065993009";"3.7410335";"96.8327879";"https://maps.google.com/?cid=0x0:0xd551b3628cadc5d6"
"housing complex";"Tujuan Wisata";"Pantai ujung serangga";"PR86+787, desa, Pawoh, Susoh, Kabupaten Aceh Barat Daya, Aceh";"Kabupaten Aceh Barat Daya, Aceh";"ACEH";"";"Indonesia";"";"3.7156625";"96.8107969";"https://maps.google.com/?cid=0x0:0xe607ec4963b6795"
"housing complex";"Komplek perumahan";"Kedai Desa Tangan-tangan Cut";"MVQQ+4QC, Tangan Tangan Cut, Kec. Setia, Kabupaten Aceh Barat Daya, Aceh 23762";"Tangan Tangan Cut, Kec. Setia, Kabupaten Aceh Barat Daya";"ACEH";"23762";"Indonesia";"";"3.6878088";"96.8894021";"https://maps.google.com/?cid=0x0:0x58a7262197f385fc"
"housing complex";"Toko";"Tangan tangan cut";"MVQQ+Q62, Tangan Tangan Cut, Kec. Setia, Kabupaten Aceh Barat Daya, Aceh";"Kabupaten Aceh Barat Daya, Aceh";"ACEH";"";"Indonesia";"";"3.6893764";"96.8880157";"https://maps.google.com/?cid=0x0:0xe25d192a656a409a"
"housing complex";"Minimarket";"Toko zakir";"MVQP+GCV, Tangan Tangan Cut, Kec. Setia, Kabupaten Aceh Barat Daya, Aceh";"Kabupaten Aceh Barat Daya, Aceh";"ACEH";"";"Indonesia";" 087866058733";"3.6888591";"96.8860381";"https://maps.google.com/?cid=0x0:0x2d3f43fd00df4ece"
"housing complex";"Pemakaman";"Gunong cut";"MW67+VMG, Gn. Cut, Kec. Tangan-Tangan, Kabupaten Aceh Barat Daya, Aceh 23763";"Gn. Cut, Kec. Tangan-Tangan, Kabupaten Aceh Barat Daya";"ACEH";"23763";"Indonesia";"";"3.6621939";"96.9142052";"https://maps.google.com/?cid=0x0:0x610929cf48f42928"
"housing complex";"housing complex";"Rumah mamak kangyusss";"PRHH+8PV, Padang Hilir, Susoh, Kabupaten Aceh Barat Daya, Aceh 23763";"Padang Hilir, Susoh, Kabupaten Aceh Barat Daya";"ACEH";"23763";"Indonesia";"";"3.7281545";"96.829447";"https://maps.google.com/?cid=0x0:0x7b597fa20a35a06"
"housing complex";"Komplek perumahan";"PERUM PAK NAFIS";"MVVH+RJQ, Unnamed Road, Tangan Tangan Cut, Kec. Setia, Kabupaten Aceh Barat Daya, Aceh 23763";"Unnamed Road, Tangan Tangan Cut, Kec. Setia, Kabupaten Aceh Barat Daya";"ACEH";"23763";"Indonesia";"";"3.69459";"96.87912";"https://maps.google.com/?cid=0x0:0xf5a898e7286b5497"
"housing complex";"Komplek perumahan";"Ruko Murhanisah";"PV4F+V2J, Jl. Iskandar Muda, Rambong, Kec. Setia, Kabupaten Aceh Barat Daya, Aceh 23763";"Jl. Iskandar Muda, Rambong, Kec. Setia, Kabupaten Aceh Barat Daya";"ACEH";"23763";"Indonesia";"";"3.707392";"96.8726748";"https://maps.google.com/?cid=0x0:0xc3647bf0286b5bce"
"housing complex";"Komplek perumahan";"Dk";"PRC9+HC, Pinang, Susoh, Kabupaten Aceh Barat Daya, Aceh 23763";"Pinang, Susoh, Kabupaten Aceh Barat Daya";"ACEH";"23763";"Indonesia";"";"3.7214508";"96.8185022";"https://maps.google.com/?cid=0x0:0xa3f57d9a667d13bd"
"housing complex";"Pembangunan Perumahan";"TARZANI LAMKUTA";"PVH6+764, Lamkuta, Kecamaten Blang Pidie, Kabupaten Aceh Barat Daya, Aceh 23763";"Lamkuta, Kecamaten Blang Pidie, Kabupaten Aceh Barat Daya";"ACEH";"23763";"Indonesia";"";"3.7281261";"96.8605641";"https://maps.google.com/?cid=0x0:0xbb9774ca8ad3e1b7"
"housing complex";"Pembangunan Perumahan";"Pawang walet muda";"MVXG+J43, Lhang, Kec. Setia, Kabupaten Aceh Barat Daya, Aceh 23763";"Lhang, Kec. Setia, Kabupaten Aceh Barat Daya";"ACEH";"23763";"Indonesia";"";"3.6990762";"96.8745929";"https://maps.google.com/?cid=0x0:0x9233740c0fa36bb8"
"housing complex";"Pembangunan Perumahan";"Rumoeh Abu di gampông Adan";"MW4C+434, Adan, Kec. Tangan-Tangan, Kabupaten Aceh Barat Daya, Aceh 23763";"Adan, Kec. Tangan-Tangan, Kabupaten Aceh Barat Daya";"ACEH";"23763";"Indonesia";"";"3.6551337";"96.9201666";"https://maps.google.com/?cid=0x0:0x419134b2bd979d5c"
"housing complex";"Pembangunan Perumahan";"Tanah Sawah M. Nasir G";"PRXG+VFC, Lhung Asan, Kecamaten Blang Pidie, Kabupaten Aceh Barat Daya, Aceh 23763";"Lhung Asan, Kecamaten Blang Pidie, Kabupaten Aceh Barat Daya";"ACEH";"23763";"Indonesia";"";"3.7496974";"96.8261532";"https://maps.google.com/?cid=0x0:0x982a4c8de9fe9a81"
"housing complex";"housing complex";"Manggeng";"Blang Manggeng, Kec. Manggeng, Kabupaten Aceh Barat Daya, Aceh";"Kabupaten Aceh Barat Daya, Aceh";"ACEH";"";"Indonesia";"";"3.60821";"96.9188";"https://maps.google.com/?cid=0x0:0x4039d80b220dbb0"
"housing complex";"Perumahan";"The Yarma's";"JW9M+974, Paya, Kec. Manggeng, Kabupaten Aceh Barat Daya, Aceh 23762";"Paya, Kec. Manggeng, Kabupaten Aceh Barat Daya";"ACEH";"23762";"Indonesia";"";"3.6184296";"96.9331883";"https://maps.google.com/?cid=0x0:0x48f0db89208cff45"
"housing complex";"Tempat Ibadah";"Pusu ingin jaya.manggeng.ABDYA";"JWPJ+RV6, Alue pineng, Kec. Manggeng, Kabupaten Aceh Barat Daya, Aceh 23762";"Alue pineng, Kec. Manggeng, Kabupaten Aceh Barat Daya";"ACEH";"23762";"Indonesia";"";"3.637046";"96.9321313";"https://maps.google.com/?cid=0x0:0x20da7f02d660e49e"
"housing complex";"Gudang";"Cv bngmuu";"JW89+Q8P, Pante Raja, Kec. Manggeng, Kabupaten Aceh Barat Daya, Aceh 23762";"Pante Raja, Kec. Manggeng, Kabupaten Aceh Barat Daya";"ACEH";"23762";"Indonesia";"";"3.6164394";"96.9183551";"https://maps.google.com/?cid=0x0:0xede4f200b4d4ad56"
"housing complex";"Perumahan";"Rumah Nek Gam";"JW4H+JX9, Tokoh, Kec. Manggeng, Kabupaten Aceh Barat Daya, Aceh 23762";"Tokoh, Kec. Manggeng, Kabupaten Aceh Barat Daya";"ACEH";"23762";"Indonesia";"";"3.6065383";"96.9299731";"https://maps.google.com/?cid=0x0:0x10db602598a8ba51"
"housing complex";"Perumahan";"Desa kedai manggeng";"JW6M+JG4, Kedai, Kec. Manggeng, Kabupaten Aceh Barat Daya, Aceh 23762";"Kedai, Kec. Manggeng, Kabupaten Aceh Barat Daya";"ACEH";"23762";"Indonesia";"";"3.6115193";"96.9338188";"https://maps.google.com/?cid=0x0:0xf71ede59aae3c43c"
"housing complex";"Komplek perumahan";"Andisalac";"JWF6+VR8, Jl. Tgk. Abubakar, Pante Raja, Kec. Manggeng, Kabupaten Aceh Barat Daya, Aceh 23762";"Jl. Tgk. Abubakar, Pante Raja, Kec. Manggeng, Kabupaten Aceh Barat Daya";"ACEH";"23762";"Indonesia";"";"3.6243813";"96.9131718";"https://maps.google.com/?cid=0x0:0xfdab6c90d86802c4"
"housing complex";"Komplek perumahan";"Rumah.safrizal.bin.tenku.zaini.bin.m.nurdin";"JWF3+8W5, Pantee Cermin, Kec. Manggeng, Kabupaten Aceh Barat Daya, Aceh";"Kabupaten Aceh Barat Daya, Aceh";"ACEH";"";"Indonesia";"";"3.624092";"96.904412";"https://maps.google.com/?cid=0x0:0x3f662a54c40f6dd0"
"housing complex";"Perumahan";"Rumah siska";"JWH5+WM6, Pante Pirak, Kec. Manggeng, Kabupaten Aceh Barat Daya, Aceh 23762";"Pante Pirak, Kec. Manggeng, Kabupaten Aceh Barat Daya";"ACEH";"23762";"Indonesia";"";"3.6297843";"96.9091022";"https://maps.google.com/?cid=0x0:0xe403eed1743b1be1"
"housing complex";"Perumahan";"Rumah 2R";"JW8P+4FC, Jl. At-Taqwa, Kedai, Kec. Manggeng, Kabupaten Aceh Barat Daya, Aceh 23762";"Jl. At-Taqwa, Kedai, Kec. Manggeng, Kabupaten Aceh Barat Daya";"ACEH";"23762";"Indonesia";"";"3.6153005";"96.9361495";"https://maps.google.com/?cid=0x0:0x333ba5dbbf157d86"
"housing complex";"Komplek perumahan";"ladanf panah. kec manggeng kabupaten aceh barat daya";"JWFH+5M4, Ujung Padang, Kec. Manggeng, Kabupaten Aceh Barat Daya, Aceh 23762";"Ujung Padang, Kec. Manggeng, Kabupaten Aceh Barat Daya";"ACEH";"23762";"Indonesia";"";"3.6228878";"96.9291947";"https://maps.google.com/?cid=0x0:0xe5b3263f5c99537e"
"housing complex";"housing complex";"R.Iqbal ( B.Eliana)";"HWRJ+F2R, Ladang Tuha I, Kec. Lembah Sabil, Kabupaten Aceh Barat Daya, Aceh 23762";"Ladang Tuha I, Kec. Lembah Sabil, Kabupaten Aceh Barat Daya";"ACEH";"23762";"Indonesia";"";"3.591232";"96.9300194";"https://maps.google.com/?cid=0x0:0xbc04e185d604abe1"
"housing complex";"Perumahan";"Rumah andi";"JWM6+3CP, Panton Makmur, Kec. Manggeng, Kabupaten Aceh Barat Daya, Aceh 23762";"Panton Makmur, Kec. Manggeng, Kabupaten Aceh Barat Daya";"ACEH";"23762";"Indonesia";"";"3.6327083";"96.9110739";"https://maps.google.com/?cid=0x0:0xb39b2129a82db520"
"housing complex";"Pembangunan Perumahan";"Indigo";"JWCJ+P36, Ujung Padang, Kec. Manggeng, Kabupaten Aceh Barat Daya, Aceh 23762";"Ujung Padang, Kec. Manggeng, Kabupaten Aceh Barat Daya";"ACEH";"23762";"Indonesia";"";"3.622275";"96.928936";"https://maps.google.com/?cid=0x0:0x986d682f10a5d2aa"
"housing complex";"housing complex";"Susoh";"Padang Baru, Susoh, Kabupaten Aceh Barat Daya, Aceh";"Kabupaten Aceh Barat Daya, Aceh";"ACEH";"";"Indonesia";"";"3.728577";"96.812576";"https://maps.google.com/?cid=0x0:0x4039d80b220d460"
"housing complex";"Komplek perumahan";"Suhelmi House";"PRH7+WP, Pawoh, Susoh, Kabupaten Aceh Barat Daya, Aceh 23765";"Pawoh, Susoh, Kabupaten Aceh Barat Daya";"ACEH";"23765";"Indonesia";"";"3.7297694";"96.8143319";"https://maps.google.com/?cid=0x0:0xe559bd7b3ff3ecdf"
"housing complex";"Pembangunan Perumahan";"Pawoh";"PRJ8+C22, Pawoh, Susoh, Kabupaten Aceh Barat Daya, Aceh";"Kabupaten Aceh Barat Daya, Aceh";"ACEH";"";"Indonesia";"";"3.7310025";"96.8150037";"https://maps.google.com/?cid=0x0:0xdab314a4376ce19b"
"housing complex";"Komplek perumahan";"Dk";"PRC9+HC, Pinang, Susoh, Kabupaten Aceh Barat Daya, Aceh 23763";"Pinang, Susoh, Kabupaten Aceh Barat Daya";"ACEH";"23763";"Indonesia";"";"3.7214508";"96.8185022";"https://maps.google.com/?cid=0x0:0xa3f57d9a667d13bd"
"housing complex";"housing complex";"Rumah mamak kangyusss";"PRHH+8PV, Padang Hilir, Susoh, Kabupaten Aceh Barat Daya, Aceh 23763";"Padang Hilir, Susoh, Kabupaten Aceh Barat Daya";"ACEH";"23763";"Indonesia";"";"3.7281545";"96.829447";"https://maps.google.com/?cid=0x0:0x7b597fa20a35a06"
"housing complex";"Rumah Kayu";"Rumah Nurul dolah";"PRF6+789, Padang Baru, Susoh, Kabupaten Aceh Barat Daya, Aceh 23765";"Padang Baru, Susoh, Kabupaten Aceh Barat Daya";"ACEH";"23765";"Indonesia";"";"3.7231159";"96.8108199";"https://maps.google.com/?cid=0x0:0x5ea7ff855ce1a603"
"housing complex";"Komplek perumahan";"Rumah alhas";"PR8F+5PP, Jl. Pinggir Pantai, Kedai Palak Kerambil, Susoh, Kabupaten Aceh Barat Daya, Aceh 23763";"Jl. Pinggir Pantai, Kedai Palak Kerambil, Susoh, Kabupaten Aceh Barat Daya";"ACEH";"23763";"Indonesia";"";"3.7153393";"96.8243315";"https://maps.google.com/?cid=0x0:0x6b598b993f0fe4fb"
"housing complex";"Komplek perumahan";"Rumah Dinas Bea dan Cukai Meulaboh";"PQJX+4GV, Pulau Kayu, Susoh, Kabupaten Aceh Barat Daya, Aceh 23765";"Pulau Kayu, Susoh, Kabupaten Aceh Barat Daya";"ACEH";"23765";"Indonesia";"";"3.7303746";"96.7987958";"https://maps.google.com/?cid=0x0:0x806165b76756d76f"
"housing complex";"Perhimpunan Pengembang Perumahan";"PALAK HILIR";"PRCC+VC2, Palak Hilir, Susoh, Kabupaten Aceh Barat Daya, Aceh 23763";"Palak Hilir, Susoh, Kabupaten Aceh Barat Daya";"ACEH";"23763";"Indonesia";"";"3.7221335";"96.8210111";"https://maps.google.com/?cid=0x0:0x963695b5e33aff7b"
"housing complex";"Komplek perumahan";"Kepala bandar";"PRPM+29J, Dusun 1, Kepala Bandar, Susoh, Kabupaten Aceh Barat Daya, Aceh 23763";"Dusun 1, Kepala Bandar, Susoh, Kabupaten Aceh Barat Daya";"ACEH";"23763";"Indonesia";"";"3.7350879";"96.8333826";"https://maps.google.com/?cid=0x0:0x9f40fdf547d4224a"
"housing complex";"Perhimpunan Pengembang Perumahan";"Aspol pulau kayu";"PQJX+3QJ, Pulau Kayu, Susoh, Kabupaten Aceh Barat Daya, Aceh 23765";"Pulau Kayu, Susoh, Kabupaten Aceh Barat Daya";"ACEH";"23765";"Indonesia";" 085358715779";"3.7302232";"96.7993814";"https://maps.google.com/?cid=0x0:0xf09f2639ce9a88d"
"housing complex";"Komplek perumahan";"Arkan";"PRF9+4QG, Baharu, Susoh, Kabupaten Aceh Barat Daya, Aceh 23763";"Baharu, Susoh, Kabupaten Aceh Barat Daya";"ACEH";"23763";"Indonesia";"";"3.7228165";"96.8194385";"https://maps.google.com/?cid=0x0:0xd24f7b23c0d8d35a"
"housing complex";"Komplek perumahan";"RUMAH BAGUS-BAGAS";"PRG8+J9G, Pawoh, Susoh, Kabupaten Aceh Barat Daya, Aceh 23763";"Pawoh, Susoh, Kabupaten Aceh Barat Daya";"ACEH";"23763";"Indonesia";"";"3.726553";"96.8159601";"https://maps.google.com/?cid=0x0:0xd41a4921439980fd"
"housing complex";"Pembangunan Perumahan";"SHM AN GUSNIDAR";"PRF8+QP6, Pawoh, Susoh, Kabupaten Aceh Barat Daya, Aceh 23763";"Pawoh, Susoh, Kabupaten Aceh Barat Daya";"ACEH";"23763";"Indonesia";"";"3.7247699";"96.8163351";"https://maps.google.com/?cid=0x0:0xa040d5a28087486c"
"housing complex";"housing complex";"Aceh 23766";"Kec. Babah Rot, Kabupaten Aceh Barat Daya, Aceh";"Kabupaten Aceh Barat Daya, Aceh";"ACEH";"";"Indonesia";"";"3.9000346";"96.6851982";"https://maps.google.com/?cid=0x0:0x4d19ceb29190eb17"
"housing complex";"Komplek perumahan";"BARATA";"RQ54+76M, Blang Makmur, Kec. Kuala Batee, Kabupaten Aceh Barat Daya, Aceh";"Kabupaten Aceh Barat Daya, Aceh";"ACEH";"";"Indonesia";"";"3.8083051";"96.756";"https://maps.google.com/?cid=0x0:0xee53eb9a15e38aab"
"housing complex";"Komplek perumahan";"Rumah wali";"RQH7+H6G, Kota Bahagia, Kec. Kuala Batee, Kabupaten Aceh Barat Daya, Aceh 23764";"Kota Bahagia, Kec. Kuala Batee, Kabupaten Aceh Barat Daya";"ACEH";"23764";"Indonesia";"";"3.8296762";"96.7638348";"https://maps.google.com/?cid=0x0:0x3b1cd2f162fdc06f"
"housing complex";"Komplek perumahan";"Iqbal";"RQC4+6GR, Ps. Kuta Bahagia, Kec. Kuala Batee, Kabupaten Aceh Barat Daya, Aceh 23764";"Ps. Kuta Bahagia, Kec. Kuala Batee, Kabupaten Aceh Barat Daya";"ACEH";"23764";"Indonesia";"";"3.8206329";"96.755646";"https://maps.google.com/?cid=0x0:0x682b9c528e51f820"
"housing complex";"Komplek perumahan";"Rumah HABIBI";"QQRR+P4C, Jl. Lintas Barat Sumatera, Krueng Batee, Kec. Kuala Batee, Kabupaten Aceh Barat Daya, Aceh 23765";"Jl. Lintas Barat Sumatera, Krueng Batee, Kec. Kuala Batee, Kabupaten Aceh Barat Daya";"ACEH";"23765";"Indonesia";"";"3.7928148";"96.7909971";"https://maps.google.com/?cid=0x0:0x5079d3ec02a28d2"
"housing complex";"Komplek perumahan";"Dusun darul adil";"RQ22+9R4 Lama inong, Blang Makmur, Kec. Kuala Batee, Kabupaten Aceh Barat Daya, Aceh";"Kabupaten Aceh Barat Daya, Aceh";"ACEH";"";"Indonesia";"";"3.8008995";"96.7520757";"https://maps.google.com/?cid=0x0:0xdc08252d11831f1a"
"housing complex";"Pembangunan Perumahan";"Doorsmeer 241D";"RQC6+PCV, Dusun Padang harapan, rumoh panyang, Kec. Kuala Batee, Kabupaten Aceh Barat Daya, Aceh";"Kabupaten Aceh Barat Daya, Aceh";"ACEH";"";"Indonesia";"";"3.8218685";"96.7610323";"https://maps.google.com/?cid=0x0:0x4b028201313134fd"
"housing complex";"Pusat Perbelanjaan";"Lama Inong Area";"RQC5+WGC, Ps. Kuta Bahagia, Kec. Kuala Batee, Kabupaten Aceh Barat Daya, Aceh 23764";"Ps. Kuta Bahagia, Kec. Kuala Batee, Kabupaten Aceh Barat Daya";"ACEH";"23764";"Indonesia";"";"3.8223203";"96.7587673";"https://maps.google.com/?cid=0x0:0xfc99e331331c508f"
"housing complex";"Komplek perumahan";"Rumah abdre";"QQPR+QF8, Krueng Batee, Kec. Kuala Batee, Kabupaten Aceh Barat Daya, Aceh 23765";"Krueng Batee, Kec. Kuala Batee, Kabupaten Aceh Barat Daya";"ACEH";"23765";"Indonesia";"";"3.7869594";"96.7912904";"https://maps.google.com/?cid=0x0:0x629fb16d4ff2090a"
"housing complex";"Komplek perumahan";"Rumah Samsul Bahri.B";"VP7H+HQ8, Blang Dalam, Kec. Babah Rot, Kabupaten Aceh Barat Daya, Aceh 24251";"Blang Dalam, Kec. Babah Rot, Kabupaten Aceh Barat Daya";"ACEH";"24251";"Indonesia";"";"3.8639088";"96.7294741";"https://maps.google.com/?cid=0x0:0x27444cf0842ca885"
"housing complex";"Komplek perumahan";"Komplek";"VM5V+7FR, Alue Jerjak, Kec. Babah Rot, Kabupaten Aceh Barat Daya, Aceh 23766";"Alue Jerjak, Kec. Babah Rot, Kabupaten Aceh Barat Daya";"ACEH";"23766";"Indonesia";"";"3.8582375";"96.6936406";"https://maps.google.com/?cid=0x0:0x2671f09b188dcc10"
"housing complex";"Komplek perumahan";"Era";"QQ78+558, Keudee Baro, Kec. Kuala Batee, Kabupaten Aceh Barat Daya, Aceh 23765";"Keudee Baro, Kec. Kuala Batee, Kabupaten Aceh Barat Daya";"ACEH";"23765";"Indonesia";"";"3.7629233";"96.7654595";"https://maps.google.com/?cid=0x0:0xc7dc41e3f9869746"
"housing complex";"Komplek perumahan";"Rumah Mitha";"RQ22+9R4, Jl. Darul Adil, Blang Makmur, Kec. Kuala Batee, Kabupaten Aceh Barat Daya, Aceh 23765";"Jl. Darul Adil, Blang Makmur, Kec. Kuala Batee, Kabupaten Aceh Barat Daya";"ACEH";"23765";"Indonesia";"";"3.8008995";"96.7520757";"https://maps.google.com/?cid=0x0:0x7147006726ea7779"
"housing complex";"Komplek perumahan";"rumah rahul";"RQG5+WF9, Ps. Kuta Bahagia, Kec. Kuala Batee, Kabupaten Aceh Barat Daya, Aceh 23764";"Ps. Kuta Bahagia, Kec. Kuala Batee, Kabupaten Aceh Barat Daya";"ACEH";"23764";"Indonesia";"";"3.8277781";"96.7593109";"https://maps.google.com/?cid=0x0:0x7f3b6a50af8a344d"
"housing complex";"housing complex";"Aceh 23767";"Kec. Babah Rot, Kabupaten Aceh Barat Daya, Aceh";"Kabupaten Aceh Barat Daya, Aceh";"ACEH";"";"Indonesia";"";"3.8500236";"96.6103778";"https://maps.google.com/?cid=0x0:0xdb51e75798ae0c5b"
"housing complex";"Kedai Kopi";"Rumah muhib";"WJWQ+JJH, Karya baru, Kec. Babah Rot, Kabupaten Aceh Barat Daya, Aceh";"Kabupaten Aceh Barat Daya, Aceh";"ACEH";"";"Indonesia";"";"3.946562";"96.6391173";"https://maps.google.com/?cid=0x0:0xa0af1bebcb4899b3"
"housing complex";"Rumah Kayu";"ZURAIDA";"XJ2W+3V, Gn. Samarinda, Kec. Babah Rot, Kabupaten Aceh Barat Daya, Aceh";"Kabupaten Aceh Barat Daya, Aceh";"ACEH";"";"Indonesia";"";"3.949397";"96.645131";"https://maps.google.com/?cid=0x0:0x20fbacd686448c92"
"housing complex";"Pembangunan Perumahan";"Suak Baung, Nagan Raya, Aceh";"VH4J+7CR, Krueng Seumayam, Kec. Darul Makmur, Kabupaten Nagan Raya, Aceh 23662";"Krueng Seumayam, Kec. Darul Makmur, Kabupaten Nagan Raya";"ACEH";"23662";"Indonesia";"";"3.8557446";"96.5810081";"https://maps.google.com/?cid=0x0:0xf460fd8899ae2733"
"housing complex";"Komplek perumahan";"Divisi VI Suak Baung";"QJW3+F32, Kuala Semanyam, Kec. Darul Makmur, Kabupaten Nagan Raya, Aceh 23767";"Kuala Semanyam, Kec. Darul Makmur, Kabupaten Nagan Raya";"ACEH";"23767";"Indonesia";"";"3.796125";"96.6026361";"https://maps.google.com/?cid=0x0:0x13b1d59357ec34db"
"housing complex";"Komplek perumahan";"Divisi VIII Suak Baung";"RH4H+G9V, Kuala Semanyam, Kec. Darul Makmur, Kabupaten Nagan Raya, Aceh 23662";"Kuala Semanyam, Kec. Darul Makmur, Kabupaten Nagan Raya";"ACEH";"23662";"Indonesia";"";"3.80636";"96.5784327";"https://maps.google.com/?cid=0x0:0x4a288147c527fe7e"
"housing complex";"housing complex";"Kec. Setia";"Kabupaten Aceh Barat Daya, Aceh";"Kabupaten Aceh Barat Daya, Aceh";"ACEH";"";"Indonesia";"";"3.7078495";"96.8719767";"https://maps.google.com/?cid=0x0:0x34a354e1c2218e5f"
"housing complex";"Kompleks Bangunan Perusahaan";"Komplek Perumahan Dhuafa";"PV25+7VG, Ujung Tanah, Kec. Setia, Kabupaten Aceh Barat Daya, Aceh 23763";"Ujung Tanah, Kec. Setia, Kabupaten Aceh Barat Daya";"ACEH";"23763";"Indonesia";"";"3.7007123";"96.8596479";"https://maps.google.com/?cid=0x0:0xd2de28ea93c6b1bc"
"housing complex";"Toko";"Tangan tangan cut";"MVQQ+Q62, Tangan Tangan Cut, Kec. Setia, Kabupaten Aceh Barat Daya, Aceh";"Kabupaten Aceh Barat Daya, Aceh";"ACEH";"";"Indonesia";"";"3.6893764";"96.8880157";"https://maps.google.com/?cid=0x0:0xe25d192a656a409a"
"housing complex";"Perhimpunan Pengembang Perumahan";"Gampong sapek kec.setia bekti aceh jàya";"PV5C+5Q3, Rambong, Kec. Setia, Kabupaten Aceh Barat Daya, Aceh";"Kabupaten Aceh Barat Daya, Aceh";"ACEH";"";"Indonesia";"";"3.7078914";"96.8719097";"https://maps.google.com/?cid=0x0:0xd774a6d3d80c2bd7"
"housing complex";"Komplek perumahan";"PERUM PAK NAFIS";"MVVH+RJQ, Unnamed Road, Tangan Tangan Cut, Kec. Setia, Kabupaten Aceh Barat Daya, Aceh 23763";"Unnamed Road, Tangan Tangan Cut, Kec. Setia, Kabupaten Aceh Barat Daya";"ACEH";"23763";"Indonesia";"";"3.69459";"96.87912";"https://maps.google.com/?cid=0x0:0xf5a898e7286b5497"
"housing complex";"Komplek perumahan";"Ruko Murhanisah";"PV4F+V2J, Jl. Iskandar Muda, Rambong, Kec. Setia, Kabupaten Aceh Barat Daya, Aceh 23763";"Jl. Iskandar Muda, Rambong, Kec. Setia, Kabupaten Aceh Barat Daya";"ACEH";"23763";"Indonesia";"";"3.707392";"96.8726748";"https://maps.google.com/?cid=0x0:0xc3647bf0286b5bce"
"housing complex";"housing complex";"Mutia";"PV25+7VG, Ujung Tanah, Kec. Setia, Kabupaten Aceh Barat Daya, Aceh 23763";"Ujung Tanah, Kec. Setia, Kabupaten Aceh Barat Daya";"ACEH";"23763";"Indonesia";"";"3.7007276";"96.8596948";"https://maps.google.com/?cid=0x0:0xcc7f11d4b1cab5a9"
"housing complex";"Kompleks Bangunan Perusahaan";"Cnzoo";"PV4C+GM4, Rambong, Kec. Setia, Kabupaten Aceh Barat Daya, Aceh 23763";"Rambong, Kec. Setia, Kabupaten Aceh Barat Daya";"ACEH";"23763";"Indonesia";"";"3.7064272";"96.8718825";"https://maps.google.com/?cid=0x0:0x7e3b1fa1313c4fd4"
"housing complex";"Kompleks Bangunan Perusahaan";"Desa Setia Budi";"MVQF+5C7, Ujung Tanah, Kec. Setia, Kabupaten Aceh Barat Daya, Aceh";"Kabupaten Aceh Barat Daya, Aceh";"ACEH";"";"Indonesia";"";"3.6879013";"96.8735451";"https://maps.google.com/?cid=0x0:0x7145fc315a151a68"
"housing complex";"Perhimpunan Pengembang Perumahan";"Yoga firnanda";"PV67+57Q, Alue Dama, Kec. Setia, Kabupaten Aceh Barat Daya, Aceh 23763";"Alue Dama, Kec. Setia, Kabupaten Aceh Barat Daya";"ACEH";"23763";"Indonesia";"";"3.7104571";"96.8632451";"https://maps.google.com/?cid=0x0:0xd2106c1a5873a19a"
"housing complex";"Kompleks Bangunan Perusahaan";"Komplek Kutaraja Permai";"PV69+5JG, Pisang, Kec. Setia, Kabupaten Aceh Barat Daya, Aceh";"Kabupaten Aceh Barat Daya, Aceh";"ACEH";"";"Indonesia";"";"3.7099503";"96.8686632";"https://maps.google.com/?cid=0x0:0x2e440e290c9e3b1e"
"housing complex";"Fasilitas Tentara";"Asrama Kompi C 115";"PV7G+353, Rambong, Kec. Setia, Kabupaten Aceh Barat Daya, Aceh 23763";"Rambong, Kec. Setia, Kabupaten Aceh Barat Daya";"ACEH";"23763";"Indonesia";"";"3.7132527";"96.8763179";"https://maps.google.com/?cid=0x0:0xc0e90a20fb0f9029"
"housing complex";"Komplek perumahan";"rumah Tia manizz";"MVRQ+R35, Tangan Tangan Cut, Kec. Setia, Kabupaten Aceh Barat Daya, Aceh";"Kabupaten Aceh Barat Daya, Aceh";"ACEH";"";"Indonesia";"";"3.6920246";"96.8877448";"https://maps.google.com/?cid=0x0:0xfe02d2afb4ad0c80"
"housing complex";"Pembangunan Perumahan";"Rika";"Alue Dama, Kec. Setia, Kabupaten Aceh Barat Daya, Aceh 23763";"Kec. Setia, Kabupaten Aceh Barat Daya";"ACEH";"23763";"Indonesia";"";"3.7168123";"96.8630614";"https://maps.google.com/?cid=0x0:0xd854cd46bc008ed1"
"housing complex";"housing complex";"Kec. Jeumpa";"Kabupaten Aceh Barat Daya, Aceh";"Kabupaten Aceh Barat Daya, Aceh";"ACEH";"";"Indonesia";"";"3.7760811";"96.8174776";"https://maps.google.com/?cid=0x0:0x273f2a9db3ea83a5"
"housing complex";"housing complex";"Aceh 23764";"Kabupaten Aceh Barat Daya, Aceh";"Kabupaten Aceh Barat Daya, Aceh";"ACEH";"";"Indonesia";"";"3.8585335";"96.8136642";"https://maps.google.com/?cid=0x0:0xffecff8e1cb94052"
"housing complex";"Komplek perumahan";"GAMPONG KUTA JEUMPA";"QR99+G3M, Jln nasional, Kuta Jeumpa, Kec. Jeumpa, Kabupaten Aceh Barat Daya, Aceh";"Kabupaten Aceh Barat Daya, Aceh";"ACEH";"";"Indonesia";"";"3.7688253";"96.8176828";"https://maps.google.com/?cid=0x0:0x1356720507ab2a88"
"housing complex";"Komplek perumahan";"Rumah M.ANAS NASA";"QR7F+549, Jl. Ladang Neubok, Cot Mane, Kec. Jeumpa, Kabupaten Aceh Barat Daya, Aceh 23764";"Jl. Ladang Neubok, Cot Mane, Kec. Jeumpa, Kabupaten Aceh Barat Daya";"ACEH";"23764";"Indonesia";"";"3.7629879";"96.8227069";"https://maps.google.com/?cid=0x0:0xa9bf8c6990409e61"
"housing complex";"Komplek perumahan";"Rumah ERINUR Spd.";"QRM3+PMX, Alue Rambot, Kec. Jeumpa, Kabupaten Aceh Barat Daya, Aceh";"Kabupaten Aceh Barat Daya, Aceh";"ACEH";"";"Indonesia";"";"3.7842746";"96.8044873";"https://maps.google.com/?cid=0x0:0xdd475da54e39d4a7"
"housing complex";"Komplek perumahan";"SIMPANG 4 BAK MEE";"QR43+86R, Iku Lhung, Kec. Jeumpa, Kabupaten Aceh Barat Daya, Aceh 23765";"Iku Lhung, Kec. Jeumpa, Kabupaten Aceh Barat Daya";"ACEH";"23765";"Indonesia";"";"3.7558608";"96.8030251";"https://maps.google.com/?cid=0x0:0xd9aa42b207fca4be"
"housing complex";"Komplek perumahan";"RUMAH DAULAYY";"QRHC+G6Q, Sejahtera desa, Alue Seulaseh, Kec. Jeumpa, Kabupaten Aceh Barat Daya, Aceh";"Kabupaten Aceh Barat Daya, Aceh";"ACEH";"";"Indonesia";"";"3.7788275";"96.8206081";"https://maps.google.com/?cid=0x0:0xa1e5b90baa2c9f53"
"housing complex";"Komplek perumahan";"Lorong kameng";"QR7G+MPF, Cot Mane, Kec. Jeumpa, Kabupaten Aceh Barat Daya, Aceh 23764";"Cot Mane, Kec. Jeumpa, Kabupaten Aceh Barat Daya";"ACEH";"23764";"Indonesia";"";"3.7641819";"96.826811";"https://maps.google.com/?cid=0x0:0x48c950621be05bff"
"housing complex";"Komplek perumahan";"Imam";"QRG9+778, Alue Sungai Pinang, Kec. Jeumpa, Kabupaten Aceh Barat Daya, Aceh";"Kabupaten Aceh Barat Daya, Aceh";"ACEH";"";"Indonesia";"";"3.7756713";"96.8182138";"https://maps.google.com/?cid=0x0:0x9d7133a3abdc0e7f"
"housing complex";"Komplek perumahan";"Rumah bg azki";"QR6F+58M, Cot Mane, Kec. Jeumpa, Kabupaten Aceh Barat Daya, Aceh 23764";"Cot Mane, Kec. Jeumpa, Kabupaten Aceh Barat Daya";"ACEH";"23764";"Indonesia";"";"3.7603295";"96.8233069";"https://maps.google.com/?cid=0x0:0x71d0381021038106"
"housing complex";"Komplek perumahan";"Rumah Said Fahmie";"QRG8+R23, Jl. Meulaboh - Tapaktuan, Alue Sungai Pinang, Kec. Jeumpa, Kabupaten Aceh Barat Daya, Aceh 23764";"Jl. Meulaboh - Tapaktuan, Alue Sungai Pinang, Kec. Jeumpa, Kabupaten Aceh Barat Daya";"ACEH";"23764";"Indonesia";"";"3.7763673";"96.8159343";"https://maps.google.com/?cid=0x0:0xb31fec2b317e1bd6"
"housing complex";"Rumah Pondokan";"Hendry Maneco Home";"QR7C+HW8, Cot Mane, Kec. Jeumpa, Kabupaten Aceh Barat Daya, Aceh 23764";"Cot Mane, Kec. Jeumpa, Kabupaten Aceh Barat Daya";"ACEH";"23764";"Indonesia";"";"3.7639018";"96.8223333";"https://maps.google.com/?cid=0x0:0xe918453a71d6f9ca"
"housing complex";"Komplek perumahan";"RUMAH BOS MUDA ANGGA";"QRJ4+CWH, Alue Rambot, Kec. Jeumpa, Kabupaten Aceh Barat Daya, Aceh";"Kabupaten Aceh Barat Daya, Aceh";"ACEH";"";"Indonesia";"";"3.7810602";"96.8073603";"https://maps.google.com/?cid=0x0:0x4f740b4d7b746fcf"
"housing complex";"Komplek perumahan";"Rumoh pesong";"QR7G+MJ8, Cot Mane, Kec. Jeumpa, Kabupaten Aceh Barat Daya, Aceh";"Kabupaten Aceh Barat Daya, Aceh";"ACEH";"";"Indonesia";"";"3.7641569";"96.8265723";"https://maps.google.com/?cid=0x0:0x49352837591784c"
"housing complex";"Perumahan";"BLOK E KOMPLEK GRAND LIPAH";"6M7G+4JV, Lipah Rayeuk, Kec. Jeumpa, Kabupaten Bireuen, Aceh";"Kabupaten Bireuen, Aceh";"ACEH";"";"Indonesia";"";"5.2128384";"96.6765501";"https://maps.google.com/?cid=0x0:0xf54f75b256347c5"
"housing complex";"Komplek perumahan";"Rumah Reza Alzikri";"6M3J+J4P, Cot Keutapang, Kec. Jeumpa, Kabupaten Bireuen, Aceh";"Kabupaten Bireuen, Aceh";"ACEH";"";"Indonesia";"";"5.2038001";"96.680982";"https://maps.google.com/?cid=0x0:0x2492314df0ea0f07"
"housing complex";"housing complex";"Aceh 24251";"Kabupaten Bireuen, Aceh";"Kabupaten Bireuen, Aceh";"ACEH";"";"Indonesia";"";"5.0881574";"96.642433";"https://maps.google.com/?cid=0x0:0x2d3a8ff5c08e4a15"
"housing complex";"housing complex";"Pos jaga Cot iboeh timu";"5MP9+4M6, Cot Iboih Timu, Kec. Jeumpa, Kabupaten Bireuen, Aceh 24251";"Cot Iboih Timu, Kec. Jeumpa, Kabupaten Bireuen";"ACEH";"24251";"Indonesia";"";"5.1852969";"96.669133";"https://maps.google.com/?cid=0x0:0x86bcdb1080364a06"
"housing complex";"Komplek perumahan";"Rumah H.M jamil Kongsi";"6M3M+GHQ, Jl. Medan Banda Aceh, Cot Tarom Tunong, Kec. Jeumpa, Kabupaten Bireuen, Aceh";"Kabupaten Bireuen, Aceh";"ACEH";"";"Indonesia";"";"5.2038345";"96.6839904";"https://maps.google.com/?cid=0x0:0xabace9e428bc3e92"
"housing complex";"Komplek perumahan";"Rumah keluarga bg teh";"6M5P+7J7, Cot Tarom Tunong, Kec. Jeumpa, Kabupaten Bireuen, Aceh";"Kabupaten Bireuen, Aceh";"ACEH";"";"Indonesia";"";"5.2081653";"96.686535";"https://maps.google.com/?cid=0x0:0x28e466a94252a075"
"housing complex";"Komplek perumahan";"Rumah bang JAMAL";"4M7Q+V3J, Teupin Manee, Kec. Juli, Kabupaten Bireuen, Aceh";"Kabupaten Bireuen, Aceh";"ACEH";"";"Indonesia";"";"5.1147132";"96.6876423";"https://maps.google.com/?cid=0x0:0xc2930cf29a5fe0d4"
"housing complex";"Pembangunan Perumahan";"Rumah Mempelai Wanita";"6M4H+7C6, Blang Cot Tunong, Kec. Jeumpa, Kabupaten Bireuen, Aceh";"Kabupaten Bireuen, Aceh";"ACEH";"";"Indonesia";"";"5.2056569";"96.6785142";"https://maps.google.com/?cid=0x0:0xb399d56ee07aabef"
"housing complex";"Komplek perumahan";"Rumah tgk.Yusri";"5JGV+H7M, Mon Mane, Kec. Jeumpa, Kabupaten Bireuen, Aceh 24251";"Mon Mane, Kec. Jeumpa, Kabupaten Bireuen";"ACEH";"24251";"Indonesia";"";"5.176393";"96.643521";"https://maps.google.com/?cid=0x0:0xcf23933b00fb380f"
"housing complex";"Komplek perumahan";"Rumah";"5M2W+5GH, Batee Raya, Kec. Juli, Kabupaten Bireuen, Aceh";"Kabupaten Bireuen, Aceh";"ACEH";"";"Indonesia";"";"5.1504455";"96.6963466";"https://maps.google.com/?cid=0x0:0x2d46e5625e5bac85"
"housing complex";"Komplek perumahan";"Rumah miftahul jannah re";"5PH3+V3M, Juli Meunasah Tambo, Kec. Juli, Kabupaten Bireuen, Aceh 24261";"Juli Meunasah Tambo, Kec. Juli, Kabupaten Bireuen";"ACEH";"24261";"Indonesia";"";"5.1797192";"96.702661";"https://maps.google.com/?cid=0x0:0x79fe09882d3fa124"
"housing complex";"Komplek perumahan";"Rumah embun";"6J2R+CV9, Teupok Tunong, Kec. Jeumpa, Kabupaten Bireuen, Aceh 24251";"Teupok Tunong, Kec. Jeumpa, Kabupaten Bireuen";"ACEH";"24251";"Indonesia";"";"5.2010398";"96.6422291";"https://maps.google.com/?cid=0x0:0x594b510b179c00ef"
"housing complex";"Pembangunan Perumahan";"Saiful BINTANG KEJORA";"6M6M+RJQ, Cot Tarom Baroh, Kec. Jeumpa, Kabupaten Bireuen, Aceh 24251";"Cot Tarom Baroh, Kec. Jeumpa, Kabupaten Bireuen";"ACEH";"24251";"Indonesia";"";"5.2116703";"96.6838355";"https://maps.google.com/?cid=0x0:0xf219683c49f688f8"
"housing complex";"Komplek perumahan";"BLANG RAYA RESIDENCE";"5MXQ+XX4, Jalan Pendidikan, Bireun Meunasah Blang, Kec. Kota Juang, Kabupaten Bireuen, Aceh 24261";"Jalan Pendidikan, Bireun Meunasah Blang, Kec. Kota Juang, Kabupaten Bireuen";"ACEH";"24261";"Indonesia";"";"5.1998806";"96.6899882";"https://maps.google.com/?cid=0x0:0xefb198dfbae8d084"
"housing complex";"housing complex";"Kec. Lembah Sabil";"Kabupaten Aceh Barat Daya, Aceh";"Kabupaten Aceh Barat Daya, Aceh";"ACEH";"";"Indonesia";"";"3.589112";"96.9343064";"https://maps.google.com/?cid=0x0:0x47f212bb54114078"
"housing complex";"housing complex";"R.Iqbal ( B.Eliana)";"HWRJ+F2R, Ladang Tuha I, Kec. Lembah Sabil, Kabupaten Aceh Barat Daya, Aceh 23762";"Ladang Tuha I, Kec. Lembah Sabil, Kabupaten Aceh Barat Daya";"ACEH";"23762";"Indonesia";"";"3.591232";"96.9300194";"https://maps.google.com/?cid=0x0:0xbc04e185d604abe1"
"housing complex";"Perumahan";"Rumah Ibu Nilawati atau Tgl Alm Rasyidin";"JW6W+2C7, Cot Bak-U, Kec. Lembah Sabil, Kabupaten Aceh Barat Daya, Aceh 23762";"Cot Bak-U, Kec. Lembah Sabil, Kabupaten Aceh Barat Daya";"ACEH";"23762";"Indonesia";" 085235420346";"3.6099416";"96.9461127";"https://maps.google.com/?cid=0x0:0x9f6453e224113876"
"housing complex";"Bantuan Rumah";"rumah FAHCRI";"JW3C+4V6, Jl. Tgk. Agam, Kedai, Kec. Lembah Sabil, Kabupaten Aceh Barat Daya, Aceh 23762";"Jl. Tgk. Agam, Kedai, Kec. Lembah Sabil, Kabupaten Aceh Barat Daya";"ACEH";"23762";"Indonesia";"";"3.602788";"96.9221361";"https://maps.google.com/?cid=0x0:0xae8663b40ab8bc14"
"housing complex";"Perumahan";"Lorong Buntu";"husen, Jl. Keuchik Ibrahim, Meunasah Tengah, Kec. Lembah Sabil, Kabupaten Aceh Barat Daya, Aceh 23762";"Jl. Keuchik Ibrahim, Meunasah Tengah, Kec. Lembah Sabil, Kabupaten Aceh Barat Daya";"ACEH";"23762";"Indonesia";"";"3.6008484";"96.9473989";"https://maps.google.com/?cid=0x0:0xc71fde56daa57bb9"
"housing complex";"Perumahan";"The Yarma's";"JW9M+974, Paya, Kec. Manggeng, Kabupaten Aceh Barat Daya, Aceh 23762";"Paya, Kec. Manggeng, Kabupaten Aceh Barat Daya";"ACEH";"23762";"Indonesia";"";"3.6184296";"96.9331883";"https://maps.google.com/?cid=0x0:0x48f0db89208cff45"
"housing complex";"Pembangunan Perumahan";"simpangtigacotbak’u";"JW4X+X27, Cot Bak-U, Kec. Lembah Sabil, Kabupaten Aceh Barat Daya, Aceh";"Kabupaten Aceh Barat Daya, Aceh";"ACEH";"";"Indonesia";"";"3.607411";"96.9475549";"https://maps.google.com/?cid=0x0:0xd89e847fe61448bb"
"housing complex";"housing complex";"Rumah ruski";"HXC8+276, Blang Poroh, Kec. Labuhan H. Bar., Kabupaten Aceh Selatan, Aceh 23762";"Blang Poroh, Kec. Labuhan H. Bar., Kabupaten Aceh Selatan";"ACEH";"23762";"Indonesia";"";"3.5700434";"96.9656556";"https://maps.google.com/?cid=0x0:0x78f147cd05b5a5ac"
"housing complex";"Toko umum";"Kedai kak ani";"JX33+4VJ, Jl. Meulaboh - Tapaktuan, Meunasah Sukon, Kec. Lembah Sabil, Kabupaten Aceh Barat Daya, Aceh 23762";"Jl. Meulaboh - Tapaktuan, Meunasah Sukon, Kec. Lembah Sabil, Kabupaten Aceh Barat Daya";"ACEH";"23762";"Indonesia";"";"3.6028284";"96.9546365";"https://maps.google.com/?cid=0x0:0xd00530905846808c"
