Category,Real Category,Business Name,Address,City,State,Postal Code,Country,Phone,Email,Website,Latitude,Longitude,Map Link,Details Link
perumahan,perumahan,Kec. Batukliang,"Kabupaten Lombok Tengah, Nusa Tenggara Bar.","Kabupaten Lombok Tengah, Nusa Tenggara Bar.",NUSA TENGGARA BARAT,,Indonesia,,,,-8.6156971,116.3136728,https://maps.google.com/?cid=0x0:0xfea45f036987e96,
perumahan,Komplek perumahan,House,"98JM+PWG, Peresak, Kec. Batukliang, Kabupaten Lombok Tengah, Nusa Tenggara Bar. 83552","Peresak, Kec. Batukliang, Kabupaten Lombok Tengah",NUSA TENGGARA BARAT,83552.0,Indonesia,,,,-8.6177045,116.3352796,https://maps.google.com/?cid=0x0:0xcafe40be10cbca61,
perumahan,Kantor Pemerintah,Perumahan lapas terbuka lombok tengah,"C826+33H, Unnamed Road, Selebung, Kec. Batukliang, Kabupaten Lombok Tengah, Nusa Tenggara Bar. 83552","Unnamed Road, Selebung, Kec. Batukliang, Kabupaten Lombok Tengah",NUSA TENGGARA BARAT,83552.0,Indonesia,,,,-8.5998227,116.3102305,https://maps.google.com/?cid=0x0:0x8d359bf71ab22f1b,
perumahan,Komplek perumahan,Bare bali batukliang,"9893+6X7, Barabali, Kec. Batukliang, Kabupaten Lombok Tengah, Nusa Tenggara Bar. 83552","Barabali, Kec. Batukliang, Kabupaten Lombok Tengah",NUSA TENGGARA BARAT,83552.0,Indonesia,,,,-8.6319314,116.3049258,https://maps.google.com/?cid=0x0:0xce56d3de008aaf5,
perumahan,Komplek perumahan,Bale ica,"98M2+C4P, Aik Dareq, Kec. Batukliang, Kabupaten Lombok Tengah, Nusa Tenggara Bar. 83552","Aik Dareq, Kec. Batukliang, Kabupaten Lombok Tengah",NUSA TENGGARA BARAT,83552.0,Indonesia,,,,-8.6163259,116.3000365,https://maps.google.com/?cid=0x0:0x6b47de1526349e25,
perumahan,Komplek perumahan,Rumah DanculToreto,"C83J+H4Q, Tampak Siring, Kec. Batukliang, Kabupaten Lombok Tengah, Nusa Tenggara Bar. 83552","Tampak Siring, Kec. Batukliang, Kabupaten Lombok Tengah",NUSA TENGGARA BARAT,83552.0,Indonesia,,,,-8.5960321,116.3303449,https://maps.google.com/?cid=0x0:0x5ebacb6adbd44edb,
perumahan,Komplek perumahan,Rumah ortu Yuliana dewi,"dusun pajangan, Peresak, Kec. Batukliang, Kabupaten Lombok Tengah, Nusa Tenggara Bar. 83552","Peresak, Kec. Batukliang, Kabupaten Lombok Tengah",NUSA TENGGARA BARAT,83552.0,Indonesia,,,,-8.6149625,116.3372969,https://maps.google.com/?cid=0x0:0x9a079f1b13a567e0,
perumahan,Komplek perumahan,Rumah saya,"97PV+R34, Beber, Kec. Batukliang, Kabupaten Lombok Tengah, Nusa Tenggara Bar. 83552","Beber, Kec. Batukliang, Kabupaten Lombok Tengah",NUSA TENGGARA BARAT,83552.0,Indonesia,,,,-8.6127536,116.2910684,https://maps.google.com/?cid=0x0:0x34c25eb1d5504937,
perumahan,Komplek perumahan,Rumah Haris,"98QM+255, Mantang, Kec. Batukliang, Kabupaten Lombok Tengah, Nusa Tenggara Bar. 83552","Mantang, Kec. Batukliang, Kabupaten Lombok Tengah",NUSA TENGGARA BARAT,83552.0,Indonesia,,,,-8.6124978,116.3329969,https://maps.google.com/?cid=0x0:0x1b95be6fa5175af4,
perumahan,Komplek perumahan,AWUNG,"97GW+565, Jl. Barabali Pringgarata, Barabali, Kec. Batukliang, Kabupaten Lombok Tengah, Nusa Tenggara Bar. 83552","Jl. Barabali Pringgarata, Barabali, Kec. Batukliang, Kabupaten Lombok Tengah",NUSA TENGGARA BARAT,83552.0,Indonesia,,,,-8.6245368,116.2960368,https://maps.google.com/?cid=0x0:0x23cc5ffd1ab1424f,
perumahan,Komplek perumahan,"Mertak wareng,desa beber,kec.batukliang","97MV+7QX, Mertak wareng, Beber, Kec. Batukliang, Kabupaten Lombok Tengah, Nusa Tenggara Bar. 83552","Mertak wareng, Beber, Kec. Batukliang, Kabupaten Lombok Tengah",NUSA TENGGARA BARAT,83552.0,Indonesia,,,,-8.6167514,116.2944795,https://maps.google.com/?cid=0x0:0xc92ddfe0488b26a9,
perumahan,Komplek perumahan,Rumah Suswanto.,"97MM+7CJ, Beber, Kec. Batukliang, Kabupaten Lombok Tengah, Nusa Tenggara Bar. 83552","Beber, Kec. Batukliang, Kabupaten Lombok Tengah",NUSA TENGGARA BARAT,83552.0,Indonesia,,,,-8.6163115,116.2829075,https://maps.google.com/?cid=0x0:0x38774f8e41bd518b,
perumahan,Pembangunan Perumahan,Kampoeng dodol,"98XG+6X4, Unnamed Road, Selebung, Kec. Batukliang, Kabupaten Lombok Tengah, Nusa Tenggara Bar. 83552","Unnamed Road, Selebung, Kec. Batukliang, Kabupaten Lombok Tengah",NUSA TENGGARA BARAT,83552.0,Indonesia,,,,-8.6019906,116.327455,https://maps.google.com/?cid=0x0:0x1dd7e45bf6e55df7,
perumahan,Komplek perumahan,RUMAH_ZAN_CILIK,"98PJ+2C, Mantang, Kec. Batukliang, Kabupaten Lombok Tengah, Nusa Tenggara Bar. 83552","Mantang, Kec. Batukliang, Kabupaten Lombok Tengah",NUSA TENGGARA BARAT,83552.0,Indonesia,,,,-8.614968,116.3309776,https://maps.google.com/?cid=0x0:0x2c2e1630d827cd72,
perumahan,Komplek perumahan,H Muhdin,"98XF+QX3, Selebung, Kec. Batukliang, Kabupaten Lombok Tengah, Nusa Tenggara Bar. 83552","Selebung, Kec. Batukliang, Kabupaten Lombok Tengah",NUSA TENGGARA BARAT,83552.0,Indonesia,,,,-8.600595,116.3251267,https://maps.google.com/?cid=0x0:0xe083ca92d4295acb,
perumahan,Komplek perumahan,yata bale,"98M6+26Q, Mantang, Kec. Batukliang, Kabupaten Lombok Tengah, Nusa Tenggara Bar. 83552","Mantang, Kec. Batukliang, Kabupaten Lombok Tengah",NUSA TENGGARA BARAT,83552.0,Indonesia,,,,-8.6174294,116.3106332,https://maps.google.com/?cid=0x0:0x442e2d66dac075be,
perumahan,Komplek perumahan,Rumah Liza sriani,"98RM+X2C Kampung religi,Sangeh, Tampak Siring, Kec. Batukliang, Kabupaten Lombok Tengah, Nusa Tenggara Bar. 83552","Tampak Siring, Kec. Batukliang, Kabupaten Lombok Tengah",NUSA TENGGARA BARAT,83552.0,Indonesia,,,,-8.6075531,116.3325112,https://maps.google.com/?cid=0x0:0x4ef380ee8080335e,
perumahan,Perhimpunan Pengembang Perumahan,Alfi Home,"98P2+MV3, Aik Dareq, Kec. Batukliang, Kabupaten Lombok Tengah, Nusa Tenggara Bar. 83552","Aik Dareq, Kec. Batukliang, Kabupaten Lombok Tengah",NUSA TENGGARA BARAT,83552.0,Indonesia,,,,-8.6133606,116.302183,https://maps.google.com/?cid=0x0:0xdb133ac5d97b8f6f,
perumahan,Komplek perumahan,Rumah ishariadi,"pajangan, Peresak, Kec. Batukliang, Kabupaten Lombok Tengah, Nusa Tenggara Bar. 83552","Peresak, Kec. Batukliang, Kabupaten Lombok Tengah",NUSA TENGGARA BARAT,83552.0,Indonesia,,,,-8.6149625,116.3372969,https://maps.google.com/?cid=0x0:0xcae6ded49e5c0e8f,
perumahan,Komplek perumahan,Heri,"989R+XHR, Bujak, Kec. Batukliang, Kabupaten Lombok Tengah, Nusa Tenggara Bar. 83552","Bujak, Kec. Batukliang, Kabupaten Lombok Tengah",NUSA TENGGARA BARAT,83552.0,Indonesia,,,,-8.6301491,116.3420797,https://maps.google.com/?cid=0x0:0xa2b2749dd0b1ca37,
perumahan,Komplek perumahan,Maharani's House,"C858+VF5, Teratak, Kec. Batukliang Utara, Kabupaten Lombok Tengah, Nusa Tenggara Bar. 83552","Teratak, Kec. Batukliang Utara, Kabupaten Lombok Tengah",NUSA TENGGARA BARAT,83552.0,Indonesia,,,,-8.590356,116.316246,https://maps.google.com/?cid=0x0:0xa0e5a3fd99a2e895,
perumahan,Komplek perumahan,Rumah Keyla Gang Bhineka,"98F4+VQX, Barabali, Kec. Batukliang, Kabupaten Lombok Tengah, Nusa Tenggara Bar. 83552","Barabali, Kec. Batukliang, Kabupaten Lombok Tengah",NUSA TENGGARA BARAT,83552.0,Indonesia,,,,-8.6251248,116.3069191,https://maps.google.com/?cid=0x0:0x807b9199d2c3827b,
perumahan,Komplek perumahan,Gunung barun,"Jl. Barabali Pringgarata No.1552, Barabali, Kec. Batukliang, Kabupaten Lombok Tengah, Nusa Tenggara Bar. 83552","Barabali, Kec. Batukliang, Kabupaten Lombok Tengah",NUSA TENGGARA BARAT,83552.0,Indonesia,,,,-8.6265128,116.3043995,https://maps.google.com/?cid=0x0:0x6573f5333069e0df,
perumahan,Komplek perumahan,Rumah Hanif,"98Q3+FF4, Aik Dareq, Kec. Batukliang, Kabupaten Lombok Tengah, Nusa Tenggara Bar. 83552","Aik Dareq, Kec. Batukliang, Kabupaten Lombok Tengah",NUSA TENGGARA BARAT,83552.0,Indonesia,,,,-8.6114339,116.3036468,https://maps.google.com/?cid=0x0:0x9a4259b90ff582cf,
perumahan,Komplek perumahan,Balen Mat,"98QG+4WW, Mantang, Kec. Batukliang, Kabupaten Lombok Tengah, Nusa Tenggara Bar. 83552","Mantang, Kec. Batukliang, Kabupaten Lombok Tengah",NUSA TENGGARA BARAT,83552.0,Indonesia,,,,-8.6120094,116.3272612,https://maps.google.com/?cid=0x0:0xd4880d3a48e35730,
perumahan,perumahan,Nusa Tenggara Bar. 83552,"Kabupaten Lombok Tengah, Nusa Tenggara Bar.","Kabupaten Lombok Tengah, Nusa Tenggara Bar.",NUSA TENGGARA BARAT,,Indonesia,,,,-8.5089066,116.3485586,https://maps.google.com/?cid=0x0:0x38bb83fc552ebe75,
perumahan,Komplek perumahan,Pertigaan nangka rempek,"C962+QV9, MAS-MAS, Kec. Batukliang Utara, Kabupaten Lombok Tengah, Nusa Tenggara Bar. 83552","MAS-MAS, Kec. Batukliang Utara, Kabupaten Lombok Tengah",NUSA TENGGARA BARAT,83552.0,Indonesia,,,,-8.5880977,116.3522191,https://maps.google.com/?cid=0x0:0x41616447000c2716,
perumahan,Komplek perumahan,Rumah Ust. Suhaebi,"C7MV+VX, Karang Sidemen, Kec. Batukliang Utara, Kabupaten Lombok Tengah, Nusa Tenggara Bar. 83552","Karang Sidemen, Kec. Batukliang Utara, Kabupaten Lombok Tengah",NUSA TENGGARA BARAT,83552.0,Indonesia,,,,-8.5653339,116.2949056,https://maps.google.com/?cid=0x0:0x455655c58c48b844,
perumahan,Pembangunan Perumahan,Iin farida,"C8JQ+HXC, Teratak, Kec. Batukliang Utara, Kabupaten Lombok Tengah, Nusa Tenggara Bar. 83552","Teratak, Kec. Batukliang Utara, Kabupaten Lombok Tengah",NUSA TENGGARA BARAT,83552.0,Indonesia,,,,-8.5686206,116.3398382,https://maps.google.com/?cid=0x0:0xc830a4103ef67ab4,
perumahan,Komplek perumahan,"PENDOPO SUFYAN ATS TSAURI, M.Pd","F87J+233, Aik Berik, Kec. Batukliang Utara, Kabupaten Lombok Tengah, Nusa Tenggara Bar. 83552","Aik Berik, Kec. Batukliang Utara, Kabupaten Lombok Tengah",NUSA TENGGARA BARAT,83552.0,Indonesia,,,,-8.5371114,116.3300758,https://maps.google.com/?cid=0x0:0xc3c74dc49e4a70bb,
perumahan,Komplek perumahan,NAFILA RESTIFFANI,"C8PX+VVW, Setiling, Kec. Batukliang Utara, Kabupaten Lombok Tengah, Nusa Tenggara Bar. 83552","Setiling, Kec. Batukliang Utara, Kabupaten Lombok Tengah",NUSA TENGGARA BARAT,83552.0,Indonesia,,,,-8.5627589,116.3497742,https://maps.google.com/?cid=0x0:0x17c0d8eb51d67e70,
perumahan,Komplek perumahan,Yono's house,"C9J7+67X, Setiling, Kec. Batukliang Utara, Kabupaten Lombok Tengah, Nusa Tenggara Bar. 83552","Setiling, Kec. Batukliang Utara, Kabupaten Lombok Tengah",NUSA TENGGARA BARAT,83552.0,Indonesia,,,,-8.5696745,116.3633137,https://maps.google.com/?cid=0x0:0xb97ed62f53ebeb36,
perumahan,Komplek perumahan,Selojan Mas Mas,"99P2+V79 Kios Lestari, Dusun Selojan, MAS-MAS, Kec. Batukliang Utara, Kabupaten Lombok Tengah, Nusa Tenggara Bar. 83552","Dusun Selojan, MAS-MAS, Kec. Batukliang Utara, Kabupaten Lombok Tengah",NUSA TENGGARA BARAT,83552.0,Indonesia, 087716803594,,,-8.6128495,116.3507485,https://maps.google.com/?cid=0x0:0x55560ad1e7bb5a25,
perumahan,Komplek perumahan,rumah zaini,"C8MX+X5M, Setiling, Kec. Batukliang Utara, Kabupaten Lombok Tengah, Nusa Tenggara Bar. 83552","Setiling, Kec. Batukliang Utara, Kabupaten Lombok Tengah",NUSA TENGGARA BARAT,83552.0,Indonesia,,,,-8.56504,116.3479195,https://maps.google.com/?cid=0x0:0xaf81f226fe36b721,
perumahan,Perhimpunan Pengembang Perumahan,man,"C8VQ+7M8, Setiling, Kec. Batukliang Utara, Kabupaten Lombok Tengah, Nusa Tenggara Bar. 83552","Setiling, Kec. Batukliang Utara, Kabupaten Lombok Tengah",NUSA TENGGARA BARAT,83552.0,Indonesia,,,,-8.5565325,116.3388701,https://maps.google.com/?cid=0x0:0xece9e11ae7f0ea7d,
perumahan,Komplek perumahan,GUBUK INDAH,"C8MP+8WQ, Aik Berik, Kec. Batukliang Utara, Kabupaten Lombok Tengah, Nusa Tenggara Bar. 83552","Aik Berik, Kec. Batukliang Utara, Kabupaten Lombok Tengah",NUSA TENGGARA BARAT,83552.0,Indonesia,,,,-8.5666577,116.3373593,https://maps.google.com/?cid=0x0:0x1805c4650eff23ee,
perumahan,Komplek perumahan,Rumah WASAL PT,"F83R+QF6, Aik Berik, Kec. Batukliang Utara, Kabupaten Lombok Tengah, Nusa Tenggara Bar. 83552","Aik Berik, Kec. Batukliang Utara, Kabupaten Lombok Tengah",NUSA TENGGARA BARAT,83552.0,Indonesia, 082359023684,,,-8.5455943,116.3411332,https://maps.google.com/?cid=0x0:0xf075c4a0768136a9,
perumahan,Pembangunan Perumahan,Lantan,"C8J9+P5X, Lantan, Kec. Batukliang Utara, Kabupaten Lombok Tengah, Nusa Tenggara Bar. 83552","Lantan, Kec. Batukliang Utara, Kabupaten Lombok Tengah",NUSA TENGGARA BARAT,83552.0,Indonesia,,,,-8.5682487,116.3174878,https://maps.google.com/?cid=0x0:0x5548d53f4db2d3c3,
perumahan,Komplek perumahan,Mujib home,"C983+FHQ, Aik Bukaq, Kec. Batukliang Utara, Kabupaten Lombok Tengah, Nusa Tenggara Bar. 83552","Aik Bukaq, Kec. Batukliang Utara, Kabupaten Lombok Tengah",NUSA TENGGARA BARAT,83552.0,Indonesia,,,,-8.5838809,116.3539109,https://maps.google.com/?cid=0x0:0x7de7d8b020580411,
perumahan,Komplek perumahan,perpustaaan yogi pratama,"F947+4GH, Setiling, Kec. Batukliang Utara, Kabupaten Lombok Tengah, Nusa Tenggara Bar. 83552","Setiling, Kec. Batukliang Utara, Kabupaten Lombok Tengah",NUSA TENGGARA BARAT,83552.0,Indonesia,,,,-8.5446907,116.3638746,https://maps.google.com/?cid=0x0:0xdd21430f8e9ec07d,
perumahan,Komplek perumahan,GUBUK H.LUKMANUL HAKIM,"C8QQ+57M, Aik Berik, Kec. Batukliang Utara, Kabupaten Lombok Tengah, Nusa Tenggara Bar. 83552","Aik Berik, Kec. Batukliang Utara, Kabupaten Lombok Tengah",NUSA TENGGARA BARAT,83552.0,Indonesia,,,,-8.5620523,116.3382002,https://maps.google.com/?cid=0x0:0x7044626d9e4c512e,
perumahan,Sekolah,Dusun SENYIUR,"99X3+3F, Dusun SENYIUR, MAS-MAS, Kec. Batukliang Utara, Kabupaten Lombok Tengah, Nusa Tenggara Bar. 83552","Dusun SENYIUR, MAS-MAS, Kec. Batukliang Utara, Kabupaten Lombok Tengah",NUSA TENGGARA BARAT,83552.0,Indonesia,,,,-8.602886,116.3542298,https://maps.google.com/?cid=0x0:0x238ba2176e8f394d,
perumahan,Pembangunan Perumahan,Seninen gali,"F827+HWH, Unnamed Road, Karang Sidemen, Kec. Batukliang Utara, Kabupaten Lombok Tengah, Nusa Tenggara Bar. 83552","Unnamed Road, Karang Sidemen, Kec. Batukliang Utara, Kabupaten Lombok Tengah",NUSA TENGGARA BARAT,83552.0,Indonesia,,,,-8.5485504,116.3148532,https://maps.google.com/?cid=0x0:0x24dae9b2ea97c2e7,
perumahan,Pembangunan Perumahan,"Balen Tiang, Zulhajji","C8F9+5W7, Kemaliq, Teratak, Kec. Batukliang Utara, Kabupaten Lombok Tengah, Nusa Tenggara Bar. 83552","Kemaliq, Teratak, Kec. Batukliang Utara, Kabupaten Lombok Tengah",NUSA TENGGARA BARAT,83552.0,Indonesia, 085904481544,,,-8.5770923,116.3198037,https://maps.google.com/?cid=0x0:0xb1a7865c7b4ae5c7,
perumahan,Komplek perumahan,Destiy hous,"C8W7+43H, Karang Sidemen, Kec. Batukliang Utara, Kabupaten Lombok Tengah, Nusa Tenggara Bar. 83552","Karang Sidemen, Kec. Batukliang Utara, Kabupaten Lombok Tengah",NUSA TENGGARA BARAT,83552.0,Indonesia,,,,-8.5547056,116.3127071,https://maps.google.com/?cid=0x0:0x38abb5097b707061,
perumahan,Kompleks Kondominium,Andika,"C9V3+7H5, Setiling, Kec. Batukliang Utara, Kabupaten Lombok Tengah, Nusa Tenggara Bar. 83552","Setiling, Kec. Batukliang Utara, Kabupaten Lombok Tengah",NUSA TENGGARA BARAT,83552.0,Indonesia,,,,-8.5568564,116.3539883,https://maps.google.com/?cid=0x0:0x22667d299c7c3433,
perumahan,Komplek perumahan,Dusun lendang are,"C8WR+G6M, Setiling, Kec. Batukliang Utara, Kabupaten Lombok Tengah, Nusa Tenggara Bar. 83552","Setiling, Kec. Batukliang Utara, Kabupaten Lombok Tengah",NUSA TENGGARA BARAT,83552.0,Indonesia,,,,-8.5536543,116.3405565,https://maps.google.com/?cid=0x0:0xa9464b9581bd3dd0,
perumahan,Perumahan,Ovan house,"C8PF+Q3J, Unnamed Road, Aik Berik, Kec. Batukliang Utara, Kabupaten Lombok Tengah, Nusa Tenggara Bar. 83552","Unnamed Road, Aik Berik, Kec. Batukliang Utara, Kabupaten Lombok Tengah",NUSA TENGGARA BARAT,83552.0,Indonesia,,,,-8.5630366,116.3226427,https://maps.google.com/?cid=0x0:0x92dc25bc776ecd79,
perumahan,Pembangunan Perumahan,Fardani Family,"C8JG+9PF, Unnamed Road, Aik Berik, Kec. Batukliang Utara, Kabupaten Lombok Tengah, Nusa Tenggara Bar. 83552","Unnamed Road, Aik Berik, Kec. Batukliang Utara, Kabupaten Lombok Tengah",NUSA TENGGARA BARAT,83552.0,Indonesia,,,,-8.569066,116.3267981,https://maps.google.com/?cid=0x0:0x46d1416fb0d4740,
perumahan,Komplek perumahan,Ahmad Faezall Irwan Budianto,"C8P8+CCJ, Dusun Enduttojang, Lantan, Kec. Batukliang Utara, Kabupaten Lombok Tengah, Nusa Tenggara Bar. 83552","Dusun Enduttojang, Lantan, Kec. Batukliang Utara, Kabupaten Lombok Tengah",NUSA TENGGARA BARAT,83552.0,Indonesia,,,,-8.5632611,116.3156874,https://maps.google.com/?cid=0x0:0x4dcda99f412601a1,
perumahan,Komplek perumahan,Kijang,"79VM+QQ, Janapria, Kec. Janapria, Kabupaten Lombok Tengah, Nusa Tenggara Bar. 83554","Janapria, Kec. Janapria, Kabupaten Lombok Tengah",NUSA TENGGARA BARAT,83554.0,Indonesia,,,,-8.7055506,116.3844472,https://maps.google.com/?cid=0x0:0x6be64d08cbc1e8b0,
perumahan,Komplek perumahan,rumah bintang,"8C33+P2C, Janapria, Kec. Janapria, Kabupaten Lombok Tengah, Nusa Tenggara Bar. 83554","Janapria, Kec. Janapria, Kabupaten Lombok Tengah",NUSA TENGGARA BARAT,83554.0,Indonesia,,,,-8.6956818,116.4025171,https://maps.google.com/?cid=0x0:0xa81892888f6e2b08,
perumahan,perumahan,Janapria,"Kec. Janapria, Kabupaten Lombok Tengah, Nusa Tenggara Bar.","Kabupaten Lombok Tengah, Nusa Tenggara Bar.",NUSA TENGGARA BARAT,,Indonesia,,,,-8.7013867,116.3898789,https://maps.google.com/?cid=0x0:0x5030bfbcaf7d7c0,
perumahan,Komplek perumahan,Lendang Desa Kerembong Kecamatan Janapria Kabupaten Lombok Tengah NTB,"79XF+F2G Juna/Sisik, Jalan, Kerembong, Janapria, Central Lombok Regency, West Nusa Tenggara 83554","Jalan, Kerembong, Janapria, Central Lombok Regency",NUSA TENGGARA BARAT,83554.0,Indonesia,,,,-8.703481,116.370267,https://maps.google.com/?cid=0x0:0x5a29932ad9151f26,
perumahan,Komplek perumahan,Rumah,"7CP8+G55, Saba, Kec. Janapria, Kabupaten Lombok Tengah, Nusa Tenggara Bar. 83554","Saba, Kec. Janapria, Kabupaten Lombok Tengah",NUSA TENGGARA BARAT,83554.0,Indonesia, 085935134090,,,-8.713756,116.4154174,https://maps.google.com/?cid=0x0:0x710225aee5c46ea5,
perumahan,Komplek perumahan,Rumah kelana,"8C49+69J, Saba, Kec. Janapria, Kabupaten Lombok Tengah, Nusa Tenggara Bar. 83554","Saba, Kec. Janapria, Kabupaten Lombok Tengah",NUSA TENGGARA BARAT,83554.0,Indonesia,,,,-8.6943384,116.4181208,https://maps.google.com/?cid=0x0:0x736fef0934198338,
perumahan,Komplek perumahan,Rungun Perempatan,"7CX4+7H2, Jl. Raya Montong Gamang, Loang Maka, Kec. Janapria, Kabupaten Lombok Tengah, Nusa Tenggara Bar. 83554","Jl. Raya Montong Gamang, Loang Maka, Kec. Janapria, Kabupaten Lombok Tengah",NUSA TENGGARA BARAT,83554.0,Indonesia,,,,-8.7018727,116.4063773,https://maps.google.com/?cid=0x0:0x6f25e6d97f531389,
perumahan,Komplek perumahan,Rumah Diyah,"897W+Q3X, Janapria, Kec. Janapria, Kabupaten Lombok Tengah, Nusa Tenggara Bar. 83554","Janapria, Kec. Janapria, Kabupaten Lombok Tengah",NUSA TENGGARA BARAT,83554.0,Indonesia,,,,-8.6853855,116.3951837,https://maps.google.com/?cid=0x0:0x2625b11588570af7,
perumahan,Komplek perumahan,Ayu's House,"8C43+2R7, Janapria, Kec. Janapria, Kabupaten Lombok Tengah, Nusa Tenggara Bar. 83554","Janapria, Kec. Janapria, Kabupaten Lombok Tengah",NUSA TENGGARA BARAT,83554.0,Indonesia,,,,-8.6949516,116.4045126,https://maps.google.com/?cid=0x0:0x5536a86015aa8b17,
perumahan,Komplek perumahan,Peselak,"893X+493, Janapria, Kec. Janapria, Kabupaten Lombok Tengah, Nusa Tenggara Bar. 83554","Janapria, Kec. Janapria, Kabupaten Lombok Tengah",NUSA TENGGARA BARAT,83554.0,Indonesia,,,,-8.696936,116.3994025,https://maps.google.com/?cid=0x0:0xb0dab9198d8c5a47,
perumahan,Komplek perumahan,Repoq Batu Janggar,"Janapria, Kec. Janapria, Kabupaten Lombok Tengah, Nusa Tenggara Bar. 83554","Kec. Janapria, Kabupaten Lombok Tengah",NUSA TENGGARA BARAT,83554.0,Indonesia, 081805200442,,,-8.6876193,116.4032592,https://maps.google.com/?cid=0x0:0xcace7577f51b262e,
perumahan,Komplek perumahan,Rumah saya,"8C67+VP5, Saba, Kec. Janapria, Kabupaten Lombok Tengah, Nusa Tenggara Bar. 83554","Saba, Kec. Janapria, Kabupaten Lombok Tengah",NUSA TENGGARA BARAT,83554.0,Indonesia,,,,-8.6878462,116.4144219,https://maps.google.com/?cid=0x0:0xc0ee0f303cf97645,
perumahan,Komplek perumahan,Rumah Robi Ria,"8C55+XJ3, Janapria, Kec. Janapria, Kabupaten Lombok Tengah, Nusa Tenggara Bar. 83554","Janapria, Kec. Janapria, Kabupaten Lombok Tengah",NUSA TENGGARA BARAT,83554.0,Indonesia,,,,-8.6901319,116.40926,https://maps.google.com/?cid=0x0:0x431d4c1d31d1fc88,
perumahan,Komplek perumahan,Keluarga Niniq Gede,"8C42+9F2, Janapria, Kec. Janapria, Kabupaten Lombok Tengah, Nusa Tenggara Bar. 83554","Janapria, Kec. Janapria, Kabupaten Lombok Tengah",NUSA TENGGARA BARAT,83554.0,Indonesia,,,,-8.6941207,116.4011391,https://maps.google.com/?cid=0x0:0x4b08680b43b05d7,
perumahan,Perumahan,pipi,"895Q+VMG, Janapria, Kec. Janapria, Kabupaten Lombok Tengah, Nusa Tenggara Bar. 83554","Janapria, Kec. Janapria, Kabupaten Lombok Tengah",NUSA TENGGARA BARAT,83554.0,Indonesia,,,,-8.6903142,116.3892037,https://maps.google.com/?cid=0x0:0x791b886240957235,
perumahan,Komplek perumahan,Rinmu city,"7CX3+7CF, Loang Maka, Kec. Janapria, Kabupaten Lombok Tengah, Nusa Tenggara Bar. 83554","Loang Maka, Kec. Janapria, Kabupaten Lombok Tengah",NUSA TENGGARA BARAT,83554.0,Indonesia,,,,-8.701852,116.4035693,https://maps.google.com/?cid=0x0:0xf381e5ebf2bc092c,
perumahan,Pembangunan Perumahan,Saba,"8C37+JX4, Saba, Kec. Janapria, Kabupaten Lombok Tengah, Nusa Tenggara Bar. 83554","Saba, Kec. Janapria, Kabupaten Lombok Tengah",NUSA TENGGARA BARAT,83554.0,Indonesia,,,,-8.6960188,116.4147872,https://maps.google.com/?cid=0x0:0x6e5696acd6d4363d,
perumahan,Pembangunan Perumahan,Bunter,"893J+Q4, Janapria, Kec. Janapria, Kabupaten Lombok Tengah, Nusa Tenggara Bar. 83554","Janapria, Kec. Janapria, Kabupaten Lombok Tengah",NUSA TENGGARA BARAT,83554.0,Indonesia,,,,-8.6955742,116.380681,https://maps.google.com/?cid=0x0:0xdc20afb61179022c,
perumahan,Komplek perumahan,Monjong,"7CV2+RXJ, Loang Maka, Kec. Janapria, Kabupaten Lombok Tengah, Nusa Tenggara Bar. 83554","Loang Maka, Kec. Janapria, Kabupaten Lombok Tengah",NUSA TENGGARA BARAT,83554.0,Indonesia,,,,-8.7047949,116.4025949,https://maps.google.com/?cid=0x0:0x3efb0679e689d39f,
perumahan,Komplek perumahan,Manggas,"8986+97G, Jln.montong nangka-tubi, Durian, Kec. Janapria, Kabupaten Lombok Tengah, Nusa Tenggara Bar. 83554","Jln.montong nangka-tubi, Durian, Kec. Janapria, Kabupaten Lombok Tengah",NUSA TENGGARA BARAT,83554.0,Indonesia,,,,-8.6840555,116.3606996,https://maps.google.com/?cid=0x0:0xe837ac90849c2091,
perumahan,Komplek perumahan,rumah desti,"893X+493, Janapria, Kec. Janapria, Kabupaten Lombok Tengah, Nusa Tenggara Bar. 83554","Janapria, Kec. Janapria, Kabupaten Lombok Tengah",NUSA TENGGARA BARAT,83554.0,Indonesia,,,,-8.6970746,116.3998082,https://maps.google.com/?cid=0x0:0xb9f7f5fe72c10478,
perumahan,Komplek perumahan,Kampung baru,"8C3C+67M, Saba, Kec. Janapria, Kabupaten Lombok Tengah, Nusa Tenggara Bar. 83554","Saba, Kec. Janapria, Kabupaten Lombok Tengah",NUSA TENGGARA BARAT,83554.0,Indonesia,,,,-8.6969102,116.4206701,https://maps.google.com/?cid=0x0:0x663a628452481a36,
perumahan,Pembangunan Perumahan,Menyer Janapria,"892X+5R, Janapria, Kec. Janapria, Kabupaten Lombok Tengah, Nusa Tenggara Bar.","Kabupaten Lombok Tengah, Nusa Tenggara Bar.",NUSA TENGGARA BARAT,,Indonesia,,,,-8.6995683,116.3995593,https://maps.google.com/?cid=0x0:0x5b708d34c93bd87,
perumahan,perumahan,Nusa Tenggara Bar. 83554,"Kec. Janapria, Kabupaten Lombok Tengah, Nusa Tenggara Bar.","Kabupaten Lombok Tengah, Nusa Tenggara Bar.",NUSA TENGGARA BARAT,,Indonesia,,,,-8.71513,116.4075854,https://maps.google.com/?cid=0x0:0xa9677a5fb649e5c3,
perumahan,Pembangunan Perumahan,Kampung PL (pengempen lauk),"7CQ7+CR5, Saba, Kec. Janapria, Kabupaten Lombok Tengah, Nusa Tenggara Bar. 83554","Saba, Kec. Janapria, Kabupaten Lombok Tengah",NUSA TENGGARA BARAT,83554.0,Indonesia,,,,-8.711496,116.4146001,https://maps.google.com/?cid=0x0:0xb450fac6af2f4430,
perumahan,Komplek perumahan,"Tanak malit, janapria","79WX+CV6, Janapria, Kec. Janapria, Kabupaten Lombok Tengah, Nusa Tenggara Bar.","Kabupaten Lombok Tengah, Nusa Tenggara Bar.",NUSA TENGGARA BARAT,,Indonesia,,,,-8.703951,116.3996516,https://maps.google.com/?cid=0x0:0xacbde32f6982ecde,
perumahan,Pembangunan Perumahan,KERAJAAN MARJANOM,"7CV7+V33, Unnamed Road, Saba, Kec. Janapria, Kabupaten Lombok Tengah, Nusa Tenggara Bar. 83554","Unnamed Road, Saba, Kec. Janapria, Kabupaten Lombok Tengah",NUSA TENGGARA BARAT,83554.0,Indonesia,,,,-8.7053513,116.4126769,https://maps.google.com/?cid=0x0:0xbd16eed4e0cd75e,
perumahan,Komplek perumahan,Terentam,"7C98+2XJ, Saba, Kec. Janapria, Kabupaten Lombok Tengah, Nusa Tenggara Bar. 83554","Saba, Kec. Janapria, Kabupaten Lombok Tengah",NUSA TENGGARA BARAT,83554.0,Indonesia,,,,-8.732409,116.4174037,https://maps.google.com/?cid=0x0:0x9d6e16d7d3083b5a,
perumahan,Komplek perumahan,Rusnan sa'id,"7CV8+Q4, Saba, Kec. Janapria, Kabupaten Lombok Tengah, Nusa Tenggara Bar. 83554","Saba, Kec. Janapria, Kabupaten Lombok Tengah",NUSA TENGGARA BARAT,83554.0,Indonesia,,,,-8.7055777,116.4153194,https://maps.google.com/?cid=0x0:0x306a13a33dad808b,
perumahan,perumahan,Nusa Tenggara Bar. 83561,"Kec. Jonggat, Kabupaten Lombok Tengah, Nusa Tenggara Bar.","Kabupaten Lombok Tengah, Nusa Tenggara Bar.",NUSA TENGGARA BARAT,,Indonesia,,,,-8.6688303,116.2186488,https://maps.google.com/?cid=0x0:0xd2525c277bfc04c4,
perumahan,Pembangunan Perumahan,Permata Agung Residence,"Nyerot, Kec. Jonggat, Kabupaten Lombok Tengah, Nusa Tenggara Bar. 83561","Kec. Jonggat, Kabupaten Lombok Tengah",NUSA TENGGARA BARAT,83561.0,Indonesia, 087864881212,,,-8.6737456,116.2255774,https://maps.google.com/?cid=0x0:0x1c653e40b398e318,
perumahan,Pembangunan Perumahan,Ubung jonggat,"964F+MRM, Bonjeruk, Kec. Jonggat, Kabupaten Lombok Tengah, Nusa Tenggara Bar. 83561","Bonjeruk, Kec. Jonggat, Kabupaten Lombok Tengah",NUSA TENGGARA BARAT,83561.0,Indonesia,,,,-8.6432869,116.2245553,https://maps.google.com/?cid=0x0:0x56c02309e5f05733,
perumahan,Pembangunan Perumahan,Perumahan,"86GG+78V, Nyerot, Kec. Jonggat, Kabupaten Lombok Tengah, Nusa Tenggara Bar. 83561","Nyerot, Kec. Jonggat, Kabupaten Lombok Tengah",NUSA TENGGARA BARAT,83561.0,Indonesia,,,,-8.67358,116.2265549,https://maps.google.com/?cid=0x0:0x21d5be0807957b31,
perumahan,Komplek perumahan,Rumah Agill,"86HC+MCR, Jelantik, Kec. Jonggat, Kabupaten Lombok Tengah, Nusa Tenggara Bar.","Kabupaten Lombok Tengah, Nusa Tenggara Bar.",NUSA TENGGARA BARAT,,Indonesia, 085337071027,,,-8.6707539,116.2210219,https://maps.google.com/?cid=0x0:0x1136fb642ea28925,
perumahan,Otoritas Perumahan,Rumah,"86HC+R83, Jelantik, Kec. Jonggat, Kabupaten Lombok Tengah, Nusa Tenggara Bar. 83561","Jelantik, Kec. Jonggat, Kabupaten Lombok Tengah",NUSA TENGGARA BARAT,83561.0,Indonesia,,,,-8.670514,116.2207956,https://maps.google.com/?cid=0x0:0x9355d42076163af1,
perumahan,Pembangunan Perumahan,Nyerot jonggat Lombok tengah,"869H+P22, Kebon talo, Nyerot, Kec. Jonggat, Kabupaten Lombok Tengah, Nusa Tenggara Bar. 83561","Kebon talo, Nyerot, Kec. Jonggat, Kabupaten Lombok Tengah",NUSA TENGGARA BARAT,83561.0,Indonesia,,,,-8.6807382,116.2275085,https://maps.google.com/?cid=0x0:0xc4dbfff9b2b0d49b,
perumahan,Rumah Kayu,Rumah Aira,"Bunkate, Kec. Jonggat, Kabupaten Lombok Tengah, Nusa Tenggara Bar. 83561","Kec. Jonggat, Kabupaten Lombok Tengah",NUSA TENGGARA BARAT,83561.0,Indonesia,,,,-8.6563712,116.2340259,https://maps.google.com/?cid=0x0:0xab222c6bf682a30,
perumahan,Komplek perumahan,RUMAH TINGKAT,"86FG+VVX, Nyerot, Kec. Jonggat, Kabupaten Lombok Tengah, Nusa Tenggara Bar. 83561","Nyerot, Kec. Jonggat, Kabupaten Lombok Tengah",NUSA TENGGARA BARAT,83561.0,Indonesia,,,,-8.6751611,116.2273421,https://maps.google.com/?cid=0x0:0x54b0ca2aa5748a73,
perumahan,Perhimpunan Pengembang Perumahan,Rumah,"8657+PW7, Batutulis, Kec. Jonggat, Kabupaten Lombok Tengah, Nusa Tenggara Bar. 83561","Batutulis, Kec. Jonggat, Kabupaten Lombok Tengah",NUSA TENGGARA BARAT,83561.0,Indonesia,,,,-8.6907043,116.2148033,https://maps.google.com/?cid=0x0:0x9df0d9f7bea36fd,
perumahan,Otoritas Perumahan,Jelantik,"86M9+7WH, Jelantik, Kec. Jonggat, Kabupaten Lombok Tengah, Nusa Tenggara Bar. 83561","Jelantik, Kec. Jonggat, Kabupaten Lombok Tengah",NUSA TENGGARA BARAT,83561.0,Indonesia,,,,-8.6668105,116.2198724,https://maps.google.com/?cid=0x0:0x483265de6b9f6948,
perumahan,Perhimpunan Pengembang Perumahan,Rumah Aminullah,"86V8+W67, Jelantik, Kec. Jonggat, Kabupaten Lombok Tengah, Nusa Tenggara Bar. 83561","Jelantik, Kec. Jonggat, Kabupaten Lombok Tengah",NUSA TENGGARA BARAT,83561.0,Indonesia,,,,-8.6552211,116.2155474,https://maps.google.com/?cid=0x0:0x156427cb6670016f,
perumahan,Pembangunan Perumahan,PUTRI,"86FG+JPQ, Nyerot, Kec. Jonggat, Kabupaten Lombok Tengah, Nusa Tenggara Bar. 83561","Nyerot, Kec. Jonggat, Kabupaten Lombok Tengah",NUSA TENGGARA BARAT,83561.0,Indonesia,,,,-8.6759081,116.2268456,https://maps.google.com/?cid=0x0:0x105379dee5874a10,
perumahan,Komplek perumahan,Bongor selanglet,"86R5+HGV, Jelantik, Kec. Jonggat, Kabupaten Lombok Tengah, Nusa Tenggara Bar. 83561","Jelantik, Kec. Jonggat, Kabupaten Lombok Tengah",NUSA TENGGARA BARAT,83561.0,Indonesia,,,,-8.6584733,116.2087907,https://maps.google.com/?cid=0x0:0x286a02fbbc8ac2cb,
perumahan,Komplek perumahan,Cesar Home,"86CJ+HP8, Nyerot, Kec. Jonggat, Kabupaten Lombok Tengah, Nusa Tenggara Bar. 83561","Nyerot, Kec. Jonggat, Kabupaten Lombok Tengah",NUSA TENGGARA BARAT,83561.0,Indonesia,,,,-8.6785762,116.2318429,https://maps.google.com/?cid=0x0:0xe6f665e91cfb5090,
perumahan,Komplek perumahan,Rumah Ust. Mawaiz,"857W+M3F, Labulia, Kec. Jonggat, Kabupaten Lombok Tengah, Nusa Tenggara Bar. 83561","Labulia, Kec. Jonggat, Kabupaten Lombok Tengah",NUSA TENGGARA BARAT,83561.0,Indonesia,,,,-8.6859115,116.1953984,https://maps.google.com/?cid=0x0:0x230fb6f48cdeeb75,
perumahan,Komplek perumahan,Rumah Nurhedianto,"963Q+5PG, Jl. Taman Puri Perina, Perina, Kec. Jonggat, Kabupaten Lombok Tengah, Nusa Tenggara Bar. 83561","Jl. Taman Puri Perina, Perina, Kec. Jonggat, Kabupaten Lombok Tengah",NUSA TENGGARA BARAT,83561.0,Indonesia,,,,-8.6470555,116.2393296,https://maps.google.com/?cid=0x0:0xdfd2cbdda11f0938,
perumahan,Toko Daging,Gontoran Batu Tulis,"Jalan Gontoran, Nyerot, Kec. Jonggat, Kabupaten Lombok Tengah, Nusa Tenggara Bar. 83561","Nyerot, Kec. Jonggat, Kabupaten Lombok Tengah",NUSA TENGGARA BARAT,83561.0,Indonesia, 081908617119,,,-8.6785218,116.2241165,https://maps.google.com/?cid=0x0:0xa5ea8927da93f00b,
perumahan,Pembangunan Perumahan,Jodi,"86GM+459, Nyerot, Kec. Jonggat, Kabupaten Lombok Tengah, Nusa Tenggara Bar. 83561","Nyerot, Kec. Jonggat, Kabupaten Lombok Tengah",NUSA TENGGARA BARAT,83561.0,Indonesia,,,,-8.674668,116.2329579,https://maps.google.com/?cid=0x0:0xb50a360de2f72954,
perumahan,perumahan,Sifa aprilia,"86CJ+H68, Dusun Bererong, Nyerot, Kec. Jonggat, Kabupaten Lombok Tengah, Nusa Tenggara Bar. 83561","Dusun Bererong, Nyerot, Kec. Jonggat, Kabupaten Lombok Tengah",NUSA TENGGARA BARAT,83561.0,Indonesia,,,,-8.678589,116.230583,https://maps.google.com/?cid=0x0:0x8f680eceb3368d37,
perumahan,Komplek perumahan,Rumah ainal,"9628+G6, Bonjeruk, Kec. Jonggat, Kabupaten Lombok Tengah, Nusa Tenggara Bar. 83561","Bonjeruk, Kec. Jonggat, Kabupaten Lombok Tengah",NUSA TENGGARA BARAT,83561.0,Indonesia,,,,-8.6486766,116.2155009,https://maps.google.com/?cid=0x0:0xd231fd7c7f5fb337,
perumahan,Komplek perumahan,Rumah Rilaa,"86GQ+66M, Jl. Puyung, Bunkate, Kec. Jonggat, Kabupaten Lombok Tengah, Nusa Tenggara Bar. 83561","Jl. Puyung, Bunkate, Kec. Jonggat, Kabupaten Lombok Tengah",NUSA TENGGARA BARAT,83561.0,Indonesia,,,,-8.6744448,116.2380327,https://maps.google.com/?cid=0x0:0x100d4fff257dcf7b,
perumahan,Kompleks Townhouse,BTN Puyung,"869J+FPM, Unnamed Road, Nyerot, Kec. Jonggat, Kabupaten Lombok Tengah, Nusa Tenggara Bar. 83561","Unnamed Road, Nyerot, Kec. Jonggat, Kabupaten Lombok Tengah",NUSA TENGGARA BARAT,83561.0,Indonesia,,,,-8.6812946,116.2317862,https://maps.google.com/?cid=0x0:0x363f03914a59ae63,
perumahan,Pembangunan Perumahan,BTN Permata Residence,"Jl. Raden Puguh BTN Permata Residence No.3, Puyung, Kec. Jonggat, Kabupaten Lombok Tengah, Nusa Tenggara Bar. 83561","Puyung, Kec. Jonggat, Kabupaten Lombok Tengah",NUSA TENGGARA BARAT,83561.0,Indonesia, 087864667331,,,-8.680684,116.231998,https://maps.google.com/?cid=0x0:0x13fa6865ff525a08,
perumahan,Komplek perumahan,Bonjeruk,"Jl. Raya Beber, Pengenjek, Kec. Jonggat, Kabupaten Lombok Tengah, Nusa Tenggara Bar. 83561","Pengenjek, Kec. Jonggat, Kabupaten Lombok Tengah",NUSA TENGGARA BARAT,83561.0,Indonesia,,,,-8.6378253,116.2403965,https://maps.google.com/?cid=0x0:0x28eaeccf2479e1d1,
perumahan,Pembangunan Perumahan,JONSENG,"86HR+X43 Taman Daye, Puyung, Kec. Jonggat, Kabupaten Lombok Tengah, Nusa Tenggara Bar. 83561","Puyung, Kec. Jonggat, Kabupaten Lombok Tengah",NUSA TENGGARA BARAT,83561.0,Indonesia,,,,-8.6701248,116.2403098,https://maps.google.com/?cid=0x0:0x7a6ea37474d17402,
perumahan,Komplek perumahan,lizzy wish,"Unnamed Road, Nyerot, Jonggat, Central Lombok Regency, West Nusa Tenggara 83561","Nyerot, Jonggat, Central Lombok Regency",NUSA TENGGARA BARAT,83561.0,Indonesia,,,,-8.6788221,116.2283808,https://maps.google.com/?cid=0x0:0x5617ae2df8ff6099,
perumahan,Komplek perumahan,Rumah Lalu Panji,"8657+VC8, Batutulis, Kec. Jonggat, Kabupaten Lombok Tengah, Nusa Tenggara Bar. 83561","Batutulis, Kec. Jonggat, Kabupaten Lombok Tengah",NUSA TENGGARA BARAT,83561.0,Indonesia,,,,-8.6895658,116.2138268,https://maps.google.com/?cid=0x0:0x649039bd19e982df,
perumahan,Komplek perumahan,Lalu sopian hmzah,"8657+8QF, Jalan Raya, Tandek, Batutulis, Jonggat, Central Lombok Regency, West Nusa Tenggara 83561","Jalan Raya, Tandek, Batutulis, Jonggat, Central Lombok Regency",NUSA TENGGARA BARAT,83561.0,Indonesia,,,,-8.6916983,116.2144167,https://maps.google.com/?cid=0x0:0x426ad6cb61e595a9,
perumahan,Pelayanan Keamanan Jalan,Kopang,"98HW+765, Peresak, Kec. Batukliang, Kabupaten Lombok Tengah, Nusa Tenggara Bar. 83552","Peresak, Kec. Batukliang, Kabupaten Lombok Tengah",NUSA TENGGARA BARAT,83552.0,Indonesia,,,,-8.6218692,116.3456069,https://maps.google.com/?cid=0x0:0xc3eb8645ebd5a28b,
perumahan,perumahan,Kopang,"Kopang Rembiga, Kec. Kopang, Kabupaten Lombok Tengah, Nusa Tenggara Bar.","Kabupaten Lombok Tengah, Nusa Tenggara Bar.",NUSA TENGGARA BARAT,,Indonesia,,,,-8.641832,116.3563,https://maps.google.com/?cid=0x0:0xb2c3bf25caf7ed0e,
perumahan,Pembangunan Perumahan,Iswandi home,"Banjar dusun lauk rurung 1, Kopang Rembiga, Kec. Kopang, Kabupaten Lombok Tengah","Kabupaten Lombok Tengah, Nusa Tenggara Bar.",NUSA TENGGARA BARAT,,Indonesia,,,,-8.641832,116.3563,https://maps.google.com/?cid=0x0:0xe44bdf7d37e76c4,
perumahan,Komplek perumahan,balen erol,"9954+7G7, Kopang Rembiga, Kec. Kopang, Kabupaten Lombok Tengah, Nusa Tenggara Bar.","Kabupaten Lombok Tengah, Nusa Tenggara Bar.",NUSA TENGGARA BARAT,,Indonesia,,,,-8.641832,116.3563,https://maps.google.com/?cid=0x0:0xe203bc234580e358,
perumahan,Grosir,Yuyun,"9954+5HW, Kopang Rembiga, Kec. Kopang, Kabupaten Lombok Tengah, Nusa Tenggara Bar.","Kabupaten Lombok Tengah, Nusa Tenggara Bar.",NUSA TENGGARA BARAT,,Indonesia,,,,-8.6420205,116.3564583,https://maps.google.com/?cid=0x0:0x87c6307e4ce4489e,
perumahan,Delivery service,"Pengkores,kopang","C9MC+C3V, Pengkores, Waja Geseng, Kec. Kopang, Kabupaten Lombok Tengah, Nusa Tenggara Bar. 83553","Pengkores, Waja Geseng, Kec. Kopang, Kabupaten Lombok Tengah",NUSA TENGGARA BARAT,83553.0,Indonesia,,,,-8.5663902,116.3701675,https://maps.google.com/?cid=0x0:0xa95276be52d48992,
perumahan,Komplek perumahan,Royal Madinah Kopang,"Unnamed Road, Kopang Rembiga, Kopang, Central Lombok Regency, West Nusa Tenggara 83552","Kopang Rembiga, Kopang, Central Lombok Regency",NUSA TENGGARA BARAT,83552.0,Indonesia, 0818766326,,,-8.6281693,116.3500367,https://maps.google.com/?cid=0x0:0xf695e96e2952c810,
perumahan,Jawa,Rumah Makan Pojok Bu Fat,"JL Raya Timur Montong Gamang, RT 2, Montong Gamang II, Montong Gamang, Kopang, Kopang Rembiga, Kec. Praya, Kabupaten Lombok Tengah, Nusa Tenggara Bar. 83553","RT 2, Montong Gamang II, Montong Gamang, Kopang, Kopang Rembiga, Kec. Praya, Kabupaten Lombok Tengah",NUSA TENGGARA BARAT,83553.0,Indonesia, 081917738786,,,-8.642229,116.356176,https://maps.google.com/?cid=0x0:0xb9bf45b5d3149e4f,
perumahan,Pembangunan Perumahan,Perumahan Pemda Lombok Tengah,"BTN Pemda Lombok Tengah Srigangga, Tiwugalih, Kec. Praya, Kabupaten Lombok Tengah, Nusa Tenggara Bar. 83511","Tiwugalih, Kec. Praya, Kabupaten Lombok Tengah",NUSA TENGGARA BARAT,83511.0,Indonesia,,,,-8.7047538,116.2947419,https://maps.google.com/?cid=0x0:0x41c67c2c741ef6ee,
perumahan,perumahan,Nusa Tenggara Bar. 83511,"Kabupaten Lombok Tengah, Nusa Tenggara Bar.","Kabupaten Lombok Tengah, Nusa Tenggara Bar.",NUSA TENGGARA BARAT,,Indonesia,,,,-8.6607732,116.2599913,https://maps.google.com/?cid=0x0:0x30110e027fbec2b,
perumahan,Perumahan,Perumahan Permata Klui,"8736+5PF, Unnamed Road, Leneng, Kec. Praya, Kabupaten Lombok Tengah, Nusa Tenggara Bar. 83514","Unnamed Road, Leneng, Kec. Praya, Kabupaten Lombok Tengah",NUSA TENGGARA BARAT,83514.0,Indonesia,,,,-8.6970732,116.2618079,https://maps.google.com/?cid=0x0:0xdd826775b36b0bc1,
perumahan,Komplek perumahan,RUMAH Ibu Attaqia,"Jl. Pahlawan Gg. Manggis No.7B, Praya, Kec. Praya, Kabupaten Lombok Tengah, Nusa Tenggara Bar. 83511","Praya, Kec. Praya, Kabupaten Lombok Tengah",NUSA TENGGARA BARAT,83511.0,Indonesia, 085238882163,,,-8.6999042,116.280351,https://maps.google.com/?cid=0x0:0x1557e243aae0fc07,
perumahan,Perumahan,PERMATA GARDEN PRAYA,"8768+342, Renteng, Kec. Praya, Kabupaten Lombok Tengah, Nusa Tenggara Bar. 83514","Renteng, Kec. Praya, Kabupaten Lombok Tengah",NUSA TENGGARA BARAT,83514.0,Indonesia,,,,-8.6901886,116.2651553,https://maps.google.com/?cid=0x0:0xaa09bbd8902d9dd0,
perumahan,Komplek perumahan,Perumahan Pesona Bukit Haniffa Blok D 12,"873Q+X85, Jl. H Lalu Hasim,buse, Bunut Baok, Kec. Praya, Kabupaten Lombok Tengah, Nusa Tenggara Bar. 83511","Jl. H Lalu Hasim,buse, Bunut Baok, Kec. Praya, Kabupaten Lombok Tengah",NUSA TENGGARA BARAT,83511.0,Indonesia,,,,-8.6951109,116.2883718,https://maps.google.com/?cid=0x0:0xeb7d0e6986b6311d,
perumahan,Otoritas Perumahan,BTN Rancak,"77XG+V3V, Praya, Kec. Praya, Kabupaten Lombok Tengah, Nusa Tenggara Bar. 83511","Praya, Kec. Praya, Kabupaten Lombok Tengah",NUSA TENGGARA BARAT,83511.0,Indonesia,,,,-8.7002691,116.2751757,https://maps.google.com/?cid=0x0:0x5a77c6a21208866f,
perumahan,Komplek perumahan,BTN RINJANI PERMAI,"Jl. Arya Banjar Getas No.5 blok A, Praya, Kec. Praya, Kabupaten Lombok Tengah, Nusa Tenggara Bar. 83511","Praya, Kec. Praya, Kabupaten Lombok Tengah",NUSA TENGGARA BARAT,83511.0,Indonesia,,,,-8.7011936,116.275118,https://maps.google.com/?cid=0x0:0xecc09fb7409ad9e8,
perumahan,Komplek perumahan,Rumah Ilman syukri,"9729+4QW, Panti, Jago, Kec. Praya, Kabupaten Lombok Tengah, Nusa Tenggara Bar.","Kabupaten Lombok Tengah, Nusa Tenggara Bar.",NUSA TENGGARA BARAT,,Indonesia,,,,-8.6496669,116.2696424,https://maps.google.com/?cid=0x0:0x94d320b710d386d6,
perumahan,Kantor Perusahaan,Perumahan PRAIA ESTATE ; Datu Agung Property,"Tiwugalih, Kec. Praya, Kabupaten Lombok Tengah, Nusa Tenggara Bar.","Kabupaten Lombok Tengah, Nusa Tenggara Bar.",NUSA TENGGARA BARAT,,Indonesia, 085925710585,,,-8.7109347,116.2891587,https://maps.google.com/?cid=0x0:0x6cc7fb34a29ffd62,
perumahan,Komplek perumahan,Kampung Mekar Sari,"Jl. Pahlawan No.3, Praya, Kec. Praya, Kabupaten Lombok Tengah, Nusa Tenggara Bar. 83511","Praya, Kec. Praya, Kabupaten Lombok Tengah",NUSA TENGGARA BARAT,83511.0,Indonesia,,,,-8.6996842,116.2806142,https://maps.google.com/?cid=0x0:0x77b214e35238a15,
perumahan,Komplek perumahan,Zohri Nurmalki,"87VQ+7C4, Jl. Raya Praya - Mantang, Aik Mual, Kec. Praya, Kabupaten Lombok Tengah, Nusa Tenggara Bar. 83511","Jl. Raya Praya - Mantang, Aik Mual, Kec. Praya, Kabupaten Lombok Tengah",NUSA TENGGARA BARAT,83511.0,Indonesia,,,,-8.6568609,116.288588,https://maps.google.com/?cid=0x0:0x3c42ad9329c49b1a,
perumahan,Komplek perumahan,THE RAMURA'S,"87W8+29W, Jago, Kec. Praya, Kabupaten Lombok Tengah, Nusa Tenggara Bar. 83511","Jago, Kec. Praya, Kabupaten Lombok Tengah",NUSA TENGGARA BARAT,83511.0,Indonesia,,,,-8.6548901,116.2659594,https://maps.google.com/?cid=0x0:0xc8f6dd245fb49452,
perumahan,Pondok,RUMAH KONTRAKAN KOS-KOSAN PRAYA LOMBOK TENGAH AL NABIL HARIAN BULANAN TAHUNAN,"Perumahan pemda blok c no 20, Belakang RSUD, Kec. Praya, Kabupaten Lombok Tengah, Nusa Tenggara Bar. 83511","Belakang RSUD, Kec. Praya, Kabupaten Lombok Tengah",NUSA TENGGARA BARAT,83511.0,Indonesia, 087864009960,,,-8.7045162,116.2950979,https://maps.google.com/?cid=0x0:0x6338f1624151d166,
perumahan,Kantor Perusahaan,Perumahan melati Praya residen,"77XG+R33, Jalan Arya Banjar, Getas, Praya, Central Lombok Regency, West Nusa Tenggara 83511","Jalan Arya Banjar, Getas, Praya, Central Lombok Regency",NUSA TENGGARA BARAT,83511.0,Indonesia,,,,-8.7004802,116.2751753,https://maps.google.com/?cid=0x0:0x467e48b94f78d64c,
perumahan,Komplek perumahan,Gedeng Lalu Zulhan,"Jl. Raya Praya - Mantang No.16, Mertak Tombok, Kec. Praya, Kabupaten Lombok Tengah, Nusa Tenggara Bar. 83511","Mertak Tombok, Kec. Praya, Kabupaten Lombok Tengah",NUSA TENGGARA BARAT,83511.0,Indonesia,,,,-8.665849,116.2854288,https://maps.google.com/?cid=0x0:0x79623cd6c897999,
perumahan,Perumahan,"BTN PEMDA BLOK Y, LINGKUNGAN SRIGANGGA KELURAHAN TIWUGALIH KECAMATAN PRAYA KABUPATEN LOMBOK TENGAH NUSA TENGGARA BARAT","77VV+H57, Jl. Srigangge No.4, Tiwugalih, Kec. Praya, Kabupaten Lombok Tengah, Nusa Tenggara Bar. 83511","Jl. Srigangge No.4, Tiwugalih, Kec. Praya, Kabupaten Lombok Tengah",NUSA TENGGARA BARAT,83511.0,Indonesia,,,,-8.7073952,116.2945283,https://maps.google.com/?cid=0x0:0x9eadc24a7b0cc1bf,
perumahan,Komplek perumahan,Dika's house,"lauq,mekar damai, Jl. Bebie Daye, Aik Mual, Kec. Praya, Kabupaten Lombok Tengah, Nusa Tenggara Bar. 83511","Jl. Bebie Daye, Aik Mual, Kec. Praya, Kabupaten Lombok Tengah",NUSA TENGGARA BARAT,83511.0,Indonesia,,,,-8.6486297,116.2759074,https://maps.google.com/?cid=0x0:0x878475ca8b36c72d,
perumahan,Pembangunan Perumahan,Bale Nana Nina,"Aik Mual, Kec. Praya, Kabupaten Lombok Tengah, Nusa Tenggara Bar. 83511","Kec. Praya, Kabupaten Lombok Tengah",NUSA TENGGARA BARAT,83511.0,Indonesia, 081935953817,,,-8.6527329,116.2817886,https://maps.google.com/?cid=0x0:0x1fd4ca8bfde309bf,
perumahan,Pembangunan Perumahan,Rumah akang dedi drs,"87GP+M9M, Mertak Tombok, Kec. Praya, Kabupaten Lombok Tengah, Nusa Tenggara Bar. 83511","Mertak Tombok, Kec. Praya, Kabupaten Lombok Tengah",NUSA TENGGARA BARAT,83511.0,Indonesia,,,,-8.672538,116.2851177,https://maps.google.com/?cid=0x0:0x33d6879ccd64728c,
perumahan,Pembangunan Perumahan,Perum TNI AD GILI LEBUR PRAYA,"77MG+M7P, Prapen, Kec. Praya, Kabupaten Lombok Tengah, Nusa Tenggara Bar. 83511","Prapen, Kec. Praya, Kabupaten Lombok Tengah",NUSA TENGGARA BARAT,83511.0,Indonesia,,,,-8.7157994,116.275699,https://maps.google.com/?cid=0x0:0x2b9230a14c71cab7,
perumahan,Komplek perumahan,Rumah choki,"878R+2MJ, Bunut Baok, Kec. Praya, Kabupaten Lombok Tengah, Nusa Tenggara Bar. 83511","Bunut Baok, Kec. Praya, Kabupaten Lombok Tengah",NUSA TENGGARA BARAT,83511.0,Indonesia,,,,-8.684913,116.291655,https://maps.google.com/?cid=0x0:0x9515d0c06edcfd56,
perumahan,Komplek perumahan,PERUMAHAN MAHKOTA PRAYA REGENCY (MPR),"77QW+83, Jontlak, Kec. Praya Tengah, Kabupaten Lombok Tengah, Nusa Tenggara Bar. 83513","Jontlak, Kec. Praya Tengah, Kabupaten Lombok Tengah",NUSA TENGGARA BARAT,83513.0,Indonesia,,,,-8.7115926,116.2951823,https://maps.google.com/?cid=0x0:0x2ce7d6e64a3ee8ea,
perumahan,Komplek perumahan,Rumah Raisa Azzahra,"Dusun Darwis, Aik Mual, Kec. Praya, Kabupaten Lombok Tengah, Nusa Tenggara Bar. 83511","Aik Mual, Kec. Praya, Kabupaten Lombok Tengah",NUSA TENGGARA BARAT,83511.0,Indonesia,,,,-8.6709369,116.2924697,https://maps.google.com/?cid=0x0:0x6d68683756cbe803,
perumahan,Komplek perumahan,Rumah Riyaaan,"974W+M3R, Montong Terep, Kec. Praya, Kabupaten Lombok Tengah, Nusa Tenggara Bar. 83511","Montong Terep, Kec. Praya, Kabupaten Lombok Tengah",NUSA TENGGARA BARAT,83511.0,Indonesia,,,,-8.6422824,116.295598,https://maps.google.com/?cid=0x0:0x92c5dd03ed4f6ffb,
perumahan,Perhimpunan Pengembang Perumahan,Rumah Nisa J.,"77XG+QMF, Praya, Kec. Praya, Kabupaten Lombok Tengah, Nusa Tenggara Bar. 83511","Praya, Kec. Praya, Kabupaten Lombok Tengah",NUSA TENGGARA BARAT,83511.0,Indonesia,,,,-8.7003536,116.2766894,https://maps.google.com/?cid=0x0:0xbde9b140bbad89cf,
perumahan,Komplek perumahan,RUMAHKOE,"972C+H36 Panti babas, Jago, Kec. Praya, Kabupaten Lombok Tengah, Nusa Tenggara Bar.","Kabupaten Lombok Tengah, Nusa Tenggara Bar.",NUSA TENGGARA BARAT,,Indonesia,,,,-8.648576,116.270143,https://maps.google.com/?cid=0x0:0x456aa770cf429cc7,
perumahan,Komplek perumahan,Bawak Bunut,"87MH+W6X, Aik Mual, Kec. Praya, Kabupaten Lombok Tengah, Nusa Tenggara Bar. 83511","Aik Mual, Kec. Praya, Kabupaten Lombok Tengah",NUSA TENGGARA BARAT,83511.0,Indonesia,,,,-8.6651385,116.2781073,https://maps.google.com/?cid=0x0:0xddb1faa162ac4969,
perumahan,Komplek perumahan,Aisah,"87M7+VP6, Unnamed Road, Jago, Kec. Praya, Kabupaten Lombok Tengah, Nusa Tenggara Bar. 83511","Unnamed Road, Jago, Kec. Praya, Kabupaten Lombok Tengah",NUSA TENGGARA BARAT,83511.0,Indonesia,,,,-8.665333,116.2642618,https://maps.google.com/?cid=0x0:0x9715bab731a6e409,
perumahan,Kantor Perusahaan,Perumahan PRAIA ESTATE ; Datu Agung Property,"Tiwugalih, Kec. Praya, Kabupaten Lombok Tengah, Nusa Tenggara Bar.","Kabupaten Lombok Tengah, Nusa Tenggara Bar.",NUSA TENGGARA BARAT,,Indonesia, 085925710585,,,-8.7109347,116.2891587,https://maps.google.com/?cid=0x0:0x6cc7fb34a29ffd62,
perumahan,Pembangunan Perumahan,PT. Datu Agung Properti,"77QM+VG4, Jl. TGH Lalu Faisal, Tiwugalih, Kec. Praya, Kabupaten Lombok Tengah, Nusa Tenggara Bar. 83518","Jl. TGH Lalu Faisal, Tiwugalih, Kec. Praya, Kabupaten Lombok Tengah",NUSA TENGGARA BARAT,83518.0,Indonesia,,,,-8.7103693,116.2838358,https://maps.google.com/?cid=0x0:0xa10489230500ef2a,
perumahan,perumahan,Nusa Tenggara Bar. 83512,"Kabupaten Lombok Tengah, Nusa Tenggara Bar.","Kabupaten Lombok Tengah, Nusa Tenggara Bar.",NUSA TENGGARA BARAT,,Indonesia,,,,-8.742576,116.2747547,https://maps.google.com/?cid=0x0:0x414a60f26304dbb8,
perumahan,Komplek perumahan,RUMAH SEHAT MUTIARA DUNIA,"77CR+J6Q, Semayan, Kec. Praya, Kabupaten Lombok Tengah, Nusa Tenggara Bar. 83513","Semayan, Kec. Praya, Kabupaten Lombok Tengah",NUSA TENGGARA BARAT,83513.0,Indonesia, 087748004451,,,-8.7284174,116.290617,https://maps.google.com/?cid=0x0:0x6f3c3e8e85918328,
perumahan,Komplek perumahan,TimientCompany,"77FP+83F, Semayan, Kec. Praya, Kabupaten Lombok Tengah, Nusa Tenggara Bar.","Kabupaten Lombok Tengah, Nusa Tenggara Bar.",NUSA TENGGARA BARAT,,Indonesia,,,,-8.7266835,116.2851588,https://maps.google.com/?cid=0x0:0x6da77743e27d8a15,
perumahan,Komplek perumahan,RUMAH MULIA ANISYA,"775R+H4X, Selbung, Lajut, Kec. Praya Tengah, Kabupaten Lombok Tengah, Nusa Tenggara Bar.","Kabupaten Lombok Tengah, Nusa Tenggara Bar.",NUSA TENGGARA BARAT,,Indonesia,,,,-8.7410018,116.2903731,https://maps.google.com/?cid=0x0:0x955ad73fa275d5f9,
perumahan,Tujuan Wisata,Dusun goleng mentokok praya barat,"67VH+CPQ, LOP Service Road, Penujak, Kec. Praya Bar., Kabupaten Lombok Tengah, Nusa Tenggara Bar. 83582","LOP Service Road, Penujak, Kec. Praya Bar., Kabupaten Lombok Tengah",NUSA TENGGARA BARAT,83582.0,Indonesia,,,,-8.7567451,116.2791249,https://maps.google.com/?cid=0x0:0x96fbfedf849d09fb,
perumahan,Komplek perumahan,Rumah Fathurrahman Jr Propok,"77FP+W2G, Unnamed Road, Sasake, Kec. Praya Tengah, Kabupaten Lombok Tengah, Nusa Tenggara Bar. 83513","Unnamed Road, Sasake, Kec. Praya Tengah, Kabupaten Lombok Tengah",NUSA TENGGARA BARAT,83513.0,Indonesia,,,,-8.7251796,116.2850786,https://maps.google.com/?cid=0x0:0x436f946e37f06328,
perumahan,Pembangunan Perumahan,Ganti,"69JV+7JQ, Ganti, Kec. Praya Tim., Kabupaten Lombok Tengah, Nusa Tenggara Bar. 83581","Ganti, Kec. Praya Tim., Kabupaten Lombok Tengah",NUSA TENGGARA BARAT,83581.0,Indonesia,,,,-8.7692893,116.3941169,https://maps.google.com/?cid=0x0:0xc0088918f2feedd5,
perumahan,Otoritas Perumahan,Tongkek,"77CR+G9, Sasake, Kec. Praya, Kabupaten Lombok Tengah, Nusa Tenggara Bar. 83513","Sasake, Kec. Praya, Kabupaten Lombok Tengah",NUSA TENGGARA BARAT,83513.0,Indonesia,,,,-8.7287957,116.2908923,https://maps.google.com/?cid=0x0:0x863f6543b887032b,
perumahan,Komplek perumahan,Perumahan Pesona Gerunung Asri,"875P+2PV, Unnamed Road, Bunut Baok, Nusa Tenggara Bar., Bunut Baok, Praya, Central Lombok Regency, West Nusa Tenggara 83514","Unnamed Road, Bunut Baok, Nusa Tenggara Bar., Bunut Baok, Praya, Central Lombok Regency",NUSA TENGGARA BARAT,83514.0,Indonesia, 0818365046,,,-8.6923929,116.2868061,https://maps.google.com/?cid=0x0:0x7854eafa3b66b913,
perumahan,Komplek perumahan,Kotak budhe,"776V+G8H, Jln nangis selebung, Lajut, Kec. Praya Tengah, Kabupaten Lombok Tengah, Nusa Tenggara Bar.","Kabupaten Lombok Tengah, Nusa Tenggara Bar.",NUSA TENGGARA BARAT,,Indonesia,,,,-8.7386958,116.2933543,https://maps.google.com/?cid=0x0:0xb42d005cfd52cee7,
perumahan,Komplek perumahan,Aruna Residence,"778J+PV2, Sasake, Kec. Praya Tengah, Kabupaten Lombok Tengah, Nusa Tenggara Bar.","Kabupaten Lombok Tengah, Nusa Tenggara Bar.",NUSA TENGGARA BARAT,,Indonesia,,,,-8.7332332,116.2821361,https://maps.google.com/?cid=0x0:0x4f4091295272be12,
perumahan,Komplek perumahan,Sasake,"77GQ+2MW, Semayan, Kec. Praya, Kabupaten Lombok Tengah, Nusa Tenggara Bar.","Kabupaten Lombok Tengah, Nusa Tenggara Bar.",NUSA TENGGARA BARAT,,Indonesia,,,,-8.7248798,116.2892016,https://maps.google.com/?cid=0x0:0xb7826df291d0ba85,
perumahan,Komplek perumahan,Bunao,"777X+M5, Lajut, Kec. Praya Tengah, Kabupaten Lombok Tengah, Nusa Tenggara Bar.","Kabupaten Lombok Tengah, Nusa Tenggara Bar.",NUSA TENGGARA BARAT,,Indonesia,,,,-8.7358876,116.2979033,https://maps.google.com/?cid=0x0:0xb9dfb80b08d37313,
perumahan,Pembangunan Perumahan,Taok lahir Ahmad Husari,"77CR+G9, Sasake, Kec. Praya, Kabupaten Lombok Tengah, Nusa Tenggara Bar. 83513","Sasake, Kec. Praya, Kabupaten Lombok Tengah",NUSA TENGGARA BARAT,83513.0,Indonesia,,,,-8.7287921,116.2908867,https://maps.google.com/?cid=0x0:0x52b4ae4183372d5d,
perumahan,Komplek perumahan,PUYUNG REGENCY,"Dusun BunSumpak. Kel. Puyung, Kec.Jonggat, Puyung, Kec. Praya, Kabupaten Lombok Tengah, Nusa Tenggara Bar. 83352","Kec.Jonggat, Puyung, Kec. Praya, Kabupaten Lombok Tengah",NUSA TENGGARA BARAT,83352.0,Indonesia, 081916006300,,,-8.6845043,116.2466196,https://maps.google.com/?cid=0x0:0xa5873c6ac936644e,
perumahan,Komplek perumahan,Rumah Liza_Kuratu,"77CR+J6Q, Semayan, Kec. Praya, Kabupaten Lombok Tengah, Nusa Tenggara Bar. 83513","Semayan, Kec. Praya, Kabupaten Lombok Tengah",NUSA TENGGARA BARAT,83513.0,Indonesia,,,,-8.7279237,116.2905333,https://maps.google.com/?cid=0x0:0x79bcc8efe4824ba,
perumahan,Komplek perumahan,Rumah Dimyati,"77CR+J6Q, Semayan, Kec. Praya, Kabupaten Lombok Tengah, Nusa Tenggara Bar. 83513","Semayan, Kec. Praya, Kabupaten Lombok Tengah",NUSA TENGGARA BARAT,83513.0,Indonesia,,,,-8.727454,116.2903657,https://maps.google.com/?cid=0x0:0x2f53302270f786e2,
perumahan,Komplek perumahan,Rizwan,"775Q+P8, Sasake, Kec. Praya Tengah, Kabupaten Lombok Tengah, Nusa Tenggara Bar. 83582","Sasake, Kec. Praya Tengah, Kabupaten Lombok Tengah",NUSA TENGGARA BARAT,83582.0,Indonesia,,,,-8.7398758,116.289275,https://maps.google.com/?cid=0x0:0x3b605ceb6fc44fd6,
perumahan,Perhimpunan Pengembang Perumahan,R. H. Husniah,"7744+R2M, Penujak, Kec. Praya Bar., Kabupaten Lombok Tengah, Nusa Tenggara Bar. 83516","Penujak, Kec. Praya Bar., Kabupaten Lombok Tengah",NUSA TENGGARA BARAT,83516.0,Indonesia,,,,-8.7429195,116.255047,https://maps.google.com/?cid=0x0:0xd3a88303ade20b94,
perumahan,Pembangunan Perumahan,Rumah Olin,"Tongkek, Sasake, Kec. Praya Tengah, Kabupaten Lombok Tengah, Nusa Tenggara Bar. 83513","Sasake, Kec. Praya Tengah, Kabupaten Lombok Tengah",NUSA TENGGARA BARAT,83513.0,Indonesia,,,,-8.7287497,116.2909729,https://maps.google.com/?cid=0x0:0xa25c4c493f485652,
perumahan,Pembangunan Perumahan,Roemah Mandalika,"Jl. Raya Batunyala No.17, Batunyala, Kec. Praya Tengah, Kabupaten Lombok Tengah, Nusa Tenggara Bar. 83582","Batunyala, Kec. Praya Tengah, Kabupaten Lombok Tengah",NUSA TENGGARA BARAT,83582.0,Indonesia, 081907760999,,,-8.7373801,116.3095648,https://maps.google.com/?cid=0x0:0xbb0ec8ae576e6f5b,
perumahan,Pembangunan Perumahan,SESAKE,"778J+PV2, Sasake, Kec. Praya Tengah, Kabupaten Lombok Tengah, Nusa Tenggara Bar.","Kabupaten Lombok Tengah, Nusa Tenggara Bar.",NUSA TENGGARA BARAT,,Indonesia,,,,-8.7332332,116.2821361,https://maps.google.com/?cid=0x0:0x6da8f98f304a05b7,
perumahan,Perhimpunan Pengembang Perumahan,Jago,"77CQ+7H2, Sasake, Kec. Praya Tengah, Kabupaten Lombok Tengah, Nusa Tenggara Bar. 83513","Sasake, Kec. Praya Tengah, Kabupaten Lombok Tengah",NUSA TENGGARA BARAT,83513.0,Indonesia,,,,-8.7293646,116.2889041,https://maps.google.com/?cid=0x0:0xa728bdf64d709e5b,
perumahan,perumahan,Nusa Tenggara Bar. 83514,"Kec. Praya, Kabupaten Lombok Tengah, Nusa Tenggara Bar.","Kabupaten Lombok Tengah, Nusa Tenggara Bar.",NUSA TENGGARA BARAT,,Indonesia,,,,-8.6923294,116.2747547,https://maps.google.com/?cid=0x0:0xbc09035d4191ee63,
perumahan,Perumahan,Perumahan Permata Klui,"8736+5PF, Unnamed Road, Leneng, Kec. Praya, Kabupaten Lombok Tengah, Nusa Tenggara Bar. 83514","Unnamed Road, Leneng, Kec. Praya, Kabupaten Lombok Tengah",NUSA TENGGARA BARAT,83514.0,Indonesia,,,,-8.6970732,116.2618079,https://maps.google.com/?cid=0x0:0xdd826775b36b0bc1,
perumahan,Perumahan,PERMATA GARDEN PRAYA,"8768+342, Renteng, Kec. Praya, Kabupaten Lombok Tengah, Nusa Tenggara Bar. 83514","Renteng, Kec. Praya, Kabupaten Lombok Tengah",NUSA TENGGARA BARAT,83514.0,Indonesia,,,,-8.6901886,116.2651553,https://maps.google.com/?cid=0x0:0xaa09bbd8902d9dd0,
perumahan,Komplek perumahan,Rumah Hime,"874G+WRJ, Praya, Kec. Praya, Kabupaten Lombok Tengah, Nusa Tenggara Bar. 83514","Praya, Kec. Praya, Kabupaten Lombok Tengah",NUSA TENGGARA BARAT,83514.0,Indonesia,,,,-8.69259,116.276835,https://maps.google.com/?cid=0x0:0x969aead9df590073,
perumahan,Perumahan,RENTENG AGUNG RESIDENCE,"Jalan Renteng Agung, Praya, Kec. Praya, Kabupaten Lombok Tengah, Nusa Tenggara Bar. 83511","Praya, Kec. Praya, Kabupaten Lombok Tengah",NUSA TENGGARA BARAT,83511.0,Indonesia, 087864881212,,,-8.6899622,116.2657886,https://maps.google.com/?cid=0x0:0x32406e3c1fd54122,
perumahan,Komplek perumahan,Kampung pengames,"Praya, Kec. Praya, Kabupaten Lombok Tengah, Nusa Tenggara Bar. 83518","Kec. Praya, Kabupaten Lombok Tengah",NUSA TENGGARA BARAT,83518.0,Indonesia,,,,-8.7049643,116.2805183,https://maps.google.com/?cid=0x0:0xb0fa40280af9ecf1,
perumahan,Komplek perumahan,Rumah Sahroni,"875G+2JG BTN, Elje Pratama, Praya, Kec. Praya, Kabupaten Lombok Tengah, Nusa Tenggara Bar. 83514","Elje Pratama, Praya, Kec. Praya, Kabupaten Lombok Tengah",NUSA TENGGARA BARAT,83514.0,Indonesia,,,,-8.6923732,116.2765663,https://maps.google.com/?cid=0x0:0x58b253761902f04a,
perumahan,Komplek perumahan,Rumah Koko (Suko Sunarsono),"8728+V6H, Gg. Anggrek, Leneng, Kec. Praya, Kabupaten Lombok Tengah, Nusa Tenggara Bar. 83514","Gg. Anggrek, Leneng, Kec. Praya, Kabupaten Lombok Tengah",NUSA TENGGARA BARAT,83514.0,Indonesia,,,,-8.697818,116.2656155,https://maps.google.com/?cid=0x0:0x88d0eca61176a3d9,
perumahan,Komplek perumahan,Puri L.A permai,"Praya, Kec. Praya, Kabupaten Lombok Tengah, Nusa Tenggara Bar. 83514","Kec. Praya, Kabupaten Lombok Tengah",NUSA TENGGARA BARAT,83514.0,Indonesia,,,,-8.6951517,116.2729716,https://maps.google.com/?cid=0x0:0x49d6c77d079da196,
perumahan,Komplek perumahan,Perumahan Pesona Gerunung Asri,"875P+2PV, Unnamed Road, Bunut Baok, Nusa Tenggara Bar., Bunut Baok, Praya, Central Lombok Regency, West Nusa Tenggara 83514","Unnamed Road, Bunut Baok, Nusa Tenggara Bar., Bunut Baok, Praya, Central Lombok Regency",NUSA TENGGARA BARAT,83514.0,Indonesia, 0818365046,,,-8.6923929,116.2868061,https://maps.google.com/?cid=0x0:0x7854eafa3b66b913,
perumahan,Pembangunan Perumahan,BTN Elje Pratama lendang jangkrik kelurahan gerunung,"874G+MJ6, Jl. Laskar, Gerunung, Kec. Praya, Kabupaten Lombok Tengah, Nusa Tenggara Bar. 83514","Jl. Laskar, Gerunung, Kec. Praya, Kabupaten Lombok Tengah",NUSA TENGGARA BARAT,83514.0,Indonesia, 081907988099,,,-8.6933487,116.2765174,https://maps.google.com/?cid=0x0:0xe6829f5c4702a939,
perumahan,Otoritas Perumahan,BTN Tastura Praya,"875P+GP5, kampung begak, tengah, Semayan, Kec. Praya, Kabupaten Lombok Tengah, Nusa Tenggara Bar. 83514","kampung begak, tengah, Semayan, Kec. Praya, Kabupaten Lombok Tengah",NUSA TENGGARA BARAT,83514.0,Indonesia,,,,-8.6912394,116.2868549,https://maps.google.com/?cid=0x0:0xd9e66e7f570565f0,
perumahan,Komplek perumahan,Kampung Mekar Sari,"Jl. Pahlawan No.3, Praya, Kec. Praya, Kabupaten Lombok Tengah, Nusa Tenggara Bar. 83511","Praya, Kec. Praya, Kabupaten Lombok Tengah",NUSA TENGGARA BARAT,83511.0,Indonesia,,,,-8.6996842,116.2806142,https://maps.google.com/?cid=0x0:0x77b214e35238a15,
perumahan,Komplek perumahan,Rumah Sukron Cukonk,"875H+HH7, Gerunung, Kec. Praya, Kabupaten Lombok Tengah, Nusa Tenggara Bar. 83514","Gerunung, Kec. Praya, Kabupaten Lombok Tengah",NUSA TENGGARA BARAT,83514.0,Indonesia,,,,-8.6910993,116.2789299,https://maps.google.com/?cid=0x0:0x7cdbcf5c7e9f3404,
perumahan,Otoritas Perumahan,BTN Rancak,"77XG+V3V, Praya, Kec. Praya, Kabupaten Lombok Tengah, Nusa Tenggara Bar. 83511","Praya, Kec. Praya, Kabupaten Lombok Tengah",NUSA TENGGARA BARAT,83511.0,Indonesia,,,,-8.7002691,116.2751757,https://maps.google.com/?cid=0x0:0x5a77c6a21208866f,
perumahan,Komplek perumahan,Wakan,"77X4+RFR, Wakan, Leneng, Kec. Praya, Kabupaten Lombok Tengah, Nusa Tenggara Bar.","Kabupaten Lombok Tengah, Nusa Tenggara Bar.",NUSA TENGGARA BARAT,,Indonesia,,,,-8.7003768,116.2561534,https://maps.google.com/?cid=0x0:0x6ef2603c97b571eb,
perumahan,Komplek perumahan,Desa pengkarek,"874H+534, Praya, Kec. Praya, Kabupaten Lombok Tengah, Nusa Tenggara Bar. 83514","Praya, Kec. Praya, Kabupaten Lombok Tengah",NUSA TENGGARA BARAT,83514.0,Indonesia,,,,-8.694623,116.2777073,https://maps.google.com/?cid=0x0:0x30ceb52431378f52,
perumahan,Komplek perumahan,BTN RINJANI PERMAI,"Jl. Arya Banjar Getas No.5 blok A, Praya, Kec. Praya, Kabupaten Lombok Tengah, Nusa Tenggara Bar. 83511","Praya, Kec. Praya, Kabupaten Lombok Tengah",NUSA TENGGARA BARAT,83511.0,Indonesia,,,,-8.7011936,116.275118,https://maps.google.com/?cid=0x0:0xecc09fb7409ad9e8,
perumahan,Komplek perumahan,Lingkungan Bayan,"8769+7H9, Gerunung, Kec. Praya, Kabupaten Lombok Tengah, Nusa Tenggara Bar.","Kabupaten Lombok Tengah, Nusa Tenggara Bar.",NUSA TENGGARA BARAT,,Indonesia,,,,-8.6893433,116.2689816,https://maps.google.com/?cid=0x0:0x5a984b2a1805a87d,
perumahan,Kantor Perusahaan,KETEJER RESIDENCE,"873J+Q8P, Jl. Basuki Rahmat, Praya, Kec. Praya, Kabupaten Lombok Tengah, Nusa Tenggara Bar. 83518","Jl. Basuki Rahmat, Praya, Kec. Praya, Kabupaten Lombok Tengah",NUSA TENGGARA BARAT,83518.0,Indonesia, 087850944484,,,-8.6961993,116.2798756,https://maps.google.com/?cid=0x0:0x8a18bbec82e9a3b8,
perumahan,Kantor Perusahaan,Perumahan PRAIA ESTATE ; Datu Agung Property,"Tiwugalih, Kec. Praya, Kabupaten Lombok Tengah, Nusa Tenggara Bar.","Kabupaten Lombok Tengah, Nusa Tenggara Bar.",NUSA TENGGARA BARAT,,Indonesia, 085925710585,,,-8.7109347,116.2891587,https://maps.google.com/?cid=0x0:0x6cc7fb34a29ffd62,
perumahan,Pembangunan Perumahan,PT. Datu Agung Properti,"77QM+VG4, Jl. TGH Lalu Faisal, Tiwugalih, Kec. Praya, Kabupaten Lombok Tengah, Nusa Tenggara Bar. 83518","Jl. TGH Lalu Faisal, Tiwugalih, Kec. Praya, Kabupaten Lombok Tengah",NUSA TENGGARA BARAT,83518.0,Indonesia,,,,-8.7103693,116.2838358,https://maps.google.com/?cid=0x0:0xa10489230500ef2a,
perumahan,Komplek perumahan,Runah Pak Abas Tebero,"8727+P58, Leneng, Kec. Praya, Kabupaten Lombok Tengah, Nusa Tenggara Bar. 83514","Leneng, Kec. Praya, Kabupaten Lombok Tengah",NUSA TENGGARA BARAT,83514.0,Indonesia,,,,-8.698208,116.2632931,https://maps.google.com/?cid=0x0:0x7d3442ae22cae06,
perumahan,Komplek perumahan,Perumahan Graha Palem Raja,"Renteng, Kec. Praya, Kabupaten Lombok Tengah, Nusa Tenggara Bar.","Kabupaten Lombok Tengah, Nusa Tenggara Bar.",NUSA TENGGARA BARAT,,Indonesia,,,,-8.6852684,116.2657796,https://maps.google.com/?cid=0x0:0x3851d11189ec90b7,
perumahan,Komplek perumahan,Roemah amaqn dolah,"8738+MQ3, Jl. Sultan Hasanuddin, Leneng, Kec. Praya, Kabupaten Lombok Tengah, Nusa Tenggara Bar. 83514","Jl. Sultan Hasanuddin, Leneng, Kec. Praya, Kabupaten Lombok Tengah",NUSA TENGGARA BARAT,83514.0,Indonesia,,,,-8.6958723,116.2669093,https://maps.google.com/?cid=0x0:0xda9274dc0ba40e41,
perumahan,Perhimpunan Pengembang Perumahan,Rumah Nisa J.,"77XG+QMF, Praya, Kec. Praya, Kabupaten Lombok Tengah, Nusa Tenggara Bar. 83511","Praya, Kec. Praya, Kabupaten Lombok Tengah",NUSA TENGGARA BARAT,83511.0,Indonesia,,,,-8.7003536,116.2766894,https://maps.google.com/?cid=0x0:0xbde9b140bbad89cf,
perumahan,,Tengari Repok,"77WG+7F8, Praya, Kec. Praya, Kabupaten Lombok Tengah, Nusa Tenggara Bar. 83511","Praya, Kec. Praya, Kabupaten Lombok Tengah",NUSA TENGGARA BARAT,83511.0,Indonesia,,,,-8.7043494,116.2761911,https://maps.google.com/?cid=0x0:0xeed02a6762c53cd1,
perumahan,Komplek perumahan,Rumah TGH Lalu Supardan Khalil S.Ag,"Jl. Basuki Rahmat No.60, Praya, Kec. Praya, Kabupaten Lombok Tengah, Nusa Tenggara Bar. 83518","Praya, Kec. Praya, Kabupaten Lombok Tengah",NUSA TENGGARA BARAT,83518.0,Indonesia, 081916074181,,,-8.7018006,116.28171,https://maps.google.com/?cid=0x0:0x8e87daa24b25a63f,
perumahan,perumahan,Nusa Tenggara Bar. 83515,"Batujai, Kec. Praya Bar., Kabupaten Lombok Tengah, Nusa Tenggara Bar.","Kabupaten Lombok Tengah, Nusa Tenggara Bar.",NUSA TENGGARA BARAT,,Indonesia,,,,-8.7191945,116.2511327,https://maps.google.com/?cid=0x0:0xc4ce55d169e25527,
perumahan,Perumahan,Perumahan Permata Klui,"8736+5PF, Unnamed Road, Leneng, Kec. Praya, Kabupaten Lombok Tengah, Nusa Tenggara Bar. 83514","Unnamed Road, Leneng, Kec. Praya, Kabupaten Lombok Tengah",NUSA TENGGARA BARAT,83514.0,Indonesia,,,,-8.6970732,116.2618079,https://maps.google.com/?cid=0x0:0xdd826775b36b0bc1,
perumahan,Komplek perumahan,Rumah kholis,"77H2+7W, Batujai, Kec. Praya Bar., Kabupaten Lombok Tengah, Nusa Tenggara Bar. 83515","Batujai, Kec. Praya Bar., Kabupaten Lombok Tengah",NUSA TENGGARA BARAT,83515.0,Indonesia,,,,-8.7218647,116.2523454,https://maps.google.com/?cid=0x0:0x351cff2d18beaaa3,
perumahan,Agen Properti,Rumah,"767V+4JG, Jl. Raya Sengkol, Batujai, Kec. Praya Bar., Kabupaten Lombok Tengah, Nusa Tenggara Bar. 83516","Jl. Raya Sengkol, Batujai, Kec. Praya Bar., Kabupaten Lombok Tengah",NUSA TENGGARA BARAT,83516.0,Indonesia,,,,-8.7255893,116.2537639,https://maps.google.com/?cid=0x0:0xbfb0241ca0464cd0,
perumahan,Komplek perumahan,Pedesaan,"76RP+66J, Unnamed Road, Batujai, Kec. Praya Bar., Kabupaten Lombok Tengah, Nusa Tenggara Bar. 83561","Unnamed Road, Batujai, Kec. Praya Bar., Kabupaten Lombok Tengah",NUSA TENGGARA BARAT,83561.0,Indonesia,,,,-8.7094013,116.2355008,https://maps.google.com/?cid=0x0:0x297befe0897436a,
perumahan,Perhimpunan Pengembang Perumahan,Perumahan Green Wage Residence,"77F3+GPX, Batujai, Kec. Praya Bar., Kabupaten Lombok Tengah, Nusa Tenggara Bar. 83516","Batujai, Kec. Praya Bar., Kabupaten Lombok Tengah",NUSA TENGGARA BARAT,83516.0,Indonesia,,,,-8.7261313,116.2543443,https://maps.google.com/?cid=0x0:0x543e2b0e74725597,
perumahan,,Tengari Repok,"77WG+7F8, Praya, Kec. Praya, Kabupaten Lombok Tengah, Nusa Tenggara Bar. 83511","Praya, Kec. Praya, Kabupaten Lombok Tengah",NUSA TENGGARA BARAT,83511.0,Indonesia,,,,-8.7043494,116.2761911,https://maps.google.com/?cid=0x0:0xeed02a6762c53cd1,
perumahan,Komplek perumahan,Moza,"77R7+8P9 Darul falah selatan, Panjisari, Kec. Praya, Kabupaten Lombok Tengah, Nusa Tenggara Bar. 83511","Panjisari, Kec. Praya, Kabupaten Lombok Tengah",NUSA TENGGARA BARAT,83511.0,Indonesia, 087889265242,,,-8.7092022,116.2643482,https://maps.google.com/?cid=0x0:0xecb66fbb1cb244ae,
perumahan,Otoritas Perumahan,BTN Rancak,"77XG+V3V, Praya, Kec. Praya, Kabupaten Lombok Tengah, Nusa Tenggara Bar. 83511","Praya, Kec. Praya, Kabupaten Lombok Tengah",NUSA TENGGARA BARAT,83511.0,Indonesia,,,,-8.7002691,116.2751757,https://maps.google.com/?cid=0x0:0x5a77c6a21208866f,
perumahan,Komplek perumahan,Wakan,"77X4+RFR, Wakan, Leneng, Kec. Praya, Kabupaten Lombok Tengah, Nusa Tenggara Bar.","Kabupaten Lombok Tengah, Nusa Tenggara Bar.",NUSA TENGGARA BARAT,,Indonesia,,,,-8.7003768,116.2561534,https://maps.google.com/?cid=0x0:0x6ef2603c97b571eb,
perumahan,Kantor Perusahaan,Perumahan PRAIA ESTATE ; Datu Agung Property,"Tiwugalih, Kec. Praya, Kabupaten Lombok Tengah, Nusa Tenggara Bar.","Kabupaten Lombok Tengah, Nusa Tenggara Bar.",NUSA TENGGARA BARAT,,Indonesia, 085925710585,,,-8.7109347,116.2891587,https://maps.google.com/?cid=0x0:0x6cc7fb34a29ffd62,
perumahan,Kantor Perusahaan,PT. Mandiri Golden Lombok Inti,"Jl. Raya Sengkol, Panjisari, Kec. Praya, Kabupaten Lombok Tengah, Nusa Tenggara Bar. 83516","Panjisari, Kec. Praya, Kabupaten Lombok Tengah",NUSA TENGGARA BARAT,83516.0,Indonesia, 087890366152,,,-8.713662,116.2600158,https://maps.google.com/?cid=0x0:0xf3f1f16bc6356377,
perumahan,Pembangunan Perumahan,Perum TNI AD GILI LEBUR PRAYA,"77MG+M7P, Prapen, Kec. Praya, Kabupaten Lombok Tengah, Nusa Tenggara Bar. 83511","Prapen, Kec. Praya, Kabupaten Lombok Tengah",NUSA TENGGARA BARAT,83511.0,Indonesia,,,,-8.7157994,116.275699,https://maps.google.com/?cid=0x0:0x2b9230a14c71cab7,
perumahan,Komplek perumahan,PERUMAHAN MAHKOTA PRAYA REGENCY (MPR),"77QW+83, Jontlak, Kec. Praya Tengah, Kabupaten Lombok Tengah, Nusa Tenggara Bar. 83513","Jontlak, Kec. Praya Tengah, Kabupaten Lombok Tengah",NUSA TENGGARA BARAT,83513.0,Indonesia,,,,-8.7115926,116.2951823,https://maps.google.com/?cid=0x0:0x2ce7d6e64a3ee8ea,
perumahan,Komplek perumahan,RUMAH Rozy yg baik dan tidak sombong,"77M4+WCJ, Jl. TGH. Lopan, Prapen, Kec. Praya, Kabupaten Lombok Tengah, Nusa Tenggara Bar. 83511","Jl. TGH. Lopan, Prapen, Kec. Praya, Kabupaten Lombok Tengah",NUSA TENGGARA BARAT,83511.0,Indonesia,,,,-8.7151518,116.2560089,https://maps.google.com/?cid=0x0:0xf9ca8318f64d511b,
perumahan,Pembangunan Perumahan,Nyong,"76RP+65Q, Batujai, Kec. Praya Bar., Kabupaten Lombok Tengah, Nusa Tenggara Bar. 83561","Batujai, Kec. Praya Bar., Kabupaten Lombok Tengah",NUSA TENGGARA BARAT,83561.0,Indonesia,,,,-8.7099096,116.2361784,https://maps.google.com/?cid=0x0:0xa7543b5dfda198f4,
perumahan,Otoritas Perumahan,BTN Tastura Praya,"875P+GP5, kampung begak, tengah, Semayan, Kec. Praya, Kabupaten Lombok Tengah, Nusa Tenggara Bar. 83514","kampung begak, tengah, Semayan, Kec. Praya, Kabupaten Lombok Tengah",NUSA TENGGARA BARAT,83514.0,Indonesia,,,,-8.6912394,116.2868549,https://maps.google.com/?cid=0x0:0xd9e66e7f570565f0,
perumahan,Komplek perumahan,RUMAH MENAN,"76PX+73W, Batujai, Kec. Praya Bar., Kabupaten Lombok Tengah, Nusa Tenggara Bar. 83515","Batujai, Kec. Praya Bar., Kabupaten Lombok Tengah",NUSA TENGGARA BARAT,83515.0,Indonesia,,,,-8.7143173,116.2471519,https://maps.google.com/?cid=0x0:0xd4ca040a6a604f65,
perumahan,Komplek perumahan,Rumah Roby,"76RV+C9F, Batujai, Kec. Praya Bar., Kabupaten Lombok Tengah, Nusa Tenggara Bar. 83521","Batujai, Kec. Praya Bar., Kabupaten Lombok Tengah",NUSA TENGGARA BARAT,83521.0,Indonesia,,,,-8.7089277,116.2434113,https://maps.google.com/?cid=0x0:0x66e68b14185b4792,
perumahan,Kantor Perusahaan,Perumahan melati Praya residen,"77XG+R33, Jalan Arya Banjar, Getas, Praya, Central Lombok Regency, West Nusa Tenggara 83511","Jalan Arya Banjar, Getas, Praya, Central Lombok Regency",NUSA TENGGARA BARAT,83511.0,Indonesia,,,,-8.7004802,116.2751753,https://maps.google.com/?cid=0x0:0x467e48b94f78d64c,
perumahan,Komplek perumahan,Leneng,"8727+9C4, Jl. Perkutut, Leneng, Kec. Praya, Kabupaten Lombok Tengah, Nusa Tenggara Bar.","Kabupaten Lombok Tengah, Nusa Tenggara Bar.",NUSA TENGGARA BARAT,,Indonesia,,,,-8.6991144,116.2635727,https://maps.google.com/?cid=0x0:0xc9eb6c6d83cb95a4,
perumahan,Pembangunan Perumahan,"BTN NAUFAL GRAND MUTIARA, DESA BATU ASAK , KEC. PRAYA BARAT , KAB. LOMBOK TENGAH, PROV. NUSA TENGGARA BARAT","76PW+6JM, Desa, Batu Asak, Praya Barat, Central Lombok Regency, West Nusa Tenggara","Kabupaten Lombok Tengah, Nusa Tenggara Bar.",NUSA TENGGARA BARAT,,Indonesia,,,,-8.7144212,116.2465313,https://maps.google.com/?cid=0x0:0xaea2d003d1eab1c3,
perumahan,Pembangunan Perumahan,Block E-02 Rumah Karel Sendow,"7792+R9X, Batujai, Kec. Praya Bar., Kabupaten Lombok Tengah, Nusa Tenggara Bar.","Kabupaten Lombok Tengah, Nusa Tenggara Bar.",NUSA TENGGARA BARAT,,Indonesia,,,,-8.7303922,116.2509989,https://maps.google.com/?cid=0x0:0x63a8413b0a392f7f,
perumahan,Komplek perumahan,Rumah Anggara dan Anggika,"Jl. Gajah Mada No.1, Leneng, Kec. Praya, Kabupaten Lombok Tengah, Nusa Tenggara Bar. 83521","Leneng, Kec. Praya, Kabupaten Lombok Tengah",NUSA TENGGARA BARAT,83521.0,Indonesia,,,,-8.7009373,116.2605942,https://maps.google.com/?cid=0x0:0xa5847a543427f69b,
perumahan,Komplek perumahan,Rumahnya Luisha/ mbak Eka,"77XG+6HW, Praya, Kec. Praya, Kabupaten Lombok Tengah, Nusa Tenggara Bar. 83511","Praya, Kec. Praya, Kabupaten Lombok Tengah",NUSA TENGGARA BARAT,83511.0,Indonesia,,,,-8.7019,116.2764678,https://maps.google.com/?cid=0x0:0x59efb99a07bd8fb7,
perumahan,perumahan,Nusa Tenggara Bar. 83516,"Batujai, Kec. Praya Bar., Kabupaten Lombok Tengah, Nusa Tenggara Bar.","Kabupaten Lombok Tengah, Nusa Tenggara Bar.",NUSA TENGGARA BARAT,,Indonesia,,,,-8.734273,116.2511327,https://maps.google.com/?cid=0x0:0x708cc977ca73d4d6,
perumahan,Agen Properti,Rumah,"767V+4JG, Jl. Raya Sengkol, Batujai, Kec. Praya Bar., Kabupaten Lombok Tengah, Nusa Tenggara Bar. 83516","Jl. Raya Sengkol, Batujai, Kec. Praya Bar., Kabupaten Lombok Tengah",NUSA TENGGARA BARAT,83516.0,Indonesia,,,,-8.7255893,116.2537639,https://maps.google.com/?cid=0x0:0xbfb0241ca0464cd0,
perumahan,Komplek perumahan,Ronseng desa batujai,"7773+V5, Batujai, Kec. Praya Bar., Kabupaten Lombok Tengah, Nusa Tenggara Bar. 83516","Batujai, Kec. Praya Bar., Kabupaten Lombok Tengah",NUSA TENGGARA BARAT,83516.0,Indonesia,,,,-8.7353519,116.2529083,https://maps.google.com/?cid=0x0:0x4770077e05dc1129,
perumahan,perumahan,Mukhlish,"765W+V43, Batujai, Kec. Praya Bar., Kabupaten Lombok Tengah, Nusa Tenggara Bar. 83516","Batujai, Kec. Praya Bar., Kabupaten Lombok Tengah",NUSA TENGGARA BARAT,83516.0,Indonesia,,,,-8.7404673,116.2449143,https://maps.google.com/?cid=0x0:0x825020d3764f2eef,
perumahan,Komplek perumahan,Perumahan Pagoda Asri Batujai,"769X+MPH, Jl. Raya Sengkol, Batujai, Kec. Praya Bar., Kabupaten Lombok Tengah, Nusa Tenggara Bar. 83516","Jl. Raya Sengkol, Batujai, Kec. Praya Bar., Kabupaten Lombok Tengah",NUSA TENGGARA BARAT,83516.0,Indonesia,,,,-8.7308006,116.2493581,https://maps.google.com/?cid=0x0:0xa8703acfc62f8067,
perumahan,Pembangunan Perumahan,Batulajang,"77F3+QG9, Jl. Raya Sengkol, Batujai, Kec. Praya, Kabupaten Lombok Tengah, Nusa Tenggara Bar. 83516","Jl. Raya Sengkol, Batujai, Kec. Praya, Kabupaten Lombok Tengah",NUSA TENGGARA BARAT,83516.0,Indonesia,,,,-8.7255861,116.2538534,https://maps.google.com/?cid=0x0:0xf088803a71d42f82,
perumahan,Komplek perumahan,Fikri lkh,"Jl. Raya Sengkol No.1100, Batujai, Kec. Praya Bar., Kabupaten Lombok Tengah, Nusa Tenggara Bar. 83516","Batujai, Kec. Praya Bar., Kabupaten Lombok Tengah",NUSA TENGGARA BARAT,83516.0,Indonesia,,,,-8.7324684,116.2474003,https://maps.google.com/?cid=0x0:0x4df5c91d556ef60a,
perumahan,Pembangunan Perumahan,Hendri's house,"Jl. Raya Sengkol No.1100, Batujai, Kec. Praya Bar., Kabupaten Lombok Tengah, Nusa Tenggara Bar. 83516","Batujai, Kec. Praya Bar., Kabupaten Lombok Tengah",NUSA TENGGARA BARAT,83516.0,Indonesia,,,,-8.7256413,116.2519045,https://maps.google.com/?cid=0x0:0xf911a919728dd28d,
perumahan,Komplek perumahan,Rumah Ayra,"767W+JF7, Batujai, Kec. Praya Bar., Kabupaten Lombok Tengah, Nusa Tenggara Bar. 83516","Batujai, Kec. Praya Bar., Kabupaten Lombok Tengah",NUSA TENGGARA BARAT,83516.0,Indonesia,,,,-8.7360914,116.2466819,https://maps.google.com/?cid=0x0:0x896ce10d696fb801,
perumahan,Komplek perumahan,Rumah Galih,"Jalan Raya Mandalika, Penujak, Kec. Praya Bar., Kabupaten Lombok Tengah, Nusa Tenggara Bar., POS, 83572","Penujak, Kec. Praya Bar., Kabupaten Lombok Tengah, Nusa Tenggara Bar.",NUSA TENGGARA BARAT,83572.0,Indonesia, 081907275413,,,-8.7471443,116.2411508,https://maps.google.com/?cid=0x0:0x6b5d0ae5d8237927,
perumahan,Kompleks Apartemen,Rumah Aruel 2,"Perumahan Pagoda asri VI No.14, Batujai, Kec. Praya Bar., Kabupaten Lombok Tengah, Nusa Tenggara Bar. 83516","Batujai, Kec. Praya Bar., Kabupaten Lombok Tengah",NUSA TENGGARA BARAT,83516.0,Indonesia,,,,-8.7312508,116.2492317,https://maps.google.com/?cid=0x0:0x54b185d8469441c3,
perumahan,Komplek perumahan,Perumahan Bypass Regency,"Jl. Bypass Bandara Int. Lombok No.16, Batujai, Kec. Praya Bar., Kabupaten Lombok Tengah, Nusa Tenggara Bar. 83572","Batujai, Kec. Praya Bar., Kabupaten Lombok Tengah",NUSA TENGGARA BARAT,83572.0,Indonesia, 081916016757,,,-8.7324537,116.2344195,https://maps.google.com/?cid=0x0:0x4700eb9e4cfb3a73,
perumahan,Komplek perumahan,Rumah kholis,"77H2+7W, Batujai, Kec. Praya Bar., Kabupaten Lombok Tengah, Nusa Tenggara Bar. 83515","Batujai, Kec. Praya Bar., Kabupaten Lombok Tengah",NUSA TENGGARA BARAT,83515.0,Indonesia,,,,-8.7218647,116.2523454,https://maps.google.com/?cid=0x0:0x351cff2d18beaaa3,
perumahan,Komplek perumahan,Gabak,"767V+598, Batujai, Kec. Praya Bar., Kabupaten Lombok Tengah, Nusa Tenggara Bar. 83572","Batujai, Kec. Praya Bar., Kabupaten Lombok Tengah",NUSA TENGGARA BARAT,83572.0,Indonesia,,,,-8.7370938,116.2434532,https://maps.google.com/?cid=0x0:0x23227b6eec3fb465,
perumahan,Perhimpunan Pengembang Perumahan,R. H. Husniah,"7744+R2M, Penujak, Kec. Praya Bar., Kabupaten Lombok Tengah, Nusa Tenggara Bar. 83516","Penujak, Kec. Praya Bar., Kabupaten Lombok Tengah",NUSA TENGGARA BARAT,83516.0,Indonesia,,,,-8.7429195,116.255047,https://maps.google.com/?cid=0x0:0xd3a88303ade20b94,
perumahan,Komplek perumahan,Toko wasis,"77G4+2V4 Embung penyampet, Batujai, Kec. Praya Bar., Kabupaten Lombok Tengah, Nusa Tenggara Bar.","Kabupaten Lombok Tengah, Nusa Tenggara Bar.",NUSA TENGGARA BARAT,,Indonesia,,,,-8.7249903,116.2571926,https://maps.google.com/?cid=0x0:0x4037ea686bd4ed4a,
perumahan,Komplek perumahan,Rumah,"766W+G9J, Jl. Bypass Bandara Int. Lombok, Batujai, Kec. Praya Bar., Kabupaten Lombok Tengah, Nusa Tenggara Bar. 83516","Jl. Bypass Bandara Int. Lombok, Batujai, Kec. Praya Bar., Kabupaten Lombok Tengah",NUSA TENGGARA BARAT,83516.0,Indonesia,,,,-8.738652,116.2458993,https://maps.google.com/?cid=0x0:0x7b6e6057ba36d470,
perumahan,Komplek perumahan,Rumah H. Banjar Ihsan,"7793+RMQ, Batujai, Kec. Praya Bar., Kabupaten Lombok Tengah, Nusa Tenggara Bar. 83516","Batujai, Kec. Praya Bar., Kabupaten Lombok Tengah",NUSA TENGGARA BARAT,83516.0,Indonesia,,,,-8.7304192,116.2542288,https://maps.google.com/?cid=0x0:0xb82af87ea4ce99a7,
perumahan,Komplek perumahan,Rumah AQ Rusdi,"767W+JF7, Batujai, Kec. Praya Bar., Kabupaten Lombok Tengah, Nusa Tenggara Bar. 83516","Batujai, Kec. Praya Bar., Kabupaten Lombok Tengah",NUSA TENGGARA BARAT,83516.0,Indonesia,,,,-8.7361043,116.2462946,https://maps.google.com/?cid=0x0:0x4f81f49f2777f81b,
perumahan,Pembangunan Perumahan,Block E-02 Rumah Karel Sendow,"7792+R9X, Batujai, Kec. Praya Bar., Kabupaten Lombok Tengah, Nusa Tenggara Bar.","Kabupaten Lombok Tengah, Nusa Tenggara Bar.",NUSA TENGGARA BARAT,,Indonesia,,,,-8.7303922,116.2509989,https://maps.google.com/?cid=0x0:0x63a8413b0a392f7f,
perumahan,Pembangunan Perumahan,Tempos Adong Penujak prabar,"7782+7FR Majlis Ta'lim YAMAN NW Tempos Adong, Penujak, Kec. Praya Bar., Kabupaten Lombok Tengah, Nusa Tenggara Bar. 83516","Penujak, Kec. Praya Bar., Kabupaten Lombok Tengah",NUSA TENGGARA BARAT,83516.0,Indonesia,,,,-8.734273,116.2511327,https://maps.google.com/?cid=0x0:0xbcc0cff80652ffb3,
perumahan,Komplek perumahan,Rumah Syukur Al-Ghazali,"Jl. Bypass Bandara Int. Lombok No.KM5, Batujai, Kec. Praya Bar., Kabupaten Lombok Tengah, Nusa Tenggara Bar. 83572","Batujai, Kec. Praya Bar., Kabupaten Lombok Tengah",NUSA TENGGARA BARAT,83572.0,Indonesia,,,,-8.735613,116.240123,https://maps.google.com/?cid=0x0:0x7d3593b96ce06e9c,
perumahan,Komplek perumahan,Rumah Lydia Febriani,"766R+RHJ, Gang Belakang SDN 1, Batujai, Kec. Praya Bar., Kabupaten Lombok Tengah, Nusa Tenggara Bar.","Kabupaten Lombok Tengah, Nusa Tenggara Bar.",NUSA TENGGARA BARAT,,Indonesia,,,,-8.7379061,116.2413879,https://maps.google.com/?cid=0x0:0x9af06d3926df2080,
perumahan,Perumahan,Perumahan Permata Klui,"8736+5PF, Unnamed Road, Leneng, Kec. Praya, Kabupaten Lombok Tengah, Nusa Tenggara Bar. 83514","Unnamed Road, Leneng, Kec. Praya, Kabupaten Lombok Tengah",NUSA TENGGARA BARAT,83514.0,Indonesia,,,,-8.6970732,116.2618079,https://maps.google.com/?cid=0x0:0xdd826775b36b0bc1,
perumahan,Komplek perumahan,Perumahan Graha Punik praya,"Jl. Guru Bangkol, Tiwugalih, Kec. Praya, Kabupaten Lombok Tengah, Nusa Tenggara Bar. 83518","Tiwugalih, Kec. Praya, Kabupaten Lombok Tengah",NUSA TENGGARA BARAT,83518.0,Indonesia, 087766646444,,,-8.7148249,116.2808614,https://maps.google.com/?cid=0x0:0xfba4c4464b5654de,
perumahan,perumahan,Nusa Tenggara Bar. 83518,"Kec. Praya, Kabupaten Lombok Tengah, Nusa Tenggara Bar.","Kabupaten Lombok Tengah, Nusa Tenggara Bar.",NUSA TENGGARA BARAT,,Indonesia,,,,-8.7115505,116.2865649,https://maps.google.com/?cid=0x0:0x13d821e71e5fbe29,
perumahan,Pembangunan Perumahan,Ntb,"77RH+7V8, Praya, Kec. Praya, Kabupaten Lombok Timur, Nusa Tenggara Bar. 83518","Praya, Kec. Praya, Kabupaten Lombok Timur",NUSA TENGGARA BARAT,83518.0,Indonesia,,,,-8.70933,116.2797069,https://maps.google.com/?cid=0x0:0x8fd2c176c203a1b6,
perumahan,Komplek perumahan,Perumnas Tampar ampar,"Jl. Trembesi No.13, RT.06/RW.02, Jontlak, Kec. Praya, Kabupaten Lombok Tengah, Nusa Tenggara Bar. 83518","RT.06/RW.02, Jontlak, Kec. Praya, Kabupaten Lombok Tengah",NUSA TENGGARA BARAT,83518.0,Indonesia, 081260778440,,,-8.7166267,116.2917034,https://maps.google.com/?cid=0x0:0x83f832430d3a135e,
perumahan,Komplek perumahan,Rumah TGH Lalu Supardan Khalil S.Ag,"Jl. Basuki Rahmat No.60, Praya, Kec. Praya, Kabupaten Lombok Tengah, Nusa Tenggara Bar. 83518","Praya, Kec. Praya, Kabupaten Lombok Tengah",NUSA TENGGARA BARAT,83518.0,Indonesia, 081916074181,,,-8.7018006,116.28171,https://maps.google.com/?cid=0x0:0x8e87daa24b25a63f,
perumahan,Pembangunan Perumahan,Perumahan Pemda Lombok Tengah,"BTN Pemda Lombok Tengah Srigangga, Tiwugalih, Kec. Praya, Kabupaten Lombok Tengah, Nusa Tenggara Bar. 83511","Tiwugalih, Kec. Praya, Kabupaten Lombok Tengah",NUSA TENGGARA BARAT,83511.0,Indonesia,,,,-8.7047538,116.2947419,https://maps.google.com/?cid=0x0:0x41c67c2c741ef6ee,
perumahan,Komplek perumahan,Kmp. Surabaya,"77QP+725, Jl. Srigangga Kel, Tiwugalih, Kec. Praya, Kabupaten Lombok Tengah, Nusa Tenggara Bar. 83518","Jl. Srigangga Kel, Tiwugalih, Kec. Praya, Kabupaten Lombok Tengah",NUSA TENGGARA BARAT,83518.0,Indonesia, 087700069181,,,-8.711875,116.2851028,https://maps.google.com/?cid=0x0:0x2048a0f6e91251d8,
perumahan,Komplek perumahan,PERUMAHAN MAHKOTA PRAYA REGENCY (MPR),"77QW+83, Jontlak, Kec. Praya Tengah, Kabupaten Lombok Tengah, Nusa Tenggara Bar. 83513","Jontlak, Kec. Praya Tengah, Kabupaten Lombok Tengah",NUSA TENGGARA BARAT,83513.0,Indonesia,,,,-8.7115926,116.2951823,https://maps.google.com/?cid=0x0:0x2ce7d6e64a3ee8ea,
perumahan,Komplek perumahan,Rumah ku,"77MH+CPC, Tiwugalih, Kec. Praya, Kabupaten Lombok Tengah, Nusa Tenggara Bar. 83518","Tiwugalih, Kec. Praya, Kabupaten Lombok Tengah",NUSA TENGGARA BARAT,83518.0,Indonesia,,,,-8.7161045,116.2796739,https://maps.google.com/?cid=0x0:0x86a45acd7dc2c46e,
perumahan,Komplek perumahan,Rumah Beringin,"Jl Beringin Perumnas Tampar Ampar No.1 Blok 04/I, Jontlak, Kec. Praya Tengah, Kabupaten Lombok Tengah, Nusa Tenggara Bar. 83513","Jontlak, Kec. Praya Tengah, Kabupaten Lombok Tengah",NUSA TENGGARA BARAT,83513.0,Indonesia,,,,-8.7152327,116.2924675,https://maps.google.com/?cid=0x0:0x80b9acefe7f18727,
perumahan,Penginapan,Rusun...praya,"77JQ+QR8, Jl. Pejanggik, Jontlak, Kec. Praya Tengah, Kabupaten Lombok Tengah, Nusa Tenggara Bar. 83513","Jl. Pejanggik, Jontlak, Kec. Praya Tengah, Kabupaten Lombok Tengah",NUSA TENGGARA BARAT,83513.0,Indonesia,,,,-8.7180915,116.2895859,https://maps.google.com/?cid=0x0:0x88696ca4b711ec13,
perumahan,Komplek perumahan,Rumah Amim,"77PM+96C, Karang bali, Tiwugalih, Kec. Praya, Kabupaten Lombok Tengah, Nusa Tenggara Bar. 83518","Karang bali, Tiwugalih, Kec. Praya, Kabupaten Lombok Tengah",NUSA TENGGARA BARAT,83518.0,Indonesia,,,,-8.7140741,116.2830278,https://maps.google.com/?cid=0x0:0x4300cf57627b802d,
perumahan,Komplek perumahan,Rumah EDWAR,"77JM+9M7, Semayan, Kec. Praya, Kabupaten Lombok Tengah, Nusa Tenggara Bar. 83518","Semayan, Kec. Praya, Kabupaten Lombok Tengah",NUSA TENGGARA BARAT,83518.0,Indonesia,,,,-8.7191843,116.2845855,https://maps.google.com/?cid=0x0:0xa2e625693f94e3cb,
perumahan,Komplek perumahan,Gang akrab,"Jl. Guru Bangkol No.160, Tiwugalih, Kec. Praya, Kabupaten Lombok Tengah, Nusa Tenggara Bar. 83518","Tiwugalih, Kec. Praya, Kabupaten Lombok Tengah",NUSA TENGGARA BARAT,83518.0,Indonesia,,,,-8.7155889,116.2801331,https://maps.google.com/?cid=0x0:0xa6a7aadf884fd138,
perumahan,Komplek perumahan,Lalu Surnarijal,"77PQ+6XH, Jl. Taman Arum, Jontlak, Kec. Praya Tengah, Kabupaten Lombok Tengah, Nusa Tenggara Bar. 83518","Jl. Taman Arum, Jontlak, Kec. Praya Tengah, Kabupaten Lombok Tengah",NUSA TENGGARA BARAT,83518.0,Indonesia,,,,-8.7139999,116.2903792,https://maps.google.com/?cid=0x0:0x359f5c4829f9b99,
perumahan,Perumahan,"BTN PEMDA BLOK Y, LINGKUNGAN SRIGANGGA KELURAHAN TIWUGALIH KECAMATAN PRAYA KABUPATEN LOMBOK TENGAH NUSA TENGGARA BARAT","77VV+H57, Jl. Srigangge No.4, Tiwugalih, Kec. Praya, Kabupaten Lombok Tengah, Nusa Tenggara Bar. 83511","Jl. Srigangge No.4, Tiwugalih, Kec. Praya, Kabupaten Lombok Tengah",NUSA TENGGARA BARAT,83511.0,Indonesia,,,,-8.7073952,116.2945283,https://maps.google.com/?cid=0x0:0x9eadc24a7b0cc1bf,
perumahan,Kantor Perusahaan,KETEJER RESIDENCE,"873J+Q8P, Jl. Basuki Rahmat, Praya, Kec. Praya, Kabupaten Lombok Tengah, Nusa Tenggara Bar. 83518","Jl. Basuki Rahmat, Praya, Kec. Praya, Kabupaten Lombok Tengah",NUSA TENGGARA BARAT,83518.0,Indonesia, 087850944484,,,-8.6961993,116.2798756,https://maps.google.com/?cid=0x0:0x8a18bbec82e9a3b8,
perumahan,Perumahan,Rumah Alifhia,"Praya, Kec. Praya, Kabupaten Lombok Tengah, Nusa Tenggara Bar. 83518","Kec. Praya, Kabupaten Lombok Tengah",NUSA TENGGARA BARAT,83518.0,Indonesia,,,,-8.7066048,116.2818209,https://maps.google.com/?cid=0x0:0xbc7f34aa8e39373c,
perumahan,Komplek perumahan,Perumahan Pesona Bukit Haniffa Blok D 12,"873Q+X85, Jl. H Lalu Hasim,buse, Bunut Baok, Kec. Praya, Kabupaten Lombok Tengah, Nusa Tenggara Bar. 83511","Jl. H Lalu Hasim,buse, Bunut Baok, Kec. Praya, Kabupaten Lombok Tengah",NUSA TENGGARA BARAT,83511.0,Indonesia,,,,-8.6951109,116.2883718,https://maps.google.com/?cid=0x0:0xeb7d0e6986b6311d,
perumahan,Sekolah,Lingkungan Balungadang,"77VJ+QVX, Praya, Kec. Praya, Kabupaten Lombok Tengah, Nusa Tenggara Bar. 83518","Praya, Kec. Praya, Kabupaten Lombok Tengah",NUSA TENGGARA BARAT,83518.0,Indonesia,,,,-8.7055132,116.2822393,https://maps.google.com/?cid=0x0:0xcaa0563de262acb9,
perumahan,Komplek perumahan,ZULFA VILLA,"77JH+QHV, Tiwugalih, Kec. Praya, Kabupaten Lombok Tengah, Nusa Tenggara Bar. 83518","Tiwugalih, Kec. Praya, Kabupaten Lombok Tengah",NUSA TENGGARA BARAT,83518.0,Indonesia,,,,-8.718017,116.2789825,https://maps.google.com/?cid=0x0:0x52ed792177f75a0e,
perumahan,Komplek perumahan,Kampung Mekar Sari,"Jl. Pahlawan No.3, Praya, Kec. Praya, Kabupaten Lombok Tengah, Nusa Tenggara Bar. 83511","Praya, Kec. Praya, Kabupaten Lombok Tengah",NUSA TENGGARA BARAT,83511.0,Indonesia,,,,-8.6996842,116.2806142,https://maps.google.com/?cid=0x0:0x77b214e35238a15,
perumahan,Kompleks Apartemen,L. Erfan House,"77MH+CPC, Tiwugalih, Kec. Praya, Kabupaten Lombok Tengah, Nusa Tenggara Bar. 83518","Tiwugalih, Kec. Praya, Kabupaten Lombok Tengah",NUSA TENGGARA BARAT,83518.0,Indonesia,,,,-8.7164348,116.2792785,https://maps.google.com/?cid=0x0:0xf4b8d4fbbdad483d,
perumahan,Komplek perumahan,Aulia's house,"77JP+9H, Semayan, Kec. Praya, Kabupaten Lombok Tengah, Nusa Tenggara Bar. 83518","Semayan, Kec. Praya, Kabupaten Lombok Tengah",NUSA TENGGARA BARAT,83518.0,Indonesia,,,,-8.7190801,116.2864496,https://maps.google.com/?cid=0x0:0xa2e930c497763e9c,
perumahan,perumahan,Nusa Tenggara Bar. 83519,"Batujai, Kec. Praya Bar., Kabupaten Lombok Tengah, Nusa Tenggara Bar.","Kabupaten Lombok Tengah, Nusa Tenggara Bar.",NUSA TENGGARA BARAT,,Indonesia,,,,-8.738425,116.262944,https://maps.google.com/?cid=0x0:0x4a7c2463e5c157ce,
perumahan,Komplek perumahan,Perumahan Graha Punik praya,"Jl. Guru Bangkol, Tiwugalih, Kec. Praya, Kabupaten Lombok Tengah, Nusa Tenggara Bar. 83518","Tiwugalih, Kec. Praya, Kabupaten Lombok Tengah",NUSA TENGGARA BARAT,83518.0,Indonesia, 087766646444,,,-8.7148249,116.2808614,https://maps.google.com/?cid=0x0:0xfba4c4464b5654de,
perumahan,Agen Properti,Rumah,"767V+4JG, Jl. Raya Sengkol, Batujai, Kec. Praya Bar., Kabupaten Lombok Tengah, Nusa Tenggara Bar. 83516","Jl. Raya Sengkol, Batujai, Kec. Praya Bar., Kabupaten Lombok Tengah",NUSA TENGGARA BARAT,83516.0,Indonesia,,,,-8.7255893,116.2537639,https://maps.google.com/?cid=0x0:0xbfb0241ca0464cd0,
perumahan,Komplek perumahan,PERUMAHAN MAHKOTA PRAYA REGENCY (MPR),"77QW+83, Jontlak, Kec. Praya Tengah, Kabupaten Lombok Tengah, Nusa Tenggara Bar. 83513","Jontlak, Kec. Praya Tengah, Kabupaten Lombok Tengah",NUSA TENGGARA BARAT,83513.0,Indonesia,,,,-8.7115926,116.2951823,https://maps.google.com/?cid=0x0:0x2ce7d6e64a3ee8ea,
perumahan,Komplek perumahan,Rumah Fathurrahman Jr Propok,"77FP+W2G, Unnamed Road, Sasake, Kec. Praya Tengah, Kabupaten Lombok Tengah, Nusa Tenggara Bar. 83513","Unnamed Road, Sasake, Kec. Praya Tengah, Kabupaten Lombok Tengah",NUSA TENGGARA BARAT,83513.0,Indonesia,,,,-8.7251796,116.2850786,https://maps.google.com/?cid=0x0:0x436f946e37f06328,
perumahan,Komplek perumahan,Ronseng desa batujai,"7773+V5, Batujai, Kec. Praya Bar., Kabupaten Lombok Tengah, Nusa Tenggara Bar. 83516","Batujai, Kec. Praya Bar., Kabupaten Lombok Tengah",NUSA TENGGARA BARAT,83516.0,Indonesia,,,,-8.7353519,116.2529083,https://maps.google.com/?cid=0x0:0x4770077e05dc1129,
perumahan,Komplek perumahan,Toko wasis,"77G4+2V4 Embung penyampet, Batujai, Kec. Praya Bar., Kabupaten Lombok Tengah, Nusa Tenggara Bar.","Kabupaten Lombok Tengah, Nusa Tenggara Bar.",NUSA TENGGARA BARAT,,Indonesia,,,,-8.7249903,116.2571926,https://maps.google.com/?cid=0x0:0x4037ea686bd4ed4a,
perumahan,Komplek perumahan,Rumah ku,"77MH+CPC, Tiwugalih, Kec. Praya, Kabupaten Lombok Tengah, Nusa Tenggara Bar. 83518","Tiwugalih, Kec. Praya, Kabupaten Lombok Tengah",NUSA TENGGARA BARAT,83518.0,Indonesia,,,,-8.7161045,116.2796739,https://maps.google.com/?cid=0x0:0x86a45acd7dc2c46e,
perumahan,Komplek perumahan,Salshabila Nadhifa,"7764+G3G, Batujai, Kec. Praya Tengah, Kabupaten Lombok Tengah, Nusa Tenggara Bar. 83519","Batujai, Kec. Praya Tengah, Kabupaten Lombok Tengah",NUSA TENGGARA BARAT,83519.0,Indonesia,,,,-8.7386808,116.2549236,https://maps.google.com/?cid=0x0:0xf4279a96f2b0e406,
perumahan,Pembangunan Perumahan,Block E-02 Rumah Karel Sendow,"7792+R9X, Batujai, Kec. Praya Bar., Kabupaten Lombok Tengah, Nusa Tenggara Bar.","Kabupaten Lombok Tengah, Nusa Tenggara Bar.",NUSA TENGGARA BARAT,,Indonesia,,,,-8.7303922,116.2509989,https://maps.google.com/?cid=0x0:0x63a8413b0a392f7f,
perumahan,Komplek perumahan,Gang akrab,"Jl. Guru Bangkol No.160, Tiwugalih, Kec. Praya, Kabupaten Lombok Tengah, Nusa Tenggara Bar. 83518","Tiwugalih, Kec. Praya, Kabupaten Lombok Tengah",NUSA TENGGARA BARAT,83518.0,Indonesia,,,,-8.7155889,116.2801331,https://maps.google.com/?cid=0x0:0xa6a7aadf884fd138,
perumahan,Komplek perumahan,Sasake,"77GQ+2MW, Semayan, Kec. Praya, Kabupaten Lombok Tengah, Nusa Tenggara Bar.","Kabupaten Lombok Tengah, Nusa Tenggara Bar.",NUSA TENGGARA BARAT,,Indonesia,,,,-8.7248798,116.2892016,https://maps.google.com/?cid=0x0:0xb7826df291d0ba85,
perumahan,Komplek perumahan,Aruna Residence,"778J+PV2, Sasake, Kec. Praya Tengah, Kabupaten Lombok Tengah, Nusa Tenggara Bar.","Kabupaten Lombok Tengah, Nusa Tenggara Bar.",NUSA TENGGARA BARAT,,Indonesia,,,,-8.7332332,116.2821361,https://maps.google.com/?cid=0x0:0x4f4091295272be12,
perumahan,Kantor Perusahaan,Perumahan PRAIA ESTATE ; Datu Agung Property,"Tiwugalih, Kec. Praya, Kabupaten Lombok Tengah, Nusa Tenggara Bar.","Kabupaten Lombok Tengah, Nusa Tenggara Bar.",NUSA TENGGARA BARAT,,Indonesia, 085925710585,,,-8.7109347,116.2891587,https://maps.google.com/?cid=0x0:0x6cc7fb34a29ffd62,
perumahan,Komplek perumahan,Rumah H. Banjar Ihsan,"7793+RMQ, Batujai, Kec. Praya Bar., Kabupaten Lombok Tengah, Nusa Tenggara Bar. 83516","Batujai, Kec. Praya Bar., Kabupaten Lombok Tengah",NUSA TENGGARA BARAT,83516.0,Indonesia,,,,-8.7304192,116.2542288,https://maps.google.com/?cid=0x0:0xb82af87ea4ce99a7,
perumahan,Komplek perumahan,Rumah,"77J5+V33, Kampung semarang, Prapen, Kec. Praya, Kabupaten Lombok Tengah, Nusa Tenggara Bar.","Kabupaten Lombok Tengah, Nusa Tenggara Bar.",NUSA TENGGARA BARAT,,Indonesia,,,,-8.7178557,116.2576794,https://maps.google.com/?cid=0x0:0x6413984bc514b639,
perumahan,Pembangunan Perumahan,Perum TNI AD GILI LEBUR PRAYA,"77MG+M7P, Prapen, Kec. Praya, Kabupaten Lombok Tengah, Nusa Tenggara Bar. 83511","Prapen, Kec. Praya, Kabupaten Lombok Tengah",NUSA TENGGARA BARAT,83511.0,Indonesia,,,,-8.7157994,116.275699,https://maps.google.com/?cid=0x0:0x2b9230a14c71cab7,
perumahan,Komplek perumahan,rumah oya cantik,"77JH+QHV, Tiwugalih, Kec. Praya, Kabupaten Lombok Tengah, Nusa Tenggara Bar. 83518","Tiwugalih, Kec. Praya, Kabupaten Lombok Tengah",NUSA TENGGARA BARAT,83518.0,Indonesia,,,,-8.7177755,116.279556,https://maps.google.com/?cid=0x0:0x323abe06fb88ba15,
perumahan,Pembangunan Perumahan,Batulajang,"77F3+QG9, Jl. Raya Sengkol, Batujai, Kec. Praya, Kabupaten Lombok Tengah, Nusa Tenggara Bar. 83516","Jl. Raya Sengkol, Batujai, Kec. Praya, Kabupaten Lombok Tengah",NUSA TENGGARA BARAT,83516.0,Indonesia,,,,-8.7255861,116.2538534,https://maps.google.com/?cid=0x0:0xf088803a71d42f82,
perumahan,Komplek perumahan,Perumahan Pesona Gerunung Asri,"875P+2PV, Unnamed Road, Bunut Baok, Nusa Tenggara Bar., Bunut Baok, Praya, Central Lombok Regency, West Nusa Tenggara 83514","Unnamed Road, Bunut Baok, Nusa Tenggara Bar., Bunut Baok, Praya, Central Lombok Regency",NUSA TENGGARA BARAT,83514.0,Indonesia, 0818365046,,,-8.6923929,116.2868061,https://maps.google.com/?cid=0x0:0x7854eafa3b66b913,
perumahan,Pembangunan Perumahan,Hendri's house,"Jl. Raya Sengkol No.1100, Batujai, Kec. Praya Bar., Kabupaten Lombok Tengah, Nusa Tenggara Bar. 83516","Batujai, Kec. Praya Bar., Kabupaten Lombok Tengah",NUSA TENGGARA BARAT,83516.0,Indonesia,,,,-8.7256413,116.2519045,https://maps.google.com/?cid=0x0:0xf911a919728dd28d,
perumahan,Komplek perumahan,Rumah kholis,"77H2+7W, Batujai, Kec. Praya Bar., Kabupaten Lombok Tengah, Nusa Tenggara Bar. 83515","Batujai, Kec. Praya Bar., Kabupaten Lombok Tengah",NUSA TENGGARA BARAT,83515.0,Indonesia,,,,-8.7218647,116.2523454,https://maps.google.com/?cid=0x0:0x351cff2d18beaaa3,
perumahan,Komplek perumahan,Perumahan Pagoda Asri Batujai,"769X+MPH, Jl. Raya Sengkol, Batujai, Kec. Praya Bar., Kabupaten Lombok Tengah, Nusa Tenggara Bar. 83516","Jl. Raya Sengkol, Batujai, Kec. Praya Bar., Kabupaten Lombok Tengah",NUSA TENGGARA BARAT,83516.0,Indonesia,,,,-8.7308006,116.2493581,https://maps.google.com/?cid=0x0:0xa8703acfc62f8067,
perumahan,Komplek perumahan,Rumah EDWAR,"77JM+9M7, Semayan, Kec. Praya, Kabupaten Lombok Tengah, Nusa Tenggara Bar. 83518","Semayan, Kec. Praya, Kabupaten Lombok Tengah",NUSA TENGGARA BARAT,83518.0,Indonesia,,,,-8.7191843,116.2845855,https://maps.google.com/?cid=0x0:0xa2e625693f94e3cb,
perumahan,Komplek perumahan,TimientCompany,"77FP+83F, Semayan, Kec. Praya, Kabupaten Lombok Tengah, Nusa Tenggara Bar.","Kabupaten Lombok Tengah, Nusa Tenggara Bar.",NUSA TENGGARA BARAT,,Indonesia,,,,-8.7266835,116.2851588,https://maps.google.com/?cid=0x0:0x6da77743e27d8a15,
perumahan,Perumahan,Perumahan Permata Klui,"8736+5PF, Unnamed Road, Leneng, Kec. Praya, Kabupaten Lombok Tengah, Nusa Tenggara Bar. 83514","Unnamed Road, Leneng, Kec. Praya, Kabupaten Lombok Tengah",NUSA TENGGARA BARAT,83514.0,Indonesia,,,,-8.6970732,116.2618079,https://maps.google.com/?cid=0x0:0xdd826775b36b0bc1,
perumahan,Komplek perumahan,Rumah Anggara dan Anggika,"Jl. Gajah Mada No.1, Leneng, Kec. Praya, Kabupaten Lombok Tengah, Nusa Tenggara Bar. 83521","Leneng, Kec. Praya, Kabupaten Lombok Tengah",NUSA TENGGARA BARAT,83521.0,Indonesia,,,,-8.7009373,116.2605942,https://maps.google.com/?cid=0x0:0xa5847a543427f69b,
perumahan,Komplek perumahan,Pedesaan,"76RP+66J, Unnamed Road, Batujai, Kec. Praya Bar., Kabupaten Lombok Tengah, Nusa Tenggara Bar. 83561","Unnamed Road, Batujai, Kec. Praya Bar., Kabupaten Lombok Tengah",NUSA TENGGARA BARAT,83561.0,Indonesia,,,,-8.7094013,116.2355008,https://maps.google.com/?cid=0x0:0x297befe0897436a,
perumahan,perumahan,Nusa Tenggara Bar. 83521,"Kabupaten Lombok Tengah, Nusa Tenggara Bar.","Kabupaten Lombok Tengah, Nusa Tenggara Bar.",NUSA TENGGARA BARAT,,Indonesia,,,,-8.7041192,116.2511327,https://maps.google.com/?cid=0x0:0xce67b1d626324eae,
perumahan,Komplek perumahan,Wakan,"77X4+RFR, Wakan, Leneng, Kec. Praya, Kabupaten Lombok Tengah, Nusa Tenggara Bar.","Kabupaten Lombok Tengah, Nusa Tenggara Bar.",NUSA TENGGARA BARAT,,Indonesia,,,,-8.7003768,116.2561534,https://maps.google.com/?cid=0x0:0x6ef2603c97b571eb,
perumahan,Perumahan,RENTENG AGUNG RESIDENCE,"Jalan Renteng Agung, Praya, Kec. Praya, Kabupaten Lombok Tengah, Nusa Tenggara Bar. 83511","Praya, Kec. Praya, Kabupaten Lombok Tengah",NUSA TENGGARA BARAT,83511.0,Indonesia, 087864881212,,,-8.6899622,116.2657886,https://maps.google.com/?cid=0x0:0x32406e3c1fd54122,
perumahan,Komplek perumahan,Jaswadi,"76QV+R75, Jl. H. Ihsan, Batujai, Kec. Praya Bar., Kabupaten Lombok Tengah, Nusa Tenggara Bar. 83521","Jl. H. Ihsan, Batujai, Kec. Praya Bar., Kabupaten Lombok Tengah",NUSA TENGGARA BARAT,83521.0,Indonesia, 087824550843,,,-8.710254,116.2444023,https://maps.google.com/?cid=0x0:0x6f6e06a4787c80e7,
perumahan,Komplek perumahan,RUMAH AQILGA,"Lingkungan Wakan, Jl. Gajah Mada No.37, Panjisari, Kec. Praya, Kabupaten Lombok Tengah, Nusa Tenggara Bar. 83521","Jl. Gajah Mada No.37, Panjisari, Kec. Praya, Kabupaten Lombok Tengah",NUSA TENGGARA BARAT,83521.0,Indonesia,,,,-8.700647,116.2582083,https://maps.google.com/?cid=0x0:0xf72f10330fcaa056,
perumahan,Komplek perumahan,PUYUNG REGENCY,"Dusun BunSumpak. Kel. Puyung, Kec.Jonggat, Puyung, Kec. Praya, Kabupaten Lombok Tengah, Nusa Tenggara Bar. 83352","Kec.Jonggat, Puyung, Kec. Praya, Kabupaten Lombok Tengah",NUSA TENGGARA BARAT,83352.0,Indonesia, 081916006300,,,-8.6845043,116.2466196,https://maps.google.com/?cid=0x0:0xa5873c6ac936644e,
perumahan,Komplek perumahan,Rumah ceweknya Abdana,"77X6+WJF, Leneng, Kec. Praya, Kabupaten Lombok Tengah, Nusa Tenggara Bar. 83521","Leneng, Kec. Praya, Kabupaten Lombok Tengah",NUSA TENGGARA BARAT,83521.0,Indonesia,,,,-8.7001798,116.261577,https://maps.google.com/?cid=0x0:0x8a55dd8239e5e843,
perumahan,Perumahan,PERMATA GARDEN PRAYA,"8768+342, Renteng, Kec. Praya, Kabupaten Lombok Tengah, Nusa Tenggara Bar. 83514","Renteng, Kec. Praya, Kabupaten Lombok Tengah",NUSA TENGGARA BARAT,83514.0,Indonesia,,,,-8.6901886,116.2651553,https://maps.google.com/?cid=0x0:0xaa09bbd8902d9dd0,
perumahan,Komplek perumahan,rumah rian,"77X4+XVP, Panjisari, Kec. Praya, Kabupaten Lombok Tengah, Nusa Tenggara Bar. 83521","Panjisari, Kec. Praya, Kabupaten Lombok Tengah",NUSA TENGGARA BARAT,83521.0,Indonesia,,,,-8.7001453,116.2571093,https://maps.google.com/?cid=0x0:0xc7f24728500520a8,
perumahan,Komplek perumahan,Leneng,"8727+9C4, Jl. Perkutut, Leneng, Kec. Praya, Kabupaten Lombok Tengah, Nusa Tenggara Bar.","Kabupaten Lombok Tengah, Nusa Tenggara Bar.",NUSA TENGGARA BARAT,,Indonesia,,,,-8.6991144,116.2635727,https://maps.google.com/?cid=0x0:0xc9eb6c6d83cb95a4,
perumahan,Komplek perumahan,Btn Roemah Kenari,"8783+2VW, Unnamed Road, Renteng, Kec. Praya, Kabupaten Lombok Tengah, Nusa Tenggara Bar. 83511","Unnamed Road, Renteng, Kec. Praya, Kabupaten Lombok Tengah",NUSA TENGGARA BARAT,83511.0,Indonesia, 087854672304,,,-8.6848865,116.2546881,https://maps.google.com/?cid=0x0:0x41079208f75464f,
perumahan,Komplek perumahan,House,"BTN RENTENG INDAH, Jl. Pahlawan No.3 Blk. A, Praya, Central Lombok Regency, West Nusa Tenggara 83521","Jl. Pahlawan No.3 Blk. A, Praya, Central Lombok Regency",NUSA TENGGARA BARAT,83521.0,Indonesia,,,,-8.6949872,116.2690896,https://maps.google.com/?cid=0x0:0xaf9a0365b3c3387b,
perumahan,Komplek perumahan,Moza,"77R7+8P9 Darul falah selatan, Panjisari, Kec. Praya, Kabupaten Lombok Tengah, Nusa Tenggara Bar. 83511","Panjisari, Kec. Praya, Kabupaten Lombok Tengah",NUSA TENGGARA BARAT,83511.0,Indonesia, 087889265242,,,-8.7092022,116.2643482,https://maps.google.com/?cid=0x0:0xecb66fbb1cb244ae,
perumahan,Komplek perumahan,Abdul Karim,"8729+M2C, Leneng, Kec. Praya, Kabupaten Lombok Tengah, Nusa Tenggara Bar. 83514","Leneng, Kec. Praya, Kabupaten Lombok Tengah",NUSA TENGGARA BARAT,83514.0,Indonesia,,,,-8.6983118,116.267525,https://maps.google.com/?cid=0x0:0xb180baa98b3a82a8,
perumahan,Komplek perumahan,Udi wahyudi,"77R4+FWC, Bukal malang, Panjisari, Kec. Praya, Kabupaten Lombok Tengah, Nusa Tenggara Bar.","Kabupaten Lombok Tengah, Nusa Tenggara Bar.",NUSA TENGGARA BARAT,,Indonesia,,,,-8.7088198,116.257275,https://maps.google.com/?cid=0x0:0x4b2608efa4b10028,
perumahan,Bank,BTN Mandalika Leneng,"77X5+4PR, Jl. Gajah Mada, Leneng, Kec. Praya, Kabupaten Lombok Tengah, Nusa Tenggara Bar. 83521","Jl. Gajah Mada, Leneng, Kec. Praya, Kabupaten Lombok Tengah",NUSA TENGGARA BARAT,83521.0,Indonesia,,,,-8.7021267,116.2592641,https://maps.google.com/?cid=0x0:0xb5dd2debc7193dd,
perumahan,Kantor Perusahaan,Perumahan PRAIA ESTATE ; Datu Agung Property,"Tiwugalih, Kec. Praya, Kabupaten Lombok Tengah, Nusa Tenggara Bar.","Kabupaten Lombok Tengah, Nusa Tenggara Bar.",NUSA TENGGARA BARAT,,Indonesia, 085925710585,,,-8.7109347,116.2891587,https://maps.google.com/?cid=0x0:0x6cc7fb34a29ffd62,
perumahan,Perumahan,Rex's home,"8783+6FF, jalan raya wakul btn, kenari, Praya, Central Lombok Regency, West Nusa Tenggara","Kabupaten Lombok Tengah, Nusa Tenggara Bar.",NUSA TENGGARA BARAT,,Indonesia,,,,-8.6844416,116.253682,https://maps.google.com/?cid=0x0:0xc452c2aa3d0261a0,
perumahan,Komplek perumahan,Runah Pak Abas Tebero,"8727+P58, Leneng, Kec. Praya, Kabupaten Lombok Tengah, Nusa Tenggara Bar. 83514","Leneng, Kec. Praya, Kabupaten Lombok Tengah",NUSA TENGGARA BARAT,83514.0,Indonesia,,,,-8.698208,116.2632931,https://maps.google.com/?cid=0x0:0x7d3442ae22cae06,
perumahan,Komplek perumahan,Perumahan Graha Palem Raja,"Renteng, Kec. Praya, Kabupaten Lombok Tengah, Nusa Tenggara Bar.","Kabupaten Lombok Tengah, Nusa Tenggara Bar.",NUSA TENGGARA BARAT,,Indonesia,,,,-8.6852684,116.2657796,https://maps.google.com/?cid=0x0:0x3851d11189ec90b7,
perumahan,Perumahan,LALU MARJAYADI,"PERUM PERMATA KLUI No.2 BLOK D, Leneng, Praya, Central Lombok Regency, West Nusa Tenggara","Kabupaten Lombok Tengah, Nusa Tenggara Bar.",NUSA TENGGARA BARAT,,Indonesia,,,,-8.6977079,116.2627265,https://maps.google.com/?cid=0x0:0x4b955b5bafb96012,
perumahan,Komplek perumahan,Anisa Home,"863V+7R6, Puyung, Kec. Jonggat, Kabupaten Lombok Tengah, Nusa Tenggara Bar. 83521","Puyung, Kec. Jonggat, Kabupaten Lombok Tengah",NUSA TENGGARA BARAT,83521.0,Indonesia,,,,-8.6969523,116.2450437,https://maps.google.com/?cid=0x0:0x23cc1d6498d97203,
perumahan,Perumahan,RENTENG AGUNG RESIDENCE,"Jalan Renteng Agung, Praya, Kec. Praya, Kabupaten Lombok Tengah, Nusa Tenggara Bar. 83511","Praya, Kec. Praya, Kabupaten Lombok Tengah",NUSA TENGGARA BARAT,83511.0,Indonesia, 087864881212,,,-8.6899622,116.2657886,https://maps.google.com/?cid=0x0:0x32406e3c1fd54122,
perumahan,perumahan,Nusa Tenggara Bar. 83522,"Kec. Praya, Kabupaten Lombok Tengah, Nusa Tenggara Bar.","Kabupaten Lombok Tengah, Nusa Tenggara Bar.",NUSA TENGGARA BARAT,,Indonesia,,,,-8.6827194,116.2688495,https://maps.google.com/?cid=0x0:0xa823d6b2c769dbf,
perumahan,Perumahan,PERMATA GARDEN PRAYA,"8768+342, Renteng, Kec. Praya, Kabupaten Lombok Tengah, Nusa Tenggara Bar. 83514","Renteng, Kec. Praya, Kabupaten Lombok Tengah",NUSA TENGGARA BARAT,83514.0,Indonesia,,,,-8.6901886,116.2651553,https://maps.google.com/?cid=0x0:0xaa09bbd8902d9dd0,
perumahan,Komplek perumahan,Ogik maroot,"87C9+4QJ, Gonjak, Kec. Praya, Kabupaten Lombok Tengah, Nusa Tenggara Bar. 83522","Gonjak, Kec. Praya, Kabupaten Lombok Tengah",NUSA TENGGARA BARAT,83522.0,Indonesia,,,,-8.6793978,116.2693704,https://maps.google.com/?cid=0x0:0x1ac61ce7606e9f42,
perumahan,Komplek perumahan,Wakan,"77X4+RFR, Wakan, Leneng, Kec. Praya, Kabupaten Lombok Tengah, Nusa Tenggara Bar.","Kabupaten Lombok Tengah, Nusa Tenggara Bar.",NUSA TENGGARA BARAT,,Indonesia,,,,-8.7003768,116.2561534,https://maps.google.com/?cid=0x0:0x6ef2603c97b571eb,
perumahan,Perhimpunan Pengembang Perumahan,RUMAH RIAN. M GONJAK,"87GG+HQP, Gerunung, Kec. Praya, Kabupaten Lombok Tengah, Nusa Tenggara Bar. 83522","Gerunung, Kec. Praya, Kabupaten Lombok Tengah",NUSA TENGGARA BARAT,83522.0,Indonesia,,,,-8.6735401,116.276959,https://maps.google.com/?cid=0x0:0xcdbefa3b45e93c9f,
perumahan,Pembangunan Perumahan,Perumahan Pemda Lombok Tengah,"BTN Pemda Lombok Tengah Srigangga, Tiwugalih, Kec. Praya, Kabupaten Lombok Tengah, Nusa Tenggara Bar. 83511","Tiwugalih, Kec. Praya, Kabupaten Lombok Tengah",NUSA TENGGARA BARAT,83511.0,Indonesia,,,,-8.7047538,116.2947419,https://maps.google.com/?cid=0x0:0x41c67c2c741ef6ee,
perumahan,Komplek perumahan,Parhaen,"8756+HC3, Jl. Renteng, Renteng, Kec. Praya, Kabupaten Lombok Tengah, Nusa Tenggara Bar. 83522","Jl. Renteng, Renteng, Kec. Praya, Kabupaten Lombok Tengah",NUSA TENGGARA BARAT,83522.0,Indonesia,,,,-8.690832,116.260996,https://maps.google.com/?cid=0x0:0x5dfda705860c0671,
perumahan,Komplek perumahan,Batur Tengak,"8758+M2G, Jl Lingkungan, Renteng, Praya, Central Lombok Regency, West Nusa Tenggara 83522","Jl Lingkungan, Renteng, Praya, Central Lombok Regency",NUSA TENGGARA BARAT,83522.0,Indonesia, 081353785983,,,-8.6908014,116.2650694,https://maps.google.com/?cid=0x0:0xd3e0a58d12287b58,
perumahan,Otoritas Perumahan,BTN Tastura Praya,"875P+GP5, kampung begak, tengah, Semayan, Kec. Praya, Kabupaten Lombok Tengah, Nusa Tenggara Bar. 83514","kampung begak, tengah, Semayan, Kec. Praya, Kabupaten Lombok Tengah",NUSA TENGGARA BARAT,83514.0,Indonesia,,,,-8.6912394,116.2868549,https://maps.google.com/?cid=0x0:0xd9e66e7f570565f0,
perumahan,Kantor Perusahaan,Perumahan PRAIA ESTATE ; Datu Agung Property,"Tiwugalih, Kec. Praya, Kabupaten Lombok Tengah, Nusa Tenggara Bar.","Kabupaten Lombok Tengah, Nusa Tenggara Bar.",NUSA TENGGARA BARAT,,Indonesia, 085925710585,,,-8.7109347,116.2891587,https://maps.google.com/?cid=0x0:0x6cc7fb34a29ffd62,
perumahan,Komplek perumahan,Perumahan Graha Palem Raja,"Renteng, Kec. Praya, Kabupaten Lombok Tengah, Nusa Tenggara Bar.","Kabupaten Lombok Tengah, Nusa Tenggara Bar.",NUSA TENGGARA BARAT,,Indonesia,,,,-8.6852684,116.2657796,https://maps.google.com/?cid=0x0:0x3851d11189ec90b7,
perumahan,Komplek perumahan,PERUMAHAN MAHKOTA PRAYA REGENCY (MPR),"77QW+83, Jontlak, Kec. Praya Tengah, Kabupaten Lombok Tengah, Nusa Tenggara Bar. 83513","Jontlak, Kec. Praya Tengah, Kabupaten Lombok Tengah",NUSA TENGGARA BARAT,83513.0,Indonesia,,,,-8.7115926,116.2951823,https://maps.google.com/?cid=0x0:0x2ce7d6e64a3ee8ea,
perumahan,Komplek perumahan,Rumah Hime,"874G+WRJ, Praya, Kec. Praya, Kabupaten Lombok Tengah, Nusa Tenggara Bar. 83514","Praya, Kec. Praya, Kabupaten Lombok Tengah",NUSA TENGGARA BARAT,83514.0,Indonesia,,,,-8.69259,116.276835,https://maps.google.com/?cid=0x0:0x969aead9df590073,
perumahan,Komplek perumahan,Lingkungan Bayan,"8769+7H9, Gerunung, Kec. Praya, Kabupaten Lombok Tengah, Nusa Tenggara Bar.","Kabupaten Lombok Tengah, Nusa Tenggara Bar.",NUSA TENGGARA BARAT,,Indonesia,,,,-8.6893433,116.2689816,https://maps.google.com/?cid=0x0:0x5a984b2a1805a87d,
perumahan,Komplek perumahan,Salbi,"87CC+WX6, Gonjak, Kec. Praya, Kabupaten Lombok Tengah, Nusa Tenggara Bar. 83522","Gonjak, Kec. Praya, Kabupaten Lombok Tengah",NUSA TENGGARA BARAT,83522.0,Indonesia, 081917607213,,,-8.6777125,116.2723906,https://maps.google.com/?cid=0x0:0x7515680984ba23ba,
perumahan,Komplek perumahan,TANAH MARZUKI,"87GJ+V3M, Dusun Tenganan, Kelurahan, Gonjak, Kec. Praya, Kabupaten Lombok Tengah, Nusa Tenggara Bar. 83522","Dusun Tenganan, Kelurahan, Gonjak, Kec. Praya, Kabupaten Lombok Tengah",NUSA TENGGARA BARAT,83522.0,Indonesia,,,,-8.6727793,116.2801599,https://maps.google.com/?cid=0x0:0x15e77a38f2ad7c70,
perumahan,Komplek perumahan,Perumahan Pesona Gerunung Asri,"875P+2PV, Unnamed Road, Bunut Baok, Nusa Tenggara Bar., Bunut Baok, Praya, Central Lombok Regency, West Nusa Tenggara 83514","Unnamed Road, Bunut Baok, Nusa Tenggara Bar., Bunut Baok, Praya, Central Lombok Regency",NUSA TENGGARA BARAT,83514.0,Indonesia, 0818365046,,,-8.6923929,116.2868061,https://maps.google.com/?cid=0x0:0x7854eafa3b66b913,
perumahan,Komplek perumahan,home marga,"87CJ+MQ4, Jl. Raya Praya - Mantang, Gerunung, Kec. Praya, Kabupaten Lombok Tengah, Nusa Tenggara Bar.","Kabupaten Lombok Tengah, Nusa Tenggara Bar.",NUSA TENGGARA BARAT,,Indonesia,,,,-8.6781735,116.2818513,https://maps.google.com/?cid=0x0:0x7de987134599090c,
perumahan,Komplek perumahan,R. Budi Hartono,"8799+H5X, JL Raya Renteng - Gonjak, Gonjak, Praya Tengah, Gerunung, Kec. Praya, Kabupaten Lombok Tengah, Nusa Tenggara Bar. 83522","JL Raya Renteng - Gonjak, Gonjak, Praya Tengah, Gerunung, Kec. Praya, Kabupaten Lombok Tengah",NUSA TENGGARA BARAT,83522.0,Indonesia,,,,-8.6810035,116.2679777,https://maps.google.com/?cid=0x0:0x84505ad0f7afe223,
perumahan,Pembangunan Perumahan,Sri Anna Bale,"8774+7WF, ling.wakul, Renteng, Kec. Praya, Kabupaten Lombok Tengah, Nusa Tenggara Tim, 83522","ling.wakul, Renteng, Kec. Praya, Kabupaten Lombok Tengah",NUSA TENGGARA BARAT,83522.0,Indonesia,,,,-8.6870125,116.2568719,https://maps.google.com/?cid=0x0:0x5705f11f7239374a,
perumahan,Perhimpunan Pengembang Perumahan,Repok keselit,"87GG+978, Gonjak, Kec. Praya, Kabupaten Lombok Tengah, Nusa Tenggara Bar. 83522","Gonjak, Kec. Praya, Kabupaten Lombok Tengah",NUSA TENGGARA BARAT,83522.0,Indonesia,,,,-8.6732267,116.2755217,https://maps.google.com/?cid=0x0:0x4e8047e09d39ee77,
perumahan,Komplek perumahan,Ulul azmi,"879Q+52X, RT.mertak/RW.umbak, Mertak Tombok, Kec. Praya, Kabupaten Lombok Tengah, Nusa Tenggara Bar. 83522","RT.mertak/RW.umbak, Mertak Tombok, Kec. Praya, Kabupaten Lombok Tengah",NUSA TENGGARA BARAT,83522.0,Indonesia,,,,-8.6820217,116.287605,https://maps.google.com/?cid=0x0:0x5babd72d4dfaa30f,
perumahan,Komplek perumahan,Rumah Koko (Suko Sunarsono),"8728+V6H, Gg. Anggrek, Leneng, Kec. Praya, Kabupaten Lombok Tengah, Nusa Tenggara Bar. 83514","Gg. Anggrek, Leneng, Kec. Praya, Kabupaten Lombok Tengah",NUSA TENGGARA BARAT,83514.0,Indonesia,,,,-8.697818,116.2656155,https://maps.google.com/?cid=0x0:0x88d0eca61176a3d9,
perumahan,perumahan,room,"878P+5V, Gerunung, Kec. Praya, Kabupaten Lombok Tengah, Nusa Tenggara Bar.","Kabupaten Lombok Tengah, Nusa Tenggara Bar.",NUSA TENGGARA BARAT,,Indonesia,,,,-8.684598,116.2872319,https://maps.google.com/?cid=0x0:0xc01f4ea882e1917c,
perumahan,Pembangunan Perumahan, Suju.net,"87GJ+64P, Tenganan, Gonjak, Kec. Praya, Kabupaten Lombok Tengah, Nusa Tenggara Bar. 83522","Tenganan, Gonjak, Kec. Praya, Kabupaten Lombok Tengah",NUSA TENGGARA BARAT,83522.0,Indonesia,,,,-8.6742343,116.2803842,https://maps.google.com/?cid=0x0:0x13031b29c6016dd4,
perumahan,perumahan,Nusa Tenggara Bar. 83572,"Kec. Praya Bar., Kabupaten Lombok Tengah, Nusa Tenggara Bar.","Kabupaten Lombok Tengah, Nusa Tenggara Bar.",NUSA TENGGARA BARAT,,Indonesia,,,,-8.8498994,116.2186488,https://maps.google.com/?cid=0x0:0xf5107b977985b3e5,
perumahan,Komplek perumahan,"Pandan indah, kabupaten Lombok tengah Nusa tenggara barat, Indonesia","55VW+CQ, Pandan Indah, Kec. Praya Bar. Daya, Kabupaten Lombok Tengah, Nusa Tenggara Bar.","Kabupaten Lombok Tengah, Nusa Tenggara Bar.",NUSA TENGGARA BARAT,,Indonesia,,,,-8.8064537,116.1968624,https://maps.google.com/?cid=0x0:0x4b5a9497ef00649e,
perumahan,Komplek perumahan,House Of Wijaya,"4637+9C5, Mekar Sari, Kec. Praya Bar., Kabupaten Lombok Tengah, Nusa Tenggara Bar. 83572","Mekar Sari, Kec. Praya Bar., Kabupaten Lombok Tengah",NUSA TENGGARA BARAT,83572.0,Indonesia,,,,-8.8966173,116.2135999,https://maps.google.com/?cid=0x0:0xf530bfadccdf2d13,
perumahan,Pembangunan Perumahan,Balai rencok,"46V7+R3X, Banyu Urip, Kec. Praya Bar., Kabupaten Lombok Tengah, Nusa Tenggara Bar. 83572","Banyu Urip, Kec. Praya Bar., Kabupaten Lombok Tengah",NUSA TENGGARA BARAT,83572.0,Indonesia,,,,-8.8553781,116.2127421,https://maps.google.com/?cid=0x0:0xc4c80c2ff884bc30,
perumahan,Komplek perumahan,Rumah Branthe,"56VC+VVW, Unnamed Road, Mangkung, Kec. Praya Bar., Kabupaten Lombok Tengah, Nusa Tenggara Bar. 83572","Unnamed Road, Mangkung, Kec. Praya Bar., Kabupaten Lombok Tengah",NUSA TENGGARA BARAT,83572.0,Indonesia,,,,-8.80525,116.222191,https://maps.google.com/?cid=0x0:0x2aed59f8020f8313,
perumahan,Komplek perumahan,BALE ROSYID,"55WW+CQG, Pandan Indah, Kec. Praya Bar. Daya, Kabupaten Lombok Tengah, Nusa Tenggara Bar. 83572","Pandan Indah, Kec. Praya Bar. Daya, Kabupaten Lombok Tengah",NUSA TENGGARA BARAT,83572.0,Indonesia,,,,-8.8030619,116.1963999,https://maps.google.com/?cid=0x0:0x60a7827d8556bd4a,
perumahan,Komplek perumahan,Dusun Powen Batujai Praya Barat Lombok Tengah NTB,"766V+45H, Jl. Raya Mandalika, Batujai, Kec. Praya Bar., Kabupaten Lombok Tengah, Nusa Tenggara Bar. 83572","Jl. Raya Mandalika, Batujai, Kec. Praya Bar., Kabupaten Lombok Tengah",NUSA TENGGARA BARAT,83572.0,Indonesia,,,,-8.7499034,116.2469414,https://maps.google.com/?cid=0x0:0xab84888547e8a60e,
perumahan,Komplek perumahan,Pelah,"56XH+F48, Mangkung, Kec. Praya Bar., Kabupaten Lombok Tengah, Nusa Tenggara Bar. 83572","Mangkung, Kec. Praya Bar., Kabupaten Lombok Tengah",NUSA TENGGARA BARAT,83572.0,Indonesia,,,,-8.8012416,116.2279653,https://maps.google.com/?cid=0x0:0x9d5012c772463d17,
perumahan,perumahan,Gbdh,"56XV+P9, Kateng, Kec. Praya Bar., Kabupaten Lombok Tengah, Nusa Tenggara Bar. 83572","Kateng, Kec. Praya Bar., Kabupaten Lombok Tengah",NUSA TENGGARA BARAT,83572.0,Indonesia,,,,-8.801192,116.244234,https://maps.google.com/?cid=0x0:0x6259d440766a558b,
perumahan,Komplek perumahan,Tobro,"56WR+J58, Kateng, Kec. Praya Bar., Kabupaten Lombok Tengah, Nusa Tenggara Bar. 83572","Kateng, Kec. Praya Bar., Kabupaten Lombok Tengah",NUSA TENGGARA BARAT,83572.0,Indonesia, 087864560514,,,-8.803638,116.2403143,https://maps.google.com/?cid=0x0:0x4c3e13bc6e9bd680,
perumahan,Komplek perumahan,Izy house,"45HC+4M7, Selong Belanak, Kec. Praya Bar., Kabupaten Lombok Tengah, Nusa Tenggara Bar. 83572","Selong Belanak, Kec. Praya Bar., Kabupaten Lombok Tengah",NUSA TENGGARA BARAT,83572.0,Indonesia,,,,-8.8723719,116.1706902,https://maps.google.com/?cid=0x0:0x502cde10887b7a0,
perumahan,Komplek perumahan,Junaidi,"55GH+2GP BUKIT PRASIBON EMBOAN, Mangkung, Kec. Praya Bar., Kabupaten Lombok Tengah, Nusa Tenggara Bar.","Kabupaten Lombok Tengah, Nusa Tenggara Bar.",NUSA TENGGARA BARAT,,Indonesia, 081353722088,,,-8.826273,116.178552,https://maps.google.com/?cid=0x0:0x4ae5671f6379dbe4,
perumahan,Komplek perumahan,Di depan rumah saya,"5643+JVX, Mangkung, Kec. Praya Bar., Kabupaten Lombok Tengah, Nusa Tenggara Bar.","Kabupaten Lombok Tengah, Nusa Tenggara Bar.",NUSA TENGGARA BARAT,,Indonesia, 081933373112,,,-8.8433954,116.2047191,https://maps.google.com/?cid=0x0:0x3bb89834c35ea9c9,
perumahan,Perhimpunan Pengembang Perumahan,Pilan desa kateng,"56GP+JGW, Kateng, Kec. Praya Bar., Kabupaten Lombok Tengah, Nusa Tenggara Bar. 83572","Kateng, Kec. Praya Bar., Kabupaten Lombok Tengah",NUSA TENGGARA BARAT,83572.0,Indonesia,,,,-8.8233975,116.2363321,https://maps.google.com/?cid=0x0:0xd2df2c07bdab4b94,
perumahan,Pembangunan Perumahan,Hadi Bengkel,"5638+3QV, Banyu Urip, Kec. Praya Bar., Kabupaten Lombok Tengah, Nusa Tenggara Bar. 83572","Banyu Urip, Kec. Praya Bar., Kabupaten Lombok Tengah",NUSA TENGGARA BARAT,83572.0,Indonesia,,,,-8.8472657,116.2169334,https://maps.google.com/?cid=0x0:0x6812e98327a34602,
perumahan,Pembangunan Perumahan,balen kamarkhan,"56FG+28G, Kateng, Kec. Praya Bar., Kabupaten Lombok Tengah, Nusa Tenggara Bar. 83572","Kateng, Kec. Praya Bar., Kabupaten Lombok Tengah",NUSA TENGGARA BARAT,83572.0,Indonesia,,,,-8.8276747,116.2253927,https://maps.google.com/?cid=0x0:0x9ce869928d78a46a,
perumahan,Pertanian,Tatal desa kateng,"46MJ+PG4, Tumpak, Kec. Praya Bar., Kabupaten Lombok Tengah, Nusa Tenggara Bar. 83572","Tumpak, Kec. Praya Bar., Kabupaten Lombok Tengah",NUSA TENGGARA BARAT,83572.0,Indonesia,,,,-8.8657374,116.2313401,https://maps.google.com/?cid=0x0:0xa2ec9099a09048c,
perumahan,Komplek perumahan,Rumah abu zahira,"Banyu Urip, Kec. Praya Bar., Kabupaten Lombok Tengah, Nusa Tenggara Bar. 83572","Kec. Praya Bar., Kabupaten Lombok Tengah",NUSA TENGGARA BARAT,83572.0,Indonesia,,,,-8.8553781,116.2127421,https://maps.google.com/?cid=0x0:0x694592c0af9180ab,
perumahan,Komplek perumahan,Rumah/kediaman H.L.MUH.HUDAIFI,"56XP+8GF, Kateng, Kec. Praya Bar., Kabupaten Lombok Tengah, Nusa Tenggara Bar.","Kabupaten Lombok Tengah, Nusa Tenggara Bar.",NUSA TENGGARA BARAT,,Indonesia,,,,-8.8016892,116.2362947,https://maps.google.com/?cid=0x0:0xd9b576e1ddd9beee,
perumahan,Komplek perumahan,Balen gasih,"652X+PQ2, Batu gong, Pandan Indah, Kec. Praya Bar. Daya, Kabupaten Lombok Tengah, Nusa Tenggara Bar. 83572","Batu gong, Pandan Indah, Kec. Praya Bar. Daya, Kabupaten Lombok Tengah",NUSA TENGGARA BARAT,83572.0,Indonesia,,,,-8.7982318,116.1994009,https://maps.google.com/?cid=0x0:0x1473e63284758642,
perumahan,Komplek perumahan,Rumah Galih,"Jalan Raya Mandalika, Penujak, Kec. Praya Bar., Kabupaten Lombok Tengah, Nusa Tenggara Bar., POS, 83572","Penujak, Kec. Praya Bar., Kabupaten Lombok Tengah, Nusa Tenggara Bar.",NUSA TENGGARA BARAT,83572.0,Indonesia, 081907275413,,,-8.7471443,116.2411508,https://maps.google.com/?cid=0x0:0x6b5d0ae5d8237927,
perumahan,Komplek perumahan,Rumah keluarga Lalu Arsad/Mamiq fiyanik,"763P+VW8, Penujak, Kec. Praya Bar., Kabupaten Lombok Tengah, Nusa Tenggara Bar. 83572","Penujak, Kec. Praya Bar., Kabupaten Lombok Tengah",NUSA TENGGARA BARAT,83572.0,Indonesia,,,,-8.7453318,116.2373412,https://maps.google.com/?cid=0x0:0xd986a74ddbd256b4,
perumahan,Komplek perumahan,Rumah Syukur Al-Ghazali,"Jl. Bypass Bandara Int. Lombok No.KM5, Batujai, Kec. Praya Bar., Kabupaten Lombok Tengah, Nusa Tenggara Bar. 83572","Batujai, Kec. Praya Bar., Kabupaten Lombok Tengah",NUSA TENGGARA BARAT,83572.0,Indonesia,,,,-8.735613,116.240123,https://maps.google.com/?cid=0x0:0x7d3593b96ce06e9c,
perumahan,Komplek perumahan,MEMANDI,"666C+88X, Jalan kotak memandi, Bondir, Kec. Praya Bar., Kabupaten Lombok Tengah, Nusa Tenggara Bar. 83572","Jalan kotak memandi, Bondir, Kec. Praya Bar., Kabupaten Lombok Tengah",NUSA TENGGARA BARAT,83572.0,Indonesia, 08180370111,,,-8.7891333,116.2208508,https://maps.google.com/?cid=0x0:0xdad297eb25b5fe8f,
perumahan,Pembangunan Perumahan,gelepak indah,"45HG+C27, Selong Belanak, Kec. Praya Bar., Kabupaten Lombok Tengah, Nusa Tenggara Bar. 83572","Selong Belanak, Kec. Praya Bar., Kabupaten Lombok Tengah",NUSA TENGGARA BARAT,83572.0,Indonesia,,,,-8.8714657,116.1750549,https://maps.google.com/?cid=0x0:0x58c05fb1c99a1530,
perumahan,Pembangunan Perumahan,Selong Harmony,"45JC+PMG, Selong Belanak, Kec. Praya Bar., Kabupaten Lombok Tengah, Nusa Tenggara Bar. 83572","Selong Belanak, Kec. Praya Bar., Kabupaten Lombok Tengah",NUSA TENGGARA BARAT,83572.0,Indonesia,,,,-8.8681975,116.1717124,https://maps.google.com/?cid=0x0:0x7eea34aee5171df2,
perumahan,Komplek perumahan,Rumah Sirrotu Elshanum Mumtazah,"46V7+R3X, Banyu Urip, Kec. Praya Bar., Kabupaten Lombok Tengah, Nusa Tenggara Bar. 83572","Banyu Urip, Kec. Praya Bar., Kabupaten Lombok Tengah",NUSA TENGGARA BARAT,83572.0,Indonesia,,,,-8.8553781,116.2127421,https://maps.google.com/?cid=0x0:0xa596ef9f70b917aa,
perumahan,Komplek perumahan,Perumahan Bypass Regency,"Jl. Bypass Bandara Int. Lombok No.16, Batujai, Kec. Praya Bar., Kabupaten Lombok Tengah, Nusa Tenggara Bar. 83572","Batujai, Kec. Praya Bar., Kabupaten Lombok Tengah",NUSA TENGGARA BARAT,83572.0,Indonesia, 081916016757,,,-8.7324537,116.2344195,https://maps.google.com/?cid=0x0:0x4700eb9e4cfb3a73,
perumahan,perumahan,Nusa Tenggara Bar. 83571,"Kabupaten Lombok Tengah, Nusa Tenggara Bar.","Kabupaten Lombok Tengah, Nusa Tenggara Bar.",NUSA TENGGARA BARAT,,Indonesia,,,,-8.8039486,116.1595761,https://maps.google.com/?cid=0x0:0x62b7bb6e7b71d0d9,
perumahan,Komplek perumahan,Perumahan,"65QJ+X73, Pelambik, Kec. Praya Bar. Daya, Kabupaten Lombok Tengah, Nusa Tenggara Bar. 83571","Pelambik, Kec. Praya Bar. Daya, Kabupaten Lombok Tengah",NUSA TENGGARA BARAT,83571.0,Indonesia,,,,-8.7601155,116.1806811,https://maps.google.com/?cid=0x0:0xf4c85841824aaebc,
perumahan,Komplek perumahan,BQ Naya Home,"752Q+VWJ, Pelambik, Kec. Praya Bar. Daya, Kabupaten Lombok Tengah, Nusa Tenggara Bar. 83571","Pelambik, Kec. Praya Bar. Daya, Kabupaten Lombok Tengah",NUSA TENGGARA BARAT,83571.0,Indonesia,,,,-8.7477988,116.1897751,https://maps.google.com/?cid=0x0:0xbc4f0747c4e2d5ac,
perumahan,Komplek perumahan,Rumah GigihKinan,"752C+887, Pelambik, Kec. Praya Bar. Daya, Kabupaten Lombok Tengah, Nusa Tenggara Bar. 83571","Pelambik, Kec. Praya Bar. Daya, Kabupaten Lombok Tengah",NUSA TENGGARA BARAT,83571.0,Indonesia,,,,-8.7481881,116.1710422,https://maps.google.com/?cid=0x0:0x73e9d24a1a90020,
perumahan,Komplek perumahan,Perumahan,"54JV+422, Jl. Batu Jangkih Sepi, Montong Ajan, Kec. Praya Bar. Daya, Kabupaten Lombok Tengah, Nusa Tenggara Bar.","Kabupaten Lombok Tengah, Nusa Tenggara Bar.",NUSA TENGGARA BARAT,,Indonesia,,,,-8.8197408,116.1425113,https://maps.google.com/?cid=0x0:0x552fd86f64006629,
perumahan,Komplek perumahan,Rumah roni,"65QJ+W66, Pelambik, Kec. Praya Bar. Daya, Kabupaten Lombok Tengah, Nusa Tenggara Bar. 83571","Pelambik, Kec. Praya Bar. Daya, Kabupaten Lombok Tengah",NUSA TENGGARA BARAT,83571.0,Indonesia,,,,-8.760202,116.1805222,https://maps.google.com/?cid=0x0:0x88ec76a29f54c62,
perumahan,Komplek perumahan,Dusun Nuse,"752M+F3H, Pelambik, Kec. Praya Bar. Daya, Kabupaten Lombok Tengah, Nusa Tenggara Bar. 83571","Pelambik, Kec. Praya Bar. Daya, Kabupaten Lombok Tengah",NUSA TENGGARA BARAT,83571.0,Indonesia,,,,-8.7485864,116.1817898,https://maps.google.com/?cid=0x0:0xf7be8e609b73218b,
perumahan,Komplek perumahan,KAMAR_L,"54QG+XWF, Batu Jangkih, Kec. Praya Bar. Daya, Kabupaten Lombok Tengah, Nusa Tenggara Bar.","Kabupaten Lombok Tengah, Nusa Tenggara Bar.",NUSA TENGGARA BARAT,,Indonesia,,,,-8.8100706,116.1272986,https://maps.google.com/?cid=0x0:0x1ddb41199fb8e33b,
perumahan,Bantuan Rumah,Ya,"753G+3WM, Sasah, Pelambik, Kec. Praya Bar. Daya, Kabupaten Lombok Tengah, Nusa Tenggara Bar. 83571","Sasah, Pelambik, Kec. Praya Bar. Daya, Kabupaten Lombok Tengah",NUSA TENGGARA BARAT,83571.0,Indonesia,,,,-8.747276,116.1772994,https://maps.google.com/?cid=0x0:0x805abbfc77ba716a,
perumahan,Komplek perumahan,"Pandan indah, kabupaten Lombok tengah Nusa tenggara barat, Indonesia","55VW+CQ, Pandan Indah, Kec. Praya Bar. Daya, Kabupaten Lombok Tengah, Nusa Tenggara Bar.","Kabupaten Lombok Tengah, Nusa Tenggara Bar.",NUSA TENGGARA BARAT,,Indonesia,,,,-8.8064537,116.1968624,https://maps.google.com/?cid=0x0:0x4b5a9497ef00649e,
perumahan,Komplek perumahan,Soul house,"548V+9F, Batu Jangkih, Kec. Praya Bar. Daya, Kabupaten Lombok Tengah, Nusa Tenggara Bar. 83571","Batu Jangkih, Kec. Praya Bar. Daya, Kabupaten Lombok Tengah",NUSA TENGGARA BARAT,83571.0,Indonesia,,,,-8.8340057,116.143681,https://maps.google.com/?cid=0x0:0xc368cf886b617611,
perumahan,Komplek perumahan,Mamik Halil,"752R+J3M, Pelambik, Kec. Praya Bar. Daya, Kabupaten Lombok Tengah, Nusa Tenggara Bar. 83571","Pelambik, Kec. Praya Bar. Daya, Kabupaten Lombok Tengah",NUSA TENGGARA BARAT,83571.0,Indonesia,,,,-8.7488857,116.1905007,https://maps.google.com/?cid=0x0:0xe3fcf887d318e074,
perumahan,Komplek perumahan,Kim my home,"752R+JV3, Jl. Giri Sasak, Pelambik, Kec. Praya Bar. Daya, Kabupaten Lombok Tengah, Nusa Tenggara Bar. 83571","Jl. Giri Sasak, Pelambik, Kec. Praya Bar. Daya, Kabupaten Lombok Tengah",NUSA TENGGARA BARAT,83571.0,Indonesia,,,,-8.7484812,116.1921701,https://maps.google.com/?cid=0x0:0xa2eed2f36a99d564,
perumahan,Komplek perumahan,Rumah jumahir,"65W8+V3, Serage, Kec. Praya Bar. Daya, Kabupaten Lombok Tengah, Nusa Tenggara Bar. 83571","Serage, Kec. Praya Bar. Daya, Kabupaten Lombok Tengah",NUSA TENGGARA BARAT,83571.0,Indonesia,,,,-8.7521855,116.1652939,https://maps.google.com/?cid=0x0:0x117b7a4444e50bdc,
perumahan,Komplek perumahan,Rumah Aq. Kirun,"Jl. Batu Jangkih Sepi No.16, Montong Ajan, Kec. Praya Bar. Daya, Kabupaten Lombok Tengah, Nusa Tenggara Bar. 83571","Montong Ajan, Kec. Praya Bar. Daya, Kabupaten Lombok Tengah",NUSA TENGGARA BARAT,83571.0,Indonesia,,,,-8.837511,116.107273,https://maps.google.com/?cid=0x0:0x8b013154321cc3fa,
perumahan,Komplek perumahan,Rumah Brama,"752C+887, Pelambik, Kec. Praya Bar. Daya, Kabupaten Lombok Tengah, Nusa Tenggara Bar. 83571","Pelambik, Kec. Praya Bar. Daya, Kabupaten Lombok Tengah",NUSA TENGGARA BARAT,83571.0,Indonesia,,,,-8.7487776,116.1713581,https://maps.google.com/?cid=0x0:0xb0eb239424d8b8f4,
perumahan,Komplek perumahan,Kawasan Fadli,"547R+HV, Batu Jangkih, Kec. Praya Bar. Daya, Kabupaten Lombok Tengah, Nusa Tenggara Bar.","Kabupaten Lombok Tengah, Nusa Tenggara Bar.",NUSA TENGGARA BARAT,,Indonesia,,,,-8.8350169,116.14183,https://maps.google.com/?cid=0x0:0xbe3083b32842904b,
perumahan,Perhimpunan Pengembang Perumahan,Rm,"55FJ+XQR, Mangkung, Kec. Praya Bar., Kabupaten Lombok Tengah, Nusa Tenggara Bar. 83571","Mangkung, Kec. Praya Bar., Kabupaten Lombok Tengah",NUSA TENGGARA BARAT,83571.0,Indonesia,,,,-8.8250161,116.1818775,https://maps.google.com/?cid=0x0:0x73f05598e727a590,
perumahan,Komplek perumahan,Rumah khaidir ali,"642W+V34, Montong Sapah, Kec. Praya Bar. Daya, Kabupaten Lombok Tengah, Nusa Tenggara Bar.","Kabupaten Lombok Tengah, Nusa Tenggara Bar.",NUSA TENGGARA BARAT,,Indonesia,,,,-8.7971523,116.1446222,https://maps.google.com/?cid=0x0:0xc82013062f1e634f,
perumahan,Pembangunan Perumahan,Epuel,"54MG+M5P, Batu Jangkih, Kec. Praya Bar. Daya, Kabupaten Lombok Tengah, Nusa Tenggara Bar.","Kabupaten Lombok Tengah, Nusa Tenggara Bar.",NUSA TENGGARA BARAT,,Indonesia,,,,-8.8157819,116.1254568,https://maps.google.com/?cid=0x0:0xa5fa8b5f37f3ab0e,
perumahan,Komplek perumahan,Rumah H. Ruslan,"644W+727, Montong Sapah, Kec. Praya Bar. Daya, Kabupaten Lombok Tengah, Nusa Tenggara Bar. 83571","Montong Sapah, Kec. Praya Bar. Daya, Kabupaten Lombok Tengah",NUSA TENGGARA BARAT,83571.0,Indonesia,,,,-8.7943383,116.145055,https://maps.google.com/?cid=0x0:0x460ecccb56daeb18,
perumahan,Komplek perumahan,Pelambik,"753G+3WM, Pelambik, Kec. Praya Bar. Daya, Kabupaten Lombok Tengah, Nusa Tenggara Bar. 83571","Pelambik, Kec. Praya Bar. Daya, Kabupaten Lombok Tengah",NUSA TENGGARA BARAT,83571.0,Indonesia,,,,-8.747276,116.1772994,https://maps.google.com/?cid=0x0:0x32fa9b2f62dbd5c4,
perumahan,Perhimpunan Pengembang Perumahan,Desa sangkung,"65XJ+P9M, Pelambik, Kec. Praya Bar. Daya, Kabupaten Lombok Tengah, Nusa Tenggara Bar. 83571","Pelambik, Kec. Praya Bar. Daya, Kabupaten Lombok Tengah",NUSA TENGGARA BARAT,83571.0,Indonesia,,,,-8.7506678,116.1809081,https://maps.google.com/?cid=0x0:0x8f6410fb77d5645f,
perumahan,Rumah Kayu,Habib house,"752M+7RC, Pelambik, Kec. Praya Bar. Daya, Kabupaten Lombok Tengah, Nusa Tenggara Bar. 83571","Pelambik, Kec. Praya Bar. Daya, Kabupaten Lombok Tengah",NUSA TENGGARA BARAT,83571.0,Indonesia,,,,-8.7493799,116.1845118,https://maps.google.com/?cid=0x0:0xedef7a0e7c3fb498,
perumahan,Pembangunan Perumahan,Batun dace,"5439+5MG, Montong Ajan, Kec. Praya Bar. Daya, Kabupaten Lombok Tengah, Nusa Tenggara Bar. 83571","Montong Ajan, Kec. Praya Bar. Daya, Kabupaten Lombok Tengah",NUSA TENGGARA BARAT,83571.0,Indonesia,,,,-8.8470627,116.1192005,https://maps.google.com/?cid=0x0:0xe15f632465da596b,
perumahan,Kantor Perusahaan,Perumahan PRAIA ESTATE ; Datu Agung Property,"Tiwugalih, Kec. Praya, Kabupaten Lombok Tengah, Nusa Tenggara Bar.","Kabupaten Lombok Tengah, Nusa Tenggara Bar.",NUSA TENGGARA BARAT,,Indonesia, 085925710585,,,-8.7109347,116.2891587,https://maps.google.com/?cid=0x0:0x6cc7fb34a29ffd62,
perumahan,Komplek perumahan,Rumah sule lengen,"644V+78P, Unnamed Road, Montong Sapah, Kec. Praya Bar. Daya, Kabupaten Lombok Tengah, Nusa Tenggara Bar. 83571","Unnamed Road, Montong Sapah, Kec. Praya Bar. Daya, Kabupaten Lombok Tengah",NUSA TENGGARA BARAT,83571.0,Indonesia, 085339140757,,,-8.7942786,116.1433287,https://maps.google.com/?cid=0x0:0xb0ecb307b3172940,
perumahan,Pembangunan Perumahan,BALEN AMAQ HENY,"54FW+6Q, Batu Jangkih, Kec. Praya Bar. Daya, Kabupaten Lombok Tengah, Nusa Tenggara Bar. 83571","Batu Jangkih, Kec. Praya Bar. Daya, Kabupaten Lombok Tengah",NUSA TENGGARA BARAT,83571.0,Indonesia,,,,-8.826949,116.146985,https://maps.google.com/?cid=0x0:0x7387674a7b08107,
perumahan,Komplek perumahan,Rumah Sulastri Ayu,"75HW+R7G, Unnamed Road, Ungga, Kec. Praya Bar. Daya, Kabupaten Lombok Tengah, Nusa Tenggara Bar. 83571","Unnamed Road, Ungga, Kec. Praya Bar. Daya, Kabupaten Lombok Tengah",NUSA TENGGARA BARAT,83571.0,Indonesia,,,,-8.7204378,116.1957186,https://maps.google.com/?cid=0x0:0xba69712f4a4315b,
perumahan,Komplek perumahan,PERUMAHAN MAHKOTA PRAYA REGENCY (MPR),"77QW+83, Jontlak, Kec. Praya Tengah, Kabupaten Lombok Tengah, Nusa Tenggara Bar. 83513","Jontlak, Kec. Praya Tengah, Kabupaten Lombok Tengah",NUSA TENGGARA BARAT,83513.0,Indonesia,,,,-8.7115926,116.2951823,https://maps.google.com/?cid=0x0:0x2ce7d6e64a3ee8ea,
perumahan,perumahan,Nusa Tenggara Bar. 83513,"Kabupaten Lombok Tengah, Nusa Tenggara Bar.","Kabupaten Lombok Tengah, Nusa Tenggara Bar.",NUSA TENGGARA BARAT,,Indonesia,,,,-8.7211617,116.2924697,https://maps.google.com/?cid=0x0:0x5ee06fb9952df5d2,
perumahan,Pembangunan Perumahan,Perumahan Pemda Lombok Tengah,"BTN Pemda Lombok Tengah Srigangga, Tiwugalih, Kec. Praya, Kabupaten Lombok Tengah, Nusa Tenggara Bar. 83511","Tiwugalih, Kec. Praya, Kabupaten Lombok Tengah",NUSA TENGGARA BARAT,83511.0,Indonesia,,,,-8.7047538,116.2947419,https://maps.google.com/?cid=0x0:0x41c67c2c741ef6ee,
perumahan,Komplek perumahan,RUMAH SEHAT MUTIARA DUNIA,"77CR+J6Q, Semayan, Kec. Praya, Kabupaten Lombok Tengah, Nusa Tenggara Bar. 83513","Semayan, Kec. Praya, Kabupaten Lombok Tengah",NUSA TENGGARA BARAT,83513.0,Indonesia, 087748004451,,,-8.7284174,116.290617,https://maps.google.com/?cid=0x0:0x6f3c3e8e85918328,
perumahan,Kantor Perusahaan,Perumahan PRAIA ESTATE ; Datu Agung Property,"Tiwugalih, Kec. Praya, Kabupaten Lombok Tengah, Nusa Tenggara Bar.","Kabupaten Lombok Tengah, Nusa Tenggara Bar.",NUSA TENGGARA BARAT,,Indonesia, 085925710585,,,-8.7109347,116.2891587,https://maps.google.com/?cid=0x0:0x6cc7fb34a29ffd62,
perumahan,Komplek perumahan,Perumahan Graha Punik praya,"Jl. Guru Bangkol, Tiwugalih, Kec. Praya, Kabupaten Lombok Tengah, Nusa Tenggara Bar. 83518","Tiwugalih, Kec. Praya, Kabupaten Lombok Tengah",NUSA TENGGARA BARAT,83518.0,Indonesia, 087766646444,,,-8.7148249,116.2808614,https://maps.google.com/?cid=0x0:0xfba4c4464b5654de,
perumahan,Komplek perumahan,Rumah Beringin,"Jl Beringin Perumnas Tampar Ampar No.1 Blok 04/I, Jontlak, Kec. Praya Tengah, Kabupaten Lombok Tengah, Nusa Tenggara Bar. 83513","Jontlak, Kec. Praya Tengah, Kabupaten Lombok Tengah",NUSA TENGGARA BARAT,83513.0,Indonesia,,,,-8.7152327,116.2924675,https://maps.google.com/?cid=0x0:0x80b9acefe7f18727,
perumahan,Pembangunan Perumahan,PERUMAHAN SASAKE RESIDENCE,"77GV+G6R, Sasake, Kec. Praya, Kabupaten Lombok Tengah, Nusa Tenggara Bar. 83513","Sasake, Kec. Praya, Kabupaten Lombok Tengah",NUSA TENGGARA BARAT,83513.0,Indonesia, 085339468012,,,-8.7236373,116.2930285,https://maps.google.com/?cid=0x0:0xfd2ff462c84c7bba,
perumahan,Perumahan,Perumahan Pemda Lombok Tengah Blok U 3,"77VV+6H2, Tiwugalih, Kec. Praya, Kabupaten Lombok Tengah, Nusa Tenggara Bar. 83511","Tiwugalih, Kec. Praya, Kabupaten Lombok Tengah",NUSA TENGGARA BARAT,83511.0,Indonesia,,,,-8.7069927,116.2938573,https://maps.google.com/?cid=0x0:0x5ad2909a7f42eca3,
perumahan,Pembangunan Perumahan,Apernas Lombok Residence,"78G2+F37, Semayan, Kec. Praya, Kabupaten Lombok Tengah, Nusa Tenggara Bar. 83523","Semayan, Kec. Praya, Kabupaten Lombok Tengah",NUSA TENGGARA BARAT,83523.0,Indonesia,,,,-8.7238319,116.3001615,https://maps.google.com/?cid=0x0:0x91309697717eee50,
perumahan,Pembangunan Perumahan,KAWI,"Unnamed Road, Gerantung, Kec. Praya Tengah, Kabupaten Lombok Tengah, Nusa Tenggara Bar. 83513","Gerantung, Kec. Praya Tengah, Kabupaten Lombok Tengah",NUSA TENGGARA BARAT,83513.0,Indonesia, 087702511698,,,-8.7185603,116.3049539,https://maps.google.com/?cid=0x0:0x4a0a99c690337a08,
perumahan,Komplek perumahan,Rumah Fathurrahman Jr Propok,"77FP+W2G, Unnamed Road, Sasake, Kec. Praya Tengah, Kabupaten Lombok Tengah, Nusa Tenggara Bar. 83513","Unnamed Road, Sasake, Kec. Praya Tengah, Kabupaten Lombok Tengah",NUSA TENGGARA BARAT,83513.0,Indonesia,,,,-8.7251796,116.2850786,https://maps.google.com/?cid=0x0:0x436f946e37f06328,
perumahan,perumahan,Aniaas home,"77GV+V9P KAMPUNG MUSDALIPAH, RT.012/RW.001, Sasake, Kec. Praya Tengah, Kabupaten Lombok Tengah, Nusa Tenggara Bar.","Kabupaten Lombok Tengah, Nusa Tenggara Bar.",NUSA TENGGARA BARAT,,Indonesia,,,,-8.7227923,116.2934549,https://maps.google.com/?cid=0x0:0xc6cd15c6bb6550eb,
perumahan,Komplek perumahan,Perumnas Tampar ampar,"Jl. Trembesi No.13, RT.06/RW.02, Jontlak, Kec. Praya, Kabupaten Lombok Tengah, Nusa Tenggara Bar. 83518","RT.06/RW.02, Jontlak, Kec. Praya, Kabupaten Lombok Tengah",NUSA TENGGARA BARAT,83518.0,Indonesia, 081260778440,,,-8.7166267,116.2917034,https://maps.google.com/?cid=0x0:0x83f832430d3a135e,
perumahan,Komplek perumahan,rumah,"77QX+5G6, Jontlak, Kec. Praya Tengah, Kabupaten Lombok Tengah, Nusa Tenggara Bar. 83513","Jontlak, Kec. Praya Tengah, Kabupaten Lombok Tengah",NUSA TENGGARA BARAT,83513.0,Indonesia,,,,-8.7118183,116.2988484,https://maps.google.com/?cid=0x0:0x2844ad0d08a81eb6,
perumahan,Komplek perumahan,Rizka's house,"78G2+64X, Jl. Raya Praya - Keruak, Gerantung, Kec. Praya Tengah, Kabupaten Lombok Tengah, Nusa Tenggara Bar. 83523","Jl. Raya Praya - Keruak, Gerantung, Kec. Praya Tengah, Kabupaten Lombok Tengah",NUSA TENGGARA BARAT,83523.0,Indonesia,,,,-8.7239737,116.3009309,https://maps.google.com/?cid=0x0:0x981f9a7f4df9d2ff,
perumahan,Pembangunan Perumahan,Ganti nama,"77GQ+3R7, Semayan, Kec. Praya, Kabupaten Lombok Tengah, Nusa Tenggara Bar. 83513","Semayan, Kec. Praya, Kabupaten Lombok Tengah",NUSA TENGGARA BARAT,83513.0,Indonesia,,,,-8.7248334,116.2895493,https://maps.google.com/?cid=0x0:0x848436950993e4e6,
perumahan,Komplek perumahan,Kampung pengames,"Praya, Kec. Praya, Kabupaten Lombok Tengah, Nusa Tenggara Bar. 83518","Kec. Praya, Kabupaten Lombok Tengah",NUSA TENGGARA BARAT,83518.0,Indonesia,,,,-8.7049643,116.2805183,https://maps.google.com/?cid=0x0:0xb0fa40280af9ecf1,
perumahan,Komplek perumahan,Rumah bapakmu,"77RV+J8C, Jl. Srigangge, Tiwugalih, Kec. Praya, Kabupaten Lombok Tengah, Nusa Tenggara Bar. 83513","Jl. Srigangge, Tiwugalih, Kec. Praya, Kabupaten Lombok Tengah",NUSA TENGGARA BARAT,83513.0,Indonesia,,,,-8.7084353,116.2932344,https://maps.google.com/?cid=0x0:0x3832e973e0c4c081,
perumahan,Otoritas Perumahan,Tongkek,"77CR+G9, Sasake, Kec. Praya, Kabupaten Lombok Tengah, Nusa Tenggara Bar. 83513","Sasake, Kec. Praya, Kabupaten Lombok Tengah",NUSA TENGGARA BARAT,83513.0,Indonesia,,,,-8.7287957,116.2908923,https://maps.google.com/?cid=0x0:0x863f6543b887032b,
perumahan,Komplek perumahan,Budiyono's Home,"77MV+PCR, Blk. 4, Jontlak, Kec. Praya Tengah, Kabupaten Lombok Tengah, Nusa Tenggara Bar. 83513","Blk. 4, Jontlak, Kec. Praya Tengah, Kabupaten Lombok Tengah",NUSA TENGGARA BARAT,83513.0,Indonesia,,,,-8.7156325,116.2935168,https://maps.google.com/?cid=0x0:0x8f23b93a2e990069,
perumahan,perumahan,HAJI MUHALI,"77MR+6PP, Jl. Cendana, Jontlak, Kec. Praya Tengah, Kabupaten Lombok Tengah, Nusa Tenggara Bar. 83513","Jl. Cendana, Jontlak, Kec. Praya Tengah, Kabupaten Lombok Tengah",NUSA TENGGARA BARAT,83513.0,Indonesia,,,,-8.7169104,116.291829,https://maps.google.com/?cid=0x0:0xcdcb33cc1473b65d,
perumahan,Komplek perumahan,Rumah ARIF DAN NIA,"77MV+M69 Rumah Nia dan arif, Jontlak, Kec. Praya Tengah, Kabupaten Lombok Tengah, Nusa Tenggara Bar. 83513","Jontlak, Kec. Praya Tengah, Kabupaten Lombok Tengah",NUSA TENGGARA BARAT,83513.0,Indonesia,,,,-8.7158491,116.2931163,https://maps.google.com/?cid=0x0:0x4f9ea7d36697739,
perumahan,Komplek perumahan,Yasin A. Rahman,"Jl. Cendana No.20, Jontlak, Kec. Praya Tengah, Kabupaten Lombok Tengah, Nusa Tenggara Bar. 83513","Jontlak, Kec. Praya Tengah, Kabupaten Lombok Tengah",NUSA TENGGARA BARAT,83513.0,Indonesia,,,,-8.7168501,116.2916532,https://maps.google.com/?cid=0x0:0xfd2f28a62db8f160,
perumahan,Otoritas Perumahan,Kenzu Home,"Perumahan Grand Riverside Blok F-14, Jontlak, Praya Tengah, Central Lombok Regency, West Nusa Tenggara 83513","Jontlak, Praya Tengah, Central Lombok Regency",NUSA TENGGARA BARAT,83513.0,Indonesia,,,,-8.7097259,116.2955799,https://maps.google.com/?cid=0x0:0xeb5be281873eae5c,
perumahan,Komplek perumahan,Rumah iyan,"77MR+6X9, Jl. Balau, Jontlak, Kec. Praya Tengah, Kabupaten Lombok Tengah, Nusa Tenggara Bar. 83513","Jl. Balau, Jontlak, Kec. Praya Tengah, Kabupaten Lombok Tengah",NUSA TENGGARA BARAT,83513.0,Indonesia,,,,-8.7169538,116.2924689,https://maps.google.com/?cid=0x0:0xe05d0936a5d7ae04,
perumahan,perumahan,Nusa Tenggara Bar. 83523,"Kec. Praya Tengah, Kabupaten Lombok Tengah, Nusa Tenggara Bar.","Kabupaten Lombok Tengah, Nusa Tenggara Bar.",NUSA TENGGARA BARAT,,Indonesia,,,,-8.7244356,116.3160877,https://maps.google.com/?cid=0x0:0x30c51cb77496764c,
perumahan,Pembangunan Perumahan,Apernas Lombok Residence,"78G2+F37, Semayan, Kec. Praya, Kabupaten Lombok Tengah, Nusa Tenggara Bar. 83523","Semayan, Kec. Praya, Kabupaten Lombok Tengah",NUSA TENGGARA BARAT,83523.0,Indonesia,,,,-8.7238319,116.3001615,https://maps.google.com/?cid=0x0:0x91309697717eee50,
perumahan,Pembangunan Perumahan,Perumahan Pemda Lombok Tengah,"BTN Pemda Lombok Tengah Srigangga, Tiwugalih, Kec. Praya, Kabupaten Lombok Tengah, Nusa Tenggara Bar. 83511","Tiwugalih, Kec. Praya, Kabupaten Lombok Tengah",NUSA TENGGARA BARAT,83511.0,Indonesia,,,,-8.7047538,116.2947419,https://maps.google.com/?cid=0x0:0x41c67c2c741ef6ee,
perumahan,Komplek perumahan,Fam 1,"78G2+X95, Gerantung, Kec. Praya Tengah, Kabupaten Lombok Tengah, Nusa Tenggara Bar. 83523","Gerantung, Kec. Praya Tengah, Kabupaten Lombok Tengah",NUSA TENGGARA BARAT,83523.0,Indonesia,,,,-8.7225127,116.3011577,https://maps.google.com/?cid=0x0:0x8d3dd35a87d585d8,
perumahan,Pembangunan Perumahan,Dusun Nyangget Desa Prai Meke Kecamatan Praya Tengah,"78R9+F3C, Dusun Nyangget, Jurang Jaler, Kec. Praya Tengah, Kabupaten Lombok Tengah, Nusa Tenggara Bar. 83582","Dusun Nyangget, Jurang Jaler, Kec. Praya Tengah, Kabupaten Lombok Tengah",NUSA TENGGARA BARAT,83582.0,Indonesia,,,,-8.7091787,116.3179282,https://maps.google.com/?cid=0x0:0x933bf2ecd48f263c,
perumahan,perumahan,Rumah mamnun,"78JC+HQ, Gerantung, Kec. Praya Tengah, Kabupaten Lombok Tengah, Nusa Tenggara Bar. 83523","Gerantung, Kec. Praya Tengah, Kabupaten Lombok Tengah",NUSA TENGGARA BARAT,83523.0,Indonesia,,,,-8.7185073,116.3223289,https://maps.google.com/?cid=0x0:0x3d58052e7e115f4,
perumahan,Komplek perumahan,Rumah saya,"78C8+6C8, Batunyala, Kec. Praya Tengah, Kabupaten Lombok Tengah, Nusa Tenggara Bar. 83523","Batunyala, Kec. Praya Tengah, Kabupaten Lombok Tengah",NUSA TENGGARA BARAT,83523.0,Indonesia,,,,-8.7284953,116.3161893,https://maps.google.com/?cid=0x0:0xbcf768e84fdf4d9f,
perumahan,Komplek perumahan,Dirrok,"78M5+5C5, Gerantung, Kec. Praya Tengah, Kabupaten Lombok Tengah, Nusa Tenggara Bar. 83523","Gerantung, Kec. Praya Tengah, Kabupaten Lombok Tengah",NUSA TENGGARA BARAT,83523.0,Indonesia, 081703536300,,,-8.7169865,116.3082557,https://maps.google.com/?cid=0x0:0x438007749538b056,
perumahan,Komplek perumahan,Perumnas Tampar ampar,"Jl. Trembesi No.13, RT.06/RW.02, Jontlak, Kec. Praya, Kabupaten Lombok Tengah, Nusa Tenggara Bar. 83518","RT.06/RW.02, Jontlak, Kec. Praya, Kabupaten Lombok Tengah",NUSA TENGGARA BARAT,83518.0,Indonesia, 081260778440,,,-8.7166267,116.2917034,https://maps.google.com/?cid=0x0:0x83f832430d3a135e,
perumahan,Pembangunan Perumahan,DaruCan Villa,"78C6+XM4, Batunyala, Kec. Praya Tengah, Kabupaten Lombok Tengah, Nusa Tenggara Bar. 83523","Batunyala, Kec. Praya Tengah, Kabupaten Lombok Tengah",NUSA TENGGARA BARAT,83523.0,Indonesia,,,,-8.7276102,116.311701,https://maps.google.com/?cid=0x0:0xb0bcea12fdc63f27,
perumahan,Komplek perumahan,Praya tengah perumnas tampar ampar,"78C6+4M4, Batunyala, Kec. Praya Tengah, Kabupaten Lombok Tengah, Nusa Tenggara Bar.","Kabupaten Lombok Tengah, Nusa Tenggara Bar.",NUSA TENGGARA BARAT,,Indonesia,,,,-8.7297319,116.3117006,https://maps.google.com/?cid=0x0:0xb7a370f4c852cbce,
perumahan,Pembangunan Perumahan,"Dusun Riris, Desa Batunyala","Jl. Raya Batunyala Desa Batunyala Dusun Riris, Batunyala, Kec. Praya Tengah, Kabupaten Lombok Tengah, Nusa Tenggara Bar. 83523","Batunyala, Kec. Praya Tengah, Kabupaten Lombok Tengah",NUSA TENGGARA BARAT,83523.0,Indonesia, 081999468193,,,-8.7205267,116.3201724,https://maps.google.com/?cid=0x0:0xef312f6fc2e5a50f,
perumahan,Komplek perumahan,rumah,"77QX+5G6, Jontlak, Kec. Praya Tengah, Kabupaten Lombok Tengah, Nusa Tenggara Bar. 83513","Jontlak, Kec. Praya Tengah, Kabupaten Lombok Tengah",NUSA TENGGARA BARAT,83513.0,Indonesia,,,,-8.7118183,116.2988484,https://maps.google.com/?cid=0x0:0x2844ad0d08a81eb6,
perumahan,Komplek perumahan,PERUMAHAN MAHKOTA PRAYA REGENCY (MPR),"77QW+83, Jontlak, Kec. Praya Tengah, Kabupaten Lombok Tengah, Nusa Tenggara Bar. 83513","Jontlak, Kec. Praya Tengah, Kabupaten Lombok Tengah",NUSA TENGGARA BARAT,83513.0,Indonesia,,,,-8.7115926,116.2951823,https://maps.google.com/?cid=0x0:0x2ce7d6e64a3ee8ea,
perumahan,Komplek perumahan,Rumah Jumardiyansyah,"Jl. Raya Praya - Mujur No.45, Batunyala, Kec. Praya Tengah, Kabupaten Lombok Tengah, Nusa Tenggara Bar. 83582","Batunyala, Kec. Praya Tengah, Kabupaten Lombok Tengah",NUSA TENGGARA BARAT,83582.0,Indonesia,,,,-8.7326369,116.3163544,https://maps.google.com/?cid=0x0:0x12461e442c41d50e,
perumahan,Perumahan rakyat,KLP TANI RUMPUN SEHATI,"78P5+8P2 Montong Rapi, Kelurahan, Gerantung, Praya Tengah, Central Lombok Regency, West Nusa Tenggara 83523","Kelurahan, Gerantung, Praya Tengah, Central Lombok Regency",NUSA TENGGARA BARAT,83523.0,Indonesia,,,,-8.7144559,116.3085148,https://maps.google.com/?cid=0x0:0x5c9e514e5e3cdc62,
perumahan,Komplek perumahan,Kampung pengames,"Praya, Kec. Praya, Kabupaten Lombok Tengah, Nusa Tenggara Bar. 83518","Kec. Praya, Kabupaten Lombok Tengah",NUSA TENGGARA BARAT,83518.0,Indonesia,,,,-8.7049643,116.2805183,https://maps.google.com/?cid=0x0:0xb0fa40280af9ecf1,
perumahan,Komplek perumahan,Bale dimasss,"78GM+V75, Beraim, Kec. Praya Tengah, Kabupaten Lombok Tengah, Nusa Tenggara Bar. 83523","Beraim, Kec. Praya Tengah, Kabupaten Lombok Tengah",NUSA TENGGARA BARAT,83523.0,Indonesia,,,,-8.7228553,116.3332344,https://maps.google.com/?cid=0x0:0x7679ec33d3a112c3,
perumahan,Perumahan,Perumahan Pemda Lombok Tengah Blok U 3,"77VV+6H2, Tiwugalih, Kec. Praya, Kabupaten Lombok Tengah, Nusa Tenggara Bar. 83511","Tiwugalih, Kec. Praya, Kabupaten Lombok Tengah",NUSA TENGGARA BARAT,83511.0,Indonesia,,,,-8.7069927,116.2938573,https://maps.google.com/?cid=0x0:0x5ad2909a7f42eca3,
perumahan,perumahan,Aniaas home,"77GV+V9P KAMPUNG MUSDALIPAH, RT.012/RW.001, Sasake, Kec. Praya Tengah, Kabupaten Lombok Tengah, Nusa Tenggara Bar.","Kabupaten Lombok Tengah, Nusa Tenggara Bar.",NUSA TENGGARA BARAT,,Indonesia,,,,-8.7227923,116.2934549,https://maps.google.com/?cid=0x0:0xc6cd15c6bb6550eb,
perumahan,Komplek perumahan,RUMAH SEHAT MUTIARA DUNIA,"77CR+J6Q, Semayan, Kec. Praya, Kabupaten Lombok Tengah, Nusa Tenggara Bar. 83513","Semayan, Kec. Praya, Kabupaten Lombok Tengah",NUSA TENGGARA BARAT,83513.0,Indonesia, 087748004451,,,-8.7284174,116.290617,https://maps.google.com/?cid=0x0:0x6f3c3e8e85918328,
perumahan,Masjid,jln Masjid Baiturrahman,"7862+RGW, Lajut, Kec. Praya Tengah, Kabupaten Lombok Tengah, Nusa Tenggara Bar. 83582","Lajut, Kec. Praya Tengah, Kabupaten Lombok Tengah",NUSA TENGGARA BARAT,83582.0,Indonesia,,,,-8.7378821,116.3013377,https://maps.google.com/?cid=0x0:0x9d1721b5cc017481,
perumahan,Komplek perumahan,batu nyale,"78C8+6C8, Batunyala, Kec. Praya Tengah, Kabupaten Lombok Tengah, Nusa Tenggara Bar.","Kabupaten Lombok Tengah, Nusa Tenggara Bar.",NUSA TENGGARA BARAT,,Indonesia,,,,-8.7294594,116.3160877,https://maps.google.com/?cid=0x0:0xcda0ec3c9f3a5187,
perumahan,perumahan,Usaha Batu Bata Dusun Montong Waru,"78GM+V75, Beraim, Kec. Praya Tengah, Kabupaten Lombok Tengah, Nusa Tenggara Bar. 83523","Beraim, Kec. Praya Tengah, Kabupaten Lombok Tengah",NUSA TENGGARA BARAT,83523.0,Indonesia,,,,-8.7229239,116.3341755,https://maps.google.com/?cid=0x0:0xcf2bd5b8483b024,
perumahan,Komplek perumahan,Jagat Lebah Abah Dudik,"78F6+3HR, Batunyala, Kec. Praya Tengah, Kabupaten Lombok Tengah, Nusa Tenggara Bar. 83523","Batunyala, Kec. Praya Tengah, Kabupaten Lombok Tengah",NUSA TENGGARA BARAT,83523.0,Indonesia,,,,-8.7272592,116.3114036,https://maps.google.com/?cid=0x0:0xac8220209530e6a5,
perumahan,Komplek perumahan,RUMAH ALPINO,"78M3+2H8, Gerantung, Kec. Praya Tengah, Kabupaten Lombok Tengah, Nusa Tenggara Bar.","Kabupaten Lombok Tengah, Nusa Tenggara Bar.",NUSA TENGGARA BARAT,,Indonesia,,,,-8.7174657,116.3039527,https://maps.google.com/?cid=0x0:0x2a609c166d4a5822,
perumahan,Pembangunan Perumahan,KAWI,"Unnamed Road, Gerantung, Kec. Praya Tengah, Kabupaten Lombok Tengah, Nusa Tenggara Bar. 83513","Gerantung, Kec. Praya Tengah, Kabupaten Lombok Tengah",NUSA TENGGARA BARAT,83513.0,Indonesia, 087702511698,,,-8.7185603,116.3049539,https://maps.google.com/?cid=0x0:0x4a0a99c690337a08,
perumahan,Perumahan rakyat,Rumah Abah Jazi,"7897+R6J, Batunyala, Kec. Praya Tengah, Kabupaten Lombok Tengah, Nusa Tenggara Bar.","Kabupaten Lombok Tengah, Nusa Tenggara Bar.",NUSA TENGGARA BARAT,,Indonesia,,,,-8.730405,116.313017,https://maps.google.com/?cid=0x0:0xd4c3593a66f197b0,
perumahan,Pembangunan Perumahan,Perumahan Pemda Lombok Tengah,"BTN Pemda Lombok Tengah Srigangga, Tiwugalih, Kec. Praya, Kabupaten Lombok Tengah, Nusa Tenggara Bar. 83511","Tiwugalih, Kec. Praya, Kabupaten Lombok Tengah",NUSA TENGGARA BARAT,83511.0,Indonesia,,,,-8.7047538,116.2947419,https://maps.google.com/?cid=0x0:0x41c67c2c741ef6ee,
perumahan,Komplek perumahan,PERUMAHAN MAHKOTA PRAYA REGENCY (MPR),"77QW+83, Jontlak, Kec. Praya Tengah, Kabupaten Lombok Tengah, Nusa Tenggara Bar. 83513","Jontlak, Kec. Praya Tengah, Kabupaten Lombok Tengah",NUSA TENGGARA BARAT,83513.0,Indonesia,,,,-8.7115926,116.2951823,https://maps.google.com/?cid=0x0:0x2ce7d6e64a3ee8ea,
perumahan,perumahan,Nusa Tenggara Bar. 83582,"Kec. Praya Tengah, Kabupaten Lombok Tengah, Nusa Tenggara Bar.","Kabupaten Lombok Tengah, Nusa Tenggara Bar.",NUSA TENGGARA BARAT,,Indonesia,,,,-8.7404849,116.3367515,https://maps.google.com/?cid=0x0:0x50fbbb1cdb69df18,
perumahan,Komplek perumahan,rumah mian septiana,"782F+7X5, Pejanggik, Kec. Praya Tengah, Kabupaten Lombok Tengah, Nusa Tenggara Bar. 83582","Pejanggik, Kec. Praya Tengah, Kabupaten Lombok Tengah",NUSA TENGGARA BARAT,83582.0,Indonesia,,,,-8.7493575,116.3249699,https://maps.google.com/?cid=0x0:0xe335058990288e18,
perumahan,Perhimpunan Pengembang Perumahan,Musannif,"79F4+5JX, Kelebuh, Kec. Praya Tengah, Kabupaten Lombok Tengah, Nusa Tenggara Bar. 83582","Kelebuh, Kec. Praya Tengah, Kabupaten Lombok Tengah",NUSA TENGGARA BARAT,83582.0,Indonesia,,,,-8.7270378,116.3566028,https://maps.google.com/?cid=0x0:0x171ae0993d365dbb,
perumahan,Pembangunan Perumahan,Dusun Nyangget Desa Prai Meke Kecamatan Praya Tengah,"78R9+F3C, Dusun Nyangget, Jurang Jaler, Kec. Praya Tengah, Kabupaten Lombok Tengah, Nusa Tenggara Bar. 83582","Dusun Nyangget, Jurang Jaler, Kec. Praya Tengah, Kabupaten Lombok Tengah",NUSA TENGGARA BARAT,83582.0,Indonesia,,,,-8.7091787,116.3179282,https://maps.google.com/?cid=0x0:0x933bf2ecd48f263c,
perumahan,Komplek perumahan,Rumah yana,"68XG+HQM, Pejanggik, Kec. Praya Tengah, Kabupaten Lombok Tengah, Nusa Tenggara Bar. 83582","Pejanggik, Kec. Praya Tengah, Kabupaten Lombok Tengah",NUSA TENGGARA BARAT,83582.0,Indonesia,,,,-8.7510257,116.3269165,https://maps.google.com/?cid=0x0:0x42f0bf1f3d537c48,
perumahan,Komplek perumahan,Rumah hendra,"Pejanggik, Kec. Praya Tengah, Kabupaten Lombok Tengah, Nusa Tenggara Bar. 83582","Kec. Praya Tengah, Kabupaten Lombok Tengah",NUSA TENGGARA BARAT,83582.0,Indonesia, 085954119116,,,-8.7543507,116.3263236,https://maps.google.com/?cid=0x0:0x823089e49368668b,
perumahan,Komplek perumahan,Ledang,"7832+3J6, Lajut, Kec. Praya Tengah, Kabupaten Lombok Tengah, Nusa Tenggara Bar. 83582","Lajut, Kec. Praya Tengah, Kabupaten Lombok Tengah",NUSA TENGGARA BARAT,83582.0,Indonesia,,,,-8.747347,116.3015225,https://maps.google.com/?cid=0x0:0xe01328eddcf1e529,
perumahan,Perhimpunan Pengembang Perumahan,Dusun BirAli Desa Pejanggik Kec.Praya Tengah Kab.Lombok Tengah NTB,"Birali, Pejanggik, Kec. Praya Tengah, Kabupaten Lombok Tengah, Nusa Tenggara Bar. 83582","Pejanggik, Kec. Praya Tengah, Kabupaten Lombok Tengah",NUSA TENGGARA BARAT,83582.0,Indonesia,,,,-8.7420488,116.332208,https://maps.google.com/?cid=0x0:0xbed0350fe2229465,
perumahan,Otoritas Perumahan,BTN Tastura Praya,"875P+GP5, kampung begak, tengah, Semayan, Kec. Praya, Kabupaten Lombok Tengah, Nusa Tenggara Bar. 83514","kampung begak, tengah, Semayan, Kec. Praya, Kabupaten Lombok Tengah",NUSA TENGGARA BARAT,83514.0,Indonesia,,,,-8.6912394,116.2868549,https://maps.google.com/?cid=0x0:0xd9e66e7f570565f0,
perumahan,Pembangunan Perumahan,Rumah Doni Irwan,"883C+VG, Pengadang, Kec. Praya Tengah, Kabupaten Lombok Tengah, Nusa Tenggara Bar. 83582","Pengadang, Kec. Praya Tengah, Kabupaten Lombok Tengah",NUSA TENGGARA BARAT,83582.0,Indonesia,,,,-8.6950469,116.320944,https://maps.google.com/?cid=0x0:0x17e3b58dd4f568c1,
perumahan,Pembangunan Perumahan,dusun kompong,"783M+6XF, Pejanggik, Kec. Praya Tengah, Kabupaten Lombok Tengah, Nusa Tenggara Bar. 83582","Pejanggik, Kec. Praya Tengah, Kabupaten Lombok Tengah",NUSA TENGGARA BARAT,83582.0,Indonesia,,,,-8.7469149,116.334872,https://maps.google.com/?cid=0x0:0x68ed9872bcdfba86,
perumahan,Tempat Ibadah,pengembok,"79F3+FV2, Kelebuh, Kec. Praya Tengah, Kabupaten Lombok Tengah, Nusa Tenggara Bar. 83582","Kelebuh, Kec. Praya Tengah, Kabupaten Lombok Tengah",NUSA TENGGARA BARAT,83582.0,Indonesia,,,,-8.7263541,116.3546473,https://maps.google.com/?cid=0x0:0x7bb9d20f8c778410,
perumahan,Perhimpunan Pengembang Perumahan,DUSUN SENANG,"78QW+G3G, Beraim, Kec. Praya Tengah, Kabupaten Lombok Tengah, Nusa Tenggara Bar. 83582","Beraim, Kec. Praya Tengah, Kabupaten Lombok Tengah",NUSA TENGGARA BARAT,83582.0,Indonesia,,,,-8.7112459,116.345208,https://maps.google.com/?cid=0x0:0x2d1a9105958b370a,
perumahan,Pembangunan Perumahan,Alina Hidayah,"789Q+VVM, Kelebuh, Kec. Praya Tengah, Kabupaten Lombok Tengah, Nusa Tenggara Bar. 83582","Kelebuh, Kec. Praya Tengah, Kabupaten Lombok Tengah",NUSA TENGGARA BARAT,83582.0,Indonesia, 087757301125,,,-8.7303769,116.3394592,https://maps.google.com/?cid=0x0:0x2a7fb5ab21aaba57,
perumahan,Komplek perumahan,Rejiwe,"789X+M8, Kelebuh, Kec. Praya Tengah, Kabupaten Lombok Tengah, Nusa Tenggara Bar. 83582","Kelebuh, Kec. Praya Tengah, Kabupaten Lombok Tengah",NUSA TENGGARA BARAT,83582.0,Indonesia,,,,-8.7311308,116.3479484,https://maps.google.com/?cid=0x0:0x9340ddd517135096,
perumahan,Komplek perumahan,paokdempek,"78CV+87, jln raya, Kelebuh, Praya Tengah, Central Lombok Regency, West Nusa Tenggara 83582","jln raya, Kelebuh, Praya Tengah, Central Lombok Regency",NUSA TENGGARA BARAT,83582.0,Indonesia,,,,-8.7288459,116.3424937,https://maps.google.com/?cid=0x0:0xc465d53326e6c982,
perumahan,Komplek perumahan,JONGGEK,"7942+FVP, Sukaraja, Kec. Praya Tim., Kabupaten Lombok Tengah, Nusa Tenggara Bar. 83582","Sukaraja, Kec. Praya Tim., Kabupaten Lombok Tengah",NUSA TENGGARA BARAT,83582.0,Indonesia,,,,-8.7434889,116.3521983,https://maps.google.com/?cid=0x0:0xb79ca33d6be16fe6,
perumahan,Komplek perumahan,Rumah pitt,"782G+4MF, Pejanggik, Kec. Praya Tengah, Kabupaten Lombok Tengah, Nusa Tenggara Bar. 83582","Pejanggik, Kec. Praya Tengah, Kabupaten Lombok Tengah",NUSA TENGGARA BARAT,83582.0,Indonesia,,,,-8.7496806,116.3266566,https://maps.google.com/?cid=0x0:0x744cfade88884a94,
perumahan,Komplek perumahan,Rumah saya,"78C8+6C8, Batunyala, Kec. Praya Tengah, Kabupaten Lombok Tengah, Nusa Tenggara Bar. 83523","Batunyala, Kec. Praya Tengah, Kabupaten Lombok Tengah",NUSA TENGGARA BARAT,83523.0,Indonesia,,,,-8.7284953,116.3161893,https://maps.google.com/?cid=0x0:0xbcf768e84fdf4d9f,
perumahan,Komplek perumahan,Rumah Jumardiyansyah,"Jl. Raya Praya - Mujur No.45, Batunyala, Kec. Praya Tengah, Kabupaten Lombok Tengah, Nusa Tenggara Bar. 83582","Batunyala, Kec. Praya Tengah, Kabupaten Lombok Tengah",NUSA TENGGARA BARAT,83582.0,Indonesia,,,,-8.7326369,116.3163544,https://maps.google.com/?cid=0x0:0x12461e442c41d50e,
perumahan,Pembangunan Perumahan,Rumah Insap,"888H+MGF, Gang Yayasan Assalma, Pengadang, Kec. Praya Tengah, Kabupaten Lombok Tengah, Nusa Tenggara Bar. 83582","Gang Yayasan Assalma, Pengadang, Kec. Praya Tengah, Kabupaten Lombok Tengah",NUSA TENGGARA BARAT,83582.0,Indonesia,,,,-8.6833154,116.3288014,https://maps.google.com/?cid=0x0:0x50720df5982be9b6,
perumahan,Komplek perumahan,Rumah andri,"7834+H64, Jl. Raya Batunyala, Lajut, Kec. Praya Tengah, Kabupaten Lombok Tengah, Nusa Tenggara Bar. 83582","Jl. Raya Batunyala, Lajut, Kec. Praya Tengah, Kabupaten Lombok Tengah",NUSA TENGGARA BARAT,83582.0,Indonesia,,,,-8.7461233,116.3055834,https://maps.google.com/?cid=0x0:0x4191cf993fbb34dd,
perumahan,Dapur Umum,Sanggeng Village,"788M+VF7, Jl. Pengadang, Batunyala, Kec. Praya Tengah, Kabupaten Lombok Tengah, Nusa Tenggara Bar. 83582","Jl. Pengadang, Batunyala, Kec. Praya Tengah, Kabupaten Lombok Tengah",NUSA TENGGARA BARAT,83582.0,Indonesia,,,,-8.7328458,116.3336703,https://maps.google.com/?cid=0x0:0xa68758ce07c05c13,
perumahan,perumahan,rumah nabil,"782G+659, Pejanggik, Kec. Praya Tengah, Kabupaten Lombok Tengah, Nusa Tenggara Bar. 83582","Pejanggik, Kec. Praya Tengah, Kabupaten Lombok Tengah",NUSA TENGGARA BARAT,83582.0,Indonesia,,,,-8.7495048,116.3255204,https://maps.google.com/?cid=0x0:0x9e946b81122e17ab,
perumahan,Pembangunan Perumahan,Roemah Mandalika,"Jl. Raya Batunyala No.17, Batunyala, Kec. Praya Tengah, Kabupaten Lombok Tengah, Nusa Tenggara Bar. 83582","Batunyala, Kec. Praya Tengah, Kabupaten Lombok Tengah",NUSA TENGGARA BARAT,83582.0,Indonesia, 081907760999,,,-8.7373801,116.3095648,https://maps.google.com/?cid=0x0:0xbb0ec8ae576e6f5b,
perumahan,Pembangunan Perumahan,Awal hajj,"78P8+PX9, Unnamed Road, Gerantung, Kec. Praya Tengah, Kabupaten Lombok Tengah, Nusa Tenggara Bar. 83582","Unnamed Road, Gerantung, Kec. Praya Tengah, Kabupaten Lombok Tengah",NUSA TENGGARA BARAT,83582.0,Indonesia,,,,-8.7132148,116.3174805,https://maps.google.com/?cid=0x0:0x5ebf305949905ef2,
perumahan,Pembangunan Perumahan,Bale Tomi,"68WP+89R, Pejanggik, Kec. Praya Tengah, Kabupaten Lombok Tengah, Nusa Tenggara Bar. 83582","Pejanggik, Kec. Praya Tengah, Kabupaten Lombok Tengah",NUSA TENGGARA BARAT,83582.0,Indonesia,,,,-8.7541286,116.3358774,https://maps.google.com/?cid=0x0:0x64263d3ed83e33e1,
perumahan,Pembangunan Perumahan,Rumah,"69PQ+7MR, Sengkerang, Kec. Praya Tim., Kabupaten Lombok Tengah, Nusa Tenggara Bar. 83581","Sengkerang, Kec. Praya Tim., Kabupaten Lombok Tengah",NUSA TENGGARA BARAT,83581.0,Indonesia,,,,-8.7642545,116.3891514,https://maps.google.com/?cid=0x0:0x9a03b56cadafd74b,
perumahan,perumahan,Nusa Tenggara Bar. 83581,"Kabupaten Lombok Tengah, Nusa Tenggara Bar.","Kabupaten Lombok Tengah, Nusa Tenggara Bar.",NUSA TENGGARA BARAT,,Indonesia,,,,-8.786326,116.3957812,https://maps.google.com/?cid=0x0:0x4df37ec628e50f0e,
perumahan,Komplek perumahan,Sengkerang,"69JF+QGX, Sengkerang, Kec. Praya Tim., Kabupaten Lombok Tengah, Nusa Tenggara Bar. 83581","Sengkerang, Kec. Praya Tim., Kabupaten Lombok Tengah",NUSA TENGGARA BARAT,83581.0,Indonesia,,,,-8.7680025,116.3738611,https://maps.google.com/?cid=0x0:0x2ae65ba6efe59557,
perumahan,Pembangunan Perumahan,Batungapah,"6959+FG2, Landah, Kec. Praya Tim., Kabupaten Lombok Tengah, Nusa Tenggara Bar. 83581","Landah, Kec. Praya Tim., Kabupaten Lombok Tengah",NUSA TENGGARA BARAT,83581.0,Indonesia,,,,-8.7913533,116.3687776,https://maps.google.com/?cid=0x0:0x842e9f3494dfbac9,
perumahan,Hotel,Rumah zm,"59P8+WPQ, Kidang, Kec. Praya Tim., Kabupaten Lombok Tengah, Nusa Tenggara Bar. 83581","Kidang, Kec. Praya Tim., Kabupaten Lombok Tengah",NUSA TENGGARA BARAT,83581.0,Indonesia,,,,-8.8127155,116.3668448,https://maps.google.com/?cid=0x0:0xf9dce5cf9d6d7e99,
perumahan,Komplek perumahan,Bulurmayung,"59MH+5Q4, haji suhaini, Bilelando, Kec. Praya Tim., Kabupaten Lombok Tengah, Nusa Tenggara Bar. 83581","haji suhaini, Bilelando, Kec. Praya Tim., Kabupaten Lombok Tengah",NUSA TENGGARA BARAT,83581.0,Indonesia,,,,-8.8171247,116.379439,https://maps.google.com/?cid=0x0:0xc6125b00803f5419,
perumahan,perumahan,Rumah Irwan,"69CJ+VG2, Unnamed Road, Landah, Kec. Praya Tim., Kabupaten Lombok Tengah, Nusa Tenggara Bar. 83581","Unnamed Road, Landah, Kec. Praya Tim., Kabupaten Lombok Tengah",NUSA TENGGARA BARAT,83581.0,Indonesia,,,,-8.7778673,116.3812017,https://maps.google.com/?cid=0x0:0xe00d0cf9d0420b2e,
perumahan,Perhimpunan Pengembang Perumahan,Rumah alex,"5CX6+P8R, Semoyang, Kec. Praya Tim., Kabupaten Lombok Tengah, Nusa Tenggara Bar. 83581","Semoyang, Kec. Praya Tim., Kabupaten Lombok Tengah",NUSA TENGGARA BARAT,83581.0,Indonesia,,,,-8.8009025,116.4107042,https://maps.google.com/?cid=0x0:0x16326e80131c20c5,
perumahan,Komplek perumahan,DUSUN PINGGIR,"Sengkerang, Kec. Praya Tim., Kabupaten Lombok Tengah, Nusa Tenggara Bar. 83581","Kec. Praya Tim., Kabupaten Lombok Tengah",NUSA TENGGARA BARAT,83581.0,Indonesia, 082144038818,,,-8.7708311,116.3850867,https://maps.google.com/?cid=0x0:0x98d4c77f86a62175,
perumahan,Perumahan,Pertigaan Penangsak,"69M9+78M, Jl. Raya Sengkerang, Sengkerang, Kec. Praya Tim., Kabupaten Lombok Tengah, Nusa Tenggara Bar. 83581","Jl. Raya Sengkerang, Sengkerang, Kec. Praya Tim., Kabupaten Lombok Tengah",NUSA TENGGARA BARAT,83581.0,Indonesia,,,,-8.7667988,116.3682647,https://maps.google.com/?cid=0x0:0x66197f69d0329b86,
perumahan,Pembangunan Perumahan,Ganti,"69JV+7JQ, Ganti, Kec. Praya Tim., Kabupaten Lombok Tengah, Nusa Tenggara Bar. 83581","Ganti, Kec. Praya Tim., Kabupaten Lombok Tengah",NUSA TENGGARA BARAT,83581.0,Indonesia,,,,-8.7692893,116.3941169,https://maps.google.com/?cid=0x0:0xc0088918f2feedd5,
perumahan,Komplek perumahan,BALE YUDIK,"699J+VFG, Landah, Kec. Praya Tim., Kabupaten Lombok Tengah, Nusa Tenggara Bar. 83581","Landah, Kec. Praya Tim., Kabupaten Lombok Tengah",NUSA TENGGARA BARAT,83581.0,Indonesia, 087744779800,,,-8.7803192,116.3812339,https://maps.google.com/?cid=0x0:0x880b63a7b4f791c1,
perumahan,Komplek perumahan,Rumah budiman,"Jl. Raya Sengkerang No.2, Ganti, Kec. Praya Tim., Kabupaten Lombok Tengah, Nusa Tenggara Bar. 83581","Ganti, Kec. Praya Tim., Kabupaten Lombok Tengah",NUSA TENGGARA BARAT,83581.0,Indonesia,,,,-8.7691401,116.3974645,https://maps.google.com/?cid=0x0:0xd3457691cd9c6fd9,
perumahan,Perhimpunan Pengembang Perumahan,Rumah Suryadi,"6C34+QJ9, Semoyang, Kec. Praya Tim., Kabupaten Lombok Tengah, Nusa Tenggara Bar. 83581","Semoyang, Kec. Praya Tim., Kabupaten Lombok Tengah",NUSA TENGGARA BARAT,83581.0,Indonesia,,,,-8.7971901,116.4071799,https://maps.google.com/?cid=0x0:0x350a1b6216254f4d,
perumahan,perumahan,Rumah hakim,"6C24+WWX, Semoyang, Kec. Praya Tim., Kabupaten Lombok Tengah, Nusa Tenggara Bar. 83581","Semoyang, Kec. Praya Tim., Kabupaten Lombok Tengah",NUSA TENGGARA BARAT,83581.0,Indonesia,,,,-8.7976471,116.4073673,https://maps.google.com/?cid=0x0:0x7cbdebef241f66a1,
perumahan,Komplek perumahan,Rumah Yliaa,"59QP+CHV, Semoyang, Kec. Praya Tim., Kabupaten Lombok Tengah, Nusa Tenggara Bar. 83581","Semoyang, Kec. Praya Tim., Kabupaten Lombok Tengah",NUSA TENGGARA BARAT,83581.0,Indonesia,,,,-8.8112124,116.3870171,https://maps.google.com/?cid=0x0:0xa5db85c29126825e,
perumahan,Pembangunan Perumahan,Ntb,"Jl. Raya Sengkerang, Ganti, Kec. Praya Tim., Kabupaten Lombok Tengah, Nusa Tenggara Bar. 83581","Ganti, Kec. Praya Tim., Kabupaten Lombok Tengah",NUSA TENGGARA BARAT,83581.0,Indonesia,,,,-8.7688025,116.3957967,https://maps.google.com/?cid=0x0:0xb3aa9aafd211bd86,
perumahan,Perumahan,Mandak,"697R+QVP, Jalan Raya, Semoyang, Praya Timur, Central Lombok Regency, West Nusa Tenggara 83581","Jalan Raya, Semoyang, Praya Timur, Central Lombok Regency",NUSA TENGGARA BARAT,83581.0,Indonesia,,,,-8.7855305,116.392214,https://maps.google.com/?cid=0x0:0x6bf53acef73ce777,
perumahan,Perumahan,DUSUN SEMEGE,"6C45+27P, Semoyang, Kec. Praya Tim., Kabupaten Lombok Tengah, Nusa Tenggara Bar. 83581","Semoyang, Kec. Praya Tim., Kabupaten Lombok Tengah",NUSA TENGGARA BARAT,83581.0,Indonesia,,,,-8.7949013,116.4082185,https://maps.google.com/?cid=0x0:0x831427d233b07232,
perumahan,Pembangunan Perumahan,Im Number Four,"6CHF+69P, Jl. Raya Sengkerang, Ganti, Kec. Praya Tim., Kabupaten Lombok Tengah, Nusa Tenggara Bar. 83581","Jl. Raya Sengkerang, Ganti, Kec. Praya Tim., Kabupaten Lombok Tengah",NUSA TENGGARA BARAT,83581.0,Indonesia,,,,-8.7719467,116.4234392,https://maps.google.com/?cid=0x0:0x3c5d15f4685c806e,
perumahan,Komplek perumahan,Ramli Photo,"69MC+HV4, Jl. Raya Sengkerang, Sengkerang, Kec. Praya Tim., Kabupaten Lombok Tengah, Nusa Tenggara Bar. 83581","Jl. Raya Sengkerang, Sengkerang, Kec. Praya Tim., Kabupaten Lombok Tengah",NUSA TENGGARA BARAT,83581.0,Indonesia, 087763311805,,,-8.7661127,116.3722047,https://maps.google.com/?cid=0x0:0x2513a17c8675fd4d,
perumahan,Komplek perumahan,Ulfa,"6CHF+5GG, Ganti, Kec. Praya Tim., Kabupaten Lombok Tengah, Nusa Tenggara Bar. 83581","Ganti, Kec. Praya Tim., Kabupaten Lombok Tengah",NUSA TENGGARA BARAT,83581.0,Indonesia,,,,-8.7722628,116.423826,https://maps.google.com/?cid=0x0:0xd265ba0730ca7801,
perumahan,Komplek perumahan,DhoFz,"59HQ+HV, Bilelando, Kec. Praya Tim., Kabupaten Lombok Tengah, Nusa Tenggara Bar. 83581","Bilelando, Kec. Praya Tim., Kabupaten Lombok Tengah",NUSA TENGGARA BARAT,83581.0,Indonesia,,,,-8.8210508,116.3896768,https://maps.google.com/?cid=0x0:0xf1ab5e889b27bb60,
perumahan,Gedung Apartemen,Sahloem,"6CH6+RM3, Ganti, Kec. Praya Tim., Kabupaten Lombok Tengah, Nusa Tenggara Bar. 83581","Ganti, Kec. Praya Tim., Kabupaten Lombok Tengah",NUSA TENGGARA BARAT,83581.0,Indonesia,,,,-8.7703436,116.411449,https://maps.google.com/?cid=0x0:0xa1d521dfcb3f3cef,
perumahan,Komplek perumahan,"Rumah Moh.Saharudin,S.Tp","695R+FF6, Semoyang, Kec. Praya Tim., Kabupaten Lombok Tengah, Nusa Tenggara Bar. 83581","Semoyang, Kec. Praya Tim., Kabupaten Lombok Tengah",NUSA TENGGARA BARAT,83581.0,Indonesia,,,,-8.7912091,116.3912664,https://maps.google.com/?cid=0x0:0x4805d420c65f5858,
perumahan,Komplek perumahan,Paket Asyiap,"6993+994, Jl. Raya Mujur-Marong, Marong, Kec. Praya Tim., Kabupaten Lombok Tengah, Nusa Tenggara Bar. 83581","Jl. Raya Mujur-Marong, Marong, Kec. Praya Tim., Kabupaten Lombok Tengah",NUSA TENGGARA BARAT,83581.0,Indonesia,,,,-8.7817898,116.3522513,https://maps.google.com/?cid=0x0:0x4f3005c96d39ea63,
perumahan,Komplek perumahan,Tempat jemuran padi,"6C25+V3H, Semoyang, Kec. Praya Tim., Kabupaten Lombok Tengah, Nusa Tenggara Bar. 83581","Semoyang, Kec. Praya Tim., Kabupaten Lombok Tengah",NUSA TENGGARA BARAT,83581.0,Indonesia,,,,-8.7978113,116.4076921,https://maps.google.com/?cid=0x0:0x2d99d6283e475564,
perumahan,Komplek perumahan,Mujur - peras,"6965+HFM, Jl. Sukaraja, Marong, Kec. Praya Tim., Kabupaten Lombok Tengah, Nusa Tenggara Bar. 83581","Jl. Sukaraja, Marong, Kec. Praya Tim., Kabupaten Lombok Tengah",NUSA TENGGARA BARAT,83581.0,Indonesia,,,,-8.7885481,116.3586736,https://maps.google.com/?cid=0x0:0xb5331f98cc4c32f6,
perumahan,Pembangunan Perumahan,Jumirim,"599G+Q29, Jumirim, Kidang, Kec. Praya Tim., Kabupaten Lombok Tengah, Nusa Tenggara Bar. 83581","Jumirim, Kidang, Kec. Praya Tim., Kabupaten Lombok Tengah",NUSA TENGGARA BARAT,83581.0,Indonesia,,,,-8.8305943,116.3751125,https://maps.google.com/?cid=0x0:0x469c7dff23e6cbb2,
perumahan,perumahan,Nusa Tenggara Bar. 83562,"Kec. Pringgarata, Kabupaten Lombok Tengah, Nusa Tenggara Bar.","Kabupaten Lombok Tengah, Nusa Tenggara Bar.",NUSA TENGGARA BARAT,,Indonesia,,,,-8.6051323,116.2658968,https://maps.google.com/?cid=0x0:0x18c5582e89cc10e8,
perumahan,Pembangunan Perumahan,Pringgarata,"97G2+J8V, Depan SDN 2 selatan SMA 1, Pringgarata, Kec. Pringgarata, Kabupaten Lombok Tengah, Nusa Tenggara Bar.","Kabupaten Lombok Tengah, Nusa Tenggara Bar.",NUSA TENGGARA BARAT,,Indonesia,,,,-8.623389,116.2507854,https://maps.google.com/?cid=0x0:0x5ee816455008f5f0,
perumahan,perumahan,Ntaaa Here,"97Q8+84V, Pringgarata, Kec. Pringgarata, Kabupaten Lombok Tengah, Nusa Tenggara Bar. 83562","Pringgarata, Kec. Pringgarata, Kabupaten Lombok Tengah",NUSA TENGGARA BARAT,83562.0,Indonesia,,,,-8.6116283,116.2652876,https://maps.google.com/?cid=0x0:0xaef9ae713a4b53eb,
perumahan,Komplek perumahan,Dirgahayu home,"96HJ+P66, Pringgarata, Kec. Pringgarata, Kabupaten Lombok Tengah, Nusa Tenggara Bar. 83562","Pringgarata, Kec. Pringgarata, Kabupaten Lombok Tengah",NUSA TENGGARA BARAT,83562.0,Indonesia,,,,-8.6197481,116.2305843,https://maps.google.com/?cid=0x0:0x8cd48d7cb410ae14,
perumahan,Perhimpunan Pengembang Perumahan,Ahyar,"97J5+973, telabah baru, Pringgarata, Kec. Pringgarata, Kabupaten Lombok Tengah, Nusa Tenggara Bar. 83562","telabah baru, Pringgarata, Kec. Pringgarata, Kabupaten Lombok Tengah",NUSA TENGGARA BARAT,83562.0,Indonesia,,,,-8.617553,116.2570889,https://maps.google.com/?cid=0x0:0x3cbc3de788f0f8ed,
perumahan,Komplek perumahan,Dusun Nyangget,"97W6+VFF, Jalan Raya, Sepakek, Kec. Pringgarata, Kabupaten Lombok Tengah, Nusa Tenggara Bar. 83562","Jalan Raya, Sepakek, Kec. Pringgarata, Kabupaten Lombok Tengah",NUSA TENGGARA BARAT,83562.0,Indonesia,,,,-8.6028391,116.2611635,https://maps.google.com/?cid=0x0:0x499ac8aec0d6378,
perumahan,Pembangunan Perumahan,Baiti sri desa wates,"97P3+2GV, Jl. Raya Pringgarata, Pringgarata, Kec. Pringgarata, Kabupaten Lombok Tengah, Nusa Tenggara Bar. 83562","Jl. Raya Pringgarata, Pringgarata, Kec. Pringgarata, Kabupaten Lombok Tengah",NUSA TENGGARA BARAT,83562.0,Indonesia,,,,-8.6148994,116.2530904,https://maps.google.com/?cid=0x0:0x62153d541a6698e6,
perumahan,Pembangunan Perumahan,Perumahan senja,"97F9+F4W, Jalan raya repok dasan baru, desa, taman inda, Pringgarata, Kec. Pringgarata, Kabupaten Lombok Tengah, Nusa Tenggara Bar. 83552","Jalan raya repok dasan baru, desa, taman inda, Pringgarata, Kec. Pringgarata, Kabupaten Lombok Tengah",NUSA TENGGARA BARAT,83552.0,Indonesia,,,,-8.6262528,116.267819,https://maps.google.com/?cid=0x0:0xb7a01960f1a21c6e,
perumahan,Pembangunan Perumahan,Rumah Adnan dan Iza,"Rumah Adnan dan Iza, Sepakek, Kec. Pringgarata, Kabupaten Lombok Tengah, Nusa Tenggara Bar. 83562","Sepakek, Kec. Pringgarata, Kabupaten Lombok Tengah",NUSA TENGGARA BARAT,83562.0,Indonesia,,,,-8.5926207,116.2730413,https://maps.google.com/?cid=0x0:0x8e0f8d5cdc9fbf12,
perumahan,Pembangunan Perumahan,Balen De2Devan,"97H5+X8F, Pringgarata, Kec. Pringgarata, Kabupaten Lombok Tengah, Nusa Tenggara Bar. 83562","Pringgarata, Kec. Pringgarata, Kabupaten Lombok Tengah",NUSA TENGGARA BARAT,83562.0,Indonesia,,,,-8.6200625,116.2582969,https://maps.google.com/?cid=0x0:0xd6b12b9d6ad821e9,
perumahan,Perhimpunan Pengembang Perumahan,Second Home,"96QV+G32, Pringgarata, Kec. Pringgarata, Kabupaten Lombok Tengah, Nusa Tenggara Bar.","Kabupaten Lombok Tengah, Nusa Tenggara Bar.",NUSA TENGGARA BARAT,,Indonesia,,,,-8.611052,116.242695,https://maps.google.com/?cid=0x0:0xf2975531382f32a,
perumahan,Perhimpunan Pengembang Perumahan,Rumah fahril,"97M7+R74, Pringgarata, Kec. Pringgarata, Kabupaten Lombok Tengah, Nusa Tenggara Bar. 83562","Pringgarata, Kec. Pringgarata, Kabupaten Lombok Tengah",NUSA TENGGARA BARAT,83562.0,Indonesia,,,,-8.6154778,116.2631882,https://maps.google.com/?cid=0x0:0x7d0f28e6d2756112,
perumahan,Komplek perumahan,Jerox Store,"96GP+JQJ, Pringgarata, Kec. Pringgarata, Kabupaten Lombok Tengah, Nusa Tenggara Bar. 83562","Pringgarata, Kec. Pringgarata, Kabupaten Lombok Tengah",NUSA TENGGARA BARAT,83562.0,Indonesia,,,,-8.6235045,116.2367074,https://maps.google.com/?cid=0x0:0xc23898cc41e0837f,
perumahan,,Arjangka lombok tengah,"96MQ+WXW, Pringgarata, Kec. Pringgarata, Kabupaten Lombok Tengah, Nusa Tenggara Bar. 83562","Pringgarata, Kec. Pringgarata, Kabupaten Lombok Tengah",NUSA TENGGARA BARAT,83562.0,Indonesia,,,,-8.6151317,116.2399908,https://maps.google.com/?cid=0x0:0xa552ce88099846a2,
perumahan,Pembangunan Perumahan,Eny ernawati,"97H5+X8F, Pringgarata, Kec. Pringgarata, Kabupaten Lombok Tengah, Nusa Tenggara Bar. 83562","Pringgarata, Kec. Pringgarata, Kabupaten Lombok Tengah",NUSA TENGGARA BARAT,83562.0,Indonesia,,,,-8.6200537,116.2582838,https://maps.google.com/?cid=0x0:0x49af08bc814f5e72,
perumahan,Komplek perumahan,SILA IZATUNNISA,"97C7+RH4, Pringgarata, Kec. Pringgarata, Kabupaten Lombok Tengah, Nusa Tenggara Bar. 83552","Pringgarata, Kec. Pringgarata, Kabupaten Lombok Tengah",NUSA TENGGARA BARAT,83552.0,Indonesia,,,,-8.6281353,116.2641337,https://maps.google.com/?cid=0x0:0xc9e031a040778c46,
perumahan,perumahan,Bale Mbak Yona,"96PW+VFF, Pringgarata, Kec. Pringgarata, Kabupaten Lombok Tengah, Nusa Tenggara Bar. 83562","Pringgarata, Kec. Pringgarata, Kabupaten Lombok Tengah",NUSA TENGGARA BARAT,83562.0,Indonesia,,,,-8.6130635,116.2459379,https://maps.google.com/?cid=0x0:0x1563f18285ac0a1c,
perumahan,Pembangunan Perumahan,Rumah Satrya,"97V5+3QJ, Murbaya, Kec. Pringgarata, Kabupaten Lombok Tengah, Nusa Tenggara Bar. 83562","Murbaya, Kec. Pringgarata, Kabupaten Lombok Tengah",NUSA TENGGARA BARAT,83562.0,Indonesia,,,,-8.6069656,116.2582995,https://maps.google.com/?cid=0x0:0xa06b33fb93bf89ca,
perumahan,Komplek perumahan,Rumah WAHID TELOK,"96HH+J9R, Jln tgh sukron, Pringgarata, Kec. Pringgarata, Kabupaten Lombok Tengah, Nusa Tenggara Bar. 83562","Jln tgh sukron, Pringgarata, Kec. Pringgarata, Kabupaten Lombok Tengah",NUSA TENGGARA BARAT,83562.0,Indonesia,,,,-8.6208897,116.2283577,https://maps.google.com/?cid=0x0:0x23011409e8954140,
perumahan,Pembangunan Perumahan,Sitiparida,"96JX+HFG, Pringgarata, Kec. Pringgarata, Kabupaten Lombok Tengah, Nusa Tenggara Bar. 83562","Pringgarata, Kec. Pringgarata, Kabupaten Lombok Tengah",NUSA TENGGARA BARAT,83562.0,Indonesia,,,,-8.6185719,116.2487107,https://maps.google.com/?cid=0x0:0xeac134fd98bea927,
perumahan,Komplek perumahan,Simpang org tua,"96HJ+J66, Jl. H. Mahmud, Pringgarata, Kec. Pringgarata, Kabupaten Lombok Tengah, Nusa Tenggara Bar. 83562","Jl. H. Mahmud, Pringgarata, Kec. Pringgarata, Kabupaten Lombok Tengah",NUSA TENGGARA BARAT,83562.0,Indonesia,,,,-8.6209433,116.2301135,https://maps.google.com/?cid=0x0:0xd9c4d16a6f763f9,
perumahan,Komplek perumahan,Kubur jaran selatan,"96GP+4M5, Pringgarata, Kec. Pringgarata, Kabupaten Lombok Tengah, Nusa Tenggara Bar. 83562","Pringgarata, Kec. Pringgarata, Kabupaten Lombok Tengah",NUSA TENGGARA BARAT,83562.0,Indonesia,,,,-8.6247447,116.2367135,https://maps.google.com/?cid=0x0:0xb733f1a2dad89c8e,
perumahan,Pertanian,Peneguk DS Bagu kec.pringgarata,"Bagu, Kec. Pringgarata, Kabupaten Lombok Tengah, Nusa Tenggara Bar. 83371","Kec. Pringgarata, Kabupaten Lombok Tengah",NUSA TENGGARA BARAT,83371.0,Indonesia, 087827288985,,,-8.609433,116.2102209,https://maps.google.com/?cid=0x0:0x776a25607967998a,
perumahan,Toko Makanan,Nella aprilia,"97J5+78F, Pringgarata, Kec. Pringgarata, Kabupaten Lombok Tengah, Nusa Tenggara Bar. 83562","Pringgarata, Kec. Pringgarata, Kabupaten Lombok Tengah",NUSA TENGGARA BARAT,83562.0,Indonesia,,,,-8.6187964,116.2584839,https://maps.google.com/?cid=0x0:0xcde1acf3be5c232e,
perumahan,Pembangunan Perumahan,RM,"96WV+3QH, Jl. Murbaya, Murbaya, Kec. Pringgarata, Kabupaten Lombok Tengah, Nusa Tenggara Bar. 83562","Jl. Murbaya, Murbaya, Kec. Pringgarata, Kabupaten Lombok Tengah",NUSA TENGGARA BARAT,83562.0,Indonesia,,,,-8.6048165,116.2444721,https://maps.google.com/?cid=0x0:0x8cf1757b8ebd9961,
perumahan,Komplek perumahan,Kediaman M.Naufal A. /Joe,"97M5+PQW, Telabah baru, Kec. Pringgarata, Kabupaten Lombok Tengah, Nusa Tenggara Bar. 83562","Telabah baru, Kec. Pringgarata, Kabupaten Lombok Tengah",NUSA TENGGARA BARAT,83562.0,Indonesia,,,,-8.6156349,116.2594646,https://maps.google.com/?cid=0x0:0x25382de79ae8c3cb,
perumahan,Komplek perumahan,Lukman Hakim,"97G4+RP5, jln dharma agung,gunung aggung pringgarat, Pringgarata, Kec. Pringgarata, Kabupaten Lombok Tengah, Nusa Tenggara Bar. 83562","jln dharma agung,gunung aggung pringgarat, Pringgarata, Kec. Pringgarata, Kabupaten Lombok Tengah",NUSA TENGGARA BARAT,83562.0,Indonesia,,,,-8.6229934,116.2568628,https://maps.google.com/?cid=0x0:0x8a8e204e722227d6,
perumahan,Komplek perumahan,Bawak nangke,"97P2+H96, Jl. Darma Agung, Pringgarata, Kec. Pringgarata, Kabupaten Lombok Tengah, Nusa Tenggara Bar. 83562","Jl. Darma Agung, Pringgarata, Kec. Pringgarata, Kabupaten Lombok Tengah",NUSA TENGGARA BARAT,83562.0,Indonesia,,,,-8.613589,116.2508856,https://maps.google.com/?cid=0x0:0xc59965f1900178b0,
perumahan,Perhimpunan Pengembang Perumahan,Riyza Ariyani,"Pringgarata, Kec. Pringgarata, Kabupaten Lombok Tengah, Nusa Tenggara Bar. 83562","Kec. Pringgarata, Kabupaten Lombok Tengah",NUSA TENGGARA BARAT,83562.0,Indonesia,,,,-8.6199384,116.2517355,https://maps.google.com/?cid=0x0:0xa92fe6ad920b7731,
perumahan,perumahan,Nusa Tenggara Bar. 83573,"Kec. Pujut, Kabupaten Lombok Tengah, Nusa Tenggara Bar.","Kabupaten Lombok Tengah, Nusa Tenggara Bar.",NUSA TENGGARA BARAT,,Indonesia,,,,-8.8336359,116.3013267,https://maps.google.com/?cid=0x0:0xee5ae9f3d6b59839,
perumahan,perumahan,Rumah Samsul Rijal,"48V6+Q33, Sukadana, Kec. Pujut, Kabupaten Lombok Tengah, Nusa Tenggara Bar. 83573","Sukadana, Kec. Pujut, Kabupaten Lombok Tengah",NUSA TENGGARA BARAT,83573.0,Indonesia,,,,-8.8556178,116.3101834,https://maps.google.com/?cid=0x0:0xf938542f9f2718d6,
perumahan,Komplek perumahan,Pance desa kawo kec pujut,"6875+742, Kawo, Kec. Pujut, Kabupaten Lombok Tengah, Nusa Tenggara Bar. 83573","Kawo, Kec. Pujut, Kabupaten Lombok Tengah",NUSA TENGGARA BARAT,83573.0,Indonesia,,,,-8.7868651,116.3077482,https://maps.google.com/?cid=0x0:0x1f1a8001c61f0c54,
perumahan,Perhimpunan Pengembang Perumahan,Rumah Tara,"5843+H2R, Rembitan, Kec. Pujut, Kabupaten Lombok Tengah, Nusa Tenggara Bar. 83573","Rembitan, Kec. Pujut, Kabupaten Lombok Tengah",NUSA TENGGARA BARAT,83573.0,Indonesia,,,,-8.844043,116.3032188,https://maps.google.com/?cid=0x0:0x7c1480b48dc8a74e,
perumahan,Pembangunan Perumahan,Perumahan elite,"57FW+9QW, Jl. Kuta Lombok, Rembitan, Kec. Pujut, Kabupaten Lombok Tengah, Nusa Tenggara Bar. 83573","Jl. Kuta Lombok, Rembitan, Kec. Pujut, Kabupaten Lombok Tengah",NUSA TENGGARA BARAT,83573.0,Indonesia, 085933026157,,,-8.8266675,116.2971748,https://maps.google.com/?cid=0x0:0xace573c6ac19a2ba,
perumahan,Komplek perumahan,Daloes,"57RV+R2V, Jl. Kuta Lombok, Rembitan, Kec. Pujut, Kabupaten Lombok Tengah, Nusa Tenggara Bar. 83573","Jl. Kuta Lombok, Rembitan, Kec. Pujut, Kabupaten Lombok Tengah",NUSA TENGGARA BARAT,83573.0,Indonesia,,,,-8.8078839,116.2926198,https://maps.google.com/?cid=0x0:0xbb4c8a8a15839105,
perumahan,Komplek perumahan,Home,"57WR+8V5, Sengkol, Kec. Pujut, Kabupaten Lombok Tengah, Nusa Tenggara Bar. 83573","Sengkol, Kec. Pujut, Kabupaten Lombok Tengah",NUSA TENGGARA BARAT,83573.0,Indonesia,,,,-8.8041178,116.2922572,https://maps.google.com/?cid=0x0:0xfcbd5336291b6fae,
perumahan,Kompleks Kondominium,DUSUN BELEDU,"58C9+VRP, Pengengat, Kec. Pujut, Kabupaten Lombok Tengah, Nusa Tenggara Bar. 83573","Pengengat, Kec. Pujut, Kabupaten Lombok Tengah",NUSA TENGGARA BARAT,83573.0,Indonesia,,,,-8.8277767,116.3195736,https://maps.google.com/?cid=0x0:0xf6f792cafed761fd,
perumahan,Pembangunan Perumahan,"DUSUN PEMASAH, pengengat pujut, lombok tengah","58F9+X73, Pemasah, Pengengat, Kec. Pujut, Kabupaten Lombok Tengah, Nusa Tenggara Bar. 83573","Pemasah, Pengengat, Kec. Pujut, Kabupaten Lombok Tengah",NUSA TENGGARA BARAT,83573.0,Indonesia,,,,-8.8251047,116.3181731,https://maps.google.com/?cid=0x0:0xb8125fa54fadf950,
perumahan,Perhimpunan Pengembang Perumahan,"Bagik diwe desa ketare,kec pujut,Lombok tengah,NTB","675H+VR5, Ketara, Kec. Pujut, Kabupaten Lombok Tengah, Nusa Tenggara Bar. 83573","Ketara, Kec. Pujut, Kabupaten Lombok Tengah",NUSA TENGGARA BARAT,83573.0,Indonesia,,,,-8.7903642,116.279606,https://maps.google.com/?cid=0x0:0xd1b4cadcc9fc2735,
perumahan,Pembangunan Perumahan,Zola's House,"57MR+FW3, Sengkol, Kec. Pujut, Kabupaten Lombok Tengah, Nusa Tenggara Bar. 83573","Sengkol, Kec. Pujut, Kabupaten Lombok Tengah",NUSA TENGGARA BARAT,83573.0,Indonesia,,,,-8.8161146,116.2909316,https://maps.google.com/?cid=0x0:0x40f03ff159dbfb8a,
perumahan,Komplek perumahan,Rumah Edy,"576R+HW, Rembitan, Kec. Pujut, Kabupaten Lombok Tengah, Nusa Tenggara Bar. 83573","Rembitan, Kec. Pujut, Kabupaten Lombok Tengah",NUSA TENGGARA BARAT,83573.0,Indonesia,,,,-8.8384336,116.2921734,https://maps.google.com/?cid=0x0:0x46e2a7d2d07d07a4,
perumahan,Pembangunan Perumahan,TEMENGGUNG,"57CW+97G, Rembitan, Kec. Pujut, Kabupaten Lombok Tengah, Nusa Tenggara Bar. 83573","Rembitan, Kec. Pujut, Kabupaten Lombok Tengah",NUSA TENGGARA BARAT,83573.0,Indonesia,,,,-8.829186,116.2957472,https://maps.google.com/?cid=0x0:0x656f77fbce16a9c9,
perumahan,Pembangunan Perumahan, ,"57PM+GRG, Sengkol, Kec. Pujut, Kabupaten Lombok Tengah, Nusa Tenggara Bar. 83573","Sengkol, Kec. Pujut, Kabupaten Lombok Tengah",NUSA TENGGARA BARAT,83573.0,Indonesia,,,,-8.8129369,116.284513,https://maps.google.com/?cid=0x0:0x428305fa632798ab,
perumahan,Tujuan Wisata,Kowok Residence,"58Q2+JPP, Sengkol, Kec. Pujut, Kabupaten Lombok Tengah, Nusa Tenggara Bar. 83573","Sengkol, Kec. Pujut, Kabupaten Lombok Tengah",NUSA TENGGARA BARAT,83573.0,Indonesia,,,,-8.8109069,116.3018222,https://maps.google.com/?cid=0x0:0xcac3a07df50cf95,
perumahan,Perhimpunan Pengembang Perumahan,Gde Fath Han,"579R+PW8, Karla, Monjok, Rembitan, Kec. Pujut, Kabupaten Lombok Tengah, Nusa Tenggara Bar. 83573","Karla, Monjok, Rembitan, Kec. Pujut, Kabupaten Lombok Tengah",NUSA TENGGARA BARAT,83573.0,Indonesia,,,,-8.8307151,116.292322,https://maps.google.com/?cid=0x0:0x9c85a86cf428dc2,
perumahan,Pembangunan Perumahan,DUSUN PELUK,"574V+M7V, Dusun Peluk, Rembitan, Kec. Pujut, Kabupaten Lombok Tengah, Nusa Tenggara Bar. 83573","Dusun Peluk, Rembitan, Kec. Pujut, Kabupaten Lombok Tengah",NUSA TENGGARA BARAT,83573.0,Indonesia,,,,-8.8432595,116.2931696,https://maps.google.com/?cid=0x0:0x55d23a653799392c,
perumahan,Pembangunan Perumahan,Bale Al.majid,"5872+X9Q, Rembitan, Kec. Pujut, Kabupaten Lombok Tengah, Nusa Tenggara Bar. 83573","Rembitan, Kec. Pujut, Kabupaten Lombok Tengah",NUSA TENGGARA BARAT,83573.0,Indonesia, 087849048543,,,-8.8350262,116.3009735,https://maps.google.com/?cid=0x0:0x40b173822be457a2,
perumahan,Komplek perumahan,Rumah Nawawi HF,"57MR+FW3, Sengkol, Kec. Pujut, Kabupaten Lombok Tengah, Nusa Tenggara Bar. 83573","Sengkol, Kec. Pujut, Kabupaten Lombok Tengah",NUSA TENGGARA BARAT,83573.0,Indonesia,,,,-8.8161698,116.2913836,https://maps.google.com/?cid=0x0:0x65f8fac2728c4c8e,
perumahan,Perhimpunan Pengembang Perumahan,Hendrew parts,"577P+2FX, REBUK II, Rembitan, Kec. Pujut, Kabupaten Lombok Tengah, Nusa Tenggara Bar. 83573","REBUK II, Rembitan, Kec. Pujut, Kabupaten Lombok Tengah",NUSA TENGGARA BARAT,83573.0,Indonesia,,,,-8.8373151,116.2864647,https://maps.google.com/?cid=0x0:0xdf30e3eabac084f0,
perumahan,Komplek perumahan,Rumah Sarki Efendi,"57XH+C93, Desa Remajun, Pengembur, Kec. Pujut, Kabupaten Lombok Tengah, Nusa Tenggara Bar. 83573","Desa Remajun, Pengembur, Kec. Pujut, Kabupaten Lombok Tengah",NUSA TENGGARA BARAT,83573.0,Indonesia,,,,-8.8014768,116.2784255,https://maps.google.com/?cid=0x0:0xb18273724be9c965,
perumahan,Komplek perumahan,Sakura Residence Kuta,"Lenser, Kuta, Kec. Pujut, Kabupaten Lombok Tengah, Nusa Tenggara Bar. 83573","Kuta, Kec. Pujut, Kabupaten Lombok Tengah",NUSA TENGGARA BARAT,83573.0,Indonesia, 03707861384,,,-8.8716712,116.2823502,https://maps.google.com/?cid=0x0:0x6ec23fb375775932,
perumahan,Komplek perumahan,"Ngempang,Desa Bangket Parak, Kec. Pujut","59M3+FXC, Jalan Bedus Bun Gerang,Bangket Parak, Teruwai, Kec. Pujut, Kabupaten Lombok Tengah, Nusa Tenggara Bar. 83573","Jalan Bedus Bun Gerang,Bangket Parak, Teruwai, Kec. Pujut, Kabupaten Lombok Tengah",NUSA TENGGARA BARAT,83573.0,Indonesia,,,,-8.8160143,116.3545988,https://maps.google.com/?cid=0x0:0x293ccaa0059f18a0,
perumahan,Pembangunan Perumahan,Relokasi Mandalika,"Kuta, Kec. Pujut, Kabupaten Lombok Tengah, Nusa Tenggara Bar. 83573","Kec. Pujut, Kabupaten Lombok Tengah",NUSA TENGGARA BARAT,83573.0,Indonesia,,,,-8.8738443,116.3013785,https://maps.google.com/?cid=0x0:0x3710ec8d4677744c,
perumahan,Pembangunan Perumahan,Dusun Tenang Baru,"58X7+2CR, Segale Anyar, Kec. Pujut, Kabupaten Lombok Tengah, Nusa Tenggara Bar. 83573","Segale Anyar, Kec. Pujut, Kabupaten Lombok Tengah",NUSA TENGGARA BARAT,83573.0,Indonesia,,,,-8.802392,116.3135243,https://maps.google.com/?cid=0x0:0xcc5aca71d10702a3,
perumahan,Komplek perumahan,Rano kWh home,"47VR+3PJ, Kuta, Kec. Pujut, Kabupaten Lombok Tengah, Nusa Tenggara Bar. 83573","Kuta, Kec. Pujut, Kabupaten Lombok Tengah",NUSA TENGGARA BARAT,83573.0,Indonesia,,,,-8.8556493,116.2917192,https://maps.google.com/?cid=0x0:0xd6bbf5592b10fb87,
perumahan,Perusahaan investasi properti,Sali saputra,"48C4+6R7, Kuta, Kec. Pujut, Kabupaten Lombok Tengah, Nusa Tenggara Bar. 83573","Kuta, Kec. Pujut, Kabupaten Lombok Tengah",NUSA TENGGARA BARAT,83573.0,Indonesia, 085205052022,,,-8.8794509,116.3070406,https://maps.google.com/?cid=0x0:0x613feb87b5aa5b3c,
perumahan,Gedung Apartemen,Rumah Jaang,"58HQ+J57, Teruwai, Kec. Pujut, Kabupaten Lombok Tengah, Nusa Tenggara Bar. 83573","Teruwai, Kec. Pujut, Kabupaten Lombok Tengah",NUSA TENGGARA BARAT,83573.0,Indonesia,,,,-8.8209691,116.3379072,https://maps.google.com/?cid=0x0:0xc360d07a68688f99,
perumahan,Pembangunan Perumahan,01. ROSITA,"57WW+X3H, Sengkol, Kec. Pujut, Kabupaten Lombok Tengah, Nusa Tenggara Bar. 83573","Sengkol, Kec. Pujut, Kabupaten Lombok Tengah",NUSA TENGGARA BARAT,83573.0,Indonesia,,,,-8.8025592,116.2952317,https://maps.google.com/?cid=0x0:0xeef969ad69925f79,
