Category,Real Category,Business Name,Address,City,State,Postal Code,Country,Phone,Email,Website,Latitude,Longitude,Map Link,Details Link
hotel,hotel,Kotabunan,"Kabupaten Bolaang Mongondow Timur, Sulawesi Utara","Kabupaten Bolaang Mongondow Timur, Sulawesi Utara",SULAWESI UTARA,,Indonesia,,,,0.8554519,124.6192702,https://maps.google.com/?cid=0x0:0x94bb77bfbc3242eb,
hotel,hotel,Hotel Sutanraja Kotamobagu,"Jl. Siliwangi, Kobo Besar, Kec. Kotamobagu Tim., Kota Kotamobagu, Sulawesi Utara 95716","Kobo Besar, Kec. Kotamobagu Tim., Kota Kotamobagu",SULAWESI UTARA,95716.0,Indonesia,4342621888.0,,,0.7258411,124.324954,https://maps.google.com/?cid=0x0:0xc880a9c3bf234150,
hotel,hotel,,,,SULAWESI UTARA,,Indonesia,,,,,,https://maps.google.com/?cid=0x0:0xc880a9c3bf234150%7C/g/11cjkq28dv%7Cen-ID,
hotel,hotel,Hotel Totabuan Citawaya Kotamobagu,"Jl. Lintas Sinindian Sinindian Kotamobagu Timur, Mogolaing, Kec. Kotamobagu Bar., Kota Kotamobagu, Sulawesi Utara 95716","Mogolaing, Kec. Kotamobagu Bar., Kota Kotamobagu",SULAWESI UTARA,95716.0,Indonesia,43424100.0,,,0.7287365,124.3065549,https://maps.google.com/?cid=0x0:0xcb6aedbd82abd616,
hotel,hotel,Modoinding Lodge,"QCXX+GRR, Jl. Raya, Utara, Pinasungkulan, Kec. Modoinding, Kabupaten Minahasa Selatan, Sulawesi Utara 95358","Jl. Raya, Utara, Pinasungkulan, Kec. Modoinding, Kabupaten Minahasa Selatan",SULAWESI UTARA,95358.0,Indonesia,895352812257.0,,,0.7988503,124.4495146,https://maps.google.com/?cid=0x0:0x9f8e7846b8ae1b0e,
hotel,hotel,Qurratu homestay,"QJ47+Q38, Tutuyan, Kec. Tutuyan, Kabupaten Bolaang Mongondow Timur, Sulawesi Utara","Kabupaten Bolaang Mongondow Timur, Sulawesi Utara",SULAWESI UTARA,,Indonesia,,,,0.7569218,124.6126977,https://maps.google.com/?cid=0x0:0x3964663975e4c0ed,
hotel,hotel,Tumbak Homestay,"Tumbak Induk, Ahmad p Rumah Lao, Kabupaten Minahasa Tenggara,, Tumbak, Tumbak Induk, Sulawesi Utara, Kabupaten Minahasa Tenggara, Sulawesi Utara 95997","Ahmad p Rumah Lao, Kabupaten Minahasa Tenggara,, Tumbak, Tumbak Induk, Sulawesi Utara, Kabupaten Minahasa Tenggara",SULAWESI UTARA,95997.0,Indonesia,85240288058.0,,,0.975246,124.888565,https://maps.google.com/?cid=0x0:0xa9fa56647c4bd130,
hotel,hotel,RedDoorz @ Jalan Ratahan Minahasa Tenggara,"Wawali Pasan, Kec. Ratahan, Kabupaten Minahasa Selatan, Sulawesi Utara 95994","Kec. Ratahan, Kabupaten Minahasa Selatan",SULAWESI UTARA,95994.0,Indonesia,2180629666.0,,,1.0431122,124.7984423,https://maps.google.com/?cid=0x0:0x1fca5a321564c0f2,
hotel,hotel,New Kendy's Hotel,"Jl. Trans-Sulawesi, Lalow, Kec. Lolak, Kabupaten Bolaang Mongondow, Sulawesi Utara","Kabupaten Bolaang Mongondow, Sulawesi Utara",SULAWESI UTARA,,Indonesia,4342623531.0,,,0.882084,124.0318867,https://maps.google.com/?cid=0x0:0xc533c7e47c683f5,
hotel,hotel,Bougenvil homestay,"J5W3+9JX, Marinsow, Kec. Likupang Tim., Kabupaten Minahasa Utara, Sulawesi Utara","Kabupaten Minahasa Utara, Sulawesi Utara",SULAWESI UTARA,,Indonesia,82187115031.0,,,1.6459779,125.1541054,https://maps.google.com/?cid=0x0:0xd4a0ab7bd74d257c,
hotel,hotel,Tamasya Garden Hotel,"P8R8+2G3, Kotamobagu, Kec. Kotamobagu Bar., Kota Kotamobagu, Sulawesi Utara 95716","Kotamobagu, Kec. Kotamobagu Bar., Kota Kotamobagu",SULAWESI UTARA,95716.0,Indonesia,43421195.0,,,0.7400163,124.3163116,https://maps.google.com/?cid=0x0:0x55598f9108b0aaf6,
hotel,hotel,GG HOTEL,"Mongondow, Kec. Kotamobagu Sel., Kota Kotamobagu, Sulawesi Utara 95716","Kec. Kotamobagu Sel., Kota Kotamobagu",SULAWESI UTARA,95716.0,Indonesia,85298868559.0,,,0.7255497,124.2935748,https://maps.google.com/?cid=0x0:0xc49131574f9f1f68,
hotel,hotel,Kec. Modayag,"Kabupaten Bolaang Mongondow Timur, Sulawesi Utara","Kabupaten Bolaang Mongondow Timur, Sulawesi Utara",SULAWESI UTARA,,Indonesia,,,,0.7084236,124.3864248,https://maps.google.com/?cid=0x0:0xc881d84722502f21,
hotel,hotel,Hotel Sutanraja Kotamobagu,"Jl. Siliwangi, Kobo Besar, Kec. Kotamobagu Tim., Kota Kotamobagu, Sulawesi Utara 95716","Kobo Besar, Kec. Kotamobagu Tim., Kota Kotamobagu",SULAWESI UTARA,95716.0,Indonesia,4342621888.0,,,0.7258411,124.324954,https://maps.google.com/?cid=0x0:0xc880a9c3bf234150,
hotel,hotel,,,,SULAWESI UTARA,,Indonesia,,,,,,https://maps.google.com/?cid=0x0:0xc880a9c3bf234150%7C/g/11cjkq28dv%7Cen-ID,
hotel,hotel,Tamasya Garden Hotel,"P8R8+2G3, Kotamobagu, Kec. Kotamobagu Bar., Kota Kotamobagu, Sulawesi Utara 95716","Kotamobagu, Kec. Kotamobagu Bar., Kota Kotamobagu",SULAWESI UTARA,95716.0,Indonesia,43421195.0,,,0.7400163,124.3163116,https://maps.google.com/?cid=0x0:0x55598f9108b0aaf6,
hotel,hotel,Hotel Senator,"P8R9+2FR, Kotamobagu, Kec. Kotamobagu Bar., Kota Kotamobagu, Sulawesi Utara","Kota Kotamobagu, Sulawesi Utara",SULAWESI UTARA,,Indonesia,,,,0.7401092,124.3186494,https://maps.google.com/?cid=0x0:0x39bdad2d836b467d,
hotel,hotel,RedDoorz @ Family Syariah Homestay kotamobagu,"P8H5+95F, Sinindian, Kec. Kotamobagu Tim., Kota Kotamobagu, Sulawesi Utara","Kota Kotamobagu, Sulawesi Utara",SULAWESI UTARA,,Indonesia,895417300072.0,,,0.7284141,124.3079715,https://maps.google.com/?cid=0x0:0x56084189945dcd1e,
hotel,hotel,Modoinding Lodge,"QCXX+GRR, Jl. Raya, Utara, Pinasungkulan, Kec. Modoinding, Kabupaten Minahasa Selatan, Sulawesi Utara 95358","Jl. Raya, Utara, Pinasungkulan, Kec. Modoinding, Kabupaten Minahasa Selatan",SULAWESI UTARA,95358.0,Indonesia,895352812257.0,,,0.7988503,124.4495146,https://maps.google.com/?cid=0x0:0x9f8e7846b8ae1b0e,
hotel,hotel,Hotel Totabuan Citawaya Kotamobagu,"Jl. Lintas Sinindian Sinindian Kotamobagu Timur, Mogolaing, Kec. Kotamobagu Bar., Kota Kotamobagu, Sulawesi Utara 95716","Mogolaing, Kec. Kotamobagu Bar., Kota Kotamobagu",SULAWESI UTARA,95716.0,Indonesia,43424100.0,,,0.7287365,124.3065549,https://maps.google.com/?cid=0x0:0xcb6aedbd82abd616,
hotel,hotel,Hotel Tentram,"Jl. Adampe Dolot No.19B, Mogolaing, Kec. Kotamobagu Bar., Kabupaten Bolaang Mongondow, Sulawesi Utara 95716","Mogolaing, Kec. Kotamobagu Bar., Kabupaten Bolaang Mongondow",SULAWESI UTARA,95716.0,Indonesia,81356129601.0,,,0.7376332,124.3085315,https://maps.google.com/?cid=0x0:0x932ee3ba203385c0,
hotel,hotel,Hotel Mulia Lolak,"Jl. Trans-Sulawesi, Lalow, Kec. Lolak, Kabupaten Bolaang Mongondow, Sulawesi Utara","Kabupaten Bolaang Mongondow, Sulawesi Utara",SULAWESI UTARA,,Indonesia,85298113269.0,,,0.882613,124.0267222,https://maps.google.com/?cid=0x0:0x7cf22d3b0f737f84,
hotel,hotel,Permata Homestay Kotamobagu,"Depan Rumah Dinas BRI, Jl. Lintas, Sinindian, Kec. Kotamobagu Tim., Kota Kotamobagu, Sulawesi Utara 95718","Jl. Lintas, Sinindian, Kec. Kotamobagu Tim., Kota Kotamobagu",SULAWESI UTARA,95718.0,Indonesia,895417300072.0,,,0.7280845,124.3088849,https://maps.google.com/?cid=0x0:0xb49345ce7fa15337,
hotel,hotel,GG HOTEL,"Mongondow, Kec. Kotamobagu Sel., Kota Kotamobagu, Sulawesi Utara 95716","Kec. Kotamobagu Sel., Kota Kotamobagu",SULAWESI UTARA,95716.0,Indonesia,85298868559.0,,,0.7255497,124.2935748,https://maps.google.com/?cid=0x0:0xc49131574f9f1f68,
hotel,hotel,Hotel Ade Irma Kotamobagu,"Jl. Panjaitan, Kotamobagu, Kec. Kotamobagu Bar., Kota Kotamobagu, Sulawesi Utara","Kota Kotamobagu, Sulawesi Utara",SULAWESI UTARA,,Indonesia,85656415756.0,,,0.7401203,124.3122558,https://maps.google.com/?cid=0x0:0xbed27a97f3b5c1d4,
hotel,hotel,Hotel Tita 2,"Kotamobagu, Kec. Kotamobagu Bar., Kota Kotamobagu, Sulawesi Utara 95716","Kec. Kotamobagu Bar., Kota Kotamobagu",SULAWESI UTARA,95716.0,Indonesia,43423567.0,,,0.7400088,124.3167784,https://maps.google.com/?cid=0x0:0x53fcc4b84ea71b9e,
hotel,hotel,Qurratu homestay,"QJ47+Q38, Tutuyan, Kec. Tutuyan, Kabupaten Bolaang Mongondow Timur, Sulawesi Utara","Kabupaten Bolaang Mongondow Timur, Sulawesi Utara",SULAWESI UTARA,,Indonesia,,,,0.7569218,124.6126977,https://maps.google.com/?cid=0x0:0x3964663975e4c0ed,
hotel,hotel,New Kendy's Hotel,"Jl. Trans-Sulawesi, Lalow, Kec. Lolak, Kabupaten Bolaang Mongondow, Sulawesi Utara","Kabupaten Bolaang Mongondow, Sulawesi Utara",SULAWESI UTARA,,Indonesia,4342623531.0,,,0.882084,124.0318867,https://maps.google.com/?cid=0x0:0xc533c7e47c683f5,
hotel,hotel,Kec. Modayag Bar.,"Kabupaten Bolaang Mongondow Timur, Sulawesi Utara","Kabupaten Bolaang Mongondow Timur, Sulawesi Utara",SULAWESI UTARA,,Indonesia,,,,0.7152891,124.372507,https://maps.google.com/?cid=0x0:0xfd0e11adc540e358,
hotel,hotel,Hotel Sutanraja Kotamobagu,"Jl. Siliwangi, Kobo Besar, Kec. Kotamobagu Tim., Kota Kotamobagu, Sulawesi Utara 95716","Kobo Besar, Kec. Kotamobagu Tim., Kota Kotamobagu",SULAWESI UTARA,95716.0,Indonesia,4342621888.0,,,0.7258411,124.324954,https://maps.google.com/?cid=0x0:0xc880a9c3bf234150,
hotel,hotel,,,,SULAWESI UTARA,,Indonesia,,,,,,https://maps.google.com/?cid=0x0:0xc880a9c3bf234150%7C/g/11cjkq28dv%7Cen-ID,
hotel,hotel,Tamasya Garden Hotel,"P8R8+2G3, Kotamobagu, Kec. Kotamobagu Bar., Kota Kotamobagu, Sulawesi Utara 95716","Kotamobagu, Kec. Kotamobagu Bar., Kota Kotamobagu",SULAWESI UTARA,95716.0,Indonesia,43421195.0,,,0.7400163,124.3163116,https://maps.google.com/?cid=0x0:0x55598f9108b0aaf6,
hotel,hotel,Hotel Senator,"P8R9+2FR, Kotamobagu, Kec. Kotamobagu Bar., Kota Kotamobagu, Sulawesi Utara","Kota Kotamobagu, Sulawesi Utara",SULAWESI UTARA,,Indonesia,,,,0.7401092,124.3186494,https://maps.google.com/?cid=0x0:0x39bdad2d836b467d,
hotel,hotel,RedDoorz @ Family Syariah Homestay kotamobagu,"P8H5+95F, Sinindian, Kec. Kotamobagu Tim., Kota Kotamobagu, Sulawesi Utara","Kota Kotamobagu, Sulawesi Utara",SULAWESI UTARA,,Indonesia,895417300072.0,,,0.7284141,124.3079715,https://maps.google.com/?cid=0x0:0x56084189945dcd1e,
hotel,hotel,Hotel Tentram,"Jl. Adampe Dolot No.19B, Mogolaing, Kec. Kotamobagu Bar., Kabupaten Bolaang Mongondow, Sulawesi Utara 95716","Mogolaing, Kec. Kotamobagu Bar., Kabupaten Bolaang Mongondow",SULAWESI UTARA,95716.0,Indonesia,81356129601.0,,,0.7376332,124.3085315,https://maps.google.com/?cid=0x0:0x932ee3ba203385c0,
hotel,hotel,Hotel Totabuan Citawaya Kotamobagu,"Jl. Lintas Sinindian Sinindian Kotamobagu Timur, Mogolaing, Kec. Kotamobagu Bar., Kota Kotamobagu, Sulawesi Utara 95716","Mogolaing, Kec. Kotamobagu Bar., Kota Kotamobagu",SULAWESI UTARA,95716.0,Indonesia,43424100.0,,,0.7287365,124.3065549,https://maps.google.com/?cid=0x0:0xcb6aedbd82abd616,
hotel,hotel,Permata Homestay Kotamobagu,"Depan Rumah Dinas BRI, Jl. Lintas, Sinindian, Kec. Kotamobagu Tim., Kota Kotamobagu, Sulawesi Utara 95718","Jl. Lintas, Sinindian, Kec. Kotamobagu Tim., Kota Kotamobagu",SULAWESI UTARA,95718.0,Indonesia,895417300072.0,,,0.7280845,124.3088849,https://maps.google.com/?cid=0x0:0xb49345ce7fa15337,
hotel,hotel,Hotel Tita 2,"Kotamobagu, Kec. Kotamobagu Bar., Kota Kotamobagu, Sulawesi Utara 95716","Kec. Kotamobagu Bar., Kota Kotamobagu",SULAWESI UTARA,95716.0,Indonesia,43423567.0,,,0.7400088,124.3167784,https://maps.google.com/?cid=0x0:0x53fcc4b84ea71b9e,
hotel,hotel,GG HOTEL,"Mongondow, Kec. Kotamobagu Sel., Kota Kotamobagu, Sulawesi Utara 95716","Kec. Kotamobagu Sel., Kota Kotamobagu",SULAWESI UTARA,95716.0,Indonesia,85298868559.0,,,0.7255497,124.2935748,https://maps.google.com/?cid=0x0:0xc49131574f9f1f68,
hotel,hotel,Modoinding Lodge,"QCXX+GRR, Jl. Raya, Utara, Pinasungkulan, Kec. Modoinding, Kabupaten Minahasa Selatan, Sulawesi Utara 95358","Jl. Raya, Utara, Pinasungkulan, Kec. Modoinding, Kabupaten Minahasa Selatan",SULAWESI UTARA,95358.0,Indonesia,895352812257.0,,,0.7988503,124.4495146,https://maps.google.com/?cid=0x0:0x9f8e7846b8ae1b0e,
hotel,hotel,Hotel Mulia Lolak,"Jl. Trans-Sulawesi, Lalow, Kec. Lolak, Kabupaten Bolaang Mongondow, Sulawesi Utara","Kabupaten Bolaang Mongondow, Sulawesi Utara",SULAWESI UTARA,,Indonesia,85298113269.0,,,0.882613,124.0267222,https://maps.google.com/?cid=0x0:0x7cf22d3b0f737f84,
hotel,hotel,Hotel Ade Irma Kotamobagu,"Jl. Panjaitan, Kotamobagu, Kec. Kotamobagu Bar., Kota Kotamobagu, Sulawesi Utara","Kota Kotamobagu, Sulawesi Utara",SULAWESI UTARA,,Indonesia,85656415756.0,,,0.7401203,124.3122558,https://maps.google.com/?cid=0x0:0xbed27a97f3b5c1d4,
hotel,hotel,New Kendy's Hotel,"Jl. Trans-Sulawesi, Lalow, Kec. Lolak, Kabupaten Bolaang Mongondow, Sulawesi Utara","Kabupaten Bolaang Mongondow, Sulawesi Utara",SULAWESI UTARA,,Indonesia,4342623531.0,,,0.882084,124.0318867,https://maps.google.com/?cid=0x0:0xc533c7e47c683f5,
hotel,hotel,Sulawesi Utara 95775,"Modisi, Kec. Pinolosian Tim., Kabupaten Bolaang Mongondow Selatan, Sulawesi Utara","Kabupaten Bolaang Mongondow Selatan, Sulawesi Utara",SULAWESI UTARA,,Indonesia,,,,0.4528494,124.4356892,https://maps.google.com/?cid=0x0:0x5956b774c20081f1,
hotel,hotel,Hotel Mulia Lolak,"Jl. Trans-Sulawesi, Lalow, Kec. Lolak, Kabupaten Bolaang Mongondow, Sulawesi Utara","Kabupaten Bolaang Mongondow, Sulawesi Utara",SULAWESI UTARA,,Indonesia,85298113269.0,,,0.882613,124.0267222,https://maps.google.com/?cid=0x0:0x7cf22d3b0f737f84,
hotel,hotel,New Kendy's Hotel,"Jl. Trans-Sulawesi, Lalow, Kec. Lolak, Kabupaten Bolaang Mongondow, Sulawesi Utara","Kabupaten Bolaang Mongondow, Sulawesi Utara",SULAWESI UTARA,,Indonesia,4342623531.0,,,0.882084,124.0318867,https://maps.google.com/?cid=0x0:0xc533c7e47c683f5,
hotel,hotel,Sans Hotel Cibanteng Dramaga Bogor,"Jl. Raya Cibanteng No.Km 11, RT.002/RW.005, Cibanteng, Kec. Ciampea, Kabupaten Bogor, Jawa Barat 16620","RT.002/RW.005, Cibanteng, Kec. Ciampea, Kabupaten Bogor",SULAWESI UTARA,16620.0,Indonesia,895417300072.0,,,-6.5579023,106.7116694,https://maps.google.com/?cid=0x0:0xaba7e4e588928c0c,
hotel,Taman Kota,Kebun Raya Bogor,"Jl. Ir. H. Juanda No.13, Paledang, Kecamatan Bogor Tengah, Kota Bogor, Jawa Barat 16122","Paledang, Kecamatan Bogor Tengah, Kota Bogor",SULAWESI UTARA,16122.0,Indonesia,2518311362.0,,,-6.5976289,106.7995698,https://maps.google.com/?cid=0x0:0x75f23c6b45a37ee5,
hotel,Perhentian bus,Pertamina Cibanteng,"Cibanteng, Kec. Ciampea, Kabupaten Bogor, Jawa Barat","Kabupaten Bogor, Jawa Barat",SULAWESI UTARA,,Indonesia,,,,-6.55845,106.71129,https://maps.google.com/?cid=0x0:0x508e890d9ec1afd5,
hotel,hotel,Sans Hotel Bubulak Bogor,"RT.04/RW.08, Bubulak, Kec. Bogor Bar., Kota Bogor, Jawa Barat","Kota Bogor, Jawa Barat",SULAWESI UTARA,,Indonesia,895417300072.0,,,-6.5705459,106.7554414,https://maps.google.com/?cid=0x0:0x4067d4c6d3649ef0,
hotel,Stasiun Kereta,Bogor,"Cibogor, Kecamatan Bogor Tengah, Kota Bogor, Jawa Barat 16124","Kecamatan Bogor Tengah, Kota Bogor",SULAWESI UTARA,16124.0,Indonesia,,,,-6.5955798,106.7904324,https://maps.google.com/?cid=0x0:0x2f756cca1eb4c,
hotel,hotel,Kec. Tutuyan,"Kabupaten Bolaang Mongondow Timur, Sulawesi Utara","Kabupaten Bolaang Mongondow Timur, Sulawesi Utara",SULAWESI UTARA,,Indonesia,,,,0.7567721,124.6124872,https://maps.google.com/?cid=0x0:0x736818cdb777053,
hotel,hotel,Qurratu homestay,"QJ47+Q38, Tutuyan, Kec. Tutuyan, Kabupaten Bolaang Mongondow Timur, Sulawesi Utara","Kabupaten Bolaang Mongondow Timur, Sulawesi Utara",SULAWESI UTARA,,Indonesia,,,,0.7569218,124.6126977,https://maps.google.com/?cid=0x0:0x3964663975e4c0ed,
hotel,hotel,Modoinding Lodge,"QCXX+GRR, Jl. Raya, Utara, Pinasungkulan, Kec. Modoinding, Kabupaten Minahasa Selatan, Sulawesi Utara 95358","Jl. Raya, Utara, Pinasungkulan, Kec. Modoinding, Kabupaten Minahasa Selatan",SULAWESI UTARA,95358.0,Indonesia,895352812257.0,,,0.7988503,124.4495146,https://maps.google.com/?cid=0x0:0x9f8e7846b8ae1b0e,
hotel,hotel,Hotel Tita 2,"Kotamobagu, Kec. Kotamobagu Bar., Kota Kotamobagu, Sulawesi Utara 95716","Kec. Kotamobagu Bar., Kota Kotamobagu",SULAWESI UTARA,95716.0,Indonesia,43423567.0,,,0.7400088,124.3167784,https://maps.google.com/?cid=0x0:0x53fcc4b84ea71b9e,
restaurant,restaurant,Kotabunan,"Kabupaten Bolaang Mongondow Timur, Sulawesi Utara","Kabupaten Bolaang Mongondow Timur, Sulawesi Utara",SULAWESI UTARA,,Indonesia,,,,0.8554519,124.6192702,https://maps.google.com/?cid=0x0:0x94bb77bfbc3242eb,
restaurant,Indonesia,Sei J Cafe  Resto,"VM3R+8M4, Buyat I, Kotabunan, Kabupaten Bolaang Mongondow Timur, Sulawesi Utara","Kabupaten Bolaang Mongondow Timur, Sulawesi Utara",SULAWESI UTARA,,Indonesia,82299995317.0,,,0.8532623,124.6917002,https://maps.google.com/?cid=0x0:0xfc867104ae293b19,
restaurant,Kafetaria,C.E.O Cafe  Resto,"QJRM+RVC, Paret, Kotabunan, Kabupaten Bolaang Mongondow Timur, Sulawesi Utara","Kabupaten Bolaang Mongondow Timur, Sulawesi Utara",SULAWESI UTARA,,Indonesia,82190104013.0,,,0.7920623,124.6346539,https://maps.google.com/?cid=0x0:0x130d42a0671c11a9,
restaurant,Dapur Umum,Cafe Bulawan,"RM74+59G, Bulawan, Kotabunan, Kabupaten Bolaang Mongondow Timur, Sulawesi Utara","Kabupaten Bolaang Mongondow Timur, Sulawesi Utara",SULAWESI UTARA,,Indonesia,81241617658.0,,,0.8130757,124.655784,https://maps.google.com/?cid=0x0:0x828f49b7bb4ad51a,
restaurant,Restoran,Kopian Panang,"RJGV+PQG, Kotabunan, Kabupaten Bolaang Mongondow Timur, Sulawesi Utara","Kabupaten Bolaang Mongondow Timur, Sulawesi Utara",SULAWESI UTARA,,Indonesia,,,,0.8268231,124.6444424,https://maps.google.com/?cid=0x0:0xde979bb01a3618fa,
restaurant,Perhimpunan Pengembang Perumahan,Kotabunan Barat,"Jl. Tangkudeagan, Kotabunan, Kabupaten Bolaang Mongondow Timur, Sulawesi Utara","Kabupaten Bolaang Mongondow Timur, Sulawesi Utara",SULAWESI UTARA,,Indonesia,82346551981.0,,,0.8100736,124.6506657,https://maps.google.com/?cid=0x0:0x577205976c9207f5,
restaurant,Padang,Rumah Makan Rizky,"Buyat I, Kotabunan, Kabupaten Bolaang Mongondow Timur, Sulawesi Utara","Kabupaten Bolaang Mongondow Timur, Sulawesi Utara",SULAWESI UTARA,,Indonesia,82191411158.0,,,0.8543485,124.6927297,https://maps.google.com/?cid=0x0:0xf68f1a451ce9436d,
restaurant,Kafe,D' Katu Kafe And Resto,"QJG9+PQV, Tombolikat Sel., Kec. Tutuyan, Kabupaten Bolaang Mongondow Timur, Sulawesi Utara","Kabupaten Bolaang Mongondow Timur, Sulawesi Utara",SULAWESI UTARA,,Indonesia,85298845894.0,,,0.7768604,124.6194356,https://maps.google.com/?cid=0x0:0xf25d2edbe0bddf13,
restaurant,Rumah Makan,RM. Lamongan,"QJF9+778, Tombolikat Sel., Kec. Tutuyan, Kabupaten Bolaang Mongondow Timur, Sulawesi Utara","Kabupaten Bolaang Mongondow Timur, Sulawesi Utara",SULAWESI UTARA,,Indonesia,,,,0.7731576,124.6181991,https://maps.google.com/?cid=0x0:0x2e180f3b1bd121af,
restaurant,Rumah Makan,Warung Mie Ma' AN,"RM63+5WH, Kotabunan, Kabupaten Bolaang Mongondow Timur, Sulawesi Utara","Kabupaten Bolaang Mongondow Timur, Sulawesi Utara",SULAWESI UTARA,,Indonesia,82190712663.0,,,0.8104368,124.6548515,https://maps.google.com/?cid=0x0:0x9d72059f54a85c98,
restaurant,Padang,Warung Makan Sederhana,"QJQF+RV3, Kayumoyondi, Kec. Tutuyan, Kabupaten Bolaang Mongondow Timur, Sulawesi Utara","Kabupaten Bolaang Mongondow Timur, Sulawesi Utara",SULAWESI UTARA,,Indonesia,,,,0.7895191,124.624678,https://maps.google.com/?cid=0x0:0x531f6ab6c3f9a18e,
restaurant,Rumah Makan,RM MUSLIM AINI,"dua, Kompleks pasar, Kec. Tutuyan, Kabupaten Bolaang Mongondow Timur, Sulawesi Utara 95783","Kompleks pasar, Kec. Tutuyan, Kabupaten Bolaang Mongondow Timur",SULAWESI UTARA,95783.0,Indonesia,85256698889.0,,,0.764891,124.6148023,https://maps.google.com/?cid=0x0:0x106c4c00ce00606f,
restaurant,Restoran,Ichi's food  drink,"Lorong Belmas, Dusun II, Kotabunan, Kotabunan Barat, Kabupaten Bolaang Mongondow Timur, Sulawesi Utara 95782","Dusun II, Kotabunan, Kotabunan Barat, Kabupaten Bolaang Mongondow Timur",SULAWESI UTARA,95782.0,Indonesia,82187453121.0,,,0.8124663,124.653264,https://maps.google.com/?cid=0x0:0xf20c1848869305b3,
restaurant,Bakso,Aos Kita,"Kotabunan, Kabupaten Bolaang Mongondow Timur, Sulawesi Utara","Kabupaten Bolaang Mongondow Timur, Sulawesi Utara",SULAWESI UTARA,,Indonesia,,,,0.8097732,124.6506217,https://maps.google.com/?cid=0x0:0xf822b8f8a37f695e,
restaurant,Rumah Makan,Dapoer Yayayonggg,"RM33+XM2, Jl. Ratahan - Kotamobagu, Kotabunan, Kabupaten Bolaang Mongondow Timur, Sulawesi Utara","Kabupaten Bolaang Mongondow Timur, Sulawesi Utara",SULAWESI UTARA,,Indonesia,82345012019.0,,,0.8047229,124.6522709,https://maps.google.com/?cid=0x0:0xc296c68804d02ac9,
restaurant,Dapur Umum,Rumah Makan ALTHAF,"RM63+J23, Kotabunan, Kabupaten Bolaang Mongondow Timur, Sulawesi Utara","Kabupaten Bolaang Mongondow Timur, Sulawesi Utara",SULAWESI UTARA,,Indonesia,82189508766.0,,,0.8115235,124.6525442,https://maps.google.com/?cid=0x0:0x88c0710458fe4e99,
restaurant,Mi,Waroeng Ma'Ani,"RM64+PV2, Bulawan, Kotabunan, Kabupaten Bolaang Mongondow Timur, Sulawesi Utara","Kabupaten Bolaang Mongondow Timur, Sulawesi Utara",SULAWESI UTARA,,Indonesia,85396272607.0,,,0.811762,124.6571502,https://maps.google.com/?cid=0x0:0x9f6a17cf2e6fab1b,
restaurant,Restoran,RM. Naton,"QJ46+FXQ, Jl. Trans Sulawesi Lkr. Sel., Tutuyan II, Kec. Tutuyan, Kabupaten Bolaang Mongondow Timur, Sulawesi Utara","Kabupaten Bolaang Mongondow Timur, Sulawesi Utara",SULAWESI UTARA,,Indonesia,82194730898.0,,,0.7562041,124.6124799,https://maps.google.com/?cid=0x0:0xa058d16f7e46b05,
restaurant,Rumah Makan,RM. Lestari,"QJF9+XHW, Tombolikat Sel., Kec. Tutuyan, Kabupaten Bolaang Mongondow Timur, Sulawesi Utara","Kabupaten Bolaang Mongondow Timur, Sulawesi Utara",SULAWESI UTARA,,Indonesia,,,,0.7749986,124.6189526,https://maps.google.com/?cid=0x0:0xc0e602925ec06181,
restaurant,Padang,RM.AZHER,"VJ49+5PJ, Jl. Trans Sulawesi, Bukaka, Kotabunan, Kabupaten Bolaang Mongondow Timur, Sulawesi Utara","Kabupaten Bolaang Mongondow Timur, Sulawesi Utara",SULAWESI UTARA,,Indonesia,85397810051.0,,,0.8554519,124.6192702,https://maps.google.com/?cid=0x0:0x943d7837be735e4b,
restaurant,Kafe,Kedai+62,"Jl. Ratahan - Kotamobagu, Paret, Kotabunan, Kabupaten Bolaang Mongondow Timur, Sulawesi Utara","Kabupaten Bolaang Mongondow Timur, Sulawesi Utara",SULAWESI UTARA,,Indonesia,,,,0.7957253,124.6310749,https://maps.google.com/?cid=0x0:0x211877c65a100baa,
restaurant,Rumah Makan,RM. MELATI,"QJ88+V9H, Tutuyan III, Kec. Tutuyan, Kabupaten Bolaang Mongondow Timur, Sulawesi Utara","Kabupaten Bolaang Mongondow Timur, Sulawesi Utara",SULAWESI UTARA,,Indonesia,,,,0.7671958,124.615973,https://maps.google.com/?cid=0x0:0xace4967be0541bda,
restaurant,Sarapan,Kedai Teras Bambu,"Jln. Koramil Desa Bulawan, Jl. Ratahan - Kotamobagu, Kotabunan, Kabupaten Bolaang Mongondow Timur, Sulawesi Utara","Kabupaten Bolaang Mongondow Timur, Sulawesi Utara",SULAWESI UTARA,,Indonesia,81241916127.0,,,0.8116654,124.6587778,https://maps.google.com/?cid=0x0:0xff046dcd84060d5c,
restaurant,Restoran,RM. Athaya,"QJ88+VG7, Jl. Ratahan - Kotamobagu, Tutuyan III, Kec. Tutuyan, Kabupaten Bolaang Mongondow Timur, Sulawesi Utara","Kabupaten Bolaang Mongondow Timur, Sulawesi Utara",SULAWESI UTARA,,Indonesia,82296995006.0,,,0.767166,124.6163046,https://maps.google.com/?cid=0x0:0x50c22518402ff280,
restaurant,restaurant,Kec. Modayag,"Kabupaten Bolaang Mongondow Timur, Sulawesi Utara","Kabupaten Bolaang Mongondow Timur, Sulawesi Utara",SULAWESI UTARA,,Indonesia,,,,0.7084236,124.3864248,https://maps.google.com/?cid=0x0:0xc881d84722502f21,
restaurant,Sarapan,Goba Molunow,"PCGV+MQR, Jl. Ratahan - Kotamobagu, Moat, Kec. Modayag, Kabupaten Bolaang Mongondow Timur, Sulawesi Utara","Kabupaten Bolaang Mongondow Timur, Sulawesi Utara",SULAWESI UTARA,,Indonesia,,,,0.7267383,124.4443802,https://maps.google.com/?cid=0x0:0x62b1ba2eb43dd5d0,
restaurant,Bakso,RM Puncak PW,"PC76+4CG, Purworejo Tim., Kec. Modayag, Kabupaten Bolaang Mongondow Timur, Sulawesi Utara","Kabupaten Bolaang Mongondow Timur, Sulawesi Utara",SULAWESI UTARA,,Indonesia,,,,0.7128068,124.4110676,https://maps.google.com/?cid=0x0:0xc31c0319ab7eeb4b,
restaurant,Bakso,Kedai Bakso MASBRO,"P95P+CHF, Modayag, Kec. Modayag, Kabupaten Bolaang Mongondow Timur, Sulawesi Utara","Kabupaten Bolaang Mongondow Timur, Sulawesi Utara",SULAWESI UTARA,,Indonesia,,,,0.7085714,124.3864216,https://maps.google.com/?cid=0x0:0xf4e3a7ca6b4dec3b,
restaurant,Makanan Kecil,Pondok Mama Fat Mie TB,"P9G3+PWX, pinonobatuan, Kec. Modayag Bar., Kabupaten Bolaang Mongondow Timur, Sulawesi Utara","Kabupaten Bolaang Mongondow Timur, Sulawesi Utara",SULAWESI UTARA,,Indonesia,81243269095.0,,,0.7268673,124.3548586,https://maps.google.com/?cid=0x0:0x44f74eea8fddd3a6,
restaurant,Rumah Makan,Happiness Resto and Cafe,"PC65+X2G, Jl. Amurang - Kotamobagu, Purworejo Tim., Kec. Modayag, Kabupaten Bolaang Mongondow Timur, Sulawesi Utara","Kabupaten Bolaang Mongondow Timur, Sulawesi Utara",SULAWESI UTARA,,Indonesia,,,,0.7124337,124.4075764,https://maps.google.com/?cid=0x0:0xb1bdf21ad86cfa71,
restaurant,Sarapan,Musli,"P9J4+CQP, Moyongkota, Kec. Modayag Bar., Kabupaten Bolaang Mongondow Timur, Sulawesi Utara","Kabupaten Bolaang Mongondow Timur, Sulawesi Utara",SULAWESI UTARA,,Indonesia,82224007977.0,,,0.7310794,124.3569585,https://maps.google.com/?cid=0x0:0x198159ec986db5ca,
restaurant,Rumah Makan,KANTIN MA' VIKAR,"P96M+FJ8, Unnamed Road, Modayag, Kec. Modayag, Kabupaten Bolaang Mongondow Timur, Sulawesi Utara","Kabupaten Bolaang Mongondow Timur, Sulawesi Utara",SULAWESI UTARA,,Indonesia,85342315522.0,,,0.7111524,124.3840916,https://maps.google.com/?cid=0x0:0x3397015dec67cba9,
restaurant,Restoran,Ayam Bakar Mama Putri,"Modayag II, Kec. Modayag, Kabupaten Bolaang Mongondow Timur, Sulawesi Utara 95781","Kec. Modayag, Kabupaten Bolaang Mongondow Timur",SULAWESI UTARA,95781.0,Indonesia,85756777253.0,,,0.7143156,124.3799525,https://maps.google.com/?cid=0x0:0x1eb38eb24a98af94,
restaurant,Brunch,Kedai Manjah,"P98G+73F, Bongkudai, Kec. Modayag Bar., Kabupaten Bolaang Mongondow Timur, Sulawesi Utara","Kabupaten Bolaang Mongondow Timur, Sulawesi Utara",SULAWESI UTARA,,Indonesia,85240589444.0,,,0.7155665,124.3746036,https://maps.google.com/?cid=0x0:0x7006ff283fa8f3e5,
restaurant,Minimarket,Izra Mini Cafe,"PC66+XW7, Purworejo Tim., Kec. Modayag, Kabupaten Bolaang Mongondow Timur, Sulawesi Utara","Kabupaten Bolaang Mongondow Timur, Sulawesi Utara",SULAWESI UTARA,,Indonesia,85656449905.0,,,0.7124199,124.4122984,https://maps.google.com/?cid=0x0:0x4242c162d14e432f,
restaurant,Rumah Makan,Rumah Makan MAS Erik (Purworejo. Modayag Boltim),"P97V+5Q7, Jl. Amurang - Kotamobagu, Purworejo Tim., Kec. Modayag, Kabupaten Bolaang Mongondow Timur, Sulawesi Utara","Kabupaten Bolaang Mongondow Timur, Sulawesi Utara",SULAWESI UTARA,,Indonesia,,,,0.7129238,124.3944217,https://maps.google.com/?cid=0x0:0xe7071eec10dfe8e7,
restaurant,Dapur Umum,Ayam kelapa tanta meyke,"QC8R+XH2, Bongkudai Utara, Kec. Modayag, Kabupaten Bolaang Mongondow Timur, Sulawesi Utara","Kabupaten Bolaang Mongondow Timur, Sulawesi Utara",SULAWESI UTARA,,Indonesia,,,,0.7673943,124.4413766,https://maps.google.com/?cid=0x0:0xe95ecf3639619eeb,
restaurant,Kedai Kopi,emperan11,"Sumber Rejo, Kec. Modayag, Kabupaten Bolaang Mongondow Timur, Sulawesi Utara 95781","Kec. Modayag, Kabupaten Bolaang Mongondow Timur",SULAWESI UTARA,95781.0,Indonesia,81242200419.0,,,0.7129318,124.3976285,https://maps.google.com/?cid=0x0:0xd98b89ab14204f2e,
restaurant,restaurant,RM bibi ISSYE,"PC76+4M2, Purworejo Tim., Kec. Modayag, Kabupaten Bolaang Mongondow Timur, Sulawesi Utara","Kabupaten Bolaang Mongondow Timur, Sulawesi Utara",SULAWESI UTARA,,Indonesia,,,,0.7127549,124.4116537,https://maps.google.com/?cid=0x0:0xeb499966d667ea8f,
restaurant,Restoran,Kantin Naton BUMdes,"P9H4+3C5, Moyongkota, Kec. Modayag Bar., Kabupaten Bolaang Mongondow Timur, Sulawesi Utara","Kabupaten Bolaang Mongondow Timur, Sulawesi Utara",SULAWESI UTARA,,Indonesia,,,,0.7276258,124.3561039,https://maps.google.com/?cid=0x0:0xf86f37ceb8f160ef,
restaurant,Rumah Makan,RM. Kafa Aby Manyu,"P97V+7GQ, Jl. Amurang - Kotamobagu, Purworejo Tim., Kec. Modayag, Kabupaten Bolaang Mongondow Timur, Sulawesi Utara","Kabupaten Bolaang Mongondow Timur, Sulawesi Utara",SULAWESI UTARA,,Indonesia,,,,0.7132058,124.393867,https://maps.google.com/?cid=0x0:0x175753029561197b,
restaurant,Paviliun Pantai,Atoga River View,"MGJ6+75M, Atoga, Kec. Nuangan, Kabupaten Bolaang Mongondow Timur, Sulawesi Utara","Kabupaten Bolaang Mongondow Timur, Sulawesi Utara",SULAWESI UTARA,,Indonesia,85340532011.0,,,0.6807139,124.5104069,https://maps.google.com/?cid=0x0:0x4406070a89d9e46d,
restaurant,Restoran,d'Nyong,"QC7W+Q34, Jl. Amurang - Kotamobagu, Bongkudai Baru, Kec. Modayag, Kabupaten Bolaang Mongondow Timur, Sulawesi Utara","Kabupaten Bolaang Mongondow Timur, Sulawesi Utara",SULAWESI UTARA,,Indonesia,85340775931.0,,,0.7643857,124.4452156,https://maps.google.com/?cid=0x0:0x5850f2722d5099da,
restaurant,Restoran,Kedai Albi n albi fried chicken,"P9FQ+37F, Liberia, Kec. Modayag, Kabupaten Bolaang Mongondow Timur, Sulawesi Utara","Kabupaten Bolaang Mongondow Timur, Sulawesi Utara",SULAWESI UTARA,,Indonesia,85256620477.0,,,0.7226979,124.3881711,https://maps.google.com/?cid=0x0:0xae6c97c3f5eaad4d,
restaurant,Sarapan,Dapur Mom Qhafy,"P98F+588, Bongkudai, Kec. Modayag Bar., Kabupaten Bolaang Mongondow Timur, Sulawesi Utara","Kabupaten Bolaang Mongondow Timur, Sulawesi Utara",SULAWESI UTARA,,Indonesia,81317618181.0,,,0.7154211,124.3733206,https://maps.google.com/?cid=0x0:0x4d070c77af257ba8,
restaurant,Rumah Makan,Rm Muslim Cahwa,"Bongkudai, Kec. Modayag Bar., Kabupaten Bolaang Mongondow Timur, Sulawesi Utara 95781","Kec. Modayag Bar., Kabupaten Bolaang Mongondow Timur",SULAWESI UTARA,95781.0,Indonesia,,,,0.7131138,124.3771124,https://maps.google.com/?cid=0x0:0xdeafcc153b3b7edc,
restaurant,Brunch,Pondok D'Sawa,"P977+54P, Jalan Baru, Bongkudai Bar., Kec. Modayag Bar., Kabupaten Bolaang Mongondow Timur, Sulawesi Utara","Kabupaten Bolaang Mongondow Timur, Sulawesi Utara",SULAWESI UTARA,,Indonesia,,,,0.7129575,124.3628328,https://maps.google.com/?cid=0x0:0x88cd0cd391bebe72,
restaurant,Brunch,Kedai Bestie,"Bongkudai Bar., Kec. Modayag Bar., Kabupaten Bolaang Mongondow Timur, Sulawesi Utara","Kabupaten Bolaang Mongondow Timur, Sulawesi Utara",SULAWESI UTARA,,Indonesia,,,,0.7165472,124.370042,https://maps.google.com/?cid=0x0:0xf7706e86fd01850e,
restaurant,Restoran,Dapur Mak Can,"Bongkudai, Kec. Modayag Bar., Kabupaten Bolaang Mongondow Timur, Sulawesi Utara","Kabupaten Bolaang Mongondow Timur, Sulawesi Utara",SULAWESI UTARA,,Indonesia,82348372622.0,,,0.7167282,124.3757287,https://maps.google.com/?cid=0x0:0x852cf339e1c0aca3,
restaurant,restaurant,Kec. Modayag Bar.,"Kabupaten Bolaang Mongondow Timur, Sulawesi Utara","Kabupaten Bolaang Mongondow Timur, Sulawesi Utara",SULAWESI UTARA,,Indonesia,,,,0.7152891,124.372507,https://maps.google.com/?cid=0x0:0xfd0e11adc540e358,
restaurant,Makanan Kecil,Pondok Mama Fat Mie TB,"P9G3+PWX, pinonobatuan, Kec. Modayag Bar., Kabupaten Bolaang Mongondow Timur, Sulawesi Utara","Kabupaten Bolaang Mongondow Timur, Sulawesi Utara",SULAWESI UTARA,,Indonesia,81243269095.0,,,0.7268673,124.3548586,https://maps.google.com/?cid=0x0:0x44f74eea8fddd3a6,
restaurant,Brunch,Kedai Kanjeng Mami Modayag,"Jl. Ratahan - Kotamobagu, Modayag, Kec. Modayag, Kabupaten Bolaang Mongondow Timur, Sulawesi Utara","Kabupaten Bolaang Mongondow Timur, Sulawesi Utara",SULAWESI UTARA,,Indonesia,,,,0.7097959,124.3842176,https://maps.google.com/?cid=0x0:0xa960d133362fe886,
restaurant,Sarapan,Musli,"P9J4+CQP, Moyongkota, Kec. Modayag Bar., Kabupaten Bolaang Mongondow Timur, Sulawesi Utara","Kabupaten Bolaang Mongondow Timur, Sulawesi Utara",SULAWESI UTARA,,Indonesia,82224007977.0,,,0.7310794,124.3569585,https://maps.google.com/?cid=0x0:0x198159ec986db5ca,
restaurant,Bakso,RM Puncak PW,"PC76+4CG, Purworejo Tim., Kec. Modayag, Kabupaten Bolaang Mongondow Timur, Sulawesi Utara","Kabupaten Bolaang Mongondow Timur, Sulawesi Utara",SULAWESI UTARA,,Indonesia,,,,0.7128068,124.4110676,https://maps.google.com/?cid=0x0:0xc31c0319ab7eeb4b,
restaurant,Brunch,Kedai Manjah,"P98G+73F, Bongkudai, Kec. Modayag Bar., Kabupaten Bolaang Mongondow Timur, Sulawesi Utara","Kabupaten Bolaang Mongondow Timur, Sulawesi Utara",SULAWESI UTARA,,Indonesia,85240589444.0,,,0.7155665,124.3746036,https://maps.google.com/?cid=0x0:0x7006ff283fa8f3e5,
restaurant,Rumah Makan,KANTIN MA' VIKAR,"P96M+FJ8, Unnamed Road, Modayag, Kec. Modayag, Kabupaten Bolaang Mongondow Timur, Sulawesi Utara","Kabupaten Bolaang Mongondow Timur, Sulawesi Utara",SULAWESI UTARA,,Indonesia,85342315522.0,,,0.7111524,124.3840916,https://maps.google.com/?cid=0x0:0x3397015dec67cba9,
restaurant,Restoran,Ayam Bakar Mama Putri,"Modayag II, Kec. Modayag, Kabupaten Bolaang Mongondow Timur, Sulawesi Utara 95781","Kec. Modayag, Kabupaten Bolaang Mongondow Timur",SULAWESI UTARA,95781.0,Indonesia,85756777253.0,,,0.7143156,124.3799525,https://maps.google.com/?cid=0x0:0x1eb38eb24a98af94,
restaurant,Restoran,Kantin Naton BUMdes,"P9H4+3C5, Moyongkota, Kec. Modayag Bar., Kabupaten Bolaang Mongondow Timur, Sulawesi Utara","Kabupaten Bolaang Mongondow Timur, Sulawesi Utara",SULAWESI UTARA,,Indonesia,,,,0.7276258,124.3561039,https://maps.google.com/?cid=0x0:0xf86f37ceb8f160ef,
restaurant,restaurant,Kantin nenek milda,"Bongkudai Bar., Kec. Modayag Bar., Kabupaten Bolaang Mongondow Timur, Sulawesi Utara 95781","Kec. Modayag Bar., Kabupaten Bolaang Mongondow Timur",SULAWESI UTARA,95781.0,Indonesia,,,,0.7159709,124.3708171,https://maps.google.com/?cid=0x0:0xf21be281aad19c0e,
restaurant,Restoran,Dapur Mak Can,"Bongkudai, Kec. Modayag Bar., Kabupaten Bolaang Mongondow Timur, Sulawesi Utara","Kabupaten Bolaang Mongondow Timur, Sulawesi Utara",SULAWESI UTARA,,Indonesia,82348372622.0,,,0.7167282,124.3757287,https://maps.google.com/?cid=0x0:0x852cf339e1c0aca3,
restaurant,Rumah Makan,Rm Muslim Cahwa,"Bongkudai, Kec. Modayag Bar., Kabupaten Bolaang Mongondow Timur, Sulawesi Utara 95781","Kec. Modayag Bar., Kabupaten Bolaang Mongondow Timur",SULAWESI UTARA,95781.0,Indonesia,,,,0.7131138,124.3771124,https://maps.google.com/?cid=0x0:0xdeafcc153b3b7edc,
restaurant,Sarapan,Dapur Mom Qhafy,"P98F+588, Bongkudai, Kec. Modayag Bar., Kabupaten Bolaang Mongondow Timur, Sulawesi Utara","Kabupaten Bolaang Mongondow Timur, Sulawesi Utara",SULAWESI UTARA,,Indonesia,81317618181.0,,,0.7154211,124.3733206,https://maps.google.com/?cid=0x0:0x4d070c77af257ba8,
restaurant,Brunch,Pondok D'Sawa,"P977+54P, Jalan Baru, Bongkudai Bar., Kec. Modayag Bar., Kabupaten Bolaang Mongondow Timur, Sulawesi Utara","Kabupaten Bolaang Mongondow Timur, Sulawesi Utara",SULAWESI UTARA,,Indonesia,,,,0.7129575,124.3628328,https://maps.google.com/?cid=0x0:0x88cd0cd391bebe72,
restaurant,Restoran,Kedai Albi n albi fried chicken,"P9FQ+37F, Liberia, Kec. Modayag, Kabupaten Bolaang Mongondow Timur, Sulawesi Utara","Kabupaten Bolaang Mongondow Timur, Sulawesi Utara",SULAWESI UTARA,,Indonesia,85256620477.0,,,0.7226979,124.3881711,https://maps.google.com/?cid=0x0:0xae6c97c3f5eaad4d,
restaurant,Rumah Makan,Rumah Makan MAS Erik (Purworejo. Modayag Boltim),"P97V+5Q7, Jl. Amurang - Kotamobagu, Purworejo Tim., Kec. Modayag, Kabupaten Bolaang Mongondow Timur, Sulawesi Utara","Kabupaten Bolaang Mongondow Timur, Sulawesi Utara",SULAWESI UTARA,,Indonesia,,,,0.7129238,124.3944217,https://maps.google.com/?cid=0x0:0xe7071eec10dfe8e7,
restaurant,Kedai Kopi,emperan11,"Sumber Rejo, Kec. Modayag, Kabupaten Bolaang Mongondow Timur, Sulawesi Utara 95781","Kec. Modayag, Kabupaten Bolaang Mongondow Timur",SULAWESI UTARA,95781.0,Indonesia,81242200419.0,,,0.7129318,124.3976285,https://maps.google.com/?cid=0x0:0xd98b89ab14204f2e,
restaurant,Rumah Makan,Happiness Resto and Cafe,"PC65+X2G, Jl. Amurang - Kotamobagu, Purworejo Tim., Kec. Modayag, Kabupaten Bolaang Mongondow Timur, Sulawesi Utara","Kabupaten Bolaang Mongondow Timur, Sulawesi Utara",SULAWESI UTARA,,Indonesia,,,,0.7124337,124.4075764,https://maps.google.com/?cid=0x0:0xb1bdf21ad86cfa71,
restaurant,Dapur Umum,Kantin Naskun Mama Iwan,"P9J3+9RR, Moyongkota Baru, Kec. Modayag Bar., Kabupaten Bolaang Mongondow Timur, Sulawesi Utara","Kabupaten Bolaang Mongondow Timur, Sulawesi Utara",SULAWESI UTARA,,Indonesia,,,,0.7309823,124.3545235,https://maps.google.com/?cid=0x0:0x393e4e4b0877b9ea,
restaurant,Restoran,Kampoeng Etan RestoCafe,"P9CW+VGF, Liberia Tim., Kec. Modayag, Kabupaten Bolaang Mongondow Timur, Sulawesi Utara","Kabupaten Bolaang Mongondow Timur, Sulawesi Utara",SULAWESI UTARA,,Indonesia,,,,0.7221891,124.3962913,https://maps.google.com/?cid=0x0:0xa0e9eb2af3edcb87,
restaurant,Rumah Makan,Basecamp kantin ma'iyah,"P9CR+VR9, Liberia Tim., Kec. Modayag, Kabupaten Bolaang Mongondow Timur, Sulawesi Utara","Kabupaten Bolaang Mongondow Timur, Sulawesi Utara",SULAWESI UTARA,,Indonesia,,,,0.7224007,124.3916488,https://maps.google.com/?cid=0x0:0x40bf88465b81413f,
restaurant,Restoran,LIBRA,"P9F6+V2P, Bangunan Wuwuk, Kec. Modayag Bar., Kabupaten Bolaang Mongondow Timur, Sulawesi Utara","Kabupaten Bolaang Mongondow Timur, Sulawesi Utara",SULAWESI UTARA,,Indonesia,,,,0.724709,124.3600741,https://maps.google.com/?cid=0x0:0xe84f5583ed002a5,
restaurant,Es Krim,Kafee basantai,"HGXR+7C9, Nuangan, Kec. Nuangan, Kabupaten Bolaang Mongondow Timur, Sulawesi Utara","Kabupaten Bolaang Mongondow Timur, Sulawesi Utara",SULAWESI UTARA,,Indonesia,,,,0.598157,124.5411,https://maps.google.com/?cid=0x0:0x1e61831206b39297,
restaurant,Rumah Makan,Kantin fay,"Jl. Trans Lingkar Selatan, Nuangan, Kec. Nuangan, Kabupaten Bolaang Mongondow Timur, Sulawesi Utara","Kabupaten Bolaang Mongondow Timur, Sulawesi Utara",SULAWESI UTARA,,Indonesia,85656993899.0,,,0.5977389,124.5211368,https://maps.google.com/?cid=0x0:0xb63261647d19923c,
restaurant,restaurant,Sulawesi Utara 95775,"Modisi, Kec. Pinolosian Tim., Kabupaten Bolaang Mongondow Selatan, Sulawesi Utara","Kabupaten Bolaang Mongondow Selatan, Sulawesi Utara",SULAWESI UTARA,,Indonesia,,,,0.4528494,124.4356892,https://maps.google.com/?cid=0x0:0x5956b774c20081f1,
restaurant,Kedai Kopi,Rumah Makan Bukit Indah,"HGVF+P86, Nuangan, Kec. Nuangan, Kabupaten Bolaang Mongondow Timur, Sulawesi Utara","Kabupaten Bolaang Mongondow Timur, Sulawesi Utara",SULAWESI UTARA,,Indonesia,,,,0.5942797,124.5232768,https://maps.google.com/?cid=0x0:0xb21890859c54e363,
restaurant,Kafe,Kedai Naton II,"Nuangan, Kec. Nuangan, Kabupaten Bolaang Mongondow Timur, Sulawesi Utara","Kabupaten Bolaang Mongondow Timur, Sulawesi Utara",SULAWESI UTARA,,Indonesia,82292676993.0,,,0.5927989,124.5259567,https://maps.google.com/?cid=0x0:0x8f064c6bd81c4298,
restaurant,Prasmanan,Dapur Geprek Dan Lalapan,"Unnamed Road Nuangan Barat, Kec. Nuangan, Kabupaten Bolaang Mongondow Timur, Sulawesi Utara","Kabupaten Bolaang Mongondow Timur, Sulawesi Utara",SULAWESI UTARA,,Indonesia,85756909643.0,,,0.5972344,124.5402417,https://maps.google.com/?cid=0x0:0xe4d52710d5c1a54a,
restaurant,Rumah Makan,RM Pondok Hibrida,"MHG7+PFC, Jl. Trans Sulawesi, Lintas Selatan, Motongkad, Kec. Nuangan, Kabupaten Bolaang Mongondow Timur, Sulawesi Utara","Kabupaten Bolaang Mongondow Timur, Sulawesi Utara",SULAWESI UTARA,,Indonesia,,,,0.6768122,124.5636498,https://maps.google.com/?cid=0x0:0xf7302fba9a1c2d28,
restaurant,Es Krim,Kantin mama yunda,"Nuangan, Kec. Nuangan, Kabupaten Bolaang Mongondow Timur, Sulawesi Utara","Kabupaten Bolaang Mongondow Timur, Sulawesi Utara",SULAWESI UTARA,,Indonesia,81524728249.0,,,0.5956395,124.523198,https://maps.google.com/?cid=0x0:0x7b5afdba7be84f0,
restaurant,Paviliun Pantai,Atoga River View,"MGJ6+75M, Atoga, Kec. Nuangan, Kabupaten Bolaang Mongondow Timur, Sulawesi Utara","Kabupaten Bolaang Mongondow Timur, Sulawesi Utara",SULAWESI UTARA,,Indonesia,85340532011.0,,,0.6807139,124.5104069,https://maps.google.com/?cid=0x0:0x4406070a89d9e46d,
restaurant,restaurant,talha mokoagow,"nuangan selatan, Kec. Nuangan, Kabupaten Bolaang Mongondow Timur, Sulawesi Utara 95783","Kec. Nuangan, Kabupaten Bolaang Mongondow Timur",SULAWESI UTARA,95783.0,Indonesia,81342724418.0,,,0.5944657,124.5239462,https://maps.google.com/?cid=0x0:0xdbed44ab944cb0db,
restaurant,Rumah Makan,Bukit Unang,"HG89+R99, Jl. Trans Sulawesi Nuangan-Modisi, Loyow, Kec. Nuangan, Kabupaten Bolaang Mongondow Timur, Sulawesi Utara","Kabupaten Bolaang Mongondow Timur, Sulawesi Utara",SULAWESI UTARA,,Indonesia,,,,0.5670396,124.5184901,https://maps.google.com/?cid=0x0:0x93b0bb33bbc1c2a2,
restaurant,Sarapan,Goba Molunow,"PCGV+MQR, Jl. Ratahan - Kotamobagu, Moat, Kec. Modayag, Kabupaten Bolaang Mongondow Timur, Sulawesi Utara","Kabupaten Bolaang Mongondow Timur, Sulawesi Utara",SULAWESI UTARA,,Indonesia,,,,0.7267383,124.4443802,https://maps.google.com/?cid=0x0:0x62b1ba2eb43dd5d0,
restaurant,restaurant,Kedai Sobat Bai,"feby, Desa bai kecamatan Nuangan, depan poskesdes, Bai, Sulawesi Utara 95786","Desa bai kecamatan Nuangan, depan poskesdes, Bai",SULAWESI UTARA,95786.0,Indonesia,85143460475.0,,,0.6363499,124.5062356,https://maps.google.com/?cid=0x0:0x279f1813efdfcdd0,
restaurant,restaurant,Kantin mama lisa,"JFPW+HW, Bai, Kec. Nuangan, Kabupaten Bolaang Mongondow Timur, Sulawesi Utara","Kabupaten Bolaang Mongondow Timur, Sulawesi Utara",SULAWESI UTARA,,Indonesia,85696253032.0,,,0.636375,124.497364,https://maps.google.com/?cid=0x0:0xed43d57687fc134d,
restaurant,Rumah Makan,Rm.Mama Gia,"MG3P+696, Molobog, Kec. Nuangan, Kabupaten Bolaang Mongondow Timur, Sulawesi Utara","Kabupaten Bolaang Mongondow Timur, Sulawesi Utara",SULAWESI UTARA,,Indonesia,82187784670.0,,,0.6530253,124.5358752,https://maps.google.com/?cid=0x0:0xa992ecc4a4cce0ac,
restaurant,restaurant,Kantin mama apip,"JG7H+V5V, Nuangan I, Kec. Nuangan, Kabupaten Bolaang Mongondow Timur, Sulawesi Utara","Kabupaten Bolaang Mongondow Timur, Sulawesi Utara",SULAWESI UTARA,,Indonesia,,,,0.6147287,124.5279139,https://maps.google.com/?cid=0x0:0xd9335d6eb4621753,
restaurant,Restoran,d'Nyong,"QC7W+Q34, Jl. Amurang - Kotamobagu, Bongkudai Baru, Kec. Modayag, Kabupaten Bolaang Mongondow Timur, Sulawesi Utara","Kabupaten Bolaang Mongondow Timur, Sulawesi Utara",SULAWESI UTARA,,Indonesia,85340775931.0,,,0.7643857,124.4452156,https://maps.google.com/?cid=0x0:0x5850f2722d5099da,
restaurant,Dapur Umum,Kios makanan (Michael),"Guaan, Kec. Modayag, Kabupaten Bolaang Mongondow Timur, Sulawesi Utara 95782","Kec. Modayag, Kabupaten Bolaang Mongondow Timur",SULAWESI UTARA,95782.0,Indonesia,82192763041.0,,,0.7670764,124.4474731,https://maps.google.com/?cid=0x0:0x81de8e37ed6dc4ae,
restaurant,Rumah Makan,Kantin Ma Mia Asang,"QCXG+52X, Insil Baru, Kec. Passi Tim., Kabupaten Bolaang Mongondow, Sulawesi Utara","Kabupaten Bolaang Mongondow, Sulawesi Utara",SULAWESI UTARA,,Indonesia,81543132720.0,,,0.7979787,124.4251097,https://maps.google.com/?cid=0x0:0xc3c681f8fd3511d1,
restaurant,Bar,Kios Saguer Erens Kamuh,"MFWW+Q49, Moat, Kec. Nuangan, Kabupaten Bolaang Mongondow Timur, Sulawesi Utara","Kabupaten Bolaang Mongondow Timur, Sulawesi Utara",SULAWESI UTARA,,Indonesia,,,,0.6969203,124.4953722,https://maps.google.com/?cid=0x0:0xe23391bd697dd8e9,
restaurant,restaurant,Kec. Tutuyan,"Kabupaten Bolaang Mongondow Timur, Sulawesi Utara","Kabupaten Bolaang Mongondow Timur, Sulawesi Utara",SULAWESI UTARA,,Indonesia,,,,0.7567721,124.6124872,https://maps.google.com/?cid=0x0:0x736818cdb777053,
restaurant,Rumah Makan,RM Uti,"QJ26+97P, Togid, Kec. Tutuyan, Kabupaten Bolaang Mongondow Timur, Sulawesi Utara","Kabupaten Bolaang Mongondow Timur, Sulawesi Utara",SULAWESI UTARA,,Indonesia,,,,0.7509533,124.6107077,https://maps.google.com/?cid=0x0:0xe3b7554400d175d0,
restaurant,Rumah Makan,RM. Lamongan,"QJF9+778, Tombolikat Sel., Kec. Tutuyan, Kabupaten Bolaang Mongondow Timur, Sulawesi Utara","Kabupaten Bolaang Mongondow Timur, Sulawesi Utara",SULAWESI UTARA,,Indonesia,,,,0.7731576,124.6181991,https://maps.google.com/?cid=0x0:0x2e180f3b1bd121af,
restaurant,Indonesia,Cafe Naton,"QJPF+G9P, Jl. Trans Sulawesi Lkr. Sel., Kayumoyondi, Kec. Tutuyan, Kabupaten Bolaang Mongondow Timur, Sulawesi Utara","Kabupaten Bolaang Mongondow Timur, Sulawesi Utara",SULAWESI UTARA,,Indonesia,,,,0.7863427,124.6234479,https://maps.google.com/?cid=0x0:0xcdba696a63a471ff,
restaurant,Kafe,D' Katu Kafe And Resto,"QJG9+PQV, Tombolikat Sel., Kec. Tutuyan, Kabupaten Bolaang Mongondow Timur, Sulawesi Utara","Kabupaten Bolaang Mongondow Timur, Sulawesi Utara",SULAWESI UTARA,,Indonesia,85298845894.0,,,0.7768604,124.6194356,https://maps.google.com/?cid=0x0:0xf25d2edbe0bddf13,
restaurant,Restoran,RM. Athaya,"QJ88+VG7, Jl. Ratahan - Kotamobagu, Tutuyan III, Kec. Tutuyan, Kabupaten Bolaang Mongondow Timur, Sulawesi Utara","Kabupaten Bolaang Mongondow Timur, Sulawesi Utara",SULAWESI UTARA,,Indonesia,82296995006.0,,,0.767166,124.6163046,https://maps.google.com/?cid=0x0:0x50c22518402ff280,
restaurant,Rumah Makan,RM MUSLIM AINI,"dua, Kompleks pasar, Kec. Tutuyan, Kabupaten Bolaang Mongondow Timur, Sulawesi Utara 95783","Kompleks pasar, Kec. Tutuyan, Kabupaten Bolaang Mongondow Timur",SULAWESI UTARA,95783.0,Indonesia,85256698889.0,,,0.764891,124.6148023,https://maps.google.com/?cid=0x0:0x106c4c00ce00606f,
restaurant,Kafe,Republic Cafe and Eatery,"Jl. Ratahan - Kotamobagu, Tutuyan II, Kec. Tutuyan, Kabupaten Bolaang Mongondow Timur, Sulawesi Utara","Kabupaten Bolaang Mongondow Timur, Sulawesi Utara",SULAWESI UTARA,,Indonesia,82290052189.0,,,0.753626,124.611748,https://maps.google.com/?cid=0x0:0xbbc18af345d60179,
restaurant,Rumah Makan,coto makassar boltim,"QJ88+WF6, Tutuyan III, Kec. Tutuyan, Kabupaten Bolaang Mongondow Timur, Sulawesi Utara","Kabupaten Bolaang Mongondow Timur, Sulawesi Utara",SULAWESI UTARA,,Indonesia,85215427880.0,,,0.7672782,124.6161371,https://maps.google.com/?cid=0x0:0x1326bcb58065e95,
restaurant,Rumah Makan,RM. MELATI,"QJ88+V9H, Tutuyan III, Kec. Tutuyan, Kabupaten Bolaang Mongondow Timur, Sulawesi Utara","Kabupaten Bolaang Mongondow Timur, Sulawesi Utara",SULAWESI UTARA,,Indonesia,,,,0.7671958,124.615973,https://maps.google.com/?cid=0x0:0xace4967be0541bda,
restaurant,Restoran,RM Minahasa Blessing,"Tutuyan III, Kec. Tutuyan, Kabupaten Bolaang Mongondow Timur, Sulawesi Utara 95783","Kec. Tutuyan, Kabupaten Bolaang Mongondow Timur",SULAWESI UTARA,95783.0,Indonesia,82187482791.0,,,0.7706199,124.6169273,https://maps.google.com/?cid=0x0:0x18a29cf313800236,
restaurant,Rumah Makan,RM. Lestari,"QJF9+XHW, Tombolikat Sel., Kec. Tutuyan, Kabupaten Bolaang Mongondow Timur, Sulawesi Utara","Kabupaten Bolaang Mongondow Timur, Sulawesi Utara",SULAWESI UTARA,,Indonesia,,,,0.7749986,124.6189526,https://maps.google.com/?cid=0x0:0xc0e602925ec06181,
restaurant,Kafe,R.M  Caffe (Aisyah),"QJ98+79P, Tutuyan III, Kec. Tutuyan, Kabupaten Bolaang Mongondow Timur, Sulawesi Utara","Kabupaten Bolaang Mongondow Timur, Sulawesi Utara",SULAWESI UTARA,,Indonesia,82191575559.0,,,0.7682221,124.615961,https://maps.google.com/?cid=0x0:0x9f71fe4abc65d38,
restaurant,Brunch,KANTIN NUSINDA,"QJ56+RWF, Tutuyan, Kec. Tutuyan, Kabupaten Bolaang Mongondow Timur, Sulawesi Utara","Kabupaten Bolaang Mongondow Timur, Sulawesi Utara",SULAWESI UTARA,,Indonesia,,,,0.7595676,124.612295,https://maps.google.com/?cid=0x0:0x1da512fd07f5b7b4,
restaurant,Padang,Warung Makan Sederhana,"QJQF+RV3, Kayumoyondi, Kec. Tutuyan, Kabupaten Bolaang Mongondow Timur, Sulawesi Utara","Kabupaten Bolaang Mongondow Timur, Sulawesi Utara",SULAWESI UTARA,,Indonesia,,,,0.7895191,124.624678,https://maps.google.com/?cid=0x0:0x531f6ab6c3f9a18e,
restaurant,Restoran,MORPHIC COFFE HOUSE,"Tutuyan, Kec. Tutuyan, Kabupaten Bolaang Mongondow Timur, Sulawesi Utara","Kabupaten Bolaang Mongondow Timur, Sulawesi Utara",SULAWESI UTARA,,Indonesia,,,,0.7615435,124.6137736,https://maps.google.com/?cid=0x0:0x90ae3205501e9094,
restaurant,Bakso,BAKSO KITA Wong Malang,"Togid, Kec. Tutuyan, Kabupaten Bolaang Mongondow Timur, Sulawesi Utara","Kabupaten Bolaang Mongondow Timur, Sulawesi Utara",SULAWESI UTARA,,Indonesia,85240649187.0,,,0.7506992,124.6106145,https://maps.google.com/?cid=0x0:0x66ff4e76af5ab6aa,
restaurant,Rumah Makan,Kedai Imu Dyan,"QJG9+3H4, Jl. Ratahan - Kotamobagu, Tutuyan III, Kec. Tutuyan, Kabupaten Bolaang Mongondow Timur, Sulawesi Utara","Kabupaten Bolaang Mongondow Timur, Sulawesi Utara",SULAWESI UTARA,,Indonesia,82194220956.0,,,0.7751369,124.6189438,https://maps.google.com/?cid=0x0:0xdaa248d1c2d75873,
restaurant,Restoran,Ayam Singapore cab Tutuyan,"QJ77+GQ4, Jl. Ratahan - Kotamobagu, Tutuyan III, Kec. Tutuyan, Kabupaten Bolaang Mongondow Timur, Sulawesi Utara","Kabupaten Bolaang Mongondow Timur, Sulawesi Utara",SULAWESI UTARA,,Indonesia,81284291246.0,,,0.7637611,124.6144605,https://maps.google.com/?cid=0x0:0x7d917c1fa4b1952c,
restaurant,Kafe,Sarange Mimi Cafe,"Kayumoyondi, Kec. Tutuyan, Kabupaten Bolaang Mongondow Timur, Sulawesi Utara","Kabupaten Bolaang Mongondow Timur, Sulawesi Utara",SULAWESI UTARA,,Indonesia,,,,0.7841723,124.6223218,https://maps.google.com/?cid=0x0:0xb89a4e2d4d07236b,
restaurant,Restoran,THREE M Kitchen,"Kantor Bupati Samping Puskesmas Tutuyan, Jl.Dua Arah, Tutuyan, Kec. Tutuyan, Kabupaten Bolaang Mongondow Timur, Sulawesi Utara 95782","Jl.Dua Arah, Tutuyan, Kec. Tutuyan, Kabupaten Bolaang Mongondow Timur",SULAWESI UTARA,95782.0,Indonesia,82194341676.0,,,0.7584811,124.6112265,https://maps.google.com/?cid=0x0:0x2159feeb711c10f3,
restaurant,Restoran,Bites N Buns,"Tutuyan III, Kec. Tutuyan, Kabupaten Bolaang Mongondow Timur, Sulawesi Utara 95783","Kec. Tutuyan, Kabupaten Bolaang Mongondow Timur",SULAWESI UTARA,95783.0,Indonesia,85240496089.0,,,0.7657777,124.6152062,https://maps.google.com/?cid=0x0:0xe43ec031ee2c9032,
restaurant,Hostel,Penginapan,"QJ47+P24, Tutuyan, Kec. Tutuyan, Kabupaten Bolaang Mongondow Timur, Sulawesi Utara","Kabupaten Bolaang Mongondow Timur, Sulawesi Utara",SULAWESI UTARA,,Indonesia,,,,0.7567557,124.612574,https://maps.google.com/?cid=0x0:0xfe4ce7074c0c23a9,
restaurant,Bar,OASIS Cafe  Resto,"QJ3C+77R, Jl. Baret, Tutuyan II, Kec. Tutuyan, Kabupaten Bolaang Mongondow Timur, Sulawesi Utara","Kabupaten Bolaang Mongondow Timur, Sulawesi Utara",SULAWESI UTARA,,Indonesia,,,,0.7532436,124.6206429,https://maps.google.com/?cid=0x0:0xae26e663cf594113,
cafe,cafe,Kotabunan,"Kabupaten Bolaang Mongondow Timur, Sulawesi Utara","Kabupaten Bolaang Mongondow Timur, Sulawesi Utara",SULAWESI UTARA,,Indonesia,,,,0.8554519,124.6192702,https://maps.google.com/?cid=0x0:0x94bb77bfbc3242eb,
cafe,Indonesia,Cafe Naton,"QJPF+G9P, Jl. Trans Sulawesi Lkr. Sel., Kayumoyondi, Kec. Tutuyan, Kabupaten Bolaang Mongondow Timur, Sulawesi Utara","Kabupaten Bolaang Mongondow Timur, Sulawesi Utara",SULAWESI UTARA,,Indonesia,,,,0.7863427,124.6234479,https://maps.google.com/?cid=0x0:0xcdba696a63a471ff,
cafe,Dapur Umum,Cafe Bulawan,"RM74+59G, Bulawan, Kotabunan, Kabupaten Bolaang Mongondow Timur, Sulawesi Utara","Kabupaten Bolaang Mongondow Timur, Sulawesi Utara",SULAWESI UTARA,,Indonesia,81241617658.0,,,0.8130757,124.655784,https://maps.google.com/?cid=0x0:0x828f49b7bb4ad51a,
cafe,Indonesia,Sei J Cafe  Resto,"VM3R+8M4, Buyat I, Kotabunan, Kabupaten Bolaang Mongondow Timur, Sulawesi Utara","Kabupaten Bolaang Mongondow Timur, Sulawesi Utara",SULAWESI UTARA,,Indonesia,82299995317.0,,,0.8532623,124.6917002,https://maps.google.com/?cid=0x0:0xfc867104ae293b19,
cafe,Kafetaria,C.E.O Cafe  Resto,"QJRM+RVC, Paret, Kotabunan, Kabupaten Bolaang Mongondow Timur, Sulawesi Utara","Kabupaten Bolaang Mongondow Timur, Sulawesi Utara",SULAWESI UTARA,,Indonesia,82190104013.0,,,0.7920623,124.6346539,https://maps.google.com/?cid=0x0:0x130d42a0671c11a9,
cafe,Kedai Kopi,Kedai kopi,"Kotabunan, Sulawesi Utara 95782",Sulawesi Utara,SULAWESI UTARA,,Indonesia,82190261556.0,,,0.809593,124.6579308,https://maps.google.com/?cid=0x0:0xc786fe49c6445364,
cafe,Kafe,Kedai+62,"Jl. Ratahan - Kotamobagu, Paret, Kotabunan, Kabupaten Bolaang Mongondow Timur, Sulawesi Utara","Kabupaten Bolaang Mongondow Timur, Sulawesi Utara",SULAWESI UTARA,,Indonesia,,,,0.7957253,124.6310749,https://maps.google.com/?cid=0x0:0x211877c65a100baa,
cafe,Sarapan,Kedai Teras Bambu,"Jln. Koramil Desa Bulawan, Jl. Ratahan - Kotamobagu, Kotabunan, Kabupaten Bolaang Mongondow Timur, Sulawesi Utara","Kabupaten Bolaang Mongondow Timur, Sulawesi Utara",SULAWESI UTARA,,Indonesia,81241916127.0,,,0.8116654,124.6587778,https://maps.google.com/?cid=0x0:0xff046dcd84060d5c,
cafe,Kedai Kopi,Kantin Pojok buyat,"Buyat II, Kotabunan, Kabupaten Bolaang Mongondow Timur, Sulawesi Utara","Kabupaten Bolaang Mongondow Timur, Sulawesi Utara",SULAWESI UTARA,,Indonesia,,,,0.8549419,124.6933607,https://maps.google.com/?cid=0x0:0xb25ce23debd174e5,
cafe,Restoran,Kopian Panang,"RJGV+PQG, Kotabunan, Kabupaten Bolaang Mongondow Timur, Sulawesi Utara","Kabupaten Bolaang Mongondow Timur, Sulawesi Utara",SULAWESI UTARA,,Indonesia,,,,0.8268231,124.6444424,https://maps.google.com/?cid=0x0:0xde979bb01a3618fa,
cafe,Perhimpunan Pengembang Perumahan,Kotabunan Barat,"Jl. Tangkudeagan, Kotabunan, Kabupaten Bolaang Mongondow Timur, Sulawesi Utara","Kabupaten Bolaang Mongondow Timur, Sulawesi Utara",SULAWESI UTARA,,Indonesia,82346551981.0,,,0.8100736,124.6506657,https://maps.google.com/?cid=0x0:0x577205976c9207f5,
cafe,Kedai Kopi,TAMANG BAE,"VM5Q+2XH, Unnamed Road, Buyat II, Kotabunan, Kabupaten Bolaang Mongondow Timur, Sulawesi Utara","Kabupaten Bolaang Mongondow Timur, Sulawesi Utara",SULAWESI UTARA,,Indonesia,82271280428.0,,,0.8575617,124.6899809,https://maps.google.com/?cid=0x0:0xd46208072911db4b,
cafe,Kedai Kopi,Minorigin Coffee,"Depan Gereja Katolik, Jl. Trans lingkar selatan, Kayumoyondi, Kec. Tutuyan, Kabupaten Bolaang Mongondow Timur, Sulawesi Utara 95783","Jl. Trans lingkar selatan, Kayumoyondi, Kec. Tutuyan, Kabupaten Bolaang Mongondow Timur",SULAWESI UTARA,95783.0,Indonesia,82243905799.0,,,0.7847017,124.622578,https://maps.google.com/?cid=0x0:0xe51950d156e97e1f,
cafe,Kafe,Sarange Mimi Cafe,"Kayumoyondi, Kec. Tutuyan, Kabupaten Bolaang Mongondow Timur, Sulawesi Utara","Kabupaten Bolaang Mongondow Timur, Sulawesi Utara",SULAWESI UTARA,,Indonesia,,,,0.7841723,124.6223218,https://maps.google.com/?cid=0x0:0xb89a4e2d4d07236b,
cafe,Kedai Kopi,Toko Kopi Fajar Baru,"Bulawan, Kotabunan, Kabupaten Bolaang Mongondow Timur, Sulawesi Utara","Kabupaten Bolaang Mongondow Timur, Sulawesi Utara",SULAWESI UTARA,,Indonesia,81342099909.0,,,0.8116018,124.6577785,https://maps.google.com/?cid=0x0:0x9e233587c0bff25f,
cafe,Kafe,Republic Cafe and Eatery,"Jl. Ratahan - Kotamobagu, Tutuyan II, Kec. Tutuyan, Kabupaten Bolaang Mongondow Timur, Sulawesi Utara","Kabupaten Bolaang Mongondow Timur, Sulawesi Utara",SULAWESI UTARA,,Indonesia,82290052189.0,,,0.753626,124.611748,https://maps.google.com/?cid=0x0:0xbbc18af345d60179,
cafe,Kafe,71.10 coffee,"Tombolikat selatan, dusun 3, lorong, somil, Kabupaten Bolaang Mongondow Timur, Sulawesi Utara 95783","dusun 3, lorong, somil, Kabupaten Bolaang Mongondow Timur",SULAWESI UTARA,95783.0,Indonesia,82188294473.0,,,0.7752185,124.6205517,https://maps.google.com/?cid=0x0:0xcfd662b6b4ac1f3d,
cafe,Padang,Rumah Makan Tanjung Bubuan,"VM2V+GMM, Buyat I, Kotabunan, Kabupaten Bolaang Mongondow Timur, Sulawesi Utara","Kabupaten Bolaang Mongondow Timur, Sulawesi Utara",SULAWESI UTARA,,Indonesia,81351199605.0,,,0.8513461,124.6941872,https://maps.google.com/?cid=0x0:0x5c1671812efc10cd,
cafe,Kafe,Kedai Klasik,"RM63+W26, Kotabunan, Kabupaten Bolaang Mongondow Timur, Sulawesi Utara","Kabupaten Bolaang Mongondow Timur, Sulawesi Utara",SULAWESI UTARA,,Indonesia,82187829475.0,,,0.8122821,124.652502,https://maps.google.com/?cid=0x0:0x686e2e5bce60ccfb,
cafe,cafe,Ethiopia coffee shop,"Dusun II, Tombolikat Sel., Kec. Tutuyan, Kabupaten Bolaang Mongondow Timur, Sulawesi Utara 95783","Tombolikat Sel., Kec. Tutuyan, Kabupaten Bolaang Mongondow Timur",SULAWESI UTARA,95783.0,Indonesia,82398443305.0,,,0.7744365,124.6201884,https://maps.google.com/?cid=0x0:0x8f31bd0bd181f1e6,
cafe,Indonesia,ITAM MANIS DRINKS,"RM55+M39, Jl. Ratahan - Kotamobagu, Kotabunan, Kabupaten Bolaang Mongondow Timur, Sulawesi Utara","Kabupaten Bolaang Mongondow Timur, Sulawesi Utara",SULAWESI UTARA,,Indonesia,82193148176.0,,,0.8091721,124.6577273,https://maps.google.com/?cid=0x0:0xddd52506f938fb95,
cafe,Kafe,D' Katu Kafe And Resto,"QJG9+PQV, Tombolikat Sel., Kec. Tutuyan, Kabupaten Bolaang Mongondow Timur, Sulawesi Utara","Kabupaten Bolaang Mongondow Timur, Sulawesi Utara",SULAWESI UTARA,,Indonesia,85298845894.0,,,0.7768604,124.6194356,https://maps.google.com/?cid=0x0:0xf25d2edbe0bddf13,
cafe,cafe,Kec. Modayag,"Kabupaten Bolaang Mongondow Timur, Sulawesi Utara","Kabupaten Bolaang Mongondow Timur, Sulawesi Utara",SULAWESI UTARA,,Indonesia,,,,0.7084236,124.3864248,https://maps.google.com/?cid=0x0:0xc881d84722502f21,
cafe,Minimarket,Izra Mini Cafe,"PC66+XW7, Purworejo Tim., Kec. Modayag, Kabupaten Bolaang Mongondow Timur, Sulawesi Utara","Kabupaten Bolaang Mongondow Timur, Sulawesi Utara",SULAWESI UTARA,,Indonesia,85656449905.0,,,0.7124199,124.4122984,https://maps.google.com/?cid=0x0:0x4242c162d14e432f,
cafe,Brunch,Kedai Bestie,"Bongkudai Bar., Kec. Modayag Bar., Kabupaten Bolaang Mongondow Timur, Sulawesi Utara","Kabupaten Bolaang Mongondow Timur, Sulawesi Utara",SULAWESI UTARA,,Indonesia,,,,0.7165472,124.370042,https://maps.google.com/?cid=0x0:0xf7706e86fd01850e,
cafe,Tujuan Wisata,Cafe D'Mooat Strawberry,"PFJ4+CX9, Moat, Kec. Modayag, Kabupaten Bolaang Mongondow Timur, Sulawesi Utara","Kabupaten Bolaang Mongondow Timur, Sulawesi Utara",SULAWESI UTARA,,Indonesia,,,,0.7310407,124.4574936,https://maps.google.com/?cid=0x0:0xd66d4968298202a3,
cafe,Kedai Kopi,Cafe Kopi Kobong,"Bangunan Wuwuk, Kec. Modayag Bar., Kabupaten Bolaang Mongondow Timur, Sulawesi Utara","Kabupaten Bolaang Mongondow Timur, Sulawesi Utara",SULAWESI UTARA,,Indonesia,85256711168.0,,,0.7223278,124.3644341,https://maps.google.com/?cid=0x0:0x239ab5ca2af88f7a,
cafe,Bakso,RM Puncak PW,"PC76+4CG, Purworejo Tim., Kec. Modayag, Kabupaten Bolaang Mongondow Timur, Sulawesi Utara","Kabupaten Bolaang Mongondow Timur, Sulawesi Utara",SULAWESI UTARA,,Indonesia,,,,0.7128068,124.4110676,https://maps.google.com/?cid=0x0:0xc31c0319ab7eeb4b,
cafe,Tujuan Wisata,Danau Tondok Permai,"PCGW+557, Moat, Kec. Modayag, Kabupaten Bolaang Mongondow Timur, Sulawesi Utara","Kabupaten Bolaang Mongondow Timur, Sulawesi Utara",SULAWESI UTARA,,Indonesia,,,,0.7254057,124.4454343,https://maps.google.com/?cid=0x0:0xa44eb24050aa0eee,
cafe,Brunch,Kedai Kanjeng Mami Modayag,"Jl. Ratahan - Kotamobagu, Modayag, Kec. Modayag, Kabupaten Bolaang Mongondow Timur, Sulawesi Utara","Kabupaten Bolaang Mongondow Timur, Sulawesi Utara",SULAWESI UTARA,,Indonesia,,,,0.7097959,124.3842176,https://maps.google.com/?cid=0x0:0xa960d133362fe886,
cafe,Rumah Makan,RM. Kafa Aby Manyu,"P97V+7GQ, Jl. Amurang - Kotamobagu, Purworejo Tim., Kec. Modayag, Kabupaten Bolaang Mongondow Timur, Sulawesi Utara","Kabupaten Bolaang Mongondow Timur, Sulawesi Utara",SULAWESI UTARA,,Indonesia,,,,0.7132058,124.393867,https://maps.google.com/?cid=0x0:0x175753029561197b,
cafe,Restoran,Kampoeng Etan RestoCafe,"P9CW+VGF, Liberia Tim., Kec. Modayag, Kabupaten Bolaang Mongondow Timur, Sulawesi Utara","Kabupaten Bolaang Mongondow Timur, Sulawesi Utara",SULAWESI UTARA,,Indonesia,,,,0.7221891,124.3962913,https://maps.google.com/?cid=0x0:0xa0e9eb2af3edcb87,
cafe,Dapur Umum,Kantin Mama Jein,"MCFM+4J5, Badaro, Kec. Modayag, Kabupaten Bolaang Mongondow Timur, Sulawesi Utara","Kabupaten Bolaang Mongondow Timur, Sulawesi Utara",SULAWESI UTARA,,Indonesia,82346350205.0,,,0.673801,124.4334366,https://maps.google.com/?cid=0x0:0x4c8cb2522d00ee08,
cafe,Kafe,Kedai Kawanua,"P9J3+7X3, Induk, RT.001/RW.001, Moyongkota, Kec. Modayag Bar., Kabupaten Bolaang Mongondow Timur, Sulawesi Utara 95781","Induk, RT.001/RW.001, Moyongkota, Kec. Modayag Bar., Kabupaten Bolaang Mongondow Timur",SULAWESI UTARA,95781.0,Indonesia,85255080510.0,,,0.7306316,124.3549294,https://maps.google.com/?cid=0x0:0xe3a54d97887de707,
cafe,Kafe,El Moya Cafe,"QCXX+GJM, Jl. Amurang - Kotamobagu, Pinasungkulan, Kec. Modoinding, Kabupaten Minahasa Selatan, Sulawesi Utara","Kabupaten Minahasa Selatan, Sulawesi Utara",SULAWESI UTARA,,Indonesia,81221443379.0,,,0.7988445,124.4490461,https://maps.google.com/?cid=0x0:0x31d9d4c903388a88,
cafe,Kedai Kopi,emperan11,"Sumber Rejo, Kec. Modayag, Kabupaten Bolaang Mongondow Timur, Sulawesi Utara 95781","Kec. Modayag, Kabupaten Bolaang Mongondow Timur",SULAWESI UTARA,95781.0,Indonesia,81242200419.0,,,0.7129318,124.3976285,https://maps.google.com/?cid=0x0:0xd98b89ab14204f2e,
cafe,Sarapan,Goba Molunow,"PCGV+MQR, Jl. Ratahan - Kotamobagu, Moat, Kec. Modayag, Kabupaten Bolaang Mongondow Timur, Sulawesi Utara","Kabupaten Bolaang Mongondow Timur, Sulawesi Utara",SULAWESI UTARA,,Indonesia,,,,0.7267383,124.4443802,https://maps.google.com/?cid=0x0:0x62b1ba2eb43dd5d0,
cafe,Kafe,Me  My Garden Cafe,"Jaga 8, Sinisir, Modoinding, Sinisir, Kec. Modoinding, Kabupaten Minahasa Selatan, Sulawesi Utara","Kabupaten Minahasa Selatan, Sulawesi Utara",SULAWESI UTARA,,Indonesia,8161106391.0,,,0.7858654,124.4557264,https://maps.google.com/?cid=0x0:0xaa319b071c5eb420,
cafe,Kedai Kopi,Kantin/parkiran Gampang ingat,"M9WV+QR9, Modayag III, Kec. Modayag, Kabupaten Bolaang Mongondow Timur, Sulawesi Utara","Kabupaten Bolaang Mongondow Timur, Sulawesi Utara",SULAWESI UTARA,,Indonesia,,,,0.6969133,124.3946247,https://maps.google.com/?cid=0x0:0x3dd09548572365f7,
cafe,Grosir Kopi,Mobalang Coffee Plantation,"J8XW+V3V, Bongkudai, Kec. Modayag Bar., Kabupaten Bolaang Mongondow Timur, Sulawesi Utara","Kabupaten Bolaang Mongondow Timur, Sulawesi Utara",SULAWESI UTARA,,Indonesia,,,,0.6497257,124.3451684,https://maps.google.com/?cid=0x0:0x3d14795fee101bb0,
cafe,Rumah Makan,Happiness Resto and Cafe,"PC65+X2G, Jl. Amurang - Kotamobagu, Purworejo Tim., Kec. Modayag, Kabupaten Bolaang Mongondow Timur, Sulawesi Utara","Kabupaten Bolaang Mongondow Timur, Sulawesi Utara",SULAWESI UTARA,,Indonesia,,,,0.7124337,124.4075764,https://maps.google.com/?cid=0x0:0xb1bdf21ad86cfa71,
cafe,Brunch,Kedai Manjah,"P98G+73F, Bongkudai, Kec. Modayag Bar., Kabupaten Bolaang Mongondow Timur, Sulawesi Utara","Kabupaten Bolaang Mongondow Timur, Sulawesi Utara",SULAWESI UTARA,,Indonesia,85240589444.0,,,0.7155665,124.3746036,https://maps.google.com/?cid=0x0:0x7006ff283fa8f3e5,
cafe,Kafe,BA SINGGA,"MF29+8RC, Unnamed Road, Lanut, Kec. Modayag, Kabupaten Bolaang Mongondow Timur, Sulawesi Utara","Kabupaten Bolaang Mongondow Timur, Sulawesi Utara",SULAWESI UTARA,,Indonesia,,,,0.6508125,124.4695164,https://maps.google.com/?cid=0x0:0xb185f8b14895775c,
cafe,cafe,Kec. Modayag Bar.,"Kabupaten Bolaang Mongondow Timur, Sulawesi Utara","Kabupaten Bolaang Mongondow Timur, Sulawesi Utara",SULAWESI UTARA,,Indonesia,,,,0.7152891,124.372507,https://maps.google.com/?cid=0x0:0xfd0e11adc540e358,
cafe,Brunch,Kedai Bestie,"Bongkudai Bar., Kec. Modayag Bar., Kabupaten Bolaang Mongondow Timur, Sulawesi Utara","Kabupaten Bolaang Mongondow Timur, Sulawesi Utara",SULAWESI UTARA,,Indonesia,,,,0.7165472,124.370042,https://maps.google.com/?cid=0x0:0xf7706e86fd01850e,
cafe,Kedai Kopi,Cafe Kopi Kobong,"Bangunan Wuwuk, Kec. Modayag Bar., Kabupaten Bolaang Mongondow Timur, Sulawesi Utara","Kabupaten Bolaang Mongondow Timur, Sulawesi Utara",SULAWESI UTARA,,Indonesia,85256711168.0,,,0.7223278,124.3644341,https://maps.google.com/?cid=0x0:0x239ab5ca2af88f7a,
cafe,Rumah Makan,RM. Kafa Aby Manyu,"P97V+7GQ, Jl. Amurang - Kotamobagu, Purworejo Tim., Kec. Modayag, Kabupaten Bolaang Mongondow Timur, Sulawesi Utara","Kabupaten Bolaang Mongondow Timur, Sulawesi Utara",SULAWESI UTARA,,Indonesia,,,,0.7132058,124.393867,https://maps.google.com/?cid=0x0:0x175753029561197b,
cafe,Restoran,Kampoeng Etan RestoCafe,"P9CW+VGF, Liberia Tim., Kec. Modayag, Kabupaten Bolaang Mongondow Timur, Sulawesi Utara","Kabupaten Bolaang Mongondow Timur, Sulawesi Utara",SULAWESI UTARA,,Indonesia,,,,0.7221891,124.3962913,https://maps.google.com/?cid=0x0:0xa0e9eb2af3edcb87,
cafe,Brunch,Pondok D'Sawa,"P977+54P, Jalan Baru, Bongkudai Bar., Kec. Modayag Bar., Kabupaten Bolaang Mongondow Timur, Sulawesi Utara","Kabupaten Bolaang Mongondow Timur, Sulawesi Utara",SULAWESI UTARA,,Indonesia,,,,0.7129575,124.3628328,https://maps.google.com/?cid=0x0:0x88cd0cd391bebe72,
cafe,Grosir Kopi,Mobalang Coffee Plantation,"J8XW+V3V, Bongkudai, Kec. Modayag Bar., Kabupaten Bolaang Mongondow Timur, Sulawesi Utara","Kabupaten Bolaang Mongondow Timur, Sulawesi Utara",SULAWESI UTARA,,Indonesia,,,,0.6497257,124.3451684,https://maps.google.com/?cid=0x0:0x3d14795fee101bb0,
cafe,Kedai Kopi,emperan11,"Sumber Rejo, Kec. Modayag, Kabupaten Bolaang Mongondow Timur, Sulawesi Utara 95781","Kec. Modayag, Kabupaten Bolaang Mongondow Timur",SULAWESI UTARA,95781.0,Indonesia,81242200419.0,,,0.7129318,124.3976285,https://maps.google.com/?cid=0x0:0xd98b89ab14204f2e,
cafe,Brunch,Kedai Manjah,"P98G+73F, Bongkudai, Kec. Modayag Bar., Kabupaten Bolaang Mongondow Timur, Sulawesi Utara","Kabupaten Bolaang Mongondow Timur, Sulawesi Utara",SULAWESI UTARA,,Indonesia,85240589444.0,,,0.7155665,124.3746036,https://maps.google.com/?cid=0x0:0x7006ff283fa8f3e5,
cafe,Rumah Makan,KANTIN MA' VIKAR,"P96M+FJ8, Unnamed Road, Modayag, Kec. Modayag, Kabupaten Bolaang Mongondow Timur, Sulawesi Utara","Kabupaten Bolaang Mongondow Timur, Sulawesi Utara",SULAWESI UTARA,,Indonesia,85342315522.0,,,0.7111524,124.3840916,https://maps.google.com/?cid=0x0:0x3397015dec67cba9,
cafe,Kedai Kopi,Angkringan Tugu batas kota,"Moyongkota Baru, Kec. Modayag Bar., Kabupaten Bolaang Mongondow Timur, Sulawesi Utara","Kabupaten Bolaang Mongondow Timur, Sulawesi Utara",SULAWESI UTARA,,Indonesia,82194426337.0,,,0.7331008,124.349752,https://maps.google.com/?cid=0x0:0x9c1576877c121826,
cafe,Brunch,Kedai Kanjeng Mami Modayag,"Jl. Ratahan - Kotamobagu, Modayag, Kec. Modayag, Kabupaten Bolaang Mongondow Timur, Sulawesi Utara","Kabupaten Bolaang Mongondow Timur, Sulawesi Utara",SULAWESI UTARA,,Indonesia,,,,0.7097959,124.3842176,https://maps.google.com/?cid=0x0:0xa960d133362fe886,
cafe,Sarapan,Musli,"P9J4+CQP, Moyongkota, Kec. Modayag Bar., Kabupaten Bolaang Mongondow Timur, Sulawesi Utara","Kabupaten Bolaang Mongondow Timur, Sulawesi Utara",SULAWESI UTARA,,Indonesia,82224007977.0,,,0.7310794,124.3569585,https://maps.google.com/?cid=0x0:0x198159ec986db5ca,
cafe,cafe,RM bibi ISSYE,"PC76+4M2, Purworejo Tim., Kec. Modayag, Kabupaten Bolaang Mongondow Timur, Sulawesi Utara","Kabupaten Bolaang Mongondow Timur, Sulawesi Utara",SULAWESI UTARA,,Indonesia,,,,0.7127549,124.4116537,https://maps.google.com/?cid=0x0:0xeb499966d667ea8f,
cafe,Kedai Kopi,Kantin/parkiran Gampang ingat,"M9WV+QR9, Modayag III, Kec. Modayag, Kabupaten Bolaang Mongondow Timur, Sulawesi Utara","Kabupaten Bolaang Mongondow Timur, Sulawesi Utara",SULAWESI UTARA,,Indonesia,,,,0.6969133,124.3946247,https://maps.google.com/?cid=0x0:0x3dd09548572365f7,
cafe,Rumah Makan,Rumah Makan MAS Erik (Purworejo. Modayag Boltim),"P97V+5Q7, Jl. Amurang - Kotamobagu, Purworejo Tim., Kec. Modayag, Kabupaten Bolaang Mongondow Timur, Sulawesi Utara","Kabupaten Bolaang Mongondow Timur, Sulawesi Utara",SULAWESI UTARA,,Indonesia,,,,0.7129238,124.3944217,https://maps.google.com/?cid=0x0:0xe7071eec10dfe8e7,
cafe,Grosir Kopi,DL Robusta Coffee,"P99V+RFF, Liberia Tim., Kec. Modayag, Kabupaten Bolaang Mongondow Timur, Sulawesi Utara","Kabupaten Bolaang Mongondow Timur, Sulawesi Utara",SULAWESI UTARA,,Indonesia,85757330167.0,,,0.7195732,124.3936675,https://maps.google.com/?cid=0x0:0xbc51cea9f8ffa81,
cafe,Restoran,Kedai Albi n albi fried chicken,"P9FQ+37F, Liberia, Kec. Modayag, Kabupaten Bolaang Mongondow Timur, Sulawesi Utara","Kabupaten Bolaang Mongondow Timur, Sulawesi Utara",SULAWESI UTARA,,Indonesia,85256620477.0,,,0.7226979,124.3881711,https://maps.google.com/?cid=0x0:0xae6c97c3f5eaad4d,
cafe,Kedai Kopi,Sahaja Boba  Coffee,"P96M+9F6, Modayag, Kec. Modayag, Kabupaten Bolaang Mongondow Timur, Sulawesi Utara","Kabupaten Bolaang Mongondow Timur, Sulawesi Utara",SULAWESI UTARA,,Indonesia,8991658599.0,,,0.7109163,124.3836488,https://maps.google.com/?cid=0x0:0x91da0de1f341db17,
cafe,Minimarket,Izra Mini Cafe,"PC66+XW7, Purworejo Tim., Kec. Modayag, Kabupaten Bolaang Mongondow Timur, Sulawesi Utara","Kabupaten Bolaang Mongondow Timur, Sulawesi Utara",SULAWESI UTARA,,Indonesia,85656449905.0,,,0.7124199,124.4122984,https://maps.google.com/?cid=0x0:0x4242c162d14e432f,
cafe,Bakso,RM Puncak PW,"PC76+4CG, Purworejo Tim., Kec. Modayag, Kabupaten Bolaang Mongondow Timur, Sulawesi Utara","Kabupaten Bolaang Mongondow Timur, Sulawesi Utara",SULAWESI UTARA,,Indonesia,,,,0.7128068,124.4110676,https://maps.google.com/?cid=0x0:0xc31c0319ab7eeb4b,
cafe,cafe,Kantin nenek milda,"Bongkudai Bar., Kec. Modayag Bar., Kabupaten Bolaang Mongondow Timur, Sulawesi Utara 95781","Kec. Modayag Bar., Kabupaten Bolaang Mongondow Timur",SULAWESI UTARA,95781.0,Indonesia,,,,0.7159709,124.3708171,https://maps.google.com/?cid=0x0:0xf21be281aad19c0e,
cafe,Restoran,Kantin Naton BUMdes,"P9H4+3C5, Moyongkota, Kec. Modayag Bar., Kabupaten Bolaang Mongondow Timur, Sulawesi Utara","Kabupaten Bolaang Mongondow Timur, Sulawesi Utara",SULAWESI UTARA,,Indonesia,,,,0.7276258,124.3561039,https://maps.google.com/?cid=0x0:0xf86f37ceb8f160ef,
cafe,cafe,Sulawesi Utara 95775,"Modisi, Kec. Pinolosian Tim., Kabupaten Bolaang Mongondow Selatan, Sulawesi Utara","Kabupaten Bolaang Mongondow Selatan, Sulawesi Utara",SULAWESI UTARA,,Indonesia,,,,0.4528494,124.4356892,https://maps.google.com/?cid=0x0:0x5956b774c20081f1,
cafe,Indonesia,Cafe Naton,"QJPF+G9P, Jl. Trans Sulawesi Lkr. Sel., Kayumoyondi, Kec. Tutuyan, Kabupaten Bolaang Mongondow Timur, Sulawesi Utara","Kabupaten Bolaang Mongondow Timur, Sulawesi Utara",SULAWESI UTARA,,Indonesia,,,,0.7863427,124.6234479,https://maps.google.com/?cid=0x0:0xcdba696a63a471ff,
cafe,Rumah Makan,Bukit Unang,"HG89+R99, Jl. Trans Sulawesi Nuangan-Modisi, Loyow, Kec. Nuangan, Kabupaten Bolaang Mongondow Timur, Sulawesi Utara","Kabupaten Bolaang Mongondow Timur, Sulawesi Utara",SULAWESI UTARA,,Indonesia,,,,0.5670396,124.5184901,https://maps.google.com/?cid=0x0:0x93b0bb33bbc1c2a2,
cafe,Restoran,Cafe GUSNAR,"3, Tombolango, Kec. Sangkub, Kabupaten Bolaang Mongondow Utara, Sulawesi Utara","Kabupaten Bolaang Mongondow Utara, Sulawesi Utara",SULAWESI UTARA,,Indonesia,811431668.0,,,0.8794541,123.6201029,https://maps.google.com/?cid=0x0:0x37c18b5138fe5547,
cafe,Kedai Kopi,New Kedai Naton,"VX9X+Q99, Mongkoinit, Kec. Lolak, Kabupaten Bolaang Mongondow, Sulawesi Utara","Kabupaten Bolaang Mongondow, Sulawesi Utara",SULAWESI UTARA,,Indonesia,81356268476.0,,,0.8694056,123.9984925,https://maps.google.com/?cid=0x0:0xd05b995ec9ff8b05,
cafe,Es Krim,Kafee basantai,"HGXR+7C9, Nuangan, Kec. Nuangan, Kabupaten Bolaang Mongondow Timur, Sulawesi Utara","Kabupaten Bolaang Mongondow Timur, Sulawesi Utara",SULAWESI UTARA,,Indonesia,,,,0.598157,124.5411,https://maps.google.com/?cid=0x0:0x1e61831206b39297,
cafe,Kedai Kopi,mangga batata pisang kopi squad,"JGP3+W73, Bai, Kec. Nuangan, Kabupaten Bolaang Mongondow Timur, Sulawesi Utara","Kabupaten Bolaang Mongondow Timur, Sulawesi Utara",SULAWESI UTARA,,Indonesia,85242932112.0,,,0.6372733,124.5031798,https://maps.google.com/?cid=0x0:0x52b5315f04bdfb7d,
cafe,Kedai Kopi,Kedai cofee NurulHuda,"8HFG+473, Momalia I, Kec. Posigadan, Kabupaten Bolaang Mongondow Selatan, Sulawesi Utara","Kabupaten Bolaang Mongondow Selatan, Sulawesi Utara",SULAWESI UTARA,,Indonesia,82271541931.0,,,0.3226441,123.5757672,https://maps.google.com/?cid=0x0:0xe20641d73817eec5,
cafe,Dapur Umum,Sulawesi utara,"J7W9+4W, Tungoi II, Kec. Lolayan, Kabupaten Bolaang Mongondow, Sulawesi Utara","Kabupaten Bolaang Mongondow, Sulawesi Utara",SULAWESI UTARA,,Indonesia,,,,0.6452642,124.2700833,https://maps.google.com/?cid=0x0:0x444a214a2d9ef51c,
cafe,Kedai Kopi,Jikssss,"JFPX+MH, Bai, Kec. Nuangan, Kabupaten Bolaang Mongondow Timur, Sulawesi Utara","Kabupaten Bolaang Mongondow Timur, Sulawesi Utara",SULAWESI UTARA,,Indonesia,,,,0.6366714,124.4990147,https://maps.google.com/?cid=0x0:0xbf9a2a790fa9c8,
cafe,Kafe,Wakatta Cafe n Resto,"V9VV+P37, Jl. Trans-Sulawesi, Nunuka, Kec. Bolang Itang Tim., Kabupaten Bolaang Mongondow Utara, Sulawesi Utara","Kabupaten Bolaang Mongondow Utara, Sulawesi Utara",SULAWESI UTARA,,Indonesia,8114313666.0,,,0.8942903,123.3926695,https://maps.google.com/?cid=0x0:0x44a14d89eff414ab,
cafe,Bar,Kios Saguer Erens Kamuh,"MFWW+Q49, Moat, Kec. Nuangan, Kabupaten Bolaang Mongondow Timur, Sulawesi Utara","Kabupaten Bolaang Mongondow Timur, Sulawesi Utara",SULAWESI UTARA,,Indonesia,,,,0.6969203,124.4953722,https://maps.google.com/?cid=0x0:0xe23391bd697dd8e9,
cafe,Taman Komunitas,Tempat NONGKRONG,"W52H+JFJ, Dengi, Kec. Pinogaluman, Kabupaten Bolaang Mongondow Utara, Sulawesi Utara","Kabupaten Bolaang Mongondow Utara, Sulawesi Utara",SULAWESI UTARA,,Indonesia,,,,0.9015894,123.1786479,https://maps.google.com/?cid=0x0:0x49aa707bca3ffa63,
cafe,Kedai Kopi,Kantin/parkiran Gampang ingat,"M9WV+QR9, Modayag III, Kec. Modayag, Kabupaten Bolaang Mongondow Timur, Sulawesi Utara","Kabupaten Bolaang Mongondow Timur, Sulawesi Utara",SULAWESI UTARA,,Indonesia,,,,0.6969133,124.3946247,https://maps.google.com/?cid=0x0:0x3dd09548572365f7,
cafe,Grosir Kopi,Mobalang Coffee Plantation,"J8XW+V3V, Bongkudai, Kec. Modayag Bar., Kabupaten Bolaang Mongondow Timur, Sulawesi Utara","Kabupaten Bolaang Mongondow Timur, Sulawesi Utara",SULAWESI UTARA,,Indonesia,,,,0.6497257,124.3451684,https://maps.google.com/?cid=0x0:0x3d14795fee101bb0,
cafe,Kedai Kopi,Coffee Singga(solimandungan baru),"Jl. Inobonto - Kotamobagu, Solimandungan Dua, Kec. Bolaang, Kabupaten Bolaang Mongondow, Sulawesi Utara","Kabupaten Bolaang Mongondow, Sulawesi Utara",SULAWESI UTARA,,Indonesia,81354872008.0,,,0.8348998,124.1702531,https://maps.google.com/?cid=0x0:0x8f2e4ea3d91eea20,
cafe,Kafe,Kedai Kopi Basudarah,"MHJ7+5VV, Jl. Ratahan - Kotamobagu, Motongkad, Kec. Nuangan, Kabupaten Bolaang Mongondow Timur, Sulawesi Utara","Kabupaten Bolaang Mongondow Timur, Sulawesi Utara",SULAWESI UTARA,,Indonesia,85157116792.0,,,0.68049,124.5646821,https://maps.google.com/?cid=0x0:0x2d255300bb0b8589,
cafe,Toko Makanan,Perspektif Coffee,"Pinolosian, Kec. Pinolosian, Kabupaten Bolaang Mongondow Selatan, Sulawesi Utara 95775","Kec. Pinolosian, Kabupaten Bolaang Mongondow Selatan",SULAWESI UTARA,95775.0,Indonesia,82344100880.0,,,0.3968473,124.1143791,https://maps.google.com/?cid=0x0:0x63b4aee4e1c1dc8e,
cafe,Kafe,BA SINGGA,"MF29+8RC, Unnamed Road, Lanut, Kec. Modayag, Kabupaten Bolaang Mongondow Timur, Sulawesi Utara","Kabupaten Bolaang Mongondow Timur, Sulawesi Utara",SULAWESI UTARA,,Indonesia,,,,0.6508125,124.4695164,https://maps.google.com/?cid=0x0:0xb185f8b14895775c,
cafe,cafe,Kec. Tutuyan,"Kabupaten Bolaang Mongondow Timur, Sulawesi Utara","Kabupaten Bolaang Mongondow Timur, Sulawesi Utara",SULAWESI UTARA,,Indonesia,,,,0.7567721,124.6124872,https://maps.google.com/?cid=0x0:0x736818cdb777053,
cafe,Indonesia,Cafe Naton,"QJPF+G9P, Jl. Trans Sulawesi Lkr. Sel., Kayumoyondi, Kec. Tutuyan, Kabupaten Bolaang Mongondow Timur, Sulawesi Utara","Kabupaten Bolaang Mongondow Timur, Sulawesi Utara",SULAWESI UTARA,,Indonesia,,,,0.7863427,124.6234479,https://maps.google.com/?cid=0x0:0xcdba696a63a471ff,
cafe,Kafe,Republic Cafe and Eatery,"Jl. Ratahan - Kotamobagu, Tutuyan II, Kec. Tutuyan, Kabupaten Bolaang Mongondow Timur, Sulawesi Utara","Kabupaten Bolaang Mongondow Timur, Sulawesi Utara",SULAWESI UTARA,,Indonesia,82290052189.0,,,0.753626,124.611748,https://maps.google.com/?cid=0x0:0xbbc18af345d60179,
cafe,Kedai Kopi,Minorigin Coffee,"Depan Gereja Katolik, Jl. Trans lingkar selatan, Kayumoyondi, Kec. Tutuyan, Kabupaten Bolaang Mongondow Timur, Sulawesi Utara 95783","Jl. Trans lingkar selatan, Kayumoyondi, Kec. Tutuyan, Kabupaten Bolaang Mongondow Timur",SULAWESI UTARA,95783.0,Indonesia,82243905799.0,,,0.7847017,124.622578,https://maps.google.com/?cid=0x0:0xe51950d156e97e1f,
cafe,Kafe,D' Katu Kafe And Resto,"QJG9+PQV, Tombolikat Sel., Kec. Tutuyan, Kabupaten Bolaang Mongondow Timur, Sulawesi Utara","Kabupaten Bolaang Mongondow Timur, Sulawesi Utara",SULAWESI UTARA,,Indonesia,85298845894.0,,,0.7768604,124.6194356,https://maps.google.com/?cid=0x0:0xf25d2edbe0bddf13,
cafe,Kafe,Sarange Mimi Cafe,"Kayumoyondi, Kec. Tutuyan, Kabupaten Bolaang Mongondow Timur, Sulawesi Utara","Kabupaten Bolaang Mongondow Timur, Sulawesi Utara",SULAWESI UTARA,,Indonesia,,,,0.7841723,124.6223218,https://maps.google.com/?cid=0x0:0xb89a4e2d4d07236b,
cafe,,Sabuah Kopi Baret (SKB),"QJ39+FWJ, Unnamed Road, Tutuyan II, Kec. Tutuyan, Kabupaten Bolaang Mongondow Timur, Sulawesi Utara","Kabupaten Bolaang Mongondow Timur, Sulawesi Utara",SULAWESI UTARA,,Indonesia,,,,0.7537002,124.6197685,https://maps.google.com/?cid=0x0:0xbaa40ce2da76dc09,
cafe,cafe,Ethiopia coffee shop,"Dusun II, Tombolikat Sel., Kec. Tutuyan, Kabupaten Bolaang Mongondow Timur, Sulawesi Utara 95783","Tombolikat Sel., Kec. Tutuyan, Kabupaten Bolaang Mongondow Timur",SULAWESI UTARA,95783.0,Indonesia,82398443305.0,,,0.7744365,124.6201884,https://maps.google.com/?cid=0x0:0x8f31bd0bd181f1e6,
cafe,Kafe,R.M  Caffe (Aisyah),"QJ98+79P, Tutuyan III, Kec. Tutuyan, Kabupaten Bolaang Mongondow Timur, Sulawesi Utara","Kabupaten Bolaang Mongondow Timur, Sulawesi Utara",SULAWESI UTARA,,Indonesia,82191575559.0,,,0.7682221,124.615961,https://maps.google.com/?cid=0x0:0x9f71fe4abc65d38,
cafe,Rumah Makan,RM Uti,"QJ26+97P, Togid, Kec. Tutuyan, Kabupaten Bolaang Mongondow Timur, Sulawesi Utara","Kabupaten Bolaang Mongondow Timur, Sulawesi Utara",SULAWESI UTARA,,Indonesia,,,,0.7509533,124.6107077,https://maps.google.com/?cid=0x0:0xe3b7554400d175d0,
cafe,Rumah Makan,RM. Lamongan,"QJF9+778, Tombolikat Sel., Kec. Tutuyan, Kabupaten Bolaang Mongondow Timur, Sulawesi Utara","Kabupaten Bolaang Mongondow Timur, Sulawesi Utara",SULAWESI UTARA,,Indonesia,,,,0.7731576,124.6181991,https://maps.google.com/?cid=0x0:0x2e180f3b1bd121af,
cafe,Kafe,Zonateman Coffee,"QJWH+6VC, Paret, Kotabunan, Kabupaten Bolaang Mongondow Timur, Sulawesi Utara","Kabupaten Bolaang Mongondow Timur, Sulawesi Utara",SULAWESI UTARA,,Indonesia,82347428929.0,,,0.7955637,124.6296392,https://maps.google.com/?cid=0x0:0xef00a5036a8a5770,
cafe,Rumah Makan,RM MUSLIM AINI,"dua, Kompleks pasar, Kec. Tutuyan, Kabupaten Bolaang Mongondow Timur, Sulawesi Utara 95783","Kompleks pasar, Kec. Tutuyan, Kabupaten Bolaang Mongondow Timur",SULAWESI UTARA,95783.0,Indonesia,85256698889.0,,,0.764891,124.6148023,https://maps.google.com/?cid=0x0:0x106c4c00ce00606f,
cafe,Tujuan Wisata,Danau Togid,"PJF2+HG7, Unnamed Road, Togid, Tutuyan, East Bolaang Mongondow Regency, North Sulawesi","Kabupaten Bolaang Mongondow Timur, Sulawesi Utara",SULAWESI UTARA,,Indonesia,,,,0.7239234,124.6013006,https://maps.google.com/?cid=0x0:0x3823aa585f809833,
cafe,Restoran,RM. Naton,"QJ46+FXQ, Jl. Trans Sulawesi Lkr. Sel., Tutuyan II, Kec. Tutuyan, Kabupaten Bolaang Mongondow Timur, Sulawesi Utara","Kabupaten Bolaang Mongondow Timur, Sulawesi Utara",SULAWESI UTARA,,Indonesia,82194730898.0,,,0.7562041,124.6124799,https://maps.google.com/?cid=0x0:0xa058d16f7e46b05,
cafe,Bar,OASIS Cafe  Resto,"QJ3C+77R, Jl. Baret, Tutuyan II, Kec. Tutuyan, Kabupaten Bolaang Mongondow Timur, Sulawesi Utara","Kabupaten Bolaang Mongondow Timur, Sulawesi Utara",SULAWESI UTARA,,Indonesia,,,,0.7532436,124.6206429,https://maps.google.com/?cid=0x0:0xae26e663cf594113,
cafe,Restoran,RM. Athaya,"QJ88+VG7, Jl. Ratahan - Kotamobagu, Tutuyan III, Kec. Tutuyan, Kabupaten Bolaang Mongondow Timur, Sulawesi Utara","Kabupaten Bolaang Mongondow Timur, Sulawesi Utara",SULAWESI UTARA,,Indonesia,82296995006.0,,,0.767166,124.6163046,https://maps.google.com/?cid=0x0:0x50c22518402ff280,
cafe,Kafe,71.10 coffee,"Tombolikat selatan, dusun 3, lorong, somil, Kabupaten Bolaang Mongondow Timur, Sulawesi Utara 95783","dusun 3, lorong, somil, Kabupaten Bolaang Mongondow Timur",SULAWESI UTARA,95783.0,Indonesia,82188294473.0,,,0.7752185,124.6205517,https://maps.google.com/?cid=0x0:0xcfd662b6b4ac1f3d,
cafe,Brunch,KANTIN NUSINDA,"QJ56+RWF, Tutuyan, Kec. Tutuyan, Kabupaten Bolaang Mongondow Timur, Sulawesi Utara","Kabupaten Bolaang Mongondow Timur, Sulawesi Utara",SULAWESI UTARA,,Indonesia,,,,0.7595676,124.612295,https://maps.google.com/?cid=0x0:0x1da512fd07f5b7b4,
cafe,Rumah Makan,coto makassar boltim,"QJ88+WF6, Tutuyan III, Kec. Tutuyan, Kabupaten Bolaang Mongondow Timur, Sulawesi Utara","Kabupaten Bolaang Mongondow Timur, Sulawesi Utara",SULAWESI UTARA,,Indonesia,85215427880.0,,,0.7672782,124.6161371,https://maps.google.com/?cid=0x0:0x1326bcb58065e95,
cafe,Kafe,Syahdu Cafe,"QJRF+8X5, Jl. Ratahan - Kotamobagu, Kayumoyondi, Kec. Tutuyan, Kabupaten Bolaang Mongondow Timur, Sulawesi Utara","Kabupaten Bolaang Mongondow Timur, Sulawesi Utara",SULAWESI UTARA,,Indonesia,82343330348.0,,,0.7907733,124.6249874,https://maps.google.com/?cid=0x0:0xdf9663ed98192a31,
cafe,Toko bahan makanan,yunita mokodompit,"QJRF+8X5, Kayumoyondi, Kec. Tutuyan, Kabupaten Bolaang Mongondow Timur, Sulawesi Utara","Kabupaten Bolaang Mongondow Timur, Sulawesi Utara",SULAWESI UTARA,,Indonesia,85228132220.0,,,0.7907733,124.6249874,https://maps.google.com/?cid=0x0:0x5efe7fc5ea700147,
cafe,Kedai Kopi,Barcode 47 Cafe,"QJMC+QXQ, Kayumoyondi, Kec. Tutuyan, Kabupaten Bolaang Mongondow Timur, Sulawesi Utara","Kabupaten Bolaang Mongondow Timur, Sulawesi Utara",SULAWESI UTARA,,Indonesia,85298115430.0,,,0.784463,124.6224822,https://maps.google.com/?cid=0x0:0x4b7a0afb7dc05d30,
cafe,Kedai Kopi,manjacheesetea boltim,"QJ66+5VW, Jl. Ratahan - Kotamobagu, Tutuyan, Kec. Tutuyan, Kabupaten Bolaang Mongondow Timur, Sulawesi Utara","Kabupaten Bolaang Mongondow Timur, Sulawesi Utara",SULAWESI UTARA,,Indonesia,81242660627.0,,,0.7604957,124.61221,https://maps.google.com/?cid=0x0:0xae91b18ec7014c85,
