Category,Real Category,Business Name,Address,City,State,Postal Code,Country,Phone,Email,Website,Latitude,Longitude,Map Link,Details Link
building materials,building materials,Kotabunan,"Kabupaten Bolaang Mongondow Timur, Sulawesi Utara","Kabupaten Bolaang Mongondow Timur, Sulawesi Utara",SULAWESI UTARA,,Indonesia,,,,0.8554519,124.6192702,https://maps.google.com/?cid=0x0:0x94bb77bfbc3242eb,
building materials,Toko Bahan Bangunan,"Jual Loster, kerawangan  Profil Gypsum","VM2V+FFC, Buyat I, Kotabunan, Kabupaten Bolaang Mongondow Timur, Sulawesi Utara","Kabupaten Bolaang Mongondow Timur, Sulawesi Utara",SULAWESI UTARA,,Indonesia,85222109851.0,,,0.8521719,124.6935237,https://maps.google.com/?cid=0x0:0x2702b07890f7071a,
building materials,Toko,Toko Cinta Damai,"RM55+Q84, jln pelabuhan kotabunan induk, Kotabunan, Kabupaten Bolaang Mongondow Timur, Sulawesi Utara","Kabupaten Bolaang Mongondow Timur, Sulawesi Utara",SULAWESI UTARA,,Indonesia,81356442722.0,,,0.8093817,124.6583171,https://maps.google.com/?cid=0x0:0x57f75c5484638c2b,
building materials,Tambang,PT. MBSS Doup Site Gold Project Kotabunan Boltim,"RM73+6HJ, induk, Kotabunan, Kabupaten Bolaang Mongondow Timur, Sulawesi Utara","Kabupaten Bolaang Mongondow Timur, Sulawesi Utara",SULAWESI UTARA,,Indonesia,,,,0.8130948,124.6539016,https://maps.google.com/?cid=0x0:0x1eba9eebccb2929a,
building materials,Toko Bahan Bangunan,Toko Karya Kirana,"QJ57+F7P, Tutuyan, Kec. Tutuyan, Kabupaten Bolaang Mongondow Timur, Sulawesi Utara","Kabupaten Bolaang Mongondow Timur, Sulawesi Utara",SULAWESI UTARA,,Indonesia,82145762479.0,,,0.7587111,124.613194,https://maps.google.com/?cid=0x0:0xa30e520eb8260e41,
building materials,Produsen,PT Arafura Surya Alam (J Resources),"Kotabunan, Kabupaten Bolaang Mongondow Timur, Sulawesi Utara","Kabupaten Bolaang Mongondow Timur, Sulawesi Utara",SULAWESI UTARA,,Indonesia,,,,0.8129482,124.6527356,https://maps.google.com/?cid=0x0:0x41a0c6b76ba3e53b,
building materials,Toko Perlengkapan Rumah,TB. Favor Portalindo,"Jl. Ratahan - Kotamobagu, Tombolikat Sel., Kec. Tutuyan, Kabupaten Bolaang Mongondow Timur, Sulawesi Utara","Kabupaten Bolaang Mongondow Timur, Sulawesi Utara",SULAWESI UTARA,,Indonesia,8114340200.0,,,0.7729667,124.6182163,https://maps.google.com/?cid=0x0:0x569502223eea660f,
building materials,Area Mendaki,Mogoyungung,"VMC6+84, Buyat I, Kotabunan, Kabupaten Bolaang Mongondow Timur, Sulawesi Utara","Kabupaten Bolaang Mongondow Timur, Sulawesi Utara",SULAWESI UTARA,,Indonesia,,,,0.8708003,124.6602549,https://maps.google.com/?cid=0x0:0x3b162242a85b448a,
building materials,Kantor Perusahaan,PT. ASA - Landcomp Squad Office,"RM64+H9C, Kotabunan, Kabupaten Bolaang Mongondow Timur, Sulawesi Utara","Kabupaten Bolaang Mongondow Timur, Sulawesi Utara",SULAWESI UTARA,,Indonesia,,,,0.8112051,124.6558246,https://maps.google.com/?cid=0x0:0x35a1860ad091bcfb,
building materials,Toko Bahan Bangunan,Toko Sinar Jaya,"QJ46+2QV, Jl. Ratahan - Kotamobagu, Tutuyan II, Kec. Tutuyan, Kabupaten Bolaang Mongondow Timur, Sulawesi Utara","Kabupaten Bolaang Mongondow Timur, Sulawesi Utara",SULAWESI UTARA,,Indonesia,81384131224.0,,,0.7551095,124.6119365,https://maps.google.com/?cid=0x0:0x2c4bfbf4794c3b58,
building materials,Toko Perlengkapan Rumah,Toko Bangunan UD.Fadhil,"RM44+R47, Jl. Ratahan - Kotamobagu, Kotabunan, Kabupaten Bolaang Mongondow Timur, Sulawesi Utara","Kabupaten Bolaang Mongondow Timur, Sulawesi Utara",SULAWESI UTARA,,Indonesia,,,,0.8070264,124.6553068,https://maps.google.com/?cid=0x0:0x93a4f968aa67105,
building materials,building materials,Kec. Modayag,"Kabupaten Bolaang Mongondow Timur, Sulawesi Utara","Kabupaten Bolaang Mongondow Timur, Sulawesi Utara",SULAWESI UTARA,,Indonesia,,,,0.7084236,124.3864248,https://maps.google.com/?cid=0x0:0xc881d84722502f21,
building materials,Pasar bahan bangunan,toko bangunan usaha immanuel,"P96P+4F7, Modayag, Kec. Modayag, Kabupaten Bolaang Mongondow Timur, Sulawesi Utara","Kabupaten Bolaang Mongondow Timur, Sulawesi Utara",SULAWESI UTARA,,Indonesia,85756658246.0,,,0.7103444,124.3862345,https://maps.google.com/?cid=0x0:0xb9e2ffd8f4205bc1,
building materials,Toko Bahan Bangunan,Toko Usaha Bangunan,"Jalan Raya, Liberia, Kec. Modayag, Kabupaten Bolaang Mongondow Timur, Sulawesi Utara 95781","Liberia, Kec. Modayag, Kabupaten Bolaang Mongondow Timur",SULAWESI UTARA,95781.0,Indonesia,,,,0.7139293,124.3841074,https://maps.google.com/?cid=0x0:0x92166ed9588551f,
building materials,Toko Bahan Bangunan,Toko Gemilang Jaya,"Jl trans sulawesi, Purworejo, Kec. Modayag, Kabupaten Bolaang Mongondow Timur, Sulawesi Utara 95781","Purworejo, Kec. Modayag, Kabupaten Bolaang Mongondow Timur",SULAWESI UTARA,95781.0,Indonesia,82193058705.0,,,0.7097942,124.3884208,https://maps.google.com/?cid=0x0:0xdb82e58ec946f9d6,
building materials,Pasar bahan bangunan,Toko DWIJAYA,"P97V+6WF, Purworejo Tim., Kec. Modayag, Kabupaten Bolaang Mongondow Timur, Sulawesi Utara","Kabupaten Bolaang Mongondow Timur, Sulawesi Utara",SULAWESI UTARA,,Indonesia,8134030.0,,,0.7130515,124.3947931,https://maps.google.com/?cid=0x0:0x20195072a7ddd186,
building materials,Toko Bahan Bangunan,Toko Bangunan Mangimbali,"P9C7+94X, Jl. Ratahan - Kotamobagu, Bangunan Wuwuk, Kec. Modayag Bar., Kabupaten Bolaang Mongondow Timur, Sulawesi Utara","Kabupaten Bolaang Mongondow Timur, Sulawesi Utara",SULAWESI UTARA,,Indonesia,,,,0.720995,124.3628459,https://maps.google.com/?cid=0x0:0x5ebff676b0e909a2,
building materials,Rumah Kayu,Kios mooat,"Moat, Kec. Modayag, Kabupaten Bolaang Mongondow Timur, Sulawesi Utara","Kabupaten Bolaang Mongondow Timur, Sulawesi Utara",SULAWESI UTARA,,Indonesia,,,,0.7503553,124.449272,https://maps.google.com/?cid=0x0:0x73c2d444dd3ef97c,
building materials,Tambang,GOROPAY INDAH,"Moyag Tampoan, Kec. Kotamobagu Tim., Kota Kotamobagu, Sulawesi Utara","Kota Kotamobagu, Sulawesi Utara",SULAWESI UTARA,,Indonesia,4342602468.0,,,0.7364542,124.3363631,https://maps.google.com/?cid=0x0:0x434d3a8e50a84d2d,
building materials,Toko Bahan Bangunan,Tk Putra Bulu Kumba,"P8MX+C88, Moyag Todulan, Kec. Kotamobagu Tim., Kota Kotamobagu, Sulawesi Utara","Kota Kotamobagu, Sulawesi Utara",SULAWESI UTARA,,Indonesia,,,,0.7335252,124.3483141,https://maps.google.com/?cid=0x0:0x5c5c2593a0b08c17,
building materials,Toko Bahan Bangunan,UD. BERKAT AULIA,"HGXC+2HW, Nuangan, Kec. Nuangan, Kabupaten Bolaang Mongondow Timur, Sulawesi Utara","Kabupaten Bolaang Mongondow Timur, Sulawesi Utara",SULAWESI UTARA,,Indonesia,,,,0.5976638,124.5214335,https://maps.google.com/?cid=0x0:0x25eb5a8ab06c9cc6,
building materials,Toko Bahan Bangunan,Toko Bangunan,"Moyag Todulan, Kec. Kotamobagu Tim., Kota Kotamobagu, Sulawesi Utara","Kota Kotamobagu, Sulawesi Utara",SULAWESI UTARA,,Indonesia,,,,0.733521,124.3492363,https://maps.google.com/?cid=0x0:0x382e81a3f51f8fa7,
building materials,Toko Perlengkapan Rumah,Toko Maju Berkah,"HGXC+M69, Nuangan I, Kec. Nuangan, Kabupaten Bolaang Mongondow Timur, Sulawesi Utara 95786","Nuangan I, Kec. Nuangan, Kabupaten Bolaang Mongondow Timur",SULAWESI UTARA,95786.0,Indonesia,,,,0.59869,124.520892,https://maps.google.com/?cid=0x0:0x26b2b5dff4df3781,
building materials,Komplek perumahan,Cv. Sivel,"QCXX+MWM, Pinasungkulan, Kec. Modoinding, Kabupaten Minahasa Selatan, Sulawesi Utara","Kabupaten Minahasa Selatan, Sulawesi Utara",SULAWESI UTARA,,Indonesia,,,,0.7992127,124.449789,https://maps.google.com/?cid=0x0:0xd91f6416e81414c8,
building materials,Toko Perlengkapan Rumah,TOKO MITRA MANDIRI MOTONGKAD,"MHG7+VJ8, Motongkad, Kec. Nuangan, Kabupaten Bolaang Mongondow Timur, Sulawesi Utara","Kabupaten Bolaang Mongondow Timur, Sulawesi Utara",SULAWESI UTARA,,Indonesia,,,,0.6771672,124.5640689,https://maps.google.com/?cid=0x0:0x920e5d29c677403,
building materials,building materials,Kec. Modayag Bar.,"Kabupaten Bolaang Mongondow Timur, Sulawesi Utara","Kabupaten Bolaang Mongondow Timur, Sulawesi Utara",SULAWESI UTARA,,Indonesia,,,,0.7152891,124.372507,https://maps.google.com/?cid=0x0:0xfd0e11adc540e358,
building materials,Toko Bahan Bangunan,Toko Usaha Bangunan,"Jalan Raya, Liberia, Kec. Modayag, Kabupaten Bolaang Mongondow Timur, Sulawesi Utara 95781","Liberia, Kec. Modayag, Kabupaten Bolaang Mongondow Timur",SULAWESI UTARA,95781.0,Indonesia,,,,0.7139293,124.3841074,https://maps.google.com/?cid=0x0:0x92166ed9588551f,
building materials,Pasar bahan bangunan,toko bangunan usaha immanuel,"P96P+4F7, Modayag, Kec. Modayag, Kabupaten Bolaang Mongondow Timur, Sulawesi Utara","Kabupaten Bolaang Mongondow Timur, Sulawesi Utara",SULAWESI UTARA,,Indonesia,85756658246.0,,,0.7103444,124.3862345,https://maps.google.com/?cid=0x0:0xb9e2ffd8f4205bc1,
building materials,building materials,"CV.SUKSES PERTAMA JAYA ,TOKO BANGUNAN TERLENGKAP","P95Q+W9C, Jl trans sulawesi, Purworejo, Kec. Modayag, Kabupaten Bolaang Mongondow Timur, Sulawesi Utara 95781","Jl trans sulawesi, Purworejo, Kec. Modayag, Kabupaten Bolaang Mongondow Timur",SULAWESI UTARA,95781.0,Indonesia,8124273117.0,,,0.7098048,124.3884055,https://maps.google.com/?cid=0x0:0x6e30162c3dc92b98,
building materials,Pasar bahan bangunan,Toko DWIJAYA,"P97V+6WF, Purworejo Tim., Kec. Modayag, Kabupaten Bolaang Mongondow Timur, Sulawesi Utara","Kabupaten Bolaang Mongondow Timur, Sulawesi Utara",SULAWESI UTARA,,Indonesia,8134030.0,,,0.7130515,124.3947931,https://maps.google.com/?cid=0x0:0x20195072a7ddd186,
building materials,Toko Bahan Bangunan,Toko Bangunan Mangimbali,"P9C7+94X, Jl. Ratahan - Kotamobagu, Bangunan Wuwuk, Kec. Modayag Bar., Kabupaten Bolaang Mongondow Timur, Sulawesi Utara","Kabupaten Bolaang Mongondow Timur, Sulawesi Utara",SULAWESI UTARA,,Indonesia,,,,0.720995,124.3628459,https://maps.google.com/?cid=0x0:0x5ebff676b0e909a2,
building materials,Tambang,GOROPAY INDAH,"Moyag Tampoan, Kec. Kotamobagu Tim., Kota Kotamobagu, Sulawesi Utara","Kota Kotamobagu, Sulawesi Utara",SULAWESI UTARA,,Indonesia,4342602468.0,,,0.7364542,124.3363631,https://maps.google.com/?cid=0x0:0x434d3a8e50a84d2d,
building materials,Toko Bahan Bangunan,Tk Putra Bulu Kumba,"P8MX+C88, Moyag Todulan, Kec. Kotamobagu Tim., Kota Kotamobagu, Sulawesi Utara","Kota Kotamobagu, Sulawesi Utara",SULAWESI UTARA,,Indonesia,,,,0.7335252,124.3483141,https://maps.google.com/?cid=0x0:0x5c5c2593a0b08c17,
building materials,Toko Bahan Bangunan,Toko Bangunan,"Moyag Todulan, Kec. Kotamobagu Tim., Kota Kotamobagu, Sulawesi Utara","Kota Kotamobagu, Sulawesi Utara",SULAWESI UTARA,,Indonesia,,,,0.733521,124.3492363,https://maps.google.com/?cid=0x0:0x382e81a3f51f8fa7,
building materials,Toko Bahan Bangunan,UD. Generasi Membangun,"P7JV+FXQ, JL Aipda KS Tubun, Molinow, Manado, Kota Kotamobagu, Sulawesi Utara 95718","JL Aipda KS Tubun, Molinow, Manado, Kota Kotamobagu",SULAWESI UTARA,95718.0,Indonesia,4342628600.0,,,0.731222,124.29498,https://maps.google.com/?cid=0x0:0x4acaca47cd2f24dc,
building materials,building materials,Sulawesi Utara 95775,"Modisi, Kec. Pinolosian Tim., Kabupaten Bolaang Mongondow Selatan, Sulawesi Utara","Kabupaten Bolaang Mongondow Selatan, Sulawesi Utara",SULAWESI UTARA,,Indonesia,,,,0.4528494,124.4356892,https://maps.google.com/?cid=0x0:0x5956b774c20081f1,
building materials,Toko Bahan Bangunan,Buana Lestari,"HGQH+XWP, Desa Nuangan, Kotabunan, Iyok, Kec. Nuangan, Bolaang Mongondow, Sulawesi Utara","Bolaang Mongondow, Sulawesi Utara",SULAWESI UTARA,,Indonesia,81340005233.0,,,0.5899571,124.5298351,https://maps.google.com/?cid=0x0:0x8cd621ecdc470271,
building materials,Pasar bahan bangunan,toko bangunan usaha immanuel,"P96P+4F7, Modayag, Kec. Modayag, Kabupaten Bolaang Mongondow Timur, Sulawesi Utara","Kabupaten Bolaang Mongondow Timur, Sulawesi Utara",SULAWESI UTARA,,Indonesia,85756658246.0,,,0.7103444,124.3862345,https://maps.google.com/?cid=0x0:0xb9e2ffd8f4205bc1,
building materials,Toko Bahan Bangunan,Toko bahan bangunan,"MHG7+VJQ, Jl. Ratahan - Kotamobagu, Motongkad, Kec. Nuangan, Kabupaten Bolaang Mongondow Timur, Sulawesi Utara","Kabupaten Bolaang Mongondow Timur, Sulawesi Utara",SULAWESI UTARA,,Indonesia,,,,0.6772249,124.5640951,https://maps.google.com/?cid=0x0:0x3e712dc6efe5c308,
building materials,Toko Bahan Bangunan,Toko Bangunan Dipta,"W55R+77X, Jl. Trans-Sulawesi, Tuntung Tim., Kec. Pinogaluman, Kabupaten Bolaang Mongondow Utara, Sulawesi Utara","Kabupaten Bolaang Mongondow Utara, Sulawesi Utara",SULAWESI UTARA,,Indonesia,,,,0.9082313,123.1907257,https://maps.google.com/?cid=0x0:0x8804fc0c16f5667c,
building materials,Toko,"Toko Material, Pasir, Batu, Kerikil, Teras, Fullbrick, Batu Bata","CRHQ+6CC, Pineleng I, Kec. Pineleng, Kabupaten Minahasa, Sulawesi Utara","Kabupaten Minahasa, Sulawesi Utara",SULAWESI UTARA,,Indonesia,81342993174.0,,,1.428055,124.8385021,https://maps.google.com/?cid=0x0:0x6254618d7117c868,
building materials,Toko Bahan Bangunan,UD. Generasi Membangun,"P7JV+FXQ, JL Aipda KS Tubun, Molinow, Manado, Kota Kotamobagu, Sulawesi Utara 95718","JL Aipda KS Tubun, Molinow, Manado, Kota Kotamobagu",SULAWESI UTARA,95718.0,Indonesia,4342628600.0,,,0.731222,124.29498,https://maps.google.com/?cid=0x0:0x4acaca47cd2f24dc,
building materials,Toko,Toko Aneka Bangunan,"Mogolaing, Kec. Kotamobagu Bar., Kota Kotamobagu, Sulawesi Utara","Kota Kotamobagu, Sulawesi Utara",SULAWESI UTARA,,Indonesia,,,,0.7373772,124.3077789,https://maps.google.com/?cid=0x0:0x684ed995013a6c52,
building materials,Toko Bahan Bangunan,Toko ARNED,"Depan masjid Al-Ikhwan, Bigo, Kec. Kaidipang, Kabupaten Bolaang Mongondow Utara, Sulawesi Utara 95765","Bigo, Kec. Kaidipang, Kabupaten Bolaang Mongondow Utara",SULAWESI UTARA,95765.0,Indonesia,81245024301.0,,,0.9024573,123.2662362,https://maps.google.com/?cid=0x0:0xe47eb7492bdb2b2b,
building materials,Toko Bahan Bangunan,UD.SINAR NAJWA,"Jalan Trans Sulawesi Manado Gorontalo.36, Keakar, Dusun 1, Boroko, Kec. Kaidipang, Kabupaten Bolaang Mongondow Utara, Sulawesi Utara","Kabupaten Bolaang Mongondow Utara, Sulawesi Utara",SULAWESI UTARA,,Indonesia,82191655859.0,,,0.9052344,123.2556191,https://maps.google.com/?cid=0x0:0x1b430d379f12d434,
building materials,Toko Bahan Bangunan,Toko Usaha Baru Imandi,"H33X+623, Imandi, Kec. Dumoga Tim., Kabupaten Bolaang Mongondow, Sulawesi Utara","Kabupaten Bolaang Mongondow, Sulawesi Utara",SULAWESI UTARA,,Indonesia,,,,0.5530172,124.097547,https://maps.google.com/?cid=0x0:0xfdb117f1ff8b1ac3,
building materials,Toko Perlengkapan Rumah,Toko Maju Berkah,"HGXC+M69, Nuangan I, Kec. Nuangan, Kabupaten Bolaang Mongondow Timur, Sulawesi Utara 95786","Nuangan I, Kec. Nuangan, Kabupaten Bolaang Mongondow Timur",SULAWESI UTARA,95786.0,Indonesia,,,,0.59869,124.520892,https://maps.google.com/?cid=0x0:0x26b2b5dff4df3781,
building materials,Toko Bahan Bangunan,UD. BERKAT AULIA,"HGXC+2HW, Nuangan, Kec. Nuangan, Kabupaten Bolaang Mongondow Timur, Sulawesi Utara","Kabupaten Bolaang Mongondow Timur, Sulawesi Utara",SULAWESI UTARA,,Indonesia,,,,0.5976638,124.5214335,https://maps.google.com/?cid=0x0:0x25eb5a8ab06c9cc6,
building materials,building materials,Kec. Tutuyan,"Kabupaten Bolaang Mongondow Timur, Sulawesi Utara","Kabupaten Bolaang Mongondow Timur, Sulawesi Utara",SULAWESI UTARA,,Indonesia,,,,0.7567721,124.6124872,https://maps.google.com/?cid=0x0:0x736818cdb777053,
building materials,Toko Bahan Bangunan,Toko Karya Kirana,"QJ57+F7P, Tutuyan, Kec. Tutuyan, Kabupaten Bolaang Mongondow Timur, Sulawesi Utara","Kabupaten Bolaang Mongondow Timur, Sulawesi Utara",SULAWESI UTARA,,Indonesia,82145762479.0,,,0.7587111,124.613194,https://maps.google.com/?cid=0x0:0xa30e520eb8260e41,
building materials,Toko Bahan Bangunan,Toko Sinar Jaya,"QJ46+2QV, Jl. Ratahan - Kotamobagu, Tutuyan II, Kec. Tutuyan, Kabupaten Bolaang Mongondow Timur, Sulawesi Utara","Kabupaten Bolaang Mongondow Timur, Sulawesi Utara",SULAWESI UTARA,,Indonesia,81384131224.0,,,0.7551095,124.6119365,https://maps.google.com/?cid=0x0:0x2c4bfbf4794c3b58,
building materials,Pasar bahan bangunan,toko bangunan usaha immanuel,"P96P+4F7, Modayag, Kec. Modayag, Kabupaten Bolaang Mongondow Timur, Sulawesi Utara","Kabupaten Bolaang Mongondow Timur, Sulawesi Utara",SULAWESI UTARA,,Indonesia,85756658246.0,,,0.7103444,124.3862345,https://maps.google.com/?cid=0x0:0xb9e2ffd8f4205bc1,
building materials,Tukang Kebun,Pondot,"PHP7+45, Dodap, Kec. Tutuyan, Kabupaten Bolaang Mongondow Timur, Sulawesi Utara","Kabupaten Bolaang Mongondow Timur, Sulawesi Utara",SULAWESI UTARA,,Indonesia,,,,0.735334,124.56291,https://maps.google.com/?cid=0x0:0x4f0ca3b0914c1f4,
building materials,Toko Bahan Bangunan,Toko Bangunan Dipta,"W55R+77X, Jl. Trans-Sulawesi, Tuntung Tim., Kec. Pinogaluman, Kabupaten Bolaang Mongondow Utara, Sulawesi Utara","Kabupaten Bolaang Mongondow Utara, Sulawesi Utara",SULAWESI UTARA,,Indonesia,,,,0.9082313,123.1907257,https://maps.google.com/?cid=0x0:0x8804fc0c16f5667c,
building materials,Toko Perlengkapan Rumah,Jual Batako,"RMV9+7J3, Buyat, Kec. Ratatotok, Kabupaten Bolaang Mongondow Timur, Sulawesi Utara","Kabupaten Bolaang Mongondow Timur, Sulawesi Utara",SULAWESI UTARA,,Indonesia,,,,0.8431296,124.6690605,https://maps.google.com/?cid=0x0:0x7fff91aa0813874c,
building materials,Toko Perlengkapan Rumah,TOKO MITRA MANDIRI MOTONGKAD,"MHG7+VJ8, Motongkad, Kec. Nuangan, Kabupaten Bolaang Mongondow Timur, Sulawesi Utara","Kabupaten Bolaang Mongondow Timur, Sulawesi Utara",SULAWESI UTARA,,Indonesia,,,,0.6771672,124.5640689,https://maps.google.com/?cid=0x0:0x920e5d29c677403,
building materials,Toko Perlengkapan Atap,UD. USAHA MANDIRI,"M7FF+VJG, Tungoi I, Kec. Lolayan, Kabupaten Bolaang Mongondow, Sulawesi Utara","Kabupaten Bolaang Mongondow, Sulawesi Utara",SULAWESI UTARA,,Indonesia,,,,0.6746909,124.2740802,https://maps.google.com/?cid=0x0:0x4501afa963f70359,
building materials,Kantor Pemerintah,Kantor Camat Tutuyan,"QJ57+QMR, Tutuyan, Kec. Tutuyan, Kabupaten Bolaang Mongondow Timur, Sulawesi Utara","Kabupaten Bolaang Mongondow Timur, Sulawesi Utara",SULAWESI UTARA,,Indonesia,,,,0.7594996,124.6141273,https://maps.google.com/?cid=0x0:0x183cfffcd9582965,
building materials,Toko,Toko Cinta Damai,"RM55+Q84, jln pelabuhan kotabunan induk, Kotabunan, Kabupaten Bolaang Mongondow Timur, Sulawesi Utara","Kabupaten Bolaang Mongondow Timur, Sulawesi Utara",SULAWESI UTARA,,Indonesia,81356442722.0,,,0.8093817,124.6583171,https://maps.google.com/?cid=0x0:0x57f75c5484638c2b,
building materials,Rumah Kayu,Kios mooat,"Moat, Kec. Modayag, Kabupaten Bolaang Mongondow Timur, Sulawesi Utara","Kabupaten Bolaang Mongondow Timur, Sulawesi Utara",SULAWESI UTARA,,Indonesia,,,,0.7503553,124.449272,https://maps.google.com/?cid=0x0:0x73c2d444dd3ef97c,
toko bangunan,toko bangunan,Kotabunan,"Kabupaten Bolaang Mongondow Timur, Sulawesi Utara","Kabupaten Bolaang Mongondow Timur, Sulawesi Utara",SULAWESI UTARA,,Indonesia,,,,0.8554519,124.6192702,https://maps.google.com/?cid=0x0:0x94bb77bfbc3242eb,
toko bangunan,Toko Perlengkapan Rumah,Toko Bangunan Tesalonika,"QJVH+MM6, Paret, Kotabunan, Kabupaten Bolaang Mongondow Timur, Sulawesi Utara","Kabupaten Bolaang Mongondow Timur, Sulawesi Utara",SULAWESI UTARA,,Indonesia,81218883767.0,,,0.7941531,124.629155,https://maps.google.com/?cid=0x0:0x9def8c78a1ebe897,
toko bangunan,Toko Perlengkapan Rumah,Toko Bangunan UD.Fadhil,"RM44+R47, Jl. Ratahan - Kotamobagu, Kotabunan, Kabupaten Bolaang Mongondow Timur, Sulawesi Utara","Kabupaten Bolaang Mongondow Timur, Sulawesi Utara",SULAWESI UTARA,,Indonesia,,,,0.8070264,124.6553068,https://maps.google.com/?cid=0x0:0x93a4f968aa67105,
toko bangunan,Toko Bahan Bangunan,Toko Bangunan Mangimbali,"P9C7+94X, Jl. Ratahan - Kotamobagu, Bangunan Wuwuk, Kec. Modayag Bar., Kabupaten Bolaang Mongondow Timur, Sulawesi Utara","Kabupaten Bolaang Mongondow Timur, Sulawesi Utara",SULAWESI UTARA,,Indonesia,,,,0.720995,124.3628459,https://maps.google.com/?cid=0x0:0x5ebff676b0e909a2,
toko bangunan,Gudang,Toko Bahan Bangunan BOROBUDUR,"Q853+V3G, Passi II, Kec. Passi Bar., Kabupaten Bolaang Mongondow, Sulawesi Utara","Kabupaten Bolaang Mongondow, Sulawesi Utara",SULAWESI UTARA,,Indonesia,,,,0.7596792,124.3027097,https://maps.google.com/?cid=0x0:0x5d850252030234be,
toko bangunan,Toko Bahan Bangunan,Toko bahan bangunan,"MHG7+VJQ, Jl. Ratahan - Kotamobagu, Motongkad, Kec. Nuangan, Kabupaten Bolaang Mongondow Timur, Sulawesi Utara","Kabupaten Bolaang Mongondow Timur, Sulawesi Utara",SULAWESI UTARA,,Indonesia,,,,0.6772249,124.5640951,https://maps.google.com/?cid=0x0:0x3e712dc6efe5c308,
toko bangunan,Toko Bahan Bangunan,Toko Central Bangunan,"Poyowa Besar I, Kec. Kotamobagu Sel., Kota Kotamobagu, Sulawesi Utara","Kota Kotamobagu, Sulawesi Utara",SULAWESI UTARA,,Indonesia,,,,0.7100001,124.3248028,https://maps.google.com/?cid=0x0:0x3cf85387e32cb5ea,
toko bangunan,Toko Bahan Bangunan,Toko Karya Kirana,"QJ57+F7P, Tutuyan, Kec. Tutuyan, Kabupaten Bolaang Mongondow Timur, Sulawesi Utara","Kabupaten Bolaang Mongondow Timur, Sulawesi Utara",SULAWESI UTARA,,Indonesia,82145762479.0,,,0.7587111,124.613194,https://maps.google.com/?cid=0x0:0xa30e520eb8260e41,
toko bangunan,Toko Bahan Bangunan,Toko.Multi Bangunan,"Kopandakan I, Kec. Kotamobagu Sel., Kota Kotamobagu, Sulawesi Utara","Kota Kotamobagu, Sulawesi Utara",SULAWESI UTARA,,Indonesia,,,,0.7060639,124.2842349,https://maps.google.com/?cid=0x0:0x906b99c88c2df6f6,
toko bangunan,Toko,Toko Cinta Damai,"RM55+Q84, jln pelabuhan kotabunan induk, Kotabunan, Kabupaten Bolaang Mongondow Timur, Sulawesi Utara","Kabupaten Bolaang Mongondow Timur, Sulawesi Utara",SULAWESI UTARA,,Indonesia,81356442722.0,,,0.8093817,124.6583171,https://maps.google.com/?cid=0x0:0x57f75c5484638c2b,
toko bangunan,Pasar bahan bangunan,toko bangunan usaha immanuel,"P96P+4F7, Modayag, Kec. Modayag, Kabupaten Bolaang Mongondow Timur, Sulawesi Utara","Kabupaten Bolaang Mongondow Timur, Sulawesi Utara",SULAWESI UTARA,,Indonesia,85756658246.0,,,0.7103444,124.3862345,https://maps.google.com/?cid=0x0:0xb9e2ffd8f4205bc1,
toko bangunan,Minimarket,Toko bangunan,"FC3P+2C6, Modisi, Kec. Pinolosian Tim., Kabupaten Bolaang Mongondow Selatan, Sulawesi Utara","Kabupaten Bolaang Mongondow Selatan, Sulawesi Utara",SULAWESI UTARA,,Indonesia,85658741232.0,,,0.4534033,124.4372044,https://maps.google.com/?cid=0x0:0x2f8d72c1be60ff49,
toko bangunan,Toko,Toko Aneka Bangunan,"Mogolaing, Kec. Kotamobagu Bar., Kota Kotamobagu, Sulawesi Utara","Kota Kotamobagu, Sulawesi Utara",SULAWESI UTARA,,Indonesia,,,,0.7373772,124.3077789,https://maps.google.com/?cid=0x0:0x684ed995013a6c52,
toko bangunan,Toko,Toko Bangunan BERKAT USAHA,"HXCM+XF5, Jl. Siswa, Mopuya Utara, Kec. Dumoga Utara, Kabupaten Bolaang Mongondow, Sulawesi Utara 95773","Jl. Siswa, Mopuya Utara, Kec. Dumoga Utara, Kabupaten Bolaang Mongondow",SULAWESI UTARA,95773.0,Indonesia,81242571251.0,,,0.5729163,123.9839941,https://maps.google.com/?cid=0x0:0xa2d5c51a7aabf88a,
toko bangunan,Toko Bahan Bangunan,Toko Ayu Motor  Bangunan,"RVQ9+5VG, Pantai, Babo, Moonow, Kabupaten Bolaang Mongondow, Sulawesi Utara","Kabupaten Bolaang Mongondow, Sulawesi Utara",SULAWESI UTARA,,Indonesia,85340056000.0,,,0.8379381,123.8697077,https://maps.google.com/?cid=0x0:0x93c2566a65951c4b,
toko bangunan,Toko,Toko Awan Bangunan,"Tanoyan Sel., Kec. Lolayan, Kabupaten Bolaang Mongondow, Sulawesi Utara","Kabupaten Bolaang Mongondow, Sulawesi Utara",SULAWESI UTARA,,Indonesia,85823966338.0,,,0.6048681,124.2745268,https://maps.google.com/?cid=0x0:0x7f4c65ea9b27dee4,
toko bangunan,Pemasok Bahan Bangunan,Toko Immanuel,"2PFX+6H9, Towuntu, Kec. Pasan, Kabupaten Minahasa Tenggara, Sulawesi Utara","Kabupaten Minahasa Tenggara, Sulawesi Utara",SULAWESI UTARA,,Indonesia,,,,1.0230472,124.7489763,https://maps.google.com/?cid=0x0:0x9e0cfb47d8a9b5fd,
toko bangunan,Toko Perlengkapan Rumah,Toko Bangunan Gampang Ingat,"Jl. Ahmad Yani No.34, Kotamobagu, Kec. Kotamobagu Bar., Kota Kotamobagu, Sulawesi Utara 95716","Kotamobagu, Kec. Kotamobagu Bar., Kota Kotamobagu",SULAWESI UTARA,95716.0,Indonesia,,,,0.7400726,124.3106451,https://maps.google.com/?cid=0x0:0x9fdb5bd8f705aecf,
toko bangunan,Toko Bahan Bangunan,TOKO SANDIK JAYA BANGUNAN,"HXFP+H54, Unnamed Road, Mopuya Utara, Kec. Dumoga Utara, Kabupaten Bolaang Mongondow, Sulawesi Utara","Kabupaten Bolaang Mongondow, Sulawesi Utara",SULAWESI UTARA,,Indonesia,81340377799.0,,,0.5738776,123.9854565,https://maps.google.com/?cid=0x0:0xab61f06dc1f54b10,
toko bangunan,Toko Bahan Bangunan,Toko Sinar Jaya,"QJ46+2QV, Jl. Ratahan - Kotamobagu, Tutuyan II, Kec. Tutuyan, Kabupaten Bolaang Mongondow Timur, Sulawesi Utara","Kabupaten Bolaang Mongondow Timur, Sulawesi Utara",SULAWESI UTARA,,Indonesia,81384131224.0,,,0.7551095,124.6119365,https://maps.google.com/?cid=0x0:0x2c4bfbf4794c3b58,
toko bangunan,Toko Bahan Bangunan,"Jual Loster, kerawangan  Profil Gypsum","VM2V+FFC, Buyat I, Kotabunan, Kabupaten Bolaang Mongondow Timur, Sulawesi Utara","Kabupaten Bolaang Mongondow Timur, Sulawesi Utara",SULAWESI UTARA,,Indonesia,85222109851.0,,,0.8521719,124.6935237,https://maps.google.com/?cid=0x0:0x2702b07890f7071a,
toko bangunan,Toko Perlengkapan Rumah,Jual Batako,"RMV9+7J3, Buyat, Kec. Ratatotok, Kabupaten Bolaang Mongondow Timur, Sulawesi Utara","Kabupaten Bolaang Mongondow Timur, Sulawesi Utara",SULAWESI UTARA,,Indonesia,,,,0.8431296,124.6690605,https://maps.google.com/?cid=0x0:0x7fff91aa0813874c,
toko bangunan,Toko Perlengkapan Rumah,TB. Favor Portalindo,"Jl. Ratahan - Kotamobagu, Tombolikat Sel., Kec. Tutuyan, Kabupaten Bolaang Mongondow Timur, Sulawesi Utara","Kabupaten Bolaang Mongondow Timur, Sulawesi Utara",SULAWESI UTARA,,Indonesia,8114340200.0,,,0.7729667,124.6182163,https://maps.google.com/?cid=0x0:0x569502223eea660f,
toko bangunan,Toko,TOKO BANGUNAN SINAR RATATOTOK,"Ratatotok Dua, Kec. Ratatotok, Kabupaten Minahasa Tenggara, Sulawesi Utara 95997","Kec. Ratatotok, Kabupaten Minahasa Tenggara",SULAWESI UTARA,95997.0,Indonesia,81242418185.0,,,0.8683082,124.7007802,https://maps.google.com/?cid=0x0:0x5c52589d2559d075,
toko bangunan,Toko Bahan Bangunan,Toko Dunia Bangunan,"Jl. K.S. Tubun, Matali, Kec. Kotamobagu Tim., Kota Kotamobagu, Sulawesi Utara 95711","Matali, Kec. Kotamobagu Tim., Kota Kotamobagu",SULAWESI UTARA,95711.0,Indonesia,81244358889.0,,,0.7264884,124.3114762,https://maps.google.com/?cid=0x0:0xe64be2fc5441a103,
toko bangunan,Toko,Toko Sumber Mitra Bangunan,"VM6X+G59, Ratatotok, Kec. Ratatotok, Kabupaten Minahasa Tenggara, Sulawesi Utara 95997","Ratatotok, Kec. Ratatotok, Kabupaten Minahasa Tenggara",SULAWESI UTARA,95997.0,Indonesia,,,,0.860463,124.698721,https://maps.google.com/?cid=0x0:0xa4e71ecc61f9df45,
toko bangunan,toko bangunan,Kec. Modayag,"Kabupaten Bolaang Mongondow Timur, Sulawesi Utara","Kabupaten Bolaang Mongondow Timur, Sulawesi Utara",SULAWESI UTARA,,Indonesia,,,,0.7084236,124.3864248,https://maps.google.com/?cid=0x0:0xc881d84722502f21,
toko bangunan,Toko Bahan Bangunan,Toko Usaha Bangunan,"Jalan Raya, Liberia, Kec. Modayag, Kabupaten Bolaang Mongondow Timur, Sulawesi Utara 95781","Liberia, Kec. Modayag, Kabupaten Bolaang Mongondow Timur",SULAWESI UTARA,95781.0,Indonesia,,,,0.7139293,124.3841074,https://maps.google.com/?cid=0x0:0x92166ed9588551f,
toko bangunan,Pasar bahan bangunan,toko bangunan usaha immanuel,"P96P+4F7, Modayag, Kec. Modayag, Kabupaten Bolaang Mongondow Timur, Sulawesi Utara","Kabupaten Bolaang Mongondow Timur, Sulawesi Utara",SULAWESI UTARA,,Indonesia,85756658246.0,,,0.7103444,124.3862345,https://maps.google.com/?cid=0x0:0xb9e2ffd8f4205bc1,
toko bangunan,Toko Bahan Bangunan,Toko Gemilang Jaya,"Jl trans sulawesi, Purworejo, Kec. Modayag, Kabupaten Bolaang Mongondow Timur, Sulawesi Utara 95781","Purworejo, Kec. Modayag, Kabupaten Bolaang Mongondow Timur",SULAWESI UTARA,95781.0,Indonesia,82193058705.0,,,0.7097942,124.3884208,https://maps.google.com/?cid=0x0:0xdb82e58ec946f9d6,
toko bangunan,Toko Bahan Bangunan,Toko Bangunan Mangimbali,"P9C7+94X, Jl. Ratahan - Kotamobagu, Bangunan Wuwuk, Kec. Modayag Bar., Kabupaten Bolaang Mongondow Timur, Sulawesi Utara","Kabupaten Bolaang Mongondow Timur, Sulawesi Utara",SULAWESI UTARA,,Indonesia,,,,0.720995,124.3628459,https://maps.google.com/?cid=0x0:0x5ebff676b0e909a2,
toko bangunan,toko bangunan,"CV.SUKSES PERTAMA JAYA ,TOKO BANGUNAN TERLENGKAP","P95Q+W9C, Jl trans sulawesi, Purworejo, Kec. Modayag, Kabupaten Bolaang Mongondow Timur, Sulawesi Utara 95781","Jl trans sulawesi, Purworejo, Kec. Modayag, Kabupaten Bolaang Mongondow Timur",SULAWESI UTARA,95781.0,Indonesia,8124273117.0,,,0.7098048,124.3884055,https://maps.google.com/?cid=0x0:0x6e30162c3dc92b98,
toko bangunan,Rumah Kayu,Kios mooat,"Moat, Kec. Modayag, Kabupaten Bolaang Mongondow Timur, Sulawesi Utara","Kabupaten Bolaang Mongondow Timur, Sulawesi Utara",SULAWESI UTARA,,Indonesia,,,,0.7503553,124.449272,https://maps.google.com/?cid=0x0:0x73c2d444dd3ef97c,
toko bangunan,Toko Bahan Bangunan,Toko Bangunan,"Moyag Todulan, Kec. Kotamobagu Tim., Kota Kotamobagu, Sulawesi Utara","Kota Kotamobagu, Sulawesi Utara",SULAWESI UTARA,,Indonesia,,,,0.733521,124.3492363,https://maps.google.com/?cid=0x0:0x382e81a3f51f8fa7,
toko bangunan,Kios,Kios TaEl,"P9C7+JVJ, Bangunan Wuwuk, Kec. Modayag Bar., Kabupaten Bolaang Mongondow Timur, Sulawesi Utara","Kabupaten Bolaang Mongondow Timur, Sulawesi Utara",SULAWESI UTARA,,Indonesia,,,,0.7215985,124.3646445,https://maps.google.com/?cid=0x0:0x1f6d17dad242cb0c,
toko bangunan,Toko Bahan Bangunan,Toko bahan bangunan,"MHG7+VJQ, Jl. Ratahan - Kotamobagu, Motongkad, Kec. Nuangan, Kabupaten Bolaang Mongondow Timur, Sulawesi Utara","Kabupaten Bolaang Mongondow Timur, Sulawesi Utara",SULAWESI UTARA,,Indonesia,,,,0.6772249,124.5640951,https://maps.google.com/?cid=0x0:0x3e712dc6efe5c308,
toko bangunan,Toko Perlengkapan Rumah,Toko Maju Berkah,"HGXC+M69, Nuangan I, Kec. Nuangan, Kabupaten Bolaang Mongondow Timur, Sulawesi Utara 95786","Nuangan I, Kec. Nuangan, Kabupaten Bolaang Mongondow Timur",SULAWESI UTARA,95786.0,Indonesia,,,,0.59869,124.520892,https://maps.google.com/?cid=0x0:0x26b2b5dff4df3781,
toko bangunan,Toko Perlengkapan Rumah,Toko Bangunan Megahari,"P8R4+QQQ, Jl. Kartini, Gogagoman, Kec. Kotamobagu Bar., Kota Kotamobagu, Sulawesi Utara 95716","Jl. Kartini, Gogagoman, Kec. Kotamobagu Bar., Kota Kotamobagu",SULAWESI UTARA,95716.0,Indonesia,82187407545.0,,,0.7419691,124.3069791,https://maps.google.com/?cid=0x0:0x2bbbd1739f7ef378,
toko bangunan,Minimarket,Toko bangunan,"FC3P+2C6, Modisi, Kec. Pinolosian Tim., Kabupaten Bolaang Mongondow Selatan, Sulawesi Utara","Kabupaten Bolaang Mongondow Selatan, Sulawesi Utara",SULAWESI UTARA,,Indonesia,85658741232.0,,,0.4534033,124.4372044,https://maps.google.com/?cid=0x0:0x2f8d72c1be60ff49,
toko bangunan,Toko Perlengkapan Rumah,Toko Bangunan UD.Fadhil,"RM44+R47, Jl. Ratahan - Kotamobagu, Kotabunan, Kabupaten Bolaang Mongondow Timur, Sulawesi Utara","Kabupaten Bolaang Mongondow Timur, Sulawesi Utara",SULAWESI UTARA,,Indonesia,,,,0.8070264,124.6553068,https://maps.google.com/?cid=0x0:0x93a4f968aa67105,
toko bangunan,Toko Bahan Bangunan,UD. BERKAT AULIA,"HGXC+2HW, Nuangan, Kec. Nuangan, Kabupaten Bolaang Mongondow Timur, Sulawesi Utara","Kabupaten Bolaang Mongondow Timur, Sulawesi Utara",SULAWESI UTARA,,Indonesia,,,,0.5976638,124.5214335,https://maps.google.com/?cid=0x0:0x25eb5a8ab06c9cc6,
toko bangunan,Minimarket,Alfamart,"Jl. Raya Modayag Kel, Bangunan Wuwuk, Kec. Modayag Bar., Kabupaten Bolaang Mongondow Timur, Sulawesi Utara 95761","Bangunan Wuwuk, Kec. Modayag Bar., Kabupaten Bolaang Mongondow Timur",SULAWESI UTARA,95761.0,Indonesia,1500959.0,,,0.7221314,124.3611942,https://maps.google.com/?cid=0x0:0xd61d8a43def0967,
toko bangunan,Toko Bahan Bangunan,Tk Putra Bulu Kumba,"P8MX+C88, Moyag Todulan, Kec. Kotamobagu Tim., Kota Kotamobagu, Sulawesi Utara","Kota Kotamobagu, Sulawesi Utara",SULAWESI UTARA,,Indonesia,,,,0.7335252,124.3483141,https://maps.google.com/?cid=0x0:0x5c5c2593a0b08c17,
toko bangunan,Pusat Perbelanjaan,Kios De' Vie,"P9C7+2HQ, Bangunan Wuwuk, Kec. Modayag Bar., Kabupaten Bolaang Mongondow Timur, Sulawesi Utara","Kabupaten Bolaang Mongondow Timur, Sulawesi Utara",SULAWESI UTARA,,Indonesia,,,,0.7200888,124.3639764,https://maps.google.com/?cid=0x0:0xf4e6cf8ff921963e,
toko bangunan,Tambang,GOROPAY INDAH,"Moyag Tampoan, Kec. Kotamobagu Tim., Kota Kotamobagu, Sulawesi Utara","Kota Kotamobagu, Sulawesi Utara",SULAWESI UTARA,,Indonesia,4342602468.0,,,0.7364542,124.3363631,https://maps.google.com/?cid=0x0:0x434d3a8e50a84d2d,
toko bangunan,Toko,Toko Aneka Bangunan,"Mogolaing, Kec. Kotamobagu Bar., Kota Kotamobagu, Sulawesi Utara","Kota Kotamobagu, Sulawesi Utara",SULAWESI UTARA,,Indonesia,,,,0.7373772,124.3077789,https://maps.google.com/?cid=0x0:0x684ed995013a6c52,
toko bangunan,Gudang,Toko Bahan Bangunan BOROBUDUR,"Q853+V3G, Passi II, Kec. Passi Bar., Kabupaten Bolaang Mongondow, Sulawesi Utara","Kabupaten Bolaang Mongondow, Sulawesi Utara",SULAWESI UTARA,,Indonesia,,,,0.7596792,124.3027097,https://maps.google.com/?cid=0x0:0x5d850252030234be,
toko bangunan,Kios,Toko Fibry,"Jl. Ratahan - Kotamobagu, Bangunan Wuwuk, Kec. Modayag Bar., Kabupaten Bolaang Mongondow Timur, Sulawesi Utara","Kabupaten Bolaang Mongondow Timur, Sulawesi Utara",SULAWESI UTARA,,Indonesia,85396889797.0,,,0.7211022,124.3622447,https://maps.google.com/?cid=0x0:0xe747257cdf44eb6e,
toko bangunan,Pusat Perbelanjaan,Kios emes,"P9C7+767, Bangunan Wuwuk, Kec. Modayag Bar., Kabupaten Bolaang Mongondow Timur, Sulawesi Utara","Kabupaten Bolaang Mongondow Timur, Sulawesi Utara",SULAWESI UTARA,,Indonesia,82196410800.0,,,0.7206537,124.3630561,https://maps.google.com/?cid=0x0:0x5d5c47927a787693,
toko bangunan,Toko umum,Kios Elkim,"Jl. Ratahan - Kotamobagu No.8000, Bangunan Wuwuk, Kec. Modayag Bar., Kabupaten Bolaang Mongondow Timur, Sulawesi Utara","Kabupaten Bolaang Mongondow Timur, Sulawesi Utara",SULAWESI UTARA,,Indonesia,82191582001.0,,,0.7241167,124.3594267,https://maps.google.com/?cid=0x0:0x6f152bb24bc754ce,
toko bangunan,toko bangunan,Kec. Modayag Bar.,"Kabupaten Bolaang Mongondow Timur, Sulawesi Utara","Kabupaten Bolaang Mongondow Timur, Sulawesi Utara",SULAWESI UTARA,,Indonesia,,,,0.7152891,124.372507,https://maps.google.com/?cid=0x0:0xfd0e11adc540e358,
toko bangunan,Toko Bahan Bangunan,Toko Usaha Bangunan,"Jalan Raya, Liberia, Kec. Modayag, Kabupaten Bolaang Mongondow Timur, Sulawesi Utara 95781","Liberia, Kec. Modayag, Kabupaten Bolaang Mongondow Timur",SULAWESI UTARA,95781.0,Indonesia,,,,0.7139293,124.3841074,https://maps.google.com/?cid=0x0:0x92166ed9588551f,
toko bangunan,Pasar bahan bangunan,toko bangunan usaha immanuel,"P96P+4F7, Modayag, Kec. Modayag, Kabupaten Bolaang Mongondow Timur, Sulawesi Utara","Kabupaten Bolaang Mongondow Timur, Sulawesi Utara",SULAWESI UTARA,,Indonesia,85756658246.0,,,0.7103444,124.3862345,https://maps.google.com/?cid=0x0:0xb9e2ffd8f4205bc1,
toko bangunan,Toko Bahan Bangunan,Toko Bangunan Mangimbali,"P9C7+94X, Jl. Ratahan - Kotamobagu, Bangunan Wuwuk, Kec. Modayag Bar., Kabupaten Bolaang Mongondow Timur, Sulawesi Utara","Kabupaten Bolaang Mongondow Timur, Sulawesi Utara",SULAWESI UTARA,,Indonesia,,,,0.720995,124.3628459,https://maps.google.com/?cid=0x0:0x5ebff676b0e909a2,
toko bangunan,Toko Bahan Bangunan,Toko Gemilang Jaya,"Jl trans sulawesi, Purworejo, Kec. Modayag, Kabupaten Bolaang Mongondow Timur, Sulawesi Utara 95781","Purworejo, Kec. Modayag, Kabupaten Bolaang Mongondow Timur",SULAWESI UTARA,95781.0,Indonesia,82193058705.0,,,0.7097942,124.3884208,https://maps.google.com/?cid=0x0:0xdb82e58ec946f9d6,
toko bangunan,toko bangunan,"CV.SUKSES PERTAMA JAYA ,TOKO BANGUNAN TERLENGKAP","P95Q+W9C, Jl trans sulawesi, Purworejo, Kec. Modayag, Kabupaten Bolaang Mongondow Timur, Sulawesi Utara 95781","Jl trans sulawesi, Purworejo, Kec. Modayag, Kabupaten Bolaang Mongondow Timur",SULAWESI UTARA,95781.0,Indonesia,8124273117.0,,,0.7098048,124.3884055,https://maps.google.com/?cid=0x0:0x6e30162c3dc92b98,
toko bangunan,Toko Bahan Bangunan,Toko Bangunan,"Moyag Todulan, Kec. Kotamobagu Tim., Kota Kotamobagu, Sulawesi Utara","Kota Kotamobagu, Sulawesi Utara",SULAWESI UTARA,,Indonesia,,,,0.733521,124.3492363,https://maps.google.com/?cid=0x0:0x382e81a3f51f8fa7,
toko bangunan,Kios,Kios TaEl,"P9C7+JVJ, Bangunan Wuwuk, Kec. Modayag Bar., Kabupaten Bolaang Mongondow Timur, Sulawesi Utara","Kabupaten Bolaang Mongondow Timur, Sulawesi Utara",SULAWESI UTARA,,Indonesia,,,,0.7215985,124.3646445,https://maps.google.com/?cid=0x0:0x1f6d17dad242cb0c,
toko bangunan,Toko Bahan Bangunan,Tk Putra Bulu Kumba,"P8MX+C88, Moyag Todulan, Kec. Kotamobagu Tim., Kota Kotamobagu, Sulawesi Utara","Kota Kotamobagu, Sulawesi Utara",SULAWESI UTARA,,Indonesia,,,,0.7335252,124.3483141,https://maps.google.com/?cid=0x0:0x5c5c2593a0b08c17,
toko bangunan,Gudang,Toko Bahan Bangunan BOROBUDUR,"Q853+V3G, Passi II, Kec. Passi Bar., Kabupaten Bolaang Mongondow, Sulawesi Utara","Kabupaten Bolaang Mongondow, Sulawesi Utara",SULAWESI UTARA,,Indonesia,,,,0.7596792,124.3027097,https://maps.google.com/?cid=0x0:0x5d850252030234be,
toko bangunan,Toko Perlengkapan Rumah,Toko Bangunan Megahari,"P8R4+QQQ, Jl. Kartini, Gogagoman, Kec. Kotamobagu Bar., Kota Kotamobagu, Sulawesi Utara 95716","Jl. Kartini, Gogagoman, Kec. Kotamobagu Bar., Kota Kotamobagu",SULAWESI UTARA,95716.0,Indonesia,82187407545.0,,,0.7419691,124.3069791,https://maps.google.com/?cid=0x0:0x2bbbd1739f7ef378,
toko bangunan,Minimarket,Alfamart,"Jl. Raya Modayag Kel, Bangunan Wuwuk, Kec. Modayag Bar., Kabupaten Bolaang Mongondow Timur, Sulawesi Utara 95761","Bangunan Wuwuk, Kec. Modayag Bar., Kabupaten Bolaang Mongondow Timur",SULAWESI UTARA,95761.0,Indonesia,1500959.0,,,0.7221314,124.3611942,https://maps.google.com/?cid=0x0:0xd61d8a43def0967,
toko bangunan,Toko,Toko Aneka Bangunan,"Mogolaing, Kec. Kotamobagu Bar., Kota Kotamobagu, Sulawesi Utara","Kota Kotamobagu, Sulawesi Utara",SULAWESI UTARA,,Indonesia,,,,0.7373772,124.3077789,https://maps.google.com/?cid=0x0:0x684ed995013a6c52,
toko bangunan,Pusat Perbelanjaan,Kios De' Vie,"P9C7+2HQ, Bangunan Wuwuk, Kec. Modayag Bar., Kabupaten Bolaang Mongondow Timur, Sulawesi Utara","Kabupaten Bolaang Mongondow Timur, Sulawesi Utara",SULAWESI UTARA,,Indonesia,,,,0.7200888,124.3639764,https://maps.google.com/?cid=0x0:0xf4e6cf8ff921963e,
toko bangunan,Minimarket,Toko bangunan,"FC3P+2C6, Modisi, Kec. Pinolosian Tim., Kabupaten Bolaang Mongondow Selatan, Sulawesi Utara","Kabupaten Bolaang Mongondow Selatan, Sulawesi Utara",SULAWESI UTARA,,Indonesia,85658741232.0,,,0.4534033,124.4372044,https://maps.google.com/?cid=0x0:0x2f8d72c1be60ff49,
toko bangunan,Toko Bahan Bangunan,Toko bahan bangunan,"MHG7+VJQ, Jl. Ratahan - Kotamobagu, Motongkad, Kec. Nuangan, Kabupaten Bolaang Mongondow Timur, Sulawesi Utara","Kabupaten Bolaang Mongondow Timur, Sulawesi Utara",SULAWESI UTARA,,Indonesia,,,,0.6772249,124.5640951,https://maps.google.com/?cid=0x0:0x3e712dc6efe5c308,
toko bangunan,Pusat Perbelanjaan,Kios emes,"P9C7+767, Bangunan Wuwuk, Kec. Modayag Bar., Kabupaten Bolaang Mongondow Timur, Sulawesi Utara","Kabupaten Bolaang Mongondow Timur, Sulawesi Utara",SULAWESI UTARA,,Indonesia,82196410800.0,,,0.7206537,124.3630561,https://maps.google.com/?cid=0x0:0x5d5c47927a787693,
toko bangunan,Tambang,GOROPAY INDAH,"Moyag Tampoan, Kec. Kotamobagu Tim., Kota Kotamobagu, Sulawesi Utara","Kota Kotamobagu, Sulawesi Utara",SULAWESI UTARA,,Indonesia,4342602468.0,,,0.7364542,124.3363631,https://maps.google.com/?cid=0x0:0x434d3a8e50a84d2d,
toko bangunan,Toko Bahan Bangunan,Klik Bangunan Tanah Sereal,"Jl. Sholeh Iskandar, RT.01/RW.04, Cibadak, Kec. Tanah Sereal, Kota Bogor, Jawa Barat 16168","RT.01/RW.04, Cibadak, Kec. Tanah Sereal, Kota Bogor",SULAWESI UTARA,16168.0,Indonesia,81112300198.0,,,-6.5465421,106.773674,https://maps.google.com/?cid=0x0:0x95c0f3480eeb194a,
toko bangunan,toko bangunan,Sulawesi Utara 95775,"Modisi, Kec. Pinolosian Tim., Kabupaten Bolaang Mongondow Selatan, Sulawesi Utara","Kabupaten Bolaang Mongondow Selatan, Sulawesi Utara",SULAWESI UTARA,,Indonesia,,,,0.4528494,124.4356892,https://maps.google.com/?cid=0x0:0x5956b774c20081f1,
toko bangunan,Minimarket,Toko bangunan,"FC3P+2C6, Modisi, Kec. Pinolosian Tim., Kabupaten Bolaang Mongondow Selatan, Sulawesi Utara","Kabupaten Bolaang Mongondow Selatan, Sulawesi Utara",SULAWESI UTARA,,Indonesia,85658741232.0,,,0.4534033,124.4372044,https://maps.google.com/?cid=0x0:0x2f8d72c1be60ff49,
toko bangunan,Toko Perlengkapan Rumah,Toko Bangunan UD.Fadhil,"RM44+R47, Jl. Ratahan - Kotamobagu, Kotabunan, Kabupaten Bolaang Mongondow Timur, Sulawesi Utara","Kabupaten Bolaang Mongondow Timur, Sulawesi Utara",SULAWESI UTARA,,Indonesia,,,,0.8070264,124.6553068,https://maps.google.com/?cid=0x0:0x93a4f968aa67105,
toko bangunan,Toko Bahan Bangunan,Toko.Multi Bangunan,"Kopandakan I, Kec. Kotamobagu Sel., Kota Kotamobagu, Sulawesi Utara","Kota Kotamobagu, Sulawesi Utara",SULAWESI UTARA,,Indonesia,,,,0.7060639,124.2842349,https://maps.google.com/?cid=0x0:0x906b99c88c2df6f6,
toko bangunan,Toko Bahan Bangunan,Toko Usaha Bangunan,"Jalan Raya, Liberia, Kec. Modayag, Kabupaten Bolaang Mongondow Timur, Sulawesi Utara 95781","Liberia, Kec. Modayag, Kabupaten Bolaang Mongondow Timur",SULAWESI UTARA,95781.0,Indonesia,,,,0.7139293,124.3841074,https://maps.google.com/?cid=0x0:0x92166ed9588551f,
toko bangunan,Toko Perlengkapan Rumah,Toko Maju Berkah,"HGXC+M69, Nuangan I, Kec. Nuangan, Kabupaten Bolaang Mongondow Timur, Sulawesi Utara 95786","Nuangan I, Kec. Nuangan, Kabupaten Bolaang Mongondow Timur",SULAWESI UTARA,95786.0,Indonesia,,,,0.59869,124.520892,https://maps.google.com/?cid=0x0:0x26b2b5dff4df3781,
toko bangunan,Toko Bahan Bangunan,UD.SINAR NAJWA,"Jalan Trans Sulawesi Manado Gorontalo.36, Keakar, Dusun 1, Boroko, Kec. Kaidipang, Kabupaten Bolaang Mongondow Utara, Sulawesi Utara","Kabupaten Bolaang Mongondow Utara, Sulawesi Utara",SULAWESI UTARA,,Indonesia,82191655859.0,,,0.9052344,123.2556191,https://maps.google.com/?cid=0x0:0x1b430d379f12d434,
toko bangunan,Toko Perlengkapan Rumah,Toko Bangunan Tesalonika,"QJVH+MM6, Paret, Kotabunan, Kabupaten Bolaang Mongondow Timur, Sulawesi Utara","Kabupaten Bolaang Mongondow Timur, Sulawesi Utara",SULAWESI UTARA,,Indonesia,81218883767.0,,,0.7941531,124.629155,https://maps.google.com/?cid=0x0:0x9def8c78a1ebe897,
toko bangunan,Pasar bahan bangunan,toko bangunan usaha immanuel,"P96P+4F7, Modayag, Kec. Modayag, Kabupaten Bolaang Mongondow Timur, Sulawesi Utara","Kabupaten Bolaang Mongondow Timur, Sulawesi Utara",SULAWESI UTARA,,Indonesia,85756658246.0,,,0.7103444,124.3862345,https://maps.google.com/?cid=0x0:0xb9e2ffd8f4205bc1,
toko bangunan,Toko Bahan Bangunan,Toko Fajar Timur,"Jl. Trans-Sulawesi, Kuala, Kec. Kaidipang, Kabupaten Bolaang Mongondow Utara, Sulawesi Utara 95765","Kuala, Kec. Kaidipang, Kabupaten Bolaang Mongondow Utara",SULAWESI UTARA,95765.0,Indonesia,,,,0.9054566,123.272652,https://maps.google.com/?cid=0x0:0xc82c00431f7b07a1,
toko bangunan,Toko Bahan Bangunan,Toko Bangunan Dipta,"W55R+77X, Jl. Trans-Sulawesi, Tuntung Tim., Kec. Pinogaluman, Kabupaten Bolaang Mongondow Utara, Sulawesi Utara","Kabupaten Bolaang Mongondow Utara, Sulawesi Utara",SULAWESI UTARA,,Indonesia,,,,0.9082313,123.1907257,https://maps.google.com/?cid=0x0:0x8804fc0c16f5667c,
toko bangunan,Toko Bahan Bangunan,Toko Bangunan Sejahtera,"8VR9+JJM, Duminanga, Kec. Bolaang Uki, Kabupaten Bolaang Mongondow Selatan, Sulawesi Utara","Kabupaten Bolaang Mongondow Selatan, Sulawesi Utara",SULAWESI UTARA,,Indonesia,85823541634.0,,,0.3422371,123.8689399,https://maps.google.com/?cid=0x0:0xf3d6ae4885cd314b,
toko bangunan,Toko Bahan Bangunan,Toko Bangunan Mangimbali,"P9C7+94X, Jl. Ratahan - Kotamobagu, Bangunan Wuwuk, Kec. Modayag Bar., Kabupaten Bolaang Mongondow Timur, Sulawesi Utara","Kabupaten Bolaang Mongondow Timur, Sulawesi Utara",SULAWESI UTARA,,Indonesia,,,,0.720995,124.3628459,https://maps.google.com/?cid=0x0:0x5ebff676b0e909a2,
toko bangunan,Toko Bahan Bangunan,Toko Bangunan Chiko Matungkas,"FXF9+7QQ, Jl. Sukur - Likupang, Matungkas, Kec. Dimembe, Kabupaten Minahasa Utara, Sulawesi Utara","Kabupaten Minahasa Utara, Sulawesi Utara",SULAWESI UTARA,,Indonesia,85340940004.0,,,1.4732046,124.9694978,https://maps.google.com/?cid=0x0:0xb10a524c66bf6d30,
toko bangunan,Gudang,Toko Bahan Bangunan BOROBUDUR,"Q853+V3G, Passi II, Kec. Passi Bar., Kabupaten Bolaang Mongondow, Sulawesi Utara","Kabupaten Bolaang Mongondow, Sulawesi Utara",SULAWESI UTARA,,Indonesia,,,,0.7596792,124.3027097,https://maps.google.com/?cid=0x0:0x5d850252030234be,
toko bangunan,Toko Bahan Bangunan,Toko Dunia Bangunan,"Jl. K.S. Tubun, Matali, Kec. Kotamobagu Tim., Kota Kotamobagu, Sulawesi Utara 95711","Matali, Kec. Kotamobagu Tim., Kota Kotamobagu",SULAWESI UTARA,95711.0,Indonesia,81244358889.0,,,0.7264884,124.3114762,https://maps.google.com/?cid=0x0:0xe64be2fc5441a103,
toko bangunan,Toko Bahan Bangunan,Toko Naulas,"W836+F7X, Bolangitang, Kec. Bolang Itang Bar., Kabupaten Bolaang Mongondow Utara, Sulawesi Utara","Kabupaten Bolaang Mongondow Utara, Sulawesi Utara",SULAWESI UTARA,,Indonesia,,,,0.9037345,123.3107313,https://maps.google.com/?cid=0x0:0x77429f25fd08e7ea,
toko bangunan,Toko Bahan Bangunan,Toko Ayu Motor  Bangunan,"RVQ9+5VG, Pantai, Babo, Moonow, Kabupaten Bolaang Mongondow, Sulawesi Utara","Kabupaten Bolaang Mongondow, Sulawesi Utara",SULAWESI UTARA,,Indonesia,85340056000.0,,,0.8379381,123.8697077,https://maps.google.com/?cid=0x0:0x93c2566a65951c4b,
toko bangunan,Toko Perlengkapan Rumah,Toko Bangunan Gampang Ingat,"Jl. Ahmad Yani No.34, Kotamobagu, Kec. Kotamobagu Bar., Kota Kotamobagu, Sulawesi Utara 95716","Kotamobagu, Kec. Kotamobagu Bar., Kota Kotamobagu",SULAWESI UTARA,95716.0,Indonesia,,,,0.7400726,124.3106451,https://maps.google.com/?cid=0x0:0x9fdb5bd8f705aecf,
toko bangunan,Toko Bahan Bangunan,Toko Bintang Bangunan Pobundayan,"P874+R63, Jl. DC. Manoppo, Pobundayan, Kec. Kotamobagu Sel., Kota Kotamobagu, Sulawesi Utara","Kota Kotamobagu, Sulawesi Utara",SULAWESI UTARA,,Indonesia,8124299389.0,,,0.7144986,124.3053012,https://maps.google.com/?cid=0x0:0x2939644c33cc6b03,
toko bangunan,Toko Bahan Bangunan,Buana Lestari,"HGQH+XWP, Desa Nuangan, Kotabunan, Iyok, Kec. Nuangan, Bolaang Mongondow, Sulawesi Utara","Bolaang Mongondow, Sulawesi Utara",SULAWESI UTARA,,Indonesia,81340005233.0,,,0.5899571,124.5298351,https://maps.google.com/?cid=0x0:0x8cd621ecdc470271,
toko bangunan,Toko,toko bangunan hj muhlis,"XQ2W+V7R, Jl. Ratahan - Kotamobagu, Ponosakan Indah, Kec. Belang, Kabupaten Minahasa Tenggara, Sulawesi Utara 95997","Jl. Ratahan - Kotamobagu, Ponosakan Indah, Kec. Belang, Kabupaten Minahasa Tenggara",SULAWESI UTARA,95997.0,Indonesia,,,,0.9522386,124.7956411,https://maps.google.com/?cid=0x0:0xa87b203b7e160b19,
toko bangunan,toko bangunan,Kec. Tutuyan,"Kabupaten Bolaang Mongondow Timur, Sulawesi Utara","Kabupaten Bolaang Mongondow Timur, Sulawesi Utara",SULAWESI UTARA,,Indonesia,,,,0.7567721,124.6124872,https://maps.google.com/?cid=0x0:0x736818cdb777053,
toko bangunan,Toko Bahan Bangunan,Toko Karya Kirana,"QJ57+F7P, Tutuyan, Kec. Tutuyan, Kabupaten Bolaang Mongondow Timur, Sulawesi Utara","Kabupaten Bolaang Mongondow Timur, Sulawesi Utara",SULAWESI UTARA,,Indonesia,82145762479.0,,,0.7587111,124.613194,https://maps.google.com/?cid=0x0:0xa30e520eb8260e41,
toko bangunan,Toko Bahan Bangunan,Toko Sinar Jaya,"QJ46+2QV, Jl. Ratahan - Kotamobagu, Tutuyan II, Kec. Tutuyan, Kabupaten Bolaang Mongondow Timur, Sulawesi Utara","Kabupaten Bolaang Mongondow Timur, Sulawesi Utara",SULAWESI UTARA,,Indonesia,81384131224.0,,,0.7551095,124.6119365,https://maps.google.com/?cid=0x0:0x2c4bfbf4794c3b58,
toko bangunan,Toko Bahan Bangunan,Toko bahan bangunan,"MHG7+VJQ, Jl. Ratahan - Kotamobagu, Motongkad, Kec. Nuangan, Kabupaten Bolaang Mongondow Timur, Sulawesi Utara","Kabupaten Bolaang Mongondow Timur, Sulawesi Utara",SULAWESI UTARA,,Indonesia,,,,0.6772249,124.5640951,https://maps.google.com/?cid=0x0:0x3e712dc6efe5c308,
toko bangunan,Toko Perlengkapan Rumah,Toko Bangunan UD.Fadhil,"RM44+R47, Jl. Ratahan - Kotamobagu, Kotabunan, Kabupaten Bolaang Mongondow Timur, Sulawesi Utara","Kabupaten Bolaang Mongondow Timur, Sulawesi Utara",SULAWESI UTARA,,Indonesia,,,,0.8070264,124.6553068,https://maps.google.com/?cid=0x0:0x93a4f968aa67105,
toko bangunan,Toko Bahan Bangunan,Toko Ayu Motor  Bangunan,"RVQ9+5VG, Pantai, Babo, Moonow, Kabupaten Bolaang Mongondow, Sulawesi Utara","Kabupaten Bolaang Mongondow, Sulawesi Utara",SULAWESI UTARA,,Indonesia,85340056000.0,,,0.8379381,123.8697077,https://maps.google.com/?cid=0x0:0x93c2566a65951c4b,
toko bangunan,Minimarket,Toko bangunan,"FC3P+2C6, Modisi, Kec. Pinolosian Tim., Kabupaten Bolaang Mongondow Selatan, Sulawesi Utara","Kabupaten Bolaang Mongondow Selatan, Sulawesi Utara",SULAWESI UTARA,,Indonesia,85658741232.0,,,0.4534033,124.4372044,https://maps.google.com/?cid=0x0:0x2f8d72c1be60ff49,
toko bangunan,Toko,Toko Awan Bangunan,"Tanoyan Sel., Kec. Lolayan, Kabupaten Bolaang Mongondow, Sulawesi Utara","Kabupaten Bolaang Mongondow, Sulawesi Utara",SULAWESI UTARA,,Indonesia,85823966338.0,,,0.6048681,124.2745268,https://maps.google.com/?cid=0x0:0x7f4c65ea9b27dee4,
toko bangunan,Toko Perlengkapan Rumah,TB. Favor Portalindo,"Jl. Ratahan - Kotamobagu, Tombolikat Sel., Kec. Tutuyan, Kabupaten Bolaang Mongondow Timur, Sulawesi Utara","Kabupaten Bolaang Mongondow Timur, Sulawesi Utara",SULAWESI UTARA,,Indonesia,8114340200.0,,,0.7729667,124.6182163,https://maps.google.com/?cid=0x0:0x569502223eea660f,
hardware store,hardware store,Kotabunan,"Kabupaten Bolaang Mongondow Timur, Sulawesi Utara","Kabupaten Bolaang Mongondow Timur, Sulawesi Utara",SULAWESI UTARA,,Indonesia,,,,0.8554519,124.6192702,https://maps.google.com/?cid=0x0:0x94bb77bfbc3242eb,
hardware store,Toko,Toko Cinta Damai,"RM55+Q84, jln pelabuhan kotabunan induk, Kotabunan, Kabupaten Bolaang Mongondow Timur, Sulawesi Utara","Kabupaten Bolaang Mongondow Timur, Sulawesi Utara",SULAWESI UTARA,,Indonesia,81356442722.0,,,0.8093817,124.6583171,https://maps.google.com/?cid=0x0:0x57f75c5484638c2b,
hardware store,Toko Perlengkapan Rumah,TB. Favor Portalindo,"Jl. Ratahan - Kotamobagu, Tombolikat Sel., Kec. Tutuyan, Kabupaten Bolaang Mongondow Timur, Sulawesi Utara","Kabupaten Bolaang Mongondow Timur, Sulawesi Utara",SULAWESI UTARA,,Indonesia,8114340200.0,,,0.7729667,124.6182163,https://maps.google.com/?cid=0x0:0x569502223eea660f,
hardware store,Printer Digital,Naifah Print's,"Bulawan, Kabupaten Bolaang Mongondow Timur, Sulawesi Utara 95782",Kabupaten Bolaang Mongondow Timur,SULAWESI UTARA,95782.0,Indonesia,82293474736.0,,,0.8113137,124.6596417,https://maps.google.com/?cid=0x0:0x9e017ac4bcbcaa76,
hardware store,Minimarket,Alfamart Kotabunan,"Jl. Trans Sulawesi Selatan, Kotabunan, Kabupaten Bolaang Mongondow Timur, Sulawesi Utara 95782","Kotabunan, Kabupaten Bolaang Mongondow Timur",SULAWESI UTARA,95782.0,Indonesia,1500959.0,,,0.806819,124.6549552,https://maps.google.com/?cid=0x0:0xb83e212af4be0501,
hardware store,Perhimpunan Pengembang Perumahan,Kotabunan Barat,"Jl. Tangkudeagan, Kotabunan, Kabupaten Bolaang Mongondow Timur, Sulawesi Utara","Kabupaten Bolaang Mongondow Timur, Sulawesi Utara",SULAWESI UTARA,,Indonesia,82346551981.0,,,0.8100736,124.6506657,https://maps.google.com/?cid=0x0:0x577205976c9207f5,
hardware store,Kantor Pemerintah,Kotabunan selatan,"VJ49+5PJ, Bukaka, Kotabunan, Kabupaten Bolaang Mongondow Timur, Sulawesi Utara","Kabupaten Bolaang Mongondow Timur, Sulawesi Utara",SULAWESI UTARA,,Indonesia,,,,0.8554519,124.6192702,https://maps.google.com/?cid=0x0:0xe49aca0882a3a649,
hardware store,Sekolah Dasar,SD Negeri 2 Kotabunan,"Kotabunan, Kabupaten Bolaang Mongondow Timur, Sulawesi Utara","Kabupaten Bolaang Mongondow Timur, Sulawesi Utara",SULAWESI UTARA,,Indonesia,,,,0.8103443,124.6536964,https://maps.google.com/?cid=0x0:0x19be9bad9d140532,
hardware store,Toko Perlengkapan Rumah,Grand Hardware,"Komplek Marina Plaza Blok B No. 7-10, Jl. Piere Tendean Boulevard,manado, Manado, Sulawesi Utara, 95111","Jl. Piere Tendean Boulevard,manado, Manado",SULAWESI UTARA,95111.0,Indonesia,85255443510.0,,,1.4924543,124.838346,https://maps.google.com/?cid=0x0:0x513c63d19209ca5,
hardware store,Toko Perbaikan Ponsel,Panang,"RJGW+C27, Kotabunan, Kabupaten Bolaang Mongondow Timur, Sulawesi Utara","Kabupaten Bolaang Mongondow Timur, Sulawesi Utara",SULAWESI UTARA,,Indonesia,,,,0.8260415,124.6450375,https://maps.google.com/?cid=0x0:0x25eb84c71449159a,
hardware store,Bank,Bank SulutGo KK Kotabunan,"RM54+JWR, Kompleks Pasar, Jl. Trans Sulawesi Lkr. Sel., Kotabunan, Kabupaten Bolaang Mongondow Timur, Sulawesi Utara 95782","Kompleks Pasar, Jl. Trans Sulawesi Lkr. Sel., Kotabunan, Kabupaten Bolaang Mongondow Timur",SULAWESI UTARA,95782.0,Indonesia,4318819779.0,,,0.8091179,124.6572771,https://maps.google.com/?cid=0x0:0x2e33e1fb204b74b3,
hardware store,hardware store,Kec. Modayag,"Kabupaten Bolaang Mongondow Timur, Sulawesi Utara","Kabupaten Bolaang Mongondow Timur, Sulawesi Utara",SULAWESI UTARA,,Indonesia,,,,0.7084236,124.3864248,https://maps.google.com/?cid=0x0:0xc881d84722502f21,
hardware store,Toko Bahan Bangunan,Toko Usaha Bangunan,"Jalan Raya, Liberia, Kec. Modayag, Kabupaten Bolaang Mongondow Timur, Sulawesi Utara 95781","Liberia, Kec. Modayag, Kabupaten Bolaang Mongondow Timur",SULAWESI UTARA,95781.0,Indonesia,,,,0.7139293,124.3841074,https://maps.google.com/?cid=0x0:0x92166ed9588551f,
hardware store,Toko,Toko GRAND HARDWARE,"CXJH+22P, Sarongsong I, Kec. Airmadidi, Kabupaten Minahasa Utara, Sulawesi Utara","Kabupaten Minahasa Utara, Sulawesi Utara",SULAWESI UTARA,,Indonesia,,,,1.4300932,124.9775741,https://maps.google.com/?cid=0x0:0xd5bea6e4e94329b1,
hardware store,Toko Perlengkapan Rumah,Grand Hardware,"FR58+3RF, Malalayang Satu, Kec. Malalayang, Kota Manado, Sulawesi Utara","Kota Manado, Sulawesi Utara",SULAWESI UTARA,,Indonesia,,,,1.4576853,124.8170507,https://maps.google.com/?cid=0x0:0xfd46d3ac7a01670e,
hardware store,Toko Perlengkapan Rumah,Grand Hardware,"Komplek Marina Plaza Blok B No. 7-10, Jl. Piere Tendean Boulevard,manado, Manado, Sulawesi Utara, 95111","Jl. Piere Tendean Boulevard,manado, Manado",SULAWESI UTARA,95111.0,Indonesia,85255443510.0,,,1.4924543,124.838346,https://maps.google.com/?cid=0x0:0x513c63d19209ca5,
hardware store,Toko Bahan Bangunan,GranD Prima Manado,"Kompleks MonacoBay, Jl. Piere Tendean No.1 Blok A, Kota Manado, Sulawesi Utara 95111","Jl. Piere Tendean No.1 Blok A, Kota Manado",SULAWESI UTARA,95111.0,Indonesia,81244158352.0,,,1.487165,124.836687,https://maps.google.com/?cid=0x0:0x7138f00ecfef2196,
hardware store,Toko Bahan Bangunan,Toko ARNED,"Depan masjid Al-Ikhwan, Bigo, Kec. Kaidipang, Kabupaten Bolaang Mongondow Utara, Sulawesi Utara 95765","Bigo, Kec. Kaidipang, Kabupaten Bolaang Mongondow Utara",SULAWESI UTARA,95765.0,Indonesia,81245024301.0,,,0.9024573,123.2662362,https://maps.google.com/?cid=0x0:0xe47eb7492bdb2b2b,
hardware store,Toko,GALERI MEDIA - FOTOCOPY  ATK,"Jl. Ratahan - Kotamobagu No.215, Moyag Todulan, Kec. Kotamobagu Tim., Kota Kotamobagu, Sulawesi Utara","Kota Kotamobagu, Sulawesi Utara",SULAWESI UTARA,,Indonesia,,,,0.7339517,124.3457582,https://maps.google.com/?cid=0x0:0xf85c0aa03cba0c6c,
hardware store,hardware store,Kec. Modayag Bar.,"Kabupaten Bolaang Mongondow Timur, Sulawesi Utara","Kabupaten Bolaang Mongondow Timur, Sulawesi Utara",SULAWESI UTARA,,Indonesia,,,,0.7152891,124.372507,https://maps.google.com/?cid=0x0:0xfd0e11adc540e358,
hardware store,Toko Bahan Bangunan,Toko Usaha Bangunan,"Jalan Raya, Liberia, Kec. Modayag, Kabupaten Bolaang Mongondow Timur, Sulawesi Utara 95781","Liberia, Kec. Modayag, Kabupaten Bolaang Mongondow Timur",SULAWESI UTARA,95781.0,Indonesia,,,,0.7139293,124.3841074,https://maps.google.com/?cid=0x0:0x92166ed9588551f,
hardware store,Toko Bahan Bangunan,Toko Bangunan Mangimbali,"P9C7+94X, Jl. Ratahan - Kotamobagu, Bangunan Wuwuk, Kec. Modayag Bar., Kabupaten Bolaang Mongondow Timur, Sulawesi Utara","Kabupaten Bolaang Mongondow Timur, Sulawesi Utara",SULAWESI UTARA,,Indonesia,,,,0.720995,124.3628459,https://maps.google.com/?cid=0x0:0x5ebff676b0e909a2,
hardware store,Toko Perlengkapan Rumah,Grand Hardware,"Komplek Marina Plaza Blok B No. 7-10, Jl. Piere Tendean Boulevard,manado, Manado, Sulawesi Utara, 95111","Jl. Piere Tendean Boulevard,manado, Manado",SULAWESI UTARA,95111.0,Indonesia,85255443510.0,,,1.4924543,124.838346,https://maps.google.com/?cid=0x0:0x513c63d19209ca5,
hardware store,Toko Perlengkapan Rumah,Grand Hardware,"FR58+3RF, Malalayang Satu, Kec. Malalayang, Kota Manado, Sulawesi Utara","Kota Manado, Sulawesi Utara",SULAWESI UTARA,,Indonesia,,,,1.4576853,124.8170507,https://maps.google.com/?cid=0x0:0xfd46d3ac7a01670e,
hardware store,Toko,GALERI MEDIA - FOTOCOPY  ATK,"Jl. Ratahan - Kotamobagu No.215, Moyag Todulan, Kec. Kotamobagu Tim., Kota Kotamobagu, Sulawesi Utara","Kota Kotamobagu, Sulawesi Utara",SULAWESI UTARA,,Indonesia,,,,0.7339517,124.3457582,https://maps.google.com/?cid=0x0:0xf85c0aa03cba0c6c,
hardware store,Toko Alat-Alat,KANG MACHINE STORE,"Pondok Sani Putra Jl Bima 1 Blok C6 Nomer 8, RT.008/RW.005, Pejuang, Kecamatan Medan Satria, Kota Bks, Jawa Barat 17131","RT.008/RW.005, Pejuang, Kecamatan Medan Satria, Kota Bks",SULAWESI UTARA,17131.0,Indonesia,81312461566.0,,,-6.1876787,106.9919529,https://maps.google.com/?cid=0x0:0x59a94fc66b14791b,
hardware store,Toko,cutting tools,"Blok HO2, Ruko Taman Puspa, Boulevard Harapan Indah 2 No.31A, Kabupaten Bekasi, Jawa Barat 17132","Ruko Taman Puspa, Boulevard Harapan Indah 2 No.31A, Kabupaten Bekasi",SULAWESI UTARA,17132.0,Indonesia,85945620408.0,,,-6.1701503,106.9730989,https://maps.google.com/?cid=0x0:0x9e9d54c33d138edd,
hardware store,Toko,Toko GRAND HARDWARE,"CXJH+22P, Sarongsong I, Kec. Airmadidi, Kabupaten Minahasa Utara, Sulawesi Utara","Kabupaten Minahasa Utara, Sulawesi Utara",SULAWESI UTARA,,Indonesia,,,,1.4300932,124.9775741,https://maps.google.com/?cid=0x0:0xd5bea6e4e94329b1,
hardware store,Toko Swalayan,Toko Grand,"CXFH+RV4, Pasar, Airmadidi Atas, Kec. Airmadidi, Manado, Sulawesi Utara 95371","Pasar, Airmadidi Atas, Kec. Airmadidi, Manado",SULAWESI UTARA,95371.0,Indonesia,81617151289.0,,,1.4245104,124.9797052,https://maps.google.com/?cid=0x0:0x817a9599f52c4d18,
hardware store,Toko Bahan Bangunan,Toko Naulas,"W836+F7X, Bolangitang, Kec. Bolang Itang Bar., Kabupaten Bolaang Mongondow Utara, Sulawesi Utara","Kabupaten Bolaang Mongondow Utara, Sulawesi Utara",SULAWESI UTARA,,Indonesia,,,,0.9037345,123.3107313,https://maps.google.com/?cid=0x0:0x77429f25fd08e7ea,
hardware store,hardware store,Nuangan,"Nuangan, Kec. Nuangan, Kabupaten Bolaang Mongondow Timur, Sulawesi Utara","Kabupaten Bolaang Mongondow Timur, Sulawesi Utara",SULAWESI UTARA,,Indonesia,,,,0.598157,124.5411,https://maps.google.com/?cid=0x0:0x7fe0bfbb2834647e,
hardware store,hardware store,Kec. Tebet,"Kota Jakarta Selatan, Daerah Khusus Ibukota Jakarta","Kota Jakarta Selatan, Daerah Khusus Ibukota Jakarta",SULAWESI UTARA,,Indonesia,,,,-6.2251223,106.8549881,https://maps.google.com/?cid=0x0:0xd575e31c807295f9,
hardware store,hardware store,Kec. Tutuyan,"Kabupaten Bolaang Mongondow Timur, Sulawesi Utara","Kabupaten Bolaang Mongondow Timur, Sulawesi Utara",SULAWESI UTARA,,Indonesia,,,,0.7567721,124.6124872,https://maps.google.com/?cid=0x0:0x736818cdb777053,
hardware store,Toko Bahan Bangunan,Toko Karya Kirana,"QJ57+F7P, Tutuyan, Kec. Tutuyan, Kabupaten Bolaang Mongondow Timur, Sulawesi Utara","Kabupaten Bolaang Mongondow Timur, Sulawesi Utara",SULAWESI UTARA,,Indonesia,82145762479.0,,,0.7587111,124.613194,https://maps.google.com/?cid=0x0:0xa30e520eb8260e41,
hardware store,Toko Perlengkapan Rumah,TB. Favor Portalindo,"Jl. Ratahan - Kotamobagu, Tombolikat Sel., Kec. Tutuyan, Kabupaten Bolaang Mongondow Timur, Sulawesi Utara","Kabupaten Bolaang Mongondow Timur, Sulawesi Utara",SULAWESI UTARA,,Indonesia,8114340200.0,,,0.7729667,124.6182163,https://maps.google.com/?cid=0x0:0x569502223eea660f,
hardware store,Pusat Perbelanjaan,Goomsite,"Tutuyan, Kec. Tutuyan, Kabupaten Bolaang Mongondow Timur, Sulawesi Utara 95783","Kec. Tutuyan, Kabupaten Bolaang Mongondow Timur",SULAWESI UTARA,95783.0,Indonesia,81241105658.0,,,0.7551489,124.6161296,https://maps.google.com/?cid=0x0:0xe746eeddcb027afb,
hardware store,Toko Bahan Bangunan,Toko Sinar Jaya,"QJ46+2QV, Jl. Ratahan - Kotamobagu, Tutuyan II, Kec. Tutuyan, Kabupaten Bolaang Mongondow Timur, Sulawesi Utara","Kabupaten Bolaang Mongondow Timur, Sulawesi Utara",SULAWESI UTARA,,Indonesia,81384131224.0,,,0.7551095,124.6119365,https://maps.google.com/?cid=0x0:0x2c4bfbf4794c3b58,
hardware store,Minimarket,Indomaret Tutuyan,"QJ46+QW9, Tutuyan, Kec. Tutuyan, Kabupaten Bolaang Mongondow Timur, Sulawesi Utara","Kabupaten Bolaang Mongondow Timur, Sulawesi Utara",SULAWESI UTARA,,Indonesia,,,,0.7569176,124.6123514,https://maps.google.com/?cid=0x0:0x55f657a553cfecdd,
hardware store,Minimarket,Alfamart,"Jl. Trans Sulawesi, Togid, Kec. Tutuyan, Kabupaten Bolaang Mongondow Timur, Sulawesi Utara 95782","Togid, Kec. Tutuyan, Kabupaten Bolaang Mongondow Timur",SULAWESI UTARA,95782.0,Indonesia,1500959.0,,,0.7495209,124.610138,https://maps.google.com/?cid=0x0:0xee8e6f9df36703e6,
hardware store,Kantor Pemerintah,Kantor Camat Tutuyan,"QJ57+QMR, Tutuyan, Kec. Tutuyan, Kabupaten Bolaang Mongondow Timur, Sulawesi Utara","Kabupaten Bolaang Mongondow Timur, Sulawesi Utara",SULAWESI UTARA,,Indonesia,,,,0.7594996,124.6141273,https://maps.google.com/?cid=0x0:0x183cfffcd9582965,
hardware store,Komplek perumahan,Tutuyan lll,"QJ39+PGV, Tutuyan III, Kec. Tutuyan, Kabupaten Bolaang Mongondow Timur, Sulawesi Utara","Kabupaten Bolaang Mongondow Timur, Sulawesi Utara",SULAWESI UTARA,,Indonesia,,,,0.7544573,124.6183543,https://maps.google.com/?cid=0x0:0x63f96cdf79e48399,
home improvement,Pembangunan Perumahan,Prince Home,"QC9X+VQH, Guaan, Kec. Modayag, Kabupaten Bolaang Mongondow Timur, Sulawesi Utara","Kabupaten Bolaang Mongondow Timur, Sulawesi Utara",SULAWESI UTARA,,Indonesia,,,,0.7696756,124.4494755,https://maps.google.com/?cid=0x0:0xd57e159223cd39b,
home improvement,Komplek perumahan,Tempat tinggal,"QC7V+PCX, Bongkudai Baru, Kec. Modayag, Kabupaten Bolaang Mongondow Timur, Sulawesi Utara","Kabupaten Bolaang Mongondow Timur, Sulawesi Utara",SULAWESI UTARA,,Indonesia,,,,0.7643602,124.4436003,https://maps.google.com/?cid=0x0:0x4038dab1b4235e06,
home improvement,home improvement,Kec. Modayag,"Kabupaten Bolaang Mongondow Timur, Sulawesi Utara","Kabupaten Bolaang Mongondow Timur, Sulawesi Utara",SULAWESI UTARA,,Indonesia,,,,0.7084236,124.3864248,https://maps.google.com/?cid=0x0:0xc881d84722502f21,
home improvement,Komplek perumahan,PT. MYFURNITURE AND BUILDING,"MGH8+CPJ, Atoga, Kec. Nuangan, Kabupaten Bolaang Mongondow Timur, Sulawesi Utara 95782","Atoga, Kec. Nuangan, Kabupaten Bolaang Mongondow Timur",SULAWESI UTARA,95782.0,Indonesia,82260579183.0,,,0.6784779,124.5170873,https://maps.google.com/?cid=0x0:0xc9144d9f30975ff6,
home improvement,Rumah Kayu,Mita Home,"P95M+GRQ, induk Lorong bioskop, Modayag, Kec. Modayag, Kabupaten Bolaang Mongondow Timur, Sulawesi Utara","Kabupaten Bolaang Mongondow Timur, Sulawesi Utara",SULAWESI UTARA,,Indonesia,,,,0.7088375,124.3846094,https://maps.google.com/?cid=0x0:0x91e50266e0e13ca3,
home improvement,Bed >>u0026 Breakfast,AJI HOME,"P97H+8GJ, Bongkudai, Kec. Modayag Bar., Kabupaten Bolaang Mongondow Timur, Sulawesi Utara","Kabupaten Bolaang Mongondow Timur, Sulawesi Utara",SULAWESI UTARA,,Indonesia,85298274501.0,,,0.7133356,124.3787776,https://maps.google.com/?cid=0x0:0x5d0d9dddc3b5dcdf,
home improvement,Hotel,FII HOME,"P97H+2MR, Bongkudai, Kec. Modayag, Kabupaten Bolaang Mongondow Timur, Sulawesi Utara","Kabupaten Bolaang Mongondow Timur, Sulawesi Utara",SULAWESI UTARA,,Indonesia,,,,0.7126136,124.379147,https://maps.google.com/?cid=0x0:0x392a818d29dd6312,
home improvement,Toko Perlengkapan Rumah,Home salsa,"P97J+F92, Modayag II, Kec. Modayag, Kabupaten Bolaang Mongondow Timur, Sulawesi Utara","Kabupaten Bolaang Mongondow Timur, Sulawesi Utara",SULAWESI UTARA,,Indonesia,85757358968.0,,,0.7136408,124.3808771,https://maps.google.com/?cid=0x0:0x30830fec5ec60835,
home improvement,Komplek perumahan,AR HOME,"QC8R+FQQ, Bongkudai Baru, Kec. Modayag, Kabupaten Bolaang Mongondow Timur, Sulawesi Utara","Kabupaten Bolaang Mongondow Timur, Sulawesi Utara",SULAWESI UTARA,,Indonesia,,,,0.76614,124.4420206,https://maps.google.com/?cid=0x0:0x4af09351cf7a9971,
home improvement,Rumah Kayu,Home Imaa,"VCQ5+PCP, Jl suplir, dusun 4, Saleo Satu, Kec. Bolang Itang Tim., Kabupaten Bolaang Mongondow Utara, Sulawesi Utara","Kabupaten Bolaang Mongondow Utara, Sulawesi Utara",SULAWESI UTARA,,Indonesia,,,,0.88933,123.4085788,https://maps.google.com/?cid=0x0:0x8153c51dd86923f9,
home improvement,Rumah wisata,ATIR HOME,"P97M+384, Modayag II, Kec. Modayag, Kabupaten Bolaang Mongondow Timur, Sulawesi Utara","Kabupaten Bolaang Mongondow Timur, Sulawesi Utara",SULAWESI UTARA,,Indonesia,,,,0.7126285,124.3833343,https://maps.google.com/?cid=0x0:0xff262f874bcb572e,
home improvement,Toko Perlengkapan Rumah,Tira - Homeliving Kotamobagu Resmi,"Jl. Yusuf Hasiru No.06, RT.02/RW.02, Kotabangon, Kec. Kotamobagu Tim., Kota Kotamobagu, Sulawesi Utara 95712","RT.02/RW.02, Kotabangon, Kec. Kotamobagu Tim., Kota Kotamobagu",SULAWESI UTARA,95712.0,Indonesia,82292006365.0,,,0.7405325,124.3200161,https://maps.google.com/?cid=0x0:0x1307456677eec450,
home improvement,Komplek perumahan,Lelly home,"P96M+W7R, Modayag II, Kec. Modayag, Kabupaten Bolaang Mongondow Timur, Sulawesi Utara","Kabupaten Bolaang Mongondow Timur, Sulawesi Utara",SULAWESI UTARA,,Indonesia,,,,0.712373,124.3831306,https://maps.google.com/?cid=0x0:0xc210f2d2c18ce6e9,
home improvement,Toko Kursi,Dike L Paat. Jasa pembuat Rumah dan Mebel.,"Atoga, Kec. Nuangan, Kabupaten Bolaang Mongondow Timur, Sulawesi Utara 95785","Kec. Nuangan, Kabupaten Bolaang Mongondow Timur",SULAWESI UTARA,95785.0,Indonesia,82316520268.0,,,0.6756442,124.5204662,https://maps.google.com/?cid=0x0:0xe2b0f7a87e35b1b9,
home improvement,home improvement,Kec. Modayag Bar.,"Kabupaten Bolaang Mongondow Timur, Sulawesi Utara","Kabupaten Bolaang Mongondow Timur, Sulawesi Utara",SULAWESI UTARA,,Indonesia,,,,0.7152891,124.372507,https://maps.google.com/?cid=0x0:0xfd0e11adc540e358,
home improvement,Rumah Kayu,Mita Home,"P95M+GRQ, induk Lorong bioskop, Modayag, Kec. Modayag, Kabupaten Bolaang Mongondow Timur, Sulawesi Utara","Kabupaten Bolaang Mongondow Timur, Sulawesi Utara",SULAWESI UTARA,,Indonesia,,,,0.7088375,124.3846094,https://maps.google.com/?cid=0x0:0x91e50266e0e13ca3,
home improvement,Toko Bahan Bangunan,Toko Usaha Bangunan,"Jalan Raya, Liberia, Kec. Modayag, Kabupaten Bolaang Mongondow Timur, Sulawesi Utara 95781","Liberia, Kec. Modayag, Kabupaten Bolaang Mongondow Timur",SULAWESI UTARA,95781.0,Indonesia,,,,0.7139293,124.3841074,https://maps.google.com/?cid=0x0:0x92166ed9588551f,
home improvement,Komplek perumahan,PT. MYFURNITURE AND BUILDING,"MGH8+CPJ, Atoga, Kec. Nuangan, Kabupaten Bolaang Mongondow Timur, Sulawesi Utara 95782","Atoga, Kec. Nuangan, Kabupaten Bolaang Mongondow Timur",SULAWESI UTARA,95782.0,Indonesia,82260579183.0,,,0.6784779,124.5170873,https://maps.google.com/?cid=0x0:0xc9144d9f30975ff6,
home improvement,Hotel,FII HOME,"P97H+2MR, Bongkudai, Kec. Modayag, Kabupaten Bolaang Mongondow Timur, Sulawesi Utara","Kabupaten Bolaang Mongondow Timur, Sulawesi Utara",SULAWESI UTARA,,Indonesia,,,,0.7126136,124.379147,https://maps.google.com/?cid=0x0:0x392a818d29dd6312,
home improvement,Rumah wisata,ATIR HOME,"P97M+384, Modayag II, Kec. Modayag, Kabupaten Bolaang Mongondow Timur, Sulawesi Utara","Kabupaten Bolaang Mongondow Timur, Sulawesi Utara",SULAWESI UTARA,,Indonesia,,,,0.7126285,124.3833343,https://maps.google.com/?cid=0x0:0xff262f874bcb572e,
home improvement,Komplek perumahan,Lelly home,"P96M+W7R, Modayag II, Kec. Modayag, Kabupaten Bolaang Mongondow Timur, Sulawesi Utara","Kabupaten Bolaang Mongondow Timur, Sulawesi Utara",SULAWESI UTARA,,Indonesia,,,,0.712373,124.3831306,https://maps.google.com/?cid=0x0:0xc210f2d2c18ce6e9,
home improvement,Komplek perumahan,AR HOME,"QC8R+FQQ, Bongkudai Baru, Kec. Modayag, Kabupaten Bolaang Mongondow Timur, Sulawesi Utara","Kabupaten Bolaang Mongondow Timur, Sulawesi Utara",SULAWESI UTARA,,Indonesia,,,,0.76614,124.4420206,https://maps.google.com/?cid=0x0:0x4af09351cf7a9971,
home improvement,home improvement,Sulawesi Utara 95775,"Modisi, Kec. Pinolosian Tim., Kabupaten Bolaang Mongondow Selatan, Sulawesi Utara","Kabupaten Bolaang Mongondow Selatan, Sulawesi Utara",SULAWESI UTARA,,Indonesia,,,,0.4528494,124.4356892,https://maps.google.com/?cid=0x0:0x5956b774c20081f1,
home improvement,Toko Bahan Bangunan,PRO AS HOME CENTER,"P7FR+WMJ, Mongondow, Kec. Kotamobagu Sel., Kota Kotamobagu, Sulawesi Utara 95716","Mongondow, Kec. Kotamobagu Sel., Kota Kotamobagu",SULAWESI UTARA,95716.0,Indonesia,,,,0.7325748,124.2949183,https://maps.google.com/?cid=0x0:0xdbd23c615ac9195c,
home improvement,Bed >>u0026 Breakfast,AJI HOME,"P97H+8GJ, Bongkudai, Kec. Modayag Bar., Kabupaten Bolaang Mongondow Timur, Sulawesi Utara","Kabupaten Bolaang Mongondow Timur, Sulawesi Utara",SULAWESI UTARA,,Indonesia,85298274501.0,,,0.7133356,124.3787776,https://maps.google.com/?cid=0x0:0x5d0d9dddc3b5dcdf,
home improvement,Komplek perumahan,Jun Home,"V7XH+WW3, Dusun 3, Kuala, Kec. Kaidipang, Kabupaten Bolaang Mongondow Utara, Sulawesi Utara","Kabupaten Bolaang Mongondow Utara, Sulawesi Utara",SULAWESI UTARA,,Indonesia,,,,0.8997627,123.2797873,https://maps.google.com/?cid=0x0:0xfb01081eaf5b6726,
home improvement,Toko umum,Nazwi' home,"GWXV+R24, Tumokang Baru, Kec. Dumoga Utara, Kabupaten Bolaang Mongondow, Sulawesi Utara","Kabupaten Bolaang Mongondow, Sulawesi Utara",SULAWESI UTARA,,Indonesia,,,,0.5495026,123.9425213,https://maps.google.com/?cid=0x0:0x3fb9c22ee2a10678,
home improvement,Toko Perlengkapan Rumah,Tira - Homeliving Kotamobagu Resmi,"Jl. Yusuf Hasiru No.06, RT.02/RW.02, Kotabangon, Kec. Kotamobagu Tim., Kota Kotamobagu, Sulawesi Utara 95712","RT.02/RW.02, Kotabangon, Kec. Kotamobagu Tim., Kota Kotamobagu",SULAWESI UTARA,95712.0,Indonesia,82292006365.0,,,0.7405325,124.3200161,https://maps.google.com/?cid=0x0:0x1307456677eec450,
home improvement,Toko Bahan Bangunan,VLXD KIU TRINH,". Bnh minh- Giang in, p Qung Ho - X, Trng Bom, ng Nai, Vietnam","Dong Nai, Vietnam",SULAWESI UTARA,,Indonesia,84785036456.0,,,10.938009,106.9812517,https://maps.google.com/?cid=0x0:0x45c76fb8bbb2eea9,
home improvement,Pemasok Bahan Bangunan,Vt Liu Xy Dng Quang Minh,"WXWQ+V43, Qung Tin, Trng Bom, ng Nai, Vietnam","Dong Nai, Vietnam",SULAWESI UTARA,,Indonesia,84378591483.0,,,10.9471424,106.9877815,https://maps.google.com/?cid=0x0:0xd9bfd6a05873d8ce,
home improvement,home improvement,Kec. Tutuyan,"Kabupaten Bolaang Mongondow Timur, Sulawesi Utara","Kabupaten Bolaang Mongondow Timur, Sulawesi Utara",SULAWESI UTARA,,Indonesia,,,,0.7567721,124.6124872,https://maps.google.com/?cid=0x0:0x736818cdb777053,
home improvement,Agen Gas Elpiji,Aini Home,"QJ26+66G, Togid, Kec. Tutuyan, Kabupaten Bolaang Mongondow Timur, Sulawesi Utara","Kabupaten Bolaang Mongondow Timur, Sulawesi Utara",SULAWESI UTARA,,Indonesia,85823021026.0,,,0.7505589,124.6105736,https://maps.google.com/?cid=0x0:0x15686f0ab9831c79,
home improvement,Komplek perumahan,PT. MYFURNITURE AND BUILDING,"MGH8+CPJ, Atoga, Kec. Nuangan, Kabupaten Bolaang Mongondow Timur, Sulawesi Utara 95782","Atoga, Kec. Nuangan, Kabupaten Bolaang Mongondow Timur",SULAWESI UTARA,95782.0,Indonesia,82260579183.0,,,0.6784779,124.5170873,https://maps.google.com/?cid=0x0:0xc9144d9f30975ff6,
home improvement,Komplek perumahan,Iyal Home,"QJ77+866, Lorong kampung baru, Dusun V, Tutuyan II, Kec. Tutuyan, Kabupaten Bolaang Mongondow Timur, Sulawesi Utara","Kabupaten Bolaang Mongondow Timur, Sulawesi Utara",SULAWESI UTARA,,Indonesia,,,,0.7632751,124.6130155,https://maps.google.com/?cid=0x0:0xa51d264a1228b941,
home improvement,Komplek perumahan,Home suci,"VGJF+9V4, Jl. Trans-Sulawesi, Bunong, Kec. Bintauna, Kabupaten Bolaang Mongondow Utara, Sulawesi Utara","Kabupaten Bolaang Mongondow Utara, Sulawesi Utara",SULAWESI UTARA,,Indonesia,85397217497.0,,,0.8810572,123.5245778,https://maps.google.com/?cid=0x0:0x7302778b2a10dfa0,
home improvement,Tempat Fitness,Home Tasya Lendeng,"Jl. Ratahan - Kotamobagu, Kayumoyondi, Kec. Tutuyan, Kabupaten Bolaang Mongondow Timur, Sulawesi Utara","Kabupaten Bolaang Mongondow Timur, Sulawesi Utara",SULAWESI UTARA,,Indonesia,,,,0.7907733,124.6249874,https://maps.google.com/?cid=0x0:0x104f3e49943d8546,
home improvement,Komplek perumahan,Home Nathanael Tontuli,"Q8CJ+GCH, Pangian Bar., Kec. Passi Tim., Kabupaten Bolaang Mongondow, Sulawesi Utara","Kabupaten Bolaang Mongondow, Sulawesi Utara",SULAWESI UTARA,,Indonesia,,,,0.771311,124.3311209,https://maps.google.com/?cid=0x0:0xc68844e37924357f,
home improvement,Pembangunan Perumahan,Prince Home,"QC9X+VQH, Guaan, Kec. Modayag, Kabupaten Bolaang Mongondow Timur, Sulawesi Utara","Kabupaten Bolaang Mongondow Timur, Sulawesi Utara",SULAWESI UTARA,,Indonesia,,,,0.7696756,124.4494755,https://maps.google.com/?cid=0x0:0xd57e159223cd39b,
home improvement,Pusat Bisnis,Kanopi Pratama Tutuyan,"QJ67+JJ9, Tutuyan, Kec. Tutuyan, Kabupaten Bolaang Mongondow Timur, Sulawesi Utara","Kabupaten Bolaang Mongondow Timur, Sulawesi Utara",SULAWESI UTARA,,Indonesia,82189605280.0,,,0.7615254,124.6141192,https://maps.google.com/?cid=0x0:0x2a529cc15cc701a7,
home improvement,Toko Kursi,Dike L Paat. Jasa pembuat Rumah dan Mebel.,"Atoga, Kec. Nuangan, Kabupaten Bolaang Mongondow Timur, Sulawesi Utara 95785","Kec. Nuangan, Kabupaten Bolaang Mongondow Timur",SULAWESI UTARA,95785.0,Indonesia,82316520268.0,,,0.6756442,124.5204662,https://maps.google.com/?cid=0x0:0xe2b0f7a87e35b1b9,
home improvement,Toko Bahan Bangunan,Toko Karya Kirana,"QJ57+F7P, Tutuyan, Kec. Tutuyan, Kabupaten Bolaang Mongondow Timur, Sulawesi Utara","Kabupaten Bolaang Mongondow Timur, Sulawesi Utara",SULAWESI UTARA,,Indonesia,82145762479.0,,,0.7587111,124.613194,https://maps.google.com/?cid=0x0:0xa30e520eb8260e41,
