Category,Real Category,Business Name,Address,City,State,Postal Code,Country,Phone,Email,Website,Latitude,Longitude,Map Link,Details Link
mall,mall,Kotabunan,"Kabupaten Bolaang Mongondow Timur, Sulawesi Utara","Kabupaten Bolaang Mongondow Timur, Sulawesi Utara",SULAWESI UTARA,,Indonesia,,,,0.8554519,124.6192702,https://maps.google.com/?cid=0x0:0x94bb77bfbc3242eb,
mall,Pusat Perbelanjaan,Indomaret Buyat,"VM4V+27C, Buyat II, Kotabunan, Kabupaten Bolaang Mongondow Timur, Sulawesi Utara","Kabupaten Bolaang Mongondow Timur, Sulawesi Utara",SULAWESI UTARA,,Indonesia,,,,0.8550738,124.6931562,https://maps.google.com/?cid=0x0:0xe89d23c6c86ac0a3,
mall,Pusat Perbelanjaan,Alfamart Buyat,"VM3V+W88, Jl. Ratahan - Kotamobagu, Buyat I, Kotabunan, Kabupaten Bolaang Mongondow Timur, Sulawesi Utara","Kabupaten Bolaang Mongondow Timur, Sulawesi Utara",SULAWESI UTARA,,Indonesia,,,,0.8547863,124.6933286,https://maps.google.com/?cid=0x0:0x8828b0a0196f036,
mall,Pusat Perbelanjaan,Warung Marlon,"QJXJ+33F, Paret, Kotabunan, Kabupaten Bolaang Mongondow Timur, Sulawesi Utara","Kabupaten Bolaang Mongondow Timur, Sulawesi Utara",SULAWESI UTARA,,Indonesia,81342197837.0,,,0.7976836,124.6301759,https://maps.google.com/?cid=0x0:0x5a95941f467b5005,
mall,Pusat Perbelanjaan,FRM STUDIO/PulsaPercetakan,"QJWJ+G7W, Jl. Ratahan - Kotamobagu, Paret, Kotabunan, Kabupaten Bolaang Mongondow Timur, Sulawesi Utara","Kabupaten Bolaang Mongondow Timur, Sulawesi Utara",SULAWESI UTARA,,Indonesia,,,,0.7963565,124.6306978,https://maps.google.com/?cid=0x0:0xd3f04ac21503fb55,
mall,Kantor Perusahaan,Aglonema Boltim,"Perum Kharisma, Paret, Blok D-10, Paret, Kotabunan, Kabupaten Bolaang Mongondow Timur, Sulawesi Utara","Kabupaten Bolaang Mongondow Timur, Sulawesi Utara",SULAWESI UTARA,,Indonesia,85244445130.0,,,0.7972675,124.6347785,https://maps.google.com/?cid=0x0:0xe0de22cc1342be1c,
mall,Minimarket,Alfamart Kotabunan,"Jl. Trans Sulawesi Selatan, Kotabunan, Kabupaten Bolaang Mongondow Timur, Sulawesi Utara 95782","Kotabunan, Kabupaten Bolaang Mongondow Timur",SULAWESI UTARA,95782.0,Indonesia,1500959.0,,,0.806819,124.6549552,https://maps.google.com/?cid=0x0:0xb83e212af4be0501,
mall,Pusat Perbelanjaan,warung LEE,"QJWH+PJG, Unnamed Road, Paret, Kotabunan, Kabupaten Bolaang Mongondow Timur, Sulawesi Utara","Kabupaten Bolaang Mongondow Timur, Sulawesi Utara",SULAWESI UTARA,,Indonesia,85298373787.0,,,0.7968165,124.6290784,https://maps.google.com/?cid=0x0:0x71d20ba5beb03fb2,
mall,Pusat Perbelanjaan,Toko Ismail Apande,"RM64+7JC, Kotabunan, Kabupaten Bolaang Mongondow Timur, Sulawesi Utara","Kabupaten Bolaang Mongondow Timur, Sulawesi Utara",SULAWESI UTARA,,Indonesia,,,,0.8106901,124.65653,https://maps.google.com/?cid=0x0:0x6fa7f5fa0316dfef,
mall,Pusat Perbelanjaan,Kios David,"RM63+FJX, Kotabunan, Kabupaten Bolaang Mongondow Timur, Sulawesi Utara","Kabupaten Bolaang Mongondow Timur, Sulawesi Utara",SULAWESI UTARA,,Indonesia,,,,0.8112304,124.6541131,https://maps.google.com/?cid=0x0:0x1481f981cf24a1e4,
mall,Pusat Perbelanjaan,Ghea Kosmetic,"QJJC+VP8, Jl. Ratahan - Kotamobagu, Tombolikat, Kec. Tutuyan, Kabupaten Bolaang Mongondow Timur, Sulawesi Utara","Kabupaten Bolaang Mongondow Timur, Sulawesi Utara",SULAWESI UTARA,,Indonesia,85298155544.0,,,0.7821613,124.6218355,https://maps.google.com/?cid=0x0:0xd5c72680409baa19,
mall,Pasar tradisional,Kios Rizky Ratatotok,"VPF2+3R8, Jl. Ratahan - Kotamobagu, Ratatotok Tengah, Kec. Ratatotok, Kabupaten Minahasa Tenggara, Sulawesi Utara 95997","Jl. Ratahan - Kotamobagu, Ratatotok Tengah, Kec. Ratatotok, Kabupaten Minahasa Tenggara",SULAWESI UTARA,95997.0,Indonesia,85397292144.0,,,0.8726599,124.7020734,https://maps.google.com/?cid=0x0:0xa44ec304986dcf59,
mall,Pusat Perbelanjaan,Manado Town Square,"Jl. Piere Tendean, Kota Manado, Sulawesi Utara 95114",Kota Manado,SULAWESI UTARA,95114.0,Indonesia,,,,1.4723227,124.8319485,https://maps.google.com/?cid=0x0:0xea03227619d4f862,
mall,Pasar,Pasar Tutuyan,"QJ4C+4CR, Tutuyan, Kec. Tutuyan, Kabupaten Bolaang Mongondow Timur, Sulawesi Utara","Kabupaten Bolaang Mongondow Timur, Sulawesi Utara",SULAWESI UTARA,,Indonesia,,,,0.7553619,124.6210113,https://maps.google.com/?cid=0x0:0xecc03dd9719e9fca,
mall,Bank,Bank SulutGo KK Kotabunan,"RM54+JWR, Kompleks Pasar, Jl. Trans Sulawesi Lkr. Sel., Kotabunan, Kabupaten Bolaang Mongondow Timur, Sulawesi Utara 95782","Kompleks Pasar, Jl. Trans Sulawesi Lkr. Sel., Kotabunan, Kabupaten Bolaang Mongondow Timur",SULAWESI UTARA,95782.0,Indonesia,4318819779.0,,,0.8091179,124.6572771,https://maps.google.com/?cid=0x0:0x2e33e1fb204b74b3,
mall,Pusat Perbelanjaan,Pusat Pengolahan Cakalang Fufu,"VP85+GGX, Laut, Maluku 95997",Laut,SULAWESI UTARA,95997.0,Indonesia,,,,0.866357,124.7088524,https://maps.google.com/?cid=0x0:0xb429312b4db76a89,
mall,Toko Perlengkapan Rumah,meubel fajar pagi,"Tombolikat Sel., Kec. Tutuyan, Kabupaten Bolaang Mongondow Timur, Sulawesi Utara","Kabupaten Bolaang Mongondow Timur, Sulawesi Utara",SULAWESI UTARA,,Indonesia,82393171544.0,,,0.7747938,124.6206026,https://maps.google.com/?cid=0x0:0x8199a4dfd1d9b661,
mall,Komplek perumahan,Iyal Home,"QJ77+866, Lorong kampung baru, Dusun V, Tutuyan II, Kec. Tutuyan, Kabupaten Bolaang Mongondow Timur, Sulawesi Utara","Kabupaten Bolaang Mongondow Timur, Sulawesi Utara",SULAWESI UTARA,,Indonesia,,,,0.7632751,124.6130155,https://maps.google.com/?cid=0x0:0xa51d264a1228b941,
mall,Toko,Ratih-DISTRIBUTOR KK INDONESIA-RATATOTOK,"VPC2+59V, Ratatotok, Kec. Ratatotok, Kabupaten Minahasa Tenggara, Sulawesi Utara 95997","Ratatotok, Kec. Ratatotok, Kabupaten Minahasa Tenggara",SULAWESI UTARA,95997.0,Indonesia,85240599998.0,,,0.8704784,124.7009101,https://maps.google.com/?cid=0x0:0xf55c752b30b68551,
mall,Pasar,PERTIGAAN PASAR TUTUYAN,"QJ77+MRM, Tutuyan III, Kec. Tutuyan, Kabupaten Bolaang Mongondow Timur, Sulawesi Utara","Kabupaten Bolaang Mongondow Timur, Sulawesi Utara",SULAWESI UTARA,,Indonesia,,,,0.7642091,124.6145529,https://maps.google.com/?cid=0x0:0x73e2f904dd2a7219,
mall,Kantor Pemerintah,Kotabunan selatan,"VJ49+5PJ, Bukaka, Kotabunan, Kabupaten Bolaang Mongondow Timur, Sulawesi Utara","Kabupaten Bolaang Mongondow Timur, Sulawesi Utara",SULAWESI UTARA,,Indonesia,,,,0.8554519,124.6192702,https://maps.google.com/?cid=0x0:0xe49aca0882a3a649,
mall,Perhimpunan Pengembang Perumahan,Kotabunan Barat,"Jl. Tangkudeagan, Kotabunan, Kabupaten Bolaang Mongondow Timur, Sulawesi Utara","Kabupaten Bolaang Mongondow Timur, Sulawesi Utara",SULAWESI UTARA,,Indonesia,82346551981.0,,,0.8100736,124.6506657,https://maps.google.com/?cid=0x0:0x577205976c9207f5,
mall,Pusat Perbelanjaan,Megamall Manado,"Kawasan Megamas, Kantor Pengelola Megamall, Jl. Piere Tendean, Wenang Sel., Kec. Wenang, Kota Manado, Sulawesi Utara 95234","Kantor Pengelola Megamall, Jl. Piere Tendean, Wenang Sel., Kec. Wenang, Kota Manado",SULAWESI UTARA,95234.0,Indonesia,431879889.0,,,1.4839687,124.8348372,https://maps.google.com/?cid=0x0:0xfcc9b9fa2283700,
mall,Toko Perbaikan Ponsel,Panang,"RJGW+C27, Kotabunan, Kabupaten Bolaang Mongondow Timur, Sulawesi Utara","Kabupaten Bolaang Mongondow Timur, Sulawesi Utara",SULAWESI UTARA,,Indonesia,,,,0.8260415,124.6450375,https://maps.google.com/?cid=0x0:0x25eb84c71449159a,
mall,Sekolah Dasar,SD Negeri 2 Kotabunan,"Kotabunan, Kabupaten Bolaang Mongondow Timur, Sulawesi Utara","Kabupaten Bolaang Mongondow Timur, Sulawesi Utara",SULAWESI UTARA,,Indonesia,,,,0.8103443,124.6536964,https://maps.google.com/?cid=0x0:0x19be9bad9d140532,
mall,mall,Kec. Modayag,"Kabupaten Bolaang Mongondow Timur, Sulawesi Utara","Kabupaten Bolaang Mongondow Timur, Sulawesi Utara",SULAWESI UTARA,,Indonesia,,,,0.7084236,124.3864248,https://maps.google.com/?cid=0x0:0xc881d84722502f21,
mall,Toko Pakaian,Intan Pratiwhy,"Dusun 3, Liberia Tim., Kec. Modayag, Kabupaten Bolaang Mongondow Timur, Sulawesi Utara 95781","Liberia Tim., Kec. Modayag, Kabupaten Bolaang Mongondow Timur",SULAWESI UTARA,95781.0,Indonesia,88247260172.0,,,0.7201266,124.3913844,https://maps.google.com/?cid=0x0:0x2c6d149f3da491f4,
mall,Pusat Perbelanjaan,Kios De' Vie,"P9C7+2HQ, Bangunan Wuwuk, Kec. Modayag Bar., Kabupaten Bolaang Mongondow Timur, Sulawesi Utara","Kabupaten Bolaang Mongondow Timur, Sulawesi Utara",SULAWESI UTARA,,Indonesia,,,,0.7200888,124.3639764,https://maps.google.com/?cid=0x0:0xf4e6cf8ff921963e,
mall,Toko Pakaian,Veetha Collection,"P94R+J2V, Jl. Ratahan - Kotamobagu, Modayag III, Kec. Modayag, Kabupaten Bolaang Mongondow Timur, Sulawesi Utara","Kabupaten Bolaang Mongondow Timur, Sulawesi Utara",SULAWESI UTARA,,Indonesia,,,,0.7067066,124.3900475,https://maps.google.com/?cid=0x0:0x160f7edba90b3241,
mall,Pusat Perbelanjaan,UD QREATIVE MANDIRI FC,"P97H+738 Bar, Bongkudai, Kec. Modayag Bar., Kabupaten Bolaang Mongondow Timur, Sulawesi Utara","Kabupaten Bolaang Mongondow Timur, Sulawesi Utara",SULAWESI UTARA,,Indonesia,85757822989.0,,,0.7131568,124.377717,https://maps.google.com/?cid=0x0:0xc3047dcbb1e3e77,
mall,Pusat Perbelanjaan,Kios emes,"P9C7+767, Bangunan Wuwuk, Kec. Modayag Bar., Kabupaten Bolaang Mongondow Timur, Sulawesi Utara","Kabupaten Bolaang Mongondow Timur, Sulawesi Utara",SULAWESI UTARA,,Indonesia,82196410800.0,,,0.7206537,124.3630561,https://maps.google.com/?cid=0x0:0x5d5c47927a787693,
mall,Pusat Perbelanjaan,Counter dhex,"P9J3+6WM, Jl. Trans Sulawesi Desa Moyongkota, Moyongkota Baru, Kec. Modayag Bar., Kabupaten Bolaang Mongondow Timur, Sulawesi Utara","Kabupaten Bolaang Mongondow Timur, Sulawesi Utara",SULAWESI UTARA,,Indonesia,,,,0.7305757,124.3547952,https://maps.google.com/?cid=0x0:0xb9ec2bea7d4d6a1a,
mall,Minimarket,Alfamart.Bongkudai Utara,"QC8V+5FW, Bongkudai Utara, Kec. Modayag, Kabupaten Bolaang Mongondow Timur, Sulawesi Utara","Kabupaten Bolaang Mongondow Timur, Sulawesi Utara",SULAWESI UTARA,,Indonesia,,,,0.7654895,124.4436898,https://maps.google.com/?cid=0x0:0x7bb1dfde91c5910d,
mall,Kios,Kios Saprodi,"QC9X+H9C, Guaan, Kec. Modayag, Kabupaten Bolaang Mongondow Timur, Sulawesi Utara","Kabupaten Bolaang Mongondow Timur, Sulawesi Utara",SULAWESI UTARA,,Indonesia,82343043824.0,,,0.7689466,124.4483857,https://maps.google.com/?cid=0x0:0x16753bb587b4299a,
mall,Minimarket,Warung INDAH,"Purworejo, Kec. Modayag, Kabupaten Bolaang Mongondow Timur, Sulawesi Utara","Kabupaten Bolaang Mongondow Timur, Sulawesi Utara",SULAWESI UTARA,,Indonesia,,,,0.7123975,124.3911593,https://maps.google.com/?cid=0x0:0x2e2a2317b5559311,
mall,Toko,Irvy-DISTRIBUTOR KK INDONESIA-MODAYAG,"Jl. Ratahan - Kotamobagu No.8000, Bangunan Wuwuk, Kec. Modayag Bar., Kabupaten Bolaang Mongondow Timur, Sulawesi Utara","Kabupaten Bolaang Mongondow Timur, Sulawesi Utara",SULAWESI UTARA,,Indonesia,82349001494.0,,,0.7242248,124.3594508,https://maps.google.com/?cid=0x0:0xce79d326ebd54d2b,
mall,Toko Pakaian,Husnul Khotimah,"Jl. Mawar No.2, Purworejo Tim., Kec. Modayag, Kabupaten Bolaang Mongondow Timur, Sulawesi Utara","Kabupaten Bolaang Mongondow Timur, Sulawesi Utara",SULAWESI UTARA,,Indonesia,83110405853.0,,,0.712344,124.399191,https://maps.google.com/?cid=0x0:0x4fd2a4e61a71e3f3,
mall,Pusat Perbelanjaan,Kedai Sayur Purworejo,"Purworejo Tim., Kec. Modayag, Kabupaten Bolaang Mongondow Timur, Sulawesi Utara","Kabupaten Bolaang Mongondow Timur, Sulawesi Utara",SULAWESI UTARA,,Indonesia,81242200419.0,,,0.713062,124.397805,https://maps.google.com/?cid=0x0:0xb5beb0b11592e62f,
mall,Toko umum,Lapak sayur chila,"P97V+8W2, Purworejo Tim., Kec. Modayag, Kabupaten Bolaang Mongondow Timur, Sulawesi Utara","Kabupaten Bolaang Mongondow Timur, Sulawesi Utara",SULAWESI UTARA,,Indonesia,,,,0.7132623,124.3947611,https://maps.google.com/?cid=0x0:0x8c13dae6a327eeab,
mall,Kantor Perusahaan,Litecoin,"P97C+G9X, Bongkudai Bar., Kec. Modayag Bar., Kabupaten Bolaang Mongondow Timur, Sulawesi Utara","Kabupaten Bolaang Mongondow Timur, Sulawesi Utara",SULAWESI UTARA,,Indonesia,,,,0.7138609,124.3709972,https://maps.google.com/?cid=0x0:0xd58c3b80123ca4e2,
mall,Minimarket,Kios Bajiki lanut,"MF29+P28, Jl. Ratahan - Kotamobagu, Lanut, Kec. Modayag, Kabupaten Bolaang Mongondow Timur, Sulawesi Utara","Kabupaten Bolaang Mongondow Timur, Sulawesi Utara",SULAWESI UTARA,,Indonesia,,,,0.6517853,124.4675757,https://maps.google.com/?cid=0x0:0x55e12f5caa565fd5,
mall,Toko,KIOS ILHAM,"P97F+MVR, Jl. Ratahan - Kotamobagu, Bongkudai, Kec. Modayag Bar., Kabupaten Bolaang Mongondow Timur, Sulawesi Utara","Kabupaten Bolaang Mongondow Timur, Sulawesi Utara",SULAWESI UTARA,,Indonesia,,,,0.7142377,124.3746488,https://maps.google.com/?cid=0x0:0xb2b2ab3c6dfb4029,
mall,Toko umum,Kios AL vikram,"P97W+7G3, Jl. Amurang - Kotamobagu, Purworejo Tim., Kec. Modayag, Kabupaten Bolaang Mongondow Timur, Sulawesi Utara","Kabupaten Bolaang Mongondow Timur, Sulawesi Utara",SULAWESI UTARA,,Indonesia,,,,0.713148,124.3962876,https://maps.google.com/?cid=0x0:0x4137d75a90856928,
mall,Minimarket,Kios zalfa zenar,"P9M3+867, Moyongkota Baru, Kec. Modayag Bar., Kabupaten Bolaang Mongondow Timur, Sulawesi Utara","Kabupaten Bolaang Mongondow Timur, Sulawesi Utara",SULAWESI UTARA,,Indonesia,89532140828.0,,,0.7332839,124.3530454,https://maps.google.com/?cid=0x0:0x94735d6a54f7e490,
mall,Komplek perumahan,Pangkalan Gas Teddy Mongilala,"P9J2+WPJ, Moyongkota Baru, Kec. Modayag Bar., Kabupaten Bolaang Mongondow Timur, Sulawesi Utara","Kabupaten Bolaang Mongondow Timur, Sulawesi Utara",SULAWESI UTARA,,Indonesia,,,,0.7323493,124.3517545,https://maps.google.com/?cid=0x0:0x770f7cbd69a9d259,
mall,Toko,CECEP DINAR CELL,"P9FM+7F2, Unnamed Road, Liberia, Kec. Modayag, Kabupaten Bolaang Mongondow Timur, Sulawesi Utara","Kabupaten Bolaang Mongondow Timur, Sulawesi Utara",SULAWESI UTARA,,Indonesia,81343856528.0,,,0.7231383,124.3836543,https://maps.google.com/?cid=0x0:0xfa1b9327050a38a5,
mall,mall,Kec. Modayag Bar.,"Kabupaten Bolaang Mongondow Timur, Sulawesi Utara","Kabupaten Bolaang Mongondow Timur, Sulawesi Utara",SULAWESI UTARA,,Indonesia,,,,0.7152891,124.372507,https://maps.google.com/?cid=0x0:0xfd0e11adc540e358,
mall,Pusat Perbelanjaan,Kios De' Vie,"P9C7+2HQ, Bangunan Wuwuk, Kec. Modayag Bar., Kabupaten Bolaang Mongondow Timur, Sulawesi Utara","Kabupaten Bolaang Mongondow Timur, Sulawesi Utara",SULAWESI UTARA,,Indonesia,,,,0.7200888,124.3639764,https://maps.google.com/?cid=0x0:0xf4e6cf8ff921963e,
mall,Toko Pakaian,Intan Pratiwhy,"Dusun 3, Liberia Tim., Kec. Modayag, Kabupaten Bolaang Mongondow Timur, Sulawesi Utara 95781","Liberia Tim., Kec. Modayag, Kabupaten Bolaang Mongondow Timur",SULAWESI UTARA,95781.0,Indonesia,88247260172.0,,,0.7201266,124.3913844,https://maps.google.com/?cid=0x0:0x2c6d149f3da491f4,
mall,Pusat Perbelanjaan,Kios emes,"P9C7+767, Bangunan Wuwuk, Kec. Modayag Bar., Kabupaten Bolaang Mongondow Timur, Sulawesi Utara","Kabupaten Bolaang Mongondow Timur, Sulawesi Utara",SULAWESI UTARA,,Indonesia,82196410800.0,,,0.7206537,124.3630561,https://maps.google.com/?cid=0x0:0x5d5c47927a787693,
mall,Pusat Perbelanjaan,Counter dhex,"P9J3+6WM, Jl. Trans Sulawesi Desa Moyongkota, Moyongkota Baru, Kec. Modayag Bar., Kabupaten Bolaang Mongondow Timur, Sulawesi Utara","Kabupaten Bolaang Mongondow Timur, Sulawesi Utara",SULAWESI UTARA,,Indonesia,,,,0.7305757,124.3547952,https://maps.google.com/?cid=0x0:0xb9ec2bea7d4d6a1a,
mall,Toko Pakaian,Veetha Collection,"P94R+J2V, Jl. Ratahan - Kotamobagu, Modayag III, Kec. Modayag, Kabupaten Bolaang Mongondow Timur, Sulawesi Utara","Kabupaten Bolaang Mongondow Timur, Sulawesi Utara",SULAWESI UTARA,,Indonesia,,,,0.7067066,124.3900475,https://maps.google.com/?cid=0x0:0x160f7edba90b3241,
mall,Toko,Irvy-DISTRIBUTOR KK INDONESIA-MODAYAG,"Jl. Ratahan - Kotamobagu No.8000, Bangunan Wuwuk, Kec. Modayag Bar., Kabupaten Bolaang Mongondow Timur, Sulawesi Utara","Kabupaten Bolaang Mongondow Timur, Sulawesi Utara",SULAWESI UTARA,,Indonesia,82349001494.0,,,0.7242248,124.3594508,https://maps.google.com/?cid=0x0:0xce79d326ebd54d2b,
mall,Kantor Perusahaan,Litecoin,"P97C+G9X, Bongkudai Bar., Kec. Modayag Bar., Kabupaten Bolaang Mongondow Timur, Sulawesi Utara","Kabupaten Bolaang Mongondow Timur, Sulawesi Utara",SULAWESI UTARA,,Indonesia,,,,0.7138609,124.3709972,https://maps.google.com/?cid=0x0:0xd58c3b80123ca4e2,
mall,Minimarket,Warung INDAH,"Purworejo, Kec. Modayag, Kabupaten Bolaang Mongondow Timur, Sulawesi Utara","Kabupaten Bolaang Mongondow Timur, Sulawesi Utara",SULAWESI UTARA,,Indonesia,,,,0.7123975,124.3911593,https://maps.google.com/?cid=0x0:0x2e2a2317b5559311,
mall,Pusat Perbelanjaan,Kedai Sayur Purworejo,"Purworejo Tim., Kec. Modayag, Kabupaten Bolaang Mongondow Timur, Sulawesi Utara","Kabupaten Bolaang Mongondow Timur, Sulawesi Utara",SULAWESI UTARA,,Indonesia,81242200419.0,,,0.713062,124.397805,https://maps.google.com/?cid=0x0:0xb5beb0b11592e62f,
mall,Toko umum,Lapak sayur chila,"P97V+8W2, Purworejo Tim., Kec. Modayag, Kabupaten Bolaang Mongondow Timur, Sulawesi Utara","Kabupaten Bolaang Mongondow Timur, Sulawesi Utara",SULAWESI UTARA,,Indonesia,,,,0.7132623,124.3947611,https://maps.google.com/?cid=0x0:0x8c13dae6a327eeab,
mall,Toko Pakaian,Husnul Khotimah,"Jl. Mawar No.2, Purworejo Tim., Kec. Modayag, Kabupaten Bolaang Mongondow Timur, Sulawesi Utara","Kabupaten Bolaang Mongondow Timur, Sulawesi Utara",SULAWESI UTARA,,Indonesia,83110405853.0,,,0.712344,124.399191,https://maps.google.com/?cid=0x0:0x4fd2a4e61a71e3f3,
mall,Toko,KIOS ILHAM,"P97F+MVR, Jl. Ratahan - Kotamobagu, Bongkudai, Kec. Modayag Bar., Kabupaten Bolaang Mongondow Timur, Sulawesi Utara","Kabupaten Bolaang Mongondow Timur, Sulawesi Utara",SULAWESI UTARA,,Indonesia,,,,0.7142377,124.3746488,https://maps.google.com/?cid=0x0:0xb2b2ab3c6dfb4029,
mall,Minimarket,Kios zalfa zenar,"P9M3+867, Moyongkota Baru, Kec. Modayag Bar., Kabupaten Bolaang Mongondow Timur, Sulawesi Utara","Kabupaten Bolaang Mongondow Timur, Sulawesi Utara",SULAWESI UTARA,,Indonesia,89532140828.0,,,0.7332839,124.3530454,https://maps.google.com/?cid=0x0:0x94735d6a54f7e490,
mall,Komplek perumahan,Pangkalan Gas Teddy Mongilala,"P9J2+WPJ, Moyongkota Baru, Kec. Modayag Bar., Kabupaten Bolaang Mongondow Timur, Sulawesi Utara","Kabupaten Bolaang Mongondow Timur, Sulawesi Utara",SULAWESI UTARA,,Indonesia,,,,0.7323493,124.3517545,https://maps.google.com/?cid=0x0:0x770f7cbd69a9d259,
mall,Toko Ponsel,Fimo Cell,"P9J3+MXV, Lorong paving, Moyongkota Baru, Kec. Modayag Bar., Kabupaten Bolaang Mongondow Timur, Sulawesi Utara","Kabupaten Bolaang Mongondow Timur, Sulawesi Utara",SULAWESI UTARA,,Indonesia,81543135513.0,,,0.7317283,124.3549258,https://maps.google.com/?cid=0x0:0xf69c438365ccb5df,
mall,Toko umum,Kios AL vikram,"P97W+7G3, Jl. Amurang - Kotamobagu, Purworejo Tim., Kec. Modayag, Kabupaten Bolaang Mongondow Timur, Sulawesi Utara","Kabupaten Bolaang Mongondow Timur, Sulawesi Utara",SULAWESI UTARA,,Indonesia,,,,0.713148,124.3962876,https://maps.google.com/?cid=0x0:0x4137d75a90856928,
mall,Toko,CECEP DINAR CELL,"P9FM+7F2, Unnamed Road, Liberia, Kec. Modayag, Kabupaten Bolaang Mongondow Timur, Sulawesi Utara","Kabupaten Bolaang Mongondow Timur, Sulawesi Utara",SULAWESI UTARA,,Indonesia,81343856528.0,,,0.7231383,124.3836543,https://maps.google.com/?cid=0x0:0xfa1b9327050a38a5,
mall,Kios,Kenar Cell  Althea Shop,"Jl. Ratahan - Kotamobagu, Modayag II, Kec. Modayag, Kabupaten Bolaang Mongondow Timur, Sulawesi Utara","Kabupaten Bolaang Mongondow Timur, Sulawesi Utara",SULAWESI UTARA,,Indonesia,82189054449.0,,,0.7117417,124.3808837,https://maps.google.com/?cid=0x0:0x18cfa3088c3ced67,
mall,Pusat Perbelanjaan,kios anis inaton,"P998+5X9, Jl. Ratahan - Kotamobagu, Bangunan Wuwuk, Kec. Modayag Bar., Kabupaten Bolaang Mongondow Timur, Sulawesi Utara","Kabupaten Bolaang Mongondow Timur, Sulawesi Utara",SULAWESI UTARA,,Indonesia,,,,0.7178751,124.3675967,https://maps.google.com/?cid=0x0:0x50040cb0029cfeda,
mall,mall,Sulawesi Utara 95775,"Modisi, Kec. Pinolosian Tim., Kabupaten Bolaang Mongondow Selatan, Sulawesi Utara","Kabupaten Bolaang Mongondow Selatan, Sulawesi Utara",SULAWESI UTARA,,Indonesia,,,,0.4528494,124.4356892,https://maps.google.com/?cid=0x0:0x5956b774c20081f1,
mall,Pusat Perbelanjaan,Kifran massi,"MHM7+9M2, Motongkad Utara, Kec. Nuangan, Kabupaten Bolaang Mongondow Timur, Sulawesi Utara","Kabupaten Bolaang Mongondow Timur, Sulawesi Utara",SULAWESI UTARA,,Indonesia,,,,0.6833775,124.564152,https://maps.google.com/?cid=0x0:0x533ac7619245c11a,
mall,Toko bahan makanan,Kios Barito Qiranna,"MG2M+FVH, Molobog, Kec. Nuangan, Kabupaten Bolaang Mongondow Timur, Sulawesi Utara","Kabupaten Bolaang Mongondow Timur, Sulawesi Utara",SULAWESI UTARA,,Indonesia,,,,0.6511781,124.5347396,https://maps.google.com/?cid=0x0:0xab2a72415cf4c103,
mall,Toserba,Nenacell,"V8V6+8H8, Jl. Trans-Sulawesi, Sonuo, Kec. Bolang Itang Bar., Kabupaten Bolaang Mongondow Utara, Sulawesi Utara","Kabupaten Bolaang Mongondow Utara, Sulawesi Utara",SULAWESI UTARA,,Indonesia,81242050905.0,,,0.8932817,123.3114597,https://maps.google.com/?cid=0x0:0x6f9cbd15bb8bcb3a,
mall,Kedai Pernak-pernik,Kios NINDi,"V47G+PFM, Langagon, Kec. Bolaang, Kabupaten Bolaang Mongondow, Sulawesi Utara","Kabupaten Bolaang Mongondow, Sulawesi Utara",SULAWESI UTARA,,Indonesia,82188513188.0,,,0.8643347,124.1261788,https://maps.google.com/?cid=0x0:0x616d1b3b9e6b3397,
mall,Pusat Perbelanjaan,Sulawesi Utara - Kotamobagu - Mongkonai,"P8F9+PXV BaseCamp Bikers Subuhan, Matali, Kec. Kotamobagu Tim., Kota Kotamobagu, Sulawesi Utara","Kota Kotamobagu, Sulawesi Utara",SULAWESI UTARA,,Indonesia,89681054774.0,,,0.7243733,124.3199316,https://maps.google.com/?cid=0x0:0x1928e837c01fdbeb,
mall,Pembangunan Perumahan,Bahu Mall,"FR6G+W4J, Bahu Mall, R.W., Jl. Wolter Monginsidi, Bahu, Malalayang, Manado City, North Sulawesi","Kota Manado, Sulawesi Utara",SULAWESI UTARA,,Indonesia,1500125.0,,,1.4623338,124.8252763,https://maps.google.com/?cid=0x0:0x75b15af9becce842,
mall,Minimarket,Alfamart Nuangan,"Jalan Trans Sulawesi, Lingkar Selatan, Nuangan I, Nuangan, East Bolaang Mongondow Regency, North Sulawesi 96775","Lingkar Selatan, Nuangan I, Nuangan, East Bolaang Mongondow Regency",SULAWESI UTARA,96775.0,Indonesia,1500959.0,,,0.5990832,124.5206666,https://maps.google.com/?cid=0x0:0xaaa8b0057087a653,
mall,Toko,", Toko Campuran","H3GH+Q9W, Pinonobatuan Bar., Kec. Dumoga Tim., Kabupaten Bolaang Mongondow, Sulawesi Utara","Kabupaten Bolaang Mongondow, Sulawesi Utara",SULAWESI UTARA,,Indonesia,,,,0.5777569,124.0779223,https://maps.google.com/?cid=0x0:0x78b6ab5a7386b794,
mall,Minimarket,Warung ARBANI,"PG9W+9WV, Motongkad Utara, Kec. Nuangan, Kabupaten Bolaang Mongondow Timur, Sulawesi Utara","Kabupaten Bolaang Mongondow Timur, Sulawesi Utara",SULAWESI UTARA,,Indonesia,,,,0.7184786,124.5473005,https://maps.google.com/?cid=0x0:0xdbe7de672ee1700d,
mall,Pusat Perbelanjaan,Manado Town Square,"Jl. Piere Tendean, Kota Manado, Sulawesi Utara 95114",Kota Manado,SULAWESI UTARA,95114.0,Indonesia,,,,1.4723227,124.8319485,https://maps.google.com/?cid=0x0:0xea03227619d4f862,
mall,Kios,KIOS NIAR,"Popodu, Kec. Bolaang Uki, Kabupaten Bolaang Mongondow Selatan, Sulawesi Utara","Kabupaten Bolaang Mongondow Selatan, Sulawesi Utara",SULAWESI UTARA,,Indonesia,82190879392.0,,,0.3788708,123.9862034,https://maps.google.com/?cid=0x0:0xf4443699df1b2a14,
mall,Kios,Kios Niken,"M53V+9RQ, Jl. Trans Sulawesi, Bombanon, Kec. Lolayan, Kabupaten Bolaang Mongondow, Sulawesi Utara","Kabupaten Bolaang Mongondow, Sulawesi Utara",SULAWESI UTARA,,Indonesia,,,,0.6534592,124.1946013,https://maps.google.com/?cid=0x0:0x18e709dc9fab0db6,
mall,Makanan Kecil,Kios Valencia,"QCWG+GP5, Tim, Insil Baru, Kec. Passi Tim., Kabupaten Bolaang Mongondow, Sulawesi Utara","Kabupaten Bolaang Mongondow, Sulawesi Utara",SULAWESI UTARA,,Indonesia,81523911587.0,,,0.7962546,124.4268475,https://maps.google.com/?cid=0x0:0xe011ee36a9e889e7,
mall,Pusat Perbelanjaan,kios NAZWA,"V9QG+GW7, Mokoditek, Kec. Bolang Itang Tim., Kabupaten Bolaang Mongondow Utara, Sulawesi Utara","Kabupaten Bolaang Mongondow Utara, Sulawesi Utara",SULAWESI UTARA,,Indonesia,82348001781.0,,,0.888788,123.3773018,https://maps.google.com/?cid=0x0:0x6766b80c48e00adc,
mall,Toko bahan makanan,Kios NiaNiello,"X6F3+V7Q, Dusun I, Mariri Lama, Kec. Poigar, Kabupaten Bolaang Mongondow, Sulawesi Utara","Kabupaten Bolaang Mongondow, Sulawesi Utara",SULAWESI UTARA,,Indonesia,,,,0.9747216,124.2032483,https://maps.google.com/?cid=0x0:0xd8b76a2ef3aea12b,
mall,Minimarket,Kios Bajiki lanut,"MF29+P28, Jl. Ratahan - Kotamobagu, Lanut, Kec. Modayag, Kabupaten Bolaang Mongondow Timur, Sulawesi Utara","Kabupaten Bolaang Mongondow Timur, Sulawesi Utara",SULAWESI UTARA,,Indonesia,,,,0.6517853,124.4675757,https://maps.google.com/?cid=0x0:0x55e12f5caa565fd5,
mall,Pasar,Motongkad Induk,"MHH7+XRF, Motongkad, Kec. Nuangan, Kabupaten Bolaang Mongondow Timur, Sulawesi Utara","Kabupaten Bolaang Mongondow Timur, Sulawesi Utara",SULAWESI UTARA,,Indonesia,82192749995.0,,,0.679943,124.5645336,https://maps.google.com/?cid=0x0:0x356ba2cc80791e77,
mall,Dapur Umum,Rumahnya Dawia,"MHJ7+MMP Rumahnya Dawia, Jl. Ratahan - Kotamobagu, Motongkad, Kec. Nuangan, Kabupaten Bolaang Mongondow Timur, Sulawesi Utara","Kabupaten Bolaang Mongondow Timur, Sulawesi Utara",SULAWESI UTARA,,Indonesia,,,,0.6817051,124.5642157,https://maps.google.com/?cid=0x0:0x1802f54f782f7c3f,
mall,mall,Kec. Tutuyan,"Kabupaten Bolaang Mongondow Timur, Sulawesi Utara","Kabupaten Bolaang Mongondow Timur, Sulawesi Utara",SULAWESI UTARA,,Indonesia,,,,0.7567721,124.6124872,https://maps.google.com/?cid=0x0:0x736818cdb777053,
mall,Pasar,Pasar Tutuyan,"QJ4C+4CR, Tutuyan, Kec. Tutuyan, Kabupaten Bolaang Mongondow Timur, Sulawesi Utara","Kabupaten Bolaang Mongondow Timur, Sulawesi Utara",SULAWESI UTARA,,Indonesia,,,,0.7553619,124.6210113,https://maps.google.com/?cid=0x0:0xecc03dd9719e9fca,
mall,Pasar,PERTIGAAN PASAR TUTUYAN,"QJ77+MRM, Tutuyan III, Kec. Tutuyan, Kabupaten Bolaang Mongondow Timur, Sulawesi Utara","Kabupaten Bolaang Mongondow Timur, Sulawesi Utara",SULAWESI UTARA,,Indonesia,,,,0.7642091,124.6145529,https://maps.google.com/?cid=0x0:0x73e2f904dd2a7219,
mall,Komplek perumahan,Iyal Home,"QJ77+866, Lorong kampung baru, Dusun V, Tutuyan II, Kec. Tutuyan, Kabupaten Bolaang Mongondow Timur, Sulawesi Utara","Kabupaten Bolaang Mongondow Timur, Sulawesi Utara",SULAWESI UTARA,,Indonesia,,,,0.7632751,124.6130155,https://maps.google.com/?cid=0x0:0xa51d264a1228b941,
mall,Pusat Perbelanjaan,FRM STUDIO/PulsaPercetakan,"QJWJ+G7W, Jl. Ratahan - Kotamobagu, Paret, Kotabunan, Kabupaten Bolaang Mongondow Timur, Sulawesi Utara","Kabupaten Bolaang Mongondow Timur, Sulawesi Utara",SULAWESI UTARA,,Indonesia,,,,0.7963565,124.6306978,https://maps.google.com/?cid=0x0:0xd3f04ac21503fb55,
mall,Pusat Perbelanjaan,Warung Marlon,"QJXJ+33F, Paret, Kotabunan, Kabupaten Bolaang Mongondow Timur, Sulawesi Utara","Kabupaten Bolaang Mongondow Timur, Sulawesi Utara",SULAWESI UTARA,,Indonesia,81342197837.0,,,0.7976836,124.6301759,https://maps.google.com/?cid=0x0:0x5a95941f467b5005,
mall,Toko Sepeda Motor,Bengkel Transmotor Tutuyan,"QJ67+CGH, Jalan Trans Sulawesi, Lingkar Selatan, Tutuyan, East Bolaang Mongondow Regency, North Sulawesi","Kabupaten Bolaang Mongondow Timur, Sulawesi Utara",SULAWESI UTARA,,Indonesia,85757161696.0,,,0.761057,124.6138717,https://maps.google.com/?cid=0x0:0x657d37f37c92ac43,
mall,Pusat Perbelanjaan,Goomsite,"Tutuyan, Kec. Tutuyan, Kabupaten Bolaang Mongondow Timur, Sulawesi Utara 95783","Kec. Tutuyan, Kabupaten Bolaang Mongondow Timur",SULAWESI UTARA,95783.0,Indonesia,81241105658.0,,,0.7551489,124.6161296,https://maps.google.com/?cid=0x0:0xe746eeddcb027afb,
mall,Pusat Perbelanjaan,Ghea Kosmetic,"QJJC+VP8, Jl. Ratahan - Kotamobagu, Tombolikat, Kec. Tutuyan, Kabupaten Bolaang Mongondow Timur, Sulawesi Utara","Kabupaten Bolaang Mongondow Timur, Sulawesi Utara",SULAWESI UTARA,,Indonesia,85298155544.0,,,0.7821613,124.6218355,https://maps.google.com/?cid=0x0:0xd5c72680409baa19,
mall,Minimarket,Alfamart,"Jl. Trans Sulawesi, Togid, Kec. Tutuyan, Kabupaten Bolaang Mongondow Timur, Sulawesi Utara 95782","Togid, Kec. Tutuyan, Kabupaten Bolaang Mongondow Timur",SULAWESI UTARA,95782.0,Indonesia,1500959.0,,,0.7495209,124.610138,https://maps.google.com/?cid=0x0:0xee8e6f9df36703e6,
mall,Kantor Perusahaan,Aglonema Boltim,"Perum Kharisma, Paret, Blok D-10, Paret, Kotabunan, Kabupaten Bolaang Mongondow Timur, Sulawesi Utara","Kabupaten Bolaang Mongondow Timur, Sulawesi Utara",SULAWESI UTARA,,Indonesia,85244445130.0,,,0.7972675,124.6347785,https://maps.google.com/?cid=0x0:0xe0de22cc1342be1c,
mall,Toko,FS'tuff Olshop Dodap Boltim,"PH7Q+FV7, Dodap, Kec. Tutuyan, Kabupaten Bolaang Mongondow Timur, Sulawesi Utara","Kabupaten Bolaang Mongondow Timur, Sulawesi Utara",SULAWESI UTARA,,Indonesia,81243433721.0,,,0.7136547,124.5896676,https://maps.google.com/?cid=0x0:0xc4111d0868268953,
mall,Pusat Perbelanjaan,warung LEE,"QJWH+PJG, Unnamed Road, Paret, Kotabunan, Kabupaten Bolaang Mongondow Timur, Sulawesi Utara","Kabupaten Bolaang Mongondow Timur, Sulawesi Utara",SULAWESI UTARA,,Indonesia,85298373787.0,,,0.7968165,124.6290784,https://maps.google.com/?cid=0x0:0x71d20ba5beb03fb2,
mall,Minimarket,Alfamart,"Jl. Trans Sulawesi, Tutuyan, Kec. Tutuyan, Kabupaten Bolaang Mongondow Timur, Sulawesi Utara 95774","Tutuyan, Kec. Tutuyan, Kabupaten Bolaang Mongondow Timur",SULAWESI UTARA,95774.0,Indonesia,1500959.0,,,0.7605152,124.6134188,https://maps.google.com/?cid=0x0:0x6f3199a8e2d222a,
mall,Toko Perlengkapan Rumah,meubel fajar pagi,"Tombolikat Sel., Kec. Tutuyan, Kabupaten Bolaang Mongondow Timur, Sulawesi Utara","Kabupaten Bolaang Mongondow Timur, Sulawesi Utara",SULAWESI UTARA,,Indonesia,82393171544.0,,,0.7747938,124.6206026,https://maps.google.com/?cid=0x0:0x8199a4dfd1d9b661,
mall,Pusat Perbelanjaan,Kios faqih,"RM63+PQ7, Kotabunan, Kabupaten Bolaang Mongondow Timur, Sulawesi Utara","Kabupaten Bolaang Mongondow Timur, Sulawesi Utara",SULAWESI UTARA,,Indonesia,85328659000.0,,,0.8117984,124.6544356,https://maps.google.com/?cid=0x0:0x2bb4769829790742,
mall,Toko bahan makanan,Motongkad utara lorong matoa,"MHM7+8M3, Motongkad Utara, Kec. Nuangan, Kabupaten Bolaang Mongondow Timur, Sulawesi Utara","Kabupaten Bolaang Mongondow Timur, Sulawesi Utara",SULAWESI UTARA,,Indonesia,,,,0.6832735,124.5641581,https://maps.google.com/?cid=0x0:0xb97e61af39a9b4bb,
mall,Pusat Perbelanjaan,Kifran massi,"MHM7+9M2, Motongkad Utara, Kec. Nuangan, Kabupaten Bolaang Mongondow Timur, Sulawesi Utara","Kabupaten Bolaang Mongondow Timur, Sulawesi Utara",SULAWESI UTARA,,Indonesia,,,,0.6833775,124.564152,https://maps.google.com/?cid=0x0:0x533ac7619245c11a,
mall,Toko Pakaian,Intan Pratiwhy,"Dusun 3, Liberia Tim., Kec. Modayag, Kabupaten Bolaang Mongondow Timur, Sulawesi Utara 95781","Liberia Tim., Kec. Modayag, Kabupaten Bolaang Mongondow Timur",SULAWESI UTARA,95781.0,Indonesia,88247260172.0,,,0.7201266,124.3913844,https://maps.google.com/?cid=0x0:0x2c6d149f3da491f4,
mall,Minimarket,Warung ARBANI,"PG9W+9WV, Motongkad Utara, Kec. Nuangan, Kabupaten Bolaang Mongondow Timur, Sulawesi Utara","Kabupaten Bolaang Mongondow Timur, Sulawesi Utara",SULAWESI UTARA,,Indonesia,,,,0.7184786,124.5473005,https://maps.google.com/?cid=0x0:0xdbe7de672ee1700d,
mall,Layanan perbankan bisnis,Bank SulutGo Cabang Tutuyan,"QJ67+697, JL. Raya Jl. Trans Sulawesi Lkr. Sel., Tutuyan, Kec. Tutuyan, Kabupaten Bolaang Mongondow Timur, Sulawesi Utara","Kabupaten Bolaang Mongondow Timur, Sulawesi Utara",SULAWESI UTARA,,Indonesia,82194666626.0,,,0.7605257,124.6134237,https://maps.google.com/?cid=0x0:0x8404f25776c0f683,
mall,Minimarket,Alfamart Motongkad,"Jl. Trans Sulawesi, Motongkad, Kec. Motongkat, Kabupaten Bolaang Mongondow Timur, Sulawesi Utara 95775","Motongkad, Kec. Motongkat, Kabupaten Bolaang Mongondow Timur",SULAWESI UTARA,95775.0,Indonesia,1500959.0,,,0.6810381,124.5645165,https://maps.google.com/?cid=0x0:0xda25a2e4ce1f5476,
mall,mall,Viviany lua,"PHR5+Q9C, Dodap, Kec. Tutuyan, Kabupaten Bolaang Mongondow Timur, Sulawesi Utara","Kabupaten Bolaang Mongondow Timur, Sulawesi Utara",SULAWESI UTARA,,Indonesia,,,,0.7419479,124.5583766,https://maps.google.com/?cid=0x0:0x71b03039d5051813,
supermarket,supermarket,Kotabunan,"Kabupaten Bolaang Mongondow Timur, Sulawesi Utara","Kabupaten Bolaang Mongondow Timur, Sulawesi Utara",SULAWESI UTARA,,Indonesia,,,,0.8554519,124.6192702,https://maps.google.com/?cid=0x0:0x94bb77bfbc3242eb,
supermarket,Minimarket,Alfamart Kotabunan,"Jl. Trans Sulawesi Selatan, Kotabunan, Kabupaten Bolaang Mongondow Timur, Sulawesi Utara 95782","Kotabunan, Kabupaten Bolaang Mongondow Timur",SULAWESI UTARA,95782.0,Indonesia,1500959.0,,,0.806819,124.6549552,https://maps.google.com/?cid=0x0:0xb83e212af4be0501,
supermarket,Pasar,PASAR KOTABUNAN,"RM53+HFX, Kotabunan, Kabupaten Bolaang Mongondow Timur, Sulawesi Utara","Kabupaten Bolaang Mongondow Timur, Sulawesi Utara",SULAWESI UTARA,,Indonesia,,,,0.808985,124.6537364,https://maps.google.com/?cid=0x0:0x14ce2e25eb319964,
supermarket,Minimarket,Alfamart Tombolikat,"Jl. Trans Sulawesi, Tombolikat, Kec. Tutuyan, Kabupaten Bolaang Mongondow Timur, Sulawesi Utara 95782","Tombolikat, Kec. Tutuyan, Kabupaten Bolaang Mongondow Timur",SULAWESI UTARA,95782.0,Indonesia,1500959.0,,,0.7813617,124.6212433,https://maps.google.com/?cid=0x0:0x8f6b925cf51d7ecc,
supermarket,Pusat Perbelanjaan,Indomaret Ratahan - kotamobagu km 56,"RM55+P3J, Jl. Ratahan - Kotamobagu, Kotabunan, Kabupaten Bolaang Mongondow Timur, Sulawesi Utara","Kabupaten Bolaang Mongondow Timur, Sulawesi Utara",SULAWESI UTARA,,Indonesia,,,,0.8093203,124.6575947,https://maps.google.com/?cid=0x0:0xa21f0f4082ca4156,
supermarket,Minimarket,Alfamidi Kotabunan,"RM54+FPX, Jl. Ratahan - Kotamobagu, Kotabunan, Kabupaten Bolaang Mongondow Timur, Sulawesi Utara","Kabupaten Bolaang Mongondow Timur, Sulawesi Utara",SULAWESI UTARA,,Indonesia,,,,0.8087763,124.6568209,https://maps.google.com/?cid=0x0:0x3d28c53187d2f259,
supermarket,Toko bahan makanan,Kios Ceisya,"RM65+2W3, Jl. Ratahan - Kotamobagu, Kotabunan, Kabupaten Bolaang Mongondow Timur, Sulawesi Utara","Kabupaten Bolaang Mongondow Timur, Sulawesi Utara",SULAWESI UTARA,,Indonesia,,,,0.8100707,124.6598387,https://maps.google.com/?cid=0x0:0x88a69594d1a76654,
supermarket,supermarket,Toko TIRTASARI Kotabunan,"RM54+5G2, Laut, Kotabunan, Maluku",Maluku,SULAWESI UTARA,,Indonesia,81356199350.0,,,0.8078764,124.6562688,https://maps.google.com/?cid=0x0:0x4dcdf3fea6e2aa19,
supermarket,Pusat Perbelanjaan,Alfamart Buyat,"VM3V+W88, Jl. Ratahan - Kotamobagu, Buyat I, Kotabunan, Kabupaten Bolaang Mongondow Timur, Sulawesi Utara","Kabupaten Bolaang Mongondow Timur, Sulawesi Utara",SULAWESI UTARA,,Indonesia,,,,0.8547863,124.6933286,https://maps.google.com/?cid=0x0:0x8828b0a0196f036,
supermarket,Perhimpunan Pengembang Perumahan,Kotabunan Barat,"Jl. Tangkudeagan, Kotabunan, Kabupaten Bolaang Mongondow Timur, Sulawesi Utara","Kabupaten Bolaang Mongondow Timur, Sulawesi Utara",SULAWESI UTARA,,Indonesia,82346551981.0,,,0.8100736,124.6506657,https://maps.google.com/?cid=0x0:0x577205976c9207f5,
supermarket,Minimarket,ALFAMIDI RATATOTOK,"VMFX+QRV, Jl. Ratahan - Kotamobagu, Ratatotok Satu, Kec. Ratatotok, Kabupaten Minahasa Tenggara, Sulawesi Utara 95997","Jl. Ratahan - Kotamobagu, Ratatotok Satu, Kec. Ratatotok, Kabupaten Minahasa Tenggara",SULAWESI UTARA,95997.0,Indonesia,,,,0.8744971,124.6995235,https://maps.google.com/?cid=0x0:0xd9f4fbfe7ea785cd,
supermarket,Minimarket,Indomaret Tutuyan,"QJ46+QW9, Tutuyan, Kec. Tutuyan, Kabupaten Bolaang Mongondow Timur, Sulawesi Utara","Kabupaten Bolaang Mongondow Timur, Sulawesi Utara",SULAWESI UTARA,,Indonesia,,,,0.7569176,124.6123514,https://maps.google.com/?cid=0x0:0x55f657a553cfecdd,
supermarket,Pusat Perbelanjaan,Toko Ismail Apande,"RM64+7JC, Kotabunan, Kabupaten Bolaang Mongondow Timur, Sulawesi Utara","Kabupaten Bolaang Mongondow Timur, Sulawesi Utara",SULAWESI UTARA,,Indonesia,,,,0.8106901,124.65653,https://maps.google.com/?cid=0x0:0x6fa7f5fa0316dfef,
supermarket,Kantor Pemerintah,Kotabunan selatan,"VJ49+5PJ, Bukaka, Kotabunan, Kabupaten Bolaang Mongondow Timur, Sulawesi Utara","Kabupaten Bolaang Mongondow Timur, Sulawesi Utara",SULAWESI UTARA,,Indonesia,,,,0.8554519,124.6192702,https://maps.google.com/?cid=0x0:0xe49aca0882a3a649,
supermarket,Kantor Perusahaan,Aglonema Boltim,"Perum Kharisma, Paret, Blok D-10, Paret, Kotabunan, Kabupaten Bolaang Mongondow Timur, Sulawesi Utara","Kabupaten Bolaang Mongondow Timur, Sulawesi Utara",SULAWESI UTARA,,Indonesia,85244445130.0,,,0.7972675,124.6347785,https://maps.google.com/?cid=0x0:0xe0de22cc1342be1c,
supermarket,Pusat Perbelanjaan,Warung Marlon,"QJXJ+33F, Paret, Kotabunan, Kabupaten Bolaang Mongondow Timur, Sulawesi Utara","Kabupaten Bolaang Mongondow Timur, Sulawesi Utara",SULAWESI UTARA,,Indonesia,81342197837.0,,,0.7976836,124.6301759,https://maps.google.com/?cid=0x0:0x5a95941f467b5005,
supermarket,Bank,Bank SulutGo KK Kotabunan,"RM54+JWR, Kompleks Pasar, Jl. Trans Sulawesi Lkr. Sel., Kotabunan, Kabupaten Bolaang Mongondow Timur, Sulawesi Utara 95782","Kompleks Pasar, Jl. Trans Sulawesi Lkr. Sel., Kotabunan, Kabupaten Bolaang Mongondow Timur",SULAWESI UTARA,95782.0,Indonesia,4318819779.0,,,0.8091179,124.6572771,https://maps.google.com/?cid=0x0:0x2e33e1fb204b74b3,
supermarket,Minimarket,Alfamart,"Jl. Trans Sulawesi, Tutuyan, Kec. Tutuyan, Kabupaten Bolaang Mongondow Timur, Sulawesi Utara 95774","Tutuyan, Kec. Tutuyan, Kabupaten Bolaang Mongondow Timur",SULAWESI UTARA,95774.0,Indonesia,1500959.0,,,0.7605152,124.6134188,https://maps.google.com/?cid=0x0:0x6f3199a8e2d222a,
supermarket,Minimarket,BUMDesa Muara Hebat,"VP85+MJJ, Sulawesi Utara 95997",Sulawesi Utara,SULAWESI UTARA,,Indonesia,81340119149.0,,,0.8667067,124.709001,https://maps.google.com/?cid=0x0:0x79032636593beef7,
supermarket,Minimarket,Alfamart,"Jl. Trans Sulawesi, Togid, Kec. Tutuyan, Kabupaten Bolaang Mongondow Timur, Sulawesi Utara 95782","Togid, Kec. Tutuyan, Kabupaten Bolaang Mongondow Timur",SULAWESI UTARA,95782.0,Indonesia,1500959.0,,,0.7495209,124.610138,https://maps.google.com/?cid=0x0:0xee8e6f9df36703e6,
supermarket,Toko,UD Yayan,"QJ36+QFF, Tutuyan, Kec. Tutuyan, Kabupaten Bolaang Mongondow Timur, Sulawesi Utara","Kabupaten Bolaang Mongondow Timur, Sulawesi Utara",SULAWESI UTARA,,Indonesia,85396834339.0,,,0.7544435,124.6111619,https://maps.google.com/?cid=0x0:0x95a45e8a56772be1,
supermarket,Toko bahan makanan,Kios Fhilya,"VM2Q+287, Jl. Ratahan - Kotamobagu, Buyat, Kotabunan, Kabupaten Bolaang Mongondow Timur, Sulawesi Utara","Kabupaten Bolaang Mongondow Timur, Sulawesi Utara",SULAWESI UTARA,,Indonesia,,,,0.8500292,124.6883042,https://maps.google.com/?cid=0x0:0x7c937cd493db2155,
supermarket,Pusat Perbelanjaan,Pasar Buyat,"VM2V+RVC, Buyat II, Kotabunan, Kabupaten Bolaang Mongondow Timur, Sulawesi Utara","Kabupaten Bolaang Mongondow Timur, Sulawesi Utara",SULAWESI UTARA,,Indonesia,,,,0.8520732,124.6946465,https://maps.google.com/?cid=0x0:0xc1144c759d1d9a85,
supermarket,Toko bahan makanan,Kios Mangga Madu,"Lorong Masjid Al-Mujtahid, Buyat I, Kotabunan, Kabupaten Bolaang Mongondow Timur, Sulawesi Utara 95782","Buyat I, Kotabunan, Kabupaten Bolaang Mongondow Timur",SULAWESI UTARA,95782.0,Indonesia,85240909748.0,,,0.8560543,124.6910391,https://maps.google.com/?cid=0x0:0xef19957198f3bd97,
supermarket,Kios,Akmal LINI Cell,"RM64+XMG, Unnamed Road, Bulawan, Kotabunan, Kabupaten Bolaang Mongondow Timur, Sulawesi Utara","Kabupaten Bolaang Mongondow Timur, Sulawesi Utara",SULAWESI UTARA,,Indonesia,81354790811.0,,,0.812445,124.6567048,https://maps.google.com/?cid=0x0:0x23f185cb2b69779b,
supermarket,Toko bahan makanan,Kios Hanin,"VM3Q+4QR, Buyat, Kotabunan, Kabupaten Bolaang Mongondow Timur, Sulawesi Utara","Kabupaten Bolaang Mongondow Timur, Sulawesi Utara",SULAWESI UTARA,,Indonesia,,,,0.8529747,124.6896385,https://maps.google.com/?cid=0x0:0xf8a108c82827761e,
supermarket,Toko bahan makanan,Kios Shyta-Faras,"VM2Q+RJ9, Buyat, Kotabunan, Kabupaten Bolaang Mongondow Timur, Sulawesi Utara","Kabupaten Bolaang Mongondow Timur, Sulawesi Utara",SULAWESI UTARA,,Indonesia,,,,0.8520444,124.6890943,https://maps.google.com/?cid=0x0:0x43b2c15bb44f5086,
supermarket,Toko bahan makanan,Kios JEBI MANTAB,"RJH3+63F, Paret, Kotabunan, Kabupaten Bolaang Mongondow Timur, Sulawesi Utara","Kabupaten Bolaang Mongondow Timur, Sulawesi Utara",SULAWESI UTARA,,Indonesia,,,,0.8280533,124.6026671,https://maps.google.com/?cid=0x0:0x251880bf89cb945b,
supermarket,Toko Swalayan,Warung Qalesya,"RM62+XGQ, Kotabunan, Kabupaten Bolaang Mongondow Timur, Sulawesi Utara","Kabupaten Bolaang Mongondow Timur, Sulawesi Utara",SULAWESI UTARA,,Indonesia,81244477489.0,,,0.8124695,124.651367,https://maps.google.com/?cid=0x0:0x8bf2fb47a5710c29,
supermarket,supermarket,Kec. Modayag,"Kabupaten Bolaang Mongondow Timur, Sulawesi Utara","Kabupaten Bolaang Mongondow Timur, Sulawesi Utara",SULAWESI UTARA,,Indonesia,,,,0.7084236,124.3864248,https://maps.google.com/?cid=0x0:0xc881d84722502f21,
supermarket,Minimarket,Alfamart,"Jl. Raya Modayag Kel, Bangunan Wuwuk, Kec. Modayag Bar., Kabupaten Bolaang Mongondow Timur, Sulawesi Utara 95761","Bangunan Wuwuk, Kec. Modayag Bar., Kabupaten Bolaang Mongondow Timur",SULAWESI UTARA,95761.0,Indonesia,1500959.0,,,0.7221314,124.3611942,https://maps.google.com/?cid=0x0:0xd61d8a43def0967,
supermarket,Minimarket,Alfamart Modayag Induk,"P96M+87J, Jl. Ratahan - Kotamobagu, Modayag II, Kec. Modayag, Kabupaten Bolaang Mongondow Timur, Sulawesi Utara","Kabupaten Bolaang Mongondow Timur, Sulawesi Utara",SULAWESI UTARA,,Indonesia,,,,0.7108334,124.3831535,https://maps.google.com/?cid=0x0:0x472a45e459a9c513,
supermarket,Pusat Perbelanjaan,R.STAR,"P97H+3FP, Jl. Ratahan - Kotamobagu, Bongkudai, Kec. Modayag Bar., Kabupaten Bolaang Mongondow Timur, Sulawesi Utara","Kabupaten Bolaang Mongondow Timur, Sulawesi Utara",SULAWESI UTARA,,Indonesia,8124561484.0,,,0.7127036,124.3787043,https://maps.google.com/?cid=0x0:0xc9637c0b5ddd4269,
supermarket,Toko Swalayan,Alfamart Pinasungkulan,"Jl. Raya Pinasungkulan Utara No.Kel, Pinasungkulan, Kec. Modoinding, Kabupaten Minahasa Selatan, Sulawesi Utara 95696","Pinasungkulan, Kec. Modoinding, Kabupaten Minahasa Selatan",SULAWESI UTARA,95696.0,Indonesia,1500959.0,,,0.7963795,124.4516236,https://maps.google.com/?cid=0x0:0x1b70c354c7833653,
supermarket,Toko Swalayan,Kios Om Jeri,"RC6M+75G, Wulurmaatus, Kec. Modoinding, Kabupaten Minahasa Selatan, Sulawesi Utara","Kabupaten Minahasa Selatan, Sulawesi Utara",SULAWESI UTARA,,Indonesia,,,,0.8107615,124.4329112,https://maps.google.com/?cid=0x0:0x5ff36f631a46e6e3,
supermarket,Minimarket,Alfamart Motongkad,"Jl. Trans Sulawesi, Motongkad, Kec. Motongkat, Kabupaten Bolaang Mongondow Timur, Sulawesi Utara 95775","Motongkad, Kec. Motongkat, Kabupaten Bolaang Mongondow Timur",SULAWESI UTARA,95775.0,Indonesia,1500959.0,,,0.6810381,124.5645165,https://maps.google.com/?cid=0x0:0xda25a2e4ce1f5476,
supermarket,Toko Swalayan,Toko adhyaksa,"P8RQ+QPH, Moyag Tampoan, Kec. Kotamobagu Tim., Kota Kotamobagu, Sulawesi Utara","Kota Kotamobagu, Sulawesi Utara",SULAWESI UTARA,,Indonesia,85399003375.0,,,0.741926,124.339364,https://maps.google.com/?cid=0x0:0xdfff64e89a7b9cbe,
supermarket,Minimarket,Alfamidi Pinasungkulan,"QFV3+R3G, Pinasungkulan, Kec. Modoinding, Kabupaten Minahasa Selatan, Sulawesi Utara","Kabupaten Minahasa Selatan, Sulawesi Utara",SULAWESI UTARA,,Indonesia,,,,0.7945535,124.4526908,https://maps.google.com/?cid=0x0:0x79f4c4ff8708a405,
supermarket,Toko Swalayan,Kios Jelowa,"QFV3+23F, Pinasungkulan, Kec. Modoinding, Kabupaten Minahasa Selatan, Sulawesi Utara","Kabupaten Minahasa Selatan, Sulawesi Utara",SULAWESI UTARA,,Indonesia,,,,0.7925615,124.4526791,https://maps.google.com/?cid=0x0:0x9ae29f8f5fba7d8b,
supermarket,supermarket,KAMBING ETAWA MAS MIARSO,"P9CP+JPG, Liberia, Kec. Modayag, Kabupaten Bolaang Mongondow Timur, Sulawesi Utara","Kabupaten Bolaang Mongondow Timur, Sulawesi Utara",SULAWESI UTARA,,Indonesia,,,,0.7214686,124.3871064,https://maps.google.com/?cid=0x0:0xdb0de5bd7ec7c726,
supermarket,Minimarket,Alfamart Sinisir,"Jl. Protokol, Sinisir, Kec. Modoinding, Kabupaten Minahasa Selatan, Sulawesi Utara 95358","Sinisir, Kec. Modoinding, Kabupaten Minahasa Selatan",SULAWESI UTARA,95358.0,Indonesia,1500959.0,,,0.7858006,124.4539758,https://maps.google.com/?cid=0x0:0x58292ec03ddc63b6,
supermarket,Toko bahan makanan,Kios Faiz,"MGJ8+25X, Atoga, Kec. Nuangan, Kabupaten Bolaang Mongondow Timur, Sulawesi Utara","Kabupaten Bolaang Mongondow Timur, Sulawesi Utara",SULAWESI UTARA,,Indonesia,,,,0.6801499,124.5154063,https://maps.google.com/?cid=0x0:0x41248be2dc80c07f,
supermarket,Sekolah Dasar,SD Negeri 1 Modayag,"P94R+PF4, Modayag III, Kec. Modayag, Kabupaten Bolaang Mongondow Timur, Sulawesi Utara","Kabupaten Bolaang Mongondow Timur, Sulawesi Utara",SULAWESI UTARA,,Indonesia,,,,0.7067669,124.3912075,https://maps.google.com/?cid=0x0:0x73c75ed946f491c5,
supermarket,Toko Swalayan,Kios jelita,"RCRP+GRR, Mokobang, Kec. Modoinding, Kabupaten Minahasa Selatan, Sulawesi Utara","Kabupaten Minahasa Selatan, Sulawesi Utara",SULAWESI UTARA,,Indonesia,,,,0.8410228,124.4367656,https://maps.google.com/?cid=0x0:0x9fc431fd31e2038c,
supermarket,Kantor Pemerintah,Balai Desa Modayag Induk,"P96P+G46, Kompleks Lapangan, Kampung Baru, Kec. Modayag, Kabupaten Bolaang Mongondow Timur, Sulawesi Utara","Kabupaten Bolaang Mongondow Timur, Sulawesi Utara",SULAWESI UTARA,,Indonesia,,,,0.7112764,124.3852577,https://maps.google.com/?cid=0x0:0xe84118a8132cc46d,
supermarket,Kantor Perusahaan,Balai Desa Ambang,"P97R+9M7, Purworejo Tengah, Kec. Modayag, Kabupaten Bolaang Mongondow Timur, Sulawesi Utara","Kabupaten Bolaang Mongondow Timur, Sulawesi Utara",SULAWESI UTARA,,Indonesia,,,,0.7134247,124.39168,https://maps.google.com/?cid=0x0:0xfd3b0d21fdb5d873,
supermarket,Toko Swalayan,Golden Pasar Swalayan,"Ruko Boulevard, Jl. Piere Tendean No.5, Wenang Utara, Kec. Wenang, Kota Manado, Sulawesi Utara","Kota Manado, Sulawesi Utara",SULAWESI UTARA,,Indonesia,,,,1.4884317,124.8379329,https://maps.google.com/?cid=0x0:0x2d4fb94562e6ef96,
supermarket,Minimarket,Alfamart Nuangan,"Jalan Trans Sulawesi, Lingkar Selatan, Nuangan I, Nuangan, East Bolaang Mongondow Regency, North Sulawesi 96775","Lingkar Selatan, Nuangan I, Nuangan, East Bolaang Mongondow Regency",SULAWESI UTARA,96775.0,Indonesia,1500959.0,,,0.5990832,124.5206666,https://maps.google.com/?cid=0x0:0xaaa8b0057087a653,
supermarket,Toko bahan makanan,Kios sehat ittha HWI BOLTIM,"QH6F+HXH, Togid, Kec. Tutuyan, Kabupaten Bolaang Mongondow Timur, Sulawesi Utara","Kabupaten Bolaang Mongondow Timur, Sulawesi Utara",SULAWESI UTARA,,Indonesia,82188874618.0,,,0.7614459,124.5749882,https://maps.google.com/?cid=0x0:0x344fe3767f71b67c,
supermarket,Toko,Toko Vera,"P98V+J6M, Purworejo Tengah, Kec. Modayag, Kabupaten Bolaang Mongondow Timur, Sulawesi Utara","Kabupaten Bolaang Mongondow Timur, Sulawesi Utara",SULAWESI UTARA,,Indonesia,,,,0.7165754,124.3930365,https://maps.google.com/?cid=0x0:0x1f43dae1b2b793c6,
supermarket,Toko bahan makanan,Lapake Ma'Ode,"Jl. Amurang - Kotamobagu, Purworejo Tim., Kec. Modayag, Kabupaten Bolaang Mongondow Timur, Sulawesi Utara","Kabupaten Bolaang Mongondow Timur, Sulawesi Utara",SULAWESI UTARA,,Indonesia,88298042259.0,,,0.712497,124.4047292,https://maps.google.com/?cid=0x0:0x36dd2cda2b90fc7e,
supermarket,Toko,D_peTampa,"Jl. Wiratama, Liberia, Kec. Modayag, Kabupaten Bolaang Mongondow Timur, Sulawesi Utara","Kabupaten Bolaang Mongondow Timur, Sulawesi Utara",SULAWESI UTARA,,Indonesia,81244985986.0,,,0.722776,124.3841706,https://maps.google.com/?cid=0x0:0xb6462ae2e706bc33,
supermarket,Toko bahan makanan,Kios Adinda (Adinda Bakery),"Liberia, Kec. Modayag, Kabupaten Bolaang Mongondow Timur, Sulawesi Utara","Kabupaten Bolaang Mongondow Timur, Sulawesi Utara",SULAWESI UTARA,,Indonesia,82187059845.0,,,0.7228283,124.387141,https://maps.google.com/?cid=0x0:0xf8a8a1abe01b095b,
supermarket,Minimarket,KIOS AIRA,"Bongkudai, Kec. Modayag Bar., Kabupaten Bolaang Mongondow Timur, Sulawesi Utara","Kabupaten Bolaang Mongondow Timur, Sulawesi Utara",SULAWESI UTARA,,Indonesia,,,,0.7128633,124.3782826,https://maps.google.com/?cid=0x0:0xb00822c75cb0cbf5,
supermarket,Kios,TOKO MUAMALAH,"P97V+926, Jl. Amurang - Kotamobagu, Purworejo Tengah, Kec. Modayag, Kabupaten Bolaang Mongondow Timur, Sulawesi Utara","Kabupaten Bolaang Mongondow Timur, Sulawesi Utara",SULAWESI UTARA,,Indonesia,,,,0.7133442,124.3922706,https://maps.google.com/?cid=0x0:0x4d7f688ee473574a,
supermarket,Toko bahan makanan,Kios Mama Udi,"P94Q+WPW, Modayag III, Kec. Modayag, Kabupaten Bolaang Mongondow Timur, Sulawesi Utara","Kabupaten Bolaang Mongondow Timur, Sulawesi Utara",SULAWESI UTARA,,Indonesia,85823809766.0,,,0.7071934,124.389335,https://maps.google.com/?cid=0x0:0xe8f354b9dd1af6db,
supermarket,Minimarket,Chenzya Mart,"QFV3+C9W, Jl. Amurang - Kotamobagu, Pinasungkulan, Kec. Modoinding, Kabupaten Minahasa Selatan, Sulawesi Utara","Kabupaten Minahasa Selatan, Sulawesi Utara",SULAWESI UTARA,,Indonesia,85256367700.0,,,0.793602,124.4534507,https://maps.google.com/?cid=0x0:0x11282c733760865b,
supermarket,Toko bahan makanan,Lapak BARITO,"P97W+89C, Purworejo Tim., Kec. Modayag, Kabupaten Bolaang Mongondow Timur, Sulawesi Utara","Kabupaten Bolaang Mongondow Timur, Sulawesi Utara",SULAWESI UTARA,,Indonesia,85298122187.0,,,0.7133164,124.3958917,https://maps.google.com/?cid=0x0:0xdc8090b4eeed6d70,
supermarket,supermarket,Kec. Modayag Bar.,"Kabupaten Bolaang Mongondow Timur, Sulawesi Utara","Kabupaten Bolaang Mongondow Timur, Sulawesi Utara",SULAWESI UTARA,,Indonesia,,,,0.7152891,124.372507,https://maps.google.com/?cid=0x0:0xfd0e11adc540e358,
supermarket,Toko,Extra Grosir Modayag,"Modayag, Kec. Modayag, Kota Kotamobagu, Sulawesi Utara 95781","Kec. Modayag, Kota Kotamobagu",SULAWESI UTARA,95781.0,Indonesia,,,,0.7102477,124.3842352,https://maps.google.com/?cid=0x0:0xb3aefa33daee502a,
supermarket,Minimarket,Alfamart,"Jl. Raya Modayag Kel, Bangunan Wuwuk, Kec. Modayag Bar., Kabupaten Bolaang Mongondow Timur, Sulawesi Utara 95761","Bangunan Wuwuk, Kec. Modayag Bar., Kabupaten Bolaang Mongondow Timur",SULAWESI UTARA,95761.0,Indonesia,1500959.0,,,0.7221314,124.3611942,https://maps.google.com/?cid=0x0:0xd61d8a43def0967,
supermarket,Pusat Perbelanjaan,R.STAR,"P97H+3FP, Jl. Ratahan - Kotamobagu, Bongkudai, Kec. Modayag Bar., Kabupaten Bolaang Mongondow Timur, Sulawesi Utara","Kabupaten Bolaang Mongondow Timur, Sulawesi Utara",SULAWESI UTARA,,Indonesia,8124561484.0,,,0.7127036,124.3787043,https://maps.google.com/?cid=0x0:0xc9637c0b5ddd4269,
supermarket,Toko,Toko Vera,"P98V+J6M, Purworejo Tengah, Kec. Modayag, Kabupaten Bolaang Mongondow Timur, Sulawesi Utara","Kabupaten Bolaang Mongondow Timur, Sulawesi Utara",SULAWESI UTARA,,Indonesia,,,,0.7165754,124.3930365,https://maps.google.com/?cid=0x0:0x1f43dae1b2b793c6,
supermarket,Toko,D_peTampa,"Jl. Wiratama, Liberia, Kec. Modayag, Kabupaten Bolaang Mongondow Timur, Sulawesi Utara","Kabupaten Bolaang Mongondow Timur, Sulawesi Utara",SULAWESI UTARA,,Indonesia,81244985986.0,,,0.722776,124.3841706,https://maps.google.com/?cid=0x0:0xb6462ae2e706bc33,
supermarket,Minimarket,KIOS AIRA,"Bongkudai, Kec. Modayag Bar., Kabupaten Bolaang Mongondow Timur, Sulawesi Utara","Kabupaten Bolaang Mongondow Timur, Sulawesi Utara",SULAWESI UTARA,,Indonesia,,,,0.7128633,124.3782826,https://maps.google.com/?cid=0x0:0xb00822c75cb0cbf5,
supermarket,Toko bahan makanan,Kios Adinda (Adinda Bakery),"Liberia, Kec. Modayag, Kabupaten Bolaang Mongondow Timur, Sulawesi Utara","Kabupaten Bolaang Mongondow Timur, Sulawesi Utara",SULAWESI UTARA,,Indonesia,82187059845.0,,,0.7228283,124.387141,https://maps.google.com/?cid=0x0:0xf8a8a1abe01b095b,
supermarket,Kios,TOKO MUAMALAH,"P97V+926, Jl. Amurang - Kotamobagu, Purworejo Tengah, Kec. Modayag, Kabupaten Bolaang Mongondow Timur, Sulawesi Utara","Kabupaten Bolaang Mongondow Timur, Sulawesi Utara",SULAWESI UTARA,,Indonesia,,,,0.7133442,124.3922706,https://maps.google.com/?cid=0x0:0x4d7f688ee473574a,
supermarket,Toko bahan makanan,Kios Mama Udi,"P94Q+WPW, Modayag III, Kec. Modayag, Kabupaten Bolaang Mongondow Timur, Sulawesi Utara","Kabupaten Bolaang Mongondow Timur, Sulawesi Utara",SULAWESI UTARA,,Indonesia,85823809766.0,,,0.7071934,124.389335,https://maps.google.com/?cid=0x0:0xe8f354b9dd1af6db,
supermarket,Toko bahan makanan,Palandi Tombokan,"P9C7+73R, Bangunan Wuwuk, Kec. Modayag Bar., Kabupaten Bolaang Mongondow Timur, Sulawesi Utara","Kabupaten Bolaang Mongondow Timur, Sulawesi Utara",SULAWESI UTARA,,Indonesia,81244506369.0,,,0.7207486,124.362646,https://maps.google.com/?cid=0x0:0xf0eebb8dc45d9ee5,
supermarket,Kios,Kios Fatir,"P998+6PJ, Bongkudai Bar., Kec. Modayag Bar., Kabupaten Bolaang Mongondow Timur, Sulawesi Utara","Kabupaten Bolaang Mongondow Timur, Sulawesi Utara",SULAWESI UTARA,,Indonesia,,,,0.7181035,124.366837,https://maps.google.com/?cid=0x0:0x3285e8812b7b0853,
supermarket,Toko bahan makanan,Lapake Ma'Ode,"Jl. Amurang - Kotamobagu, Purworejo Tim., Kec. Modayag, Kabupaten Bolaang Mongondow Timur, Sulawesi Utara","Kabupaten Bolaang Mongondow Timur, Sulawesi Utara",SULAWESI UTARA,,Indonesia,88298042259.0,,,0.712497,124.4047292,https://maps.google.com/?cid=0x0:0x36dd2cda2b90fc7e,
supermarket,Komplek perumahan,Rumah Raffassya,"P989+V77, Bongkudai Bar., Kec. Modayag Bar., Kabupaten Bolaang Mongondow Timur, Sulawesi Utara","Kabupaten Bolaang Mongondow Timur, Sulawesi Utara",SULAWESI UTARA,,Indonesia,,,,0.716025,124.368143,https://maps.google.com/?cid=0x0:0x874d1e4f69cc00d2,
supermarket,Toko bahan makanan,Lapak BARITO,"P97W+89C, Purworejo Tim., Kec. Modayag, Kabupaten Bolaang Mongondow Timur, Sulawesi Utara","Kabupaten Bolaang Mongondow Timur, Sulawesi Utara",SULAWESI UTARA,,Indonesia,85298122187.0,,,0.7133164,124.3958917,https://maps.google.com/?cid=0x0:0xdc8090b4eeed6d70,
supermarket,Dapur Umum,Warung Oma Neke,"P95M+2RH, Modayag, Kec. Modayag, Kabupaten Bolaang Mongondow Timur, Sulawesi Utara","Kabupaten Bolaang Mongondow Timur, Sulawesi Utara",SULAWESI UTARA,,Indonesia,,,,0.7075749,124.384615,https://maps.google.com/?cid=0x0:0x333e1384557283de,
supermarket,Toko Perlengkapan Rumah,Kios faddil,"Jl. Ratahan - Kotamobagu No.215, Moyag Todulan, Kec. Kotamobagu Tim., Kota Kotamobagu, Sulawesi Utara","Kota Kotamobagu, Sulawesi Utara",SULAWESI UTARA,,Indonesia,,,,0.7345721,124.3448299,https://maps.google.com/?cid=0x0:0x7d7ed18b24ce4482,
supermarket,Toko bahan makanan,Kirey cell,"P9J3+CJV, Jl. Trans Sulawesi Desa Moyongkota, Moyongkota Baru, Kec. Modayag Bar., Kabupaten Bolaang Mongondow Timur, Sulawesi Utara","Kabupaten Bolaang Mongondow Timur, Sulawesi Utara",SULAWESI UTARA,,Indonesia,,,,0.731104,124.3540438,https://maps.google.com/?cid=0x0:0xb3a0dd7c4035331b,
supermarket,Toko bahan makanan,Queensa Azarah,"P9J3+9PJ, Moyongkota Baru, Kec. Modayag Bar., Kabupaten Bolaang Mongondow Timur, Sulawesi Utara","Kabupaten Bolaang Mongondow Timur, Sulawesi Utara",SULAWESI UTARA,,Indonesia,,,,0.7309605,124.3542544,https://maps.google.com/?cid=0x0:0x24cb4b648e217f17,
supermarket,Komplek perumahan,Lelly home,"P96M+W7R, Modayag II, Kec. Modayag, Kabupaten Bolaang Mongondow Timur, Sulawesi Utara","Kabupaten Bolaang Mongondow Timur, Sulawesi Utara",SULAWESI UTARA,,Indonesia,,,,0.712373,124.3831306,https://maps.google.com/?cid=0x0:0xc210f2d2c18ce6e9,
supermarket,supermarket,KAMBING ETAWA MAS MIARSO,"P9CP+JPG, Liberia, Kec. Modayag, Kabupaten Bolaang Mongondow Timur, Sulawesi Utara","Kabupaten Bolaang Mongondow Timur, Sulawesi Utara",SULAWESI UTARA,,Indonesia,,,,0.7214686,124.3871064,https://maps.google.com/?cid=0x0:0xdb0de5bd7ec7c726,
supermarket,Toko Swalayan,Toko adhyaksa,"P8RQ+QPH, Moyag Tampoan, Kec. Kotamobagu Tim., Kota Kotamobagu, Sulawesi Utara","Kota Kotamobagu, Sulawesi Utara",SULAWESI UTARA,,Indonesia,85399003375.0,,,0.741926,124.339364,https://maps.google.com/?cid=0x0:0xdfff64e89a7b9cbe,
supermarket,Toko bahan makanan,ddvnxx,"Poopo, Kec. Passi Tim., Kabupaten Bolaang Mongondow, Sulawesi Utara","Kabupaten Bolaang Mongondow, Sulawesi Utara",SULAWESI UTARA,,Indonesia,85796895707.0,,,0.7775328,124.3499904,https://maps.google.com/?cid=0x0:0x2942453c39aa89e5,
supermarket,Toko,Indomaret Mopuya,"HXCP+4C2, Mopuya Sel., Kec. Dumoga Utara, Kabupaten Bolaang Mongondow, Sulawesi Utara","Kabupaten Bolaang Mongondow, Sulawesi Utara",SULAWESI UTARA,,Indonesia,,,,0.5702718,123.986031,https://maps.google.com/?cid=0x0:0x3b6205aefce428c,
supermarket,Minimarket,Indomaret Poigar II (TRKM),"X7XQ+F56, Poigar II, Kec. Poigar, Kabupaten Bolaang Mongondow, Sulawesi Utara","Kabupaten Bolaang Mongondow, Sulawesi Utara",SULAWESI UTARA,,Indonesia,,,,0.9986587,124.2878975,https://maps.google.com/?cid=0x0:0xe0aa63695ebf0c9a,
supermarket,Minimarket,Warung Dolvi Mokolintad,"Q8HX+3X4, Poopo, Kec. Passi Tim., Kabupaten Bolaang Mongondow, Sulawesi Utara","Kabupaten Bolaang Mongondow, Sulawesi Utara",SULAWESI UTARA,,Indonesia,81340546199.0,,,0.7776396,124.3499419,https://maps.google.com/?cid=0x0:0xcb283c3b9724d5c8,
supermarket,supermarket,Sulawesi Utara 95775,"Modisi, Kec. Pinolosian Tim., Kabupaten Bolaang Mongondow Selatan, Sulawesi Utara","Kabupaten Bolaang Mongondow Selatan, Sulawesi Utara",SULAWESI UTARA,,Indonesia,,,,0.4528494,124.4356892,https://maps.google.com/?cid=0x0:0x5956b774c20081f1,
supermarket,Minimarket,Alfamart Nuangan,"Jalan Trans Sulawesi, Lingkar Selatan, Nuangan I, Nuangan, East Bolaang Mongondow Regency, North Sulawesi 96775","Lingkar Selatan, Nuangan I, Nuangan, East Bolaang Mongondow Regency",SULAWESI UTARA,96775.0,Indonesia,1500959.0,,,0.5990832,124.5206666,https://maps.google.com/?cid=0x0:0xaaa8b0057087a653,
supermarket,Toko Swalayan,Golden Pasar Swalayan,"Ruko Boulevard, Jl. Piere Tendean No.5, Wenang Utara, Kec. Wenang, Kota Manado, Sulawesi Utara","Kota Manado, Sulawesi Utara",SULAWESI UTARA,,Indonesia,,,,1.4884317,124.8379329,https://maps.google.com/?cid=0x0:0x2d4fb94562e6ef96,
supermarket,Toko bahan makanan,Ninemart,"Perum Griya Paniki Indah Jalan Boulevard F No, RW.1, Paniki Bawah, Kec. Mapanget, Kota Manado, Sulawesi Utara","Kota Manado, Sulawesi Utara",SULAWESI UTARA,,Indonesia,82193681152.0,,,1.5357582,124.9059254,https://maps.google.com/?cid=0x0:0x1c211794d3814b80,
supermarket,Pusat Perbelanjaan,PASAR LOLAYAN/tanoyan Utara,"J75H+RV8, Tanoyan Utara, Kec. Lolayan, Kabupaten Bolaang Mongondow, Sulawesi Utara","Kabupaten Bolaang Mongondow, Sulawesi Utara",SULAWESI UTARA,,Indonesia,,,,0.609538,124.2797015,https://maps.google.com/?cid=0x0:0x14b667819c14d3a1,
supermarket,Minimarket,Kios Anugerah,"M8G4+JW4, Unnamed Road, Tungoi II, Kec. Lolayan, Kabupaten Bolaang Mongondow, Sulawesi Utara","Kabupaten Bolaang Mongondow, Sulawesi Utara",SULAWESI UTARA,,Indonesia,85824030933.0,,,0.6765008,124.3073389,https://maps.google.com/?cid=0x0:0xf69a0e07cf7ea5a,
supermarket,Toko Swalayan,kios nadira,"Atoga, Kec. Nuangan, Kabupaten Bolaang Mongondow Timur, Sulawesi Utara","Kabupaten Bolaang Mongondow Timur, Sulawesi Utara",SULAWESI UTARA,,Indonesia,82191751013.0,,,0.6787739,124.5166622,https://maps.google.com/?cid=0x0:0x365584d570791019,
supermarket,Toko,Kios IKYN dan BAKSO LUMAJANG,"HGX8+RX2, Nuangan I, Kec. Nuangan, Kabupaten Bolaang Mongondow Timur, Sulawesi Utara","Kabupaten Bolaang Mongondow Timur, Sulawesi Utara",SULAWESI UTARA,,Indonesia,,,,0.5995204,124.5174015,https://maps.google.com/?cid=0x0:0x5f5a88943f5599aa,
supermarket,supermarket,Kios Ninda,"HGX9+QG5, Nuangan I, Kec. Nuangan, Kabupaten Bolaang Mongondow Timur, Sulawesi Utara","Kabupaten Bolaang Mongondow Timur, Sulawesi Utara",SULAWESI UTARA,,Indonesia,,,,0.5997119,124.5184324,https://maps.google.com/?cid=0x0:0x3e1e57690f262d53,
supermarket,Toko Swalayan,rumah adit/kios asyifa,"GFWR+699, Matabulu, Kec. Nuangan, Kabupaten Bolaang Mongondow Timur, Sulawesi Utara","Kabupaten Bolaang Mongondow Timur, Sulawesi Utara",SULAWESI UTARA,,Indonesia,,,,0.5455416,124.4909765,https://maps.google.com/?cid=0x0:0x9d998311f5918b03,
supermarket,Toko Swalayan,Alfamart Pinasungkulan,"Jl. Raya Pinasungkulan Utara No.Kel, Pinasungkulan, Kec. Modoinding, Kabupaten Minahasa Selatan, Sulawesi Utara 95696","Pinasungkulan, Kec. Modoinding, Kabupaten Minahasa Selatan",SULAWESI UTARA,95696.0,Indonesia,1500959.0,,,0.7963795,124.4516236,https://maps.google.com/?cid=0x0:0x1b70c354c7833653,
supermarket,Minimarket,Alfamidi Pinasungkulan,"QFV3+R3G, Pinasungkulan, Kec. Modoinding, Kabupaten Minahasa Selatan, Sulawesi Utara","Kabupaten Minahasa Selatan, Sulawesi Utara",SULAWESI UTARA,,Indonesia,,,,0.7945535,124.4526908,https://maps.google.com/?cid=0x0:0x79f4c4ff8708a405,
supermarket,Minimarket,Alfamart Motongkad,"Jl. Trans Sulawesi, Motongkad, Kec. Motongkat, Kabupaten Bolaang Mongondow Timur, Sulawesi Utara 95775","Motongkad, Kec. Motongkat, Kabupaten Bolaang Mongondow Timur",SULAWESI UTARA,95775.0,Indonesia,1500959.0,,,0.6810381,124.5645165,https://maps.google.com/?cid=0x0:0xda25a2e4ce1f5476,
supermarket,Minimarket,Chenzya Mart,"QFV3+C9W, Jl. Amurang - Kotamobagu, Pinasungkulan, Kec. Modoinding, Kabupaten Minahasa Selatan, Sulawesi Utara","Kabupaten Minahasa Selatan, Sulawesi Utara",SULAWESI UTARA,,Indonesia,85256367700.0,,,0.793602,124.4534507,https://maps.google.com/?cid=0x0:0x11282c733760865b,
supermarket,Pasar,Motongkad Induk,"MHH7+XRF, Motongkad, Kec. Nuangan, Kabupaten Bolaang Mongondow Timur, Sulawesi Utara","Kabupaten Bolaang Mongondow Timur, Sulawesi Utara",SULAWESI UTARA,,Indonesia,82192749995.0,,,0.679943,124.5645336,https://maps.google.com/?cid=0x0:0x356ba2cc80791e77,
supermarket,Kios,Kios aqira,"HGJH+26M, Loyow, Kec. Nuangan, Kabupaten Bolaang Mongondow Timur, Sulawesi Utara","Kabupaten Bolaang Mongondow Timur, Sulawesi Utara",SULAWESI UTARA,,Indonesia,,,,0.5800889,124.5280445,https://maps.google.com/?cid=0x0:0xda76a49e62c6b5f6,
supermarket,supermarket,Kec. Tutuyan,"Kabupaten Bolaang Mongondow Timur, Sulawesi Utara","Kabupaten Bolaang Mongondow Timur, Sulawesi Utara",SULAWESI UTARA,,Indonesia,,,,0.7567721,124.6124872,https://maps.google.com/?cid=0x0:0x736818cdb777053,
supermarket,Minimarket,Indomaret Tutuyan,"QJ46+QW9, Tutuyan, Kec. Tutuyan, Kabupaten Bolaang Mongondow Timur, Sulawesi Utara","Kabupaten Bolaang Mongondow Timur, Sulawesi Utara",SULAWESI UTARA,,Indonesia,,,,0.7569176,124.6123514,https://maps.google.com/?cid=0x0:0x55f657a553cfecdd,
supermarket,Minimarket,Alfamart,"Jl. Trans Sulawesi, Togid, Kec. Tutuyan, Kabupaten Bolaang Mongondow Timur, Sulawesi Utara 95782","Togid, Kec. Tutuyan, Kabupaten Bolaang Mongondow Timur",SULAWESI UTARA,95782.0,Indonesia,1500959.0,,,0.7495209,124.610138,https://maps.google.com/?cid=0x0:0xee8e6f9df36703e6,
supermarket,Minimarket,Galaxi mart,"QJ36+7GG, Tutuyan II, Kec. Tutuyan, Kabupaten Bolaang Mongondow Timur, Sulawesi Utara","Kabupaten Bolaang Mongondow Timur, Sulawesi Utara",SULAWESI UTARA,,Indonesia,,,,0.753197,124.6113269,https://maps.google.com/?cid=0x0:0xe6862218d29cf0af,
supermarket,Minimarket,Alfamart,"Jl. Trans Sulawesi, Tutuyan, Kec. Tutuyan, Kabupaten Bolaang Mongondow Timur, Sulawesi Utara 95774","Tutuyan, Kec. Tutuyan, Kabupaten Bolaang Mongondow Timur",SULAWESI UTARA,95774.0,Indonesia,1500959.0,,,0.7605152,124.6134188,https://maps.google.com/?cid=0x0:0x6f3199a8e2d222a,
supermarket,Toko,UD Yayan,"QJ36+QFF, Tutuyan, Kec. Tutuyan, Kabupaten Bolaang Mongondow Timur, Sulawesi Utara","Kabupaten Bolaang Mongondow Timur, Sulawesi Utara",SULAWESI UTARA,,Indonesia,85396834339.0,,,0.7544435,124.6111619,https://maps.google.com/?cid=0x0:0x95a45e8a56772be1,
supermarket,Toko bahan makanan,Kios sehat ittha HWI BOLTIM,"QH6F+HXH, Togid, Kec. Tutuyan, Kabupaten Bolaang Mongondow Timur, Sulawesi Utara","Kabupaten Bolaang Mongondow Timur, Sulawesi Utara",SULAWESI UTARA,,Indonesia,82188874618.0,,,0.7614459,124.5749882,https://maps.google.com/?cid=0x0:0x344fe3767f71b67c,
supermarket,Minimarket,ALFAMART TUTUYAN II,"QJ98+7HJ, Tutuyan III, Kec. Tutuyan, Kabupaten Bolaang Mongondow Timur, Sulawesi Utara","Kabupaten Bolaang Mongondow Timur, Sulawesi Utara",SULAWESI UTARA,,Indonesia,,,,0.7682236,124.6163816,https://maps.google.com/?cid=0x0:0x209289f08d421b30,
supermarket,Toko,Toko ayu tutuyan,"QJ47+J2R, Tutuyan II, Kec. Tutuyan, Kabupaten Bolaang Mongondow Timur, Sulawesi Utara","Kabupaten Bolaang Mongondow Timur, Sulawesi Utara",SULAWESI UTARA,,Indonesia,82188096163.0,,,0.7566108,124.6125213,https://maps.google.com/?cid=0x0:0x9173a7912c47d12c,
supermarket,supermarket,Warung Nanta,"QJ77+4P9, Tutuyan III, Kec. Tutuyan, Kabupaten Bolaang Mongondow Timur, Sulawesi Utara","Kabupaten Bolaang Mongondow Timur, Sulawesi Utara",SULAWESI UTARA,,Indonesia,,,,0.7627989,124.6143619,https://maps.google.com/?cid=0x0:0x35eebf24857d5ba4,
supermarket,Kafe,Sulianti mokodompit,"PJV5+QC9, Togid, Kec. Tutuyan, Kabupaten Bolaang Mongondow Timur, Sulawesi Utara","Kabupaten Bolaang Mongondow Timur, Sulawesi Utara",SULAWESI UTARA,,Indonesia,,,,0.7444338,124.608608,https://maps.google.com/?cid=0x0:0x62ebd0fab06d9ab,
supermarket,Kios,Warung Destia,"QJ46+H6G, Tutuyan, Kec. Tutuyan, Kabupaten Bolaang Mongondow Timur, Sulawesi Utara","Kabupaten Bolaang Mongondow Timur, Sulawesi Utara",SULAWESI UTARA,,Indonesia,,,,0.756439,124.610581,https://maps.google.com/?cid=0x0:0x3f62bdc164008104,
supermarket,Minimarket,KIOS TRI,"RHJM+38M, Kayumoyondi, Kec. Tutuyan, Kabupaten Bolaang Mongondow Timur, Sulawesi Utara","Kabupaten Bolaang Mongondow Timur, Sulawesi Utara",SULAWESI UTARA,,Indonesia,,,,0.8302154,124.5832928,https://maps.google.com/?cid=0x0:0x5b66f1a086457203,
supermarket,Toko bahan makanan,Toko kenzo,"QJ57+F7M, Tutuyan, Kec. Tutuyan, Kabupaten Bolaang Mongondow Timur, Sulawesi Utara","Kabupaten Bolaang Mongondow Timur, Sulawesi Utara",SULAWESI UTARA,,Indonesia,,,,0.7587136,124.6131848,https://maps.google.com/?cid=0x0:0x3077a5951aabb413,
supermarket,Toko,Kios Ummi Lili,"QJ77+WWJ, Tutuyan II, Kec. Tutuyan, Kabupaten Bolaang Mongondow Timur, Sulawesi Utara","Kabupaten Bolaang Mongondow Timur, Sulawesi Utara",SULAWESI UTARA,,Indonesia,,,,0.7648283,124.6147559,https://maps.google.com/?cid=0x0:0xf9858450191751ab,
supermarket,Toko,TOKO EGY,"QJPF+Q9J, Jl. Trans Sulawesi Lkr. Sel., Kayumoyondi, Kec. Tutuyan, Kabupaten Bolaang Mongondow Timur, Sulawesi Utara","Kabupaten Bolaang Mongondow Timur, Sulawesi Utara",SULAWESI UTARA,,Indonesia,,,,0.788281,124.6240976,https://maps.google.com/?cid=0x0:0x9f36440e36aad8e6,
supermarket,Toko bahan makanan,Warung mas tahu,"Kayumoyondi, Kec. Tutuyan, Kabupaten Bolaang Mongondow Timur, Sulawesi Utara 95783","Kec. Tutuyan, Kabupaten Bolaang Mongondow Timur",SULAWESI UTARA,95783.0,Indonesia,82271194896.0,,,0.7875117,124.6243893,https://maps.google.com/?cid=0x0:0x4c45cb5997df7d1c,
supermarket,Toko,TOKO Rara,"PJV5+542, Jl. Ratahan - Kotamobagu, Togid, Kec. Tutuyan, Kabupaten Bolaang Mongondow Timur, Sulawesi Utara","Kabupaten Bolaang Mongondow Timur, Sulawesi Utara",SULAWESI UTARA,,Indonesia,,,,0.7428972,124.6077596,https://maps.google.com/?cid=0x0:0x77f060f45562689f,
