Category,Real Category,Business Name,Address,City,State,Postal Code,Country,Phone,Email,Website,Latitude,Longitude,Map Link,Details Link
komplek housing,komplek housing,Kotabunan,"Kabupaten Bolaang Mongondow Timur, Sulawesi Utara","Kabupaten Bolaang Mongondow Timur, Sulawesi Utara",SULAWESI UTARA,,Indonesia,,,,0.8554519,124.6192702,https://maps.google.com/?cid=0x0:0x94bb77bfbc3242eb,
komplek housing,Kantor Pemerintah,Kotabunan selatan,"VJ49+5PJ, Bukaka, Kotabunan, Kabupaten Bolaang Mongondow Timur, Sulawesi Utara","Kabupaten Bolaang Mongondow Timur, Sulawesi Utara",SULAWESI UTARA,,Indonesia,,,,0.8554519,124.6192702,https://maps.google.com/?cid=0x0:0xe49aca0882a3a649,
komplek housing,Komplek perumahan,PAL Dua Kotsel,"RM43+JQP, Jalan Trans Sulawesi, Lingkar Selatan, Kotabunan, North Sulawesi 95782","Jalan Trans Sulawesi, Lingkar Selatan, Kotabunan",SULAWESI UTARA,95782.0,Indonesia,81327859901.0,,,0.8065998,124.6544396,https://maps.google.com/?cid=0x0:0xf8ae042dc10e11a,
komplek housing,komplek housing,Kec. Modayag,"Kabupaten Bolaang Mongondow Timur, Sulawesi Utara","Kabupaten Bolaang Mongondow Timur, Sulawesi Utara",SULAWESI UTARA,,Indonesia,,,,0.7084236,124.3864248,https://maps.google.com/?cid=0x0:0xc881d84722502f21,
komplek housing,Kantor Pemerintah,Desa tangaton,"P98C+4XQ, Bongkudai Bar., Kec. Modayag Bar., Kabupaten Bolaang Mongondow Timur, Sulawesi Utara","Kabupaten Bolaang Mongondow Timur, Sulawesi Utara",SULAWESI UTARA,,Indonesia,,,,0.7153386,124.3724967,https://maps.google.com/?cid=0x0:0xdbe3fbaaf3810123,
komplek housing,Pembangunan Perumahan,Rusman Irianto Mamangkai,"P9J4+726, Induk, RT.001/RW.001, Moyongkota, Kec. Modayag Bar., Kabupaten Bolaang Mongondow Timur, Sulawesi Utara 95781","Induk, RT.001/RW.001, Moyongkota, Kec. Modayag Bar., Kabupaten Bolaang Mongondow Timur",SULAWESI UTARA,95781.0,Indonesia,,,,0.7306017,124.3550872,https://maps.google.com/?cid=0x0:0x645d5d65576702cf,
komplek housing,komplek housing,Kec. Modayag Bar.,"Kabupaten Bolaang Mongondow Timur, Sulawesi Utara","Kabupaten Bolaang Mongondow Timur, Sulawesi Utara",SULAWESI UTARA,,Indonesia,,,,0.7152891,124.372507,https://maps.google.com/?cid=0x0:0xfd0e11adc540e358,
komplek housing,Kantor Pemerintah,Desa tangaton,"P98C+4XQ, Bongkudai Bar., Kec. Modayag Bar., Kabupaten Bolaang Mongondow Timur, Sulawesi Utara","Kabupaten Bolaang Mongondow Timur, Sulawesi Utara",SULAWESI UTARA,,Indonesia,,,,0.7153386,124.3724967,https://maps.google.com/?cid=0x0:0xdbe3fbaaf3810123,
komplek housing,Pembangunan Perumahan,Rusman Irianto Mamangkai,"P9J4+726, Induk, RT.001/RW.001, Moyongkota, Kec. Modayag Bar., Kabupaten Bolaang Mongondow Timur, Sulawesi Utara 95781","Induk, RT.001/RW.001, Moyongkota, Kec. Modayag Bar., Kabupaten Bolaang Mongondow Timur",SULAWESI UTARA,95781.0,Indonesia,,,,0.7306017,124.3550872,https://maps.google.com/?cid=0x0:0x645d5d65576702cf,
komplek housing,komplek housing,Sulawesi Utara 95775,"Modisi, Kec. Pinolosian Tim., Kabupaten Bolaang Mongondow Selatan, Sulawesi Utara","Kabupaten Bolaang Mongondow Selatan, Sulawesi Utara",SULAWESI UTARA,,Indonesia,,,,0.4528494,124.4356892,https://maps.google.com/?cid=0x0:0x5956b774c20081f1,
komplek housing,Komplek perumahan,Rumah Nuangan,"HGXR+7C9, Nuangan, Kec. Nuangan, Kabupaten Bolaang Mongondow Timur, Sulawesi Utara","Kabupaten Bolaang Mongondow Timur, Sulawesi Utara",SULAWESI UTARA,,Indonesia,,,,0.598157,124.5411,https://maps.google.com/?cid=0x0:0x87346e474735c181,
komplek housing,Komplek perumahan,Yudi Ganteng,"Jl. Mawar No.2, Modisi, Kec. Pinolosian Tim., Kabupaten Bolaang Mongondow Selatan, Sulawesi Utara 95777","Modisi, Kec. Pinolosian Tim., Kabupaten Bolaang Mongondow Selatan",SULAWESI UTARA,95777.0,Indonesia,,,,0.4531386,124.4364565,https://maps.google.com/?cid=0x0:0xa00b1eff0afdb3e3,
komplek housing,komplek housing,Komplek Housing,"Blok Bojong Nangka I, Jl. Ring Rudal Blok Bojong Nangka I No.68, RT.001/RW.007, Jatirahayu, Kec. Pd. Melati, Kota Bks, Jawa Barat 17414","Jl. Ring Rudal Blok Bojong Nangka I No.68, RT.001/RW.007, Jatirahayu, Kec. Pd. Melati, Kota Bks",SULAWESI UTARA,17414.0,Indonesia,,,,-6.293724,106.9165114,https://maps.google.com/?cid=0x0:0x9c50464976dee674,
komplek housing,Komplek perumahan,Jalur 2,"QJ47+P24, Tutuyan, Kec. Tutuyan, Kabupaten Bolaang Mongondow Timur, Sulawesi Utara","Kabupaten Bolaang Mongondow Timur, Sulawesi Utara",SULAWESI UTARA,,Indonesia,,,,0.7567557,124.612574,https://maps.google.com/?cid=0x0:0x889bf35a8ac198b9,
komplek housing,Komplek perumahan,Home,"QJ88+24R, Tutuyan II, Kec. Tutuyan, Kabupaten Bolaang Mongondow Timur, Sulawesi Utara","Kabupaten Bolaang Mongondow Timur, Sulawesi Utara",SULAWESI UTARA,,Indonesia,,,,0.7651061,124.6152565,https://maps.google.com/?cid=0x0:0x362652a0270ae3be,
komplek housing,Komplek perumahan,Rumah Arthy sabiaku,"QJ46+67R, Tutuyan, Kec. Tutuyan, Kabupaten Bolaang Mongondow Timur, Sulawesi Utara","Kabupaten Bolaang Mongondow Timur, Sulawesi Utara",SULAWESI UTARA,,Indonesia,,,,0.75563,124.610553,https://maps.google.com/?cid=0x0:0x2206beecec7efd09,
perumahan,perumahan,Kotabunan,"Kabupaten Bolaang Mongondow Timur, Sulawesi Utara","Kabupaten Bolaang Mongondow Timur, Sulawesi Utara",SULAWESI UTARA,,Indonesia,,,,0.8554519,124.6192702,https://maps.google.com/?cid=0x0:0x94bb77bfbc3242eb,
perumahan,Kantor Pemerintah,Kotabunan selatan,"VJ49+5PJ, Bukaka, Kotabunan, Kabupaten Bolaang Mongondow Timur, Sulawesi Utara","Kabupaten Bolaang Mongondow Timur, Sulawesi Utara",SULAWESI UTARA,,Indonesia,,,,0.8554519,124.6192702,https://maps.google.com/?cid=0x0:0xe49aca0882a3a649,
perumahan,perumahan,ALP House,"RM62+VX2, Jl. Tangkudeagan, Kotabunan, Kabupaten Bolaang Mongondow Timur, Sulawesi Utara","Kabupaten Bolaang Mongondow Timur, Sulawesi Utara",SULAWESI UTARA,,Indonesia,,,,0.8121432,124.6524027,https://maps.google.com/?cid=0x0:0xbe404a8809bfa62e,
perumahan,Komplek perumahan,PERUMAHAN RUMAH KHARISMA BOLTIM,"QJWM+XGH, Paret, Kotabunan, Kabupaten Bolaang Mongondow Timur, Sulawesi Utara","Kabupaten Bolaang Mongondow Timur, Sulawesi Utara",SULAWESI UTARA,,Indonesia,,,,0.7974403,124.6338683,https://maps.google.com/?cid=0x0:0xe333c08a57b1fe10,
perumahan,Pembangunan Perumahan,Perum RTLH Buyat,"RMXW+CJQ, Buyat I, Kotabunan, Kabupaten Bolaang Mongondow Timur, Sulawesi Utara","Kabupaten Bolaang Mongondow Timur, Sulawesi Utara",SULAWESI UTARA,,Indonesia,,,,0.8485883,124.6965975,https://maps.google.com/?cid=0x0:0xfbbd97b10114c77d,
perumahan,Komplek perumahan,Kel modeang xixi,"VM3R+JCP, Buyat I, Kotabunan, Kabupaten Bolaang Mongondow Timur, Sulawesi Utara","Kabupaten Bolaang Mongondow Timur, Sulawesi Utara",SULAWESI UTARA,,Indonesia,,,,0.8540759,124.6910776,https://maps.google.com/?cid=0x0:0x572339d096767fe3,
perumahan,Komplek perumahan,Rumah pribadi,"RJH3+63F, Paret, Kotabunan, Kabupaten Bolaang Mongondow Timur, Sulawesi Utara 10","Kabupaten Bolaang Mongondow Timur, Sulawesi Utara",SULAWESI UTARA,,Indonesia,,,,0.8280533,124.6026671,https://maps.google.com/?cid=0x0:0xd85a5fae4febc772,
perumahan,Perhimpunan Pengembang Perumahan,Rumah Manohara,"VM3V+PGR, Buyat I, Kotabunan, Kabupaten Bolaang Mongondow Timur, Sulawesi Utara","Kabupaten Bolaang Mongondow Timur, Sulawesi Utara",SULAWESI UTARA,,Indonesia,,,,0.8543595,124.6937664,https://maps.google.com/?cid=0x0:0x548540561e057f9c,
perumahan,Komplek perumahan,Rumah Mita Salila,"RM74+5GR, Bulawan, Kotabunan, Kabupaten Bolaang Mongondow Timur, Sulawesi Utara","Kabupaten Bolaang Mongondow Timur, Sulawesi Utara",SULAWESI UTARA,,Indonesia,,,,0.8129692,124.6562644,https://maps.google.com/?cid=0x0:0x36ad3a95704cb2f1,
perumahan,Pembangunan Perumahan,Pesisir pantai Bulawan Kotabunan,"RM65+2W3, Jl. Ratahan - Kotamobagu, Kotabunan, Kabupaten Bolaang Mongondow Timur, Sulawesi Utara","Kabupaten Bolaang Mongondow Timur, Sulawesi Utara",SULAWESI UTARA,,Indonesia,,,,0.8100681,124.6598508,https://maps.google.com/?cid=0x0:0xd5430d1824f25ebe,
perumahan,Komplek perumahan,Perum RTLH Kotabunan,"RM43+X8P, Kotabunan, Kabupaten Bolaang Mongondow Timur, Sulawesi Utara","Kabupaten Bolaang Mongondow Timur, Sulawesi Utara",SULAWESI UTARA,,Indonesia,,,,0.8074581,124.6533319,https://maps.google.com/?cid=0x0:0x484f3e3004a7cad,
perumahan,perumahan,Halaman Junii,"RM63+3HX, Kotabunan, Kabupaten Bolaang Mongondow Timur, Sulawesi Utara","Kabupaten Bolaang Mongondow Timur, Sulawesi Utara",SULAWESI UTARA,,Indonesia,,,,0.8102508,124.6540207,https://maps.google.com/?cid=0x0:0x14e185f9a797a6bd,
perumahan,perumahan,Perumahan Kharisma Boltim Blok L No. 2,"QJWP+728, Paret, Kotabunan, Kabupaten Bolaang Mongondow Timur, Sulawesi Utara","Kabupaten Bolaang Mongondow Timur, Sulawesi Utara",SULAWESI UTARA,,Indonesia,82292977042.0,,,0.7956514,124.63507,https://maps.google.com/?cid=0x0:0xdbdad99949431799,
perumahan,Komplek perumahan,Ismai's Home's,"RM74+59G, Bulawan, Kotabunan, Kabupaten Bolaang Mongondow Timur, Sulawesi Utara","Kabupaten Bolaang Mongondow Timur, Sulawesi Utara",SULAWESI UTARA,,Indonesia,,,,0.8129717,124.655843,https://maps.google.com/?cid=0x0:0x9ffa3e2390a28f63,
perumahan,Komplek perumahan,N.Harikaiya-Latodjo Home,"VJ4H+4GH, Bukaka, Kotabunan, Kabupaten Bolaang Mongondow Timur, Sulawesi Utara","Kabupaten Bolaang Mongondow Timur, Sulawesi Utara",SULAWESI UTARA,,Indonesia,,,,0.855318,124.6288603,https://maps.google.com/?cid=0x0:0x774c4f62d2deec41,
perumahan,Komplek perumahan,Rumah Nurhayati bajo irwan makangiras,"RM52+3X2, Kotabunan, Kabupaten Bolaang Mongondow Timur, Sulawesi Utara","Kabupaten Bolaang Mongondow Timur, Sulawesi Utara",SULAWESI UTARA,,Indonesia,,,,0.8076454,124.6523806,https://maps.google.com/?cid=0x0:0xa7316cff8021bca9,
perumahan,Pembangunan Perumahan,Naya,"QJFC+W9Q, Tombolikat Sel., Kec. Tutuyan, Kabupaten Bolaang Mongondow Timur, Sulawesi Utara","Kabupaten Bolaang Mongondow Timur, Sulawesi Utara",SULAWESI UTARA,,Indonesia,,,,0.7749517,124.620987,https://maps.google.com/?cid=0x0:0x9c83b91c0fa327e1,
perumahan,Komplek perumahan,Rumah Pribadi,"RM54+X7V, Kotabunan, Kabupaten Bolaang Mongondow Timur, Sulawesi Utara","Kabupaten Bolaang Mongondow Timur, Sulawesi Utara",SULAWESI UTARA,,Indonesia,,,,0.8099632,124.6556322,https://maps.google.com/?cid=0x0:0xf01a13ffbc698f9e,
perumahan,Komplek perumahan,Lorong Merdeka,"RM63+V4G, Kotabunan, Kabupaten Bolaang Mongondow Timur, Sulawesi Utara","Kabupaten Bolaang Mongondow Timur, Sulawesi Utara",SULAWESI UTARA,,Indonesia,,,,0.8122015,124.6528442,https://maps.google.com/?cid=0x0:0x26dd3c4eb5a37198,
perumahan,perumahan,Queen Aboka,"VM2Q+V8J, Buyat, Kotabunan, Kabupaten Bolaang Mongondow Timur, Sulawesi Utara","Kabupaten Bolaang Mongondow Timur, Sulawesi Utara",SULAWESI UTARA,,Indonesia,,,,0.8520212,124.6877811,https://maps.google.com/?cid=0x0:0x9462c593ab8c4b7d,
perumahan,Komplek perumahan,3D House,"QJWP+Q7C, Paret, Kotabunan, Kabupaten Bolaang Mongondow Timur, Sulawesi Utara","Kabupaten Bolaang Mongondow Timur, Sulawesi Utara",SULAWESI UTARA,,Indonesia,,,,0.7964727,124.6354197,https://maps.google.com/?cid=0x0:0x6ecd6dda22787759,
perumahan,Pembangunan Perumahan,HFP ChenCar,"QJVJ+V4P, Paret, Kotabunan, Kabupaten Bolaang Mongondow Timur, Sulawesi Utara","Kabupaten Bolaang Mongondow Timur, Sulawesi Utara",SULAWESI UTARA,,Indonesia,,,,0.793834,124.6313709,https://maps.google.com/?cid=0x0:0x537195f7e1385720,
perumahan,Pembangunan Perumahan,Chencar PS,"QJVJ+V4P, Paret, Kotabunan, Kabupaten Bolaang Mongondow Timur, Sulawesi Utara","Kabupaten Bolaang Mongondow Timur, Sulawesi Utara",SULAWESI UTARA,,Indonesia,,,,0.7939743,124.6313918,https://maps.google.com/?cid=0x0:0xcacb42269f01a4bb,
perumahan,Hotel,Satrio's Home,"QJWP+Q7C, Paret, Kotabunan, Kabupaten Bolaang Mongondow Timur, Sulawesi Utara","Kabupaten Bolaang Mongondow Timur, Sulawesi Utara",SULAWESI UTARA,,Indonesia,,,,0.7963795,124.6358123,https://maps.google.com/?cid=0x0:0x9f495275f630c4d7,
perumahan,Komplek perumahan,Perumahan Green Surya Indah Tutuyan III,"QJ48+22C, Tutuyan III, Kec. Tutuyan, Kabupaten Bolaang Mongondow Timur, Sulawesi Utara","Kabupaten Bolaang Mongondow Timur, Sulawesi Utara",SULAWESI UTARA,,Indonesia,81244477311.0,,,0.7550646,124.6150164,https://maps.google.com/?cid=0x0:0xfb3f6fac676e7d77,
perumahan,perumahan,diyas di sini,"QJM9+8Q7, Tombolikat, Kec. Tutuyan, Kabupaten Bolaang Mongondow Timur, Sulawesi Utara","Kabupaten Bolaang Mongondow Timur, Sulawesi Utara",SULAWESI UTARA,,Indonesia,,,,0.7832808,124.619429,https://maps.google.com/?cid=0x0:0xd6c485bea4d15060,
perumahan,perumahan,Kec. Modayag,"Kabupaten Bolaang Mongondow Timur, Sulawesi Utara","Kabupaten Bolaang Mongondow Timur, Sulawesi Utara",SULAWESI UTARA,,Indonesia,,,,0.7084236,124.3864248,https://maps.google.com/?cid=0x0:0xc881d84722502f21,
perumahan,Komplek perumahan,Stay Homes,"P989+V77, Bongkudai Bar., Kec. Modayag Bar., Kabupaten Bolaang Mongondow Timur, Sulawesi Utara","Kabupaten Bolaang Mongondow Timur, Sulawesi Utara",SULAWESI UTARA,,Indonesia,,,,0.7169,124.367697,https://maps.google.com/?cid=0x0:0x643ef9f12ceae20,
perumahan,Perhimpunan Pengembang Perumahan,GiskaNuria,"P9FJ+5HX, Candi rejo, Kec. Modayag, Kabupaten Bolaang Mongondow Timur, Sulawesi Utara","Kabupaten Bolaang Mongondow Timur, Sulawesi Utara",SULAWESI UTARA,,Indonesia,,,,0.7229756,124.3814798,https://maps.google.com/?cid=0x0:0xc38aad11f42c1fae,
perumahan,Perumahan,Nuha Home's,"P96M+6PG, Jl. Ratahan - Kotamobagu, Modayag, Kec. Modayag, Kabupaten Bolaang Mongondow Timur, Sulawesi Utara","Kabupaten Bolaang Mongondow Timur, Sulawesi Utara",SULAWESI UTARA,,Indonesia,,,,0.710826,124.384223,https://maps.google.com/?cid=0x0:0x1f557777a8153da9,
perumahan,Komplek perumahan,Handri Datunugu,"P95P+786, Modayag, Kec. Modayag, Kabupaten Bolaang Mongondow Timur, Sulawesi Utara","Kabupaten Bolaang Mongondow Timur, Sulawesi Utara",SULAWESI UTARA,,Indonesia,,,,0.7081546,124.3857587,https://maps.google.com/?cid=0x0:0xeec36240ce8cb77c,
perumahan,Komplek perumahan,Glen-Megi home,"P9C6+RMJ, Bangunan Wuwuk, Kec. Modayag Bar., Kabupaten Bolaang Mongondow Timur, Sulawesi Utara","Kabupaten Bolaang Mongondow Timur, Sulawesi Utara",SULAWESI UTARA,,Indonesia,,,,0.7220996,124.3616347,https://maps.google.com/?cid=0x0:0x775bfa1df11788,
perumahan,Tempat Ibadah,Mody Modayag,"P97J+938, Desa, Modayag II, Kec. Modayag, Kabupaten Bolaang Mongondow Timur, Sulawesi Utara","Kabupaten Bolaang Mongondow Timur, Sulawesi Utara",SULAWESI UTARA,,Indonesia,,,,0.713426,124.3803042,https://maps.google.com/?cid=0x0:0xc05db3fe57835aa5,
perumahan,Komplek perumahan,Ratu Qhumairah Home,"P97J+GWH, Modayag II, Kec. Modayag, Kabupaten Bolaang Mongondow Timur, Sulawesi Utara","Kabupaten Bolaang Mongondow Timur, Sulawesi Utara",SULAWESI UTARA,,Indonesia,,,,0.7138129,124.3823512,https://maps.google.com/?cid=0x0:0x5b90ddad41ace574,
perumahan,Komplek perumahan,Home zayn Gomba,"P94R+R7Q, Modayag III, Kec. Modayag, Kabupaten Bolaang Mongondow Timur, Sulawesi Utara","Kabupaten Bolaang Mongondow Timur, Sulawesi Utara",SULAWESI UTARA,,Indonesia,,,,0.7070975,124.3907432,https://maps.google.com/?cid=0x0:0x798284928317cd70,
perumahan,Komplek perumahan,Rumah Doni,"P95P+8HR, Modayag, Kec. Modayag, Kabupaten Bolaang Mongondow Timur, Sulawesi Utara","Kabupaten Bolaang Mongondow Timur, Sulawesi Utara",SULAWESI UTARA,,Indonesia,,,,0.7083624,124.3863798,https://maps.google.com/?cid=0x0:0x4b36e14081ee29f,
perumahan,Komplek perumahan,Anyax,"P996+MG, Bangunan Wuwuk, Kec. Modayag Bar., Kabupaten Bolaang Mongondow Timur, Sulawesi Utara","Kabupaten Bolaang Mongondow Timur, Sulawesi Utara",SULAWESI UTARA,,Indonesia,,,,0.7191517,124.361365,https://maps.google.com/?cid=0x0:0xd66cf1f6fa1c1025,
perumahan,Komplek perumahan,kurniawan,"P95P+8HR lorong bioskop, Modayag, Kec. Modayag, Kabupaten Bolaang Mongondow Timur, Sulawesi Utara","Kabupaten Bolaang Mongondow Timur, Sulawesi Utara",SULAWESI UTARA,,Indonesia,,,,0.7083624,124.3863798,https://maps.google.com/?cid=0x0:0x5e2365cda196d48d,
perumahan,Komplek perumahan,Rumah koko,"P95P+G7H, Jl. Ratahan - Kotamobagu, Modayag, Kec. Modayag, Kabupaten Bolaang Mongondow Timur, Sulawesi Utara","Kabupaten Bolaang Mongondow Timur, Sulawesi Utara",SULAWESI UTARA,,Indonesia,,,,0.7085032,124.3850318,https://maps.google.com/?cid=0x0:0xb981161d7d04104,
perumahan,Pembangunan Perumahan,Lorong Bohusami,"P94R+7WG, Jl. Ratahan - Kotamobagu, Modayag III, Kec. Modayag, Kabupaten Bolaang Mongondow Timur, Sulawesi Utara","Kabupaten Bolaang Mongondow Timur, Sulawesi Utara",SULAWESI UTARA,,Indonesia,,,,0.7056764,124.3923256,https://maps.google.com/?cid=0x0:0x4d743cdf846e4b1e,
perumahan,Komplek perumahan,Rumah Ryan Mamonto,"P94Q+PH2, Modayag III, Kec. Modayag, Kabupaten Bolaang Mongondow Timur, Sulawesi Utara","Kabupaten Bolaang Mongondow Timur, Sulawesi Utara",SULAWESI UTARA,,Indonesia,,,,0.7067549,124.3888774,https://maps.google.com/?cid=0x0:0x851610a2eaae2688,
perumahan,Komplek perumahan,tasya mailangkay,"P94R+7WG lorong bogusami, Modayag III, Kec. Modayag, Kabupaten Bolaang Mongondow Timur, Sulawesi Utara","Kabupaten Bolaang Mongondow Timur, Sulawesi Utara",SULAWESI UTARA,,Indonesia,,,,0.7056764,124.3923256,https://maps.google.com/?cid=0x0:0x462867ed943eb8f0,
perumahan,Komplek perumahan,Jidas home,"P96Q+4H2, Jl. Amurang - Kotamobagu, Purworejo, Kec. Modayag, Kabupaten Bolaang Mongondow Timur, Sulawesi Utara","Kabupaten Bolaang Mongondow Timur, Sulawesi Utara",SULAWESI UTARA,,Indonesia,,,,0.7103835,124.3891179,https://maps.google.com/?cid=0x0:0x26e0ac3fbb329f,
perumahan,Komplek perumahan,Rumah,"P96R+G5V, Purworejo, Kec. Modayag, Kabupaten Bolaang Mongondow Timur, Sulawesi Utara","Kabupaten Bolaang Mongondow Timur, Sulawesi Utara",SULAWESI UTARA,,Indonesia,,,,0.7113612,124.3904223,https://maps.google.com/?cid=0x0:0x20506870a4d317b0,
perumahan,Komplek perumahan,Rumah Mega,"P97R+WCW, Purworejo Tengah, Kec. Modayag, Kabupaten Bolaang Mongondow Timur, Sulawesi Utara","Kabupaten Bolaang Mongondow Timur, Sulawesi Utara",SULAWESI UTARA,,Indonesia,,,,0.7149833,124.3907318,https://maps.google.com/?cid=0x0:0xf9a0d5a968b7748d,
perumahan,Lapangan Sepak Bola,lapangan modayag kampung baru,"P96M+6PG, Jl. Ratahan - Kotamobagu, Modayag, Kec. Modayag, Kabupaten Bolaang Mongondow Timur, Sulawesi Utara","Kabupaten Bolaang Mongondow Timur, Sulawesi Utara",SULAWESI UTARA,,Indonesia,,,,0.7105615,124.3843411,https://maps.google.com/?cid=0x0:0x4f8bad79e275465b,
perumahan,Pembangunan Perumahan,Sain Mintje,"P9J5+M6V, Jl. Trans Sulawesi Desa Moyongkota, Moyongkota, Kec. Modayag Bar., Kabupaten Bolaang Mongondow Timur, Sulawesi Utara","Kabupaten Bolaang Mongondow Timur, Sulawesi Utara",SULAWESI UTARA,,Indonesia,,,,0.7322151,124.3586268,https://maps.google.com/?cid=0x0:0x7a1547d7e4edf931,
perumahan,Komplek perumahan,Wawan Home,"Purworejo Tim., Kec. Modayag, Kabupaten Bolaang Mongondow Timur, Sulawesi Utara","Kabupaten Bolaang Mongondow Timur, Sulawesi Utara",SULAWESI UTARA,,Indonesia,,,,0.7118162,124.3967339,https://maps.google.com/?cid=0x0:0x313ea2f090fc7c26,
perumahan,Komplek perumahan,Nata Home,"P96R+P4R, Purworejo, Kec. Modayag, Kabupaten Bolaang Mongondow Timur, Sulawesi Utara","Kabupaten Bolaang Mongondow Timur, Sulawesi Utara",SULAWESI UTARA,,Indonesia,,,,0.7118727,124.3902597,https://maps.google.com/?cid=0x0:0x9cfde381f19ac4d0,
perumahan,Perhimpunan Pengembang Perumahan,Jeklin Lumentut,"Modayag, Kec. Modayag, Kabupaten Bolaang Mongondow Timur, Sulawesi Utara 95781","Kec. Modayag, Kabupaten Bolaang Mongondow Timur",SULAWESI UTARA,95781.0,Indonesia,,,,0.7089418,124.3862386,https://maps.google.com/?cid=0x0:0x46493adf7c5e8c25,
perumahan,Komplek perumahan,Anita Fadila,"P94R+72G, Modayag III, Kec. Modayag, Kabupaten Bolaang Mongondow Timur, Sulawesi Utara","Kabupaten Bolaang Mongondow Timur, Sulawesi Utara",SULAWESI UTARA,,Indonesia,,,,0.7056941,124.3900854,https://maps.google.com/?cid=0x0:0x93598f594f28499d,
perumahan,perumahan,Alfi,"P9Q2+GPX, Moyongkota Baru, Kec. Modayag Bar., Kabupaten Bolaang Mongondow Timur, Sulawesi Utara","Kabupaten Bolaang Mongondow Timur, Sulawesi Utara",SULAWESI UTARA,,Indonesia,,,,0.738862,124.351854,https://maps.google.com/?cid=0x0:0xc5c665c8244611da,
perumahan,Pemakaman,PERKUBURAN MODAYAG,"P96J+P3G, Modayag II, Kec. Modayag, Kabupaten Bolaang Mongondow Timur, Sulawesi Utara","Kabupaten Bolaang Mongondow Timur, Sulawesi Utara",SULAWESI UTARA,,Indonesia,,,,0.711848,124.3801508,https://maps.google.com/?cid=0x0:0x607b06c7dab32eae,
perumahan,perumahan,Kec. Modayag Bar.,"Kabupaten Bolaang Mongondow Timur, Sulawesi Utara","Kabupaten Bolaang Mongondow Timur, Sulawesi Utara",SULAWESI UTARA,,Indonesia,,,,0.7152891,124.372507,https://maps.google.com/?cid=0x0:0xfd0e11adc540e358,
perumahan,Komplek perumahan,IndahG,"Moyongkota, Kec. Modayag Bar., Kabupaten Bolaang Mongondow Timur, Sulawesi Utara","Kabupaten Bolaang Mongondow Timur, Sulawesi Utara",SULAWESI UTARA,,Indonesia,,,,0.7302688,124.3555234,https://maps.google.com/?cid=0x0:0xe98423cd1fbd1e6,
perumahan,Komplek perumahan,Stay Homes,"P989+V77, Bongkudai Bar., Kec. Modayag Bar., Kabupaten Bolaang Mongondow Timur, Sulawesi Utara","Kabupaten Bolaang Mongondow Timur, Sulawesi Utara",SULAWESI UTARA,,Indonesia,,,,0.7169,124.367697,https://maps.google.com/?cid=0x0:0x643ef9f12ceae20,
perumahan,Komplek perumahan,Veronika,"P9CP+W9J, Liberia, Kec. Modayag, Kabupaten Bolaang Mongondow Timur, Sulawesi Utara","Kabupaten Bolaang Mongondow Timur, Sulawesi Utara",SULAWESI UTARA,,Indonesia,,,,0.722341,124.3859018,https://maps.google.com/?cid=0x0:0x13263e60e0481e32,
perumahan,Perhimpunan Pengembang Perumahan,GiskaNuria,"P9FJ+5HX, Candi rejo, Kec. Modayag, Kabupaten Bolaang Mongondow Timur, Sulawesi Utara","Kabupaten Bolaang Mongondow Timur, Sulawesi Utara",SULAWESI UTARA,,Indonesia,,,,0.7229756,124.3814798,https://maps.google.com/?cid=0x0:0xc38aad11f42c1fae,
perumahan,Kantor Pemerintah,Perumahan Desa Modayag III,"P92V+53P, Modayag III, Kec. Modayag, Kabupaten Bolaang Mongondow Timur, Sulawesi Utara","Kabupaten Bolaang Mongondow Timur, Sulawesi Utara",SULAWESI UTARA,,Indonesia,,,,0.7004678,124.3927013,https://maps.google.com/?cid=0x0:0x3b0c453dd934da1e,
perumahan,Komplek perumahan,Glen-Megi home,"P9C6+RMJ, Bangunan Wuwuk, Kec. Modayag Bar., Kabupaten Bolaang Mongondow Timur, Sulawesi Utara","Kabupaten Bolaang Mongondow Timur, Sulawesi Utara",SULAWESI UTARA,,Indonesia,,,,0.7220996,124.3616347,https://maps.google.com/?cid=0x0:0x775bfa1df11788,
perumahan,Perumahan,Nuha Home's,"P96M+6PG, Jl. Ratahan - Kotamobagu, Modayag, Kec. Modayag, Kabupaten Bolaang Mongondow Timur, Sulawesi Utara","Kabupaten Bolaang Mongondow Timur, Sulawesi Utara",SULAWESI UTARA,,Indonesia,,,,0.710826,124.384223,https://maps.google.com/?cid=0x0:0x1f557777a8153da9,
perumahan,Komplek perumahan,kurniawan,"P95P+8HR lorong bioskop, Modayag, Kec. Modayag, Kabupaten Bolaang Mongondow Timur, Sulawesi Utara","Kabupaten Bolaang Mongondow Timur, Sulawesi Utara",SULAWESI UTARA,,Indonesia,,,,0.7083624,124.3863798,https://maps.google.com/?cid=0x0:0x5e2365cda196d48d,
perumahan,Komplek perumahan,Rumah Komdan Adi,"P9G4+2XM, Moyongkota, Kec. Modayag Bar., Kabupaten Bolaang Mongondow Timur, Sulawesi Utara","Kabupaten Bolaang Mongondow Timur, Sulawesi Utara",SULAWESI UTARA,,Indonesia,,,,0.7250877,124.3574314,https://maps.google.com/?cid=0x0:0xbb1fb2fa47b9e7b0,
perumahan,Pembangunan Perumahan,Sain Mintje,"P9J5+M6V, Jl. Trans Sulawesi Desa Moyongkota, Moyongkota, Kec. Modayag Bar., Kabupaten Bolaang Mongondow Timur, Sulawesi Utara","Kabupaten Bolaang Mongondow Timur, Sulawesi Utara",SULAWESI UTARA,,Indonesia,,,,0.7322151,124.3586268,https://maps.google.com/?cid=0x0:0x7a1547d7e4edf931,
perumahan,Tempat Ibadah,Mody Modayag,"P97J+938, Desa, Modayag II, Kec. Modayag, Kabupaten Bolaang Mongondow Timur, Sulawesi Utara","Kabupaten Bolaang Mongondow Timur, Sulawesi Utara",SULAWESI UTARA,,Indonesia,,,,0.713426,124.3803042,https://maps.google.com/?cid=0x0:0xc05db3fe57835aa5,
perumahan,Komplek perumahan,Rumah koko,"P95P+G7H, Jl. Ratahan - Kotamobagu, Modayag, Kec. Modayag, Kabupaten Bolaang Mongondow Timur, Sulawesi Utara","Kabupaten Bolaang Mongondow Timur, Sulawesi Utara",SULAWESI UTARA,,Indonesia,,,,0.7085032,124.3850318,https://maps.google.com/?cid=0x0:0xb981161d7d04104,
perumahan,Komplek perumahan,Ratu Qhumairah Home,"P97J+GWH, Modayag II, Kec. Modayag, Kabupaten Bolaang Mongondow Timur, Sulawesi Utara","Kabupaten Bolaang Mongondow Timur, Sulawesi Utara",SULAWESI UTARA,,Indonesia,,,,0.7138129,124.3823512,https://maps.google.com/?cid=0x0:0x5b90ddad41ace574,
perumahan,Komplek perumahan,Rumah Papa Indah,"P97F+FV7, Bongkudai, Kec. Modayag Bar., Kabupaten Bolaang Mongondow Timur, Sulawesi Utara","Kabupaten Bolaang Mongondow Timur, Sulawesi Utara",SULAWESI UTARA,,Indonesia,,,,0.7136625,124.3746719,https://maps.google.com/?cid=0x0:0x903240428932aca6,
perumahan,Komplek perumahan,Rumah Doni,"P95P+8HR, Modayag, Kec. Modayag, Kabupaten Bolaang Mongondow Timur, Sulawesi Utara","Kabupaten Bolaang Mongondow Timur, Sulawesi Utara",SULAWESI UTARA,,Indonesia,,,,0.7083624,124.3863798,https://maps.google.com/?cid=0x0:0x4b36e14081ee29f,
perumahan,Komplek perumahan,Home zayn Gomba,"P94R+R7Q, Modayag III, Kec. Modayag, Kabupaten Bolaang Mongondow Timur, Sulawesi Utara","Kabupaten Bolaang Mongondow Timur, Sulawesi Utara",SULAWESI UTARA,,Indonesia,,,,0.7070975,124.3907432,https://maps.google.com/?cid=0x0:0x798284928317cd70,
perumahan,Komplek perumahan,Rumah,"P96R+G5V, Purworejo, Kec. Modayag, Kabupaten Bolaang Mongondow Timur, Sulawesi Utara","Kabupaten Bolaang Mongondow Timur, Sulawesi Utara",SULAWESI UTARA,,Indonesia,,,,0.7113612,124.3904223,https://maps.google.com/?cid=0x0:0x20506870a4d317b0,
perumahan,Komplek perumahan,Kalumata Rumintjap,"P997+9MH, Bangunan Wuwuk, Kec. Modayag Bar., Kabupaten Bolaang Mongondow Timur, Sulawesi Utara","Kabupaten Bolaang Mongondow Timur, Sulawesi Utara",SULAWESI UTARA,,Indonesia,,,,0.718443,124.364243,https://maps.google.com/?cid=0x0:0xd08e4e858fc829dd,
perumahan,Komplek perumahan,Lantu Kaseunaung,"P9C6+QCF, Bangunan Wuwuk, Kec. Modayag Bar., Kabupaten Bolaang Mongondow Timur, Sulawesi Utara","Kabupaten Bolaang Mongondow Timur, Sulawesi Utara",SULAWESI UTARA,,Indonesia,,,,0.7219441,124.3610337,https://maps.google.com/?cid=0x0:0x13830945546eb034,
perumahan,Perhimpunan Pengembang Perumahan,Home Truli,"P998+6PJ, Bongkudai Bar., Kec. Modayag Bar., Kabupaten Bolaang Mongondow Timur, Sulawesi Utara","Kabupaten Bolaang Mongondow Timur, Sulawesi Utara",SULAWESI UTARA,,Indonesia,,,,0.7178171,124.36661,https://maps.google.com/?cid=0x0:0xe1b26ea919147a0f,
perumahan,Komplek perumahan,IMO_OLSHOP,"P9J3+QPG, Moyongkota Baru, Kec. Modayag Bar., Kabupaten Bolaang Mongondow Timur, Sulawesi Utara","Kabupaten Bolaang Mongondow Timur, Sulawesi Utara",SULAWESI UTARA,,Indonesia,,,,0.7319444,124.3543628,https://maps.google.com/?cid=0x0:0x557f6927cdd7f7d9,
perumahan,Komplek perumahan,Handri Datunugu,"P95P+786, Modayag, Kec. Modayag, Kabupaten Bolaang Mongondow Timur, Sulawesi Utara","Kabupaten Bolaang Mongondow Timur, Sulawesi Utara",SULAWESI UTARA,,Indonesia,,,,0.7081546,124.3857587,https://maps.google.com/?cid=0x0:0xeec36240ce8cb77c,
perumahan,Komplek perumahan,My Hometown,"P9M2+GC6, Moyongkota Baru, Kec. Modayag Bar., Kabupaten Bolaang Mongondow Timur, Sulawesi Utara","Kabupaten Bolaang Mongondow Timur, Sulawesi Utara",SULAWESI UTARA,,Indonesia,,,,0.7338068,124.3510274,https://maps.google.com/?cid=0x0:0x4a313374c607578c,
perumahan,Komplek perumahan,Rumah kita,"P9CF+Q3M, Bongkudai Bar., Kec. Modayag Bar., Kabupaten Bolaang Mongondow Timur, Sulawesi Utara","Kabupaten Bolaang Mongondow Timur, Sulawesi Utara",SULAWESI UTARA,,Indonesia,,,,0.7219503,124.3726668,https://maps.google.com/?cid=0x0:0xbeb8b82062288751,
perumahan,Komplek perumahan,Sandy Tempay Home,"P997+9J2, Bangunan Wuwuk, Kec. Modayag Bar., Kabupaten Bolaang Mongondow Timur, Sulawesi Utara","Kabupaten Bolaang Mongondow Timur, Sulawesi Utara",SULAWESI UTARA,,Indonesia,,,,0.718321,124.363922,https://maps.google.com/?cid=0x0:0x13c54aa4748bf06f,
perumahan,Komplek perumahan,Rumah Kita,"P9G4+XVQ, Moyongkota, Kec. Modayag Bar., Kabupaten Bolaang Mongondow Timur, Sulawesi Utara","Kabupaten Bolaang Mongondow Timur, Sulawesi Utara",SULAWESI UTARA,,Indonesia,,,,0.7274515,124.357226,https://maps.google.com/?cid=0x0:0xf83d28d26ca391d1,
perumahan,Perhimpunan Pengembang Perumahan,Rumah vijay,"Jl. Ratahan - Kotamobagu No.16, Bongkudai, Kec. Modayag Bar., Kabupaten Bolaang Mongondow Timur, Sulawesi Utara","Kabupaten Bolaang Mongondow Timur, Sulawesi Utara",SULAWESI UTARA,,Indonesia,,,,0.7145022,124.3769127,https://maps.google.com/?cid=0x0:0xc650fe9fd9b7d8b1,
perumahan,perumahan,Sulawesi Utara 95775,"Modisi, Kec. Pinolosian Tim., Kabupaten Bolaang Mongondow Selatan, Sulawesi Utara","Kabupaten Bolaang Mongondow Selatan, Sulawesi Utara",SULAWESI UTARA,,Indonesia,,,,0.4528494,124.4356892,https://maps.google.com/?cid=0x0:0x5956b774c20081f1,
perumahan,Komplek perumahan,Nuangan,"HGRG+WHG, iyok, pantai, dusun 3, motoboi ara, Kec. Nuangan","Kabupaten Bolaang Mongondow Timur, Sulawesi Utara",SULAWESI UTARA,,Indonesia,,,,0.5923174,124.5264385,https://maps.google.com/?cid=0x0:0x2f76f68d3ba7d9c9,
perumahan,Komplek perumahan,Yudi Ganteng,"Jl. Mawar No.2, Modisi, Kec. Pinolosian Tim., Kabupaten Bolaang Mongondow Selatan, Sulawesi Utara 95777","Modisi, Kec. Pinolosian Tim., Kabupaten Bolaang Mongondow Selatan",SULAWESI UTARA,95777.0,Indonesia,,,,0.4531386,124.4364565,https://maps.google.com/?cid=0x0:0xa00b1eff0afdb3e3,
perumahan,perumahan,Kec. Tutuyan,"Kabupaten Bolaang Mongondow Timur, Sulawesi Utara","Kabupaten Bolaang Mongondow Timur, Sulawesi Utara",SULAWESI UTARA,,Indonesia,,,,0.7567721,124.6124872,https://maps.google.com/?cid=0x0:0x736818cdb777053,
perumahan,Pembangunan Perumahan,Naya,"QJFC+W9Q, Tombolikat Sel., Kec. Tutuyan, Kabupaten Bolaang Mongondow Timur, Sulawesi Utara","Kabupaten Bolaang Mongondow Timur, Sulawesi Utara",SULAWESI UTARA,,Indonesia,,,,0.7749517,124.620987,https://maps.google.com/?cid=0x0:0x9c83b91c0fa327e1,
perumahan,Komplek perumahan,Perumahan Green Surya Indah Tutuyan III,"QJ48+22C, Tutuyan III, Kec. Tutuyan, Kabupaten Bolaang Mongondow Timur, Sulawesi Utara","Kabupaten Bolaang Mongondow Timur, Sulawesi Utara",SULAWESI UTARA,,Indonesia,81244477311.0,,,0.7550646,124.6150164,https://maps.google.com/?cid=0x0:0xfb3f6fac676e7d77,
perumahan,Komplek perumahan,Perum Tombolikat,"QJHF+FV4, Tombolikat Sel., Kec. Tutuyan, Kabupaten Bolaang Mongondow Timur, Sulawesi Utara","Kabupaten Bolaang Mongondow Timur, Sulawesi Utara",SULAWESI UTARA,,Indonesia,,,,0.7786274,124.6246937,https://maps.google.com/?cid=0x0:0x361e2c3a9f05636a,
perumahan,Komplek perumahan,Warung Putri Potabuga,"PJV5+36G, Togid, Kec. Tutuyan, Kabupaten Bolaang Mongondow Timur, Sulawesi Utara","Kabupaten Bolaang Mongondow Timur, Sulawesi Utara",SULAWESI UTARA,,Indonesia,85343528351.0,,,0.7426805,124.6080732,https://maps.google.com/?cid=0x0:0xe9bd745827ed3381,
perumahan,Komplek perumahan,Rumah Ileana  fillio,"QJF9+VRH, Tombolikat Sel., Kec. Tutuyan, Kabupaten Bolaang Mongondow Timur, Sulawesi Utara","Kabupaten Bolaang Mongondow Timur, Sulawesi Utara",SULAWESI UTARA,,Indonesia,85756807400.0,,,0.7746942,124.6196198,https://maps.google.com/?cid=0x0:0xb4b52f4c771978e2,
perumahan,Komplek perumahan,Kel. Yendi  Chin Home,"QJ48+758, Tutuyan III, Kec. Tutuyan, Kabupaten Bolaang Mongondow Timur, Sulawesi Utara","Kabupaten Bolaang Mongondow Timur, Sulawesi Utara",SULAWESI UTARA,,Indonesia,,,,0.7547994,124.6150754,https://maps.google.com/?cid=0x0:0xe56d890fa1724239,
perumahan,Komplek perumahan,Rumah,"QJ29+V5J, Tutuyan II, Kec. Tutuyan, Kabupaten Bolaang Mongondow Timur, Sulawesi Utara","Kabupaten Bolaang Mongondow Timur, Sulawesi Utara",SULAWESI UTARA,,Indonesia,,,,0.7522151,124.6178867,https://maps.google.com/?cid=0x0:0xe3d0db80aec2a7aa,
perumahan,Pembangunan Perumahan,Pipin House,"QJ67+PGW, Tutuyan, Kec. Tutuyan, Kabupaten Bolaang Mongondow Timur, Sulawesi Utara","Kabupaten Bolaang Mongondow Timur, Sulawesi Utara",SULAWESI UTARA,,Indonesia,,,,0.7618573,124.6138288,https://maps.google.com/?cid=0x0:0x556a15dd5e462fd4,
perumahan,Komplek perumahan,Home,"QJ88+24R, Tutuyan II, Kec. Tutuyan, Kabupaten Bolaang Mongondow Timur, Sulawesi Utara","Kabupaten Bolaang Mongondow Timur, Sulawesi Utara",SULAWESI UTARA,,Indonesia,,,,0.7651061,124.6152565,https://maps.google.com/?cid=0x0:0x362652a0270ae3be,
perumahan,perumahan,diyas di sini,"QJM9+8Q7, Tombolikat, Kec. Tutuyan, Kabupaten Bolaang Mongondow Timur, Sulawesi Utara","Kabupaten Bolaang Mongondow Timur, Sulawesi Utara",SULAWESI UTARA,,Indonesia,,,,0.7832808,124.619429,https://maps.google.com/?cid=0x0:0xd6c485bea4d15060,
perumahan,Pembangunan Perumahan,Geral,"QJPC+2J2, Kayumoyondi, Kec. Tutuyan, Kabupaten Bolaang Mongondow Timur, Sulawesi Utara","Kabupaten Bolaang Mongondow Timur, Sulawesi Utara",SULAWESI UTARA,,Indonesia,,,,0.7850097,124.6215144,https://maps.google.com/?cid=0x0:0xc5f171ca1ac93c42,
perumahan,Pembangunan Perumahan,Perum Paret,"QJWM+QP8, Paret, Kotabunan, Kabupaten Bolaang Mongondow Timur, Sulawesi Utara","Kabupaten Bolaang Mongondow Timur, Sulawesi Utara",SULAWESI UTARA,,Indonesia,,,,0.7969186,124.634321,https://maps.google.com/?cid=0x0:0xb7bc2b0c23a69cfb,
perumahan,Pembangunan Perumahan,Rumah monik,"QJMC+WXR, Kayumoyondi, Kec. Tutuyan, Kabupaten Bolaang Mongondow Timur, Sulawesi Utara","Kabupaten Bolaang Mongondow Timur, Sulawesi Utara",SULAWESI UTARA,,Indonesia,,,,0.7848642,124.6223767,https://maps.google.com/?cid=0x0:0x74b7a54fa2094c76,
perumahan,Kompleks Kondominium,Perkebunan Mokalu,"Togid, Kec. Tutuyan, Kabupaten Bolaang Mongondow Timur, Sulawesi Utara","Kabupaten Bolaang Mongondow Timur, Sulawesi Utara",SULAWESI UTARA,,Indonesia,82199157842.0,,,0.733194,124.5923885,https://maps.google.com/?cid=0x0:0x6427957a153776f9,
perumahan,Komplek perumahan,Perum kayumoyondi,"QJQ8+7RW, Kayumoyondi, Kec. Tutuyan, Kabupaten Bolaang Mongondow Timur, Sulawesi Utara","Kabupaten Bolaang Mongondow Timur, Sulawesi Utara",SULAWESI UTARA,,Indonesia,,,,0.7882408,124.6170676,https://maps.google.com/?cid=0x0:0x77e64d8178434f5,
perumahan,Komplek perumahan,Kotamobagu,"QJ29+V5J, Tutuyan II, Kec. Tutuyan, Kabupaten Bolaang Mongondow Timur, Sulawesi Utara","Kabupaten Bolaang Mongondow Timur, Sulawesi Utara",SULAWESI UTARA,,Indonesia,,,,0.7522151,124.6178867,https://maps.google.com/?cid=0x0:0x61bcf2d7b9df172,
perumahan,Komplek perumahan,brent place,"QJ67+J37, Tutuyan, Kec. Tutuyan, Kabupaten Bolaang Mongondow Timur, Sulawesi Utara","Kabupaten Bolaang Mongondow Timur, Sulawesi Utara",SULAWESI UTARA,,Indonesia,,,,0.7615493,124.6126849,https://maps.google.com/?cid=0x0:0xebab403603fbc5a6,
perumahan,Komplek perumahan,HM Mama Azzam  Gibran,"QJ26+X7, Tutuyan, Kec. Tutuyan, Kabupaten Bolaang Mongondow Timur, Sulawesi Utara","Kabupaten Bolaang Mongondow Timur, Sulawesi Utara",SULAWESI UTARA,,Indonesia,82145938987.0,,,0.7523864,124.6107012,https://maps.google.com/?cid=0x0:0x4fc5c08df574c85f,
perumahan,Komplek perumahan,Rumah kel. Kantor - Mahengkeng,"QJ36+34X, Tutuyan, Kec. Tutuyan, Kabupaten Bolaang Mongondow Timur, Sulawesi Utara","Kabupaten Bolaang Mongondow Timur, Sulawesi Utara",SULAWESI UTARA,,Indonesia,,,,0.753276,124.6103608,https://maps.google.com/?cid=0x0:0x2e677c60fc082d8e,
perumahan,Komplek perumahan,PERUMAHAN RUMAH KHARISMA BOLTIM,"QJWM+XGH, Paret, Kotabunan, Kabupaten Bolaang Mongondow Timur, Sulawesi Utara","Kabupaten Bolaang Mongondow Timur, Sulawesi Utara",SULAWESI UTARA,,Indonesia,,,,0.7974403,124.6338683,https://maps.google.com/?cid=0x0:0xe333c08a57b1fe10,
perumahan,Komplek perumahan,Anthy Mokoagow,"RH6M+687, Tombolikat Sel., Kec. Tutuyan, Kabupaten Bolaang Mongondow Timur, Sulawesi Utara","Kabupaten Bolaang Mongondow Timur, Sulawesi Utara",SULAWESI UTARA,,Indonesia,,,,0.8105308,124.5832928,https://maps.google.com/?cid=0x0:0x3aec4c73bfa22497,
perumahan,perumahan,liana house,"MHM7+7J6, Motongkad, Kec. Nuangan, Kabupaten Bolaang Mongondow Timur, Sulawesi Utara","Kabupaten Bolaang Mongondow Timur, Sulawesi Utara",SULAWESI UTARA,,Indonesia,,,,0.6831512,124.5640079,https://maps.google.com/?cid=0x0:0x9f1641cf8450b0af,
perumahan,Komplek perumahan,Home Lia paputungan,"QJ29+V5J, Tutuyan II, Kec. Tutuyan, Kabupaten Bolaang Mongondow Timur, Sulawesi Utara","Kabupaten Bolaang Mongondow Timur, Sulawesi Utara",SULAWESI UTARA,,Indonesia,,,,0.7522151,124.6178867,https://maps.google.com/?cid=0x0:0x86b9a26a2f384cda,
