Category;Real Category;Business Name;Address;City;State;Postal Code;Country;Phone;Email;Website;Latitude;Longitude;Map Link;Details Link
"komplek housing";"komplek housing";"Baula";"Baula, Kec. Baula, Kabupaten Kolaka, Sulawesi Tenggara";"Kabupaten Kolaka, Sulawesi Tenggara";"SULAWESI TENGGARA";"";"Indonesia";"";"";"";"-4.156222";"121.684402";"https://maps.google.com/?cid=0x0:0x848963d15ef49661";""
"komplek housing";"Pembangunan Perumahan";"Home ratu_rara";"RMVM+GPG Btn, Baula, Kec. Baula, Kabupaten Kolaka, Sulawesi Tenggara";"Kabupaten Kolaka, Sulawesi Tenggara";"SULAWESI TENGGARA";"";"Indonesia";"";"";"";"-4.156189";"121.684335";"https://maps.google.com/?cid=0x0:0xf7a0b3b58661a161";""
"komplek housing";"Komplek perumahan";"Perumahan BTN Baula";"RMVM+GPG, Jl. BTN, Baula, Kec. Baula, Kabupaten Kolaka, Sulawesi Tenggara";"Kabupaten Kolaka, Sulawesi Tenggara";"SULAWESI TENGGARA";"";"Indonesia";"";"";"";"-4.156189";"121.684335";"https://maps.google.com/?cid=0x0:0xc5f47c17d716e4";""
"komplek housing";"komplek housing";"Kolaka";"Sakuli, Kec. Latambaga, Kabupaten Kolaka, Sulawesi Tenggara";"Kabupaten Kolaka, Sulawesi Tenggara";"SULAWESI TENGGARA";"";"Indonesia";"";"";"";"-4.0513522";"121.5997835";"https://maps.google.com/?cid=0x0:0x664cb969301936de";""
"komplek housing";"Komplek perumahan";"Perumahan ISRAR Faeyza Residence";"WJ87+R9C, Tahoa, Kec. Kolaka, Kabupaten Kolaka, Sulawesi Tenggara 93561";"Tahoa, Kec. Kolaka, Kabupaten Kolaka";"SULAWESI TENGGARA";"93561";"Indonesia";"";"";"";"-4.0829347";"121.6133955";"https://maps.google.com/?cid=0x0:0xef9f75020d43c734";""
"komplek housing";"Komplek perumahan";"Home OjiNina";"Jl. Kasuari No.5, Laloeha, Kec. Kolaka, Kabupaten Kolaka, Sulawesi Tenggara 93561";"Laloeha, Kec. Kolaka, Kabupaten Kolaka";"SULAWESI TENGGARA";"93561";"Indonesia";"";"";"";"-4.0601196";"121.6108427";"https://maps.google.com/?cid=0x0:0xf468648e6795e794";""
"komplek housing";"Pembangunan Perumahan";"Perumahan ’Graha Nusantara Regency’";"WJM8+2Q7, Jl. Pintu Selatan, Laloeha, Kec. Kolaka, Kabupaten Kolaka, Sulawesi Tenggara 93561";"Jl. Pintu Selatan, Laloeha, Kec. Kolaka, Kabupaten Kolaka";"SULAWESI TENGGARA";"93561";"Indonesia";"";"";"";"-4.0674552";"121.6169206";"https://maps.google.com/?cid=0x0:0xcf319b47c6333743";""
"komplek housing";"Komplek perumahan";"ADILA RESIDENCE";"Jl. Delima No.1, Sea, Kec. Kolaka, Kabupaten Kolaka, Sulawesi Tenggara 93511";"Sea, Kec. Kolaka, Kabupaten Kolaka";"SULAWESI TENGGARA";"93511";"Indonesia";"";"";"";"-4.0494166";"121.5862932";"https://maps.google.com/?cid=0x0:0xb727bbdf520e7b86";""
"komplek housing";"Komplek perumahan";"R  S HOME";"WJHJ+FFF, Kolaka, Sakuli, Kec. Latambaga, Kabupaten Kolaka, Sulawesi Tenggara";"Kabupaten Kolaka, Sulawesi Tenggara";"SULAWESI TENGGARA";"";"Indonesia";"";"";"";"-4.0713241";"121.6311588";"https://maps.google.com/?cid=0x0:0x1ea4d62693f9b64";""
"komplek housing";"Komplek perumahan";"Perumahan Yunus wahid";"Jl. Badawi No.32, Balandete, Kec. Kolaka, Kabupaten Kolaka, Sulawesi Tenggara 93561";"Balandete, Kec. Kolaka, Kabupaten Kolaka";"SULAWESI TENGGARA";"93561";"Indonesia";"";"";"";"-4.0664786";"121.6259696";"https://maps.google.com/?cid=0x0:0xe2593dbda6f62936";""
"komplek housing";"Komplek perumahan";"Kost Anak Hino";"XH3H+9W2, Kolakaasi, Kec. Latambaga, Kabupaten Kolaka, Sulawesi Tenggara";"Kabupaten Kolaka, Sulawesi Tenggara";"SULAWESI TENGGARA";"";"Indonesia";"";"";"";"-4.0466119";"121.5797767";"https://maps.google.com/?cid=0x0:0x2bcc9044818a0a00";""
"komplek housing";"Taman";"Kompleks Kehutanan";"WJR3+WQW, Jl. Swasembada, Lamokato, Kec. Kolaka, Kabupaten Kolaka, Sulawesi Tenggara 93561";"Jl. Swasembada, Lamokato, Kec. Kolaka, Kabupaten Kolaka";"SULAWESI TENGGARA";"93561";"Indonesia";"";"";"";"-4.057636";"121.6045092";"https://maps.google.com/?cid=0x0:0xa3498e9721655dcd";""
"komplek housing";"Hostel";"KOST ENJOY";"Jl. Pintu Selatan, Laloeha, Kec. Kolaka, Kabupaten Kolaka, Sulawesi Tenggara 93561";"Laloeha, Kec. Kolaka, Kabupaten Kolaka";"SULAWESI TENGGARA";"93561";"Indonesia";" 085823756091";"";"";"-4.0658892";"121.6181062";"https://maps.google.com/?cid=0x0:0x8c5f28994011e24b";""
"komplek housing";"Perumahan";"BTN Nusantara Residence";"WJJ8+FF5, Jl. Karya Indah, Tahoa, Kec. Kolaka, Kabupaten Kolaka, Sulawesi Tenggara 93561";"Jl. Karya Indah, Tahoa, Kec. Kolaka, Kabupaten Kolaka";"SULAWESI TENGGARA";"93561";"Indonesia";"";"";"";"-4.0688581";"121.6162405";"https://maps.google.com/?cid=0x0:0xf5395b612440f70";""
"komplek housing";"Komplek perumahan";"Kompleks Puncak Abadi";"XH2P+W94, Jl. Abadi, Kolakaasi, Kec. Latambaga, Kabupaten Kolaka, Sulawesi Tenggara";"Kabupaten Kolaka, Sulawesi Tenggara";"SULAWESI TENGGARA";"";"Indonesia";"";"";"";"-4.0477363";"121.5859477";"https://maps.google.com/?cid=0x0:0x990b09b86a2f4f7c";""
"komplek housing";"Komplek perumahan";"Rumah paling ujung di blok H (setelah mesjid Al ilmu)";"BTN, blok H, Tahoa, Kec. Kolaka, Kabupaten Kolaka, Sulawesi Tenggara 93561";"blok H, Tahoa, Kec. Kolaka, Kabupaten Kolaka";"SULAWESI TENGGARA";"93561";"Indonesia";"";"";"";"-4.0703549";"121.6125639";"https://maps.google.com/?cid=0x0:0xfcfe7c513fad1886";""
"komplek housing";"Komplek perumahan";"Kolaka";"WHXX+RCP, Jl. Pattimura, Watuliandu, Kec. Kolaka, Kabupaten Kolaka, Sulawesi Tenggara 93511";"Jl. Pattimura, Watuliandu, Kec. Kolaka, Kabupaten Kolaka";"SULAWESI TENGGARA";"93511";"Indonesia";"";"";"";"-4.0504166";"121.5985639";"https://maps.google.com/?cid=0x0:0xcc8c38a88369e407";""
"komplek housing";"Komplek perumahan";"CV. BAIQ PUTRIA";"Jl. Durian No.140, Sakuli, Kec. Latambaga, Kabupaten Kolaka, Sulawesi Tenggara 93511";"Sakuli, Kec. Latambaga, Kabupaten Kolaka";"SULAWESI TENGGARA";"93511";"Indonesia";"";"";"";"-4.0429864";"121.5907327";"https://maps.google.com/?cid=0x0:0x74e9a0dd4a0740f7";""
"komplek housing";"Komplek perumahan";"Luthfie House";"WJV3+6J7, Lamokato, Kec. Kolaka, Kabupaten Kolaka, Sulawesi Tenggara";"Kabupaten Kolaka, Sulawesi Tenggara";"SULAWESI TENGGARA";"";"Indonesia";"";"";"";"-4.0569502";"121.6040437";"https://maps.google.com/?cid=0x0:0xb02daf0a5fcb81b3";""
"komplek housing";"Komplek perumahan";"Kolaka.sulawesi tengara republik indonesia";"XH5R+CJQ, Jl. Durian, Sakuli, Kec. Kolaka, Kabupaten Kolaka, Sulawesi Tenggara 93511";"Jl. Durian, Sakuli, Kec. Kolaka, Kabupaten Kolaka";"SULAWESI TENGGARA";"93511";"Indonesia";"";"";"";"-4.0414153";"121.5916159";"https://maps.google.com/?cid=0x0:0x2af36f2640cab0c3";""
"komplek housing";"Komplek perumahan";"V home";"WJHM+7HM, Balandete, Kec. Kolaka, Kabupaten Kolaka, Sulawesi Tenggara";"Kabupaten Kolaka, Sulawesi Tenggara";"SULAWESI TENGGARA";"";"Indonesia";"";"";"";"-4.0717815";"121.6339079";"https://maps.google.com/?cid=0x0:0x7752d9095030aaa9";""
"komplek housing";"Perumahan";"Home";"WJGQ+2P2, Lalombaa, Kec. Kolaka, Kabupaten Kolaka, Sulawesi Tenggara";"Kabupaten Kolaka, Sulawesi Tenggara";"SULAWESI TENGGARA";"";"Indonesia";"";"";"";"-4.0749814";"121.6392611";"https://maps.google.com/?cid=0x0:0x9fd8d76abb15a2ff";""
"komplek housing";"Komplek perumahan";"Firman Rasyid";"BTN, Jl. Mujair No.1 Blok 17, Tahoa, Kec. Kolaka, Kabupaten Kolaka, Sulawesi Tenggara 93561";"Jl. Mujair No.1 Blok 17, Tahoa, Kec. Kolaka, Kabupaten Kolaka";"SULAWESI TENGGARA";"93561";"Indonesia";"";"";"";"-4.0703328";"121.617383";"https://maps.google.com/?cid=0x0:0xf0d35e7056c43061";""
"komplek housing";"Pembangunan Perumahan";"Rmh ny echa";"WHXV+62H, Jl. Pala, Latambaga, Kec. Latambaga, Kabupaten Kolaka, Sulawesi Tenggara 93511";"Jl. Pala, Latambaga, Kec. Latambaga, Kabupaten Kolaka";"SULAWESI TENGGARA";"93511";"Indonesia";"";"";"";"-4.0519398";"121.5925994";"https://maps.google.com/?cid=0x0:0xbcde2393a315085e";""
"komplek housing";"Pembangunan Perumahan";"Shulung home";"Jl. Cempaka No.11, Sea, Kec. Latambaga, Kabupaten Kolaka, Sulawesi Tenggara 93511";"Sea, Kec. Latambaga, Kabupaten Kolaka";"SULAWESI TENGGARA";"93511";"Indonesia";"";"";"";"-4.0499481";"121.5897408";"https://maps.google.com/?cid=0x0:0xab3346a683ca9b1d";""
"komplek housing";"Pembangunan Perumahan";"Home Ragilgil";"Jl. Durian No.250, Sakuli, Kec. Latambaga, Kabupaten Kolaka, Sulawesi Tenggara 93511";"Sakuli, Kec. Latambaga, Kabupaten Kolaka";"SULAWESI TENGGARA";"93511";"Indonesia";"";"";"";"-4.0424509";"121.5910621";"https://maps.google.com/?cid=0x0:0x92b86a2659b9d7a2";""
"komplek housing";"Komplek perumahan";"rumah bano";"WJX6+863, Jl. Pondui, Laloeha, Kec. Kolaka, Kabupaten Kolaka, Sulawesi Tenggara 93511";"Jl. Pondui, Laloeha, Kec. Kolaka, Kabupaten Kolaka";"SULAWESI TENGGARA";"93511";"Indonesia";"";"";"";"-4.0516922";"121.6105469";"https://maps.google.com/?cid=0x0:0x350c3affe6cab077";""
"komplek housing";"Pembangunan Perumahan";"Rumah Sarwan Amin";"XH4R+RPV, Jl. Durian, Sakuli, Kec. Latambaga, Kabupaten Kolaka, Sulawesi Tenggara 93511";"Jl. Durian, Sakuli, Kec. Latambaga, Kabupaten Kolaka";"SULAWESI TENGGARA";"93511";"Indonesia";"";"";"";"-4.0428774";"121.5917936";"https://maps.google.com/?cid=0x0:0x3b18a9939892f1b9";""
"komplek housing";"Komplek perumahan";"Rumah Aika";"Jl. Pahlawan No.82 a, Lamokato, Kec. Kolaka, Kabupaten Kolaka, Sulawesi Tenggara 93511";"Lamokato, Kec. Kolaka, Kabupaten Kolaka";"SULAWESI TENGGARA";"93511";"Indonesia";"";"";"";"-4.0528226";"121.5941263";"https://maps.google.com/?cid=0x0:0x1d46f94c381e86f6";""
"komplek housing";"Komplek perumahan";"Rumah Aika";"WJV3+QCR, Jl. Usman Rencong, Lamokato, Kec. Kolaka, Kabupaten Kolaka, Sulawesi Tenggara 93511";"Jl. Usman Rencong, Lamokato, Kec. Kolaka, Kabupaten Kolaka";"SULAWESI TENGGARA";"93511";"Indonesia";"";"";"";"-4.0555368";"121.603241";"https://maps.google.com/?cid=0x0:0x91f87e4f864c091e";""
"komplek housing";"Komplek perumahan";"Rumah BianBilal";"Jl. Pondui Indah No.78c, Laloeha, Kec. Kolaka, Kabupaten Kolaka, Sulawesi Tenggara 93511";"Laloeha, Kec. Kolaka, Kabupaten Kolaka";"SULAWESI TENGGARA";"93511";"Indonesia";"";"";"";"-4.0523757";"121.6103097";"https://maps.google.com/?cid=0x0:0xced6de8eb0aaa02";""
"komplek housing";"Komplek perumahan";"rumah Negro";"WJX6+863, Jl. Pondui, Laloeha, Kec. Kolaka, Kabupaten Kolaka, Sulawesi Tenggara 93511";"Jl. Pondui, Laloeha, Kec. Kolaka, Kabupaten Kolaka";"SULAWESI TENGGARA";"93511";"Indonesia";"";"";"";"-4.0527296";"121.6102889";"https://maps.google.com/?cid=0x0:0x99ffe2e8d32c7e52";""
"komplek housing";"komplek housing";"Sulawesi Tenggara 93515";"Kec. Latambaga, Kabupaten Kolaka, Sulawesi Tenggara";"Kabupaten Kolaka, Sulawesi Tenggara";"SULAWESI TENGGARA";"";"Indonesia";"";"";"";"-3.9440218";"121.6340142";"https://maps.google.com/?cid=0x0:0xbcfa53793a9e8ad3";""
"komplek housing";"komplek housing";"Home dimas";"2H67+M5R, Ulunggolaka, Kec. Latambaga, Kabupaten Kolaka, Sulawesi Tenggara";"Kabupaten Kolaka, Sulawesi Tenggara";"SULAWESI TENGGARA";"";"Indonesia";"";"";"";"-3.9883213";"121.5628554";"https://maps.google.com/?cid=0x0:0x40004a0f79183737";""
"komplek housing";"Komplek perumahan";"My house";"BTN Griya Blok H No.33, Kolakaasi, Kec. Latambaga, Kabupaten Kolaka, Sulawesi Tenggara";"Kabupaten Kolaka, Sulawesi Tenggara";"SULAWESI TENGGARA";"";"Indonesia";"";"";"";"-3.9946988";"121.5826642";"https://maps.google.com/?cid=0x0:0xea619d639bf684a2";""
"komplek housing";"Komplek perumahan";"Kos Hino";"2H2Q+F85, Kolakaasi, Kec. Latambaga, Kabupaten Kolaka, Sulawesi Tenggara";"Kabupaten Kolaka, Sulawesi Tenggara";"SULAWESI TENGGARA";"";"Indonesia";"";"";"";"-3.9988671";"121.5883709";"https://maps.google.com/?cid=0x0:0x785c9c75890332b1";""
"komplek housing";"Pembangunan Perumahan";"Home Rika";"XGVX+4R, Mangolo, Kec. Latambaga, Kabupaten Kolaka, Sulawesi Tenggara";"Kabupaten Kolaka, Sulawesi Tenggara";"SULAWESI TENGGARA";"";"Indonesia";"";"";"";"-4.0072351";"121.5496027";"https://maps.google.com/?cid=0x0:0x27f3340e1360f37";""
"komplek housing";"Komplek perumahan";"Home Adell";"XHR2+38Q, Mangolo, Kec. Latambaga, Kabupaten Kolaka, Sulawesi Tenggara 93514";"Mangolo, Kec. Latambaga, Kabupaten Kolaka";"SULAWESI TENGGARA";"93514";"Indonesia";"";"";"";"-4.0097903";"121.5508612";"https://maps.google.com/?cid=0x0:0x2e68b0dd62eb282e";""
"komplek housing";"Pembangunan Perumahan";"HOME DIMASZ";"3H9V+2J4, Ulunggolaka, Kec. Latambaga, Kabupaten Kolaka, Sulawesi Tenggara";"Kabupaten Kolaka, Sulawesi Tenggara";"SULAWESI TENGGARA";"";"Indonesia";"";"";"";"-3.9324903";"121.5940773";"https://maps.google.com/?cid=0x0:0x273d0c46eae4efee";""
"komplek housing";"komplek housing";"Lorong sapati";"2H4M+43F, Kolakaasi, Kec. Latambaga, Kabupaten Kolaka, Sulawesi Tenggara";"Kabupaten Kolaka, Sulawesi Tenggara";"SULAWESI TENGGARA";"";"Indonesia";"";"";"";"-3.9946988";"121.5826642";"https://maps.google.com/?cid=0x0:0xfcd5b4ef476550e0";""
"komplek housing";"Kompleks Apartemen";"Home IOC H.Kammy";"XGCW+87W, Mangolo - Kp. Tua, Mangolo, Kec. Latambaga, Kabupaten Kolaka, Sulawesi Tenggara 93514";"Mangolo - Kp. Tua, Mangolo, Kec. Latambaga, Kabupaten Kolaka";"SULAWESI TENGGARA";"93514";"Indonesia";"";"";"";"-4.0294266";"121.5452984";"https://maps.google.com/?cid=0x0:0x83cc692bf4245851";""
"komplek housing";"Rumah Kayu";"RUMAH IRFAN";"2J8Q+JVG rw5 dekat kantor lurah baru, Sakuli, Kec. Latambaga, Kabupaten Kolaka, Sulawesi Tenggara";"Kabupaten Kolaka, Sulawesi Tenggara";"SULAWESI TENGGARA";"";"Indonesia";"";"";"";"-3.983441";"121.6397184";"https://maps.google.com/?cid=0x0:0xc6af165586cbf4b4";""
"komplek housing";"Pertanian Organik";"BTN GREENVILLE RESIDENCE HUKO-HUKO BLOK E NO.100";"RJ8X+4J2, Unnamed Road, Pesouha, Kec. Pomalaa, Kabupaten Kolaka, Sulawesi Tenggara 93562";"Unnamed Road, Pesouha, Kec. Pomalaa, Kabupaten Kolaka";"SULAWESI TENGGARA";"93562";"Indonesia";"";"";"";"-4.1847323";"121.6490253";"https://maps.google.com/?cid=0x0:0xe84130ce5d0250fb";""
"komplek housing";"Komplek perumahan";"Rumah Adiba Aura";"3H9V+2J4, Ulunggolaka, Kec. Latambaga, Kabupaten Kolaka, Sulawesi Tenggara";"Kabupaten Kolaka, Sulawesi Tenggara";"SULAWESI TENGGARA";"";"Indonesia";"";"";"";"-3.9324903";"121.5940773";"https://maps.google.com/?cid=0x0:0xd41617061d4f1496";""
"komplek housing";"Pembangunan Perumahan";"Rumah";"XHF3+V38, Lorong smpn 1, Mangolo, Kec. Latambaga, Kabupaten Kolaka, Sulawesi Tenggara";"Kabupaten Kolaka, Sulawesi Tenggara";"SULAWESI TENGGARA";"";"Indonesia";"";"";"";"-4.0253383";"121.5526888";"https://maps.google.com/?cid=0x0:0x9f6f728237283e9c";""
"komplek housing";"Komplek perumahan";"Rumah bunda Alika";"2H2Q+F85, Kolakaasi, Kec. Latambaga, Kabupaten Kolaka, Sulawesi Tenggara";"Kabupaten Kolaka, Sulawesi Tenggara";"SULAWESI TENGGARA";"";"Indonesia";"";"";"";"-3.9988671";"121.5883709";"https://maps.google.com/?cid=0x0:0x72eff2be5b4aab58";""
"komplek housing";"Komplek perumahan";"Sulkarnaen";"rw No.5, Ulunggolaka, Kec. Latambaga, Kabupaten Kolaka, Sulawesi Tenggara";"Kabupaten Kolaka, Sulawesi Tenggara";"SULAWESI TENGGARA";"";"Indonesia";"";"";"";"-3.9324903";"121.5940773";"https://maps.google.com/?cid=0x0:0x8c50322a2b25a157";""
"komplek housing";"komplek housing";"Rumah Yudhit";"2G6X+R8G, Ulunggolaka, Kec. Latambaga, Kabupaten Kolaka, Sulawesi Tenggara 93514";"Ulunggolaka, Kec. Latambaga, Kabupaten Kolaka";"SULAWESI TENGGARA";"93514";"Indonesia";"";"";"";"-3.98777";"121.54792";"https://maps.google.com/?cid=0x0:0x579c26e7d6f855b6";""
"komplek housing";"komplek housing";"Rumah indo tuo";"2G6X+R8G, Ulunggolaka, Kec. Latambaga, Kabupaten Kolaka, Sulawesi Tenggara 93514";"Ulunggolaka, Kec. Latambaga, Kabupaten Kolaka";"SULAWESI TENGGARA";"93514";"Indonesia";"";"";"";"-3.9890722";"121.5483718";"https://maps.google.com/?cid=0x0:0xd3ea8269cbc373df";""
"komplek housing";"Pembangunan Perumahan";"Btn citra latambaga";"XH74+564, Jln poros, Mangolo, Kec. Latambaga, Kabupaten Kolaka, Sulawesi Tenggara";"Kabupaten Kolaka, Sulawesi Tenggara";"SULAWESI TENGGARA";"";"Indonesia";"";"";"";"-4.0371108";"121.5555842";"https://maps.google.com/?cid=0x0:0x43b5ef9c49ad59ff";""
"komplek housing";"Pembangunan Perumahan";"Dusun 4 mattiro deceng";"2H4M+43F, Dusun4, mattiro deceng penanggootu, Kabupaten Kolaka, Sulawesi Tenggara";"Kabupaten Kolaka, Sulawesi Tenggara";"SULAWESI TENGGARA";"";"Indonesia";"";"";"";"-3.9946988";"121.5826642";"https://maps.google.com/?cid=0x0:0x82d2a2812f0ee813";""
"komplek housing";"Komplek perumahan";"Rumah pelatih drumband";"XGGX+W9M, Mangolo, Kec. Latambaga, Kabupaten Kolaka, Sulawesi Tenggara";"Kabupaten Kolaka, Sulawesi Tenggara";"SULAWESI TENGGARA";"";"Indonesia";"";"";"";"-4.0226519";"121.548418";"https://maps.google.com/?cid=0x0:0x4b7835c4edd043f";""
"komplek housing";"komplek housing";"Kabupaten Kolaka";"Sulawesi Tenggara";"Kabupaten Kolaka, Sulawesi Tenggara";"SULAWESI TENGGARA";"";"Indonesia";"";"";"";"-3.9946988";"121.5826642";"https://maps.google.com/?cid=0x0:0x3030bfbcaf77190";""
"komplek housing";"Layanan Distribusi";"Borwita Depo Kolaka";"Jl. Planduk No.21, Lalombaa, Kec. Kolaka, Kabupaten Kolaka, Sulawesi Tenggara 93515";"Lalombaa, Kec. Kolaka, Kabupaten Kolaka";"SULAWESI TENGGARA";"93515";"Indonesia";"";"";"";"-4.076925";"121.6348731";"https://maps.google.com/?cid=0x0:0xcffc6e1daabac804";""
"komplek housing";"komplek housing";"Sulawesi Tenggara 93517";"Kabupaten Kolaka, Sulawesi Tenggara";"Kabupaten Kolaka, Sulawesi Tenggara";"SULAWESI TENGGARA";"";"Indonesia";"";"";"";"-3.963869";"121.685341";"https://maps.google.com/?cid=0x0:0x1a35f1f1160e7b69";""
"komplek housing";"Komplek perumahan";"Perumahan subsidi MP residence";"WMVR+GC7, Sabilambo, Kec. Kolaka, Kabupaten Kolaka, Sulawesi Tenggara";"Kabupaten Kolaka, Sulawesi Tenggara";"SULAWESI TENGGARA";"";"Indonesia";"";"";"";"-4.0562169";"121.6910426";"https://maps.google.com/?cid=0x0:0x9356450d2943e2c5";""
"komplek housing";"Komplek perumahan";"Perumahan dinas babinsa";"2PH8+RCW, Puuosu, Mowewe, Kabupaten Kolaka Timur, Sulawesi Tenggara 93518";"Puuosu, Mowewe, Kabupaten Kolaka Timur";"SULAWESI TENGGARA";"93518";"Indonesia";"";"";"";"-3.9704488";"121.7161632";"https://maps.google.com/?cid=0x0:0xe2b9de46b9fdebdc";""
"komplek housing";"komplek housing";"Home Miya";"2PW8+J4, Nelombu, Mowewe, Kabupaten Kolaka Timur, Sulawesi Tenggara";"Kabupaten Kolaka Timur, Sulawesi Tenggara";"SULAWESI TENGGARA";"";"Indonesia";"";"";"";"-3.953401";"121.7153068";"https://maps.google.com/?cid=0x0:0xb312390f1a7c979b";""
"komplek housing";"Pembangunan Perumahan";"Widya Ningsih (HOUSE)";"2P6V+CVJ, Watupute, Mowewe, Kabupaten Kolaka Timur, Sulawesi Tenggara 93519";"Watupute, Mowewe, Kabupaten Kolaka Timur";"SULAWESI TENGGARA";"93519";"Indonesia";"";"";"";"-3.9879738";"121.7448077";"https://maps.google.com/?cid=0x0:0x49a28eb7016cf1ed";""
"komplek housing";"komplek housing";"Namira Home";"2M8W+2JX, Puuosu, Mowewe, Kabupaten Kolaka Timur, Sulawesi Tenggara";"Kabupaten Kolaka Timur, Sulawesi Tenggara";"SULAWESI TENGGARA";"";"Indonesia";"";"";"";"-3.9861413";"121.6971861";"https://maps.google.com/?cid=0x0:0xd3281debfaf2b894";""
"komplek housing";"Komplek perumahan";"Andi";"XM99+P75, Balandete, Kec. Kolaka, Kabupaten Kolaka, Sulawesi Tenggara";"Kabupaten Kolaka, Sulawesi Tenggara";"SULAWESI TENGGARA";"";"Indonesia";"";"";"";"-4.0307297";"121.6682347";"https://maps.google.com/?cid=0x0:0x432136c98fe82442";""
"komplek housing";"Rumah Kayu";"RUMAH IRFAN";"2J8Q+JVG rw5 dekat kantor lurah baru, Sakuli, Kec. Latambaga, Kabupaten Kolaka, Sulawesi Tenggara";"Kabupaten Kolaka, Sulawesi Tenggara";"SULAWESI TENGGARA";"";"Indonesia";"";"";"";"-3.983441";"121.6397184";"https://maps.google.com/?cid=0x0:0xc6af165586cbf4b4";""
"komplek housing";"Komplek perumahan";"Elisa home";"2M8W+2JX, Puuosu, Mowewe, Kabupaten Kolaka Timur, Sulawesi Tenggara";"Kabupaten Kolaka Timur, Sulawesi Tenggara";"SULAWESI TENGGARA";"";"Indonesia";"";"";"";"-3.9848927";"121.6966054";"https://maps.google.com/?cid=0x0:0x486d76b454cf74ab";""
"komplek housing";"Komplek perumahan";"Horodopi";"2P5V+PF7, Horodopi, Mowewe, Kabupaten Kolaka Timur, Sulawesi Tenggara 93519";"Horodopi, Mowewe, Kabupaten Kolaka Timur";"SULAWESI TENGGARA";"93519";"Indonesia";"";"";"";"-3.991519";"121.744373";"https://maps.google.com/?cid=0x0:0x26feac0bf802c7ac";""
"komplek housing";"Pembangunan Perumahan";"Rumah Tower";"2PVM+WG7, Woitombo, Mowewe, Kabupaten Kolaka Timur, Sulawesi Tenggara";"Kabupaten Kolaka Timur, Sulawesi Tenggara";"SULAWESI TENGGARA";"";"Indonesia";"";"";"";"-3.9552018";"121.7337949";"https://maps.google.com/?cid=0x0:0xe1e7a2dc95169f45";""
"komplek housing";"Komplek perumahan";"Perumahan Bumi Tahoa Permai";"Unnamed Road, Tahoa, Kec. Kolaka, Kabupaten Kolaka, Sulawesi Tenggara 93561";"Tahoa, Kec. Kolaka, Kabupaten Kolaka";"SULAWESI TENGGARA";"93561";"Indonesia";" 085284001211";"";"";"-4.0790061";"121.6141584";"https://maps.google.com/?cid=0x0:0xe22bcf8d831e3e32";""
"komplek housing";"Komplek perumahan";"UD. MERKASA WARGA (HASRUDDIN)";"2PWC+7HC, Nelombu, Mowewe, Kabupaten Kolaka Timur, Sulawesi Tenggara 93518";"Nelombu, Mowewe, Kabupaten Kolaka Timur";"SULAWESI TENGGARA";"93518";"Indonesia";"";"";"";"-3.9539186";"121.7214027";"https://maps.google.com/?cid=0x0:0xe3dfda4a0ac936f2";""
"komplek housing";"Komplek perumahan";"Nilla Sari (House)";"2P9P+95, Inebenggi, Mowewe, Kabupaten Kolaka Timur, Sulawesi Tenggara";"Kabupaten Kolaka Timur, Sulawesi Tenggara";"SULAWESI TENGGARA";"";"Indonesia";"";"";"";"-3.9815574";"121.7354106";"https://maps.google.com/?cid=0x0:0xdb9b9cfbb4a169ca";""
"komplek housing";"Komplek perumahan";"RUMAH ARYA PRATAMA 027";"3P28+VXM, Nelombu, Mowewe, Kabupaten Kolaka Timur, Sulawesi Tenggara";"Kabupaten Kolaka Timur, Sulawesi Tenggara";"SULAWESI TENGGARA";"";"Indonesia";"";"";"";"-3.9477987";"121.7174351";"https://maps.google.com/?cid=0x0:0x10ec52c43418908";""
"komplek housing";"Pembangunan Perumahan";"RUTIN/Kadis 1(wekara kaya)";"Jl. Pendidikan No.1, Lapangisi, Mowewe, Kabupaten Kolaka Timur, Sulawesi Tenggara 93571";"Lapangisi, Mowewe, Kabupaten Kolaka Timur";"SULAWESI TENGGARA";"93571";"Indonesia";"";"";"";"-3.9887331";"121.7378407";"https://maps.google.com/?cid=0x0:0xcbc458676cea3f4f";""
"komplek housing";"Komplek perumahan";"RUMAH UMNA";"2PFM+HH4, Inebenggi, Mowewe, Kabupaten Kolaka Timur, Sulawesi Tenggara 93519";"Inebenggi, Mowewe, Kabupaten Kolaka Timur";"SULAWESI TENGGARA";"93519";"Indonesia";"";"";"";"-3.9749376";"121.7340192";"https://maps.google.com/?cid=0x0:0x51bcdcf56e6ad9f1";""
"komplek housing";"Komplek perumahan";"NauQi NaQia";"XM99+P75, Balandete, Kec. Kolaka, Kabupaten Kolaka, Sulawesi Tenggara";"Kabupaten Kolaka, Sulawesi Tenggara";"SULAWESI TENGGARA";"";"Indonesia";"";"";"";"-4.0307297";"121.6682347";"https://maps.google.com/?cid=0x0:0xf06e3131e1a5552b";""
"komplek housing";"Pembangunan Perumahan";"HOME DIMASZ";"3H9V+2J4, Ulunggolaka, Kec. Latambaga, Kabupaten Kolaka, Sulawesi Tenggara";"Kabupaten Kolaka, Sulawesi Tenggara";"SULAWESI TENGGARA";"";"Indonesia";"";"";"";"-3.9324903";"121.5940773";"https://maps.google.com/?cid=0x0:0x273d0c46eae4efee";""
"komplek housing";"Balai masyarakat";"Dusun IV anasui";"2MJR+97, Puuosu, Mowewe, Kabupaten Kolaka Timur, Sulawesi Tenggara";"Kabupaten Kolaka Timur, Sulawesi Tenggara";"SULAWESI TENGGARA";"";"Indonesia";"";"";"";"-3.9690122";"121.6906963";"https://maps.google.com/?cid=0x0:0xc1cbe12bf74e5d37";""
"komplek housing";"komplek housing";"Kabupaten Kolaka";"Sulawesi Tenggara";"Kabupaten Kolaka, Sulawesi Tenggara";"SULAWESI TENGGARA";"";"Indonesia";"";"";"";"-3.9946988";"121.5826642";"https://maps.google.com/?cid=0x0:0x3030bfbcaf77190";""
"komplek housing";"Perumahan";"BTN GRIYA TANAH JAYA NO. B5";"BTN GRIYA TANAH JAYA No.B5, Balandete, Kec. Kolaka, Kabupaten Kolaka, Sulawesi Tenggara 93517";"Balandete, Kec. Kolaka, Kabupaten Kolaka";"SULAWESI TENGGARA";"93517";"Indonesia";"";"";"";"-4.0715787";"121.6310846";"https://maps.google.com/?cid=0x0:0x34fddc4b4c26bae3";""
"komplek housing";"Perumahan";"Home Qirani Ardiaz";"BTN GRIYA TANAH JAYA No.B4, Balandete, Kec. Kolaka, Kabupaten Kolaka, Sulawesi Tenggara 93517";"Balandete, Kec. Kolaka, Kabupaten Kolaka";"SULAWESI TENGGARA";"93517";"Indonesia";"";"";"";"-4.0717338";"121.6306816";"https://maps.google.com/?cid=0x0:0xa19eae25a628aeb8";""
"komplek housing";"Perumahan";"home hasbi";"Jl. Badawi BTN Villa Indah No.15, Balandete, Kec. Kolaka, Kabupaten Kolaka, Sulawesi Tenggara 93517";"Balandete, Kec. Kolaka, Kabupaten Kolaka";"SULAWESI TENGGARA";"93517";"Indonesia";"";"";"";"-4.0710298";"121.6310988";"https://maps.google.com/?cid=0x0:0x1111eceb199da9dd";""
"komplek housing";"Komplek perumahan";"RUMAH";"Jl. Badawi BTN Villa Indah No.B11, Balandete, Kec. Kolaka, Kabupaten Kolaka, Sulawesi Tenggara 93517";"Balandete, Kec. Kolaka, Kabupaten Kolaka";"SULAWESI TENGGARA";"93517";"Indonesia";"";"";"";"-4.071282";"121.6310384";"https://maps.google.com/?cid=0x0:0x7d9aea2684b59002";""
"komplek housing";"Pembangunan Perumahan";"Cv. Yasa Perkasa Internasional";"Btn tahoa No.4, Tahoa, Kec. Kolaka, Kabupaten Kolaka, Sulawesi Tenggara 93517";"Tahoa, Kec. Kolaka, Kabupaten Kolaka";"SULAWESI TENGGARA";"93517";"Indonesia";"";"";"";"-4.0699366";"121.6198517";"https://maps.google.com/?cid=0x0:0xd035fe5970e2844f";""
"komplek housing";"Perumahan";"BTN GRIYA SATELIT KOLAKA";"WJJF+JF9, Balandete, Kec. Kolaka, Kabupaten Kolaka, Sulawesi Tenggara 93561";"Balandete, Kec. Kolaka, Kabupaten Kolaka";"SULAWESI TENGGARA";"93561";"Indonesia";"";"";"";"-4.0684689";"121.6237372";"https://maps.google.com/?cid=0x0:0x5e3854668c215859";""
"komplek housing";"Komplek perumahan";"BTN Villa Indah Balandete Blok G 17";"BTN Villa Indah, Jl. Badawi No.17 Blok G, Balandete, Kec. Kolaka, Kabupaten Kolaka, Sulawesi Tenggara 93517";"Jl. Badawi No.17 Blok G, Balandete, Kec. Kolaka, Kabupaten Kolaka";"SULAWESI TENGGARA";"93517";"Indonesia";"";"";"";"-4.0710575";"121.6314639";"https://maps.google.com/?cid=0x0:0x74fc0c3bc66a75fe";""
"komplek housing";"Komplek perumahan";"Home faisal kasal";"BTN Villa Indah, Jl. Badawi Blok F12, Balandete, Kec. Kolaka, Kabupaten Kolaka, Sulawesi Tenggara 93517";"Jl. Badawi Blok F12, Balandete, Kec. Kolaka, Kabupaten Kolaka";"SULAWESI TENGGARA";"93517";"Indonesia";"";"";"";"-4.0707997";"121.6313684";"https://maps.google.com/?cid=0x0:0x5903be075eb5351d";""
"komplek housing";"komplek housing";"Sulawesi Tenggara 93518";"Kabupaten Kolaka, Sulawesi Tenggara";"Kabupaten Kolaka, Sulawesi Tenggara";"SULAWESI TENGGARA";"";"Indonesia";"";"";"";"-3.9939793";"121.7024448";"https://maps.google.com/?cid=0x0:0x6ae8303bcfa882a1";""
"komplek housing";"Komplek perumahan";"Home OjiNina";"Jl. Kasuari No.5, Laloeha, Kec. Kolaka, Kabupaten Kolaka, Sulawesi Tenggara 93561";"Laloeha, Kec. Kolaka, Kabupaten Kolaka";"SULAWESI TENGGARA";"93561";"Indonesia";"";"";"";"-4.0601196";"121.6108427";"https://maps.google.com/?cid=0x0:0xf468648e6795e794";""
"komplek housing";"Komplek perumahan";"Nilla Sari (House)";"2P9P+95, Inebenggi, Mowewe, Kabupaten Kolaka Timur, Sulawesi Tenggara";"Kabupaten Kolaka Timur, Sulawesi Tenggara";"SULAWESI TENGGARA";"";"Indonesia";"";"";"";"-3.9815574";"121.7354106";"https://maps.google.com/?cid=0x0:0xdb9b9cfbb4a169ca";""
"komplek housing";"Gedung Apartemen";"Rumah Fhiko";"WJGQ+9JH, Blok A BMP, Lalombaa, Kec. Kolaka, Kabupaten Kolaka, Sulawesi Tenggara";"Kabupaten Kolaka, Sulawesi Tenggara";"SULAWESI TENGGARA";"";"Indonesia";"";"";"";"-4.0740611";"121.6390995";"https://maps.google.com/?cid=0x0:0xbf156c76391a6b30";""
"komplek housing";"komplek housing";"Home Miya";"2PW8+J4, Nelombu, Mowewe, Kabupaten Kolaka Timur, Sulawesi Tenggara";"Kabupaten Kolaka Timur, Sulawesi Tenggara";"SULAWESI TENGGARA";"";"Indonesia";"";"";"";"-3.953401";"121.7153068";"https://maps.google.com/?cid=0x0:0xb312390f1a7c979b";""
"komplek housing";"komplek housing";"Bambang hasid";"WMVC+Q2M, Sabilambo, Kec. Kolaka, Kabupaten Kolaka, Sulawesi Tenggara";"Kabupaten Kolaka, Sulawesi Tenggara";"SULAWESI TENGGARA";"";"Indonesia";"";"";"";"-4.0555318";"121.6700314";"https://maps.google.com/?cid=0x0:0xbfcefb502e2d05ba";""
"komplek housing";"Taman";"Kompleks Kehutanan";"WJR3+WQW, Jl. Swasembada, Lamokato, Kec. Kolaka, Kabupaten Kolaka, Sulawesi Tenggara 93561";"Jl. Swasembada, Lamokato, Kec. Kolaka, Kabupaten Kolaka";"SULAWESI TENGGARA";"93561";"Indonesia";"";"";"";"-4.057636";"121.6045092";"https://maps.google.com/?cid=0x0:0xa3498e9721655dcd";""
"komplek housing";"Komplek perumahan";"Horodopi";"2P5V+PF7, Horodopi, Mowewe, Kabupaten Kolaka Timur, Sulawesi Tenggara 93519";"Horodopi, Mowewe, Kabupaten Kolaka Timur";"SULAWESI TENGGARA";"93519";"Indonesia";"";"";"";"-3.991519";"121.744373";"https://maps.google.com/?cid=0x0:0x26feac0bf802c7ac";""
"komplek housing";"Komplek perumahan";"Perumahan subsidi MP residence";"WMVR+GC7, Sabilambo, Kec. Kolaka, Kabupaten Kolaka, Sulawesi Tenggara";"Kabupaten Kolaka, Sulawesi Tenggara";"SULAWESI TENGGARA";"";"Indonesia";"";"";"";"-4.0562169";"121.6910426";"https://maps.google.com/?cid=0x0:0x9356450d2943e2c5";""
"komplek housing";"Perhimpunan Pengembang Perumahan";"Nanda’s home";"WJPF+JMF, Jl. Badawi, Balandete, Kec. Kolaka, Kabupaten Kolaka, Sulawesi Tenggara 93561";"Jl. Badawi, Balandete, Kec. Kolaka, Kabupaten Kolaka";"SULAWESI TENGGARA";"93561";"Indonesia";"";"";"";"-4.0634418";"121.624162";"https://maps.google.com/?cid=0x0:0xa062e767bc1ef929";""
"komplek housing";"Pembangunan Perumahan";"Widya Ningsih (HOUSE)";"2P6V+CVJ, Watupute, Mowewe, Kabupaten Kolaka Timur, Sulawesi Tenggara 93519";"Watupute, Mowewe, Kabupaten Kolaka Timur";"SULAWESI TENGGARA";"93519";"Indonesia";"";"";"";"-3.9879738";"121.7448077";"https://maps.google.com/?cid=0x0:0x49a28eb7016cf1ed";""
"komplek housing";"Komplek perumahan";"Rumah Athifah";"2P7W+V7R, Watupute, Mowewe, Kabupaten Kolaka Timur, Sulawesi Tenggara";"Kabupaten Kolaka Timur, Sulawesi Tenggara";"SULAWESI TENGGARA";"";"Indonesia";"";"";"";"-3.9852633";"121.745627";"https://maps.google.com/?cid=0x0:0x922be31095f95167";""
"komplek housing";"Komplek perumahan";"Andi";"XM99+P75, Balandete, Kec. Kolaka, Kabupaten Kolaka, Sulawesi Tenggara";"Kabupaten Kolaka, Sulawesi Tenggara";"SULAWESI TENGGARA";"";"Indonesia";"";"";"";"-4.0307297";"121.6682347";"https://maps.google.com/?cid=0x0:0x432136c98fe82442";""
"komplek housing";"Pembangunan Perumahan";"Muh. Arsyad Musa Home";"2PMH+JV3, Woitombo, Mowewe, Kabupaten Kolaka Timur, Sulawesi Tenggara 93518";"Woitombo, Mowewe, Kabupaten Kolaka Timur";"SULAWESI TENGGARA";"93518";"Indonesia";"";"";"";"-3.9660074";"121.7296019";"https://maps.google.com/?cid=0x0:0x744954364b81ea1";""
"komplek housing";"Pembangunan Perumahan";"Aisha's house";"WJV6+W4H, Jl. Pondui Indah, Laloeha, Kec. Kolaka, Kabupaten Kolaka, Sulawesi Tenggara";"Kabupaten Kolaka, Sulawesi Tenggara";"SULAWESI TENGGARA";"";"Indonesia";"";"";"";"-4.0551773";"121.6103455";"https://maps.google.com/?cid=0x0:0x5e1ce3878af3548";""
"komplek housing";"Pembangunan Perumahan";"Rumah Tower";"2PVM+WG7, Woitombo, Mowewe, Kabupaten Kolaka Timur, Sulawesi Tenggara";"Kabupaten Kolaka Timur, Sulawesi Tenggara";"SULAWESI TENGGARA";"";"Indonesia";"";"";"";"-3.9552018";"121.7337949";"https://maps.google.com/?cid=0x0:0xe1e7a2dc95169f45";""
"komplek housing";"Komplek perumahan";"Rumah yenni hogi";"WJCQ+PHH, Lalombaa, Kec. Kolaka, Kabupaten Kolaka, Sulawesi Tenggara 93561";"Lalombaa, Kec. Kolaka, Kabupaten Kolaka";"SULAWESI TENGGARA";"93561";"Indonesia";"";"";"";"-4.0781973";"121.6389785";"https://maps.google.com/?cid=0x0:0x4fb6c5bc560b8ffb";""
"komplek housing";"Perumahan";"home hasbi";"Jl. Badawi BTN Villa Indah No.15, Balandete, Kec. Kolaka, Kabupaten Kolaka, Sulawesi Tenggara 93517";"Balandete, Kec. Kolaka, Kabupaten Kolaka";"SULAWESI TENGGARA";"93517";"Indonesia";"";"";"";"-4.0710298";"121.6310988";"https://maps.google.com/?cid=0x0:0x1111eceb199da9dd";""
"komplek housing";"Komplek perumahan";"R  S HOME";"WJHJ+FFF, Kolaka, Sakuli, Kec. Latambaga, Kabupaten Kolaka, Sulawesi Tenggara";"Kabupaten Kolaka, Sulawesi Tenggara";"SULAWESI TENGGARA";"";"Indonesia";"";"";"";"-4.0713241";"121.6311588";"https://maps.google.com/?cid=0x0:0x1ea4d62693f9b64";""
"komplek housing";"komplek housing";"Kolaka";"Sakuli, Kec. Latambaga, Kabupaten Kolaka, Sulawesi Tenggara";"Kabupaten Kolaka, Sulawesi Tenggara";"SULAWESI TENGGARA";"";"Indonesia";"";"";"";"-4.0513522";"121.5997835";"https://maps.google.com/?cid=0x0:0x664cb969301936de";""
"komplek housing";"komplek housing";"Rumah ALFANDI";"WJPF+RXH, Jl. Badawi, Balandete, Kec. Kolaka, Kabupaten Kolaka, Sulawesi Tenggara 93561";"Jl. Badawi, Balandete, Kec. Kolaka, Kabupaten Kolaka";"SULAWESI TENGGARA";"93561";"Indonesia";"";"";"";"-4.0629273";"121.6249737";"https://maps.google.com/?cid=0x0:0xa22c80c8b82fce1f";""
"komplek housing";"komplek housing";"Perumahan";"Jl. Ahmad Mustin 2, Laloeha, Kec. Kolaka, Kabupaten Kolaka, Sulawesi Tenggara 93561";"Laloeha, Kec. Kolaka, Kabupaten Kolaka";"SULAWESI TENGGARA";"93561";"Indonesia";"";"";"";"-4.0641801";"121.6147326";"https://maps.google.com/?cid=0x0:0x566e37f03f96fff4";""
"komplek housing";"Pembangunan Perumahan";"Btn citra latambaga";"XH74+564, Jln poros, Mangolo, Kec. Latambaga, Kabupaten Kolaka, Sulawesi Tenggara";"Kabupaten Kolaka, Sulawesi Tenggara";"SULAWESI TENGGARA";"";"Indonesia";"";"";"";"-4.0371108";"121.5555842";"https://maps.google.com/?cid=0x0:0x43b5ef9c49ad59ff";""
"komplek housing";"komplek housing";"DINAL";"WJFQ+5P2, Jl. Perumnas Selatan, Lalombaa, Kec. Kolaka, Kabupaten Kolaka, Sulawesi Tenggara 93518";"Jl. Perumnas Selatan, Lalombaa, Kec. Kolaka, Kabupaten Kolaka";"SULAWESI TENGGARA";"93518";"Indonesia";"";"";"";"-4.0771037";"121.6392308";"https://maps.google.com/?cid=0x0:0xb4f44b48210b4662";""
"komplek housing";"komplek housing";"Sulawesi Tenggara 93519";"Kabupaten Kolaka, Sulawesi Tenggara";"Kabupaten Kolaka, Sulawesi Tenggara";"SULAWESI TENGGARA";"";"Indonesia";"";"";"";"-4.0106276";"121.7252457";"https://maps.google.com/?cid=0x0:0xc434fc2cf93926ea";""
"komplek housing";"Komplek perumahan";"Nilla Sari (House)";"2P9P+95, Inebenggi, Mowewe, Kabupaten Kolaka Timur, Sulawesi Tenggara";"Kabupaten Kolaka Timur, Sulawesi Tenggara";"SULAWESI TENGGARA";"";"Indonesia";"";"";"";"-3.9815574";"121.7354106";"https://maps.google.com/?cid=0x0:0xdb9b9cfbb4a169ca";""
"komplek housing";"Komplek perumahan";"Horodopi";"2P5V+PF7, Horodopi, Mowewe, Kabupaten Kolaka Timur, Sulawesi Tenggara 93519";"Horodopi, Mowewe, Kabupaten Kolaka Timur";"SULAWESI TENGGARA";"93519";"Indonesia";"";"";"";"-3.991519";"121.744373";"https://maps.google.com/?cid=0x0:0x26feac0bf802c7ac";""
"komplek housing";"Komplek perumahan";"Perumahan subsidi MP residence";"WMVR+GC7, Sabilambo, Kec. Kolaka, Kabupaten Kolaka, Sulawesi Tenggara";"Kabupaten Kolaka, Sulawesi Tenggara";"SULAWESI TENGGARA";"";"Indonesia";"";"";"";"-4.0562169";"121.6910426";"https://maps.google.com/?cid=0x0:0x9356450d2943e2c5";""
"komplek housing";"komplek housing";"HOMEBES BABINSA LAPANGISI";"2P5P+X5Q, Lapangisi, Mowewe, Kabupaten Kolaka Timur, Sulawesi Tenggara 93519";"Lapangisi, Mowewe, Kabupaten Kolaka Timur";"SULAWESI TENGGARA";"93519";"Indonesia";"";"";"";"-3.9911947";"121.7357858";"https://maps.google.com/?cid=0x0:0x7b6e4374beff03c9";""
"komplek housing";"Komplek perumahan";"RUMAH UMNA";"2PFM+HH4, Inebenggi, Mowewe, Kabupaten Kolaka Timur, Sulawesi Tenggara 93519";"Inebenggi, Mowewe, Kabupaten Kolaka Timur";"SULAWESI TENGGARA";"93519";"Indonesia";"";"";"";"-3.9749376";"121.7340192";"https://maps.google.com/?cid=0x0:0x51bcdcf56e6ad9f1";""
"komplek housing";"Perumahan";"BTN Mekongga indah residance lalomba";"XM5G+CPV, Lalombaa, Kec. Kolaka, Kabupaten Kolaka, Sulawesi Tenggara";"Kabupaten Kolaka, Sulawesi Tenggara";"SULAWESI TENGGARA";"";"Indonesia";"";"";"";"-4.0413903";"121.6767882";"https://maps.google.com/?cid=0x0:0x555f92147e5f1f3b";""
"komplek housing";"Pembangunan Perumahan";"Widya Ningsih (HOUSE)";"2P6V+CVJ, Watupute, Mowewe, Kabupaten Kolaka Timur, Sulawesi Tenggara 93519";"Watupute, Mowewe, Kabupaten Kolaka Timur";"SULAWESI TENGGARA";"93519";"Indonesia";"";"";"";"-3.9879738";"121.7448077";"https://maps.google.com/?cid=0x0:0x49a28eb7016cf1ed";""
"komplek housing";"Kafe";"BaseCamp ADT189";"Jl. Abdul Madjid, Lapangisi, Mowewe, Kabupaten Kolaka, Sulawesi Tenggara 93519";"Lapangisi, Mowewe, Kabupaten Kolaka";"SULAWESI TENGGARA";"93519";"Indonesia";" 081311265324";"";"";"-3.9871928";"121.7374388";"https://maps.google.com/?cid=0x0:0x3b1af11ce8768614";""
"komplek housing";"Komplek perumahan";"KOMPLEKS SEGI 3 PERMAI";"2P5V+VHJ, Horodopi, Mowewe, Kabupaten Kolaka Timur, Sulawesi Tenggara 93519";"Horodopi, Mowewe, Kabupaten Kolaka Timur";"SULAWESI TENGGARA";"93519";"Indonesia";"";"";"";"-3.990294";"121.7438956";"https://maps.google.com/?cid=0x0:0x931980a620b8e703";""
"komplek housing";"Komplek perumahan";"Rumah Athifah";"2P7W+V7R, Watupute, Mowewe, Kabupaten Kolaka Timur, Sulawesi Tenggara";"Kabupaten Kolaka Timur, Sulawesi Tenggara";"SULAWESI TENGGARA";"";"Indonesia";"";"";"";"-3.9852633";"121.745627";"https://maps.google.com/?cid=0x0:0x922be31095f95167";""
"komplek housing";"Pembangunan Perumahan";"Rumah Tower";"2PVM+WG7, Woitombo, Mowewe, Kabupaten Kolaka Timur, Sulawesi Tenggara";"Kabupaten Kolaka Timur, Sulawesi Tenggara";"SULAWESI TENGGARA";"";"Indonesia";"";"";"";"-3.9552018";"121.7337949";"https://maps.google.com/?cid=0x0:0xe1e7a2dc95169f45";""
"komplek housing";"Pembangunan Perumahan";"Muh. Arsyad Musa Home";"2PMH+JV3, Woitombo, Mowewe, Kabupaten Kolaka Timur, Sulawesi Tenggara 93518";"Woitombo, Mowewe, Kabupaten Kolaka Timur";"SULAWESI TENGGARA";"93518";"Indonesia";"";"";"";"-3.9660074";"121.7296019";"https://maps.google.com/?cid=0x0:0x744954364b81ea1";""
"komplek housing";"Pembangunan Perumahan";"Irfan";"2P2W+F3W, Horodopi, Mowewe, Kabupaten Kolaka Timur, Sulawesi Tenggara";"Kabupaten Kolaka Timur, Sulawesi Tenggara";"SULAWESI TENGGARA";"";"Indonesia";"";"";"";"-3.9987515";"121.7451927";"https://maps.google.com/?cid=0x0:0xe459381fa0c8a79d";""
"komplek housing";"Komplek perumahan";"Elisa home";"2M8W+2JX, Puuosu, Mowewe, Kabupaten Kolaka Timur, Sulawesi Tenggara";"Kabupaten Kolaka Timur, Sulawesi Tenggara";"SULAWESI TENGGARA";"";"Indonesia";"";"";"";"-3.9848927";"121.6966054";"https://maps.google.com/?cid=0x0:0x486d76b454cf74ab";""
"komplek housing";"Komplek perumahan";"Indar";"2Q92+J9R, Watupute, Mowewe, Kabupaten Kolaka Timur, Sulawesi Tenggara";"Kabupaten Kolaka Timur, Sulawesi Tenggara";"SULAWESI TENGGARA";"";"Indonesia";"";"";"";"-3.9808881";"121.7508912";"https://maps.google.com/?cid=0x0:0x9ea9fadb81424469";""
"komplek housing";"Kompleks Apartemen";"Kampung kelengkeng";"2Q54+WW5, Watupute, Mowewe, Kabupaten Kolaka Timur, Sulawesi Tenggara";"Kabupaten Kolaka Timur, Sulawesi Tenggara";"SULAWESI TENGGARA";"";"Indonesia";"";"";"";"-3.9902292";"121.757365";"https://maps.google.com/?cid=0x0:0xc54540b78b1a041d";""
"komplek housing";"Pertanian Organik";"BTN GREENVILLE RESIDENCE HUKO-HUKO BLOK E NO.100";"RJ8X+4J2, Unnamed Road, Pesouha, Kec. Pomalaa, Kabupaten Kolaka, Sulawesi Tenggara 93562";"Unnamed Road, Pesouha, Kec. Pomalaa, Kabupaten Kolaka";"SULAWESI TENGGARA";"93562";"Indonesia";"";"";"";"-4.1847323";"121.6490253";"https://maps.google.com/?cid=0x0:0xe84130ce5d0250fb";""
"komplek housing";"Pembangunan Perumahan";"RUTIN/Kadis 1(wekara kaya)";"Jl. Pendidikan No.1, Lapangisi, Mowewe, Kabupaten Kolaka Timur, Sulawesi Tenggara 93571";"Lapangisi, Mowewe, Kabupaten Kolaka Timur";"SULAWESI TENGGARA";"93571";"Indonesia";"";"";"";"-3.9887331";"121.7378407";"https://maps.google.com/?cid=0x0:0xcbc458676cea3f4f";""
"komplek housing";"Komplek perumahan";"Andi";"XM99+P75, Balandete, Kec. Kolaka, Kabupaten Kolaka, Sulawesi Tenggara";"Kabupaten Kolaka, Sulawesi Tenggara";"SULAWESI TENGGARA";"";"Indonesia";"";"";"";"-4.0307297";"121.6682347";"https://maps.google.com/?cid=0x0:0x432136c98fe82442";""
"komplek housing";"Komplek perumahan";"Noerwand";"2P7W+4PJ, Watupute, Mowewe, Kabupaten Kolaka Timur, Sulawesi Tenggara 93519";"Watupute, Mowewe, Kabupaten Kolaka Timur";"SULAWESI TENGGARA";"93519";"Indonesia";"";"";"";"-3.9871511";"121.7467749";"https://maps.google.com/?cid=0x0:0x3568d0dcf7ae07ad";""
"komplek housing";"Pembangunan Perumahan";"PERUMAHAN ROYAL MADANI KOLAKA";"Jl. Belibis No.9, Laloeha, Kec. Kolaka, Kabupaten Kolaka, Sulawesi Tenggara 93561";"Laloeha, Kec. Kolaka, Kabupaten Kolaka";"SULAWESI TENGGARA";"93561";"Indonesia";" 085284001211";"";"";"-4.0613456";"121.6078846";"https://maps.google.com/?cid=0x0:0x53d65316027168be";""
"komplek housing";"komplek housing";"Kabupaten Kolaka";"Sulawesi Tenggara";"Kabupaten Kolaka, Sulawesi Tenggara";"SULAWESI TENGGARA";"";"Indonesia";"";"";"";"-3.9946988";"121.5826642";"https://maps.google.com/?cid=0x0:0x3030bfbcaf77190";""
"komplek housing";"Komplek perumahan";"Le nares";"2P6W+P98, Watupute, Mowewe, Kabupaten Kolaka Timur, Sulawesi Tenggara 93519";"Watupute, Mowewe, Kabupaten Kolaka Timur";"SULAWESI TENGGARA";"93519";"Indonesia";"";"";"";"-3.9879347";"121.7465314";"https://maps.google.com/?cid=0x0:0x381354ea49a37940";""
"komplek housing";"Pembangunan Perumahan";"Btn citra latambaga";"XH74+564, Jln poros, Mangolo, Kec. Latambaga, Kabupaten Kolaka, Sulawesi Tenggara";"Kabupaten Kolaka, Sulawesi Tenggara";"SULAWESI TENGGARA";"";"Indonesia";"";"";"";"-4.0371108";"121.5555842";"https://maps.google.com/?cid=0x0:0x43b5ef9c49ad59ff";""
"komplek housing";"komplek housing";"????";"2P5V+PF7, Horodopi, Mowewe, Kabupaten Kolaka Timur, Sulawesi Tenggara 93519";"Horodopi, Mowewe, Kabupaten Kolaka Timur";"SULAWESI TENGGARA";"93519";"Indonesia";"";"";"";"-3.9907125";"121.7436719";"https://maps.google.com/?cid=0x0:0xd89a5e0da47ce44f";""
"komplek housing";"komplek housing";"Lorong sapati";"2H4M+43F, Kolakaasi, Kec. Latambaga, Kabupaten Kolaka, Sulawesi Tenggara";"Kabupaten Kolaka, Sulawesi Tenggara";"SULAWESI TENGGARA";"";"Indonesia";"";"";"";"-3.9946988";"121.5826642";"https://maps.google.com/?cid=0x0:0xfcd5b4ef476550e0";""
"komplek housing";"komplek housing";"Sulawesi Tenggara 93512";"Kabupaten Kolaka, Sulawesi Tenggara";"Kabupaten Kolaka, Sulawesi Tenggara";"SULAWESI TENGGARA";"";"Indonesia";"";"";"";"-3.9334506";"121.57125";"https://maps.google.com/?cid=0x0:0x895fb3c283b233f5";""
"komplek housing";"Sekolah Dasar";"Depan SDN 1 induha";"3G7G+V64, Induha, Kec. Latambaga, Kabupaten Kolaka, Sulawesi Tenggara";"Kabupaten Kolaka, Sulawesi Tenggara";"SULAWESI TENGGARA";"";"Indonesia";"";"";"";"-3.9353699";"121.5255815";"https://maps.google.com/?cid=0x0:0xfc0efcd92e89fc70";""
"komplek housing";"Komplek perumahan";"Rumah Erta dusun pada idi";"2G72+X3, Induha, Kec. Latambaga, Kabupaten Kolaka, Sulawesi Tenggara";"Kabupaten Kolaka, Sulawesi Tenggara";"SULAWESI TENGGARA";"";"Indonesia";"";"";"";"-3.9850426";"121.5002161";"https://maps.google.com/?cid=0x0:0x412fba5a754f676f";""
"komplek housing";"komplek housing";"Home dimas";"2H67+M5R, Ulunggolaka, Kec. Latambaga, Kabupaten Kolaka, Sulawesi Tenggara";"Kabupaten Kolaka, Sulawesi Tenggara";"SULAWESI TENGGARA";"";"Indonesia";"";"";"";"-3.9883213";"121.5628554";"https://maps.google.com/?cid=0x0:0x40004a0f79183737";""
"komplek housing";"Komplek perumahan";"Abrar'S House";"XGJJ+H8W, Jl. Poros Ranteangin - Kolaka, Induha, Kec. Latambaga, Kabupaten Kolaka, Sulawesi Tenggara 93512";"Jl. Poros Ranteangin - Kolaka, Induha, Kec. Latambaga, Kabupaten Kolaka";"SULAWESI TENGGARA";"93512";"Indonesia";"";"";"";"-4.021892";"121.5197842";"https://maps.google.com/?cid=0x0:0x42bac6db911413a4";""
"komplek housing";"Pembangunan Perumahan";"HOME DIMASZ";"3H9V+2J4, Ulunggolaka, Kec. Latambaga, Kabupaten Kolaka, Sulawesi Tenggara";"Kabupaten Kolaka, Sulawesi Tenggara";"SULAWESI TENGGARA";"";"Indonesia";"";"";"";"-3.9324903";"121.5940773";"https://maps.google.com/?cid=0x0:0x273d0c46eae4efee";""
"komplek housing";"Komplek perumahan";"Rusly";"2H4M+43F, Kolakaasi, Kec. Latambaga, Kabupaten Kolaka, Sulawesi Tenggara";"Kabupaten Kolaka, Sulawesi Tenggara";"SULAWESI TENGGARA";"";"Indonesia";"";"";"";"-3.9946988";"121.5826642";"https://maps.google.com/?cid=0x0:0xbb7ca7a7bf45b753";""
"komplek housing";"komplek housing";"Rumah indo tuo";"2G6X+R8G, Ulunggolaka, Kec. Latambaga, Kabupaten Kolaka, Sulawesi Tenggara 93514";"Ulunggolaka, Kec. Latambaga, Kabupaten Kolaka";"SULAWESI TENGGARA";"93514";"Indonesia";"";"";"";"-3.9890722";"121.5483718";"https://maps.google.com/?cid=0x0:0xd3ea8269cbc373df";""
"komplek housing";"Pembangunan Perumahan";"Home Rika";"XGVX+4R, Mangolo, Kec. Latambaga, Kabupaten Kolaka, Sulawesi Tenggara";"Kabupaten Kolaka, Sulawesi Tenggara";"SULAWESI TENGGARA";"";"Indonesia";"";"";"";"-4.0072351";"121.5496027";"https://maps.google.com/?cid=0x0:0x27f3340e1360f37";""
"komplek housing";"Kompleks Apartemen";"Home Ian black mamba";"2H67+JVX, Ulunggolaka, Kec. Latambaga, Kabupaten Kolaka, Sulawesi Tenggara";"Kabupaten Kolaka, Sulawesi Tenggara";"SULAWESI TENGGARA";"";"Indonesia";"";"";"";"-3.9885129";"121.5646982";"https://maps.google.com/?cid=0x0:0x50656c90bd35b784";""
"komplek housing";"Komplek perumahan";"Sulkarnaen";"rw No.5, Ulunggolaka, Kec. Latambaga, Kabupaten Kolaka, Sulawesi Tenggara";"Kabupaten Kolaka, Sulawesi Tenggara";"SULAWESI TENGGARA";"";"Indonesia";"";"";"";"-3.9324903";"121.5940773";"https://maps.google.com/?cid=0x0:0x8c50322a2b25a157";""
"komplek housing";"Komplek perumahan";"Home Adell";"XHR2+38Q, Mangolo, Kec. Latambaga, Kabupaten Kolaka, Sulawesi Tenggara 93514";"Mangolo, Kec. Latambaga, Kabupaten Kolaka";"SULAWESI TENGGARA";"93514";"Indonesia";"";"";"";"-4.0097903";"121.5508612";"https://maps.google.com/?cid=0x0:0x2e68b0dd62eb282e";""
"komplek housing";"komplek housing";"Rumah Yudhit";"2G6X+R8G, Ulunggolaka, Kec. Latambaga, Kabupaten Kolaka, Sulawesi Tenggara 93514";"Ulunggolaka, Kec. Latambaga, Kabupaten Kolaka";"SULAWESI TENGGARA";"93514";"Indonesia";"";"";"";"-3.98777";"121.54792";"https://maps.google.com/?cid=0x0:0x579c26e7d6f855b6";""
"komplek housing";"Komplek perumahan";"Rumah Adiba Aura";"3H9V+2J4, Ulunggolaka, Kec. Latambaga, Kabupaten Kolaka, Sulawesi Tenggara";"Kabupaten Kolaka, Sulawesi Tenggara";"SULAWESI TENGGARA";"";"Indonesia";"";"";"";"-3.9324903";"121.5940773";"https://maps.google.com/?cid=0x0:0xd41617061d4f1496";""
"komplek housing";"Komplek perumahan";"Sea.Jln abadi kolaka";"XGGJ+98W, Jl. Abadi, Sea, Kec. Latambaga, Kabupaten Kolaka, Sulawesi Tenggara";"Kabupaten Kolaka, Sulawesi Tenggara";"SULAWESI TENGGARA";"";"Indonesia";"";"";"";"-4.0240227";"121.5308192";"https://maps.google.com/?cid=0x0:0xc0cc90c971755069";""
"komplek housing";"Komplek perumahan";"Lorong asam";"Jl. Poros Kolaka - Wolo No.Km. 18, Lawulo, Kec. Samaturu, Kabupaten Kolaka, Sulawesi Tenggara 93512";"Lawulo, Kec. Samaturu, Kabupaten Kolaka";"SULAWESI TENGGARA";"93512";"Indonesia";"";"";"";"-4.013575";"121.4784335";"https://maps.google.com/?cid=0x0:0xd6f1fd64c6455f50";""
"komplek housing";"Komplek perumahan";"Rumah muslim";"2C2W+8F, Sani Sani, Kec. Samaturu, Kabupaten Kolaka, Sulawesi Tenggara";"Kabupaten Kolaka, Sulawesi Tenggara";"SULAWESI TENGGARA";"";"Indonesia";"";"";"";"-3.99917";"121.446226";"https://maps.google.com/?cid=0x0:0x2c3e349b467c72e1";""
"komplek housing";"Perhimpunan Pengembang Perumahan";"Supradi fams";"XFR5+8QC, Jl. Poros Ranteangin - Kolaka, Sani Sani, Kec. Samaturu, Kabupaten Kolaka, Sulawesi Tenggara 93915";"Jl. Poros Ranteangin - Kolaka, Sani Sani, Kec. Samaturu, Kabupaten Kolaka";"SULAWESI TENGGARA";"93915";"Indonesia";" 082291456305";"";"";"-4.0091986";"121.4593891";"https://maps.google.com/?cid=0x0:0xac9bdcbda5554b1";""
"komplek housing";"Pembangunan Perumahan";"Btn citra latambaga";"XH74+564, Jln poros, Mangolo, Kec. Latambaga, Kabupaten Kolaka, Sulawesi Tenggara";"Kabupaten Kolaka, Sulawesi Tenggara";"SULAWESI TENGGARA";"";"Indonesia";"";"";"";"-4.0371108";"121.5555842";"https://maps.google.com/?cid=0x0:0x43b5ef9c49ad59ff";""
"komplek housing";"komplek housing";"Kec. Latambaga";"Kabupaten Kolaka, Sulawesi Tenggara";"Kabupaten Kolaka, Sulawesi Tenggara";"SULAWESI TENGGARA";"";"Indonesia";"";"";"";"-4.0305858";"121.5497089";"https://maps.google.com/?cid=0x0:0x3e61936cf832f4df";""
"komplek housing";"Komplek perumahan";"Rumah wulandari";"XFPR+XJ4, Jl. Poros Kolaka - Wolo, Lawulo, Kec. Samaturu, Kabupaten Kolaka, Sulawesi Tenggara 93512";"Jl. Poros Kolaka - Wolo, Lawulo, Kec. Samaturu, Kabupaten Kolaka";"SULAWESI TENGGARA";"93512";"Indonesia";"";"";"";"-4.0125917";"121.4915096";"https://maps.google.com/?cid=0x0:0xae34f526cf12c466";""
"komplek housing";"Komplek perumahan";"Rumah Pak Umar";"XFPR+XJ4, Jl. Poros Kolaka - Wolo, Lawulo, Kec. Samaturu, Kabupaten Kolaka, Sulawesi Tenggara 93512";"Jl. Poros Kolaka - Wolo, Lawulo, Kec. Samaturu, Kabupaten Kolaka";"SULAWESI TENGGARA";"93512";"Indonesia";"";"";"";"-4.012212";"121.491474";"https://maps.google.com/?cid=0x0:0x5bf5ad61c26b8fca";""
"komplek housing";"komplek housing";"Sulawesi Tenggara 93514";"Kec. Latambaga, Kabupaten Kolaka, Sulawesi Tenggara";"Kabupaten Kolaka, Sulawesi Tenggara";"SULAWESI TENGGARA";"";"Indonesia";"";"";"";"-3.9910173";"121.5655424";"https://maps.google.com/?cid=0x0:0x84f71568a92688d2";""
"komplek housing";"komplek housing";"Home dimas";"2H67+M5R, Ulunggolaka, Kec. Latambaga, Kabupaten Kolaka, Sulawesi Tenggara";"Kabupaten Kolaka, Sulawesi Tenggara";"SULAWESI TENGGARA";"";"Indonesia";"";"";"";"-3.9883213";"121.5628554";"https://maps.google.com/?cid=0x0:0x40004a0f79183737";""
"komplek housing";"Komplek perumahan";"Home Adell";"XHR2+38Q, Mangolo, Kec. Latambaga, Kabupaten Kolaka, Sulawesi Tenggara 93514";"Mangolo, Kec. Latambaga, Kabupaten Kolaka";"SULAWESI TENGGARA";"93514";"Indonesia";"";"";"";"-4.0097903";"121.5508612";"https://maps.google.com/?cid=0x0:0x2e68b0dd62eb282e";""
"komplek housing";"Kompleks Apartemen";"Home IOC H.Kammy";"XGCW+87W, Mangolo - Kp. Tua, Mangolo, Kec. Latambaga, Kabupaten Kolaka, Sulawesi Tenggara 93514";"Mangolo - Kp. Tua, Mangolo, Kec. Latambaga, Kabupaten Kolaka";"SULAWESI TENGGARA";"93514";"Indonesia";"";"";"";"-4.0294266";"121.5452984";"https://maps.google.com/?cid=0x0:0x83cc692bf4245851";""
"komplek housing";"Komplek perumahan";"Citra Latambaga Indah";"XH74+8RP, Jl. Abadi, Wowota, Mangolo, Kec. Latambaga, Kabupaten Kolaka, Sulawesi Tenggara";"Kabupaten Kolaka, Sulawesi Tenggara";"SULAWESI TENGGARA";"";"Indonesia";" 0853991111300";"";"";"-4.0366707";"121.5570848";"https://maps.google.com/?cid=0x0:0xcede02225101b7c";""
"komplek housing";"Pembangunan Perumahan";"Btn citra latambaga";"XH74+564, Jln poros, Mangolo, Kec. Latambaga, Kabupaten Kolaka, Sulawesi Tenggara";"Kabupaten Kolaka, Sulawesi Tenggara";"SULAWESI TENGGARA";"";"Indonesia";"";"";"";"-4.0371108";"121.5555842";"https://maps.google.com/?cid=0x0:0x43b5ef9c49ad59ff";""
"komplek housing";"komplek housing";"Rumah Yudhit";"2G6X+R8G, Ulunggolaka, Kec. Latambaga, Kabupaten Kolaka, Sulawesi Tenggara 93514";"Ulunggolaka, Kec. Latambaga, Kabupaten Kolaka";"SULAWESI TENGGARA";"93514";"Indonesia";"";"";"";"-3.98777";"121.54792";"https://maps.google.com/?cid=0x0:0x579c26e7d6f855b6";""
"komplek housing";"Pembangunan Perumahan";"Rumah";"XHF3+V38, Lorong smpn 1, Mangolo, Kec. Latambaga, Kabupaten Kolaka, Sulawesi Tenggara";"Kabupaten Kolaka, Sulawesi Tenggara";"SULAWESI TENGGARA";"";"Indonesia";"";"";"";"-4.0253383";"121.5526888";"https://maps.google.com/?cid=0x0:0x9f6f728237283e9c";""
"komplek housing";"Komplek perumahan";"Rusly";"2H4M+43F, Kolakaasi, Kec. Latambaga, Kabupaten Kolaka, Sulawesi Tenggara";"Kabupaten Kolaka, Sulawesi Tenggara";"SULAWESI TENGGARA";"";"Indonesia";"";"";"";"-3.9946988";"121.5826642";"https://maps.google.com/?cid=0x0:0xbb7ca7a7bf45b753";""
"komplek housing";"Gedung Apartemen";"rumah leni";"XH3H+GGX, Kolakaasi, Kec. Latambaga, Kabupaten Kolaka, Sulawesi Tenggara";"Kabupaten Kolaka, Sulawesi Tenggara";"SULAWESI TENGGARA";"";"Indonesia";"";"";"";"-4.0461377";"121.5788649";"https://maps.google.com/?cid=0x0:0xa61872c2320d2185";""
"komplek housing";"Pembangunan Perumahan";"Home Rika";"XGVX+4R, Mangolo, Kec. Latambaga, Kabupaten Kolaka, Sulawesi Tenggara";"Kabupaten Kolaka, Sulawesi Tenggara";"SULAWESI TENGGARA";"";"Indonesia";"";"";"";"-4.0072351";"121.5496027";"https://maps.google.com/?cid=0x0:0x27f3340e1360f37";""
"komplek housing";"Pembangunan Perumahan";"HOME DIMASZ";"3H9V+2J4, Ulunggolaka, Kec. Latambaga, Kabupaten Kolaka, Sulawesi Tenggara";"Kabupaten Kolaka, Sulawesi Tenggara";"SULAWESI TENGGARA";"";"Indonesia";"";"";"";"-3.9324903";"121.5940773";"https://maps.google.com/?cid=0x0:0x273d0c46eae4efee";""
"komplek housing";"Komplek perumahan";"Rumahnya dina";"Jl. Abadi No.27, Sea, Kec. Latambaga, Kabupaten Kolaka, Sulawesi Tenggara 93511";"Sea, Kec. Latambaga, Kabupaten Kolaka";"SULAWESI TENGGARA";"93511";"Indonesia";"";"";"";"-4.0487956";"121.5888238";"https://maps.google.com/?cid=0x0:0xa8b6d373ce01ed2e";""
"komplek housing";"Komplek perumahan";"Abrar'S House";"XGJJ+H8W, Jl. Poros Ranteangin - Kolaka, Induha, Kec. Latambaga, Kabupaten Kolaka, Sulawesi Tenggara 93512";"Jl. Poros Ranteangin - Kolaka, Induha, Kec. Latambaga, Kabupaten Kolaka";"SULAWESI TENGGARA";"93512";"Indonesia";"";"";"";"-4.021892";"121.5197842";"https://maps.google.com/?cid=0x0:0x42bac6db911413a4";""
"komplek housing";"Komplek perumahan";"Rumah pelatih drumband";"XGGX+W9M, Mangolo, Kec. Latambaga, Kabupaten Kolaka, Sulawesi Tenggara";"Kabupaten Kolaka, Sulawesi Tenggara";"SULAWESI TENGGARA";"";"Indonesia";"";"";"";"-4.0226519";"121.548418";"https://maps.google.com/?cid=0x0:0x4b7835c4edd043f";""
"komplek housing";"Komplek perumahan";"Kost Anak Hino";"XH3H+9W2, Kolakaasi, Kec. Latambaga, Kabupaten Kolaka, Sulawesi Tenggara";"Kabupaten Kolaka, Sulawesi Tenggara";"SULAWESI TENGGARA";"";"Indonesia";"";"";"";"-4.0466119";"121.5797767";"https://maps.google.com/?cid=0x0:0x2bcc9044818a0a00";""
"komplek housing";"komplek housing";"BTN CLI W6";"XH73+HW7, Kolaka, Sakuli, Kec. Latambaga, Kabupaten Kolaka, Sulawesi Tenggara";"Kabupaten Kolaka, Sulawesi Tenggara";"SULAWESI TENGGARA";"";"Indonesia";"";"";"";"-4.0360871";"121.5547822";"https://maps.google.com/?cid=0x0:0xb70e889d08a7a58e";""
"komplek housing";"Komplek perumahan";"MUH USMAN ARSYAD";"XGFV+4V6, Mangolo, Kec. Latambaga, Kabupaten Kolaka, Sulawesi Tenggara 93514";"Mangolo, Kec. Latambaga, Kabupaten Kolaka";"SULAWESI TENGGARA";"93514";"Indonesia";"";"";"";"-4.0272125";"121.5446406";"https://maps.google.com/?cid=0x0:0x5082e4bec947ed64";""
"komplek housing";"komplek housing";"Lorong sapati";"2H4M+43F, Kolakaasi, Kec. Latambaga, Kabupaten Kolaka, Sulawesi Tenggara";"Kabupaten Kolaka, Sulawesi Tenggara";"SULAWESI TENGGARA";"";"Indonesia";"";"";"";"-3.9946988";"121.5826642";"https://maps.google.com/?cid=0x0:0xfcd5b4ef476550e0";""
"komplek housing";"Perhimpunan Pengembang Perumahan";"ujangdtt";"XH3M+P5J, Sakuli, Kec. Latambaga, Kabupaten Kolaka, Sulawesi Tenggara";"Kabupaten Kolaka, Sulawesi Tenggara";"SULAWESI TENGGARA";"";"Indonesia";"";"";"";"-4.0456688";"121.5828983";"https://maps.google.com/?cid=0x0:0x17b466f370abe46a";""
"komplek housing";"Pembangunan Perumahan";"Lorong maros";"XH2J+XC6, Lorong Maros, Kolakaasi, Kec. Latambaga, Kabupaten Kolaka, Sulawesi Tenggara";"Kabupaten Kolaka, Sulawesi Tenggara";"SULAWESI TENGGARA";"";"Indonesia";"";"";"";"-4.0475849";"121.5810049";"https://maps.google.com/?cid=0x0:0xfe99901fdb2769d4";""
"komplek housing";"komplek housing";"Rumah indo tuo";"2G6X+R8G, Ulunggolaka, Kec. Latambaga, Kabupaten Kolaka, Sulawesi Tenggara 93514";"Ulunggolaka, Kec. Latambaga, Kabupaten Kolaka";"SULAWESI TENGGARA";"93514";"Indonesia";"";"";"";"-3.9890722";"121.5483718";"https://maps.google.com/?cid=0x0:0xd3ea8269cbc373df";""
"komplek housing";"Pembangunan Perumahan";"Home Erni Lestari Hasanuddin";"XHG2+34G, Mangolo, Kec. Latambaga, Kabupaten Kolaka, Sulawesi Tenggara";"Kabupaten Kolaka, Sulawesi Tenggara";"SULAWESI TENGGARA";"";"Indonesia";"";"";"";"-4.024803";"121.5503246";"https://maps.google.com/?cid=0x0:0xf2b96ba29790fba8";""
"komplek housing";"komplek housing";"markas setempat";"2H66+GWF, Ulunggolaka, Kec. Latambaga, Kabupaten Kolaka, Sulawesi Tenggara 93514";"Ulunggolaka, Kec. Latambaga, Kabupaten Kolaka";"SULAWESI TENGGARA";"93514";"Indonesia";"";"";"";"-3.9887423";"121.5622784";"https://maps.google.com/?cid=0x0:0x78a9bd30f2a76e60";""
"komplek housing";"komplek housing";"Kec. Polinggona";"Kabupaten Kolaka, Sulawesi Tenggara";"Kabupaten Kolaka, Sulawesi Tenggara";"SULAWESI TENGGARA";"";"Indonesia";"";"";"";"-4.446612";"121.5863072";"https://maps.google.com/?cid=0x0:0xa81e529a8faf4882";""
"komplek housing";"komplek housing";"Alfian home";"HH62+W2Q, Wulonggere, Kec. Polinggona, Kabupaten Kolaka, Sulawesi Tenggara 93563";"Wulonggere, Kec. Polinggona, Kabupaten Kolaka";"SULAWESI TENGGARA";"93563";"Indonesia";"";"";"";"-4.4378002";"121.5494366";"https://maps.google.com/?cid=0x0:0x791246d55e8cdc03";""
"komplek housing";"komplek housing";"Rumah Pak Abbas";"HH5P+2G4, Polinggona, Kec. Polinggona, Kabupaten Kolaka, Sulawesi Tenggara 93563";"Polinggona, Kec. Polinggona, Kabupaten Kolaka";"SULAWESI TENGGARA";"93563";"Indonesia";"";"";"";"-4.4424826";"121.5863257";"https://maps.google.com/?cid=0x0:0xf004f23dafe574d2";""
"komplek housing";"komplek housing";"Rumah Zainuddin";"HH5Q+F87, Dusun 1, Lamondape, Kec. Polinggona, Kabupaten Kolaka, Sulawesi Tenggara";"Kabupaten Kolaka, Sulawesi Tenggara";"SULAWESI TENGGARA";"";"Indonesia";"";"";"";"-4.4413251";"121.5882827";"https://maps.google.com/?cid=0x0:0xb540ec5af0b30a62";""
"komplek housing";"komplek housing";"Putri Olshop";"HHH3+V7F, Polenga, Kec. Watubangga, Kabupaten Kolaka, Sulawesi Tenggara 93563";"Polenga, Kec. Watubangga, Kabupaten Kolaka";"SULAWESI TENGGARA";"93563";"Indonesia";"";"";"";"-4.4203175";"121.5531657";"https://maps.google.com/?cid=0x0:0x156db1eb6eea0ec4";""
"komplek housing";"Pembangunan Perumahan";"FATAHILLAH HOME";"HHH6+R96, Polenga, Kec. Watubangga, Kabupaten Kolaka, Sulawesi Tenggara 93563";"Polenga, Kec. Watubangga, Kabupaten Kolaka";"SULAWESI TENGGARA";"93563";"Indonesia";"";"";"";"-4.420461";"121.5608876";"https://maps.google.com/?cid=0x0:0xac4315ed7535ed30";""
"komplek housing";"Komplek perumahan";"Dusun 2";"HH8C+R6M, Wulonggere, Kec. Polinggona, Kabupaten Kolaka, Sulawesi Tenggara";"Kabupaten Kolaka, Sulawesi Tenggara";"SULAWESI TENGGARA";"";"Indonesia";"";"";"";"-4.4329047";"121.570553";"https://maps.google.com/?cid=0x0:0xa07f91b3791340a7";""
"komplek housing";"komplek housing";"Panjilong";"HH2H+4QP, Polinggona, Kec. Polinggona, Kabupaten Kolaka, Sulawesi Tenggara 93563";"Polinggona, Kec. Polinggona, Kabupaten Kolaka";"SULAWESI TENGGARA";"93563";"Indonesia";"";"";"";"-4.4506839";"121.5798197";"https://maps.google.com/?cid=0x0:0x97206f48ab56e253";""
"komplek housing";"Pembangunan Perumahan";"Iwan Suryana";"HH2M+GJ5, Polinggona, Kec. Polinggona, Kabupaten Kolaka, Sulawesi Tenggara 93563";"Polinggona, Kec. Polinggona, Kabupaten Kolaka";"SULAWESI TENGGARA";"93563";"Indonesia";"";"";"";"-4.4487385";"121.5841142";"https://maps.google.com/?cid=0x0:0x95b00b7244e16cde";""
"komplek housing";"komplek housing";"Adzkia Home";"HGFX+99M, Polenga, Kec. Watubangga, Kabupaten Kolaka, Sulawesi Tenggara 93563";"Polenga, Kec. Watubangga, Kabupaten Kolaka";"SULAWESI TENGGARA";"93563";"Indonesia";"";"";"";"-4.4265382";"121.5484237";"https://maps.google.com/?cid=0x0:0xcd6ee6da65b95a25";""
"komplek housing";"Komplek perumahan";"Udin";"FHWR+VG4, Kukutio, Kec. Watubangga, Kabupaten Kolaka, Sulawesi Tenggara 93563";"Kukutio, Kec. Watubangga, Kabupaten Kolaka";"SULAWESI TENGGARA";"93563";"Indonesia";"";"";"";"-4.5019278";"121.5914375";"https://maps.google.com/?cid=0x0:0x456f9d368d9d0209";""
"komplek housing";"Komplek perumahan";"ALLINGHOME";"HGFX+659, Polenga, Kec. Watubangga, Kabupaten Kolaka, Sulawesi Tenggara 93563";"Polenga, Kec. Watubangga, Kabupaten Kolaka";"SULAWESI TENGGARA";"93563";"Indonesia";"";"";"";"-4.4269561";"121.5479952";"https://maps.google.com/?cid=0x0:0x21bdfc57ad82d48b";""
"komplek housing";"Kantor Pemda";"Rumah Kades Tanggeau";"GJH9+VC, Tanggeau, Kec. Polinggona, Kabupaten Kolaka, Sulawesi Tenggara";"Kabupaten Kolaka, Sulawesi Tenggara";"SULAWESI TENGGARA";"";"Indonesia";"";"";"";"-4.4703434";"121.6185693";"https://maps.google.com/?cid=0x0:0x505f05c9d46f1e94";""
"komplek housing";"komplek housing";"Amiruddin home";"HGFX+659, Polenga, Kec. Watubangga, Kabupaten Kolaka, Sulawesi Tenggara 93563";"Polenga, Kec. Watubangga, Kabupaten Kolaka";"SULAWESI TENGGARA";"93563";"Indonesia";"";"";"";"-4.4269751";"121.5479533";"https://maps.google.com/?cid=0x0:0x249dbf86d412364f";""
"komplek housing";"Komplek perumahan";"Akmal Home";"HG9V+WVF, Polenga, Kec. Watubangga, Kabupaten Kolaka, Sulawesi Tenggara 93563";"Polenga, Kec. Watubangga, Kabupaten Kolaka";"SULAWESI TENGGARA";"93563";"Indonesia";"";"";"";"-4.4301751";"121.5446603";"https://maps.google.com/?cid=0x0:0x60210f0f4b171bf3";""
"komplek housing";"Perhimpunan Pengembang Perumahan";"Rumah paddi";"HHJ4+F3J, Polenga, Kec. Watubangga, Kabupaten Kolaka, Sulawesi Tenggara 93563";"Polenga, Kec. Watubangga, Kabupaten Kolaka";"SULAWESI TENGGARA";"93563";"Indonesia";"";"";"";"-4.4187842";"121.5551491";"https://maps.google.com/?cid=0x0:0xf320185b1d71dc07";""
"komplek housing";"Komplek perumahan";"Rumah Mar";"FHWW+H3P, Kukutio, Kec. Watubangga, Kabupaten Kolaka, Sulawesi Tenggara 93563";"Kukutio, Kec. Watubangga, Kabupaten Kolaka";"SULAWESI TENGGARA";"93563";"Indonesia";"";"";"";"-4.5035283";"121.5951974";"https://maps.google.com/?cid=0x0:0x615fc954841af047";""
"komplek housing";"Komplek perumahan";"Kost Tingkat LorongMenwa";"MM39+XF7, Popalia, Tanggetada, Kabupaten Kolaka, Sulawesi Tenggara";"Kabupaten Kolaka, Sulawesi Tenggara";"SULAWESI TENGGARA";"";"Indonesia";" 082213323748";"";"";"-4.3450994";"121.6686568";"https://maps.google.com/?cid=0x0:0xba4cf5d2ad09ac82";""
"komplek housing";"Perhimpunan Pengembang Perumahan";"Markaz Bani Wiryadiasa";"Dusun 1 Ruitari, Desa Lamundape, Polinggona, Kec. Polinggona, Kabupaten Kolaka";"Kabupaten Kolaka, Sulawesi Tenggara";"SULAWESI TENGGARA";"";"Indonesia";"";"";"";"-4.4369331";"121.5992026";"https://maps.google.com/?cid=0x0:0x196e8df237c8c9bc";""
"komplek housing";"komplek housing";"Lukman Home";"MJ42+WH9, Pewisoa Jaya, Tanggetada, Kabupaten Kolaka, Sulawesi Tenggara";"Kabupaten Kolaka, Sulawesi Tenggara";"SULAWESI TENGGARA";"";"Indonesia";"";"";"";"-4.3427103";"121.6014934";"https://maps.google.com/?cid=0x0:0x9d438e956289b37d";""
"komplek housing";"Komplek perumahan";"Arnadi Home (Palewai Residence)";"Palewai, Tanggetada, Kabupaten Kolaka, Sulawesi Tenggara 93563";"Tanggetada, Kabupaten Kolaka";"SULAWESI TENGGARA";"93563";"Indonesia";" 085399983333";"";"";"-4.361638";"121.5192242";"https://maps.google.com/?cid=0x0:0x320a93c502b2a366";""
"komplek housing";"Pembangunan Perumahan";"Rumah zoyan btn";"JH84+R2W, Popalia, Tanggetada, Kabupaten Kolaka, Sulawesi Tenggara 93563";"Popalia, Tanggetada, Kabupaten Kolaka";"SULAWESI TENGGARA";"93563";"Indonesia";"";"";"";"-4.3818603";"121.5551167";"https://maps.google.com/?cid=0x0:0x898c12f5a53de2de";""
"komplek housing";"Asrama Sekolah";"Perumahan Dosen USN,Anaiwoi,Kolaka";"JGJW+M36, Palewai, Tanggetada, Kabupaten Kolaka, Sulawesi Tenggara 93563";"Palewai, Tanggetada, Kabupaten Kolaka";"SULAWESI TENGGARA";"93563";"Indonesia";"";"";"";"-4.3683291";"121.5451286";"https://maps.google.com/?cid=0x0:0x5bb8f5c09f596833";""
"komplek housing";"Otoritas Perumahan";"Perumahan KSCP";"RJC7+2F6, Dawi-Dawi, Kec. Pomalaa, Kabupaten Kolaka, Sulawesi Tenggara 93562";"Dawi-Dawi, Kec. Pomalaa, Kabupaten Kolaka";"SULAWESI TENGGARA";"93562";"Indonesia";"";"";"";"-4.1797506";"121.6140047";"https://maps.google.com/?cid=0x0:0x7510ceea852d6318";""
"komplek housing";"komplek housing";"Sulawesi Tenggara 93562";"Kabupaten Kolaka, Sulawesi Tenggara";"Kabupaten Kolaka, Sulawesi Tenggara";"SULAWESI TENGGARA";"";"Indonesia";"";"";"";"-4.221625";"121.6511258";"https://maps.google.com/?cid=0x0:0x88f770c06ddbe268";""
"komplek housing";"Komplek perumahan";"Perumahan";"Jl. DI Panjaitan No.20, Pomalaa, Kec. Pomalaa, Kabupaten Kolaka, Sulawesi Tenggara 93562";"Pomalaa, Kec. Pomalaa, Kabupaten Kolaka";"SULAWESI TENGGARA";"93562";"Indonesia";"";"";"";"-4.188788";"121.6061232";"https://maps.google.com/?cid=0x0:0xd8122dcf91d0b22";""
"komplek housing";"komplek housing";"Perumahan SSB POS 2";"RJC7+85W, Dawi-dawi - Pomala, Pomalaa, Kec. Pomalaa, Kabupaten Kolaka, Sulawesi Tenggara 93562";"Dawi-dawi - Pomala, Pomalaa, Kec. Pomalaa, Kabupaten Kolaka";"SULAWESI TENGGARA";"93562";"Indonesia";"";"";"";"-4.1791397";"121.6129423";"https://maps.google.com/?cid=0x0:0xcbcb1ad14f6b2a55";""
"komplek housing";"Komplek perumahan";"Perumahan Dinas BMKG";"RMH2+6J6, Huko Huko, Kec. Pomalaa, Kabupaten Kolaka, Sulawesi Tenggara";"Kabupaten Kolaka, Sulawesi Tenggara";"SULAWESI TENGGARA";"";"Indonesia";"";"";"";"-4.1719694";"121.6515011";"https://maps.google.com/?cid=0x0:0xead0b4bc51e50e15";""
"komplek housing";"Komplek perumahan";"Perumahan MENARA GRAHA 3 RESIDENCE";"RMG3+2RP, Jl. Poros Kolaka - Pomalaa, Huko Huko, Kec. Pomalaa, Kabupaten Kolaka, Sulawesi Tenggara 93562";"Jl. Poros Kolaka - Pomalaa, Huko Huko, Kec. Pomalaa, Kabupaten Kolaka";"SULAWESI TENGGARA";"93562";"Indonesia";" 081242319567";"";"";"-4.1755633";"121.6538883";"https://maps.google.com/?cid=0x0:0x472a246cb62d409d";""
"komplek housing";"Penginapan";"Perumahan mangatta";"Btn Mangata Permai Jalan No.11 Blok A, Totobo, Pomalaa, Kolaka Regency, South East Sulawesi 93562";"Totobo, Pomalaa, Kolaka Regency";"SULAWESI TENGGARA";"93562";"Indonesia";"";"";"";"-4.1588112";"121.6197527";"https://maps.google.com/?cid=0x0:0xf319767929d808b6";""
"komplek housing";"komplek housing";"Andin Home";"PHXM+MJX, Hakatutobu, Kec. Pomalaa, Kabupaten Kolaka, Sulawesi Tenggara 93562";"Hakatutobu, Kec. Pomalaa, Kabupaten Kolaka";"SULAWESI TENGGARA";"93562";"Indonesia";"";"";"";"-4.250895";"121.584985";"https://maps.google.com/?cid=0x0:0x4057660de3154639";""
"komplek housing";"Komplek perumahan";"Home";"Jl. Perak No.9, Kumoro, Kec. Pomalaa, Kabupaten Kolaka, Sulawesi Tenggara 93562";"Kumoro, Kec. Pomalaa, Kabupaten Kolaka";"SULAWESI TENGGARA";"93562";"Indonesia";"";"";"";"-4.1947988";"121.6062039";"https://maps.google.com/?cid=0x0:0x77f0467fd4a81ca7";""
"komplek housing";"Komplek perumahan";"Home Accio";"RH4X+HG2, Pomalaa, Kec. Pomalaa, Kabupaten Kolaka, Sulawesi Tenggara 93562";"Pomalaa, Kec. Pomalaa, Kabupaten Kolaka";"SULAWESI TENGGARA";"93562";"Indonesia";"";"";"";"-4.19361";"121.5987663";"https://maps.google.com/?cid=0x0:0x6b8fa3bce9511e55";""
"komplek housing";"Pembangunan Perumahan";"Menara Graha Resience";"RJJ9+252, Lorong PLN unit, Dawi-Dawi, Kec. Pomalaa, Kabupaten Kolaka, Sulawesi Tenggara";"Kabupaten Kolaka, Sulawesi Tenggara";"SULAWESI TENGGARA";"";"Indonesia";"";"";"";"-4.169982";"121.6179048";"https://maps.google.com/?cid=0x0:0x994fa2ace40fbd34";""
"komplek housing";"Perhimpunan Pengembang Perumahan";"Home Chika";"Jalan Konggoasa No.93562, Pelambua, Kec. Pomalaa, Kabupaten Kolaka, Sulawesi Tenggara 93562";"Pelambua, Kec. Pomalaa, Kabupaten Kolaka";"SULAWESI TENGGARA";"93562";"Indonesia";"";"";"";"-4.1756949";"121.6262886";"https://maps.google.com/?cid=0x0:0xd59d22212ed953c8";""
"komplek housing";"Komplek perumahan";"Pelambua House";"RJFH+57X, Pelambua, Kec. Pomalaa, Kabupaten Kolaka, Sulawesi Tenggara 93562";"Pelambua, Kec. Pomalaa, Kabupaten Kolaka";"SULAWESI TENGGARA";"93562";"Indonesia";"";"";"";"-4.1770812";"121.6279013";"https://maps.google.com/?cid=0x0:0x5886bb0e42e145a9";""
"komplek housing";"Layanan reparasi";"My home";"RJFM+PMX, Dusun II watamoleda, Pesouha";"Kabupaten Kolaka, Sulawesi Tenggara";"SULAWESI TENGGARA";"";"Indonesia";"";"";"";"-4.17564";"121.6342299";"https://maps.google.com/?cid=0x0:0x87af2c0257478aca";""
"komplek housing";"Komplek perumahan";"Rumahnya AHMAD ARYO";"RJCV+W67, Pesouha, Kec. Pomalaa, Kabupaten Kolaka, Sulawesi Tenggara 93562";"Pesouha, Kec. Pomalaa, Kabupaten Kolaka";"SULAWESI TENGGARA";"93562";"Indonesia";"";"";"";"-4.1777125";"121.6430469";"https://maps.google.com/?cid=0x0:0xbd1778f2efaa8ad1";""
"komplek housing";"Komplek perumahan";"Home Ne'Ratih";"RJG9+25G, Jl. Kali Baru, Tonggoni, Kec. Pomalaa, Kabupaten Kolaka, Sulawesi Tenggara 93562";"Jl. Kali Baru, Tonggoni, Kec. Pomalaa, Kabupaten Kolaka";"SULAWESI TENGGARA";"93562";"Indonesia";"";"";"";"-4.1749489";"121.6179654";"https://maps.google.com/?cid=0x0:0x5ed452ab22a25632";""
"komplek housing";"Perusahaan Pertambangan";"Kompleks Antam";"Jl. Cemp. No.10, Pomalaa, Kec. Pomalaa, Kabupaten Kolaka, Sulawesi Tenggara 93562";"Pomalaa, Kec. Pomalaa, Kabupaten Kolaka";"SULAWESI TENGGARA";"93562";"Indonesia";"";"";"";"-4.1965563";"121.5949517";"https://maps.google.com/?cid=0x0:0xb0ac3cfc482c4f99";""
"komplek housing";"komplek housing";"Y. Mangando (Norton.) No.40.A";"RJG9+3QW, Pelambua, Kec. Pomalaa, Kabupaten Kolaka, Sulawesi Tenggara 93562";"Pelambua, Kec. Pomalaa, Kabupaten Kolaka";"SULAWESI TENGGARA";"93562";"Indonesia";"";"";"";"-4.1747703";"121.619448";"https://maps.google.com/?cid=0x0:0x6cb3925e14a03f50";""
"komplek housing";"Perumahan";"Grand Huko-Huko Residence";"BTN Wirabuana Indah, Huko Huko, Kec. Pomalaa, Kabupaten Kolaka, Sulawesi Tenggara 93562";"Huko Huko, Kec. Pomalaa, Kabupaten Kolaka";"SULAWESI TENGGARA";"93562";"Indonesia";" 081232014872";"";"";"-4.1796968";"121.6554697";"https://maps.google.com/?cid=0x0:0xd8b64cb6d0a96cb2";""
"komplek housing";"Komplek perumahan";"Rumah akila";"Pelambua, Kec. Pomalaa, Kabupaten Kolaka, Sulawesi Tenggara 93562";"Kec. Pomalaa, Kabupaten Kolaka";"SULAWESI TENGGARA";"93562";"Indonesia";"";"";"";"-4.1746847";"121.6308038";"https://maps.google.com/?cid=0x0:0x42feb2b016f03ca6";""
"komplek housing";"Komplek perumahan";"Medina Home";"RJG9+XPF, Pelambua, Kec. Pomalaa, Kabupaten Kolaka, Sulawesi Tenggara 93562";"Pelambua, Kec. Pomalaa, Kabupaten Kolaka";"SULAWESI TENGGARA";"93562";"Indonesia";"";"";"";"-4.1725717";"121.6192931";"https://maps.google.com/?cid=0x0:0x46cbac9e3aad2008";""
"komplek housing";"Komplek perumahan";"BTN PURRI KHANISSA RESIDENCE";"QPFJ+794, Huko Huko, Kec. Pomalaa, Kabupaten Kolaka, Sulawesi Tenggara";"Kabupaten Kolaka, Sulawesi Tenggara";"SULAWESI TENGGARA";"";"Indonesia";"";"";"";"-4.226865";"121.7309452";"https://maps.google.com/?cid=0x0:0xd1c4d87560bac684";""
"komplek housing";"Pembangunan Perumahan";"Drs. RUPI LUKMAN";"PHP9+8C3, Jl. Poros Pomalaa-Tanggetada, Sopura, Kec. Pomalaa, Kabupaten Kolaka, Sulawesi Tenggara 93562";"Jl. Poros Pomalaa-Tanggetada, Sopura, Kec. Pomalaa, Kabupaten Kolaka";"SULAWESI TENGGARA";"93562";"Indonesia";" 081341744334";"";"";"-4.264246";"121.568547";"https://maps.google.com/?cid=0x0:0x2824a93bc7b3b379";""
"komplek housing";"komplek housing";"Kec. Pomalaa";"Kabupaten Kolaka, Sulawesi Tenggara";"Kabupaten Kolaka, Sulawesi Tenggara";"SULAWESI TENGGARA";"";"Indonesia";"";"";"";"-4.1752344";"121.6149846";"https://maps.google.com/?cid=0x0:0x4030bfbcaf78390";""
"komplek housing";"Komplek perumahan";"Rumahku";"RJC8+79R, Tonggoni, Kec. Pomalaa, Kabupaten Kolaka, Sulawesi Tenggara 93562";"Tonggoni, Kec. Pomalaa, Kabupaten Kolaka";"SULAWESI TENGGARA";"93562";"Indonesia";"";"";"";"-4.17981";"121.616321";"https://maps.google.com/?cid=0x0:0x43e22ba2920ef39e";""
"komplek housing";"Pembangunan Perumahan";"Ruslan House, Jalan Poros Pesouha No.36";"Jl. Poros Kolaka - Pomalaa No.36, Pesouha, Kec. Pomalaa, Kabupaten Kolaka, Sulawesi Tenggara 93562";"Pesouha, Kec. Pomalaa, Kabupaten Kolaka";"SULAWESI TENGGARA";"93562";"Indonesia";"";"";"";"-4.1778548";"121.6402923";"https://maps.google.com/?cid=0x0:0xe760e197de274604";""
"komplek housing";"Pertanian Organik";"BTN GREENVILLE RESIDENCE HUKO-HUKO BLOK E NO.100";"RJ8X+4J2, Unnamed Road, Pesouha, Kec. Pomalaa, Kabupaten Kolaka, Sulawesi Tenggara 93562";"Unnamed Road, Pesouha, Kec. Pomalaa, Kabupaten Kolaka";"SULAWESI TENGGARA";"93562";"Indonesia";"";"";"";"-4.1847323";"121.6490253";"https://maps.google.com/?cid=0x0:0xe84130ce5d0250fb";""
