Category,Real Category,Business Name,Address,City,State,Postal Code,Country,Phone,Latitude,Longitude,Map Link
cafe,cafe,Kec. Galela,"Kabupaten Halmahera Utara, Maluku Utara","Kabupaten Halmahera Utara, Maluku Utara",MALUKU UTARA,,Indonesia,,1.7991745,127.9013278,https://maps.google.com/?cid=0x0:0x6d037a5832cde2d7
cafe,Kedai Kopi,Kedai Tongomi,"Jl. Raya Trans Galela-Tobelo, Pune, Kec. Galela, Kabupaten Halmahera Utara, Maluku Utara","Kabupaten Halmahera Utara, Maluku Utara",MALUKU UTARA,,Indonesia,85156523289.0,1.8175974,127.8451479,https://maps.google.com/?cid=0x0:0x82efde2b0d0eecd7
cafe,Kafe,Kedai DILAN,"RR7W+X8C, Pune, Kec. Galela, Kabupaten Halmahera Utara, Maluku Utara","Kabupaten Halmahera Utara, Maluku Utara",MALUKU UTARA,,Indonesia,81212862234.0,1.8149494,127.845762,https://maps.google.com/?cid=0x0:0xb6fb1e632cd26b2e
cafe,Sesuai untuk keluarga,Rumah Makan Telaga Nila,"RR67+2RF, Danau Galela, Kec. Galela Bar., Kabupaten Halmahera Utara, Maluku Utara","Kabupaten Halmahera Utara, Maluku Utara",MALUKU UTARA,,Indonesia,81216963278.0,1.8100561,127.8145406,https://maps.google.com/?cid=0x0:0x8848f0d628402ce7
cafe,Padang,tanjoeng daloha cafe,"RRF4+W54 Bar, Duma, Kec. Galela Bar., Kabupaten Halmahera Utara, Maluku Utara","Kabupaten Halmahera Utara, Maluku Utara",MALUKU UTARA,,Indonesia,81342493853.0,1.8247626,127.8054464,https://maps.google.com/?cid=0x0:0x5130f44a4c48b936
cafe,Indonesia,Rumah makan,"Desa kira,galela barat, Kec. Galela, Kabupaten Halmahera Utara, Maluku Utara 97761","Kec. Galela, Kabupaten Halmahera Utara",MALUKU UTARA,97761.0,Indonesia,82211109078.0,1.8280485,127.7983839,https://maps.google.com/?cid=0x0:0x1228b09ae4c42c21
cafe,Padang,Rumah Makan Dua Putra,"RRF9+WQ2, Unnamed Road, Towara, Kec. Galela, Kabupaten Halmahera Utara, Maluku Utara","Kabupaten Halmahera Utara, Maluku Utara",MALUKU UTARA,,Indonesia,82191183778.0,1.8247615,127.8194036,https://maps.google.com/?cid=0x0:0x92e4f3fac5e8a3d5
cafe,Rumah Makan,Warung Mas Balen,"RQGR+CWX, Dokulamo, Kec. Galela Bar., Kabupaten Halmahera Utara, Maluku Utara","Kabupaten Halmahera Utara, Maluku Utara",MALUKU UTARA,,Indonesia,82349035046.0,1.8261138,127.7923512,https://maps.google.com/?cid=0x0:0xcf10b2dc7f427bc0
cafe,Rumah Makan,Rumah Makan Terapung,"RRFC+8PW, Towara, Kec. Galela, Kabupaten Halmahera Utara, Maluku Utara","Kabupaten Halmahera Utara, Maluku Utara",MALUKU UTARA,,Indonesia,,1.8233737,127.8218279,https://maps.google.com/?cid=0x0:0x44b6d8eed5829268
cafe,Kedai Kopi,Kedai Perak Berlian,"RV93+V3V, Pune, Kec. Galela, Kabupaten Halmahera Utara, Maluku Utara","Kabupaten Halmahera Utara, Maluku Utara",MALUKU UTARA,,Indonesia,,1.8197284,127.8526627,https://maps.google.com/?cid=0x0:0x245d71546faaf78d
cafe,Restoran,RM Sari Laut,"RRCV+QVH, Soa Sio, Kec. Galela, Kabupaten Halmahera Utara, Maluku Utara","Kabupaten Halmahera Utara, Maluku Utara",MALUKU UTARA,,Indonesia,,1.8219257,127.8447213,https://maps.google.com/?cid=0x0:0x9927f90b16251840
cafe,Padang,Rumah Makan Fadhil Afif,"RR79+8V9, Danau Galela, Kec. Galela Bar., Kabupaten Halmahera Utara, Maluku Utara","Kabupaten Halmahera Utara, Maluku Utara",MALUKU UTARA,,Indonesia,,1.8132899,127.8197479,https://maps.google.com/?cid=0x0:0x51ff7021d0d11a2d
cafe,Kedai Kopi,WARKOP BANG SAHA,"QRH2+G83, Togawa, Kec. Galela Sel., Kabupaten Halmahera Utara, Maluku Utara","Kabupaten Halmahera Utara, Maluku Utara",MALUKU UTARA,,Indonesia,81342010678.0,1.7787512,127.8008049,https://maps.google.com/?cid=0x0:0x988ff7cb6145863f
cafe,Es Krim,warung es firda,"RRFV+CGW, Soa Sio, Kec. Galela, Kabupaten Halmahera Utara, Maluku Utara","Kabupaten Halmahera Utara, Maluku Utara",MALUKU UTARA,,Indonesia,,1.8236077,127.8438143,https://maps.google.com/?cid=0x0:0xc497cac3ed1ff8e1
cafe,cafe,Kec. Galela Bar.,"Kabupaten Halmahera Utara, Maluku Utara","Kabupaten Halmahera Utara, Maluku Utara",MALUKU UTARA,,Indonesia,,1.8258564,127.7917991,https://maps.google.com/?cid=0x0:0x6883a71e285c2680
cafe,Tujuan Wisata,Pulau Wisata,"RR76+F2P, Danau Galela, Kec. Galela Bar., Kabupaten Halmahera Utara, Maluku Utara","Kabupaten Halmahera Utara, Maluku Utara",MALUKU UTARA,,Indonesia,,1.8137243,127.8100896,https://maps.google.com/?cid=0x0:0x661dbe40909aceff
cafe,Sesuai untuk keluarga,Rumah Makan Telaga Nila,"RR67+2RF, Danau Galela, Kec. Galela Bar., Kabupaten Halmahera Utara, Maluku Utara","Kabupaten Halmahera Utara, Maluku Utara",MALUKU UTARA,,Indonesia,81216963278.0,1.8100561,127.8145406,https://maps.google.com/?cid=0x0:0x8848f0d628402ce7
cafe,Rumah Makan,Warung Mas Balen,"RQGR+CWX, Dokulamo, Kec. Galela Bar., Kabupaten Halmahera Utara, Maluku Utara","Kabupaten Halmahera Utara, Maluku Utara",MALUKU UTARA,,Indonesia,82349035046.0,1.8261138,127.7923512,https://maps.google.com/?cid=0x0:0xcf10b2dc7f427bc0
cafe,Indonesia,Rumah makan,"Desa kira,galela barat, Kec. Galela, Kabupaten Halmahera Utara, Maluku Utara 97761","Kec. Galela, Kabupaten Halmahera Utara",MALUKU UTARA,97761.0,Indonesia,82211109078.0,1.8280485,127.7983839,https://maps.google.com/?cid=0x0:0x1228b09ae4c42c21
cafe,Kedai Kopi,Kedai Tongomi,"Jl. Raya Trans Galela-Tobelo, Pune, Kec. Galela, Kabupaten Halmahera Utara, Maluku Utara","Kabupaten Halmahera Utara, Maluku Utara",MALUKU UTARA,,Indonesia,85156523289.0,1.8175974,127.8451479,https://maps.google.com/?cid=0x0:0x82efde2b0d0eecd7
cafe,Kafe,Kedai DILAN,"RR7W+X8C, Pune, Kec. Galela, Kabupaten Halmahera Utara, Maluku Utara","Kabupaten Halmahera Utara, Maluku Utara",MALUKU UTARA,,Indonesia,81212862234.0,1.8149494,127.845762,https://maps.google.com/?cid=0x0:0xb6fb1e632cd26b2e
cafe,Toko umum,hafisya sinanga,"RQHX+83H, Jl. Jakaria Pake, Kira, Kec. Galela Bar., Kabupaten Halmahera Utara, Maluku Utara","Kabupaten Halmahera Utara, Maluku Utara",MALUKU UTARA,,Indonesia,,1.8282957,127.797755,https://maps.google.com/?cid=0x0:0x8c02611ea8132d65
cafe,Kedai Kopi,Bakso Putri,"RR56+P9G, Soakonora, Kec. Galela Sel., Kabupaten Halmahera Utara, Maluku Utara","Kabupaten Halmahera Utara, Maluku Utara",MALUKU UTARA,,Indonesia,,1.8093223,127.8109496,https://maps.google.com/?cid=0x0:0xba21c9a524d70552
cafe,Padang,Rumah Makan Dua Putra,"RRF9+WQ2, Unnamed Road, Towara, Kec. Galela, Kabupaten Halmahera Utara, Maluku Utara","Kabupaten Halmahera Utara, Maluku Utara",MALUKU UTARA,,Indonesia,82191183778.0,1.8247615,127.8194036,https://maps.google.com/?cid=0x0:0x92e4f3fac5e8a3d5
cafe,Rumah Makan,Warung Makan Singgah Dulu,"RQHR+5CG, Jln. Bandara Gamar Malamo, Dokulamo, Kec. Galela Bar., Kabupaten Halmahera Utara, Maluku Utara","Kabupaten Halmahera Utara, Maluku Utara",MALUKU UTARA,,Indonesia,81359315383.0,1.8279367,127.7910732,https://maps.google.com/?cid=0x0:0x97f74666cb582494
cafe,Kedai Kopi,Kedai.SOQ,"RQJC+MF4, Dokulamo, Kec. Galela Bar., Kabupaten Halmahera Utara, Maluku Utara","Kabupaten Halmahera Utara, Maluku Utara",MALUKU UTARA,,Indonesia,82137372791.0,1.8316387,127.7711906,https://maps.google.com/?cid=0x0:0xd1b5c56f1fdd35b8
cafe,Toko,Warung Dua putri,"RR57+VHM, Unnamed Road, Togawa, Kec. Galela Sel., Kabupaten Halmahera Utara, Maluku Utara","Kabupaten Halmahera Utara, Maluku Utara",MALUKU UTARA,,Indonesia,82196909196.0,1.8097204,127.8139163,https://maps.google.com/?cid=0x0:0xa163b7bb47426246
cafe,Padang,Rumah Makan Fadhil Afif,"RR79+8V9, Danau Galela, Kec. Galela Bar., Kabupaten Halmahera Utara, Maluku Utara","Kabupaten Halmahera Utara, Maluku Utara",MALUKU UTARA,,Indonesia,,1.8132899,127.8197479,https://maps.google.com/?cid=0x0:0x51ff7021d0d11a2d
cafe,cafe,Kec. Galela Sel.,"Kabupaten Halmahera Utara, Maluku Utara","Kabupaten Halmahera Utara, Maluku Utara",MALUKU UTARA,,Indonesia,,1.8095298,127.8098621,https://maps.google.com/?cid=0x0:0xd54700cacb22b110
cafe,Kedai Kopi,Kedai Tongomi,"Jl. Raya Trans Galela-Tobelo, Pune, Kec. Galela, Kabupaten Halmahera Utara, Maluku Utara","Kabupaten Halmahera Utara, Maluku Utara",MALUKU UTARA,,Indonesia,85156523289.0,1.8175974,127.8451479,https://maps.google.com/?cid=0x0:0x82efde2b0d0eecd7
cafe,Tujuan Wisata,Pulau Wisata,"RR76+F2P, Danau Galela, Kec. Galela Bar., Kabupaten Halmahera Utara, Maluku Utara","Kabupaten Halmahera Utara, Maluku Utara",MALUKU UTARA,,Indonesia,,1.8137243,127.8100896,https://maps.google.com/?cid=0x0:0x661dbe40909aceff
cafe,Kafe,Kedai DILAN,"RR7W+X8C, Pune, Kec. Galela, Kabupaten Halmahera Utara, Maluku Utara","Kabupaten Halmahera Utara, Maluku Utara",MALUKU UTARA,,Indonesia,81212862234.0,1.8149494,127.845762,https://maps.google.com/?cid=0x0:0xb6fb1e632cd26b2e
cafe,Rumah Makan,Warung Mas Balen,"RQGR+CWX, Dokulamo, Kec. Galela Bar., Kabupaten Halmahera Utara, Maluku Utara","Kabupaten Halmahera Utara, Maluku Utara",MALUKU UTARA,,Indonesia,82349035046.0,1.8261138,127.7923512,https://maps.google.com/?cid=0x0:0xcf10b2dc7f427bc0
cafe,Padang,tanjoeng daloha cafe,"RRF4+W54 Bar, Duma, Kec. Galela Bar., Kabupaten Halmahera Utara, Maluku Utara","Kabupaten Halmahera Utara, Maluku Utara",MALUKU UTARA,,Indonesia,81342493853.0,1.8247626,127.8054464,https://maps.google.com/?cid=0x0:0x5130f44a4c48b936
cafe,Kedai Kopi,WARKOP BANG SAHA,"QRH2+G83, Togawa, Kec. Galela Sel., Kabupaten Halmahera Utara, Maluku Utara","Kabupaten Halmahera Utara, Maluku Utara",MALUKU UTARA,,Indonesia,81342010678.0,1.7787512,127.8008049,https://maps.google.com/?cid=0x0:0x988ff7cb6145863f
cafe,Kedai Kopi,Bakso Putri,"RR56+P9G, Soakonora, Kec. Galela Sel., Kabupaten Halmahera Utara, Maluku Utara","Kabupaten Halmahera Utara, Maluku Utara",MALUKU UTARA,,Indonesia,,1.8093223,127.8109496,https://maps.google.com/?cid=0x0:0xba21c9a524d70552
cafe,Indonesia,Rumah makan,"Desa kira,galela barat, Kec. Galela, Kabupaten Halmahera Utara, Maluku Utara 97761","Kec. Galela, Kabupaten Halmahera Utara",MALUKU UTARA,97761.0,Indonesia,82211109078.0,1.8280485,127.7983839,https://maps.google.com/?cid=0x0:0x1228b09ae4c42c21
cafe,Toko umum,hafisya sinanga,"RQHX+83H, Jl. Jakaria Pake, Kira, Kec. Galela Bar., Kabupaten Halmahera Utara, Maluku Utara","Kabupaten Halmahera Utara, Maluku Utara",MALUKU UTARA,,Indonesia,,1.8282957,127.797755,https://maps.google.com/?cid=0x0:0x8c02611ea8132d65
cafe,Toko,Warung Dua putri,"RR57+VHM, Unnamed Road, Togawa, Kec. Galela Sel., Kabupaten Halmahera Utara, Maluku Utara","Kabupaten Halmahera Utara, Maluku Utara",MALUKU UTARA,,Indonesia,82196909196.0,1.8097204,127.8139163,https://maps.google.com/?cid=0x0:0xa163b7bb47426246
cafe,Es Krim,Sweet drink,"RR74+VG3, Igobula, Kec. Galela Sel., Kabupaten Halmahera Utara, Maluku Utara","Kabupaten Halmahera Utara, Maluku Utara",MALUKU UTARA,,Indonesia,,1.8143965,127.8065243,https://maps.google.com/?cid=0x0:0x12e26a168da0f96f
cafe,Warnet,ONGKI HOTSPOT,"RR8G+FVM, Unnamed Road, Seki, Kec. Galela Sel., Kabupaten Halmahera Utara, Maluku Utara","Kabupaten Halmahera Utara, Maluku Utara",MALUKU UTARA,,Indonesia,,1.8162198,127.8271823,https://maps.google.com/?cid=0x0:0x17553409a676511a
cafe,Kedai Kopi,Basecamp Nomario,"QQVQ+FG5, Igobula, Kec. Galela Sel., Kabupaten Halmahera Utara, Maluku Utara","Kabupaten Halmahera Utara, Maluku Utara",MALUKU UTARA,,Indonesia,,1.7936378,127.7888565,https://maps.google.com/?cid=0x0:0x6fed5201a7890485
cafe,cafe,Kec. Galela Utara,"Kabupaten Halmahera Utara, Maluku Utara","Kabupaten Halmahera Utara, Maluku Utara",MALUKU UTARA,,Indonesia,,2.0151873,127.9497063,https://maps.google.com/?cid=0x0:0x6378f017549179ee
cafe,Padang,tanjoeng daloha cafe,"RRF4+W54 Bar, Duma, Kec. Galela Bar., Kabupaten Halmahera Utara, Maluku Utara","Kabupaten Halmahera Utara, Maluku Utara",MALUKU UTARA,,Indonesia,81342493853.0,1.8247626,127.8054464,https://maps.google.com/?cid=0x0:0x5130f44a4c48b936
cafe,Indonesia,Rumah makan,"Desa kira,galela barat, Kec. Galela, Kabupaten Halmahera Utara, Maluku Utara 97761","Kec. Galela, Kabupaten Halmahera Utara",MALUKU UTARA,97761.0,Indonesia,82211109078.0,1.8280485,127.7983839,https://maps.google.com/?cid=0x0:0x1228b09ae4c42c21
cafe,Padang,Rumah Makan Dua Putra,"RRF9+WQ2, Unnamed Road, Towara, Kec. Galela, Kabupaten Halmahera Utara, Maluku Utara","Kabupaten Halmahera Utara, Maluku Utara",MALUKU UTARA,,Indonesia,82191183778.0,1.8247615,127.8194036,https://maps.google.com/?cid=0x0:0x92e4f3fac5e8a3d5
cafe,Rumah Makan,Rumah Makan Terapung,"RRFC+8PW, Towara, Kec. Galela, Kabupaten Halmahera Utara, Maluku Utara","Kabupaten Halmahera Utara, Maluku Utara",MALUKU UTARA,,Indonesia,,1.8233737,127.8218279,https://maps.google.com/?cid=0x0:0x44b6d8eed5829268
cafe,Es Krim,warung es firda,"RRFV+CGW, Soa Sio, Kec. Galela, Kabupaten Halmahera Utara, Maluku Utara","Kabupaten Halmahera Utara, Maluku Utara",MALUKU UTARA,,Indonesia,,1.8236077,127.8438143,https://maps.google.com/?cid=0x0:0xc497cac3ed1ff8e1
cafe,Rumah Makan,Warung Makan Singgah Dulu,"RQHR+5CG, Jln. Bandara Gamar Malamo, Dokulamo, Kec. Galela Bar., Kabupaten Halmahera Utara, Maluku Utara","Kabupaten Halmahera Utara, Maluku Utara",MALUKU UTARA,,Indonesia,81359315383.0,1.8279367,127.7910732,https://maps.google.com/?cid=0x0:0x97f74666cb582494
cafe,Hidangan Laut,Rumah makan Lamongan03,"WVH3+5G6, Limau, Kec. Galela Utara, Kabupaten Halmahera Utara, Maluku Utara","Kabupaten Halmahera Utara, Maluku Utara",MALUKU UTARA,,Indonesia,81241789444.0,1.9279837,127.8538995,https://maps.google.com/?cid=0x0:0xe7ffedec1cc60fa
cafe,Kedai Kopi,Kedai Perak Berlian,"RV93+V3V, Pune, Kec. Galela, Kabupaten Halmahera Utara, Maluku Utara","Kabupaten Halmahera Utara, Maluku Utara",MALUKU UTARA,,Indonesia,,1.8197284,127.8526627,https://maps.google.com/?cid=0x0:0x245d71546faaf78d
cafe,Toko umum,hafisya sinanga,"RQHX+83H, Jl. Jakaria Pake, Kira, Kec. Galela Bar., Kabupaten Halmahera Utara, Maluku Utara","Kabupaten Halmahera Utara, Maluku Utara",MALUKU UTARA,,Indonesia,,1.8282957,127.797755,https://maps.google.com/?cid=0x0:0x8c02611ea8132d65
cafe,Restoran,RM Sari Laut,"RRCV+QVH, Soa Sio, Kec. Galela, Kabupaten Halmahera Utara, Maluku Utara","Kabupaten Halmahera Utara, Maluku Utara",MALUKU UTARA,,Indonesia,,1.8219257,127.8447213,https://maps.google.com/?cid=0x0:0x9927f90b16251840
cafe,Toko,Warung Dua putri,"RR57+VHM, Unnamed Road, Togawa, Kec. Galela Sel., Kabupaten Halmahera Utara, Maluku Utara","Kabupaten Halmahera Utara, Maluku Utara",MALUKU UTARA,,Indonesia,82196909196.0,1.8097204,127.8139163,https://maps.google.com/?cid=0x0:0xa163b7bb47426246
cafe,cafe,Dapur Hilda,"Duma, Kec. Galela Bar., Kabupaten Halmahera Utara, Maluku Utara 97761","Kec. Galela Bar., Kabupaten Halmahera Utara",MALUKU UTARA,97761.0,Indonesia,82198489976.0,1.8288558,127.8000404,https://maps.google.com/?cid=0x0:0x56c6e83cffb67a9b
cafe,Kedai Kopi,Kedai.SOQ,"RQJC+MF4, Dokulamo, Kec. Galela Bar., Kabupaten Halmahera Utara, Maluku Utara","Kabupaten Halmahera Utara, Maluku Utara",MALUKU UTARA,,Indonesia,82137372791.0,1.8316387,127.7711906,https://maps.google.com/?cid=0x0:0xd1b5c56f1fdd35b8
cafe,cafe,Kec. Kao,"Kabupaten Halmahera Utara, Maluku Utara","Kabupaten Halmahera Utara, Maluku Utara",MALUKU UTARA,,Indonesia,,1.1658407,127.9007494,https://maps.google.com/?cid=0x0:0xf94b0d160a93d5c4
cafe,Komplek perumahan,D'Lovra Cafe  Resto,"5WM4+RJ2, Unnamed Road, Kusu Lovra, Kec. Kao, Kabupaten Halmahera Utara, Maluku Utara","Kabupaten Halmahera Utara, Maluku Utara",MALUKU UTARA,,Indonesia,,1.184524,127.9065187,https://maps.google.com/?cid=0x0:0x72896850b97884f2
cafe,Bakso,Bakso Kao,"5W82+MJF, Kao, Kec. Kao, Kabupaten Halmahera Utara, Maluku Utara","Kabupaten Halmahera Utara, Maluku Utara",MALUKU UTARA,,Indonesia,,1.1666934,127.9015363,https://maps.google.com/?cid=0x0:0x3d886eb6bf33c1ef
cafe,Bakso,Rumah makan Lima-Lima,"Jati, Kec. Kao, Kabupaten Halmahera Utara, Maluku Utara 97764","Kec. Kao, Kabupaten Halmahera Utara",MALUKU UTARA,97764.0,Indonesia,85256148783.0,1.1714226,127.9007784,https://maps.google.com/?cid=0x0:0xc3dfe30af9613717
cafe,Restoran,Warung Kepiting Kao,"5W92+2HV, Kao, Kec. Kao, Kabupaten Halmahera Utara, Maluku Utara","Kabupaten Halmahera Utara, Maluku Utara",MALUKU UTARA,,Indonesia,81244945864.0,1.1676195,127.9014249,https://maps.google.com/?cid=0x0:0xf40818aeaf0b2923
cafe,Kedai Kopi,emma gitta genie kopi base camp,"5VHR+PCJ, Jati, Kec. Kao, Kabupaten Halmahera Utara, Maluku Utara","Kabupaten Halmahera Utara, Maluku Utara",MALUKU UTARA,,Indonesia,,1.1793279,127.8910149,https://maps.google.com/?cid=0x0:0xb6f647cbd9ee9eaf
cafe,Kafe,Kedai Kopi Pelangi Kao,"5W92+MM2, Jati, Kec. Kao, Kabupaten Halmahera Utara, Maluku Utara","Kabupaten Halmahera Utara, Maluku Utara",MALUKU UTARA,,Indonesia,82131830815.0,1.1691813,127.9016438,https://maps.google.com/?cid=0x0:0x9ad2eb38886e56fb
cafe,Brunch,RM M. Fajri,"5V8W+MMQ, Jl. Trans Halmahera, Kao, Kec. Kao, Kabupaten Halmahera Utara, Maluku Utara","Kabupaten Halmahera Utara, Maluku Utara",MALUKU UTARA,,Indonesia,85298911223.0,1.1667128,127.8967492,https://maps.google.com/?cid=0x0:0xfa23e4e82f3ecb60
cafe,Kedai Kopi,Suyanty Deli,"6V8C+9XG, Kusu Lovra, Kec. Kao, Kabupaten Halmahera Utara, Maluku Utara","Kabupaten Halmahera Utara, Maluku Utara",MALUKU UTARA,,Indonesia,85342028479.0,1.2159382,127.8724519,https://maps.google.com/?cid=0x0:0xc0419d3cba9b21dd
cafe,Restoran,Nasi Kuning Qaira,"5W82+93C, Kao, Kec. Kao, Kabupaten Halmahera Utara, Maluku Utara","Kabupaten Halmahera Utara, Maluku Utara",MALUKU UTARA,,Indonesia,82396044378.0,1.1659318,127.9001465,https://maps.google.com/?cid=0x0:0xea7d69332b387c48
cafe,Kedai Kopi,De coffee 2,"Tagono, Kec. Malifut, Kabupaten Halmahera Utara, Maluku Utara","Kabupaten Halmahera Utara, Maluku Utara",MALUKU UTARA,,Indonesia,81347344996.0,1.157649,127.8305772,https://maps.google.com/?cid=0x0:0x5d8e5ddf0d3584d5
cafe,Warnet,Wi-Fi Kita,"7X95+3XJ, Gamlaha, Kec. Kao Utara, Kabupaten Halmahera Utara, Maluku Utara","Kabupaten Halmahera Utara, Maluku Utara",MALUKU UTARA,,Indonesia,81390949094.0,1.2673552,127.961177,https://maps.google.com/?cid=0x0:0x33323ad81d87c28b
cafe,Kafe,Kedai the labit,"5R7H+P67, Tafasoho, Kec. Malifut, Kabupaten Halmahera Utara, Maluku Utara","Kabupaten Halmahera Utara, Maluku Utara",MALUKU UTARA,,Indonesia,81341513520.0,1.1642927,127.8280425,https://maps.google.com/?cid=0x0:0xc86bff83b2b748ae
cafe,cafe,Kec. Kao Bar.,"Kabupaten Halmahera Utara, Maluku Utara","Kabupaten Halmahera Utara, Maluku Utara",MALUKU UTARA,,Indonesia,,1.3826535,127.7854236,https://maps.google.com/?cid=0x0:0xf7afe1ef0f20eafa
cafe,Kedai Kopi,Keday Kopi Sudy,"9Q2W+9MH, Margo Mulyo, Kec. Kao Bar., Kabupaten Halmahera Utara, Maluku Utara","Kabupaten Halmahera Utara, Maluku Utara",MALUKU UTARA,,Indonesia,81340728053.0,1.3510895,127.795952,https://maps.google.com/?cid=0x0:0x91375c86b9907c69
cafe,Kedai Kopi,Emejea cafe,"4RWC+2J7, Unnamed Road, Tahane, Kec. Malifut, Kabupaten Halmahera Utara, Maluku Utara","Kabupaten Halmahera Utara, Maluku Utara",MALUKU UTARA,,Indonesia,81298724100.0,1.1450413,127.8215568,https://maps.google.com/?cid=0x0:0x60d5f55437d5e2d4
cafe,Komplek perumahan,D'Lovra Cafe  Resto,"5WM4+RJ2, Unnamed Road, Kusu Lovra, Kec. Kao, Kabupaten Halmahera Utara, Maluku Utara","Kabupaten Halmahera Utara, Maluku Utara",MALUKU UTARA,,Indonesia,,1.184524,127.9065187,https://maps.google.com/?cid=0x0:0x72896850b97884f2
cafe,Kedai Kopi,Rumah sudy,"8QXW+JM, Margo Mulyo, Kec. Kao Bar., Kabupaten Halmahera Utara, Maluku Utara","Kabupaten Halmahera Utara, Maluku Utara",MALUKU UTARA,,Indonesia,,1.3491934,127.7973193,https://maps.google.com/?cid=0x0:0xd0d396472ffc5ef2
cafe,Kafe,Kedai the labit,"5R7H+P67, Tafasoho, Kec. Malifut, Kabupaten Halmahera Utara, Maluku Utara","Kabupaten Halmahera Utara, Maluku Utara",MALUKU UTARA,,Indonesia,81341513520.0,1.1642927,127.8280425,https://maps.google.com/?cid=0x0:0xc86bff83b2b748ae
cafe,Kedai Kopi,De coffee 2,"Tagono, Kec. Malifut, Kabupaten Halmahera Utara, Maluku Utara","Kabupaten Halmahera Utara, Maluku Utara",MALUKU UTARA,,Indonesia,81347344996.0,1.157649,127.8305772,https://maps.google.com/?cid=0x0:0x5d8e5ddf0d3584d5
cafe,Warnet,Wi-Fi Kita,"7X95+3XJ, Gamlaha, Kec. Kao Utara, Kabupaten Halmahera Utara, Maluku Utara","Kabupaten Halmahera Utara, Maluku Utara",MALUKU UTARA,,Indonesia,81390949094.0,1.2673552,127.961177,https://maps.google.com/?cid=0x0:0x33323ad81d87c28b
cafe,Bakso,Bakso Kao,"5W82+MJF, Kao, Kec. Kao, Kabupaten Halmahera Utara, Maluku Utara","Kabupaten Halmahera Utara, Maluku Utara",MALUKU UTARA,,Indonesia,,1.1666934,127.9015363,https://maps.google.com/?cid=0x0:0x3d886eb6bf33c1ef
cafe,Pujasera,R Coffee,"CGMM+8JC, Gamkonora, Kec. Ibu Sel., Kabupaten Halmahera Barat, Maluku Utara","Kabupaten Halmahera Barat, Maluku Utara",MALUKU UTARA,,Indonesia,82195179395.0,1.433325,127.5340121,https://maps.google.com/?cid=0x0:0xed6b4b2356a5e1b5
cafe,Restoran,Chicken Station Daru / Cheers / Kopi Neng,"Unnamed Road, Daru, Kao Utara, North Halmahera Regency, North Maluku","Kabupaten Halmahera Utara, Maluku Utara",MALUKU UTARA,,Indonesia,,1.3070817,127.9781227,https://maps.google.com/?cid=0x0:0xebdd55001d5b3f30
cafe,Bar Kopi Espresso,HOBATACOFFE,"GWWX+4WJ, Togoliua, Kec. Tobelo Bar., Kabupaten Halmahera Utara, Maluku Utara","Kabupaten Halmahera Utara, Maluku Utara",MALUKU UTARA,,Indonesia,82290056712.0,1.545334,127.9497757,https://maps.google.com/?cid=0x0:0x971ab3702b15fa61
cafe,Kedai Kopi,emma gitta genie kopi base camp,"5VHR+PCJ, Jati, Kec. Kao, Kabupaten Halmahera Utara, Maluku Utara","Kabupaten Halmahera Utara, Maluku Utara",MALUKU UTARA,,Indonesia,,1.1793279,127.8910149,https://maps.google.com/?cid=0x0:0xb6f647cbd9ee9eaf
cafe,Toko,Mailoa malifut,"5R4M+PRH, Mailoa, Kec. Malifut, Kabupaten Halmahera Utara, Maluku Utara","Kabupaten Halmahera Utara, Maluku Utara",MALUKU UTARA,,Indonesia,,1.1568222,127.834608,https://maps.google.com/?cid=0x0:0xa4d0786c93d0405e
cafe,Warnet,Wi-Fi Kita,"7X95+3XJ, Gamlaha, Kec. Kao Utara, Kabupaten Halmahera Utara, Maluku Utara","Kabupaten Halmahera Utara, Maluku Utara",MALUKU UTARA,,Indonesia,81390949094.0,1.2673552,127.961177,https://maps.google.com/?cid=0x0:0x33323ad81d87c28b
cafe,cafe,Kec. Kao Utara,"Kabupaten Halmahera Utara, Maluku Utara","Kabupaten Halmahera Utara, Maluku Utara",MALUKU UTARA,,Indonesia,,1.3982481,128.0027515,https://maps.google.com/?cid=0x0:0x5d873bc773b3c48e
cafe,Bar Kopi Espresso,HOBATACOFFE,"GWWX+4WJ, Togoliua, Kec. Tobelo Bar., Kabupaten Halmahera Utara, Maluku Utara","Kabupaten Halmahera Utara, Maluku Utara",MALUKU UTARA,,Indonesia,82290056712.0,1.545334,127.9497757,https://maps.google.com/?cid=0x0:0x971ab3702b15fa61
cafe,Kafe,Qiarono Coffee  Books,"Depan Kampus Universitas Halmahera, Jl.trans Tobelo-Galela, Wari Ino, Kec. Tobelo, Kabupaten Halmahera Utara, Maluku Utara 97762","Jl.trans Tobelo-Galela, Wari Ino, Kec. Tobelo, Kabupaten Halmahera Utara",MALUKU UTARA,97762.0,Indonesia,82291572605.0,1.7509862,127.9920358,https://maps.google.com/?cid=0x0:0x799b40c250d82e2b
cafe,Kedai Kopi,Suyanty Deli,"6V8C+9XG, Kusu Lovra, Kec. Kao, Kabupaten Halmahera Utara, Maluku Utara","Kabupaten Halmahera Utara, Maluku Utara",MALUKU UTARA,,Indonesia,85342028479.0,1.2159382,127.8724519,https://maps.google.com/?cid=0x0:0xc0419d3cba9b21dd
cafe,Rumah Makan,La Meti Beach Club,"H342+RH, Meti, Kec. Tobelo Tim., Kabupaten Halmahera Utara, Maluku Utara","Kabupaten Halmahera Utara, Maluku Utara",MALUKU UTARA,,Indonesia,81319392624.0,1.5570596,128.0513798,https://maps.google.com/?cid=0x0:0xbb8dfd4d3f3f7553
cafe,Pasar tradisional,PASAR RAYA DARU,"8X3F+JXQ, Daru, Kec. Kao Utara, Kabupaten Halmahera Utara, Maluku Utara","Kabupaten Halmahera Utara, Maluku Utara",MALUKU UTARA,,Indonesia,,1.304087,127.9749761,https://maps.google.com/?cid=0x0:0x86653f7c0d714a77
cafe,Pasar,Daru Market,"8X4G+MX5, Daru, Kec. Kao Utara, Kabupaten Halmahera Utara, Maluku Utara","Kabupaten Halmahera Utara, Maluku Utara",MALUKU UTARA,,Indonesia,,1.3066432,127.9774813,https://maps.google.com/?cid=0x0:0xbd96cd9eb3b9811
cafe,Toko Swalayan,TOKO CMB,"8X8R+M5Q, Unnamed Road, Daru, Kec. Kao Utara, Kabupaten Halmahera Utara, Maluku Utara","Kabupaten Halmahera Utara, Maluku Utara",MALUKU UTARA,,Indonesia,82299636986.0,1.3167139,127.9904883,https://maps.google.com/?cid=0x0:0xfc479149515e6791
cafe,Penyedia Layanan Internet,TOWER TELKOMSEL,"7W94+23R, Waringin Lamo, Kec. Kao, Kabupaten Halmahera Utara, Maluku Utara","Kabupaten Halmahera Utara, Maluku Utara",MALUKU UTARA,,Indonesia,,1.2676132,127.9051525,https://maps.google.com/?cid=0x0:0xae1e63f8e782bda1
cafe,Pasar tradisional,Alfamidi Daru,"8X5H+6Q8, Daru, Kec. Kao Utara, Kabupaten Halmahera Utara, Maluku Utara","Kabupaten Halmahera Utara, Maluku Utara",MALUKU UTARA,,Indonesia,,1.3080465,127.9794595,https://maps.google.com/?cid=0x0:0x3307a13dde4e56cc
cafe,Toko bahan makanan,Toko Bintang Abadi,"8X4H+WCW, Unnamed Road, Daru, Kec. Kao Utara, Kabupaten Halmahera Utara, Maluku Utara","Kabupaten Halmahera Utara, Maluku Utara",MALUKU UTARA,,Indonesia,82290829667.0,1.3073652,127.9785629,https://maps.google.com/?cid=0x0:0xa356140ab323622
cafe,cafe,Pisang molen,"2J3V+JC, Akelamo Kao, Kec. Kao Tlk., Kabupaten Halmahera Utara, Maluku Utara","Kabupaten Halmahera Utara, Maluku Utara",MALUKU UTARA,,Indonesia,,1.0040905,127.6435787,https://maps.google.com/?cid=0x0:0xfbc6091f40bb0a85
cafe,cafe,Kec. Kao Tlk.,"Kabupaten Halmahera Utara, Maluku Utara","Kabupaten Halmahera Utara, Maluku Utara",MALUKU UTARA,,Indonesia,,1.0572865,127.697129,https://maps.google.com/?cid=0x0:0xb7e89a460242f82
cafe,Nasi,Warung Blessing KOKOSea,"Tetewang, Kec. Kao Tlk., Kabupaten Halmahera Utara, Maluku Utara","Kabupaten Halmahera Utara, Maluku Utara",MALUKU UTARA,,Indonesia,82298186876.0,0.8963378,127.6509974,https://maps.google.com/?cid=0x0:0x34e4da34af857506
cafe,Brunch,Rumah Makan Laduni,"3MGW+M25, Barumadehe, Kec. Kao Tlk., Kabupaten Halmahera Utara, Maluku Utara","Kabupaten Halmahera Utara, Maluku Utara",MALUKU UTARA,,Indonesia,81243120007.0,1.076643,127.6950986,https://maps.google.com/?cid=0x0:0x12e08edb20d6b73c
cafe,Restoran,RM Tanjung Moroka,"XJRP+CQ5, Akelamo Kao, Kec. Kao Tlk., Kabupaten Halmahera Utara, Maluku Utara","Kabupaten Halmahera Utara, Maluku Utara",MALUKU UTARA,,Indonesia,,0.9910201,127.6369813,https://maps.google.com/?cid=0x0:0x9faaf5ae3e9c38ef
cafe,Restoran,RM Gorontalo Gosowong (Gogos),"3PX5+GCG, Barumadehe, Kec. Kao Tlk., Kabupaten Halmahera Utara, Maluku Utara","Kabupaten Halmahera Utara, Maluku Utara",MALUKU UTARA,,Indonesia,,1.0988077,127.7085886,https://maps.google.com/?cid=0x0:0xf1e23b98d614b420
cafe,Kantor Perusahaan,Desa bobaneigo,"VM89+W9V, Unnamed Road, Bobaneigo, Kec. Kao Tlk., Kabupaten Halmahera Utara, Maluku Utara","Kabupaten Halmahera Utara, Maluku Utara",MALUKU UTARA,,Indonesia,,0.8673676,127.6684302,https://maps.google.com/?cid=0x0:0x54c54fc3ffbbcc64
cafe,Nasi,Warung Akbar,"VM62+Q54, Bobaneigo, Kec. Kao Tlk., Kabupaten Halmahera Utara, Maluku Utara","Kabupaten Halmahera Utara, Maluku Utara",MALUKU UTARA,,Indonesia,,0.8612061,127.6498219,https://maps.google.com/?cid=0x0:0x37c5133a66b863ab
cafe,Nasi,Warung Makan Mbak Lis,"VM88+4XV, Bobaneigo, Kec. Kao Tlk., Kabupaten Halmahera Utara, Maluku Utara","Kabupaten Halmahera Utara, Maluku Utara",MALUKU UTARA,,Indonesia,,0.865361,127.6674202,https://maps.google.com/?cid=0x0:0x8c8482ed6d50faf6
cafe,Universitas,Kampus'tm,"VMGM+MCX, Pasir Putih, Kec. Kao Tlk., Kabupaten Halmahera Utara, Maluku Utara","Kabupaten Halmahera Utara, Maluku Utara",MALUKU UTARA,,Indonesia,,0.8767392,127.6836236,https://maps.google.com/?cid=0x0:0xc5ac569328b754e
cafe,Nasi,Warung Nasi Kuning,"VM89+G34, Bobaneigo, Kec. Kao Tlk., Kabupaten Halmahera Utara, Maluku Utara","Kabupaten Halmahera Utara, Maluku Utara",MALUKU UTARA,,Indonesia,,0.8662598,127.6677059,https://maps.google.com/?cid=0x0:0x19201b0938747ad9
cafe,Nasi,Warung Makan Mama Ala,"VM87+XCQ, Bobaneigo, Kec. Kao Tlk., Kabupaten Halmahera Utara, Maluku Utara","Kabupaten Halmahera Utara, Maluku Utara",MALUKU UTARA,,Indonesia,,0.8674677,127.6636141,https://maps.google.com/?cid=0x0:0x6416e81053072d6e
cafe,Kedai Kopi,Swering Akelamokao - Jailolo Timur - Halmahera Barat,"XJXW+653, Swering Akelamokao, Jailolo Timur, Akelamo Kao, Kao Teluk, West Halmahera Regency, North Maluku","Kabupaten Halmahera Barat, Maluku Utara",MALUKU UTARA,,Indonesia,,0.9980096,127.6454202,https://maps.google.com/?cid=0x0:0x989fbfea1a6b0e0e
cafe,cafe,Kec. Kao Tlk.,"Kabupaten Halmahera Utara, Maluku Utara","Kabupaten Halmahera Utara, Maluku Utara",MALUKU UTARA,,Indonesia,,1.0572865,127.697129,https://maps.google.com/?cid=0x0:0xb7e89a460242f82
cafe,cafe,Pisang molen,"2J3V+JC, Akelamo Kao, Kec. Kao Tlk., Kabupaten Halmahera Utara, Maluku Utara","Kabupaten Halmahera Utara, Maluku Utara",MALUKU UTARA,,Indonesia,,1.0040905,127.6435787,https://maps.google.com/?cid=0x0:0xfbc6091f40bb0a85
cafe,Nasi,Warung Blessing KOKOSea,"Tetewang, Kec. Kao Tlk., Kabupaten Halmahera Utara, Maluku Utara","Kabupaten Halmahera Utara, Maluku Utara",MALUKU UTARA,,Indonesia,82298186876.0,0.8963378,127.6509974,https://maps.google.com/?cid=0x0:0x34e4da34af857506
cafe,Restoran,RM Tanjung Moroka,"XJRP+CQ5, Akelamo Kao, Kec. Kao Tlk., Kabupaten Halmahera Utara, Maluku Utara","Kabupaten Halmahera Utara, Maluku Utara",MALUKU UTARA,,Indonesia,,0.9910201,127.6369813,https://maps.google.com/?cid=0x0:0x9faaf5ae3e9c38ef
cafe,Restoran,RM Gorontalo Gosowong (Gogos),"3PX5+GCG, Barumadehe, Kec. Kao Tlk., Kabupaten Halmahera Utara, Maluku Utara","Kabupaten Halmahera Utara, Maluku Utara",MALUKU UTARA,,Indonesia,,1.0988077,127.7085886,https://maps.google.com/?cid=0x0:0xf1e23b98d614b420
cafe,Brunch,Rumah Makan Laduni,"3MGW+M25, Barumadehe, Kec. Kao Tlk., Kabupaten Halmahera Utara, Maluku Utara","Kabupaten Halmahera Utara, Maluku Utara",MALUKU UTARA,,Indonesia,81243120007.0,1.076643,127.6950986,https://maps.google.com/?cid=0x0:0x12e08edb20d6b73c
cafe,Nasi,Warung Akbar,"VM62+Q54, Bobaneigo, Kec. Kao Tlk., Kabupaten Halmahera Utara, Maluku Utara","Kabupaten Halmahera Utara, Maluku Utara",MALUKU UTARA,,Indonesia,,0.8612061,127.6498219,https://maps.google.com/?cid=0x0:0x37c5133a66b863ab
cafe,Universitas,Kampus'tm,"VMGM+MCX, Pasir Putih, Kec. Kao Tlk., Kabupaten Halmahera Utara, Maluku Utara","Kabupaten Halmahera Utara, Maluku Utara",MALUKU UTARA,,Indonesia,,0.8767392,127.6836236,https://maps.google.com/?cid=0x0:0xc5ac569328b754e
cafe,Kantor Perusahaan,Desa bobaneigo,"VM89+W9V, Unnamed Road, Bobaneigo, Kec. Kao Tlk., Kabupaten Halmahera Utara, Maluku Utara","Kabupaten Halmahera Utara, Maluku Utara",MALUKU UTARA,,Indonesia,,0.8673676,127.6684302,https://maps.google.com/?cid=0x0:0x54c54fc3ffbbcc64
cafe,Nasi,Warung Makan Mbak Lis,"VM88+4XV, Bobaneigo, Kec. Kao Tlk., Kabupaten Halmahera Utara, Maluku Utara","Kabupaten Halmahera Utara, Maluku Utara",MALUKU UTARA,,Indonesia,,0.865361,127.6674202,https://maps.google.com/?cid=0x0:0x8c8482ed6d50faf6
cafe,Nasi,Warung Makan Mama Ala,"VM87+XCQ, Bobaneigo, Kec. Kao Tlk., Kabupaten Halmahera Utara, Maluku Utara","Kabupaten Halmahera Utara, Maluku Utara",MALUKU UTARA,,Indonesia,,0.8674677,127.6636141,https://maps.google.com/?cid=0x0:0x6416e81053072d6e
cafe,Nasi,Warung Nasi Kuning,"VM89+G34, Bobaneigo, Kec. Kao Tlk., Kabupaten Halmahera Utara, Maluku Utara","Kabupaten Halmahera Utara, Maluku Utara",MALUKU UTARA,,Indonesia,,0.8662598,127.6677059,https://maps.google.com/?cid=0x0:0x19201b0938747ad9
cafe,cafe,Jul,"5Q99+86C, Fitako, Loloda Kepulauan, Kabupaten Halmahera Utara, Maluku Utara","Kabupaten Halmahera Utara, Maluku Utara",MALUKU UTARA,,Indonesia,,2.1691175,127.7678388,https://maps.google.com/?cid=0x0:0x6bda5025d26192fb
cafe,cafe,Kec. Loloda Utara,"Kabupaten Halmahera Utara, Maluku Utara","Kabupaten Halmahera Utara, Maluku Utara",MALUKU UTARA,,Indonesia,,2.0927761,127.8484263,https://maps.google.com/?cid=0x0:0xb975e42fee13365a
cafe,cafe,Jul,"5Q99+86C, Fitako, Loloda Kepulauan, Kabupaten Halmahera Utara, Maluku Utara","Kabupaten Halmahera Utara, Maluku Utara",MALUKU UTARA,,Indonesia,,2.1691175,127.7678388,https://maps.google.com/?cid=0x0:0x6bda5025d26192fb
cafe,Padang,tanjoeng daloha cafe,"RRF4+W54 Bar, Duma, Kec. Galela Bar., Kabupaten Halmahera Utara, Maluku Utara","Kabupaten Halmahera Utara, Maluku Utara",MALUKU UTARA,,Indonesia,81342493853.0,1.8247626,127.8054464,https://maps.google.com/?cid=0x0:0x5130f44a4c48b936
cafe,Komplek perumahan,PASAR RAKYAT DESA BARATAKU KECAMATAN LOLODA TENGAH,"VMC8+67F, Barataku, Kec. Loloda, Kabupaten Halmahera Barat, Maluku Utara","Kabupaten Halmahera Barat, Maluku Utara",MALUKU UTARA,,Indonesia,,1.8705679,127.6656673,https://maps.google.com/?cid=0x0:0x5e3f749b96c7607a
cafe,Komplek perumahan,Rumah Acel bas,"WPXC+RFP, Baja, Kec. Loloda, Kabupaten Halmahera Barat, Maluku Utara","Kabupaten Halmahera Barat, Maluku Utara",MALUKU UTARA,,Indonesia,,1.9495813,127.7208197,https://maps.google.com/?cid=0x0:0x63f8772fad39af8f
cafe,Rumah Makan,Warung Mas Balen,"RQGR+CWX, Dokulamo, Kec. Galela Bar., Kabupaten Halmahera Utara, Maluku Utara","Kabupaten Halmahera Utara, Maluku Utara",MALUKU UTARA,,Indonesia,82349035046.0,1.8261138,127.7923512,https://maps.google.com/?cid=0x0:0xcf10b2dc7f427bc0
cafe,Padang,Rumah Makan Dua Putra,"RRF9+WQ2, Unnamed Road, Towara, Kec. Galela, Kabupaten Halmahera Utara, Maluku Utara","Kabupaten Halmahera Utara, Maluku Utara",MALUKU UTARA,,Indonesia,82191183778.0,1.8247615,127.8194036,https://maps.google.com/?cid=0x0:0x92e4f3fac5e8a3d5
cafe,Indonesia,Rumah makan,"Desa kira,galela barat, Kec. Galela, Kabupaten Halmahera Utara, Maluku Utara 97761","Kec. Galela, Kabupaten Halmahera Utara",MALUKU UTARA,97761.0,Indonesia,82211109078.0,1.8280485,127.7983839,https://maps.google.com/?cid=0x0:0x1228b09ae4c42c21
cafe,Kedai Kopi,Kedai.SOQ,"RQJC+MF4, Dokulamo, Kec. Galela Bar., Kabupaten Halmahera Utara, Maluku Utara","Kabupaten Halmahera Utara, Maluku Utara",MALUKU UTARA,,Indonesia,82137372791.0,1.8316387,127.7711906,https://maps.google.com/?cid=0x0:0xd1b5c56f1fdd35b8
cafe,Toko bahan makanan,Toko ABADI SEJAHTERA,"6X46+GCJ, Unnamed Road, Posi Posi, Kec. Loloda Utara, Kabupaten Halmahera Utara, Maluku Utara","Kabupaten Halmahera Utara, Maluku Utara",MALUKU UTARA,,Indonesia,8114350088.0,2.2063261,127.9610272,https://maps.google.com/?cid=0x0:0x87c3d4d553f36ded
cafe,cafe,R. Makan pak Lut,"3R68+X7, Dotia, Kabupaten Halmahera Utara, Maluku Utara","Kabupaten Halmahera Utara, Maluku Utara",MALUKU UTARA,,Indonesia,,2.0624347,127.8156887,https://maps.google.com/?cid=0x0:0xf4c724b51b537730
cafe,Hidangan Laut,Rumah makan Lamongan03,"WVH3+5G6, Limau, Kec. Galela Utara, Kabupaten Halmahera Utara, Maluku Utara","Kabupaten Halmahera Utara, Maluku Utara",MALUKU UTARA,,Indonesia,81241789444.0,1.9279837,127.8538995,https://maps.google.com/?cid=0x0:0xe7ffedec1cc60fa
cafe,cafe,Dapur Hilda,"Duma, Kec. Galela Bar., Kabupaten Halmahera Utara, Maluku Utara 97761","Kec. Galela Bar., Kabupaten Halmahera Utara",MALUKU UTARA,97761.0,Indonesia,82198489976.0,1.8288558,127.8000404,https://maps.google.com/?cid=0x0:0x56c6e83cffb67a9b
cafe,Restoran,RM Sari Laut,"RRCV+QVH, Soa Sio, Kec. Galela, Kabupaten Halmahera Utara, Maluku Utara","Kabupaten Halmahera Utara, Maluku Utara",MALUKU UTARA,,Indonesia,,1.8219257,127.8447213,https://maps.google.com/?cid=0x0:0x9927f90b16251840
cafe,cafe,Kec. Malifut,"Kabupaten Halmahera Utara, Maluku Utara","Kabupaten Halmahera Utara, Maluku Utara",MALUKU UTARA,,Indonesia,,1.0939454,127.776544,https://maps.google.com/?cid=0x0:0xd9110b77277647d2
cafe,Kedai Kopi,Emejea cafe,"4RWC+2J7, Unnamed Road, Tahane, Kec. Malifut, Kabupaten Halmahera Utara, Maluku Utara","Kabupaten Halmahera Utara, Maluku Utara",MALUKU UTARA,,Indonesia,81298724100.0,1.1450413,127.8215568,https://maps.google.com/?cid=0x0:0x60d5f55437d5e2d4
cafe,Kafe,Kedai the labit,"5R7H+P67, Tafasoho, Kec. Malifut, Kabupaten Halmahera Utara, Maluku Utara","Kabupaten Halmahera Utara, Maluku Utara",MALUKU UTARA,,Indonesia,81341513520.0,1.1642927,127.8280425,https://maps.google.com/?cid=0x0:0xc86bff83b2b748ae
cafe,Toko,Mailoa malifut,"5R4M+PRH, Mailoa, Kec. Malifut, Kabupaten Halmahera Utara, Maluku Utara","Kabupaten Halmahera Utara, Maluku Utara",MALUKU UTARA,,Indonesia,,1.1568222,127.834608,https://maps.google.com/?cid=0x0:0xa4d0786c93d0405e
cafe,Restoran,RM. JAWA TIMUR Malifut,"5R6P+4H5, Terpadu, Kec. Malifut, Kabupaten Halmahera Utara, Maluku Utara","Kabupaten Halmahera Utara, Maluku Utara",MALUKU UTARA,,Indonesia,81352345679.0,1.1601904,127.8362761,https://maps.google.com/?cid=0x0:0x1f2d6aac8664dbf1
cafe,Kafe,Caffe DâSULTER,"4RQ9+WV5, Unnamed Road, Balisosang, Kec. Malifut, Kabupaten Halmahera Utara, Maluku Utara","Kabupaten Halmahera Utara, Maluku Utara",MALUKU UTARA,,Indonesia,82328084584.0,1.1397705,127.8197488,https://maps.google.com/?cid=0x0:0xaeb777d2543b7a24
cafe,Rumah Makan,Rumah Makan Tahane,"4RR9+2W9, Tahane, Kec. Malifut, Kabupaten Halmahera Utara, Maluku Utara","Kabupaten Halmahera Utara, Maluku Utara",MALUKU UTARA,,Indonesia,,1.1400483,127.8198441,https://maps.google.com/?cid=0x0:0x36a7c7630b67d42e
cafe,Kedai Kopi,Kedai FarZah,"5R3M+MF9, Mailoa, Kec. Malifut, Kabupaten Halmahera Utara, Maluku Utara","Kabupaten Halmahera Utara, Maluku Utara",MALUKU UTARA,,Indonesia,,1.1541583,127.8337219,https://maps.google.com/?cid=0x0:0x31619281094fd222
cafe,Rumah Makan,Warung 4 Putra,"5R5J+9WR, Tagono, Kec. Malifut, Kabupaten Halmahera Utara, Maluku Utara","Kabupaten Halmahera Utara, Maluku Utara",MALUKU UTARA,,Indonesia,,1.1584924,127.8322685,https://maps.google.com/?cid=0x0:0x5994e6b5d25f15f4
cafe,Hidangan Laut,Munzalan Mubarokah,"4R63+2JG, Jl. Lintas Halmahera, Balisosang, Kec. Malifut, Kabupaten Halmahera Utara, Maluku Utara","Kabupaten Halmahera Utara, Maluku Utara",MALUKU UTARA,,Indonesia,82187028303.0,1.1100711,127.8040887,https://maps.google.com/?cid=0x0:0xab24aaf8b7326d3
cafe,Pasar,Pasar Malifut,"5R5P+VM3, Soma, Kec. Malifut, Kabupaten Halmahera Utara, Maluku Utara","Kabupaten Halmahera Utara, Maluku Utara",MALUKU UTARA,,Indonesia,81355597418.0,1.1596458,127.8366613,https://maps.google.com/?cid=0x0:0x325373870d0135d1
cafe,Restoran,Martabak Sumatera,"5R6M+5X9, Unnamed Road, Terpadu, Malifut, North Halmahera Regency, North Maluku","Kabupaten Halmahera Utara, Maluku Utara",MALUKU UTARA,,Indonesia,,1.1604214,127.8349958,https://maps.google.com/?cid=0x0:0x55e0f7047429dfcb
cafe,Kedai Kopi,emma gitta genie kopi base camp,"5VHR+PCJ, Jati, Kec. Kao, Kabupaten Halmahera Utara, Maluku Utara","Kabupaten Halmahera Utara, Maluku Utara",MALUKU UTARA,,Indonesia,,1.1793279,127.8910149,https://maps.google.com/?cid=0x0:0xb6f647cbd9ee9eaf
cafe,Kedai Kopi,Miau Boba Drink outlet Soma,"5R6P+63R, Terpadu, Kec. Malifut, Kabupaten Halmahera Utara, Maluku Utara","Kabupaten Halmahera Utara, Maluku Utara",MALUKU UTARA,,Indonesia,82196272954.0,1.1606201,127.8351547,https://maps.google.com/?cid=0x0:0xcc2e1663f403381
cafe,cafe,Tobelo,"Gamsungi, Kec. Tobelo, Kabupaten Halmahera Utara, Maluku Utara","Kabupaten Halmahera Utara, Maluku Utara",MALUKU UTARA,,Indonesia,,1.725721,128.001404,https://maps.google.com/?cid=0x0:0xed92b856242bad82
cafe,Kafe,Paddock Cafe  Resto Bulan Indah Tobelo,"P2F5+Q6R, Unnamed Road, Gosoma, Kec. Tobelo, Kabupaten Halmahera Utara, Maluku Utara","Kabupaten Halmahera Utara, Maluku Utara",MALUKU UTARA,,Indonesia,,1.7244976,128.0080228,https://maps.google.com/?cid=0x0:0x2f0933ebbf2047d1
cafe,Kafe,Valhalla Tobelo,"P2M3+3FW, Unnamed Road, Mkcm, Kec. Tobelo, Kabupaten Halmahera Utara, Maluku Utara 97762","Unnamed Road, Mkcm, Kec. Tobelo, Kabupaten Halmahera Utara",MALUKU UTARA,97762.0,Indonesia,81241101071.0,1.7327268,128.0036979,https://maps.google.com/?cid=0x0:0x27f3b89f5271ed95
cafe,Kedai Kopi,Coffee Daily,"Samping Patramart, Wosia, Kec. Tobelo Tengah, Kabupaten Halmahera Utara, Maluku Utara","Kabupaten Halmahera Utara, Maluku Utara",MALUKU UTARA,,Indonesia,81319319319.0,1.7065342,128.0097054,https://maps.google.com/?cid=0x0:0xcd4b3514445feeb0
cafe,Kafe,Qiarono Coffee  Books,"Depan Kampus Universitas Halmahera, Jl.trans Tobelo-Galela, Wari Ino, Kec. Tobelo, Kabupaten Halmahera Utara, Maluku Utara 97762","Jl.trans Tobelo-Galela, Wari Ino, Kec. Tobelo, Kabupaten Halmahera Utara",MALUKU UTARA,97762.0,Indonesia,82291572605.0,1.7509862,127.9920358,https://maps.google.com/?cid=0x0:0x799b40c250d82e2b
cafe,Kedai Kopi,Coffee Corner Tobelo,"P2M5+FFG, Gura, Kec. Tobelo, Kabupaten Halmahera Utara, Maluku Utara","Kabupaten Halmahera Utara, Maluku Utara",MALUKU UTARA,,Indonesia,,1.7336894,128.0086987,https://maps.google.com/?cid=0x0:0x423241f4ba1c4ae7
cafe,Bar Kopi Espresso,De Coffee,"P296+WF5, Jl. Pasar Blakang, Rawajaya, Kec. Tobelo, Kabupaten Halmahera Utara, Maluku Utara","Kabupaten Halmahera Utara, Maluku Utara",MALUKU UTARA,,Indonesia,81347344996.0,1.7197548,128.0112288,https://maps.google.com/?cid=0x0:0xd2c63cd68c22255f
cafe,Kafe,PREDATOR Carwash  Cafe,"M2Q6+X8H, Lina Ino, Kec. Tobelo Tengah, Kabupaten Halmahera Utara, Maluku Utara","Kabupaten Halmahera Utara, Maluku Utara",MALUKU UTARA,,Indonesia,81399433332.0,1.6901403,128.0107795,https://maps.google.com/?cid=0x0:0xef0393b9dc3f1307
cafe,Kafe,22 caffe,"P2Q5+HMG, Unnamed Road, Gura, Kec. Tobelo, Kabupaten Halmahera Utara, Maluku Utara","Kabupaten Halmahera Utara, Maluku Utara",MALUKU UTARA,,Indonesia,,1.7389276,128.0092024,https://maps.google.com/?cid=0x0:0xbd85fc483cffdcaf
cafe,Restoran,Resto Kampoeng Planet,"Gamsungi, Kec. Tobelo, Kabupaten Halmahera Utara, Maluku Utara","Kabupaten Halmahera Utara, Maluku Utara",MALUKU UTARA,,Indonesia,,1.7217098,128.0116583,https://maps.google.com/?cid=0x0:0xd672ac9e681a6e5d
cafe,Kedai Kopi,Love Story Cafe,"P2F6+JV8, Jl. Pelabuhan, Gamsungi, Kec. Tobelo, Kabupaten Halmahera Utara, Maluku Utara","Kabupaten Halmahera Utara, Maluku Utara",MALUKU UTARA,,Indonesia,,1.7240384,128.012209,https://maps.google.com/?cid=0x0:0xf200b0ba5ab52034
cafe,Restoran,D'yanaandlngi,"P2G2+7HJ, Gamsungi, Kec. Tobelo, Kabupaten Halmahera Utara, Maluku Utara","Kabupaten Halmahera Utara, Maluku Utara",MALUKU UTARA,,Indonesia,81237638077.0,1.725721,128.001404,https://maps.google.com/?cid=0x0:0x545587c31eb7522c
cafe,Hidangan Laut,SMORGAN Resto,"PXJV+JGQ, Jl. Pemerintahan, depan KODIM, Halut, Mkcm, Tobelo, North Halmahera Regency, North Maluku","Kabupaten Halmahera Utara, Maluku Utara",MALUKU UTARA,,Indonesia,85201115150.0,1.7315784,127.9938588,https://maps.google.com/?cid=0x0:0xd45d6fcd651f0c5c
cafe,Kafe,SScafe,"P2H4+MXC, Jl. Lina, Gamsungi, Kec. Tobelo, Kabupaten Halmahera Utara, Maluku Utara","Kabupaten Halmahera Utara, Maluku Utara",MALUKU UTARA,,Indonesia,,1.7291827,128.0074022,https://maps.google.com/?cid=0x0:0xbfae818529b8fadf
cafe,cafe,Kec. Tobelo Bar.,"Kabupaten Halmahera Utara, Maluku Utara","Kabupaten Halmahera Utara, Maluku Utara",MALUKU UTARA,,Indonesia,,1.5410827,127.9493454,https://maps.google.com/?cid=0x0:0x253218d19bcb2a3e
cafe,Kafe,Paddock Cafe  Resto Bulan Indah Tobelo,"P2F5+Q6R, Unnamed Road, Gosoma, Kec. Tobelo, Kabupaten Halmahera Utara, Maluku Utara","Kabupaten Halmahera Utara, Maluku Utara",MALUKU UTARA,,Indonesia,,1.7244976,128.0080228,https://maps.google.com/?cid=0x0:0x2f0933ebbf2047d1
cafe,Bar Kopi Espresso,HOBATACOFFE,"GWWX+4WJ, Togoliua, Kec. Tobelo Bar., Kabupaten Halmahera Utara, Maluku Utara","Kabupaten Halmahera Utara, Maluku Utara",MALUKU UTARA,,Indonesia,82290056712.0,1.545334,127.9497757,https://maps.google.com/?cid=0x0:0x971ab3702b15fa61
cafe,Kedai Kopi,PelangiQQ,"GWVX+MJ5, Togoliua, Kec. Tobelo Bar., Kabupaten Halmahera Utara, Maluku Utara","Kabupaten Halmahera Utara, Maluku Utara",MALUKU UTARA,,Indonesia,,1.5441284,127.9491158,https://maps.google.com/?cid=0x0:0x80b62004127d5a75
cafe,Kafe,Jarod Cafe,"P2G6+J32, Jl. Kemakmuran, Gamsungi, Kec. Tobelo, Kabupaten Halmahera Utara, Maluku Utara","Kabupaten Halmahera Utara, Maluku Utara",MALUKU UTARA,,Indonesia,,1.7265167,128.0101331,https://maps.google.com/?cid=0x0:0x4bb879da523c23f8
cafe,Kedai Kopi,Coffee Daily,"Samping Patramart, Wosia, Kec. Tobelo Tengah, Kabupaten Halmahera Utara, Maluku Utara","Kabupaten Halmahera Utara, Maluku Utara",MALUKU UTARA,,Indonesia,81319319319.0,1.7065342,128.0097054,https://maps.google.com/?cid=0x0:0xcd4b3514445feeb0
cafe,Kafe,Qiarono Coffee  Books,"Depan Kampus Universitas Halmahera, Jl.trans Tobelo-Galela, Wari Ino, Kec. Tobelo, Kabupaten Halmahera Utara, Maluku Utara 97762","Jl.trans Tobelo-Galela, Wari Ino, Kec. Tobelo, Kabupaten Halmahera Utara",MALUKU UTARA,97762.0,Indonesia,82291572605.0,1.7509862,127.9920358,https://maps.google.com/?cid=0x0:0x799b40c250d82e2b
cafe,Rumah Makan,Kios VICTORY,"Jl. Trans Halmahera No.Km.28, Birinoa, Kec. Tobelo Bar., Kabupaten Halmahera Utara, Maluku Utara 97762","Birinoa, Kec. Tobelo Bar., Kabupaten Halmahera Utara",MALUKU UTARA,97762.0,Indonesia,85298637888.0,1.5208887,127.9350361,https://maps.google.com/?cid=0x0:0x65f9a31b1ec41b07
cafe,Bar Kopi Espresso,De Coffee,"P296+WF5, Jl. Pasar Blakang, Rawajaya, Kec. Tobelo, Kabupaten Halmahera Utara, Maluku Utara","Kabupaten Halmahera Utara, Maluku Utara",MALUKU UTARA,,Indonesia,81347344996.0,1.7197548,128.0112288,https://maps.google.com/?cid=0x0:0xd2c63cd68c22255f
cafe,Kafe,PREDATOR Carwash  Cafe,"M2Q6+X8H, Lina Ino, Kec. Tobelo Tengah, Kabupaten Halmahera Utara, Maluku Utara","Kabupaten Halmahera Utara, Maluku Utara",MALUKU UTARA,,Indonesia,81399433332.0,1.6901403,128.0107795,https://maps.google.com/?cid=0x0:0xef0393b9dc3f1307
cafe,Kedai Kopi,Sudut Hati Tobelo,"Lorong Hitam, Gosoma, Kec. Tobelo, Kabupaten Halmahera Utara, Maluku Utara 97662","Gosoma, Kec. Tobelo, Kabupaten Halmahera Utara",MALUKU UTARA,97662.0,Indonesia,82187358974.0,1.7228752,128.0091118,https://maps.google.com/?cid=0x0:0xf9f618b63b0124fe
cafe,Kedai Kopi,Coffee Corner Tobelo,"P2M5+FFG, Gura, Kec. Tobelo, Kabupaten Halmahera Utara, Maluku Utara","Kabupaten Halmahera Utara, Maluku Utara",MALUKU UTARA,,Indonesia,,1.7336894,128.0086987,https://maps.google.com/?cid=0x0:0x423241f4ba1c4ae7
cafe,Perhimpunan Pengembang Perumahan,Hero online,"Hero Ino (trans hero, Desa, Upt Togoliua, Kec. Tobelo Bar., Kabupaten Halmahera Utara, Maluku Utara 97762","Desa, Upt Togoliua, Kec. Tobelo Bar., Kabupaten Halmahera Utara",MALUKU UTARA,97762.0,Indonesia,81390949094.0,1.5460293,127.8855086,https://maps.google.com/?cid=0x0:0xe26cb7b9e1da29a
cafe,Kafe,22 caffe,"P2Q5+HMG, Unnamed Road, Gura, Kec. Tobelo, Kabupaten Halmahera Utara, Maluku Utara","Kabupaten Halmahera Utara, Maluku Utara",MALUKU UTARA,,Indonesia,,1.7389276,128.0092024,https://maps.google.com/?cid=0x0:0xbd85fc483cffdcaf
cafe,cafe,Kec. Tobelo Sel.,"Kabupaten Halmahera Utara, Maluku Utara","Kabupaten Halmahera Utara, Maluku Utara",MALUKU UTARA,,Indonesia,,1.6281283,127.980575,https://maps.google.com/?cid=0x0:0x1ecb6049a3d26ca1
cafe,Kafe,Valhalla Tobelo,"P2M3+3FW, Unnamed Road, Mkcm, Kec. Tobelo, Kabupaten Halmahera Utara, Maluku Utara 97762","Unnamed Road, Mkcm, Kec. Tobelo, Kabupaten Halmahera Utara",MALUKU UTARA,97762.0,Indonesia,81241101071.0,1.7327268,128.0036979,https://maps.google.com/?cid=0x0:0x27f3b89f5271ed95
cafe,Kafe,Paddock Cafe  Resto Bulan Indah Tobelo,"P2F5+Q6R, Unnamed Road, Gosoma, Kec. Tobelo, Kabupaten Halmahera Utara, Maluku Utara","Kabupaten Halmahera Utara, Maluku Utara",MALUKU UTARA,,Indonesia,,1.7244976,128.0080228,https://maps.google.com/?cid=0x0:0x2f0933ebbf2047d1
cafe,Kafe,Jarod Cafe,"P2G6+J32, Jl. Kemakmuran, Gamsungi, Kec. Tobelo, Kabupaten Halmahera Utara, Maluku Utara","Kabupaten Halmahera Utara, Maluku Utara",MALUKU UTARA,,Indonesia,,1.7265167,128.0101331,https://maps.google.com/?cid=0x0:0x4bb879da523c23f8
cafe,Kafe,PREDATOR Carwash  Cafe,"M2Q6+X8H, Lina Ino, Kec. Tobelo Tengah, Kabupaten Halmahera Utara, Maluku Utara","Kabupaten Halmahera Utara, Maluku Utara",MALUKU UTARA,,Indonesia,81399433332.0,1.6901403,128.0107795,https://maps.google.com/?cid=0x0:0xef0393b9dc3f1307
cafe,Bar Kopi Espresso,De Coffee,"P296+WF5, Jl. Pasar Blakang, Rawajaya, Kec. Tobelo, Kabupaten Halmahera Utara, Maluku Utara","Kabupaten Halmahera Utara, Maluku Utara",MALUKU UTARA,,Indonesia,81347344996.0,1.7197548,128.0112288,https://maps.google.com/?cid=0x0:0xd2c63cd68c22255f
cafe,Kedai Kopi,HC Edelweiss CAFE,"Jl. Raya Trans Halmahera, Upa, Kec. Tobelo, Kabupaten Halmahera Utara, Maluku Utara 97762","Upa, Kec. Tobelo, Kabupaten Halmahera Utara",MALUKU UTARA,97762.0,Indonesia,85216316868.0,1.6777008,128.0053325,https://maps.google.com/?cid=0x0:0x7c179d40fcc17b9e
cafe,Kafe,Qiarono Coffee  Books,"Depan Kampus Universitas Halmahera, Jl.trans Tobelo-Galela, Wari Ino, Kec. Tobelo, Kabupaten Halmahera Utara, Maluku Utara 97762","Jl.trans Tobelo-Galela, Wari Ino, Kec. Tobelo, Kabupaten Halmahera Utara",MALUKU UTARA,97762.0,Indonesia,82291572605.0,1.7509862,127.9920358,https://maps.google.com/?cid=0x0:0x799b40c250d82e2b
cafe,Bar Kopi Espresso,HOBATACOFFE,"GWWX+4WJ, Togoliua, Kec. Tobelo Bar., Kabupaten Halmahera Utara, Maluku Utara","Kabupaten Halmahera Utara, Maluku Utara",MALUKU UTARA,,Indonesia,82290056712.0,1.545334,127.9497757,https://maps.google.com/?cid=0x0:0x971ab3702b15fa61
cafe,Kedai Kopi,Coffee Corner Tobelo,"P2M5+FFG, Gura, Kec. Tobelo, Kabupaten Halmahera Utara, Maluku Utara","Kabupaten Halmahera Utara, Maluku Utara",MALUKU UTARA,,Indonesia,,1.7336894,128.0086987,https://maps.google.com/?cid=0x0:0x423241f4ba1c4ae7
cafe,Kafe,22 caffe,"P2Q5+HMG, Unnamed Road, Gura, Kec. Tobelo, Kabupaten Halmahera Utara, Maluku Utara","Kabupaten Halmahera Utara, Maluku Utara",MALUKU UTARA,,Indonesia,,1.7389276,128.0092024,https://maps.google.com/?cid=0x0:0xbd85fc483cffdcaf
cafe,Restoran,Resto Kampoeng Planet,"Gamsungi, Kec. Tobelo, Kabupaten Halmahera Utara, Maluku Utara","Kabupaten Halmahera Utara, Maluku Utara",MALUKU UTARA,,Indonesia,,1.7217098,128.0116583,https://maps.google.com/?cid=0x0:0xd672ac9e681a6e5d
cafe,Restoran,RM. GUNUNG KLABAT di Kupa-kupa Tobelo,"Kupa Kupa, Kec. Tobelo Sel., Kabupaten Halmahera Utara, Maluku Utara","Kabupaten Halmahera Utara, Maluku Utara",MALUKU UTARA,,Indonesia,,1.6253944,127.9893772,https://maps.google.com/?cid=0x0:0x6d62794721cf037b
cafe,Kedai Kopi,Warung Om Jhon,"JXCW+RQ7, Kupa Kupa, Kec. Tobelo Sel., Kabupaten Halmahera Utara, Maluku Utara","Kabupaten Halmahera Utara, Maluku Utara",MALUKU UTARA,,Indonesia,,1.6220255,127.9969356,https://maps.google.com/?cid=0x0:0x1022fbd3a3333730
cafe,cafe,Kec. Tobelo Tim.,"Kabupaten Halmahera Utara, Maluku Utara","Kabupaten Halmahera Utara, Maluku Utara",MALUKU UTARA,,Indonesia,,1.5702306,128.0348143,https://maps.google.com/?cid=0x0:0x3b948dd04e667beb
cafe,Bar Kopi Espresso,HOBATACOFFE,"GWWX+4WJ, Togoliua, Kec. Tobelo Bar., Kabupaten Halmahera Utara, Maluku Utara","Kabupaten Halmahera Utara, Maluku Utara",MALUKU UTARA,,Indonesia,82290056712.0,1.545334,127.9497757,https://maps.google.com/?cid=0x0:0x971ab3702b15fa61
cafe,Kafe,Paddock Cafe  Resto Bulan Indah Tobelo,"P2F5+Q6R, Unnamed Road, Gosoma, Kec. Tobelo, Kabupaten Halmahera Utara, Maluku Utara","Kabupaten Halmahera Utara, Maluku Utara",MALUKU UTARA,,Indonesia,,1.7244976,128.0080228,https://maps.google.com/?cid=0x0:0x2f0933ebbf2047d1
cafe,Kafe,Valhalla Tobelo,"P2M3+3FW, Unnamed Road, Mkcm, Kec. Tobelo, Kabupaten Halmahera Utara, Maluku Utara 97762","Unnamed Road, Mkcm, Kec. Tobelo, Kabupaten Halmahera Utara",MALUKU UTARA,97762.0,Indonesia,81241101071.0,1.7327268,128.0036979,https://maps.google.com/?cid=0x0:0x27f3b89f5271ed95
cafe,Rumah Makan,La Meti Beach Club,"H342+RH, Meti, Kec. Tobelo Tim., Kabupaten Halmahera Utara, Maluku Utara","Kabupaten Halmahera Utara, Maluku Utara",MALUKU UTARA,,Indonesia,81319392624.0,1.5570596,128.0513798,https://maps.google.com/?cid=0x0:0xbb8dfd4d3f3f7553
cafe,Kafe,Jarod Cafe,"P2G6+J32, Jl. Kemakmuran, Gamsungi, Kec. Tobelo, Kabupaten Halmahera Utara, Maluku Utara","Kabupaten Halmahera Utara, Maluku Utara",MALUKU UTARA,,Indonesia,,1.7265167,128.0101331,https://maps.google.com/?cid=0x0:0x4bb879da523c23f8
cafe,Kedai Kopi,Coffee Daily,"Samping Patramart, Wosia, Kec. Tobelo Tengah, Kabupaten Halmahera Utara, Maluku Utara","Kabupaten Halmahera Utara, Maluku Utara",MALUKU UTARA,,Indonesia,81319319319.0,1.7065342,128.0097054,https://maps.google.com/?cid=0x0:0xcd4b3514445feeb0
cafe,Bar Kopi Espresso,De Coffee,"P296+WF5, Jl. Pasar Blakang, Rawajaya, Kec. Tobelo, Kabupaten Halmahera Utara, Maluku Utara","Kabupaten Halmahera Utara, Maluku Utara",MALUKU UTARA,,Indonesia,81347344996.0,1.7197548,128.0112288,https://maps.google.com/?cid=0x0:0xd2c63cd68c22255f
cafe,Kafe,Qiarono Coffee  Books,"Depan Kampus Universitas Halmahera, Jl.trans Tobelo-Galela, Wari Ino, Kec. Tobelo, Kabupaten Halmahera Utara, Maluku Utara 97762","Jl.trans Tobelo-Galela, Wari Ino, Kec. Tobelo, Kabupaten Halmahera Utara",MALUKU UTARA,97762.0,Indonesia,82291572605.0,1.7509862,127.9920358,https://maps.google.com/?cid=0x0:0x799b40c250d82e2b
cafe,Kedai Kopi,Sudut Hati Tobelo,"Lorong Hitam, Gosoma, Kec. Tobelo, Kabupaten Halmahera Utara, Maluku Utara 97662","Gosoma, Kec. Tobelo, Kabupaten Halmahera Utara",MALUKU UTARA,97662.0,Indonesia,82187358974.0,1.7228752,128.0091118,https://maps.google.com/?cid=0x0:0xf9f618b63b0124fe
cafe,Kedai Kopi,Coffee Corner Tobelo,"P2M5+FFG, Gura, Kec. Tobelo, Kabupaten Halmahera Utara, Maluku Utara","Kabupaten Halmahera Utara, Maluku Utara",MALUKU UTARA,,Indonesia,,1.7336894,128.0086987,https://maps.google.com/?cid=0x0:0x423241f4ba1c4ae7
cafe,Kafe,22 caffe,"P2Q5+HMG, Unnamed Road, Gura, Kec. Tobelo, Kabupaten Halmahera Utara, Maluku Utara","Kabupaten Halmahera Utara, Maluku Utara",MALUKU UTARA,,Indonesia,,1.7389276,128.0092024,https://maps.google.com/?cid=0x0:0xbd85fc483cffdcaf
cafe,Restoran,Resto Kampoeng Planet,"Gamsungi, Kec. Tobelo, Kabupaten Halmahera Utara, Maluku Utara","Kabupaten Halmahera Utara, Maluku Utara",MALUKU UTARA,,Indonesia,,1.7217098,128.0116583,https://maps.google.com/?cid=0x0:0xd672ac9e681a6e5d
cafe,Kedai Kopi,Warung Om Jhon,"JXCW+RQ7, Kupa Kupa, Kec. Tobelo Sel., Kabupaten Halmahera Utara, Maluku Utara","Kabupaten Halmahera Utara, Maluku Utara",MALUKU UTARA,,Indonesia,,1.6220255,127.9969356,https://maps.google.com/?cid=0x0:0x1022fbd3a3333730
cafe,cafe,Kec. Tobelo Tengah,"Kabupaten Halmahera Utara, Maluku Utara","Kabupaten Halmahera Utara, Maluku Utara",MALUKU UTARA,,Indonesia,,1.7074794,128.0127501,https://maps.google.com/?cid=0x0:0xef293bed1374db12
cafe,Kafe,Paddock Cafe  Resto Bulan Indah Tobelo,"P2F5+Q6R, Unnamed Road, Gosoma, Kec. Tobelo, Kabupaten Halmahera Utara, Maluku Utara","Kabupaten Halmahera Utara, Maluku Utara",MALUKU UTARA,,Indonesia,,1.7244976,128.0080228,https://maps.google.com/?cid=0x0:0x2f0933ebbf2047d1
cafe,Kedai Kopi,Coffee Daily,"Samping Patramart, Wosia, Kec. Tobelo Tengah, Kabupaten Halmahera Utara, Maluku Utara","Kabupaten Halmahera Utara, Maluku Utara",MALUKU UTARA,,Indonesia,81319319319.0,1.7065342,128.0097054,https://maps.google.com/?cid=0x0:0xcd4b3514445feeb0
cafe,Kafe,Valhalla Tobelo,"P2M3+3FW, Unnamed Road, Mkcm, Kec. Tobelo, Kabupaten Halmahera Utara, Maluku Utara 97762","Unnamed Road, Mkcm, Kec. Tobelo, Kabupaten Halmahera Utara",MALUKU UTARA,97762.0,Indonesia,81241101071.0,1.7327268,128.0036979,https://maps.google.com/?cid=0x0:0x27f3b89f5271ed95
cafe,Kafe,PREDATOR Carwash  Cafe,"M2Q6+X8H, Lina Ino, Kec. Tobelo Tengah, Kabupaten Halmahera Utara, Maluku Utara","Kabupaten Halmahera Utara, Maluku Utara",MALUKU UTARA,,Indonesia,81399433332.0,1.6901403,128.0107795,https://maps.google.com/?cid=0x0:0xef0393b9dc3f1307
cafe,Kedai Kopi,Sudut Hati Tobelo,"Lorong Hitam, Gosoma, Kec. Tobelo, Kabupaten Halmahera Utara, Maluku Utara 97662","Gosoma, Kec. Tobelo, Kabupaten Halmahera Utara",MALUKU UTARA,97662.0,Indonesia,82187358974.0,1.7228752,128.0091118,https://maps.google.com/?cid=0x0:0xf9f618b63b0124fe
cafe,Bar Kopi Espresso,De Coffee,"P296+WF5, Jl. Pasar Blakang, Rawajaya, Kec. Tobelo, Kabupaten Halmahera Utara, Maluku Utara","Kabupaten Halmahera Utara, Maluku Utara",MALUKU UTARA,,Indonesia,81347344996.0,1.7197548,128.0112288,https://maps.google.com/?cid=0x0:0xd2c63cd68c22255f
cafe,Kafe,Jarod Cafe,"P2G6+J32, Jl. Kemakmuran, Gamsungi, Kec. Tobelo, Kabupaten Halmahera Utara, Maluku Utara","Kabupaten Halmahera Utara, Maluku Utara",MALUKU UTARA,,Indonesia,,1.7265167,128.0101331,https://maps.google.com/?cid=0x0:0x4bb879da523c23f8
cafe,Brunch,Torang Poenya Caffe,"P247+M7F, Wosia, Kec. Tobelo Tengah, Kabupaten Halmahera Utara, Maluku Utara","Kabupaten Halmahera Utara, Maluku Utara",MALUKU UTARA,,Indonesia,,1.7066905,128.0131623,https://maps.google.com/?cid=0x0:0xd75f11f385ae86fa
cafe,Kafe,Aer Goraka TPI,"P266+WRG, Unnamed Road, Wosia, Kec. Tobelo Tengah, Kabupaten Halmahera Utara, Maluku Utara","Kabupaten Halmahera Utara, Maluku Utara",MALUKU UTARA,,Indonesia,81356276724.0,1.71231,128.0120784,https://maps.google.com/?cid=0x0:0x1b8fe4276d0c936a
cafe,Kafe,Qiarono Coffee  Books,"Depan Kampus Universitas Halmahera, Jl.trans Tobelo-Galela, Wari Ino, Kec. Tobelo, Kabupaten Halmahera Utara, Maluku Utara 97762","Jl.trans Tobelo-Galela, Wari Ino, Kec. Tobelo, Kabupaten Halmahera Utara",MALUKU UTARA,97762.0,Indonesia,82291572605.0,1.7509862,127.9920358,https://maps.google.com/?cid=0x0:0x799b40c250d82e2b
cafe,Kedai Kopi,Abugunungbox Coffee Shop,"Gamsungi, Kec. Tobelo, Kabupaten Halmahera Utara, Maluku Utara","Kabupaten Halmahera Utara, Maluku Utara",MALUKU UTARA,,Indonesia,81241371616.0,1.7270324,127.9975247,https://maps.google.com/?cid=0x0:0x7c22cb911388665a
cafe,Restoran,Garuda resto  Cafe,"P234+GJC, WKO, Kec. Tobelo Tengah, Kabupaten Halmahera Utara, Maluku Utara","Kabupaten Halmahera Utara, Maluku Utara",MALUKU UTARA,,Indonesia,,1.7037991,128.0065131,https://maps.google.com/?cid=0x0:0x6f1fde836d90ad92
cafe,Kedai Kopi,Coffee Corner Tobelo,"P2M5+FFG, Gura, Kec. Tobelo, Kabupaten Halmahera Utara, Maluku Utara","Kabupaten Halmahera Utara, Maluku Utara",MALUKU UTARA,,Indonesia,,1.7336894,128.0086987,https://maps.google.com/?cid=0x0:0x423241f4ba1c4ae7
cafe,cafe,Kec. Tobelo Utara,"Kabupaten Halmahera Utara, Maluku Utara","Kabupaten Halmahera Utara, Maluku Utara",MALUKU UTARA,,Indonesia,,1.7634729,127.9819399,https://maps.google.com/?cid=0x0:0xd08db8115ea8b44b
cafe,Kafe,Paddock Cafe  Resto Bulan Indah Tobelo,"P2F5+Q6R, Unnamed Road, Gosoma, Kec. Tobelo, Kabupaten Halmahera Utara, Maluku Utara","Kabupaten Halmahera Utara, Maluku Utara",MALUKU UTARA,,Indonesia,,1.7244976,128.0080228,https://maps.google.com/?cid=0x0:0x2f0933ebbf2047d1
cafe,Kafe,Valhalla Tobelo,"P2M3+3FW, Unnamed Road, Mkcm, Kec. Tobelo, Kabupaten Halmahera Utara, Maluku Utara 97762","Unnamed Road, Mkcm, Kec. Tobelo, Kabupaten Halmahera Utara",MALUKU UTARA,97762.0,Indonesia,81241101071.0,1.7327268,128.0036979,https://maps.google.com/?cid=0x0:0x27f3b89f5271ed95
cafe,Kafe,Qiarono Coffee  Books,"Depan Kampus Universitas Halmahera, Jl.trans Tobelo-Galela, Wari Ino, Kec. Tobelo, Kabupaten Halmahera Utara, Maluku Utara 97762","Jl.trans Tobelo-Galela, Wari Ino, Kec. Tobelo, Kabupaten Halmahera Utara",MALUKU UTARA,97762.0,Indonesia,82291572605.0,1.7509862,127.9920358,https://maps.google.com/?cid=0x0:0x799b40c250d82e2b
cafe,Kedai Kopi,Coffee Daily,"Samping Patramart, Wosia, Kec. Tobelo Tengah, Kabupaten Halmahera Utara, Maluku Utara","Kabupaten Halmahera Utara, Maluku Utara",MALUKU UTARA,,Indonesia,81319319319.0,1.7065342,128.0097054,https://maps.google.com/?cid=0x0:0xcd4b3514445feeb0
cafe,Kedai Kopi,Sudut Hati Tobelo,"Lorong Hitam, Gosoma, Kec. Tobelo, Kabupaten Halmahera Utara, Maluku Utara 97662","Gosoma, Kec. Tobelo, Kabupaten Halmahera Utara",MALUKU UTARA,97662.0,Indonesia,82187358974.0,1.7228752,128.0091118,https://maps.google.com/?cid=0x0:0xf9f618b63b0124fe
cafe,Kedai Kopi,MULTI PERMATA,"QX98+PV2, Jl. Raya Trans Galela-Tobelo, Popilo Utara, Kec. Tobelo Utara, Kabupaten Halmahera Utara, Maluku Utara","Kabupaten Halmahera Utara, Maluku Utara",MALUKU UTARA,,Indonesia,,1.7692733,127.9671391,https://maps.google.com/?cid=0x0:0x634bfa97b1465903
cafe,Kafe,22 caffe,"P2Q5+HMG, Unnamed Road, Gura, Kec. Tobelo, Kabupaten Halmahera Utara, Maluku Utara","Kabupaten Halmahera Utara, Maluku Utara",MALUKU UTARA,,Indonesia,,1.7389276,128.0092024,https://maps.google.com/?cid=0x0:0xbd85fc483cffdcaf
cafe,Kafe,Jarod Cafe,"P2G6+J32, Jl. Kemakmuran, Gamsungi, Kec. Tobelo, Kabupaten Halmahera Utara, Maluku Utara","Kabupaten Halmahera Utara, Maluku Utara",MALUKU UTARA,,Indonesia,,1.7265167,128.0101331,https://maps.google.com/?cid=0x0:0x4bb879da523c23f8
cafe,Kedai Kopi,Coffee Corner Tobelo,"P2M5+FFG, Gura, Kec. Tobelo, Kabupaten Halmahera Utara, Maluku Utara","Kabupaten Halmahera Utara, Maluku Utara",MALUKU UTARA,,Indonesia,,1.7336894,128.0086987,https://maps.google.com/?cid=0x0:0x423241f4ba1c4ae7
cafe,Restoran,ATALIA Cafe  Resto,"Mkcm, Kec. Tobelo, Kabupaten Halmahera Utara, Maluku Utara","Kabupaten Halmahera Utara, Maluku Utara",MALUKU UTARA,,Indonesia,81344348345.0,1.7367401,127.9985107,https://maps.google.com/?cid=0x0:0x100d5a533c53bfe2
cafe,Bar Kopi Espresso,De Coffee,"P296+WF5, Jl. Pasar Blakang, Rawajaya, Kec. Tobelo, Kabupaten Halmahera Utara, Maluku Utara","Kabupaten Halmahera Utara, Maluku Utara",MALUKU UTARA,,Indonesia,81347344996.0,1.7197548,128.0112288,https://maps.google.com/?cid=0x0:0xd2c63cd68c22255f
cafe,Kedai Kopi,Abugunungbox Coffee Shop,"Gamsungi, Kec. Tobelo, Kabupaten Halmahera Utara, Maluku Utara","Kabupaten Halmahera Utara, Maluku Utara",MALUKU UTARA,,Indonesia,81241371616.0,1.7270324,127.9975247,https://maps.google.com/?cid=0x0:0x7c22cb911388665a
cafe,Kafe,PREDATOR Carwash  Cafe,"M2Q6+X8H, Lina Ino, Kec. Tobelo Tengah, Kabupaten Halmahera Utara, Maluku Utara","Kabupaten Halmahera Utara, Maluku Utara",MALUKU UTARA,,Indonesia,81399433332.0,1.6901403,128.0107795,https://maps.google.com/?cid=0x0:0xef0393b9dc3f1307
hotel,hotel,Kec. Galela,"Kabupaten Halmahera Utara, Maluku Utara","Kabupaten Halmahera Utara, Maluku Utara",MALUKU UTARA,,Indonesia,,1.7991745,127.9013278,https://maps.google.com/?cid=0x0:0x6d037a5832cde2d7
hotel,hotel,Marahai Park Hotel,"Jl. Kemakmuran, Wosia, Kec. Tobelo, Kabupaten Halmahera Utara, Maluku Utara 97762","Wosia, Kec. Tobelo, Kabupaten Halmahera Utara",MALUKU UTARA,97762.0,Indonesia,9242321470.0,1.7123424,128.0113095,https://maps.google.com/?cid=0x0:0x1773edc1a70bea03
hotel,hotel,Juliana Hotel,"Gamsungi, Kec. Tobelo, Kabupaten Halmahera Utara, Maluku Utara","Kabupaten Halmahera Utara, Maluku Utara",MALUKU UTARA,,Indonesia,82191159141.0,1.7272579,128.0105717,https://maps.google.com/?cid=0x0:0x97231ba37bd2cf65
hotel,hotel,Hotel Elizabeth,"Jl. Kemakmuran, Gura, Kec. Tobelo, Kabupaten Halmahera Utara, Maluku Utara 97762","Gura, Kec. Tobelo, Kabupaten Halmahera Utara",MALUKU UTARA,97762.0,Indonesia,,1.7308941,128.0102163,https://maps.google.com/?cid=0x0:0x64ae6c4240cbb4c7
hotel,hotel,Hotel Gamalama Indah,"Q9QQ+RX6, Gamalama, Kec. Ternate Tengah, Kota Ternate, Maluku Utara","Kota Ternate, Maluku Utara",MALUKU UTARA,,Indonesia,81380008545.0,0.7895272,127.3898938,https://maps.google.com/?cid=0x0:0x2029c9b62509c39
hotel,hotel,Johana Hotel,"P2F6+F4F, Gosoma, Kec. Tobelo, Kabupaten Halmahera Utara, Maluku Utara","Kabupaten Halmahera Utara, Maluku Utara",MALUKU UTARA,,Indonesia,9242623343.0,1.7236844,128.0102915,https://maps.google.com/?cid=0x0:0x1b997a52170a6c31
hotel,hotel,Hotel Astonia Tobelo,"Gosoma, Kec. Tobelo, Kabupaten Halmahera Utara, Maluku Utara","Kabupaten Halmahera Utara, Maluku Utara",MALUKU UTARA,,Indonesia,9242621900.0,1.7223761,127.9947995,https://maps.google.com/?cid=0x0:0x99ff7dd9ff5c49af
hotel,hotel,Hotel Kusu-Kusu,"M2W5+HC7, Lina Ino, Kec. Tobelo Tengah, Kabupaten Halmahera Utara, Maluku Utara","Kabupaten Halmahera Utara, Maluku Utara",MALUKU UTARA,,Indonesia,,1.6964035,128.0085551,https://maps.google.com/?cid=0x0:0xde51ba868745d615
hotel,hotel,D'Lodge Village Tobelo,"PXFM+G47, Jl Dukono, Gamsungi, Kec. Tobelo, Kabupaten Halmahera Utara, Maluku Utara","Kabupaten Halmahera Utara, Maluku Utara",MALUKU UTARA,,Indonesia,82187899793.0,1.7237953,127.9828016,https://maps.google.com/?cid=0x0:0x97255e7444041343
hotel,hotel,Hotel President,"P2H6+3F9, Jl. Kemakmuran, RT.02/RW.03, Gamsungi, Kec. Tobelo, Kabupaten Halmahera Utara, Maluku Utara 97762","Jl. Kemakmuran, RT.02/RW.03, Gamsungi, Kec. Tobelo, Kabupaten Halmahera Utara",MALUKU UTARA,97762.0,Indonesia,9242621353.0,1.7276524,128.0112339,https://maps.google.com/?cid=0x0:0x48545677de481d5
hotel,hotel,Wisma Mulia,"P286+P48, Rawajaya, Kec. Tobelo, Kabupaten Halmahera Utara, Maluku Utara","Kabupaten Halmahera Utara, Maluku Utara",MALUKU UTARA,,Indonesia,,1.7167897,128.0103356,https://maps.google.com/?cid=0x0:0x611811aff0d3d758
hotel,hotel,Wisma Anggrek Tobelo,"Gamsungi, Kec. Tobelo, Kabupaten Halmahera Utara, Maluku Utara","Kabupaten Halmahera Utara, Maluku Utara",MALUKU UTARA,,Indonesia,2180629666.0,1.7253125,128.0086875,https://maps.google.com/?cid=0x0:0x7f0bee62851b33a6
hotel,hotel,Saloi inn,"3FXQ+VR2, Tedeng, Kec. Jailolo, Kabupaten Halmahera Barat, Maluku Utara","Kabupaten Halmahera Barat, Maluku Utara",MALUKU UTARA,,Indonesia,8111020812.0,1.0996348,127.4895301,https://maps.google.com/?cid=0x0:0x1139fc5cb3804c4
hotel,hotel,Kec. Galela Bar.,"Kabupaten Halmahera Utara, Maluku Utara","Kabupaten Halmahera Utara, Maluku Utara",MALUKU UTARA,,Indonesia,,1.8258564,127.7917991,https://maps.google.com/?cid=0x0:0x6883a71e285c2680
hotel,hotel,Bianda Hotel,"P2G6+VGM, Jl. Kemakmuran, Gamsungi, Kec. Tobelo, Kabupaten Halmahera Utara, Maluku Utara","Kabupaten Halmahera Utara, Maluku Utara",MALUKU UTARA,,Indonesia,,1.7272204,128.011288,https://maps.google.com/?cid=0x0:0x94545d064d6051e5
hotel,hotel,Hotel Astonia Tobelo,"Gosoma, Kec. Tobelo, Kabupaten Halmahera Utara, Maluku Utara","Kabupaten Halmahera Utara, Maluku Utara",MALUKU UTARA,,Indonesia,9242621900.0,1.7223761,127.9947995,https://maps.google.com/?cid=0x0:0x99ff7dd9ff5c49af
hotel,hotel,Juliana Hotel,"Gamsungi, Kec. Tobelo, Kabupaten Halmahera Utara, Maluku Utara","Kabupaten Halmahera Utara, Maluku Utara",MALUKU UTARA,,Indonesia,82191159141.0,1.7272579,128.0105717,https://maps.google.com/?cid=0x0:0x97231ba37bd2cf65
hotel,hotel,Saloi inn,"3FXQ+VR2, Tedeng, Kec. Jailolo, Kabupaten Halmahera Barat, Maluku Utara","Kabupaten Halmahera Barat, Maluku Utara",MALUKU UTARA,,Indonesia,8111020812.0,1.0996348,127.4895301,https://maps.google.com/?cid=0x0:0x1139fc5cb3804c4
hotel,hotel,Juliana Hotel,"Gamsungi, Kec. Tobelo, Kabupaten Halmahera Utara, Maluku Utara","Kabupaten Halmahera Utara, Maluku Utara",MALUKU UTARA,,Indonesia,82191159141.0,1.7272579,128.0105717,https://maps.google.com/?cid=0x0:0x97231ba37bd2cf65
hotel,hotel,Kec. Galela Sel.,"Kabupaten Halmahera Utara, Maluku Utara","Kabupaten Halmahera Utara, Maluku Utara",MALUKU UTARA,,Indonesia,,1.8095298,127.8098621,https://maps.google.com/?cid=0x0:0xd54700cacb22b110
hotel,hotel,D'Lodge Village Tobelo,"PXFM+G47, Jl Dukono, Gamsungi, Kec. Tobelo, Kabupaten Halmahera Utara, Maluku Utara","Kabupaten Halmahera Utara, Maluku Utara",MALUKU UTARA,,Indonesia,82187899793.0,1.7237953,127.9828016,https://maps.google.com/?cid=0x0:0x97255e7444041343
hotel,hotel,Bianda Hotel,"P2G6+VGM, Jl. Kemakmuran, Gamsungi, Kec. Tobelo, Kabupaten Halmahera Utara, Maluku Utara","Kabupaten Halmahera Utara, Maluku Utara",MALUKU UTARA,,Indonesia,,1.7272204,128.011288,https://maps.google.com/?cid=0x0:0x94545d064d6051e5
hotel,hotel,Kec. Galela Utara,"Kabupaten Halmahera Utara, Maluku Utara","Kabupaten Halmahera Utara, Maluku Utara",MALUKU UTARA,,Indonesia,,2.0151873,127.9497063,https://maps.google.com/?cid=0x0:0x6378f017549179ee
hotel,hotel,Marahai Park Hotel,"Jl. Kemakmuran, Wosia, Kec. Tobelo, Kabupaten Halmahera Utara, Maluku Utara 97762","Wosia, Kec. Tobelo, Kabupaten Halmahera Utara",MALUKU UTARA,97762.0,Indonesia,9242321470.0,1.7123424,128.0113095,https://maps.google.com/?cid=0x0:0x1773edc1a70bea03
hotel,hotel,Hotel Elizabeth,"Jl. Kemakmuran, Gura, Kec. Tobelo, Kabupaten Halmahera Utara, Maluku Utara 97762","Gura, Kec. Tobelo, Kabupaten Halmahera Utara",MALUKU UTARA,97762.0,Indonesia,,1.7308941,128.0102163,https://maps.google.com/?cid=0x0:0x64ae6c4240cbb4c7
hotel,hotel,Metita Beach  Dive Resort,"Metita Island, Juanga, Kec. Morotai Sel., Kabupaten Pulau Morotai, Maluku Utara 97771","Juanga, Kec. Morotai Sel., Kabupaten Pulau Morotai",MALUKU UTARA,97771.0,Indonesia,81356992592.0,1.965651,128.2284728,https://maps.google.com/?cid=0x0:0x907cd95cf15d7d7
hotel,hotel,Juliana Hotel,"Gamsungi, Kec. Tobelo, Kabupaten Halmahera Utara, Maluku Utara","Kabupaten Halmahera Utara, Maluku Utara",MALUKU UTARA,,Indonesia,82191159141.0,1.7272579,128.0105717,https://maps.google.com/?cid=0x0:0x97231ba37bd2cf65
hotel,hotel,D'Lodge Village Tobelo,"PXFM+G47, Jl Dukono, Gamsungi, Kec. Tobelo, Kabupaten Halmahera Utara, Maluku Utara","Kabupaten Halmahera Utara, Maluku Utara",MALUKU UTARA,,Indonesia,82187899793.0,1.7237953,127.9828016,https://maps.google.com/?cid=0x0:0x97255e7444041343
hotel,hotel,Johana Hotel,"P2F6+F4F, Gosoma, Kec. Tobelo, Kabupaten Halmahera Utara, Maluku Utara","Kabupaten Halmahera Utara, Maluku Utara",MALUKU UTARA,,Indonesia,9242623343.0,1.7236844,128.0102915,https://maps.google.com/?cid=0x0:0x1b997a52170a6c31
hotel,hotel,Hotel Astonia Tobelo,"Gosoma, Kec. Tobelo, Kabupaten Halmahera Utara, Maluku Utara","Kabupaten Halmahera Utara, Maluku Utara",MALUKU UTARA,,Indonesia,9242621900.0,1.7223761,127.9947995,https://maps.google.com/?cid=0x0:0x99ff7dd9ff5c49af
hotel,hotel,Hotel Kusu-Kusu,"M2W5+HC7, Lina Ino, Kec. Tobelo Tengah, Kabupaten Halmahera Utara, Maluku Utara","Kabupaten Halmahera Utara, Maluku Utara",MALUKU UTARA,,Indonesia,,1.6964035,128.0085551,https://maps.google.com/?cid=0x0:0xde51ba868745d615
hotel,hotel,Saloi inn,"3FXQ+VR2, Tedeng, Kec. Jailolo, Kabupaten Halmahera Barat, Maluku Utara","Kabupaten Halmahera Barat, Maluku Utara",MALUKU UTARA,,Indonesia,8111020812.0,1.0996348,127.4895301,https://maps.google.com/?cid=0x0:0x1139fc5cb3804c4
hotel,hotel,Hotel President,"P2H6+3F9, Jl. Kemakmuran, RT.02/RW.03, Gamsungi, Kec. Tobelo, Kabupaten Halmahera Utara, Maluku Utara 97762","Jl. Kemakmuran, RT.02/RW.03, Gamsungi, Kec. Tobelo, Kabupaten Halmahera Utara",MALUKU UTARA,97762.0,Indonesia,9242621353.0,1.7276524,128.0112339,https://maps.google.com/?cid=0x0:0x48545677de481d5
hotel,hotel,Wisma Anggrek Tobelo,"Gamsungi, Kec. Tobelo, Kabupaten Halmahera Utara, Maluku Utara","Kabupaten Halmahera Utara, Maluku Utara",MALUKU UTARA,,Indonesia,2180629666.0,1.7253125,128.0086875,https://maps.google.com/?cid=0x0:0x7f0bee62851b33a6
hotel,hotel,Wisma Mulia,"P286+P48, Rawajaya, Kec. Tobelo, Kabupaten Halmahera Utara, Maluku Utara","Kabupaten Halmahera Utara, Maluku Utara",MALUKU UTARA,,Indonesia,,1.7167897,128.0103356,https://maps.google.com/?cid=0x0:0x611811aff0d3d758
hotel,hotel,Bianda Hotel,"P2G6+VGM, Jl. Kemakmuran, Gamsungi, Kec. Tobelo, Kabupaten Halmahera Utara, Maluku Utara","Kabupaten Halmahera Utara, Maluku Utara",MALUKU UTARA,,Indonesia,,1.7272204,128.011288,https://maps.google.com/?cid=0x0:0x94545d064d6051e5
hotel,hotel,Rumah Pantai Patang,"Jl. Trans, Patang, Kec. Kao, Kabupaten Halmahera Utara, Maluku Utara 97764","Patang, Kec. Kao, Kabupaten Halmahera Utara",MALUKU UTARA,97764.0,Indonesia,82115529248.0,1.2316621,127.9218175,https://maps.google.com/?cid=0x0:0x4724a182f266d38a
hotel,hotel,Kec. Kao,"Kabupaten Halmahera Utara, Maluku Utara","Kabupaten Halmahera Utara, Maluku Utara",MALUKU UTARA,,Indonesia,,1.1658407,127.9007494,https://maps.google.com/?cid=0x0:0xf94b0d160a93d5c4
hotel,hotel,Juliana Hotel,"Gamsungi, Kec. Tobelo, Kabupaten Halmahera Utara, Maluku Utara","Kabupaten Halmahera Utara, Maluku Utara",MALUKU UTARA,,Indonesia,82191159141.0,1.7272579,128.0105717,https://maps.google.com/?cid=0x0:0x97231ba37bd2cf65
hotel,hotel,Hotel Astonia Tobelo,"Gosoma, Kec. Tobelo, Kabupaten Halmahera Utara, Maluku Utara","Kabupaten Halmahera Utara, Maluku Utara",MALUKU UTARA,,Indonesia,9242621900.0,1.7223761,127.9947995,https://maps.google.com/?cid=0x0:0x99ff7dd9ff5c49af
hotel,hotel,Hotel Karunia 2 Jailolo,"Jl. Baru, Kec. Jailolo, Kabupaten Halmahera Barat, Maluku Utara 91131","Kec. Jailolo, Kabupaten Halmahera Barat",MALUKU UTARA,91131.0,Indonesia,895417300072.0,1.0683437,127.4672959,https://maps.google.com/?cid=0x0:0xb93aadacd6fe4456
hotel,hotel,d'Hoek Hotel,"3FMF+284, Jl. Soekaro, Hatebicara, Kec. Jailolo, Kabupaten Halmahera Barat, Maluku Utara","Kabupaten Halmahera Barat, Maluku Utara",MALUKU UTARA,,Indonesia,82192706600.0,1.082507,127.4733425,https://maps.google.com/?cid=0x0:0xe6247a11e448d6c5
hotel,hotel,Hotel Kusu-Kusu,"M2W5+HC7, Lina Ino, Kec. Tobelo Tengah, Kabupaten Halmahera Utara, Maluku Utara","Kabupaten Halmahera Utara, Maluku Utara",MALUKU UTARA,,Indonesia,,1.6964035,128.0085551,https://maps.google.com/?cid=0x0:0xde51ba868745d615
hotel,hotel,Hotel President,"P2H6+3F9, Jl. Kemakmuran, RT.02/RW.03, Gamsungi, Kec. Tobelo, Kabupaten Halmahera Utara, Maluku Utara 97762","Jl. Kemakmuran, RT.02/RW.03, Gamsungi, Kec. Tobelo, Kabupaten Halmahera Utara",MALUKU UTARA,97762.0,Indonesia,9242621353.0,1.7276524,128.0112339,https://maps.google.com/?cid=0x0:0x48545677de481d5
hotel,hotel,favehotel Margonda - Depok,"Jl. Margonda, Kemiri Muka, Kecamatan Beji, Kota Depok, Jawa Barat 16423","Kemiri Muka, Kecamatan Beji, Kota Depok",MALUKU UTARA,16423.0,Indonesia,2129301400.0,-6.3880242,106.827413,https://maps.google.com/?cid=0x0:0xe9cb66f39204f122
hotel,hotel,,,,MALUKU UTARA,,Indonesia,,,,https://maps.google.com/?cid=0x0:0xe9cb66f39204f122%7C/g/11c5r4yr0b%7Cid-ID
hotel,hotel,Green Sentul Indah,"Jl. Raya Golf Palm Hills, Tangkil, Kec. Citeureup, Kabupaten Bogor, Jawa Barat 16810","Tangkil, Kec. Citeureup, Kabupaten Bogor",MALUKU UTARA,16810.0,Indonesia,818133310.0,-6.5366334,106.8633528,https://maps.google.com/?cid=0x0:0x35d221d5be30c2c4
hotel,hotel,,,,MALUKU UTARA,,Indonesia,,,,https://maps.google.com/?cid=0x0:0x35d221d5be30c2c4%7C/g/1td5cjr0%7Cid-ID
hotel,hotel,Hotel Fiducia,"Jl. KH. Guru Amin No.RT.14 KM 18 No. 10, RT.14/RW.5, Pejaten Timur, Ps. Minggu, Kota Jakarta Selatan, Daerah Khusus Ibukota Jakarta 12510","RT.14/RW.5, Pejaten Timur, Ps. Minggu, Kota Jakarta Selatan",MALUKU UTARA,12510.0,Indonesia,2129707601.0,-6.269122,106.846429,https://maps.google.com/?cid=0x0:0x5dae993032a1ba03
hotel,hotel,Rumah Pantai Patang,"Jl. Trans, Patang, Kec. Kao, Kabupaten Halmahera Utara, Maluku Utara 97764","Patang, Kec. Kao, Kabupaten Halmahera Utara",MALUKU UTARA,97764.0,Indonesia,82115529248.0,1.2316621,127.9218175,https://maps.google.com/?cid=0x0:0x4724a182f266d38a
hotel,hotel,Bianda Hotel,"P2G6+VGM, Jl. Kemakmuran, Gamsungi, Kec. Tobelo, Kabupaten Halmahera Utara, Maluku Utara","Kabupaten Halmahera Utara, Maluku Utara",MALUKU UTARA,,Indonesia,,1.7272204,128.011288,https://maps.google.com/?cid=0x0:0x94545d064d6051e5
hotel,hotel,Kec. Kao Bar.,"Kabupaten Halmahera Utara, Maluku Utara","Kabupaten Halmahera Utara, Maluku Utara",MALUKU UTARA,,Indonesia,,1.3826535,127.7854236,https://maps.google.com/?cid=0x0:0xf7afe1ef0f20eafa
hotel,hotel,Saloi inn,"3FXQ+VR2, Tedeng, Kec. Jailolo, Kabupaten Halmahera Barat, Maluku Utara","Kabupaten Halmahera Barat, Maluku Utara",MALUKU UTARA,,Indonesia,8111020812.0,1.0996348,127.4895301,https://maps.google.com/?cid=0x0:0x1139fc5cb3804c4
hotel,hotel,d'Hoek Hotel,"3FMF+284, Jl. Soekaro, Hatebicara, Kec. Jailolo, Kabupaten Halmahera Barat, Maluku Utara","Kabupaten Halmahera Barat, Maluku Utara",MALUKU UTARA,,Indonesia,82192706600.0,1.082507,127.4733425,https://maps.google.com/?cid=0x0:0xe6247a11e448d6c5
hotel,hotel,Meti Cottage,"H394+338, Pulau, Meti, Kec. Tobelo Tim., Kabupaten Halmahera Utara, Maluku Utara 97762","Pulau, Meti, Kec. Tobelo Tim., Kabupaten Halmahera Utara",MALUKU UTARA,97762.0,Indonesia,81376508128.0,1.567672,128.055211,https://maps.google.com/?cid=0x0:0x90cdc64d1b9faf2c
hotel,hotel,Hotel Astonia Tobelo,"Gosoma, Kec. Tobelo, Kabupaten Halmahera Utara, Maluku Utara","Kabupaten Halmahera Utara, Maluku Utara",MALUKU UTARA,,Indonesia,9242621900.0,1.7223761,127.9947995,https://maps.google.com/?cid=0x0:0x99ff7dd9ff5c49af
hotel,hotel,D'Lodge Village Tobelo,"PXFM+G47, Jl Dukono, Gamsungi, Kec. Tobelo, Kabupaten Halmahera Utara, Maluku Utara","Kabupaten Halmahera Utara, Maluku Utara",MALUKU UTARA,,Indonesia,82187899793.0,1.7237953,127.9828016,https://maps.google.com/?cid=0x0:0x97255e7444041343
hotel,hotel,Hotel Karunia 2 Jailolo,"Jl. Baru, Kec. Jailolo, Kabupaten Halmahera Barat, Maluku Utara 91131","Kec. Jailolo, Kabupaten Halmahera Barat",MALUKU UTARA,91131.0,Indonesia,895417300072.0,1.0683437,127.4672959,https://maps.google.com/?cid=0x0:0xb93aadacd6fe4456
hotel,hotel,Johana Hotel,"P2F6+F4F, Gosoma, Kec. Tobelo, Kabupaten Halmahera Utara, Maluku Utara","Kabupaten Halmahera Utara, Maluku Utara",MALUKU UTARA,,Indonesia,9242623343.0,1.7236844,128.0102915,https://maps.google.com/?cid=0x0:0x1b997a52170a6c31
hotel,hotel,Juliana Hotel,"Gamsungi, Kec. Tobelo, Kabupaten Halmahera Utara, Maluku Utara","Kabupaten Halmahera Utara, Maluku Utara",MALUKU UTARA,,Indonesia,82191159141.0,1.7272579,128.0105717,https://maps.google.com/?cid=0x0:0x97231ba37bd2cf65
hotel,hotel,Hotel President,"P2H6+3F9, Jl. Kemakmuran, RT.02/RW.03, Gamsungi, Kec. Tobelo, Kabupaten Halmahera Utara, Maluku Utara 97762","Jl. Kemakmuran, RT.02/RW.03, Gamsungi, Kec. Tobelo, Kabupaten Halmahera Utara",MALUKU UTARA,97762.0,Indonesia,9242621353.0,1.7276524,128.0112339,https://maps.google.com/?cid=0x0:0x48545677de481d5
hotel,hotel,Kec. Kao Utara,"Kabupaten Halmahera Utara, Maluku Utara","Kabupaten Halmahera Utara, Maluku Utara",MALUKU UTARA,,Indonesia,,1.3982481,128.0027515,https://maps.google.com/?cid=0x0:0x5d873bc773b3c48e
hotel,hotel,Rumah Pantai Patang,"Jl. Trans, Patang, Kec. Kao, Kabupaten Halmahera Utara, Maluku Utara 97764","Patang, Kec. Kao, Kabupaten Halmahera Utara",MALUKU UTARA,97764.0,Indonesia,82115529248.0,1.2316621,127.9218175,https://maps.google.com/?cid=0x0:0x4724a182f266d38a
hotel,hotel,Bianda Hotel,"P2G6+VGM, Jl. Kemakmuran, Gamsungi, Kec. Tobelo, Kabupaten Halmahera Utara, Maluku Utara","Kabupaten Halmahera Utara, Maluku Utara",MALUKU UTARA,,Indonesia,,1.7272204,128.011288,https://maps.google.com/?cid=0x0:0x94545d064d6051e5
hotel,hotel,Juliana Hotel,"Gamsungi, Kec. Tobelo, Kabupaten Halmahera Utara, Maluku Utara","Kabupaten Halmahera Utara, Maluku Utara",MALUKU UTARA,,Indonesia,82191159141.0,1.7272579,128.0105717,https://maps.google.com/?cid=0x0:0x97231ba37bd2cf65
hotel,hotel,Hotel Astonia Tobelo,"Gosoma, Kec. Tobelo, Kabupaten Halmahera Utara, Maluku Utara","Kabupaten Halmahera Utara, Maluku Utara",MALUKU UTARA,,Indonesia,9242621900.0,1.7223761,127.9947995,https://maps.google.com/?cid=0x0:0x99ff7dd9ff5c49af
hotel,hotel,Hotel President,"P2H6+3F9, Jl. Kemakmuran, RT.02/RW.03, Gamsungi, Kec. Tobelo, Kabupaten Halmahera Utara, Maluku Utara 97762","Jl. Kemakmuran, RT.02/RW.03, Gamsungi, Kec. Tobelo, Kabupaten Halmahera Utara",MALUKU UTARA,97762.0,Indonesia,9242621353.0,1.7276524,128.0112339,https://maps.google.com/?cid=0x0:0x48545677de481d5
hotel,hotel,Marahai Park Hotel,"Jl. Kemakmuran, Wosia, Kec. Tobelo, Kabupaten Halmahera Utara, Maluku Utara 97762","Wosia, Kec. Tobelo, Kabupaten Halmahera Utara",MALUKU UTARA,97762.0,Indonesia,9242321470.0,1.7123424,128.0113095,https://maps.google.com/?cid=0x0:0x1773edc1a70bea03
hotel,hotel,D'Lodge Village Tobelo,"PXFM+G47, Jl Dukono, Gamsungi, Kec. Tobelo, Kabupaten Halmahera Utara, Maluku Utara","Kabupaten Halmahera Utara, Maluku Utara",MALUKU UTARA,,Indonesia,82187899793.0,1.7237953,127.9828016,https://maps.google.com/?cid=0x0:0x97255e7444041343
hotel,hotel,Hotel Elizabeth,"Jl. Kemakmuran, Gura, Kec. Tobelo, Kabupaten Halmahera Utara, Maluku Utara 97762","Gura, Kec. Tobelo, Kabupaten Halmahera Utara",MALUKU UTARA,97762.0,Indonesia,,1.7308941,128.0102163,https://maps.google.com/?cid=0x0:0x64ae6c4240cbb4c7
hotel,hotel,Saloi inn,"3FXQ+VR2, Tedeng, Kec. Jailolo, Kabupaten Halmahera Barat, Maluku Utara","Kabupaten Halmahera Barat, Maluku Utara",MALUKU UTARA,,Indonesia,8111020812.0,1.0996348,127.4895301,https://maps.google.com/?cid=0x0:0x1139fc5cb3804c4
hotel,hotel,Hotel Kusu-Kusu,"M2W5+HC7, Lina Ino, Kec. Tobelo Tengah, Kabupaten Halmahera Utara, Maluku Utara","Kabupaten Halmahera Utara, Maluku Utara",MALUKU UTARA,,Indonesia,,1.6964035,128.0085551,https://maps.google.com/?cid=0x0:0xde51ba868745d615
hotel,hotel,d'Hoek Hotel,"3FMF+284, Jl. Soekaro, Hatebicara, Kec. Jailolo, Kabupaten Halmahera Barat, Maluku Utara","Kabupaten Halmahera Barat, Maluku Utara",MALUKU UTARA,,Indonesia,82192706600.0,1.082507,127.4733425,https://maps.google.com/?cid=0x0:0xe6247a11e448d6c5
hotel,hotel,Johana Hotel,"P2F6+F4F, Gosoma, Kec. Tobelo, Kabupaten Halmahera Utara, Maluku Utara","Kabupaten Halmahera Utara, Maluku Utara",MALUKU UTARA,,Indonesia,9242623343.0,1.7236844,128.0102915,https://maps.google.com/?cid=0x0:0x1b997a52170a6c31
hotel,hotel,Penginapan h-khan,"Muhajirin, Kec. Ternate Tengah, Kota Ternate, Maluku Utara 97713","Kec. Ternate Tengah, Kota Ternate",MALUKU UTARA,97713.0,Indonesia,82297790343.0,0.7828808,127.3872603,https://maps.google.com/?cid=0x0:0xf6b3380adf530c04
hotel,hotel,Kec. Kao Tlk.,"Kabupaten Halmahera Utara, Maluku Utara","Kabupaten Halmahera Utara, Maluku Utara",MALUKU UTARA,,Indonesia,,1.0572865,127.697129,https://maps.google.com/?cid=0x0:0xb7e89a460242f82
hotel,hotel,Rumah Pantai Patang,"Jl. Trans, Patang, Kec. Kao, Kabupaten Halmahera Utara, Maluku Utara 97764","Patang, Kec. Kao, Kabupaten Halmahera Utara",MALUKU UTARA,97764.0,Indonesia,82115529248.0,1.2316621,127.9218175,https://maps.google.com/?cid=0x0:0x4724a182f266d38a
hotel,hotel,d'Hoek Hotel,"3FMF+284, Jl. Soekaro, Hatebicara, Kec. Jailolo, Kabupaten Halmahera Barat, Maluku Utara","Kabupaten Halmahera Barat, Maluku Utara",MALUKU UTARA,,Indonesia,82192706600.0,1.082507,127.4733425,https://maps.google.com/?cid=0x0:0xe6247a11e448d6c5
hotel,hotel,Sabua Gaba,"Jl, Guaemaadu, Kec. Jailolo, Kabupaten Halmahera Barat, Maluku Utara 97752","Guaemaadu, Kec. Jailolo, Kabupaten Halmahera Barat",MALUKU UTARA,97752.0,Indonesia,81244409444.0,1.0567495,127.4613981,https://maps.google.com/?cid=0x0:0xa54e049ccacb61b7
hotel,hotel,Hotel Karunia 2 Jailolo,"Jl. Baru, Kec. Jailolo, Kabupaten Halmahera Barat, Maluku Utara 91131","Kec. Jailolo, Kabupaten Halmahera Barat",MALUKU UTARA,91131.0,Indonesia,895417300072.0,1.0683437,127.4672959,https://maps.google.com/?cid=0x0:0xb93aadacd6fe4456
hotel,hotel,Penginapan Visal Tidore  Meeting Room,"JL. Sultan Zainal Abidin Syah, Gamtufkange, Tidore, Kota Tidore Kepulauan, Maluku Utara 97812","Gamtufkange, Tidore, Kota Tidore Kepulauan",MALUKU UTARA,97812.0,Indonesia,81380000155.0,0.6573605,127.4485832,https://maps.google.com/?cid=0x0:0xcd95aa95f3406d6a
hotel,hotel,Hotel Astonia Tobelo,"Gosoma, Kec. Tobelo, Kabupaten Halmahera Utara, Maluku Utara","Kabupaten Halmahera Utara, Maluku Utara",MALUKU UTARA,,Indonesia,9242621900.0,1.7223761,127.9947995,https://maps.google.com/?cid=0x0:0x99ff7dd9ff5c49af
hotel,hotel,Kec. Kao Tlk.,"Kabupaten Halmahera Utara, Maluku Utara","Kabupaten Halmahera Utara, Maluku Utara",MALUKU UTARA,,Indonesia,,1.0572865,127.697129,https://maps.google.com/?cid=0x0:0xb7e89a460242f82
hotel,hotel,Sabua Gaba,"Jl, Guaemaadu, Kec. Jailolo, Kabupaten Halmahera Barat, Maluku Utara 97752","Guaemaadu, Kec. Jailolo, Kabupaten Halmahera Barat",MALUKU UTARA,97752.0,Indonesia,81244409444.0,1.0567495,127.4613981,https://maps.google.com/?cid=0x0:0xa54e049ccacb61b7
hotel,hotel,Rumah Pantai Patang,"Jl. Trans, Patang, Kec. Kao, Kabupaten Halmahera Utara, Maluku Utara 97764","Patang, Kec. Kao, Kabupaten Halmahera Utara",MALUKU UTARA,97764.0,Indonesia,82115529248.0,1.2316621,127.9218175,https://maps.google.com/?cid=0x0:0x4724a182f266d38a
hotel,hotel,Hotel Karunia 2 Jailolo,"Jl. Baru, Kec. Jailolo, Kabupaten Halmahera Barat, Maluku Utara 91131","Kec. Jailolo, Kabupaten Halmahera Barat",MALUKU UTARA,91131.0,Indonesia,895417300072.0,1.0683437,127.4672959,https://maps.google.com/?cid=0x0:0xb93aadacd6fe4456
hotel,hotel,d'Hoek Hotel,"3FMF+284, Jl. Soekaro, Hatebicara, Kec. Jailolo, Kabupaten Halmahera Barat, Maluku Utara","Kabupaten Halmahera Barat, Maluku Utara",MALUKU UTARA,,Indonesia,82192706600.0,1.082507,127.4733425,https://maps.google.com/?cid=0x0:0xe6247a11e448d6c5
hotel,hotel,Hotel Astonia Tobelo,"Gosoma, Kec. Tobelo, Kabupaten Halmahera Utara, Maluku Utara","Kabupaten Halmahera Utara, Maluku Utara",MALUKU UTARA,,Indonesia,9242621900.0,1.7223761,127.9947995,https://maps.google.com/?cid=0x0:0x99ff7dd9ff5c49af
hotel,hotel,Penginapan Visal Tidore  Meeting Room,"JL. Sultan Zainal Abidin Syah, Gamtufkange, Tidore, Kota Tidore Kepulauan, Maluku Utara 97812","Gamtufkange, Tidore, Kota Tidore Kepulauan",MALUKU UTARA,97812.0,Indonesia,81380000155.0,0.6573605,127.4485832,https://maps.google.com/?cid=0x0:0xcd95aa95f3406d6a
hotel,hotel,Loloda Kepulauan,"Kabupaten Halmahera Utara, Maluku Utara","Kabupaten Halmahera Utara, Maluku Utara",MALUKU UTARA,,Indonesia,,2.2509061,127.7981498,https://maps.google.com/?cid=0x0:0x7f27e9dea84ef656
hotel,hotel,D'Lodge Village Tobelo,"PXFM+G47, Jl Dukono, Gamsungi, Kec. Tobelo, Kabupaten Halmahera Utara, Maluku Utara","Kabupaten Halmahera Utara, Maluku Utara",MALUKU UTARA,,Indonesia,82187899793.0,1.7237953,127.9828016,https://maps.google.com/?cid=0x0:0x97255e7444041343
hotel,hotel,Hotel Kusu-Kusu,"M2W5+HC7, Lina Ino, Kec. Tobelo Tengah, Kabupaten Halmahera Utara, Maluku Utara","Kabupaten Halmahera Utara, Maluku Utara",MALUKU UTARA,,Indonesia,,1.6964035,128.0085551,https://maps.google.com/?cid=0x0:0xde51ba868745d615
hotel,hotel,Pakarangan Glamping Resort,"Pabangbon, Kec. Leuwiliang, Kabupaten Bogor, Jawa Barat","Kabupaten Bogor, Jawa Barat",MALUKU UTARA,,Indonesia,,-6.6277116,106.5808283,https://maps.google.com/?cid=0x0:0xbf7356d07ce32db
hotel,hotel,Saloi inn,"3FXQ+VR2, Tedeng, Kec. Jailolo, Kabupaten Halmahera Barat, Maluku Utara","Kabupaten Halmahera Barat, Maluku Utara",MALUKU UTARA,,Indonesia,8111020812.0,1.0996348,127.4895301,https://maps.google.com/?cid=0x0:0x1139fc5cb3804c4
hotel,Tujuan Wisata,Wisata Panorama Pabangbon,"9HJV+GG4, Jl. Raya Leuwiliang - Bogor, Leuweung Kolot, Kec. Cibungbulang, Kabupaten Bogor, Jawa Barat 16630","Jl. Raya Leuwiliang - Bogor, Leuweung Kolot, Kec. Cibungbulang, Kabupaten Bogor",MALUKU UTARA,16630.0,Indonesia,,-6.6187472,106.593819,https://maps.google.com/?cid=0x0:0x5175ce57fb110064
hotel,Bandara Internasional,Bandar Udara Internasional SoekarnoâHatta,"Kec. Benda, Kota Tangerang, Banten","Kota Tangerang, Banten",MALUKU UTARA,,Indonesia,2155912648.0,-6.126551,106.6550558,https://maps.google.com/?cid=0x0:0x61dee98159fa3fe5
hotel,hotel,Kec. Loloda Utara,"Kabupaten Halmahera Utara, Maluku Utara","Kabupaten Halmahera Utara, Maluku Utara",MALUKU UTARA,,Indonesia,,2.0927761,127.8484263,https://maps.google.com/?cid=0x0:0xb975e42fee13365a
hotel,hotel,Bianda Hotel,"P2G6+VGM, Jl. Kemakmuran, Gamsungi, Kec. Tobelo, Kabupaten Halmahera Utara, Maluku Utara","Kabupaten Halmahera Utara, Maluku Utara",MALUKU UTARA,,Indonesia,,1.7272204,128.011288,https://maps.google.com/?cid=0x0:0x94545d064d6051e5
hotel,hotel,Hotel Elizabeth,"Jl. Kemakmuran, Gura, Kec. Tobelo, Kabupaten Halmahera Utara, Maluku Utara 97762","Gura, Kec. Tobelo, Kabupaten Halmahera Utara",MALUKU UTARA,97762.0,Indonesia,,1.7308941,128.0102163,https://maps.google.com/?cid=0x0:0x64ae6c4240cbb4c7
hotel,hotel,Juliana Hotel,"Gamsungi, Kec. Tobelo, Kabupaten Halmahera Utara, Maluku Utara","Kabupaten Halmahera Utara, Maluku Utara",MALUKU UTARA,,Indonesia,82191159141.0,1.7272579,128.0105717,https://maps.google.com/?cid=0x0:0x97231ba37bd2cf65
hotel,hotel,Johana Hotel,"P2F6+F4F, Gosoma, Kec. Tobelo, Kabupaten Halmahera Utara, Maluku Utara","Kabupaten Halmahera Utara, Maluku Utara",MALUKU UTARA,,Indonesia,9242623343.0,1.7236844,128.0102915,https://maps.google.com/?cid=0x0:0x1b997a52170a6c31
hotel,hotel,D'Lodge Village Tobelo,"PXFM+G47, Jl Dukono, Gamsungi, Kec. Tobelo, Kabupaten Halmahera Utara, Maluku Utara","Kabupaten Halmahera Utara, Maluku Utara",MALUKU UTARA,,Indonesia,82187899793.0,1.7237953,127.9828016,https://maps.google.com/?cid=0x0:0x97255e7444041343
hotel,hotel,Hotel Astonia Tobelo,"Gosoma, Kec. Tobelo, Kabupaten Halmahera Utara, Maluku Utara","Kabupaten Halmahera Utara, Maluku Utara",MALUKU UTARA,,Indonesia,9242621900.0,1.7223761,127.9947995,https://maps.google.com/?cid=0x0:0x99ff7dd9ff5c49af
hotel,hotel,Hotel President,"P2H6+3F9, Jl. Kemakmuran, RT.02/RW.03, Gamsungi, Kec. Tobelo, Kabupaten Halmahera Utara, Maluku Utara 97762","Jl. Kemakmuran, RT.02/RW.03, Gamsungi, Kec. Tobelo, Kabupaten Halmahera Utara",MALUKU UTARA,97762.0,Indonesia,9242621353.0,1.7276524,128.0112339,https://maps.google.com/?cid=0x0:0x48545677de481d5
hotel,hotel,Wisma Anggrek Tobelo,"Gamsungi, Kec. Tobelo, Kabupaten Halmahera Utara, Maluku Utara","Kabupaten Halmahera Utara, Maluku Utara",MALUKU UTARA,,Indonesia,2180629666.0,1.7253125,128.0086875,https://maps.google.com/?cid=0x0:0x7f0bee62851b33a6
hotel,hotel,Hotel Kusu-Kusu,"M2W5+HC7, Lina Ino, Kec. Tobelo Tengah, Kabupaten Halmahera Utara, Maluku Utara","Kabupaten Halmahera Utara, Maluku Utara",MALUKU UTARA,,Indonesia,,1.6964035,128.0085551,https://maps.google.com/?cid=0x0:0xde51ba868745d615
hotel,hotel,d'Hoek Hotel,"3FMF+284, Jl. Soekaro, Hatebicara, Kec. Jailolo, Kabupaten Halmahera Barat, Maluku Utara","Kabupaten Halmahera Barat, Maluku Utara",MALUKU UTARA,,Indonesia,82192706600.0,1.082507,127.4733425,https://maps.google.com/?cid=0x0:0xe6247a11e448d6c5
hotel,hotel,Kec. Malifut,"Kabupaten Halmahera Utara, Maluku Utara","Kabupaten Halmahera Utara, Maluku Utara",MALUKU UTARA,,Indonesia,,1.0939454,127.776544,https://maps.google.com/?cid=0x0:0xd9110b77277647d2
hotel,hotel,,,,MALUKU UTARA,,Indonesia,,,,https://maps.google.com/?cid=0x0:0x67cf3fcc0f55895%7C/g/11b6d93y9z%7Cid-ID
hotel,hotel,Muara Hotel and Mall Ternate,"Jl. Merdeka No.19, Gamalama, Kec. Ternate Tengah, Kota Ternate, Maluku Utara","Kota Ternate, Maluku Utara",MALUKU UTARA,,Indonesia,9213125553.0,0.7911445,127.3861909,https://maps.google.com/?cid=0x0:0x67cf3fcc0f55895
hotel,hotel,Rumah Pantai Patang,"Jl. Trans, Patang, Kec. Kao, Kabupaten Halmahera Utara, Maluku Utara 97764","Patang, Kec. Kao, Kabupaten Halmahera Utara",MALUKU UTARA,97764.0,Indonesia,82115529248.0,1.2316621,127.9218175,https://maps.google.com/?cid=0x0:0x4724a182f266d38a
hotel,hotel,Sabua Gaba,"Jl, Guaemaadu, Kec. Jailolo, Kabupaten Halmahera Barat, Maluku Utara 97752","Guaemaadu, Kec. Jailolo, Kabupaten Halmahera Barat",MALUKU UTARA,97752.0,Indonesia,81244409444.0,1.0567495,127.4613981,https://maps.google.com/?cid=0x0:0xa54e049ccacb61b7
hotel,hotel,Saloi inn,"3FXQ+VR2, Tedeng, Kec. Jailolo, Kabupaten Halmahera Barat, Maluku Utara","Kabupaten Halmahera Barat, Maluku Utara",MALUKU UTARA,,Indonesia,8111020812.0,1.0996348,127.4895301,https://maps.google.com/?cid=0x0:0x1139fc5cb3804c4
hotel,hotel,d'Hoek Hotel,"3FMF+284, Jl. Soekaro, Hatebicara, Kec. Jailolo, Kabupaten Halmahera Barat, Maluku Utara","Kabupaten Halmahera Barat, Maluku Utara",MALUKU UTARA,,Indonesia,82192706600.0,1.082507,127.4733425,https://maps.google.com/?cid=0x0:0xe6247a11e448d6c5
hotel,hotel,Juliana Hotel,"Gamsungi, Kec. Tobelo, Kabupaten Halmahera Utara, Maluku Utara","Kabupaten Halmahera Utara, Maluku Utara",MALUKU UTARA,,Indonesia,82191159141.0,1.7272579,128.0105717,https://maps.google.com/?cid=0x0:0x97231ba37bd2cf65
hotel,hotel,Hotel Astonia Tobelo,"Gosoma, Kec. Tobelo, Kabupaten Halmahera Utara, Maluku Utara","Kabupaten Halmahera Utara, Maluku Utara",MALUKU UTARA,,Indonesia,9242621900.0,1.7223761,127.9947995,https://maps.google.com/?cid=0x0:0x99ff7dd9ff5c49af
hotel,hotel,D'Lodge Village Tobelo,"PXFM+G47, Jl Dukono, Gamsungi, Kec. Tobelo, Kabupaten Halmahera Utara, Maluku Utara","Kabupaten Halmahera Utara, Maluku Utara",MALUKU UTARA,,Indonesia,82187899793.0,1.7237953,127.9828016,https://maps.google.com/?cid=0x0:0x97255e7444041343
hotel,hotel,Hotel Karunia 2 Jailolo,"Jl. Baru, Kec. Jailolo, Kabupaten Halmahera Barat, Maluku Utara 91131","Kec. Jailolo, Kabupaten Halmahera Barat",MALUKU UTARA,91131.0,Indonesia,895417300072.0,1.0683437,127.4672959,https://maps.google.com/?cid=0x0:0xb93aadacd6fe4456
hotel,hotel,Hotel President,"P2H6+3F9, Jl. Kemakmuran, RT.02/RW.03, Gamsungi, Kec. Tobelo, Kabupaten Halmahera Utara, Maluku Utara 97762","Jl. Kemakmuran, RT.02/RW.03, Gamsungi, Kec. Tobelo, Kabupaten Halmahera Utara",MALUKU UTARA,97762.0,Indonesia,9242621353.0,1.7276524,128.0112339,https://maps.google.com/?cid=0x0:0x48545677de481d5
hotel,hotel,Hotel Elizabeth,"Jl. Kemakmuran, Gura, Kec. Tobelo, Kabupaten Halmahera Utara, Maluku Utara 97762","Gura, Kec. Tobelo, Kabupaten Halmahera Utara",MALUKU UTARA,97762.0,Indonesia,,1.7308941,128.0102163,https://maps.google.com/?cid=0x0:0x64ae6c4240cbb4c7
hotel,hotel,Johana Hotel,"P2F6+F4F, Gosoma, Kec. Tobelo, Kabupaten Halmahera Utara, Maluku Utara","Kabupaten Halmahera Utara, Maluku Utara",MALUKU UTARA,,Indonesia,9242623343.0,1.7236844,128.0102915,https://maps.google.com/?cid=0x0:0x1b997a52170a6c31
hotel,hotel,Tobelo,"Gamsungi, Kec. Tobelo, Kabupaten Halmahera Utara, Maluku Utara","Kabupaten Halmahera Utara, Maluku Utara",MALUKU UTARA,,Indonesia,,1.725721,128.001404,https://maps.google.com/?cid=0x0:0xed92b856242bad82
hotel,hotel,Marahai Park Hotel,"Jl. Kemakmuran, Wosia, Kec. Tobelo, Kabupaten Halmahera Utara, Maluku Utara 97762","Wosia, Kec. Tobelo, Kabupaten Halmahera Utara",MALUKU UTARA,97762.0,Indonesia,9242321470.0,1.7123424,128.0113095,https://maps.google.com/?cid=0x0:0x1773edc1a70bea03
hotel,hotel,Hotel Elizabeth,"Jl. Kemakmuran, Gura, Kec. Tobelo, Kabupaten Halmahera Utara, Maluku Utara 97762","Gura, Kec. Tobelo, Kabupaten Halmahera Utara",MALUKU UTARA,97762.0,Indonesia,,1.7308941,128.0102163,https://maps.google.com/?cid=0x0:0x64ae6c4240cbb4c7
hotel,hotel,Juliana Hotel,"Gamsungi, Kec. Tobelo, Kabupaten Halmahera Utara, Maluku Utara","Kabupaten Halmahera Utara, Maluku Utara",MALUKU UTARA,,Indonesia,82191159141.0,1.7272579,128.0105717,https://maps.google.com/?cid=0x0:0x97231ba37bd2cf65
hotel,hotel,Hotel Astonia Tobelo,"Gosoma, Kec. Tobelo, Kabupaten Halmahera Utara, Maluku Utara","Kabupaten Halmahera Utara, Maluku Utara",MALUKU UTARA,,Indonesia,9242621900.0,1.7223761,127.9947995,https://maps.google.com/?cid=0x0:0x99ff7dd9ff5c49af
hotel,hotel,Johana Hotel,"P2F6+F4F, Gosoma, Kec. Tobelo, Kabupaten Halmahera Utara, Maluku Utara","Kabupaten Halmahera Utara, Maluku Utara",MALUKU UTARA,,Indonesia,9242623343.0,1.7236844,128.0102915,https://maps.google.com/?cid=0x0:0x1b997a52170a6c31
hotel,hotel,D'Lodge Village Tobelo,"PXFM+G47, Jl Dukono, Gamsungi, Kec. Tobelo, Kabupaten Halmahera Utara, Maluku Utara","Kabupaten Halmahera Utara, Maluku Utara",MALUKU UTARA,,Indonesia,82187899793.0,1.7237953,127.9828016,https://maps.google.com/?cid=0x0:0x97255e7444041343
hotel,hotel,Hotel President,"P2H6+3F9, Jl. Kemakmuran, RT.02/RW.03, Gamsungi, Kec. Tobelo, Kabupaten Halmahera Utara, Maluku Utara 97762","Jl. Kemakmuran, RT.02/RW.03, Gamsungi, Kec. Tobelo, Kabupaten Halmahera Utara",MALUKU UTARA,97762.0,Indonesia,9242621353.0,1.7276524,128.0112339,https://maps.google.com/?cid=0x0:0x48545677de481d5
hotel,hotel,Hotel Kusu-Kusu,"M2W5+HC7, Lina Ino, Kec. Tobelo Tengah, Kabupaten Halmahera Utara, Maluku Utara","Kabupaten Halmahera Utara, Maluku Utara",MALUKU UTARA,,Indonesia,,1.6964035,128.0085551,https://maps.google.com/?cid=0x0:0xde51ba868745d615
hotel,hotel,Wisma Anggrek Tobelo,"Gamsungi, Kec. Tobelo, Kabupaten Halmahera Utara, Maluku Utara","Kabupaten Halmahera Utara, Maluku Utara",MALUKU UTARA,,Indonesia,2180629666.0,1.7253125,128.0086875,https://maps.google.com/?cid=0x0:0x7f0bee62851b33a6
hotel,hotel,Wisma Mulia,"P286+P48, Rawajaya, Kec. Tobelo, Kabupaten Halmahera Utara, Maluku Utara","Kabupaten Halmahera Utara, Maluku Utara",MALUKU UTARA,,Indonesia,,1.7167897,128.0103356,https://maps.google.com/?cid=0x0:0x611811aff0d3d758
hotel,hotel,Kec. Tobelo,"Kabupaten Halmahera Utara, Maluku Utara","Kabupaten Halmahera Utara, Maluku Utara",MALUKU UTARA,,Indonesia,,1.7275162,128.0111694,https://maps.google.com/?cid=0x0:0xdfa21d8d7f316a83
hotel,hotel,Meti Cottage,"H394+338, Pulau, Meti, Kec. Tobelo Tim., Kabupaten Halmahera Utara, Maluku Utara 97762","Pulau, Meti, Kec. Tobelo Tim., Kabupaten Halmahera Utara",MALUKU UTARA,97762.0,Indonesia,81376508128.0,1.567672,128.055211,https://maps.google.com/?cid=0x0:0x90cdc64d1b9faf2c
hotel,hotel,Marahai Park Hotel,"Jl. Kemakmuran, Wosia, Kec. Tobelo, Kabupaten Halmahera Utara, Maluku Utara 97762","Wosia, Kec. Tobelo, Kabupaten Halmahera Utara",MALUKU UTARA,97762.0,Indonesia,9242321470.0,1.7123424,128.0113095,https://maps.google.com/?cid=0x0:0x1773edc1a70bea03
hotel,hotel,Kec. Tobelo Bar.,"Kabupaten Halmahera Utara, Maluku Utara","Kabupaten Halmahera Utara, Maluku Utara",MALUKU UTARA,,Indonesia,,1.5410827,127.9493454,https://maps.google.com/?cid=0x0:0x253218d19bcb2a3e
hotel,hotel,Hotel Elizabeth,"Jl. Kemakmuran, Gura, Kec. Tobelo, Kabupaten Halmahera Utara, Maluku Utara 97762","Gura, Kec. Tobelo, Kabupaten Halmahera Utara",MALUKU UTARA,97762.0,Indonesia,,1.7308941,128.0102163,https://maps.google.com/?cid=0x0:0x64ae6c4240cbb4c7
hotel,hotel,Hotel Astonia Tobelo,"Gosoma, Kec. Tobelo, Kabupaten Halmahera Utara, Maluku Utara","Kabupaten Halmahera Utara, Maluku Utara",MALUKU UTARA,,Indonesia,9242621900.0,1.7223761,127.9947995,https://maps.google.com/?cid=0x0:0x99ff7dd9ff5c49af
hotel,hotel,Meti Cottage,"H394+338, Pulau, Meti, Kec. Tobelo Tim., Kabupaten Halmahera Utara, Maluku Utara 97762","Pulau, Meti, Kec. Tobelo Tim., Kabupaten Halmahera Utara",MALUKU UTARA,97762.0,Indonesia,81376508128.0,1.567672,128.055211,https://maps.google.com/?cid=0x0:0x90cdc64d1b9faf2c
hotel,hotel,D'Lodge Village Tobelo,"PXFM+G47, Jl Dukono, Gamsungi, Kec. Tobelo, Kabupaten Halmahera Utara, Maluku Utara","Kabupaten Halmahera Utara, Maluku Utara",MALUKU UTARA,,Indonesia,82187899793.0,1.7237953,127.9828016,https://maps.google.com/?cid=0x0:0x97255e7444041343
hotel,hotel,Juliana Hotel,"Gamsungi, Kec. Tobelo, Kabupaten Halmahera Utara, Maluku Utara","Kabupaten Halmahera Utara, Maluku Utara",MALUKU UTARA,,Indonesia,82191159141.0,1.7272579,128.0105717,https://maps.google.com/?cid=0x0:0x97231ba37bd2cf65
hotel,hotel,Johana Hotel,"P2F6+F4F, Gosoma, Kec. Tobelo, Kabupaten Halmahera Utara, Maluku Utara","Kabupaten Halmahera Utara, Maluku Utara",MALUKU UTARA,,Indonesia,9242623343.0,1.7236844,128.0102915,https://maps.google.com/?cid=0x0:0x1b997a52170a6c31
hotel,hotel,Hotel Kusu-Kusu,"M2W5+HC7, Lina Ino, Kec. Tobelo Tengah, Kabupaten Halmahera Utara, Maluku Utara","Kabupaten Halmahera Utara, Maluku Utara",MALUKU UTARA,,Indonesia,,1.6964035,128.0085551,https://maps.google.com/?cid=0x0:0xde51ba868745d615
hotel,hotel,Saloi inn,"3FXQ+VR2, Tedeng, Kec. Jailolo, Kabupaten Halmahera Barat, Maluku Utara","Kabupaten Halmahera Barat, Maluku Utara",MALUKU UTARA,,Indonesia,8111020812.0,1.0996348,127.4895301,https://maps.google.com/?cid=0x0:0x1139fc5cb3804c4
hotel,hotel,Hotel President,"P2H6+3F9, Jl. Kemakmuran, RT.02/RW.03, Gamsungi, Kec. Tobelo, Kabupaten Halmahera Utara, Maluku Utara 97762","Jl. Kemakmuran, RT.02/RW.03, Gamsungi, Kec. Tobelo, Kabupaten Halmahera Utara",MALUKU UTARA,97762.0,Indonesia,9242621353.0,1.7276524,128.0112339,https://maps.google.com/?cid=0x0:0x48545677de481d5
hotel,hotel,Wisma Anggrek Tobelo,"Gamsungi, Kec. Tobelo, Kabupaten Halmahera Utara, Maluku Utara","Kabupaten Halmahera Utara, Maluku Utara",MALUKU UTARA,,Indonesia,2180629666.0,1.7253125,128.0086875,https://maps.google.com/?cid=0x0:0x7f0bee62851b33a6
hotel,hotel,Hotel Karunia 2 Jailolo,"Jl. Baru, Kec. Jailolo, Kabupaten Halmahera Barat, Maluku Utara 91131","Kec. Jailolo, Kabupaten Halmahera Barat",MALUKU UTARA,91131.0,Indonesia,895417300072.0,1.0683437,127.4672959,https://maps.google.com/?cid=0x0:0xb93aadacd6fe4456
hotel,hotel,Wisma Mulia,"P286+P48, Rawajaya, Kec. Tobelo, Kabupaten Halmahera Utara, Maluku Utara","Kabupaten Halmahera Utara, Maluku Utara",MALUKU UTARA,,Indonesia,,1.7167897,128.0103356,https://maps.google.com/?cid=0x0:0x611811aff0d3d758
hotel,hotel,Kec. Tobelo Sel.,"Kabupaten Halmahera Utara, Maluku Utara","Kabupaten Halmahera Utara, Maluku Utara",MALUKU UTARA,,Indonesia,,1.6281283,127.980575,https://maps.google.com/?cid=0x0:0x1ecb6049a3d26ca1
hotel,hotel,Hotel Elizabeth,"Jl. Kemakmuran, Gura, Kec. Tobelo, Kabupaten Halmahera Utara, Maluku Utara 97762","Gura, Kec. Tobelo, Kabupaten Halmahera Utara",MALUKU UTARA,97762.0,Indonesia,,1.7308941,128.0102163,https://maps.google.com/?cid=0x0:0x64ae6c4240cbb4c7
hotel,hotel,Marahai Park Hotel,"Jl. Kemakmuran, Wosia, Kec. Tobelo, Kabupaten Halmahera Utara, Maluku Utara 97762","Wosia, Kec. Tobelo, Kabupaten Halmahera Utara",MALUKU UTARA,97762.0,Indonesia,9242321470.0,1.7123424,128.0113095,https://maps.google.com/?cid=0x0:0x1773edc1a70bea03
hotel,hotel,Juliana Hotel,"Gamsungi, Kec. Tobelo, Kabupaten Halmahera Utara, Maluku Utara","Kabupaten Halmahera Utara, Maluku Utara",MALUKU UTARA,,Indonesia,82191159141.0,1.7272579,128.0105717,https://maps.google.com/?cid=0x0:0x97231ba37bd2cf65
hotel,hotel,D'Lodge Village Tobelo,"PXFM+G47, Jl Dukono, Gamsungi, Kec. Tobelo, Kabupaten Halmahera Utara, Maluku Utara","Kabupaten Halmahera Utara, Maluku Utara",MALUKU UTARA,,Indonesia,82187899793.0,1.7237953,127.9828016,https://maps.google.com/?cid=0x0:0x97255e7444041343
hotel,hotel,Hotel Astonia Tobelo,"Gosoma, Kec. Tobelo, Kabupaten Halmahera Utara, Maluku Utara","Kabupaten Halmahera Utara, Maluku Utara",MALUKU UTARA,,Indonesia,9242621900.0,1.7223761,127.9947995,https://maps.google.com/?cid=0x0:0x99ff7dd9ff5c49af
hotel,hotel,Hotel Kusu-Kusu,"M2W5+HC7, Lina Ino, Kec. Tobelo Tengah, Kabupaten Halmahera Utara, Maluku Utara","Kabupaten Halmahera Utara, Maluku Utara",MALUKU UTARA,,Indonesia,,1.6964035,128.0085551,https://maps.google.com/?cid=0x0:0xde51ba868745d615
hotel,hotel,Meti Cottage,"H394+338, Pulau, Meti, Kec. Tobelo Tim., Kabupaten Halmahera Utara, Maluku Utara 97762","Pulau, Meti, Kec. Tobelo Tim., Kabupaten Halmahera Utara",MALUKU UTARA,97762.0,Indonesia,81376508128.0,1.567672,128.055211,https://maps.google.com/?cid=0x0:0x90cdc64d1b9faf2c
hotel,hotel,Johana Hotel,"P2F6+F4F, Gosoma, Kec. Tobelo, Kabupaten Halmahera Utara, Maluku Utara","Kabupaten Halmahera Utara, Maluku Utara",MALUKU UTARA,,Indonesia,9242623343.0,1.7236844,128.0102915,https://maps.google.com/?cid=0x0:0x1b997a52170a6c31
hotel,hotel,Hotel President,"P2H6+3F9, Jl. Kemakmuran, RT.02/RW.03, Gamsungi, Kec. Tobelo, Kabupaten Halmahera Utara, Maluku Utara 97762","Jl. Kemakmuran, RT.02/RW.03, Gamsungi, Kec. Tobelo, Kabupaten Halmahera Utara",MALUKU UTARA,97762.0,Indonesia,9242621353.0,1.7276524,128.0112339,https://maps.google.com/?cid=0x0:0x48545677de481d5
hotel,hotel,Wisma Anggrek Tobelo,"Gamsungi, Kec. Tobelo, Kabupaten Halmahera Utara, Maluku Utara","Kabupaten Halmahera Utara, Maluku Utara",MALUKU UTARA,,Indonesia,2180629666.0,1.7253125,128.0086875,https://maps.google.com/?cid=0x0:0x7f0bee62851b33a6
hotel,hotel,Wisma Mulia,"P286+P48, Rawajaya, Kec. Tobelo, Kabupaten Halmahera Utara, Maluku Utara","Kabupaten Halmahera Utara, Maluku Utara",MALUKU UTARA,,Indonesia,,1.7167897,128.0103356,https://maps.google.com/?cid=0x0:0x611811aff0d3d758
hotel,hotel,Kec. Tobelo Tim.,"Kabupaten Halmahera Utara, Maluku Utara","Kabupaten Halmahera Utara, Maluku Utara",MALUKU UTARA,,Indonesia,,1.5702306,128.0348143,https://maps.google.com/?cid=0x0:0x3b948dd04e667beb
hotel,hotel,Meti Cottage,"H394+338, Pulau, Meti, Kec. Tobelo Tim., Kabupaten Halmahera Utara, Maluku Utara 97762","Pulau, Meti, Kec. Tobelo Tim., Kabupaten Halmahera Utara",MALUKU UTARA,97762.0,Indonesia,81376508128.0,1.567672,128.055211,https://maps.google.com/?cid=0x0:0x90cdc64d1b9faf2c
hotel,hotel,Marahai Park Hotel,"Jl. Kemakmuran, Wosia, Kec. Tobelo, Kabupaten Halmahera Utara, Maluku Utara 97762","Wosia, Kec. Tobelo, Kabupaten Halmahera Utara",MALUKU UTARA,97762.0,Indonesia,9242321470.0,1.7123424,128.0113095,https://maps.google.com/?cid=0x0:0x1773edc1a70bea03
hotel,hotel,Bianda Hotel,"P2G6+VGM, Jl. Kemakmuran, Gamsungi, Kec. Tobelo, Kabupaten Halmahera Utara, Maluku Utara","Kabupaten Halmahera Utara, Maluku Utara",MALUKU UTARA,,Indonesia,,1.7272204,128.011288,https://maps.google.com/?cid=0x0:0x94545d064d6051e5
hotel,hotel,Juliana Hotel,"Gamsungi, Kec. Tobelo, Kabupaten Halmahera Utara, Maluku Utara","Kabupaten Halmahera Utara, Maluku Utara",MALUKU UTARA,,Indonesia,82191159141.0,1.7272579,128.0105717,https://maps.google.com/?cid=0x0:0x97231ba37bd2cf65
hotel,hotel,D'Lodge Village Tobelo,"PXFM+G47, Jl Dukono, Gamsungi, Kec. Tobelo, Kabupaten Halmahera Utara, Maluku Utara","Kabupaten Halmahera Utara, Maluku Utara",MALUKU UTARA,,Indonesia,82187899793.0,1.7237953,127.9828016,https://maps.google.com/?cid=0x0:0x97255e7444041343
hotel,hotel,Hotel Kusu-Kusu,"M2W5+HC7, Lina Ino, Kec. Tobelo Tengah, Kabupaten Halmahera Utara, Maluku Utara","Kabupaten Halmahera Utara, Maluku Utara",MALUKU UTARA,,Indonesia,,1.6964035,128.0085551,https://maps.google.com/?cid=0x0:0xde51ba868745d615
hotel,hotel,Hotel Astonia Tobelo,"Gosoma, Kec. Tobelo, Kabupaten Halmahera Utara, Maluku Utara","Kabupaten Halmahera Utara, Maluku Utara",MALUKU UTARA,,Indonesia,9242621900.0,1.7223761,127.9947995,https://maps.google.com/?cid=0x0:0x99ff7dd9ff5c49af
hotel,hotel,Johana Hotel,"P2F6+F4F, Gosoma, Kec. Tobelo, Kabupaten Halmahera Utara, Maluku Utara","Kabupaten Halmahera Utara, Maluku Utara",MALUKU UTARA,,Indonesia,9242623343.0,1.7236844,128.0102915,https://maps.google.com/?cid=0x0:0x1b997a52170a6c31
hotel,hotel,Hotel President,"P2H6+3F9, Jl. Kemakmuran, RT.02/RW.03, Gamsungi, Kec. Tobelo, Kabupaten Halmahera Utara, Maluku Utara 97762","Jl. Kemakmuran, RT.02/RW.03, Gamsungi, Kec. Tobelo, Kabupaten Halmahera Utara",MALUKU UTARA,97762.0,Indonesia,9242621353.0,1.7276524,128.0112339,https://maps.google.com/?cid=0x0:0x48545677de481d5
hotel,hotel,Wisma Anggrek Tobelo,"Gamsungi, Kec. Tobelo, Kabupaten Halmahera Utara, Maluku Utara","Kabupaten Halmahera Utara, Maluku Utara",MALUKU UTARA,,Indonesia,2180629666.0,1.7253125,128.0086875,https://maps.google.com/?cid=0x0:0x7f0bee62851b33a6
hotel,hotel,Wisma Mulia,"P286+P48, Rawajaya, Kec. Tobelo, Kabupaten Halmahera Utara, Maluku Utara","Kabupaten Halmahera Utara, Maluku Utara",MALUKU UTARA,,Indonesia,,1.7167897,128.0103356,https://maps.google.com/?cid=0x0:0x611811aff0d3d758
hotel,hotel,Saloi inn,"3FXQ+VR2, Tedeng, Kec. Jailolo, Kabupaten Halmahera Barat, Maluku Utara","Kabupaten Halmahera Barat, Maluku Utara",MALUKU UTARA,,Indonesia,8111020812.0,1.0996348,127.4895301,https://maps.google.com/?cid=0x0:0x1139fc5cb3804c4
hotel,hotel,d'Hoek Hotel,"3FMF+284, Jl. Soekaro, Hatebicara, Kec. Jailolo, Kabupaten Halmahera Barat, Maluku Utara","Kabupaten Halmahera Barat, Maluku Utara",MALUKU UTARA,,Indonesia,82192706600.0,1.082507,127.4733425,https://maps.google.com/?cid=0x0:0xe6247a11e448d6c5
hotel,hotel,Kec. Tobelo Tengah,"Kabupaten Halmahera Utara, Maluku Utara","Kabupaten Halmahera Utara, Maluku Utara",MALUKU UTARA,,Indonesia,,1.7074794,128.0127501,https://maps.google.com/?cid=0x0:0xef293bed1374db12
hotel,hotel,Marahai Park Hotel,"Jl. Kemakmuran, Wosia, Kec. Tobelo, Kabupaten Halmahera Utara, Maluku Utara 97762","Wosia, Kec. Tobelo, Kabupaten Halmahera Utara",MALUKU UTARA,97762.0,Indonesia,9242321470.0,1.7123424,128.0113095,https://maps.google.com/?cid=0x0:0x1773edc1a70bea03
hotel,hotel,Hotel Elizabeth,"Jl. Kemakmuran, Gura, Kec. Tobelo, Kabupaten Halmahera Utara, Maluku Utara 97762","Gura, Kec. Tobelo, Kabupaten Halmahera Utara",MALUKU UTARA,97762.0,Indonesia,,1.7308941,128.0102163,https://maps.google.com/?cid=0x0:0x64ae6c4240cbb4c7
hotel,hotel,Juliana Hotel,"Gamsungi, Kec. Tobelo, Kabupaten Halmahera Utara, Maluku Utara","Kabupaten Halmahera Utara, Maluku Utara",MALUKU UTARA,,Indonesia,82191159141.0,1.7272579,128.0105717,https://maps.google.com/?cid=0x0:0x97231ba37bd2cf65
hotel,hotel,Johana Hotel,"P2F6+F4F, Gosoma, Kec. Tobelo, Kabupaten Halmahera Utara, Maluku Utara","Kabupaten Halmahera Utara, Maluku Utara",MALUKU UTARA,,Indonesia,9242623343.0,1.7236844,128.0102915,https://maps.google.com/?cid=0x0:0x1b997a52170a6c31
hotel,hotel,D'Lodge Village Tobelo,"PXFM+G47, Jl Dukono, Gamsungi, Kec. Tobelo, Kabupaten Halmahera Utara, Maluku Utara","Kabupaten Halmahera Utara, Maluku Utara",MALUKU UTARA,,Indonesia,82187899793.0,1.7237953,127.9828016,https://maps.google.com/?cid=0x0:0x97255e7444041343
hotel,hotel,Hotel Astonia Tobelo,"Gosoma, Kec. Tobelo, Kabupaten Halmahera Utara, Maluku Utara","Kabupaten Halmahera Utara, Maluku Utara",MALUKU UTARA,,Indonesia,9242621900.0,1.7223761,127.9947995,https://maps.google.com/?cid=0x0:0x99ff7dd9ff5c49af
hotel,hotel,Hotel Kusu-Kusu,"M2W5+HC7, Lina Ino, Kec. Tobelo Tengah, Kabupaten Halmahera Utara, Maluku Utara","Kabupaten Halmahera Utara, Maluku Utara",MALUKU UTARA,,Indonesia,,1.6964035,128.0085551,https://maps.google.com/?cid=0x0:0xde51ba868745d615
hotel,hotel,Wisma Mulia,"P286+P48, Rawajaya, Kec. Tobelo, Kabupaten Halmahera Utara, Maluku Utara","Kabupaten Halmahera Utara, Maluku Utara",MALUKU UTARA,,Indonesia,,1.7167897,128.0103356,https://maps.google.com/?cid=0x0:0x611811aff0d3d758
hotel,hotel,Wisma Anggrek Tobelo,"Gamsungi, Kec. Tobelo, Kabupaten Halmahera Utara, Maluku Utara","Kabupaten Halmahera Utara, Maluku Utara",MALUKU UTARA,,Indonesia,2180629666.0,1.7253125,128.0086875,https://maps.google.com/?cid=0x0:0x7f0bee62851b33a6
hotel,hotel,Meti Cottage,"H394+338, Pulau, Meti, Kec. Tobelo Tim., Kabupaten Halmahera Utara, Maluku Utara 97762","Pulau, Meti, Kec. Tobelo Tim., Kabupaten Halmahera Utara",MALUKU UTARA,97762.0,Indonesia,81376508128.0,1.567672,128.055211,https://maps.google.com/?cid=0x0:0x90cdc64d1b9faf2c
hotel,hotel,Hotel President,"P2H6+3F9, Jl. Kemakmuran, RT.02/RW.03, Gamsungi, Kec. Tobelo, Kabupaten Halmahera Utara, Maluku Utara 97762","Jl. Kemakmuran, RT.02/RW.03, Gamsungi, Kec. Tobelo, Kabupaten Halmahera Utara",MALUKU UTARA,97762.0,Indonesia,9242621353.0,1.7276524,128.0112339,https://maps.google.com/?cid=0x0:0x48545677de481d5
hotel,hotel,Penginapan Visal Tidore  Meeting Room,"JL. Sultan Zainal Abidin Syah, Gamtufkange, Tidore, Kota Tidore Kepulauan, Maluku Utara 97812","Gamtufkange, Tidore, Kota Tidore Kepulauan",MALUKU UTARA,97812.0,Indonesia,81380000155.0,0.6573605,127.4485832,https://maps.google.com/?cid=0x0:0xcd95aa95f3406d6a
hotel,hotel,Kec. Tobelo Utara,"Kabupaten Halmahera Utara, Maluku Utara","Kabupaten Halmahera Utara, Maluku Utara",MALUKU UTARA,,Indonesia,,1.7634729,127.9819399,https://maps.google.com/?cid=0x0:0xd08db8115ea8b44b
hotel,hotel,Hotel Elizabeth,"Jl. Kemakmuran, Gura, Kec. Tobelo, Kabupaten Halmahera Utara, Maluku Utara 97762","Gura, Kec. Tobelo, Kabupaten Halmahera Utara",MALUKU UTARA,97762.0,Indonesia,,1.7308941,128.0102163,https://maps.google.com/?cid=0x0:0x64ae6c4240cbb4c7
hotel,hotel,D'Lodge Village Tobelo,"PXFM+G47, Jl Dukono, Gamsungi, Kec. Tobelo, Kabupaten Halmahera Utara, Maluku Utara","Kabupaten Halmahera Utara, Maluku Utara",MALUKU UTARA,,Indonesia,82187899793.0,1.7237953,127.9828016,https://maps.google.com/?cid=0x0:0x97255e7444041343
hotel,hotel,Marahai Park Hotel,"Jl. Kemakmuran, Wosia, Kec. Tobelo, Kabupaten Halmahera Utara, Maluku Utara 97762","Wosia, Kec. Tobelo, Kabupaten Halmahera Utara",MALUKU UTARA,97762.0,Indonesia,9242321470.0,1.7123424,128.0113095,https://maps.google.com/?cid=0x0:0x1773edc1a70bea03
hotel,hotel,Juliana Hotel,"Gamsungi, Kec. Tobelo, Kabupaten Halmahera Utara, Maluku Utara","Kabupaten Halmahera Utara, Maluku Utara",MALUKU UTARA,,Indonesia,82191159141.0,1.7272579,128.0105717,https://maps.google.com/?cid=0x0:0x97231ba37bd2cf65
hotel,hotel,Hotel Astonia Tobelo,"Gosoma, Kec. Tobelo, Kabupaten Halmahera Utara, Maluku Utara","Kabupaten Halmahera Utara, Maluku Utara",MALUKU UTARA,,Indonesia,9242621900.0,1.7223761,127.9947995,https://maps.google.com/?cid=0x0:0x99ff7dd9ff5c49af
hotel,hotel,Johana Hotel,"P2F6+F4F, Gosoma, Kec. Tobelo, Kabupaten Halmahera Utara, Maluku Utara","Kabupaten Halmahera Utara, Maluku Utara",MALUKU UTARA,,Indonesia,9242623343.0,1.7236844,128.0102915,https://maps.google.com/?cid=0x0:0x1b997a52170a6c31
hotel,hotel,Hotel President,"P2H6+3F9, Jl. Kemakmuran, RT.02/RW.03, Gamsungi, Kec. Tobelo, Kabupaten Halmahera Utara, Maluku Utara 97762","Jl. Kemakmuran, RT.02/RW.03, Gamsungi, Kec. Tobelo, Kabupaten Halmahera Utara",MALUKU UTARA,97762.0,Indonesia,9242621353.0,1.7276524,128.0112339,https://maps.google.com/?cid=0x0:0x48545677de481d5
hotel,hotel,Hotel Kusu-Kusu,"M2W5+HC7, Lina Ino, Kec. Tobelo Tengah, Kabupaten Halmahera Utara, Maluku Utara","Kabupaten Halmahera Utara, Maluku Utara",MALUKU UTARA,,Indonesia,,1.6964035,128.0085551,https://maps.google.com/?cid=0x0:0xde51ba868745d615
hotel,hotel,Wisma Anggrek Tobelo,"Gamsungi, Kec. Tobelo, Kabupaten Halmahera Utara, Maluku Utara","Kabupaten Halmahera Utara, Maluku Utara",MALUKU UTARA,,Indonesia,2180629666.0,1.7253125,128.0086875,https://maps.google.com/?cid=0x0:0x7f0bee62851b33a6
hotel,hotel,Wisma Mulia,"P286+P48, Rawajaya, Kec. Tobelo, Kabupaten Halmahera Utara, Maluku Utara","Kabupaten Halmahera Utara, Maluku Utara",MALUKU UTARA,,Indonesia,,1.7167897,128.0103356,https://maps.google.com/?cid=0x0:0x611811aff0d3d758
hotel,hotel,Meti Cottage,"H394+338, Pulau, Meti, Kec. Tobelo Tim., Kabupaten Halmahera Utara, Maluku Utara 97762","Pulau, Meti, Kec. Tobelo Tim., Kabupaten Halmahera Utara",MALUKU UTARA,97762.0,Indonesia,81376508128.0,1.567672,128.055211,https://maps.google.com/?cid=0x0:0x90cdc64d1b9faf2c
restaurant,Sesuai untuk keluarga,Rumah Makan Telaga Nila,"RR67+2RF, Danau Galela, Kec. Galela Bar., Kabupaten Halmahera Utara, Maluku Utara","Kabupaten Halmahera Utara, Maluku Utara",MALUKU UTARA,,Indonesia,81216963278.0,1.8100561,127.8145406,https://maps.google.com/?cid=0x0:0x8848f0d628402ce7
restaurant,restaurant,Kec. Galela,"Kabupaten Halmahera Utara, Maluku Utara","Kabupaten Halmahera Utara, Maluku Utara",MALUKU UTARA,,Indonesia,,1.7991745,127.9013278,https://maps.google.com/?cid=0x0:0x6d037a5832cde2d7
restaurant,Indonesia,Rumah makan,"Desa kira,galela barat, Kec. Galela, Kabupaten Halmahera Utara, Maluku Utara 97761","Kec. Galela, Kabupaten Halmahera Utara",MALUKU UTARA,97761.0,Indonesia,82211109078.0,1.8280485,127.7983839,https://maps.google.com/?cid=0x0:0x1228b09ae4c42c21
restaurant,Padang,Rumah Makan Dua Putra,"RRF9+WQ2, Unnamed Road, Towara, Kec. Galela, Kabupaten Halmahera Utara, Maluku Utara","Kabupaten Halmahera Utara, Maluku Utara",MALUKU UTARA,,Indonesia,82191183778.0,1.8247615,127.8194036,https://maps.google.com/?cid=0x0:0x92e4f3fac5e8a3d5
restaurant,Padang,tanjoeng daloha cafe,"RRF4+W54 Bar, Duma, Kec. Galela Bar., Kabupaten Halmahera Utara, Maluku Utara","Kabupaten Halmahera Utara, Maluku Utara",MALUKU UTARA,,Indonesia,81342493853.0,1.8247626,127.8054464,https://maps.google.com/?cid=0x0:0x5130f44a4c48b936
restaurant,Padang,Rumah Makan Fadhil Afif,"RR79+8V9, Danau Galela, Kec. Galela Bar., Kabupaten Halmahera Utara, Maluku Utara","Kabupaten Halmahera Utara, Maluku Utara",MALUKU UTARA,,Indonesia,,1.8132899,127.8197479,https://maps.google.com/?cid=0x0:0x51ff7021d0d11a2d
restaurant,Restoran,RM Sari Laut,"RRCV+QVH, Soa Sio, Kec. Galela, Kabupaten Halmahera Utara, Maluku Utara","Kabupaten Halmahera Utara, Maluku Utara",MALUKU UTARA,,Indonesia,,1.8219257,127.8447213,https://maps.google.com/?cid=0x0:0x9927f90b16251840
restaurant,Kedai Kopi,Kedai Perak Berlian,"RV93+V3V, Pune, Kec. Galela, Kabupaten Halmahera Utara, Maluku Utara","Kabupaten Halmahera Utara, Maluku Utara",MALUKU UTARA,,Indonesia,,1.8197284,127.8526627,https://maps.google.com/?cid=0x0:0x245d71546faaf78d
restaurant,Rumah Makan,Warung Makan Singgah Dulu,"RQHR+5CG, Jln. Bandara Gamar Malamo, Dokulamo, Kec. Galela Bar., Kabupaten Halmahera Utara, Maluku Utara","Kabupaten Halmahera Utara, Maluku Utara",MALUKU UTARA,,Indonesia,81359315383.0,1.8279367,127.7910732,https://maps.google.com/?cid=0x0:0x97f74666cb582494
restaurant,restaurant,Dapur Hilda,"Duma, Kec. Galela Bar., Kabupaten Halmahera Utara, Maluku Utara 97761","Kec. Galela Bar., Kabupaten Halmahera Utara",MALUKU UTARA,97761.0,Indonesia,82198489976.0,1.8288558,127.8000404,https://maps.google.com/?cid=0x0:0x56c6e83cffb67a9b
restaurant,Hidangan Laut,Warung makan mas Eko,"RRFV+HV7, Jl. Balisosa, Soa Sio, Kec. Galela, Kabupaten Halmahera Utara, Maluku Utara","Kabupaten Halmahera Utara, Maluku Utara",MALUKU UTARA,,Indonesia,,1.8239202,127.8446781,https://maps.google.com/?cid=0x0:0x4a1a6b7b1837d2eb
restaurant,Rumah Makan,Warung Mas Balen,"RQGR+CWX, Dokulamo, Kec. Galela Bar., Kabupaten Halmahera Utara, Maluku Utara","Kabupaten Halmahera Utara, Maluku Utara",MALUKU UTARA,,Indonesia,82349035046.0,1.8261138,127.7923512,https://maps.google.com/?cid=0x0:0xcf10b2dc7f427bc0
restaurant,Kedai Kopi,Kedai Tongomi,"Jl. Raya Trans Galela-Tobelo, Pune, Kec. Galela, Kabupaten Halmahera Utara, Maluku Utara","Kabupaten Halmahera Utara, Maluku Utara",MALUKU UTARA,,Indonesia,85156523289.0,1.8175974,127.8451479,https://maps.google.com/?cid=0x0:0x82efde2b0d0eecd7
restaurant,Dapur Umum,Safri,"RRVP+Q37, Simau, Kec. Galela, Kabupaten Halmahera Utara, Maluku Utara","Kabupaten Halmahera Utara, Maluku Utara",MALUKU UTARA,,Indonesia,,1.844004,127.836492,https://maps.google.com/?cid=0x0:0x3fe1b99f22a5398
restaurant,restaurant,Kec. Galela Bar.,"Kabupaten Halmahera Utara, Maluku Utara","Kabupaten Halmahera Utara, Maluku Utara",MALUKU UTARA,,Indonesia,,1.8258564,127.7917991,https://maps.google.com/?cid=0x0:0x6883a71e285c2680
restaurant,Sesuai untuk keluarga,Rumah Makan Telaga Nila,"RR67+2RF, Danau Galela, Kec. Galela Bar., Kabupaten Halmahera Utara, Maluku Utara","Kabupaten Halmahera Utara, Maluku Utara",MALUKU UTARA,,Indonesia,81216963278.0,1.8100561,127.8145406,https://maps.google.com/?cid=0x0:0x8848f0d628402ce7
restaurant,Indonesia,Rumah makan,"Desa kira,galela barat, Kec. Galela, Kabupaten Halmahera Utara, Maluku Utara 97761","Kec. Galela, Kabupaten Halmahera Utara",MALUKU UTARA,97761.0,Indonesia,82211109078.0,1.8280485,127.7983839,https://maps.google.com/?cid=0x0:0x1228b09ae4c42c21
restaurant,Padang,Rumah Makan Fadhil Afif,"RR79+8V9, Danau Galela, Kec. Galela Bar., Kabupaten Halmahera Utara, Maluku Utara","Kabupaten Halmahera Utara, Maluku Utara",MALUKU UTARA,,Indonesia,,1.8132899,127.8197479,https://maps.google.com/?cid=0x0:0x51ff7021d0d11a2d
restaurant,Padang,tanjoeng daloha cafe,"RRF4+W54 Bar, Duma, Kec. Galela Bar., Kabupaten Halmahera Utara, Maluku Utara","Kabupaten Halmahera Utara, Maluku Utara",MALUKU UTARA,,Indonesia,81342493853.0,1.8247626,127.8054464,https://maps.google.com/?cid=0x0:0x5130f44a4c48b936
restaurant,Rumah Makan,Rumah Makan Terapung,"RRFC+8PW, Towara, Kec. Galela, Kabupaten Halmahera Utara, Maluku Utara","Kabupaten Halmahera Utara, Maluku Utara",MALUKU UTARA,,Indonesia,,1.8233737,127.8218279,https://maps.google.com/?cid=0x0:0x44b6d8eed5829268
restaurant,restaurant,Dapur Hilda,"Duma, Kec. Galela Bar., Kabupaten Halmahera Utara, Maluku Utara 97761","Kec. Galela Bar., Kabupaten Halmahera Utara",MALUKU UTARA,97761.0,Indonesia,82198489976.0,1.8288558,127.8000404,https://maps.google.com/?cid=0x0:0x56c6e83cffb67a9b
restaurant,Rumah Makan,Warung Makan Singgah Dulu,"RQHR+5CG, Jln. Bandara Gamar Malamo, Dokulamo, Kec. Galela Bar., Kabupaten Halmahera Utara, Maluku Utara","Kabupaten Halmahera Utara, Maluku Utara",MALUKU UTARA,,Indonesia,81359315383.0,1.8279367,127.7910732,https://maps.google.com/?cid=0x0:0x97f74666cb582494
restaurant,Restoran,RM Sari Laut,"RRCV+QVH, Soa Sio, Kec. Galela, Kabupaten Halmahera Utara, Maluku Utara","Kabupaten Halmahera Utara, Maluku Utara",MALUKU UTARA,,Indonesia,,1.8219257,127.8447213,https://maps.google.com/?cid=0x0:0x9927f90b16251840
restaurant,Rumah Makan,Warung Mas Balen,"RQGR+CWX, Dokulamo, Kec. Galela Bar., Kabupaten Halmahera Utara, Maluku Utara","Kabupaten Halmahera Utara, Maluku Utara",MALUKU UTARA,,Indonesia,82349035046.0,1.8261138,127.7923512,https://maps.google.com/?cid=0x0:0xcf10b2dc7f427bc0
restaurant,Brunch,Mie Ayam,"RR73+RMR, Soakonora, Kec. Galela Sel., Kabupaten Halmahera Barat, Maluku Utara","Kabupaten Halmahera Barat, Maluku Utara",MALUKU UTARA,,Indonesia,81240329700.0,1.814611,127.8041474,https://maps.google.com/?cid=0x0:0x532fe41ff0b07a22
restaurant,restaurant,Rumah makan Nasi kuning Ci Ima,"RR55+RW9, Soakonora, Kec. Galela Sel., Kabupaten Halmahera Utara, Maluku Utara","Kabupaten Halmahera Utara, Maluku Utara",MALUKU UTARA,,Indonesia,,1.8093963,127.8100104,https://maps.google.com/?cid=0x0:0x95cd3355b2b171a3
restaurant,Hidangan Laut,SMORGAN Resto,"PXJV+JGQ, Jl. Pemerintahan, depan KODIM, Halut, Mkcm, Tobelo, North Halmahera Regency, North Maluku","Kabupaten Halmahera Utara, Maluku Utara",MALUKU UTARA,,Indonesia,85201115150.0,1.7315784,127.9938588,https://maps.google.com/?cid=0x0:0xd45d6fcd651f0c5c
restaurant,Rumah Makan,Warung CRISTOVARS,"RRG2+GMJ, Unnamed Road, Duma, Kec. Galela Bar., Kabupaten Halmahera Utara, Maluku Utara","Kabupaten Halmahera Utara, Maluku Utara",MALUKU UTARA,,Indonesia,82348859317.0,1.8263263,127.801642,https://maps.google.com/?cid=0x0:0x6394572e98d99192
restaurant,restaurant,Kec. Galela Sel.,"Kabupaten Halmahera Utara, Maluku Utara","Kabupaten Halmahera Utara, Maluku Utara",MALUKU UTARA,,Indonesia,,1.8095298,127.8098621,https://maps.google.com/?cid=0x0:0xd54700cacb22b110
restaurant,Sesuai untuk keluarga,Rumah Makan Telaga Nila,"RR67+2RF, Danau Galela, Kec. Galela Bar., Kabupaten Halmahera Utara, Maluku Utara","Kabupaten Halmahera Utara, Maluku Utara",MALUKU UTARA,,Indonesia,81216963278.0,1.8100561,127.8145406,https://maps.google.com/?cid=0x0:0x8848f0d628402ce7
restaurant,Rumah Makan,Rumah Makan Terapung,"RRFC+8PW, Towara, Kec. Galela, Kabupaten Halmahera Utara, Maluku Utara","Kabupaten Halmahera Utara, Maluku Utara",MALUKU UTARA,,Indonesia,,1.8233737,127.8218279,https://maps.google.com/?cid=0x0:0x44b6d8eed5829268
restaurant,Indonesia,Rumah makan,"Desa kira,galela barat, Kec. Galela, Kabupaten Halmahera Utara, Maluku Utara 97761","Kec. Galela, Kabupaten Halmahera Utara",MALUKU UTARA,97761.0,Indonesia,82211109078.0,1.8280485,127.7983839,https://maps.google.com/?cid=0x0:0x1228b09ae4c42c21
restaurant,Restoran,RM Sari Laut,"RRCV+QVH, Soa Sio, Kec. Galela, Kabupaten Halmahera Utara, Maluku Utara","Kabupaten Halmahera Utara, Maluku Utara",MALUKU UTARA,,Indonesia,,1.8219257,127.8447213,https://maps.google.com/?cid=0x0:0x9927f90b16251840
restaurant,Padang,Rumah Makan Fadhil Afif,"RR79+8V9, Danau Galela, Kec. Galela Bar., Kabupaten Halmahera Utara, Maluku Utara","Kabupaten Halmahera Utara, Maluku Utara",MALUKU UTARA,,Indonesia,,1.8132899,127.8197479,https://maps.google.com/?cid=0x0:0x51ff7021d0d11a2d
restaurant,Padang,Rumah Makan Dua Putra,"RRF9+WQ2, Unnamed Road, Towara, Kec. Galela, Kabupaten Halmahera Utara, Maluku Utara","Kabupaten Halmahera Utara, Maluku Utara",MALUKU UTARA,,Indonesia,82191183778.0,1.8247615,127.8194036,https://maps.google.com/?cid=0x0:0x92e4f3fac5e8a3d5
restaurant,restaurant,Dapur Hilda,"Duma, Kec. Galela Bar., Kabupaten Halmahera Utara, Maluku Utara 97761","Kec. Galela Bar., Kabupaten Halmahera Utara",MALUKU UTARA,97761.0,Indonesia,82198489976.0,1.8288558,127.8000404,https://maps.google.com/?cid=0x0:0x56c6e83cffb67a9b
restaurant,Rumah Makan,Warung Makan Singgah Dulu,"RQHR+5CG, Jln. Bandara Gamar Malamo, Dokulamo, Kec. Galela Bar., Kabupaten Halmahera Utara, Maluku Utara","Kabupaten Halmahera Utara, Maluku Utara",MALUKU UTARA,,Indonesia,81359315383.0,1.8279367,127.7910732,https://maps.google.com/?cid=0x0:0x97f74666cb582494
restaurant,Hidangan Laut,SMORGAN Resto,"PXJV+JGQ, Jl. Pemerintahan, depan KODIM, Halut, Mkcm, Tobelo, North Halmahera Regency, North Maluku","Kabupaten Halmahera Utara, Maluku Utara",MALUKU UTARA,,Indonesia,85201115150.0,1.7315784,127.9938588,https://maps.google.com/?cid=0x0:0xd45d6fcd651f0c5c
restaurant,Rumah Makan,Warung Mas Balen,"RQGR+CWX, Dokulamo, Kec. Galela Bar., Kabupaten Halmahera Utara, Maluku Utara","Kabupaten Halmahera Utara, Maluku Utara",MALUKU UTARA,,Indonesia,82349035046.0,1.8261138,127.7923512,https://maps.google.com/?cid=0x0:0xcf10b2dc7f427bc0
restaurant,Rumah Makan,Narasa Dulu,"RR56+QVH, Soakonora, Kec. Galela Sel., Kabupaten Halmahera Utara, Maluku Utara","Kabupaten Halmahera Utara, Maluku Utara",MALUKU UTARA,,Indonesia,81293807773.0,1.8094262,127.8122396,https://maps.google.com/?cid=0x0:0x1b970418e92d5948
restaurant,restaurant,Rumah makan Nasi kuning Ci Ima,"RR55+RW9, Soakonora, Kec. Galela Sel., Kabupaten Halmahera Utara, Maluku Utara","Kabupaten Halmahera Utara, Maluku Utara",MALUKU UTARA,,Indonesia,,1.8093963,127.8100104,https://maps.google.com/?cid=0x0:0x95cd3355b2b171a3
restaurant,Kedai Kopi,Kedai Tongomi,"Jl. Raya Trans Galela-Tobelo, Pune, Kec. Galela, Kabupaten Halmahera Utara, Maluku Utara","Kabupaten Halmahera Utara, Maluku Utara",MALUKU UTARA,,Indonesia,85156523289.0,1.8175974,127.8451479,https://maps.google.com/?cid=0x0:0x82efde2b0d0eecd7
restaurant,restaurant,Kec. Galela Utara,"Kabupaten Halmahera Utara, Maluku Utara","Kabupaten Halmahera Utara, Maluku Utara",MALUKU UTARA,,Indonesia,,2.0151873,127.9497063,https://maps.google.com/?cid=0x0:0x6378f017549179ee
restaurant,Restoran,RM Sari Laut,"RRCV+QVH, Soa Sio, Kec. Galela, Kabupaten Halmahera Utara, Maluku Utara","Kabupaten Halmahera Utara, Maluku Utara",MALUKU UTARA,,Indonesia,,1.8219257,127.8447213,https://maps.google.com/?cid=0x0:0x9927f90b16251840
restaurant,Indonesia,Rumah makan,"Desa kira,galela barat, Kec. Galela, Kabupaten Halmahera Utara, Maluku Utara 97761","Kec. Galela, Kabupaten Halmahera Utara",MALUKU UTARA,97761.0,Indonesia,82211109078.0,1.8280485,127.7983839,https://maps.google.com/?cid=0x0:0x1228b09ae4c42c21
restaurant,Padang,Rumah Makan Dua Putra,"RRF9+WQ2, Unnamed Road, Towara, Kec. Galela, Kabupaten Halmahera Utara, Maluku Utara","Kabupaten Halmahera Utara, Maluku Utara",MALUKU UTARA,,Indonesia,82191183778.0,1.8247615,127.8194036,https://maps.google.com/?cid=0x0:0x92e4f3fac5e8a3d5
restaurant,Padang,tanjoeng daloha cafe,"RRF4+W54 Bar, Duma, Kec. Galela Bar., Kabupaten Halmahera Utara, Maluku Utara","Kabupaten Halmahera Utara, Maluku Utara",MALUKU UTARA,,Indonesia,81342493853.0,1.8247626,127.8054464,https://maps.google.com/?cid=0x0:0x5130f44a4c48b936
restaurant,Hidangan Laut,Rumah makan Lamongan03,"WVH3+5G6, Limau, Kec. Galela Utara, Kabupaten Halmahera Utara, Maluku Utara","Kabupaten Halmahera Utara, Maluku Utara",MALUKU UTARA,,Indonesia,81241789444.0,1.9279837,127.8538995,https://maps.google.com/?cid=0x0:0xe7ffedec1cc60fa
restaurant,restaurant,Dapur Hilda,"Duma, Kec. Galela Bar., Kabupaten Halmahera Utara, Maluku Utara 97761","Kec. Galela Bar., Kabupaten Halmahera Utara",MALUKU UTARA,97761.0,Indonesia,82198489976.0,1.8288558,127.8000404,https://maps.google.com/?cid=0x0:0x56c6e83cffb67a9b
restaurant,Rumah Makan,Warung Makan Singgah Dulu,"RQHR+5CG, Jln. Bandara Gamar Malamo, Dokulamo, Kec. Galela Bar., Kabupaten Halmahera Utara, Maluku Utara","Kabupaten Halmahera Utara, Maluku Utara",MALUKU UTARA,,Indonesia,81359315383.0,1.8279367,127.7910732,https://maps.google.com/?cid=0x0:0x97f74666cb582494
restaurant,Kedai Kopi,Kedai Perak Berlian,"RV93+V3V, Pune, Kec. Galela, Kabupaten Halmahera Utara, Maluku Utara","Kabupaten Halmahera Utara, Maluku Utara",MALUKU UTARA,,Indonesia,,1.8197284,127.8526627,https://maps.google.com/?cid=0x0:0x245d71546faaf78d
restaurant,Hidangan Laut,Warung makan mas Eko,"RRFV+HV7, Jl. Balisosa, Soa Sio, Kec. Galela, Kabupaten Halmahera Utara, Maluku Utara","Kabupaten Halmahera Utara, Maluku Utara",MALUKU UTARA,,Indonesia,,1.8239202,127.8446781,https://maps.google.com/?cid=0x0:0x4a1a6b7b1837d2eb
restaurant,Rumah Makan,Warung Mas Balen,"RQGR+CWX, Dokulamo, Kec. Galela Bar., Kabupaten Halmahera Utara, Maluku Utara","Kabupaten Halmahera Utara, Maluku Utara",MALUKU UTARA,,Indonesia,82349035046.0,1.8261138,127.7923512,https://maps.google.com/?cid=0x0:0xcf10b2dc7f427bc0
restaurant,Dapur Umum,Safri,"RRVP+Q37, Simau, Kec. Galela, Kabupaten Halmahera Utara, Maluku Utara","Kabupaten Halmahera Utara, Maluku Utara",MALUKU UTARA,,Indonesia,,1.844004,127.836492,https://maps.google.com/?cid=0x0:0x3fe1b99f22a5398
restaurant,Hidangan Laut,SMORGAN Resto,"PXJV+JGQ, Jl. Pemerintahan, depan KODIM, Halut, Mkcm, Tobelo, North Halmahera Regency, North Maluku","Kabupaten Halmahera Utara, Maluku Utara",MALUKU UTARA,,Indonesia,85201115150.0,1.7315784,127.9938588,https://maps.google.com/?cid=0x0:0xd45d6fcd651f0c5c
restaurant,Rumah Makan,Warung CRISTOVARS,"RRG2+GMJ, Unnamed Road, Duma, Kec. Galela Bar., Kabupaten Halmahera Utara, Maluku Utara","Kabupaten Halmahera Utara, Maluku Utara",MALUKU UTARA,,Indonesia,82348859317.0,1.8263263,127.801642,https://maps.google.com/?cid=0x0:0x6394572e98d99192
restaurant,restaurant,Kec. Kao,"Kabupaten Halmahera Utara, Maluku Utara","Kabupaten Halmahera Utara, Maluku Utara",MALUKU UTARA,,Indonesia,,1.1658407,127.9007494,https://maps.google.com/?cid=0x0:0xf94b0d160a93d5c4
restaurant,Restoran,Warung Kepiting Kao,"5W92+2HV, Kao, Kec. Kao, Kabupaten Halmahera Utara, Maluku Utara","Kabupaten Halmahera Utara, Maluku Utara",MALUKU UTARA,,Indonesia,81244945864.0,1.1676195,127.9014249,https://maps.google.com/?cid=0x0:0xf40818aeaf0b2923
restaurant,Brunch,RM M. Fajri,"5V8W+MMQ, Jl. Trans Halmahera, Kao, Kec. Kao, Kabupaten Halmahera Utara, Maluku Utara","Kabupaten Halmahera Utara, Maluku Utara",MALUKU UTARA,,Indonesia,85298911223.0,1.1667128,127.8967492,https://maps.google.com/?cid=0x0:0xfa23e4e82f3ecb60
restaurant,Komplek perumahan,D'Lovra Cafe  Resto,"5WM4+RJ2, Unnamed Road, Kusu Lovra, Kec. Kao, Kabupaten Halmahera Utara, Maluku Utara","Kabupaten Halmahera Utara, Maluku Utara",MALUKU UTARA,,Indonesia,,1.184524,127.9065187,https://maps.google.com/?cid=0x0:0x72896850b97884f2
restaurant,Restoran,RM BUNDA,"5V8W+MQ, Kao, Kec. Kao, Kabupaten Halmahera Utara, Maluku Utara","Kabupaten Halmahera Utara, Maluku Utara",MALUKU UTARA,,Indonesia,82137210683.0,1.1666357,127.8969511,https://maps.google.com/?cid=0x0:0x5f65372bac992354
restaurant,Kedai Kopi,RM. Bakso Elly,"5V8X+F5G, Kao, Kec. Kao, Kabupaten Halmahera Utara, Maluku Utara","Kabupaten Halmahera Utara, Maluku Utara",MALUKU UTARA,,Indonesia,,1.1661875,127.8979375,https://maps.google.com/?cid=0x0:0x3436c30fa9a01888
restaurant,Restoran,Nasi Kuning Qaira,"5W82+93C, Kao, Kec. Kao, Kabupaten Halmahera Utara, Maluku Utara","Kabupaten Halmahera Utara, Maluku Utara",MALUKU UTARA,,Indonesia,82396044378.0,1.1659318,127.9001465,https://maps.google.com/?cid=0x0:0xea7d69332b387c48
restaurant,Restoran,RM. Sederhana Kao,"6V8C+9XG, Kusu Lovra, Kec. Kao, Kabupaten Halmahera Utara, Maluku Utara","Kabupaten Halmahera Utara, Maluku Utara",MALUKU UTARA,,Indonesia,85254581209.0,1.2159381,127.8724518,https://maps.google.com/?cid=0x0:0x27fbbdad1fa8182e
restaurant,Bakso,Bakso Kao,"5W82+MJF, Kao, Kec. Kao, Kabupaten Halmahera Utara, Maluku Utara","Kabupaten Halmahera Utara, Maluku Utara",MALUKU UTARA,,Indonesia,,1.1666934,127.9015363,https://maps.google.com/?cid=0x0:0x3d886eb6bf33c1ef
restaurant,Sesuai untuk keluarga,Rm bulango,"5V9X+MVC, Kao, Kec. Kao, Kabupaten Halmahera Utara, Maluku Utara","Kabupaten Halmahera Utara, Maluku Utara",MALUKU UTARA,,Indonesia,,1.1688586,127.8990549,https://maps.google.com/?cid=0x0:0xc44247febb34f9e1
restaurant,Rumah Makan,Warung Nasi Kuning Najwa,"5W82+93C, Kao, Kec. Kao, Kabupaten Halmahera Utara, Maluku Utara","Kabupaten Halmahera Utara, Maluku Utara",MALUKU UTARA,,Indonesia,82396044378.0,1.1659318,127.9001465,https://maps.google.com/?cid=0x0:0xdec3983533fc79f3
restaurant,Rumah Makan,Rumah Makan Tahane,"4RR9+2W9, Tahane, Kec. Malifut, Kabupaten Halmahera Utara, Maluku Utara","Kabupaten Halmahera Utara, Maluku Utara",MALUKU UTARA,,Indonesia,,1.1400483,127.8198441,https://maps.google.com/?cid=0x0:0x36a7c7630b67d42e
restaurant,Rumah Makan,Nasi Kuning Bagadang Ci BIHA. H,"5W82+Q7P, Jl. Trans Halmahera Desa, RT.3/RW.1, Kao, Kec. Kao, Kabupaten Halmahera Utara, Maluku Utara","Kabupaten Halmahera Utara, Maluku Utara",MALUKU UTARA,,Indonesia,81243071844.0,1.1669584,127.9007073,https://maps.google.com/?cid=0x0:0xc95c171d3ae35112
restaurant,restaurant,Kec. Kao Bar.,"Kabupaten Halmahera Utara, Maluku Utara","Kabupaten Halmahera Utara, Maluku Utara",MALUKU UTARA,,Indonesia,,1.3826535,127.7854236,https://maps.google.com/?cid=0x0:0xf7afe1ef0f20eafa
restaurant,Restoran,Warung Kepiting Kao,"5W92+2HV, Kao, Kec. Kao, Kabupaten Halmahera Utara, Maluku Utara","Kabupaten Halmahera Utara, Maluku Utara",MALUKU UTARA,,Indonesia,81244945864.0,1.1676195,127.9014249,https://maps.google.com/?cid=0x0:0xf40818aeaf0b2923
restaurant,Bakso,Rumah makan Lima-Lima,"Jati, Kec. Kao, Kabupaten Halmahera Utara, Maluku Utara 97764","Kec. Kao, Kabupaten Halmahera Utara",MALUKU UTARA,97764.0,Indonesia,85256148783.0,1.1714226,127.9007784,https://maps.google.com/?cid=0x0:0xc3dfe30af9613717
restaurant,Restoran,RM Gorontalo Gosowong (Gogos),"3PX5+GCG, Barumadehe, Kec. Kao Tlk., Kabupaten Halmahera Utara, Maluku Utara","Kabupaten Halmahera Utara, Maluku Utara",MALUKU UTARA,,Indonesia,,1.0988077,127.7085886,https://maps.google.com/?cid=0x0:0xf1e23b98d614b420
restaurant,Brunch,RM M. Fajri,"5V8W+MMQ, Jl. Trans Halmahera, Kao, Kec. Kao, Kabupaten Halmahera Utara, Maluku Utara","Kabupaten Halmahera Utara, Maluku Utara",MALUKU UTARA,,Indonesia,85298911223.0,1.1667128,127.8967492,https://maps.google.com/?cid=0x0:0xfa23e4e82f3ecb60
restaurant,Restoran,RM BUNDA,"5V8W+MQ, Kao, Kec. Kao, Kabupaten Halmahera Utara, Maluku Utara","Kabupaten Halmahera Utara, Maluku Utara",MALUKU UTARA,,Indonesia,82137210683.0,1.1666357,127.8969511,https://maps.google.com/?cid=0x0:0x5f65372bac992354
restaurant,Rumah Makan,Rumah Makan Tahane,"4RR9+2W9, Tahane, Kec. Malifut, Kabupaten Halmahera Utara, Maluku Utara","Kabupaten Halmahera Utara, Maluku Utara",MALUKU UTARA,,Indonesia,,1.1400483,127.8198441,https://maps.google.com/?cid=0x0:0x36a7c7630b67d42e
restaurant,Restoran,RM. Sederhana Kao,"6V8C+9XG, Kusu Lovra, Kec. Kao, Kabupaten Halmahera Utara, Maluku Utara","Kabupaten Halmahera Utara, Maluku Utara",MALUKU UTARA,,Indonesia,85254581209.0,1.2159381,127.8724518,https://maps.google.com/?cid=0x0:0x27fbbdad1fa8182e
restaurant,Restoran,Chicken Station Daru / Cheers / Kopi Neng,"Unnamed Road, Daru, Kao Utara, North Halmahera Regency, North Maluku","Kabupaten Halmahera Utara, Maluku Utara",MALUKU UTARA,,Indonesia,,1.3070817,127.9781227,https://maps.google.com/?cid=0x0:0xebdd55001d5b3f30
restaurant,Kedai Kopi,Keday Kopi Sudy,"9Q2W+9MH, Margo Mulyo, Kec. Kao Bar., Kabupaten Halmahera Utara, Maluku Utara","Kabupaten Halmahera Utara, Maluku Utara",MALUKU UTARA,,Indonesia,81340728053.0,1.3510895,127.795952,https://maps.google.com/?cid=0x0:0x91375c86b9907c69
restaurant,Kedai Kopi,RM. Bakso Elly,"5V8X+F5G, Kao, Kec. Kao, Kabupaten Halmahera Utara, Maluku Utara","Kabupaten Halmahera Utara, Maluku Utara",MALUKU UTARA,,Indonesia,,1.1661875,127.8979375,https://maps.google.com/?cid=0x0:0x3436c30fa9a01888
restaurant,Restoran,Nasi Kuning Qaira,"5W82+93C, Kao, Kec. Kao, Kabupaten Halmahera Utara, Maluku Utara","Kabupaten Halmahera Utara, Maluku Utara",MALUKU UTARA,,Indonesia,82396044378.0,1.1659318,127.9001465,https://maps.google.com/?cid=0x0:0xea7d69332b387c48
restaurant,Rumah Makan,Warung 4 Putra,"5R5J+9WR, Tagono, Kec. Malifut, Kabupaten Halmahera Utara, Maluku Utara","Kabupaten Halmahera Utara, Maluku Utara",MALUKU UTARA,,Indonesia,,1.1584924,127.8322685,https://maps.google.com/?cid=0x0:0x5994e6b5d25f15f4
restaurant,restaurant,Kec. Kao Utara,"Kabupaten Halmahera Utara, Maluku Utara","Kabupaten Halmahera Utara, Maluku Utara",MALUKU UTARA,,Indonesia,,1.3982481,128.0027515,https://maps.google.com/?cid=0x0:0x5d873bc773b3c48e
restaurant,Rumah Makan,La Meti Beach Club,"H342+RH, Meti, Kec. Tobelo Tim., Kabupaten Halmahera Utara, Maluku Utara","Kabupaten Halmahera Utara, Maluku Utara",MALUKU UTARA,,Indonesia,81319392624.0,1.5570596,128.0513798,https://maps.google.com/?cid=0x0:0xbb8dfd4d3f3f7553
restaurant,Restoran,Chicken Station Daru / Cheers / Kopi Neng,"Unnamed Road, Daru, Kao Utara, North Halmahera Regency, North Maluku","Kabupaten Halmahera Utara, Maluku Utara",MALUKU UTARA,,Indonesia,,1.3070817,127.9781227,https://maps.google.com/?cid=0x0:0xebdd55001d5b3f30
restaurant,Bar Kopi Espresso,HOBATACOFFE,"GWWX+4WJ, Togoliua, Kec. Tobelo Bar., Kabupaten Halmahera Utara, Maluku Utara","Kabupaten Halmahera Utara, Maluku Utara",MALUKU UTARA,,Indonesia,82290056712.0,1.545334,127.9497757,https://maps.google.com/?cid=0x0:0x971ab3702b15fa61
restaurant,Rumah Makan,RUMAH MAKAN ZHAKIRA,"Pertigaan biang, Biang, Maluku Utara","Kabupaten Halmahera Utara, Maluku Utara",MALUKU UTARA,,Indonesia,,1.242687,127.931,https://maps.google.com/?cid=0x0:0xebae59578b505da6
restaurant,Hidangan Laut,Rumah Makan Chokent,"P2F6+QJQ, Gamsungi, Kec. Tobelo, Kabupaten Halmahera Utara, Maluku Utara","Kabupaten Halmahera Utara, Maluku Utara",MALUKU UTARA,,Indonesia,85146223636.0,1.7244736,128.0116017,https://maps.google.com/?cid=0x0:0xb2418c82a0f026be
restaurant,Rumah Makan,Kios VICTORY,"Jl. Trans Halmahera No.Km.28, Birinoa, Kec. Tobelo Bar., Kabupaten Halmahera Utara, Maluku Utara 97762","Birinoa, Kec. Tobelo Bar., Kabupaten Halmahera Utara",MALUKU UTARA,97762.0,Indonesia,85298637888.0,1.5208887,127.9350361,https://maps.google.com/?cid=0x0:0x65f9a31b1ec41b07
restaurant,restaurant,Warung makan,"FXGH+4V8, Warudu, Kec. Kao Utara, Kabupaten Halmahera Utara, Maluku Utara","Kabupaten Halmahera Utara, Maluku Utara",MALUKU UTARA,,Indonesia,,1.4752953,127.9797129,https://maps.google.com/?cid=0x0:0xbb27cc2fae6c7e3d
restaurant,restaurant,Rumah Makan Jawa Putri Kamal,"8X4H+V47, Unnamed Road, Daru, Kao Utara, North Halmahera Regency, North Maluku","Kabupaten Halmahera Utara, Maluku Utara",MALUKU UTARA,,Indonesia,,1.3071593,127.977788,https://maps.google.com/?cid=0x0:0x26bb6c09a273928
restaurant,restaurant,Kedai Vania,"8X67+22P, Daru, Kec. Kao Utara, Kabupaten Halmahera Utara, Maluku Utara","Kabupaten Halmahera Utara, Maluku Utara",MALUKU UTARA,,Indonesia,,1.3100827,127.9625679,https://maps.google.com/?cid=0x0:0x55ea4ad147957433
restaurant,Hidangan Laut,SMORGAN Resto,"PXJV+JGQ, Jl. Pemerintahan, depan KODIM, Halut, Mkcm, Tobelo, North Halmahera Regency, North Maluku","Kabupaten Halmahera Utara, Maluku Utara",MALUKU UTARA,,Indonesia,85201115150.0,1.7315784,127.9938588,https://maps.google.com/?cid=0x0:0xd45d6fcd651f0c5c
restaurant,restaurant,Kec. Kao Tlk.,"Kabupaten Halmahera Utara, Maluku Utara","Kabupaten Halmahera Utara, Maluku Utara",MALUKU UTARA,,Indonesia,,1.0572865,127.697129,https://maps.google.com/?cid=0x0:0xb7e89a460242f82
restaurant,Restoran,RM Tanjung Moroka,"XJRP+CQ5, Akelamo Kao, Kec. Kao Tlk., Kabupaten Halmahera Utara, Maluku Utara","Kabupaten Halmahera Utara, Maluku Utara",MALUKU UTARA,,Indonesia,,0.9910201,127.6369813,https://maps.google.com/?cid=0x0:0x9faaf5ae3e9c38ef
restaurant,Restoran,RM Gorontalo Gosowong (Gogos),"3PX5+GCG, Barumadehe, Kec. Kao Tlk., Kabupaten Halmahera Utara, Maluku Utara","Kabupaten Halmahera Utara, Maluku Utara",MALUKU UTARA,,Indonesia,,1.0988077,127.7085886,https://maps.google.com/?cid=0x0:0xf1e23b98d614b420
restaurant,Nasi,Warung Akbar,"VM62+Q54, Bobaneigo, Kec. Kao Tlk., Kabupaten Halmahera Utara, Maluku Utara","Kabupaten Halmahera Utara, Maluku Utara",MALUKU UTARA,,Indonesia,,0.8612061,127.6498219,https://maps.google.com/?cid=0x0:0x37c5133a66b863ab
restaurant,Nasi,Warung Makan Mbak Lis,"VM88+4XV, Bobaneigo, Kec. Kao Tlk., Kabupaten Halmahera Utara, Maluku Utara","Kabupaten Halmahera Utara, Maluku Utara",MALUKU UTARA,,Indonesia,,0.865361,127.6674202,https://maps.google.com/?cid=0x0:0x8c8482ed6d50faf6
restaurant,Nasi,Warung Blessing KOKOSea,"Tetewang, Kec. Kao Tlk., Kabupaten Halmahera Utara, Maluku Utara","Kabupaten Halmahera Utara, Maluku Utara",MALUKU UTARA,,Indonesia,82298186876.0,0.8963378,127.6509974,https://maps.google.com/?cid=0x0:0x34e4da34af857506
restaurant,Nasi,Warung Makan Mama Ala,"VM87+XCQ, Bobaneigo, Kec. Kao Tlk., Kabupaten Halmahera Utara, Maluku Utara","Kabupaten Halmahera Utara, Maluku Utara",MALUKU UTARA,,Indonesia,,0.8674677,127.6636141,https://maps.google.com/?cid=0x0:0x6416e81053072d6e
restaurant,Nasi,Warung Nasi Kuning,"VM89+G34, Bobaneigo, Kec. Kao Tlk., Kabupaten Halmahera Utara, Maluku Utara","Kabupaten Halmahera Utara, Maluku Utara",MALUKU UTARA,,Indonesia,,0.8662598,127.6677059,https://maps.google.com/?cid=0x0:0x19201b0938747ad9
restaurant,Universitas,Kampus'tm,"VMGM+MCX, Pasir Putih, Kec. Kao Tlk., Kabupaten Halmahera Utara, Maluku Utara","Kabupaten Halmahera Utara, Maluku Utara",MALUKU UTARA,,Indonesia,,0.8767392,127.6836236,https://maps.google.com/?cid=0x0:0xc5ac569328b754e
restaurant,,Kedai Paka-paka Omba,"XJXW+G9V, Akelamo Kao, Kec. Kao Tlk., Kabupaten Halmahera Utara, Maluku Utara","Kabupaten Halmahera Utara, Maluku Utara",MALUKU UTARA,,Indonesia,,0.9988695,127.6459085,https://maps.google.com/?cid=0x0:0x85f1c0f84dc777de
restaurant,Nasi,Nasi Kuning Kobok,"4P47+4J6, Tabobo, Kec. Malifut, Kabupaten Halmahera Utara, Maluku Utara","Kabupaten Halmahera Utara, Maluku Utara",MALUKU UTARA,,Indonesia,,1.1054622,127.71414,https://maps.google.com/?cid=0x0:0x5b55789a044c2db5
restaurant,restaurant,Pisang molen,"2J3V+JC, Akelamo Kao, Kec. Kao Tlk., Kabupaten Halmahera Utara, Maluku Utara","Kabupaten Halmahera Utara, Maluku Utara",MALUKU UTARA,,Indonesia,,1.0040905,127.6435787,https://maps.google.com/?cid=0x0:0xfbc6091f40bb0a85
restaurant,Kedai Kopi,Swering Akelamokao - Jailolo Timur - Halmahera Barat,"XJXW+653, Swering Akelamokao, Jailolo Timur, Akelamo Kao, Kao Teluk, West Halmahera Regency, North Maluku","Kabupaten Halmahera Barat, Maluku Utara",MALUKU UTARA,,Indonesia,,0.9980096,127.6454202,https://maps.google.com/?cid=0x0:0x989fbfea1a6b0e0e
restaurant,Restoran,RM Tanjung Moroka,"XJRP+CQ5, Akelamo Kao, Kec. Kao Tlk., Kabupaten Halmahera Utara, Maluku Utara","Kabupaten Halmahera Utara, Maluku Utara",MALUKU UTARA,,Indonesia,,0.9910201,127.6369813,https://maps.google.com/?cid=0x0:0x9faaf5ae3e9c38ef
restaurant,restaurant,Kec. Kao Tlk.,"Kabupaten Halmahera Utara, Maluku Utara","Kabupaten Halmahera Utara, Maluku Utara",MALUKU UTARA,,Indonesia,,1.0572865,127.697129,https://maps.google.com/?cid=0x0:0xb7e89a460242f82
restaurant,Restoran,RM Gorontalo Gosowong (Gogos),"3PX5+GCG, Barumadehe, Kec. Kao Tlk., Kabupaten Halmahera Utara, Maluku Utara","Kabupaten Halmahera Utara, Maluku Utara",MALUKU UTARA,,Indonesia,,1.0988077,127.7085886,https://maps.google.com/?cid=0x0:0xf1e23b98d614b420
restaurant,Nasi,Warung Akbar,"VM62+Q54, Bobaneigo, Kec. Kao Tlk., Kabupaten Halmahera Utara, Maluku Utara","Kabupaten Halmahera Utara, Maluku Utara",MALUKU UTARA,,Indonesia,,0.8612061,127.6498219,https://maps.google.com/?cid=0x0:0x37c5133a66b863ab
restaurant,Nasi,Warung Makan Mbak Lis,"VM88+4XV, Bobaneigo, Kec. Kao Tlk., Kabupaten Halmahera Utara, Maluku Utara","Kabupaten Halmahera Utara, Maluku Utara",MALUKU UTARA,,Indonesia,,0.865361,127.6674202,https://maps.google.com/?cid=0x0:0x8c8482ed6d50faf6
restaurant,Nasi,Warung Makan Mama Ala,"VM87+XCQ, Bobaneigo, Kec. Kao Tlk., Kabupaten Halmahera Utara, Maluku Utara","Kabupaten Halmahera Utara, Maluku Utara",MALUKU UTARA,,Indonesia,,0.8674677,127.6636141,https://maps.google.com/?cid=0x0:0x6416e81053072d6e
restaurant,Nasi,Warung Nasi Kuning,"VM89+G34, Bobaneigo, Kec. Kao Tlk., Kabupaten Halmahera Utara, Maluku Utara","Kabupaten Halmahera Utara, Maluku Utara",MALUKU UTARA,,Indonesia,,0.8662598,127.6677059,https://maps.google.com/?cid=0x0:0x19201b0938747ad9
restaurant,Universitas,Kampus'tm,"VMGM+MCX, Pasir Putih, Kec. Kao Tlk., Kabupaten Halmahera Utara, Maluku Utara","Kabupaten Halmahera Utara, Maluku Utara",MALUKU UTARA,,Indonesia,,0.8767392,127.6836236,https://maps.google.com/?cid=0x0:0xc5ac569328b754e
restaurant,Nasi,Warung Blessing KOKOSea,"Tetewang, Kec. Kao Tlk., Kabupaten Halmahera Utara, Maluku Utara","Kabupaten Halmahera Utara, Maluku Utara",MALUKU UTARA,,Indonesia,82298186876.0,0.8963378,127.6509974,https://maps.google.com/?cid=0x0:0x34e4da34af857506
restaurant,Nasi,Nasi Kuning Kobok,"4P47+4J6, Tabobo, Kec. Malifut, Kabupaten Halmahera Utara, Maluku Utara","Kabupaten Halmahera Utara, Maluku Utara",MALUKU UTARA,,Indonesia,,1.1054622,127.71414,https://maps.google.com/?cid=0x0:0x5b55789a044c2db5
restaurant,,Kedai Paka-paka Omba,"XJXW+G9V, Akelamo Kao, Kec. Kao Tlk., Kabupaten Halmahera Utara, Maluku Utara","Kabupaten Halmahera Utara, Maluku Utara",MALUKU UTARA,,Indonesia,,0.9988695,127.6459085,https://maps.google.com/?cid=0x0:0x85f1c0f84dc777de
restaurant,restaurant,Pisang molen,"2J3V+JC, Akelamo Kao, Kec. Kao Tlk., Kabupaten Halmahera Utara, Maluku Utara","Kabupaten Halmahera Utara, Maluku Utara",MALUKU UTARA,,Indonesia,,1.0040905,127.6435787,https://maps.google.com/?cid=0x0:0xfbc6091f40bb0a85
restaurant,Restoran,Rumah Makan (RM) Bandung,"4P9P+62P, Unnamed Road, Tabobo, Malifut, North Halmahera Regency, North Maluku","Kabupaten Halmahera Utara, Maluku Utara",MALUKU UTARA,,Indonesia,,1.1180776,127.7350709,https://maps.google.com/?cid=0x0:0xe4f9ad84ac96102
restaurant,Kedai Kopi,Swering Akelamokao - Jailolo Timur - Halmahera Barat,"XJXW+653, Swering Akelamokao, Jailolo Timur, Akelamo Kao, Kao Teluk, West Halmahera Regency, North Maluku","Kabupaten Halmahera Barat, Maluku Utara",MALUKU UTARA,,Indonesia,,0.9980096,127.6454202,https://maps.google.com/?cid=0x0:0x989fbfea1a6b0e0e
restaurant,restaurant,Jul,"5Q99+86C, Fitako, Loloda Kepulauan, Kabupaten Halmahera Utara, Maluku Utara","Kabupaten Halmahera Utara, Maluku Utara",MALUKU UTARA,,Indonesia,,2.1691175,127.7678388,https://maps.google.com/?cid=0x0:0x6bda5025d26192fb
restaurant,Tujuan Wisata,Limau Jiko Eco Culture Resort,"Bobanehena, Kec. Jailolo, Kabupaten Halmahera Barat, Maluku Utara","Kabupaten Halmahera Barat, Maluku Utara",MALUKU UTARA,,Indonesia,82258085588.0,1.051123,127.446605,https://maps.google.com/?cid=0x0:0xbe87d8ffd59d3fd5
restaurant,,Bualawa Resto,"3C3W+4XM, Bobanehena, Kec. Jailolo, Kabupaten Halmahera Barat, Maluku Utara","Kabupaten Halmahera Barat, Maluku Utara",MALUKU UTARA,,Indonesia,,1.0516385,127.4473055,https://maps.google.com/?cid=0x0:0x1072845be258038f
restaurant,restaurant,Kec. Loloda Utara,"Kabupaten Halmahera Utara, Maluku Utara","Kabupaten Halmahera Utara, Maluku Utara",MALUKU UTARA,,Indonesia,,2.0927761,127.8484263,https://maps.google.com/?cid=0x0:0xb975e42fee13365a
restaurant,Padang,Rumah Makan Dua Putra,"RRF9+WQ2, Unnamed Road, Towara, Kec. Galela, Kabupaten Halmahera Utara, Maluku Utara","Kabupaten Halmahera Utara, Maluku Utara",MALUKU UTARA,,Indonesia,82191183778.0,1.8247615,127.8194036,https://maps.google.com/?cid=0x0:0x92e4f3fac5e8a3d5
restaurant,Padang,tanjoeng daloha cafe,"RRF4+W54 Bar, Duma, Kec. Galela Bar., Kabupaten Halmahera Utara, Maluku Utara","Kabupaten Halmahera Utara, Maluku Utara",MALUKU UTARA,,Indonesia,81342493853.0,1.8247626,127.8054464,https://maps.google.com/?cid=0x0:0x5130f44a4c48b936
restaurant,Indonesia,Rumah makan,"Desa kira,galela barat, Kec. Galela, Kabupaten Halmahera Utara, Maluku Utara 97761","Kec. Galela, Kabupaten Halmahera Utara",MALUKU UTARA,97761.0,Indonesia,82211109078.0,1.8280485,127.7983839,https://maps.google.com/?cid=0x0:0x1228b09ae4c42c21
restaurant,restaurant,Dapur Hilda,"Duma, Kec. Galela Bar., Kabupaten Halmahera Utara, Maluku Utara 97761","Kec. Galela Bar., Kabupaten Halmahera Utara",MALUKU UTARA,97761.0,Indonesia,82198489976.0,1.8288558,127.8000404,https://maps.google.com/?cid=0x0:0x56c6e83cffb67a9b
restaurant,Rumah Makan,Rumah Makan Terapung,"RRFC+8PW, Towara, Kec. Galela, Kabupaten Halmahera Utara, Maluku Utara","Kabupaten Halmahera Utara, Maluku Utara",MALUKU UTARA,,Indonesia,,1.8233737,127.8218279,https://maps.google.com/?cid=0x0:0x44b6d8eed5829268
restaurant,restaurant,Jul,"5Q99+86C, Fitako, Loloda Kepulauan, Kabupaten Halmahera Utara, Maluku Utara","Kabupaten Halmahera Utara, Maluku Utara",MALUKU UTARA,,Indonesia,,2.1691175,127.7678388,https://maps.google.com/?cid=0x0:0x6bda5025d26192fb
restaurant,Hidangan Laut,Rumah makan Lamongan03,"WVH3+5G6, Limau, Kec. Galela Utara, Kabupaten Halmahera Utara, Maluku Utara","Kabupaten Halmahera Utara, Maluku Utara",MALUKU UTARA,,Indonesia,81241789444.0,1.9279837,127.8538995,https://maps.google.com/?cid=0x0:0xe7ffedec1cc60fa
restaurant,Rumah Makan,Warung Makan Singgah Dulu,"RQHR+5CG, Jln. Bandara Gamar Malamo, Dokulamo, Kec. Galela Bar., Kabupaten Halmahera Utara, Maluku Utara","Kabupaten Halmahera Utara, Maluku Utara",MALUKU UTARA,,Indonesia,81359315383.0,1.8279367,127.7910732,https://maps.google.com/?cid=0x0:0x97f74666cb582494
restaurant,restaurant,R. Makan pak Lut,"3R68+X7, Dotia, Kabupaten Halmahera Utara, Maluku Utara","Kabupaten Halmahera Utara, Maluku Utara",MALUKU UTARA,,Indonesia,,2.0624347,127.8156887,https://maps.google.com/?cid=0x0:0xf4c724b51b537730
restaurant,Rumah Makan,Rumah Makan Tahane,"4RR9+2W9, Tahane, Kec. Malifut, Kabupaten Halmahera Utara, Maluku Utara","Kabupaten Halmahera Utara, Maluku Utara",MALUKU UTARA,,Indonesia,,1.1400483,127.8198441,https://maps.google.com/?cid=0x0:0x36a7c7630b67d42e
restaurant,restaurant,Kec. Malifut,"Kabupaten Halmahera Utara, Maluku Utara","Kabupaten Halmahera Utara, Maluku Utara",MALUKU UTARA,,Indonesia,,1.0939454,127.776544,https://maps.google.com/?cid=0x0:0xd9110b77277647d2
restaurant,Hidangan Laut,Munzalan Mubarokah,"4R63+2JG, Jl. Lintas Halmahera, Balisosang, Kec. Malifut, Kabupaten Halmahera Utara, Maluku Utara","Kabupaten Halmahera Utara, Maluku Utara",MALUKU UTARA,,Indonesia,82187028303.0,1.1100711,127.8040887,https://maps.google.com/?cid=0x0:0xab24aaf8b7326d3
restaurant,Restoran,Rumah Makan (RM) Bandung,"4P9P+62P, Unnamed Road, Tabobo, Malifut, North Halmahera Regency, North Maluku","Kabupaten Halmahera Utara, Maluku Utara",MALUKU UTARA,,Indonesia,,1.1180776,127.7350709,https://maps.google.com/?cid=0x0:0xe4f9ad84ac96102
restaurant,Rumah Makan,Warung 4 Putra,"5R5J+9WR, Tagono, Kec. Malifut, Kabupaten Halmahera Utara, Maluku Utara","Kabupaten Halmahera Utara, Maluku Utara",MALUKU UTARA,,Indonesia,,1.1584924,127.8322685,https://maps.google.com/?cid=0x0:0x5994e6b5d25f15f4
restaurant,Restoran,RM Jawa timur,"4P9M+QH5, Tabobo, Kec. Malifut, Kabupaten Halmahera Utara, Maluku Utara","Kabupaten Halmahera Utara, Maluku Utara",MALUKU UTARA,,Indonesia,,1.1193843,127.7339726,https://maps.google.com/?cid=0x0:0x95528ecd6666d1e4
restaurant,Restoran,Rumah Makan AIHITO,"4Q5W+5M, Balisosang, Kec. Malifut, Kabupaten Halmahera Utara, Maluku Utara","Kabupaten Halmahera Utara, Maluku Utara",MALUKU UTARA,,Indonesia,82190001262.0,1.1079317,127.7967158,https://maps.google.com/?cid=0x0:0x9cdd650757bfebc0
restaurant,Restoran,Martabak Sumatera,"5R6M+5X9, Unnamed Road, Terpadu, Malifut, North Halmahera Regency, North Maluku","Kabupaten Halmahera Utara, Maluku Utara",MALUKU UTARA,,Indonesia,,1.1604214,127.8349958,https://maps.google.com/?cid=0x0:0x55e0f7047429dfcb
restaurant,Sesuai untuk keluarga,RM. BAKSO KOMALA,"5R6H+4F4, Bobawa, Kec. Malifut, Kabupaten Halmahera Utara, Maluku Utara","Kabupaten Halmahera Utara, Maluku Utara",MALUKU UTARA,,Indonesia,81348853163.0,1.1602662,127.8286943,https://maps.google.com/?cid=0x0:0x2e2d8bb7ec9919f4
restaurant,Kedai Kopi,Emejea cafe,"4RWC+2J7, Unnamed Road, Tahane, Kec. Malifut, Kabupaten Halmahera Utara, Maluku Utara","Kabupaten Halmahera Utara, Maluku Utara",MALUKU UTARA,,Indonesia,81298724100.0,1.1450413,127.8215568,https://maps.google.com/?cid=0x0:0x60d5f55437d5e2d4
restaurant,Sulawesi Selatan,Coto Makassar Warung Pangkep,"5R6P+4H8, Terpadu, Kec. Malifut, Kabupaten Halmahera Utara, Maluku Utara","Kabupaten Halmahera Utara, Maluku Utara",MALUKU UTARA,,Indonesia,,1.1602934,127.8364651,https://maps.google.com/?cid=0x0:0x5e1db5707af0b9b
restaurant,Brunch,Rumah Makan Laduni,"3MGW+M25, Barumadehe, Kec. Kao Tlk., Kabupaten Halmahera Utara, Maluku Utara","Kabupaten Halmahera Utara, Maluku Utara",MALUKU UTARA,,Indonesia,81243120007.0,1.076643,127.6950986,https://maps.google.com/?cid=0x0:0x12e08edb20d6b73c
restaurant,Hidangan Laut,Pondok Ikan Bakar Barnabas,"4Q5X+96J, Balisosang, Kec. Malifut, Kabupaten Halmahera Utara, Maluku Utara","Kabupaten Halmahera Utara, Maluku Utara",MALUKU UTARA,,Indonesia,82187028303.0,1.1084574,127.798015,https://maps.google.com/?cid=0x0:0x3dc6202a00c83c4b
restaurant,Rumah Makan,Warteg Baru,"5R6M+2RR, Terpadu, Kec. Malifut, Kabupaten Halmahera Utara, Maluku Utara","Kabupaten Halmahera Utara, Maluku Utara",MALUKU UTARA,,Indonesia,85233105728.0,1.1601113,127.8345089,https://maps.google.com/?cid=0x0:0x861a54cfbbe77af7
restaurant,Kafe,Paddock Cafe  Resto Bulan Indah Tobelo,"P2F5+Q6R, Unnamed Road, Gosoma, Kec. Tobelo, Kabupaten Halmahera Utara, Maluku Utara","Kabupaten Halmahera Utara, Maluku Utara",MALUKU UTARA,,Indonesia,,1.7244976,128.0080228,https://maps.google.com/?cid=0x0:0x2f0933ebbf2047d1
restaurant,restaurant,Tobelo,"Gamsungi, Kec. Tobelo, Kabupaten Halmahera Utara, Maluku Utara","Kabupaten Halmahera Utara, Maluku Utara",MALUKU UTARA,,Indonesia,,1.725721,128.001404,https://maps.google.com/?cid=0x0:0xed92b856242bad82
restaurant,Hidangan Laut,Dabiloha Rumah Makan,"PX7W+2H5, Unnamed Road, Gosoma, Kec. Tobelo, Kabupaten Halmahera Utara, Maluku Utara","Kabupaten Halmahera Utara, Maluku Utara",MALUKU UTARA,,Indonesia,81382119634.0,1.712516,127.9964921,https://maps.google.com/?cid=0x0:0x486ab3d0f6a28720
restaurant,Hidangan Laut,Rumah Makan Chokent,"P2F6+QJQ, Gamsungi, Kec. Tobelo, Kabupaten Halmahera Utara, Maluku Utara","Kabupaten Halmahera Utara, Maluku Utara",MALUKU UTARA,,Indonesia,85146223636.0,1.7244736,128.0116017,https://maps.google.com/?cid=0x0:0xb2418c82a0f026be
restaurant,Restoran,Rumah Makan Waroeng Family,"P2G6+MHJ, Gamsungi, Kec. Tobelo, Kabupaten Halmahera Utara, Maluku Utara","Kabupaten Halmahera Utara, Maluku Utara",MALUKU UTARA,,Indonesia,,1.726702,128.0114052,https://maps.google.com/?cid=0x0:0x74d7f143d284dbc9
restaurant,Kafe,Valhalla Tobelo,"P2M3+3FW, Unnamed Road, Mkcm, Kec. Tobelo, Kabupaten Halmahera Utara, Maluku Utara 97762","Unnamed Road, Mkcm, Kec. Tobelo, Kabupaten Halmahera Utara",MALUKU UTARA,97762.0,Indonesia,81241101071.0,1.7327268,128.0036979,https://maps.google.com/?cid=0x0:0x27f3b89f5271ed95
restaurant,Rumah Makan,RM. Putra Tunggal,"P2G2+5QP, Gamsungi, Kec. Tobelo, Kabupaten Halmahera Utara, Maluku Utara","Kabupaten Halmahera Utara, Maluku Utara",MALUKU UTARA,,Indonesia,85341424733.0,1.7254738,128.0019531,https://maps.google.com/?cid=0x0:0xd648e0d2fd3e7ac7
restaurant,Restoran,Resto Kampoeng Planet,"Gamsungi, Kec. Tobelo, Kabupaten Halmahera Utara, Maluku Utara","Kabupaten Halmahera Utara, Maluku Utara",MALUKU UTARA,,Indonesia,,1.7217098,128.0116583,https://maps.google.com/?cid=0x0:0xd672ac9e681a6e5d
restaurant,Kedai Kopi,Coffee Daily,"Samping Patramart, Wosia, Kec. Tobelo Tengah, Kabupaten Halmahera Utara, Maluku Utara","Kabupaten Halmahera Utara, Maluku Utara",MALUKU UTARA,,Indonesia,81319319319.0,1.7065342,128.0097054,https://maps.google.com/?cid=0x0:0xcd4b3514445feeb0
restaurant,Restoran,D'yanaandlngi,"P2G2+7HJ, Gamsungi, Kec. Tobelo, Kabupaten Halmahera Utara, Maluku Utara","Kabupaten Halmahera Utara, Maluku Utara",MALUKU UTARA,,Indonesia,81237638077.0,1.725721,128.001404,https://maps.google.com/?cid=0x0:0x545587c31eb7522c
restaurant,Kafe,PREDATOR Carwash  Cafe,"M2Q6+X8H, Lina Ino, Kec. Tobelo Tengah, Kabupaten Halmahera Utara, Maluku Utara","Kabupaten Halmahera Utara, Maluku Utara",MALUKU UTARA,,Indonesia,81399433332.0,1.6901403,128.0107795,https://maps.google.com/?cid=0x0:0xef0393b9dc3f1307
restaurant,Pasar,PASAR MODERN TOBELO,"P2C5+3R6, Gosoma, Kec. Tobelo, Kabupaten Halmahera Utara, Maluku Utara","Kabupaten Halmahera Utara, Maluku Utara",MALUKU UTARA,,Indonesia,81343722728.0,1.7192823,128.0095353,https://maps.google.com/?cid=0x0:0x8db25466b20f4b99
restaurant,Toko Roti,Dean bakery and resto,"Jl. Sengkanaung No.444, Gosoma, Kec. Tobelo, Kabupaten Halmahera Utara, Maluku Utara 97762","Gosoma, Kec. Tobelo, Kabupaten Halmahera Utara",MALUKU UTARA,97762.0,Indonesia,82125554858.0,1.7196792,128.0086185,https://maps.google.com/?cid=0x0:0x228e556543648ec8
restaurant,Pom bensin/SPBU,Depan SPBU Wosia,"P2G2+7HJ, Gamsungi, Kec. Tobelo, Kabupaten Halmahera Utara, Maluku Utara","Kabupaten Halmahera Utara, Maluku Utara",MALUKU UTARA,,Indonesia,,1.725721,128.001404,https://maps.google.com/?cid=0x0:0x588db492df2aa70b
restaurant,restaurant,Kec. Tobelo Bar.,"Kabupaten Halmahera Utara, Maluku Utara","Kabupaten Halmahera Utara, Maluku Utara",MALUKU UTARA,,Indonesia,,1.5410827,127.9493454,https://maps.google.com/?cid=0x0:0x253218d19bcb2a3e
restaurant,Kafe,Paddock Cafe  Resto Bulan Indah Tobelo,"P2F5+Q6R, Unnamed Road, Gosoma, Kec. Tobelo, Kabupaten Halmahera Utara, Maluku Utara","Kabupaten Halmahera Utara, Maluku Utara",MALUKU UTARA,,Indonesia,,1.7244976,128.0080228,https://maps.google.com/?cid=0x0:0x2f0933ebbf2047d1
restaurant,Hidangan Laut,Dabiloha Rumah Makan,"PX7W+2H5, Unnamed Road, Gosoma, Kec. Tobelo, Kabupaten Halmahera Utara, Maluku Utara","Kabupaten Halmahera Utara, Maluku Utara",MALUKU UTARA,,Indonesia,81382119634.0,1.712516,127.9964921,https://maps.google.com/?cid=0x0:0x486ab3d0f6a28720
restaurant,Hidangan Laut,Rumah Makan Chokent,"P2F6+QJQ, Gamsungi, Kec. Tobelo, Kabupaten Halmahera Utara, Maluku Utara","Kabupaten Halmahera Utara, Maluku Utara",MALUKU UTARA,,Indonesia,85146223636.0,1.7244736,128.0116017,https://maps.google.com/?cid=0x0:0xb2418c82a0f026be
restaurant,Restoran,Dabiloha Resort dan Restorant,"Desa Paca, Kec. Tobelo Sel., Kabupaten Halmahera Utara, Maluku Utara 96672","Kec. Tobelo Sel., Kabupaten Halmahera Utara",MALUKU UTARA,96672.0,Indonesia,81356063444.0,1.5746104,127.9493322,https://maps.google.com/?cid=0x0:0x670d88de50a1233a
restaurant,Hidangan Laut,SMORGAN Resto,"PXJV+JGQ, Jl. Pemerintahan, depan KODIM, Halut, Mkcm, Tobelo, North Halmahera Regency, North Maluku","Kabupaten Halmahera Utara, Maluku Utara",MALUKU UTARA,,Indonesia,85201115150.0,1.7315784,127.9938588,https://maps.google.com/?cid=0x0:0xd45d6fcd651f0c5c
restaurant,Bar Kopi Espresso,HOBATACOFFE,"GWWX+4WJ, Togoliua, Kec. Tobelo Bar., Kabupaten Halmahera Utara, Maluku Utara","Kabupaten Halmahera Utara, Maluku Utara",MALUKU UTARA,,Indonesia,82290056712.0,1.545334,127.9497757,https://maps.google.com/?cid=0x0:0x971ab3702b15fa61
restaurant,Restoran,RM. GUNUNG KLABAT di Kupa-kupa Tobelo,"Kupa Kupa, Kec. Tobelo Sel., Kabupaten Halmahera Utara, Maluku Utara","Kabupaten Halmahera Utara, Maluku Utara",MALUKU UTARA,,Indonesia,,1.6253944,127.9893772,https://maps.google.com/?cid=0x0:0x6d62794721cf037b
restaurant,Kafe,Valhalla Tobelo,"P2M3+3FW, Unnamed Road, Mkcm, Kec. Tobelo, Kabupaten Halmahera Utara, Maluku Utara 97762","Unnamed Road, Mkcm, Kec. Tobelo, Kabupaten Halmahera Utara",MALUKU UTARA,97762.0,Indonesia,81241101071.0,1.7327268,128.0036979,https://maps.google.com/?cid=0x0:0x27f3b89f5271ed95
restaurant,Restoran,Resto Kampoeng Planet,"Gamsungi, Kec. Tobelo, Kabupaten Halmahera Utara, Maluku Utara","Kabupaten Halmahera Utara, Maluku Utara",MALUKU UTARA,,Indonesia,,1.7217098,128.0116583,https://maps.google.com/?cid=0x0:0xd672ac9e681a6e5d
restaurant,Jepang,Sugoi japanese food,"GV4V+XFF, Kusuri, Kec. Tobelo Bar., Kabupaten Halmahera Utara, Maluku Utara","Kabupaten Halmahera Utara, Maluku Utara",MALUKU UTARA,,Indonesia,,1.5074308,127.8936663,https://maps.google.com/?cid=0x0:0x16520d84d7251718
restaurant,Rumah Makan,Kios VICTORY,"Jl. Trans Halmahera No.Km.28, Birinoa, Kec. Tobelo Bar., Kabupaten Halmahera Utara, Maluku Utara 97762","Birinoa, Kec. Tobelo Bar., Kabupaten Halmahera Utara",MALUKU UTARA,97762.0,Indonesia,85298637888.0,1.5208887,127.9350361,https://maps.google.com/?cid=0x0:0x65f9a31b1ec41b07
restaurant,Dapur Umum,RM JATIM Bu Bagus (à¶à·à¶¸à¶­à·à¶±à¶¸à· à¶à·à¶´à¶±à·),"JXFQ+PGJ, Kupa Kupa, Kec. Tobelo Sel., Kabupaten Halmahera Utara, Maluku Utara","Kabupaten Halmahera Utara, Maluku Utara",MALUKU UTARA,,Indonesia,,1.6248491,127.9892193,https://maps.google.com/?cid=0x0:0xaacdbddbeb5f4d8a
restaurant,Rumah Makan,La Meti Beach Club,"H342+RH, Meti, Kec. Tobelo Tim., Kabupaten Halmahera Utara, Maluku Utara","Kabupaten Halmahera Utara, Maluku Utara",MALUKU UTARA,,Indonesia,81319392624.0,1.5570596,128.0513798,https://maps.google.com/?cid=0x0:0xbb8dfd4d3f3f7553
restaurant,restaurant,Kec. Tobelo Sel.,"Kabupaten Halmahera Utara, Maluku Utara","Kabupaten Halmahera Utara, Maluku Utara",MALUKU UTARA,,Indonesia,,1.6281283,127.980575,https://maps.google.com/?cid=0x0:0x1ecb6049a3d26ca1
restaurant,Restoran,RM. GUNUNG KLABAT di Kupa-kupa Tobelo,"Kupa Kupa, Kec. Tobelo Sel., Kabupaten Halmahera Utara, Maluku Utara","Kabupaten Halmahera Utara, Maluku Utara",MALUKU UTARA,,Indonesia,,1.6253944,127.9893772,https://maps.google.com/?cid=0x0:0x6d62794721cf037b
restaurant,Hidangan Laut,SMORGAN Resto,"PXJV+JGQ, Jl. Pemerintahan, depan KODIM, Halut, Mkcm, Tobelo, North Halmahera Regency, North Maluku","Kabupaten Halmahera Utara, Maluku Utara",MALUKU UTARA,,Indonesia,85201115150.0,1.7315784,127.9938588,https://maps.google.com/?cid=0x0:0xd45d6fcd651f0c5c
restaurant,Restoran,Dabiloha Resort dan Restorant,"Desa Paca, Kec. Tobelo Sel., Kabupaten Halmahera Utara, Maluku Utara 96672","Kec. Tobelo Sel., Kabupaten Halmahera Utara",MALUKU UTARA,96672.0,Indonesia,81356063444.0,1.5746104,127.9493322,https://maps.google.com/?cid=0x0:0x670d88de50a1233a
restaurant,Dapur Umum,RM JATIM Bu Bagus (à¶à·à¶¸à¶­à·à¶±à¶¸à· à¶à·à¶´à¶±à·),"JXFQ+PGJ, Kupa Kupa, Kec. Tobelo Sel., Kabupaten Halmahera Utara, Maluku Utara","Kabupaten Halmahera Utara, Maluku Utara",MALUKU UTARA,,Indonesia,,1.6248491,127.9892193,https://maps.google.com/?cid=0x0:0xaacdbddbeb5f4d8a
restaurant,Ikan,Taâaga Paca Resort and Resto,"Talaga Paca, Kec. Tobelo Sel., Kabupaten Halmahera Utara, Maluku Utara","Kabupaten Halmahera Utara, Maluku Utara",MALUKU UTARA,,Indonesia,81237801085.0,1.5700471,127.9479857,https://maps.google.com/?cid=0x0:0x825b659d78d059a3
restaurant,Kafe,Paddock Cafe  Resto Bulan Indah Tobelo,"P2F5+Q6R, Unnamed Road, Gosoma, Kec. Tobelo, Kabupaten Halmahera Utara, Maluku Utara","Kabupaten Halmahera Utara, Maluku Utara",MALUKU UTARA,,Indonesia,,1.7244976,128.0080228,https://maps.google.com/?cid=0x0:0x2f0933ebbf2047d1
restaurant,Hidangan Laut,Rumah Makan Chokent,"P2F6+QJQ, Gamsungi, Kec. Tobelo, Kabupaten Halmahera Utara, Maluku Utara","Kabupaten Halmahera Utara, Maluku Utara",MALUKU UTARA,,Indonesia,85146223636.0,1.7244736,128.0116017,https://maps.google.com/?cid=0x0:0xb2418c82a0f026be
restaurant,Kafe,Valhalla Tobelo,"P2M3+3FW, Unnamed Road, Mkcm, Kec. Tobelo, Kabupaten Halmahera Utara, Maluku Utara 97762","Unnamed Road, Mkcm, Kec. Tobelo, Kabupaten Halmahera Utara",MALUKU UTARA,97762.0,Indonesia,81241101071.0,1.7327268,128.0036979,https://maps.google.com/?cid=0x0:0x27f3b89f5271ed95
restaurant,restaurant,Matara Bath kade,"JXGQ+66J, Kupa Kupa, Kec. Tobelo Sel., Kabupaten Halmahera Utara, Maluku Utara","Kabupaten Halmahera Utara, Maluku Utara",MALUKU UTARA,,Indonesia,,1.6255921,127.9880163,https://maps.google.com/?cid=0x0:0xe5a72852c1ed1187
restaurant,Restoran,Resto Kampoeng Planet,"Gamsungi, Kec. Tobelo, Kabupaten Halmahera Utara, Maluku Utara","Kabupaten Halmahera Utara, Maluku Utara",MALUKU UTARA,,Indonesia,,1.7217098,128.0116583,https://maps.google.com/?cid=0x0:0xd672ac9e681a6e5d
restaurant,Makanan Siap Saji,Marcel,"M2G2+R69, Upa, Kec. Tobelo Tengah, Kabupaten Halmahera Utara, Maluku Utara","Kabupaten Halmahera Utara, Maluku Utara",MALUKU UTARA,,Indonesia,,1.6776409,128.0008517,https://maps.google.com/?cid=0x0:0x60cf5ad76c7f0ce2
restaurant,Brunch,Kedai Mano Tobelo,"M2M5+PV7, Pitu, Kec. Tobelo Tengah, Kabupaten Halmahera Utara, Maluku Utara","Kabupaten Halmahera Utara, Maluku Utara",MALUKU UTARA,,Indonesia,81253105318.0,1.6842855,128.009662,https://maps.google.com/?cid=0x0:0x562a3ef109fbe9d9
restaurant,Bed >>u0026 Breakfast,Akkage Bath Kade,"JXGP+GV3, Kupa Kupa Sel., Kec. Tobelo Sel., Kabupaten Halmahera Utara, Maluku Utara","Kabupaten Halmahera Utara, Maluku Utara",MALUKU UTARA,,Indonesia,,1.6262841,127.9871591,https://maps.google.com/?cid=0x0:0x60b65858a9ee2a8c
restaurant,restaurant,Kec. Tobelo Tim.,"Kabupaten Halmahera Utara, Maluku Utara","Kabupaten Halmahera Utara, Maluku Utara",MALUKU UTARA,,Indonesia,,1.5702306,128.0348143,https://maps.google.com/?cid=0x0:0x3b948dd04e667beb
restaurant,Rumah Makan,La Meti Beach Club,"H342+RH, Meti, Kec. Tobelo Tim., Kabupaten Halmahera Utara, Maluku Utara","Kabupaten Halmahera Utara, Maluku Utara",MALUKU UTARA,,Indonesia,81319392624.0,1.5570596,128.0513798,https://maps.google.com/?cid=0x0:0xbb8dfd4d3f3f7553
restaurant,Hidangan Laut,Dabiloha Rumah Makan,"PX7W+2H5, Unnamed Road, Gosoma, Kec. Tobelo, Kabupaten Halmahera Utara, Maluku Utara","Kabupaten Halmahera Utara, Maluku Utara",MALUKU UTARA,,Indonesia,81382119634.0,1.712516,127.9964921,https://maps.google.com/?cid=0x0:0x486ab3d0f6a28720
restaurant,Hidangan Laut,SMORGAN Resto,"PXJV+JGQ, Jl. Pemerintahan, depan KODIM, Halut, Mkcm, Tobelo, North Halmahera Regency, North Maluku","Kabupaten Halmahera Utara, Maluku Utara",MALUKU UTARA,,Indonesia,85201115150.0,1.7315784,127.9938588,https://maps.google.com/?cid=0x0:0xd45d6fcd651f0c5c
restaurant,Hidangan Laut,Rumah Makan Chokent,"P2F6+QJQ, Gamsungi, Kec. Tobelo, Kabupaten Halmahera Utara, Maluku Utara","Kabupaten Halmahera Utara, Maluku Utara",MALUKU UTARA,,Indonesia,85146223636.0,1.7244736,128.0116017,https://maps.google.com/?cid=0x0:0xb2418c82a0f026be
restaurant,Ikan,Taâaga Paca Resort and Resto,"Talaga Paca, Kec. Tobelo Sel., Kabupaten Halmahera Utara, Maluku Utara","Kabupaten Halmahera Utara, Maluku Utara",MALUKU UTARA,,Indonesia,81237801085.0,1.5700471,127.9479857,https://maps.google.com/?cid=0x0:0x825b659d78d059a3
restaurant,Restoran,RM. GUNUNG KLABAT di Kupa-kupa Tobelo,"Kupa Kupa, Kec. Tobelo Sel., Kabupaten Halmahera Utara, Maluku Utara","Kabupaten Halmahera Utara, Maluku Utara",MALUKU UTARA,,Indonesia,,1.6253944,127.9893772,https://maps.google.com/?cid=0x0:0x6d62794721cf037b
restaurant,Restoran,Resto Kampoeng Planet,"Gamsungi, Kec. Tobelo, Kabupaten Halmahera Utara, Maluku Utara","Kabupaten Halmahera Utara, Maluku Utara",MALUKU UTARA,,Indonesia,,1.7217098,128.0116583,https://maps.google.com/?cid=0x0:0xd672ac9e681a6e5d
restaurant,Restoran,Dabiloha Resort dan Restorant,"Desa Paca, Kec. Tobelo Sel., Kabupaten Halmahera Utara, Maluku Utara 96672","Kec. Tobelo Sel., Kabupaten Halmahera Utara",MALUKU UTARA,96672.0,Indonesia,81356063444.0,1.5746104,127.9493322,https://maps.google.com/?cid=0x0:0x670d88de50a1233a
restaurant,Dapur Umum,RM JATIM Bu Bagus (à¶à·à¶¸à¶­à·à¶±à¶¸à· à¶à·à¶´à¶±à·),"JXFQ+PGJ, Kupa Kupa, Kec. Tobelo Sel., Kabupaten Halmahera Utara, Maluku Utara","Kabupaten Halmahera Utara, Maluku Utara",MALUKU UTARA,,Indonesia,,1.6248491,127.9892193,https://maps.google.com/?cid=0x0:0xaacdbddbeb5f4d8a
restaurant,Bar Kopi Espresso,HOBATACOFFE,"GWWX+4WJ, Togoliua, Kec. Tobelo Bar., Kabupaten Halmahera Utara, Maluku Utara","Kabupaten Halmahera Utara, Maluku Utara",MALUKU UTARA,,Indonesia,82290056712.0,1.545334,127.9497757,https://maps.google.com/?cid=0x0:0x971ab3702b15fa61
restaurant,Brunch,Delfi Tobelo timur,"H29X+9H, Meti, Kabupaten Halmahera Utara, Maluku Utara","Kabupaten Halmahera Utara, Maluku Utara",MALUKU UTARA,,Indonesia,,1.5684375,128.0489375,https://maps.google.com/?cid=0x0:0xd4444235e484c5b
restaurant,restaurant,Matara Bath kade,"JXGQ+66J, Kupa Kupa, Kec. Tobelo Sel., Kabupaten Halmahera Utara, Maluku Utara","Kabupaten Halmahera Utara, Maluku Utara",MALUKU UTARA,,Indonesia,,1.6255921,127.9880163,https://maps.google.com/?cid=0x0:0xe5a72852c1ed1187
restaurant,Rumah Makan,Kios Frigia,"JX4C+9F4, Tobe, Kec. Tobelo Sel., Kabupaten Halmahera Utara, Maluku Utara","Kabupaten Halmahera Utara, Maluku Utara",MALUKU UTARA,,Indonesia,82216413860.0,1.6058891,127.9712009,https://maps.google.com/?cid=0x0:0xc11be26888de8e9d
restaurant,restaurant,Kec. Tobelo Tengah,"Kabupaten Halmahera Utara, Maluku Utara","Kabupaten Halmahera Utara, Maluku Utara",MALUKU UTARA,,Indonesia,,1.7074794,128.0127501,https://maps.google.com/?cid=0x0:0xef293bed1374db12
restaurant,Hidangan Laut,My Home Cafe,"P2G2+3H9, Gamsungi, Kec. Tobelo, Kabupaten Halmahera Utara, Maluku Utara","Kabupaten Halmahera Utara, Maluku Utara",MALUKU UTARA,,Indonesia,85343525801.0,1.7251747,128.001496,https://maps.google.com/?cid=0x0:0xcc09f0deb710ba0b
restaurant,Padang,Restoran Sari Bundo,"P2C5+H7F, Jl. Ahmad Dahlan, Gosoma, Kec. Tobelo, Kabupaten Halmahera Utara, Maluku Utara","Kabupaten Halmahera Utara, Maluku Utara",MALUKU UTARA,,Indonesia,,1.721436,128.0081832,https://maps.google.com/?cid=0x0:0xb83a3ddae3940fe4
restaurant,Hidangan Laut,Dabiloha Rumah Makan,"PX7W+2H5, Unnamed Road, Gosoma, Kec. Tobelo, Kabupaten Halmahera Utara, Maluku Utara","Kabupaten Halmahera Utara, Maluku Utara",MALUKU UTARA,,Indonesia,81382119634.0,1.712516,127.9964921,https://maps.google.com/?cid=0x0:0x486ab3d0f6a28720
restaurant,Restoran,Garuda resto  Cafe,"P234+GJC, WKO, Kec. Tobelo Tengah, Kabupaten Halmahera Utara, Maluku Utara","Kabupaten Halmahera Utara, Maluku Utara",MALUKU UTARA,,Indonesia,,1.7037991,128.0065131,https://maps.google.com/?cid=0x0:0x6f1fde836d90ad92
restaurant,Kafe,Paddock Cafe  Resto Bulan Indah Tobelo,"P2F5+Q6R, Unnamed Road, Gosoma, Kec. Tobelo, Kabupaten Halmahera Utara, Maluku Utara","Kabupaten Halmahera Utara, Maluku Utara",MALUKU UTARA,,Indonesia,,1.7244976,128.0080228,https://maps.google.com/?cid=0x0:0x2f0933ebbf2047d1
restaurant,restaurant,Ling's Kitchen,"P233+VPX, WKO, Kec. Tobelo Tengah, Kabupaten Halmahera Utara, Maluku Utara","Kabupaten Halmahera Utara, Maluku Utara",MALUKU UTARA,,Indonesia,82214687170.0,1.7047355,128.0043546,https://maps.google.com/?cid=0x0:0xf3777d4603f29981
restaurant,Rumah Makan,RM MK99 gosoma,"Jl. Kemakmuran, Wosia, Kec. Tobelo, Kabupaten Halmahera Utara, Maluku Utara 97762","Wosia, Kec. Tobelo, Kabupaten Halmahera Utara",MALUKU UTARA,97762.0,Indonesia,,1.7140473,128.0103035,https://maps.google.com/?cid=0x0:0x7c08885000dd849d
restaurant,Restoran,Resto Kampoeng Planet,"Gamsungi, Kec. Tobelo, Kabupaten Halmahera Utara, Maluku Utara","Kabupaten Halmahera Utara, Maluku Utara",MALUKU UTARA,,Indonesia,,1.7217098,128.0116583,https://maps.google.com/?cid=0x0:0xd672ac9e681a6e5d
restaurant,Hidangan Laut,Rumah Makan Chokent,"P2F6+QJQ, Gamsungi, Kec. Tobelo, Kabupaten Halmahera Utara, Maluku Utara","Kabupaten Halmahera Utara, Maluku Utara",MALUKU UTARA,,Indonesia,85146223636.0,1.7244736,128.0116017,https://maps.google.com/?cid=0x0:0xb2418c82a0f026be
restaurant,Hidangan Laut,SMORGAN Resto,"PXJV+JGQ, Jl. Pemerintahan, depan KODIM, Halut, Mkcm, Tobelo, North Halmahera Regency, North Maluku","Kabupaten Halmahera Utara, Maluku Utara",MALUKU UTARA,,Indonesia,85201115150.0,1.7315784,127.9938588,https://maps.google.com/?cid=0x0:0xd45d6fcd651f0c5c
restaurant,Restoran,RM. TARAKANI,"P245+J3Q, WKO, Kec. Tobelo Tengah, Kabupaten Halmahera Utara, Maluku Utara","Kabupaten Halmahera Utara, Maluku Utara",MALUKU UTARA,,Indonesia,,1.7065981,128.0077319,https://maps.google.com/?cid=0x0:0xdd5585ba2e2e719c
restaurant,Hidangan Laut,RM. Sea Food Sumber Rejeki,"P276+56W, Gosoma, Kec. Tobelo, Kabupaten Halmahera Utara, Maluku Utara","Kabupaten Halmahera Utara, Maluku Utara",MALUKU UTARA,,Indonesia,82292055765.0,1.7129759,128.010564,https://maps.google.com/?cid=0x0:0x15a9d9ec43f25d08
restaurant,Dapur Umum,Rm . PUTRA SOLO,"P2C6+CHX, Rawajaya, Kec. Tobelo, Kabupaten Halmahera Utara, Maluku Utara","Kabupaten Halmahera Utara, Maluku Utara",MALUKU UTARA,,Indonesia,81380465995.0,1.7211048,128.0114815,https://maps.google.com/?cid=0x0:0xec0c22ad5a7c0a23
restaurant,restaurant,Kec. Tobelo Utara,"Kabupaten Halmahera Utara, Maluku Utara","Kabupaten Halmahera Utara, Maluku Utara",MALUKU UTARA,,Indonesia,,1.7634729,127.9819399,https://maps.google.com/?cid=0x0:0xd08db8115ea8b44b
restaurant,Hidangan Laut,My Home Cafe,"P2G2+3H9, Gamsungi, Kec. Tobelo, Kabupaten Halmahera Utara, Maluku Utara","Kabupaten Halmahera Utara, Maluku Utara",MALUKU UTARA,,Indonesia,85343525801.0,1.7251747,128.001496,https://maps.google.com/?cid=0x0:0xcc09f0deb710ba0b
restaurant,Kafe,Paddock Cafe  Resto Bulan Indah Tobelo,"P2F5+Q6R, Unnamed Road, Gosoma, Kec. Tobelo, Kabupaten Halmahera Utara, Maluku Utara","Kabupaten Halmahera Utara, Maluku Utara",MALUKU UTARA,,Indonesia,,1.7244976,128.0080228,https://maps.google.com/?cid=0x0:0x2f0933ebbf2047d1
restaurant,Padang,Restoran Sari Bundo,"P2C5+H7F, Jl. Ahmad Dahlan, Gosoma, Kec. Tobelo, Kabupaten Halmahera Utara, Maluku Utara","Kabupaten Halmahera Utara, Maluku Utara",MALUKU UTARA,,Indonesia,,1.721436,128.0081832,https://maps.google.com/?cid=0x0:0xb83a3ddae3940fe4
restaurant,Hidangan Laut,Dabiloha Rumah Makan,"PX7W+2H5, Unnamed Road, Gosoma, Kec. Tobelo, Kabupaten Halmahera Utara, Maluku Utara","Kabupaten Halmahera Utara, Maluku Utara",MALUKU UTARA,,Indonesia,81382119634.0,1.712516,127.9964921,https://maps.google.com/?cid=0x0:0x486ab3d0f6a28720
restaurant,Makanan Sehat,JANGKAR SEAFOOD TOBELO,"P276+68P, Wosia, Kec. Tobelo Tengah, Kabupaten Halmahera Utara, Maluku Utara","Kabupaten Halmahera Utara, Maluku Utara",MALUKU UTARA,,Indonesia,,1.7130956,128.0108211,https://maps.google.com/?cid=0x0:0x3071b86862425f4a
restaurant,Hidangan Laut,SMORGAN Resto,"PXJV+JGQ, Jl. Pemerintahan, depan KODIM, Halut, Mkcm, Tobelo, North Halmahera Regency, North Maluku","Kabupaten Halmahera Utara, Maluku Utara",MALUKU UTARA,,Indonesia,85201115150.0,1.7315784,127.9938588,https://maps.google.com/?cid=0x0:0xd45d6fcd651f0c5c
restaurant,Hidangan Laut,Rumah Makan Chokent,"P2F6+QJQ, Gamsungi, Kec. Tobelo, Kabupaten Halmahera Utara, Maluku Utara","Kabupaten Halmahera Utara, Maluku Utara",MALUKU UTARA,,Indonesia,85146223636.0,1.7244736,128.0116017,https://maps.google.com/?cid=0x0:0xb2418c82a0f026be
restaurant,Ikan Bakar,RM BAROKAH,"P2G6+X28, Gamsungi, Kec. Tobelo, Kabupaten Halmahera Utara, Maluku Utara","Kabupaten Halmahera Utara, Maluku Utara",MALUKU UTARA,,Indonesia,81358136596.0,1.7274061,128.0100728,https://maps.google.com/?cid=0x0:0xb2377d6ce96e910c
restaurant,Restoran,Rumah Makan Waroeng Family,"P2G6+MHJ, Gamsungi, Kec. Tobelo, Kabupaten Halmahera Utara, Maluku Utara","Kabupaten Halmahera Utara, Maluku Utara",MALUKU UTARA,,Indonesia,,1.726702,128.0114052,https://maps.google.com/?cid=0x0:0x74d7f143d284dbc9
restaurant,Kafe,Valhalla Tobelo,"P2M3+3FW, Unnamed Road, Mkcm, Kec. Tobelo, Kabupaten Halmahera Utara, Maluku Utara 97762","Unnamed Road, Mkcm, Kec. Tobelo, Kabupaten Halmahera Utara",MALUKU UTARA,97762.0,Indonesia,81241101071.0,1.7327268,128.0036979,https://maps.google.com/?cid=0x0:0x27f3b89f5271ed95
restaurant,Restoran,RM.PODO MORO,"P2H6+989, Gamsungi, Kec. Tobelo, Kabupaten Halmahera Utara, Maluku Utara","Kabupaten Halmahera Utara, Maluku Utara",MALUKU UTARA,,Indonesia,81356726888.0,1.7284088,128.0108721,https://maps.google.com/?cid=0x0:0xef8c91a24337e1b9
restaurant,Restoran,Resto Kampoeng Planet,"Gamsungi, Kec. Tobelo, Kabupaten Halmahera Utara, Maluku Utara","Kabupaten Halmahera Utara, Maluku Utara",MALUKU UTARA,,Indonesia,,1.7217098,128.0116583,https://maps.google.com/?cid=0x0:0xd672ac9e681a6e5d
restaurant,Rumah Makan,RM MK99 gosoma,"Jl. Kemakmuran, Wosia, Kec. Tobelo, Kabupaten Halmahera Utara, Maluku Utara 97762","Wosia, Kec. Tobelo, Kabupaten Halmahera Utara",MALUKU UTARA,97762.0,Indonesia,,1.7140473,128.0103035,https://maps.google.com/?cid=0x0:0x7c08885000dd849d
