Category,Real Category,Business Name,Address,City,State,Postal Code,Country,Phone,Latitude,Longitude,Map Link
toko bangunan,toko bangunan,Kec. Galela,"Kabupaten Halmahera Utara, Maluku Utara","Kabupaten Halmahera Utara, Maluku Utara",MALUKU UTARA,,Indonesia,,1.7991745,127.9013278,https://maps.google.com/?cid=0x0:0x6d037a5832cde2d7
toko bangunan,Toko bahan makanan,Tokoh Makka,"RRFR+RR9, Towara, Kec. Galela, Kabupaten Halmahera Utara, Maluku Utara","Kabupaten Halmahera Utara, Maluku Utara",MALUKU UTARA,,Indonesia,82187603402.0,1.8245432,127.8421085,https://maps.google.com/?cid=0x0:0xf22837f0d569e911
toko bangunan,Pemasok Bahan Bangunan,Toko Bangunan Galala Jaya,"9FCH+VVQ, Unnamed Road, Labuha, Kec. Bacan, Kabupaten Halmahera Selatan, Maluku Utara","Kabupaten Halmahera Selatan, Maluku Utara",MALUKU UTARA,,Indonesia,82144648989.0,-0.6277816,127.479737,https://maps.google.com/?cid=0x0:0x5b501b3fc834679d
toko bangunan,Pasar bahan bangunan,Toko Sumber Bangunan,"P2G6+2MM, Gamsungi, Kec. Tobelo, Kabupaten Halmahera Utara, Maluku Utara","Kabupaten Halmahera Utara, Maluku Utara",MALUKU UTARA,,Indonesia,9242621455.0,1.7250967,128.0116677,https://maps.google.com/?cid=0x0:0x14835095227102f4
toko bangunan,Toko umum,Toko Ambarak Mandiri,"RT.04/RW.02, Ori, Kec. Galela Sel., Kabupaten Halmahera Utara, Maluku Utara 97769","Ori, Kec. Galela Sel., Kabupaten Halmahera Utara",MALUKU UTARA,97769.0,Indonesia,81356438215.0,1.8191134,127.7973451,https://maps.google.com/?cid=0x0:0x69cad7e76dd458d8
toko bangunan,Toko Bahan Bangunan,Toko Bangunan SENTOSA,"P266+52G O.Sasingan, Wosia, Kec. Tobelo Tengah, Kabupaten Halmahera Utara, Maluku Utara","Kabupaten Halmahera Utara, Maluku Utara",MALUKU UTARA,,Indonesia,82144648989.0,1.7104491,128.0100684,https://maps.google.com/?cid=0x0:0xe043f9c8ba78bb16
toko bangunan,Toko Perlengkapan Rumah,Toko jaya abadi mkcm,"PXPW+56V, Mkcm, Kec. Tobelo, Kabupaten Halmahera Utara, Maluku Utara","Kabupaten Halmahera Utara, Maluku Utara",MALUKU UTARA,,Indonesia,85167702404.0,1.7354805,127.995553,https://maps.google.com/?cid=0x0:0xa4fec3e5341adca2
toko bangunan,Toko Bahan Bangunan,Toko Sejati Bangunan,"Jalan Raya Wosia, Depan Saro Nifero, Samping Dealer Honda CV.Lion, Mahia, Kec. Tobelo, Maluku Utara 97762","Depan Saro Nifero, Samping Dealer Honda CV.Lion, Mahia, Kec. Tobelo",MALUKU UTARA,97762.0,Indonesia,82195215789.0,1.7063845,128.0084905,https://maps.google.com/?cid=0x0:0xe07acc47d25781c8
toko bangunan,Toko Perlengkapan Rumah,Tk.Mulia Jaya,"P2F2+WQ7, Gamsungi, Kec. Tobelo, Kabupaten Halmahera Utara, Maluku Utara","Kabupaten Halmahera Utara, Maluku Utara",MALUKU UTARA,,Indonesia,,1.7247757,128.0019201,https://maps.google.com/?cid=0x0:0x98deffa82d6d06d5
toko bangunan,Toko Bahan Bangunan,Toko Surya Jaya - Labuha,"9FCJ+69H, Unnamed Road, Labuha, Kec. Bacan, Kabupaten Halmahera Selatan, Maluku Utara","Kabupaten Halmahera Selatan, Maluku Utara",MALUKU UTARA,,Indonesia,9272321732.0,-0.6294262,127.4809969,https://maps.google.com/?cid=0x0:0xdad7b98c88e223e3
toko bangunan,Toko Bahan Bangunan,Tela Cirari,"JL. Pelabuhan Feri, RT. 01 RW. 01, Gorua Utara, Gorua Utara, Kec. Tobelo Utara, Kabupaten Halmahera Utara, Maluku Utara","Kabupaten Halmahera Utara, Maluku Utara",MALUKU UTARA,,Indonesia,85398184029.0,1.76562,127.977279,https://maps.google.com/?cid=0x0:0x6d25dbd390278010
toko bangunan,Toko Bahan Bangunan,Makmur Utama Supermarket Bahan bangunan,"Tj. Niara, Kec. Tobelo Tengah, Kabupaten Halmahera Utara, Maluku Utara","Kabupaten Halmahera Utara, Maluku Utara",MALUKU UTARA,,Indonesia,85117420324.0,1.7019679,128.0155893,https://maps.google.com/?cid=0x0:0x47ecdf114648cbc2
toko bangunan,Toko,TOKO INTI SARI,"Fidi Jaya, Kec. Weda Tengah, Kabupaten Halmahera Tengah, Maluku Utara","Kabupaten Halmahera Tengah, Maluku Utara",MALUKU UTARA,,Indonesia,,0.3366249,127.8744101,https://maps.google.com/?cid=0x0:0xdc47236c2f0e15c7
toko bangunan,toko bangunan,Kec. Galela Bar.,"Kabupaten Halmahera Utara, Maluku Utara","Kabupaten Halmahera Utara, Maluku Utara",MALUKU UTARA,,Indonesia,,1.8258564,127.7917991,https://maps.google.com/?cid=0x0:0x6883a71e285c2680
toko bangunan,Toko umum,Toko Ambarak Mandiri,"RT.04/RW.02, Ori, Kec. Galela Sel., Kabupaten Halmahera Utara, Maluku Utara 97769","Ori, Kec. Galela Sel., Kabupaten Halmahera Utara",MALUKU UTARA,97769.0,Indonesia,81356438215.0,1.8191134,127.7973451,https://maps.google.com/?cid=0x0:0x69cad7e76dd458d8
toko bangunan,Toko bahan makanan,Tokoh Makka,"RRFR+RR9, Towara, Kec. Galela, Kabupaten Halmahera Utara, Maluku Utara","Kabupaten Halmahera Utara, Maluku Utara",MALUKU UTARA,,Indonesia,82187603402.0,1.8245432,127.8421085,https://maps.google.com/?cid=0x0:0xf22837f0d569e911
toko bangunan,Toko,Toko bangunan luari,"PRC7+QV6, Luari, Kec. Tobelo Utara, Kabupaten Halmahera Utara, Maluku Utara","Kabupaten Halmahera Utara, Maluku Utara",MALUKU UTARA,,Indonesia,,1.7219214,127.8146457,https://maps.google.com/?cid=0x0:0x9e7e9ac899bb8d1
toko bangunan,toko bangunan,Kec. Galela Sel.,"Kabupaten Halmahera Utara, Maluku Utara","Kabupaten Halmahera Utara, Maluku Utara",MALUKU UTARA,,Indonesia,,1.8095298,127.8098621,https://maps.google.com/?cid=0x0:0xd54700cacb22b110
toko bangunan,Pemasok Bahan Bangunan,Toko Bangunan Galala Jaya,"9FCH+VVQ, Unnamed Road, Labuha, Kec. Bacan, Kabupaten Halmahera Selatan, Maluku Utara","Kabupaten Halmahera Selatan, Maluku Utara",MALUKU UTARA,,Indonesia,82144648989.0,-0.6277816,127.479737,https://maps.google.com/?cid=0x0:0x5b501b3fc834679d
toko bangunan,Toko umum,Toko Ambarak Mandiri,"RT.04/RW.02, Ori, Kec. Galela Sel., Kabupaten Halmahera Utara, Maluku Utara 97769","Ori, Kec. Galela Sel., Kabupaten Halmahera Utara",MALUKU UTARA,97769.0,Indonesia,81356438215.0,1.8191134,127.7973451,https://maps.google.com/?cid=0x0:0x69cad7e76dd458d8
toko bangunan,Toko bahan makanan,Tokoh Makka,"RRFR+RR9, Towara, Kec. Galela, Kabupaten Halmahera Utara, Maluku Utara","Kabupaten Halmahera Utara, Maluku Utara",MALUKU UTARA,,Indonesia,82187603402.0,1.8245432,127.8421085,https://maps.google.com/?cid=0x0:0xf22837f0d569e911
toko bangunan,Pemasok Bahan Bangunan,Toko Bangunan Galala Jaya,"9FCH+VVQ, Unnamed Road, Labuha, Kec. Bacan, Kabupaten Halmahera Selatan, Maluku Utara","Kabupaten Halmahera Selatan, Maluku Utara",MALUKU UTARA,,Indonesia,82144648989.0,-0.6277816,127.479737,https://maps.google.com/?cid=0x0:0x5b501b3fc834679d
toko bangunan,toko bangunan,Kec. Galela Utara,"Kabupaten Halmahera Utara, Maluku Utara","Kabupaten Halmahera Utara, Maluku Utara",MALUKU UTARA,,Indonesia,,2.0151873,127.9497063,https://maps.google.com/?cid=0x0:0x6378f017549179ee
toko bangunan,Toko Bahan Bangunan,Toko Bangunan SENTOSA,"P266+52G O.Sasingan, Wosia, Kec. Tobelo Tengah, Kabupaten Halmahera Utara, Maluku Utara","Kabupaten Halmahera Utara, Maluku Utara",MALUKU UTARA,,Indonesia,82144648989.0,1.7104491,128.0100684,https://maps.google.com/?cid=0x0:0xe043f9c8ba78bb16
toko bangunan,Toko Perlengkapan Rumah,Toko jaya abadi mkcm,"PXPW+56V, Mkcm, Kec. Tobelo, Kabupaten Halmahera Utara, Maluku Utara","Kabupaten Halmahera Utara, Maluku Utara",MALUKU UTARA,,Indonesia,85167702404.0,1.7354805,127.995553,https://maps.google.com/?cid=0x0:0xa4fec3e5341adca2
toko bangunan,Toko Bahan Bangunan,Toko Sejati Bangunan,"Jalan Raya Wosia, Depan Saro Nifero, Samping Dealer Honda CV.Lion, Mahia, Kec. Tobelo, Maluku Utara 97762","Depan Saro Nifero, Samping Dealer Honda CV.Lion, Mahia, Kec. Tobelo",MALUKU UTARA,97762.0,Indonesia,82195215789.0,1.7063845,128.0084905,https://maps.google.com/?cid=0x0:0xe07acc47d25781c8
toko bangunan,toko bangunan,Rumah akong cun,"RRFV+PRV, Soa Sio, Kec. Galela, Kabupaten Halmahera Utara, Maluku Utara","Kabupaten Halmahera Utara, Maluku Utara",MALUKU UTARA,,Indonesia,,1.824391,127.8446276,https://maps.google.com/?cid=0x0:0xf1bd784f570f844b
toko bangunan,Toko Perlengkapan Rumah,Tk.Mulia Jaya,"P2F2+WQ7, Gamsungi, Kec. Tobelo, Kabupaten Halmahera Utara, Maluku Utara","Kabupaten Halmahera Utara, Maluku Utara",MALUKU UTARA,,Indonesia,,1.7247757,128.0019201,https://maps.google.com/?cid=0x0:0x98deffa82d6d06d5
toko bangunan,Toko Perlengkapan Rumah,Toko duang ( bangunan),"H28M+GXJ, Todokuiha, Kec. Tobelo Tim., Kabupaten Halmahera Utara, Maluku Utara","Kabupaten Halmahera Utara, Maluku Utara",MALUKU UTARA,,Indonesia,,1.5664975,128.035246,https://maps.google.com/?cid=0x0:0x2a5d78d81d3b95a
toko bangunan,toko bangunan,Kec. Kao,"Kabupaten Halmahera Utara, Maluku Utara","Kabupaten Halmahera Utara, Maluku Utara",MALUKU UTARA,,Indonesia,,1.1658407,127.9007494,https://maps.google.com/?cid=0x0:0xf94b0d160a93d5c4
toko bangunan,Toko,RR KAO,"Kao, Kec. Kao, Kabupaten Halmahera Utara, Maluku Utara 97764","Kec. Kao, Kabupaten Halmahera Utara",MALUKU UTARA,97764.0,Indonesia,81219508100.0,1.1680813,127.9011738,https://maps.google.com/?cid=0x0:0xa6874d3520974b65
toko bangunan,Komplek perumahan,Tela Pres Manohara,"JL. Trans Tobelo, RT. 02, Biang, Biang, Kec. Kao, Kabupaten Halmahera Utara, Maluku Utara","Kabupaten Halmahera Utara, Maluku Utara",MALUKU UTARA,,Indonesia,82197074235.0,1.2437877,127.9448627,https://maps.google.com/?cid=0x0:0xd80c746c0f0bbf90
toko bangunan,Toko Perlengkapan Rumah,TOKO Bahan Bangunan Bobohoo,"Unnamed Road, Soa Gimalaha, Kec. Kota Maba, Kabupaten Halmahera Timur, Maluku Utara","Kabupaten Halmahera Timur, Maluku Utara",MALUKU UTARA,,Indonesia,82344091888.0,0.6902266,128.2950041,https://maps.google.com/?cid=0x0:0x4372c85023912b79
toko bangunan,Pasar bahan bangunan,Toko Sumber Bangunan,"P2G6+2MM, Gamsungi, Kec. Tobelo, Kabupaten Halmahera Utara, Maluku Utara","Kabupaten Halmahera Utara, Maluku Utara",MALUKU UTARA,,Indonesia,9242621455.0,1.7250967,128.0116677,https://maps.google.com/?cid=0x0:0x14835095227102f4
toko bangunan,Toko Bahan Bangunan,toko bangunan ko hen,"56W9+R29, Unnamed Road, Tutuling Jaya, Kec. Wasile Tim., Kabupaten Halmahera Timur, Maluku Utara","Kabupaten Halmahera Timur, Maluku Utara",MALUKU UTARA,,Indonesia,82282044150.0,1.1970495,128.2176185,https://maps.google.com/?cid=0x0:0xbfcecb96ec1aeb86
toko bangunan,Toko Bahan Bangunan,Toko Bangunan SENTOSA,"P266+52G O.Sasingan, Wosia, Kec. Tobelo Tengah, Kabupaten Halmahera Utara, Maluku Utara","Kabupaten Halmahera Utara, Maluku Utara",MALUKU UTARA,,Indonesia,82144648989.0,1.7104491,128.0100684,https://maps.google.com/?cid=0x0:0xe043f9c8ba78bb16
toko bangunan,Toko umum,TOKO BANGUNAN ALDAFIQ,"Jln trans, Kuntum Mekar, Kec. Kao Tlk., Kabupaten Halmahera Utara, Maluku Utara","Kabupaten Halmahera Utara, Maluku Utara",MALUKU UTARA,,Indonesia,85255457737.0,1.0571478,127.6968002,https://maps.google.com/?cid=0x0:0xbd45128e560c144d
toko bangunan,Toko Perlengkapan Rumah,Toko jaya abadi mkcm,"PXPW+56V, Mkcm, Kec. Tobelo, Kabupaten Halmahera Utara, Maluku Utara","Kabupaten Halmahera Utara, Maluku Utara",MALUKU UTARA,,Indonesia,85167702404.0,1.7354805,127.995553,https://maps.google.com/?cid=0x0:0xa4fec3e5341adca2
toko bangunan,Toko Bahan Bangunan,Toko Surya Jaya - Labuha,"9FCJ+69H, Unnamed Road, Labuha, Kec. Bacan, Kabupaten Halmahera Selatan, Maluku Utara","Kabupaten Halmahera Selatan, Maluku Utara",MALUKU UTARA,,Indonesia,9272321732.0,-0.6294262,127.4809969,https://maps.google.com/?cid=0x0:0xdad7b98c88e223e3
toko bangunan,Toko,Toko Maba Bangunan,"M7WM+MHQ, Unnamed Road, Maba Sangaji, Kec. Kota Maba, Kabupaten Halmahera Timur, Maluku Utara","Kabupaten Halmahera Timur, Maluku Utara",MALUKU UTARA,,Indonesia,82187925434.0,0.6967101,128.2839897,https://maps.google.com/?cid=0x0:0xb5997f32a3da9b72
toko bangunan,Toko Bahan Bangunan,Toko Mitra Bangunan,"Jl. Pahlawan Revolusi No.3, Muhajirin, Kec. Ternate Tengah, Kota Ternate, Maluku Utara 97721","Muhajirin, Kec. Ternate Tengah, Kota Ternate",MALUKU UTARA,97721.0,Indonesia,8124217777.0,0.7863051,127.3886452,https://maps.google.com/?cid=0x0:0x182c1f07e66842a
toko bangunan,toko bangunan,Kec. Kao Bar.,"Kabupaten Halmahera Utara, Maluku Utara","Kabupaten Halmahera Utara, Maluku Utara",MALUKU UTARA,,Indonesia,,1.3826535,127.7854236,https://maps.google.com/?cid=0x0:0xf7afe1ef0f20eafa
toko bangunan,Toko,Toko serba ada,"9RV3+3VH, Makarti, Kec. Kao Bar., Kabupaten Halmahera Utara, Maluku Utara","Kabupaten Halmahera Utara, Maluku Utara",MALUKU UTARA,,Indonesia,,1.39268,127.8047219,https://maps.google.com/?cid=0x0:0x9fdf32faae8185f0
toko bangunan,Toko Bahan Bangunan,Toko Citra Bangunan,"5R5J+7W9, Ngofabobawa, Kec. Malifut, Kabupaten Halmahera Utara, Maluku Utara","Kabupaten Halmahera Utara, Maluku Utara",MALUKU UTARA,,Indonesia,,1.1581715,127.8323707,https://maps.google.com/?cid=0x0:0xc615b5096c177e7e
toko bangunan,Pasar bahan bangunan,Toko Sumber Bangunan,"P2G6+2MM, Gamsungi, Kec. Tobelo, Kabupaten Halmahera Utara, Maluku Utara","Kabupaten Halmahera Utara, Maluku Utara",MALUKU UTARA,,Indonesia,9242621455.0,1.7250967,128.0116677,https://maps.google.com/?cid=0x0:0x14835095227102f4
toko bangunan,Toko Bahan Bangunan,Toko.Boekit Bangunan,"3FQG+659, Acango, Kec. Jailolo, Kabupaten Halmahera Barat, Maluku Utara","Kabupaten Halmahera Barat, Maluku Utara",MALUKU UTARA,,Indonesia,85166903897.0,1.0882582,127.4754115,https://maps.google.com/?cid=0x0:0x88096a93b702388e
toko bangunan,Toko,Fajar bangunan,"Jalan, Hatebicara, Kec. Jailolo, Kabupaten Halmahera Barat, Maluku Utara","Kabupaten Halmahera Barat, Maluku Utara",MALUKU UTARA,,Indonesia,8971539577.0,1.0822391,127.4752556,https://maps.google.com/?cid=0x0:0xe063b30107b4c80b
toko bangunan,Toko Perlengkapan Rumah,TOKO Bahan Bangunan Bobohoo,"Unnamed Road, Soa Gimalaha, Kec. Kota Maba, Kabupaten Halmahera Timur, Maluku Utara","Kabupaten Halmahera Timur, Maluku Utara",MALUKU UTARA,,Indonesia,82344091888.0,0.6902266,128.2950041,https://maps.google.com/?cid=0x0:0x4372c85023912b79
toko bangunan,Toko Bahan Bangunan,Toko Bangunan SENTOSA,"P266+52G O.Sasingan, Wosia, Kec. Tobelo Tengah, Kabupaten Halmahera Utara, Maluku Utara","Kabupaten Halmahera Utara, Maluku Utara",MALUKU UTARA,,Indonesia,82144648989.0,1.7104491,128.0100684,https://maps.google.com/?cid=0x0:0xe043f9c8ba78bb16
toko bangunan,Toko Bahan Bangunan,toko bangunan ko hen,"56W9+R29, Unnamed Road, Tutuling Jaya, Kec. Wasile Tim., Kabupaten Halmahera Timur, Maluku Utara","Kabupaten Halmahera Timur, Maluku Utara",MALUKU UTARA,,Indonesia,82282044150.0,1.1970495,128.2176185,https://maps.google.com/?cid=0x0:0xbfcecb96ec1aeb86
toko bangunan,Toko Bahan Bangunan,Toko Fajar Bangunan,"Gufasa, Kec. Jailolo, Kabupaten Halmahera Barat, Maluku Utara","Kabupaten Halmahera Barat, Maluku Utara",MALUKU UTARA,,Indonesia,,1.0627302,127.4677077,https://maps.google.com/?cid=0x0:0x489f67ee1f329e08
toko bangunan,Toko umum,TOKO BANGUNAN ALDAFIQ,"Jln trans, Kuntum Mekar, Kec. Kao Tlk., Kabupaten Halmahera Utara, Maluku Utara","Kabupaten Halmahera Utara, Maluku Utara",MALUKU UTARA,,Indonesia,85255457737.0,1.0571478,127.6968002,https://maps.google.com/?cid=0x0:0xbd45128e560c144d
toko bangunan,Toko Bahan Bangunan,Toko Mitra Bangunan,"Jl. Pahlawan Revolusi No.3, Muhajirin, Kec. Ternate Tengah, Kota Ternate, Maluku Utara 97721","Muhajirin, Kec. Ternate Tengah, Kota Ternate",MALUKU UTARA,97721.0,Indonesia,8124217777.0,0.7863051,127.3886452,https://maps.google.com/?cid=0x0:0x182c1f07e66842a
toko bangunan,Toko Bahan Bangunan,Toko Surya Jaya - Labuha,"9FCJ+69H, Unnamed Road, Labuha, Kec. Bacan, Kabupaten Halmahera Selatan, Maluku Utara","Kabupaten Halmahera Selatan, Maluku Utara",MALUKU UTARA,,Indonesia,9272321732.0,-0.6294262,127.4809969,https://maps.google.com/?cid=0x0:0xdad7b98c88e223e3
toko bangunan,toko bangunan,Kec. Kao Utara,"Kabupaten Halmahera Utara, Maluku Utara","Kabupaten Halmahera Utara, Maluku Utara",MALUKU UTARA,,Indonesia,,1.3982481,128.0027515,https://maps.google.com/?cid=0x0:0x5d873bc773b3c48e
toko bangunan,Toko Perlengkapan Rumah,TOKO Bahan Bangunan Bobohoo,"Unnamed Road, Soa Gimalaha, Kec. Kota Maba, Kabupaten Halmahera Timur, Maluku Utara","Kabupaten Halmahera Timur, Maluku Utara",MALUKU UTARA,,Indonesia,82344091888.0,0.6902266,128.2950041,https://maps.google.com/?cid=0x0:0x4372c85023912b79
toko bangunan,Pasar bahan bangunan,Toko Sumber Bangunan,"P2G6+2MM, Gamsungi, Kec. Tobelo, Kabupaten Halmahera Utara, Maluku Utara","Kabupaten Halmahera Utara, Maluku Utara",MALUKU UTARA,,Indonesia,9242621455.0,1.7250967,128.0116677,https://maps.google.com/?cid=0x0:0x14835095227102f4
toko bangunan,Toko Bahan Bangunan,toko bangunan ko hen,"56W9+R29, Unnamed Road, Tutuling Jaya, Kec. Wasile Tim., Kabupaten Halmahera Timur, Maluku Utara","Kabupaten Halmahera Timur, Maluku Utara",MALUKU UTARA,,Indonesia,82282044150.0,1.1970495,128.2176185,https://maps.google.com/?cid=0x0:0xbfcecb96ec1aeb86
toko bangunan,Toko Perlengkapan Rumah,Toko duang ( bangunan),"H28M+GXJ, Todokuiha, Kec. Tobelo Tim., Kabupaten Halmahera Utara, Maluku Utara","Kabupaten Halmahera Utara, Maluku Utara",MALUKU UTARA,,Indonesia,,1.5664975,128.035246,https://maps.google.com/?cid=0x0:0x2a5d78d81d3b95a
toko bangunan,Toko umum,TOKO BANGUNAN ALDAFIQ,"Jln trans, Kuntum Mekar, Kec. Kao Tlk., Kabupaten Halmahera Utara, Maluku Utara","Kabupaten Halmahera Utara, Maluku Utara",MALUKU UTARA,,Indonesia,85255457737.0,1.0571478,127.6968002,https://maps.google.com/?cid=0x0:0xbd45128e560c144d
toko bangunan,Komplek perumahan,Tela Pres Manohara,"JL. Trans Tobelo, RT. 02, Biang, Biang, Kec. Kao, Kabupaten Halmahera Utara, Maluku Utara","Kabupaten Halmahera Utara, Maluku Utara",MALUKU UTARA,,Indonesia,82197074235.0,1.2437877,127.9448627,https://maps.google.com/?cid=0x0:0xd80c746c0f0bbf90
toko bangunan,Toko Perlengkapan Rumah,Toko jaya abadi mkcm,"PXPW+56V, Mkcm, Kec. Tobelo, Kabupaten Halmahera Utara, Maluku Utara","Kabupaten Halmahera Utara, Maluku Utara",MALUKU UTARA,,Indonesia,85167702404.0,1.7354805,127.995553,https://maps.google.com/?cid=0x0:0xa4fec3e5341adca2
toko bangunan,Toko Bahan Bangunan,Makmur Utama Supermarket Bahan bangunan,"Tj. Niara, Kec. Tobelo Tengah, Kabupaten Halmahera Utara, Maluku Utara","Kabupaten Halmahera Utara, Maluku Utara",MALUKU UTARA,,Indonesia,85117420324.0,1.7019679,128.0155893,https://maps.google.com/?cid=0x0:0x47ecdf114648cbc2
toko bangunan,Toko Bahan Bangunan,Toko Sejati Bangunan,"Jalan Raya Wosia, Depan Saro Nifero, Samping Dealer Honda CV.Lion, Mahia, Kec. Tobelo, Maluku Utara 97762","Depan Saro Nifero, Samping Dealer Honda CV.Lion, Mahia, Kec. Tobelo",MALUKU UTARA,97762.0,Indonesia,82195215789.0,1.7063845,128.0084905,https://maps.google.com/?cid=0x0:0xe07acc47d25781c8
toko bangunan,Toko Bahan Bangunan,Toko Mitra Bangunan,"Jl. Pahlawan Revolusi No.3, Muhajirin, Kec. Ternate Tengah, Kota Ternate, Maluku Utara 97721","Muhajirin, Kec. Ternate Tengah, Kota Ternate",MALUKU UTARA,97721.0,Indonesia,8124217777.0,0.7863051,127.3886452,https://maps.google.com/?cid=0x0:0x182c1f07e66842a
toko bangunan,Toko Bahan Bangunan,Makmur Utama Supermarket Bahan Bangunan,"Jl. Yasin Gamsungi No.2 Kec. ternate tengah, Kel, Makassar Tim., Makassar Timur, Kota Ternate, Maluku Utara 97724","Kel, Makassar Tim., Makassar Timur, Kota Ternate",MALUKU UTARA,97724.0,Indonesia,8114313799.0,0.7940352,127.3876695,https://maps.google.com/?cid=0x0:0x2f492ae87bf64247
toko bangunan,Toko Bahan Bangunan,Toko Surya Jaya - Labuha,"9FCJ+69H, Unnamed Road, Labuha, Kec. Bacan, Kabupaten Halmahera Selatan, Maluku Utara","Kabupaten Halmahera Selatan, Maluku Utara",MALUKU UTARA,,Indonesia,9272321732.0,-0.6294262,127.4809969,https://maps.google.com/?cid=0x0:0xdad7b98c88e223e3
toko bangunan,toko bangunan,Kec. Kao Tlk.,"Kabupaten Halmahera Utara, Maluku Utara","Kabupaten Halmahera Utara, Maluku Utara",MALUKU UTARA,,Indonesia,,1.0572865,127.697129,https://maps.google.com/?cid=0x0:0xb7e89a460242f82
toko bangunan,Toko umum,TOKO BANGUNAN ALDAFIQ,"Jln trans, Kuntum Mekar, Kec. Kao Tlk., Kabupaten Halmahera Utara, Maluku Utara","Kabupaten Halmahera Utara, Maluku Utara",MALUKU UTARA,,Indonesia,85255457737.0,1.0571478,127.6968002,https://maps.google.com/?cid=0x0:0xbd45128e560c144d
toko bangunan,Pasar bahan bangunan,Toko Sumber Bangunan,"P2G6+2MM, Gamsungi, Kec. Tobelo, Kabupaten Halmahera Utara, Maluku Utara","Kabupaten Halmahera Utara, Maluku Utara",MALUKU UTARA,,Indonesia,9242621455.0,1.7250967,128.0116677,https://maps.google.com/?cid=0x0:0x14835095227102f4
toko bangunan,Toko Bahan Bangunan,toko bangunan ko hen,"56W9+R29, Unnamed Road, Tutuling Jaya, Kec. Wasile Tim., Kabupaten Halmahera Timur, Maluku Utara","Kabupaten Halmahera Timur, Maluku Utara",MALUKU UTARA,,Indonesia,82282044150.0,1.1970495,128.2176185,https://maps.google.com/?cid=0x0:0xbfcecb96ec1aeb86
toko bangunan,Toko Bahan Bangunan,AcongHome,"Bangkit Rahmat, Kec. Jailolo Sel., Kabupaten Halmahera Barat, Maluku Utara 97751","Kec. Jailolo Sel., Kabupaten Halmahera Barat",MALUKU UTARA,97751.0,Indonesia,82249957359.0,0.8783307,127.625355,https://maps.google.com/?cid=0x0:0x302721dd42ac36fa
toko bangunan,Toko umum,TOKO BANGUNAN ALDAFIQ,"Jln trans, Kuntum Mekar, Kec. Kao Tlk., Kabupaten Halmahera Utara, Maluku Utara","Kabupaten Halmahera Utara, Maluku Utara",MALUKU UTARA,,Indonesia,85255457737.0,1.0571478,127.6968002,https://maps.google.com/?cid=0x0:0xbd45128e560c144d
toko bangunan,toko bangunan,Kec. Kao Tlk.,"Kabupaten Halmahera Utara, Maluku Utara","Kabupaten Halmahera Utara, Maluku Utara",MALUKU UTARA,,Indonesia,,1.0572865,127.697129,https://maps.google.com/?cid=0x0:0xb7e89a460242f82
toko bangunan,Toko Bahan Bangunan,Toko Bangunan SENTOSA,"P266+52G O.Sasingan, Wosia, Kec. Tobelo Tengah, Kabupaten Halmahera Utara, Maluku Utara","Kabupaten Halmahera Utara, Maluku Utara",MALUKU UTARA,,Indonesia,82144648989.0,1.7104491,128.0100684,https://maps.google.com/?cid=0x0:0xe043f9c8ba78bb16
toko bangunan,Pasar bahan bangunan,Toko Sumber Bangunan,"P2G6+2MM, Gamsungi, Kec. Tobelo, Kabupaten Halmahera Utara, Maluku Utara","Kabupaten Halmahera Utara, Maluku Utara",MALUKU UTARA,,Indonesia,9242621455.0,1.7250967,128.0116677,https://maps.google.com/?cid=0x0:0x14835095227102f4
toko bangunan,Toko Bahan Bangunan,toko bangunan ko hen,"56W9+R29, Unnamed Road, Tutuling Jaya, Kec. Wasile Tim., Kabupaten Halmahera Timur, Maluku Utara","Kabupaten Halmahera Timur, Maluku Utara",MALUKU UTARA,,Indonesia,82282044150.0,1.1970495,128.2176185,https://maps.google.com/?cid=0x0:0xbfcecb96ec1aeb86
toko bangunan,Toko Bahan Bangunan,AcongHome,"Bangkit Rahmat, Kec. Jailolo Sel., Kabupaten Halmahera Barat, Maluku Utara 97751","Kec. Jailolo Sel., Kabupaten Halmahera Barat",MALUKU UTARA,97751.0,Indonesia,82249957359.0,0.8783307,127.625355,https://maps.google.com/?cid=0x0:0x302721dd42ac36fa
toko bangunan,Toko Bahan Bangunan,Toko Sejati Bangunan,"Jalan Raya Wosia, Depan Saro Nifero, Samping Dealer Honda CV.Lion, Mahia, Kec. Tobelo, Maluku Utara 97762","Depan Saro Nifero, Samping Dealer Honda CV.Lion, Mahia, Kec. Tobelo",MALUKU UTARA,97762.0,Indonesia,82195215789.0,1.7063845,128.0084905,https://maps.google.com/?cid=0x0:0xe07acc47d25781c8
toko bangunan,Toko Bahan Bangunan,Makmur Utama Supermarket Bahan bangunan,"Tj. Niara, Kec. Tobelo Tengah, Kabupaten Halmahera Utara, Maluku Utara","Kabupaten Halmahera Utara, Maluku Utara",MALUKU UTARA,,Indonesia,85117420324.0,1.7019679,128.0155893,https://maps.google.com/?cid=0x0:0x47ecdf114648cbc2
toko bangunan,Toko Bahan Bangunan,Toko Surya Jaya - Labuha,"9FCJ+69H, Unnamed Road, Labuha, Kec. Bacan, Kabupaten Halmahera Selatan, Maluku Utara","Kabupaten Halmahera Selatan, Maluku Utara",MALUKU UTARA,,Indonesia,9272321732.0,-0.6294262,127.4809969,https://maps.google.com/?cid=0x0:0xdad7b98c88e223e3
toko bangunan,Toko Bahan Bangunan,Toko.Boekit Bangunan,"3FQG+659, Acango, Kec. Jailolo, Kabupaten Halmahera Barat, Maluku Utara","Kabupaten Halmahera Barat, Maluku Utara",MALUKU UTARA,,Indonesia,85166903897.0,1.0882582,127.4754115,https://maps.google.com/?cid=0x0:0x88096a93b702388e
toko bangunan,toko bangunan,TOKO BANGUNAN BERKAT UTAMA,"Makaeling, Kec. Kao Tlk., Kabupaten Halmahera Utara, Maluku Utara","Kabupaten Halmahera Utara, Maluku Utara",MALUKU UTARA,,Indonesia,,1.0539614,127.6915642,https://maps.google.com/?cid=0x0:0x12c7f2f42e4842e5
toko bangunan,toko bangunan,Loloda Kepulauan,"Kabupaten Halmahera Utara, Maluku Utara","Kabupaten Halmahera Utara, Maluku Utara",MALUKU UTARA,,Indonesia,,2.2509061,127.7981498,https://maps.google.com/?cid=0x0:0x7f27e9dea84ef656
toko bangunan,Toko Perlengkapan Rumah,TOKO Bahan Bangunan Bobohoo,"Unnamed Road, Soa Gimalaha, Kec. Kota Maba, Kabupaten Halmahera Timur, Maluku Utara","Kabupaten Halmahera Timur, Maluku Utara",MALUKU UTARA,,Indonesia,82344091888.0,0.6902266,128.2950041,https://maps.google.com/?cid=0x0:0x4372c85023912b79
toko bangunan,Pasar bahan bangunan,Toko Intisari2,"PHRH+XHX, Jl. Hijra, Galala, Oba Utara, Kota Tidore Kepulauan, Maluku Utara","Kota Tidore Kepulauan, Maluku Utara",MALUKU UTARA,,Indonesia,8124751378.0,0.7424771,127.5789924,https://maps.google.com/?cid=0x0:0x25129a2cfa046c97
toko bangunan,Toko Bahan Bangunan,Toko Bangunan SENTOSA,"P266+52G O.Sasingan, Wosia, Kec. Tobelo Tengah, Kabupaten Halmahera Utara, Maluku Utara","Kabupaten Halmahera Utara, Maluku Utara",MALUKU UTARA,,Indonesia,82144648989.0,1.7104491,128.0100684,https://maps.google.com/?cid=0x0:0xe043f9c8ba78bb16
toko bangunan,Pasar bahan bangunan,Toko Sumber Bangunan,"P2G6+2MM, Gamsungi, Kec. Tobelo, Kabupaten Halmahera Utara, Maluku Utara","Kabupaten Halmahera Utara, Maluku Utara",MALUKU UTARA,,Indonesia,9242621455.0,1.7250967,128.0116677,https://maps.google.com/?cid=0x0:0x14835095227102f4
toko bangunan,Toko Bahan Bangunan,Toko Citra Bangunan,"5R5J+7W9, Ngofabobawa, Kec. Malifut, Kabupaten Halmahera Utara, Maluku Utara","Kabupaten Halmahera Utara, Maluku Utara",MALUKU UTARA,,Indonesia,,1.1581715,127.8323707,https://maps.google.com/?cid=0x0:0xc615b5096c177e7e
toko bangunan,Toko Bahan Bangunan,TOKO BANGUNAN SINAR ALWA,"FW9F+G42, Lelilef Waibulan, Kec. Weda Tengah, Kabupaten Halmahera Tengah, Maluku Utara","Kabupaten Halmahera Tengah, Maluku Utara",MALUKU UTARA,,Indonesia,85167702404.0,0.4688305,127.9229748,https://maps.google.com/?cid=0x0:0xb8137106c2556d8a
toko bangunan,Toko,Fajar bangunan,"Jalan, Hatebicara, Kec. Jailolo, Kabupaten Halmahera Barat, Maluku Utara","Kabupaten Halmahera Barat, Maluku Utara",MALUKU UTARA,,Indonesia,8971539577.0,1.0822391,127.4752556,https://maps.google.com/?cid=0x0:0xe063b30107b4c80b
toko bangunan,Toko Perlengkapan Rumah,Toko duang ( bangunan),"H28M+GXJ, Todokuiha, Kec. Tobelo Tim., Kabupaten Halmahera Utara, Maluku Utara","Kabupaten Halmahera Utara, Maluku Utara",MALUKU UTARA,,Indonesia,,1.5664975,128.035246,https://maps.google.com/?cid=0x0:0x2a5d78d81d3b95a
toko bangunan,Toko Perlengkapan Rumah,Toko jaya abadi mkcm,"PXPW+56V, Mkcm, Kec. Tobelo, Kabupaten Halmahera Utara, Maluku Utara","Kabupaten Halmahera Utara, Maluku Utara",MALUKU UTARA,,Indonesia,85167702404.0,1.7354805,127.995553,https://maps.google.com/?cid=0x0:0xa4fec3e5341adca2
toko bangunan,Toko Bahan Bangunan,Toko.Boekit Bangunan,"3FQG+659, Acango, Kec. Jailolo, Kabupaten Halmahera Barat, Maluku Utara","Kabupaten Halmahera Barat, Maluku Utara",MALUKU UTARA,,Indonesia,85166903897.0,1.0882582,127.4754115,https://maps.google.com/?cid=0x0:0x88096a93b702388e
toko bangunan,Toko,Toko Dian Abadi,"Jl. Trans Hal-Tim, Bumi Restu, Kec. Wasile, Kabupaten Halmahera Timur, Maluku Utara","Kabupaten Halmahera Timur, Maluku Utara",MALUKU UTARA,,Indonesia,85396530703.0,1.0896467,128.1693105,https://maps.google.com/?cid=0x0:0xed1b8b206c604dc2
toko bangunan,Toko Bahan Bangunan,Toko Fajar Bangunan,"Gufasa, Kec. Jailolo, Kabupaten Halmahera Barat, Maluku Utara","Kabupaten Halmahera Barat, Maluku Utara",MALUKU UTARA,,Indonesia,,1.0627302,127.4677077,https://maps.google.com/?cid=0x0:0x489f67ee1f329e08
toko bangunan,toko bangunan,Kec. Loloda Utara,"Kabupaten Halmahera Utara, Maluku Utara","Kabupaten Halmahera Utara, Maluku Utara",MALUKU UTARA,,Indonesia,,2.0927761,127.8484263,https://maps.google.com/?cid=0x0:0xb975e42fee13365a
toko bangunan,Toko Perlengkapan Rumah,TOKO Bahan Bangunan Bobohoo,"Unnamed Road, Soa Gimalaha, Kec. Kota Maba, Kabupaten Halmahera Timur, Maluku Utara","Kabupaten Halmahera Timur, Maluku Utara",MALUKU UTARA,,Indonesia,82344091888.0,0.6902266,128.2950041,https://maps.google.com/?cid=0x0:0x4372c85023912b79
toko bangunan,Pasar bahan bangunan,Toko Sumber Bangunan,"P2G6+2MM, Gamsungi, Kec. Tobelo, Kabupaten Halmahera Utara, Maluku Utara","Kabupaten Halmahera Utara, Maluku Utara",MALUKU UTARA,,Indonesia,9242621455.0,1.7250967,128.0116677,https://maps.google.com/?cid=0x0:0x14835095227102f4
toko bangunan,Toko Perlengkapan Rumah,Toko jaya abadi mkcm,"PXPW+56V, Mkcm, Kec. Tobelo, Kabupaten Halmahera Utara, Maluku Utara","Kabupaten Halmahera Utara, Maluku Utara",MALUKU UTARA,,Indonesia,85167702404.0,1.7354805,127.995553,https://maps.google.com/?cid=0x0:0xa4fec3e5341adca2
toko bangunan,Toko Bahan Bangunan,Toko Fajar Bangunan,"Gufasa, Kec. Jailolo, Kabupaten Halmahera Barat, Maluku Utara","Kabupaten Halmahera Barat, Maluku Utara",MALUKU UTARA,,Indonesia,,1.0627302,127.4677077,https://maps.google.com/?cid=0x0:0x489f67ee1f329e08
toko bangunan,Toko,Fajar bangunan,"Jalan, Hatebicara, Kec. Jailolo, Kabupaten Halmahera Barat, Maluku Utara","Kabupaten Halmahera Barat, Maluku Utara",MALUKU UTARA,,Indonesia,8971539577.0,1.0822391,127.4752556,https://maps.google.com/?cid=0x0:0xe063b30107b4c80b
toko bangunan,Toko Bahan Bangunan,Toko.Boekit Bangunan,"3FQG+659, Acango, Kec. Jailolo, Kabupaten Halmahera Barat, Maluku Utara","Kabupaten Halmahera Barat, Maluku Utara",MALUKU UTARA,,Indonesia,85166903897.0,1.0882582,127.4754115,https://maps.google.com/?cid=0x0:0x88096a93b702388e
toko bangunan,Toko umum,TOKO BANGUNAN ALDAFIQ,"Jln trans, Kuntum Mekar, Kec. Kao Tlk., Kabupaten Halmahera Utara, Maluku Utara","Kabupaten Halmahera Utara, Maluku Utara",MALUKU UTARA,,Indonesia,85255457737.0,1.0571478,127.6968002,https://maps.google.com/?cid=0x0:0xbd45128e560c144d
toko bangunan,Toko Bahan Bangunan,Toko Surya Jaya - Labuha,"9FCJ+69H, Unnamed Road, Labuha, Kec. Bacan, Kabupaten Halmahera Selatan, Maluku Utara","Kabupaten Halmahera Selatan, Maluku Utara",MALUKU UTARA,,Indonesia,9272321732.0,-0.6294262,127.4809969,https://maps.google.com/?cid=0x0:0xdad7b98c88e223e3
toko bangunan,Toko Bahan Bangunan,Makmur Utama Supermarket Bahan bangunan,"Tj. Niara, Kec. Tobelo Tengah, Kabupaten Halmahera Utara, Maluku Utara","Kabupaten Halmahera Utara, Maluku Utara",MALUKU UTARA,,Indonesia,85117420324.0,1.7019679,128.0155893,https://maps.google.com/?cid=0x0:0x47ecdf114648cbc2
toko bangunan,Toko Bahan Bangunan,Toko Sejati Bangunan,"Jalan Raya Wosia, Depan Saro Nifero, Samping Dealer Honda CV.Lion, Mahia, Kec. Tobelo, Maluku Utara 97762","Depan Saro Nifero, Samping Dealer Honda CV.Lion, Mahia, Kec. Tobelo",MALUKU UTARA,97762.0,Indonesia,82195215789.0,1.7063845,128.0084905,https://maps.google.com/?cid=0x0:0xe07acc47d25781c8
toko bangunan,Toko Bahan Bangunan,TOKO SAKURA TEKNIK,"Acango, Kec. Jailolo, Kabupaten Halmahera Barat, Maluku Utara","Kabupaten Halmahera Barat, Maluku Utara",MALUKU UTARA,,Indonesia,9222221420.0,1.092539,127.4766716,https://maps.google.com/?cid=0x0:0x45b3c13d9a34a4ba
toko bangunan,Toko bahan makanan,Tokoh Makka,"RRFR+RR9, Towara, Kec. Galela, Kabupaten Halmahera Utara, Maluku Utara","Kabupaten Halmahera Utara, Maluku Utara",MALUKU UTARA,,Indonesia,82187603402.0,1.8245432,127.8421085,https://maps.google.com/?cid=0x0:0xf22837f0d569e911
toko bangunan,Toko Bahan Bangunan,Toko Citra Bangunan,"5R5J+7W9, Ngofabobawa, Kec. Malifut, Kabupaten Halmahera Utara, Maluku Utara","Kabupaten Halmahera Utara, Maluku Utara",MALUKU UTARA,,Indonesia,,1.1581715,127.8323707,https://maps.google.com/?cid=0x0:0xc615b5096c177e7e
toko bangunan,toko bangunan,Kec. Malifut,"Kabupaten Halmahera Utara, Maluku Utara","Kabupaten Halmahera Utara, Maluku Utara",MALUKU UTARA,,Indonesia,,1.0939454,127.776544,https://maps.google.com/?cid=0x0:0xd9110b77277647d2
toko bangunan,Pasar bahan bangunan,Toko Sumber Bangunan,"P2G6+2MM, Gamsungi, Kec. Tobelo, Kabupaten Halmahera Utara, Maluku Utara","Kabupaten Halmahera Utara, Maluku Utara",MALUKU UTARA,,Indonesia,9242621455.0,1.7250967,128.0116677,https://maps.google.com/?cid=0x0:0x14835095227102f4
toko bangunan,Toko Bahan Bangunan,Toko Sejati Bangunan,"Jalan Raya Wosia, Depan Saro Nifero, Samping Dealer Honda CV.Lion, Mahia, Kec. Tobelo, Maluku Utara 97762","Depan Saro Nifero, Samping Dealer Honda CV.Lion, Mahia, Kec. Tobelo",MALUKU UTARA,97762.0,Indonesia,82195215789.0,1.7063845,128.0084905,https://maps.google.com/?cid=0x0:0xe07acc47d25781c8
toko bangunan,toko bangunan,Tobelo,"Gamsungi, Kec. Tobelo, Kabupaten Halmahera Utara, Maluku Utara","Kabupaten Halmahera Utara, Maluku Utara",MALUKU UTARA,,Indonesia,,1.725721,128.001404,https://maps.google.com/?cid=0x0:0xed92b856242bad82
toko bangunan,Toko Perlengkapan Rumah,Rejeki Bangunan,"P2F6+RJF, Gosoma, Kec. Tobelo, Kabupaten Halmahera Utara, Maluku Utara","Kabupaten Halmahera Utara, Maluku Utara",MALUKU UTARA,,Indonesia,85166903897.0,1.7245548,128.0115514,https://maps.google.com/?cid=0x0:0xfb3c00ae8c9d177a
toko bangunan,Toko Perlengkapan Rumah,Toko Bangunan Tobelo Jaya,"P2G5+CR4, Gosoma, Kec. Tobelo, Kabupaten Halmahera Utara, Maluku Utara","Kabupaten Halmahera Utara, Maluku Utara",MALUKU UTARA,,Indonesia,,1.7260089,128.0095762,https://maps.google.com/?cid=0x0:0xe1e577fd37963535
toko bangunan,Toko Perlengkapan Rumah,Tk.Mulia Jaya,"P2F2+WQ7, Gamsungi, Kec. Tobelo, Kabupaten Halmahera Utara, Maluku Utara","Kabupaten Halmahera Utara, Maluku Utara",MALUKU UTARA,,Indonesia,,1.7247757,128.0019201,https://maps.google.com/?cid=0x0:0x98deffa82d6d06d5
toko bangunan,Pasar bahan bangunan,TOKO BESI MANDIRI TOBELO,"P296+Q8W, Jl. Kemakmuran, Gosoma, Kec. Tobelo, Kabupaten Halmahera Utara, Maluku Utara","Kabupaten Halmahera Utara, Maluku Utara",MALUKU UTARA,,Indonesia,82145672345.0,1.7194784,128.0108402,https://maps.google.com/?cid=0x0:0x991d5b176c695d75
toko bangunan,Toko Perlengkapan Rumah,Toko jaya abadi mkcm,"PXPW+56V, Mkcm, Kec. Tobelo, Kabupaten Halmahera Utara, Maluku Utara","Kabupaten Halmahera Utara, Maluku Utara",MALUKU UTARA,,Indonesia,85167702404.0,1.7354805,127.995553,https://maps.google.com/?cid=0x0:0xa4fec3e5341adca2
toko bangunan,Toko Bahan Bangunan,Toko Bangunan SENTOSA,"P266+52G O.Sasingan, Wosia, Kec. Tobelo Tengah, Kabupaten Halmahera Utara, Maluku Utara","Kabupaten Halmahera Utara, Maluku Utara",MALUKU UTARA,,Indonesia,82144648989.0,1.7104491,128.0100684,https://maps.google.com/?cid=0x0:0xe043f9c8ba78bb16
toko bangunan,Toko Bahan Bangunan,Toko Sejahtera,"Samping Kantor PLN, Wosia, Kec. Tobelo Tengah, Kabupaten Halmahera Utara, Maluku Utara","Kabupaten Halmahera Utara, Maluku Utara",MALUKU UTARA,,Indonesia,82214501405.0,1.7113501,128.0114515,https://maps.google.com/?cid=0x0:0xbd1b11ed182ef41b
toko bangunan,Toko Perlengkapan Rumah,TB. Berkat Karunia,"P2C6+MG8, Gosoma, Kec. Tobelo, Kabupaten Halmahera Utara, Maluku Utara","Kabupaten Halmahera Utara, Maluku Utara",MALUKU UTARA,,Indonesia,85166903897.0,1.7216567,128.01132,https://maps.google.com/?cid=0x0:0x1dd5a44a05b0bde4
toko bangunan,Toko Perlengkapan Rumah,Toko Alfariston Tobelo,"P254+M6J, WKO, Kec. Tobelo Tengah, Kabupaten Halmahera Utara, Maluku Utara","Kabupaten Halmahera Utara, Maluku Utara",MALUKU UTARA,,Indonesia,82344212296.0,1.7092216,128.0055294,https://maps.google.com/?cid=0x0:0xda6796ae399eaa7f
toko bangunan,Toko Perlengkapan Rumah,Toko duang ( bangunan),"H28M+GXJ, Todokuiha, Kec. Tobelo Tim., Kabupaten Halmahera Utara, Maluku Utara","Kabupaten Halmahera Utara, Maluku Utara",MALUKU UTARA,,Indonesia,,1.5664975,128.035246,https://maps.google.com/?cid=0x0:0x2a5d78d81d3b95a
toko bangunan,Bengkel Bubut,Toko Mega Utama,"Jln, Wosia, Tobelo Tengah, North Halmahera Regency, North Maluku","Kabupaten Halmahera Utara, Maluku Utara",MALUKU UTARA,,Indonesia,81342560008.0,1.7120549,128.0110996,https://maps.google.com/?cid=0x0:0xf6a05870f06c72ca
toko bangunan,toko bangunan,Kec. Tobelo Bar.,"Kabupaten Halmahera Utara, Maluku Utara","Kabupaten Halmahera Utara, Maluku Utara",MALUKU UTARA,,Indonesia,,1.5410827,127.9493454,https://maps.google.com/?cid=0x0:0x253218d19bcb2a3e
toko bangunan,Pasar bahan bangunan,Toko Sumber Bangunan,"P2G6+2MM, Gamsungi, Kec. Tobelo, Kabupaten Halmahera Utara, Maluku Utara","Kabupaten Halmahera Utara, Maluku Utara",MALUKU UTARA,,Indonesia,9242621455.0,1.7250967,128.0116677,https://maps.google.com/?cid=0x0:0x14835095227102f4
toko bangunan,Toko Bahan Bangunan,Toko Sejati Bangunan,"Jalan Raya Wosia, Depan Saro Nifero, Samping Dealer Honda CV.Lion, Mahia, Kec. Tobelo, Maluku Utara 97762","Depan Saro Nifero, Samping Dealer Honda CV.Lion, Mahia, Kec. Tobelo",MALUKU UTARA,97762.0,Indonesia,82195215789.0,1.7063845,128.0084905,https://maps.google.com/?cid=0x0:0xe07acc47d25781c8
toko bangunan,Toko Perlengkapan Rumah,Toko duang ( bangunan),"H28M+GXJ, Todokuiha, Kec. Tobelo Tim., Kabupaten Halmahera Utara, Maluku Utara","Kabupaten Halmahera Utara, Maluku Utara",MALUKU UTARA,,Indonesia,,1.5664975,128.035246,https://maps.google.com/?cid=0x0:0x2a5d78d81d3b95a
toko bangunan,Toko Bahan Bangunan,Toko Bangunan SENTOSA,"P266+52G O.Sasingan, Wosia, Kec. Tobelo Tengah, Kabupaten Halmahera Utara, Maluku Utara","Kabupaten Halmahera Utara, Maluku Utara",MALUKU UTARA,,Indonesia,82144648989.0,1.7104491,128.0100684,https://maps.google.com/?cid=0x0:0xe043f9c8ba78bb16
toko bangunan,Toko Perlengkapan Rumah,Rejeki Bangunan,"P2F6+RJF, Gosoma, Kec. Tobelo, Kabupaten Halmahera Utara, Maluku Utara","Kabupaten Halmahera Utara, Maluku Utara",MALUKU UTARA,,Indonesia,85166903897.0,1.7245548,128.0115514,https://maps.google.com/?cid=0x0:0xfb3c00ae8c9d177a
toko bangunan,Toko Perlengkapan Rumah,Toko jaya abadi mkcm,"PXPW+56V, Mkcm, Kec. Tobelo, Kabupaten Halmahera Utara, Maluku Utara","Kabupaten Halmahera Utara, Maluku Utara",MALUKU UTARA,,Indonesia,85167702404.0,1.7354805,127.995553,https://maps.google.com/?cid=0x0:0xa4fec3e5341adca2
toko bangunan,Pasar bahan bangunan,TOKO BESI MANDIRI TOBELO,"P296+Q8W, Jl. Kemakmuran, Gosoma, Kec. Tobelo, Kabupaten Halmahera Utara, Maluku Utara","Kabupaten Halmahera Utara, Maluku Utara",MALUKU UTARA,,Indonesia,82145672345.0,1.7194784,128.0108402,https://maps.google.com/?cid=0x0:0x991d5b176c695d75
toko bangunan,Toko Perlengkapan Rumah,Toko Bangunan Tobelo Jaya,"P2G5+CR4, Gosoma, Kec. Tobelo, Kabupaten Halmahera Utara, Maluku Utara","Kabupaten Halmahera Utara, Maluku Utara",MALUKU UTARA,,Indonesia,,1.7260089,128.0095762,https://maps.google.com/?cid=0x0:0xe1e577fd37963535
toko bangunan,Toko Bahan Bangunan,Toko Sejahtera,"Samping Kantor PLN, Wosia, Kec. Tobelo Tengah, Kabupaten Halmahera Utara, Maluku Utara","Kabupaten Halmahera Utara, Maluku Utara",MALUKU UTARA,,Indonesia,82214501405.0,1.7113501,128.0114515,https://maps.google.com/?cid=0x0:0xbd1b11ed182ef41b
toko bangunan,Toko Perlengkapan Rumah,Toko Alfariston Tobelo,"P254+M6J, WKO, Kec. Tobelo Tengah, Kabupaten Halmahera Utara, Maluku Utara","Kabupaten Halmahera Utara, Maluku Utara",MALUKU UTARA,,Indonesia,82344212296.0,1.7092216,128.0055294,https://maps.google.com/?cid=0x0:0xda6796ae399eaa7f
toko bangunan,Toko Perlengkapan Rumah,TB. Berkat Karunia,"P2C6+MG8, Gosoma, Kec. Tobelo, Kabupaten Halmahera Utara, Maluku Utara","Kabupaten Halmahera Utara, Maluku Utara",MALUKU UTARA,,Indonesia,85166903897.0,1.7216567,128.01132,https://maps.google.com/?cid=0x0:0x1dd5a44a05b0bde4
toko bangunan,Toko Perlengkapan Rumah,TOKO Bahan Bangunan Bobohoo,"Unnamed Road, Soa Gimalaha, Kec. Kota Maba, Kabupaten Halmahera Timur, Maluku Utara","Kabupaten Halmahera Timur, Maluku Utara",MALUKU UTARA,,Indonesia,82344091888.0,0.6902266,128.2950041,https://maps.google.com/?cid=0x0:0x4372c85023912b79
toko bangunan,Toko Bahan Bangunan,Toko.Boekit Bangunan,"3FQG+659, Acango, Kec. Jailolo, Kabupaten Halmahera Barat, Maluku Utara","Kabupaten Halmahera Barat, Maluku Utara",MALUKU UTARA,,Indonesia,85166903897.0,1.0882582,127.4754115,https://maps.google.com/?cid=0x0:0x88096a93b702388e
toko bangunan,toko bangunan,Kec. Tobelo Sel.,"Kabupaten Halmahera Utara, Maluku Utara","Kabupaten Halmahera Utara, Maluku Utara",MALUKU UTARA,,Indonesia,,1.6281283,127.980575,https://maps.google.com/?cid=0x0:0x1ecb6049a3d26ca1
toko bangunan,Pasar bahan bangunan,Toko Sumber Bangunan,"P2G6+2MM, Gamsungi, Kec. Tobelo, Kabupaten Halmahera Utara, Maluku Utara","Kabupaten Halmahera Utara, Maluku Utara",MALUKU UTARA,,Indonesia,9242621455.0,1.7250967,128.0116677,https://maps.google.com/?cid=0x0:0x14835095227102f4
toko bangunan,Toko Bahan Bangunan,toko asia indah,"MX9R+3WM, Jl. Raya Trans Halmahera, Pale, Kec. Tobelo Sel., Kabupaten Halmahera Utara, Maluku Utara","Kabupaten Halmahera Utara, Maluku Utara",MALUKU UTARA,,Indonesia,82393772669.0,1.6677149,127.9922857,https://maps.google.com/?cid=0x0:0x9eb27e74c7f7eeb0
toko bangunan,Toko Bahan Bangunan,Makmur Utama Supermarket Bahan bangunan,"Tj. Niara, Kec. Tobelo Tengah, Kabupaten Halmahera Utara, Maluku Utara","Kabupaten Halmahera Utara, Maluku Utara",MALUKU UTARA,,Indonesia,85117420324.0,1.7019679,128.0155893,https://maps.google.com/?cid=0x0:0x47ecdf114648cbc2
toko bangunan,Toko Bahan Bangunan,Toko Bangunan SENTOSA,"P266+52G O.Sasingan, Wosia, Kec. Tobelo Tengah, Kabupaten Halmahera Utara, Maluku Utara","Kabupaten Halmahera Utara, Maluku Utara",MALUKU UTARA,,Indonesia,82144648989.0,1.7104491,128.0100684,https://maps.google.com/?cid=0x0:0xe043f9c8ba78bb16
toko bangunan,Toko Perlengkapan Rumah,Rejeki Bangunan,"P2F6+RJF, Gosoma, Kec. Tobelo, Kabupaten Halmahera Utara, Maluku Utara","Kabupaten Halmahera Utara, Maluku Utara",MALUKU UTARA,,Indonesia,85166903897.0,1.7245548,128.0115514,https://maps.google.com/?cid=0x0:0xfb3c00ae8c9d177a
toko bangunan,Toko Bahan Bangunan,Toko Sejahtera,"Samping Kantor PLN, Wosia, Kec. Tobelo Tengah, Kabupaten Halmahera Utara, Maluku Utara","Kabupaten Halmahera Utara, Maluku Utara",MALUKU UTARA,,Indonesia,82214501405.0,1.7113501,128.0114515,https://maps.google.com/?cid=0x0:0xbd1b11ed182ef41b
toko bangunan,Toko Perlengkapan Rumah,Toko duang ( bangunan),"H28M+GXJ, Todokuiha, Kec. Tobelo Tim., Kabupaten Halmahera Utara, Maluku Utara","Kabupaten Halmahera Utara, Maluku Utara",MALUKU UTARA,,Indonesia,,1.5664975,128.035246,https://maps.google.com/?cid=0x0:0x2a5d78d81d3b95a
toko bangunan,Pasar bahan bangunan,TOKO BESI MANDIRI TOBELO,"P296+Q8W, Jl. Kemakmuran, Gosoma, Kec. Tobelo, Kabupaten Halmahera Utara, Maluku Utara","Kabupaten Halmahera Utara, Maluku Utara",MALUKU UTARA,,Indonesia,82145672345.0,1.7194784,128.0108402,https://maps.google.com/?cid=0x0:0x991d5b176c695d75
toko bangunan,Toko Perlengkapan Rumah,Toko Bangunan Tobelo Jaya,"P2G5+CR4, Gosoma, Kec. Tobelo, Kabupaten Halmahera Utara, Maluku Utara","Kabupaten Halmahera Utara, Maluku Utara",MALUKU UTARA,,Indonesia,,1.7260089,128.0095762,https://maps.google.com/?cid=0x0:0xe1e577fd37963535
toko bangunan,Toko Perlengkapan Rumah,Toko jaya abadi mkcm,"PXPW+56V, Mkcm, Kec. Tobelo, Kabupaten Halmahera Utara, Maluku Utara","Kabupaten Halmahera Utara, Maluku Utara",MALUKU UTARA,,Indonesia,85167702404.0,1.7354805,127.995553,https://maps.google.com/?cid=0x0:0xa4fec3e5341adca2
toko bangunan,Toko Perlengkapan Rumah,Toko Alfariston Tobelo,"P254+M6J, WKO, Kec. Tobelo Tengah, Kabupaten Halmahera Utara, Maluku Utara","Kabupaten Halmahera Utara, Maluku Utara",MALUKU UTARA,,Indonesia,82344212296.0,1.7092216,128.0055294,https://maps.google.com/?cid=0x0:0xda6796ae399eaa7f
toko bangunan,Toko Perlengkapan Rumah,Tk.Mulia Jaya,"P2F2+WQ7, Gamsungi, Kec. Tobelo, Kabupaten Halmahera Utara, Maluku Utara","Kabupaten Halmahera Utara, Maluku Utara",MALUKU UTARA,,Indonesia,,1.7247757,128.0019201,https://maps.google.com/?cid=0x0:0x98deffa82d6d06d5
toko bangunan,Toko Perlengkapan Rumah,TB. Berkat Karunia,"P2C6+MG8, Gosoma, Kec. Tobelo, Kabupaten Halmahera Utara, Maluku Utara","Kabupaten Halmahera Utara, Maluku Utara",MALUKU UTARA,,Indonesia,85166903897.0,1.7216567,128.01132,https://maps.google.com/?cid=0x0:0x1dd5a44a05b0bde4
toko bangunan,Pasar bahan bangunan,Toko Sumber Bangunan,"P2G6+2MM, Gamsungi, Kec. Tobelo, Kabupaten Halmahera Utara, Maluku Utara","Kabupaten Halmahera Utara, Maluku Utara",MALUKU UTARA,,Indonesia,9242621455.0,1.7250967,128.0116677,https://maps.google.com/?cid=0x0:0x14835095227102f4
toko bangunan,toko bangunan,Kec. Tobelo Tim.,"Kabupaten Halmahera Utara, Maluku Utara","Kabupaten Halmahera Utara, Maluku Utara",MALUKU UTARA,,Indonesia,,1.5702306,128.0348143,https://maps.google.com/?cid=0x0:0x3b948dd04e667beb
toko bangunan,Toko Perlengkapan Rumah,Toko duang ( bangunan),"H28M+GXJ, Todokuiha, Kec. Tobelo Tim., Kabupaten Halmahera Utara, Maluku Utara","Kabupaten Halmahera Utara, Maluku Utara",MALUKU UTARA,,Indonesia,,1.5664975,128.035246,https://maps.google.com/?cid=0x0:0x2a5d78d81d3b95a
toko bangunan,Toko Bahan Bangunan,Toko Bangunan SENTOSA,"P266+52G O.Sasingan, Wosia, Kec. Tobelo Tengah, Kabupaten Halmahera Utara, Maluku Utara","Kabupaten Halmahera Utara, Maluku Utara",MALUKU UTARA,,Indonesia,82144648989.0,1.7104491,128.0100684,https://maps.google.com/?cid=0x0:0xe043f9c8ba78bb16
toko bangunan,Toko Perlengkapan Rumah,Rejeki Bangunan,"P2F6+RJF, Gosoma, Kec. Tobelo, Kabupaten Halmahera Utara, Maluku Utara","Kabupaten Halmahera Utara, Maluku Utara",MALUKU UTARA,,Indonesia,85166903897.0,1.7245548,128.0115514,https://maps.google.com/?cid=0x0:0xfb3c00ae8c9d177a
toko bangunan,Toko Bahan Bangunan,Makmur Utama Supermarket Bahan bangunan,"Tj. Niara, Kec. Tobelo Tengah, Kabupaten Halmahera Utara, Maluku Utara","Kabupaten Halmahera Utara, Maluku Utara",MALUKU UTARA,,Indonesia,85117420324.0,1.7019679,128.0155893,https://maps.google.com/?cid=0x0:0x47ecdf114648cbc2
toko bangunan,Toko Perlengkapan Rumah,Toko jaya abadi mkcm,"PXPW+56V, Mkcm, Kec. Tobelo, Kabupaten Halmahera Utara, Maluku Utara","Kabupaten Halmahera Utara, Maluku Utara",MALUKU UTARA,,Indonesia,85167702404.0,1.7354805,127.995553,https://maps.google.com/?cid=0x0:0xa4fec3e5341adca2
toko bangunan,Pasar bahan bangunan,TOKO BESI MANDIRI TOBELO,"P296+Q8W, Jl. Kemakmuran, Gosoma, Kec. Tobelo, Kabupaten Halmahera Utara, Maluku Utara","Kabupaten Halmahera Utara, Maluku Utara",MALUKU UTARA,,Indonesia,82145672345.0,1.7194784,128.0108402,https://maps.google.com/?cid=0x0:0x991d5b176c695d75
toko bangunan,Toko Bahan Bangunan,Toko Sejahtera,"Samping Kantor PLN, Wosia, Kec. Tobelo Tengah, Kabupaten Halmahera Utara, Maluku Utara","Kabupaten Halmahera Utara, Maluku Utara",MALUKU UTARA,,Indonesia,82214501405.0,1.7113501,128.0114515,https://maps.google.com/?cid=0x0:0xbd1b11ed182ef41b
toko bangunan,Toko Perlengkapan Rumah,Toko Bangunan Tobelo Jaya,"P2G5+CR4, Gosoma, Kec. Tobelo, Kabupaten Halmahera Utara, Maluku Utara","Kabupaten Halmahera Utara, Maluku Utara",MALUKU UTARA,,Indonesia,,1.7260089,128.0095762,https://maps.google.com/?cid=0x0:0xe1e577fd37963535
toko bangunan,Toko Perlengkapan Rumah,Toko Alfariston Tobelo,"P254+M6J, WKO, Kec. Tobelo Tengah, Kabupaten Halmahera Utara, Maluku Utara","Kabupaten Halmahera Utara, Maluku Utara",MALUKU UTARA,,Indonesia,82344212296.0,1.7092216,128.0055294,https://maps.google.com/?cid=0x0:0xda6796ae399eaa7f
toko bangunan,Toko Bahan Bangunan,toko bangunan ko hen,"56W9+R29, Unnamed Road, Tutuling Jaya, Kec. Wasile Tim., Kabupaten Halmahera Timur, Maluku Utara","Kabupaten Halmahera Timur, Maluku Utara",MALUKU UTARA,,Indonesia,82282044150.0,1.1970495,128.2176185,https://maps.google.com/?cid=0x0:0xbfcecb96ec1aeb86
toko bangunan,Toko Perlengkapan Rumah,TB. Berkat Karunia,"P2C6+MG8, Gosoma, Kec. Tobelo, Kabupaten Halmahera Utara, Maluku Utara","Kabupaten Halmahera Utara, Maluku Utara",MALUKU UTARA,,Indonesia,85166903897.0,1.7216567,128.01132,https://maps.google.com/?cid=0x0:0x1dd5a44a05b0bde4
toko bangunan,Toko Perlengkapan Rumah,Tk.Mulia Jaya,"P2F2+WQ7, Gamsungi, Kec. Tobelo, Kabupaten Halmahera Utara, Maluku Utara","Kabupaten Halmahera Utara, Maluku Utara",MALUKU UTARA,,Indonesia,,1.7247757,128.0019201,https://maps.google.com/?cid=0x0:0x98deffa82d6d06d5
toko bangunan,toko bangunan,Kec. Tobelo Tengah,"Kabupaten Halmahera Utara, Maluku Utara","Kabupaten Halmahera Utara, Maluku Utara",MALUKU UTARA,,Indonesia,,1.7074794,128.0127501,https://maps.google.com/?cid=0x0:0xef293bed1374db12
toko bangunan,Pasar bahan bangunan,Toko Sumber Bangunan,"P2G6+2MM, Gamsungi, Kec. Tobelo, Kabupaten Halmahera Utara, Maluku Utara","Kabupaten Halmahera Utara, Maluku Utara",MALUKU UTARA,,Indonesia,9242621455.0,1.7250967,128.0116677,https://maps.google.com/?cid=0x0:0x14835095227102f4
toko bangunan,Toko Bahan Bangunan,Makmur Utama Supermarket Bahan bangunan,"Tj. Niara, Kec. Tobelo Tengah, Kabupaten Halmahera Utara, Maluku Utara","Kabupaten Halmahera Utara, Maluku Utara",MALUKU UTARA,,Indonesia,85117420324.0,1.7019679,128.0155893,https://maps.google.com/?cid=0x0:0x47ecdf114648cbc2
toko bangunan,Toko Bahan Bangunan,Toko Sejahtera,"Samping Kantor PLN, Wosia, Kec. Tobelo Tengah, Kabupaten Halmahera Utara, Maluku Utara","Kabupaten Halmahera Utara, Maluku Utara",MALUKU UTARA,,Indonesia,82214501405.0,1.7113501,128.0114515,https://maps.google.com/?cid=0x0:0xbd1b11ed182ef41b
toko bangunan,Toko Bahan Bangunan,Toko Bangunan SENTOSA,"P266+52G O.Sasingan, Wosia, Kec. Tobelo Tengah, Kabupaten Halmahera Utara, Maluku Utara","Kabupaten Halmahera Utara, Maluku Utara",MALUKU UTARA,,Indonesia,82144648989.0,1.7104491,128.0100684,https://maps.google.com/?cid=0x0:0xe043f9c8ba78bb16
toko bangunan,Pasar bahan bangunan,TOKO BESI MANDIRI TOBELO,"P296+Q8W, Jl. Kemakmuran, Gosoma, Kec. Tobelo, Kabupaten Halmahera Utara, Maluku Utara","Kabupaten Halmahera Utara, Maluku Utara",MALUKU UTARA,,Indonesia,82145672345.0,1.7194784,128.0108402,https://maps.google.com/?cid=0x0:0x991d5b176c695d75
toko bangunan,Toko Swalayan,Pt.Makmur Utama kencana Tobelo,"Tj. Niara, Kec. Tobelo Tengah, Kabupaten Halmahera Utara, Maluku Utara","Kabupaten Halmahera Utara, Maluku Utara",MALUKU UTARA,,Indonesia,,1.6998616,128.0181686,https://maps.google.com/?cid=0x0:0x77e76b5a8a91cb45
toko bangunan,Toko Perlengkapan Rumah,Rejeki Bangunan,"P2F6+RJF, Gosoma, Kec. Tobelo, Kabupaten Halmahera Utara, Maluku Utara","Kabupaten Halmahera Utara, Maluku Utara",MALUKU UTARA,,Indonesia,85166903897.0,1.7245548,128.0115514,https://maps.google.com/?cid=0x0:0xfb3c00ae8c9d177a
toko bangunan,Toko Perlengkapan Rumah,Toko Alfariston Tobelo,"P254+M6J, WKO, Kec. Tobelo Tengah, Kabupaten Halmahera Utara, Maluku Utara","Kabupaten Halmahera Utara, Maluku Utara",MALUKU UTARA,,Indonesia,82344212296.0,1.7092216,128.0055294,https://maps.google.com/?cid=0x0:0xda6796ae399eaa7f
toko bangunan,Toko Bahan Bangunan,toko asia indah,"MX9R+3WM, Jl. Raya Trans Halmahera, Pale, Kec. Tobelo Sel., Kabupaten Halmahera Utara, Maluku Utara","Kabupaten Halmahera Utara, Maluku Utara",MALUKU UTARA,,Indonesia,82393772669.0,1.6677149,127.9922857,https://maps.google.com/?cid=0x0:0x9eb27e74c7f7eeb0
toko bangunan,Toko Bahan Bangunan,Toko Besi Usaha,"Gosoma, Kec. Tobelo, Kabupaten Halmahera Utara, Maluku Utara","Kabupaten Halmahera Utara, Maluku Utara",MALUKU UTARA,,Indonesia,85236820531.0,1.7228832,128.0116053,https://maps.google.com/?cid=0x0:0x14ff78b5c9ff97b8
toko bangunan,Toko Perlengkapan Rumah,Toko Bangunan Tobelo Jaya,"P2G5+CR4, Gosoma, Kec. Tobelo, Kabupaten Halmahera Utara, Maluku Utara","Kabupaten Halmahera Utara, Maluku Utara",MALUKU UTARA,,Indonesia,,1.7260089,128.0095762,https://maps.google.com/?cid=0x0:0xe1e577fd37963535
toko bangunan,Toko Perlengkapan Rumah,TB. Berkat Karunia,"P2C6+MG8, Gosoma, Kec. Tobelo, Kabupaten Halmahera Utara, Maluku Utara","Kabupaten Halmahera Utara, Maluku Utara",MALUKU UTARA,,Indonesia,85166903897.0,1.7216567,128.01132,https://maps.google.com/?cid=0x0:0x1dd5a44a05b0bde4
toko bangunan,Toko Perlengkapan Rumah,Toko Maju Dop,"Simpang empat pelabuhan tobelo, Jl. Kemakmuran, Kec. Tobelo, Maluku Utara 97762","Jl. Kemakmuran, Kec. Tobelo",MALUKU UTARA,97762.0,Indonesia,81356555555.0,1.7238451,128.0117631,https://maps.google.com/?cid=0x0:0xaa72bec3241f7850
toko bangunan,toko bangunan,Kec. Tobelo Utara,"Kabupaten Halmahera Utara, Maluku Utara","Kabupaten Halmahera Utara, Maluku Utara",MALUKU UTARA,,Indonesia,,1.7634729,127.9819399,https://maps.google.com/?cid=0x0:0xd08db8115ea8b44b
toko bangunan,Toko,Toko bangunan luari,"PRC7+QV6, Luari, Kec. Tobelo Utara, Kabupaten Halmahera Utara, Maluku Utara","Kabupaten Halmahera Utara, Maluku Utara",MALUKU UTARA,,Indonesia,,1.7219214,127.8146457,https://maps.google.com/?cid=0x0:0x9e7e9ac899bb8d1
toko bangunan,Pasar bahan bangunan,Toko Sumber Bangunan,"P2G6+2MM, Gamsungi, Kec. Tobelo, Kabupaten Halmahera Utara, Maluku Utara","Kabupaten Halmahera Utara, Maluku Utara",MALUKU UTARA,,Indonesia,9242621455.0,1.7250967,128.0116677,https://maps.google.com/?cid=0x0:0x14835095227102f4
toko bangunan,Toko Perlengkapan Rumah,Toko Bangunan Tiga Putri,"QX6P+GH3, Gorua Sel., Kec. Tobelo Utara, Kabupaten Halmahera Utara, Maluku Utara","Kabupaten Halmahera Utara, Maluku Utara",MALUKU UTARA,,Indonesia,,1.7611649,127.9873482,https://maps.google.com/?cid=0x0:0xa0c3c4623e82fadb
toko bangunan,Toko Bahan Bangunan,Toko Bangunan SENTOSA,"P266+52G O.Sasingan, Wosia, Kec. Tobelo Tengah, Kabupaten Halmahera Utara, Maluku Utara","Kabupaten Halmahera Utara, Maluku Utara",MALUKU UTARA,,Indonesia,82144648989.0,1.7104491,128.0100684,https://maps.google.com/?cid=0x0:0xe043f9c8ba78bb16
toko bangunan,Toko Bahan Bangunan,Makmur Utama Supermarket Bahan bangunan,"Tj. Niara, Kec. Tobelo Tengah, Kabupaten Halmahera Utara, Maluku Utara","Kabupaten Halmahera Utara, Maluku Utara",MALUKU UTARA,,Indonesia,85117420324.0,1.7019679,128.0155893,https://maps.google.com/?cid=0x0:0x47ecdf114648cbc2
toko bangunan,Toko Perlengkapan Rumah,Rejeki Bangunan,"P2F6+RJF, Gosoma, Kec. Tobelo, Kabupaten Halmahera Utara, Maluku Utara","Kabupaten Halmahera Utara, Maluku Utara",MALUKU UTARA,,Indonesia,85166903897.0,1.7245548,128.0115514,https://maps.google.com/?cid=0x0:0xfb3c00ae8c9d177a
toko bangunan,Toko Perlengkapan Rumah,Toko jaya abadi mkcm,"PXPW+56V, Mkcm, Kec. Tobelo, Kabupaten Halmahera Utara, Maluku Utara","Kabupaten Halmahera Utara, Maluku Utara",MALUKU UTARA,,Indonesia,85167702404.0,1.7354805,127.995553,https://maps.google.com/?cid=0x0:0xa4fec3e5341adca2
toko bangunan,Toko Perlengkapan Rumah,Toko Bangunan Tobelo Jaya,"P2G5+CR4, Gosoma, Kec. Tobelo, Kabupaten Halmahera Utara, Maluku Utara","Kabupaten Halmahera Utara, Maluku Utara",MALUKU UTARA,,Indonesia,,1.7260089,128.0095762,https://maps.google.com/?cid=0x0:0xe1e577fd37963535
toko bangunan,Pasar bahan bangunan,TOKO BESI MANDIRI TOBELO,"P296+Q8W, Jl. Kemakmuran, Gosoma, Kec. Tobelo, Kabupaten Halmahera Utara, Maluku Utara","Kabupaten Halmahera Utara, Maluku Utara",MALUKU UTARA,,Indonesia,82145672345.0,1.7194784,128.0108402,https://maps.google.com/?cid=0x0:0x991d5b176c695d75
toko bangunan,Toko Bahan Bangunan,Toko Besi Usaha,"Gosoma, Kec. Tobelo, Kabupaten Halmahera Utara, Maluku Utara","Kabupaten Halmahera Utara, Maluku Utara",MALUKU UTARA,,Indonesia,85236820531.0,1.7228832,128.0116053,https://maps.google.com/?cid=0x0:0x14ff78b5c9ff97b8
toko bangunan,Toko Bahan Bangunan,Tela Cirari,"JL. Pelabuhan Feri, RT. 01 RW. 01, Gorua Utara, Gorua Utara, Kec. Tobelo Utara, Kabupaten Halmahera Utara, Maluku Utara","Kabupaten Halmahera Utara, Maluku Utara",MALUKU UTARA,,Indonesia,85398184029.0,1.76562,127.977279,https://maps.google.com/?cid=0x0:0x6d25dbd390278010
toko bangunan,Toko Perlengkapan Rumah,Toko Maju Dop,"Simpang empat pelabuhan tobelo, Jl. Kemakmuran, Kec. Tobelo, Maluku Utara 97762","Jl. Kemakmuran, Kec. Tobelo",MALUKU UTARA,97762.0,Indonesia,81356555555.0,1.7238451,128.0117631,https://maps.google.com/?cid=0x0:0xaa72bec3241f7850
toko bangunan,Toko Bahan Bangunan,Toko Sejahtera,"Samping Kantor PLN, Wosia, Kec. Tobelo Tengah, Kabupaten Halmahera Utara, Maluku Utara","Kabupaten Halmahera Utara, Maluku Utara",MALUKU UTARA,,Indonesia,82214501405.0,1.7113501,128.0114515,https://maps.google.com/?cid=0x0:0xbd1b11ed182ef41b
building materials,building materials,Hasma jaya,"Soakonora, Kec. Galela, Tobelo, Maluku Utara 97761","Kec. Galela, Tobelo",MALUKU UTARA,97761.0,Indonesia,82193017893.0,1.8085447,127.8097603,https://maps.google.com/?cid=0x0:0x27795390cf0c5ad2
building materials,Toko Bahan Bangunan,Tela Cirari,"JL. Pelabuhan Feri, RT. 01 RW. 01, Gorua Utara, Gorua Utara, Kec. Tobelo Utara, Kabupaten Halmahera Utara, Maluku Utara","Kabupaten Halmahera Utara, Maluku Utara",MALUKU UTARA,,Indonesia,85398184029.0,1.76562,127.977279,https://maps.google.com/?cid=0x0:0x6d25dbd390278010
building materials,Toko umum,Toko Ambarak Mandiri,"RT.04/RW.02, Ori, Kec. Galela Sel., Kabupaten Halmahera Utara, Maluku Utara 97769","Ori, Kec. Galela Sel., Kabupaten Halmahera Utara",MALUKU UTARA,97769.0,Indonesia,81356438215.0,1.8191134,127.7973451,https://maps.google.com/?cid=0x0:0x69cad7e76dd458d8
building materials,building materials,Hasma jaya,"Soakonora, Kec. Galela, Tobelo, Maluku Utara 97761","Kec. Galela, Tobelo",MALUKU UTARA,97761.0,Indonesia,82193017893.0,1.8085447,127.8097603,https://maps.google.com/?cid=0x0:0x27795390cf0c5ad2
building materials,Toko Bahan Bangunan,Toko Pelangi Saruma,"Perempatan Kediaman Bupati, Tembal, Kabupaten Halmahera Selatan, Maluku Utara 97791","Tembal, Kabupaten Halmahera Selatan",MALUKU UTARA,97791.0,Indonesia,81296764882.0,-0.660598,127.4804453,https://maps.google.com/?cid=0x0:0x53547e52adeb09a0
building materials,building materials,Kec. Galela Sel.,"Kabupaten Halmahera Utara, Maluku Utara","Kabupaten Halmahera Utara, Maluku Utara",MALUKU UTARA,,Indonesia,,1.8095298,127.8098621,https://maps.google.com/?cid=0x0:0xd54700cacb22b110
building materials,building materials,Hasma jaya,"Soakonora, Kec. Galela, Tobelo, Maluku Utara 97761","Kec. Galela, Tobelo",MALUKU UTARA,97761.0,Indonesia,82193017893.0,1.8085447,127.8097603,https://maps.google.com/?cid=0x0:0x27795390cf0c5ad2
building materials,Pemasok Bahan Bangunan,Toko Bangunan Galala Jaya,"9FCH+VVQ, Unnamed Road, Labuha, Kec. Bacan, Kabupaten Halmahera Selatan, Maluku Utara","Kabupaten Halmahera Selatan, Maluku Utara",MALUKU UTARA,,Indonesia,82144648989.0,-0.6277816,127.479737,https://maps.google.com/?cid=0x0:0x5b501b3fc834679d
building materials,building materials,Kec. Galela Utara,"Kabupaten Halmahera Utara, Maluku Utara","Kabupaten Halmahera Utara, Maluku Utara",MALUKU UTARA,,Indonesia,,2.0151873,127.9497063,https://maps.google.com/?cid=0x0:0x6378f017549179ee
building materials,Toko Perlengkapan Rumah,Toko jaya abadi mkcm,"PXPW+56V, Mkcm, Kec. Tobelo, Kabupaten Halmahera Utara, Maluku Utara","Kabupaten Halmahera Utara, Maluku Utara",MALUKU UTARA,,Indonesia,85167702404.0,1.7354805,127.995553,https://maps.google.com/?cid=0x0:0xa4fec3e5341adca2
building materials,Toko Perlengkapan Rumah,Toko Bangunan Tobelo Jaya,"P2G5+CR4, Gosoma, Kec. Tobelo, Kabupaten Halmahera Utara, Maluku Utara","Kabupaten Halmahera Utara, Maluku Utara",MALUKU UTARA,,Indonesia,,1.7260089,128.0095762,https://maps.google.com/?cid=0x0:0xe1e577fd37963535
building materials,Bengkel Mobil,Bengkel Las Teknik Mandiri Kao,"Gamlaha, Kec. Kao Utara, Kabupaten Halmahera Utara, Maluku Utara 97764","Kec. Kao Utara, Kabupaten Halmahera Utara",MALUKU UTARA,97764.0,Indonesia,,1.2634509,127.9586195,https://maps.google.com/?cid=0x0:0xf303de69cb4a0a7d
building materials,Tukang Las,bengkel diko las serfis mesin,"7W56+834, sumber agung, Waringin Lamo, Kec. Kao, Kabupaten Halmahera Utara, Maluku Utara","Kabupaten Halmahera Utara, Maluku Utara",MALUKU UTARA,,Indonesia,82346967762.0,1.2582555,127.9101892,https://maps.google.com/?cid=0x0:0x7a2edcf46a91bf7d
building materials,Bengkel Mobil,Bengkel Las Teknik Mandiri Kao,"Gamlaha, Kec. Kao Utara, Kabupaten Halmahera Utara, Maluku Utara 97764","Kec. Kao Utara, Kabupaten Halmahera Utara",MALUKU UTARA,97764.0,Indonesia,,1.2634509,127.9586195,https://maps.google.com/?cid=0x0:0xf303de69cb4a0a7d
building materials,building materials,Kec. Kao Bar.,"Kabupaten Halmahera Utara, Maluku Utara","Kabupaten Halmahera Utara, Maluku Utara",MALUKU UTARA,,Indonesia,,1.3826535,127.7854236,https://maps.google.com/?cid=0x0:0xf7afe1ef0f20eafa
building materials,Tukang Las,bengkel diko las serfis mesin,"7W56+834, sumber agung, Waringin Lamo, Kec. Kao, Kabupaten Halmahera Utara, Maluku Utara","Kabupaten Halmahera Utara, Maluku Utara",MALUKU UTARA,,Indonesia,82346967762.0,1.2582555,127.9101892,https://maps.google.com/?cid=0x0:0x7a2edcf46a91bf7d
building materials,Komplek perumahan,Tela Pres Manohara,"JL. Trans Tobelo, RT. 02, Biang, Biang, Kec. Kao, Kabupaten Halmahera Utara, Maluku Utara","Kabupaten Halmahera Utara, Maluku Utara",MALUKU UTARA,,Indonesia,82197074235.0,1.2437877,127.9448627,https://maps.google.com/?cid=0x0:0xd80c746c0f0bbf90
building materials,Toko umum,"RR Solution, Malifut","5R5P+QPV, Wangeotak, Kec. Malifut, Kabupaten Halmahera Utara, Maluku Utara","Kabupaten Halmahera Utara, Maluku Utara",MALUKU UTARA,,Indonesia,,1.1594837,127.8368115,https://maps.google.com/?cid=0x0:0xd7284a6f3cb43ddb
building materials,Tukang Las,bengkel diko las serfis mesin,"7W56+834, sumber agung, Waringin Lamo, Kec. Kao, Kabupaten Halmahera Utara, Maluku Utara","Kabupaten Halmahera Utara, Maluku Utara",MALUKU UTARA,,Indonesia,82346967762.0,1.2582555,127.9101892,https://maps.google.com/?cid=0x0:0x7a2edcf46a91bf7d
building materials,Bengkel Mobil,Bengkel Las Teknik Mandiri Kao,"Gamlaha, Kec. Kao Utara, Kabupaten Halmahera Utara, Maluku Utara 97764","Kec. Kao Utara, Kabupaten Halmahera Utara",MALUKU UTARA,97764.0,Indonesia,,1.2634509,127.9586195,https://maps.google.com/?cid=0x0:0xf303de69cb4a0a7d
building materials,Toko umum,TOKO BANGUNAN ALDAFIQ,"Jln trans, Kuntum Mekar, Kec. Kao Tlk., Kabupaten Halmahera Utara, Maluku Utara","Kabupaten Halmahera Utara, Maluku Utara",MALUKU UTARA,,Indonesia,85255457737.0,1.0571478,127.6968002,https://maps.google.com/?cid=0x0:0xbd45128e560c144d
building materials,building materials,Kec. Kao Tlk.,"Kabupaten Halmahera Utara, Maluku Utara","Kabupaten Halmahera Utara, Maluku Utara",MALUKU UTARA,,Indonesia,,1.0572865,127.697129,https://maps.google.com/?cid=0x0:0xb7e89a460242f82
building materials,Toko Bahan Bangunan,AcongHome,"Bangkit Rahmat, Kec. Jailolo Sel., Kabupaten Halmahera Barat, Maluku Utara 97751","Kec. Jailolo Sel., Kabupaten Halmahera Barat",MALUKU UTARA,97751.0,Indonesia,82249957359.0,0.8783307,127.625355,https://maps.google.com/?cid=0x0:0x302721dd42ac36fa
building materials,building materials,Kec. Kao Tlk.,"Kabupaten Halmahera Utara, Maluku Utara","Kabupaten Halmahera Utara, Maluku Utara",MALUKU UTARA,,Indonesia,,1.0572865,127.697129,https://maps.google.com/?cid=0x0:0xb7e89a460242f82
building materials,Kompleks Kondominium,Rumah afdilah faqih,"4FJH+R5, Akelamo, Kec. Sahu Tim., Kabupaten Halmahera Barat, Maluku Utara","Kabupaten Halmahera Barat, Maluku Utara",MALUKU UTARA,,Indonesia,,1.132117,127.4779525,https://maps.google.com/?cid=0x0:0x1abb4eba0ea70c36
building materials,Toko umum,TOKO BANGUNAN ALDAFIQ,"Jln trans, Kuntum Mekar, Kec. Kao Tlk., Kabupaten Halmahera Utara, Maluku Utara","Kabupaten Halmahera Utara, Maluku Utara",MALUKU UTARA,,Indonesia,85255457737.0,1.0571478,127.6968002,https://maps.google.com/?cid=0x0:0xbd45128e560c144d
building materials,building materials,MATRIAL KONSTRUKSI,"5PMQ+FV8, Tafasoho, Kec. Malifut, Kabupaten Halmahera Utara, Maluku Utara","Kabupaten Halmahera Utara, Maluku Utara",MALUKU UTARA,,Indonesia,,1.1836603,127.7397135,https://maps.google.com/?cid=0x0:0xa35c56645b2349e5
building materials,Toko Perlengkapan Rumah,TOKO Bahan Bangunan Bobohoo,"Unnamed Road, Soa Gimalaha, Kec. Kota Maba, Kabupaten Halmahera Timur, Maluku Utara","Kabupaten Halmahera Timur, Maluku Utara",MALUKU UTARA,,Indonesia,82344091888.0,0.6902266,128.2950041,https://maps.google.com/?cid=0x0:0x4372c85023912b79
building materials,Toko,Toko Maba Bangunan,"M7WM+MHQ, Unnamed Road, Maba Sangaji, Kec. Kota Maba, Kabupaten Halmahera Timur, Maluku Utara","Kabupaten Halmahera Timur, Maluku Utara",MALUKU UTARA,,Indonesia,82187925434.0,0.6967101,128.2839897,https://maps.google.com/?cid=0x0:0xb5997f32a3da9b72
building materials,building materials,Kec. Loloda Utara,"Kabupaten Halmahera Utara, Maluku Utara","Kabupaten Halmahera Utara, Maluku Utara",MALUKU UTARA,,Indonesia,,2.0927761,127.8484263,https://maps.google.com/?cid=0x0:0xb975e42fee13365a
building materials,Toko Perlengkapan Rumah,TOKO Bahan Bangunan Bobohoo,"Unnamed Road, Soa Gimalaha, Kec. Kota Maba, Kabupaten Halmahera Timur, Maluku Utara","Kabupaten Halmahera Timur, Maluku Utara",MALUKU UTARA,,Indonesia,82344091888.0,0.6902266,128.2950041,https://maps.google.com/?cid=0x0:0x4372c85023912b79
building materials,Toko Bahan Bangunan,Toko.Boekit Bangunan,"3FQG+659, Acango, Kec. Jailolo, Kabupaten Halmahera Barat, Maluku Utara","Kabupaten Halmahera Barat, Maluku Utara",MALUKU UTARA,,Indonesia,85166903897.0,1.0882582,127.4754115,https://maps.google.com/?cid=0x0:0x88096a93b702388e
building materials,building materials,Kec. Malifut,"Kabupaten Halmahera Utara, Maluku Utara","Kabupaten Halmahera Utara, Maluku Utara",MALUKU UTARA,,Indonesia,,1.0939454,127.776544,https://maps.google.com/?cid=0x0:0xd9110b77277647d2
building materials,Toko umum,"RR Solution, Malifut","5R5P+QPV, Wangeotak, Kec. Malifut, Kabupaten Halmahera Utara, Maluku Utara","Kabupaten Halmahera Utara, Maluku Utara",MALUKU UTARA,,Indonesia,,1.1594837,127.8368115,https://maps.google.com/?cid=0x0:0xd7284a6f3cb43ddb
building materials,Toko Bahan Bangunan,Toko Sejati Bangunan,"Jalan Raya Wosia, Depan Saro Nifero, Samping Dealer Honda CV.Lion, Mahia, Kec. Tobelo, Maluku Utara 97762","Depan Saro Nifero, Samping Dealer Honda CV.Lion, Mahia, Kec. Tobelo",MALUKU UTARA,97762.0,Indonesia,82195215789.0,1.7063845,128.0084905,https://maps.google.com/?cid=0x0:0xe07acc47d25781c8
building materials,Toko Perlengkapan Rumah,TB. Berkat Karunia,"P2C6+MG8, Gosoma, Kec. Tobelo, Kabupaten Halmahera Utara, Maluku Utara","Kabupaten Halmahera Utara, Maluku Utara",MALUKU UTARA,,Indonesia,85166903897.0,1.7216567,128.01132,https://maps.google.com/?cid=0x0:0x1dd5a44a05b0bde4
building materials,Pasar bahan bangunan,Toko Sumber Bangunan,"P2G6+2MM, Gamsungi, Kec. Tobelo, Kabupaten Halmahera Utara, Maluku Utara","Kabupaten Halmahera Utara, Maluku Utara",MALUKU UTARA,,Indonesia,9242621455.0,1.7250967,128.0116677,https://maps.google.com/?cid=0x0:0x14835095227102f4
building materials,Toko Bahan Bangunan,Makmur Utama Supermarket Bahan bangunan,"Tj. Niara, Kec. Tobelo Tengah, Kabupaten Halmahera Utara, Maluku Utara","Kabupaten Halmahera Utara, Maluku Utara",MALUKU UTARA,,Indonesia,85117420324.0,1.7019679,128.0155893,https://maps.google.com/?cid=0x0:0x47ecdf114648cbc2
building materials,building materials,Tobelo,"Gamsungi, Kec. Tobelo, Kabupaten Halmahera Utara, Maluku Utara","Kabupaten Halmahera Utara, Maluku Utara",MALUKU UTARA,,Indonesia,,1.725721,128.001404,https://maps.google.com/?cid=0x0:0xed92b856242bad82
building materials,Toko Perlengkapan Rumah,Tk.Mulia Jaya,"P2F2+WQ7, Gamsungi, Kec. Tobelo, Kabupaten Halmahera Utara, Maluku Utara","Kabupaten Halmahera Utara, Maluku Utara",MALUKU UTARA,,Indonesia,,1.7247757,128.0019201,https://maps.google.com/?cid=0x0:0x98deffa82d6d06d5
building materials,Toko Perlengkapan Rumah,Toko jaya abadi mkcm,"PXPW+56V, Mkcm, Kec. Tobelo, Kabupaten Halmahera Utara, Maluku Utara","Kabupaten Halmahera Utara, Maluku Utara",MALUKU UTARA,,Indonesia,85167702404.0,1.7354805,127.995553,https://maps.google.com/?cid=0x0:0xa4fec3e5341adca2
building materials,Pasar bahan bangunan,TOKO BESI MANDIRI TOBELO,"P296+Q8W, Jl. Kemakmuran, Gosoma, Kec. Tobelo, Kabupaten Halmahera Utara, Maluku Utara","Kabupaten Halmahera Utara, Maluku Utara",MALUKU UTARA,,Indonesia,82145672345.0,1.7194784,128.0108402,https://maps.google.com/?cid=0x0:0x991d5b176c695d75
building materials,Minimarket,Hibualamo Jaya (BUMD). PT,"JL. Djumati Lamali, No. 7, Gosoma, 97762, Gosoma, Kec. Tobelo, Kabupaten Halmahera Utara, Maluku Utara","Gosoma,",MALUKU UTARA,97762.0,Indonesia,92421779.0,1.719102,128.006165,https://maps.google.com/?cid=0x0:0x323635fdc3db0a8f
building materials,Toko Perlengkapan Rumah,Toko Maju Dop,"Simpang empat pelabuhan tobelo, Jl. Kemakmuran, Kec. Tobelo, Maluku Utara 97762","Jl. Kemakmuran, Kec. Tobelo",MALUKU UTARA,97762.0,Indonesia,81356555555.0,1.7238451,128.0117631,https://maps.google.com/?cid=0x0:0xaa72bec3241f7850
building materials,Toko,Toko Kali Seratus,"Gosoma, Kec. Tobelo, Kabupaten Halmahera Utara, Maluku Utara 97762","Kec. Tobelo, Kabupaten Halmahera Utara",MALUKU UTARA,97762.0,Indonesia,81244151500.0,1.7195595,128.007351,https://maps.google.com/?cid=0x0:0xa65cc8601921934f
building materials,,MR.DIY,"Jl. Kemakmuran Ruko No 5  6, Wosia, Kec. Tobelo, Kabupaten Halmahera Utara, Maluku Utara 97762","Wosia, Kec. Tobelo, Kabupaten Halmahera Utara",MALUKU UTARA,97762.0,Indonesia,2130022796.0,1.7123967,128.0110361,https://maps.google.com/?cid=0x0:0x3721c895e42a4330
building materials,building materials,Kec. Tobelo Bar.,"Kabupaten Halmahera Utara, Maluku Utara","Kabupaten Halmahera Utara, Maluku Utara",MALUKU UTARA,,Indonesia,,1.5410827,127.9493454,https://maps.google.com/?cid=0x0:0x253218d19bcb2a3e
building materials,Pasar bahan bangunan,Toko Sumber Bangunan,"P2G6+2MM, Gamsungi, Kec. Tobelo, Kabupaten Halmahera Utara, Maluku Utara","Kabupaten Halmahera Utara, Maluku Utara",MALUKU UTARA,,Indonesia,9242621455.0,1.7250967,128.0116677,https://maps.google.com/?cid=0x0:0x14835095227102f4
building materials,Toko Bahan Bangunan,Toko Sejati Bangunan,"Jalan Raya Wosia, Depan Saro Nifero, Samping Dealer Honda CV.Lion, Mahia, Kec. Tobelo, Maluku Utara 97762","Depan Saro Nifero, Samping Dealer Honda CV.Lion, Mahia, Kec. Tobelo",MALUKU UTARA,97762.0,Indonesia,82195215789.0,1.7063845,128.0084905,https://maps.google.com/?cid=0x0:0xe07acc47d25781c8
building materials,Toko Bahan Bangunan,Makmur Utama Supermarket Bahan bangunan,"Tj. Niara, Kec. Tobelo Tengah, Kabupaten Halmahera Utara, Maluku Utara","Kabupaten Halmahera Utara, Maluku Utara",MALUKU UTARA,,Indonesia,85117420324.0,1.7019679,128.0155893,https://maps.google.com/?cid=0x0:0x47ecdf114648cbc2
building materials,Toko Perlengkapan Rumah,Tk.Mulia Jaya,"P2F2+WQ7, Gamsungi, Kec. Tobelo, Kabupaten Halmahera Utara, Maluku Utara","Kabupaten Halmahera Utara, Maluku Utara",MALUKU UTARA,,Indonesia,,1.7247757,128.0019201,https://maps.google.com/?cid=0x0:0x98deffa82d6d06d5
building materials,Toko Perlengkapan Rumah,TB. Berkat Karunia,"P2C6+MG8, Gosoma, Kec. Tobelo, Kabupaten Halmahera Utara, Maluku Utara","Kabupaten Halmahera Utara, Maluku Utara",MALUKU UTARA,,Indonesia,85166903897.0,1.7216567,128.01132,https://maps.google.com/?cid=0x0:0x1dd5a44a05b0bde4
building materials,Toko Perlengkapan Rumah,Toko jaya abadi mkcm,"PXPW+56V, Mkcm, Kec. Tobelo, Kabupaten Halmahera Utara, Maluku Utara","Kabupaten Halmahera Utara, Maluku Utara",MALUKU UTARA,,Indonesia,85167702404.0,1.7354805,127.995553,https://maps.google.com/?cid=0x0:0xa4fec3e5341adca2
building materials,Pasar bahan bangunan,TOKO BESI MANDIRI TOBELO,"P296+Q8W, Jl. Kemakmuran, Gosoma, Kec. Tobelo, Kabupaten Halmahera Utara, Maluku Utara","Kabupaten Halmahera Utara, Maluku Utara",MALUKU UTARA,,Indonesia,82145672345.0,1.7194784,128.0108402,https://maps.google.com/?cid=0x0:0x991d5b176c695d75
building materials,Toko Bahan Bangunan,Toko Bangunan SENTOSA,"P266+52G O.Sasingan, Wosia, Kec. Tobelo Tengah, Kabupaten Halmahera Utara, Maluku Utara","Kabupaten Halmahera Utara, Maluku Utara",MALUKU UTARA,,Indonesia,82144648989.0,1.7104491,128.0100684,https://maps.google.com/?cid=0x0:0xe043f9c8ba78bb16
building materials,building materials,Kec. Tobelo Sel.,"Kabupaten Halmahera Utara, Maluku Utara","Kabupaten Halmahera Utara, Maluku Utara",MALUKU UTARA,,Indonesia,,1.6281283,127.980575,https://maps.google.com/?cid=0x0:0x1ecb6049a3d26ca1
building materials,Pasar bahan bangunan,Toko Sumber Bangunan,"P2G6+2MM, Gamsungi, Kec. Tobelo, Kabupaten Halmahera Utara, Maluku Utara","Kabupaten Halmahera Utara, Maluku Utara",MALUKU UTARA,,Indonesia,9242621455.0,1.7250967,128.0116677,https://maps.google.com/?cid=0x0:0x14835095227102f4
building materials,Toko Bahan Bangunan,Makmur Utama Supermarket Bahan bangunan,"Tj. Niara, Kec. Tobelo Tengah, Kabupaten Halmahera Utara, Maluku Utara","Kabupaten Halmahera Utara, Maluku Utara",MALUKU UTARA,,Indonesia,85117420324.0,1.7019679,128.0155893,https://maps.google.com/?cid=0x0:0x47ecdf114648cbc2
building materials,Toko Bahan Bangunan,Toko Sejati Bangunan,"Jalan Raya Wosia, Depan Saro Nifero, Samping Dealer Honda CV.Lion, Mahia, Kec. Tobelo, Maluku Utara 97762","Depan Saro Nifero, Samping Dealer Honda CV.Lion, Mahia, Kec. Tobelo",MALUKU UTARA,97762.0,Indonesia,82195215789.0,1.7063845,128.0084905,https://maps.google.com/?cid=0x0:0xe07acc47d25781c8
building materials,Toko Perlengkapan Rumah,TB. Berkat Karunia,"P2C6+MG8, Gosoma, Kec. Tobelo, Kabupaten Halmahera Utara, Maluku Utara","Kabupaten Halmahera Utara, Maluku Utara",MALUKU UTARA,,Indonesia,85166903897.0,1.7216567,128.01132,https://maps.google.com/?cid=0x0:0x1dd5a44a05b0bde4
building materials,Toko Bahan Bangunan,Toko Bangunan SENTOSA,"P266+52G O.Sasingan, Wosia, Kec. Tobelo Tengah, Kabupaten Halmahera Utara, Maluku Utara","Kabupaten Halmahera Utara, Maluku Utara",MALUKU UTARA,,Indonesia,82144648989.0,1.7104491,128.0100684,https://maps.google.com/?cid=0x0:0xe043f9c8ba78bb16
building materials,Toko Perlengkapan Rumah,Tk.Mulia Jaya,"P2F2+WQ7, Gamsungi, Kec. Tobelo, Kabupaten Halmahera Utara, Maluku Utara","Kabupaten Halmahera Utara, Maluku Utara",MALUKU UTARA,,Indonesia,,1.7247757,128.0019201,https://maps.google.com/?cid=0x0:0x98deffa82d6d06d5
building materials,building materials,Kec. Tobelo Tim.,"Kabupaten Halmahera Utara, Maluku Utara","Kabupaten Halmahera Utara, Maluku Utara",MALUKU UTARA,,Indonesia,,1.5702306,128.0348143,https://maps.google.com/?cid=0x0:0x3b948dd04e667beb
building materials,Toko Bahan Bangunan,Toko Sejati Bangunan,"Jalan Raya Wosia, Depan Saro Nifero, Samping Dealer Honda CV.Lion, Mahia, Kec. Tobelo, Maluku Utara 97762","Depan Saro Nifero, Samping Dealer Honda CV.Lion, Mahia, Kec. Tobelo",MALUKU UTARA,97762.0,Indonesia,82195215789.0,1.7063845,128.0084905,https://maps.google.com/?cid=0x0:0xe07acc47d25781c8
building materials,Pasar bahan bangunan,Toko Sumber Bangunan,"P2G6+2MM, Gamsungi, Kec. Tobelo, Kabupaten Halmahera Utara, Maluku Utara","Kabupaten Halmahera Utara, Maluku Utara",MALUKU UTARA,,Indonesia,9242621455.0,1.7250967,128.0116677,https://maps.google.com/?cid=0x0:0x14835095227102f4
building materials,Toko Perlengkapan Rumah,TB. Berkat Karunia,"P2C6+MG8, Gosoma, Kec. Tobelo, Kabupaten Halmahera Utara, Maluku Utara","Kabupaten Halmahera Utara, Maluku Utara",MALUKU UTARA,,Indonesia,85166903897.0,1.7216567,128.01132,https://maps.google.com/?cid=0x0:0x1dd5a44a05b0bde4
building materials,Toko Bahan Bangunan,Makmur Utama Supermarket Bahan bangunan,"Tj. Niara, Kec. Tobelo Tengah, Kabupaten Halmahera Utara, Maluku Utara","Kabupaten Halmahera Utara, Maluku Utara",MALUKU UTARA,,Indonesia,85117420324.0,1.7019679,128.0155893,https://maps.google.com/?cid=0x0:0x47ecdf114648cbc2
building materials,Toko Perlengkapan Rumah,Tk.Mulia Jaya,"P2F2+WQ7, Gamsungi, Kec. Tobelo, Kabupaten Halmahera Utara, Maluku Utara","Kabupaten Halmahera Utara, Maluku Utara",MALUKU UTARA,,Indonesia,,1.7247757,128.0019201,https://maps.google.com/?cid=0x0:0x98deffa82d6d06d5
building materials,Toko Bahan Bangunan,Makmur Utama Supermarket Bahan Bangunan,"Jl. Yasin Gamsungi No.2 Kec. ternate tengah, Kel, Makassar Tim., Makassar Timur, Kota Ternate, Maluku Utara 97724","Kel, Makassar Tim., Makassar Timur, Kota Ternate",MALUKU UTARA,97724.0,Indonesia,8114313799.0,0.7940352,127.3876695,https://maps.google.com/?cid=0x0:0x2f492ae87bf64247
building materials,Toko Bahan Bangunan,Toko Sejahtera,"Samping Kantor PLN, Wosia, Kec. Tobelo Tengah, Kabupaten Halmahera Utara, Maluku Utara","Kabupaten Halmahera Utara, Maluku Utara",MALUKU UTARA,,Indonesia,82214501405.0,1.7113501,128.0114515,https://maps.google.com/?cid=0x0:0xbd1b11ed182ef41b
building materials,Toko Bahan Bangunan,Toko Bangunan SENTOSA,"P266+52G O.Sasingan, Wosia, Kec. Tobelo Tengah, Kabupaten Halmahera Utara, Maluku Utara","Kabupaten Halmahera Utara, Maluku Utara",MALUKU UTARA,,Indonesia,82144648989.0,1.7104491,128.0100684,https://maps.google.com/?cid=0x0:0xe043f9c8ba78bb16
building materials,Pasar bahan bangunan,Toko Sumber Bangunan,"P2G6+2MM, Gamsungi, Kec. Tobelo, Kabupaten Halmahera Utara, Maluku Utara","Kabupaten Halmahera Utara, Maluku Utara",MALUKU UTARA,,Indonesia,9242621455.0,1.7250967,128.0116677,https://maps.google.com/?cid=0x0:0x14835095227102f4
building materials,building materials,Kec. Tobelo Tengah,"Kabupaten Halmahera Utara, Maluku Utara","Kabupaten Halmahera Utara, Maluku Utara",MALUKU UTARA,,Indonesia,,1.7074794,128.0127501,https://maps.google.com/?cid=0x0:0xef293bed1374db12
building materials,Toko Bahan Bangunan,Toko Sejati Bangunan,"Jalan Raya Wosia, Depan Saro Nifero, Samping Dealer Honda CV.Lion, Mahia, Kec. Tobelo, Maluku Utara 97762","Depan Saro Nifero, Samping Dealer Honda CV.Lion, Mahia, Kec. Tobelo",MALUKU UTARA,97762.0,Indonesia,82195215789.0,1.7063845,128.0084905,https://maps.google.com/?cid=0x0:0xe07acc47d25781c8
building materials,Minimarket,Hibualamo Jaya (BUMD). PT,"JL. Djumati Lamali, No. 7, Gosoma, 97762, Gosoma, Kec. Tobelo, Kabupaten Halmahera Utara, Maluku Utara","Gosoma,",MALUKU UTARA,97762.0,Indonesia,92421779.0,1.719102,128.006165,https://maps.google.com/?cid=0x0:0x323635fdc3db0a8f
building materials,Toko,Toko Kali Seratus,"Gosoma, Kec. Tobelo, Kabupaten Halmahera Utara, Maluku Utara 97762","Kec. Tobelo, Kabupaten Halmahera Utara",MALUKU UTARA,97762.0,Indonesia,81244151500.0,1.7195595,128.007351,https://maps.google.com/?cid=0x0:0xa65cc8601921934f
building materials,Toko Perlengkapan Rumah,TB. Berkat Karunia,"P2C6+MG8, Gosoma, Kec. Tobelo, Kabupaten Halmahera Utara, Maluku Utara","Kabupaten Halmahera Utara, Maluku Utara",MALUKU UTARA,,Indonesia,85166903897.0,1.7216567,128.01132,https://maps.google.com/?cid=0x0:0x1dd5a44a05b0bde4
building materials,Toko Perlengkapan Rumah,Toko Maju Dop,"Simpang empat pelabuhan tobelo, Jl. Kemakmuran, Kec. Tobelo, Maluku Utara 97762","Jl. Kemakmuran, Kec. Tobelo",MALUKU UTARA,97762.0,Indonesia,81356555555.0,1.7238451,128.0117631,https://maps.google.com/?cid=0x0:0xaa72bec3241f7850
building materials,Toko Bahan Bangunan,Toko Sejahtera,"Samping Kantor PLN, Wosia, Kec. Tobelo Tengah, Kabupaten Halmahera Utara, Maluku Utara","Kabupaten Halmahera Utara, Maluku Utara",MALUKU UTARA,,Indonesia,82214501405.0,1.7113501,128.0114515,https://maps.google.com/?cid=0x0:0xbd1b11ed182ef41b
building materials,,MR.DIY,"Jl. Kemakmuran Ruko No 5  6, Wosia, Kec. Tobelo, Kabupaten Halmahera Utara, Maluku Utara 97762","Wosia, Kec. Tobelo, Kabupaten Halmahera Utara",MALUKU UTARA,97762.0,Indonesia,2130022796.0,1.7123967,128.0110361,https://maps.google.com/?cid=0x0:0x3721c895e42a4330
building materials,Toko Perlengkapan Rumah,Tk.Mulia Jaya,"P2F2+WQ7, Gamsungi, Kec. Tobelo, Kabupaten Halmahera Utara, Maluku Utara","Kabupaten Halmahera Utara, Maluku Utara",MALUKU UTARA,,Indonesia,,1.7247757,128.0019201,https://maps.google.com/?cid=0x0:0x98deffa82d6d06d5
building materials,Toko Elektronik,RR Solution,"tobelo, Jl. Sinar Mas No.10-12, Gosoma, Kec. Tobelo, Kabupaten Halmahera Utara, Maluku Utara 97762","Jl. Sinar Mas No.10-12, Gosoma, Kec. Tobelo, Kabupaten Halmahera Utara",MALUKU UTARA,97762.0,Indonesia,81387862975.0,1.7194727,128.0100098,https://maps.google.com/?cid=0x0:0x77e71f41d6fd3422
building materials,Toko Perlengkapan Rumah,Toko. Berkat Jaya,"Jl. Sengkanaung No.444, Gosoma, Kec. Tobelo, Kabupaten Halmahera Utara, Maluku Utara 97762","Gosoma, Kec. Tobelo, Kabupaten Halmahera Utara",MALUKU UTARA,97762.0,Indonesia,82125554858.0,1.7196652,128.0086225,https://maps.google.com/?cid=0x0:0x2aa7e545ed954bc5
building materials,Toko Bahan Bangunan,Toko Bangunan SENTOSA,"P266+52G O.Sasingan, Wosia, Kec. Tobelo Tengah, Kabupaten Halmahera Utara, Maluku Utara","Kabupaten Halmahera Utara, Maluku Utara",MALUKU UTARA,,Indonesia,82144648989.0,1.7104491,128.0100684,https://maps.google.com/?cid=0x0:0xe043f9c8ba78bb16
building materials,Toko Perlengkapan Rumah,Toko Alfariston Tobelo,"P254+M6J, WKO, Kec. Tobelo Tengah, Kabupaten Halmahera Utara, Maluku Utara","Kabupaten Halmahera Utara, Maluku Utara",MALUKU UTARA,,Indonesia,82344212296.0,1.7092216,128.0055294,https://maps.google.com/?cid=0x0:0xda6796ae399eaa7f
building materials,Pasar bahan bangunan,Toko Sumber Bangunan,"P2G6+2MM, Gamsungi, Kec. Tobelo, Kabupaten Halmahera Utara, Maluku Utara","Kabupaten Halmahera Utara, Maluku Utara",MALUKU UTARA,,Indonesia,9242621455.0,1.7250967,128.0116677,https://maps.google.com/?cid=0x0:0x14835095227102f4
building materials,building materials,Kec. Tobelo Utara,"Kabupaten Halmahera Utara, Maluku Utara","Kabupaten Halmahera Utara, Maluku Utara",MALUKU UTARA,,Indonesia,,1.7634729,127.9819399,https://maps.google.com/?cid=0x0:0xd08db8115ea8b44b
building materials,Minimarket,Hibualamo Jaya (BUMD). PT,"JL. Djumati Lamali, No. 7, Gosoma, 97762, Gosoma, Kec. Tobelo, Kabupaten Halmahera Utara, Maluku Utara","Gosoma,",MALUKU UTARA,97762.0,Indonesia,92421779.0,1.719102,128.006165,https://maps.google.com/?cid=0x0:0x323635fdc3db0a8f
building materials,Toko,Toko Kali Seratus,"Gosoma, Kec. Tobelo, Kabupaten Halmahera Utara, Maluku Utara 97762","Kec. Tobelo, Kabupaten Halmahera Utara",MALUKU UTARA,97762.0,Indonesia,81244151500.0,1.7195595,128.007351,https://maps.google.com/?cid=0x0:0xa65cc8601921934f
building materials,Toko Bahan Bangunan,Makmur Utama Supermarket Bahan bangunan,"Tj. Niara, Kec. Tobelo Tengah, Kabupaten Halmahera Utara, Maluku Utara","Kabupaten Halmahera Utara, Maluku Utara",MALUKU UTARA,,Indonesia,85117420324.0,1.7019679,128.0155893,https://maps.google.com/?cid=0x0:0x47ecdf114648cbc2
building materials,Toko Perlengkapan Rumah,Toko Maju Dop,"Simpang empat pelabuhan tobelo, Jl. Kemakmuran, Kec. Tobelo, Maluku Utara 97762","Jl. Kemakmuran, Kec. Tobelo",MALUKU UTARA,97762.0,Indonesia,81356555555.0,1.7238451,128.0117631,https://maps.google.com/?cid=0x0:0xaa72bec3241f7850
building materials,Toko Perlengkapan Rumah,TB. Berkat Karunia,"P2C6+MG8, Gosoma, Kec. Tobelo, Kabupaten Halmahera Utara, Maluku Utara","Kabupaten Halmahera Utara, Maluku Utara",MALUKU UTARA,,Indonesia,85166903897.0,1.7216567,128.01132,https://maps.google.com/?cid=0x0:0x1dd5a44a05b0bde4
building materials,Toko Bahan Bangunan,Toko Sejahtera,"Samping Kantor PLN, Wosia, Kec. Tobelo Tengah, Kabupaten Halmahera Utara, Maluku Utara","Kabupaten Halmahera Utara, Maluku Utara",MALUKU UTARA,,Indonesia,82214501405.0,1.7113501,128.0114515,https://maps.google.com/?cid=0x0:0xbd1b11ed182ef41b
building materials,Toko Perlengkapan Rumah,Tk.Mulia Jaya,"P2F2+WQ7, Gamsungi, Kec. Tobelo, Kabupaten Halmahera Utara, Maluku Utara","Kabupaten Halmahera Utara, Maluku Utara",MALUKU UTARA,,Indonesia,,1.7247757,128.0019201,https://maps.google.com/?cid=0x0:0x98deffa82d6d06d5
building materials,,MR.DIY,"Jl. Kemakmuran Ruko No 5  6, Wosia, Kec. Tobelo, Kabupaten Halmahera Utara, Maluku Utara 97762","Wosia, Kec. Tobelo, Kabupaten Halmahera Utara",MALUKU UTARA,97762.0,Indonesia,2130022796.0,1.7123967,128.0110361,https://maps.google.com/?cid=0x0:0x3721c895e42a4330
building materials,Toko Perlengkapan Rumah,Toko jaya abadi mkcm,"PXPW+56V, Mkcm, Kec. Tobelo, Kabupaten Halmahera Utara, Maluku Utara","Kabupaten Halmahera Utara, Maluku Utara",MALUKU UTARA,,Indonesia,85167702404.0,1.7354805,127.995553,https://maps.google.com/?cid=0x0:0xa4fec3e5341adca2
building materials,Pasar bahan bangunan,TOKO BESI MANDIRI TOBELO,"P296+Q8W, Jl. Kemakmuran, Gosoma, Kec. Tobelo, Kabupaten Halmahera Utara, Maluku Utara","Kabupaten Halmahera Utara, Maluku Utara",MALUKU UTARA,,Indonesia,82145672345.0,1.7194784,128.0108402,https://maps.google.com/?cid=0x0:0x991d5b176c695d75
building materials,Toko Elektronik,RR Solution,"tobelo, Jl. Sinar Mas No.10-12, Gosoma, Kec. Tobelo, Kabupaten Halmahera Utara, Maluku Utara 97762","Jl. Sinar Mas No.10-12, Gosoma, Kec. Tobelo, Kabupaten Halmahera Utara",MALUKU UTARA,97762.0,Indonesia,81387862975.0,1.7194727,128.0100098,https://maps.google.com/?cid=0x0:0x77e71f41d6fd3422
building materials,Toko Bahan Bangunan,Toko Bangunan SENTOSA,"P266+52G O.Sasingan, Wosia, Kec. Tobelo Tengah, Kabupaten Halmahera Utara, Maluku Utara","Kabupaten Halmahera Utara, Maluku Utara",MALUKU UTARA,,Indonesia,82144648989.0,1.7104491,128.0100684,https://maps.google.com/?cid=0x0:0xe043f9c8ba78bb16
hardware store,Toko umum,Toko Ambarak Mandiri,"RT.04/RW.02, Ori, Kec. Galela Sel., Kabupaten Halmahera Utara, Maluku Utara 97769","Ori, Kec. Galela Sel., Kabupaten Halmahera Utara",MALUKU UTARA,97769.0,Indonesia,81356438215.0,1.8191134,127.7973451,https://maps.google.com/?cid=0x0:0x69cad7e76dd458d8
hardware store,Toko Bahan Bangunan,A. Adi gerbang,"RQ9X+G94, Ori, Kec. Galela Sel., Kabupaten Halmahera Utara, Maluku Utara","Kabupaten Halmahera Utara, Maluku Utara",MALUKU UTARA,,Indonesia,,1.8187613,127.7984445,https://maps.google.com/?cid=0x0:0x12b7cef1bd5e801b
hardware store,Toko umum,Toko Ambarak Mandiri,"RT.04/RW.02, Ori, Kec. Galela Sel., Kabupaten Halmahera Utara, Maluku Utara 97769","Ori, Kec. Galela Sel., Kabupaten Halmahera Utara",MALUKU UTARA,97769.0,Indonesia,81356438215.0,1.8191134,127.7973451,https://maps.google.com/?cid=0x0:0x69cad7e76dd458d8
hardware store,Toko Bahan Bangunan,A. Adi gerbang,"RQ9X+G94, Ori, Kec. Galela Sel., Kabupaten Halmahera Utara, Maluku Utara","Kabupaten Halmahera Utara, Maluku Utara",MALUKU UTARA,,Indonesia,,1.8187613,127.7984445,https://maps.google.com/?cid=0x0:0x12b7cef1bd5e801b
hardware store,Toko Bahan Bangunan,A. Adi gerbang,"RQ9X+G94, Ori, Kec. Galela Sel., Kabupaten Halmahera Utara, Maluku Utara","Kabupaten Halmahera Utara, Maluku Utara",MALUKU UTARA,,Indonesia,,1.8187613,127.7984445,https://maps.google.com/?cid=0x0:0x12b7cef1bd5e801b
hardware store,Toko umum,Toko Ambarak Mandiri,"RT.04/RW.02, Ori, Kec. Galela Sel., Kabupaten Halmahera Utara, Maluku Utara 97769","Ori, Kec. Galela Sel., Kabupaten Halmahera Utara",MALUKU UTARA,97769.0,Indonesia,81356438215.0,1.8191134,127.7973451,https://maps.google.com/?cid=0x0:0x69cad7e76dd458d8
hardware store,hardware store,Kec. Galela Utara,"Kabupaten Halmahera Utara, Maluku Utara","Kabupaten Halmahera Utara, Maluku Utara",MALUKU UTARA,,Indonesia,,2.0151873,127.9497063,https://maps.google.com/?cid=0x0:0x6378f017549179ee
hardware store,hardware store,Kec. Kao,"Kabupaten Halmahera Utara, Maluku Utara","Kabupaten Halmahera Utara, Maluku Utara",MALUKU UTARA,,Indonesia,,1.1658407,127.9007494,https://maps.google.com/?cid=0x0:0xf94b0d160a93d5c4
hardware store,Toko umum,"RR Solution, Malifut","5R5P+QPV, Wangeotak, Kec. Malifut, Kabupaten Halmahera Utara, Maluku Utara","Kabupaten Halmahera Utara, Maluku Utara",MALUKU UTARA,,Indonesia,,1.1594837,127.8368115,https://maps.google.com/?cid=0x0:0xd7284a6f3cb43ddb
hardware store,Toko Pasokan Peralatan Gigi,PT. Mandala Mitratama,"Jl. Kh Hasyim Ashari No.125, RT.6/RW.8, Cideng, Kecamatan Gambir, Kota Jakarta Pusat, Daerah Khusus Ibukota Jakarta 10150","RT.6/RW.8, Cideng, Kecamatan Gambir, Kota Jakarta Pusat",MALUKU UTARA,10150.0,Indonesia,216332770.0,-6.1691282,106.8030777,https://maps.google.com/?cid=0x0:0x58f27169d0ecad18
hardware store,hardware store,Kec. Kao Bar.,"Kabupaten Halmahera Utara, Maluku Utara","Kabupaten Halmahera Utara, Maluku Utara",MALUKU UTARA,,Indonesia,,1.3826535,127.7854236,https://maps.google.com/?cid=0x0:0xf7afe1ef0f20eafa
hardware store,Toko umum,"RR Solution, Malifut","5R5P+QPV, Wangeotak, Kec. Malifut, Kabupaten Halmahera Utara, Maluku Utara","Kabupaten Halmahera Utara, Maluku Utara",MALUKU UTARA,,Indonesia,,1.1594837,127.8368115,https://maps.google.com/?cid=0x0:0xd7284a6f3cb43ddb
hardware store,hardware store,Kec. Kao Utara,"Kabupaten Halmahera Utara, Maluku Utara","Kabupaten Halmahera Utara, Maluku Utara",MALUKU UTARA,,Indonesia,,1.3982481,128.0027515,https://maps.google.com/?cid=0x0:0x5d873bc773b3c48e
hardware store,Toko Bahan Bangunan,AcongHome,"Bangkit Rahmat, Kec. Jailolo Sel., Kabupaten Halmahera Barat, Maluku Utara 97751","Kec. Jailolo Sel., Kabupaten Halmahera Barat",MALUKU UTARA,97751.0,Indonesia,82249957359.0,0.8783307,127.625355,https://maps.google.com/?cid=0x0:0x302721dd42ac36fa
hardware store,Toko Bahan Bangunan,Toko.Boekit Bangunan,"3FQG+659, Acango, Kec. Jailolo, Kabupaten Halmahera Barat, Maluku Utara","Kabupaten Halmahera Barat, Maluku Utara",MALUKU UTARA,,Indonesia,85166903897.0,1.0882582,127.4754115,https://maps.google.com/?cid=0x0:0x88096a93b702388e
hardware store,Toko Bahan Bangunan,AcongHome,"Bangkit Rahmat, Kec. Jailolo Sel., Kabupaten Halmahera Barat, Maluku Utara 97751","Kec. Jailolo Sel., Kabupaten Halmahera Barat",MALUKU UTARA,97751.0,Indonesia,82249957359.0,0.8783307,127.625355,https://maps.google.com/?cid=0x0:0x302721dd42ac36fa
hardware store,Toko Bahan Bangunan,Toko.Boekit Bangunan,"3FQG+659, Acango, Kec. Jailolo, Kabupaten Halmahera Barat, Maluku Utara","Kabupaten Halmahera Barat, Maluku Utara",MALUKU UTARA,,Indonesia,85166903897.0,1.0882582,127.4754115,https://maps.google.com/?cid=0x0:0x88096a93b702388e
hardware store,hardware store,Loloda Kepulauan,"Kabupaten Halmahera Utara, Maluku Utara","Kabupaten Halmahera Utara, Maluku Utara",MALUKU UTARA,,Indonesia,,2.2509061,127.7981498,https://maps.google.com/?cid=0x0:0x7f27e9dea84ef656
hardware store,hardware store,Kec. Loloda Utara,"Kabupaten Halmahera Utara, Maluku Utara","Kabupaten Halmahera Utara, Maluku Utara",MALUKU UTARA,,Indonesia,,2.0927761,127.8484263,https://maps.google.com/?cid=0x0:0xb975e42fee13365a
hardware store,hardware store,Kec. Malifut,"Kabupaten Halmahera Utara, Maluku Utara","Kabupaten Halmahera Utara, Maluku Utara",MALUKU UTARA,,Indonesia,,1.0939454,127.776544,https://maps.google.com/?cid=0x0:0xd9110b77277647d2
hardware store,Toko umum,"RR Solution, Malifut","5R5P+QPV, Wangeotak, Kec. Malifut, Kabupaten Halmahera Utara, Maluku Utara","Kabupaten Halmahera Utara, Maluku Utara",MALUKU UTARA,,Indonesia,,1.1594837,127.8368115,https://maps.google.com/?cid=0x0:0xd7284a6f3cb43ddb
hardware store,Pasar bahan bangunan,Toko Sumber Bangunan,"P2G6+2MM, Gamsungi, Kec. Tobelo, Kabupaten Halmahera Utara, Maluku Utara","Kabupaten Halmahera Utara, Maluku Utara",MALUKU UTARA,,Indonesia,9242621455.0,1.7250967,128.0116677,https://maps.google.com/?cid=0x0:0x14835095227102f4
hardware store,hardware store,Tobelo,"Gamsungi, Kec. Tobelo, Kabupaten Halmahera Utara, Maluku Utara","Kabupaten Halmahera Utara, Maluku Utara",MALUKU UTARA,,Indonesia,,1.725721,128.001404,https://maps.google.com/?cid=0x0:0xed92b856242bad82
hardware store,Toko Bahan Bangunan,Toko Sejati Bangunan,"Jalan Raya Wosia, Depan Saro Nifero, Samping Dealer Honda CV.Lion, Mahia, Kec. Tobelo, Maluku Utara 97762","Depan Saro Nifero, Samping Dealer Honda CV.Lion, Mahia, Kec. Tobelo",MALUKU UTARA,97762.0,Indonesia,82195215789.0,1.7063845,128.0084905,https://maps.google.com/?cid=0x0:0xe07acc47d25781c8
hardware store,Toko Perlengkapan Rumah,Tk.Mulia Jaya,"P2F2+WQ7, Gamsungi, Kec. Tobelo, Kabupaten Halmahera Utara, Maluku Utara","Kabupaten Halmahera Utara, Maluku Utara",MALUKU UTARA,,Indonesia,,1.7247757,128.0019201,https://maps.google.com/?cid=0x0:0x98deffa82d6d06d5
hardware store,Toko Bahan Bangunan,Makmur Utama Supermarket Bahan bangunan,"Tj. Niara, Kec. Tobelo Tengah, Kabupaten Halmahera Utara, Maluku Utara","Kabupaten Halmahera Utara, Maluku Utara",MALUKU UTARA,,Indonesia,85117420324.0,1.7019679,128.0155893,https://maps.google.com/?cid=0x0:0x47ecdf114648cbc2
hardware store,Toko Perlengkapan Rumah,Toko William,"P2J3+JM6, Gura, Kec. Tobelo, Kabupaten Halmahera Utara, Maluku Utara","Kabupaten Halmahera Utara, Maluku Utara",MALUKU UTARA,,Indonesia,81352997896.0,1.7267074,128.0074938,https://maps.google.com/?cid=0x0:0x4d96e6931e9cf30c
hardware store,Toko,Toko Favorite Tobelo,"P2G6+FGW, Jl. Kemakmuran, Gamsungi, Kec. Tobelo, Kabupaten Halmahera Utara, Maluku Utara","Kabupaten Halmahera Utara, Maluku Utara",MALUKU UTARA,,Indonesia,9242621358.0,1.7262417,128.0113436,https://maps.google.com/?cid=0x0:0xcb86dd246b2bf674
hardware store,Bengkel Bubut,Toko Mega Utama,"Jln, Wosia, Tobelo Tengah, North Halmahera Regency, North Maluku","Kabupaten Halmahera Utara, Maluku Utara",MALUKU UTARA,,Indonesia,81342560008.0,1.7120549,128.0110996,https://maps.google.com/?cid=0x0:0xf6a05870f06c72ca
hardware store,Pemasok filter udara,Mega Utama isi ulang oxygen,"P2C2+5XV, Jl. PDAM, Gosoma, Kec. Tobelo, Kabupaten Halmahera Utara, Maluku Utara","Kabupaten Halmahera Utara, Maluku Utara",MALUKU UTARA,,Indonesia,81342560008.0,1.7204874,128.0024285,https://maps.google.com/?cid=0x0:0x7743acc3f251ea1a
hardware store,Toko Bahan Bangunan,Toko Bangunan SENTOSA,"P266+52G O.Sasingan, Wosia, Kec. Tobelo Tengah, Kabupaten Halmahera Utara, Maluku Utara","Kabupaten Halmahera Utara, Maluku Utara",MALUKU UTARA,,Indonesia,82144648989.0,1.7104491,128.0100684,https://maps.google.com/?cid=0x0:0xe043f9c8ba78bb16
hardware store,Apotek,Saudara Toko,"PXGX+QXX, JL. Kemakmuran, Gamsungi, Kec. Tobelo, Kabupaten Halmahera Utara, Maluku Utara","Kabupaten Halmahera Utara, Maluku Utara",MALUKU UTARA,,Indonesia,9242621090.0,1.726995,127.999992,https://maps.google.com/?cid=0x0:0xa58409a554e5cc50
hardware store,Toko,Toko Mega Baru,"Jl. Kemakmuran No.90, Gamsungi, Kec. Tobelo, Kabupaten Halmahera Utara, Maluku Utara","Kabupaten Halmahera Utara, Maluku Utara",MALUKU UTARA,,Indonesia,82194847812.0,1.7279235,128.0109969,https://maps.google.com/?cid=0x0:0x5cf358102e2c53b7
hardware store,Toko bahan makanan,Pusat Grosir Tobelo,"Lorong Hitam, Gosoma, Kec. Tobelo, Kabupaten Halmahera Utara, Maluku Utara","Kabupaten Halmahera Utara, Maluku Utara",MALUKU UTARA,,Indonesia,,1.7228935,128.0095735,https://maps.google.com/?cid=0x0:0x3530d8171da25c2d
hardware store,Kantor Pelayanan Pajak,Kantor Pelayanan Perbendaharaan Negara (KPPN) Tobelo,"P296+764, Jl. Kemakmuran, Gosoma, Kec. Tobelo, Kabupaten Halmahera Utara, Maluku Utara","Kabupaten Halmahera Utara, Maluku Utara",MALUKU UTARA,,Indonesia,85756121190.0,1.7183926,128.0104881,https://maps.google.com/?cid=0x0:0x1b3afffe81bcdabf
hardware store,hardware store,Kec. Tobelo Bar.,"Kabupaten Halmahera Utara, Maluku Utara","Kabupaten Halmahera Utara, Maluku Utara",MALUKU UTARA,,Indonesia,,1.5410827,127.9493454,https://maps.google.com/?cid=0x0:0x253218d19bcb2a3e
hardware store,Pasar bahan bangunan,Toko Sumber Bangunan,"P2G6+2MM, Gamsungi, Kec. Tobelo, Kabupaten Halmahera Utara, Maluku Utara","Kabupaten Halmahera Utara, Maluku Utara",MALUKU UTARA,,Indonesia,9242621455.0,1.7250967,128.0116677,https://maps.google.com/?cid=0x0:0x14835095227102f4
hardware store,Toko Bahan Bangunan,Toko Sejati Bangunan,"Jalan Raya Wosia, Depan Saro Nifero, Samping Dealer Honda CV.Lion, Mahia, Kec. Tobelo, Maluku Utara 97762","Depan Saro Nifero, Samping Dealer Honda CV.Lion, Mahia, Kec. Tobelo",MALUKU UTARA,97762.0,Indonesia,82195215789.0,1.7063845,128.0084905,https://maps.google.com/?cid=0x0:0xe07acc47d25781c8
hardware store,,MR.DIY,"Jl. Kemakmuran Ruko No 5  6, Wosia, Kec. Tobelo, Kabupaten Halmahera Utara, Maluku Utara 97762","Wosia, Kec. Tobelo, Kabupaten Halmahera Utara",MALUKU UTARA,97762.0,Indonesia,2130022796.0,1.7123967,128.0110361,https://maps.google.com/?cid=0x0:0x3721c895e42a4330
hardware store,Toko Bahan Bangunan,Makmur Utama Supermarket Bahan bangunan,"Tj. Niara, Kec. Tobelo Tengah, Kabupaten Halmahera Utara, Maluku Utara","Kabupaten Halmahera Utara, Maluku Utara",MALUKU UTARA,,Indonesia,85117420324.0,1.7019679,128.0155893,https://maps.google.com/?cid=0x0:0x47ecdf114648cbc2
hardware store,Toko Perlengkapan Rumah,Toko William,"P2J3+JM6, Gura, Kec. Tobelo, Kabupaten Halmahera Utara, Maluku Utara","Kabupaten Halmahera Utara, Maluku Utara",MALUKU UTARA,,Indonesia,81352997896.0,1.7267074,128.0074938,https://maps.google.com/?cid=0x0:0x4d96e6931e9cf30c
hardware store,Toko Bahan Bangunan,Toko Bangunan SENTOSA,"P266+52G O.Sasingan, Wosia, Kec. Tobelo Tengah, Kabupaten Halmahera Utara, Maluku Utara","Kabupaten Halmahera Utara, Maluku Utara",MALUKU UTARA,,Indonesia,82144648989.0,1.7104491,128.0100684,https://maps.google.com/?cid=0x0:0xe043f9c8ba78bb16
hardware store,Toko Perlengkapan Rumah,Tk.Mulia Jaya,"P2F2+WQ7, Gamsungi, Kec. Tobelo, Kabupaten Halmahera Utara, Maluku Utara","Kabupaten Halmahera Utara, Maluku Utara",MALUKU UTARA,,Indonesia,,1.7247757,128.0019201,https://maps.google.com/?cid=0x0:0x98deffa82d6d06d5
hardware store,Toko Bahan Bangunan,Toko Sejati Bangunan,"Jalan Raya Wosia, Depan Saro Nifero, Samping Dealer Honda CV.Lion, Mahia, Kec. Tobelo, Maluku Utara 97762","Depan Saro Nifero, Samping Dealer Honda CV.Lion, Mahia, Kec. Tobelo",MALUKU UTARA,97762.0,Indonesia,82195215789.0,1.7063845,128.0084905,https://maps.google.com/?cid=0x0:0xe07acc47d25781c8
hardware store,hardware store,Kec. Tobelo Sel.,"Kabupaten Halmahera Utara, Maluku Utara","Kabupaten Halmahera Utara, Maluku Utara",MALUKU UTARA,,Indonesia,,1.6281283,127.980575,https://maps.google.com/?cid=0x0:0x1ecb6049a3d26ca1
hardware store,Pasar bahan bangunan,Toko Sumber Bangunan,"P2G6+2MM, Gamsungi, Kec. Tobelo, Kabupaten Halmahera Utara, Maluku Utara","Kabupaten Halmahera Utara, Maluku Utara",MALUKU UTARA,,Indonesia,9242621455.0,1.7250967,128.0116677,https://maps.google.com/?cid=0x0:0x14835095227102f4
hardware store,Toko Bahan Bangunan,Makmur Utama Supermarket Bahan bangunan,"Tj. Niara, Kec. Tobelo Tengah, Kabupaten Halmahera Utara, Maluku Utara","Kabupaten Halmahera Utara, Maluku Utara",MALUKU UTARA,,Indonesia,85117420324.0,1.7019679,128.0155893,https://maps.google.com/?cid=0x0:0x47ecdf114648cbc2
hardware store,Toko Bahan Bangunan,toko asia indah,"MX9R+3WM, Jl. Raya Trans Halmahera, Pale, Kec. Tobelo Sel., Kabupaten Halmahera Utara, Maluku Utara","Kabupaten Halmahera Utara, Maluku Utara",MALUKU UTARA,,Indonesia,82393772669.0,1.6677149,127.9922857,https://maps.google.com/?cid=0x0:0x9eb27e74c7f7eeb0
hardware store,Toko Bahan Bangunan,Toko Bangunan SENTOSA,"P266+52G O.Sasingan, Wosia, Kec. Tobelo Tengah, Kabupaten Halmahera Utara, Maluku Utara","Kabupaten Halmahera Utara, Maluku Utara",MALUKU UTARA,,Indonesia,82144648989.0,1.7104491,128.0100684,https://maps.google.com/?cid=0x0:0xe043f9c8ba78bb16
hardware store,Toko Perlengkapan Rumah,Toko William,"P2J3+JM6, Gura, Kec. Tobelo, Kabupaten Halmahera Utara, Maluku Utara","Kabupaten Halmahera Utara, Maluku Utara",MALUKU UTARA,,Indonesia,81352997896.0,1.7267074,128.0074938,https://maps.google.com/?cid=0x0:0x4d96e6931e9cf30c
hardware store,Bengkel Bubut,Toko Mega Utama,"Jln, Wosia, Tobelo Tengah, North Halmahera Regency, North Maluku","Kabupaten Halmahera Utara, Maluku Utara",MALUKU UTARA,,Indonesia,81342560008.0,1.7120549,128.0110996,https://maps.google.com/?cid=0x0:0xf6a05870f06c72ca
hardware store,Toko Perlengkapan Rumah,Tk.Mulia Jaya,"P2F2+WQ7, Gamsungi, Kec. Tobelo, Kabupaten Halmahera Utara, Maluku Utara","Kabupaten Halmahera Utara, Maluku Utara",MALUKU UTARA,,Indonesia,,1.7247757,128.0019201,https://maps.google.com/?cid=0x0:0x98deffa82d6d06d5
hardware store,hardware store,Kec. Tobelo Tim.,"Kabupaten Halmahera Utara, Maluku Utara","Kabupaten Halmahera Utara, Maluku Utara",MALUKU UTARA,,Indonesia,,1.5702306,128.0348143,https://maps.google.com/?cid=0x0:0x3b948dd04e667beb
hardware store,Toko Bahan Bangunan,Toko Sejati Bangunan,"Jalan Raya Wosia, Depan Saro Nifero, Samping Dealer Honda CV.Lion, Mahia, Kec. Tobelo, Maluku Utara 97762","Depan Saro Nifero, Samping Dealer Honda CV.Lion, Mahia, Kec. Tobelo",MALUKU UTARA,97762.0,Indonesia,82195215789.0,1.7063845,128.0084905,https://maps.google.com/?cid=0x0:0xe07acc47d25781c8
hardware store,Pasar bahan bangunan,Toko Sumber Bangunan,"P2G6+2MM, Gamsungi, Kec. Tobelo, Kabupaten Halmahera Utara, Maluku Utara","Kabupaten Halmahera Utara, Maluku Utara",MALUKU UTARA,,Indonesia,9242621455.0,1.7250967,128.0116677,https://maps.google.com/?cid=0x0:0x14835095227102f4
hardware store,Toko Bahan Bangunan,Makmur Utama Supermarket Bahan bangunan,"Tj. Niara, Kec. Tobelo Tengah, Kabupaten Halmahera Utara, Maluku Utara","Kabupaten Halmahera Utara, Maluku Utara",MALUKU UTARA,,Indonesia,85117420324.0,1.7019679,128.0155893,https://maps.google.com/?cid=0x0:0x47ecdf114648cbc2
hardware store,Toko Bahan Bangunan,Toko Bangunan SENTOSA,"P266+52G O.Sasingan, Wosia, Kec. Tobelo Tengah, Kabupaten Halmahera Utara, Maluku Utara","Kabupaten Halmahera Utara, Maluku Utara",MALUKU UTARA,,Indonesia,82144648989.0,1.7104491,128.0100684,https://maps.google.com/?cid=0x0:0xe043f9c8ba78bb16
hardware store,,MR.DIY,"Jl. Kemakmuran Ruko No 5  6, Wosia, Kec. Tobelo, Kabupaten Halmahera Utara, Maluku Utara 97762","Wosia, Kec. Tobelo, Kabupaten Halmahera Utara",MALUKU UTARA,97762.0,Indonesia,2130022796.0,1.7123967,128.0110361,https://maps.google.com/?cid=0x0:0x3721c895e42a4330
hardware store,Bengkel Bubut,Toko Mega Utama,"Jln, Wosia, Tobelo Tengah, North Halmahera Regency, North Maluku","Kabupaten Halmahera Utara, Maluku Utara",MALUKU UTARA,,Indonesia,81342560008.0,1.7120549,128.0110996,https://maps.google.com/?cid=0x0:0xf6a05870f06c72ca
hardware store,Toko Perlengkapan Rumah,Toko William,"P2J3+JM6, Gura, Kec. Tobelo, Kabupaten Halmahera Utara, Maluku Utara","Kabupaten Halmahera Utara, Maluku Utara",MALUKU UTARA,,Indonesia,81352997896.0,1.7267074,128.0074938,https://maps.google.com/?cid=0x0:0x4d96e6931e9cf30c
hardware store,Toko Perlengkapan Rumah,Tk.Mulia Jaya,"P2F2+WQ7, Gamsungi, Kec. Tobelo, Kabupaten Halmahera Utara, Maluku Utara","Kabupaten Halmahera Utara, Maluku Utara",MALUKU UTARA,,Indonesia,,1.7247757,128.0019201,https://maps.google.com/?cid=0x0:0x98deffa82d6d06d5
hardware store,Toko,Toko Kali Seratus,"Gosoma, Kec. Tobelo, Kabupaten Halmahera Utara, Maluku Utara 97762","Kec. Tobelo, Kabupaten Halmahera Utara",MALUKU UTARA,97762.0,Indonesia,81244151500.0,1.7195595,128.007351,https://maps.google.com/?cid=0x0:0xa65cc8601921934f
hardware store,hardware store,Kec. Tobelo Tengah,"Kabupaten Halmahera Utara, Maluku Utara","Kabupaten Halmahera Utara, Maluku Utara",MALUKU UTARA,,Indonesia,,1.7074794,128.0127501,https://maps.google.com/?cid=0x0:0xef293bed1374db12
hardware store,Toko Bahan Bangunan,Makmur Utama Supermarket Bahan bangunan,"Tj. Niara, Kec. Tobelo Tengah, Kabupaten Halmahera Utara, Maluku Utara","Kabupaten Halmahera Utara, Maluku Utara",MALUKU UTARA,,Indonesia,85117420324.0,1.7019679,128.0155893,https://maps.google.com/?cid=0x0:0x47ecdf114648cbc2
hardware store,,MR.DIY,"Jl. Kemakmuran Ruko No 5  6, Wosia, Kec. Tobelo, Kabupaten Halmahera Utara, Maluku Utara 97762","Wosia, Kec. Tobelo, Kabupaten Halmahera Utara",MALUKU UTARA,97762.0,Indonesia,2130022796.0,1.7123967,128.0110361,https://maps.google.com/?cid=0x0:0x3721c895e42a4330
hardware store,Toko Bahan Bangunan,Toko Sejati Bangunan,"Jalan Raya Wosia, Depan Saro Nifero, Samping Dealer Honda CV.Lion, Mahia, Kec. Tobelo, Maluku Utara 97762","Depan Saro Nifero, Samping Dealer Honda CV.Lion, Mahia, Kec. Tobelo",MALUKU UTARA,97762.0,Indonesia,82195215789.0,1.7063845,128.0084905,https://maps.google.com/?cid=0x0:0xe07acc47d25781c8
hardware store,Pasar bahan bangunan,Toko Sumber Bangunan,"P2G6+2MM, Gamsungi, Kec. Tobelo, Kabupaten Halmahera Utara, Maluku Utara","Kabupaten Halmahera Utara, Maluku Utara",MALUKU UTARA,,Indonesia,9242621455.0,1.7250967,128.0116677,https://maps.google.com/?cid=0x0:0x14835095227102f4
hardware store,hardware store,Serba Motor,"P2C6+63Q, Gosoma, Kec. Tobelo, Kabupaten Halmahera Utara, Maluku Utara","Kabupaten Halmahera Utara, Maluku Utara",MALUKU UTARA,,Indonesia,,1.7205756,128.0102376,https://maps.google.com/?cid=0x0:0x4a61d4588fd1dc65
hardware store,Toko Bahan Bangunan,Toko Sejahtera,"Samping Kantor PLN, Wosia, Kec. Tobelo Tengah, Kabupaten Halmahera Utara, Maluku Utara","Kabupaten Halmahera Utara, Maluku Utara",MALUKU UTARA,,Indonesia,82214501405.0,1.7113501,128.0114515,https://maps.google.com/?cid=0x0:0xbd1b11ed182ef41b
hardware store,Toko Bahan Bangunan,Toko Bangunan SENTOSA,"P266+52G O.Sasingan, Wosia, Kec. Tobelo Tengah, Kabupaten Halmahera Utara, Maluku Utara","Kabupaten Halmahera Utara, Maluku Utara",MALUKU UTARA,,Indonesia,82144648989.0,1.7104491,128.0100684,https://maps.google.com/?cid=0x0:0xe043f9c8ba78bb16
hardware store,Toko Swalayan,Toko Meubel 88 Tobelo,"P276+573, Jalan, Wosia, Tobelo, North Halmahera Regency, North Maluku","Kabupaten Halmahera Utara, Maluku Utara",MALUKU UTARA,,Indonesia,,1.7128764,128.0106578,https://maps.google.com/?cid=0x0:0xdff9336f4fd86178
hardware store,Bengkel Bubut,Toko Mega Utama,"Jln, Wosia, Tobelo Tengah, North Halmahera Regency, North Maluku","Kabupaten Halmahera Utara, Maluku Utara",MALUKU UTARA,,Indonesia,81342560008.0,1.7120549,128.0110996,https://maps.google.com/?cid=0x0:0xf6a05870f06c72ca
hardware store,Pasar bahan bangunan,TOKO BESI MANDIRI TOBELO,"P296+Q8W, Jl. Kemakmuran, Gosoma, Kec. Tobelo, Kabupaten Halmahera Utara, Maluku Utara","Kabupaten Halmahera Utara, Maluku Utara",MALUKU UTARA,,Indonesia,82145672345.0,1.7194784,128.0108402,https://maps.google.com/?cid=0x0:0x991d5b176c695d75
hardware store,Toko Perlengkapan Rumah,Tk.Mulia Jaya,"P2F2+WQ7, Gamsungi, Kec. Tobelo, Kabupaten Halmahera Utara, Maluku Utara","Kabupaten Halmahera Utara, Maluku Utara",MALUKU UTARA,,Indonesia,,1.7247757,128.0019201,https://maps.google.com/?cid=0x0:0x98deffa82d6d06d5
hardware store,,MR.DIY,"Jl. Raya Trans Galela-Tobelo, Wari, Kec. Tobelo, Kabupaten Halmahera Utara, Maluku Utara 97762","Wari, Kec. Tobelo, Kabupaten Halmahera Utara",MALUKU UTARA,97762.0,Indonesia,,1.744707,127.998178,https://maps.google.com/?cid=0x0:0x3d0229568963d19
hardware store,hardware store,Kec. Tobelo Utara,"Kabupaten Halmahera Utara, Maluku Utara","Kabupaten Halmahera Utara, Maluku Utara",MALUKU UTARA,,Indonesia,,1.7634729,127.9819399,https://maps.google.com/?cid=0x0:0xd08db8115ea8b44b
hardware store,Toko,Toko Kali Seratus,"Gosoma, Kec. Tobelo, Kabupaten Halmahera Utara, Maluku Utara 97762","Kec. Tobelo, Kabupaten Halmahera Utara",MALUKU UTARA,97762.0,Indonesia,81244151500.0,1.7195595,128.007351,https://maps.google.com/?cid=0x0:0xa65cc8601921934f
hardware store,Toko Perlengkapan Rumah,Toko Maju Dop,"Simpang empat pelabuhan tobelo, Jl. Kemakmuran, Kec. Tobelo, Maluku Utara 97762","Jl. Kemakmuran, Kec. Tobelo",MALUKU UTARA,97762.0,Indonesia,81356555555.0,1.7238451,128.0117631,https://maps.google.com/?cid=0x0:0xaa72bec3241f7850
hardware store,Toko Bahan Bangunan,Toko Sejati Bangunan,"Jalan Raya Wosia, Depan Saro Nifero, Samping Dealer Honda CV.Lion, Mahia, Kec. Tobelo, Maluku Utara 97762","Depan Saro Nifero, Samping Dealer Honda CV.Lion, Mahia, Kec. Tobelo",MALUKU UTARA,97762.0,Indonesia,82195215789.0,1.7063845,128.0084905,https://maps.google.com/?cid=0x0:0xe07acc47d25781c8
hardware store,,MR.DIY,"Jl. Kemakmuran Ruko No 5  6, Wosia, Kec. Tobelo, Kabupaten Halmahera Utara, Maluku Utara 97762","Wosia, Kec. Tobelo, Kabupaten Halmahera Utara",MALUKU UTARA,97762.0,Indonesia,2130022796.0,1.7123967,128.0110361,https://maps.google.com/?cid=0x0:0x3721c895e42a4330
hardware store,,MR.DIY,"Jl. Raya Trans Galela-Tobelo, Wari, Kec. Tobelo, Kabupaten Halmahera Utara, Maluku Utara 97762","Wari, Kec. Tobelo, Kabupaten Halmahera Utara",MALUKU UTARA,97762.0,Indonesia,,1.744707,127.998178,https://maps.google.com/?cid=0x0:0x3d0229568963d19
hardware store,Toko Bahan Bangunan,Makmur Utama Supermarket Bahan bangunan,"Tj. Niara, Kec. Tobelo Tengah, Kabupaten Halmahera Utara, Maluku Utara","Kabupaten Halmahera Utara, Maluku Utara",MALUKU UTARA,,Indonesia,85117420324.0,1.7019679,128.0155893,https://maps.google.com/?cid=0x0:0x47ecdf114648cbc2
hardware store,Toko Bahan Bangunan,Toko Sejahtera,"Samping Kantor PLN, Wosia, Kec. Tobelo Tengah, Kabupaten Halmahera Utara, Maluku Utara","Kabupaten Halmahera Utara, Maluku Utara",MALUKU UTARA,,Indonesia,82214501405.0,1.7113501,128.0114515,https://maps.google.com/?cid=0x0:0xbd1b11ed182ef41b
hardware store,hardware store,Serba Motor,"P2C6+63Q, Gosoma, Kec. Tobelo, Kabupaten Halmahera Utara, Maluku Utara","Kabupaten Halmahera Utara, Maluku Utara",MALUKU UTARA,,Indonesia,,1.7205756,128.0102376,https://maps.google.com/?cid=0x0:0x4a61d4588fd1dc65
hardware store,Toko Swalayan,Toko Meubel 88 Tobelo,"P276+573, Jalan, Wosia, Tobelo, North Halmahera Regency, North Maluku","Kabupaten Halmahera Utara, Maluku Utara",MALUKU UTARA,,Indonesia,,1.7128764,128.0106578,https://maps.google.com/?cid=0x0:0xdff9336f4fd86178
hardware store,Bengkel Bubut,Toko Mega Utama,"Jln, Wosia, Tobelo Tengah, North Halmahera Regency, North Maluku","Kabupaten Halmahera Utara, Maluku Utara",MALUKU UTARA,,Indonesia,81342560008.0,1.7120549,128.0110996,https://maps.google.com/?cid=0x0:0xf6a05870f06c72ca
hardware store,Toko Bahan Bangunan,Toko Bangunan SENTOSA,"P266+52G O.Sasingan, Wosia, Kec. Tobelo Tengah, Kabupaten Halmahera Utara, Maluku Utara","Kabupaten Halmahera Utara, Maluku Utara",MALUKU UTARA,,Indonesia,82144648989.0,1.7104491,128.0100684,https://maps.google.com/?cid=0x0:0xe043f9c8ba78bb16
hardware store,Toko Perlengkapan Rumah,Toko William,"P2J3+JM6, Gura, Kec. Tobelo, Kabupaten Halmahera Utara, Maluku Utara","Kabupaten Halmahera Utara, Maluku Utara",MALUKU UTARA,,Indonesia,81352997896.0,1.7267074,128.0074938,https://maps.google.com/?cid=0x0:0x4d96e6931e9cf30c
hardware store,Pasar bahan bangunan,TOKO BESI MANDIRI TOBELO,"P296+Q8W, Jl. Kemakmuran, Gosoma, Kec. Tobelo, Kabupaten Halmahera Utara, Maluku Utara","Kabupaten Halmahera Utara, Maluku Utara",MALUKU UTARA,,Indonesia,82145672345.0,1.7194784,128.0108402,https://maps.google.com/?cid=0x0:0x991d5b176c695d75
supermarket bangunan,supermarket bangunan,Kec. Galela,"Kabupaten Halmahera Utara, Maluku Utara","Kabupaten Halmahera Utara, Maluku Utara",MALUKU UTARA,,Indonesia,,1.7991745,127.9013278,https://maps.google.com/?cid=0x0:0x6d037a5832cde2d7
supermarket bangunan,Pasar bahan bangunan,Toko Sumber Bangunan,"P2G6+2MM, Gamsungi, Kec. Tobelo, Kabupaten Halmahera Utara, Maluku Utara","Kabupaten Halmahera Utara, Maluku Utara",MALUKU UTARA,,Indonesia,9242621455.0,1.7250967,128.0116677,https://maps.google.com/?cid=0x0:0x14835095227102f4
supermarket bangunan,Toko Bahan Bangunan,Makmur Utama Supermarket Bahan bangunan,"Tj. Niara, Kec. Tobelo Tengah, Kabupaten Halmahera Utara, Maluku Utara","Kabupaten Halmahera Utara, Maluku Utara",MALUKU UTARA,,Indonesia,85117420324.0,1.7019679,128.0155893,https://maps.google.com/?cid=0x0:0x47ecdf114648cbc2
supermarket bangunan,Toko Bahan Bangunan,Toko Bangunan SENTOSA,"P266+52G O.Sasingan, Wosia, Kec. Tobelo Tengah, Kabupaten Halmahera Utara, Maluku Utara","Kabupaten Halmahera Utara, Maluku Utara",MALUKU UTARA,,Indonesia,82144648989.0,1.7104491,128.0100684,https://maps.google.com/?cid=0x0:0xe043f9c8ba78bb16
supermarket bangunan,Toko Bahan Bangunan,Makmur Utama Supermarket Bahan Bangunan,"Jambula, Kec. Pulau Ternate, Kota Ternate, Maluku Utara","Kota Ternate, Maluku Utara",MALUKU UTARA,,Indonesia,8114313899.0,0.7581804,127.3220409,https://maps.google.com/?cid=0x0:0xe3a01731f7851efa
supermarket bangunan,Toko Perlengkapan Rumah,Tk.Mulia Jaya,"P2F2+WQ7, Gamsungi, Kec. Tobelo, Kabupaten Halmahera Utara, Maluku Utara","Kabupaten Halmahera Utara, Maluku Utara",MALUKU UTARA,,Indonesia,,1.7247757,128.0019201,https://maps.google.com/?cid=0x0:0x98deffa82d6d06d5
supermarket bangunan,Toko Bahan Bangunan,Makmur Utama Supermarket Bahan Bangunan,"Jl. Yasin Gamsungi No.2 Kec. ternate tengah, Kel, Makassar Tim., Makassar Timur, Kota Ternate, Maluku Utara 97724","Kel, Makassar Tim., Makassar Timur, Kota Ternate",MALUKU UTARA,97724.0,Indonesia,8114313799.0,0.7940352,127.3876695,https://maps.google.com/?cid=0x0:0x2f492ae87bf64247
supermarket bangunan,Toko Bahan Bangunan,TOKO BANGUNAN SINAR ALWA,"FW9F+G42, Lelilef Waibulan, Kec. Weda Tengah, Kabupaten Halmahera Tengah, Maluku Utara","Kabupaten Halmahera Tengah, Maluku Utara",MALUKU UTARA,,Indonesia,85167702404.0,0.4688305,127.9229748,https://maps.google.com/?cid=0x0:0xb8137106c2556d8a
supermarket bangunan,Toko bahan makanan,Galaxy Mart,"P2C6+MMM, Rawajaya, Kec. Tobelo, Kabupaten Halmahera Utara, Maluku Utara","Kabupaten Halmahera Utara, Maluku Utara",MALUKU UTARA,,Indonesia,81288889356.0,1.7217063,128.011669,https://maps.google.com/?cid=0x0:0x28ebc8db575348b5
supermarket bangunan,Toko Perlengkapan Rumah,Toko William,"P2J3+JM6, Gura, Kec. Tobelo, Kabupaten Halmahera Utara, Maluku Utara","Kabupaten Halmahera Utara, Maluku Utara",MALUKU UTARA,,Indonesia,81352997896.0,1.7267074,128.0074938,https://maps.google.com/?cid=0x0:0x4d96e6931e9cf30c
supermarket bangunan,supermarket bangunan,Hasma jaya,"Soakonora, Kec. Galela, Tobelo, Maluku Utara 97761","Kec. Galela, Tobelo",MALUKU UTARA,97761.0,Indonesia,82193017893.0,1.8085447,127.8097603,https://maps.google.com/?cid=0x0:0x27795390cf0c5ad2
supermarket bangunan,Toko Bahan Bangunan,Toko Surya Jaya - Labuha,"9FCJ+69H, Unnamed Road, Labuha, Kec. Bacan, Kabupaten Halmahera Selatan, Maluku Utara","Kabupaten Halmahera Selatan, Maluku Utara",MALUKU UTARA,,Indonesia,9272321732.0,-0.6294262,127.4809969,https://maps.google.com/?cid=0x0:0xdad7b98c88e223e3
supermarket bangunan,supermarket bangunan,Kec. Galela Bar.,"Kabupaten Halmahera Utara, Maluku Utara","Kabupaten Halmahera Utara, Maluku Utara",MALUKU UTARA,,Indonesia,,1.8258564,127.7917991,https://maps.google.com/?cid=0x0:0x6883a71e285c2680
supermarket bangunan,Toko Bahan Bangunan,Makmur Utama Supermarket Bahan bangunan,"Tj. Niara, Kec. Tobelo Tengah, Kabupaten Halmahera Utara, Maluku Utara","Kabupaten Halmahera Utara, Maluku Utara",MALUKU UTARA,,Indonesia,85117420324.0,1.7019679,128.0155893,https://maps.google.com/?cid=0x0:0x47ecdf114648cbc2
supermarket bangunan,Pasar bahan bangunan,Toko Sumber Bangunan,"P2G6+2MM, Gamsungi, Kec. Tobelo, Kabupaten Halmahera Utara, Maluku Utara","Kabupaten Halmahera Utara, Maluku Utara",MALUKU UTARA,,Indonesia,9242621455.0,1.7250967,128.0116677,https://maps.google.com/?cid=0x0:0x14835095227102f4
supermarket bangunan,Toko Bahan Bangunan,Toko Sejati Bangunan,"Jalan Raya Wosia, Depan Saro Nifero, Samping Dealer Honda CV.Lion, Mahia, Kec. Tobelo, Maluku Utara 97762","Depan Saro Nifero, Samping Dealer Honda CV.Lion, Mahia, Kec. Tobelo",MALUKU UTARA,97762.0,Indonesia,82195215789.0,1.7063845,128.0084905,https://maps.google.com/?cid=0x0:0xe07acc47d25781c8
supermarket bangunan,Toko Bahan Bangunan,Toko Bangunan SENTOSA,"P266+52G O.Sasingan, Wosia, Kec. Tobelo Tengah, Kabupaten Halmahera Utara, Maluku Utara","Kabupaten Halmahera Utara, Maluku Utara",MALUKU UTARA,,Indonesia,82144648989.0,1.7104491,128.0100684,https://maps.google.com/?cid=0x0:0xe043f9c8ba78bb16
supermarket bangunan,Toko Bahan Bangunan,Makmur Utama Supermarket Bahan Bangunan,"Jambula, Kec. Pulau Ternate, Kota Ternate, Maluku Utara","Kota Ternate, Maluku Utara",MALUKU UTARA,,Indonesia,8114313899.0,0.7581804,127.3220409,https://maps.google.com/?cid=0x0:0xe3a01731f7851efa
supermarket bangunan,Toko,Fajar bangunan,"Jalan, Hatebicara, Kec. Jailolo, Kabupaten Halmahera Barat, Maluku Utara","Kabupaten Halmahera Barat, Maluku Utara",MALUKU UTARA,,Indonesia,8971539577.0,1.0822391,127.4752556,https://maps.google.com/?cid=0x0:0xe063b30107b4c80b
supermarket bangunan,Toko Bahan Bangunan,Toko Surya Jaya - Labuha,"9FCJ+69H, Unnamed Road, Labuha, Kec. Bacan, Kabupaten Halmahera Selatan, Maluku Utara","Kabupaten Halmahera Selatan, Maluku Utara",MALUKU UTARA,,Indonesia,9272321732.0,-0.6294262,127.4809969,https://maps.google.com/?cid=0x0:0xdad7b98c88e223e3
supermarket bangunan,Toko Bahan Bangunan,TOKO BANGUNAN SINAR ALWA,"FW9F+G42, Lelilef Waibulan, Kec. Weda Tengah, Kabupaten Halmahera Tengah, Maluku Utara","Kabupaten Halmahera Tengah, Maluku Utara",MALUKU UTARA,,Indonesia,85167702404.0,0.4688305,127.9229748,https://maps.google.com/?cid=0x0:0xb8137106c2556d8a
supermarket bangunan,Toko Bahan Bangunan,Makmur Utama Supermarket Bahan Bangunan,"Jl. Yasin Gamsungi No.2 Kec. ternate tengah, Kel, Makassar Tim., Makassar Timur, Kota Ternate, Maluku Utara 97724","Kel, Makassar Tim., Makassar Timur, Kota Ternate",MALUKU UTARA,97724.0,Indonesia,8114313799.0,0.7940352,127.3876695,https://maps.google.com/?cid=0x0:0x2f492ae87bf64247
supermarket bangunan,Toko Perlengkapan Rumah,Tk.Mulia Jaya,"P2F2+WQ7, Gamsungi, Kec. Tobelo, Kabupaten Halmahera Utara, Maluku Utara","Kabupaten Halmahera Utara, Maluku Utara",MALUKU UTARA,,Indonesia,,1.7247757,128.0019201,https://maps.google.com/?cid=0x0:0x98deffa82d6d06d5
supermarket bangunan,Toko Bahan Bangunan,Supermarket Multi Bangunan,"Jl Baru No.98, Wai Mhorock, Abepura, Jayapura City, Papua 99225","Wai Mhorock, Abepura, Jayapura City",MALUKU UTARA,99225.0,Indonesia,967588677.0,-2.6077336,140.6742812,https://maps.google.com/?cid=0x0:0x3b19f301c68f1d6f
supermarket bangunan,supermarket bangunan,Kec. Galela Sel.,"Kabupaten Halmahera Utara, Maluku Utara","Kabupaten Halmahera Utara, Maluku Utara",MALUKU UTARA,,Indonesia,,1.8095298,127.8098621,https://maps.google.com/?cid=0x0:0xd54700cacb22b110
supermarket bangunan,Pasar bahan bangunan,Toko Sumber Bangunan,"P2G6+2MM, Gamsungi, Kec. Tobelo, Kabupaten Halmahera Utara, Maluku Utara","Kabupaten Halmahera Utara, Maluku Utara",MALUKU UTARA,,Indonesia,9242621455.0,1.7250967,128.0116677,https://maps.google.com/?cid=0x0:0x14835095227102f4
supermarket bangunan,Toko Bahan Bangunan,Makmur Utama Supermarket Bahan bangunan,"Tj. Niara, Kec. Tobelo Tengah, Kabupaten Halmahera Utara, Maluku Utara","Kabupaten Halmahera Utara, Maluku Utara",MALUKU UTARA,,Indonesia,85117420324.0,1.7019679,128.0155893,https://maps.google.com/?cid=0x0:0x47ecdf114648cbc2
supermarket bangunan,Toko Bahan Bangunan,Toko Surya Jaya - Labuha,"9FCJ+69H, Unnamed Road, Labuha, Kec. Bacan, Kabupaten Halmahera Selatan, Maluku Utara","Kabupaten Halmahera Selatan, Maluku Utara",MALUKU UTARA,,Indonesia,9272321732.0,-0.6294262,127.4809969,https://maps.google.com/?cid=0x0:0xdad7b98c88e223e3
supermarket bangunan,Toko Bahan Bangunan,Makmur Utama Supermarket Bahan Bangunan,"Jambula, Kec. Pulau Ternate, Kota Ternate, Maluku Utara","Kota Ternate, Maluku Utara",MALUKU UTARA,,Indonesia,8114313899.0,0.7581804,127.3220409,https://maps.google.com/?cid=0x0:0xe3a01731f7851efa
supermarket bangunan,Toko Bahan Bangunan,Toko Bangunan SENTOSA,"P266+52G O.Sasingan, Wosia, Kec. Tobelo Tengah, Kabupaten Halmahera Utara, Maluku Utara","Kabupaten Halmahera Utara, Maluku Utara",MALUKU UTARA,,Indonesia,82144648989.0,1.7104491,128.0100684,https://maps.google.com/?cid=0x0:0xe043f9c8ba78bb16
supermarket bangunan,Toko Bahan Bangunan,TOKO BANGUNAN SINAR ALWA,"FW9F+G42, Lelilef Waibulan, Kec. Weda Tengah, Kabupaten Halmahera Tengah, Maluku Utara","Kabupaten Halmahera Tengah, Maluku Utara",MALUKU UTARA,,Indonesia,85167702404.0,0.4688305,127.9229748,https://maps.google.com/?cid=0x0:0xb8137106c2556d8a
supermarket bangunan,Toko Bahan Bangunan,Makmur Utama Supermarket Bahan Bangunan,"Jl. Yasin Gamsungi No.2 Kec. ternate tengah, Kel, Makassar Tim., Makassar Timur, Kota Ternate, Maluku Utara 97724","Kel, Makassar Tim., Makassar Timur, Kota Ternate",MALUKU UTARA,97724.0,Indonesia,8114313799.0,0.7940352,127.3876695,https://maps.google.com/?cid=0x0:0x2f492ae87bf64247
supermarket bangunan,Toko Bahan Bangunan,Supermarket Multi Bangunan,"Jl Baru No.98, Wai Mhorock, Abepura, Jayapura City, Papua 99225","Wai Mhorock, Abepura, Jayapura City",MALUKU UTARA,99225.0,Indonesia,967588677.0,-2.6077336,140.6742812,https://maps.google.com/?cid=0x0:0x3b19f301c68f1d6f
supermarket bangunan,Toko Perlengkapan Rumah,Tk.Mulia Jaya,"P2F2+WQ7, Gamsungi, Kec. Tobelo, Kabupaten Halmahera Utara, Maluku Utara","Kabupaten Halmahera Utara, Maluku Utara",MALUKU UTARA,,Indonesia,,1.7247757,128.0019201,https://maps.google.com/?cid=0x0:0x98deffa82d6d06d5
supermarket bangunan,supermarket bangunan,Hasma jaya,"Soakonora, Kec. Galela, Tobelo, Maluku Utara 97761","Kec. Galela, Tobelo",MALUKU UTARA,97761.0,Indonesia,82193017893.0,1.8085447,127.8097603,https://maps.google.com/?cid=0x0:0x27795390cf0c5ad2
supermarket bangunan,Pemasok Bahan Bangunan,Toko Bangunan Galala Jaya,"9FCH+VVQ, Unnamed Road, Labuha, Kec. Bacan, Kabupaten Halmahera Selatan, Maluku Utara","Kabupaten Halmahera Selatan, Maluku Utara",MALUKU UTARA,,Indonesia,82144648989.0,-0.6277816,127.479737,https://maps.google.com/?cid=0x0:0x5b501b3fc834679d
supermarket bangunan,supermarket bangunan,Kec. Galela Utara,"Kabupaten Halmahera Utara, Maluku Utara","Kabupaten Halmahera Utara, Maluku Utara",MALUKU UTARA,,Indonesia,,2.0151873,127.9497063,https://maps.google.com/?cid=0x0:0x6378f017549179ee
supermarket bangunan,Toko Bahan Bangunan,Makmur Utama Supermarket Bahan bangunan,"Tj. Niara, Kec. Tobelo Tengah, Kabupaten Halmahera Utara, Maluku Utara","Kabupaten Halmahera Utara, Maluku Utara",MALUKU UTARA,,Indonesia,85117420324.0,1.7019679,128.0155893,https://maps.google.com/?cid=0x0:0x47ecdf114648cbc2
supermarket bangunan,Pasar bahan bangunan,Toko Sumber Bangunan,"P2G6+2MM, Gamsungi, Kec. Tobelo, Kabupaten Halmahera Utara, Maluku Utara","Kabupaten Halmahera Utara, Maluku Utara",MALUKU UTARA,,Indonesia,9242621455.0,1.7250967,128.0116677,https://maps.google.com/?cid=0x0:0x14835095227102f4
supermarket bangunan,Toko Bahan Bangunan,Toko Bangunan SENTOSA,"P266+52G O.Sasingan, Wosia, Kec. Tobelo Tengah, Kabupaten Halmahera Utara, Maluku Utara","Kabupaten Halmahera Utara, Maluku Utara",MALUKU UTARA,,Indonesia,82144648989.0,1.7104491,128.0100684,https://maps.google.com/?cid=0x0:0xe043f9c8ba78bb16
supermarket bangunan,Toko Bahan Bangunan,Makmur Utama Supermarket Bahan Bangunan,"Jambula, Kec. Pulau Ternate, Kota Ternate, Maluku Utara","Kota Ternate, Maluku Utara",MALUKU UTARA,,Indonesia,8114313899.0,0.7581804,127.3220409,https://maps.google.com/?cid=0x0:0xe3a01731f7851efa
supermarket bangunan,Toko Bahan Bangunan,Makmur Utama Supermarket Bahan Bangunan,"Jl. Yasin Gamsungi No.2 Kec. ternate tengah, Kel, Makassar Tim., Makassar Timur, Kota Ternate, Maluku Utara 97724","Kel, Makassar Tim., Makassar Timur, Kota Ternate",MALUKU UTARA,97724.0,Indonesia,8114313799.0,0.7940352,127.3876695,https://maps.google.com/?cid=0x0:0x2f492ae87bf64247
supermarket bangunan,Toko Perlengkapan Rumah,Tk.Mulia Jaya,"P2F2+WQ7, Gamsungi, Kec. Tobelo, Kabupaten Halmahera Utara, Maluku Utara","Kabupaten Halmahera Utara, Maluku Utara",MALUKU UTARA,,Indonesia,,1.7247757,128.0019201,https://maps.google.com/?cid=0x0:0x98deffa82d6d06d5
supermarket bangunan,Toko Bahan Bangunan,Toko.Timur Raya,"8VPJ+29R, Unnamed Road, Fidi Jaya, Kec. Weda, Kabupaten Halmahera Tengah, Maluku Utara","Kabupaten Halmahera Tengah, Maluku Utara",MALUKU UTARA,,Indonesia,,0.3351116,127.8809053,https://maps.google.com/?cid=0x0:0x23faf8ae84e5052a
supermarket bangunan,Toko Bahan Bangunan,TOKO BANGUNAN SINAR ALWA,"FW9F+G42, Lelilef Waibulan, Kec. Weda Tengah, Kabupaten Halmahera Tengah, Maluku Utara","Kabupaten Halmahera Tengah, Maluku Utara",MALUKU UTARA,,Indonesia,85167702404.0,0.4688305,127.9229748,https://maps.google.com/?cid=0x0:0xb8137106c2556d8a
supermarket bangunan,Toko Perlengkapan Rumah,Toko William,"P2J3+JM6, Gura, Kec. Tobelo, Kabupaten Halmahera Utara, Maluku Utara","Kabupaten Halmahera Utara, Maluku Utara",MALUKU UTARA,,Indonesia,81352997896.0,1.7267074,128.0074938,https://maps.google.com/?cid=0x0:0x4d96e6931e9cf30c
supermarket bangunan,Toko,Toko Maba Bangunan,"M7WM+MHQ, Unnamed Road, Maba Sangaji, Kec. Kota Maba, Kabupaten Halmahera Timur, Maluku Utara","Kabupaten Halmahera Timur, Maluku Utara",MALUKU UTARA,,Indonesia,82187925434.0,0.6967101,128.2839897,https://maps.google.com/?cid=0x0:0xb5997f32a3da9b72
supermarket bangunan,Toko Perlengkapan Rumah,Toko duang ( bangunan),"H28M+GXJ, Todokuiha, Kec. Tobelo Tim., Kabupaten Halmahera Utara, Maluku Utara","Kabupaten Halmahera Utara, Maluku Utara",MALUKU UTARA,,Indonesia,,1.5664975,128.035246,https://maps.google.com/?cid=0x0:0x2a5d78d81d3b95a
supermarket bangunan,supermarket bangunan,Kec. Kao,"Kabupaten Halmahera Utara, Maluku Utara","Kabupaten Halmahera Utara, Maluku Utara",MALUKU UTARA,,Indonesia,,1.1658407,127.9007494,https://maps.google.com/?cid=0x0:0xf94b0d160a93d5c4
supermarket bangunan,Toko,RR KAO,"Kao, Kec. Kao, Kabupaten Halmahera Utara, Maluku Utara 97764","Kec. Kao, Kabupaten Halmahera Utara",MALUKU UTARA,97764.0,Indonesia,81219508100.0,1.1680813,127.9011738,https://maps.google.com/?cid=0x0:0xa6874d3520974b65
supermarket bangunan,Toko Bahan Bangunan,Makmur Utama Supermarket Bahan Bangunan,"Jl. Yasin Gamsungi No.2 Kec. ternate tengah, Kel, Makassar Tim., Makassar Timur, Kota Ternate, Maluku Utara 97724","Kel, Makassar Tim., Makassar Timur, Kota Ternate",MALUKU UTARA,97724.0,Indonesia,8114313799.0,0.7940352,127.3876695,https://maps.google.com/?cid=0x0:0x2f492ae87bf64247
supermarket bangunan,Toko Bahan Bangunan,Makmur Utama Supermarket Bahan Bangunan,"Jambula, Kec. Pulau Ternate, Kota Ternate, Maluku Utara","Kota Ternate, Maluku Utara",MALUKU UTARA,,Indonesia,8114313899.0,0.7581804,127.3220409,https://maps.google.com/?cid=0x0:0xe3a01731f7851efa
supermarket bangunan,Toko Bahan Bangunan,Makmur Utama Supermarket Bahan bangunan,"Tj. Niara, Kec. Tobelo Tengah, Kabupaten Halmahera Utara, Maluku Utara","Kabupaten Halmahera Utara, Maluku Utara",MALUKU UTARA,,Indonesia,85117420324.0,1.7019679,128.0155893,https://maps.google.com/?cid=0x0:0x47ecdf114648cbc2
supermarket bangunan,Toko Bahan Bangunan,Toko Bangunan SENTOSA,"P266+52G O.Sasingan, Wosia, Kec. Tobelo Tengah, Kabupaten Halmahera Utara, Maluku Utara","Kabupaten Halmahera Utara, Maluku Utara",MALUKU UTARA,,Indonesia,82144648989.0,1.7104491,128.0100684,https://maps.google.com/?cid=0x0:0xe043f9c8ba78bb16
supermarket bangunan,Toko Bahan Bangunan,Toko Sejati Bangunan,"Jalan Raya Wosia, Depan Saro Nifero, Samping Dealer Honda CV.Lion, Mahia, Kec. Tobelo, Maluku Utara 97762","Depan Saro Nifero, Samping Dealer Honda CV.Lion, Mahia, Kec. Tobelo",MALUKU UTARA,97762.0,Indonesia,82195215789.0,1.7063845,128.0084905,https://maps.google.com/?cid=0x0:0xe07acc47d25781c8
supermarket bangunan,Toko umum,TOKO BANGUNAN ALDAFIQ,"Jln trans, Kuntum Mekar, Kec. Kao Tlk., Kabupaten Halmahera Utara, Maluku Utara","Kabupaten Halmahera Utara, Maluku Utara",MALUKU UTARA,,Indonesia,85255457737.0,1.0571478,127.6968002,https://maps.google.com/?cid=0x0:0xbd45128e560c144d
supermarket bangunan,Toko,Toko serba ada,"9RV3+3VH, Makarti, Kec. Kao Bar., Kabupaten Halmahera Utara, Maluku Utara","Kabupaten Halmahera Utara, Maluku Utara",MALUKU UTARA,,Indonesia,,1.39268,127.8047219,https://maps.google.com/?cid=0x0:0x9fdf32faae8185f0
supermarket bangunan,Toko Bahan Bangunan,Toko Bangunan Hari-hari,"Jl. Mandala Utara No.21, RT.17/RW.4, Tomang, Kec. Grogol petamburan, Kota Jakarta Barat, Daerah Khusus Ibukota Jakarta 11440","RT.17/RW.4, Tomang, Kec. Grogol petamburan, Kota Jakarta Barat",MALUKU UTARA,11440.0,Indonesia,215642893.0,-6.1721247,106.7983298,https://maps.google.com/?cid=0x0:0x91aa30314dd11ef
supermarket bangunan,supermarket bangunan,,,,MALUKU UTARA,,Indonesia,85947000018.0,-6.2297465,106.829518,https://maps.google.com/?cid=0x0:0xa1da7ae6dc5969f4
supermarket bangunan,supermarket bangunan,Kec. Kao Bar.,"Kabupaten Halmahera Utara, Maluku Utara","Kabupaten Halmahera Utara, Maluku Utara",MALUKU UTARA,,Indonesia,,1.3826535,127.7854236,https://maps.google.com/?cid=0x0:0xf7afe1ef0f20eafa
supermarket bangunan,Toko,Toko serba ada,"9RV3+3VH, Makarti, Kec. Kao Bar., Kabupaten Halmahera Utara, Maluku Utara","Kabupaten Halmahera Utara, Maluku Utara",MALUKU UTARA,,Indonesia,,1.39268,127.8047219,https://maps.google.com/?cid=0x0:0x9fdf32faae8185f0
supermarket bangunan,Toko Bahan Bangunan,Makmur Utama Supermarket Bahan bangunan,"Tj. Niara, Kec. Tobelo Tengah, Kabupaten Halmahera Utara, Maluku Utara","Kabupaten Halmahera Utara, Maluku Utara",MALUKU UTARA,,Indonesia,85117420324.0,1.7019679,128.0155893,https://maps.google.com/?cid=0x0:0x47ecdf114648cbc2
supermarket bangunan,Toko Bahan Bangunan,Makmur Utama Supermarket Bahan Bangunan,"Jl. Yasin Gamsungi No.2 Kec. ternate tengah, Kel, Makassar Tim., Makassar Timur, Kota Ternate, Maluku Utara 97724","Kel, Makassar Tim., Makassar Timur, Kota Ternate",MALUKU UTARA,97724.0,Indonesia,8114313799.0,0.7940352,127.3876695,https://maps.google.com/?cid=0x0:0x2f492ae87bf64247
supermarket bangunan,Toko Bahan Bangunan,Makmur Utama Supermarket Bahan Bangunan,"Jambula, Kec. Pulau Ternate, Kota Ternate, Maluku Utara","Kota Ternate, Maluku Utara",MALUKU UTARA,,Indonesia,8114313899.0,0.7581804,127.3220409,https://maps.google.com/?cid=0x0:0xe3a01731f7851efa
supermarket bangunan,Toko,Fajar bangunan,"Jalan, Hatebicara, Kec. Jailolo, Kabupaten Halmahera Barat, Maluku Utara","Kabupaten Halmahera Barat, Maluku Utara",MALUKU UTARA,,Indonesia,8971539577.0,1.0822391,127.4752556,https://maps.google.com/?cid=0x0:0xe063b30107b4c80b
supermarket bangunan,Toko,RR KAO,"Kao, Kec. Kao, Kabupaten Halmahera Utara, Maluku Utara 97764","Kec. Kao, Kabupaten Halmahera Utara",MALUKU UTARA,97764.0,Indonesia,81219508100.0,1.1680813,127.9011738,https://maps.google.com/?cid=0x0:0xa6874d3520974b65
supermarket bangunan,Toko Bahan Bangunan,Toko Bangunan SENTOSA,"P266+52G O.Sasingan, Wosia, Kec. Tobelo Tengah, Kabupaten Halmahera Utara, Maluku Utara","Kabupaten Halmahera Utara, Maluku Utara",MALUKU UTARA,,Indonesia,82144648989.0,1.7104491,128.0100684,https://maps.google.com/?cid=0x0:0xe043f9c8ba78bb16
supermarket bangunan,Toko bahan makanan,SBA (Supermarket Bangunan Abadi),"Jl. Pd. Kacang No.88B, Pd. Kacang Bar., Kec. Pd. Aren, Kota Tangerang Selatan, Banten 15226","Pd. Kacang Bar., Kec. Pd. Aren, Kota Tangerang Selatan",MALUKU UTARA,15226.0,Indonesia,2173460185.0,-6.254577,106.688324,https://maps.google.com/?cid=0x0:0x370ec3ee4dda53b
supermarket bangunan,Toko Bahan Bangunan,Toko Fajar Bangunan,"Gufasa, Kec. Jailolo, Kabupaten Halmahera Barat, Maluku Utara","Kabupaten Halmahera Barat, Maluku Utara",MALUKU UTARA,,Indonesia,,1.0627302,127.4677077,https://maps.google.com/?cid=0x0:0x489f67ee1f329e08
supermarket bangunan,supermarket bangunan,Kec. Kao Utara,"Kabupaten Halmahera Utara, Maluku Utara","Kabupaten Halmahera Utara, Maluku Utara",MALUKU UTARA,,Indonesia,,1.3982481,128.0027515,https://maps.google.com/?cid=0x0:0x5d873bc773b3c48e
supermarket bangunan,Toko Bahan Bangunan,Makmur Utama Supermarket Bahan bangunan,"Tj. Niara, Kec. Tobelo Tengah, Kabupaten Halmahera Utara, Maluku Utara","Kabupaten Halmahera Utara, Maluku Utara",MALUKU UTARA,,Indonesia,85117420324.0,1.7019679,128.0155893,https://maps.google.com/?cid=0x0:0x47ecdf114648cbc2
supermarket bangunan,Pasar bahan bangunan,Toko Sumber Bangunan,"P2G6+2MM, Gamsungi, Kec. Tobelo, Kabupaten Halmahera Utara, Maluku Utara","Kabupaten Halmahera Utara, Maluku Utara",MALUKU UTARA,,Indonesia,9242621455.0,1.7250967,128.0116677,https://maps.google.com/?cid=0x0:0x14835095227102f4
supermarket bangunan,Toko Bahan Bangunan,Makmur Utama Supermarket Bahan Bangunan,"Jambula, Kec. Pulau Ternate, Kota Ternate, Maluku Utara","Kota Ternate, Maluku Utara",MALUKU UTARA,,Indonesia,8114313899.0,0.7581804,127.3220409,https://maps.google.com/?cid=0x0:0xe3a01731f7851efa
supermarket bangunan,Toko Bahan Bangunan,Toko Bangunan SENTOSA,"P266+52G O.Sasingan, Wosia, Kec. Tobelo Tengah, Kabupaten Halmahera Utara, Maluku Utara","Kabupaten Halmahera Utara, Maluku Utara",MALUKU UTARA,,Indonesia,82144648989.0,1.7104491,128.0100684,https://maps.google.com/?cid=0x0:0xe043f9c8ba78bb16
supermarket bangunan,Toko Bahan Bangunan,Toko Sejati Bangunan,"Jalan Raya Wosia, Depan Saro Nifero, Samping Dealer Honda CV.Lion, Mahia, Kec. Tobelo, Maluku Utara 97762","Depan Saro Nifero, Samping Dealer Honda CV.Lion, Mahia, Kec. Tobelo",MALUKU UTARA,97762.0,Indonesia,82195215789.0,1.7063845,128.0084905,https://maps.google.com/?cid=0x0:0xe07acc47d25781c8
supermarket bangunan,Toko umum,TOKO BANGUNAN ALDAFIQ,"Jln trans, Kuntum Mekar, Kec. Kao Tlk., Kabupaten Halmahera Utara, Maluku Utara","Kabupaten Halmahera Utara, Maluku Utara",MALUKU UTARA,,Indonesia,85255457737.0,1.0571478,127.6968002,https://maps.google.com/?cid=0x0:0xbd45128e560c144d
supermarket bangunan,Toko,Toko serba ada,"9RV3+3VH, Makarti, Kec. Kao Bar., Kabupaten Halmahera Utara, Maluku Utara","Kabupaten Halmahera Utara, Maluku Utara",MALUKU UTARA,,Indonesia,,1.39268,127.8047219,https://maps.google.com/?cid=0x0:0x9fdf32faae8185f0
supermarket bangunan,Toko Perlengkapan Rumah,Toko duang ( bangunan),"H28M+GXJ, Todokuiha, Kec. Tobelo Tim., Kabupaten Halmahera Utara, Maluku Utara","Kabupaten Halmahera Utara, Maluku Utara",MALUKU UTARA,,Indonesia,,1.5664975,128.035246,https://maps.google.com/?cid=0x0:0x2a5d78d81d3b95a
supermarket bangunan,Toko Bahan Bangunan,Toko Metro Bangunan,"9FFH+2HP, Jl. Molunjunga, Labuha, Kec. Bacan, Kabupaten Halmahera Selatan, Maluku Utara","Kabupaten Halmahera Selatan, Maluku Utara",MALUKU UTARA,,Indonesia,82282044150.0,-0.6274024,127.4789549,https://maps.google.com/?cid=0x0:0x664e0bc768839c0
supermarket bangunan,Toko Bahan Bangunan,toko bangunan ko hen,"56W9+R29, Unnamed Road, Tutuling Jaya, Kec. Wasile Tim., Kabupaten Halmahera Timur, Maluku Utara","Kabupaten Halmahera Timur, Maluku Utara",MALUKU UTARA,,Indonesia,82282044150.0,1.1970495,128.2176185,https://maps.google.com/?cid=0x0:0xbfcecb96ec1aeb86
supermarket bangunan,supermarket bangunan,Kec. Kao Tlk.,"Kabupaten Halmahera Utara, Maluku Utara","Kabupaten Halmahera Utara, Maluku Utara",MALUKU UTARA,,Indonesia,,1.0572865,127.697129,https://maps.google.com/?cid=0x0:0xb7e89a460242f82
supermarket bangunan,Toko Bahan Bangunan,Makmur Utama Supermarket Bahan Bangunan,"Jl. Yasin Gamsungi No.2 Kec. ternate tengah, Kel, Makassar Tim., Makassar Timur, Kota Ternate, Maluku Utara 97724","Kel, Makassar Tim., Makassar Timur, Kota Ternate",MALUKU UTARA,97724.0,Indonesia,8114313799.0,0.7940352,127.3876695,https://maps.google.com/?cid=0x0:0x2f492ae87bf64247
supermarket bangunan,Toko umum,TOKO BANGUNAN ALDAFIQ,"Jln trans, Kuntum Mekar, Kec. Kao Tlk., Kabupaten Halmahera Utara, Maluku Utara","Kabupaten Halmahera Utara, Maluku Utara",MALUKU UTARA,,Indonesia,85255457737.0,1.0571478,127.6968002,https://maps.google.com/?cid=0x0:0xbd45128e560c144d
supermarket bangunan,Toko Bahan Bangunan,Makmur Utama Supermarket Bahan bangunan,"Tj. Niara, Kec. Tobelo Tengah, Kabupaten Halmahera Utara, Maluku Utara","Kabupaten Halmahera Utara, Maluku Utara",MALUKU UTARA,,Indonesia,85117420324.0,1.7019679,128.0155893,https://maps.google.com/?cid=0x0:0x47ecdf114648cbc2
supermarket bangunan,Toko Bahan Bangunan,Toko Bangunan SENTOSA,"P266+52G O.Sasingan, Wosia, Kec. Tobelo Tengah, Kabupaten Halmahera Utara, Maluku Utara","Kabupaten Halmahera Utara, Maluku Utara",MALUKU UTARA,,Indonesia,82144648989.0,1.7104491,128.0100684,https://maps.google.com/?cid=0x0:0xe043f9c8ba78bb16
supermarket bangunan,Toko Bahan Bangunan,Toko Sejati Bangunan,"Jalan Raya Wosia, Depan Saro Nifero, Samping Dealer Honda CV.Lion, Mahia, Kec. Tobelo, Maluku Utara 97762","Depan Saro Nifero, Samping Dealer Honda CV.Lion, Mahia, Kec. Tobelo",MALUKU UTARA,97762.0,Indonesia,82195215789.0,1.7063845,128.0084905,https://maps.google.com/?cid=0x0:0xe07acc47d25781c8
supermarket bangunan,Toko Bahan Bangunan,Makmur Utama Supermarket Bahan Bangunan,"Jambula, Kec. Pulau Ternate, Kota Ternate, Maluku Utara","Kota Ternate, Maluku Utara",MALUKU UTARA,,Indonesia,8114313899.0,0.7581804,127.3220409,https://maps.google.com/?cid=0x0:0xe3a01731f7851efa
supermarket bangunan,Toko Bahan Bangunan,Toko Mitra Bangunan,"Jl. Pahlawan Revolusi No.3, Muhajirin, Kec. Ternate Tengah, Kota Ternate, Maluku Utara 97721","Muhajirin, Kec. Ternate Tengah, Kota Ternate",MALUKU UTARA,97721.0,Indonesia,8124217777.0,0.7863051,127.3886452,https://maps.google.com/?cid=0x0:0x182c1f07e66842a
supermarket bangunan,Toko,Toko serba ada,"9RV3+3VH, Makarti, Kec. Kao Bar., Kabupaten Halmahera Utara, Maluku Utara","Kabupaten Halmahera Utara, Maluku Utara",MALUKU UTARA,,Indonesia,,1.39268,127.8047219,https://maps.google.com/?cid=0x0:0x9fdf32faae8185f0
supermarket bangunan,Kompleks Kondominium,Rumah afdilah faqih,"4FJH+R5, Akelamo, Kec. Sahu Tim., Kabupaten Halmahera Barat, Maluku Utara","Kabupaten Halmahera Barat, Maluku Utara",MALUKU UTARA,,Indonesia,,1.132117,127.4779525,https://maps.google.com/?cid=0x0:0x1abb4eba0ea70c36
supermarket bangunan,supermarket bangunan,Kec. Kao Tlk.,"Kabupaten Halmahera Utara, Maluku Utara","Kabupaten Halmahera Utara, Maluku Utara",MALUKU UTARA,,Indonesia,,1.0572865,127.697129,https://maps.google.com/?cid=0x0:0xb7e89a460242f82
supermarket bangunan,Toko umum,TOKO BANGUNAN ALDAFIQ,"Jln trans, Kuntum Mekar, Kec. Kao Tlk., Kabupaten Halmahera Utara, Maluku Utara","Kabupaten Halmahera Utara, Maluku Utara",MALUKU UTARA,,Indonesia,85255457737.0,1.0571478,127.6968002,https://maps.google.com/?cid=0x0:0xbd45128e560c144d
supermarket bangunan,Toko Bahan Bangunan,Makmur Utama Supermarket Bahan Bangunan,"Jl. Yasin Gamsungi No.2 Kec. ternate tengah, Kel, Makassar Tim., Makassar Timur, Kota Ternate, Maluku Utara 97724","Kel, Makassar Tim., Makassar Timur, Kota Ternate",MALUKU UTARA,97724.0,Indonesia,8114313799.0,0.7940352,127.3876695,https://maps.google.com/?cid=0x0:0x2f492ae87bf64247
supermarket bangunan,Toko Bahan Bangunan,Makmur Utama Supermarket Bahan bangunan,"Tj. Niara, Kec. Tobelo Tengah, Kabupaten Halmahera Utara, Maluku Utara","Kabupaten Halmahera Utara, Maluku Utara",MALUKU UTARA,,Indonesia,85117420324.0,1.7019679,128.0155893,https://maps.google.com/?cid=0x0:0x47ecdf114648cbc2
supermarket bangunan,Toko Bahan Bangunan,Toko Bangunan SENTOSA,"P266+52G O.Sasingan, Wosia, Kec. Tobelo Tengah, Kabupaten Halmahera Utara, Maluku Utara","Kabupaten Halmahera Utara, Maluku Utara",MALUKU UTARA,,Indonesia,82144648989.0,1.7104491,128.0100684,https://maps.google.com/?cid=0x0:0xe043f9c8ba78bb16
supermarket bangunan,Toko Bahan Bangunan,Makmur Utama Supermarket Bahan Bangunan,"Jambula, Kec. Pulau Ternate, Kota Ternate, Maluku Utara","Kota Ternate, Maluku Utara",MALUKU UTARA,,Indonesia,8114313899.0,0.7581804,127.3220409,https://maps.google.com/?cid=0x0:0xe3a01731f7851efa
supermarket bangunan,Toko Bahan Bangunan,Toko Sejati Bangunan,"Jalan Raya Wosia, Depan Saro Nifero, Samping Dealer Honda CV.Lion, Mahia, Kec. Tobelo, Maluku Utara 97762","Depan Saro Nifero, Samping Dealer Honda CV.Lion, Mahia, Kec. Tobelo",MALUKU UTARA,97762.0,Indonesia,82195215789.0,1.7063845,128.0084905,https://maps.google.com/?cid=0x0:0xe07acc47d25781c8
supermarket bangunan,Toko,Toko serba ada,"9RV3+3VH, Makarti, Kec. Kao Bar., Kabupaten Halmahera Utara, Maluku Utara","Kabupaten Halmahera Utara, Maluku Utara",MALUKU UTARA,,Indonesia,,1.39268,127.8047219,https://maps.google.com/?cid=0x0:0x9fdf32faae8185f0
supermarket bangunan,Kompleks Kondominium,Rumah afdilah faqih,"4FJH+R5, Akelamo, Kec. Sahu Tim., Kabupaten Halmahera Barat, Maluku Utara","Kabupaten Halmahera Barat, Maluku Utara",MALUKU UTARA,,Indonesia,,1.132117,127.4779525,https://maps.google.com/?cid=0x0:0x1abb4eba0ea70c36
supermarket bangunan,Toko Bahan Bangunan,Makmur Utama Supermarket Bahan bangunan,"Tj. Niara, Kec. Tobelo Tengah, Kabupaten Halmahera Utara, Maluku Utara","Kabupaten Halmahera Utara, Maluku Utara",MALUKU UTARA,,Indonesia,85117420324.0,1.7019679,128.0155893,https://maps.google.com/?cid=0x0:0x47ecdf114648cbc2
supermarket bangunan,supermarket bangunan,Loloda Kepulauan,"Kabupaten Halmahera Utara, Maluku Utara","Kabupaten Halmahera Utara, Maluku Utara",MALUKU UTARA,,Indonesia,,2.2509061,127.7981498,https://maps.google.com/?cid=0x0:0x7f27e9dea84ef656
supermarket bangunan,Toko Bahan Bangunan,TOKO BANGUNAN AFLAH,"3844+8W5, Darame, Kec. Morotai Sel., Kabupaten Pulau Morotai, Maluku Utara","Kabupaten Pulau Morotai, Maluku Utara",MALUKU UTARA,,Indonesia,81289549001.0,2.0561242,128.307455,https://maps.google.com/?cid=0x0:0x68857e0f7831bbee
supermarket bangunan,Toko Bahan Bangunan,Makmur Utama Supermarket Bahan Bangunan,"Jambula, Kec. Pulau Ternate, Kota Ternate, Maluku Utara","Kota Ternate, Maluku Utara",MALUKU UTARA,,Indonesia,8114313899.0,0.7581804,127.3220409,https://maps.google.com/?cid=0x0:0xe3a01731f7851efa
supermarket bangunan,Pasar bahan bangunan,Toko Sumber Bangunan,"P2G6+2MM, Gamsungi, Kec. Tobelo, Kabupaten Halmahera Utara, Maluku Utara","Kabupaten Halmahera Utara, Maluku Utara",MALUKU UTARA,,Indonesia,9242621455.0,1.7250967,128.0116677,https://maps.google.com/?cid=0x0:0x14835095227102f4
supermarket bangunan,Toko Bahan Bangunan,Toko Bangunan SENTOSA,"P266+52G O.Sasingan, Wosia, Kec. Tobelo Tengah, Kabupaten Halmahera Utara, Maluku Utara","Kabupaten Halmahera Utara, Maluku Utara",MALUKU UTARA,,Indonesia,82144648989.0,1.7104491,128.0100684,https://maps.google.com/?cid=0x0:0xe043f9c8ba78bb16
supermarket bangunan,Toko,Fajar bangunan,"Jalan, Hatebicara, Kec. Jailolo, Kabupaten Halmahera Barat, Maluku Utara","Kabupaten Halmahera Barat, Maluku Utara",MALUKU UTARA,,Indonesia,8971539577.0,1.0822391,127.4752556,https://maps.google.com/?cid=0x0:0xe063b30107b4c80b
supermarket bangunan,Toko Bahan Bangunan,Toko Fajar Bangunan,"Gufasa, Kec. Jailolo, Kabupaten Halmahera Barat, Maluku Utara","Kabupaten Halmahera Barat, Maluku Utara",MALUKU UTARA,,Indonesia,,1.0627302,127.4677077,https://maps.google.com/?cid=0x0:0x489f67ee1f329e08
supermarket bangunan,Toko Bahan Bangunan,Depo Bangunan Bogor,"Jalan Sholeh Iskandar No.Km 6,6, RT.01/RW.11, Kedungbadak, Kec. Tanah Sereal, Kota Bogor, Jawa Barat 16163","RT.01/RW.11, Kedungbadak, Kec. Tanah Sereal, Kota Bogor",MALUKU UTARA,16163.0,Indonesia,2517558181.0,-6.5618952,106.7965448,https://maps.google.com/?cid=0x0:0xff1a413cca7d2790
supermarket bangunan,Toko Bahan Bangunan,Tirta Bangunan Bantar Gebang,"Jl. Raya Bantar Gebang - Setu No.28, RT.002/RW.003, Padurenan, Kec. Mustika Jaya, Kota Bks, Jawa Barat 16340","RT.002/RW.003, Padurenan, Kec. Mustika Jaya, Kota Bks",MALUKU UTARA,16340.0,Indonesia,8881300028.0,-6.3150196,107.0059716,https://maps.google.com/?cid=0x0:0xeb20af9663455ead
supermarket bangunan,Toko Perlengkapan Rumah,JEFRI SUPPLIER BAHAN BANGUNAN,"Jl. Industri Jl. Rw. Bogo, Pasir Mukti, Kec. Citeureup, Kabupaten Bogor Jawa Barat 16810, Kabupaten Bogor, Jawa Barat 16811","Pasir Mukti, Kec. Citeureup, Kabupaten Bogor Jawa Barat",MALUKU UTARA,16810.0,Indonesia,85747107419.0,-6.5023051,106.8983691,https://maps.google.com/?cid=0x0:0x817997c380156414
supermarket bangunan,supermarket bangunan,Kec. Loloda Utara,"Kabupaten Halmahera Utara, Maluku Utara","Kabupaten Halmahera Utara, Maluku Utara",MALUKU UTARA,,Indonesia,,2.0927761,127.8484263,https://maps.google.com/?cid=0x0:0xb975e42fee13365a
supermarket bangunan,Pasar bahan bangunan,Toko Sumber Bangunan,"P2G6+2MM, Gamsungi, Kec. Tobelo, Kabupaten Halmahera Utara, Maluku Utara","Kabupaten Halmahera Utara, Maluku Utara",MALUKU UTARA,,Indonesia,9242621455.0,1.7250967,128.0116677,https://maps.google.com/?cid=0x0:0x14835095227102f4
supermarket bangunan,Toko Bahan Bangunan,Makmur Utama Supermarket Bahan bangunan,"Tj. Niara, Kec. Tobelo Tengah, Kabupaten Halmahera Utara, Maluku Utara","Kabupaten Halmahera Utara, Maluku Utara",MALUKU UTARA,,Indonesia,85117420324.0,1.7019679,128.0155893,https://maps.google.com/?cid=0x0:0x47ecdf114648cbc2
supermarket bangunan,Toko Bahan Bangunan,Toko Sejati Bangunan,"Jalan Raya Wosia, Depan Saro Nifero, Samping Dealer Honda CV.Lion, Mahia, Kec. Tobelo, Maluku Utara 97762","Depan Saro Nifero, Samping Dealer Honda CV.Lion, Mahia, Kec. Tobelo",MALUKU UTARA,97762.0,Indonesia,82195215789.0,1.7063845,128.0084905,https://maps.google.com/?cid=0x0:0xe07acc47d25781c8
supermarket bangunan,Toko Bahan Bangunan,Toko Citra Bangunan,"5R5J+7W9, Ngofabobawa, Kec. Malifut, Kabupaten Halmahera Utara, Maluku Utara","Kabupaten Halmahera Utara, Maluku Utara",MALUKU UTARA,,Indonesia,,1.1581715,127.8323707,https://maps.google.com/?cid=0x0:0xc615b5096c177e7e
supermarket bangunan,Toko Bahan Bangunan,Madju Utama Supermarket Bahan Bangunan,"Jl. KH. Noer Ali, RT.003/RW.025, Kayuringin Jaya, Kec. Bekasi Sel., Kota Bks, Jawa Barat 17148","RT.003/RW.025, Kayuringin Jaya, Kec. Bekasi Sel., Kota Bks",MALUKU UTARA,17148.0,Indonesia,87780164555.0,-6.2475509,106.9792324,https://maps.google.com/?cid=0x0:0x3c4fc9f20a3df4f3
supermarket bangunan,Toko Perlengkapan Rumah,JEFRI SUPPLIER BAHAN BANGUNAN,"Jl. Industri Jl. Rw. Bogo, Pasir Mukti, Kec. Citeureup, Kabupaten Bogor Jawa Barat 16810, Kabupaten Bogor, Jawa Barat 16811","Pasir Mukti, Kec. Citeureup, Kabupaten Bogor Jawa Barat",MALUKU UTARA,16810.0,Indonesia,85747107419.0,-6.5023051,106.8983691,https://maps.google.com/?cid=0x0:0x817997c380156414
supermarket bangunan,supermarket bangunan,,,,MALUKU UTARA,,Indonesia,85947000018.0,-6.2297465,106.829518,https://maps.google.com/?cid=0x0:0xa1da7ae6dc5969f4
supermarket bangunan,Pasar bahan bangunan,Toko Sumber Bangunan,"P2G6+2MM, Gamsungi, Kec. Tobelo, Kabupaten Halmahera Utara, Maluku Utara","Kabupaten Halmahera Utara, Maluku Utara",MALUKU UTARA,,Indonesia,9242621455.0,1.7250967,128.0116677,https://maps.google.com/?cid=0x0:0x14835095227102f4
supermarket bangunan,Toko Bahan Bangunan,Makmur Utama Supermarket Bahan bangunan,"Tj. Niara, Kec. Tobelo Tengah, Kabupaten Halmahera Utara, Maluku Utara","Kabupaten Halmahera Utara, Maluku Utara",MALUKU UTARA,,Indonesia,85117420324.0,1.7019679,128.0155893,https://maps.google.com/?cid=0x0:0x47ecdf114648cbc2
supermarket bangunan,Toko Perlengkapan Rumah,Toko Maju Dop,"Simpang empat pelabuhan tobelo, Jl. Kemakmuran, Kec. Tobelo, Maluku Utara 97762","Jl. Kemakmuran, Kec. Tobelo",MALUKU UTARA,97762.0,Indonesia,81356555555.0,1.7238451,128.0117631,https://maps.google.com/?cid=0x0:0xaa72bec3241f7850
supermarket bangunan,Toko Bahan Bangunan,Toko Sejati Bangunan,"Jalan Raya Wosia, Depan Saro Nifero, Samping Dealer Honda CV.Lion, Mahia, Kec. Tobelo, Maluku Utara 97762","Depan Saro Nifero, Samping Dealer Honda CV.Lion, Mahia, Kec. Tobelo",MALUKU UTARA,97762.0,Indonesia,82195215789.0,1.7063845,128.0084905,https://maps.google.com/?cid=0x0:0xe07acc47d25781c8
supermarket bangunan,Minimarket,Hibualamo Jaya (BUMD). PT,"JL. Djumati Lamali, No. 7, Gosoma, 97762, Gosoma, Kec. Tobelo, Kabupaten Halmahera Utara, Maluku Utara","Gosoma,",MALUKU UTARA,97762.0,Indonesia,92421779.0,1.719102,128.006165,https://maps.google.com/?cid=0x0:0x323635fdc3db0a8f
supermarket bangunan,Toko Bahan Bangunan,Toko Bangunan SENTOSA,"P266+52G O.Sasingan, Wosia, Kec. Tobelo Tengah, Kabupaten Halmahera Utara, Maluku Utara","Kabupaten Halmahera Utara, Maluku Utara",MALUKU UTARA,,Indonesia,82144648989.0,1.7104491,128.0100684,https://maps.google.com/?cid=0x0:0xe043f9c8ba78bb16
supermarket bangunan,supermarket bangunan,Kec. Tobelo Bar.,"Kabupaten Halmahera Utara, Maluku Utara","Kabupaten Halmahera Utara, Maluku Utara",MALUKU UTARA,,Indonesia,,1.5410827,127.9493454,https://maps.google.com/?cid=0x0:0x253218d19bcb2a3e
supermarket bangunan,Pasar bahan bangunan,Toko Sumber Bangunan,"P2G6+2MM, Gamsungi, Kec. Tobelo, Kabupaten Halmahera Utara, Maluku Utara","Kabupaten Halmahera Utara, Maluku Utara",MALUKU UTARA,,Indonesia,9242621455.0,1.7250967,128.0116677,https://maps.google.com/?cid=0x0:0x14835095227102f4
supermarket bangunan,Toko Bahan Bangunan,Makmur Utama Supermarket Bahan bangunan,"Tj. Niara, Kec. Tobelo Tengah, Kabupaten Halmahera Utara, Maluku Utara","Kabupaten Halmahera Utara, Maluku Utara",MALUKU UTARA,,Indonesia,85117420324.0,1.7019679,128.0155893,https://maps.google.com/?cid=0x0:0x47ecdf114648cbc2
supermarket bangunan,Toko Bahan Bangunan,Toko Bangunan SENTOSA,"P266+52G O.Sasingan, Wosia, Kec. Tobelo Tengah, Kabupaten Halmahera Utara, Maluku Utara","Kabupaten Halmahera Utara, Maluku Utara",MALUKU UTARA,,Indonesia,82144648989.0,1.7104491,128.0100684,https://maps.google.com/?cid=0x0:0xe043f9c8ba78bb16
supermarket bangunan,supermarket bangunan,Kec. Tobelo Sel.,"Kabupaten Halmahera Utara, Maluku Utara","Kabupaten Halmahera Utara, Maluku Utara",MALUKU UTARA,,Indonesia,,1.6281283,127.980575,https://maps.google.com/?cid=0x0:0x1ecb6049a3d26ca1
supermarket bangunan,Toko Bahan Bangunan,Makmur Utama Supermarket Bahan bangunan,"Tj. Niara, Kec. Tobelo Tengah, Kabupaten Halmahera Utara, Maluku Utara","Kabupaten Halmahera Utara, Maluku Utara",MALUKU UTARA,,Indonesia,85117420324.0,1.7019679,128.0155893,https://maps.google.com/?cid=0x0:0x47ecdf114648cbc2
supermarket bangunan,Pasar bahan bangunan,Toko Sumber Bangunan,"P2G6+2MM, Gamsungi, Kec. Tobelo, Kabupaten Halmahera Utara, Maluku Utara","Kabupaten Halmahera Utara, Maluku Utara",MALUKU UTARA,,Indonesia,9242621455.0,1.7250967,128.0116677,https://maps.google.com/?cid=0x0:0x14835095227102f4
supermarket bangunan,Toko Bahan Bangunan,Toko Bangunan SENTOSA,"P266+52G O.Sasingan, Wosia, Kec. Tobelo Tengah, Kabupaten Halmahera Utara, Maluku Utara","Kabupaten Halmahera Utara, Maluku Utara",MALUKU UTARA,,Indonesia,82144648989.0,1.7104491,128.0100684,https://maps.google.com/?cid=0x0:0xe043f9c8ba78bb16
supermarket bangunan,Bengkel Bubut,Toko Mega Utama,"Jln, Wosia, Tobelo Tengah, North Halmahera Regency, North Maluku","Kabupaten Halmahera Utara, Maluku Utara",MALUKU UTARA,,Indonesia,81342560008.0,1.7120549,128.0110996,https://maps.google.com/?cid=0x0:0xf6a05870f06c72ca
supermarket bangunan,Toko Perlengkapan Rumah,Tk.Mulia Jaya,"P2F2+WQ7, Gamsungi, Kec. Tobelo, Kabupaten Halmahera Utara, Maluku Utara","Kabupaten Halmahera Utara, Maluku Utara",MALUKU UTARA,,Indonesia,,1.7247757,128.0019201,https://maps.google.com/?cid=0x0:0x98deffa82d6d06d5
supermarket bangunan,supermarket bangunan,Kec. Tobelo Tim.,"Kabupaten Halmahera Utara, Maluku Utara","Kabupaten Halmahera Utara, Maluku Utara",MALUKU UTARA,,Indonesia,,1.5702306,128.0348143,https://maps.google.com/?cid=0x0:0x3b948dd04e667beb
supermarket bangunan,Toko Bahan Bangunan,Makmur Utama Supermarket Bahan bangunan,"Tj. Niara, Kec. Tobelo Tengah, Kabupaten Halmahera Utara, Maluku Utara","Kabupaten Halmahera Utara, Maluku Utara",MALUKU UTARA,,Indonesia,85117420324.0,1.7019679,128.0155893,https://maps.google.com/?cid=0x0:0x47ecdf114648cbc2
supermarket bangunan,Pasar bahan bangunan,Toko Sumber Bangunan,"P2G6+2MM, Gamsungi, Kec. Tobelo, Kabupaten Halmahera Utara, Maluku Utara","Kabupaten Halmahera Utara, Maluku Utara",MALUKU UTARA,,Indonesia,9242621455.0,1.7250967,128.0116677,https://maps.google.com/?cid=0x0:0x14835095227102f4
supermarket bangunan,Toko Bahan Bangunan,Toko Bangunan SENTOSA,"P266+52G O.Sasingan, Wosia, Kec. Tobelo Tengah, Kabupaten Halmahera Utara, Maluku Utara","Kabupaten Halmahera Utara, Maluku Utara",MALUKU UTARA,,Indonesia,82144648989.0,1.7104491,128.0100684,https://maps.google.com/?cid=0x0:0xe043f9c8ba78bb16
supermarket bangunan,Toko Bahan Bangunan,Makmur Utama Supermarket Bahan Bangunan,"Jl. Yasin Gamsungi No.2 Kec. ternate tengah, Kel, Makassar Tim., Makassar Timur, Kota Ternate, Maluku Utara 97724","Kel, Makassar Tim., Makassar Timur, Kota Ternate",MALUKU UTARA,97724.0,Indonesia,8114313799.0,0.7940352,127.3876695,https://maps.google.com/?cid=0x0:0x2f492ae87bf64247
supermarket bangunan,Toko Bahan Bangunan,Makmur Utama Supermarket Bahan Bangunan,"Jambula, Kec. Pulau Ternate, Kota Ternate, Maluku Utara","Kota Ternate, Maluku Utara",MALUKU UTARA,,Indonesia,8114313899.0,0.7581804,127.3220409,https://maps.google.com/?cid=0x0:0xe3a01731f7851efa
supermarket bangunan,Bengkel Bubut,Toko Mega Utama,"Jln, Wosia, Tobelo Tengah, North Halmahera Regency, North Maluku","Kabupaten Halmahera Utara, Maluku Utara",MALUKU UTARA,,Indonesia,81342560008.0,1.7120549,128.0110996,https://maps.google.com/?cid=0x0:0xf6a05870f06c72ca
supermarket bangunan,Toko Perlengkapan Rumah,Toko William,"P2J3+JM6, Gura, Kec. Tobelo, Kabupaten Halmahera Utara, Maluku Utara","Kabupaten Halmahera Utara, Maluku Utara",MALUKU UTARA,,Indonesia,81352997896.0,1.7267074,128.0074938,https://maps.google.com/?cid=0x0:0x4d96e6931e9cf30c
supermarket bangunan,Toko Perlengkapan Rumah,Tk.Mulia Jaya,"P2F2+WQ7, Gamsungi, Kec. Tobelo, Kabupaten Halmahera Utara, Maluku Utara","Kabupaten Halmahera Utara, Maluku Utara",MALUKU UTARA,,Indonesia,,1.7247757,128.0019201,https://maps.google.com/?cid=0x0:0x98deffa82d6d06d5
supermarket bangunan,supermarket bangunan,Kec. Tobelo Tengah,"Kabupaten Halmahera Utara, Maluku Utara","Kabupaten Halmahera Utara, Maluku Utara",MALUKU UTARA,,Indonesia,,1.7074794,128.0127501,https://maps.google.com/?cid=0x0:0xef293bed1374db12
supermarket bangunan,Toko Bahan Bangunan,Makmur Utama Supermarket Bahan bangunan,"Tj. Niara, Kec. Tobelo Tengah, Kabupaten Halmahera Utara, Maluku Utara","Kabupaten Halmahera Utara, Maluku Utara",MALUKU UTARA,,Indonesia,85117420324.0,1.7019679,128.0155893,https://maps.google.com/?cid=0x0:0x47ecdf114648cbc2
supermarket bangunan,Pasar bahan bangunan,Toko Sumber Bangunan,"P2G6+2MM, Gamsungi, Kec. Tobelo, Kabupaten Halmahera Utara, Maluku Utara","Kabupaten Halmahera Utara, Maluku Utara",MALUKU UTARA,,Indonesia,9242621455.0,1.7250967,128.0116677,https://maps.google.com/?cid=0x0:0x14835095227102f4
supermarket bangunan,Toko Bahan Bangunan,Toko Bangunan SENTOSA,"P266+52G O.Sasingan, Wosia, Kec. Tobelo Tengah, Kabupaten Halmahera Utara, Maluku Utara","Kabupaten Halmahera Utara, Maluku Utara",MALUKU UTARA,,Indonesia,82144648989.0,1.7104491,128.0100684,https://maps.google.com/?cid=0x0:0xe043f9c8ba78bb16
supermarket bangunan,Toko Perlengkapan Rumah,Toko Maju Dop,"Simpang empat pelabuhan tobelo, Jl. Kemakmuran, Kec. Tobelo, Maluku Utara 97762","Jl. Kemakmuran, Kec. Tobelo",MALUKU UTARA,97762.0,Indonesia,81356555555.0,1.7238451,128.0117631,https://maps.google.com/?cid=0x0:0xaa72bec3241f7850
supermarket bangunan,Minimarket,Hibualamo Jaya (BUMD). PT,"JL. Djumati Lamali, No. 7, Gosoma, 97762, Gosoma, Kec. Tobelo, Kabupaten Halmahera Utara, Maluku Utara","Gosoma,",MALUKU UTARA,97762.0,Indonesia,92421779.0,1.719102,128.006165,https://maps.google.com/?cid=0x0:0x323635fdc3db0a8f
supermarket bangunan,Bengkel Bubut,Toko Mega Utama,"Jln, Wosia, Tobelo Tengah, North Halmahera Regency, North Maluku","Kabupaten Halmahera Utara, Maluku Utara",MALUKU UTARA,,Indonesia,81342560008.0,1.7120549,128.0110996,https://maps.google.com/?cid=0x0:0xf6a05870f06c72ca
supermarket bangunan,Toko,Toko Kali Seratus,"Gosoma, Kec. Tobelo, Kabupaten Halmahera Utara, Maluku Utara 97762","Kec. Tobelo, Kabupaten Halmahera Utara",MALUKU UTARA,97762.0,Indonesia,81244151500.0,1.7195595,128.007351,https://maps.google.com/?cid=0x0:0xa65cc8601921934f
supermarket bangunan,,MR.DIY,"Jl. Kemakmuran Ruko No 5  6, Wosia, Kec. Tobelo, Kabupaten Halmahera Utara, Maluku Utara 97762","Wosia, Kec. Tobelo, Kabupaten Halmahera Utara",MALUKU UTARA,97762.0,Indonesia,2130022796.0,1.7123967,128.0110361,https://maps.google.com/?cid=0x0:0x3721c895e42a4330
supermarket bangunan,Toko bahan makanan,Galaxy Mart,"P2C6+MMM, Rawajaya, Kec. Tobelo, Kabupaten Halmahera Utara, Maluku Utara","Kabupaten Halmahera Utara, Maluku Utara",MALUKU UTARA,,Indonesia,81288889356.0,1.7217063,128.011669,https://maps.google.com/?cid=0x0:0x28ebc8db575348b5
supermarket bangunan,Pusat Perbelanjaan,Tobelo Houseware,"Jl. Marhaban (Depan Mesjid Raya, Gamsungi, Kec. Tobelo, Kabupaten Halmahera Utara, Maluku Utara 97762","Gamsungi, Kec. Tobelo, Kabupaten Halmahera Utara",MALUKU UTARA,97762.0,Indonesia,8124440088.0,1.725835,128.0105177,https://maps.google.com/?cid=0x0:0x1f0b9a3834e21296
supermarket bangunan,Toko Perlengkapan Rumah,Tk.Mulia Jaya,"P2F2+WQ7, Gamsungi, Kec. Tobelo, Kabupaten Halmahera Utara, Maluku Utara","Kabupaten Halmahera Utara, Maluku Utara",MALUKU UTARA,,Indonesia,,1.7247757,128.0019201,https://maps.google.com/?cid=0x0:0x98deffa82d6d06d5
supermarket bangunan,Toko Perlengkapan Rumah,Toko William,"P2J3+JM6, Gura, Kec. Tobelo, Kabupaten Halmahera Utara, Maluku Utara","Kabupaten Halmahera Utara, Maluku Utara",MALUKU UTARA,,Indonesia,81352997896.0,1.7267074,128.0074938,https://maps.google.com/?cid=0x0:0x4d96e6931e9cf30c
supermarket bangunan,Toko Elektronik,RR Solution,"tobelo, Jl. Sinar Mas No.10-12, Gosoma, Kec. Tobelo, Kabupaten Halmahera Utara, Maluku Utara 97762","Jl. Sinar Mas No.10-12, Gosoma, Kec. Tobelo, Kabupaten Halmahera Utara",MALUKU UTARA,97762.0,Indonesia,81387862975.0,1.7194727,128.0100098,https://maps.google.com/?cid=0x0:0x77e71f41d6fd3422
supermarket bangunan,supermarket bangunan,Kec. Tobelo Utara,"Kabupaten Halmahera Utara, Maluku Utara","Kabupaten Halmahera Utara, Maluku Utara",MALUKU UTARA,,Indonesia,,1.7634729,127.9819399,https://maps.google.com/?cid=0x0:0xd08db8115ea8b44b
supermarket bangunan,Toko Bahan Bangunan,Makmur Utama Supermarket Bahan bangunan,"Tj. Niara, Kec. Tobelo Tengah, Kabupaten Halmahera Utara, Maluku Utara","Kabupaten Halmahera Utara, Maluku Utara",MALUKU UTARA,,Indonesia,85117420324.0,1.7019679,128.0155893,https://maps.google.com/?cid=0x0:0x47ecdf114648cbc2
supermarket bangunan,Pasar bahan bangunan,Toko Sumber Bangunan,"P2G6+2MM, Gamsungi, Kec. Tobelo, Kabupaten Halmahera Utara, Maluku Utara","Kabupaten Halmahera Utara, Maluku Utara",MALUKU UTARA,,Indonesia,9242621455.0,1.7250967,128.0116677,https://maps.google.com/?cid=0x0:0x14835095227102f4
supermarket bangunan,Toko Perlengkapan Rumah,Toko Maju Dop,"Simpang empat pelabuhan tobelo, Jl. Kemakmuran, Kec. Tobelo, Maluku Utara 97762","Jl. Kemakmuran, Kec. Tobelo",MALUKU UTARA,97762.0,Indonesia,81356555555.0,1.7238451,128.0117631,https://maps.google.com/?cid=0x0:0xaa72bec3241f7850
supermarket bangunan,Toko Bahan Bangunan,Toko Bangunan SENTOSA,"P266+52G O.Sasingan, Wosia, Kec. Tobelo Tengah, Kabupaten Halmahera Utara, Maluku Utara","Kabupaten Halmahera Utara, Maluku Utara",MALUKU UTARA,,Indonesia,82144648989.0,1.7104491,128.0100684,https://maps.google.com/?cid=0x0:0xe043f9c8ba78bb16
supermarket bangunan,Minimarket,Hibualamo Jaya (BUMD). PT,"JL. Djumati Lamali, No. 7, Gosoma, 97762, Gosoma, Kec. Tobelo, Kabupaten Halmahera Utara, Maluku Utara","Gosoma,",MALUKU UTARA,97762.0,Indonesia,92421779.0,1.719102,128.006165,https://maps.google.com/?cid=0x0:0x323635fdc3db0a8f
supermarket bangunan,Toko,Toko Kali Seratus,"Gosoma, Kec. Tobelo, Kabupaten Halmahera Utara, Maluku Utara 97762","Kec. Tobelo, Kabupaten Halmahera Utara",MALUKU UTARA,97762.0,Indonesia,81244151500.0,1.7195595,128.007351,https://maps.google.com/?cid=0x0:0xa65cc8601921934f
