Category,Real Category,Business Name,Address,City,State,Postal Code,Country,Phone,Latitude,Longitude,Map Link
mall,mall,Kec. Galela,"Kabupaten Halmahera Utara, Maluku Utara","Kabupaten Halmahera Utara, Maluku Utara",MALUKU UTARA,,Indonesia,,1.7991745,127.9013278,https://maps.google.com/?cid=0x0:0x6d037a5832cde2d7
mall,Pusat Perbelanjaan,KIOS GALELA JAYA,"RRV3+WRF, Bar, Ngidiho, Kec. Galela Bar., Kabupaten Halmahera Utara, Maluku Utara","Kabupaten Halmahera Utara, Maluku Utara",MALUKU UTARA,,Indonesia,85256168917.0,1.844815,127.80456,https://maps.google.com/?cid=0x0:0xb3459107b3abbdc7
mall,Toko Pakaian,As store,"jalan belakang, Barataku, Kec. Galela, Kabupaten Halmahera Utara, Maluku Utara","Kabupaten Halmahera Utara, Maluku Utara",MALUKU UTARA,,Indonesia,82211028127.0,1.8293781,127.8422688,https://maps.google.com/?cid=0x0:0xd5d70831de5e1b5e
mall,Toko,Pasar Dokulamo/ Toligoda,"RQHR+2J8, Dokulamo, Kec. Galela Bar., Kabupaten Halmahera Utara, Maluku Utara","Kabupaten Halmahera Utara, Maluku Utara",MALUKU UTARA,,Indonesia,,1.8275266,127.7915787,https://maps.google.com/?cid=0x0:0xdb70fd3d2e56869d
mall,Pusat Perbelanjaan,SRC ARJUNA,"RRW4+W5W Bar, Ngidiho, Kec. Galela Bar., Kabupaten Halmahera Utara, Maluku Utara","Kabupaten Halmahera Utara, Maluku Utara",MALUKU UTARA,,Indonesia,,1.8473731,127.8054487,https://maps.google.com/?cid=0x0:0xe31c196b49a5999d
mall,Pusat Perbelanjaan,AZ kios jaya,"RT.06/RW.02, Ngidiho, Kec. Galela Bar., Kabupaten Halmahera Utara, Maluku Utara 97761","Ngidiho, Kec. Galela Bar., Kabupaten Halmahera Utara",MALUKU UTARA,97761.0,Indonesia,,1.8482604,127.8042451,https://maps.google.com/?cid=0x0:0xec9eb51d06770989
mall,Pusat Perbelanjaan,Kios Noval Cellular,"RRW3+JXX, Ngidiho, Kec. Galela Bar., Kabupaten Halmahera Utara, Maluku Utara","Kabupaten Halmahera Utara, Maluku Utara",MALUKU UTARA,,Indonesia,81241528873.0,1.8466212,127.8049854,https://maps.google.com/?cid=0x0:0x39bf64379c674d4a
mall,Toko Ban,Bengkel Dai Ichi,"RRFV+WPV, Soa Sio, Kec. Galela, Kabupaten Halmahera Utara, Maluku Utara","Kabupaten Halmahera Utara, Maluku Utara",MALUKU UTARA,,Indonesia,85256416450.0,1.8248602,127.8442876,https://maps.google.com/?cid=0x0:0xd7607be29d71352
mall,Toko bahan makanan,Kios Hasan,"RR55+FRP, lorong mangga dua, Soakonora, Kec. Galela Sel., Kabupaten Halmahera Utara, Maluku Utara","Kabupaten Halmahera Utara, Maluku Utara",MALUKU UTARA,,Indonesia,81241132672.0,1.8087164,127.809577,https://maps.google.com/?cid=0x0:0xa073b20d710752
mall,mall,Samhana Mart,"RR9V+HV2, Unnamed Road, Pune, Kec. Galela, Kabupaten Halmahera Utara, Maluku Utara","Kabupaten Halmahera Utara, Maluku Utara",MALUKU UTARA,,Indonesia,,1.8188917,127.8446264,https://maps.google.com/?cid=0x0:0x9593042e26e5e630
mall,Toko Herbal,Bisnis arminadaily,"Barataku, Kec. Galela, Kabupaten Halmahera Utara, Maluku Utara 97761","Kec. Galela, Kabupaten Halmahera Utara",MALUKU UTARA,97761.0,Indonesia,82290396867.0,1.8290023,127.8432925,https://maps.google.com/?cid=0x0:0xf162d73d831be694
mall,Pusat Perbelanjaan,Kios Khadijah,"Ngidiho, Kec. Galela Bar., Kabupaten Halmahera Utara, Maluku Utara","Kabupaten Halmahera Utara, Maluku Utara",MALUKU UTARA,,Indonesia,82252545963.0,1.8454383,127.804683,https://maps.google.com/?cid=0x0:0xe405dc65f3c43580
mall,mall,Kec. Galela Bar.,"Kabupaten Halmahera Utara, Maluku Utara","Kabupaten Halmahera Utara, Maluku Utara",MALUKU UTARA,,Indonesia,,1.8258564,127.7917991,https://maps.google.com/?cid=0x0:0x6883a71e285c2680
mall,Pusat Perbelanjaan,KIOS GALELA JAYA,"RRV3+WRF, Bar, Ngidiho, Kec. Galela Bar., Kabupaten Halmahera Utara, Maluku Utara","Kabupaten Halmahera Utara, Maluku Utara",MALUKU UTARA,,Indonesia,85256168917.0,1.844815,127.80456,https://maps.google.com/?cid=0x0:0xb3459107b3abbdc7
mall,Toko,Pasar Dokulamo/ Toligoda,"RQHR+2J8, Dokulamo, Kec. Galela Bar., Kabupaten Halmahera Utara, Maluku Utara","Kabupaten Halmahera Utara, Maluku Utara",MALUKU UTARA,,Indonesia,,1.8275266,127.7915787,https://maps.google.com/?cid=0x0:0xdb70fd3d2e56869d
mall,Toko bahan makanan,Kios Hasan,"RR55+FRP, lorong mangga dua, Soakonora, Kec. Galela Sel., Kabupaten Halmahera Utara, Maluku Utara","Kabupaten Halmahera Utara, Maluku Utara",MALUKU UTARA,,Indonesia,81241132672.0,1.8087164,127.809577,https://maps.google.com/?cid=0x0:0xa073b20d710752
mall,Pusat Perbelanjaan,AZ kios jaya,"RT.06/RW.02, Ngidiho, Kec. Galela Bar., Kabupaten Halmahera Utara, Maluku Utara 97761","Ngidiho, Kec. Galela Bar., Kabupaten Halmahera Utara",MALUKU UTARA,97761.0,Indonesia,,1.8482604,127.8042451,https://maps.google.com/?cid=0x0:0xec9eb51d06770989
mall,Pusat Perbelanjaan,Kios Noval Cellular,"RRW3+JXX, Ngidiho, Kec. Galela Bar., Kabupaten Halmahera Utara, Maluku Utara","Kabupaten Halmahera Utara, Maluku Utara",MALUKU UTARA,,Indonesia,81241528873.0,1.8466212,127.8049854,https://maps.google.com/?cid=0x0:0x39bf64379c674d4a
mall,Otoritas Pelabuhan,Travel Pune,"RRCV+3RR, Pune, Kec. Galela, Kabupaten Halmahera Utara, Maluku Utara","Kabupaten Halmahera Utara, Maluku Utara",MALUKU UTARA,,Indonesia,81340751308.0,1.8202418,127.8445188,https://maps.google.com/?cid=0x0:0x2b876f2e4a50fbce
mall,Kantor Pemerintah,DESA ROKO,"RQX6+599, Roko, Kec. Galela Bar., Kabupaten Halmahera Utara, Maluku Utara","Kabupaten Halmahera Utara, Maluku Utara",MALUKU UTARA,,Indonesia,,1.8479162,127.7609688,https://maps.google.com/?cid=0x0:0x33562a1532fd35c4
mall,Toko Pakaian,As store,"jalan belakang, Barataku, Kec. Galela, Kabupaten Halmahera Utara, Maluku Utara","Kabupaten Halmahera Utara, Maluku Utara",MALUKU UTARA,,Indonesia,82211028127.0,1.8293781,127.8422688,https://maps.google.com/?cid=0x0:0xd5d70831de5e1b5e
mall,Pusat Perbelanjaan,Kios Khadijah,"Ngidiho, Kec. Galela Bar., Kabupaten Halmahera Utara, Maluku Utara","Kabupaten Halmahera Utara, Maluku Utara",MALUKU UTARA,,Indonesia,82252545963.0,1.8454383,127.804683,https://maps.google.com/?cid=0x0:0xe405dc65f3c43580
mall,Toko Ban,Bengkel Dai Ichi,"RRFV+WPV, Soa Sio, Kec. Galela, Kabupaten Halmahera Utara, Maluku Utara","Kabupaten Halmahera Utara, Maluku Utara",MALUKU UTARA,,Indonesia,85256416450.0,1.8248602,127.8442876,https://maps.google.com/?cid=0x0:0xd7607be29d71352
mall,Toko,Pasar Dokulamo/ Toligoda,"RQHR+2J8, Dokulamo, Kec. Galela Bar., Kabupaten Halmahera Utara, Maluku Utara","Kabupaten Halmahera Utara, Maluku Utara",MALUKU UTARA,,Indonesia,,1.8275266,127.7915787,https://maps.google.com/?cid=0x0:0xdb70fd3d2e56869d
mall,mall,Kec. Galela Sel.,"Kabupaten Halmahera Utara, Maluku Utara","Kabupaten Halmahera Utara, Maluku Utara",MALUKU UTARA,,Indonesia,,1.8095298,127.8098621,https://maps.google.com/?cid=0x0:0xd54700cacb22b110
mall,Toko bahan makanan,Kios Hasan,"RR55+FRP, lorong mangga dua, Soakonora, Kec. Galela Sel., Kabupaten Halmahera Utara, Maluku Utara","Kabupaten Halmahera Utara, Maluku Utara",MALUKU UTARA,,Indonesia,81241132672.0,1.8087164,127.809577,https://maps.google.com/?cid=0x0:0xa073b20d710752
mall,Otoritas Pelabuhan,Travel Pune,"RRCV+3RR, Pune, Kec. Galela, Kabupaten Halmahera Utara, Maluku Utara","Kabupaten Halmahera Utara, Maluku Utara",MALUKU UTARA,,Indonesia,81340751308.0,1.8202418,127.8445188,https://maps.google.com/?cid=0x0:0x2b876f2e4a50fbce
mall,Pusat Perbelanjaan,SRC ARJUNA,"RRW4+W5W Bar, Ngidiho, Kec. Galela Bar., Kabupaten Halmahera Utara, Maluku Utara","Kabupaten Halmahera Utara, Maluku Utara",MALUKU UTARA,,Indonesia,,1.8473731,127.8054487,https://maps.google.com/?cid=0x0:0xe31c196b49a5999d
mall,Toko Pakaian,As store,"jalan belakang, Barataku, Kec. Galela, Kabupaten Halmahera Utara, Maluku Utara","Kabupaten Halmahera Utara, Maluku Utara",MALUKU UTARA,,Indonesia,82211028127.0,1.8293781,127.8422688,https://maps.google.com/?cid=0x0:0xd5d70831de5e1b5e
mall,Pusat Perbelanjaan,AZ kios jaya,"RT.06/RW.02, Ngidiho, Kec. Galela Bar., Kabupaten Halmahera Utara, Maluku Utara 97761","Ngidiho, Kec. Galela Bar., Kabupaten Halmahera Utara",MALUKU UTARA,97761.0,Indonesia,,1.8482604,127.8042451,https://maps.google.com/?cid=0x0:0xec9eb51d06770989
mall,Pusat Perbelanjaan,Kios Noval Cellular,"RRW3+JXX, Ngidiho, Kec. Galela Bar., Kabupaten Halmahera Utara, Maluku Utara","Kabupaten Halmahera Utara, Maluku Utara",MALUKU UTARA,,Indonesia,81241528873.0,1.8466212,127.8049854,https://maps.google.com/?cid=0x0:0x39bf64379c674d4a
mall,Toko Ban,Bengkel Dai Ichi,"RRFV+WPV, Soa Sio, Kec. Galela, Kabupaten Halmahera Utara, Maluku Utara","Kabupaten Halmahera Utara, Maluku Utara",MALUKU UTARA,,Indonesia,85256416450.0,1.8248602,127.8442876,https://maps.google.com/?cid=0x0:0xd7607be29d71352
mall,Pusat Perbelanjaan,Kios Khadijah,"Ngidiho, Kec. Galela Bar., Kabupaten Halmahera Utara, Maluku Utara","Kabupaten Halmahera Utara, Maluku Utara",MALUKU UTARA,,Indonesia,82252545963.0,1.8454383,127.804683,https://maps.google.com/?cid=0x0:0xe405dc65f3c43580
mall,mall,Samhana Mart,"RR9V+HV2, Unnamed Road, Pune, Kec. Galela, Kabupaten Halmahera Utara, Maluku Utara","Kabupaten Halmahera Utara, Maluku Utara",MALUKU UTARA,,Indonesia,,1.8188917,127.8446264,https://maps.google.com/?cid=0x0:0x9593042e26e5e630
mall,mall,Ratu saiful,"jln Hi ismail No.RT 1, RT.1/RW.1, Igobula, Kec. Galela Sel., Kabupaten Halmahera Utara, Maluku Utara","Kabupaten Halmahera Utara, Maluku Utara",MALUKU UTARA,,Indonesia,81244713668.0,1.7936378,127.7888565,https://maps.google.com/?cid=0x0:0xc74630cd79990fd0
mall,Pusat Perbelanjaan,KIOS GALELA JAYA,"RRV3+WRF, Bar, Ngidiho, Kec. Galela Bar., Kabupaten Halmahera Utara, Maluku Utara","Kabupaten Halmahera Utara, Maluku Utara",MALUKU UTARA,,Indonesia,85256168917.0,1.844815,127.80456,https://maps.google.com/?cid=0x0:0xb3459107b3abbdc7
mall,Toko,Pasar Dokulamo/ Toligoda,"RQHR+2J8, Dokulamo, Kec. Galela Bar., Kabupaten Halmahera Utara, Maluku Utara","Kabupaten Halmahera Utara, Maluku Utara",MALUKU UTARA,,Indonesia,,1.8275266,127.7915787,https://maps.google.com/?cid=0x0:0xdb70fd3d2e56869d
mall,mall,Kec. Galela Utara,"Kabupaten Halmahera Utara, Maluku Utara","Kabupaten Halmahera Utara, Maluku Utara",MALUKU UTARA,,Indonesia,,2.0151873,127.9497063,https://maps.google.com/?cid=0x0:0x6378f017549179ee
mall,Pusat Perbelanjaan,AZ kios jaya,"RT.06/RW.02, Ngidiho, Kec. Galela Bar., Kabupaten Halmahera Utara, Maluku Utara 97761","Ngidiho, Kec. Galela Bar., Kabupaten Halmahera Utara",MALUKU UTARA,97761.0,Indonesia,,1.8482604,127.8042451,https://maps.google.com/?cid=0x0:0xec9eb51d06770989
mall,Otoritas Pelabuhan,Travel Pune,"RRCV+3RR, Pune, Kec. Galela, Kabupaten Halmahera Utara, Maluku Utara","Kabupaten Halmahera Utara, Maluku Utara",MALUKU UTARA,,Indonesia,81340751308.0,1.8202418,127.8445188,https://maps.google.com/?cid=0x0:0x2b876f2e4a50fbce
mall,Pusat Perbelanjaan,Kios Noval Cellular,"RRW3+JXX, Ngidiho, Kec. Galela Bar., Kabupaten Halmahera Utara, Maluku Utara","Kabupaten Halmahera Utara, Maluku Utara",MALUKU UTARA,,Indonesia,81241528873.0,1.8466212,127.8049854,https://maps.google.com/?cid=0x0:0x39bf64379c674d4a
mall,Toko Pakaian,As store,"jalan belakang, Barataku, Kec. Galela, Kabupaten Halmahera Utara, Maluku Utara","Kabupaten Halmahera Utara, Maluku Utara",MALUKU UTARA,,Indonesia,82211028127.0,1.8293781,127.8422688,https://maps.google.com/?cid=0x0:0xd5d70831de5e1b5e
mall,Pusat Perbelanjaan,Kios Khadijah,"Ngidiho, Kec. Galela Bar., Kabupaten Halmahera Utara, Maluku Utara","Kabupaten Halmahera Utara, Maluku Utara",MALUKU UTARA,,Indonesia,82252545963.0,1.8454383,127.804683,https://maps.google.com/?cid=0x0:0xe405dc65f3c43580
mall,Kantor Pemerintah,DESA ROKO,"RQX6+599, Roko, Kec. Galela Bar., Kabupaten Halmahera Utara, Maluku Utara","Kabupaten Halmahera Utara, Maluku Utara",MALUKU UTARA,,Indonesia,,1.8479162,127.7609688,https://maps.google.com/?cid=0x0:0x33562a1532fd35c4
mall,mall,Kios Jainudin,"3X79+HQC, Saluta, Kec. Galela Utara, Kabupaten Halmahera Utara, Maluku Utara","Kabupaten Halmahera Utara, Maluku Utara",MALUKU UTARA,,Indonesia,,2.0639354,127.969386,https://maps.google.com/?cid=0x0:0x9f3b058ea144d2ee
mall,Toko Ban,Bengkel Dai Ichi,"RRFV+WPV, Soa Sio, Kec. Galela, Kabupaten Halmahera Utara, Maluku Utara","Kabupaten Halmahera Utara, Maluku Utara",MALUKU UTARA,,Indonesia,85256416450.0,1.8248602,127.8442876,https://maps.google.com/?cid=0x0:0xd7607be29d71352
mall,mall,Kec. Kao,"Kabupaten Halmahera Utara, Maluku Utara","Kabupaten Halmahera Utara, Maluku Utara",MALUKU UTARA,,Indonesia,,1.1658407,127.9007494,https://maps.google.com/?cid=0x0:0xf94b0d160a93d5c4
mall,Pusat Perbelanjaan,KMR SHOP,"5V8X+M29, Hamahera Utara, Pasar, Kao, Kec. Kao, Kabupaten Halmahera Utara, Maluku Utara","Kabupaten Halmahera Utara, Maluku Utara",MALUKU UTARA,,Indonesia,81241982440.0,1.1666603,127.8976008,https://maps.google.com/?cid=0x0:0x99e792bc492e8062
mall,Pusat Perbelanjaan,77 Shop,"pasar kao no,18, Kao, Kec. Kao, Kabupaten Halmahera Utara, Maluku Utara","Kabupaten Halmahera Utara, Maluku Utara",MALUKU UTARA,,Indonesia,85256879777.0,1.1668545,127.8974582,https://maps.google.com/?cid=0x0:0x84ffe7f5f0c9ba72
mall,Pusat Perbelanjaan,Pasar Kao Kec Kao Hamahera Utara,"5V8W+PW6, Kao, Kec. Kao, Kabupaten Halmahera Utara, Maluku Utara","Kabupaten Halmahera Utara, Maluku Utara",MALUKU UTARA,,Indonesia,82191118778.0,1.1667976,127.8972764,https://maps.google.com/?cid=0x0:0xa56f49195faeb0d5
mall,Pusat Perbelanjaan,KMR cell  Travel,"5V8X+G6Q, Kao, Kec. Kao, Kabupaten Halmahera Utara, Maluku Utara","Kabupaten Halmahera Utara, Maluku Utara",MALUKU UTARA,,Indonesia,85397315945.0,1.1663478,127.8981231,https://maps.google.com/?cid=0x0:0xdfac139fcba2097b
mall,Toko,Kios ayu,"7W72+8C7, Waringin Lamo, Kec. Kao, Kabupaten Halmahera Utara, Maluku Utara","Kabupaten Halmahera Utara, Maluku Utara",MALUKU UTARA,,Indonesia,,1.2632781,127.9010547,https://maps.google.com/?cid=0x0:0x6e74cd73c236740d
mall,Toko,Konter Ahmad Cell,"5V8X+F5M, Kao, Kec. Kao, Kabupaten Halmahera Utara, Maluku Utara","Kabupaten Halmahera Utara, Maluku Utara",MALUKU UTARA,,Indonesia,,1.1662041,127.8979199,https://maps.google.com/?cid=0x0:0x117e6477779aca1c
mall,Produsen kimia,PT KAO Indonesia Karawang Factory,"J7CV+FCM, Karawang International Industrial City (KIIC) Jl. Harapan Raya VI, Lot. LL-3A, Sirnabaya, Telukjambe Timur, Karawang, Jawa Barat 41361","Karawang International Industrial City (KIIC) Jl. Harapan Raya VI, Lot. LL-3A, Sirnabaya, Telukjambe Timur, Karawang",MALUKU UTARA,41361.0,Indonesia,2678637482.0,-6.3777098,107.2937987,https://maps.google.com/?cid=0x0:0x879119ea3c35a384
mall,Kantor Perusahaan,PT Kao Indonesia,"Jl. Letjen M.T. Haryono No.Kav. 39-40, RT.4/RW.2, Cikoko, Kec. Pancoran, Kota Jakarta Selatan, Daerah Khusus Ibukota Jakarta 12770","RT.4/RW.2, Cikoko, Kec. Pancoran, Kota Jakarta Selatan",MALUKU UTARA,12770.0,Indonesia,217982245.0,-6.2438917,106.8544091,https://maps.google.com/?cid=0x0:0x81f45a7f1841845c
mall,Gudang,PT KAO INDONESIA CIKARANG FACTORY,"Kawasan Industri Jababeka, Jl. Jababeka VI, Wangunharja, Kec. Cikarang Utara, Kabupaten Bekasi, Jawa Barat 17530","Jl. Jababeka VI, Wangunharja, Kec. Cikarang Utara, Kabupaten Bekasi",MALUKU UTARA,17530.0,Indonesia,218934650.0,-6.2872641,107.1307579,https://maps.google.com/?cid=0x0:0xb5f62ee2f50cdbc6
mall,mall,Kec. Kao Bar.,"Kabupaten Halmahera Utara, Maluku Utara","Kabupaten Halmahera Utara, Maluku Utara",MALUKU UTARA,,Indonesia,,1.3826535,127.7854236,https://maps.google.com/?cid=0x0:0xf7afe1ef0f20eafa
mall,Toko,Makarti,"9RV3+5J7, Makarti, Kec. Kao Bar., Kabupaten Halmahera Utara, Maluku Utara","Kabupaten Halmahera Utara, Maluku Utara",MALUKU UTARA,,Indonesia,,1.3929056,127.8040399,https://maps.google.com/?cid=0x0:0x75f548043fad1d84
mall,Pusat Perbelanjaan,Pasar Kao Kec Kao Hamahera Utara,"5V8W+PW6, Kao, Kec. Kao, Kabupaten Halmahera Utara, Maluku Utara","Kabupaten Halmahera Utara, Maluku Utara",MALUKU UTARA,,Indonesia,82191118778.0,1.1667976,127.8972764,https://maps.google.com/?cid=0x0:0xa56f49195faeb0d5
mall,Pusat Perbelanjaan,KMR SHOP,"5V8X+M29, Hamahera Utara, Pasar, Kao, Kec. Kao, Kabupaten Halmahera Utara, Maluku Utara","Kabupaten Halmahera Utara, Maluku Utara",MALUKU UTARA,,Indonesia,81241982440.0,1.1666603,127.8976008,https://maps.google.com/?cid=0x0:0x99e792bc492e8062
mall,Pusat Perbelanjaan,Excellino Payment,"CXG9+WGQ, Unnamed Road, Wateto, Kec. Kao Utara, Kabupaten Halmahera Utara, Maluku Utara","Kabupaten Halmahera Utara, Maluku Utara",MALUKU UTARA,,Indonesia,85298965949.0,1.4273395,127.9688683,https://maps.google.com/?cid=0x0:0xdf9dd69e287778af
mall,Pusat Perbelanjaan,77 Shop,"pasar kao no,18, Kao, Kec. Kao, Kabupaten Halmahera Utara, Maluku Utara","Kabupaten Halmahera Utara, Maluku Utara",MALUKU UTARA,,Indonesia,85256879777.0,1.1668545,127.8974582,https://maps.google.com/?cid=0x0:0x84ffe7f5f0c9ba72
mall,Toko,Kios ayu,"7W72+8C7, Waringin Lamo, Kec. Kao, Kabupaten Halmahera Utara, Maluku Utara","Kabupaten Halmahera Utara, Maluku Utara",MALUKU UTARA,,Indonesia,,1.2632781,127.9010547,https://maps.google.com/?cid=0x0:0x6e74cd73c236740d
mall,Pusat Perbelanjaan,One Shop,"Pasar Kao Los No 19 Kao, Kao, Kec. Kao, Kabupaten Halmahera Utara, Maluku Utara","Kabupaten Halmahera Utara, Maluku Utara",MALUKU UTARA,,Indonesia,82196790106.0,1.1668523,127.8974636,https://maps.google.com/?cid=0x0:0x26a7ce52b1adcf22
mall,Pusat Perbelanjaan,KMR cell  Travel,"5V8X+G6Q, Kao, Kec. Kao, Kabupaten Halmahera Utara, Maluku Utara","Kabupaten Halmahera Utara, Maluku Utara",MALUKU UTARA,,Indonesia,85397315945.0,1.1663478,127.8981231,https://maps.google.com/?cid=0x0:0xdfac139fcba2097b
mall,Toko,Toko.Dalle,"5R6P+46V, Soma, Kec. Malifut, Kabupaten Halmahera Utara, Maluku Utara","Kabupaten Halmahera Utara, Maluku Utara",MALUKU UTARA,,Indonesia,82291731352.0,1.1603684,127.8355487,https://maps.google.com/?cid=0x0:0x1e97c4ae1aa30af9
mall,Toko,Konter Ahmad Cell,"5V8X+F5M, Kao, Kec. Kao, Kabupaten Halmahera Utara, Maluku Utara","Kabupaten Halmahera Utara, Maluku Utara",MALUKU UTARA,,Indonesia,,1.1662041,127.8979199,https://maps.google.com/?cid=0x0:0x117e6477779aca1c
mall,Pusat Perbelanjaan,Pasar Kao Kec Kao Hamahera Utara,"5V8W+PW6, Kao, Kec. Kao, Kabupaten Halmahera Utara, Maluku Utara","Kabupaten Halmahera Utara, Maluku Utara",MALUKU UTARA,,Indonesia,82191118778.0,1.1667976,127.8972764,https://maps.google.com/?cid=0x0:0xa56f49195faeb0d5
mall,mall,Kec. Kao Utara,"Kabupaten Halmahera Utara, Maluku Utara","Kabupaten Halmahera Utara, Maluku Utara",MALUKU UTARA,,Indonesia,,1.3982481,128.0027515,https://maps.google.com/?cid=0x0:0x5d873bc773b3c48e
mall,Pusat Perbelanjaan,Excellino Payment,"CXG9+WGQ, Unnamed Road, Wateto, Kec. Kao Utara, Kabupaten Halmahera Utara, Maluku Utara","Kabupaten Halmahera Utara, Maluku Utara",MALUKU UTARA,,Indonesia,85298965949.0,1.4273395,127.9688683,https://maps.google.com/?cid=0x0:0xdf9dd69e287778af
mall,Balai masyarakat,Pasar Desa Pediwang,"92W2+QPG, Pediwang, Kec. Kao Utara, Kabupaten Halmahera Utara, Maluku Utara","Kabupaten Halmahera Utara, Maluku Utara",MALUKU UTARA,,Indonesia,,1.3961927,128.0022659,https://maps.google.com/?cid=0x0:0xad9d63989bc5f54e
mall,Pusat Perbelanjaan,One Shop,"Pasar Kao Los No 19 Kao, Kao, Kec. Kao, Kabupaten Halmahera Utara, Maluku Utara","Kabupaten Halmahera Utara, Maluku Utara",MALUKU UTARA,,Indonesia,82196790106.0,1.1668523,127.8974636,https://maps.google.com/?cid=0x0:0x26a7ce52b1adcf22
mall,Pusat Perbelanjaan,77 Shop,"pasar kao no,18, Kao, Kec. Kao, Kabupaten Halmahera Utara, Maluku Utara","Kabupaten Halmahera Utara, Maluku Utara",MALUKU UTARA,,Indonesia,85256879777.0,1.1668545,127.8974582,https://maps.google.com/?cid=0x0:0x84ffe7f5f0c9ba72
mall,Toko,Kios ayu,"7W72+8C7, Waringin Lamo, Kec. Kao, Kabupaten Halmahera Utara, Maluku Utara","Kabupaten Halmahera Utara, Maluku Utara",MALUKU UTARA,,Indonesia,,1.2632781,127.9010547,https://maps.google.com/?cid=0x0:0x6e74cd73c236740d
mall,Pusat Perbelanjaan,KMR cell  Travel,"5V8X+G6Q, Kao, Kec. Kao, Kabupaten Halmahera Utara, Maluku Utara","Kabupaten Halmahera Utara, Maluku Utara",MALUKU UTARA,,Indonesia,85397315945.0,1.1663478,127.8981231,https://maps.google.com/?cid=0x0:0xdfac139fcba2097b
mall,Toko,Makarti,"9RV3+5J7, Makarti, Kec. Kao Bar., Kabupaten Halmahera Utara, Maluku Utara","Kabupaten Halmahera Utara, Maluku Utara",MALUKU UTARA,,Indonesia,,1.3929056,127.8040399,https://maps.google.com/?cid=0x0:0x75f548043fad1d84
mall,mall,Kec. Kao Tlk.,"Kabupaten Halmahera Utara, Maluku Utara","Kabupaten Halmahera Utara, Maluku Utara",MALUKU UTARA,,Indonesia,,1.0572865,127.697129,https://maps.google.com/?cid=0x0:0xb7e89a460242f82
mall,Kios,Kios Rahma,"VM88+JXF, Bobaneigo, Kec. Kao Tlk., Kabupaten Halmahera Utara, Maluku Utara","Kabupaten Halmahera Utara, Maluku Utara",MALUKU UTARA,,Indonesia,,0.8661684,127.6669953,https://maps.google.com/?cid=0x0:0x6232b75dfa4ebd51
mall,Toko,Kios Athar,"Jl. Trans Halmahera, Dodinga, Kec. Jailolo Sel., Kabupaten Halmahera Barat, Maluku Utara","Kabupaten Halmahera Barat, Maluku Utara",MALUKU UTARA,,Indonesia,,0.85703,127.653449,https://maps.google.com/?cid=0x0:0x7ed89f8d3d5a36b7
mall,mall,Kec. Kao Tlk.,"Kabupaten Halmahera Utara, Maluku Utara","Kabupaten Halmahera Utara, Maluku Utara",MALUKU UTARA,,Indonesia,,1.0572865,127.697129,https://maps.google.com/?cid=0x0:0xb7e89a460242f82
mall,Kios,Kios Rahma,"VM88+JXF, Bobaneigo, Kec. Kao Tlk., Kabupaten Halmahera Utara, Maluku Utara","Kabupaten Halmahera Utara, Maluku Utara",MALUKU UTARA,,Indonesia,,0.8661684,127.6669953,https://maps.google.com/?cid=0x0:0x6232b75dfa4ebd51
mall,Toko,Kios Athar,"Jl. Trans Halmahera, Dodinga, Kec. Jailolo Sel., Kabupaten Halmahera Barat, Maluku Utara","Kabupaten Halmahera Barat, Maluku Utara",MALUKU UTARA,,Indonesia,,0.85703,127.653449,https://maps.google.com/?cid=0x0:0x7ed89f8d3d5a36b7
mall,Pusat Perbelanjaan,KMR SHOP,"5V8X+M29, Hamahera Utara, Pasar, Kao, Kec. Kao, Kabupaten Halmahera Utara, Maluku Utara","Kabupaten Halmahera Utara, Maluku Utara",MALUKU UTARA,,Indonesia,81241982440.0,1.1666603,127.8976008,https://maps.google.com/?cid=0x0:0x99e792bc492e8062
mall,Tujuan Wisata,Pantai Posi Posi Loloda,"5XV4+9H2, Posi Posi, Kec. Loloda Utara, Kabupaten Halmahera Utara, Maluku Utara","Kabupaten Halmahera Utara, Maluku Utara",MALUKU UTARA,,Indonesia,,2.1933759,127.9563951,https://maps.google.com/?cid=0x0:0xaa19140c56fc0eb
mall,Tujuan Wisata,Tempat Pemandian Air Jerni Posi-Posi Loloda,"5XX6+X8H, Posi Posi, Kec. Loloda Utara, Kabupaten Halmahera Utara, Maluku Utara","Kabupaten Halmahera Utara, Maluku Utara",MALUKU UTARA,,Indonesia,,2.1993519,127.9599631,https://maps.google.com/?cid=0x0:0xb5a6fbc8a5ef996d
mall,Pusat Perbelanjaan,K-LINK,"3FPF+746, Hatebicara, Kec. Jailolo, Kabupaten Halmahera Barat, Maluku Utara","Kabupaten Halmahera Barat, Maluku Utara",MALUKU UTARA,,Indonesia,8114312370.0,1.0856731,127.4727522,https://maps.google.com/?cid=0x0:0x462e5982f99b2f20
mall,Toko,Pasar Dokulamo/ Toligoda,"RQHR+2J8, Dokulamo, Kec. Galela Bar., Kabupaten Halmahera Utara, Maluku Utara","Kabupaten Halmahera Utara, Maluku Utara",MALUKU UTARA,,Indonesia,,1.8275266,127.7915787,https://maps.google.com/?cid=0x0:0xdb70fd3d2e56869d
mall,mall,Kec. Loloda Utara,"Kabupaten Halmahera Utara, Maluku Utara","Kabupaten Halmahera Utara, Maluku Utara",MALUKU UTARA,,Indonesia,,2.0927761,127.8484263,https://maps.google.com/?cid=0x0:0xb975e42fee13365a
mall,Pusat Perbelanjaan,SRC ARJUNA,"RRW4+W5W Bar, Ngidiho, Kec. Galela Bar., Kabupaten Halmahera Utara, Maluku Utara","Kabupaten Halmahera Utara, Maluku Utara",MALUKU UTARA,,Indonesia,,1.8473731,127.8054487,https://maps.google.com/?cid=0x0:0xe31c196b49a5999d
mall,Pusat Perbelanjaan,KIOS GALELA JAYA,"RRV3+WRF, Bar, Ngidiho, Kec. Galela Bar., Kabupaten Halmahera Utara, Maluku Utara","Kabupaten Halmahera Utara, Maluku Utara",MALUKU UTARA,,Indonesia,85256168917.0,1.844815,127.80456,https://maps.google.com/?cid=0x0:0xb3459107b3abbdc7
mall,Pusat Perbelanjaan,Kios Noval Cellular,"RRW3+JXX, Ngidiho, Kec. Galela Bar., Kabupaten Halmahera Utara, Maluku Utara","Kabupaten Halmahera Utara, Maluku Utara",MALUKU UTARA,,Indonesia,81241528873.0,1.8466212,127.8049854,https://maps.google.com/?cid=0x0:0x39bf64379c674d4a
mall,Pusat Perbelanjaan,AZ kios jaya,"RT.06/RW.02, Ngidiho, Kec. Galela Bar., Kabupaten Halmahera Utara, Maluku Utara 97761","Ngidiho, Kec. Galela Bar., Kabupaten Halmahera Utara",MALUKU UTARA,97761.0,Indonesia,,1.8482604,127.8042451,https://maps.google.com/?cid=0x0:0xec9eb51d06770989
mall,Otoritas Pelabuhan,Travel Pune,"RRCV+3RR, Pune, Kec. Galela, Kabupaten Halmahera Utara, Maluku Utara","Kabupaten Halmahera Utara, Maluku Utara",MALUKU UTARA,,Indonesia,81340751308.0,1.8202418,127.8445188,https://maps.google.com/?cid=0x0:0x2b876f2e4a50fbce
mall,Pusat Perbelanjaan,Kios Khadijah,"Ngidiho, Kec. Galela Bar., Kabupaten Halmahera Utara, Maluku Utara","Kabupaten Halmahera Utara, Maluku Utara",MALUKU UTARA,,Indonesia,82252545963.0,1.8454383,127.804683,https://maps.google.com/?cid=0x0:0xe405dc65f3c43580
mall,Toko Pakaian,As store,"jalan belakang, Barataku, Kec. Galela, Kabupaten Halmahera Utara, Maluku Utara","Kabupaten Halmahera Utara, Maluku Utara",MALUKU UTARA,,Indonesia,82211028127.0,1.8293781,127.8422688,https://maps.google.com/?cid=0x0:0xd5d70831de5e1b5e
mall,Toko Ban,Bengkel Dai Ichi,"RRFV+WPV, Soa Sio, Kec. Galela, Kabupaten Halmahera Utara, Maluku Utara","Kabupaten Halmahera Utara, Maluku Utara",MALUKU UTARA,,Indonesia,85256416450.0,1.8248602,127.8442876,https://maps.google.com/?cid=0x0:0xd7607be29d71352
mall,Pusat Perbelanjaan,Jatiland Mall,"Jl. Pahlawan Revolusi, Gamalama, Kec. Ternate Tengah, Kota Ternate, Maluku Utara","Kota Ternate, Maluku Utara",MALUKU UTARA,,Indonesia,,0.7913034,127.3904651,https://maps.google.com/?cid=0x0:0xc88fc50abd8f2993
mall,Tujuan Wisata,Pantai Posi Posi Loloda,"5XV4+9H2, Posi Posi, Kec. Loloda Utara, Kabupaten Halmahera Utara, Maluku Utara","Kabupaten Halmahera Utara, Maluku Utara",MALUKU UTARA,,Indonesia,,2.1933759,127.9563951,https://maps.google.com/?cid=0x0:0xaa19140c56fc0eb
mall,Sekolah Agama,MIN 5 Halmahera Utara,"5XMH+78G, Supu, Kec. Loloda Utara, Kabupaten Halmahera Utara, Maluku Utara","Kabupaten Halmahera Utara, Maluku Utara",MALUKU UTARA,,Indonesia,,2.1831933,127.9783352,https://maps.google.com/?cid=0x0:0xfaf240eaeab420a3
mall,mall,Kec. Malifut,"Kabupaten Halmahera Utara, Maluku Utara","Kabupaten Halmahera Utara, Maluku Utara",MALUKU UTARA,,Indonesia,,1.0939454,127.776544,https://maps.google.com/?cid=0x0:0xd9110b77277647d2
mall,Toko,Toko.Dalle,"5R6P+46V, Soma, Kec. Malifut, Kabupaten Halmahera Utara, Maluku Utara","Kabupaten Halmahera Utara, Maluku Utara",MALUKU UTARA,,Indonesia,82291731352.0,1.1603684,127.8355487,https://maps.google.com/?cid=0x0:0x1e97c4ae1aa30af9
mall,Pusat Perbelanjaan,Kios Putra Bone 2 Kadir,"4RWC+VF3, Matsa, Kec. Malifut, Kabupaten Halmahera Utara, Maluku Utara","Kabupaten Halmahera Utara, Maluku Utara",MALUKU UTARA,,Indonesia,81254964210.0,1.1471337,127.8211608,https://maps.google.com/?cid=0x0:0xe4480d251a836d20
mall,Pusat Perbelanjaan,TOKO HASRAT,"5R2H+7CV, Ngofagita, Kec. Malifut, Kabupaten Halmahera Utara, Maluku Utara","Kabupaten Halmahera Utara, Maluku Utara",MALUKU UTARA,,Indonesia,81241037853.0,1.1507294,127.8285493,https://maps.google.com/?cid=0x0:0xce49c48b452bf42d
mall,Pusat Perbelanjaan,Pasar Kao Kec Kao Hamahera Utara,"5V8W+PW6, Kao, Kec. Kao, Kabupaten Halmahera Utara, Maluku Utara","Kabupaten Halmahera Utara, Maluku Utara",MALUKU UTARA,,Indonesia,82191118778.0,1.1667976,127.8972764,https://maps.google.com/?cid=0x0:0xa56f49195faeb0d5
mall,Pusat Perbelanjaan,KMR SHOP,"5V8X+M29, Hamahera Utara, Pasar, Kao, Kec. Kao, Kabupaten Halmahera Utara, Maluku Utara","Kabupaten Halmahera Utara, Maluku Utara",MALUKU UTARA,,Indonesia,81241982440.0,1.1666603,127.8976008,https://maps.google.com/?cid=0x0:0x99e792bc492e8062
mall,Pusat Perbelanjaan,KIOS PUTRA BONE1 (Abdullah.s),"4RVC+272, Tahane, Kec. Malifut, Kabupaten Halmahera Utara, Maluku Utara","Kabupaten Halmahera Utara, Maluku Utara",MALUKU UTARA,,Indonesia,81340538370.0,1.1425037,127.8206502,https://maps.google.com/?cid=0x0:0x688af9dfd8b4fc36
mall,Pusat Perbelanjaan,KMR cell  Travel,"5V8X+G6Q, Kao, Kec. Kao, Kabupaten Halmahera Utara, Maluku Utara","Kabupaten Halmahera Utara, Maluku Utara",MALUKU UTARA,,Indonesia,85397315945.0,1.1663478,127.8981231,https://maps.google.com/?cid=0x0:0xdfac139fcba2097b
mall,Toko,RT 4,"5R4M+PVJ, Mailoa, Kec. Malifut, Kabupaten Halmahera Utara, Maluku Utara","Kabupaten Halmahera Utara, Maluku Utara",MALUKU UTARA,,Indonesia,,1.1568265,127.8346475,https://maps.google.com/?cid=0x0:0x26d0ef19b018c266
mall,Pusat Perbelanjaan,One Shop,"Pasar Kao Los No 19 Kao, Kao, Kec. Kao, Kabupaten Halmahera Utara, Maluku Utara","Kabupaten Halmahera Utara, Maluku Utara",MALUKU UTARA,,Indonesia,82196790106.0,1.1668523,127.8974636,https://maps.google.com/?cid=0x0:0x26a7ce52b1adcf22
mall,Toko,Konter Ahmad Cell,"5V8X+F5M, Kao, Kec. Kao, Kabupaten Halmahera Utara, Maluku Utara","Kabupaten Halmahera Utara, Maluku Utara",MALUKU UTARA,,Indonesia,,1.1662041,127.8979199,https://maps.google.com/?cid=0x0:0x117e6477779aca1c
mall,Pusat Perbelanjaan,77 Shop,"pasar kao no,18, Kao, Kec. Kao, Kabupaten Halmahera Utara, Maluku Utara","Kabupaten Halmahera Utara, Maluku Utara",MALUKU UTARA,,Indonesia,85256879777.0,1.1668545,127.8974582,https://maps.google.com/?cid=0x0:0x84ffe7f5f0c9ba72
mall,mall,Toko Cahaya Pammana Malifut,"5R6P+57H, Soma, Kec. Malifut, Kabupaten Halmahera Utara, Maluku Utara","Kabupaten Halmahera Utara, Maluku Utara",MALUKU UTARA,,Indonesia,81242963636.0,1.160429,127.8357473,https://maps.google.com/?cid=0x0:0x62d71f2a0c6afeb3
mall,Toko,Mailoa malifut,"5R4M+PRH, Mailoa, Kec. Malifut, Kabupaten Halmahera Utara, Maluku Utara","Kabupaten Halmahera Utara, Maluku Utara",MALUKU UTARA,,Indonesia,,1.1568222,127.834608,https://maps.google.com/?cid=0x0:0xa4d0786c93d0405e
mall,mall,Tobelo,"Gamsungi, Kec. Tobelo, Kabupaten Halmahera Utara, Maluku Utara","Kabupaten Halmahera Utara, Maluku Utara",MALUKU UTARA,,Indonesia,,1.725721,128.001404,https://maps.google.com/?cid=0x0:0xed92b856242bad82
mall,Pasar,PASAR MODERN TOBELO,"P2C5+3R6, Gosoma, Kec. Tobelo, Kabupaten Halmahera Utara, Maluku Utara","Kabupaten Halmahera Utara, Maluku Utara",MALUKU UTARA,,Indonesia,81343722728.0,1.7192823,128.0095353,https://maps.google.com/?cid=0x0:0x8db25466b20f4b99
mall,Pusat Perbelanjaan,Unit Tobelo,"P283+XXX, Gosoma, Kec. Tobelo, Kabupaten Halmahera Utara, Maluku Utara","Kabupaten Halmahera Utara, Maluku Utara",MALUKU UTARA,,Indonesia,81242364780.0,1.7174777,128.0049719,https://maps.google.com/?cid=0x0:0x372599feeac6b430
mall,mall,Andwi,"P2G2+7HJ, Gamsungi, Kec. Tobelo, Kabupaten Halmahera Utara, Maluku Utara","Kabupaten Halmahera Utara, Maluku Utara",MALUKU UTARA,,Indonesia,81341036358.0,1.725721,128.001404,https://maps.google.com/?cid=0x0:0xddfcab3fbd227610
mall,Pusat Perbelanjaan,Komplek toko Graha Tobelo,"P266+V7C, Gosoma, Kec. Tobelo, Kabupaten Halmahera Utara, Maluku Utara","Kabupaten Halmahera Utara, Maluku Utara",MALUKU UTARA,,Indonesia,,1.712492,128.010969,https://maps.google.com/?cid=0x0:0x3422e92cb3c08e6c
mall,Pusat Perbelanjaan,Toko Stars,"P2G6+HJF, Jl. Kemakmuran, Gamsungi, Kec. Tobelo, Kabupaten Halmahera Utara, Maluku Utara","Kabupaten Halmahera Utara, Maluku Utara",MALUKU UTARA,,Indonesia,85205394640.0,1.7264436,128.0115396,https://maps.google.com/?cid=0x0:0xcd8137d199268837
mall,Toko,Herlinashop,"P2C3+FP3, Unnamed Road, Gosoma, Kec. Tobelo, Kabupaten Halmahera Utara, Maluku Utara","Kabupaten Halmahera Utara, Maluku Utara",MALUKU UTARA,,Indonesia,81342615561.0,1.721148,128.0042975,https://maps.google.com/?cid=0x0:0x469524622b7cd5dd
mall,Pusat Perbelanjaan,50 CENT,"P296+W37, Gosoma, Kec. Tobelo, Kabupaten Halmahera Utara, Maluku Utara","Kabupaten Halmahera Utara, Maluku Utara",MALUKU UTARA,,Indonesia,82190948800.0,1.7197874,128.0101688,https://maps.google.com/?cid=0x0:0xcdf0a9b5fc92f642
mall,Pusat Perbelanjaan,andalan lintas samudra,"P2F7+HRJ, Gamsungi, Kec. Tobelo, Kabupaten Halmahera Utara, Maluku Utara","Kabupaten Halmahera Utara, Maluku Utara",MALUKU UTARA,,Indonesia,82131193139.0,1.7239542,128.0145055,https://maps.google.com/?cid=0x0:0x8320af3bb5f150b2
mall,Pusat Perbelanjaan,gramedia,"P2H6+3FV, Jl. Kemakmuran, Gamsungi, Kec. Tobelo, Kabupaten Halmahera Utara, Maluku Utara","Kabupaten Halmahera Utara, Maluku Utara",MALUKU UTARA,,Indonesia,,1.7277366,128.0111736,https://maps.google.com/?cid=0x0:0xf76f790d91c560a3
mall,Kantor Pemerintahan Kota,Mall pelayanan satu pintu halut,"PXJV+F46, Mkcm, Kec. Tobelo, Kabupaten Halmahera Utara, Maluku Utara","Kabupaten Halmahera Utara, Maluku Utara",MALUKU UTARA,,Indonesia,82347336151.0,1.7311692,127.9927571,https://maps.google.com/?cid=0x0:0x132f7d83a162e76f
mall,Pusat Perbelanjaan,50 CENT 02,"P2C6+QHW, Gosoma, Kec. Tobelo, Kabupaten Halmahera Utara, Maluku Utara","Kabupaten Halmahera Utara, Maluku Utara",MALUKU UTARA,,Indonesia,85399755799.0,1.7219926,128.0114571,https://maps.google.com/?cid=0x0:0x140a14460743889d
mall,Toko,Jastip FAR Tobelo,"P287+GW3, Gamsungi, Kec. Tobelo, Kabupaten Halmahera Utara, Maluku Utara","Kabupaten Halmahera Utara, Maluku Utara",MALUKU UTARA,,Indonesia,81248621778.0,1.7169307,128.0142527,https://maps.google.com/?cid=0x0:0xa299af17e09e48b
mall,Pusat Perbelanjaan,Pt. FIRMA AGUNG TOBELO X.100,"P284+RH6, Gosoma, Kec. Tobelo, Kabupaten Halmahera Utara, Maluku Utara","Kabupaten Halmahera Utara, Maluku Utara",MALUKU UTARA,,Indonesia,,1.7170413,128.0064005,https://maps.google.com/?cid=0x0:0xb59a9c2b85b43085
mall,mall,Kec. Tobelo Bar.,"Kabupaten Halmahera Utara, Maluku Utara","Kabupaten Halmahera Utara, Maluku Utara",MALUKU UTARA,,Indonesia,,1.5410827,127.9493454,https://maps.google.com/?cid=0x0:0x253218d19bcb2a3e
mall,Pasar,PASAR MODERN TOBELO,"P2C5+3R6, Gosoma, Kec. Tobelo, Kabupaten Halmahera Utara, Maluku Utara","Kabupaten Halmahera Utara, Maluku Utara",MALUKU UTARA,,Indonesia,81343722728.0,1.7192823,128.0095353,https://maps.google.com/?cid=0x0:0x8db25466b20f4b99
mall,Pusat Perbelanjaan,Unit Tobelo,"P283+XXX, Gosoma, Kec. Tobelo, Kabupaten Halmahera Utara, Maluku Utara","Kabupaten Halmahera Utara, Maluku Utara",MALUKU UTARA,,Indonesia,81242364780.0,1.7174777,128.0049719,https://maps.google.com/?cid=0x0:0x372599feeac6b430
mall,Kafe,Valhalla Tobelo,"P2M3+3FW, Unnamed Road, Mkcm, Kec. Tobelo, Kabupaten Halmahera Utara, Maluku Utara 97762","Unnamed Road, Mkcm, Kec. Tobelo, Kabupaten Halmahera Utara",MALUKU UTARA,97762.0,Indonesia,81241101071.0,1.7327268,128.0036979,https://maps.google.com/?cid=0x0:0x27f3b89f5271ed95
mall,Pusat Perbelanjaan,Excellino Payment,"CXG9+WGQ, Unnamed Road, Wateto, Kec. Kao Utara, Kabupaten Halmahera Utara, Maluku Utara","Kabupaten Halmahera Utara, Maluku Utara",MALUKU UTARA,,Indonesia,85298965949.0,1.4273395,127.9688683,https://maps.google.com/?cid=0x0:0xdf9dd69e287778af
mall,Toko bahan makanan,Galaxy Mart,"P2C6+MMM, Rawajaya, Kec. Tobelo, Kabupaten Halmahera Utara, Maluku Utara","Kabupaten Halmahera Utara, Maluku Utara",MALUKU UTARA,,Indonesia,81288889356.0,1.7217063,128.011669,https://maps.google.com/?cid=0x0:0x28ebc8db575348b5
mall,Toko Bahan Bangunan,Makmur Utama Supermarket Bahan bangunan,"Tj. Niara, Kec. Tobelo Tengah, Kabupaten Halmahera Utara, Maluku Utara","Kabupaten Halmahera Utara, Maluku Utara",MALUKU UTARA,,Indonesia,85117420324.0,1.7019679,128.0155893,https://maps.google.com/?cid=0x0:0x47ecdf114648cbc2
mall,Pertanian,"KOLAM PEMBENIHAN DAN PEMBESARAN IKAN NILA MERAH, HITAM","HXXC+RC4, Paca, Kec. Tobelo Sel., Kabupaten Halmahera Utara, Maluku Utara","Kabupaten Halmahera Utara, Maluku Utara",MALUKU UTARA,,Indonesia,81284424739.0,1.5995034,127.9710629,https://maps.google.com/?cid=0x0:0x2828d33bef4eb52d
mall,Toko,Makarti,"9RV3+5J7, Makarti, Kec. Kao Bar., Kabupaten Halmahera Utara, Maluku Utara","Kabupaten Halmahera Utara, Maluku Utara",MALUKU UTARA,,Indonesia,,1.3929056,127.8040399,https://maps.google.com/?cid=0x0:0x75f548043fad1d84
mall,Pusat Perbelanjaan,BUNGA UTAMA,"9RV4+4G4, Makarti, Kec. Kao Bar., Kabupaten Halmahera Utara, Maluku Utara","Kabupaten Halmahera Utara, Maluku Utara",MALUKU UTARA,,Indonesia,,1.3927544,127.8063127,https://maps.google.com/?cid=0x0:0x534d1d97122e62b3
mall,mall,PACA CELL,"Paca, Kec. Tobelo Sel., Kabupaten Halmahera Utara, Maluku Utara","Kabupaten Halmahera Utara, Maluku Utara",MALUKU UTARA,,Indonesia,,1.6036778,127.9933904,https://maps.google.com/?cid=0x0:0x416c36a5ddd63be2
mall,Pusat Perbelanjaan,Toko Stars,"P2G6+HJF, Jl. Kemakmuran, Gamsungi, Kec. Tobelo, Kabupaten Halmahera Utara, Maluku Utara","Kabupaten Halmahera Utara, Maluku Utara",MALUKU UTARA,,Indonesia,85205394640.0,1.7264436,128.0115396,https://maps.google.com/?cid=0x0:0xcd8137d199268837
mall,Toko,Herlinashop,"P2C3+FP3, Unnamed Road, Gosoma, Kec. Tobelo, Kabupaten Halmahera Utara, Maluku Utara","Kabupaten Halmahera Utara, Maluku Utara",MALUKU UTARA,,Indonesia,81342615561.0,1.721148,128.0042975,https://maps.google.com/?cid=0x0:0x469524622b7cd5dd
mall,Pasar bahan bangunan,Toko Sumber Bangunan,"P2G6+2MM, Gamsungi, Kec. Tobelo, Kabupaten Halmahera Utara, Maluku Utara","Kabupaten Halmahera Utara, Maluku Utara",MALUKU UTARA,,Indonesia,9242621455.0,1.7250967,128.0116677,https://maps.google.com/?cid=0x0:0x14835095227102f4
mall,mall,Kec. Tobelo Sel.,"Kabupaten Halmahera Utara, Maluku Utara","Kabupaten Halmahera Utara, Maluku Utara",MALUKU UTARA,,Indonesia,,1.6281283,127.980575,https://maps.google.com/?cid=0x0:0x1ecb6049a3d26ca1
mall,Pasar,PASAR MODERN TOBELO,"P2C5+3R6, Gosoma, Kec. Tobelo, Kabupaten Halmahera Utara, Maluku Utara","Kabupaten Halmahera Utara, Maluku Utara",MALUKU UTARA,,Indonesia,81343722728.0,1.7192823,128.0095353,https://maps.google.com/?cid=0x0:0x8db25466b20f4b99
mall,Pusat Perbelanjaan,Unit Tobelo,"P283+XXX, Gosoma, Kec. Tobelo, Kabupaten Halmahera Utara, Maluku Utara","Kabupaten Halmahera Utara, Maluku Utara",MALUKU UTARA,,Indonesia,81242364780.0,1.7174777,128.0049719,https://maps.google.com/?cid=0x0:0x372599feeac6b430
mall,mall,PACA CELL,"Paca, Kec. Tobelo Sel., Kabupaten Halmahera Utara, Maluku Utara","Kabupaten Halmahera Utara, Maluku Utara",MALUKU UTARA,,Indonesia,,1.6036778,127.9933904,https://maps.google.com/?cid=0x0:0x416c36a5ddd63be2
mall,mall,Mia Flowers,"M2G3+833, Mkcm, Kec. Tobelo, Kabupaten Halmahera Utara, Maluku Utara","Kabupaten Halmahera Utara, Maluku Utara",MALUKU UTARA,,Indonesia,,1.6757595,128.0026647,https://maps.google.com/?cid=0x0:0xdc44a50622ceb566
mall,Pertanian,"KOLAM PEMBENIHAN DAN PEMBESARAN IKAN NILA MERAH, HITAM","HXXC+RC4, Paca, Kec. Tobelo Sel., Kabupaten Halmahera Utara, Maluku Utara","Kabupaten Halmahera Utara, Maluku Utara",MALUKU UTARA,,Indonesia,81284424739.0,1.5995034,127.9710629,https://maps.google.com/?cid=0x0:0x2828d33bef4eb52d
mall,Pusat Perbelanjaan,Toko Stars,"P2G6+HJF, Jl. Kemakmuran, Gamsungi, Kec. Tobelo, Kabupaten Halmahera Utara, Maluku Utara","Kabupaten Halmahera Utara, Maluku Utara",MALUKU UTARA,,Indonesia,85205394640.0,1.7264436,128.0115396,https://maps.google.com/?cid=0x0:0xcd8137d199268837
mall,Kafe,Valhalla Tobelo,"P2M3+3FW, Unnamed Road, Mkcm, Kec. Tobelo, Kabupaten Halmahera Utara, Maluku Utara 97762","Unnamed Road, Mkcm, Kec. Tobelo, Kabupaten Halmahera Utara",MALUKU UTARA,97762.0,Indonesia,81241101071.0,1.7327268,128.0036979,https://maps.google.com/?cid=0x0:0x27f3b89f5271ed95
mall,Toko,Herlinashop,"P2C3+FP3, Unnamed Road, Gosoma, Kec. Tobelo, Kabupaten Halmahera Utara, Maluku Utara","Kabupaten Halmahera Utara, Maluku Utara",MALUKU UTARA,,Indonesia,81342615561.0,1.721148,128.0042975,https://maps.google.com/?cid=0x0:0x469524622b7cd5dd
mall,Toko Bahan Bangunan,Makmur Utama Supermarket Bahan bangunan,"Tj. Niara, Kec. Tobelo Tengah, Kabupaten Halmahera Utara, Maluku Utara","Kabupaten Halmahera Utara, Maluku Utara",MALUKU UTARA,,Indonesia,85117420324.0,1.7019679,128.0155893,https://maps.google.com/?cid=0x0:0x47ecdf114648cbc2
mall,mall,Kec. Tobelo Tim.,"Kabupaten Halmahera Utara, Maluku Utara","Kabupaten Halmahera Utara, Maluku Utara",MALUKU UTARA,,Indonesia,,1.5702306,128.0348143,https://maps.google.com/?cid=0x0:0x3b948dd04e667beb
mall,Pasar,PASAR MODERN TOBELO,"P2C5+3R6, Gosoma, Kec. Tobelo, Kabupaten Halmahera Utara, Maluku Utara","Kabupaten Halmahera Utara, Maluku Utara",MALUKU UTARA,,Indonesia,81343722728.0,1.7192823,128.0095353,https://maps.google.com/?cid=0x0:0x8db25466b20f4b99
mall,Pusat Perbelanjaan,Unit Tobelo,"P283+XXX, Gosoma, Kec. Tobelo, Kabupaten Halmahera Utara, Maluku Utara","Kabupaten Halmahera Utara, Maluku Utara",MALUKU UTARA,,Indonesia,81242364780.0,1.7174777,128.0049719,https://maps.google.com/?cid=0x0:0x372599feeac6b430
mall,Pertanian,"KOLAM PEMBENIHAN DAN PEMBESARAN IKAN NILA MERAH, HITAM","HXXC+RC4, Paca, Kec. Tobelo Sel., Kabupaten Halmahera Utara, Maluku Utara","Kabupaten Halmahera Utara, Maluku Utara",MALUKU UTARA,,Indonesia,81284424739.0,1.5995034,127.9710629,https://maps.google.com/?cid=0x0:0x2828d33bef4eb52d
mall,mall,PACA CELL,"Paca, Kec. Tobelo Sel., Kabupaten Halmahera Utara, Maluku Utara","Kabupaten Halmahera Utara, Maluku Utara",MALUKU UTARA,,Indonesia,,1.6036778,127.9933904,https://maps.google.com/?cid=0x0:0x416c36a5ddd63be2
mall,Toko Bahan Bangunan,Makmur Utama Supermarket Bahan bangunan,"Tj. Niara, Kec. Tobelo Tengah, Kabupaten Halmahera Utara, Maluku Utara","Kabupaten Halmahera Utara, Maluku Utara",MALUKU UTARA,,Indonesia,85117420324.0,1.7019679,128.0155893,https://maps.google.com/?cid=0x0:0x47ecdf114648cbc2
mall,Kafe,Valhalla Tobelo,"P2M3+3FW, Unnamed Road, Mkcm, Kec. Tobelo, Kabupaten Halmahera Utara, Maluku Utara 97762","Unnamed Road, Mkcm, Kec. Tobelo, Kabupaten Halmahera Utara",MALUKU UTARA,97762.0,Indonesia,81241101071.0,1.7327268,128.0036979,https://maps.google.com/?cid=0x0:0x27f3b89f5271ed95
mall,Toko bahan makanan,Galaxy Mart,"P2C6+MMM, Rawajaya, Kec. Tobelo, Kabupaten Halmahera Utara, Maluku Utara","Kabupaten Halmahera Utara, Maluku Utara",MALUKU UTARA,,Indonesia,81288889356.0,1.7217063,128.011669,https://maps.google.com/?cid=0x0:0x28ebc8db575348b5
mall,Toko,Herlinashop,"P2C3+FP3, Unnamed Road, Gosoma, Kec. Tobelo, Kabupaten Halmahera Utara, Maluku Utara","Kabupaten Halmahera Utara, Maluku Utara",MALUKU UTARA,,Indonesia,81342615561.0,1.721148,128.0042975,https://maps.google.com/?cid=0x0:0x469524622b7cd5dd
mall,Kantor Perusahaan,Plasa Telkom Tobelo - Stasiun CORS Tobelo (CTBL),"P2J5+45H, Gamsungi, Kec. Tobelo, Kabupaten Halmahera Utara, Maluku Utara","Kabupaten Halmahera Utara, Maluku Utara",MALUKU UTARA,,Indonesia,,1.7303233,128.0079957,https://maps.google.com/?cid=0x0:0xbf632436d78f7080
mall,mall,Kec. Tobelo Tengah,"Kabupaten Halmahera Utara, Maluku Utara","Kabupaten Halmahera Utara, Maluku Utara",MALUKU UTARA,,Indonesia,,1.7074794,128.0127501,https://maps.google.com/?cid=0x0:0xef293bed1374db12
mall,Pasar,PASAR MODERN TOBELO,"P2C5+3R6, Gosoma, Kec. Tobelo, Kabupaten Halmahera Utara, Maluku Utara","Kabupaten Halmahera Utara, Maluku Utara",MALUKU UTARA,,Indonesia,81343722728.0,1.7192823,128.0095353,https://maps.google.com/?cid=0x0:0x8db25466b20f4b99
mall,Pusat Perbelanjaan,Unit Tobelo,"P283+XXX, Gosoma, Kec. Tobelo, Kabupaten Halmahera Utara, Maluku Utara","Kabupaten Halmahera Utara, Maluku Utara",MALUKU UTARA,,Indonesia,81242364780.0,1.7174777,128.0049719,https://maps.google.com/?cid=0x0:0x372599feeac6b430
mall,Pusat Perbelanjaan,Pt. FIRMA AGUNG TOBELO X.100,"P284+RH6, Gosoma, Kec. Tobelo, Kabupaten Halmahera Utara, Maluku Utara","Kabupaten Halmahera Utara, Maluku Utara",MALUKU UTARA,,Indonesia,,1.7170413,128.0064005,https://maps.google.com/?cid=0x0:0xb59a9c2b85b43085
mall,Pusat Perbelanjaan,andalan lintas samudra,"P2F7+HRJ, Gamsungi, Kec. Tobelo, Kabupaten Halmahera Utara, Maluku Utara","Kabupaten Halmahera Utara, Maluku Utara",MALUKU UTARA,,Indonesia,82131193139.0,1.7239542,128.0145055,https://maps.google.com/?cid=0x0:0x8320af3bb5f150b2
mall,Toko bahan makanan,Pusat Grosir Tobelo,"Lorong Hitam, Gosoma, Kec. Tobelo, Kabupaten Halmahera Utara, Maluku Utara","Kabupaten Halmahera Utara, Maluku Utara",MALUKU UTARA,,Indonesia,,1.7228935,128.0095735,https://maps.google.com/?cid=0x0:0x3530d8171da25c2d
mall,Pusat Perbelanjaan,Komplek toko Graha Tobelo,"P266+V7C, Gosoma, Kec. Tobelo, Kabupaten Halmahera Utara, Maluku Utara","Kabupaten Halmahera Utara, Maluku Utara",MALUKU UTARA,,Indonesia,,1.712492,128.010969,https://maps.google.com/?cid=0x0:0x3422e92cb3c08e6c
mall,Pusat Perbelanjaan,50 CENT 02,"P2C6+QHW, Gosoma, Kec. Tobelo, Kabupaten Halmahera Utara, Maluku Utara","Kabupaten Halmahera Utara, Maluku Utara",MALUKU UTARA,,Indonesia,85399755799.0,1.7219926,128.0114571,https://maps.google.com/?cid=0x0:0x140a14460743889d
mall,Toko Pakaian Pria,toko pakaian,"P2F6+9XM, Rawajaya, Kec. Tobelo, Kabupaten Halmahera Utara, Maluku Utara","Kabupaten Halmahera Utara, Maluku Utara",MALUKU UTARA,,Indonesia,82188083459.0,1.7234523,128.0124172,https://maps.google.com/?cid=0x0:0xe13fcb661584aa5a
mall,Pusat Perbelanjaan,PT. AGUNG TOBELO Didtributor UNILEVER,"P284+JHW, Jl. KH. Ahmad Dahlan, Gosoma, Kec. Tobelo, Kabupaten Halmahera Utara, Maluku Utara","Kabupaten Halmahera Utara, Maluku Utara",MALUKU UTARA,,Indonesia,,1.7166215,128.0064607,https://maps.google.com/?cid=0x0:0xcdd1809f3c5efdae
mall,Pasar,Pasar Modern Blok. G 10,"P295+PVQ, Gosoma, Kec. Tobelo, Kabupaten Halmahera Utara, Maluku Utara","Kabupaten Halmahera Utara, Maluku Utara",MALUKU UTARA,,Indonesia,,1.7193411,128.0097306,https://maps.google.com/?cid=0x0:0xb4bc38fae6d04d97
mall,Toko,Jastip FAR Tobelo,"P287+GW3, Gamsungi, Kec. Tobelo, Kabupaten Halmahera Utara, Maluku Utara","Kabupaten Halmahera Utara, Maluku Utara",MALUKU UTARA,,Indonesia,81248621778.0,1.7169307,128.0142527,https://maps.google.com/?cid=0x0:0xa299af17e09e48b
mall,Toko Alat Listrik,Tk Samudera Teknik TOBELO,"P246+M7F, Mahia, Kec. Tobelo Tengah, Kabupaten Halmahera Utara, Maluku Utara","Kabupaten Halmahera Utara, Maluku Utara",MALUKU UTARA,,Indonesia,81244153337.0,1.706699,128.010684,https://maps.google.com/?cid=0x0:0x4bcef3b094219463
mall,Pusat Perbelanjaan,TOKO TIARA,"P2C6+H3J, Gosoma, Kec. Tobelo, Kabupaten Halmahera Utara, Maluku Utara","Kabupaten Halmahera Utara, Maluku Utara",MALUKU UTARA,,Indonesia,,1.721466,128.0101355,https://maps.google.com/?cid=0x0:0x4b02d6d0c752f2a
mall,mall,Kec. Tobelo Utara,"Kabupaten Halmahera Utara, Maluku Utara","Kabupaten Halmahera Utara, Maluku Utara",MALUKU UTARA,,Indonesia,,1.7634729,127.9819399,https://maps.google.com/?cid=0x0:0xd08db8115ea8b44b
mall,Pasar,PASAR MODERN TOBELO,"P2C5+3R6, Gosoma, Kec. Tobelo, Kabupaten Halmahera Utara, Maluku Utara","Kabupaten Halmahera Utara, Maluku Utara",MALUKU UTARA,,Indonesia,81343722728.0,1.7192823,128.0095353,https://maps.google.com/?cid=0x0:0x8db25466b20f4b99
mall,Pusat Perbelanjaan,Unit Tobelo,"P283+XXX, Gosoma, Kec. Tobelo, Kabupaten Halmahera Utara, Maluku Utara","Kabupaten Halmahera Utara, Maluku Utara",MALUKU UTARA,,Indonesia,81242364780.0,1.7174777,128.0049719,https://maps.google.com/?cid=0x0:0x372599feeac6b430
mall,Toko bahan makanan,Pusat Grosir Tobelo,"Lorong Hitam, Gosoma, Kec. Tobelo, Kabupaten Halmahera Utara, Maluku Utara","Kabupaten Halmahera Utara, Maluku Utara",MALUKU UTARA,,Indonesia,,1.7228935,128.0095735,https://maps.google.com/?cid=0x0:0x3530d8171da25c2d
mall,Kantor Pemerintahan Kota,Mall pelayanan satu pintu halut,"PXJV+F46, Mkcm, Kec. Tobelo, Kabupaten Halmahera Utara, Maluku Utara","Kabupaten Halmahera Utara, Maluku Utara",MALUKU UTARA,,Indonesia,82347336151.0,1.7311692,127.9927571,https://maps.google.com/?cid=0x0:0x132f7d83a162e76f
mall,Pusat Perbelanjaan,Pt. FIRMA AGUNG TOBELO X.100,"P284+RH6, Gosoma, Kec. Tobelo, Kabupaten Halmahera Utara, Maluku Utara","Kabupaten Halmahera Utara, Maluku Utara",MALUKU UTARA,,Indonesia,,1.7170413,128.0064005,https://maps.google.com/?cid=0x0:0xb59a9c2b85b43085
mall,Pusat Perbelanjaan,50 CENT,"P296+W37, Gosoma, Kec. Tobelo, Kabupaten Halmahera Utara, Maluku Utara","Kabupaten Halmahera Utara, Maluku Utara",MALUKU UTARA,,Indonesia,82190948800.0,1.7197874,128.0101688,https://maps.google.com/?cid=0x0:0xcdf0a9b5fc92f642
mall,Toko Pakaian Pria,toko pakaian,"P2F6+9XM, Rawajaya, Kec. Tobelo, Kabupaten Halmahera Utara, Maluku Utara","Kabupaten Halmahera Utara, Maluku Utara",MALUKU UTARA,,Indonesia,82188083459.0,1.7234523,128.0124172,https://maps.google.com/?cid=0x0:0xe13fcb661584aa5a
mall,Pusat Perbelanjaan,Komplek toko Graha Tobelo,"P266+V7C, Gosoma, Kec. Tobelo, Kabupaten Halmahera Utara, Maluku Utara","Kabupaten Halmahera Utara, Maluku Utara",MALUKU UTARA,,Indonesia,,1.712492,128.010969,https://maps.google.com/?cid=0x0:0x3422e92cb3c08e6c
mall,Pusat Perbelanjaan,50 CENT 02,"P2C6+QHW, Gosoma, Kec. Tobelo, Kabupaten Halmahera Utara, Maluku Utara","Kabupaten Halmahera Utara, Maluku Utara",MALUKU UTARA,,Indonesia,85399755799.0,1.7219926,128.0114571,https://maps.google.com/?cid=0x0:0x140a14460743889d
mall,Pusat Perbelanjaan,PT. AGUNG TOBELO Didtributor UNILEVER,"P284+JHW, Jl. KH. Ahmad Dahlan, Gosoma, Kec. Tobelo, Kabupaten Halmahera Utara, Maluku Utara","Kabupaten Halmahera Utara, Maluku Utara",MALUKU UTARA,,Indonesia,,1.7166215,128.0064607,https://maps.google.com/?cid=0x0:0xcdd1809f3c5efdae
mall,Pusat Perbelanjaan,TOKO TIARA,"P2C6+H3J, Gosoma, Kec. Tobelo, Kabupaten Halmahera Utara, Maluku Utara","Kabupaten Halmahera Utara, Maluku Utara",MALUKU UTARA,,Indonesia,,1.721466,128.0101355,https://maps.google.com/?cid=0x0:0x4b02d6d0c752f2a
mall,Pasar,Pasar Modern Blok. G 10,"P295+PVQ, Gosoma, Kec. Tobelo, Kabupaten Halmahera Utara, Maluku Utara","Kabupaten Halmahera Utara, Maluku Utara",MALUKU UTARA,,Indonesia,,1.7193411,128.0097306,https://maps.google.com/?cid=0x0:0xb4bc38fae6d04d97
mall,Toko,Jastip FAR Tobelo,"P287+GW3, Gamsungi, Kec. Tobelo, Kabupaten Halmahera Utara, Maluku Utara","Kabupaten Halmahera Utara, Maluku Utara",MALUKU UTARA,,Indonesia,81248621778.0,1.7169307,128.0142527,https://maps.google.com/?cid=0x0:0xa299af17e09e48b
supermarket,supermarket,Kec. Galela,"Kabupaten Halmahera Utara, Maluku Utara","Kabupaten Halmahera Utara, Maluku Utara",MALUKU UTARA,,Indonesia,,1.7991745,127.9013278,https://maps.google.com/?cid=0x0:0x6d037a5832cde2d7
supermarket,Toko Swalayan,Toko Maju Bersama,"RQFQ+8PW, Soatobaru, Kec. Galela Bar., Kabupaten Halmahera Utara, Maluku Utara 97761","Soatobaru, Kec. Galela Bar., Kabupaten Halmahera Utara",MALUKU UTARA,97761.0,Indonesia,82290364161.0,1.8232969,127.7893489,https://maps.google.com/?cid=0x0:0x690baf18abb4be41
supermarket,Toko Pakaian,As store,"jalan belakang, Barataku, Kec. Galela, Kabupaten Halmahera Utara, Maluku Utara","Kabupaten Halmahera Utara, Maluku Utara",MALUKU UTARA,,Indonesia,82211028127.0,1.8293781,127.8422688,https://maps.google.com/?cid=0x0:0xd5d70831de5e1b5e
supermarket,Toko Kesehatan dan Kecantikan,Official Store Reglow Halmahera Utara,"RRFR+FQV, Towara, Kec. Galela, Kabupaten Halmahera Utara, Maluku Utara 97761","Towara, Kec. Galela, Kabupaten Halmahera Utara",MALUKU UTARA,97761.0,Indonesia,82396703093.0,1.8236838,127.8419203,https://maps.google.com/?cid=0x0:0xe9117cfe60b0b5cb
supermarket,Toko bahan makanan,Galaxy Mart,"P2C6+MMM, Rawajaya, Kec. Tobelo, Kabupaten Halmahera Utara, Maluku Utara","Kabupaten Halmahera Utara, Maluku Utara",MALUKU UTARA,,Indonesia,81288889356.0,1.7217063,128.011669,https://maps.google.com/?cid=0x0:0x28ebc8db575348b5
supermarket,Toko bahan makanan,Tokoh Makka,"RRFR+RR9, Towara, Kec. Galela, Kabupaten Halmahera Utara, Maluku Utara","Kabupaten Halmahera Utara, Maluku Utara",MALUKU UTARA,,Indonesia,82187603402.0,1.8245432,127.8421085,https://maps.google.com/?cid=0x0:0xf22837f0d569e911
supermarket,Toko Herbal,Bisnis arminadaily,"Barataku, Kec. Galela, Kabupaten Halmahera Utara, Maluku Utara 97761","Kec. Galela, Kabupaten Halmahera Utara",MALUKU UTARA,97761.0,Indonesia,82290396867.0,1.8290023,127.8432925,https://maps.google.com/?cid=0x0:0xf162d73d831be694
supermarket,Toko Swalayan,Toko Mentari Jaya,"RQGR+3GF, Bar.,, Soatobaru, Kec. Galela Bar., Kabupaten Halmahera Utara, Maluku Utara","Kabupaten Halmahera Utara, Maluku Utara",MALUKU UTARA,,Indonesia,82195651011.0,1.8251762,127.7912907,https://maps.google.com/?cid=0x0:0x35ffd74ef0ca396f
supermarket,Toko sembako pemerintah,Toko Dua Putri,"RR9H+7WC, Seki, Kec. Galela Sel., Kabupaten Halmahera Utara, Maluku Utara","Kabupaten Halmahera Utara, Maluku Utara",MALUKU UTARA,,Indonesia,,1.8181968,127.8297606,https://maps.google.com/?cid=0x0:0xe520d38cab9584
supermarket,Pemasok energi,Supplier Udang Galela,"Desa, Soasio, Tobelo, Kabupaten Halmahera Utara, Maluku Utara 97706","Soasio, Tobelo, Kabupaten Halmahera Utara",MALUKU UTARA,97706.0,Indonesia,81340980700.0,1.8240821,127.8435921,https://maps.google.com/?cid=0x0:0x3eea177516d02b42
supermarket,Toko,Kios buton laode,"RR63+V48, Igobula, Kec. Galela Sel., Kabupaten Halmahera Utara, Maluku Utara","Kabupaten Halmahera Utara, Maluku Utara",MALUKU UTARA,,Indonesia,,1.8121685,127.8028333,https://maps.google.com/?cid=0x0:0x2cba075d323a7735
supermarket,Toko umum,Kios Satu Putri,"RRMR+CXP, Barataku, Kec. Galela, Kabupaten Halmahera Utara, Maluku Utara","Kabupaten Halmahera Utara, Maluku Utara",MALUKU UTARA,,Indonesia,85399915889.0,1.833579,127.8424498,https://maps.google.com/?cid=0x0:0x878ce665c47946a2
supermarket,Minimarket,Indomaret saokonora,"Igobula, Kec. Galela Sel., Kabupaten Halmahera Utara, Maluku Utara","Kabupaten Halmahera Utara, Maluku Utara",MALUKU UTARA,,Indonesia,,1.8113279,127.8064324,https://maps.google.com/?cid=0x0:0x800ce8c93e14a48c
supermarket,Toko Kesehatan dan Kecantikan,Red Koffiee Arminadaily,"samping SMA NEGERI 2, Towara, Kec. Galela, Kabupaten Halmahera Utara, Maluku Utara 97761","Towara, Kec. Galela, Kabupaten Halmahera Utara",MALUKU UTARA,97761.0,Indonesia,81342932681.0,1.8238067,127.8418693,https://maps.google.com/?cid=0x0:0x93d5377e9f925fbe
supermarket,supermarket,Kec. Galela Bar.,"Kabupaten Halmahera Utara, Maluku Utara","Kabupaten Halmahera Utara, Maluku Utara",MALUKU UTARA,,Indonesia,,1.8258564,127.7917991,https://maps.google.com/?cid=0x0:0x6883a71e285c2680
supermarket,Toko Swalayan,Toko Maju Bersama,"RQFQ+8PW, Soatobaru, Kec. Galela Bar., Kabupaten Halmahera Utara, Maluku Utara 97761","Soatobaru, Kec. Galela Bar., Kabupaten Halmahera Utara",MALUKU UTARA,97761.0,Indonesia,82290364161.0,1.8232969,127.7893489,https://maps.google.com/?cid=0x0:0x690baf18abb4be41
supermarket,Toko Swalayan,Toko Mentari Jaya,"RQGR+3GF, Bar.,, Soatobaru, Kec. Galela Bar., Kabupaten Halmahera Utara, Maluku Utara","Kabupaten Halmahera Utara, Maluku Utara",MALUKU UTARA,,Indonesia,82195651011.0,1.8251762,127.7912907,https://maps.google.com/?cid=0x0:0x35ffd74ef0ca396f
supermarket,Rumah Kaca,Rumah Rempah,"RR57+VHM, Togawa, Kec. Galela Sel., Kabupaten Halmahera Utara, Maluku Utara","Kabupaten Halmahera Utara, Maluku Utara",MALUKU UTARA,,Indonesia,81344558101.0,1.8096,127.813995,https://maps.google.com/?cid=0x0:0x2035270a005f6ae5
supermarket,Kios,Kios Ageha,"Depan Koramil Galela, Togawa Besi, Kec. Galela Sel., Kabupaten Halmahera Utara, Maluku Utara","Kabupaten Halmahera Utara, Maluku Utara",MALUKU UTARA,,Indonesia,82188250045.0,1.8102043,127.8212781,https://maps.google.com/?cid=0x0:0x7bc561592599d461
supermarket,Toko Bahan Bangunan,A. Adi gerbang,"RQ9X+G94, Ori, Kec. Galela Sel., Kabupaten Halmahera Utara, Maluku Utara","Kabupaten Halmahera Utara, Maluku Utara",MALUKU UTARA,,Indonesia,,1.8187613,127.7984445,https://maps.google.com/?cid=0x0:0x12b7cef1bd5e801b
supermarket,Minimarket,Indomaret saokonora,"Igobula, Kec. Galela Sel., Kabupaten Halmahera Utara, Maluku Utara","Kabupaten Halmahera Utara, Maluku Utara",MALUKU UTARA,,Indonesia,,1.8113279,127.8064324,https://maps.google.com/?cid=0x0:0x800ce8c93e14a48c
supermarket,Toko,Indomaret Dokulamo,"RQGR+6M9, Dokulamo, Kec. Galela Bar., Kabupaten Halmahera Utara, Maluku Utara","Kabupaten Halmahera Utara, Maluku Utara",MALUKU UTARA,,Indonesia,,1.825701,127.7918432,https://maps.google.com/?cid=0x0:0x9e4d68e46f3685ed
supermarket,Toko,Kios putri,"RRH2+J5M, Duma, Kec. Galela Bar., Kabupaten Halmahera Utara, Maluku Utara","Kabupaten Halmahera Utara, Maluku Utara",MALUKU UTARA,,Indonesia,,1.829856,127.8009376,https://maps.google.com/?cid=0x0:0xc7b1c0f6b83d4255
supermarket,Minimarket,Alfamidi Dokulamo,"RQGR+9MQ, Dokulamo, Kec. Galela Bar., Kabupaten Halmahera Utara, Maluku Utara","Kabupaten Halmahera Utara, Maluku Utara",MALUKU UTARA,,Indonesia,,1.8259614,127.7917361,https://maps.google.com/?cid=0x0:0x163a8609ee529b16
supermarket,Toko,Kios Tiga Putry,"Pune, Kec. Galela, Kabupaten Halmahera Utara, Maluku Utara","Kabupaten Halmahera Utara, Maluku Utara",MALUKU UTARA,,Indonesia,,1.8205774,127.8448922,https://maps.google.com/?cid=0x0:0x1c1f5d7ca03063d0
supermarket,Toko bahan makanan,Alfamidi Soakonora,"RR54+XWR, Soakonora, Kec. Galela Sel., Kabupaten Halmahera Utara, Maluku Utara","Kabupaten Halmahera Utara, Maluku Utara",MALUKU UTARA,,Indonesia,81290112259.0,1.8106594,127.8079137,https://maps.google.com/?cid=0x0:0x9719283902ce82b5
supermarket,Komplek perumahan,Perumahan BTN Desa Kira Matubu,"RQHW+XXC, Kira, Kec. Galela Bar., Kabupaten Halmahera Utara, Maluku Utara","Kabupaten Halmahera Utara, Maluku Utara",MALUKU UTARA,,Indonesia,,1.8299281,127.7973854,https://maps.google.com/?cid=0x0:0xacf657ac76e83bff
supermarket,Toko Perlengkapan Rumah,Toko Maulana,"RR82+5VP, Igobula, Kec. Galela Sel., Kabupaten Halmahera Utara, Maluku Utara","Kabupaten Halmahera Utara, Maluku Utara",MALUKU UTARA,,Indonesia,,1.8154625,127.8022031,https://maps.google.com/?cid=0x0:0xfc2e3030d05cafa7
supermarket,supermarket,Kec. Galela Sel.,"Kabupaten Halmahera Utara, Maluku Utara","Kabupaten Halmahera Utara, Maluku Utara",MALUKU UTARA,,Indonesia,,1.8095298,127.8098621,https://maps.google.com/?cid=0x0:0xd54700cacb22b110
supermarket,Toko Swalayan,Toko Maju Bersama,"RQFQ+8PW, Soatobaru, Kec. Galela Bar., Kabupaten Halmahera Utara, Maluku Utara 97761","Soatobaru, Kec. Galela Bar., Kabupaten Halmahera Utara",MALUKU UTARA,97761.0,Indonesia,82290364161.0,1.8232969,127.7893489,https://maps.google.com/?cid=0x0:0x690baf18abb4be41
supermarket,Toko Swalayan,Toko Mentari Jaya,"RQGR+3GF, Bar.,, Soatobaru, Kec. Galela Bar., Kabupaten Halmahera Utara, Maluku Utara","Kabupaten Halmahera Utara, Maluku Utara",MALUKU UTARA,,Indonesia,82195651011.0,1.8251762,127.7912907,https://maps.google.com/?cid=0x0:0x35ffd74ef0ca396f
supermarket,Rumah Kaca,Rumah Rempah,"RR57+VHM, Togawa, Kec. Galela Sel., Kabupaten Halmahera Utara, Maluku Utara","Kabupaten Halmahera Utara, Maluku Utara",MALUKU UTARA,,Indonesia,81344558101.0,1.8096,127.813995,https://maps.google.com/?cid=0x0:0x2035270a005f6ae5
supermarket,Minimarket,Indomaret saokonora,"Igobula, Kec. Galela Sel., Kabupaten Halmahera Utara, Maluku Utara","Kabupaten Halmahera Utara, Maluku Utara",MALUKU UTARA,,Indonesia,,1.8113279,127.8064324,https://maps.google.com/?cid=0x0:0x800ce8c93e14a48c
supermarket,Toko bahan makanan,Alfamidi Soakonora,"RR54+XWR, Soakonora, Kec. Galela Sel., Kabupaten Halmahera Utara, Maluku Utara","Kabupaten Halmahera Utara, Maluku Utara",MALUKU UTARA,,Indonesia,81290112259.0,1.8106594,127.8079137,https://maps.google.com/?cid=0x0:0x9719283902ce82b5
supermarket,Kios,Kios Ageha,"Depan Koramil Galela, Togawa Besi, Kec. Galela Sel., Kabupaten Halmahera Utara, Maluku Utara","Kabupaten Halmahera Utara, Maluku Utara",MALUKU UTARA,,Indonesia,82188250045.0,1.8102043,127.8212781,https://maps.google.com/?cid=0x0:0x7bc561592599d461
supermarket,Toko Bahan Bangunan,A. Adi gerbang,"RQ9X+G94, Ori, Kec. Galela Sel., Kabupaten Halmahera Utara, Maluku Utara","Kabupaten Halmahera Utara, Maluku Utara",MALUKU UTARA,,Indonesia,,1.8187613,127.7984445,https://maps.google.com/?cid=0x0:0x12b7cef1bd5e801b
supermarket,Toko sembako pemerintah,Toko Dua Putri,"RR9H+7WC, Seki, Kec. Galela Sel., Kabupaten Halmahera Utara, Maluku Utara","Kabupaten Halmahera Utara, Maluku Utara",MALUKU UTARA,,Indonesia,,1.8181968,127.8297606,https://maps.google.com/?cid=0x0:0xe520d38cab9584
supermarket,Toko Perlengkapan Rumah,Toko Maulana,"RR82+5VP, Igobula, Kec. Galela Sel., Kabupaten Halmahera Utara, Maluku Utara","Kabupaten Halmahera Utara, Maluku Utara",MALUKU UTARA,,Indonesia,,1.8154625,127.8022031,https://maps.google.com/?cid=0x0:0xfc2e3030d05cafa7
supermarket,Toko bahan makanan,Novalsyahri,"RR59+VCG, JL.Gamar Malamo, Togawa, Kec. Galela Sel., Kabupaten Halmahera Utara, Maluku Utara","Kabupaten Halmahera Utara, Maluku Utara",MALUKU UTARA,,Indonesia,81243391010.0,1.8096909,127.8185778,https://maps.google.com/?cid=0x0:0x698154dab0bacfaa
supermarket,Toko,Kios Tiga Putry,"Pune, Kec. Galela, Kabupaten Halmahera Utara, Maluku Utara","Kabupaten Halmahera Utara, Maluku Utara",MALUKU UTARA,,Indonesia,,1.8205774,127.8448922,https://maps.google.com/?cid=0x0:0x1c1f5d7ca03063d0
supermarket,Pusat Perbelanjaan,Kios Nurhaya,"RR54+JVV, Soakonora, Kec. Galela Sel., Kabupaten Halmahera Utara, Maluku Utara","Kabupaten Halmahera Utara, Maluku Utara",MALUKU UTARA,,Indonesia,81340446429.0,1.8091157,127.8071813,https://maps.google.com/?cid=0x0:0x254f971a61bbd198
supermarket,Toko bahan makanan,Galaxy Mart,"P2C6+MMM, Rawajaya, Kec. Tobelo, Kabupaten Halmahera Utara, Maluku Utara","Kabupaten Halmahera Utara, Maluku Utara",MALUKU UTARA,,Indonesia,81288889356.0,1.7217063,128.011669,https://maps.google.com/?cid=0x0:0x28ebc8db575348b5
supermarket,supermarket,Kec. Galela Utara,"Kabupaten Halmahera Utara, Maluku Utara","Kabupaten Halmahera Utara, Maluku Utara",MALUKU UTARA,,Indonesia,,2.0151873,127.9497063,https://maps.google.com/?cid=0x0:0x6378f017549179ee
supermarket,Toko Swalayan,Toko Maju Bersama,"RQFQ+8PW, Soatobaru, Kec. Galela Bar., Kabupaten Halmahera Utara, Maluku Utara 97761","Soatobaru, Kec. Galela Bar., Kabupaten Halmahera Utara",MALUKU UTARA,97761.0,Indonesia,82290364161.0,1.8232969,127.7893489,https://maps.google.com/?cid=0x0:0x690baf18abb4be41
supermarket,Toko Swalayan,Toko Mentari Jaya,"RQGR+3GF, Bar.,, Soatobaru, Kec. Galela Bar., Kabupaten Halmahera Utara, Maluku Utara","Kabupaten Halmahera Utara, Maluku Utara",MALUKU UTARA,,Indonesia,82195651011.0,1.8251762,127.7912907,https://maps.google.com/?cid=0x0:0x35ffd74ef0ca396f
supermarket,Toko Kesehatan dan Kecantikan,Official Store Reglow Halmahera Utara,"RRFR+FQV, Towara, Kec. Galela, Kabupaten Halmahera Utara, Maluku Utara 97761","Towara, Kec. Galela, Kabupaten Halmahera Utara",MALUKU UTARA,97761.0,Indonesia,82396703093.0,1.8236838,127.8419203,https://maps.google.com/?cid=0x0:0xe9117cfe60b0b5cb
supermarket,Toko,Kios Tiga Putry,"Pune, Kec. Galela, Kabupaten Halmahera Utara, Maluku Utara","Kabupaten Halmahera Utara, Maluku Utara",MALUKU UTARA,,Indonesia,,1.8205774,127.8448922,https://maps.google.com/?cid=0x0:0x1c1f5d7ca03063d0
supermarket,Toko sembako pemerintah,Kios Berlin,"2W5C+43F, Salimuli, Kec. Galela Utara, Kabupaten Halmahera Utara, Maluku Utara","Kabupaten Halmahera Utara, Maluku Utara",MALUKU UTARA,,Indonesia,,2.0078172,127.9201751,https://maps.google.com/?cid=0x0:0xb248beddcf1a3302
supermarket,Toko Pakaian,As store,"jalan belakang, Barataku, Kec. Galela, Kabupaten Halmahera Utara, Maluku Utara","Kabupaten Halmahera Utara, Maluku Utara",MALUKU UTARA,,Indonesia,82211028127.0,1.8293781,127.8422688,https://maps.google.com/?cid=0x0:0xd5d70831de5e1b5e
supermarket,Toko sembako pemerintah,Kios firli,"XWVX+6GG, Salimuli, Kec. Galela Utara, Kabupaten Halmahera Utara, Maluku Utara","Kabupaten Halmahera Utara, Maluku Utara",MALUKU UTARA,,Indonesia,,1.9930649,127.9488243,https://maps.google.com/?cid=0x0:0x71c04a70f6f20867
supermarket,supermarket,Depo Air Minum,"VRQ9+PQR, Limau, Kec. Galela Utara, Kabupaten Halmahera Utara, Maluku Utara","Kabupaten Halmahera Utara, Maluku Utara",MALUKU UTARA,,Indonesia,,1.8893636,127.8193872,https://maps.google.com/?cid=0x0:0x2fc7aacbfc2ddb06
supermarket,Toko bahan makanan,Tokoh Makka,"RRFR+RR9, Towara, Kec. Galela, Kabupaten Halmahera Utara, Maluku Utara","Kabupaten Halmahera Utara, Maluku Utara",MALUKU UTARA,,Indonesia,82187603402.0,1.8245432,127.8421085,https://maps.google.com/?cid=0x0:0xf22837f0d569e911
supermarket,Toko,Kios putri,"RRH2+J5M, Duma, Kec. Galela Bar., Kabupaten Halmahera Utara, Maluku Utara","Kabupaten Halmahera Utara, Maluku Utara",MALUKU UTARA,,Indonesia,,1.829856,127.8009376,https://maps.google.com/?cid=0x0:0xc7b1c0f6b83d4255
supermarket,Pusat Perbelanjaan,Kios J-Love,"RQXQ+7GH, Duma, Kec. Galela Bar., Kabupaten Halmahera Utara, Maluku Utara","Kabupaten Halmahera Utara, Maluku Utara",MALUKU UTARA,,Indonesia,82348154109.0,1.8481948,127.7888565,https://maps.google.com/?cid=0x0:0xf2f0e9080d452afe
supermarket,Toko Herbal,Bisnis arminadaily,"Barataku, Kec. Galela, Kabupaten Halmahera Utara, Maluku Utara 97761","Kec. Galela, Kabupaten Halmahera Utara",MALUKU UTARA,97761.0,Indonesia,82290396867.0,1.8290023,127.8432925,https://maps.google.com/?cid=0x0:0xf162d73d831be694
supermarket,Toko umum,Kios Satu Putri,"RRMR+CXP, Barataku, Kec. Galela, Kabupaten Halmahera Utara, Maluku Utara","Kabupaten Halmahera Utara, Maluku Utara",MALUKU UTARA,,Indonesia,85399915889.0,1.833579,127.8424498,https://maps.google.com/?cid=0x0:0x878ce665c47946a2
supermarket,supermarket,Kec. Kao,"Kabupaten Halmahera Utara, Maluku Utara","Kabupaten Halmahera Utara, Maluku Utara",MALUKU UTARA,,Indonesia,,1.1658407,127.9007494,https://maps.google.com/?cid=0x0:0xf94b0d160a93d5c4
supermarket,Minimarket,Alfamidi Kao,"5W82+93C, Kao, Kec. Kao, Kabupaten Halmahera Utara, Maluku Utara","Kabupaten Halmahera Utara, Maluku Utara",MALUKU UTARA,,Indonesia,,1.1656128,127.900006,https://maps.google.com/?cid=0x0:0xc5d8f9ec654d4678
supermarket,Toko Swalayan,Alfamidi kusu,"5WC2+M8V, Jati, Kec. Kao, Kabupaten Halmahera Utara, Maluku Utara","Kabupaten Halmahera Utara, Maluku Utara",MALUKU UTARA,,Indonesia,,1.1719619,127.9009285,https://maps.google.com/?cid=0x0:0x7447b7549e65ff1d
supermarket,Toko,RR KAO,"Kao, Kec. Kao, Kabupaten Halmahera Utara, Maluku Utara 97764","Kec. Kao, Kabupaten Halmahera Utara",MALUKU UTARA,97764.0,Indonesia,81219508100.0,1.1680813,127.9011738,https://maps.google.com/?cid=0x0:0xa6874d3520974b65
supermarket,Toko Perlengkapan Rumah,MASBENGCELL1,"Desa kao rt.02. Depan kantor balaidesa, Kao, Kec. Kao, Kabupaten Halmahera Utara, Maluku Utara","Kabupaten Halmahera Utara, Maluku Utara",MALUKU UTARA,,Indonesia,82133337377.0,1.1662697,127.9010988,https://maps.google.com/?cid=0x0:0xc949090f67a5aba9
supermarket,Toko bahan makanan,Depot oxxy arie,"7W97+QXM, Sumber Agung, Kec. Kao, Kabupaten Halmahera Utara, Maluku Utara","Kabupaten Halmahera Utara, Maluku Utara",MALUKU UTARA,,Indonesia,,1.2694651,127.9149233,https://maps.google.com/?cid=0x0:0x9ba04eb6d9000c89
supermarket,Minimarket,Indomaret trans Halmahera,"Jati, Kec. Kao, Kabupaten Halmahera Utara, Maluku Utara","Kabupaten Halmahera Utara, Maluku Utara",MALUKU UTARA,,Indonesia,,1.1713905,127.9005418,https://maps.google.com/?cid=0x0:0x969b5677cd257524
supermarket,Kios,masbengCELL2,"5W82+GCP, Kao, Kec. Kao, Kabupaten Halmahera Utara, Maluku Utara","Kabupaten Halmahera Utara, Maluku Utara",MALUKU UTARA,,Indonesia,82191118778.0,1.166348,127.9010848,https://maps.google.com/?cid=0x0:0xe8ac6cb659c6e05f
supermarket,Toko umum,Lapak ngemil antodewo,"5V8X+WH6, Jl. Trans Halmahera, Kao, Kec. Kao, Kabupaten Halmahera Utara, Maluku Utara","Kabupaten Halmahera Utara, Maluku Utara",MALUKU UTARA,,Indonesia,82315453196.0,1.1670631,127.8988904,https://maps.google.com/?cid=0x0:0x5a4a39bf6ba3f4d4
supermarket,Toko,Kios Alat Dapur (Bengbeng),"5V8X+M22, Kao, Kec. Kao, Kabupaten Halmahera Utara, Maluku Utara","Kabupaten Halmahera Utara, Maluku Utara",MALUKU UTARA,,Indonesia,82133337377.0,1.1666482,127.8975202,https://maps.google.com/?cid=0x0:0x4f4920770c7deda3
supermarket,Toko,Toko berkah,"7V8W+6HJ, Waringin Lamo, Kec. Kao, Kabupaten Halmahera Utara, Maluku Utara","Kabupaten Halmahera Utara, Maluku Utara",MALUKU UTARA,,Indonesia,,1.2668521,127.8966758,https://maps.google.com/?cid=0x0:0x174280e70d287079
supermarket,Toko,Kios sembako 2F,"Sumber Agung, Kec. Kao, Kabupaten Halmahera Utara, Maluku Utara 97764","Kec. Kao, Kabupaten Halmahera Utara",MALUKU UTARA,97764.0,Indonesia,,1.2636156,127.912302,https://maps.google.com/?cid=0x0:0x2757071128a71e68
supermarket,Toko bahan makanan,Kios Axel/setya,"5VP9+82V, Waringin Lelewi, Kec. Kao, Kabupaten Halmahera Utara, Maluku Utara","Kabupaten Halmahera Utara, Maluku Utara",MALUKU UTARA,,Indonesia,,1.1866767,127.8665617,https://maps.google.com/?cid=0x0:0xfe5a2c03512e6dfd
supermarket,Toko,KIOS PUTRA BONE 3 CHAND,"Soma, Kec. Malifut, Kabupaten Halmahera Utara, Maluku Utara 97766","Kec. Malifut, Kabupaten Halmahera Utara",MALUKU UTARA,97766.0,Indonesia,85330646782.0,1.1527891,127.8318404,https://maps.google.com/?cid=0x0:0x77f451c5b1712a74
supermarket,supermarket,Kec. Kao Bar.,"Kabupaten Halmahera Utara, Maluku Utara","Kabupaten Halmahera Utara, Maluku Utara",MALUKU UTARA,,Indonesia,,1.3826535,127.7854236,https://maps.google.com/?cid=0x0:0xf7afe1ef0f20eafa
supermarket,Toko bahan makanan,Toko Bintang Abadi,"8X4H+WCW, Unnamed Road, Daru, Kec. Kao Utara, Kabupaten Halmahera Utara, Maluku Utara","Kabupaten Halmahera Utara, Maluku Utara",MALUKU UTARA,,Indonesia,82290829667.0,1.3073652,127.9785629,https://maps.google.com/?cid=0x0:0xa356140ab323622
supermarket,supermarket,Kios,"9QXC+6JQ, Makarti, Kec. Kao Bar., Kabupaten Halmahera Utara, Maluku Utara","Kabupaten Halmahera Utara, Maluku Utara",MALUKU UTARA,,Indonesia,,1.3980827,127.771594,https://maps.google.com/?cid=0x0:0x677f73409ec59ad9
supermarket,Toko,Toko dua putra,"Margomulyo, Kec. Kao Bar., Kabupaten Halmahera Utara, Maluku Utara 97764","Kec. Kao Bar., Kabupaten Halmahera Utara",MALUKU UTARA,97764.0,Indonesia,82291160445.0,1.3558275,127.792393,https://maps.google.com/?cid=0x0:0x9ab33acc10ae5f28
supermarket,Toko,Toko Bella,"9Q2W+9MH, Margo Mulyo, Kec. Kao Bar., Kabupaten Halmahera Utara, Maluku Utara","Kabupaten Halmahera Utara, Maluku Utara",MALUKU UTARA,,Indonesia,,1.3509325,127.7967277,https://maps.google.com/?cid=0x0:0x542db57a0da33aa4
supermarket,Toko,RR KAO,"Kao, Kec. Kao, Kabupaten Halmahera Utara, Maluku Utara 97764","Kec. Kao, Kabupaten Halmahera Utara",MALUKU UTARA,97764.0,Indonesia,81219508100.0,1.1680813,127.9011738,https://maps.google.com/?cid=0x0:0xa6874d3520974b65
supermarket,Pusat Perbelanjaan,Rezeki lancar,"Makarti, Kec. Kao Bar., Kabupaten Halmahera Utara, Maluku Utara 97764","Kec. Kao Bar., Kabupaten Halmahera Utara",MALUKU UTARA,97764.0,Indonesia,,1.3929405,127.8040922,https://maps.google.com/?cid=0x0:0x5e2a9a9627f59e6c
supermarket,supermarket,Sumber rejeki 1,"Jl.kapita tamon, Makarti, Kec. Kao Bar., Kabupaten Halmahera Utara, Maluku Utara 97764","Makarti, Kec. Kao Bar., Kabupaten Halmahera Utara",MALUKU UTARA,97764.0,Indonesia,81289060580.0,1.3928125,127.8059375,https://maps.google.com/?cid=0x0:0xda515ca1e766868d
supermarket,Toko bahan makanan,Depot oxxy arie,"7W97+QXM, Sumber Agung, Kec. Kao, Kabupaten Halmahera Utara, Maluku Utara","Kabupaten Halmahera Utara, Maluku Utara",MALUKU UTARA,,Indonesia,,1.2694651,127.9149233,https://maps.google.com/?cid=0x0:0x9ba04eb6d9000c89
supermarket,Minimarket,Alfamidi Kao,"5W82+93C, Kao, Kec. Kao, Kabupaten Halmahera Utara, Maluku Utara","Kabupaten Halmahera Utara, Maluku Utara",MALUKU UTARA,,Indonesia,,1.1656128,127.900006,https://maps.google.com/?cid=0x0:0xc5d8f9ec654d4678
supermarket,Toko Swalayan,Kios Kasih Abadi,"8XMG+VM9, Boulamo, Kec. Kao Utara, Kabupaten Halmahera Utara, Maluku Utara","Kabupaten Halmahera Utara, Maluku Utara",MALUKU UTARA,,Indonesia,,1.3346518,127.9767467,https://maps.google.com/?cid=0x0:0xe806eb0f6a2117c2
supermarket,Pusat Perbelanjaan,Kios Ardo jaya,"9QHM+4M7, Beringin Agung, Kec. Kao Bar., Kabupaten Halmahera Utara, Maluku Utara","Kabupaten Halmahera Utara, Maluku Utara",MALUKU UTARA,,Indonesia,,1.3777994,127.7841869,https://maps.google.com/?cid=0x0:0x302e2650cd480c79
supermarket,Pusat Perbelanjaan,Siti Jumini,"9RV4+4J5, Makarti, Kec. Kao Bar., Kabupaten Halmahera Utara, Maluku Utara","Kabupaten Halmahera Utara, Maluku Utara",MALUKU UTARA,,Indonesia,85145957999.0,1.3927559,127.8066154,https://maps.google.com/?cid=0x0:0x6584272d6512ea98
supermarket,Toko,Toko serba ada,"9RV3+3VH, Makarti, Kec. Kao Bar., Kabupaten Halmahera Utara, Maluku Utara","Kabupaten Halmahera Utara, Maluku Utara",MALUKU UTARA,,Indonesia,,1.39268,127.8047219,https://maps.google.com/?cid=0x0:0x9fdf32faae8185f0
supermarket,supermarket,Kec. Kao Utara,"Kabupaten Halmahera Utara, Maluku Utara","Kabupaten Halmahera Utara, Maluku Utara",MALUKU UTARA,,Indonesia,,1.3982481,128.0027515,https://maps.google.com/?cid=0x0:0x5d873bc773b3c48e
supermarket,Toko bahan makanan,Toko Bintang Abadi,"8X4H+WCW, Unnamed Road, Daru, Kec. Kao Utara, Kabupaten Halmahera Utara, Maluku Utara","Kabupaten Halmahera Utara, Maluku Utara",MALUKU UTARA,,Indonesia,82290829667.0,1.3073652,127.9785629,https://maps.google.com/?cid=0x0:0xa356140ab323622
supermarket,Pasar tradisional,Alfamidi Daru,"8X5H+6Q8, Daru, Kec. Kao Utara, Kabupaten Halmahera Utara, Maluku Utara","Kabupaten Halmahera Utara, Maluku Utara",MALUKU UTARA,,Indonesia,,1.3080465,127.9794595,https://maps.google.com/?cid=0x0:0x3307a13dde4e56cc
supermarket,Toko Swalayan,TOKO CMB,"8X8R+M5Q, Unnamed Road, Daru, Kec. Kao Utara, Kabupaten Halmahera Utara, Maluku Utara","Kabupaten Halmahera Utara, Maluku Utara",MALUKU UTARA,,Indonesia,82299636986.0,1.3167139,127.9904883,https://maps.google.com/?cid=0x0:0xfc479149515e6791
supermarket,Kios,Toko Selly,"8X6P+6JF, Daru, Kec. Kao Utara, Kabupaten Halmahera Utara, Maluku Utara","Kabupaten Halmahera Utara, Maluku Utara",MALUKU UTARA,,Indonesia,,1.3105733,127.9865444,https://maps.google.com/?cid=0x0:0x4d8edb27ec424c83
supermarket,Minimarket,Alfamidi Kao,"5W82+93C, Kao, Kec. Kao, Kabupaten Halmahera Utara, Maluku Utara","Kabupaten Halmahera Utara, Maluku Utara",MALUKU UTARA,,Indonesia,,1.1656128,127.900006,https://maps.google.com/?cid=0x0:0xc5d8f9ec654d4678
supermarket,Toko bahan makanan,Depot oxxy arie,"7W97+QXM, Sumber Agung, Kec. Kao, Kabupaten Halmahera Utara, Maluku Utara","Kabupaten Halmahera Utara, Maluku Utara",MALUKU UTARA,,Indonesia,,1.2694651,127.9149233,https://maps.google.com/?cid=0x0:0x9ba04eb6d9000c89
supermarket,Toko Swalayan,Kios Kasih Abadi,"8XMG+VM9, Boulamo, Kec. Kao Utara, Kabupaten Halmahera Utara, Maluku Utara","Kabupaten Halmahera Utara, Maluku Utara",MALUKU UTARA,,Indonesia,,1.3346518,127.9767467,https://maps.google.com/?cid=0x0:0xe806eb0f6a2117c2
supermarket,Toko,Toko berkah,"7V8W+6HJ, Waringin Lamo, Kec. Kao, Kabupaten Halmahera Utara, Maluku Utara","Kabupaten Halmahera Utara, Maluku Utara",MALUKU UTARA,,Indonesia,,1.2668521,127.8966758,https://maps.google.com/?cid=0x0:0x174280e70d287079
supermarket,Toko,Usaha mandiri,"9XVP+696, Pediwang, Kec. Kao Utara, Kabupaten Halmahera Utara, Maluku Utara","Kabupaten Halmahera Utara, Maluku Utara",MALUKU UTARA,,Indonesia,,1.393049,127.985901,https://maps.google.com/?cid=0x0:0x6bc5b97a5eaed0ab
supermarket,Toko Swalayan,HOKY Supermarket,"Gosoma, Kec. Tobelo, Kabupaten Halmahera Utara, Maluku Utara","Kabupaten Halmahera Utara, Maluku Utara",MALUKU UTARA,,Indonesia,82140889833.0,1.7213547,128.010781,https://maps.google.com/?cid=0x0:0xbce2eabee9bd6692
supermarket,Toko,Koko PE ruma Deng PE toko,"8X3F+JXQ, Daru, Kec. Kao Utara, Kabupaten Halmahera Utara, Maluku Utara","Kabupaten Halmahera Utara, Maluku Utara",MALUKU UTARA,,Indonesia,,1.3043064,127.9749618,https://maps.google.com/?cid=0x0:0x9b053ed540f7ca25
supermarket,Toko,Kios sembako 2F,"Sumber Agung, Kec. Kao, Kabupaten Halmahera Utara, Maluku Utara 97764","Kec. Kao, Kabupaten Halmahera Utara",MALUKU UTARA,97764.0,Indonesia,,1.2636156,127.912302,https://maps.google.com/?cid=0x0:0x2757071128a71e68
supermarket,Toko bahan makanan,UD. Kevin,"9XRV+XRR, Bori, Kec. Kao Utara, Kabupaten Halmahera Utara, Maluku Utara","Kabupaten Halmahera Utara, Maluku Utara",MALUKU UTARA,,Indonesia,81244235528.0,1.3924789,127.9945073,https://maps.google.com/?cid=0x0:0x2e915dd73f3d6067
supermarket,supermarket,Kec. Kao Tlk.,"Kabupaten Halmahera Utara, Maluku Utara","Kabupaten Halmahera Utara, Maluku Utara",MALUKU UTARA,,Indonesia,,1.0572865,127.697129,https://maps.google.com/?cid=0x0:0xb7e89a460242f82
supermarket,Kantor Perusahaan,Desa bobaneigo,"VM89+W9V, Unnamed Road, Bobaneigo, Kec. Kao Tlk., Kabupaten Halmahera Utara, Maluku Utara","Kabupaten Halmahera Utara, Maluku Utara",MALUKU UTARA,,Indonesia,,0.8673676,127.6684302,https://maps.google.com/?cid=0x0:0x54c54fc3ffbbcc64
supermarket,Kios,Toko Hj Aisah,"VM62+W74, Jl. Trans Halmahera, Bobaneigo, Kec. Kao Tlk., Kabupaten Halmahera Utara, Maluku Utara","Kabupaten Halmahera Utara, Maluku Utara",MALUKU UTARA,,Indonesia,,0.8622574,127.6507014,https://maps.google.com/?cid=0x0:0xc9adc8bfd699545e
supermarket,Toko bahan makanan,Tiga Putri Cell,"VM86+M29, Jl. Trans Halmahera, Bobaneigo, Kec. Kao Tlk., Kabupaten Halmahera Utara, Maluku Utara","Kabupaten Halmahera Utara, Maluku Utara",MALUKU UTARA,,Indonesia,85299950345.0,0.8666742,127.6601203,https://maps.google.com/?cid=0x0:0x40d2477edeee9ad3
supermarket,Pusat Perbelanjaan,Kios Mafut,"VM79+W3H, Bobaneigo, Kec. Kao Tlk., Kabupaten Halmahera Utara, Maluku Utara","Kabupaten Halmahera Utara, Maluku Utara",MALUKU UTARA,,Indonesia,,0.8648015,127.6677347,https://maps.google.com/?cid=0x0:0xd4705bc7532378a
supermarket,Pusat Perbelanjaan,Kios Risno,"VM89+J2C, Bobaneigo, Kec. Kao Tlk., Kabupaten Halmahera Utara, Maluku Utara","Kabupaten Halmahera Utara, Maluku Utara",MALUKU UTARA,,Indonesia,,0.8665632,127.6675031,https://maps.google.com/?cid=0x0:0xc9d4a34609f8e67c
supermarket,Toko,TOKO M. ASRUL,"Jl trans Halmahera No.RT001, Makaeling, Kec. Kao Tlk., Kabupaten Halmahera Utara, Maluku Utara","Kabupaten Halmahera Utara, Maluku Utara",MALUKU UTARA,,Indonesia,,1.0701088,127.6652688,https://maps.google.com/?cid=0x0:0xc3713fb545f2f74f
supermarket,Kios,Kios anisa dodinga,"VM62+Q54, Bobaneigo, Kec. Kao Tlk., Kabupaten Halmahera Utara, Maluku Utara","Kabupaten Halmahera Utara, Maluku Utara",MALUKU UTARA,,Indonesia,,0.861886,127.6504616,https://maps.google.com/?cid=0x0:0xdbee98b3c9f37de6
supermarket,Toko,Toko.Masrul,"3M3V+GPR, Jl. Raya Trans Halmahera, Makaeling, Kec. Kao Tlk., Kabupaten Halmahera Utara, Maluku Utara","Kabupaten Halmahera Utara, Maluku Utara",MALUKU UTARA,,Indonesia,,1.055155,127.694851,https://maps.google.com/?cid=0x0:0xb6bdccc2e5399e53
supermarket,Toko,TOKO OBAT ASYIFA,"Bobaneigo, Kec. Kao Tlk., Kabupaten Halmahera Barat, Maluku Utara 97751","Kec. Kao Tlk., Kabupaten Halmahera Barat",MALUKU UTARA,97751.0,Indonesia,85289698466.0,0.8687872,127.6540186,https://maps.google.com/?cid=0x0:0x750b6958bc42d5e0
supermarket,Kios,KIOS SAM MUTIARA,"VJPV+3C, Tetewang, Kec. Kao Tlk., Kabupaten Halmahera Utara, Maluku Utara","Kabupaten Halmahera Utara, Maluku Utara",MALUKU UTARA,,Indonesia,,0.8851454,127.6435161,https://maps.google.com/?cid=0x0:0x4427282539d4f21c
supermarket,Kios,Kios Pertiwi (desa makaeling),"3M3V+GPR, Jl. Raya Trans Halmahera, Makaeling, Kec. Kao Tlk., Kabupaten Halmahera Utara, Maluku Utara","Kabupaten Halmahera Utara, Maluku Utara",MALUKU UTARA,,Indonesia,,1.0534074,127.6940958,https://maps.google.com/?cid=0x0:0xcc5784c1e3cde546
supermarket,supermarket,Pisang molen,"2J3V+JC, Akelamo Kao, Kec. Kao Tlk., Kabupaten Halmahera Utara, Maluku Utara","Kabupaten Halmahera Utara, Maluku Utara",MALUKU UTARA,,Indonesia,,1.0040905,127.6435787,https://maps.google.com/?cid=0x0:0xfbc6091f40bb0a85
supermarket,Kios,Nafisa yono,"VM89+F43, Bobaneigo, Kec. Kao Tlk., Kabupaten Halmahera Utara, Maluku Utara","Kabupaten Halmahera Utara, Maluku Utara",MALUKU UTARA,,Indonesia,82250164249.0,0.8661461,127.667786,https://maps.google.com/?cid=0x0:0x2db6ef380495d2f5
supermarket,Kantor Perusahaan,Desa bobaneigo,"VM89+W9V, Unnamed Road, Bobaneigo, Kec. Kao Tlk., Kabupaten Halmahera Utara, Maluku Utara","Kabupaten Halmahera Utara, Maluku Utara",MALUKU UTARA,,Indonesia,,0.8673676,127.6684302,https://maps.google.com/?cid=0x0:0x54c54fc3ffbbcc64
supermarket,Toko bahan makanan,Tiga Putri Cell,"VM86+M29, Jl. Trans Halmahera, Bobaneigo, Kec. Kao Tlk., Kabupaten Halmahera Utara, Maluku Utara","Kabupaten Halmahera Utara, Maluku Utara",MALUKU UTARA,,Indonesia,85299950345.0,0.8666742,127.6601203,https://maps.google.com/?cid=0x0:0x40d2477edeee9ad3
supermarket,Pusat Perbelanjaan,Kios Mafut,"VM79+W3H, Bobaneigo, Kec. Kao Tlk., Kabupaten Halmahera Utara, Maluku Utara","Kabupaten Halmahera Utara, Maluku Utara",MALUKU UTARA,,Indonesia,,0.8648015,127.6677347,https://maps.google.com/?cid=0x0:0xd4705bc7532378a
supermarket,supermarket,Kec. Kao Tlk.,"Kabupaten Halmahera Utara, Maluku Utara","Kabupaten Halmahera Utara, Maluku Utara",MALUKU UTARA,,Indonesia,,1.0572865,127.697129,https://maps.google.com/?cid=0x0:0xb7e89a460242f82
supermarket,Toko,RR KAO,"Kao, Kec. Kao, Kabupaten Halmahera Utara, Maluku Utara 97764","Kec. Kao, Kabupaten Halmahera Utara",MALUKU UTARA,97764.0,Indonesia,81219508100.0,1.1680813,127.9011738,https://maps.google.com/?cid=0x0:0xa6874d3520974b65
supermarket,Minimarket,Alfamidi Kao,"5W82+93C, Kao, Kec. Kao, Kabupaten Halmahera Utara, Maluku Utara","Kabupaten Halmahera Utara, Maluku Utara",MALUKU UTARA,,Indonesia,,1.1656128,127.900006,https://maps.google.com/?cid=0x0:0xc5d8f9ec654d4678
supermarket,Kios,Toko Hj Aisah,"VM62+W74, Jl. Trans Halmahera, Bobaneigo, Kec. Kao Tlk., Kabupaten Halmahera Utara, Maluku Utara","Kabupaten Halmahera Utara, Maluku Utara",MALUKU UTARA,,Indonesia,,0.8622574,127.6507014,https://maps.google.com/?cid=0x0:0xc9adc8bfd699545e
supermarket,Pusat Perbelanjaan,Kios Risno,"VM89+J2C, Bobaneigo, Kec. Kao Tlk., Kabupaten Halmahera Utara, Maluku Utara","Kabupaten Halmahera Utara, Maluku Utara",MALUKU UTARA,,Indonesia,,0.8665632,127.6675031,https://maps.google.com/?cid=0x0:0xc9d4a34609f8e67c
supermarket,Kios,Kios anisa dodinga,"VM62+Q54, Bobaneigo, Kec. Kao Tlk., Kabupaten Halmahera Utara, Maluku Utara","Kabupaten Halmahera Utara, Maluku Utara",MALUKU UTARA,,Indonesia,,0.861886,127.6504616,https://maps.google.com/?cid=0x0:0xdbee98b3c9f37de6
supermarket,Toko,TOKO M. ASRUL,"Jl trans Halmahera No.RT001, Makaeling, Kec. Kao Tlk., Kabupaten Halmahera Utara, Maluku Utara","Kabupaten Halmahera Utara, Maluku Utara",MALUKU UTARA,,Indonesia,,1.0701088,127.6652688,https://maps.google.com/?cid=0x0:0xc3713fb545f2f74f
supermarket,Toko,Toko.Masrul,"3M3V+GPR, Jl. Raya Trans Halmahera, Makaeling, Kec. Kao Tlk., Kabupaten Halmahera Utara, Maluku Utara","Kabupaten Halmahera Utara, Maluku Utara",MALUKU UTARA,,Indonesia,,1.055155,127.694851,https://maps.google.com/?cid=0x0:0xb6bdccc2e5399e53
supermarket,Toko,TOKO OBAT ASYIFA,"Bobaneigo, Kec. Kao Tlk., Kabupaten Halmahera Barat, Maluku Utara 97751","Kec. Kao Tlk., Kabupaten Halmahera Barat",MALUKU UTARA,97751.0,Indonesia,85289698466.0,0.8687872,127.6540186,https://maps.google.com/?cid=0x0:0x750b6958bc42d5e0
supermarket,Toko Swalayan,Q-ash Rasti Utama,"Bobaneigo, Kec. Kao Tlk., Kabupaten Halmahera Utara, Maluku Utara 97764","Kec. Kao Tlk., Kabupaten Halmahera Utara",MALUKU UTARA,97764.0,Indonesia,81356848442.0,0.86686,127.6616508,https://maps.google.com/?cid=0x0:0xf01472696ebe3c2
supermarket,Kios,KIOS SAM MUTIARA,"VJPV+3C, Tetewang, Kec. Kao Tlk., Kabupaten Halmahera Utara, Maluku Utara","Kabupaten Halmahera Utara, Maluku Utara",MALUKU UTARA,,Indonesia,,0.8851454,127.6435161,https://maps.google.com/?cid=0x0:0x4427282539d4f21c
supermarket,supermarket,Loloda Kepulauan,"Kabupaten Halmahera Utara, Maluku Utara","Kabupaten Halmahera Utara, Maluku Utara",MALUKU UTARA,,Indonesia,,2.2509061,127.7981498,https://maps.google.com/?cid=0x0:0x7f27e9dea84ef656
supermarket,supermarket,Jul,"5Q99+86C, Fitako, Loloda Kepulauan, Kabupaten Halmahera Utara, Maluku Utara","Kabupaten Halmahera Utara, Maluku Utara",MALUKU UTARA,,Indonesia,,2.1691175,127.7678388,https://maps.google.com/?cid=0x0:0x6bda5025d26192fb
supermarket,Pusat Spiritis,TOKO DORUME,"3RRX+PW3, Dorume, Kec. Loloda Utara, Kabupaten Halmahera Utara, Maluku Utara","Kabupaten Halmahera Utara, Maluku Utara",MALUKU UTARA,,Indonesia,,2.0917679,127.8498076,https://maps.google.com/?cid=0x0:0x528604642525f73d
supermarket,supermarket,kios nanda,"4Q5J+363, Tobo Tobo, Loloda Kepulauan, Kabupaten Halmahera Utara, Maluku Utara","Kabupaten Halmahera Utara, Maluku Utara",MALUKU UTARA,,Indonesia,,2.1076342,127.7808328,https://maps.google.com/?cid=0x0:0xf98416e1729d4a57
supermarket,supermarket,kios Uni,"4Q5J+828, Tobo Tobo, Loloda Kepulauan, Kabupaten Halmahera Utara, Maluku Utara","Kabupaten Halmahera Utara, Maluku Utara",MALUKU UTARA,,Indonesia,,2.1082879,127.7800586,https://maps.google.com/?cid=0x0:0x6d2fee74f750446b
supermarket,supermarket,Toko Siompu,"4Q5J+363, Tobo Tobo, Loloda Kepulauan, Kabupaten Halmahera Utara, Maluku Utara","Kabupaten Halmahera Utara, Maluku Utara",MALUKU UTARA,,Indonesia,,2.1068954,127.7803721,https://maps.google.com/?cid=0x0:0x4cd85933baa5092d
supermarket,Toko bahan makanan,Toko ABADI SEJAHTERA,"6X46+GCJ, Unnamed Road, Posi Posi, Kec. Loloda Utara, Kabupaten Halmahera Utara, Maluku Utara","Kabupaten Halmahera Utara, Maluku Utara",MALUKU UTARA,,Indonesia,8114350088.0,2.2063261,127.9610272,https://maps.google.com/?cid=0x0:0x87c3d4d553f36ded
supermarket,supermarket,Miracle Mart,"3RVX+PG5, Dorume, Kec. Loloda Utara, Kabupaten Halmahera Utara, Maluku Utara","Kabupaten Halmahera Utara, Maluku Utara",MALUKU UTARA,,Indonesia,,2.0942569,127.8488532,https://maps.google.com/?cid=0x0:0x68d42418d3e64abe
supermarket,supermarket,Kios Indri,"3RVW+5RJ, Dorume, Kec. Loloda Utara, Kabupaten Halmahera Utara, Maluku Utara","Kabupaten Halmahera Utara, Maluku Utara",MALUKU UTARA,,Indonesia,,2.0930129,127.8468392,https://maps.google.com/?cid=0x0:0x4db5f23f33deee45
supermarket,supermarket,MITITHA MART,"3RVX+5JH, Bagian utara Lap kukunyinga, Dorume, Kec. Loloda Utara, Kabupaten Halmahera Utara, Maluku Utara","Kabupaten Halmahera Utara, Maluku Utara",MALUKU UTARA,,Indonesia,,2.0929254,127.8491154,https://maps.google.com/?cid=0x0:0x6540e3c432d96c74
supermarket,supermarket,kios Arga,"4V9J+94X, Kailupa, Kec. Loloda Utara, Kabupaten Halmahera Utara, Maluku Utara","Kabupaten Halmahera Utara, Maluku Utara",MALUKU UTARA,,Indonesia,,2.1184773,127.8803699,https://maps.google.com/?cid=0x0:0xbaaee9b5ab76e5b8
supermarket,supermarket,mini market dan hotspot,"desa, Buku Bualawa, Kec. Jailolo, Kabupaten Halmahera Barat, Maluku Utara","Kabupaten Halmahera Barat, Maluku Utara",MALUKU UTARA,,Indonesia,,0.977232,127.5096813,https://maps.google.com/?cid=0x0:0x7873dd78f3642232
supermarket,supermarket,Kios Sembako Nagara,"3RVX+297, Dorume, Kec. Loloda Utara, Kabupaten Halmahera Utara, Maluku Utara","Kabupaten Halmahera Utara, Maluku Utara",MALUKU UTARA,,Indonesia,,2.0925629,127.8482871,https://maps.google.com/?cid=0x0:0xadb33e031e5c347b
supermarket,supermarket,Kios Ekel,"3RVX+HGX, Dorume, Kec. Loloda Utara, Kabupaten Halmahera Utara, Maluku Utara","Kabupaten Halmahera Utara, Maluku Utara",MALUKU UTARA,,Indonesia,,2.0939882,127.8488724,https://maps.google.com/?cid=0x0:0xa831bbdefe12e159
supermarket,supermarket,Kec. Loloda Utara,"Kabupaten Halmahera Utara, Maluku Utara","Kabupaten Halmahera Utara, Maluku Utara",MALUKU UTARA,,Indonesia,,2.0927761,127.8484263,https://maps.google.com/?cid=0x0:0xb975e42fee13365a
supermarket,Toko Swalayan,UD Abadi Sejahtera,"5XX6+X8H, Unnamed Road, Posi Posi, Kec. Loloda Utara, Kabupaten Halmahera Utara, Maluku Utara","Kabupaten Halmahera Utara, Maluku Utara",MALUKU UTARA,,Indonesia,8114314456.0,2.1999294,127.9608631,https://maps.google.com/?cid=0x0:0xb6ef3e74812bbce9
supermarket,Toko bahan makanan,Toko ABADI SEJAHTERA,"6X46+GCJ, Unnamed Road, Posi Posi, Kec. Loloda Utara, Kabupaten Halmahera Utara, Maluku Utara","Kabupaten Halmahera Utara, Maluku Utara",MALUKU UTARA,,Indonesia,8114350088.0,2.2063261,127.9610272,https://maps.google.com/?cid=0x0:0x87c3d4d553f36ded
supermarket,Toko,Beli Kopra,"52WX+5J6, Igo, Kec. Loloda Utara, Kabupaten Halmahera Utara, Maluku Utara","Kabupaten Halmahera Utara, Maluku Utara",MALUKU UTARA,,Indonesia,,2.1954172,128.0490022,https://maps.google.com/?cid=0x0:0x62016c5fad0a52a5
supermarket,Kios,KIOS OM YAN,"2RW4+C9R, Dotia, Kec. Loloda Utara, Kabupaten Halmahera Utara, Maluku Utara","Kabupaten Halmahera Utara, Maluku Utara",MALUKU UTARA,,Indonesia,,2.046109,127.8058801,https://maps.google.com/?cid=0x0:0xe045f3daa0692cf8
supermarket,Toko umum,Tok,"5XMH+HHF, Supu, Kec. Loloda Utara, Kabupaten Halmahera Utara, Maluku Utara","Kabupaten Halmahera Utara, Maluku Utara",MALUKU UTARA,,Indonesia,,2.1839463,127.9789319,https://maps.google.com/?cid=0x0:0x471f8bab658569
supermarket,Toko,Desa Igo,"52VH+WG2, Igo, Kec. Loloda Utara, Kabupaten Halmahera Utara, Maluku Utara","Kabupaten Halmahera Utara, Maluku Utara",MALUKU UTARA,,Indonesia,,2.1947599,128.0287541,https://maps.google.com/?cid=0x0:0xb93bf84c20b58388
supermarket,Pusat Spiritis,TOKO DORUME,"3RRX+PW3, Dorume, Kec. Loloda Utara, Kabupaten Halmahera Utara, Maluku Utara","Kabupaten Halmahera Utara, Maluku Utara",MALUKU UTARA,,Indonesia,,2.0917679,127.8498076,https://maps.google.com/?cid=0x0:0x528604642525f73d
supermarket,Toko,Kios ulolo,"XP3P+CF5, Jangailulu, Kec. Loloda, Kabupaten Halmahera Barat, Maluku Utara","Kabupaten Halmahera Barat, Maluku Utara",MALUKU UTARA,,Indonesia,,1.9535173,127.736245,https://maps.google.com/?cid=0x0:0x4744b92cfdf65fb6
supermarket,supermarket,Beli Kopra,"52VH+WG2, Igo, Kec. Loloda Utara, Kabupaten Halmahera Utara, Maluku Utara","Kabupaten Halmahera Utara, Maluku Utara",MALUKU UTARA,,Indonesia,,2.1947599,128.0287541,https://maps.google.com/?cid=0x0:0x4bf282f8be86620
supermarket,Kios,Toko 3 putra Brilink,"5XMH+GC5, Supu, Kec. Loloda Utara, Kabupaten Halmahera Utara, Maluku Utara","Kabupaten Halmahera Utara, Maluku Utara",MALUKU UTARA,,Indonesia,,2.1837944,127.9786395,https://maps.google.com/?cid=0x0:0x5037b28316b566f2
supermarket,Pasar,PASAR RAKYAT NGAJAM,"3V99+XW7, Ngajam, Kec. Loloda Utara, Kabupaten Halmahera Utara, Maluku Utara","Kabupaten Halmahera Utara, Maluku Utara",MALUKU UTARA,,Indonesia,,2.0699042,127.8697996,https://maps.google.com/?cid=0x0:0x471c1e944de53cf8
supermarket,Toko,rumah,"Supu, Kec. Loloda Utara, Kabupaten Halmahera Utara, Maluku Utara","Kabupaten Halmahera Utara, Maluku Utara",MALUKU UTARA,,Indonesia,81342892018.0,2.1837733,127.9785985,https://maps.google.com/?cid=0x0:0xaf8e0316311b93a5
supermarket,supermarket,Home setty tonga,"52WR+28, Igo, Kec. Loloda Utara, Kabupaten Halmahera Utara, Maluku Utara","Kabupaten Halmahera Utara, Maluku Utara",MALUKU UTARA,,Indonesia,,2.1951489,128.0398855,https://maps.google.com/?cid=0x0:0x90c2724af223b0a9
supermarket,supermarket,Kec. Malifut,"Kabupaten Halmahera Utara, Maluku Utara","Kabupaten Halmahera Utara, Maluku Utara",MALUKU UTARA,,Indonesia,,1.0939454,127.776544,https://maps.google.com/?cid=0x0:0xd9110b77277647d2
supermarket,Pasar,Pasar Malifut,"5R5P+VM3, Soma, Kec. Malifut, Kabupaten Halmahera Utara, Maluku Utara","Kabupaten Halmahera Utara, Maluku Utara",MALUKU UTARA,,Indonesia,81355597418.0,1.1596458,127.8366613,https://maps.google.com/?cid=0x0:0x325373870d0135d1
supermarket,Toko,KIOS PUTRA BONE 3 CHAND,"Soma, Kec. Malifut, Kabupaten Halmahera Utara, Maluku Utara 97766","Kec. Malifut, Kabupaten Halmahera Utara",MALUKU UTARA,97766.0,Indonesia,85330646782.0,1.1527891,127.8318404,https://maps.google.com/?cid=0x0:0x77f451c5b1712a74
supermarket,Toko,TOKO ANUGRAH MALIFUT,"5R5M+C56, Soma, Kec. Malifut, Kabupaten Halmahera Utara, Maluku Utara","Kabupaten Halmahera Utara, Maluku Utara",MALUKU UTARA,,Indonesia,82195500222.0,1.1585374,127.8329042,https://maps.google.com/?cid=0x0:0xe361aa07ade0a89a
supermarket,Minimarket,Alfamidi Bobawa,"5R4H+CPC, Bobawa, Kec. Malifut, Kabupaten Halmahera Utara, Maluku Utara","Kabupaten Halmahera Utara, Maluku Utara",MALUKU UTARA,,Indonesia,82113577150.0,1.1560327,127.8292258,https://maps.google.com/?cid=0x0:0xb88130b9b4380e23
supermarket,Pusat Perbelanjaan,Toko Adel Mart,"5R4Q+3MR, Unnamed Road, Matsa, Kec. Malifut, Kabupaten Halmahera Utara, Maluku Utara","Kabupaten Halmahera Utara, Maluku Utara",MALUKU UTARA,,Indonesia,,1.1552453,127.8391402,https://maps.google.com/?cid=0x0:0x40846cf060d63349
supermarket,Pasar,Pasar Rakyat (Senggol),"5R3J+9JJ, Ngofakiaha, Kec. Malifut, Kabupaten Halmahera Utara, Maluku Utara","Kabupaten Halmahera Utara, Maluku Utara",MALUKU UTARA,,Indonesia,,1.153469,127.8315058,https://maps.google.com/?cid=0x0:0x3cb71a2608bc85ec
supermarket,Toko Swalayan,Ratu market,"4P3M+9QJ, Tabobo, Kec. Malifut, Kabupaten Halmahera Utara, Maluku Utara","Kabupaten Halmahera Utara, Maluku Utara",MALUKU UTARA,,Indonesia,,1.1034601,127.7343987,https://maps.google.com/?cid=0x0:0x382c799efb9375ed
supermarket,Minimarket,Indomaret Poros Malifut,"5R6M+5X8, Terpadu, Kec. Malifut, Kabupaten Halmahera Utara, Maluku Utara","Kabupaten Halmahera Utara, Maluku Utara",MALUKU UTARA,,Indonesia,,1.1603012,127.8348553,https://maps.google.com/?cid=0x0:0xb94e9003a7a04fb1
supermarket,Minimarket,Indomaret H Adam Malik,"5R4J+H3V, Bobawa, Kec. Malifut, Kabupaten Halmahera Utara, Maluku Utara","Kabupaten Halmahera Utara, Maluku Utara",MALUKU UTARA,,Indonesia,,1.1564894,127.8301591,https://maps.google.com/?cid=0x0:0x2005840411ec7a8b
supermarket,Toko Swalayan,Alfamidi Soma,"5R6P+52W, Terpadu, Kec. Malifut, Kabupaten Halmahera Utara, Maluku Utara","Kabupaten Halmahera Utara, Maluku Utara",MALUKU UTARA,,Indonesia,,1.1604883,127.8350798,https://maps.google.com/?cid=0x0:0xd2bfc286e3626f4d
supermarket,Toko,RT 4,"5R4M+PVJ, Mailoa, Kec. Malifut, Kabupaten Halmahera Utara, Maluku Utara","Kabupaten Halmahera Utara, Maluku Utara",MALUKU UTARA,,Indonesia,,1.1568265,127.8346475,https://maps.google.com/?cid=0x0:0x26d0ef19b018c266
supermarket,Toko,Toko Sinar Sulilie - Hi. Imran,"4RVC+H8P, Tahane, Kec. Malifut, Kabupaten Halmahera Utara, Maluku Utara","Kabupaten Halmahera Utara, Maluku Utara",MALUKU UTARA,,Indonesia,81340341431.0,1.1439728,127.8208359,https://maps.google.com/?cid=0x0:0xeab4a88981b845fb
supermarket,Toko Swalayan,ALFAMIDI MATSA,"Matsa, Kec. Malifut, Kabupaten Halmahera Utara, Maluku Utara","Kabupaten Halmahera Utara, Maluku Utara",MALUKU UTARA,,Indonesia,,1.1452974,127.8210022,https://maps.google.com/?cid=0x0:0x1ef1fc423733eadf
supermarket,supermarket,Tobelo,"Gamsungi, Kec. Tobelo, Kabupaten Halmahera Utara, Maluku Utara","Kabupaten Halmahera Utara, Maluku Utara",MALUKU UTARA,,Indonesia,,1.725721,128.001404,https://maps.google.com/?cid=0x0:0xed92b856242bad82
supermarket,Toko bahan makanan,Galaxy Mart,"P2C6+MMM, Rawajaya, Kec. Tobelo, Kabupaten Halmahera Utara, Maluku Utara","Kabupaten Halmahera Utara, Maluku Utara",MALUKU UTARA,,Indonesia,81288889356.0,1.7217063,128.011669,https://maps.google.com/?cid=0x0:0x28ebc8db575348b5
supermarket,Toko Swalayan,HOKY Supermarket,"Gosoma, Kec. Tobelo, Kabupaten Halmahera Utara, Maluku Utara","Kabupaten Halmahera Utara, Maluku Utara",MALUKU UTARA,,Indonesia,82140889833.0,1.7213547,128.010781,https://maps.google.com/?cid=0x0:0xbce2eabee9bd6692
supermarket,Pasar,PASAR MODERN TOBELO,"P2C5+3R6, Gosoma, Kec. Tobelo, Kabupaten Halmahera Utara, Maluku Utara","Kabupaten Halmahera Utara, Maluku Utara",MALUKU UTARA,,Indonesia,81343722728.0,1.7192823,128.0095353,https://maps.google.com/?cid=0x0:0x8db25466b20f4b99
supermarket,Toko bahan makanan,Toko 88,"Wosia, Kec. Tobelo Tengah, Kabupaten Halmahera Utara, Maluku Utara","Kabupaten Halmahera Utara, Maluku Utara",MALUKU UTARA,,Indonesia,85240004815.0,1.7090311,128.012412,https://maps.google.com/?cid=0x0:0x3631497f4d1be1cb
supermarket,Toko Optik,Optik internasional tobelo,"P2G2+7HJ, Gamsungi, Kec. Tobelo, Kabupaten Halmahera Utara, Maluku Utara","Kabupaten Halmahera Utara, Maluku Utara",MALUKU UTARA,,Indonesia,,1.725721,128.001404,https://maps.google.com/?cid=0x0:0xa12e9e78033a0538
supermarket,Minimarket,Indomaret raya rsud,"P2G2+5JQ, JL Raya Trans Sofifi, Gamsungi, Kec. Tobelo, Kabupaten Halmahera Utara, Maluku Utara","Kabupaten Halmahera Utara, Maluku Utara",MALUKU UTARA,,Indonesia,,1.725456,128.0016101,https://maps.google.com/?cid=0x0:0x872298ad6c10a2e6
supermarket,Toko,Gamalama Toko,"P2G2+FRM, Jl. Kemakmuran, Gamsungi, Kec. Tobelo, Kabupaten Halmahera Utara, Maluku Utara 97762","Jl. Kemakmuran, Gamsungi, Kec. Tobelo, Kabupaten Halmahera Utara",MALUKU UTARA,97762.0,Indonesia,92421198.0,1.726223,128.002045,https://maps.google.com/?cid=0x0:0xfa4127166b312223
supermarket,Toko,Toko Makmur Bersama,"P2G2+FRM, Jl. Kemakmuran, Gamsungi, Kec. Tobelo, Kabupaten Halmahera Utara, Maluku Utara","Kabupaten Halmahera Utara, Maluku Utara",MALUKU UTARA,,Indonesia,9242621058.0,1.726223,128.002045,https://maps.google.com/?cid=0x0:0xc66a1934c2734d70
supermarket,Toko,Toko Cahaya Anugerah,"PXQV+MVC, Mkcm, Kec. Tobelo, Kabupaten Halmahera Utara, Maluku Utara","Kabupaten Halmahera Utara, Maluku Utara",MALUKU UTARA,,Indonesia,,1.7391934,127.9946506,https://maps.google.com/?cid=0x0:0xe6ebfbfd9974933f
supermarket,Pasar bahan bangunan,Toko Sumber Bangunan,"P2G6+2MM, Gamsungi, Kec. Tobelo, Kabupaten Halmahera Utara, Maluku Utara","Kabupaten Halmahera Utara, Maluku Utara",MALUKU UTARA,,Indonesia,9242621455.0,1.7250967,128.0116677,https://maps.google.com/?cid=0x0:0x14835095227102f4
supermarket,Toko Swalayan,Toko Sinar Baru,"P2G2+FRM, Gamsungi, Kec. Tobelo, Kabupaten Halmahera Utara, Maluku Utara","Kabupaten Halmahera Utara, Maluku Utara",MALUKU UTARA,,Indonesia,9242621052.0,1.726223,128.002045,https://maps.google.com/?cid=0x0:0xc956d67b404fce9a
supermarket,Minimarket,ALFAMIDI WOSIA,"Wosia, Kec. Tobelo Tengah, Kabupaten Halmahera Utara, Maluku Utara","Kabupaten Halmahera Utara, Maluku Utara",MALUKU UTARA,,Indonesia,,1.7076804,128.0123952,https://maps.google.com/?cid=0x0:0xcee1147afa21b9ce
supermarket,Minimarket,Alfamidi,"P244+498, WKO, Kec. Tobelo Tengah, Kabupaten Halmahera Utara, Maluku Utara","Kabupaten Halmahera Utara, Maluku Utara",MALUKU UTARA,,Indonesia,,1.7052784,128.0059499,https://maps.google.com/?cid=0x0:0x3f5e0de5faac517f
supermarket,Toko bahan makanan,Galaxy Mart,"P2C6+MMM, Rawajaya, Kec. Tobelo, Kabupaten Halmahera Utara, Maluku Utara","Kabupaten Halmahera Utara, Maluku Utara",MALUKU UTARA,,Indonesia,81288889356.0,1.7217063,128.011669,https://maps.google.com/?cid=0x0:0x28ebc8db575348b5
supermarket,supermarket,Kec. Tobelo Bar.,"Kabupaten Halmahera Utara, Maluku Utara","Kabupaten Halmahera Utara, Maluku Utara",MALUKU UTARA,,Indonesia,,1.5410827,127.9493454,https://maps.google.com/?cid=0x0:0x253218d19bcb2a3e
supermarket,Toko Bahan Bangunan,Makmur Utama Supermarket Bahan bangunan,"Tj. Niara, Kec. Tobelo Tengah, Kabupaten Halmahera Utara, Maluku Utara","Kabupaten Halmahera Utara, Maluku Utara",MALUKU UTARA,,Indonesia,85117420324.0,1.7019679,128.0155893,https://maps.google.com/?cid=0x0:0x47ecdf114648cbc2
supermarket,Bar,Paca Mart,"JX3W+98C, Unnamed Road, Paca, Kec. Tobelo Sel., Kabupaten Halmahera Utara, Maluku Utara","Kabupaten Halmahera Utara, Maluku Utara",MALUKU UTARA,,Indonesia,,1.6034325,127.9957672,https://maps.google.com/?cid=0x0:0x57ed6f0e1e0b2b1c
supermarket,Toko Pertanian,UD permata tani 2,"rto1 No.GG 1, Sukamaju, Kec. Tobelo Bar., Kabupaten Halmahera Utara, Maluku Utara 97762","Sukamaju, Kec. Tobelo Bar., Kabupaten Halmahera Utara",MALUKU UTARA,97762.0,Indonesia,81340242994.0,1.5034616,127.9638955,https://maps.google.com/?cid=0x0:0x5c3d9df77a67137c
supermarket,Toko,Kios laili wi-fi,"GWRX+8PM, Togoliua, Kec. Tobelo Bar., Kabupaten Halmahera Utara, Maluku Utara","Kabupaten Halmahera Utara, Maluku Utara",MALUKU UTARA,,Indonesia,,1.5408452,127.9492852,https://maps.google.com/?cid=0x0:0xe1ef9ceb69a6e8d3
supermarket,Rumah Makan,Kios VICTORY,"Jl. Trans Halmahera No.Km.28, Birinoa, Kec. Tobelo Bar., Kabupaten Halmahera Utara, Maluku Utara 97762","Birinoa, Kec. Tobelo Bar., Kabupaten Halmahera Utara",MALUKU UTARA,97762.0,Indonesia,85298637888.0,1.5208887,127.9350361,https://maps.google.com/?cid=0x0:0x65f9a31b1ec41b07
supermarket,Pemasok Produk Kecantikan,REGLOW MALUKU UTARA,"Upt Togoliua, Kec. Tobelo Bar., Kabupaten Halmahera Utara, Maluku Utara 97762","Kec. Tobelo Bar., Kabupaten Halmahera Utara",MALUKU UTARA,97762.0,Indonesia,81262124545.0,1.5507165,127.8802229,https://maps.google.com/?cid=0x0:0x1ff4f550643eb294
supermarket,Toko,UD. Yaro Jaya,"Yaro, Kec. Tobelo Tim., Kabupaten Halmahera Utara, Maluku Utara 97767","Kec. Tobelo Tim., Kabupaten Halmahera Utara",MALUKU UTARA,97767.0,Indonesia,81356634656.0,1.5905008,128.004656,https://maps.google.com/?cid=0x0:0x7598015022380b9b
supermarket,Toko,Kios dewi,"GVVP+JX8 Trans hero, Kusuri, tobelo, Kabupaten Halmahera Utara, Maluku Utara","Kabupaten Halmahera Utara, Maluku Utara",MALUKU UTARA,,Indonesia,,1.5440359,127.8874588,https://maps.google.com/?cid=0x0:0xabd12429950a529
supermarket,Toko,Toko Cahaya Anugerah,"PXQV+MVC, Mkcm, Kec. Tobelo, Kabupaten Halmahera Utara, Maluku Utara","Kabupaten Halmahera Utara, Maluku Utara",MALUKU UTARA,,Indonesia,,1.7391934,127.9946506,https://maps.google.com/?cid=0x0:0xe6ebfbfd9974933f
supermarket,Minimarket,Alfamidi,"P244+498, WKO, Kec. Tobelo Tengah, Kabupaten Halmahera Utara, Maluku Utara","Kabupaten Halmahera Utara, Maluku Utara",MALUKU UTARA,,Indonesia,,1.7052784,128.0059499,https://maps.google.com/?cid=0x0:0x3f5e0de5faac517f
supermarket,Kios,Kios embo manembo,"FXXG+2GX, Sukamaju, Kec. Tobelo Bar., Kabupaten Halmahera Utara, Maluku Utara","Kabupaten Halmahera Utara, Maluku Utara",MALUKU UTARA,,Indonesia,,1.4976152,127.9763588,https://maps.google.com/?cid=0x0:0xda6c2ba135239763
supermarket,supermarket,Kec. Tobelo Sel.,"Kabupaten Halmahera Utara, Maluku Utara","Kabupaten Halmahera Utara, Maluku Utara",MALUKU UTARA,,Indonesia,,1.6281283,127.980575,https://maps.google.com/?cid=0x0:0x1ecb6049a3d26ca1
supermarket,Toko Swalayan,HOKY Supermarket,"Gosoma, Kec. Tobelo, Kabupaten Halmahera Utara, Maluku Utara","Kabupaten Halmahera Utara, Maluku Utara",MALUKU UTARA,,Indonesia,82140889833.0,1.7213547,128.010781,https://maps.google.com/?cid=0x0:0xbce2eabee9bd6692
supermarket,Toko Elektronik,Toko tiga putra,"MX8R+6M8, Jl. Raya Trans Halmahera, Gamhoku, Kec. Tobelo Sel., Kabupaten Halmahera Utara, Maluku Utara","Kabupaten Halmahera Utara, Maluku Utara",MALUKU UTARA,,Indonesia,,1.6655425,127.9917014,https://maps.google.com/?cid=0x0:0x8c48e8d9ceec9d77
supermarket,Bar,Paca Mart,"JX3W+98C, Unnamed Road, Paca, Kec. Tobelo Sel., Kabupaten Halmahera Utara, Maluku Utara","Kabupaten Halmahera Utara, Maluku Utara",MALUKU UTARA,,Indonesia,,1.6034325,127.9957672,https://maps.google.com/?cid=0x0:0x57ed6f0e1e0b2b1c
supermarket,Minimarket,Alfamidi Efi-Efi,"JXXV+4C2, Efi Efi, Kec. Tobelo Sel., Kabupaten Halmahera Utara, Maluku Utara","Kabupaten Halmahera Utara, Maluku Utara",MALUKU UTARA,,Indonesia,,1.6477654,127.9935045,https://maps.google.com/?cid=0x0:0x6ead322fb6e42673
supermarket,Minimarket,Alfamidi Kupa Kupa Selatan,"JXGJ+X44, Kupa Kupa Sel., Kec. Tobelo Sel., Kabupaten Halmahera Utara, Maluku Utara","Kabupaten Halmahera Utara, Maluku Utara",MALUKU UTARA,,Indonesia,89530923018.0,1.6273969,127.980313,https://maps.google.com/?cid=0x0:0xfbe46d7dd3651db6
supermarket,Toko Buah Kering,Kios Zhafran ( Buah Dan Sayur),"Paca, Kec. Tobelo Sel., Kabupaten Halmahera Utara, Maluku Utara","Kabupaten Halmahera Utara, Maluku Utara",MALUKU UTARA,,Indonesia,85340381232.0,1.6000291,127.9864024,https://maps.google.com/?cid=0x0:0x376056390db3b47e
supermarket,supermarket,KIOS LUMBA-LUMBA,"HXXX+J64, Leleoto, Kec. Tobelo Sel., Kabupaten Halmahera Utara, Maluku Utara","Kabupaten Halmahera Utara, Maluku Utara",MALUKU UTARA,,Indonesia,,1.5990004,127.9980794,https://maps.google.com/?cid=0x0:0x5fedbc01dbf89bcb
supermarket,Toko,UD. Yaro Jaya,"Yaro, Kec. Tobelo Tim., Kabupaten Halmahera Utara, Maluku Utara 97767","Kec. Tobelo Tim., Kabupaten Halmahera Utara",MALUKU UTARA,97767.0,Indonesia,81356634656.0,1.5905008,128.004656,https://maps.google.com/?cid=0x0:0x7598015022380b9b
supermarket,Toko bahan makanan,Indomaret Efi Efi,"JXWV+XGG, Efi Efi, Kec. Tobelo Sel., Kabupaten Halmahera Utara, Maluku Utara","Kabupaten Halmahera Utara, Maluku Utara",MALUKU UTARA,,Indonesia,,1.6474336,127.9938341,https://maps.google.com/?cid=0x0:0xb7c34d1652243c06
supermarket,Minimarket,Indomaret kupa kupa,"JXGJ+R46, Unnamed Road, Kupa Kupa Sel., Kec. Tobelo Sel., Kabupaten Halmahera Utara, Maluku Utara","Kabupaten Halmahera Utara, Maluku Utara",MALUKU UTARA,,Indonesia,1500820.0,1.6270336,127.9802664,https://maps.google.com/?cid=0x0:0x13bcb352bf5999cf
supermarket,Kios,Kiossurihadip.minyaktanah,"JXWV+RJM, Jl. Tobelo-Sofifi, Efi Efi, Kec. Tobelo Sel., Kabupaten Halmahera Utara, Maluku Utara","Kabupaten Halmahera Utara, Maluku Utara",MALUKU UTARA,,Indonesia,,1.6470597,127.9940513,https://maps.google.com/?cid=0x0:0xbb4b977a88030c2
supermarket,Kios,Kios HALI,"MX2R+VXP, Jl. Raya Trans Halmahera, Tioua, Kec. Tobelo Sel., Kabupaten Halmahera Utara, Maluku Utara","Kabupaten Halmahera Utara, Maluku Utara",MALUKU UTARA,,Indonesia,,1.6522179,127.9924586,https://maps.google.com/?cid=0x0:0xf6c6763b9e49d55e
supermarket,Toko,Toko Cahaya Anugerah,"PXQV+MVC, Mkcm, Kec. Tobelo, Kabupaten Halmahera Utara, Maluku Utara","Kabupaten Halmahera Utara, Maluku Utara",MALUKU UTARA,,Indonesia,,1.7391934,127.9946506,https://maps.google.com/?cid=0x0:0xe6ebfbfd9974933f
supermarket,supermarket,Kec. Tobelo Tim.,"Kabupaten Halmahera Utara, Maluku Utara","Kabupaten Halmahera Utara, Maluku Utara",MALUKU UTARA,,Indonesia,,1.5702306,128.0348143,https://maps.google.com/?cid=0x0:0x3b948dd04e667beb
supermarket,Toko Swalayan,HOKY Supermarket,"Gosoma, Kec. Tobelo, Kabupaten Halmahera Utara, Maluku Utara","Kabupaten Halmahera Utara, Maluku Utara",MALUKU UTARA,,Indonesia,82140889833.0,1.7213547,128.010781,https://maps.google.com/?cid=0x0:0xbce2eabee9bd6692
supermarket,Toko bahan makanan,Galaxy Mart,"P2C6+MMM, Rawajaya, Kec. Tobelo, Kabupaten Halmahera Utara, Maluku Utara","Kabupaten Halmahera Utara, Maluku Utara",MALUKU UTARA,,Indonesia,81288889356.0,1.7217063,128.011669,https://maps.google.com/?cid=0x0:0x28ebc8db575348b5
supermarket,Toko,UD. Yaro Jaya,"Yaro, Kec. Tobelo Tim., Kabupaten Halmahera Utara, Maluku Utara 97767","Kec. Tobelo Tim., Kabupaten Halmahera Utara",MALUKU UTARA,97767.0,Indonesia,81356634656.0,1.5905008,128.004656,https://maps.google.com/?cid=0x0:0x7598015022380b9b
supermarket,Bar,Paca Mart,"JX3W+98C, Unnamed Road, Paca, Kec. Tobelo Sel., Kabupaten Halmahera Utara, Maluku Utara","Kabupaten Halmahera Utara, Maluku Utara",MALUKU UTARA,,Indonesia,,1.6034325,127.9957672,https://maps.google.com/?cid=0x0:0x57ed6f0e1e0b2b1c
supermarket,supermarket,KIOS LUMBA-LUMBA,"HXXX+J64, Leleoto, Kec. Tobelo Sel., Kabupaten Halmahera Utara, Maluku Utara","Kabupaten Halmahera Utara, Maluku Utara",MALUKU UTARA,,Indonesia,,1.5990004,127.9980794,https://maps.google.com/?cid=0x0:0x5fedbc01dbf89bcb
supermarket,supermarket,Alea Store,"H2V3+JHH, Yaro, Kec. Tobelo Tim., Kabupaten Halmahera Utara, Maluku Utara","Kabupaten Halmahera Utara, Maluku Utara",MALUKU UTARA,,Indonesia,,1.5940397,128.00403,https://maps.google.com/?cid=0x0:0x154a3f2abdfdc0a0
supermarket,supermarket,Kios Lumba-Lumba,"kios lumba-lumba, Leleoto, Kec. Tobelo Sel., Kabupaten Halmahera Utara, Maluku Utara","Kabupaten Halmahera Utara, Maluku Utara",MALUKU UTARA,,Indonesia,,1.5925625,127.9758125,https://maps.google.com/?cid=0x0:0xd110137bd97b9276
supermarket,Toko Buah Kering,Kios Zhafran ( Buah Dan Sayur),"Paca, Kec. Tobelo Sel., Kabupaten Halmahera Utara, Maluku Utara","Kabupaten Halmahera Utara, Maluku Utara",MALUKU UTARA,,Indonesia,85340381232.0,1.6000291,127.9864024,https://maps.google.com/?cid=0x0:0x376056390db3b47e
supermarket,Komplek perumahan,Rumah Kel. D Tjodi,"HXWX+RM, Leleoto, Kec. Tobelo Sel., Kabupaten Halmahera Utara, Maluku Utara","Kabupaten Halmahera Utara, Maluku Utara",MALUKU UTARA,,Indonesia,81253854859.0,1.5976237,127.9991281,https://maps.google.com/?cid=0x0:0x3a3711bbbc2a08ea
supermarket,Toko Perlengkapan Rumah,Toko duang ( bangunan),"H28M+GXJ, Todokuiha, Kec. Tobelo Tim., Kabupaten Halmahera Utara, Maluku Utara","Kabupaten Halmahera Utara, Maluku Utara",MALUKU UTARA,,Indonesia,,1.5664975,128.035246,https://maps.google.com/?cid=0x0:0x2a5d78d81d3b95a
supermarket,Minimarket,Alfamidi Kupa Kupa Selatan,"JXGJ+X44, Kupa Kupa Sel., Kec. Tobelo Sel., Kabupaten Halmahera Utara, Maluku Utara","Kabupaten Halmahera Utara, Maluku Utara",MALUKU UTARA,,Indonesia,89530923018.0,1.6273969,127.980313,https://maps.google.com/?cid=0x0:0xfbe46d7dd3651db6
supermarket,Toko Elektronik,JEID CELL,"JX4V+2VC, Unnamed Road, Paca, Kec. Tobelo Sel., Kabupaten Halmahera Utara, Maluku Utara","Kabupaten Halmahera Utara, Maluku Utara",MALUKU UTARA,,Indonesia,,1.6050749,127.9946384,https://maps.google.com/?cid=0x0:0xdd31ab61ae303053
supermarket,supermarket,Kec. Tobelo Tengah,"Kabupaten Halmahera Utara, Maluku Utara","Kabupaten Halmahera Utara, Maluku Utara",MALUKU UTARA,,Indonesia,,1.7074794,128.0127501,https://maps.google.com/?cid=0x0:0xef293bed1374db12
supermarket,Toko bahan makanan,Galaxy Mart,"P2C6+MMM, Rawajaya, Kec. Tobelo, Kabupaten Halmahera Utara, Maluku Utara","Kabupaten Halmahera Utara, Maluku Utara",MALUKU UTARA,,Indonesia,81288889356.0,1.7217063,128.011669,https://maps.google.com/?cid=0x0:0x28ebc8db575348b5
supermarket,Toko Bahan Bangunan,Makmur Utama Supermarket Bahan bangunan,"Tj. Niara, Kec. Tobelo Tengah, Kabupaten Halmahera Utara, Maluku Utara","Kabupaten Halmahera Utara, Maluku Utara",MALUKU UTARA,,Indonesia,85117420324.0,1.7019679,128.0155893,https://maps.google.com/?cid=0x0:0x47ecdf114648cbc2
supermarket,Toko bahan makanan,Toko 88,"Wosia, Kec. Tobelo Tengah, Kabupaten Halmahera Utara, Maluku Utara","Kabupaten Halmahera Utara, Maluku Utara",MALUKU UTARA,,Indonesia,85240004815.0,1.7090311,128.012412,https://maps.google.com/?cid=0x0:0x3631497f4d1be1cb
supermarket,Kantor Perusahaan,SINAR HARAPAN MART,"P2F6+CQG, Jl. Kemakmuran, Gamsungi, Kec. Tobelo, Kabupaten Halmahera Utara, Maluku Utara","Kabupaten Halmahera Utara, Maluku Utara",MALUKU UTARA,,Indonesia,8114311146.0,1.7235679,128.0119627,https://maps.google.com/?cid=0x0:0x7b8b409874cca6e4
supermarket,Pasar,Wosia Mart,"P266+JFC, Wosia, Kec. Tobelo Tengah, Kabupaten Halmahera Utara, Maluku Utara","Kabupaten Halmahera Utara, Maluku Utara",MALUKU UTARA,,Indonesia,8534006000.0,1.711564,128.011138,https://maps.google.com/?cid=0x0:0x95874122135ced95
supermarket,Toko Swalayan,Tiberias Mart,"P264+GG2, jalan R. Tuhehay, WKO, Kec. Tobelo Tengah, Kabupaten Halmahera Utara, Maluku Utara","Kabupaten Halmahera Utara, Maluku Utara",MALUKU UTARA,,Indonesia,,1.711252,128.006264,https://maps.google.com/?cid=0x0:0xaf2ca86cd6c4e16c
supermarket,Minimarket,"ALFAMIDI Gosoma, Tobelo","P295+X83, Gosoma, Kec. Tobelo, Kabupaten Halmahera Utara, Maluku Utara","Kabupaten Halmahera Utara, Maluku Utara",MALUKU UTARA,,Indonesia,,1.7198942,128.0083087,https://maps.google.com/?cid=0x0:0xa3fe046c92c84d63
supermarket,Toko sembako pemerintah,JJ Mart,"M2R5+CV6, Lina Ino, Kec. Tobelo Tengah, Kabupaten Halmahera Utara, Maluku Utara","Kabupaten Halmahera Utara, Maluku Utara",MALUKU UTARA,,Indonesia,,1.6910351,128.0096302,https://maps.google.com/?cid=0x0:0xa3b6608a7d330b3c
supermarket,Toko,SWALAYAN SENYUM 5000,"P2C6+339, Gosoma, Kec. Tobelo, Kabupaten Halmahera Utara, Maluku Utara","Kabupaten Halmahera Utara, Maluku Utara",MALUKU UTARA,,Indonesia,81340884049.0,1.7201688,128.0102434,https://maps.google.com/?cid=0x0:0xc0923bf19a422835
supermarket,Minimarket,UD PAHALA .ngak Perlu Tenar Yang Penting Rezeki Lancar,"P2C6+F4H, Gosoma, Kec. Tobelo, Kabupaten Halmahera Utara, Maluku Utara","Kabupaten Halmahera Utara, Maluku Utara",MALUKU UTARA,,Indonesia,,1.721198,128.0103658,https://maps.google.com/?cid=0x0:0x613203b5144d1cf0
supermarket,Toko,Toko Cemara Abadi,"Jl. Pasar Blakang, Rawajaya, Kec. Tobelo, Kabupaten Halmahera Utara, Maluku Utara","Kabupaten Halmahera Utara, Maluku Utara",MALUKU UTARA,,Indonesia,8124500635.0,1.7201737,128.0123649,https://maps.google.com/?cid=0x0:0x47bcefa8516a6bed
supermarket,Toko umum,H A N N Y ' S Shop,"M2X4+FVC, Tj. Niara, Kec. Tobelo Tengah, Kabupaten Halmahera Utara, Maluku Utara","Kabupaten Halmahera Utara, Maluku Utara",MALUKU UTARA,,Indonesia,,1.6986858,128.0071435,https://maps.google.com/?cid=0x0:0x285c16e6f49273e0
supermarket,Minimarket,Alfamidi,"P244+498, WKO, Kec. Tobelo Tengah, Kabupaten Halmahera Utara, Maluku Utara","Kabupaten Halmahera Utara, Maluku Utara",MALUKU UTARA,,Indonesia,,1.7052784,128.0059499,https://maps.google.com/?cid=0x0:0x3f5e0de5faac517f
supermarket,supermarket,Kec. Tobelo Utara,"Kabupaten Halmahera Utara, Maluku Utara","Kabupaten Halmahera Utara, Maluku Utara",MALUKU UTARA,,Indonesia,,1.7634729,127.9819399,https://maps.google.com/?cid=0x0:0xd08db8115ea8b44b
supermarket,Toko bahan makanan,Galaxy Mart,"P2C6+MMM, Rawajaya, Kec. Tobelo, Kabupaten Halmahera Utara, Maluku Utara","Kabupaten Halmahera Utara, Maluku Utara",MALUKU UTARA,,Indonesia,81288889356.0,1.7217063,128.011669,https://maps.google.com/?cid=0x0:0x28ebc8db575348b5
supermarket,Kantor Perusahaan,SINAR HARAPAN MART,"P2F6+CQG, Jl. Kemakmuran, Gamsungi, Kec. Tobelo, Kabupaten Halmahera Utara, Maluku Utara","Kabupaten Halmahera Utara, Maluku Utara",MALUKU UTARA,,Indonesia,8114311146.0,1.7235679,128.0119627,https://maps.google.com/?cid=0x0:0x7b8b409874cca6e4
supermarket,Pasar,PASAR MODERN TOBELO,"P2C5+3R6, Gosoma, Kec. Tobelo, Kabupaten Halmahera Utara, Maluku Utara","Kabupaten Halmahera Utara, Maluku Utara",MALUKU UTARA,,Indonesia,81343722728.0,1.7192823,128.0095353,https://maps.google.com/?cid=0x0:0x8db25466b20f4b99
supermarket,Toko,Toko Kasih,"P2H3+PHC, Gamsungi, Kec. Tobelo, Kabupaten Halmahera Utara, Maluku Utara","Kabupaten Halmahera Utara, Maluku Utara",MALUKU UTARA,,Indonesia,,1.7293032,128.0038854,https://maps.google.com/?cid=0x0:0xbd425f29d77277c7
supermarket,Toko Bahan Bangunan,Makmur Utama Supermarket Bahan bangunan,"Tj. Niara, Kec. Tobelo Tengah, Kabupaten Halmahera Utara, Maluku Utara","Kabupaten Halmahera Utara, Maluku Utara",MALUKU UTARA,,Indonesia,85117420324.0,1.7019679,128.0155893,https://maps.google.com/?cid=0x0:0x47ecdf114648cbc2
supermarket,Minimarket,"ALFAMIDI Gosoma, Tobelo","P295+X83, Gosoma, Kec. Tobelo, Kabupaten Halmahera Utara, Maluku Utara","Kabupaten Halmahera Utara, Maluku Utara",MALUKU UTARA,,Indonesia,,1.7198942,128.0083087,https://maps.google.com/?cid=0x0:0xa3fe046c92c84d63
supermarket,Toko,SWALAYAN SENYUM 5000,"P2C6+339, Gosoma, Kec. Tobelo, Kabupaten Halmahera Utara, Maluku Utara","Kabupaten Halmahera Utara, Maluku Utara",MALUKU UTARA,,Indonesia,81340884049.0,1.7201688,128.0102434,https://maps.google.com/?cid=0x0:0xc0923bf19a422835
supermarket,Minimarket,Alfamidi Gorua,"QX7M+39, Gorua Sel., Kec. Tobelo Utara, Kabupaten Halmahera Utara, Maluku Utara","Kabupaten Halmahera Utara, Maluku Utara",MALUKU UTARA,,Indonesia,,1.7627018,127.9833806,https://maps.google.com/?cid=0x0:0x7971aea02a833b5b
supermarket,Toko bahan makanan,Tujang Mart,"P2P3+45M, Mkcm, Kec. Tobelo, Kabupaten Halmahera Utara, Maluku Utara","Kabupaten Halmahera Utara, Maluku Utara",MALUKU UTARA,,Indonesia,81356198836.0,1.7353482,128.0029096,https://maps.google.com/?cid=0x0:0x7fe8b9af7ac86d20
supermarket,Toko,BARBERS CELL,"QX3R+48M, Jl. Raya Trans Galela-Tobelo, Wari Ino, Kec. Tobelo, Kabupaten Halmahera Utara, Maluku Utara","Kabupaten Halmahera Utara, Maluku Utara",MALUKU UTARA,,Indonesia,81340333090.0,1.7528467,127.9907983,https://maps.google.com/?cid=0x0:0x56da935030b41cf2
supermarket,Minimarket,Indomaret Trans Galela Tobelo,"QX3Q+4WQ, Wari Ino, Kec. Tobelo, Kabupaten Halmahera Utara, Maluku Utara","Kabupaten Halmahera Utara, Maluku Utara",MALUKU UTARA,,Indonesia,81241878753.0,1.7528425,127.9898456,https://maps.google.com/?cid=0x0:0xe63394ce0c586a18
supermarket,Toko grosir,Toko perabotan Hana,"Kampung jawa, desa, Gorua Sel., Kec. Tobelo Utara, Kabupaten Halmahera Utara, Maluku Utara 97762","desa, Gorua Sel., Kec. Tobelo Utara, Kabupaten Halmahera Utara",MALUKU UTARA,97762.0,Indonesia,,1.7586662,127.987368,https://maps.google.com/?cid=0x0:0x5808db54cbe7aaa4
supermarket,Toko,Toko Cahaya Anugerah,"PXQV+MVC, Mkcm, Kec. Tobelo, Kabupaten Halmahera Utara, Maluku Utara","Kabupaten Halmahera Utara, Maluku Utara",MALUKU UTARA,,Indonesia,,1.7391934,127.9946506,https://maps.google.com/?cid=0x0:0xe6ebfbfd9974933f
