Category,Real Category,Business Name,Address,City,State,Postal Code,Country,Phone,Latitude,Longitude,Map Link
perumahan,Pembangunan Perumahan,Galela Bale,"RQCV+H6M, Bale, Kec. Galela Sel., Kabupaten Halmahera Utara, Maluku Utara","Kabupaten Halmahera Utara, Maluku Utara",MALUKU UTARA,,Indonesia,,1.8214564,127.7930465,https://maps.google.com/?cid=0x0:0xa7629bf0ef82dc22
perumahan,perumahan,Kec. Galela,"Kabupaten Halmahera Utara, Maluku Utara","Kabupaten Halmahera Utara, Maluku Utara",MALUKU UTARA,,Indonesia,,1.7991745,127.9013278,https://maps.google.com/?cid=0x0:0x6d037a5832cde2d7
perumahan,Komplek perumahan,Kediaman Hi. Arifin Abd. Gafur,"RRFR+WMX, Towara, Kec. Galela, Kabupaten Halmahera Utara, Maluku Utara","Kabupaten Halmahera Utara, Maluku Utara",MALUKU UTARA,,Indonesia,,1.8249949,127.8420227,https://maps.google.com/?cid=0x0:0x6b0ba46d6424f062
perumahan,perumahan,Rumah Dinas Camat Galela,"RRFV+3RF, Soa Sio, Kec. Galela, Kabupaten Halmahera Utara, Maluku Utara","Kabupaten Halmahera Utara, Maluku Utara",MALUKU UTARA,,Indonesia,,1.822686,127.8445409,https://maps.google.com/?cid=0x0:0xd7bd4bc88f931ab9
perumahan,Komplek perumahan,Rumah Oland,"RRCV+8PG, Soa Sio, Kec. Galela, Kabupaten Halmahera Utara, Maluku Utara","Kabupaten Halmahera Utara, Maluku Utara",MALUKU UTARA,,Indonesia,,1.8208107,127.8443252,https://maps.google.com/?cid=0x0:0xc6b5251eaa22f373
perumahan,Layanan Prakiraan Cuaca,Kompleks perumahan BMKG Galela,"RQQQ+24G, Dokulamo, Kec. Galela Bar., Kabupaten Halmahera Utara, Maluku Utara","Kabupaten Halmahera Utara, Maluku Utara",MALUKU UTARA,,Indonesia,,1.8386364,127.7883369,https://maps.google.com/?cid=0x0:0xdab67f3fe9401ae0
perumahan,Komplek perumahan,Rumah MR Saway,"RRGV+7GR, Soa Sio, Kec. Galela, Kabupaten Halmahera Utara, Maluku Utara","Kabupaten Halmahera Utara, Maluku Utara",MALUKU UTARA,,Indonesia,,1.8257419,127.8437711,https://maps.google.com/?cid=0x0:0xdf8b6cfed1fdf4fa
perumahan,Komplek perumahan,Galela igobula,"RR64+W38, Igobula, Kec. Galela, Kabupaten Halmahera Utara, Maluku Utara","Kabupaten Halmahera Utara, Maluku Utara",MALUKU UTARA,,Indonesia,,1.8122957,127.805201,https://maps.google.com/?cid=0x0:0xadf069a887ac7f53
perumahan,Komplek perumahan,Mas kamaludin,"RR59+GVJ, Togawa, Kec. Galela Sel., Kabupaten Halmahera Utara, Maluku Utara","Kabupaten Halmahera Utara, Maluku Utara",MALUKU UTARA,,Indonesia,,1.8083786,127.8186231,https://maps.google.com/?cid=0x0:0x39faecfbb310f3cb
perumahan,Komplek perumahan,Rumah melanhy,"RR9V+7WH, Pune, Kec. Galela, Kabupaten Halmahera Utara, Maluku Utara","Kabupaten Halmahera Utara, Maluku Utara",MALUKU UTARA,,Indonesia,,1.8182012,127.8449089,https://maps.google.com/?cid=0x0:0x488975c9658d6687
perumahan,Komplek perumahan,Nabil Home,"RRGV+J4J, Soa Sio, Kec. Galela, Kabupaten Halmahera Utara, Maluku Utara","Kabupaten Halmahera Utara, Maluku Utara",MALUKU UTARA,,Indonesia,,1.8265957,127.8427774,https://maps.google.com/?cid=0x0:0x75a3736830338a24
perumahan,Komplek perumahan,Rumah haikal,"QWX2+JGW, Mamuya, Kec. Galela, Kabupaten Halmahera Utara, Maluku Utara","Kabupaten Halmahera Utara, Maluku Utara",MALUKU UTARA,,Indonesia,,1.7991183,127.9013302,https://maps.google.com/?cid=0x0:0xcd1a2e625ba7506e
perumahan,Komplek perumahan,Perumahan Desa Barataku,"RRJQ+4R4, Barataku, Kec. Galela, Kabupaten Halmahera Utara, Maluku Utara","Kabupaten Halmahera Utara, Maluku Utara",MALUKU UTARA,,Indonesia,,1.830256,127.8395857,https://maps.google.com/?cid=0x0:0x44a5bd7f802eb774
perumahan,perumahan,Rumah kiya,"RRFM+V3F, Towara, Kec. Galela, Kabupaten Halmahera Utara, Maluku Utara","Kabupaten Halmahera Utara, Maluku Utara",MALUKU UTARA,,Indonesia,,1.8246952,127.8326572,https://maps.google.com/?cid=0x0:0xaa832769af6408bb
perumahan,perumahan,Kec. Galela Bar.,"Kabupaten Halmahera Utara, Maluku Utara","Kabupaten Halmahera Utara, Maluku Utara",MALUKU UTARA,,Indonesia,,1.8258564,127.7917991,https://maps.google.com/?cid=0x0:0x6883a71e285c2680
perumahan,Pembangunan Perumahan,Galela Bale,"RQCV+H6M, Bale, Kec. Galela Sel., Kabupaten Halmahera Utara, Maluku Utara","Kabupaten Halmahera Utara, Maluku Utara",MALUKU UTARA,,Indonesia,,1.8214564,127.7930465,https://maps.google.com/?cid=0x0:0xa7629bf0ef82dc22
perumahan,Perhimpunan Pengembang Perumahan,Rumah Ners Engky,"VQ55+FF4, Roko, Kec. Galela Bar., Kabupaten Halmahera Utara, Maluku Utara","Kabupaten Halmahera Utara, Maluku Utara",MALUKU UTARA,,Indonesia,,1.8586465,127.7586948,https://maps.google.com/?cid=0x0:0x9ede50f90dd699fe
perumahan,Perhimpunan Pengembang Perumahan,Rumah FIKO NORA,"RQFP+2J8, Soatobaru, Kec. Galela Bar., Kabupaten Halmahera Utara, Maluku Utara","Kabupaten Halmahera Utara, Maluku Utara",MALUKU UTARA,,Indonesia,,1.821688,127.787281,https://maps.google.com/?cid=0x0:0xd091cd13fdcb62d5
perumahan,Komplek perumahan,Rumah Ampi Mako,"RQFQ+463, Soatobaru, Kec. Galela Bar., Kabupaten Halmahera Utara, Maluku Utara","Kabupaten Halmahera Utara, Maluku Utara",MALUKU UTARA,,Indonesia,,1.8227356,127.7878373,https://maps.google.com/?cid=0x0:0x58f49bf9d679728f
perumahan,Komplek perumahan,Mas kamaludin,"RR59+GVJ, Togawa, Kec. Galela Sel., Kabupaten Halmahera Utara, Maluku Utara","Kabupaten Halmahera Utara, Maluku Utara",MALUKU UTARA,,Indonesia,,1.8083786,127.8186231,https://maps.google.com/?cid=0x0:0x39faecfbb310f3cb
perumahan,Komplek perumahan,Galela igobula,"RR64+W38, Igobula, Kec. Galela, Kabupaten Halmahera Utara, Maluku Utara","Kabupaten Halmahera Utara, Maluku Utara",MALUKU UTARA,,Indonesia,,1.8122957,127.805201,https://maps.google.com/?cid=0x0:0xadf069a887ac7f53
perumahan,Komplek perumahan,Perkorus selwir,"RQ9M+CXV, Samuda, Kec. Galela Bar., Kabupaten Halmahera Utara, Maluku Utara","Kabupaten Halmahera Utara, Maluku Utara",MALUKU UTARA,,Indonesia,,1.8195843,127.7856299,https://maps.google.com/?cid=0x0:0x8a89fb84d66b410e
perumahan,Pembangunan Perumahan,Galela Majarita,"RR56+CVW, Samuda, Kec. Galela Bar., Kabupaten Halmahera Utara, Maluku Utara","Kabupaten Halmahera Utara, Maluku Utara",MALUKU UTARA,,Indonesia,,1.8086135,127.8122079,https://maps.google.com/?cid=0x0:0x1f7b61ac2ae169cf
perumahan,perumahan,Nasrullah,"RQHW+G92, Kira, Kec. Galela Bar., Kabupaten Halmahera Utara, Maluku Utara","Kabupaten Halmahera Utara, Maluku Utara",MALUKU UTARA,,Indonesia,,1.8287566,127.7959044,https://maps.google.com/?cid=0x0:0x50d86511d1d372dc
perumahan,Komplek perumahan,Anggaji,"RQHW+777, Kira, Kec. Galela Bar., Kabupaten Halmahera Utara, Maluku Utara","Kabupaten Halmahera Utara, Maluku Utara",MALUKU UTARA,,Indonesia,,1.8286476,127.7957807,https://maps.google.com/?cid=0x0:0xe36c98aa49a2738d
perumahan,Komplek perumahan,Rumah Zulaikha,"RRJ3+73Q, Gotalamo, Kec. Galela Bar., Kabupaten Halmahera Utara, Maluku Utara","Kabupaten Halmahera Utara, Maluku Utara",MALUKU UTARA,,Indonesia,,1.8307105,127.8027223,https://maps.google.com/?cid=0x0:0x3675674d2c2594d1
perumahan,Komplek perumahan,Kediaman Hi. Arifin Abd. Gafur,"RRFR+WMX, Towara, Kec. Galela, Kabupaten Halmahera Utara, Maluku Utara","Kabupaten Halmahera Utara, Maluku Utara",MALUKU UTARA,,Indonesia,,1.8249949,127.8420227,https://maps.google.com/?cid=0x0:0x6b0ba46d6424f062
perumahan,Komplek perumahan,Rumah RANO KANASA ALI,"RR72+MWW, Igobula, Kec. Galela Sel., Kabupaten Halmahera Utara, Maluku Utara","Kabupaten Halmahera Utara, Maluku Utara",MALUKU UTARA,,Indonesia,82196909214.0,1.8142296,127.8023183,https://maps.google.com/?cid=0x0:0xa5b1575db79cf19c
perumahan,Pembangunan Perumahan,Galela Bale,"RQCV+H6M, Bale, Kec. Galela Sel., Kabupaten Halmahera Utara, Maluku Utara","Kabupaten Halmahera Utara, Maluku Utara",MALUKU UTARA,,Indonesia,,1.8214564,127.7930465,https://maps.google.com/?cid=0x0:0xa7629bf0ef82dc22
perumahan,perumahan,Kec. Galela Sel.,"Kabupaten Halmahera Utara, Maluku Utara","Kabupaten Halmahera Utara, Maluku Utara",MALUKU UTARA,,Indonesia,,1.8095298,127.8098621,https://maps.google.com/?cid=0x0:0xd54700cacb22b110
perumahan,Komplek perumahan,Mas kamaludin,"RR59+GVJ, Togawa, Kec. Galela Sel., Kabupaten Halmahera Utara, Maluku Utara","Kabupaten Halmahera Utara, Maluku Utara",MALUKU UTARA,,Indonesia,,1.8083786,127.8186231,https://maps.google.com/?cid=0x0:0x39faecfbb310f3cb
perumahan,Layanan Prakiraan Cuaca,Kompleks perumahan BMKG Galela,"RQQQ+24G, Dokulamo, Kec. Galela Bar., Kabupaten Halmahera Utara, Maluku Utara","Kabupaten Halmahera Utara, Maluku Utara",MALUKU UTARA,,Indonesia,,1.8386364,127.7883369,https://maps.google.com/?cid=0x0:0xdab67f3fe9401ae0
perumahan,Komplek perumahan,Rumah Oland,"RRCV+8PG, Soa Sio, Kec. Galela, Kabupaten Halmahera Utara, Maluku Utara","Kabupaten Halmahera Utara, Maluku Utara",MALUKU UTARA,,Indonesia,,1.8208107,127.8443252,https://maps.google.com/?cid=0x0:0xc6b5251eaa22f373
perumahan,Komplek perumahan,Kek. Ust. Hamzah tomagola,"RR59+GVJ, Togawa, Kec. Galela Sel., Kabupaten Halmahera Utara, Maluku Utara","Kabupaten Halmahera Utara, Maluku Utara",MALUKU UTARA,,Indonesia,,1.8087992,127.8189362,https://maps.google.com/?cid=0x0:0x1669bfbd6060ba1
perumahan,Komplek perumahan,Galela igobula,"RR64+W38, Igobula, Kec. Galela, Kabupaten Halmahera Utara, Maluku Utara","Kabupaten Halmahera Utara, Maluku Utara",MALUKU UTARA,,Indonesia,,1.8122957,127.805201,https://maps.google.com/?cid=0x0:0xadf069a887ac7f53
perumahan,Komplek perumahan,Galela soakonora,"QQMR+533, Soakonora, Kec. Galela Sel., Kabupaten Halmahera Utara, Maluku Utara","Kabupaten Halmahera Utara, Maluku Utara",MALUKU UTARA,,Indonesia,,1.7828992,127.7901842,https://maps.google.com/?cid=0x0:0xd8c0a49f3b1a6a21
perumahan,perumahan,Rumah Dinas Camat Galela,"RRFV+3RF, Soa Sio, Kec. Galela, Kabupaten Halmahera Utara, Maluku Utara","Kabupaten Halmahera Utara, Maluku Utara",MALUKU UTARA,,Indonesia,,1.822686,127.8445409,https://maps.google.com/?cid=0x0:0xd7bd4bc88f931ab9
perumahan,Komplek perumahan,Rumah Ampi Mako,"RQFQ+463, Soatobaru, Kec. Galela Bar., Kabupaten Halmahera Utara, Maluku Utara","Kabupaten Halmahera Utara, Maluku Utara",MALUKU UTARA,,Indonesia,,1.8227356,127.7878373,https://maps.google.com/?cid=0x0:0x58f49bf9d679728f
perumahan,Komplek perumahan,Rumah MR Saway,"RRGV+7GR, Soa Sio, Kec. Galela, Kabupaten Halmahera Utara, Maluku Utara","Kabupaten Halmahera Utara, Maluku Utara",MALUKU UTARA,,Indonesia,,1.8257419,127.8437711,https://maps.google.com/?cid=0x0:0xdf8b6cfed1fdf4fa
perumahan,Pembangunan Perumahan,Galela Majarita,"RR56+CVW, Samuda, Kec. Galela Bar., Kabupaten Halmahera Utara, Maluku Utara","Kabupaten Halmahera Utara, Maluku Utara",MALUKU UTARA,,Indonesia,,1.8086135,127.8122079,https://maps.google.com/?cid=0x0:0x1f7b61ac2ae169cf
perumahan,Perhimpunan Pengembang Perumahan,Rumah FIKO NORA,"RQFP+2J8, Soatobaru, Kec. Galela Bar., Kabupaten Halmahera Utara, Maluku Utara","Kabupaten Halmahera Utara, Maluku Utara",MALUKU UTARA,,Indonesia,,1.821688,127.787281,https://maps.google.com/?cid=0x0:0xd091cd13fdcb62d5
perumahan,Komplek perumahan,Rumah melanhy,"RR9V+7WH, Pune, Kec. Galela, Kabupaten Halmahera Utara, Maluku Utara","Kabupaten Halmahera Utara, Maluku Utara",MALUKU UTARA,,Indonesia,,1.8182012,127.8449089,https://maps.google.com/?cid=0x0:0x488975c9658d6687
perumahan,perumahan,Kec. Galela Utara,"Kabupaten Halmahera Utara, Maluku Utara","Kabupaten Halmahera Utara, Maluku Utara",MALUKU UTARA,,Indonesia,,2.0151873,127.9497063,https://maps.google.com/?cid=0x0:0x6378f017549179ee
perumahan,Pembangunan Perumahan,Galela Bale,"RQCV+H6M, Bale, Kec. Galela Sel., Kabupaten Halmahera Utara, Maluku Utara","Kabupaten Halmahera Utara, Maluku Utara",MALUKU UTARA,,Indonesia,,1.8214564,127.7930465,https://maps.google.com/?cid=0x0:0xa7629bf0ef82dc22
perumahan,Perhimpunan Pengembang Perumahan,galela salimuli,"2W5C+43F, Salimuli, Kec. Galela Utara, Kabupaten Halmahera Utara, Maluku Utara","Kabupaten Halmahera Utara, Maluku Utara",MALUKU UTARA,,Indonesia,,2.0078172,127.9201751,https://maps.google.com/?cid=0x0:0x79e33415d6619a12
perumahan,Komplek perumahan,Kediaman Hi. Arifin Abd. Gafur,"RRFR+WMX, Towara, Kec. Galela, Kabupaten Halmahera Utara, Maluku Utara","Kabupaten Halmahera Utara, Maluku Utara",MALUKU UTARA,,Indonesia,,1.8249949,127.8420227,https://maps.google.com/?cid=0x0:0x6b0ba46d6424f062
perumahan,Kantor Pemerintah,DESA LALONGA,"WVVG+75P, Lalonga, Kec. Galela Utara, Kabupaten Halmahera Utara, Maluku Utara","Kabupaten Halmahera Utara, Maluku Utara",MALUKU UTARA,,Indonesia,,1.9429047,127.8755647,https://maps.google.com/?cid=0x0:0xf036e48238c99350
perumahan,Perhimpunan Pengembang Perumahan,Rumah Ners Engky,"VQ55+FF4, Roko, Kec. Galela Bar., Kabupaten Halmahera Utara, Maluku Utara","Kabupaten Halmahera Utara, Maluku Utara",MALUKU UTARA,,Indonesia,,1.8586465,127.7586948,https://maps.google.com/?cid=0x0:0x9ede50f90dd699fe
perumahan,Komplek perumahan,Rumah kel.Dadasa-Pontho,"3X79+HVV, Saluta, Kec. Galela Utara, Kabupaten Halmahera Utara, Maluku Utara","Kabupaten Halmahera Utara, Maluku Utara",MALUKU UTARA,,Indonesia,,2.064584,127.969731,https://maps.google.com/?cid=0x0:0x42d78a1e56dab6b1
perumahan,Komplek perumahan,Rumah Oland,"RRCV+8PG, Soa Sio, Kec. Galela, Kabupaten Halmahera Utara, Maluku Utara","Kabupaten Halmahera Utara, Maluku Utara",MALUKU UTARA,,Indonesia,,1.8208107,127.8443252,https://maps.google.com/?cid=0x0:0xc6b5251eaa22f373
perumahan,Layanan Prakiraan Cuaca,Kompleks perumahan BMKG Galela,"RQQQ+24G, Dokulamo, Kec. Galela Bar., Kabupaten Halmahera Utara, Maluku Utara","Kabupaten Halmahera Utara, Maluku Utara",MALUKU UTARA,,Indonesia,,1.8386364,127.7883369,https://maps.google.com/?cid=0x0:0xdab67f3fe9401ae0
perumahan,Komplek perumahan,Rumah MR Saway,"RRGV+7GR, Soa Sio, Kec. Galela, Kabupaten Halmahera Utara, Maluku Utara","Kabupaten Halmahera Utara, Maluku Utara",MALUKU UTARA,,Indonesia,,1.8257419,127.8437711,https://maps.google.com/?cid=0x0:0xdf8b6cfed1fdf4fa
perumahan,Perhimpunan Pengembang Perumahan,Rumah FIKO NORA,"RQFP+2J8, Soatobaru, Kec. Galela Bar., Kabupaten Halmahera Utara, Maluku Utara","Kabupaten Halmahera Utara, Maluku Utara",MALUKU UTARA,,Indonesia,,1.821688,127.787281,https://maps.google.com/?cid=0x0:0xd091cd13fdcb62d5
perumahan,Komplek perumahan,Nabil Home,"RRGV+J4J, Soa Sio, Kec. Galela, Kabupaten Halmahera Utara, Maluku Utara","Kabupaten Halmahera Utara, Maluku Utara",MALUKU UTARA,,Indonesia,,1.8265957,127.8427774,https://maps.google.com/?cid=0x0:0x75a3736830338a24
perumahan,perumahan,Rumah Dinas Camat Galela,"RRFV+3RF, Soa Sio, Kec. Galela, Kabupaten Halmahera Utara, Maluku Utara","Kabupaten Halmahera Utara, Maluku Utara",MALUKU UTARA,,Indonesia,,1.822686,127.8445409,https://maps.google.com/?cid=0x0:0xd7bd4bc88f931ab9
perumahan,Pembangunan Perumahan,Rumah Pribadi,"XWVX+4VC RT.2 RW1, Jlan poros Galela Loloda, Salimuli, Kec. Galela Utara","Kabupaten Halmahera Utara, Maluku Utara",MALUKU UTARA,,Indonesia,,1.9928216,127.9496499,https://maps.google.com/?cid=0x0:0x87ac23bf76049963
perumahan,perumahan,Kec. Kao,"Kabupaten Halmahera Utara, Maluku Utara","Kabupaten Halmahera Utara, Maluku Utara",MALUKU UTARA,,Indonesia,,1.1658407,127.9007494,https://maps.google.com/?cid=0x0:0xf94b0d160a93d5c4
perumahan,Pembangunan Perumahan,Rumah Diman,"5W82+93C, Kao, Kec. Kao, Kabupaten Halmahera Utara, Maluku Utara","Kabupaten Halmahera Utara, Maluku Utara",MALUKU UTARA,,Indonesia,,1.16594,127.9001456,https://maps.google.com/?cid=0x0:0x2b5c470f4034a825
perumahan,Pembangunan Perumahan,Rumah mertua,"5W82+WPR, Kao, Kec. Kao, Kabupaten Halmahera Utara, Maluku Utara","Kabupaten Halmahera Utara, Maluku Utara",MALUKU UTARA,,Indonesia,,1.1673507,127.901754,https://maps.google.com/?cid=0x0:0xeefe8840963c48c1
perumahan,Gedung Apartemen,Perumahan Pegawai Penyelenggara Bandara Kuabang - Kao,"5VPV+R89, Jati, Kec. Kao, Kabupaten Halmahera Utara, Maluku Utara","Kabupaten Halmahera Utara, Maluku Utara",MALUKU UTARA,,Indonesia,,1.1870315,127.8933461,https://maps.google.com/?cid=0x0:0xb7158e894d8f29b5
perumahan,Gedung Apartemen,Kao Islam,"5W72+GGQ, Kao, Kec. Kao, Kabupaten Halmahera Utara, Maluku Utara","Kabupaten Halmahera Utara, Maluku Utara",MALUKU UTARA,,Indonesia,,1.1638299,127.9013612,https://maps.google.com/?cid=0x0:0x1085b1d27d3c7670
perumahan,Perhimpunan Pengembang Perumahan,Rumah Revaldi Surbakti,"6WH7+2G9, Kukumutuk, Kec. Kao, Kabupaten Halmahera Utara, Maluku Utara","Kabupaten Halmahera Utara, Maluku Utara",MALUKU UTARA,,Indonesia,,1.2267576,127.9145123,https://maps.google.com/?cid=0x0:0x95ed6346b2bd1f6c
perumahan,Perhimpunan Pengembang Perumahan,TEMPAT PEMBUATAN TEMPE,"7W53+W9M, Waringin Lamo, Kec. Kao, Kabupaten Halmahera Utara, Maluku Utara","Kabupaten Halmahera Utara, Maluku Utara",MALUKU UTARA,,Indonesia,,1.259847,127.9034322,https://maps.google.com/?cid=0x0:0x792661a12f2cb8c1
perumahan,Komplek perumahan,Rumah Dinas Dokter,"5W92+G3P, Kao, Kec. Kao, Kabupaten Halmahera Utara, Maluku Utara","Kabupaten Halmahera Utara, Maluku Utara",MALUKU UTARA,,Indonesia,,1.1688857,127.9005493,https://maps.google.com/?cid=0x0:0x316663e70a7cb19d
perumahan,Komplek perumahan,RM KRISNA,"5V9X+V66, Goruang, Kec. Kao, Kabupaten Halmahera Utara, Maluku Utara","Kabupaten Halmahera Utara, Maluku Utara",MALUKU UTARA,,Indonesia,,1.1696727,127.8980118,https://maps.google.com/?cid=0x0:0x60ff2e0a75100d78
perumahan,Menara komunikasi,DESA WARINGIN LAMO,"7V8H+M6C, Waringin Lamo, Kec. Kao, Kabupaten Halmahera Utara, Maluku Utara","Kabupaten Halmahera Utara, Maluku Utara",MALUKU UTARA,,Indonesia,,1.2666766,127.8780165,https://maps.google.com/?cid=0x0:0x4d1009705fde0349
perumahan,Komplek perumahan,Rumah icalpalakitang,"5WC2+9CH, Jati, Kec. Kao, Kabupaten Halmahera Utara, Maluku Utara","Kabupaten Halmahera Utara, Maluku Utara",MALUKU UTARA,,Indonesia,,1.1709311,127.9011219,https://maps.google.com/?cid=0x0:0x1c99642b6ae60655
perumahan,Pembangunan Perumahan,Desa Kukumutuk ( Kampung Baru ),"6WH3+93R, Kukumutuk, Kec. Kao, Kabupaten Halmahera Utara, Maluku Utara","Kabupaten Halmahera Utara, Maluku Utara",MALUKU UTARA,,Indonesia,,1.2284983,127.9026293,https://maps.google.com/?cid=0x0:0xa20696457808a85e
perumahan,Komplek perumahan,Rumah arkand,"6WP2+HJX, Patang, Kec. Kao, Kabupaten Halmahera Utara, Maluku Utara","Kabupaten Halmahera Utara, Maluku Utara",MALUKU UTARA,,Indonesia,,1.23649,127.90162,https://maps.google.com/?cid=0x0:0xdf307528c1ad3638
perumahan,Komplek perumahan,Kusu lovra,"5WP4+8F, Kusu Lovra, Kec. Kao, Kabupaten Halmahera Utara, Maluku Utara","Kabupaten Halmahera Utara, Maluku Utara",MALUKU UTARA,,Indonesia,,1.1859311,127.9061052,https://maps.google.com/?cid=0x0:0x858068e39e3a4568
perumahan,Komplek perumahan,kao barat,"9RCQ+2W7, Sangaji Jaya, Kec. Kao Bar., Kabupaten Halmahera Utara, Maluku Utara","Kabupaten Halmahera Utara, Maluku Utara",MALUKU UTARA,,Indonesia,,1.3700303,127.8397827,https://maps.google.com/?cid=0x0:0xc391d0467dd30d99
perumahan,perumahan,Kec. Kao Bar.,"Kabupaten Halmahera Utara, Maluku Utara","Kabupaten Halmahera Utara, Maluku Utara",MALUKU UTARA,,Indonesia,,1.3826535,127.7854236,https://maps.google.com/?cid=0x0:0xf7afe1ef0f20eafa
perumahan,Komplek perumahan,Rumah Ella,"9RR4+WHV, Makarti, Kec. Kao Bar., Kabupaten Halmahera Utara, Maluku Utara","Kabupaten Halmahera Utara, Maluku Utara",MALUKU UTARA,,Indonesia,,1.3915638,127.8068145,https://maps.google.com/?cid=0x0:0x3fd07283079c324a
perumahan,Pembangunan Perumahan,AnnisaHarahap.,"9QGP+P42, Beringin Agung, Kec. Kao Bar., Kabupaten Halmahera Utara, Maluku Utara","Kabupaten Halmahera Utara, Maluku Utara",MALUKU UTARA,,Indonesia,,1.3767553,127.7852707,https://maps.google.com/?cid=0x0:0xc8b889c5a85a2ec4
perumahan,Komplek perumahan,Ahmad saeroni,"9QHP+CH, Beringin Agung, Kec. Kao Bar., Kabupaten Halmahera Utara, Maluku Utara","Kabupaten Halmahera Utara, Maluku Utara",MALUKU UTARA,,Indonesia,,1.3773715,127.7857193,https://maps.google.com/?cid=0x0:0x6f577318402fb690
perumahan,Komplek perumahan,Desa takimo,"FQ2V+J4W, Bailengit, Kec. Kao Bar., Kabupaten Halmahera Utara, Maluku Utara","Kabupaten Halmahera Utara, Maluku Utara",MALUKU UTARA,,Indonesia,,1.451613,127.7928395,https://maps.google.com/?cid=0x0:0x7e235d103423ce4c
perumahan,Pembangunan Perumahan,Desa Kai,"FV35+MC7, Kai, Kec. Kao Bar., Kabupaten Halmahera Utara, Maluku Utara","Kabupaten Halmahera Utara, Maluku Utara",MALUKU UTARA,,Indonesia,,1.4541711,127.85854,https://maps.google.com/?cid=0x0:0xcdab74fe212a451a
perumahan,Komplek perumahan,STA 0,"8Q8V+2G, Wonosari, Kec. Kao Bar., Kabupaten Halmahera Utara, Maluku Utara","Kabupaten Halmahera Utara, Maluku Utara",MALUKU UTARA,,Indonesia,,1.315051,127.793813,https://maps.google.com/?cid=0x0:0xb05dc0e9391b5a58
perumahan,Komplek perumahan,Rumah danang,"9RR6+X5M, Makarti, Kec. Kao Bar., Kabupaten Halmahera Utara, Maluku Utara","Kabupaten Halmahera Utara, Maluku Utara",MALUKU UTARA,,Indonesia,82194659663.0,1.3924618,127.8104232,https://maps.google.com/?cid=0x0:0x6e134d84e8a73272
perumahan,Komplek perumahan,erta,"6QX8+CF6, Momoda, Kec. Kao Bar., Kabupaten Halmahera Utara, Maluku Utara","Kabupaten Halmahera Utara, Maluku Utara",MALUKU UTARA,,Indonesia,,1.2485459,127.7661396,https://maps.google.com/?cid=0x0:0x4977fdb96cf75405
perumahan,Komplek perumahan,Rumah kiano,"9QMP+357, Beringin Agung, Kec. Kao Bar., Kabupaten Halmahera Utara, Maluku Utara","Kabupaten Halmahera Utara, Maluku Utara",MALUKU UTARA,,Indonesia,,1.3826535,127.7854236,https://maps.google.com/?cid=0x0:0x2bd0177b2f57af16
perumahan,Kantor Perusahaan,desa margomulyo halmahera utara,"9Q2V+479, desa margomulyo, Margo Mulyo, Kec. Kao Bar., Kabupaten Halmahera Utara, Maluku Utara","Kabupaten Halmahera Utara, Maluku Utara",MALUKU UTARA,,Indonesia,,1.3502897,127.7932488,https://maps.google.com/?cid=0x0:0x5b6207cd951e89eb
perumahan,Komplek perumahan,Rumah Ahmad Mustakmin,"8QWW+XH, Margo Mulyo, Kec. Kao Bar., Kabupaten Halmahera Utara, Maluku Utara","Kabupaten Halmahera Utara, Maluku Utara",MALUKU UTARA,,Indonesia,,1.347482,127.796474,https://maps.google.com/?cid=0x0:0x412fb5fdab1b3f85
perumahan,Pembangunan Perumahan,Mr.Munarto,"7QXQ+Q5X, Momoda, Kec. Kao Bar., Kabupaten Halmahera Utara, Maluku Utara","Kabupaten Halmahera Utara, Maluku Utara",MALUKU UTARA,,Indonesia,,1.2990782,127.7890878,https://maps.google.com/?cid=0x0:0x4b2fddd468a4f583
perumahan,perumahan,Kec. Kao Utara,"Kabupaten Halmahera Utara, Maluku Utara","Kabupaten Halmahera Utara, Maluku Utara",MALUKU UTARA,,Indonesia,,1.3982481,128.0027515,https://maps.google.com/?cid=0x0:0x5d873bc773b3c48e
perumahan,Rumah Kayu,RADJAWANGE,"92X2+X6M, Pediwang, Kec. Kao Utara, Kabupaten Halmahera Utara, Maluku Utara","Kabupaten Halmahera Utara, Maluku Utara",MALUKU UTARA,,Indonesia,,1.3999513,128.0005409,https://maps.google.com/?cid=0x0:0xf5617b3d732f9967
perumahan,Komplek perumahan,Lapangan,"8X5H+Q27, Daru, Kec. Kao Utara, Kabupaten Halmahera Utara, Maluku Utara","Kabupaten Halmahera Utara, Maluku Utara",MALUKU UTARA,,Indonesia,,1.3094174,127.9775507,https://maps.google.com/?cid=0x0:0xc3878f29d0e288dd
perumahan,Kantor Pemerintah,Desa Bori-Halmahera Utara,"9XRV+76H, Bori, Kec. Kao Utara, Kabupaten Halmahera Utara, Maluku Utara","Kabupaten Halmahera Utara, Maluku Utara",MALUKU UTARA,,Indonesia,,1.3906874,127.9931125,https://maps.google.com/?cid=0x0:0x9deecf1be306b0e2
perumahan,Komplek perumahan,Rumah Onyo Rumkorem Korwa,"C2J3+222, Gulo, Kec. Kao Utara, Kabupaten Halmahera Utara, Maluku Utara","Kabupaten Halmahera Utara, Maluku Utara",MALUKU UTARA,,Indonesia,,1.4300044,128.002522,https://maps.google.com/?cid=0x0:0xd6b1fd5cf5c94d6f
perumahan,Perhimpunan Pengembang Perumahan,TEMPAT PEMBUATAN TEMPE,"7W53+W9M, Waringin Lamo, Kec. Kao, Kabupaten Halmahera Utara, Maluku Utara","Kabupaten Halmahera Utara, Maluku Utara",MALUKU UTARA,,Indonesia,,1.259847,127.9034322,https://maps.google.com/?cid=0x0:0x792661a12f2cb8c1
perumahan,Komplek perumahan,Rumah Iqbal,"GX46+RP, Sukamaju, Kec. Tobelo Bar., Kabupaten Halmahera Utara, Maluku Utara","Kabupaten Halmahera Utara, Maluku Utara",MALUKU UTARA,,Indonesia,,1.50702,127.961828,https://maps.google.com/?cid=0x0:0x4cac12919efda410
perumahan,Perumahan,chelsea home,"9XVP+696, Pediwang, Kec. Kao Utara, Kabupaten Halmahera Utara, Maluku Utara","Kabupaten Halmahera Utara, Maluku Utara",MALUKU UTARA,,Indonesia,,1.393049,127.985901,https://maps.google.com/?cid=0x0:0x1cafdfdea6197abc
perumahan,Komplek perumahan,Rumah Rupus Ina,"92W3+CGF, Pediwang, Kec. Kao Utara, Kabupaten Halmahera Utara, Maluku Utara","Kabupaten Halmahera Utara, Maluku Utara",MALUKU UTARA,,Indonesia,,1.3961067,128.0031536,https://maps.google.com/?cid=0x0:0x67b4284a1c9a9d97
perumahan,Perumahan,Tasya house,"8XGV+XG9, Doro, Kec. Kao Utara, Kabupaten Halmahera Utara, Maluku Utara","Kabupaten Halmahera Utara, Maluku Utara",MALUKU UTARA,,Indonesia,,1.3262781,127.9929918,https://maps.google.com/?cid=0x0:0xd4d72a50dd033ed4
perumahan,perumahan,Ririn pe rumah,"8XMV+R22, Doro, Kec. Kao Utara, Kabupaten Halmahera Utara, Maluku Utara","Kabupaten Halmahera Utara, Maluku Utara",MALUKU UTARA,,Indonesia,,1.3345244,127.9925295,https://maps.google.com/?cid=0x0:0xfcab9609ab2c53e8
perumahan,Komplek perumahan,Rumah ansye,"9XG9+349, Bori, Kec. Kao Utara, Kabupaten Halmahera Utara, Maluku Utara","Kabupaten Halmahera Utara, Maluku Utara",MALUKU UTARA,,Indonesia,,1.3751698,127.9678652,https://maps.google.com/?cid=0x0:0x2d2091ff3d985818
perumahan,Komplek perumahan,BOSS DAKO PE RUMAH,"92W2+QCX, Pediwang, Kec. Kao Utara, Kabupaten Halmahera Utara, Maluku Utara","Kabupaten Halmahera Utara, Maluku Utara",MALUKU UTARA,,Indonesia,,1.3972327,128.001424,https://maps.google.com/?cid=0x0:0x78953f634aa44c28
perumahan,Komplek perumahan,Kel Gorahe Riambang,"92W2+JWF, Bori, Kec. Kao Utara, Kabupaten Halmahera Utara, Maluku Utara","Kabupaten Halmahera Utara, Maluku Utara",MALUKU UTARA,,Indonesia,,1.396569,128.002288,https://maps.google.com/?cid=0x0:0xafab5a2aff3d6a0f
perumahan,perumahan,Kec. Kao Tlk.,"Kabupaten Halmahera Utara, Maluku Utara","Kabupaten Halmahera Utara, Maluku Utara",MALUKU UTARA,,Indonesia,,1.0572865,127.697129,https://maps.google.com/?cid=0x0:0xb7e89a460242f82
perumahan,Komplek perumahan,Petrosea Camp Kobok,"4P23+HCV, Barumadehe, Kec. Kao Tlk., Kabupaten Halmahera Utara, Maluku Utara","Kabupaten Halmahera Utara, Maluku Utara",MALUKU UTARA,,Indonesia,,1.1014963,127.7035335,https://maps.google.com/?cid=0x0:0xec12466c1aaa32dd
perumahan,Pembangunan Perumahan,Rm sekdes,"3M36+WFC, Unnamed Road, Gamsungi, Kec. Kao Tlk., Kabupaten Halmahera Utara, Maluku Utara","Kabupaten Halmahera Utara, Maluku Utara",MALUKU UTARA,,Indonesia,,1.0548036,127.6611315,https://maps.google.com/?cid=0x0:0x5f778e61b37cf74b
perumahan,Balai masyarakat,Tetewang,"VJJV+2H5, Tetewang, Kec. Kao Tlk., Kabupaten Halmahera Utara, Maluku Utara","Kabupaten Halmahera Utara, Maluku Utara",MALUKU UTARA,,Indonesia,,0.880009,127.6439843,https://maps.google.com/?cid=0x0:0xbd90bff64e81b2fb
perumahan,perumahan,Desa Akelamo kao,"2J4M+3HJ, Akelamo Kao, Kec. Kao Tlk., Kabupaten Halmahera Utara, Maluku Utara","Kabupaten Halmahera Utara, Maluku Utara",MALUKU UTARA,,Indonesia,,1.0052239,127.633904,https://maps.google.com/?cid=0x0:0x7a55c44a33113fba
perumahan,Komplek perumahan,Rumah Rivaldi,"3P22+GVC, Dum Dum, Kec. Kao Tlk., Kabupaten Halmahera Utara, Maluku Utara","Kabupaten Halmahera Utara, Maluku Utara",MALUKU UTARA,,Indonesia,,1.0518836,127.7011965,https://maps.google.com/?cid=0x0:0x54c66cb171002439
perumahan,Kantor Perusahaan,Desa bobaneigo,"RMMP+HJV, Bobaneigo, Kec. Kao Tlk., Kabupaten Halmahera Utara, Maluku Utara","Kabupaten Halmahera Utara, Maluku Utara",MALUKU UTARA,,Indonesia,,0.8339977,127.6865469,https://maps.google.com/?cid=0x0:0x742f840b53091011
perumahan,perumahan,Rumah Rosina Tjuga,"VJJV+2H5, Tetewang, Kec. Kao Tlk., Kabupaten Halmahera Utara, Maluku Utara","Kabupaten Halmahera Utara, Maluku Utara",MALUKU UTARA,,Indonesia,,0.880009,127.6439843,https://maps.google.com/?cid=0x0:0x993be3cf0b19b4cf
perumahan,Pembangunan Perumahan,Thaolaz,"3P55+X7Q, Tiowor, Kec. Kao Tlk., Kabupaten Halmahera Utara, Maluku Utara","Kabupaten Halmahera Utara, Maluku Utara",MALUKU UTARA,,Indonesia,,1.060624,127.70763,https://maps.google.com/?cid=0x0:0x93640c8c8966cf89
perumahan,Rumah Kayu,Rumah R Omar,"VM79+H2, Bobaneigo, Kec. Kao Tlk., Kabupaten Halmahera Utara, Maluku Utara","Kabupaten Halmahera Utara, Maluku Utara",MALUKU UTARA,,Indonesia,81242910764.0,0.8639108,127.6675554,https://maps.google.com/?cid=0x0:0x4234e2075e2a7f10
perumahan,Komplek perumahan,Rumah Iskandar zen,"VJ6X+48P, Bobaneigo, Kec. Kao Tlk., Kabupaten Halmahera Utara, Maluku Utara","Kabupaten Halmahera Utara, Maluku Utara",MALUKU UTARA,,Indonesia,,0.8598363,127.6479665,https://maps.google.com/?cid=0x0:0xd34303ad3872acbc
perumahan,Komplek perumahan,Saman Din,"VM79+G6X, Unnamed Road, Bobaneigo, Kec. Kao Tlk., Kabupaten Halmahera Utara, Maluku Utara","Kabupaten Halmahera Utara, Maluku Utara",MALUKU UTARA,,Indonesia,,0.8638505,127.6680962,https://maps.google.com/?cid=0x0:0xabf0c16e1df41c3a
perumahan,Komplek perumahan,Kek. Betek-Puraras,"Dum Dum, Kec. Kao Tlk., Kabupaten Halmahera Utara, Maluku Utara","Kabupaten Halmahera Utara, Maluku Utara",MALUKU UTARA,,Indonesia,,1.048953,127.704475,https://maps.google.com/?cid=0x0:0xffdce4c397df08bc
perumahan,Komplek perumahan,Keluarga M.said,"VM88+M22, Bobaneigo, Kec. Kao Tlk., Kabupaten Halmahera Barat, Maluku Utara","Kabupaten Halmahera Barat, Maluku Utara",MALUKU UTARA,,Indonesia,,0.8670577,127.664393,https://maps.google.com/?cid=0x0:0x5c256d68f797a78
perumahan,perumahan,Kec. Kao Tlk.,"Kabupaten Halmahera Utara, Maluku Utara","Kabupaten Halmahera Utara, Maluku Utara",MALUKU UTARA,,Indonesia,,1.0572865,127.697129,https://maps.google.com/?cid=0x0:0xb7e89a460242f82
perumahan,Pembangunan Perumahan,Rm sekdes,"3M36+WFC, Unnamed Road, Gamsungi, Kec. Kao Tlk., Kabupaten Halmahera Utara, Maluku Utara","Kabupaten Halmahera Utara, Maluku Utara",MALUKU UTARA,,Indonesia,,1.0548036,127.6611315,https://maps.google.com/?cid=0x0:0x5f778e61b37cf74b
perumahan,Komplek perumahan,Petrosea Camp Kobok,"4P23+HCV, Barumadehe, Kec. Kao Tlk., Kabupaten Halmahera Utara, Maluku Utara","Kabupaten Halmahera Utara, Maluku Utara",MALUKU UTARA,,Indonesia,,1.1014963,127.7035335,https://maps.google.com/?cid=0x0:0xec12466c1aaa32dd
perumahan,Kantor Pemerintah,Desa dum-dum kecamatan kao teluk,"2PX3+FJ, Dum Dum, Kec. Kao Tlk., Kabupaten Halmahera Utara, Maluku Utara","Kabupaten Halmahera Utara, Maluku Utara",MALUKU UTARA,,Indonesia,,1.0486675,127.7041318,https://maps.google.com/?cid=0x0:0x9673742969c574e8
perumahan,Kantor Perusahaan,Desa bobaneigo,"RMMP+HJV, Bobaneigo, Kec. Kao Tlk., Kabupaten Halmahera Utara, Maluku Utara","Kabupaten Halmahera Utara, Maluku Utara",MALUKU UTARA,,Indonesia,,0.8339977,127.6865469,https://maps.google.com/?cid=0x0:0x742f840b53091011
perumahan,perumahan,Desa Akelamo kao,"2J4M+3HJ, Akelamo Kao, Kec. Kao Tlk., Kabupaten Halmahera Utara, Maluku Utara","Kabupaten Halmahera Utara, Maluku Utara",MALUKU UTARA,,Indonesia,,1.0052239,127.633904,https://maps.google.com/?cid=0x0:0x7a55c44a33113fba
perumahan,Rumah Kayu,Rumah R Omar,"VM79+H2, Bobaneigo, Kec. Kao Tlk., Kabupaten Halmahera Utara, Maluku Utara","Kabupaten Halmahera Utara, Maluku Utara",MALUKU UTARA,,Indonesia,81242910764.0,0.8639108,127.6675554,https://maps.google.com/?cid=0x0:0x4234e2075e2a7f10
perumahan,Komplek perumahan,Rumah Rivaldi,"3P22+GVC, Dum Dum, Kec. Kao Tlk., Kabupaten Halmahera Utara, Maluku Utara","Kabupaten Halmahera Utara, Maluku Utara",MALUKU UTARA,,Indonesia,,1.0518836,127.7011965,https://maps.google.com/?cid=0x0:0x54c66cb171002439
perumahan,Pembangunan Perumahan,Rumah L Soleman,"VM87+P5H, Bobaneigo, Kec. Kao Tlk., Kabupaten Halmahera Utara, Maluku Utara","Kabupaten Halmahera Utara, Maluku Utara",MALUKU UTARA,,Indonesia,,0.8668217,127.6629845,https://maps.google.com/?cid=0x0:0x79482b27c52eeff
perumahan,perumahan,Rumah Rosina Tjuga,"VJJV+2H5, Tetewang, Kec. Kao Tlk., Kabupaten Halmahera Utara, Maluku Utara","Kabupaten Halmahera Utara, Maluku Utara",MALUKU UTARA,,Indonesia,,0.880009,127.6439843,https://maps.google.com/?cid=0x0:0x993be3cf0b19b4cf
perumahan,Pembangunan Perumahan,Thaolaz,"3P55+X7Q, Tiowor, Kec. Kao Tlk., Kabupaten Halmahera Utara, Maluku Utara","Kabupaten Halmahera Utara, Maluku Utara",MALUKU UTARA,,Indonesia,,1.060624,127.70763,https://maps.google.com/?cid=0x0:0x93640c8c8966cf89
perumahan,Komplek perumahan,Keluarga M.said,"VM88+M22, Bobaneigo, Kec. Kao Tlk., Kabupaten Halmahera Barat, Maluku Utara","Kabupaten Halmahera Barat, Maluku Utara",MALUKU UTARA,,Indonesia,,0.8670577,127.664393,https://maps.google.com/?cid=0x0:0x5c256d68f797a78
perumahan,Komplek perumahan,Teng's Family,"3P22+GVC, Dum Dum, Kec. Kao Tlk., Kabupaten Halmahera Utara, Maluku Utara","Kabupaten Halmahera Utara, Maluku Utara",MALUKU UTARA,,Indonesia,,1.0526408,127.7011416,https://maps.google.com/?cid=0x0:0x1343d8939000c762
perumahan,Komplek perumahan,Ulfa Kapita,"VM87+XMM, Bobaneigo, Kec. Kao Tlk., Kabupaten Halmahera Utara, Maluku Utara","Kabupaten Halmahera Utara, Maluku Utara",MALUKU UTARA,,Indonesia,,0.867458,127.6641815,https://maps.google.com/?cid=0x0:0xe4160390129ee16e
perumahan,perumahan,Loloda Kepulauan,"Kabupaten Halmahera Utara, Maluku Utara","Kabupaten Halmahera Utara, Maluku Utara",MALUKU UTARA,,Indonesia,,2.2509061,127.7981498,https://maps.google.com/?cid=0x0:0x7f27e9dea84ef656
perumahan,Pembangunan Perumahan,Dafa,"7R67+WJ4, Salube, Loloda Kepulauan, Kabupaten Halmahera Utara, Maluku Utara","Kabupaten Halmahera Utara, Maluku Utara",MALUKU UTARA,,Indonesia,,2.2622514,127.8140784,https://maps.google.com/?cid=0x0:0x60c844f1e6b34037
perumahan,perumahan,Ikram,"6QFJ+GV8, Dama, Loloda Kepulauan, Kabupaten Halmahera Utara, Maluku Utara","Kabupaten Halmahera Utara, Maluku Utara",MALUKU UTARA,,Indonesia,,2.22379,127.7822176,https://maps.google.com/?cid=0x0:0x7404664153e1a2ee
perumahan,perumahan,Rumah Dila,"5QF6+MW7, Dedeta, Loloda Kepulauan, Kabupaten Halmahera Utara, Maluku Utara","Kabupaten Halmahera Utara, Maluku Utara",MALUKU UTARA,,Indonesia,,2.1741559,127.7622971,https://maps.google.com/?cid=0x0:0x83f96d88e61e9910
perumahan,Komplek perumahan,Kediaman Bung Risno,"Dedeta, Loloda Kepulauan, Kabupaten Halmahera Utara, Maluku Utara 97662","Loloda Kepulauan, Kabupaten Halmahera Utara",MALUKU UTARA,97662.0,Indonesia,,2.1741559,127.7622971,https://maps.google.com/?cid=0x0:0x6655ac800c587c5f
perumahan,Gedung Pertemuan,Gedung pertemuan desa fitako,"5Q98+FF5, Fitako, Loloda Kepulauan, Kabupaten Halmahera Utara, Maluku Utara","Kabupaten Halmahera Utara, Maluku Utara",MALUKU UTARA,,Indonesia,,2.16863,127.7662446,https://maps.google.com/?cid=0x0:0x42298c0fcdb240c3
perumahan,perumahan,Rumah Bula,"7R67+WJ4, Salube, Loloda Kepulauan, Kabupaten Halmahera Utara, Maluku Utara","Kabupaten Halmahera Utara, Maluku Utara",MALUKU UTARA,,Indonesia,,2.2622514,127.8140784,https://maps.google.com/?cid=0x0:0x51a469757e290872
perumahan,Komplek perumahan,Kompleks Lorpanpwetamina,"4Q5J+749, Salangadeke, Tobo Tobo, Loloda Kepulauan, Kabupaten Halmahera Utara, Maluku Utara","Kabupaten Halmahera Utara, Maluku Utara",MALUKU UTARA,,Indonesia,,2.1082167,127.7804414,https://maps.google.com/?cid=0x0:0x8bfa5c7289c9319c
perumahan,Pembangunan Perumahan,Sadek,"5QP3+V3, Dagasuli, Loloda Kepulauan, Kabupaten Halmahera Utara, Maluku Utara","Kabupaten Halmahera Utara, Maluku Utara",MALUKU UTARA,,Indonesia,,2.1881491,127.7516647,https://maps.google.com/?cid=0x0:0x7a11333c99733658
perumahan,Komplek perumahan,Nona,"7Q68+GQ, Cera, Loloda Kepulauan, Kabupaten Halmahera Utara, Maluku Utara","Kabupaten Halmahera Utara, Maluku Utara",MALUKU UTARA,,Indonesia,,2.261269,127.7669845,https://maps.google.com/?cid=0x0:0xa4f83f89bc0e645e
perumahan,Komplek perumahan,Kompleks Binongko,"4Q5J+363, Tobo Tobo, Loloda Kepulauan, Kabupaten Halmahera Utara, Maluku Utara","Kabupaten Halmahera Utara, Maluku Utara",MALUKU UTARA,,Indonesia,,2.1066431,127.7802541,https://maps.google.com/?cid=0x0:0x8b05d02920bf72c4
perumahan,Komplek perumahan,Kompleks Tobo-Tobo Kecil,"4Q4J+R95, Tobo Tobo, Loloda Kepulauan, Kabupaten Halmahera Utara, Maluku Utara","Kabupaten Halmahera Utara, Maluku Utara",MALUKU UTARA,,Indonesia,,2.1056272,127.7808375,https://maps.google.com/?cid=0x0:0x3170ee457c633812
perumahan,Komplek perumahan,Kompleks Matador,"4Q5J+363, Tobo Tobo, Loloda Kepulauan, Kabupaten Halmahera Utara, Maluku Utara","Kabupaten Halmahera Utara, Maluku Utara",MALUKU UTARA,,Indonesia,,2.1075697,127.7803995,https://maps.google.com/?cid=0x0:0xe114f545bc43d568
perumahan,Komplek perumahan,Rifka bunga,"5Q79+7H4, Fitako, Loloda Kepulauan, Kabupaten Halmahera Utara, Maluku Utara","Kabupaten Halmahera Utara, Maluku Utara",MALUKU UTARA,,Indonesia,,2.1631364,127.7689379,https://maps.google.com/?cid=0x0:0x2e2c6a08ad6c3025
perumahan,perumahan,Kec. Loloda Utara,"Kabupaten Halmahera Utara, Maluku Utara","Kabupaten Halmahera Utara, Maluku Utara",MALUKU UTARA,,Indonesia,,2.0927761,127.8484263,https://maps.google.com/?cid=0x0:0xb975e42fee13365a
perumahan,Pembangunan Perumahan,Ruma Subander Kofia,"4WV4+34X, Unnamed Road, Galao, Kec. Loloda Utara, Kabupaten Halmahera Utara, Maluku Utara","Kabupaten Halmahera Utara, Maluku Utara",MALUKU UTARA,,Indonesia,81282328463.0,2.1427386,127.905354,https://maps.google.com/?cid=0x0:0xd7ac89626e9e08fc
perumahan,Pembangunan Perumahan,Loleba jaya,"4V48+8V, Dorume, Kec. Loloda Utara, Kabupaten Halmahera Utara, Maluku Utara","Kabupaten Halmahera Utara, Maluku Utara",MALUKU UTARA,,Indonesia,,2.1058679,127.8672215,https://maps.google.com/?cid=0x0:0xb0bb852a2c1f9bbb
perumahan,Komplek perumahan,Rumah pom donal,"3RVW+5RJ, Dorume, Kec. Loloda Utara, Kabupaten Halmahera Utara, Maluku Utara","Kabupaten Halmahera Utara, Maluku Utara",MALUKU UTARA,,Indonesia,,2.0926805,127.8465908,https://maps.google.com/?cid=0x0:0xfef5eec52f297b66
perumahan,Komplek perumahan,Desa Igo,"53V5+G3G, Igo, Loloda Utara, North Halmahera Regency, North Maluku","Kabupaten Halmahera Utara, Maluku Utara",MALUKU UTARA,,Indonesia,,2.1938132,128.0576896,https://maps.google.com/?cid=0x0:0x38339b719cc6c0cf
perumahan,Komplek perumahan,Desa pacao,"5W8J+87V, Unnamed Road, Pocao, Kec. Loloda Utara, Kabupaten Halmahera Utara, Maluku Utara","Kabupaten Halmahera Utara, Maluku Utara",MALUKU UTARA,,Indonesia,82293667655.0,2.1658727,127.9306586,https://maps.google.com/?cid=0x0:0x4cae9899f0e741fc
perumahan,Komplek perumahan,Rumah kel.Dadasa-Pontho,"3X79+HVV, Saluta, Kec. Galela Utara, Kabupaten Halmahera Utara, Maluku Utara","Kabupaten Halmahera Utara, Maluku Utara",MALUKU UTARA,,Indonesia,,2.064584,127.969731,https://maps.google.com/?cid=0x0:0x42d78a1e56dab6b1
perumahan,Pembangunan Perumahan,Alwi lasubu,"5XVH+RC, Supu, Kec. Loloda Utara, Kabupaten Halmahera Utara, Maluku Utara","Kabupaten Halmahera Utara, Maluku Utara",MALUKU UTARA,,Indonesia,,2.1945991,127.9785575,https://maps.google.com/?cid=0x0:0xd771f95feca8ea63
perumahan,Komplek perumahan,RUMAH STRVES,"2RW4+FRQ, Dotia, Kec. Loloda Utara, Kabupaten Halmahera Utara, Maluku Utara","Kabupaten Halmahera Utara, Maluku Utara",MALUKU UTARA,,Indonesia,,2.0464347,127.8056701,https://maps.google.com/?cid=0x0:0x3514cd8bd3af3a91
perumahan,Komplek perumahan,Entry Kapakapa,"4WJP+CCV, Kapa Kapa, Kec. Loloda Utara, Kabupaten Halmahera Utara, Maluku Utara","Kabupaten Halmahera Utara, Maluku Utara",MALUKU UTARA,,Indonesia,,2.131113,127.936038,https://maps.google.com/?cid=0x0:0xa088fde7a9f7923f
perumahan,perumahan,Rumah Dila,"5QH6+QVQ, Fitako, Loloda Kepulauan, Kabupaten Halmahera Utara, Maluku Utara","Kabupaten Halmahera Utara, Maluku Utara",MALUKU UTARA,,Indonesia,,2.1794503,127.7622243,https://maps.google.com/?cid=0x0:0x74da00a9d602e4f5
perumahan,perumahan,Rumah Dila,"5QF6+MW7, Dedeta, Loloda Kepulauan, Kabupaten Halmahera Utara, Maluku Utara","Kabupaten Halmahera Utara, Maluku Utara",MALUKU UTARA,,Indonesia,,2.1741559,127.7622971,https://maps.google.com/?cid=0x0:0x83f96d88e61e9910
perumahan,Pembangunan Perumahan,Ratihyuniarsih,"6X29+QJ, Posi Posi, Kec. Loloda Utara, Kabupaten Halmahera Utara, Maluku Utara","Kabupaten Halmahera Utara, Maluku Utara",MALUKU UTARA,,Indonesia,,2.2019375,127.9690625,https://maps.google.com/?cid=0x0:0x10b33fd3ebf80a01
perumahan,Perhimpunan Pengembang Perumahan,Desa Podol,"5XMH+27F, Podol, Kec. Loloda Utara, Kabupaten Halmahera Utara, Maluku Utara","Kabupaten Halmahera Utara, Maluku Utara",MALUKU UTARA,,Indonesia,,2.1825686,127.9781601,https://maps.google.com/?cid=0x0:0xc188230ed30ccc21
perumahan,Komplek perumahan,Rumah mulqiyah,"5R2M+H8Q, Peleri, Kec. Malifut, Kabupaten Halmahera Utara, Maluku Utara","Kabupaten Halmahera Utara, Maluku Utara",MALUKU UTARA,,Indonesia,,1.1514701,127.8333589,https://maps.google.com/?cid=0x0:0xfc9dc235aa98e2fd
perumahan,perumahan,Kec. Malifut,"Kabupaten Halmahera Utara, Maluku Utara","Kabupaten Halmahera Utara, Maluku Utara",MALUKU UTARA,,Indonesia,,1.0939454,127.776544,https://maps.google.com/?cid=0x0:0xd9110b77277647d2
perumahan,perumahan,Nana Home,"4RWF+J34, Sosol, Kec. Malifut, Kabupaten Halmahera Utara, Maluku Utara","Kabupaten Halmahera Utara, Maluku Utara",MALUKU UTARA,,Indonesia,,1.1465097,127.8227049,https://maps.google.com/?cid=0x0:0x99383561246a3fd7
perumahan,Toko,Malifut,"5R4V+V75, Wangeotak, Kec. Malifut, Kabupaten Halmahera Utara, Maluku Utara","Kabupaten Halmahera Utara, Maluku Utara",MALUKU UTARA,,Indonesia,,1.1571326,127.8432254,https://maps.google.com/?cid=0x0:0x5adc286678a3b907
perumahan,Sekolah bahasa asing,Malifut,"5R29+Q74, Matsa, Kec. Malifut, Kabupaten Halmahera Utara, Maluku Utara","Kabupaten Halmahera Utara, Maluku Utara",MALUKU UTARA,,Indonesia,,1.151878,127.818199,https://maps.google.com/?cid=0x0:0xb9395023408603fa
perumahan,Komplek perumahan,Rm kiu palo,"4RC5+P2, Balisosang, Kec. Malifut, Kabupaten Halmahera Utara, Maluku Utara","Kabupaten Halmahera Utara, Maluku Utara",MALUKU UTARA,,Indonesia,,1.1217447,127.8075357,https://maps.google.com/?cid=0x0:0x59ae76d37a83254b
perumahan,Asosiasi perumahan,Rumah Pak Taha,"5R6H+HQJ, Talapao, Kec. Malifut, Kabupaten Halmahera Utara, Maluku Utara","Kabupaten Halmahera Utara, Maluku Utara",MALUKU UTARA,,Indonesia,,1.1613141,127.8291883,https://maps.google.com/?cid=0x0:0xe37467a121c5efdc
perumahan,Vila,Rumahnya nugetz,"4RXF+4J7, Sosol, Kec. Malifut, Kabupaten Halmahera Utara, Maluku Utara","Kabupaten Halmahera Utara, Maluku Utara",MALUKU UTARA,,Indonesia,,1.1479777,127.8240468,https://maps.google.com/?cid=0x0:0x2678608ce87d23
perumahan,perumahan,Yusri Bailussy,"5R3H+JPH, Ngofakiaha, Kec. Malifut, Kabupaten Halmahera Utara, Maluku Utara","Kabupaten Halmahera Utara, Maluku Utara",MALUKU UTARA,,Indonesia,,1.1540529,127.8293533,https://maps.google.com/?cid=0x0:0x40e68c224cd10e67
perumahan,Komplek perumahan,Stokis hpai,"Bobawa, Kec. Malifut, Kabupaten Halmahera Utara, Maluku Utara","Kabupaten Halmahera Utara, Maluku Utara",MALUKU UTARA,,Indonesia,,1.1601545,127.828858,https://maps.google.com/?cid=0x0:0xc945143264077929
perumahan,Vila,Rumah Olen lasa,"4RXF+4J7, Sosol, Kec. Malifut, Kabupaten Halmahera Utara, Maluku Utara","Kabupaten Halmahera Utara, Maluku Utara",MALUKU UTARA,,Indonesia,,1.1483548,127.823844,https://maps.google.com/?cid=0x0:0x4f0ac116269a046d
perumahan,Komplek perumahan,Rumah Iphyet,"5R7H+8G7, Talapao, Kec. Malifut, Kabupaten Halmahera Utara, Maluku Utara","Kabupaten Halmahera Utara, Maluku Utara",MALUKU UTARA,,Indonesia,,1.1632954,127.8288004,https://maps.google.com/?cid=0x0:0x495702d0b7243797
perumahan,Perhimpunan Pengembang Perumahan,Zahra,"4RXH+GQR, Ngofagita, Kec. Malifut, Kabupaten Halmahera Utara, Maluku Utara","Kabupaten Halmahera Utara, Maluku Utara",MALUKU UTARA,,Indonesia,,1.1493913,127.8296433,https://maps.google.com/?cid=0x0:0x3652b0a64ffb8eb
perumahan,Komplek perumahan,Rumah Idhy,"5R4M+35H, Malapa, Kec. Malifut, Kabupaten Halmahera Utara, Maluku Utara","Kabupaten Halmahera Utara, Maluku Utara",MALUKU UTARA,,Indonesia,,1.1551814,127.8329889,https://maps.google.com/?cid=0x0:0x2c8f64a931df2ad7
perumahan,perumahan,Tobelo,"Gamsungi, Kec. Tobelo, Kabupaten Halmahera Utara, Maluku Utara","Kabupaten Halmahera Utara, Maluku Utara",MALUKU UTARA,,Indonesia,,1.725721,128.001404,https://maps.google.com/?cid=0x0:0xed92b856242bad82
perumahan,Pembangunan Perumahan,Perumahan Taman Halut Asri,"PXCW+67R, Gosoma, Kec. Tobelo, Kabupaten Halmahera Utara, Maluku Utara","Kabupaten Halmahera Utara, Maluku Utara",MALUKU UTARA,,Indonesia,85240008506.0,1.7206148,127.9956341,https://maps.google.com/?cid=0x0:0x525b821352717eb7
perumahan,Komplek perumahan,Perumahan Griya Bhayangkara Tobelo,"Gosoma, Kec. Tobelo, Kabupaten Halmahera Utara, Maluku Utara","Kabupaten Halmahera Utara, Maluku Utara",MALUKU UTARA,,Indonesia,,1.720787,127.9919826,https://maps.google.com/?cid=0x0:0x663d21ec8adb12c2
perumahan,Komplek perumahan,Perumahan Medium Residence Tobelo,"WKO, Kec. Tobelo Tengah, Kabupaten Halmahera Utara, Maluku Utara","Kabupaten Halmahera Utara, Maluku Utara",MALUKU UTARA,,Indonesia,82349218735.0,1.6999512,128.0052527,https://maps.google.com/?cid=0x0:0x895ac3e3c78a1fe1
perumahan,Perumahan,Perumahan Bhayangkara,"PXCV+VMX, Gamsungi, Kec. Tobelo, Kabupaten Halmahera Utara, Maluku Utara","Kabupaten Halmahera Utara, Maluku Utara",MALUKU UTARA,,Indonesia,,1.7215182,127.9930213,https://maps.google.com/?cid=0x0:0x57b65cc4eafff885
perumahan,Komplek perumahan,Nisraland Residence,"PXCR+RFH, Gamsungi, Kec. Tobelo, Kabupaten Halmahera Utara, Maluku Utara","Kabupaten Halmahera Utara, Maluku Utara",MALUKU UTARA,,Indonesia,82310322186.0,1.7220511,127.9912226,https://maps.google.com/?cid=0x0:0x5f78782c129a4b75
perumahan,Perumahan,Perumahan Umum Asri Tobelo,"P293+2XM, Gosoma, Kec. Tobelo, Kabupaten Halmahera Utara, Maluku Utara","Kabupaten Halmahera Utara, Maluku Utara",MALUKU UTARA,,Indonesia,,1.7175998,128.0049345,https://maps.google.com/?cid=0x0:0x4b42560a20000ced
perumahan,Komplek perumahan,rumah,"P2C3+QMH, Gosoma, Kec. Tobelo, Kabupaten Halmahera Utara, Maluku Utara","Kabupaten Halmahera Utara, Maluku Utara",MALUKU UTARA,,Indonesia,,1.7226,128.003912,https://maps.google.com/?cid=0x0:0x9081a4648f0de5f2
perumahan,Komplek perumahan,Mardianto,"P2G2+7HJ, Gamsungi, Kec. Tobelo, Kabupaten Halmahera Utara, Maluku Utara","Kabupaten Halmahera Utara, Maluku Utara",MALUKU UTARA,,Indonesia,,1.725721,128.001404,https://maps.google.com/?cid=0x0:0xd21f5a19eb0748b4
perumahan,Komplek perumahan,Rumahku,"P2G2+7HJ, Gamsungi, Kec. Tobelo, Kabupaten Halmahera Utara, Maluku Utara","Kabupaten Halmahera Utara, Maluku Utara",MALUKU UTARA,,Indonesia,,1.725721,128.001404,https://maps.google.com/?cid=0x0:0x2c9d50470b783076
perumahan,Komplek perumahan,Blakang hibualamo,"P2G2+7HJ, Gamsungi, Kec. Tobelo, Kabupaten Halmahera Utara, Maluku Utara","Kabupaten Halmahera Utara, Maluku Utara",MALUKU UTARA,,Indonesia,,1.725721,128.001404,https://maps.google.com/?cid=0x0:0x4934ba7b7b8212d7
perumahan,Komplek perumahan,Linaino,"P2G2+7HJ, Gamsungi, Kec. Tobelo, Kabupaten Halmahera Utara, Maluku Utara","Kabupaten Halmahera Utara, Maluku Utara",MALUKU UTARA,,Indonesia,,1.725721,128.001404,https://maps.google.com/?cid=0x0:0x33b72516e506b06e
perumahan,Komplek perumahan,Vikie Lesnussa,"P2G2+7HJ, Jalan Belakang Samping Gudang Sama, Sejati, Kec. Tobelo, Kabupaten Halmahera Utara, Maluku Utara","Kabupaten Halmahera Utara, Maluku Utara",MALUKU UTARA,,Indonesia,,1.725721,128.001404,https://maps.google.com/?cid=0x0:0xef1a9b0759bbaea4
perumahan,Kantor Pemerintah,Rumah Sejahtera. PT,"P2G2+8F9, JL Polresta, Gamsungi, Kec. Tobelo, Kabupaten Halmahera Utara, Maluku Utara","Kabupaten Halmahera Utara, Maluku Utara",MALUKU UTARA,,Indonesia,9242622557.0,1.725794,128.00123,https://maps.google.com/?cid=0x0:0x795377961f59e181
perumahan,perumahan,Kec. Tobelo Bar.,"Kabupaten Halmahera Utara, Maluku Utara","Kabupaten Halmahera Utara, Maluku Utara",MALUKU UTARA,,Indonesia,,1.5410827,127.9493454,https://maps.google.com/?cid=0x0:0x253218d19bcb2a3e
perumahan,Universitas,Halmahera utara,"GV4V+XFF, Kusuri, Kec. Tobelo Bar., Kabupaten Halmahera Utara, Maluku Utara","Kabupaten Halmahera Utara, Maluku Utara",MALUKU UTARA,,Indonesia,82267362132.0,1.5074308,127.8936663,https://maps.google.com/?cid=0x0:0x471fb5bcc3449c6a
perumahan,Komplek perumahan,Rumah Iqbal,"GX46+RP, Sukamaju, Kec. Tobelo Bar., Kabupaten Halmahera Utara, Maluku Utara","Kabupaten Halmahera Utara, Maluku Utara",MALUKU UTARA,,Indonesia,,1.50702,127.961828,https://maps.google.com/?cid=0x0:0x4cac12919efda410
perumahan,Komplek perumahan,Lorong talaga,"GXR2+2Q7, Togoliua, Kec. Tobelo Bar., Kabupaten Halmahera Utara, Maluku Utara","Kabupaten Halmahera Utara, Maluku Utara",MALUKU UTARA,,Indonesia,,1.5400352,127.9519138,https://maps.google.com/?cid=0x0:0x35cacc38cedcfca7
perumahan,Komplek perumahan,Hero Ino,"GVWP+88J, Upt Togoliua, Kec. Tobelo Bar., Kabupaten Halmahera Utara, Maluku Utara","Kabupaten Halmahera Utara, Maluku Utara",MALUKU UTARA,,Indonesia,,1.5458404,127.885752,https://maps.google.com/?cid=0x0:0x629f77616a97afb2
perumahan,Komplek perumahan,Yusufnurmaulana,"GX37+R73, Sukamaju, Kec. Tobelo Bar., Kabupaten Halmahera Utara, Maluku Utara","Kabupaten Halmahera Utara, Maluku Utara",MALUKU UTARA,,Indonesia,,1.5045203,127.9631677,https://maps.google.com/?cid=0x0:0xc468b804dba3c496
perumahan,Komplek perumahan,Rut,"GVCX+37V, Kusuri, Kec. Tobelo Bar., Kabupaten Halmahera Utara, Maluku Utara","Kabupaten Halmahera Utara, Maluku Utara",MALUKU UTARA,,Indonesia,,1.5202455,127.8981784,https://maps.google.com/?cid=0x0:0x907b035d5a2a1f13
perumahan,Gedung Apartemen,Gamsungi 2,"FXWH+GRG, Sukamaju, Kec. Tobelo Bar., Kabupaten Halmahera Utara, Maluku Utara","Kabupaten Halmahera Utara, Maluku Utara",MALUKU UTARA,,Indonesia,,1.4963074,127.9795871,https://maps.google.com/?cid=0x0:0x485c68959be05046
perumahan,Komplek perumahan,Boys hohidai,"FWPC+PF, Kusuri, Kec. Tobelo Bar., Kabupaten Halmahera Utara, Maluku Utara","Kabupaten Halmahera Utara, Maluku Utara",MALUKU UTARA,,Indonesia,,1.4868176,127.9210618,https://maps.google.com/?cid=0x0:0xe76052acc5bb940c
perumahan,Komplek perumahan,Rumah padat,"H28M+GXJ, Todokuiha, Kec. Tobelo Tim., Kabupaten Halmahera Utara, Maluku Utara","Kabupaten Halmahera Utara, Maluku Utara",MALUKU UTARA,,Indonesia,,1.5668682,128.0352108,https://maps.google.com/?cid=0x0:0x553bdecba3995c67
perumahan,Komplek perumahan,Rumah Leo Duan,"JX6F+WQ4, Lemah Ino, Kec. Tobelo Sel., Kabupaten Halmahera Utara, Maluku Utara","Kabupaten Halmahera Utara, Maluku Utara",MALUKU UTARA,,Indonesia,,1.6122074,127.9744957,https://maps.google.com/?cid=0x0:0x1538eecb07ec8dd4
perumahan,Komplek perumahan,Desa takimo,"FQ2V+J4W, Bailengit, Kec. Kao Bar., Kabupaten Halmahera Utara, Maluku Utara","Kabupaten Halmahera Utara, Maluku Utara",MALUKU UTARA,,Indonesia,,1.451613,127.7928395,https://maps.google.com/?cid=0x0:0x7e235d103423ce4c
perumahan,Komplek perumahan,Tamalonggehe Pandey,"GV4V+XFF, Kusuri, Kec. Tobelo Bar., Kabupaten Halmahera Utara, Maluku Utara","Kabupaten Halmahera Utara, Maluku Utara",MALUKU UTARA,,Indonesia,,1.5074308,127.8936663,https://maps.google.com/?cid=0x0:0xf8f6f795304a847e
perumahan,Komplek perumahan,Perumahan Medium Residence Tobelo,"WKO, Kec. Tobelo Tengah, Kabupaten Halmahera Utara, Maluku Utara","Kabupaten Halmahera Utara, Maluku Utara",MALUKU UTARA,,Indonesia,82349218735.0,1.6999512,128.0052527,https://maps.google.com/?cid=0x0:0x895ac3e3c78a1fe1
perumahan,perumahan,Kec. Tobelo Sel.,"Kabupaten Halmahera Utara, Maluku Utara","Kabupaten Halmahera Utara, Maluku Utara",MALUKU UTARA,,Indonesia,,1.6281283,127.980575,https://maps.google.com/?cid=0x0:0x1ecb6049a3d26ca1
perumahan,Komplek perumahan,Kompleks tabalingo,"MX8R+2GH, Pale, Kec. Tobelo Sel., Kabupaten Halmahera Utara, Maluku Utara","Kabupaten Halmahera Utara, Maluku Utara",MALUKU UTARA,,Indonesia,,1.6656525,127.9924349,https://maps.google.com/?cid=0x0:0x63fbd2606db1c0f1
perumahan,Pembangunan Perumahan,Rumah Gian,"JXJM+VR5, Kupa Kupa, Kec. Tobelo Sel., Kabupaten Halmahera Utara, Maluku Utara","Kabupaten Halmahera Utara, Maluku Utara",MALUKU UTARA,,Indonesia,,1.6327015,127.9838948,https://maps.google.com/?cid=0x0:0x451ceae3134d3901
perumahan,Komplek perumahan,Rumah Leo Duan,"JX6F+WQ4, Lemah Ino, Kec. Tobelo Sel., Kabupaten Halmahera Utara, Maluku Utara","Kabupaten Halmahera Utara, Maluku Utara",MALUKU UTARA,,Indonesia,,1.6122074,127.9744957,https://maps.google.com/?cid=0x0:0x1538eecb07ec8dd4
perumahan,Komplek perumahan,Herman Tjangau,"Kupa Kupa Sel., Kec. Tobelo Sel., Kabupaten Halmahera Utara, Maluku Utara","Kabupaten Halmahera Utara, Maluku Utara",MALUKU UTARA,,Indonesia,,1.6269645,127.9826603,https://maps.google.com/?cid=0x0:0xa8bfc737efb26191
perumahan,Komplek perumahan,Petrus Sumtaki,"JXGQ+724, Unnamed Road, Kupa Kupa Sel., Kec. Tobelo Sel., Kabupaten Halmahera Utara, Maluku Utara","Kabupaten Halmahera Utara, Maluku Utara",MALUKU UTARA,,Indonesia,,1.6256332,127.9875723,https://maps.google.com/?cid=0x0:0x5c718fbfaeae3d9c
perumahan,Pembangunan Perumahan,TUTUHURO,"MX8R+2R3, Jl. Raya Trans Halmahera, Gamhoku, Kec. Tobelo Sel., Kabupaten Halmahera Utara, Maluku Utara","Kabupaten Halmahera Utara, Maluku Utara",MALUKU UTARA,,Indonesia,85240241852.0,1.6650236,127.9920508,https://maps.google.com/?cid=0x0:0x85fc012354d2d1e0
perumahan,Komplek perumahan,Keluarga Ternate Sadaro,"MXCV+XH4, Pale, Kec. Tobelo Sel., Kabupaten Halmahera Utara, Maluku Utara","Kabupaten Halmahera Utara, Maluku Utara",MALUKU UTARA,,Indonesia,,1.6723982,127.9939558,https://maps.google.com/?cid=0x0:0xd1b0162c718bce2e
perumahan,Komplek perumahan,Kontrakan pekerja nico factory tobelo,"JXGP+GV3, Kupa Kupa Sel., Kec. Tobelo Sel., Kabupaten Halmahera Utara, Maluku Utara","Kabupaten Halmahera Utara, Maluku Utara",MALUKU UTARA,,Indonesia,,1.627081,127.9860029,https://maps.google.com/?cid=0x0:0x25da9aad8bfe4de9
perumahan,Komplek perumahan,Rumah ayang,"JX2W+2H5, Leleoto, Kec. Tobelo Sel., Kabupaten Halmahera Utara, Maluku Utara","Kabupaten Halmahera Utara, Maluku Utara",MALUKU UTARA,,Indonesia,,1.600549,127.997738,https://maps.google.com/?cid=0x0:0x5b2bee16543bbb32
perumahan,perumahan,KOMPLEKXLORPAN,"JXQW+Q39, Toma Halu, Kec. Tobelo Sel., Kabupaten Halmahera Utara, Maluku Utara","Kabupaten Halmahera Utara, Maluku Utara",MALUKU UTARA,,Indonesia,,1.6394068,127.9952451,https://maps.google.com/?cid=0x0:0x765ae17683805e0
perumahan,perumahan,KIOS SPANYOL BARZIL,"JX6F+6HW, Tobelo - Podiwang, Lemah Ino, Kec. Tobelo Sel., Kabupaten Halmahera Utara, Maluku Utara","Kabupaten Halmahera Utara, Maluku Utara",MALUKU UTARA,,Indonesia,,1.6106052,127.9739418,https://maps.google.com/?cid=0x0:0x2be6b1a843e521a8
perumahan,Komplek perumahan,Manery - Balida home,"JXWV+4RF, Efi Efi, Kec. Tobelo Sel., Kabupaten Halmahera Utara, Maluku Utara","Kabupaten Halmahera Utara, Maluku Utara",MALUKU UTARA,,Indonesia,,1.6454639,127.9940734,https://maps.google.com/?cid=0x0:0xe060431c6766f137
perumahan,Komplek perumahan,Perumahan Medium Residence Tobelo,"WKO, Kec. Tobelo Tengah, Kabupaten Halmahera Utara, Maluku Utara","Kabupaten Halmahera Utara, Maluku Utara",MALUKU UTARA,,Indonesia,82349218735.0,1.6999512,128.0052527,https://maps.google.com/?cid=0x0:0x895ac3e3c78a1fe1
perumahan,perumahan,Kec. Tobelo Tim.,"Kabupaten Halmahera Utara, Maluku Utara","Kabupaten Halmahera Utara, Maluku Utara",MALUKU UTARA,,Indonesia,,1.5702306,128.0348143,https://maps.google.com/?cid=0x0:0x3b948dd04e667beb
perumahan,Pembangunan Perumahan,Perumahan Taman Halut Asri,"PXCW+67R, Gosoma, Kec. Tobelo, Kabupaten Halmahera Utara, Maluku Utara","Kabupaten Halmahera Utara, Maluku Utara",MALUKU UTARA,,Indonesia,85240008506.0,1.7206148,127.9956341,https://maps.google.com/?cid=0x0:0x525b821352717eb7
perumahan,Komplek perumahan,Rumah padat,"H28M+GXJ, Todokuiha, Kec. Tobelo Tim., Kabupaten Halmahera Utara, Maluku Utara","Kabupaten Halmahera Utara, Maluku Utara",MALUKU UTARA,,Indonesia,,1.5668682,128.0352108,https://maps.google.com/?cid=0x0:0x553bdecba3995c67
perumahan,Komplek perumahan,Perumahan Graha Permata Gosoma,"PX7X+746, Gosoma, Kec. Tobelo, Kabupaten Halmahera Utara, Maluku Utara","Kabupaten Halmahera Utara, Maluku Utara",MALUKU UTARA,,Indonesia,,1.7131615,127.9977515,https://maps.google.com/?cid=0x0:0xad790bc0b97dc95
perumahan,Komplek perumahan,Rumah ayang,"JX2W+2H5, Leleoto, Kec. Tobelo Sel., Kabupaten Halmahera Utara, Maluku Utara","Kabupaten Halmahera Utara, Maluku Utara",MALUKU UTARA,,Indonesia,,1.600549,127.997738,https://maps.google.com/?cid=0x0:0x5b2bee16543bbb32
perumahan,Komplek perumahan,Rumah Leo Duan,"JX6F+WQ4, Lemah Ino, Kec. Tobelo Sel., Kabupaten Halmahera Utara, Maluku Utara","Kabupaten Halmahera Utara, Maluku Utara",MALUKU UTARA,,Indonesia,,1.6122074,127.9744957,https://maps.google.com/?cid=0x0:0x1538eecb07ec8dd4
perumahan,Komplek perumahan,Rumah George Mitjo,"H2GG+R4M, Mawea, Kec. Tobelo Tim., Kabupaten Halmahera Utara, Maluku Utara","Kabupaten Halmahera Utara, Maluku Utara",MALUKU UTARA,,Indonesia,,1.5770832,128.0252816,https://maps.google.com/?cid=0x0:0xfdee7b216ab97577
perumahan,Komplek perumahan,Perumahan Medium Residence Tobelo,"WKO, Kec. Tobelo Tengah, Kabupaten Halmahera Utara, Maluku Utara","Kabupaten Halmahera Utara, Maluku Utara",MALUKU UTARA,,Indonesia,82349218735.0,1.6999512,128.0052527,https://maps.google.com/?cid=0x0:0x895ac3e3c78a1fe1
perumahan,Komplek perumahan,Pastori GMIH Pniel Leleoto,"HXVG+287, Leleoto, Kec. Tobelo Sel., Kabupaten Halmahera Utara, Maluku Utara","Kabupaten Halmahera Utara, Maluku Utara",MALUKU UTARA,,Indonesia,,1.5925349,127.9758103,https://maps.google.com/?cid=0x0:0x1659c5fa20beaf99
perumahan,Komplek perumahan,Petrus Sumtaki,"JXGQ+724, Unnamed Road, Kupa Kupa Sel., Kec. Tobelo Sel., Kabupaten Halmahera Utara, Maluku Utara","Kabupaten Halmahera Utara, Maluku Utara",MALUKU UTARA,,Indonesia,,1.6256332,127.9875723,https://maps.google.com/?cid=0x0:0x5c718fbfaeae3d9c
perumahan,Gedung Apartemen,Gamsungi 2,"FXWH+GRG, Sukamaju, Kec. Tobelo Bar., Kabupaten Halmahera Utara, Maluku Utara","Kabupaten Halmahera Utara, Maluku Utara",MALUKU UTARA,,Indonesia,,1.4963074,127.9795871,https://maps.google.com/?cid=0x0:0x485c68959be05046
perumahan,Komplek perumahan,Rumah Iqbal,"GX46+RP, Sukamaju, Kec. Tobelo Bar., Kabupaten Halmahera Utara, Maluku Utara","Kabupaten Halmahera Utara, Maluku Utara",MALUKU UTARA,,Indonesia,,1.50702,127.961828,https://maps.google.com/?cid=0x0:0x4cac12919efda410
perumahan,Komplek perumahan,Kontrakan pekerja nico factory tobelo,"JXGP+GV3, Kupa Kupa Sel., Kec. Tobelo Sel., Kabupaten Halmahera Utara, Maluku Utara","Kabupaten Halmahera Utara, Maluku Utara",MALUKU UTARA,,Indonesia,,1.627081,127.9860029,https://maps.google.com/?cid=0x0:0x25da9aad8bfe4de9
perumahan,perumahan,KIOS SPYOL BRAZIL,"JX6F+6HW, Lemah Ino, Kec. Tobelo, Kabupaten Halmahera Utara, Maluku Utara","Kabupaten Halmahera Utara, Maluku Utara",MALUKU UTARA,,Indonesia,,1.6106143,127.9739568,https://maps.google.com/?cid=0x0:0x31ed7fe834217a2c
perumahan,perumahan,Kec. Tobelo Tengah,"Kabupaten Halmahera Utara, Maluku Utara","Kabupaten Halmahera Utara, Maluku Utara",MALUKU UTARA,,Indonesia,,1.7074794,128.0127501,https://maps.google.com/?cid=0x0:0xef293bed1374db12
perumahan,Komplek perumahan,Perumahan Griya Bhayangkara Tobelo,"Gosoma, Kec. Tobelo, Kabupaten Halmahera Utara, Maluku Utara","Kabupaten Halmahera Utara, Maluku Utara",MALUKU UTARA,,Indonesia,,1.720787,127.9919826,https://maps.google.com/?cid=0x0:0x663d21ec8adb12c2
perumahan,Komplek perumahan,Perumahan Graha Permata Gosoma,"PX7X+746, Gosoma, Kec. Tobelo, Kabupaten Halmahera Utara, Maluku Utara","Kabupaten Halmahera Utara, Maluku Utara",MALUKU UTARA,,Indonesia,,1.7131615,127.9977515,https://maps.google.com/?cid=0x0:0xad790bc0b97dc95
perumahan,Perumahan,Rumah Alut,"JL. Djumati Lamali No.7, Gosoma, Kec. Tobelo, Kabupaten Halmahera Utara, Maluku Utara 97762","Gosoma, Kec. Tobelo, Kabupaten Halmahera Utara",MALUKU UTARA,97762.0,Indonesia,,1.7193256,128.0057702,https://maps.google.com/?cid=0x0:0xaf0cf4baec0fb003
perumahan,Komplek perumahan,Perumahan Medium Residence Tobelo,"WKO, Kec. Tobelo Tengah, Kabupaten Halmahera Utara, Maluku Utara","Kabupaten Halmahera Utara, Maluku Utara",MALUKU UTARA,,Indonesia,82349218735.0,1.6999512,128.0052527,https://maps.google.com/?cid=0x0:0x895ac3e3c78a1fe1
perumahan,Komplek perumahan,tobelo wosia,"P267+6MV, Wosia, Kec. Tobelo Tengah, Kabupaten Halmahera Utara, Maluku Utara","Kabupaten Halmahera Utara, Maluku Utara",MALUKU UTARA,,Indonesia,,1.710602,128.0141779,https://maps.google.com/?cid=0x0:0x8d321a54ffaf863a
perumahan,Pembangunan Perumahan,Rumah putih,"P297+WF7, Rawajaya, Kec. Tobelo Utara, Kabupaten Halmahera Utara, Maluku Utara","Kabupaten Halmahera Utara, Maluku Utara",MALUKU UTARA,,Indonesia,,1.7197875,128.0136729,https://maps.google.com/?cid=0x0:0xd15837e751fb28f7
perumahan,Pembangunan Perumahan,Nhylam Home,"P233+3FP, WKO, Kec. Tobelo Tengah, Kabupaten Halmahera Utara, Maluku Utara","Kabupaten Halmahera Utara, Maluku Utara",MALUKU UTARA,,Indonesia,82291119439.0,1.7027056,128.0037126,https://maps.google.com/?cid=0x0:0xfea1b980fb609cda
perumahan,Komplek perumahan,Josh_Kios,"PX3V+JX, WKO, Kec. Tobelo Tengah, Kabupaten Halmahera Utara, Maluku Utara","Kabupaten Halmahera Utara, Maluku Utara",MALUKU UTARA,,Indonesia,,1.7040169,127.9947014,https://maps.google.com/?cid=0x0:0xff2897d7586a6fcf
perumahan,Komplek perumahan,Rmh. Pdt. S.Banggai,"P234+Q33, WKO, Kec. Tobelo Tengah, Kabupaten Halmahera Utara, Maluku Utara","Kabupaten Halmahera Utara, Maluku Utara",MALUKU UTARA,,Indonesia,,1.7043852,128.0051822,https://maps.google.com/?cid=0x0:0xc3a878e95344942e
perumahan,Komplek perumahan,Wko,"P232+JWV, WKO, Kec. Tobelo Tengah, Kabupaten Halmahera Utara, Maluku Utara","Kabupaten Halmahera Utara, Maluku Utara",MALUKU UTARA,,Indonesia,,1.7041027,128.0022873,https://maps.google.com/?cid=0x0:0x907e139febe1f245
perumahan,Komplek perumahan,Mayhome,"M2R5+W36, Lina Ino, Kec. Tobelo Tengah, Kabupaten Halmahera Utara, Maluku Utara","Kabupaten Halmahera Utara, Maluku Utara",MALUKU UTARA,,Indonesia,,1.6942127,128.0123475,https://maps.google.com/?cid=0x0:0x59e8975a7bd2cf4
perumahan,Komplek perumahan,Perumahan Harmoni Tobelo,"P275+PFW, Gosoma, Kec. Tobelo, Kabupaten Halmahera Utara, Maluku Utara","Kabupaten Halmahera Utara, Maluku Utara",MALUKU UTARA,,Indonesia,,1.7143594,128.0086907,https://maps.google.com/?cid=0x0:0xb0b82ba7f8ad6540
perumahan,Pembangunan Perumahan,Vandy Boediman,"P264+94Q, WKO, Kec. Tobelo Tengah, Kabupaten Halmahera Utara, Maluku Utara","Kabupaten Halmahera Utara, Maluku Utara",MALUKU UTARA,,Indonesia,82290654066.0,1.7109746,128.0053451,https://maps.google.com/?cid=0x0:0x5adcf37f454259f1
perumahan,perumahan,Kec. Tobelo Utara,"Kabupaten Halmahera Utara, Maluku Utara","Kabupaten Halmahera Utara, Maluku Utara",MALUKU UTARA,,Indonesia,,1.7634729,127.9819399,https://maps.google.com/?cid=0x0:0xd08db8115ea8b44b
perumahan,Pembangunan Perumahan,Perumahan Taman Halut Asri,"PXCW+67R, Gosoma, Kec. Tobelo, Kabupaten Halmahera Utara, Maluku Utara","Kabupaten Halmahera Utara, Maluku Utara",MALUKU UTARA,,Indonesia,85240008506.0,1.7206148,127.9956341,https://maps.google.com/?cid=0x0:0x525b821352717eb7
perumahan,Komplek perumahan,Perumahan Griya Bhayangkara Tobelo,"Gosoma, Kec. Tobelo, Kabupaten Halmahera Utara, Maluku Utara","Kabupaten Halmahera Utara, Maluku Utara",MALUKU UTARA,,Indonesia,,1.720787,127.9919826,https://maps.google.com/?cid=0x0:0x663d21ec8adb12c2
perumahan,Komplek perumahan,Rumah Dinas KPPN Tobelo,"P2C4+WX4, Gosoma, Kec. Tobelo, Kabupaten Halmahera Utara, Maluku Utara","Kabupaten Halmahera Utara, Maluku Utara",MALUKU UTARA,,Indonesia,,1.7222649,128.0074643,https://maps.google.com/?cid=0x0:0x53cde9f50fb4e46f
perumahan,Perumahan,Rumah Alut,"JL. Djumati Lamali No.7, Gosoma, Kec. Tobelo, Kabupaten Halmahera Utara, Maluku Utara 97762","Gosoma, Kec. Tobelo, Kabupaten Halmahera Utara",MALUKU UTARA,97762.0,Indonesia,,1.7193256,128.0057702,https://maps.google.com/?cid=0x0:0xaf0cf4baec0fb003
perumahan,Komplek perumahan,Desa tolonuo kampung tengah,"Q2J5+J28, Tolonuo, Kec. Tobelo Utara, Kabupaten Halmahera Utara, Maluku Utara","Kabupaten Halmahera Utara, Maluku Utara",MALUKU UTARA,,Indonesia,,1.7815256,128.0075815,https://maps.google.com/?cid=0x0:0x201d298ba7f471a3
perumahan,Pembangunan Perumahan,RWT,"PXVW+V97, Wari, Kec. Tobelo, Kabupaten Halmahera Utara, Maluku Utara","Kabupaten Halmahera Utara, Maluku Utara",MALUKU UTARA,,Indonesia,,1.7440033,127.9963345,https://maps.google.com/?cid=0x0:0xdb218792ccdcd43a
perumahan,Komplek perumahan,Gorua belakan,"QX5P+W6P, Gorua Sel., Kec. Tobelo Utara, Kabupaten Halmahera Utara, Maluku Utara","Kabupaten Halmahera Utara, Maluku Utara",MALUKU UTARA,,Indonesia,,1.7598485,127.9855845,https://maps.google.com/?cid=0x0:0x43bc59d0fd3eb6ac
perumahan,Komplek perumahan,Rumdin imigrasi,"QX6P+GH3, Gorua Sel., Kec. Tobelo Utara, Kabupaten Halmahera Utara, Maluku Utara","Kabupaten Halmahera Utara, Maluku Utara",MALUKU UTARA,,Indonesia,,1.7611825,127.987172,https://maps.google.com/?cid=0x0:0x35e1292fabf3e194
perumahan,Perhimpunan Pengembang Perumahan,RumahKyu,"P2H4+W3P, Gamsungi, Kec. Tobelo, Kabupaten Halmahera Utara, Maluku Utara","Kabupaten Halmahera Utara, Maluku Utara",MALUKU UTARA,,Indonesia,,1.7297558,128.0051861,https://maps.google.com/?cid=0x0:0xddd89df83c0f8701
perumahan,Komplek perumahan,Perumahan Medium Residence Tobelo,"WKO, Kec. Tobelo Tengah, Kabupaten Halmahera Utara, Maluku Utara","Kabupaten Halmahera Utara, Maluku Utara",MALUKU UTARA,,Indonesia,82349218735.0,1.6999512,128.0052527,https://maps.google.com/?cid=0x0:0x895ac3e3c78a1fe1
perumahan,Pembangunan Perumahan,Rumah putih,"P297+WF7, Rawajaya, Kec. Tobelo Utara, Kabupaten Halmahera Utara, Maluku Utara","Kabupaten Halmahera Utara, Maluku Utara",MALUKU UTARA,,Indonesia,,1.7197875,128.0136729,https://maps.google.com/?cid=0x0:0xd15837e751fb28f7
perumahan,Komplek perumahan,Kok,"QX7P+57F, Gorua Sel., Kec. Tobelo Utara, Kabupaten Halmahera Utara, Maluku Utara","Kabupaten Halmahera Utara, Maluku Utara",MALUKU UTARA,,Indonesia,,1.7628779,127.9861391,https://maps.google.com/?cid=0x0:0x2c14adc48e7169b0
perumahan,Komplek perumahan,Kampong Islam Tolonuo Barat,"Q2H3+9VC, Unnamed Road, Tolonuo, Kec. Tobelo Utara, Kabupaten Halmahera Utara, Maluku Utara","Kabupaten Halmahera Utara, Maluku Utara",MALUKU UTARA,,Indonesia,,1.778442,128.0046552,https://maps.google.com/?cid=0x0:0xdb02dbddda6a2865
housing complex,housing complex,Kec. Galela,"Kabupaten Halmahera Utara, Maluku Utara","Kabupaten Halmahera Utara, Maluku Utara",MALUKU UTARA,,Indonesia,,1.7991745,127.9013278,https://maps.google.com/?cid=0x0:0x6d037a5832cde2d7
housing complex,housing complex,Rmh. Jerikson Mako,"RQFQ+8PW, Soatobaru, Kec. Galela Bar., Kabupaten Halmahera Utara, Maluku Utara 97761","Soatobaru, Kec. Galela Bar., Kabupaten Halmahera Utara",MALUKU UTARA,97761.0,Indonesia,,1.8223536,127.789333,https://maps.google.com/?cid=0x0:0x602757d395056052
housing complex,housing complex,GALELA KOMPLEKS,"F2FG+C9H, Gemaf, Kec. Weda Utara, Kabupaten Halmahera Tengah, Maluku Utara","Kabupaten Halmahera Tengah, Maluku Utara",MALUKU UTARA,,Indonesia,,0.4735523,128.0259821,https://maps.google.com/?cid=0x0:0xb7fa62144abc5fe2
housing complex,housing complex,Rmh. Jerikson Mako,"RQFQ+8PW, Soatobaru, Kec. Galela Bar., Kabupaten Halmahera Utara, Maluku Utara 97761","Soatobaru, Kec. Galela Bar., Kabupaten Halmahera Utara",MALUKU UTARA,97761.0,Indonesia,,1.8223536,127.789333,https://maps.google.com/?cid=0x0:0x602757d395056052
housing complex,housing complex,Kec. Galela Bar.,"Kabupaten Halmahera Utara, Maluku Utara","Kabupaten Halmahera Utara, Maluku Utara",MALUKU UTARA,,Indonesia,,1.8258564,127.7917991,https://maps.google.com/?cid=0x0:0x6883a71e285c2680
housing complex,housing complex,GALELA KOMPLEKS,"F2FG+C9H, Gemaf, Kec. Weda Utara, Kabupaten Halmahera Tengah, Maluku Utara","Kabupaten Halmahera Tengah, Maluku Utara",MALUKU UTARA,,Indonesia,,0.4735523,128.0259821,https://maps.google.com/?cid=0x0:0xb7fa62144abc5fe2
housing complex,housing complex,Kec. Galela Sel.,"Kabupaten Halmahera Utara, Maluku Utara","Kabupaten Halmahera Utara, Maluku Utara",MALUKU UTARA,,Indonesia,,1.8095298,127.8098621,https://maps.google.com/?cid=0x0:0xd54700cacb22b110
housing complex,housing complex,GALELA KOMPLEKS,"F2FG+C9H, Gemaf, Kec. Weda Utara, Kabupaten Halmahera Tengah, Maluku Utara","Kabupaten Halmahera Tengah, Maluku Utara",MALUKU UTARA,,Indonesia,,0.4735523,128.0259821,https://maps.google.com/?cid=0x0:0xb7fa62144abc5fe2
housing complex,housing complex,Rmh. Jerikson Mako,"RQFQ+8PW, Soatobaru, Kec. Galela Bar., Kabupaten Halmahera Utara, Maluku Utara 97761","Soatobaru, Kec. Galela Bar., Kabupaten Halmahera Utara",MALUKU UTARA,97761.0,Indonesia,,1.8223536,127.789333,https://maps.google.com/?cid=0x0:0x602757d395056052
housing complex,housing complex,Rmh. Jerikson Mako,"RQFQ+8PW, Soatobaru, Kec. Galela Bar., Kabupaten Halmahera Utara, Maluku Utara 97761","Soatobaru, Kec. Galela Bar., Kabupaten Halmahera Utara",MALUKU UTARA,97761.0,Indonesia,,1.8223536,127.789333,https://maps.google.com/?cid=0x0:0x602757d395056052
housing complex,housing complex,Kec. Galela Utara,"Kabupaten Halmahera Utara, Maluku Utara","Kabupaten Halmahera Utara, Maluku Utara",MALUKU UTARA,,Indonesia,,2.0151873,127.9497063,https://maps.google.com/?cid=0x0:0x6378f017549179ee
housing complex,housing complex,GALELA KOMPLEKS,"F2FG+C9H, Gemaf, Kec. Weda Utara, Kabupaten Halmahera Tengah, Maluku Utara","Kabupaten Halmahera Tengah, Maluku Utara",MALUKU UTARA,,Indonesia,,0.4735523,128.0259821,https://maps.google.com/?cid=0x0:0xb7fa62144abc5fe2
housing complex,housing complex,Kec. Kao,"Kabupaten Halmahera Utara, Maluku Utara","Kabupaten Halmahera Utara, Maluku Utara",MALUKU UTARA,,Indonesia,,1.1658407,127.9007494,https://maps.google.com/?cid=0x0:0xf94b0d160a93d5c4
housing complex,housing complex,Kec. Kao Bar.,"Kabupaten Halmahera Utara, Maluku Utara","Kabupaten Halmahera Utara, Maluku Utara",MALUKU UTARA,,Indonesia,,1.3826535,127.7854236,https://maps.google.com/?cid=0x0:0xf7afe1ef0f20eafa
housing complex,housing complex,Kec. Kao Utara,"Kabupaten Halmahera Utara, Maluku Utara","Kabupaten Halmahera Utara, Maluku Utara",MALUKU UTARA,,Indonesia,,1.3982481,128.0027515,https://maps.google.com/?cid=0x0:0x5d873bc773b3c48e
housing complex,housing complex,Kec. Kao Tlk.,"Kabupaten Halmahera Utara, Maluku Utara","Kabupaten Halmahera Utara, Maluku Utara",MALUKU UTARA,,Indonesia,,1.0572865,127.697129,https://maps.google.com/?cid=0x0:0xb7e89a460242f82
housing complex,housing complex,Kao teluk,"2PX3+5RW, Kao teluk, Dum Dum, pante, Kabupaten Halmahera Utara, Maluku Utara 97764","Kao teluk, Dum Dum, pante, Kabupaten Halmahera Utara",MALUKU UTARA,97764.0,Indonesia,81340501572.0,1.0479978,127.7045645,https://maps.google.com/?cid=0x0:0x7fde8907969dfb9f
housing complex,housing complex,Kec. Kao Tlk.,"Kabupaten Halmahera Utara, Maluku Utara","Kabupaten Halmahera Utara, Maluku Utara",MALUKU UTARA,,Indonesia,,1.0572865,127.697129,https://maps.google.com/?cid=0x0:0xb7e89a460242f82
housing complex,housing complex,Loloda Kepulauan,"Kabupaten Halmahera Utara, Maluku Utara","Kabupaten Halmahera Utara, Maluku Utara",MALUKU UTARA,,Indonesia,,2.2509061,127.7981498,https://maps.google.com/?cid=0x0:0x7f27e9dea84ef656
housing complex,housing complex,Kec. Loloda Utara,"Kabupaten Halmahera Utara, Maluku Utara","Kabupaten Halmahera Utara, Maluku Utara",MALUKU UTARA,,Indonesia,,2.0927761,127.8484263,https://maps.google.com/?cid=0x0:0xb975e42fee13365a
housing complex,Toko,Malifut,"5R4V+V75, Wangeotak, Kec. Malifut, Kabupaten Halmahera Utara, Maluku Utara","Kabupaten Halmahera Utara, Maluku Utara",MALUKU UTARA,,Indonesia,,1.1571326,127.8432254,https://maps.google.com/?cid=0x0:0x5adc286678a3b907
housing complex,Pembangunan Perumahan,malifut,"5R6P+49J, Soma, Kec. Malifut, Kabupaten Halmahera Utara, Maluku Utara","Kabupaten Halmahera Utara, Maluku Utara",MALUKU UTARA,,Indonesia,,1.1603405,127.8358888,https://maps.google.com/?cid=0x0:0xbcc350d9b156e6ac
housing complex,housing complex,Kec. Malifut,"Kabupaten Halmahera Utara, Maluku Utara","Kabupaten Halmahera Utara, Maluku Utara",MALUKU UTARA,,Indonesia,,1.0939454,127.776544,https://maps.google.com/?cid=0x0:0xd9110b77277647d2
housing complex,housing complex,Tobelo,"Gamsungi, Kec. Tobelo, Kabupaten Halmahera Utara, Maluku Utara","Kabupaten Halmahera Utara, Maluku Utara",MALUKU UTARA,,Indonesia,,1.725721,128.001404,https://maps.google.com/?cid=0x0:0xed92b856242bad82
housing complex,Komplek perumahan,Perumahan Graha Permata Gosoma,"PX7X+746, Gosoma, Kec. Tobelo, Kabupaten Halmahera Utara, Maluku Utara","Kabupaten Halmahera Utara, Maluku Utara",MALUKU UTARA,,Indonesia,,1.7131615,127.9977515,https://maps.google.com/?cid=0x0:0xad790bc0b97dc95
housing complex,Komplek perumahan,Nisraland Residence,"PXCR+RFH, Gamsungi, Kec. Tobelo, Kabupaten Halmahera Utara, Maluku Utara","Kabupaten Halmahera Utara, Maluku Utara",MALUKU UTARA,,Indonesia,82310322186.0,1.7220511,127.9912226,https://maps.google.com/?cid=0x0:0x5f78782c129a4b75
housing complex,Pembangunan Perumahan,Perumahan Taman Halut Asri,"PXCW+67R, Gosoma, Kec. Tobelo, Kabupaten Halmahera Utara, Maluku Utara","Kabupaten Halmahera Utara, Maluku Utara",MALUKU UTARA,,Indonesia,85240008506.0,1.7206148,127.9956341,https://maps.google.com/?cid=0x0:0x525b821352717eb7
housing complex,,Maluku Utara kabupaten Halmahera utara,"PXVX+8V7, Wari, Kec. Tobelo, Kabupaten Halmahera Utara, Maluku Utara","Kabupaten Halmahera Utara, Maluku Utara",MALUKU UTARA,,Indonesia,81229069375.0,1.7434833,127.9996817,https://maps.google.com/?cid=0x0:0xa3675eb92bd2f2e9
housing complex,Komplek perumahan,Perumahan Medium Residence Tobelo,"WKO, Kec. Tobelo Tengah, Kabupaten Halmahera Utara, Maluku Utara","Kabupaten Halmahera Utara, Maluku Utara",MALUKU UTARA,,Indonesia,82349218735.0,1.6999512,128.0052527,https://maps.google.com/?cid=0x0:0x895ac3e3c78a1fe1
housing complex,Pasar bahan bangunan,Toko Sumber Bangunan,"P2G6+2MM, Gamsungi, Kec. Tobelo, Kabupaten Halmahera Utara, Maluku Utara","Kabupaten Halmahera Utara, Maluku Utara",MALUKU UTARA,,Indonesia,9242621455.0,1.7250967,128.0116677,https://maps.google.com/?cid=0x0:0x14835095227102f4
housing complex,Toko Bahan Bangunan,Makmur Utama Supermarket Bahan bangunan,"Tj. Niara, Kec. Tobelo Tengah, Kabupaten Halmahera Utara, Maluku Utara","Kabupaten Halmahera Utara, Maluku Utara",MALUKU UTARA,,Indonesia,85117420324.0,1.7019679,128.0155893,https://maps.google.com/?cid=0x0:0x47ecdf114648cbc2
housing complex,Kantor Perusahaan,PLTD Tobelo,"P297+84M, Rawajaya, Kec. Tobelo, Kabupaten Halmahera Utara, Maluku Utara","Kabupaten Halmahera Utara, Maluku Utara",MALUKU UTARA,,Indonesia,,1.7183483,128.0127903,https://maps.google.com/?cid=0x0:0x597dbe224c154908
housing complex,Perumahan,Perumahan Umum Asri Tobelo,"P293+2XM, Gosoma, Kec. Tobelo, Kabupaten Halmahera Utara, Maluku Utara","Kabupaten Halmahera Utara, Maluku Utara",MALUKU UTARA,,Indonesia,,1.7175998,128.0049345,https://maps.google.com/?cid=0x0:0x4b42560a20000ced
housing complex,Toko Bahan Bangunan,Toko Sejati Bangunan,"Jalan Raya Wosia, Depan Saro Nifero, Samping Dealer Honda CV.Lion, Mahia, Kec. Tobelo, Maluku Utara 97762","Depan Saro Nifero, Samping Dealer Honda CV.Lion, Mahia, Kec. Tobelo",MALUKU UTARA,97762.0,Indonesia,82195215789.0,1.7063845,128.0084905,https://maps.google.com/?cid=0x0:0xe07acc47d25781c8
housing complex,housing complex,SD GMIH 4 TOBELO,"Jln RS. Bethesda, Gamsungi, Kec. Tobelo, Kabupaten Halmahera Utara, Maluku Utara 97762","Gamsungi, Kec. Tobelo, Kabupaten Halmahera Utara",MALUKU UTARA,97762.0,Indonesia,,1.7305158,128.0086361,https://maps.google.com/?cid=0x0:0x58951f17250a95fa
housing complex,Toko Perlengkapan Rumah,Tk.Mulia Jaya,"P2F2+WQ7, Gamsungi, Kec. Tobelo, Kabupaten Halmahera Utara, Maluku Utara","Kabupaten Halmahera Utara, Maluku Utara",MALUKU UTARA,,Indonesia,,1.7247757,128.0019201,https://maps.google.com/?cid=0x0:0x98deffa82d6d06d5
housing complex,housing complex,Nisraland Residence,"P2H6+2F5, Gamsungi, Kec. Tobelo, Kabupaten Halmahera Utara, Maluku Utara","Kabupaten Halmahera Utara, Maluku Utara",MALUKU UTARA,,Indonesia,82310322186.0,1.727521,128.0112394,https://maps.google.com/?cid=0x0:0x6ffc4e26de104b57
housing complex,Universitas,Halmahera utara,"GV4V+XFF, Kusuri, Kec. Tobelo Bar., Kabupaten Halmahera Utara, Maluku Utara","Kabupaten Halmahera Utara, Maluku Utara",MALUKU UTARA,,Indonesia,82267362132.0,1.5074308,127.8936663,https://maps.google.com/?cid=0x0:0x471fb5bcc3449c6a
housing complex,Komplek perumahan,Halmahera Utara,"HXVG+287, Leleoto, Kec. Tobelo Sel., Kabupaten Halmahera Utara, Maluku Utara","Kabupaten Halmahera Utara, Maluku Utara",MALUKU UTARA,,Indonesia,,1.5925349,127.9758103,https://maps.google.com/?cid=0x0:0xff6afb97c7ca6fb4
housing complex,Komplek perumahan,Perumahan Graha Permata Gosoma,"PX7X+746, Gosoma, Kec. Tobelo, Kabupaten Halmahera Utara, Maluku Utara","Kabupaten Halmahera Utara, Maluku Utara",MALUKU UTARA,,Indonesia,,1.7131615,127.9977515,https://maps.google.com/?cid=0x0:0xad790bc0b97dc95
housing complex,housing complex,Kec. Tobelo Sel.,"Kabupaten Halmahera Utara, Maluku Utara","Kabupaten Halmahera Utara, Maluku Utara",MALUKU UTARA,,Indonesia,,1.6281283,127.980575,https://maps.google.com/?cid=0x0:0x1ecb6049a3d26ca1
housing complex,Komplek perumahan,Nisraland Residence,"PXCR+RFH, Gamsungi, Kec. Tobelo, Kabupaten Halmahera Utara, Maluku Utara","Kabupaten Halmahera Utara, Maluku Utara",MALUKU UTARA,,Indonesia,82310322186.0,1.7220511,127.9912226,https://maps.google.com/?cid=0x0:0x5f78782c129a4b75
housing complex,Perumahan,Perumahan Umum Asri Tobelo,"P293+2XM, Gosoma, Kec. Tobelo, Kabupaten Halmahera Utara, Maluku Utara","Kabupaten Halmahera Utara, Maluku Utara",MALUKU UTARA,,Indonesia,,1.7175998,128.0049345,https://maps.google.com/?cid=0x0:0x4b42560a20000ced
housing complex,Sekolah Dasar,SD GMIH Gamhoku,"MX6Q+8XG, Gamhoku, Kec. Tobelo Sel., Kabupaten Halmahera Utara, Maluku Utara","Kabupaten Halmahera Utara, Maluku Utara",MALUKU UTARA,,Indonesia,,1.6608166,127.9899468,https://maps.google.com/?cid=0x0:0xc5774861546d932b
housing complex,housing complex,Nisraland Residence,"P2H6+2F5, Gamsungi, Kec. Tobelo, Kabupaten Halmahera Utara, Maluku Utara","Kabupaten Halmahera Utara, Maluku Utara",MALUKU UTARA,,Indonesia,82310322186.0,1.727521,128.0112394,https://maps.google.com/?cid=0x0:0x6ffc4e26de104b57
housing complex,Pembangunan Perumahan,Tobelo selatan,"P2H6+2F5, Gamsungi, Kec. Tobelo, Kabupaten Halmahera Utara, Maluku Utara","Kabupaten Halmahera Utara, Maluku Utara",MALUKU UTARA,,Indonesia,81237639055.0,1.727521,128.0112394,https://maps.google.com/?cid=0x0:0x7bd0e79e8902fda
housing complex,Pembangunan Perumahan,Tolonuo Tobelo selatan,"Q2J5+J28, Tolonuo, Kec. Tobelo Utara, Kabupaten Halmahera Utara, Maluku Utara","Kabupaten Halmahera Utara, Maluku Utara",MALUKU UTARA,,Indonesia,,1.7815256,128.0075815,https://maps.google.com/?cid=0x0:0xbd56ab7582f5de6b
housing complex,housing complex,Kec. Tobelo Tim.,"Kabupaten Halmahera Utara, Maluku Utara","Kabupaten Halmahera Utara, Maluku Utara",MALUKU UTARA,,Indonesia,,1.5702306,128.0348143,https://maps.google.com/?cid=0x0:0x3b948dd04e667beb
housing complex,Komplek perumahan,Perumahan Graha Permata Gosoma,"PX7X+746, Gosoma, Kec. Tobelo, Kabupaten Halmahera Utara, Maluku Utara","Kabupaten Halmahera Utara, Maluku Utara",MALUKU UTARA,,Indonesia,,1.7131615,127.9977515,https://maps.google.com/?cid=0x0:0xad790bc0b97dc95
housing complex,Komplek perumahan,Nisraland Residence,"PXCR+RFH, Gamsungi, Kec. Tobelo, Kabupaten Halmahera Utara, Maluku Utara","Kabupaten Halmahera Utara, Maluku Utara",MALUKU UTARA,,Indonesia,82310322186.0,1.7220511,127.9912226,https://maps.google.com/?cid=0x0:0x5f78782c129a4b75
housing complex,Komplek perumahan,Perumahan Medium Residence Tobelo,"WKO, Kec. Tobelo Tengah, Kabupaten Halmahera Utara, Maluku Utara","Kabupaten Halmahera Utara, Maluku Utara",MALUKU UTARA,,Indonesia,82349218735.0,1.6999512,128.0052527,https://maps.google.com/?cid=0x0:0x895ac3e3c78a1fe1
housing complex,Perumahan,Perumahan Umum Asri Tobelo,"P293+2XM, Gosoma, Kec. Tobelo, Kabupaten Halmahera Utara, Maluku Utara","Kabupaten Halmahera Utara, Maluku Utara",MALUKU UTARA,,Indonesia,,1.7175998,128.0049345,https://maps.google.com/?cid=0x0:0x4b42560a20000ced
housing complex,housing complex,Nisraland Residence,"P2H6+2F5, Gamsungi, Kec. Tobelo, Kabupaten Halmahera Utara, Maluku Utara","Kabupaten Halmahera Utara, Maluku Utara",MALUKU UTARA,,Indonesia,82310322186.0,1.727521,128.0112394,https://maps.google.com/?cid=0x0:0x6ffc4e26de104b57
housing complex,housing complex,Kec. Tobelo Tengah,"Kabupaten Halmahera Utara, Maluku Utara","Kabupaten Halmahera Utara, Maluku Utara",MALUKU UTARA,,Indonesia,,1.7074794,128.0127501,https://maps.google.com/?cid=0x0:0xef293bed1374db12
housing complex,Perumahan,Rumah Alut,"JL. Djumati Lamali No.7, Gosoma, Kec. Tobelo, Kabupaten Halmahera Utara, Maluku Utara 97762","Gosoma, Kec. Tobelo, Kabupaten Halmahera Utara",MALUKU UTARA,97762.0,Indonesia,,1.7193256,128.0057702,https://maps.google.com/?cid=0x0:0xaf0cf4baec0fb003
housing complex,Komplek perumahan,Perumahan Graha Permata Gosoma,"PX7X+746, Gosoma, Kec. Tobelo, Kabupaten Halmahera Utara, Maluku Utara","Kabupaten Halmahera Utara, Maluku Utara",MALUKU UTARA,,Indonesia,,1.7131615,127.9977515,https://maps.google.com/?cid=0x0:0xad790bc0b97dc95
housing complex,Komplek perumahan,Nisraland Residence,"PXCR+RFH, Gamsungi, Kec. Tobelo, Kabupaten Halmahera Utara, Maluku Utara","Kabupaten Halmahera Utara, Maluku Utara",MALUKU UTARA,,Indonesia,82310322186.0,1.7220511,127.9912226,https://maps.google.com/?cid=0x0:0x5f78782c129a4b75
housing complex,Komplek perumahan,rumah,"P2C3+QMH, Gosoma, Kec. Tobelo, Kabupaten Halmahera Utara, Maluku Utara","Kabupaten Halmahera Utara, Maluku Utara",MALUKU UTARA,,Indonesia,,1.7226,128.003912,https://maps.google.com/?cid=0x0:0x9081a4648f0de5f2
housing complex,Perumahan,Rumah Alut,"JL. Djumati Lamali No.7, Gosoma, Kec. Tobelo, Kabupaten Halmahera Utara, Maluku Utara 97762","Gosoma, Kec. Tobelo, Kabupaten Halmahera Utara",MALUKU UTARA,97762.0,Indonesia,,1.7193256,128.0057702,https://maps.google.com/?cid=0x0:0xaf0cf4baec0fb003
housing complex,housing complex,Kec. Tobelo Utara,"Kabupaten Halmahera Utara, Maluku Utara","Kabupaten Halmahera Utara, Maluku Utara",MALUKU UTARA,,Indonesia,,1.7634729,127.9819399,https://maps.google.com/?cid=0x0:0xd08db8115ea8b44b
housing complex,Komplek perumahan,Nisraland Residence,"PXCR+RFH, Gamsungi, Kec. Tobelo, Kabupaten Halmahera Utara, Maluku Utara","Kabupaten Halmahera Utara, Maluku Utara",MALUKU UTARA,,Indonesia,82310322186.0,1.7220511,127.9912226,https://maps.google.com/?cid=0x0:0x5f78782c129a4b75
housing complex,Komplek perumahan,Lorong mayat,"PXQV+7X8, Mkcm, Kec. Tobelo, Kabupaten Halmahera Utara, Maluku Utara","Kabupaten Halmahera Utara, Maluku Utara",MALUKU UTARA,,Indonesia,,1.737515,127.995357,https://maps.google.com/?cid=0x0:0x6bc97301e51a7972
housing complex,Pembangunan Perumahan,Perumahan Taman Halut Asri,"PXCW+67R, Gosoma, Kec. Tobelo, Kabupaten Halmahera Utara, Maluku Utara","Kabupaten Halmahera Utara, Maluku Utara",MALUKU UTARA,,Indonesia,85240008506.0,1.7206148,127.9956341,https://maps.google.com/?cid=0x0:0x525b821352717eb7
