Category,Real Category,Business Name,Address,City,State,Postal Code,Country,Phone,Latitude,Longitude,Map Link
cafe,cafe,Papua Bar. 98413,"Klabala, Distrik Sorong Barat, Kota Sorong, Papua Bar.","Kota Sorong, Papua Bar.",PAPUA BARAT,,Indonesia,,-0.8669518,131.254029,https://maps.google.com/?cid=0x0:0x352e1f254d39ea2b
cafe,Kedai Kopi,Lituretu Cafe,"Jl. Raja Ampat No.6, Kp. Baru, Distrik Sorong, Kota Sorong, Papua Bar. 98413","Kp. Baru, Distrik Sorong, Kota Sorong",PAPUA BARAT,98413.0,Indonesia,,-0.8693478,131.2513118,https://maps.google.com/?cid=0x0:0x9b07fe26707f42b1
cafe,Toko kopi,ENGINEERING COFFEE SORONG,"Jl. Basuki Rahmat, Remu Sel., Kecamatan Sorong Manoi, Kota Sorong, Papua Bar. 98415","Remu Sel., Kecamatan Sorong Manoi, Kota Sorong",PAPUA BARAT,98415.0,Indonesia,85239860284.0,-0.8836482,131.2857925,https://maps.google.com/?cid=0x0:0x6ffb2e2af5ed06c1
cafe,Kedai Kopi,wabisabicoffee,"Kp. Baru, Distrik Sorong, Kota Sorong, Papua Bar. 98411","Distrik Sorong, Kota Sorong",PAPUA BARAT,98411.0,Indonesia,82137563208.0,-0.8704999,131.253128,https://maps.google.com/?cid=0x0:0xd4029d1b24ccb3b3
cafe,Kedai Kopi,Terra Cafe,"Jl. Arfak No.24, Kp. Baru, Distrik Sorong, Kota Sorong, Papua Bar. 98413","Kp. Baru, Distrik Sorong, Kota Sorong",PAPUA BARAT,98413.0,Indonesia,85240161348.0,-0.8717566,131.248572,https://maps.google.com/?cid=0x0:0xa6831f8c179c4651
cafe,Kedai Kopi,Sorong Cafe,"Sawagumu, Kec. Sorong Utara, Kota Sorong, Papua Bar.","Kota Sorong, Papua Bar.",PAPUA BARAT,,Indonesia,81248201730.0,-0.8893784,131.3128926,https://maps.google.com/?cid=0x0:0x7962c1d0ce1b0528
cafe,Kedai Kopi,Tuantana Coffee,"Jl. Malibela No.39, Klawalu, Distrik Sorong Timur, Kota Sorong, Papua Bar. 98416","Klawalu, Distrik Sorong Timur, Kota Sorong",PAPUA BARAT,98416.0,Indonesia,82260971344.0,-0.8996174,131.3178955,https://maps.google.com/?cid=0x0:0x226cd345f67dd7e3
cafe,Kedai Kopi,Do.pyocoffee,"Jl. Sungai Maruni masuk No.km 10, Klawuyuk, Distrik Sorong Timur, Kota Sorong, Papua Bar. 98416","Klawuyuk, Distrik Sorong Timur, Kota Sorong",PAPUA BARAT,98416.0,Indonesia,,-0.8880443,131.3199144,https://maps.google.com/?cid=0x0:0xe98eb1eac6ada00d
cafe,Kedai Kopi,Kopisoe Basuki Rahmat Soq,"Jl. Basuki Rahmat Jl. Melati Raya KM9,5, Klasabi, Kecamatan Sorong Manoi, Kota Sorong, Papua Bar. 98412","Klasabi, Kecamatan Sorong Manoi, Kota Sorong",PAPUA BARAT,98412.0,Indonesia,8114855879.0,-0.8876184,131.3051735,https://maps.google.com/?cid=0x0:0xff094af82c4b2f2
cafe,Kedai Kopi,KAFE STAY COFFEE,"Belakang GOR, Kompleks Masdjid Al-Azhar,Lorong 3, Rt 02 Rw 05, Malawei, Kecamatan Sorong Manoi, Kota Sorong, Papua Bar. 98412","Kompleks Masdjid Al-Azhar,Lorong 3, Rt 02 Rw 05, Malawei, Kecamatan Sorong Manoi, Kota Sorong",PAPUA BARAT,98412.0,Indonesia,82197959899.0,-0.8888952,131.2817214,https://maps.google.com/?cid=0x0:0x3032f8a350fae72f
cafe,Kedai Kopi,Lyla.coffeeeatery,"4874+3FQ, Klasabi, Kecamatan Sorong Manoi, Kota Sorong, Papua Bar. 98412","Klasabi, Kecamatan Sorong Manoi, Kota Sorong",PAPUA BARAT,98412.0,Indonesia,,-0.8872589,131.3062762,https://maps.google.com/?cid=0x0:0x19cd5d4f1eefb5b2
cafe,Kedai Kopi,Brown Hill Cafe,"48G3+7XV, Jl. F Kalasuat, Malanu, Kec. Sorong Utara, Kota Sorong, Papua Bar. 98412","Jl. F Kalasuat, Malanu, Kec. Sorong Utara, Kota Sorong",PAPUA BARAT,98412.0,Indonesia,82114721193.0,-0.8742653,131.3049307,https://maps.google.com/?cid=0x0:0xa60cb6d736dfcb14
cafe,Kafe,Infinity Social House,"46MW+H87, Lido, Distrik Sorong, Kota Sorong, Papua Bar. 98411","Lido, Distrik Sorong, Kota Sorong",PAPUA BARAT,98411.0,Indonesia,82360700899.0,-0.86582,131.2452795,https://maps.google.com/?cid=0x0:0xde8c57d5950c604a
cafe,Kedai Kopi,Cafe NongâQ,"4857+WPX, Jl. Kilang Blk. B, Sawagumu, Kec. Sorong Utara, Kota Sorong, Papua Bar. 98412","Jl. Kilang Blk. B, Sawagumu, Kec. Sorong Utara, Kota Sorong",PAPUA BARAT,98412.0,Indonesia,81332413232.0,-0.8901424,131.3143502,https://maps.google.com/?cid=0x0:0xfa9c4c2bc1a74a40
cafe,cafe,Sorong,"Kota Sorong, Papua Bar.","Kota Sorong, Papua Bar.",PAPUA BARAT,,Indonesia,,-0.8761629,131.255828,https://maps.google.com/?cid=0x0:0xe32b512ec6c6786
cafe,Kafe,Coffee sultan eks Kopi lain hati sultan hasanuddin kampung makassar,"Jl. Sultan Hasanuddin No.12, Klaligi, Distrik Sorong, Kota Sorong, Papua Bar. 98412","Klaligi, Distrik Sorong, Kota Sorong",PAPUA BARAT,98412.0,Indonesia,8114882929.0,-0.8842594,131.2684883,https://maps.google.com/?cid=0x0:0xb86035231822683e
cafe,Kedai Kopi,Sorong Cafe,"Sawagumu, Kec. Sorong Utara, Kota Sorong, Papua Bar.","Kota Sorong, Papua Bar.",PAPUA BARAT,,Indonesia,81248201730.0,-0.8893784,131.3128926,https://maps.google.com/?cid=0x0:0x7962c1d0ce1b0528
cafe,Kedai Kopi,Tuantana Coffee,"Jl. Malibela No.39, Klawalu, Distrik Sorong Timur, Kota Sorong, Papua Bar. 98416","Klawalu, Distrik Sorong Timur, Kota Sorong",PAPUA BARAT,98416.0,Indonesia,82260971344.0,-0.8996174,131.3178955,https://maps.google.com/?cid=0x0:0x226cd345f67dd7e3
cafe,Kedai Kopi,Kopi Janji Jiwa Sorong (Kampung Baru),"Jl. Arfak No.31, Kp. Baru, Distrik Sorong, Kota Sorong, Papua Bar. 98413","Kp. Baru, Distrik Sorong, Kota Sorong",PAPUA BARAT,98413.0,Indonesia,,-0.8723768,131.2495109,https://maps.google.com/?cid=0x0:0x2dc0561b53c00a19
cafe,Kedai Kopi,Teras Putih Sorong,"47H2+55F, Jl. Dr. Sam Ratulangi, Kp. Baru, Distrik Sorong, Kota Sorong, Papua Bar. 98411","Jl. Dr. Sam Ratulangi, Kp. Baru, Distrik Sorong, Kota Sorong",PAPUA BARAT,98411.0,Indonesia,,-0.8720668,131.2504314,https://maps.google.com/?cid=0x0:0x12c58f0fd9dadc6b
cafe,Kedai Kopi,Kopi Ceplok,"Kp. Baru, Distrik Sorong, Kota Sorong, Papua Bar. 98411","Distrik Sorong, Kota Sorong",PAPUA BARAT,98411.0,Indonesia,81248716139.0,-0.8691274,131.2512787,https://maps.google.com/?cid=0x0:0xec02e409b92d8477
cafe,Kafe,Coffee Box chak's,"Jl. Ahmad Yani No.53, Malabutor, Kecamatan Sorong Manoi, Kota Sorong, Papua Bar. 98415","Malabutor, Kecamatan Sorong Manoi, Kota Sorong",PAPUA BARAT,98415.0,Indonesia,85242088802.0,-0.8830198,131.281061,https://maps.google.com/?cid=0x0:0x33cd03ca8e1451be
cafe,Kedai Kopi,wabisabicoffee,"Kp. Baru, Distrik Sorong, Kota Sorong, Papua Bar. 98411","Distrik Sorong, Kota Sorong",PAPUA BARAT,98411.0,Indonesia,82137563208.0,-0.8704999,131.253128,https://maps.google.com/?cid=0x0:0xd4029d1b24ccb3b3
cafe,Hidangan Laut,Layar Gading Cafe  Restaurant,"Klasuur, Distrik Sorong, Kota Sorong, Papua Bar. 98411","Distrik Sorong, Kota Sorong",PAPUA BARAT,98411.0,Indonesia,85255859001.0,-0.8651982,131.245803,https://maps.google.com/?cid=0x0:0x7da35e815b399cf4
cafe,Kedai Kopi,Lituretu Cafe,"Jl. Raja Ampat No.6, Kp. Baru, Distrik Sorong, Kota Sorong, Papua Bar. 98413","Kp. Baru, Distrik Sorong, Kota Sorong",PAPUA BARAT,98413.0,Indonesia,,-0.8693478,131.2513118,https://maps.google.com/?cid=0x0:0x9b07fe26707f42b1
cafe,Kedai Kopi,Lyla.coffeeeatery,"4874+3FQ, Klasabi, Kecamatan Sorong Manoi, Kota Sorong, Papua Bar. 98412","Klasabi, Kecamatan Sorong Manoi, Kota Sorong",PAPUA BARAT,98412.0,Indonesia,,-0.8872589,131.3062762,https://maps.google.com/?cid=0x0:0x19cd5d4f1eefb5b2
cafe,Toko Roti,Billycoffee,"47C7+C65, Jl. Ahmad Yani, Klakublik, Distrik Sorong, Kota Sorong, Papua Bar. 98412","Jl. Ahmad Yani, Klakublik, Distrik Sorong, Kota Sorong",PAPUA BARAT,98412.0,Indonesia,,-0.8788942,131.2631541,https://maps.google.com/?cid=0x0:0x721fba8bd1d4a255
cafe,Hidangan Laut,Marina Star Restaurant Seafood,"Kompleks, Jl. Bubara Jl. Pelabuhan Perikanan, Distrik Sorong, Kota Sorong, Papua Bar. 98414","Jl. Bubara Jl. Pelabuhan Perikanan, Distrik Sorong, Kota Sorong",PAPUA BARAT,98414.0,Indonesia,81240250548.0,-0.8790069,131.2552456,https://maps.google.com/?cid=0x0:0x6d780e763a272c1a
cafe,cafe,Papua Bar. 98416,Papua Bar.,Papua Bar.,PAPUA BARAT,,Indonesia,,-0.8883325,131.3510866,https://maps.google.com/?cid=0x0:0x7d4c82915eeb19ce
cafe,Kedai Kopi,Tuantana Coffee,"Jl. Malibela No.39, Klawalu, Distrik Sorong Timur, Kota Sorong, Papua Bar. 98416","Klawalu, Distrik Sorong Timur, Kota Sorong",PAPUA BARAT,98416.0,Indonesia,82260971344.0,-0.8996174,131.3178955,https://maps.google.com/?cid=0x0:0x226cd345f67dd7e3
cafe,Kedai Kopi,Kopi Konnichiwa,"4857+HWG, Jl. Basuki Rahmat, Klawalu, Kecamatan Sorong Manoi, Kota Sorong, Papua Bar. 98416","Jl. Basuki Rahmat, Klawalu, Kecamatan Sorong Manoi, Kota Sorong",PAPUA BARAT,98416.0,Indonesia,85161889100.0,-0.891066,131.3148138,https://maps.google.com/?cid=0x0:0xc5519dba9bc5379b
cafe,Kafe,Cafenation,"Matamalagi, Jl. Sungai Maruni, Kec. Sorong Utara, Kota Sorong, Papua Bar. 98412","Jl. Sungai Maruni, Kec. Sorong Utara, Kota Sorong",PAPUA BARAT,98412.0,Indonesia,81245807789.0,-0.8869143,131.3214705,https://maps.google.com/?cid=0x0:0xb970c60a44273f0f
cafe,Pujasera,Hangout Avenue Sorong,"Jl Sungai Maruni KM 10, Masuk No.23, Kota Sorong, Papua Bar. 98416","Masuk No.23, Kota Sorong",PAPUA BARAT,98416.0,Indonesia,82197698090.0,-0.8868107,131.3216004,https://maps.google.com/?cid=0x0:0x29c3ed1d6d1ac389
cafe,Toko Roti,Sasukun Cafe / Kue Maniso,"Jl. KPR Klasaman Permai, Klamana, Distrik Sorong Timur, Kota Sorong, Papua Bar. 98417","Klamana, Distrik Sorong Timur, Kota Sorong",PAPUA BARAT,98417.0,Indonesia,81343186117.0,-0.9088288,131.3272156,https://maps.google.com/?cid=0x0:0x3a6b69777a1af5da
cafe,Kedai Kopi,Charac.ter coffee house,"Jl. Basuki Rahmat, Klawuyuk, Kec. Sorong Utara, Kota Sorong, Papua Bar. 98416","Klawuyuk, Kec. Sorong Utara, Kota Sorong",PAPUA BARAT,98416.0,Indonesia,81342110466.0,-0.8954408,131.319596,https://maps.google.com/?cid=0x0:0x6b93662abb1ac288
cafe,Kedai Kopi,Roemah Kopi Coffee Roastery Sorong,"Bar, Jl. Olum fagu No5 Belakang Alfamart Selebesolu, Klawalu, Distrik Sorong Timur, Kota Sorong, Papua Bar. 98417","Jl. Olum fagu No5 Belakang Alfamart Selebesolu, Klawalu, Distrik Sorong Timur, Kota Sorong",PAPUA BARAT,98417.0,Indonesia,81248678008.0,-0.9015205,131.3215979,https://maps.google.com/?cid=0x0:0x7c49fd13377abeda
cafe,Toko kopi,ENGINEERING COFFEE SORONG,"Jl. Basuki Rahmat, Remu Sel., Kecamatan Sorong Manoi, Kota Sorong, Papua Bar. 98415","Remu Sel., Kecamatan Sorong Manoi, Kota Sorong",PAPUA BARAT,98415.0,Indonesia,85239860284.0,-0.8836482,131.2857925,https://maps.google.com/?cid=0x0:0x6ffb2e2af5ed06c1
cafe,cafe,Depot Tritis,"486M+Q68, Jl. Suteja, Matalamagi, Kec. Sorong Utara, Kota Sorong, Papua Bar. 98416","Jl. Suteja, Matalamagi, Kec. Sorong Utara, Kota Sorong",PAPUA BARAT,98416.0,Indonesia,85239815544.0,-0.8880844,131.3330908,https://maps.google.com/?cid=0x0:0x1b42bfebf70212e5
cafe,Kafe,PLANET CAFE JUPITER,"4869+F97, Sawagumu, Kec. Sorong Utara, Kota Sorong, Papua Bar. 98416","Sawagumu, Kec. Sorong Utara, Kota Sorong",PAPUA BARAT,98416.0,Indonesia,8114864111.0,-0.8888367,131.3184254,https://maps.google.com/?cid=0x0:0xacd6cf31e3b6b0cd
cafe,Kedai Kopi,Sorong Cafe,"Sawagumu, Kec. Sorong Utara, Kota Sorong, Papua Bar.","Kota Sorong, Papua Bar.",PAPUA BARAT,,Indonesia,81248201730.0,-0.8893784,131.3128926,https://maps.google.com/?cid=0x0:0x7962c1d0ce1b0528
cafe,Dapur Umum,GUBUG GEMBOK TJINTA (GGT),"Jl. Basuki Rahmat No.Km. 9, Sawagumu, Kec. Sorong Utara, Kota Sorong, Papua Bar. 98415","Sawagumu, Kec. Sorong Utara, Kota Sorong",PAPUA BARAT,98415.0,Indonesia,81806997999.0,-0.88781,131.30741,https://maps.google.com/?cid=0x0:0x109e4a30a5b526dd
cafe,Kafe,Gallery Coffee,"4839+RRQ, Klawuyuk, Distrik Sorong Timur, Kota Sorong, Papua Bar. 98416","Klawuyuk, Distrik Sorong Timur, Kota Sorong",PAPUA BARAT,98416.0,Indonesia,81248794920.0,-0.8954576,131.3195676,https://maps.google.com/?cid=0x0:0x8b2f60d07e50962a
cafe,cafe,Papua Bar. 98411,"Kota Sorong, Papua Bar.","Kota Sorong, Papua Bar.",PAPUA BARAT,,Indonesia,,-0.8165448,131.3310303,https://maps.google.com/?cid=0x0:0xa63c7f2b52beead0
cafe,Kafe,Coffee sultan eks Kopi lain hati sultan hasanuddin kampung makassar,"Jl. Sultan Hasanuddin No.12, Klaligi, Distrik Sorong, Kota Sorong, Papua Bar. 98412","Klaligi, Distrik Sorong, Kota Sorong",PAPUA BARAT,98412.0,Indonesia,8114882929.0,-0.8842594,131.2684883,https://maps.google.com/?cid=0x0:0xb86035231822683e
cafe,Kedai Kopi,Kopi Ceplok,"Kp. Baru, Distrik Sorong, Kota Sorong, Papua Bar. 98411","Distrik Sorong, Kota Sorong",PAPUA BARAT,98411.0,Indonesia,81248716139.0,-0.8691274,131.2512787,https://maps.google.com/?cid=0x0:0xec02e409b92d8477
cafe,Komplek perumahan,Nakama cafe,"Komplek kantin pujasera, poltekpel, Sorong, Sorong City, West Papua 98411","poltekpel, Sorong, Sorong City",PAPUA BARAT,98411.0,Indonesia,81222276911.0,-0.8082662,131.287991,https://maps.google.com/?cid=0x0:0xdd855aa905374767
cafe,Kedai Kopi,Teras Putih Sorong,"47H2+55F, Jl. Dr. Sam Ratulangi, Kp. Baru, Distrik Sorong, Kota Sorong, Papua Bar. 98411","Jl. Dr. Sam Ratulangi, Kp. Baru, Distrik Sorong, Kota Sorong",PAPUA BARAT,98411.0,Indonesia,,-0.8720668,131.2504314,https://maps.google.com/?cid=0x0:0x12c58f0fd9dadc6b
cafe,Kedai Kopi,wabisabicoffee,"Kp. Baru, Distrik Sorong, Kota Sorong, Papua Bar. 98411","Distrik Sorong, Kota Sorong",PAPUA BARAT,98411.0,Indonesia,82137563208.0,-0.8704999,131.253128,https://maps.google.com/?cid=0x0:0xd4029d1b24ccb3b3
cafe,Kedai Kopi,Sorong Cafe,"Sawagumu, Kec. Sorong Utara, Kota Sorong, Papua Bar.","Kota Sorong, Papua Bar.",PAPUA BARAT,,Indonesia,81248201730.0,-0.8893784,131.3128926,https://maps.google.com/?cid=0x0:0x7962c1d0ce1b0528
cafe,Kedai Kopi,Roemah Kopi Coffee Roastery Sorong,"Bar, Jl. Olum fagu No5 Belakang Alfamart Selebesolu, Klawalu, Distrik Sorong Timur, Kota Sorong, Papua Bar. 98417","Jl. Olum fagu No5 Belakang Alfamart Selebesolu, Klawalu, Distrik Sorong Timur, Kota Sorong",PAPUA BARAT,98417.0,Indonesia,81248678008.0,-0.9015205,131.3215979,https://maps.google.com/?cid=0x0:0x7c49fd13377abeda
cafe,Hidangan Laut,Layar Gading Cafe  Restaurant,"Klasuur, Distrik Sorong, Kota Sorong, Papua Bar. 98411","Distrik Sorong, Kota Sorong",PAPUA BARAT,98411.0,Indonesia,85255859001.0,-0.8651982,131.245803,https://maps.google.com/?cid=0x0:0x7da35e815b399cf4
cafe,Kedai Kopi,Do.pyocoffee,"Jl. Sungai Maruni masuk No.km 10, Klawuyuk, Distrik Sorong Timur, Kota Sorong, Papua Bar. 98416","Klawuyuk, Distrik Sorong Timur, Kota Sorong",PAPUA BARAT,98416.0,Indonesia,,-0.8880443,131.3199144,https://maps.google.com/?cid=0x0:0xe98eb1eac6ada00d
cafe,Kedai Kopi,Tuantana Coffee,"Jl. Malibela No.39, Klawalu, Distrik Sorong Timur, Kota Sorong, Papua Bar. 98416","Klawalu, Distrik Sorong Timur, Kota Sorong",PAPUA BARAT,98416.0,Indonesia,82260971344.0,-0.8996174,131.3178955,https://maps.google.com/?cid=0x0:0x226cd345f67dd7e3
cafe,Indonesia,Cafe Fly,"Saoka, Distrik Sorong Barat, Kota Sorong, Papua Bar. 98411","Distrik Sorong Barat, Kota Sorong",PAPUA BARAT,98411.0,Indonesia,,-0.8120351,131.2662799,https://maps.google.com/?cid=0x0:0xe8bf1b3ff348a3b4
cafe,Kedai Kopi,Kopi Konnichiwa,"4857+HWG, Jl. Basuki Rahmat, Klawalu, Kecamatan Sorong Manoi, Kota Sorong, Papua Bar. 98416","Jl. Basuki Rahmat, Klawalu, Kecamatan Sorong Manoi, Kota Sorong",PAPUA BARAT,98416.0,Indonesia,85161889100.0,-0.891066,131.3148138,https://maps.google.com/?cid=0x0:0xc5519dba9bc5379b
cafe,Grosir Kopi,Kopi Senang,"Jl. Pendidikan No.Km 8, Malaingkedi, Kecamatan Sorong Manoi, Kota Sorong, Papua Bar. 98412","Malaingkedi, Kecamatan Sorong Manoi, Kota Sorong",PAPUA BARAT,98412.0,Indonesia,951322178.0,-0.8878192,131.2955679,https://maps.google.com/?cid=0x0:0xc846bbf0aa073e2d
cafe,cafe,Papua Bar. 98412,"Kota Sorong, Papua Bar.","Kota Sorong, Papua Bar.",PAPUA BARAT,,Indonesia,,-0.8445683,131.3911778,https://maps.google.com/?cid=0x0:0x6e32dbda4609ff48
cafe,Kafe,Coffee sultan eks Kopi lain hati sultan hasanuddin kampung makassar,"Jl. Sultan Hasanuddin No.12, Klaligi, Distrik Sorong, Kota Sorong, Papua Bar. 98412","Klaligi, Distrik Sorong, Kota Sorong",PAPUA BARAT,98412.0,Indonesia,8114882929.0,-0.8842594,131.2684883,https://maps.google.com/?cid=0x0:0xb86035231822683e
cafe,Toko kopi,ENGINEERING COFFEE SORONG,"Jl. Basuki Rahmat, Remu Sel., Kecamatan Sorong Manoi, Kota Sorong, Papua Bar. 98415","Remu Sel., Kecamatan Sorong Manoi, Kota Sorong",PAPUA BARAT,98415.0,Indonesia,85239860284.0,-0.8836482,131.2857925,https://maps.google.com/?cid=0x0:0x6ffb2e2af5ed06c1
cafe,Indonesia,Selagi Dingin,"Jl. Ahmad Yani No.85, Malabutor, Kecamatan Sorong Manoi, Kota Sorong, Papua Bar. 98416","Malabutor, Kecamatan Sorong Manoi, Kota Sorong",PAPUA BARAT,98416.0,Indonesia,,-0.8836291,131.2784194,https://maps.google.com/?cid=0x0:0x82e70f5e2ddd0848
cafe,Grosir Kopi,Kopi Senang,"Jl. Pendidikan No.Km 8, Malaingkedi, Kecamatan Sorong Manoi, Kota Sorong, Papua Bar. 98412","Malaingkedi, Kecamatan Sorong Manoi, Kota Sorong",PAPUA BARAT,98412.0,Indonesia,951322178.0,-0.8878192,131.2955679,https://maps.google.com/?cid=0x0:0xc846bbf0aa073e2d
cafe,Kedai Kopi,Kopi Konnichiwa,"4857+HWG, Jl. Basuki Rahmat, Klawalu, Kecamatan Sorong Manoi, Kota Sorong, Papua Bar. 98416","Jl. Basuki Rahmat, Klawalu, Kecamatan Sorong Manoi, Kota Sorong",PAPUA BARAT,98416.0,Indonesia,85161889100.0,-0.891066,131.3148138,https://maps.google.com/?cid=0x0:0xc5519dba9bc5379b
cafe,Kafe,Royal Coffee  Toast,"489C+P3C, Jl. Sapta Taruna, Matalamagi, Kec. Sorong Utara, Kota Sorong, Papua Bar. 98412","Jl. Sapta Taruna, Matalamagi, Kec. Sorong Utara, Kota Sorong",PAPUA BARAT,98412.0,Indonesia,82199913186.0,-0.8806787,131.3201333,https://maps.google.com/?cid=0x0:0xa2fcdc595783cc49
cafe,Kafe,Cafenation,"Matamalagi, Jl. Sungai Maruni, Kec. Sorong Utara, Kota Sorong, Papua Bar. 98412","Jl. Sungai Maruni, Kec. Sorong Utara, Kota Sorong",PAPUA BARAT,98412.0,Indonesia,81245807789.0,-0.8869143,131.3214705,https://maps.google.com/?cid=0x0:0xb970c60a44273f0f
cafe,Kedai Kopi,Sorong Cafe,"Sawagumu, Kec. Sorong Utara, Kota Sorong, Papua Bar.","Kota Sorong, Papua Bar.",PAPUA BARAT,,Indonesia,81248201730.0,-0.8893784,131.3128926,https://maps.google.com/?cid=0x0:0x7962c1d0ce1b0528
cafe,Kedai Kopi,Kopisoe Basuki Rahmat Soq,"Jl. Basuki Rahmat Jl. Melati Raya KM9,5, Klasabi, Kecamatan Sorong Manoi, Kota Sorong, Papua Bar. 98412","Klasabi, Kecamatan Sorong Manoi, Kota Sorong",PAPUA BARAT,98412.0,Indonesia,8114855879.0,-0.8876184,131.3051735,https://maps.google.com/?cid=0x0:0xff094af82c4b2f2
cafe,Kedai Kopi,Charac.ter coffee house,"Jl. Basuki Rahmat, Klawuyuk, Kec. Sorong Utara, Kota Sorong, Papua Bar. 98416","Klawuyuk, Kec. Sorong Utara, Kota Sorong",PAPUA BARAT,98416.0,Indonesia,81342110466.0,-0.8954408,131.319596,https://maps.google.com/?cid=0x0:0x6b93662abb1ac288
cafe,Kedai Kopi,Tuantana Coffee,"Jl. Malibela No.39, Klawalu, Distrik Sorong Timur, Kota Sorong, Papua Bar. 98416","Klawalu, Distrik Sorong Timur, Kota Sorong",PAPUA BARAT,98416.0,Indonesia,82260971344.0,-0.8996174,131.3178955,https://maps.google.com/?cid=0x0:0x226cd345f67dd7e3
cafe,Kedai Kopi,Roemah Kopi Coffee Roastery Sorong,"Bar, Jl. Olum fagu No5 Belakang Alfamart Selebesolu, Klawalu, Distrik Sorong Timur, Kota Sorong, Papua Bar. 98417","Jl. Olum fagu No5 Belakang Alfamart Selebesolu, Klawalu, Distrik Sorong Timur, Kota Sorong",PAPUA BARAT,98417.0,Indonesia,81248678008.0,-0.9015205,131.3215979,https://maps.google.com/?cid=0x0:0x7c49fd13377abeda
cafe,Kedai Kopi,Lyla.coffeeeatery,"4874+3FQ, Klasabi, Kecamatan Sorong Manoi, Kota Sorong, Papua Bar. 98412","Klasabi, Kecamatan Sorong Manoi, Kota Sorong",PAPUA BARAT,98412.0,Indonesia,,-0.8872589,131.3062762,https://maps.google.com/?cid=0x0:0x19cd5d4f1eefb5b2
cafe,cafe,Papua Bar. 98413,"Klabala, Distrik Sorong Barat, Kota Sorong, Papua Bar.","Kota Sorong, Papua Bar.",PAPUA BARAT,,Indonesia,,-0.8669518,131.254029,https://maps.google.com/?cid=0x0:0x352e1f254d39ea2b
cafe,Toko kopi,ENGINEERING COFFEE SORONG,"Jl. Basuki Rahmat, Remu Sel., Kecamatan Sorong Manoi, Kota Sorong, Papua Bar. 98415","Remu Sel., Kecamatan Sorong Manoi, Kota Sorong",PAPUA BARAT,98415.0,Indonesia,85239860284.0,-0.8836482,131.2857925,https://maps.google.com/?cid=0x0:0x6ffb2e2af5ed06c1
cafe,Kedai Kopi,Lituretu Cafe,"Jl. Raja Ampat No.6, Kp. Baru, Distrik Sorong, Kota Sorong, Papua Bar. 98413","Kp. Baru, Distrik Sorong, Kota Sorong",PAPUA BARAT,98413.0,Indonesia,,-0.8693478,131.2513118,https://maps.google.com/?cid=0x0:0x9b07fe26707f42b1
cafe,Kafe,Cafe Oi Sorong,"Jl. Raja Ampat No.6, Kp. Baru, Distrik Sorong, Kota Sorong, Papua Bar. 98413","Kp. Baru, Distrik Sorong, Kota Sorong",PAPUA BARAT,98413.0,Indonesia,82293322772.0,-0.8693478,131.2513118,https://maps.google.com/?cid=0x0:0xb54dc26003bb3d33
cafe,Kedai Kopi,Terra Cafe,"Jl. Arfak No.24, Kp. Baru, Distrik Sorong, Kota Sorong, Papua Bar. 98413","Kp. Baru, Distrik Sorong, Kota Sorong",PAPUA BARAT,98413.0,Indonesia,85240161348.0,-0.8717566,131.248572,https://maps.google.com/?cid=0x0:0xa6831f8c179c4651
cafe,Indonesia,Selagi Dingin,"Jl. Ahmad Yani No.85, Malabutor, Kecamatan Sorong Manoi, Kota Sorong, Papua Bar. 98416","Malabutor, Kecamatan Sorong Manoi, Kota Sorong",PAPUA BARAT,98416.0,Indonesia,,-0.8836291,131.2784194,https://maps.google.com/?cid=0x0:0x82e70f5e2ddd0848
cafe,Kedai Kopi,wabisabicoffee,"Kp. Baru, Distrik Sorong, Kota Sorong, Papua Bar. 98411","Distrik Sorong, Kota Sorong",PAPUA BARAT,98411.0,Indonesia,82137563208.0,-0.8704999,131.253128,https://maps.google.com/?cid=0x0:0xd4029d1b24ccb3b3
cafe,Kedai Kopi,Sorong Cafe,"Sawagumu, Kec. Sorong Utara, Kota Sorong, Papua Bar.","Kota Sorong, Papua Bar.",PAPUA BARAT,,Indonesia,81248201730.0,-0.8893784,131.3128926,https://maps.google.com/?cid=0x0:0x7962c1d0ce1b0528
cafe,Kafe,The Coffee,"476M+QQ6 Pasar sentral Remu, Remu Sel., Kecamatan Sorong Manoi, Kota Sorong, Papua Bar.","Kota Sorong, Papua Bar.",PAPUA BARAT,,Indonesia,82199928901.0,-0.8880474,131.2844528,https://maps.google.com/?cid=0x0:0x8c2bb11467865814
cafe,Kedai Kopi,Do.pyocoffee,"Jl. Sungai Maruni masuk No.km 10, Klawuyuk, Distrik Sorong Timur, Kota Sorong, Papua Bar. 98416","Klawuyuk, Distrik Sorong Timur, Kota Sorong",PAPUA BARAT,98416.0,Indonesia,,-0.8880443,131.3199144,https://maps.google.com/?cid=0x0:0xe98eb1eac6ada00d
cafe,Kedai Kopi,Kopisoe Basuki Rahmat Soq,"Jl. Basuki Rahmat Jl. Melati Raya KM9,5, Klasabi, Kecamatan Sorong Manoi, Kota Sorong, Papua Bar. 98412","Klasabi, Kecamatan Sorong Manoi, Kota Sorong",PAPUA BARAT,98412.0,Indonesia,8114855879.0,-0.8876184,131.3051735,https://maps.google.com/?cid=0x0:0xff094af82c4b2f2
cafe,Kedai Kopi,KAFE STAY COFFEE,"Belakang GOR, Kompleks Masdjid Al-Azhar,Lorong 3, Rt 02 Rw 05, Malawei, Kecamatan Sorong Manoi, Kota Sorong, Papua Bar. 98412","Kompleks Masdjid Al-Azhar,Lorong 3, Rt 02 Rw 05, Malawei, Kecamatan Sorong Manoi, Kota Sorong",PAPUA BARAT,98412.0,Indonesia,82197959899.0,-0.8888952,131.2817214,https://maps.google.com/?cid=0x0:0x3032f8a350fae72f
cafe,Toko Roti,Billycoffee,"47C7+C65, Jl. Ahmad Yani, Klakublik, Distrik Sorong, Kota Sorong, Papua Bar. 98412","Jl. Ahmad Yani, Klakublik, Distrik Sorong, Kota Sorong",PAPUA BARAT,98412.0,Indonesia,,-0.8788942,131.2631541,https://maps.google.com/?cid=0x0:0x721fba8bd1d4a255
cafe,Kedai Kopi,Lyla.coffeeeatery,"4874+3FQ, Klasabi, Kecamatan Sorong Manoi, Kota Sorong, Papua Bar. 98412","Klasabi, Kecamatan Sorong Manoi, Kota Sorong",PAPUA BARAT,98412.0,Indonesia,,-0.8872589,131.3062762,https://maps.google.com/?cid=0x0:0x19cd5d4f1eefb5b2
cafe,Kedai Kopi,Sorong Cafe,"Sawagumu, Kec. Sorong Utara, Kota Sorong, Papua Bar.","Kota Sorong, Papua Bar.",PAPUA BARAT,,Indonesia,81248201730.0,-0.8893784,131.3128926,https://maps.google.com/?cid=0x0:0x7962c1d0ce1b0528
cafe,cafe,Papua Bar. 98414,Papua Bar.,Papua Bar.,PAPUA BARAT,,Indonesia,,-0.923988,131.3811577,https://maps.google.com/?cid=0x0:0xa17d4a17a04184b
cafe,Kedai Kopi,Double Coffee,"383P+CM4, Klablim, Distrik Sorong Timur, Kota Sorong, Papua Bar. 98414","Klablim, Distrik Sorong Timur, Kota Sorong",PAPUA BARAT,98414.0,Indonesia,81343047189.0,-0.9464881,131.3366774,https://maps.google.com/?cid=0x0:0xd104523d7f8f8f32
cafe,Toko Roti,Sasukun Cafe / Kue Maniso,"Jl. KPR Klasaman Permai, Klamana, Distrik Sorong Timur, Kota Sorong, Papua Bar. 98417","Klamana, Distrik Sorong Timur, Kota Sorong",PAPUA BARAT,98417.0,Indonesia,81343186117.0,-0.9088288,131.3272156,https://maps.google.com/?cid=0x0:0x3a6b69777a1af5da
cafe,Kedai Kopi,Do.pyocoffee,"Jl. Sungai Maruni masuk No.km 10, Klawuyuk, Distrik Sorong Timur, Kota Sorong, Papua Bar. 98416","Klawuyuk, Distrik Sorong Timur, Kota Sorong",PAPUA BARAT,98416.0,Indonesia,,-0.8880443,131.3199144,https://maps.google.com/?cid=0x0:0xe98eb1eac6ada00d
cafe,Kafe,Cafe Clan,"28XP+276, Bar., Malawili, Kec. Aimas, Kabupaten Sorong, Papua Bar. 98414","Bar., Malawili, Kec. Aimas, Kabupaten Sorong",PAPUA BARAT,98414.0,Indonesia,,-0.9524611,131.3356532,https://maps.google.com/?cid=0x0:0xf5fb8065f3049deb
cafe,Kafe,West Cafe Sorong,"38XG+MGM, Klawuyuk, Distrik Sorong Timur, Kota Sorong, Papua Bar. 98416","Klawuyuk, Distrik Sorong Timur, Kota Sorong",PAPUA BARAT,98416.0,Indonesia,82199922190.0,-0.9007986,131.3262909,https://maps.google.com/?cid=0x0:0x2ae547f359dc7a13
cafe,Es Krim,Kimâs Dessert,"Loupatty Family, Jl. H Watem, Kota Sorong, Papua Bar. 98417","Jl. H Watem, Kota Sorong",PAPUA BARAT,98417.0,Indonesia,85173459851.0,-0.9436735,131.3331999,https://maps.google.com/?cid=0x0:0x14e8074c20230ad3
cafe,Kafe,Ngemil Sorong,"Klamana, Distrik Sorong Timur, Kota Sorong, Papua Bar. 98416","Distrik Sorong Timur, Kota Sorong",PAPUA BARAT,98416.0,Indonesia,81291596377.0,-0.916764,131.3243872,https://maps.google.com/?cid=0x0:0xd7e67bfaad607bdd
cafe,Kedai Kopi,Tuantana Coffee,"Jl. Malibela No.39, Klawalu, Distrik Sorong Timur, Kota Sorong, Papua Bar. 98416","Klawalu, Distrik Sorong Timur, Kota Sorong",PAPUA BARAT,98416.0,Indonesia,82260971344.0,-0.8996174,131.3178955,https://maps.google.com/?cid=0x0:0x226cd345f67dd7e3
cafe,Toko kopi,Nthree Point Cafe,"28VH+478, Jl. Nangka, Malawili, Kec. Aimas, Kabupaten Sorong, Papua Bar. 98414","Jl. Nangka, Malawili, Kec. Aimas, Kabupaten Sorong",PAPUA BARAT,98414.0,Indonesia,82118328860.0,-0.957217,131.3281964,https://maps.google.com/?cid=0x0:0x6d6630dff9b0c07b
cafe,Toko kopi,ENGINEERING COFFEE SORONG,"Jl. Basuki Rahmat, Remu Sel., Kecamatan Sorong Manoi, Kota Sorong, Papua Bar. 98415","Remu Sel., Kecamatan Sorong Manoi, Kota Sorong",PAPUA BARAT,98415.0,Indonesia,85239860284.0,-0.8836482,131.2857925,https://maps.google.com/?cid=0x0:0x6ffb2e2af5ed06c1
cafe,Kedai Kopi,Rumah Putih,"388M+GG4, Jl. Sorong - Aimas, Klablim, Distrik Sorong Timur, Kota Sorong, Papua Bar. 98414","Jl. Sorong - Aimas, Klablim, Distrik Sorong Timur, Kota Sorong",PAPUA BARAT,98414.0,Indonesia,,-0.9338287,131.3338453,https://maps.google.com/?cid=0x0:0xfcccdb194594fcdb
cafe,cafe,Senja Cafe,"28RH+9QV, Jl. Sawo, Malawili, Kec. Aimas, Kabupaten Sorong, Papua Bar. 98414","Jl. Sawo, Malawili, Kec. Aimas, Kabupaten Sorong",PAPUA BARAT,98414.0,Indonesia,,-0.9590185,131.3294117,https://maps.google.com/?cid=0x0:0x1e32faa575a7dcc1
cafe,cafe,Papua Bar. 98415,"Distrik Mariat, Kabupaten Sorong, Papua Bar.","Kabupaten Sorong, Papua Bar.",PAPUA BARAT,,Indonesia,,-1.0184261,131.3510866,https://maps.google.com/?cid=0x0:0x4d8344d873702960
cafe,Toko Roti,Indah Indri Cake,"X8M9+V9R, Mariyai, Distrik Mariat, Kabupaten Sorong, Papua Bar. 98415","Mariyai, Distrik Mariat, Kabupaten Sorong",PAPUA BARAT,98415.0,Indonesia,,-1.0152619,131.3183872,https://maps.google.com/?cid=0x0:0xb0cfadee43ad7567
cafe,Toko umum,K15 farms,"X8G9+5MR, Jl. Nusa Indah, Mariyai, Distrik Mariat, Kabupaten Sorong, Papua Bar. 98415","Jl. Nusa Indah, Mariyai, Distrik Mariat, Kabupaten Sorong",PAPUA BARAT,98415.0,Indonesia,,-1.0245077,131.3191298,https://maps.google.com/?cid=0x0:0xd33b4494702d6a52
cafe,Kedai Kopi,Coffe Clasik Sp2,"X8M9+C9V, Jl. Nusa Indah, Mariyai, Distrik Mariat, Kabupaten Sorong, Papua Bar. 98415","Jl. Nusa Indah, Mariyai, Distrik Mariat, Kabupaten Sorong",PAPUA BARAT,98415.0,Indonesia,82236311189.0,-1.0163828,131.3184321,https://maps.google.com/?cid=0x0:0x2d5b0aee5a099518
cafe,Rumah Makan,Kejora cafe,"X8H9+654, Jl. Nusa Indah, Mariyai, Distrik Mariat, Kabupaten Sorong, Papua Bar. 98415","Jl. Nusa Indah, Mariyai, Distrik Mariat, Kabupaten Sorong",PAPUA BARAT,98415.0,Indonesia,,-1.0219993,131.31794,https://maps.google.com/?cid=0x0:0x6464f8716d949dd7
cafe,Kafe,Sembari Coffee,"38QF+JP5, Klamana, Distrik Sorong Timur, Kota Sorong, Papua Bar.","Kota Sorong, Papua Bar.",PAPUA BARAT,,Indonesia,,-0.9108998,131.3242005,https://maps.google.com/?cid=0x0:0x8f7ee35b1a7cf59f
cafe,Kedai Kopi,ENGINEERING COFFEE AIMAS,"Jalur D samping kantor PDAM, Kec. Aimas, Kabupaten Sorong, Papua Bar. 98444","Kec. Aimas, Kabupaten Sorong",PAPUA BARAT,98444.0,Indonesia,81344646139.0,-0.9556394,131.3309762,https://maps.google.com/?cid=0x0:0xc9393d225085004e
cafe,Kedai Kopi,Sorong barat,"X8VP+8FX, Jl. Remaja, Klamalu, Kec. Aimas, Kabupaten Sorong, Papua Bar. 98415","Jl. Remaja, Klamalu, Kec. Aimas, Kabupaten Sorong",PAPUA BARAT,98415.0,Indonesia,,-1.0066388,131.336237,https://maps.google.com/?cid=0x0:0x319a3dab10aeb385
cafe,Kafe,"Pamela Cafe (Karaoke, Kafe)","Jl. Mariat Pantai, Daya, Kec. Aimas, Kabupaten Sorong, Papua Bar. 98444","Daya, Kec. Aimas, Kabupaten Sorong",PAPUA BARAT,98444.0,Indonesia,81344103099.0,-0.9865734,131.3151679,https://maps.google.com/?cid=0x0:0xa469fc132afbcd6b
cafe,Kedai Kopi,ANGKRINGAN MAKASSAR,"Jl. Nusa Indah, Mariyai, Distrik Mariat, Kabupaten Sorong, Papua Bar. 98415","Mariyai, Distrik Mariat, Kabupaten Sorong",PAPUA BARAT,98415.0,Indonesia,81248648621.0,-1.0111484,131.3189484,https://maps.google.com/?cid=0x0:0x1f2f6822512607f3
cafe,Kafe,Kakadaigo WiFi corner,"2993+95M, Jl. Gabus, Klamasen, Distrik Mariat, Kabupaten Sorong, Papua Bar. 98416","Jl. Gabus, Klamasen, Distrik Mariat, Kabupaten Sorong",PAPUA BARAT,98416.0,Indonesia,82395960356.0,-0.9815429,131.352933,https://maps.google.com/?cid=0x0:0x8028abc4e62df1aa
cafe,cafe,UNIMUDA CAFE,"2893+G7W, Jl. Mariat Pantai, Mariat Pantai, Kec. Aimas, Kabupaten Sorong, Papua Bar. 98414","Jl. Mariat Pantai, Mariat Pantai, Kec. Aimas, Kabupaten Sorong",PAPUA BARAT,98414.0,Indonesia,,-0.9811467,131.3032109,https://maps.google.com/?cid=0x0:0x3ae6892ff8aab2de
cafe,Rumah Makan,RM Lesehan K'WADUK bendungan,"Jl cianjur sp1, bendungan, Klamalu, Distrik Mariat, Kabupaten Sorong, Papua Bar.","Kabupaten Sorong, Papua Bar.",PAPUA BARAT,,Indonesia,81248220999.0,-1.0021343,131.3563553,https://maps.google.com/?cid=0x0:0x8fe3c1fbf461145a
cafe,Dapur Umum,GUBUG GEMBOK TJINTA (GGT),"Jl. Basuki Rahmat No.Km. 9, Sawagumu, Kec. Sorong Utara, Kota Sorong, Papua Bar. 98415","Sawagumu, Kec. Sorong Utara, Kota Sorong",PAPUA BARAT,98415.0,Indonesia,81806997999.0,-0.88781,131.30741,https://maps.google.com/?cid=0x0:0x109e4a30a5b526dd
cafe,cafe,Papua Bar. 98417,"Kabupaten Sorong, Papua Bar.","Kabupaten Sorong, Papua Bar.",PAPUA BARAT,,Indonesia,,-1.0174852,131.4112125,https://maps.google.com/?cid=0x0:0xc20f17b25d0eed85
cafe,Kedai Kopi,Tuantana Coffee,"Jl. Malibela No.39, Klawalu, Distrik Sorong Timur, Kota Sorong, Papua Bar. 98416","Klawalu, Distrik Sorong Timur, Kota Sorong",PAPUA BARAT,98416.0,Indonesia,82260971344.0,-0.8996174,131.3178955,https://maps.google.com/?cid=0x0:0x226cd345f67dd7e3
cafe,Kedai Kopi,Do.pyocoffee,"Jl. Sungai Maruni masuk No.km 10, Klawuyuk, Distrik Sorong Timur, Kota Sorong, Papua Bar. 98416","Klawuyuk, Distrik Sorong Timur, Kota Sorong",PAPUA BARAT,98416.0,Indonesia,,-0.8880443,131.3199144,https://maps.google.com/?cid=0x0:0xe98eb1eac6ada00d
cafe,Toko kopi,ENGINEERING COFFEE SORONG,"Jl. Basuki Rahmat, Remu Sel., Kecamatan Sorong Manoi, Kota Sorong, Papua Bar. 98415","Remu Sel., Kecamatan Sorong Manoi, Kota Sorong",PAPUA BARAT,98415.0,Indonesia,85239860284.0,-0.8836482,131.2857925,https://maps.google.com/?cid=0x0:0x6ffb2e2af5ed06c1
cafe,Kafe,Sembari Coffee,"38QF+JP5, Klamana, Distrik Sorong Timur, Kota Sorong, Papua Bar.","Kota Sorong, Papua Bar.",PAPUA BARAT,,Indonesia,,-0.9108998,131.3242005,https://maps.google.com/?cid=0x0:0x8f7ee35b1a7cf59f
cafe,Kafe,Cafenation,"Matamalagi, Jl. Sungai Maruni, Kec. Sorong Utara, Kota Sorong, Papua Bar. 98412","Jl. Sungai Maruni, Kec. Sorong Utara, Kota Sorong",PAPUA BARAT,98412.0,Indonesia,81245807789.0,-0.8869143,131.3214705,https://maps.google.com/?cid=0x0:0xb970c60a44273f0f
cafe,Kedai Kopi,Kopisoe Basuki Rahmat Soq,"Jl. Basuki Rahmat Jl. Melati Raya KM9,5, Klasabi, Kecamatan Sorong Manoi, Kota Sorong, Papua Bar. 98412","Klasabi, Kecamatan Sorong Manoi, Kota Sorong",PAPUA BARAT,98412.0,Indonesia,8114855879.0,-0.8876184,131.3051735,https://maps.google.com/?cid=0x0:0xff094af82c4b2f2
cafe,Pujasera,Hangout Avenue Sorong,"Jl Sungai Maruni KM 10, Masuk No.23, Kota Sorong, Papua Bar. 98416","Masuk No.23, Kota Sorong",PAPUA BARAT,98416.0,Indonesia,82197698090.0,-0.8868107,131.3216004,https://maps.google.com/?cid=0x0:0x29c3ed1d6d1ac389
cafe,Kedai Kopi,Brown Hill Cafe,"48G3+7XV, Jl. F Kalasuat, Malanu, Kec. Sorong Utara, Kota Sorong, Papua Bar. 98412","Jl. F Kalasuat, Malanu, Kec. Sorong Utara, Kota Sorong",PAPUA BARAT,98412.0,Indonesia,82114721193.0,-0.8742653,131.3049307,https://maps.google.com/?cid=0x0:0xa60cb6d736dfcb14
cafe,Kedai Kopi,De Koffie Bandara DEO Lt2. Sorong,"Bandara Domine Eduard Osok, Terminal, Jl. Basuki Rahmat, South Remu, Sorong Manoi, Sorong City, West Papua 98412","Terminal, Jl. Basuki Rahmat, South Remu, Sorong Manoi, Sorong City",PAPUA BARAT,98412.0,Indonesia,8124830195.0,-0.8907691,131.2911394,https://maps.google.com/?cid=0x0:0xbf2e2899ff485573
cafe,Kedai Kopi,Lyla.coffeeeatery,"4874+3FQ, Klasabi, Kecamatan Sorong Manoi, Kota Sorong, Papua Bar. 98412","Klasabi, Kecamatan Sorong Manoi, Kota Sorong",PAPUA BARAT,98412.0,Indonesia,,-0.8872589,131.3062762,https://maps.google.com/?cid=0x0:0x19cd5d4f1eefb5b2
cafe,Kedai Kopi,ENGINEERING COFFEE AIMAS,"Jalur D samping kantor PDAM, Kec. Aimas, Kabupaten Sorong, Papua Bar. 98444","Kec. Aimas, Kabupaten Sorong",PAPUA BARAT,98444.0,Indonesia,81344646139.0,-0.9556394,131.3309762,https://maps.google.com/?cid=0x0:0xc9393d225085004e
cafe,Hidangan Laut,Republik Seafood,"Sawagumu, Kec. Sorong Utara, Kota Sorong, Papua Bar. 98412","Kec. Sorong Utara, Kota Sorong",PAPUA BARAT,98412.0,Indonesia,81344615005.0,-0.8883945,131.3109228,https://maps.google.com/?cid=0x0:0xec5acb934a352d67
cafe,Kedai Kopi,Lapak Papan Mami Ewun,"XCR3+62, Klaben, Distrik Mariat, Kabupaten Sorong, Papua Bar.","Kabupaten Sorong, Papua Bar.",PAPUA BARAT,,Indonesia,,-1.009393,131.402598,https://maps.google.com/?cid=0x0:0x5553662f693ebe47
cafe,Kedai Kopi,Do.pyocoffee,"Jl. Sungai Maruni masuk No.km 10, Klawuyuk, Distrik Sorong Timur, Kota Sorong, Papua Bar. 98416","Klawuyuk, Distrik Sorong Timur, Kota Sorong",PAPUA BARAT,98416.0,Indonesia,,-0.8880443,131.3199144,https://maps.google.com/?cid=0x0:0xe98eb1eac6ada00d
cafe,Kedai Kopi,Sorong Cafe,"Sawagumu, Kec. Sorong Utara, Kota Sorong, Papua Bar.","Kota Sorong, Papua Bar.",PAPUA BARAT,,Indonesia,81248201730.0,-0.8893784,131.3128926,https://maps.google.com/?cid=0x0:0x7962c1d0ce1b0528
cafe,cafe,,,,PAPUA BARAT,,Indonesia,,,,https://maps.google.com/?cid=0x0:0x7962c1d0ce1b0528u0026onu003dNasi+Bakaru0026midu003d/g/11scsktry8
cafe,cafe,,,,PAPUA BARAT,,Indonesia,,,,https://maps.google.com/?cid=0x0:0x7962c1d0ce1b0528u0026onu003dIkan+Goreng+Ricau0026midu003d/g/11scsktry8
cafe,cafe,,,,PAPUA BARAT,,Indonesia,,,,https://maps.google.com/?cid=0x0:0x7962c1d0ce1b0528u0026onu003dKaredoku0026midu003d/g/11scsktry8
cafe,cafe,,,,PAPUA BARAT,,Indonesia,,,,https://maps.google.com/?cid=0x0:0x7962c1d0ce1b0528u0026onu003dFettuccineu0026midu003d/g/11scsktry8
cafe,cafe,,,,PAPUA BARAT,,Indonesia,,,,https://maps.google.com/?cid=0x0:0x7962c1d0ce1b0528u0026onu003dSukun+Gorengu0026midu003d/g/11scsktry8
cafe,cafe,,,,PAPUA BARAT,,Indonesia,,,,https://maps.google.com/?cid=0x0:0x7962c1d0ce1b0528u0026onu003dJeruk+Hangatu0026midu003d/g/11scsktry8
cafe,cafe,,,,PAPUA BARAT,,Indonesia,,,,https://maps.google.com/?cid=0x0:0x7962c1d0ce1b0528u0026onu0026midu003d/g/11scsktry8
cafe,cafe,Distrik Sorong Timur,"Kota Sorong, Papua Bar.","Kota Sorong, Papua Bar.",PAPUA BARAT,,Indonesia,,-0.9026463,131.3235791,https://maps.google.com/?cid=0x0:0xfda18302f5d09cf1
cafe,Kedai Kopi,Charac.ter coffee house,"Jl. Basuki Rahmat, Klawuyuk, Kec. Sorong Utara, Kota Sorong, Papua Bar. 98416","Klawuyuk, Kec. Sorong Utara, Kota Sorong",PAPUA BARAT,98416.0,Indonesia,81342110466.0,-0.8954408,131.319596,https://maps.google.com/?cid=0x0:0x6b93662abb1ac288
cafe,Kedai Kopi,Roemah Kopi Coffee Roastery Sorong,"Bar, Jl. Olum fagu No5 Belakang Alfamart Selebesolu, Klawalu, Distrik Sorong Timur, Kota Sorong, Papua Bar. 98417","Jl. Olum fagu No5 Belakang Alfamart Selebesolu, Klawalu, Distrik Sorong Timur, Kota Sorong",PAPUA BARAT,98417.0,Indonesia,81248678008.0,-0.9015205,131.3215979,https://maps.google.com/?cid=0x0:0x7c49fd13377abeda
cafe,Kedai Kopi,Tuantana Coffee,"Jl. Malibela No.39, Klawalu, Distrik Sorong Timur, Kota Sorong, Papua Bar. 98416","Klawalu, Distrik Sorong Timur, Kota Sorong",PAPUA BARAT,98416.0,Indonesia,82260971344.0,-0.8996174,131.3178955,https://maps.google.com/?cid=0x0:0x226cd345f67dd7e3
cafe,Kafe,Cafenation,"Matamalagi, Jl. Sungai Maruni, Kec. Sorong Utara, Kota Sorong, Papua Bar. 98412","Jl. Sungai Maruni, Kec. Sorong Utara, Kota Sorong",PAPUA BARAT,98412.0,Indonesia,81245807789.0,-0.8869143,131.3214705,https://maps.google.com/?cid=0x0:0xb970c60a44273f0f
cafe,cafe,Papua Bar. 98419,"Kabupaten Sorong, Papua Bar.","Kabupaten Sorong, Papua Bar.",PAPUA BARAT,,Indonesia,,-0.9516965,131.4612677,https://maps.google.com/?cid=0x0:0x1846ff160c020f5b
cafe,Kedai Kopi,Do.pyocoffee,"Jl. Sungai Maruni masuk No.km 10, Klawuyuk, Distrik Sorong Timur, Kota Sorong, Papua Bar. 98416","Klawuyuk, Distrik Sorong Timur, Kota Sorong",PAPUA BARAT,98416.0,Indonesia,,-0.8880443,131.3199144,https://maps.google.com/?cid=0x0:0xe98eb1eac6ada00d
cafe,Toko kopi,ENGINEERING COFFEE SORONG,"Jl. Basuki Rahmat, Remu Sel., Kecamatan Sorong Manoi, Kota Sorong, Papua Bar. 98415","Remu Sel., Kecamatan Sorong Manoi, Kota Sorong",PAPUA BARAT,98415.0,Indonesia,85239860284.0,-0.8836482,131.2857925,https://maps.google.com/?cid=0x0:0x6ffb2e2af5ed06c1
cafe,Kedai Kopi,Tuantana Coffee,"Jl. Malibela No.39, Klawalu, Distrik Sorong Timur, Kota Sorong, Papua Bar. 98416","Klawalu, Distrik Sorong Timur, Kota Sorong",PAPUA BARAT,98416.0,Indonesia,82260971344.0,-0.8996174,131.3178955,https://maps.google.com/?cid=0x0:0x226cd345f67dd7e3
cafe,Kafe,Cafenation,"Matamalagi, Jl. Sungai Maruni, Kec. Sorong Utara, Kota Sorong, Papua Bar. 98412","Jl. Sungai Maruni, Kec. Sorong Utara, Kota Sorong",PAPUA BARAT,98412.0,Indonesia,81245807789.0,-0.8869143,131.3214705,https://maps.google.com/?cid=0x0:0xb970c60a44273f0f
cafe,Kedai Kopi,Kopisoe Basuki Rahmat Soq,"Jl. Basuki Rahmat Jl. Melati Raya KM9,5, Klasabi, Kecamatan Sorong Manoi, Kota Sorong, Papua Bar. 98412","Klasabi, Kecamatan Sorong Manoi, Kota Sorong",PAPUA BARAT,98412.0,Indonesia,8114855879.0,-0.8876184,131.3051735,https://maps.google.com/?cid=0x0:0xff094af82c4b2f2
cafe,Pujasera,Hangout Avenue Sorong,"Jl Sungai Maruni KM 10, Masuk No.23, Kota Sorong, Papua Bar. 98416","Masuk No.23, Kota Sorong",PAPUA BARAT,98416.0,Indonesia,82197698090.0,-0.8868107,131.3216004,https://maps.google.com/?cid=0x0:0x29c3ed1d6d1ac389
cafe,Kafe,Cafe ALL Winta,"depan kiri Bakso Nuklir klu dari kilo 20, Jl. Sungai Kamundan, Klawuyuk, Distrik Sorong Timur, Kota Sorong, Papua Bar. 98416","Jl. Sungai Kamundan, Klawuyuk, Distrik Sorong Timur, Kota Sorong",PAPUA BARAT,98416.0,Indonesia,81310935287.0,-0.8909349,131.3266276,https://maps.google.com/?cid=0x0:0xfef7aa4ad30d4a89
cafe,Kedai Kopi,Sembari Coffee,"Jl. KPR Moyo Permai, Klayili, Distrik Klayili, Kabupaten Sorong, Papua Bar. 98419","Klayili, Distrik Klayili, Kabupaten Sorong",PAPUA BARAT,98419.0,Indonesia,,-0.9516965,131.4612677,https://maps.google.com/?cid=0x0:0x4221ef5be1c4a7eb
cafe,cafe,NUKU COFFEE,"Jl. Dorowati, Giwu, Distrik Sorong Timur, Kota Sorong, Papua Bar. 98416","Giwu, Distrik Sorong Timur, Kota Sorong",PAPUA BARAT,98416.0,Indonesia,81247565051.0,-0.8966969,131.3346401,https://maps.google.com/?cid=0x0:0x72fda634dff8ed49
cafe,Kedai Kopi,Brown Hill Cafe,"48G3+7XV, Jl. F Kalasuat, Malanu, Kec. Sorong Utara, Kota Sorong, Papua Bar. 98412","Jl. F Kalasuat, Malanu, Kec. Sorong Utara, Kota Sorong",PAPUA BARAT,98412.0,Indonesia,82114721193.0,-0.8742653,131.3049307,https://maps.google.com/?cid=0x0:0xa60cb6d736dfcb14
cafe,Kedai Kopi,ENGINEERING COFFEE AIMAS,"Jalur D samping kantor PDAM, Kec. Aimas, Kabupaten Sorong, Papua Bar. 98444","Kec. Aimas, Kabupaten Sorong",PAPUA BARAT,98444.0,Indonesia,81344646139.0,-0.9556394,131.3309762,https://maps.google.com/?cid=0x0:0xc9393d225085004e
cafe,Kedai Kopi,Cafe NongâQ,"4857+WPX, Jl. Kilang Blk. B, Sawagumu, Kec. Sorong Utara, Kota Sorong, Papua Bar. 98412","Jl. Kilang Blk. B, Sawagumu, Kec. Sorong Utara, Kota Sorong",PAPUA BARAT,98412.0,Indonesia,81332413232.0,-0.8901424,131.3143502,https://maps.google.com/?cid=0x0:0xfa9c4c2bc1a74a40
cafe,Kafe,Sembari Coffee,"38QF+JP5, Klamana, Distrik Sorong Timur, Kota Sorong, Papua Bar.","Kota Sorong, Papua Bar.",PAPUA BARAT,,Indonesia,,-0.9108998,131.3242005,https://maps.google.com/?cid=0x0:0x8f7ee35b1a7cf59f
cafe,cafe,Kecamatan Sorong Manoi,"Kota Sorong, Papua Bar.","Kota Sorong, Papua Bar.",PAPUA BARAT,,Indonesia,,-0.8875965,131.2870369,https://maps.google.com/?cid=0x0:0xeae8019c83ed0741
cafe,Toko kopi,ENGINEERING COFFEE SORONG,"Jl. Basuki Rahmat, Remu Sel., Kecamatan Sorong Manoi, Kota Sorong, Papua Bar. 98415","Remu Sel., Kecamatan Sorong Manoi, Kota Sorong",PAPUA BARAT,98415.0,Indonesia,85239860284.0,-0.8836482,131.2857925,https://maps.google.com/?cid=0x0:0x6ffb2e2af5ed06c1
cafe,Kedai Kopi,Do.pyocoffee,"Jl. Sungai Maruni masuk No.km 10, Klawuyuk, Distrik Sorong Timur, Kota Sorong, Papua Bar. 98416","Klawuyuk, Distrik Sorong Timur, Kota Sorong",PAPUA BARAT,98416.0,Indonesia,,-0.8880443,131.3199144,https://maps.google.com/?cid=0x0:0xe98eb1eac6ada00d
cafe,Kedai Kopi,Sorong Cafe,"Sawagumu, Kec. Sorong Utara, Kota Sorong, Papua Bar.","Kota Sorong, Papua Bar.",PAPUA BARAT,,Indonesia,81248201730.0,-0.8893784,131.3128926,https://maps.google.com/?cid=0x0:0x7962c1d0ce1b0528
cafe,Kafe,The Coffee,"476M+QQ6 Pasar sentral Remu, Remu Sel., Kecamatan Sorong Manoi, Kota Sorong, Papua Bar.","Kota Sorong, Papua Bar.",PAPUA BARAT,,Indonesia,82199928901.0,-0.8880474,131.2844528,https://maps.google.com/?cid=0x0:0x8c2bb11467865814
cafe,Indonesia,Selagi Dingin,"Jl. Ahmad Yani No.85, Malabutor, Kecamatan Sorong Manoi, Kota Sorong, Papua Bar. 98416","Malabutor, Kecamatan Sorong Manoi, Kota Sorong",PAPUA BARAT,98416.0,Indonesia,,-0.8836291,131.2784194,https://maps.google.com/?cid=0x0:0x82e70f5e2ddd0848
cafe,Kafe,fm_coffee,"477W+HQQ, Jl. Frans Kaisiepo, Malaingkedi, Kecamatan Sorong Manoi, Kota Sorong, Papua Bar. 98412","Jl. Frans Kaisiepo, Malaingkedi, Kecamatan Sorong Manoi, Kota Sorong",PAPUA BARAT,98412.0,Indonesia,81343004747.0,-0.8860257,131.2969774,https://maps.google.com/?cid=0x0:0x7e51e9d3ca47f90e
cafe,Kafe,Kafe Nomu72,"4788+Q7G, Jl. Jend. Sudirman, Klaligi, Kecamatan Sorong Manoi, Kota Sorong, Papua Bar. 98412","Jl. Jend. Sudirman, Klaligi, Kecamatan Sorong Manoi, Kota Sorong",PAPUA BARAT,98412.0,Indonesia,85254445898.0,-0.8830505,131.2656962,https://maps.google.com/?cid=0x0:0x4941d21915bc3e87
cafe,Kedai Kopi,Kopisoe Basuki Rahmat Soq,"Jl. Basuki Rahmat Jl. Melati Raya KM9,5, Klasabi, Kecamatan Sorong Manoi, Kota Sorong, Papua Bar. 98412","Klasabi, Kecamatan Sorong Manoi, Kota Sorong",PAPUA BARAT,98412.0,Indonesia,8114855879.0,-0.8876184,131.3051735,https://maps.google.com/?cid=0x0:0xff094af82c4b2f2
cafe,Kafe,Coffee Box chak's,"Jl. Ahmad Yani No.53, Malabutor, Kecamatan Sorong Manoi, Kota Sorong, Papua Bar. 98415","Malabutor, Kecamatan Sorong Manoi, Kota Sorong",PAPUA BARAT,98415.0,Indonesia,85242088802.0,-0.8830198,131.281061,https://maps.google.com/?cid=0x0:0x33cd03ca8e1451be
cafe,Grosir Kopi,Kopi Senang,"Jl. Pendidikan No.Km 8, Malaingkedi, Kecamatan Sorong Manoi, Kota Sorong, Papua Bar. 98412","Malaingkedi, Kecamatan Sorong Manoi, Kota Sorong",PAPUA BARAT,98412.0,Indonesia,951322178.0,-0.8878192,131.2955679,https://maps.google.com/?cid=0x0:0xc846bbf0aa073e2d
cafe,Kedai Kopi,Maladum Coffee,"Depam, Man Model Sorong, Jl. Basuki Rahmat No.36, RW.Km.7, Malaingkedi, Kec. Sorong Utara, Kota Sorong, Papua Bar. 98415","Man Model Sorong, Jl. Basuki Rahmat No.36, RW.Km.7, Malaingkedi, Kec. Sorong Utara, Kota Sorong",PAPUA BARAT,98415.0,Indonesia,82299299220.0,-0.8862927,131.2892131,https://maps.google.com/?cid=0x0:0x5e8d2aa3e6387fc6
cafe,Kedai Kopi,Tuantana Coffee,"Jl. Malibela No.39, Klawalu, Distrik Sorong Timur, Kota Sorong, Papua Bar. 98416","Klawalu, Distrik Sorong Timur, Kota Sorong",PAPUA BARAT,98416.0,Indonesia,82260971344.0,-0.8996174,131.3178955,https://maps.google.com/?cid=0x0:0x226cd345f67dd7e3
cafe,Kafe,Cafe dan Resto Doi,"477R+535, Jl. Basuki Rahmat, Malaingkedi, Kec. Sorong Utara, Kota Sorong, Papua Bar. 98412","Jl. Basuki Rahmat, Malaingkedi, Kec. Sorong Utara, Kota Sorong",PAPUA BARAT,98412.0,Indonesia,,-0.8871833,131.2903217,https://maps.google.com/?cid=0x0:0x3a5f35af728d9394
cafe,cafe,Kecamatan Sorong Manoi,"Kota Sorong, Papua Bar.","Kota Sorong, Papua Bar.",PAPUA BARAT,,Indonesia,,-0.8875965,131.2870369,https://maps.google.com/?cid=0x0:0xeae8019c83ed0741
cafe,Toko kopi,ENGINEERING COFFEE SORONG,"Jl. Basuki Rahmat, Remu Sel., Kecamatan Sorong Manoi, Kota Sorong, Papua Bar. 98415","Remu Sel., Kecamatan Sorong Manoi, Kota Sorong",PAPUA BARAT,98415.0,Indonesia,85239860284.0,-0.8836482,131.2857925,https://maps.google.com/?cid=0x0:0x6ffb2e2af5ed06c1
cafe,Kedai Kopi,Do.pyocoffee,"Jl. Sungai Maruni masuk No.km 10, Klawuyuk, Distrik Sorong Timur, Kota Sorong, Papua Bar. 98416","Klawuyuk, Distrik Sorong Timur, Kota Sorong",PAPUA BARAT,98416.0,Indonesia,,-0.8880443,131.3199144,https://maps.google.com/?cid=0x0:0xe98eb1eac6ada00d
cafe,Kafe,The Coffee,"476M+QQ6 Pasar sentral Remu, Remu Sel., Kecamatan Sorong Manoi, Kota Sorong, Papua Bar.","Kota Sorong, Papua Bar.",PAPUA BARAT,,Indonesia,82199928901.0,-0.8880474,131.2844528,https://maps.google.com/?cid=0x0:0x8c2bb11467865814
cafe,cafe,The Coffee Gota Km 10,"4869+MMH, Jl. Sungai Maruni, Sawagumu, Kec. Sorong Utara, Kota Sorong, Papua Bar. 98416","Jl. Sungai Maruni, Sawagumu, Kec. Sorong Utara, Kota Sorong",PAPUA BARAT,98416.0,Indonesia,,-0.8883211,131.3192388,https://maps.google.com/?cid=0x0:0xd8dc1a7ff264a2db
cafe,Indonesia,Aghina Cafe and Restaurant,"478F+G45, Malabutor, Kecamatan Sorong Manoi, Kota Sorong, Papua Bar. 98412","Malabutor, Kecamatan Sorong Manoi, Kota Sorong",PAPUA BARAT,98412.0,Indonesia,81344840839.0,-0.8837374,131.2728509,https://maps.google.com/?cid=0x0:0x57d56fb0e9f3b322
cafe,Kedai Kopi,Kopi Konnichiwa,"4857+HWG, Jl. Basuki Rahmat, Klawalu, Kecamatan Sorong Manoi, Kota Sorong, Papua Bar. 98416","Jl. Basuki Rahmat, Klawalu, Kecamatan Sorong Manoi, Kota Sorong",PAPUA BARAT,98416.0,Indonesia,85161889100.0,-0.891066,131.3148138,https://maps.google.com/?cid=0x0:0xc5519dba9bc5379b
cafe,Kedai Kopi,Maladum Coffee,"Depam, Man Model Sorong, Jl. Basuki Rahmat No.36, RW.Km.7, Malaingkedi, Kec. Sorong Utara, Kota Sorong, Papua Bar. 98415","Man Model Sorong, Jl. Basuki Rahmat No.36, RW.Km.7, Malaingkedi, Kec. Sorong Utara, Kota Sorong",PAPUA BARAT,98415.0,Indonesia,82299299220.0,-0.8862927,131.2892131,https://maps.google.com/?cid=0x0:0x5e8d2aa3e6387fc6
cafe,Kedai Kopi,Sorong Cafe,"Sawagumu, Kec. Sorong Utara, Kota Sorong, Papua Bar.","Kota Sorong, Papua Bar.",PAPUA BARAT,,Indonesia,81248201730.0,-0.8893784,131.3128926,https://maps.google.com/?cid=0x0:0x7962c1d0ce1b0528
cafe,Indonesia,Selagi Dingin,"Jl. Ahmad Yani No.85, Malabutor, Kecamatan Sorong Manoi, Kota Sorong, Papua Bar. 98416","Malabutor, Kecamatan Sorong Manoi, Kota Sorong",PAPUA BARAT,98416.0,Indonesia,,-0.8836291,131.2784194,https://maps.google.com/?cid=0x0:0x82e70f5e2ddd0848
cafe,Kafe,Kafe Nomu72,"4788+Q7G, Jl. Jend. Sudirman, Klaligi, Kecamatan Sorong Manoi, Kota Sorong, Papua Bar. 98412","Jl. Jend. Sudirman, Klaligi, Kecamatan Sorong Manoi, Kota Sorong",PAPUA BARAT,98412.0,Indonesia,85254445898.0,-0.8830505,131.2656962,https://maps.google.com/?cid=0x0:0x4941d21915bc3e87
cafe,Kedai Kopi,Kopisoe Basuki Rahmat Soq,"Jl. Basuki Rahmat Jl. Melati Raya KM9,5, Klasabi, Kecamatan Sorong Manoi, Kota Sorong, Papua Bar. 98412","Klasabi, Kecamatan Sorong Manoi, Kota Sorong",PAPUA BARAT,98412.0,Indonesia,8114855879.0,-0.8876184,131.3051735,https://maps.google.com/?cid=0x0:0xff094af82c4b2f2
cafe,Kafe,Coffee Box chak's,"Jl. Ahmad Yani No.53, Malabutor, Kecamatan Sorong Manoi, Kota Sorong, Papua Bar. 98415","Malabutor, Kecamatan Sorong Manoi, Kota Sorong",PAPUA BARAT,98415.0,Indonesia,85242088802.0,-0.8830198,131.281061,https://maps.google.com/?cid=0x0:0x33cd03ca8e1451be
cafe,Grosir Kopi,Kopi Senang,"Jl. Pendidikan No.Km 8, Malaingkedi, Kecamatan Sorong Manoi, Kota Sorong, Papua Bar. 98412","Malaingkedi, Kecamatan Sorong Manoi, Kota Sorong",PAPUA BARAT,98412.0,Indonesia,951322178.0,-0.8878192,131.2955679,https://maps.google.com/?cid=0x0:0xc846bbf0aa073e2d
cafe,cafe,Kecamatan Sorong Manoi,"Kota Sorong, Papua Bar.","Kota Sorong, Papua Bar.",PAPUA BARAT,,Indonesia,,-0.8875965,131.2870369,https://maps.google.com/?cid=0x0:0xeae8019c83ed0741
cafe,Toko kopi,ENGINEERING COFFEE SORONG,"Jl. Basuki Rahmat, Remu Sel., Kecamatan Sorong Manoi, Kota Sorong, Papua Bar. 98415","Remu Sel., Kecamatan Sorong Manoi, Kota Sorong",PAPUA BARAT,98415.0,Indonesia,85239860284.0,-0.8836482,131.2857925,https://maps.google.com/?cid=0x0:0x6ffb2e2af5ed06c1
cafe,Kedai Kopi,Kopi Konnichiwa,"4857+HWG, Jl. Basuki Rahmat, Klawalu, Kecamatan Sorong Manoi, Kota Sorong, Papua Bar. 98416","Jl. Basuki Rahmat, Klawalu, Kecamatan Sorong Manoi, Kota Sorong",PAPUA BARAT,98416.0,Indonesia,85161889100.0,-0.891066,131.3148138,https://maps.google.com/?cid=0x0:0xc5519dba9bc5379b
cafe,Indonesia,Selagi Dingin,"Jl. Ahmad Yani No.85, Malabutor, Kecamatan Sorong Manoi, Kota Sorong, Papua Bar. 98416","Malabutor, Kecamatan Sorong Manoi, Kota Sorong",PAPUA BARAT,98416.0,Indonesia,,-0.8836291,131.2784194,https://maps.google.com/?cid=0x0:0x82e70f5e2ddd0848
cafe,Kedai Kopi,Do.pyocoffee,"Jl. Sungai Maruni masuk No.km 10, Klawuyuk, Distrik Sorong Timur, Kota Sorong, Papua Bar. 98416","Klawuyuk, Distrik Sorong Timur, Kota Sorong",PAPUA BARAT,98416.0,Indonesia,,-0.8880443,131.3199144,https://maps.google.com/?cid=0x0:0xe98eb1eac6ada00d
cafe,Kafe,Cafenation,"Matamalagi, Jl. Sungai Maruni, Kec. Sorong Utara, Kota Sorong, Papua Bar. 98412","Jl. Sungai Maruni, Kec. Sorong Utara, Kota Sorong",PAPUA BARAT,98412.0,Indonesia,81245807789.0,-0.8869143,131.3214705,https://maps.google.com/?cid=0x0:0xb970c60a44273f0f
cafe,Kedai Kopi,Tuantana Coffee,"Jl. Malibela No.39, Klawalu, Distrik Sorong Timur, Kota Sorong, Papua Bar. 98416","Klawalu, Distrik Sorong Timur, Kota Sorong",PAPUA BARAT,98416.0,Indonesia,82260971344.0,-0.8996174,131.3178955,https://maps.google.com/?cid=0x0:0x226cd345f67dd7e3
cafe,Kedai Kopi,Charac.ter coffee house,"Jl. Basuki Rahmat, Klawuyuk, Kec. Sorong Utara, Kota Sorong, Papua Bar. 98416","Klawuyuk, Kec. Sorong Utara, Kota Sorong",PAPUA BARAT,98416.0,Indonesia,81342110466.0,-0.8954408,131.319596,https://maps.google.com/?cid=0x0:0x6b93662abb1ac288
cafe,Kafe,The Coffee,"476M+QQ6 Pasar sentral Remu, Remu Sel., Kecamatan Sorong Manoi, Kota Sorong, Papua Bar.","Kota Sorong, Papua Bar.",PAPUA BARAT,,Indonesia,82199928901.0,-0.8880474,131.2844528,https://maps.google.com/?cid=0x0:0x8c2bb11467865814
cafe,Pujasera,Hangout Avenue Sorong,"Jl Sungai Maruni KM 10, Masuk No.23, Kota Sorong, Papua Bar. 98416","Masuk No.23, Kota Sorong",PAPUA BARAT,98416.0,Indonesia,82197698090.0,-0.8868107,131.3216004,https://maps.google.com/?cid=0x0:0x29c3ed1d6d1ac389
cafe,Kedai Kopi,Kopisoe Basuki Rahmat Soq,"Jl. Basuki Rahmat Jl. Melati Raya KM9,5, Klasabi, Kecamatan Sorong Manoi, Kota Sorong, Papua Bar. 98412","Klasabi, Kecamatan Sorong Manoi, Kota Sorong",PAPUA BARAT,98412.0,Indonesia,8114855879.0,-0.8876184,131.3051735,https://maps.google.com/?cid=0x0:0xff094af82c4b2f2
cafe,Kafe,Coffee Box chak's,"Jl. Ahmad Yani No.53, Malabutor, Kecamatan Sorong Manoi, Kota Sorong, Papua Bar. 98415","Malabutor, Kecamatan Sorong Manoi, Kota Sorong",PAPUA BARAT,98415.0,Indonesia,85242088802.0,-0.8830198,131.281061,https://maps.google.com/?cid=0x0:0x33cd03ca8e1451be
cafe,Kedai Kopi,The Origin Cafe,"4779+RWW, Malabutor, Kecamatan Sorong Manoi, Kota Sorong, Papua Bar. 98412","Malabutor, Kecamatan Sorong Manoi, Kota Sorong",PAPUA BARAT,98412.0,Indonesia,,-0.8853872,131.2698295,https://maps.google.com/?cid=0x0:0xefc750fdb9f38059
cafe,Dapur Umum,GUBUG GEMBOK TJINTA (GGT),"Jl. Basuki Rahmat No.Km. 9, Sawagumu, Kec. Sorong Utara, Kota Sorong, Papua Bar. 98415","Sawagumu, Kec. Sorong Utara, Kota Sorong",PAPUA BARAT,98415.0,Indonesia,81806997999.0,-0.88781,131.30741,https://maps.google.com/?cid=0x0:0x109e4a30a5b526dd
cafe,cafe,Papua Bar. 98416,Papua Bar.,Papua Bar.,PAPUA BARAT,,Indonesia,,-0.8883325,131.3510866,https://maps.google.com/?cid=0x0:0x7d4c82915eeb19ce
cafe,Kafe,Cafenation,"Matamalagi, Jl. Sungai Maruni, Kec. Sorong Utara, Kota Sorong, Papua Bar. 98412","Jl. Sungai Maruni, Kec. Sorong Utara, Kota Sorong",PAPUA BARAT,98412.0,Indonesia,81245807789.0,-0.8869143,131.3214705,https://maps.google.com/?cid=0x0:0xb970c60a44273f0f
cafe,Kantor Perusahaan,Basecamp 'GST' GOJEK,"4859+RVW, Jl. Kpr Pam, Klawuyuk, Kec. Sorong Utara, Kota Sorong, Papua Bar. 98416","Jl. Kpr Pam, Klawuyuk, Kec. Sorong Utara, Kota Sorong",PAPUA BARAT,98416.0,Indonesia,,-0.890397,131.319707,https://maps.google.com/?cid=0x0:0xc03e73807a9d6913
cafe,Kedai Kopi,Tuantana Coffee,"Jl. Malibela No.39, Klawalu, Distrik Sorong Timur, Kota Sorong, Papua Bar. 98416","Klawalu, Distrik Sorong Timur, Kota Sorong",PAPUA BARAT,98416.0,Indonesia,82260971344.0,-0.8996174,131.3178955,https://maps.google.com/?cid=0x0:0x226cd345f67dd7e3
cafe,Kedai Kopi,Do.pyocoffee,"Jl. Sungai Maruni masuk No.km 10, Klawuyuk, Distrik Sorong Timur, Kota Sorong, Papua Bar. 98416","Klawuyuk, Distrik Sorong Timur, Kota Sorong",PAPUA BARAT,98416.0,Indonesia,,-0.8880443,131.3199144,https://maps.google.com/?cid=0x0:0xe98eb1eac6ada00d
cafe,Toko Roti,Sasukun Cafe / Kue Maniso,"Jl. KPR Klasaman Permai, Klamana, Distrik Sorong Timur, Kota Sorong, Papua Bar. 98417","Klamana, Distrik Sorong Timur, Kota Sorong",PAPUA BARAT,98417.0,Indonesia,81343186117.0,-0.9088288,131.3272156,https://maps.google.com/?cid=0x0:0x3a6b69777a1af5da
cafe,Kedai Kopi,Charac.ter coffee house,"Jl. Basuki Rahmat, Klawuyuk, Kec. Sorong Utara, Kota Sorong, Papua Bar. 98416","Klawuyuk, Kec. Sorong Utara, Kota Sorong",PAPUA BARAT,98416.0,Indonesia,81342110466.0,-0.8954408,131.319596,https://maps.google.com/?cid=0x0:0x6b93662abb1ac288
cafe,Kafe,PLANET CAFE JUPITER,"4869+F97, Sawagumu, Kec. Sorong Utara, Kota Sorong, Papua Bar. 98416","Sawagumu, Kec. Sorong Utara, Kota Sorong",PAPUA BARAT,98416.0,Indonesia,8114864111.0,-0.8888367,131.3184254,https://maps.google.com/?cid=0x0:0xacd6cf31e3b6b0cd
cafe,Dapur Umum,GUBUG GEMBOK TJINTA (GGT),"Jl. Basuki Rahmat No.Km. 9, Sawagumu, Kec. Sorong Utara, Kota Sorong, Papua Bar. 98415","Sawagumu, Kec. Sorong Utara, Kota Sorong",PAPUA BARAT,98415.0,Indonesia,81806997999.0,-0.88781,131.30741,https://maps.google.com/?cid=0x0:0x109e4a30a5b526dd
cafe,Pujasera,Hangout Avenue Sorong,"Jl Sungai Maruni KM 10, Masuk No.23, Kota Sorong, Papua Bar. 98416","Masuk No.23, Kota Sorong",PAPUA BARAT,98416.0,Indonesia,82197698090.0,-0.8868107,131.3216004,https://maps.google.com/?cid=0x0:0x29c3ed1d6d1ac389
cafe,cafe,The Coffee Gota Km 10,"4869+MMH, Jl. Sungai Maruni, Sawagumu, Kec. Sorong Utara, Kota Sorong, Papua Bar. 98416","Jl. Sungai Maruni, Sawagumu, Kec. Sorong Utara, Kota Sorong",PAPUA BARAT,98416.0,Indonesia,,-0.8883211,131.3192388,https://maps.google.com/?cid=0x0:0xd8dc1a7ff264a2db
cafe,Kedai Kopi,kopi kampoeng,"Jl. Sungai Kamundan No.69, Klawuyuk, Kec. Sorong Utara, Kota Sorong, Papua Bar. 98416","Klawuyuk, Kec. Sorong Utara, Kota Sorong",PAPUA BARAT,98416.0,Indonesia,82198872559.0,-0.8890417,131.3253176,https://maps.google.com/?cid=0x0:0x660d95638c24dfcf
cafe,cafe,Depot Tritis,"486M+Q68, Jl. Suteja, Matalamagi, Kec. Sorong Utara, Kota Sorong, Papua Bar. 98416","Jl. Suteja, Matalamagi, Kec. Sorong Utara, Kota Sorong",PAPUA BARAT,98416.0,Indonesia,85239815544.0,-0.8880844,131.3330908,https://maps.google.com/?cid=0x0:0x1b42bfebf70212e5
cafe,Kedai Kopi,Kopi Lain Hati Klawuyuk,"Jl. Perwakilan No.3, Jl. Sungai Maruni Masuk No.Km. 10, Klawuyuk, Kec. Sorong Utara, Kota Sorong, Papua Bar. 98418","Jl. Sungai Maruni Masuk No.Km. 10, Klawuyuk, Kec. Sorong Utara, Kota Sorong",PAPUA BARAT,98418.0,Indonesia,,-0.8871897,131.321102,https://maps.google.com/?cid=0x0:0x9ba7eb9d4d2750d
cafe,cafe,Papua Bar. 98419,"Kabupaten Sorong, Papua Bar.","Kabupaten Sorong, Papua Bar.",PAPUA BARAT,,Indonesia,,-0.9516965,131.4612677,https://maps.google.com/?cid=0x0:0x1846ff160c020f5b
cafe,Toko kopi,ENGINEERING COFFEE SORONG,"Jl. Basuki Rahmat, Remu Sel., Kecamatan Sorong Manoi, Kota Sorong, Papua Bar. 98415","Remu Sel., Kecamatan Sorong Manoi, Kota Sorong",PAPUA BARAT,98415.0,Indonesia,85239860284.0,-0.8836482,131.2857925,https://maps.google.com/?cid=0x0:0x6ffb2e2af5ed06c1
cafe,Kedai Kopi,Sorong Cafe,"Sawagumu, Kec. Sorong Utara, Kota Sorong, Papua Bar.","Kota Sorong, Papua Bar.",PAPUA BARAT,,Indonesia,81248201730.0,-0.8893784,131.3128926,https://maps.google.com/?cid=0x0:0x7962c1d0ce1b0528
cafe,Kafe,Cafenation,"Matamalagi, Jl. Sungai Maruni, Kec. Sorong Utara, Kota Sorong, Papua Bar. 98412","Jl. Sungai Maruni, Kec. Sorong Utara, Kota Sorong",PAPUA BARAT,98412.0,Indonesia,81245807789.0,-0.8869143,131.3214705,https://maps.google.com/?cid=0x0:0xb970c60a44273f0f
cafe,Kedai Kopi,Tuantana Coffee,"Jl. Malibela No.39, Klawalu, Distrik Sorong Timur, Kota Sorong, Papua Bar. 98416","Klawalu, Distrik Sorong Timur, Kota Sorong",PAPUA BARAT,98416.0,Indonesia,82260971344.0,-0.8996174,131.3178955,https://maps.google.com/?cid=0x0:0x226cd345f67dd7e3
cafe,Kedai Kopi,ENGINEERING COFFEE AIMAS,"Jalur D samping kantor PDAM, Kec. Aimas, Kabupaten Sorong, Papua Bar. 98444","Kec. Aimas, Kabupaten Sorong",PAPUA BARAT,98444.0,Indonesia,81344646139.0,-0.9556394,131.3309762,https://maps.google.com/?cid=0x0:0xc9393d225085004e
cafe,Kafe,Kedai KopiKita (KOPKIT),"Jl. Basuki Rahmat, Remu Utara, Distrik Sorong, Kota Sorong, Papua Bar. 98412","Remu Utara, Distrik Sorong, Kota Sorong",PAPUA BARAT,98412.0,Indonesia,,-0.883247,131.2859244,https://maps.google.com/?cid=0x0:0xfad16f01d9fcc363
cafe,Kedai Kopi,Brown Hill Cafe,"48G3+7XV, Jl. F Kalasuat, Malanu, Kec. Sorong Utara, Kota Sorong, Papua Bar. 98412","Jl. F Kalasuat, Malanu, Kec. Sorong Utara, Kota Sorong",PAPUA BARAT,98412.0,Indonesia,82114721193.0,-0.8742653,131.3049307,https://maps.google.com/?cid=0x0:0xa60cb6d736dfcb14
cafe,Kedai Kopi,Sembari Coffee,"Jl. KPR Moyo Permai, Klayili, Distrik Klayili, Kabupaten Sorong, Papua Bar. 98419","Klayili, Distrik Klayili, Kabupaten Sorong",PAPUA BARAT,98419.0,Indonesia,,-0.9516965,131.4612677,https://maps.google.com/?cid=0x0:0x4221ef5be1c4a7eb
cafe,Dapur Umum,GUBUG GEMBOK TJINTA (GGT),"Jl. Basuki Rahmat No.Km. 9, Sawagumu, Kec. Sorong Utara, Kota Sorong, Papua Bar. 98415","Sawagumu, Kec. Sorong Utara, Kota Sorong",PAPUA BARAT,98415.0,Indonesia,81806997999.0,-0.88781,131.30741,https://maps.google.com/?cid=0x0:0x109e4a30a5b526dd
cafe,cafe,NUKU COFFEE,"Jl. Dorowati, Giwu, Distrik Sorong Timur, Kota Sorong, Papua Bar. 98416","Giwu, Distrik Sorong Timur, Kota Sorong",PAPUA BARAT,98416.0,Indonesia,81247565051.0,-0.8966969,131.3346401,https://maps.google.com/?cid=0x0:0x72fda634dff8ed49
cafe,Kafe,Cafe ALL Winta,"depan kiri Bakso Nuklir klu dari kilo 20, Jl. Sungai Kamundan, Klawuyuk, Distrik Sorong Timur, Kota Sorong, Papua Bar. 98416","Jl. Sungai Kamundan, Klawuyuk, Distrik Sorong Timur, Kota Sorong",PAPUA BARAT,98416.0,Indonesia,81310935287.0,-0.8909349,131.3266276,https://maps.google.com/?cid=0x0:0xfef7aa4ad30d4a89
cafe,Kedai Kopi,Marisol Cafe,"Jl. Pramuka, Remu Utara, Distrik Sorong, Kota Sorong, Papua Bar. 98412","Remu Utara, Distrik Sorong, Kota Sorong",PAPUA BARAT,98412.0,Indonesia,81295930518.0,-0.8820527,131.2863245,https://maps.google.com/?cid=0x0:0xc46b868f6dbf250e
cafe,Kedai Kopi,Cafe NongâQ,"4857+WPX, Jl. Kilang Blk. B, Sawagumu, Kec. Sorong Utara, Kota Sorong, Papua Bar. 98412","Jl. Kilang Blk. B, Sawagumu, Kec. Sorong Utara, Kota Sorong",PAPUA BARAT,98412.0,Indonesia,81332413232.0,-0.8901424,131.3143502,https://maps.google.com/?cid=0x0:0xfa9c4c2bc1a74a40
hotel,hotel,Papua Bar. 98413,"Klabala, Distrik Sorong Barat, Kota Sorong, Papua Bar.","Kota Sorong, Papua Bar.",PAPUA BARAT,,Indonesia,,-0.8669518,131.254029,https://maps.google.com/?cid=0x0:0x352e1f254d39ea2b
hotel,hotel,RYLICH PANORAMA HOTEL,"Jl. Sam Ratulangi No.55, Klasuur, Distrik Sorong, Kota Sorong, Papua Bar. 98411","Klasuur, Distrik Sorong, Kota Sorong",PAPUA BARAT,98411.0,Indonesia,81240607603.0,-0.8690863,131.2526553,https://maps.google.com/?cid=0x0:0x994aef0f06a4c9a4
hotel,hotel,Belagri Hotel and Restaurant,"Jl. Raja Ampat No.1, Kp. Baru, Distrik Sorong, Kota Sorong, Papua Bar. 98413","Kp. Baru, Distrik Sorong, Kota Sorong",PAPUA BARAT,98413.0,Indonesia,,-0.8704329,131.2517604,https://maps.google.com/?cid=0x0:0xb0064be8b2a3c2c8
hotel,hotel,Royal Mamberamo Hotel,"Jl. Dr. Sam Ratulangi No.35, Kp. Baru, Distrik Sorong, Kota Sorong, Papua Bar. 98413","Kp. Baru, Distrik Sorong, Kota Sorong",PAPUA BARAT,98413.0,Indonesia,951325666.0,-0.871573,131.250864,https://maps.google.com/?cid=0x0:0xb5e32e36111d42eb
hotel,hotel,Hotel Belagri Sorong,"Jl. Merapi No.8, Klabala, Distrik Sorong Barat, Kota Sorong, Papua Bar. 98411","Klabala, Distrik Sorong Barat, Kota Sorong",PAPUA BARAT,98411.0,Indonesia,951323888.0,-0.8730356,131.2547729,https://maps.google.com/?cid=0x0:0x84dae6f8c4b2e8ad
hotel,hotel,Hotel Lido 88,"Kompleks Lido, Jl. Yos. Sudarso, Klasuur, Distrik Sorong, Kota Sorong, Papua Bar. 98411","Jl. Yos. Sudarso, Klasuur, Distrik Sorong, Kota Sorong",PAPUA BARAT,98411.0,Indonesia,895417300072.0,-0.8651585,131.2458125,https://maps.google.com/?cid=0x0:0xfa1a9f3ccb086f62
hotel,hotel,Hotel Mariat,"479F+3XR, Jl. Ahmad Yani No.1, Klademak, Distrik Sorong, Kota Sorong, Papua Bar. 98412","Jl. Ahmad Yani No.1, Klademak, Distrik Sorong, Kota Sorong",PAPUA BARAT,98412.0,Indonesia,951323535.0,-0.8822653,131.2745998,https://maps.google.com/?cid=0x0:0xbf6ecabef3414744
hotel,hotel,,,,PAPUA BARAT,,Indonesia,,,,https://maps.google.com/?cid=0x0:0xbf6ecabef3414744%7C/g/12hnlthc5%7Cid-ID
hotel,hotel,Marina Mamberamo,"Jl. Yos. Sudarso No.1, Kp. Baru, Distrik Sorong, Kota Sorong, Papua Bar. 98413","Kp. Baru, Distrik Sorong, Kota Sorong",PAPUA BARAT,98413.0,Indonesia,85244588484.0,-0.8757299,131.2440035,https://maps.google.com/?cid=0x0:0x90a6ebcb4c6ebcbd
hotel,hotel,Penginapan Kofiyau,"46MX+QV7, Unnamed Road, Klasuur, Distrik Sorong, Kota Sorong, Papua Bar. 98411","Unnamed Road, Klasuur, Distrik Sorong, Kota Sorong",PAPUA BARAT,98411.0,Indonesia,82398017326.0,-0.86559,131.2496721,https://maps.google.com/?cid=0x0:0xfc32a1234a9c5c47
hotel,hotel,Indah Guesthouse,"46PX+CWR, Klasuur, Distrik Sorong, Kota Sorong, Papua Bar.","Kota Sorong, Papua Bar.",PAPUA BARAT,,Indonesia,,-0.8638907,131.2497706,https://maps.google.com/?cid=0x0:0x7886b39783a76069
hotel,hotel,Aimas Hotel And Convention Center,"Klamasen, Distrik Mariat, Kabupaten Sorong, Papua Bar. 98416","Distrik Mariat, Kabupaten Sorong",PAPUA BARAT,98416.0,Indonesia,8114887778.0,-0.9780957,131.3535192,https://maps.google.com/?cid=0x0:0x622ceae2f7c756cf
hotel,hotel,Hotel Paparisa Manise,"Jl. Jend. Sudirman No.10, Klaligi, Kecamatan Sorong Manoi, Kota Sorong, Papua Bar. 98412","Klaligi, Kecamatan Sorong Manoi, Kota Sorong",PAPUA BARAT,98412.0,Indonesia,9513173969.0,-0.8822838,131.2644305,https://maps.google.com/?cid=0x0:0x3a80c35a629494eb
hotel,hotel,Swiss-Belhotel Sorong,"Hunting, Telepon, Jl. Jend. Sudirman Kecamatan, Malawei, Kecamatan Sorong Manoi, Kota Sorong, Papua Bar. 98412","Telepon, Jl. Jend. Sudirman Kecamatan, Malawei, Kecamatan Sorong Manoi, Kota Sorong",PAPUA BARAT,98412.0,Indonesia,8114853888.0,-0.889363,131.2749649,https://maps.google.com/?cid=0x0:0x4d32c5e468c00628
hotel,hotel,Sorong,"Kota Sorong, Papua Bar.","Kota Sorong, Papua Bar.",PAPUA BARAT,,Indonesia,,-0.8761629,131.255828,https://maps.google.com/?cid=0x0:0xe32b512ec6c6786
hotel,hotel,,,,PAPUA BARAT,,Indonesia,,,,https://maps.google.com/?cid=0x0:0xbf6ecabef3414744%7C/g/12hnlthc5%7Cid-ID
hotel,hotel,Hotel Mariat,"479F+3XR, Jl. Ahmad Yani No.1, Klademak, Distrik Sorong, Kota Sorong, Papua Bar. 98412","Jl. Ahmad Yani No.1, Klademak, Distrik Sorong, Kota Sorong",PAPUA BARAT,98412.0,Indonesia,951323535.0,-0.8822653,131.2745998,https://maps.google.com/?cid=0x0:0xbf6ecabef3414744
hotel,hotel,Swiss-Belhotel Sorong,"Hunting, Telepon, Jl. Jend. Sudirman Kecamatan, Malawei, Kecamatan Sorong Manoi, Kota Sorong, Papua Bar. 98412","Telepon, Jl. Jend. Sudirman Kecamatan, Malawei, Kecamatan Sorong Manoi, Kota Sorong",PAPUA BARAT,98412.0,Indonesia,8114853888.0,-0.889363,131.2749649,https://maps.google.com/?cid=0x0:0x4d32c5e468c00628
hotel,hotel,,,,PAPUA BARAT,,Indonesia,,,,https://maps.google.com/?cid=0x0:0x4d32c5e468c00628%7C/g/11btmq5mpb%7Cid-ID
hotel,hotel,Marina Mamberamo,"Jl. Yos. Sudarso No.1, Kp. Baru, Distrik Sorong, Kota Sorong, Papua Bar. 98413","Kp. Baru, Distrik Sorong, Kota Sorong",PAPUA BARAT,98413.0,Indonesia,85244588484.0,-0.8757299,131.2440035,https://maps.google.com/?cid=0x0:0x90a6ebcb4c6ebcbd
hotel,hotel,VEGA PRIME Hotel  Convention,"Jl. Frans Kaisiepo, Malaingkedi, Kec. Sorong Utara, Kota Sorong, Papua Bar. 98412","Malaingkedi, Kec. Sorong Utara, Kota Sorong",PAPUA BARAT,98412.0,Indonesia,81148501658.0,-0.8863935,131.2926608,https://maps.google.com/?cid=0x0:0x9490ccc0d9334885
hotel,hotel,Hotel Belagri Sorong,"Jl. Merapi No.8, Klabala, Distrik Sorong Barat, Kota Sorong, Papua Bar. 98411","Klabala, Distrik Sorong Barat, Kota Sorong",PAPUA BARAT,98411.0,Indonesia,951323888.0,-0.8730356,131.2547729,https://maps.google.com/?cid=0x0:0x84dae6f8c4b2e8ad
hotel,hotel,favehotel Sorong,"Klabulu, Jl. Basuki Rahmat Malaimsimsa, RT.001/RW.005, Kecamatan Malaimsimsa, Kota Sorong, Papua Bar. 98419","Jl. Basuki Rahmat Malaimsimsa, RT.001/RW.005, Kecamatan Malaimsimsa, Kota Sorong",PAPUA BARAT,98419.0,Indonesia,9513173888.0,-0.8892152,131.2985379,https://maps.google.com/?cid=0x0:0x56f2eb1c250a17fa
hotel,hotel,,,,PAPUA BARAT,,Indonesia,,,,https://maps.google.com/?cid=0x0:0x56f2eb1c250a17fa%7C/g/11g8bwyjxb%7Cid-ID
hotel,hotel,Aston Sorong Hotel  Conference Center,"476V+J9X, Jl. Basuki Rahmat, Malaingkedi, Kec. Sorong Utara, Kota Sorong, Papua Bar. 98412","Jl. Basuki Rahmat, Malaingkedi, Kec. Sorong Utara, Kota Sorong",PAPUA BARAT,98412.0,Indonesia,81148500888.0,-0.8887467,131.2931592,https://maps.google.com/?cid=0x0:0x110a6a5f0a67a7f7
hotel,hotel,Royal Mamberamo Hotel,"Jl. Dr. Sam Ratulangi No.35, Kp. Baru, Distrik Sorong, Kota Sorong, Papua Bar. 98413","Kp. Baru, Distrik Sorong, Kota Sorong",PAPUA BARAT,98413.0,Indonesia,951325666.0,-0.871573,131.250864,https://maps.google.com/?cid=0x0:0xb5e32e36111d42eb
hotel,hotel,The ignislo sorong hotel,"Basuki Rahmat Street KM 7 Sorong, Malaingkedi, Sorong Utara, Sorong City, West Papua 98412","Malaingkedi, Sorong Utara, Sorong City",PAPUA BARAT,98412.0,Indonesia,,-0.8885403,131.2925628,https://maps.google.com/?cid=0x0:0x9992b24f2542a546
hotel,hotel,Belagri Hotel and Restaurant,"Jl. Raja Ampat No.1, Kp. Baru, Distrik Sorong, Kota Sorong, Papua Bar. 98413","Kp. Baru, Distrik Sorong, Kota Sorong",PAPUA BARAT,98413.0,Indonesia,,-0.8704329,131.2517604,https://maps.google.com/?cid=0x0:0xb0064be8b2a3c2c8
hotel,hotel,Papua Bar. 98416,Papua Bar.,Papua Bar.,PAPUA BARAT,,Indonesia,,-0.8883325,131.3510866,https://maps.google.com/?cid=0x0:0x7d4c82915eeb19ce
hotel,hotel,favehotel Sorong,"Klabulu, Jl. Basuki Rahmat Malaimsimsa, RT.001/RW.005, Kecamatan Malaimsimsa, Kota Sorong, Papua Bar. 98419","Jl. Basuki Rahmat Malaimsimsa, RT.001/RW.005, Kecamatan Malaimsimsa, Kota Sorong",PAPUA BARAT,98419.0,Indonesia,9513173888.0,-0.8892152,131.2985379,https://maps.google.com/?cid=0x0:0x56f2eb1c250a17fa
hotel,hotel,,,,PAPUA BARAT,,Indonesia,,,,https://maps.google.com/?cid=0x0:0x56f2eb1c250a17fa%7C/g/11g8bwyjxb%7Cid-ID
hotel,hotel,,,,PAPUA BARAT,,Indonesia,,,,https://maps.google.com/?cid=0x0:0x9b9160ef43d35fd5%7C/g/11clwlw14h%7Cid-ID
hotel,hotel,M Hotel Sorong,"Jl. Sungai Maruni, Klawuyuk, Kec. Sorong Utara, Kota Sorong, Papua Bar. 98416","Klawuyuk, Kec. Sorong Utara, Kota Sorong",PAPUA BARAT,98416.0,Indonesia,8114863111.0,-0.8858638,131.3227746,https://maps.google.com/?cid=0x0:0x9b9160ef43d35fd5
hotel,hotel,The ignislo sorong hotel,"Basuki Rahmat Street KM 7 Sorong, Malaingkedi, Sorong Utara, Sorong City, West Papua 98412","Malaingkedi, Sorong Utara, Sorong City",PAPUA BARAT,98412.0,Indonesia,,-0.8885403,131.2925628,https://maps.google.com/?cid=0x0:0x9992b24f2542a546
hotel,hotel,VEGA PRIME Hotel  Convention,"Jl. Frans Kaisiepo, Malaingkedi, Kec. Sorong Utara, Kota Sorong, Papua Bar. 98412","Malaingkedi, Kec. Sorong Utara, Kota Sorong",PAPUA BARAT,98412.0,Indonesia,81148501658.0,-0.8863935,131.2926608,https://maps.google.com/?cid=0x0:0x9490ccc0d9334885
hotel,hotel,Aston Sorong Hotel  Conference Center,"476V+J9X, Jl. Basuki Rahmat, Malaingkedi, Kec. Sorong Utara, Kota Sorong, Papua Bar. 98412","Jl. Basuki Rahmat, Malaingkedi, Kec. Sorong Utara, Kota Sorong",PAPUA BARAT,98412.0,Indonesia,81148500888.0,-0.8887467,131.2931592,https://maps.google.com/?cid=0x0:0x110a6a5f0a67a7f7
hotel,hotel,The Luxio Hotel,"Jl. Basuki Rahmat KM.12 Sorong, Malaingkedi, Kec. Sorong Utara, West Papua, Papua Bar. 98412","Malaingkedi, Kec. Sorong Utara, West Papua",PAPUA BARAT,98412.0,Indonesia,81344807777.0,-0.9040377,131.3236469,https://maps.google.com/?cid=0x0:0x4a37ba927853645b
hotel,hotel,,,,PAPUA BARAT,,Indonesia,,,,https://maps.google.com/?cid=0x0:0x4a37ba927853645b%7C/g/11y0l8mjv%7Cid-ID
hotel,hotel,Guardian Family Hotel,"Malaingkedi, Kec. Sorong Utara, Kota Sorong, Papua Bar. 98412","Kec. Sorong Utara, Kota Sorong",PAPUA BARAT,98412.0,Indonesia,8114867300.0,-0.8896485,131.2945315,https://maps.google.com/?cid=0x0:0x804a8cdc3b2513d6
hotel,hotel,Hotel Mariat,"479F+3XR, Jl. Ahmad Yani No.1, Klademak, Distrik Sorong, Kota Sorong, Papua Bar. 98412","Jl. Ahmad Yani No.1, Klademak, Distrik Sorong, Kota Sorong",PAPUA BARAT,98412.0,Indonesia,951323535.0,-0.8822653,131.2745998,https://maps.google.com/?cid=0x0:0xbf6ecabef3414744
hotel,hotel,,,,PAPUA BARAT,,Indonesia,,,,https://maps.google.com/?cid=0x0:0xbf6ecabef3414744%7C/g/12hnlthc5%7Cid-ID
hotel,hotel,RedDoorz near Dermaga Pelabuhan Rakyat,"Jl. Selat Rumberpon No.10A, Remu Sel., Kecamatan Sorong Manoi, Kota Sorong, Papua Bar. 98412","Remu Sel., Kecamatan Sorong Manoi, Kota Sorong",PAPUA BARAT,98412.0,Indonesia,895417300072.0,-0.8853147,131.2865519,https://maps.google.com/?cid=0x0:0x54d7a289f7c7cb50
hotel,hotel,Papua Bar. 98411,"Kota Sorong, Papua Bar.","Kota Sorong, Papua Bar.",PAPUA BARAT,,Indonesia,,-0.8165448,131.3310303,https://maps.google.com/?cid=0x0:0xa63c7f2b52beead0
hotel,hotel,RYLICH PANORAMA HOTEL,"Jl. Sam Ratulangi No.55, Klasuur, Distrik Sorong, Kota Sorong, Papua Bar. 98411","Klasuur, Distrik Sorong, Kota Sorong",PAPUA BARAT,98411.0,Indonesia,81240607603.0,-0.8690863,131.2526553,https://maps.google.com/?cid=0x0:0x994aef0f06a4c9a4
hotel,hotel,Hotel Mariat,"479F+3XR, Jl. Ahmad Yani No.1, Klademak, Distrik Sorong, Kota Sorong, Papua Bar. 98412","Jl. Ahmad Yani No.1, Klademak, Distrik Sorong, Kota Sorong",PAPUA BARAT,98412.0,Indonesia,951323535.0,-0.8822653,131.2745998,https://maps.google.com/?cid=0x0:0xbf6ecabef3414744
hotel,hotel,Hotel Belagri Sorong,"Jl. Merapi No.8, Klabala, Distrik Sorong Barat, Kota Sorong, Papua Bar. 98411","Klabala, Distrik Sorong Barat, Kota Sorong",PAPUA BARAT,98411.0,Indonesia,951323888.0,-0.8730356,131.2547729,https://maps.google.com/?cid=0x0:0x84dae6f8c4b2e8ad
hotel,hotel,,,,PAPUA BARAT,,Indonesia,,,,https://maps.google.com/?cid=0x0:0x9b9160ef43d35fd5%7C/g/11clwlw14h%7Cid-ID
hotel,hotel,M Hotel Sorong,"Jl. Sungai Maruni, Klawuyuk, Kec. Sorong Utara, Kota Sorong, Papua Bar. 98416","Klawuyuk, Kec. Sorong Utara, Kota Sorong",PAPUA BARAT,98416.0,Indonesia,8114863111.0,-0.8858638,131.3227746,https://maps.google.com/?cid=0x0:0x9b9160ef43d35fd5
hotel,hotel,Kasuari Valley Beach Resort Sorong,"Tj. Kasuari, Distrik Sorong Barat, Kota Sorong, Papua Bar. 98411","Distrik Sorong Barat, Kota Sorong",PAPUA BARAT,98411.0,Indonesia,81247423939.0,-0.8229453,131.2259207,https://maps.google.com/?cid=0x0:0x7ae87156c62b6490
hotel,hotel,Marina Mamberamo,"Jl. Yos. Sudarso No.1, Kp. Baru, Distrik Sorong, Kota Sorong, Papua Bar. 98413","Kp. Baru, Distrik Sorong, Kota Sorong",PAPUA BARAT,98413.0,Indonesia,85244588484.0,-0.8757299,131.2440035,https://maps.google.com/?cid=0x0:0x90a6ebcb4c6ebcbd
hotel,hotel,Hotel Lido 88,"Kompleks Lido, Jl. Yos. Sudarso, Klasuur, Distrik Sorong, Kota Sorong, Papua Bar. 98411","Jl. Yos. Sudarso, Klasuur, Distrik Sorong, Kota Sorong",PAPUA BARAT,98411.0,Indonesia,895417300072.0,-0.8651585,131.2458125,https://maps.google.com/?cid=0x0:0xfa1a9f3ccb086f62
hotel,hotel,favehotel Sorong,"Klabulu, Jl. Basuki Rahmat Malaimsimsa, RT.001/RW.005, Kecamatan Malaimsimsa, Kota Sorong, Papua Bar. 98419","Jl. Basuki Rahmat Malaimsimsa, RT.001/RW.005, Kecamatan Malaimsimsa, Kota Sorong",PAPUA BARAT,98419.0,Indonesia,9513173888.0,-0.8892152,131.2985379,https://maps.google.com/?cid=0x0:0x56f2eb1c250a17fa
hotel,hotel,,,,PAPUA BARAT,,Indonesia,,,,https://maps.google.com/?cid=0x0:0x56f2eb1c250a17fa%7C/g/11g8bwyjxb%7Cid-ID
hotel,hotel,Ayla City Hotel,"479J+39W, Jl. Srigunting, Remu Utara, Distrik Sorong, Kota Sorong, Papua Bar. 98412","Jl. Srigunting, Remu Utara, Distrik Sorong, Kota Sorong",PAPUA BARAT,98412.0,Indonesia,82344146288.0,-0.882262,131.2809502,https://maps.google.com/?cid=0x0:0x7ef22ab0d606bc6f
hotel,hotel,Royal Mamberamo Hotel,"Jl. Dr. Sam Ratulangi No.35, Kp. Baru, Distrik Sorong, Kota Sorong, Papua Bar. 98413","Kp. Baru, Distrik Sorong, Kota Sorong",PAPUA BARAT,98413.0,Indonesia,951325666.0,-0.871573,131.250864,https://maps.google.com/?cid=0x0:0xb5e32e36111d42eb
hotel,hotel,Belagri Hotel and Restaurant,"Jl. Raja Ampat No.1, Kp. Baru, Distrik Sorong, Kota Sorong, Papua Bar. 98413","Kp. Baru, Distrik Sorong, Kota Sorong",PAPUA BARAT,98413.0,Indonesia,,-0.8704329,131.2517604,https://maps.google.com/?cid=0x0:0xb0064be8b2a3c2c8
hotel,hotel,Papua Bar. 98412,"Kota Sorong, Papua Bar.","Kota Sorong, Papua Bar.",PAPUA BARAT,,Indonesia,,-0.8445683,131.3911778,https://maps.google.com/?cid=0x0:0x6e32dbda4609ff48
hotel,hotel,Hotel Mariat,"479F+3XR, Jl. Ahmad Yani No.1, Klademak, Distrik Sorong, Kota Sorong, Papua Bar. 98412","Jl. Ahmad Yani No.1, Klademak, Distrik Sorong, Kota Sorong",PAPUA BARAT,98412.0,Indonesia,951323535.0,-0.8822653,131.2745998,https://maps.google.com/?cid=0x0:0xbf6ecabef3414744
hotel,hotel,,,,PAPUA BARAT,,Indonesia,,,,https://maps.google.com/?cid=0x0:0xbf6ecabef3414744%7C/g/12hnlthc5%7Cid-ID
hotel,hotel,Swiss-Belhotel Sorong,"Hunting, Telepon, Jl. Jend. Sudirman Kecamatan, Malawei, Kecamatan Sorong Manoi, Kota Sorong, Papua Bar. 98412","Telepon, Jl. Jend. Sudirman Kecamatan, Malawei, Kecamatan Sorong Manoi, Kota Sorong",PAPUA BARAT,98412.0,Indonesia,8114853888.0,-0.889363,131.2749649,https://maps.google.com/?cid=0x0:0x4d32c5e468c00628
hotel,hotel,,,,PAPUA BARAT,,Indonesia,,,,https://maps.google.com/?cid=0x0:0x4d32c5e468c00628%7C/g/11btmq5mpb%7Cid-ID
hotel,hotel,Aston Sorong Hotel  Conference Center,"476V+J9X, Jl. Basuki Rahmat, Malaingkedi, Kec. Sorong Utara, Kota Sorong, Papua Bar. 98412","Jl. Basuki Rahmat, Malaingkedi, Kec. Sorong Utara, Kota Sorong",PAPUA BARAT,98412.0,Indonesia,81148500888.0,-0.8887467,131.2931592,https://maps.google.com/?cid=0x0:0x110a6a5f0a67a7f7
hotel,hotel,favehotel Sorong,"Klabulu, Jl. Basuki Rahmat Malaimsimsa, RT.001/RW.005, Kecamatan Malaimsimsa, Kota Sorong, Papua Bar. 98419","Jl. Basuki Rahmat Malaimsimsa, RT.001/RW.005, Kecamatan Malaimsimsa, Kota Sorong",PAPUA BARAT,98419.0,Indonesia,9513173888.0,-0.8892152,131.2985379,https://maps.google.com/?cid=0x0:0x56f2eb1c250a17fa
hotel,hotel,,,,PAPUA BARAT,,Indonesia,,,,https://maps.google.com/?cid=0x0:0x56f2eb1c250a17fa%7C/g/11g8bwyjxb%7Cid-ID
hotel,hotel,VEGA PRIME Hotel  Convention,"Jl. Frans Kaisiepo, Malaingkedi, Kec. Sorong Utara, Kota Sorong, Papua Bar. 98412","Malaingkedi, Kec. Sorong Utara, Kota Sorong",PAPUA BARAT,98412.0,Indonesia,81148501658.0,-0.8863935,131.2926608,https://maps.google.com/?cid=0x0:0x9490ccc0d9334885
hotel,hotel,The ignislo sorong hotel,"Basuki Rahmat Street KM 7 Sorong, Malaingkedi, Sorong Utara, Sorong City, West Papua 98412","Malaingkedi, Sorong Utara, Sorong City",PAPUA BARAT,98412.0,Indonesia,,-0.8885403,131.2925628,https://maps.google.com/?cid=0x0:0x9992b24f2542a546
hotel,hotel,City View Hotel,"479J+38V, Jl. Srigunting, Remu Utara, Distrik Sorong, Kota Sorong, Papua Bar. 98412","Jl. Srigunting, Remu Utara, Distrik Sorong, Kota Sorong",PAPUA BARAT,98412.0,Indonesia,951324102.0,-0.8822749,131.2808058,https://maps.google.com/?cid=0x0:0xac64df2bc7cde404
hotel,hotel,Ayla City Hotel,"479J+39W, Jl. Srigunting, Remu Utara, Distrik Sorong, Kota Sorong, Papua Bar. 98412","Jl. Srigunting, Remu Utara, Distrik Sorong, Kota Sorong",PAPUA BARAT,98412.0,Indonesia,82344146288.0,-0.882262,131.2809502,https://maps.google.com/?cid=0x0:0x7ef22ab0d606bc6f
hotel,hotel,,,,PAPUA BARAT,,Indonesia,,,,https://maps.google.com/?cid=0x0:0x9b9160ef43d35fd5%7C/g/11clwlw14h%7Cid-ID
hotel,hotel,M Hotel Sorong,"Jl. Sungai Maruni, Klawuyuk, Kec. Sorong Utara, Kota Sorong, Papua Bar. 98416","Klawuyuk, Kec. Sorong Utara, Kota Sorong",PAPUA BARAT,98416.0,Indonesia,8114863111.0,-0.8858638,131.3227746,https://maps.google.com/?cid=0x0:0x9b9160ef43d35fd5
hotel,hotel,Papua Bar. 98413,"Klabala, Distrik Sorong Barat, Kota Sorong, Papua Bar.","Kota Sorong, Papua Bar.",PAPUA BARAT,,Indonesia,,-0.8669518,131.254029,https://maps.google.com/?cid=0x0:0x352e1f254d39ea2b
hotel,hotel,RYLICH PANORAMA HOTEL,"Jl. Sam Ratulangi No.55, Klasuur, Distrik Sorong, Kota Sorong, Papua Bar. 98411","Klasuur, Distrik Sorong, Kota Sorong",PAPUA BARAT,98411.0,Indonesia,81240607603.0,-0.8690863,131.2526553,https://maps.google.com/?cid=0x0:0x994aef0f06a4c9a4
hotel,hotel,InnBox Hostel,"Jl. Sam Ratulangi No.91, Klasuur, Distrik Sorong, Kota Sorong, Papua Bar. 98413","Klasuur, Distrik Sorong, Kota Sorong",PAPUA BARAT,98413.0,Indonesia,81268888355.0,-0.8669219,131.2528048,https://maps.google.com/?cid=0x0:0x3be781e9731e888a
hotel,hotel,Belagri Hotel and Restaurant,"Jl. Raja Ampat No.1, Kp. Baru, Distrik Sorong, Kota Sorong, Papua Bar. 98413","Kp. Baru, Distrik Sorong, Kota Sorong",PAPUA BARAT,98413.0,Indonesia,,-0.8704329,131.2517604,https://maps.google.com/?cid=0x0:0xb0064be8b2a3c2c8
hotel,hotel,Hotel Belagri Sorong,"Jl. Merapi No.8, Klabala, Distrik Sorong Barat, Kota Sorong, Papua Bar. 98411","Klabala, Distrik Sorong Barat, Kota Sorong",PAPUA BARAT,98411.0,Indonesia,951323888.0,-0.8730356,131.2547729,https://maps.google.com/?cid=0x0:0x84dae6f8c4b2e8ad
hotel,hotel,Hotel Lido 88,"Kompleks Lido, Jl. Yos. Sudarso, Klasuur, Distrik Sorong, Kota Sorong, Papua Bar. 98411","Jl. Yos. Sudarso, Klasuur, Distrik Sorong, Kota Sorong",PAPUA BARAT,98411.0,Indonesia,895417300072.0,-0.8651585,131.2458125,https://maps.google.com/?cid=0x0:0xfa1a9f3ccb086f62
hotel,hotel,Hotel Mariat,"479F+3XR, Jl. Ahmad Yani No.1, Klademak, Distrik Sorong, Kota Sorong, Papua Bar. 98412","Jl. Ahmad Yani No.1, Klademak, Distrik Sorong, Kota Sorong",PAPUA BARAT,98412.0,Indonesia,951323535.0,-0.8822653,131.2745998,https://maps.google.com/?cid=0x0:0xbf6ecabef3414744
hotel,hotel,,,,PAPUA BARAT,,Indonesia,,,,https://maps.google.com/?cid=0x0:0xbf6ecabef3414744%7C/g/12hnlthc5%7Cid-ID
hotel,hotel,Marina Mamberamo,"Jl. Yos. Sudarso No.1, Kp. Baru, Distrik Sorong, Kota Sorong, Papua Bar. 98413","Kp. Baru, Distrik Sorong, Kota Sorong",PAPUA BARAT,98413.0,Indonesia,85244588484.0,-0.8757299,131.2440035,https://maps.google.com/?cid=0x0:0x90a6ebcb4c6ebcbd
hotel,hotel,Indah Guesthouse,"46PX+CWR, Klasuur, Distrik Sorong, Kota Sorong, Papua Bar.","Kota Sorong, Papua Bar.",PAPUA BARAT,,Indonesia,,-0.8638907,131.2497706,https://maps.google.com/?cid=0x0:0x7886b39783a76069
hotel,hotel,Penginapan Kofiyau,"46MX+QV7, Unnamed Road, Klasuur, Distrik Sorong, Kota Sorong, Papua Bar. 98411","Unnamed Road, Klasuur, Distrik Sorong, Kota Sorong",PAPUA BARAT,98411.0,Indonesia,82398017326.0,-0.86559,131.2496721,https://maps.google.com/?cid=0x0:0xfc32a1234a9c5c47
hotel,hotel,Aimas Hotel And Convention Center,"Klamasen, Distrik Mariat, Kabupaten Sorong, Papua Bar. 98416","Distrik Mariat, Kabupaten Sorong",PAPUA BARAT,98416.0,Indonesia,8114887778.0,-0.9780957,131.3535192,https://maps.google.com/?cid=0x0:0x622ceae2f7c756cf
hotel,hotel,,,,PAPUA BARAT,,Indonesia,,,,https://maps.google.com/?cid=0x0:0x4d32c5e468c00628%7C/g/11btmq5mpb%7Cid-ID
hotel,hotel,Swiss-Belhotel Sorong,"Hunting, Telepon, Jl. Jend. Sudirman Kecamatan, Malawei, Kecamatan Sorong Manoi, Kota Sorong, Papua Bar. 98412","Telepon, Jl. Jend. Sudirman Kecamatan, Malawei, Kecamatan Sorong Manoi, Kota Sorong",PAPUA BARAT,98412.0,Indonesia,8114853888.0,-0.889363,131.2749649,https://maps.google.com/?cid=0x0:0x4d32c5e468c00628
hotel,hotel,Papua Bar. 98414,Papua Bar.,Papua Bar.,PAPUA BARAT,,Indonesia,,-0.923988,131.3811577,https://maps.google.com/?cid=0x0:0xa17d4a17a04184b
hotel,hotel,Aston Sorong Hotel  Conference Center,"476V+J9X, Jl. Basuki Rahmat, Malaingkedi, Kec. Sorong Utara, Kota Sorong, Papua Bar. 98412","Jl. Basuki Rahmat, Malaingkedi, Kec. Sorong Utara, Kota Sorong",PAPUA BARAT,98412.0,Indonesia,81148500888.0,-0.8887467,131.2931592,https://maps.google.com/?cid=0x0:0x110a6a5f0a67a7f7
hotel,hotel,favehotel Sorong,"Klabulu, Jl. Basuki Rahmat Malaimsimsa, RT.001/RW.005, Kecamatan Malaimsimsa, Kota Sorong, Papua Bar. 98419","Jl. Basuki Rahmat Malaimsimsa, RT.001/RW.005, Kecamatan Malaimsimsa, Kota Sorong",PAPUA BARAT,98419.0,Indonesia,9513173888.0,-0.8892152,131.2985379,https://maps.google.com/?cid=0x0:0x56f2eb1c250a17fa
hotel,hotel,M Hotel Sorong,"Jl. Sungai Maruni, Klawuyuk, Kec. Sorong Utara, Kota Sorong, Papua Bar. 98416","Klawuyuk, Kec. Sorong Utara, Kota Sorong",PAPUA BARAT,98416.0,Indonesia,8114863111.0,-0.8858638,131.3227746,https://maps.google.com/?cid=0x0:0x9b9160ef43d35fd5
hotel,hotel,,,,PAPUA BARAT,,Indonesia,,,,https://maps.google.com/?cid=0x0:0x9b9160ef43d35fd5%7C/g/11clwlw14h%7Cid-ID
hotel,hotel,,,,PAPUA BARAT,,Indonesia,,,,https://maps.google.com/?cid=0x0:0x56f2eb1c250a17fa%7C/g/11g8bwyjxb%7Cid-ID
hotel,hotel,The ignislo sorong hotel,"Basuki Rahmat Street KM 7 Sorong, Malaingkedi, Sorong Utara, Sorong City, West Papua 98412","Malaingkedi, Sorong Utara, Sorong City",PAPUA BARAT,98412.0,Indonesia,,-0.8885403,131.2925628,https://maps.google.com/?cid=0x0:0x9992b24f2542a546
hotel,hotel,,,,PAPUA BARAT,,Indonesia,,,,https://maps.google.com/?cid=0x0:0x4d32c5e468c00628%7C/g/11btmq5mpb%7Cid-ID
hotel,hotel,Swiss-Belhotel Sorong,"Hunting, Telepon, Jl. Jend. Sudirman Kecamatan, Malawei, Kecamatan Sorong Manoi, Kota Sorong, Papua Bar. 98412","Telepon, Jl. Jend. Sudirman Kecamatan, Malawei, Kecamatan Sorong Manoi, Kota Sorong",PAPUA BARAT,98412.0,Indonesia,8114853888.0,-0.889363,131.2749649,https://maps.google.com/?cid=0x0:0x4d32c5e468c00628
hotel,hotel,Hotel Belagri Sorong,"Jl. Merapi No.8, Klabala, Distrik Sorong Barat, Kota Sorong, Papua Bar. 98411","Klabala, Distrik Sorong Barat, Kota Sorong",PAPUA BARAT,98411.0,Indonesia,951323888.0,-0.8730356,131.2547729,https://maps.google.com/?cid=0x0:0x84dae6f8c4b2e8ad
hotel,hotel,RedDoorz near Dermaga Pelabuhan Rakyat,"Jl. Selat Rumberpon No.10A, Remu Sel., Kecamatan Sorong Manoi, Kota Sorong, Papua Bar. 98412","Remu Sel., Kecamatan Sorong Manoi, Kota Sorong",PAPUA BARAT,98412.0,Indonesia,895417300072.0,-0.8853147,131.2865519,https://maps.google.com/?cid=0x0:0x54d7a289f7c7cb50
hotel,hotel,Belagri Hotel and Restaurant,"Jl. Raja Ampat No.1, Kp. Baru, Distrik Sorong, Kota Sorong, Papua Bar. 98413","Kp. Baru, Distrik Sorong, Kota Sorong",PAPUA BARAT,98413.0,Indonesia,,-0.8704329,131.2517604,https://maps.google.com/?cid=0x0:0xb0064be8b2a3c2c8
hotel,hotel,Kasuari Valley Beach Resort Sorong,"Tj. Kasuari, Distrik Sorong Barat, Kota Sorong, Papua Bar. 98411","Distrik Sorong Barat, Kota Sorong",PAPUA BARAT,98411.0,Indonesia,81247423939.0,-0.8229453,131.2259207,https://maps.google.com/?cid=0x0:0x7ae87156c62b6490
hotel,hotel,Royal Mamberamo Hotel,"Jl. Dr. Sam Ratulangi No.35, Kp. Baru, Distrik Sorong, Kota Sorong, Papua Bar. 98413","Kp. Baru, Distrik Sorong, Kota Sorong",PAPUA BARAT,98413.0,Indonesia,951325666.0,-0.871573,131.250864,https://maps.google.com/?cid=0x0:0xb5e32e36111d42eb
hotel,hotel,Papua Bar. 98415,"Distrik Mariat, Kabupaten Sorong, Papua Bar.","Kabupaten Sorong, Papua Bar.",PAPUA BARAT,,Indonesia,,-1.0184261,131.3510866,https://maps.google.com/?cid=0x0:0x4d8344d873702960
hotel,hotel,Aimas Hotel And Convention Center,"Klamasen, Distrik Mariat, Kabupaten Sorong, Papua Bar. 98416","Distrik Mariat, Kabupaten Sorong",PAPUA BARAT,98416.0,Indonesia,8114887778.0,-0.9780957,131.3535192,https://maps.google.com/?cid=0x0:0x622ceae2f7c756cf
hotel,hotel,Aston Sorong Hotel  Conference Center,"476V+J9X, Jl. Basuki Rahmat, Malaingkedi, Kec. Sorong Utara, Kota Sorong, Papua Bar. 98412","Jl. Basuki Rahmat, Malaingkedi, Kec. Sorong Utara, Kota Sorong",PAPUA BARAT,98412.0,Indonesia,81148500888.0,-0.8887467,131.2931592,https://maps.google.com/?cid=0x0:0x110a6a5f0a67a7f7
hotel,hotel,Swiss-Belhotel Sorong,"Hunting, Telepon, Jl. Jend. Sudirman Kecamatan, Malawei, Kecamatan Sorong Manoi, Kota Sorong, Papua Bar. 98412","Telepon, Jl. Jend. Sudirman Kecamatan, Malawei, Kecamatan Sorong Manoi, Kota Sorong",PAPUA BARAT,98412.0,Indonesia,8114853888.0,-0.889363,131.2749649,https://maps.google.com/?cid=0x0:0x4d32c5e468c00628
hotel,hotel,,,,PAPUA BARAT,,Indonesia,,,,https://maps.google.com/?cid=0x0:0x4d32c5e468c00628%7C/g/11btmq5mpb%7Cid-ID
hotel,hotel,Hotel Belagri Sorong,"Jl. Merapi No.8, Klabala, Distrik Sorong Barat, Kota Sorong, Papua Bar. 98411","Klabala, Distrik Sorong Barat, Kota Sorong",PAPUA BARAT,98411.0,Indonesia,951323888.0,-0.8730356,131.2547729,https://maps.google.com/?cid=0x0:0x84dae6f8c4b2e8ad
hotel,hotel,M Hotel Sorong,"Jl. Sungai Maruni, Klawuyuk, Kec. Sorong Utara, Kota Sorong, Papua Bar. 98416","Klawuyuk, Kec. Sorong Utara, Kota Sorong",PAPUA BARAT,98416.0,Indonesia,8114863111.0,-0.8858638,131.3227746,https://maps.google.com/?cid=0x0:0x9b9160ef43d35fd5
hotel,hotel,,,,PAPUA BARAT,,Indonesia,,,,https://maps.google.com/?cid=0x0:0x9b9160ef43d35fd5%7C/g/11clwlw14h%7Cid-ID
hotel,hotel,Belagri Hotel and Restaurant,"Jl. Raja Ampat No.1, Kp. Baru, Distrik Sorong, Kota Sorong, Papua Bar. 98413","Kp. Baru, Distrik Sorong, Kota Sorong",PAPUA BARAT,98413.0,Indonesia,,-0.8704329,131.2517604,https://maps.google.com/?cid=0x0:0xb0064be8b2a3c2c8
hotel,hotel,Homestay Zahra kabupaten Sorong,"2983+F9H, Klamasen, Distrik Mariat, Kabupaten Sorong, Papua Bar. 98416","Klamasen, Distrik Mariat, Kabupaten Sorong",PAPUA BARAT,98416.0,Indonesia,85254141861.0,-0.9838107,131.3534768,https://maps.google.com/?cid=0x0:0xaa63dccb4a3f7f74
hotel,hotel,InnBox Hostel,"Jl. Sam Ratulangi No.91, Klasuur, Distrik Sorong, Kota Sorong, Papua Bar. 98413","Klasuur, Distrik Sorong, Kota Sorong",PAPUA BARAT,98413.0,Indonesia,81268888355.0,-0.8669219,131.2528048,https://maps.google.com/?cid=0x0:0x3be781e9731e888a
hotel,hotel,Darefan Hotel Sorong,"Jl. Selat Morotai, Remu Sel., Kecamatan Sorong Manoi, Kota Sorong, Papua Bar. 98412","Remu Sel., Kecamatan Sorong Manoi, Kota Sorong",PAPUA BARAT,98412.0,Indonesia,8114868887.0,-0.8877595,131.2893739,https://maps.google.com/?cid=0x0:0x5709bb2ac9cbd24
hotel,hotel,Penginapan Podomoro,"Jl. Poros, Makbalim, Mayamuk, Kabupaten Sorong, Papua Bar. 98451","Makbalim, Mayamuk, Kabupaten Sorong",PAPUA BARAT,98451.0,Indonesia,82239010520.0,-1.0598593,131.2849439,https://maps.google.com/?cid=0x0:0xc7e1fa75dacfda17
hotel,hotel,Penginapan Kofiyau,"46MX+QV7, Unnamed Road, Klasuur, Distrik Sorong, Kota Sorong, Papua Bar. 98411","Unnamed Road, Klasuur, Distrik Sorong, Kota Sorong",PAPUA BARAT,98411.0,Indonesia,82398017326.0,-0.86559,131.2496721,https://maps.google.com/?cid=0x0:0xfc32a1234a9c5c47
hotel,hotel,Papua Bar. 98417,"Kabupaten Sorong, Papua Bar.","Kabupaten Sorong, Papua Bar.",PAPUA BARAT,,Indonesia,,-1.0174852,131.4112125,https://maps.google.com/?cid=0x0:0xc20f17b25d0eed85
hotel,hotel,Aimas Hotel And Convention Center,"Klamasen, Distrik Mariat, Kabupaten Sorong, Papua Bar. 98416","Distrik Mariat, Kabupaten Sorong",PAPUA BARAT,98416.0,Indonesia,8114887778.0,-0.9780957,131.3535192,https://maps.google.com/?cid=0x0:0x622ceae2f7c756cf
hotel,hotel,RYLICH PANORAMA HOTEL,"Jl. Sam Ratulangi No.55, Klasuur, Distrik Sorong, Kota Sorong, Papua Bar. 98411","Klasuur, Distrik Sorong, Kota Sorong",PAPUA BARAT,98411.0,Indonesia,81240607603.0,-0.8690863,131.2526553,https://maps.google.com/?cid=0x0:0x994aef0f06a4c9a4
hotel,hotel,,,,PAPUA BARAT,,Indonesia,,,,https://maps.google.com/?cid=0x0:0xbf6ecabef3414744%7C/g/12hnlthc5%7Cid-ID
hotel,hotel,The ignislo sorong hotel,"Basuki Rahmat Street KM 7 Sorong, Malaingkedi, Sorong Utara, Sorong City, West Papua 98412","Malaingkedi, Sorong Utara, Sorong City",PAPUA BARAT,98412.0,Indonesia,,-0.8885403,131.2925628,https://maps.google.com/?cid=0x0:0x9992b24f2542a546
hotel,hotel,Aston Sorong Hotel  Conference Center,"476V+J9X, Jl. Basuki Rahmat, Malaingkedi, Kec. Sorong Utara, Kota Sorong, Papua Bar. 98412","Jl. Basuki Rahmat, Malaingkedi, Kec. Sorong Utara, Kota Sorong",PAPUA BARAT,98412.0,Indonesia,81148500888.0,-0.8887467,131.2931592,https://maps.google.com/?cid=0x0:0x110a6a5f0a67a7f7
hotel,hotel,VEGA PRIME Hotel  Convention,"Jl. Frans Kaisiepo, Malaingkedi, Kec. Sorong Utara, Kota Sorong, Papua Bar. 98412","Malaingkedi, Kec. Sorong Utara, Kota Sorong",PAPUA BARAT,98412.0,Indonesia,81148501658.0,-0.8863935,131.2926608,https://maps.google.com/?cid=0x0:0x9490ccc0d9334885
hotel,hotel,M Hotel Sorong,"Jl. Sungai Maruni, Klawuyuk, Kec. Sorong Utara, Kota Sorong, Papua Bar. 98416","Klawuyuk, Kec. Sorong Utara, Kota Sorong",PAPUA BARAT,98416.0,Indonesia,8114863111.0,-0.8858638,131.3227746,https://maps.google.com/?cid=0x0:0x9b9160ef43d35fd5
hotel,hotel,,,,PAPUA BARAT,,Indonesia,,,,https://maps.google.com/?cid=0x0:0x9b9160ef43d35fd5%7C/g/11clwlw14h%7Cid-ID
hotel,hotel,favehotel Sorong,"Klabulu, Jl. Basuki Rahmat Malaimsimsa, RT.001/RW.005, Kecamatan Malaimsimsa, Kota Sorong, Papua Bar. 98419","Jl. Basuki Rahmat Malaimsimsa, RT.001/RW.005, Kecamatan Malaimsimsa, Kota Sorong",PAPUA BARAT,98419.0,Indonesia,9513173888.0,-0.8892152,131.2985379,https://maps.google.com/?cid=0x0:0x56f2eb1c250a17fa
hotel,hotel,,,,PAPUA BARAT,,Indonesia,,,,https://maps.google.com/?cid=0x0:0x56f2eb1c250a17fa%7C/g/11g8bwyjxb%7Cid-ID
hotel,hotel,The Luxio Hotel,"Jl. Basuki Rahmat KM.12 Sorong, Malaingkedi, Kec. Sorong Utara, West Papua, Papua Bar. 98412","Malaingkedi, Kec. Sorong Utara, West Papua",PAPUA BARAT,98412.0,Indonesia,81344807777.0,-0.9040377,131.3236469,https://maps.google.com/?cid=0x0:0x4a37ba927853645b
hotel,hotel,,,,PAPUA BARAT,,Indonesia,,,,https://maps.google.com/?cid=0x0:0x4a37ba927853645b%7C/g/11y0l8mjv%7Cid-ID
hotel,hotel,Swiss-Belhotel Sorong,"Hunting, Telepon, Jl. Jend. Sudirman Kecamatan, Malawei, Kecamatan Sorong Manoi, Kota Sorong, Papua Bar. 98412","Telepon, Jl. Jend. Sudirman Kecamatan, Malawei, Kecamatan Sorong Manoi, Kota Sorong",PAPUA BARAT,98412.0,Indonesia,8114853888.0,-0.889363,131.2749649,https://maps.google.com/?cid=0x0:0x4d32c5e468c00628
hotel,hotel,Papua Bar. 98418,"Klasabi, Kecamatan Sorong Manoi, Kota Sorong, Papua Bar.","Kota Sorong, Papua Bar.",PAPUA BARAT,,Indonesia,,-0.9009162,131.3028579,https://maps.google.com/?cid=0x0:0x586b4aa754f22adb
hotel,hotel,,,,PAPUA BARAT,,Indonesia,,,,https://maps.google.com/?cid=0x0:0x56f2eb1c250a17fa%7C/g/11g8bwyjxb%7Cid-ID
hotel,hotel,favehotel Sorong,"Klabulu, Jl. Basuki Rahmat Malaimsimsa, RT.001/RW.005, Kecamatan Malaimsimsa, Kota Sorong, Papua Bar. 98419","Jl. Basuki Rahmat Malaimsimsa, RT.001/RW.005, Kecamatan Malaimsimsa, Kota Sorong",PAPUA BARAT,98419.0,Indonesia,9513173888.0,-0.8892152,131.2985379,https://maps.google.com/?cid=0x0:0x56f2eb1c250a17fa
hotel,hotel,The ignislo sorong hotel,"Basuki Rahmat Street KM 7 Sorong, Malaingkedi, Sorong Utara, Sorong City, West Papua 98412","Malaingkedi, Sorong Utara, Sorong City",PAPUA BARAT,98412.0,Indonesia,,-0.8885403,131.2925628,https://maps.google.com/?cid=0x0:0x9992b24f2542a546
hotel,hotel,VEGA PRIME Hotel  Convention,"Jl. Frans Kaisiepo, Malaingkedi, Kec. Sorong Utara, Kota Sorong, Papua Bar. 98412","Malaingkedi, Kec. Sorong Utara, Kota Sorong",PAPUA BARAT,98412.0,Indonesia,81148501658.0,-0.8863935,131.2926608,https://maps.google.com/?cid=0x0:0x9490ccc0d9334885
hotel,hotel,M Hotel Sorong,"Jl. Sungai Maruni, Klawuyuk, Kec. Sorong Utara, Kota Sorong, Papua Bar. 98416","Klawuyuk, Kec. Sorong Utara, Kota Sorong",PAPUA BARAT,98416.0,Indonesia,8114863111.0,-0.8858638,131.3227746,https://maps.google.com/?cid=0x0:0x9b9160ef43d35fd5
hotel,hotel,,,,PAPUA BARAT,,Indonesia,,,,https://maps.google.com/?cid=0x0:0x9b9160ef43d35fd5%7C/g/11clwlw14h%7Cid-ID
hotel,hotel,,,,PAPUA BARAT,,Indonesia,,,,https://maps.google.com/?cid=0x0:0xbf6ecabef3414744%7C/g/12hnlthc5%7Cid-ID
hotel,hotel,Hotel Mariat,"479F+3XR, Jl. Ahmad Yani No.1, Klademak, Distrik Sorong, Kota Sorong, Papua Bar. 98412","Jl. Ahmad Yani No.1, Klademak, Distrik Sorong, Kota Sorong",PAPUA BARAT,98412.0,Indonesia,951323535.0,-0.8822653,131.2745998,https://maps.google.com/?cid=0x0:0xbf6ecabef3414744
hotel,hotel,Guardian Family Hotel,"Malaingkedi, Kec. Sorong Utara, Kota Sorong, Papua Bar. 98412","Kec. Sorong Utara, Kota Sorong",PAPUA BARAT,98412.0,Indonesia,8114867300.0,-0.8896485,131.2945315,https://maps.google.com/?cid=0x0:0x804a8cdc3b2513d6
hotel,hotel,,,,PAPUA BARAT,,Indonesia,,,,https://maps.google.com/?cid=0x0:0x4d32c5e468c00628%7C/g/11btmq5mpb%7Cid-ID
hotel,hotel,Swiss-Belhotel Sorong,"Hunting, Telepon, Jl. Jend. Sudirman Kecamatan, Malawei, Kecamatan Sorong Manoi, Kota Sorong, Papua Bar. 98412","Telepon, Jl. Jend. Sudirman Kecamatan, Malawei, Kecamatan Sorong Manoi, Kota Sorong",PAPUA BARAT,98412.0,Indonesia,8114853888.0,-0.889363,131.2749649,https://maps.google.com/?cid=0x0:0x4d32c5e468c00628
hotel,hotel,The Luxio Hotel,"Jl. Basuki Rahmat KM.12 Sorong, Malaingkedi, Kec. Sorong Utara, West Papua, Papua Bar. 98412","Malaingkedi, Kec. Sorong Utara, West Papua",PAPUA BARAT,98412.0,Indonesia,81344807777.0,-0.9040377,131.3236469,https://maps.google.com/?cid=0x0:0x4a37ba927853645b
hotel,hotel,,,,PAPUA BARAT,,Indonesia,,,,https://maps.google.com/?cid=0x0:0x4a37ba927853645b%7C/g/11y0l8mjv%7Cid-ID
hotel,hotel,Papua Bar. 98419,"Kabupaten Sorong, Papua Bar.","Kabupaten Sorong, Papua Bar.",PAPUA BARAT,,Indonesia,,-0.9516965,131.4612677,https://maps.google.com/?cid=0x0:0x1846ff160c020f5b
hotel,hotel,Aimas Hotel And Convention Center,"Klamasen, Distrik Mariat, Kabupaten Sorong, Papua Bar. 98416","Distrik Mariat, Kabupaten Sorong",PAPUA BARAT,98416.0,Indonesia,8114887778.0,-0.9780957,131.3535192,https://maps.google.com/?cid=0x0:0x622ceae2f7c756cf
hotel,hotel,Aston Sorong Hotel  Conference Center,"476V+J9X, Jl. Basuki Rahmat, Malaingkedi, Kec. Sorong Utara, Kota Sorong, Papua Bar. 98412","Jl. Basuki Rahmat, Malaingkedi, Kec. Sorong Utara, Kota Sorong",PAPUA BARAT,98412.0,Indonesia,81148500888.0,-0.8887467,131.2931592,https://maps.google.com/?cid=0x0:0x110a6a5f0a67a7f7
hotel,hotel,,,,PAPUA BARAT,,Indonesia,,,,https://maps.google.com/?cid=0x0:0x56f2eb1c250a17fa%7C/g/11g8bwyjxb%7Cid-ID
hotel,hotel,favehotel Sorong,"Klabulu, Jl. Basuki Rahmat Malaimsimsa, RT.001/RW.005, Kecamatan Malaimsimsa, Kota Sorong, Papua Bar. 98419","Jl. Basuki Rahmat Malaimsimsa, RT.001/RW.005, Kecamatan Malaimsimsa, Kota Sorong",PAPUA BARAT,98419.0,Indonesia,9513173888.0,-0.8892152,131.2985379,https://maps.google.com/?cid=0x0:0x56f2eb1c250a17fa
hotel,hotel,M Hotel Sorong,"Jl. Sungai Maruni, Klawuyuk, Kec. Sorong Utara, Kota Sorong, Papua Bar. 98416","Klawuyuk, Kec. Sorong Utara, Kota Sorong",PAPUA BARAT,98416.0,Indonesia,8114863111.0,-0.8858638,131.3227746,https://maps.google.com/?cid=0x0:0x9b9160ef43d35fd5
hotel,hotel,,,,PAPUA BARAT,,Indonesia,,,,https://maps.google.com/?cid=0x0:0x9b9160ef43d35fd5%7C/g/11clwlw14h%7Cid-ID
hotel,hotel,Hotel Belagri Sorong,"Jl. Merapi No.8, Klabala, Distrik Sorong Barat, Kota Sorong, Papua Bar. 98411","Klabala, Distrik Sorong Barat, Kota Sorong",PAPUA BARAT,98411.0,Indonesia,951323888.0,-0.8730356,131.2547729,https://maps.google.com/?cid=0x0:0x84dae6f8c4b2e8ad
hotel,hotel,Belagri Hotel and Restaurant,"Jl. Raja Ampat No.1, Kp. Baru, Distrik Sorong, Kota Sorong, Papua Bar. 98413","Kp. Baru, Distrik Sorong, Kota Sorong",PAPUA BARAT,98413.0,Indonesia,,-0.8704329,131.2517604,https://maps.google.com/?cid=0x0:0xb0064be8b2a3c2c8
hotel,hotel,Royal Mamberamo Hotel,"Jl. Dr. Sam Ratulangi No.35, Kp. Baru, Distrik Sorong, Kota Sorong, Papua Bar. 98413","Kp. Baru, Distrik Sorong, Kota Sorong",PAPUA BARAT,98413.0,Indonesia,951325666.0,-0.871573,131.250864,https://maps.google.com/?cid=0x0:0xb5e32e36111d42eb
hotel,hotel,RedDoorz near Dermaga Pelabuhan Rakyat,"Jl. Selat Rumberpon No.10A, Remu Sel., Kecamatan Sorong Manoi, Kota Sorong, Papua Bar. 98412","Remu Sel., Kecamatan Sorong Manoi, Kota Sorong",PAPUA BARAT,98412.0,Indonesia,895417300072.0,-0.8853147,131.2865519,https://maps.google.com/?cid=0x0:0x54d7a289f7c7cb50
hotel,hotel,Darefan Hotel Sorong,"Jl. Selat Morotai, Remu Sel., Kecamatan Sorong Manoi, Kota Sorong, Papua Bar. 98412","Remu Sel., Kecamatan Sorong Manoi, Kota Sorong",PAPUA BARAT,98412.0,Indonesia,8114868887.0,-0.8877595,131.2893739,https://maps.google.com/?cid=0x0:0x5709bb2ac9cbd24
hotel,hotel,Penginapan Kofiyau,"46MX+QV7, Unnamed Road, Klasuur, Distrik Sorong, Kota Sorong, Papua Bar. 98411","Unnamed Road, Klasuur, Distrik Sorong, Kota Sorong",PAPUA BARAT,98411.0,Indonesia,82398017326.0,-0.86559,131.2496721,https://maps.google.com/?cid=0x0:0xfc32a1234a9c5c47
hotel,hotel,RedDoorz @ Sorong City Center,"Jl. Jend. A. Yani No.27, Malabutor, Kecamatan Sorong Manoi, Kota Sorong, Papua Bar. 98412","Malabutor, Kecamatan Sorong Manoi, Kota Sorong",PAPUA BARAT,98412.0,Indonesia,895417300072.0,-0.8827407,131.2828205,https://maps.google.com/?cid=0x0:0xdbd931b54df6042e
hotel,hotel,Kecamatan Sorong Manoi,"Kota Sorong, Papua Bar.","Kota Sorong, Papua Bar.",PAPUA BARAT,,Indonesia,,-0.8875965,131.2870369,https://maps.google.com/?cid=0x0:0xeae8019c83ed0741
hotel,hotel,,,,PAPUA BARAT,,Indonesia,,,,https://maps.google.com/?cid=0x0:0x4d32c5e468c00628%7C/g/11btmq5mpb%7Cid-ID
hotel,hotel,Swiss-Belhotel Sorong,"Hunting, Telepon, Jl. Jend. Sudirman Kecamatan, Malawei, Kecamatan Sorong Manoi, Kota Sorong, Papua Bar. 98412","Telepon, Jl. Jend. Sudirman Kecamatan, Malawei, Kecamatan Sorong Manoi, Kota Sorong",PAPUA BARAT,98412.0,Indonesia,8114853888.0,-0.889363,131.2749649,https://maps.google.com/?cid=0x0:0x4d32c5e468c00628
hotel,hotel,Hotel Mariat,"479F+3XR, Jl. Ahmad Yani No.1, Klademak, Distrik Sorong, Kota Sorong, Papua Bar. 98412","Jl. Ahmad Yani No.1, Klademak, Distrik Sorong, Kota Sorong",PAPUA BARAT,98412.0,Indonesia,951323535.0,-0.8822653,131.2745998,https://maps.google.com/?cid=0x0:0xbf6ecabef3414744
hotel,hotel,,,,PAPUA BARAT,,Indonesia,,,,https://maps.google.com/?cid=0x0:0xbf6ecabef3414744%7C/g/12hnlthc5%7Cid-ID
hotel,hotel,VEGA PRIME Hotel  Convention,"Jl. Frans Kaisiepo, Malaingkedi, Kec. Sorong Utara, Kota Sorong, Papua Bar. 98412","Malaingkedi, Kec. Sorong Utara, Kota Sorong",PAPUA BARAT,98412.0,Indonesia,81148501658.0,-0.8863935,131.2926608,https://maps.google.com/?cid=0x0:0x9490ccc0d9334885
hotel,hotel,Ayla City Hotel,"479J+39W, Jl. Srigunting, Remu Utara, Distrik Sorong, Kota Sorong, Papua Bar. 98412","Jl. Srigunting, Remu Utara, Distrik Sorong, Kota Sorong",PAPUA BARAT,98412.0,Indonesia,82344146288.0,-0.882262,131.2809502,https://maps.google.com/?cid=0x0:0x7ef22ab0d606bc6f
hotel,hotel,favehotel Sorong,"Klabulu, Jl. Basuki Rahmat Malaimsimsa, RT.001/RW.005, Kecamatan Malaimsimsa, Kota Sorong, Papua Bar. 98419","Jl. Basuki Rahmat Malaimsimsa, RT.001/RW.005, Kecamatan Malaimsimsa, Kota Sorong",PAPUA BARAT,98419.0,Indonesia,9513173888.0,-0.8892152,131.2985379,https://maps.google.com/?cid=0x0:0x56f2eb1c250a17fa
hotel,hotel,,,,PAPUA BARAT,,Indonesia,,,,https://maps.google.com/?cid=0x0:0x56f2eb1c250a17fa%7C/g/11g8bwyjxb%7Cid-ID
hotel,hotel,The ignislo sorong hotel,"Basuki Rahmat Street KM 7 Sorong, Malaingkedi, Sorong Utara, Sorong City, West Papua 98412","Malaingkedi, Sorong Utara, Sorong City",PAPUA BARAT,98412.0,Indonesia,,-0.8885403,131.2925628,https://maps.google.com/?cid=0x0:0x9992b24f2542a546
hotel,hotel,City View Hotel,"479J+38V, Jl. Srigunting, Remu Utara, Distrik Sorong, Kota Sorong, Papua Bar. 98412","Jl. Srigunting, Remu Utara, Distrik Sorong, Kota Sorong",PAPUA BARAT,98412.0,Indonesia,951324102.0,-0.8822749,131.2808058,https://maps.google.com/?cid=0x0:0xac64df2bc7cde404
hotel,hotel,RedDoorz near Dermaga Pelabuhan Rakyat,"Jl. Selat Rumberpon No.10A, Remu Sel., Kecamatan Sorong Manoi, Kota Sorong, Papua Bar. 98412","Remu Sel., Kecamatan Sorong Manoi, Kota Sorong",PAPUA BARAT,98412.0,Indonesia,895417300072.0,-0.8853147,131.2865519,https://maps.google.com/?cid=0x0:0x54d7a289f7c7cb50
hotel,hotel,Guardian Family Hotel,"Malaingkedi, Kec. Sorong Utara, Kota Sorong, Papua Bar. 98412","Kec. Sorong Utara, Kota Sorong",PAPUA BARAT,98412.0,Indonesia,8114867300.0,-0.8896485,131.2945315,https://maps.google.com/?cid=0x0:0x804a8cdc3b2513d6
hotel,hotel,M Hotel Sorong,"Jl. Sungai Maruni, Klawuyuk, Kec. Sorong Utara, Kota Sorong, Papua Bar. 98416","Klawuyuk, Kec. Sorong Utara, Kota Sorong",PAPUA BARAT,98416.0,Indonesia,8114863111.0,-0.8858638,131.3227746,https://maps.google.com/?cid=0x0:0x9b9160ef43d35fd5
hotel,hotel,Kecamatan Sorong Manoi,"Kota Sorong, Papua Bar.","Kota Sorong, Papua Bar.",PAPUA BARAT,,Indonesia,,-0.8875965,131.2870369,https://maps.google.com/?cid=0x0:0xeae8019c83ed0741
hotel,hotel,Aston Sorong Hotel  Conference Center,"476V+J9X, Jl. Basuki Rahmat, Malaingkedi, Kec. Sorong Utara, Kota Sorong, Papua Bar. 98412","Jl. Basuki Rahmat, Malaingkedi, Kec. Sorong Utara, Kota Sorong",PAPUA BARAT,98412.0,Indonesia,81148500888.0,-0.8887467,131.2931592,https://maps.google.com/?cid=0x0:0x110a6a5f0a67a7f7
hotel,hotel,Swiss-Belhotel Sorong,"Hunting, Telepon, Jl. Jend. Sudirman Kecamatan, Malawei, Kecamatan Sorong Manoi, Kota Sorong, Papua Bar. 98412","Telepon, Jl. Jend. Sudirman Kecamatan, Malawei, Kecamatan Sorong Manoi, Kota Sorong",PAPUA BARAT,98412.0,Indonesia,8114853888.0,-0.889363,131.2749649,https://maps.google.com/?cid=0x0:0x4d32c5e468c00628
hotel,hotel,Hotel Mariat,"479F+3XR, Jl. Ahmad Yani No.1, Klademak, Distrik Sorong, Kota Sorong, Papua Bar. 98412","Jl. Ahmad Yani No.1, Klademak, Distrik Sorong, Kota Sorong",PAPUA BARAT,98412.0,Indonesia,951323535.0,-0.8822653,131.2745998,https://maps.google.com/?cid=0x0:0xbf6ecabef3414744
hotel,hotel,,,,PAPUA BARAT,,Indonesia,,,,https://maps.google.com/?cid=0x0:0xbf6ecabef3414744%7C/g/12hnlthc5%7Cid-ID
hotel,hotel,VEGA PRIME Hotel  Convention,"Jl. Frans Kaisiepo, Malaingkedi, Kec. Sorong Utara, Kota Sorong, Papua Bar. 98412","Malaingkedi, Kec. Sorong Utara, Kota Sorong",PAPUA BARAT,98412.0,Indonesia,81148501658.0,-0.8863935,131.2926608,https://maps.google.com/?cid=0x0:0x9490ccc0d9334885
hotel,hotel,The ignislo sorong hotel,"Basuki Rahmat Street KM 7 Sorong, Malaingkedi, Sorong Utara, Sorong City, West Papua 98412","Malaingkedi, Sorong Utara, Sorong City",PAPUA BARAT,98412.0,Indonesia,,-0.8885403,131.2925628,https://maps.google.com/?cid=0x0:0x9992b24f2542a546
hotel,hotel,Ayla City Hotel,"479J+39W, Jl. Srigunting, Remu Utara, Distrik Sorong, Kota Sorong, Papua Bar. 98412","Jl. Srigunting, Remu Utara, Distrik Sorong, Kota Sorong",PAPUA BARAT,98412.0,Indonesia,82344146288.0,-0.882262,131.2809502,https://maps.google.com/?cid=0x0:0x7ef22ab0d606bc6f
hotel,hotel,favehotel Sorong,"Klabulu, Jl. Basuki Rahmat Malaimsimsa, RT.001/RW.005, Kecamatan Malaimsimsa, Kota Sorong, Papua Bar. 98419","Jl. Basuki Rahmat Malaimsimsa, RT.001/RW.005, Kecamatan Malaimsimsa, Kota Sorong",PAPUA BARAT,98419.0,Indonesia,9513173888.0,-0.8892152,131.2985379,https://maps.google.com/?cid=0x0:0x56f2eb1c250a17fa
hotel,hotel,,,,PAPUA BARAT,,Indonesia,,,,https://maps.google.com/?cid=0x0:0x56f2eb1c250a17fa%7C/g/11g8bwyjxb%7Cid-ID
hotel,hotel,City View Hotel,"479J+38V, Jl. Srigunting, Remu Utara, Distrik Sorong, Kota Sorong, Papua Bar. 98412","Jl. Srigunting, Remu Utara, Distrik Sorong, Kota Sorong",PAPUA BARAT,98412.0,Indonesia,951324102.0,-0.8822749,131.2808058,https://maps.google.com/?cid=0x0:0xac64df2bc7cde404
hotel,hotel,Guardian Family Hotel,"Malaingkedi, Kec. Sorong Utara, Kota Sorong, Papua Bar. 98412","Kec. Sorong Utara, Kota Sorong",PAPUA BARAT,98412.0,Indonesia,8114867300.0,-0.8896485,131.2945315,https://maps.google.com/?cid=0x0:0x804a8cdc3b2513d6
hotel,hotel,RedDoorz near Dermaga Pelabuhan Rakyat,"Jl. Selat Rumberpon No.10A, Remu Sel., Kecamatan Sorong Manoi, Kota Sorong, Papua Bar. 98412","Remu Sel., Kecamatan Sorong Manoi, Kota Sorong",PAPUA BARAT,98412.0,Indonesia,895417300072.0,-0.8853147,131.2865519,https://maps.google.com/?cid=0x0:0x54d7a289f7c7cb50
hotel,hotel,M Hotel Sorong,"Jl. Sungai Maruni, Klawuyuk, Kec. Sorong Utara, Kota Sorong, Papua Bar. 98416","Klawuyuk, Kec. Sorong Utara, Kota Sorong",PAPUA BARAT,98416.0,Indonesia,8114863111.0,-0.8858638,131.3227746,https://maps.google.com/?cid=0x0:0x9b9160ef43d35fd5
hotel,hotel,Kecamatan Sorong Manoi,"Kota Sorong, Papua Bar.","Kota Sorong, Papua Bar.",PAPUA BARAT,,Indonesia,,-0.8875965,131.2870369,https://maps.google.com/?cid=0x0:0xeae8019c83ed0741
hotel,hotel,Aston Sorong Hotel  Conference Center,"476V+J9X, Jl. Basuki Rahmat, Malaingkedi, Kec. Sorong Utara, Kota Sorong, Papua Bar. 98412","Jl. Basuki Rahmat, Malaingkedi, Kec. Sorong Utara, Kota Sorong",PAPUA BARAT,98412.0,Indonesia,81148500888.0,-0.8887467,131.2931592,https://maps.google.com/?cid=0x0:0x110a6a5f0a67a7f7
hotel,hotel,Swiss-Belhotel Sorong,"Hunting, Telepon, Jl. Jend. Sudirman Kecamatan, Malawei, Kecamatan Sorong Manoi, Kota Sorong, Papua Bar. 98412","Telepon, Jl. Jend. Sudirman Kecamatan, Malawei, Kecamatan Sorong Manoi, Kota Sorong",PAPUA BARAT,98412.0,Indonesia,8114853888.0,-0.889363,131.2749649,https://maps.google.com/?cid=0x0:0x4d32c5e468c00628
hotel,hotel,,,,PAPUA BARAT,,Indonesia,,,,https://maps.google.com/?cid=0x0:0xbf6ecabef3414744%7C/g/12hnlthc5%7Cid-ID
hotel,hotel,Hotel Mariat,"479F+3XR, Jl. Ahmad Yani No.1, Klademak, Distrik Sorong, Kota Sorong, Papua Bar. 98412","Jl. Ahmad Yani No.1, Klademak, Distrik Sorong, Kota Sorong",PAPUA BARAT,98412.0,Indonesia,951323535.0,-0.8822653,131.2745998,https://maps.google.com/?cid=0x0:0xbf6ecabef3414744
hotel,hotel,VEGA PRIME Hotel  Convention,"Jl. Frans Kaisiepo, Malaingkedi, Kec. Sorong Utara, Kota Sorong, Papua Bar. 98412","Malaingkedi, Kec. Sorong Utara, Kota Sorong",PAPUA BARAT,98412.0,Indonesia,81148501658.0,-0.8863935,131.2926608,https://maps.google.com/?cid=0x0:0x9490ccc0d9334885
hotel,hotel,The ignislo sorong hotel,"Basuki Rahmat Street KM 7 Sorong, Malaingkedi, Sorong Utara, Sorong City, West Papua 98412","Malaingkedi, Sorong Utara, Sorong City",PAPUA BARAT,98412.0,Indonesia,,-0.8885403,131.2925628,https://maps.google.com/?cid=0x0:0x9992b24f2542a546
hotel,hotel,Ayla City Hotel,"479J+39W, Jl. Srigunting, Remu Utara, Distrik Sorong, Kota Sorong, Papua Bar. 98412","Jl. Srigunting, Remu Utara, Distrik Sorong, Kota Sorong",PAPUA BARAT,98412.0,Indonesia,82344146288.0,-0.882262,131.2809502,https://maps.google.com/?cid=0x0:0x7ef22ab0d606bc6f
hotel,hotel,favehotel Sorong,"Klabulu, Jl. Basuki Rahmat Malaimsimsa, RT.001/RW.005, Kecamatan Malaimsimsa, Kota Sorong, Papua Bar. 98419","Jl. Basuki Rahmat Malaimsimsa, RT.001/RW.005, Kecamatan Malaimsimsa, Kota Sorong",PAPUA BARAT,98419.0,Indonesia,9513173888.0,-0.8892152,131.2985379,https://maps.google.com/?cid=0x0:0x56f2eb1c250a17fa
hotel,hotel,,,,PAPUA BARAT,,Indonesia,,,,https://maps.google.com/?cid=0x0:0x56f2eb1c250a17fa%7C/g/11g8bwyjxb%7Cid-ID
hotel,hotel,City View Hotel,"479J+38V, Jl. Srigunting, Remu Utara, Distrik Sorong, Kota Sorong, Papua Bar. 98412","Jl. Srigunting, Remu Utara, Distrik Sorong, Kota Sorong",PAPUA BARAT,98412.0,Indonesia,951324102.0,-0.8822749,131.2808058,https://maps.google.com/?cid=0x0:0xac64df2bc7cde404
hotel,hotel,M Hotel Sorong,"Jl. Sungai Maruni, Klawuyuk, Kec. Sorong Utara, Kota Sorong, Papua Bar. 98416","Klawuyuk, Kec. Sorong Utara, Kota Sorong",PAPUA BARAT,98416.0,Indonesia,8114863111.0,-0.8858638,131.3227746,https://maps.google.com/?cid=0x0:0x9b9160ef43d35fd5
hotel,hotel,,,,PAPUA BARAT,,Indonesia,,,,https://maps.google.com/?cid=0x0:0x9b9160ef43d35fd5%7C/g/11clwlw14h%7Cid-ID
hotel,hotel,Guardian Family Hotel,"Malaingkedi, Kec. Sorong Utara, Kota Sorong, Papua Bar. 98412","Kec. Sorong Utara, Kota Sorong",PAPUA BARAT,98412.0,Indonesia,8114867300.0,-0.8896485,131.2945315,https://maps.google.com/?cid=0x0:0x804a8cdc3b2513d6
hotel,hotel,Papua Bar. 98416,Papua Bar.,Papua Bar.,PAPUA BARAT,,Indonesia,,-0.8883325,131.3510866,https://maps.google.com/?cid=0x0:0x7d4c82915eeb19ce
hotel,hotel,M Hotel Sorong,"Jl. Sungai Maruni, Klawuyuk, Kec. Sorong Utara, Kota Sorong, Papua Bar. 98416","Klawuyuk, Kec. Sorong Utara, Kota Sorong",PAPUA BARAT,98416.0,Indonesia,8114863111.0,-0.8858638,131.3227746,https://maps.google.com/?cid=0x0:0x9b9160ef43d35fd5
hotel,hotel,,,,PAPUA BARAT,,Indonesia,,,,https://maps.google.com/?cid=0x0:0x9b9160ef43d35fd5%7C/g/11clwlw14h%7Cid-ID
hotel,hotel,VEGA PRIME Hotel  Convention,"Jl. Frans Kaisiepo, Malaingkedi, Kec. Sorong Utara, Kota Sorong, Papua Bar. 98412","Malaingkedi, Kec. Sorong Utara, Kota Sorong",PAPUA BARAT,98412.0,Indonesia,81148501658.0,-0.8863935,131.2926608,https://maps.google.com/?cid=0x0:0x9490ccc0d9334885
hotel,hotel,Aston Sorong Hotel  Conference Center,"476V+J9X, Jl. Basuki Rahmat, Malaingkedi, Kec. Sorong Utara, Kota Sorong, Papua Bar. 98412","Jl. Basuki Rahmat, Malaingkedi, Kec. Sorong Utara, Kota Sorong",PAPUA BARAT,98412.0,Indonesia,81148500888.0,-0.8887467,131.2931592,https://maps.google.com/?cid=0x0:0x110a6a5f0a67a7f7
hotel,hotel,The ignislo sorong hotel,"Basuki Rahmat Street KM 7 Sorong, Malaingkedi, Sorong Utara, Sorong City, West Papua 98412","Malaingkedi, Sorong Utara, Sorong City",PAPUA BARAT,98412.0,Indonesia,,-0.8885403,131.2925628,https://maps.google.com/?cid=0x0:0x9992b24f2542a546
hotel,hotel,,,,PAPUA BARAT,,Indonesia,,,,https://maps.google.com/?cid=0x0:0x56f2eb1c250a17fa%7C/g/11g8bwyjxb%7Cid-ID
hotel,hotel,favehotel Sorong,"Klabulu, Jl. Basuki Rahmat Malaimsimsa, RT.001/RW.005, Kecamatan Malaimsimsa, Kota Sorong, Papua Bar. 98419","Jl. Basuki Rahmat Malaimsimsa, RT.001/RW.005, Kecamatan Malaimsimsa, Kota Sorong",PAPUA BARAT,98419.0,Indonesia,9513173888.0,-0.8892152,131.2985379,https://maps.google.com/?cid=0x0:0x56f2eb1c250a17fa
hotel,hotel,The Luxio Hotel,"Jl. Basuki Rahmat KM.12 Sorong, Malaingkedi, Kec. Sorong Utara, West Papua, Papua Bar. 98412","Malaingkedi, Kec. Sorong Utara, West Papua",PAPUA BARAT,98412.0,Indonesia,81344807777.0,-0.9040377,131.3236469,https://maps.google.com/?cid=0x0:0x4a37ba927853645b
hotel,hotel,,,,PAPUA BARAT,,Indonesia,,,,https://maps.google.com/?cid=0x0:0x4a37ba927853645b%7C/g/11y0l8mjv%7Cid-ID
hotel,hotel,Guardian Family Hotel,"Malaingkedi, Kec. Sorong Utara, Kota Sorong, Papua Bar. 98412","Kec. Sorong Utara, Kota Sorong",PAPUA BARAT,98412.0,Indonesia,8114867300.0,-0.8896485,131.2945315,https://maps.google.com/?cid=0x0:0x804a8cdc3b2513d6
hotel,hotel,Hotel Mariat,"479F+3XR, Jl. Ahmad Yani No.1, Klademak, Distrik Sorong, Kota Sorong, Papua Bar. 98412","Jl. Ahmad Yani No.1, Klademak, Distrik Sorong, Kota Sorong",PAPUA BARAT,98412.0,Indonesia,951323535.0,-0.8822653,131.2745998,https://maps.google.com/?cid=0x0:0xbf6ecabef3414744
hotel,hotel,,,,PAPUA BARAT,,Indonesia,,,,https://maps.google.com/?cid=0x0:0xbf6ecabef3414744%7C/g/12hnlthc5%7Cid-ID
hotel,hotel,City View Hotel,"479J+38V, Jl. Srigunting, Remu Utara, Distrik Sorong, Kota Sorong, Papua Bar. 98412","Jl. Srigunting, Remu Utara, Distrik Sorong, Kota Sorong",PAPUA BARAT,98412.0,Indonesia,951324102.0,-0.8822749,131.2808058,https://maps.google.com/?cid=0x0:0xac64df2bc7cde404
hotel,hotel,Papua Bar. 98419,"Kabupaten Sorong, Papua Bar.","Kabupaten Sorong, Papua Bar.",PAPUA BARAT,,Indonesia,,-0.9516965,131.4612677,https://maps.google.com/?cid=0x0:0x1846ff160c020f5b
hotel,hotel,Aimas Hotel And Convention Center,"Klamasen, Distrik Mariat, Kabupaten Sorong, Papua Bar. 98416","Distrik Mariat, Kabupaten Sorong",PAPUA BARAT,98416.0,Indonesia,8114887778.0,-0.9780957,131.3535192,https://maps.google.com/?cid=0x0:0x622ceae2f7c756cf
hotel,hotel,The ignislo sorong hotel,"Basuki Rahmat Street KM 7 Sorong, Malaingkedi, Sorong Utara, Sorong City, West Papua 98412","Malaingkedi, Sorong Utara, Sorong City",PAPUA BARAT,98412.0,Indonesia,,-0.8885403,131.2925628,https://maps.google.com/?cid=0x0:0x9992b24f2542a546
hotel,hotel,,,,PAPUA BARAT,,Indonesia,,,,https://maps.google.com/?cid=0x0:0x9b9160ef43d35fd5%7C/g/11clwlw14h%7Cid-ID
hotel,hotel,VEGA PRIME Hotel  Convention,"Jl. Frans Kaisiepo, Malaingkedi, Kec. Sorong Utara, Kota Sorong, Papua Bar. 98412","Malaingkedi, Kec. Sorong Utara, Kota Sorong",PAPUA BARAT,98412.0,Indonesia,81148501658.0,-0.8863935,131.2926608,https://maps.google.com/?cid=0x0:0x9490ccc0d9334885
hotel,hotel,Aston Sorong Hotel  Conference Center,"476V+J9X, Jl. Basuki Rahmat, Malaingkedi, Kec. Sorong Utara, Kota Sorong, Papua Bar. 98412","Jl. Basuki Rahmat, Malaingkedi, Kec. Sorong Utara, Kota Sorong",PAPUA BARAT,98412.0,Indonesia,81148500888.0,-0.8887467,131.2931592,https://maps.google.com/?cid=0x0:0x110a6a5f0a67a7f7
hotel,hotel,favehotel Sorong,"Klabulu, Jl. Basuki Rahmat Malaimsimsa, RT.001/RW.005, Kecamatan Malaimsimsa, Kota Sorong, Papua Bar. 98419","Jl. Basuki Rahmat Malaimsimsa, RT.001/RW.005, Kecamatan Malaimsimsa, Kota Sorong",PAPUA BARAT,98419.0,Indonesia,9513173888.0,-0.8892152,131.2985379,https://maps.google.com/?cid=0x0:0x56f2eb1c250a17fa
hotel,hotel,,,,PAPUA BARAT,,Indonesia,,,,https://maps.google.com/?cid=0x0:0x56f2eb1c250a17fa%7C/g/11g8bwyjxb%7Cid-ID
hotel,hotel,Hotel Belagri Sorong,"Jl. Merapi No.8, Klabala, Distrik Sorong Barat, Kota Sorong, Papua Bar. 98411","Klabala, Distrik Sorong Barat, Kota Sorong",PAPUA BARAT,98411.0,Indonesia,951323888.0,-0.8730356,131.2547729,https://maps.google.com/?cid=0x0:0x84dae6f8c4b2e8ad
hotel,hotel,Belagri Hotel and Restaurant,"Jl. Raja Ampat No.1, Kp. Baru, Distrik Sorong, Kota Sorong, Papua Bar. 98413","Kp. Baru, Distrik Sorong, Kota Sorong",PAPUA BARAT,98413.0,Indonesia,,-0.8704329,131.2517604,https://maps.google.com/?cid=0x0:0xb0064be8b2a3c2c8
hotel,hotel,RedDoorz near Dermaga Pelabuhan Rakyat,"Jl. Selat Rumberpon No.10A, Remu Sel., Kecamatan Sorong Manoi, Kota Sorong, Papua Bar. 98412","Remu Sel., Kecamatan Sorong Manoi, Kota Sorong",PAPUA BARAT,98412.0,Indonesia,895417300072.0,-0.8853147,131.2865519,https://maps.google.com/?cid=0x0:0x54d7a289f7c7cb50
hotel,hotel,Royal Mamberamo Hotel,"Jl. Dr. Sam Ratulangi No.35, Kp. Baru, Distrik Sorong, Kota Sorong, Papua Bar. 98413","Kp. Baru, Distrik Sorong, Kota Sorong",PAPUA BARAT,98413.0,Indonesia,951325666.0,-0.871573,131.250864,https://maps.google.com/?cid=0x0:0xb5e32e36111d42eb
hotel,hotel,Penginapan Kofiyau,"46MX+QV7, Unnamed Road, Klasuur, Distrik Sorong, Kota Sorong, Papua Bar. 98411","Unnamed Road, Klasuur, Distrik Sorong, Kota Sorong",PAPUA BARAT,98411.0,Indonesia,82398017326.0,-0.86559,131.2496721,https://maps.google.com/?cid=0x0:0xfc32a1234a9c5c47
hotel,hotel,Darefan Hotel Sorong,"Jl. Selat Morotai, Remu Sel., Kecamatan Sorong Manoi, Kota Sorong, Papua Bar. 98412","Remu Sel., Kecamatan Sorong Manoi, Kota Sorong",PAPUA BARAT,98412.0,Indonesia,8114868887.0,-0.8877595,131.2893739,https://maps.google.com/?cid=0x0:0x5709bb2ac9cbd24
restaurant,restaurant,Papua Bar. 98413,"Klabala, Distrik Sorong Barat, Kota Sorong, Papua Bar.","Kota Sorong, Papua Bar.",PAPUA BARAT,,Indonesia,,-0.8669518,131.254029,https://maps.google.com/?cid=0x0:0x352e1f254d39ea2b
restaurant,Korea,Mansae Hore Korean Grill Sorong cabang KAMPUNG BARU,"Jl. Sam Ratulangi Ruko Alfa Mega No.2B, Kp. Baru, Distrik Sorong, Kota Sorong, Papua Bar. 98411","Kp. Baru, Distrik Sorong, Kota Sorong",PAPUA BARAT,98411.0,Indonesia,81212285585.0,-0.870754,131.2519071,https://maps.google.com/?cid=0x0:0x62f61b03c2c8bda6
restaurant,Pizza,Pizzeria Terrazza di Sorong,"Behind SKKMIGAS, dibelakang SKKMIGAS, Jl. Arfak, Kp. Baru, Kota Sorong, Papua Bar. 98414","dibelakang SKKMIGAS, Jl. Arfak, Kp. Baru, Kota Sorong",PAPUA BARAT,98414.0,Indonesia,81356867669.0,-0.8737438,131.25222,https://maps.google.com/?cid=0x0:0xf46c05068677dc1
restaurant,Kedai Kopi,Sorong Cafe,"Sawagumu, Kec. Sorong Utara, Kota Sorong, Papua Bar.","Kota Sorong, Papua Bar.",PAPUA BARAT,,Indonesia,81248201730.0,-0.8893784,131.3128926,https://maps.google.com/?cid=0x0:0x7962c1d0ce1b0528
restaurant,Hidangan Laut,RM. NEW RATU SAYANG,"Lido, Jl. Yos. Sudarso No.31, Klasuur, Distrik Sorong, Kota Sorong, Papua Bar. 98413","Jl. Yos. Sudarso No.31, Klasuur, Distrik Sorong, Kota Sorong",PAPUA BARAT,98413.0,Indonesia,85244007744.0,-0.8652896,131.2461583,https://maps.google.com/?cid=0x0:0xb387f5135fa5f5d6
restaurant,Rumah Makan,Rumah Makan Mini (Miniresto.sorong),"Klademak, Distrik Sorong, Kota Sorong, Papua Bar. 98412","Distrik Sorong, Kota Sorong",PAPUA BARAT,98412.0,Indonesia,85354611115.0,-0.8820389,131.2740136,https://maps.google.com/?cid=0x0:0x1b2e4c712665ee5b
restaurant,Korea,Mansae Hore Korean Grill Sorong cabang KILO,"Jl. Basuki Rahmat No.Km.9 5, Sawagumu, Kec. Sorong Utara, Kota Sorong, Papua Bar. 98410","Sawagumu, Kec. Sorong Utara, Kota Sorong",PAPUA BARAT,98410.0,Indonesia,81212888885.0,-0.8893567,131.3119808,https://maps.google.com/?cid=0x0:0x7421ada9c8690ba9
restaurant,Kafe,Infinity Social House,"46MW+H87, Lido, Distrik Sorong, Kota Sorong, Papua Bar. 98411","Lido, Distrik Sorong, Kota Sorong",PAPUA BARAT,98411.0,Indonesia,82360700899.0,-0.86582,131.2452795,https://maps.google.com/?cid=0x0:0xde8c57d5950c604a
restaurant,Pujasera,Hangout Avenue Sorong,"Jl Sungai Maruni KM 10, Masuk No.23, Kota Sorong, Papua Bar. 98416","Masuk No.23, Kota Sorong",PAPUA BARAT,98416.0,Indonesia,82197698090.0,-0.8868107,131.3216004,https://maps.google.com/?cid=0x0:0x29c3ed1d6d1ac389
restaurant,Sulawesi Selatan,Rumah Makan Goyang Lidah 2 HBM Kota Sorong,"Jl. Mesjid Raya, Remu Utara, Distrik Sorong, Kota Sorong, Papua Bar. 98412","Remu Utara, Distrik Sorong, Kota Sorong",PAPUA BARAT,98412.0,Indonesia,8114871878.0,-0.8806609,131.2828623,https://maps.google.com/?cid=0x0:0xc360ea1f18263d44
restaurant,Kedai Kopi,Terra Cafe,"Jl. Arfak No.24, Kp. Baru, Distrik Sorong, Kota Sorong, Papua Bar. 98413","Kp. Baru, Distrik Sorong, Kota Sorong",PAPUA BARAT,98413.0,Indonesia,85240161348.0,-0.8717566,131.248572,https://maps.google.com/?cid=0x0:0xa6831f8c179c4651
restaurant,Sate,Ikan Bakar Jaman Now Dada Tuna,"4788+9VF, Klaligi, Kecamatan Sorong Manoi, Kota Sorong, Papua Bar. 98412","Klaligi, Kecamatan Sorong Manoi, Kota Sorong",PAPUA BARAT,98412.0,Indonesia,,-0.8840528,131.2671606,https://maps.google.com/?cid=0x0:0x72768577f2a409fa
restaurant,Kedai Kopi,Do.pyocoffee,"Jl. Sungai Maruni masuk No.km 10, Klawuyuk, Distrik Sorong Timur, Kota Sorong, Papua Bar. 98416","Klawuyuk, Distrik Sorong Timur, Kota Sorong",PAPUA BARAT,98416.0,Indonesia,,-0.8880443,131.3199144,https://maps.google.com/?cid=0x0:0xe98eb1eac6ada00d
restaurant,Kedai Kopi,wabisabicoffee,"Kp. Baru, Distrik Sorong, Kota Sorong, Papua Bar. 98411","Distrik Sorong, Kota Sorong",PAPUA BARAT,98411.0,Indonesia,82137563208.0,-0.8704999,131.253128,https://maps.google.com/?cid=0x0:0xd4029d1b24ccb3b3
restaurant,restaurant,Sorong,"Kota Sorong, Papua Bar.","Kota Sorong, Papua Bar.",PAPUA BARAT,,Indonesia,,-0.8761629,131.255828,https://maps.google.com/?cid=0x0:0xe32b512ec6c6786
restaurant,Pizza,Pizzeria Terrazza di Sorong,"Behind SKKMIGAS, dibelakang SKKMIGAS, Jl. Arfak, Kp. Baru, Kota Sorong, Papua Bar. 98414","dibelakang SKKMIGAS, Jl. Arfak, Kp. Baru, Kota Sorong",PAPUA BARAT,98414.0,Indonesia,81356867669.0,-0.8737438,131.25222,https://maps.google.com/?cid=0x0:0xf46c05068677dc1
restaurant,Hidangan Laut,Marina Star Restaurant Seafood,"Kompleks, Jl. Bubara Jl. Pelabuhan Perikanan, Distrik Sorong, Kota Sorong, Papua Bar. 98414","Jl. Bubara Jl. Pelabuhan Perikanan, Distrik Sorong, Kota Sorong",PAPUA BARAT,98414.0,Indonesia,81240250548.0,-0.8790069,131.2552456,https://maps.google.com/?cid=0x0:0x6d780e763a272c1a
restaurant,Korea,Mansae Hore Korean Grill Sorong cabang KAMPUNG BARU,"Jl. Sam Ratulangi Ruko Alfa Mega No.2B, Kp. Baru, Distrik Sorong, Kota Sorong, Papua Bar. 98411","Kp. Baru, Distrik Sorong, Kota Sorong",PAPUA BARAT,98411.0,Indonesia,81212285585.0,-0.870754,131.2519071,https://maps.google.com/?cid=0x0:0x62f61b03c2c8bda6
restaurant,Kedai Kopi,Sorong Cafe,"Sawagumu, Kec. Sorong Utara, Kota Sorong, Papua Bar.","Kota Sorong, Papua Bar.",PAPUA BARAT,,Indonesia,81248201730.0,-0.8893784,131.3128926,https://maps.google.com/?cid=0x0:0x7962c1d0ce1b0528
restaurant,Korea,Mansae Hore Korean Grill Sorong cabang KILO,"Jl. Basuki Rahmat No.Km.9 5, Sawagumu, Kec. Sorong Utara, Kota Sorong, Papua Bar. 98410","Sawagumu, Kec. Sorong Utara, Kota Sorong",PAPUA BARAT,98410.0,Indonesia,81212888885.0,-0.8893567,131.3119808,https://maps.google.com/?cid=0x0:0x7421ada9c8690ba9
restaurant,Hidangan Laut,Gantari Seafood Sorong,"Kp. Baru, Distrik Sorong, Kota Sorong, Papua Bar. 98412","Distrik Sorong, Kota Sorong",PAPUA BARAT,98412.0,Indonesia,82196628056.0,-0.870222,131.2462221,https://maps.google.com/?cid=0x0:0xdcbda7833267511d
restaurant,Rumah Makan,Rumah Makan Mini (Miniresto.sorong),"Klademak, Distrik Sorong, Kota Sorong, Papua Bar. 98412","Distrik Sorong, Kota Sorong",PAPUA BARAT,98412.0,Indonesia,85354611115.0,-0.8820389,131.2740136,https://maps.google.com/?cid=0x0:0x1b2e4c712665ee5b
restaurant,Hidangan Laut,Balobe Sea Food,"Jl. Sam Ratulangi No.18, Kp. Baru, Distrik Sorong, Kota Sorong, Papua Bar. 98411","Kp. Baru, Distrik Sorong, Kota Sorong",PAPUA BARAT,98411.0,Indonesia,82399798211.0,-0.8728469,131.2491882,https://maps.google.com/?cid=0x0:0x420905d23403148f
restaurant,Restoran,Solaria - Mall Sorong,"Solaria Ramayana Sorong, Jl. Ahmad Yani Lt Dasar, Klademak, Distrik Sorong, Kota Sorong, Papua Bar. 98416","Jl. Ahmad Yani Lt Dasar, Klademak, Distrik Sorong, Kota Sorong",PAPUA BARAT,98416.0,Indonesia,82128983365.0,-0.8821795,131.2756931,https://maps.google.com/?cid=0x0:0xfd165571f47dcbd9
restaurant,Restoran,RICA PADI,"Klaligi, Kecamatan Sorong Manoi, Kota Sorong, Papua Bar.","Kota Sorong, Papua Bar.",PAPUA BARAT,,Indonesia,81316780332.0,-0.8808383,131.2663266,https://maps.google.com/?cid=0x0:0xf07f8de4782cdeab
restaurant,Hidangan Laut,Metamani Restaurant  Lounge,"47H2+C88, Jl. Dr. Sam Ratulangi, Kp. Baru, Distrik Sorong, Kota Sorong, Papua Bar. 98411","Jl. Dr. Sam Ratulangi, Kp. Baru, Distrik Sorong, Kota Sorong",PAPUA BARAT,98411.0,Indonesia,951325666.0,-0.8714551,131.2508224,https://maps.google.com/?cid=0x0:0x1071bea8f0cd42dd
restaurant,Hidangan Laut,SEAFOOD ARBONEX SORONG,"Jl. Yos. Sudarso, Kp. Baru, Distrik Sorong, Kota Sorong, Papua Bar. 98411","Kp. Baru, Distrik Sorong, Kota Sorong",PAPUA BARAT,98411.0,Indonesia,8114865227.0,-0.873987,131.2455833,https://maps.google.com/?cid=0x0:0x2369669c11cb749a
restaurant,Hidangan Laut,RM. NEW RATU SAYANG,"Lido, Jl. Yos. Sudarso No.31, Klasuur, Distrik Sorong, Kota Sorong, Papua Bar. 98413","Jl. Yos. Sudarso No.31, Klasuur, Distrik Sorong, Kota Sorong",PAPUA BARAT,98413.0,Indonesia,85244007744.0,-0.8652896,131.2461583,https://maps.google.com/?cid=0x0:0xb387f5135fa5f5d6
restaurant,restaurant,Papua Bar. 98416,Papua Bar.,Papua Bar.,PAPUA BARAT,,Indonesia,,-0.8883325,131.3510866,https://maps.google.com/?cid=0x0:0x7d4c82915eeb19ce
restaurant,Padang,KAPAU ANAK SULTAN,"487C+3HX, Jl. Sungai Maruni, Klawuyuk, Distrik Sorong Timur, Kota Sorong, Papua Bar. 98416","Jl. Sungai Maruni, Klawuyuk, Distrik Sorong Timur, Kota Sorong",PAPUA BARAT,98416.0,Indonesia,82239885368.0,-0.8871813,131.3215172,https://maps.google.com/?cid=0x0:0x6b8f8dd309bf7f2a
restaurant,Rumah Makan,RM.Joglo Gaya Baru,"Jl. Tuturuga, Klamasen, Distrik Mariat, Kabupaten Sorong, Papua Bar. 98416","Klamasen, Distrik Mariat, Kabupaten Sorong",PAPUA BARAT,98416.0,Indonesia,81243424949.0,-0.9841605,131.3521329,https://maps.google.com/?cid=0x0:0x7c27bbbd958822ef
restaurant,Batak,RM. Kabanjahe,"Klamana, Distrik Sorong Timur, Kota Sorong, Papua Bar. 98416","Distrik Sorong Timur, Kota Sorong",PAPUA BARAT,98416.0,Indonesia,81240608576.0,-0.9160999,131.3347088,https://maps.google.com/?cid=0x0:0x7c5d581e99d175e2
restaurant,Padang,RM Padang Jakarta,"Jl. Basuki Rahmat, RT.01/RW.05, Klawuyuk, Sorong Timur, Klawuyuk, Distrik Sorong Timur, Kota Sorong, Papua Bar. 98416","RT.01/RW.05, Klawuyuk, Sorong Timur, Klawuyuk, Distrik Sorong Timur, Kota Sorong",PAPUA BARAT,98416.0,Indonesia,81277244711.0,-0.8949423,131.3184884,https://maps.google.com/?cid=0x0:0x45e78beddf9ecb00
restaurant,Padang,RM. SALERO BAGINDO,"487C+GPW, Sawagumu, Kec. Sorong Utara, Kota Sorong, Papua Bar. 98416","Sawagumu, Kec. Sorong Utara, Kota Sorong",PAPUA BARAT,98416.0,Indonesia,951333696.0,-0.8861472,131.3218132,https://maps.google.com/?cid=0x0:0xea59f51ea26bc78a
restaurant,Rumah Makan,RM. SRITANJUNG,"Perumnas, Jl. Basuki Rahmat, Klawuyuk, Distrik Sorong Timur, Kota Sorong, Papua Bar. 98416","Jl. Basuki Rahmat, Klawuyuk, Distrik Sorong Timur, Kota Sorong",PAPUA BARAT,98416.0,Indonesia,81344078061.0,-0.8927622,131.3170047,https://maps.google.com/?cid=0x0:0x74dd72de76bbe62f
restaurant,Korea,NOKS KITCHEN,"489C+JW9, Matalamagi, Kec. Sorong Utara, Kota Sorong, Papua Bar. 98416","Matalamagi, Kec. Sorong Utara, Kota Sorong",PAPUA BARAT,98416.0,Indonesia,81292187200.0,-0.8810337,131.3220752,https://maps.google.com/?cid=0x0:0xe33398cb42bee1af
restaurant,Indonesia,Aghina Cafe and Restaurant,"478F+G45, Malabutor, Kecamatan Sorong Manoi, Kota Sorong, Papua Bar. 98412","Malabutor, Kecamatan Sorong Manoi, Kota Sorong",PAPUA BARAT,98412.0,Indonesia,81344840839.0,-0.8837374,131.2728509,https://maps.google.com/?cid=0x0:0x57d56fb0e9f3b322
restaurant,Korea,Mansae Hore Korean Grill Sorong cabang KILO,"Jl. Basuki Rahmat No.Km.9 5, Sawagumu, Kec. Sorong Utara, Kota Sorong, Papua Bar. 98410","Sawagumu, Kec. Sorong Utara, Kota Sorong",PAPUA BARAT,98410.0,Indonesia,81212888885.0,-0.8893567,131.3119808,https://maps.google.com/?cid=0x0:0x7421ada9c8690ba9
restaurant,Rumah Makan,WR Makan Sabar Subur - Sunda,"4848+PWM, Klawuyuk, Distrik Sorong Timur, Kota Sorong, Papua Bar. 98416","Klawuyuk, Distrik Sorong Timur, Kota Sorong",PAPUA BARAT,98416.0,Indonesia,,-0.8931592,131.3173002,https://maps.google.com/?cid=0x0:0x40b84a024350b40d
restaurant,restaurant,rm ikan bakar,"38XG+WWQ, Jl. A.M. Sangaji Gonof, Klawuyuk, Distrik Sorong Timur, Kota Sorong, Papua Bar. 98416","Jl. A.M. Sangaji Gonof, Klawuyuk, Distrik Sorong Timur, Kota Sorong",PAPUA BARAT,98416.0,Indonesia,,-0.9001605,131.3273445,https://maps.google.com/?cid=0x0:0x6e2e7a43bd902402
restaurant,Kedai Kopi,Sorong Cafe,"Sawagumu, Kec. Sorong Utara, Kota Sorong, Papua Bar.","Kota Sorong, Papua Bar.",PAPUA BARAT,,Indonesia,81248201730.0,-0.8893784,131.3128926,https://maps.google.com/?cid=0x0:0x7962c1d0ce1b0528
restaurant,Sulawesi Selatan,Coto Pak Daeng,"Jl. Basuki Rahmat No.Km.11.5, Klasaman, Distrik Sorong Timur, Kota Sorong, Papua Bar. 98416","Klasaman, Distrik Sorong Timur, Kota Sorong",PAPUA BARAT,98416.0,Indonesia,85299444081.0,-0.9005336,131.3219248,https://maps.google.com/?cid=0x0:0x70948c17dc6c5c49
restaurant,restaurant,Papua Bar. 98411,"Kota Sorong, Papua Bar.","Kota Sorong, Papua Bar.",PAPUA BARAT,,Indonesia,,-0.8165448,131.3310303,https://maps.google.com/?cid=0x0:0xa63c7f2b52beead0
restaurant,Korea,Mansae Hore Korean Grill Sorong cabang KAMPUNG BARU,"Jl. Sam Ratulangi Ruko Alfa Mega No.2B, Kp. Baru, Distrik Sorong, Kota Sorong, Papua Bar. 98411","Kp. Baru, Distrik Sorong, Kota Sorong",PAPUA BARAT,98411.0,Indonesia,81212285585.0,-0.870754,131.2519071,https://maps.google.com/?cid=0x0:0x62f61b03c2c8bda6
restaurant,Hidangan Laut,Layar Gading Cafe  Restaurant,"Klasuur, Distrik Sorong, Kota Sorong, Papua Bar. 98411","Distrik Sorong, Kota Sorong",PAPUA BARAT,98411.0,Indonesia,85255859001.0,-0.8651982,131.245803,https://maps.google.com/?cid=0x0:0x7da35e815b399cf4
restaurant,Hidangan Laut,Metamani Restaurant  Lounge,"47H2+C88, Jl. Dr. Sam Ratulangi, Kp. Baru, Distrik Sorong, Kota Sorong, Papua Bar. 98411","Jl. Dr. Sam Ratulangi, Kp. Baru, Distrik Sorong, Kota Sorong",PAPUA BARAT,98411.0,Indonesia,951325666.0,-0.8714551,131.2508224,https://maps.google.com/?cid=0x0:0x1071bea8f0cd42dd
restaurant,Hidangan Laut,Balobe Sea Food,"Jl. Sam Ratulangi No.18, Kp. Baru, Distrik Sorong, Kota Sorong, Papua Bar. 98411","Kp. Baru, Distrik Sorong, Kota Sorong",PAPUA BARAT,98411.0,Indonesia,82399798211.0,-0.8728469,131.2491882,https://maps.google.com/?cid=0x0:0x420905d23403148f
restaurant,Rumah Makan,RM. Tulung Agung,"46PX+PVW, Rufei, Distrik Sorong Barat, Kota Sorong, Papua Bar. 98411","Rufei, Distrik Sorong Barat, Kota Sorong",PAPUA BARAT,98411.0,Indonesia,,-0.8631445,131.2496884,https://maps.google.com/?cid=0x0:0xad82a27f51a3f8a4
restaurant,Rumah Makan,Rumah Makan Mini (Miniresto.sorong),"Klademak, Distrik Sorong, Kota Sorong, Papua Bar. 98412","Distrik Sorong, Kota Sorong",PAPUA BARAT,98412.0,Indonesia,85354611115.0,-0.8820389,131.2740136,https://maps.google.com/?cid=0x0:0x1b2e4c712665ee5b
restaurant,Hidangan Laut,Republik Seafood,"Sawagumu, Kec. Sorong Utara, Kota Sorong, Papua Bar. 98412","Kec. Sorong Utara, Kota Sorong",PAPUA BARAT,98412.0,Indonesia,81344615005.0,-0.8883945,131.3109228,https://maps.google.com/?cid=0x0:0xec5acb934a352d67
restaurant,Pizza,Pizzeria Terrazza di Sorong,"Behind SKKMIGAS, dibelakang SKKMIGAS, Jl. Arfak, Kp. Baru, Kota Sorong, Papua Bar. 98414","dibelakang SKKMIGAS, Jl. Arfak, Kp. Baru, Kota Sorong",PAPUA BARAT,98414.0,Indonesia,81356867669.0,-0.8737438,131.25222,https://maps.google.com/?cid=0x0:0xf46c05068677dc1
restaurant,Rumah Makan,Rm. Harum,"Klabala, Distrik Sorong Barat, Kota Sorong, Papua Bar. 98411","Distrik Sorong Barat, Kota Sorong",PAPUA BARAT,98411.0,Indonesia,82196627817.0,-0.8709424,131.2520511,https://maps.google.com/?cid=0x0:0xb81db54086438c03
restaurant,Hotel Resor,"Kasuari Valley Beach Resort, Kasuari Resto  Bar Sorong","56GG+W9P, Jl. Kapitan Patimura, Tanjung Kasuari, Sorong Barat, Sorong City, West Papua 98411","Jl. Kapitan Patimura, Tanjung Kasuari, Sorong Barat, Sorong City",PAPUA BARAT,98411.0,Indonesia,85363519999.0,-0.8226736,131.2259529,https://maps.google.com/?cid=0x0:0x76392c8a661b4280
restaurant,Restoran,Solaria - Mall Sorong,"Solaria Ramayana Sorong, Jl. Ahmad Yani Lt Dasar, Klademak, Distrik Sorong, Kota Sorong, Papua Bar. 98416","Jl. Ahmad Yani Lt Dasar, Klademak, Distrik Sorong, Kota Sorong",PAPUA BARAT,98416.0,Indonesia,82128983365.0,-0.8821795,131.2756931,https://maps.google.com/?cid=0x0:0xfd165571f47dcbd9
restaurant,Hidangan Laut,RM. NEW RATU SAYANG,"Lido, Jl. Yos. Sudarso No.31, Klasuur, Distrik Sorong, Kota Sorong, Papua Bar. 98413","Jl. Yos. Sudarso No.31, Klasuur, Distrik Sorong, Kota Sorong",PAPUA BARAT,98413.0,Indonesia,85244007744.0,-0.8652896,131.2461583,https://maps.google.com/?cid=0x0:0xb387f5135fa5f5d6
restaurant,restaurant,Papua Bar. 98412,"Kota Sorong, Papua Bar.","Kota Sorong, Papua Bar.",PAPUA BARAT,,Indonesia,,-0.8445683,131.3911778,https://maps.google.com/?cid=0x0:0x6e32dbda4609ff48
restaurant,Hidangan Laut,Republik Seafood,"Sawagumu, Kec. Sorong Utara, Kota Sorong, Papua Bar. 98412","Kec. Sorong Utara, Kota Sorong",PAPUA BARAT,98412.0,Indonesia,81344615005.0,-0.8883945,131.3109228,https://maps.google.com/?cid=0x0:0xec5acb934a352d67
restaurant,Indonesia,Aghina Cafe and Restaurant,"478F+G45, Malabutor, Kecamatan Sorong Manoi, Kota Sorong, Papua Bar. 98412","Malabutor, Kecamatan Sorong Manoi, Kota Sorong",PAPUA BARAT,98412.0,Indonesia,81344840839.0,-0.8837374,131.2728509,https://maps.google.com/?cid=0x0:0x57d56fb0e9f3b322
restaurant,Hidangan Laut,Marina Star Restaurant Seafood,"Kompleks, Jl. Bubara Jl. Pelabuhan Perikanan, Distrik Sorong, Kota Sorong, Papua Bar. 98414","Jl. Bubara Jl. Pelabuhan Perikanan, Distrik Sorong, Kota Sorong",PAPUA BARAT,98414.0,Indonesia,81240250548.0,-0.8790069,131.2552456,https://maps.google.com/?cid=0x0:0x6d780e763a272c1a
restaurant,Rumah Makan,Rumah Makan Mini (Miniresto.sorong),"Klademak, Distrik Sorong, Kota Sorong, Papua Bar. 98412","Distrik Sorong, Kota Sorong",PAPUA BARAT,98412.0,Indonesia,85354611115.0,-0.8820389,131.2740136,https://maps.google.com/?cid=0x0:0x1b2e4c712665ee5b
restaurant,Rumah Makan,Sop Saudara Sorong,"477M+2QX, Remu Sel., Kecamatan Sorong Manoi, Kota Sorong, Papua Bar. 98412","Remu Sel., Kecamatan Sorong Manoi, Kota Sorong",PAPUA BARAT,98412.0,Indonesia,,-0.887392,131.2844888,https://maps.google.com/?cid=0x0:0x48e36cc0276a45b1
restaurant,Ramen,Miyazaki Japanese Grill Sorong,"Jl. Mesjid Raya No.10, Remu Utara, Distrik Sorong, Kota Sorong, Papua Bar. 98412","Remu Utara, Distrik Sorong, Kota Sorong",PAPUA BARAT,98412.0,Indonesia,,-0.880963,131.2829096,https://maps.google.com/?cid=0x0:0x4ebd457f6483ffaf
restaurant,Pizza,Pizzeria Terrazza di Sorong,"Behind SKKMIGAS, dibelakang SKKMIGAS, Jl. Arfak, Kp. Baru, Kota Sorong, Papua Bar. 98414","dibelakang SKKMIGAS, Jl. Arfak, Kp. Baru, Kota Sorong",PAPUA BARAT,98414.0,Indonesia,81356867669.0,-0.8737438,131.25222,https://maps.google.com/?cid=0x0:0xf46c05068677dc1
restaurant,Rumah Makan,RM. GAYA BARU,"Jl. Maleo kampung Pisang No.13, Remu Utara, Distrik Sorong, Kota Sorong, Papua Bar. 98412","Remu Utara, Distrik Sorong, Kota Sorong",PAPUA BARAT,98412.0,Indonesia,82133224949.0,-0.8798664,131.2860653,https://maps.google.com/?cid=0x0:0x31f3720ac6549e6c
restaurant,Sulawesi Selatan,Rumah Makan Goyang Lidah 2 HBM Kota Sorong,"Jl. Mesjid Raya, Remu Utara, Distrik Sorong, Kota Sorong, Papua Bar. 98412","Remu Utara, Distrik Sorong, Kota Sorong",PAPUA BARAT,98412.0,Indonesia,8114871878.0,-0.8806609,131.2828623,https://maps.google.com/?cid=0x0:0xc360ea1f18263d44
restaurant,Rumah Makan,RM. DOA IBU,"477R+24X Bar, Malaingkedi, Kec. Sorong Utara, Kota Sorong, Papua Bar. 98412","Malaingkedi, Kec. Sorong Utara, Kota Sorong",PAPUA BARAT,98412.0,Indonesia,,-0.8873751,131.2903476,https://maps.google.com/?cid=0x0:0xd7441e7942bc4535
restaurant,Rumah Makan,RM. Rasa Dulu km. 9.5,"4865+WC9, Jl. Basuki Rahmat, Sawagumu, Kec. Sorong Utara, Kota Sorong, Papua Bar. 98412","Jl. Basuki Rahmat, Sawagumu, Kec. Sorong Utara, Kota Sorong",PAPUA BARAT,98412.0,Indonesia,81356293720.0,-0.8877146,131.3086133,https://maps.google.com/?cid=0x0:0xd372bc4e1516409c
restaurant,Sulawesi Selatan,Coto HBâeNG,"Remu Utara, Distrik Sorong, Kota Sorong, Papua Bar. 98412","Distrik Sorong, Kota Sorong",PAPUA BARAT,98412.0,Indonesia,,-0.8807345,131.2828633,https://maps.google.com/?cid=0x0:0x20aa763af6d9e0ef
restaurant,Korea,Mansae Hore Korean Grill Sorong cabang KAMPUNG BARU,"Jl. Sam Ratulangi Ruko Alfa Mega No.2B, Kp. Baru, Distrik Sorong, Kota Sorong, Papua Bar. 98411","Kp. Baru, Distrik Sorong, Kota Sorong",PAPUA BARAT,98411.0,Indonesia,81212285585.0,-0.870754,131.2519071,https://maps.google.com/?cid=0x0:0x62f61b03c2c8bda6
restaurant,restaurant,Papua Bar. 98413,"Klabala, Distrik Sorong Barat, Kota Sorong, Papua Bar.","Kota Sorong, Papua Bar.",PAPUA BARAT,,Indonesia,,-0.8669518,131.254029,https://maps.google.com/?cid=0x0:0x352e1f254d39ea2b
restaurant,Hidangan Laut,Marina Star Restaurant Seafood,"Kompleks, Jl. Bubara Jl. Pelabuhan Perikanan, Distrik Sorong, Kota Sorong, Papua Bar. 98414","Jl. Bubara Jl. Pelabuhan Perikanan, Distrik Sorong, Kota Sorong",PAPUA BARAT,98414.0,Indonesia,81240250548.0,-0.8790069,131.2552456,https://maps.google.com/?cid=0x0:0x6d780e763a272c1a
restaurant,Hidangan Laut,RM. NEW RATU SAYANG,"Lido, Jl. Yos. Sudarso No.31, Klasuur, Distrik Sorong, Kota Sorong, Papua Bar. 98413","Jl. Yos. Sudarso No.31, Klasuur, Distrik Sorong, Kota Sorong",PAPUA BARAT,98413.0,Indonesia,85244007744.0,-0.8652896,131.2461583,https://maps.google.com/?cid=0x0:0xb387f5135fa5f5d6
restaurant,Rumah Makan,Rumah Makan Mini (Miniresto.sorong),"Klademak, Distrik Sorong, Kota Sorong, Papua Bar. 98412","Distrik Sorong, Kota Sorong",PAPUA BARAT,98412.0,Indonesia,85354611115.0,-0.8820389,131.2740136,https://maps.google.com/?cid=0x0:0x1b2e4c712665ee5b
restaurant,Korea,Mansae Hore Korean Grill Sorong cabang KILO,"Jl. Basuki Rahmat No.Km.9 5, Sawagumu, Kec. Sorong Utara, Kota Sorong, Papua Bar. 98410","Sawagumu, Kec. Sorong Utara, Kota Sorong",PAPUA BARAT,98410.0,Indonesia,81212888885.0,-0.8893567,131.3119808,https://maps.google.com/?cid=0x0:0x7421ada9c8690ba9
restaurant,Kedai Kopi,Sorong Cafe,"Sawagumu, Kec. Sorong Utara, Kota Sorong, Papua Bar.","Kota Sorong, Papua Bar.",PAPUA BARAT,,Indonesia,81248201730.0,-0.8893784,131.3128926,https://maps.google.com/?cid=0x0:0x7962c1d0ce1b0528
restaurant,Rumah Makan,Sop Saudara Sorong,"477M+2QX, Remu Sel., Kecamatan Sorong Manoi, Kota Sorong, Papua Bar. 98412","Remu Sel., Kecamatan Sorong Manoi, Kota Sorong",PAPUA BARAT,98412.0,Indonesia,,-0.887392,131.2844888,https://maps.google.com/?cid=0x0:0x48e36cc0276a45b1
restaurant,Kafe,Infinity Social House,"46MW+H87, Lido, Distrik Sorong, Kota Sorong, Papua Bar. 98411","Lido, Distrik Sorong, Kota Sorong",PAPUA BARAT,98411.0,Indonesia,82360700899.0,-0.86582,131.2452795,https://maps.google.com/?cid=0x0:0xde8c57d5950c604a
restaurant,Pujasera,Hangout Avenue Sorong,"Jl Sungai Maruni KM 10, Masuk No.23, Kota Sorong, Papua Bar. 98416","Masuk No.23, Kota Sorong",PAPUA BARAT,98416.0,Indonesia,82197698090.0,-0.8868107,131.3216004,https://maps.google.com/?cid=0x0:0x29c3ed1d6d1ac389
restaurant,Sulawesi Selatan,Rumah Makan Goyang Lidah 2 HBM Kota Sorong,"Jl. Mesjid Raya, Remu Utara, Distrik Sorong, Kota Sorong, Papua Bar. 98412","Remu Utara, Distrik Sorong, Kota Sorong",PAPUA BARAT,98412.0,Indonesia,8114871878.0,-0.8806609,131.2828623,https://maps.google.com/?cid=0x0:0xc360ea1f18263d44
restaurant,Sate,Ikan Bakar Jaman Now Dada Tuna,"4788+9VF, Klaligi, Kecamatan Sorong Manoi, Kota Sorong, Papua Bar. 98412","Klaligi, Kecamatan Sorong Manoi, Kota Sorong",PAPUA BARAT,98412.0,Indonesia,,-0.8840528,131.2671606,https://maps.google.com/?cid=0x0:0x72768577f2a409fa
restaurant,China,RM. Kalimantan,"Depan batalion samping toko central, Klabala, Distrik Sorong Barat, Kota Sorong, Papua Bar. 98413","Klabala, Distrik Sorong Barat, Kota Sorong",PAPUA BARAT,98413.0,Indonesia,81247781880.0,-0.8669301,131.2540129,https://maps.google.com/?cid=0x0:0xa7deaa3054fc7a6c
restaurant,Rumah Makan,RM. SRITANJUNG,"Perumnas, Jl. Basuki Rahmat, Klawuyuk, Distrik Sorong Timur, Kota Sorong, Papua Bar. 98416","Jl. Basuki Rahmat, Klawuyuk, Distrik Sorong Timur, Kota Sorong",PAPUA BARAT,98416.0,Indonesia,81344078061.0,-0.8927622,131.3170047,https://maps.google.com/?cid=0x0:0x74dd72de76bbe62f
restaurant,restaurant,Papua Bar. 98414,Papua Bar.,Papua Bar.,PAPUA BARAT,,Indonesia,,-0.923988,131.3811577,https://maps.google.com/?cid=0x0:0xa17d4a17a04184b
restaurant,Pizza,Pizzeria Terrazza di Sorong,"Behind SKKMIGAS, dibelakang SKKMIGAS, Jl. Arfak, Kp. Baru, Kota Sorong, Papua Bar. 98414","dibelakang SKKMIGAS, Jl. Arfak, Kp. Baru, Kota Sorong",PAPUA BARAT,98414.0,Indonesia,81356867669.0,-0.8737438,131.25222,https://maps.google.com/?cid=0x0:0xf46c05068677dc1
restaurant,Es Krim,Kimâs Dessert,"Loupatty Family, Jl. H Watem, Kota Sorong, Papua Bar. 98417","Jl. H Watem, Kota Sorong",PAPUA BARAT,98417.0,Indonesia,85173459851.0,-0.9436735,131.3331999,https://maps.google.com/?cid=0x0:0x14e8074c20230ad3
restaurant,Bar,AS Karaoke  Restaurant,"Jl. Jend Basuki Rachmad, KM. 12, 5, Klakublik, Sorong, Klawalu, Distrik Sorong Timur, Kota Sorong, Papua Bar. 98412","KM. 12, 5, Klakublik, Sorong, Klawalu, Distrik Sorong Timur, Kota Sorong",PAPUA BARAT,98412.0,Indonesia,951335700.0,-0.9037576,131.3235032,https://maps.google.com/?cid=0x0:0x1bffb18224c5fe98
restaurant,Hidangan Laut,Republik Seafood,"Sawagumu, Kec. Sorong Utara, Kota Sorong, Papua Bar. 98412","Kec. Sorong Utara, Kota Sorong",PAPUA BARAT,98412.0,Indonesia,81344615005.0,-0.8883945,131.3109228,https://maps.google.com/?cid=0x0:0xec5acb934a352d67
restaurant,Korea,Mansae Hore Korean Grill Sorong cabang KILO,"Jl. Basuki Rahmat No.Km.9 5, Sawagumu, Kec. Sorong Utara, Kota Sorong, Papua Bar. 98410","Sawagumu, Kec. Sorong Utara, Kota Sorong",PAPUA BARAT,98410.0,Indonesia,81212888885.0,-0.8893567,131.3119808,https://maps.google.com/?cid=0x0:0x7421ada9c8690ba9
restaurant,Kedai Kopi,Sorong Cafe,"Sawagumu, Kec. Sorong Utara, Kota Sorong, Papua Bar.","Kota Sorong, Papua Bar.",PAPUA BARAT,,Indonesia,81248201730.0,-0.8893784,131.3128926,https://maps.google.com/?cid=0x0:0x7962c1d0ce1b0528
restaurant,Batak,RM. Kabanjahe,"Klamana, Distrik Sorong Timur, Kota Sorong, Papua Bar. 98416","Distrik Sorong Timur, Kota Sorong",PAPUA BARAT,98416.0,Indonesia,81240608576.0,-0.9160999,131.3347088,https://maps.google.com/?cid=0x0:0x7c5d581e99d175e2
restaurant,Korea,Mansae Hore Korean Grill Sorong cabang KAMPUNG BARU,"Jl. Sam Ratulangi Ruko Alfa Mega No.2B, Kp. Baru, Distrik Sorong, Kota Sorong, Papua Bar. 98411","Kp. Baru, Distrik Sorong, Kota Sorong",PAPUA BARAT,98411.0,Indonesia,81212285585.0,-0.870754,131.2519071,https://maps.google.com/?cid=0x0:0x62f61b03c2c8bda6
restaurant,Mi,BAKSO MALANG PAKDE BEJO (Outlet KPR MOYO),"Jl. KPR MOYO PERMAI, Klamana, Distrik Sorong Timur, Kota Sorong, Papua Bar. 98414","Klamana, Distrik Sorong Timur, Kota Sorong",PAPUA BARAT,98414.0,Indonesia,85344544589.0,-0.9100324,131.3240891,https://maps.google.com/?cid=0x0:0xe50da56d932fd849
restaurant,Rumah Makan,RM King Seafood,"28VJ+3HG, Jl. Nangka, Malawili, Kec. Aimas, Kabupaten Sorong, Papua Bar. 98414","Jl. Nangka, Malawili, Kec. Aimas, Kabupaten Sorong",PAPUA BARAT,98414.0,Indonesia,82329283559.0,-0.957325,131.3314502,https://maps.google.com/?cid=0x0:0xa9a2d26e1e37b75
restaurant,Hidangan Laut,seafood Break,"38XG+G65, Jl. A.M. Sangaji Gonof, Klasaman, Distrik Sorong Timur, Kota Sorong, Papua Bar. 98416","Jl. A.M. Sangaji Gonof, Klasaman, Distrik Sorong Timur, Kota Sorong",PAPUA BARAT,98416.0,Indonesia,85340065544.0,-0.9012407,131.3256016,https://maps.google.com/?cid=0x0:0x9b35f4291894bf8
restaurant,Steak,STEAK HOUSE,"482H+FW3, Jl. A.M. Sangaji Gonof, Klasaman, Distrik Sorong Timur, Kota Sorong, Papua Bar. 98416","Jl. A.M. Sangaji Gonof, Klasaman, Distrik Sorong Timur, Kota Sorong",PAPUA BARAT,98416.0,Indonesia,82238289666.0,-0.8988528,131.3298104,https://maps.google.com/?cid=0x0:0xe3d8e4639e4430cb
restaurant,Pujasera,Hangout Avenue Sorong,"Jl Sungai Maruni KM 10, Masuk No.23, Kota Sorong, Papua Bar. 98416","Masuk No.23, Kota Sorong",PAPUA BARAT,98416.0,Indonesia,82197698090.0,-0.8868107,131.3216004,https://maps.google.com/?cid=0x0:0x29c3ed1d6d1ac389
restaurant,restaurant,Papua Bar. 98415,"Distrik Mariat, Kabupaten Sorong, Papua Bar.","Kabupaten Sorong, Papua Bar.",PAPUA BARAT,,Indonesia,,-1.0184261,131.3510866,https://maps.google.com/?cid=0x0:0x4d8344d873702960
restaurant,Hidangan Laut,Marina Star Restaurant Seafood,"Kompleks, Jl. Bubara Jl. Pelabuhan Perikanan, Distrik Sorong, Kota Sorong, Papua Bar. 98414","Jl. Bubara Jl. Pelabuhan Perikanan, Distrik Sorong, Kota Sorong",PAPUA BARAT,98414.0,Indonesia,81240250548.0,-0.8790069,131.2552456,https://maps.google.com/?cid=0x0:0x6d780e763a272c1a
restaurant,Rumah Makan,RM Lesehan K'WADUK bendungan,"Jl cianjur sp1, bendungan, Klamalu, Distrik Mariat, Kabupaten Sorong, Papua Bar.","Kabupaten Sorong, Papua Bar.",PAPUA BARAT,,Indonesia,81248220999.0,-1.0021343,131.3563553,https://maps.google.com/?cid=0x0:0x8fe3c1fbf461145a
restaurant,Korea,Mansae Hore Korean Grill Sorong cabang KAMPUNG BARU,"Jl. Sam Ratulangi Ruko Alfa Mega No.2B, Kp. Baru, Distrik Sorong, Kota Sorong, Papua Bar. 98411","Kp. Baru, Distrik Sorong, Kota Sorong",PAPUA BARAT,98411.0,Indonesia,81212285585.0,-0.870754,131.2519071,https://maps.google.com/?cid=0x0:0x62f61b03c2c8bda6
restaurant,Rumah Makan,RM. Selera Rasa,"2972+R95, Jl. Tuturuga, Klamasen, Distrik Mariat, Kabupaten Sorong, Papua Bar. 98416","Jl. Tuturuga, Klamasen, Distrik Mariat, Kabupaten Sorong",PAPUA BARAT,98416.0,Indonesia,85244594260.0,-0.9854905,131.3509826,https://maps.google.com/?cid=0x0:0x26448cb304f13163
restaurant,Pizza,Pizzeria Terrazza di Sorong,"Behind SKKMIGAS, dibelakang SKKMIGAS, Jl. Arfak, Kp. Baru, Kota Sorong, Papua Bar. 98414","dibelakang SKKMIGAS, Jl. Arfak, Kp. Baru, Kota Sorong",PAPUA BARAT,98414.0,Indonesia,81356867669.0,-0.8737438,131.25222,https://maps.google.com/?cid=0x0:0xf46c05068677dc1
restaurant,Korea,Mansae Hore Korean Grill Sorong cabang KILO,"Jl. Basuki Rahmat No.Km.9 5, Sawagumu, Kec. Sorong Utara, Kota Sorong, Papua Bar. 98410","Sawagumu, Kec. Sorong Utara, Kota Sorong",PAPUA BARAT,98410.0,Indonesia,81212888885.0,-0.8893567,131.3119808,https://maps.google.com/?cid=0x0:0x7421ada9c8690ba9
restaurant,Padang,Maros Indah,"X9X4+CW3, Klamasen, Distrik Mariat, Kabupaten Sorong, Papua Bar. 98416","Klamasen, Distrik Mariat, Kabupaten Sorong",PAPUA BARAT,98416.0,Indonesia,,-1.0014954,131.3572885,https://maps.google.com/?cid=0x0:0x20fa02e26375ae74
restaurant,Rumah Makan,Rumah Makan Goyang Lidah tugu merah,"Klamasen, Distrik Mariat, Kabupaten Sorong, Papua Bar. 98416","Distrik Mariat, Kabupaten Sorong",PAPUA BARAT,98416.0,Indonesia,8114871878.0,-0.9848379,131.3522464,https://maps.google.com/?cid=0x0:0xa0c319c3dfb7c362
restaurant,Rumah Makan,RM.Joglo Gaya Baru,"Jl. Tuturuga, Klamasen, Distrik Mariat, Kabupaten Sorong, Papua Bar. 98416","Klamasen, Distrik Mariat, Kabupaten Sorong",PAPUA BARAT,98416.0,Indonesia,81243424949.0,-0.9841605,131.3521329,https://maps.google.com/?cid=0x0:0x7c27bbbd958822ef
restaurant,Kafe,Rumah Makan Kejora,"X8H9+9G3, Jl. Flamboyan, Mariyai, Distrik Mariat, Kabupaten Sorong, Papua Bar. 98415","Jl. Flamboyan, Mariyai, Distrik Mariat, Kabupaten Sorong",PAPUA BARAT,98415.0,Indonesia,8114862771.0,-1.0216087,131.3188006,https://maps.google.com/?cid=0x0:0x6a01cd8340c09b70
restaurant,Dapur Umum,RM. Putra Lamongan,"X8RH+W2, Klamalu, Distrik Mariat, Kabupaten Sorong, Papua Bar.","Kabupaten Sorong, Papua Bar.",PAPUA BARAT,,Indonesia,,-1.007637,131.327518,https://maps.google.com/?cid=0x0:0x279ef1bd2956b751
restaurant,Rumah Makan,Dapur Kembar,"X8R9+VJH, Klasuluk, Distrik Mariat, Kabupaten Sorong, Papua Bar. 98415","Klasuluk, Distrik Mariat, Kabupaten Sorong",PAPUA BARAT,98415.0,Indonesia,81248485089.0,-1.0078231,131.3191154,https://maps.google.com/?cid=0x0:0x7bd3ceed55f49659
restaurant,Rumah Makan,RM. ABIMANYU Bendungan ( Pak Budi ),"X9X4+6PQ, Klamalu, Distrik Mariat, Kabupaten Sorong, Papua Bar. 98416","Klamalu, Distrik Mariat, Kabupaten Sorong",PAPUA BARAT,98416.0,Indonesia,81344060299.0,-1.0019032,131.3568614,https://maps.google.com/?cid=0x0:0xed7d4a2fbd43fd90
restaurant,restaurant,Papua Bar. 98417,"Kabupaten Sorong, Papua Bar.","Kabupaten Sorong, Papua Bar.",PAPUA BARAT,,Indonesia,,-1.0174852,131.4112125,https://maps.google.com/?cid=0x0:0xc20f17b25d0eed85
restaurant,Hidangan Laut,Republik Seafood,"Sawagumu, Kec. Sorong Utara, Kota Sorong, Papua Bar. 98412","Kec. Sorong Utara, Kota Sorong",PAPUA BARAT,98412.0,Indonesia,81344615005.0,-0.8883945,131.3109228,https://maps.google.com/?cid=0x0:0xec5acb934a352d67
restaurant,Hidangan Laut,Marina Star Restaurant Seafood,"Kompleks, Jl. Bubara Jl. Pelabuhan Perikanan, Distrik Sorong, Kota Sorong, Papua Bar. 98414","Jl. Bubara Jl. Pelabuhan Perikanan, Distrik Sorong, Kota Sorong",PAPUA BARAT,98414.0,Indonesia,81240250548.0,-0.8790069,131.2552456,https://maps.google.com/?cid=0x0:0x6d780e763a272c1a
restaurant,Pizza,Pizzeria Terrazza di Sorong,"Behind SKKMIGAS, dibelakang SKKMIGAS, Jl. Arfak, Kp. Baru, Kota Sorong, Papua Bar. 98414","dibelakang SKKMIGAS, Jl. Arfak, Kp. Baru, Kota Sorong",PAPUA BARAT,98414.0,Indonesia,81356867669.0,-0.8737438,131.25222,https://maps.google.com/?cid=0x0:0xf46c05068677dc1
restaurant,Korea,Mansae Hore Korean Grill Sorong cabang KILO,"Jl. Basuki Rahmat No.Km.9 5, Sawagumu, Kec. Sorong Utara, Kota Sorong, Papua Bar. 98410","Sawagumu, Kec. Sorong Utara, Kota Sorong",PAPUA BARAT,98410.0,Indonesia,81212888885.0,-0.8893567,131.3119808,https://maps.google.com/?cid=0x0:0x7421ada9c8690ba9
restaurant,Kedai Kopi,Sorong Cafe,"Sawagumu, Kec. Sorong Utara, Kota Sorong, Papua Bar.","Kota Sorong, Papua Bar.",PAPUA BARAT,,Indonesia,81248201730.0,-0.8893784,131.3128926,https://maps.google.com/?cid=0x0:0x7962c1d0ce1b0528
restaurant,Pujasera,Hangout Avenue Sorong,"Jl Sungai Maruni KM 10, Masuk No.23, Kota Sorong, Papua Bar. 98416","Masuk No.23, Kota Sorong",PAPUA BARAT,98416.0,Indonesia,82197698090.0,-0.8868107,131.3216004,https://maps.google.com/?cid=0x0:0x29c3ed1d6d1ac389
restaurant,Rumah Makan,RM. SRITANJUNG,"Perumnas, Jl. Basuki Rahmat, Klawuyuk, Distrik Sorong Timur, Kota Sorong, Papua Bar. 98416","Jl. Basuki Rahmat, Klawuyuk, Distrik Sorong Timur, Kota Sorong",PAPUA BARAT,98416.0,Indonesia,81344078061.0,-0.8927622,131.3170047,https://maps.google.com/?cid=0x0:0x74dd72de76bbe62f
restaurant,Rumah Makan,Rumah Makan Mini (Miniresto.sorong),"Klademak, Distrik Sorong, Kota Sorong, Papua Bar. 98412","Distrik Sorong, Kota Sorong",PAPUA BARAT,98412.0,Indonesia,85354611115.0,-0.8820389,131.2740136,https://maps.google.com/?cid=0x0:0x1b2e4c712665ee5b
restaurant,Hidangan Laut,RM. NEW RATU SAYANG,"Lido, Jl. Yos. Sudarso No.31, Klasuur, Distrik Sorong, Kota Sorong, Papua Bar. 98413","Jl. Yos. Sudarso No.31, Klasuur, Distrik Sorong, Kota Sorong",PAPUA BARAT,98413.0,Indonesia,85244007744.0,-0.8652896,131.2461583,https://maps.google.com/?cid=0x0:0xb387f5135fa5f5d6
restaurant,Steak,Kilo Chicken Steak  Burger,"Hangout, Jl. Sungai Maruni No.KM. 10, Klawuyuk, Sorong Timur, Sorong City, West Papua 98416","Jl. Sungai Maruni No.KM. 10, Klawuyuk, Sorong Timur, Sorong City",PAPUA BARAT,98416.0,Indonesia,,-0.8871871,131.3215211,https://maps.google.com/?cid=0x0:0x2573e4c131e0dc4d
restaurant,Restoran,WARUNG POLUR HANA,"XCR2+6PR, Klaben, Distrik Mariat, Kabupaten Sorong, Papua Bar.","Kabupaten Sorong, Papua Bar.",PAPUA BARAT,,Indonesia,81248546193.0,-1.0093945,131.401765,https://maps.google.com/?cid=0x0:0xf7585c4b81dda619
restaurant,Kafe,Infinity Social House,"46MW+H87, Lido, Distrik Sorong, Kota Sorong, Papua Bar. 98411","Lido, Distrik Sorong, Kota Sorong",PAPUA BARAT,98411.0,Indonesia,82360700899.0,-0.86582,131.2452795,https://maps.google.com/?cid=0x0:0xde8c57d5950c604a
restaurant,restaurant,VEGA PRIME Hotel  Convention,"Jl. Frans Kaisiepo, Malaingkedi, Kec. Sorong Utara, Kota Sorong, Papua Bar. 98412","Malaingkedi, Kec. Sorong Utara, Kota Sorong",PAPUA BARAT,98412.0,Indonesia,81148501658.0,-0.8863935,131.2926608,https://maps.google.com/?cid=0x0:0x9490ccc0d9334885
restaurant,restaurant,Papua Bar. 98418,"Klasabi, Kecamatan Sorong Manoi, Kota Sorong, Papua Bar.","Kota Sorong, Papua Bar.",PAPUA BARAT,,Indonesia,,-0.9009162,131.3028579,https://maps.google.com/?cid=0x0:0x586b4aa754f22adb
restaurant,Hidangan Laut,MAMBERAMO (LIVE) SEAFOOD,"Jl. Ahmad Yani No.7, Remu Utara, Distrik Sorong, Kota Sorong, Papua Bar. 98412","Remu Utara, Distrik Sorong, Kota Sorong",PAPUA BARAT,98412.0,Indonesia,82128836899.0,-0.8831759,131.279474,https://maps.google.com/?cid=0x0:0xf699baff63a451c
restaurant,Hidangan Laut,Marina Star Restaurant Seafood,"Kompleks, Jl. Bubara Jl. Pelabuhan Perikanan, Distrik Sorong, Kota Sorong, Papua Bar. 98414","Jl. Bubara Jl. Pelabuhan Perikanan, Distrik Sorong, Kota Sorong",PAPUA BARAT,98414.0,Indonesia,81240250548.0,-0.8790069,131.2552456,https://maps.google.com/?cid=0x0:0x6d780e763a272c1a
restaurant,Korea,Mansae Hore Korean Grill Sorong cabang KAMPUNG BARU,"Jl. Sam Ratulangi Ruko Alfa Mega No.2B, Kp. Baru, Distrik Sorong, Kota Sorong, Papua Bar. 98411","Kp. Baru, Distrik Sorong, Kota Sorong",PAPUA BARAT,98411.0,Indonesia,81212285585.0,-0.870754,131.2519071,https://maps.google.com/?cid=0x0:0x62f61b03c2c8bda6
restaurant,Pizza,Pizzeria Terrazza di Sorong,"Behind SKKMIGAS, dibelakang SKKMIGAS, Jl. Arfak, Kp. Baru, Kota Sorong, Papua Bar. 98414","dibelakang SKKMIGAS, Jl. Arfak, Kp. Baru, Kota Sorong",PAPUA BARAT,98414.0,Indonesia,81356867669.0,-0.8737438,131.25222,https://maps.google.com/?cid=0x0:0xf46c05068677dc1
restaurant,Kedai Kopi,Sorong Cafe,"Sawagumu, Kec. Sorong Utara, Kota Sorong, Papua Bar.","Kota Sorong, Papua Bar.",PAPUA BARAT,,Indonesia,81248201730.0,-0.8893784,131.3128926,https://maps.google.com/?cid=0x0:0x7962c1d0ce1b0528
restaurant,Pujasera,Hangout Avenue Sorong,"Jl Sungai Maruni KM 10, Masuk No.23, Kota Sorong, Papua Bar. 98416","Masuk No.23, Kota Sorong",PAPUA BARAT,98416.0,Indonesia,82197698090.0,-0.8868107,131.3216004,https://maps.google.com/?cid=0x0:0x29c3ed1d6d1ac389
restaurant,Rumah Makan,Rumah Makan Mini (Miniresto.sorong),"Klademak, Distrik Sorong, Kota Sorong, Papua Bar. 98412","Distrik Sorong, Kota Sorong",PAPUA BARAT,98412.0,Indonesia,85354611115.0,-0.8820389,131.2740136,https://maps.google.com/?cid=0x0:0x1b2e4c712665ee5b
restaurant,Hidangan Laut,RM. NEW RATU SAYANG,"Lido, Jl. Yos. Sudarso No.31, Klasuur, Distrik Sorong, Kota Sorong, Papua Bar. 98413","Jl. Yos. Sudarso No.31, Klasuur, Distrik Sorong, Kota Sorong",PAPUA BARAT,98413.0,Indonesia,85244007744.0,-0.8652896,131.2461583,https://maps.google.com/?cid=0x0:0xb387f5135fa5f5d6
restaurant,China,Tripel C,"4849+497, Klawuyuk, Distrik Sorong Timur, Kota Sorong, Papua Bar. 98416","Klawuyuk, Distrik Sorong Timur, Kota Sorong",PAPUA BARAT,98416.0,Indonesia,81211411455.0,-0.8947224,131.318408,https://maps.google.com/?cid=0x0:0x7677a268e78804b7
restaurant,Kafe,Infinity Social House,"46MW+H87, Lido, Distrik Sorong, Kota Sorong, Papua Bar. 98411","Lido, Distrik Sorong, Kota Sorong",PAPUA BARAT,98411.0,Indonesia,82360700899.0,-0.86582,131.2452795,https://maps.google.com/?cid=0x0:0xde8c57d5950c604a
restaurant,Kedai Kopi,wabisabicoffee,"Kp. Baru, Distrik Sorong, Kota Sorong, Papua Bar. 98411","Distrik Sorong, Kota Sorong",PAPUA BARAT,98411.0,Indonesia,82137563208.0,-0.8704999,131.253128,https://maps.google.com/?cid=0x0:0xd4029d1b24ccb3b3
restaurant,Kedai Kopi,Rumah Keluarga Rumadas,"38X3+G33, Jl. Kanal Victory, Klasabi, Kecamatan Sorong Manoi, Kota Sorong, Papua Bar.","Kota Sorong, Papua Bar.",PAPUA BARAT,,Indonesia,,-0.9012387,131.3026785,https://maps.google.com/?cid=0x0:0xc333043d73d6321f
restaurant,restaurant,VEGA PRIME Hotel  Convention,"Jl. Frans Kaisiepo, Malaingkedi, Kec. Sorong Utara, Kota Sorong, Papua Bar. 98412","Malaingkedi, Kec. Sorong Utara, Kota Sorong",PAPUA BARAT,98412.0,Indonesia,81148501658.0,-0.8863935,131.2926608,https://maps.google.com/?cid=0x0:0x9490ccc0d9334885
restaurant,restaurant,Papua Bar. 98419,"Kabupaten Sorong, Papua Bar.","Kabupaten Sorong, Papua Bar.",PAPUA BARAT,,Indonesia,,-0.9516965,131.4612677,https://maps.google.com/?cid=0x0:0x1846ff160c020f5b
restaurant,Korea,Mansae Hore Korean Grill Sorong cabang KAMPUNG BARU,"Jl. Sam Ratulangi Ruko Alfa Mega No.2B, Kp. Baru, Distrik Sorong, Kota Sorong, Papua Bar. 98411","Kp. Baru, Distrik Sorong, Kota Sorong",PAPUA BARAT,98411.0,Indonesia,81212285585.0,-0.870754,131.2519071,https://maps.google.com/?cid=0x0:0x62f61b03c2c8bda6
restaurant,Pizza,Pizzeria Terrazza di Sorong,"Behind SKKMIGAS, dibelakang SKKMIGAS, Jl. Arfak, Kp. Baru, Kota Sorong, Papua Bar. 98414","dibelakang SKKMIGAS, Jl. Arfak, Kp. Baru, Kota Sorong",PAPUA BARAT,98414.0,Indonesia,81356867669.0,-0.8737438,131.25222,https://maps.google.com/?cid=0x0:0xf46c05068677dc1
restaurant,Korea,Mansae Hore Korean Grill Sorong cabang KILO,"Jl. Basuki Rahmat No.Km.9 5, Sawagumu, Kec. Sorong Utara, Kota Sorong, Papua Bar. 98410","Sawagumu, Kec. Sorong Utara, Kota Sorong",PAPUA BARAT,98410.0,Indonesia,81212888885.0,-0.8893567,131.3119808,https://maps.google.com/?cid=0x0:0x7421ada9c8690ba9
restaurant,Pujasera,Hangout Avenue Sorong,"Jl Sungai Maruni KM 10, Masuk No.23, Kota Sorong, Papua Bar. 98416","Masuk No.23, Kota Sorong",PAPUA BARAT,98416.0,Indonesia,82197698090.0,-0.8868107,131.3216004,https://maps.google.com/?cid=0x0:0x29c3ed1d6d1ac389
restaurant,Kedai Kopi,Sorong Cafe,"Sawagumu, Kec. Sorong Utara, Kota Sorong, Papua Bar.","Kota Sorong, Papua Bar.",PAPUA BARAT,,Indonesia,81248201730.0,-0.8893784,131.3128926,https://maps.google.com/?cid=0x0:0x7962c1d0ce1b0528
restaurant,Rumah Makan,Rumah Makan Mini (Miniresto.sorong),"Klademak, Distrik Sorong, Kota Sorong, Papua Bar. 98412","Distrik Sorong, Kota Sorong",PAPUA BARAT,98412.0,Indonesia,85354611115.0,-0.8820389,131.2740136,https://maps.google.com/?cid=0x0:0x1b2e4c712665ee5b
restaurant,Hidangan Laut,RM. NEW RATU SAYANG,"Lido, Jl. Yos. Sudarso No.31, Klasuur, Distrik Sorong, Kota Sorong, Papua Bar. 98413","Jl. Yos. Sudarso No.31, Klasuur, Distrik Sorong, Kota Sorong",PAPUA BARAT,98413.0,Indonesia,85244007744.0,-0.8652896,131.2461583,https://maps.google.com/?cid=0x0:0xb387f5135fa5f5d6
restaurant,Restoran,WARUNG POLUR HANA,"XCR2+6PR, Klaben, Distrik Mariat, Kabupaten Sorong, Papua Bar.","Kabupaten Sorong, Papua Bar.",PAPUA BARAT,,Indonesia,81248546193.0,-1.0093945,131.401765,https://maps.google.com/?cid=0x0:0xf7585c4b81dda619
restaurant,Kafe,Infinity Social House,"46MW+H87, Lido, Distrik Sorong, Kota Sorong, Papua Bar. 98411","Lido, Distrik Sorong, Kota Sorong",PAPUA BARAT,98411.0,Indonesia,82360700899.0,-0.86582,131.2452795,https://maps.google.com/?cid=0x0:0xde8c57d5950c604a
restaurant,Indonesia,Rm.Cemara,"Rm. Cemara, Aimas, Kec. Aimas, Kabupaten Sorong, Papua Bar. 98414","Aimas, Kec. Aimas, Kabupaten Sorong",PAPUA BARAT,98414.0,Indonesia,,-0.9822603,131.3626195,https://maps.google.com/?cid=0x0:0xada0d791706f4229
restaurant,Kedai Kopi,Sembari Coffee,"Jl. KPR Moyo Permai, Klayili, Distrik Klayili, Kabupaten Sorong, Papua Bar. 98419","Klayili, Distrik Klayili, Kabupaten Sorong",PAPUA BARAT,98419.0,Indonesia,,-0.9516965,131.4612677,https://maps.google.com/?cid=0x0:0x4221ef5be1c4a7eb
restaurant,restaurant,VEGA PRIME Hotel  Convention,"Jl. Frans Kaisiepo, Malaingkedi, Kec. Sorong Utara, Kota Sorong, Papua Bar. 98412","Malaingkedi, Kec. Sorong Utara, Kota Sorong",PAPUA BARAT,98412.0,Indonesia,81148501658.0,-0.8863935,131.2926608,https://maps.google.com/?cid=0x0:0x9490ccc0d9334885
restaurant,restaurant,Pulau Doom,,,PAPUA BARAT,,Indonesia,,-0.8833333,131.2333333,https://maps.google.com/?cid=0x0:0x1db3a7ef2f666be6
restaurant,restaurant,Kecamatan Sorong Manoi,"Kota Sorong, Papua Bar.","Kota Sorong, Papua Bar.",PAPUA BARAT,,Indonesia,,-0.8875965,131.2870369,https://maps.google.com/?cid=0x0:0xeae8019c83ed0741
restaurant,Hidangan Laut,MAMBERAMO (LIVE) SEAFOOD,"Jl. Ahmad Yani No.7, Remu Utara, Distrik Sorong, Kota Sorong, Papua Bar. 98412","Remu Utara, Distrik Sorong, Kota Sorong",PAPUA BARAT,98412.0,Indonesia,82128836899.0,-0.8831759,131.279474,https://maps.google.com/?cid=0x0:0xf699baff63a451c
restaurant,Hidangan Laut,Marina Star Restaurant Seafood,"Kompleks, Jl. Bubara Jl. Pelabuhan Perikanan, Distrik Sorong, Kota Sorong, Papua Bar. 98414","Jl. Bubara Jl. Pelabuhan Perikanan, Distrik Sorong, Kota Sorong",PAPUA BARAT,98414.0,Indonesia,81240250548.0,-0.8790069,131.2552456,https://maps.google.com/?cid=0x0:0x6d780e763a272c1a
restaurant,Korea,Mansae Hore Korean Grill Sorong cabang KILO,"Jl. Basuki Rahmat No.Km.9 5, Sawagumu, Kec. Sorong Utara, Kota Sorong, Papua Bar. 98410","Sawagumu, Kec. Sorong Utara, Kota Sorong",PAPUA BARAT,98410.0,Indonesia,81212888885.0,-0.8893567,131.3119808,https://maps.google.com/?cid=0x0:0x7421ada9c8690ba9
restaurant,Hidangan Laut,Republik Seafood,"Sawagumu, Kec. Sorong Utara, Kota Sorong, Papua Bar. 98412","Kec. Sorong Utara, Kota Sorong",PAPUA BARAT,98412.0,Indonesia,81344615005.0,-0.8883945,131.3109228,https://maps.google.com/?cid=0x0:0xec5acb934a352d67
restaurant,Pizza,Pizzeria Terrazza di Sorong,"Behind SKKMIGAS, dibelakang SKKMIGAS, Jl. Arfak, Kp. Baru, Kota Sorong, Papua Bar. 98414","dibelakang SKKMIGAS, Jl. Arfak, Kp. Baru, Kota Sorong",PAPUA BARAT,98414.0,Indonesia,81356867669.0,-0.8737438,131.25222,https://maps.google.com/?cid=0x0:0xf46c05068677dc1
restaurant,Korea,Mansae Hore Korean Grill Sorong cabang KAMPUNG BARU,"Jl. Sam Ratulangi Ruko Alfa Mega No.2B, Kp. Baru, Distrik Sorong, Kota Sorong, Papua Bar. 98411","Kp. Baru, Distrik Sorong, Kota Sorong",PAPUA BARAT,98411.0,Indonesia,81212285585.0,-0.870754,131.2519071,https://maps.google.com/?cid=0x0:0x62f61b03c2c8bda6
restaurant,Ramen,Miyazaki Japanese Grill Sorong,"Jl. Mesjid Raya No.10, Remu Utara, Distrik Sorong, Kota Sorong, Papua Bar. 98412","Remu Utara, Distrik Sorong, Kota Sorong",PAPUA BARAT,98412.0,Indonesia,,-0.880963,131.2829096,https://maps.google.com/?cid=0x0:0x4ebd457f6483ffaf
restaurant,Rumah Makan,Sop Saudara Sorong,"477M+2QX, Remu Sel., Kecamatan Sorong Manoi, Kota Sorong, Papua Bar. 98412","Remu Sel., Kecamatan Sorong Manoi, Kota Sorong",PAPUA BARAT,98412.0,Indonesia,,-0.887392,131.2844888,https://maps.google.com/?cid=0x0:0x48e36cc0276a45b1
restaurant,Indonesia,Selagi Dingin,"Jl. Ahmad Yani No.85, Malabutor, Kecamatan Sorong Manoi, Kota Sorong, Papua Bar. 98416","Malabutor, Kecamatan Sorong Manoi, Kota Sorong",PAPUA BARAT,98416.0,Indonesia,,-0.8836291,131.2784194,https://maps.google.com/?cid=0x0:0x82e70f5e2ddd0848
restaurant,Kedai Kopi,Sorong Cafe,"Sawagumu, Kec. Sorong Utara, Kota Sorong, Papua Bar.","Kota Sorong, Papua Bar.",PAPUA BARAT,,Indonesia,81248201730.0,-0.8893784,131.3128926,https://maps.google.com/?cid=0x0:0x7962c1d0ce1b0528
restaurant,Rumah Makan,Rumah Makan Mini (Miniresto.sorong),"Klademak, Distrik Sorong, Kota Sorong, Papua Bar. 98412","Distrik Sorong, Kota Sorong",PAPUA BARAT,98412.0,Indonesia,85354611115.0,-0.8820389,131.2740136,https://maps.google.com/?cid=0x0:0x1b2e4c712665ee5b
restaurant,Rumah Makan,RM. DOA IBU,"477R+24X Bar, Malaingkedi, Kec. Sorong Utara, Kota Sorong, Papua Bar. 98412","Malaingkedi, Kec. Sorong Utara, Kota Sorong",PAPUA BARAT,98412.0,Indonesia,,-0.8873751,131.2903476,https://maps.google.com/?cid=0x0:0xd7441e7942bc4535
restaurant,Hidangan Laut,Metamani Restaurant  Lounge,"47H2+C88, Jl. Dr. Sam Ratulangi, Kp. Baru, Distrik Sorong, Kota Sorong, Papua Bar. 98411","Jl. Dr. Sam Ratulangi, Kp. Baru, Distrik Sorong, Kota Sorong",PAPUA BARAT,98411.0,Indonesia,951325666.0,-0.8714551,131.2508224,https://maps.google.com/?cid=0x0:0x1071bea8f0cd42dd
restaurant,restaurant,Kecamatan Sorong Manoi,"Kota Sorong, Papua Bar.","Kota Sorong, Papua Bar.",PAPUA BARAT,,Indonesia,,-0.8875965,131.2870369,https://maps.google.com/?cid=0x0:0xeae8019c83ed0741
restaurant,Hidangan Laut,MAMBERAMO (LIVE) SEAFOOD,"Jl. Ahmad Yani No.7, Remu Utara, Distrik Sorong, Kota Sorong, Papua Bar. 98412","Remu Utara, Distrik Sorong, Kota Sorong",PAPUA BARAT,98412.0,Indonesia,82128836899.0,-0.8831759,131.279474,https://maps.google.com/?cid=0x0:0xf699baff63a451c
restaurant,Korea,Mansae Hore Korean Grill Sorong cabang KILO,"Jl. Basuki Rahmat No.Km.9 5, Sawagumu, Kec. Sorong Utara, Kota Sorong, Papua Bar. 98410","Sawagumu, Kec. Sorong Utara, Kota Sorong",PAPUA BARAT,98410.0,Indonesia,81212888885.0,-0.8893567,131.3119808,https://maps.google.com/?cid=0x0:0x7421ada9c8690ba9
restaurant,Indonesia,Aghina Cafe and Restaurant,"478F+G45, Malabutor, Kecamatan Sorong Manoi, Kota Sorong, Papua Bar. 98412","Malabutor, Kecamatan Sorong Manoi, Kota Sorong",PAPUA BARAT,98412.0,Indonesia,81344840839.0,-0.8837374,131.2728509,https://maps.google.com/?cid=0x0:0x57d56fb0e9f3b322
restaurant,Hidangan Laut,Marina Star Restaurant Seafood,"Kompleks, Jl. Bubara Jl. Pelabuhan Perikanan, Distrik Sorong, Kota Sorong, Papua Bar. 98414","Jl. Bubara Jl. Pelabuhan Perikanan, Distrik Sorong, Kota Sorong",PAPUA BARAT,98414.0,Indonesia,81240250548.0,-0.8790069,131.2552456,https://maps.google.com/?cid=0x0:0x6d780e763a272c1a
restaurant,Rumah Makan,Rumah Makan Mini (Miniresto.sorong),"Klademak, Distrik Sorong, Kota Sorong, Papua Bar. 98412","Distrik Sorong, Kota Sorong",PAPUA BARAT,98412.0,Indonesia,85354611115.0,-0.8820389,131.2740136,https://maps.google.com/?cid=0x0:0x1b2e4c712665ee5b
restaurant,Ramen,Miyazaki Japanese Grill Sorong,"Jl. Mesjid Raya No.10, Remu Utara, Distrik Sorong, Kota Sorong, Papua Bar. 98412","Remu Utara, Distrik Sorong, Kota Sorong",PAPUA BARAT,98412.0,Indonesia,,-0.880963,131.2829096,https://maps.google.com/?cid=0x0:0x4ebd457f6483ffaf
restaurant,Rumah Makan,"Limau, Sorong - Ranting 39","di samping janji jiwa, Jl. Pendidikan No.km 8, Malaingkedi, Kec. Sorong Utara, Kota Sorong, Papua Bar. 98415","Jl. Pendidikan No.km 8, Malaingkedi, Kec. Sorong Utara, Kota Sorong",PAPUA BARAT,98415.0,Indonesia,81248113162.0,-0.8876861,131.2958356,https://maps.google.com/?cid=0x0:0x271533d00b35e349
restaurant,Rumah Makan,Sop Saudara Sorong,"477M+2QX, Remu Sel., Kecamatan Sorong Manoi, Kota Sorong, Papua Bar. 98412","Remu Sel., Kecamatan Sorong Manoi, Kota Sorong",PAPUA BARAT,98412.0,Indonesia,,-0.887392,131.2844888,https://maps.google.com/?cid=0x0:0x48e36cc0276a45b1
restaurant,Hidangan Laut,Metamani Restaurant  Lounge,"47H2+C88, Jl. Dr. Sam Ratulangi, Kp. Baru, Distrik Sorong, Kota Sorong, Papua Bar. 98411","Jl. Dr. Sam Ratulangi, Kp. Baru, Distrik Sorong, Kota Sorong",PAPUA BARAT,98411.0,Indonesia,951325666.0,-0.8714551,131.2508224,https://maps.google.com/?cid=0x0:0x1071bea8f0cd42dd
restaurant,Indonesia,Selagi Dingin,"Jl. Ahmad Yani No.85, Malabutor, Kecamatan Sorong Manoi, Kota Sorong, Papua Bar. 98416","Malabutor, Kecamatan Sorong Manoi, Kota Sorong",PAPUA BARAT,98416.0,Indonesia,,-0.8836291,131.2784194,https://maps.google.com/?cid=0x0:0x82e70f5e2ddd0848
restaurant,Rumah Makan,RM. DOA IBU,"477R+24X Bar, Malaingkedi, Kec. Sorong Utara, Kota Sorong, Papua Bar. 98412","Malaingkedi, Kec. Sorong Utara, Kota Sorong",PAPUA BARAT,98412.0,Indonesia,,-0.8873751,131.2903476,https://maps.google.com/?cid=0x0:0xd7441e7942bc4535
restaurant,Kedai Kopi,Sorong Cafe,"Sawagumu, Kec. Sorong Utara, Kota Sorong, Papua Bar.","Kota Sorong, Papua Bar.",PAPUA BARAT,,Indonesia,81248201730.0,-0.8893784,131.3128926,https://maps.google.com/?cid=0x0:0x7962c1d0ce1b0528
restaurant,Padang,RM HAWION,"478P+WXR, Remu Utara, Distrik Sorong, Kota Sorong, Papua Bar. 98412","Remu Utara, Distrik Sorong, Kota Sorong",PAPUA BARAT,98412.0,Indonesia,,-0.8826493,131.2873939,https://maps.google.com/?cid=0x0:0xfb5a1cfbbde88291
restaurant,restaurant,Kecamatan Sorong Manoi,"Kota Sorong, Papua Bar.","Kota Sorong, Papua Bar.",PAPUA BARAT,,Indonesia,,-0.8875965,131.2870369,https://maps.google.com/?cid=0x0:0xeae8019c83ed0741
restaurant,Indonesia,Aghina Cafe and Restaurant,"478F+G45, Malabutor, Kecamatan Sorong Manoi, Kota Sorong, Papua Bar. 98412","Malabutor, Kecamatan Sorong Manoi, Kota Sorong",PAPUA BARAT,98412.0,Indonesia,81344840839.0,-0.8837374,131.2728509,https://maps.google.com/?cid=0x0:0x57d56fb0e9f3b322
restaurant,Hidangan Laut,MAMBERAMO (LIVE) SEAFOOD,"Jl. Ahmad Yani No.7, Remu Utara, Distrik Sorong, Kota Sorong, Papua Bar. 98412","Remu Utara, Distrik Sorong, Kota Sorong",PAPUA BARAT,98412.0,Indonesia,82128836899.0,-0.8831759,131.279474,https://maps.google.com/?cid=0x0:0xf699baff63a451c
restaurant,Sulawesi Selatan,Coto HBâeNG,"Remu Utara, Distrik Sorong, Kota Sorong, Papua Bar. 98412","Distrik Sorong, Kota Sorong",PAPUA BARAT,98412.0,Indonesia,,-0.8807345,131.2828633,https://maps.google.com/?cid=0x0:0x20aa763af6d9e0ef
restaurant,Hidangan Laut,Republik Seafood,"Sawagumu, Kec. Sorong Utara, Kota Sorong, Papua Bar. 98412","Kec. Sorong Utara, Kota Sorong",PAPUA BARAT,98412.0,Indonesia,81344615005.0,-0.8883945,131.3109228,https://maps.google.com/?cid=0x0:0xec5acb934a352d67
restaurant,Indonesia,Selagi Dingin,"Jl. Ahmad Yani No.85, Malabutor, Kecamatan Sorong Manoi, Kota Sorong, Papua Bar. 98416","Malabutor, Kecamatan Sorong Manoi, Kota Sorong",PAPUA BARAT,98416.0,Indonesia,,-0.8836291,131.2784194,https://maps.google.com/?cid=0x0:0x82e70f5e2ddd0848
restaurant,Rumah Makan,RM. Jonathan,"Jl. Cendrawasih, Klawuyuk, Kec. Sorong Utara, Kota Sorong, Papua Bar. 98416","Klawuyuk, Kec. Sorong Utara, Kota Sorong",PAPUA BARAT,98416.0,Indonesia,82197681787.0,-0.8835184,131.2894,https://maps.google.com/?cid=0x0:0xb6b9260f0491cdd1
restaurant,Hidangan Laut,Marina Star Restaurant Seafood,"Kompleks, Jl. Bubara Jl. Pelabuhan Perikanan, Distrik Sorong, Kota Sorong, Papua Bar. 98414","Jl. Bubara Jl. Pelabuhan Perikanan, Distrik Sorong, Kota Sorong",PAPUA BARAT,98414.0,Indonesia,81240250548.0,-0.8790069,131.2552456,https://maps.google.com/?cid=0x0:0x6d780e763a272c1a
restaurant,Rumah Makan,RM. GAYA BARU,"Jl. Maleo kampung Pisang No.13, Remu Utara, Distrik Sorong, Kota Sorong, Papua Bar. 98412","Remu Utara, Distrik Sorong, Kota Sorong",PAPUA BARAT,98412.0,Indonesia,82133224949.0,-0.8798664,131.2860653,https://maps.google.com/?cid=0x0:0x31f3720ac6549e6c
restaurant,Ramen,Miyazaki Japanese Grill Sorong,"Jl. Mesjid Raya No.10, Remu Utara, Distrik Sorong, Kota Sorong, Papua Bar. 98412","Remu Utara, Distrik Sorong, Kota Sorong",PAPUA BARAT,98412.0,Indonesia,,-0.880963,131.2829096,https://maps.google.com/?cid=0x0:0x4ebd457f6483ffaf
restaurant,Sulawesi Selatan,Rumah Makan Goyang Lidah 2 HBM Kota Sorong,"Jl. Mesjid Raya, Remu Utara, Distrik Sorong, Kota Sorong, Papua Bar. 98412","Remu Utara, Distrik Sorong, Kota Sorong",PAPUA BARAT,98412.0,Indonesia,8114871878.0,-0.8806609,131.2828623,https://maps.google.com/?cid=0x0:0xc360ea1f18263d44
restaurant,Padang,RM HAWION,"478P+WXR, Remu Utara, Distrik Sorong, Kota Sorong, Papua Bar. 98412","Remu Utara, Distrik Sorong, Kota Sorong",PAPUA BARAT,98412.0,Indonesia,,-0.8826493,131.2873939,https://maps.google.com/?cid=0x0:0xfb5a1cfbbde88291
restaurant,Brunch,Rumah Makan Jakarta,"477J+7RH, Malabutor, Kecamatan Sorong Manoi, Kota Sorong, Papua Bar. 98412","Malabutor, Kecamatan Sorong Manoi, Kota Sorong",PAPUA BARAT,98412.0,Indonesia,85243057777.0,-0.8868045,131.2821129,https://maps.google.com/?cid=0x0:0x125c40164d6970d2
restaurant,Indonesia,RM RANOYAPO,"4863+Q5X, Klasabi, Kecamatan Sorong Manoi, Kota Sorong, Papua Bar. 98412","Klasabi, Kecamatan Sorong Manoi, Kota Sorong",PAPUA BARAT,98412.0,Indonesia,85254713466.0,-0.888006,131.3029975,https://maps.google.com/?cid=0x0:0x936fc2c222a1c3e6
restaurant,restaurant,Papua Bar. 98416,Papua Bar.,Papua Bar.,PAPUA BARAT,,Indonesia,,-0.8883325,131.3510866,https://maps.google.com/?cid=0x0:0x7d4c82915eeb19ce
restaurant,Rumah Makan,RM.Joglo Gaya Baru,"Jl. Tuturuga, Klamasen, Distrik Mariat, Kabupaten Sorong, Papua Bar. 98416","Klamasen, Distrik Mariat, Kabupaten Sorong",PAPUA BARAT,98416.0,Indonesia,81243424949.0,-0.9841605,131.3521329,https://maps.google.com/?cid=0x0:0x7c27bbbd958822ef
restaurant,Batak,RM. Kabanjahe,"Klamana, Distrik Sorong Timur, Kota Sorong, Papua Bar. 98416","Distrik Sorong Timur, Kota Sorong",PAPUA BARAT,98416.0,Indonesia,81240608576.0,-0.9160999,131.3347088,https://maps.google.com/?cid=0x0:0x7c5d581e99d175e2
restaurant,Hidangan Laut,Republik Seafood,"Sawagumu, Kec. Sorong Utara, Kota Sorong, Papua Bar. 98412","Kec. Sorong Utara, Kota Sorong",PAPUA BARAT,98412.0,Indonesia,81344615005.0,-0.8883945,131.3109228,https://maps.google.com/?cid=0x0:0xec5acb934a352d67
restaurant,Padang,RM. SALERO BAGINDO,"487C+GPW, Sawagumu, Kec. Sorong Utara, Kota Sorong, Papua Bar. 98416","Sawagumu, Kec. Sorong Utara, Kota Sorong",PAPUA BARAT,98416.0,Indonesia,951333696.0,-0.8861472,131.3218132,https://maps.google.com/?cid=0x0:0xea59f51ea26bc78a
restaurant,Pujasera,Hangout Avenue Sorong,"Jl Sungai Maruni KM 10, Masuk No.23, Kota Sorong, Papua Bar. 98416","Masuk No.23, Kota Sorong",PAPUA BARAT,98416.0,Indonesia,82197698090.0,-0.8868107,131.3216004,https://maps.google.com/?cid=0x0:0x29c3ed1d6d1ac389
restaurant,Rumah Makan,RM. SRITANJUNG,"Perumnas, Jl. Basuki Rahmat, Klawuyuk, Distrik Sorong Timur, Kota Sorong, Papua Bar. 98416","Jl. Basuki Rahmat, Klawuyuk, Distrik Sorong Timur, Kota Sorong",PAPUA BARAT,98416.0,Indonesia,81344078061.0,-0.8927622,131.3170047,https://maps.google.com/?cid=0x0:0x74dd72de76bbe62f
restaurant,Korea,NOKS KITCHEN,"489C+JW9, Matalamagi, Kec. Sorong Utara, Kota Sorong, Papua Bar. 98416","Matalamagi, Kec. Sorong Utara, Kota Sorong",PAPUA BARAT,98416.0,Indonesia,81292187200.0,-0.8810337,131.3220752,https://maps.google.com/?cid=0x0:0xe33398cb42bee1af
restaurant,Padang,RM Padang Jakarta,"Jl. Basuki Rahmat, RT.01/RW.05, Klawuyuk, Sorong Timur, Klawuyuk, Distrik Sorong Timur, Kota Sorong, Papua Bar. 98416","RT.01/RW.05, Klawuyuk, Sorong Timur, Klawuyuk, Distrik Sorong Timur, Kota Sorong",PAPUA BARAT,98416.0,Indonesia,81277244711.0,-0.8949423,131.3184884,https://maps.google.com/?cid=0x0:0x45e78beddf9ecb00
restaurant,Korea,Mansae Hore Korean Grill Sorong cabang KILO,"Jl. Basuki Rahmat No.Km.9 5, Sawagumu, Kec. Sorong Utara, Kota Sorong, Papua Bar. 98410","Sawagumu, Kec. Sorong Utara, Kota Sorong",PAPUA BARAT,98410.0,Indonesia,81212888885.0,-0.8893567,131.3119808,https://maps.google.com/?cid=0x0:0x7421ada9c8690ba9
restaurant,Indonesia,Aghina Cafe and Restaurant,"478F+G45, Malabutor, Kecamatan Sorong Manoi, Kota Sorong, Papua Bar. 98412","Malabutor, Kecamatan Sorong Manoi, Kota Sorong",PAPUA BARAT,98412.0,Indonesia,81344840839.0,-0.8837374,131.2728509,https://maps.google.com/?cid=0x0:0x57d56fb0e9f3b322
restaurant,Kedai Kopi,Sorong Cafe,"Sawagumu, Kec. Sorong Utara, Kota Sorong, Papua Bar.","Kota Sorong, Papua Bar.",PAPUA BARAT,,Indonesia,81248201730.0,-0.8893784,131.3128926,https://maps.google.com/?cid=0x0:0x7962c1d0ce1b0528
restaurant,restaurant,rm ikan bakar,"38XG+WWQ, Jl. A.M. Sangaji Gonof, Klawuyuk, Distrik Sorong Timur, Kota Sorong, Papua Bar. 98416","Jl. A.M. Sangaji Gonof, Klawuyuk, Distrik Sorong Timur, Kota Sorong",PAPUA BARAT,98416.0,Indonesia,,-0.9001605,131.3273445,https://maps.google.com/?cid=0x0:0x6e2e7a43bd902402
restaurant,Rumah Makan,RM. GAYA BARU,"Jl. Maleo kampung Pisang No.13, Remu Utara, Distrik Sorong, Kota Sorong, Papua Bar. 98412","Remu Utara, Distrik Sorong, Kota Sorong",PAPUA BARAT,98412.0,Indonesia,82133224949.0,-0.8798664,131.2860653,https://maps.google.com/?cid=0x0:0x31f3720ac6549e6c
restaurant,restaurant,Papua Bar. 98419,"Kabupaten Sorong, Papua Bar.","Kabupaten Sorong, Papua Bar.",PAPUA BARAT,,Indonesia,,-0.9516965,131.4612677,https://maps.google.com/?cid=0x0:0x1846ff160c020f5b
restaurant,Hidangan Laut,Republik Seafood,"Sawagumu, Kec. Sorong Utara, Kota Sorong, Papua Bar. 98412","Kec. Sorong Utara, Kota Sorong",PAPUA BARAT,98412.0,Indonesia,81344615005.0,-0.8883945,131.3109228,https://maps.google.com/?cid=0x0:0xec5acb934a352d67
restaurant,Indonesia,Aghina Cafe and Restaurant,"478F+G45, Malabutor, Kecamatan Sorong Manoi, Kota Sorong, Papua Bar. 98412","Malabutor, Kecamatan Sorong Manoi, Kota Sorong",PAPUA BARAT,98412.0,Indonesia,81344840839.0,-0.8837374,131.2728509,https://maps.google.com/?cid=0x0:0x57d56fb0e9f3b322
restaurant,Korea,Mansae Hore Korean Grill Sorong cabang KILO,"Jl. Basuki Rahmat No.Km.9 5, Sawagumu, Kec. Sorong Utara, Kota Sorong, Papua Bar. 98410","Sawagumu, Kec. Sorong Utara, Kota Sorong",PAPUA BARAT,98410.0,Indonesia,81212888885.0,-0.8893567,131.3119808,https://maps.google.com/?cid=0x0:0x7421ada9c8690ba9
restaurant,Pizza,Pizzeria Terrazza di Sorong,"Behind SKKMIGAS, dibelakang SKKMIGAS, Jl. Arfak, Kp. Baru, Kota Sorong, Papua Bar. 98414","dibelakang SKKMIGAS, Jl. Arfak, Kp. Baru, Kota Sorong",PAPUA BARAT,98414.0,Indonesia,81356867669.0,-0.8737438,131.25222,https://maps.google.com/?cid=0x0:0xf46c05068677dc1
restaurant,Korea,Mansae Hore Korean Grill Sorong cabang KAMPUNG BARU,"Jl. Sam Ratulangi Ruko Alfa Mega No.2B, Kp. Baru, Distrik Sorong, Kota Sorong, Papua Bar. 98411","Kp. Baru, Distrik Sorong, Kota Sorong",PAPUA BARAT,98411.0,Indonesia,81212285585.0,-0.870754,131.2519071,https://maps.google.com/?cid=0x0:0x62f61b03c2c8bda6
restaurant,Kedai Kopi,Sorong Cafe,"Sawagumu, Kec. Sorong Utara, Kota Sorong, Papua Bar.","Kota Sorong, Papua Bar.",PAPUA BARAT,,Indonesia,81248201730.0,-0.8893784,131.3128926,https://maps.google.com/?cid=0x0:0x7962c1d0ce1b0528
restaurant,Hidangan Laut,Layar Gading Cafe  Restaurant,"Klasuur, Distrik Sorong, Kota Sorong, Papua Bar. 98411","Distrik Sorong, Kota Sorong",PAPUA BARAT,98411.0,Indonesia,85255859001.0,-0.8651982,131.245803,https://maps.google.com/?cid=0x0:0x7da35e815b399cf4
restaurant,Ramen,Miyazaki Japanese Grill Sorong,"Jl. Mesjid Raya No.10, Remu Utara, Distrik Sorong, Kota Sorong, Papua Bar. 98412","Remu Utara, Distrik Sorong, Kota Sorong",PAPUA BARAT,98412.0,Indonesia,,-0.880963,131.2829096,https://maps.google.com/?cid=0x0:0x4ebd457f6483ffaf
restaurant,Rumah Makan,RM. Rasa Dulu km. 9.5,"4865+WC9, Jl. Basuki Rahmat, Sawagumu, Kec. Sorong Utara, Kota Sorong, Papua Bar. 98412","Jl. Basuki Rahmat, Sawagumu, Kec. Sorong Utara, Kota Sorong",PAPUA BARAT,98412.0,Indonesia,81356293720.0,-0.8877146,131.3086133,https://maps.google.com/?cid=0x0:0xd372bc4e1516409c
restaurant,Hidangan Laut,RM. NEW RATU SAYANG,"Lido, Jl. Yos. Sudarso No.31, Klasuur, Distrik Sorong, Kota Sorong, Papua Bar. 98413","Jl. Yos. Sudarso No.31, Klasuur, Distrik Sorong, Kota Sorong",PAPUA BARAT,98413.0,Indonesia,85244007744.0,-0.8652896,131.2461583,https://maps.google.com/?cid=0x0:0xb387f5135fa5f5d6
restaurant,Rumah Makan,Rumah Makan Mini (Miniresto.sorong),"Klademak, Distrik Sorong, Kota Sorong, Papua Bar. 98412","Distrik Sorong, Kota Sorong",PAPUA BARAT,98412.0,Indonesia,85354611115.0,-0.8820389,131.2740136,https://maps.google.com/?cid=0x0:0x1b2e4c712665ee5b
restaurant,Pujasera,Hangout Avenue Sorong,"Jl Sungai Maruni KM 10, Masuk No.23, Kota Sorong, Papua Bar. 98416","Masuk No.23, Kota Sorong",PAPUA BARAT,98416.0,Indonesia,82197698090.0,-0.8868107,131.3216004,https://maps.google.com/?cid=0x0:0x29c3ed1d6d1ac389
restaurant,Sulawesi Selatan,Rumah Makan Goyang Lidah 2 HBM Kota Sorong,"Jl. Mesjid Raya, Remu Utara, Distrik Sorong, Kota Sorong, Papua Bar. 98412","Remu Utara, Distrik Sorong, Kota Sorong",PAPUA BARAT,98412.0,Indonesia,8114871878.0,-0.8806609,131.2828623,https://maps.google.com/?cid=0x0:0xc360ea1f18263d44
