Category,Real Category,Business Name,Address,City,State,Postal Code,Country,Phone,Latitude,Longitude,Map Link
mall,mall,Papua Bar. 98413,"Klabala, Distrik Sorong Barat, Kota Sorong, Papua Bar.","Kota Sorong, Papua Bar.",PAPUA BARAT,,Indonesia,,-0.8669518,131.254029,https://maps.google.com/?cid=0x0:0x352e1f254d39ea2b
mall,Pusat Perbelanjaan,Mega Mall Sorong,"Jalan Basuki Rahmat Klabulu, Malaimsimsa, Malaingkedi, Kec. Sorong Utara, Kota Sorong, Papua Bar. 98412","Malaimsimsa, Malaingkedi, Kec. Sorong Utara, Kota Sorong",PAPUA BARAT,98412.0,Indonesia,,-0.8873097,131.3012842,https://maps.google.com/?cid=0x0:0x364e52ce8985aa7
mall,Pusat Perbelanjaan,Mal Sorong,"479G+369, Klademak, Distrik Sorong, Kota Sorong, Papua Bar. 98412","Klademak, Distrik Sorong, Kota Sorong",PAPUA BARAT,98412.0,Indonesia,,-0.8823414,131.2755957,https://maps.google.com/?cid=0x0:0x4efad982776d0ca5
mall,Perusahaan Konstruksi,MALL SORONG MODERN CITY,"46HV+8RX, Jl. Yos. Sudarso, Kp. Baru, Distrik Sorong, Kota Sorong, Papua Bar. 98411","Jl. Yos. Sudarso, Kp. Baru, Distrik Sorong, Kota Sorong",PAPUA BARAT,98411.0,Indonesia,,-0.8716413,131.2446118,https://maps.google.com/?cid=0x0:0x40151c61e7d35d7a
mall,Pusat Perbelanjaan,PARAGON SQUARE Mall  Hotel Sorong,"4874+4RH Paragon Square Mall, Jl. Basuki Rahmat Lt. 2, Sawagumu, Kec. Sorong Utara, Kota Sorong, Papua Bar. 98412","Jl. Basuki Rahmat Lt. 2, Sawagumu, Kec. Sorong Utara, Kota Sorong",PAPUA BARAT,98412.0,Indonesia,81247232214.0,-0.8871443,131.3071264,https://maps.google.com/?cid=0x0:0xd02481be48cb6e05
mall,Grosir,AZKO PARAGON SORONG,"4874+GWG, Jl. Basuki Rahmat, Sawagumu, Kec. Sorong Utara, Kota Sorong, Papua Bar.","Kota Sorong, Papua Bar.",PAPUA BARAT,,Indonesia,,-0.886185,131.3073385,https://maps.google.com/?cid=0x0:0x34d596cc826d6f95
mall,Pusat Perbelanjaan,Sorong City Square,"4867+3HC, Sawagumu, Kec. Sorong Utara, Kota Sorong, Papua Bar. 98412","Sawagumu, Kec. Sorong Utara, Kota Sorong",PAPUA BARAT,98412.0,Indonesia,,-0.8898196,131.3138844,https://maps.google.com/?cid=0x0:0xad1b87f4a839cdae
mall,Pusat Perbelanjaan,Kawasan SMC (Sorong Modern City),"46HV+6FP Sunset Point Sorong, Dekat, Jl. Yos. Sudarso, Kp. Baru, Distrik Sorong, Kota Sorong, Papua Bar. 98411","Dekat, Jl. Yos. Sudarso, Kp. Baru, Distrik Sorong, Kota Sorong",PAPUA BARAT,98411.0,Indonesia,,-0.8724848,131.2434905,https://maps.google.com/?cid=0x0:0xcd23323a4726adf5
mall,Pusat Perbelanjaan,Mabello Sorong,"Jl. Cendrawasih No.11, Klawuyuk, Kec. Sorong Utara, Kota Sorong, Papua Bar. 98416","Klawuyuk, Kec. Sorong Utara, Kota Sorong",PAPUA BARAT,98416.0,Indonesia,82292247585.0,-0.8905827,131.3233806,https://maps.google.com/?cid=0x0:0x8b6c1d23b40f32bc
mall,mall,Sorong,"Kota Sorong, Papua Bar.","Kota Sorong, Papua Bar.",PAPUA BARAT,,Indonesia,,-0.8761629,131.255828,https://maps.google.com/?cid=0x0:0xe32b512ec6c6786
mall,Pusat Perbelanjaan,Mega Mall Sorong,"Jalan Basuki Rahmat Klabulu, Malaimsimsa, Malaingkedi, Kec. Sorong Utara, Kota Sorong, Papua Bar. 98412","Malaimsimsa, Malaingkedi, Kec. Sorong Utara, Kota Sorong",PAPUA BARAT,98412.0,Indonesia,,-0.8873097,131.3012842,https://maps.google.com/?cid=0x0:0x364e52ce8985aa7
mall,Pusat Perbelanjaan,Mal Sorong,"479G+369, Klademak, Distrik Sorong, Kota Sorong, Papua Bar. 98412","Klademak, Distrik Sorong, Kota Sorong",PAPUA BARAT,98412.0,Indonesia,,-0.8823414,131.2755957,https://maps.google.com/?cid=0x0:0x4efad982776d0ca5
mall,Pusat Perbelanjaan,RAMAYANA Mall Sorong,"Jl. Wahid Hasyim 220 A-B, Jakarta, Papua Bar. 10250",Jakarta,PAPUA BARAT,10250.0,Indonesia,951332505.0,-0.8820615,131.2755023,https://maps.google.com/?cid=0x0:0x595b97e0cac05b45
mall,Pusat Perbelanjaan,PARAGON SQUARE Mall  Hotel Sorong,"4874+4RH Paragon Square Mall, Jl. Basuki Rahmat Lt. 2, Sawagumu, Kec. Sorong Utara, Kota Sorong, Papua Bar. 98412","Jl. Basuki Rahmat Lt. 2, Sawagumu, Kec. Sorong Utara, Kota Sorong",PAPUA BARAT,98412.0,Indonesia,81247232214.0,-0.8871443,131.3071264,https://maps.google.com/?cid=0x0:0xd02481be48cb6e05
mall,Perusahaan Konstruksi,MALL SORONG MODERN CITY,"46HV+8RX, Jl. Yos. Sudarso, Kp. Baru, Distrik Sorong, Kota Sorong, Papua Bar. 98411","Jl. Yos. Sudarso, Kp. Baru, Distrik Sorong, Kota Sorong",PAPUA BARAT,98411.0,Indonesia,,-0.8716413,131.2446118,https://maps.google.com/?cid=0x0:0x40151c61e7d35d7a
mall,mall,Paragon Mall Sorong,"Jl. Basuki Rahmat No.KM 9, Sawagumu, Kec. Sorong Utara, Kota Sorong, Papua Bar.","Kota Sorong, Papua Bar.",PAPUA BARAT,,Indonesia,,-0.8865295,131.3075066,https://maps.google.com/?cid=0x0:0xf013685eefc002dc
mall,Minimarket,SAGA Supermarket  Dept. Store,"Jalan A. Yani, Ruko Kuda Laut, Klademak, Kecamatan Sorong Manoi, Kota Sorong, Papua Bar. 98414","Ruko Kuda Laut, Klademak, Kecamatan Sorong Manoi, Kota Sorong",PAPUA BARAT,98414.0,Indonesia,951322784.0,-0.8765248,131.2576755,https://maps.google.com/?cid=0x0:0x963043ed646a7e1e
mall,Pusat Perbelanjaan,Saga Aimas,"28VG+26V, Jl. Nangka, Malawili, Kec. Aimas, Kabupaten Sorong, Papua Bar. 98414","Jl. Nangka, Malawili, Kec. Aimas, Kabupaten Sorong",PAPUA BARAT,98414.0,Indonesia,81351816880.0,-0.9574598,131.3257559,https://maps.google.com/?cid=0x0:0x2ba45ddc0e9b2391
mall,Pusat Perbelanjaan,ð¹ððððððð ð´ððð ðºððððð,"Jl. Ahmad Yani No.21, Malabutor, Distrik Sorong, Kota Sorong, Papua Bar. 98412","Malabutor, Distrik Sorong, Kota Sorong",PAPUA BARAT,98412.0,Indonesia,82397090442.0,-0.8825922,131.2827947,https://maps.google.com/?cid=0x0:0x28c052b0f0f6e9a6
mall,Pusat Perbelanjaan,Harco Square Sorong,"4857+XPR, Sawagumu, Kec. Sorong Utara, Kota Sorong, Papua Bar. 98412","Sawagumu, Kec. Sorong Utara, Kota Sorong",PAPUA BARAT,98412.0,Indonesia,,-0.8900075,131.3142639,https://maps.google.com/?cid=0x0:0x78fc85d26a08628a
mall,Perusahaan Operasi Pelabuhan,Port De Sorong,"4776+R7P, OcÃ©an Pacifique Sud, Klaligi, Kota Sorong, Papua Bar.","Kota Sorong, Papua Bar.",PAPUA BARAT,,Indonesia,,-0.8854189,131.2606942,https://maps.google.com/?cid=0x0:0xce90b7f0dab6effe
mall,Pusat Perbelanjaan,Sorong City Square,"4867+3HC, Sawagumu, Kec. Sorong Utara, Kota Sorong, Papua Bar. 98412","Sawagumu, Kec. Sorong Utara, Kota Sorong",PAPUA BARAT,98412.0,Indonesia,,-0.8898196,131.3138844,https://maps.google.com/?cid=0x0:0xad1b87f4a839cdae
mall,Pusat Perbelanjaan,Sorong Shopping  Jastip,"Jl. Sam Ratulangi No.67, Klasuur, Distrik Sorong, Kota Sorong, Papua Bar. 98411","Klasuur, Distrik Sorong, Kota Sorong",PAPUA BARAT,98411.0,Indonesia,82198292121.0,-0.8681704,131.252787,https://maps.google.com/?cid=0x0:0xef8bd3f38641d4a2
mall,mall,Papua Bar. 98416,Papua Bar.,Papua Bar.,PAPUA BARAT,,Indonesia,,-0.8883325,131.3510866,https://maps.google.com/?cid=0x0:0x7d4c82915eeb19ce
mall,Pusat Perbelanjaan,Mega Mall Sorong,"Jalan Basuki Rahmat Klabulu, Malaimsimsa, Malaingkedi, Kec. Sorong Utara, Kota Sorong, Papua Bar. 98412","Malaimsimsa, Malaingkedi, Kec. Sorong Utara, Kota Sorong",PAPUA BARAT,98412.0,Indonesia,,-0.8873097,131.3012842,https://maps.google.com/?cid=0x0:0x364e52ce8985aa7
mall,Pusat Perbelanjaan,PARAGON SQUARE Mall  Hotel Sorong,"4874+4RH Paragon Square Mall, Jl. Basuki Rahmat Lt. 2, Sawagumu, Kec. Sorong Utara, Kota Sorong, Papua Bar. 98412","Jl. Basuki Rahmat Lt. 2, Sawagumu, Kec. Sorong Utara, Kota Sorong",PAPUA BARAT,98412.0,Indonesia,81247232214.0,-0.8871443,131.3071264,https://maps.google.com/?cid=0x0:0xd02481be48cb6e05
mall,Pusat Perbelanjaan,RAMAYANA Mall Sorong,"Jl. Wahid Hasyim 220 A-B, Jakarta, Papua Bar. 10250",Jakarta,PAPUA BARAT,10250.0,Indonesia,951332505.0,-0.8820615,131.2755023,https://maps.google.com/?cid=0x0:0x595b97e0cac05b45
mall,mall,Paragon Mall Sorong,"Jl. Basuki Rahmat No.KM 9, Sawagumu, Kec. Sorong Utara, Kota Sorong, Papua Bar.","Kota Sorong, Papua Bar.",PAPUA BARAT,,Indonesia,,-0.8865295,131.3075066,https://maps.google.com/?cid=0x0:0xf013685eefc002dc
mall,Grosir,AZKO PARAGON SORONG,"4874+GWG, Jl. Basuki Rahmat, Sawagumu, Kec. Sorong Utara, Kota Sorong, Papua Bar.","Kota Sorong, Papua Bar.",PAPUA BARAT,,Indonesia,,-0.886185,131.3073385,https://maps.google.com/?cid=0x0:0x34d596cc826d6f95
mall,Pusat Perbelanjaan,Harco Square Sorong,"4857+XPR, Sawagumu, Kec. Sorong Utara, Kota Sorong, Papua Bar. 98412","Sawagumu, Kec. Sorong Utara, Kota Sorong",PAPUA BARAT,98412.0,Indonesia,,-0.8900075,131.3142639,https://maps.google.com/?cid=0x0:0x78fc85d26a08628a
mall,mall,AGES CABANG HARAPAN INDAH,"483F+PP3, Jl. Kamboja 4, Klawuyuk, Distrik Sorong Timur, Kota Sorong, Papua Bar. 98416","Jl. Kamboja 4, Klawuyuk, Distrik Sorong Timur, Kota Sorong",PAPUA BARAT,98416.0,Indonesia,,-0.8957385,131.3242928,https://maps.google.com/?cid=0x0:0x4c200d6c20b2dc4b
mall,Pusat Perbelanjaan,Mabello Sorong,"Jl. Cendrawasih No.11, Klawuyuk, Kec. Sorong Utara, Kota Sorong, Papua Bar. 98416","Klawuyuk, Kec. Sorong Utara, Kota Sorong",PAPUA BARAT,98416.0,Indonesia,82292247585.0,-0.8905827,131.3233806,https://maps.google.com/?cid=0x0:0x8b6c1d23b40f32bc
mall,Pusat Perbelanjaan,Gema outlet,"482H+7MW, Klasaman, Distrik Sorong Timur, Kota Sorong, Papua Bar. 98416","Klasaman, Distrik Sorong Timur, Kota Sorong",PAPUA BARAT,98416.0,Indonesia,85244398702.0,-0.8992675,131.3291935,https://maps.google.com/?cid=0x0:0xf0698f80aae7cf05
mall,Minimarket,INDOMARET KLAMASEN,"2993+5GH, Klamasen, Distrik Mariat, Kabupaten Sorong, Papua Bar. 98416","Klamasen, Distrik Mariat, Kabupaten Sorong",PAPUA BARAT,98416.0,Indonesia,,-0.9820598,131.3537109,https://maps.google.com/?cid=0x0:0x73fbcb4854378be4
mall,Minimarket,INDOMARET MALIBELA,"Jl. Malibela No.6, Klawalu, Distrik Sorong Timur, Kota Sorong, Papua Bar. 98416","Klawalu, Distrik Sorong Timur, Kota Sorong",PAPUA BARAT,98416.0,Indonesia,,-0.9000617,131.3192616,https://maps.google.com/?cid=0x0:0xd1dc1b8b0d2e3d3d
mall,Pusat Perbelanjaan,Sorong City Square,"4867+3HC, Sawagumu, Kec. Sorong Utara, Kota Sorong, Papua Bar. 98412","Sawagumu, Kec. Sorong Utara, Kota Sorong",PAPUA BARAT,98412.0,Indonesia,,-0.8898196,131.3138844,https://maps.google.com/?cid=0x0:0xad1b87f4a839cdae
mall,Toko,Keripik Karmila Oleh2 Sorong,"Jl. Dorowati, Klasaman, Distrik Sorong Timur, Kota Sorong, Papua Bar. 98416","Klasaman, Distrik Sorong Timur, Kota Sorong",PAPUA BARAT,98416.0,Indonesia,82197931704.0,-0.9004869,131.3288867,https://maps.google.com/?cid=0x0:0xeab296915f1e3185
mall,mall,Papua Bar. 98411,"Kota Sorong, Papua Bar.","Kota Sorong, Papua Bar.",PAPUA BARAT,,Indonesia,,-0.8165448,131.3310303,https://maps.google.com/?cid=0x0:0xa63c7f2b52beead0
mall,Pusat Perbelanjaan,Mega Mall Sorong,"Jalan Basuki Rahmat Klabulu, Malaimsimsa, Malaingkedi, Kec. Sorong Utara, Kota Sorong, Papua Bar. 98412","Malaimsimsa, Malaingkedi, Kec. Sorong Utara, Kota Sorong",PAPUA BARAT,98412.0,Indonesia,,-0.8873097,131.3012842,https://maps.google.com/?cid=0x0:0x364e52ce8985aa7
mall,Pusat Perbelanjaan,Mal Sorong,"479G+369, Klademak, Distrik Sorong, Kota Sorong, Papua Bar. 98412","Klademak, Distrik Sorong, Kota Sorong",PAPUA BARAT,98412.0,Indonesia,,-0.8823414,131.2755957,https://maps.google.com/?cid=0x0:0x4efad982776d0ca5
mall,Perusahaan Konstruksi,MALL SORONG MODERN CITY,"46HV+8RX, Jl. Yos. Sudarso, Kp. Baru, Distrik Sorong, Kota Sorong, Papua Bar. 98411","Jl. Yos. Sudarso, Kp. Baru, Distrik Sorong, Kota Sorong",PAPUA BARAT,98411.0,Indonesia,,-0.8716413,131.2446118,https://maps.google.com/?cid=0x0:0x40151c61e7d35d7a
mall,Minimarket,SAGA Supermarket  Dept. Store,"Jalan A. Yani, Ruko Kuda Laut, Klademak, Kecamatan Sorong Manoi, Kota Sorong, Papua Bar. 98414","Ruko Kuda Laut, Klademak, Kecamatan Sorong Manoi, Kota Sorong",PAPUA BARAT,98414.0,Indonesia,951322784.0,-0.8765248,131.2576755,https://maps.google.com/?cid=0x0:0x963043ed646a7e1e
mall,Pusat Perbelanjaan,PARAGON SQUARE Mall  Hotel Sorong,"4874+4RH Paragon Square Mall, Jl. Basuki Rahmat Lt. 2, Sawagumu, Kec. Sorong Utara, Kota Sorong, Papua Bar. 98412","Jl. Basuki Rahmat Lt. 2, Sawagumu, Kec. Sorong Utara, Kota Sorong",PAPUA BARAT,98412.0,Indonesia,81247232214.0,-0.8871443,131.3071264,https://maps.google.com/?cid=0x0:0xd02481be48cb6e05
mall,Pusat Perbelanjaan,Kawasan SMC (Sorong Modern City),"46HV+6FP Sunset Point Sorong, Dekat, Jl. Yos. Sudarso, Kp. Baru, Distrik Sorong, Kota Sorong, Papua Bar. 98411","Dekat, Jl. Yos. Sudarso, Kp. Baru, Distrik Sorong, Kota Sorong",PAPUA BARAT,98411.0,Indonesia,,-0.8724848,131.2434905,https://maps.google.com/?cid=0x0:0xcd23323a4726adf5
mall,Pusat Perbelanjaan,Sorong Shopping  Jastip,"Jl. Sam Ratulangi No.67, Klasuur, Distrik Sorong, Kota Sorong, Papua Bar. 98411","Klasuur, Distrik Sorong, Kota Sorong",PAPUA BARAT,98411.0,Indonesia,82198292121.0,-0.8681704,131.252787,https://maps.google.com/?cid=0x0:0xef8bd3f38641d4a2
mall,Pusat Perbelanjaan,ð¹ððððððð ð´ððð ðºððððð,"Jl. Ahmad Yani No.21, Malabutor, Distrik Sorong, Kota Sorong, Papua Bar. 98412","Malabutor, Distrik Sorong, Kota Sorong",PAPUA BARAT,98412.0,Indonesia,82397090442.0,-0.8825922,131.2827947,https://maps.google.com/?cid=0x0:0x28c052b0f0f6e9a6
mall,mall,Paragon Mall Sorong,"Jl. Basuki Rahmat No.KM 9, Sawagumu, Kec. Sorong Utara, Kota Sorong, Papua Bar.","Kota Sorong, Papua Bar.",PAPUA BARAT,,Indonesia,,-0.8865295,131.3075066,https://maps.google.com/?cid=0x0:0xf013685eefc002dc
mall,Perusahaan Operasi Pelabuhan,Port De Sorong,"4776+R7P, OcÃ©an Pacifique Sud, Klaligi, Kota Sorong, Papua Bar.","Kota Sorong, Papua Bar.",PAPUA BARAT,,Indonesia,,-0.8854189,131.2606942,https://maps.google.com/?cid=0x0:0xce90b7f0dab6effe
mall,Minimarket,Indomart Kampung Salak,"5722+JXR, 5722+JWXKlawasiDistrik, Distrik Sorong Barat, Kota Sorong, Papua Bar. 98411","5722+JWXKlawasiDistrik, Distrik Sorong Barat, Kota Sorong",PAPUA BARAT,98411.0,Indonesia,,-0.8483872,131.2523787,https://maps.google.com/?cid=0x0:0x733890b9092d8463
mall,Toserba,Toko Mujur Jaya (TMJ),"47H2+74G, Kp. Baru, Distrik Sorong, Kota Sorong, Papua Bar. 98411","Kp. Baru, Distrik Sorong, Kota Sorong",PAPUA BARAT,98411.0,Indonesia,951323812.0,-0.871809,131.2503371,https://maps.google.com/?cid=0x0:0xa4cae70d445b9d1d
mall,Restoran,Solaria - Mall Sorong,"Solaria Ramayana Sorong, Jl. Ahmad Yani Lt Dasar, Klademak, Distrik Sorong, Kota Sorong, Papua Bar. 98416","Jl. Ahmad Yani Lt Dasar, Klademak, Distrik Sorong, Kota Sorong",PAPUA BARAT,98416.0,Indonesia,82128983365.0,-0.8821795,131.2756931,https://maps.google.com/?cid=0x0:0xfd165571f47dcbd9
mall,mall,Papua Bar. 98412,"Kota Sorong, Papua Bar.","Kota Sorong, Papua Bar.",PAPUA BARAT,,Indonesia,,-0.8445683,131.3911778,https://maps.google.com/?cid=0x0:0x6e32dbda4609ff48
mall,Pusat Perbelanjaan,Mega Mall Sorong,"Jalan Basuki Rahmat Klabulu, Malaimsimsa, Malaingkedi, Kec. Sorong Utara, Kota Sorong, Papua Bar. 98412","Malaimsimsa, Malaingkedi, Kec. Sorong Utara, Kota Sorong",PAPUA BARAT,98412.0,Indonesia,,-0.8873097,131.3012842,https://maps.google.com/?cid=0x0:0x364e52ce8985aa7
mall,Pusat Perbelanjaan,Mal Sorong,"479G+369, Klademak, Distrik Sorong, Kota Sorong, Papua Bar. 98412","Klademak, Distrik Sorong, Kota Sorong",PAPUA BARAT,98412.0,Indonesia,,-0.8823414,131.2755957,https://maps.google.com/?cid=0x0:0x4efad982776d0ca5
mall,Pusat Perbelanjaan,PARAGON SQUARE Mall  Hotel Sorong,"4874+4RH Paragon Square Mall, Jl. Basuki Rahmat Lt. 2, Sawagumu, Kec. Sorong Utara, Kota Sorong, Papua Bar. 98412","Jl. Basuki Rahmat Lt. 2, Sawagumu, Kec. Sorong Utara, Kota Sorong",PAPUA BARAT,98412.0,Indonesia,81247232214.0,-0.8871443,131.3071264,https://maps.google.com/?cid=0x0:0xd02481be48cb6e05
mall,mall,Paragon Mall Sorong,"Jl. Basuki Rahmat No.KM 9, Sawagumu, Kec. Sorong Utara, Kota Sorong, Papua Bar.","Kota Sorong, Papua Bar.",PAPUA BARAT,,Indonesia,,-0.8865295,131.3075066,https://maps.google.com/?cid=0x0:0xf013685eefc002dc
mall,Minimarket,SAGA Supermarket  Dept. Store,"Jalan A. Yani, Ruko Kuda Laut, Klademak, Kecamatan Sorong Manoi, Kota Sorong, Papua Bar. 98414","Ruko Kuda Laut, Klademak, Kecamatan Sorong Manoi, Kota Sorong",PAPUA BARAT,98414.0,Indonesia,951322784.0,-0.8765248,131.2576755,https://maps.google.com/?cid=0x0:0x963043ed646a7e1e
mall,Pusat Perbelanjaan,ð¹ððððððð ð´ððð ðºððððð,"Jl. Ahmad Yani No.21, Malabutor, Distrik Sorong, Kota Sorong, Papua Bar. 98412","Malabutor, Distrik Sorong, Kota Sorong",PAPUA BARAT,98412.0,Indonesia,82397090442.0,-0.8825922,131.2827947,https://maps.google.com/?cid=0x0:0x28c052b0f0f6e9a6
mall,Perusahaan Konstruksi,MALL SORONG MODERN CITY,"46HV+8RX, Jl. Yos. Sudarso, Kp. Baru, Distrik Sorong, Kota Sorong, Papua Bar. 98411","Jl. Yos. Sudarso, Kp. Baru, Distrik Sorong, Kota Sorong",PAPUA BARAT,98411.0,Indonesia,,-0.8716413,131.2446118,https://maps.google.com/?cid=0x0:0x40151c61e7d35d7a
mall,Pusat Perbelanjaan,Harco Square Sorong,"4857+XPR, Sawagumu, Kec. Sorong Utara, Kota Sorong, Papua Bar. 98412","Sawagumu, Kec. Sorong Utara, Kota Sorong",PAPUA BARAT,98412.0,Indonesia,,-0.8900075,131.3142639,https://maps.google.com/?cid=0x0:0x78fc85d26a08628a
mall,Pusat Perbelanjaan,Sorong City Square,"4867+3HC, Sawagumu, Kec. Sorong Utara, Kota Sorong, Papua Bar. 98412","Sawagumu, Kec. Sorong Utara, Kota Sorong",PAPUA BARAT,98412.0,Indonesia,,-0.8898196,131.3138844,https://maps.google.com/?cid=0x0:0xad1b87f4a839cdae
mall,Perusahaan Operasi Pelabuhan,Port De Sorong,"4776+R7P, OcÃ©an Pacifique Sud, Klaligi, Kota Sorong, Papua Bar.","Kota Sorong, Papua Bar.",PAPUA BARAT,,Indonesia,,-0.8854189,131.2606942,https://maps.google.com/?cid=0x0:0xce90b7f0dab6effe
mall,Grosir,AZKO PARAGON SORONG,"4874+GWG, Jl. Basuki Rahmat, Sawagumu, Kec. Sorong Utara, Kota Sorong, Papua Bar.","Kota Sorong, Papua Bar.",PAPUA BARAT,,Indonesia,,-0.886185,131.3073385,https://maps.google.com/?cid=0x0:0x34d596cc826d6f95
mall,Toko Suvenir,CV FIRA PAPUA (pusat oleh-oleh khas papua),"476P+FGQ, Jl. Selat Sunda, Remu Sel., Kecamatan Sorong Manoi, Kota Sorong, Papua Bar. 98412","Jl. Selat Sunda, Remu Sel., Kecamatan Sorong Manoi, Kota Sorong",PAPUA BARAT,98412.0,Indonesia,81248121759.0,-0.8887871,131.2863746,https://maps.google.com/?cid=0x0:0xc508cf5f2bbc99a5
mall,Pusat Perbelanjaan,Zone Zoo Ramayan Sorong,"479G+566, Klademak, Distrik Sorong, Kota Sorong, Papua Bar. 98412","Klademak, Distrik Sorong, Kota Sorong",PAPUA BARAT,98412.0,Indonesia,,-0.8820903,131.2755085,https://maps.google.com/?cid=0x0:0x95ccc8219506833e
mall,mall,Papua Bar. 98413,"Klabala, Distrik Sorong Barat, Kota Sorong, Papua Bar.","Kota Sorong, Papua Bar.",PAPUA BARAT,,Indonesia,,-0.8669518,131.254029,https://maps.google.com/?cid=0x0:0x352e1f254d39ea2b
mall,Pusat Perbelanjaan,Mal Sorong,"479G+369, Klademak, Distrik Sorong, Kota Sorong, Papua Bar. 98412","Klademak, Distrik Sorong, Kota Sorong",PAPUA BARAT,98412.0,Indonesia,,-0.8823414,131.2755957,https://maps.google.com/?cid=0x0:0x4efad982776d0ca5
mall,Pusat Perbelanjaan,Mega Mall Sorong,"Jalan Basuki Rahmat Klabulu, Malaimsimsa, Malaingkedi, Kec. Sorong Utara, Kota Sorong, Papua Bar. 98412","Malaimsimsa, Malaingkedi, Kec. Sorong Utara, Kota Sorong",PAPUA BARAT,98412.0,Indonesia,,-0.8873097,131.3012842,https://maps.google.com/?cid=0x0:0x364e52ce8985aa7
mall,Perusahaan Konstruksi,MALL SORONG MODERN CITY,"46HV+8RX, Jl. Yos. Sudarso, Kp. Baru, Distrik Sorong, Kota Sorong, Papua Bar. 98411","Jl. Yos. Sudarso, Kp. Baru, Distrik Sorong, Kota Sorong",PAPUA BARAT,98411.0,Indonesia,,-0.8716413,131.2446118,https://maps.google.com/?cid=0x0:0x40151c61e7d35d7a
mall,Pusat Perbelanjaan,Sorong Shopping  Jastip,"Jl. Sam Ratulangi No.67, Klasuur, Distrik Sorong, Kota Sorong, Papua Bar. 98411","Klasuur, Distrik Sorong, Kota Sorong",PAPUA BARAT,98411.0,Indonesia,82198292121.0,-0.8681704,131.252787,https://maps.google.com/?cid=0x0:0xef8bd3f38641d4a2
mall,Pusat Perbelanjaan,PARAGON SQUARE Mall  Hotel Sorong,"4874+4RH Paragon Square Mall, Jl. Basuki Rahmat Lt. 2, Sawagumu, Kec. Sorong Utara, Kota Sorong, Papua Bar. 98412","Jl. Basuki Rahmat Lt. 2, Sawagumu, Kec. Sorong Utara, Kota Sorong",PAPUA BARAT,98412.0,Indonesia,81247232214.0,-0.8871443,131.3071264,https://maps.google.com/?cid=0x0:0xd02481be48cb6e05
mall,Pusat Perbelanjaan,ð¹ððððððð ð´ððð ðºððððð,"Jl. Ahmad Yani No.21, Malabutor, Distrik Sorong, Kota Sorong, Papua Bar. 98412","Malabutor, Distrik Sorong, Kota Sorong",PAPUA BARAT,98412.0,Indonesia,82397090442.0,-0.8825922,131.2827947,https://maps.google.com/?cid=0x0:0x28c052b0f0f6e9a6
mall,Grosir,AZKO PARAGON SORONG,"4874+GWG, Jl. Basuki Rahmat, Sawagumu, Kec. Sorong Utara, Kota Sorong, Papua Bar.","Kota Sorong, Papua Bar.",PAPUA BARAT,,Indonesia,,-0.886185,131.3073385,https://maps.google.com/?cid=0x0:0x34d596cc826d6f95
mall,Pusat Perbelanjaan,Kawasan SMC (Sorong Modern City),"46HV+6FP Sunset Point Sorong, Dekat, Jl. Yos. Sudarso, Kp. Baru, Distrik Sorong, Kota Sorong, Papua Bar. 98411","Dekat, Jl. Yos. Sudarso, Kp. Baru, Distrik Sorong, Kota Sorong",PAPUA BARAT,98411.0,Indonesia,,-0.8724848,131.2434905,https://maps.google.com/?cid=0x0:0xcd23323a4726adf5
mall,Pusat Perbelanjaan,Sorong City Square,"4867+3HC, Sawagumu, Kec. Sorong Utara, Kota Sorong, Papua Bar. 98412","Sawagumu, Kec. Sorong Utara, Kota Sorong",PAPUA BARAT,98412.0,Indonesia,,-0.8898196,131.3138844,https://maps.google.com/?cid=0x0:0xad1b87f4a839cdae
mall,Pusat Perbelanjaan,Mabello Sorong,"Jl. Cendrawasih No.11, Klawuyuk, Kec. Sorong Utara, Kota Sorong, Papua Bar. 98416","Klawuyuk, Kec. Sorong Utara, Kota Sorong",PAPUA BARAT,98416.0,Indonesia,82292247585.0,-0.8905827,131.3233806,https://maps.google.com/?cid=0x0:0x8b6c1d23b40f32bc
mall,mall,Papua Bar. 98414,Papua Bar.,Papua Bar.,PAPUA BARAT,,Indonesia,,-0.923988,131.3811577,https://maps.google.com/?cid=0x0:0xa17d4a17a04184b
mall,Pusat Perbelanjaan,Mega Mall Sorong,"Jalan Basuki Rahmat Klabulu, Malaimsimsa, Malaingkedi, Kec. Sorong Utara, Kota Sorong, Papua Bar. 98412","Malaimsimsa, Malaingkedi, Kec. Sorong Utara, Kota Sorong",PAPUA BARAT,98412.0,Indonesia,,-0.8873097,131.3012842,https://maps.google.com/?cid=0x0:0x364e52ce8985aa7
mall,Pusat Perbelanjaan,RAMAYANA Mall Sorong,"Jl. Wahid Hasyim 220 A-B, Jakarta, Papua Bar. 10250",Jakarta,PAPUA BARAT,10250.0,Indonesia,951332505.0,-0.8820615,131.2755023,https://maps.google.com/?cid=0x0:0x595b97e0cac05b45
mall,Pusat Perbelanjaan,Saga Aimas,"28VG+26V, Jl. Nangka, Malawili, Kec. Aimas, Kabupaten Sorong, Papua Bar. 98414","Jl. Nangka, Malawili, Kec. Aimas, Kabupaten Sorong",PAPUA BARAT,98414.0,Indonesia,81351816880.0,-0.9574598,131.3257559,https://maps.google.com/?cid=0x0:0x2ba45ddc0e9b2391
mall,Toko,Toko Senyum 5000,"Malawili, Kec. Aimas, Kabupaten Sorong, Papua Bar. 98414","Kec. Aimas, Kabupaten Sorong",PAPUA BARAT,98414.0,Indonesia,81248132769.0,-0.9571926,131.334055,https://maps.google.com/?cid=0x0:0x6628faa192e06d59
mall,Pusat Perbelanjaan,PARAGON SQUARE Mall  Hotel Sorong,"4874+4RH Paragon Square Mall, Jl. Basuki Rahmat Lt. 2, Sawagumu, Kec. Sorong Utara, Kota Sorong, Papua Bar. 98412","Jl. Basuki Rahmat Lt. 2, Sawagumu, Kec. Sorong Utara, Kota Sorong",PAPUA BARAT,98412.0,Indonesia,81247232214.0,-0.8871443,131.3071264,https://maps.google.com/?cid=0x0:0xd02481be48cb6e05
mall,Toko,Toko Selayar Pasar Pagi,"28R7+R8W, Jl. Buncis, Malawele, Kec. Aimas, Kabupaten Sorong, Papua Bar. 98414","Jl. Buncis, Malawele, Kec. Aimas, Kabupaten Sorong",PAPUA BARAT,98414.0,Indonesia,,-0.9578772,131.3133255,https://maps.google.com/?cid=0x0:0x973797a7f478274d
mall,Minimarket,INDOMARET KLAMASEN,"2993+5GH, Klamasen, Distrik Mariat, Kabupaten Sorong, Papua Bar. 98416","Klamasen, Distrik Mariat, Kabupaten Sorong",PAPUA BARAT,98416.0,Indonesia,,-0.9820598,131.3537109,https://maps.google.com/?cid=0x0:0x73fbcb4854378be4
mall,Pusat Perbelanjaan,Sorongg Simba,"38VC+722, Jl. Sungai Warmun, Klamana, Distrik Sorong Timur, Kota Sorong, Papua Bar. 98416","Jl. Sungai Warmun, Klamana, Distrik Sorong Timur, Kota Sorong",PAPUA BARAT,98416.0,Indonesia,,-0.9068692,131.3200205,https://maps.google.com/?cid=0x0:0xe679c88857ba957b
mall,Pusat Perbelanjaan,Gema outlet,"482H+7MW, Klasaman, Distrik Sorong Timur, Kota Sorong, Papua Bar. 98416","Klasaman, Distrik Sorong Timur, Kota Sorong",PAPUA BARAT,98416.0,Indonesia,85244398702.0,-0.8992675,131.3291935,https://maps.google.com/?cid=0x0:0xf0698f80aae7cf05
mall,Pusat Perbelanjaan,Foredi Sorong,"38PM+CWX, Klasaman, Distrik Sorong Timur, Kota Sorong, Papua Bar. 98416","Klasaman, Distrik Sorong Timur, Kota Sorong",PAPUA BARAT,98416.0,Indonesia,85254150052.0,-0.9138856,131.3348704,https://maps.google.com/?cid=0x0:0xa587e980c5229003
mall,Kios,Arsa,"38PP+C2F, Klasaman, Distrik Sorong Timur, Kota Sorong, Papua Bar. 98416","Klasaman, Distrik Sorong Timur, Kota Sorong",PAPUA BARAT,98416.0,Indonesia,82124474563.0,-0.9139386,131.3350507,https://maps.google.com/?cid=0x0:0xc4e794f6bd1863c5
mall,mall,Paragon Mall Sorong,"Jl. Basuki Rahmat No.KM 9, Sawagumu, Kec. Sorong Utara, Kota Sorong, Papua Bar.","Kota Sorong, Papua Bar.",PAPUA BARAT,,Indonesia,,-0.8865295,131.3075066,https://maps.google.com/?cid=0x0:0xf013685eefc002dc
mall,Toko Swalayan,ADAM MART GROSIR DAN ECERAN,"28VM+3J5, Jl. Klamono, Malawili, Kec. Aimas, Kabupaten Sorong, Papua Bar. 98414","Jl. Klamono, Malawili, Kec. Aimas, Kabupaten Sorong",PAPUA BARAT,98414.0,Indonesia,,-0.9572969,131.3342839,https://maps.google.com/?cid=0x0:0x5aed3dadd899196b
mall,mall,Papua Bar. 98415,"Distrik Mariat, Kabupaten Sorong, Papua Bar.","Kabupaten Sorong, Papua Bar.",PAPUA BARAT,,Indonesia,,-1.0184261,131.3510866,https://maps.google.com/?cid=0x0:0x4d8344d873702960
mall,Pusat Perbelanjaan,Mega Mall Sorong,"Jalan Basuki Rahmat Klabulu, Malaimsimsa, Malaingkedi, Kec. Sorong Utara, Kota Sorong, Papua Bar. 98412","Malaimsimsa, Malaingkedi, Kec. Sorong Utara, Kota Sorong",PAPUA BARAT,98412.0,Indonesia,,-0.8873097,131.3012842,https://maps.google.com/?cid=0x0:0x364e52ce8985aa7
mall,Pusat Perbelanjaan,Mal Sorong,"479G+369, Klademak, Distrik Sorong, Kota Sorong, Papua Bar. 98412","Klademak, Distrik Sorong, Kota Sorong",PAPUA BARAT,98412.0,Indonesia,,-0.8823414,131.2755957,https://maps.google.com/?cid=0x0:0x4efad982776d0ca5
mall,Pusat Perbelanjaan,PARAGON SQUARE Mall  Hotel Sorong,"4874+4RH Paragon Square Mall, Jl. Basuki Rahmat Lt. 2, Sawagumu, Kec. Sorong Utara, Kota Sorong, Papua Bar. 98412","Jl. Basuki Rahmat Lt. 2, Sawagumu, Kec. Sorong Utara, Kota Sorong",PAPUA BARAT,98412.0,Indonesia,81247232214.0,-0.8871443,131.3071264,https://maps.google.com/?cid=0x0:0xd02481be48cb6e05
mall,Perusahaan Konstruksi,MALL SORONG MODERN CITY,"46HV+8RX, Jl. Yos. Sudarso, Kp. Baru, Distrik Sorong, Kota Sorong, Papua Bar. 98411","Jl. Yos. Sudarso, Kp. Baru, Distrik Sorong, Kota Sorong",PAPUA BARAT,98411.0,Indonesia,,-0.8716413,131.2446118,https://maps.google.com/?cid=0x0:0x40151c61e7d35d7a
mall,Toko Ikan,Wijaya budidaya,"X8J9+WRR, Mariyai, Distrik Mariat, Kabupaten Sorong, Papua Bar. 98415","Mariyai, Distrik Mariat, Kabupaten Sorong",PAPUA BARAT,98415.0,Indonesia,,-1.0176331,131.3195166,https://maps.google.com/?cid=0x0:0xda419fb00d7b0b9b
mall,Pusat Perbelanjaan,Penggilingan Nurlina,"X8J9+2WH, Jl. Kamboja, Mariyai, Distrik Mariat, Kabupaten Sorong, Papua Bar. 98415","Jl. Kamboja, Mariyai, Distrik Mariat, Kabupaten Sorong",PAPUA BARAT,98415.0,Indonesia,81344616846.0,-1.0199328,131.3198677,https://maps.google.com/?cid=0x0:0x9b5c4c2fc5c263e1
mall,Pusat Perbelanjaan,Somay D'ajeng,"X8P9+8HQ, Mariyai, Distrik Mariat, Kabupaten Sorong, Papua Bar. 98415","Mariyai, Distrik Mariat, Kabupaten Sorong",PAPUA BARAT,98415.0,Indonesia,85254107690.0,-1.0141511,131.3189724,https://maps.google.com/?cid=0x0:0xc49948bc28a86515
mall,Pembangunan Perumahan,INDOMARET MARIYAI,"X8R9+WJM, Jl. Flamboyan, Klasuluk, Distrik Mariat, Kabupaten Sorong, Papua Bar. 98415","Jl. Flamboyan, Klasuluk, Distrik Mariat, Kabupaten Sorong",PAPUA BARAT,98415.0,Indonesia,,-1.0076162,131.3190203,https://maps.google.com/?cid=0x0:0x12b64cb10b52e
mall,Minimarket,INDOMARET KLAMASEN,"2993+5GH, Klamasen, Distrik Mariat, Kabupaten Sorong, Papua Bar. 98416","Klamasen, Distrik Mariat, Kabupaten Sorong",PAPUA BARAT,98416.0,Indonesia,,-0.9820598,131.3537109,https://maps.google.com/?cid=0x0:0x73fbcb4854378be4
mall,Pusat Perbelanjaan,Penggilingan Nurlina SP2 Jl.kamboja,"X8J8+HMW, Jl. Menur, Mariyai, Distrik Mariat, Kabupaten Sorong, Papua Bar. 98415","Jl. Menur, Mariyai, Distrik Mariat, Kabupaten Sorong",PAPUA BARAT,98415.0,Indonesia,81344616846.0,-1.0185077,131.3166941,https://maps.google.com/?cid=0x0:0xfbe89c4ff017a355
mall,Toko,Toko Pangan Utama,"282V+RVP, Klamalu, Distrik Mariat, Kabupaten Sorong, Papua Bar. 98416","Klamalu, Distrik Mariat, Kabupaten Sorong",PAPUA BARAT,98416.0,Indonesia,81241989889.0,-0.9979155,131.3447105,https://maps.google.com/?cid=0x0:0x9b431437dddae791
mall,Toko,Toserba Nurul,"Makbalim, Mayamuk, Kabupaten Sorong, Papua Bar. 98451","Mayamuk, Kabupaten Sorong",PAPUA BARAT,98451.0,Indonesia,,-1.0642917,131.2852025,https://maps.google.com/?cid=0x0:0xc6bbf8fbc4a7c86b
mall,Pusat Perbelanjaan,ð¹ððððððð ð´ððð ðºððððð,"Jl. Ahmad Yani No.21, Malabutor, Distrik Sorong, Kota Sorong, Papua Bar. 98412","Malabutor, Distrik Sorong, Kota Sorong",PAPUA BARAT,98412.0,Indonesia,82397090442.0,-0.8825922,131.2827947,https://maps.google.com/?cid=0x0:0x28c052b0f0f6e9a6
mall,mall,Papua Bar. 98417,"Kabupaten Sorong, Papua Bar.","Kabupaten Sorong, Papua Bar.",PAPUA BARAT,,Indonesia,,-1.0174852,131.4112125,https://maps.google.com/?cid=0x0:0xc20f17b25d0eed85
mall,Pusat Perbelanjaan,Mega Mall Sorong,"Jalan Basuki Rahmat Klabulu, Malaimsimsa, Malaingkedi, Kec. Sorong Utara, Kota Sorong, Papua Bar. 98412","Malaimsimsa, Malaingkedi, Kec. Sorong Utara, Kota Sorong",PAPUA BARAT,98412.0,Indonesia,,-0.8873097,131.3012842,https://maps.google.com/?cid=0x0:0x364e52ce8985aa7
mall,Pusat Perbelanjaan,Mal Sorong,"479G+369, Klademak, Distrik Sorong, Kota Sorong, Papua Bar. 98412","Klademak, Distrik Sorong, Kota Sorong",PAPUA BARAT,98412.0,Indonesia,,-0.8823414,131.2755957,https://maps.google.com/?cid=0x0:0x4efad982776d0ca5
mall,Pusat Perbelanjaan,PARAGON SQUARE Mall  Hotel Sorong,"4874+4RH Paragon Square Mall, Jl. Basuki Rahmat Lt. 2, Sawagumu, Kec. Sorong Utara, Kota Sorong, Papua Bar. 98412","Jl. Basuki Rahmat Lt. 2, Sawagumu, Kec. Sorong Utara, Kota Sorong",PAPUA BARAT,98412.0,Indonesia,81247232214.0,-0.8871443,131.3071264,https://maps.google.com/?cid=0x0:0xd02481be48cb6e05
mall,Perusahaan Konstruksi,MALL SORONG MODERN CITY,"46HV+8RX, Jl. Yos. Sudarso, Kp. Baru, Distrik Sorong, Kota Sorong, Papua Bar. 98411","Jl. Yos. Sudarso, Kp. Baru, Distrik Sorong, Kota Sorong",PAPUA BARAT,98411.0,Indonesia,,-0.8716413,131.2446118,https://maps.google.com/?cid=0x0:0x40151c61e7d35d7a
mall,Pusat Perbelanjaan,ð¹ððððððð ð´ððð ðºððððð,"Jl. Ahmad Yani No.21, Malabutor, Distrik Sorong, Kota Sorong, Papua Bar. 98412","Malabutor, Distrik Sorong, Kota Sorong",PAPUA BARAT,98412.0,Indonesia,82397090442.0,-0.8825922,131.2827947,https://maps.google.com/?cid=0x0:0x28c052b0f0f6e9a6
mall,Grosir,AZKO PARAGON SORONG,"4874+GWG, Jl. Basuki Rahmat, Sawagumu, Kec. Sorong Utara, Kota Sorong, Papua Bar.","Kota Sorong, Papua Bar.",PAPUA BARAT,,Indonesia,,-0.886185,131.3073385,https://maps.google.com/?cid=0x0:0x34d596cc826d6f95
mall,Pusat Perbelanjaan,Kawasan SMC (Sorong Modern City),"46HV+6FP Sunset Point Sorong, Dekat, Jl. Yos. Sudarso, Kp. Baru, Distrik Sorong, Kota Sorong, Papua Bar. 98411","Dekat, Jl. Yos. Sudarso, Kp. Baru, Distrik Sorong, Kota Sorong",PAPUA BARAT,98411.0,Indonesia,,-0.8724848,131.2434905,https://maps.google.com/?cid=0x0:0xcd23323a4726adf5
mall,ATM,Mandiri ATM Sorong Mega Mall,"Jl. Basuki Rahmat No.Km. 7, Mariat Gn., Kec. Aimas, Kabupaten Sorong, Papua Bar. 98417","Mariat Gn., Kec. Aimas, Kabupaten Sorong",PAPUA BARAT,98417.0,Indonesia,2152997777.0,-1.0174852,131.4112125,https://maps.google.com/?cid=0x0:0x17f7d2a618bcfcab
mall,mall,Distrik Sorong Timur,"Kota Sorong, Papua Bar.","Kota Sorong, Papua Bar.",PAPUA BARAT,,Indonesia,,-0.9026463,131.3235791,https://maps.google.com/?cid=0x0:0xfda18302f5d09cf1
mall,mall,Paragon Mall Sorong,"Jl. Basuki Rahmat No.KM 9, Sawagumu, Kec. Sorong Utara, Kota Sorong, Papua Bar.","Kota Sorong, Papua Bar.",PAPUA BARAT,,Indonesia,,-0.8865295,131.3075066,https://maps.google.com/?cid=0x0:0xf013685eefc002dc
mall,Pusat Perbelanjaan,Sorong City Square,"4867+3HC, Sawagumu, Kec. Sorong Utara, Kota Sorong, Papua Bar. 98412","Sawagumu, Kec. Sorong Utara, Kota Sorong",PAPUA BARAT,98412.0,Indonesia,,-0.8898196,131.3138844,https://maps.google.com/?cid=0x0:0xad1b87f4a839cdae
mall,Pusat Perbelanjaan,Gema outlet,"482H+7MW, Klasaman, Distrik Sorong Timur, Kota Sorong, Papua Bar. 98416","Klasaman, Distrik Sorong Timur, Kota Sorong",PAPUA BARAT,98416.0,Indonesia,85244398702.0,-0.8992675,131.3291935,https://maps.google.com/?cid=0x0:0xf0698f80aae7cf05
mall,Pusat Perbelanjaan,Sorongg Simba,"38VC+722, Jl. Sungai Warmun, Klamana, Distrik Sorong Timur, Kota Sorong, Papua Bar. 98416","Jl. Sungai Warmun, Klamana, Distrik Sorong Timur, Kota Sorong",PAPUA BARAT,98416.0,Indonesia,,-0.9068692,131.3200205,https://maps.google.com/?cid=0x0:0xe679c88857ba957b
mall,mall,Papua Bar. 98418,"Klasabi, Kecamatan Sorong Manoi, Kota Sorong, Papua Bar.","Kota Sorong, Papua Bar.",PAPUA BARAT,,Indonesia,,-0.9009162,131.3028579,https://maps.google.com/?cid=0x0:0x586b4aa754f22adb
mall,Pusat Perbelanjaan,RAMAYANA Mall Sorong,"Jl. Wahid Hasyim 220 A-B, Jakarta, Papua Bar. 10250",Jakarta,PAPUA BARAT,10250.0,Indonesia,951332505.0,-0.8820615,131.2755023,https://maps.google.com/?cid=0x0:0x595b97e0cac05b45
mall,Pusat Perbelanjaan,Mega Mall Sorong,"Jalan Basuki Rahmat Klabulu, Malaimsimsa, Malaingkedi, Kec. Sorong Utara, Kota Sorong, Papua Bar. 98412","Malaimsimsa, Malaingkedi, Kec. Sorong Utara, Kota Sorong",PAPUA BARAT,98412.0,Indonesia,,-0.8873097,131.3012842,https://maps.google.com/?cid=0x0:0x364e52ce8985aa7
mall,Pusat Perbelanjaan,PARAGON SQUARE Mall  Hotel Sorong,"4874+4RH Paragon Square Mall, Jl. Basuki Rahmat Lt. 2, Sawagumu, Kec. Sorong Utara, Kota Sorong, Papua Bar. 98412","Jl. Basuki Rahmat Lt. 2, Sawagumu, Kec. Sorong Utara, Kota Sorong",PAPUA BARAT,98412.0,Indonesia,81247232214.0,-0.8871443,131.3071264,https://maps.google.com/?cid=0x0:0xd02481be48cb6e05
mall,Perusahaan Konstruksi,MALL SORONG MODERN CITY,"46HV+8RX, Jl. Yos. Sudarso, Kp. Baru, Distrik Sorong, Kota Sorong, Papua Bar. 98411","Jl. Yos. Sudarso, Kp. Baru, Distrik Sorong, Kota Sorong",PAPUA BARAT,98411.0,Indonesia,,-0.8716413,131.2446118,https://maps.google.com/?cid=0x0:0x40151c61e7d35d7a
mall,Pusat Perbelanjaan,ð¹ððððððð ð´ððð ðºððððð,"Jl. Ahmad Yani No.21, Malabutor, Distrik Sorong, Kota Sorong, Papua Bar. 98412","Malabutor, Distrik Sorong, Kota Sorong",PAPUA BARAT,98412.0,Indonesia,82397090442.0,-0.8825922,131.2827947,https://maps.google.com/?cid=0x0:0x28c052b0f0f6e9a6
mall,Grosir,AZKO PARAGON SORONG,"4874+GWG, Jl. Basuki Rahmat, Sawagumu, Kec. Sorong Utara, Kota Sorong, Papua Bar.","Kota Sorong, Papua Bar.",PAPUA BARAT,,Indonesia,,-0.886185,131.3073385,https://maps.google.com/?cid=0x0:0x34d596cc826d6f95
mall,Pusat Perbelanjaan,Kawasan SMC (Sorong Modern City),"46HV+6FP Sunset Point Sorong, Dekat, Jl. Yos. Sudarso, Kp. Baru, Distrik Sorong, Kota Sorong, Papua Bar. 98411","Dekat, Jl. Yos. Sudarso, Kp. Baru, Distrik Sorong, Kota Sorong",PAPUA BARAT,98411.0,Indonesia,,-0.8724848,131.2434905,https://maps.google.com/?cid=0x0:0xcd23323a4726adf5
mall,Pusat Perbelanjaan,Fiforlif Sorong,"38PP+F2F, Klasaman, Distrik Sorong Timur, Kota Sorong, Papua Bar. 98416","Klasaman, Distrik Sorong Timur, Kota Sorong",PAPUA BARAT,98416.0,Indonesia,85254150052.0,-0.9138123,131.3350521,https://maps.google.com/?cid=0x0:0x8843c63dde31d82a
mall,mall,Distrik Sorong Timur,"Kota Sorong, Papua Bar.","Kota Sorong, Papua Bar.",PAPUA BARAT,,Indonesia,,-0.9026463,131.3235791,https://maps.google.com/?cid=0x0:0xfda18302f5d09cf1
mall,mall,Paragon Mall Sorong,"Jl. Basuki Rahmat No.KM 9, Sawagumu, Kec. Sorong Utara, Kota Sorong, Papua Bar.","Kota Sorong, Papua Bar.",PAPUA BARAT,,Indonesia,,-0.8865295,131.3075066,https://maps.google.com/?cid=0x0:0xf013685eefc002dc
mall,Pusat Perbelanjaan,Sorong City Square,"4867+3HC, Sawagumu, Kec. Sorong Utara, Kota Sorong, Papua Bar. 98412","Sawagumu, Kec. Sorong Utara, Kota Sorong",PAPUA BARAT,98412.0,Indonesia,,-0.8898196,131.3138844,https://maps.google.com/?cid=0x0:0xad1b87f4a839cdae
mall,Pusat Perbelanjaan,Harco Square Sorong,"4857+XPR, Sawagumu, Kec. Sorong Utara, Kota Sorong, Papua Bar. 98412","Sawagumu, Kec. Sorong Utara, Kota Sorong",PAPUA BARAT,98412.0,Indonesia,,-0.8900075,131.3142639,https://maps.google.com/?cid=0x0:0x78fc85d26a08628a
mall,Pusat Perbelanjaan,Gema outlet,"482H+7MW, Klasaman, Distrik Sorong Timur, Kota Sorong, Papua Bar. 98416","Klasaman, Distrik Sorong Timur, Kota Sorong",PAPUA BARAT,98416.0,Indonesia,85244398702.0,-0.8992675,131.3291935,https://maps.google.com/?cid=0x0:0xf0698f80aae7cf05
mall,mall,Papua Bar. 98419,"Kabupaten Sorong, Papua Bar.","Kabupaten Sorong, Papua Bar.",PAPUA BARAT,,Indonesia,,-0.9516965,131.4612677,https://maps.google.com/?cid=0x0:0x1846ff160c020f5b
mall,Pusat Perbelanjaan,Mega Mall Sorong,"Jalan Basuki Rahmat Klabulu, Malaimsimsa, Malaingkedi, Kec. Sorong Utara, Kota Sorong, Papua Bar. 98412","Malaimsimsa, Malaingkedi, Kec. Sorong Utara, Kota Sorong",PAPUA BARAT,98412.0,Indonesia,,-0.8873097,131.3012842,https://maps.google.com/?cid=0x0:0x364e52ce8985aa7
mall,Pusat Perbelanjaan,Mal Sorong,"479G+369, Klademak, Distrik Sorong, Kota Sorong, Papua Bar. 98412","Klademak, Distrik Sorong, Kota Sorong",PAPUA BARAT,98412.0,Indonesia,,-0.8823414,131.2755957,https://maps.google.com/?cid=0x0:0x4efad982776d0ca5
mall,Pusat Perbelanjaan,PARAGON SQUARE Mall  Hotel Sorong,"4874+4RH Paragon Square Mall, Jl. Basuki Rahmat Lt. 2, Sawagumu, Kec. Sorong Utara, Kota Sorong, Papua Bar. 98412","Jl. Basuki Rahmat Lt. 2, Sawagumu, Kec. Sorong Utara, Kota Sorong",PAPUA BARAT,98412.0,Indonesia,81247232214.0,-0.8871443,131.3071264,https://maps.google.com/?cid=0x0:0xd02481be48cb6e05
mall,Perusahaan Konstruksi,MALL SORONG MODERN CITY,"46HV+8RX, Jl. Yos. Sudarso, Kp. Baru, Distrik Sorong, Kota Sorong, Papua Bar. 98411","Jl. Yos. Sudarso, Kp. Baru, Distrik Sorong, Kota Sorong",PAPUA BARAT,98411.0,Indonesia,,-0.8716413,131.2446118,https://maps.google.com/?cid=0x0:0x40151c61e7d35d7a
mall,Grosir,AZKO PARAGON SORONG,"4874+GWG, Jl. Basuki Rahmat, Sawagumu, Kec. Sorong Utara, Kota Sorong, Papua Bar.","Kota Sorong, Papua Bar.",PAPUA BARAT,,Indonesia,,-0.886185,131.3073385,https://maps.google.com/?cid=0x0:0x34d596cc826d6f95
mall,Pusat Perbelanjaan,Sorong City Square,"4867+3HC, Sawagumu, Kec. Sorong Utara, Kota Sorong, Papua Bar. 98412","Sawagumu, Kec. Sorong Utara, Kota Sorong",PAPUA BARAT,98412.0,Indonesia,,-0.8898196,131.3138844,https://maps.google.com/?cid=0x0:0xad1b87f4a839cdae
mall,Pusat Perbelanjaan,ð¹ððððððð ð´ððð ðºððððð,"Jl. Ahmad Yani No.21, Malabutor, Distrik Sorong, Kota Sorong, Papua Bar. 98412","Malabutor, Distrik Sorong, Kota Sorong",PAPUA BARAT,98412.0,Indonesia,82397090442.0,-0.8825922,131.2827947,https://maps.google.com/?cid=0x0:0x28c052b0f0f6e9a6
mall,Pusat Perbelanjaan,Kawasan SMC (Sorong Modern City),"46HV+6FP Sunset Point Sorong, Dekat, Jl. Yos. Sudarso, Kp. Baru, Distrik Sorong, Kota Sorong, Papua Bar. 98411","Dekat, Jl. Yos. Sudarso, Kp. Baru, Distrik Sorong, Kota Sorong",PAPUA BARAT,98411.0,Indonesia,,-0.8724848,131.2434905,https://maps.google.com/?cid=0x0:0xcd23323a4726adf5
mall,ATM,Mandiri ATM Sorong Mega Mall,"Jl. Basuki Rahmat No.Km. 7, Mariat Gn., Kec. Aimas, Kabupaten Sorong, Papua Bar. 98417","Mariat Gn., Kec. Aimas, Kabupaten Sorong",PAPUA BARAT,98417.0,Indonesia,2152997777.0,-1.0174852,131.4112125,https://maps.google.com/?cid=0x0:0x17f7d2a618bcfcab
mall,Pusat Perbelanjaan,Mabello Sorong,"Jl. Cendrawasih No.11, Klawuyuk, Kec. Sorong Utara, Kota Sorong, Papua Bar. 98416","Klawuyuk, Kec. Sorong Utara, Kota Sorong",PAPUA BARAT,98416.0,Indonesia,82292247585.0,-0.8905827,131.3233806,https://maps.google.com/?cid=0x0:0x8b6c1d23b40f32bc
mall,Pusat Perbelanjaan,Fiforlif Sorong,"38PP+F2F, Klasaman, Distrik Sorong Timur, Kota Sorong, Papua Bar. 98416","Klasaman, Distrik Sorong Timur, Kota Sorong",PAPUA BARAT,98416.0,Indonesia,85254150052.0,-0.9138123,131.3350521,https://maps.google.com/?cid=0x0:0x8843c63dde31d82a
mall,mall,Kecamatan Sorong Manoi,"Kota Sorong, Papua Bar.","Kota Sorong, Papua Bar.",PAPUA BARAT,,Indonesia,,-0.8875965,131.2870369,https://maps.google.com/?cid=0x0:0xeae8019c83ed0741
mall,Pusat Perbelanjaan,Mega Mall Sorong,"Jalan Basuki Rahmat Klabulu, Malaimsimsa, Malaingkedi, Kec. Sorong Utara, Kota Sorong, Papua Bar. 98412","Malaimsimsa, Malaingkedi, Kec. Sorong Utara, Kota Sorong",PAPUA BARAT,98412.0,Indonesia,,-0.8873097,131.3012842,https://maps.google.com/?cid=0x0:0x364e52ce8985aa7
mall,Pusat Perbelanjaan,Mal Sorong,"479G+369, Klademak, Distrik Sorong, Kota Sorong, Papua Bar. 98412","Klademak, Distrik Sorong, Kota Sorong",PAPUA BARAT,98412.0,Indonesia,,-0.8823414,131.2755957,https://maps.google.com/?cid=0x0:0x4efad982776d0ca5
mall,Minimarket,SAGA Supermarket  Dept. Store,"Jalan A. Yani, Ruko Kuda Laut, Klademak, Kecamatan Sorong Manoi, Kota Sorong, Papua Bar. 98414","Ruko Kuda Laut, Klademak, Kecamatan Sorong Manoi, Kota Sorong",PAPUA BARAT,98414.0,Indonesia,951322784.0,-0.8765248,131.2576755,https://maps.google.com/?cid=0x0:0x963043ed646a7e1e
mall,mall,Paragon Mall Sorong,"Jl. Basuki Rahmat No.KM 9, Sawagumu, Kec. Sorong Utara, Kota Sorong, Papua Bar.","Kota Sorong, Papua Bar.",PAPUA BARAT,,Indonesia,,-0.8865295,131.3075066,https://maps.google.com/?cid=0x0:0xf013685eefc002dc
mall,Pusat Perbelanjaan,PARAGON SQUARE Mall  Hotel Sorong,"4874+4RH Paragon Square Mall, Jl. Basuki Rahmat Lt. 2, Sawagumu, Kec. Sorong Utara, Kota Sorong, Papua Bar. 98412","Jl. Basuki Rahmat Lt. 2, Sawagumu, Kec. Sorong Utara, Kota Sorong",PAPUA BARAT,98412.0,Indonesia,81247232214.0,-0.8871443,131.3071264,https://maps.google.com/?cid=0x0:0xd02481be48cb6e05
mall,Perusahaan Konstruksi,MALL SORONG MODERN CITY,"46HV+8RX, Jl. Yos. Sudarso, Kp. Baru, Distrik Sorong, Kota Sorong, Papua Bar. 98411","Jl. Yos. Sudarso, Kp. Baru, Distrik Sorong, Kota Sorong",PAPUA BARAT,98411.0,Indonesia,,-0.8716413,131.2446118,https://maps.google.com/?cid=0x0:0x40151c61e7d35d7a
mall,Pusat Perbelanjaan,ð¹ððððððð ð´ððð ðºððððð,"Jl. Ahmad Yani No.21, Malabutor, Distrik Sorong, Kota Sorong, Papua Bar. 98412","Malabutor, Distrik Sorong, Kota Sorong",PAPUA BARAT,98412.0,Indonesia,82397090442.0,-0.8825922,131.2827947,https://maps.google.com/?cid=0x0:0x28c052b0f0f6e9a6
mall,Pusat Perbelanjaan,Mabello Sorong,"Jl. Cendrawasih No.11, Klawuyuk, Kec. Sorong Utara, Kota Sorong, Papua Bar. 98416","Klawuyuk, Kec. Sorong Utara, Kota Sorong",PAPUA BARAT,98416.0,Indonesia,82292247585.0,-0.8905827,131.3233806,https://maps.google.com/?cid=0x0:0x8b6c1d23b40f32bc
mall,Grosir,AZKO PARAGON SORONG,"4874+GWG, Jl. Basuki Rahmat, Sawagumu, Kec. Sorong Utara, Kota Sorong, Papua Bar.","Kota Sorong, Papua Bar.",PAPUA BARAT,,Indonesia,,-0.886185,131.3073385,https://maps.google.com/?cid=0x0:0x34d596cc826d6f95
mall,Perusahaan Operasi Pelabuhan,Port De Sorong,"4776+R7P, OcÃ©an Pacifique Sud, Klaligi, Kota Sorong, Papua Bar.","Kota Sorong, Papua Bar.",PAPUA BARAT,,Indonesia,,-0.8854189,131.2606942,https://maps.google.com/?cid=0x0:0xce90b7f0dab6effe
mall,Pusat Perbelanjaan,Sorong City Square,"4867+3HC, Sawagumu, Kec. Sorong Utara, Kota Sorong, Papua Bar. 98412","Sawagumu, Kec. Sorong Utara, Kota Sorong",PAPUA BARAT,98412.0,Indonesia,,-0.8898196,131.3138844,https://maps.google.com/?cid=0x0:0xad1b87f4a839cdae
mall,Pusat Perbelanjaan,Harco Square Sorong,"4857+XPR, Sawagumu, Kec. Sorong Utara, Kota Sorong, Papua Bar. 98412","Sawagumu, Kec. Sorong Utara, Kota Sorong",PAPUA BARAT,98412.0,Indonesia,,-0.8900075,131.3142639,https://maps.google.com/?cid=0x0:0x78fc85d26a08628a
mall,Toko Suvenir,CV FIRA PAPUA (pusat oleh-oleh khas papua),"476P+FGQ, Jl. Selat Sunda, Remu Sel., Kecamatan Sorong Manoi, Kota Sorong, Papua Bar. 98412","Jl. Selat Sunda, Remu Sel., Kecamatan Sorong Manoi, Kota Sorong",PAPUA BARAT,98412.0,Indonesia,81248121759.0,-0.8887871,131.2863746,https://maps.google.com/?cid=0x0:0xc508cf5f2bbc99a5
mall,mall,Kecamatan Sorong Manoi,"Kota Sorong, Papua Bar.","Kota Sorong, Papua Bar.",PAPUA BARAT,,Indonesia,,-0.8875965,131.2870369,https://maps.google.com/?cid=0x0:0xeae8019c83ed0741
mall,Pusat Perbelanjaan,Mega Mall Sorong,"Jalan Basuki Rahmat Klabulu, Malaimsimsa, Malaingkedi, Kec. Sorong Utara, Kota Sorong, Papua Bar. 98412","Malaimsimsa, Malaingkedi, Kec. Sorong Utara, Kota Sorong",PAPUA BARAT,98412.0,Indonesia,,-0.8873097,131.3012842,https://maps.google.com/?cid=0x0:0x364e52ce8985aa7
mall,Pusat Perbelanjaan,Mal Sorong,"479G+369, Klademak, Distrik Sorong, Kota Sorong, Papua Bar. 98412","Klademak, Distrik Sorong, Kota Sorong",PAPUA BARAT,98412.0,Indonesia,,-0.8823414,131.2755957,https://maps.google.com/?cid=0x0:0x4efad982776d0ca5
mall,Pusat Perbelanjaan,PARAGON SQUARE Mall  Hotel Sorong,"4874+4RH Paragon Square Mall, Jl. Basuki Rahmat Lt. 2, Sawagumu, Kec. Sorong Utara, Kota Sorong, Papua Bar. 98412","Jl. Basuki Rahmat Lt. 2, Sawagumu, Kec. Sorong Utara, Kota Sorong",PAPUA BARAT,98412.0,Indonesia,81247232214.0,-0.8871443,131.3071264,https://maps.google.com/?cid=0x0:0xd02481be48cb6e05
mall,mall,Paragon Mall Sorong,"Jl. Basuki Rahmat No.KM 9, Sawagumu, Kec. Sorong Utara, Kota Sorong, Papua Bar.","Kota Sorong, Papua Bar.",PAPUA BARAT,,Indonesia,,-0.8865295,131.3075066,https://maps.google.com/?cid=0x0:0xf013685eefc002dc
mall,Minimarket,SAGA Supermarket  Dept. Store,"Jalan A. Yani, Ruko Kuda Laut, Klademak, Kecamatan Sorong Manoi, Kota Sorong, Papua Bar. 98414","Ruko Kuda Laut, Klademak, Kecamatan Sorong Manoi, Kota Sorong",PAPUA BARAT,98414.0,Indonesia,951322784.0,-0.8765248,131.2576755,https://maps.google.com/?cid=0x0:0x963043ed646a7e1e
mall,Perusahaan Konstruksi,MALL SORONG MODERN CITY,"46HV+8RX, Jl. Yos. Sudarso, Kp. Baru, Distrik Sorong, Kota Sorong, Papua Bar. 98411","Jl. Yos. Sudarso, Kp. Baru, Distrik Sorong, Kota Sorong",PAPUA BARAT,98411.0,Indonesia,,-0.8716413,131.2446118,https://maps.google.com/?cid=0x0:0x40151c61e7d35d7a
mall,Pusat Perbelanjaan,Mabello Sorong,"Jl. Cendrawasih No.11, Klawuyuk, Kec. Sorong Utara, Kota Sorong, Papua Bar. 98416","Klawuyuk, Kec. Sorong Utara, Kota Sorong",PAPUA BARAT,98416.0,Indonesia,82292247585.0,-0.8905827,131.3233806,https://maps.google.com/?cid=0x0:0x8b6c1d23b40f32bc
mall,Perusahaan Operasi Pelabuhan,Port De Sorong,"4776+R7P, OcÃ©an Pacifique Sud, Klaligi, Kota Sorong, Papua Bar.","Kota Sorong, Papua Bar.",PAPUA BARAT,,Indonesia,,-0.8854189,131.2606942,https://maps.google.com/?cid=0x0:0xce90b7f0dab6effe
mall,Pusat Perbelanjaan,ð¹ððððððð ð´ððð ðºððððð,"Jl. Ahmad Yani No.21, Malabutor, Distrik Sorong, Kota Sorong, Papua Bar. 98412","Malabutor, Distrik Sorong, Kota Sorong",PAPUA BARAT,98412.0,Indonesia,82397090442.0,-0.8825922,131.2827947,https://maps.google.com/?cid=0x0:0x28c052b0f0f6e9a6
mall,Grosir,AZKO PARAGON SORONG,"4874+GWG, Jl. Basuki Rahmat, Sawagumu, Kec. Sorong Utara, Kota Sorong, Papua Bar.","Kota Sorong, Papua Bar.",PAPUA BARAT,,Indonesia,,-0.886185,131.3073385,https://maps.google.com/?cid=0x0:0x34d596cc826d6f95
mall,Pusat Perbelanjaan,Sorong City Square,"4867+3HC, Sawagumu, Kec. Sorong Utara, Kota Sorong, Papua Bar. 98412","Sawagumu, Kec. Sorong Utara, Kota Sorong",PAPUA BARAT,98412.0,Indonesia,,-0.8898196,131.3138844,https://maps.google.com/?cid=0x0:0xad1b87f4a839cdae
mall,Pusat Perbelanjaan,Harco Square Sorong,"4857+XPR, Sawagumu, Kec. Sorong Utara, Kota Sorong, Papua Bar. 98412","Sawagumu, Kec. Sorong Utara, Kota Sorong",PAPUA BARAT,98412.0,Indonesia,,-0.8900075,131.3142639,https://maps.google.com/?cid=0x0:0x78fc85d26a08628a
mall,Toko Suvenir,CV FIRA PAPUA (pusat oleh-oleh khas papua),"476P+FGQ, Jl. Selat Sunda, Remu Sel., Kecamatan Sorong Manoi, Kota Sorong, Papua Bar. 98412","Jl. Selat Sunda, Remu Sel., Kecamatan Sorong Manoi, Kota Sorong",PAPUA BARAT,98412.0,Indonesia,81248121759.0,-0.8887871,131.2863746,https://maps.google.com/?cid=0x0:0xc508cf5f2bbc99a5
mall,mall,Kecamatan Sorong Manoi,"Kota Sorong, Papua Bar.","Kota Sorong, Papua Bar.",PAPUA BARAT,,Indonesia,,-0.8875965,131.2870369,https://maps.google.com/?cid=0x0:0xeae8019c83ed0741
mall,Pusat Perbelanjaan,Mega Mall Sorong,"Jalan Basuki Rahmat Klabulu, Malaimsimsa, Malaingkedi, Kec. Sorong Utara, Kota Sorong, Papua Bar. 98412","Malaimsimsa, Malaingkedi, Kec. Sorong Utara, Kota Sorong",PAPUA BARAT,98412.0,Indonesia,,-0.8873097,131.3012842,https://maps.google.com/?cid=0x0:0x364e52ce8985aa7
mall,Pusat Perbelanjaan,Mal Sorong,"479G+369, Klademak, Distrik Sorong, Kota Sorong, Papua Bar. 98412","Klademak, Distrik Sorong, Kota Sorong",PAPUA BARAT,98412.0,Indonesia,,-0.8823414,131.2755957,https://maps.google.com/?cid=0x0:0x4efad982776d0ca5
mall,Pusat Perbelanjaan,PARAGON SQUARE Mall  Hotel Sorong,"4874+4RH Paragon Square Mall, Jl. Basuki Rahmat Lt. 2, Sawagumu, Kec. Sorong Utara, Kota Sorong, Papua Bar. 98412","Jl. Basuki Rahmat Lt. 2, Sawagumu, Kec. Sorong Utara, Kota Sorong",PAPUA BARAT,98412.0,Indonesia,81247232214.0,-0.8871443,131.3071264,https://maps.google.com/?cid=0x0:0xd02481be48cb6e05
mall,mall,Paragon Mall Sorong,"Jl. Basuki Rahmat No.KM 9, Sawagumu, Kec. Sorong Utara, Kota Sorong, Papua Bar.","Kota Sorong, Papua Bar.",PAPUA BARAT,,Indonesia,,-0.8865295,131.3075066,https://maps.google.com/?cid=0x0:0xf013685eefc002dc
mall,Minimarket,SAGA Supermarket  Dept. Store,"Jalan A. Yani, Ruko Kuda Laut, Klademak, Kecamatan Sorong Manoi, Kota Sorong, Papua Bar. 98414","Ruko Kuda Laut, Klademak, Kecamatan Sorong Manoi, Kota Sorong",PAPUA BARAT,98414.0,Indonesia,951322784.0,-0.8765248,131.2576755,https://maps.google.com/?cid=0x0:0x963043ed646a7e1e
mall,Perusahaan Operasi Pelabuhan,Port De Sorong,"4776+R7P, OcÃ©an Pacifique Sud, Klaligi, Kota Sorong, Papua Bar.","Kota Sorong, Papua Bar.",PAPUA BARAT,,Indonesia,,-0.8854189,131.2606942,https://maps.google.com/?cid=0x0:0xce90b7f0dab6effe
mall,Pusat Perbelanjaan,Mabello Sorong,"Jl. Cendrawasih No.11, Klawuyuk, Kec. Sorong Utara, Kota Sorong, Papua Bar. 98416","Klawuyuk, Kec. Sorong Utara, Kota Sorong",PAPUA BARAT,98416.0,Indonesia,82292247585.0,-0.8905827,131.3233806,https://maps.google.com/?cid=0x0:0x8b6c1d23b40f32bc
mall,Grosir,AZKO PARAGON SORONG,"4874+GWG, Jl. Basuki Rahmat, Sawagumu, Kec. Sorong Utara, Kota Sorong, Papua Bar.","Kota Sorong, Papua Bar.",PAPUA BARAT,,Indonesia,,-0.886185,131.3073385,https://maps.google.com/?cid=0x0:0x34d596cc826d6f95
mall,Pusat Perbelanjaan,ð¹ððððððð ð´ððð ðºððððð,"Jl. Ahmad Yani No.21, Malabutor, Distrik Sorong, Kota Sorong, Papua Bar. 98412","Malabutor, Distrik Sorong, Kota Sorong",PAPUA BARAT,98412.0,Indonesia,82397090442.0,-0.8825922,131.2827947,https://maps.google.com/?cid=0x0:0x28c052b0f0f6e9a6
mall,Pusat Perbelanjaan,Harco Square Sorong,"4857+XPR, Sawagumu, Kec. Sorong Utara, Kota Sorong, Papua Bar. 98412","Sawagumu, Kec. Sorong Utara, Kota Sorong",PAPUA BARAT,98412.0,Indonesia,,-0.8900075,131.3142639,https://maps.google.com/?cid=0x0:0x78fc85d26a08628a
mall,Pusat Perbelanjaan,Sorong City Square,"4867+3HC, Sawagumu, Kec. Sorong Utara, Kota Sorong, Papua Bar. 98412","Sawagumu, Kec. Sorong Utara, Kota Sorong",PAPUA BARAT,98412.0,Indonesia,,-0.8898196,131.3138844,https://maps.google.com/?cid=0x0:0xad1b87f4a839cdae
mall,Perusahaan Konstruksi,MALL SORONG MODERN CITY,"46HV+8RX, Jl. Yos. Sudarso, Kp. Baru, Distrik Sorong, Kota Sorong, Papua Bar. 98411","Jl. Yos. Sudarso, Kp. Baru, Distrik Sorong, Kota Sorong",PAPUA BARAT,98411.0,Indonesia,,-0.8716413,131.2446118,https://maps.google.com/?cid=0x0:0x40151c61e7d35d7a
mall,Restoran,Solaria - Mall Sorong,"Solaria Ramayana Sorong, Jl. Ahmad Yani Lt Dasar, Klademak, Distrik Sorong, Kota Sorong, Papua Bar. 98416","Jl. Ahmad Yani Lt Dasar, Klademak, Distrik Sorong, Kota Sorong",PAPUA BARAT,98416.0,Indonesia,82128983365.0,-0.8821795,131.2756931,https://maps.google.com/?cid=0x0:0xfd165571f47dcbd9
mall,Pusat Perbelanjaan,Mega Mall Sorong,"Jalan Basuki Rahmat Klabulu, Malaimsimsa, Malaingkedi, Kec. Sorong Utara, Kota Sorong, Papua Bar. 98412","Malaimsimsa, Malaingkedi, Kec. Sorong Utara, Kota Sorong",PAPUA BARAT,98412.0,Indonesia,,-0.8873097,131.3012842,https://maps.google.com/?cid=0x0:0x364e52ce8985aa7
mall,mall,Papua Bar. 98416,Papua Bar.,Papua Bar.,PAPUA BARAT,,Indonesia,,-0.8883325,131.3510866,https://maps.google.com/?cid=0x0:0x7d4c82915eeb19ce
mall,Pusat Perbelanjaan,PARAGON SQUARE Mall  Hotel Sorong,"4874+4RH Paragon Square Mall, Jl. Basuki Rahmat Lt. 2, Sawagumu, Kec. Sorong Utara, Kota Sorong, Papua Bar. 98412","Jl. Basuki Rahmat Lt. 2, Sawagumu, Kec. Sorong Utara, Kota Sorong",PAPUA BARAT,98412.0,Indonesia,81247232214.0,-0.8871443,131.3071264,https://maps.google.com/?cid=0x0:0xd02481be48cb6e05
mall,Pusat Perbelanjaan,Mal Sorong,"479G+369, Klademak, Distrik Sorong, Kota Sorong, Papua Bar. 98412","Klademak, Distrik Sorong, Kota Sorong",PAPUA BARAT,98412.0,Indonesia,,-0.8823414,131.2755957,https://maps.google.com/?cid=0x0:0x4efad982776d0ca5
mall,Pusat Perbelanjaan,RAMAYANA Mall Sorong,"Jl. Wahid Hasyim 220 A-B, Jakarta, Papua Bar. 10250",Jakarta,PAPUA BARAT,10250.0,Indonesia,951332505.0,-0.8820615,131.2755023,https://maps.google.com/?cid=0x0:0x595b97e0cac05b45
mall,mall,AGES CABANG HARAPAN INDAH,"483F+PP3, Jl. Kamboja 4, Klawuyuk, Distrik Sorong Timur, Kota Sorong, Papua Bar. 98416","Jl. Kamboja 4, Klawuyuk, Distrik Sorong Timur, Kota Sorong",PAPUA BARAT,98416.0,Indonesia,,-0.8957385,131.3242928,https://maps.google.com/?cid=0x0:0x4c200d6c20b2dc4b
mall,Grosir,AZKO PARAGON SORONG,"4874+GWG, Jl. Basuki Rahmat, Sawagumu, Kec. Sorong Utara, Kota Sorong, Papua Bar.","Kota Sorong, Papua Bar.",PAPUA BARAT,,Indonesia,,-0.886185,131.3073385,https://maps.google.com/?cid=0x0:0x34d596cc826d6f95
mall,Pusat Perbelanjaan,Harco Square Sorong,"4857+XPR, Sawagumu, Kec. Sorong Utara, Kota Sorong, Papua Bar. 98412","Sawagumu, Kec. Sorong Utara, Kota Sorong",PAPUA BARAT,98412.0,Indonesia,,-0.8900075,131.3142639,https://maps.google.com/?cid=0x0:0x78fc85d26a08628a
mall,Pusat Perbelanjaan,Sorong City Square,"4867+3HC, Sawagumu, Kec. Sorong Utara, Kota Sorong, Papua Bar. 98412","Sawagumu, Kec. Sorong Utara, Kota Sorong",PAPUA BARAT,98412.0,Indonesia,,-0.8898196,131.3138844,https://maps.google.com/?cid=0x0:0xad1b87f4a839cdae
mall,Pusat Perbelanjaan,Gema outlet,"482H+7MW, Klasaman, Distrik Sorong Timur, Kota Sorong, Papua Bar. 98416","Klasaman, Distrik Sorong Timur, Kota Sorong",PAPUA BARAT,98416.0,Indonesia,85244398702.0,-0.8992675,131.3291935,https://maps.google.com/?cid=0x0:0xf0698f80aae7cf05
mall,Pusat Perbelanjaan,Mabello Sorong,"Jl. Cendrawasih No.11, Klawuyuk, Kec. Sorong Utara, Kota Sorong, Papua Bar. 98416","Klawuyuk, Kec. Sorong Utara, Kota Sorong",PAPUA BARAT,98416.0,Indonesia,82292247585.0,-0.8905827,131.3233806,https://maps.google.com/?cid=0x0:0x8b6c1d23b40f32bc
mall,Minimarket,INDOMARET KLAMASEN,"2993+5GH, Klamasen, Distrik Mariat, Kabupaten Sorong, Papua Bar. 98416","Klamasen, Distrik Mariat, Kabupaten Sorong",PAPUA BARAT,98416.0,Indonesia,,-0.9820598,131.3537109,https://maps.google.com/?cid=0x0:0x73fbcb4854378be4
mall,Pusat Perbelanjaan,KSU PPGS,"489H+9QJ, Jl. Sungai Maruni, Matalamagi, Kec. Sorong Utara, Kota Sorong, Papua Bar. 98416","Jl. Sungai Maruni, Matalamagi, Kec. Sorong Utara, Kota Sorong",PAPUA BARAT,98416.0,Indonesia,82140654777.0,-0.8815265,131.3293923,https://maps.google.com/?cid=0x0:0x24e47696e6b934c5
mall,Toko umum,Toko Caca,"489F+P3J, Jl. Sungai Mamberamo, Matalamagi, Kec. Sorong Utara, Kota Sorong, Papua Bar. 98416","Jl. Sungai Mamberamo, Matalamagi, Kec. Sorong Utara, Kota Sorong",PAPUA BARAT,98416.0,Indonesia,81248407622.0,-0.8806733,131.3226291,https://maps.google.com/?cid=0x0:0x11ed6ca1f61ad4da
mall,mall,Papua Bar. 98419,"Kabupaten Sorong, Papua Bar.","Kabupaten Sorong, Papua Bar.",PAPUA BARAT,,Indonesia,,-0.9516965,131.4612677,https://maps.google.com/?cid=0x0:0x1846ff160c020f5b
mall,Pusat Perbelanjaan,Mega Mall Sorong,"Jalan Basuki Rahmat Klabulu, Malaimsimsa, Malaingkedi, Kec. Sorong Utara, Kota Sorong, Papua Bar. 98412","Malaimsimsa, Malaingkedi, Kec. Sorong Utara, Kota Sorong",PAPUA BARAT,98412.0,Indonesia,,-0.8873097,131.3012842,https://maps.google.com/?cid=0x0:0x364e52ce8985aa7
mall,Pusat Perbelanjaan,Mal Sorong,"479G+369, Klademak, Distrik Sorong, Kota Sorong, Papua Bar. 98412","Klademak, Distrik Sorong, Kota Sorong",PAPUA BARAT,98412.0,Indonesia,,-0.8823414,131.2755957,https://maps.google.com/?cid=0x0:0x4efad982776d0ca5
mall,Pusat Perbelanjaan,PARAGON SQUARE Mall  Hotel Sorong,"4874+4RH Paragon Square Mall, Jl. Basuki Rahmat Lt. 2, Sawagumu, Kec. Sorong Utara, Kota Sorong, Papua Bar. 98412","Jl. Basuki Rahmat Lt. 2, Sawagumu, Kec. Sorong Utara, Kota Sorong",PAPUA BARAT,98412.0,Indonesia,81247232214.0,-0.8871443,131.3071264,https://maps.google.com/?cid=0x0:0xd02481be48cb6e05
mall,Perusahaan Konstruksi,MALL SORONG MODERN CITY,"46HV+8RX, Jl. Yos. Sudarso, Kp. Baru, Distrik Sorong, Kota Sorong, Papua Bar. 98411","Jl. Yos. Sudarso, Kp. Baru, Distrik Sorong, Kota Sorong",PAPUA BARAT,98411.0,Indonesia,,-0.8716413,131.2446118,https://maps.google.com/?cid=0x0:0x40151c61e7d35d7a
mall,Grosir,AZKO PARAGON SORONG,"4874+GWG, Jl. Basuki Rahmat, Sawagumu, Kec. Sorong Utara, Kota Sorong, Papua Bar.","Kota Sorong, Papua Bar.",PAPUA BARAT,,Indonesia,,-0.886185,131.3073385,https://maps.google.com/?cid=0x0:0x34d596cc826d6f95
mall,Pusat Perbelanjaan,Sorong City Square,"4867+3HC, Sawagumu, Kec. Sorong Utara, Kota Sorong, Papua Bar. 98412","Sawagumu, Kec. Sorong Utara, Kota Sorong",PAPUA BARAT,98412.0,Indonesia,,-0.8898196,131.3138844,https://maps.google.com/?cid=0x0:0xad1b87f4a839cdae
mall,Pusat Perbelanjaan,ð¹ððððððð ð´ððð ðºððððð,"Jl. Ahmad Yani No.21, Malabutor, Distrik Sorong, Kota Sorong, Papua Bar. 98412","Malabutor, Distrik Sorong, Kota Sorong",PAPUA BARAT,98412.0,Indonesia,82397090442.0,-0.8825922,131.2827947,https://maps.google.com/?cid=0x0:0x28c052b0f0f6e9a6
mall,Pusat Perbelanjaan,Papua Supermarket  Dept. Store,"4869+F77 Bar, Sawagumu, Kec. Sorong Utara, Kota Sorong, Papua Bar. 98416","Sawagumu, Kec. Sorong Utara, Kota Sorong",PAPUA BARAT,98416.0,Indonesia,9513160123.0,-0.888831,131.3181847,https://maps.google.com/?cid=0x0:0x7b5f0926a74ad213
mall,ATM,Mandiri ATM Sorong Mega Mall,"Jl. Basuki Rahmat No.Km. 7, Mariat Gn., Kec. Aimas, Kabupaten Sorong, Papua Bar. 98417","Mariat Gn., Kec. Aimas, Kabupaten Sorong",PAPUA BARAT,98417.0,Indonesia,2152997777.0,-1.0174852,131.4112125,https://maps.google.com/?cid=0x0:0x17f7d2a618bcfcab
mall,Pusat Perbelanjaan,Mabello Sorong,"Jl. Cendrawasih No.11, Klawuyuk, Kec. Sorong Utara, Kota Sorong, Papua Bar. 98416","Klawuyuk, Kec. Sorong Utara, Kota Sorong",PAPUA BARAT,98416.0,Indonesia,82292247585.0,-0.8905827,131.3233806,https://maps.google.com/?cid=0x0:0x8b6c1d23b40f32bc
supermarket,supermarket,Papua Bar. 98413,"Klabala, Distrik Sorong Barat, Kota Sorong, Papua Bar.","Kota Sorong, Papua Bar.",PAPUA BARAT,,Indonesia,,-0.8669518,131.254029,https://maps.google.com/?cid=0x0:0x352e1f254d39ea2b
supermarket,Minimarket,SAGA Supermarket  Dept. Store,"Jalan A. Yani, Ruko Kuda Laut, Klademak, Kecamatan Sorong Manoi, Kota Sorong, Papua Bar. 98414","Ruko Kuda Laut, Klademak, Kecamatan Sorong Manoi, Kota Sorong",PAPUA BARAT,98414.0,Indonesia,951322784.0,-0.8765248,131.2576755,https://maps.google.com/?cid=0x0:0x963043ed646a7e1e
supermarket,Pusat Perbelanjaan,Papua Supermarket  Dept. Store,"4869+F77 Bar, Sawagumu, Kec. Sorong Utara, Kota Sorong, Papua Bar. 98416","Sawagumu, Kec. Sorong Utara, Kota Sorong",PAPUA BARAT,98416.0,Indonesia,9513160123.0,-0.888831,131.3181847,https://maps.google.com/?cid=0x0:0x7b5f0926a74ad213
supermarket,Pusat Perbelanjaan,Saga Mart Remu,"samping intense fitness, Jl. Mambruk No.10, Remu Utara, Distrik Sorong, Kota Sorong, Papua Bar. 98416","Jl. Mambruk No.10, Remu Utara, Distrik Sorong, Kota Sorong",PAPUA BARAT,98416.0,Indonesia,,-0.8834556,131.2874923,https://maps.google.com/?cid=0x0:0x92c646f7dc2c33ee
supermarket,Pusat Perbelanjaan,SAGA BOSWESEN,"Jl. RA Kartini Jl. Boswesen No.33, Klasuur, Distrik Sorong Barat, Kota Sorong, Papua Bar. 98413","Klasuur, Distrik Sorong Barat, Kota Sorong",PAPUA BARAT,98413.0,Indonesia,82198859889.0,-0.8637467,131.2494116,https://maps.google.com/?cid=0x0:0xb095b8268ccda3e3
supermarket,Pusat Perbelanjaan,Mega Mall Sorong,"Jalan Basuki Rahmat Klabulu, Malaimsimsa, Malaingkedi, Kec. Sorong Utara, Kota Sorong, Papua Bar. 98412","Malaimsimsa, Malaingkedi, Kec. Sorong Utara, Kota Sorong",PAPUA BARAT,98412.0,Indonesia,,-0.8873097,131.3012842,https://maps.google.com/?cid=0x0:0x364e52ce8985aa7
supermarket,Pusat Perbelanjaan,Kios Bella,"Jl. Pulau Sulawesi No.10, Kp. Baru, Distrik Sorong Barat, Kota Sorong, Papua Bar. 98411","Kp. Baru, Distrik Sorong Barat, Kota Sorong",PAPUA BARAT,98411.0,Indonesia,9513175942.0,-0.8672656,131.2545655,https://maps.google.com/?cid=0x0:0xe16810678b749a68
supermarket,Kantor Perusahaan,Supermarket GOTA,"4868+2X3, Jl. Sungai Maruni, Sawagumu, Distrik Sorong Timur, Kota Sorong, Papua Bar. 98416","Jl. Sungai Maruni, Sawagumu, Distrik Sorong Timur, Kota Sorong",PAPUA BARAT,98416.0,Indonesia,,-0.8900646,131.3173945,https://maps.google.com/?cid=0x0:0xe80a2989cd86300
supermarket,Supermarket Diskon,Zombie,"47J4+V33, Unnamed Road, Klabala, Distrik Sorong Barat, Kota Sorong, Papua Bar. 98411","Unnamed Road, Klabala, Distrik Sorong Barat, Kota Sorong",PAPUA BARAT,98411.0,Indonesia,,-0.8678713,131.2551757,https://maps.google.com/?cid=0x0:0x8806660e8e949080
supermarket,Pusat Perbelanjaan,PARAGON SQUARE Mall  Hotel Sorong,"4874+4RH Paragon Square Mall, Jl. Basuki Rahmat Lt. 2, Sawagumu, Kec. Sorong Utara, Kota Sorong, Papua Bar. 98412","Jl. Basuki Rahmat Lt. 2, Sawagumu, Kec. Sorong Utara, Kota Sorong",PAPUA BARAT,98412.0,Indonesia,81247232214.0,-0.8871443,131.3071264,https://maps.google.com/?cid=0x0:0xd02481be48cb6e05
supermarket,Pusat Perbelanjaan,Saga Aimas,"28VG+26V, Jl. Nangka, Malawili, Kec. Aimas, Kabupaten Sorong, Papua Bar. 98414","Jl. Nangka, Malawili, Kec. Aimas, Kabupaten Sorong",PAPUA BARAT,98414.0,Indonesia,81351816880.0,-0.9574598,131.3257559,https://maps.google.com/?cid=0x0:0x2ba45ddc0e9b2391
supermarket,Toko bahan makanan,HS Swalayan II,"478Q+X9Q, Bar, Remu Utara, Distrik Sorong, Kota Sorong, Papua Bar. 98412","Bar, Remu Utara, Distrik Sorong, Kota Sorong",PAPUA BARAT,98412.0,Indonesia,,-0.8825386,131.2884986,https://maps.google.com/?cid=0x0:0xef2ad6eba7dce152
supermarket,Toko,Hidayat Kios,"Jl. Kalimantan No.56, Klabala, Distrik Sorong Barat, Kota Sorong, Papua Bar. 98411","Klabala, Distrik Sorong Barat, Kota Sorong",PAPUA BARAT,98411.0,Indonesia,85398930505.0,-0.8678398,131.2533224,https://maps.google.com/?cid=0x0:0x5ee206d74ffb57e0
supermarket,Pusat Perbelanjaan,Mal Sorong,"479G+369, Klademak, Distrik Sorong, Kota Sorong, Papua Bar. 98412","Klademak, Distrik Sorong, Kota Sorong",PAPUA BARAT,98412.0,Indonesia,,-0.8823414,131.2755957,https://maps.google.com/?cid=0x0:0x4efad982776d0ca5
supermarket,supermarket,Sorong,"Kota Sorong, Papua Bar.","Kota Sorong, Papua Bar.",PAPUA BARAT,,Indonesia,,-0.8761629,131.255828,https://maps.google.com/?cid=0x0:0xe32b512ec6c6786
supermarket,Minimarket,SAGA Supermarket  Dept. Store,"Jalan A. Yani, Ruko Kuda Laut, Klademak, Kecamatan Sorong Manoi, Kota Sorong, Papua Bar. 98414","Ruko Kuda Laut, Klademak, Kecamatan Sorong Manoi, Kota Sorong",PAPUA BARAT,98414.0,Indonesia,951322784.0,-0.8765248,131.2576755,https://maps.google.com/?cid=0x0:0x963043ed646a7e1e
supermarket,Pusat Perbelanjaan,Papua Supermarket  Dept. Store,"4869+F77 Bar, Sawagumu, Kec. Sorong Utara, Kota Sorong, Papua Bar. 98416","Sawagumu, Kec. Sorong Utara, Kota Sorong",PAPUA BARAT,98416.0,Indonesia,9513160123.0,-0.888831,131.3181847,https://maps.google.com/?cid=0x0:0x7b5f0926a74ad213
supermarket,Pusat Perbelanjaan,Robinson Supermarket,"479G+45M Bar, Klademak, Distrik Sorong, Kota Sorong, Papua Bar. 98412","Klademak, Distrik Sorong, Kota Sorong",PAPUA BARAT,98412.0,Indonesia,,-0.882151,131.2754362,https://maps.google.com/?cid=0x0:0x6ba59819db5f369
supermarket,Toko bahan makanan,Homi Supermarket,"478Q+W97, Jl. F Kalasuat, Remu Utara, Distrik Sorong, Kota Sorong, Papua Bar. 98412","Jl. F Kalasuat, Remu Utara, Distrik Sorong, Kota Sorong",PAPUA BARAT,98412.0,Indonesia,,-0.8827053,131.2884188,https://maps.google.com/?cid=0x0:0x9eed04e7f27afbd0
supermarket,Minimarket,Minimarket Mandala,"47J3+X3M, Jl. Sam Ratulangi, Klasuur, Distrik Sorong, Kota Sorong, Papua Bar. 98411","Jl. Sam Ratulangi, Klasuur, Distrik Sorong, Kota Sorong",PAPUA BARAT,98411.0,Indonesia,,-0.8675297,131.2526752,https://maps.google.com/?cid=0x0:0x7b3f61517b7f189d
supermarket,Pusat Perbelanjaan,Saga Mart Remu,"samping intense fitness, Jl. Mambruk No.10, Remu Utara, Distrik Sorong, Kota Sorong, Papua Bar. 98416","Jl. Mambruk No.10, Remu Utara, Distrik Sorong, Kota Sorong",PAPUA BARAT,98416.0,Indonesia,,-0.8834556,131.2874923,https://maps.google.com/?cid=0x0:0x92c646f7dc2c33ee
supermarket,Pusat Perbelanjaan,Mega Mall Sorong,"Jalan Basuki Rahmat Klabulu, Malaimsimsa, Malaingkedi, Kec. Sorong Utara, Kota Sorong, Papua Bar. 98412","Malaimsimsa, Malaingkedi, Kec. Sorong Utara, Kota Sorong",PAPUA BARAT,98412.0,Indonesia,,-0.8873097,131.3012842,https://maps.google.com/?cid=0x0:0x364e52ce8985aa7
supermarket,Toko Perlengkapan Rumah,TOP SENYUM,"Bar, Klabala, Distrik Sorong Barat, Kota Sorong, Papua Bar. 98411","Klabala, Distrik Sorong Barat, Kota Sorong",PAPUA BARAT,98411.0,Indonesia,,-0.8706011,131.2528802,https://maps.google.com/?cid=0x0:0xeaa1549416daed97
supermarket,Kantor Perusahaan,Supermarket GOTA,"4868+2X3, Jl. Sungai Maruni, Sawagumu, Distrik Sorong Timur, Kota Sorong, Papua Bar. 98416","Jl. Sungai Maruni, Sawagumu, Distrik Sorong Timur, Kota Sorong",PAPUA BARAT,98416.0,Indonesia,,-0.8900646,131.3173945,https://maps.google.com/?cid=0x0:0xe80a2989cd86300
supermarket,Pusat Perbelanjaan,RAMAYANA Mall Sorong,"Jl. Wahid Hasyim 220 A-B, Jakarta, Papua Bar. 10250",Jakarta,PAPUA BARAT,10250.0,Indonesia,951332505.0,-0.8820615,131.2755023,https://maps.google.com/?cid=0x0:0x595b97e0cac05b45
supermarket,Toko Swalayan,Toko Bone Indah TBW,"Jl. R.A. Kartini, Rufei, Distrik Sorong Barat, Kota Sorong, Papua Bar. 98411","Rufei, Distrik Sorong Barat, Kota Sorong",PAPUA BARAT,98411.0,Indonesia,81248464668.0,-0.8633317,131.2477568,https://maps.google.com/?cid=0x0:0x8f14aa82e145796e
supermarket,Toko Perlengkapan Rumah,Central Sorong,"-22, Jl. Ahmad Yani No.21, Klakublik, Sorong, Sorong City, West Papua 98412","Jl. Ahmad Yani No.21, Klakublik, Sorong, Sorong City",PAPUA BARAT,98412.0,Indonesia,81344260477.0,-0.8793464,131.2641001,https://maps.google.com/?cid=0x0:0x2efd17b9248dd5ca
supermarket,Grosir,Toko Singgah Dulu,"476C+XCQ, Malawei, Kecamatan Sorong Manoi, Kota Sorong, Papua Bar. 98412","Malawei, Kecamatan Sorong Manoi, Kota Sorong",PAPUA BARAT,98412.0,Indonesia,,-0.8875326,131.271124,https://maps.google.com/?cid=0x0:0x520f3ff53a3e060f
supermarket,supermarket,Papua Bar. 98416,Papua Bar.,Papua Bar.,PAPUA BARAT,,Indonesia,,-0.8883325,131.3510866,https://maps.google.com/?cid=0x0:0x7d4c82915eeb19ce
supermarket,Pusat Perbelanjaan,Papua Supermarket  Dept. Store,"4869+F77 Bar, Sawagumu, Kec. Sorong Utara, Kota Sorong, Papua Bar. 98416","Sawagumu, Kec. Sorong Utara, Kota Sorong",PAPUA BARAT,98416.0,Indonesia,9513160123.0,-0.888831,131.3181847,https://maps.google.com/?cid=0x0:0x7b5f0926a74ad213
supermarket,Kantor Perusahaan,Supermarket GOTA,"4868+2X3, Jl. Sungai Maruni, Sawagumu, Distrik Sorong Timur, Kota Sorong, Papua Bar. 98416","Jl. Sungai Maruni, Sawagumu, Distrik Sorong Timur, Kota Sorong",PAPUA BARAT,98416.0,Indonesia,,-0.8900646,131.3173945,https://maps.google.com/?cid=0x0:0xe80a2989cd86300
supermarket,Pusat Perbelanjaan,Saga Mart Remu,"samping intense fitness, Jl. Mambruk No.10, Remu Utara, Distrik Sorong, Kota Sorong, Papua Bar. 98416","Jl. Mambruk No.10, Remu Utara, Distrik Sorong, Kota Sorong",PAPUA BARAT,98416.0,Indonesia,,-0.8834556,131.2874923,https://maps.google.com/?cid=0x0:0x92c646f7dc2c33ee
supermarket,Minimarket,Minimarket 12,"Jl. A.M. Sangaji Gonof, Klasaman, Distrik Sorong Timur, Kota Sorong, Papua Bar. 98416","Klasaman, Distrik Sorong Timur, Kota Sorong",PAPUA BARAT,98416.0,Indonesia,81248227028.0,-0.9013356,131.3253828,https://maps.google.com/?cid=0x0:0xae334b95b9129ff2
supermarket,Minimarket,SAGA Supermarket  Dept. Store,"Jalan A. Yani, Ruko Kuda Laut, Klademak, Kecamatan Sorong Manoi, Kota Sorong, Papua Bar. 98414","Ruko Kuda Laut, Klademak, Kecamatan Sorong Manoi, Kota Sorong",PAPUA BARAT,98414.0,Indonesia,951322784.0,-0.8765248,131.2576755,https://maps.google.com/?cid=0x0:0x963043ed646a7e1e
supermarket,Toko bahan makanan,NEPA THON GROUP,"482X+V32, Klasaman, Distrik Sorong Timur, Kota Sorong, Papua Bar. 98416","Klasaman, Distrik Sorong Timur, Kota Sorong",PAPUA BARAT,98416.0,Indonesia,81248668687.0,-0.8978549,131.3476393,https://maps.google.com/?cid=0x0:0x196b63296e4e27de
supermarket,Toko,SRC SUMBER AGUNG,"483J+QJW, Jl. Sorong - Makbon, Matalamagi, Kec. Makbon, Kota Sorong, Papua Bar. 98416","Jl. Sorong - Makbon, Matalamagi, Kec. Makbon, Kota Sorong",PAPUA BARAT,98416.0,Indonesia,85311515565.0,-0.8955013,131.3315677,https://maps.google.com/?cid=0x0:0xf042a100233f1eab
supermarket,Kios,Toko Pangestu,"482J+QCH, Klasaman, Distrik Sorong Timur, Kota Sorong, Papua Bar. 98416","Klasaman, Distrik Sorong Timur, Kota Sorong",PAPUA BARAT,98416.0,Indonesia,,-0.8980627,131.3310968,https://maps.google.com/?cid=0x0:0x4812b3da484a9ad0
supermarket,Grosir Barang Kelontong,TOKO SINAR MUDA 2,"Jl. Malibela No.6, Klawalu, Distrik Sorong Timur, Kota Sorong, Papua Bar. 98416","Klawalu, Distrik Sorong Timur, Kota Sorong",PAPUA BARAT,98416.0,Indonesia,,-0.9000179,131.3193282,https://maps.google.com/?cid=0x0:0xb0a1b551b7aec69c
supermarket,Grosir,Toko Pratiwi,"38PG+H6M, Jl. Klasiban, Klamana, Distrik Sorong Timur, Kota Sorong, Papua Bar. 98416","Jl. Klasiban, Klamana, Distrik Sorong Timur, Kota Sorong",PAPUA BARAT,98416.0,Indonesia,,-0.9135321,131.3255624,https://maps.google.com/?cid=0x0:0x79017002eff2cb93
supermarket,Toko,Diory Mart,"Klawuyuk, Distrik Sorong Timur, Kota Sorong, Papua Bar. 98416","Distrik Sorong Timur, Kota Sorong",PAPUA BARAT,98416.0,Indonesia,951335757.0,-0.9011676,131.3227504,https://maps.google.com/?cid=0x0:0x66e0b37bca70963
supermarket,Toko umum,Toko Rizky Indah,"Jl. Sorong - Aimas, Klamana, Distrik Sorong Timur, Kota Sorong, Papua Bar. 98416","Klamana, Distrik Sorong Timur, Kota Sorong",PAPUA BARAT,98416.0,Indonesia,81248464668.0,-0.9121516,131.3307954,https://maps.google.com/?cid=0x0:0x78aa457ad600e381
supermarket,Toko Makanan,Easy Shop,"484H+7JV, Matalamagi, Kec. Sorong Utara, Kota Sorong, Papua Bar. 98416","Matalamagi, Kec. Sorong Utara, Kota Sorong",PAPUA BARAT,98416.0,Indonesia,,-0.8942528,131.3290588,https://maps.google.com/?cid=0x0:0xc40ab7de5487816d
supermarket,supermarket,Papua Bar. 98411,"Kota Sorong, Papua Bar.","Kota Sorong, Papua Bar.",PAPUA BARAT,,Indonesia,,-0.8165448,131.3310303,https://maps.google.com/?cid=0x0:0xa63c7f2b52beead0
supermarket,Minimarket,SAGA Supermarket  Dept. Store,"Jalan A. Yani, Ruko Kuda Laut, Klademak, Kecamatan Sorong Manoi, Kota Sorong, Papua Bar. 98414","Ruko Kuda Laut, Klademak, Kecamatan Sorong Manoi, Kota Sorong",PAPUA BARAT,98414.0,Indonesia,951322784.0,-0.8765248,131.2576755,https://maps.google.com/?cid=0x0:0x963043ed646a7e1e
supermarket,Toko Swalayan,Forza Swalayan Sorong,"47J3+324, Bar., Klasuur, Distrik Sorong, Kota Sorong, Papua Bar. 98411","Bar., Klasuur, Distrik Sorong, Kota Sorong",PAPUA BARAT,98411.0,Indonesia,82233332091.0,-0.8698671,131.2525651,https://maps.google.com/?cid=0x0:0xaf6941927b288cad
supermarket,Minimarket,Minimarket Mandala,"47J3+X3M, Jl. Sam Ratulangi, Klasuur, Distrik Sorong, Kota Sorong, Papua Bar. 98411","Jl. Sam Ratulangi, Klasuur, Distrik Sorong, Kota Sorong",PAPUA BARAT,98411.0,Indonesia,,-0.8675297,131.2526752,https://maps.google.com/?cid=0x0:0x7b3f61517b7f189d
supermarket,Pusat Perbelanjaan,Robinson Supermarket,"479G+45M Bar, Klademak, Distrik Sorong, Kota Sorong, Papua Bar. 98412","Klademak, Distrik Sorong, Kota Sorong",PAPUA BARAT,98412.0,Indonesia,,-0.882151,131.2754362,https://maps.google.com/?cid=0x0:0x6ba59819db5f369
supermarket,Toko bahan makanan,Homi Supermarket,"478Q+W97, Jl. F Kalasuat, Remu Utara, Distrik Sorong, Kota Sorong, Papua Bar. 98412","Jl. F Kalasuat, Remu Utara, Distrik Sorong, Kota Sorong",PAPUA BARAT,98412.0,Indonesia,,-0.8827053,131.2884188,https://maps.google.com/?cid=0x0:0x9eed04e7f27afbd0
supermarket,Pusat Perbelanjaan,Papua Supermarket  Dept. Store,"4869+F77 Bar, Sawagumu, Kec. Sorong Utara, Kota Sorong, Papua Bar. 98416","Sawagumu, Kec. Sorong Utara, Kota Sorong",PAPUA BARAT,98416.0,Indonesia,9513160123.0,-0.888831,131.3181847,https://maps.google.com/?cid=0x0:0x7b5f0926a74ad213
supermarket,Pusat Perbelanjaan,Saga Mart Remu,"samping intense fitness, Jl. Mambruk No.10, Remu Utara, Distrik Sorong, Kota Sorong, Papua Bar. 98416","Jl. Mambruk No.10, Remu Utara, Distrik Sorong, Kota Sorong",PAPUA BARAT,98416.0,Indonesia,,-0.8834556,131.2874923,https://maps.google.com/?cid=0x0:0x92c646f7dc2c33ee
supermarket,Toko Swalayan,Toko Bone Indah TBW,"Jl. R.A. Kartini, Rufei, Distrik Sorong Barat, Kota Sorong, Papua Bar. 98411","Rufei, Distrik Sorong Barat, Kota Sorong",PAPUA BARAT,98411.0,Indonesia,81248464668.0,-0.8633317,131.2477568,https://maps.google.com/?cid=0x0:0x8f14aa82e145796e
supermarket,Toko Perlengkapan Rumah,Central Sorong,"-22, Jl. Ahmad Yani No.21, Klakublik, Sorong, Sorong City, West Papua 98412","Jl. Ahmad Yani No.21, Klakublik, Sorong, Sorong City",PAPUA BARAT,98412.0,Indonesia,81344260477.0,-0.8793464,131.2641001,https://maps.google.com/?cid=0x0:0x2efd17b9248dd5ca
supermarket,Pusat Perbelanjaan,RAMAYANA Mall Sorong,"Jl. Wahid Hasyim 220 A-B, Jakarta, Papua Bar. 10250",Jakarta,PAPUA BARAT,10250.0,Indonesia,951332505.0,-0.8820615,131.2755023,https://maps.google.com/?cid=0x0:0x595b97e0cac05b45
supermarket,Pusat Perbelanjaan,Mega Mall Sorong,"Jalan Basuki Rahmat Klabulu, Malaimsimsa, Malaingkedi, Kec. Sorong Utara, Kota Sorong, Papua Bar. 98412","Malaimsimsa, Malaingkedi, Kec. Sorong Utara, Kota Sorong",PAPUA BARAT,98412.0,Indonesia,,-0.8873097,131.3012842,https://maps.google.com/?cid=0x0:0x364e52ce8985aa7
supermarket,Toko,Senyum 5000 kampung baru,"47H3+P5G, Klabala, Distrik Sorong Barat, Kota Sorong, Papua Bar. 98411","Klabala, Distrik Sorong Barat, Kota Sorong",PAPUA BARAT,98411.0,Indonesia,82261572306.0,-0.8706823,131.2529443,https://maps.google.com/?cid=0x0:0x72d37f549bfcdb6e
supermarket,Rumah Pendeta Protestan,Mini Market Manna Mandiri Jemaat GKI Elim Tampa Garam,"564V+R8J Tempat Garam. Maladumes, Jl. Tj. Kasuari, Malaingkedi, Kecamatan Sorong Manoi, Kota Sorong, Papua Bar. 98412","Jl. Tj. Kasuari, Malaingkedi, Kecamatan Sorong Manoi, Kota Sorong",PAPUA BARAT,98412.0,Indonesia,,-0.8429013,131.243272,https://maps.google.com/?cid=0x0:0xfc7b1ed66eb66ddf
supermarket,supermarket,Papua Bar. 98412,"Kota Sorong, Papua Bar.","Kota Sorong, Papua Bar.",PAPUA BARAT,,Indonesia,,-0.8445683,131.3911778,https://maps.google.com/?cid=0x0:0x6e32dbda4609ff48
supermarket,Pusat Perbelanjaan,Papua Supermarket  Dept. Store,"4869+F77 Bar, Sawagumu, Kec. Sorong Utara, Kota Sorong, Papua Bar. 98416","Sawagumu, Kec. Sorong Utara, Kota Sorong",PAPUA BARAT,98416.0,Indonesia,9513160123.0,-0.888831,131.3181847,https://maps.google.com/?cid=0x0:0x7b5f0926a74ad213
supermarket,Minimarket,SAGA Supermarket  Dept. Store,"Jalan A. Yani, Ruko Kuda Laut, Klademak, Kecamatan Sorong Manoi, Kota Sorong, Papua Bar. 98414","Ruko Kuda Laut, Klademak, Kecamatan Sorong Manoi, Kota Sorong",PAPUA BARAT,98414.0,Indonesia,951322784.0,-0.8765248,131.2576755,https://maps.google.com/?cid=0x0:0x963043ed646a7e1e
supermarket,Toko bahan makanan,Homi Supermarket,"478Q+W97, Jl. F Kalasuat, Remu Utara, Distrik Sorong, Kota Sorong, Papua Bar. 98412","Jl. F Kalasuat, Remu Utara, Distrik Sorong, Kota Sorong",PAPUA BARAT,98412.0,Indonesia,,-0.8827053,131.2884188,https://maps.google.com/?cid=0x0:0x9eed04e7f27afbd0
supermarket,Pusat Perbelanjaan,Mega Mall Sorong,"Jalan Basuki Rahmat Klabulu, Malaimsimsa, Malaingkedi, Kec. Sorong Utara, Kota Sorong, Papua Bar. 98412","Malaimsimsa, Malaingkedi, Kec. Sorong Utara, Kota Sorong",PAPUA BARAT,98412.0,Indonesia,,-0.8873097,131.3012842,https://maps.google.com/?cid=0x0:0x364e52ce8985aa7
supermarket,Kantor Perusahaan,Supermarket GOTA,"4868+2X3, Jl. Sungai Maruni, Sawagumu, Distrik Sorong Timur, Kota Sorong, Papua Bar. 98416","Jl. Sungai Maruni, Sawagumu, Distrik Sorong Timur, Kota Sorong",PAPUA BARAT,98416.0,Indonesia,,-0.8900646,131.3173945,https://maps.google.com/?cid=0x0:0xe80a2989cd86300
supermarket,Toko Swalayan,Toko Bone Indah TPR,"Jl. Selat Sunda, Remu Sel., Kecamatan Sorong Manoi, Kota Sorong, Papua Bar. 98412","Remu Sel., Kecamatan Sorong Manoi, Kota Sorong",PAPUA BARAT,98412.0,Indonesia,81248464668.0,-0.8895303,131.2856805,https://maps.google.com/?cid=0x0:0x800f62216788b992
supermarket,Pusat Perbelanjaan,Saga Mart Remu,"samping intense fitness, Jl. Mambruk No.10, Remu Utara, Distrik Sorong, Kota Sorong, Papua Bar. 98416","Jl. Mambruk No.10, Remu Utara, Distrik Sorong, Kota Sorong",PAPUA BARAT,98416.0,Indonesia,,-0.8834556,131.2874923,https://maps.google.com/?cid=0x0:0x92c646f7dc2c33ee
supermarket,Toko Swalayan,Toko Bone Indah TDM,"Jl. Basuki Rahmat, Remu Sel., Kecamatan Sorong Manoi, Kota Sorong, Papua Bar. 98412","Remu Sel., Kecamatan Sorong Manoi, Kota Sorong",PAPUA BARAT,98412.0,Indonesia,81248464668.0,-0.8880794,131.3015446,https://maps.google.com/?cid=0x0:0x60a38ca52cdad462
supermarket,Toko Swalayan,HS Swalayan I,"478P+R9R, Jl. Pramuka, Remu Utara, Distrik Sorong, Kota Sorong, Papua Bar. 98412","Jl. Pramuka, Remu Utara, Distrik Sorong, Kota Sorong",PAPUA BARAT,98412.0,Indonesia,82198248788.0,-0.8828772,131.2858811,https://maps.google.com/?cid=0x0:0xd258a6345c921126
supermarket,Toko Perlengkapan Rumah,Central Sorong,"-22, Jl. Ahmad Yani No.21, Klakublik, Sorong, Sorong City, West Papua 98412","Jl. Ahmad Yani No.21, Klakublik, Sorong, Sorong City",PAPUA BARAT,98412.0,Indonesia,81344260477.0,-0.8793464,131.2641001,https://maps.google.com/?cid=0x0:0x2efd17b9248dd5ca
supermarket,Toko Swalayan,Forza Swalayan Sorong,"47J3+324, Bar., Klasuur, Distrik Sorong, Kota Sorong, Papua Bar. 98411","Bar., Klasuur, Distrik Sorong, Kota Sorong",PAPUA BARAT,98411.0,Indonesia,82233332091.0,-0.8698671,131.2525651,https://maps.google.com/?cid=0x0:0xaf6941927b288cad
supermarket,Grosir,Toko Singgah Dulu,"476C+XCQ, Malawei, Kecamatan Sorong Manoi, Kota Sorong, Papua Bar. 98412","Malawei, Kecamatan Sorong Manoi, Kota Sorong",PAPUA BARAT,98412.0,Indonesia,,-0.8875326,131.271124,https://maps.google.com/?cid=0x0:0x520f3ff53a3e060f
supermarket,Toko bahan makanan,Mini Market Rawa Indah,"4875+VXJ, Sawagumu, Kec. Sorong Utara, Kota Sorong, Papua Bar. 98412","Sawagumu, Kec. Sorong Utara, Kota Sorong",PAPUA BARAT,98412.0,Indonesia,82197506608.0,-0.8852768,131.3098903,https://maps.google.com/?cid=0x0:0x8c4754e04acb18bc
supermarket,supermarket,Papua Bar. 98413,"Klabala, Distrik Sorong Barat, Kota Sorong, Papua Bar.","Kota Sorong, Papua Bar.",PAPUA BARAT,,Indonesia,,-0.8669518,131.254029,https://maps.google.com/?cid=0x0:0x352e1f254d39ea2b
supermarket,Minimarket,SAGA Supermarket  Dept. Store,"Jalan A. Yani, Ruko Kuda Laut, Klademak, Kecamatan Sorong Manoi, Kota Sorong, Papua Bar. 98414","Ruko Kuda Laut, Klademak, Kecamatan Sorong Manoi, Kota Sorong",PAPUA BARAT,98414.0,Indonesia,951322784.0,-0.8765248,131.2576755,https://maps.google.com/?cid=0x0:0x963043ed646a7e1e
supermarket,Toko Swalayan,Forza Swalayan Sorong,"47J3+324, Bar., Klasuur, Distrik Sorong, Kota Sorong, Papua Bar. 98411","Bar., Klasuur, Distrik Sorong, Kota Sorong",PAPUA BARAT,98411.0,Indonesia,82233332091.0,-0.8698671,131.2525651,https://maps.google.com/?cid=0x0:0xaf6941927b288cad
supermarket,Toko bahan makanan,Homi Supermarket,"478Q+W97, Jl. F Kalasuat, Remu Utara, Distrik Sorong, Kota Sorong, Papua Bar. 98412","Jl. F Kalasuat, Remu Utara, Distrik Sorong, Kota Sorong",PAPUA BARAT,98412.0,Indonesia,,-0.8827053,131.2884188,https://maps.google.com/?cid=0x0:0x9eed04e7f27afbd0
supermarket,Pusat Perbelanjaan,Saga Mart Remu,"samping intense fitness, Jl. Mambruk No.10, Remu Utara, Distrik Sorong, Kota Sorong, Papua Bar. 98416","Jl. Mambruk No.10, Remu Utara, Distrik Sorong, Kota Sorong",PAPUA BARAT,98416.0,Indonesia,,-0.8834556,131.2874923,https://maps.google.com/?cid=0x0:0x92c646f7dc2c33ee
supermarket,Pusat Perbelanjaan,Mega Mall Sorong,"Jalan Basuki Rahmat Klabulu, Malaimsimsa, Malaingkedi, Kec. Sorong Utara, Kota Sorong, Papua Bar. 98412","Malaimsimsa, Malaingkedi, Kec. Sorong Utara, Kota Sorong",PAPUA BARAT,98412.0,Indonesia,,-0.8873097,131.3012842,https://maps.google.com/?cid=0x0:0x364e52ce8985aa7
supermarket,Pusat Perbelanjaan,SAGA BOSWESEN,"Jl. RA Kartini Jl. Boswesen No.33, Klasuur, Distrik Sorong Barat, Kota Sorong, Papua Bar. 98413","Klasuur, Distrik Sorong Barat, Kota Sorong",PAPUA BARAT,98413.0,Indonesia,82198859889.0,-0.8637467,131.2494116,https://maps.google.com/?cid=0x0:0xb095b8268ccda3e3
supermarket,Pusat Perbelanjaan,RAMAYANA Mall Sorong,"Jl. Wahid Hasyim 220 A-B, Jakarta, Papua Bar. 10250",Jakarta,PAPUA BARAT,10250.0,Indonesia,951332505.0,-0.8820615,131.2755023,https://maps.google.com/?cid=0x0:0x595b97e0cac05b45
supermarket,Toko Perlengkapan Rumah,Central Sorong,"-22, Jl. Ahmad Yani No.21, Klakublik, Sorong, Sorong City, West Papua 98412","Jl. Ahmad Yani No.21, Klakublik, Sorong, Sorong City",PAPUA BARAT,98412.0,Indonesia,81344260477.0,-0.8793464,131.2641001,https://maps.google.com/?cid=0x0:0x2efd17b9248dd5ca
supermarket,Kantor Perusahaan,Supermarket GOTA,"4868+2X3, Jl. Sungai Maruni, Sawagumu, Distrik Sorong Timur, Kota Sorong, Papua Bar. 98416","Jl. Sungai Maruni, Sawagumu, Distrik Sorong Timur, Kota Sorong",PAPUA BARAT,98416.0,Indonesia,,-0.8900646,131.3173945,https://maps.google.com/?cid=0x0:0xe80a2989cd86300
supermarket,Pusat Perbelanjaan,Kios Bella,"Jl. Pulau Sulawesi No.10, Kp. Baru, Distrik Sorong Barat, Kota Sorong, Papua Bar. 98411","Kp. Baru, Distrik Sorong Barat, Kota Sorong",PAPUA BARAT,98411.0,Indonesia,9513175942.0,-0.8672656,131.2545655,https://maps.google.com/?cid=0x0:0xe16810678b749a68
supermarket,Toko Swalayan,HS Swalayan I,"478P+R9R, Jl. Pramuka, Remu Utara, Distrik Sorong, Kota Sorong, Papua Bar. 98412","Jl. Pramuka, Remu Utara, Distrik Sorong, Kota Sorong",PAPUA BARAT,98412.0,Indonesia,82198248788.0,-0.8828772,131.2858811,https://maps.google.com/?cid=0x0:0xd258a6345c921126
supermarket,Supermarket Diskon,Zombie,"47J4+V33, Unnamed Road, Klabala, Distrik Sorong Barat, Kota Sorong, Papua Bar. 98411","Unnamed Road, Klabala, Distrik Sorong Barat, Kota Sorong",PAPUA BARAT,98411.0,Indonesia,,-0.8678713,131.2551757,https://maps.google.com/?cid=0x0:0x8806660e8e949080
supermarket,Pusat Perbelanjaan,Saga Aimas,"28VG+26V, Jl. Nangka, Malawili, Kec. Aimas, Kabupaten Sorong, Papua Bar. 98414","Jl. Nangka, Malawili, Kec. Aimas, Kabupaten Sorong",PAPUA BARAT,98414.0,Indonesia,81351816880.0,-0.9574598,131.3257559,https://maps.google.com/?cid=0x0:0x2ba45ddc0e9b2391
supermarket,supermarket,Papua Bar. 98414,Papua Bar.,Papua Bar.,PAPUA BARAT,,Indonesia,,-0.923988,131.3811577,https://maps.google.com/?cid=0x0:0xa17d4a17a04184b
supermarket,Minimarket,SAGA Supermarket  Dept. Store,"Jalan A. Yani, Ruko Kuda Laut, Klademak, Kecamatan Sorong Manoi, Kota Sorong, Papua Bar. 98414","Ruko Kuda Laut, Klademak, Kecamatan Sorong Manoi, Kota Sorong",PAPUA BARAT,98414.0,Indonesia,951322784.0,-0.8765248,131.2576755,https://maps.google.com/?cid=0x0:0x963043ed646a7e1e
supermarket,Toserba,Toko Jawa Timur 2 Aimas / Surabaya Abadi,"28F4+9WW, Bar, Jl. Kasuari, Malawele, Kec. Aimas, Kabupaten Sorong, Papua Bar. 98414","Bar, Jl. Kasuari, Malawele, Kec. Aimas, Kabupaten Sorong",PAPUA BARAT,98414.0,Indonesia,,-0.9780529,131.3048963,https://maps.google.com/?cid=0x0:0xe7b34dad0b7dd415
supermarket,Toko Swalayan,KARTINI MINIMARKET,"28V6+3H7, Malawele, Kec. Aimas, Kabupaten Sorong, Papua Bar. 98414","Malawele, Kec. Aimas, Kabupaten Sorong",PAPUA BARAT,98414.0,Indonesia,85232040014.0,-0.9573282,131.311428,https://maps.google.com/?cid=0x0:0xbcf5eafcc5a7eec0
supermarket,Pusat Perbelanjaan,Saga Aimas,"28VG+26V, Jl. Nangka, Malawili, Kec. Aimas, Kabupaten Sorong, Papua Bar. 98414","Jl. Nangka, Malawili, Kec. Aimas, Kabupaten Sorong",PAPUA BARAT,98414.0,Indonesia,81351816880.0,-0.9574598,131.3257559,https://maps.google.com/?cid=0x0:0x2ba45ddc0e9b2391
supermarket,Pusat Perbelanjaan,Papua Supermarket  Dept. Store,"4869+F77 Bar, Sawagumu, Kec. Sorong Utara, Kota Sorong, Papua Bar. 98416","Sawagumu, Kec. Sorong Utara, Kota Sorong",PAPUA BARAT,98416.0,Indonesia,9513160123.0,-0.888831,131.3181847,https://maps.google.com/?cid=0x0:0x7b5f0926a74ad213
supermarket,Toko umum,Toko Rizky Indah,"Jl. Sorong - Aimas, Klamana, Distrik Sorong Timur, Kota Sorong, Papua Bar. 98416","Klamana, Distrik Sorong Timur, Kota Sorong",PAPUA BARAT,98416.0,Indonesia,81248464668.0,-0.9121516,131.3307954,https://maps.google.com/?cid=0x0:0x78aa457ad600e381
supermarket,Toko bahan makanan,AULIA SAYUR,"Jl. Cempedak, Malawili, Kec. Aimas, Kabupaten Sorong, Papua Bar. 98414","Malawili, Kec. Aimas, Kabupaten Sorong",PAPUA BARAT,98414.0,Indonesia,,-0.9553418,131.3309379,https://maps.google.com/?cid=0x0:0x79eff6d2d2fc45ef
supermarket,Tempat Fitness,Tangguh Mart Plaza,"Jl. Klamono No.19 Km 19, Aimas, Kec. Aimas, Kabupaten Sorong, Papua Bar. 98414","Aimas, Kec. Aimas, Kabupaten Sorong",PAPUA BARAT,98414.0,Indonesia,8114819966.0,-0.9533569,131.3363244,https://maps.google.com/?cid=0x0:0x2846cd02a39b335c
supermarket,Kantor Perusahaan,Supermarket GOTA,"4868+2X3, Jl. Sungai Maruni, Sawagumu, Distrik Sorong Timur, Kota Sorong, Papua Bar. 98416","Jl. Sungai Maruni, Sawagumu, Distrik Sorong Timur, Kota Sorong",PAPUA BARAT,98416.0,Indonesia,,-0.8900646,131.3173945,https://maps.google.com/?cid=0x0:0xe80a2989cd86300
supermarket,Toko bahan makanan,Pangestu M@rt,"28V4+7X4, Bar., Malawele, Kec. Aimas, Kabupaten Sorong, Papua Bar. 98413","Bar., Malawele, Kec. Aimas, Kabupaten Sorong",PAPUA BARAT,98413.0,Indonesia,,-0.9568563,131.307445,https://maps.google.com/?cid=0x0:0xc2cb8e9003ece9d2
supermarket,Toko,Surya Copy Center,"28RM+X2M, Malawili, Kec. Aimas, Kabupaten Sorong, Papua Bar. 98414","Malawili, Kec. Aimas, Kabupaten Sorong",PAPUA BARAT,98414.0,Indonesia,8124893873.0,-0.9575411,131.3325611,https://maps.google.com/?cid=0x0:0xbfa89ce4787fc1e1
supermarket,Perumahan,Bumi Sorong Indah,"jl.perum pemda No.km 24, Aimas, Sorong Regency, West Papua 98414","Aimas, Sorong Regency",PAPUA BARAT,98414.0,Indonesia,,-0.9790529,131.3686752,https://maps.google.com/?cid=0x0:0x6d748e8c29ee689c
supermarket,Toko bahan makanan,Toko Bone Indah Aimas,"28VG+35P, Jl. Nangka, Malawili, Kec. Aimas, Kabupaten Sorong, Papua Bar. 98414","Jl. Nangka, Malawili, Kec. Aimas, Kabupaten Sorong",PAPUA BARAT,98414.0,Indonesia,,-0.9571264,131.3255586,https://maps.google.com/?cid=0x0:0xd4b7830b2537a728
supermarket,supermarket,Papua Bar. 98415,"Distrik Mariat, Kabupaten Sorong, Papua Bar.","Kabupaten Sorong, Papua Bar.",PAPUA BARAT,,Indonesia,,-1.0184261,131.3510866,https://maps.google.com/?cid=0x0:0x4d8344d873702960
supermarket,Minimarket,SAMUDRA MART,"Mariyai, Distrik Mariat, Kabupaten Sorong, Papua Bar. 98415","Distrik Mariat, Kabupaten Sorong",PAPUA BARAT,98415.0,Indonesia,,-1.017638,131.3163597,https://maps.google.com/?cid=0x0:0x45e382ab4c0d03ea
supermarket,Pusat Perbelanjaan,Papua Supermarket  Dept. Store,"4869+F77 Bar, Sawagumu, Kec. Sorong Utara, Kota Sorong, Papua Bar. 98416","Sawagumu, Kec. Sorong Utara, Kota Sorong",PAPUA BARAT,98416.0,Indonesia,9513160123.0,-0.888831,131.3181847,https://maps.google.com/?cid=0x0:0x7b5f0926a74ad213
supermarket,Toserba,Toko Jawa Timur 1 SP1,"283W+C66, Unnamed Rd, Klamasen, Distrik Mariat, Kabupaten Sorong, Papua Bar. 98416","Unnamed Rd, Klamasen, Distrik Mariat, Kabupaten Sorong",PAPUA BARAT,98416.0,Indonesia,,-0.9964672,131.3455178,https://maps.google.com/?cid=0x0:0x884de5de048a91f9
supermarket,Toko bahan makanan,Kios Risman,"X8J8+VC8, Jl. Menur, RT.003/RW.001, Klaru, Mariyai, Distrik Mariat, Kabupaten Sorong, Papua Bar. 98415","Jl. Menur, RT.003/RW.001, Klaru, Mariyai, Distrik Mariat, Kabupaten Sorong",PAPUA BARAT,98415.0,Indonesia,82247050774.0,-1.0178324,131.3160754,https://maps.google.com/?cid=0x0:0xa11588e477119195
supermarket,Toko bahan makanan,Kios Putri,"X8J8+VQ5, Jl. Kamboja, Mariyai, Distrik Mariat, Kabupaten Sorong, Papua Bar. 98415","Jl. Kamboja, Mariyai, Distrik Mariat, Kabupaten Sorong",PAPUA BARAT,98415.0,Indonesia,8127000816.0,-1.0178544,131.3169736,https://maps.google.com/?cid=0x0:0x83afac2cbdbfb7ff
supermarket,Kantor Perusahaan,Supermarket GOTA,"4868+2X3, Jl. Sungai Maruni, Sawagumu, Distrik Sorong Timur, Kota Sorong, Papua Bar. 98416","Jl. Sungai Maruni, Sawagumu, Distrik Sorong Timur, Kota Sorong",PAPUA BARAT,98416.0,Indonesia,,-0.8900646,131.3173945,https://maps.google.com/?cid=0x0:0xe80a2989cd86300
supermarket,Kios,Toko Nur Hd,"X7CW+PXW, Jl. Nusa Indah, Mariyai, Mayamuk, Kabupaten Sorong, Papua Bar. 98415","Jl. Nusa Indah, Mariyai, Mayamuk, Kabupaten Sorong",PAPUA BARAT,98415.0,Indonesia,,-1.0281432,131.2974515,https://maps.google.com/?cid=0x0:0x3e814ac86ff6a730
supermarket,Toko,WARUNG SERBA ADA 'SARINAH',"X8X9+9MQ, Klasuluk, Distrik Mariat, Kabupaten Sorong, Papua Bar. 98415","Klasuluk, Distrik Mariat, Kabupaten Sorong",PAPUA BARAT,98415.0,Indonesia,,-1.0015386,131.319234,https://maps.google.com/?cid=0x0:0xbbfb5f0ac46c8124
supermarket,Perumahan,Bumi Sorong Indah,"jl.perum pemda No.km 24, Aimas, Sorong Regency, West Papua 98414","Aimas, Sorong Regency",PAPUA BARAT,98414.0,Indonesia,,-0.9790529,131.3686752,https://maps.google.com/?cid=0x0:0x6d748e8c29ee689c
supermarket,Toko,Toko FERLY,"Makbusun, Mayamuk, Kabupaten Sorong, Papua Bar. 98412","Mayamuk, Kabupaten Sorong",PAPUA BARAT,98412.0,Indonesia,85244149800.0,-1.0276201,131.292702,https://maps.google.com/?cid=0x0:0xade94a12594d3d91
supermarket,Minimarket,HARTIN MART,"Klamasen, Distrik Mariat, Kabupaten Sorong, Papua Bar. 98416","Distrik Mariat, Kabupaten Sorong",PAPUA BARAT,98416.0,Indonesia,82238500801.0,-0.9822081,131.3542113,https://maps.google.com/?cid=0x0:0xf3e21eb19cbd4f0d
supermarket,Toko bahan makanan,Homi Supermarket,"478Q+W97, Jl. F Kalasuat, Remu Utara, Distrik Sorong, Kota Sorong, Papua Bar. 98412","Jl. F Kalasuat, Remu Utara, Distrik Sorong, Kota Sorong",PAPUA BARAT,98412.0,Indonesia,,-0.8827053,131.2884188,https://maps.google.com/?cid=0x0:0x9eed04e7f27afbd0
supermarket,Toko bahan makanan,Toko Sabila / Src Sabila,"sp 3 Makbusun, Mayamuk, Papua Bar., Makbusun, Mayamuk, Kabupaten Sorong, Papua Bar. 98451","Mayamuk, Papua Bar., Makbusun, Mayamuk, Kabupaten Sorong",PAPUA BARAT,98451.0,Indonesia,,-1.0315998,131.2901767,https://maps.google.com/?cid=0x0:0x6a106109b24ef992
supermarket,supermarket,Papua Bar. 98417,"Kabupaten Sorong, Papua Bar.","Kabupaten Sorong, Papua Bar.",PAPUA BARAT,,Indonesia,,-1.0174852,131.4112125,https://maps.google.com/?cid=0x0:0xc20f17b25d0eed85
supermarket,Minimarket,SAGA Supermarket  Dept. Store,"Jalan A. Yani, Ruko Kuda Laut, Klademak, Kecamatan Sorong Manoi, Kota Sorong, Papua Bar. 98414","Ruko Kuda Laut, Klademak, Kecamatan Sorong Manoi, Kota Sorong",PAPUA BARAT,98414.0,Indonesia,951322784.0,-0.8765248,131.2576755,https://maps.google.com/?cid=0x0:0x963043ed646a7e1e
supermarket,Pusat Perbelanjaan,Papua Supermarket  Dept. Store,"4869+F77 Bar, Sawagumu, Kec. Sorong Utara, Kota Sorong, Papua Bar. 98416","Sawagumu, Kec. Sorong Utara, Kota Sorong",PAPUA BARAT,98416.0,Indonesia,9513160123.0,-0.888831,131.3181847,https://maps.google.com/?cid=0x0:0x7b5f0926a74ad213
supermarket,Pusat Perbelanjaan,Mega Mall Sorong,"Jalan Basuki Rahmat Klabulu, Malaimsimsa, Malaingkedi, Kec. Sorong Utara, Kota Sorong, Papua Bar. 98412","Malaimsimsa, Malaingkedi, Kec. Sorong Utara, Kota Sorong",PAPUA BARAT,98412.0,Indonesia,,-0.8873097,131.3012842,https://maps.google.com/?cid=0x0:0x364e52ce8985aa7
supermarket,Pusat Perbelanjaan,Saga Mart Remu,"samping intense fitness, Jl. Mambruk No.10, Remu Utara, Distrik Sorong, Kota Sorong, Papua Bar. 98416","Jl. Mambruk No.10, Remu Utara, Distrik Sorong, Kota Sorong",PAPUA BARAT,98416.0,Indonesia,,-0.8834556,131.2874923,https://maps.google.com/?cid=0x0:0x92c646f7dc2c33ee
supermarket,Toko Swalayan,HS Swalayan I,"478P+R9R, Jl. Pramuka, Remu Utara, Distrik Sorong, Kota Sorong, Papua Bar. 98412","Jl. Pramuka, Remu Utara, Distrik Sorong, Kota Sorong",PAPUA BARAT,98412.0,Indonesia,82198248788.0,-0.8828772,131.2858811,https://maps.google.com/?cid=0x0:0xd258a6345c921126
supermarket,Pusat Perbelanjaan,Saga Aimas,"28VG+26V, Jl. Nangka, Malawili, Kec. Aimas, Kabupaten Sorong, Papua Bar. 98414","Jl. Nangka, Malawili, Kec. Aimas, Kabupaten Sorong",PAPUA BARAT,98414.0,Indonesia,81351816880.0,-0.9574598,131.3257559,https://maps.google.com/?cid=0x0:0x2ba45ddc0e9b2391
supermarket,Pusat Perbelanjaan,PARAGON SQUARE Mall  Hotel Sorong,"4874+4RH Paragon Square Mall, Jl. Basuki Rahmat Lt. 2, Sawagumu, Kec. Sorong Utara, Kota Sorong, Papua Bar. 98412","Jl. Basuki Rahmat Lt. 2, Sawagumu, Kec. Sorong Utara, Kota Sorong",PAPUA BARAT,98412.0,Indonesia,81247232214.0,-0.8871443,131.3071264,https://maps.google.com/?cid=0x0:0xd02481be48cb6e05
supermarket,Toko,DelliMart,"Jl. Basuki Rahmat No.Km 9 5, Sawagumu, Kec. Sorong Utara, Kota Sorong, Papua Bar.","Kota Sorong, Papua Bar.",PAPUA BARAT,,Indonesia,,-0.8869909,131.307032,https://maps.google.com/?cid=0x0:0x971b2767ce3be933
supermarket,Toko bahan makanan,HS Swalayan II,"478Q+X9Q, Bar, Remu Utara, Distrik Sorong, Kota Sorong, Papua Bar. 98412","Bar, Remu Utara, Distrik Sorong, Kota Sorong",PAPUA BARAT,98412.0,Indonesia,,-0.8825386,131.2884986,https://maps.google.com/?cid=0x0:0xef2ad6eba7dce152
supermarket,Pusat Perbelanjaan,SAGA BOSWESEN,"Jl. RA Kartini Jl. Boswesen No.33, Klasuur, Distrik Sorong Barat, Kota Sorong, Papua Bar. 98413","Klasuur, Distrik Sorong Barat, Kota Sorong",PAPUA BARAT,98413.0,Indonesia,82198859889.0,-0.8637467,131.2494116,https://maps.google.com/?cid=0x0:0xb095b8268ccda3e3
supermarket,Pujasera,Hangout Avenue Sorong,"Jl Sungai Maruni KM 10, Masuk No.23, Kota Sorong, Papua Bar. 98416","Masuk No.23, Kota Sorong",PAPUA BARAT,98416.0,Indonesia,82197698090.0,-0.8868107,131.3216004,https://maps.google.com/?cid=0x0:0x29c3ed1d6d1ac389
supermarket,Asosiasi/organisasi,Kilo 10,"48FM+J7H, Matalamagi, Kec. Sorong Utara, Kota Sorong, Papua Bar.","Kota Sorong, Papua Bar.",PAPUA BARAT,,Indonesia,82397788329.0,-0.8759338,131.3332409,https://maps.google.com/?cid=0x0:0xc68dfba4d0442110
supermarket,supermarket,Thio Supermarket,"Jl. Basuki Rahmat No.9, Remu Utara, Klawalu, Distrik Sorong Timur, Kota Sorong, Papua Bar. 98416","Remu Utara, Klawalu, Distrik Sorong Timur, Kota Sorong",PAPUA BARAT,98416.0,Indonesia,811485555.0,-0.8834768,131.2864957,https://maps.google.com/?cid=0x0:0xd5803c8d58b1861b
supermarket,supermarket,Papua Bar. 98418,"Klasabi, Kecamatan Sorong Manoi, Kota Sorong, Papua Bar.","Kota Sorong, Papua Bar.",PAPUA BARAT,,Indonesia,,-0.9009162,131.3028579,https://maps.google.com/?cid=0x0:0x586b4aa754f22adb
supermarket,Pusat Perbelanjaan,Papua Supermarket  Dept. Store,"4869+F77 Bar, Sawagumu, Kec. Sorong Utara, Kota Sorong, Papua Bar. 98416","Sawagumu, Kec. Sorong Utara, Kota Sorong",PAPUA BARAT,98416.0,Indonesia,9513160123.0,-0.888831,131.3181847,https://maps.google.com/?cid=0x0:0x7b5f0926a74ad213
supermarket,Kantor Perusahaan,Supermarket GOTA,"4868+2X3, Jl. Sungai Maruni, Sawagumu, Distrik Sorong Timur, Kota Sorong, Papua Bar. 98416","Jl. Sungai Maruni, Sawagumu, Distrik Sorong Timur, Kota Sorong",PAPUA BARAT,98416.0,Indonesia,,-0.8900646,131.3173945,https://maps.google.com/?cid=0x0:0xe80a2989cd86300
supermarket,Pusat Perbelanjaan,Mega Mall Sorong,"Jalan Basuki Rahmat Klabulu, Malaimsimsa, Malaingkedi, Kec. Sorong Utara, Kota Sorong, Papua Bar. 98412","Malaimsimsa, Malaingkedi, Kec. Sorong Utara, Kota Sorong",PAPUA BARAT,98412.0,Indonesia,,-0.8873097,131.3012842,https://maps.google.com/?cid=0x0:0x364e52ce8985aa7
supermarket,Pusat Perbelanjaan,Robinson Supermarket,"479G+45M Bar, Klademak, Distrik Sorong, Kota Sorong, Papua Bar. 98412","Klademak, Distrik Sorong, Kota Sorong",PAPUA BARAT,98412.0,Indonesia,,-0.882151,131.2754362,https://maps.google.com/?cid=0x0:0x6ba59819db5f369
supermarket,Toko bahan makanan,Homi Supermarket,"478Q+W97, Jl. F Kalasuat, Remu Utara, Distrik Sorong, Kota Sorong, Papua Bar. 98412","Jl. F Kalasuat, Remu Utara, Distrik Sorong, Kota Sorong",PAPUA BARAT,98412.0,Indonesia,,-0.8827053,131.2884188,https://maps.google.com/?cid=0x0:0x9eed04e7f27afbd0
supermarket,Pusat Perbelanjaan,Saga Mart Remu,"samping intense fitness, Jl. Mambruk No.10, Remu Utara, Distrik Sorong, Kota Sorong, Papua Bar. 98416","Jl. Mambruk No.10, Remu Utara, Distrik Sorong, Kota Sorong",PAPUA BARAT,98416.0,Indonesia,,-0.8834556,131.2874923,https://maps.google.com/?cid=0x0:0x92c646f7dc2c33ee
supermarket,Toko,Diory Mart,"Klawuyuk, Distrik Sorong Timur, Kota Sorong, Papua Bar. 98416","Distrik Sorong Timur, Kota Sorong",PAPUA BARAT,98416.0,Indonesia,951335757.0,-0.9011676,131.3227504,https://maps.google.com/?cid=0x0:0x66e0b37bca70963
supermarket,Toko Swalayan,Forza Swalayan Sorong,"47J3+324, Bar., Klasuur, Distrik Sorong, Kota Sorong, Papua Bar. 98411","Bar., Klasuur, Distrik Sorong, Kota Sorong",PAPUA BARAT,98411.0,Indonesia,82233332091.0,-0.8698671,131.2525651,https://maps.google.com/?cid=0x0:0xaf6941927b288cad
supermarket,Toko Swalayan,HS Swalayan I,"478P+R9R, Jl. Pramuka, Remu Utara, Distrik Sorong, Kota Sorong, Papua Bar. 98412","Jl. Pramuka, Remu Utara, Distrik Sorong, Kota Sorong",PAPUA BARAT,98412.0,Indonesia,82198248788.0,-0.8828772,131.2858811,https://maps.google.com/?cid=0x0:0xd258a6345c921126
supermarket,Pusat Perbelanjaan,PARAGON SQUARE Mall  Hotel Sorong,"4874+4RH Paragon Square Mall, Jl. Basuki Rahmat Lt. 2, Sawagumu, Kec. Sorong Utara, Kota Sorong, Papua Bar. 98412","Jl. Basuki Rahmat Lt. 2, Sawagumu, Kec. Sorong Utara, Kota Sorong",PAPUA BARAT,98412.0,Indonesia,81247232214.0,-0.8871443,131.3071264,https://maps.google.com/?cid=0x0:0xd02481be48cb6e05
supermarket,Toko Perlengkapan Rumah,Central Sorong,"-22, Jl. Ahmad Yani No.21, Klakublik, Sorong, Sorong City, West Papua 98412","Jl. Ahmad Yani No.21, Klakublik, Sorong, Sorong City",PAPUA BARAT,98412.0,Indonesia,81344260477.0,-0.8793464,131.2641001,https://maps.google.com/?cid=0x0:0x2efd17b9248dd5ca
supermarket,Toko,DelliMart,"Jl. Basuki Rahmat No.Km 9 5, Sawagumu, Kec. Sorong Utara, Kota Sorong, Papua Bar.","Kota Sorong, Papua Bar.",PAPUA BARAT,,Indonesia,,-0.8869909,131.307032,https://maps.google.com/?cid=0x0:0x971b2767ce3be933
supermarket,Toserba,Toko Jawa Timur 1 SP1,"283W+C66, Unnamed Rd, Klamasen, Distrik Mariat, Kabupaten Sorong, Papua Bar. 98416","Unnamed Rd, Klamasen, Distrik Mariat, Kabupaten Sorong",PAPUA BARAT,98416.0,Indonesia,,-0.9964672,131.3455178,https://maps.google.com/?cid=0x0:0x884de5de048a91f9
supermarket,supermarket,Papua Bar. 98419,"Kabupaten Sorong, Papua Bar.","Kabupaten Sorong, Papua Bar.",PAPUA BARAT,,Indonesia,,-0.9516965,131.4612677,https://maps.google.com/?cid=0x0:0x1846ff160c020f5b
supermarket,Minimarket,SAGA Supermarket  Dept. Store,"Jalan A. Yani, Ruko Kuda Laut, Klademak, Kecamatan Sorong Manoi, Kota Sorong, Papua Bar. 98414","Ruko Kuda Laut, Klademak, Kecamatan Sorong Manoi, Kota Sorong",PAPUA BARAT,98414.0,Indonesia,951322784.0,-0.8765248,131.2576755,https://maps.google.com/?cid=0x0:0x963043ed646a7e1e
supermarket,Pusat Perbelanjaan,Papua Supermarket  Dept. Store,"4869+F77 Bar, Sawagumu, Kec. Sorong Utara, Kota Sorong, Papua Bar. 98416","Sawagumu, Kec. Sorong Utara, Kota Sorong",PAPUA BARAT,98416.0,Indonesia,9513160123.0,-0.888831,131.3181847,https://maps.google.com/?cid=0x0:0x7b5f0926a74ad213
supermarket,Toko bahan makanan,Homi Supermarket,"478Q+W97, Jl. F Kalasuat, Remu Utara, Distrik Sorong, Kota Sorong, Papua Bar. 98412","Jl. F Kalasuat, Remu Utara, Distrik Sorong, Kota Sorong",PAPUA BARAT,98412.0,Indonesia,,-0.8827053,131.2884188,https://maps.google.com/?cid=0x0:0x9eed04e7f27afbd0
supermarket,Pusat Perbelanjaan,Mega Mall Sorong,"Jalan Basuki Rahmat Klabulu, Malaimsimsa, Malaingkedi, Kec. Sorong Utara, Kota Sorong, Papua Bar. 98412","Malaimsimsa, Malaingkedi, Kec. Sorong Utara, Kota Sorong",PAPUA BARAT,98412.0,Indonesia,,-0.8873097,131.3012842,https://maps.google.com/?cid=0x0:0x364e52ce8985aa7
supermarket,Pusat Perbelanjaan,Saga Mart Remu,"samping intense fitness, Jl. Mambruk No.10, Remu Utara, Distrik Sorong, Kota Sorong, Papua Bar. 98416","Jl. Mambruk No.10, Remu Utara, Distrik Sorong, Kota Sorong",PAPUA BARAT,98416.0,Indonesia,,-0.8834556,131.2874923,https://maps.google.com/?cid=0x0:0x92c646f7dc2c33ee
supermarket,Toko Swalayan,HS Swalayan I,"478P+R9R, Jl. Pramuka, Remu Utara, Distrik Sorong, Kota Sorong, Papua Bar. 98412","Jl. Pramuka, Remu Utara, Distrik Sorong, Kota Sorong",PAPUA BARAT,98412.0,Indonesia,82198248788.0,-0.8828772,131.2858811,https://maps.google.com/?cid=0x0:0xd258a6345c921126
supermarket,Perumahan,Bumi Sorong Indah,"jl.perum pemda No.km 24, Aimas, Sorong Regency, West Papua 98414","Aimas, Sorong Regency",PAPUA BARAT,98414.0,Indonesia,,-0.9790529,131.3686752,https://maps.google.com/?cid=0x0:0x6d748e8c29ee689c
supermarket,Pusat Perbelanjaan,PARAGON SQUARE Mall  Hotel Sorong,"4874+4RH Paragon Square Mall, Jl. Basuki Rahmat Lt. 2, Sawagumu, Kec. Sorong Utara, Kota Sorong, Papua Bar. 98412","Jl. Basuki Rahmat Lt. 2, Sawagumu, Kec. Sorong Utara, Kota Sorong",PAPUA BARAT,98412.0,Indonesia,81247232214.0,-0.8871443,131.3071264,https://maps.google.com/?cid=0x0:0xd02481be48cb6e05
supermarket,Pusat Perbelanjaan,Saga Aimas,"28VG+26V, Jl. Nangka, Malawili, Kec. Aimas, Kabupaten Sorong, Papua Bar. 98414","Jl. Nangka, Malawili, Kec. Aimas, Kabupaten Sorong",PAPUA BARAT,98414.0,Indonesia,81351816880.0,-0.9574598,131.3257559,https://maps.google.com/?cid=0x0:0x2ba45ddc0e9b2391
supermarket,Toko,DelliMart,"Jl. Basuki Rahmat No.Km 9 5, Sawagumu, Kec. Sorong Utara, Kota Sorong, Papua Bar.","Kota Sorong, Papua Bar.",PAPUA BARAT,,Indonesia,,-0.8869909,131.307032,https://maps.google.com/?cid=0x0:0x971b2767ce3be933
supermarket,Toko bahan makanan,HS Swalayan II,"478Q+X9Q, Bar, Remu Utara, Distrik Sorong, Kota Sorong, Papua Bar. 98412","Bar, Remu Utara, Distrik Sorong, Kota Sorong",PAPUA BARAT,98412.0,Indonesia,,-0.8825386,131.2884986,https://maps.google.com/?cid=0x0:0xef2ad6eba7dce152
supermarket,Supermarket Industri,Toko Hansen,"479M+5F2, Jl. Ahmad Yani, Remu Utara, Distrik Sorong, Kota Sorong, Papua Bar. 98412","Jl. Ahmad Yani, Remu Utara, Distrik Sorong, Kota Sorong",PAPUA BARAT,98412.0,Indonesia,,-0.882117,131.2836416,https://maps.google.com/?cid=0x0:0xcfd1b0303edd2880
supermarket,Toko Olahraga Luar Ruangan,TOKO MG SORONG DAN GRM SORONG,"479Q+PMH, Remu Utara, Distrik Sorong, Kota Sorong, Papua Bar. 98412","Remu Utara, Distrik Sorong, Kota Sorong",PAPUA BARAT,98412.0,Indonesia,9513138167.0,-0.8806987,131.2892464,https://maps.google.com/?cid=0x0:0x3dc40c7cd798a341
supermarket,supermarket,Kecamatan Sorong Manoi,"Kota Sorong, Papua Bar.","Kota Sorong, Papua Bar.",PAPUA BARAT,,Indonesia,,-0.8875965,131.2870369,https://maps.google.com/?cid=0x0:0xeae8019c83ed0741
supermarket,Minimarket,SAGA Supermarket  Dept. Store,"Jalan A. Yani, Ruko Kuda Laut, Klademak, Kecamatan Sorong Manoi, Kota Sorong, Papua Bar. 98414","Ruko Kuda Laut, Klademak, Kecamatan Sorong Manoi, Kota Sorong",PAPUA BARAT,98414.0,Indonesia,951322784.0,-0.8765248,131.2576755,https://maps.google.com/?cid=0x0:0x963043ed646a7e1e
supermarket,Pusat Perbelanjaan,Papua Supermarket  Dept. Store,"4869+F77 Bar, Sawagumu, Kec. Sorong Utara, Kota Sorong, Papua Bar. 98416","Sawagumu, Kec. Sorong Utara, Kota Sorong",PAPUA BARAT,98416.0,Indonesia,9513160123.0,-0.888831,131.3181847,https://maps.google.com/?cid=0x0:0x7b5f0926a74ad213
supermarket,Pusat Perbelanjaan,Mega Mall Sorong,"Jalan Basuki Rahmat Klabulu, Malaimsimsa, Malaingkedi, Kec. Sorong Utara, Kota Sorong, Papua Bar. 98412","Malaimsimsa, Malaingkedi, Kec. Sorong Utara, Kota Sorong",PAPUA BARAT,98412.0,Indonesia,,-0.8873097,131.3012842,https://maps.google.com/?cid=0x0:0x364e52ce8985aa7
supermarket,Pusat Perbelanjaan,Saga Mart Remu,"samping intense fitness, Jl. Mambruk No.10, Remu Utara, Distrik Sorong, Kota Sorong, Papua Bar. 98416","Jl. Mambruk No.10, Remu Utara, Distrik Sorong, Kota Sorong",PAPUA BARAT,98416.0,Indonesia,,-0.8834556,131.2874923,https://maps.google.com/?cid=0x0:0x92c646f7dc2c33ee
supermarket,Toko Swalayan,Toko Bone Indah TPR,"Jl. Selat Sunda, Remu Sel., Kecamatan Sorong Manoi, Kota Sorong, Papua Bar. 98412","Remu Sel., Kecamatan Sorong Manoi, Kota Sorong",PAPUA BARAT,98412.0,Indonesia,81248464668.0,-0.8895303,131.2856805,https://maps.google.com/?cid=0x0:0x800f62216788b992
supermarket,Toko,Toko Larisa Jaya,"Bar., Malabutor, Kecamatan Sorong Manoi, Kota Sorong, Papua Bar. 98412","Malabutor, Kecamatan Sorong Manoi, Kota Sorong",PAPUA BARAT,98412.0,Indonesia,8114820831.0,-0.886806,131.2821181,https://maps.google.com/?cid=0x0:0xf6bb0a5e9628b25b
supermarket,Pusat Perbelanjaan,RAMAYANA Mall Sorong,"Jl. Wahid Hasyim 220 A-B, Jakarta, Papua Bar. 10250",Jakarta,PAPUA BARAT,10250.0,Indonesia,951332505.0,-0.8820615,131.2755023,https://maps.google.com/?cid=0x0:0x595b97e0cac05b45
supermarket,Toko Swalayan,Hocky Mart,"476R+JV9, Malaingkedi, Kec. Sorong Utara, Kota Sorong, Papua Bar. 98412","Malaingkedi, Kec. Sorong Utara, Kota Sorong",PAPUA BARAT,98412.0,Indonesia,,-0.8884634,131.2922326,https://maps.google.com/?cid=0x0:0x24e6ecf5b25c301
supermarket,Toko,Kakashop Sorong,"Jl. Rajawali No.22, Remu Utara, Kec. Sorong Utara, Kota Sorong, Papua Bar. 98414","Remu Utara, Kec. Sorong Utara, Kota Sorong",PAPUA BARAT,98414.0,Indonesia,8112632322.0,-0.8833728,131.2901258,https://maps.google.com/?cid=0x0:0x923666f65a410ae6
supermarket,Pusat Perbelanjaan,PARAGON SQUARE Mall  Hotel Sorong,"4874+4RH Paragon Square Mall, Jl. Basuki Rahmat Lt. 2, Sawagumu, Kec. Sorong Utara, Kota Sorong, Papua Bar. 98412","Jl. Basuki Rahmat Lt. 2, Sawagumu, Kec. Sorong Utara, Kota Sorong",PAPUA BARAT,98412.0,Indonesia,81247232214.0,-0.8871443,131.3071264,https://maps.google.com/?cid=0x0:0xd02481be48cb6e05
supermarket,Toko bahan makanan,HS Swalayan II,"478Q+X9Q, Bar, Remu Utara, Distrik Sorong, Kota Sorong, Papua Bar. 98412","Bar, Remu Utara, Distrik Sorong, Kota Sorong",PAPUA BARAT,98412.0,Indonesia,,-0.8825386,131.2884986,https://maps.google.com/?cid=0x0:0xef2ad6eba7dce152
supermarket,Toko,DelliMart,"Jl. Basuki Rahmat No.Km 9 5, Sawagumu, Kec. Sorong Utara, Kota Sorong, Papua Bar.","Kota Sorong, Papua Bar.",PAPUA BARAT,,Indonesia,,-0.8869909,131.307032,https://maps.google.com/?cid=0x0:0x971b2767ce3be933
supermarket,Pusat Perbelanjaan,Saga Aimas,"28VG+26V, Jl. Nangka, Malawili, Kec. Aimas, Kabupaten Sorong, Papua Bar. 98414","Jl. Nangka, Malawili, Kec. Aimas, Kabupaten Sorong",PAPUA BARAT,98414.0,Indonesia,81351816880.0,-0.9574598,131.3257559,https://maps.google.com/?cid=0x0:0x2ba45ddc0e9b2391
supermarket,supermarket,Kecamatan Sorong Manoi,"Kota Sorong, Papua Bar.","Kota Sorong, Papua Bar.",PAPUA BARAT,,Indonesia,,-0.8875965,131.2870369,https://maps.google.com/?cid=0x0:0xeae8019c83ed0741
supermarket,Minimarket,SAGA Supermarket  Dept. Store,"Jalan A. Yani, Ruko Kuda Laut, Klademak, Kecamatan Sorong Manoi, Kota Sorong, Papua Bar. 98414","Ruko Kuda Laut, Klademak, Kecamatan Sorong Manoi, Kota Sorong",PAPUA BARAT,98414.0,Indonesia,951322784.0,-0.8765248,131.2576755,https://maps.google.com/?cid=0x0:0x963043ed646a7e1e
supermarket,Pusat Perbelanjaan,Papua Supermarket  Dept. Store,"4869+F77 Bar, Sawagumu, Kec. Sorong Utara, Kota Sorong, Papua Bar. 98416","Sawagumu, Kec. Sorong Utara, Kota Sorong",PAPUA BARAT,98416.0,Indonesia,9513160123.0,-0.888831,131.3181847,https://maps.google.com/?cid=0x0:0x7b5f0926a74ad213
supermarket,Pusat Perbelanjaan,Saga Mart Remu,"samping intense fitness, Jl. Mambruk No.10, Remu Utara, Distrik Sorong, Kota Sorong, Papua Bar. 98416","Jl. Mambruk No.10, Remu Utara, Distrik Sorong, Kota Sorong",PAPUA BARAT,98416.0,Indonesia,,-0.8834556,131.2874923,https://maps.google.com/?cid=0x0:0x92c646f7dc2c33ee
supermarket,Toko Swalayan,Toko Bone Indah TPR,"Jl. Selat Sunda, Remu Sel., Kecamatan Sorong Manoi, Kota Sorong, Papua Bar. 98412","Remu Sel., Kecamatan Sorong Manoi, Kota Sorong",PAPUA BARAT,98412.0,Indonesia,81248464668.0,-0.8895303,131.2856805,https://maps.google.com/?cid=0x0:0x800f62216788b992
supermarket,Kantor Perusahaan,Supermarket GOTA,"4868+2X3, Jl. Sungai Maruni, Sawagumu, Distrik Sorong Timur, Kota Sorong, Papua Bar. 98416","Jl. Sungai Maruni, Sawagumu, Distrik Sorong Timur, Kota Sorong",PAPUA BARAT,98416.0,Indonesia,,-0.8900646,131.3173945,https://maps.google.com/?cid=0x0:0xe80a2989cd86300
supermarket,Toko,Toko Larisa Jaya,"Bar., Malabutor, Kecamatan Sorong Manoi, Kota Sorong, Papua Bar. 98412","Malabutor, Kecamatan Sorong Manoi, Kota Sorong",PAPUA BARAT,98412.0,Indonesia,8114820831.0,-0.886806,131.2821181,https://maps.google.com/?cid=0x0:0xf6bb0a5e9628b25b
supermarket,Pasar,Pasar Remu Sorong,"Remu Sel., Kecamatan Sorong Manoi, Kota Sorong, Papua Bar. 98412","Kecamatan Sorong Manoi, Kota Sorong",PAPUA BARAT,98412.0,Indonesia,,-0.8883563,131.2854007,https://maps.google.com/?cid=0x0:0x36e14bf1265f0640
supermarket,Toko Swalayan,Hocky Mart,"476R+JV9, Malaingkedi, Kec. Sorong Utara, Kota Sorong, Papua Bar. 98412","Malaingkedi, Kec. Sorong Utara, Kota Sorong",PAPUA BARAT,98412.0,Indonesia,,-0.8884634,131.2922326,https://maps.google.com/?cid=0x0:0x24e6ecf5b25c301
supermarket,Toko bahan makanan,HS Swalayan II,"478Q+X9Q, Bar, Remu Utara, Distrik Sorong, Kota Sorong, Papua Bar. 98412","Bar, Remu Utara, Distrik Sorong, Kota Sorong",PAPUA BARAT,98412.0,Indonesia,,-0.8825386,131.2884986,https://maps.google.com/?cid=0x0:0xef2ad6eba7dce152
supermarket,Pusat Perbelanjaan,Toko Souvenir Fira Papua,"476P+GH2, Jl. Selat Sunda, Remu Sel., Kecamatan Sorong Manoi, Kota Sorong, Papua Bar. 98412","Jl. Selat Sunda, Remu Sel., Kecamatan Sorong Manoi, Kota Sorong",PAPUA BARAT,98412.0,Indonesia,81248121759.0,-0.8887458,131.2863884,https://maps.google.com/?cid=0x0:0x97b198b997954f39
supermarket,Toko Swalayan,Toko Nurul Mulia,"476P+75M, Remu Sel., Kecamatan Sorong Manoi, Kota Sorong, Papua Bar. 98412","Remu Sel., Kecamatan Sorong Manoi, Kota Sorong",PAPUA BARAT,98412.0,Indonesia,,-0.8892914,131.2854123,https://maps.google.com/?cid=0x0:0x9e24ebc0fba7ebaf
supermarket,Minimarket,ARsYSmarT,"Jl. Ahmad Yani No.45, Malabutor, Kecamatan Sorong Manoi, Kota Sorong, Papua Bar. 98412","Malabutor, Kecamatan Sorong Manoi, Kota Sorong",PAPUA BARAT,98412.0,Indonesia,85244296920.0,-0.882963,131.2815759,https://maps.google.com/?cid=0x0:0x1639fb7b2aa0fbe8
supermarket,supermarket,Kios  depot air salman,"476J+CXC, Malabutor, Kecamatan Sorong Manoi, Kota Sorong, Papua Bar. 98412","Malabutor, Kecamatan Sorong Manoi, Kota Sorong",PAPUA BARAT,98412.0,Indonesia,,-0.8889303,131.2823865,https://maps.google.com/?cid=0x0:0xced42f32ed7572ad
supermarket,supermarket,Kecamatan Sorong Manoi,"Kota Sorong, Papua Bar.","Kota Sorong, Papua Bar.",PAPUA BARAT,,Indonesia,,-0.8875965,131.2870369,https://maps.google.com/?cid=0x0:0xeae8019c83ed0741
supermarket,Pusat Perbelanjaan,Papua Supermarket  Dept. Store,"4869+F77 Bar, Sawagumu, Kec. Sorong Utara, Kota Sorong, Papua Bar. 98416","Sawagumu, Kec. Sorong Utara, Kota Sorong",PAPUA BARAT,98416.0,Indonesia,9513160123.0,-0.888831,131.3181847,https://maps.google.com/?cid=0x0:0x7b5f0926a74ad213
supermarket,Minimarket,SAGA Supermarket  Dept. Store,"Jalan A. Yani, Ruko Kuda Laut, Klademak, Kecamatan Sorong Manoi, Kota Sorong, Papua Bar. 98414","Ruko Kuda Laut, Klademak, Kecamatan Sorong Manoi, Kota Sorong",PAPUA BARAT,98414.0,Indonesia,951322784.0,-0.8765248,131.2576755,https://maps.google.com/?cid=0x0:0x963043ed646a7e1e
supermarket,Pusat Perbelanjaan,Saga Mart Remu,"samping intense fitness, Jl. Mambruk No.10, Remu Utara, Distrik Sorong, Kota Sorong, Papua Bar. 98416","Jl. Mambruk No.10, Remu Utara, Distrik Sorong, Kota Sorong",PAPUA BARAT,98416.0,Indonesia,,-0.8834556,131.2874923,https://maps.google.com/?cid=0x0:0x92c646f7dc2c33ee
supermarket,Toko bahan makanan,Homi Supermarket,"478Q+W97, Jl. F Kalasuat, Remu Utara, Distrik Sorong, Kota Sorong, Papua Bar. 98412","Jl. F Kalasuat, Remu Utara, Distrik Sorong, Kota Sorong",PAPUA BARAT,98412.0,Indonesia,,-0.8827053,131.2884188,https://maps.google.com/?cid=0x0:0x9eed04e7f27afbd0
supermarket,Toko Swalayan,Toko Bone Indah TPR,"Jl. Selat Sunda, Remu Sel., Kecamatan Sorong Manoi, Kota Sorong, Papua Bar. 98412","Remu Sel., Kecamatan Sorong Manoi, Kota Sorong",PAPUA BARAT,98412.0,Indonesia,81248464668.0,-0.8895303,131.2856805,https://maps.google.com/?cid=0x0:0x800f62216788b992
supermarket,Pusat Perbelanjaan,Mega Mall Sorong,"Jalan Basuki Rahmat Klabulu, Malaimsimsa, Malaingkedi, Kec. Sorong Utara, Kota Sorong, Papua Bar. 98412","Malaimsimsa, Malaingkedi, Kec. Sorong Utara, Kota Sorong",PAPUA BARAT,98412.0,Indonesia,,-0.8873097,131.3012842,https://maps.google.com/?cid=0x0:0x364e52ce8985aa7
supermarket,Toko,Toko Larisa Jaya,"Bar., Malabutor, Kecamatan Sorong Manoi, Kota Sorong, Papua Bar. 98412","Malabutor, Kecamatan Sorong Manoi, Kota Sorong",PAPUA BARAT,98412.0,Indonesia,8114820831.0,-0.886806,131.2821181,https://maps.google.com/?cid=0x0:0xf6bb0a5e9628b25b
supermarket,Toko Swalayan,Hocky Mart,"476R+JV9, Malaingkedi, Kec. Sorong Utara, Kota Sorong, Papua Bar. 98412","Malaingkedi, Kec. Sorong Utara, Kota Sorong",PAPUA BARAT,98412.0,Indonesia,,-0.8884634,131.2922326,https://maps.google.com/?cid=0x0:0x24e6ecf5b25c301
supermarket,Pusat Perbelanjaan,RAMAYANA Mall Sorong,"Jl. Wahid Hasyim 220 A-B, Jakarta, Papua Bar. 10250",Jakarta,PAPUA BARAT,10250.0,Indonesia,951332505.0,-0.8820615,131.2755023,https://maps.google.com/?cid=0x0:0x595b97e0cac05b45
supermarket,Pusat Perbelanjaan,PARAGON SQUARE Mall  Hotel Sorong,"4874+4RH Paragon Square Mall, Jl. Basuki Rahmat Lt. 2, Sawagumu, Kec. Sorong Utara, Kota Sorong, Papua Bar. 98412","Jl. Basuki Rahmat Lt. 2, Sawagumu, Kec. Sorong Utara, Kota Sorong",PAPUA BARAT,98412.0,Indonesia,81247232214.0,-0.8871443,131.3071264,https://maps.google.com/?cid=0x0:0xd02481be48cb6e05
supermarket,Minimarket,Alfamart Remu,"Jl. Cendrawasih No.68, Remu Utara, Kec. Sorong Utara, Kota Sorong, Papua Bar. 98416","Remu Utara, Kec. Sorong Utara, Kota Sorong",PAPUA BARAT,98416.0,Indonesia,,-0.8819539,131.2860421,https://maps.google.com/?cid=0x0:0x8bcde67040a51f62
supermarket,Pusat Perbelanjaan,Toko Souvenir Fira Papua,"476P+GH2, Jl. Selat Sunda, Remu Sel., Kecamatan Sorong Manoi, Kota Sorong, Papua Bar. 98412","Jl. Selat Sunda, Remu Sel., Kecamatan Sorong Manoi, Kota Sorong",PAPUA BARAT,98412.0,Indonesia,81248121759.0,-0.8887458,131.2863884,https://maps.google.com/?cid=0x0:0x97b198b997954f39
supermarket,Toko Swalayan,Toko Nurul Mulia,"476P+75M, Remu Sel., Kecamatan Sorong Manoi, Kota Sorong, Papua Bar. 98412","Remu Sel., Kecamatan Sorong Manoi, Kota Sorong",PAPUA BARAT,98412.0,Indonesia,,-0.8892914,131.2854123,https://maps.google.com/?cid=0x0:0x9e24ebc0fba7ebaf
supermarket,Pusat Perbelanjaan,Papua Supermarket  Dept. Store,"4869+F77 Bar, Sawagumu, Kec. Sorong Utara, Kota Sorong, Papua Bar. 98416","Sawagumu, Kec. Sorong Utara, Kota Sorong",PAPUA BARAT,98416.0,Indonesia,9513160123.0,-0.888831,131.3181847,https://maps.google.com/?cid=0x0:0x7b5f0926a74ad213
supermarket,supermarket,Papua Bar. 98416,Papua Bar.,Papua Bar.,PAPUA BARAT,,Indonesia,,-0.8883325,131.3510866,https://maps.google.com/?cid=0x0:0x7d4c82915eeb19ce
supermarket,Kantor Perusahaan,Supermarket GOTA,"4868+2X3, Jl. Sungai Maruni, Sawagumu, Distrik Sorong Timur, Kota Sorong, Papua Bar. 98416","Jl. Sungai Maruni, Sawagumu, Distrik Sorong Timur, Kota Sorong",PAPUA BARAT,98416.0,Indonesia,,-0.8900646,131.3173945,https://maps.google.com/?cid=0x0:0xe80a2989cd86300
supermarket,Grosir Barang Kelontong,MURAH MART,"488F+R3H, Jl. Sungai Mamberamo, RT.004/RW.004, kelurahan matamalagi, Kec. Sorong Utara, Kota Sorong, Papua Bar. 98416","Jl. Sungai Mamberamo, RT.004/RW.004, kelurahan matamalagi, Kec. Sorong Utara, Kota Sorong",PAPUA BARAT,98416.0,Indonesia,85244716644.0,-0.8829403,131.3227392,https://maps.google.com/?cid=0x0:0x2be594d5332b55f3
supermarket,Minimarket,SAGA Supermarket  Dept. Store,"Jalan A. Yani, Ruko Kuda Laut, Klademak, Kecamatan Sorong Manoi, Kota Sorong, Papua Bar. 98414","Ruko Kuda Laut, Klademak, Kecamatan Sorong Manoi, Kota Sorong",PAPUA BARAT,98414.0,Indonesia,951322784.0,-0.8765248,131.2576755,https://maps.google.com/?cid=0x0:0x963043ed646a7e1e
supermarket,Minimarket,Minimarket 12,"Jl. A.M. Sangaji Gonof, Klasaman, Distrik Sorong Timur, Kota Sorong, Papua Bar. 98416","Klasaman, Distrik Sorong Timur, Kota Sorong",PAPUA BARAT,98416.0,Indonesia,81248227028.0,-0.9013356,131.3253828,https://maps.google.com/?cid=0x0:0xae334b95b9129ff2
supermarket,Toko bahan makanan,Homi Supermarket,"478Q+W97, Jl. F Kalasuat, Remu Utara, Distrik Sorong, Kota Sorong, Papua Bar. 98412","Jl. F Kalasuat, Remu Utara, Distrik Sorong, Kota Sorong",PAPUA BARAT,98412.0,Indonesia,,-0.8827053,131.2884188,https://maps.google.com/?cid=0x0:0x9eed04e7f27afbd0
supermarket,Toko bahan makanan,NEPA THON GROUP,"482X+V32, Klasaman, Distrik Sorong Timur, Kota Sorong, Papua Bar. 98416","Klasaman, Distrik Sorong Timur, Kota Sorong",PAPUA BARAT,98416.0,Indonesia,81248668687.0,-0.8978549,131.3476393,https://maps.google.com/?cid=0x0:0x196b63296e4e27de
supermarket,Toko Makanan,Easy Shop,"484H+7JV, Matalamagi, Kec. Sorong Utara, Kota Sorong, Papua Bar. 98416","Matalamagi, Kec. Sorong Utara, Kota Sorong",PAPUA BARAT,98416.0,Indonesia,,-0.8942528,131.3290588,https://maps.google.com/?cid=0x0:0xc40ab7de5487816d
supermarket,Toko,SRC SUMBER AGUNG,"483J+QJW, Jl. Sorong - Makbon, Matalamagi, Kec. Makbon, Kota Sorong, Papua Bar. 98416","Jl. Sorong - Makbon, Matalamagi, Kec. Makbon, Kota Sorong",PAPUA BARAT,98416.0,Indonesia,85311515565.0,-0.8955013,131.3315677,https://maps.google.com/?cid=0x0:0xf042a100233f1eab
supermarket,Toko,Diory Mart,"Klawuyuk, Distrik Sorong Timur, Kota Sorong, Papua Bar. 98416","Distrik Sorong Timur, Kota Sorong",PAPUA BARAT,98416.0,Indonesia,951335757.0,-0.9011676,131.3227504,https://maps.google.com/?cid=0x0:0x66e0b37bca70963
supermarket,Grosir Barang Kelontong,TOKO SINAR MUDA 2,"Jl. Malibela No.6, Klawalu, Distrik Sorong Timur, Kota Sorong, Papua Bar. 98416","Klawalu, Distrik Sorong Timur, Kota Sorong",PAPUA BARAT,98416.0,Indonesia,,-0.9000179,131.3193282,https://maps.google.com/?cid=0x0:0xb0a1b551b7aec69c
supermarket,Pusat Perbelanjaan,PARAGON SQUARE Mall  Hotel Sorong,"4874+4RH Paragon Square Mall, Jl. Basuki Rahmat Lt. 2, Sawagumu, Kec. Sorong Utara, Kota Sorong, Papua Bar. 98412","Jl. Basuki Rahmat Lt. 2, Sawagumu, Kec. Sorong Utara, Kota Sorong",PAPUA BARAT,98412.0,Indonesia,81247232214.0,-0.8871443,131.3071264,https://maps.google.com/?cid=0x0:0xd02481be48cb6e05
supermarket,Toko umum,Toko Rizky Indah,"Jl. Sorong - Aimas, Klamana, Distrik Sorong Timur, Kota Sorong, Papua Bar. 98416","Klamana, Distrik Sorong Timur, Kota Sorong",PAPUA BARAT,98416.0,Indonesia,81248464668.0,-0.9121516,131.3307954,https://maps.google.com/?cid=0x0:0x78aa457ad600e381
supermarket,supermarket,Papua Bar. 98419,"Kabupaten Sorong, Papua Bar.","Kabupaten Sorong, Papua Bar.",PAPUA BARAT,,Indonesia,,-0.9516965,131.4612677,https://maps.google.com/?cid=0x0:0x1846ff160c020f5b
supermarket,Pusat Perbelanjaan,Papua Supermarket  Dept. Store,"4869+F77 Bar, Sawagumu, Kec. Sorong Utara, Kota Sorong, Papua Bar. 98416","Sawagumu, Kec. Sorong Utara, Kota Sorong",PAPUA BARAT,98416.0,Indonesia,9513160123.0,-0.888831,131.3181847,https://maps.google.com/?cid=0x0:0x7b5f0926a74ad213
supermarket,Minimarket,SAGA Supermarket  Dept. Store,"Jalan A. Yani, Ruko Kuda Laut, Klademak, Kecamatan Sorong Manoi, Kota Sorong, Papua Bar. 98414","Ruko Kuda Laut, Klademak, Kecamatan Sorong Manoi, Kota Sorong",PAPUA BARAT,98414.0,Indonesia,951322784.0,-0.8765248,131.2576755,https://maps.google.com/?cid=0x0:0x963043ed646a7e1e
supermarket,Pusat Perbelanjaan,Saga Mart Remu,"samping intense fitness, Jl. Mambruk No.10, Remu Utara, Distrik Sorong, Kota Sorong, Papua Bar. 98416","Jl. Mambruk No.10, Remu Utara, Distrik Sorong, Kota Sorong",PAPUA BARAT,98416.0,Indonesia,,-0.8834556,131.2874923,https://maps.google.com/?cid=0x0:0x92c646f7dc2c33ee
supermarket,Kantor Perusahaan,Supermarket GOTA,"4868+2X3, Jl. Sungai Maruni, Sawagumu, Distrik Sorong Timur, Kota Sorong, Papua Bar. 98416","Jl. Sungai Maruni, Sawagumu, Distrik Sorong Timur, Kota Sorong",PAPUA BARAT,98416.0,Indonesia,,-0.8900646,131.3173945,https://maps.google.com/?cid=0x0:0xe80a2989cd86300
supermarket,Toko Swalayan,Forza Swalayan Sorong,"47J3+324, Bar., Klasuur, Distrik Sorong, Kota Sorong, Papua Bar. 98411","Bar., Klasuur, Distrik Sorong, Kota Sorong",PAPUA BARAT,98411.0,Indonesia,82233332091.0,-0.8698671,131.2525651,https://maps.google.com/?cid=0x0:0xaf6941927b288cad
supermarket,Toko Swalayan,HS Swalayan I,"478P+R9R, Jl. Pramuka, Remu Utara, Distrik Sorong, Kota Sorong, Papua Bar. 98412","Jl. Pramuka, Remu Utara, Distrik Sorong, Kota Sorong",PAPUA BARAT,98412.0,Indonesia,82198248788.0,-0.8828772,131.2858811,https://maps.google.com/?cid=0x0:0xd258a6345c921126
supermarket,Perumahan,Bumi Sorong Indah,"jl.perum pemda No.km 24, Aimas, Sorong Regency, West Papua 98414","Aimas, Sorong Regency",PAPUA BARAT,98414.0,Indonesia,,-0.9790529,131.3686752,https://maps.google.com/?cid=0x0:0x6d748e8c29ee689c
supermarket,Pusat Perbelanjaan,PARAGON SQUARE Mall  Hotel Sorong,"4874+4RH Paragon Square Mall, Jl. Basuki Rahmat Lt. 2, Sawagumu, Kec. Sorong Utara, Kota Sorong, Papua Bar. 98412","Jl. Basuki Rahmat Lt. 2, Sawagumu, Kec. Sorong Utara, Kota Sorong",PAPUA BARAT,98412.0,Indonesia,81247232214.0,-0.8871443,131.3071264,https://maps.google.com/?cid=0x0:0xd02481be48cb6e05
supermarket,Pusat Perbelanjaan,Saga Aimas,"28VG+26V, Jl. Nangka, Malawili, Kec. Aimas, Kabupaten Sorong, Papua Bar. 98414","Jl. Nangka, Malawili, Kec. Aimas, Kabupaten Sorong",PAPUA BARAT,98414.0,Indonesia,81351816880.0,-0.9574598,131.3257559,https://maps.google.com/?cid=0x0:0x2ba45ddc0e9b2391
supermarket,Toko bahan makanan,HS Swalayan II,"478Q+X9Q, Bar, Remu Utara, Distrik Sorong, Kota Sorong, Papua Bar. 98412","Bar, Remu Utara, Distrik Sorong, Kota Sorong",PAPUA BARAT,98412.0,Indonesia,,-0.8825386,131.2884986,https://maps.google.com/?cid=0x0:0xef2ad6eba7dce152
supermarket,Toko,Anugerah Minimarket,"Jl. Trikora, Rufei, Distrik Sorong, Kota Sorong, Papua Bar. 98412","Rufei, Distrik Sorong, Kota Sorong",PAPUA BARAT,98412.0,Indonesia,9513174328.0,-0.8566321,131.2511617,https://maps.google.com/?cid=0x0:0x4891a094a3204e8a
supermarket,Toko,DelliMart,"Jl. Basuki Rahmat No.Km 9 5, Sawagumu, Kec. Sorong Utara, Kota Sorong, Papua Bar.","Kota Sorong, Papua Bar.",PAPUA BARAT,,Indonesia,,-0.8869909,131.307032,https://maps.google.com/?cid=0x0:0x971b2767ce3be933
supermarket,Kios,KIOS MOTEKAR,"XCR2+6M6, Klaben, Distrik Mariat, Kabupaten Sorong, Papua Bar.","Kabupaten Sorong, Papua Bar.",PAPUA BARAT,,Indonesia,81344484700.0,-1.0094552,131.4016549,https://maps.google.com/?cid=0x0:0x30cc55c104b63495
