Category,Real Category,Business Name,Address,City,State,Postal Code,Country,Phone,Latitude,Longitude,Map Link
perumahan,perumahan,Papua Bar. 98413,"Klabala, Distrik Sorong Barat, Kota Sorong, Papua Bar.","Kota Sorong, Papua Bar.",PAPUA BARAT,,Indonesia,,-0.8669518,131.254029,https://maps.google.com/?cid=0x0:0x352e1f254d39ea2b
perumahan,Perumahan,Perumahan Grand Efata Malibela,"Jl. Malibela, Klawalu, Kecamatan Sorong Manoi, Kota Sorong, Papua Bar. 98413","Klawalu, Kecamatan Sorong Manoi, Kota Sorong",PAPUA BARAT,98413.0,Indonesia,82268235322.0,-0.90423,131.3118479,https://maps.google.com/?cid=0x0:0x600613eae3023432
perumahan,Komplek perumahan,PERUMAHAN SITORUS,"Klasabi, Kecamatan Sorong Manoi, Kota Sorong, Papua Bar.","Kota Sorong, Papua Bar.",PAPUA BARAT,,Indonesia,81217162873.0,-0.9038213,131.3002949,https://maps.google.com/?cid=0x0:0xd4ebf1635061dc83
perumahan,Pembangunan Perumahan,Kadar Malibela Residence,"Klawalu, Distrik Sorong Timur, Kota Sorong, Papua Bar.","Kota Sorong, Papua Bar.",PAPUA BARAT,,Indonesia,85279735292.0,-0.9054871,131.3096366,https://maps.google.com/?cid=0x0:0x81cdbed7e8767cf
perumahan,perumahan,CEMARA FAMILLY,"47J4+V33, Unnamed Road, Klabala, Distrik Sorong Barat, Kota Sorong, Papua Bar. 98411","Unnamed Road, Klabala, Distrik Sorong Barat, Kota Sorong",PAPUA BARAT,98411.0,Indonesia,,-0.8679732,131.2551719,https://maps.google.com/?cid=0x0:0xe6780a6dad3142be
perumahan,Komplek perumahan,Kios dhea al,"Jl. Kalimantan No.204, Klabala, Distrik Sorong Barat, Kota Sorong, Papua Bar. 98413","Klabala, Distrik Sorong Barat, Kota Sorong",PAPUA BARAT,98413.0,Indonesia,,-0.8667697,131.2538837,https://maps.google.com/?cid=0x0:0xa7f63becf22a6cb3
perumahan,Komplek perumahan,Kota Sorong,"Jl. Kalimantan No.54, RT.002/RW.03, kelrahan, Klabala, Distrik Sorong Barat, kota, Papua Bar. 98411","RT.002/RW.03, kelrahan, Klabala, Distrik Sorong Barat, kota",PAPUA BARAT,98411.0,Indonesia,,-0.8678626,131.2535437,https://maps.google.com/?cid=0x0:0xebc996fab748f75f
perumahan,Otoritas Perumahan,KPR Cendrawasih Green Park II,"KPR Cendrawasih Jl. Intimpura No.2, Klasuluk, Distrik Mariat, Kabupaten Sorong, Papua Bar. 98414","Klasuluk, Distrik Mariat, Kabupaten Sorong",PAPUA BARAT,98414.0,Indonesia,85344136166.0,-0.9956074,131.3226158,https://maps.google.com/?cid=0x0:0x35ba1499df7d40fd
perumahan,Komplek perumahan,Rumah Fadly blesia,"47M4+46R, Jl. Puncak Rafidim, Klabala, Distrik Sorong Barat, Kota Sorong, Papua Bar. 98411","Jl. Puncak Rafidim, Klabala, Distrik Sorong Barat, Kota Sorong",PAPUA BARAT,98411.0,Indonesia,,-0.8671465,131.2555214,https://maps.google.com/?cid=0x0:0xcbb4a8eef93a4246
perumahan,Komplek perumahan,keluarga banjar,"Jl. Kalimantan No.214, Klabala, Distrik Sorong Barat, Kota Sorong, Papua Bar. 98411","Klabala, Distrik Sorong Barat, Kota Sorong",PAPUA BARAT,98411.0,Indonesia,,-0.8670343,131.2540567,https://maps.google.com/?cid=0x0:0xf6a2f29aecc7a775
perumahan,Komplek perumahan,KPR CENRAWASIH GREEN PARK 1,"28PH+XP3, Malawili, Kec. Aimas, Kabupaten Sorong, Papua Bar. 98414","Malawili, Kec. Aimas, Kabupaten Sorong",PAPUA BARAT,98414.0,Indonesia,,-0.9626208,131.329288,https://maps.google.com/?cid=0x0:0x32bc2269675a6936
perumahan,Penginapan,AQWA D' WARMASEN,"Jl. Warmasen No.km. 13, Klamana, Distrik Sorong Timur, Kota Sorong, Papua Bar. 98416","Klamana, Distrik Sorong Timur, Kota Sorong",PAPUA BARAT,98416.0,Indonesia,,-0.9164321,131.3271369,https://maps.google.com/?cid=0x0:0x230398eb29e953eb
perumahan,Pembangunan Perumahan,PERUMAHAN GRAND EFATA MALIBELA SORONG,"Klawalu, Distrik Sorong Timur, Kota Sorong, Papua Bar.","Kota Sorong, Papua Bar.",PAPUA BARAT,,Indonesia,,-0.9033693,131.3111473,https://maps.google.com/?cid=0x0:0x66bc0b68afac7328
perumahan,Komplek perumahan,Kel. Djahri Banjar,"Jl. Kalimantan No.214, Klabala, Distrik Sorong Barat, Kota Sorong, Papua Bar. 98411","Klabala, Distrik Sorong Barat, Kota Sorong",PAPUA BARAT,98411.0,Indonesia,,-0.8671717,131.2543055,https://maps.google.com/?cid=0x0:0x7965f291f4a553ed
perumahan,perumahan,Sorong,"Kota Sorong, Papua Bar.","Kota Sorong, Papua Bar.",PAPUA BARAT,,Indonesia,,-0.8761629,131.255828,https://maps.google.com/?cid=0x0:0xe32b512ec6c6786
perumahan,Perumahan,Perumahan PRIMAVERA,"4868+VMF, Sawagumu, Kec. Sorong Utara, Kota Sorong, Papua Bar. 98416","Sawagumu, Kec. Sorong Utara, Kota Sorong",PAPUA BARAT,98416.0,Indonesia,,-0.8878074,131.3166657,https://maps.google.com/?cid=0x0:0x2462e3a5b347c433
perumahan,Perumahan,Perumahan Grand Efata Malibela,"Jl. Malibela, Klawalu, Kecamatan Sorong Manoi, Kota Sorong, Papua Bar. 98413","Klawalu, Kecamatan Sorong Manoi, Kota Sorong",PAPUA BARAT,98413.0,Indonesia,82268235322.0,-0.90423,131.3118479,https://maps.google.com/?cid=0x0:0x600613eae3023432
perumahan,Komplek perumahan,Perumahan jupiter,"nomor 3, Jl. Sungai Maruni No.km 10 blok b2","Kota Sorong, Papua Bar.",PAPUA BARAT,,Indonesia,,-0.8871871,131.3215211,https://maps.google.com/?cid=0x0:0x121e521340c347d3
perumahan,Komplek perumahan,PERUMAHAN SITORUS,"Klasabi, Kecamatan Sorong Manoi, Kota Sorong, Papua Bar.","Kota Sorong, Papua Bar.",PAPUA BARAT,,Indonesia,81217162873.0,-0.9038213,131.3002949,https://maps.google.com/?cid=0x0:0xd4ebf1635061dc83
perumahan,Apartemen sewa liburan,Perumahan residence,"Q2, Jl. Tanjung Medan, Malaingkedi, Kec. Sorong Utara, Kota Sorong, Papua Bar. 98412","Jl. Tanjung Medan, Malaingkedi, Kec. Sorong Utara, Kota Sorong",PAPUA BARAT,98412.0,Indonesia,,-0.888833,131.2948243,https://maps.google.com/?cid=0x0:0x9766ab086a7f50df
perumahan,Komplek perumahan,Perumahan Pengadilan Sorong,"4798+P6P, Bar., Klaligi, Kecamatan Sorong Manoi, Kota Sorong, Papua Bar. 98412","Bar., Klaligi, Kecamatan Sorong Manoi, Kota Sorong",PAPUA BARAT,98412.0,Indonesia,,-0.8806576,131.2655785,https://maps.google.com/?cid=0x0:0xba6b417b0aebbcd9
perumahan,Kantor Pemerintah,Kompleks Perumahan Dinas Perikanan,"4787+FJ7, Klaligi, Distrik Sorong, Kota Sorong, Papua Bar. 98412","Klaligi, Distrik Sorong, Kota Sorong",PAPUA BARAT,98412.0,Indonesia,85254185300.0,-0.8838393,131.2640476,https://maps.google.com/?cid=0x0:0x2a6979b6dc8456b8
perumahan,Komplek perumahan,Perumahan Aqwa Permai Residence II,"38PC+GJX, Klamana, Distrik Sorong Timur, Kota Sorong, Papua Bar. 98416","Klamana, Distrik Sorong Timur, Kota Sorong",PAPUA BARAT,98416.0,Indonesia,,-0.9136431,131.3216024,https://maps.google.com/?cid=0x0:0x69be66f3d7ee55d6
perumahan,Pembangunan Perumahan,PERUMAHAN GRAND EFATA MALIBELA SORONG,"Klawalu, Distrik Sorong Timur, Kota Sorong, Papua Bar.","Kota Sorong, Papua Bar.",PAPUA BARAT,,Indonesia,,-0.9033693,131.3111473,https://maps.google.com/?cid=0x0:0x66bc0b68afac7328
perumahan,Penginapan,AQWA D' WARMASEN,"Jl. Warmasen No.km. 13, Klamana, Distrik Sorong Timur, Kota Sorong, Papua Bar. 98416","Klamana, Distrik Sorong Timur, Kota Sorong",PAPUA BARAT,98416.0,Indonesia,,-0.9164321,131.3271369,https://maps.google.com/?cid=0x0:0x230398eb29e953eb
perumahan,perumahan,Perumahan KPR,"Jl. Celebes No.37, Klamana, Distrik Sorong Timur, Kota Sorong, Papua Bar. 98419","Klamana, Distrik Sorong Timur, Kota Sorong",PAPUA BARAT,98419.0,Indonesia,,-0.9150189,131.3221006,https://maps.google.com/?cid=0x0:0x3e3b54edc7bb4b38
perumahan,Penginapan,Perumahan Aqwa Residence No. 8,"38MJ+HG5, Klamana, Distrik Sorong Timur, Kota Sorong, Papua Bar. 98416","Klamana, Distrik Sorong Timur, Kota Sorong",PAPUA BARAT,98416.0,Indonesia,,-0.9156182,131.3312909,https://maps.google.com/?cid=0x0:0x6db490a8a3ed2750
perumahan,Komplek perumahan,Kel Sauyai,"46PX+886, Klasuur, Distrik Sorong, Kota Sorong, Papua Bar. 98414","Klasuur, Distrik Sorong, Kota Sorong",PAPUA BARAT,98414.0,Indonesia,82239436319.0,-0.864217,131.2482652,https://maps.google.com/?cid=0x0:0x9418b9c1ea29788f
perumahan,perumahan,Papua Bar. 98416,Papua Bar.,Papua Bar.,PAPUA BARAT,,Indonesia,,-0.8883325,131.3510866,https://maps.google.com/?cid=0x0:0x7d4c82915eeb19ce
perumahan,Pembangunan Perumahan,Perum BPJS,"482P+97C, Klaurung, Giwu, Distrik Sorong Timur, Kota Sorong, Papua Bar. 98416","Klaurung, Giwu, Distrik Sorong Timur, Kota Sorong",PAPUA BARAT,98416.0,Indonesia,,-0.899055,131.3356515,https://maps.google.com/?cid=0x0:0xa9329663cea3bf3f
perumahan,Layanan Transportasi,Perumahan BPTD XXV Kementerian Perhubungan,"38WG+28M, Klasaman, Distrik Sorong Timur, Kota Sorong, Papua Bar. 98416","Klasaman, Distrik Sorong Timur, Kota Sorong",PAPUA BARAT,98416.0,Indonesia,81212191284.0,-0.9049062,131.3257864,https://maps.google.com/?cid=0x0:0x1d80af0e62387afd
perumahan,perumahan,Perum Sakura Garden Blok G - Rumah Rhenzy,"485Q+2M8, Giwu, Distrik Sorong Timur, Kota Sorong, Papua Bar. 98416","Giwu, Distrik Sorong Timur, Kota Sorong",PAPUA BARAT,98416.0,Indonesia,81291662108.0,-0.8924421,131.3391136,https://maps.google.com/?cid=0x0:0xb793f34c17102256
perumahan,Perumahan,PERUMAHAN KADAR SEJAHTERA UT,"38GH+JG3, Klamana, Distrik Sorong Timur, Kota Sorong, Papua Bar. 98416","Klamana, Distrik Sorong Timur, Kota Sorong",PAPUA BARAT,98416.0,Indonesia,81393948026.0,-0.9234805,131.3287945,https://maps.google.com/?cid=0x0:0x3bd0c08e1638e67e
perumahan,Perumahan,Perumahan Rahmat Fadillah,"Klamana, Distrik Sorong Timur, Kota Sorong, Papua Bar. 98416","Distrik Sorong Timur, Kota Sorong",PAPUA BARAT,98416.0,Indonesia,,-0.9226665,131.3270658,https://maps.google.com/?cid=0x0:0x2dd1d4a325aadd5
perumahan,Pembangunan Perumahan,KPR Bogowonto,"485M+M73, Unnamed Road, Matalamagi, Kec. Sorong Utara, Kota Sorong, Papua Bar. 98416","Unnamed Road, Matalamagi, Kec. Sorong Utara, Kota Sorong",PAPUA BARAT,98416.0,Indonesia,,-0.8908561,131.3331635,https://maps.google.com/?cid=0x0:0x7bcb349f7dfabd06
perumahan,Pembangunan Perumahan,Perumahan KPR polisi KM 10,"487C+J53, jln malinda lorog 2, Jl. Kpr Polisi No.Km 10, Sawagumu, Kec. Sorong Utara, Kota Sorong, Papua Bar. 98416","jln malinda lorog 2, Jl. Kpr Polisi No.Km 10, Sawagumu, Kec. Sorong Utara, Kota Sorong",PAPUA BARAT,98416.0,Indonesia,,-0.8859939,131.3196924,https://maps.google.com/?cid=0x0:0x2f0551b37ba785f1
perumahan,Komplek perumahan,Rumah Dinas BMKG GAW SORONG,"Jl. Santer, Matalamagi, Kec. Sorong Utara, Kota Sorong, Papua Bar. 98416","Matalamagi, Kec. Sorong Utara, Kota Sorong",PAPUA BARAT,98416.0,Indonesia,9513138217.0,-0.8866282,131.3281526,https://maps.google.com/?cid=0x0:0x5e5c933e5a21299e
perumahan,perumahan,Perumahan BPJS Blok B.17,"482P+G6M, Klasaman, Distrik Sorong Timur, Kota Sorong, Papua Bar. 98416","Klasaman, Distrik Sorong Timur, Kota Sorong",PAPUA BARAT,98416.0,Indonesia,,-0.8985612,131.3354604,https://maps.google.com/?cid=0x0:0xa730169e424b2b51
perumahan,Pembangunan Perumahan,Perumahan PEAK Residence,"486H+CG2, Jl. Srikandi, Matalamagi, Kec. Sorong Utara, Kota Sorong, Papua Bar. 98416","Jl. Srikandi, Matalamagi, Kec. Sorong Utara, Kota Sorong",PAPUA BARAT,98416.0,Indonesia,85244303717.0,-0.8889872,131.3287805,https://maps.google.com/?cid=0x0:0xcad5af7d54a7de98
perumahan,perumahan,Perumahan BPJS (Griya Pekerja Sejahtera),"482P+G6M, Klasaman, Distrik Sorong Timur, Kota Sorong, Papua Bar. 98416","Klasaman, Distrik Sorong Timur, Kota Sorong",PAPUA BARAT,98416.0,Indonesia,,-0.8985917,131.33545,https://maps.google.com/?cid=0x0:0x753c4c0e933ff207
perumahan,Komplek perumahan,Perumahan Rira Permai,"38MC+7MV, Klamana, Distrik Sorong Timur, Kota Sorong, Papua Bar. 98416","Klamana, Distrik Sorong Timur, Kota Sorong",PAPUA BARAT,98416.0,Indonesia,,-0.9171411,131.3213431,https://maps.google.com/?cid=0x0:0x5b673141fa011f98
perumahan,Komplek perumahan,Perumahan nurlela mandiri,"Jl. Klasiban No.km 13, Klamana, Distrik Sorong Timur, Kota Sorong, Papua Bar. 98416","Klamana, Distrik Sorong Timur, Kota Sorong",PAPUA BARAT,98416.0,Indonesia,,-0.9124798,131.3278747,https://maps.google.com/?cid=0x0:0x81848a37cd98986a
perumahan,perumahan,Papua Bar. 98411,"Kota Sorong, Papua Bar.","Kota Sorong, Papua Bar.",PAPUA BARAT,,Indonesia,,-0.8165448,131.3310303,https://maps.google.com/?cid=0x0:0xa63c7f2b52beead0
perumahan,Pembangunan Perumahan,Kompleks Perumahan Bumi Sorong Permai,"4878+P6X, Bar., Sawagumu, Kec. Sorong Utara, Kota Sorong, Papua Bar. 98412","Bar., Sawagumu, Kec. Sorong Utara, Kota Sorong",PAPUA BARAT,98412.0,Indonesia,,-0.8856369,131.3156074,https://maps.google.com/?cid=0x0:0x15ce23ec45f06d86
perumahan,perumahan,KOMPLEKS STB,"Saoka, Distrik Sorong Barat, Kota Sorong, Papua Bar. 98411","Distrik Sorong Barat, Kota Sorong",PAPUA BARAT,98411.0,Indonesia,,-0.8144388,131.2592068,https://maps.google.com/?cid=0x0:0xccc2db535276078c
perumahan,Pembangunan Perumahan,Perumahan Usahamina22,"47X2+68R, Klawasi, Distrik Sorong Barat, Kota Sorong, Papua Bar. 98411","Klawasi, Distrik Sorong Barat, Kota Sorong",PAPUA BARAT,98411.0,Indonesia,,-0.8518767,131.2507583,https://maps.google.com/?cid=0x0:0x2ee5c70921baf2a6
perumahan,Kompleks Apartemen,kampung salak,"5734+682, Saoka, Distrik Sorong Barat, Kota Sorong, Papua Bar. 98411","Saoka, Distrik Sorong Barat, Kota Sorong",PAPUA BARAT,98411.0,Indonesia,,-0.8469829,131.2557679,https://maps.google.com/?cid=0x0:0x6a64286b30abf21c
perumahan,Pembangunan Perumahan,Rumah Tanzer (perumahan beacukai),"47V4+HJW, Rufei, Distrik Sorong Barat, Kota Sorong, Papua Bar. 98411","Rufei, Distrik Sorong Barat, Kota Sorong",PAPUA BARAT,98411.0,Indonesia,,-0.8560223,131.2565844,https://maps.google.com/?cid=0x0:0xc1e97f33f6df8d84
perumahan,Pembangunan Perumahan,Sorong Papua barat,"5732+7PV, Jalan Trikora kampung salak, RT.1/RW.4, Klawasi","Kota Sorong, Papua Bar.",PAPUA BARAT,,Indonesia,,-0.8467727,131.2518117,https://maps.google.com/?cid=0x0:0x668025b3124e0e44
perumahan,Pembangunan Perumahan,KPR MUTIARA REGENCY,"5725+R5V, Klawasi, Distrik Sorong Barat, Kota Sorong, Papua Bar. 98411","Klawasi, Distrik Sorong Barat, Kota Sorong",PAPUA BARAT,98411.0,Indonesia,,-0.8478995,131.2579319,https://maps.google.com/?cid=0x0:0x2cf3f8e8b67df05c
perumahan,Komplek perumahan,Komleks perumahan Bea Cukai,"47V4+VRP, Jl. Trikora, Klawasi, Distrik Sorong Barat, Kota Sorong, Papua Bar. 98411","Jl. Trikora, Klawasi, Distrik Sorong Barat, Kota Sorong",PAPUA BARAT,98411.0,Indonesia,,-0.8552822,131.2570864,https://maps.google.com/?cid=0x0:0x39bfcb9d0f51c597
perumahan,Komplek perumahan,Rujem,"46XX+XVC, Jl. Kasuari, Klawasi, Distrik Sorong Barat, Kota Sorong, Papua Bar. 98411","Jl. Kasuari, Klawasi, Distrik Sorong Barat, Kota Sorong",PAPUA BARAT,98411.0,Indonesia,,-0.8500559,131.2496309,https://maps.google.com/?cid=0x0:0xd5e34f9cb36d1cb5
perumahan,Komplek perumahan,Sorong,"47R2+MF8, Rufei, Distrik Sorong Barat, Kota Sorong, Papua Bar. 98411","Rufei, Distrik Sorong Barat, Kota Sorong",PAPUA BARAT,98411.0,Indonesia,,-0.8583464,131.2512084,https://maps.google.com/?cid=0x0:0x73c237108c7c6c6
perumahan,Komplek perumahan,Rumah Pak Nas,"5722+CX5, Jl. Trikora, Klawasi, Distrik Sorong Barat, Kota Sorong, Papua Bar. 98411","Jl. Trikora, Klawasi, Distrik Sorong Barat, Kota Sorong",PAPUA BARAT,98411.0,Indonesia,,-0.8490859,131.2526378,https://maps.google.com/?cid=0x0:0xad8ebaf508b3b26c
perumahan,Komplek perumahan,Papua Barat Daya,"47F5+P25, Klakublik, Distrik Sorong, Kota Sorong, Papua Bar. 98411","Klakublik, Distrik Sorong, Kota Sorong",PAPUA BARAT,98411.0,Indonesia,82239226371.0,-0.8757298,131.2576123,https://maps.google.com/?cid=0x0:0xde5d6340e5a288df
perumahan,Kantor Perusahaan,KPR Grand Hill Tabgha Residence,"568V+FW8, Jl. Kapitan Pattimura, Rufei, Distrik Sorong Barat, Kota Sorong, Papua Bar. 98411","Jl. Kapitan Pattimura, Rufei, Distrik Sorong Barat, Kota Sorong",PAPUA BARAT,98411.0,Indonesia,,-0.8338302,131.2448249,https://maps.google.com/?cid=0x0:0xb0eebf2704d4fd3e
perumahan,perumahan,Papua Bar. 98412,"Kota Sorong, Papua Bar.","Kota Sorong, Papua Bar.",PAPUA BARAT,,Indonesia,,-0.8445683,131.3911778,https://maps.google.com/?cid=0x0:0x6e32dbda4609ff48
perumahan,Pembangunan Perumahan,Kompleks Perumahan Bumi Sorong Permai,"4878+P6X, Bar., Sawagumu, Kec. Sorong Utara, Kota Sorong, Papua Bar. 98412","Bar., Sawagumu, Kec. Sorong Utara, Kota Sorong",PAPUA BARAT,98412.0,Indonesia,,-0.8856369,131.3156074,https://maps.google.com/?cid=0x0:0x15ce23ec45f06d86
perumahan,Komplek perumahan,Kompleks Perumahan Sakura Garden Sorong,"Gg. 6 Kanan No.10, Sawagumu, Kec. Sorong Utara, Kota Sorong, Papua Bar. 98412","Sawagumu, Kec. Sorong Utara, Kota Sorong",PAPUA BARAT,98412.0,Indonesia,,-0.8809643,131.3168509,https://maps.google.com/?cid=0x0:0x8850854607c5a963
perumahan,Pembangunan Perumahan,PERUMAHAN VICTORY INDAH PERMAI (VIP),"Jl. Kanal Victory No.KM. 10, Klawalu, Distrik Sorong Timur, Kota Sorong, Papua Bar. 98412","Klawalu, Distrik Sorong Timur, Kota Sorong",PAPUA BARAT,98412.0,Indonesia,,-0.8945371,131.312857,https://maps.google.com/?cid=0x0:0x28c16943a98683be
perumahan,Apartemen sewa liburan,Perumahan residence,"Q2, Jl. Tanjung Medan, Malaingkedi, Kec. Sorong Utara, Kota Sorong, Papua Bar. 98412","Jl. Tanjung Medan, Malaingkedi, Kec. Sorong Utara, Kota Sorong",PAPUA BARAT,98412.0,Indonesia,,-0.888833,131.2948243,https://maps.google.com/?cid=0x0:0x9766ab086a7f50df
perumahan,Komplek perumahan,Perumahan Pengadilan Sorong,"4798+P6P, Bar., Klaligi, Kecamatan Sorong Manoi, Kota Sorong, Papua Bar. 98412","Bar., Klaligi, Kecamatan Sorong Manoi, Kota Sorong",PAPUA BARAT,98412.0,Indonesia,,-0.8806576,131.2655785,https://maps.google.com/?cid=0x0:0xba6b417b0aebbcd9
perumahan,Apartemen sewa liburan,Perumahan DPR Jl Tanjung Priuk Klabulu Malaimsimsa KotabSorong Papua Barat Indonesia,"477W+WHW, Malaingkedi, Kecamatan Sorong Manoi, Kota Sorong, Papua Bar. 98412","Malaingkedi, Kecamatan Sorong Manoi, Kota Sorong",PAPUA BARAT,98412.0,Indonesia,,-0.8851347,131.2964484,https://maps.google.com/?cid=0x0:0xb02372471339bef4
perumahan,Komplek perumahan,Perumahan jupiter,"nomor 3, Jl. Sungai Maruni No.km 10 blok b2","Kota Sorong, Papua Bar.",PAPUA BARAT,,Indonesia,,-0.8871871,131.3215211,https://maps.google.com/?cid=0x0:0x121e521340c347d3
perumahan,Komplek perumahan,PERUMAHAN SITORUS,"Klasabi, Kecamatan Sorong Manoi, Kota Sorong, Papua Bar.","Kota Sorong, Papua Bar.",PAPUA BARAT,,Indonesia,81217162873.0,-0.9038213,131.3002949,https://maps.google.com/?cid=0x0:0xd4ebf1635061dc83
perumahan,perumahan,Ana.C,"48CC+2J2, Matalamagi, Kec. Sorong Utara, Kota Sorong, Papua Bar. 98412","Matalamagi, Kec. Sorong Utara, Kota Sorong",PAPUA BARAT,98412.0,Indonesia,,-0.880189,131.321423,https://maps.google.com/?cid=0x0:0x7c9073aed4f804c3
perumahan,Perumahan,Perumahan Grand Efata Malibela,"Jl. Malibela, Klawalu, Kecamatan Sorong Manoi, Kota Sorong, Papua Bar. 98413","Klawalu, Kecamatan Sorong Manoi, Kota Sorong",PAPUA BARAT,98413.0,Indonesia,82268235322.0,-0.90423,131.3118479,https://maps.google.com/?cid=0x0:0x600613eae3023432
perumahan,perumahan,Angelo,"48FF+QF5, Jl. Klaselo, Malanu, Kec. Sorong Utara, Kota Sorong, Papua Bar. 98412","Jl. Klaselo, Malanu, Kec. Sorong Utara, Kota Sorong",PAPUA BARAT,98412.0,Indonesia,,-0.8756057,131.3237388,https://maps.google.com/?cid=0x0:0x2f86fba7bc64ef8e
perumahan,Perumahan,Perumahan PRIMAVERA,"4868+VMF, Sawagumu, Kec. Sorong Utara, Kota Sorong, Papua Bar. 98416","Sawagumu, Kec. Sorong Utara, Kota Sorong",PAPUA BARAT,98416.0,Indonesia,,-0.8878074,131.3166657,https://maps.google.com/?cid=0x0:0x2462e3a5b347c433
perumahan,Pembangunan Perumahan,Perumahan KPR polisi KM 10,"487C+J53, jln malinda lorog 2, Jl. Kpr Polisi No.Km 10, Sawagumu, Kec. Sorong Utara, Kota Sorong, Papua Bar. 98416","jln malinda lorog 2, Jl. Kpr Polisi No.Km 10, Sawagumu, Kec. Sorong Utara, Kota Sorong",PAPUA BARAT,98416.0,Indonesia,,-0.8859939,131.3196924,https://maps.google.com/?cid=0x0:0x2f0551b37ba785f1
perumahan,perumahan,Papua Bar. 98413,"Klabala, Distrik Sorong Barat, Kota Sorong, Papua Bar.","Kota Sorong, Papua Bar.",PAPUA BARAT,,Indonesia,,-0.8669518,131.254029,https://maps.google.com/?cid=0x0:0x352e1f254d39ea2b
perumahan,Perumahan,Perumahan Grand Efata Malibela,"Jl. Malibela, Klawalu, Kecamatan Sorong Manoi, Kota Sorong, Papua Bar. 98413","Klawalu, Kecamatan Sorong Manoi, Kota Sorong",PAPUA BARAT,98413.0,Indonesia,82268235322.0,-0.90423,131.3118479,https://maps.google.com/?cid=0x0:0x600613eae3023432
perumahan,Apartemen sewa liburan,Perumahan residence,"Q2, Jl. Tanjung Medan, Malaingkedi, Kec. Sorong Utara, Kota Sorong, Papua Bar. 98412","Jl. Tanjung Medan, Malaingkedi, Kec. Sorong Utara, Kota Sorong",PAPUA BARAT,98412.0,Indonesia,,-0.888833,131.2948243,https://maps.google.com/?cid=0x0:0x9766ab086a7f50df
perumahan,Komplek perumahan,Kota Sorong,"Jl. Kalimantan No.54, RT.002/RW.03, kelrahan, Klabala, Distrik Sorong Barat, kota, Papua Bar. 98411","RT.002/RW.03, kelrahan, Klabala, Distrik Sorong Barat, kota",PAPUA BARAT,98411.0,Indonesia,,-0.8678626,131.2535437,https://maps.google.com/?cid=0x0:0xebc996fab748f75f
perumahan,Komplek perumahan,Kios dhea al,"Jl. Kalimantan No.204, Klabala, Distrik Sorong Barat, Kota Sorong, Papua Bar. 98413","Klabala, Distrik Sorong Barat, Kota Sorong",PAPUA BARAT,98413.0,Indonesia,,-0.8667697,131.2538837,https://maps.google.com/?cid=0x0:0xa7f63becf22a6cb3
perumahan,Pembangunan Perumahan,Kadar Malibela Residence,"Klawalu, Distrik Sorong Timur, Kota Sorong, Papua Bar.","Kota Sorong, Papua Bar.",PAPUA BARAT,,Indonesia,85279735292.0,-0.9054871,131.3096366,https://maps.google.com/?cid=0x0:0x81cdbed7e8767cf
perumahan,Pembangunan Perumahan,Perumahan Bima Indah Permai,"487F+JP4, Matalamagi, Kec. Sorong Utara, Kota Sorong, Papua Bar. 98416","Matalamagi, Kec. Sorong Utara, Kota Sorong",PAPUA BARAT,98416.0,Indonesia,81282014321.0,-0.8859785,131.3243434,https://maps.google.com/?cid=0x0:0xc39893d8c600f925
perumahan,Komplek perumahan,Perumahan Pondok Gazimara,"38V7+W3X, Dahlia 3 No.16, Klawalu, Sorong Timur, Sorong City, West Papua","Kota Sorong, Papua Bar.",PAPUA BARAT,,Indonesia,,-0.9068579,131.3073147,https://maps.google.com/?cid=0x0:0xeadedb7a6db7f9c2
perumahan,Komplek perumahan,keluarga banjar,"Jl. Kalimantan No.214, Klabala, Distrik Sorong Barat, Kota Sorong, Papua Bar. 98411","Klabala, Distrik Sorong Barat, Kota Sorong",PAPUA BARAT,98411.0,Indonesia,,-0.8670343,131.2540567,https://maps.google.com/?cid=0x0:0xf6a2f29aecc7a775
perumahan,Pembangunan Perumahan,PERUMAHAN GRAND EFATA MALIBELA SORONG,"Klawalu, Distrik Sorong Timur, Kota Sorong, Papua Bar.","Kota Sorong, Papua Bar.",PAPUA BARAT,,Indonesia,,-0.9033693,131.3111473,https://maps.google.com/?cid=0x0:0x66bc0b68afac7328
perumahan,Komplek perumahan,Rumah Fadly blesia,"47M4+46R, Jl. Puncak Rafidim, Klabala, Distrik Sorong Barat, Kota Sorong, Papua Bar. 98411","Jl. Puncak Rafidim, Klabala, Distrik Sorong Barat, Kota Sorong",PAPUA BARAT,98411.0,Indonesia,,-0.8671465,131.2555214,https://maps.google.com/?cid=0x0:0xcbb4a8eef93a4246
perumahan,perumahan,Perumahan KPR,"Jl. Celebes No.37, Klamana, Distrik Sorong Timur, Kota Sorong, Papua Bar. 98419","Klamana, Distrik Sorong Timur, Kota Sorong",PAPUA BARAT,98419.0,Indonesia,,-0.9150189,131.3221006,https://maps.google.com/?cid=0x0:0x3e3b54edc7bb4b38
perumahan,Komplek perumahan,Kel. Djahri Banjar,"Jl. Kalimantan No.214, Klabala, Distrik Sorong Barat, Kota Sorong, Papua Bar. 98411","Klabala, Distrik Sorong Barat, Kota Sorong",PAPUA BARAT,98411.0,Indonesia,,-0.8671717,131.2543055,https://maps.google.com/?cid=0x0:0x7965f291f4a553ed
perumahan,Pembangunan Perumahan,Perumahan sorong,"4892+FM9, Malaingkedi, Kec. Sorong Utara, Kota Sorong, Papua Bar.","Kota Sorong, Papua Bar.",PAPUA BARAT,,Indonesia,,-0.8813397,131.3017427,https://maps.google.com/?cid=0x0:0xebff3e8895df4ce8
perumahan,perumahan,Papua Bar. 98414,Papua Bar.,Papua Bar.,PAPUA BARAT,,Indonesia,,-0.923988,131.3811577,https://maps.google.com/?cid=0x0:0xa17d4a17a04184b
perumahan,perumahan,Kompleks,"384H+PP6, Klablim, Distrik Sorong Timur, Kota Sorong, Papua Bar. 98414","Klablim, Distrik Sorong Timur, Kota Sorong",PAPUA BARAT,98414.0,Indonesia,,-0.9431948,131.3291908,https://maps.google.com/?cid=0x0:0xc9261ae9e8c4826b
perumahan,Perumahan,Perumahan Rahmat Fadillah,"Klamana, Distrik Sorong Timur, Kota Sorong, Papua Bar. 98416","Distrik Sorong Timur, Kota Sorong",PAPUA BARAT,98416.0,Indonesia,,-0.9226665,131.3270658,https://maps.google.com/?cid=0x0:0x2dd1d4a325aadd5
perumahan,Komplek perumahan,Perumahan Rira Permai,"38MC+7MV, Klamana, Distrik Sorong Timur, Kota Sorong, Papua Bar. 98416","Klamana, Distrik Sorong Timur, Kota Sorong",PAPUA BARAT,98416.0,Indonesia,,-0.9171411,131.3213431,https://maps.google.com/?cid=0x0:0x5b673141fa011f98
perumahan,Komplek perumahan,Perumahan Secilia Regency II KM. 17 Sorong -Papua Barat,"384H+H42, Klablim, Distrik Sorong Timur, Kota Sorong, Papua Bar. 98414","Klablim, Distrik Sorong Timur, Kota Sorong",PAPUA BARAT,98414.0,Indonesia,,-0.9436161,131.3277568,https://maps.google.com/?cid=0x0:0xeb7ed86cb86015d4
perumahan,perumahan,R. Marpaung House,"384M+5G7, Klablim, Distrik Sorong Timur, Kota Sorong, Papua Bar. 98414","Klablim, Distrik Sorong Timur, Kota Sorong",PAPUA BARAT,98414.0,Indonesia,,-0.9442464,131.3342705,https://maps.google.com/?cid=0x0:0x3f6b5310de1dc059
perumahan,perumahan,Garnet Home,"384G+WPJ, Klablim, Distrik Sorong Timur, Kota Sorong, Papua Bar. 98414","Klablim, Distrik Sorong Timur, Kota Sorong",PAPUA BARAT,98414.0,Indonesia,,-0.9426716,131.3268718,https://maps.google.com/?cid=0x0:0xb448ed4f70429b25
perumahan,Perumahan,PERUMAHAN KADAR SEJAHTERA UT,"38GH+JG3, Klamana, Distrik Sorong Timur, Kota Sorong, Papua Bar. 98416","Klamana, Distrik Sorong Timur, Kota Sorong",PAPUA BARAT,98416.0,Indonesia,81393948026.0,-0.9234805,131.3287945,https://maps.google.com/?cid=0x0:0x3bd0c08e1638e67e
perumahan,perumahan,"KOMPLEKS FANBERS, KELURAHAN KLASUAT","29XC+JWQ, Klasaman, Distrik Sorong Timur, Kota Sorong, Papua Bar. 98414","Klasaman, Distrik Sorong Timur, Kota Sorong",PAPUA BARAT,98414.0,Indonesia,,-0.9509029,131.3723517,https://maps.google.com/?cid=0x0:0x7b6dcbbba678da7b
perumahan,Pembangunan Perumahan,Perumahan IKP Residence,"38JF+4Q8, Klamana, Distrik Sorong Timur, Kota Sorong, Papua Bar. 98416","Klamana, Distrik Sorong Timur, Kota Sorong",PAPUA BARAT,98416.0,Indonesia,,-0.9197114,131.3244672,https://maps.google.com/?cid=0x0:0x9b7375cbd4a48bb2
perumahan,Pembangunan Perumahan,Perum BPJS,"482P+97C, Klaurung, Giwu, Distrik Sorong Timur, Kota Sorong, Papua Bar. 98416","Klaurung, Giwu, Distrik Sorong Timur, Kota Sorong",PAPUA BARAT,98416.0,Indonesia,,-0.899055,131.3356515,https://maps.google.com/?cid=0x0:0xa9329663cea3bf3f
perumahan,perumahan,Perumahan KPR,"Jl. Celebes No.37, Klamana, Distrik Sorong Timur, Kota Sorong, Papua Bar. 98419","Klamana, Distrik Sorong Timur, Kota Sorong",PAPUA BARAT,98419.0,Indonesia,,-0.9150189,131.3221006,https://maps.google.com/?cid=0x0:0x3e3b54edc7bb4b38
perumahan,perumahan,Rumah,"384H+QXQ, Klablim, Distrik Sorong Timur, Kota Sorong, Papua Bar. 98414","Klablim, Distrik Sorong Timur, Kota Sorong",PAPUA BARAT,98414.0,Indonesia,,-0.9430375,131.3299844,https://maps.google.com/?cid=0x0:0x7fdcc927f31af2f1
perumahan,Perhimpunan Pengembang Perumahan,Perumahan sejuk,"Apernas, Jl. Durian, Klablim, Distrik Sorong Timur, Kota Sorong, Papua Bar. 98416","Jl. Durian, Klablim, Distrik Sorong Timur, Kota Sorong",PAPUA BARAT,98416.0,Indonesia,,-0.9232927,131.3260043,https://maps.google.com/?cid=0x0:0xc985126ed9450c4c
perumahan,perumahan,Papua Bar. 98415,"Distrik Mariat, Kabupaten Sorong, Papua Bar.","Kabupaten Sorong, Papua Bar.",PAPUA BARAT,,Indonesia,,-1.0184261,131.3510866,https://maps.google.com/?cid=0x0:0x4d8344d873702960
perumahan,Otoritas Perumahan,PERUMAHAN PEMDA KM. 24 KABUPATEN SORONG,"2977+V9F, Aimas, Kec. Aimas, Kabupaten Sorong, Papua Bar. 98415","Aimas, Kec. Aimas, Kabupaten Sorong",PAPUA BARAT,98415.0,Indonesia,,-0.98532,131.3634064,https://maps.google.com/?cid=0x0:0x2b14f9bf12be9501
perumahan,Pembangunan Perumahan,PERUMAHAN AIMO,"295C+PR8, Jl. Klamono - Kambuaya, Klamasen, Distrik Mariat, Kabupaten Sorong, Papua Bar. 98415","Jl. Klamono - Kambuaya, Klamasen, Distrik Mariat, Kabupaten Sorong",PAPUA BARAT,98415.0,Indonesia,,-0.9907181,131.3720676,https://maps.google.com/?cid=0x0:0xfe272d143dfbf49
perumahan,Komplek perumahan,Twentyfour City,"2987+5MG, Aimas, Kec. Aimas, Kabupaten Sorong, Papua Bar. 98415","Aimas, Kec. Aimas, Kabupaten Sorong",PAPUA BARAT,98415.0,Indonesia,,-0.984565,131.364209,https://maps.google.com/?cid=0x0:0xbde86ca7ff8af678
perumahan,Komplek perumahan,KPR PAPUA SYAR'I MANDIRI NO.1.B,"X8QR+7XV, Klamalu, Distrik Mariat, Kabupaten Sorong, Papua Bar. 98415","Klamalu, Distrik Mariat, Kabupaten Sorong",PAPUA BARAT,98415.0,Indonesia,,-1.0117963,131.3423467,https://maps.google.com/?cid=0x0:0x66ec797a0a90fe6f
perumahan,perumahan,KPR LAREZKA I,"X8VP+VP7, Klamalu, Distrik Mariat, Kabupaten Sorong, Papua Bar.","Kabupaten Sorong, Papua Bar.",PAPUA BARAT,,Indonesia,,-1.00535,131.3368015,https://maps.google.com/?cid=0x0:0x8cec4755c8fe8cd0
perumahan,Otoritas Perumahan,KPR Cendrawasih Green Park II,"KPR Cendrawasih Jl. Intimpura No.2, Klasuluk, Distrik Mariat, Kabupaten Sorong, Papua Bar. 98414","Klasuluk, Distrik Mariat, Kabupaten Sorong",PAPUA BARAT,98414.0,Indonesia,85344136166.0,-0.9956074,131.3226158,https://maps.google.com/?cid=0x0:0x35ba1499df7d40fd
perumahan,Otoritas Perumahan,KPR GREEN HOUSE REGENCY 1,"X8P9+3HV, Mariyai, Distrik Mariat, Kabupaten Sorong, Papua Bar. 98415","Mariyai, Distrik Mariat, Kabupaten Sorong",PAPUA BARAT,98415.0,Indonesia,81343310754.0,-1.0145757,131.3194393,https://maps.google.com/?cid=0x0:0x9ef815a7469a5a63
perumahan,Kantor Pemerintah,Pemerintah Propinsi Papua Barat .Dinas Pekerjaan Umum Dan Perumahan Rakyat,"X9X6+CV2 Komplek pak Haji Luqman, Klamasen, Distrik Mariat, Kabupaten Sorong, Papua Bar. 98415","Klamasen, Distrik Mariat, Kabupaten Sorong",PAPUA BARAT,98415.0,Indonesia,,-1.0014784,131.3621553,https://maps.google.com/?cid=0x0:0x9c8ae66ec959def2
perumahan,Komplek perumahan,Perumahan Pelita 1,"2985+6X2, Klamasen, Distrik Mariat, Kabupaten Sorong, Papua Bar. 98416","Klamasen, Distrik Mariat, Kabupaten Sorong",PAPUA BARAT,98416.0,Indonesia,,-0.9844839,131.359885,https://maps.google.com/?cid=0x0:0x62b3126f99dda028
perumahan,Pembangunan Perumahan,Puncak Permai,"2942+HGQ, Klamasen, Distrik Mariat, Kabupaten Sorong, Papua Bar. 98416","Klamasen, Distrik Mariat, Kabupaten Sorong",PAPUA BARAT,98416.0,Indonesia,85244303717.0,-0.9935489,131.3513736,https://maps.google.com/?cid=0x0:0x7649cdb5e81076c3
perumahan,Komplek perumahan,waluyo,"X8MF+G24, Jl. Melati, Mariyai, Distrik Mariat, Kabupaten Sorong, Papua Bar. 98415","Jl. Melati, Mariyai, Distrik Mariat, Kabupaten Sorong",PAPUA BARAT,98415.0,Indonesia,,-1.016226,131.3225634,https://maps.google.com/?cid=0x0:0x115f18c5e544d0b8
perumahan,Komplek perumahan,Sp 2,"X8X8+85X, Jl. Teratai, Klasuluk, Distrik Mariat, Kabupaten Sorong, Papua Bar. 98415","Jl. Teratai, Klasuluk, Distrik Mariat, Kabupaten Sorong",PAPUA BARAT,98415.0,Indonesia,,-1.0017597,131.3161153,https://maps.google.com/?cid=0x0:0x248bab4ae51d0b32
perumahan,Perhimpunan Pengembang Perumahan,Remcl,"Sp. 1, Klamalu, Distrik Mariat, Kabupaten Sorong, Papua Bar. 98415","Klamalu, Distrik Mariat, Kabupaten Sorong",PAPUA BARAT,98415.0,Indonesia,,-1.0077654,131.3431282,https://maps.google.com/?cid=0x0:0x6e76e412ec06f621
perumahan,perumahan,Papua Bar. 98417,"Kabupaten Sorong, Papua Bar.","Kabupaten Sorong, Papua Bar.",PAPUA BARAT,,Indonesia,,-1.0174852,131.4112125,https://maps.google.com/?cid=0x0:0xc20f17b25d0eed85
perumahan,Penginapan,AQWA D' WARMASEN,"Jl. Warmasen No.km. 13, Klamana, Distrik Sorong Timur, Kota Sorong, Papua Bar. 98416","Klamana, Distrik Sorong Timur, Kota Sorong",PAPUA BARAT,98416.0,Indonesia,,-0.9164321,131.3271369,https://maps.google.com/?cid=0x0:0x230398eb29e953eb
perumahan,Komplek perumahan,Perumahan jupiter,"nomor 3, Jl. Sungai Maruni No.km 10 blok b2","Kota Sorong, Papua Bar.",PAPUA BARAT,,Indonesia,,-0.8871871,131.3215211,https://maps.google.com/?cid=0x0:0x121e521340c347d3
perumahan,Komplek perumahan,Perumahan Aqwa Permai Residence II,"38PC+GJX, Klamana, Distrik Sorong Timur, Kota Sorong, Papua Bar. 98416","Klamana, Distrik Sorong Timur, Kota Sorong",PAPUA BARAT,98416.0,Indonesia,,-0.9136431,131.3216024,https://maps.google.com/?cid=0x0:0x69be66f3d7ee55d6
perumahan,perumahan,Perumahan KPR,"Jl. Celebes No.37, Klamana, Distrik Sorong Timur, Kota Sorong, Papua Bar. 98419","Klamana, Distrik Sorong Timur, Kota Sorong",PAPUA BARAT,98419.0,Indonesia,,-0.9150189,131.3221006,https://maps.google.com/?cid=0x0:0x3e3b54edc7bb4b38
perumahan,,Tanah pak pasaribu,"X9CX+F5, Klaben, Distrik Mariat, Kabupaten Sorong, Papua Bar. 98417","Klaben, Distrik Mariat, Kabupaten Sorong",PAPUA BARAT,98417.0,Indonesia,,-1.0287888,131.3978751,https://maps.google.com/?cid=0x0:0x86cdf88ffb626b1e
perumahan,Komplek perumahan,AIMAS REGENCI,"X9WQ+XMQ, Aimas, Kec. Aimas, Kabupaten Sorong, Papua Bar. 98415","Aimas, Kec. Aimas, Kabupaten Sorong",PAPUA BARAT,98415.0,Indonesia,,-1.0025481,131.3892239,https://maps.google.com/?cid=0x0:0xc4b0ed1cad52ee56
perumahan,Komplek perumahan,Mulyani,"W9RM+MXR, Klaben, Distrik Mariat, Kabupaten Sorong, Papua Bar.","Kabupaten Sorong, Papua Bar.",PAPUA BARAT,,Indonesia,,-1.0582718,131.3848818,https://maps.google.com/?cid=0x0:0x743134f0f05028a6
perumahan,Komplek perumahan,Kampung FLOBAMORA,"X96P+7MG, Klaben, Distrik Mariat, Kabupaten Sorong, Papua Bar.","Kabupaten Sorong, Papua Bar.",PAPUA BARAT,,Indonesia,,-1.0393072,131.3867034,https://maps.google.com/?cid=0x0:0xe79bc9ab6f17e28b
perumahan,Komplek perumahan,H.Manise,"XC5C+89C, Klaben, Distrik Mariat, Kabupaten Sorong, Papua Bar.","Kabupaten Sorong, Papua Bar.",PAPUA BARAT,,Indonesia,,-1.0416903,131.4209053,https://maps.google.com/?cid=0x0:0xc5f87ed88625c356
perumahan,Otoritas Perumahan,KPR Cendrawasih Green Park II,"KPR Cendrawasih Jl. Intimpura No.2, Klasuluk, Distrik Mariat, Kabupaten Sorong, Papua Bar. 98414","Klasuluk, Distrik Mariat, Kabupaten Sorong",PAPUA BARAT,98414.0,Indonesia,85344136166.0,-0.9956074,131.3226158,https://maps.google.com/?cid=0x0:0x35ba1499df7d40fd
perumahan,Pembangunan Perumahan,Kadar Malibela Residence,"Klawalu, Distrik Sorong Timur, Kota Sorong, Papua Bar.","Kota Sorong, Papua Bar.",PAPUA BARAT,,Indonesia,85279735292.0,-0.9054871,131.3096366,https://maps.google.com/?cid=0x0:0x81cdbed7e8767cf
perumahan,Komplek perumahan,Negara Perempuan Bisi,"XCH5+C9R, Mariat Gn., Kec. Aimas, Kabupaten Sorong, Papua Bar.","Kabupaten Sorong, Papua Bar.",PAPUA BARAT,,Indonesia,,-1.0214016,131.4084214,https://maps.google.com/?cid=0x0:0x670b5ae4b88e8cee
perumahan,Perumahan,Perumahan Grand Efata Malibela,"Jl. Malibela, Klawalu, Kecamatan Sorong Manoi, Kota Sorong, Papua Bar. 98413","Klawalu, Kecamatan Sorong Manoi, Kota Sorong",PAPUA BARAT,98413.0,Indonesia,82268235322.0,-0.90423,131.3118479,https://maps.google.com/?cid=0x0:0x600613eae3023432
perumahan,perumahan,Papua Bar. 98418,"Klasabi, Kecamatan Sorong Manoi, Kota Sorong, Papua Bar.","Kota Sorong, Papua Bar.",PAPUA BARAT,,Indonesia,,-0.9009162,131.3028579,https://maps.google.com/?cid=0x0:0x586b4aa754f22adb
perumahan,Pembangunan Perumahan,KPR VICTORY PERMATA RESIDEN,"4822+2HC, Jl. Sejahtera, Klasabi, Kecamatan Sorong Manoi, Kota Sorong, Papua Bar. 98412","Jl. Sejahtera, Klasabi, Kecamatan Sorong Manoi, Kota Sorong",PAPUA BARAT,98412.0,Indonesia,,-0.8999279,131.3013974,https://maps.google.com/?cid=0x0:0x5f2ae693d4a518bc
perumahan,Pembangunan Perumahan,Kompleks Perumahan Bumi Sorong Permai,"4878+P6X, Bar., Sawagumu, Kec. Sorong Utara, Kota Sorong, Papua Bar. 98412","Bar., Sawagumu, Kec. Sorong Utara, Kota Sorong",PAPUA BARAT,98412.0,Indonesia,,-0.8856369,131.3156074,https://maps.google.com/?cid=0x0:0x15ce23ec45f06d86
perumahan,Perumahan,Perumahan Grand Efata Malibela,"Jl. Malibela, Klawalu, Kecamatan Sorong Manoi, Kota Sorong, Papua Bar. 98413","Klawalu, Kecamatan Sorong Manoi, Kota Sorong",PAPUA BARAT,98413.0,Indonesia,82268235322.0,-0.90423,131.3118479,https://maps.google.com/?cid=0x0:0x600613eae3023432
perumahan,Apartemen sewa liburan,Perumahan residence,"Q2, Jl. Tanjung Medan, Malaingkedi, Kec. Sorong Utara, Kota Sorong, Papua Bar. 98412","Jl. Tanjung Medan, Malaingkedi, Kec. Sorong Utara, Kota Sorong",PAPUA BARAT,98412.0,Indonesia,,-0.888833,131.2948243,https://maps.google.com/?cid=0x0:0x9766ab086a7f50df
perumahan,Pembangunan Perumahan,PERUMAHAN GRAND EFATA MALIBELA SORONG,"Klawalu, Distrik Sorong Timur, Kota Sorong, Papua Bar.","Kota Sorong, Papua Bar.",PAPUA BARAT,,Indonesia,,-0.9033693,131.3111473,https://maps.google.com/?cid=0x0:0x66bc0b68afac7328
perumahan,perumahan,Perumahan KPR,"Jl. Celebes No.37, Klamana, Distrik Sorong Timur, Kota Sorong, Papua Bar. 98419","Klamana, Distrik Sorong Timur, Kota Sorong",PAPUA BARAT,98419.0,Indonesia,,-0.9150189,131.3221006,https://maps.google.com/?cid=0x0:0x3e3b54edc7bb4b38
perumahan,Komplek perumahan,Kadar baru Residence,"Jl. Kanal Victory No.km 10, Kelurahan kladufu, Kecamatan Sorong Manoi, Kota Sorong, Papua Bar. 98418","Kelurahan kladufu, Kecamatan Sorong Manoi, Kota Sorong",PAPUA BARAT,98418.0,Indonesia,82198713444.0,-0.8921703,131.3136045,https://maps.google.com/?cid=0x0:0x692315c658f3c45d
perumahan,Pembangunan Perumahan,Perumahan Bumi Sakinah Permai V,"Perumahan Bumi Sakinah Permai V No.KM 13, RW.5, Klamana, Distrik Sorong Timur, Kota Sorong, Papua Bar.","Kota Sorong, Papua Bar.",PAPUA BARAT,,Indonesia,,-0.9137456,131.3281218,https://maps.google.com/?cid=0x0:0x34ab101da2572152
perumahan,Komplek perumahan,Rumah pak Sangadji,"38X2+PR7, Jl. Sejahtera, Klasabi, Distrik Sorong Timur, Kota Sorong, Papua Bar. 98412","Jl. Sejahtera, Klasabi, Distrik Sorong Timur, Kota Sorong",PAPUA BARAT,98412.0,Indonesia,,-0.9007144,131.3020351,https://maps.google.com/?cid=0x0:0x9cf807f418931ba0
perumahan,Pembangunan Perumahan,Perumahan sorong,"4892+FM9, Malaingkedi, Kec. Sorong Utara, Kota Sorong, Papua Bar.","Kota Sorong, Papua Bar.",PAPUA BARAT,,Indonesia,,-0.8813397,131.3017427,https://maps.google.com/?cid=0x0:0xebff3e8895df4ce8
perumahan,Otoritas Perumahan,KPR Cendrawasih Green Park II,"KPR Cendrawasih Jl. Intimpura No.2, Klasuluk, Distrik Mariat, Kabupaten Sorong, Papua Bar. 98414","Klasuluk, Distrik Mariat, Kabupaten Sorong",PAPUA BARAT,98414.0,Indonesia,85344136166.0,-0.9956074,131.3226158,https://maps.google.com/?cid=0x0:0x35ba1499df7d40fd
perumahan,Komplek perumahan,Rahman's House,"38X3+F37, Jl. Aries Victory, Klasabi, Kecamatan Sorong Manoi, Kota Sorong, Papua Bar. 98412","Jl. Aries Victory, Klasabi, Kecamatan Sorong Manoi, Kota Sorong",PAPUA BARAT,98412.0,Indonesia,,-0.9012175,131.3022118,https://maps.google.com/?cid=0x0:0x3447c0a9a0ed5ea8
perumahan,Komplek perumahan,DelisApril Home,"38X3+Q77, Jl. Aries Victory, Klasabi, Kecamatan Sorong Manoi, Kota Sorong, Papua Bar.","Kota Sorong, Papua Bar.",PAPUA BARAT,,Indonesia,,-0.9005868,131.3031674,https://maps.google.com/?cid=0x0:0x8b1bd241296c23e7
perumahan,perumahan,Papua Bar. 98419,"Kabupaten Sorong, Papua Bar.","Kabupaten Sorong, Papua Bar.",PAPUA BARAT,,Indonesia,,-0.9516965,131.4612677,https://maps.google.com/?cid=0x0:0x1846ff160c020f5b
perumahan,Otoritas Perumahan,PERUMAHAN PEMDA KM. 24 KABUPATEN SORONG,"2977+V9F, Aimas, Kec. Aimas, Kabupaten Sorong, Papua Bar. 98415","Aimas, Kec. Aimas, Kabupaten Sorong",PAPUA BARAT,98415.0,Indonesia,,-0.98532,131.3634064,https://maps.google.com/?cid=0x0:0x2b14f9bf12be9501
perumahan,perumahan,Perumahan KPR,"Jl. Celebes No.37, Klamana, Distrik Sorong Timur, Kota Sorong, Papua Bar. 98419","Klamana, Distrik Sorong Timur, Kota Sorong",PAPUA BARAT,98419.0,Indonesia,,-0.9150189,131.3221006,https://maps.google.com/?cid=0x0:0x3e3b54edc7bb4b38
perumahan,Pembangunan Perumahan,PERUMAHAN AIMO,"295C+PR8, Jl. Klamono - Kambuaya, Klamasen, Distrik Mariat, Kabupaten Sorong, Papua Bar. 98415","Jl. Klamono - Kambuaya, Klamasen, Distrik Mariat, Kabupaten Sorong",PAPUA BARAT,98415.0,Indonesia,,-0.9907181,131.3720676,https://maps.google.com/?cid=0x0:0xfe272d143dfbf49
perumahan,Perumahan,KPR AIMO RESIDENT,"295C+XW8, Jl. Klamono - Kambuaya, Klamasen, Distrik Mariat, Kabupaten Sorong, Papua Bar. 98415","Jl. Klamono - Kambuaya, Klamasen, Distrik Mariat, Kabupaten Sorong",PAPUA BARAT,98415.0,Indonesia,,-0.9900768,131.3723435,https://maps.google.com/?cid=0x0:0xb8ba967e23c9ace0
perumahan,perumahan,tanah paulus,"3C24+CFW, Klasuat, Distrik Sorong Timur, Kota Sorong, Papua Bar.","Kota Sorong, Papua Bar.",PAPUA BARAT,,Indonesia,,-0.9488935,131.4062045,https://maps.google.com/?cid=0x0:0xf65ff565dbc041c9
perumahan,Pembangunan Perumahan,Kampung kabanmolo,"2CR4+FXC, Maibo, Kec. Aimas, Kabupaten Sorong, Papua Bar. 98419","Maibo, Kec. Aimas, Kabupaten Sorong",PAPUA BARAT,98419.0,Indonesia,,-0.9588132,131.4073849,https://maps.google.com/?cid=0x0:0x1db585f011db3e7d
perumahan,Kantor Perusahaan,AIMO PERMAI PT. SOMA GRAHA PERSADA,"293G+M74, Aimas, Kec. Aimas, Kabupaten Sorong, Papua Bar. 98415","Aimas, Kec. Aimas, Kabupaten Sorong",PAPUA BARAT,98415.0,Indonesia,85254353580.0,-0.9958501,131.3757077,https://maps.google.com/?cid=0x0:0xea74f2ab30627397
perumahan,perumahan,"KOMPLEKS FANBERS, KELURAHAN KLASUAT","29XC+JWQ, Klasaman, Distrik Sorong Timur, Kota Sorong, Papua Bar. 98414","Klasaman, Distrik Sorong Timur, Kota Sorong",PAPUA BARAT,98414.0,Indonesia,,-0.9509029,131.3723517,https://maps.google.com/?cid=0x0:0x7b6dcbbba678da7b
perumahan,Komplek perumahan,Rumah Singgah by AHCC,"Jl. Intimpura, Klablim, Distrik Sorong Timur, Kabupaten Sorong, Papua Bar. 98414","Klablim, Distrik Sorong Timur, Kabupaten Sorong",PAPUA BARAT,98414.0,Indonesia,8114887778.0,-0.9501302,131.3611782,https://maps.google.com/?cid=0x0:0xe544d0c6bff1547b
perumahan,Komplek perumahan,AIMAS REGENCI,"X9WQ+XMQ, Aimas, Kec. Aimas, Kabupaten Sorong, Papua Bar. 98415","Aimas, Kec. Aimas, Kabupaten Sorong",PAPUA BARAT,98415.0,Indonesia,,-1.0025481,131.3892239,https://maps.google.com/?cid=0x0:0xc4b0ed1cad52ee56
perumahan,Komplek perumahan,Metal home,"2C9C+GFH, Maibo, Kec. Aimas, Kabupaten Sorong, Papua Bar. 98419","Maibo, Kec. Aimas, Kabupaten Sorong",PAPUA BARAT,98419.0,Indonesia,,-0.9811757,131.4212272,https://maps.google.com/?cid=0x0:0x9335126f1c9d2627
perumahan,Pembangunan Perumahan,Kadar Malibela Residence,"Klawalu, Distrik Sorong Timur, Kota Sorong, Papua Bar.","Kota Sorong, Papua Bar.",PAPUA BARAT,,Indonesia,85279735292.0,-0.9054871,131.3096366,https://maps.google.com/?cid=0x0:0x81cdbed7e8767cf
perumahan,Otoritas Perumahan,INTI RESIDENCE,"29CC+6X, Aimas, Kec. Aimas, Kabupaten Sorong, Papua Bar. 98414","Aimas, Kec. Aimas, Kabupaten Sorong",PAPUA BARAT,98414.0,Indonesia,,-0.9794957,131.3724273,https://maps.google.com/?cid=0x0:0xca7cf57b5d711e4a
perumahan,perumahan,Kecamatan Sorong Manoi,"Kota Sorong, Papua Bar.","Kota Sorong, Papua Bar.",PAPUA BARAT,,Indonesia,,-0.8875965,131.2870369,https://maps.google.com/?cid=0x0:0xeae8019c83ed0741
perumahan,Perumahan,Perumahan Grand Efata Malibela,"Jl. Malibela, Klawalu, Kecamatan Sorong Manoi, Kota Sorong, Papua Bar. 98413","Klawalu, Kecamatan Sorong Manoi, Kota Sorong",PAPUA BARAT,98413.0,Indonesia,82268235322.0,-0.90423,131.3118479,https://maps.google.com/?cid=0x0:0x600613eae3023432
perumahan,Apartemen sewa liburan,Perumahan DPR Jl Tanjung Priuk Klabulu Malaimsimsa KotabSorong Papua Barat Indonesia,"477W+WHW, Malaingkedi, Kecamatan Sorong Manoi, Kota Sorong, Papua Bar. 98412","Malaingkedi, Kecamatan Sorong Manoi, Kota Sorong",PAPUA BARAT,98412.0,Indonesia,,-0.8851347,131.2964484,https://maps.google.com/?cid=0x0:0xb02372471339bef4
perumahan,perumahan,NabilaSweet Home,"476M+449, Jl. Mandiri, Remu Sel., Kecamatan Sorong Manoi, Kota Sorong, Papua Bar. 98412","Jl. Mandiri, Remu Sel., Kecamatan Sorong Manoi, Kota Sorong",PAPUA BARAT,98412.0,Indonesia,,-0.8897194,131.282864,https://maps.google.com/?cid=0x0:0xb2cb601de5cdfc48
perumahan,Komplek perumahan,Rumah afiza,"47CW+6PQ, Malaingkedi, Kecamatan Sorong Manoi, Kota Sorong, Papua Bar. 98412","Malaingkedi, Kecamatan Sorong Manoi, Kota Sorong",PAPUA BARAT,98412.0,Indonesia,,-0.8794823,131.2969253,https://maps.google.com/?cid=0x0:0x7b0641282813f3d9
perumahan,Otoritas Perumahan,Perumahan Loss PEMDA-KOTA,"476X+37G, Bar., Remu Sel., Kecamatan Sorong Manoi, Kota Sorong, Papua Bar. 98412","Bar., Remu Sel., Kecamatan Sorong Manoi, Kota Sorong",PAPUA BARAT,98412.0,Indonesia,82199656081.0,-0.8898236,131.2982025,https://maps.google.com/?cid=0x0:0xe14e5bdfcd555a58
perumahan,Apartemen sewa liburan,Perumahan residence,"Q2, Jl. Tanjung Medan, Malaingkedi, Kec. Sorong Utara, Kota Sorong, Papua Bar. 98412","Jl. Tanjung Medan, Malaingkedi, Kec. Sorong Utara, Kota Sorong",PAPUA BARAT,98412.0,Indonesia,,-0.888833,131.2948243,https://maps.google.com/?cid=0x0:0x9766ab086a7f50df
perumahan,Komplek perumahan,Perumahan jupiter,"nomor 3, Jl. Sungai Maruni No.km 10 blok b2","Kota Sorong, Papua Bar.",PAPUA BARAT,,Indonesia,,-0.8871871,131.3215211,https://maps.google.com/?cid=0x0:0x121e521340c347d3
perumahan,Kantor Perusahaan,Kompleks Wiratno,"476H+FW8, Malawei, Kecamatan Sorong Manoi, Kota Sorong, Papua Bar. 98412","Malawei, Kecamatan Sorong Manoi, Kota Sorong",PAPUA BARAT,98412.0,Indonesia,,-0.8888463,131.2798253,https://maps.google.com/?cid=0x0:0xc123b356783e83e2
perumahan,Komplek perumahan,Apner Bless/Ursula Maker,"477H+WX6, Malabutor, Kecamatan Sorong Manoi, Kota Sorong, Papua Bar. 98412","Malabutor, Kecamatan Sorong Manoi, Kota Sorong",PAPUA BARAT,98412.0,Indonesia,,-0.8855658,131.2804349,https://maps.google.com/?cid=0x0:0xe1a497200b9fe52f
perumahan,Komplek perumahan,TRANSITO,"477Q+2VF, Jl. Selat Morotai, Remu Sel., Kecamatan Sorong Manoi, Kota Sorong, Papua Bar. 98412","Jl. Selat Morotai, Remu Sel., Kecamatan Sorong Manoi, Kota Sorong",PAPUA BARAT,98412.0,Indonesia,,-0.8874109,131.2896388,https://maps.google.com/?cid=0x0:0x3ae70d61d985723c
perumahan,Komplek perumahan,Rumah( toko nurul),"476Q+M35, Jl. Selat Madura, Remu Sel., Kecamatan Sorong Manoi, Kota Sorong, Papua Bar. 98412","Jl. Selat Madura, Remu Sel., Kecamatan Sorong Manoi, Kota Sorong",PAPUA BARAT,98412.0,Indonesia,,-0.8883449,131.2877688,https://maps.google.com/?cid=0x0:0x1336f2a4dcb407f4
perumahan,perumahan,Kosan om bun,"477M+R84, Lorong Obadiri, Remu Sel., Kecamatan Sorong Manoi, Kota Sorong, Papua Bar. 98412","Lorong Obadiri, Remu Sel., Kecamatan Sorong Manoi, Kota Sorong",PAPUA BARAT,98412.0,Indonesia,,-0.8854816,131.2833424,https://maps.google.com/?cid=0x0:0x180ff4078f94f7d8
perumahan,Komplek perumahan,Kompleks Rumah Papan,"477P+8H3, Remu Sel., Kecamatan Sorong Manoi, Kota Sorong, Papua Bar. 98412","Remu Sel., Kecamatan Sorong Manoi, Kota Sorong",PAPUA BARAT,98412.0,Indonesia,,-0.8867287,131.2864313,https://maps.google.com/?cid=0x0:0x1050e8a4bb46351e
perumahan,perumahan,Kecamatan Sorong Manoi,"Kota Sorong, Papua Bar.","Kota Sorong, Papua Bar.",PAPUA BARAT,,Indonesia,,-0.8875965,131.2870369,https://maps.google.com/?cid=0x0:0xeae8019c83ed0741
perumahan,Perumahan,Perumahan Grand Efata Malibela,"Jl. Malibela, Klawalu, Kecamatan Sorong Manoi, Kota Sorong, Papua Bar. 98413","Klawalu, Kecamatan Sorong Manoi, Kota Sorong",PAPUA BARAT,98413.0,Indonesia,82268235322.0,-0.90423,131.3118479,https://maps.google.com/?cid=0x0:0x600613eae3023432
perumahan,Apartemen sewa liburan,Perumahan DPR Jl Tanjung Priuk Klabulu Malaimsimsa KotabSorong Papua Barat Indonesia,"477W+WHW, Malaingkedi, Kecamatan Sorong Manoi, Kota Sorong, Papua Bar. 98412","Malaingkedi, Kecamatan Sorong Manoi, Kota Sorong",PAPUA BARAT,98412.0,Indonesia,,-0.8851347,131.2964484,https://maps.google.com/?cid=0x0:0xb02372471339bef4
perumahan,Komplek perumahan,TRANSITO,"477Q+2VF, Jl. Selat Morotai, Remu Sel., Kecamatan Sorong Manoi, Kota Sorong, Papua Bar. 98412","Jl. Selat Morotai, Remu Sel., Kecamatan Sorong Manoi, Kota Sorong",PAPUA BARAT,98412.0,Indonesia,,-0.8874109,131.2896388,https://maps.google.com/?cid=0x0:0x3ae70d61d985723c
perumahan,perumahan,NabilaSweet Home,"476M+449, Jl. Mandiri, Remu Sel., Kecamatan Sorong Manoi, Kota Sorong, Papua Bar. 98412","Jl. Mandiri, Remu Sel., Kecamatan Sorong Manoi, Kota Sorong",PAPUA BARAT,98412.0,Indonesia,,-0.8897194,131.282864,https://maps.google.com/?cid=0x0:0xb2cb601de5cdfc48
perumahan,Komplek perumahan,"Rumah Rahmat Nasari, S.Pd","Jl. Selat Yapen, Malabutor, Kecamatan Sorong Manoi, Kota Sorong, Papua Bar. 98412","Malabutor, Kecamatan Sorong Manoi, Kota Sorong",PAPUA BARAT,98412.0,Indonesia,,-0.8890394,131.2822516,https://maps.google.com/?cid=0x0:0x7d95388fa88d35eb
perumahan,Komplek perumahan,Rumah( toko nurul),"476Q+M35, Jl. Selat Madura, Remu Sel., Kecamatan Sorong Manoi, Kota Sorong, Papua Bar. 98412","Jl. Selat Madura, Remu Sel., Kecamatan Sorong Manoi, Kota Sorong",PAPUA BARAT,98412.0,Indonesia,,-0.8883449,131.2877688,https://maps.google.com/?cid=0x0:0x1336f2a4dcb407f4
perumahan,Kantor Perusahaan,Kompleks Wiratno,"476H+FW8, Malawei, Kecamatan Sorong Manoi, Kota Sorong, Papua Bar. 98412","Malawei, Kecamatan Sorong Manoi, Kota Sorong",PAPUA BARAT,98412.0,Indonesia,,-0.8888463,131.2798253,https://maps.google.com/?cid=0x0:0xc123b356783e83e2
perumahan,Komplek perumahan,Rumah musran,"477M+X5P, Lorong Obadiri, Remu Sel., Kecamatan Sorong Manoi, Kota Sorong, Papua Bar. 98412","Lorong Obadiri, Remu Sel., Kecamatan Sorong Manoi, Kota Sorong",PAPUA BARAT,98412.0,Indonesia,,-0.8850379,131.2829456,https://maps.google.com/?cid=0x0:0xf84d44c612b0ba41
perumahan,Apartemen sewa liburan,Perumahan residence,"Q2, Jl. Tanjung Medan, Malaingkedi, Kec. Sorong Utara, Kota Sorong, Papua Bar. 98412","Jl. Tanjung Medan, Malaingkedi, Kec. Sorong Utara, Kota Sorong",PAPUA BARAT,98412.0,Indonesia,,-0.888833,131.2948243,https://maps.google.com/?cid=0x0:0x9766ab086a7f50df
perumahan,Komplek perumahan,Rumah afiza,"47CW+6PQ, Malaingkedi, Kecamatan Sorong Manoi, Kota Sorong, Papua Bar. 98412","Malaingkedi, Kecamatan Sorong Manoi, Kota Sorong",PAPUA BARAT,98412.0,Indonesia,,-0.8794823,131.2969253,https://maps.google.com/?cid=0x0:0x7b0641282813f3d9
perumahan,Komplek perumahan,Kompleks Rumah Papan,"477P+8H3, Remu Sel., Kecamatan Sorong Manoi, Kota Sorong, Papua Bar. 98412","Remu Sel., Kecamatan Sorong Manoi, Kota Sorong",PAPUA BARAT,98412.0,Indonesia,,-0.8867287,131.2864313,https://maps.google.com/?cid=0x0:0x1050e8a4bb46351e
perumahan,Komplek perumahan,Mess 2 BPTD Kelas II Papua Barat,"Jl. Ahmad Yani belakang gunung agung No.51, Malabutor, Kecamatan Sorong Manoi, Kota Sorong, Papua Bar. 98415","Malabutor, Kecamatan Sorong Manoi, Kota Sorong",PAPUA BARAT,98415.0,Indonesia,,-0.8836378,131.2806468,https://maps.google.com/?cid=0x0:0x24487a6197731198
perumahan,Komplek perumahan,Apner Bless/Ursula Maker,"477H+WX6, Malabutor, Kecamatan Sorong Manoi, Kota Sorong, Papua Bar. 98412","Malabutor, Kecamatan Sorong Manoi, Kota Sorong",PAPUA BARAT,98412.0,Indonesia,,-0.8855658,131.2804349,https://maps.google.com/?cid=0x0:0xe1a497200b9fe52f
perumahan,perumahan,Kecamatan Sorong Manoi,"Kota Sorong, Papua Bar.","Kota Sorong, Papua Bar.",PAPUA BARAT,,Indonesia,,-0.8875965,131.2870369,https://maps.google.com/?cid=0x0:0xeae8019c83ed0741
perumahan,Apartemen sewa liburan,Perumahan DPR Jl Tanjung Priuk Klabulu Malaimsimsa KotabSorong Papua Barat Indonesia,"477W+WHW, Malaingkedi, Kecamatan Sorong Manoi, Kota Sorong, Papua Bar. 98412","Malaingkedi, Kecamatan Sorong Manoi, Kota Sorong",PAPUA BARAT,98412.0,Indonesia,,-0.8851347,131.2964484,https://maps.google.com/?cid=0x0:0xb02372471339bef4
perumahan,Komplek perumahan,"Rumah Rahmat Nasari, S.Pd","Jl. Selat Yapen, Malabutor, Kecamatan Sorong Manoi, Kota Sorong, Papua Bar. 98412","Malabutor, Kecamatan Sorong Manoi, Kota Sorong",PAPUA BARAT,98412.0,Indonesia,,-0.8890394,131.2822516,https://maps.google.com/?cid=0x0:0x7d95388fa88d35eb
perumahan,Komplek perumahan,PERUMAHAN SITORUS,"Klasabi, Kecamatan Sorong Manoi, Kota Sorong, Papua Bar.","Kota Sorong, Papua Bar.",PAPUA BARAT,,Indonesia,81217162873.0,-0.9038213,131.3002949,https://maps.google.com/?cid=0x0:0xd4ebf1635061dc83
perumahan,Komplek perumahan,Mess 2 BPTD Kelas II Papua Barat,"Jl. Ahmad Yani belakang gunung agung No.51, Malabutor, Kecamatan Sorong Manoi, Kota Sorong, Papua Bar. 98415","Malabutor, Kecamatan Sorong Manoi, Kota Sorong",PAPUA BARAT,98415.0,Indonesia,,-0.8836378,131.2806468,https://maps.google.com/?cid=0x0:0x24487a6197731198
perumahan,Komplek perumahan,Rumah( toko nurul),"476Q+M35, Jl. Selat Madura, Remu Sel., Kecamatan Sorong Manoi, Kota Sorong, Papua Bar. 98412","Jl. Selat Madura, Remu Sel., Kecamatan Sorong Manoi, Kota Sorong",PAPUA BARAT,98412.0,Indonesia,,-0.8883449,131.2877688,https://maps.google.com/?cid=0x0:0x1336f2a4dcb407f4
perumahan,Komplek perumahan,TRANSITO,"477Q+2VF, Jl. Selat Morotai, Remu Sel., Kecamatan Sorong Manoi, Kota Sorong, Papua Bar. 98412","Jl. Selat Morotai, Remu Sel., Kecamatan Sorong Manoi, Kota Sorong",PAPUA BARAT,98412.0,Indonesia,,-0.8874109,131.2896388,https://maps.google.com/?cid=0x0:0x3ae70d61d985723c
perumahan,perumahan,Kosan om bun,"477M+R84, Lorong Obadiri, Remu Sel., Kecamatan Sorong Manoi, Kota Sorong, Papua Bar. 98412","Lorong Obadiri, Remu Sel., Kecamatan Sorong Manoi, Kota Sorong",PAPUA BARAT,98412.0,Indonesia,,-0.8854816,131.2833424,https://maps.google.com/?cid=0x0:0x180ff4078f94f7d8
perumahan,Komplek perumahan,Kompleks Rumah Papan,"477P+8H3, Remu Sel., Kecamatan Sorong Manoi, Kota Sorong, Papua Bar. 98412","Remu Sel., Kecamatan Sorong Manoi, Kota Sorong",PAPUA BARAT,98412.0,Indonesia,,-0.8867287,131.2864313,https://maps.google.com/?cid=0x0:0x1050e8a4bb46351e
perumahan,Otoritas Perumahan,Perumahan Loss PEMDA-KOTA,"476X+37G, Bar., Remu Sel., Kecamatan Sorong Manoi, Kota Sorong, Papua Bar. 98412","Bar., Remu Sel., Kecamatan Sorong Manoi, Kota Sorong",PAPUA BARAT,98412.0,Indonesia,82199656081.0,-0.8898236,131.2982025,https://maps.google.com/?cid=0x0:0xe14e5bdfcd555a58
perumahan,Komplek perumahan,Rumah musran,"477M+X5P, Lorong Obadiri, Remu Sel., Kecamatan Sorong Manoi, Kota Sorong, Papua Bar. 98412","Lorong Obadiri, Remu Sel., Kecamatan Sorong Manoi, Kota Sorong",PAPUA BARAT,98412.0,Indonesia,,-0.8850379,131.2829456,https://maps.google.com/?cid=0x0:0xf84d44c612b0ba41
perumahan,Komplek perumahan,Rumah Nurul,"478R+WHV, Jl. Trikora Transad, Malaingkedi, Kec. Aimas, Kota Sorong, Papua Bar. 98412","Jl. Trikora Transad, Malaingkedi, Kec. Aimas, Kota Sorong",PAPUA BARAT,98412.0,Indonesia,,-0.8826305,131.2914324,https://maps.google.com/?cid=0x0:0x77bf4e49714d9bb4
perumahan,Komplek perumahan,Perumahan Jokowi,"Jl. Aries Victory, Klasabi, Kecamatan Sorong Manoi, Kota Sorong, Papua Bar.","Kota Sorong, Papua Bar.",PAPUA BARAT,,Indonesia,,-0.9006578,131.295112,https://maps.google.com/?cid=0x0:0xf567d9a70a78c81e
perumahan,Perumahan,Perumahan Grand Efata Malibela,"Jl. Malibela, Klawalu, Kecamatan Sorong Manoi, Kota Sorong, Papua Bar. 98413","Klawalu, Kecamatan Sorong Manoi, Kota Sorong",PAPUA BARAT,98413.0,Indonesia,82268235322.0,-0.90423,131.3118479,https://maps.google.com/?cid=0x0:0x600613eae3023432
perumahan,perumahan,Papua Bar. 98416,Papua Bar.,Papua Bar.,PAPUA BARAT,,Indonesia,,-0.8883325,131.3510866,https://maps.google.com/?cid=0x0:0x7d4c82915eeb19ce
perumahan,Layanan Transportasi,Perumahan BPTD XXV Kementerian Perhubungan,"38WG+28M, Klasaman, Distrik Sorong Timur, Kota Sorong, Papua Bar. 98416","Klasaman, Distrik Sorong Timur, Kota Sorong",PAPUA BARAT,98416.0,Indonesia,81212191284.0,-0.9049062,131.3257864,https://maps.google.com/?cid=0x0:0x1d80af0e62387afd
perumahan,Pembangunan Perumahan,Perum BPJS,"482P+97C, Klaurung, Giwu, Distrik Sorong Timur, Kota Sorong, Papua Bar. 98416","Klaurung, Giwu, Distrik Sorong Timur, Kota Sorong",PAPUA BARAT,98416.0,Indonesia,,-0.899055,131.3356515,https://maps.google.com/?cid=0x0:0xa9329663cea3bf3f
perumahan,Perumahan,Perumahan PRIMAVERA,"4868+VMF, Sawagumu, Kec. Sorong Utara, Kota Sorong, Papua Bar. 98416","Sawagumu, Kec. Sorong Utara, Kota Sorong",PAPUA BARAT,98416.0,Indonesia,,-0.8878074,131.3166657,https://maps.google.com/?cid=0x0:0x2462e3a5b347c433
perumahan,Komplek perumahan,Rumah Dinas BMKG GAW SORONG,"Jl. Santer, Matalamagi, Kec. Sorong Utara, Kota Sorong, Papua Bar. 98416","Matalamagi, Kec. Sorong Utara, Kota Sorong",PAPUA BARAT,98416.0,Indonesia,9513138217.0,-0.8866282,131.3281526,https://maps.google.com/?cid=0x0:0x5e5c933e5a21299e
perumahan,Pembangunan Perumahan,KPR Bogowonto,"485M+M73, Unnamed Road, Matalamagi, Kec. Sorong Utara, Kota Sorong, Papua Bar. 98416","Unnamed Road, Matalamagi, Kec. Sorong Utara, Kota Sorong",PAPUA BARAT,98416.0,Indonesia,,-0.8908561,131.3331635,https://maps.google.com/?cid=0x0:0x7bcb349f7dfabd06
perumahan,Pembangunan Perumahan,Perumahan KPR polisi KM 10,"487C+J53, jln malinda lorog 2, Jl. Kpr Polisi No.Km 10, Sawagumu, Kec. Sorong Utara, Kota Sorong, Papua Bar. 98416","jln malinda lorog 2, Jl. Kpr Polisi No.Km 10, Sawagumu, Kec. Sorong Utara, Kota Sorong",PAPUA BARAT,98416.0,Indonesia,,-0.8859939,131.3196924,https://maps.google.com/?cid=0x0:0x2f0551b37ba785f1
perumahan,Pembangunan Perumahan,Kompleks Perumahan Bumi Sorong Permai,"4878+P6X, Bar., Sawagumu, Kec. Sorong Utara, Kota Sorong, Papua Bar. 98412","Bar., Sawagumu, Kec. Sorong Utara, Kota Sorong",PAPUA BARAT,98412.0,Indonesia,,-0.8856369,131.3156074,https://maps.google.com/?cid=0x0:0x15ce23ec45f06d86
perumahan,Pembangunan Perumahan,Perumahan PEAK Residence,"486H+CG2, Jl. Srikandi, Matalamagi, Kec. Sorong Utara, Kota Sorong, Papua Bar. 98416","Jl. Srikandi, Matalamagi, Kec. Sorong Utara, Kota Sorong",PAPUA BARAT,98416.0,Indonesia,85244303717.0,-0.8889872,131.3287805,https://maps.google.com/?cid=0x0:0xcad5af7d54a7de98
perumahan,Komplek perumahan,KPR Sabhrina Regency,"488C+FGR, Bar., Sawagumu, Kec. Sorong Utara, Kota Sorong, Papua Bar. 98416","Bar., Sawagumu, Kec. Sorong Utara, Kota Sorong",PAPUA BARAT,98416.0,Indonesia,,-0.8837636,131.3212524,https://maps.google.com/?cid=0x0:0xd16c149f6031b256
perumahan,Komplek perumahan,KPR JBB Kota Sorong,"487H+W72, Jl. Bima, Matalamagi, Kec. Sorong Utara, Kota Sorong, Papua Bar. 98416","Jl. Bima, Matalamagi, Kec. Sorong Utara, Kota Sorong",PAPUA BARAT,98416.0,Indonesia,,-0.8852416,131.328134,https://maps.google.com/?cid=0x0:0x6b8f4352714968d5
perumahan,Otoritas Perumahan,Perumahan Sabrina Regency 2,"4879+WVQ, Jl. Tj. Malinda, Sawagumu, Kec. Sorong Utara, Kota Sorong, Papua Bar. 98416","Jl. Tj. Malinda, Sawagumu, Kec. Sorong Utara, Kota Sorong",PAPUA BARAT,98416.0,Indonesia,,-0.8851736,131.3197447,https://maps.google.com/?cid=0x0:0xa340ed302a912adc
perumahan,perumahan,Komkas,"4922+PGV, Klasaman, Distrik Sorong Timur, Kota Sorong, Papua Bar.","Kota Sorong, Papua Bar.",PAPUA BARAT,,Indonesia,,-0.8981378,131.3512975,https://maps.google.com/?cid=0x0:0xbda4f1d45ba12fc7
perumahan,Komplek perumahan,Rumah Tisa,"483P+XFW, Giwu, Distrik Sorong Timur, Kota Sorong, Papua Bar. 98416","Giwu, Distrik Sorong Timur, Kota Sorong",PAPUA BARAT,98416.0,Indonesia,,-0.8949871,131.3362441,https://maps.google.com/?cid=0x0:0x997486dc9f938682
perumahan,perumahan,Papua Bar. 98419,"Kabupaten Sorong, Papua Bar.","Kabupaten Sorong, Papua Bar.",PAPUA BARAT,,Indonesia,,-0.9516965,131.4612677,https://maps.google.com/?cid=0x0:0x1846ff160c020f5b
perumahan,Otoritas Perumahan,PERUMAHAN PEMDA KM. 24 KABUPATEN SORONG,"2977+V9F, Aimas, Kec. Aimas, Kabupaten Sorong, Papua Bar. 98415","Aimas, Kec. Aimas, Kabupaten Sorong",PAPUA BARAT,98415.0,Indonesia,,-0.98532,131.3634064,https://maps.google.com/?cid=0x0:0x2b14f9bf12be9501
perumahan,Pembangunan Perumahan,Kompleks Perumahan Bumi Sorong Permai,"4878+P6X, Bar., Sawagumu, Kec. Sorong Utara, Kota Sorong, Papua Bar. 98412","Bar., Sawagumu, Kec. Sorong Utara, Kota Sorong",PAPUA BARAT,98412.0,Indonesia,,-0.8856369,131.3156074,https://maps.google.com/?cid=0x0:0x15ce23ec45f06d86
perumahan,Pembangunan Perumahan,PERUMAHAN AIMO,"295C+PR8, Jl. Klamono - Kambuaya, Klamasen, Distrik Mariat, Kabupaten Sorong, Papua Bar. 98415","Jl. Klamono - Kambuaya, Klamasen, Distrik Mariat, Kabupaten Sorong",PAPUA BARAT,98415.0,Indonesia,,-0.9907181,131.3720676,https://maps.google.com/?cid=0x0:0xfe272d143dfbf49
perumahan,Apartemen sewa liburan,Perumahan residence,"Q2, Jl. Tanjung Medan, Malaingkedi, Kec. Sorong Utara, Kota Sorong, Papua Bar. 98412","Jl. Tanjung Medan, Malaingkedi, Kec. Sorong Utara, Kota Sorong",PAPUA BARAT,98412.0,Indonesia,,-0.888833,131.2948243,https://maps.google.com/?cid=0x0:0x9766ab086a7f50df
perumahan,Komplek perumahan,Perumahan jupiter,"nomor 3, Jl. Sungai Maruni No.km 10 blok b2","Kota Sorong, Papua Bar.",PAPUA BARAT,,Indonesia,,-0.8871871,131.3215211,https://maps.google.com/?cid=0x0:0x121e521340c347d3
perumahan,Komplek perumahan,AIMAS REGENCI,"X9WQ+XMQ, Aimas, Kec. Aimas, Kabupaten Sorong, Papua Bar. 98415","Aimas, Kec. Aimas, Kabupaten Sorong",PAPUA BARAT,98415.0,Indonesia,,-1.0025481,131.3892239,https://maps.google.com/?cid=0x0:0xc4b0ed1cad52ee56
perumahan,Perumahan,KPR AIMO RESIDENT,"295C+XW8, Jl. Klamono - Kambuaya, Klamasen, Distrik Mariat, Kabupaten Sorong, Papua Bar. 98415","Jl. Klamono - Kambuaya, Klamasen, Distrik Mariat, Kabupaten Sorong",PAPUA BARAT,98415.0,Indonesia,,-0.9900768,131.3723435,https://maps.google.com/?cid=0x0:0xb8ba967e23c9ace0
perumahan,Kantor Perusahaan,AIMO PERMAI PT. SOMA GRAHA PERSADA,"293G+M74, Aimas, Kec. Aimas, Kabupaten Sorong, Papua Bar. 98415","Aimas, Kec. Aimas, Kabupaten Sorong",PAPUA BARAT,98415.0,Indonesia,85254353580.0,-0.9958501,131.3757077,https://maps.google.com/?cid=0x0:0xea74f2ab30627397
perumahan,perumahan,tanah paulus,"3C24+CFW, Klasuat, Distrik Sorong Timur, Kota Sorong, Papua Bar.","Kota Sorong, Papua Bar.",PAPUA BARAT,,Indonesia,,-0.9488935,131.4062045,https://maps.google.com/?cid=0x0:0xf65ff565dbc041c9
perumahan,Kantor Pemerintah,Pemerintah Propinsi Papua Barat .Dinas Pekerjaan Umum Dan Perumahan Rakyat,"X9X6+CV2 Komplek pak Haji Luqman, Klamasen, Distrik Mariat, Kabupaten Sorong, Papua Bar. 98415","Klamasen, Distrik Mariat, Kabupaten Sorong",PAPUA BARAT,98415.0,Indonesia,,-1.0014784,131.3621553,https://maps.google.com/?cid=0x0:0x9c8ae66ec959def2
perumahan,Komplek perumahan,Metal home,"2C9C+GFH, Maibo, Kec. Aimas, Kabupaten Sorong, Papua Bar. 98419","Maibo, Kec. Aimas, Kabupaten Sorong",PAPUA BARAT,98419.0,Indonesia,,-0.9811757,131.4212272,https://maps.google.com/?cid=0x0:0x9335126f1c9d2627
perumahan,perumahan,"KOMPLEKS FANBERS, KELURAHAN KLASUAT","29XC+JWQ, Klasaman, Distrik Sorong Timur, Kota Sorong, Papua Bar. 98414","Klasaman, Distrik Sorong Timur, Kota Sorong",PAPUA BARAT,98414.0,Indonesia,,-0.9509029,131.3723517,https://maps.google.com/?cid=0x0:0x7b6dcbbba678da7b
perumahan,Otoritas Perumahan,INTI RESIDENCE,"29CC+6X, Aimas, Kec. Aimas, Kabupaten Sorong, Papua Bar. 98414","Aimas, Kec. Aimas, Kabupaten Sorong",PAPUA BARAT,98414.0,Indonesia,,-0.9794957,131.3724273,https://maps.google.com/?cid=0x0:0xca7cf57b5d711e4a
housing complex,housing complex,Papua Bar. 98413,"Klabala, Distrik Sorong Barat, Kota Sorong, Papua Bar.","Kota Sorong, Papua Bar.",PAPUA BARAT,,Indonesia,,-0.8669518,131.254029,https://maps.google.com/?cid=0x0:0x352e1f254d39ea2b
housing complex,Pembangunan Perumahan,Kompleks Trikora kota Sorong,"564X+75V, Jl. Trikora, Klawasi, Distrik Sorong Barat, Kota Sorong, Papua Bar. 98411","Jl. Trikora, Klawasi, Distrik Sorong Barat, Kota Sorong",PAPUA BARAT,98411.0,Indonesia,,-0.8442746,131.2479121,https://maps.google.com/?cid=0x0:0x19c694c45ddc242c
housing complex,housing complex,CEMARA FAMILLY,"47J4+V33, Unnamed Road, Klabala, Distrik Sorong Barat, Kota Sorong, Papua Bar. 98411","Unnamed Road, Klabala, Distrik Sorong Barat, Kota Sorong",PAPUA BARAT,98411.0,Indonesia,,-0.8679732,131.2551719,https://maps.google.com/?cid=0x0:0xe6780a6dad3142be
housing complex,Komplek perumahan,Kota Sorong,"Jl. Kalimantan No.54, RT.002/RW.03, kelrahan, Klabala, Distrik Sorong Barat, kota, Papua Bar. 98411","RT.002/RW.03, kelrahan, Klabala, Distrik Sorong Barat, kota",PAPUA BARAT,98411.0,Indonesia,,-0.8678626,131.2535437,https://maps.google.com/?cid=0x0:0xebc996fab748f75f
housing complex,Perumahan,Perumahan Grand Efata Malibela,"Jl. Malibela, Klawalu, Kecamatan Sorong Manoi, Kota Sorong, Papua Bar. 98413","Klawalu, Kecamatan Sorong Manoi, Kota Sorong",PAPUA BARAT,98413.0,Indonesia,82268235322.0,-0.90423,131.3118479,https://maps.google.com/?cid=0x0:0x600613eae3023432
housing complex,Komplek perumahan,keluarga banjar,"Jl. Kalimantan No.214, Klabala, Distrik Sorong Barat, Kota Sorong, Papua Bar. 98411","Klabala, Distrik Sorong Barat, Kota Sorong",PAPUA BARAT,98411.0,Indonesia,,-0.8670343,131.2540567,https://maps.google.com/?cid=0x0:0xf6a2f29aecc7a775
housing complex,Komplek perumahan,Kel. Djahri Banjar,"Jl. Kalimantan No.214, Klabala, Distrik Sorong Barat, Kota Sorong, Papua Bar. 98411","Klabala, Distrik Sorong Barat, Kota Sorong",PAPUA BARAT,98411.0,Indonesia,,-0.8671717,131.2543055,https://maps.google.com/?cid=0x0:0x7965f291f4a553ed
housing complex,Komplek perumahan,Rumah Fadly blesia,"47M4+46R, Jl. Puncak Rafidim, Klabala, Distrik Sorong Barat, Kota Sorong, Papua Bar. 98411","Jl. Puncak Rafidim, Klabala, Distrik Sorong Barat, Kota Sorong",PAPUA BARAT,98411.0,Indonesia,,-0.8671465,131.2555214,https://maps.google.com/?cid=0x0:0xcbb4a8eef93a4246
housing complex,Komplek perumahan,Brownchar Balthazar Home,"47J4+V5C, Klabala, Distrik Sorong Barat, Kota Sorong, Papua Bar. 98411","Klabala, Distrik Sorong Barat, Kota Sorong",PAPUA BARAT,98411.0,Indonesia,,-0.8678125,131.2553906,https://maps.google.com/?cid=0x0:0xfd97e95a0f849f17
housing complex,housing complex,Lalibela,"47F4+G8P, Kp. Baru, Distrik Sorong, Kota Sorong, Papua Bar.","Kota Sorong, Papua Bar.",PAPUA BARAT,,Indonesia,,-0.8761629,131.255828,https://maps.google.com/?cid=0x0:0x20b449ff40eb2a38
housing complex,housing complex,Jl Layang TMP,"47CJ+M34, Remu Utara, Distrik Sorong, Kota Sorong, Papua Bar.","Kota Sorong, Papua Bar.",PAPUA BARAT,,Indonesia,,-0.8783829,131.2802135,https://maps.google.com/?cid=0x0:0x6b5cb18ff9bb0702
housing complex,Komplek perumahan,Pak somad aroby,"Jalan pulau Sulawesi No.dalam, Klabala, Distrik Sorong Barat, Kota Sorong, Papua Bar.","Kota Sorong, Papua Bar.",PAPUA BARAT,,Indonesia,,-0.8677439,131.2553301,https://maps.google.com/?cid=0x0:0x190bb75bbd9f640b
housing complex,housing complex,Sorong,"Kota Sorong, Papua Bar.","Kota Sorong, Papua Bar.",PAPUA BARAT,,Indonesia,,-0.8761629,131.255828,https://maps.google.com/?cid=0x0:0xe32b512ec6c6786
housing complex,Komplek perumahan,kompleks chilco,"47H3+8WR, Klabala, Distrik Sorong Barat, Kota Sorong, Papua Bar.","Kota Sorong, Papua Bar.",PAPUA BARAT,,Indonesia,,-0.8716461,131.2547732,https://maps.google.com/?cid=0x0:0xd215deadb619d93e
housing complex,Komplek perumahan,Kompleks Gps,"47J5+P2M, Jl. P kasim puncak cendrawasih, Klabala, Distrik Sorong Barat, Kota Sorong, Papua Bar.","Kota Sorong, Papua Bar.",PAPUA BARAT,,Indonesia,,-0.8681644,131.2575581,https://maps.google.com/?cid=0x0:0xe4635222c57a4986
housing complex,Komplek perumahan,Kompleks seram,"47GF+P8W, Klademak, Distrik Sorong, Kota Sorong, Papua Bar.","Kota Sorong, Papua Bar.",PAPUA BARAT,,Indonesia,,-0.8731498,131.2733279,https://maps.google.com/?cid=0x0:0xda6a50ed2865276f
housing complex,Penginapan,Perumahan Aqwa Residence No. 8,"38MJ+HG5, Klamana, Distrik Sorong Timur, Kota Sorong, Papua Bar. 98416","Klamana, Distrik Sorong Timur, Kota Sorong",PAPUA BARAT,98416.0,Indonesia,,-0.9156182,131.3312909,https://maps.google.com/?cid=0x0:0x6db490a8a3ed2750
housing complex,Perumahan,Perum PT. Pertamina EP,"Jl. Durian No.2A, Klademak, Kecamatan Sorong Manoi, Kota Sorong, Papua Bar. 98412","Klademak, Kecamatan Sorong Manoi, Kota Sorong",PAPUA BARAT,98412.0,Indonesia,,-0.8815427,131.2668833,https://maps.google.com/?cid=0x0:0xcd885c4f09a40b80
housing complex,housing complex,Kompleks Elles,"46GX+6QW, Kp. Baru, Distrik Sorong, Kota Sorong, Papua Bar.","Kota Sorong, Papua Bar.",PAPUA BARAT,,Indonesia,82255031950.0,-0.8743773,131.2494547,https://maps.google.com/?cid=0x0:0xa018b57b3a1e662e
housing complex,housing complex,Victor Nduy,"47M4+JQ3, Klabala, Distrik Sorong Barat, Kota Sorong, Papua Bar. 98411","Klabala, Distrik Sorong Barat, Kota Sorong",PAPUA BARAT,98411.0,Indonesia,,-0.8659961,131.2569118,https://maps.google.com/?cid=0x0:0x9ebe1f2da9cfb961
housing complex,Komplek perumahan,KOMPLEX SEREWEN-KOMSER-,"47G4+CV, Klakublik, Distrik Sorong, Kota Sorong, Papua Bar. 98411","Klakublik, Distrik Sorong, Kota Sorong",PAPUA BARAT,98411.0,Indonesia,82239232722.0,-0.8740146,131.2569692,https://maps.google.com/?cid=0x0:0x6ba2a7eb62ff3e32
housing complex,housing complex,CEMARA FAMILLY,"47J4+V33, Unnamed Road, Klabala, Distrik Sorong Barat, Kota Sorong, Papua Bar. 98411","Unnamed Road, Klabala, Distrik Sorong Barat, Kota Sorong",PAPUA BARAT,98411.0,Indonesia,,-0.8679732,131.2551719,https://maps.google.com/?cid=0x0:0xe6780a6dad3142be
housing complex,Komplek perumahan,wilno,"Jl. Kesehatan No.26, Kp. Baru, Distrik Sorong, Kota Sorong, Papua Bar. 98411","Kp. Baru, Distrik Sorong, Kota Sorong",PAPUA BARAT,98411.0,Indonesia,,-0.8709783,131.2483835,https://maps.google.com/?cid=0x0:0x1bfcb50be49cf66f
housing complex,Perumahan,KADAR HILL RESIDENCE II,"Jl. Bima No.2, Matalamagi, Kec. Sorong Utara, Kota Sorong, Papua Bar. 98416","Matalamagi, Kec. Sorong Utara, Kota Sorong",PAPUA BARAT,98416.0,Indonesia,89525600971.0,-0.8861389,131.3279167,https://maps.google.com/?cid=0x0:0xfb9a0181274599b8
housing complex,Komplek perumahan,Kel Sauyai,"46PX+886, Klasuur, Distrik Sorong, Kota Sorong, Papua Bar. 98414","Klasuur, Distrik Sorong, Kota Sorong",PAPUA BARAT,98414.0,Indonesia,82239436319.0,-0.864217,131.2482652,https://maps.google.com/?cid=0x0:0x9418b9c1ea29788f
housing complex,Inspektur Tempat Tinggal,rumah howay famz,"47F6+X4W, Jl. Bukit Baru, Klakublik, Distrik Sorong, Kota Sorong, Papua Bar. 98411","Jl. Bukit Baru, Klakublik, Distrik Sorong, Kota Sorong",PAPUA BARAT,98411.0,Indonesia,,-0.8753139,131.2605021,https://maps.google.com/?cid=0x0:0x9fac4c1194dd6327
housing complex,housing complex,Papua Bar. 98416,Papua Bar.,Papua Bar.,PAPUA BARAT,,Indonesia,,-0.8883325,131.3510866,https://maps.google.com/?cid=0x0:0x7d4c82915eeb19ce
housing complex,Komplek perumahan,GA's house,"Blk. B No.20, Klamana, Distrik Sorong Timur, Kota Sorong, Papua Bar. 98416","Klamana, Distrik Sorong Timur, Kota Sorong",PAPUA BARAT,98416.0,Indonesia,,-0.9124827,131.3274659,https://maps.google.com/?cid=0x0:0x41b57d5a452f6cd9
housing complex,Pembangunan Perumahan,Kompleks Way,"484M+WHP, Jalan, Matalamagi, Makbon, Sorong Regency, West Papua 98416","Jalan, Matalamagi, Makbon, Sorong Regency",PAPUA BARAT,98416.0,Indonesia,,-0.8926638,131.3339411,https://maps.google.com/?cid=0x0:0x80008afaea5a1df8
housing complex,Komplek perumahan,Safe House,"KPR JMP, Jl. Sadewa VIII No.59, Klasaman, Sorong Timur, Sorong City, West Papua 98416","Jl. Sadewa VIII No.59, Klasaman, Sorong Timur, Sorong City",PAPUA BARAT,98416.0,Indonesia,,-0.9001407,131.3383656,https://maps.google.com/?cid=0x0:0x6c7ff6e8b0ae6e99
housing complex,Komplek perumahan,Rumah Dinas BMKG GAW SORONG,"Jl. Santer, Matalamagi, Kec. Sorong Utara, Kota Sorong, Papua Bar. 98416","Matalamagi, Kec. Sorong Utara, Kota Sorong",PAPUA BARAT,98416.0,Indonesia,9513138217.0,-0.8866282,131.3281526,https://maps.google.com/?cid=0x0:0x5e5c933e5a21299e
housing complex,Otoritas Perumahan,"Perumahan Gustia X,kelurahan giwu,kecamatan klaurung","483P+VF4, Jl. Poncowati, Giwu, Distrik Sorong Timur, Kota Sorong, Papua Bar. 98416","Jl. Poncowati, Giwu, Distrik Sorong Timur, Kota Sorong",PAPUA BARAT,98416.0,Indonesia,,-0.8969182,131.3296531,https://maps.google.com/?cid=0x0:0x1eed4d5f711bdbfe
housing complex,housing complex,Perum Sakura Garden Blok G - Rumah Rhenzy,"485Q+2M8, Giwu, Distrik Sorong Timur, Kota Sorong, Papua Bar. 98416","Giwu, Distrik Sorong Timur, Kota Sorong",PAPUA BARAT,98416.0,Indonesia,81291662108.0,-0.8924421,131.3391136,https://maps.google.com/?cid=0x0:0xb793f34c17102256
housing complex,Penginapan,Perumahan Aqwa Residence No. 8,"38MJ+HG5, Klamana, Distrik Sorong Timur, Kota Sorong, Papua Bar. 98416","Klamana, Distrik Sorong Timur, Kota Sorong",PAPUA BARAT,98416.0,Indonesia,,-0.9156182,131.3312909,https://maps.google.com/?cid=0x0:0x6db490a8a3ed2750
housing complex,Komplek perumahan,ArkanLathifa Home,"482P+P33, Jl. Sadewa II, Klasaman, Distrik Sorong Timur, Kota Sorong, Papua Bar. 98416","Jl. Sadewa II, Klasaman, Distrik Sorong Timur, Kota Sorong",PAPUA BARAT,98416.0,Indonesia,,-0.8982279,131.3351851,https://maps.google.com/?cid=0x0:0xe364cc319a8584d6
housing complex,Pembangunan Perumahan,Perumahan KPR polisi KM 10,"487C+J53, jln malinda lorog 2, Jl. Kpr Polisi No.Km 10, Sawagumu, Kec. Sorong Utara, Kota Sorong, Papua Bar. 98416","jln malinda lorog 2, Jl. Kpr Polisi No.Km 10, Sawagumu, Kec. Sorong Utara, Kota Sorong",PAPUA BARAT,98416.0,Indonesia,,-0.8859939,131.3196924,https://maps.google.com/?cid=0x0:0x2f0551b37ba785f1
housing complex,Komplek perumahan,Carissa home,"484J+3GM, Jl. Sorong - Makbon, Giwu, Distrik Sorong Timur, Kota Sorong, Papua Bar. 98416","Jl. Sorong - Makbon, Giwu, Distrik Sorong Timur, Kota Sorong",PAPUA BARAT,98416.0,Indonesia,,-0.8949547,131.3313429,https://maps.google.com/?cid=0x0:0x3c8893264316f029
housing complex,Komplek perumahan,Hayzel Home,"482Q+38F, Jl. Sadewa VIII, Klasaman, Distrik Sorong Timur, Kota Sorong, Papua Bar. 98416","Jl. Sadewa VIII, Klasaman, Distrik Sorong Timur, Kota Sorong",PAPUA BARAT,98416.0,Indonesia,,-0.8998101,131.3382862,https://maps.google.com/?cid=0x0:0xd0ea66a2eeb82643
housing complex,housing complex,CNG AS LIFE KOTA SOQ,"485Q+8WM, Jl. Sorong - Makbon, Giwu, Distrik Sorong Timur, Kota Sorong, Papua Bar. 98416","Jl. Sorong - Makbon, Giwu, Distrik Sorong Timur, Kota Sorong",PAPUA BARAT,98416.0,Indonesia,,-0.8917361,131.3396978,https://maps.google.com/?cid=0x0:0xb3dcda3b94518968
housing complex,Perumahan,KADAR HILL RESIDENCE II,"Jl. Bima No.2, Matalamagi, Kec. Sorong Utara, Kota Sorong, Papua Bar. 98416","Matalamagi, Kec. Sorong Utara, Kota Sorong",PAPUA BARAT,98416.0,Indonesia,89525600971.0,-0.8861389,131.3279167,https://maps.google.com/?cid=0x0:0xfb9a0181274599b8
housing complex,housing complex,Papua Bar. 98411,"Kota Sorong, Papua Bar.","Kota Sorong, Papua Bar.",PAPUA BARAT,,Indonesia,,-0.8165448,131.3310303,https://maps.google.com/?cid=0x0:0xa63c7f2b52beead0
housing complex,Perhimpunan Pengembang Perumahan,KOMPLEX UKA,"47J3+JM9, Jl. Pulau Kasim, Puncak Jl. Cendrawasih, Distrik Sorong Barat, Kota Sorong, Papua Bar. 98411","Jl. Pulau Kasim, Puncak Jl. Cendrawasih, Distrik Sorong Barat, Kota Sorong",PAPUA BARAT,98411.0,Indonesia,,-0.8809833,131.2827093,https://maps.google.com/?cid=0x0:0x46e130d79ff184c2
housing complex,housing complex,KOMPLEKS STB,"Saoka, Distrik Sorong Barat, Kota Sorong, Papua Bar. 98411","Distrik Sorong Barat, Kota Sorong",PAPUA BARAT,98411.0,Indonesia,,-0.8144388,131.2592068,https://maps.google.com/?cid=0x0:0xccc2db535276078c
housing complex,Komplek perumahan,Rujem,"46XX+XVC, Jl. Kasuari, Klawasi, Distrik Sorong Barat, Kota Sorong, Papua Bar. 98411","Jl. Kasuari, Klawasi, Distrik Sorong Barat, Kota Sorong",PAPUA BARAT,98411.0,Indonesia,,-0.8500559,131.2496309,https://maps.google.com/?cid=0x0:0xd5e34f9cb36d1cb5
housing complex,Pembangunan Perumahan,Perumahan Usahamina22,"47X2+68R, Klawasi, Distrik Sorong Barat, Kota Sorong, Papua Bar. 98411","Klawasi, Distrik Sorong Barat, Kota Sorong",PAPUA BARAT,98411.0,Indonesia,,-0.8518767,131.2507583,https://maps.google.com/?cid=0x0:0x2ee5c70921baf2a6
housing complex,Pembangunan Perumahan,Komplex Buaya_Geng,"564X+75V, Jl. Trikora, Klawasi, Distrik Sorong Barat, Kota Sorong, Papua Bar. 98411","Jl. Trikora, Klawasi, Distrik Sorong Barat, Kota Sorong",PAPUA BARAT,98411.0,Indonesia,,-0.8442736,131.2479086,https://maps.google.com/?cid=0x0:0xfa284f277f7c2bd8
housing complex,Komplek perumahan,KELUARGA LUKAS,"47P4+G7, Klabala, Distrik Sorong Barat, Kota Sorong, Papua Bar. 98411","Klabala, Distrik Sorong Barat, Kota Sorong",PAPUA BARAT,98411.0,Indonesia,,-0.8632799,131.2558897,https://maps.google.com/?cid=0x0:0x65b63f07b51461f0
housing complex,Komplek perumahan,Lorong Ambai,"563W+7R5, Jl. Kasuari, Klawasi, Distrik Sorong Barat, Kota Sorong, Papua Bar. 98411","Jl. Kasuari, Klawasi, Distrik Sorong Barat, Kota Sorong",PAPUA BARAT,98411.0,Indonesia,,-0.8468622,131.2471148,https://maps.google.com/?cid=0x0:0x61c5277a2caa7393
housing complex,Komplek perumahan,Kompleks Aifat timur,"47M4+W7H, Jl. Puncak Rafidim, Klabala, Distrik Sorong Barat, Kota Sorong, Papua Bar. 98411","Jl. Puncak Rafidim, Klabala, Distrik Sorong Barat, Kota Sorong",PAPUA BARAT,98411.0,Indonesia,,-0.8651821,131.2557371,https://maps.google.com/?cid=0x0:0x95a7b0d1cb68009f
housing complex,Pembangunan Perumahan,Rumah Tanzer (perumahan beacukai),"47V4+HJW, Rufei, Distrik Sorong Barat, Kota Sorong, Papua Bar. 98411","Rufei, Distrik Sorong Barat, Kota Sorong",PAPUA BARAT,98411.0,Indonesia,,-0.8560223,131.2565844,https://maps.google.com/?cid=0x0:0xc1e97f33f6df8d84
housing complex,Komplek perumahan,Safri (Acho),"5725+R67, Klawasi, Distrik Sorong Barat, Kota Sorong, Papua Bar. 98411","Klawasi, Distrik Sorong Barat, Kota Sorong",PAPUA BARAT,98411.0,Indonesia,,-0.8483227,131.2590418,https://maps.google.com/?cid=0x0:0x8eb296412e5cf043
housing complex,Gedung Apartemen,Keluarga Petrus Wenehen,"47M4+JQ3, Klabala, Distrik Sorong Barat, Kota Sorong, Papua Bar. 98411","Klabala, Distrik Sorong Barat, Kota Sorong",PAPUA BARAT,98411.0,Indonesia,,-0.865377,131.256604,https://maps.google.com/?cid=0x0:0xc0d9d47e8fc7aba7
housing complex,,TEGAR DUA FAMILIY,"Klawasi, Distrik Sorong Barat, Kota Sorong, Papua Bar. 98411","Distrik Sorong Barat, Kota Sorong",PAPUA BARAT,98411.0,Indonesia,,-0.8417543,131.2433797,https://maps.google.com/?cid=0x0:0x4b8203751a290577
housing complex,Komplek perumahan,Omah Faza,"46VX+92Q, Gang Kasma, Rufei, Distrik Sorong Barat, Kota Sorong, Papua Bar. 98411","Gang Kasma, Rufei, Distrik Sorong Barat, Kota Sorong",PAPUA BARAT,98411.0,Indonesia,,-0.8564422,131.2473511,https://maps.google.com/?cid=0x0:0x638b27d9e91d1bc2
housing complex,housing complex,Papua Bar. 98412,"Kota Sorong, Papua Bar.","Kota Sorong, Papua Bar.",PAPUA BARAT,,Indonesia,,-0.8445683,131.3911778,https://maps.google.com/?cid=0x0:0x6e32dbda4609ff48
housing complex,Apartemen sewa liburan,Perumahan residence,"Q2, Jl. Tanjung Medan, Malaingkedi, Kec. Sorong Utara, Kota Sorong, Papua Bar. 98412","Jl. Tanjung Medan, Malaingkedi, Kec. Sorong Utara, Kota Sorong",PAPUA BARAT,98412.0,Indonesia,,-0.888833,131.2948243,https://maps.google.com/?cid=0x0:0x9766ab086a7f50df
housing complex,,Kota Sorong,"Jl. Bangau 1 Aspen, Klagete, Kec. Sorong Utara, Kota Sorong, Papua Bar. 98412","Klagete, Kec. Sorong Utara, Kota Sorong",PAPUA BARAT,98412.0,Indonesia,,-0.8760987,131.2904141,https://maps.google.com/?cid=0x0:0x47bce9f7f89506fd
housing complex,housing complex,Abox,"48C8+C35, Jl. Arteri, Malanu, Kec. Sorong Utara, Kota Sorong, Papua Bar. 98412","Jl. Arteri, Malanu, Kec. Sorong Utara, Kota Sorong",PAPUA BARAT,98412.0,Indonesia,,-0.8794903,131.3155873,https://maps.google.com/?cid=0x0:0x4e61690c3c42a600
housing complex,Komplek perumahan,ichas house,"4822+WWJ, Jl. Sejahtera, Klasabi, Kecamatan Sorong Manoi, Kota Sorong, Papua Bar. 98412","Jl. Sejahtera, Klasabi, Kecamatan Sorong Manoi, Kota Sorong",PAPUA BARAT,98412.0,Indonesia,,-0.8976597,131.3022575,https://maps.google.com/?cid=0x0:0x2bf9be50fff6dcb7
housing complex,Komplek perumahan,Khayla house,"48C9+VG4, Jl. Malageda 1, Matalamagi, Kec. Sorong Utara, Kota Sorong, Papua Bar. 98412","Jl. Malageda 1, Matalamagi, Kec. Sorong Utara, Kota Sorong",PAPUA BARAT,98412.0,Indonesia,,-0.8778587,131.3188329,https://maps.google.com/?cid=0x0:0xdf783ece5feaf4f9
housing complex,Komplek perumahan,Rumah Icha2,"48G6+GJ2, Malanu, Kec. Sorong Utara, Kota Sorong, Papua Bar. 98412","Malanu, Kec. Sorong Utara, Kota Sorong",PAPUA BARAT,98412.0,Indonesia,,-0.873286,131.3111992,https://maps.google.com/?cid=0x0:0x52fe1cd2be55b3db
housing complex,Pembangunan Perumahan,Perumahan LAPAS Sorong,"4889+WQ4, Sawagumu, Kec. Sorong Utara, Kota Sorong, Papua Bar. 98412","Sawagumu, Kec. Sorong Utara, Kota Sorong",PAPUA BARAT,98412.0,Indonesia,,-0.8827268,131.3194598,https://maps.google.com/?cid=0x0:0x665cedfced885af
housing complex,housing complex,Ana.C,"48CC+2J2, Matalamagi, Kec. Sorong Utara, Kota Sorong, Papua Bar. 98412","Matalamagi, Kec. Sorong Utara, Kota Sorong",PAPUA BARAT,98412.0,Indonesia,,-0.880189,131.321423,https://maps.google.com/?cid=0x0:0x7c9073aed4f804c3
housing complex,Perumahan,Sapta Taruna Blok M No 2,"4899+HFH, Sawagumu, Kec. Sorong Utara, Kota Sorong, Papua Bar. 98412","Sawagumu, Kec. Sorong Utara, Kota Sorong",PAPUA BARAT,98412.0,Indonesia,,-0.8810692,131.3187434,https://maps.google.com/?cid=0x0:0xd902be554bd0fc1
housing complex,Komplek perumahan,Kayla home,"Jl. Sapta Taruna No.Km.10, Sawagumu, Kec. Sorong Utara, Kota Sorong, Papua Bar. 98412","Sawagumu, Kec. Sorong Utara, Kota Sorong",PAPUA BARAT,98412.0,Indonesia,,-0.8816146,131.3192749,https://maps.google.com/?cid=0x0:0x6d47dbb47837321
housing complex,Komplek perumahan,BLOK G NO 4,"Kompleks Perumahan Jupiter Jl. Kilang Blk. G No.mor 6, Sawagumu, Sorong Utara, Sorong City, West Papua 98412","Sawagumu, Sorong Utara, Sorong City",PAPUA BARAT,98412.0,Indonesia,,-0.885167,131.3155387,https://maps.google.com/?cid=0x0:0x564edee8faa54eae
housing complex,Pembangunan Perumahan,My Home,"4876+RM, Sawagumu, Kec. Sorong Utara, Kota Sorong, Papua Bar. 98412","Sawagumu, Kec. Sorong Utara, Kota Sorong",PAPUA BARAT,98412.0,Indonesia,,-0.885497,131.311687,https://maps.google.com/?cid=0x0:0x932633130f63160a
housing complex,Komplek perumahan,Komp. PEPABRI SORONG,"4892+XC2, Malaingkedi, Kecamatan Sorong Manoi, Kota Sorong, Papua Bar. 98412","Malaingkedi, Kecamatan Sorong Manoi, Kota Sorong",PAPUA BARAT,98412.0,Indonesia,,-0.8801234,131.3010086,https://maps.google.com/?cid=0x0:0x986f9fd310ba6ba
housing complex,housing complex,Papua Bar. 98413,"Klabala, Distrik Sorong Barat, Kota Sorong, Papua Bar.","Kota Sorong, Papua Bar.",PAPUA BARAT,,Indonesia,,-0.8669518,131.254029,https://maps.google.com/?cid=0x0:0x352e1f254d39ea2b
housing complex,housing complex,CEMARA FAMILLY,"47J4+V33, Unnamed Road, Klabala, Distrik Sorong Barat, Kota Sorong, Papua Bar. 98411","Unnamed Road, Klabala, Distrik Sorong Barat, Kota Sorong",PAPUA BARAT,98411.0,Indonesia,,-0.8679732,131.2551719,https://maps.google.com/?cid=0x0:0xe6780a6dad3142be
housing complex,Komplek perumahan,Kios dhea al,"Jl. Kalimantan No.204, Klabala, Distrik Sorong Barat, Kota Sorong, Papua Bar. 98413","Klabala, Distrik Sorong Barat, Kota Sorong",PAPUA BARAT,98413.0,Indonesia,,-0.8667697,131.2538837,https://maps.google.com/?cid=0x0:0xa7f63becf22a6cb3
housing complex,Komplek perumahan,keluarga banjar,"Jl. Kalimantan No.214, Klabala, Distrik Sorong Barat, Kota Sorong, Papua Bar. 98411","Klabala, Distrik Sorong Barat, Kota Sorong",PAPUA BARAT,98411.0,Indonesia,,-0.8670343,131.2540567,https://maps.google.com/?cid=0x0:0xf6a2f29aecc7a775
housing complex,Komplek perumahan,Kel. Djahri Banjar,"Jl. Kalimantan No.214, Klabala, Distrik Sorong Barat, Kota Sorong, Papua Bar. 98411","Klabala, Distrik Sorong Barat, Kota Sorong",PAPUA BARAT,98411.0,Indonesia,,-0.8671717,131.2543055,https://maps.google.com/?cid=0x0:0x7965f291f4a553ed
housing complex,Apartemen sewa liburan,Perumahan residence,"Q2, Jl. Tanjung Medan, Malaingkedi, Kec. Sorong Utara, Kota Sorong, Papua Bar. 98412","Jl. Tanjung Medan, Malaingkedi, Kec. Sorong Utara, Kota Sorong",PAPUA BARAT,98412.0,Indonesia,,-0.888833,131.2948243,https://maps.google.com/?cid=0x0:0x9766ab086a7f50df
housing complex,Komplek perumahan,Rumah Fadly blesia,"47M4+46R, Jl. Puncak Rafidim, Klabala, Distrik Sorong Barat, Kota Sorong, Papua Bar. 98411","Jl. Puncak Rafidim, Klabala, Distrik Sorong Barat, Kota Sorong",PAPUA BARAT,98411.0,Indonesia,,-0.8671465,131.2555214,https://maps.google.com/?cid=0x0:0xcbb4a8eef93a4246
housing complex,Komplek perumahan,Brownchar Balthazar Home,"47J4+V5C, Klabala, Distrik Sorong Barat, Kota Sorong, Papua Bar. 98411","Klabala, Distrik Sorong Barat, Kota Sorong",PAPUA BARAT,98411.0,Indonesia,,-0.8678125,131.2553906,https://maps.google.com/?cid=0x0:0xfd97e95a0f849f17
housing complex,Komplek perumahan,Pak somad aroby,"Jalan pulau Sulawesi No.dalam, Klabala, Distrik Sorong Barat, Kota Sorong, Papua Bar.","Kota Sorong, Papua Bar.",PAPUA BARAT,,Indonesia,,-0.8677439,131.2553301,https://maps.google.com/?cid=0x0:0x190bb75bbd9f640b
housing complex,housing complex,Lalibela,"47F4+G8P, Kp. Baru, Distrik Sorong, Kota Sorong, Papua Bar.","Kota Sorong, Papua Bar.",PAPUA BARAT,,Indonesia,,-0.8761629,131.255828,https://maps.google.com/?cid=0x0:0x20b449ff40eb2a38
housing complex,housing complex,Jl Layang TMP,"47CJ+M34, Remu Utara, Distrik Sorong, Kota Sorong, Papua Bar.","Kota Sorong, Papua Bar.",PAPUA BARAT,,Indonesia,,-0.8783829,131.2802135,https://maps.google.com/?cid=0x0:0x6b5cb18ff9bb0702
housing complex,housing complex,Papua Bar. 98414,Papua Bar.,Papua Bar.,PAPUA BARAT,,Indonesia,,-0.923988,131.3811577,https://maps.google.com/?cid=0x0:0xa17d4a17a04184b
housing complex,housing complex,Kompleks,"384H+PP6, Klablim, Distrik Sorong Timur, Kota Sorong, Papua Bar. 98414","Klablim, Distrik Sorong Timur, Kota Sorong",PAPUA BARAT,98414.0,Indonesia,,-0.9431948,131.3291908,https://maps.google.com/?cid=0x0:0xc9261ae9e8c4826b
housing complex,housing complex,R. Marpaung House,"384M+5G7, Klablim, Distrik Sorong Timur, Kota Sorong, Papua Bar. 98414","Klablim, Distrik Sorong Timur, Kota Sorong",PAPUA BARAT,98414.0,Indonesia,,-0.9442464,131.3342705,https://maps.google.com/?cid=0x0:0x3f6b5310de1dc059
housing complex,Komplek perumahan,Safe House,"KPR JMP, Jl. Sadewa VIII No.59, Klasaman, Sorong Timur, Sorong City, West Papua 98416","Jl. Sadewa VIII No.59, Klasaman, Sorong Timur, Sorong City",PAPUA BARAT,98416.0,Indonesia,,-0.9001407,131.3383656,https://maps.google.com/?cid=0x0:0x6c7ff6e8b0ae6e99
housing complex,Penginapan,Perumahan Aqwa Residence No. 8,"38MJ+HG5, Klamana, Distrik Sorong Timur, Kota Sorong, Papua Bar. 98416","Klamana, Distrik Sorong Timur, Kota Sorong",PAPUA BARAT,98416.0,Indonesia,,-0.9156182,131.3312909,https://maps.google.com/?cid=0x0:0x6db490a8a3ed2750
housing complex,Komplek perumahan,The Sagoe,"Jl. Malasemi Raya No.km.14, Klablim, Distrik Sorong Timur, Kota Sorong, Papua Bar. 98417","Klablim, Distrik Sorong Timur, Kota Sorong",PAPUA BARAT,98417.0,Indonesia,81344004527.0,-0.9221169,131.3313651,https://maps.google.com/?cid=0x0:0x98d9b19b19380e90
housing complex,housing complex,Komkas,"4922+PGV, Klasaman, Distrik Sorong Timur, Kota Sorong, Papua Bar.","Kota Sorong, Papua Bar.",PAPUA BARAT,,Indonesia,,-0.8981378,131.3512975,https://maps.google.com/?cid=0x0:0xbda4f1d45ba12fc7
housing complex,Otoritas Perumahan,Rumah,"385G+2RC, Klablim, Distrik Sorong Timur, Kota Sorong, Papua Bar. 98414","Klablim, Distrik Sorong Timur, Kota Sorong",PAPUA BARAT,98414.0,Indonesia,,-0.9417772,131.3272222,https://maps.google.com/?cid=0x0:0x84a0cb7d457f7eed
housing complex,Komplek perumahan,Duwit,"38MH+XMR, Jl. Kokas, Klamana, Distrik Sorong Timur, Kota Sorong, Papua Bar. 98416","Jl. Kokas, Klamana, Distrik Sorong Timur, Kota Sorong",PAPUA BARAT,98416.0,Indonesia,,-0.9150206,131.3291412,https://maps.google.com/?cid=0x0:0xa2abb11e5438dffd
housing complex,housing complex,Rumah,"384H+QXQ, Klablim, Distrik Sorong Timur, Kota Sorong, Papua Bar. 98414","Klablim, Distrik Sorong Timur, Kota Sorong",PAPUA BARAT,98414.0,Indonesia,,-0.9430375,131.3299844,https://maps.google.com/?cid=0x0:0x7fdcc927f31af2f1
housing complex,Pembangunan Perumahan,Complex 13 UT,"38MH+F4X, Jl. Warmasen, Klamana, Distrik Sorong Timur, Kota Sorong, Papua Bar. 98416","Jl. Warmasen, Klamana, Distrik Sorong Timur, Kota Sorong",PAPUA BARAT,98416.0,Indonesia,,-0.9162556,131.3278619,https://maps.google.com/?cid=0x0:0xd9d747739c813ae3
housing complex,Komplek perumahan,Komplex CNG 27,"485Q+CQ9, Jl. Sorong - Makbon, Giwu, Distrik Sorong Timur, Kota Sorong, Papua Bar.","Kota Sorong, Papua Bar.",PAPUA BARAT,,Indonesia,,-0.8914505,131.3394744,https://maps.google.com/?cid=0x0:0xa9a09e988c0e328e
housing complex,Perumahan,KPR GRIYA ZARA TAHAP 4 SOQ,"385M+948, Klablim, Distrik Sorong Timur, Kota Sorong, Papua Bar.","Kota Sorong, Papua Bar.",PAPUA BARAT,,Indonesia,,-0.9415779,131.3328138,https://maps.google.com/?cid=0x0:0x58df53c3d819cb11
housing complex,housing complex,CNG AS LIFE KOTA SOQ,"485Q+8WM, Jl. Sorong - Makbon, Giwu, Distrik Sorong Timur, Kota Sorong, Papua Bar. 98416","Jl. Sorong - Makbon, Giwu, Distrik Sorong Timur, Kota Sorong",PAPUA BARAT,98416.0,Indonesia,,-0.8917361,131.3396978,https://maps.google.com/?cid=0x0:0xb3dcda3b94518968
housing complex,housing complex,Papua Bar. 98415,"Distrik Mariat, Kabupaten Sorong, Papua Bar.","Kabupaten Sorong, Papua Bar.",PAPUA BARAT,,Indonesia,,-1.0184261,131.3510866,https://maps.google.com/?cid=0x0:0x4d8344d873702960
housing complex,Perumahan,Official Daeng,"2977+V9F, Aimas, Kec. Aimas, Kabupaten Sorong, Papua Bar. 98415","Aimas, Kec. Aimas, Kabupaten Sorong",PAPUA BARAT,98415.0,Indonesia,,-0.9853012,131.3641862,https://maps.google.com/?cid=0x0:0x3c1741bbb1b48d67
housing complex,Komplek perumahan,waluyo,"X8MF+G24, Jl. Melati, Mariyai, Distrik Mariat, Kabupaten Sorong, Papua Bar. 98415","Jl. Melati, Mariyai, Distrik Mariat, Kabupaten Sorong",PAPUA BARAT,98415.0,Indonesia,,-1.016226,131.3225634,https://maps.google.com/?cid=0x0:0x115f18c5e544d0b8
housing complex,Komplek perumahan,Twentyfour City,"2987+5MG, Aimas, Kec. Aimas, Kabupaten Sorong, Papua Bar. 98415","Aimas, Kec. Aimas, Kabupaten Sorong",PAPUA BARAT,98415.0,Indonesia,,-0.984565,131.364209,https://maps.google.com/?cid=0x0:0xbde86ca7ff8af678
housing complex,Komplek perumahan,Sp 2,"X8X8+85X, Jl. Teratai, Klasuluk, Distrik Mariat, Kabupaten Sorong, Papua Bar. 98415","Jl. Teratai, Klasuluk, Distrik Mariat, Kabupaten Sorong",PAPUA BARAT,98415.0,Indonesia,,-1.0017597,131.3161153,https://maps.google.com/?cid=0x0:0x248bab4ae51d0b32
housing complex,Gedung Apartemen,Official Pondok Sultan,"Jl. Tawes No.35, Klamasen, Distrik Mariat, Kabupaten Sorong, Papua Bar. 98416","Klamasen, Distrik Mariat, Kabupaten Sorong",PAPUA BARAT,98416.0,Indonesia,,-0.9806398,131.354913,https://maps.google.com/?cid=0x0:0x133a319688ee3d91
housing complex,housing complex,Kota sorong papua,"X8X9+VP4, Jl. Flamboyan, Klasuluk, Distrik Mariat, Kabupaten Sorong, Papua Bar.","Kabupaten Sorong, Papua Bar.",PAPUA BARAT,,Indonesia,,-1.0003527,131.3193428,https://maps.google.com/?cid=0x0:0xd204ccaaf7a951a1
housing complex,Komplek perumahan,Kel Bohang-Manumpil KPR BUKIT KLAMALU block c 6,"X9W2+4GR, Jl. Sakura, Klamalu, Distrik Mariat, Kabupaten Sorong, Papua Bar. 98415","Jl. Sakura, Klamalu, Distrik Mariat, Kabupaten Sorong",PAPUA BARAT,98415.0,Indonesia,,-1.0044804,131.3507809,https://maps.google.com/?cid=0x0:0xc1ba91cec0b4dc0e
housing complex,Komplek perumahan,Viella Home,"X9W2+87Q, Gg. Sakura, Klamalu, Distrik Mariat, Kabupaten Sorong, Papua Bar. 98416","Gg. Sakura, Klamalu, Distrik Mariat, Kabupaten Sorong",PAPUA BARAT,98416.0,Indonesia,,-1.0041619,131.3507346,https://maps.google.com/?cid=0x0:0x73db7107d0f2ad48
housing complex,Komplek perumahan,KPR PAPUA SYAR'I MANDIRI NO.1.B,"X8QR+7XV, Klamalu, Distrik Mariat, Kabupaten Sorong, Papua Bar. 98415","Klamalu, Distrik Mariat, Kabupaten Sorong",PAPUA BARAT,98415.0,Indonesia,,-1.0117963,131.3423467,https://maps.google.com/?cid=0x0:0x66ec797a0a90fe6f
housing complex,Komplek perumahan,Home oL.Maz Har,"X8PF+J5J, Jl. Melati, Maklalut, Distrik Mariat, Kabupaten Sorong, Papua Bar. 98415","Jl. Melati, Maklalut, Distrik Mariat, Kabupaten Sorong",PAPUA BARAT,98415.0,Indonesia,,-1.0113848,131.3229513,https://maps.google.com/?cid=0x0:0x6cac4877ac77d9ef
housing complex,housing complex,Ayu wirani home,"Jl. Raflesia No.Sp 2, Klasuluk, Distrik Mariat, Kabupaten Sorong, Papua Bar. 98415","Klasuluk, Distrik Mariat, Kabupaten Sorong",PAPUA BARAT,98415.0,Indonesia,,-1.0063514,131.3159224,https://maps.google.com/?cid=0x0:0x4a0c6ec5dc70e657
housing complex,housing complex,Petani happy,"X8X8+Q8G, Klasuluk, Distrik Mariat, Kabupaten Sorong, Papua Bar. 98415","Klasuluk, Distrik Mariat, Kabupaten Sorong",PAPUA BARAT,98415.0,Indonesia,,-1.0006833,131.3159088,https://maps.google.com/?cid=0x0:0x21d8b79e6df9aaa8
housing complex,Komplek perumahan,TAQIHOME,"2973+M5P, Klamasen, Distrik Mariat, Kabupaten Sorong, Papua Bar.","Kabupaten Sorong, Papua Bar.",PAPUA BARAT,,Indonesia,,-0.9857978,131.3529639,https://maps.google.com/?cid=0x0:0xe8a0f5ea95292371
housing complex,housing complex,Papua Bar. 98417,"Kabupaten Sorong, Papua Bar.","Kabupaten Sorong, Papua Bar.",PAPUA BARAT,,Indonesia,,-1.0174852,131.4112125,https://maps.google.com/?cid=0x0:0xc20f17b25d0eed85
housing complex,Komplek perumahan,H.Manise,"XC5C+89C, Klaben, Distrik Mariat, Kabupaten Sorong, Papua Bar.","Kabupaten Sorong, Papua Bar.",PAPUA BARAT,,Indonesia,,-1.0416903,131.4209053,https://maps.google.com/?cid=0x0:0xc5f87ed88625c356
housing complex,Penginapan,Perumahan Aqwa Residence No. 8,"38MJ+HG5, Klamana, Distrik Sorong Timur, Kota Sorong, Papua Bar. 98416","Klamana, Distrik Sorong Timur, Kota Sorong",PAPUA BARAT,98416.0,Indonesia,,-0.9156182,131.3312909,https://maps.google.com/?cid=0x0:0x6db490a8a3ed2750
housing complex,Komplek perumahan,Mulyani,"W9RM+MXR, Klaben, Distrik Mariat, Kabupaten Sorong, Papua Bar.","Kabupaten Sorong, Papua Bar.",PAPUA BARAT,,Indonesia,,-1.0582718,131.3848818,https://maps.google.com/?cid=0x0:0x743134f0f05028a6
housing complex,Penginapan,AQWA D' WARMASEN,"Jl. Warmasen No.km. 13, Klamana, Distrik Sorong Timur, Kota Sorong, Papua Bar. 98416","Klamana, Distrik Sorong Timur, Kota Sorong",PAPUA BARAT,98416.0,Indonesia,,-0.9164321,131.3271369,https://maps.google.com/?cid=0x0:0x230398eb29e953eb
housing complex,Pembangunan Perumahan,Kompleks aifat,"X9XP+2R, Aimas, Kec. Aimas, Kabupaten Sorong, Papua Bar.","Kabupaten Sorong, Papua Bar.",PAPUA BARAT,,Indonesia,,-1.0024503,131.3870571,https://maps.google.com/?cid=0x0:0x7e6069b72046e42a
housing complex,Komplek perumahan,Perumahan Aqwa Permai Residence II,"38PC+GJX, Klamana, Distrik Sorong Timur, Kota Sorong, Papua Bar. 98416","Klamana, Distrik Sorong Timur, Kota Sorong",PAPUA BARAT,98416.0,Indonesia,,-0.9136431,131.3216024,https://maps.google.com/?cid=0x0:0x69be66f3d7ee55d6
housing complex,Komplek perumahan,AIMAS REGENCI,"X9WQ+XMQ, Aimas, Kec. Aimas, Kabupaten Sorong, Papua Bar. 98415","Aimas, Kec. Aimas, Kabupaten Sorong",PAPUA BARAT,98415.0,Indonesia,,-1.0025481,131.3892239,https://maps.google.com/?cid=0x0:0xc4b0ed1cad52ee56
housing complex,,Tanah pak pasaribu,"X9CX+F5, Klaben, Distrik Mariat, Kabupaten Sorong, Papua Bar. 98417","Klaben, Distrik Mariat, Kabupaten Sorong",PAPUA BARAT,98417.0,Indonesia,,-1.0287888,131.3978751,https://maps.google.com/?cid=0x0:0x86cdf88ffb626b1e
housing complex,Komplek perumahan,Negara Perempuan Bisi,"XCH5+C9R, Mariat Gn., Kec. Aimas, Kabupaten Sorong, Papua Bar.","Kabupaten Sorong, Papua Bar.",PAPUA BARAT,,Indonesia,,-1.0214016,131.4084214,https://maps.google.com/?cid=0x0:0x670b5ae4b88e8cee
housing complex,Pembangunan Perumahan,Perumahan Bumi Sakinah Permai V,"Perumahan Bumi Sakinah Permai V No.KM 13, RW.5, Klamana, Distrik Sorong Timur, Kota Sorong, Papua Bar.","Kota Sorong, Papua Bar.",PAPUA BARAT,,Indonesia,,-0.9137456,131.3281218,https://maps.google.com/?cid=0x0:0x34ab101da2572152
housing complex,housing complex,Lokadi 2 mariat gunung,"XCR3+62, Klaben, Distrik Mariat, Kabupaten Sorong, Papua Bar.","Kabupaten Sorong, Papua Bar.",PAPUA BARAT,,Indonesia,,-1.0094375,131.4025625,https://maps.google.com/?cid=0x0:0x19b7d21baa30d19
housing complex,housing complex,Perumahan KPR,"Jl. Celebes No.37, Klamana, Distrik Sorong Timur, Kota Sorong, Papua Bar. 98419","Klamana, Distrik Sorong Timur, Kota Sorong",PAPUA BARAT,98419.0,Indonesia,,-0.9150189,131.3221006,https://maps.google.com/?cid=0x0:0x3e3b54edc7bb4b38
housing complex,Komplek perumahan,Aqwa Mulia Residence,"38MH+X59, Jl. Kokas, Klamana, Distrik Sorong Timur, Kota Sorong, Papua Bar. 98416","Jl. Kokas, Klamana, Distrik Sorong Timur, Kota Sorong",PAPUA BARAT,98416.0,Indonesia,,-0.9150938,131.3279049,https://maps.google.com/?cid=0x0:0xa06f89b1b0619757
housing complex,housing complex,Papua Bar. 98418,"Klasabi, Kecamatan Sorong Manoi, Kota Sorong, Papua Bar.","Kota Sorong, Papua Bar.",PAPUA BARAT,,Indonesia,,-0.9009162,131.3028579,https://maps.google.com/?cid=0x0:0x586b4aa754f22adb
housing complex,Apartemen sewa liburan,Perumahan residence,"Q2, Jl. Tanjung Medan, Malaingkedi, Kec. Sorong Utara, Kota Sorong, Papua Bar. 98412","Jl. Tanjung Medan, Malaingkedi, Kec. Sorong Utara, Kota Sorong",PAPUA BARAT,98412.0,Indonesia,,-0.888833,131.2948243,https://maps.google.com/?cid=0x0:0x9766ab086a7f50df
housing complex,Pembangunan Perumahan,KPR VICTORY PERMATA RESIDEN,"4822+2HC, Jl. Sejahtera, Klasabi, Kecamatan Sorong Manoi, Kota Sorong, Papua Bar. 98412","Jl. Sejahtera, Klasabi, Kecamatan Sorong Manoi, Kota Sorong",PAPUA BARAT,98412.0,Indonesia,,-0.8999279,131.3013974,https://maps.google.com/?cid=0x0:0x5f2ae693d4a518bc
housing complex,Komplek perumahan,DelisApril Home,"38X3+Q77, Jl. Aries Victory, Klasabi, Kecamatan Sorong Manoi, Kota Sorong, Papua Bar.","Kota Sorong, Papua Bar.",PAPUA BARAT,,Indonesia,,-0.9005868,131.3031674,https://maps.google.com/?cid=0x0:0x8b1bd241296c23e7
housing complex,Komplek perumahan,Rahman's House,"38X3+F37, Jl. Aries Victory, Klasabi, Kecamatan Sorong Manoi, Kota Sorong, Papua Bar. 98412","Jl. Aries Victory, Klasabi, Kecamatan Sorong Manoi, Kota Sorong",PAPUA BARAT,98412.0,Indonesia,,-0.9012175,131.3022118,https://maps.google.com/?cid=0x0:0x3447c0a9a0ed5ea8
housing complex,Perumahan,Kel.Niweray,"38X3+P7Q, Jl. Victoria, Klasabi, Kecamatan Sorong Manoi, Kota Sorong, Papua Bar. 98412","Jl. Victoria, Klasabi, Kecamatan Sorong Manoi, Kota Sorong",PAPUA BARAT,98412.0,Indonesia,,-0.9006783,131.3031929,https://maps.google.com/?cid=0x0:0xa381d1f2a9fcf25f
housing complex,Perumahan,Perumahan Grand Efata Malibela,"Jl. Malibela, Klawalu, Kecamatan Sorong Manoi, Kota Sorong, Papua Bar. 98413","Klawalu, Kecamatan Sorong Manoi, Kota Sorong",PAPUA BARAT,98413.0,Indonesia,82268235322.0,-0.90423,131.3118479,https://maps.google.com/?cid=0x0:0x600613eae3023432
housing complex,Penginapan,AQWA D' WARMASEN,"Jl. Warmasen No.km. 13, Klamana, Distrik Sorong Timur, Kota Sorong, Papua Bar. 98416","Klamana, Distrik Sorong Timur, Kota Sorong",PAPUA BARAT,98416.0,Indonesia,,-0.9164321,131.3271369,https://maps.google.com/?cid=0x0:0x230398eb29e953eb
housing complex,Komplek perumahan,Perumahan jupiter,"nomor 3, Jl. Sungai Maruni No.km 10 blok b2","Kota Sorong, Papua Bar.",PAPUA BARAT,,Indonesia,,-0.8871871,131.3215211,https://maps.google.com/?cid=0x0:0x121e521340c347d3
housing complex,Komplek perumahan,Perumahan Aqwa Permai Residence II,"38PC+GJX, Klamana, Distrik Sorong Timur, Kota Sorong, Papua Bar. 98416","Klamana, Distrik Sorong Timur, Kota Sorong",PAPUA BARAT,98416.0,Indonesia,,-0.9136431,131.3216024,https://maps.google.com/?cid=0x0:0x69be66f3d7ee55d6
housing complex,Komplek perumahan,Deisy's land,"38X2+WVJ, Jl. Aries Victory Gg. 1, Klasabi, Kecamatan Sorong Manoi, Kota Sorong, Papua Bar. 98412","Jl. Aries Victory Gg. 1, Klasabi, Kecamatan Sorong Manoi, Kota Sorong",PAPUA BARAT,98412.0,Indonesia,,-0.9001945,131.3020156,https://maps.google.com/?cid=0x0:0x9927cf25751ede9b
housing complex,Komplek perumahan,Rumah pak Sangadji,"38X2+PR7, Jl. Sejahtera, Klasabi, Distrik Sorong Timur, Kota Sorong, Papua Bar. 98412","Jl. Sejahtera, Klasabi, Distrik Sorong Timur, Kota Sorong",PAPUA BARAT,98412.0,Indonesia,,-0.9007144,131.3020351,https://maps.google.com/?cid=0x0:0x9cf807f418931ba0
housing complex,Komplek perumahan,Aqwa Mulia Residence,"38MH+X59, Jl. Kokas, Klamana, Distrik Sorong Timur, Kota Sorong, Papua Bar. 98416","Jl. Kokas, Klamana, Distrik Sorong Timur, Kota Sorong",PAPUA BARAT,98416.0,Indonesia,,-0.9150938,131.3279049,https://maps.google.com/?cid=0x0:0xa06f89b1b0619757
housing complex,Pembangunan Perumahan,Perumahan Bumi Sakinah Permai V,"Perumahan Bumi Sakinah Permai V No.KM 13, RW.5, Klamana, Distrik Sorong Timur, Kota Sorong, Papua Bar.","Kota Sorong, Papua Bar.",PAPUA BARAT,,Indonesia,,-0.9137456,131.3281218,https://maps.google.com/?cid=0x0:0x34ab101da2572152
housing complex,housing complex,Papua Bar. 98419,"Kabupaten Sorong, Papua Bar.","Kabupaten Sorong, Papua Bar.",PAPUA BARAT,,Indonesia,,-0.9516965,131.4612677,https://maps.google.com/?cid=0x0:0x1846ff160c020f5b
housing complex,Komplek perumahan,Metal home,"2C9C+GFH, Maibo, Kec. Aimas, Kabupaten Sorong, Papua Bar. 98419","Maibo, Kec. Aimas, Kabupaten Sorong",PAPUA BARAT,98419.0,Indonesia,,-0.9811757,131.4212272,https://maps.google.com/?cid=0x0:0x9335126f1c9d2627
housing complex,housing complex,"KOMPLEKS FANBERS, KELURAHAN KLASUAT","29XC+JWQ, Klasaman, Distrik Sorong Timur, Kota Sorong, Papua Bar. 98414","Klasaman, Distrik Sorong Timur, Kota Sorong",PAPUA BARAT,98414.0,Indonesia,,-0.9509029,131.3723517,https://maps.google.com/?cid=0x0:0x7b6dcbbba678da7b
housing complex,Pembangunan Perumahan,Kampung kabanmolo,"2CR4+FXC, Maibo, Kec. Aimas, Kabupaten Sorong, Papua Bar. 98419","Maibo, Kec. Aimas, Kabupaten Sorong",PAPUA BARAT,98419.0,Indonesia,,-0.9588132,131.4073849,https://maps.google.com/?cid=0x0:0x1db585f011db3e7d
housing complex,housing complex,Perumahan KPR,"Jl. Celebes No.37, Klamana, Distrik Sorong Timur, Kota Sorong, Papua Bar. 98419","Klamana, Distrik Sorong Timur, Kota Sorong",PAPUA BARAT,98419.0,Indonesia,,-0.9150189,131.3221006,https://maps.google.com/?cid=0x0:0x3e3b54edc7bb4b38
housing complex,Perumahan,Official Daeng,"2977+V9F, Aimas, Kec. Aimas, Kabupaten Sorong, Papua Bar. 98415","Aimas, Kec. Aimas, Kabupaten Sorong",PAPUA BARAT,98415.0,Indonesia,,-0.9853012,131.3641862,https://maps.google.com/?cid=0x0:0x3c1741bbb1b48d67
housing complex,Otoritas Perumahan,INTI RESIDENCE,"29CC+6X, Aimas, Kec. Aimas, Kabupaten Sorong, Papua Bar. 98414","Aimas, Kec. Aimas, Kabupaten Sorong",PAPUA BARAT,98414.0,Indonesia,,-0.9794957,131.3724273,https://maps.google.com/?cid=0x0:0xca7cf57b5d711e4a
housing complex,Komplek perumahan,Rumah Theo Kalami,"29F9+222, Aimas, Kec. Aimas, Kabupaten Sorong, Papua Bar.","Kabupaten Sorong, Papua Bar.",PAPUA BARAT,,Indonesia,,-0.977488,131.3675179,https://maps.google.com/?cid=0x0:0xba309c2aefb40b2f
housing complex,Perhimpunan Pengembang Perumahan,REY HOME,"29XW+GX, Klasuat, Distrik Sorong Timur, Kota Sorong, Papua Bar.","Kota Sorong, Papua Bar.",PAPUA BARAT,,Indonesia,,-0.951167,131.397461,https://maps.google.com/?cid=0x0:0x3cfa0d03ebc13680
housing complex,housing complex,KOMPLEKS KLASUAT,"29XC+JQ6, Kelurahan KLASUAT, Distrik Klaurung, Kota Sorong, Papua Bar.","Kota Sorong, Papua Bar.",PAPUA BARAT,,Indonesia,,-0.950956,131.3718768,https://maps.google.com/?cid=0x0:0xe039cd418885109a
housing complex,Perumahan,KPR AIMO RESIDENT,"295C+XW8, Jl. Klamono - Kambuaya, Klamasen, Distrik Mariat, Kabupaten Sorong, Papua Bar. 98415","Jl. Klamono - Kambuaya, Klamasen, Distrik Mariat, Kabupaten Sorong",PAPUA BARAT,98415.0,Indonesia,,-0.9900768,131.3723435,https://maps.google.com/?cid=0x0:0xb8ba967e23c9ace0
housing complex,housing complex,Mama Anis,"2CR4+FXC, Maibo, Kec. Aimas, Kabupaten Sorong, Papua Bar. 98419","Maibo, Kec. Aimas, Kabupaten Sorong",PAPUA BARAT,98419.0,Indonesia,,-0.9580029,131.4066117,https://maps.google.com/?cid=0x0:0xb45a8c65dc5b4b11
housing complex,Komplek perumahan,Pither kambuaya,"392C+3H, Klasaman, Distrik Sorong Timur, Kota Sorong, Papua Bar.","Kota Sorong, Papua Bar.",PAPUA BARAT,,Indonesia,,-0.949855,131.371473,https://maps.google.com/?cid=0x0:0x57fab726c402e994
housing complex,Komplek perumahan,Perlu di cek,"29GC+4F6, Aimas, Kec. Aimas, Kabupaten Sorong, Papua Bar.","Kabupaten Sorong, Papua Bar.",PAPUA BARAT,,Indonesia,,-0.9747009,131.3711358,https://maps.google.com/?cid=0x0:0x4d6160effe6aeb6c
housing complex,housing complex,Kecamatan Sorong Manoi,"Kota Sorong, Papua Bar.","Kota Sorong, Papua Bar.",PAPUA BARAT,,Indonesia,,-0.8875965,131.2870369,https://maps.google.com/?cid=0x0:0xeae8019c83ed0741
housing complex,Apartemen sewa liburan,Perumahan residence,"Q2, Jl. Tanjung Medan, Malaingkedi, Kec. Sorong Utara, Kota Sorong, Papua Bar. 98412","Jl. Tanjung Medan, Malaingkedi, Kec. Sorong Utara, Kota Sorong",PAPUA BARAT,98412.0,Indonesia,,-0.888833,131.2948243,https://maps.google.com/?cid=0x0:0x9766ab086a7f50df
housing complex,housing complex,Keluarga Pomeo,"476M+679, Lrg. 1, Remu Sel., Kecamatan Sorong Manoi, Kota Sorong, Papua Bar. 98412","Lrg. 1, Remu Sel., Kecamatan Sorong Manoi, Kota Sorong",PAPUA BARAT,98412.0,Indonesia,,-0.8887686,131.2834822,https://maps.google.com/?cid=0x0:0x9961a8042799a83
housing complex,housing complex,NabilaSweet Home,"476M+449, Jl. Mandiri, Remu Sel., Kecamatan Sorong Manoi, Kota Sorong, Papua Bar. 98412","Jl. Mandiri, Remu Sel., Kecamatan Sorong Manoi, Kota Sorong",PAPUA BARAT,98412.0,Indonesia,,-0.8897194,131.282864,https://maps.google.com/?cid=0x0:0xb2cb601de5cdfc48
housing complex,Komplek perumahan,AKOM ,"Jl. Selat Yapen, Malawei, Distrik Sorong, Kota Sorong, Papua Bar. 98412","Malawei, Distrik Sorong, Kota Sorong",PAPUA BARAT,98412.0,Indonesia,,-0.8892322,131.2819935,https://maps.google.com/?cid=0x0:0x2f494bde069031f
housing complex,Komplek perumahan,TRANSITO,"477Q+2VF, Jl. Selat Morotai, Remu Sel., Kecamatan Sorong Manoi, Kota Sorong, Papua Bar. 98412","Jl. Selat Morotai, Remu Sel., Kecamatan Sorong Manoi, Kota Sorong",PAPUA BARAT,98412.0,Indonesia,,-0.8874109,131.2896388,https://maps.google.com/?cid=0x0:0x3ae70d61d985723c
housing complex,housing complex,Kosan om bun,"477M+R84, Lorong Obadiri, Remu Sel., Kecamatan Sorong Manoi, Kota Sorong, Papua Bar. 98412","Lorong Obadiri, Remu Sel., Kecamatan Sorong Manoi, Kota Sorong",PAPUA BARAT,98412.0,Indonesia,,-0.8854816,131.2833424,https://maps.google.com/?cid=0x0:0x180ff4078f94f7d8
housing complex,Komplek perumahan,Apner Bless/Ursula Maker,"477H+WX6, Malabutor, Kecamatan Sorong Manoi, Kota Sorong, Papua Bar. 98412","Malabutor, Kecamatan Sorong Manoi, Kota Sorong",PAPUA BARAT,98412.0,Indonesia,,-0.8855658,131.2804349,https://maps.google.com/?cid=0x0:0xe1a497200b9fe52f
housing complex,Perhimpunan Pengembang Perumahan,KOMPLEX UKA,"47J3+JM9, Jl. Pulau Kasim, Puncak Jl. Cendrawasih, Distrik Sorong Barat, Kota Sorong, Papua Bar. 98411","Jl. Pulau Kasim, Puncak Jl. Cendrawasih, Distrik Sorong Barat, Kota Sorong",PAPUA BARAT,98411.0,Indonesia,,-0.8809833,131.2827093,https://maps.google.com/?cid=0x0:0x46e130d79ff184c2
housing complex,Komplek perumahan,Mess 2 BPTD Kelas II Papua Barat,"Jl. Ahmad Yani belakang gunung agung No.51, Malabutor, Kecamatan Sorong Manoi, Kota Sorong, Papua Bar. 98415","Malabutor, Kecamatan Sorong Manoi, Kota Sorong",PAPUA BARAT,98415.0,Indonesia,,-0.8836378,131.2806468,https://maps.google.com/?cid=0x0:0x24487a6197731198
housing complex,Komplek perumahan,Kosan depan kampus,"Jl. Pendidikan gang 4 No.4 km 8, Malaingkedi, Kec. Sorong Utara, Kota Sorong, Papua Bar. 98412","Malaingkedi, Kec. Sorong Utara, Kota Sorong",PAPUA BARAT,98412.0,Indonesia,,-0.8881948,131.295144,https://maps.google.com/?cid=0x0:0x1a6af53b02d56e15
housing complex,Komplek perumahan,APK AKOM,"478M+F9V, Lorong Obadiri, Remu Sel., Kecamatan Sorong Manoi, Kota Sorong, Papua Bar. 98412","Lorong Obadiri, Remu Sel., Kecamatan Sorong Manoi, Kota Sorong",PAPUA BARAT,98412.0,Indonesia,,-0.8837575,131.2834118,https://maps.google.com/?cid=0x0:0xc0215ba48019a696
housing complex,Pembangunan Perumahan,Hiroyuki vegetable,"Jl. Selat Sagawin No.03, Remu Sel., Kecamatan Sorong Manoi, Kota Sorong, Papua Bar. 98412","Remu Sel., Kecamatan Sorong Manoi, Kota Sorong",PAPUA BARAT,98412.0,Indonesia,81343135148.0,-0.8876418,131.2871929,https://maps.google.com/?cid=0x0:0x6c251b41da21144f
housing complex,Komplek perumahan,Rumah Dzulfani.Ms,"476J+JR4, Jl. Selat Yapen, Malawei, Distrik Sorong, Kota Sorong, Papua Bar. 98412","Jl. Selat Yapen, Malawei, Distrik Sorong, Kota Sorong",PAPUA BARAT,98412.0,Indonesia,,-0.8886007,131.2821022,https://maps.google.com/?cid=0x0:0xb6a4f70af4379a7b
housing complex,housing complex,Kecamatan Sorong Manoi,"Kota Sorong, Papua Bar.","Kota Sorong, Papua Bar.",PAPUA BARAT,,Indonesia,,-0.8875965,131.2870369,https://maps.google.com/?cid=0x0:0xeae8019c83ed0741
housing complex,housing complex,Keluarga Pomeo,"476M+679, Lrg. 1, Remu Sel., Kecamatan Sorong Manoi, Kota Sorong, Papua Bar. 98412","Lrg. 1, Remu Sel., Kecamatan Sorong Manoi, Kota Sorong",PAPUA BARAT,98412.0,Indonesia,,-0.8887686,131.2834822,https://maps.google.com/?cid=0x0:0x9961a8042799a83
housing complex,Komplek perumahan,AKOM ,"Jl. Selat Yapen, Malawei, Distrik Sorong, Kota Sorong, Papua Bar. 98412","Malawei, Distrik Sorong, Kota Sorong",PAPUA BARAT,98412.0,Indonesia,,-0.8892322,131.2819935,https://maps.google.com/?cid=0x0:0x2f494bde069031f
housing complex,Apartemen sewa liburan,Perumahan residence,"Q2, Jl. Tanjung Medan, Malaingkedi, Kec. Sorong Utara, Kota Sorong, Papua Bar. 98412","Jl. Tanjung Medan, Malaingkedi, Kec. Sorong Utara, Kota Sorong",PAPUA BARAT,98412.0,Indonesia,,-0.888833,131.2948243,https://maps.google.com/?cid=0x0:0x9766ab086a7f50df
housing complex,Komplek perumahan,Mess 2 BPTD Kelas II Papua Barat,"Jl. Ahmad Yani belakang gunung agung No.51, Malabutor, Kecamatan Sorong Manoi, Kota Sorong, Papua Bar. 98415","Malabutor, Kecamatan Sorong Manoi, Kota Sorong",PAPUA BARAT,98415.0,Indonesia,,-0.8836378,131.2806468,https://maps.google.com/?cid=0x0:0x24487a6197731198
housing complex,housing complex,Keluarga S.Fadirubun,"478X+238, Malaingkedi, Kecamatan Sorong Manoi, Kota Sorong, Papua Bar. 98412","Malaingkedi, Kecamatan Sorong Manoi, Kota Sorong",PAPUA BARAT,98412.0,Indonesia,,-0.8849647,131.2977013,https://maps.google.com/?cid=0x0:0x3782426c56148567
housing complex,housing complex,NabilaSweet Home,"476M+449, Jl. Mandiri, Remu Sel., Kecamatan Sorong Manoi, Kota Sorong, Papua Bar. 98412","Jl. Mandiri, Remu Sel., Kecamatan Sorong Manoi, Kota Sorong",PAPUA BARAT,98412.0,Indonesia,,-0.8897194,131.282864,https://maps.google.com/?cid=0x0:0xb2cb601de5cdfc48
housing complex,Komplek perumahan,TRANSITO,"477Q+2VF, Jl. Selat Morotai, Remu Sel., Kecamatan Sorong Manoi, Kota Sorong, Papua Bar. 98412","Jl. Selat Morotai, Remu Sel., Kecamatan Sorong Manoi, Kota Sorong",PAPUA BARAT,98412.0,Indonesia,,-0.8874109,131.2896388,https://maps.google.com/?cid=0x0:0x3ae70d61d985723c
housing complex,housing complex,Kosan om bun,"477M+R84, Lorong Obadiri, Remu Sel., Kecamatan Sorong Manoi, Kota Sorong, Papua Bar. 98412","Lorong Obadiri, Remu Sel., Kecamatan Sorong Manoi, Kota Sorong",PAPUA BARAT,98412.0,Indonesia,,-0.8854816,131.2833424,https://maps.google.com/?cid=0x0:0x180ff4078f94f7d8
housing complex,Komplek perumahan,APK AKOM,"478M+F9V, Lorong Obadiri, Remu Sel., Kecamatan Sorong Manoi, Kota Sorong, Papua Bar. 98412","Lorong Obadiri, Remu Sel., Kecamatan Sorong Manoi, Kota Sorong",PAPUA BARAT,98412.0,Indonesia,,-0.8837575,131.2834118,https://maps.google.com/?cid=0x0:0xc0215ba48019a696
housing complex,Komplek perumahan,Apner Bless/Ursula Maker,"477H+WX6, Malabutor, Kecamatan Sorong Manoi, Kota Sorong, Papua Bar. 98412","Malabutor, Kecamatan Sorong Manoi, Kota Sorong",PAPUA BARAT,98412.0,Indonesia,,-0.8855658,131.2804349,https://maps.google.com/?cid=0x0:0xe1a497200b9fe52f
housing complex,Komplek perumahan,Imanona Residence,"Jalan layang, belakang, Jl. Pahlawan samping kanan No.1, Remu Utara, Distrik Sorong","Kota Sorong, Papua Bar.",PAPUA BARAT,,Indonesia,81383767720.0,-0.8809833,131.2827093,https://maps.google.com/?cid=0x0:0x14b766d70de79af1
housing complex,Komplek perumahan,K.N.P,"476C+8H8, Jl. Ferry, Malawei, Kecamatan Sorong Manoi, Kota Sorong, Papua Bar.","Kota Sorong, Papua Bar.",PAPUA BARAT,,Indonesia,,-0.8892155,131.2714636,https://maps.google.com/?cid=0x0:0x7f00bbb78e6624a4
housing complex,Komplek perumahan,Kosan depan kampus,"Jl. Pendidikan gang 4 No.4 km 8, Malaingkedi, Kec. Sorong Utara, Kota Sorong, Papua Bar. 98412","Malaingkedi, Kec. Sorong Utara, Kota Sorong",PAPUA BARAT,98412.0,Indonesia,,-0.8881948,131.295144,https://maps.google.com/?cid=0x0:0x1a6af53b02d56e15
housing complex,housing complex,Kecamatan Sorong Manoi,"Kota Sorong, Papua Bar.","Kota Sorong, Papua Bar.",PAPUA BARAT,,Indonesia,,-0.8875965,131.2870369,https://maps.google.com/?cid=0x0:0xeae8019c83ed0741
housing complex,Komplek perumahan,Mess 2 BPTD Kelas II Papua Barat,"Jl. Ahmad Yani belakang gunung agung No.51, Malabutor, Kecamatan Sorong Manoi, Kota Sorong, Papua Bar. 98415","Malabutor, Kecamatan Sorong Manoi, Kota Sorong",PAPUA BARAT,98415.0,Indonesia,,-0.8836378,131.2806468,https://maps.google.com/?cid=0x0:0x24487a6197731198
housing complex,housing complex,NabilaSweet Home,"476M+449, Jl. Mandiri, Remu Sel., Kecamatan Sorong Manoi, Kota Sorong, Papua Bar. 98412","Jl. Mandiri, Remu Sel., Kecamatan Sorong Manoi, Kota Sorong",PAPUA BARAT,98412.0,Indonesia,,-0.8897194,131.282864,https://maps.google.com/?cid=0x0:0xb2cb601de5cdfc48
housing complex,Komplek perumahan,TRANSITO,"477Q+2VF, Jl. Selat Morotai, Remu Sel., Kecamatan Sorong Manoi, Kota Sorong, Papua Bar. 98412","Jl. Selat Morotai, Remu Sel., Kecamatan Sorong Manoi, Kota Sorong",PAPUA BARAT,98412.0,Indonesia,,-0.8874109,131.2896388,https://maps.google.com/?cid=0x0:0x3ae70d61d985723c
housing complex,housing complex,Keluarga Pomeo,"476M+679, Lrg. 1, Remu Sel., Kecamatan Sorong Manoi, Kota Sorong, Papua Bar. 98412","Lrg. 1, Remu Sel., Kecamatan Sorong Manoi, Kota Sorong",PAPUA BARAT,98412.0,Indonesia,,-0.8887686,131.2834822,https://maps.google.com/?cid=0x0:0x9961a8042799a83
housing complex,Komplek perumahan,AKOM ,"Jl. Selat Yapen, Malawei, Distrik Sorong, Kota Sorong, Papua Bar. 98412","Malawei, Distrik Sorong, Kota Sorong",PAPUA BARAT,98412.0,Indonesia,,-0.8892322,131.2819935,https://maps.google.com/?cid=0x0:0x2f494bde069031f
housing complex,housing complex,Kosan om bun,"477M+R84, Lorong Obadiri, Remu Sel., Kecamatan Sorong Manoi, Kota Sorong, Papua Bar. 98412","Lorong Obadiri, Remu Sel., Kecamatan Sorong Manoi, Kota Sorong",PAPUA BARAT,98412.0,Indonesia,,-0.8854816,131.2833424,https://maps.google.com/?cid=0x0:0x180ff4078f94f7d8
housing complex,Komplek perumahan,K.N.P,"476C+8H8, Jl. Ferry, Malawei, Kecamatan Sorong Manoi, Kota Sorong, Papua Bar.","Kota Sorong, Papua Bar.",PAPUA BARAT,,Indonesia,,-0.8892155,131.2714636,https://maps.google.com/?cid=0x0:0x7f00bbb78e6624a4
housing complex,Apartemen sewa liburan,Perumahan residence,"Q2, Jl. Tanjung Medan, Malaingkedi, Kec. Sorong Utara, Kota Sorong, Papua Bar. 98412","Jl. Tanjung Medan, Malaingkedi, Kec. Sorong Utara, Kota Sorong",PAPUA BARAT,98412.0,Indonesia,,-0.888833,131.2948243,https://maps.google.com/?cid=0x0:0x9766ab086a7f50df
housing complex,Komplek perumahan,Kosan depan kampus,"Jl. Pendidikan gang 4 No.4 km 8, Malaingkedi, Kec. Sorong Utara, Kota Sorong, Papua Bar. 98412","Malaingkedi, Kec. Sorong Utara, Kota Sorong",PAPUA BARAT,98412.0,Indonesia,,-0.8881948,131.295144,https://maps.google.com/?cid=0x0:0x1a6af53b02d56e15
housing complex,Komplek perumahan,"Rumah Rahmat Nasari, S.Pd","Jl. Selat Yapen, Malabutor, Kecamatan Sorong Manoi, Kota Sorong, Papua Bar. 98412","Malabutor, Kecamatan Sorong Manoi, Kota Sorong",PAPUA BARAT,98412.0,Indonesia,,-0.8890394,131.2822516,https://maps.google.com/?cid=0x0:0x7d95388fa88d35eb
housing complex,Komplek perumahan,Apner Bless/Ursula Maker,"477H+WX6, Malabutor, Kecamatan Sorong Manoi, Kota Sorong, Papua Bar. 98412","Malabutor, Kecamatan Sorong Manoi, Kota Sorong",PAPUA BARAT,98412.0,Indonesia,,-0.8855658,131.2804349,https://maps.google.com/?cid=0x0:0xe1a497200b9fe52f
housing complex,housing complex,RUMAH JABATAN ASPOTMAR DANLANTAMAL XIV,"476H+GQC, Malawei, Kecamatan Sorong Manoi, Kota Sorong, Papua Bar. 98412","Malawei, Kecamatan Sorong Manoi, Kota Sorong",PAPUA BARAT,98412.0,Indonesia,,-0.888692,131.2793889,https://maps.google.com/?cid=0x0:0x299601e7bff0cc47
housing complex,Komplek perumahan,APK AKOM,"478M+F9V, Lorong Obadiri, Remu Sel., Kecamatan Sorong Manoi, Kota Sorong, Papua Bar. 98412","Lorong Obadiri, Remu Sel., Kecamatan Sorong Manoi, Kota Sorong",PAPUA BARAT,98412.0,Indonesia,,-0.8837575,131.2834118,https://maps.google.com/?cid=0x0:0xc0215ba48019a696
housing complex,housing complex,Papua Bar. 98416,Papua Bar.,Papua Bar.,PAPUA BARAT,,Indonesia,,-0.8883325,131.3510866,https://maps.google.com/?cid=0x0:0x7d4c82915eeb19ce
housing complex,Komplek perumahan,KRES,"4889+4V6, Sawagumu, Kec. Sorong Utara, Kota Sorong, Papua Bar. 98416","Sawagumu, Kec. Sorong Utara, Kota Sorong",PAPUA BARAT,98416.0,Indonesia,81248117170.0,-0.8847033,131.3196485,https://maps.google.com/?cid=0x0:0x4670322558cd574e
housing complex,Perumahan,Perumahan PRIMAVERA,"4868+VMF, Sawagumu, Kec. Sorong Utara, Kota Sorong, Papua Bar. 98416","Sawagumu, Kec. Sorong Utara, Kota Sorong",PAPUA BARAT,98416.0,Indonesia,,-0.8878074,131.3166657,https://maps.google.com/?cid=0x0:0x2462e3a5b347c433
housing complex,Pembangunan Perumahan,Kompleks Way,"484M+WHP, Jalan, Matalamagi, Makbon, Sorong Regency, West Papua 98416","Jalan, Matalamagi, Makbon, Sorong Regency",PAPUA BARAT,98416.0,Indonesia,,-0.8926638,131.3339411,https://maps.google.com/?cid=0x0:0x80008afaea5a1df8
housing complex,Komplek perumahan,Kel. Wairata,"488M+W84, Jl. TPU, Matalamagi, Kec. Sorong Utara, Kota Sorong, Papua Bar. 98416","Jl. TPU, Matalamagi, Kec. Sorong Utara, Kota Sorong",PAPUA BARAT,98416.0,Indonesia,,-0.8836847,131.333125,https://maps.google.com/?cid=0x0:0x880a0b70e38fa433
housing complex,housing complex,,,,PAPUA BARAT,,Indonesia,,,,https://maps.google.com/?cid=0x0:0x858580bf84bb52b
housing complex,Area Mendaki,Pohon pinang kecil,"Jl. Suteja, Matalamagi, Kec. Sorong Utara, Kota Sorong, Papua Bar. 98416","Matalamagi, Kec. Sorong Utara, Kota Sorong",PAPUA BARAT,98416.0,Indonesia,,-0.8879236,131.3336198,https://maps.google.com/?cid=0x0:0xc61f60ebd048041c
housing complex,Pembangunan Perumahan,Perumahan KPR polisi KM 10,"487C+J53, jln malinda lorog 2, Jl. Kpr Polisi No.Km 10, Sawagumu, Kec. Sorong Utara, Kota Sorong, Papua Bar. 98416","jln malinda lorog 2, Jl. Kpr Polisi No.Km 10, Sawagumu, Kec. Sorong Utara, Kota Sorong",PAPUA BARAT,98416.0,Indonesia,,-0.8859939,131.3196924,https://maps.google.com/?cid=0x0:0x2f0551b37ba785f1
housing complex,housing complex,Kompleks batak,"489F+6P5, Sorong, Matalamagi, Kec. Sorong Utara, Kota Sorong, Papua Bar. 98416","Sorong, Matalamagi, Kec. Sorong Utara, Kota Sorong",PAPUA BARAT,98416.0,Indonesia,,-0.8819819,131.3243475,https://maps.google.com/?cid=0x0:0x8b641639b725372
housing complex,Komplek perumahan,Safe House,"KPR JMP, Jl. Sadewa VIII No.59, Klasaman, Sorong Timur, Sorong City, West Papua 98416","Jl. Sadewa VIII No.59, Klasaman, Sorong Timur, Sorong City",PAPUA BARAT,98416.0,Indonesia,,-0.9001407,131.3383656,https://maps.google.com/?cid=0x0:0x6c7ff6e8b0ae6e99
housing complex,Komplek perumahan,Romeesa's House,"487H+6GM, Jl. Bima, Matalamagi, Kec. Sorong Utara, Kota Sorong, Papua Bar. 98416","Jl. Bima, Matalamagi, Kec. Sorong Utara, Kota Sorong",PAPUA BARAT,98416.0,Indonesia,,-0.8869175,131.3288055,https://maps.google.com/?cid=0x0:0x234723a28f8fcfac
housing complex,Komplek perumahan,Rumah Dinas BMKG GAW SORONG,"Jl. Santer, Matalamagi, Kec. Sorong Utara, Kota Sorong, Papua Bar. 98416","Matalamagi, Kec. Sorong Utara, Kota Sorong",PAPUA BARAT,98416.0,Indonesia,9513138217.0,-0.8866282,131.3281526,https://maps.google.com/?cid=0x0:0x5e5c933e5a21299e
housing complex,Komplek perumahan,W-You,"487H+6CC, Jl. Bima 08, Matalamagi, Kec. Sorong Utara, Kota Sorong, Papua Bar. 98416","Jl. Bima 08, Matalamagi, Kec. Sorong Utara, Kota Sorong",PAPUA BARAT,98416.0,Indonesia,,-0.8869378,131.32854,https://maps.google.com/?cid=0x0:0xe8f217dd084b9c3e
housing complex,housing complex,CNG AS LIFE KOTA SOQ,"485Q+8WM, Jl. Sorong - Makbon, Giwu, Distrik Sorong Timur, Kota Sorong, Papua Bar. 98416","Jl. Sorong - Makbon, Giwu, Distrik Sorong Timur, Kota Sorong",PAPUA BARAT,98416.0,Indonesia,,-0.8917361,131.3396978,https://maps.google.com/?cid=0x0:0xb3dcda3b94518968
housing complex,housing complex,Papua Bar. 98419,"Kabupaten Sorong, Papua Bar.","Kabupaten Sorong, Papua Bar.",PAPUA BARAT,,Indonesia,,-0.9516965,131.4612677,https://maps.google.com/?cid=0x0:0x1846ff160c020f5b
housing complex,Pembangunan Perumahan,Kampung kabanmolo,"2CR4+FXC, Maibo, Kec. Aimas, Kabupaten Sorong, Papua Bar. 98419","Maibo, Kec. Aimas, Kabupaten Sorong",PAPUA BARAT,98419.0,Indonesia,,-0.9588132,131.4073849,https://maps.google.com/?cid=0x0:0x1db585f011db3e7d
housing complex,Komplek perumahan,Metal home,"2C9C+GFH, Maibo, Kec. Aimas, Kabupaten Sorong, Papua Bar. 98419","Maibo, Kec. Aimas, Kabupaten Sorong",PAPUA BARAT,98419.0,Indonesia,,-0.9811757,131.4212272,https://maps.google.com/?cid=0x0:0x9335126f1c9d2627
housing complex,housing complex,"KOMPLEKS FANBERS, KELURAHAN KLASUAT","29XC+JWQ, Klasaman, Distrik Sorong Timur, Kota Sorong, Papua Bar. 98414","Klasaman, Distrik Sorong Timur, Kota Sorong",PAPUA BARAT,98414.0,Indonesia,,-0.9509029,131.3723517,https://maps.google.com/?cid=0x0:0x7b6dcbbba678da7b
housing complex,housing complex,KOMPLEKS KLASUAT,"29XC+JQ6, Kelurahan KLASUAT, Distrik Klaurung, Kota Sorong, Papua Bar.","Kota Sorong, Papua Bar.",PAPUA BARAT,,Indonesia,,-0.950956,131.3718768,https://maps.google.com/?cid=0x0:0xe039cd418885109a
housing complex,Komplek perumahan,Perlu di cek,"29GC+4F6, Aimas, Kec. Aimas, Kabupaten Sorong, Papua Bar.","Kabupaten Sorong, Papua Bar.",PAPUA BARAT,,Indonesia,,-0.9747009,131.3711358,https://maps.google.com/?cid=0x0:0x4d6160effe6aeb6c
housing complex,Otoritas Perumahan,INTI RESIDENCE,"29CC+6X, Aimas, Kec. Aimas, Kabupaten Sorong, Papua Bar. 98414","Aimas, Kec. Aimas, Kabupaten Sorong",PAPUA BARAT,98414.0,Indonesia,,-0.9794957,131.3724273,https://maps.google.com/?cid=0x0:0xca7cf57b5d711e4a
housing complex,Komplek perumahan,Rumah Theo Kalami,"29F9+222, Aimas, Kec. Aimas, Kabupaten Sorong, Papua Bar.","Kabupaten Sorong, Papua Bar.",PAPUA BARAT,,Indonesia,,-0.977488,131.3675179,https://maps.google.com/?cid=0x0:0xba309c2aefb40b2f
housing complex,Penginapan,Perumahan Aqwa Residence No. 8,"38MJ+HG5, Klamana, Distrik Sorong Timur, Kota Sorong, Papua Bar. 98416","Klamana, Distrik Sorong Timur, Kota Sorong",PAPUA BARAT,98416.0,Indonesia,,-0.9156182,131.3312909,https://maps.google.com/?cid=0x0:0x6db490a8a3ed2750
housing complex,Komplek perumahan,Twentyfour City,"2987+5MG, Aimas, Kec. Aimas, Kabupaten Sorong, Papua Bar. 98415","Aimas, Kec. Aimas, Kabupaten Sorong",PAPUA BARAT,98415.0,Indonesia,,-0.984565,131.364209,https://maps.google.com/?cid=0x0:0xbde86ca7ff8af678
housing complex,housing complex,Mama Anis,"2CR4+FXC, Maibo, Kec. Aimas, Kabupaten Sorong, Papua Bar. 98419","Maibo, Kec. Aimas, Kabupaten Sorong",PAPUA BARAT,98419.0,Indonesia,,-0.9580029,131.4066117,https://maps.google.com/?cid=0x0:0xb45a8c65dc5b4b11
housing complex,Apartemen sewa liburan,Perumahan residence,"Q2, Jl. Tanjung Medan, Malaingkedi, Kec. Sorong Utara, Kota Sorong, Papua Bar. 98412","Jl. Tanjung Medan, Malaingkedi, Kec. Sorong Utara, Kota Sorong",PAPUA BARAT,98412.0,Indonesia,,-0.888833,131.2948243,https://maps.google.com/?cid=0x0:0x9766ab086a7f50df
housing complex,Komplek perumahan,Negara Perempuan Bisi,"XCH5+C9R, Mariat Gn., Kec. Aimas, Kabupaten Sorong, Papua Bar.","Kabupaten Sorong, Papua Bar.",PAPUA BARAT,,Indonesia,,-1.0214016,131.4084214,https://maps.google.com/?cid=0x0:0x670b5ae4b88e8cee
housing complex,Komplek perumahan,Pither kambuaya,"392C+3H, Klasaman, Distrik Sorong Timur, Kota Sorong, Papua Bar.","Kota Sorong, Papua Bar.",PAPUA BARAT,,Indonesia,,-0.949855,131.371473,https://maps.google.com/?cid=0x0:0x57fab726c402e994
