Category,Real Category,Business Name,Address,City,State,Postal Code,Country,Phone,Email,Website,Latitude,Longitude,Map Link,Details Link
building materials,Toko Bahan Bangunan,Toko Bangunan Dan Meubel SUMBER REJEKI,"XQ4X+624, Jl. Ratahan - Kotamobagu, Ponosakan Indah, Kec. Belang, Kabupaten Minahasa Tenggara, Sulawesi Utara 95997","Jl. Ratahan - Kotamobagu, Ponosakan Indah, Kec. Belang, Kabupaten Minahasa Tenggara",SULAWESI UTARA,95997,Indonesia,82259666230.0,,,0.9555108,124.7975711,https://maps.google.com/?cid=0x0:0x68d8a3970b96d48e,
building materials,Toko Bahan Bangunan,UD. BALINDO BANGUN BERSAMA,"Jl. Sea, Sea I, Kec. Pineleng, Kabupaten Minahasa, Sulawesi Utara 95661","Sea I, Kec. Pineleng, Kabupaten Minahasa",SULAWESI UTARA,95661,Indonesia,82259430757.0,,,1.4321571,124.8064432,https://maps.google.com/?cid=0x0:0x7c70c71bbc6c6c84,
building materials,Toko Bahan Bangunan,Toko Bintang Klabat Pusat Baja Ringan,"Matungkas, Kec. Dimembe, Kabupaten Minahasa Utara, Sulawesi Utara 95373","Kec. Dimembe, Kabupaten Minahasa Utara",SULAWESI UTARA,95373,Indonesia,82396732432.0,,,1.4691659,124.9672677,https://maps.google.com/?cid=0x0:0xf7a7af35aeb789b7,
building materials,Toko Bahan Bangunan,UD. Bremen,"Jl. Raya Manado Tomohon, Pineleng I, Kec. Pineleng, Kabupaten Minahasa, Sulawesi Utara","Kabupaten Minahasa, Sulawesi Utara",SULAWESI UTARA,,Indonesia,85256577724.0,,,1.4280041,124.8385246,https://maps.google.com/?cid=0x0:0x27d646c118448cff,
building materials,Toko Bahan Bangunan,Toko Bangunan HARAPAN BERKAT Jl. Lenkeng C no 15 GPI,"Perum GPI, Jl. Lengkeng C No.15, Kima Atas, Kec. Mapanget, Kota Manado, Sulawesi Utara","Kota Manado, Sulawesi Utara",SULAWESI UTARA,,Indonesia,81355863161.0,,,1.5468356,124.8976381,https://maps.google.com/?cid=0x0:0xdea2f61d23f1497a,
building materials,Toko Bahan Bangunan,Toko Tuama RR,"FXGC+676 Jaga 7, Matungkas, Kec. Dimembe, Kabupaten Minahasa Utara, Sulawesi Utara","Kabupaten Minahasa Utara, Sulawesi Utara",SULAWESI UTARA,,Indonesia,,,,1.4755297,124.9706454,https://maps.google.com/?cid=0x0:0xf70291edba8cd4ca,
building materials,Komplek perumahan,Cv. Sivel,"QCXX+MWM, Pinasungkulan, Kec. Modoinding, Kabupaten Minahasa Selatan, Sulawesi Utara","Kabupaten Minahasa Selatan, Sulawesi Utara",SULAWESI UTARA,,Indonesia,,,,0.7992127,124.449789,https://maps.google.com/?cid=0x0:0xd91f6416e81414c8,
building materials,Toko,toko bangunan hj muhlis,"XQ2W+V7R, Jl. Ratahan - Kotamobagu, Ponosakan Indah, Kec. Belang, Kabupaten Minahasa Tenggara, Sulawesi Utara 95997","Jl. Ratahan - Kotamobagu, Ponosakan Indah, Kec. Belang, Kabupaten Minahasa Tenggara",SULAWESI UTARA,95997,Indonesia,,,,0.9522386,124.7956411,https://maps.google.com/?cid=0x0:0xa87b203b7e160b19,
building materials,Toko Bahan Bangunan,Toko Bangunan Sukses Bersama,"5R6Q+8JX, Jl. Ps. Baru, Toraget, Kec. Langowan Utara, Kabupaten Minahasa, Sulawesi Utara","Kabupaten Minahasa, Sulawesi Utara",SULAWESI UTARA,,Indonesia,82293003366.0,,,1.1608749,124.8391128,https://maps.google.com/?cid=0x0:0x2754dc76559a19d4,
building materials,Kantor Perusahaan,Anugerah Baru,"Jl. Sukur - Likupang lingkungan No.9, Wasian, Kec. Dimembe, Kabupaten Minahasa Utara, Sulawesi Utara","Kabupaten Minahasa Utara, Sulawesi Utara",SULAWESI UTARA,,Indonesia,,,,1.5539155,124.9986349,https://maps.google.com/?cid=0x0:0x68ad747c494409b4,
building materials,Toko Bahan Bangunan,UD BYU tatalaksana jual holowbrik,"C35J+Q43, Jl. Raya Manado - Bitung, Watudambo Dua, Kec. Matuari, Kota Bitung, Sulawesi Utara","Kota Bitung, Sulawesi Utara",SULAWESI UTARA,,Indonesia,,,,1.4093822,125.0802828,https://maps.google.com/?cid=0x0:0x1ef84469adee1112,
building materials,Toko Mebel,UD. MEUBEL BANGUNAN BAHTERA RGF.117,"7P2H+W6J, Unnamed Rd, Talaitad, Sulta, Kabupaten Minahasa Selatan, Sulawesi Utara","Kabupaten Minahasa Selatan, Sulawesi Utara",SULAWESI UTARA,,Indonesia,82346841978.0,,,1.2523474,124.7280141,https://maps.google.com/?cid=0x0:0xe9b071792eb2d434,
building materials,Toko,"Toko Material, Pasir, Batu, Kerikil, Teras, Fullbrick, Batu Bata","CRHQ+6CC, Pineleng I, Kec. Pineleng, Kabupaten Minahasa, Sulawesi Utara","Kabupaten Minahasa, Sulawesi Utara",SULAWESI UTARA,,Indonesia,81342993174.0,,,1.428055,124.8385021,https://maps.google.com/?cid=0x0:0x6254618d7117c868,
building materials,Toko Bahan Bangunan,TOKO BANGUNAN RIZKY BADAS,"Kawangkoan, Kec. Kalawat, Kabupaten Minahasa Utara, Sulawesi Utara","Kabupaten Minahasa Utara, Sulawesi Utara",SULAWESI UTARA,,Indonesia,81330119059.0,,,1.4590841,124.9327088,https://maps.google.com/?cid=0x0:0x99b35880d1e58868,
building materials,Toko Bahan Bangunan,Toko Sumber Bangunan Pineleng,"CRGQ+VCG, Jl. Raya Manado Tomohon, Pineleng I, Kec. Pineleng, Kabupaten Minahasa, Sulawesi Utara","Kabupaten Minahasa, Sulawesi Utara",SULAWESI UTARA,,Indonesia,,,,1.4271958,124.8385828,https://maps.google.com/?cid=0x0:0x5bfd3a32058d5029,
building materials,Toko Bahan Bangunan,Toko bahan bangunan dang listrik EXGLO Tarabitan,"PXPQ+XMX, Tarabitan, Kec. Likupang Bar., Kabupaten Minahasa Utara, Sulawesi Utara","Kabupaten Minahasa Utara, Sulawesi Utara",SULAWESI UTARA,,Indonesia,,,,1.7374822,124.9892412,https://maps.google.com/?cid=0x0:0x6f4146ae206562af,
building materials,Toko Bahan Bangunan,Kios Bangunan BERKAT MT,"Jl. Tumpaan - Kawangkoan, Wuwuk, Kec. Tareran, Kabupaten Minahasa Selatan, Sulawesi Utara","Kabupaten Minahasa Selatan, Sulawesi Utara",SULAWESI UTARA,,Indonesia,82145762479.0,,,1.2328138,124.7065325,https://maps.google.com/?cid=0x0:0xcb73c6ec35c5a229,
building materials,Toko Bahan Bangunan,Anugerah Gybsum,"5QMX+FRG, Talikuran, Kec. Tompaso Barat, Kabupaten Minahasa, Sulawesi Utara","Kabupaten Minahasa, Sulawesi Utara",SULAWESI UTARA,,Indonesia,,,,1.1836853,124.7995933,https://maps.google.com/?cid=0x0:0x36b597fa64c99b85,
building materials,Toko Bahan Bangunan,Toko Bangunan Mangimbali,"P9C7+94X, Jl. Ratahan - Kotamobagu, Bangunan Wuwuk, Kec. Modayag Bar., Kabupaten Bolaang Mongondow Timur, Sulawesi Utara","Kabupaten Bolaang Mongondow Timur, Sulawesi Utara",SULAWESI UTARA,,Indonesia,,,,0.720995,124.3628459,https://maps.google.com/?cid=0x0:0x5ebff676b0e909a2,
building materials,Pemasok makanan dan minuman katering,PT. Prasmanindo Boga Utama,"Jalan Darmawangsa III Wijaya Graha Puri Blok F No.33 - 34, RT.2/RW.1, Pulo, Kebayoran Baru, RT.6, RT.6/RW.1, Pulo, Kebayoran Baru, South Jakarta City, Jakarta 12160","RT.2/RW.1, Pulo, Kebayoran Baru, RT.6, RT.6/RW.1, Pulo, Kebayoran Baru, South Jakarta City",SULAWESI UTARA,12160,Indonesia,,,,-6.2539193,106.8005019,https://maps.google.com/?cid=0x0:0x4759861d5b646b1c,
building materials,Gedung Apartemen,Theodora,"XQ9X+HQW, Tababo, Kec. Belang, Kabupaten Minahasa Tenggara, Sulawesi Utara 95997","Tababo, Kec. Belang, Kabupaten Minahasa Tenggara",SULAWESI UTARA,95997,Indonesia,82396711510.0,,,0.9689751,124.7994623,https://maps.google.com/?cid=0x0:0x3d96566a51d72718,
building materials,Toko Bahan Bangunan,Bazar Bangunan Tambun,"Jl. Sultan Hasanudin No.86, Setiadarma, Kec. Tambun Sel., Kabupaten Bekasi, Jawa Barat 17510","Setiadarma, Kec. Tambun Sel., Kabupaten Bekasi",SULAWESI UTARA,17510,Indonesia,81380006889.0,,,-6.2614176,107.0577964,https://maps.google.com/?cid=0x0:0xdac55e03cb00b2a2,
building materials,Toko Bahan Bangunan,TB ACC Cibubur,"Jl. Alternatif Cibubur No.99, Cibubur, Kec. Gn. Putri, Kabupaten Bogor, Jawa Barat 16967","Cibubur, Kec. Gn. Putri, Kabupaten Bogor",SULAWESI UTARA,16967,Indonesia,8569802802.0,,,-6.3896614,106.9464815,https://maps.google.com/?cid=0x0:0x29d639967a17b876,
building materials,Pusat Perbelanjaan,Toko Aneka Keramik,"Jl. Proklamasi No.blok a 11, RW.12, Abadijaya, Kec. Sukmajaya, Kota Depok, Jawa Barat 16417","RW.12, Abadijaya, Kec. Sukmajaya, Kota Depok",SULAWESI UTARA,16417,Indonesia,217703920.0,,,-6.3910244,106.8513859,https://maps.google.com/?cid=0x0:0xa0a5d0dc172a76f,
building materials,Toko Cat,PT. Mowilex Indonesia,"PT mowilex Indonesia, Jl. Daan Mogot No.2a km 10 no, Kedaung Kali Angke, Kecamatan Cengkareng, Kota Jakarta Barat, Daerah Khusus Ibukota Jakarta 11710","Jl. Daan Mogot No.2a km 10 no, Kedaung Kali Angke, Kecamatan Cengkareng, Kota Jakarta Barat",SULAWESI UTARA,11710,Indonesia,215406663.0,,,-6.1583985,106.7594213,https://maps.google.com/?cid=0x0:0xac70b6be5526bfb5,
building materials,building materials,Kec. Pasan,"Kabupaten Minahasa Tenggara, Sulawesi Utara","Kabupaten Minahasa Tenggara, Sulawesi Utara",SULAWESI UTARA,,Indonesia,,,,1.022748,124.7482665,https://maps.google.com/?cid=0x0:0xcf32b53a07d5d0fc,
building materials,Pemasok Bahan Bangunan,Toko Immanuel,"2PFX+6H9, Towuntu, Kec. Pasan, Kabupaten Minahasa Tenggara, Sulawesi Utara","Kabupaten Minahasa Tenggara, Sulawesi Utara",SULAWESI UTARA,,Indonesia,,,,1.0230472,124.7489763,https://maps.google.com/?cid=0x0:0x9e0cfb47d8a9b5fd,
building materials,Toko Perlengkapan Rumah,UD. Josua Supplier,"Jl. Raya Liwutung-Molompar (Perbatasan Tolombukan barat, Molompar Utara, Kec. Pasan, Kabupaten Minahasa Tenggara, Sulawesi Utara","Kabupaten Minahasa Tenggara, Sulawesi Utara",SULAWESI UTARA,,Indonesia,82192560040.0,,,1.0231848,124.7382067,https://maps.google.com/?cid=0x0:0x3e10c0ed7a02441f,
building materials,Jasa Konstruksi dan Bangunan,HOLLOW BRICK,"Rasi Satu, Kec. Ratahan, Kabupaten Minahasa Tenggara, Sulawesi Utara","Kabupaten Minahasa Tenggara, Sulawesi Utara",SULAWESI UTARA,,Indonesia,,,,1.0425474,124.7769307,https://maps.google.com/?cid=0x0:0x1dd49749a382e7c2,
building materials,Toko Bahan Bangunan,Toko Bangunan Mitra Jaya,"Jl. Ratahan - Kotamobagu, Wawali, Kec. Ratahan, Kabupaten Minahasa Tenggara, Sulawesi Utara","Kabupaten Minahasa Tenggara, Sulawesi Utara",SULAWESI UTARA,,Indonesia,,,,1.0471382,124.7996352,https://maps.google.com/?cid=0x0:0x894ceeaf4489a92b,
building materials,Gedung Apartemen,Theodora,"XQ9X+HQW, Tababo, Kec. Belang, Kabupaten Minahasa Tenggara, Sulawesi Utara 95997","Tababo, Kec. Belang, Kabupaten Minahasa Tenggara",SULAWESI UTARA,95997,Indonesia,82396711510.0,,,0.9689751,124.7994623,https://maps.google.com/?cid=0x0:0x3d96566a51d72718,
building materials,building materials,"Toko MITRA USAHA""""","2PCR+G8M, Tolombukan Bar., Kec. Pasan, Kabupaten Minahasa Tenggara, Sulawesi Utara","Kabupaten Minahasa Tenggara, Sulawesi Utara",SULAWESI UTARA,,Indonesia,,,,1.0213435,124.7407929,https://maps.google.com/?cid=0x0:0x6aab3002a80648ff,
building materials,Toko,toko bangunan hj muhlis,"XQ2W+V7R, Jl. Ratahan - Kotamobagu, Ponosakan Indah, Kec. Belang, Kabupaten Minahasa Tenggara, Sulawesi Utara 95997","Jl. Ratahan - Kotamobagu, Ponosakan Indah, Kec. Belang, Kabupaten Minahasa Tenggara",SULAWESI UTARA,95997,Indonesia,,,,0.9522386,124.7956411,https://maps.google.com/?cid=0x0:0xa87b203b7e160b19,
building materials,building materials,Pusomaen,"Kabupaten Minahasa Tenggara, Sulawesi Utara","Kabupaten Minahasa Tenggara, Sulawesi Utara",SULAWESI UTARA,,Indonesia,,,,1.0023906,124.8734523,https://maps.google.com/?cid=0x0:0x51e2c80582c52819,
building materials,Toko Bahan Bangunan,Toko Bangunan Dan Meubel SUMBER REJEKI,"XQ4X+624, Jl. Ratahan - Kotamobagu, Ponosakan Indah, Kec. Belang, Kabupaten Minahasa Tenggara, Sulawesi Utara 95997","Jl. Ratahan - Kotamobagu, Ponosakan Indah, Kec. Belang, Kabupaten Minahasa Tenggara",SULAWESI UTARA,95997,Indonesia,82259666230.0,,,0.9555108,124.7975711,https://maps.google.com/?cid=0x0:0x68d8a3970b96d48e,
building materials,Toko Bahan Bangunan,UD. Bremen,"Jl. Raya Manado Tomohon, Pineleng I, Kec. Pineleng, Kabupaten Minahasa, Sulawesi Utara","Kabupaten Minahasa, Sulawesi Utara",SULAWESI UTARA,,Indonesia,85256577724.0,,,1.4280041,124.8385246,https://maps.google.com/?cid=0x0:0x27d646c118448cff,
building materials,Gedung Apartemen,Theodora,"XQ9X+HQW, Tababo, Kec. Belang, Kabupaten Minahasa Tenggara, Sulawesi Utara 95997","Tababo, Kec. Belang, Kabupaten Minahasa Tenggara",SULAWESI UTARA,95997,Indonesia,82396711510.0,,,0.9689751,124.7994623,https://maps.google.com/?cid=0x0:0x3d96566a51d72718,
building materials,Toko Bahan Bangunan,Toko Bangunan Mitra Jaya,"Jl. Ratahan - Kotamobagu, Wawali, Kec. Ratahan, Kabupaten Minahasa Tenggara, Sulawesi Utara","Kabupaten Minahasa Tenggara, Sulawesi Utara",SULAWESI UTARA,,Indonesia,,,,1.0471382,124.7996352,https://maps.google.com/?cid=0x0:0x894ceeaf4489a92b,
building materials,Toko Bahan Bangunan,"UD. WENANG PERKASA - Building Material, Tools  Hardware","Jl. Adipura Raya, Kima Atas, Kec. Mapanget, Kota Manado, Sulawesi Utara","Kota Manado, Sulawesi Utara",SULAWESI UTARA,,Indonesia,82188228866.0,,,1.5402988,124.9127666,https://maps.google.com/?cid=0x0:0x162cd36145df143,
building materials,Toko Bahan Bangunan,Toko bangunan tetap usaha kamasi 1,"Jl. Kuranga, Talete Dua, Kec. Tomohon Tengah, Kota Tomohon, Sulawesi Utara","Kota Tomohon, Sulawesi Utara",SULAWESI UTARA,,Indonesia,85256670010.0,,,1.3303169,124.8348179,https://maps.google.com/?cid=0x0:0xa51a2dec3d95451d,
building materials,Bengkel Peralatan,DIFREN Workshop,"Lowu Dua, Kec. Ratahan, Kabupaten Minahasa Tenggara, Sulawesi Utara","Kabupaten Minahasa Tenggara, Sulawesi Utara",SULAWESI UTARA,,Indonesia,82189205282.0,,,1.0566193,124.8054178,https://maps.google.com/?cid=0x0:0x3dd7b31ca1878914,
building materials,Toko Bahan Bangunan,Kios IMANUEL,"desa, Kauditan II, Kec. Kauditan, Kabupaten Minahasa Utara, Sulawesi Utara","Kabupaten Minahasa Utara, Sulawesi Utara",SULAWESI UTARA,,Indonesia,82193319910.0,,,1.3910229,125.0480414,https://maps.google.com/?cid=0x0:0x1a0fb236dec656af,
building materials,Jasa Konstruksi dan Bangunan,HOLLOW BRICK,"Rasi Satu, Kec. Ratahan, Kabupaten Minahasa Tenggara, Sulawesi Utara","Kabupaten Minahasa Tenggara, Sulawesi Utara",SULAWESI UTARA,,Indonesia,,,,1.0425474,124.7769307,https://maps.google.com/?cid=0x0:0x1dd49749a382e7c2,
building materials,Toko,Toko Bangunan - Jein,"3R83+96M, Jl. Soekarno, Lowu Utara, Kec. Ratahan, Kabupaten Minahasa Tenggara, Sulawesi Utara","Kabupaten Minahasa Tenggara, Sulawesi Utara",SULAWESI UTARA,,Indonesia,,,,1.0659654,124.8030379,https://maps.google.com/?cid=0x0:0x64a7ba3a8c986863,
building materials,building materials,"Toko MITRA USAHA""""","2PCR+G8M, Tolombukan Bar., Kec. Pasan, Kabupaten Minahasa Tenggara, Sulawesi Utara","Kabupaten Minahasa Tenggara, Sulawesi Utara",SULAWESI UTARA,,Indonesia,,,,1.0213435,124.7407929,https://maps.google.com/?cid=0x0:0x6aab3002a80648ff,
building materials,Pemasok Bahan Bangunan,Toko Immanuel,"2PFX+6H9, Towuntu, Kec. Pasan, Kabupaten Minahasa Tenggara, Sulawesi Utara","Kabupaten Minahasa Tenggara, Sulawesi Utara",SULAWESI UTARA,,Indonesia,,,,1.0230472,124.7489763,https://maps.google.com/?cid=0x0:0x9e0cfb47d8a9b5fd,
building materials,Toko Bahan Bangunan,KEM Opa Kayl,"2JG8+2J6, Ranoako, Kec. Touluaan Sel., Kabupaten Minahasa Tenggara, Sulawesi Utara","Kabupaten Minahasa Tenggara, Sulawesi Utara",SULAWESI UTARA,,Indonesia,,,,1.025034,124.6165155,https://maps.google.com/?cid=0x0:0x6b3f4b4ce214bbec,
building materials,Toko,Toko bangunan G3 (GARTEN),"3R83+864, Nataan, Kec. Ratahan, Kabupaten Minahasa Tenggara, Sulawesi Utara","Kabupaten Minahasa Tenggara, Sulawesi Utara",SULAWESI UTARA,,Indonesia,,,,1.0657586,124.8030873,https://maps.google.com/?cid=0x0:0x1a08ee7d9d63a88a,
building materials,Toko,UD. 03,"2896+J27, Poigar II, Kec. Sinonsayang, Kabupaten Minahasa Selatan, Sulawesi Utara","Kabupaten Minahasa Selatan, Sulawesi Utara",SULAWESI UTARA,,Indonesia,85256301122.0,,,1.0190281,124.3100507,https://maps.google.com/?cid=0x0:0x110db0d962fb04a5,
building materials,building materials,UD Pelangi,"3R74+WWG, Nataan, Kec. Ratahan, Kabupaten Minahasa Tenggara, Sulawesi Utara","Kabupaten Minahasa Tenggara, Sulawesi Utara",SULAWESI UTARA,,Indonesia,,,,1.064811,124.8073246,https://maps.google.com/?cid=0x0:0xea6c66441b0cab3f,
building materials,building materials,Ratahan,"Tosuraya, Kec. Ratahan, Kabupaten Minahasa Tenggara, Sulawesi Utara","Kabupaten Minahasa Tenggara, Sulawesi Utara",SULAWESI UTARA,,Indonesia,,,,1.052761,124.802101,https://maps.google.com/?cid=0x0:0x7c6adb8240ffb5d8,
building materials,Toko Bahan Bangunan,Toko Bangunan Mitra Jaya,"Jl. Ratahan - Kotamobagu, Wawali, Kec. Ratahan, Kabupaten Minahasa Tenggara, Sulawesi Utara","Kabupaten Minahasa Tenggara, Sulawesi Utara",SULAWESI UTARA,,Indonesia,,,,1.0471382,124.7996352,https://maps.google.com/?cid=0x0:0x894ceeaf4489a92b,
building materials,Toko,Toko Bangunan - Jein,"3R83+96M, Jl. Soekarno, Lowu Utara, Kec. Ratahan, Kabupaten Minahasa Tenggara, Sulawesi Utara","Kabupaten Minahasa Tenggara, Sulawesi Utara",SULAWESI UTARA,,Indonesia,,,,1.0659654,124.8030379,https://maps.google.com/?cid=0x0:0x64a7ba3a8c986863,
building materials,Pemasok Bahan Bangunan,Toko Immanuel,"2PFX+6H9, Towuntu, Kec. Pasan, Kabupaten Minahasa Tenggara, Sulawesi Utara","Kabupaten Minahasa Tenggara, Sulawesi Utara",SULAWESI UTARA,,Indonesia,,,,1.0230472,124.7489763,https://maps.google.com/?cid=0x0:0x9e0cfb47d8a9b5fd,
building materials,Toko,Toko bangunan G3 (GARTEN),"3R83+864, Nataan, Kec. Ratahan, Kabupaten Minahasa Tenggara, Sulawesi Utara","Kabupaten Minahasa Tenggara, Sulawesi Utara",SULAWESI UTARA,,Indonesia,,,,1.0657586,124.8030873,https://maps.google.com/?cid=0x0:0x1a08ee7d9d63a88a,
building materials,Toko Aki Mobil,Tk. Hidup Baru Ratahan - Wanmart,"Nataan, Kec. Ratahan, Kabupaten Minahasa Tenggara, Sulawesi Utara 95695","Kec. Ratahan, Kabupaten Minahasa Tenggara",SULAWESI UTARA,95695,Indonesia,85213887619.0,,,1.0598251,124.8062424,https://maps.google.com/?cid=0x0:0xfeb1e6ebf1500631,
building materials,Toko,toko bangunan hj muhlis,"XQ2W+V7R, Jl. Ratahan - Kotamobagu, Ponosakan Indah, Kec. Belang, Kabupaten Minahasa Tenggara, Sulawesi Utara 95997","Jl. Ratahan - Kotamobagu, Ponosakan Indah, Kec. Belang, Kabupaten Minahasa Tenggara",SULAWESI UTARA,95997,Indonesia,,,,0.9522386,124.7956411,https://maps.google.com/?cid=0x0:0xa87b203b7e160b19,
building materials,Toko,Toko Sabar Ratahan,"3R43+P7M, Lowu Satu, Kec. Ratahan, Kabupaten Minahasa Tenggara, Sulawesi Utara","Kabupaten Minahasa Tenggara, Sulawesi Utara",SULAWESI UTARA,,Indonesia,,,,1.0568369,124.8031655,https://maps.google.com/?cid=0x0:0x7107333a4e68ad2d,
building materials,building materials,Kec. Ratahan Tim.,"Kabupaten Minahasa Tenggara, Sulawesi Utara","Kabupaten Minahasa Tenggara, Sulawesi Utara",SULAWESI UTARA,,Indonesia,,,,1.0937692,124.815983,https://maps.google.com/?cid=0x0:0x26a0154fbfe940e4,
building materials,Toko Bahan Bangunan,Toko Bangunan Mitra Jaya,"Jl. Ratahan - Kotamobagu, Wawali, Kec. Ratahan, Kabupaten Minahasa Tenggara, Sulawesi Utara","Kabupaten Minahasa Tenggara, Sulawesi Utara",SULAWESI UTARA,,Indonesia,,,,1.0471382,124.7996352,https://maps.google.com/?cid=0x0:0x894ceeaf4489a92b,
building materials,Toko,MR.DIY Ratahan,"Jl. Ratahan - Kotamobagu, Tosuraya, Kec. Ratahan, Kabupaten Minahasa Tenggara, Sulawesi Utara 95995","Tosuraya, Kec. Ratahan, Kabupaten Minahasa Tenggara",SULAWESI UTARA,95995,Indonesia,,,,1.0554419,124.8019899,https://maps.google.com/?cid=0x0:0x85adf2a4ba2aaadf,
building materials,Toko,Toko Bangunan - Jein,"3R83+96M, Jl. Soekarno, Lowu Utara, Kec. Ratahan, Kabupaten Minahasa Tenggara, Sulawesi Utara","Kabupaten Minahasa Tenggara, Sulawesi Utara",SULAWESI UTARA,,Indonesia,,,,1.0659654,124.8030379,https://maps.google.com/?cid=0x0:0x64a7ba3a8c986863,
building materials,Jasa Konstruksi dan Bangunan,HOLLOW BRICK,"Rasi Satu, Kec. Ratahan, Kabupaten Minahasa Tenggara, Sulawesi Utara","Kabupaten Minahasa Tenggara, Sulawesi Utara",SULAWESI UTARA,,Indonesia,,,,1.0425474,124.7769307,https://maps.google.com/?cid=0x0:0x1dd49749a382e7c2,
building materials,Toko,Toko Garren,"3R96+FCX, Nataan, Kec. Ratahan, Kabupaten Minahasa Tenggara, Sulawesi Utara","Kabupaten Minahasa Tenggara, Sulawesi Utara",SULAWESI UTARA,,Indonesia,,,,1.0687399,124.8111212,https://maps.google.com/?cid=0x0:0x7952e660ffc6bdd,
building materials,Toko,Toko bangunan G3 (GARTEN),"3R83+864, Nataan, Kec. Ratahan, Kabupaten Minahasa Tenggara, Sulawesi Utara","Kabupaten Minahasa Tenggara, Sulawesi Utara",SULAWESI UTARA,,Indonesia,,,,1.0657586,124.8030873,https://maps.google.com/?cid=0x0:0x1a08ee7d9d63a88a,
building materials,Toko Aki Mobil,Tk. Hidup Baru Ratahan - Wanmart,"Nataan, Kec. Ratahan, Kabupaten Minahasa Tenggara, Sulawesi Utara 95695","Kec. Ratahan, Kabupaten Minahasa Tenggara",SULAWESI UTARA,95695,Indonesia,85213887619.0,,,1.0598251,124.8062424,https://maps.google.com/?cid=0x0:0xfeb1e6ebf1500631,
building materials,Pemasok Bahan Bangunan,Toko Immanuel,"2PFX+6H9, Towuntu, Kec. Pasan, Kabupaten Minahasa Tenggara, Sulawesi Utara","Kabupaten Minahasa Tenggara, Sulawesi Utara",SULAWESI UTARA,,Indonesia,,,,1.0230472,124.7489763,https://maps.google.com/?cid=0x0:0x9e0cfb47d8a9b5fd,
building materials,Toko Bahan Bangunan,KIOS TheZakh,"4VQ9+4M6, Teep, Kec. Langowan Tim., Kabupaten Minahasa, Sulawesi Utara","Kabupaten Minahasa, Sulawesi Utara",SULAWESI UTARA,,Indonesia,,,,1.1377994,124.869147,https://maps.google.com/?cid=0x0:0xed7a33951562b501,
building materials,Toko Bahan Bangunan,Toko Ivana,"4RG4+QGG, Noongan Dua, Kec. Langowan Bar., Kabupaten Minahasa, Sulawesi Utara","Kabupaten Minahasa, Sulawesi Utara",SULAWESI UTARA,,Indonesia,,,,1.1269439,124.8063256,https://maps.google.com/?cid=0x0:0xfb9c41163d1d4664,
building materials,building materials,UD Pelangi,"3R74+WWG, Nataan, Kec. Ratahan, Kabupaten Minahasa Tenggara, Sulawesi Utara","Kabupaten Minahasa Tenggara, Sulawesi Utara",SULAWESI UTARA,,Indonesia,,,,1.064811,124.8073246,https://maps.google.com/?cid=0x0:0xea6c66441b0cab3f,
building materials,Toko Bahan Bangunan,Toko Tuama RR,"FXGC+676 Jaga 7, Matungkas, Kec. Dimembe, Kabupaten Minahasa Utara, Sulawesi Utara","Kabupaten Minahasa Utara, Sulawesi Utara",SULAWESI UTARA,,Indonesia,,,,1.4755297,124.9706454,https://maps.google.com/?cid=0x0:0xf70291edba8cd4ca,
building materials,Toko Bahan Bangunan,KEM Opa Kayl,"2JG8+2J6, Ranoako, Kec. Touluaan Sel., Kabupaten Minahasa Tenggara, Sulawesi Utara","Kabupaten Minahasa Tenggara, Sulawesi Utara",SULAWESI UTARA,,Indonesia,,,,1.025034,124.6165155,https://maps.google.com/?cid=0x0:0x6b3f4b4ce214bbec,
building materials,Bengkel Mobil,AUTOVOLT - HIDUP BARU MOTOR RATAHAN,"LINGK III, Nataan, Kec. Ratahan, Kabupaten Minahasa Tenggara, Sulawesi Utara 95695","Nataan, Kec. Ratahan, Kabupaten Minahasa Tenggara",SULAWESI UTARA,95695,Indonesia,85213887619.0,,,1.0600312,124.8059579,https://maps.google.com/?cid=0x0:0xa6f95d77b3a16118,
building materials,Toko,toko bangunan hj muhlis,"XQ2W+V7R, Jl. Ratahan - Kotamobagu, Ponosakan Indah, Kec. Belang, Kabupaten Minahasa Tenggara, Sulawesi Utara 95997","Jl. Ratahan - Kotamobagu, Ponosakan Indah, Kec. Belang, Kabupaten Minahasa Tenggara",SULAWESI UTARA,95997,Indonesia,,,,0.9522386,124.7956411,https://maps.google.com/?cid=0x0:0xa87b203b7e160b19,
building materials,building materials,Sulawesi Utara 95997,"Kec. Ratatotok, Kabupaten Minahasa Tenggara, Sulawesi Utara","Kabupaten Minahasa Tenggara, Sulawesi Utara",SULAWESI UTARA,,Indonesia,,,,0.9486073,124.7519807,https://maps.google.com/?cid=0x0:0x91125c5c2a0b68b9,
building materials,Kantor Perusahaan,Pt. Semesta bangunan indonesia site ratatotok,"VMM3+JQ, Buyat II, Kec. Ratatotok, Kabupaten Minahasa Tenggara, Sulawesi Utara","Kabupaten Minahasa Tenggara, Sulawesi Utara",SULAWESI UTARA,,Indonesia,81354872834.0,,,0.8836781,124.6542444,https://maps.google.com/?cid=0x0:0x3f173a176f25b69b,
building materials,Toko,TOKO BANGUNAN SINAR RATATOTOK,"Ratatotok Dua, Kec. Ratatotok, Kabupaten Minahasa Tenggara, Sulawesi Utara 95997","Kec. Ratatotok, Kabupaten Minahasa Tenggara",SULAWESI UTARA,95997,Indonesia,81242418185.0,,,0.8683082,124.7007802,https://maps.google.com/?cid=0x0:0x5c52589d2559d075,
building materials,Produsen,PT.HAKIAN WELLEM RUMANSI,"WM4J+29, Ratatotok Sel., Kec. Ratatotok, Kabupaten Minahasa Tenggara, Sulawesi Utara 95997","Ratatotok Sel., Kec. Ratatotok, Kabupaten Minahasa Tenggara",SULAWESI UTARA,95997,Indonesia,,,,0.9050647,124.680894,https://maps.google.com/?cid=0x0:0xc2bb98000f373c31,
building materials,Toko Bahan Bangunan,Torang Pe Batako,"VM7X+3H9, Ratatotok, Kec. Ratatotok, Kabupaten Minahasa Tenggara, Sulawesi Utara 95997","Ratatotok, Kec. Ratatotok, Kabupaten Minahasa Tenggara",SULAWESI UTARA,95997,Indonesia,,,,0.8626691,124.698984,https://maps.google.com/?cid=0x0:0x39c11cf9c73de24,
building materials,Toko Perlengkapan Rumah,Jual Batako,"RMV9+7J3, Buyat, Kec. Ratatotok, Kabupaten Bolaang Mongondow Timur, Sulawesi Utara","Kabupaten Bolaang Mongondow Timur, Sulawesi Utara",SULAWESI UTARA,,Indonesia,,,,0.8431296,124.6690605,https://maps.google.com/?cid=0x0:0x7fff91aa0813874c,
building materials,Pemasok Bahan Bangunan,Toko Immanuel,"2PFX+6H9, Towuntu, Kec. Pasan, Kabupaten Minahasa Tenggara, Sulawesi Utara","Kabupaten Minahasa Tenggara, Sulawesi Utara",SULAWESI UTARA,,Indonesia,,,,1.0230472,124.7489763,https://maps.google.com/?cid=0x0:0x9e0cfb47d8a9b5fd,
building materials,Jasa Konstruksi dan Bangunan,HOLLOW BRICK,"Rasi Satu, Kec. Ratahan, Kabupaten Minahasa Tenggara, Sulawesi Utara","Kabupaten Minahasa Tenggara, Sulawesi Utara",SULAWESI UTARA,,Indonesia,,,,1.0425474,124.7769307,https://maps.google.com/?cid=0x0:0x1dd49749a382e7c2,
building materials,Kantor Perusahaan,Seng Biru,"RMXX+CP, Ratatotok Tim., Kec. Ratatotok, Kabupaten Minahasa Tenggara, Sulawesi Utara","Kabupaten Minahasa Tenggara, Sulawesi Utara",SULAWESI UTARA,,Indonesia,,,,0.84863,124.6994614,https://maps.google.com/?cid=0x0:0x82220965299e1648,
building materials,Toko,toko bangunan hj muhlis,"XQ2W+V7R, Jl. Ratahan - Kotamobagu, Ponosakan Indah, Kec. Belang, Kabupaten Minahasa Tenggara, Sulawesi Utara 95997","Jl. Ratahan - Kotamobagu, Ponosakan Indah, Kec. Belang, Kabupaten Minahasa Tenggara",SULAWESI UTARA,95997,Indonesia,,,,0.9522386,124.7956411,https://maps.google.com/?cid=0x0:0xa87b203b7e160b19,
building materials,building materials,Kec. Ratatotok,"Kabupaten Minahasa Tenggara, Sulawesi Utara","Kabupaten Minahasa Tenggara, Sulawesi Utara",SULAWESI UTARA,,Indonesia,,,,0.8739142,124.7003929,https://maps.google.com/?cid=0x0:0xfad043f7df9d10da,
building materials,Kantor Pemerintah,P.T Ratatotok,"VMCW+89, Ratatotok Tenggara, Kec. Ratatotok, Kabupaten Minahasa Tenggara, Sulawesi Utara 95997","Ratatotok Tenggara, Kec. Ratatotok, Kabupaten Minahasa Tenggara",SULAWESI UTARA,95997,Indonesia,,,,0.8706521,124.6959732,https://maps.google.com/?cid=0x0:0xd003eb158424fd2d,
building materials,Toko,Toko Arjuna,"WMCX+C8J, Soyowan, Kec. Ratatotok, Kabupaten Minahasa Tenggara, Sulawesi Utara 95997","Soyowan, Kec. Ratatotok, Kabupaten Minahasa Tenggara",SULAWESI UTARA,95997,Indonesia,,,,0.921088,124.698259,https://maps.google.com/?cid=0x0:0xc924f3ffdcb82d9,
building materials,Toko Bahan Bangunan,"Jual Loster, kerawangan  Profil Gypsum","VM2V+FFC, Buyat I, Kotabunan, Kabupaten Bolaang Mongondow Timur, Sulawesi Utara","Kabupaten Bolaang Mongondow Timur, Sulawesi Utara",SULAWESI UTARA,,Indonesia,85222109851.0,,,0.8521719,124.6935237,https://maps.google.com/?cid=0x0:0x2702b07890f7071a,
building materials,Perusahaan Pertambangan,PT. Bangkit Limpoga Jaya,"VM6X+G59, Ratatotok, Kec. Ratatotok, Kabupaten Minahasa Tenggara, Sulawesi Utara 95997","Ratatotok, Kec. Ratatotok, Kabupaten Minahasa Tenggara",SULAWESI UTARA,95997,Indonesia,,,,0.8612762,124.6979784,https://maps.google.com/?cid=0x0:0x95ab011f54b40130,
building materials,Toko Bahan Bangunan,Toko Bangunan Dan Meubel SUMBER REJEKI,"XQ4X+624, Jl. Ratahan - Kotamobagu, Ponosakan Indah, Kec. Belang, Kabupaten Minahasa Tenggara, Sulawesi Utara 95997","Jl. Ratahan - Kotamobagu, Ponosakan Indah, Kec. Belang, Kabupaten Minahasa Tenggara",SULAWESI UTARA,95997,Indonesia,82259666230.0,,,0.9555108,124.7975711,https://maps.google.com/?cid=0x0:0x68d8a3970b96d48e,
building materials,Gedung Apartemen,Theodora,"XQ9X+HQW, Tababo, Kec. Belang, Kabupaten Minahasa Tenggara, Sulawesi Utara 95997","Tababo, Kec. Belang, Kabupaten Minahasa Tenggara",SULAWESI UTARA,95997,Indonesia,82396711510.0,,,0.9689751,124.7994623,https://maps.google.com/?cid=0x0:0x3d96566a51d72718,
building materials,Sekolah Dasar,Sd Inpres Ratatotok,"VMGX+999, Samping SD Inpres, Ratatotok Satu, Kec. Ratatotok, Kabupaten Minahasa Tenggara, Sulawesi Utara 95997","Samping SD Inpres, Ratatotok Satu, Kec. Ratatotok, Kabupaten Minahasa Tenggara",SULAWESI UTARA,95997,Indonesia,,,,0.8759201,124.6984893,https://maps.google.com/?cid=0x0:0xba10563b88804744,
building materials,Tambang,tambang emas tarandung,"Soyowan, Kec. Ratatotok, Kabupaten Minahasa Tenggara, Sulawesi Utara 95999","Kec. Ratatotok, Kabupaten Minahasa Tenggara",SULAWESI UTARA,95999,Indonesia,,,,0.9082934,124.6987801,https://maps.google.com/?cid=0x0:0xc24ccfaa3d15af0a,
building materials,Kompleks Olahraga,"Lapangan NARATO, Ratatotok","VMGX+Q8P, Ratatotok Satu, Kec. Ratatotok, Kabupaten Minahasa Tenggara, Sulawesi Utara 95997","Ratatotok Satu, Kec. Ratatotok, Kabupaten Minahasa Tenggara",SULAWESI UTARA,95997,Indonesia,,,,0.8769679,124.6983192,https://maps.google.com/?cid=0x0:0x26502a349e794da1,
building materials,Toko Bahan Bangunan,KEM Opa Kayl,"2JG8+2J6, Ranoako, Kec. Touluaan Sel., Kabupaten Minahasa Tenggara, Sulawesi Utara","Kabupaten Minahasa Tenggara, Sulawesi Utara",SULAWESI UTARA,,Indonesia,,,,1.025034,124.6165155,https://maps.google.com/?cid=0x0:0x6b3f4b4ce214bbec,
building materials,Toko Bahan Bangunan,Kios Bangunan BERKAT MT,"Jl. Tumpaan - Kawangkoan, Wuwuk, Kec. Tareran, Kabupaten Minahasa Selatan, Sulawesi Utara","Kabupaten Minahasa Selatan, Sulawesi Utara",SULAWESI UTARA,,Indonesia,82145762479.0,,,1.2328138,124.7065325,https://maps.google.com/?cid=0x0:0xcb73c6ec35c5a229,
building materials,building materials,Kec. Silian Raya,"Kabupaten Minahasa Tenggara, Sulawesi Utara","Kabupaten Minahasa Tenggara, Sulawesi Utara",SULAWESI UTARA,,Indonesia,,,,1.0607028,124.6706139,https://maps.google.com/?cid=0x0:0xc85569b0227031a5,
building materials,Toko Bahan Bangunan,Toko RB Tombatu,"2MWG+PJG jaga 4, Tombatu Dua Tengah, Kec. Tombatu, Kabupaten Minahasa Tenggara, Sulawesi Utara","Kabupaten Minahasa Tenggara, Sulawesi Utara",SULAWESI UTARA,,Indonesia,,,,1.0468079,124.6765698,https://maps.google.com/?cid=0x0:0xfd8b0dc676195040,
building materials,Toko Bahan Bangunan,Tombatu dua tengah jaga IV,"2MXH+FQC, Tombatu Dua Tengah, Kec. Tombatu Utara, Kabupaten Minahasa Tenggara, Sulawesi Utara","Kabupaten Minahasa Tenggara, Sulawesi Utara",SULAWESI UTARA,,Indonesia,,,,1.0486986,124.6793915,https://maps.google.com/?cid=0x0:0x175db0aa1b0e781e,
building materials,Toko Bahan Bangunan,Infinity Zone,"2MWM+5MP, Tombatu Dua Tengah, Kec. Tombatu Utara, Kabupaten Minahasa Tenggara, Sulawesi Utara","Kabupaten Minahasa Tenggara, Sulawesi Utara",SULAWESI UTARA,,Indonesia,89647770424.0,,,1.045453,124.6841971,https://maps.google.com/?cid=0x0:0x557404556b8d2bee,
building materials,Toko Bahan Bangunan,CERIA Bahan Bangunan,"Tokin Baru, Kec. Motoling Tim., Kabupaten Minahasa Selatan, Sulawesi Utara","Kabupaten Minahasa Selatan, Sulawesi Utara",SULAWESI UTARA,,Indonesia,82259514549.0,,,1.0771398,124.5101005,https://maps.google.com/?cid=0x0:0xdad60601aca07b8,
building materials,building materials,Kec. Tombatu,"Kabupaten Minahasa Tenggara, Sulawesi Utara","Kabupaten Minahasa Tenggara, Sulawesi Utara",SULAWESI UTARA,,Indonesia,,,,1.0392874,124.6821911,https://maps.google.com/?cid=0x0:0x15df6048da14c99b,
building materials,Toko Bahan Bangunan,Toko RB Tombatu,"2MWG+PJG jaga 4, Tombatu Dua Tengah, Kec. Tombatu, Kabupaten Minahasa Tenggara, Sulawesi Utara","Kabupaten Minahasa Tenggara, Sulawesi Utara",SULAWESI UTARA,,Indonesia,,,,1.0468079,124.6765698,https://maps.google.com/?cid=0x0:0xfd8b0dc676195040,
building materials,Toko Bahan Bangunan,Toko Millysurya TOMBATU,"Jl. Tombatu Kali RT.01, Desa Tombatu, Kecamatan Tombatu, Tombatu, Kec. Tombatu, Kabupaten Minahasa Tenggara, Sulawesi Utara","Kabupaten Minahasa Tenggara, Sulawesi Utara",SULAWESI UTARA,,Indonesia,89602010675.0,,,1.0388156,124.6831958,https://maps.google.com/?cid=0x0:0x90ad3317b6415b2e,
building materials,Toko Bahan Bangunan,Tombatu dua tengah jaga IV,"2MXH+FQC, Tombatu Dua Tengah, Kec. Tombatu Utara, Kabupaten Minahasa Tenggara, Sulawesi Utara","Kabupaten Minahasa Tenggara, Sulawesi Utara",SULAWESI UTARA,,Indonesia,,,,1.0486986,124.6793915,https://maps.google.com/?cid=0x0:0x175db0aa1b0e781e,
building materials,Toko Bahan Bangunan,Material om des,"2MXG+94G, Jl. Raya Silian Jaga 1, Betelan Satu, Kec. Tombatu, Kabupaten Minahasa Tenggara, Sulawesi Utara","Kabupaten Minahasa Tenggara, Sulawesi Utara",SULAWESI UTARA,,Indonesia,,,,1.0484198,124.6754081,https://maps.google.com/?cid=0x0:0xe49411887f7768ca,
building materials,Pemasok Bahan Bangunan,Toko Immanuel,"2PFX+6H9, Towuntu, Kec. Pasan, Kabupaten Minahasa Tenggara, Sulawesi Utara","Kabupaten Minahasa Tenggara, Sulawesi Utara",SULAWESI UTARA,,Indonesia,,,,1.0230472,124.7489763,https://maps.google.com/?cid=0x0:0x9e0cfb47d8a9b5fd,
building materials,Toko Bahan Bangunan,KEM Opa Kayl,"2JG8+2J6, Ranoako, Kec. Touluaan Sel., Kabupaten Minahasa Tenggara, Sulawesi Utara","Kabupaten Minahasa Tenggara, Sulawesi Utara",SULAWESI UTARA,,Indonesia,,,,1.025034,124.6165155,https://maps.google.com/?cid=0x0:0x6b3f4b4ce214bbec,
building materials,Toko,"CV. Raisyah Granit, Menjual Keramik Roman, Granit Roman dan Quadra. Serta merk Lainnya.","Sentul, Kec. Balaraja, Kabupaten Tangerang, Banten 15610","Kec. Balaraja, Kabupaten Tangerang",SULAWESI UTARA,15610,Indonesia,82213960970.0,,,-6.205138,106.4554147,https://maps.google.com/?cid=0x0:0xd4df477d7416e386,
building materials,building materials,Tombatu timur,"2PGG+CC3, Molompar Dua Sel., Kec. Tombatu Tim., Kabupaten Minahasa Tenggara, Sulawesi Utara","Kabupaten Minahasa Tenggara, Sulawesi Utara",SULAWESI UTARA,,Indonesia,,,,1.0260171,124.7260503,https://maps.google.com/?cid=0x0:0xf8d31392a556208d,
building materials,building materials,Kec. Tombatu Tim.,"Kabupaten Minahasa Tenggara, Sulawesi Utara","Kabupaten Minahasa Tenggara, Sulawesi Utara",SULAWESI UTARA,,Indonesia,,,,1.0260417,124.7260931,https://maps.google.com/?cid=0x0:0xc4583ba933d210d3,
building materials,Toko Bahan Bangunan,Toko Millysurya TOMBATU,"Jl. Tombatu Kali RT.01, Desa Tombatu, Kecamatan Tombatu, Tombatu, Kec. Tombatu, Kabupaten Minahasa Tenggara, Sulawesi Utara","Kabupaten Minahasa Tenggara, Sulawesi Utara",SULAWESI UTARA,,Indonesia,89602010675.0,,,1.0388156,124.6831958,https://maps.google.com/?cid=0x0:0x90ad3317b6415b2e,
building materials,Toko Bahan Bangunan,Toko RB Tombatu,"2MWG+PJG jaga 4, Tombatu Dua Tengah, Kec. Tombatu, Kabupaten Minahasa Tenggara, Sulawesi Utara","Kabupaten Minahasa Tenggara, Sulawesi Utara",SULAWESI UTARA,,Indonesia,,,,1.0468079,124.6765698,https://maps.google.com/?cid=0x0:0xfd8b0dc676195040,
building materials,Toko Bahan Bangunan,Tombatu dua tengah jaga IV,"2MXH+FQC, Tombatu Dua Tengah, Kec. Tombatu Utara, Kabupaten Minahasa Tenggara, Sulawesi Utara","Kabupaten Minahasa Tenggara, Sulawesi Utara",SULAWESI UTARA,,Indonesia,,,,1.0486986,124.6793915,https://maps.google.com/?cid=0x0:0x175db0aa1b0e781e,
building materials,Pemasok Bahan Bangunan,Toko Immanuel,"2PFX+6H9, Towuntu, Kec. Pasan, Kabupaten Minahasa Tenggara, Sulawesi Utara","Kabupaten Minahasa Tenggara, Sulawesi Utara",SULAWESI UTARA,,Indonesia,,,,1.0230472,124.7489763,https://maps.google.com/?cid=0x0:0x9e0cfb47d8a9b5fd,
building materials,Toko Bahan Bangunan,Material om des,"2MXG+94G, Jl. Raya Silian Jaga 1, Betelan Satu, Kec. Tombatu, Kabupaten Minahasa Tenggara, Sulawesi Utara","Kabupaten Minahasa Tenggara, Sulawesi Utara",SULAWESI UTARA,,Indonesia,,,,1.0484198,124.6754081,https://maps.google.com/?cid=0x0:0xe49411887f7768ca,
building materials,Toko Perlengkapan Rumah,UD. Josua Supplier,"Jl. Raya Liwutung-Molompar (Perbatasan Tolombukan barat, Molompar Utara, Kec. Pasan, Kabupaten Minahasa Tenggara, Sulawesi Utara","Kabupaten Minahasa Tenggara, Sulawesi Utara",SULAWESI UTARA,,Indonesia,82192560040.0,,,1.0231848,124.7382067,https://maps.google.com/?cid=0x0:0x3e10c0ed7a02441f,
building materials,building materials,Tombatu timur,"2PGG+CC3, Molompar Dua Sel., Kec. Tombatu Tim., Kabupaten Minahasa Tenggara, Sulawesi Utara","Kabupaten Minahasa Tenggara, Sulawesi Utara",SULAWESI UTARA,,Indonesia,,,,1.0260171,124.7260503,https://maps.google.com/?cid=0x0:0xf8d31392a556208d,
building materials,Komplek perumahan,Kel. Ibrahim - Laleno ( Garens Nang ),"2PGF+6P2, Esandom, Kec. Tombatu Tim., Kabupaten Minahasa Tenggara, Sulawesi Utara","Kabupaten Minahasa Tenggara, Sulawesi Utara",SULAWESI UTARA,,Indonesia,,,,1.025521,124.7242611,https://maps.google.com/?cid=0x0:0x564ea4c8ebea780c,
building materials,building materials,Kec. Tombatu Utara,"Kabupaten Minahasa Tenggara, Sulawesi Utara","Kabupaten Minahasa Tenggara, Sulawesi Utara",SULAWESI UTARA,,Indonesia,,,,1.0435986,124.6869059,https://maps.google.com/?cid=0x0:0x3786e15772770449,
building materials,Toko Bahan Bangunan,Toko RB Tombatu,"2MWG+PJG jaga 4, Tombatu Dua Tengah, Kec. Tombatu, Kabupaten Minahasa Tenggara, Sulawesi Utara","Kabupaten Minahasa Tenggara, Sulawesi Utara",SULAWESI UTARA,,Indonesia,,,,1.0468079,124.6765698,https://maps.google.com/?cid=0x0:0xfd8b0dc676195040,
building materials,Toko Bahan Bangunan,Toko Millysurya TOMBATU,"Jl. Tombatu Kali RT.01, Desa Tombatu, Kecamatan Tombatu, Tombatu, Kec. Tombatu, Kabupaten Minahasa Tenggara, Sulawesi Utara","Kabupaten Minahasa Tenggara, Sulawesi Utara",SULAWESI UTARA,,Indonesia,89602010675.0,,,1.0388156,124.6831958,https://maps.google.com/?cid=0x0:0x90ad3317b6415b2e,
building materials,Toko Bahan Bangunan,Tombatu dua tengah jaga IV,"2MXH+FQC, Tombatu Dua Tengah, Kec. Tombatu Utara, Kabupaten Minahasa Tenggara, Sulawesi Utara","Kabupaten Minahasa Tenggara, Sulawesi Utara",SULAWESI UTARA,,Indonesia,,,,1.0486986,124.6793915,https://maps.google.com/?cid=0x0:0x175db0aa1b0e781e,
building materials,Toko Bahan Bangunan,Material om des,"2MXG+94G, Jl. Raya Silian Jaga 1, Betelan Satu, Kec. Tombatu, Kabupaten Minahasa Tenggara, Sulawesi Utara","Kabupaten Minahasa Tenggara, Sulawesi Utara",SULAWESI UTARA,,Indonesia,,,,1.0484198,124.6754081,https://maps.google.com/?cid=0x0:0xe49411887f7768ca,
building materials,Toko Bahan Bangunan,Infinity Zone,"2MWM+5MP, Tombatu Dua Tengah, Kec. Tombatu Utara, Kabupaten Minahasa Tenggara, Sulawesi Utara","Kabupaten Minahasa Tenggara, Sulawesi Utara",SULAWESI UTARA,,Indonesia,89647770424.0,,,1.045453,124.6841971,https://maps.google.com/?cid=0x0:0x557404556b8d2bee,
building materials,Toserba,"Toko Enam - Satu Lianly""""","2MVJ+JJR, Tombatu Dua Tengah, Kec. Tombatu Utara, Kabupaten Minahasa Tenggara, Sulawesi Utara","Kabupaten Minahasa Tenggara, Sulawesi Utara",SULAWESI UTARA,,Indonesia,,,,1.0441128,124.6815275,https://maps.google.com/?cid=0x0:0x2ff1c183616e4120,
building materials,Pemasok Bahan Bangunan,Toko Immanuel,"2PFX+6H9, Towuntu, Kec. Pasan, Kabupaten Minahasa Tenggara, Sulawesi Utara","Kabupaten Minahasa Tenggara, Sulawesi Utara",SULAWESI UTARA,,Indonesia,,,,1.0230472,124.7489763,https://maps.google.com/?cid=0x0:0x9e0cfb47d8a9b5fd,
building materials,building materials,Kec. Touluaan,"Kabupaten Minahasa Tenggara, Sulawesi Utara","Kabupaten Minahasa Tenggara, Sulawesi Utara",SULAWESI UTARA,,Indonesia,,,,1.0561242,124.6513459,https://maps.google.com/?cid=0x0:0xb9e36ebc0d0281f7,
building materials,Toko Bahan Bangunan,KEM Opa Kayl,"2JG8+2J6, Ranoako, Kec. Touluaan Sel., Kabupaten Minahasa Tenggara, Sulawesi Utara","Kabupaten Minahasa Tenggara, Sulawesi Utara",SULAWESI UTARA,,Indonesia,,,,1.025034,124.6165155,https://maps.google.com/?cid=0x0:0x6b3f4b4ce214bbec,
building materials,Toko Bahan Bangunan,Toko RB Tombatu,"2MWG+PJG jaga 4, Tombatu Dua Tengah, Kec. Tombatu, Kabupaten Minahasa Tenggara, Sulawesi Utara","Kabupaten Minahasa Tenggara, Sulawesi Utara",SULAWESI UTARA,,Indonesia,,,,1.0468079,124.6765698,https://maps.google.com/?cid=0x0:0xfd8b0dc676195040,
building materials,Toserba,Toko Enam Satu,"Jl. Amurang-Ratahan, Tombatu Dua, Kec. Tombatu Utara, Kabupaten Minahasa Tenggara, Sulawesi Utara","Kabupaten Minahasa Tenggara, Sulawesi Utara",SULAWESI UTARA,,Indonesia,85394307959.0,,,1.0444018,124.6853517,https://maps.google.com/?cid=0x0:0xa8a9b8962a69e66e,
building materials,Toko Bahan Bangunan,Tombatu dua tengah jaga IV,"2MXH+FQC, Tombatu Dua Tengah, Kec. Tombatu Utara, Kabupaten Minahasa Tenggara, Sulawesi Utara","Kabupaten Minahasa Tenggara, Sulawesi Utara",SULAWESI UTARA,,Indonesia,,,,1.0486986,124.6793915,https://maps.google.com/?cid=0x0:0x175db0aa1b0e781e,
building materials,Toko Bahan Bangunan,PT. Atap Satu Nusantara,"Jl. Raden Fatah, Parung Serab, Kec. Ciledug, Kota Tangerang, Banten 15153","Parung Serab, Kec. Ciledug, Kota Tangerang",SULAWESI UTARA,15153,Indonesia,87880892000.0,,,-6.2465592,106.7009993,https://maps.google.com/?cid=0x0:0x94fcb3512755ccec,
building materials,Pemasok Bahan Bangunan,Toko Immanuel,"2PFX+6H9, Towuntu, Kec. Pasan, Kabupaten Minahasa Tenggara, Sulawesi Utara","Kabupaten Minahasa Tenggara, Sulawesi Utara",SULAWESI UTARA,,Indonesia,,,,1.0230472,124.7489763,https://maps.google.com/?cid=0x0:0x9e0cfb47d8a9b5fd,
building materials,Toko Bahan Bangunan,Toko Tuama RR,"FXGC+676 Jaga 7, Matungkas, Kec. Dimembe, Kabupaten Minahasa Utara, Sulawesi Utara","Kabupaten Minahasa Utara, Sulawesi Utara",SULAWESI UTARA,,Indonesia,,,,1.4755297,124.9706454,https://maps.google.com/?cid=0x0:0xf70291edba8cd4ca,
building materials,Kantor Perusahaan,CV Bangunan Karya Mandiri,"Jl. Trans Sulawesi No.mor 88, Tateli, Kec. Mandolang, Kabupaten Minahasa, Sulawesi Utara 95661","Tateli, Kec. Mandolang, Kabupaten Minahasa",SULAWESI UTARA,95661,Indonesia,81389898887.0,,,1.4418019,124.7530328,https://maps.google.com/?cid=0x0:0x8c3a90a3b9407031,
building materials,Toko Bahan Bangunan,UD BYU tatalaksana jual holowbrik,"C35J+Q43, Jl. Raya Manado - Bitung, Watudambo Dua, Kec. Matuari, Kota Bitung, Sulawesi Utara","Kota Bitung, Sulawesi Utara",SULAWESI UTARA,,Indonesia,,,,1.4093822,125.0802828,https://maps.google.com/?cid=0x0:0x1ef84469adee1112,
building materials,Toko Bahan Bangunan,Kios IMANUEL,"desa, Kauditan II, Kec. Kauditan, Kabupaten Minahasa Utara, Sulawesi Utara","Kabupaten Minahasa Utara, Sulawesi Utara",SULAWESI UTARA,,Indonesia,82193319910.0,,,1.3910229,125.0480414,https://maps.google.com/?cid=0x0:0x1a0fb236dec656af,
building materials,Toko Bahan Bangunan,CERIA Bahan Bangunan,"Tokin Baru, Kec. Motoling Tim., Kabupaten Minahasa Selatan, Sulawesi Utara","Kabupaten Minahasa Selatan, Sulawesi Utara",SULAWESI UTARA,,Indonesia,82259514549.0,,,1.0771398,124.5101005,https://maps.google.com/?cid=0x0:0xdad60601aca07b8,
building materials,Toko Perlengkapan Rumah,UD. Josua Supplier,"Jl. Raya Liwutung-Molompar (Perbatasan Tolombukan barat, Molompar Utara, Kec. Pasan, Kabupaten Minahasa Tenggara, Sulawesi Utara","Kabupaten Minahasa Tenggara, Sulawesi Utara",SULAWESI UTARA,,Indonesia,82192560040.0,,,1.0231848,124.7382067,https://maps.google.com/?cid=0x0:0x3e10c0ed7a02441f,
building materials,building materials,Kec. Touluaan Sel.,"Kabupaten Minahasa Tenggara, Sulawesi Utara","Kabupaten Minahasa Tenggara, Sulawesi Utara",SULAWESI UTARA,,Indonesia,,,,1.0264722,124.5859669,https://maps.google.com/?cid=0x0:0xe1cb2698c83351a2,
building materials,Toko Bahan Bangunan,KEM Opa Kayl,"2JG8+2J6, Ranoako, Kec. Touluaan Sel., Kabupaten Minahasa Tenggara, Sulawesi Utara","Kabupaten Minahasa Tenggara, Sulawesi Utara",SULAWESI UTARA,,Indonesia,,,,1.025034,124.6165155,https://maps.google.com/?cid=0x0:0x6b3f4b4ce214bbec,
building materials,Toko Bahan Bangunan,CERIA Bahan Bangunan,"Tokin Baru, Kec. Motoling Tim., Kabupaten Minahasa Selatan, Sulawesi Utara","Kabupaten Minahasa Selatan, Sulawesi Utara",SULAWESI UTARA,,Indonesia,82259514549.0,,,1.0771398,124.5101005,https://maps.google.com/?cid=0x0:0xdad60601aca07b8,
building materials,Toko Bahan Bangunan,Toko Millysurya TOMBATU,"Jl. Tombatu Kali RT.01, Desa Tombatu, Kecamatan Tombatu, Tombatu, Kec. Tombatu, Kabupaten Minahasa Tenggara, Sulawesi Utara","Kabupaten Minahasa Tenggara, Sulawesi Utara",SULAWESI UTARA,,Indonesia,89602010675.0,,,1.0388156,124.6831958,https://maps.google.com/?cid=0x0:0x90ad3317b6415b2e,
building materials,Pemasok Bahan Bangunan,Toko Immanuel,"2PFX+6H9, Towuntu, Kec. Pasan, Kabupaten Minahasa Tenggara, Sulawesi Utara","Kabupaten Minahasa Tenggara, Sulawesi Utara",SULAWESI UTARA,,Indonesia,,,,1.0230472,124.7489763,https://maps.google.com/?cid=0x0:0x9e0cfb47d8a9b5fd,
building materials,Toserba,Toko Enam Satu,"Jl. Amurang-Ratahan, Tombatu Dua, Kec. Tombatu Utara, Kabupaten Minahasa Tenggara, Sulawesi Utara","Kabupaten Minahasa Tenggara, Sulawesi Utara",SULAWESI UTARA,,Indonesia,85394307959.0,,,1.0444018,124.6853517,https://maps.google.com/?cid=0x0:0xa8a9b8962a69e66e,
toko bangunan,Toko Bahan Bangunan,Toko Bangunan Dan Meubel SUMBER REJEKI,"XQ4X+624, Jl. Ratahan - Kotamobagu, Ponosakan Indah, Kec. Belang, Kabupaten Minahasa Tenggara, Sulawesi Utara 95997","Jl. Ratahan - Kotamobagu, Ponosakan Indah, Kec. Belang, Kabupaten Minahasa Tenggara",SULAWESI UTARA,95997,Indonesia,82259666230.0,,,0.9555108,124.7975711,https://maps.google.com/?cid=0x0:0x68d8a3970b96d48e,
toko bangunan,Toko,toko bangunan hj muhlis,"XQ2W+V7R, Jl. Ratahan - Kotamobagu, Ponosakan Indah, Kec. Belang, Kabupaten Minahasa Tenggara, Sulawesi Utara 95997","Jl. Ratahan - Kotamobagu, Ponosakan Indah, Kec. Belang, Kabupaten Minahasa Tenggara",SULAWESI UTARA,95997,Indonesia,,,,0.9522386,124.7956411,https://maps.google.com/?cid=0x0:0xa87b203b7e160b19,
toko bangunan,Toko Bahan Bangunan,Toko Bangunan Sinar Berkat,"Warembungan, Kec. Pineleng, Kabupaten Minahasa, Sulawesi Utara","Kabupaten Minahasa, Sulawesi Utara",SULAWESI UTARA,,Indonesia,82259753525.0,,,1.417257,124.821793,https://maps.google.com/?cid=0x0:0x9454d0623758efea,
toko bangunan,Toko Bahan Bangunan,Toko Bangunan HARAPAN BERKAT Jl. Lenkeng C no 15 GPI,"Perum GPI, Jl. Lengkeng C No.15, Kima Atas, Kec. Mapanget, Kota Manado, Sulawesi Utara","Kota Manado, Sulawesi Utara",SULAWESI UTARA,,Indonesia,81355863161.0,,,1.5468356,124.8976381,https://maps.google.com/?cid=0x0:0xdea2f61d23f1497a,
toko bangunan,Toko Bahan Bangunan,Toko Bangunan Chiko Matungkas,"FXF9+7QQ, Jl. Sukur - Likupang, Matungkas, Kec. Dimembe, Kabupaten Minahasa Utara, Sulawesi Utara","Kabupaten Minahasa Utara, Sulawesi Utara",SULAWESI UTARA,,Indonesia,85340940004.0,,,1.4732046,124.9694978,https://maps.google.com/?cid=0x0:0xb10a524c66bf6d30,
toko bangunan,Toko Bahan Bangunan,TOKO BANGUNAN RIZKY BADAS,"Kawangkoan, Kec. Kalawat, Kabupaten Minahasa Utara, Sulawesi Utara","Kabupaten Minahasa Utara, Sulawesi Utara",SULAWESI UTARA,,Indonesia,81330119059.0,,,1.4590841,124.9327088,https://maps.google.com/?cid=0x0:0x99b35880d1e58868,
toko bangunan,Toko Bahan Bangunan,Triberkat Toko Bangunan,"FV2M+H3P, Sawangan, Kec. Tombulu, Kabupaten Minahasa, Sulawesi Utara","Kabupaten Minahasa, Sulawesi Utara",SULAWESI UTARA,,Indonesia,,,,1.4516151,124.8823958,https://maps.google.com/?cid=0x0:0xb1724ee606aad0ec,
toko bangunan,Toko Bahan Bangunan,Toko Bangunan Sukses Bersama,"5R6Q+8JX, Jl. Ps. Baru, Toraget, Kec. Langowan Utara, Kabupaten Minahasa, Sulawesi Utara","Kabupaten Minahasa, Sulawesi Utara",SULAWESI UTARA,,Indonesia,82293003366.0,,,1.1608749,124.8391128,https://maps.google.com/?cid=0x0:0x2754dc76559a19d4,
toko bangunan,Toko Bahan Bangunan,Toko BERKAT,"Jl. Pineleng-Kali, Pineleng I, Kec. Pineleng, Kabupaten Minahasa, Sulawesi Utara","Kabupaten Minahasa, Sulawesi Utara",SULAWESI UTARA,,Indonesia,,,,1.4244889,124.8417641,https://maps.google.com/?cid=0x0:0xabdd7527ee3f4bb8,
toko bangunan,Toko Bahan Bangunan,Toko Bangunan Berkat Anugerah,"FXGC+56F, Matungkas, Kec. Dimembe, Kabupaten Minahasa Utara, Sulawesi Utara","Kabupaten Minahasa Utara, Sulawesi Utara",SULAWESI UTARA,,Indonesia,85166903897.0,,,1.4754432,124.9705573,https://maps.google.com/?cid=0x0:0x5392f2726457469d,
toko bangunan,Toko Bahan Bangunan,Matungkas Jaya (Toko Bangunan),"FXGC+67C, Jl. Sukur - Likupang, Matungkas, Kec. Dimembe, Kabupaten Minahasa Utara, Sulawesi Utara","Kabupaten Minahasa Utara, Sulawesi Utara",SULAWESI UTARA,,Indonesia,82333344765.0,,,1.4755556,124.9706543,https://maps.google.com/?cid=0x0:0x9356ce9cff86f7f2,
toko bangunan,Toko Bahan Bangunan,Toko Lico,"CRMV+CJ7, Jl. Raya Manado Tomohon, Winangun Atas, Kec. Pineleng, Kabupaten Minahasa, Sulawesi Utara","Kabupaten Minahasa, Sulawesi Utara",SULAWESI UTARA,,Indonesia,431822840.0,,,1.4335286,124.8440558,https://maps.google.com/?cid=0x0:0x8f3a8c4139084976,
toko bangunan,Toko Bahan Bangunan,Toko Bangunan Tandengan,"Jl. Tondano - Kakas, Tandengan, Kec. Eris, Kabupaten Minahasa, Sulawesi Utara","Kabupaten Minahasa, Sulawesi Utara",SULAWESI UTARA,,Indonesia,,,,1.2356425,124.9243613,https://maps.google.com/?cid=0x0:0x5da871fb5996e1d4,
toko bangunan,Toko Bahan Bangunan,Toko Sumber Bangunan Pineleng,"CRGQ+VCG, Jl. Raya Manado Tomohon, Pineleng I, Kec. Pineleng, Kabupaten Minahasa, Sulawesi Utara","Kabupaten Minahasa, Sulawesi Utara",SULAWESI UTARA,,Indonesia,,,,1.4271958,124.8385828,https://maps.google.com/?cid=0x0:0x5bfd3a32058d5029,
toko bangunan,Pasar bahan bangunan,Sumber Logam,"8W26+VWV, JL. Walanda Maramis Lingk. IV, Katinggolan, Tolimambot, Tondano, 95612","JL. Walanda Maramis Lingk. IV, Katinggolan, Tolimambot",SULAWESI UTARA,95612,Indonesia,431321429.0,,,1.3022271,124.9123121,https://maps.google.com/?cid=0x0:0x237688ab01c872ce,
toko bangunan,Pemasok Bahan Bangunan,Toko Immanuel,"2PFX+6H9, Towuntu, Kec. Pasan, Kabupaten Minahasa Tenggara, Sulawesi Utara","Kabupaten Minahasa Tenggara, Sulawesi Utara",SULAWESI UTARA,,Indonesia,,,,1.0230472,124.7489763,https://maps.google.com/?cid=0x0:0x9e0cfb47d8a9b5fd,
toko bangunan,,Toko Bahan Bangunan Gajah Belang,"Embrongis, Blimbing, Kec. Paciran, Kabupaten Lamongan, Jawa Timur","Kabupaten Lamongan, Jawa Timur",SULAWESI UTARA,,Indonesia,,,,-6.8871175,112.295907,https://maps.google.com/?cid=0x0:0x610c535cd44c3c0e,
toko bangunan,Gedung Apartemen,Theodora,"XQ9X+HQW, Tababo, Kec. Belang, Kabupaten Minahasa Tenggara, Sulawesi Utara 95997","Tababo, Kec. Belang, Kabupaten Minahasa Tenggara",SULAWESI UTARA,95997,Indonesia,82396711510.0,,,0.9689751,124.7994623,https://maps.google.com/?cid=0x0:0x3d96566a51d72718,
toko bangunan,Pusat Perbelanjaan,Toko Bangunan 'Berkat Usaha' Ci Len/Ko Djemi,"PCJ5+384 Tim, Tarorane, Kec. Siau Tim., Kabupaten Siau Tagulandang Biaro, Sulawesi Utara 95861","Tarorane, Kec. Siau Tim., Kabupaten Siau Tagulandang Biaro",SULAWESI UTARA,95861,Indonesia,81340617322.0,,,2.7301279,125.4083233,https://maps.google.com/?cid=0x0:0x7c2df2ef3ebada34,
toko bangunan,Toko Bahan Bangunan,Toko Bangunan Anugrah,"Jl. Bongla, Tembong, Kec. Cipocok Jaya, Kota Serang, Banten 42126","Tembong, Kec. Cipocok Jaya, Kota Serang",SULAWESI UTARA,42126,Indonesia,81393333315.0,,,-6.1653654,106.137869,https://maps.google.com/?cid=0x0:0x2bf8ef37d60716f8,
toko bangunan,Toko Bahan Bangunan,Toko Leveransir Bahan bangunan Rahmat Lestari,"Paitana, Kec. Turatea, Kabupaten Jeneponto, Sulawesi Selatan 92371","Kec. Turatea, Kabupaten Jeneponto",SULAWESI UTARA,92371,Indonesia,,,,-5.5819181,119.7895075,https://maps.google.com/?cid=0x0:0x1938208145fe46ee,
toko bangunan,toko bangunan,Kec. Pasan,"Kabupaten Minahasa Tenggara, Sulawesi Utara","Kabupaten Minahasa Tenggara, Sulawesi Utara",SULAWESI UTARA,,Indonesia,,,,1.022748,124.7482665,https://maps.google.com/?cid=0x0:0xcf32b53a07d5d0fc,
toko bangunan,Pemasok Bahan Bangunan,Toko Immanuel,"2PFX+6H9, Towuntu, Kec. Pasan, Kabupaten Minahasa Tenggara, Sulawesi Utara","Kabupaten Minahasa Tenggara, Sulawesi Utara",SULAWESI UTARA,,Indonesia,,,,1.0230472,124.7489763,https://maps.google.com/?cid=0x0:0x9e0cfb47d8a9b5fd,
toko bangunan,Toko Bahan Bangunan,Toko Bangunan Mitra Jaya,"Jl. Ratahan - Kotamobagu, Wawali, Kec. Ratahan, Kabupaten Minahasa Tenggara, Sulawesi Utara","Kabupaten Minahasa Tenggara, Sulawesi Utara",SULAWESI UTARA,,Indonesia,,,,1.0471382,124.7996352,https://maps.google.com/?cid=0x0:0x894ceeaf4489a92b,
toko bangunan,Toko Perlengkapan Rumah,UD. Josua Supplier,"Jl. Raya Liwutung-Molompar (Perbatasan Tolombukan barat, Molompar Utara, Kec. Pasan, Kabupaten Minahasa Tenggara, Sulawesi Utara","Kabupaten Minahasa Tenggara, Sulawesi Utara",SULAWESI UTARA,,Indonesia,82192560040.0,,,1.0231848,124.7382067,https://maps.google.com/?cid=0x0:0x3e10c0ed7a02441f,
toko bangunan,Toko Bahan Bangunan,Toko Bangunan Sumber Mas,"6VJ7+Q9H, Jl. Tondano - Kakas, Timu, Kec. Remboken, Kabupaten Minahasa, Sulawesi Utara","Kabupaten Minahasa, Sulawesi Utara",SULAWESI UTARA,,Indonesia,82310002528.0,,,1.2319396,124.8634961,https://maps.google.com/?cid=0x0:0x15d858ffa7b9cdcc,
toko bangunan,Toko,toko bangunan hj muhlis,"XQ2W+V7R, Jl. Ratahan - Kotamobagu, Ponosakan Indah, Kec. Belang, Kabupaten Minahasa Tenggara, Sulawesi Utara 95997","Jl. Ratahan - Kotamobagu, Ponosakan Indah, Kec. Belang, Kabupaten Minahasa Tenggara",SULAWESI UTARA,95997,Indonesia,,,,0.9522386,124.7956411,https://maps.google.com/?cid=0x0:0xa87b203b7e160b19,
toko bangunan,Toko Bahan Bangunan,Toko Bangunan Sukses Bersama,"5R6Q+8JX, Jl. Ps. Baru, Toraget, Kec. Langowan Utara, Kabupaten Minahasa, Sulawesi Utara","Kabupaten Minahasa, Sulawesi Utara",SULAWESI UTARA,,Indonesia,82293003366.0,,,1.1608749,124.8391128,https://maps.google.com/?cid=0x0:0x2754dc76559a19d4,
toko bangunan,toko bangunan,"Toko MITRA USAHA""""","2PCR+G8M, Tolombukan Bar., Kec. Pasan, Kabupaten Minahasa Tenggara, Sulawesi Utara","Kabupaten Minahasa Tenggara, Sulawesi Utara",SULAWESI UTARA,,Indonesia,,,,1.0213435,124.7407929,https://maps.google.com/?cid=0x0:0x6aab3002a80648ff,
toko bangunan,Toko Bahan Bangunan,Toko Bangunan Chiko Matungkas,"FXF9+7QQ, Jl. Sukur - Likupang, Matungkas, Kec. Dimembe, Kabupaten Minahasa Utara, Sulawesi Utara","Kabupaten Minahasa Utara, Sulawesi Utara",SULAWESI UTARA,,Indonesia,85340940004.0,,,1.4732046,124.9694978,https://maps.google.com/?cid=0x0:0xb10a524c66bf6d30,
toko bangunan,Toko Bahan Bangunan,TOKO SURYA JAYA,"Matungkas, Kec. Dimembe, Kabupaten Minahasa Utara, Sulawesi Utara","Kabupaten Minahasa Utara, Sulawesi Utara",SULAWESI UTARA,,Indonesia,85761113781.0,,,1.4753625,124.9663016,https://maps.google.com/?cid=0x0:0xeb72aa0f66a8a80b,
toko bangunan,Toko Bahan Bangunan,Toko bangunan pak haji pian (Toko Amel),"Likupang II, Kec. Likupang Tim., Kabupaten Minahasa Utara, Sulawesi Utara 95375","Kec. Likupang Tim., Kabupaten Minahasa Utara",SULAWESI UTARA,95375,Indonesia,81356520798.0,,,1.6732482,125.0612162,https://maps.google.com/?cid=0x0:0xbcb61ae0385b4a57,
toko bangunan,Toko Bahan Bangunan,Toko Bangunan Tandengan,"Jl. Tondano - Kakas, Tandengan, Kec. Eris, Kabupaten Minahasa, Sulawesi Utara","Kabupaten Minahasa, Sulawesi Utara",SULAWESI UTARA,,Indonesia,,,,1.2356425,124.9243613,https://maps.google.com/?cid=0x0:0x5da871fb5996e1d4,
toko bangunan,toko bangunan,Pusomaen,"Kabupaten Minahasa Tenggara, Sulawesi Utara","Kabupaten Minahasa Tenggara, Sulawesi Utara",SULAWESI UTARA,,Indonesia,,,,1.0023906,124.8734523,https://maps.google.com/?cid=0x0:0x51e2c80582c52819,
toko bangunan,Pasar bahan bangunan,Toko Bangunan Wapon Jaya,"Jl. Sea induk, Sea I, Kec. Pineleng, Kabupaten Minahasa, Sulawesi Utara","Kabupaten Minahasa, Sulawesi Utara",SULAWESI UTARA,,Indonesia,85340309099.0,,,1.4291092,124.7997913,https://maps.google.com/?cid=0x0:0x2216e5af37ff6b7a,
toko bangunan,Toko Bahan Bangunan,Toko Bangunan Sumber Mas,"6VJ7+Q9H, Jl. Tondano - Kakas, Timu, Kec. Remboken, Kabupaten Minahasa, Sulawesi Utara","Kabupaten Minahasa, Sulawesi Utara",SULAWESI UTARA,,Indonesia,82310002528.0,,,1.2319396,124.8634961,https://maps.google.com/?cid=0x0:0x15d858ffa7b9cdcc,
toko bangunan,Toko,toko bangunan hj muhlis,"XQ2W+V7R, Jl. Ratahan - Kotamobagu, Ponosakan Indah, Kec. Belang, Kabupaten Minahasa Tenggara, Sulawesi Utara 95997","Jl. Ratahan - Kotamobagu, Ponosakan Indah, Kec. Belang, Kabupaten Minahasa Tenggara",SULAWESI UTARA,95997,Indonesia,,,,0.9522386,124.7956411,https://maps.google.com/?cid=0x0:0xa87b203b7e160b19,
toko bangunan,Toko Bahan Bangunan,Toko Bangunan Dan Meubel SUMBER REJEKI,"XQ4X+624, Jl. Ratahan - Kotamobagu, Ponosakan Indah, Kec. Belang, Kabupaten Minahasa Tenggara, Sulawesi Utara 95997","Jl. Ratahan - Kotamobagu, Ponosakan Indah, Kec. Belang, Kabupaten Minahasa Tenggara",SULAWESI UTARA,95997,Indonesia,82259666230.0,,,0.9555108,124.7975711,https://maps.google.com/?cid=0x0:0x68d8a3970b96d48e,
toko bangunan,Pemasok Bahan Bangunan,Toko Immanuel,"2PFX+6H9, Towuntu, Kec. Pasan, Kabupaten Minahasa Tenggara, Sulawesi Utara","Kabupaten Minahasa Tenggara, Sulawesi Utara",SULAWESI UTARA,,Indonesia,,,,1.0230472,124.7489763,https://maps.google.com/?cid=0x0:0x9e0cfb47d8a9b5fd,
toko bangunan,Toko Bahan Bangunan,Toko Bangunan Chiko Matungkas,"FXF9+7QQ, Jl. Sukur - Likupang, Matungkas, Kec. Dimembe, Kabupaten Minahasa Utara, Sulawesi Utara","Kabupaten Minahasa Utara, Sulawesi Utara",SULAWESI UTARA,,Indonesia,85340940004.0,,,1.4732046,124.9694978,https://maps.google.com/?cid=0x0:0xb10a524c66bf6d30,
toko bangunan,Toko Bahan Bangunan,Toko Bangunan Sukses Bersama,"5R6Q+8JX, Jl. Ps. Baru, Toraget, Kec. Langowan Utara, Kabupaten Minahasa, Sulawesi Utara","Kabupaten Minahasa, Sulawesi Utara",SULAWESI UTARA,,Indonesia,82293003366.0,,,1.1608749,124.8391128,https://maps.google.com/?cid=0x0:0x2754dc76559a19d4,
toko bangunan,Toko Bahan Bangunan,Toko Bangunan Mitra Jaya,"Jl. Ratahan - Kotamobagu, Wawali, Kec. Ratahan, Kabupaten Minahasa Tenggara, Sulawesi Utara","Kabupaten Minahasa Tenggara, Sulawesi Utara",SULAWESI UTARA,,Indonesia,,,,1.0471382,124.7996352,https://maps.google.com/?cid=0x0:0x894ceeaf4489a92b,
toko bangunan,Toko Bahan Bangunan,Toko bangunan tetap usaha kamasi 1,"Jl. Kuranga, Talete Dua, Kec. Tomohon Tengah, Kota Tomohon, Sulawesi Utara","Kota Tomohon, Sulawesi Utara",SULAWESI UTARA,,Indonesia,85256670010.0,,,1.3303169,124.8348179,https://maps.google.com/?cid=0x0:0xa51a2dec3d95451d,
toko bangunan,Toko Bahan Bangunan,Matungkas Jaya (Toko Bangunan),"FXGC+67C, Jl. Sukur - Likupang, Matungkas, Kec. Dimembe, Kabupaten Minahasa Utara, Sulawesi Utara","Kabupaten Minahasa Utara, Sulawesi Utara",SULAWESI UTARA,,Indonesia,82333344765.0,,,1.4755556,124.9706543,https://maps.google.com/?cid=0x0:0x9356ce9cff86f7f2,
toko bangunan,Toko Bahan Bangunan,TOKO BANGUNAN RIZKY BADAS,"Kawangkoan, Kec. Kalawat, Kabupaten Minahasa Utara, Sulawesi Utara","Kabupaten Minahasa Utara, Sulawesi Utara",SULAWESI UTARA,,Indonesia,81330119059.0,,,1.4590841,124.9327088,https://maps.google.com/?cid=0x0:0x99b35880d1e58868,
toko bangunan,Pemasok Bahan Bangunan,Toko Bangunan Cendrawasih,"Taler, Tondano Tim., Kabupaten Minahasa, Sulawesi Utara","Kabupaten Minahasa, Sulawesi Utara",SULAWESI UTARA,,Indonesia,81343561691.0,,,1.2984892,124.9127644,https://maps.google.com/?cid=0x0:0x563050a595f334a3,
toko bangunan,Toko Bahan Bangunan,Toko bangunan LIKUPANG JAYA,"M395+QRX, Likupang II, Kec. Likupang Tim., Kabupaten Minahasa Utara, Sulawesi Utara","Kabupaten Minahasa Utara, Sulawesi Utara",SULAWESI UTARA,,Indonesia,,,,1.6694616,125.0597135,https://maps.google.com/?cid=0x0:0x7aece044884761f5,
toko bangunan,Toko Bahan Bangunan,Toko Bangunan Malak Matungkas,"FXC9+636, Matungkas Jaga X, Kec. Dimembe, Kabupaten Minahasa Utara, Sulawesi Utara","Kabupaten Minahasa Utara, Sulawesi Utara",SULAWESI UTARA,,Indonesia,81356833133.0,,,1.4705375,124.9676406,https://maps.google.com/?cid=0x0:0x1c9d1d8d885ff988,
toko bangunan,Toko Bahan Bangunan,Toko Sumber Bangunan Pineleng,"CRGQ+VCG, Jl. Raya Manado Tomohon, Pineleng I, Kec. Pineleng, Kabupaten Minahasa, Sulawesi Utara","Kabupaten Minahasa, Sulawesi Utara",SULAWESI UTARA,,Indonesia,,,,1.4271958,124.8385828,https://maps.google.com/?cid=0x0:0x5bfd3a32058d5029,
toko bangunan,Toko Bahan Bangunan,Toko bangunan,"5R5Q+J2W, Toraget, Kec. Langowan Utara, Kabupaten Minahasa, Sulawesi Utara","Kabupaten Minahasa, Sulawesi Utara",SULAWESI UTARA,,Indonesia,82155762921.0,,,1.1591034,124.8375932,https://maps.google.com/?cid=0x0:0x5ffc28d1b23148c6,
toko bangunan,Pabrik Keramik,PUSAT PELATIHAN KERAMIK PULUTAN,"Pulutan, Kec. Remboken, Kabupaten Minahasa, Sulawesi Utara","Kabupaten Minahasa, Sulawesi Utara",SULAWESI UTARA,,Indonesia,81284497075.0,,,1.2189717,124.8374718,https://maps.google.com/?cid=0x0:0x7656acda16a39e6e,
toko bangunan,Toko Bahan Bangunan,Toko.Multi Bangunan,"Kopandakan I, Kec. Kotamobagu Sel., Kota Kotamobagu, Sulawesi Utara","Kota Kotamobagu, Sulawesi Utara",SULAWESI UTARA,,Indonesia,,,,0.7060639,124.2842349,https://maps.google.com/?cid=0x0:0x906b99c88c2df6f6,
toko bangunan,Toko Bahan Bangunan,Toko Bangunan Surya Mas,"FVR6+P33, Jl. Arie Lasut, Ternate Tj., Kec. Singkil, Kota Manado, Sulawesi Utara","Kota Manado, Sulawesi Utara",SULAWESI UTARA,,Indonesia,8124303387.0,,,1.4917536,124.860174,https://maps.google.com/?cid=0x0:0xabfdb03927ed19e6,
toko bangunan,Toko,Toko bangunan G3 (GARTEN),"3R83+864, Nataan, Kec. Ratahan, Kabupaten Minahasa Tenggara, Sulawesi Utara","Kabupaten Minahasa Tenggara, Sulawesi Utara",SULAWESI UTARA,,Indonesia,,,,1.0657586,124.8030873,https://maps.google.com/?cid=0x0:0x1a08ee7d9d63a88a,
toko bangunan,Toko Bahan Bangunan,Toko Bangunan Tandengan,"Jl. Tondano - Kakas, Tandengan, Kec. Eris, Kabupaten Minahasa, Sulawesi Utara","Kabupaten Minahasa, Sulawesi Utara",SULAWESI UTARA,,Indonesia,,,,1.2356425,124.9243613,https://maps.google.com/?cid=0x0:0x5da871fb5996e1d4,
toko bangunan,Toko Bahan Bangunan,TB.MERIBA (Toko Bangunan),"7WX6+4XP, Taler, Tondano Tim., Kabupaten Minahasa, Sulawesi Utara","Kabupaten Minahasa, Sulawesi Utara",SULAWESI UTARA,,Indonesia,85696259199.0,,,1.2978375,124.9124531,https://maps.google.com/?cid=0x0:0x92ba361f80294412,
toko bangunan,Toko,Toko Bangunan - Jein,"3R83+96M, Jl. Soekarno, Lowu Utara, Kec. Ratahan, Kabupaten Minahasa Tenggara, Sulawesi Utara","Kabupaten Minahasa Tenggara, Sulawesi Utara",SULAWESI UTARA,,Indonesia,,,,1.0659654,124.8030379,https://maps.google.com/?cid=0x0:0x64a7ba3a8c986863,
toko bangunan,Toko Bahan Bangunan,Toko Bangunan Mega Karya Jaya,"Unnamed Road, Kinali, Kec. Kawangkoan, Kabupaten Minahasa, Sulawesi Utara","Kabupaten Minahasa, Sulawesi Utara",SULAWESI UTARA,,Indonesia,82348184787.0,,,1.199471,124.7916845,https://maps.google.com/?cid=0x0:0xdcdea5cb2be0bd09,
toko bangunan,toko bangunan,Ratahan,"Tosuraya, Kec. Ratahan, Kabupaten Minahasa Tenggara, Sulawesi Utara","Kabupaten Minahasa Tenggara, Sulawesi Utara",SULAWESI UTARA,,Indonesia,,,,1.052761,124.802101,https://maps.google.com/?cid=0x0:0x7c6adb8240ffb5d8,
toko bangunan,Toko Bahan Bangunan,Toko Bangunan Mitra Jaya,"Jl. Ratahan - Kotamobagu, Wawali, Kec. Ratahan, Kabupaten Minahasa Tenggara, Sulawesi Utara","Kabupaten Minahasa Tenggara, Sulawesi Utara",SULAWESI UTARA,,Indonesia,,,,1.0471382,124.7996352,https://maps.google.com/?cid=0x0:0x894ceeaf4489a92b,
toko bangunan,Toko,Toko Bangunan - Jein,"3R83+96M, Jl. Soekarno, Lowu Utara, Kec. Ratahan, Kabupaten Minahasa Tenggara, Sulawesi Utara","Kabupaten Minahasa Tenggara, Sulawesi Utara",SULAWESI UTARA,,Indonesia,,,,1.0659654,124.8030379,https://maps.google.com/?cid=0x0:0x64a7ba3a8c986863,
toko bangunan,Toko,Toko Garren,"3R96+FCX, Nataan, Kec. Ratahan, Kabupaten Minahasa Tenggara, Sulawesi Utara","Kabupaten Minahasa Tenggara, Sulawesi Utara",SULAWESI UTARA,,Indonesia,,,,1.0687399,124.8111212,https://maps.google.com/?cid=0x0:0x7952e660ffc6bdd,
toko bangunan,Pemasok Bahan Bangunan,Toko Immanuel,"2PFX+6H9, Towuntu, Kec. Pasan, Kabupaten Minahasa Tenggara, Sulawesi Utara","Kabupaten Minahasa Tenggara, Sulawesi Utara",SULAWESI UTARA,,Indonesia,,,,1.0230472,124.7489763,https://maps.google.com/?cid=0x0:0x9e0cfb47d8a9b5fd,
toko bangunan,Toko Bahan Bangunan,Toko Bangunan Chiko Matungkas,"FXF9+7QQ, Jl. Sukur - Likupang, Matungkas, Kec. Dimembe, Kabupaten Minahasa Utara, Sulawesi Utara","Kabupaten Minahasa Utara, Sulawesi Utara",SULAWESI UTARA,,Indonesia,85340940004.0,,,1.4732046,124.9694978,https://maps.google.com/?cid=0x0:0xb10a524c66bf6d30,
toko bangunan,Toko,toko bangunan hj muhlis,"XQ2W+V7R, Jl. Ratahan - Kotamobagu, Ponosakan Indah, Kec. Belang, Kabupaten Minahasa Tenggara, Sulawesi Utara 95997","Jl. Ratahan - Kotamobagu, Ponosakan Indah, Kec. Belang, Kabupaten Minahasa Tenggara",SULAWESI UTARA,95997,Indonesia,,,,0.9522386,124.7956411,https://maps.google.com/?cid=0x0:0xa87b203b7e160b19,
toko bangunan,Toko Bahan Bangunan,Toko Bangunan Tandengan,"Jl. Tondano - Kakas, Tandengan, Kec. Eris, Kabupaten Minahasa, Sulawesi Utara","Kabupaten Minahasa, Sulawesi Utara",SULAWESI UTARA,,Indonesia,,,,1.2356425,124.9243613,https://maps.google.com/?cid=0x0:0x5da871fb5996e1d4,
toko bangunan,Toko Bahan Bangunan,Toko Bangunan Sumber Mas,"6VJ7+Q9H, Jl. Tondano - Kakas, Timu, Kec. Remboken, Kabupaten Minahasa, Sulawesi Utara","Kabupaten Minahasa, Sulawesi Utara",SULAWESI UTARA,,Indonesia,82310002528.0,,,1.2319396,124.8634961,https://maps.google.com/?cid=0x0:0x15d858ffa7b9cdcc,
toko bangunan,Toko Bahan Bangunan,Toko Tuama RR,"FXGC+676 Jaga 7, Matungkas, Kec. Dimembe, Kabupaten Minahasa Utara, Sulawesi Utara","Kabupaten Minahasa Utara, Sulawesi Utara",SULAWESI UTARA,,Indonesia,,,,1.4755297,124.9706454,https://maps.google.com/?cid=0x0:0xf70291edba8cd4ca,
toko bangunan,Toko Bahan Bangunan,Toko bangunan,"5R5Q+J2W, Toraget, Kec. Langowan Utara, Kabupaten Minahasa, Sulawesi Utara","Kabupaten Minahasa, Sulawesi Utara",SULAWESI UTARA,,Indonesia,82155762921.0,,,1.1591034,124.8375932,https://maps.google.com/?cid=0x0:0x5ffc28d1b23148c6,
toko bangunan,Jasa Konstruksi dan Bangunan,HOLLOW BRICK,"Rasi Satu, Kec. Ratahan, Kabupaten Minahasa Tenggara, Sulawesi Utara","Kabupaten Minahasa Tenggara, Sulawesi Utara",SULAWESI UTARA,,Indonesia,,,,1.0425474,124.7769307,https://maps.google.com/?cid=0x0:0x1dd49749a382e7c2,
toko bangunan,toko bangunan,Ud. Klabat Ratahan(Toko Bangunan),"tosuraya lingkungan No.1, Lowu Dua, Kec. Ratahan, Kabupaten Minahasa Tenggara, Sulawesi Utara","Kabupaten Minahasa Tenggara, Sulawesi Utara",SULAWESI UTARA,,Indonesia,81340212124.0,,,1.055379,124.8032158,https://maps.google.com/?cid=0x0:0xeda9ea11e14b8888,
toko bangunan,Pasar bahan bangunan,Toko Bangunan Wapon Jaya,"Jl. Sea induk, Sea I, Kec. Pineleng, Kabupaten Minahasa, Sulawesi Utara","Kabupaten Minahasa, Sulawesi Utara",SULAWESI UTARA,,Indonesia,85340309099.0,,,1.4291092,124.7997913,https://maps.google.com/?cid=0x0:0x2216e5af37ff6b7a,
toko bangunan,Pemasok Bahan Bangunan,Toko Bangunan Cendrawasih,"Taler, Tondano Tim., Kabupaten Minahasa, Sulawesi Utara","Kabupaten Minahasa, Sulawesi Utara",SULAWESI UTARA,,Indonesia,81343561691.0,,,1.2984892,124.9127644,https://maps.google.com/?cid=0x0:0x563050a595f334a3,
toko bangunan,toko bangunan,Kec. Ratahan Tim.,"Kabupaten Minahasa Tenggara, Sulawesi Utara","Kabupaten Minahasa Tenggara, Sulawesi Utara",SULAWESI UTARA,,Indonesia,,,,1.0937692,124.815983,https://maps.google.com/?cid=0x0:0x26a0154fbfe940e4,
toko bangunan,Toko Bahan Bangunan,Toko Bangunan Mitra Jaya,"Jl. Ratahan - Kotamobagu, Wawali, Kec. Ratahan, Kabupaten Minahasa Tenggara, Sulawesi Utara","Kabupaten Minahasa Tenggara, Sulawesi Utara",SULAWESI UTARA,,Indonesia,,,,1.0471382,124.7996352,https://maps.google.com/?cid=0x0:0x894ceeaf4489a92b,
toko bangunan,Toko,Toko Bangunan - Jein,"3R83+96M, Jl. Soekarno, Lowu Utara, Kec. Ratahan, Kabupaten Minahasa Tenggara, Sulawesi Utara","Kabupaten Minahasa Tenggara, Sulawesi Utara",SULAWESI UTARA,,Indonesia,,,,1.0659654,124.8030379,https://maps.google.com/?cid=0x0:0x64a7ba3a8c986863,
toko bangunan,Toko,toko bangunan hj muhlis,"XQ2W+V7R, Jl. Ratahan - Kotamobagu, Ponosakan Indah, Kec. Belang, Kabupaten Minahasa Tenggara, Sulawesi Utara 95997","Jl. Ratahan - Kotamobagu, Ponosakan Indah, Kec. Belang, Kabupaten Minahasa Tenggara",SULAWESI UTARA,95997,Indonesia,,,,0.9522386,124.7956411,https://maps.google.com/?cid=0x0:0xa87b203b7e160b19,
toko bangunan,Toko Bahan Bangunan,Toko Bangunan Dan Meubel SUMBER REJEKI,"XQ4X+624, Jl. Ratahan - Kotamobagu, Ponosakan Indah, Kec. Belang, Kabupaten Minahasa Tenggara, Sulawesi Utara 95997","Jl. Ratahan - Kotamobagu, Ponosakan Indah, Kec. Belang, Kabupaten Minahasa Tenggara",SULAWESI UTARA,95997,Indonesia,82259666230.0,,,0.9555108,124.7975711,https://maps.google.com/?cid=0x0:0x68d8a3970b96d48e,
toko bangunan,Pemasok Bahan Bangunan,Toko Immanuel,"2PFX+6H9, Towuntu, Kec. Pasan, Kabupaten Minahasa Tenggara, Sulawesi Utara","Kabupaten Minahasa Tenggara, Sulawesi Utara",SULAWESI UTARA,,Indonesia,,,,1.0230472,124.7489763,https://maps.google.com/?cid=0x0:0x9e0cfb47d8a9b5fd,
toko bangunan,Toko,Toko Sabar Ratahan,"3R43+P7M, Lowu Satu, Kec. Ratahan, Kabupaten Minahasa Tenggara, Sulawesi Utara","Kabupaten Minahasa Tenggara, Sulawesi Utara",SULAWESI UTARA,,Indonesia,,,,1.0568369,124.8031655,https://maps.google.com/?cid=0x0:0x7107333a4e68ad2d,
toko bangunan,Toko Bahan Bangunan,Toko bangunan,"5R5Q+J2W, Toraget, Kec. Langowan Utara, Kabupaten Minahasa, Sulawesi Utara","Kabupaten Minahasa, Sulawesi Utara",SULAWESI UTARA,,Indonesia,82155762921.0,,,1.1591034,124.8375932,https://maps.google.com/?cid=0x0:0x5ffc28d1b23148c6,
toko bangunan,Toko Bahan Bangunan,Toko Bangunan Mangimbali,"P9C7+94X, Jl. Ratahan - Kotamobagu, Bangunan Wuwuk, Kec. Modayag Bar., Kabupaten Bolaang Mongondow Timur, Sulawesi Utara","Kabupaten Bolaang Mongondow Timur, Sulawesi Utara",SULAWESI UTARA,,Indonesia,,,,0.720995,124.3628459,https://maps.google.com/?cid=0x0:0x5ebff676b0e909a2,
toko bangunan,Toko Bahan Bangunan,Toko Bangunan Sumber Mas,"6VJ7+Q9H, Jl. Tondano - Kakas, Timu, Kec. Remboken, Kabupaten Minahasa, Sulawesi Utara","Kabupaten Minahasa, Sulawesi Utara",SULAWESI UTARA,,Indonesia,82310002528.0,,,1.2319396,124.8634961,https://maps.google.com/?cid=0x0:0x15d858ffa7b9cdcc,
toko bangunan,Toko Bahan Bangunan,Toko Bangunan Chiko Matungkas,"FXF9+7QQ, Jl. Sukur - Likupang, Matungkas, Kec. Dimembe, Kabupaten Minahasa Utara, Sulawesi Utara","Kabupaten Minahasa Utara, Sulawesi Utara",SULAWESI UTARA,,Indonesia,85340940004.0,,,1.4732046,124.9694978,https://maps.google.com/?cid=0x0:0xb10a524c66bf6d30,
toko bangunan,Toko Bahan Bangunan,Toko bahan bangunan,"MHG7+VJQ, Jl. Ratahan - Kotamobagu, Motongkad, Kec. Nuangan, Kabupaten Bolaang Mongondow Timur, Sulawesi Utara","Kabupaten Bolaang Mongondow Timur, Sulawesi Utara",SULAWESI UTARA,,Indonesia,,,,0.6772249,124.5640951,https://maps.google.com/?cid=0x0:0x3e712dc6efe5c308,
toko bangunan,Toko Aki Mobil,Tk. Hidup Baru Ratahan - Wanmart,"Nataan, Kec. Ratahan, Kabupaten Minahasa Tenggara, Sulawesi Utara 95695","Kec. Ratahan, Kabupaten Minahasa Tenggara",SULAWESI UTARA,95695,Indonesia,85213887619.0,,,1.0598251,124.8062424,https://maps.google.com/?cid=0x0:0xfeb1e6ebf1500631,
toko bangunan,Toko,Toko bangunan G3 (GARTEN),"3R83+864, Nataan, Kec. Ratahan, Kabupaten Minahasa Tenggara, Sulawesi Utara","Kabupaten Minahasa Tenggara, Sulawesi Utara",SULAWESI UTARA,,Indonesia,,,,1.0657586,124.8030873,https://maps.google.com/?cid=0x0:0x1a08ee7d9d63a88a,
toko bangunan,Toko Bahan Bangunan,Toko Bangunan Tandengan,"Jl. Tondano - Kakas, Tandengan, Kec. Eris, Kabupaten Minahasa, Sulawesi Utara","Kabupaten Minahasa, Sulawesi Utara",SULAWESI UTARA,,Indonesia,,,,1.2356425,124.9243613,https://maps.google.com/?cid=0x0:0x5da871fb5996e1d4,
toko bangunan,Pembangunan Perumahan,PLAZA RATAHAN,"3R32+43J, Tosuraya Sel., Kec. Ratahan, Kabupaten Minahasa Tenggara, Sulawesi Utara","Kabupaten Minahasa Tenggara, Sulawesi Utara",SULAWESI UTARA,,Indonesia,,,,1.0528486,124.8001409,https://maps.google.com/?cid=0x0:0xc2d3ab5c2e3ae3c0,
toko bangunan,Toko Perlengkapan Rumah,Toko Bangunan UD.Fadhil,"RM44+R47, Jl. Ratahan - Kotamobagu, Kotabunan, Kabupaten Bolaang Mongondow Timur, Sulawesi Utara","Kabupaten Bolaang Mongondow Timur, Sulawesi Utara",SULAWESI UTARA,,Indonesia,,,,0.8070264,124.6553068,https://maps.google.com/?cid=0x0:0x93a4f968aa67105,
toko bangunan,Toko Bahan Bangunan,Toko Tuama RR,"FXGC+676 Jaga 7, Matungkas, Kec. Dimembe, Kabupaten Minahasa Utara, Sulawesi Utara","Kabupaten Minahasa Utara, Sulawesi Utara",SULAWESI UTARA,,Indonesia,,,,1.4755297,124.9706454,https://maps.google.com/?cid=0x0:0xf70291edba8cd4ca,
toko bangunan,Toko Bahan Bangunan,Toko Ivana,"4RG4+QGG, Noongan Dua, Kec. Langowan Bar., Kabupaten Minahasa, Sulawesi Utara","Kabupaten Minahasa, Sulawesi Utara",SULAWESI UTARA,,Indonesia,,,,1.1269439,124.8063256,https://maps.google.com/?cid=0x0:0xfb9c41163d1d4664,
toko bangunan,Toko Bahan Bangunan,TOKO SURYA JAYA,"Matungkas, Kec. Dimembe, Kabupaten Minahasa Utara, Sulawesi Utara","Kabupaten Minahasa Utara, Sulawesi Utara",SULAWESI UTARA,,Indonesia,85761113781.0,,,1.4753625,124.9663016,https://maps.google.com/?cid=0x0:0xeb72aa0f66a8a80b,
toko bangunan,Toko Bahan Bangunan,KIOS TheZakh,"4VQ9+4M6, Teep, Kec. Langowan Tim., Kabupaten Minahasa, Sulawesi Utara","Kabupaten Minahasa, Sulawesi Utara",SULAWESI UTARA,,Indonesia,,,,1.1377994,124.869147,https://maps.google.com/?cid=0x0:0xed7a33951562b501,
toko bangunan,Jasa Konstruksi dan Bangunan,HOLLOW BRICK,"Rasi Satu, Kec. Ratahan, Kabupaten Minahasa Tenggara, Sulawesi Utara","Kabupaten Minahasa Tenggara, Sulawesi Utara",SULAWESI UTARA,,Indonesia,,,,1.0425474,124.7769307,https://maps.google.com/?cid=0x0:0x1dd49749a382e7c2,
toko bangunan,toko bangunan,Ud. Klabat Ratahan(Toko Bangunan),"tosuraya lingkungan No.1, Lowu Dua, Kec. Ratahan, Kabupaten Minahasa Tenggara, Sulawesi Utara","Kabupaten Minahasa Tenggara, Sulawesi Utara",SULAWESI UTARA,,Indonesia,81340212124.0,,,1.055379,124.8032158,https://maps.google.com/?cid=0x0:0xeda9ea11e14b8888,
toko bangunan,Toko,Toko Sumber Mitra Bangunan,"VM6X+G59, Ratatotok, Kec. Ratatotok, Kabupaten Minahasa Tenggara, Sulawesi Utara 95997","Ratatotok, Kec. Ratatotok, Kabupaten Minahasa Tenggara",SULAWESI UTARA,95997,Indonesia,,,,0.860463,124.698721,https://maps.google.com/?cid=0x0:0xa4e71ecc61f9df45,
toko bangunan,Toko,TOKO BANGUNAN SINAR RATATOTOK,"Ratatotok Dua, Kec. Ratatotok, Kabupaten Minahasa Tenggara, Sulawesi Utara 95997","Kec. Ratatotok, Kabupaten Minahasa Tenggara",SULAWESI UTARA,95997,Indonesia,81242418185.0,,,0.8683082,124.7007802,https://maps.google.com/?cid=0x0:0x5c52589d2559d075,
toko bangunan,Toko Bahan Bangunan,Toko Bangunan Mega Karya Jaya,"Unnamed Road, Kinali, Kec. Kawangkoan, Kabupaten Minahasa, Sulawesi Utara","Kabupaten Minahasa, Sulawesi Utara",SULAWESI UTARA,,Indonesia,82348184787.0,,,1.199471,124.7916845,https://maps.google.com/?cid=0x0:0xdcdea5cb2be0bd09,
toko bangunan,Toko Bahan Bangunan,TOKO BANGUNAN RIZKY BADAS,"Kawangkoan, Kec. Kalawat, Kabupaten Minahasa Utara, Sulawesi Utara","Kabupaten Minahasa Utara, Sulawesi Utara",SULAWESI UTARA,,Indonesia,81330119059.0,,,1.4590841,124.9327088,https://maps.google.com/?cid=0x0:0x99b35880d1e58868,
toko bangunan,Pemasok Bahan Bangunan,Toko Bangunan Cendrawasih,"Taler, Tondano Tim., Kabupaten Minahasa, Sulawesi Utara","Kabupaten Minahasa, Sulawesi Utara",SULAWESI UTARA,,Indonesia,81343561691.0,,,1.2984892,124.9127644,https://maps.google.com/?cid=0x0:0x563050a595f334a3,
toko bangunan,toko bangunan,Sulawesi Utara 95997,"Kec. Ratatotok, Kabupaten Minahasa Tenggara, Sulawesi Utara","Kabupaten Minahasa Tenggara, Sulawesi Utara",SULAWESI UTARA,,Indonesia,,,,0.9486073,124.7519807,https://maps.google.com/?cid=0x0:0x91125c5c2a0b68b9,
toko bangunan,Toko,TOKO BANGUNAN SINAR RATATOTOK,"Ratatotok Dua, Kec. Ratatotok, Kabupaten Minahasa Tenggara, Sulawesi Utara 95997","Kec. Ratatotok, Kabupaten Minahasa Tenggara",SULAWESI UTARA,95997,Indonesia,81242418185.0,,,0.8683082,124.7007802,https://maps.google.com/?cid=0x0:0x5c52589d2559d075,
toko bangunan,Toko,Toko Sumber Mitra Bangunan,"VM6X+G59, Ratatotok, Kec. Ratatotok, Kabupaten Minahasa Tenggara, Sulawesi Utara 95997","Ratatotok, Kec. Ratatotok, Kabupaten Minahasa Tenggara",SULAWESI UTARA,95997,Indonesia,,,,0.860463,124.698721,https://maps.google.com/?cid=0x0:0xa4e71ecc61f9df45,
toko bangunan,toko bangunan,Kec. Silian Raya,"Kabupaten Minahasa Tenggara, Sulawesi Utara","Kabupaten Minahasa Tenggara, Sulawesi Utara",SULAWESI UTARA,,Indonesia,,,,1.0607028,124.6706139,https://maps.google.com/?cid=0x0:0xc85569b0227031a5,
toko bangunan,Toko Bahan Bangunan,Toko RB Tombatu,"2MWG+PJG jaga 4, Tombatu Dua Tengah, Kec. Tombatu, Kabupaten Minahasa Tenggara, Sulawesi Utara","Kabupaten Minahasa Tenggara, Sulawesi Utara",SULAWESI UTARA,,Indonesia,,,,1.0468079,124.6765698,https://maps.google.com/?cid=0x0:0xfd8b0dc676195040,
toko bangunan,Pasar bahan bangunan,Toko Bangunan Wapon Jaya,"Jl. Sea induk, Sea I, Kec. Pineleng, Kabupaten Minahasa, Sulawesi Utara","Kabupaten Minahasa, Sulawesi Utara",SULAWESI UTARA,,Indonesia,85340309099.0,,,1.4291092,124.7997913,https://maps.google.com/?cid=0x0:0x2216e5af37ff6b7a,
toko bangunan,Toko Bahan Bangunan,Toko Bangunan Chiko Matungkas,"FXF9+7QQ, Jl. Sukur - Likupang, Matungkas, Kec. Dimembe, Kabupaten Minahasa Utara, Sulawesi Utara","Kabupaten Minahasa Utara, Sulawesi Utara",SULAWESI UTARA,,Indonesia,85340940004.0,,,1.4732046,124.9694978,https://maps.google.com/?cid=0x0:0xb10a524c66bf6d30,
toko bangunan,Toko Bahan Bangunan,TOKO SURYA JAYA,"Matungkas, Kec. Dimembe, Kabupaten Minahasa Utara, Sulawesi Utara","Kabupaten Minahasa Utara, Sulawesi Utara",SULAWESI UTARA,,Indonesia,85761113781.0,,,1.4753625,124.9663016,https://maps.google.com/?cid=0x0:0xeb72aa0f66a8a80b,
toko bangunan,Toko Bahan Bangunan,Toko Bangunan Sinar Sentosa,"Jl. Trans Sulawesi No.3, Tateli, Kec. Mandolang, Kabupaten Minahasa, Sulawesi Utara 95661","Tateli, Kec. Mandolang, Kabupaten Minahasa",SULAWESI UTARA,95661,Indonesia,8111015839.0,,,1.4412562,124.7522365,https://maps.google.com/?cid=0x0:0xbf48d72990e96e55,
toko bangunan,Toko Bahan Bangunan,Toko Bangunan Sinar Berkat,"Warembungan, Kec. Pineleng, Kabupaten Minahasa, Sulawesi Utara","Kabupaten Minahasa, Sulawesi Utara",SULAWESI UTARA,,Indonesia,82259753525.0,,,1.417257,124.821793,https://maps.google.com/?cid=0x0:0x9454d0623758efea,
toko bangunan,Pemasok Bahan Bangunan,Toko Bangunan Cendrawasih,"Taler, Tondano Tim., Kabupaten Minahasa, Sulawesi Utara","Kabupaten Minahasa, Sulawesi Utara",SULAWESI UTARA,,Indonesia,81343561691.0,,,1.2984892,124.9127644,https://maps.google.com/?cid=0x0:0x563050a595f334a3,
toko bangunan,Toko Bahan Bangunan,Toko Bangunan Reliana Kayuuwi Satu,"6Q4F+5W9, Jl. Kayuuwi, Uner, Kec. Kawangkoan Utara, Kabupaten Minahasa, Sulawesi Utara","Kabupaten Minahasa, Sulawesi Utara",SULAWESI UTARA,,Indonesia,,,,1.2054017,124.7748647,https://maps.google.com/?cid=0x0:0x2d54d773fb75e204,
toko bangunan,Toko Bahan Bangunan,Toko Lico,"CRMV+CJ7, Jl. Raya Manado Tomohon, Winangun Atas, Kec. Pineleng, Kabupaten Minahasa, Sulawesi Utara","Kabupaten Minahasa, Sulawesi Utara",SULAWESI UTARA,,Indonesia,431822840.0,,,1.4335286,124.8440558,https://maps.google.com/?cid=0x0:0x8f3a8c4139084976,
toko bangunan,Toko Bahan Bangunan,Toko Sumber Bangunan Pineleng,"CRGQ+VCG, Jl. Raya Manado Tomohon, Pineleng I, Kec. Pineleng, Kabupaten Minahasa, Sulawesi Utara","Kabupaten Minahasa, Sulawesi Utara",SULAWESI UTARA,,Indonesia,,,,1.4271958,124.8385828,https://maps.google.com/?cid=0x0:0x5bfd3a32058d5029,
toko bangunan,Toko Bahan Bangunan,TOKO BANGUNAN RIZKY BADAS,"Kawangkoan, Kec. Kalawat, Kabupaten Minahasa Utara, Sulawesi Utara","Kabupaten Minahasa Utara, Sulawesi Utara",SULAWESI UTARA,,Indonesia,81330119059.0,,,1.4590841,124.9327088,https://maps.google.com/?cid=0x0:0x99b35880d1e58868,
toko bangunan,Toko Perlengkapan Rumah,Toko calista,"Jl. Sukur - Likupang, Wasian, Kec. Dimembe, Kabupaten Minahasa Utara, Sulawesi Utara","Kabupaten Minahasa Utara, Sulawesi Utara",SULAWESI UTARA,,Indonesia,85340002225.0,,,1.5573416,124.9992117,https://maps.google.com/?cid=0x0:0x1699510a19e62861,
toko bangunan,Toserba,Toko Enam Satu,"Jl. Amurang-Ratahan, Tombatu Dua, Kec. Tombatu Utara, Kabupaten Minahasa Tenggara, Sulawesi Utara","Kabupaten Minahasa Tenggara, Sulawesi Utara",SULAWESI UTARA,,Indonesia,85394307959.0,,,1.0444018,124.6853517,https://maps.google.com/?cid=0x0:0xa8a9b8962a69e66e,
toko bangunan,Toko Bahan Bangunan,CERIA Bahan Bangunan,"Tokin Baru, Kec. Motoling Tim., Kabupaten Minahasa Selatan, Sulawesi Utara","Kabupaten Minahasa Selatan, Sulawesi Utara",SULAWESI UTARA,,Indonesia,82259514549.0,,,1.0771398,124.5101005,https://maps.google.com/?cid=0x0:0xdad60601aca07b8,
toko bangunan,Toko Bahan Bangunan,Toko bangunan LIKUPANG JAYA,"M395+QRX, Likupang II, Kec. Likupang Tim., Kabupaten Minahasa Utara, Sulawesi Utara","Kabupaten Minahasa Utara, Sulawesi Utara",SULAWESI UTARA,,Indonesia,,,,1.6694616,125.0597135,https://maps.google.com/?cid=0x0:0x7aece044884761f5,
toko bangunan,Toko Bahan Bangunan,Tb. Sinar Raya,"H23F+HHV, Jl. Trans Sulawesi, Ibolian, Kec. Dumoga Bar., Kabupaten Bolaang Mongondow, Sulawesi Utara","Kabupaten Bolaang Mongondow, Sulawesi Utara",SULAWESI UTARA,,Indonesia,,,,0.5539959,124.023921,https://maps.google.com/?cid=0x0:0xbf9012d5d617d163,
toko bangunan,Toko Bahan Bangunan,Toko Bangunan RACHELY,"Jl. Mapanget Raya No.33, Paniki Dua, Kec. Mapanget, Kota Manado, Sulawesi Utara","Kota Manado, Sulawesi Utara",SULAWESI UTARA,,Indonesia,4317241325.0,,,1.5146498,124.9196768,https://maps.google.com/?cid=0x0:0xaa4d26e978e285df,
toko bangunan,Toko Bahan Bangunan,Toko bangunan,"5R5Q+J2W, Toraget, Kec. Langowan Utara, Kabupaten Minahasa, Sulawesi Utara","Kabupaten Minahasa, Sulawesi Utara",SULAWESI UTARA,,Indonesia,82155762921.0,,,1.1591034,124.8375932,https://maps.google.com/?cid=0x0:0x5ffc28d1b23148c6,
toko bangunan,Toko Bahan Bangunan,TB.MERIBA (Toko Bangunan),"7WX6+4XP, Taler, Tondano Tim., Kabupaten Minahasa, Sulawesi Utara","Kabupaten Minahasa, Sulawesi Utara",SULAWESI UTARA,,Indonesia,85696259199.0,,,1.2978375,124.9124531,https://maps.google.com/?cid=0x0:0x92ba361f80294412,
toko bangunan,Toko,Jual bahan bangunan,"Jl. Tahun Depan No.133, Kumelembuai I, Kec. Kumelembuai, Kabupaten Minahasa Selatan, Sulawesi Utara","Kabupaten Minahasa Selatan, Sulawesi Utara",SULAWESI UTARA,,Indonesia,81242035564.0,,,1.088384,124.493803,https://maps.google.com/?cid=0x0:0x9235c45c6b8b120a,
toko bangunan,Toko Bahan Bangunan,Toko Bangunan Mega Karya Jaya,"Unnamed Road, Kinali, Kec. Kawangkoan, Kabupaten Minahasa, Sulawesi Utara","Kabupaten Minahasa, Sulawesi Utara",SULAWESI UTARA,,Indonesia,82348184787.0,,,1.199471,124.7916845,https://maps.google.com/?cid=0x0:0xdcdea5cb2be0bd09,
toko bangunan,Toko Bahan Bangunan,Tb. Hasil Murni,"7W4M+F9H, Jl. Tondano - Kakas, Touliang Oki, Kec. Eris, Kabupaten Minahasa, Sulawesi Utara","Kabupaten Minahasa, Sulawesi Utara",SULAWESI UTARA,,Indonesia,,,,1.2561949,124.9334884,https://maps.google.com/?cid=0x0:0xa458e42970ae606c,
toko bangunan,Toko,toko bangunan hj muhlis,"XQ2W+V7R, Jl. Ratahan - Kotamobagu, Ponosakan Indah, Kec. Belang, Kabupaten Minahasa Tenggara, Sulawesi Utara 95997","Jl. Ratahan - Kotamobagu, Ponosakan Indah, Kec. Belang, Kabupaten Minahasa Tenggara",SULAWESI UTARA,95997,Indonesia,,,,0.9522386,124.7956411,https://maps.google.com/?cid=0x0:0xa87b203b7e160b19,
toko bangunan,Toko Bahan Bangunan,Toko Sinar Kasih,"8W25+939, Jl. Arie Lasut Jl. Lingkungan 2, Tounkuramber, Kec. Tondano Bar., Kabupaten Minahasa, Sulawesi Utara","Kabupaten Minahasa, Sulawesi Utara",SULAWESI UTARA,,Indonesia,85240555156.0,,,1.3009055,124.9077219,https://maps.google.com/?cid=0x0:0xa3b7a5f317a4b8ff,
toko bangunan,Toko Bahan Bangunan,Toko Bangunan Tandengan,"Jl. Tondano - Kakas, Tandengan, Kec. Eris, Kabupaten Minahasa, Sulawesi Utara","Kabupaten Minahasa, Sulawesi Utara",SULAWESI UTARA,,Indonesia,,,,1.2356425,124.9243613,https://maps.google.com/?cid=0x0:0x5da871fb5996e1d4,
toko bangunan,Toko,TOKO BANGUNAN SINAR RATATOTOK,"Ratatotok Dua, Kec. Ratatotok, Kabupaten Minahasa Tenggara, Sulawesi Utara 95997","Kec. Ratatotok, Kabupaten Minahasa Tenggara",SULAWESI UTARA,95997,Indonesia,81242418185.0,,,0.8683082,124.7007802,https://maps.google.com/?cid=0x0:0x5c52589d2559d075,
toko bangunan,Toko Bahan Bangunan,Toko Bahan Bangunan,"FRWX+995, Jl. Soputan, Singkil Satu, Kec. Singkil, Kota Manado, Sulawesi Utara","Kota Manado, Sulawesi Utara",SULAWESI UTARA,,Indonesia,,,,1.4958803,124.8484916,https://maps.google.com/?cid=0x0:0x87a9bba92591a12e,
toko bangunan,Toko Bahan Bangunan,KEM Opa Kayl,"2JG8+2J6, Ranoako, Kec. Touluaan Sel., Kabupaten Minahasa Tenggara, Sulawesi Utara","Kabupaten Minahasa Tenggara, Sulawesi Utara",SULAWESI UTARA,,Indonesia,,,,1.025034,124.6165155,https://maps.google.com/?cid=0x0:0x6b3f4b4ce214bbec,
toko bangunan,toko bangunan,Kec. Tombatu,"Kabupaten Minahasa Tenggara, Sulawesi Utara","Kabupaten Minahasa Tenggara, Sulawesi Utara",SULAWESI UTARA,,Indonesia,,,,1.0392874,124.6821911,https://maps.google.com/?cid=0x0:0x15df6048da14c99b,
toko bangunan,Toko Bahan Bangunan,Toko RB Tombatu,"2MWG+PJG jaga 4, Tombatu Dua Tengah, Kec. Tombatu, Kabupaten Minahasa Tenggara, Sulawesi Utara","Kabupaten Minahasa Tenggara, Sulawesi Utara",SULAWESI UTARA,,Indonesia,,,,1.0468079,124.6765698,https://maps.google.com/?cid=0x0:0xfd8b0dc676195040,
toko bangunan,Toko Bahan Bangunan,Toko Millysurya TOMBATU,"Jl. Tombatu Kali RT.01, Desa Tombatu, Kecamatan Tombatu, Tombatu, Kec. Tombatu, Kabupaten Minahasa Tenggara, Sulawesi Utara","Kabupaten Minahasa Tenggara, Sulawesi Utara",SULAWESI UTARA,,Indonesia,89602010675.0,,,1.0388156,124.6831958,https://maps.google.com/?cid=0x0:0x90ad3317b6415b2e,
toko bangunan,Toko Bahan Bangunan,Tombatu dua tengah jaga IV,"2MXH+FQC, Tombatu Dua Tengah, Kec. Tombatu Utara, Kabupaten Minahasa Tenggara, Sulawesi Utara","Kabupaten Minahasa Tenggara, Sulawesi Utara",SULAWESI UTARA,,Indonesia,,,,1.0486986,124.6793915,https://maps.google.com/?cid=0x0:0x175db0aa1b0e781e,
toko bangunan,Toserba,"Toko Enam - Satu Lianly""""","2MVJ+JJR, Tombatu Dua Tengah, Kec. Tombatu Utara, Kabupaten Minahasa Tenggara, Sulawesi Utara","Kabupaten Minahasa Tenggara, Sulawesi Utara",SULAWESI UTARA,,Indonesia,,,,1.0441128,124.6815275,https://maps.google.com/?cid=0x0:0x2ff1c183616e4120,
toko bangunan,Toko Bahan Bangunan,Material om des,"2MXG+94G, Jl. Raya Silian Jaga 1, Betelan Satu, Kec. Tombatu, Kabupaten Minahasa Tenggara, Sulawesi Utara","Kabupaten Minahasa Tenggara, Sulawesi Utara",SULAWESI UTARA,,Indonesia,,,,1.0484198,124.6754081,https://maps.google.com/?cid=0x0:0xe49411887f7768ca,
toko bangunan,Toko Bahan Bangunan,Infinity Zone,"2MWM+5MP, Tombatu Dua Tengah, Kec. Tombatu Utara, Kabupaten Minahasa Tenggara, Sulawesi Utara","Kabupaten Minahasa Tenggara, Sulawesi Utara",SULAWESI UTARA,,Indonesia,89647770424.0,,,1.045453,124.6841971,https://maps.google.com/?cid=0x0:0x557404556b8d2bee,
toko bangunan,Pemasok Bahan Bangunan,Toko Immanuel,"2PFX+6H9, Towuntu, Kec. Pasan, Kabupaten Minahasa Tenggara, Sulawesi Utara","Kabupaten Minahasa Tenggara, Sulawesi Utara",SULAWESI UTARA,,Indonesia,,,,1.0230472,124.7489763,https://maps.google.com/?cid=0x0:0x9e0cfb47d8a9b5fd,
toko bangunan,Pusat Perbelanjaan,Pasar Rakyat Tombatu,"2MWG+JHF, Unnamed Rd,, Betelan Satu, Minahasa Tenggara, Kabupaten Minahasa Tenggara, Sulawesi Utara","Kabupaten Minahasa Tenggara, Sulawesi Utara",SULAWESI UTARA,,Indonesia,,,,1.0465621,124.6764189,https://maps.google.com/?cid=0x0:0xd20908fe7385f467,
toko bangunan,Toko Bahan Bangunan,KEM Opa Kayl,"2JG8+2J6, Ranoako, Kec. Touluaan Sel., Kabupaten Minahasa Tenggara, Sulawesi Utara","Kabupaten Minahasa Tenggara, Sulawesi Utara",SULAWESI UTARA,,Indonesia,,,,1.025034,124.6165155,https://maps.google.com/?cid=0x0:0x6b3f4b4ce214bbec,
toko bangunan,Komplek perumahan,Home Tombatu,"2MQM+96X, Tombatu, Kec. Tombatu, Kabupaten Minahasa Tenggara, Sulawesi Utara","Kabupaten Minahasa Tenggara, Sulawesi Utara",SULAWESI UTARA,,Indonesia,,,,1.0384986,124.6831099,https://maps.google.com/?cid=0x0:0xf749947a978423f6,
toko bangunan,toko bangunan,Kec. Tombatu Tim.,"Kabupaten Minahasa Tenggara, Sulawesi Utara","Kabupaten Minahasa Tenggara, Sulawesi Utara",SULAWESI UTARA,,Indonesia,,,,1.0260417,124.7260931,https://maps.google.com/?cid=0x0:0xc4583ba933d210d3,
toko bangunan,Toko Bahan Bangunan,Toko RB Tombatu,"2MWG+PJG jaga 4, Tombatu Dua Tengah, Kec. Tombatu, Kabupaten Minahasa Tenggara, Sulawesi Utara","Kabupaten Minahasa Tenggara, Sulawesi Utara",SULAWESI UTARA,,Indonesia,,,,1.0468079,124.6765698,https://maps.google.com/?cid=0x0:0xfd8b0dc676195040,
toko bangunan,Toko Bahan Bangunan,Toko Millysurya TOMBATU,"Jl. Tombatu Kali RT.01, Desa Tombatu, Kecamatan Tombatu, Tombatu, Kec. Tombatu, Kabupaten Minahasa Tenggara, Sulawesi Utara","Kabupaten Minahasa Tenggara, Sulawesi Utara",SULAWESI UTARA,,Indonesia,89602010675.0,,,1.0388156,124.6831958,https://maps.google.com/?cid=0x0:0x90ad3317b6415b2e,
toko bangunan,Pemasok Bahan Bangunan,Toko Immanuel,"2PFX+6H9, Towuntu, Kec. Pasan, Kabupaten Minahasa Tenggara, Sulawesi Utara","Kabupaten Minahasa Tenggara, Sulawesi Utara",SULAWESI UTARA,,Indonesia,,,,1.0230472,124.7489763,https://maps.google.com/?cid=0x0:0x9e0cfb47d8a9b5fd,
toko bangunan,Toko Bahan Bangunan,Toko Bangunan Sumber Mas,"6VJ7+Q9H, Jl. Tondano - Kakas, Timu, Kec. Remboken, Kabupaten Minahasa, Sulawesi Utara","Kabupaten Minahasa, Sulawesi Utara",SULAWESI UTARA,,Indonesia,82310002528.0,,,1.2319396,124.8634961,https://maps.google.com/?cid=0x0:0x15d858ffa7b9cdcc,
toko bangunan,Toko Bahan Bangunan,Toko Bangunan Chiko Matungkas,"FXF9+7QQ, Jl. Sukur - Likupang, Matungkas, Kec. Dimembe, Kabupaten Minahasa Utara, Sulawesi Utara","Kabupaten Minahasa Utara, Sulawesi Utara",SULAWESI UTARA,,Indonesia,85340940004.0,,,1.4732046,124.9694978,https://maps.google.com/?cid=0x0:0xb10a524c66bf6d30,
toko bangunan,Toserba,"Toko Enam - Satu Lianly""""","2MVJ+JJR, Tombatu Dua Tengah, Kec. Tombatu Utara, Kabupaten Minahasa Tenggara, Sulawesi Utara","Kabupaten Minahasa Tenggara, Sulawesi Utara",SULAWESI UTARA,,Indonesia,,,,1.0441128,124.6815275,https://maps.google.com/?cid=0x0:0x2ff1c183616e4120,
toko bangunan,Toko Bahan Bangunan,TOKO SURYA JAYA,"Matungkas, Kec. Dimembe, Kabupaten Minahasa Utara, Sulawesi Utara","Kabupaten Minahasa Utara, Sulawesi Utara",SULAWESI UTARA,,Indonesia,85761113781.0,,,1.4753625,124.9663016,https://maps.google.com/?cid=0x0:0xeb72aa0f66a8a80b,
toko bangunan,Toko Bahan Bangunan,Toko Bangunan Mangimbali,"P9C7+94X, Jl. Ratahan - Kotamobagu, Bangunan Wuwuk, Kec. Modayag Bar., Kabupaten Bolaang Mongondow Timur, Sulawesi Utara","Kabupaten Bolaang Mongondow Timur, Sulawesi Utara",SULAWESI UTARA,,Indonesia,,,,0.720995,124.3628459,https://maps.google.com/?cid=0x0:0x5ebff676b0e909a2,
toko bangunan,Pasar bahan bangunan,Toko Bangunan Wapon Jaya,"Jl. Sea induk, Sea I, Kec. Pineleng, Kabupaten Minahasa, Sulawesi Utara","Kabupaten Minahasa, Sulawesi Utara",SULAWESI UTARA,,Indonesia,85340309099.0,,,1.4291092,124.7997913,https://maps.google.com/?cid=0x0:0x2216e5af37ff6b7a,
toko bangunan,Toko Bahan Bangunan,Toko bangunan,"5R5Q+J2W, Toraget, Kec. Langowan Utara, Kabupaten Minahasa, Sulawesi Utara","Kabupaten Minahasa, Sulawesi Utara",SULAWESI UTARA,,Indonesia,82155762921.0,,,1.1591034,124.8375932,https://maps.google.com/?cid=0x0:0x5ffc28d1b23148c6,
toko bangunan,Toko Bahan Bangunan,TB.MERIBA (Toko Bangunan),"7WX6+4XP, Taler, Tondano Tim., Kabupaten Minahasa, Sulawesi Utara","Kabupaten Minahasa, Sulawesi Utara",SULAWESI UTARA,,Indonesia,85696259199.0,,,1.2978375,124.9124531,https://maps.google.com/?cid=0x0:0x92ba361f80294412,
toko bangunan,Toko Bahan Bangunan,Toko Bangunan Dan Meubel SUMBER REJEKI,"XQ4X+624, Jl. Ratahan - Kotamobagu, Ponosakan Indah, Kec. Belang, Kabupaten Minahasa Tenggara, Sulawesi Utara 95997","Jl. Ratahan - Kotamobagu, Ponosakan Indah, Kec. Belang, Kabupaten Minahasa Tenggara",SULAWESI UTARA,95997,Indonesia,82259666230.0,,,0.9555108,124.7975711,https://maps.google.com/?cid=0x0:0x68d8a3970b96d48e,
toko bangunan,Toko Bahan Bangunan,Toko Bangunan Tandengan,"Jl. Tondano - Kakas, Tandengan, Kec. Eris, Kabupaten Minahasa, Sulawesi Utara","Kabupaten Minahasa, Sulawesi Utara",SULAWESI UTARA,,Indonesia,,,,1.2356425,124.9243613,https://maps.google.com/?cid=0x0:0x5da871fb5996e1d4,
toko bangunan,Toko Bahan Bangunan,Toko.Multi Bangunan,"Kopandakan I, Kec. Kotamobagu Sel., Kota Kotamobagu, Sulawesi Utara","Kota Kotamobagu, Sulawesi Utara",SULAWESI UTARA,,Indonesia,,,,0.7060639,124.2842349,https://maps.google.com/?cid=0x0:0x906b99c88c2df6f6,
toko bangunan,Toko Bahan Bangunan,Toko Cahaya Timur,"FV62+WWC, Jl. Tololiu Supit, Tingkulu, Kec. Wanea, Kota Manado, Sulawesi Utara","Kota Manado, Sulawesi Utara",SULAWESI UTARA,,Indonesia,431859119.0,,,1.4623046,124.8522769,https://maps.google.com/?cid=0x0:0x9815d88b6c426dec,
toko bangunan,Toko Perlengkapan Rumah,UD. Josua Supplier,"Jl. Raya Liwutung-Molompar (Perbatasan Tolombukan barat, Molompar Utara, Kec. Pasan, Kabupaten Minahasa Tenggara, Sulawesi Utara","Kabupaten Minahasa Tenggara, Sulawesi Utara",SULAWESI UTARA,,Indonesia,82192560040.0,,,1.0231848,124.7382067,https://maps.google.com/?cid=0x0:0x3e10c0ed7a02441f,
toko bangunan,Toko Bahan Bangunan,Toko Tuama RR,"FXGC+676 Jaga 7, Matungkas, Kec. Dimembe, Kabupaten Minahasa Utara, Sulawesi Utara","Kabupaten Minahasa Utara, Sulawesi Utara",SULAWESI UTARA,,Indonesia,,,,1.4755297,124.9706454,https://maps.google.com/?cid=0x0:0xf70291edba8cd4ca,
toko bangunan,Pemasok Bahan Bangunan,Toko Bangunan Cendrawasih,"Taler, Tondano Tim., Kabupaten Minahasa, Sulawesi Utara","Kabupaten Minahasa, Sulawesi Utara",SULAWESI UTARA,,Indonesia,81343561691.0,,,1.2984892,124.9127644,https://maps.google.com/?cid=0x0:0x563050a595f334a3,
toko bangunan,Pemasok Bahan Bangunan,Walian Jaya,"8R5P+QJ5, Walian, Kec. Tomohon Sel., Kota Tomohon, Sulawesi Utara","Kota Tomohon, Sulawesi Utara",SULAWESI UTARA,,Indonesia,81340271107.0,,,1.3145339,124.8379906,https://maps.google.com/?cid=0x0:0x5da98b66d969cf7,
toko bangunan,Toko Bahan Bangunan,Tombatu dua tengah jaga IV,"2MXH+FQC, Tombatu Dua Tengah, Kec. Tombatu Utara, Kabupaten Minahasa Tenggara, Sulawesi Utara","Kabupaten Minahasa Tenggara, Sulawesi Utara",SULAWESI UTARA,,Indonesia,,,,1.0486986,124.6793915,https://maps.google.com/?cid=0x0:0x175db0aa1b0e781e,
toko bangunan,Toko Elektronik,JABAR SERVIES ELECTRONI OBAY,"2PHF+QCX, Mundung, Kec. Tombatu Tim., Kabupaten Minahasa Tenggara, Sulawesi Utara","Kabupaten Minahasa Tenggara, Sulawesi Utara",SULAWESI UTARA,,Indonesia,85240390542.0,,,1.0294896,124.7236165,https://maps.google.com/?cid=0x0:0x84cb3586ec3363,
toko bangunan,Toko Bahan Bangunan,Toko Bangunan Mega Karya Jaya,"Unnamed Road, Kinali, Kec. Kawangkoan, Kabupaten Minahasa, Sulawesi Utara","Kabupaten Minahasa, Sulawesi Utara",SULAWESI UTARA,,Indonesia,82348184787.0,,,1.199471,124.7916845,https://maps.google.com/?cid=0x0:0xdcdea5cb2be0bd09,
toko bangunan,Toko Bahan Bangunan,Material om des,"2MXG+94G, Jl. Raya Silian Jaga 1, Betelan Satu, Kec. Tombatu, Kabupaten Minahasa Tenggara, Sulawesi Utara","Kabupaten Minahasa Tenggara, Sulawesi Utara",SULAWESI UTARA,,Indonesia,,,,1.0484198,124.6754081,https://maps.google.com/?cid=0x0:0xe49411887f7768ca,
toko bangunan,toko bangunan,Tombatu timur,"2PGG+CC3, Molompar Dua Sel., Kec. Tombatu Tim., Kabupaten Minahasa Tenggara, Sulawesi Utara","Kabupaten Minahasa Tenggara, Sulawesi Utara",SULAWESI UTARA,,Indonesia,,,,1.0260171,124.7260503,https://maps.google.com/?cid=0x0:0xf8d31392a556208d,
toko bangunan,toko bangunan,Kec. Tombatu Utara,"Kabupaten Minahasa Tenggara, Sulawesi Utara","Kabupaten Minahasa Tenggara, Sulawesi Utara",SULAWESI UTARA,,Indonesia,,,,1.0435986,124.6869059,https://maps.google.com/?cid=0x0:0x3786e15772770449,
toko bangunan,Toko Bahan Bangunan,Toko RB Tombatu,"2MWG+PJG jaga 4, Tombatu Dua Tengah, Kec. Tombatu, Kabupaten Minahasa Tenggara, Sulawesi Utara","Kabupaten Minahasa Tenggara, Sulawesi Utara",SULAWESI UTARA,,Indonesia,,,,1.0468079,124.6765698,https://maps.google.com/?cid=0x0:0xfd8b0dc676195040,
toko bangunan,Toserba,Toko Enam Satu,"Jl. Amurang-Ratahan, Tombatu Dua, Kec. Tombatu Utara, Kabupaten Minahasa Tenggara, Sulawesi Utara","Kabupaten Minahasa Tenggara, Sulawesi Utara",SULAWESI UTARA,,Indonesia,85394307959.0,,,1.0444018,124.6853517,https://maps.google.com/?cid=0x0:0xa8a9b8962a69e66e,
toko bangunan,Toserba,"Toko Enam - Satu Lianly""""","2MVJ+JJR, Tombatu Dua Tengah, Kec. Tombatu Utara, Kabupaten Minahasa Tenggara, Sulawesi Utara","Kabupaten Minahasa Tenggara, Sulawesi Utara",SULAWESI UTARA,,Indonesia,,,,1.0441128,124.6815275,https://maps.google.com/?cid=0x0:0x2ff1c183616e4120,
toko bangunan,Toko Bahan Bangunan,Toko Bangunan Chiko Matungkas,"FXF9+7QQ, Jl. Sukur - Likupang, Matungkas, Kec. Dimembe, Kabupaten Minahasa Utara, Sulawesi Utara","Kabupaten Minahasa Utara, Sulawesi Utara",SULAWESI UTARA,,Indonesia,85340940004.0,,,1.4732046,124.9694978,https://maps.google.com/?cid=0x0:0xb10a524c66bf6d30,
toko bangunan,Toko Bahan Bangunan,TOKO SURYA JAYA,"Matungkas, Kec. Dimembe, Kabupaten Minahasa Utara, Sulawesi Utara","Kabupaten Minahasa Utara, Sulawesi Utara",SULAWESI UTARA,,Indonesia,85761113781.0,,,1.4753625,124.9663016,https://maps.google.com/?cid=0x0:0xeb72aa0f66a8a80b,
toko bangunan,Toko Bahan Bangunan,Material om des,"2MXG+94G, Jl. Raya Silian Jaga 1, Betelan Satu, Kec. Tombatu, Kabupaten Minahasa Tenggara, Sulawesi Utara","Kabupaten Minahasa Tenggara, Sulawesi Utara",SULAWESI UTARA,,Indonesia,,,,1.0484198,124.6754081,https://maps.google.com/?cid=0x0:0xe49411887f7768ca,
toko bangunan,Pemasok Bahan Bangunan,Toko Immanuel,"2PFX+6H9, Towuntu, Kec. Pasan, Kabupaten Minahasa Tenggara, Sulawesi Utara","Kabupaten Minahasa Tenggara, Sulawesi Utara",SULAWESI UTARA,,Indonesia,,,,1.0230472,124.7489763,https://maps.google.com/?cid=0x0:0x9e0cfb47d8a9b5fd,
toko bangunan,toko bangunan,Kec. Touluaan,"Kabupaten Minahasa Tenggara, Sulawesi Utara","Kabupaten Minahasa Tenggara, Sulawesi Utara",SULAWESI UTARA,,Indonesia,,,,1.0561242,124.6513459,https://maps.google.com/?cid=0x0:0xb9e36ebc0d0281f7,
toko bangunan,Toko Bahan Bangunan,Toko Permata Bangunan,"Mapanget, Kec. Talawaan, Kabupaten Minahasa Utara, Sulawesi Utara","Kabupaten Minahasa Utara, Sulawesi Utara",SULAWESI UTARA,,Indonesia,85761113911.0,,,1.5353249,124.9290076,https://maps.google.com/?cid=0x0:0xf49bcf0b466cfbd5,
toko bangunan,Toko Bahan Bangunan,KEM Opa Kayl,"2JG8+2J6, Ranoako, Kec. Touluaan Sel., Kabupaten Minahasa Tenggara, Sulawesi Utara","Kabupaten Minahasa Tenggara, Sulawesi Utara",SULAWESI UTARA,,Indonesia,,,,1.025034,124.6165155,https://maps.google.com/?cid=0x0:0x6b3f4b4ce214bbec,
toko bangunan,Toko Bahan Bangunan,TOKO SURYA JAYA,"Matungkas, Kec. Dimembe, Kabupaten Minahasa Utara, Sulawesi Utara","Kabupaten Minahasa Utara, Sulawesi Utara",SULAWESI UTARA,,Indonesia,85761113781.0,,,1.4753625,124.9663016,https://maps.google.com/?cid=0x0:0xeb72aa0f66a8a80b,
toko bangunan,Toko Bahan Bangunan,Toko RB Tombatu,"2MWG+PJG jaga 4, Tombatu Dua Tengah, Kec. Tombatu, Kabupaten Minahasa Tenggara, Sulawesi Utara","Kabupaten Minahasa Tenggara, Sulawesi Utara",SULAWESI UTARA,,Indonesia,,,,1.0468079,124.6765698,https://maps.google.com/?cid=0x0:0xfd8b0dc676195040,
toko bangunan,Pasar bahan bangunan,Toko Bangunan Wapon Jaya,"Jl. Sea induk, Sea I, Kec. Pineleng, Kabupaten Minahasa, Sulawesi Utara","Kabupaten Minahasa, Sulawesi Utara",SULAWESI UTARA,,Indonesia,85340309099.0,,,1.4291092,124.7997913,https://maps.google.com/?cid=0x0:0x2216e5af37ff6b7a,
toko bangunan,Toko Bahan Bangunan,Toko Bangunan Reliana Kayuuwi Satu,"6Q4F+5W9, Jl. Kayuuwi, Uner, Kec. Kawangkoan Utara, Kabupaten Minahasa, Sulawesi Utara","Kabupaten Minahasa, Sulawesi Utara",SULAWESI UTARA,,Indonesia,,,,1.2054017,124.7748647,https://maps.google.com/?cid=0x0:0x2d54d773fb75e204,
toko bangunan,Toko Bahan Bangunan,Toko Bangunan Chiko Matungkas,"FXF9+7QQ, Jl. Sukur - Likupang, Matungkas, Kec. Dimembe, Kabupaten Minahasa Utara, Sulawesi Utara","Kabupaten Minahasa Utara, Sulawesi Utara",SULAWESI UTARA,,Indonesia,85340940004.0,,,1.4732046,124.9694978,https://maps.google.com/?cid=0x0:0xb10a524c66bf6d30,
toko bangunan,Toko Bahan Bangunan,Triberkat Toko Bangunan,"FV2M+H3P, Sawangan, Kec. Tombulu, Kabupaten Minahasa, Sulawesi Utara","Kabupaten Minahasa, Sulawesi Utara",SULAWESI UTARA,,Indonesia,,,,1.4516151,124.8823958,https://maps.google.com/?cid=0x0:0xb1724ee606aad0ec,
toko bangunan,Kantor Perusahaan,CV Bangunan Karya Mandiri,"Jl. Trans Sulawesi No.mor 88, Tateli, Kec. Mandolang, Kabupaten Minahasa, Sulawesi Utara 95661","Tateli, Kec. Mandolang, Kabupaten Minahasa",SULAWESI UTARA,95661,Indonesia,81389898887.0,,,1.4418019,124.7530328,https://maps.google.com/?cid=0x0:0x8c3a90a3b9407031,
toko bangunan,Toko Bahan Bangunan,Toko Bangunan Alden,"Jl. SBY No.70, Sukur, Kec. Airmadidi, Kabupaten Minahasa Utara, Sulawesi Utara","Kabupaten Minahasa Utara, Sulawesi Utara",SULAWESI UTARA,,Indonesia,82366436061.0,,,1.4611442,124.9666508,https://maps.google.com/?cid=0x0:0xc92a017c991e4486,
toko bangunan,Toko Bahan Bangunan,Toko bangunan,"5R5Q+J2W, Toraget, Kec. Langowan Utara, Kabupaten Minahasa, Sulawesi Utara","Kabupaten Minahasa, Sulawesi Utara",SULAWESI UTARA,,Indonesia,82155762921.0,,,1.1591034,124.8375932,https://maps.google.com/?cid=0x0:0x5ffc28d1b23148c6,
toko bangunan,Toko Bahan Bangunan,Toko bangunan Rejeki Jaya,"CXX5+7G4, Jl. Sukur - Likupang, Sukur, Kec. Airmadidi, Kabupaten Minahasa Utara, Sulawesi Utara","Kabupaten Minahasa Utara, Sulawesi Utara",SULAWESI UTARA,,Indonesia,811431341.0,,,1.4481495,124.9588422,https://maps.google.com/?cid=0x0:0x30a202e84321b74d,
toko bangunan,Toko Bahan Bangunan,TOKO BANGUNAN RIZKY BADAS,"Kawangkoan, Kec. Kalawat, Kabupaten Minahasa Utara, Sulawesi Utara","Kabupaten Minahasa Utara, Sulawesi Utara",SULAWESI UTARA,,Indonesia,81330119059.0,,,1.4590841,124.9327088,https://maps.google.com/?cid=0x0:0x99b35880d1e58868,
toko bangunan,Kios,Toko Bangunan dan Sembako,"FW88+HJJ, Watutumou II, Kec. Kalawat, Kabupaten Minahasa Utara, Sulawesi Utara","Kabupaten Minahasa Utara, Sulawesi Utara",SULAWESI UTARA,,Indonesia,87773953145.0,,,1.4664691,124.9165212,https://maps.google.com/?cid=0x0:0x21990419e38de381,
toko bangunan,Toko Bahan Bangunan,Toko bangunan LIKUPANG JAYA,"M395+QRX, Likupang II, Kec. Likupang Tim., Kabupaten Minahasa Utara, Sulawesi Utara","Kabupaten Minahasa Utara, Sulawesi Utara",SULAWESI UTARA,,Indonesia,,,,1.6694616,125.0597135,https://maps.google.com/?cid=0x0:0x7aece044884761f5,
toko bangunan,Toko Bahan Bangunan,Toko Tuama RR,"FXGC+676 Jaga 7, Matungkas, Kec. Dimembe, Kabupaten Minahasa Utara, Sulawesi Utara","Kabupaten Minahasa Utara, Sulawesi Utara",SULAWESI UTARA,,Indonesia,,,,1.4755297,124.9706454,https://maps.google.com/?cid=0x0:0xf70291edba8cd4ca,
toko bangunan,Toko,Toko Bangunan - Jein,"3R83+96M, Jl. Soekarno, Lowu Utara, Kec. Ratahan, Kabupaten Minahasa Tenggara, Sulawesi Utara","Kabupaten Minahasa Tenggara, Sulawesi Utara",SULAWESI UTARA,,Indonesia,,,,1.0659654,124.8030379,https://maps.google.com/?cid=0x0:0x64a7ba3a8c986863,
toko bangunan,Toserba,Toko Enam Satu,"Jl. Amurang-Ratahan, Tombatu Dua, Kec. Tombatu Utara, Kabupaten Minahasa Tenggara, Sulawesi Utara","Kabupaten Minahasa Tenggara, Sulawesi Utara",SULAWESI UTARA,,Indonesia,85394307959.0,,,1.0444018,124.6853517,https://maps.google.com/?cid=0x0:0xa8a9b8962a69e66e,
toko bangunan,Toko Bahan Bangunan,Sumber Cahaya,"Waleh Ure, Toraget, Kec. Langowan Tim., Kabupaten Minahasa, Sulawesi Utara","Kabupaten Minahasa, Sulawesi Utara",SULAWESI UTARA,,Indonesia,431373202.0,,,1.1582928,124.836678,https://maps.google.com/?cid=0x0:0x2ff201e5a0d0a4dc,
toko bangunan,Toko Bahan Bangunan,Toko Millysurya TOMBATU,"Jl. Tombatu Kali RT.01, Desa Tombatu, Kecamatan Tombatu, Tombatu, Kec. Tombatu, Kabupaten Minahasa Tenggara, Sulawesi Utara","Kabupaten Minahasa Tenggara, Sulawesi Utara",SULAWESI UTARA,,Indonesia,89602010675.0,,,1.0388156,124.6831958,https://maps.google.com/?cid=0x0:0x90ad3317b6415b2e,
toko bangunan,Toko Bahan Bangunan,CERIA Bahan Bangunan,"Tokin Baru, Kec. Motoling Tim., Kabupaten Minahasa Selatan, Sulawesi Utara","Kabupaten Minahasa Selatan, Sulawesi Utara",SULAWESI UTARA,,Indonesia,82259514549.0,,,1.0771398,124.5101005,https://maps.google.com/?cid=0x0:0xdad60601aca07b8,
toko bangunan,Toko Bahan Bangunan,Toko Bangunan Rajawali,"7JPX+58M, Lelema, Kec. Tumpaan, Kabupaten Minahasa Selatan, Sulawesi Utara","Kabupaten Minahasa Selatan, Sulawesi Utara",SULAWESI UTARA,,Indonesia,,,,1.2854645,124.6482886,https://maps.google.com/?cid=0x0:0xad92ba0cc7ba2581,
toko bangunan,Toko,toko bangunan hj muhlis,"XQ2W+V7R, Jl. Ratahan - Kotamobagu, Ponosakan Indah, Kec. Belang, Kabupaten Minahasa Tenggara, Sulawesi Utara 95997","Jl. Ratahan - Kotamobagu, Ponosakan Indah, Kec. Belang, Kabupaten Minahasa Tenggara",SULAWESI UTARA,95997,Indonesia,,,,0.9522386,124.7956411,https://maps.google.com/?cid=0x0:0xa87b203b7e160b19,
toko bangunan,Toserba,"Toko Enam - Satu Lianly""""","2MVJ+JJR, Tombatu Dua Tengah, Kec. Tombatu Utara, Kabupaten Minahasa Tenggara, Sulawesi Utara","Kabupaten Minahasa Tenggara, Sulawesi Utara",SULAWESI UTARA,,Indonesia,,,,1.0441128,124.6815275,https://maps.google.com/?cid=0x0:0x2ff1c183616e4120,
toko bangunan,Toko Bahan Bangunan,Toko Dua Jaya Bangunan,"Jaga X Cozy Home, Kios C - 2, Kapitu, Kec. Amurang, Kabupaten Minahasa Selatan, Sulawesi Utara 95955","Kios C - 2, Kapitu, Kec. Amurang, Kabupaten Minahasa Selatan",SULAWESI UTARA,95955,Indonesia,8124416363.0,,,1.1898544,124.5240643,https://maps.google.com/?cid=0x0:0xa1398874177562c1,
toko bangunan,Toko,TOKO BANGUNAN SINAR RATATOTOK,"Ratatotok Dua, Kec. Ratatotok, Kabupaten Minahasa Tenggara, Sulawesi Utara 95997","Kec. Ratatotok, Kabupaten Minahasa Tenggara",SULAWESI UTARA,95997,Indonesia,81242418185.0,,,0.8683082,124.7007802,https://maps.google.com/?cid=0x0:0x5c52589d2559d075,
toko bangunan,toko bangunan,Kec. Touluaan Sel.,"Kabupaten Minahasa Tenggara, Sulawesi Utara","Kabupaten Minahasa Tenggara, Sulawesi Utara",SULAWESI UTARA,,Indonesia,,,,1.0264722,124.5859669,https://maps.google.com/?cid=0x0:0xe1cb2698c83351a2,
toko bangunan,Toko Bahan Bangunan,KEM Opa Kayl,"2JG8+2J6, Ranoako, Kec. Touluaan Sel., Kabupaten Minahasa Tenggara, Sulawesi Utara","Kabupaten Minahasa Tenggara, Sulawesi Utara",SULAWESI UTARA,,Indonesia,,,,1.025034,124.6165155,https://maps.google.com/?cid=0x0:0x6b3f4b4ce214bbec,
toko bangunan,Pasar bahan bangunan,Toko Bangunan Wapon Jaya,"Jl. Sea induk, Sea I, Kec. Pineleng, Kabupaten Minahasa, Sulawesi Utara","Kabupaten Minahasa, Sulawesi Utara",SULAWESI UTARA,,Indonesia,85340309099.0,,,1.4291092,124.7997913,https://maps.google.com/?cid=0x0:0x2216e5af37ff6b7a,
toko bangunan,Pemasok Bahan Bangunan,Toko Immanuel,"2PFX+6H9, Towuntu, Kec. Pasan, Kabupaten Minahasa Tenggara, Sulawesi Utara","Kabupaten Minahasa Tenggara, Sulawesi Utara",SULAWESI UTARA,,Indonesia,,,,1.0230472,124.7489763,https://maps.google.com/?cid=0x0:0x9e0cfb47d8a9b5fd,
toko bangunan,Toko Bahan Bangunan,Triberkat Toko Bangunan,"FV2M+H3P, Sawangan, Kec. Tombulu, Kabupaten Minahasa, Sulawesi Utara","Kabupaten Minahasa, Sulawesi Utara",SULAWESI UTARA,,Indonesia,,,,1.4516151,124.8823958,https://maps.google.com/?cid=0x0:0xb1724ee606aad0ec,
toko bangunan,Toko Bahan Bangunan,Toko Bangunan Rajawali,"7JPX+58M, Lelema, Kec. Tumpaan, Kabupaten Minahasa Selatan, Sulawesi Utara","Kabupaten Minahasa Selatan, Sulawesi Utara",SULAWESI UTARA,,Indonesia,,,,1.2854645,124.6482886,https://maps.google.com/?cid=0x0:0xad92ba0cc7ba2581,
toko bangunan,Toko Bahan Bangunan,CERIA Bahan Bangunan,"Tokin Baru, Kec. Motoling Tim., Kabupaten Minahasa Selatan, Sulawesi Utara","Kabupaten Minahasa Selatan, Sulawesi Utara",SULAWESI UTARA,,Indonesia,82259514549.0,,,1.0771398,124.5101005,https://maps.google.com/?cid=0x0:0xdad60601aca07b8,
toko bangunan,Toko Bahan Bangunan,Toko Bangunan Chiko Matungkas,"FXF9+7QQ, Jl. Sukur - Likupang, Matungkas, Kec. Dimembe, Kabupaten Minahasa Utara, Sulawesi Utara","Kabupaten Minahasa Utara, Sulawesi Utara",SULAWESI UTARA,,Indonesia,85340940004.0,,,1.4732046,124.9694978,https://maps.google.com/?cid=0x0:0xb10a524c66bf6d30,
toko bangunan,Kantor Perusahaan,CV Bangunan Karya Mandiri,"Jl. Trans Sulawesi No.mor 88, Tateli, Kec. Mandolang, Kabupaten Minahasa, Sulawesi Utara 95661","Tateli, Kec. Mandolang, Kabupaten Minahasa",SULAWESI UTARA,95661,Indonesia,81389898887.0,,,1.4418019,124.7530328,https://maps.google.com/?cid=0x0:0x8c3a90a3b9407031,
toko bangunan,Kios,Toko Bangunan dan Sembako,"FW88+HJJ, Watutumou II, Kec. Kalawat, Kabupaten Minahasa Utara, Sulawesi Utara","Kabupaten Minahasa Utara, Sulawesi Utara",SULAWESI UTARA,,Indonesia,87773953145.0,,,1.4664691,124.9165212,https://maps.google.com/?cid=0x0:0x21990419e38de381,
toko bangunan,Toko Bahan Bangunan,TOKO BANGUNAN RIZKY BADAS,"Kawangkoan, Kec. Kalawat, Kabupaten Minahasa Utara, Sulawesi Utara","Kabupaten Minahasa Utara, Sulawesi Utara",SULAWESI UTARA,,Indonesia,81330119059.0,,,1.4590841,124.9327088,https://maps.google.com/?cid=0x0:0x99b35880d1e58868,
toko bangunan,Toko,toko bangunan hj muhlis,"XQ2W+V7R, Jl. Ratahan - Kotamobagu, Ponosakan Indah, Kec. Belang, Kabupaten Minahasa Tenggara, Sulawesi Utara 95997","Jl. Ratahan - Kotamobagu, Ponosakan Indah, Kec. Belang, Kabupaten Minahasa Tenggara",SULAWESI UTARA,95997,Indonesia,,,,0.9522386,124.7956411,https://maps.google.com/?cid=0x0:0xa87b203b7e160b19,
toko bangunan,Toko Bahan Bangunan,Toko Tuama RR,"FXGC+676 Jaga 7, Matungkas, Kec. Dimembe, Kabupaten Minahasa Utara, Sulawesi Utara","Kabupaten Minahasa Utara, Sulawesi Utara",SULAWESI UTARA,,Indonesia,,,,1.4755297,124.9706454,https://maps.google.com/?cid=0x0:0xf70291edba8cd4ca,
toko bangunan,Toko Bahan Bangunan,Toko RB Tombatu,"2MWG+PJG jaga 4, Tombatu Dua Tengah, Kec. Tombatu, Kabupaten Minahasa Tenggara, Sulawesi Utara","Kabupaten Minahasa Tenggara, Sulawesi Utara",SULAWESI UTARA,,Indonesia,,,,1.0468079,124.6765698,https://maps.google.com/?cid=0x0:0xfd8b0dc676195040,
toko bangunan,Toko,Jual bahan bangunan,"Jl. Tahun Depan No.133, Kumelembuai I, Kec. Kumelembuai, Kabupaten Minahasa Selatan, Sulawesi Utara","Kabupaten Minahasa Selatan, Sulawesi Utara",SULAWESI UTARA,,Indonesia,81242035564.0,,,1.088384,124.493803,https://maps.google.com/?cid=0x0:0x9235c45c6b8b120a,
toko bangunan,Toko Bahan Bangunan,Toko.Multi Bangunan,"Kopandakan I, Kec. Kotamobagu Sel., Kota Kotamobagu, Sulawesi Utara","Kota Kotamobagu, Sulawesi Utara",SULAWESI UTARA,,Indonesia,,,,0.7060639,124.2842349,https://maps.google.com/?cid=0x0:0x906b99c88c2df6f6,
toko bangunan,Toko Bahan Bangunan,Toko Cahaya Timur,"FV62+WWC, Jl. Tololiu Supit, Tingkulu, Kec. Wanea, Kota Manado, Sulawesi Utara","Kota Manado, Sulawesi Utara",SULAWESI UTARA,,Indonesia,431859119.0,,,1.4623046,124.8522769,https://maps.google.com/?cid=0x0:0x9815d88b6c426dec,
toko bangunan,Toko Bahan Bangunan,Toko bangunan LIKUPANG JAYA,"M395+QRX, Likupang II, Kec. Likupang Tim., Kabupaten Minahasa Utara, Sulawesi Utara","Kabupaten Minahasa Utara, Sulawesi Utara",SULAWESI UTARA,,Indonesia,,,,1.6694616,125.0597135,https://maps.google.com/?cid=0x0:0x7aece044884761f5,
toko bangunan,Toko Bahan Bangunan,Toko bangunan,"5R5Q+J2W, Toraget, Kec. Langowan Utara, Kabupaten Minahasa, Sulawesi Utara","Kabupaten Minahasa, Sulawesi Utara",SULAWESI UTARA,,Indonesia,82155762921.0,,,1.1591034,124.8375932,https://maps.google.com/?cid=0x0:0x5ffc28d1b23148c6,
toko bangunan,Toko Bahan Bangunan,Toko Bangunan HJM Kaweruan,"J22C+G3G, Jl. Airmadidi-Likupang, Kaweruan, Kec. Likupang Sel., Kabupaten Minahasa Utara, Sulawesi Utara","Kabupaten Minahasa Utara, Sulawesi Utara",SULAWESI UTARA,,Indonesia,85747398552.0,,,1.6013088,125.0201892,https://maps.google.com/?cid=0x0:0xf45518c24e5ac7ad,
toko bangunan,Toko Bahan Bangunan,Toko Bangunan Sinar Sentosa,"Jl. Trans Sulawesi No.3, Tateli, Kec. Mandolang, Kabupaten Minahasa, Sulawesi Utara 95661","Tateli, Kec. Mandolang, Kabupaten Minahasa",SULAWESI UTARA,95661,Indonesia,8111015839.0,,,1.4412562,124.7522365,https://maps.google.com/?cid=0x0:0xbf48d72990e96e55,
toko bangunan,Toko Bahan Bangunan,Toko Bangunan Reliana Kayuuwi Satu,"6Q4F+5W9, Jl. Kayuuwi, Uner, Kec. Kawangkoan Utara, Kabupaten Minahasa, Sulawesi Utara","Kabupaten Minahasa, Sulawesi Utara",SULAWESI UTARA,,Indonesia,,,,1.2054017,124.7748647,https://maps.google.com/?cid=0x0:0x2d54d773fb75e204,
toko bangunan,Toko Bahan Bangunan,Toko Permata Bangunan,"Mapanget, Kec. Talawaan, Kabupaten Minahasa Utara, Sulawesi Utara","Kabupaten Minahasa Utara, Sulawesi Utara",SULAWESI UTARA,,Indonesia,85761113911.0,,,1.5353249,124.9290076,https://maps.google.com/?cid=0x0:0xf49bcf0b466cfbd5,
toko bangunan,Toserba,"Toko Enam - Satu Lianly""""","2MVJ+JJR, Tombatu Dua Tengah, Kec. Tombatu Utara, Kabupaten Minahasa Tenggara, Sulawesi Utara","Kabupaten Minahasa Tenggara, Sulawesi Utara",SULAWESI UTARA,,Indonesia,,,,1.0441128,124.6815275,https://maps.google.com/?cid=0x0:0x2ff1c183616e4120,
toko bangunan,Toko Bahan Bangunan,Toko Millysurya TOMBATU,"Jl. Tombatu Kali RT.01, Desa Tombatu, Kecamatan Tombatu, Tombatu, Kec. Tombatu, Kabupaten Minahasa Tenggara, Sulawesi Utara","Kabupaten Minahasa Tenggara, Sulawesi Utara",SULAWESI UTARA,,Indonesia,89602010675.0,,,1.0388156,124.6831958,https://maps.google.com/?cid=0x0:0x90ad3317b6415b2e,
toko bangunan,Toko Bahan Bangunan,Toko Bangunan Sinar Berkat,"Warembungan, Kec. Pineleng, Kabupaten Minahasa, Sulawesi Utara","Kabupaten Minahasa, Sulawesi Utara",SULAWESI UTARA,,Indonesia,82259753525.0,,,1.417257,124.821793,https://maps.google.com/?cid=0x0:0x9454d0623758efea,
toko bangunan,Toserba,Toko Enam Satu,"Jl. Amurang-Ratahan, Tombatu Dua, Kec. Tombatu Utara, Kabupaten Minahasa Tenggara, Sulawesi Utara","Kabupaten Minahasa Tenggara, Sulawesi Utara",SULAWESI UTARA,,Indonesia,85394307959.0,,,1.0444018,124.6853517,https://maps.google.com/?cid=0x0:0xa8a9b8962a69e66e,
hardware store,Toko Bahan Bangunan,Toko Bangunan Dan Meubel SUMBER REJEKI,"XQ4X+624, Jl. Ratahan - Kotamobagu, Ponosakan Indah, Kec. Belang, Kabupaten Minahasa Tenggara, Sulawesi Utara 95997","Jl. Ratahan - Kotamobagu, Ponosakan Indah, Kec. Belang, Kabupaten Minahasa Tenggara",SULAWESI UTARA,95997,Indonesia,82259666230.0,,,0.9555108,124.7975711,https://maps.google.com/?cid=0x0:0x68d8a3970b96d48e,
hardware store,Toko,toko bangunan hj muhlis,"XQ2W+V7R, Jl. Ratahan - Kotamobagu, Ponosakan Indah, Kec. Belang, Kabupaten Minahasa Tenggara, Sulawesi Utara 95997","Jl. Ratahan - Kotamobagu, Ponosakan Indah, Kec. Belang, Kabupaten Minahasa Tenggara",SULAWESI UTARA,95997,Indonesia,,,,0.9522386,124.7956411,https://maps.google.com/?cid=0x0:0xa87b203b7e160b19,
hardware store,Toko Bahan Bangunan,Hardware Clothing,"Rukan Gading Indah, Blok V9-12, RT.18/RW.8, Klp. Gading Bar., Kec. Klp. Gading, Jkt Utara, Daerah Khusus Ibukota Jakarta 12930","Blok V9-12, RT.18/RW.8, Klp. Gading Bar., Kec. Klp. Gading, Jkt Utara",SULAWESI UTARA,12930,Indonesia,2125539858.0,,,-6.149231,106.896942,https://maps.google.com/?cid=0x0:0x488fdb7f986cd389,
hardware store,hardware store,Kec. Pasan,"Kabupaten Minahasa Tenggara, Sulawesi Utara","Kabupaten Minahasa Tenggara, Sulawesi Utara",SULAWESI UTARA,,Indonesia,,,,1.022748,124.7482665,https://maps.google.com/?cid=0x0:0xcf32b53a07d5d0fc,
hardware store,Toko,Toko GRAND HARDWARE,"CXJH+22P, Sarongsong I, Kec. Airmadidi, Kabupaten Minahasa Utara, Sulawesi Utara","Kabupaten Minahasa Utara, Sulawesi Utara",SULAWESI UTARA,,Indonesia,,,,1.4300932,124.9775741,https://maps.google.com/?cid=0x0:0xd5bea6e4e94329b1,
hardware store,Toko Bahan Bangunan,Grand Hardware,"C4PC+9FV, Jl. Raya Manado - Bitung, Girian Weru Dua, Kec. Girian, Kota Bitung, Sulawesi Utara 95864","Jl. Raya Manado - Bitung, Girian Weru Dua, Kec. Girian, Kota Bitung",SULAWESI UTARA,95864,Indonesia,,,,1.4359832,125.121166,https://maps.google.com/?cid=0x0:0x19a823dd6e850cfd,
hardware store,Toko Perlengkapan Rumah,Grand Hardware,"Komplek Marina Plaza Blok B No. 7-10, Jl. Piere Tendean Boulevard,manado, Manado, Sulawesi Utara, 95111","Jl. Piere Tendean Boulevard,manado, Manado",SULAWESI UTARA,95111,Indonesia,85255443510.0,,,1.4924543,124.838346,https://maps.google.com/?cid=0x0:0x513c63d19209ca5,
hardware store,Toko Perlengkapan Rumah,AZKO Living Plaza Manado,"Jl. Yos Sudarso, Paal Dua, Kec. Paal Dua, Kota Manado, Sulawesi Utara","Kota Manado, Sulawesi Utara",SULAWESI UTARA,,Indonesia,8551500582.0,,,1.4864897,124.861022,https://maps.google.com/?cid=0x0:0x5c0e728a163b8c35,
hardware store,Minimarket,Toko Pelita,"2PGG+39R, Molompar Dua Sel., Kec. Tombatu Tim., Kabupaten Minahasa Tenggara, Sulawesi Utara","Kabupaten Minahasa Tenggara, Sulawesi Utara",SULAWESI UTARA,,Indonesia,,,,1.0252264,124.7259036,https://maps.google.com/?cid=0x0:0xe7b945a5cdacda03,
hardware store,Pusat Perbelanjaan,AZKO Manado Town Square,"Jl. Piere Tendean, Kec. Sario, Kota Manado, Sulawesi Utara 76114","Kec. Sario, Kota Manado",SULAWESI UTARA,76114,Indonesia,82233335443.0,,,1.4728699,124.8316922,https://maps.google.com/?cid=0x0:0x81142417ea658c5c,
hardware store,Toko Bahan Bangunan,GranD Prima Manado,"Kompleks MonacoBay, Jl. Piere Tendean No.1 Blok A, Kota Manado, Sulawesi Utara 95111","Jl. Piere Tendean No.1 Blok A, Kota Manado",SULAWESI UTARA,95111,Indonesia,81244158352.0,,,1.487165,124.836687,https://maps.google.com/?cid=0x0:0x7138f00ecfef2196,
hardware store,Toko Bahan Bangunan,Toko bangunan pak haji pian (Toko Amel),"Likupang II, Kec. Likupang Tim., Kabupaten Minahasa Utara, Sulawesi Utara 95375","Kec. Likupang Tim., Kabupaten Minahasa Utara",SULAWESI UTARA,95375,Indonesia,81356520798.0,,,1.6732482,125.0612162,https://maps.google.com/?cid=0x0:0xbcb61ae0385b4a57,
hardware store,Pusat Perbelanjaan,Luna Cell,"Tosuraya Bar., Kec. Ratahan, Kabupaten Minahasa Tenggara, Sulawesi Utara","Kabupaten Minahasa Tenggara, Sulawesi Utara",SULAWESI UTARA,,Indonesia,85240333377.0,,,1.053228,124.7992147,https://maps.google.com/?cid=0x0:0x48fa7b3df3e79717,
hardware store,Minimarket,Indomaret Plaza Ratahan,"3R32+43P, Tosuraya Bar., Kec. Ratahan, Kabupaten Minahasa Tenggara, Sulawesi Utara 95695","Tosuraya Bar., Kec. Ratahan, Kabupaten Minahasa Tenggara",SULAWESI UTARA,95695,Indonesia,,,,1.0528263,124.8001942,https://maps.google.com/?cid=0x0:0x6f22da70e98e794f,
hardware store,Toko Bahan Bangunan,TOKO BANGUNAN MS,"Dekat matungkas , kec dimembe, Jl. Raya Likupang, Kec. Airmadidi, Sulawesi Utara 95371","kec dimembe, Jl. Raya Likupang, Kec. Airmadidi",SULAWESI UTARA,95371,Indonesia,85396672112.0,,,1.4667282,124.966547,https://maps.google.com/?cid=0x0:0x56f7823a657be343,
hardware store,hardware store,"Toko MITRA USAHA""""","2PCR+G8M, Tolombukan Bar., Kec. Pasan, Kabupaten Minahasa Tenggara, Sulawesi Utara","Kabupaten Minahasa Tenggara, Sulawesi Utara",SULAWESI UTARA,,Indonesia,,,,1.0213435,124.7407929,https://maps.google.com/?cid=0x0:0x6aab3002a80648ff,
hardware store,Pemasok Bahan Bangunan,Toko Immanuel,"2PFX+6H9, Towuntu, Kec. Pasan, Kabupaten Minahasa Tenggara, Sulawesi Utara","Kabupaten Minahasa Tenggara, Sulawesi Utara",SULAWESI UTARA,,Indonesia,,,,1.0230472,124.7489763,https://maps.google.com/?cid=0x0:0x9e0cfb47d8a9b5fd,
hardware store,Toko Bahan Bangunan,Pasan Hardware,"MVPF+C5X, Dagohoy Rd, Tagbilaran City, Bohol, Filipina","Tagbilaran City, Bohol, Filipina",SULAWESI UTARA,,Indonesia,,,,9.6861138,123.872985,https://maps.google.com/?cid=0x0:0xef1adef569fe2432,
hardware store,Toko Bahan Bangunan,Opay Trading Hardware  Construction Supply,"JVP6+9WW, Venancio P. Inting Avenue, Tagbilaran City, 6300 Bohol, Filipina","Tagbilaran City, Bohol, Filipina",SULAWESI UTARA,,Indonesia,63384110627.0,,,9.6359909,123.86234,https://maps.google.com/?cid=0x0:0xa8e502f861bf52d0,
hardware store,hardware store,Pusomaen,"Kabupaten Minahasa Tenggara, Sulawesi Utara","Kabupaten Minahasa Tenggara, Sulawesi Utara",SULAWESI UTARA,,Indonesia,,,,1.0023906,124.8734523,https://maps.google.com/?cid=0x0:0x51e2c80582c52819,
hardware store,Toko Bahan Bangunan,Toko Bangunan Dan Meubel SUMBER REJEKI,"XQ4X+624, Jl. Ratahan - Kotamobagu, Ponosakan Indah, Kec. Belang, Kabupaten Minahasa Tenggara, Sulawesi Utara 95997","Jl. Ratahan - Kotamobagu, Ponosakan Indah, Kec. Belang, Kabupaten Minahasa Tenggara",SULAWESI UTARA,95997,Indonesia,82259666230.0,,,0.9555108,124.7975711,https://maps.google.com/?cid=0x0:0x68d8a3970b96d48e,
hardware store,Toko,MR.DIY Ratahan,"Jl. Ratahan - Kotamobagu, Tosuraya, Kec. Ratahan, Kabupaten Minahasa Tenggara, Sulawesi Utara 95995","Tosuraya, Kec. Ratahan, Kabupaten Minahasa Tenggara",SULAWESI UTARA,95995,Indonesia,,,,1.0554419,124.8019899,https://maps.google.com/?cid=0x0:0x85adf2a4ba2aaadf,
hardware store,Toko,toko bangunan hj muhlis,"XQ2W+V7R, Jl. Ratahan - Kotamobagu, Ponosakan Indah, Kec. Belang, Kabupaten Minahasa Tenggara, Sulawesi Utara 95997","Jl. Ratahan - Kotamobagu, Ponosakan Indah, Kec. Belang, Kabupaten Minahasa Tenggara",SULAWESI UTARA,95997,Indonesia,,,,0.9522386,124.7956411,https://maps.google.com/?cid=0x0:0xa87b203b7e160b19,
hardware store,hardware store,Ratahan,"Tosuraya, Kec. Ratahan, Kabupaten Minahasa Tenggara, Sulawesi Utara","Kabupaten Minahasa Tenggara, Sulawesi Utara",SULAWESI UTARA,,Indonesia,,,,1.052761,124.802101,https://maps.google.com/?cid=0x0:0x7c6adb8240ffb5d8,
hardware store,Toko,MR.DIY Ratahan,"Jl. Ratahan - Kotamobagu, Tosuraya, Kec. Ratahan, Kabupaten Minahasa Tenggara, Sulawesi Utara 95995","Tosuraya, Kec. Ratahan, Kabupaten Minahasa Tenggara",SULAWESI UTARA,95995,Indonesia,,,,1.0554419,124.8019899,https://maps.google.com/?cid=0x0:0x85adf2a4ba2aaadf,
hardware store,Toko,Toko Sabar Ratahan,"3R43+P7M, Lowu Satu, Kec. Ratahan, Kabupaten Minahasa Tenggara, Sulawesi Utara","Kabupaten Minahasa Tenggara, Sulawesi Utara",SULAWESI UTARA,,Indonesia,,,,1.0568369,124.8031655,https://maps.google.com/?cid=0x0:0x7107333a4e68ad2d,
hardware store,Toko,Toko Bangunan - Jein,"3R83+96M, Jl. Soekarno, Lowu Utara, Kec. Ratahan, Kabupaten Minahasa Tenggara, Sulawesi Utara","Kabupaten Minahasa Tenggara, Sulawesi Utara",SULAWESI UTARA,,Indonesia,,,,1.0659654,124.8030379,https://maps.google.com/?cid=0x0:0x64a7ba3a8c986863,
hardware store,hardware store,Ud. Klabat Ratahan(Toko Bangunan),"tosuraya lingkungan No.1, Lowu Dua, Kec. Ratahan, Kabupaten Minahasa Tenggara, Sulawesi Utara","Kabupaten Minahasa Tenggara, Sulawesi Utara",SULAWESI UTARA,,Indonesia,81340212124.0,,,1.055379,124.8032158,https://maps.google.com/?cid=0x0:0xeda9ea11e14b8888,
hardware store,hardware store,Kec. Ratahan Tim.,"Kabupaten Minahasa Tenggara, Sulawesi Utara","Kabupaten Minahasa Tenggara, Sulawesi Utara",SULAWESI UTARA,,Indonesia,,,,1.0937692,124.815983,https://maps.google.com/?cid=0x0:0x26a0154fbfe940e4,
hardware store,Toko,MR.DIY Ratahan,"Jl. Ratahan - Kotamobagu, Tosuraya, Kec. Ratahan, Kabupaten Minahasa Tenggara, Sulawesi Utara 95995","Tosuraya, Kec. Ratahan, Kabupaten Minahasa Tenggara",SULAWESI UTARA,95995,Indonesia,,,,1.0554419,124.8019899,https://maps.google.com/?cid=0x0:0x85adf2a4ba2aaadf,
hardware store,Toko,Toko Sabar Ratahan,"3R43+P7M, Lowu Satu, Kec. Ratahan, Kabupaten Minahasa Tenggara, Sulawesi Utara","Kabupaten Minahasa Tenggara, Sulawesi Utara",SULAWESI UTARA,,Indonesia,,,,1.0568369,124.8031655,https://maps.google.com/?cid=0x0:0x7107333a4e68ad2d,
hardware store,Toko Elektronik,Marshall Hotspot,"2RRG+7J5, Wioi Tiga, Kec. Ratahan Tim., Kabupaten Minahasa Tenggara, Sulawesi Utara","Kabupaten Minahasa Tenggara, Sulawesi Utara",SULAWESI UTARA,,Indonesia,82187266607.0,,,1.0406459,124.8266156,https://maps.google.com/?cid=0x0:0x41476fc8fb43143a,
hardware store,Toko,Toko GRAND HARDWARE,"CXJH+22P, Sarongsong I, Kec. Airmadidi, Kabupaten Minahasa Utara, Sulawesi Utara","Kabupaten Minahasa Utara, Sulawesi Utara",SULAWESI UTARA,,Indonesia,,,,1.4300932,124.9775741,https://maps.google.com/?cid=0x0:0xd5bea6e4e94329b1,
hardware store,Pusat Perbelanjaan,Luna Cell,"Tosuraya Bar., Kec. Ratahan, Kabupaten Minahasa Tenggara, Sulawesi Utara","Kabupaten Minahasa Tenggara, Sulawesi Utara",SULAWESI UTARA,,Indonesia,85240333377.0,,,1.053228,124.7992147,https://maps.google.com/?cid=0x0:0x48fa7b3df3e79717,
hardware store,Toko bahan makanan,Depot AIR Ratahan,"3Q3X+8M6, Jl. Amurang-Ratahan, Tosuraya Bar., Kec. Ratahan, Kabupaten Minahasa Tenggara, Sulawesi Utara","Kabupaten Minahasa Tenggara, Sulawesi Utara",SULAWESI UTARA,,Indonesia,82335714075.0,,,1.0532917,124.799123,https://maps.google.com/?cid=0x0:0xf02fc034c1f30db8,
hardware store,Toko,TOKO BANGUNAN SINAR RATATOTOK,"Ratatotok Dua, Kec. Ratatotok, Kabupaten Minahasa Tenggara, Sulawesi Utara 95997","Kec. Ratatotok, Kabupaten Minahasa Tenggara",SULAWESI UTARA,95997,Indonesia,81242418185.0,,,0.8683082,124.7007802,https://maps.google.com/?cid=0x0:0x5c52589d2559d075,
hardware store,hardware store,Kec. Ratatotok,"Kabupaten Minahasa Tenggara, Sulawesi Utara","Kabupaten Minahasa Tenggara, Sulawesi Utara",SULAWESI UTARA,,Indonesia,,,,0.8739142,124.7003929,https://maps.google.com/?cid=0x0:0xfad043f7df9d10da,
hardware store,Toko,Toko Sumber Mitra Bangunan,"VM6X+G59, Ratatotok, Kec. Ratatotok, Kabupaten Minahasa Tenggara, Sulawesi Utara 95997","Ratatotok, Kec. Ratatotok, Kabupaten Minahasa Tenggara",SULAWESI UTARA,95997,Indonesia,,,,0.860463,124.698721,https://maps.google.com/?cid=0x0:0xa4e71ecc61f9df45,
hardware store,Minimarket,Indomaret Ratatotok II,"VP92+MGH, Ratatotok Dua, Kec. Ratatotok, Kabupaten Minahasa Tenggara, Sulawesi Utara 95997","Ratatotok Dua, Kec. Ratatotok, Kabupaten Minahasa Tenggara",SULAWESI UTARA,95997,Indonesia,,,,0.8692202,124.7013066,https://maps.google.com/?cid=0x0:0xb14e487beeafb706,
hardware store,hardware store,Kec. Silian Raya,"Kabupaten Minahasa Tenggara, Sulawesi Utara","Kabupaten Minahasa Tenggara, Sulawesi Utara",SULAWESI UTARA,,Indonesia,,,,1.0607028,124.6706139,https://maps.google.com/?cid=0x0:0xc85569b0227031a5,
hardware store,Toko,Toko GRAND HARDWARE,"CXJH+22P, Sarongsong I, Kec. Airmadidi, Kabupaten Minahasa Utara, Sulawesi Utara","Kabupaten Minahasa Utara, Sulawesi Utara",SULAWESI UTARA,,Indonesia,,,,1.4300932,124.9775741,https://maps.google.com/?cid=0x0:0xd5bea6e4e94329b1,
hardware store,Toko Bahan Bangunan,Toko RB Tombatu,"2MWG+PJG jaga 4, Tombatu Dua Tengah, Kec. Tombatu, Kabupaten Minahasa Tenggara, Sulawesi Utara","Kabupaten Minahasa Tenggara, Sulawesi Utara",SULAWESI UTARA,,Indonesia,,,,1.0468079,124.6765698,https://maps.google.com/?cid=0x0:0xfd8b0dc676195040,
hardware store,Toserba,Toko Enam Satu,"Jl. Amurang-Ratahan, Tombatu Dua, Kec. Tombatu Utara, Kabupaten Minahasa Tenggara, Sulawesi Utara","Kabupaten Minahasa Tenggara, Sulawesi Utara",SULAWESI UTARA,,Indonesia,85394307959.0,,,1.0444018,124.6853517,https://maps.google.com/?cid=0x0:0xa8a9b8962a69e66e,
hardware store,Toko Kosmetik,Creyssa Kosmetik,"3M56+VF5, Silian Tiga, Kec. Silian Raya, Kabupaten Minahasa Tenggara, Sulawesi Utara","Kabupaten Minahasa Tenggara, Sulawesi Utara",SULAWESI UTARA,,Indonesia,,,,1.0596375,124.6612344,https://maps.google.com/?cid=0x0:0x5865b2bc5abe925b,
hardware store,hardware store,Kec. Tombatu,"Kabupaten Minahasa Tenggara, Sulawesi Utara","Kabupaten Minahasa Tenggara, Sulawesi Utara",SULAWESI UTARA,,Indonesia,,,,1.0392874,124.6821911,https://maps.google.com/?cid=0x0:0x15df6048da14c99b,
hardware store,Toko Bahan Bangunan,Toko RB Tombatu,"2MWG+PJG jaga 4, Tombatu Dua Tengah, Kec. Tombatu, Kabupaten Minahasa Tenggara, Sulawesi Utara","Kabupaten Minahasa Tenggara, Sulawesi Utara",SULAWESI UTARA,,Indonesia,,,,1.0468079,124.6765698,https://maps.google.com/?cid=0x0:0xfd8b0dc676195040,
hardware store,Toko Bahan Bangunan,Toko Millysurya TOMBATU,"Jl. Tombatu Kali RT.01, Desa Tombatu, Kecamatan Tombatu, Tombatu, Kec. Tombatu, Kabupaten Minahasa Tenggara, Sulawesi Utara","Kabupaten Minahasa Tenggara, Sulawesi Utara",SULAWESI UTARA,,Indonesia,89602010675.0,,,1.0388156,124.6831958,https://maps.google.com/?cid=0x0:0x90ad3317b6415b2e,
hardware store,Toko Bahan Bangunan,Tombatu dua tengah jaga IV,"2MXH+FQC, Tombatu Dua Tengah, Kec. Tombatu Utara, Kabupaten Minahasa Tenggara, Sulawesi Utara","Kabupaten Minahasa Tenggara, Sulawesi Utara",SULAWESI UTARA,,Indonesia,,,,1.0486986,124.6793915,https://maps.google.com/?cid=0x0:0x175db0aa1b0e781e,
hardware store,Minimarket,Toko Nasir Tombatu,"2MVH+WR5 Jaga 3, Tombatu Dua Tengah, Kec. Tombatu Utara, Kabupaten Minahasa Tenggara, Sulawesi Utara","Kabupaten Minahasa Tenggara, Sulawesi Utara",SULAWESI UTARA,,Indonesia,,,,1.0447687,124.6796042,https://maps.google.com/?cid=0x0:0xf46b376adefe091b,
hardware store,Pasar,Pasar Tua Tombatu,"2MVP+MCM, Tombatu Tiga, Kec. Tombatu Utara, Kabupaten Minahasa Tenggara, Sulawesi Utara","Kabupaten Minahasa Tenggara, Sulawesi Utara",SULAWESI UTARA,,Indonesia,,,,1.0442103,124.6860608,https://maps.google.com/?cid=0x0:0x8929b9a3bddf68b6,
hardware store,Komplek perumahan,Home Tombatu,"2MQM+96X, Tombatu, Kec. Tombatu, Kabupaten Minahasa Tenggara, Sulawesi Utara","Kabupaten Minahasa Tenggara, Sulawesi Utara",SULAWESI UTARA,,Indonesia,,,,1.0384986,124.6831099,https://maps.google.com/?cid=0x0:0xf749947a978423f6,
hardware store,Toko Fotokopi,Susan Bouquet  Fotocopy,"2MXM+52X, Tombatu Dua Tengah, Kec. Tombatu Utara, Kabupaten Minahasa Tenggara, Sulawesi Utara","Kabupaten Minahasa Tenggara, Sulawesi Utara",SULAWESI UTARA,,Indonesia,82347016852.0,,,1.0479926,124.6826061,https://maps.google.com/?cid=0x0:0x1b6c0535c23af520,
hardware store,Toko Bahan Bangunan,Toko Millysurya TOMBATU,"Jl. Tombatu Kali RT.01, Desa Tombatu, Kecamatan Tombatu, Tombatu, Kec. Tombatu, Kabupaten Minahasa Tenggara, Sulawesi Utara","Kabupaten Minahasa Tenggara, Sulawesi Utara",SULAWESI UTARA,,Indonesia,89602010675.0,,,1.0388156,124.6831958,https://maps.google.com/?cid=0x0:0x90ad3317b6415b2e,
hardware store,hardware store,Kec. Tombatu Tim.,"Kabupaten Minahasa Tenggara, Sulawesi Utara","Kabupaten Minahasa Tenggara, Sulawesi Utara",SULAWESI UTARA,,Indonesia,,,,1.0260417,124.7260931,https://maps.google.com/?cid=0x0:0xc4583ba933d210d3,
hardware store,Toko Bahan Bangunan,Toko RB Tombatu,"2MWG+PJG jaga 4, Tombatu Dua Tengah, Kec. Tombatu, Kabupaten Minahasa Tenggara, Sulawesi Utara","Kabupaten Minahasa Tenggara, Sulawesi Utara",SULAWESI UTARA,,Indonesia,,,,1.0468079,124.6765698,https://maps.google.com/?cid=0x0:0xfd8b0dc676195040,
hardware store,Toko Bahan Bangunan,Tombatu dua tengah jaga IV,"2MXH+FQC, Tombatu Dua Tengah, Kec. Tombatu Utara, Kabupaten Minahasa Tenggara, Sulawesi Utara","Kabupaten Minahasa Tenggara, Sulawesi Utara",SULAWESI UTARA,,Indonesia,,,,1.0486986,124.6793915,https://maps.google.com/?cid=0x0:0x175db0aa1b0e781e,
hardware store,Pasar,Pasar Tua Tombatu,"2MVP+MCM, Tombatu Tiga, Kec. Tombatu Utara, Kabupaten Minahasa Tenggara, Sulawesi Utara","Kabupaten Minahasa Tenggara, Sulawesi Utara",SULAWESI UTARA,,Indonesia,,,,1.0442103,124.6860608,https://maps.google.com/?cid=0x0:0x8929b9a3bddf68b6,
hardware store,Minimarket,Toko Nasir Tombatu,"2MVH+WR5 Jaga 3, Tombatu Dua Tengah, Kec. Tombatu Utara, Kabupaten Minahasa Tenggara, Sulawesi Utara","Kabupaten Minahasa Tenggara, Sulawesi Utara",SULAWESI UTARA,,Indonesia,,,,1.0447687,124.6796042,https://maps.google.com/?cid=0x0:0xf46b376adefe091b,
hardware store,Toko,Toko GRAND HARDWARE,"CXJH+22P, Sarongsong I, Kec. Airmadidi, Kabupaten Minahasa Utara, Sulawesi Utara","Kabupaten Minahasa Utara, Sulawesi Utara",SULAWESI UTARA,,Indonesia,,,,1.4300932,124.9775741,https://maps.google.com/?cid=0x0:0xd5bea6e4e94329b1,
hardware store,Komplek perumahan,Home Tombatu,"2MQM+96X, Tombatu, Kec. Tombatu, Kabupaten Minahasa Tenggara, Sulawesi Utara","Kabupaten Minahasa Tenggara, Sulawesi Utara",SULAWESI UTARA,,Indonesia,,,,1.0384986,124.6831099,https://maps.google.com/?cid=0x0:0xf749947a978423f6,
hardware store,Toko Bahan Bangunan,Grand Hardware,"C4PC+9FV, Jl. Raya Manado - Bitung, Girian Weru Dua, Kec. Girian, Kota Bitung, Sulawesi Utara 95864","Jl. Raya Manado - Bitung, Girian Weru Dua, Kec. Girian, Kota Bitung",SULAWESI UTARA,95864,Indonesia,,,,1.4359832,125.121166,https://maps.google.com/?cid=0x0:0x19a823dd6e850cfd,
hardware store,Toko Alat Tulis Kantor,Yeane Tirza YenPrint,"2MCX+WQ9, jaga, RT.2, Kuyanga Satu, Kec. Tombatu Utara, Kabupaten Minahasa Tenggara, Sulawesi Utara","Kabupaten Minahasa Tenggara, Sulawesi Utara",SULAWESI UTARA,,Indonesia,85240090224.0,,,1.0222999,124.6994738,https://maps.google.com/?cid=0x0:0x85fe3a42ea0957a6,
hardware store,hardware store,Tombatu timur,"2PGG+CC3, Molompar Dua Sel., Kec. Tombatu Tim., Kabupaten Minahasa Tenggara, Sulawesi Utara","Kabupaten Minahasa Tenggara, Sulawesi Utara",SULAWESI UTARA,,Indonesia,,,,1.0260171,124.7260503,https://maps.google.com/?cid=0x0:0xf8d31392a556208d,
hardware store,Pusat Perbelanjaan,Pasar Tombatu,"2PGF+H75, Pasar, Esandom Satu, Kec. Tombatu, Kabupaten Minahasa Tenggara, Sulawesi Utara","Kabupaten Minahasa Tenggara, Sulawesi Utara",SULAWESI UTARA,,Indonesia,,,,1.0263909,124.7232364,https://maps.google.com/?cid=0x0:0x9e75af2e336c6fd6,
hardware store,Toko,GrasellaShop Molompar,"2PGG+XWX jaga I, lorong puskesmas molompar, Molompar Atas, Kec. Tombatu Tim., Kabupaten Minahasa Tenggara, Sulawesi Utara","Kabupaten Minahasa Tenggara, Sulawesi Utara",SULAWESI UTARA,,Indonesia,81243599076.0,,,1.0274945,124.7273581,https://maps.google.com/?cid=0x0:0xa429c83224a735d8,
hardware store,Toko Pakaian,EDEXO STORE,"2MVP+M93, Betelan Satu, Kec. Tombatu, Kabupaten Minahasa Tenggara, Sulawesi Utara 95696","Betelan Satu, Kec. Tombatu, Kabupaten Minahasa Tenggara",SULAWESI UTARA,95696,Indonesia,,,,1.0441476,124.6859357,https://maps.google.com/?cid=0x0:0x289b77b62e5b2e7b,
hardware store,hardware store,Kec. Tombatu Utara,"Kabupaten Minahasa Tenggara, Sulawesi Utara","Kabupaten Minahasa Tenggara, Sulawesi Utara",SULAWESI UTARA,,Indonesia,,,,1.0435986,124.6869059,https://maps.google.com/?cid=0x0:0x3786e15772770449,
hardware store,Toko Bahan Bangunan,Toko RB Tombatu,"2MWG+PJG jaga 4, Tombatu Dua Tengah, Kec. Tombatu, Kabupaten Minahasa Tenggara, Sulawesi Utara","Kabupaten Minahasa Tenggara, Sulawesi Utara",SULAWESI UTARA,,Indonesia,,,,1.0468079,124.6765698,https://maps.google.com/?cid=0x0:0xfd8b0dc676195040,
hardware store,Toko Bahan Bangunan,Toko Millysurya TOMBATU,"Jl. Tombatu Kali RT.01, Desa Tombatu, Kecamatan Tombatu, Tombatu, Kec. Tombatu, Kabupaten Minahasa Tenggara, Sulawesi Utara","Kabupaten Minahasa Tenggara, Sulawesi Utara",SULAWESI UTARA,,Indonesia,89602010675.0,,,1.0388156,124.6831958,https://maps.google.com/?cid=0x0:0x90ad3317b6415b2e,
hardware store,Minimarket,Toko Nasir Tombatu,"2MVH+WR5 Jaga 3, Tombatu Dua Tengah, Kec. Tombatu Utara, Kabupaten Minahasa Tenggara, Sulawesi Utara","Kabupaten Minahasa Tenggara, Sulawesi Utara",SULAWESI UTARA,,Indonesia,,,,1.0447687,124.6796042,https://maps.google.com/?cid=0x0:0xf46b376adefe091b,
hardware store,Toko Bahan Bangunan,Tombatu dua tengah jaga IV,"2MXH+FQC, Tombatu Dua Tengah, Kec. Tombatu Utara, Kabupaten Minahasa Tenggara, Sulawesi Utara","Kabupaten Minahasa Tenggara, Sulawesi Utara",SULAWESI UTARA,,Indonesia,,,,1.0486986,124.6793915,https://maps.google.com/?cid=0x0:0x175db0aa1b0e781e,
hardware store,Kantor Perusahaan,d'Lights Alat Listrik,"2MVM+8GG, Tombatu Dua, Kec. Tombatu Utara, Kabupaten Minahasa Tenggara, Sulawesi Utara","Kabupaten Minahasa Tenggara, Sulawesi Utara",SULAWESI UTARA,,Indonesia,85657202981.0,,,1.0433116,124.6838404,https://maps.google.com/?cid=0x0:0xd5e2cf024e468b97,
hardware store,Pasar,Pasar Tua Tombatu,"2MVP+MCM, Tombatu Tiga, Kec. Tombatu Utara, Kabupaten Minahasa Tenggara, Sulawesi Utara","Kabupaten Minahasa Tenggara, Sulawesi Utara",SULAWESI UTARA,,Indonesia,,,,1.0442103,124.6860608,https://maps.google.com/?cid=0x0:0x8929b9a3bddf68b6,
hardware store,Toko,Toko GRAND HARDWARE,"CXJH+22P, Sarongsong I, Kec. Airmadidi, Kabupaten Minahasa Utara, Sulawesi Utara","Kabupaten Minahasa Utara, Sulawesi Utara",SULAWESI UTARA,,Indonesia,,,,1.4300932,124.9775741,https://maps.google.com/?cid=0x0:0xd5bea6e4e94329b1,
hardware store,Komplek perumahan,Home Tombatu,"2MQM+96X, Tombatu, Kec. Tombatu, Kabupaten Minahasa Tenggara, Sulawesi Utara","Kabupaten Minahasa Tenggara, Sulawesi Utara",SULAWESI UTARA,,Indonesia,,,,1.0384986,124.6831099,https://maps.google.com/?cid=0x0:0xf749947a978423f6,
hardware store,Toko Elektronik,JABAR SERVIES ELECTRONI OBAY,"2PHF+QCX, Mundung, Kec. Tombatu Tim., Kabupaten Minahasa Tenggara, Sulawesi Utara","Kabupaten Minahasa Tenggara, Sulawesi Utara",SULAWESI UTARA,,Indonesia,85240390542.0,,,1.0294896,124.7236165,https://maps.google.com/?cid=0x0:0x84cb3586ec3363,
hardware store,Toko Elektronik,Bojoh Electronics,"2MVP+G5H, Tombatu Dua, Kec. Tombatu Utara, Kabupaten Minahasa Tenggara, Sulawesi Utara","Kabupaten Minahasa Tenggara, Sulawesi Utara",SULAWESI UTARA,,Indonesia,8976804001.0,,,1.0438022,124.6854958,https://maps.google.com/?cid=0x0:0xf32eb11a40d6793e,
hardware store,Minimarket,Toko Pelita,"2PGG+39R, Molompar Dua Sel., Kec. Tombatu Tim., Kabupaten Minahasa Tenggara, Sulawesi Utara","Kabupaten Minahasa Tenggara, Sulawesi Utara",SULAWESI UTARA,,Indonesia,,,,1.0252264,124.7259036,https://maps.google.com/?cid=0x0:0xe7b945a5cdacda03,
hardware store,Toko Pakaian,EDEXO STORE,"2MVP+M93, Betelan Satu, Kec. Tombatu, Kabupaten Minahasa Tenggara, Sulawesi Utara 95696","Betelan Satu, Kec. Tombatu, Kabupaten Minahasa Tenggara",SULAWESI UTARA,95696,Indonesia,,,,1.0441476,124.6859357,https://maps.google.com/?cid=0x0:0x289b77b62e5b2e7b,
hardware store,Toko Bahan Bangunan,Grand Hardware,"C4PC+9FV, Jl. Raya Manado - Bitung, Girian Weru Dua, Kec. Girian, Kota Bitung, Sulawesi Utara 95864","Jl. Raya Manado - Bitung, Girian Weru Dua, Kec. Girian, Kota Bitung",SULAWESI UTARA,95864,Indonesia,,,,1.4359832,125.121166,https://maps.google.com/?cid=0x0:0x19a823dd6e850cfd,
hardware store,Toko Bahan Bangunan,Toko Tuama RR,"FXGC+676 Jaga 7, Matungkas, Kec. Dimembe, Kabupaten Minahasa Utara, Sulawesi Utara","Kabupaten Minahasa Utara, Sulawesi Utara",SULAWESI UTARA,,Indonesia,,,,1.4755297,124.9706454,https://maps.google.com/?cid=0x0:0xf70291edba8cd4ca,
hardware store,Pusat Perbelanjaan,Pasar Tombatu,"2PGF+H75, Pasar, Esandom Satu, Kec. Tombatu, Kabupaten Minahasa Tenggara, Sulawesi Utara","Kabupaten Minahasa Tenggara, Sulawesi Utara",SULAWESI UTARA,,Indonesia,,,,1.0263909,124.7232364,https://maps.google.com/?cid=0x0:0x9e75af2e336c6fd6,
hardware store,Toko Fotokopi,Susan Bouquet  Fotocopy,"2MXM+52X, Tombatu Dua Tengah, Kec. Tombatu Utara, Kabupaten Minahasa Tenggara, Sulawesi Utara","Kabupaten Minahasa Tenggara, Sulawesi Utara",SULAWESI UTARA,,Indonesia,82347016852.0,,,1.0479926,124.6826061,https://maps.google.com/?cid=0x0:0x1b6c0535c23af520,
hardware store,Toko Alat Tulis,YeaneTirsa,"2MPX+QX5, Kuyanga Satu, Kec. Tombatu Utara, Kabupaten Minahasa Tenggara, Sulawesi Utara","Kabupaten Minahasa Tenggara, Sulawesi Utara",SULAWESI UTARA,,Indonesia,85240090224.0,,,1.036886,124.6999707,https://maps.google.com/?cid=0x0:0xa10e81eee33a13c1,
hardware store,Komplek perumahan,Gerry House,"2PGH+R42, Molompar Atas, Kec. Tombatu Tim., Kabupaten Minahasa Tenggara, Sulawesi Utara","Kabupaten Minahasa Tenggara, Sulawesi Utara",SULAWESI UTARA,,Indonesia,81340080400.0,,,1.0270017,124.7277671,https://maps.google.com/?cid=0x0:0x5b40bb8becdbba41,
hardware store,Toko Alat Tulis Kantor,Yeane Tirza YenPrint,"2MCX+WQ9, jaga, RT.2, Kuyanga Satu, Kec. Tombatu Utara, Kabupaten Minahasa Tenggara, Sulawesi Utara","Kabupaten Minahasa Tenggara, Sulawesi Utara",SULAWESI UTARA,,Indonesia,85240090224.0,,,1.0222999,124.6994738,https://maps.google.com/?cid=0x0:0x85fe3a42ea0957a6,
hardware store,Toko Perlengkapan Rumah,Grand Hardware,"Komplek Marina Plaza Blok B No. 7-10, Jl. Piere Tendean Boulevard,manado, Manado, Sulawesi Utara, 95111","Jl. Piere Tendean Boulevard,manado, Manado",SULAWESI UTARA,95111,Indonesia,85255443510.0,,,1.4924543,124.838346,https://maps.google.com/?cid=0x0:0x513c63d19209ca5,
hardware store,hardware store,Kec. Touluaan,"Kabupaten Minahasa Tenggara, Sulawesi Utara","Kabupaten Minahasa Tenggara, Sulawesi Utara",SULAWESI UTARA,,Indonesia,,,,1.0561242,124.6513459,https://maps.google.com/?cid=0x0:0xb9e36ebc0d0281f7,
hardware store,Toko Bahan Bangunan,KEM Opa Kayl,"2JG8+2J6, Ranoako, Kec. Touluaan Sel., Kabupaten Minahasa Tenggara, Sulawesi Utara","Kabupaten Minahasa Tenggara, Sulawesi Utara",SULAWESI UTARA,,Indonesia,,,,1.025034,124.6165155,https://maps.google.com/?cid=0x0:0x6b3f4b4ce214bbec,
hardware store,Toko,Toko GRAND HARDWARE,"CXJH+22P, Sarongsong I, Kec. Airmadidi, Kabupaten Minahasa Utara, Sulawesi Utara","Kabupaten Minahasa Utara, Sulawesi Utara",SULAWESI UTARA,,Indonesia,,,,1.4300932,124.9775741,https://maps.google.com/?cid=0x0:0xd5bea6e4e94329b1,
hardware store,Toserba,Toko Enam Satu,"Jl. Amurang-Ratahan, Tombatu Dua, Kec. Tombatu Utara, Kabupaten Minahasa Tenggara, Sulawesi Utara","Kabupaten Minahasa Tenggara, Sulawesi Utara",SULAWESI UTARA,,Indonesia,85394307959.0,,,1.0444018,124.6853517,https://maps.google.com/?cid=0x0:0xa8a9b8962a69e66e,
hardware store,Pemasok Bahan Bangunan,Toko Immanuel,"2PFX+6H9, Towuntu, Kec. Pasan, Kabupaten Minahasa Tenggara, Sulawesi Utara","Kabupaten Minahasa Tenggara, Sulawesi Utara",SULAWESI UTARA,,Indonesia,,,,1.0230472,124.7489763,https://maps.google.com/?cid=0x0:0x9e0cfb47d8a9b5fd,
hardware store,Toko Perlengkapan Rumah,Grand Hardware,"Komplek Marina Plaza Blok B No. 7-10, Jl. Piere Tendean Boulevard,manado, Manado, Sulawesi Utara, 95111","Jl. Piere Tendean Boulevard,manado, Manado",SULAWESI UTARA,95111,Indonesia,85255443510.0,,,1.4924543,124.838346,https://maps.google.com/?cid=0x0:0x513c63d19209ca5,
hardware store,Kantor Perusahaan,d'Lights Alat Listrik,"2MVM+8GG, Tombatu Dua, Kec. Tombatu Utara, Kabupaten Minahasa Tenggara, Sulawesi Utara","Kabupaten Minahasa Tenggara, Sulawesi Utara",SULAWESI UTARA,,Indonesia,85657202981.0,,,1.0433116,124.6838404,https://maps.google.com/?cid=0x0:0xd5e2cf024e468b97,
hardware store,Toko Bahan Bangunan,Grand Hardware,"C4PC+9FV, Jl. Raya Manado - Bitung, Girian Weru Dua, Kec. Girian, Kota Bitung, Sulawesi Utara 95864","Jl. Raya Manado - Bitung, Girian Weru Dua, Kec. Girian, Kota Bitung",SULAWESI UTARA,95864,Indonesia,,,,1.4359832,125.121166,https://maps.google.com/?cid=0x0:0x19a823dd6e850cfd,
hardware store,Perumahan,Desa Toundanouw,"3M33+47W, Tondanouw, Kec. Touluaan, Kabupaten Minahasa Tenggara, Sulawesi Utara","Kabupaten Minahasa Tenggara, Sulawesi Utara",SULAWESI UTARA,,Indonesia,,,,1.0529015,124.6531518,https://maps.google.com/?cid=0x0:0xcbd9a72aa5a55e4c,
hardware store,Toko Bahan Bangunan,CERIA Bahan Bangunan,"Tokin Baru, Kec. Motoling Tim., Kabupaten Minahasa Selatan, Sulawesi Utara","Kabupaten Minahasa Selatan, Sulawesi Utara",SULAWESI UTARA,,Indonesia,82259514549.0,,,1.0771398,124.5101005,https://maps.google.com/?cid=0x0:0xdad60601aca07b8,
hardware store,Sekolah Menengah Atas,SMK NEGERI 1 TOULUAAN,"3J4R+HVX, Jl. Amurang-Ratahan, Lobu Dua, Kec. Touluaan, Kabupaten Minahasa Tenggara, Sulawesi Utara","Kabupaten Minahasa Tenggara, Sulawesi Utara",SULAWESI UTARA,,Indonesia,,,,1.056492,124.6422267,https://maps.google.com/?cid=0x0:0x892abd2ca72422e5,
hardware store,hardware store,Desa Toundanouw Satu,"3JQ7+FFX, Tondanouw Satu, Kec. Touluaan, Kabupaten Minahasa Tenggara, Sulawesi Utara","Kabupaten Minahasa Tenggara, Sulawesi Utara",SULAWESI UTARA,,Indonesia,,,,1.088746,124.6137362,https://maps.google.com/?cid=0x0:0x8c4936bc0742e3ec,
hardware store,hardware store,Kec. Touluaan Sel.,"Kabupaten Minahasa Tenggara, Sulawesi Utara","Kabupaten Minahasa Tenggara, Sulawesi Utara",SULAWESI UTARA,,Indonesia,,,,1.0264722,124.5859669,https://maps.google.com/?cid=0x0:0xe1cb2698c83351a2,
hardware store,Toko,Toko GRAND HARDWARE,"CXJH+22P, Sarongsong I, Kec. Airmadidi, Kabupaten Minahasa Utara, Sulawesi Utara","Kabupaten Minahasa Utara, Sulawesi Utara",SULAWESI UTARA,,Indonesia,,,,1.4300932,124.9775741,https://maps.google.com/?cid=0x0:0xd5bea6e4e94329b1,
hardware store,Toko Bahan Bangunan,KEM Opa Kayl,"2JG8+2J6, Ranoako, Kec. Touluaan Sel., Kabupaten Minahasa Tenggara, Sulawesi Utara","Kabupaten Minahasa Tenggara, Sulawesi Utara",SULAWESI UTARA,,Indonesia,,,,1.025034,124.6165155,https://maps.google.com/?cid=0x0:0x6b3f4b4ce214bbec,
hardware store,Toko Bahan Bangunan,CERIA Bahan Bangunan,"Tokin Baru, Kec. Motoling Tim., Kabupaten Minahasa Selatan, Sulawesi Utara","Kabupaten Minahasa Selatan, Sulawesi Utara",SULAWESI UTARA,,Indonesia,82259514549.0,,,1.0771398,124.5101005,https://maps.google.com/?cid=0x0:0xdad60601aca07b8,
hardware store,Toko Bahan Bangunan,Grand Hardware,"C4PC+9FV, Jl. Raya Manado - Bitung, Girian Weru Dua, Kec. Girian, Kota Bitung, Sulawesi Utara 95864","Jl. Raya Manado - Bitung, Girian Weru Dua, Kec. Girian, Kota Bitung",SULAWESI UTARA,95864,Indonesia,,,,1.4359832,125.121166,https://maps.google.com/?cid=0x0:0x19a823dd6e850cfd,
hardware store,Toko Bahan Bangunan,Toko RB Tombatu,"2MWG+PJG jaga 4, Tombatu Dua Tengah, Kec. Tombatu, Kabupaten Minahasa Tenggara, Sulawesi Utara","Kabupaten Minahasa Tenggara, Sulawesi Utara",SULAWESI UTARA,,Indonesia,,,,1.0468079,124.6765698,https://maps.google.com/?cid=0x0:0xfd8b0dc676195040,
hardware store,Toserba,Toko Enam Satu,"Jl. Amurang-Ratahan, Tombatu Dua, Kec. Tombatu Utara, Kabupaten Minahasa Tenggara, Sulawesi Utara","Kabupaten Minahasa Tenggara, Sulawesi Utara",SULAWESI UTARA,,Indonesia,85394307959.0,,,1.0444018,124.6853517,https://maps.google.com/?cid=0x0:0xa8a9b8962a69e66e,
home improvement,home improvement,Kec. Belang,"Kabupaten Minahasa Tenggara, Sulawesi Utara","Kabupaten Minahasa Tenggara, Sulawesi Utara",SULAWESI UTARA,,Indonesia,,,,0.9601694,124.8138458,https://maps.google.com/?cid=0x0:0x6afb19e794b7def4,
home improvement,home improvement,Belang,"Kec. Belang, Kabupaten Minahasa Tenggara, Sulawesi Utara","Kabupaten Minahasa Tenggara, Sulawesi Utara",SULAWESI UTARA,,Indonesia,,,,0.9488067,124.7775317,https://maps.google.com/?cid=0x0:0xffca366e028bbccd,
home improvement,home improvement,Sulawesi Utara 95997,"Kec. Ratatotok, Kabupaten Minahasa Tenggara, Sulawesi Utara","Kabupaten Minahasa Tenggara, Sulawesi Utara",SULAWESI UTARA,,Indonesia,,,,0.9486073,124.7519807,https://maps.google.com/?cid=0x0:0x91125c5c2a0b68b9,
home improvement,home improvement,Kec. Pasan,"Kabupaten Minahasa Tenggara, Sulawesi Utara","Kabupaten Minahasa Tenggara, Sulawesi Utara",SULAWESI UTARA,,Indonesia,,,,1.022748,124.7482665,https://maps.google.com/?cid=0x0:0xcf32b53a07d5d0fc,
home improvement,Toko,MR.DIY Ratahan,"Jl. Ratahan - Kotamobagu, Tosuraya, Kec. Ratahan, Kabupaten Minahasa Tenggara, Sulawesi Utara 95995","Tosuraya, Kec. Ratahan, Kabupaten Minahasa Tenggara",SULAWESI UTARA,95995,Indonesia,,,,1.0554419,124.8019899,https://maps.google.com/?cid=0x0:0x85adf2a4ba2aaadf,
home improvement,home improvement,Home Paat,"2FQH+V5X, Motoling Satu, Kec. Motoling, Kabupaten Minahasa Selatan, Sulawesi Utara","Kabupaten Minahasa Selatan, Sulawesi Utara",SULAWESI UTARA,,Indonesia,,,,1.0397408,124.4779765,https://maps.google.com/?cid=0x0:0x1df258587f9a25e4,
home improvement,home improvement,Pusomaen,"Kabupaten Minahasa Tenggara, Sulawesi Utara","Kabupaten Minahasa Tenggara, Sulawesi Utara",SULAWESI UTARA,,Indonesia,,,,1.0023906,124.8734523,https://maps.google.com/?cid=0x0:0x51e2c80582c52819,
home improvement,Toko Mebel,Toko Meuble Jorge,"XVP9+5M2, Tatengesan Satu, Pusomaen, Kabupaten Minahasa Tenggara, Sulawesi Utara","Kabupaten Minahasa Tenggara, Sulawesi Utara",SULAWESI UTARA,,Indonesia,,,,0.98538,124.86914,https://maps.google.com/?cid=0x0:0xa77b79a2a3815dfa,
home improvement,Kantor Perusahaan,WORKSHOP RUMAH KAYU MANADO (PT. Woloan Permai Perkasa),"Woloan Dua, Woloan Satu, Kec. Tomohon Bar., Kota Tomohon, Sulawesi Utara 95422","Woloan Satu, Kec. Tomohon Bar., Kota Tomohon",SULAWESI UTARA,95422,Indonesia,8151604111.0,,,1.3113281,124.8035895,https://maps.google.com/?cid=0x0:0x30f6d20ea91f00d5,
home improvement,Toko,MR.DIY Ratahan,"Jl. Ratahan - Kotamobagu, Tosuraya, Kec. Ratahan, Kabupaten Minahasa Tenggara, Sulawesi Utara 95995","Tosuraya, Kec. Ratahan, Kabupaten Minahasa Tenggara",SULAWESI UTARA,95995,Indonesia,,,,1.0554419,124.8019899,https://maps.google.com/?cid=0x0:0x85adf2a4ba2aaadf,
home improvement,Toko Mebel,Workshop pintu  kosen,"WQVM+HXC, Ponosakan Belang, Kabupaten Minahasa Tenggara, Sulawesi Utara","Kabupaten Minahasa Tenggara, Sulawesi Utara",SULAWESI UTARA,,Indonesia,,,,0.9439172,124.7849324,https://maps.google.com/?cid=0x0:0xc57b6989221d6dfd,
home improvement,Komplek perumahan,B3 home,"3RW7+MM7, Jl. Jaga 4, Pangu Satu, Kec. Ratahan Tim., Kabupaten Minahasa Tenggara, Sulawesi Utara","Kabupaten Minahasa Tenggara, Sulawesi Utara",SULAWESI UTARA,,Indonesia,,,,1.0966554,124.8141745,https://maps.google.com/?cid=0x0:0xb276b533924dedbf,
home improvement,Toko Mebel,Boltim,"XQWW+82R, Langowan - Ratahan - Belong, Tosuraya Sel., Kec. Ratahan, Kabupaten Minahasa Tenggara, Sulawesi Utara","Kabupaten Minahasa Tenggara, Sulawesi Utara",SULAWESI UTARA,,Indonesia,,,,0.9958611,124.7950278,https://maps.google.com/?cid=0x0:0xadcfc6d4ece154a4,
home improvement,Toko Mebel,Viko Furniture And Houseware,"3R22+V3M, Jl. Ratahan - Kotamobagu, Tosuraya Sel., Kec. Ratahan, Kabupaten Minahasa Tenggara, Sulawesi Utara","Kabupaten Minahasa Tenggara, Sulawesi Utara",SULAWESI UTARA,,Indonesia,,,,1.0522141,124.8001658,https://maps.google.com/?cid=0x0:0x12e53dd851223330,
home improvement,Rumah Kaca,PiohBesouw Home,"6VWW+J9C, Peleloan, Kec. Tondano Sel., Kabupaten Minahasa, Sulawesi Utara","Kabupaten Minahasa, Sulawesi Utara",SULAWESI UTARA,,Indonesia,,,,1.2465583,124.8958947,https://maps.google.com/?cid=0x0:0xfa8984c1a73c6a6e,
home improvement,Kompleks Kondominium,Home (Kel.Rondonuwu-wuisan),"FXF8+879, Matungkas, Kec. Dimembe, Kabupaten Minahasa Utara, Sulawesi Utara","Kabupaten Minahasa Utara, Sulawesi Utara",SULAWESI UTARA,,Indonesia,,,,1.4730003,124.9656932,https://maps.google.com/?cid=0x0:0x3d79fe51888203d3,
home improvement,Toko Perlengkapan Rumah,Toko Andi Naifa,"XQ5X+5M4 depan Diler Suzuki lama, Jalan raya, Tababo, Kec. Belang, Kabupaten Minahasa Tenggara, Sulawesi Utara 95997","Jalan raya, Tababo, Kec. Belang, Kabupaten Minahasa Tenggara",SULAWESI UTARA,95997,Indonesia,,,,0.9578979,124.7991912,https://maps.google.com/?cid=0x0:0x654d55e9856ce6f9,
home improvement,Komplek perumahan,Home Hweet Home,"FXHF+8PW, Matungkas, Kec. Dimembe, Kabupaten Minahasa Utara, Sulawesi Utara","Kabupaten Minahasa Utara, Sulawesi Utara",SULAWESI UTARA,,Indonesia,,,,1.4783591,124.9743272,https://maps.google.com/?cid=0x0:0x115386d462e695f3,
home improvement,Komplek perumahan,Aby home,"CRM2+Q9M, Sea I, Kec. Pineleng, Kabupaten Minahasa, Sulawesi Utara","Kabupaten Minahasa, Sulawesi Utara",SULAWESI UTARA,,Indonesia,85398961117.0,,,1.4344585,124.8009259,https://maps.google.com/?cid=0x0:0xe6a331b5c541ba55,
home improvement,Komplek perumahan,MW home,"5XHR+C5W, RT.Kapataran/RW.1, Watulaney, Kec. Lembean Tim., Kabupaten Minahasa, Sulawesi Utara","Kabupaten Minahasa, Sulawesi Utara",SULAWESI UTARA,,Indonesia,,,,1.1786632,124.9914021,https://maps.google.com/?cid=0x0:0x85665049126693bb,
home improvement,Komplek perumahan,Tampi home,"7W3M+M39, Touliang Oki, Kec. Eris, Kabupaten Minahasa, Sulawesi Utara","Kabupaten Minahasa, Sulawesi Utara",SULAWESI UTARA,,Indonesia,,,,1.2541532,124.9327497,https://maps.google.com/?cid=0x0:0x6b2d90e3d9bf8d3f,
home improvement,Rumah Kaca,Ivone Home's,"2QF3+7Q5, Towuntu Tim., Kec. Pasan, Kabupaten Minahasa Tenggara, Sulawesi Utara","Kabupaten Minahasa Tenggara, Sulawesi Utara",SULAWESI UTARA,,Indonesia,,,,1.0231373,124.7544967,https://maps.google.com/?cid=0x0:0x64e56299d95446dd,
home improvement,Dapur Umum,Bermutin home,"5PWR+3W7, Tombasian Bawah, Kec. Kawangkoan Bar., Kabupaten Minahasa, Sulawesi Utara","Kabupaten Minahasa, Sulawesi Utara",SULAWESI UTARA,,Indonesia,,,,1.1951519,124.7423108,https://maps.google.com/?cid=0x0:0xb1bc6eb0ddd188a0,
home improvement,Gedung Apartemen,Christy Wuisan Home,"2JM5+HW5, Ranoako, Kec. Touluaan Sel., Kabupaten Minahasa Tenggara, Sulawesi Utara","Kabupaten Minahasa Tenggara, Sulawesi Utara",SULAWESI UTARA,,Indonesia,,,,1.0331332,124.6100841,https://maps.google.com/?cid=0x0:0xf1e8998f35473ba7,
home improvement,Rumah Kaca,My Home_fc,"CVVM+X8Q, CVWM+292SawanganKec, Kec. Tombulu, Kabupaten Minahasa, Sulawesi Utara","Kabupaten Minahasa, Sulawesi Utara",SULAWESI UTARA,,Indonesia,,,,1.4449681,124.8833717,https://maps.google.com/?cid=0x0:0x99e008c6cd4f0cb6,
home improvement,Komplek perumahan,Putri Tampi Home,"CQQ3+XRM, Tateli, Kec. Pineleng, Kabupaten Minahasa, Sulawesi Utara","Kabupaten Minahasa, Sulawesi Utara",SULAWESI UTARA,,Indonesia,,,,1.439964,124.7545436,https://maps.google.com/?cid=0x0:0x4264093a345674cb,
home improvement,home improvement,HomePavel,"2VXF+6Q7, Wiau, Pusomaen, Kabupaten Minahasa Tenggara, Sulawesi Utara","Kabupaten Minahasa Tenggara, Sulawesi Utara",SULAWESI UTARA,,Indonesia,,,,1.0480432,124.8744276,https://maps.google.com/?cid=0x0:0x6a5840e2a4b58eb2,
home improvement,Toko,MR.DIY Ratahan,"Jl. Ratahan - Kotamobagu, Tosuraya, Kec. Ratahan, Kabupaten Minahasa Tenggara, Sulawesi Utara 95995","Tosuraya, Kec. Ratahan, Kabupaten Minahasa Tenggara",SULAWESI UTARA,95995,Indonesia,,,,1.0554419,124.8019899,https://maps.google.com/?cid=0x0:0x85adf2a4ba2aaadf,
home improvement,Toko Perlengkapan Rumah,MR.DIY Amurang,"Uwuran Satu, Kec. Amurang, Kabupaten Minahasa Selatan, Sulawesi Utara","Kabupaten Minahasa Selatan, Sulawesi Utara",SULAWESI UTARA,,Indonesia,,,,1.1835004,124.5734617,https://maps.google.com/?cid=0x0:0x2b511c7f8dd882f3,
home improvement,home improvement,Ratahan,"Tosuraya, Kec. Ratahan, Kabupaten Minahasa Tenggara, Sulawesi Utara","Kabupaten Minahasa Tenggara, Sulawesi Utara",SULAWESI UTARA,,Indonesia,,,,1.052761,124.802101,https://maps.google.com/?cid=0x0:0x7c6adb8240ffb5d8,
home improvement,Toko Mebel,Boltim,"XQWW+82R, Langowan - Ratahan - Belong, Tosuraya Sel., Kec. Ratahan, Kabupaten Minahasa Tenggara, Sulawesi Utara","Kabupaten Minahasa Tenggara, Sulawesi Utara",SULAWESI UTARA,,Indonesia,,,,0.9958611,124.7950278,https://maps.google.com/?cid=0x0:0xadcfc6d4ece154a4,
home improvement,Komplek perumahan,Home Hweet Home,"FXHF+8PW, Matungkas, Kec. Dimembe, Kabupaten Minahasa Utara, Sulawesi Utara","Kabupaten Minahasa Utara, Sulawesi Utara",SULAWESI UTARA,,Indonesia,,,,1.4783591,124.9743272,https://maps.google.com/?cid=0x0:0x115386d462e695f3,
home improvement,Komplek perumahan,Tangian's Home,"VPG2+FFH, Ratatotok Satu, Kec. Ratatotok, Kabupaten Minahasa Tenggara, Sulawesi Utara 95997","Ratatotok Satu, Kec. Ratatotok, Kabupaten Minahasa Tenggara",SULAWESI UTARA,95997,Indonesia,,,,0.8761783,124.7012314,https://maps.google.com/?cid=0x0:0x21318d27c2052442,
home improvement,Komplek perumahan,B3 home,"3RW7+MM7, Jl. Jaga 4, Pangu Satu, Kec. Ratahan Tim., Kabupaten Minahasa Tenggara, Sulawesi Utara","Kabupaten Minahasa Tenggara, Sulawesi Utara",SULAWESI UTARA,,Indonesia,,,,1.0966554,124.8141745,https://maps.google.com/?cid=0x0:0xb276b533924dedbf,
home improvement,Gedung Apartemen,RHAY HOME,"FXV8+PH3, Laikit, Kec. Dimembe, Kabupaten Minahasa Utara, Sulawesi Utara","Kabupaten Minahasa Utara, Sulawesi Utara",SULAWESI UTARA,,Indonesia,,,,1.4942572,124.9664338,https://maps.google.com/?cid=0x0:0xb83ecf58c213dcf6,
home improvement,Bengkel Sepeda Motor,Nay Home Garage,"3R63+77X, Lowu Utara, Kec. Ratahan, Kabupaten Minahasa Tenggara, Sulawesi Utara","Kabupaten Minahasa Tenggara, Sulawesi Utara",SULAWESI UTARA,,Indonesia,,,,1.0607385,124.8030702,https://maps.google.com/?cid=0x0:0xd8ab7bb559654597,
home improvement,home improvement,Ein Home,"3R53+F9M, Lowu Satu, Kec. Ratahan, Kabupaten Minahasa Tenggara, Sulawesi Utara","Kabupaten Minahasa Tenggara, Sulawesi Utara",SULAWESI UTARA,,Indonesia,,,,1.0587091,124.8034452,https://maps.google.com/?cid=0x0:0x970ff6d5a4029bf3,
home improvement,home improvement,Kec. Ratahan Tim.,"Kabupaten Minahasa Tenggara, Sulawesi Utara","Kabupaten Minahasa Tenggara, Sulawesi Utara",SULAWESI UTARA,,Indonesia,,,,1.0937692,124.815983,https://maps.google.com/?cid=0x0:0x26a0154fbfe940e4,
home improvement,Toko,MR.DIY Ratahan,"Jl. Ratahan - Kotamobagu, Tosuraya, Kec. Ratahan, Kabupaten Minahasa Tenggara, Sulawesi Utara 95995","Tosuraya, Kec. Ratahan, Kabupaten Minahasa Tenggara",SULAWESI UTARA,95995,Indonesia,,,,1.0554419,124.8019899,https://maps.google.com/?cid=0x0:0x85adf2a4ba2aaadf,
home improvement,Komplek perumahan,Home Hweet Home,"FXHF+8PW, Matungkas, Kec. Dimembe, Kabupaten Minahasa Utara, Sulawesi Utara","Kabupaten Minahasa Utara, Sulawesi Utara",SULAWESI UTARA,,Indonesia,,,,1.4783591,124.9743272,https://maps.google.com/?cid=0x0:0x115386d462e695f3,
home improvement,Komplek perumahan,Tangian's Home,"VPG2+FFH, Ratatotok Satu, Kec. Ratatotok, Kabupaten Minahasa Tenggara, Sulawesi Utara 95997","Ratatotok Satu, Kec. Ratatotok, Kabupaten Minahasa Tenggara",SULAWESI UTARA,95997,Indonesia,,,,0.8761783,124.7012314,https://maps.google.com/?cid=0x0:0x21318d27c2052442,
home improvement,Rumah wisata,Ndyy Home,"VMGX+QR6, Ratatotok Satu, Kec. Ratatotok, Kabupaten Minahasa Tenggara, Sulawesi Utara 95997","Ratatotok Satu, Kec. Ratatotok, Kabupaten Minahasa Tenggara",SULAWESI UTARA,95997,Indonesia,,,,0.8770726,124.6991389,https://maps.google.com/?cid=0x0:0xb1a9b85a7166ca33,
home improvement,Taman,En'd Home,"2QRG+PF4, Jl. Siswa, Rasi Satu, Kec. Ratahan, Kabupaten Minahasa Tenggara, Sulawesi Utara","Kabupaten Minahasa Tenggara, Sulawesi Utara",SULAWESI UTARA,,Indonesia,,,,1.0423358,124.7766051,https://maps.google.com/?cid=0x0:0xfc2c3fc72e1bef83,
home improvement,Komplek perumahan,B3 home,"3RW7+MM7, Jl. Jaga 4, Pangu Satu, Kec. Ratahan Tim., Kabupaten Minahasa Tenggara, Sulawesi Utara","Kabupaten Minahasa Tenggara, Sulawesi Utara",SULAWESI UTARA,,Indonesia,,,,1.0966554,124.8141745,https://maps.google.com/?cid=0x0:0xb276b533924dedbf,
home improvement,Rumah Kaca,Air'R Home,"CQR7+X57, Tateli, Kec. Pineleng, Kabupaten Minahasa, Sulawesi Utara","Kabupaten Minahasa, Sulawesi Utara",SULAWESI UTARA,,Indonesia,89670012377.0,,,1.4424654,124.7628812,https://maps.google.com/?cid=0x0:0x8302f8b8b1befc84,
home improvement,Inspektur Tempat Tinggal,Listy,"3RR8+M9V, Pangu Dua, Kec. Ratahan Tim., Kabupaten Minahasa Tenggara, Sulawesi Utara","Kabupaten Minahasa Tenggara, Sulawesi Utara",SULAWESI UTARA,,Indonesia,,,,1.0919782,124.8159937,https://maps.google.com/?cid=0x0:0x777147cf870c70d,
home improvement,home improvement,Kec. Ratatotok,"Kabupaten Minahasa Tenggara, Sulawesi Utara","Kabupaten Minahasa Tenggara, Sulawesi Utara",SULAWESI UTARA,,Indonesia,,,,0.8739142,124.7003929,https://maps.google.com/?cid=0x0:0xfad043f7df9d10da,
home improvement,Aksesori Mebel,Meubel Tampi,"Ratatotok Utara, Kec. Ratatotok, Kabupaten Minahasa Tenggara, Sulawesi Utara 95997","Kec. Ratatotok, Kabupaten Minahasa Tenggara",SULAWESI UTARA,95997,Indonesia,,,,0.878067,124.7012201,https://maps.google.com/?cid=0x0:0x60024b7dd4889766,
home improvement,Komplek perumahan,Tangian's Home,"VPG2+FFH, Ratatotok Satu, Kec. Ratatotok, Kabupaten Minahasa Tenggara, Sulawesi Utara 95997","Ratatotok Satu, Kec. Ratatotok, Kabupaten Minahasa Tenggara",SULAWESI UTARA,95997,Indonesia,,,,0.8761783,124.7012314,https://maps.google.com/?cid=0x0:0x21318d27c2052442,
home improvement,Komplek perumahan,Mei home,"VPG2+X6R, Ratatotok Utara, Kec. Ratatotok, Kabupaten Minahasa Tenggara, Sulawesi Utara 95997","Ratatotok Utara, Kec. Ratatotok, Kabupaten Minahasa Tenggara",SULAWESI UTARA,95997,Indonesia,,,,0.8774819,124.7005001,https://maps.google.com/?cid=0x0:0xaed60791453f5b08,
home improvement,Produsen,PT.HAKIAN WELLEM RUMANSI,"WM4J+29, Ratatotok Sel., Kec. Ratatotok, Kabupaten Minahasa Tenggara, Sulawesi Utara 95997","Ratatotok Sel., Kec. Ratatotok, Kabupaten Minahasa Tenggara",SULAWESI UTARA,95997,Indonesia,,,,0.9050647,124.680894,https://maps.google.com/?cid=0x0:0xc2bb98000f373c31,
home improvement,Komplek perumahan,Home fito,"VMFW+5RW, Ratatotok Tenggara, Kec. Ratatotok, Kabupaten Minahasa Tenggara, Sulawesi Utara 95997","Ratatotok Tenggara, Kec. Ratatotok, Kabupaten Minahasa Tenggara",SULAWESI UTARA,95997,Indonesia,,,,0.872987,124.6970129,https://maps.google.com/?cid=0x0:0x8355743644e8da97,
home improvement,Rumah Kaca,HOME SAIDI RAMA,"VPF2+H5J, Ratatotok Satu, Kec. Ratatotok, Kabupaten Minahasa Tenggara, Sulawesi Utara 95997","Ratatotok Satu, Kec. Ratatotok, Kabupaten Minahasa Tenggara",SULAWESI UTARA,95997,Indonesia,,,,0.8739692,124.7003863,https://maps.google.com/?cid=0x0:0x756ca89acd355314,
home improvement,Kios,Home kezia,"VPH2+7C6, Ratatotok Utara, Kec. Ratatotok, Kabupaten Minahasa Tenggara, Sulawesi Utara 95997","Ratatotok Utara, Kec. Ratatotok, Kabupaten Minahasa Tenggara",SULAWESI UTARA,95997,Indonesia,,,,0.8779342,124.7004631,https://maps.google.com/?cid=0x0:0xcc54c6a3760a3e30,
home improvement,Perhimpunan Pengembang Perumahan,Home Base Khai,"VP85+VMX, Jl. Boulevard, Ratatotok Muara, Kec. Ratatotok, Kabupaten Minahasa Tenggara, Sulawesi Utara 95997","Jl. Boulevard, Ratatotok Muara, Kec. Ratatotok, Kabupaten Minahasa Tenggara",SULAWESI UTARA,95997,Indonesia,,,,0.8678509,124.7089709,https://maps.google.com/?cid=0x0:0x42aa5b6a22614cbc,
home improvement,Komplek perumahan,Home yolva,"VMCW+VF2 kampung kanari, Ratatotok Sel., Kec. Ratatotok, Kabupaten Minahasa Tenggara, Sulawesi Utara 95997","Ratatotok Sel., Kec. Ratatotok, Kabupaten Minahasa Tenggara",SULAWESI UTARA,95997,Indonesia,,,,0.8721396,124.6961298,https://maps.google.com/?cid=0x0:0xb1eac07b52061db6,
home improvement,Komplek perumahan,Home Pandese-Tumiwa,"VPC3+G4F, Ratatotok, Kec. Ratatotok, Kabupaten Minahasa Tenggara, Sulawesi Utara 95997","Ratatotok, Kec. Ratatotok, Kabupaten Minahasa Tenggara",SULAWESI UTARA,95997,Indonesia,,,,0.8713617,124.7027353,https://maps.google.com/?cid=0x0:0xffd0319c9cce791a,
home improvement,Komplek perumahan,Christ Home,"VMJM+956, Ratatotok, Kec. Ratatotok, Kabupaten Minahasa Tenggara, Sulawesi Utara 95997","Ratatotok, Kec. Ratatotok, Kabupaten Minahasa Tenggara",SULAWESI UTARA,95997,Indonesia,,,,0.8809198,124.6828943,https://maps.google.com/?cid=0x0:0x16d62b3905252afd,
home improvement,Kantor Perusahaan,Seng Biru,"RMXX+CP, Ratatotok Tim., Kec. Ratatotok, Kabupaten Minahasa Tenggara, Sulawesi Utara","Kabupaten Minahasa Tenggara, Sulawesi Utara",SULAWESI UTARA,,Indonesia,,,,0.84863,124.6994614,https://maps.google.com/?cid=0x0:0x82220965299e1648,
home improvement,Komplek perumahan,Since Tiwow Home,"VPF3+R9H, Ratatotok Tengah, Kec. Ratatotok, Kabupaten Minahasa Tenggara, Sulawesi Utara 95997","Ratatotok Tengah, Kec. Ratatotok, Kabupaten Minahasa Tenggara",SULAWESI UTARA,95997,Indonesia,,,,0.8745559,124.7034965,https://maps.google.com/?cid=0x0:0x538105ac5e6ad3c1,
home improvement,Komplek perumahan,Home Adrilien Watuseke Kahiwoi,"VMFX+FR9, Ratatotok Tenggara, Kec. Ratatotok, Kabupaten Minahasa Tenggara, Sulawesi Utara 95997","Ratatotok Tenggara, Kec. Ratatotok, Kabupaten Minahasa Tenggara",SULAWESI UTARA,95997,Indonesia,,,,0.8735721,124.6995364,https://maps.google.com/?cid=0x0:0x625588303dc65639,
home improvement,,Bengkel las Onal,"VMCV+JF7, Jalan baru, Ratatotok Sel., Kec. Ratatotok, Kabupaten Minahasa Tenggara, Sulawesi Utara 95997","Jalan baru, Ratatotok Sel., Kec. Ratatotok, Kabupaten Minahasa Tenggara",SULAWESI UTARA,95997,Indonesia,81210515870.0,,,0.8715432,124.6936868,https://maps.google.com/?cid=0x0:0x96b2a4dae5e85e35,
home improvement,Komplek perumahan,kasih home,"VMGX+4GW, Ratatotok Satu, Kec. Ratatotok, Kabupaten Minahasa Tenggara, Sulawesi Utara 95997","Ratatotok Satu, Kec. Ratatotok, Kabupaten Minahasa Tenggara",SULAWESI UTARA,95997,Indonesia,,,,0.8753729,124.6988197,https://maps.google.com/?cid=0x0:0x2da0589cd615088c,
home improvement,Komplek perumahan,Rotinsulu Home,"VPH2+8H2, Ratatotok Utara, Kec. Ratatotok, Kabupaten Minahasa Tenggara, Sulawesi Utara 95997","Ratatotok Utara, Kec. Ratatotok, Kabupaten Minahasa Tenggara",SULAWESI UTARA,95997,Indonesia,,,,0.878273,124.7013979,https://maps.google.com/?cid=0x0:0xbe3fd137b4ea041a,
home improvement,Komplek perumahan,Livi home,"VMGX+4H7, Ratatotok Satu, Kec. Ratatotok, Kabupaten Minahasa Tenggara, Sulawesi Utara 95997","Ratatotok Satu, Kec. Ratatotok, Kabupaten Minahasa Tenggara",SULAWESI UTARA,95997,Indonesia,,,,0.8752882,124.6991126,https://maps.google.com/?cid=0x0:0x967dd16a0b3edccc,
home improvement,Musician,Home Studio Music MB,"VMFW+276, Ratatotok Tenggara, Kec. Ratatotok, Kabupaten Minahasa Tenggara, Sulawesi Utara 95997","Ratatotok Tenggara, Kec. Ratatotok, Kabupaten Minahasa Tenggara",SULAWESI UTARA,95997,Indonesia,,,,0.8721422,124.6959434,https://maps.google.com/?cid=0x0:0x33c8b0b2748c674e,
home improvement,Toko,Toko ANgel,"Ratatotok Satu, Kec. Ratatotok, Kabupaten Minahasa Tenggara, Sulawesi Utara 95997","Kec. Ratatotok, Kabupaten Minahasa Tenggara",SULAWESI UTARA,95997,Indonesia,,,,0.8749411,124.6993982,https://maps.google.com/?cid=0x0:0x1fa5d074789edb57,
home improvement,Otoritas Perumahan,Home,"3M6C+65W, Silian Sel., Kec. Silian Raya, Kabupaten Minahasa Tenggara, Sulawesi Utara","Kabupaten Minahasa Tenggara, Sulawesi Utara",SULAWESI UTARA,,Indonesia,,,,1.0606076,124.6704614,https://maps.google.com/?cid=0x0:0xaf7f6cc87eecb412,
home improvement,home improvement,Kec. Silian Raya,"Kabupaten Minahasa Tenggara, Sulawesi Utara","Kabupaten Minahasa Tenggara, Sulawesi Utara",SULAWESI UTARA,,Indonesia,,,,1.0607028,124.6706139,https://maps.google.com/?cid=0x0:0xc85569b0227031a5,
home improvement,Pembangunan Perumahan,Silian Dua Jaga 4,"3M77+G4C, Jl. Raya Silian Tombatu, Silian Bar., Kec. Silian Raya, Kabupaten Minahasa Tenggara, Sulawesi Utara","Kabupaten Minahasa Tenggara, Sulawesi Utara",SULAWESI UTARA,,Indonesia,,,,1.0609218,124.663239,https://maps.google.com/?cid=0x0:0x757267c0f5b7ff74,
home improvement,Komplek perumahan,Sonia home,"3M6C+J77, Silian Utara, Kec. Silian Raya, Kabupaten Minahasa Tenggara, Sulawesi Utara","Kabupaten Minahasa Tenggara, Sulawesi Utara",SULAWESI UTARA,,Indonesia,,,,1.0615375,124.6706847,https://maps.google.com/?cid=0x0:0x7909cbeb1513a5e8,
home improvement,Pembangunan Perumahan,Sindy Home,"3M68+V3M, Silian Dua, Kec. Silian Raya, Kabupaten Minahasa Tenggara, Sulawesi Utara","Kabupaten Minahasa Tenggara, Sulawesi Utara",SULAWESI UTARA,,Indonesia,,,,1.0622075,124.6651615,https://maps.google.com/?cid=0x0:0xd7441a3a50bec2b8,
home improvement,Komplek perumahan,Clara's Home Silian,"Silian, Kec. Silian Raya, Kabupaten Minahasa Tenggara, Sulawesi Utara","Kabupaten Minahasa Tenggara, Sulawesi Utara",SULAWESI UTARA,,Indonesia,,,,1.0636611,124.6649779,https://maps.google.com/?cid=0x0:0xecb0d7157529ee92,
home improvement,Rumah Kayu,Silia home,"CV4P+HFC, Kembes I, Kec. Tombulu, Kabupaten Minahasa, Sulawesi Utara","Kabupaten Minahasa, Sulawesi Utara",SULAWESI UTARA,,Indonesia,,,,1.406417,124.885617,https://maps.google.com/?cid=0x0:0x83836233ce627d8b,
home improvement,Rumah Kaca,Shera home,"CR6G+M73, Warembungan, Kec. Pineleng, Kabupaten Minahasa, Sulawesi Utara","Kabupaten Minahasa, Sulawesi Utara",SULAWESI UTARA,,Indonesia,881024581356.0,,,1.4116003,124.8254726,https://maps.google.com/?cid=0x0:0x5a1122adae862f74,
home improvement,home improvement,Kec. Tombatu,"Kabupaten Minahasa Tenggara, Sulawesi Utara","Kabupaten Minahasa Tenggara, Sulawesi Utara",SULAWESI UTARA,,Indonesia,,,,1.0392874,124.6821911,https://maps.google.com/?cid=0x0:0x15df6048da14c99b,
home improvement,Komplek perumahan,Home Tombatu,"2MQM+96X, Tombatu, Kec. Tombatu, Kabupaten Minahasa Tenggara, Sulawesi Utara","Kabupaten Minahasa Tenggara, Sulawesi Utara",SULAWESI UTARA,,Indonesia,,,,1.0384986,124.6831099,https://maps.google.com/?cid=0x0:0xf749947a978423f6,
home improvement,Komplek perumahan,Kevin Home,"2MXJ+JJQ Kec. Tombatu Utara, Tombatu Dua Bar., Jaga 4, Kabupaten Minahasa Tenggara, Sulawesi Utara 95996","Tombatu Dua Bar., Jaga 4, Kabupaten Minahasa Tenggara",SULAWESI UTARA,95996,Indonesia,,,,1.0490687,124.6817434,https://maps.google.com/?cid=0x0:0x163897fe2e4f086a,
home improvement,Toko Bahan Bangunan,Toko Millysurya TOMBATU,"Jl. Tombatu Kali RT.01, Desa Tombatu, Kecamatan Tombatu, Tombatu, Kec. Tombatu, Kabupaten Minahasa Tenggara, Sulawesi Utara","Kabupaten Minahasa Tenggara, Sulawesi Utara",SULAWESI UTARA,,Indonesia,89602010675.0,,,1.0388156,124.6831958,https://maps.google.com/?cid=0x0:0x90ad3317b6415b2e,
home improvement,Toko Perlengkapan Rumah,RW Wood Craft Tombatu,"2MVH+JV6, Betelan Satu, Kec. Tombatu, Kabupaten Minahasa Tenggara, Sulawesi Utara","Kabupaten Minahasa Tenggara, Sulawesi Utara",SULAWESI UTARA,,Indonesia,,,,1.044035,124.6796449,https://maps.google.com/?cid=0x0:0x873042236c84bb8f,
home improvement,Toko bahan makanan,Homey,"2MWP+653, Tombatu Dua, Kec. Tombatu Utara, Kabupaten Minahasa Tenggara, Sulawesi Utara","Kabupaten Minahasa Tenggara, Sulawesi Utara",SULAWESI UTARA,,Indonesia,,,,1.0455267,124.6854883,https://maps.google.com/?cid=0x0:0x3e28f2f6a0fc095b,
home improvement,Toko,Home EiveEfanIchy,"2PHG+MJ5, Unnamed Road, Molompar Dua Utara, Kec. Tombatu Tim., Kabupaten Minahasa Tenggara, Sulawesi Utara","Kabupaten Minahasa Tenggara, Sulawesi Utara",SULAWESI UTARA,,Indonesia,89698016307.0,,,1.0291311,124.7266009,https://maps.google.com/?cid=0x0:0x8f4c816b5d6ea054,
home improvement,Pembangunan Perumahan,ivaaah home,"2MWH+5XR, Tombatu Dua Tengah, Kec. Tombatu Utara, Kabupaten Minahasa Tenggara, Sulawesi Utara","Kabupaten Minahasa Tenggara, Sulawesi Utara",SULAWESI UTARA,,Indonesia,,,,1.0453705,124.679832,https://maps.google.com/?cid=0x0:0x434491c7605ca8b2,
home improvement,Komplek perumahan,Dotulong karawisan home,"2MVJ+37V, Tombatu Satu, Kec. Tombatu, Kabupaten Minahasa Tenggara, Sulawesi Utara","Kabupaten Minahasa Tenggara, Sulawesi Utara",SULAWESI UTARA,,Indonesia,,,,1.0426606,124.6807839,https://maps.google.com/?cid=0x0:0xbfc542618c029c20,
home improvement,Losmen,Gabriel Home,"2MRC+747, Kali Oki, Kec. Tombatu, Kabupaten Minahasa Tenggara, Sulawesi Utara","Kabupaten Minahasa Tenggara, Sulawesi Utara",SULAWESI UTARA,,Indonesia,,,,1.0406736,124.6702901,https://maps.google.com/?cid=0x0:0x98eb6b190529e058,
home improvement,Toko Bahan Bangunan,Tombatu dua tengah jaga IV,"2MXH+FQC, Tombatu Dua Tengah, Kec. Tombatu Utara, Kabupaten Minahasa Tenggara, Sulawesi Utara","Kabupaten Minahasa Tenggara, Sulawesi Utara",SULAWESI UTARA,,Indonesia,,,,1.0486986,124.6793915,https://maps.google.com/?cid=0x0:0x175db0aa1b0e781e,
home improvement,Toko umum,injilia Home,"2PPC+9F5, Winorangian Atas, Kec. Tombatu Utara, Kabupaten Minahasa Tenggara, Sulawesi Utara","Kabupaten Minahasa Tenggara, Sulawesi Utara",SULAWESI UTARA,,Indonesia,,,,1.0358875,124.7212344,https://maps.google.com/?cid=0x0:0xb96c5a98b8bb55ad,
home improvement,Rumah Kaca,Home gerlly,"Esandom Dua, Kec. Tombatu Tim., Kabupaten Minahasa Tenggara, Sulawesi Utara","Kabupaten Minahasa Tenggara, Sulawesi Utara",SULAWESI UTARA,,Indonesia,,,,1.0131875,124.7174531,https://maps.google.com/?cid=0x0:0xbd01de79319d0e46,
home improvement,Toko,Mentari Home,"2PR9+9QJ, Winorangian, Kec. Tombatu Utara, Kabupaten Minahasa Tenggara, Sulawesi Utara","Kabupaten Minahasa Tenggara, Sulawesi Utara",SULAWESI UTARA,,Indonesia,,,,1.0409567,124.7193896,https://maps.google.com/?cid=0x0:0xe61f46e85ef4fc76,
home improvement,Toko umum,SM home,"2PQ9+WV4, Winorangian Atas, Kec. Tombatu Utara, Kabupaten Minahasa Tenggara, Sulawesi Utara","Kabupaten Minahasa Tenggara, Sulawesi Utara",SULAWESI UTARA,,Indonesia,,,,1.0397589,124.7196963,https://maps.google.com/?cid=0x0:0x8b2eb71b7a7169e,
home improvement,Pembangunan Perumahan,Home. Kel. Legi Manopo,"2MRM+PW5, Tombatu Tiga Sel., Kec. Tombatu, Kabupaten Minahasa Tenggara, Sulawesi Utara","Kabupaten Minahasa Tenggara, Sulawesi Utara",SULAWESI UTARA,,Indonesia,,,,1.0417625,124.6848594,https://maps.google.com/?cid=0x0:0x236a60aec88d445e,
home improvement,Komplek perumahan,My Home,"2PJJ+Q7F, Molompar Dua, Kec. Tombatu Tim., Kabupaten Minahasa Tenggara, Sulawesi Utara","Kabupaten Minahasa Tenggara, Sulawesi Utara",SULAWESI UTARA,,Indonesia,,,,1.0319392,124.7306602,https://maps.google.com/?cid=0x0:0xc8f3e30dc5740322,
home improvement,Toko Roti,Rhizky joo home,"2MWP+69J, Jl. Puskesmas, Tombatu Dua, Kec. Tombatu Utara, Kabupaten Minahasa Tenggara, Sulawesi Utara","Kabupaten Minahasa Tenggara, Sulawesi Utara",SULAWESI UTARA,,Indonesia,,,,1.0455939,124.6858768,https://maps.google.com/?cid=0x0:0x8ca509d02e63d624,
home improvement,Toko,Home EiveEfanIchy,"2PHG+MJ5, Unnamed Road, Molompar Dua Utara, Kec. Tombatu Tim., Kabupaten Minahasa Tenggara, Sulawesi Utara","Kabupaten Minahasa Tenggara, Sulawesi Utara",SULAWESI UTARA,,Indonesia,89698016307.0,,,1.0291311,124.7266009,https://maps.google.com/?cid=0x0:0x8f4c816b5d6ea054,
home improvement,home improvement,Kec. Tombatu Tim.,"Kabupaten Minahasa Tenggara, Sulawesi Utara","Kabupaten Minahasa Tenggara, Sulawesi Utara",SULAWESI UTARA,,Indonesia,,,,1.0260417,124.7260931,https://maps.google.com/?cid=0x0:0xc4583ba933d210d3,
home improvement,Komplek perumahan,Home C,"2MQJ+MVV, Tombatu Satu, Kec. Tombatu, Kabupaten Minahasa Tenggara, Sulawesi Utara","Kabupaten Minahasa Tenggara, Sulawesi Utara",SULAWESI UTARA,,Indonesia,,,,1.0392408,124.6821647,https://maps.google.com/?cid=0x0:0x7d3ab9dd170224ec,
home improvement,Toko umum,injilia Home,"2PPC+9F5, Winorangian Atas, Kec. Tombatu Utara, Kabupaten Minahasa Tenggara, Sulawesi Utara","Kabupaten Minahasa Tenggara, Sulawesi Utara",SULAWESI UTARA,,Indonesia,,,,1.0358875,124.7212344,https://maps.google.com/?cid=0x0:0xb96c5a98b8bb55ad,
home improvement,Komplek perumahan,My Home,"2PJJ+Q7F, Molompar Dua, Kec. Tombatu Tim., Kabupaten Minahasa Tenggara, Sulawesi Utara","Kabupaten Minahasa Tenggara, Sulawesi Utara",SULAWESI UTARA,,Indonesia,,,,1.0319392,124.7306602,https://maps.google.com/?cid=0x0:0xc8f3e30dc5740322,
home improvement,Toko Bahan Bangunan,Toko Millysurya TOMBATU,"Jl. Tombatu Kali RT.01, Desa Tombatu, Kecamatan Tombatu, Tombatu, Kec. Tombatu, Kabupaten Minahasa Tenggara, Sulawesi Utara","Kabupaten Minahasa Tenggara, Sulawesi Utara",SULAWESI UTARA,,Indonesia,89602010675.0,,,1.0388156,124.6831958,https://maps.google.com/?cid=0x0:0x90ad3317b6415b2e,
home improvement,Komplek perumahan,Dotulong karawisan home,"2MVJ+37V, Tombatu Satu, Kec. Tombatu, Kabupaten Minahasa Tenggara, Sulawesi Utara","Kabupaten Minahasa Tenggara, Sulawesi Utara",SULAWESI UTARA,,Indonesia,,,,1.0426606,124.6807839,https://maps.google.com/?cid=0x0:0xbfc542618c029c20,
home improvement,Pembangunan Perumahan,ivaaah home,"2MWH+5XR, Tombatu Dua Tengah, Kec. Tombatu Utara, Kabupaten Minahasa Tenggara, Sulawesi Utara","Kabupaten Minahasa Tenggara, Sulawesi Utara",SULAWESI UTARA,,Indonesia,,,,1.0453705,124.679832,https://maps.google.com/?cid=0x0:0x434491c7605ca8b2,
home improvement,Rumah Kayu,"Put,home","2PJ8+2C3, Mundung Satu, Kec. Tombatu Tim., Kabupaten Minahasa Tenggara, Sulawesi Utara","Kabupaten Minahasa Tenggara, Sulawesi Utara",SULAWESI UTARA,,Indonesia,,,,1.0300044,124.7160584,https://maps.google.com/?cid=0x0:0xb1e8319ed77fa020,
home improvement,Toko umum,SM home,"2PQ9+WV4, Winorangian Atas, Kec. Tombatu Utara, Kabupaten Minahasa Tenggara, Sulawesi Utara","Kabupaten Minahasa Tenggara, Sulawesi Utara",SULAWESI UTARA,,Indonesia,,,,1.0397589,124.7196963,https://maps.google.com/?cid=0x0:0x8b2eb71b7a7169e,
home improvement,Toko,Mentari Home,"2PR9+9QJ, Winorangian, Kec. Tombatu Utara, Kabupaten Minahasa Tenggara, Sulawesi Utara","Kabupaten Minahasa Tenggara, Sulawesi Utara",SULAWESI UTARA,,Indonesia,,,,1.0409567,124.7193896,https://maps.google.com/?cid=0x0:0xe61f46e85ef4fc76,
home improvement,Rumah Kaca,Home gerlly,"Esandom Dua, Kec. Tombatu Tim., Kabupaten Minahasa Tenggara, Sulawesi Utara","Kabupaten Minahasa Tenggara, Sulawesi Utara",SULAWESI UTARA,,Indonesia,,,,1.0131875,124.7174531,https://maps.google.com/?cid=0x0:0xbd01de79319d0e46,
home improvement,Toko Perlengkapan Rumah,RW Wood Craft Tombatu,"2MVH+JV6, Betelan Satu, Kec. Tombatu, Kabupaten Minahasa Tenggara, Sulawesi Utara","Kabupaten Minahasa Tenggara, Sulawesi Utara",SULAWESI UTARA,,Indonesia,,,,1.044035,124.6796449,https://maps.google.com/?cid=0x0:0x873042236c84bb8f,
home improvement,Toko bahan makanan,Homey,"2MWP+653, Tombatu Dua, Kec. Tombatu Utara, Kabupaten Minahasa Tenggara, Sulawesi Utara","Kabupaten Minahasa Tenggara, Sulawesi Utara",SULAWESI UTARA,,Indonesia,,,,1.0455267,124.6854883,https://maps.google.com/?cid=0x0:0x3e28f2f6a0fc095b,
home improvement,Toko Bahan Bangunan,Tombatu dua tengah jaga IV,"2MXH+FQC, Tombatu Dua Tengah, Kec. Tombatu Utara, Kabupaten Minahasa Tenggara, Sulawesi Utara","Kabupaten Minahasa Tenggara, Sulawesi Utara",SULAWESI UTARA,,Indonesia,,,,1.0486986,124.6793915,https://maps.google.com/?cid=0x0:0x175db0aa1b0e781e,
home improvement,Losmen,Gabriel Home,"2MRC+747, Kali Oki, Kec. Tombatu, Kabupaten Minahasa Tenggara, Sulawesi Utara","Kabupaten Minahasa Tenggara, Sulawesi Utara",SULAWESI UTARA,,Indonesia,,,,1.0406736,124.6702901,https://maps.google.com/?cid=0x0:0x98eb6b190529e058,
home improvement,Taman,Wwntana Home tree.,"2PCJ+WHG, Molompar Satu, Kec. Tombatu Tim., Kabupaten Minahasa Tenggara, Sulawesi Utara","Kabupaten Minahasa Tenggara, Sulawesi Utara",SULAWESI UTARA,,Indonesia,,,,1.0223043,124.7314541,https://maps.google.com/?cid=0x0:0x142c62668dc54732,
home improvement,Pembangunan Perumahan,Home. Kel. Legi Manopo,"2MRM+PW5, Tombatu Tiga Sel., Kec. Tombatu, Kabupaten Minahasa Tenggara, Sulawesi Utara","Kabupaten Minahasa Tenggara, Sulawesi Utara",SULAWESI UTARA,,Indonesia,,,,1.0417625,124.6848594,https://maps.google.com/?cid=0x0:0x236a60aec88d445e,
home improvement,Toko,Naray-Rapar Home's,"Molompar Atas, Kec. Tombatu Tim., Kabupaten Minahasa Tenggara, Sulawesi Utara","Kabupaten Minahasa Tenggara, Sulawesi Utara",SULAWESI UTARA,,Indonesia,,,,1.0287228,124.7273222,https://maps.google.com/?cid=0x0:0x45888e537c0b2a0,
home improvement,Komplek perumahan,Kevin Home,"2MXJ+JJQ Kec. Tombatu Utara, Tombatu Dua Bar., Jaga 4, Kabupaten Minahasa Tenggara, Sulawesi Utara 95996","Tombatu Dua Bar., Jaga 4, Kabupaten Minahasa Tenggara",SULAWESI UTARA,95996,Indonesia,,,,1.0490687,124.6817434,https://maps.google.com/?cid=0x0:0x163897fe2e4f086a,
home improvement,home improvement,Kec. Tombatu Utara,"Kabupaten Minahasa Tenggara, Sulawesi Utara","Kabupaten Minahasa Tenggara, Sulawesi Utara",SULAWESI UTARA,,Indonesia,,,,1.0435986,124.6869059,https://maps.google.com/?cid=0x0:0x3786e15772770449,
home improvement,Komplek perumahan,Home C,"2MQJ+MVV, Tombatu Satu, Kec. Tombatu, Kabupaten Minahasa Tenggara, Sulawesi Utara","Kabupaten Minahasa Tenggara, Sulawesi Utara",SULAWESI UTARA,,Indonesia,,,,1.0392408,124.6821647,https://maps.google.com/?cid=0x0:0x7d3ab9dd170224ec,
home improvement,Komplek perumahan,Kevin Home,"2MXJ+JJQ Kec. Tombatu Utara, Tombatu Dua Bar., Jaga 4, Kabupaten Minahasa Tenggara, Sulawesi Utara 95996","Tombatu Dua Bar., Jaga 4, Kabupaten Minahasa Tenggara",SULAWESI UTARA,95996,Indonesia,,,,1.0490687,124.6817434,https://maps.google.com/?cid=0x0:0x163897fe2e4f086a,
home improvement,Komplek perumahan,Home Tombatu,"2MQM+96X, Tombatu, Kec. Tombatu, Kabupaten Minahasa Tenggara, Sulawesi Utara","Kabupaten Minahasa Tenggara, Sulawesi Utara",SULAWESI UTARA,,Indonesia,,,,1.0384986,124.6831099,https://maps.google.com/?cid=0x0:0xf749947a978423f6,
home improvement,Toko Perlengkapan Rumah,RW Wood Craft Tombatu,"2MVH+JV6, Betelan Satu, Kec. Tombatu, Kabupaten Minahasa Tenggara, Sulawesi Utara","Kabupaten Minahasa Tenggara, Sulawesi Utara",SULAWESI UTARA,,Indonesia,,,,1.044035,124.6796449,https://maps.google.com/?cid=0x0:0x873042236c84bb8f,
home improvement,Toko bahan makanan,Homey,"2MWP+653, Tombatu Dua, Kec. Tombatu Utara, Kabupaten Minahasa Tenggara, Sulawesi Utara","Kabupaten Minahasa Tenggara, Sulawesi Utara",SULAWESI UTARA,,Indonesia,,,,1.0455267,124.6854883,https://maps.google.com/?cid=0x0:0x3e28f2f6a0fc095b,
home improvement,Toko Bahan Bangunan,Toko Millysurya TOMBATU,"Jl. Tombatu Kali RT.01, Desa Tombatu, Kecamatan Tombatu, Tombatu, Kec. Tombatu, Kabupaten Minahasa Tenggara, Sulawesi Utara","Kabupaten Minahasa Tenggara, Sulawesi Utara",SULAWESI UTARA,,Indonesia,89602010675.0,,,1.0388156,124.6831958,https://maps.google.com/?cid=0x0:0x90ad3317b6415b2e,
home improvement,Toko,Home EiveEfanIchy,"2PHG+MJ5, Unnamed Road, Molompar Dua Utara, Kec. Tombatu Tim., Kabupaten Minahasa Tenggara, Sulawesi Utara","Kabupaten Minahasa Tenggara, Sulawesi Utara",SULAWESI UTARA,,Indonesia,89698016307.0,,,1.0291311,124.7266009,https://maps.google.com/?cid=0x0:0x8f4c816b5d6ea054,
home improvement,Pembangunan Perumahan,ivaaah home,"2MWH+5XR, Tombatu Dua Tengah, Kec. Tombatu Utara, Kabupaten Minahasa Tenggara, Sulawesi Utara","Kabupaten Minahasa Tenggara, Sulawesi Utara",SULAWESI UTARA,,Indonesia,,,,1.0453705,124.679832,https://maps.google.com/?cid=0x0:0x434491c7605ca8b2,
home improvement,Toko umum,injilia Home,"2PPC+9F5, Winorangian Atas, Kec. Tombatu Utara, Kabupaten Minahasa Tenggara, Sulawesi Utara","Kabupaten Minahasa Tenggara, Sulawesi Utara",SULAWESI UTARA,,Indonesia,,,,1.0358875,124.7212344,https://maps.google.com/?cid=0x0:0xb96c5a98b8bb55ad,
home improvement,Toko Bahan Bangunan,Tombatu dua tengah jaga IV,"2MXH+FQC, Tombatu Dua Tengah, Kec. Tombatu Utara, Kabupaten Minahasa Tenggara, Sulawesi Utara","Kabupaten Minahasa Tenggara, Sulawesi Utara",SULAWESI UTARA,,Indonesia,,,,1.0486986,124.6793915,https://maps.google.com/?cid=0x0:0x175db0aa1b0e781e,
home improvement,Toko,Mentari Home,"2PR9+9QJ, Winorangian, Kec. Tombatu Utara, Kabupaten Minahasa Tenggara, Sulawesi Utara","Kabupaten Minahasa Tenggara, Sulawesi Utara",SULAWESI UTARA,,Indonesia,,,,1.0409567,124.7193896,https://maps.google.com/?cid=0x0:0xe61f46e85ef4fc76,
home improvement,Toko umum,SM home,"2PQ9+WV4, Winorangian Atas, Kec. Tombatu Utara, Kabupaten Minahasa Tenggara, Sulawesi Utara","Kabupaten Minahasa Tenggara, Sulawesi Utara",SULAWESI UTARA,,Indonesia,,,,1.0397589,124.7196963,https://maps.google.com/?cid=0x0:0x8b2eb71b7a7169e,
home improvement,Toko Pakaian,Elshaolshop,"2MWJ+RV7, Tombatu Dua Tengah, Kec. Tombatu Utara, Kabupaten Minahasa Tenggara, Sulawesi Utara 95696","Tombatu Dua Tengah, Kec. Tombatu Utara, Kabupaten Minahasa Tenggara",SULAWESI UTARA,95696,Indonesia,8971519092.0,,,1.0470332,124.6821737,https://maps.google.com/?cid=0x0:0xa961d0e847c4d195,
home improvement,Komplek perumahan,My Home,"2PJJ+Q7F, Molompar Dua, Kec. Tombatu Tim., Kabupaten Minahasa Tenggara, Sulawesi Utara","Kabupaten Minahasa Tenggara, Sulawesi Utara",SULAWESI UTARA,,Indonesia,,,,1.0319392,124.7306602,https://maps.google.com/?cid=0x0:0xc8f3e30dc5740322,
home improvement,Komplek perumahan,Dotulong karawisan home,"2MVJ+37V, Tombatu Satu, Kec. Tombatu, Kabupaten Minahasa Tenggara, Sulawesi Utara","Kabupaten Minahasa Tenggara, Sulawesi Utara",SULAWESI UTARA,,Indonesia,,,,1.0426606,124.6807839,https://maps.google.com/?cid=0x0:0xbfc542618c029c20,
home improvement,Rumah Kayu,"Put,home","2PJ8+2C3, Mundung Satu, Kec. Tombatu Tim., Kabupaten Minahasa Tenggara, Sulawesi Utara","Kabupaten Minahasa Tenggara, Sulawesi Utara",SULAWESI UTARA,,Indonesia,,,,1.0300044,124.7160584,https://maps.google.com/?cid=0x0:0xb1e8319ed77fa020,
home improvement,Losmen,Gabriel Home,"2MRC+747, Kali Oki, Kec. Tombatu, Kabupaten Minahasa Tenggara, Sulawesi Utara","Kabupaten Minahasa Tenggara, Sulawesi Utara",SULAWESI UTARA,,Indonesia,,,,1.0406736,124.6702901,https://maps.google.com/?cid=0x0:0x98eb6b190529e058,
home improvement,Rumah Kaca,Home gerlly,"Esandom Dua, Kec. Tombatu Tim., Kabupaten Minahasa Tenggara, Sulawesi Utara","Kabupaten Minahasa Tenggara, Sulawesi Utara",SULAWESI UTARA,,Indonesia,,,,1.0131875,124.7174531,https://maps.google.com/?cid=0x0:0xbd01de79319d0e46,
home improvement,Pembangunan Perumahan,Home. Kel. Legi Manopo,"2MRM+PW5, Tombatu Tiga Sel., Kec. Tombatu, Kabupaten Minahasa Tenggara, Sulawesi Utara","Kabupaten Minahasa Tenggara, Sulawesi Utara",SULAWESI UTARA,,Indonesia,,,,1.0417625,124.6848594,https://maps.google.com/?cid=0x0:0x236a60aec88d445e,
home improvement,Pembangunan Perumahan,Home J`$,"2PGG+HVW, Jl. Amurang-Ratahan, Molompar Atas, Kec. Tombatu Tim., Kabupaten Minahasa Tenggara, Sulawesi Utara","Kabupaten Minahasa Tenggara, Sulawesi Utara",SULAWESI UTARA,,Indonesia,,,,1.0264855,124.7272125,https://maps.google.com/?cid=0x0:0xa5dece1626ce99f8,
home improvement,Pembangunan Perumahan,DHOME,"2PGH+655, Molompar, Kec. Tombatu Tim., Kabupaten Minahasa Tenggara, Sulawesi Utara","Kabupaten Minahasa Tenggara, Sulawesi Utara",SULAWESI UTARA,,Indonesia,82192487669.0,,,1.0255079,124.7279586,https://maps.google.com/?cid=0x0:0xdbc38f66857d1317,
home improvement,Perhimpunan Pengembang Perumahan,Ivana Home,"2MQX+4R9, Kuyanga Satu, Kec. Tombatu Utara, Kabupaten Minahasa Tenggara, Sulawesi Utara","Kabupaten Minahasa Tenggara, Sulawesi Utara",SULAWESI UTARA,,Indonesia,82195050863.0,,,1.0377977,124.6995993,https://maps.google.com/?cid=0x0:0x161373ed5716fe44,
home improvement,Toko,Naray-Rapar Home's,"Molompar Atas, Kec. Tombatu Tim., Kabupaten Minahasa Tenggara, Sulawesi Utara","Kabupaten Minahasa Tenggara, Sulawesi Utara",SULAWESI UTARA,,Indonesia,,,,1.0287228,124.7273222,https://maps.google.com/?cid=0x0:0x45888e537c0b2a0,
home improvement,home improvement,Kec. Touluaan,"Kabupaten Minahasa Tenggara, Sulawesi Utara","Kabupaten Minahasa Tenggara, Sulawesi Utara",SULAWESI UTARA,,Indonesia,,,,1.0561242,124.6513459,https://maps.google.com/?cid=0x0:0xb9e36ebc0d0281f7,
home improvement,Komplek perumahan,C'home,"3M44+PH9, Lobu Atas, Kec. Touluaan, Kabupaten Minahasa Tenggara, Sulawesi Utara","Kabupaten Minahasa Tenggara, Sulawesi Utara",SULAWESI UTARA,,Indonesia,,,,1.0567874,124.6564763,https://maps.google.com/?cid=0x0:0xb0285fc3398f0d68,
home improvement,Taman,home kdg tgn,"3M43+5VR, Lobu Atas, Kec. Touluaan, Kabupaten Minahasa Tenggara, Sulawesi Utara","Kabupaten Minahasa Tenggara, Sulawesi Utara",SULAWESI UTARA,,Indonesia,,,,1.0554556,124.6546883,https://maps.google.com/?cid=0x0:0x3b8d4168089808b2,
home improvement,Gedung Apartemen,Christy Wuisan Home,"2JM5+HW5, Ranoako, Kec. Touluaan Sel., Kabupaten Minahasa Tenggara, Sulawesi Utara","Kabupaten Minahasa Tenggara, Sulawesi Utara",SULAWESI UTARA,,Indonesia,,,,1.0331332,124.6100841,https://maps.google.com/?cid=0x0:0xf1e8998f35473ba7,
home improvement,Pembangunan Perumahan,Thepo Home,"2HGP+J3M, Kalait, Kec. Touluaan Sel., Kabupaten Minahasa Tenggara, Sulawesi Utara","Kabupaten Minahasa Tenggara, Sulawesi Utara",SULAWESI UTARA,,Indonesia,,,,1.0265874,124.5851822,https://maps.google.com/?cid=0x0:0x3e47845c429a25a,
home improvement,Pembangunan Perumahan,Bintut home,"2HGP+J3F, Kalait, Kec. Touluaan Sel., Kabupaten Minahasa Tenggara, Sulawesi Utara","Kabupaten Minahasa Tenggara, Sulawesi Utara",SULAWESI UTARA,,Indonesia,,,,1.0266046,124.5851415,https://maps.google.com/?cid=0x0:0x5120b6fa485da808,
home improvement,Komplek perumahan,Kevin HOME,"Touliang Oki, Kec. Eris, Kabupaten Minahasa, Sulawesi Utara","Kabupaten Minahasa, Sulawesi Utara",SULAWESI UTARA,,Indonesia,,,,1.2627063,124.9361308,https://maps.google.com/?cid=0x0:0x329d256f58c78745,
home improvement,home improvement,Desa Toundanouw Satu,"3JQ7+FFX, Tondanouw Satu, Kec. Touluaan, Kabupaten Minahasa Tenggara, Sulawesi Utara","Kabupaten Minahasa Tenggara, Sulawesi Utara",SULAWESI UTARA,,Indonesia,,,,1.088746,124.6137362,https://maps.google.com/?cid=0x0:0x8c4936bc0742e3ec,
home improvement,home improvement,Kec. Touluaan Sel.,"Kabupaten Minahasa Tenggara, Sulawesi Utara","Kabupaten Minahasa Tenggara, Sulawesi Utara",SULAWESI UTARA,,Indonesia,,,,1.0264722,124.5859669,https://maps.google.com/?cid=0x0:0xe1cb2698c83351a2,
home improvement,Pembangunan Perumahan,Thepo Home,"2HGP+J3M, Kalait, Kec. Touluaan Sel., Kabupaten Minahasa Tenggara, Sulawesi Utara","Kabupaten Minahasa Tenggara, Sulawesi Utara",SULAWESI UTARA,,Indonesia,,,,1.0265874,124.5851822,https://maps.google.com/?cid=0x0:0x3e47845c429a25a,
home improvement,Komplek perumahan,Home Reyfanes,"2HJQ+2MJ, Kalait Dua, Kec. Touluaan Sel., Kabupaten Minahasa Tenggara, Sulawesi Utara","Kabupaten Minahasa Tenggara, Sulawesi Utara",SULAWESI UTARA,,Indonesia,,,,1.0300301,124.5890553,https://maps.google.com/?cid=0x0:0xa01970e76721900d,
home improvement,Dapur Umum,OTO Home,"7JM7+676, Sulu, Kec. Tatapaan, Kabupaten Minahasa Selatan, Sulawesi Utara","Kabupaten Minahasa Selatan, Sulawesi Utara",SULAWESI UTARA,,Indonesia,,,,1.2830404,124.6131451,https://maps.google.com/?cid=0x0:0x409b19d990363189,
home improvement,Taman,Tinus Home,"CVPQ+CVP, Kamangta, Kec. Tombulu, Kabupaten Minahasa, Sulawesi Utara","Kabupaten Minahasa, Sulawesi Utara",SULAWESI UTARA,,Indonesia,,,,1.4360994,124.8897145,https://maps.google.com/?cid=0x0:0x52fd08f79d30455f,
home improvement,Gedung Apartemen,Christy Wuisan Home,"2JM5+HW5, Ranoako, Kec. Touluaan Sel., Kabupaten Minahasa Tenggara, Sulawesi Utara","Kabupaten Minahasa Tenggara, Sulawesi Utara",SULAWESI UTARA,,Indonesia,,,,1.0331332,124.6100841,https://maps.google.com/?cid=0x0:0xf1e8998f35473ba7,
home improvement,Komplek perumahan,FAMILY HOME,"2J58+36C, Bunag, Kec. Touluaan Sel., Kabupaten Minahasa Tenggara, Sulawesi Utara","Kabupaten Minahasa Tenggara, Sulawesi Utara",SULAWESI UTARA,,Indonesia,,,,1.0076979,124.6155053,https://maps.google.com/?cid=0x0:0xc3227fd70e1bd0e3,
