Category,Real Category,Business Name,Address,City,State,Postal Code,Country,Phone,Email,Website,Latitude,Longitude,Map Link,Details Link
mall,Toko,Fath_talibo_cell,"WQPP+WCG, Borgo, Kec. Belang, Kabupaten Minahasa Tenggara, Sulawesi Utara 95997","Borgo, Kec. Belang, Kabupaten Minahasa Tenggara",SULAWESI UTARA,95997,Indonesia,85399632632.0,,,0.9373197,124.7860685,https://maps.google.com/?cid=0x0:0x63d1b03eb438568a,
mall,Toko,Isthree store,"WQVQ+M5C, Buku Tenggara, Kec. Belang, Kabupaten Minahasa Tenggara, Sulawesi Utara 95997","Buku Tenggara, Kec. Belang, Kabupaten Minahasa Tenggara",SULAWESI UTARA,95997,Indonesia,82335193515.0,,,0.9441761,124.7878888,https://maps.google.com/?cid=0x0:0x50ab823e698fb78a,
mall,Pembangunan Perumahan,Pasar Belang,"WQRP+M68, Kec. Belang, Kabupaten Minahasa Tenggara, Sulawesi Utara","Kabupaten Minahasa Tenggara, Sulawesi Utara",SULAWESI UTARA,,Indonesia,,,,0.9416541,124.7855775,https://maps.google.com/?cid=0x0:0xaa653747d8978ad7,
mall,Minimarket,RIDHAYANTI SHOP,"XR58+XWJ, Molompar Utara, Kec. Belang, Kabupaten Minahasa Tenggara, Sulawesi Utara 95997","Molompar Utara, Kec. Belang, Kabupaten Minahasa Tenggara",SULAWESI UTARA,95997,Indonesia,895395759977.0,,,0.9599616,124.817279,https://maps.google.com/?cid=0x0:0xac7f3ac76389d448,
mall,Pembangunan Perumahan,PLAZA RATAHAN,"3R32+43J, Tosuraya Sel., Kec. Ratahan, Kabupaten Minahasa Tenggara, Sulawesi Utara","Kabupaten Minahasa Tenggara, Sulawesi Utara",SULAWESI UTARA,,Indonesia,,,,1.0528486,124.8001409,https://maps.google.com/?cid=0x0:0xc2d3ab5c2e3ae3c0,
mall,Toko,kios putry,"WQWH+P2M, Ponosakan Belang, Kec. Belang, Kabupaten Minahasa Tenggara, Sulawesi Utara 95997","Ponosakan Belang, Kec. Belang, Kabupaten Minahasa Tenggara",SULAWESI UTARA,95997,Indonesia,81245463047.0,,,0.9468353,124.7775317,https://maps.google.com/?cid=0x0:0xa942d1d188b09cd5,
mall,Pusat Perbelanjaan,Pacific Place Mall,"Jl. Jend. Sudirman kav 52-53, Senayan, Kec. Kby. Baru, Kota Jakarta Selatan, Daerah Khusus Ibukota Jakarta 12190","Senayan, Kec. Kby. Baru, Kota Jakarta Selatan",SULAWESI UTARA,12190,Indonesia,2151402828.0,,,-6.2240197,106.8101858,https://maps.google.com/?cid=0x0:0xc4a608b34b5f03cc,
mall,Pusat Perbelanjaan,Baywalk Mall,"Jl. Pluit Karang Ayu Barat Blok B.1 Utara, RT.20/RW.2, Pluit, Kec. Penjaringan, Jkt Utara, Daerah Khusus Ibukota Jakarta 14450","RT.20/RW.2, Pluit, Kec. Penjaringan, Jkt Utara",SULAWESI UTARA,14450,Indonesia,2129628000.0,,,-6.1077144,106.7792084,https://maps.google.com/?cid=0x0:0xba8f1565cc043679,
mall,Pusat Perbelanjaan,Plaza Indonesia,"Jl. M.H. Thamrin No.Kav.28-30, Gondangdia, Kec. Menteng, Kota Jakarta Pusat, Daerah Khusus Ibukota Jakarta 10350","Gondangdia, Kec. Menteng, Kota Jakarta Pusat",SULAWESI UTARA,10350,Indonesia,2129920000.0,,,-6.1935977,106.8219468,https://maps.google.com/?cid=0x0:0x7d7fe17ad64a053f,
mall,mall,Kec. Pasan,"Kabupaten Minahasa Tenggara, Sulawesi Utara","Kabupaten Minahasa Tenggara, Sulawesi Utara",SULAWESI UTARA,,Indonesia,,,,1.022748,124.7482665,https://maps.google.com/?cid=0x0:0xcf32b53a07d5d0fc,
mall,Pembangunan Perumahan,PLAZA RATAHAN,"3R32+43J, Tosuraya Sel., Kec. Ratahan, Kabupaten Minahasa Tenggara, Sulawesi Utara","Kabupaten Minahasa Tenggara, Sulawesi Utara",SULAWESI UTARA,,Indonesia,,,,1.0528486,124.8001409,https://maps.google.com/?cid=0x0:0xc2d3ab5c2e3ae3c0,
mall,Toko Internet,LOKET YANI,"Tolombukan, Kec. Pasan, Kabupaten Minahasa Tenggara, Sulawesi Utara","Kabupaten Minahasa Tenggara, Sulawesi Utara",SULAWESI UTARA,,Indonesia,82217171716.0,,,1.0231248,124.7426065,https://maps.google.com/?cid=0x0:0xf064daf800185226,
mall,Pusat Perbelanjaan,Kedai Gevariel,"2QVX+QF4, Wawali Pasan, Kec. Ratahan, Kabupaten Minahasa Tenggara, Sulawesi Utara","Kabupaten Minahasa Tenggara, Sulawesi Utara",SULAWESI UTARA,,Indonesia,89530079533.0,,,1.0444,124.7987068,https://maps.google.com/?cid=0x0:0xa0c8f0f83214c24,
mall,Pusat Perbelanjaan,Toko Sentrum Ratahan,"Tosuraya, Kec. Ratahan, Kabupaten Minahasa Tenggara, Sulawesi Utara 95995","Kec. Ratahan, Kabupaten Minahasa Tenggara",SULAWESI UTARA,95995,Indonesia,85256421580.0,,,1.0524786,124.8002826,https://maps.google.com/?cid=0x0:0x3e144411dd5ce1c,
mall,mall,Kios Kindshop,"2PMM+VJJ, Molompar Dua Utara, Kec. Tombatu Tim., Kabupaten Minahasa Tenggara, Sulawesi Utara","Kabupaten Minahasa Tenggara, Sulawesi Utara",SULAWESI UTARA,,Indonesia,,,,1.0347239,124.7340214,https://maps.google.com/?cid=0x0:0x88a697dac312a514,
mall,Pasar,Gembira Market,"3R32+G6X, Tosuraya, Kec. Ratahan, Kabupaten Minahasa Tenggara, Sulawesi Utara","Kabupaten Minahasa Tenggara, Sulawesi Utara",SULAWESI UTARA,,Indonesia,,,,1.0538541,124.8006068,https://maps.google.com/?cid=0x0:0x673a9c062b43a47a,
mall,Toko Suku Cadang Motor,Acc Gerage Car,"2PFH+QX5 mitra, jln lorong pisang, Molompar Satu, Kec. Tombatu Tim., Kabupaten Minahasa Tenggara, Sulawesi Utara","Kabupaten Minahasa Tenggara, Sulawesi Utara",SULAWESI UTARA,,Indonesia,85256601994.0,,,1.02439,124.7299786,https://maps.google.com/?cid=0x0:0x3be5884ec834a18d,
mall,Pembangunan Perumahan,Bahu Mall,"FR6G+W4J, Bahu Mall, R.W., Jl. Wolter Monginsidi, Bahu, Malalayang, Manado City, North Sulawesi","Kota Manado, Sulawesi Utara",SULAWESI UTARA,,Indonesia,1500125.0,,,1.4623338,124.8252763,https://maps.google.com/?cid=0x0:0x75b15af9becce842,
mall,Toko Perlengkapan Rumah,JOEL AGAPE PELAYANAN KEDUKAAN,"Jln. Raya, Mundung, Kec. Tombatu Tim., Kabupaten Minahasa Tenggara, Sulawesi Utara","Kabupaten Minahasa Tenggara, Sulawesi Utara",SULAWESI UTARA,,Indonesia,81233338826.0,,,1.0285893,124.7218327,https://maps.google.com/?cid=0x0:0xe2177e68235ffee3,
mall,Toko umum,Toko Ivv24,"Mundung Jalan Raya Molompar, Mundung, Kec. Tombatu Tim., Sulawesi Utara 95990","Mundung, Kec. Tombatu Tim.",SULAWESI UTARA,95990,Indonesia,895322866698.0,,,1.0269917,124.7240188,https://maps.google.com/?cid=0x0:0x63fd307c335c9cc8,
mall,Salon Kecantikan,Nail by Cils Molompar,"2PGH+H45, Molompar Atas, Kec. Tombatu Tim., Kabupaten Minahasa Tenggara, Sulawesi Utara","Kabupaten Minahasa Tenggara, Sulawesi Utara",SULAWESI UTARA,,Indonesia,82187408401.0,,,1.0263798,124.7278647,https://maps.google.com/?cid=0x0:0x1fc9eda7db75d714,
mall,Pasar,Pasar Tua Tombatu,"2MVP+MCM, Tombatu Tiga, Kec. Tombatu Utara, Kabupaten Minahasa Tenggara, Sulawesi Utara","Kabupaten Minahasa Tenggara, Sulawesi Utara",SULAWESI UTARA,,Indonesia,,,,1.0442103,124.6860608,https://maps.google.com/?cid=0x0:0x8929b9a3bddf68b6,
mall,Pasar,Pasar Baru Langowan,"5R6Q+GF6, Unnamed Road, Toraget, Kec. Langowan Utara, Kabupaten Minahasa, Sulawesi Utara","Kabupaten Minahasa, Sulawesi Utara",SULAWESI UTARA,,Indonesia,,,,1.1612788,124.8386272,https://maps.google.com/?cid=0x0:0xe5d065caed76b753,
mall,Toko bahan makanan,Pt.Tahu STERIL Tenaga UAP,"2PHG+C7P, Molompar Dua Utara, Kec. Tombatu Tim., Kabupaten Minahasa Tenggara, Sulawesi Utara","Kabupaten Minahasa Tenggara, Sulawesi Utara",SULAWESI UTARA,,Indonesia,82395214546.0,,,1.0285863,124.7257065,https://maps.google.com/?cid=0x0:0xb36e6676ae8ce124,
mall,Kios,KIOS DUA PUTRI TABSEL,"XQ8X+3R6, Tababo Sel., Kec. Belang, Kabupaten Minahasa Tenggara, Sulawesi Utara 95997","Tababo Sel., Kec. Belang, Kabupaten Minahasa Tenggara",SULAWESI UTARA,95997,Indonesia,,,,0.965153,124.7995179,https://maps.google.com/?cid=0x0:0x21709c9fbca7014c,
mall,Agen Gas Elpiji,Pangkalan Gas Elpiji (Junaydi Mamoto),"XQW9+MXG, Liwutung-Tababo, Poniki, Kec. Ratahan, Kabupaten Minahasa Tenggara, Sulawesi Utara","Kabupaten Minahasa Tenggara, Sulawesi Utara",SULAWESI UTARA,,Indonesia,85240820218.0,,,0.9966855,124.7699783,https://maps.google.com/?cid=0x0:0x89ddfdaca84c37f0,
mall,Pusat Perbelanjaan,Toko Dom's,"2PGF+WF8, Samping gereja zaitun, Mundung, Kec. Tombatu Tim., Kabupaten Minahasa Tenggara, Sulawesi Utara","Kabupaten Minahasa Tenggara, Sulawesi Utara",SULAWESI UTARA,,Indonesia,,,,1.0272853,124.7236999,https://maps.google.com/?cid=0x0:0x4503e5448c2ab579,
mall,Pusat Perbelanjaan,Toko RESTU SEJATI,"3R32+M7V, Tosuraya, Kec. Ratahan, Kabupaten Minahasa Tenggara, Sulawesi Utara","Kabupaten Minahasa Tenggara, Sulawesi Utara",SULAWESI UTARA,,Indonesia,,,,1.0542428,124.8006844,https://maps.google.com/?cid=0x0:0x86373b5f4d0bdf78,
mall,Pusat Perbelanjaan,Star Square Manado,"FR6G+V7M, Jl. R.W. Monginsidi VI, Bahu, Kec. Malalayang, Kota Manado, Sulawesi Utara","Kota Manado, Sulawesi Utara",SULAWESI UTARA,,Indonesia,,,,1.4622127,124.8256859,https://maps.google.com/?cid=0x0:0x83f753d1d9781005,
mall,Toko Swalayan,Warung Ayyra,"XR82+73X, Tababo Sel., Kec. Belang, Kabupaten Minahasa Tenggara, Sulawesi Utara","Kabupaten Minahasa Tenggara, Sulawesi Utara",SULAWESI UTARA,,Indonesia,,,,0.9657451,124.8002416,https://maps.google.com/?cid=0x0:0x2a9f8077658a427,
mall,Pusat Perbelanjaan,Kembang Sharoun,"3R22+V3J, Jl. Ratahan - Kotamobagu, Tosuraya Sel., Kec. Ratahan, Kabupaten Minahasa Tenggara, Sulawesi Utara","Kabupaten Minahasa Tenggara, Sulawesi Utara",SULAWESI UTARA,,Indonesia,,,,1.0522042,124.8001515,https://maps.google.com/?cid=0x0:0x26ef74cf6855f559,
mall,Pusat Perbelanjaan,Mall Plaza Senayan,"Jl. Asia Afrika No.8, RT.1/RW.3, Gelora, Kecamatan Tanah Abang, Kota Jakarta Pusat, Daerah Khusus Ibukota Jakarta 10270","RT.1/RW.3, Gelora, Kecamatan Tanah Abang, Kota Jakarta Pusat",SULAWESI UTARA,10270,Indonesia,215725555.0,,,-6.2255918,106.7993027,https://maps.google.com/?cid=0x0:0x788e3a1eef75ac94,
mall,Pusat Perbelanjaan,Plaza Indonesia,"Jl. M.H. Thamrin No.Kav.28-30, Gondangdia, Kec. Menteng, Kota Jakarta Pusat, Daerah Khusus Ibukota Jakarta 10350","Gondangdia, Kec. Menteng, Kota Jakarta Pusat",SULAWESI UTARA,10350,Indonesia,2129920000.0,,,-6.1935977,106.8219468,https://maps.google.com/?cid=0x0:0x7d7fe17ad64a053f,
mall,Toko Jam,Montblanc Plaza Senayan,"Bung Karno, Plaza Senayan Jl. Asia Afrika No. 8, Level 1 #146B Gelora, RT.1/RW.3, Senayan, Tanah Abang, Central Jakarta City, Jakarta 10270","Plaza Senayan Jl. Asia Afrika No. 8, Level 1 #146B Gelora, RT.1/RW.3, Senayan, Tanah Abang, Central Jakarta City",SULAWESI UTARA,10270,Indonesia,215725141.0,,,-6.2255785,106.7990353,https://maps.google.com/?cid=0x0:0xd745ee9b627699f4,
mall,Toko Pakaian,"adidas Originals, Plaza Indonesia","PLAZA INDONESIA Jalan M.H. Thamrin No.28-30, Jl. Gondangdia Dalam No.5 9, RT.9/RW.5, Gondangdia, Kec. Menteng, Kota Jakarta Pusat, Daerah Khusus Ibukota Jakarta 10350","Jl. Gondangdia Dalam No.5 9, RT.9/RW.5, Gondangdia, Kec. Menteng, Kota Jakarta Pusat",SULAWESI UTARA,10350,Indonesia,2129921931.0,,,-6.1930084,106.8220131,https://maps.google.com/?cid=0x0:0x28f67f518dceb0c9,
mall,Toko Pakaian,DIOR Jakarta Plaza Indonesia,"Jl. M.H. Thamrin Shop #178-181 A, Gondangdia, Menteng, Central Jakarta City, Jakarta 10350","Gondangdia, Menteng, Central Jakarta City",SULAWESI UTARA,10350,Indonesia,2123599380.0,,,-6.1938592,106.8211927,https://maps.google.com/?cid=0x0:0x5b21fd92d929ea30,
mall,mall,Pusomaen,"Kabupaten Minahasa Tenggara, Sulawesi Utara","Kabupaten Minahasa Tenggara, Sulawesi Utara",SULAWESI UTARA,,Indonesia,,,,1.0023906,124.8734523,https://maps.google.com/?cid=0x0:0x51e2c80582c52819,
mall,Toko umum,Makalu Jaga 3,"XVQ9+FMV, Unnamed Road, Tatengesan Satu, Pusomaen, Kabupaten Minahasa Tenggara, Sulawesi Utara 95997","Unnamed Road, Tatengesan Satu, Pusomaen, Kabupaten Minahasa Tenggara",SULAWESI UTARA,95997,Indonesia,,,,0.9887469,124.8691753,https://maps.google.com/?cid=0x0:0xd954608afb251d9b,
mall,Lembaga Swadaya Masyarakat (LSM),Pkbm cecilya,"XVP9+XJV, Tatengesan Satu, Pusomaen, Kabupaten Minahasa Tenggara, Sulawesi Utara 95997","Tatengesan Satu, Pusomaen, Kabupaten Minahasa Tenggara",SULAWESI UTARA,95997,Indonesia,82187416935.0,,,0.9874926,124.869049,https://maps.google.com/?cid=0x0:0xff62f9153dba97bc,
mall,Minimarket,INDOMARET PUSOMAEN,"XVP9+83F, Makalu, Pusomaen, Kabupaten Minahasa Tenggara, Sulawesi Utara 95997","Makalu, Pusomaen, Kabupaten Minahasa Tenggara",SULAWESI UTARA,95997,Indonesia,,,,0.985811,124.8676651,https://maps.google.com/?cid=0x0:0xb1d2ab66563e47ad,
mall,Pusat Perbelanjaan,Kios Bellvania,"3WC4+XJ5, Unnamed Road, Temboan, Kec. Langowan Sel., Kabupaten Minahasa, Sulawesi Utara","Kabupaten Minahasa, Sulawesi Utara",SULAWESI UTARA,,Indonesia,,,,1.0723875,124.9065943,https://maps.google.com/?cid=0x0:0x5994984091dd5237,
mall,Komplek perumahan,Pasar Desa Minanga,"XVG2+X4X, Unnamed Road, Minanga Tim., Pusomaen, Kabupaten Minahasa Tenggara, Sulawesi Utara 95997","Unnamed Road, Minanga Tim., Pusomaen, Kabupaten Minahasa Tenggara",SULAWESI UTARA,95997,Indonesia,,,,0.9774766,124.8503648,https://maps.google.com/?cid=0x0:0x3143017586c67a4a,
mall,Pembangunan Perumahan,PLAZA RATAHAN,"3R32+43J, Tosuraya Sel., Kec. Ratahan, Kabupaten Minahasa Tenggara, Sulawesi Utara","Kabupaten Minahasa Tenggara, Sulawesi Utara",SULAWESI UTARA,,Indonesia,,,,1.0528486,124.8001409,https://maps.google.com/?cid=0x0:0xc2d3ab5c2e3ae3c0,
mall,Kantor Perusahaan,Shop online,"Bentenan Indah, Pusomaen, Manado, Sulawesi Utara 95997","Pusomaen, Manado",SULAWESI UTARA,95997,Indonesia,,,,1.0237839,124.8982775,https://maps.google.com/?cid=0x0:0x6bf44d63f07c7fee,
mall,mall,Kios RESTU,"WQXQ+728, Buku, Kec. Belang, Kabupaten Minahasa Tenggara, Sulawesi Utara 95997","Buku, Kec. Belang, Kabupaten Minahasa Tenggara",SULAWESI UTARA,95997,Indonesia,,,,0.9481649,124.7875649,https://maps.google.com/?cid=0x0:0xa915aef2f632cf81,
mall,Toko,Fath_talibo_cell,"WQPP+WCG, Borgo, Kec. Belang, Kabupaten Minahasa Tenggara, Sulawesi Utara 95997","Borgo, Kec. Belang, Kabupaten Minahasa Tenggara",SULAWESI UTARA,95997,Indonesia,85399632632.0,,,0.9373197,124.7860685,https://maps.google.com/?cid=0x0:0x63d1b03eb438568a,
mall,Minimarket,RIDHAYANTI SHOP,"XR58+XWJ, Molompar Utara, Kec. Belang, Kabupaten Minahasa Tenggara, Sulawesi Utara 95997","Molompar Utara, Kec. Belang, Kabupaten Minahasa Tenggara",SULAWESI UTARA,95997,Indonesia,895395759977.0,,,0.9599616,124.817279,https://maps.google.com/?cid=0x0:0xac7f3ac76389d448,
mall,Pasar,Gembira Market,"3R32+G6X, Tosuraya, Kec. Ratahan, Kabupaten Minahasa Tenggara, Sulawesi Utara","Kabupaten Minahasa Tenggara, Sulawesi Utara",SULAWESI UTARA,,Indonesia,,,,1.0538541,124.8006068,https://maps.google.com/?cid=0x0:0x673a9c062b43a47a,
mall,Pusat Perbelanjaan,Manado Town Square,"Jl. Piere Tendean, Kota Manado, Sulawesi Utara 95114",Kota Manado,SULAWESI UTARA,95114,Indonesia,,,,1.4723227,124.8319485,https://maps.google.com/?cid=0x0:0xea03227619d4f862,
mall,Kios,KIOS DUA PUTRI TABSEL,"XQ8X+3R6, Tababo Sel., Kec. Belang, Kabupaten Minahasa Tenggara, Sulawesi Utara 95997","Tababo Sel., Kec. Belang, Kabupaten Minahasa Tenggara",SULAWESI UTARA,95997,Indonesia,,,,0.965153,124.7995179,https://maps.google.com/?cid=0x0:0x21709c9fbca7014c,
mall,Komplek perumahan,Atep Jaya,"3VGG+F57, Unnamed Road, Atep, Kec. Langowan Sel., Kabupaten Minahasa, Sulawesi Utara","Kabupaten Minahasa, Sulawesi Utara",SULAWESI UTARA,,Indonesia,89679913826.0,,,1.0761632,124.8754127,https://maps.google.com/?cid=0x0:0x706b3f52d2c60353,
mall,Toko Elektronik,Hope Cell,"2QRG+CRP, Rasi Satu, Kec. Ratahan, Kabupaten Minahasa Tenggara, Sulawesi Utara","Kabupaten Minahasa Tenggara, Sulawesi Utara",SULAWESI UTARA,,Indonesia,,,,1.041081,124.7770664,https://maps.google.com/?cid=0x0:0xfd86611e757c659d,
mall,Toko Internet,LOKET YANI,"Tolombukan, Kec. Pasan, Kabupaten Minahasa Tenggara, Sulawesi Utara","Kabupaten Minahasa Tenggara, Sulawesi Utara",SULAWESI UTARA,,Indonesia,82217171716.0,,,1.0231248,124.7426065,https://maps.google.com/?cid=0x0:0xf064daf800185226,
mall,Toko,Isthree store,"WQVQ+M5C, Buku Tenggara, Kec. Belang, Kabupaten Minahasa Tenggara, Sulawesi Utara 95997","Buku Tenggara, Kec. Belang, Kabupaten Minahasa Tenggara",SULAWESI UTARA,95997,Indonesia,82335193515.0,,,0.9441761,124.7878888,https://maps.google.com/?cid=0x0:0x50ab823e698fb78a,
mall,Pusat Perbelanjaan,Warung Lianliee Cell,"Temboan, Kec. Langowan Sel., Kabupaten Minahasa, Sulawesi Utara","Kabupaten Minahasa, Sulawesi Utara",SULAWESI UTARA,,Indonesia,,,,1.0721673,124.9063575,https://maps.google.com/?cid=0x0:0x731c069a8d9c6973,
mall,Toko,kios putry,"WQWH+P2M, Ponosakan Belang, Kec. Belang, Kabupaten Minahasa Tenggara, Sulawesi Utara 95997","Ponosakan Belang, Kec. Belang, Kabupaten Minahasa Tenggara",SULAWESI UTARA,95997,Indonesia,81245463047.0,,,0.9468353,124.7775317,https://maps.google.com/?cid=0x0:0xa942d1d188b09cd5,
mall,Pusat Perbelanjaan,Kedai Gevariel,"2QVX+QF4, Wawali Pasan, Kec. Ratahan, Kabupaten Minahasa Tenggara, Sulawesi Utara","Kabupaten Minahasa Tenggara, Sulawesi Utara",SULAWESI UTARA,,Indonesia,89530079533.0,,,1.0444,124.7987068,https://maps.google.com/?cid=0x0:0xa0c8f0f83214c24,
mall,Toko,UD Veren,"2RRG+F74, Wioi Tiga, Kec. Ratahan Tim., Kabupaten Minahasa Tenggara, Sulawesi Utara","Kabupaten Minahasa Tenggara, Sulawesi Utara",SULAWESI UTARA,,Indonesia,85256091166.0,,,1.0411398,124.8257124,https://maps.google.com/?cid=0x0:0x35c8b4cd865b1823,
mall,mall,Ratahan,"Tosuraya, Kec. Ratahan, Kabupaten Minahasa Tenggara, Sulawesi Utara","Kabupaten Minahasa Tenggara, Sulawesi Utara",SULAWESI UTARA,,Indonesia,,,,1.052761,124.802101,https://maps.google.com/?cid=0x0:0x7c6adb8240ffb5d8,
mall,Pusat Perbelanjaan,Toko Sentrum Ratahan,"Tosuraya, Kec. Ratahan, Kabupaten Minahasa Tenggara, Sulawesi Utara 95995","Kec. Ratahan, Kabupaten Minahasa Tenggara",SULAWESI UTARA,95995,Indonesia,85256421580.0,,,1.0524786,124.8002826,https://maps.google.com/?cid=0x0:0x3e144411dd5ce1c,
mall,Minimarket,Indomaret Plaza Ratahan,"3R32+43P, Tosuraya Bar., Kec. Ratahan, Kabupaten Minahasa Tenggara, Sulawesi Utara 95695","Tosuraya Bar., Kec. Ratahan, Kabupaten Minahasa Tenggara",SULAWESI UTARA,95695,Indonesia,,,,1.0528263,124.8001942,https://maps.google.com/?cid=0x0:0x6f22da70e98e794f,
mall,Pembangunan Perumahan,PLAZA RATAHAN,"3R32+43J, Tosuraya Sel., Kec. Ratahan, Kabupaten Minahasa Tenggara, Sulawesi Utara","Kabupaten Minahasa Tenggara, Sulawesi Utara",SULAWESI UTARA,,Indonesia,,,,1.0528486,124.8001409,https://maps.google.com/?cid=0x0:0xc2d3ab5c2e3ae3c0,
mall,Pusat Perbelanjaan,Kembang Sharoun,"3R22+V3J, Jl. Ratahan - Kotamobagu, Tosuraya Sel., Kec. Ratahan, Kabupaten Minahasa Tenggara, Sulawesi Utara","Kabupaten Minahasa Tenggara, Sulawesi Utara",SULAWESI UTARA,,Indonesia,,,,1.0522042,124.8001515,https://maps.google.com/?cid=0x0:0x26ef74cf6855f559,
mall,Toko,JS Aksesori,"3R22+X2Q, Plaza, Tosuraya Sel., Kec. Ratahan, Kabupaten Minahasa Tenggara, Sulawesi Utara","Kabupaten Minahasa Tenggara, Sulawesi Utara",SULAWESI UTARA,,Indonesia,,,,1.0524721,124.8000979,https://maps.google.com/?cid=0x0:0x7d577b1d98be5b45,
mall,Toko Ponsel,Gio  Cliff CELL Ratahan,"Unnamed Road, Lowu Satu, Kec. Ratahan, Kabupaten Minahasa Tenggara, Sulawesi Utara","Kabupaten Minahasa Tenggara, Sulawesi Utara",SULAWESI UTARA,,Indonesia,,,,1.0580664,124.8046447,https://maps.google.com/?cid=0x0:0x21cada4c94e3f4fa,
mall,Pusat Perbelanjaan,cindy cell,"3Q2X+7Q2, Jl. Soputan, Tosuraya Sel., Kec. Ratahan, Kabupaten Minahasa Tenggara, Sulawesi Utara","Kabupaten Minahasa Tenggara, Sulawesi Utara",SULAWESI UTARA,,Indonesia,,,,1.0506578,124.7994297,https://maps.google.com/?cid=0x0:0xdadc5685be1828a2,
mall,Pusat Perbelanjaan,BTstory Plaza Ratahan,"Tosuraya, Kec. Ratahan, Kabupaten Minahasa Tenggara, Sulawesi Utara 95994","Kec. Ratahan, Kabupaten Minahasa Tenggara",SULAWESI UTARA,95994,Indonesia,85161114867.0,,,1.0530478,124.8000344,https://maps.google.com/?cid=0x0:0xa172f754ac11d96e,
mall,mall,Kec. Ratahan Tim.,"Kabupaten Minahasa Tenggara, Sulawesi Utara","Kabupaten Minahasa Tenggara, Sulawesi Utara",SULAWESI UTARA,,Indonesia,,,,1.0937692,124.815983,https://maps.google.com/?cid=0x0:0x26a0154fbfe940e4,
mall,Pusat Perbelanjaan,Toko Sentrum Ratahan,"Tosuraya, Kec. Ratahan, Kabupaten Minahasa Tenggara, Sulawesi Utara 95995","Kec. Ratahan, Kabupaten Minahasa Tenggara",SULAWESI UTARA,95995,Indonesia,85256421580.0,,,1.0524786,124.8002826,https://maps.google.com/?cid=0x0:0x3e144411dd5ce1c,
mall,Pembangunan Perumahan,PLAZA RATAHAN,"3R32+43J, Tosuraya Sel., Kec. Ratahan, Kabupaten Minahasa Tenggara, Sulawesi Utara","Kabupaten Minahasa Tenggara, Sulawesi Utara",SULAWESI UTARA,,Indonesia,,,,1.0528486,124.8001409,https://maps.google.com/?cid=0x0:0xc2d3ab5c2e3ae3c0,
mall,Toko Ponsel,Gio  Cliff CELL Ratahan,"Unnamed Road, Lowu Satu, Kec. Ratahan, Kabupaten Minahasa Tenggara, Sulawesi Utara","Kabupaten Minahasa Tenggara, Sulawesi Utara",SULAWESI UTARA,,Indonesia,,,,1.0580664,124.8046447,https://maps.google.com/?cid=0x0:0x21cada4c94e3f4fa,
mall,Toko,UD Veren,"2RRG+F74, Wioi Tiga, Kec. Ratahan Tim., Kabupaten Minahasa Tenggara, Sulawesi Utara","Kabupaten Minahasa Tenggara, Sulawesi Utara",SULAWESI UTARA,,Indonesia,85256091166.0,,,1.0411398,124.8257124,https://maps.google.com/?cid=0x0:0x35c8b4cd865b1823,
mall,Toko bahan makanan,Agen Resmi Nasa Dan MCI,"3RR8+WJG, Pangu, Kec. Ratahan Tim., Kabupaten Minahasa Tenggara, Sulawesi Utara","Kabupaten Minahasa Tenggara, Sulawesi Utara",SULAWESI UTARA,,Indonesia,81340048968.0,,,1.0923121,124.8165627,https://maps.google.com/?cid=0x0:0x2418008b468adc5a,
mall,Toko Elektronik,Hope Cell,"2QRG+CRP, Rasi Satu, Kec. Ratahan, Kabupaten Minahasa Tenggara, Sulawesi Utara","Kabupaten Minahasa Tenggara, Sulawesi Utara",SULAWESI UTARA,,Indonesia,,,,1.041081,124.7770664,https://maps.google.com/?cid=0x0:0xfd86611e757c659d,
mall,Pusat Perbelanjaan,Kedai Gevariel,"2QVX+QF4, Wawali Pasan, Kec. Ratahan, Kabupaten Minahasa Tenggara, Sulawesi Utara","Kabupaten Minahasa Tenggara, Sulawesi Utara",SULAWESI UTARA,,Indonesia,89530079533.0,,,1.0444,124.7987068,https://maps.google.com/?cid=0x0:0xa0c8f0f83214c24,
mall,Toko,Kios Tasya,"3RM8+JWV, Jl. Raya Langowan - Ratahan, Nataan, Kec. Ratahan, Kabupaten Minahasa Tenggara, Sulawesi Utara","Kabupaten Minahasa Tenggara, Sulawesi Utara",SULAWESI UTARA,,Indonesia,83131810004.0,,,1.0841113,124.8172818,https://maps.google.com/?cid=0x0:0x8e728e3f9e4a0f2b,
mall,Minimarket,WARUNG FOLA,"3RV8+F93, Jl. Raya Langowan - Ratahan, Pangu, Kec. Ratahan Tim., Kabupaten Minahasa Tenggara, Sulawesi Utara","Kabupaten Minahasa Tenggara, Sulawesi Utara",SULAWESI UTARA,,Indonesia,,,,1.0936476,124.815935,https://maps.google.com/?cid=0x0:0x39df6beef7b7e81e,
mall,Minimarket,Indomaret Plaza Ratahan,"3R32+43P, Tosuraya Bar., Kec. Ratahan, Kabupaten Minahasa Tenggara, Sulawesi Utara 95695","Tosuraya Bar., Kec. Ratahan, Kabupaten Minahasa Tenggara",SULAWESI UTARA,95695,Indonesia,,,,1.0528263,124.8001942,https://maps.google.com/?cid=0x0:0x6f22da70e98e794f,
mall,Pusat Perbelanjaan,Toko RESTU SEJATI,"3R32+M7V, Tosuraya, Kec. Ratahan, Kabupaten Minahasa Tenggara, Sulawesi Utara","Kabupaten Minahasa Tenggara, Sulawesi Utara",SULAWESI UTARA,,Indonesia,,,,1.0542428,124.8006844,https://maps.google.com/?cid=0x0:0x86373b5f4d0bdf78,
mall,Pusat Perbelanjaan,Mika'shop,"4VJ4+PFV, Manembo, Kec. Langowan Tim., Kabupaten Minahasa, Sulawesi Utara","Kabupaten Minahasa, Sulawesi Utara",SULAWESI UTARA,,Indonesia,,,,1.1318553,124.8561839,https://maps.google.com/?cid=0x0:0xd8f22f187c873ed9,
mall,Toko Swalayan,Waroeng Yan,"3Q2X+QPV, Tosuraya Sel., Kec. Ratahan, Kabupaten Minahasa Tenggara, Sulawesi Utara","Kabupaten Minahasa Tenggara, Sulawesi Utara",SULAWESI UTARA,,Indonesia,,,,1.0519988,124.7993023,https://maps.google.com/?cid=0x0:0xe9f410fa49060686,
mall,Pusat Perbelanjaan,Manado Town Square,"Jl. Piere Tendean, Kota Manado, Sulawesi Utara 95114",Kota Manado,SULAWESI UTARA,95114,Indonesia,,,,1.4723227,124.8319485,https://maps.google.com/?cid=0x0:0xea03227619d4f862,
mall,Pusat Perbelanjaan,Kembang Sharoun,"3R22+V3J, Jl. Ratahan - Kotamobagu, Tosuraya Sel., Kec. Ratahan, Kabupaten Minahasa Tenggara, Sulawesi Utara","Kabupaten Minahasa Tenggara, Sulawesi Utara",SULAWESI UTARA,,Indonesia,,,,1.0522042,124.8001515,https://maps.google.com/?cid=0x0:0x26ef74cf6855f559,
mall,Pusat Perbelanjaan,cindy cell,"3Q2X+7Q2, Jl. Soputan, Tosuraya Sel., Kec. Ratahan, Kabupaten Minahasa Tenggara, Sulawesi Utara","Kabupaten Minahasa Tenggara, Sulawesi Utara",SULAWESI UTARA,,Indonesia,,,,1.0506578,124.7994297,https://maps.google.com/?cid=0x0:0xdadc5685be1828a2,
mall,Toko,JS Aksesori,"3R22+X2Q, Plaza, Tosuraya Sel., Kec. Ratahan, Kabupaten Minahasa Tenggara, Sulawesi Utara","Kabupaten Minahasa Tenggara, Sulawesi Utara",SULAWESI UTARA,,Indonesia,,,,1.0524721,124.8000979,https://maps.google.com/?cid=0x0:0x7d577b1d98be5b45,
mall,Komplek perumahan,Atep Jaya,"3VGG+F57, Unnamed Road, Atep, Kec. Langowan Sel., Kabupaten Minahasa, Sulawesi Utara","Kabupaten Minahasa, Sulawesi Utara",SULAWESI UTARA,,Indonesia,89679913826.0,,,1.0761632,124.8754127,https://maps.google.com/?cid=0x0:0x706b3f52d2c60353,
mall,Pasar tradisional,Kios Rizky Ratatotok,"VPF2+3R8, Jl. Ratahan - Kotamobagu, Ratatotok Tengah, Kec. Ratatotok, Kabupaten Minahasa Tenggara, Sulawesi Utara 95997","Jl. Ratahan - Kotamobagu, Ratatotok Tengah, Kec. Ratatotok, Kabupaten Minahasa Tenggara",SULAWESI UTARA,95997,Indonesia,85397292144.0,,,0.8726599,124.7020734,https://maps.google.com/?cid=0x0:0xa44ec304986dcf59,
mall,Pusat Perbelanjaan,BTstory Plaza Ratahan,"Tosuraya, Kec. Ratahan, Kabupaten Minahasa Tenggara, Sulawesi Utara 95994","Kec. Ratahan, Kabupaten Minahasa Tenggara",SULAWESI UTARA,95994,Indonesia,85161114867.0,,,1.0530478,124.8000344,https://maps.google.com/?cid=0x0:0xa172f754ac11d96e,
mall,Pusat Perbelanjaan,"Waroeng Fabiano Tambuwun Ano""""","Jalan raya noongan No.13, Raringis, Kec. Langowan Bar., Kabupaten Minahasa, Sulawesi Utara","Kabupaten Minahasa, Sulawesi Utara",SULAWESI UTARA,,Indonesia,,,,1.1256215,124.8088445,https://maps.google.com/?cid=0x0:0x34c19ae74a4a677e,
mall,mall,Sulawesi Utara 95997,"Kec. Ratatotok, Kabupaten Minahasa Tenggara, Sulawesi Utara","Kabupaten Minahasa Tenggara, Sulawesi Utara",SULAWESI UTARA,,Indonesia,,,,0.9486073,124.7519807,https://maps.google.com/?cid=0x0:0x91125c5c2a0b68b9,
mall,Toko,Ratih-DISTRIBUTOR KK INDONESIA-RATATOTOK,"VPC2+59V, Ratatotok, Kec. Ratatotok, Kabupaten Minahasa Tenggara, Sulawesi Utara 95997","Ratatotok, Kec. Ratatotok, Kabupaten Minahasa Tenggara",SULAWESI UTARA,95997,Indonesia,85240599998.0,,,0.8704784,124.7009101,https://maps.google.com/?cid=0x0:0xf55c752b30b68551,
mall,Pasar tradisional,Kios Rizky Ratatotok,"VPF2+3R8, Jl. Ratahan - Kotamobagu, Ratatotok Tengah, Kec. Ratatotok, Kabupaten Minahasa Tenggara, Sulawesi Utara 95997","Jl. Ratahan - Kotamobagu, Ratatotok Tengah, Kec. Ratatotok, Kabupaten Minahasa Tenggara",SULAWESI UTARA,95997,Indonesia,85397292144.0,,,0.8726599,124.7020734,https://maps.google.com/?cid=0x0:0xa44ec304986dcf59,
mall,Toko,Warung emy,"VPF2+MF7, Ratatotok Satu, Kec. Ratatotok, Kabupaten Minahasa Tenggara, Sulawesi Utara 95997","Ratatotok Satu, Kec. Ratatotok, Kabupaten Minahasa Tenggara",SULAWESI UTARA,95997,Indonesia,85255548485.0,,,0.8741514,124.7011652,https://maps.google.com/?cid=0x0:0x9300c3c3d2232e63,
mall,Pembangunan Perumahan,PLAZA RATAHAN,"3R32+43J, Tosuraya Sel., Kec. Ratahan, Kabupaten Minahasa Tenggara, Sulawesi Utara","Kabupaten Minahasa Tenggara, Sulawesi Utara",SULAWESI UTARA,,Indonesia,,,,1.0528486,124.8001409,https://maps.google.com/?cid=0x0:0xc2d3ab5c2e3ae3c0,
mall,Pusat Perbelanjaan,Neyva shopping Ratatotok,"VPG2+768, Jl. Ratahan - Kotamobagu, Ratatotok Satu, Kec. Ratatotok, Kabupaten Minahasa Tenggara, Sulawesi Utara 95997","Jl. Ratahan - Kotamobagu, Ratatotok Satu, Kec. Ratatotok, Kabupaten Minahasa Tenggara",SULAWESI UTARA,95997,Indonesia,,,,0.875665,124.7005914,https://maps.google.com/?cid=0x0:0xab63d41a1aef8864,
mall,Toko umum,Lionelfrilia 2310 Market,"WMJX+4F8, Unnamed Road, Moreah, Kec. Ratatotok, Kabupaten Minahasa Tenggara, Sulawesi Utara 95997","Unnamed Road, Moreah, Kec. Ratatotok, Kabupaten Minahasa Tenggara",SULAWESI UTARA,95997,Indonesia,82189296529.0,,,0.9302847,124.6986875,https://maps.google.com/?cid=0x0:0x4be04eee29ac371,
mall,Pusat Perbelanjaan,Yysmin,"VPF2+H5J, Ratatotok Satu, Kec. Ratatotok, Kabupaten Minahasa Tenggara, Sulawesi Utara 95997","Ratatotok Satu, Kec. Ratatotok, Kabupaten Minahasa Tenggara",SULAWESI UTARA,95997,Indonesia,,,,0.8739692,124.7003863,https://maps.google.com/?cid=0x0:0xc7b9a65217611f2b,
mall,Toko Swalayan,CHENZJEN MARKET,"WMCX+H39, Soyowan, Kec. Ratatotok, Kabupaten Minahasa Tenggara, Sulawesi Utara 95997","Soyowan, Kec. Ratatotok, Kabupaten Minahasa Tenggara",SULAWESI UTARA,95997,Indonesia,,,,0.9214933,124.6976586,https://maps.google.com/?cid=0x0:0xd7b326729aee3341,
mall,Pusat Perbelanjaan,GODVILA CELL,"WMFV+FH4, Soyowan, Kec. Ratatotok, Kabupaten Minahasa Tenggara, Sulawesi Utara 95997","Soyowan, Kec. Ratatotok, Kabupaten Minahasa Tenggara",SULAWESI UTARA,95997,Indonesia,82192763604.0,,,0.9236286,124.6939449,https://maps.google.com/?cid=0x0:0xc58c3aed7a43666d,
mall,Minimarket,Indomaret Soyoan,"WMCX+F3C, Soyowan, Kec. Ratatotok, Kabupaten Minahasa Tenggara, Sulawesi Utara 95997","Soyowan, Kec. Ratatotok, Kabupaten Minahasa Tenggara",SULAWESI UTARA,95997,Indonesia,,,,0.921206,124.697634,https://maps.google.com/?cid=0x0:0xc23cc45cf10d91d,
mall,mall,Kec. Ratatotok,"Kabupaten Minahasa Tenggara, Sulawesi Utara","Kabupaten Minahasa Tenggara, Sulawesi Utara",SULAWESI UTARA,,Indonesia,,,,0.8739142,124.7003929,https://maps.google.com/?cid=0x0:0xfad043f7df9d10da,
mall,mall,Kios Max Allo Lumintang,"WPM2+WRP, Morea Satu, Kec. Ratatotok, Kabupaten Minahasa Tenggara, Sulawesi Utara 95997","Morea Satu, Kec. Ratatotok, Kabupaten Minahasa Tenggara",SULAWESI UTARA,95997,Indonesia,,,,0.9345994,124.7018462,https://maps.google.com/?cid=0x0:0x9cb172556d0dc216,
mall,Pusat Perbelanjaan,DEPOT GODVILA SOYOWAN,"WMCX+H39, Soyowan, Kec. Ratatotok, Kabupaten Minahasa Tenggara, Sulawesi Utara 95997","Soyowan, Kec. Ratatotok, Kabupaten Minahasa Tenggara",SULAWESI UTARA,95997,Indonesia,82192763602.0,,,0.9214,124.6977467,https://maps.google.com/?cid=0x0:0x2b8b8ce0a8712f2c,
mall,Toko,Fath_talibo_cell,"WQPP+WCG, Borgo, Kec. Belang, Kabupaten Minahasa Tenggara, Sulawesi Utara 95997","Borgo, Kec. Belang, Kabupaten Minahasa Tenggara",SULAWESI UTARA,95997,Indonesia,85399632632.0,,,0.9373197,124.7860685,https://maps.google.com/?cid=0x0:0x63d1b03eb438568a,
mall,Kompleks Olahraga,"Lapangan NARATO, Ratatotok","VMGX+Q8P, Ratatotok Satu, Kec. Ratatotok, Kabupaten Minahasa Tenggara, Sulawesi Utara 95997","Ratatotok Satu, Kec. Ratatotok, Kabupaten Minahasa Tenggara",SULAWESI UTARA,95997,Indonesia,,,,0.8769679,124.6983192,https://maps.google.com/?cid=0x0:0x26502a349e794da1,
mall,Bengkel Mobil,Bengkel Devi Putri Supit,"VPG2+99J, Ratatotok Satu, Kec. Ratatotok, Kabupaten Minahasa Tenggara, Sulawesi Utara 95997","Ratatotok Satu, Kec. Ratatotok, Kabupaten Minahasa Tenggara",SULAWESI UTARA,95997,Indonesia,,,,0.87596,124.7008954,https://maps.google.com/?cid=0x0:0xc76a360bdd5595b0,
mall,Pusat Perbelanjaan,Indomaret Buyat,"VM4V+27C, Buyat II, Kotabunan, Kabupaten Bolaang Mongondow Timur, Sulawesi Utara","Kabupaten Bolaang Mongondow Timur, Sulawesi Utara",SULAWESI UTARA,,Indonesia,,,,0.8550738,124.6931562,https://maps.google.com/?cid=0x0:0xe89d23c6c86ac0a3,
mall,Toko Pakaian,Aisyah Cell,"VPWX+XP3, Jl. Ratahan - Kotamobagu, Basaan Satu, Kec. Ratatotok, Kabupaten Minahasa Tenggara, Sulawesi Utara 95997","Jl. Ratahan - Kotamobagu, Basaan Satu, Kec. Ratatotok, Kabupaten Minahasa Tenggara",SULAWESI UTARA,95997,Indonesia,81242721944.0,,,0.8973961,124.7492828,https://maps.google.com/?cid=0x0:0x6c9b0f66875460c3,
mall,Minimarket,Indomaret Ratatotok,"VMFX+RVM, Jl. Ratahan - Kotamobagu, Ratatotok Satu, Kec. Ratatotok, Kabupaten Minahasa Tenggara, Sulawesi Utara 95997","Jl. Ratahan - Kotamobagu, Ratatotok Satu, Kec. Ratatotok, Kabupaten Minahasa Tenggara",SULAWESI UTARA,95997,Indonesia,,,,0.8745949,124.6996836,https://maps.google.com/?cid=0x0:0x2f2c6f279dcdbb74,
mall,Minimarket,ALFAMIDI RATATOTOK,"VMFX+QRV, Jl. Ratahan - Kotamobagu, Ratatotok Satu, Kec. Ratatotok, Kabupaten Minahasa Tenggara, Sulawesi Utara 95997","Jl. Ratahan - Kotamobagu, Ratatotok Satu, Kec. Ratatotok, Kabupaten Minahasa Tenggara",SULAWESI UTARA,95997,Indonesia,,,,0.8744971,124.6995235,https://maps.google.com/?cid=0x0:0xd9f4fbfe7ea785cd,
mall,mall,Kec. Silian Raya,"Kabupaten Minahasa Tenggara, Sulawesi Utara","Kabupaten Minahasa Tenggara, Sulawesi Utara",SULAWESI UTARA,,Indonesia,,,,1.0607028,124.6706139,https://maps.google.com/?cid=0x0:0xc85569b0227031a5,
mall,Toko,Kios/ChristianCell,"3M78+VC2, Unnamed Road, Silian Kota, Kec. Silian Raya, Kabupaten Minahasa Tenggara, Sulawesi Utara","Kabupaten Minahasa Tenggara, Sulawesi Utara",SULAWESI UTARA,,Indonesia,82346476677.0,,,1.0646399,124.6660221,https://maps.google.com/?cid=0x0:0x3347b79f74c22d7,
mall,Pembangunan Perumahan,My Home,"3M89+9QF, Silian Tengah, Kec. Silian Raya, Kabupaten Minahasa Tenggara, Sulawesi Utara","Kabupaten Minahasa Tenggara, Sulawesi Utara",SULAWESI UTARA,,Indonesia,,,,1.0659951,124.6693064,https://maps.google.com/?cid=0x0:0xc7d148e69828eda3,
mall,Pusat Perbelanjaan,Prizkila Cell/Olshop,"3M67+RJ3, Unnamed Road, Silian Dua, Kec. Silian Raya, Kabupaten Minahasa Tenggara, Sulawesi Utara","Kabupaten Minahasa Tenggara, Sulawesi Utara",SULAWESI UTARA,,Indonesia,85825168170.0,,,1.0620027,124.6640378,https://maps.google.com/?cid=0x0:0x9541380392658031,
mall,Bengkel Sepeda Motor,Kevin Motor Silian,"3M68+MVR, Unnamed Road, Silian Kota, Kec. Silian Raya, Kabupaten Minahasa Tenggara, Sulawesi Utara","Kabupaten Minahasa Tenggara, Sulawesi Utara",SULAWESI UTARA,,Indonesia,8114344469.0,,,1.0617392,124.6671507,https://maps.google.com/?cid=0x0:0x6afba862c02b3260,
mall,Toko,Counter Me Cell,"3M42+5H2, Lobu Satu, Kec. Touluaan, Kabupaten Minahasa Tenggara, Sulawesi Utara","Kabupaten Minahasa Tenggara, Sulawesi Utara",SULAWESI UTARA,,Indonesia,82259911100.0,,,1.0553926,124.6513797,https://maps.google.com/?cid=0x0:0x15ef996c974d7b0,
mall,,Kios variasi,"3M33+8X3, Tondanouw, Kec. Touluaan, Kabupaten Minahasa Tenggara, Sulawesi Utara","Kabupaten Minahasa Tenggara, Sulawesi Utara",SULAWESI UTARA,,Indonesia,85696668825.0,,,1.0532536,124.6549091,https://maps.google.com/?cid=0x0:0xbf6ac9abbd560988,
mall,Pusat Perbelanjaan,Gallery Olshop Moncha | MonchaSHOP,"Jl. Amurang-Ratahan No.16, Ranoketang Atas Satu, Kec. Touluaan, Kabupaten Minahasa Tenggara, Sulawesi Utara","Kabupaten Minahasa Tenggara, Sulawesi Utara",SULAWESI UTARA,,Indonesia,82188727676.0,,,1.0510636,124.6558397,https://maps.google.com/?cid=0x0:0x21c8f3b37a9189e4,
mall,Kios,UD Lo'or - Amelius Manoppo,"2MWP+276, Tombatu Dua, Kec. Tombatu Utara, Kabupaten Minahasa Tenggara, Sulawesi Utara","Kabupaten Minahasa Tenggara, Sulawesi Utara",SULAWESI UTARA,,Indonesia,81356523680.0,,,1.0450437,124.685641,https://maps.google.com/?cid=0x0:0xbe7f977c5cbd3825,
mall,Toko,"ARIEL COLLECTION Cab.Tombatu""","Tombatu Dua Tengah, Kec. Tombatu Utara, Kabupaten Minahasa Tenggara, Sulawesi Utara","Kabupaten Minahasa Tenggara, Sulawesi Utara",SULAWESI UTARA,,Indonesia,82398408076.0,,,1.0448543,124.6793765,https://maps.google.com/?cid=0x0:0x3d065acfea22d0b0,
mall,Toko,Konter Cheryl cell,"Jl. Amurang-Ratahan No.16, Ranoketang Atas Satu, Kec. Touluaan, Kabupaten Minahasa Tenggara, Sulawesi Utara","Kabupaten Minahasa Tenggara, Sulawesi Utara",SULAWESI UTARA,,Indonesia,81241923118.0,,,1.0520354,124.6580983,https://maps.google.com/?cid=0x0:0xbcb0c6d9070f42c5,
mall,Toko,Toko Rama,"2MWG+GM5, Betelan Satu, Kec. Tombatu, Kabupaten Minahasa Tenggara, Sulawesi Utara","Kabupaten Minahasa Tenggara, Sulawesi Utara",SULAWESI UTARA,,Indonesia,85256512632.0,,,1.0462528,124.6767274,https://maps.google.com/?cid=0x0:0x1f08c6a05a811abd,
mall,Toko Swalayan,Indomaret silian raya,"3M69+P8C, Silian, Kec. Silian Raya, Kabupaten Minahasa Tenggara, Sulawesi Utara","Kabupaten Minahasa Tenggara, Sulawesi Utara",SULAWESI UTARA,,Indonesia,,,,1.0618044,124.6682544,https://maps.google.com/?cid=0x0:0xd650ad71cf1db7fa,
mall,Toko Elektronik,Gabriel Cell,"Silian Sel., Kec. Silian Raya, Kabupaten Minahasa Tenggara, Sulawesi Utara","Kabupaten Minahasa Tenggara, Sulawesi Utara",SULAWESI UTARA,,Indonesia,82188999059.0,,,1.0604874,124.6692054,https://maps.google.com/?cid=0x0:0x7c5e1d7898147ac3,
mall,Pusat Perbelanjaan,Pasar Rakyat Tombatu,"2MWG+JHF, Unnamed Rd,, Betelan Satu, Minahasa Tenggara, Kabupaten Minahasa Tenggara, Sulawesi Utara","Kabupaten Minahasa Tenggara, Sulawesi Utara",SULAWESI UTARA,,Indonesia,,,,1.0465621,124.6764189,https://maps.google.com/?cid=0x0:0xd20908fe7385f467,
mall,Toko,RnB Cell (Ranoketang Atas),"Jl. Amurang-Ratahan No.16, Ranoketang Atas Satu, Kec. Touluaan, Kabupaten Minahasa Tenggara, Sulawesi Utara","Kabupaten Minahasa Tenggara, Sulawesi Utara",SULAWESI UTARA,,Indonesia,85397132346.0,,,1.0515975,124.6579039,https://maps.google.com/?cid=0x0:0xc73a1c42999db9d6,
mall,Pusat Perbelanjaan,Megamall Manado,"Kawasan Megamas, Kantor Pengelola Megamall, Jl. Piere Tendean, Wenang Sel., Kec. Wenang, Kota Manado, Sulawesi Utara 95234","Kantor Pengelola Megamall, Jl. Piere Tendean, Wenang Sel., Kec. Wenang, Kota Manado",SULAWESI UTARA,95234,Indonesia,431879889.0,,,1.4839687,124.8348372,https://maps.google.com/?cid=0x0:0xfcc9b9fa2283700,
mall,mall,Kec. Tombatu,"Kabupaten Minahasa Tenggara, Sulawesi Utara","Kabupaten Minahasa Tenggara, Sulawesi Utara",SULAWESI UTARA,,Indonesia,,,,1.0392874,124.6821911,https://maps.google.com/?cid=0x0:0x15df6048da14c99b,
mall,Pasar,Pasar Tua Tombatu,"2MVP+MCM, Tombatu Tiga, Kec. Tombatu Utara, Kabupaten Minahasa Tenggara, Sulawesi Utara","Kabupaten Minahasa Tenggara, Sulawesi Utara",SULAWESI UTARA,,Indonesia,,,,1.0442103,124.6860608,https://maps.google.com/?cid=0x0:0x8929b9a3bddf68b6,
mall,Pusat Perbelanjaan,Pasar Rakyat Tombatu,"2MWG+JHF, Unnamed Rd,, Betelan Satu, Minahasa Tenggara, Kabupaten Minahasa Tenggara, Sulawesi Utara","Kabupaten Minahasa Tenggara, Sulawesi Utara",SULAWESI UTARA,,Indonesia,,,,1.0465621,124.6764189,https://maps.google.com/?cid=0x0:0xd20908fe7385f467,
mall,Toko,"ARIEL COLLECTION Cab.Tombatu""","Tombatu Dua Tengah, Kec. Tombatu Utara, Kabupaten Minahasa Tenggara, Sulawesi Utara","Kabupaten Minahasa Tenggara, Sulawesi Utara",SULAWESI UTARA,,Indonesia,82398408076.0,,,1.0448543,124.6793765,https://maps.google.com/?cid=0x0:0x3d065acfea22d0b0,
mall,Pusat Perbelanjaan,Indomaret Tombatu Utara,"2MVP+24F, Jl. Raya Tombatu, Tombatu Tiga Tengah, Kec. Tombatu Utara, Kabupaten Minahasa Tenggara, Sulawesi Utara","Kabupaten Minahasa Tenggara, Sulawesi Utara",SULAWESI UTARA,,Indonesia,,,,1.0425512,124.6853103,https://maps.google.com/?cid=0x0:0x2176a35f94ae23cc,
mall,Komplek perumahan,Pusat Kota Tombatu,"2MVP+P42, Tombatu Dua, Kec. Tombatu Utara, Kabupaten Minahasa Tenggara, Sulawesi Utara","Kabupaten Minahasa Tenggara, Sulawesi Utara",SULAWESI UTARA,,Indonesia,,,,1.0441949,124.6852769,https://maps.google.com/?cid=0x0:0x873c3300a27d0e91,
mall,Kios,UD Lo'or - Amelius Manoppo,"2MWP+276, Tombatu Dua, Kec. Tombatu Utara, Kabupaten Minahasa Tenggara, Sulawesi Utara","Kabupaten Minahasa Tenggara, Sulawesi Utara",SULAWESI UTARA,,Indonesia,81356523680.0,,,1.0450437,124.685641,https://maps.google.com/?cid=0x0:0xbe7f977c5cbd3825,
mall,Toko,Toko Rama,"2MWG+GM5, Betelan Satu, Kec. Tombatu, Kabupaten Minahasa Tenggara, Sulawesi Utara","Kabupaten Minahasa Tenggara, Sulawesi Utara",SULAWESI UTARA,,Indonesia,85256512632.0,,,1.0462528,124.6767274,https://maps.google.com/?cid=0x0:0x1f08c6a05a811abd,
mall,Toko,Counter Me Cell,"3M42+5H2, Lobu Satu, Kec. Touluaan, Kabupaten Minahasa Tenggara, Sulawesi Utara","Kabupaten Minahasa Tenggara, Sulawesi Utara",SULAWESI UTARA,,Indonesia,82259911100.0,,,1.0553926,124.6513797,https://maps.google.com/?cid=0x0:0x15ef996c974d7b0,
mall,Toko umum,Fijay Manoppo,"2MVP+43J, Jl. Raya Tombatu, Tombatu Tiga Tengah, Kec. Tombatu Utara, Kabupaten Minahasa Tenggara, Sulawesi Utara","Kabupaten Minahasa Tenggara, Sulawesi Utara",SULAWESI UTARA,,Indonesia,8971514817.0,,,1.0428472,124.6851303,https://maps.google.com/?cid=0x0:0xad0e623748fa7f09,
mall,Toko umum,Toko Ivv24,"Mundung Jalan Raya Molompar, Mundung, Kec. Tombatu Tim., Sulawesi Utara 95990","Mundung, Kec. Tombatu Tim.",SULAWESI UTARA,95990,Indonesia,895322866698.0,,,1.0269917,124.7240188,https://maps.google.com/?cid=0x0:0x63fd307c335c9cc8,
mall,Toko,Toko Hismar,"2MVP+GCG, Tombatu Tiga Tengah, Kec. Tombatu Utara, Kabupaten Minahasa Tenggara, Sulawesi Utara","Kabupaten Minahasa Tenggara, Sulawesi Utara",SULAWESI UTARA,,Indonesia,,,,1.0438038,124.6860872,https://maps.google.com/?cid=0x0:0x639368295f3d2430,
mall,Toko Perlengkapan Rumah,JOEL AGAPE PELAYANAN KEDUKAAN,"Jln. Raya, Mundung, Kec. Tombatu Tim., Kabupaten Minahasa Tenggara, Sulawesi Utara","Kabupaten Minahasa Tenggara, Sulawesi Utara",SULAWESI UTARA,,Indonesia,81233338826.0,,,1.0285893,124.7218327,https://maps.google.com/?cid=0x0:0xe2177e68235ffee3,
mall,Pusat Perbelanjaan,Bible Motor,"Kuyanga Satu, Kec. Tombatu Utara, Kabupaten Minahasa Tenggara, Sulawesi Utara","Kabupaten Minahasa Tenggara, Sulawesi Utara",SULAWESI UTARA,,Indonesia,85696287347.0,,,1.0355058,124.7017251,https://maps.google.com/?cid=0x0:0x8ccdd424cf002936,
mall,Pusat Perbelanjaan,Betelen motor,"2MVJ+GQF, Betelan, Kec. Tombatu, Kabupaten Minahasa Tenggara, Sulawesi Utara","Kabupaten Minahasa Tenggara, Sulawesi Utara",SULAWESI UTARA,,Indonesia,82395286309.0,,,1.0438228,124.6819134,https://maps.google.com/?cid=0x0:0x23d6bc493391da79,
mall,Pusat Perbelanjaan,Gallery Olshop Moncha | MonchaSHOP,"Jl. Amurang-Ratahan No.16, Ranoketang Atas Satu, Kec. Touluaan, Kabupaten Minahasa Tenggara, Sulawesi Utara","Kabupaten Minahasa Tenggara, Sulawesi Utara",SULAWESI UTARA,,Indonesia,82188727676.0,,,1.0510636,124.6558397,https://maps.google.com/?cid=0x0:0x21c8f3b37a9189e4,
mall,Pusat Perbelanjaan,Toko Dom's,"2PGF+WF8, Samping gereja zaitun, Mundung, Kec. Tombatu Tim., Kabupaten Minahasa Tenggara, Sulawesi Utara","Kabupaten Minahasa Tenggara, Sulawesi Utara",SULAWESI UTARA,,Indonesia,,,,1.0272853,124.7236999,https://maps.google.com/?cid=0x0:0x4503e5448c2ab579,
mall,Toko,Kios Gamaizka,"2PM2+VJH, Kuyanga Satu, Kec. Tombatu Utara, Kabupaten Minahasa Tenggara, Sulawesi Utara","Kabupaten Minahasa Tenggara, Sulawesi Utara",SULAWESI UTARA,,Indonesia,,,,1.0353322,124.7012079,https://maps.google.com/?cid=0x0:0xf2305463d824dde6,
mall,mall,Kios Kindshop,"2PMM+VJJ, Molompar Dua Utara, Kec. Tombatu Tim., Kabupaten Minahasa Tenggara, Sulawesi Utara","Kabupaten Minahasa Tenggara, Sulawesi Utara",SULAWESI UTARA,,Indonesia,,,,1.0347239,124.7340214,https://maps.google.com/?cid=0x0:0x88a697dac312a514,
mall,Bengkel Sepeda Motor,Toko Anton Motor,"2MQW+RPG, Jln raya, Kuyanga, Kec. Tombatu, Kabupaten Minahasa Tenggara, Sulawesi Utara","Kabupaten Minahasa Tenggara, Sulawesi Utara",SULAWESI UTARA,,Indonesia,,,,1.0395564,124.6968433,https://maps.google.com/?cid=0x0:0xc39211f6ad7c6578,
mall,Toko Suku Cadang Motor,Acc Gerage Car,"2PFH+QX5 mitra, jln lorong pisang, Molompar Satu, Kec. Tombatu Tim., Kabupaten Minahasa Tenggara, Sulawesi Utara","Kabupaten Minahasa Tenggara, Sulawesi Utara",SULAWESI UTARA,,Indonesia,85256601994.0,,,1.02439,124.7299786,https://maps.google.com/?cid=0x0:0x3be5884ec834a18d,
mall,mall,Plasa Ratahan,"2MRQ+4CP, Tombatu Tiga Tim., Kec. Tombatu, Kabupaten Minahasa Tenggara, Sulawesi Utara","Kabupaten Minahasa Tenggara, Sulawesi Utara",SULAWESI UTARA,,Indonesia,,,,1.0403264,124.6885862,https://maps.google.com/?cid=0x0:0x8b8d6eb207d14a7e,
mall,mall,Boulevard Tombatu,"2MXF+XFR, Betelan Satu, Kec. Tombatu, Kabupaten Minahasa Tenggara, Sulawesi Utara","Kabupaten Minahasa Tenggara, Sulawesi Utara",SULAWESI UTARA,,Indonesia,,,,1.0499853,124.6736514,https://maps.google.com/?cid=0x0:0xc74a743b6f152b5a,
mall,mall,Toko Brasa,"2MQJ+373, Tombatu Satu, Kec. Tombatu, Kabupaten Minahasa Tenggara, Sulawesi Utara","Kabupaten Minahasa Tenggara, Sulawesi Utara",SULAWESI UTARA,,Indonesia,,,,1.0376262,124.6806873,https://maps.google.com/?cid=0x0:0xc9acb361120eb6be,
mall,mall,Kec. Tombatu Tim.,"Kabupaten Minahasa Tenggara, Sulawesi Utara","Kabupaten Minahasa Tenggara, Sulawesi Utara",SULAWESI UTARA,,Indonesia,,,,1.0260417,124.7260931,https://maps.google.com/?cid=0x0:0xc4583ba933d210d3,
mall,Toko Perlengkapan Rumah,JOEL AGAPE PELAYANAN KEDUKAAN,"Jln. Raya, Mundung, Kec. Tombatu Tim., Kabupaten Minahasa Tenggara, Sulawesi Utara","Kabupaten Minahasa Tenggara, Sulawesi Utara",SULAWESI UTARA,,Indonesia,81233338826.0,,,1.0285893,124.7218327,https://maps.google.com/?cid=0x0:0xe2177e68235ffee3,
mall,Pasar,Pasar Tua Tombatu,"2MVP+MCM, Tombatu Tiga, Kec. Tombatu Utara, Kabupaten Minahasa Tenggara, Sulawesi Utara","Kabupaten Minahasa Tenggara, Sulawesi Utara",SULAWESI UTARA,,Indonesia,,,,1.0442103,124.6860608,https://maps.google.com/?cid=0x0:0x8929b9a3bddf68b6,
mall,Pusat Perbelanjaan,Indomaret Tombatu Utara,"2MVP+24F, Jl. Raya Tombatu, Tombatu Tiga Tengah, Kec. Tombatu Utara, Kabupaten Minahasa Tenggara, Sulawesi Utara","Kabupaten Minahasa Tenggara, Sulawesi Utara",SULAWESI UTARA,,Indonesia,,,,1.0425512,124.6853103,https://maps.google.com/?cid=0x0:0x2176a35f94ae23cc,
mall,mall,Kios Kindshop,"2PMM+VJJ, Molompar Dua Utara, Kec. Tombatu Tim., Kabupaten Minahasa Tenggara, Sulawesi Utara","Kabupaten Minahasa Tenggara, Sulawesi Utara",SULAWESI UTARA,,Indonesia,,,,1.0347239,124.7340214,https://maps.google.com/?cid=0x0:0x88a697dac312a514,
mall,Pusat Perbelanjaan,Indomaret Betelen Tombatu,"Jl. Raya Tombatu, Betelan, Kec. Tombatu, Kabupaten Minahasa Tenggara, Sulawesi Utara","Kabupaten Minahasa Tenggara, Sulawesi Utara",SULAWESI UTARA,,Indonesia,,,,1.0438934,124.6815047,https://maps.google.com/?cid=0x0:0xa797504c518450a3,
mall,Toko bahan makanan,Pt.Tahu STERIL Tenaga UAP,"2PHG+C7P, Molompar Dua Utara, Kec. Tombatu Tim., Kabupaten Minahasa Tenggara, Sulawesi Utara","Kabupaten Minahasa Tenggara, Sulawesi Utara",SULAWESI UTARA,,Indonesia,82395214546.0,,,1.0285863,124.7257065,https://maps.google.com/?cid=0x0:0xb36e6676ae8ce124,
mall,Komplek perumahan,Pusat Kota Tombatu,"2MVP+P42, Tombatu Dua, Kec. Tombatu Utara, Kabupaten Minahasa Tenggara, Sulawesi Utara","Kabupaten Minahasa Tenggara, Sulawesi Utara",SULAWESI UTARA,,Indonesia,,,,1.0441949,124.6852769,https://maps.google.com/?cid=0x0:0x873c3300a27d0e91,
mall,Toko,"ARIEL COLLECTION Cab.Tombatu""","Tombatu Dua Tengah, Kec. Tombatu Utara, Kabupaten Minahasa Tenggara, Sulawesi Utara","Kabupaten Minahasa Tenggara, Sulawesi Utara",SULAWESI UTARA,,Indonesia,82398408076.0,,,1.0448543,124.6793765,https://maps.google.com/?cid=0x0:0x3d065acfea22d0b0,
mall,Salon Kecantikan,Nail by Cils Molompar,"2PGH+H45, Molompar Atas, Kec. Tombatu Tim., Kabupaten Minahasa Tenggara, Sulawesi Utara","Kabupaten Minahasa Tenggara, Sulawesi Utara",SULAWESI UTARA,,Indonesia,82187408401.0,,,1.0263798,124.7278647,https://maps.google.com/?cid=0x0:0x1fc9eda7db75d714,
mall,Toko Suku Cadang Motor,Acc Gerage Car,"2PFH+QX5 mitra, jln lorong pisang, Molompar Satu, Kec. Tombatu Tim., Kabupaten Minahasa Tenggara, Sulawesi Utara","Kabupaten Minahasa Tenggara, Sulawesi Utara",SULAWESI UTARA,,Indonesia,85256601994.0,,,1.02439,124.7299786,https://maps.google.com/?cid=0x0:0x3be5884ec834a18d,
mall,Pusat Perbelanjaan,Toko Dom's,"2PGF+WF8, Samping gereja zaitun, Mundung, Kec. Tombatu Tim., Kabupaten Minahasa Tenggara, Sulawesi Utara","Kabupaten Minahasa Tenggara, Sulawesi Utara",SULAWESI UTARA,,Indonesia,,,,1.0272853,124.7236999,https://maps.google.com/?cid=0x0:0x4503e5448c2ab579,
mall,Toko Internet,LOKET YANI,"Tolombukan, Kec. Pasan, Kabupaten Minahasa Tenggara, Sulawesi Utara","Kabupaten Minahasa Tenggara, Sulawesi Utara",SULAWESI UTARA,,Indonesia,82217171716.0,,,1.0231248,124.7426065,https://maps.google.com/?cid=0x0:0xf064daf800185226,
mall,Toko,Kios Gamaizka,"2PM2+VJH, Kuyanga Satu, Kec. Tombatu Utara, Kabupaten Minahasa Tenggara, Sulawesi Utara","Kabupaten Minahasa Tenggara, Sulawesi Utara",SULAWESI UTARA,,Indonesia,,,,1.0353322,124.7012079,https://maps.google.com/?cid=0x0:0xf2305463d824dde6,
mall,Pusat Perbelanjaan,Bible Motor,"Kuyanga Satu, Kec. Tombatu Utara, Kabupaten Minahasa Tenggara, Sulawesi Utara","Kabupaten Minahasa Tenggara, Sulawesi Utara",SULAWESI UTARA,,Indonesia,85696287347.0,,,1.0355058,124.7017251,https://maps.google.com/?cid=0x0:0x8ccdd424cf002936,
mall,Toko umum,Fijay Manoppo,"2MVP+43J, Jl. Raya Tombatu, Tombatu Tiga Tengah, Kec. Tombatu Utara, Kabupaten Minahasa Tenggara, Sulawesi Utara","Kabupaten Minahasa Tenggara, Sulawesi Utara",SULAWESI UTARA,,Indonesia,8971514817.0,,,1.0428472,124.6851303,https://maps.google.com/?cid=0x0:0xad0e623748fa7f09,
mall,Pusat Perbelanjaan,Manado Town Square,"Jl. Piere Tendean, Kota Manado, Sulawesi Utara 95114",Kota Manado,SULAWESI UTARA,95114,Indonesia,,,,1.4723227,124.8319485,https://maps.google.com/?cid=0x0:0xea03227619d4f862,
mall,Toko Bahan Bangunan,Toko Millysurya TOMBATU,"Jl. Tombatu Kali RT.01, Desa Tombatu, Kecamatan Tombatu, Tombatu, Kec. Tombatu, Kabupaten Minahasa Tenggara, Sulawesi Utara","Kabupaten Minahasa Tenggara, Sulawesi Utara",SULAWESI UTARA,,Indonesia,89602010675.0,,,1.0388156,124.6831958,https://maps.google.com/?cid=0x0:0x90ad3317b6415b2e,
mall,Toko,Toko Hismar,"2MVP+GCG, Tombatu Tiga Tengah, Kec. Tombatu Utara, Kabupaten Minahasa Tenggara, Sulawesi Utara","Kabupaten Minahasa Tenggara, Sulawesi Utara",SULAWESI UTARA,,Indonesia,,,,1.0438038,124.6860872,https://maps.google.com/?cid=0x0:0x639368295f3d2430,
mall,Pembangunan Perumahan,PLAZA RATAHAN,"3R32+43J, Tosuraya Sel., Kec. Ratahan, Kabupaten Minahasa Tenggara, Sulawesi Utara","Kabupaten Minahasa Tenggara, Sulawesi Utara",SULAWESI UTARA,,Indonesia,,,,1.0528486,124.8001409,https://maps.google.com/?cid=0x0:0xc2d3ab5c2e3ae3c0,
mall,Pusat Perbelanjaan,Star Square Manado,"FR6G+V7M, Jl. R.W. Monginsidi VI, Bahu, Kec. Malalayang, Kota Manado, Sulawesi Utara","Kota Manado, Sulawesi Utara",SULAWESI UTARA,,Indonesia,,,,1.4622127,124.8256859,https://maps.google.com/?cid=0x0:0x83f753d1d9781005,
mall,Toko Elektronik,JABAR SERVIES ELECTRONI OBAY,"2PHF+QCX, Mundung, Kec. Tombatu Tim., Kabupaten Minahasa Tenggara, Sulawesi Utara","Kabupaten Minahasa Tenggara, Sulawesi Utara",SULAWESI UTARA,,Indonesia,85240390542.0,,,1.0294896,124.7236165,https://maps.google.com/?cid=0x0:0x84cb3586ec3363,
mall,Pusat Perbelanjaan,Betelen motor,"2MVJ+GQF, Betelan, Kec. Tombatu, Kabupaten Minahasa Tenggara, Sulawesi Utara","Kabupaten Minahasa Tenggara, Sulawesi Utara",SULAWESI UTARA,,Indonesia,82395286309.0,,,1.0438228,124.6819134,https://maps.google.com/?cid=0x0:0x23d6bc493391da79,
mall,Pusat Perbelanjaan,Pasar Tombatu,"2PGF+H75, Pasar, Esandom Satu, Kec. Tombatu, Kabupaten Minahasa Tenggara, Sulawesi Utara","Kabupaten Minahasa Tenggara, Sulawesi Utara",SULAWESI UTARA,,Indonesia,,,,1.0263909,124.7232364,https://maps.google.com/?cid=0x0:0x9e75af2e336c6fd6,
mall,mall,Kec. Tombatu Utara,"Kabupaten Minahasa Tenggara, Sulawesi Utara","Kabupaten Minahasa Tenggara, Sulawesi Utara",SULAWESI UTARA,,Indonesia,,,,1.0435986,124.6869059,https://maps.google.com/?cid=0x0:0x3786e15772770449,
mall,Pasar,Pasar Tua Tombatu,"2MVP+MCM, Tombatu Tiga, Kec. Tombatu Utara, Kabupaten Minahasa Tenggara, Sulawesi Utara","Kabupaten Minahasa Tenggara, Sulawesi Utara",SULAWESI UTARA,,Indonesia,,,,1.0442103,124.6860608,https://maps.google.com/?cid=0x0:0x8929b9a3bddf68b6,
mall,Pusat Perbelanjaan,Indomaret Tombatu Utara,"2MVP+24F, Jl. Raya Tombatu, Tombatu Tiga Tengah, Kec. Tombatu Utara, Kabupaten Minahasa Tenggara, Sulawesi Utara","Kabupaten Minahasa Tenggara, Sulawesi Utara",SULAWESI UTARA,,Indonesia,,,,1.0425512,124.6853103,https://maps.google.com/?cid=0x0:0x2176a35f94ae23cc,
mall,Pusat Perbelanjaan,Pasar Rakyat Tombatu,"2MWG+JHF, Unnamed Rd,, Betelan Satu, Minahasa Tenggara, Kabupaten Minahasa Tenggara, Sulawesi Utara","Kabupaten Minahasa Tenggara, Sulawesi Utara",SULAWESI UTARA,,Indonesia,,,,1.0465621,124.6764189,https://maps.google.com/?cid=0x0:0xd20908fe7385f467,
mall,Toko,"ARIEL COLLECTION Cab.Tombatu""","Tombatu Dua Tengah, Kec. Tombatu Utara, Kabupaten Minahasa Tenggara, Sulawesi Utara","Kabupaten Minahasa Tenggara, Sulawesi Utara",SULAWESI UTARA,,Indonesia,82398408076.0,,,1.0448543,124.6793765,https://maps.google.com/?cid=0x0:0x3d065acfea22d0b0,
mall,Kios,UD Lo'or - Amelius Manoppo,"2MWP+276, Tombatu Dua, Kec. Tombatu Utara, Kabupaten Minahasa Tenggara, Sulawesi Utara","Kabupaten Minahasa Tenggara, Sulawesi Utara",SULAWESI UTARA,,Indonesia,81356523680.0,,,1.0450437,124.685641,https://maps.google.com/?cid=0x0:0xbe7f977c5cbd3825,
mall,Toko,Toko Rama,"2MWG+GM5, Betelan Satu, Kec. Tombatu, Kabupaten Minahasa Tenggara, Sulawesi Utara","Kabupaten Minahasa Tenggara, Sulawesi Utara",SULAWESI UTARA,,Indonesia,85256512632.0,,,1.0462528,124.6767274,https://maps.google.com/?cid=0x0:0x1f08c6a05a811abd,
mall,Toko umum,Toko Ivv24,"Mundung Jalan Raya Molompar, Mundung, Kec. Tombatu Tim., Sulawesi Utara 95990","Mundung, Kec. Tombatu Tim.",SULAWESI UTARA,95990,Indonesia,895322866698.0,,,1.0269917,124.7240188,https://maps.google.com/?cid=0x0:0x63fd307c335c9cc8,
mall,Pusat Perbelanjaan,Bible Motor,"Kuyanga Satu, Kec. Tombatu Utara, Kabupaten Minahasa Tenggara, Sulawesi Utara","Kabupaten Minahasa Tenggara, Sulawesi Utara",SULAWESI UTARA,,Indonesia,85696287347.0,,,1.0355058,124.7017251,https://maps.google.com/?cid=0x0:0x8ccdd424cf002936,
mall,Toko Perlengkapan Rumah,JOEL AGAPE PELAYANAN KEDUKAAN,"Jln. Raya, Mundung, Kec. Tombatu Tim., Kabupaten Minahasa Tenggara, Sulawesi Utara","Kabupaten Minahasa Tenggara, Sulawesi Utara",SULAWESI UTARA,,Indonesia,81233338826.0,,,1.0285893,124.7218327,https://maps.google.com/?cid=0x0:0xe2177e68235ffee3,
mall,Komplek perumahan,Pusat Kota Tombatu,"2MVP+P42, Tombatu Dua, Kec. Tombatu Utara, Kabupaten Minahasa Tenggara, Sulawesi Utara","Kabupaten Minahasa Tenggara, Sulawesi Utara",SULAWESI UTARA,,Indonesia,,,,1.0441949,124.6852769,https://maps.google.com/?cid=0x0:0x873c3300a27d0e91,
mall,mall,Kios Kindshop,"2PMM+VJJ, Molompar Dua Utara, Kec. Tombatu Tim., Kabupaten Minahasa Tenggara, Sulawesi Utara","Kabupaten Minahasa Tenggara, Sulawesi Utara",SULAWESI UTARA,,Indonesia,,,,1.0347239,124.7340214,https://maps.google.com/?cid=0x0:0x88a697dac312a514,
mall,Toko,Toko Hismar,"2MVP+GCG, Tombatu Tiga Tengah, Kec. Tombatu Utara, Kabupaten Minahasa Tenggara, Sulawesi Utara","Kabupaten Minahasa Tenggara, Sulawesi Utara",SULAWESI UTARA,,Indonesia,,,,1.0438038,124.6860872,https://maps.google.com/?cid=0x0:0x639368295f3d2430,
mall,Toko umum,Fijay Manoppo,"2MVP+43J, Jl. Raya Tombatu, Tombatu Tiga Tengah, Kec. Tombatu Utara, Kabupaten Minahasa Tenggara, Sulawesi Utara","Kabupaten Minahasa Tenggara, Sulawesi Utara",SULAWESI UTARA,,Indonesia,8971514817.0,,,1.0428472,124.6851303,https://maps.google.com/?cid=0x0:0xad0e623748fa7f09,
mall,Toko,Counter Me Cell,"3M42+5H2, Lobu Satu, Kec. Touluaan, Kabupaten Minahasa Tenggara, Sulawesi Utara","Kabupaten Minahasa Tenggara, Sulawesi Utara",SULAWESI UTARA,,Indonesia,82259911100.0,,,1.0553926,124.6513797,https://maps.google.com/?cid=0x0:0x15ef996c974d7b0,
mall,Toko bahan makanan,Pt.Tahu STERIL Tenaga UAP,"2PHG+C7P, Molompar Dua Utara, Kec. Tombatu Tim., Kabupaten Minahasa Tenggara, Sulawesi Utara","Kabupaten Minahasa Tenggara, Sulawesi Utara",SULAWESI UTARA,,Indonesia,82395214546.0,,,1.0285863,124.7257065,https://maps.google.com/?cid=0x0:0xb36e6676ae8ce124,
mall,Pusat Perbelanjaan,Toko Dom's,"2PGF+WF8, Samping gereja zaitun, Mundung, Kec. Tombatu Tim., Kabupaten Minahasa Tenggara, Sulawesi Utara","Kabupaten Minahasa Tenggara, Sulawesi Utara",SULAWESI UTARA,,Indonesia,,,,1.0272853,124.7236999,https://maps.google.com/?cid=0x0:0x4503e5448c2ab579,
mall,Pembangunan Perumahan,PLAZA RATAHAN,"3R32+43J, Tosuraya Sel., Kec. Ratahan, Kabupaten Minahasa Tenggara, Sulawesi Utara","Kabupaten Minahasa Tenggara, Sulawesi Utara",SULAWESI UTARA,,Indonesia,,,,1.0528486,124.8001409,https://maps.google.com/?cid=0x0:0xc2d3ab5c2e3ae3c0,
mall,Toko Suku Cadang Motor,Acc Gerage Car,"2PFH+QX5 mitra, jln lorong pisang, Molompar Satu, Kec. Tombatu Tim., Kabupaten Minahasa Tenggara, Sulawesi Utara","Kabupaten Minahasa Tenggara, Sulawesi Utara",SULAWESI UTARA,,Indonesia,85256601994.0,,,1.02439,124.7299786,https://maps.google.com/?cid=0x0:0x3be5884ec834a18d,
mall,Toko,Kios Gamaizka,"2PM2+VJH, Kuyanga Satu, Kec. Tombatu Utara, Kabupaten Minahasa Tenggara, Sulawesi Utara","Kabupaten Minahasa Tenggara, Sulawesi Utara",SULAWESI UTARA,,Indonesia,,,,1.0353322,124.7012079,https://maps.google.com/?cid=0x0:0xf2305463d824dde6,
mall,Pusat Perbelanjaan,Betelen motor,"2MVJ+GQF, Betelan, Kec. Tombatu, Kabupaten Minahasa Tenggara, Sulawesi Utara","Kabupaten Minahasa Tenggara, Sulawesi Utara",SULAWESI UTARA,,Indonesia,82395286309.0,,,1.0438228,124.6819134,https://maps.google.com/?cid=0x0:0x23d6bc493391da79,
mall,Pusat Perbelanjaan,Pasar Tombatu,"2PGF+H75, Pasar, Esandom Satu, Kec. Tombatu, Kabupaten Minahasa Tenggara, Sulawesi Utara","Kabupaten Minahasa Tenggara, Sulawesi Utara",SULAWESI UTARA,,Indonesia,,,,1.0263909,124.7232364,https://maps.google.com/?cid=0x0:0x9e75af2e336c6fd6,
mall,mall,Kec. Touluaan,"Kabupaten Minahasa Tenggara, Sulawesi Utara","Kabupaten Minahasa Tenggara, Sulawesi Utara",SULAWESI UTARA,,Indonesia,,,,1.0561242,124.6513459,https://maps.google.com/?cid=0x0:0xb9e36ebc0d0281f7,
mall,Toko,Counter Me Cell,"3M42+5H2, Lobu Satu, Kec. Touluaan, Kabupaten Minahasa Tenggara, Sulawesi Utara","Kabupaten Minahasa Tenggara, Sulawesi Utara",SULAWESI UTARA,,Indonesia,82259911100.0,,,1.0553926,124.6513797,https://maps.google.com/?cid=0x0:0x15ef996c974d7b0,
mall,Toko Swalayan,PASAR TOULUAAN,"3M42+MX8, Lobu Kota, Kec. Touluaan, Kabupaten Minahasa Tenggara, Sulawesi Utara","Kabupaten Minahasa Tenggara, Sulawesi Utara",SULAWESI UTARA,,Indonesia,82258506153.0,,,1.0566747,124.6524466,https://maps.google.com/?cid=0x0:0xd5dccc66da7a5dc0,
mall,,Kios variasi,"3M33+8X3, Tondanouw, Kec. Touluaan, Kabupaten Minahasa Tenggara, Sulawesi Utara","Kabupaten Minahasa Tenggara, Sulawesi Utara",SULAWESI UTARA,,Indonesia,85696668825.0,,,1.0532536,124.6549091,https://maps.google.com/?cid=0x0:0xbf6ac9abbd560988,
mall,Toko,RnB Cell (Ranoketang Atas),"Jl. Amurang-Ratahan No.16, Ranoketang Atas Satu, Kec. Touluaan, Kabupaten Minahasa Tenggara, Sulawesi Utara","Kabupaten Minahasa Tenggara, Sulawesi Utara",SULAWESI UTARA,,Indonesia,85397132346.0,,,1.0515975,124.6579039,https://maps.google.com/?cid=0x0:0xc73a1c42999db9d6,
mall,Pembangunan Perumahan,PLAZA RATAHAN,"3R32+43J, Tosuraya Sel., Kec. Ratahan, Kabupaten Minahasa Tenggara, Sulawesi Utara","Kabupaten Minahasa Tenggara, Sulawesi Utara",SULAWESI UTARA,,Indonesia,,,,1.0528486,124.8001409,https://maps.google.com/?cid=0x0:0xc2d3ab5c2e3ae3c0,
mall,Pusat Perbelanjaan,Megamall Manado,"Kawasan Megamas, Kantor Pengelola Megamall, Jl. Piere Tendean, Wenang Sel., Kec. Wenang, Kota Manado, Sulawesi Utara 95234","Kantor Pengelola Megamall, Jl. Piere Tendean, Wenang Sel., Kec. Wenang, Kota Manado",SULAWESI UTARA,95234,Indonesia,431879889.0,,,1.4839687,124.8348372,https://maps.google.com/?cid=0x0:0xfcc9b9fa2283700,
mall,Pusat Perbelanjaan,Indomaret Betelen Tombatu,"Jl. Raya Tombatu, Betelan, Kec. Tombatu, Kabupaten Minahasa Tenggara, Sulawesi Utara","Kabupaten Minahasa Tenggara, Sulawesi Utara",SULAWESI UTARA,,Indonesia,,,,1.0438934,124.6815047,https://maps.google.com/?cid=0x0:0xa797504c518450a3,
mall,Toko,Konter Cheryl cell,"Jl. Amurang-Ratahan No.16, Ranoketang Atas Satu, Kec. Touluaan, Kabupaten Minahasa Tenggara, Sulawesi Utara","Kabupaten Minahasa Tenggara, Sulawesi Utara",SULAWESI UTARA,,Indonesia,81241923118.0,,,1.0520354,124.6580983,https://maps.google.com/?cid=0x0:0xbcb0c6d9070f42c5,
mall,Pusat Perbelanjaan,Pasar Rakyat Tombatu,"2MWG+JHF, Unnamed Rd,, Betelan Satu, Minahasa Tenggara, Kabupaten Minahasa Tenggara, Sulawesi Utara","Kabupaten Minahasa Tenggara, Sulawesi Utara",SULAWESI UTARA,,Indonesia,,,,1.0465621,124.6764189,https://maps.google.com/?cid=0x0:0xd20908fe7385f467,
mall,Kios,UD Lo'or - Amelius Manoppo,"2MWP+276, Tombatu Dua, Kec. Tombatu Utara, Kabupaten Minahasa Tenggara, Sulawesi Utara","Kabupaten Minahasa Tenggara, Sulawesi Utara",SULAWESI UTARA,,Indonesia,81356523680.0,,,1.0450437,124.685641,https://maps.google.com/?cid=0x0:0xbe7f977c5cbd3825,
mall,Toko,Kios/ChristianCell,"3M78+VC2, Unnamed Road, Silian Kota, Kec. Silian Raya, Kabupaten Minahasa Tenggara, Sulawesi Utara","Kabupaten Minahasa Tenggara, Sulawesi Utara",SULAWESI UTARA,,Indonesia,82346476677.0,,,1.0646399,124.6660221,https://maps.google.com/?cid=0x0:0x3347b79f74c22d7,
mall,Pusat Perbelanjaan,Indomaret Tombatu Utara,"2MVP+24F, Jl. Raya Tombatu, Tombatu Tiga Tengah, Kec. Tombatu Utara, Kabupaten Minahasa Tenggara, Sulawesi Utara","Kabupaten Minahasa Tenggara, Sulawesi Utara",SULAWESI UTARA,,Indonesia,,,,1.0425512,124.6853103,https://maps.google.com/?cid=0x0:0x2176a35f94ae23cc,
mall,Toko,Toko Rama,"2MWG+GM5, Betelan Satu, Kec. Tombatu, Kabupaten Minahasa Tenggara, Sulawesi Utara","Kabupaten Minahasa Tenggara, Sulawesi Utara",SULAWESI UTARA,,Indonesia,85256512632.0,,,1.0462528,124.6767274,https://maps.google.com/?cid=0x0:0x1f08c6a05a811abd,
mall,Pusat Perbelanjaan,Manado Town Square,"Jl. Piere Tendean, Kota Manado, Sulawesi Utara 95114",Kota Manado,SULAWESI UTARA,95114,Indonesia,,,,1.4723227,124.8319485,https://maps.google.com/?cid=0x0:0xea03227619d4f862,
mall,Toko,"ARIEL COLLECTION Cab.Tombatu""","Tombatu Dua Tengah, Kec. Tombatu Utara, Kabupaten Minahasa Tenggara, Sulawesi Utara","Kabupaten Minahasa Tenggara, Sulawesi Utara",SULAWESI UTARA,,Indonesia,82398408076.0,,,1.0448543,124.6793765,https://maps.google.com/?cid=0x0:0x3d065acfea22d0b0,
mall,Pusat Perbelanjaan,RENATA CELL,"3M56+JG7, Silian Tiga, Kec. Silian Raya, Kabupaten Minahasa Tenggara, Sulawesi Utara","Kabupaten Minahasa Tenggara, Sulawesi Utara",SULAWESI UTARA,,Indonesia,,,,1.0590364,124.6613101,https://maps.google.com/?cid=0x0:0x5fd939fed7fe446e,
mall,Pusat Perbelanjaan,Prizkila Cell/Olshop,"3M67+RJ3, Unnamed Road, Silian Dua, Kec. Silian Raya, Kabupaten Minahasa Tenggara, Sulawesi Utara","Kabupaten Minahasa Tenggara, Sulawesi Utara",SULAWESI UTARA,,Indonesia,85825168170.0,,,1.0620027,124.6640378,https://maps.google.com/?cid=0x0:0x9541380392658031,
mall,Pembangunan Perumahan,My Home,"3M89+9QF, Silian Tengah, Kec. Silian Raya, Kabupaten Minahasa Tenggara, Sulawesi Utara","Kabupaten Minahasa Tenggara, Sulawesi Utara",SULAWESI UTARA,,Indonesia,,,,1.0659951,124.6693064,https://maps.google.com/?cid=0x0:0xc7d148e69828eda3,
mall,Toko,Kios Sandra Cell,"Kalait Satu, Kec. Touluaan Sel., Kabupaten Minahasa Tenggara, Sulawesi Utara","Kabupaten Minahasa Tenggara, Sulawesi Utara",SULAWESI UTARA,,Indonesia,81340001056.0,,,1.0197046,124.5888287,https://maps.google.com/?cid=0x0:0x216bc0123301b85e,
mall,mall,Kec. Touluaan Sel.,"Kabupaten Minahasa Tenggara, Sulawesi Utara","Kabupaten Minahasa Tenggara, Sulawesi Utara",SULAWESI UTARA,,Indonesia,,,,1.0264722,124.5859669,https://maps.google.com/?cid=0x0:0xe1cb2698c83351a2,
mall,Toko,Counter Me Cell,"3M42+5H2, Lobu Satu, Kec. Touluaan, Kabupaten Minahasa Tenggara, Sulawesi Utara","Kabupaten Minahasa Tenggara, Sulawesi Utara",SULAWESI UTARA,,Indonesia,82259911100.0,,,1.0553926,124.6513797,https://maps.google.com/?cid=0x0:0x15ef996c974d7b0,
mall,Pembangunan Perumahan,PLAZA RATAHAN,"3R32+43J, Tosuraya Sel., Kec. Ratahan, Kabupaten Minahasa Tenggara, Sulawesi Utara","Kabupaten Minahasa Tenggara, Sulawesi Utara",SULAWESI UTARA,,Indonesia,,,,1.0528486,124.8001409,https://maps.google.com/?cid=0x0:0xc2d3ab5c2e3ae3c0,
mall,Pusat Perbelanjaan,Gallery Olshop Moncha | MonchaSHOP,"Jl. Amurang-Ratahan No.16, Ranoketang Atas Satu, Kec. Touluaan, Kabupaten Minahasa Tenggara, Sulawesi Utara","Kabupaten Minahasa Tenggara, Sulawesi Utara",SULAWESI UTARA,,Indonesia,82188727676.0,,,1.0510636,124.6558397,https://maps.google.com/?cid=0x0:0x21c8f3b37a9189e4,
mall,Pusat Perbelanjaan,Megamall Manado,"Kawasan Megamas, Kantor Pengelola Megamall, Jl. Piere Tendean, Wenang Sel., Kec. Wenang, Kota Manado, Sulawesi Utara 95234","Kantor Pengelola Megamall, Jl. Piere Tendean, Wenang Sel., Kec. Wenang, Kota Manado",SULAWESI UTARA,95234,Indonesia,431879889.0,,,1.4839687,124.8348372,https://maps.google.com/?cid=0x0:0xfcc9b9fa2283700,
mall,Pusat Perbelanjaan,Manado Town Square,"Jl. Piere Tendean, Kota Manado, Sulawesi Utara 95114",Kota Manado,SULAWESI UTARA,95114,Indonesia,,,,1.4723227,124.8319485,https://maps.google.com/?cid=0x0:0xea03227619d4f862,
mall,,Kios variasi,"3M33+8X3, Tondanouw, Kec. Touluaan, Kabupaten Minahasa Tenggara, Sulawesi Utara","Kabupaten Minahasa Tenggara, Sulawesi Utara",SULAWESI UTARA,,Indonesia,85696668825.0,,,1.0532536,124.6549091,https://maps.google.com/?cid=0x0:0xbf6ac9abbd560988,
mall,Pusat Perbelanjaan,Pasar Rakyat Tombatu,"2MWG+JHF, Unnamed Rd,, Betelan Satu, Minahasa Tenggara, Kabupaten Minahasa Tenggara, Sulawesi Utara","Kabupaten Minahasa Tenggara, Sulawesi Utara",SULAWESI UTARA,,Indonesia,,,,1.0465621,124.6764189,https://maps.google.com/?cid=0x0:0xd20908fe7385f467,
mall,Kios,UD Lo'or - Amelius Manoppo,"2MWP+276, Tombatu Dua, Kec. Tombatu Utara, Kabupaten Minahasa Tenggara, Sulawesi Utara","Kabupaten Minahasa Tenggara, Sulawesi Utara",SULAWESI UTARA,,Indonesia,81356523680.0,,,1.0450437,124.685641,https://maps.google.com/?cid=0x0:0xbe7f977c5cbd3825,
mall,Toko,RnB Cell (Ranoketang Atas),"Jl. Amurang-Ratahan No.16, Ranoketang Atas Satu, Kec. Touluaan, Kabupaten Minahasa Tenggara, Sulawesi Utara","Kabupaten Minahasa Tenggara, Sulawesi Utara",SULAWESI UTARA,,Indonesia,85397132346.0,,,1.0515975,124.6579039,https://maps.google.com/?cid=0x0:0xc73a1c42999db9d6,
mall,Pusat Perbelanjaan,"Warung Ci Meylan Aping""""","3GVG+4JR, Karimbow Talikuran, Kec. Motoling Tim., Kabupaten Minahasa Selatan, Sulawesi Utara","Kabupaten Minahasa Selatan, Sulawesi Utara",SULAWESI UTARA,,Indonesia,81242073730.0,,,1.0928665,124.526529,https://maps.google.com/?cid=0x0:0x83b050f60f2e43a4,
mall,Toko umum,Anugrah tendean,"2G4V+3XW, Powalutan, Kec. Ranoyapo, Kabupaten Minahasa Selatan, Sulawesi Utara","Kabupaten Minahasa Selatan, Sulawesi Utara",SULAWESI UTARA,,Indonesia,,,,1.004372,124.544596,https://maps.google.com/?cid=0x0:0x55888a30d1b3a7f7,
mall,Toko,"ARIEL COLLECTION Cab.Tombatu""","Tombatu Dua Tengah, Kec. Tombatu Utara, Kabupaten Minahasa Tenggara, Sulawesi Utara","Kabupaten Minahasa Tenggara, Sulawesi Utara",SULAWESI UTARA,,Indonesia,82398408076.0,,,1.0448543,124.6793765,https://maps.google.com/?cid=0x0:0x3d065acfea22d0b0,
mall,Pembangunan Perumahan,Bahu Mall,"FR6G+W4J, Bahu Mall, R.W., Jl. Wolter Monginsidi, Bahu, Malalayang, Manado City, North Sulawesi","Kota Manado, Sulawesi Utara",SULAWESI UTARA,,Indonesia,1500125.0,,,1.4623338,124.8252763,https://maps.google.com/?cid=0x0:0x75b15af9becce842,
mall,Pusat Perbelanjaan,Chylan  Christiany,"2GP7+RG7, Jl. Jaga 4, Picuan, Kec. Motoling Tim., Kabupaten Minahasa Selatan, Sulawesi Utara","Kabupaten Minahasa Selatan, Sulawesi Utara",SULAWESI UTARA,,Indonesia,85256433227.0,,,1.03703,124.5138079,https://maps.google.com/?cid=0x0:0x9db8b6480801e4e,
mall,Pusat Perbelanjaan,Indomaret Tombatu Utara,"2MVP+24F, Jl. Raya Tombatu, Tombatu Tiga Tengah, Kec. Tombatu Utara, Kabupaten Minahasa Tenggara, Sulawesi Utara","Kabupaten Minahasa Tenggara, Sulawesi Utara",SULAWESI UTARA,,Indonesia,,,,1.0425512,124.6853103,https://maps.google.com/?cid=0x0:0x2176a35f94ae23cc,
mall,Pusat Perbelanjaan,Indomaret Betelen Tombatu,"Jl. Raya Tombatu, Betelan, Kec. Tombatu, Kabupaten Minahasa Tenggara, Sulawesi Utara","Kabupaten Minahasa Tenggara, Sulawesi Utara",SULAWESI UTARA,,Indonesia,,,,1.0438934,124.6815047,https://maps.google.com/?cid=0x0:0xa797504c518450a3,
mall,Toko,Toko Rama,"2MWG+GM5, Betelan Satu, Kec. Tombatu, Kabupaten Minahasa Tenggara, Sulawesi Utara","Kabupaten Minahasa Tenggara, Sulawesi Utara",SULAWESI UTARA,,Indonesia,85256512632.0,,,1.0462528,124.6767274,https://maps.google.com/?cid=0x0:0x1f08c6a05a811abd,
mall,Toko,Kios/ChristianCell,"3M78+VC2, Unnamed Road, Silian Kota, Kec. Silian Raya, Kabupaten Minahasa Tenggara, Sulawesi Utara","Kabupaten Minahasa Tenggara, Sulawesi Utara",SULAWESI UTARA,,Indonesia,82346476677.0,,,1.0646399,124.6660221,https://maps.google.com/?cid=0x0:0x3347b79f74c22d7,
mall,Toko Swalayan,PASAR TOULUAAN,"3M42+MX8, Lobu Kota, Kec. Touluaan, Kabupaten Minahasa Tenggara, Sulawesi Utara","Kabupaten Minahasa Tenggara, Sulawesi Utara",SULAWESI UTARA,,Indonesia,82258506153.0,,,1.0566747,124.6524466,https://maps.google.com/?cid=0x0:0xd5dccc66da7a5dc0,
mall,Toko umum,Kios CintaZackly,"XGX2+7PC, Pontak Satu, Kec. Ranoyapo, Kabupaten Minahasa Selatan, Sulawesi Utara","Kabupaten Minahasa Selatan, Sulawesi Utara",SULAWESI UTARA,,Indonesia,,,,0.9981928,124.5017591,https://maps.google.com/?cid=0x0:0xc170d3278dedf9a3,
mall,Kios,KIOS DUA PUTRI TABSEL,"XQ8X+3R6, Tababo Sel., Kec. Belang, Kabupaten Minahasa Tenggara, Sulawesi Utara 95997","Tababo Sel., Kec. Belang, Kabupaten Minahasa Tenggara",SULAWESI UTARA,95997,Indonesia,,,,0.965153,124.7995179,https://maps.google.com/?cid=0x0:0x21709c9fbca7014c,
mall,Toko,Konter Cheryl cell,"Jl. Amurang-Ratahan No.16, Ranoketang Atas Satu, Kec. Touluaan, Kabupaten Minahasa Tenggara, Sulawesi Utara","Kabupaten Minahasa Tenggara, Sulawesi Utara",SULAWESI UTARA,,Indonesia,81241923118.0,,,1.0520354,124.6580983,https://maps.google.com/?cid=0x0:0xbcb0c6d9070f42c5,
supermarket,Toko bahan makanan,Alfamidi BELANG,"WQVQ+R68, Buku Tenggara, Kec. Belang, Kabupaten Minahasa Tenggara, Sulawesi Utara 95997","Buku Tenggara, Kec. Belang, Kabupaten Minahasa Tenggara",SULAWESI UTARA,95997,Indonesia,,,,0.9445458,124.7880798,https://maps.google.com/?cid=0x0:0x858f41a98acb69fb,
supermarket,Pembangunan Perumahan,Pasar Belang,"WQRP+M68, Kec. Belang, Kabupaten Minahasa Tenggara, Sulawesi Utara","Kabupaten Minahasa Tenggara, Sulawesi Utara",SULAWESI UTARA,,Indonesia,,,,0.9416541,124.7855775,https://maps.google.com/?cid=0x0:0xaa653747d8978ad7,
supermarket,Toserba,Rambla Super Departement Store,"Jl. Boulevard Raya No.19, RT.13/RW.18, Klp. Gading Tim., Kec. Klp. Gading, Jkt Utara, Daerah Khusus Ibukota Jakarta 14240","RT.13/RW.18, Klp. Gading Tim., Kec. Klp. Gading, Jkt Utara",SULAWESI UTARA,14240,Indonesia,81908192582.0,,,-6.158576,106.907394,https://maps.google.com/?cid=0x0:0x9bc0c4ec24d3878f,
supermarket,Toko Swalayan,Alfamart Buku Utara,"WQXR+CJX, Buku Tenggara, Kec. Belang, Kabupaten Minahasa Tenggara, Sulawesi Utara 95997","Buku Tenggara, Kec. Belang, Kabupaten Minahasa Tenggara",SULAWESI UTARA,95997,Indonesia,,,,0.9486087,124.7916037,https://maps.google.com/?cid=0x0:0xdbc801cfda932e47,
supermarket,Toserba,STAR Department Store - Summarecon Mall Bekasi,"Sumarecon Mal Bks, Summarecon Mall Bekasi, Jl. Bulevar Ahmad Yani, RT.006/RW.002, Marga Mulya, Kec. Bekasi Utara, Kota Bks, Jawa Barat 17142","Summarecon Mall Bekasi, Jl. Bulevar Ahmad Yani, RT.006/RW.002, Marga Mulya, Kec. Bekasi Utara, Kota Bks",SULAWESI UTARA,17142,Indonesia,2129572388.0,,,-6.2257825,107.0016338,https://maps.google.com/?cid=0x0:0x6534b7f6e7d74422,
supermarket,Pasar,Pasar Liwutung,"2PCV+VG5, Tolombukan, Kec. Pasan, Kabupaten Minahasa Tenggara, Sulawesi Utara","Kabupaten Minahasa Tenggara, Sulawesi Utara",SULAWESI UTARA,,Indonesia,,,,1.022145,124.743861,https://maps.google.com/?cid=0x0:0x1784b8585a387b11,
supermarket,Toko Swalayan,FRE-NDA,"jaga 1, Tolombukan, Kec. Ratahan, Kabupaten Minahasa Tenggara, Sulawesi Utara 95995","Tolombukan, Kec. Ratahan, Kabupaten Minahasa Tenggara",SULAWESI UTARA,95995,Indonesia,,,,1.023911,124.743447,https://maps.google.com/?cid=0x0:0x53ebb4e1f9bdceeb,
supermarket,Grosir perlengkapan rumah tangga,toko happy,"jembatan lima no 195 rt3, RT.3/RW.2, Jemb. Lima, Kec. Tambora, Kota Jakarta Barat, Daerah Khusus Ibukota Jakarta 11250","RT.3/RW.2, Jemb. Lima, Kec. Tambora, Kota Jakarta Barat",SULAWESI UTARA,11250,Indonesia,216338777.0,,,-6.1438208,106.8067387,https://maps.google.com/?cid=0x0:0x3e310df8864a3be9,
supermarket,Pasar,Pasar Liwutung,"2PCV+VG5, Tolombukan, Kec. Pasan, Kabupaten Minahasa Tenggara, Sulawesi Utara","Kabupaten Minahasa Tenggara, Sulawesi Utara",SULAWESI UTARA,,Indonesia,,,,1.022145,124.743861,https://maps.google.com/?cid=0x0:0x1784b8585a387b11,
supermarket,supermarket,Kec. Pasan,"Kabupaten Minahasa Tenggara, Sulawesi Utara","Kabupaten Minahasa Tenggara, Sulawesi Utara",SULAWESI UTARA,,Indonesia,,,,1.022748,124.7482665,https://maps.google.com/?cid=0x0:0xcf32b53a07d5d0fc,
supermarket,Supermarket Industri,Toko Armando,"Towuntu Bar., Kec. Pasan, Kabupaten Minahasa Tenggara, Sulawesi Utara","Kabupaten Minahasa Tenggara, Sulawesi Utara",SULAWESI UTARA,,Indonesia,82191352095.0,,,1.0232428,124.747888,https://maps.google.com/?cid=0x0:0x6738a230ca1b2847,
supermarket,Toko Swalayan,ALFAMIDI LIWUTUNG,"2PCV+MWC, Jl. Amurang-Ratahan, Tolombukan, Kec. Ratahan, Kabupaten Minahasa Tenggara, Sulawesi Utara","Kabupaten Minahasa Tenggara, Sulawesi Utara",SULAWESI UTARA,,Indonesia,82323660041.0,,,1.0216903,124.7447526,https://maps.google.com/?cid=0x0:0xfa4f25ae00240cd,
supermarket,Toko Swalayan,FRE-NDA,"jaga 1, Tolombukan, Kec. Ratahan, Kabupaten Minahasa Tenggara, Sulawesi Utara 95995","Tolombukan, Kec. Ratahan, Kabupaten Minahasa Tenggara",SULAWESI UTARA,95995,Indonesia,,,,1.023911,124.743447,https://maps.google.com/?cid=0x0:0x53ebb4e1f9bdceeb,
supermarket,Toko bahan makanan,Warung sembako,"Towuntu, Kec. Pasan, Kabupaten Minahasa Tenggara, Sulawesi Utara 93993","Kec. Pasan, Kabupaten Minahasa Tenggara",SULAWESI UTARA,93993,Indonesia,82285115585.0,,,1.0233703,124.750287,https://maps.google.com/?cid=0x0:0x2ee2177583b5df4f,
supermarket,Toko Swalayan,Waroeng Yan,"3Q2X+QPV, Tosuraya Sel., Kec. Ratahan, Kabupaten Minahasa Tenggara, Sulawesi Utara","Kabupaten Minahasa Tenggara, Sulawesi Utara",SULAWESI UTARA,,Indonesia,,,,1.0519988,124.7993023,https://maps.google.com/?cid=0x0:0xe9f410fa49060686,
supermarket,Toko Swalayan,Ranch Market Kemang,"Jl. Kemang Raya No.66 68, RT.8/RW.2, Bangka, Mampang Prapatan, South Jakarta City, Jakarta 12730","RT.8/RW.2, Bangka, Mampang Prapatan, South Jakarta City",SULAWESI UTARA,12730,Indonesia,81382217182.0,,,-6.2641983,106.8159772,https://maps.google.com/?cid=0x0:0x8a811b9772a51004,
supermarket,Toko Swalayan,Ranch Market Pesanggrahan,"1, Jl. Pesanggrahan No.2, Kembangan Sel., Kec. Kembangan, Kota Jakarta Barat, Daerah Khusus Ibukota Jakarta 11610","Jl. Pesanggrahan No.2, Kembangan Sel., Kec. Kembangan, Kota Jakarta Barat",SULAWESI UTARA,11610,Indonesia,2158304842.0,,,-6.1883181,106.7561831,https://maps.google.com/?cid=0x0:0x59972408c2ef6a6e,
supermarket,Pusat Perbelanjaan,Pasarina by Ranch Market,"Mall Sarinah, Jl. M.H. Thamrin No.11 Lantai Dasar, Kota Jakarta Pusat, Daerah Khusus Ibukota Jakarta 10350","Jl. M.H. Thamrin No.11 Lantai Dasar, Kota Jakarta Pusat",SULAWESI UTARA,10350,Indonesia,,,,-6.1876584,106.8243519,https://maps.google.com/?cid=0x0:0x506bfb552a5cedbb,
supermarket,Toko Swalayan,The Foodhall Gourmet,"Jl. M.H. Thamrin No.28-30, RT.9/RW.5, Gondangdia, Kec. Menteng, Kota Jakarta Pusat, Daerah Khusus Ibukota Jakarta 10350","RT.9/RW.5, Gondangdia, Kec. Menteng, Kota Jakarta Pusat",SULAWESI UTARA,10350,Indonesia,213107555.0,,,-6.1935362,106.8221665,https://maps.google.com/?cid=0x0:0x311eac3e0d9f35b7,
supermarket,Toserba,RAMAYANA Robinson Pasar Minggu,"Pejaten timur, Jl. KH. Guru Amin No.1, RT.2/RW.1, Ps. Minggu, Kota Jakarta Selatan, Daerah Khusus Ibukota Jakarta 12520","Jl. KH. Guru Amin No.1, RT.2/RW.1, Ps. Minggu, Kota Jakarta Selatan",SULAWESI UTARA,12520,Indonesia,2178838703.0,,,-6.2849742,106.8438386,https://maps.google.com/?cid=0x0:0x31906090ae0733cb,
supermarket,Apotek,Alexa,"Pasar Minggu Blok D - LDO AKS No. 30, Jl. KH. Guru Amin, RT.2/RW.1, Ps. Minggu, Kota Jakarta Selatan, Daerah Khusus Ibukota Jakarta 12520","Jl. KH. Guru Amin, RT.2/RW.1, Ps. Minggu, Kota Jakarta Selatan",SULAWESI UTARA,12520,Indonesia,217807193.0,,,-6.2844031,106.8432312,https://maps.google.com/?cid=0x0:0x1822d0c46eee24f,
supermarket,Pusat Perbelanjaan,Ramayana Pasar Minggu,"Jl. Raya Ragunan No.113 1, RT.1/RW.2, Ps. Minggu, Kota Jakarta Selatan, Daerah Khusus Ibukota Jakarta 12520","RT.1/RW.2, Ps. Minggu, Kota Jakarta Selatan",SULAWESI UTARA,12520,Indonesia,217822774.0,,,-6.2852367,106.841061,https://maps.google.com/?cid=0x0:0x14e8aead68de48ca,
supermarket,Toko Swalayan,Loka Supermarket Cibubur,"Jl. Alternatif Cibubur No.3, Harjamukti, Kec. Cimanggis, Bekasi, Jawa Barat 16454","Harjamukti, Kec. Cimanggis, Bekasi",SULAWESI UTARA,16454,Indonesia,2121284712.0,,,-6.3754734,106.9064335,https://maps.google.com/?cid=0x0:0x3da04bb50caaaf10,
supermarket,Kantor Perusahaan,Sarinah,"Jl. M.H. Thamrin No.11, RT.8/RW.4, Gondangdia, Kec. Menteng, Kota Jakarta Pusat, Daerah Khusus Ibukota Jakarta 10350","RT.8/RW.4, Gondangdia, Kec. Menteng, Kota Jakarta Pusat",SULAWESI UTARA,10350,Indonesia,2131923008.0,,,-6.1877521,106.8235864,https://maps.google.com/?cid=0x0:0x3cac8e963b2e37f7,
supermarket,supermarket,Pusomaen,"Kabupaten Minahasa Tenggara, Sulawesi Utara","Kabupaten Minahasa Tenggara, Sulawesi Utara",SULAWESI UTARA,,Indonesia,,,,1.0023906,124.8734523,https://maps.google.com/?cid=0x0:0x51e2c80582c52819,
supermarket,Toko bahan makanan,Kios Bucek,"3VGG+34R, Unnamed Road, Atep, Kec. Langowan Sel., Kabupaten Minahasa, Sulawesi Utara","Kabupaten Minahasa, Sulawesi Utara",SULAWESI UTARA,,Indonesia,82366688778.0,,,1.0752482,124.8752554,https://maps.google.com/?cid=0x0:0xe587d3c644fa77d6,
supermarket,Minimarket,INDOMARET PUSOMAEN,"XVP9+83F, Makalu, Pusomaen, Kabupaten Minahasa Tenggara, Sulawesi Utara 95997","Makalu, Pusomaen, Kabupaten Minahasa Tenggara",SULAWESI UTARA,95997,Indonesia,,,,0.985811,124.8676651,https://maps.google.com/?cid=0x0:0xb1d2ab66563e47ad,
supermarket,Toko Swalayan,Waroeng Yan,"3Q2X+QPV, Tosuraya Sel., Kec. Ratahan, Kabupaten Minahasa Tenggara, Sulawesi Utara","Kabupaten Minahasa Tenggara, Sulawesi Utara",SULAWESI UTARA,,Indonesia,,,,1.0519988,124.7993023,https://maps.google.com/?cid=0x0:0xe9f410fa49060686,
supermarket,Kios,SAFIYYAH CELL,"XR59+PW9, Molompar Utara, Kec. Belang, Kabupaten Minahasa Tenggara, Sulawesi Utara","Kabupaten Minahasa Tenggara, Sulawesi Utara",SULAWESI UTARA,,Indonesia,85696747934.0,,,0.9593077,124.8199225,https://maps.google.com/?cid=0x0:0x64da984c7b425e17,
supermarket,Toko bahan makanan,Alfamidi BELANG,"WQVQ+R68, Buku Tenggara, Kec. Belang, Kabupaten Minahasa Tenggara, Sulawesi Utara 95997","Buku Tenggara, Kec. Belang, Kabupaten Minahasa Tenggara",SULAWESI UTARA,95997,Indonesia,,,,0.9445458,124.7880798,https://maps.google.com/?cid=0x0:0x858f41a98acb69fb,
supermarket,Toko Swalayan,Alfamidi Lowu,"Jl. SD GMIM Jalan, Lowu Dua, Kec. Ratahan, Kabupaten Minahasa Tenggara, Sulawesi Utara","Kabupaten Minahasa Tenggara, Sulawesi Utara",SULAWESI UTARA,,Indonesia,1500959.0,,,1.0577247,124.8051002,https://maps.google.com/?cid=0x0:0x108788c40a9aee52,
supermarket,Toko grosir,Toko Berkat Anugerah,"XRGX+MX4, Minanga Tim., Pusomaen, Kabupaten Minahasa Tenggara, Sulawesi Utara 95997","Minanga Tim., Pusomaen, Kabupaten Minahasa Tenggara",SULAWESI UTARA,95997,Indonesia,,,,0.9765138,124.8499944,https://maps.google.com/?cid=0x0:0x8772452c7ab6d169,
supermarket,Kios,Kios Cemara,"Bentenan Satu, Pusomaen, Kabupaten Minahasa Tenggara, Sulawesi Utara 95997","Pusomaen, Kabupaten Minahasa Tenggara",SULAWESI UTARA,95997,Indonesia,81339488060.0,,,1.0067136,124.8955945,https://maps.google.com/?cid=0x0:0x64d78545a0aff9c,
supermarket,Toko bahan makanan,Warung Kios Jendry,"XVF2+PGG, Minanga Satu, Pusomaen, Kabupaten Minahasa Tenggara, Sulawesi Utara 95997","Minanga Satu, Pusomaen, Kabupaten Minahasa Tenggara",SULAWESI UTARA,95997,Indonesia,85240079936.0,,,0.9743042,124.8513138,https://maps.google.com/?cid=0x0:0x1a4181f868e028b3,
supermarket,Toko bahan makanan,Kios Gracia,"XRGX+2QP, Minanga Dua, Pusomaen, Kabupaten Minahasa Tenggara, Sulawesi Utara 95997","Minanga Dua, Pusomaen, Kabupaten Minahasa Tenggara",SULAWESI UTARA,95997,Indonesia,,,,0.974992,124.8500919,https://maps.google.com/?cid=0x0:0xe034f17819275d31,
supermarket,Toko,Toko Novia,"XRHX+CRJ, Minanga Tim., Pusomaen, Kabupaten Minahasa Tenggara, Sulawesi Utara 95997","Minanga Tim., Pusomaen, Kabupaten Minahasa Tenggara",SULAWESI UTARA,95997,Indonesia,,,,0.9786908,124.8494851,https://maps.google.com/?cid=0x0:0x8416594b2e62bbb2,
supermarket,Toko umum,Toko Aisyah,"XR8F+XGR Toko Aisyah, Molompar Utara, Kec. Belang, Kabupaten Minahasa Tenggara, Sulawesi Utara 95997","Molompar Utara, Kec. Belang, Kabupaten Minahasa Tenggara",SULAWESI UTARA,95997,Indonesia,82189972791.0,,,0.9674909,124.8237803,https://maps.google.com/?cid=0x0:0x4c83988206313b3a,
supermarket,Toko,Kios Matthew,"XR8F+XGR, Molompar Utara, Kec. Belang, Kabupaten Minahasa Tenggara, Sulawesi Utara 95997","Molompar Utara, Kec. Belang, Kabupaten Minahasa Tenggara",SULAWESI UTARA,95997,Indonesia,81340002601.0,,,0.9674909,124.8237803,https://maps.google.com/?cid=0x0:0x8a539ecd711debc9,
supermarket,Kios,Kios ELREAL,"XR65+XJF, Watuliney, Kec. Belang, Kabupaten Minahasa Tenggara, Sulawesi Utara 95997","Watuliney, Kec. Belang, Kabupaten Minahasa Tenggara",SULAWESI UTARA,95997,Indonesia,,,,0.9624384,124.8090524,https://maps.google.com/?cid=0x0:0xe74e1918ad4c3745,
supermarket,Toko bahan makanan,Rizky Dn Mamud,"3VGG+F57, Unnamed Road, Atep, Kec. Langowan Sel., Kabupaten Minahasa, Sulawesi Utara","Kabupaten Minahasa, Sulawesi Utara",SULAWESI UTARA,,Indonesia,81244563223.0,,,1.0761632,124.8754127,https://maps.google.com/?cid=0x0:0x47393fdcf8baddea,
supermarket,Pembangunan Perumahan,Pasar Belang,"WQRP+M68, Kec. Belang, Kabupaten Minahasa Tenggara, Sulawesi Utara","Kabupaten Minahasa Tenggara, Sulawesi Utara",SULAWESI UTARA,,Indonesia,,,,0.9416541,124.7855775,https://maps.google.com/?cid=0x0:0xaa653747d8978ad7,
supermarket,Toko Swalayan,Alfamart Buku Utara,"WQXR+CJX, Buku Tenggara, Kec. Belang, Kabupaten Minahasa Tenggara, Sulawesi Utara 95997","Buku Tenggara, Kec. Belang, Kabupaten Minahasa Tenggara",SULAWESI UTARA,95997,Indonesia,,,,0.9486087,124.7916037,https://maps.google.com/?cid=0x0:0xdbc801cfda932e47,
supermarket,Toko,Depot air Raco-Sengka,"2QWX+295, Jl. Langi, Wawali Pasan, Kec. Ratahan, Kabupaten Minahasa Tenggara, Sulawesi Utara","Kabupaten Minahasa Tenggara, Sulawesi Utara",SULAWESI UTARA,,Indonesia,,,,1.0450236,124.7984825,https://maps.google.com/?cid=0x0:0xa0c58bc92ca2fd47,
supermarket,Toko umum,Depot Kai,"XR66+9R6, Jaga 2, Watuliney Indah, Belang, Southeast Minahasa Regency, North Sulawesi 95997","Jaga 2, Watuliney Indah, Belang, Southeast Minahasa Regency",SULAWESI UTARA,95997,Indonesia,,,,0.960909,124.8120002,https://maps.google.com/?cid=0x0:0x85cfa6c5d9642f6e,
supermarket,Toko Swalayan,Waroeng Yan,"3Q2X+QPV, Tosuraya Sel., Kec. Ratahan, Kabupaten Minahasa Tenggara, Sulawesi Utara","Kabupaten Minahasa Tenggara, Sulawesi Utara",SULAWESI UTARA,,Indonesia,,,,1.0519988,124.7993023,https://maps.google.com/?cid=0x0:0xe9f410fa49060686,
supermarket,supermarket,Ratahan,"Tosuraya, Kec. Ratahan, Kabupaten Minahasa Tenggara, Sulawesi Utara","Kabupaten Minahasa Tenggara, Sulawesi Utara",SULAWESI UTARA,,Indonesia,,,,1.052761,124.802101,https://maps.google.com/?cid=0x0:0x7c6adb8240ffb5d8,
supermarket,Minimarket,Indomaret Plaza Ratahan,"3R32+43P, Tosuraya Bar., Kec. Ratahan, Kabupaten Minahasa Tenggara, Sulawesi Utara 95695","Tosuraya Bar., Kec. Ratahan, Kabupaten Minahasa Tenggara",SULAWESI UTARA,95695,Indonesia,,,,1.0528263,124.8001942,https://maps.google.com/?cid=0x0:0x6f22da70e98e794f,
supermarket,Pusat Perbelanjaan,Pasar Rakyat Ratahan,"3R32+C28, Tosuraya, Kec. Ratahan, Kabupaten Minahasa Tenggara, Sulawesi Utara","Kabupaten Minahasa Tenggara, Sulawesi Utara",SULAWESI UTARA,,Indonesia,,,,1.0535432,124.8000805,https://maps.google.com/?cid=0x0:0x79e14070849b7bab,
supermarket,Toko Swalayan,Alfamidi Lowu,"Jl. SD GMIM Jalan, Lowu Dua, Kec. Ratahan, Kabupaten Minahasa Tenggara, Sulawesi Utara","Kabupaten Minahasa Tenggara, Sulawesi Utara",SULAWESI UTARA,,Indonesia,1500959.0,,,1.0577247,124.8051002,https://maps.google.com/?cid=0x0:0x108788c40a9aee52,
supermarket,Toko bahan makanan,Alfamart Ratahan Mitra,"2QVX+497, Wawali Pasan, Kec. Ratahan, Kabupaten Minahasa Tenggara, Sulawesi Utara","Kabupaten Minahasa Tenggara, Sulawesi Utara",SULAWESI UTARA,,Indonesia,,,,1.04279,124.7984348,https://maps.google.com/?cid=0x0:0x5e1fdf551df6414e,
supermarket,Toko Swalayan,FRE-NDA,"jaga 1, Tolombukan, Kec. Ratahan, Kabupaten Minahasa Tenggara, Sulawesi Utara 95995","Tolombukan, Kec. Ratahan, Kabupaten Minahasa Tenggara",SULAWESI UTARA,95995,Indonesia,,,,1.023911,124.743447,https://maps.google.com/?cid=0x0:0x53ebb4e1f9bdceeb,
supermarket,Toko,Toko Berkat (grosir sembako),"Tosuraya Sel., Kec. Ratahan, Kabupaten Minahasa Tenggara, Sulawesi Utara","Kabupaten Minahasa Tenggara, Sulawesi Utara",SULAWESI UTARA,,Indonesia,,,,1.0524056,124.8002618,https://maps.google.com/?cid=0x0:0x1f8938ef2a0bd462,
supermarket,Minimarket,Alfamart Plaza Ratahan,"3Q3X+5XF Link.2, Plaza, Tosuraya Barat, Tosuraya, Kec. Ratahan, Kabupaten Minahasa Tenggara, Sulawesi Utara","Kabupaten Minahasa Tenggara, Sulawesi Utara",SULAWESI UTARA,,Indonesia,,,,1.05295,124.7999288,https://maps.google.com/?cid=0x0:0x51c3a6965efc0e96,
supermarket,Minimarket,"Alfamidi Wawali, Ratahan","2RX2+C4Q, Wawali, Kec. Ratahan, Kabupaten Minahasa Tenggara, Sulawesi Utara","Kabupaten Minahasa Tenggara, Sulawesi Utara",SULAWESI UTARA,,Indonesia,82323660065.0,,,1.0485994,124.8003567,https://maps.google.com/?cid=0x0:0x59d70a41dc28d1ef,
supermarket,Toko Swalayan,Warung Diva,"Jl. Thomas, Lingkungan 3, Tosuraya Sel., Kec. Ratahan, Kabupaten Minahasa Tenggara, Sulawesi Utara 95696","Lingkungan 3, Tosuraya Sel., Kec. Ratahan, Kabupaten Minahasa Tenggara",SULAWESI UTARA,95696,Indonesia,85757069774.0,,,1.0509538,124.7996707,https://maps.google.com/?cid=0x0:0xcf0bee97d767286c,
supermarket,Toko Swalayan,Multimart Ranotana,"Jl. Stadion Klabat, Ranotana, Kec. Sario, Kota Manado, Sulawesi Utara 95114","Ranotana, Kec. Sario, Kota Manado",SULAWESI UTARA,95114,Indonesia,,,,1.4593079,124.837613,https://maps.google.com/?cid=0x0:0x92248971a0c4fc9a,
supermarket,Toko,Toko Sean,"Jl. Ratahan - Langowan No.16, RW.lingk. 4, Nataan, Kec. Ratahan, Kabupaten Minahasa Tenggara, Sulawesi Utara","Kabupaten Minahasa Tenggara, Sulawesi Utara",SULAWESI UTARA,,Indonesia,,,,1.0612294,124.8064361,https://maps.google.com/?cid=0x0:0x93a8d1bcc9e79d2b,
supermarket,Toko bahan makanan,"Alfamart Ratahan, Nataan","3R74+VRJ, Nataan, Kec. Ratahan, Kabupaten Minahasa Tenggara, Sulawesi Utara","Kabupaten Minahasa Tenggara, Sulawesi Utara",SULAWESI UTARA,,Indonesia,,,,1.0647061,124.8070221,https://maps.google.com/?cid=0x0:0x9d3545e8a452340e,
supermarket,Toko bahan makanan,Indomaret Lowu Satu,"3R53+6RF, Jl. Manimporok, Lowu Satu, Kec. Ratahan, Kabupaten Minahasa Tenggara, Sulawesi Utara","Kabupaten Minahasa Tenggara, Sulawesi Utara",SULAWESI UTARA,,Indonesia,,,,1.0580609,124.804547,https://maps.google.com/?cid=0x0:0x1df658da577748ac,
supermarket,Toko bahan makanan,Indomaret Raya Noongan,"4RG4+4X5, Jl. Raya Langowan - Ratahan, Pangu Satu, Kec. Ratahan Tim., Kabupaten Minahasa Tenggara, Sulawesi Utara","Kabupaten Minahasa Tenggara, Sulawesi Utara",SULAWESI UTARA,,Indonesia,,,,1.1252509,124.8074691,https://maps.google.com/?cid=0x0:0x45fe60c09e309a1,
supermarket,Toko,Toko Sembako Ekeng,"3R84+7WR, Nataan, Kec. Ratahan, Kabupaten Minahasa Tenggara, Sulawesi Utara","Kabupaten Minahasa Tenggara, Sulawesi Utara",SULAWESI UTARA,,Indonesia,,,,1.0657418,124.8072648,https://maps.google.com/?cid=0x0:0x10c23ad55f9c54ec,
supermarket,ATM,Bank Sulut Ratahan,"Tosuraya, Kec. Ratahan, Kabupaten Minahasa Tenggara, Sulawesi Utara","Kabupaten Minahasa Tenggara, Sulawesi Utara",SULAWESI UTARA,,Indonesia,4313174518.0,,,1.0543292,124.8011733,https://maps.google.com/?cid=0x0:0xe01cf6ba28971158,
supermarket,Minimarket,Toko Ricardo,"3R53+GQ3, Lingkungan 4, Lowu Satu, Kec. Ratahan, Kabupaten Minahasa Tenggara, Sulawesi Utara","Kabupaten Minahasa Tenggara, Sulawesi Utara",SULAWESI UTARA,,Indonesia,,,,1.0587709,124.80443,https://maps.google.com/?cid=0x0:0xe6b0c2e440e837a0,
supermarket,Toko umum,Milea Collection 3,"Lingk 2, Lowu Satu, Kec. Ratahan, Kabupaten Minahasa Tenggara, Sulawesi Utara","Kabupaten Minahasa Tenggara, Sulawesi Utara",SULAWESI UTARA,,Indonesia,89697829508.0,,,1.0578216,124.8032042,https://maps.google.com/?cid=0x0:0xc45e88821e669f60,
supermarket,Toko bahan makanan,"Warung FAROBI""""","3RR8+J9R, Pangu Dua, Kec. Ratahan Tim., Kabupaten Minahasa Tenggara, Sulawesi Utara","Kabupaten Minahasa Tenggara, Sulawesi Utara",SULAWESI UTARA,,Indonesia,,,,1.0916073,124.8158869,https://maps.google.com/?cid=0x0:0x71c6eaa401419484,
supermarket,supermarket,Kec. Ratahan Tim.,"Kabupaten Minahasa Tenggara, Sulawesi Utara","Kabupaten Minahasa Tenggara, Sulawesi Utara",SULAWESI UTARA,,Indonesia,,,,1.0937692,124.815983,https://maps.google.com/?cid=0x0:0x26a0154fbfe940e4,
supermarket,Toko Swalayan,Alfamidi Lowu,"Jl. SD GMIM Jalan, Lowu Dua, Kec. Ratahan, Kabupaten Minahasa Tenggara, Sulawesi Utara","Kabupaten Minahasa Tenggara, Sulawesi Utara",SULAWESI UTARA,,Indonesia,1500959.0,,,1.0577247,124.8051002,https://maps.google.com/?cid=0x0:0x108788c40a9aee52,
supermarket,Minimarket,Indomaret Plaza Ratahan,"3R32+43P, Tosuraya Bar., Kec. Ratahan, Kabupaten Minahasa Tenggara, Sulawesi Utara 95695","Tosuraya Bar., Kec. Ratahan, Kabupaten Minahasa Tenggara",SULAWESI UTARA,95695,Indonesia,,,,1.0528263,124.8001942,https://maps.google.com/?cid=0x0:0x6f22da70e98e794f,
supermarket,Toko bahan makanan,Indomaret Raya Noongan,"4RG4+4X5, Jl. Raya Langowan - Ratahan, Pangu Satu, Kec. Ratahan Tim., Kabupaten Minahasa Tenggara, Sulawesi Utara","Kabupaten Minahasa Tenggara, Sulawesi Utara",SULAWESI UTARA,,Indonesia,,,,1.1252509,124.8074691,https://maps.google.com/?cid=0x0:0x45fe60c09e309a1,
supermarket,Toko,Kios Nirel,"3RP9+F47, Jl. Raya Langowan - Ratahan, Nataan, Kec. Ratahan, Kabupaten Minahasa Tenggara, Sulawesi Utara","Kabupaten Minahasa Tenggara, Sulawesi Utara",SULAWESI UTARA,,Indonesia,,,,1.0861712,124.8177965,https://maps.google.com/?cid=0x0:0x5bd3e55aede737bf,
supermarket,Minimarket,Warung Nanda,"3RR8+5WP, Tim.,, Pangu Dua, Kec. Ratahan Tim., Kabupaten Minahasa Tenggara, Sulawesi Utara","Kabupaten Minahasa Tenggara, Sulawesi Utara",SULAWESI UTARA,,Indonesia,,,,1.0904627,124.8173251,https://maps.google.com/?cid=0x0:0xbdff4f97af166681,
supermarket,Minimarket,BumdesMart Desa Pangu,"Pangu, Kec. Ratahan Tim., Kabupaten Minahasa Tenggara, Sulawesi Utara","Kabupaten Minahasa Tenggara, Sulawesi Utara",SULAWESI UTARA,,Indonesia,,,,1.0943345,124.8155455,https://maps.google.com/?cid=0x0:0x49805e09c485a6c5,
supermarket,Pembangunan Perumahan,PLAZA RATAHAN,"3R32+43J, Tosuraya Sel., Kec. Ratahan, Kabupaten Minahasa Tenggara, Sulawesi Utara","Kabupaten Minahasa Tenggara, Sulawesi Utara",SULAWESI UTARA,,Indonesia,,,,1.0528486,124.8001409,https://maps.google.com/?cid=0x0:0xc2d3ab5c2e3ae3c0,
supermarket,Pusat Perbelanjaan,Pasar Rakyat Ratahan,"3R32+C28, Tosuraya, Kec. Ratahan, Kabupaten Minahasa Tenggara, Sulawesi Utara","Kabupaten Minahasa Tenggara, Sulawesi Utara",SULAWESI UTARA,,Indonesia,,,,1.0535432,124.8000805,https://maps.google.com/?cid=0x0:0x79e14070849b7bab,
supermarket,Toko bahan makanan,Toondey,"lingkungan 1, Lowu Dua, Kec. Ratahan, Kabupaten Minahasa Tenggara, Sulawesi Utara 95994","Lowu Dua, Kec. Ratahan, Kabupaten Minahasa Tenggara",SULAWESI UTARA,95994,Indonesia,85240791551.0,,,1.055388,124.8036513,https://maps.google.com/?cid=0x0:0x909f0155c459897e,
supermarket,Toko bahan makanan,Warung VITKI,"3RR9+X8H, Pangu, Kec. Ratahan Tim., Kabupaten Minahasa Tenggara, Sulawesi Utara","Kabupaten Minahasa Tenggara, Sulawesi Utara",SULAWESI UTARA,,Indonesia,83871531905.0,,,1.0924446,124.8183541,https://maps.google.com/?cid=0x0:0x103cb89ee6bd1fa2,
supermarket,Toko,Toko Sean,"Jl. Ratahan - Langowan No.16, RW.lingk. 4, Nataan, Kec. Ratahan, Kabupaten Minahasa Tenggara, Sulawesi Utara","Kabupaten Minahasa Tenggara, Sulawesi Utara",SULAWESI UTARA,,Indonesia,,,,1.0612294,124.8064361,https://maps.google.com/?cid=0x0:0x93a8d1bcc9e79d2b,
supermarket,Toko bahan makanan,Alfamart Ratahan Mitra,"2QVX+497, Wawali Pasan, Kec. Ratahan, Kabupaten Minahasa Tenggara, Sulawesi Utara","Kabupaten Minahasa Tenggara, Sulawesi Utara",SULAWESI UTARA,,Indonesia,,,,1.04279,124.7984348,https://maps.google.com/?cid=0x0:0x5e1fdf551df6414e,
supermarket,Toko Swalayan,FRE-NDA,"jaga 1, Tolombukan, Kec. Ratahan, Kabupaten Minahasa Tenggara, Sulawesi Utara 95995","Tolombukan, Kec. Ratahan, Kabupaten Minahasa Tenggara",SULAWESI UTARA,95995,Indonesia,,,,1.023911,124.743447,https://maps.google.com/?cid=0x0:0x53ebb4e1f9bdceeb,
supermarket,Minimarket,Warung Rachel,"3R43+GP9, Jalan Raya, Lingkungan Dua, Lowu Dua, Kec. Ratahan, Kabupaten Minahasa Tenggara, Sulawesi Utara","Kabupaten Minahasa Tenggara, Sulawesi Utara",SULAWESI UTARA,,Indonesia,,,,1.0562774,124.8043661,https://maps.google.com/?cid=0x0:0x9ba17182ef6dae73,
supermarket,Toko bahan makanan,Warung Olivia,"3RV8+66H, Pangu Dua, Kec. Ratahan Tim., Kabupaten Minahasa Tenggara, Sulawesi Utara","Kabupaten Minahasa Tenggara, Sulawesi Utara",SULAWESI UTARA,,Indonesia,87846777030.0,,,1.093071,124.8156114,https://maps.google.com/?cid=0x0:0xbdc1b8568609c508,
supermarket,Minimarket,Warong Celyn,"4RH5+QW7, Jl. Raya Langowan - Ratahan, Raringis, Kec. Langowan Bar., Kabupaten Minahasa, Sulawesi Utara","Kabupaten Minahasa, Sulawesi Utara",SULAWESI UTARA,,Indonesia,,,,1.1294019,124.8098059,https://maps.google.com/?cid=0x0:0x1c8887d915347fe5,
supermarket,Restoran,Rm rolangon kansil,"3R53+RW9, Nataan, Kec. Ratahan, Kabupaten Minahasa Tenggara, Sulawesi Utara","Kabupaten Minahasa Tenggara, Sulawesi Utara",SULAWESI UTARA,,Indonesia,81354422719.0,,,1.0595409,124.8048588,https://maps.google.com/?cid=0x0:0xdc67d1ad2112614e,
supermarket,Toko Swalayan,Multimart Ranotana,"Jl. Stadion Klabat, Ranotana, Kec. Sario, Kota Manado, Sulawesi Utara 95114","Ranotana, Kec. Sario, Kota Manado",SULAWESI UTARA,95114,Indonesia,,,,1.4593079,124.837613,https://maps.google.com/?cid=0x0:0x92248971a0c4fc9a,
supermarket,Toko,Toko Berkat (grosir sembako),"Tosuraya Sel., Kec. Ratahan, Kabupaten Minahasa Tenggara, Sulawesi Utara","Kabupaten Minahasa Tenggara, Sulawesi Utara",SULAWESI UTARA,,Indonesia,,,,1.0524056,124.8002618,https://maps.google.com/?cid=0x0:0x1f8938ef2a0bd462,
supermarket,Toko,Toko Sembako Ekeng,"3R84+7WR, Nataan, Kec. Ratahan, Kabupaten Minahasa Tenggara, Sulawesi Utara","Kabupaten Minahasa Tenggara, Sulawesi Utara",SULAWESI UTARA,,Indonesia,,,,1.0657418,124.8072648,https://maps.google.com/?cid=0x0:0x10c23ad55f9c54ec,
supermarket,Toko bahan makanan,"Alfamart Ratahan, Nataan","3R74+VRJ, Nataan, Kec. Ratahan, Kabupaten Minahasa Tenggara, Sulawesi Utara","Kabupaten Minahasa Tenggara, Sulawesi Utara",SULAWESI UTARA,,Indonesia,,,,1.0647061,124.8070221,https://maps.google.com/?cid=0x0:0x9d3545e8a452340e,
supermarket,Minimarket,Warung fricillia,"2VXF+6Q7, Wiau, Pusomaen, Kabupaten Minahasa Tenggara, Sulawesi Utara","Kabupaten Minahasa Tenggara, Sulawesi Utara",SULAWESI UTARA,,Indonesia,,,,1.0480033,124.874515,https://maps.google.com/?cid=0x0:0x39ecd6989c9d30fb,
supermarket,Toko Swalayan,Warung Diva,"Jl. Thomas, Lingkungan 3, Tosuraya Sel., Kec. Ratahan, Kabupaten Minahasa Tenggara, Sulawesi Utara 95696","Lingkungan 3, Tosuraya Sel., Kec. Ratahan, Kabupaten Minahasa Tenggara",SULAWESI UTARA,95696,Indonesia,85757069774.0,,,1.0509538,124.7996707,https://maps.google.com/?cid=0x0:0xcf0bee97d767286c,
supermarket,Minimarket,Alfamart Plaza Ratahan,"3Q3X+5XF Link.2, Plaza, Tosuraya Barat, Tosuraya, Kec. Ratahan, Kabupaten Minahasa Tenggara, Sulawesi Utara","Kabupaten Minahasa Tenggara, Sulawesi Utara",SULAWESI UTARA,,Indonesia,,,,1.05295,124.7999288,https://maps.google.com/?cid=0x0:0x51c3a6965efc0e96,
supermarket,Minimarket,Toko Ricardo,"3R53+GQ3, Lingkungan 4, Lowu Satu, Kec. Ratahan, Kabupaten Minahasa Tenggara, Sulawesi Utara","Kabupaten Minahasa Tenggara, Sulawesi Utara",SULAWESI UTARA,,Indonesia,,,,1.0587709,124.80443,https://maps.google.com/?cid=0x0:0xe6b0c2e440e837a0,
supermarket,Toko bahan makanan,Kios Bucek,"3VGG+34R, Unnamed Road, Atep, Kec. Langowan Sel., Kabupaten Minahasa, Sulawesi Utara","Kabupaten Minahasa, Sulawesi Utara",SULAWESI UTARA,,Indonesia,82366688778.0,,,1.0752482,124.8752554,https://maps.google.com/?cid=0x0:0xe587d3c644fa77d6,
supermarket,supermarket,Kec. Ratatotok,"Kabupaten Minahasa Tenggara, Sulawesi Utara","Kabupaten Minahasa Tenggara, Sulawesi Utara",SULAWESI UTARA,,Indonesia,,,,0.8739142,124.7003929,https://maps.google.com/?cid=0x0:0xfad043f7df9d10da,
supermarket,Toko bahan makanan,CAHAYA MART,"VP92+MC9, Ratatotok, Kec. Ratatotok, Kabupaten Minahasa Tenggara, Sulawesi Utara 95997","Ratatotok, Kec. Ratatotok, Kabupaten Minahasa Tenggara",SULAWESI UTARA,95997,Indonesia,81245217874.0,,,0.8691597,124.7011043,https://maps.google.com/?cid=0x0:0x41596e747041cd54,
supermarket,Toko bahan makanan,Toko. Sari merta,"VP85+R4Q, Ratatotok Muara, Kec. Ratatotok, Kabupaten Minahasa Tenggara, Sulawesi Utara 95997","Ratatotok Muara, Kec. Ratatotok, Kabupaten Minahasa Tenggara",SULAWESI UTARA,95997,Indonesia,81357812579.0,,,0.8670921,124.7078557,https://maps.google.com/?cid=0x0:0x13f862adf982c9,
supermarket,Pembangunan Perumahan,Pasar Ratatotok,"VMCX+QGV, Ratatotok Tenggara, Kec. Ratatotok, Kabupaten Minahasa Tenggara, Sulawesi Utara 95997","Ratatotok Tenggara, Kec. Ratatotok, Kabupaten Minahasa Tenggara",SULAWESI UTARA,95997,Indonesia,,,,0.8719963,124.6987876,https://maps.google.com/?cid=0x0:0x68cef59a67a3ae1f,
supermarket,Minimarket,Indomaret Ratatotok,"VMFX+RVM, Jl. Ratahan - Kotamobagu, Ratatotok Satu, Kec. Ratatotok, Kabupaten Minahasa Tenggara, Sulawesi Utara 95997","Jl. Ratahan - Kotamobagu, Ratatotok Satu, Kec. Ratatotok, Kabupaten Minahasa Tenggara",SULAWESI UTARA,95997,Indonesia,,,,0.8745949,124.6996836,https://maps.google.com/?cid=0x0:0x2f2c6f279dcdbb74,
supermarket,supermarket,Kios theo,"WPP3+4QF, Morea Satu, Kec. Ratatotok, Kabupaten Minahasa Tenggara, Sulawesi Utara 95997","Morea Satu, Kec. Ratatotok, Kabupaten Minahasa Tenggara",SULAWESI UTARA,95997,Indonesia,,,,0.9353185,124.7044245,https://maps.google.com/?cid=0x0:0x99897f77999f1c8a,
supermarket,Toko bahan makanan,Toko Priscilla Basaan,"VPXW+9JV, Basaan Dua, Kec. Ratatotok, Kabupaten Minahasa Tenggara, Sulawesi Utara 95997","Basaan Dua, Kec. Ratatotok, Kabupaten Minahasa Tenggara",SULAWESI UTARA,95997,Indonesia,81342907000.0,,,0.8984995,124.7465556,https://maps.google.com/?cid=0x0:0xc0d8a3ce0024f732,
supermarket,Minimarket,Indomaret Ratatotok II,"VP92+MGH, Ratatotok Dua, Kec. Ratatotok, Kabupaten Minahasa Tenggara, Sulawesi Utara 95997","Ratatotok Dua, Kec. Ratatotok, Kabupaten Minahasa Tenggara",SULAWESI UTARA,95997,Indonesia,,,,0.8692202,124.7013066,https://maps.google.com/?cid=0x0:0xb14e487beeafb706,
supermarket,Toko Swalayan,Alfamart,"VPC3+Q5H, Jl. Ratahan - Kotamobagu, Ratatotok Tengah, Kec. Ratatotok, Kabupaten Minahasa Tenggara, Sulawesi Utara 95997","Jl. Ratahan - Kotamobagu, Ratatotok Tengah, Kec. Ratatotok, Kabupaten Minahasa Tenggara",SULAWESI UTARA,95997,Indonesia,,,,0.8719391,124.7029724,https://maps.google.com/?cid=0x0:0x60496cd296880651,
supermarket,Minimarket,Ratoks Indah,"VPF2+7H4, Ratatotok Tengah, Kec. Ratatotok, Kabupaten Minahasa Tenggara, Sulawesi Utara 95997","Ratatotok Tengah, Kec. Ratatotok, Kabupaten Minahasa Tenggara",SULAWESI UTARA,95997,Indonesia,85340541305.0,,,0.8731483,124.70146,https://maps.google.com/?cid=0x0:0xb8eed7d37cb01793,
supermarket,Toko Swalayan,Erdita Mart,"6Q2Q+FG6, Kinali, Kec. Kawangkoan, Kabupaten Minahasa, Sulawesi Utara","Kabupaten Minahasa, Sulawesi Utara",SULAWESI UTARA,,Indonesia,,,,1.2011529,124.7887598,https://maps.google.com/?cid=0x0:0x7b92f8e809e4f40f,
supermarket,Kios,Rin Poluan Dopong,"WPP2+HXH, Morea Satu, Kec. Ratatotok, Kabupaten Minahasa Tenggara, Sulawesi Utara 95997","Morea Satu, Kec. Ratatotok, Kabupaten Minahasa Tenggara",SULAWESI UTARA,95997,Indonesia,,,,0.9364452,124.7024963,https://maps.google.com/?cid=0x0:0xfe704c286df26b6,
supermarket,Kompleks Olahraga,"Lapangan NARATO, Ratatotok","VMGX+Q8P, Ratatotok Satu, Kec. Ratatotok, Kabupaten Minahasa Tenggara, Sulawesi Utara 95997","Ratatotok Satu, Kec. Ratatotok, Kabupaten Minahasa Tenggara",SULAWESI UTARA,95997,Indonesia,,,,0.8769679,124.6983192,https://maps.google.com/?cid=0x0:0x26502a349e794da1,
supermarket,Pembangunan Perumahan,Pasar Belang,"WQRP+M68, Kec. Belang, Kabupaten Minahasa Tenggara, Sulawesi Utara","Kabupaten Minahasa Tenggara, Sulawesi Utara",SULAWESI UTARA,,Indonesia,,,,0.9416541,124.7855775,https://maps.google.com/?cid=0x0:0xaa653747d8978ad7,
supermarket,Toko bahan makanan,Alfamidi BELANG,"WQVQ+R68, Buku Tenggara, Kec. Belang, Kabupaten Minahasa Tenggara, Sulawesi Utara 95997","Buku Tenggara, Kec. Belang, Kabupaten Minahasa Tenggara",SULAWESI UTARA,95997,Indonesia,,,,0.9445458,124.7880798,https://maps.google.com/?cid=0x0:0x858f41a98acb69fb,
supermarket,Pusat Perbelanjaan,Indomaret Buyat,"VM4V+27C, Buyat II, Kotabunan, Kabupaten Bolaang Mongondow Timur, Sulawesi Utara","Kabupaten Bolaang Mongondow Timur, Sulawesi Utara",SULAWESI UTARA,,Indonesia,,,,0.8550738,124.6931562,https://maps.google.com/?cid=0x0:0xe89d23c6c86ac0a3,
supermarket,Minimarket,Indomaret Plaza Ratahan,"3R32+43P, Tosuraya Bar., Kec. Ratahan, Kabupaten Minahasa Tenggara, Sulawesi Utara 95695","Tosuraya Bar., Kec. Ratahan, Kabupaten Minahasa Tenggara",SULAWESI UTARA,95695,Indonesia,,,,1.0528263,124.8001942,https://maps.google.com/?cid=0x0:0x6f22da70e98e794f,
supermarket,Toko Swalayan,Alfamidi Lowu,"Jl. SD GMIM Jalan, Lowu Dua, Kec. Ratahan, Kabupaten Minahasa Tenggara, Sulawesi Utara","Kabupaten Minahasa Tenggara, Sulawesi Utara",SULAWESI UTARA,,Indonesia,1500959.0,,,1.0577247,124.8051002,https://maps.google.com/?cid=0x0:0x108788c40a9aee52,
supermarket,Pusat Perbelanjaan,R.STAR,"P97H+3FP, Jl. Ratahan - Kotamobagu, Bongkudai, Kec. Modayag Bar., Kabupaten Bolaang Mongondow Timur, Sulawesi Utara","Kabupaten Bolaang Mongondow Timur, Sulawesi Utara",SULAWESI UTARA,,Indonesia,8124561484.0,,,0.7127036,124.3787043,https://maps.google.com/?cid=0x0:0xc9637c0b5ddd4269,
supermarket,Pembangunan Perumahan,PLAZA RATAHAN,"3R32+43J, Tosuraya Sel., Kec. Ratahan, Kabupaten Minahasa Tenggara, Sulawesi Utara","Kabupaten Minahasa Tenggara, Sulawesi Utara",SULAWESI UTARA,,Indonesia,,,,1.0528486,124.8001409,https://maps.google.com/?cid=0x0:0xc2d3ab5c2e3ae3c0,
supermarket,supermarket,Kec. Silian Raya,"Kabupaten Minahasa Tenggara, Sulawesi Utara","Kabupaten Minahasa Tenggara, Sulawesi Utara",SULAWESI UTARA,,Indonesia,,,,1.0607028,124.6706139,https://maps.google.com/?cid=0x0:0xc85569b0227031a5,
supermarket,Toko,Alfamart Silian Mitra(1Y7V/SIIT),"3M5C+R8Q, Silian, Kec. Silian Raya, Kabupaten Minahasa Tenggara, Sulawesi Utara","Kabupaten Minahasa Tenggara, Sulawesi Utara",SULAWESI UTARA,,Indonesia,,,,1.059563,124.6709502,https://maps.google.com/?cid=0x0:0x6726c54eee55c041,
supermarket,Toko Swalayan,Indomaret silian raya,"3M69+P8C, Silian, Kec. Silian Raya, Kabupaten Minahasa Tenggara, Sulawesi Utara","Kabupaten Minahasa Tenggara, Sulawesi Utara",SULAWESI UTARA,,Indonesia,,,,1.0618044,124.6682544,https://maps.google.com/?cid=0x0:0xd650ad71cf1db7fa,
supermarket,Toko bahan makanan,Angel Ponomban,"3M78+2PC, Silian Tengah, Kec. Silian Raya, Kabupaten Minahasa Tenggara, Sulawesi Utara","Kabupaten Minahasa Tenggara, Sulawesi Utara",SULAWESI UTARA,,Indonesia,,,,1.0625744,124.6667799,https://maps.google.com/?cid=0x0:0x31ed30f7dca70f6b,
supermarket,Toko,Toko RINI,"Jl. Raya Silian Jaga 1 No.1, Silian, Kec. Silian Raya, Kabupaten Minahasa Tenggara, Sulawesi Utara","Kabupaten Minahasa Tenggara, Sulawesi Utara",SULAWESI UTARA,,Indonesia,,,,1.059556,124.6711239,https://maps.google.com/?cid=0x0:0x41f1a13d7d688e1,
supermarket,Toko,Toko Rama,"2MWG+GM5, Betelan Satu, Kec. Tombatu, Kabupaten Minahasa Tenggara, Sulawesi Utara","Kabupaten Minahasa Tenggara, Sulawesi Utara",SULAWESI UTARA,,Indonesia,85256512632.0,,,1.0462528,124.6767274,https://maps.google.com/?cid=0x0:0x1f08c6a05a811abd,
supermarket,Toko Swalayan,Ponomban seko,"2MQC+XFP, Jl. Amurang-Ratahan, Kali Oki, Kec. Tombatu, Kabupaten Minahasa Tenggara, Sulawesi Utara","Kabupaten Minahasa Tenggara, Sulawesi Utara",SULAWESI UTARA,,Indonesia,895397321732.0,,,1.039951,124.6712027,https://maps.google.com/?cid=0x0:0x71a8fd71fa8ebbd6,
supermarket,Pusat Perbelanjaan,Pasar Rakyat Tombatu,"2MWG+JHF, Unnamed Rd,, Betelan Satu, Minahasa Tenggara, Kabupaten Minahasa Tenggara, Sulawesi Utara","Kabupaten Minahasa Tenggara, Sulawesi Utara",SULAWESI UTARA,,Indonesia,,,,1.0465621,124.6764189,https://maps.google.com/?cid=0x0:0xd20908fe7385f467,
supermarket,Toko Swalayan,PASAR TOULUAAN,"3M42+MX8, Lobu Kota, Kec. Touluaan, Kabupaten Minahasa Tenggara, Sulawesi Utara","Kabupaten Minahasa Tenggara, Sulawesi Utara",SULAWESI UTARA,,Indonesia,82258506153.0,,,1.0566747,124.6524466,https://maps.google.com/?cid=0x0:0xd5dccc66da7a5dc0,
supermarket,Toko Pakaian Wanita,April Olii Shop,"3M83+WJ9, Silian Tiga, Kec. Silian Raya, Kabupaten Minahasa Tenggara, Sulawesi Utara","Kabupaten Minahasa Tenggara, Sulawesi Utara",SULAWESI UTARA,,Indonesia,82260773580.0,,,1.0672966,124.6541021,https://maps.google.com/?cid=0x0:0x9369756590367a36,
supermarket,Toko bahan makanan,NOEL CERO,"3JPP+5WJ, Lobu Kota, Kec. Touluaan, Kabupaten Minahasa Tenggara, Sulawesi Utara","Kabupaten Minahasa Tenggara, Sulawesi Utara",SULAWESI UTARA,,Indonesia,,,,1.0854635,124.6372533,https://maps.google.com/?cid=0x0:0xa3f428a3383ef366,
supermarket,Pusat Perbelanjaan,Raydi Cell,"3M42+GCR, Lobu Kota, Kec. Touluaan, Kabupaten Minahasa Tenggara, Sulawesi Utara","Kabupaten Minahasa Tenggara, Sulawesi Utara",SULAWESI UTARA,,Indonesia,81312282858.0,,,1.0563724,124.651009,https://maps.google.com/?cid=0x0:0x6ba6dde68d458239,
supermarket,Minimarket,Warug Harry,"Silian Bar., Kec. Silian Raya, Kabupaten Minahasa Tenggara, Sulawesi Utara","Kabupaten Minahasa Tenggara, Sulawesi Utara",SULAWESI UTARA,,Indonesia,82395871797.0,,,1.0613062,124.664469,https://maps.google.com/?cid=0x0:0x3bb128e08c399d4c,
supermarket,supermarket,Kec. Tombatu,"Kabupaten Minahasa Tenggara, Sulawesi Utara","Kabupaten Minahasa Tenggara, Sulawesi Utara",SULAWESI UTARA,,Indonesia,,,,1.0392874,124.6821911,https://maps.google.com/?cid=0x0:0x15df6048da14c99b,
supermarket,Toko Swalayan,Grace Mart,"2MWH+47X, Jalan Raya Tombatu Silian, Tombatu Dua Tengah, Kec. Tombatu Utara, Kabupaten Minahasa Tenggara, Sulawesi Utara","Kabupaten Minahasa Tenggara, Sulawesi Utara",SULAWESI UTARA,,Indonesia,82347724596.0,,,1.0453555,124.6782281,https://maps.google.com/?cid=0x0:0x4f04055bee5ab44f,
supermarket,Minimarket,Alfamidi Tombatu,"2MVM+5MR, Jl. Raya Tombatu, Tombatu Dua, Kec. Tombatu Utara, Kabupaten Minahasa Tenggara, Sulawesi Utara","Kabupaten Minahasa Tenggara, Sulawesi Utara",SULAWESI UTARA,,Indonesia,,,,1.0429807,124.6841329,https://maps.google.com/?cid=0x0:0x838a37d70a046caa,
supermarket,Pusat Perbelanjaan,Pasar Rakyat Tombatu,"2MWG+JHF, Unnamed Rd,, Betelan Satu, Minahasa Tenggara, Kabupaten Minahasa Tenggara, Sulawesi Utara","Kabupaten Minahasa Tenggara, Sulawesi Utara",SULAWESI UTARA,,Indonesia,,,,1.0465621,124.6764189,https://maps.google.com/?cid=0x0:0xd20908fe7385f467,
supermarket,Toko Swalayan,David,"2MVP+2MR, Jl. Raya Tombatu, Tombatu Tiga Tengah, Kec. Tombatu Utara, Kabupaten Minahasa Tenggara, Sulawesi Utara","Kabupaten Minahasa Tenggara, Sulawesi Utara",SULAWESI UTARA,,Indonesia,,,,1.0426142,124.6866294,https://maps.google.com/?cid=0x0:0x33e20b08491f9601,
supermarket,Toko Swalayan,Ponomban seko,"2MQC+XFP, Jl. Amurang-Ratahan, Kali Oki, Kec. Tombatu, Kabupaten Minahasa Tenggara, Sulawesi Utara","Kabupaten Minahasa Tenggara, Sulawesi Utara",SULAWESI UTARA,,Indonesia,895397321732.0,,,1.039951,124.6712027,https://maps.google.com/?cid=0x0:0x71a8fd71fa8ebbd6,
supermarket,Pasar,Pasar Tua Tombatu,"2MVP+MCM, Tombatu Tiga, Kec. Tombatu Utara, Kabupaten Minahasa Tenggara, Sulawesi Utara","Kabupaten Minahasa Tenggara, Sulawesi Utara",SULAWESI UTARA,,Indonesia,,,,1.0442103,124.6860608,https://maps.google.com/?cid=0x0:0x8929b9a3bddf68b6,
supermarket,Toko,Kel.Sumayow dokal,"2MQM+RMG, Jl. Raya Tombatu, Tombatu Tiga Tengah, Kec. Tombatu Utara, Kabupaten Minahasa Tenggara, Sulawesi Utara","Kabupaten Minahasa Tenggara, Sulawesi Utara",SULAWESI UTARA,,Indonesia,89695726285.0,,,1.0395625,124.6841919,https://maps.google.com/?cid=0x0:0xd5a833561eb4661f,
supermarket,Toko,Toko Rama,"2MWG+GM5, Betelan Satu, Kec. Tombatu, Kabupaten Minahasa Tenggara, Sulawesi Utara","Kabupaten Minahasa Tenggara, Sulawesi Utara",SULAWESI UTARA,,Indonesia,85256512632.0,,,1.0462528,124.6767274,https://maps.google.com/?cid=0x0:0x1f08c6a05a811abd,
supermarket,Toko bahan makanan,Toko Angki,"2PFH+7CW, Jl. Amurang-Ratahan, Molompar Satu, Kec. Tombatu Tim., Kabupaten Minahasa Tenggara, Sulawesi Utara","Kabupaten Minahasa Tenggara, Sulawesi Utara",SULAWESI UTARA,,Indonesia,,,,1.0232493,124.7285788,https://maps.google.com/?cid=0x0:0x8a41d37c93cefb9,
supermarket,Minimarket,Toko Nasir Tombatu,"2MVH+WR5 Jaga 3, Tombatu Dua Tengah, Kec. Tombatu Utara, Kabupaten Minahasa Tenggara, Sulawesi Utara","Kabupaten Minahasa Tenggara, Sulawesi Utara",SULAWESI UTARA,,Indonesia,,,,1.0447687,124.6796042,https://maps.google.com/?cid=0x0:0xf46b376adefe091b,
supermarket,Minimarket,Toko Pelita,"2PGG+39R, Molompar Dua Sel., Kec. Tombatu Tim., Kabupaten Minahasa Tenggara, Sulawesi Utara","Kabupaten Minahasa Tenggara, Sulawesi Utara",SULAWESI UTARA,,Indonesia,,,,1.0252264,124.7259036,https://maps.google.com/?cid=0x0:0xe7b945a5cdacda03,
supermarket,Minimarket,Toko Oldy,"2PGG+C7J, Jl. Amurang-Ratahan, Molompar Dua, Kec. Tombatu Tim., Kabupaten Minahasa Tenggara, Sulawesi Utara","Kabupaten Minahasa Tenggara, Sulawesi Utara",SULAWESI UTARA,,Indonesia,,,,1.026099,124.7256311,https://maps.google.com/?cid=0x0:0xd3aaaf386cee51eb,
supermarket,Komplek perumahan,Home Tombatu,"2MQM+96X, Tombatu, Kec. Tombatu, Kabupaten Minahasa Tenggara, Sulawesi Utara","Kabupaten Minahasa Tenggara, Sulawesi Utara",SULAWESI UTARA,,Indonesia,,,,1.0384986,124.6831099,https://maps.google.com/?cid=0x0:0xf749947a978423f6,
supermarket,Pasar,Pasar Liwutung,"2PCV+VG5, Tolombukan, Kec. Pasan, Kabupaten Minahasa Tenggara, Sulawesi Utara","Kabupaten Minahasa Tenggara, Sulawesi Utara",SULAWESI UTARA,,Indonesia,,,,1.022145,124.743861,https://maps.google.com/?cid=0x0:0x1784b8585a387b11,
supermarket,Toko bahan makanan,Toko Mei (Hilkia Herika),"2PGH+WCG Tim, Molompar Atas, Kec. Tombatu Tim., Kabupaten Minahasa Tenggara, Sulawesi Utara","Kabupaten Minahasa Tenggara, Sulawesi Utara",SULAWESI UTARA,,Indonesia,89612392089.0,,,1.0273028,124.7285641,https://maps.google.com/?cid=0x0:0x7ee0687f8ba49f97,
supermarket,Pasar,Kios Berkat,"2MQ9+HQH, Kali, Kec. Tombatu, Kabupaten Minahasa Tenggara, Sulawesi Utara","Kabupaten Minahasa Tenggara, Sulawesi Utara",SULAWESI UTARA,,Indonesia,895635780767.0,,,1.0389447,124.6694979,https://maps.google.com/?cid=0x0:0x1c960a2b156cbd30,
supermarket,Toserba,STAR Department Store - Summarecon Mall Bekasi,"Sumarecon Mal Bks, Summarecon Mall Bekasi, Jl. Bulevar Ahmad Yani, RT.006/RW.002, Marga Mulya, Kec. Bekasi Utara, Kota Bks, Jawa Barat 17142","Summarecon Mall Bekasi, Jl. Bulevar Ahmad Yani, RT.006/RW.002, Marga Mulya, Kec. Bekasi Utara, Kota Bks",SULAWESI UTARA,17142,Indonesia,2129572388.0,,,-6.2257825,107.0016338,https://maps.google.com/?cid=0x0:0x6534b7f6e7d74422,
supermarket,supermarket,Kec. Tombatu Tim.,"Kabupaten Minahasa Tenggara, Sulawesi Utara","Kabupaten Minahasa Tenggara, Sulawesi Utara",SULAWESI UTARA,,Indonesia,,,,1.0260417,124.7260931,https://maps.google.com/?cid=0x0:0xc4583ba933d210d3,
supermarket,Toko Swalayan,Grace Mart,"2MWH+47X, Jalan Raya Tombatu Silian, Tombatu Dua Tengah, Kec. Tombatu Utara, Kabupaten Minahasa Tenggara, Sulawesi Utara","Kabupaten Minahasa Tenggara, Sulawesi Utara",SULAWESI UTARA,,Indonesia,82347724596.0,,,1.0453555,124.6782281,https://maps.google.com/?cid=0x0:0x4f04055bee5ab44f,
supermarket,Minimarket,Toko Pelita,"2PGG+39R, Molompar Dua Sel., Kec. Tombatu Tim., Kabupaten Minahasa Tenggara, Sulawesi Utara","Kabupaten Minahasa Tenggara, Sulawesi Utara",SULAWESI UTARA,,Indonesia,,,,1.0252264,124.7259036,https://maps.google.com/?cid=0x0:0xe7b945a5cdacda03,
supermarket,Minimarket,Toko Oldy,"2PGG+C7J, Jl. Amurang-Ratahan, Molompar Dua, Kec. Tombatu Tim., Kabupaten Minahasa Tenggara, Sulawesi Utara","Kabupaten Minahasa Tenggara, Sulawesi Utara",SULAWESI UTARA,,Indonesia,,,,1.026099,124.7256311,https://maps.google.com/?cid=0x0:0xd3aaaf386cee51eb,
supermarket,Toko bahan makanan,Toko Mei (Hilkia Herika),"2PGH+WCG Tim, Molompar Atas, Kec. Tombatu Tim., Kabupaten Minahasa Tenggara, Sulawesi Utara","Kabupaten Minahasa Tenggara, Sulawesi Utara",SULAWESI UTARA,,Indonesia,89612392089.0,,,1.0273028,124.7285641,https://maps.google.com/?cid=0x0:0x7ee0687f8ba49f97,
supermarket,Kios,Kios Ekel,"2PFH+MF8, Jl. Amurang-Ratahan, Molompar Satu, Kec. Tombatu Tim., Kabupaten Minahasa Tenggara, Sulawesi Utara","Kabupaten Minahasa Tenggara, Sulawesi Utara",SULAWESI UTARA,,Indonesia,,,,1.0241614,124.728706,https://maps.google.com/?cid=0x0:0xf8c53b9517616ded,
supermarket,Minimarket,Alfamart Molompar Mitra (1YAU/MORA),"2PGH+2C3, 2PGH+2CGMolomparKec, Kec. Tombatu Tim., Kabupaten Minahasa Tenggara, Sulawesi Utara","Kabupaten Minahasa Tenggara, Sulawesi Utara",SULAWESI UTARA,,Indonesia,,,,1.0250155,124.7285517,https://maps.google.com/?cid=0x0:0x5d66936c5a214ec,
supermarket,Pasar,Pasar Liwutung,"2PCV+VG5, Tolombukan, Kec. Pasan, Kabupaten Minahasa Tenggara, Sulawesi Utara","Kabupaten Minahasa Tenggara, Sulawesi Utara",SULAWESI UTARA,,Indonesia,,,,1.022145,124.743861,https://maps.google.com/?cid=0x0:0x1784b8585a387b11,
supermarket,Minimarket,Alfamidi Tombatu,"2MVM+5MR, Jl. Raya Tombatu, Tombatu Dua, Kec. Tombatu Utara, Kabupaten Minahasa Tenggara, Sulawesi Utara","Kabupaten Minahasa Tenggara, Sulawesi Utara",SULAWESI UTARA,,Indonesia,,,,1.0429807,124.6841329,https://maps.google.com/?cid=0x0:0x838a37d70a046caa,
supermarket,Toko bahan makanan,Toko Jeki,"2PGH+3GG, Jl. Amurang-Ratahan, Molompar Satu, Kec. Tombatu Tim., Kabupaten Minahasa Tenggara, Sulawesi Utara","Kabupaten Minahasa Tenggara, Sulawesi Utara",SULAWESI UTARA,,Indonesia,,,,1.0251877,124.7288188,https://maps.google.com/?cid=0x0:0x1d112212fc562d6a,
supermarket,Toko bahan makanan,Kios Lidsi,"2PGJ+338, jl.pendidikan, Molompar Satu, Tombatu Timur, Southeast Minahasa Regency, North Sulawesi","Kabupaten Minahasa Tenggara, Sulawesi Utara",SULAWESI UTARA,,Indonesia,81336565406.0,,,1.0251697,124.7302113,https://maps.google.com/?cid=0x0:0x7113eb752be2ccf2,
supermarket,Pusat Perbelanjaan,Pasar Rakyat Tombatu,"2MWG+JHF, Unnamed Rd,, Betelan Satu, Minahasa Tenggara, Kabupaten Minahasa Tenggara, Sulawesi Utara","Kabupaten Minahasa Tenggara, Sulawesi Utara",SULAWESI UTARA,,Indonesia,,,,1.0465621,124.6764189,https://maps.google.com/?cid=0x0:0xd20908fe7385f467,
supermarket,Toko bahan makanan,TOKO KYRIEI,"2PCJ+9QP, Molompar Satu, Kec. Tombatu Tim., Kabupaten Minahasa Tenggara, Sulawesi Utara","Kabupaten Minahasa Tenggara, Sulawesi Utara",SULAWESI UTARA,,Indonesia,,,,1.0209578,124.7319491,https://maps.google.com/?cid=0x0:0x550dc3cf764d4e6a,
supermarket,Toko Kue,Dapur Mama Mas Wawointana-Tangian,"2PGC+VJ3, Mundung, Kec. Tombatu Tim., Kabupaten Minahasa Tenggara, Sulawesi Utara","Kabupaten Minahasa Tenggara, Sulawesi Utara",SULAWESI UTARA,,Indonesia,,,,1.0271267,124.7215325,https://maps.google.com/?cid=0x0:0x4711f21324146990,
supermarket,Toko Swalayan,David,"2MVP+2MR, Jl. Raya Tombatu, Tombatu Tiga Tengah, Kec. Tombatu Utara, Kabupaten Minahasa Tenggara, Sulawesi Utara","Kabupaten Minahasa Tenggara, Sulawesi Utara",SULAWESI UTARA,,Indonesia,,,,1.0426142,124.6866294,https://maps.google.com/?cid=0x0:0x33e20b08491f9601,
supermarket,Toko Swalayan,Ponomban seko,"2MQC+XFP, Jl. Amurang-Ratahan, Kali Oki, Kec. Tombatu, Kabupaten Minahasa Tenggara, Sulawesi Utara","Kabupaten Minahasa Tenggara, Sulawesi Utara",SULAWESI UTARA,,Indonesia,895397321732.0,,,1.039951,124.6712027,https://maps.google.com/?cid=0x0:0x71a8fd71fa8ebbd6,
supermarket,Brunch,Waroeng Sheryn,"jaga 1, Molompar Atas, Kec. Tombatu Tim., Kabupaten Minahasa Tenggara, Sulawesi Utara 95990","Molompar Atas, Kec. Tombatu Tim., Kabupaten Minahasa Tenggara",SULAWESI UTARA,95990,Indonesia,81354085393.0,,,1.030625,124.7314387,https://maps.google.com/?cid=0x0:0x6d60ada8b74da073,
supermarket,Pusat Perbelanjaan,Indomaret Tombatu Utara,"2MVP+24F, Jl. Raya Tombatu, Tombatu Tiga Tengah, Kec. Tombatu Utara, Kabupaten Minahasa Tenggara, Sulawesi Utara","Kabupaten Minahasa Tenggara, Sulawesi Utara",SULAWESI UTARA,,Indonesia,,,,1.0425512,124.6853103,https://maps.google.com/?cid=0x0:0x2176a35f94ae23cc,
supermarket,Toko,Kel.Sumayow dokal,"2MQM+RMG, Jl. Raya Tombatu, Tombatu Tiga Tengah, Kec. Tombatu Utara, Kabupaten Minahasa Tenggara, Sulawesi Utara","Kabupaten Minahasa Tenggara, Sulawesi Utara",SULAWESI UTARA,,Indonesia,89695726285.0,,,1.0395625,124.6841919,https://maps.google.com/?cid=0x0:0xd5a833561eb4661f,
supermarket,Pusat Perbelanjaan,Pasar Tombatu,"2PGF+H75, Pasar, Esandom Satu, Kec. Tombatu, Kabupaten Minahasa Tenggara, Sulawesi Utara","Kabupaten Minahasa Tenggara, Sulawesi Utara",SULAWESI UTARA,,Indonesia,,,,1.0263909,124.7232364,https://maps.google.com/?cid=0x0:0x9e75af2e336c6fd6,
supermarket,Toko Swalayan,MINAMART,"2PCF+QJ5, Esandom, Kec. Tombatu Tim., Kabupaten Minahasa Tenggara, Sulawesi Utara","Kabupaten Minahasa Tenggara, Sulawesi Utara",SULAWESI UTARA,,Indonesia,82338320318.0,,,1.0218947,124.7241153,https://maps.google.com/?cid=0x0:0x81bbf8de52b7251c,
supermarket,Toko Swalayan,Jenchard,"2PFR+2WG, Unnamed Road, Tolombukan, Kec. Pasan, Kabupaten Minahasa Tenggara, Sulawesi Utara","Kabupaten Minahasa Tenggara, Sulawesi Utara",SULAWESI UTARA,,Indonesia,895610477871.0,,,1.0225561,124.7423225,https://maps.google.com/?cid=0x0:0x452fc6472572aa65,
supermarket,supermarket,Kec. Tombatu Utara,"Kabupaten Minahasa Tenggara, Sulawesi Utara","Kabupaten Minahasa Tenggara, Sulawesi Utara",SULAWESI UTARA,,Indonesia,,,,1.0435986,124.6869059,https://maps.google.com/?cid=0x0:0x3786e15772770449,
supermarket,Minimarket,Alfamidi Tombatu,"2MVM+5MR, Jl. Raya Tombatu, Tombatu Dua, Kec. Tombatu Utara, Kabupaten Minahasa Tenggara, Sulawesi Utara","Kabupaten Minahasa Tenggara, Sulawesi Utara",SULAWESI UTARA,,Indonesia,,,,1.0429807,124.6841329,https://maps.google.com/?cid=0x0:0x838a37d70a046caa,
supermarket,Toko Swalayan,Grace Mart,"2MWH+47X, Jalan Raya Tombatu Silian, Tombatu Dua Tengah, Kec. Tombatu Utara, Kabupaten Minahasa Tenggara, Sulawesi Utara","Kabupaten Minahasa Tenggara, Sulawesi Utara",SULAWESI UTARA,,Indonesia,82347724596.0,,,1.0453555,124.6782281,https://maps.google.com/?cid=0x0:0x4f04055bee5ab44f,
supermarket,Pusat Perbelanjaan,Indomaret Tombatu Utara,"2MVP+24F, Jl. Raya Tombatu, Tombatu Tiga Tengah, Kec. Tombatu Utara, Kabupaten Minahasa Tenggara, Sulawesi Utara","Kabupaten Minahasa Tenggara, Sulawesi Utara",SULAWESI UTARA,,Indonesia,,,,1.0425512,124.6853103,https://maps.google.com/?cid=0x0:0x2176a35f94ae23cc,
supermarket,Toko,Kel.Sumayow dokal,"2MQM+RMG, Jl. Raya Tombatu, Tombatu Tiga Tengah, Kec. Tombatu Utara, Kabupaten Minahasa Tenggara, Sulawesi Utara","Kabupaten Minahasa Tenggara, Sulawesi Utara",SULAWESI UTARA,,Indonesia,89695726285.0,,,1.0395625,124.6841919,https://maps.google.com/?cid=0x0:0xd5a833561eb4661f,
supermarket,Minimarket,Toko Pelita,"2PGG+39R, Molompar Dua Sel., Kec. Tombatu Tim., Kabupaten Minahasa Tenggara, Sulawesi Utara","Kabupaten Minahasa Tenggara, Sulawesi Utara",SULAWESI UTARA,,Indonesia,,,,1.0252264,124.7259036,https://maps.google.com/?cid=0x0:0xe7b945a5cdacda03,
supermarket,Minimarket,Toko Oldy,"2PGG+C7J, Jl. Amurang-Ratahan, Molompar Dua, Kec. Tombatu Tim., Kabupaten Minahasa Tenggara, Sulawesi Utara","Kabupaten Minahasa Tenggara, Sulawesi Utara",SULAWESI UTARA,,Indonesia,,,,1.026099,124.7256311,https://maps.google.com/?cid=0x0:0xd3aaaf386cee51eb,
supermarket,Toko bahan makanan,Toko Angki,"2PFH+7CW, Jl. Amurang-Ratahan, Molompar Satu, Kec. Tombatu Tim., Kabupaten Minahasa Tenggara, Sulawesi Utara","Kabupaten Minahasa Tenggara, Sulawesi Utara",SULAWESI UTARA,,Indonesia,,,,1.0232493,124.7285788,https://maps.google.com/?cid=0x0:0x8a41d37c93cefb9,
supermarket,Toko Swalayan,Ponomban seko,"2MQC+XFP, Jl. Amurang-Ratahan, Kali Oki, Kec. Tombatu, Kabupaten Minahasa Tenggara, Sulawesi Utara","Kabupaten Minahasa Tenggara, Sulawesi Utara",SULAWESI UTARA,,Indonesia,895397321732.0,,,1.039951,124.6712027,https://maps.google.com/?cid=0x0:0x71a8fd71fa8ebbd6,
supermarket,Toko,Toko Rama,"2MWG+GM5, Betelan Satu, Kec. Tombatu, Kabupaten Minahasa Tenggara, Sulawesi Utara","Kabupaten Minahasa Tenggara, Sulawesi Utara",SULAWESI UTARA,,Indonesia,85256512632.0,,,1.0462528,124.6767274,https://maps.google.com/?cid=0x0:0x1f08c6a05a811abd,
supermarket,Pusat Perbelanjaan,Pasar Rakyat Tombatu,"2MWG+JHF, Unnamed Rd,, Betelan Satu, Minahasa Tenggara, Kabupaten Minahasa Tenggara, Sulawesi Utara","Kabupaten Minahasa Tenggara, Sulawesi Utara",SULAWESI UTARA,,Indonesia,,,,1.0465621,124.6764189,https://maps.google.com/?cid=0x0:0xd20908fe7385f467,
supermarket,Toko bahan makanan,Toko Mei (Hilkia Herika),"2PGH+WCG Tim, Molompar Atas, Kec. Tombatu Tim., Kabupaten Minahasa Tenggara, Sulawesi Utara","Kabupaten Minahasa Tenggara, Sulawesi Utara",SULAWESI UTARA,,Indonesia,89612392089.0,,,1.0273028,124.7285641,https://maps.google.com/?cid=0x0:0x7ee0687f8ba49f97,
supermarket,Pasar,Pasar Liwutung,"2PCV+VG5, Tolombukan, Kec. Pasan, Kabupaten Minahasa Tenggara, Sulawesi Utara","Kabupaten Minahasa Tenggara, Sulawesi Utara",SULAWESI UTARA,,Indonesia,,,,1.022145,124.743861,https://maps.google.com/?cid=0x0:0x1784b8585a387b11,
supermarket,Pasar,Pasar Tua Tombatu,"2MVP+MCM, Tombatu Tiga, Kec. Tombatu Utara, Kabupaten Minahasa Tenggara, Sulawesi Utara","Kabupaten Minahasa Tenggara, Sulawesi Utara",SULAWESI UTARA,,Indonesia,,,,1.0442103,124.6860608,https://maps.google.com/?cid=0x0:0x8929b9a3bddf68b6,
supermarket,Minimarket,Toko Nasir Tombatu,"2MVH+WR5 Jaga 3, Tombatu Dua Tengah, Kec. Tombatu Utara, Kabupaten Minahasa Tenggara, Sulawesi Utara","Kabupaten Minahasa Tenggara, Sulawesi Utara",SULAWESI UTARA,,Indonesia,,,,1.0447687,124.6796042,https://maps.google.com/?cid=0x0:0xf46b376adefe091b,
supermarket,Minimarket,Alfamart Molompar Mitra (1YAU/MORA),"2PGH+2C3, 2PGH+2CGMolomparKec, Kec. Tombatu Tim., Kabupaten Minahasa Tenggara, Sulawesi Utara","Kabupaten Minahasa Tenggara, Sulawesi Utara",SULAWESI UTARA,,Indonesia,,,,1.0250155,124.7285517,https://maps.google.com/?cid=0x0:0x5d66936c5a214ec,
supermarket,supermarket,Tipal-Lengkong/Tipal-Palad,"2MQM+W6P, Tombatu, Kec. Tombatu, Kabupaten Minahasa Tenggara, Sulawesi Utara","Kabupaten Minahasa Tenggara, Sulawesi Utara",SULAWESI UTARA,,Indonesia,,,,1.0398327,124.6830671,https://maps.google.com/?cid=0x0:0x681272cfe168b3fb,
supermarket,Komplek perumahan,Home Tombatu,"2MQM+96X, Tombatu, Kec. Tombatu, Kabupaten Minahasa Tenggara, Sulawesi Utara","Kabupaten Minahasa Tenggara, Sulawesi Utara",SULAWESI UTARA,,Indonesia,,,,1.0384986,124.6831099,https://maps.google.com/?cid=0x0:0xf749947a978423f6,
supermarket,supermarket,Kios Ken-ken,"2MGH+WQC, Tombatu Satu, Kec. Tombatu, Kabupaten Minahasa Tenggara, Sulawesi Utara","Kabupaten Minahasa Tenggara, Sulawesi Utara",SULAWESI UTARA,,Indonesia,,,,1.0273144,124.6794032,https://maps.google.com/?cid=0x0:0xb9466b40aa2d3964,
supermarket,Toko Kue,Dapur Mama Mas Wawointana-Tangian,"2PGC+VJ3, Mundung, Kec. Tombatu Tim., Kabupaten Minahasa Tenggara, Sulawesi Utara","Kabupaten Minahasa Tenggara, Sulawesi Utara",SULAWESI UTARA,,Indonesia,,,,1.0271267,124.7215325,https://maps.google.com/?cid=0x0:0x4711f21324146990,
supermarket,supermarket,Kec. Touluaan,"Kabupaten Minahasa Tenggara, Sulawesi Utara","Kabupaten Minahasa Tenggara, Sulawesi Utara",SULAWESI UTARA,,Indonesia,,,,1.0561242,124.6513459,https://maps.google.com/?cid=0x0:0xb9e36ebc0d0281f7,
supermarket,Toko Swalayan,Grace Mart,"2MWH+47X, Jalan Raya Tombatu Silian, Tombatu Dua Tengah, Kec. Tombatu Utara, Kabupaten Minahasa Tenggara, Sulawesi Utara","Kabupaten Minahasa Tenggara, Sulawesi Utara",SULAWESI UTARA,,Indonesia,82347724596.0,,,1.0453555,124.6782281,https://maps.google.com/?cid=0x0:0x4f04055bee5ab44f,
supermarket,Toko Swalayan,PASAR TOULUAAN,"3M42+MX8, Lobu Kota, Kec. Touluaan, Kabupaten Minahasa Tenggara, Sulawesi Utara","Kabupaten Minahasa Tenggara, Sulawesi Utara",SULAWESI UTARA,,Indonesia,82258506153.0,,,1.0566747,124.6524466,https://maps.google.com/?cid=0x0:0xd5dccc66da7a5dc0,
supermarket,Toko bahan makanan,Angel Ponomban,"3M78+2PC, Silian Tengah, Kec. Silian Raya, Kabupaten Minahasa Tenggara, Sulawesi Utara","Kabupaten Minahasa Tenggara, Sulawesi Utara",SULAWESI UTARA,,Indonesia,,,,1.0625744,124.6667799,https://maps.google.com/?cid=0x0:0x31ed30f7dca70f6b,
supermarket,Toko Swalayan,Ponomban seko,"2MQC+XFP, Jl. Amurang-Ratahan, Kali Oki, Kec. Tombatu, Kabupaten Minahasa Tenggara, Sulawesi Utara","Kabupaten Minahasa Tenggara, Sulawesi Utara",SULAWESI UTARA,,Indonesia,895397321732.0,,,1.039951,124.6712027,https://maps.google.com/?cid=0x0:0x71a8fd71fa8ebbd6,
supermarket,Pusat Perbelanjaan,Trufarm Airmadidi,"CXFM+2WH, Jl. Raya Manado - Bitung, Airmadidi Atas, Kec. Airmadidi, Kabupaten Minahasa Utara, Sulawesi Utara","Kabupaten Minahasa Utara, Sulawesi Utara",SULAWESI UTARA,,Indonesia,,,,1.4225176,124.9851432,https://maps.google.com/?cid=0x0:0xcd9867b062db26a5,
supermarket,Toko Swalayan,Jumbo Pasar Swalayan  Restaurant Manado,"Jl. Suprapto No.1, Pinaesaan, Kec. Wenang, Kota Manado, Sulawesi Utara 95122","Pinaesaan, Kec. Wenang, Kota Manado",SULAWESI UTARA,95122,Indonesia,,,,1.4927865,124.8393618,https://maps.google.com/?cid=0x0:0x2121652adb7d61d0,
supermarket,Toko,Kel.Sumayow dokal,"2MQM+RMG, Jl. Raya Tombatu, Tombatu Tiga Tengah, Kec. Tombatu Utara, Kabupaten Minahasa Tenggara, Sulawesi Utara","Kabupaten Minahasa Tenggara, Sulawesi Utara",SULAWESI UTARA,,Indonesia,89695726285.0,,,1.0395625,124.6841919,https://maps.google.com/?cid=0x0:0xd5a833561eb4661f,
supermarket,Toko bahan makanan,Warung Alce Dan Monol,"7W5M+3P5, Touliang Oki, Kec. Eris, Kabupaten Minahasa, Sulawesi Utara","Kabupaten Minahasa, Sulawesi Utara",SULAWESI UTARA,,Indonesia,,,,1.2576441,124.934364,https://maps.google.com/?cid=0x0:0x6f66ef9d3f10bec0,
supermarket,supermarket,Kios Challysta,"3J3W+PWX, Tondanouw Satu, Kec. Touluaan, Kabupaten Minahasa Tenggara, Sulawesi Utara","Kabupaten Minahasa Tenggara, Sulawesi Utara",SULAWESI UTARA,,Indonesia,,,,1.0543748,124.6473513,https://maps.google.com/?cid=0x0:0xebe1d8cce676697a,
supermarket,Toko,Toko CHARLEN,"2QF2+8CM, Desa Towontu Timur, Jaga IV, Pasan, Towuntu Tim., Kec. Pasan, Kabupaten Minahasa Tenggara, Sulawesi Utara","Kabupaten Minahasa Tenggara, Sulawesi Utara",SULAWESI UTARA,,Indonesia,,,,1.0233448,124.7510414,https://maps.google.com/?cid=0x0:0x2c656f766f28957f,
supermarket,Minimarket,Alfamidi Tombatu,"2MVM+5MR, Jl. Raya Tombatu, Tombatu Dua, Kec. Tombatu Utara, Kabupaten Minahasa Tenggara, Sulawesi Utara","Kabupaten Minahasa Tenggara, Sulawesi Utara",SULAWESI UTARA,,Indonesia,,,,1.0429807,124.6841329,https://maps.google.com/?cid=0x0:0x838a37d70a046caa,
supermarket,Toko Swalayan,Toko Anna,"38WW+8X8, Ongkaw II, Kec. Sinonsayang, Kabupaten Minahasa Selatan, Sulawesi Utara","Kabupaten Minahasa Selatan, Sulawesi Utara",SULAWESI UTARA,,Indonesia,,,,1.0958,124.34745,https://maps.google.com/?cid=0x0:0x1ecf58fa226a8a49,
supermarket,Pusat Perbelanjaan,Raydi Cell,"3M42+GCR, Lobu Kota, Kec. Touluaan, Kabupaten Minahasa Tenggara, Sulawesi Utara","Kabupaten Minahasa Tenggara, Sulawesi Utara",SULAWESI UTARA,,Indonesia,81312282858.0,,,1.0563724,124.651009,https://maps.google.com/?cid=0x0:0x6ba6dde68d458239,
supermarket,Pusat Perbelanjaan,Pasar Rakyat Tombatu,"2MWG+JHF, Unnamed Rd,, Betelan Satu, Minahasa Tenggara, Kabupaten Minahasa Tenggara, Sulawesi Utara","Kabupaten Minahasa Tenggara, Sulawesi Utara",SULAWESI UTARA,,Indonesia,,,,1.0465621,124.6764189,https://maps.google.com/?cid=0x0:0xd20908fe7385f467,
supermarket,supermarket,Tipal-Lengkong/Tipal-Palad,"2MQM+W6P, Tombatu, Kec. Tombatu, Kabupaten Minahasa Tenggara, Sulawesi Utara","Kabupaten Minahasa Tenggara, Sulawesi Utara",SULAWESI UTARA,,Indonesia,,,,1.0398327,124.6830671,https://maps.google.com/?cid=0x0:0x681272cfe168b3fb,
supermarket,Toko bahan makanan,Yully Mart,"GXJV+VGP, Jl. Manado-Likupang, Tatelu Satu, Kec. Dimembe, Kabupaten Minahasa Utara, Sulawesi Utara","Kabupaten Minahasa Utara, Sulawesi Utara",SULAWESI UTARA,,Indonesia,82395797067.0,,,1.5322149,124.9938215,https://maps.google.com/?cid=0x0:0x1568a5126a391c08,
supermarket,Toko,Alfamart Silian Mitra(1Y7V/SIIT),"3M5C+R8Q, Silian, Kec. Silian Raya, Kabupaten Minahasa Tenggara, Sulawesi Utara","Kabupaten Minahasa Tenggara, Sulawesi Utara",SULAWESI UTARA,,Indonesia,,,,1.059563,124.6709502,https://maps.google.com/?cid=0x0:0x6726c54eee55c041,
supermarket,Toko Bahan Bangunan,DeDo Supermarket,"Jl. Raya Manado - Bitung, Maumbi, Kec. Kalawat, Kabupaten Minahasa Utara, Sulawesi Utara","Kabupaten Minahasa Utara, Sulawesi Utara",SULAWESI UTARA,,Indonesia,82363111170.0,,,1.4783792,124.9086253,https://maps.google.com/?cid=0x0:0x2d4a0393891ebb97,
supermarket,supermarket,TOKO DYTA,"2PGR+63V, RT.Jaga/RW.4, Tolombukan Satu, Pasan, Southeast Minahasa Regency, North Sulawesi","Kabupaten Minahasa Tenggara, Sulawesi Utara",SULAWESI UTARA,,Indonesia,,,,1.0256087,124.7401804,https://maps.google.com/?cid=0x0:0x3f822c0b7ac493c2,
supermarket,Toko bahan makanan,NOEL CERO,"3JPP+5WJ, Lobu Kota, Kec. Touluaan, Kabupaten Minahasa Tenggara, Sulawesi Utara","Kabupaten Minahasa Tenggara, Sulawesi Utara",SULAWESI UTARA,,Indonesia,,,,1.0854635,124.6372533,https://maps.google.com/?cid=0x0:0xa3f428a3383ef366,
supermarket,supermarket,Rumah saya,"2H9C+XV9 jaga 3, Powalutan, Kec. Touluaan Sel., Kabupaten Minahasa Tenggara, Sulawesi Utara","Kabupaten Minahasa Tenggara, Sulawesi Utara",SULAWESI UTARA,,Indonesia,,,,1.0199083,124.5722198,https://maps.google.com/?cid=0x0:0x7f0db91fe0b6dd28,
supermarket,Pasar,Pasar Liwutung,"2PCV+VG5, Tolombukan, Kec. Pasan, Kabupaten Minahasa Tenggara, Sulawesi Utara","Kabupaten Minahasa Tenggara, Sulawesi Utara",SULAWESI UTARA,,Indonesia,,,,1.022145,124.743861,https://maps.google.com/?cid=0x0:0x1784b8585a387b11,
supermarket,supermarket,Kec. Touluaan Sel.,"Kabupaten Minahasa Tenggara, Sulawesi Utara","Kabupaten Minahasa Tenggara, Sulawesi Utara",SULAWESI UTARA,,Indonesia,,,,1.0264722,124.5859669,https://maps.google.com/?cid=0x0:0xe1cb2698c83351a2,
supermarket,Toko Swalayan,Ponomban seko,"2MQC+XFP, Jl. Amurang-Ratahan, Kali Oki, Kec. Tombatu, Kabupaten Minahasa Tenggara, Sulawesi Utara","Kabupaten Minahasa Tenggara, Sulawesi Utara",SULAWESI UTARA,,Indonesia,895397321732.0,,,1.039951,124.6712027,https://maps.google.com/?cid=0x0:0x71a8fd71fa8ebbd6,
supermarket,Toko Swalayan,Grace Mart,"2MWH+47X, Jalan Raya Tombatu Silian, Tombatu Dua Tengah, Kec. Tombatu Utara, Kabupaten Minahasa Tenggara, Sulawesi Utara","Kabupaten Minahasa Tenggara, Sulawesi Utara",SULAWESI UTARA,,Indonesia,82347724596.0,,,1.0453555,124.6782281,https://maps.google.com/?cid=0x0:0x4f04055bee5ab44f,
supermarket,Toko,Kel.Sumayow dokal,"2MQM+RMG, Jl. Raya Tombatu, Tombatu Tiga Tengah, Kec. Tombatu Utara, Kabupaten Minahasa Tenggara, Sulawesi Utara","Kabupaten Minahasa Tenggara, Sulawesi Utara",SULAWESI UTARA,,Indonesia,89695726285.0,,,1.0395625,124.6841919,https://maps.google.com/?cid=0x0:0xd5a833561eb4661f,
supermarket,Toko Swalayan,Jumbo Pasar Swalayan  Restaurant Manado,"Jl. Suprapto No.1, Pinaesaan, Kec. Wenang, Kota Manado, Sulawesi Utara 95122","Pinaesaan, Kec. Wenang, Kota Manado",SULAWESI UTARA,95122,Indonesia,,,,1.4927865,124.8393618,https://maps.google.com/?cid=0x0:0x2121652adb7d61d0,
supermarket,Minimarket,Alfamidi Tombatu,"2MVM+5MR, Jl. Raya Tombatu, Tombatu Dua, Kec. Tombatu Utara, Kabupaten Minahasa Tenggara, Sulawesi Utara","Kabupaten Minahasa Tenggara, Sulawesi Utara",SULAWESI UTARA,,Indonesia,,,,1.0429807,124.6841329,https://maps.google.com/?cid=0x0:0x838a37d70a046caa,
supermarket,Toko Swalayan,Toko Anna,"38WW+8X8, Ongkaw II, Kec. Sinonsayang, Kabupaten Minahasa Selatan, Sulawesi Utara","Kabupaten Minahasa Selatan, Sulawesi Utara",SULAWESI UTARA,,Indonesia,,,,1.0958,124.34745,https://maps.google.com/?cid=0x0:0x1ecf58fa226a8a49,
supermarket,Toko bahan makanan,Angel Ponomban,"3M78+2PC, Silian Tengah, Kec. Silian Raya, Kabupaten Minahasa Tenggara, Sulawesi Utara","Kabupaten Minahasa Tenggara, Sulawesi Utara",SULAWESI UTARA,,Indonesia,,,,1.0625744,124.6667799,https://maps.google.com/?cid=0x0:0x31ed30f7dca70f6b,
supermarket,Toko bahan makanan,toko Nor,"VF98+PWM, Tambelang, Kec. Maesaan, Kabupaten Minahasa Selatan, Sulawesi Utara","Kabupaten Minahasa Selatan, Sulawesi Utara",SULAWESI UTARA,,Indonesia,8971662081.0,,,0.8693304,124.4672944,https://maps.google.com/?cid=0x0:0xf0094660f82fb450,
supermarket,Toko Swalayan,Trufarm,"Jl. Piere Tendean, Lingkungan 1, Wenang Sel., Kec. Wenang, Kota Manado, Sulawesi Utara","Kota Manado, Sulawesi Utara",SULAWESI UTARA,,Indonesia,,,,1.4816044,124.83517,https://maps.google.com/?cid=0x0:0x38a05442f3db26be,
supermarket,Toko,Alfamart Silian Mitra(1Y7V/SIIT),"3M5C+R8Q, Silian, Kec. Silian Raya, Kabupaten Minahasa Tenggara, Sulawesi Utara","Kabupaten Minahasa Tenggara, Sulawesi Utara",SULAWESI UTARA,,Indonesia,,,,1.059563,124.6709502,https://maps.google.com/?cid=0x0:0x6726c54eee55c041,
supermarket,Komplek perumahan,Alfamart Tumani,"Jl. Trans Sulawesi Utara, Tumani, Kec. Maesaan, Kabupaten Minahasa Selatan, Sulawesi Utara 95691","Tumani, Kec. Maesaan, Kabupaten Minahasa Selatan",SULAWESI UTARA,95691,Indonesia,1500959.0,,,0.9035442,124.472235,https://maps.google.com/?cid=0x0:0xf5913f261f6b7ce,
supermarket,supermarket,Kios Challysta,"3J3W+PWX, Tondanouw Satu, Kec. Touluaan, Kabupaten Minahasa Tenggara, Sulawesi Utara","Kabupaten Minahasa Tenggara, Sulawesi Utara",SULAWESI UTARA,,Indonesia,,,,1.0543748,124.6473513,https://maps.google.com/?cid=0x0:0xebe1d8cce676697a,
supermarket,Toko bahan makanan,Warung Alce Dan Monol,"7W5M+3P5, Touliang Oki, Kec. Eris, Kabupaten Minahasa, Sulawesi Utara","Kabupaten Minahasa, Sulawesi Utara",SULAWESI UTARA,,Indonesia,,,,1.2576441,124.934364,https://maps.google.com/?cid=0x0:0x6f66ef9d3f10bec0,
supermarket,Pasar,Pasar Tua Tombatu,"2MVP+MCM, Tombatu Tiga, Kec. Tombatu Utara, Kabupaten Minahasa Tenggara, Sulawesi Utara","Kabupaten Minahasa Tenggara, Sulawesi Utara",SULAWESI UTARA,,Indonesia,,,,1.0442103,124.6860608,https://maps.google.com/?cid=0x0:0x8929b9a3bddf68b6,
supermarket,Pembangunan Perumahan,Kaligis Turangan,"3GJG+7M6, Tokin, Kec. Motoling Tim., Kabupaten Minahasa Selatan, Sulawesi Utara","Kabupaten Minahasa Selatan, Sulawesi Utara",SULAWESI UTARA,,Indonesia,85256425612.0,,,1.0806569,124.5266409,https://maps.google.com/?cid=0x0:0x9cc05cf23a893b35,
supermarket,Toko,Toko Rama,"2MWG+GM5, Betelan Satu, Kec. Tombatu, Kabupaten Minahasa Tenggara, Sulawesi Utara","Kabupaten Minahasa Tenggara, Sulawesi Utara",SULAWESI UTARA,,Indonesia,85256512632.0,,,1.0462528,124.6767274,https://maps.google.com/?cid=0x0:0x1f08c6a05a811abd,
supermarket,supermarket,Tipal-Lengkong/Tipal-Palad,"2MQM+W6P, Tombatu, Kec. Tombatu, Kabupaten Minahasa Tenggara, Sulawesi Utara","Kabupaten Minahasa Tenggara, Sulawesi Utara",SULAWESI UTARA,,Indonesia,,,,1.0398327,124.6830671,https://maps.google.com/?cid=0x0:0x681272cfe168b3fb,
supermarket,Pusat Perbelanjaan,Raydi Cell,"3M42+GCR, Lobu Kota, Kec. Touluaan, Kabupaten Minahasa Tenggara, Sulawesi Utara","Kabupaten Minahasa Tenggara, Sulawesi Utara",SULAWESI UTARA,,Indonesia,81312282858.0,,,1.0563724,124.651009,https://maps.google.com/?cid=0x0:0x6ba6dde68d458239,
supermarket,Pusat Perbelanjaan,Pasar Rakyat Tombatu,"2MWG+JHF, Unnamed Rd,, Betelan Satu, Minahasa Tenggara, Kabupaten Minahasa Tenggara, Sulawesi Utara","Kabupaten Minahasa Tenggara, Sulawesi Utara",SULAWESI UTARA,,Indonesia,,,,1.0465621,124.6764189,https://maps.google.com/?cid=0x0:0xd20908fe7385f467,
supermarket,supermarket,Kios Ken-ken,"2MGH+WQC, Tombatu Satu, Kec. Tombatu, Kabupaten Minahasa Tenggara, Sulawesi Utara","Kabupaten Minahasa Tenggara, Sulawesi Utara",SULAWESI UTARA,,Indonesia,,,,1.0273144,124.6794032,https://maps.google.com/?cid=0x0:0xb9466b40aa2d3964,
supermarket,Toko,Ruma kel kojong rantunh,"Jl. Amurang-Ratahan No.8000, Kali Oki, Kec. Tombatu, Kabupaten Minahasa Tenggara, Sulawesi Utara","Kabupaten Minahasa Tenggara, Sulawesi Utara",SULAWESI UTARA,,Indonesia,,,,1.0389727,124.6724448,https://maps.google.com/?cid=0x0:0xbf15a2a6285096cf,
supermarket,Minimarket,Toko Nasir Tombatu,"2MVH+WR5 Jaga 3, Tombatu Dua Tengah, Kec. Tombatu Utara, Kabupaten Minahasa Tenggara, Sulawesi Utara","Kabupaten Minahasa Tenggara, Sulawesi Utara",SULAWESI UTARA,,Indonesia,,,,1.0447687,124.6796042,https://maps.google.com/?cid=0x0:0xf46b376adefe091b,
supermarket,Kios,Kios REVA,"3GG7+G35, Tokin Baru, Kec. Motoling Tim., Kabupaten Minahasa Selatan, Sulawesi Utara","Kabupaten Minahasa Selatan, Sulawesi Utara",SULAWESI UTARA,,Indonesia,,,,1.0765181,124.5127673,https://maps.google.com/?cid=0x0:0x459874ed113328c2,
supermarket,Dapur Umum,Stesya Dessert,"2MRC+652, Jl. Jaga 4, Kali Oki, Kec. Tombatu, Kabupaten Minahasa Tenggara, Sulawesi Utara","Kabupaten Minahasa Tenggara, Sulawesi Utara",SULAWESI UTARA,,Indonesia,,,,1.0406861,124.6704798,https://maps.google.com/?cid=0x0:0x9642d0030e9b0bc7,
supermarket,Pusat Perbelanjaan,Depot Patricia Tan,"2GP7+W98, Unnamed Road, Picuan, Tim., Picuan, Kec. Motoling, Kabupaten Minahasa Selatan, Sulawesi Utara","Kabupaten Minahasa Selatan, Sulawesi Utara",SULAWESI UTARA,,Indonesia,82292754489.0,,,1.037278,124.5134634,https://maps.google.com/?cid=0x0:0x9bf20f5c7f5975a1,
