Category,Real Category,Business Name,Address,City,State,Postal Code,Country,Phone,Email,Website,Latitude,Longitude,Map Link,Details Link
komplek housing,komplek housing,Kec. Belang,"Kabupaten Minahasa Tenggara, Sulawesi Utara","Kabupaten Minahasa Tenggara, Sulawesi Utara",SULAWESI UTARA,,Indonesia,,,,0.9601694,124.8138458,https://maps.google.com/?cid=0x0:0x6afb19e794b7def4,
komplek housing,Kantor Perusahaan,Belang,"WQWQ+PWM, Jl. Ratahan - Kotamobagu, Buku, Kec. Belang, Kabupaten Minahasa Tenggara, Sulawesi Utara 95997","Jl. Ratahan - Kotamobagu, Buku, Kec. Belang, Kabupaten Minahasa Tenggara",SULAWESI UTARA,95997.0,Indonesia,,,,0.946831,124.7898033,https://maps.google.com/?cid=0x0:0x123aacb38355e08c,
komplek housing,Pembangunan Perumahan,Perumahan,"WQXR+Q69, Jl. Perjuangan, Buku Utara, Kec. Belang, Kabupaten Minahasa Tenggara, Sulawesi Utara 95997","Jl. Perjuangan, Buku Utara, Kec. Belang, Kabupaten Minahasa Tenggara",SULAWESI UTARA,95997.0,Indonesia,,,,0.9494019,124.7906199,https://maps.google.com/?cid=0x0:0xa5dc96222290a110,
komplek housing,Kantor Perusahaan,Desa Belang Kec. Belang,"WQVP+P4H, Belang, Kec. Belang, Kabupaten Minahasa Tenggara, Sulawesi Utara","Kabupaten Minahasa Tenggara, Sulawesi Utara",SULAWESI UTARA,,Indonesia,,,,0.9443101,124.7853766,https://maps.google.com/?cid=0x0:0xe978a2f36434759e,
komplek housing,Komplek perumahan,Ya,"WQWR+VV6, Buku Tenggara, Kec. Belang, Kabupaten Minahasa Tenggara, Sulawesi Utara 95997","Buku Tenggara, Kec. Belang, Kabupaten Minahasa Tenggara",SULAWESI UTARA,95997.0,Indonesia,,,,0.946897,124.7918622,https://maps.google.com/?cid=0x0:0x9e5e03ff68a07461,
komplek housing,Komplek perumahan,Rumah DavinDieva,"XR82+854, Tababo Sel., Kec. Belang, Kabupaten Minahasa Tenggara, Sulawesi Utara 95997","Tababo Sel., Kec. Belang, Kabupaten Minahasa Tenggara",SULAWESI UTARA,95997.0,Indonesia,,,,0.9657648,124.8004382,https://maps.google.com/?cid=0x0:0xb2f912b99f37b4a9,
komplek housing,Gedung Apartemen,Iyan,"XR66+G89, Watuliney Tengah, Kec. Belang, Kabupaten Minahasa Tenggara, Sulawesi Utara 95997","Watuliney Tengah, Kec. Belang, Kabupaten Minahasa Tenggara",SULAWESI UTARA,95997.0,Indonesia,,,,0.961397,124.811289,https://maps.google.com/?cid=0x0:0x92de2c8fa22825d2,
komplek housing,Pembangunan Perumahan,NVM HOME,"XQ2Q+CHH, Buku Utara, Kec. Belang, Kabupaten Minahasa Tenggara, Sulawesi Utara 95997","Buku Utara, Kec. Belang, Kabupaten Minahasa Tenggara",SULAWESI UTARA,95997.0,Indonesia,,,,0.9510717,124.7889946,https://maps.google.com/?cid=0x0:0xad6d5c49f6a2a13c,
komplek housing,Komplek perumahan,ROSSA_HOME,"WQQP+86, Borgo, Kec. Belang, Kabupaten Minahasa Tenggara, Sulawesi Utara 95997","Borgo, Kec. Belang, Kabupaten Minahasa Tenggara",SULAWESI UTARA,95997.0,Indonesia,,,,0.9383736,124.7855978,https://maps.google.com/?cid=0x0:0x87d3f4999a280e3d,
komplek housing,Pembangunan Perumahan,Petra Home,"XR57+VRH, Molompar Utara, Kec. Belang, Kabupaten Minahasa Tenggara, Sulawesi Utara 95997","Molompar Utara, Kec. Belang, Kabupaten Minahasa Tenggara",SULAWESI UTARA,95997.0,Indonesia,,,,0.95992,124.814781,https://maps.google.com/?cid=0x0:0x7df2991dc8101814,
komplek housing,Komplek perumahan,Nandi house,"XQFX+HJF, Watuliney, Kec. Belang, Kabupaten Minahasa Tenggara, Sulawesi Utara 95997","Watuliney, Kec. Belang, Kabupaten Minahasa Tenggara",SULAWESI UTARA,95997.0,Indonesia,,,,0.9739306,124.7990465,https://maps.google.com/?cid=0x0:0x1409ef726fd368eb,
komplek housing,Komplek perumahan,Aldi house887,"Buku Tenggara, Kec. Belang, Kabupaten Minahasa Tenggara, Sulawesi Utara 95997","Kec. Belang, Kabupaten Minahasa Tenggara",SULAWESI UTARA,95997.0,Indonesia,,,,0.9548703,124.7885041,https://maps.google.com/?cid=0x0:0x1e21ef0675d26c93,
komplek housing,Komplek perumahan,Lorong buku,"XQ2P+2RM, Buku Tengah, Kec. Belang, Kabupaten Minahasa Tenggara, Sulawesi Utara 95997","Buku Tengah, Kec. Belang, Kabupaten Minahasa Tenggara",SULAWESI UTARA,95997.0,Indonesia,,,,0.9500806,124.7870498,https://maps.google.com/?cid=0x0:0x367a20d9db127da2,
komplek housing,Komplek perumahan,Kel Lekitonu Najoan,"Tababo, Kec. Belang, Kabupaten Minahasa Tenggara, Sulawesi Utara 95997","Kec. Belang, Kabupaten Minahasa Tenggara",SULAWESI UTARA,95997.0,Indonesia,85293624055.0,,,0.9605231,124.7998442,https://maps.google.com/?cid=0x0:0x5e0fae9f777a0fad,
komplek housing,Komplek perumahan,Desa Tababo kec belang,"XQJX+JHM, Tababo, Kec. Belang, Kabupaten Minahasa Tenggara, Sulawesi Utara 95997","Tababo, Kec. Belang, Kabupaten Minahasa Tenggara",SULAWESI UTARA,95997.0,Indonesia,,,,0.9815898,124.7989334,https://maps.google.com/?cid=0x0:0x3cc0fbf0e3203464,
komplek housing,Komplek perumahan,AHT home's,"WQWQ+7HM, Jl. Ratahan - Kotamobagu, Buku, Kec. Belang, Kabupaten Minahasa Tenggara, Sulawesi Utara 95997","Jl. Ratahan - Kotamobagu, Buku, Kec. Belang, Kabupaten Minahasa Tenggara",SULAWESI UTARA,95997.0,Indonesia,,,,0.945715,124.7889154,https://maps.google.com/?cid=0x0:0x3e0c34142b118c3b,
komplek housing,Perumahan,Manampiring - Rorong House's,"XR76+22R, Watuliney, Kec. Belang, Kabupaten Minahasa Tenggara, Sulawesi Utara 95997","Watuliney, Kec. Belang, Kabupaten Minahasa Tenggara",SULAWESI UTARA,95997.0,Indonesia,,,,0.9626134,124.8100288,https://maps.google.com/?cid=0x0:0x2257c4dcb7586dc7,
komplek housing,Pembangunan Perumahan,Beyza Elnara Home,"WQVP+4HC, Ponosakan Belang, Kabupaten Minahasa Tenggara, Sulawesi Utara 95997","Ponosakan Belang, Kabupaten Minahasa Tenggara",SULAWESI UTARA,95997.0,Indonesia,,,,0.9428232,124.7863953,https://maps.google.com/?cid=0x0:0xeb1d23dcface90a3,
komplek housing,Komplek perumahan,3g home,"WQVM+5GV 3G Home, Ponosakan Belang, Kec. Belang, Kabupaten Minahasa Tenggara, Sulawesi Utara 95997","Ponosakan Belang, Kec. Belang, Kabupaten Minahasa Tenggara",SULAWESI UTARA,95997.0,Indonesia,,,,0.9429976,124.7837964,https://maps.google.com/?cid=0x0:0x29b9c92466e0e06f,
komplek housing,Perumahan,Rumah,"XR95+M57, Watuliney, Kec. Belang, Kabupaten Minahasa Tenggara, Sulawesi Utara 95997","Watuliney, Kec. Belang, Kabupaten Minahasa Tenggara",SULAWESI UTARA,95997.0,Indonesia,,,,0.9691562,124.8079067,https://maps.google.com/?cid=0x0:0x88560ecec55709c5,
komplek housing,Hotel,Green New Residence,"Jl. Green New Residence, Kedung Pengawas, Kec. Babelan, Kabupaten Bekasi, Jawa Barat 17610","Kedung Pengawas, Kec. Babelan, Kabupaten Bekasi",SULAWESI UTARA,17610.0,Indonesia,,,,-6.1420364,107.044089,https://maps.google.com/?cid=0x0:0x60e56150de277511,
komplek housing,Dapur Umum,Perumahan Villa Lestari Cikarang,"Jayasampurna, Kec. Serang Baru, Kabupaten Bekasi, Jawa Barat 17330","Kec. Serang Baru, Kabupaten Bekasi",SULAWESI UTARA,17330.0,Indonesia,,,,-6.3961529,107.0718802,https://maps.google.com/?cid=0x0:0x5babfecdabf2b9dd,
komplek housing,Komplek perumahan,Taman Leticia 2 Buni Bakti,"Kedung Pengawas, Kec. Babelan, Kabupaten Bekasi, Jawa Barat","Kabupaten Bekasi, Jawa Barat",SULAWESI UTARA,,Indonesia,,,,-6.1258757,107.0366681,https://maps.google.com/?cid=0x0:0xcfab4090da5d3b64,
komplek housing,Perhimpunan Pengembang Perumahan,Perum Wahana Pondok Gede,"Jl. Raya Mess Al No.8 Blok B, RT.001/RW.001, Jatiranggon, Kec. Jatisampurna, Kota Bks, Jawa Barat 17423","RT.001/RW.001, Jatiranggon, Kec. Jatisampurna, Kota Bks",SULAWESI UTARA,17423.0,Indonesia,,,,-6.347536,106.934252,https://maps.google.com/?cid=0x0:0xafff3ae03122318b,
komplek housing,Pembangunan Perumahan,Perumahan Sahara Indah Permai2,"Perumahan Sahara indah permai blok c7no18, Satriajaya, Kec. Tambun Utara, Kabupaten Bekasi, Jawa Barat 17510","Satriajaya, Kec. Tambun Utara, Kabupaten Bekasi",SULAWESI UTARA,17510.0,Indonesia,218852282.0,,,-6.2130867,107.0502971,https://maps.google.com/?cid=0x0:0x2459d3954c2bd57f,
komplek housing,Komplek perumahan,Perumahan Pondok Permata Cileungsi,"Perumahan Pondok Permata Cileungsi Perumahan Pondok Permata, Bojong, Kec. Cileungsi, Kabupaten Bogor, Jawa Barat 16710","Bojong, Kec. Cileungsi, Kabupaten Bogor",SULAWESI UTARA,16710.0,Indonesia,,,,-6.4401731,107.0237309,https://maps.google.com/?cid=0x0:0xe01a56a7449d1d8c,
komplek housing,Otoritas Perumahan,Perum Villa Gading Harapan 1,"R26F+694, Jl. Sunan Ampel V, Bahagia, Kec. Babelan, Kabupaten Bekasi, Jawa Barat 17610","Jl. Sunan Ampel V, Bahagia, Kec. Babelan, Kabupaten Bekasi",SULAWESI UTARA,17610.0,Indonesia,,,,-6.189493,107.0234626,https://maps.google.com/?cid=0x0:0x8b5ea036b5dd1626,
komplek housing,Perhimpunan Pengembang Perumahan,Wawali pasan,"2QMR+72, Tosuraya Sel., Kec. Ratahan, Kabupaten Minahasa Tenggara, Sulawesi Utara","Kabupaten Minahasa Tenggara, Sulawesi Utara",SULAWESI UTARA,,Indonesia,,,,1.0332161,124.7900768,https://maps.google.com/?cid=0x0:0x22955fcd570b8f75,
komplek housing,Komplek perumahan,home d,"2QWX+P7J, Wawali Pasan, Kec. Ratahan, Kabupaten Minahasa Tenggara, Sulawesi Utara","Kabupaten Minahasa Tenggara, Sulawesi Utara",SULAWESI UTARA,,Indonesia,,,,1.0468494,124.7981562,https://maps.google.com/?cid=0x0:0xd631321af98e8440,
komplek housing,Pembangunan Perumahan,AGRADIYA RESIDENCE,"R395+P59, Jl. Kong Isah, Sriamur, Kec. Tambun Utara, Kabupaten Bekasi, Jawa Barat 17510","Jl. Kong Isah, Sriamur, Kec. Tambun Utara, Kabupaten Bekasi",SULAWESI UTARA,17510.0,Indonesia,,,,-6.1807045,107.0579747,https://maps.google.com/?cid=0x0:0xe8d814b60675ca1c,
komplek housing,Komplek perumahan,Bumi Dirgantara Permai,"RT.009/RW.011, Jatisari, Kec. Jatiasih, Kota Bks, Jawa Barat 17426","Jatisari, Kec. Jatiasih, Kota Bks",SULAWESI UTARA,17426.0,Indonesia,,,,-6.3463327,106.9431248,https://maps.google.com/?cid=0x0:0xf40af7137bfb745c,
komplek housing,komplek housing,Pusomaen,"Kabupaten Minahasa Tenggara, Sulawesi Utara","Kabupaten Minahasa Tenggara, Sulawesi Utara",SULAWESI UTARA,,Indonesia,,,,1.0023906,124.8734523,https://maps.google.com/?cid=0x0:0x51e2c80582c52819,
komplek housing,Pembangunan Perumahan,House of wani,"2V5X+P8Q, Bentenan Indah, Pusomaen, Kabupaten Minahasa Tenggara, Sulawesi Utara 95997","Bentenan Indah, Pusomaen, Kabupaten Minahasa Tenggara",SULAWESI UTARA,95997.0,Indonesia,,,,1.0084489,124.8988001,https://maps.google.com/?cid=0x0:0x9a9d3d8871a78009,
komplek housing,Komplek perumahan,Yong Juro,"XVP8+7X8, Makalu Sel., Pusomaen, Kabupaten Minahasa Tenggara, Sulawesi Utara 95997","Makalu Sel., Pusomaen, Kabupaten Minahasa Tenggara",SULAWESI UTARA,95997.0,Indonesia,,,,0.9857698,124.8668591,https://maps.google.com/?cid=0x0:0x778b7d6a6e210aec,
komplek housing,Komplek perumahan,Perumahan Nelayan Ds. Bentenan Indah,"2V6X+H8F, Perum Nelayan, Bentenan Indah, Pusomaen, Kabupaten Minahasa Tenggara, Sulawesi Utara","Kabupaten Minahasa Tenggara, Sulawesi Utara",SULAWESI UTARA,,Indonesia,,,,1.0114007,124.8983278,https://maps.google.com/?cid=0x0:0xb2c6f6b7d2f0860a,
komplek housing,Komplek perumahan,Citra Audio,"XV93+PR8, Minanga, Pusomaen, Kabupaten Minahasa Tenggara, Sulawesi Utara 95997","Minanga, Pusomaen, Kabupaten Minahasa Tenggara",SULAWESI UTARA,95997.0,Indonesia,82346232356.0,,,0.969287,124.8545846,https://maps.google.com/?cid=0x0:0x2e00c38c6f1968ac,
komplek housing,Komplek perumahan,Fitri Laode Home,"XVCM+QXP, Tumbak Madani, Pusomaen, Kabupaten Minahasa Tenggara, Sulawesi Utara 95997","Tumbak Madani, Pusomaen, Kabupaten Minahasa Tenggara",SULAWESI UTARA,95997.0,Indonesia,,,,0.9719695,124.8849385,https://maps.google.com/?cid=0x0:0x8bee3f8c7d163c27,
komplek housing,Pembangunan Perumahan,Yance,"XVP9+3WR, Tatengesan Satu, Pusomaen, Kabupaten Minahasa Tenggara, Sulawesi Utara 95997","Tatengesan Satu, Pusomaen, Kabupaten Minahasa Tenggara",SULAWESI UTARA,95997.0,Indonesia,,,,0.9852485,124.8697587,https://maps.google.com/?cid=0x0:0x418526a5ac324e5a,
komplek housing,Pembangunan Perumahan,Kel. Kesek-Supit,"XVG2+J6H, Minanga Tim., Pusomaen, Kabupaten Minahasa Tenggara, Sulawesi Utara 95997","Minanga Tim., Pusomaen, Kabupaten Minahasa Tenggara",SULAWESI UTARA,95997.0,Indonesia,,,,0.9765665,124.8514133,https://maps.google.com/?cid=0x0:0x7857ed3a2e3b7f20,
komplek housing,Komplek perumahan,Pakaya Tumbelaka,"2VH4+34H, Makalu, Pusomaen, Kabupaten Minahasa Tenggara, Sulawesi Utara 95997","Makalu, Pusomaen, Kabupaten Minahasa Tenggara",SULAWESI UTARA,95997.0,Indonesia,,,,1.0303751,124.8554755,https://maps.google.com/?cid=0x0:0x6cdd5e6c17cec4f6,
komplek housing,Komplek perumahan,Andre HomeMitra,"XVQ9+65W, Makalu, Pusomaen, Kabupaten Minahasa Tenggara, Sulawesi Utara 95997","Makalu, Pusomaen, Kabupaten Minahasa Tenggara",SULAWESI UTARA,95997.0,Indonesia,,,,0.988104,124.867943,https://maps.google.com/?cid=0x0:0xa60b937d9c069072,
komplek housing,Komplek perumahan,Amora Home,"2VWF+QWH, Wiau, Pusomaen, Kabupaten Minahasa Tenggara, Sulawesi Utara 95997","Wiau, Pusomaen, Kabupaten Minahasa Tenggara",SULAWESI UTARA,95997.0,Indonesia,,,,1.0469422,124.8748673,https://maps.google.com/?cid=0x0:0x494f51f8a7f883b2,
komplek housing,Komplek perumahan,BelShop,"3V5J+7CF, Wiau, Pusomaen, Kabupaten Minahasa Tenggara, Sulawesi Utara 95997","Wiau, Pusomaen, Kabupaten Minahasa Tenggara",SULAWESI UTARA,95997.0,Indonesia,,,,1.0581793,124.8810326,https://maps.google.com/?cid=0x0:0xb916730f5f5b80de,
komplek housing,Perhimpunan Pengembang Perumahan,Minanga LORONG MAUT kec.pusomaen,"XRHX+3MG, Minanga, Pusomaen, Kabupaten Minahasa Tenggara, Sulawesi Utara 95997","Minanga, Pusomaen, Kabupaten Minahasa Tenggara",SULAWESI UTARA,95997.0,Indonesia,,,,0.9776813,124.8492154,https://maps.google.com/?cid=0x0:0x909699fa29d3871,
komplek housing,komplek housing,NAYLA HOME,"XVFP+7J7, Tumbak, Pusomaen, Kabupaten Minahasa Tenggara, Sulawesi Utara 95997","Tumbak, Pusomaen, Kabupaten Minahasa Tenggara",SULAWESI UTARA,95997.0,Indonesia,,,,0.9731561,124.8865554,https://maps.google.com/?cid=0x0:0x7854bb4e36ee6149,
komplek housing,Komplek perumahan,Rumah,"XVG2+5C2, Minanga Satu, Pusomaen, Kabupaten Minahasa Tenggara, Sulawesi Utara 95997","Minanga Satu, Pusomaen, Kabupaten Minahasa Tenggara",SULAWESI UTARA,95997.0,Indonesia,,,,0.9753875,124.8510156,https://maps.google.com/?cid=0x0:0xf76992806fd44e7e,
komplek housing,Perhimpunan Pengembang Perumahan,Pipit Home's,"XVGP+6JM, Unnamed Road, Tumbak, Pusomaen, Kabupaten Minahasa Tenggara, Sulawesi Utara 95997","Unnamed Road, Tumbak, Pusomaen, Kabupaten Minahasa Tenggara",SULAWESI UTARA,95997.0,Indonesia,,,,0.975598,124.886562,https://maps.google.com/?cid=0x0:0xacb8b7df56b231fc,
komplek housing,Komplek perumahan,Sumual Lalu,"3V5J+CG2, Palamba, Pusomaen, Kabupaten Minahasa, Sulawesi Utara","Kabupaten Minahasa, Sulawesi Utara",SULAWESI UTARA,,Indonesia,,,,1.0585225,124.8812626,https://maps.google.com/?cid=0x0:0xb705b65408748311,
komplek housing,Pembangunan Perumahan,Tempat elite cs,"XVFP+7J7, Tumbak, Pusomaen, Kabupaten Minahasa Tenggara, Sulawesi Utara 95997","Tumbak, Pusomaen, Kabupaten Minahasa Tenggara",SULAWESI UTARA,95997.0,Indonesia,,,,0.9731561,124.8865554,https://maps.google.com/?cid=0x0:0x2da6f9f2070bcd79,
komplek housing,Pembangunan Perumahan,Matey Gijoh,"2V4R+9C9, Bentenan, Pusomaen, Kabupaten Minahasa Tenggara, Sulawesi Utara 95997","Bentenan, Pusomaen, Kabupaten Minahasa Tenggara",SULAWESI UTARA,95997.0,Indonesia,,,,1.005995,124.8911049,https://maps.google.com/?cid=0x0:0xbda01a1202ee3d9e,
komplek housing,Pembangunan Perumahan,rumah youdy,"2V3R+V9Q, Bentenan, Pusomaen, Kabupaten Minahasa Tenggara, Sulawesi Utara 95997","Bentenan, Pusomaen, Kabupaten Minahasa Tenggara",SULAWESI UTARA,95997.0,Indonesia,,,,1.0047241,124.8909723,https://maps.google.com/?cid=0x0:0x97d5eaef12c4cd48,
komplek housing,Kantor Pemerintah,Desa Minanga,"XRGX+9VH, Minanga Dua, Pusomaen, Kabupaten Minahasa Tenggara, Sulawesi Utara","Kabupaten Minahasa Tenggara, Sulawesi Utara",SULAWESI UTARA,,Indonesia,,,,0.9759386,124.84975,https://maps.google.com/?cid=0x0:0x9c4830336ea5c7b6,
komplek housing,Gedung Apartemen,Keluarga Pontororing - Lowongan,"2V5R+482, Bentenan, Pusomaen, Kabupaten Minahasa Tenggara, Sulawesi Utara 95997","Bentenan, Pusomaen, Kabupaten Minahasa Tenggara",SULAWESI UTARA,95997.0,Indonesia,,,,1.007774,124.8907723,https://maps.google.com/?cid=0x0:0x311f7eb695b46024,
komplek housing,Komplek perumahan,Hert Sumual,"3V5J+G85, Jaga 3, Palamba, Pusomaen, Kabupaten Minahasa, Sulawesi Utara","Kabupaten Minahasa, Sulawesi Utara",SULAWESI UTARA,,Indonesia,,,,1.0587699,124.8808643,https://maps.google.com/?cid=0x0:0x8b0fad01fe017fc4,
komplek housing,komplek housing,Rumah Arun,"XVCP+W3Q, Tumbak, Pusomaen, Kabupaten Minahasa Tenggara, Sulawesi Utara 95997","Tumbak, Pusomaen, Kabupaten Minahasa Tenggara",SULAWESI UTARA,95997.0,Indonesia,,,,0.9723433,124.8852413,https://maps.google.com/?cid=0x0:0xaac09a3c951cd7ab,
komplek housing,Komplek perumahan,Rumah Ekel,"XVM9+WFG, Tatengesan, Pusomaen, Kabupaten Minahasa Tenggara, Sulawesi Utara 95997","Tatengesan, Pusomaen, Kabupaten Minahasa Tenggara",SULAWESI UTARA,95997.0,Indonesia,,,,0.9848209,124.8686974,https://maps.google.com/?cid=0x0:0xfa92f50f8bd80a6d,
komplek housing,Komplek perumahan,Yeriko Sedeng Home,"XR68+2RG, Jl. Puskesmas, Molompar Utara, Kec. Belang, Kabupaten Minahasa Tenggara, Sulawesi Utara 95997","Jl. Puskesmas, Molompar Utara, Kec. Belang, Kabupaten Minahasa Tenggara",SULAWESI UTARA,95997.0,Indonesia,,,,0.9600719,124.8170642,https://maps.google.com/?cid=0x0:0x594f93f57b155b3a,
komplek housing,Komplek perumahan,Rumah Ilam,"XVFP+278, Tumbak Madani, Pusomaen, Kabupaten Minahasa Tenggara, Sulawesi Utara 95997","Tumbak Madani, Pusomaen, Kabupaten Minahasa Tenggara",SULAWESI UTARA,95997.0,Indonesia,,,,0.9724955,124.8851947,https://maps.google.com/?cid=0x0:0xf6779bee13456980,
komplek housing,Pembangunan Perumahan,Jalan Raya Ratahan Rasi Desa Tosuraya Ratahan,"Rasi Desa tosuraya, Jl. Raya Langowan - Ratahan, Pangu Satu, Kec. Ratahan Tim., Kabupaten Minahasa Tenggara, Sulawesi Utara","Kabupaten Minahasa Tenggara, Sulawesi Utara",SULAWESI UTARA,,Indonesia,,,,1.1015501,124.8119806,https://maps.google.com/?cid=0x0:0x3ed62710c760ccbe,
komplek housing,Pembangunan Perumahan,Ratahan,"3R42+4MM, Tosuraya, Kec. Ratahan, Kabupaten Minahasa Tenggara, Sulawesi Utara","Kabupaten Minahasa Tenggara, Sulawesi Utara",SULAWESI UTARA,,Indonesia,,,,1.0553393,124.8016565,https://maps.google.com/?cid=0x0:0xa38c7340a0ca7762,
komplek housing,komplek housing,Ratahan,"Tosuraya, Kec. Ratahan, Kabupaten Minahasa Tenggara, Sulawesi Utara","Kabupaten Minahasa Tenggara, Sulawesi Utara",SULAWESI UTARA,,Indonesia,,,,1.052761,124.802101,https://maps.google.com/?cid=0x0:0x7c6adb8240ffb5d8,
komplek housing,Pembangunan Perumahan,Jalan Raya Ratahan Rasi Desa Tosuraya Ratahan,"Rasi Desa tosuraya, Jl. Raya Langowan - Ratahan, Pangu Satu, Kec. Ratahan Tim., Kabupaten Minahasa Tenggara, Sulawesi Utara","Kabupaten Minahasa Tenggara, Sulawesi Utara",SULAWESI UTARA,,Indonesia,,,,1.1015501,124.8119806,https://maps.google.com/?cid=0x0:0x3ed62710c760ccbe,
komplek housing,Pembangunan Perumahan,Ratahan,"3R42+4MM, Tosuraya, Kec. Ratahan, Kabupaten Minahasa Tenggara, Sulawesi Utara","Kabupaten Minahasa Tenggara, Sulawesi Utara",SULAWESI UTARA,,Indonesia,,,,1.0553393,124.8016565,https://maps.google.com/?cid=0x0:0xa38c7340a0ca7762,
komplek housing,komplek housing,Kec. Ratahan Tim.,"Kabupaten Minahasa Tenggara, Sulawesi Utara","Kabupaten Minahasa Tenggara, Sulawesi Utara",SULAWESI UTARA,,Indonesia,,,,1.0937692,124.815983,https://maps.google.com/?cid=0x0:0x26a0154fbfe940e4,
komplek housing,Komplek perumahan,MyHome Taueh,"3RF6+C7H, Nataan, Kec. Ratahan, Kabupaten Minahasa Tenggara, Sulawesi Utara","Kabupaten Minahasa Tenggara, Sulawesi Utara",SULAWESI UTARA,,Indonesia,,,,1.0735582,124.8107479,https://maps.google.com/?cid=0x0:0x306ef5d494b57348,
komplek housing,Komplek perumahan,Depot raihan,"XQ8X+GX4, Tababo, Kec. Belang, Kabupaten Minahasa Tenggara, Sulawesi Utara 95997","Tababo, Kec. Belang, Kabupaten Minahasa Tenggara",SULAWESI UTARA,95997.0,Indonesia,,,,0.9662632,124.799941,https://maps.google.com/?cid=0x0:0x4ddf6ea79f1bdd8a,
komplek housing,komplek housing,Kec. Ratatotok,"Kabupaten Minahasa Tenggara, Sulawesi Utara","Kabupaten Minahasa Tenggara, Sulawesi Utara",SULAWESI UTARA,,Indonesia,,,,0.8739142,124.7003929,https://maps.google.com/?cid=0x0:0xfad043f7df9d10da,
komplek housing,Komplek perumahan,Rakansya home,"Rakansya Home, Ratatotok Satu, Kec. Ratatotok, Kabupaten Minahasa Tenggara, Sulawesi Utara 95997","Ratatotok Satu, Kec. Ratatotok, Kabupaten Minahasa Tenggara",SULAWESI UTARA,95997.0,Indonesia,,,,0.878029,124.7017979,https://maps.google.com/?cid=0x0:0x5608bfddd0d0374c,
komplek housing,Komplek perumahan,Rumah Kepala Urusan Umum Ratatotok Muara,"Desa No.2, RW.2, Ratatotok Muara, Ratatotok, Southeast Minahasa Regency, North Sulawesi 95997","RW.2, Ratatotok Muara, Ratatotok, Southeast Minahasa Regency",SULAWESI UTARA,95997.0,Indonesia,,,,0.8679291,124.70831,https://maps.google.com/?cid=0x0:0x5a061130fc59f744,
komplek housing,Rumah Mahyong,Rumah kepala Jaga lll,"VP85+VPR, Jl. Boulevard, Ratatotok Muara, Kec. Ratatotok, Kabupaten Minahasa Tenggara, Sulawesi Utara 95997","Jl. Boulevard, Ratatotok Muara, Kec. Ratatotok, Kabupaten Minahasa Tenggara",SULAWESI UTARA,95997.0,Indonesia,,,,0.8672272,124.7092792,https://maps.google.com/?cid=0x0:0x1e52609d9d91beee,
komplek housing,Komplek perumahan,Lavenia Home,"RPW2+PJG, Kec. Ratatotok, Kabupaten Minahasa Tenggara, Sulawesi Utara 95997","Kec. Ratatotok, Kabupaten Minahasa Tenggara",SULAWESI UTARA,95997.0,Indonesia,,,,0.8463215,124.7002597,https://maps.google.com/?cid=0x0:0x523c435ff2a93e44,
komplek housing,Pembangunan Perumahan,Minahasa tenggara,"VPF2+H5J, Ratatotok Satu, Kec. Ratatotok, Kabupaten Minahasa Tenggara, Sulawesi Utara 95997","Ratatotok Satu, Kec. Ratatotok, Kabupaten Minahasa Tenggara",SULAWESI UTARA,95997.0,Indonesia,,,,0.8739692,124.7003863,https://maps.google.com/?cid=0x0:0x43d26703b40a948d,
komplek housing,Komplek perumahan,Home Siswanto,"VPF2+GM6, Ratatotok Tengah, Kec. Ratatotok, Kabupaten Minahasa Tenggara, Sulawesi Utara 95997","Ratatotok Tengah, Kec. Ratatotok, Kabupaten Minahasa Tenggara",SULAWESI UTARA,95997.0,Indonesia,,,,0.8736451,124.7018171,https://maps.google.com/?cid=0x0:0x9896de0fc3f18af6,
komplek housing,Komplek perumahan,The Mans' House,"VPG2+5Q6, Jl. Pemuda, Ratatotok Satu, Kec. Ratatotok, Kabupaten Minahasa Tenggara, Sulawesi Utara 95997","Jl. Pemuda, Ratatotok Satu, Kec. Ratatotok, Kabupaten Minahasa Tenggara",SULAWESI UTARA,95997.0,Indonesia,,,,0.8754203,124.7018922,https://maps.google.com/?cid=0x0:0xb4fac7577fd86faa,
komplek housing,Komplek perumahan,kasih home,"VMGX+4GW, Ratatotok Satu, Kec. Ratatotok, Kabupaten Minahasa Tenggara, Sulawesi Utara 95997","Ratatotok Satu, Kec. Ratatotok, Kabupaten Minahasa Tenggara",SULAWESI UTARA,95997.0,Indonesia,,,,0.8753729,124.6988197,https://maps.google.com/?cid=0x0:0x2da0589cd615088c,
komplek housing,Komplek perumahan,Myhome,"VMHX+2WJ, Ratatotok Utara, Kec. Ratatotok, Kabupaten Minahasa Tenggara, Sulawesi Utara 95997","Ratatotok Utara, Kec. Ratatotok, Kabupaten Minahasa Tenggara",SULAWESI UTARA,95997.0,Indonesia,,,,0.8775751,124.6997773,https://maps.google.com/?cid=0x0:0xa48a988758eb6f1a,
komplek housing,Kantor Pemerintah,Hukum Tua,"VP85+PFM, Ratatotok Tim., Kec. Ratatotok, Kabupaten Minahasa Tenggara, Sulawesi Utara 95997","Ratatotok Tim., Kec. Ratatotok, Kabupaten Minahasa Tenggara",SULAWESI UTARA,95997.0,Indonesia,,,,0.8666524,124.7085266,https://maps.google.com/?cid=0x0:0x3518792f85d1f59e,
komplek housing,Komplek perumahan,rendi husa home,"VP85+R8C, Ratatotok Dua, Kec. Ratatotok, Kabupaten Minahasa Tenggara, Sulawesi Utara 95997","Ratatotok Dua, Kec. Ratatotok, Kabupaten Minahasa Tenggara",SULAWESI UTARA,95997.0,Indonesia,,,,0.8670462,124.7082844,https://maps.google.com/?cid=0x0:0x71bd49ee461209a3,
komplek housing,komplek housing,Kost Panggung tingkat,"VMCX+4VX, Ratatotok, Kec. Ratatotok, Kabupaten Minahasa Tenggara, Sulawesi Utara 95997","Ratatotok, Kec. Ratatotok, Kabupaten Minahasa Tenggara",SULAWESI UTARA,95997.0,Indonesia,,,,0.8703743,124.6997362,https://maps.google.com/?cid=0x0:0x77cc1ada4a28614c,
komplek housing,Komplek perumahan,Jk HOME,"VPG2+8RX, Jl. Pemuda, Ratatotok Satu, Kec. Ratatotok, Kabupaten Minahasa Tenggara, Sulawesi Utara 95997","Jl. Pemuda, Ratatotok Satu, Kec. Ratatotok, Kabupaten Minahasa Tenggara",SULAWESI UTARA,95997.0,Indonesia,,,,0.8758611,124.7021208,https://maps.google.com/?cid=0x0:0x2ed42cdf41c1d0bb,
komplek housing,Komplek perumahan,Oma Buang's House,"VPG2+7QM, Jl. Pemuda, Ratatotok Satu, Kec. Ratatotok, Kabupaten Minahasa Tenggara, Sulawesi Utara 95997","Jl. Pemuda, Ratatotok Satu, Kec. Ratatotok, Kabupaten Minahasa Tenggara",SULAWESI UTARA,95997.0,Indonesia,,,,0.8757205,124.7019283,https://maps.google.com/?cid=0x0:0x6059632e18b2b738,
komplek housing,Pembangunan Perumahan,Ronald Rumagit,"VPC2+2FF, Ratatotok, Kec. Ratatotok, Kabupaten Minahasa Tenggara, Sulawesi Utara","Kabupaten Minahasa Tenggara, Sulawesi Utara",SULAWESI UTARA,,Indonesia,,,,0.8700708,124.7011747,https://maps.google.com/?cid=0x0:0x881aa77bbf5d36ea,
komplek housing,Pembangunan Perumahan,Hizkia Poluakan,"WMJX+6F7, Moreah, Kec. Ratatotok, Kabupaten Minahasa Tenggara, Sulawesi Utara 95997","Moreah, Kec. Ratatotok, Kabupaten Minahasa Tenggara",SULAWESI UTARA,95997.0,Indonesia,,,,0.930352,124.6982256,https://maps.google.com/?cid=0x0:0xbe5266152802fddf,
komplek housing,Komplek perumahan,Christ Home,"VMJM+956, Ratatotok, Kec. Ratatotok, Kabupaten Minahasa Tenggara, Sulawesi Utara 95997","Ratatotok, Kec. Ratatotok, Kabupaten Minahasa Tenggara",SULAWESI UTARA,95997.0,Indonesia,,,,0.8809198,124.6828943,https://maps.google.com/?cid=0x0:0x16d62b3905252afd,
komplek housing,Komplek perumahan,Rembet house,"VMGX+4H7, Ratatotok Satu, Kec. Ratatotok, Kabupaten Minahasa Tenggara, Sulawesi Utara 95997","Ratatotok Satu, Kec. Ratatotok, Kabupaten Minahasa Tenggara",SULAWESI UTARA,95997.0,Indonesia,,,,0.8752875,124.6989219,https://maps.google.com/?cid=0x0:0xb3aac3840dd97c92,
komplek housing,Komplek perumahan,Gloria Porayow Houses,"VMFV+HRP, Ratatotok Sel., Kec. Ratatotok, Kabupaten Minahasa Tenggara, Sulawesi Utara 95997","Ratatotok Sel., Kec. Ratatotok, Kabupaten Minahasa Tenggara",SULAWESI UTARA,95997.0,Indonesia,,,,0.8739609,124.6945845,https://maps.google.com/?cid=0x0:0x18b9e011dbb73c95,
komplek housing,Komplek perumahan,Kel. Randang Lantong,"VPG2+RMW, Ratatotok Utara, Kec. Ratatotok, Kabupaten Minahasa Tenggara, Sulawesi Utara","Kabupaten Minahasa Tenggara, Sulawesi Utara",SULAWESI UTARA,,Indonesia,,,,0.8777362,124.7019527,https://maps.google.com/?cid=0x0:0x7d246f8c3f1da7a7,
komplek housing,Pembangunan Perumahan,Mitchel Laleda,"VMFV+MCM, Ratatotok Tenggara, Kec. Ratatotok, Kabupaten Minahasa Tenggara, Sulawesi Utara 95997","Ratatotok Tenggara, Kec. Ratatotok, Kabupaten Minahasa Tenggara",SULAWESI UTARA,95997.0,Indonesia,,,,0.8732024,124.6937302,https://maps.google.com/?cid=0x0:0x672e75a0ee667107,
komplek housing,Pembangunan Perumahan,Jeldry. Korua-Tulung,"VPC2+759, Ratatotok, Kec. Ratatotok, Kabupaten Minahasa Tenggara, Sulawesi Utara 95997","Ratatotok, Kec. Ratatotok, Kabupaten Minahasa Tenggara",SULAWESI UTARA,95997.0,Indonesia,,,,0.8706538,124.7004954,https://maps.google.com/?cid=0x0:0x94f9a5869515d9b2,
komplek housing,Pembangunan Perumahan,Ratatotok lorong STAR KILLER,"VPG2+PHF, Ratatotok Satu, Kec. Ratatotok, Kabupaten Minahasa Tenggara, Sulawesi Utara 95997","Ratatotok Satu, Kec. Ratatotok, Kabupaten Minahasa Tenggara",SULAWESI UTARA,95997.0,Indonesia,85394114925.0,,,0.8768126,124.7014218,https://maps.google.com/?cid=0x0:0x65f2037f414474c,
komplek housing,komplek housing,Kec. Silian Raya,"Kabupaten Minahasa Tenggara, Sulawesi Utara","Kabupaten Minahasa Tenggara, Sulawesi Utara",SULAWESI UTARA,,Indonesia,,,,1.0607028,124.6706139,https://maps.google.com/?cid=0x0:0xc85569b0227031a5,
komplek housing,Pembangunan Perumahan,Silian,"3MC2+HC8, Silian Tiga, Kec. Silian Raya, Kabupaten Minahasa Tenggara, Sulawesi Utara","Kabupaten Minahasa Tenggara, Sulawesi Utara",SULAWESI UTARA,,Indonesia,,,,1.0714093,124.651084,https://maps.google.com/?cid=0x0:0x62406aacbd0262d,
komplek housing,Komplek perumahan,Silian tengah,"3M78+RHV, Silian Kota, Kec. Silian Raya, Kabupaten Minahasa Tenggara, Sulawesi Utara","Kabupaten Minahasa Tenggara, Sulawesi Utara",SULAWESI UTARA,,Indonesia,,,,1.0646665,124.6663491,https://maps.google.com/?cid=0x0:0xd9f23653f2301cf3,
komplek housing,Pembangunan Perumahan,Silian satu,"3M6C+66H, Silian Sel., Kec. Silian Raya, Kabupaten Minahasa Tenggara, Sulawesi Utara","Kabupaten Minahasa Tenggara, Sulawesi Utara",SULAWESI UTARA,,Indonesia,,,,1.0605697,124.6706031,https://maps.google.com/?cid=0x0:0xa03bf6bc6f0ab1c,
komplek housing,komplek housing,Kec. Tombatu,"Kabupaten Minahasa Tenggara, Sulawesi Utara","Kabupaten Minahasa Tenggara, Sulawesi Utara",SULAWESI UTARA,,Indonesia,,,,1.0392874,124.6821911,https://maps.google.com/?cid=0x0:0x15df6048da14c99b,
komplek housing,Pembangunan Perumahan,KEJoRA fam's,"Jl keletambal No.3, Tombatu, Kec. Tombatu, Kabupaten Minahasa Tenggara, Sulawesi Utara 95996","Tombatu, Kec. Tombatu, Kabupaten Minahasa Tenggara",SULAWESI UTARA,95996.0,Indonesia,,,,1.0301126,124.6860108,https://maps.google.com/?cid=0x0:0xacfea59ec788d51c,
komplek housing,Komplek perumahan,Rumah,"2MXH+467, Tombatu Dua Tengah, Kec. Tombatu Utara, Kabupaten Minahasa Tenggara, Sulawesi Utara","Kabupaten Minahasa Tenggara, Sulawesi Utara",SULAWESI UTARA,,Indonesia,,,,1.0477938,124.6780474,https://maps.google.com/?cid=0x0:0x8a6ee90c974bed05,
komplek housing,komplek housing,"jual beli, sewa property","Cluster Stanley Grande, Jalan Raffles Hills Boulevard No.18 Blk. P2, Sukatani, Kec. Tapos, Kota Depok, Jawa Barat 16454","Jalan Raffles Hills Boulevard No.18 Blk. P2, Sukatani, Kec. Tapos, Kota Depok",SULAWESI UTARA,16454.0,Indonesia,,,,-6.3997149,106.8861925,https://maps.google.com/?cid=0x0:0x1a7a532f665c3998,
komplek housing,komplek housing,Kec. Tombatu Tim.,"Kabupaten Minahasa Tenggara, Sulawesi Utara","Kabupaten Minahasa Tenggara, Sulawesi Utara",SULAWESI UTARA,,Indonesia,,,,1.0260417,124.7260931,https://maps.google.com/?cid=0x0:0xc4583ba933d210d3,
komplek housing,Pembangunan Perumahan,KEJoRA fam's,"Jl keletambal No.3, Tombatu, Kec. Tombatu, Kabupaten Minahasa Tenggara, Sulawesi Utara 95996","Tombatu, Kec. Tombatu, Kabupaten Minahasa Tenggara",SULAWESI UTARA,95996.0,Indonesia,,,,1.0301126,124.6860108,https://maps.google.com/?cid=0x0:0xacfea59ec788d51c,
komplek housing,Komplek perumahan,Jaga Satu,"2P98+F45, Esandom Satu, Kec. Tombatu Tim., Kabupaten Minahasa Tenggara, Sulawesi Utara","Kabupaten Minahasa Tenggara, Sulawesi Utara",SULAWESI UTARA,,Indonesia,,,,1.0186437,124.7153675,https://maps.google.com/?cid=0x0:0x4608765e3e65074d,
komplek housing,komplek housing,Tombatu timur,"2PGG+CC3, Molompar Dua Sel., Kec. Tombatu Tim., Kabupaten Minahasa Tenggara, Sulawesi Utara","Kabupaten Minahasa Tenggara, Sulawesi Utara",SULAWESI UTARA,,Indonesia,,,,1.0260171,124.7260503,https://maps.google.com/?cid=0x0:0xf8d31392a556208d,
komplek housing,Komplek perumahan,Rumah,"2MXH+467, Tombatu Dua Tengah, Kec. Tombatu Utara, Kabupaten Minahasa Tenggara, Sulawesi Utara","Kabupaten Minahasa Tenggara, Sulawesi Utara",SULAWESI UTARA,,Indonesia,,,,1.0477938,124.6780474,https://maps.google.com/?cid=0x0:0x8a6ee90c974bed05,
komplek housing,komplek housing,Kec. Tombatu Utara,"Kabupaten Minahasa Tenggara, Sulawesi Utara","Kabupaten Minahasa Tenggara, Sulawesi Utara",SULAWESI UTARA,,Indonesia,,,,1.0435986,124.6869059,https://maps.google.com/?cid=0x0:0x3786e15772770449,
komplek housing,Pembangunan Perumahan,KEJoRA fam's,"Jl keletambal No.3, Tombatu, Kec. Tombatu, Kabupaten Minahasa Tenggara, Sulawesi Utara 95996","Tombatu, Kec. Tombatu, Kabupaten Minahasa Tenggara",SULAWESI UTARA,95996.0,Indonesia,,,,1.0301126,124.6860108,https://maps.google.com/?cid=0x0:0xacfea59ec788d51c,
komplek housing,Komplek perumahan,Rumah,"2MXH+467, Tombatu Dua Tengah, Kec. Tombatu Utara, Kabupaten Minahasa Tenggara, Sulawesi Utara","Kabupaten Minahasa Tenggara, Sulawesi Utara",SULAWESI UTARA,,Indonesia,,,,1.0477938,124.6780474,https://maps.google.com/?cid=0x0:0x8a6ee90c974bed05,
komplek housing,Pembangunan Perumahan,Home,"2PGR+58F, Tolombukan Satu, Kec. Pasan, Kabupaten Minahasa Tenggara, Sulawesi Utara","Kabupaten Minahasa Tenggara, Sulawesi Utara",SULAWESI UTARA,,Indonesia,,,,1.0250715,124.740698,https://maps.google.com/?cid=0x0:0xb2e6300c2b0cc388,
komplek housing,Komplek perumahan,Lily home,"2PFV+R74, Tolombukan Satu, Kec. Pasan, Kabupaten Minahasa Tenggara, Sulawesi Utara","Kabupaten Minahasa Tenggara, Sulawesi Utara",SULAWESI UTARA,,Indonesia,,,,1.0248342,124.7434268,https://maps.google.com/?cid=0x0:0x587e0e21f5f192b7,
komplek housing,komplek housing,Kec. Touluaan,"Kabupaten Minahasa Tenggara, Sulawesi Utara","Kabupaten Minahasa Tenggara, Sulawesi Utara",SULAWESI UTARA,,Indonesia,,,,1.0561242,124.6513459,https://maps.google.com/?cid=0x0:0xb9e36ebc0d0281f7,
komplek housing,komplek housing,"_GM-aKGmLKCQnesPloOCyAY-,null,null,1,null,""https://www.google.com/maps/preview/place/./@-2.44565,117.8888,3986a,13.1y/datau003d!4m2!3m1!1s0x3287a7e7850eb973:0x22f62f057f12efb""",,,SULAWESI UTARA,,Indonesia,,,,-2.44565,117.8888,https://maps.google.com/?cid=0x0:0x22f62f057f12efb,
komplek housing,komplek housing,Kec. Touluaan Sel.,"Kabupaten Minahasa Tenggara, Sulawesi Utara","Kabupaten Minahasa Tenggara, Sulawesi Utara",SULAWESI UTARA,,Indonesia,,,,1.0264722,124.5859669,https://maps.google.com/?cid=0x0:0xe1cb2698c83351a2,
komplek housing,Pembangunan Perumahan,Home,"2PGR+58F, Tolombukan Satu, Kec. Pasan, Kabupaten Minahasa Tenggara, Sulawesi Utara","Kabupaten Minahasa Tenggara, Sulawesi Utara",SULAWESI UTARA,,Indonesia,,,,1.0250715,124.740698,https://maps.google.com/?cid=0x0:0xb2e6300c2b0cc388,
komplek housing,Komplek perumahan,Lily home,"2PFV+R74, Tolombukan Satu, Kec. Pasan, Kabupaten Minahasa Tenggara, Sulawesi Utara","Kabupaten Minahasa Tenggara, Sulawesi Utara",SULAWESI UTARA,,Indonesia,,,,1.0248342,124.7434268,https://maps.google.com/?cid=0x0:0x587e0e21f5f192b7,
perumahan,Kantor Perusahaan,Belang,"WQWQ+PWM, Jl. Ratahan - Kotamobagu, Buku, Kec. Belang, Kabupaten Minahasa Tenggara, Sulawesi Utara 95997","Jl. Ratahan - Kotamobagu, Buku, Kec. Belang, Kabupaten Minahasa Tenggara",SULAWESI UTARA,95997.0,Indonesia,,,,0.946831,124.7898033,https://maps.google.com/?cid=0x0:0x123aacb38355e08c,
perumahan,Kantor Pemerintah,Kantor Desa Belang,"WQVP+P4H, Unnamed Road, Belang, Kec. Belang, Kabupaten Minahasa Tenggara, Sulawesi Utara","Kabupaten Minahasa Tenggara, Sulawesi Utara",SULAWESI UTARA,,Indonesia,,,,0.9443022,124.7853723,https://maps.google.com/?cid=0x0:0xbea2d20c0bc8b756,
perumahan,Bengkel Sepeda Motor,Toko ACC Sukucadang Otomotif,"WQXV+P2C, Buku Tenggara, Kec. Belang, Kabupaten Minahasa Tenggara, Sulawesi Utara 95992","Buku Tenggara, Kec. Belang, Kabupaten Minahasa Tenggara",SULAWESI UTARA,95992.0,Indonesia,,,,0.9493171,124.7925059,https://maps.google.com/?cid=0x0:0xa8fc4092d790df39,
perumahan,Kantor Perusahaan,Desa Belang Kec. Belang,"WQVP+P4H, Belang, Kec. Belang, Kabupaten Minahasa Tenggara, Sulawesi Utara","Kabupaten Minahasa Tenggara, Sulawesi Utara",SULAWESI UTARA,,Indonesia,,,,0.9443101,124.7853766,https://maps.google.com/?cid=0x0:0xe978a2f36434759e,
perumahan,perumahan,KELUARGA TOLAS-UMAR,"WQWQ+QJ8, Jaga Iv, desa buku, Kec. Belang, Kabupaten Minahasa Tenggara, Sulawesi Utara 95997","Jaga Iv, desa buku, Kec. Belang, Kabupaten Minahasa Tenggara",SULAWESI UTARA,95997.0,Indonesia,,,,0.9469123,124.7890765,https://maps.google.com/?cid=0x0:0xda73f4ae789be4d0,
perumahan,Motel,Rumah kost belang,"WQXR+V6P, Buku Tenggara, Kec. Belang, Kabupaten Minahasa Tenggara, Sulawesi Utara 95997","Buku Tenggara, Kec. Belang, Kabupaten Minahasa Tenggara",SULAWESI UTARA,95997.0,Indonesia,,,,0.9497236,124.7905897,https://maps.google.com/?cid=0x0:0xfce755d35c31a079,
perumahan,Komplek perumahan,Ya,"WQWR+VV6, Buku Tenggara, Kec. Belang, Kabupaten Minahasa Tenggara, Sulawesi Utara 95997","Buku Tenggara, Kec. Belang, Kabupaten Minahasa Tenggara",SULAWESI UTARA,95997.0,Indonesia,,,,0.946897,124.7918622,https://maps.google.com/?cid=0x0:0x9e5e03ff68a07461,
perumahan,Komplek perumahan,Rumah Sangeroki Rorong,"XR66+RH5, Watuliney Tengah, Kec. Belang, Kabupaten Minahasa Tenggara, Sulawesi Utara 95997","Watuliney Tengah, Kec. Belang, Kabupaten Minahasa Tenggara",SULAWESI UTARA,95997.0,Indonesia,,,,0.9624162,124.8117363,https://maps.google.com/?cid=0x0:0xb048469ad9b5194f,
perumahan,Komplek perumahan,Rumah DavinDieva,"XR82+854, Tababo Sel., Kec. Belang, Kabupaten Minahasa Tenggara, Sulawesi Utara 95997","Tababo Sel., Kec. Belang, Kabupaten Minahasa Tenggara",SULAWESI UTARA,95997.0,Indonesia,,,,0.9657648,124.8004382,https://maps.google.com/?cid=0x0:0xb2f912b99f37b4a9,
perumahan,Gedung Apartemen,Iyan,"XR66+G89, Watuliney Tengah, Kec. Belang, Kabupaten Minahasa Tenggara, Sulawesi Utara 95997","Watuliney Tengah, Kec. Belang, Kabupaten Minahasa Tenggara",SULAWESI UTARA,95997.0,Indonesia,,,,0.961397,124.811289,https://maps.google.com/?cid=0x0:0x92de2c8fa22825d2,
perumahan,Balai masyarakat,Tababo Minahasa Tenggara,"XQ8X+FJH, Tababo, Kec. Belang, Kabupaten Minahasa Tenggara, Sulawesi Utara 95997","Tababo, Kec. Belang, Kabupaten Minahasa Tenggara",SULAWESI UTARA,95997.0,Indonesia,,,,0.9661776,124.7991138,https://maps.google.com/?cid=0x0:0x4d6e2470c93a070f,
perumahan,Komplek perumahan,Yeriko Sedeng Home,"XR68+2RG, Jl. Puskesmas, Molompar Utara, Kec. Belang, Kabupaten Minahasa Tenggara, Sulawesi Utara 95997","Jl. Puskesmas, Molompar Utara, Kec. Belang, Kabupaten Minahasa Tenggara",SULAWESI UTARA,95997.0,Indonesia,,,,0.9600719,124.8170642,https://maps.google.com/?cid=0x0:0x594f93f57b155b3a,
perumahan,Perumahan,Rumah,"XR95+M57, Watuliney, Kec. Belang, Kabupaten Minahasa Tenggara, Sulawesi Utara 95997","Watuliney, Kec. Belang, Kabupaten Minahasa Tenggara",SULAWESI UTARA,95997.0,Indonesia,,,,0.9691562,124.8079067,https://maps.google.com/?cid=0x0:0x88560ecec55709c5,
perumahan,Komplek perumahan,Desa Tababo kec belang,"XQJX+JHM, Tababo, Kec. Belang, Kabupaten Minahasa Tenggara, Sulawesi Utara 95997","Tababo, Kec. Belang, Kabupaten Minahasa Tenggara",SULAWESI UTARA,95997.0,Indonesia,,,,0.9815898,124.7989334,https://maps.google.com/?cid=0x0:0x3cc0fbf0e3203464,
perumahan,Komplek perumahan,Kel Lekitonu Najoan,"Tababo, Kec. Belang, Kabupaten Minahasa Tenggara, Sulawesi Utara 95997","Kec. Belang, Kabupaten Minahasa Tenggara",SULAWESI UTARA,95997.0,Indonesia,85293624055.0,,,0.9605231,124.7998442,https://maps.google.com/?cid=0x0:0x5e0fae9f777a0fad,
perumahan,Komplek perumahan,Lorong buku,"XQ2P+2RM, Buku Tengah, Kec. Belang, Kabupaten Minahasa Tenggara, Sulawesi Utara 95997","Buku Tengah, Kec. Belang, Kabupaten Minahasa Tenggara",SULAWESI UTARA,95997.0,Indonesia,,,,0.9500806,124.7870498,https://maps.google.com/?cid=0x0:0x367a20d9db127da2,
perumahan,Kantor Pemerintah,Desa Buku Utara,"Buku Utara, Kec. Belang, Kabupaten Minahasa Tenggara, Sulawesi Utara 95997","Kec. Belang, Kabupaten Minahasa Tenggara",SULAWESI UTARA,95997.0,Indonesia,,,,0.9511039,124.7920302,https://maps.google.com/?cid=0x0:0x762663bffd85b784,
perumahan,Komplek perumahan,Nandi house,"XQFX+HJF, Watuliney, Kec. Belang, Kabupaten Minahasa Tenggara, Sulawesi Utara 95997","Watuliney, Kec. Belang, Kabupaten Minahasa Tenggara",SULAWESI UTARA,95997.0,Indonesia,,,,0.9739306,124.7990465,https://maps.google.com/?cid=0x0:0x1409ef726fd368eb,
perumahan,Pembangunan Perumahan,Petra Home,"XR57+VRH, Molompar Utara, Kec. Belang, Kabupaten Minahasa Tenggara, Sulawesi Utara 95997","Molompar Utara, Kec. Belang, Kabupaten Minahasa Tenggara",SULAWESI UTARA,95997.0,Indonesia,,,,0.95992,124.814781,https://maps.google.com/?cid=0x0:0x7df2991dc8101814,
perumahan,Komplek perumahan,Ana homes,"WQXQ+4X2, Buku Tengah, Kec. Belang, Kabupaten Minahasa Tenggara, Sulawesi Utara 95997","Buku Tengah, Kec. Belang, Kabupaten Minahasa Tenggara",SULAWESI UTARA,95997.0,Indonesia,,,,0.9484757,124.7902452,https://maps.google.com/?cid=0x0:0xe4fb7a6f1cf2160b,
perumahan,Donat,Rohsal rotidonat,"XR58+9CF, Molompar Utara, Kec. Belang, Kabupaten Minahasa Tenggara, Sulawesi Utara 95997","Molompar Utara, Kec. Belang, Kabupaten Minahasa Tenggara",SULAWESI UTARA,95997.0,Indonesia,82154422196.0,,,0.958491,124.8161201,https://maps.google.com/?cid=0x0:0xf3c2e823cae9130f,
perumahan,Perumahan,Manampiring - Rorong House's,"XR76+22R, Watuliney, Kec. Belang, Kabupaten Minahasa Tenggara, Sulawesi Utara 95997","Watuliney, Kec. Belang, Kabupaten Minahasa Tenggara",SULAWESI UTARA,95997.0,Indonesia,,,,0.9626134,124.8100288,https://maps.google.com/?cid=0x0:0x2257c4dcb7586dc7,
perumahan,Komplek perumahan,ROSSA_HOME,"WQQP+86, Borgo, Kec. Belang, Kabupaten Minahasa Tenggara, Sulawesi Utara 95997","Borgo, Kec. Belang, Kabupaten Minahasa Tenggara",SULAWESI UTARA,95997.0,Indonesia,,,,0.9383736,124.7855978,https://maps.google.com/?cid=0x0:0x87d3f4999a280e3d,
perumahan,perumahan,Kec. Pasan,"Kabupaten Minahasa Tenggara, Sulawesi Utara","Kabupaten Minahasa Tenggara, Sulawesi Utara",SULAWESI UTARA,,Indonesia,,,,1.022748,124.7482665,https://maps.google.com/?cid=0x0:0xcf32b53a07d5d0fc,
perumahan,Pembangunan Perumahan,Vael Pe Rumah,"2PCV+JM6, Jl. Amurang-Ratahan, Tolombukan, Kec. Pasan, Kabupaten Minahasa Tenggara, Sulawesi Utara","Kabupaten Minahasa Tenggara, Sulawesi Utara",SULAWESI UTARA,,Indonesia,,,,1.021487,124.744062,https://maps.google.com/?cid=0x0:0x704b26e674b9e322,
perumahan,perumahan,Brian,"2PCM+Q32, Molompar Satu, Kec. Tombatu Tim., Kabupaten Minahasa Tenggara, Sulawesi Utara","Kabupaten Minahasa Tenggara, Sulawesi Utara",SULAWESI UTARA,,Indonesia,,,,1.0218901,124.7326398,https://maps.google.com/?cid=0x0:0xd703b80bbc8ab535,
perumahan,Komplek perumahan,OwRam,"2PFV+FR9, Liwutung Satu, Kec. Pasan, Kabupaten Minahasa Tenggara, Sulawesi Utara","Kabupaten Minahasa Tenggara, Sulawesi Utara",SULAWESI UTARA,,Indonesia,,,,1.0235204,124.7446627,https://maps.google.com/?cid=0x0:0x588944b5f4c8d025,
perumahan,Komplek perumahan,Rumah Pribadi,"2PFX+GG2, Towuntu, Kec. Pasan, Kabupaten Minahasa Tenggara, Sulawesi Utara","Kabupaten Minahasa Tenggara, Sulawesi Utara",SULAWESI UTARA,,Indonesia,,,,1.0237595,124.7487517,https://maps.google.com/?cid=0x0:0xeaa6cec007f9a3c8,
perumahan,Pembangunan Perumahan,Lucie Home,"Tolombukan, Kec. Pasan, Kabupaten Minahasa Tenggara, Sulawesi Utara","Kabupaten Minahasa Tenggara, Sulawesi Utara",SULAWESI UTARA,,Indonesia,8124306655.0,,,1.0228875,124.742905,https://maps.google.com/?cid=0x0:0x50cf9a1d99f87b9e,
perumahan,Komplek perumahan,TAAS,"3P7P+952, Tolombukan Satu, Kec. Pasan, Kabupaten Minahasa Tenggara, Sulawesi Utara","Kabupaten Minahasa Tenggara, Sulawesi Utara",SULAWESI UTARA,,Indonesia,,,,1.0633911,124.7354031,https://maps.google.com/?cid=0x0:0xbe302bf7c451c974,
perumahan,perumahan,nadyla kawangun,"2PFX+PVW, Lorong Mawar, Towuntu, Kec. Pasan, Kabupaten Minahasa Tenggara, Sulawesi Utara","Kabupaten Minahasa Tenggara, Sulawesi Utara",SULAWESI UTARA,,Indonesia,,,,1.0243649,124.7495889,https://maps.google.com/?cid=0x0:0x8ad38df9eb384bdb,
perumahan,Komplek perumahan,nisa,"2PFX+48F, Towuntu Bar., Kec. Pasan, Kabupaten Minahasa Tenggara, Sulawesi Utara","Kabupaten Minahasa Tenggara, Sulawesi Utara",SULAWESI UTARA,,Indonesia,,,,1.0228038,124.7482966,https://maps.google.com/?cid=0x0:0x38c83ffdcf5d4ec2,
perumahan,Perhimpunan Pengembang Perumahan,Wawali pasan,"2QMR+72, Tosuraya Sel., Kec. Ratahan, Kabupaten Minahasa Tenggara, Sulawesi Utara","Kabupaten Minahasa Tenggara, Sulawesi Utara",SULAWESI UTARA,,Indonesia,,,,1.0332161,124.7900768,https://maps.google.com/?cid=0x0:0x22955fcd570b8f75,
perumahan,Komplek perumahan,STEFNI PE RUMAH,"2PFV+8PG, Liwutung Satu, Kec. Pasan, Kabupaten Minahasa Tenggara, Sulawesi Utara","Kabupaten Minahasa Tenggara, Sulawesi Utara",SULAWESI UTARA,,Indonesia,,,,1.0233099,124.7443358,https://maps.google.com/?cid=0x0:0xe4a703071268f6cb,
perumahan,Pembangunan Perumahan,Kayla House's,"2PFQ+VJ7, Tolombukan Satu, Kec. Pasan, Kabupaten Minahasa Tenggara, Sulawesi Utara","Kabupaten Minahasa Tenggara, Sulawesi Utara",SULAWESI UTARA,,Indonesia,,,,1.0246585,124.7390515,https://maps.google.com/?cid=0x0:0x5a4dd8f977498d8f,
perumahan,Pembangunan Perumahan,Pasuhuk pasuhuk,"2PFR+WCM jaga 3, Towuntu Bar., Kec. Pasan, Kabupaten Minahasa Tenggara, Sulawesi Utara","Kabupaten Minahasa Tenggara, Sulawesi Utara",SULAWESI UTARA,,Indonesia,,,,1.0248345,124.7410419,https://maps.google.com/?cid=0x0:0x9ae5cb850488103f,
perumahan,perumahan,Rumah Om Endi,"2QF4+V5R, Jl. Kopal, Towuntu Tim., Kec. Pasan, Kabupaten Minahasa Tenggara, Sulawesi Utara","Kabupaten Minahasa Tenggara, Sulawesi Utara",SULAWESI UTARA,,Indonesia,,,,1.0247276,124.7553959,https://maps.google.com/?cid=0x0:0xa4e14558da0d4b39,
perumahan,Komplek perumahan,Lily home,"2PFV+R74, Tolombukan Satu, Kec. Pasan, Kabupaten Minahasa Tenggara, Sulawesi Utara","Kabupaten Minahasa Tenggara, Sulawesi Utara",SULAWESI UTARA,,Indonesia,,,,1.0248342,124.7434268,https://maps.google.com/?cid=0x0:0x587e0e21f5f192b7,
perumahan,Komplek perumahan,Homes Randy Bronto'x,"2PCX+WVP, Towuntu, Kec. Pasan, Kabupaten Minahasa Tenggara, Sulawesi Utara","Kabupaten Minahasa Tenggara, Sulawesi Utara",SULAWESI UTARA,,Indonesia,,,,1.0225496,124.749657,https://maps.google.com/?cid=0x0:0xad6e494367b633ba,
perumahan,Pembangunan Perumahan,Home,"2PGR+58F, Tolombukan Satu, Kec. Pasan, Kabupaten Minahasa Tenggara, Sulawesi Utara","Kabupaten Minahasa Tenggara, Sulawesi Utara",SULAWESI UTARA,,Indonesia,,,,1.0250715,124.740698,https://maps.google.com/?cid=0x0:0xb2e6300c2b0cc388,
perumahan,Pembangunan Perumahan,Rumah Syeril,"2PGQ+5PG, Tolombukan Satu, Kec. Pasan, Kabupaten Minahasa Tenggara, Sulawesi Utara","Kabupaten Minahasa Tenggara, Sulawesi Utara",SULAWESI UTARA,,Indonesia,,,,1.0258107,124.7392419,https://maps.google.com/?cid=0x0:0xecdabc4af9a004d3,
perumahan,Pembangunan Perumahan,Kel. J Sumangando Senduk,"2PGX+6PM, Lorong Mawar, Towuntu, Kec. Pasan, Kabupaten Minahasa Tenggara, Sulawesi Utara","Kabupaten Minahasa Tenggara, Sulawesi Utara",SULAWESI UTARA,,Indonesia,,,,1.0256,124.749303,https://maps.google.com/?cid=0x0:0xe5bf97b49f6e84a,
perumahan,perumahan,"imQ-aMOSLYGX4-EPnLuKEQ-,null,null,null,null,null,1,null,null,null,null,null,null,null,null,null,null,null,null,null,-null,"" (Pemilik)""",,,SULAWESI UTARA,,Indonesia,,,,,,https://maps.google.com/?cid=0x0:0xe87121fbb9ecefe3,
perumahan,Pembangunan Perumahan,Angkouw Junaedy,"2QG2+C25, Towuntu Tim., Kec. Pasan, Kabupaten Minahasa Tenggara, Sulawesi Utara","Kabupaten Minahasa Tenggara, Sulawesi Utara",SULAWESI UTARA,,Indonesia,,,,1.0260054,124.7501012,https://maps.google.com/?cid=0x0:0x78e39e80c8a46d73,
perumahan,Komplek perumahan,Boy Kamuntuan House,"2QF2+C9H, Towuntu Tim., Kec. Pasan, Kabupaten Minahasa Tenggara, Sulawesi Utara","Kabupaten Minahasa Tenggara, Sulawesi Utara",SULAWESI UTARA,,Indonesia,,,,1.0237752,124.7516944,https://maps.google.com/?cid=0x0:0x587957b3f2c5cccd,
perumahan,Kompleks Kondominium,Kario Jr residence,"2PFV+FR9, Liwutung Satu, Kec. Pasan, Kabupaten Minahasa Tenggara, Sulawesi Utara","Kabupaten Minahasa Tenggara, Sulawesi Utara",SULAWESI UTARA,,Indonesia,,,,1.023662,124.7446042,https://maps.google.com/?cid=0x0:0xbef9ee6ac7df850c,
perumahan,Komplek perumahan,ICHIRO HOUSES,"2PCW+CJ9, Liwutung, Kec. Pasan, Kabupaten Minahasa Tenggara, Sulawesi Utara","Kabupaten Minahasa Tenggara, Sulawesi Utara",SULAWESI UTARA,,Indonesia,,,,1.0210457,124.7466089,https://maps.google.com/?cid=0x0:0xcca1b7079d7850c1,
perumahan,perumahan,Pusomaen,"Kabupaten Minahasa Tenggara, Sulawesi Utara","Kabupaten Minahasa Tenggara, Sulawesi Utara",SULAWESI UTARA,,Indonesia,,,,1.0023906,124.8734523,https://maps.google.com/?cid=0x0:0x51e2c80582c52819,
perumahan,perumahan,Manampiring-Saroinsong family house,"3V4J+RRW, Wiau, Pusomaen, Kabupaten Minahasa Tenggara, Sulawesi Utara 95997","Wiau, Pusomaen, Kabupaten Minahasa Tenggara",SULAWESI UTARA,95997.0,Indonesia,,,,1.0571139,124.8820847,https://maps.google.com/?cid=0x0:0x40415fe6d70049e4,
perumahan,Komplek perumahan,Yong Juro,"XVP8+7X8, Makalu Sel., Pusomaen, Kabupaten Minahasa Tenggara, Sulawesi Utara 95997","Makalu Sel., Pusomaen, Kabupaten Minahasa Tenggara",SULAWESI UTARA,95997.0,Indonesia,,,,0.9857698,124.8668591,https://maps.google.com/?cid=0x0:0x778b7d6a6e210aec,
perumahan,Komplek perumahan,Bentenan Indah,"2VFX+G8P, Bentenan Indah, Pusomaen, Kabupaten Minahasa Tenggara, Sulawesi Utara 95997","Bentenan Indah, Pusomaen, Kabupaten Minahasa Tenggara",SULAWESI UTARA,95997.0,Indonesia,,,,1.0238282,124.898314,https://maps.google.com/?cid=0x0:0x2b757393cf67411a,
perumahan,Pembangunan Perumahan,Yance,"XVP9+3WR, Tatengesan Satu, Pusomaen, Kabupaten Minahasa Tenggara, Sulawesi Utara 95997","Tatengesan Satu, Pusomaen, Kabupaten Minahasa Tenggara",SULAWESI UTARA,95997.0,Indonesia,,,,0.9852485,124.8697587,https://maps.google.com/?cid=0x0:0x418526a5ac324e5a,
perumahan,Komplek perumahan,Pakaya Tumbelaka,"2VH4+34H, Makalu, Pusomaen, Kabupaten Minahasa Tenggara, Sulawesi Utara 95997","Makalu, Pusomaen, Kabupaten Minahasa Tenggara",SULAWESI UTARA,95997.0,Indonesia,,,,1.0303751,124.8554755,https://maps.google.com/?cid=0x0:0x6cdd5e6c17cec4f6,
perumahan,Pembangunan Perumahan,Lapangan,"XVFP+JX8, Tumbak, Pusomaen, Kabupaten Minahasa Tenggara, Sulawesi Utara 95997","Tumbak, Pusomaen, Kabupaten Minahasa Tenggara",SULAWESI UTARA,95997.0,Indonesia,,,,0.9742601,124.8868519,https://maps.google.com/?cid=0x0:0xe903c91c5c878800,
perumahan,Komplek perumahan,rintjap's,"XRHX+6QG, Minanga, Pusomaen, Kabupaten Minahasa Tenggara, Sulawesi Utara 95997","Minanga, Pusomaen, Kabupaten Minahasa Tenggara",SULAWESI UTARA,95997.0,Indonesia,,,,0.9780731,124.8494657,https://maps.google.com/?cid=0x0:0x5cf555d385b41e35,
perumahan,Komplek perumahan,Rumah,"XVG2+5C2, Minanga Satu, Pusomaen, Kabupaten Minahasa Tenggara, Sulawesi Utara 95997","Minanga Satu, Pusomaen, Kabupaten Minahasa Tenggara",SULAWESI UTARA,95997.0,Indonesia,,,,0.9753875,124.8510156,https://maps.google.com/?cid=0x0:0xf76992806fd44e7e,
perumahan,Perhimpunan Pengembang Perumahan,Minanga LORONG MAUT kec.pusomaen,"XRHX+3MG, Minanga, Pusomaen, Kabupaten Minahasa Tenggara, Sulawesi Utara 95997","Minanga, Pusomaen, Kabupaten Minahasa Tenggara",SULAWESI UTARA,95997.0,Indonesia,,,,0.9776813,124.8492154,https://maps.google.com/?cid=0x0:0x909699fa29d3871,
perumahan,Pembangunan Perumahan,House of wani,"2V5X+P8Q, Bentenan Indah, Pusomaen, Kabupaten Minahasa Tenggara, Sulawesi Utara 95997","Bentenan Indah, Pusomaen, Kabupaten Minahasa Tenggara",SULAWESI UTARA,95997.0,Indonesia,,,,1.0084489,124.8988001,https://maps.google.com/?cid=0x0:0x9a9d3d8871a78009,
perumahan,Pembangunan Perumahan,Kel. Kesek-Supit,"XVG2+J6H, Minanga Tim., Pusomaen, Kabupaten Minahasa Tenggara, Sulawesi Utara 95997","Minanga Tim., Pusomaen, Kabupaten Minahasa Tenggara",SULAWESI UTARA,95997.0,Indonesia,,,,0.9765665,124.8514133,https://maps.google.com/?cid=0x0:0x7857ed3a2e3b7f20,
perumahan,Pembangunan Perumahan,rumah youdy,"2V3R+V9Q, Bentenan, Pusomaen, Kabupaten Minahasa Tenggara, Sulawesi Utara 95997","Bentenan, Pusomaen, Kabupaten Minahasa Tenggara",SULAWESI UTARA,95997.0,Indonesia,,,,1.0047241,124.8909723,https://maps.google.com/?cid=0x0:0x97d5eaef12c4cd48,
perumahan,Komplek perumahan,Kel J.Karinda senduk,"2VG4+MP2, Makalu, Pusomaen, Kabupaten Minahasa Tenggara, Sulawesi Utara 95997","Makalu, Pusomaen, Kabupaten Minahasa Tenggara",SULAWESI UTARA,95997.0,Indonesia,,,,1.0266434,124.8567688,https://maps.google.com/?cid=0x0:0xe017ab5c10833de4,
perumahan,Komplek perumahan,Andre HomeMitra,"XVQ9+65W, Makalu, Pusomaen, Kabupaten Minahasa Tenggara, Sulawesi Utara 95997","Makalu, Pusomaen, Kabupaten Minahasa Tenggara",SULAWESI UTARA,95997.0,Indonesia,,,,0.988104,124.867943,https://maps.google.com/?cid=0x0:0xa60b937d9c069072,
perumahan,Komplek perumahan,BelShop,"3V5J+7CF, Wiau, Pusomaen, Kabupaten Minahasa Tenggara, Sulawesi Utara 95997","Wiau, Pusomaen, Kabupaten Minahasa Tenggara",SULAWESI UTARA,95997.0,Indonesia,,,,1.0581793,124.8810326,https://maps.google.com/?cid=0x0:0xb916730f5f5b80de,
perumahan,Perhimpunan Pengembang Perumahan,tsy,"2V5X+HM2, Bentenan Indah, Pusomaen, Kabupaten Minahasa Tenggara, Sulawesi Utara 95997","Bentenan Indah, Pusomaen, Kabupaten Minahasa Tenggara",SULAWESI UTARA,95997.0,Indonesia,,,,1.008899,124.8991308,https://maps.google.com/?cid=0x0:0x21082470180dc776,
perumahan,Kantor Pemerintah,Desa Minanga,"XRGX+9VH, Minanga Dua, Pusomaen, Kabupaten Minahasa Tenggara, Sulawesi Utara","Kabupaten Minahasa Tenggara, Sulawesi Utara",SULAWESI UTARA,,Indonesia,,,,0.9759386,124.84975,https://maps.google.com/?cid=0x0:0x9c4830336ea5c7b6,
perumahan,perumahan,Rumah Arun,"XVCP+W3Q, Tumbak, Pusomaen, Kabupaten Minahasa Tenggara, Sulawesi Utara 95997","Tumbak, Pusomaen, Kabupaten Minahasa Tenggara",SULAWESI UTARA,95997.0,Indonesia,,,,0.9723433,124.8852413,https://maps.google.com/?cid=0x0:0xaac09a3c951cd7ab,
perumahan,Pembangunan Perumahan,Matey Gijoh,"2V4R+9C9, Bentenan, Pusomaen, Kabupaten Minahasa Tenggara, Sulawesi Utara 95997","Bentenan, Pusomaen, Kabupaten Minahasa Tenggara",SULAWESI UTARA,95997.0,Indonesia,,,,1.005995,124.8911049,https://maps.google.com/?cid=0x0:0xbda01a1202ee3d9e,
perumahan,Gedung Apartemen,Keluarga Pontororing - Lowongan,"2V5R+482, Bentenan, Pusomaen, Kabupaten Minahasa Tenggara, Sulawesi Utara 95997","Bentenan, Pusomaen, Kabupaten Minahasa Tenggara",SULAWESI UTARA,95997.0,Indonesia,,,,1.007774,124.8907723,https://maps.google.com/?cid=0x0:0x311f7eb695b46024,
perumahan,Komplek perumahan,Sumual Lalu,"3V5J+CG2, Palamba, Pusomaen, Kabupaten Minahasa, Sulawesi Utara","Kabupaten Minahasa, Sulawesi Utara",SULAWESI UTARA,,Indonesia,,,,1.0585225,124.8812626,https://maps.google.com/?cid=0x0:0xb705b65408748311,
perumahan,Komplek perumahan,Fitri Laode Home,"XVCM+QXP, Tumbak Madani, Pusomaen, Kabupaten Minahasa Tenggara, Sulawesi Utara 95997","Tumbak Madani, Pusomaen, Kabupaten Minahasa Tenggara",SULAWESI UTARA,95997.0,Indonesia,,,,0.9719695,124.8849385,https://maps.google.com/?cid=0x0:0x8bee3f8c7d163c27,
perumahan,perumahan,Ratahan,"Tosuraya, Kec. Ratahan, Kabupaten Minahasa Tenggara, Sulawesi Utara","Kabupaten Minahasa Tenggara, Sulawesi Utara",SULAWESI UTARA,,Indonesia,,,,1.052761,124.802101,https://maps.google.com/?cid=0x0:0x7c6adb8240ffb5d8,
perumahan,Pembangunan Perumahan,Perumahan Pesona Asri Ratahan,"Lowu Satu, Kec. Ratahan, Kabupaten Minahasa Tenggara, Sulawesi Utara","Kabupaten Minahasa Tenggara, Sulawesi Utara",SULAWESI UTARA,,Indonesia,81214548383.0,,,1.059086,124.8010042,https://maps.google.com/?cid=0x0:0x8c6e9bea6ee832a6,
perumahan,Perhimpunan Pengembang Perumahan,Rumah Dinas Bupati Minahasa Tenggara,"3R33+H4M, Tosuraya, Kec. Ratahan, Kabupaten Minahasa Tenggara, Sulawesi Utara","Kabupaten Minahasa Tenggara, Sulawesi Utara",SULAWESI UTARA,,Indonesia,,,,1.0539503,124.8027946,https://maps.google.com/?cid=0x0:0x425e6618acff1b1e,
perumahan,perumahan,Home linda,"3R33+33J, Jl. Ruata, Tosuraya, Kec. Ratahan, Kabupaten Minahasa Tenggara, Sulawesi Utara","Kabupaten Minahasa Tenggara, Sulawesi Utara",SULAWESI UTARA,,Indonesia,,,,1.0527021,124.8026443,https://maps.google.com/?cid=0x0:0x3977e421c1b17bfd,
perumahan,Komplek perumahan,Nobon,"3R32+5X8, Tosuraya, Kec. Ratahan, Kabupaten Minahasa Tenggara, Sulawesi Utara","Kabupaten Minahasa Tenggara, Sulawesi Utara",SULAWESI UTARA,,Indonesia,,,,1.0529247,124.8024556,https://maps.google.com/?cid=0x0:0x110acdd3f46f8030,
perumahan,Pembangunan Perumahan,WOHOS RUNTUWENE,"3R32+FM9, Tosuraya, Kec. Ratahan, Kabupaten Minahasa Tenggara, Sulawesi Utara","Kabupaten Minahasa Tenggara, Sulawesi Utara",SULAWESI UTARA,,Indonesia,,,,1.0536729,124.801729,https://maps.google.com/?cid=0x0:0x78e5926f9e33eab,
perumahan,Komplek perumahan,Mondolang-Ngongoloy,"3R32+3VR, Tosuraya, Kec. Ratahan, Mitra, Sulawesi Utara 95695","Tosuraya, Kec. Ratahan, Mitra",SULAWESI UTARA,95695.0,Indonesia,,,,1.0526951,124.8021186,https://maps.google.com/?cid=0x0:0xc04308ae73228b99,
perumahan,,Perum batu penjuru lowu utara,"3R83+MCX, Lowu Utara, Kec. Ratahan, Kabupaten Minahasa Tenggara, Sulawesi Utara","Kabupaten Minahasa Tenggara, Sulawesi Utara",SULAWESI UTARA,,Indonesia,,,,1.0667317,124.8036233,https://maps.google.com/?cid=0x0:0x1a48ac0877feb3ab,
perumahan,Pengembang Realestat,Perumahan District M International,"FWFM+X27, Kolongan Tetempangan, Kec. Kalawat, Kabupaten Minahasa Utara, Sulawesi Utara","Kabupaten Minahasa Utara, Sulawesi Utara",SULAWESI UTARA,,Indonesia,85298562888.0,,,1.4749122,124.9325407,https://maps.google.com/?cid=0x0:0x2d1a8184d03a4896,
perumahan,perumahan,Kec. Ratahan Tim.,"Kabupaten Minahasa Tenggara, Sulawesi Utara","Kabupaten Minahasa Tenggara, Sulawesi Utara",SULAWESI UTARA,,Indonesia,,,,1.0937692,124.815983,https://maps.google.com/?cid=0x0:0x26a0154fbfe940e4,
perumahan,Komplek perumahan,Wioi 3 Kecamatan Ratahan Timur,"2RRG+69Q, Wioi Tiga, Kec. Ratahan Tim., Kabupaten Minahasa Tenggara, Sulawesi Utara","Kabupaten Minahasa Tenggara, Sulawesi Utara",SULAWESI UTARA,,Indonesia,,,,1.0405924,124.8259812,https://maps.google.com/?cid=0x0:0x49479255e124391b,
perumahan,Komplek perumahan,Kel walelang kula,"3R3C+6MC Tim, Wioi Satu, Kec. Ratahan Tim., Kabupaten Minahasa Tenggara, Sulawesi Utara","Kabupaten Minahasa Tenggara, Sulawesi Utara",SULAWESI UTARA,,Indonesia,,,,1.0530725,124.8216478,https://maps.google.com/?cid=0x0:0xc1580939224ade55,
perumahan,Pembangunan Perumahan,Village,"3R89+2M5, Nataan, Kec. Ratahan, Kabupaten Minahasa Tenggara, Sulawesi Utara","Kabupaten Minahasa Tenggara, Sulawesi Utara",SULAWESI UTARA,,Indonesia,,,,1.06476,124.81885,https://maps.google.com/?cid=0x0:0xa458b5b403f1976c,
perumahan,Pembangunan Perumahan,Paputungan,"3RP2+GM8, Lowu Utara, Kec. Ratahan, Kabupaten Minahasa Tenggara, Sulawesi Utara","Kabupaten Minahasa Tenggara, Sulawesi Utara",SULAWESI UTARA,,Indonesia,,,,1.0862755,124.8016945,https://maps.google.com/?cid=0x0:0xbedae006e52bef8,
perumahan,Pembangunan Perumahan,Raranta-Ticoalu,"4RG6+65Q, Noongan Dua, Kec. Langowan Bar., Kabupaten Minahasa, Sulawesi Utara","Kabupaten Minahasa, Sulawesi Utara",SULAWESI UTARA,,Indonesia,,,,1.1255999,124.8104781,https://maps.google.com/?cid=0x0:0x23bf13693eb9856f,
perumahan,Pembangunan Perumahan,Rumah Nirel,"3RR8+5WP, Pangu Dua, Kec. Ratahan Tim., Kabupaten Minahasa Tenggara, Sulawesi Utara","Kabupaten Minahasa Tenggara, Sulawesi Utara",SULAWESI UTARA,,Indonesia,,,,1.0908953,124.8168473,https://maps.google.com/?cid=0x0:0x13b5c3789c2b0c6,
perumahan,Komplek perumahan,Tolu Resident,"3RRJ+PR, Pangu Dua, Kec. Ratahan Tim., Kabupaten Minahasa Tenggara, Sulawesi Utara","Kabupaten Minahasa Tenggara, Sulawesi Utara",SULAWESI UTARA,,Indonesia,,,,1.0921668,124.8162487,https://maps.google.com/?cid=0x0:0xbbfb8bda0c07724b,
perumahan,Komplek perumahan,"Rumah Kel, Talumedun-ompi","2RXF+992, Wioi Satu, Kec. Ratahan Tim., Kabupaten Minahasa Tenggara, Sulawesi Utara","Kabupaten Minahasa Tenggara, Sulawesi Utara",SULAWESI UTARA,,Indonesia,,,,1.0483885,124.8233929,https://maps.google.com/?cid=0x0:0xf360584d88000a0c,
perumahan,perumahan,adl,"3R53+5G6, Lowu Satu, Kec. Ratahan, Kabupaten Minahasa Tenggara, Sulawesi Utara","Kabupaten Minahasa Tenggara, Sulawesi Utara",SULAWESI UTARA,,Indonesia,,,,1.0580851,124.803678,https://maps.google.com/?cid=0x0:0xfd3264acd3219593,
perumahan,perumahan,Rumah Juliano Garing,"3RR8+MQ3, Jl. Ratahan - Langowan, Pangu Satu, Kec. Ratahan Tim., Kabupaten Minahasa Tenggara, Sulawesi Utara","Kabupaten Minahasa Tenggara, Sulawesi Utara",SULAWESI UTARA,,Indonesia,,,,1.0916302,124.8169338,https://maps.google.com/?cid=0x0:0x3f1200a8df9bc1c7,
perumahan,Komplek perumahan,Faith rumah,"2RWF+6R4 Tampa b jga durian, Wioi, Kec. Ratahan Tim., Kabupaten Minahasa Tenggara, Sulawesi Utara","Kabupaten Minahasa Tenggara, Sulawesi Utara",SULAWESI UTARA,,Indonesia,,,,1.0451741,124.8243615,https://maps.google.com/?cid=0x0:0xda61d381ec1ef862,
perumahan,Pembangunan Perumahan,Rumah Rizard,"2RXF+993, Wioi Satu, Kec. Ratahan Tim., Kabupaten Minahasa Tenggara, Sulawesi Utara","Kabupaten Minahasa Tenggara, Sulawesi Utara",SULAWESI UTARA,,Indonesia,,,,1.0483996,124.8234358,https://maps.google.com/?cid=0x0:0xb6e3628291db8321,
perumahan,Komplek perumahan,Wioy timur,"3R4Q+F24, Wioi Timur, Kec. Ratahan Tim., Kabupaten Minahasa Tenggara, Sulawesi Utara","Kabupaten Minahasa Tenggara, Sulawesi Utara",SULAWESI UTARA,,Indonesia,,,,1.0561455,124.837581,https://maps.google.com/?cid=0x0:0x855a04a89de5acd7,
perumahan,Komplek perumahan,Rumah Kel. Kolinug Langi,"2RXF+993, Wioi Satu, Kec. Ratahan Tim., Kabupaten Minahasa Tenggara, Sulawesi Utara","Kabupaten Minahasa Tenggara, Sulawesi Utara",SULAWESI UTARA,,Indonesia,,,,1.0484478,124.8238298,https://maps.google.com/?cid=0x0:0x98560387a22f9e33,
perumahan,Komplek perumahan,Raranta Lomboan,"4RH6+W39, 4RH6+V2QJl, MarintekRaringis, Langowan Barat, Southeast Minahasa Regency, North Sulawesi","Kabupaten Minahasa Tenggara, Sulawesi Utara",SULAWESI UTARA,,Indonesia,,,,1.1297887,124.8102465,https://maps.google.com/?cid=0x0:0xb03c87f3fecba63e,
perumahan,Komplek perumahan,Rondo,"2RWF+493, Wioi Timur, Kec. Ratahan Tim., Kabupaten Minahasa Tenggara, Sulawesi Utara","Kabupaten Minahasa Tenggara, Sulawesi Utara",SULAWESI UTARA,,Indonesia,,,,1.045515,124.823371,https://maps.google.com/?cid=0x0:0x1543d28aebea1365,
perumahan,Pembangunan Perumahan,Bened,"Jl. Ratahan - Langowan No.12, Pangu Satu, Kec. Ratahan Tim., Kabupaten Minahasa Tenggara, Sulawesi Utara","Kabupaten Minahasa Tenggara, Sulawesi Utara",SULAWESI UTARA,,Indonesia,,,,1.0983855,124.8133017,https://maps.google.com/?cid=0x0:0x46556e968dcd3415,
perumahan,Komplek perumahan,Rumah Kel. MANAWAN-SAHELANGI,"3R63+FM9, Lowu Utara, Kec. Ratahan, Kabupaten Minahasa Tenggara, Sulawesi Utara","Kabupaten Minahasa Tenggara, Sulawesi Utara",SULAWESI UTARA,,Indonesia,,,,1.0611583,124.8042456,https://maps.google.com/?cid=0x0:0x2e804ee83ec340ea,
perumahan,Komplek perumahan,Rumah MRondo,"2RWF+493, Wioi Timur, Kec. Ratahan Tim., Kabupaten Minahasa Tenggara, Sulawesi Utara","Kabupaten Minahasa Tenggara, Sulawesi Utara",SULAWESI UTARA,,Indonesia,,,,1.0452625,124.8234219,https://maps.google.com/?cid=0x0:0x918ce5018427c97c,
perumahan,Pembangunan Perumahan,Perumahan Pesona Asri Ratahan,"Lowu Satu, Kec. Ratahan, Kabupaten Minahasa Tenggara, Sulawesi Utara","Kabupaten Minahasa Tenggara, Sulawesi Utara",SULAWESI UTARA,,Indonesia,81214548383.0,,,1.059086,124.8010042,https://maps.google.com/?cid=0x0:0x8c6e9bea6ee832a6,
perumahan,Sekolah,Desa pangu,"3V82+8HJ, Wongkai, Kec. Ratahan Tim., Kabupaten Minahasa Tenggara, Sulawesi Utara","Kabupaten Minahasa Tenggara, Sulawesi Utara",SULAWESI UTARA,,Indonesia,,,,1.0658497,124.8513794,https://maps.google.com/?cid=0x0:0x4e2347fa6460e138,
perumahan,,Perum batu penjuru lowu utara,"3R83+MCX, Lowu Utara, Kec. Ratahan, Kabupaten Minahasa Tenggara, Sulawesi Utara","Kabupaten Minahasa Tenggara, Sulawesi Utara",SULAWESI UTARA,,Indonesia,,,,1.0667317,124.8036233,https://maps.google.com/?cid=0x0:0x1a48ac0877feb3ab,
perumahan,Komplek perumahan,Sahelangi - Papeti's Residence,"3R53+MPG, Jalan pLingkungan I, North Lowu, Ratahan, Southeast Minahasa Regency, North Sulawesi","Kabupaten Minahasa Tenggara, Sulawesi Utara",SULAWESI UTARA,,Indonesia,,,,1.0591893,124.8043158,https://maps.google.com/?cid=0x0:0x55834068646a9cd7,
perumahan,Komplek perumahan,WKR,"3RGQ+9JV, Jl. Raya Wongkai, Wongkai, Kec. Ratahan Tim., Kabupaten Minahasa Tenggara, Sulawesi Utara","Kabupaten Minahasa Tenggara, Sulawesi Utara",SULAWESI UTARA,,Indonesia,,,,1.0759834,124.8390456,https://maps.google.com/?cid=0x0:0xdc3f526e31df30e8,
perumahan,Komplek perumahan,JC's Noongan Hm,"Jl. Raya Langowan - Ratahan, Pangu Satu, Kec. Ratahan Tim., Kabupaten Minahasa Tenggara, Sulawesi Utara","Kabupaten Minahasa Tenggara, Sulawesi Utara",SULAWESI UTARA,,Indonesia,,,,1.101549,124.8119738,https://maps.google.com/?cid=0x0:0xaf19f293ce4168e2,
perumahan,perumahan,Sulawesi Utara 95997,"Kec. Ratatotok, Kabupaten Minahasa Tenggara, Sulawesi Utara","Kabupaten Minahasa Tenggara, Sulawesi Utara",SULAWESI UTARA,,Indonesia,,,,0.9486073,124.7519807,https://maps.google.com/?cid=0x0:0x91125c5c2a0b68b9,
perumahan,Pembangunan Perumahan,Ratatotok,"VPF3+359, Ratatotok Tengah, Kec. Ratatotok, Kabupaten Minahasa Tenggara, Sulawesi Utara","Kabupaten Minahasa Tenggara, Sulawesi Utara",SULAWESI UTARA,,Indonesia,,,,0.8726655,124.7029895,https://maps.google.com/?cid=0x0:0x2577eca639f82785,
perumahan,Pembangunan Perumahan,Ratatotok tengah,"VPF2+H5J, Ratatotok Satu, Kec. Ratatotok, Kabupaten Minahasa Tenggara, Sulawesi Utara 95997","Ratatotok Satu, Kec. Ratatotok, Kabupaten Minahasa Tenggara",SULAWESI UTARA,95997.0,Indonesia,,,,0.8739692,124.7003863,https://maps.google.com/?cid=0x0:0x599a0dd2abb100d0,
perumahan,Komplek perumahan,Rumah Kepala Urusan Umum Ratatotok Muara,"Desa No.2, RW.2, Ratatotok Muara, Ratatotok, Southeast Minahasa Regency, North Sulawesi 95997","RW.2, Ratatotok Muara, Ratatotok, Southeast Minahasa Regency",SULAWESI UTARA,95997.0,Indonesia,,,,0.8679291,124.70831,https://maps.google.com/?cid=0x0:0x5a061130fc59f744,
perumahan,Pembangunan Perumahan,Minahasa tenggara,"VPF2+H5J, Ratatotok Satu, Kec. Ratatotok, Kabupaten Minahasa Tenggara, Sulawesi Utara 95997","Ratatotok Satu, Kec. Ratatotok, Kabupaten Minahasa Tenggara",SULAWESI UTARA,95997.0,Indonesia,,,,0.8739692,124.7003863,https://maps.google.com/?cid=0x0:0x43d26703b40a948d,
perumahan,Rumah Mahyong,Rumah kepala Jaga lll,"VP85+VPR, Jl. Boulevard, Ratatotok Muara, Kec. Ratatotok, Kabupaten Minahasa Tenggara, Sulawesi Utara 95997","Jl. Boulevard, Ratatotok Muara, Kec. Ratatotok, Kabupaten Minahasa Tenggara",SULAWESI UTARA,95997.0,Indonesia,,,,0.8672272,124.7092792,https://maps.google.com/?cid=0x0:0x1e52609d9d91beee,
perumahan,Komplek perumahan,Rakansya home,"Rakansya Home, Ratatotok Satu, Kec. Ratatotok, Kabupaten Minahasa Tenggara, Sulawesi Utara 95997","Ratatotok Satu, Kec. Ratatotok, Kabupaten Minahasa Tenggara",SULAWESI UTARA,95997.0,Indonesia,,,,0.878029,124.7017979,https://maps.google.com/?cid=0x0:0x5608bfddd0d0374c,
perumahan,Pembangunan Perumahan,Ratatotok lorong STAR KILLER,"VPG2+PHF, Ratatotok Satu, Kec. Ratatotok, Kabupaten Minahasa Tenggara, Sulawesi Utara 95997","Ratatotok Satu, Kec. Ratatotok, Kabupaten Minahasa Tenggara",SULAWESI UTARA,95997.0,Indonesia,85394114925.0,,,0.8768126,124.7014218,https://maps.google.com/?cid=0x0:0x65f2037f414474c,
perumahan,Komplek perumahan,Lavenia Home,"RPW2+PJG, Kec. Ratatotok, Kabupaten Minahasa Tenggara, Sulawesi Utara 95997","Kec. Ratatotok, Kabupaten Minahasa Tenggara",SULAWESI UTARA,95997.0,Indonesia,,,,0.8463215,124.7002597,https://maps.google.com/?cid=0x0:0x523c435ff2a93e44,
perumahan,Toko umum,VMRT Garage,"VM9X+X23, Ratatotok Tenggara, Kec. Ratatotok, Kabupaten Minahasa Tenggara, Sulawesi Utara 95997","Ratatotok Tenggara, Kec. Ratatotok, Kabupaten Minahasa Tenggara",SULAWESI UTARA,95997.0,Indonesia,,,,0.8698844,124.6975607,https://maps.google.com/?cid=0x0:0xf09f65c677e245d2,
perumahan,Rumah Sakit,RSUP Ratatotok Buyat,"Jl. Ratahan - Kotamobagu No.II, Ratatotok, Kec. Ratatotok, Kabupaten Minahasa Tenggara, Sulawesi Utara 95997","Ratatotok, Kec. Ratatotok, Kabupaten Minahasa Tenggara",SULAWESI UTARA,95997.0,Indonesia,,,,0.8704754,124.6992861,https://maps.google.com/?cid=0x0:0x3db8a20bce0e40f3,
perumahan,Rumah Kayu,Rumah saya,"VPM2+783, Ratatotok Utara, Kec. Ratatotok, Kabupaten Minahasa Tenggara, Sulawesi Utara 95997","Ratatotok Utara, Kec. Ratatotok, Kabupaten Minahasa Tenggara",SULAWESI UTARA,95997.0,Indonesia,,,,0.8831303,124.7007871,https://maps.google.com/?cid=0x0:0x8b26056a4b61ec67,
perumahan,Komplek perumahan,lorong buntu,"VPWR+XGR, Basaan Dua, Kec. Ratatotok, Kabupaten Minahasa Tenggara, Sulawesi Utara 95997","Basaan Dua, Kec. Ratatotok, Kabupaten Minahasa Tenggara",SULAWESI UTARA,95997.0,Indonesia,,,,0.8962699,124.7412621,https://maps.google.com/?cid=0x0:0x8ca0d8fd16f2b27e,
perumahan,Komplek perumahan,Lorong jakarta,"VPG3+8P3, Jl. Pemuda, Ratatotok Satu, Kec. Ratatotok, Kabupaten Minahasa Tenggara, Sulawesi Utara 95997","Jl. Pemuda, Ratatotok Satu, Kec. Ratatotok, Kabupaten Minahasa Tenggara",SULAWESI UTARA,95997.0,Indonesia,,,,0.8757621,124.7042866,https://maps.google.com/?cid=0x0:0x2e63814945933409,
perumahan,Pembangunan Perumahan,Rumah Ardi,"Ratatotok Tengah, Kec. Ratatotok, Kabupaten Minahasa Tenggara, Sulawesi Utara 95997","Kec. Ratatotok, Kabupaten Minahasa Tenggara",SULAWESI UTARA,95997.0,Indonesia,,,,0.8734152,124.7029421,https://maps.google.com/?cid=0x0:0x46fa4e99226b1a87,
perumahan,perumahan,Kost Panggung tingkat,"VMCX+4VX, Ratatotok, Kec. Ratatotok, Kabupaten Minahasa Tenggara, Sulawesi Utara 95997","Ratatotok, Kec. Ratatotok, Kabupaten Minahasa Tenggara",SULAWESI UTARA,95997.0,Indonesia,,,,0.8703743,124.6997362,https://maps.google.com/?cid=0x0:0x77cc1ada4a28614c,
perumahan,Pembangunan Perumahan,Pastori I Jemaat Efrata Ratatotok,"VMFX+MWH, Ratatotok Tenggara, Kec. Ratatotok, Kabupaten Minahasa Tenggara, Sulawesi Utara 95997","Ratatotok Tenggara, Kec. Ratatotok, Kabupaten Minahasa Tenggara",SULAWESI UTARA,95997.0,Indonesia,,,,0.8741128,124.6997908,https://maps.google.com/?cid=0x0:0xc04af9c0fe116706,
perumahan,Pembangunan Perumahan,Jeldry. Korua-Tulung,"VPC2+759, Ratatotok, Kec. Ratatotok, Kabupaten Minahasa Tenggara, Sulawesi Utara 95997","Ratatotok, Kec. Ratatotok, Kabupaten Minahasa Tenggara",SULAWESI UTARA,95997.0,Indonesia,,,,0.8706538,124.7004954,https://maps.google.com/?cid=0x0:0x94f9a5869515d9b2,
perumahan,Pembangunan Perumahan,Pastori III GMIM Efrata Ratatotok,"VMGX+HHG, Ratatotok Satu, Kec. Ratatotok, Kabupaten Minahasa Tenggara, Sulawesi Utara 95997","Ratatotok Satu, Kec. Ratatotok, Kabupaten Minahasa Tenggara",SULAWESI UTARA,95997.0,Indonesia,,,,0.8764444,124.6989544,https://maps.google.com/?cid=0x0:0x70628b69a81bbc9f,
perumahan,Komplek perumahan,Kel Ruaw-Pajow,"VPWR+MM3, Basaan Dua, Kec. Ratatotok, Kabupaten Minahasa Tenggara, Sulawesi Utara 95997","Basaan Dua, Kec. Ratatotok, Kabupaten Minahasa Tenggara",SULAWESI UTARA,95997.0,Indonesia,,,,0.8966433,124.7416807,https://maps.google.com/?cid=0x0:0xebb74da8896f0803,
perumahan,Komplek perumahan,Korua Marentek,"WM3H+HR, Ratatotok Sel., Kec. Ratatotok, Kabupaten Minahasa Tenggara, Sulawesi Utara 95997","Ratatotok Sel., Kec. Ratatotok, Kabupaten Minahasa Tenggara",SULAWESI UTARA,95997.0,Indonesia,,,,0.8738532,124.6979097,https://maps.google.com/?cid=0x0:0xabc1d340ee889e7e,
perumahan,Pembangunan Perumahan,Mitchel Laleda,"VMFV+MCM, Ratatotok Tenggara, Kec. Ratatotok, Kabupaten Minahasa Tenggara, Sulawesi Utara 95997","Ratatotok Tenggara, Kec. Ratatotok, Kabupaten Minahasa Tenggara",SULAWESI UTARA,95997.0,Indonesia,,,,0.8732024,124.6937302,https://maps.google.com/?cid=0x0:0x672e75a0ee667107,
perumahan,Komplek perumahan,Gloria Porayow Houses,"VMFV+HRP, Ratatotok Sel., Kec. Ratatotok, Kabupaten Minahasa Tenggara, Sulawesi Utara 95997","Ratatotok Sel., Kec. Ratatotok, Kabupaten Minahasa Tenggara",SULAWESI UTARA,95997.0,Indonesia,,,,0.8739609,124.6945845,https://maps.google.com/?cid=0x0:0x18b9e011dbb73c95,
perumahan,Komplek perumahan,Rumah Oma ELNARA,"VP94+5JQ, Ratatotok Tim., Kec. Ratatotok, Kabupaten Minahasa Tenggara, Sulawesi Utara 95997","Ratatotok Tim., Kec. Ratatotok, Kabupaten Minahasa Tenggara",SULAWESI UTARA,95997.0,Indonesia,,,,0.8668592,124.7061136,https://maps.google.com/?cid=0x0:0xb7f60975b93d90c0,
perumahan,Pembangunan Perumahan,Ronald Rumagit,"VPC2+2FF, Ratatotok, Kec. Ratatotok, Kabupaten Minahasa Tenggara, Sulawesi Utara","Kabupaten Minahasa Tenggara, Sulawesi Utara",SULAWESI UTARA,,Indonesia,,,,0.8700708,124.7011747,https://maps.google.com/?cid=0x0:0x881aa77bbf5d36ea,
perumahan,Komplek perumahan,Rumah Kel Wangko Harun,"VPC2+HQQ, Ratatotok, Kec. Ratatotok, Kabupaten Minahasa Tenggara, Sulawesi Utara 95997","Ratatotok, Kec. Ratatotok, Kabupaten Minahasa Tenggara",SULAWESI UTARA,95997.0,Indonesia,,,,0.8710678,124.7015995,https://maps.google.com/?cid=0x0:0x7606bac0b4dc925a,
perumahan,perumahan,Kec. Silian Raya,"Kabupaten Minahasa Tenggara, Sulawesi Utara","Kabupaten Minahasa Tenggara, Sulawesi Utara",SULAWESI UTARA,,Indonesia,,,,1.0607028,124.6706139,https://maps.google.com/?cid=0x0:0xc85569b0227031a5,
perumahan,Komplek perumahan,Silian tengah,"3M78+RHV, Silian Kota, Kec. Silian Raya, Kabupaten Minahasa Tenggara, Sulawesi Utara","Kabupaten Minahasa Tenggara, Sulawesi Utara",SULAWESI UTARA,,Indonesia,,,,1.0646665,124.6663491,https://maps.google.com/?cid=0x0:0xd9f23653f2301cf3,
perumahan,Pembangunan Perumahan,Silian,"3MC2+HC8, Silian Tiga, Kec. Silian Raya, Kabupaten Minahasa Tenggara, Sulawesi Utara","Kabupaten Minahasa Tenggara, Sulawesi Utara",SULAWESI UTARA,,Indonesia,,,,1.0714093,124.651084,https://maps.google.com/?cid=0x0:0x62406aacbd0262d,
perumahan,perumahan,Stenli,"3M7C+FHG, Silian Satu, Kec. Silian Raya, Kabupaten Minahasa Tenggara, Sulawesi Utara","Kabupaten Minahasa Tenggara, Sulawesi Utara",SULAWESI UTARA,,Indonesia,,,,1.0636889,124.6714682,https://maps.google.com/?cid=0x0:0x7e12dd2bc3255181,
perumahan,Pembangunan Perumahan,Shintia Tangel,"3M69+5VW, Silian Sel., Kec. Silian Raya, Kabupaten Minahasa Tenggara, Sulawesi Utara","Kabupaten Minahasa Tenggara, Sulawesi Utara",SULAWESI UTARA,,Indonesia,,,,1.0604254,124.6697416,https://maps.google.com/?cid=0x0:0x47c5f7f2a7cd8ff4,
perumahan,Perhimpunan Pengembang Perumahan,Chinthya,"3M5C+R3F, Jl. Raya Silian Jaga 1, Silian, Kec. Silian Raya, Kabupaten Minahasa Tenggara, Sulawesi Utara","Kabupaten Minahasa Tenggara, Sulawesi Utara",SULAWESI UTARA,,Indonesia,,,,1.0595744,124.670182,https://maps.google.com/?cid=0x0:0xf2010d00a7e6b88a,
perumahan,Perumahan,Alca Home,"3M46+WJM, Silian Tiga, Kec. Silian Raya, Kabupaten Minahasa Tenggara, Sulawesi Utara","Kabupaten Minahasa Tenggara, Sulawesi Utara",SULAWESI UTARA,,Indonesia,,,,1.0573627,124.6614771,https://maps.google.com/?cid=0x0:0x774e8d7a77d3366d,
perumahan,perumahan,Rumah Kel L.wowor akay,"3M88+WG8, Silian Tengah, Kec. Silian Raya, Kabupaten Minahasa Tenggara, Sulawesi Utara","Kabupaten Minahasa Tenggara, Sulawesi Utara",SULAWESI UTARA,,Indonesia,,,,1.066671,124.666383,https://maps.google.com/?cid=0x0:0xcefb952ee1d1285d,
perumahan,Pembangunan Perumahan,Monareh's family,"3M69+98C, Silian Sel., Kec. Silian Raya, Kabupaten Minahasa Tenggara, Sulawesi Utara","Kabupaten Minahasa Tenggara, Sulawesi Utara",SULAWESI UTARA,,Indonesia,82217139526.0,,,1.0609375,124.6682631,https://maps.google.com/?cid=0x0:0xf777b0eece1928a3,
perumahan,Komplek perumahan,Legi Mokolomban,"3M6C+JQ9, Silian Utara, Kec. Silian Raya, Kabupaten Minahasa Tenggara, Sulawesi Utara","Kabupaten Minahasa Tenggara, Sulawesi Utara",SULAWESI UTARA,,Indonesia,,,,1.0615303,124.6719772,https://maps.google.com/?cid=0x0:0x4328b465ed4f2ba5,
perumahan,Komplek perumahan,Clara's Home Silian,"Silian, Kec. Silian Raya, Kabupaten Minahasa Tenggara, Sulawesi Utara","Kabupaten Minahasa Tenggara, Sulawesi Utara",SULAWESI UTARA,,Indonesia,,,,1.0636611,124.6649779,https://maps.google.com/?cid=0x0:0xecb0d7157529ee92,
perumahan,Otoritas Perumahan,Home,"3M6C+65W, Silian Sel., Kec. Silian Raya, Kabupaten Minahasa Tenggara, Sulawesi Utara","Kabupaten Minahasa Tenggara, Sulawesi Utara",SULAWESI UTARA,,Indonesia,,,,1.0606076,124.6704614,https://maps.google.com/?cid=0x0:0xaf7f6cc87eecb412,
perumahan,Pembangunan Perumahan,Silian satu,"3M6C+66H, Silian Sel., Kec. Silian Raya, Kabupaten Minahasa Tenggara, Sulawesi Utara","Kabupaten Minahasa Tenggara, Sulawesi Utara",SULAWESI UTARA,,Indonesia,,,,1.0605697,124.6706031,https://maps.google.com/?cid=0x0:0xa03bf6bc6f0ab1c,
perumahan,Pembangunan Perumahan,Sindy Home,"3M68+V3M, Silian Dua, Kec. Silian Raya, Kabupaten Minahasa Tenggara, Sulawesi Utara","Kabupaten Minahasa Tenggara, Sulawesi Utara",SULAWESI UTARA,,Indonesia,,,,1.0622075,124.6651615,https://maps.google.com/?cid=0x0:0xd7441a3a50bec2b8,
perumahan,Komplek perumahan,Kel K.K,"3M67+GX9, Silian Dua, Kec. Silian Raya, Kabupaten Minahasa Tenggara, Sulawesi Utara","Kabupaten Minahasa Tenggara, Sulawesi Utara",SULAWESI UTARA,,Indonesia,81310012046.0,,,1.0612191,124.6647933,https://maps.google.com/?cid=0x0:0xf24168a8de13c870,
perumahan,Pembangunan Perumahan,Rumah Kel. Lesar Mokobimbing  Lesar Kosegeran,"3M68+CGV, Silian Kota, Kec. Silian Raya, Kabupaten Minahasa Tenggara, Sulawesi Utara","Kabupaten Minahasa Tenggara, Sulawesi Utara",SULAWESI UTARA,,Indonesia,,,,1.0611044,124.6662922,https://maps.google.com/?cid=0x0:0x7550257c23a23543,
perumahan,Komplek perumahan,Kel. Legi - Tombokan,"3M49+8CF, Silian, Kec. Silian Raya, Kabupaten Minahasa Tenggara, Sulawesi Utara","Kabupaten Minahasa Tenggara, Sulawesi Utara",SULAWESI UTARA,,Indonesia,,,,1.0558094,124.6685382,https://maps.google.com/?cid=0x0:0x1f6efa8006cdb426,
perumahan,perumahan,Renn Home,"3M8F+69, Silian Utara, Kec. Silian Raya, Kabupaten Minahasa Tenggara, Sulawesi Utara","Kabupaten Minahasa Tenggara, Sulawesi Utara",SULAWESI UTARA,,Indonesia,,,,1.065818,124.672932,https://maps.google.com/?cid=0x0:0xb223776d0e3b054f,
perumahan,Komplek perumahan,Sonia home,"3M6C+J77, Silian Utara, Kec. Silian Raya, Kabupaten Minahasa Tenggara, Sulawesi Utara","Kabupaten Minahasa Tenggara, Sulawesi Utara",SULAWESI UTARA,,Indonesia,,,,1.0615375,124.6706847,https://maps.google.com/?cid=0x0:0x7909cbeb1513a5e8,
perumahan,Komplek perumahan,Axel home,"3M8F+69, Silian Utara, Kec. Silian Raya, Kabupaten Minahasa Tenggara, Sulawesi Utara","Kabupaten Minahasa Tenggara, Sulawesi Utara",SULAWESI UTARA,,Indonesia,,,,1.0654978,124.6734034,https://maps.google.com/?cid=0x0:0x896b6f8223c1c44a,
perumahan,Komplek perumahan,Bodega kelapa,"3M78+PFH, Silian Tengah, Kec. Silian Raya, Kabupaten Minahasa Tenggara, Sulawesi Utara","Kabupaten Minahasa Tenggara, Sulawesi Utara",SULAWESI UTARA,,Indonesia,,,,1.0638823,124.666313,https://maps.google.com/?cid=0x0:0xf846433625ec7f28,
perumahan,Rumah Pendeta Protestan,Pastori 1 GMIM EKKLESIA SILIAN RAYA,"3M68+FCX, Silian Kota, Kec. Silian Raya, Kabupaten Minahasa Tenggara, Sulawesi Utara","Kabupaten Minahasa Tenggara, Sulawesi Utara",SULAWESI UTARA,,Indonesia,,,,1.0612279,124.666124,https://maps.google.com/?cid=0x0:0xa1492762dc350b3c,
perumahan,Komplek perumahan,Sakaravarel,"3M83+RF6, Silian Tiga, Kec. Silian Raya, Kabupaten Minahasa Tenggara, Sulawesi Utara","Kabupaten Minahasa Tenggara, Sulawesi Utara",SULAWESI UTARA,,Indonesia,,,,1.067031,124.6536293,https://maps.google.com/?cid=0x0:0x4d25723a5253a96,
perumahan,Pembangunan Perumahan,Meylan sandag,"3M89+V3V, Silian Tengah, Kec. Silian Raya, Kabupaten Minahasa Tenggara, Sulawesi Utara","Kabupaten Minahasa Tenggara, Sulawesi Utara",SULAWESI UTARA,,Indonesia,,,,1.0672328,124.6676778,https://maps.google.com/?cid=0x0:0x5dd30f739646a706,
perumahan,perumahan,EGK,"3M92+87C, Jl Jaga 2, Lobu, Kec. Silian Raya, Kabupaten Minahasa Tenggara, Sulawesi Utara","Kabupaten Minahasa Tenggara, Sulawesi Utara",SULAWESI UTARA,,Indonesia,,,,1.0683219,124.6505748,https://maps.google.com/?cid=0x0:0xf5957f2ce31c1b64,
perumahan,Komplek perumahan,"KINDA LESAR, SMALL HOUSE","3M84+WXC, Silian Bar., Kec. Silian Raya, Kabupaten Minahasa Tenggara, Sulawesi Utara","Kabupaten Minahasa Tenggara, Sulawesi Utara",SULAWESI UTARA,,Indonesia,82244008423.0,,,1.0673103,124.6573961,https://maps.google.com/?cid=0x0:0x834c8e5c28a260a6,
perumahan,perumahan,Kec. Tombatu,"Kabupaten Minahasa Tenggara, Sulawesi Utara","Kabupaten Minahasa Tenggara, Sulawesi Utara",SULAWESI UTARA,,Indonesia,,,,1.0392874,124.6821911,https://maps.google.com/?cid=0x0:0x15df6048da14c99b,
perumahan,Pembangunan Perumahan,Rumah Tombatu,"2MWM+CR8, Unnamed Road, Central Tombatu Dua, Tombatu Utara, Southeast Minahasa Regency, North Sulawesi","Kabupaten Minahasa Tenggara, Sulawesi Utara",SULAWESI UTARA,,Indonesia,,,,1.0460354,124.6845887,https://maps.google.com/?cid=0x0:0x4f1c0216e7d3d086,
perumahan,Komplek perumahan,Rumah ken,"2MRP+QR5, Tombatu Tiga Tengah, Kec. Tombatu Utara, Kabupaten Minahasa Tenggara, Sulawesi Utara","Kabupaten Minahasa Tenggara, Sulawesi Utara",SULAWESI UTARA,,Indonesia,,,,1.0418813,124.6871088,https://maps.google.com/?cid=0x0:0x46a8673035340374,
perumahan,Komplek perumahan,Rumah Novi Tondatuon,"2PP2+C5J, RT.Jaga/RW.3, Kuyanga Satu, Kec. Tombatu Utara, Kabupaten Minahasa Tenggara, Sulawesi Utara","Kabupaten Minahasa Tenggara, Sulawesi Utara",SULAWESI UTARA,,Indonesia,,,,1.0360936,124.7005045,https://maps.google.com/?cid=0x0:0xa0c21f662cc30c9f,
perumahan,Komplek perumahan,MORO'SING,"3M2P+5FQ jaga 3, Tombatu Dua Utara, Kec. Tombatu Utara, Kabupaten Minahasa Tenggara, Sulawesi Utara","Kabupaten Minahasa Tenggara, Sulawesi Utara",SULAWESI UTARA,,Indonesia,,,,1.0504655,124.6862451,https://maps.google.com/?cid=0x0:0x22e65f147b178e81,
perumahan,Komplek perumahan,De shop,"2MWP+57X, Tombatu Dua, Kec. Tombatu Utara, Kabupaten Minahasa Tenggara, Sulawesi Utara","Kabupaten Minahasa Tenggara, Sulawesi Utara",SULAWESI UTARA,,Indonesia,85397895575.0,,,1.0454832,124.6857325,https://maps.google.com/?cid=0x0:0xa5b1f89969b8b0c5,
perumahan,Komplek perumahan,RPS HOUSE,"2MXJ+WRF, Tombatu Dua Bar., Kec. Tombatu Utara, Kabupaten Minahasa Tenggara, Sulawesi Utara","Kabupaten Minahasa Tenggara, Sulawesi Utara",SULAWESI UTARA,,Indonesia,,,,1.0498102,124.6820539,https://maps.google.com/?cid=0x0:0x2182ed0e0472b790,
perumahan,perumahan,KEVIN HOME,"2MVP+6J3, Jl. Amurang-Ratahan, Tombatu Tiga Tengah, Kec. Tombatu Utara, Kabupaten Minahasa Tenggara, Sulawesi Utara","Kabupaten Minahasa Tenggara, Sulawesi Utara",SULAWESI UTARA,,Indonesia,,,,1.043022,124.6865587,https://maps.google.com/?cid=0x0:0xc3c8d72e78ebae14,
perumahan,Perhimpunan Pengembang Perumahan,Istana Kumesan,"Betelan, Kec. Tombatu, Kabupaten Minahasa Tenggara, Sulawesi Utara","Kabupaten Minahasa Tenggara, Sulawesi Utara",SULAWESI UTARA,,Indonesia,,,,1.0424918,124.6842062,https://maps.google.com/?cid=0x0:0x32b283543e356ce5,
perumahan,Komplek perumahan,tombatu 2,"2MVP+R44, Tombatu Dua, Kec. Tombatu Utara, Kabupaten Minahasa Tenggara, Sulawesi Utara","Kabupaten Minahasa Tenggara, Sulawesi Utara",SULAWESI UTARA,,Indonesia,,,,1.0445093,124.6853137,https://maps.google.com/?cid=0x0:0xf2ba452655c66966,
perumahan,Pembangunan Perumahan,KEJoRA fam's,"Jl keletambal No.3, Tombatu, Kec. Tombatu, Kabupaten Minahasa Tenggara, Sulawesi Utara 95996","Tombatu, Kec. Tombatu, Kabupaten Minahasa Tenggara",SULAWESI UTARA,95996.0,Indonesia,,,,1.0301126,124.6860108,https://maps.google.com/?cid=0x0:0xacfea59ec788d51c,
perumahan,Pembangunan Perumahan,Jein Legi Home,"2MXM+892, Tombatu Dua Bar., Kec. Tombatu Utara, Kabupaten Minahasa Tenggara, Sulawesi Utara","Kabupaten Minahasa Tenggara, Sulawesi Utara",SULAWESI UTARA,,Indonesia,85340002552.0,,,1.0478877,124.6834121,https://maps.google.com/?cid=0x0:0x362cfe2b75809620,
perumahan,Komplek perumahan,TT House,"2MRM+F7V, Jl. Amurang-Ratahan, Tombatu, Kec. Tombatu, Kabupaten Minahasa Tenggara, Sulawesi Utara","Kabupaten Minahasa Tenggara, Sulawesi Utara",SULAWESI UTARA,,Indonesia,,,,1.0412342,124.6831734,https://maps.google.com/?cid=0x0:0xf49d02841621418c,
perumahan,Perhimpunan Pengembang Perumahan,Tombatu 3timur,"2MRQ+36Q, Unnamed Road, Tombatu Tiga Tim., Kec. Tombatu, Kabupaten Minahasa Tenggara, Sulawesi Utara","Kabupaten Minahasa Tenggara, Sulawesi Utara",SULAWESI UTARA,,Indonesia,,,,1.0402042,124.6880974,https://maps.google.com/?cid=0x0:0xac0452f37b31de84,
perumahan,Komplek perumahan,Rumahpanggung ripkaikha,"2MVV+5JP, Tombatu Tiga, Kec. Tombatu Utara, Kabupaten Minahasa Tenggara, Sulawesi Utara","Kabupaten Minahasa Tenggara, Sulawesi Utara",SULAWESI UTARA,,Indonesia,83899761460.0,,,1.0429671,124.6940761,https://maps.google.com/?cid=0x0:0x7206323e0057072c,
perumahan,Pembangunan Perumahan,Kel. Akerpia-Leong,"2MVQ+72G, Jl. Amurang-Ratahan, Tombatu Tiga Tengah, Kec. Tombatu Utara, Kabupaten Minahasa Tenggara, Sulawesi Utara","Kabupaten Minahasa Tenggara, Sulawesi Utara",SULAWESI UTARA,,Indonesia,,,,1.043177,124.687566,https://maps.google.com/?cid=0x0:0xea2f05a3b49e3913,
perumahan,Komplek perumahan,Lian,"2MQC+FVM, Kali Oki, Kec. Tombatu, Kabupaten Minahasa Tenggara, Sulawesi Utara","Kabupaten Minahasa Tenggara, Sulawesi Utara",SULAWESI UTARA,,Indonesia,,,,1.0387113,124.6721744,https://maps.google.com/?cid=0x0:0xe9bc97f40ee691fc,
perumahan,Komplek perumahan,Rumah,"Jaga, RW.4, Tombatu Dua Bar., Kec. Tombatu, Kabupaten Minahasa Tenggara, Sulawesi Utara","Kabupaten Minahasa Tenggara, Sulawesi Utara",SULAWESI UTARA,,Indonesia,,,,1.0392484,124.6843985,https://maps.google.com/?cid=0x0:0xf1a520d6815879f3,
perumahan,Komplek perumahan,Erenns,"2MQH+9V4, Tombatu Satu, Kec. Tombatu, Kabupaten Minahasa Tenggara, Sulawesi Utara","Kabupaten Minahasa Tenggara, Sulawesi Utara",SULAWESI UTARA,,Indonesia,,,,1.0383802,124.6797066,https://maps.google.com/?cid=0x0:0x7b88d68606fa4035,
perumahan,Perumahan,Home Mokolomban Rambembuoch,"2MQM+88G, Tombatu, Kec. Tombatu, Kabupaten Minahasa Tenggara, Sulawesi Utara","Kabupaten Minahasa Tenggara, Sulawesi Utara",SULAWESI UTARA,,Indonesia,,,,1.0385028,124.6831221,https://maps.google.com/?cid=0x0:0xfae78d70ac73e769,
perumahan,Komplek perumahan,Rumah mamah Delin,"2MWP+H8H, Tombatu Dua Utara, Kec. Tombatu Utara, Kabupaten Minahasa Tenggara, Sulawesi Utara","Kabupaten Minahasa Tenggara, Sulawesi Utara",SULAWESI UTARA,,Indonesia,,,,1.046429,124.6858463,https://maps.google.com/?cid=0x0:0x9d34d9e9f4457a92,
perumahan,Komplek perumahan,Hanri Mokat,"2MQC+XPM Kompleks GPDI, Kali Oki, Kec. Tombatu, Kabupaten Minahasa Tenggara, Sulawesi Utara","Kabupaten Minahasa Tenggara, Sulawesi Utara",SULAWESI UTARA,,Indonesia,,,,1.0399583,124.6717844,https://maps.google.com/?cid=0x0:0x60004884de39adb2,
perumahan,Komplek perumahan,Kel. Pdt. Legi - Aring,"2MVJ+C3C, Jaga I, Betelan Satu, Kec. Tombatu, Kabupaten Minahasa Tenggara, Sulawesi Utara","Kabupaten Minahasa Tenggara, Sulawesi Utara",SULAWESI UTARA,,Indonesia,,,,1.043555,124.6801545,https://maps.google.com/?cid=0x0:0x376f2f3cebdd09bd,
perumahan,Komplek perumahan,kel. Sumual Malinggas,"2MGH+GF, Tombatu Satu, Kec. Tombatu, Kabupaten Minahasa Tenggara, Sulawesi Utara","Kabupaten Minahasa Tenggara, Sulawesi Utara",SULAWESI UTARA,,Indonesia,,,,1.026333,124.678717,https://maps.google.com/?cid=0x0:0x9336c8a06135311e,
perumahan,perumahan,Kec. Tombatu Tim.,"Kabupaten Minahasa Tenggara, Sulawesi Utara","Kabupaten Minahasa Tenggara, Sulawesi Utara",SULAWESI UTARA,,Indonesia,,,,1.0260417,124.7260931,https://maps.google.com/?cid=0x0:0xc4583ba933d210d3,
perumahan,Komplek perumahan,Perumahan,"2P78+7XG, Esandom Dua, Kec. Tombatu Tim., Kabupaten Minahasa Tenggara, Sulawesi Utara","Kabupaten Minahasa Tenggara, Sulawesi Utara",SULAWESI UTARA,,Indonesia,,,,1.0131822,124.7174403,https://maps.google.com/?cid=0x0:0xd1a8c5a84b96062a,
perumahan,Komplek perumahan,My Home molompar Atas kec.Tombatu -timur,"2PHJ+GGQ, Molompar Atas, Kec. Tombatu Tim., Kabupaten Minahasa Tenggara, Sulawesi Utara","Kabupaten Minahasa Tenggara, Sulawesi Utara",SULAWESI UTARA,,Indonesia,,,,1.0288281,124.7313543,https://maps.google.com/?cid=0x0:0x81f79a0b2b8cce8,
perumahan,Komplek perumahan,Rumah Etangg,"2PGH+4FG, Molompar, Kec. Tombatu Tim., Kabupaten Minahasa Tenggara, Sulawesi Utara","Kabupaten Minahasa Tenggara, Sulawesi Utara",SULAWESI UTARA,,Indonesia,,,,1.0253018,124.7287079,https://maps.google.com/?cid=0x0:0x7d4da358036aab48,
perumahan,Komplek perumahan,Rumah Arielwatugigir,"2PFH+FVX, Molompar Satu, Kec. Tombatu Tim., Kabupaten Minahasa Tenggara, Sulawesi Utara","Kabupaten Minahasa Tenggara, Sulawesi Utara",SULAWESI UTARA,,Indonesia,,,,1.023744,124.7297318,https://maps.google.com/?cid=0x0:0x3ddd7a38422effad,
perumahan,Komplek perumahan,TIMs Home,"Winorangian, Kec. Tombatu Utara, Kabupaten Minahasa Tenggara, Sulawesi Utara","Kabupaten Minahasa Tenggara, Sulawesi Utara",SULAWESI UTARA,,Indonesia,,,,1.0385886,124.719482,https://maps.google.com/?cid=0x0:0x50b1895db25d8b09,
perumahan,Pembangunan Perumahan,DHOME,"2PGH+655, Molompar, Kec. Tombatu Tim., Kabupaten Minahasa Tenggara, Sulawesi Utara","Kabupaten Minahasa Tenggara, Sulawesi Utara",SULAWESI UTARA,,Indonesia,82192487669.0,,,1.0255079,124.7279586,https://maps.google.com/?cid=0x0:0xdbc38f66857d1317,
perumahan,perumahan,Brian,"2PCM+Q32, Molompar Satu, Kec. Tombatu Tim., Kabupaten Minahasa Tenggara, Sulawesi Utara","Kabupaten Minahasa Tenggara, Sulawesi Utara",SULAWESI UTARA,,Indonesia,,,,1.0218901,124.7326398,https://maps.google.com/?cid=0x0:0xd703b80bbc8ab535,
perumahan,Perhimpunan Pengembang Perumahan,Dhe Homes,"2PJJ+78W, Unnamed Road, Molompar Dua Utara, Kec. Tombatu Tim., Kabupaten Minahasa Tenggara, Sulawesi Utara","Kabupaten Minahasa Tenggara, Sulawesi Utara",SULAWESI UTARA,,Indonesia,,,,1.030742,124.7308254,https://maps.google.com/?cid=0x0:0x917a467286822027,
perumahan,Komplek perumahan,Kel Tompunu Tuerah,"2PHG+G9V, Molompar Dua Utara, Kec. Tombatu Tim., Kabupaten Minahasa Tenggara, Sulawesi Utara","Kabupaten Minahasa Tenggara, Sulawesi Utara",SULAWESI UTARA,,Indonesia,,,,1.0288661,124.7259236,https://maps.google.com/?cid=0x0:0xe323b121097873a7,
perumahan,Pembangunan Perumahan,GoNemz Home,"2PCG+2F, Molompar Dua Sel., Kec. Tombatu Tim., Kabupaten Minahasa Tenggara, Sulawesi Utara","Kabupaten Minahasa Tenggara, Sulawesi Utara",SULAWESI UTARA,,Indonesia,,,,1.020081,124.7260436,https://maps.google.com/?cid=0x0:0xa225e177b8080440,
perumahan,Komplek perumahan,Kampung Kopi,"2P9C+W7, Esandom Dua, Kec. Tombatu Tim., Kabupaten Minahasa Tenggara, Sulawesi Utara","Kabupaten Minahasa Tenggara, Sulawesi Utara",SULAWESI UTARA,,Indonesia,,,,1.0197915,124.7206446,https://maps.google.com/?cid=0x0:0x39a225ac602fc48a,
perumahan,perumahan,Rere Home,"2PGG+6P7, Molompar Dua Sel., Kec. Tombatu Tim., Kabupaten Minahasa Tenggara, Sulawesi Utara","Kabupaten Minahasa Tenggara, Sulawesi Utara",SULAWESI UTARA,,Indonesia,,,,1.0255375,124.7267901,https://maps.google.com/?cid=0x0:0x4f230d6cc662b2b,
perumahan,perumahan,Lio,"2PGF+823, Esandom Satu, Kec. Tombatu Tim., Kabupaten Minahasa Tenggara, Sulawesi Utara","Kabupaten Minahasa Tenggara, Sulawesi Utara",SULAWESI UTARA,,Indonesia,,,,1.0257661,124.7225623,https://maps.google.com/?cid=0x0:0xb46d48560d9afd78,
perumahan,Komplek perumahan,Jaga 3 Esandom Satu,"2PFF+QPR, RT.Jaga/RW.3, Esandom Satu, Tombatu Timur, Southeast Minahasa Regency, North Sulawesi","Kabupaten Minahasa Tenggara, Sulawesi Utara",SULAWESI UTARA,,Indonesia,,,,1.0244905,124.7242604,https://maps.google.com/?cid=0x0:0x250ac22775bb529,
perumahan,Komplek perumahan,"Esandom,Tombatu Timur","2PCF+8J2, Esandom, Kec. Tombatu Tim., Kabupaten Minahasa Tenggara, Sulawesi Utara","Kabupaten Minahasa Tenggara, Sulawesi Utara",SULAWESI UTARA,,Indonesia,,,,1.0207612,124.7240041,https://maps.google.com/?cid=0x0:0xe1f9ddd623eaa952,
perumahan,Pembangunan Perumahan,Tongkotow Rondonuwu,"2PCC+GXP, Esandom, Kec. Tombatu Tim., Kabupaten Minahasa Tenggara, Sulawesi Utara","Kabupaten Minahasa Tenggara, Sulawesi Utara",SULAWESI UTARA,,Indonesia,,,,1.0213326,124.7224442,https://maps.google.com/?cid=0x0:0xb2f502eb6f3c7752,
perumahan,Pembangunan Perumahan,OPANNN HOUSE,"2PMJ+47Q, Molompar Dua Utara, Kec. Tombatu Tim., Kabupaten Minahasa Tenggara, Sulawesi Utara","Kabupaten Minahasa Tenggara, Sulawesi Utara",SULAWESI UTARA,,Indonesia,,,,1.0328279,124.7307491,https://maps.google.com/?cid=0x0:0xc95f602e413fd7c8,
perumahan,Komplek perumahan,Kolanus - Damopolii,"2PGG+QM8, Molompar Dua, Kec. Tombatu Tim., Kabupaten Minahasa Tenggara, Sulawesi Utara","Kabupaten Minahasa Tenggara, Sulawesi Utara",SULAWESI UTARA,,Indonesia,,,,1.0267936,124.7265195,https://maps.google.com/?cid=0x0:0x874c576d0457fc3a,
perumahan,Komplek perumahan,Mundung Satu Jaga V,"2PJ8+2C3, Mundung Satu, Kec. Tombatu Tim., Kabupaten Minahasa Tenggara, Sulawesi Utara","Kabupaten Minahasa Tenggara, Sulawesi Utara",SULAWESI UTARA,,Indonesia,,,,1.0300044,124.7160584,https://maps.google.com/?cid=0x0:0xa6c16380fe003d93,
perumahan,perumahan,Ezi,"2PG9+Q69, Mundung Satu, Kec. Tombatu Tim., Kabupaten Minahasa Tenggara, Sulawesi Utara","Kabupaten Minahasa Tenggara, Sulawesi Utara",SULAWESI UTARA,,Indonesia,,,,1.0273162,124.717423,https://maps.google.com/?cid=0x0:0xb2e26d89e84ec14,
perumahan,perumahan,SN'home,"2PHH+83Q, Molompar Atas, Kec. Tombatu Tim., Kabupaten Minahasa Tenggara, Sulawesi Utara","Kabupaten Minahasa Tenggara, Sulawesi Utara",SULAWESI UTARA,,Indonesia,,,,1.0283264,124.7277478,https://maps.google.com/?cid=0x0:0xf75598a19c44d3c6,
perumahan,Perhimpunan Pengembang Perumahan,Kai Home,"2PHC+VCG, Mundung Satu, Kec. Tombatu Tim., Kabupaten Minahasa Tenggara, Sulawesi Utara","Kabupaten Minahasa Tenggara, Sulawesi Utara",SULAWESI UTARA,,Indonesia,,,,1.0296889,124.7210693,https://maps.google.com/?cid=0x0:0x9d0156603d8be346,
perumahan,perumahan,S'homes,"2PHH+956, Molompar Atas, Kec. Tombatu Tim., Kabupaten Minahasa Tenggara, Sulawesi Utara","Kabupaten Minahasa Tenggara, Sulawesi Utara",SULAWESI UTARA,,Indonesia,,,,1.0284238,124.72788,https://maps.google.com/?cid=0x0:0x5ccf8e464a04977b,
perumahan,Komplek perumahan,Ano-Anggoronggang,"2PFC+9WW, Unnamed Road, Esandom Dua, Kec. Tombatu Tim., Kabupaten Minahasa Tenggara, Sulawesi Utara","Kabupaten Minahasa Tenggara, Sulawesi Utara",SULAWESI UTARA,,Indonesia,,,,1.0234992,124.7223265,https://maps.google.com/?cid=0x0:0xc180ab9d851cae3b,
perumahan,Pembangunan Perumahan,RaveLivi's Family,"2PHC+R92, Mundung Satu, Kec. Tombatu Tim., Kabupaten Minahasa Tenggara, Sulawesi Utara","Kabupaten Minahasa Tenggara, Sulawesi Utara",SULAWESI UTARA,,Indonesia,,,,1.0295015,124.7208862,https://maps.google.com/?cid=0x0:0x8b0a78d100da4336,
perumahan,perumahan,Kec. Tombatu Utara,"Kabupaten Minahasa Tenggara, Sulawesi Utara","Kabupaten Minahasa Tenggara, Sulawesi Utara",SULAWESI UTARA,,Indonesia,,,,1.0435986,124.6869059,https://maps.google.com/?cid=0x0:0x3786e15772770449,
perumahan,Komplek perumahan,Kevin Home,"2MXJ+JJQ Kec. Tombatu Utara, Tombatu Dua Bar., Jaga 4, Kabupaten Minahasa Tenggara, Sulawesi Utara 95996","Tombatu Dua Bar., Jaga 4, Kabupaten Minahasa Tenggara",SULAWESI UTARA,95996.0,Indonesia,,,,1.0490687,124.6817434,https://maps.google.com/?cid=0x0:0x163897fe2e4f086a,
perumahan,Pembangunan Perumahan,KEJoRA fam's,"Jl keletambal No.3, Tombatu, Kec. Tombatu, Kabupaten Minahasa Tenggara, Sulawesi Utara 95996","Tombatu, Kec. Tombatu, Kabupaten Minahasa Tenggara",SULAWESI UTARA,95996.0,Indonesia,,,,1.0301126,124.6860108,https://maps.google.com/?cid=0x0:0xacfea59ec788d51c,
perumahan,Pembangunan Perumahan,Rumah Tombatu,"2MWM+CR8, Unnamed Road, Central Tombatu Dua, Tombatu Utara, Southeast Minahasa Regency, North Sulawesi","Kabupaten Minahasa Tenggara, Sulawesi Utara",SULAWESI UTARA,,Indonesia,,,,1.0460354,124.6845887,https://maps.google.com/?cid=0x0:0x4f1c0216e7d3d086,
perumahan,Komplek perumahan,Rumah ken,"2MRP+QR5, Tombatu Tiga Tengah, Kec. Tombatu Utara, Kabupaten Minahasa Tenggara, Sulawesi Utara","Kabupaten Minahasa Tenggara, Sulawesi Utara",SULAWESI UTARA,,Indonesia,,,,1.0418813,124.6871088,https://maps.google.com/?cid=0x0:0x46a8673035340374,
perumahan,Komplek perumahan,Rumah Novi Tondatuon,"2PP2+C5J, RT.Jaga/RW.3, Kuyanga Satu, Kec. Tombatu Utara, Kabupaten Minahasa Tenggara, Sulawesi Utara","Kabupaten Minahasa Tenggara, Sulawesi Utara",SULAWESI UTARA,,Indonesia,,,,1.0360936,124.7005045,https://maps.google.com/?cid=0x0:0xa0c21f662cc30c9f,
perumahan,Komplek perumahan,MORO'SING,"3M2P+5FQ jaga 3, Tombatu Dua Utara, Kec. Tombatu Utara, Kabupaten Minahasa Tenggara, Sulawesi Utara","Kabupaten Minahasa Tenggara, Sulawesi Utara",SULAWESI UTARA,,Indonesia,,,,1.0504655,124.6862451,https://maps.google.com/?cid=0x0:0x22e65f147b178e81,
perumahan,Komplek perumahan,RPS HOUSE,"2MXJ+WRF, Tombatu Dua Bar., Kec. Tombatu Utara, Kabupaten Minahasa Tenggara, Sulawesi Utara","Kabupaten Minahasa Tenggara, Sulawesi Utara",SULAWESI UTARA,,Indonesia,,,,1.0498102,124.6820539,https://maps.google.com/?cid=0x0:0x2182ed0e0472b790,
perumahan,Komplek perumahan,Rumahpanggung ripkaikha,"2MVV+5JP, Tombatu Tiga, Kec. Tombatu Utara, Kabupaten Minahasa Tenggara, Sulawesi Utara","Kabupaten Minahasa Tenggara, Sulawesi Utara",SULAWESI UTARA,,Indonesia,83899761460.0,,,1.0429671,124.6940761,https://maps.google.com/?cid=0x0:0x7206323e0057072c,
perumahan,Pembangunan Perumahan,Jein Legi Home,"2MXM+892, Tombatu Dua Bar., Kec. Tombatu Utara, Kabupaten Minahasa Tenggara, Sulawesi Utara","Kabupaten Minahasa Tenggara, Sulawesi Utara",SULAWESI UTARA,,Indonesia,85340002552.0,,,1.0478877,124.6834121,https://maps.google.com/?cid=0x0:0x362cfe2b75809620,
perumahan,Pembangunan Perumahan,Kel. Akerpia-Leong,"2MVQ+72G, Jl. Amurang-Ratahan, Tombatu Tiga Tengah, Kec. Tombatu Utara, Kabupaten Minahasa Tenggara, Sulawesi Utara","Kabupaten Minahasa Tenggara, Sulawesi Utara",SULAWESI UTARA,,Indonesia,,,,1.043177,124.687566,https://maps.google.com/?cid=0x0:0xea2f05a3b49e3913,
perumahan,Komplek perumahan,Rumah,"2MXH+467, Tombatu Dua Tengah, Kec. Tombatu Utara, Kabupaten Minahasa Tenggara, Sulawesi Utara","Kabupaten Minahasa Tenggara, Sulawesi Utara",SULAWESI UTARA,,Indonesia,,,,1.0477938,124.6780474,https://maps.google.com/?cid=0x0:0x8a6ee90c974bed05,
perumahan,perumahan,KEVIN HOME,"2MVP+6J3, Jl. Amurang-Ratahan, Tombatu Tiga Tengah, Kec. Tombatu Utara, Kabupaten Minahasa Tenggara, Sulawesi Utara","Kabupaten Minahasa Tenggara, Sulawesi Utara",SULAWESI UTARA,,Indonesia,,,,1.043022,124.6865587,https://maps.google.com/?cid=0x0:0xc3c8d72e78ebae14,
perumahan,Komplek perumahan,De shop,"2MWP+57X, Tombatu Dua, Kec. Tombatu Utara, Kabupaten Minahasa Tenggara, Sulawesi Utara","Kabupaten Minahasa Tenggara, Sulawesi Utara",SULAWESI UTARA,,Indonesia,85397895575.0,,,1.0454832,124.6857325,https://maps.google.com/?cid=0x0:0xa5b1f89969b8b0c5,
perumahan,Komplek perumahan,Rumah Bilondatu-Lihawa,"2MWQ+G45, Tombatu Tiga, Kec. Tombatu Utara, Kabupaten Minahasa Tenggara, Sulawesi Utara","Kabupaten Minahasa Tenggara, Sulawesi Utara",SULAWESI UTARA,,Indonesia,,,,1.0462632,124.6878743,https://maps.google.com/?cid=0x0:0xb6e907351abe6da7,
perumahan,Perhimpunan Pengembang Perumahan,Istana Kumesan,"Betelan, Kec. Tombatu, Kabupaten Minahasa Tenggara, Sulawesi Utara","Kabupaten Minahasa Tenggara, Sulawesi Utara",SULAWESI UTARA,,Indonesia,,,,1.0424918,124.6842062,https://maps.google.com/?cid=0x0:0x32b283543e356ce5,
perumahan,Komplek perumahan,tombatu 2,"2MVP+R44, Tombatu Dua, Kec. Tombatu Utara, Kabupaten Minahasa Tenggara, Sulawesi Utara","Kabupaten Minahasa Tenggara, Sulawesi Utara",SULAWESI UTARA,,Indonesia,,,,1.0445093,124.6853137,https://maps.google.com/?cid=0x0:0xf2ba452655c66966,
perumahan,Komplek perumahan,Rumah mamah Delin,"2MWP+H8H, Tombatu Dua Utara, Kec. Tombatu Utara, Kabupaten Minahasa Tenggara, Sulawesi Utara","Kabupaten Minahasa Tenggara, Sulawesi Utara",SULAWESI UTARA,,Indonesia,,,,1.046429,124.6858463,https://maps.google.com/?cid=0x0:0x9d34d9e9f4457a92,
perumahan,Komplek perumahan,Kel. Pdt. Legi - Aring,"2MVJ+C3C, Jaga I, Betelan Satu, Kec. Tombatu, Kabupaten Minahasa Tenggara, Sulawesi Utara","Kabupaten Minahasa Tenggara, Sulawesi Utara",SULAWESI UTARA,,Indonesia,,,,1.043555,124.6801545,https://maps.google.com/?cid=0x0:0x376f2f3cebdd09bd,
perumahan,Pembangunan Perumahan,Vhia,"2MXQ+P8P, Tombatu Dua Utara, Kec. Tombatu Utara, Kabupaten Minahasa Tenggara, Sulawesi Utara","Kabupaten Minahasa Tenggara, Sulawesi Utara",SULAWESI UTARA,,Indonesia,,,,1.0493445,124.6883162,https://maps.google.com/?cid=0x0:0x1f438f4fe88577ff,
perumahan,Perhimpunan Pengembang Perumahan,Tombatu 3timur,"2MRQ+36Q, Unnamed Road, Tombatu Tiga Tim., Kec. Tombatu, Kabupaten Minahasa Tenggara, Sulawesi Utara","Kabupaten Minahasa Tenggara, Sulawesi Utara",SULAWESI UTARA,,Indonesia,,,,1.0402042,124.6880974,https://maps.google.com/?cid=0x0:0xac0452f37b31de84,
perumahan,Komplek perumahan,Rumah,"Jaga, RW.4, Tombatu Dua Bar., Kec. Tombatu, Kabupaten Minahasa Tenggara, Sulawesi Utara","Kabupaten Minahasa Tenggara, Sulawesi Utara",SULAWESI UTARA,,Indonesia,,,,1.0392484,124.6843985,https://maps.google.com/?cid=0x0:0xf1a520d6815879f3,
perumahan,Komplek perumahan,Rumah Keluarga Dopong,"2MVH+VWF, Jalan raya Tombatu-Silian, Betelan Satu, Kec. Tombatu Utara, Kabupaten Minahasa Tenggara, Sulawesi Utara","Kabupaten Minahasa Tenggara, Sulawesi Utara",SULAWESI UTARA,,Indonesia,,,,1.0446782,124.6798041,https://maps.google.com/?cid=0x0:0xb07d6d366a676485,
perumahan,Komplek perumahan,Kompleks toja,"2MRR+VGP, Jl. Amurang-Ratahan, Tombatu Tiga Tim., Kec. Tombatu, Kabupaten Minahasa Tenggara, Sulawesi Utara","Kabupaten Minahasa Tenggara, Sulawesi Utara",SULAWESI UTARA,,Indonesia,,,,1.0422468,124.6912586,https://maps.google.com/?cid=0x0:0xa8f1b2353a0c9b7a,
perumahan,perumahan,Kec. Touluaan,"Kabupaten Minahasa Tenggara, Sulawesi Utara","Kabupaten Minahasa Tenggara, Sulawesi Utara",SULAWESI UTARA,,Indonesia,,,,1.0561242,124.6513459,https://maps.google.com/?cid=0x0:0xb9e36ebc0d0281f7,
perumahan,Komplek perumahan,Perumahan Lobu Senay,"3J9V+8XX, Lobu Kota, Kec. Touluaan, Kabupaten Minahasa Tenggara, Sulawesi Utara","Kabupaten Minahasa Tenggara, Sulawesi Utara",SULAWESI UTARA,,Indonesia,,,,1.06861,124.646018,https://maps.google.com/?cid=0x0:0x5c0cde4809169bf2,
perumahan,Komplek perumahan,Lobu satu kecamatan touluaan,"3M43+RG3, Lobu Atas, Kec. Touluaan, Kabupaten Minahasa Tenggara, Sulawesi Utara","Kabupaten Minahasa Tenggara, Sulawesi Utara",SULAWESI UTARA,,Indonesia,,,,1.0579067,124.6537127,https://maps.google.com/?cid=0x0:0xededa4bee10af8c8,
perumahan,Kantor Perusahaan,Desa Lobu Jaga 1,"3M52+969, Lobu, Kec. Touluaan, Kabupaten Minahasa Tenggara, Sulawesi Utara","Kabupaten Minahasa Tenggara, Sulawesi Utara",SULAWESI UTARA,,Indonesia,,,,1.0584136,124.6506243,https://maps.google.com/?cid=0x0:0xc9cf7c95c35bd26f,
perumahan,Komplek perumahan,Rumah Keluarga Abuno Mosey,"3M52+2P9, jaga 4, Lobu Kota, Kec. Touluaan, Kabupaten Minahasa Tenggara, Sulawesi Utara","Kabupaten Minahasa Tenggara, Sulawesi Utara",SULAWESI UTARA,,Indonesia,,,,1.0575284,124.6518742,https://maps.google.com/?cid=0x0:0xac04015ff5fd2396,
perumahan,Komplek perumahan,Kel. Tuda Mamahit,"3M52+8QF, Lobu, Kec. Touluaan, Kabupaten Minahasa Tenggara, Sulawesi Utara","Kabupaten Minahasa Tenggara, Sulawesi Utara",SULAWESI UTARA,,Indonesia,,,,1.0583238,124.6519108,https://maps.google.com/?cid=0x0:0x28dc1dd76e4873a6,
perumahan,Komplek perumahan,Lobu Dua Jaga 4,"3J9W+25W, Jl. Amurang-Ratahan No.16, Lobu Dua, Kec. Touluaan, Kabupaten Minahasa Tenggara, Sulawesi Utara","Kabupaten Minahasa Tenggara, Sulawesi Utara",SULAWESI UTARA,,Indonesia,,,,1.0631381,124.6475514,https://maps.google.com/?cid=0x0:0x2ed81f6c4a997fc9,
perumahan,Komplek perumahan,Kel runtukahu lende,"3M43+RG3, Lobu Atas, Kec. Touluaan, Kabupaten Minahasa Tenggara, Sulawesi Utara","Kabupaten Minahasa Tenggara, Sulawesi Utara",SULAWESI UTARA,,Indonesia,,,,1.0579067,124.6537127,https://maps.google.com/?cid=0x0:0x7d74a956d7a3db5b,
perumahan,Komplek perumahan,Home Kel. Mokat Umboh,"Lobu, Kec. Touluaan, Kabupaten Minahasa Tenggara, Sulawesi Utara 95965","Kec. Touluaan, Kabupaten Minahasa Tenggara",SULAWESI UTARA,95965.0,Indonesia,82192009087.0,,,1.0560403,124.6487791,https://maps.google.com/?cid=0x0:0x95e258c78c585d97,
perumahan,Pembangunan Perumahan,Lobu Dua Jaga 2,"3JFQ+RF6, Lobu Dua, Kec. Touluaan, Kabupaten Minahasa Tenggara, Sulawesi Utara","Kabupaten Minahasa Tenggara, Sulawesi Utara",SULAWESI UTARA,,Indonesia,81241112546.0,,,1.0745429,124.6386365,https://maps.google.com/?cid=0x0:0x366338146bb2be25,
perumahan,Perumahan,Desa Toundanouw,"3M33+47W, Tondanouw, Kec. Touluaan, Kabupaten Minahasa Tenggara, Sulawesi Utara","Kabupaten Minahasa Tenggara, Sulawesi Utara",SULAWESI UTARA,,Indonesia,,,,1.0529015,124.6531518,https://maps.google.com/?cid=0x0:0xcbd9a72aa5a55e4c,
perumahan,Rumah Makan,Rumah,"3M25+C5V, Ranoketang Atas, Kec. Touluaan, Kabupaten Minahasa Tenggara, Sulawesi Utara","Kabupaten Minahasa Tenggara, Sulawesi Utara",SULAWESI UTARA,,Indonesia,,,,1.0511035,124.6579246,https://maps.google.com/?cid=0x0:0x97d1114d6dca0450,
perumahan,Komplek perumahan,Sensey kosegeran,"3J4V+72W, Tondanouw Satu, Kec. Touluaan, Kabupaten Minahasa Tenggara, Sulawesi Utara","Kabupaten Minahasa Tenggara, Sulawesi Utara",SULAWESI UTARA,,Indonesia,,,,1.0556895,124.6424526,https://maps.google.com/?cid=0x0:0xfe71382a09b4bb22,
perumahan,Komplek perumahan,Rumah Ponomban katupayan,"3M35+2Q7, Ranoketang Atas, Kec. Touluaan, Kabupaten Minahasa Tenggara, Sulawesi Utara","Kabupaten Minahasa Tenggara, Sulawesi Utara",SULAWESI UTARA,,Indonesia,,,,1.0524986,124.6594798,https://maps.google.com/?cid=0x0:0x6a8e28429cfdff2f,
perumahan,Komplek perumahan,C'home,"3M44+PH9, Lobu Atas, Kec. Touluaan, Kabupaten Minahasa Tenggara, Sulawesi Utara","Kabupaten Minahasa Tenggara, Sulawesi Utara",SULAWESI UTARA,,Indonesia,,,,1.0567874,124.6564763,https://maps.google.com/?cid=0x0:0xb0285fc3398f0d68,
perumahan,perumahan,Home Poluan-Lengkong,"3M43+5X3, Lobu Atas, Kec. Touluaan, Kabupaten Minahasa Tenggara, Sulawesi Utara","Kabupaten Minahasa Tenggara, Sulawesi Utara",SULAWESI UTARA,,Indonesia,,,,1.0553936,124.6549361,https://maps.google.com/?cid=0x0:0x885ca6ce5b450ebe,
perumahan,Komplek perumahan,Teli gorung,"3M52+827, Lobu, Kec. Touluaan, Kabupaten Minahasa Tenggara, Sulawesi Utara","Kabupaten Minahasa Tenggara, Sulawesi Utara",SULAWESI UTARA,,Indonesia,,,,1.0582977,124.6500468,https://maps.google.com/?cid=0x0:0x4f59fed79be3b8e,
perumahan,perumahan,Rumah jojo,"3J5X+Q74, Lobu Dua, Kec. Touluaan, Kabupaten Minahasa Tenggara, Sulawesi Utara","Kabupaten Minahasa Tenggara, Sulawesi Utara",SULAWESI UTARA,,Indonesia,,,,1.0593875,124.6482031,https://maps.google.com/?cid=0x0:0xac17de4e25789b0c,
perumahan,Pembangunan Perumahan,Rumah kel. Legi Umbunan.,"3M42+PJ6 jaga 4 kopleks kantor camat, Lobu Kota, Kec. Touluaan, Kabupaten Minahasa Tenggara, Sulawesi Utara","Kabupaten Minahasa Tenggara, Sulawesi Utara",SULAWESI UTARA,,Indonesia,,,,1.0567918,124.6515136,https://maps.google.com/?cid=0x0:0x647dd3092215cd57,
perumahan,Komplek perumahan,Poluan Panggey Residence,"3J8W+P84, Lobu Dua, Kec. Touluaan, Kabupaten Minahasa Tenggara, Sulawesi Utara","Kabupaten Minahasa Tenggara, Sulawesi Utara",SULAWESI UTARA,,Indonesia,,,,1.0667505,124.6458379,https://maps.google.com/?cid=0x0:0x466a44fddcc3325f,
perumahan,Perhimpunan Pengembang Perumahan,My home,"3M32+CH2, Tondanouw, Kec. Touluaan, Kabupaten Minahasa Tenggara, Sulawesi Utara","Kabupaten Minahasa Tenggara, Sulawesi Utara",SULAWESI UTARA,,Indonesia,,,,1.0530156,124.6501803,https://maps.google.com/?cid=0x0:0x471433d11d8bc806,
perumahan,Pembangunan Perumahan,Shintia Tangel,"3M69+5VW, Silian Sel., Kec. Silian Raya, Kabupaten Minahasa Tenggara, Sulawesi Utara","Kabupaten Minahasa Tenggara, Sulawesi Utara",SULAWESI UTARA,,Indonesia,,,,1.0604254,124.6697416,https://maps.google.com/?cid=0x0:0x47c5f7f2a7cd8ff4,
perumahan,perumahan,Rumah Kel L.wowor akay,"3M88+WG8, Silian Tengah, Kec. Silian Raya, Kabupaten Minahasa Tenggara, Sulawesi Utara","Kabupaten Minahasa Tenggara, Sulawesi Utara",SULAWESI UTARA,,Indonesia,,,,1.066671,124.666383,https://maps.google.com/?cid=0x0:0xcefb952ee1d1285d,
perumahan,Komplek perumahan,Silian tengah,"3M78+RHV, Silian Kota, Kec. Silian Raya, Kabupaten Minahasa Tenggara, Sulawesi Utara","Kabupaten Minahasa Tenggara, Sulawesi Utara",SULAWESI UTARA,,Indonesia,,,,1.0646665,124.6663491,https://maps.google.com/?cid=0x0:0xd9f23653f2301cf3,
perumahan,Perhimpunan Pengembang Perumahan,Yarden Home's,"3M44+V6W, Lobu Atas, Kec. Touluaan, Kabupaten Minahasa Tenggara, Sulawesi Utara","Kabupaten Minahasa Tenggara, Sulawesi Utara",SULAWESI UTARA,,Indonesia,,,,1.0572291,124.6555406,https://maps.google.com/?cid=0x0:0x298f9daede5be058,
perumahan,Komplek perumahan,"KeluargaNayoan Liwan""","3M25+9J7, Ranoketang Atas, Kec. Touluaan, Kabupaten Minahasa Tenggara, Sulawesi Utara","Kabupaten Minahasa Tenggara, Sulawesi Utara",SULAWESI UTARA,,Indonesia,,,,1.050832,124.65883,https://maps.google.com/?cid=0x0:0x31382dff91b5ff8a,
perumahan,Perhimpunan Pengembang Perumahan,neddy tumiwan home,"3M43+GG7, Lobu Atas, Kec. Touluaan, Kabupaten Minahasa Tenggara, Sulawesi Utara","Kabupaten Minahasa Tenggara, Sulawesi Utara",SULAWESI UTARA,,Indonesia,,,,1.0562822,124.6538062,https://maps.google.com/?cid=0x0:0x9f8837ca58980d85,
perumahan,perumahan,Kec. Touluaan Sel.,"Kabupaten Minahasa Tenggara, Sulawesi Utara","Kabupaten Minahasa Tenggara, Sulawesi Utara",SULAWESI UTARA,,Indonesia,,,,1.0264722,124.5859669,https://maps.google.com/?cid=0x0:0xe1cb2698c83351a2,
perumahan,perumahan,MiracleHouse,"2H9C+XV9, Kalait, Kec. Touluaan Sel., Kabupaten Minahasa Tenggara, Sulawesi Utara","Kabupaten Minahasa Tenggara, Sulawesi Utara",SULAWESI UTARA,,Indonesia,,,,1.0199083,124.5722198,https://maps.google.com/?cid=0x0:0x8b234bf113b8a9f9,
perumahan,Perhimpunan Pengembang Perumahan,Tampa Jaringan,"XJJG+7MQ, Lowatag, Kec. Touluaan Sel., Kabupaten Minahasa Tenggara, Sulawesi Utara","Kabupaten Minahasa Tenggara, Sulawesi Utara",SULAWESI UTARA,,Indonesia,,,,0.9807094,124.6267286,https://maps.google.com/?cid=0x0:0xcfee530f9d32cc43,
perumahan,Pembangunan Perumahan,Rava home,"2HGQ+H2J, Kalait Satu, Kec. Touluaan Sel., Kabupaten Minahasa Tenggara, Sulawesi Utara","Kabupaten Minahasa Tenggara, Sulawesi Utara",SULAWESI UTARA,,Indonesia,,,,1.0265528,124.587525,https://maps.google.com/?cid=0x0:0x784cb0c1eacd9e01,
perumahan,Komplek perumahan,Perumahan Lobu Senay,"3J9V+8XX, Lobu Kota, Kec. Touluaan, Kabupaten Minahasa Tenggara, Sulawesi Utara","Kabupaten Minahasa Tenggara, Sulawesi Utara",SULAWESI UTARA,,Indonesia,,,,1.06861,124.646018,https://maps.google.com/?cid=0x0:0x5c0cde4809169bf2,
perumahan,Komplek perumahan,LOVE and SHINE,"2HGM+FM6, Kalait, Kec. Touluaan Sel., Kabupaten Minahasa Tenggara, Sulawesi Utara","Kabupaten Minahasa Tenggara, Sulawesi Utara",SULAWESI UTARA,,Indonesia,,,,1.0261708,124.5841466,https://maps.google.com/?cid=0x0:0x3b11adef6f8bbf79,
perumahan,Komplek perumahan,Rumah Mecann,"2HJQ+43W, Kalait Dua, Kec. Touluaan Sel., Kabupaten Minahasa Tenggara, Sulawesi Utara","Kabupaten Minahasa Tenggara, Sulawesi Utara",SULAWESI UTARA,,Indonesia,,,,1.0303734,124.5877025,https://maps.google.com/?cid=0x0:0x86ae624e61d6df07,
perumahan,Komplek perumahan,Lobu satu kecamatan touluaan,"3M43+RG3, Lobu Atas, Kec. Touluaan, Kabupaten Minahasa Tenggara, Sulawesi Utara","Kabupaten Minahasa Tenggara, Sulawesi Utara",SULAWESI UTARA,,Indonesia,,,,1.0579067,124.6537127,https://maps.google.com/?cid=0x0:0xededa4bee10af8c8,
perumahan,Komplek perumahan,Prillys Home,"2HGM+FHJ, Jaga 1, Kalait Dua, Touluaan Selatan, Southeast Minahasa Regency, North Sulawesi","Kabupaten Minahasa Tenggara, Sulawesi Utara",SULAWESI UTARA,,Indonesia,,,,1.0262166,124.5838954,https://maps.google.com/?cid=0x0:0xe166d78c9a93409a,
perumahan,Pembangunan Perumahan,Tiara Home,"2H9C+XV9, Kalait, Kec. Touluaan Sel., Kabupaten Minahasa Tenggara, Sulawesi Utara","Kabupaten Minahasa Tenggara, Sulawesi Utara",SULAWESI UTARA,,Indonesia,,,,1.0199083,124.5722198,https://maps.google.com/?cid=0x0:0x3792d249baef8697,
perumahan,Komplek perumahan,Keluarga Four J,"XJC3+23M, Lowatag, Kec. Touluaan Sel., Kabupaten Minahasa Tenggara, Sulawesi Utara","Kabupaten Minahasa Tenggara, Sulawesi Utara",SULAWESI UTARA,,Indonesia,,,,0.9700805,124.6026671,https://maps.google.com/?cid=0x0:0xc5a4607b3fbfc382,
perumahan,Komplek perumahan,Kalait,"2HCJ+66, Kalait, Kec. Touluaan Sel., Kabupaten Minahasa Tenggara, Sulawesi Utara","Kabupaten Minahasa Tenggara, Sulawesi Utara",SULAWESI UTARA,,Indonesia,,,,1.020609,124.580596,https://maps.google.com/?cid=0x0:0x2b1708dae2daa56d,
perumahan,Komplek perumahan,Kenzo gans,"2HHM+849, Jl. Puncak, Kalait Tiga, Kec. Touluaan Sel., Kabupaten Minahasa Tenggara, Sulawesi Utara","Kabupaten Minahasa Tenggara, Sulawesi Utara",SULAWESI UTARA,,Indonesia,,,,1.0292294,124.5827167,https://maps.google.com/?cid=0x0:0x1204d87a879ea0d2,
perumahan,Pembangunan Perumahan,KEL. KATUPAYAN TUKALI,"XJJG+7MP, Lowatag, Kec. Touluaan Sel., Kabupaten Minahasa Tenggara, Sulawesi Utara","Kabupaten Minahasa Tenggara, Sulawesi Utara",SULAWESI UTARA,,Indonesia,,,,0.9807069,124.6267207,https://maps.google.com/?cid=0x0:0x22ee6279be47e47f,
perumahan,Komplek perumahan,Jelita liwe,"2HGP+MC5, Kalait Satu, Kec. Touluaan Sel., Kabupaten Minahasa Tenggara, Sulawesi Utara","Kabupaten Minahasa Tenggara, Sulawesi Utara",SULAWESI UTARA,,Indonesia,,,,1.0266348,124.5861075,https://maps.google.com/?cid=0x0:0xcf35d40ffd0532f9,
perumahan,Komplek perumahan,Chandra  Ladya (TulungMosey),"2MX3+QP, Ranoketang Atas Satu, Kec. Touluaan, Kabupaten Minahasa Tenggara, Sulawesi Utara","Kabupaten Minahasa Tenggara, Sulawesi Utara",SULAWESI UTARA,,Indonesia,,,,1.0494217,124.6543352,https://maps.google.com/?cid=0x0:0xd1629883a404aa7b,
perumahan,Pembangunan Perumahan,Bintut home,"2HGP+J3F, Kalait, Kec. Touluaan Sel., Kabupaten Minahasa Tenggara, Sulawesi Utara","Kabupaten Minahasa Tenggara, Sulawesi Utara",SULAWESI UTARA,,Indonesia,,,,1.0266046,124.5851415,https://maps.google.com/?cid=0x0:0x5120b6fa485da808,
perumahan,Komplek perumahan,Home Reyfanes,"2HJQ+2MJ, Kalait Dua, Kec. Touluaan Sel., Kabupaten Minahasa Tenggara, Sulawesi Utara","Kabupaten Minahasa Tenggara, Sulawesi Utara",SULAWESI UTARA,,Indonesia,,,,1.0300301,124.5890553,https://maps.google.com/?cid=0x0:0xa01970e76721900d,
perumahan,perumahan,Rumah Kel.Momongan Mokobimbing,"2JM5+HW5, Ranoako, Kec. Touluaan Sel., Kabupaten Minahasa Tenggara, Sulawesi Utara","Kabupaten Minahasa Tenggara, Sulawesi Utara",SULAWESI UTARA,,Indonesia,,,,1.0332483,124.6108671,https://maps.google.com/?cid=0x0:0xd5d9bb390302b9fa,
perumahan,Komplek perumahan,Lowatag kampung baru,"XJHG+X6R, Lowatag, Kec. Touluaan Sel., Kabupaten Minahasa Tenggara, Sulawesi Utara","Kabupaten Minahasa Tenggara, Sulawesi Utara",SULAWESI UTARA,,Indonesia,,,,0.9806929,124.6267266,https://maps.google.com/?cid=0x0:0x27ebd5343968a45,
perumahan,Pembangunan Perumahan,Kalait 2,"2HHQ+C4W, Kalait Dua, Kec. Touluaan Sel., Kabupaten Minahasa Tenggara, Sulawesi Utara","Kabupaten Minahasa Tenggara, Sulawesi Utara",SULAWESI UTARA,,Indonesia,,,,1.0286184,124.5877951,https://maps.google.com/?cid=0x0:0x5d17812d701f792e,
perumahan,Komplek perumahan,Valencia Dopong,"XHVR+QJF, Suhuyon, Kec. Touluaan Sel., Kabupaten Minahasa Tenggara, Sulawesi Utara","Kabupaten Minahasa Tenggara, Sulawesi Utara",SULAWESI UTARA,,Indonesia,,,,0.9944367,124.591533,https://maps.google.com/?cid=0x0:0xae6147c5c7b97cb5,
perumahan,Pembangunan Perumahan,Kel.Liwan sandag,"2JP4+45M, Ranoako, Kec. Touluaan Sel., Kabupaten Minahasa Tenggara, Sulawesi Utara","Kabupaten Minahasa Tenggara, Sulawesi Utara",SULAWESI UTARA,,Indonesia,,,,1.0353408,124.6054345,https://maps.google.com/?cid=0x0:0x36e5243a7bc29466,
