Category,Real Category,Business Name,Address,City,State,Postal Code,Country,Phone,Email,Website,Latitude,Longitude,Map Link,Details Link
toko bangunan,toko bangunan,Kalimantan Tengah 74863,"Kabupaten Gunung MAS, Kalimantan Tengah","Kabupaten Gunung MAS, Kalimantan Tengah",KALIMANTAN TENGAH,,Indonesia,,,,-1.496827,113.9060624,https://maps.google.com/?cid=0x0:0xf3a5fde9497362af,
toko bangunan,Toko,TOKO BBC BAHAN BANGUNAN,"CWX9+VVF, Jl. Trans Kalimantan, Tangkahen, Kec. Banama Tingang, Kabupaten Pulang Pisau, Kalimantan Tengah 74863","Jl. Trans Kalimantan, Tangkahen, Kec. Banama Tingang, Kabupaten Pulang Pisau",KALIMANTAN TENGAH,74863.0,Indonesia, 081352726111,,,-1.5503237,113.9196795,https://maps.google.com/?cid=0x0:0x7c8016f644d42bbd,
toko bangunan,,Toko tehnik bangunan,"Lintas DESA Tumbang Empas, Tuyun, Kec. Mihing Raya, Kabupaten Gunung MAS, Kalimantan Tengah 74863","Tuyun, Kec. Mihing Raya, Kabupaten Gunung MAS",KALIMANTAN TENGAH,74863.0,Indonesia, 085169982128,,,-1.3909624,113.9080079,https://maps.google.com/?cid=0x0:0xa9e884d75e90cf78,
toko bangunan,Toko umum,Banama Mart,"9WJJ+WPP, Jl. Lintas Kuala Kurun, Bawan, Kec. Banama Tingang, Kabupaten Pulang Pisau, Kalimantan Tengah","Kabupaten Pulang Pisau, Kalimantan Tengah",KALIMANTAN TENGAH,,Indonesia,,,,-1.6176517,113.9318148,https://maps.google.com/?cid=0x0:0xd65cada7dba12c6d,
toko bangunan,Toko Perlengkapan Rumah,Toko bangunan 4 putra sepang simin,"Jl. Iskandar No.5, Sepang Simin, Kec. Sepang, Kabupaten Gunung MAS, Kalimantan Tengah 74863","Sepang Simin, Kec. Sepang, Kabupaten Gunung MAS",KALIMANTAN TENGAH,74863.0,Indonesia, 081396801512,,,-1.4892327,113.89827,https://maps.google.com/?cid=0x0:0xfd641712e87160a4,
toko bangunan,Toko Bahan Bangunan,TOKO BANGUNAN JUNA,"6XH2+R77, Jl. Palangka Raya - Kuala Kurun, Lawang Uru, Kec. Banama Tingang, Kabupaten Pulang Pisau, Kalimantan Tengah 74862","Jl. Palangka Raya - Kuala Kurun, Lawang Uru, Kec. Banama Tingang, Kabupaten Pulang Pisau",KALIMANTAN TENGAH,74862.0,Indonesia,,,,-1.7704685,113.9506733,https://maps.google.com/?cid=0x0:0x71ae4600d8ccaebf,
toko bangunan,Toko Bahan Bangunan,Batako Press Pangi,"CWW9+695, Jl. Trans Kalimantan, Pematang Limau, Kec. Sepang, Kabupaten Gunung MAS, Kalimantan Tengah 74863","Jl. Trans Kalimantan, Pematang Limau, Kec. Sepang, Kabupaten Gunung MAS",KALIMANTAN TENGAH,74863.0,Indonesia, 081250000941,,,-1.5544917,113.9184705,https://maps.google.com/?cid=0x0:0x1732ac638fc58529,
toko bangunan,Toko Bahan Bangunan,toko alat mesin dan bangunan,"Jl. Iskandar No.45, Sepang Simin, Kec. Sepang, Kabupaten Gunung MAS, Kalimantan Tengah 74570","Sepang Simin, Kec. Sepang, Kabupaten Gunung MAS",KALIMANTAN TENGAH,74570.0,Indonesia, 082282044150,,,-1.489231,113.898315,https://maps.google.com/?cid=0x0:0x8e719a1d80c7925f,
toko bangunan,Toko Bahan Bangunan,Toko Bangunan Fasya,"Jln. Tumbang samba km 27, desa, Karya unggang, Kec. Tewang Sangalang Garing, Kabupaten Katingan, Kalimantan Tengah 74453","desa, Karya unggang, Kec. Tewang Sangalang Garing, Kabupaten Katingan",KALIMANTAN TENGAH,74453.0,Indonesia, 081396801512,,,-1.7299252,113.1453314,https://maps.google.com/?cid=0x0:0x44bf5edc4ed75ac0,
toko bangunan,,Toko viola,"6X62+PQM, Jl. Palangka Raya - Kuala Kurun, Manen Kaleka, Kec. Banama Tingang, Kabupaten Pulang Pisau, Kalimantan Tengah 74862","Jl. Palangka Raya - Kuala Kurun, Manen Kaleka, Kec. Banama Tingang, Kabupaten Pulang Pisau",KALIMANTAN TENGAH,74862.0,Indonesia,,,,-1.7881541,113.9519276,https://maps.google.com/?cid=0x0:0x88ed12c1d64a5988,
toko bangunan,Toko Bahan Bangunan,TOKO BANGUNAN MANDIRI,"JWXC+H77, Jl. Palangka Raya - Kuala Kurun, Kampuri, Kec. Mihing Raya, Kabupaten Gunung MAS, Kalimantan Tengah 74863","Jl. Palangka Raya - Kuala Kurun, Kampuri, Kec. Mihing Raya, Kabupaten Gunung MAS",KALIMANTAN TENGAH,74863.0,Indonesia,,,,-1.3510919,113.9206717,https://maps.google.com/?cid=0x0:0x41f3f057cfdaa2e1,
toko bangunan,Toko Bahan Bangunan,Toko Yuli,"7725+P7W, Unnamed Road, Pulang Pisau, Kec. Kahayan Hilir, Kabupaten Pulang Pisau, Kalimantan Tengah 73564","Unnamed Road, Pulang Pisau, Kec. Kahayan Hilir, Kabupaten Pulang Pisau",KALIMANTAN TENGAH,73564.0,Indonesia, 051361039,,,-2.7481342,114.2582135,https://maps.google.com/?cid=0x0:0x1388ef77d7e1f8be,
toko bangunan,toko bangunan,Kalimantan Tengah 74816,Kalimantan Tengah,Kalimantan Tengah,KALIMANTAN TENGAH,,Indonesia,,,,-2.3159685,114.2390498,https://maps.google.com/?cid=0x0:0x699fd2cedf1d1e7c,
toko bangunan,Toko Bahan Bangunan,Toko Bangunan Shohibah,"Jl. Trans - Kalimantan NO WA, RT.OI54O54-249, Mantaren I, Kec. Kahayan Hilir, Kabupaten Pulang Pisau, Kalimantan Tengah 73564","RT.OI54O54-249, Mantaren I, Kec. Kahayan Hilir, Kabupaten Pulang Pisau",KALIMANTAN TENGAH,73564.0,Indonesia, 082186774521,,,-2.7921992,114.261941,https://maps.google.com/?cid=0x0:0x9919e9b40efbf5a,
toko bangunan,Toko Bahan Bangunan,Gemilang Baja Barito. UD,"JL. Trans Kalimantan Km 9, 5, Kel Handil Bakti Kec Alalak, 70582, Banjarmasin, Kalimantan Selatan 70582","Kel Handil Bakti Kec Alalak,",KALIMANTAN TENGAH,70582.0,Indonesia, 081250854254,,,-2.627558,114.20866,https://maps.google.com/?cid=0x0:0x38a95f1eecc9fb54,
toko bangunan,Toko Bahan Bangunan,TOKO BANGUNAN FAJAR MAS,"67PM+9WW, Anjir Pulang Pisau, Kec. Kahayan Hilir, Kabupaten Pulang Pisau, Kalimantan Tengah 73564","Anjir Pulang Pisau, Kec. Kahayan Hilir, Kabupaten Pulang Pisau",KALIMANTAN TENGAH,73564.0,Indonesia, 087790952235,,,-2.7640137,114.2848241,https://maps.google.com/?cid=0x0:0x9809723a16965046,
toko bangunan,Toko Bahan Bangunan,TB.Berkat Sabar,"Mantaren I, Kec. Kahayan Hilir, Kabupaten Pulang Pisau, Kalimantan Tengah","Kabupaten Pulang Pisau, Kalimantan Tengah",KALIMANTAN TENGAH,,Indonesia,,,,-2.8004649,114.253464,https://maps.google.com/?cid=0x0:0x20e59b29ac4429e9,
toko bangunan,Toko Bahan Bangunan,TB. KHAIRUNNISA,"46V7+8C6, Jl. Trans - Kalimantan, Mintin, Kec. Kahayan Hilir, Kabupaten Pulang Pisau, Kalimantan Tengah 74873","Jl. Trans - Kalimantan, Mintin, Kec. Kahayan Hilir, Kabupaten Pulang Pisau",KALIMANTAN TENGAH,74873.0,Indonesia, 085248489984,,,-2.8567,114.2135084,https://maps.google.com/?cid=0x0:0x567136827ee1e54b,
toko bangunan,Toko Bahan Bangunan,UD.SAFWAN MANDIRI,"7738+C6Q, Pulang Pisau, Kec. Kahayan Hilir, Kabupaten Pulang Pisau, Kalimantan Tengah 73564","Pulang Pisau, Kec. Kahayan Hilir, Kabupaten Pulang Pisau",KALIMANTAN TENGAH,73564.0,Indonesia, 085248470385,,,-2.7464201,114.2655953,https://maps.google.com/?cid=0x0:0x71e8359f3e4c0a5f,
toko bangunan,Toko Bahan Bangunan,Toko Bahan Bangunan Noorhayatie,"Langkai, Kec. Pahandut, Kota Palangka Raya, Kalimantan Tengah","Kota Palangka Raya, Kalimantan Tengah",KALIMANTAN TENGAH,,Indonesia, 082173389240,,,-2.2304777,113.9201684,https://maps.google.com/?cid=0x0:0xf973d8dd93223d52,
toko bangunan,Toko Bahan Bangunan,TB. LOGAM BARU,"67W5+JCC, Jl. Panunjung Tarung, Pulang Pisau, Kec. Kahayan Hilir, Kabupaten Pulang Pisau, Kalimantan Tengah 73564","Jl. Panunjung Tarung, Pulang Pisau, Kec. Kahayan Hilir, Kabupaten Pulang Pisau",KALIMANTAN TENGAH,73564.0,Indonesia,,,,-2.7534415,114.2585129,https://maps.google.com/?cid=0x0:0xa8f459f078c73400,
toko bangunan,Toko Bahan Bangunan,TB Caca Cia,"Jl. Trans - Kalimantan, Anjir Pulang Pisau, Kec. Kahayan Hilir, Kabupaten Pulang Pisau, Kalimantan Tengah","Kabupaten Pulang Pisau, Kalimantan Tengah",KALIMANTAN TENGAH,,Indonesia,,,,-2.7560254,114.2936361,https://maps.google.com/?cid=0x0:0xb877674f9f1cf924,
toko bangunan,Toko Bahan Bangunan,"TOKO NBOBBY, Jual Bahan Bangunan, Alat Listrik, Pecah Belah, Dll","Jl. Bukit Kaminting, Palangka, Kec. Jekan Raya, Kota Palangka Raya, Kalimantan Tengah 74874","Palangka, Kec. Jekan Raya, Kota Palangka Raya",KALIMANTAN TENGAH,74874.0,Indonesia, 087788060738,,,-2.1990108,113.8845165,https://maps.google.com/?cid=0x0:0xcac1a820b28b16b7,
toko bangunan,Toko Bahan Bangunan,Toko Bangunan Kalibata Jaya,"PWP6+45H, Jl. Kalibata, Menteng, Kec. Jekan Raya, Kota Palangka Raya, Kalimantan Tengah 74874","Jl. Kalibata, Menteng, Kec. Jekan Raya, Kota Palangka Raya",KALIMANTAN TENGAH,74874.0,Indonesia, 0816992047,,,-2.2638689,113.9107013,https://maps.google.com/?cid=0x0:0x4f1106acc8dfae3e,
toko bangunan,Toko Bahan Bangunan,GIAS Palangkaraya (GNET) | Distributor Bahan Bangunan,"Jl. Mahir Mahar Kel No.KM. 5, Sabaru, Kec. Sebangau, Kota Palangka Raya, Kalimantan Tengah 74874","Sabaru, Kec. Sebangau, Kota Palangka Raya",KALIMANTAN TENGAH,74874.0,Indonesia, 08115051688,,,-2.2783164,113.9556478,https://maps.google.com/?cid=0x0:0x57c76f4619d1b035,
toko bangunan,Toko Bahan Bangunan,TB. Sumber Material,"Jl. Poros, Tahai Baru, Kec. Maliku, Kabupaten Pulang Pisau, Kalimantan Tengah 73516","Tahai Baru, Kec. Maliku, Kabupaten Pulang Pisau",KALIMANTAN TENGAH,73516.0,Indonesia, 082153483345,,,-3.0511443,114.212787,https://maps.google.com/?cid=0x0:0x49340411d887bd3,
toko bangunan,Toko Bahan Bangunan,TB Nor inayah mahir mahar,"PXCM+CG7, Kalampangan, Kec. Sebangau, Kota Palangka Raya, Kalimantan Tengah 74874","Kalampangan, Kec. Sebangau, Kota Palangka Raya",KALIMANTAN TENGAH,74874.0,Indonesia, 089692594561,,,-2.2789545,113.9838066,https://maps.google.com/?cid=0x0:0x57f5d90a5134c0db,
toko bangunan,Toko Bahan Bangunan,Toko Sumber Urep,"67HJ+VQ2, Anjir Pulang Pisau, Kec. Kahayan Hilir, Kabupaten Pulang Pisau, Kalimantan Tengah 73564","Anjir Pulang Pisau, Kec. Kahayan Hilir, Kabupaten Pulang Pisau",KALIMANTAN TENGAH,73564.0,Indonesia, 081214635224,,,-2.7703503,114.281894,https://maps.google.com/?cid=0x0:0xb99a7a4a5caa4f98,
toko bangunan,Pemasok Bahan Bangunan,Toko Bangunan Tunas Djaya,"56RV+QR4, Jl. Lintas Kalimantan, Mantaren I, Kec. Kahayan Hilir, Kabupaten Pulang Pisau, Kalimantan Tengah","Kabupaten Pulang Pisau, Kalimantan Tengah",KALIMANTAN TENGAH,,Indonesia, 081396801512,,,-2.8081213,114.2445647,https://maps.google.com/?cid=0x0:0x1c551f78172a8276,
toko bangunan,Balai masyarakat,BETANG UTAMA,"77JG+8Q, Bereng, Kec. Kahayan Hilir, Kabupaten Pulang Pisau, Kalimantan Tengah 73564","Bereng, Kec. Kahayan Hilir, Kabupaten Pulang Pisau",KALIMANTAN TENGAH,73564.0,Indonesia, 082154570102,,,-2.7191549,114.2768784,https://maps.google.com/?cid=0x0:0x99cde4ca9339a941,
toko bangunan,Toko,Toko Rustin,"Jl. Trans - Kalimantan No.KM. 73, Garung, desa Garing, Kabupaten Pulang Pisau, Kalimantan Tengah 74861","Garung, desa Garing, Kabupaten Pulang Pisau",KALIMANTAN TENGAH,74861.0,Indonesia, 082154830069,,,-2.6511759,114.2248332,https://maps.google.com/?cid=0x0:0x56cc8d7eaa359c1b,
toko bangunan,Toko Perlengkapan Rumah,TOKO BANGUNAN TIARA JAYA,"Jl. Lintas Palangkaraya-Buntok, Danau Pantau, Kec. Timpah, Kabupaten Kapuas, Kalimantan Tengah 74454","Danau Pantau, Kec. Timpah, Kabupaten Kapuas",KALIMANTAN TENGAH,74454.0,Indonesia, 085697225016,,,-1.6697767,114.4821578,https://maps.google.com/?cid=0x0:0x8bf5ed36f6317b49,
toko bangunan,toko bangunan,Toko H. Suhaimi,"F5FR+W83, Jabiren, Kec. Jabiren, Kabupaten Pulang Pisau, Kalimantan Tengah 74812","Jabiren, Kec. Jabiren, Kabupaten Pulang Pisau",KALIMANTAN TENGAH,74812.0,Indonesia,,,,-2.5252479,114.1908102,https://maps.google.com/?cid=0x0:0x6e26b7ab4a6658e4,
toko bangunan,Toko Bahan Bangunan,Toko Bangunan Shohibah,"Jl. Trans - Kalimantan NO WA, RT.OI54O54-249, Mantaren I, Kec. Kahayan Hilir, Kabupaten Pulang Pisau, Kalimantan Tengah 73564","RT.OI54O54-249, Mantaren I, Kec. Kahayan Hilir, Kabupaten Pulang Pisau",KALIMANTAN TENGAH,73564.0,Indonesia, 082186774521,,,-2.7921992,114.261941,https://maps.google.com/?cid=0x0:0x9919e9b40efbf5a,
toko bangunan,toko bangunan,Kalimantan Tengah 74812,"Kec. Kahayan Hilir, Kabupaten Pulang Pisau, Kalimantan Tengah","Kabupaten Pulang Pisau, Kalimantan Tengah",KALIMANTAN TENGAH,,Indonesia,,,,-2.5166535,114.1677159,https://maps.google.com/?cid=0x0:0x6dbda426ddb6f3ad,
toko bangunan,Toko Bahan Bangunan,TB. KHAIRUNNISA,"46V7+8C6, Jl. Trans - Kalimantan, Mintin, Kec. Kahayan Hilir, Kabupaten Pulang Pisau, Kalimantan Tengah 74873","Jl. Trans - Kalimantan, Mintin, Kec. Kahayan Hilir, Kabupaten Pulang Pisau",KALIMANTAN TENGAH,74873.0,Indonesia, 085248489984,,,-2.8567,114.2135084,https://maps.google.com/?cid=0x0:0x567136827ee1e54b,
toko bangunan,Toko Bahan Bangunan,Wa(0821-1001-7004)Toko Alfi Logam,"57X2+3QH, Mantaren I, Kec. Kahayan Hilir, Kabupaten Pulang Pisau, Kalimantan Tengah 73564","Mantaren I, Kec. Kahayan Hilir, Kabupaten Pulang Pisau",KALIMANTAN TENGAH,73564.0,Indonesia,,,,-2.802321,114.2519987,https://maps.google.com/?cid=0x0:0x978da0c97aeeadd0,
toko bangunan,Toko Bahan Bangunan,Toko Yuli,"7725+P7W, Unnamed Road, Pulang Pisau, Kec. Kahayan Hilir, Kabupaten Pulang Pisau, Kalimantan Tengah 73564","Unnamed Road, Pulang Pisau, Kec. Kahayan Hilir, Kabupaten Pulang Pisau",KALIMANTAN TENGAH,73564.0,Indonesia, 051361039,,,-2.7481342,114.2582135,https://maps.google.com/?cid=0x0:0x1388ef77d7e1f8be,
toko bangunan,Pemasok Bahan Bangunan,Toko Bangunan Tunas Djaya,"56RV+QR4, Jl. Lintas Kalimantan, Mantaren I, Kec. Kahayan Hilir, Kabupaten Pulang Pisau, Kalimantan Tengah","Kabupaten Pulang Pisau, Kalimantan Tengah",KALIMANTAN TENGAH,,Indonesia, 081396801512,,,-2.8081213,114.2445647,https://maps.google.com/?cid=0x0:0x1c551f78172a8276,
toko bangunan,Toko Bahan Bangunan,TB.Titipan Ilahi,"7738+783, Jl. Darung Bawan, Anjir, Pulang Pisau, Kec. Kahayan Hilir, Kabupaten Pulang Pisau, Kalimantan Tengah 73564","Jl. Darung Bawan, Anjir, Pulang Pisau, Kec. Kahayan Hilir, Kabupaten Pulang Pisau",KALIMANTAN TENGAH,73564.0,Indonesia,,,,-2.7468503,114.2657918,https://maps.google.com/?cid=0x0:0x74ed4fb5413f1bfa,
toko bangunan,Toko Bahan Bangunan,PTP•Putra Tunggal Perkasa,"2X72+V96, Bukit Liti, Kec. Kahayan Tengah, Kabupaten Pulang Pisau, Kalimantan Tengah","Kabupaten Pulang Pisau, Kalimantan Tengah",KALIMANTAN TENGAH,,Indonesia, 085350362952,,,-1.9853433,113.9508877,https://maps.google.com/?cid=0x0:0x54809133c751a567,
toko bangunan,Toko Bahan Bangunan,Toko UD. YANOR,"P3VX+H39, Jl. Hidayatullah, RT.004/RW.002, Tj. Perawan, Kec. Kahayan Kuala, Kabupaten Pulang Pisau, Kalimantan Tengah 74872","Jl. Hidayatullah, RT.004/RW.002, Tj. Perawan, Kec. Kahayan Kuala, Kabupaten Pulang Pisau",KALIMANTAN TENGAH,74872.0,Indonesia,,,,-3.2560886,114.0977299,https://maps.google.com/?cid=0x0:0xc503b4523d7b483f,
toko bangunan,Toko Bahan Bangunan,Gemilang Pusat Bahan Bangunan RTA Milono Palangka Raya,"Jl. RTA Milono, Menteng, Kec. Jekan Raya, Kota Palangka Raya, Kalimantan Tengah 74874","Menteng, Kec. Jekan Raya, Kota Palangka Raya",KALIMANTAN TENGAH,74874.0,Indonesia, 081250170853,,,-2.240658,113.919759,https://maps.google.com/?cid=0x0:0xd0ff11a63ca3103f,
toko bangunan,Toko bahan makanan,Gemilang Pusat Bahan Bangunan Tjilik Riwut,"Jl. Tjilik Riwut No.KM. 8, RT.12/RW.14, Bukit Tunggal, Kec. Jekan Raya, Kota Palangka Raya, Kalimantan Tengah 73112","RT.12/RW.14, Bukit Tunggal, Kec. Jekan Raya, Kota Palangka Raya",KALIMANTAN TENGAH,73112.0,Indonesia, 082150615528,,,-2.1697497,113.8584061,https://maps.google.com/?cid=0x0:0xe3824ddbb790492,
toko bangunan,Toko Perlengkapan Rumah,TOKO MOGA JAYA,"35G3+2XH, Unnamed Road, Garantung, Kec. Maliku, Kabupaten Pulang Pisau, Kalimantan Tengah 74871","Unnamed Road, Garantung, Kec. Maliku, Kabupaten Pulang Pisau",KALIMANTAN TENGAH,74871.0,Indonesia, 082149531345,,,-2.9249276,114.154994,https://maps.google.com/?cid=0x0:0x5c70b7e2cb2df0ca,
toko bangunan,Toko Bahan Bangunan,TB. Sumber Material,"Jl. Poros, Tahai Baru, Kec. Maliku, Kabupaten Pulang Pisau, Kalimantan Tengah 73516","Tahai Baru, Kec. Maliku, Kabupaten Pulang Pisau",KALIMANTAN TENGAH,73516.0,Indonesia, 082153483345,,,-3.0511443,114.212787,https://maps.google.com/?cid=0x0:0x49340411d887bd3,
toko bangunan,Toko Bahan Bangunan,Toko Bangunan Kalibata Jaya,"PWP6+45H, Jl. Kalibata, Menteng, Kec. Jekan Raya, Kota Palangka Raya, Kalimantan Tengah 74874","Jl. Kalibata, Menteng, Kec. Jekan Raya, Kota Palangka Raya",KALIMANTAN TENGAH,74874.0,Indonesia, 0816992047,,,-2.2638689,113.9107013,https://maps.google.com/?cid=0x0:0x4f1106acc8dfae3e,
toko bangunan,Toko,Toko Rustin,"Jl. Trans - Kalimantan No.KM. 73, Garung, desa Garing, Kabupaten Pulang Pisau, Kalimantan Tengah 74861","Garung, desa Garing, Kabupaten Pulang Pisau",KALIMANTAN TENGAH,74861.0,Indonesia, 082154830069,,,-2.6511759,114.2248332,https://maps.google.com/?cid=0x0:0x56cc8d7eaa359c1b,
toko bangunan,Toko,Toko Bangunan Tiga Dara,"Jl. Bangas Permai Induk No.03, Menteng, Kec. Jekan Raya, Kota Palangka Raya, Kalimantan Tengah 73112","Menteng, Kec. Jekan Raya, Kota Palangka Raya",KALIMANTAN TENGAH,73112.0,Indonesia, 081396801512,,,-2.2443851,113.9189297,https://maps.google.com/?cid=0x0:0x46bb1495d10f56ee,
toko bangunan,,Toko viola,"6X62+PQM, Jl. Palangka Raya - Kuala Kurun, Manen Kaleka, Kec. Banama Tingang, Kabupaten Pulang Pisau, Kalimantan Tengah 74862","Jl. Palangka Raya - Kuala Kurun, Manen Kaleka, Kec. Banama Tingang, Kabupaten Pulang Pisau",KALIMANTAN TENGAH,74862.0,Indonesia,,,,-1.7881541,113.9519276,https://maps.google.com/?cid=0x0:0x88ed12c1d64a5988,
toko bangunan,Toko Bahan Bangunan,TB Caca Cia,"Jl. Trans - Kalimantan, Anjir Pulang Pisau, Kec. Kahayan Hilir, Kabupaten Pulang Pisau, Kalimantan Tengah","Kabupaten Pulang Pisau, Kalimantan Tengah",KALIMANTAN TENGAH,,Indonesia,,,,-2.7560254,114.2936361,https://maps.google.com/?cid=0x0:0xb877674f9f1cf924,
toko bangunan,Toko Bahan Bangunan,UD.SAFWAN MANDIRI,"7738+C6Q, Pulang Pisau, Kec. Kahayan Hilir, Kabupaten Pulang Pisau, Kalimantan Tengah 73564","Pulang Pisau, Kec. Kahayan Hilir, Kabupaten Pulang Pisau",KALIMANTAN TENGAH,73564.0,Indonesia, 085248470385,,,-2.7464201,114.2655953,https://maps.google.com/?cid=0x0:0x71e8359f3e4c0a5f,
toko bangunan,Toko Bahan Bangunan,Toko Bahan Bangunan Noorhayatie,"Langkai, Kec. Pahandut, Kota Palangka Raya, Kalimantan Tengah","Kota Palangka Raya, Kalimantan Tengah",KALIMANTAN TENGAH,,Indonesia, 082173389240,,,-2.2304777,113.9201684,https://maps.google.com/?cid=0x0:0xf973d8dd93223d52,
toko bangunan,Toko Bahan Bangunan,Toko Bangunan Sumber Mufakat,"Jl. Rajawali, Bukit Tunggal, Kec. Jekan Raya, Kota Palangka Raya, Kalimantan Tengah 74874","Bukit Tunggal, Kec. Jekan Raya, Kota Palangka Raya",KALIMANTAN TENGAH,74874.0,Indonesia, 082173389240,,,-2.1843431,113.8846027,https://maps.google.com/?cid=0x0:0xf37943877496f7bd,
toko bangunan,Toko Bahan Bangunan,Gemilang Baja Barito. UD,"JL. Trans Kalimantan Km 9, 5, Kel Handil Bakti Kec Alalak, 70582, Banjarmasin, Kalimantan Selatan 70582","Kel Handil Bakti Kec Alalak,",KALIMANTAN TENGAH,70582.0,Indonesia, 081250854254,,,-2.627558,114.20866,https://maps.google.com/?cid=0x0:0x38a95f1eecc9fb54,
toko bangunan,Toko Bahan Bangunan,Toko Bangunan Shohibah,"Jl. Trans - Kalimantan NO WA, RT.OI54O54-249, Mantaren I, Kec. Kahayan Hilir, Kabupaten Pulang Pisau, Kalimantan Tengah 73564","RT.OI54O54-249, Mantaren I, Kec. Kahayan Hilir, Kabupaten Pulang Pisau",KALIMANTAN TENGAH,73564.0,Indonesia, 082186774521,,,-2.7921992,114.261941,https://maps.google.com/?cid=0x0:0x9919e9b40efbf5a,
toko bangunan,toko bangunan,Kalimantan Tengah 74813,Kalimantan Tengah,Kalimantan Tengah,KALIMANTAN TENGAH,,Indonesia,,,,-2.5771654,114.3222577,https://maps.google.com/?cid=0x0:0xfaa2c870e86154d8,
toko bangunan,Toko Bahan Bangunan,TOKO BANGUNAN FAJAR MAS,"67PM+9WW, Anjir Pulang Pisau, Kec. Kahayan Hilir, Kabupaten Pulang Pisau, Kalimantan Tengah 73564","Anjir Pulang Pisau, Kec. Kahayan Hilir, Kabupaten Pulang Pisau",KALIMANTAN TENGAH,73564.0,Indonesia, 087790952235,,,-2.7640137,114.2848241,https://maps.google.com/?cid=0x0:0x9809723a16965046,
toko bangunan,Toko Bahan Bangunan,Wa(0821-1001-7004)Toko Alfi Logam,"57X2+3QH, Mantaren I, Kec. Kahayan Hilir, Kabupaten Pulang Pisau, Kalimantan Tengah 73564","Mantaren I, Kec. Kahayan Hilir, Kabupaten Pulang Pisau",KALIMANTAN TENGAH,73564.0,Indonesia,,,,-2.802321,114.2519987,https://maps.google.com/?cid=0x0:0x978da0c97aeeadd0,
toko bangunan,Toko Bahan Bangunan,Toko Yuli,"7725+P7W, Unnamed Road, Pulang Pisau, Kec. Kahayan Hilir, Kabupaten Pulang Pisau, Kalimantan Tengah 73564","Unnamed Road, Pulang Pisau, Kec. Kahayan Hilir, Kabupaten Pulang Pisau",KALIMANTAN TENGAH,73564.0,Indonesia, 051361039,,,-2.7481342,114.2582135,https://maps.google.com/?cid=0x0:0x1388ef77d7e1f8be,
toko bangunan,Pemasok Bahan Bangunan,Toko Bangunan Tunas Djaya,"56RV+QR4, Jl. Lintas Kalimantan, Mantaren I, Kec. Kahayan Hilir, Kabupaten Pulang Pisau, Kalimantan Tengah","Kabupaten Pulang Pisau, Kalimantan Tengah",KALIMANTAN TENGAH,,Indonesia, 081396801512,,,-2.8081213,114.2445647,https://maps.google.com/?cid=0x0:0x1c551f78172a8276,
toko bangunan,Toko Bahan Bangunan,TB.Titipan Ilahi,"7738+783, Jl. Darung Bawan, Anjir, Pulang Pisau, Kec. Kahayan Hilir, Kabupaten Pulang Pisau, Kalimantan Tengah 73564","Jl. Darung Bawan, Anjir, Pulang Pisau, Kec. Kahayan Hilir, Kabupaten Pulang Pisau",KALIMANTAN TENGAH,73564.0,Indonesia,,,,-2.7468503,114.2657918,https://maps.google.com/?cid=0x0:0x74ed4fb5413f1bfa,
toko bangunan,Toko,Toko Bangunan Tiga Dara,"Jl. Bangas Permai Induk No.03, Menteng, Kec. Jekan Raya, Kota Palangka Raya, Kalimantan Tengah 73112","Menteng, Kec. Jekan Raya, Kota Palangka Raya",KALIMANTAN TENGAH,73112.0,Indonesia, 081396801512,,,-2.2443851,113.9189297,https://maps.google.com/?cid=0x0:0x46bb1495d10f56ee,
toko bangunan,Toko Bahan Bangunan,UD.SAFWAN MANDIRI,"7738+C6Q, Pulang Pisau, Kec. Kahayan Hilir, Kabupaten Pulang Pisau, Kalimantan Tengah 73564","Pulang Pisau, Kec. Kahayan Hilir, Kabupaten Pulang Pisau",KALIMANTAN TENGAH,73564.0,Indonesia, 085248470385,,,-2.7464201,114.2655953,https://maps.google.com/?cid=0x0:0x71e8359f3e4c0a5f,
toko bangunan,Toko Bahan Bangunan,PTP•Putra Tunggal Perkasa,"2X72+V96, Bukit Liti, Kec. Kahayan Tengah, Kabupaten Pulang Pisau, Kalimantan Tengah","Kabupaten Pulang Pisau, Kalimantan Tengah",KALIMANTAN TENGAH,,Indonesia, 085350362952,,,-1.9853433,113.9508877,https://maps.google.com/?cid=0x0:0x54809133c751a567,
toko bangunan,Toko bahan makanan,Gemilang Pusat Bahan Bangunan Tjilik Riwut,"Jl. Tjilik Riwut No.KM. 8, RT.12/RW.14, Bukit Tunggal, Kec. Jekan Raya, Kota Palangka Raya, Kalimantan Tengah 73112","RT.12/RW.14, Bukit Tunggal, Kec. Jekan Raya, Kota Palangka Raya",KALIMANTAN TENGAH,73112.0,Indonesia, 082150615528,,,-2.1697497,113.8584061,https://maps.google.com/?cid=0x0:0xe3824ddbb790492,
toko bangunan,Toko Bahan Bangunan,Toko Bangunan Kalibata Jaya,"PWP6+45H, Jl. Kalibata, Menteng, Kec. Jekan Raya, Kota Palangka Raya, Kalimantan Tengah 74874","Jl. Kalibata, Menteng, Kec. Jekan Raya, Kota Palangka Raya",KALIMANTAN TENGAH,74874.0,Indonesia, 0816992047,,,-2.2638689,113.9107013,https://maps.google.com/?cid=0x0:0x4f1106acc8dfae3e,
toko bangunan,Toko Perlengkapan Rumah,TOKO MOGA JAYA,"35G3+2XH, Unnamed Road, Garantung, Kec. Maliku, Kabupaten Pulang Pisau, Kalimantan Tengah 74871","Unnamed Road, Garantung, Kec. Maliku, Kabupaten Pulang Pisau",KALIMANTAN TENGAH,74871.0,Indonesia, 082149531345,,,-2.9249276,114.154994,https://maps.google.com/?cid=0x0:0x5c70b7e2cb2df0ca,
toko bangunan,Toko Bahan Bangunan,TB. Sumber Material,"Jl. Poros, Tahai Baru, Kec. Maliku, Kabupaten Pulang Pisau, Kalimantan Tengah 73516","Tahai Baru, Kec. Maliku, Kabupaten Pulang Pisau",KALIMANTAN TENGAH,73516.0,Indonesia, 082153483345,,,-3.0511443,114.212787,https://maps.google.com/?cid=0x0:0x49340411d887bd3,
toko bangunan,Toko,Toko Rustin,"Jl. Trans - Kalimantan No.KM. 73, Garung, desa Garing, Kabupaten Pulang Pisau, Kalimantan Tengah 74861","Garung, desa Garing, Kabupaten Pulang Pisau",KALIMANTAN TENGAH,74861.0,Indonesia, 082154830069,,,-2.6511759,114.2248332,https://maps.google.com/?cid=0x0:0x56cc8d7eaa359c1b,
toko bangunan,Toko Bahan Bangunan,Gemilang Pusat Bahan Bangunan RTA Milono Palangka Raya,"Jl. RTA Milono, Menteng, Kec. Jekan Raya, Kota Palangka Raya, Kalimantan Tengah 74874","Menteng, Kec. Jekan Raya, Kota Palangka Raya",KALIMANTAN TENGAH,74874.0,Indonesia, 081250170853,,,-2.240658,113.919759,https://maps.google.com/?cid=0x0:0xd0ff11a63ca3103f,
toko bangunan,Toko Bahan Bangunan,TB Caca Cia,"Jl. Trans - Kalimantan, Anjir Pulang Pisau, Kec. Kahayan Hilir, Kabupaten Pulang Pisau, Kalimantan Tengah","Kabupaten Pulang Pisau, Kalimantan Tengah",KALIMANTAN TENGAH,,Indonesia,,,,-2.7560254,114.2936361,https://maps.google.com/?cid=0x0:0xb877674f9f1cf924,
toko bangunan,Toko,TOKO BBC BAHAN BANGUNAN,"CWX9+VVF, Jl. Trans Kalimantan, Tangkahen, Kec. Banama Tingang, Kabupaten Pulang Pisau, Kalimantan Tengah 74863","Jl. Trans Kalimantan, Tangkahen, Kec. Banama Tingang, Kabupaten Pulang Pisau",KALIMANTAN TENGAH,74863.0,Indonesia, 081352726111,,,-1.5503237,113.9196795,https://maps.google.com/?cid=0x0:0x7c8016f644d42bbd,
toko bangunan,Toko Bahan Bangunan,Toko Bahan Bangunan Noorhayatie,"Langkai, Kec. Pahandut, Kota Palangka Raya, Kalimantan Tengah","Kota Palangka Raya, Kalimantan Tengah",KALIMANTAN TENGAH,,Indonesia, 082173389240,,,-2.2304777,113.9201684,https://maps.google.com/?cid=0x0:0xf973d8dd93223d52,
toko bangunan,Toko Bahan Bangunan,TB.Berkat Sabar,"Mantaren I, Kec. Kahayan Hilir, Kabupaten Pulang Pisau, Kalimantan Tengah","Kabupaten Pulang Pisau, Kalimantan Tengah",KALIMANTAN TENGAH,,Indonesia,,,,-2.8004649,114.253464,https://maps.google.com/?cid=0x0:0x20e59b29ac4429e9,
toko bangunan,Toko Bahan Bangunan,Toko Karya Subur Jaya d/h Karya Jaya,"Jl. Darmosugondo No.56, Pahandut, Kec. Pahandut, Kota Palangka Raya, Kalimantan Tengah 73111","Pahandut, Kec. Pahandut, Kota Palangka Raya",KALIMANTAN TENGAH,73111.0,Indonesia, 08123265503,,,-2.2072169,113.9382221,https://maps.google.com/?cid=0x0:0xefadcd4f3de228f4,
toko bangunan,Balai masyarakat,BETANG UTAMA,"77JG+8Q, Bereng, Kec. Kahayan Hilir, Kabupaten Pulang Pisau, Kalimantan Tengah 73564","Bereng, Kec. Kahayan Hilir, Kabupaten Pulang Pisau",KALIMANTAN TENGAH,73564.0,Indonesia, 082154570102,,,-2.7191549,114.2768784,https://maps.google.com/?cid=0x0:0x99cde4ca9339a941,
toko bangunan,Toko Bahan Bangunan,Gemilang Baja Barito. UD,"JL. Trans Kalimantan Km 9, 5, Kel Handil Bakti Kec Alalak, 70582, Banjarmasin, Kalimantan Selatan 70582","Kel Handil Bakti Kec Alalak,",KALIMANTAN TENGAH,70582.0,Indonesia, 081250854254,,,-2.627558,114.20866,https://maps.google.com/?cid=0x0:0x38a95f1eecc9fb54,
toko bangunan,Toko Bahan Bangunan,TB. LOGAM BARU,"67W5+JCC, Jl. Panunjung Tarung, Pulang Pisau, Kec. Kahayan Hilir, Kabupaten Pulang Pisau, Kalimantan Tengah 73564","Jl. Panunjung Tarung, Pulang Pisau, Kec. Kahayan Hilir, Kabupaten Pulang Pisau",KALIMANTAN TENGAH,73564.0,Indonesia,,,,-2.7534415,114.2585129,https://maps.google.com/?cid=0x0:0xa8f459f078c73400,
toko bangunan,toko bangunan,Toko bahan bangunan TB.KAHAYAN JAYA,"Jl.Pahlawan ucun No.RT III, Gohong, Kec. Kahayan Hilir, Kabupaten Pulang Pisau, Kalimantan Tengah 74816","Gohong, Kec. Kahayan Hilir, Kabupaten Pulang Pisau",KALIMANTAN TENGAH,74816.0,Indonesia,,,,-2.6859099,114.2842906,https://maps.google.com/?cid=0x0:0xc07ff4361be71f44,
toko bangunan,toko bangunan,Kalimantan Tengah 74816,Kalimantan Tengah,Kalimantan Tengah,KALIMANTAN TENGAH,,Indonesia,,,,-2.3159685,114.2390498,https://maps.google.com/?cid=0x0:0x699fd2cedf1d1e7c,
toko bangunan,Toko Bahan Bangunan,Toko Yuli,"7725+P7W, Unnamed Road, Pulang Pisau, Kec. Kahayan Hilir, Kabupaten Pulang Pisau, Kalimantan Tengah 73564","Unnamed Road, Pulang Pisau, Kec. Kahayan Hilir, Kabupaten Pulang Pisau",KALIMANTAN TENGAH,73564.0,Indonesia, 051361039,,,-2.7481342,114.2582135,https://maps.google.com/?cid=0x0:0x1388ef77d7e1f8be,
toko bangunan,Toko Bahan Bangunan,Toko Bangunan Shohibah,"Jl. Trans - Kalimantan NO WA, RT.OI54O54-249, Mantaren I, Kec. Kahayan Hilir, Kabupaten Pulang Pisau, Kalimantan Tengah 73564","RT.OI54O54-249, Mantaren I, Kec. Kahayan Hilir, Kabupaten Pulang Pisau",KALIMANTAN TENGAH,73564.0,Indonesia, 082186774521,,,-2.7921992,114.261941,https://maps.google.com/?cid=0x0:0x9919e9b40efbf5a,
toko bangunan,Toko Bahan Bangunan,TB.Titipan Ilahi,"7738+783, Jl. Darung Bawan, Anjir, Pulang Pisau, Kec. Kahayan Hilir, Kabupaten Pulang Pisau, Kalimantan Tengah 73564","Jl. Darung Bawan, Anjir, Pulang Pisau, Kec. Kahayan Hilir, Kabupaten Pulang Pisau",KALIMANTAN TENGAH,73564.0,Indonesia,,,,-2.7468503,114.2657918,https://maps.google.com/?cid=0x0:0x74ed4fb5413f1bfa,
toko bangunan,Toko Bahan Bangunan,TB. KHAIRUNNISA,"46V7+8C6, Jl. Trans - Kalimantan, Mintin, Kec. Kahayan Hilir, Kabupaten Pulang Pisau, Kalimantan Tengah 74873","Jl. Trans - Kalimantan, Mintin, Kec. Kahayan Hilir, Kabupaten Pulang Pisau",KALIMANTAN TENGAH,74873.0,Indonesia, 085248489984,,,-2.8567,114.2135084,https://maps.google.com/?cid=0x0:0x567136827ee1e54b,
toko bangunan,Pemasok Bahan Bangunan,Toko Bangunan Tunas Djaya,"56RV+QR4, Jl. Lintas Kalimantan, Mantaren I, Kec. Kahayan Hilir, Kabupaten Pulang Pisau, Kalimantan Tengah","Kabupaten Pulang Pisau, Kalimantan Tengah",KALIMANTAN TENGAH,,Indonesia, 081396801512,,,-2.8081213,114.2445647,https://maps.google.com/?cid=0x0:0x1c551f78172a8276,
toko bangunan,Toko Bahan Bangunan,Wa(0821-1001-7004)Toko Alfi Logam,"57X2+3QH, Mantaren I, Kec. Kahayan Hilir, Kabupaten Pulang Pisau, Kalimantan Tengah 73564","Mantaren I, Kec. Kahayan Hilir, Kabupaten Pulang Pisau",KALIMANTAN TENGAH,73564.0,Indonesia,,,,-2.802321,114.2519987,https://maps.google.com/?cid=0x0:0x978da0c97aeeadd0,
toko bangunan,toko bangunan,Toko bahan bangunan TB.KAHAYAN JAYA,"Jl.Pahlawan ucun No.RT III, Gohong, Kec. Kahayan Hilir, Kabupaten Pulang Pisau, Kalimantan Tengah 74816","Gohong, Kec. Kahayan Hilir, Kabupaten Pulang Pisau",KALIMANTAN TENGAH,74816.0,Indonesia,,,,-2.6859099,114.2842906,https://maps.google.com/?cid=0x0:0xc07ff4361be71f44,
toko bangunan,Toko Bahan Bangunan,TB Caca Cia,"Jl. Trans - Kalimantan, Anjir Pulang Pisau, Kec. Kahayan Hilir, Kabupaten Pulang Pisau, Kalimantan Tengah","Kabupaten Pulang Pisau, Kalimantan Tengah",KALIMANTAN TENGAH,,Indonesia,,,,-2.7560254,114.2936361,https://maps.google.com/?cid=0x0:0xb877674f9f1cf924,
toko bangunan,Toko Bahan Bangunan,Gemilang Baja Barito. UD,"JL. Trans Kalimantan Km 9, 5, Kel Handil Bakti Kec Alalak, 70582, Banjarmasin, Kalimantan Selatan 70582","Kel Handil Bakti Kec Alalak,",KALIMANTAN TENGAH,70582.0,Indonesia, 081250854254,,,-2.627558,114.20866,https://maps.google.com/?cid=0x0:0x38a95f1eecc9fb54,
toko bangunan,Toko Bahan Bangunan,Toko Bangunan Shohibah,"Jl. Trans - Kalimantan NO WA, RT.OI54O54-249, Mantaren I, Kec. Kahayan Hilir, Kabupaten Pulang Pisau, Kalimantan Tengah 73564","RT.OI54O54-249, Mantaren I, Kec. Kahayan Hilir, Kabupaten Pulang Pisau",KALIMANTAN TENGAH,73564.0,Indonesia, 082186774521,,,-2.7921992,114.261941,https://maps.google.com/?cid=0x0:0x9919e9b40efbf5a,
toko bangunan,toko bangunan,Kec. Kahayan Hilir,"Kabupaten Pulang Pisau, Kalimantan Tengah","Kabupaten Pulang Pisau, Kalimantan Tengah",KALIMANTAN TENGAH,,Indonesia,,,,-2.7914682,114.262235,https://maps.google.com/?cid=0x0:0x7f1583868799e28e,
toko bangunan,Toko Bahan Bangunan,TB. KHAIRUNNISA,"46V7+8C6, Jl. Trans - Kalimantan, Mintin, Kec. Kahayan Hilir, Kabupaten Pulang Pisau, Kalimantan Tengah 74873","Jl. Trans - Kalimantan, Mintin, Kec. Kahayan Hilir, Kabupaten Pulang Pisau",KALIMANTAN TENGAH,74873.0,Indonesia, 085248489984,,,-2.8567,114.2135084,https://maps.google.com/?cid=0x0:0x567136827ee1e54b,
toko bangunan,Toko Bahan Bangunan,TOKO BANGUNAN FAJAR MAS,"67PM+9WW, Anjir Pulang Pisau, Kec. Kahayan Hilir, Kabupaten Pulang Pisau, Kalimantan Tengah 73564","Anjir Pulang Pisau, Kec. Kahayan Hilir, Kabupaten Pulang Pisau",KALIMANTAN TENGAH,73564.0,Indonesia, 087790952235,,,-2.7640137,114.2848241,https://maps.google.com/?cid=0x0:0x9809723a16965046,
toko bangunan,Toko Bahan Bangunan,Toko Yuli,"7725+P7W, Unnamed Road, Pulang Pisau, Kec. Kahayan Hilir, Kabupaten Pulang Pisau, Kalimantan Tengah 73564","Unnamed Road, Pulang Pisau, Kec. Kahayan Hilir, Kabupaten Pulang Pisau",KALIMANTAN TENGAH,73564.0,Indonesia, 051361039,,,-2.7481342,114.2582135,https://maps.google.com/?cid=0x0:0x1388ef77d7e1f8be,
toko bangunan,Pemasok Bahan Bangunan,Toko Bangunan Tunas Djaya,"56RV+QR4, Jl. Lintas Kalimantan, Mantaren I, Kec. Kahayan Hilir, Kabupaten Pulang Pisau, Kalimantan Tengah","Kabupaten Pulang Pisau, Kalimantan Tengah",KALIMANTAN TENGAH,,Indonesia, 081396801512,,,-2.8081213,114.2445647,https://maps.google.com/?cid=0x0:0x1c551f78172a8276,
toko bangunan,Toko Bahan Bangunan,TB.Titipan Ilahi,"7738+783, Jl. Darung Bawan, Anjir, Pulang Pisau, Kec. Kahayan Hilir, Kabupaten Pulang Pisau, Kalimantan Tengah 73564","Jl. Darung Bawan, Anjir, Pulang Pisau, Kec. Kahayan Hilir, Kabupaten Pulang Pisau",KALIMANTAN TENGAH,73564.0,Indonesia,,,,-2.7468503,114.2657918,https://maps.google.com/?cid=0x0:0x74ed4fb5413f1bfa,
toko bangunan,Toko Bahan Bangunan,TB.Berkat Sabar,"Mantaren I, Kec. Kahayan Hilir, Kabupaten Pulang Pisau, Kalimantan Tengah","Kabupaten Pulang Pisau, Kalimantan Tengah",KALIMANTAN TENGAH,,Indonesia,,,,-2.8004649,114.253464,https://maps.google.com/?cid=0x0:0x20e59b29ac4429e9,
toko bangunan,Toko Bahan Bangunan,TB Caca Cia,"Jl. Trans - Kalimantan, Anjir Pulang Pisau, Kec. Kahayan Hilir, Kabupaten Pulang Pisau, Kalimantan Tengah","Kabupaten Pulang Pisau, Kalimantan Tengah",KALIMANTAN TENGAH,,Indonesia,,,,-2.7560254,114.2936361,https://maps.google.com/?cid=0x0:0xb877674f9f1cf924,
toko bangunan,Toko Bahan Bangunan,U.D NOOR YETRI,"456F+VJF, Unnamed Road, Kanamit, Kec. Maliku, Kabupaten Pulang Pisau, Kalimantan Tengah 74871","Unnamed Road, Kanamit, Kec. Maliku, Kabupaten Pulang Pisau",KALIMANTAN TENGAH,74871.0,Indonesia,,,,-2.887804,114.174042,https://maps.google.com/?cid=0x0:0x2649028731cddf0a,
toko bangunan,Toko Bahan Bangunan,UD.SAFWAN MANDIRI,"7738+C6Q, Pulang Pisau, Kec. Kahayan Hilir, Kabupaten Pulang Pisau, Kalimantan Tengah 73564","Pulang Pisau, Kec. Kahayan Hilir, Kabupaten Pulang Pisau",KALIMANTAN TENGAH,73564.0,Indonesia, 085248470385,,,-2.7464201,114.2655953,https://maps.google.com/?cid=0x0:0x71e8359f3e4c0a5f,
toko bangunan,Toko Bahan Bangunan,TB. LOGAM BARU,"67W5+JCC, Jl. Panunjung Tarung, Pulang Pisau, Kec. Kahayan Hilir, Kabupaten Pulang Pisau, Kalimantan Tengah 73564","Jl. Panunjung Tarung, Pulang Pisau, Kec. Kahayan Hilir, Kabupaten Pulang Pisau",KALIMANTAN TENGAH,73564.0,Indonesia,,,,-2.7534415,114.2585129,https://maps.google.com/?cid=0x0:0xa8f459f078c73400,
toko bangunan,Toko Perlengkapan Rumah,TOKO MOGA JAYA,"35G3+2XH, Unnamed Road, Garantung, Kec. Maliku, Kabupaten Pulang Pisau, Kalimantan Tengah 74871","Unnamed Road, Garantung, Kec. Maliku, Kabupaten Pulang Pisau",KALIMANTAN TENGAH,74871.0,Indonesia, 082149531345,,,-2.9249276,114.154994,https://maps.google.com/?cid=0x0:0x5c70b7e2cb2df0ca,
toko bangunan,Toko Bahan Bangunan,TB. Sumber Material,"Jl. Poros, Tahai Baru, Kec. Maliku, Kabupaten Pulang Pisau, Kalimantan Tengah 73516","Tahai Baru, Kec. Maliku, Kabupaten Pulang Pisau",KALIMANTAN TENGAH,73516.0,Indonesia, 082153483345,,,-3.0511443,114.212787,https://maps.google.com/?cid=0x0:0x49340411d887bd3,
toko bangunan,Balai masyarakat,BETANG UTAMA,"77JG+8Q, Bereng, Kec. Kahayan Hilir, Kabupaten Pulang Pisau, Kalimantan Tengah 73564","Bereng, Kec. Kahayan Hilir, Kabupaten Pulang Pisau",KALIMANTAN TENGAH,73564.0,Indonesia, 082154570102,,,-2.7191549,114.2768784,https://maps.google.com/?cid=0x0:0x99cde4ca9339a941,
toko bangunan,Toko Bahan Bangunan,Toko M. RIDWAN,"Jl. Trans - Kalimantan No.desa, Batu Nindan, Kec. Basarang, Kabupaten Kapuas, Kalimantan Tengah 74873","Batu Nindan, Kec. Basarang, Kabupaten Kapuas",KALIMANTAN TENGAH,74873.0,Indonesia,,,,-2.9158987,114.271441,https://maps.google.com/?cid=0x0:0x29bbbfe923a237c6,
toko bangunan,Toko,Toko Rustin,"Jl. Trans - Kalimantan No.KM. 73, Garung, desa Garing, Kabupaten Pulang Pisau, Kalimantan Tengah 74861","Garung, desa Garing, Kabupaten Pulang Pisau",KALIMANTAN TENGAH,74861.0,Indonesia, 082154830069,,,-2.6511759,114.2248332,https://maps.google.com/?cid=0x0:0x56cc8d7eaa359c1b,
toko bangunan,Toko Bahan Bangunan,Toko UD. YANOR,"P3VX+H39, Jl. Hidayatullah, RT.004/RW.002, Tj. Perawan, Kec. Kahayan Kuala, Kabupaten Pulang Pisau, Kalimantan Tengah 74872","Jl. Hidayatullah, RT.004/RW.002, Tj. Perawan, Kec. Kahayan Kuala, Kabupaten Pulang Pisau",KALIMANTAN TENGAH,74872.0,Indonesia,,,,-3.2560886,114.0977299,https://maps.google.com/?cid=0x0:0xc503b4523d7b483f,
toko bangunan,Toko Perlengkapan Rumah,Toko Bangunan Karya Niaga,"Jalan Poros Pangkoh 3 Blok B Kanan, Pangkoh Hulu, Kec. Pandih Batu, Kabupaten Pulang Pisau, Kalimantan Tengah 74871","Pangkoh Hulu, Kec. Pandih Batu, Kabupaten Pulang Pisau",KALIMANTAN TENGAH,74871.0,Indonesia, 081348934606,,,-3.0423621,114.1617709,https://maps.google.com/?cid=0x0:0x1f860cfcceeff65f,
toko bangunan,Toko,Gudang Beruntung Jaya,"24VX+FGQ, Maliku Baru, Kec. Maliku, Kabupaten Pulang Pisau, Kalimantan Tengah 74871","Maliku Baru, Kec. Maliku, Kabupaten Pulang Pisau",KALIMANTAN TENGAH,74871.0,Indonesia,,,,-2.956277,114.148857,https://maps.google.com/?cid=0x0:0x4e08be840a9c9ca0,
toko bangunan,Toko Kelontong Asia,Toko Fika 1,"46PC+7G4, Mintin, Kec. Kahayan Hilir, Kabupaten Pulang Pisau, Kalimantan Tengah 74873","Mintin, Kec. Kahayan Hilir, Kabupaten Pulang Pisau",KALIMANTAN TENGAH,74873.0,Indonesia, 082151855747,,,-2.8643676,114.2213351,https://maps.google.com/?cid=0x0:0xb84704166bc03801,
toko bangunan,Toko Bahan Bangunan,Toko Bangunan Kalibata Jaya,"PWP6+45H, Jl. Kalibata, Menteng, Kec. Jekan Raya, Kota Palangka Raya, Kalimantan Tengah 74874","Jl. Kalibata, Menteng, Kec. Jekan Raya, Kota Palangka Raya",KALIMANTAN TENGAH,74874.0,Indonesia, 0816992047,,,-2.2638689,113.9107013,https://maps.google.com/?cid=0x0:0x4f1106acc8dfae3e,
toko bangunan,Kantor Perusahaan,TB. Sinar Abadi,"X4R9+3J2, Kantan Muara, Kec. Pandih Batu, Kabupaten Pulang Pisau, Kalimantan Tengah 74871","Kantan Muara, Kec. Pandih Batu, Kabupaten Pulang Pisau",KALIMANTAN TENGAH,74871.0,Indonesia, 085247170525,,,-3.0098738,114.1190156,https://maps.google.com/?cid=0x0:0x6c0ad1e145d8b432,
toko bangunan,Toko Bahan Bangunan,TB. H. Ibas,"25V2+M53, Jl. Tjilik Riwut, Maliku Baru, Kec. Maliku, Kabupaten Pulang Pisau, Kalimantan Tengah 74871","Jl. Tjilik Riwut, Maliku Baru, Kec. Maliku, Kabupaten Pulang Pisau",KALIMANTAN TENGAH,74871.0,Indonesia, 081348357524,,,-2.9558573,114.1504366,https://maps.google.com/?cid=0x0:0x64f6470c804ca99f,
toko bangunan,toko bangunan,Kec. Kahayan Hilir,"Kabupaten Pulang Pisau, Kalimantan Tengah","Kabupaten Pulang Pisau, Kalimantan Tengah",KALIMANTAN TENGAH,,Indonesia,,,,-2.7914682,114.262235,https://maps.google.com/?cid=0x0:0x7f1583868799e28e,
toko bangunan,Toko Bahan Bangunan,Toko Bangunan Shohibah,"Jl. Trans - Kalimantan NO WA, RT.OI54O54-249, Mantaren I, Kec. Kahayan Hilir, Kabupaten Pulang Pisau, Kalimantan Tengah 73564","RT.OI54O54-249, Mantaren I, Kec. Kahayan Hilir, Kabupaten Pulang Pisau",KALIMANTAN TENGAH,73564.0,Indonesia, 082186774521,,,-2.7921992,114.261941,https://maps.google.com/?cid=0x0:0x9919e9b40efbf5a,
toko bangunan,Toko Bahan Bangunan,TOKO BANGUNAN FAJAR MAS,"67PM+9WW, Anjir Pulang Pisau, Kec. Kahayan Hilir, Kabupaten Pulang Pisau, Kalimantan Tengah 73564","Anjir Pulang Pisau, Kec. Kahayan Hilir, Kabupaten Pulang Pisau",KALIMANTAN TENGAH,73564.0,Indonesia, 087790952235,,,-2.7640137,114.2848241,https://maps.google.com/?cid=0x0:0x9809723a16965046,
toko bangunan,Toko Bahan Bangunan,Toko Yuli,"7725+P7W, Unnamed Road, Pulang Pisau, Kec. Kahayan Hilir, Kabupaten Pulang Pisau, Kalimantan Tengah 73564","Unnamed Road, Pulang Pisau, Kec. Kahayan Hilir, Kabupaten Pulang Pisau",KALIMANTAN TENGAH,73564.0,Indonesia, 051361039,,,-2.7481342,114.2582135,https://maps.google.com/?cid=0x0:0x1388ef77d7e1f8be,
toko bangunan,Toko Bahan Bangunan,Wa(0821-1001-7004)Toko Alfi Logam,"57X2+3QH, Mantaren I, Kec. Kahayan Hilir, Kabupaten Pulang Pisau, Kalimantan Tengah 73564","Mantaren I, Kec. Kahayan Hilir, Kabupaten Pulang Pisau",KALIMANTAN TENGAH,73564.0,Indonesia,,,,-2.802321,114.2519987,https://maps.google.com/?cid=0x0:0x978da0c97aeeadd0,
toko bangunan,Toko Bahan Bangunan,TB.Titipan Ilahi,"7738+783, Jl. Darung Bawan, Anjir, Pulang Pisau, Kec. Kahayan Hilir, Kabupaten Pulang Pisau, Kalimantan Tengah 73564","Jl. Darung Bawan, Anjir, Pulang Pisau, Kec. Kahayan Hilir, Kabupaten Pulang Pisau",KALIMANTAN TENGAH,73564.0,Indonesia,,,,-2.7468503,114.2657918,https://maps.google.com/?cid=0x0:0x74ed4fb5413f1bfa,
toko bangunan,Pemasok Bahan Bangunan,Toko Bangunan Tunas Djaya,"56RV+QR4, Jl. Lintas Kalimantan, Mantaren I, Kec. Kahayan Hilir, Kabupaten Pulang Pisau, Kalimantan Tengah","Kabupaten Pulang Pisau, Kalimantan Tengah",KALIMANTAN TENGAH,,Indonesia, 081396801512,,,-2.8081213,114.2445647,https://maps.google.com/?cid=0x0:0x1c551f78172a8276,
toko bangunan,Toko Bahan Bangunan,TB Caca Cia,"Jl. Trans - Kalimantan, Anjir Pulang Pisau, Kec. Kahayan Hilir, Kabupaten Pulang Pisau, Kalimantan Tengah","Kabupaten Pulang Pisau, Kalimantan Tengah",KALIMANTAN TENGAH,,Indonesia,,,,-2.7560254,114.2936361,https://maps.google.com/?cid=0x0:0xb877674f9f1cf924,
toko bangunan,Toko Bahan Bangunan,TB.Berkat Sabar,"Mantaren I, Kec. Kahayan Hilir, Kabupaten Pulang Pisau, Kalimantan Tengah","Kabupaten Pulang Pisau, Kalimantan Tengah",KALIMANTAN TENGAH,,Indonesia,,,,-2.8004649,114.253464,https://maps.google.com/?cid=0x0:0x20e59b29ac4429e9,
toko bangunan,Toko Bahan Bangunan,U.D NOOR YETRI,"456F+VJF, Unnamed Road, Kanamit, Kec. Maliku, Kabupaten Pulang Pisau, Kalimantan Tengah 74871","Unnamed Road, Kanamit, Kec. Maliku, Kabupaten Pulang Pisau",KALIMANTAN TENGAH,74871.0,Indonesia,,,,-2.887804,114.174042,https://maps.google.com/?cid=0x0:0x2649028731cddf0a,
toko bangunan,Toko Bahan Bangunan,TB. LOGAM BARU,"67W5+JCC, Jl. Panunjung Tarung, Pulang Pisau, Kec. Kahayan Hilir, Kabupaten Pulang Pisau, Kalimantan Tengah 73564","Jl. Panunjung Tarung, Pulang Pisau, Kec. Kahayan Hilir, Kabupaten Pulang Pisau",KALIMANTAN TENGAH,73564.0,Indonesia,,,,-2.7534415,114.2585129,https://maps.google.com/?cid=0x0:0xa8f459f078c73400,
toko bangunan,Toko Bahan Bangunan,UD.SAFWAN MANDIRI,"7738+C6Q, Pulang Pisau, Kec. Kahayan Hilir, Kabupaten Pulang Pisau, Kalimantan Tengah 73564","Pulang Pisau, Kec. Kahayan Hilir, Kabupaten Pulang Pisau",KALIMANTAN TENGAH,73564.0,Indonesia, 085248470385,,,-2.7464201,114.2655953,https://maps.google.com/?cid=0x0:0x71e8359f3e4c0a5f,
toko bangunan,Balai masyarakat,BETANG UTAMA,"77JG+8Q, Bereng, Kec. Kahayan Hilir, Kabupaten Pulang Pisau, Kalimantan Tengah 73564","Bereng, Kec. Kahayan Hilir, Kabupaten Pulang Pisau",KALIMANTAN TENGAH,73564.0,Indonesia, 082154570102,,,-2.7191549,114.2768784,https://maps.google.com/?cid=0x0:0x99cde4ca9339a941,
toko bangunan,Toko Bahan Bangunan,Toko Bangunan KARYA NIAGA,"X3WX+PP7, Unnamed Road, Kantan Dalam, Kec. Pandih Batu, Kabupaten Pulang Pisau, Kalimantan Tengah 74871","Unnamed Road, Kantan Dalam, Kec. Pandih Batu, Kabupaten Pulang Pisau",KALIMANTAN TENGAH,74871.0,Indonesia, 08161999912,,,-3.00322,114.099295,https://maps.google.com/?cid=0x0:0x9bc17d5568ff4076,
toko bangunan,Toko Bahan Bangunan,TB. Sumber Material,"Jl. Poros, Tahai Baru, Kec. Maliku, Kabupaten Pulang Pisau, Kalimantan Tengah 73516","Tahai Baru, Kec. Maliku, Kabupaten Pulang Pisau",KALIMANTAN TENGAH,73516.0,Indonesia, 082153483345,,,-3.0511443,114.212787,https://maps.google.com/?cid=0x0:0x49340411d887bd3,
toko bangunan,Toko Perlengkapan Rumah,TOKO MOGA JAYA,"35G3+2XH, Unnamed Road, Garantung, Kec. Maliku, Kabupaten Pulang Pisau, Kalimantan Tengah 74871","Unnamed Road, Garantung, Kec. Maliku, Kabupaten Pulang Pisau",KALIMANTAN TENGAH,74871.0,Indonesia, 082149531345,,,-2.9249276,114.154994,https://maps.google.com/?cid=0x0:0x5c70b7e2cb2df0ca,
toko bangunan,Toko,Toko Rustin,"Jl. Trans - Kalimantan No.KM. 73, Garung, desa Garing, Kabupaten Pulang Pisau, Kalimantan Tengah 74861","Garung, desa Garing, Kabupaten Pulang Pisau",KALIMANTAN TENGAH,74861.0,Indonesia, 082154830069,,,-2.6511759,114.2248332,https://maps.google.com/?cid=0x0:0x56cc8d7eaa359c1b,
toko bangunan,Toko Bahan Bangunan,TB.RIZ-Q LOGAM,"23PX+74, Gandang, Kec. Maliku, Kabupaten Pulang Pisau, Kalimantan Tengah","Kabupaten Pulang Pisau, Kalimantan Tengah",KALIMANTAN TENGAH,,Indonesia,,,,-2.964272,114.097854,https://maps.google.com/?cid=0x0:0xc264ee2b8cd3ea46,
toko bangunan,Toko,Gudang Beruntung Jaya,"24VX+FGQ, Maliku Baru, Kec. Maliku, Kabupaten Pulang Pisau, Kalimantan Tengah 74871","Maliku Baru, Kec. Maliku, Kabupaten Pulang Pisau",KALIMANTAN TENGAH,74871.0,Indonesia,,,,-2.956277,114.148857,https://maps.google.com/?cid=0x0:0x4e08be840a9c9ca0,
toko bangunan,Toko Kayu,Kahayan Lumber PT,"25W9+47F, Kanamit, Kec. Maliku, Kabupaten Pulang Pisau, Kalimantan Tengah 74871","Kanamit, Kec. Maliku, Kabupaten Pulang Pisau",KALIMANTAN TENGAH,74871.0,Indonesia, 051323760,,,-2.954698,114.168178,https://maps.google.com/?cid=0x0:0x768632f2fac7fef1,
toko bangunan,Toko Bahan Bangunan,Toko M. RIDWAN,"Jl. Trans - Kalimantan No.desa, Batu Nindan, Kec. Basarang, Kabupaten Kapuas, Kalimantan Tengah 74873","Batu Nindan, Kec. Basarang, Kabupaten Kapuas",KALIMANTAN TENGAH,74873.0,Indonesia,,,,-2.9158987,114.271441,https://maps.google.com/?cid=0x0:0x29bbbfe923a237c6,
toko bangunan,Toko Bahan Bangunan,Toko Sumber Urep,"67HJ+VQ2, Anjir Pulang Pisau, Kec. Kahayan Hilir, Kabupaten Pulang Pisau, Kalimantan Tengah 73564","Anjir Pulang Pisau, Kec. Kahayan Hilir, Kabupaten Pulang Pisau",KALIMANTAN TENGAH,73564.0,Indonesia, 081214635224,,,-2.7703503,114.281894,https://maps.google.com/?cid=0x0:0xb99a7a4a5caa4f98,
toko bangunan,Toko Bahan Bangunan,TOKO BANGUNAN FAJAR MAS,"67PM+9WW, Anjir Pulang Pisau, Kec. Kahayan Hilir, Kabupaten Pulang Pisau, Kalimantan Tengah 73564","Anjir Pulang Pisau, Kec. Kahayan Hilir, Kabupaten Pulang Pisau",KALIMANTAN TENGAH,73564.0,Indonesia, 087790952235,,,-2.7640137,114.2848241,https://maps.google.com/?cid=0x0:0x9809723a16965046,
toko bangunan,Toko Bahan Bangunan,Toko Bangunan Shohibah,"Jl. Trans - Kalimantan NO WA, RT.OI54O54-249, Mantaren I, Kec. Kahayan Hilir, Kabupaten Pulang Pisau, Kalimantan Tengah 73564","RT.OI54O54-249, Mantaren I, Kec. Kahayan Hilir, Kabupaten Pulang Pisau",KALIMANTAN TENGAH,73564.0,Indonesia, 082186774521,,,-2.7921992,114.261941,https://maps.google.com/?cid=0x0:0x9919e9b40efbf5a,
toko bangunan,toko bangunan,Kec. Kahayan Hilir,"Kabupaten Pulang Pisau, Kalimantan Tengah","Kabupaten Pulang Pisau, Kalimantan Tengah",KALIMANTAN TENGAH,,Indonesia,,,,-2.7914682,114.262235,https://maps.google.com/?cid=0x0:0x7f1583868799e28e,
toko bangunan,Toko Bahan Bangunan,Wa(0821-1001-7004)Toko Alfi Logam,"57X2+3QH, Mantaren I, Kec. Kahayan Hilir, Kabupaten Pulang Pisau, Kalimantan Tengah 73564","Mantaren I, Kec. Kahayan Hilir, Kabupaten Pulang Pisau",KALIMANTAN TENGAH,73564.0,Indonesia,,,,-2.802321,114.2519987,https://maps.google.com/?cid=0x0:0x978da0c97aeeadd0,
toko bangunan,Toko Bahan Bangunan,Toko Yuli,"7725+P7W, Unnamed Road, Pulang Pisau, Kec. Kahayan Hilir, Kabupaten Pulang Pisau, Kalimantan Tengah 73564","Unnamed Road, Pulang Pisau, Kec. Kahayan Hilir, Kabupaten Pulang Pisau",KALIMANTAN TENGAH,73564.0,Indonesia, 051361039,,,-2.7481342,114.2582135,https://maps.google.com/?cid=0x0:0x1388ef77d7e1f8be,
toko bangunan,Toko Bahan Bangunan,TB.Titipan Ilahi,"7738+783, Jl. Darung Bawan, Anjir, Pulang Pisau, Kec. Kahayan Hilir, Kabupaten Pulang Pisau, Kalimantan Tengah 73564","Jl. Darung Bawan, Anjir, Pulang Pisau, Kec. Kahayan Hilir, Kabupaten Pulang Pisau",KALIMANTAN TENGAH,73564.0,Indonesia,,,,-2.7468503,114.2657918,https://maps.google.com/?cid=0x0:0x74ed4fb5413f1bfa,
toko bangunan,Toko Bahan Bangunan,TB Caca Cia,"Jl. Trans - Kalimantan, Anjir Pulang Pisau, Kec. Kahayan Hilir, Kabupaten Pulang Pisau, Kalimantan Tengah","Kabupaten Pulang Pisau, Kalimantan Tengah",KALIMANTAN TENGAH,,Indonesia,,,,-2.7560254,114.2936361,https://maps.google.com/?cid=0x0:0xb877674f9f1cf924,
toko bangunan,Pemasok Bahan Bangunan,Toko Bangunan Tunas Djaya,"56RV+QR4, Jl. Lintas Kalimantan, Mantaren I, Kec. Kahayan Hilir, Kabupaten Pulang Pisau, Kalimantan Tengah","Kabupaten Pulang Pisau, Kalimantan Tengah",KALIMANTAN TENGAH,,Indonesia, 081396801512,,,-2.8081213,114.2445647,https://maps.google.com/?cid=0x0:0x1c551f78172a8276,
toko bangunan,Toko Bahan Bangunan,TB.Berkat Sabar,"Mantaren I, Kec. Kahayan Hilir, Kabupaten Pulang Pisau, Kalimantan Tengah","Kabupaten Pulang Pisau, Kalimantan Tengah",KALIMANTAN TENGAH,,Indonesia,,,,-2.8004649,114.253464,https://maps.google.com/?cid=0x0:0x20e59b29ac4429e9,
toko bangunan,Toko Bahan Bangunan,U.D NOOR YETRI,"456F+VJF, Unnamed Road, Kanamit, Kec. Maliku, Kabupaten Pulang Pisau, Kalimantan Tengah 74871","Unnamed Road, Kanamit, Kec. Maliku, Kabupaten Pulang Pisau",KALIMANTAN TENGAH,74871.0,Indonesia,,,,-2.887804,114.174042,https://maps.google.com/?cid=0x0:0x2649028731cddf0a,
toko bangunan,Toko Bahan Bangunan,UD.SAFWAN MANDIRI,"7738+C6Q, Pulang Pisau, Kec. Kahayan Hilir, Kabupaten Pulang Pisau, Kalimantan Tengah 73564","Pulang Pisau, Kec. Kahayan Hilir, Kabupaten Pulang Pisau",KALIMANTAN TENGAH,73564.0,Indonesia, 085248470385,,,-2.7464201,114.2655953,https://maps.google.com/?cid=0x0:0x71e8359f3e4c0a5f,
toko bangunan,Toko Bahan Bangunan,TB. LOGAM BARU,"67W5+JCC, Jl. Panunjung Tarung, Pulang Pisau, Kec. Kahayan Hilir, Kabupaten Pulang Pisau, Kalimantan Tengah 73564","Jl. Panunjung Tarung, Pulang Pisau, Kec. Kahayan Hilir, Kabupaten Pulang Pisau",KALIMANTAN TENGAH,73564.0,Indonesia,,,,-2.7534415,114.2585129,https://maps.google.com/?cid=0x0:0xa8f459f078c73400,
toko bangunan,Balai masyarakat,BETANG UTAMA,"77JG+8Q, Bereng, Kec. Kahayan Hilir, Kabupaten Pulang Pisau, Kalimantan Tengah 73564","Bereng, Kec. Kahayan Hilir, Kabupaten Pulang Pisau",KALIMANTAN TENGAH,73564.0,Indonesia, 082154570102,,,-2.7191549,114.2768784,https://maps.google.com/?cid=0x0:0x99cde4ca9339a941,
toko bangunan,Toko,Toko Rustin,"Jl. Trans - Kalimantan No.KM. 73, Garung, desa Garing, Kabupaten Pulang Pisau, Kalimantan Tengah 74861","Garung, desa Garing, Kabupaten Pulang Pisau",KALIMANTAN TENGAH,74861.0,Indonesia, 082154830069,,,-2.6511759,114.2248332,https://maps.google.com/?cid=0x0:0x56cc8d7eaa359c1b,
toko bangunan,Toko Bahan Bangunan,Toko Bangunan KARYA NIAGA,"X3WX+PP7, Unnamed Road, Kantan Dalam, Kec. Pandih Batu, Kabupaten Pulang Pisau, Kalimantan Tengah 74871","Unnamed Road, Kantan Dalam, Kec. Pandih Batu, Kabupaten Pulang Pisau",KALIMANTAN TENGAH,74871.0,Indonesia, 08161999912,,,-3.00322,114.099295,https://maps.google.com/?cid=0x0:0x9bc17d5568ff4076,
toko bangunan,Toko Bahan Bangunan,TB. Sumber Material,"Jl. Poros, Tahai Baru, Kec. Maliku, Kabupaten Pulang Pisau, Kalimantan Tengah 73516","Tahai Baru, Kec. Maliku, Kabupaten Pulang Pisau",KALIMANTAN TENGAH,73516.0,Indonesia, 082153483345,,,-3.0511443,114.212787,https://maps.google.com/?cid=0x0:0x49340411d887bd3,
toko bangunan,Toko,Gudang Beruntung Jaya,"24VX+FGQ, Maliku Baru, Kec. Maliku, Kabupaten Pulang Pisau, Kalimantan Tengah 74871","Maliku Baru, Kec. Maliku, Kabupaten Pulang Pisau",KALIMANTAN TENGAH,74871.0,Indonesia,,,,-2.956277,114.148857,https://maps.google.com/?cid=0x0:0x4e08be840a9c9ca0,
toko bangunan,Toko Perlengkapan Rumah,TOKO MOGA JAYA,"35G3+2XH, Unnamed Road, Garantung, Kec. Maliku, Kabupaten Pulang Pisau, Kalimantan Tengah 74871","Unnamed Road, Garantung, Kec. Maliku, Kabupaten Pulang Pisau",KALIMANTAN TENGAH,74871.0,Indonesia, 082149531345,,,-2.9249276,114.154994,https://maps.google.com/?cid=0x0:0x5c70b7e2cb2df0ca,
toko bangunan,Toko Bahan Bangunan,Toko Sumber Urep,"67HJ+VQ2, Anjir Pulang Pisau, Kec. Kahayan Hilir, Kabupaten Pulang Pisau, Kalimantan Tengah 73564","Anjir Pulang Pisau, Kec. Kahayan Hilir, Kabupaten Pulang Pisau",KALIMANTAN TENGAH,73564.0,Indonesia, 081214635224,,,-2.7703503,114.281894,https://maps.google.com/?cid=0x0:0xb99a7a4a5caa4f98,
toko bangunan,Toko Bahan Bangunan,Toko M. RIDWAN,"Jl. Trans - Kalimantan No.desa, Batu Nindan, Kec. Basarang, Kabupaten Kapuas, Kalimantan Tengah 74873","Batu Nindan, Kec. Basarang, Kabupaten Kapuas",KALIMANTAN TENGAH,74873.0,Indonesia,,,,-2.9158987,114.271441,https://maps.google.com/?cid=0x0:0x29bbbfe923a237c6,
toko bangunan,Toko Kayu,Kahayan Lumber PT,"25W9+47F, Kanamit, Kec. Maliku, Kabupaten Pulang Pisau, Kalimantan Tengah 74871","Kanamit, Kec. Maliku, Kabupaten Pulang Pisau",KALIMANTAN TENGAH,74871.0,Indonesia, 051323760,,,-2.954698,114.168178,https://maps.google.com/?cid=0x0:0x768632f2fac7fef1,
toko bangunan,Toko Kelontong Asia,Toko Fika 1,"46PC+7G4, Mintin, Kec. Kahayan Hilir, Kabupaten Pulang Pisau, Kalimantan Tengah 74873","Mintin, Kec. Kahayan Hilir, Kabupaten Pulang Pisau",KALIMANTAN TENGAH,74873.0,Indonesia, 082151855747,,,-2.8643676,114.2213351,https://maps.google.com/?cid=0x0:0xb84704166bc03801,
toko bangunan,toko bangunan,Kalimantan Tengah 74861,"Kec. Kahayan Hilir, Kabupaten Pulang Pisau, Kalimantan Tengah","Kabupaten Pulang Pisau, Kalimantan Tengah",KALIMANTAN TENGAH,,Indonesia,,,,-2.6258092,114.1677159,https://maps.google.com/?cid=0x0:0xa561bda05dfda1b5,
toko bangunan,Toko,Toko Rustin,"Jl. Trans - Kalimantan No.KM. 73, Garung, desa Garing, Kabupaten Pulang Pisau, Kalimantan Tengah 74861","Garung, desa Garing, Kabupaten Pulang Pisau",KALIMANTAN TENGAH,74861.0,Indonesia, 082154830069,,,-2.6511759,114.2248332,https://maps.google.com/?cid=0x0:0x56cc8d7eaa359c1b,
toko bangunan,Toko Bahan Bangunan,Toko Bangunan Shohibah,"Jl. Trans - Kalimantan NO WA, RT.OI54O54-249, Mantaren I, Kec. Kahayan Hilir, Kabupaten Pulang Pisau, Kalimantan Tengah 73564","RT.OI54O54-249, Mantaren I, Kec. Kahayan Hilir, Kabupaten Pulang Pisau",KALIMANTAN TENGAH,73564.0,Indonesia, 082186774521,,,-2.7921992,114.261941,https://maps.google.com/?cid=0x0:0x9919e9b40efbf5a,
toko bangunan,Toko Bahan Bangunan,Gemilang Baja Barito. UD,"JL. Trans Kalimantan Km 9, 5, Kel Handil Bakti Kec Alalak, 70582, Banjarmasin, Kalimantan Selatan 70582","Kel Handil Bakti Kec Alalak,",KALIMANTAN TENGAH,70582.0,Indonesia, 081250854254,,,-2.627558,114.20866,https://maps.google.com/?cid=0x0:0x38a95f1eecc9fb54,
toko bangunan,Toko Bahan Bangunan,Toko Yuli,"7725+P7W, Unnamed Road, Pulang Pisau, Kec. Kahayan Hilir, Kabupaten Pulang Pisau, Kalimantan Tengah 73564","Unnamed Road, Pulang Pisau, Kec. Kahayan Hilir, Kabupaten Pulang Pisau",KALIMANTAN TENGAH,73564.0,Indonesia, 051361039,,,-2.7481342,114.2582135,https://maps.google.com/?cid=0x0:0x1388ef77d7e1f8be,
toko bangunan,Toko Bahan Bangunan,UD.SAFWAN MANDIRI,"7738+C6Q, Pulang Pisau, Kec. Kahayan Hilir, Kabupaten Pulang Pisau, Kalimantan Tengah 73564","Pulang Pisau, Kec. Kahayan Hilir, Kabupaten Pulang Pisau",KALIMANTAN TENGAH,73564.0,Indonesia, 085248470385,,,-2.7464201,114.2655953,https://maps.google.com/?cid=0x0:0x71e8359f3e4c0a5f,
toko bangunan,Toko Bahan Bangunan,TB.Titipan Ilahi,"7738+783, Jl. Darung Bawan, Anjir, Pulang Pisau, Kec. Kahayan Hilir, Kabupaten Pulang Pisau, Kalimantan Tengah 73564","Jl. Darung Bawan, Anjir, Pulang Pisau, Kec. Kahayan Hilir, Kabupaten Pulang Pisau",KALIMANTAN TENGAH,73564.0,Indonesia,,,,-2.7468503,114.2657918,https://maps.google.com/?cid=0x0:0x74ed4fb5413f1bfa,
toko bangunan,toko bangunan,Kalimantan Tengah 74872,"Kabupaten Pulang Pisau, Kalimantan Tengah","Kabupaten Pulang Pisau, Kalimantan Tengah",KALIMANTAN TENGAH,,Indonesia,,,,-3.197171,114.0488007,https://maps.google.com/?cid=0x0:0x496607f806bb7e7f,
toko bangunan,Toko Bahan Bangunan,Kios Amarta,"M3V2+GWW, Papuyu I Sei Pasanan, Kec. Kahayan Kuala, Kabupaten Pulang Pisau, Kalimantan Tengah 74872","Papuyu I Sei Pasanan, Kec. Kahayan Kuala, Kabupaten Pulang Pisau",KALIMANTAN TENGAH,74872.0,Indonesia,,,,-3.3061382,114.052337,https://maps.google.com/?cid=0x0:0xcd3efc3cd76d3da1,
toko bangunan,Toko Bahan Bangunan,Toko UD. YANOR,"P3VX+H39, Jl. Hidayatullah, RT.004/RW.002, Tj. Perawan, Kec. Kahayan Kuala, Kabupaten Pulang Pisau, Kalimantan Tengah 74872","Jl. Hidayatullah, RT.004/RW.002, Tj. Perawan, Kec. Kahayan Kuala, Kabupaten Pulang Pisau",KALIMANTAN TENGAH,74872.0,Indonesia,,,,-3.2560886,114.0977299,https://maps.google.com/?cid=0x0:0xc503b4523d7b483f,
toko bangunan,Kantor Perusahaan,TB. Sinar Abadi,"X4R9+3J2, Kantan Muara, Kec. Pandih Batu, Kabupaten Pulang Pisau, Kalimantan Tengah 74871","Kantan Muara, Kec. Pandih Batu, Kabupaten Pulang Pisau",KALIMANTAN TENGAH,74871.0,Indonesia, 085247170525,,,-3.0098738,114.1190156,https://maps.google.com/?cid=0x0:0x6c0ad1e145d8b432,
toko bangunan,Toko Perlengkapan Rumah,Toko UD Allin djaya,"V448+W6, Dandang, Kec. Pandih Batu, Kabupaten Pulang Pisau, Kalimantan Tengah","Kabupaten Pulang Pisau, Kalimantan Tengah",KALIMANTAN TENGAH,,Indonesia,,,,-3.1426075,114.115546,https://maps.google.com/?cid=0x0:0xe55c3fc63a3445b2,
toko bangunan,Toko,Toko Alat bangunan,"W5P4+GR7, Pangkoh Hulu, Kec. Pandih Batu, Kabupaten Pulang Pisau, Kalimantan Tengah","Kabupaten Pulang Pisau, Kalimantan Tengah",KALIMANTAN TENGAH,,Indonesia, 08161999912,,,-3.0638263,114.1572008,https://maps.google.com/?cid=0x0:0x22076d390b003e9e,
toko bangunan,Toko Bahan Bangunan,TB. KHAIRUNNISA,"46V7+8C6, Jl. Trans - Kalimantan, Mintin, Kec. Kahayan Hilir, Kabupaten Pulang Pisau, Kalimantan Tengah 74873","Jl. Trans - Kalimantan, Mintin, Kec. Kahayan Hilir, Kabupaten Pulang Pisau",KALIMANTAN TENGAH,74873.0,Indonesia, 085248489984,,,-2.8567,114.2135084,https://maps.google.com/?cid=0x0:0x567136827ee1e54b,
toko bangunan,Toko Bahan Bangunan,Toko Bangunan Shohibah,"Jl. Trans - Kalimantan NO WA, RT.OI54O54-249, Mantaren I, Kec. Kahayan Hilir, Kabupaten Pulang Pisau, Kalimantan Tengah 73564","RT.OI54O54-249, Mantaren I, Kec. Kahayan Hilir, Kabupaten Pulang Pisau",KALIMANTAN TENGAH,73564.0,Indonesia, 082186774521,,,-2.7921992,114.261941,https://maps.google.com/?cid=0x0:0x9919e9b40efbf5a,
toko bangunan,Toko Bahan Bangunan,UD aura yani,"V55V+RGM, Unnamed Road, Belanti Siam, Kec. Pandih Batu, Kabupaten Pulang Pisau, Kalimantan Tengah 73583","Unnamed Road, Belanti Siam, Kec. Pandih Batu, Kabupaten Pulang Pisau",KALIMANTAN TENGAH,73583.0,Indonesia, 085252549272,,,-3.1404122,114.193806,https://maps.google.com/?cid=0x0:0x28f969e0f0b80d4a,
toko bangunan,Toko Perlengkapan Rumah,Toko Bangunan Karya Niaga,"Jalan Poros Pangkoh 3 Blok B Kanan, Pangkoh Hulu, Kec. Pandih Batu, Kabupaten Pulang Pisau, Kalimantan Tengah 74871","Pangkoh Hulu, Kec. Pandih Batu, Kabupaten Pulang Pisau",KALIMANTAN TENGAH,74871.0,Indonesia, 081348934606,,,-3.0423621,114.1617709,https://maps.google.com/?cid=0x0:0x1f860cfcceeff65f,
toko bangunan,Toko Perlengkapan Rumah,Toko bangunan,"3RG9+XV9, Sebangau Permai, Kec. Sebangau Kuala, Kabupaten Pulang Pisau, Kalimantan Tengah 74874","Sebangau Permai, Kec. Sebangau Kuala, Kabupaten Pulang Pisau",KALIMANTAN TENGAH,74874.0,Indonesia, 081396801512,,,-2.9225757,113.8197232,https://maps.google.com/?cid=0x0:0x807b2cc483aea132,
toko bangunan,Toko Bahan Bangunan,TB. KRS BAGONG,"Talio Hulu, Kec. Pandih Batu, Kabupaten Pulang Pisau, Kalimantan Tengah 74872","Kec. Pandih Batu, Kabupaten Pulang Pisau",KALIMANTAN TENGAH,74872.0,Indonesia,,,,-3.089185,114.0887869,https://maps.google.com/?cid=0x0:0xcc466a54bb117293,
toko bangunan,Toko,Gudang Beruntung Jaya,"24VX+FGQ, Maliku Baru, Kec. Maliku, Kabupaten Pulang Pisau, Kalimantan Tengah 74871","Maliku Baru, Kec. Maliku, Kabupaten Pulang Pisau",KALIMANTAN TENGAH,74871.0,Indonesia,,,,-2.956277,114.148857,https://maps.google.com/?cid=0x0:0x4e08be840a9c9ca0,
toko bangunan,Toko Bahan Bangunan,TOKO BANGUNAN FAJAR MAS,"67PM+9WW, Anjir Pulang Pisau, Kec. Kahayan Hilir, Kabupaten Pulang Pisau, Kalimantan Tengah 73564","Anjir Pulang Pisau, Kec. Kahayan Hilir, Kabupaten Pulang Pisau",KALIMANTAN TENGAH,73564.0,Indonesia, 087790952235,,,-2.7640137,114.2848241,https://maps.google.com/?cid=0x0:0x9809723a16965046,
toko bangunan,Toko Bahan Bangunan,Toko Bangunan Ismail,"Jl. RTA Milono No.KM 8,5, RW.3, Sabaru, Kec. Sebangau, Kota Palangka Raya, Kalimantan Tengah 74874","RW.3, Sabaru, Kec. Sebangau, Kota Palangka Raya",KALIMANTAN TENGAH,74874.0,Indonesia, 081396801512,,,-2.281764,113.9192037,https://maps.google.com/?cid=0x0:0xebf0ee216c3179c0,
toko bangunan,Toko Bahan Bangunan,Toko Bahan Bangunan Makita 2,"Selat Hilir, Kec. Selat, Kabupaten Kapuas, Kalimantan Tengah 73516","Kec. Selat, Kabupaten Kapuas",KALIMANTAN TENGAH,73516.0,Indonesia, 081225533972,,,-3.0190088,114.3884391,https://maps.google.com/?cid=0x0:0x2c4905b2412181e2,
toko bangunan,Toko Bahan Bangunan,Toko SyawaLina,"Belanti Siam, Kec. Pandih Batu, Kabupaten Pulang Pisau, Kalimantan Tengah 73516","Kec. Pandih Batu, Kabupaten Pulang Pisau",KALIMANTAN TENGAH,73516.0,Indonesia,,,,-3.1342445,114.187778,https://maps.google.com/?cid=0x0:0x193bb6741c35b195,
toko bangunan,Toko Bahan Bangunan,TB.RIZ-Q LOGAM,"23PX+74, Gandang, Kec. Maliku, Kabupaten Pulang Pisau, Kalimantan Tengah","Kabupaten Pulang Pisau, Kalimantan Tengah",KALIMANTAN TENGAH,,Indonesia,,,,-2.964272,114.097854,https://maps.google.com/?cid=0x0:0xc264ee2b8cd3ea46,
toko bangunan,Toko Bahan Bangunan,TOKO DIKA BANGUNAN,"Jl. Manduhara No.07, Kereng Bangkirai, Kec. Sebangau, Kota Palangka Raya, Kalimantan Tengah 74874","Kereng Bangkirai, Kec. Sebangau, Kota Palangka Raya",KALIMANTAN TENGAH,74874.0,Indonesia, 081373975479,,,-2.2921323,113.9152884,https://maps.google.com/?cid=0x0:0xfeea700768c0b6b9,
toko bangunan,Toko Bahan Bangunan,TB. H. Ibas,"25V2+M53, Jl. Tjilik Riwut, Maliku Baru, Kec. Maliku, Kabupaten Pulang Pisau, Kalimantan Tengah 74871","Jl. Tjilik Riwut, Maliku Baru, Kec. Maliku, Kabupaten Pulang Pisau",KALIMANTAN TENGAH,74871.0,Indonesia, 081348357524,,,-2.9558573,114.1504366,https://maps.google.com/?cid=0x0:0x64f6470c804ca99f,
toko bangunan,Toko Bahan Bangunan,Toko Bangunan UD. MORO DADI,"X3WX+88R, Kantan Dalam, Kec. Pandih Batu, Kabupaten Pulang Pisau, Kalimantan Tengah 74871","Kantan Dalam, Kec. Pandih Batu, Kabupaten Pulang Pisau",KALIMANTAN TENGAH,74871.0,Indonesia, 081348982160,,,-3.0041456,114.0982561,https://maps.google.com/?cid=0x0:0xecc0db4a97b0b91e,
toko bangunan,toko bangunan,Toko bangunan gemilang,"V623+6G8, Belanti Siam, Kec. Pandih Batu, Kabupaten Pulang Pisau, Kalimantan Tengah 73583","Belanti Siam, Kec. Pandih Batu, Kabupaten Pulang Pisau",KALIMANTAN TENGAH,73583.0,Indonesia,,,,-3.1504705,114.2044929,https://maps.google.com/?cid=0x0:0xe74a159877553015,
toko bangunan,Perusahaan Konstruksi,GANDANG BETON,"24HJ+536, Gandang, Kec. Maliku, Kabupaten Pulang Pisau, Kalimantan Tengah 74871","Gandang, Kec. Maliku, Kabupaten Pulang Pisau",KALIMANTAN TENGAH,74871.0,Indonesia, 085348065098,,,-2.9720813,114.1301316,https://maps.google.com/?cid=0x0:0x492b50968c0e9bea,
toko bangunan,Toko Bahan Bangunan,CV. Sinar try jaya,"V4VG+G8C, Jalan lintas bahaur talio muara, Pangkoh Hilir","Kabupaten Pulang Pisau, Kalimantan Tengah",KALIMANTAN TENGAH,,Indonesia,,,,-3.10619,114.1257689,https://maps.google.com/?cid=0x0:0xc173b96c6bdb452f,
toko bangunan,Toko Bahan Bangunan,Irfan Jomok,"W5P4+GR7, Pangkoh Hulu, Kec. Pandih Batu, Kabupaten Pulang Pisau, Kalimantan Tengah","Kabupaten Pulang Pisau, Kalimantan Tengah",KALIMANTAN TENGAH,,Indonesia,,,,-3.0637566,114.1571425,https://maps.google.com/?cid=0x0:0x800beac4aad4884e,
toko bangunan,toko bangunan,Kalimantan Tengah 74862,"Lahei Mangkutup, Kec. Mantangai, Kabupaten Kapuas, Kalimantan Tengah","Kabupaten Kapuas, Kalimantan Tengah",KALIMANTAN TENGAH,,Indonesia,,,,-1.8507872,114.0963705,https://maps.google.com/?cid=0x0:0x57aa0e32b731e17e,
toko bangunan,Toko Bahan Bangunan,Toko Bangunan Sumber Mufakat,"Jl. Rajawali, Bukit Tunggal, Kec. Jekan Raya, Kota Palangka Raya, Kalimantan Tengah 74874","Bukit Tunggal, Kec. Jekan Raya, Kota Palangka Raya",KALIMANTAN TENGAH,74874.0,Indonesia, 082173389240,,,-2.1843431,113.8846027,https://maps.google.com/?cid=0x0:0xf37943877496f7bd,
toko bangunan,,Toko viola,"6X62+PQM, Jl. Palangka Raya - Kuala Kurun, Manen Kaleka, Kec. Banama Tingang, Kabupaten Pulang Pisau, Kalimantan Tengah 74862","Jl. Palangka Raya - Kuala Kurun, Manen Kaleka, Kec. Banama Tingang, Kabupaten Pulang Pisau",KALIMANTAN TENGAH,74862.0,Indonesia,,,,-1.7881541,113.9519276,https://maps.google.com/?cid=0x0:0x88ed12c1d64a5988,
toko bangunan,Toko bahan makanan,Gemilang Pusat Bahan Bangunan Tjilik Riwut,"Jl. Tjilik Riwut No.KM. 8, RT.12/RW.14, Bukit Tunggal, Kec. Jekan Raya, Kota Palangka Raya, Kalimantan Tengah 73112","RT.12/RW.14, Bukit Tunggal, Kec. Jekan Raya, Kota Palangka Raya",KALIMANTAN TENGAH,73112.0,Indonesia, 082150615528,,,-2.1697497,113.8584061,https://maps.google.com/?cid=0x0:0xe3824ddbb790492,
toko bangunan,Pemasok Bahan Bangunan,TB. SULTAN JAYA,"Jl. Seth Adji, Panarung, Kec. Pahandut, Kota Palangka Raya, Kalimantan Tengah 74874","Panarung, Kec. Pahandut, Kota Palangka Raya",KALIMANTAN TENGAH,74874.0,Indonesia,,,,-2.2275959,113.9306638,https://maps.google.com/?cid=0x0:0x140e5eae0a22878a,
toko bangunan,Toko,Sanjaya Toko,"Jl. Darmosugondo No.53, Pahandut, Kec. Pahandut, Kota Palangka Raya, Kalimantan Tengah 74874","Pahandut, Kec. Pahandut, Kota Palangka Raya",KALIMANTAN TENGAH,74874.0,Indonesia, 085939898813,,,-2.2066689,113.9379632,https://maps.google.com/?cid=0x0:0x7137ee8d40fa3e0d,
toko bangunan,Toko Bahan Bangunan,Toko Karya Subur Jaya d/h Karya Jaya,"Jl. Darmosugondo No.56, Pahandut, Kec. Pahandut, Kota Palangka Raya, Kalimantan Tengah 73111","Pahandut, Kec. Pahandut, Kota Palangka Raya",KALIMANTAN TENGAH,73111.0,Indonesia, 08123265503,,,-2.2072169,113.9382221,https://maps.google.com/?cid=0x0:0xefadcd4f3de228f4,
toko bangunan,Toko Bahan Bangunan,Toko Bangunan Sumber Mulya,"5 No, Jl. RTA Milono, Langkai, Kec. Jekan Raya, Kota Palangka Raya, Kalimantan Tengah 74874","Jl. RTA Milono, Langkai, Kec. Jekan Raya, Kota Palangka Raya",KALIMANTAN TENGAH,74874.0,Indonesia, 087788060738,,,-2.2330886,113.9201231,https://maps.google.com/?cid=0x0:0xf07d53868252c69b,
toko bangunan,Toko Bahan Bangunan,Toko Tiga saudara,"Jalan tumbang telaken No.km 76, Petuk Barunai, Kec. Rakumpit, Kota Palangka Raya, Kalimantan Tengah","Kota Palangka Raya, Kalimantan Tengah",KALIMANTAN TENGAH,,Indonesia, 081396801512,,,-1.6942515,113.6380522,https://maps.google.com/?cid=0x0:0x993f8b63fec02538,
toko bangunan,Toko Bahan Bangunan,Toko Mulia Teknik,"Jl. Tjilik Riwut No.Km. 9, Palangka, Kec. Jekan Raya, Kota Palangka Raya, Kalimantan Tengah 73112","Palangka, Kec. Jekan Raya, Kota Palangka Raya",KALIMANTAN TENGAH,73112.0,Indonesia,,,,-2.1650386,113.8510665,https://maps.google.com/?cid=0x0:0x29f831c47d2ed4f,
toko bangunan,Toko Bahan Bangunan,BBS Toko,"5 73111, Jl. Tjilik Riwut Km. 1, Palangka, Kec. Jekan Raya, Kota Palangka Raya, Kalimantan Tengah 74874","Jl. Tjilik Riwut Km. 1, Palangka, Kec. Jekan Raya, Kota Palangka Raya",KALIMANTAN TENGAH,74874.0,Indonesia, 08125140856,,,-2.1994439,113.908452,https://maps.google.com/?cid=0x0:0x743f5bc3ac9d7695,
toko bangunan,Pemasok Bahan Bangunan,Toko Tamara,"Langkai, Kec. Jekan Raya, Kota Palangka Raya, Kalimantan Tengah 74874","Kec. Jekan Raya, Kota Palangka Raya",KALIMANTAN TENGAH,74874.0,Indonesia, 082350193021,,,-2.2097839,113.9295322,https://maps.google.com/?cid=0x0:0xfa1e99ab3288f6c4,
toko bangunan,Toko Bahan Bangunan,Toko Sumber Baja Teknik (khusus eceran bahan bangunan),"Jl. Yos Sudarso depan universitas palangka raya upr No.97A, Menteng, Kec. Jekan Raya, Kota Palangka Raya, Kalimantan Tengah 74874","Menteng, Kec. Jekan Raya, Kota Palangka Raya",KALIMANTAN TENGAH,74874.0,Indonesia, 081250273545,,,-2.2161447,113.9014595,https://maps.google.com/?cid=0x0:0xf6b0ce86a6aa9b1e,
toko bangunan,Toko Bahan Bangunan,Toko Bangunan Usaha Utama LEN,"JL.Mahir-Mahar Jl. Tjilik Riwut No.KM 8, Bukit Tunggal, Kec. Jekan Raya, Kota Palangka Raya, Kalimantan Tengah 73112","Bukit Tunggal, Kec. Jekan Raya, Kota Palangka Raya",KALIMANTAN TENGAH,73112.0,Indonesia, 081396801512,,,-2.173967,113.8580749,https://maps.google.com/?cid=0x0:0x43e6c3dc515b545f,
toko bangunan,Toko Bahan Bangunan,TOKO BANGUN BERKAH,"Tumbang Tahai, Kec. Bukit Batu, Kota Palangka Raya, Kalimantan Tengah 73112","Kec. Bukit Batu, Kota Palangka Raya",KALIMANTAN TENGAH,73112.0,Indonesia, 081396801512,,,-2.0146151,113.7617208,https://maps.google.com/?cid=0x0:0x9cf218a5f8d4e11,
toko bangunan,Toko Bahan Bangunan,Toko bangunan a2 berkah,"Jl. Sisingamangaraja Jl. Raden Saleh II No.samping, Menteng, Kec. Jekan Raya, Kota Palangka Raya, Kalimantan Tengah 74874","Menteng, Kec. Jekan Raya, Kota Palangka Raya",KALIMANTAN TENGAH,74874.0,Indonesia, 085256292462,,,-2.2230046,113.911702,https://maps.google.com/?cid=0x0:0xeb2a0d6eb984dcb8,
toko bangunan,Toko Bahan Bangunan,Toko Sumber Urip,"Jl. Halmahera No.47, Pahandut, Kec. Pahandut, Kota Palangka Raya, Kalimantan Tengah 73111","Pahandut, Kec. Pahandut, Kota Palangka Raya",KALIMANTAN TENGAH,73111.0,Indonesia, 082358564000,,,-2.2068086,113.9372359,https://maps.google.com/?cid=0x0:0x5c57e83959a73eb7,
toko bangunan,Toko Bahan Bangunan,Gemilang Pusat Bahan Bangunan RTA Milono Palangka Raya,"Jl. RTA Milono, Menteng, Kec. Jekan Raya, Kota Palangka Raya, Kalimantan Tengah 74874","Menteng, Kec. Jekan Raya, Kota Palangka Raya",KALIMANTAN TENGAH,74874.0,Indonesia, 081250170853,,,-2.240658,113.919759,https://maps.google.com/?cid=0x0:0xd0ff11a63ca3103f,
toko bangunan,Kantor Perusahaan,Toko Bangunan Karya Jaya Bersama,"PWF9+RRF, Jl. RTA Milono, Sabaru, Kec. Sebangau, Kota Palangka Raya, Kalimantan Tengah 74874","Jl. RTA Milono, Sabaru, Kec. Sebangau, Kota Palangka Raya",KALIMANTAN TENGAH,74874.0,Indonesia, 081264671628,,,-2.2754445,113.9195586,https://maps.google.com/?cid=0x0:0xd2f8d2b465665410,
toko bangunan,Toko Bahan Bangunan,Toko Bangunan ARINA,"Jl. Jati No.25e, Panarung, Kec. Pahandut, Kota Palangka Raya, Kalimantan Tengah 74874","Panarung, Kec. Pahandut, Kota Palangka Raya",KALIMANTAN TENGAH,74874.0,Indonesia, 081374133413,,,-2.2236068,113.9366515,https://maps.google.com/?cid=0x0:0xe4b2c50b07ba9361,
toko bangunan,Toko Perlengkapan Rumah,TOKO BANGUNAN,"2X92+P9R, Jl. Palangka Raya - Kuala Kurun, Bukit Liti, Kec. Kahayan Tengah, Kabupaten Pulang Pisau, Kalimantan Tengah 73111","Jl. Palangka Raya - Kuala Kurun, Bukit Liti, Kec. Kahayan Tengah, Kabupaten Pulang Pisau",KALIMANTAN TENGAH,73111.0,Indonesia,,,,-1.980636,113.9508944,https://maps.google.com/?cid=0x0:0x2e9c676e5611f4b1,
toko bangunan,Toko Bahan Bangunan,TOKO BANGUNAN JUNA,"6XH2+R77, Jl. Palangka Raya - Kuala Kurun, Lawang Uru, Kec. Banama Tingang, Kabupaten Pulang Pisau, Kalimantan Tengah 74862","Jl. Palangka Raya - Kuala Kurun, Lawang Uru, Kec. Banama Tingang, Kabupaten Pulang Pisau",KALIMANTAN TENGAH,74862.0,Indonesia,,,,-1.7704685,113.9506733,https://maps.google.com/?cid=0x0:0x71ae4600d8ccaebf,
toko bangunan,Toko Bahan Bangunan,UD.Sumber Mulia,"2X92+P9W, Jl. Palangka Raya - Kuala Kurun, Bukit Liti, Kec. Kahayan Tengah, Kabupaten Pulang Pisau, Kalimantan Tengah 73111","Jl. Palangka Raya - Kuala Kurun, Bukit Liti, Kec. Kahayan Tengah, Kabupaten Pulang Pisau",KALIMANTAN TENGAH,73111.0,Indonesia, 08115291057,,,-1.9806302,113.9509387,https://maps.google.com/?cid=0x0:0xc48dcf86fc89942c,
toko bangunan,Toko,TOKO BBC BAHAN BANGUNAN,"CWX9+VVF, Jl. Trans Kalimantan, Tangkahen, Kec. Banama Tingang, Kabupaten Pulang Pisau, Kalimantan Tengah 74863","Jl. Trans Kalimantan, Tangkahen, Kec. Banama Tingang, Kabupaten Pulang Pisau",KALIMANTAN TENGAH,74863.0,Indonesia, 081352726111,,,-1.5503237,113.9196795,https://maps.google.com/?cid=0x0:0x7c8016f644d42bbd,
toko bangunan,toko bangunan,TB.USAHA BARU,"5WW2+725, Manen Kaleka, Kec. Banama Tingang, Kabupaten Pulang Pisau, Kalimantan Tengah 73118","Manen Kaleka, Kec. Banama Tingang, Kabupaten Pulang Pisau",KALIMANTAN TENGAH,73118.0,Indonesia,,,,-1.8043722,113.9001141,https://maps.google.com/?cid=0x0:0x2af270adaeced7ce,
toko bangunan,Toko Bahan Bangunan,PTP•Putra Tunggal Perkasa,"2X72+V96, Bukit Liti, Kec. Kahayan Tengah, Kabupaten Pulang Pisau, Kalimantan Tengah","Kabupaten Pulang Pisau, Kalimantan Tengah",KALIMANTAN TENGAH,,Indonesia, 085350362952,,,-1.9853433,113.9508877,https://maps.google.com/?cid=0x0:0x54809133c751a567,
toko bangunan,Toko Bahan Bangunan,TB. KHAIRUNNISA,"46V7+8C6, Jl. Trans - Kalimantan, Mintin, Kec. Kahayan Hilir, Kabupaten Pulang Pisau, Kalimantan Tengah 74873","Jl. Trans - Kalimantan, Mintin, Kec. Kahayan Hilir, Kabupaten Pulang Pisau",KALIMANTAN TENGAH,74873.0,Indonesia, 085248489984,,,-2.8567,114.2135084,https://maps.google.com/?cid=0x0:0x567136827ee1e54b,
toko bangunan,toko bangunan,Kalimantan Tengah 74873,"Kabupaten Pulang Pisau, Kalimantan Tengah","Kabupaten Pulang Pisau, Kalimantan Tengah",KALIMANTAN TENGAH,,Indonesia,,,,-2.7184995,114.0963705,https://maps.google.com/?cid=0x0:0x10a01f8ddb581de7,
toko bangunan,Toko Bahan Bangunan,TOKO BANGUNAN FAJAR MAS,"67PM+9WW, Anjir Pulang Pisau, Kec. Kahayan Hilir, Kabupaten Pulang Pisau, Kalimantan Tengah 73564","Anjir Pulang Pisau, Kec. Kahayan Hilir, Kabupaten Pulang Pisau",KALIMANTAN TENGAH,73564.0,Indonesia, 087790952235,,,-2.7640137,114.2848241,https://maps.google.com/?cid=0x0:0x9809723a16965046,
toko bangunan,Toko Bahan Bangunan,Toko Bangunan Shohibah,"Jl. Trans - Kalimantan NO WA, RT.OI54O54-249, Mantaren I, Kec. Kahayan Hilir, Kabupaten Pulang Pisau, Kalimantan Tengah 73564","RT.OI54O54-249, Mantaren I, Kec. Kahayan Hilir, Kabupaten Pulang Pisau",KALIMANTAN TENGAH,73564.0,Indonesia, 082186774521,,,-2.7921992,114.261941,https://maps.google.com/?cid=0x0:0x9919e9b40efbf5a,
toko bangunan,Pemasok Bahan Bangunan,Toko Bangunan Tunas Djaya,"56RV+QR4, Jl. Lintas Kalimantan, Mantaren I, Kec. Kahayan Hilir, Kabupaten Pulang Pisau, Kalimantan Tengah","Kabupaten Pulang Pisau, Kalimantan Tengah",KALIMANTAN TENGAH,,Indonesia, 081396801512,,,-2.8081213,114.2445647,https://maps.google.com/?cid=0x0:0x1c551f78172a8276,
toko bangunan,Toko Bahan Bangunan,U.D NOOR YETRI,"456F+VJF, Unnamed Road, Kanamit, Kec. Maliku, Kabupaten Pulang Pisau, Kalimantan Tengah 74871","Unnamed Road, Kanamit, Kec. Maliku, Kabupaten Pulang Pisau",KALIMANTAN TENGAH,74871.0,Indonesia,,,,-2.887804,114.174042,https://maps.google.com/?cid=0x0:0x2649028731cddf0a,
toko bangunan,Toko Perlengkapan Rumah,TOKO MOGA JAYA,"35G3+2XH, Unnamed Road, Garantung, Kec. Maliku, Kabupaten Pulang Pisau, Kalimantan Tengah 74871","Unnamed Road, Garantung, Kec. Maliku, Kabupaten Pulang Pisau",KALIMANTAN TENGAH,74871.0,Indonesia, 082149531345,,,-2.9249276,114.154994,https://maps.google.com/?cid=0x0:0x5c70b7e2cb2df0ca,
toko bangunan,Toko Bahan Bangunan,Wa(0821-1001-7004)Toko Alfi Logam,"57X2+3QH, Mantaren I, Kec. Kahayan Hilir, Kabupaten Pulang Pisau, Kalimantan Tengah 73564","Mantaren I, Kec. Kahayan Hilir, Kabupaten Pulang Pisau",KALIMANTAN TENGAH,73564.0,Indonesia,,,,-2.802321,114.2519987,https://maps.google.com/?cid=0x0:0x978da0c97aeeadd0,
toko bangunan,Industri Pasir,Tumpukan pasir sungai,"Pasar sabtu, Kec. Maliku, Kabupaten Pulang Pisau, Kalimantan Tengah","Kabupaten Pulang Pisau, Kalimantan Tengah",KALIMANTAN TENGAH,,Indonesia, 081235555975,,,-2.8900033,114.1772129,https://maps.google.com/?cid=0x0:0x2a580848c23f4a01,
toko bangunan,Toko,Gudang Beruntung Jaya,"24VX+FGQ, Maliku Baru, Kec. Maliku, Kabupaten Pulang Pisau, Kalimantan Tengah 74871","Maliku Baru, Kec. Maliku, Kabupaten Pulang Pisau",KALIMANTAN TENGAH,74871.0,Indonesia,,,,-2.956277,114.148857,https://maps.google.com/?cid=0x0:0x4e08be840a9c9ca0,
toko bangunan,Toko Bahan Bangunan,UD.SAFWAN MANDIRI,"7738+C6Q, Pulang Pisau, Kec. Kahayan Hilir, Kabupaten Pulang Pisau, Kalimantan Tengah 73564","Pulang Pisau, Kec. Kahayan Hilir, Kabupaten Pulang Pisau",KALIMANTAN TENGAH,73564.0,Indonesia, 085248470385,,,-2.7464201,114.2655953,https://maps.google.com/?cid=0x0:0x71e8359f3e4c0a5f,
toko bangunan,Toko Bahan Bangunan,TB.Titipan Ilahi,"7738+783, Jl. Darung Bawan, Anjir, Pulang Pisau, Kec. Kahayan Hilir, Kabupaten Pulang Pisau, Kalimantan Tengah 73564","Jl. Darung Bawan, Anjir, Pulang Pisau, Kec. Kahayan Hilir, Kabupaten Pulang Pisau",KALIMANTAN TENGAH,73564.0,Indonesia,,,,-2.7468503,114.2657918,https://maps.google.com/?cid=0x0:0x74ed4fb5413f1bfa,
toko bangunan,Toko Bahan Bangunan,Toko M. RIDWAN,"Jl. Trans - Kalimantan No.desa, Batu Nindan, Kec. Basarang, Kabupaten Kapuas, Kalimantan Tengah 74873","Batu Nindan, Kec. Basarang, Kabupaten Kapuas",KALIMANTAN TENGAH,74873.0,Indonesia,,,,-2.9158987,114.271441,https://maps.google.com/?cid=0x0:0x29bbbfe923a237c6,
toko bangunan,Toko Bahan Bangunan,UD MEKAR SARI,"349M+HC7, Dekat, Garantung, Kec. Maliku, Kabupaten Pulang Pisau, Kalimantan Tengah","Kabupaten Pulang Pisau, Kalimantan Tengah",KALIMANTAN TENGAH,,Indonesia, 082352777390,,,-2.9311829,114.1328929,https://maps.google.com/?cid=0x0:0xa6daa0296756b2bf,
toko bangunan,Toko Bahan Bangunan,Toko Beruntung Jaya,"24VX+QQ6, Maliku Baru, Kec. Maliku, Kabupaten Pulang Pisau, Kalimantan Tengah 74871","Maliku Baru, Kec. Maliku, Kabupaten Pulang Pisau",KALIMANTAN TENGAH,74871.0,Indonesia,,,,-2.9556091,114.1496837,https://maps.google.com/?cid=0x0:0x97bde9ec99c0037,
toko bangunan,Toko Bahan Bangunan,Tb Ifan 2 Maliku,"24RW+QP, Maliku Baru, Kec. Maliku, Kabupaten Pulang Pisau, Kalimantan Tengah","Kabupaten Pulang Pisau, Kalimantan Tengah",KALIMANTAN TENGAH,,Indonesia,,,,-2.9581047,114.1468354,https://maps.google.com/?cid=0x0:0x4b3dc33dd0732594,
toko bangunan,Toko Bahan Bangunan,BATAKO PRESS KOMANG BASARANG,"Jl. Trans - Kalimantan No.KM. 14, Batu Nindan, Kec. Basarang, Kab. Kapuas, Kalimantan Tengah 74873","Batu Nindan, Kec. Basarang, Kab. Kapuas",KALIMANTAN TENGAH,74873.0,Indonesia, 082353020704,,,-2.9180379,114.2730756,https://maps.google.com/?cid=0x0:0xc53981ab06ab677f,
toko bangunan,Toko Bahan Bangunan,TB. Sumber Material,"Jl. Poros, Tahai Baru, Kec. Maliku, Kabupaten Pulang Pisau, Kalimantan Tengah 73516","Tahai Baru, Kec. Maliku, Kabupaten Pulang Pisau",KALIMANTAN TENGAH,73516.0,Indonesia, 082153483345,,,-3.0511443,114.212787,https://maps.google.com/?cid=0x0:0x49340411d887bd3,
toko bangunan,Toko Bahan Bangunan,TB. LOGAM BARU,"67W5+JCC, Jl. Panunjung Tarung, Pulang Pisau, Kec. Kahayan Hilir, Kabupaten Pulang Pisau, Kalimantan Tengah 73564","Jl. Panunjung Tarung, Pulang Pisau, Kec. Kahayan Hilir, Kabupaten Pulang Pisau",KALIMANTAN TENGAH,73564.0,Indonesia,,,,-2.7534415,114.2585129,https://maps.google.com/?cid=0x0:0xa8f459f078c73400,
toko bangunan,Toko Bahan Bangunan,Rangga Batako Press,"37JF+GJQ, Batu Nindan, Kec. Basarang, Kabupaten Kapuas, Kalimantan Tengah 74873","Batu Nindan, Kec. Basarang, Kabupaten Kapuas",KALIMANTAN TENGAH,74873.0,Indonesia, 085248072043,,,-2.9186583,114.274118,https://maps.google.com/?cid=0x0:0x82c8c19940f69ede,
toko bangunan,Toko Bahan Bangunan,TB.RIZ-Q LOGAM,"23PX+74, Gandang, Kec. Maliku, Kabupaten Pulang Pisau, Kalimantan Tengah","Kabupaten Pulang Pisau, Kalimantan Tengah",KALIMANTAN TENGAH,,Indonesia,,,,-2.964272,114.097854,https://maps.google.com/?cid=0x0:0xc264ee2b8cd3ea46,
toko bangunan,Toko Bahan Bangunan,Padma Jaya,"Jl. Panjang Cidodol C No.3 5, RT.5/RW.13, Grogol Sel., Kec. Kby. Lama, Kota Jakarta Selatan, Daerah Khusus Ibukota Jakarta 12220","RT.5/RW.13, Grogol Sel., Kec. Kby. Lama, Kota Jakarta Selatan",KALIMANTAN TENGAH,12220.0,Indonesia, 082165252243,,,-6.2283247,106.7718526,https://maps.google.com/?cid=0x0:0xfd67a2b4dc804f8,
toko bangunan,Toko Bahan Bangunan,TB.AL-MALIK,"P3HM+QG2, Jl. Andini, Gandasari, Kec. Cibitung, Kabupaten Bekasi, Jawa Barat 17530","Jl. Andini, Gandasari, Kec. Cibitung, Kabupaten Bekasi",KALIMANTAN TENGAH,17530.0,Indonesia, 087885438474,,,-6.2706045,107.0837554,https://maps.google.com/?cid=0x0:0xd99aaac9872461dd,
toko bangunan,Pasar bahan bangunan,Toko Bangunan,"Jl. H. Kelik No.32-120 4, RT.4/RW.8, Klp. Dua, Kec. Kb. Jeruk, Kota Jakarta Barat, Daerah Khusus Ibukota Jakarta 11550","RT.4/RW.8, Klp. Dua, Kec. Kb. Jeruk, Kota Jakarta Barat",KALIMANTAN TENGAH,11550.0,Indonesia,,,,-6.2086789,106.7661675,https://maps.google.com/?cid=0x0:0x8877745fd53a8f99,
toko bangunan,Toko Bahan Bangunan,Tb Sumber Mas Jaya,"Jalan Taman Duta MAS No.34 Blok B1, RT.13/RW.9, Wijaya Kusuma, Grogol petamburan, West Jakarta City, Jakarta 11460","RT.13/RW.9, Wijaya Kusuma, Grogol petamburan, West Jakarta City",KALIMANTAN TENGAH,11460.0,Indonesia, 081586219212,,,-6.1495171,106.7806066,https://maps.google.com/?cid=0x0:0x504947269dbca371,
toko bangunan,toko bangunan,Kalimantan Tengah 74871,"Kabupaten Pulang Pisau, Kalimantan Tengah","Kabupaten Pulang Pisau, Kalimantan Tengah",KALIMANTAN TENGAH,,Indonesia,,,,-2.9382332,114.0963705,https://maps.google.com/?cid=0x0:0x716d476799e79fc,
toko bangunan,Toko,Toko Alat bangunan,"W5P4+GR7, Pangkoh Hulu, Kec. Pandih Batu, Kabupaten Pulang Pisau, Kalimantan Tengah","Kabupaten Pulang Pisau, Kalimantan Tengah",KALIMANTAN TENGAH,,Indonesia, 08161999912,,,-3.0638263,114.1572008,https://maps.google.com/?cid=0x0:0x22076d390b003e9e,
toko bangunan,Kantor Perusahaan,TB. Sinar Abadi,"X4R9+3J2, Kantan Muara, Kec. Pandih Batu, Kabupaten Pulang Pisau, Kalimantan Tengah 74871","Kantan Muara, Kec. Pandih Batu, Kabupaten Pulang Pisau",KALIMANTAN TENGAH,74871.0,Indonesia, 085247170525,,,-3.0098738,114.1190156,https://maps.google.com/?cid=0x0:0x6c0ad1e145d8b432,
toko bangunan,Toko Bahan Bangunan,Toko Bangunan KARYA NIAGA,"X3WX+PP7, Unnamed Road, Kantan Dalam, Kec. Pandih Batu, Kabupaten Pulang Pisau, Kalimantan Tengah 74871","Unnamed Road, Kantan Dalam, Kec. Pandih Batu, Kabupaten Pulang Pisau",KALIMANTAN TENGAH,74871.0,Indonesia, 08161999912,,,-3.00322,114.099295,https://maps.google.com/?cid=0x0:0x9bc17d5568ff4076,
toko bangunan,Toko Perlengkapan Rumah,Toko Bangunan Karya Niaga,"Jalan Poros Pangkoh 3 Blok B Kanan, Pangkoh Hulu, Kec. Pandih Batu, Kabupaten Pulang Pisau, Kalimantan Tengah 74871","Pangkoh Hulu, Kec. Pandih Batu, Kabupaten Pulang Pisau",KALIMANTAN TENGAH,74871.0,Indonesia, 081348934606,,,-3.0423621,114.1617709,https://maps.google.com/?cid=0x0:0x1f860cfcceeff65f,
toko bangunan,Toko,Gudang Beruntung Jaya,"24VX+FGQ, Maliku Baru, Kec. Maliku, Kabupaten Pulang Pisau, Kalimantan Tengah 74871","Maliku Baru, Kec. Maliku, Kabupaten Pulang Pisau",KALIMANTAN TENGAH,74871.0,Indonesia,,,,-2.956277,114.148857,https://maps.google.com/?cid=0x0:0x4e08be840a9c9ca0,
toko bangunan,Toko Bahan Bangunan,Toko Bangunan Shohibah,"Jl. Trans - Kalimantan NO WA, RT.OI54O54-249, Mantaren I, Kec. Kahayan Hilir, Kabupaten Pulang Pisau, Kalimantan Tengah 73564","RT.OI54O54-249, Mantaren I, Kec. Kahayan Hilir, Kabupaten Pulang Pisau",KALIMANTAN TENGAH,73564.0,Indonesia, 082186774521,,,-2.7921992,114.261941,https://maps.google.com/?cid=0x0:0x9919e9b40efbf5a,
toko bangunan,Toko Bahan Bangunan,U.D NOOR YETRI,"456F+VJF, Unnamed Road, Kanamit, Kec. Maliku, Kabupaten Pulang Pisau, Kalimantan Tengah 74871","Unnamed Road, Kanamit, Kec. Maliku, Kabupaten Pulang Pisau",KALIMANTAN TENGAH,74871.0,Indonesia,,,,-2.887804,114.174042,https://maps.google.com/?cid=0x0:0x2649028731cddf0a,
toko bangunan,Toko Bahan Bangunan,TB. Sumber Material,"Jl. Poros, Tahai Baru, Kec. Maliku, Kabupaten Pulang Pisau, Kalimantan Tengah 73516","Tahai Baru, Kec. Maliku, Kabupaten Pulang Pisau",KALIMANTAN TENGAH,73516.0,Indonesia, 082153483345,,,-3.0511443,114.212787,https://maps.google.com/?cid=0x0:0x49340411d887bd3,
toko bangunan,Toko Bahan Bangunan,TB. KHAIRUNNISA,"46V7+8C6, Jl. Trans - Kalimantan, Mintin, Kec. Kahayan Hilir, Kabupaten Pulang Pisau, Kalimantan Tengah 74873","Jl. Trans - Kalimantan, Mintin, Kec. Kahayan Hilir, Kabupaten Pulang Pisau",KALIMANTAN TENGAH,74873.0,Indonesia, 085248489984,,,-2.8567,114.2135084,https://maps.google.com/?cid=0x0:0x567136827ee1e54b,
toko bangunan,Toko Bahan Bangunan,UD aura yani,"V55V+RGM, Unnamed Road, Belanti Siam, Kec. Pandih Batu, Kabupaten Pulang Pisau, Kalimantan Tengah 73583","Unnamed Road, Belanti Siam, Kec. Pandih Batu, Kabupaten Pulang Pisau",KALIMANTAN TENGAH,73583.0,Indonesia, 085252549272,,,-3.1404122,114.193806,https://maps.google.com/?cid=0x0:0x28f969e0f0b80d4a,
toko bangunan,Toko Bahan Bangunan,TB. H. Ibas,"25V2+M53, Jl. Tjilik Riwut, Maliku Baru, Kec. Maliku, Kabupaten Pulang Pisau, Kalimantan Tengah 74871","Jl. Tjilik Riwut, Maliku Baru, Kec. Maliku, Kabupaten Pulang Pisau",KALIMANTAN TENGAH,74871.0,Indonesia, 081348357524,,,-2.9558573,114.1504366,https://maps.google.com/?cid=0x0:0x64f6470c804ca99f,
toko bangunan,Toko Perlengkapan Rumah,Toko UD Allin djaya,"V448+W6, Dandang, Kec. Pandih Batu, Kabupaten Pulang Pisau, Kalimantan Tengah","Kabupaten Pulang Pisau, Kalimantan Tengah",KALIMANTAN TENGAH,,Indonesia,,,,-3.1426075,114.115546,https://maps.google.com/?cid=0x0:0xe55c3fc63a3445b2,
toko bangunan,Toko Bahan Bangunan,TB.RIZ-Q LOGAM,"23PX+74, Gandang, Kec. Maliku, Kabupaten Pulang Pisau, Kalimantan Tengah","Kabupaten Pulang Pisau, Kalimantan Tengah",KALIMANTAN TENGAH,,Indonesia,,,,-2.964272,114.097854,https://maps.google.com/?cid=0x0:0xc264ee2b8cd3ea46,
toko bangunan,Toko Bahan Bangunan,TB. KRS BAGONG,"Talio Hulu, Kec. Pandih Batu, Kabupaten Pulang Pisau, Kalimantan Tengah 74872","Kec. Pandih Batu, Kabupaten Pulang Pisau",KALIMANTAN TENGAH,74872.0,Indonesia,,,,-3.089185,114.0887869,https://maps.google.com/?cid=0x0:0xcc466a54bb117293,
toko bangunan,Toko Bahan Bangunan,Wa(0821-1001-7004)Toko Alfi Logam,"57X2+3QH, Mantaren I, Kec. Kahayan Hilir, Kabupaten Pulang Pisau, Kalimantan Tengah 73564","Mantaren I, Kec. Kahayan Hilir, Kabupaten Pulang Pisau",KALIMANTAN TENGAH,73564.0,Indonesia,,,,-2.802321,114.2519987,https://maps.google.com/?cid=0x0:0x978da0c97aeeadd0,
toko bangunan,Toko Perlengkapan Rumah,TOKO MOGA JAYA,"35G3+2XH, Unnamed Road, Garantung, Kec. Maliku, Kabupaten Pulang Pisau, Kalimantan Tengah 74871","Unnamed Road, Garantung, Kec. Maliku, Kabupaten Pulang Pisau",KALIMANTAN TENGAH,74871.0,Indonesia, 082149531345,,,-2.9249276,114.154994,https://maps.google.com/?cid=0x0:0x5c70b7e2cb2df0ca,
toko bangunan,Toko Bahan Bangunan,TOKO BANGUNAN FAJAR MAS,"67PM+9WW, Anjir Pulang Pisau, Kec. Kahayan Hilir, Kabupaten Pulang Pisau, Kalimantan Tengah 73564","Anjir Pulang Pisau, Kec. Kahayan Hilir, Kabupaten Pulang Pisau",KALIMANTAN TENGAH,73564.0,Indonesia, 087790952235,,,-2.7640137,114.2848241,https://maps.google.com/?cid=0x0:0x9809723a16965046,
toko bangunan,Toko Mebel,Toko Bangunan Farid Tahai,"X5HM+3MH, Tahai Jaya, Kec. Maliku, Kabupaten Pulang Pisau, Kalimantan Tengah 74871","Tahai Jaya, Kec. Maliku, Kabupaten Pulang Pisau",KALIMANTAN TENGAH,74871.0,Indonesia,,,,-3.0222153,114.1842082,https://maps.google.com/?cid=0x0:0x7a267e29b9ec7b9c,
toko bangunan,Toko Bahan Bangunan,UD.Usaha bersama Fahrurrozi,"X5GM+RPQ, Badirih, Kec. Maliku, Kabupaten Pulang Pisau, Kalimantan Tengah 74871","Badirih, Kec. Maliku, Kabupaten Pulang Pisau",KALIMANTAN TENGAH,74871.0,Indonesia, 087815474944,,,-3.0229695,114.1845241,https://maps.google.com/?cid=0x0:0x137ccabffdbb1557,
toko bangunan,Perusahaan Konstruksi,GANDANG BETON,"24HJ+536, Gandang, Kec. Maliku, Kabupaten Pulang Pisau, Kalimantan Tengah 74871","Gandang, Kec. Maliku, Kabupaten Pulang Pisau",KALIMANTAN TENGAH,74871.0,Indonesia, 085348065098,,,-2.9720813,114.1301316,https://maps.google.com/?cid=0x0:0x492b50968c0e9bea,
toko bangunan,Toko Bahan Bangunan,Toko Beruntung Jaya,"24VX+QQ6, Maliku Baru, Kec. Maliku, Kabupaten Pulang Pisau, Kalimantan Tengah 74871","Maliku Baru, Kec. Maliku, Kabupaten Pulang Pisau",KALIMANTAN TENGAH,74871.0,Indonesia,,,,-2.9556091,114.1496837,https://maps.google.com/?cid=0x0:0x97bde9ec99c0037,
toko bangunan,Toko Bahan Bangunan,UD MEKAR SARI,"349M+HC7, Dekat, Garantung, Kec. Maliku, Kabupaten Pulang Pisau, Kalimantan Tengah","Kabupaten Pulang Pisau, Kalimantan Tengah",KALIMANTAN TENGAH,,Indonesia, 082352777390,,,-2.9311829,114.1328929,https://maps.google.com/?cid=0x0:0xa6daa0296756b2bf,
toko bangunan,Toko Bahan Bangunan,Toko M. RIDWAN,"Jl. Trans - Kalimantan No.desa, Batu Nindan, Kec. Basarang, Kabupaten Kapuas, Kalimantan Tengah 74873","Batu Nindan, Kec. Basarang, Kabupaten Kapuas",KALIMANTAN TENGAH,74873.0,Indonesia,,,,-2.9158987,114.271441,https://maps.google.com/?cid=0x0:0x29bbbfe923a237c6,
toko bangunan,Toko Perlengkapan Rumah,Toko bangunan,"3RG9+XV9, Sebangau Permai, Kec. Sebangau Kuala, Kabupaten Pulang Pisau, Kalimantan Tengah 74874","Sebangau Permai, Kec. Sebangau Kuala, Kabupaten Pulang Pisau",KALIMANTAN TENGAH,74874.0,Indonesia, 081396801512,,,-2.9225757,113.8197232,https://maps.google.com/?cid=0x0:0x807b2cc483aea132,
toko bangunan,toko bangunan,Kalimantan Tengah 74874,"Kabupaten Pulang Pisau, Kalimantan Tengah","Kabupaten Pulang Pisau, Kalimantan Tengah",KALIMANTAN TENGAH,,Indonesia,,,,-2.613866,113.8584737,https://maps.google.com/?cid=0x0:0x9a5d3171805f893d,
toko bangunan,Toko Bahan Bangunan,Toko Bangunan Ismail,"Jl. RTA Milono No.KM 8,5, RW.3, Sabaru, Kec. Sebangau, Kota Palangka Raya, Kalimantan Tengah 74874","RW.3, Sabaru, Kec. Sebangau, Kota Palangka Raya",KALIMANTAN TENGAH,74874.0,Indonesia, 081396801512,,,-2.281764,113.9192037,https://maps.google.com/?cid=0x0:0xebf0ee216c3179c0,
toko bangunan,Toko Bahan Bangunan,Toko Bangunan Sumber Mufakat,"Jl. Rajawali, Bukit Tunggal, Kec. Jekan Raya, Kota Palangka Raya, Kalimantan Tengah 74874","Bukit Tunggal, Kec. Jekan Raya, Kota Palangka Raya",KALIMANTAN TENGAH,74874.0,Indonesia, 082173389240,,,-2.1843431,113.8846027,https://maps.google.com/?cid=0x0:0xf37943877496f7bd,
toko bangunan,Toko Bahan Bangunan,Toko Bangunan Kalibata Jaya,"PWP6+45H, Jl. Kalibata, Menteng, Kec. Jekan Raya, Kota Palangka Raya, Kalimantan Tengah 74874","Jl. Kalibata, Menteng, Kec. Jekan Raya, Kota Palangka Raya",KALIMANTAN TENGAH,74874.0,Indonesia, 0816992047,,,-2.2638689,113.9107013,https://maps.google.com/?cid=0x0:0x4f1106acc8dfae3e,
toko bangunan,Pemasok Bahan Bangunan,Toko Bangunan Annisa,"Jl. G. Obos XII NO WA, RT.OI54O54-249, Menteng, Kec. Jekan Raya, Kota Palangka Raya, Kalimantan Tengah 74874","RT.OI54O54-249, Menteng, Kec. Jekan Raya, Kota Palangka Raya",KALIMANTAN TENGAH,74874.0,Indonesia, 085769969117,,,-2.2304394,113.8865758,https://maps.google.com/?cid=0x0:0x1c824506db718006,
toko bangunan,Toko Bahan Bangunan,Toko Bangunan Tilung Jaya,"Menteng, Kec. Jekan Raya, Kota Palangka Raya, Kalimantan Tengah 74874","Kec. Jekan Raya, Kota Palangka Raya",KALIMANTAN TENGAH,74874.0,Indonesia, 085697225016,,,-2.2303005,113.9069524,https://maps.google.com/?cid=0x0:0x2cd074c918f4c51e,
toko bangunan,Kantor Perusahaan,Toko Bangunan Karya Jaya Bersama,"PWF9+RRF, Jl. RTA Milono, Sabaru, Kec. Sebangau, Kota Palangka Raya, Kalimantan Tengah 74874","Jl. RTA Milono, Sabaru, Kec. Sebangau, Kota Palangka Raya",KALIMANTAN TENGAH,74874.0,Indonesia, 081264671628,,,-2.2754445,113.9195586,https://maps.google.com/?cid=0x0:0xd2f8d2b465665410,
toko bangunan,Toko Bahan Bangunan,Gemilang Pusat Bahan Bangunan RTA Milono Palangka Raya,"Jl. RTA Milono, Menteng, Kec. Jekan Raya, Kota Palangka Raya, Kalimantan Tengah 74874","Menteng, Kec. Jekan Raya, Kota Palangka Raya",KALIMANTAN TENGAH,74874.0,Indonesia, 081250170853,,,-2.240658,113.919759,https://maps.google.com/?cid=0x0:0xd0ff11a63ca3103f,
toko bangunan,Toko Bahan Bangunan,Toko Bangunan Ananda,"Jl. Badak No.57, Bukit Tunggal, Kec. Jekan Raya, Kota Palangka Raya, Kalimantan Tengah 74874","Bukit Tunggal, Kec. Jekan Raya, Kota Palangka Raya",KALIMANTAN TENGAH,74874.0,Indonesia, 085939898813,,,-2.185834,113.8783836,https://maps.google.com/?cid=0x0:0xebc2e78d883072bb,
toko bangunan,Toko bahan makanan,Gemilang Pusat Bahan Bangunan Tjilik Riwut,"Jl. Tjilik Riwut No.KM. 8, RT.12/RW.14, Bukit Tunggal, Kec. Jekan Raya, Kota Palangka Raya, Kalimantan Tengah 73112","RT.12/RW.14, Bukit Tunggal, Kec. Jekan Raya, Kota Palangka Raya",KALIMANTAN TENGAH,73112.0,Indonesia, 082150615528,,,-2.1697497,113.8584061,https://maps.google.com/?cid=0x0:0xe3824ddbb790492,
toko bangunan,Toko,Toko Bangunan (TB) Rahmat Jaya,"Jl. Tingang Jl. Garuda V No.Simpang, Bukit Tunggal, Kec. Jekan Raya, Kota Palangka Raya, Kalimantan Tengah 74874","Bukit Tunggal, Kec. Jekan Raya, Kota Palangka Raya",KALIMANTAN TENGAH,74874.0,Indonesia, 085179569934,,,-2.1945861,113.8878561,https://maps.google.com/?cid=0x0:0x38451ae2975c3591,
toko bangunan,Toko Bahan Bangunan,GIAS Palangkaraya (GNET) | Distributor Bahan Bangunan,"Jl. Mahir Mahar Kel No.KM. 5, Sabaru, Kec. Sebangau, Kota Palangka Raya, Kalimantan Tengah 74874","Sabaru, Kec. Sebangau, Kota Palangka Raya",KALIMANTAN TENGAH,74874.0,Indonesia, 08115051688,,,-2.2783164,113.9556478,https://maps.google.com/?cid=0x0:0x57c76f4619d1b035,
toko bangunan,Toko Bahan Bangunan,Toko Bangunan ABRS Jaya Beton,"Jl. Adonis Samad, Panarung, Kec. Pahandut, Kota Palangka Raya, Kalimantan Tengah 74874","Panarung, Kec. Pahandut, Kota Palangka Raya",KALIMANTAN TENGAH,74874.0,Indonesia, 087788060738,,,-2.2493821,113.932971,https://maps.google.com/?cid=0x0:0xde42b650fbaa8ac0,
toko bangunan,Toko Bahan Bangunan,TOKO BANGUNAN AMANDA,"Jl. Seth Adji No.57, Langkai, Kec. Pahandut, Kota Palangka Raya, Kalimantan Tengah 74874","Langkai, Kec. Pahandut, Kota Palangka Raya",KALIMANTAN TENGAH,74874.0,Indonesia, 081396801512,,,-2.2224653,113.931238,https://maps.google.com/?cid=0x0:0xaf54cea9857a799b,
toko bangunan,Toko Bahan Bangunan,Toko WIRA NIAGA,"PWC9+PJW, Jl. RTA Milono, Kereng Bangkirai, Kec. Sebangau, Kota Palangka Raya, Kalimantan Tengah 74874","Jl. RTA Milono, Kereng Bangkirai, Kec. Sebangau, Kota Palangka Raya",KALIMANTAN TENGAH,74874.0,Indonesia, 085249268482,,,-2.2781433,113.9190887,https://maps.google.com/?cid=0x0:0xdf5b97d8b3b371f6,
toko bangunan,Toko Bahan Bangunan,SINAR BANGUNAN,"QW2J+393, Jl. Adonis Samad, Panarung, Kec. Pahandut, Kota Palangka Raya, Kalimantan Tengah 74874","Jl. Adonis Samad, Panarung, Kec. Pahandut, Kota Palangka Raya",KALIMANTAN TENGAH,74874.0,Indonesia, 082229993399,,,-2.2498526,113.9309226,https://maps.google.com/?cid=0x0:0x35ac11bc94f86a89,
toko bangunan,Toko Bahan Bangunan,Toko bangunan a2 berkah,"Jl. Sisingamangaraja Jl. Raden Saleh II No.samping, Menteng, Kec. Jekan Raya, Kota Palangka Raya, Kalimantan Tengah 74874","Menteng, Kec. Jekan Raya, Kota Palangka Raya",KALIMANTAN TENGAH,74874.0,Indonesia, 085256292462,,,-2.2230046,113.911702,https://maps.google.com/?cid=0x0:0xeb2a0d6eb984dcb8,
toko bangunan,Toko Bahan Bangunan,Toko Bangunan Sari Jaya,"QWG2+GWQ, Menteng, Kec. Jekan Raya, Kota Palangka Raya, Kalimantan Tengah 74874","Menteng, Kec. Jekan Raya, Kota Palangka Raya",KALIMANTAN TENGAH,74874.0,Indonesia, 081385661699,,,-2.2236705,113.9023592,https://maps.google.com/?cid=0x0:0x8828d0af958cbae7,
toko bangunan,Toko Perlengkapan Rumah,Toko Bangunan Ratu Agung,"Jl. Pinus No.147, Panarung, Kec. Pahandut, Kota Palangka Raya, Kalimantan Tengah 74874","Panarung, Kec. Pahandut, Kota Palangka Raya",KALIMANTAN TENGAH,74874.0,Indonesia, 081396801512,,,-2.2321348,113.9343629,https://maps.google.com/?cid=0x0:0x76c35e8585f09bbf,
toko bangunan,Toko Bahan Bangunan,Toko Bangunan Sumber Mulya,"5 No, Jl. RTA Milono, Langkai, Kec. Jekan Raya, Kota Palangka Raya, Kalimantan Tengah 74874","Jl. RTA Milono, Langkai, Kec. Jekan Raya, Kota Palangka Raya",KALIMANTAN TENGAH,74874.0,Indonesia, 087788060738,,,-2.2330886,113.9201231,https://maps.google.com/?cid=0x0:0xf07d53868252c69b,
toko bangunan,Toko,Toko Bangunan Amang Ganteng,"PWF9+426, Kereng Bangkirai, Kec. Sebangau, Kota Palangka Raya, Kalimantan Tengah 74874","Kereng Bangkirai, Kec. Sebangau, Kota Palangka Raya",KALIMANTAN TENGAH,74874.0,Indonesia, 081396801512,,,-2.2772079,113.9175106,https://maps.google.com/?cid=0x0:0x43044766f55361d4,
toko bangunan,Toko Bahan Bangunan,SALWA BANGUNAN,"QV6H+G7H, Jl. G. Obos, Menteng, Kec. Jekan Raya, Kota Palangka Raya, Kalimantan Tengah 74874","Jl. G. Obos, Menteng, Kec. Jekan Raya, Kota Palangka Raya",KALIMANTAN TENGAH,74874.0,Indonesia,,,,-2.2386978,113.878231,https://maps.google.com/?cid=0x0:0x6618a140a8955762,
hardware store,,Toko tehnik bangunan,"Lintas DESA Tumbang Empas, Tuyun, Kec. Mihing Raya, Kabupaten Gunung MAS, Kalimantan Tengah 74863","Tuyun, Kec. Mihing Raya, Kabupaten Gunung MAS",KALIMANTAN TENGAH,74863.0,Indonesia, 085169982128,,,-1.3909624,113.9080079,https://maps.google.com/?cid=0x0:0xa9e884d75e90cf78,
hardware store,hardware store,Kalimantan Tengah 74863,"Kabupaten Gunung MAS, Kalimantan Tengah","Kabupaten Gunung MAS, Kalimantan Tengah",KALIMANTAN TENGAH,,Indonesia,,,,-1.496827,113.9060624,https://maps.google.com/?cid=0x0:0xf3a5fde9497362af,
hardware store,,Toko viola,"6X62+PQM, Jl. Palangka Raya - Kuala Kurun, Manen Kaleka, Kec. Banama Tingang, Kabupaten Pulang Pisau, Kalimantan Tengah 74862","Jl. Palangka Raya - Kuala Kurun, Manen Kaleka, Kec. Banama Tingang, Kabupaten Pulang Pisau",KALIMANTAN TENGAH,74862.0,Indonesia,,,,-1.7881541,113.9519276,https://maps.google.com/?cid=0x0:0x88ed12c1d64a5988,
hardware store,hardware store,Banama Tingang tobacco ( toko tembakau tingwe ),"9WF9+C5, Bawan, Kec. Banama Tingang, Kabupaten Pulang Pisau, Kalimantan Tengah","Kabupaten Pulang Pisau, Kalimantan Tengah",KALIMANTAN TENGAH,,Indonesia, 081545638972,,,-1.6263719,113.9179005,https://maps.google.com/?cid=0x0:0xae7c7c5ee78224da,
hardware store,Toko Bahan Bangunan,Toko Irus Berkah 2,"Tumbang Miwan, Kec. Kurun, Kabupaten Gunung MAS, Kalimantan Tengah 74571","Kec. Kurun, Kabupaten Gunung MAS",KALIMANTAN TENGAH,74571.0,Indonesia, 082122228701,,,-1.2341047,113.8769213,https://maps.google.com/?cid=0x0:0xdca81e9f7ec0bac2,
hardware store,Toko Bahan Bangunan,TOKO BANGUNAN MANDIRI,"JWXC+H77, Jl. Palangka Raya - Kuala Kurun, Kampuri, Kec. Mihing Raya, Kabupaten Gunung MAS, Kalimantan Tengah 74863","Jl. Palangka Raya - Kuala Kurun, Kampuri, Kec. Mihing Raya, Kabupaten Gunung MAS",KALIMANTAN TENGAH,74863.0,Indonesia,,,,-1.3510919,113.9206717,https://maps.google.com/?cid=0x0:0x41f3f057cfdaa2e1,
hardware store,hardware store,Toko H. Suhaimi,"F5FR+W83, Jabiren, Kec. Jabiren, Kabupaten Pulang Pisau, Kalimantan Tengah 74812","Jabiren, Kec. Jabiren, Kabupaten Pulang Pisau",KALIMANTAN TENGAH,74812.0,Indonesia,,,,-2.5252479,114.1908102,https://maps.google.com/?cid=0x0:0x6e26b7ab4a6658e4,
hardware store,hardware store,Toko H. Suhaimi,"F5FR+W83, Jabiren, Kec. Jabiren, Kabupaten Pulang Pisau, Kalimantan Tengah 74812","Jabiren, Kec. Jabiren, Kabupaten Pulang Pisau",KALIMANTAN TENGAH,74812.0,Indonesia,,,,-2.5252479,114.1908102,https://maps.google.com/?cid=0x0:0x6e26b7ab4a6658e4,
hardware store,hardware store,Kec. Kahayan Hilir,"Kabupaten Pulang Pisau, Kalimantan Tengah","Kabupaten Pulang Pisau, Kalimantan Tengah",KALIMANTAN TENGAH,,Indonesia,,,,-2.7914682,114.262235,https://maps.google.com/?cid=0x0:0x7f1583868799e28e,
hardware store,Toko Bahan Bangunan,Toko Bangunan Shohibah,"Jl. Trans - Kalimantan NO WA, RT.OI54O54-249, Mantaren I, Kec. Kahayan Hilir, Kabupaten Pulang Pisau, Kalimantan Tengah 73564","RT.OI54O54-249, Mantaren I, Kec. Kahayan Hilir, Kabupaten Pulang Pisau",KALIMANTAN TENGAH,73564.0,Indonesia, 082186774521,,,-2.7921992,114.261941,https://maps.google.com/?cid=0x0:0x9919e9b40efbf5a,
hardware store,Toko Bahan Bangunan,TB.Berkat Sabar,"Mantaren I, Kec. Kahayan Hilir, Kabupaten Pulang Pisau, Kalimantan Tengah","Kabupaten Pulang Pisau, Kalimantan Tengah",KALIMANTAN TENGAH,,Indonesia,,,,-2.8004649,114.253464,https://maps.google.com/?cid=0x0:0x20e59b29ac4429e9,
hardware store,Toko Bahan Bangunan,TB.Titipan Ilahi,"7738+783, Jl. Darung Bawan, Anjir, Pulang Pisau, Kec. Kahayan Hilir, Kabupaten Pulang Pisau, Kalimantan Tengah 73564","Jl. Darung Bawan, Anjir, Pulang Pisau, Kec. Kahayan Hilir, Kabupaten Pulang Pisau",KALIMANTAN TENGAH,73564.0,Indonesia,,,,-2.7468503,114.2657918,https://maps.google.com/?cid=0x0:0x74ed4fb5413f1bfa,
hardware store,Toko Bahan Bangunan,TB Caca Cia,"Jl. Trans - Kalimantan, Anjir Pulang Pisau, Kec. Kahayan Hilir, Kabupaten Pulang Pisau, Kalimantan Tengah","Kabupaten Pulang Pisau, Kalimantan Tengah",KALIMANTAN TENGAH,,Indonesia,,,,-2.7560254,114.2936361,https://maps.google.com/?cid=0x0:0xb877674f9f1cf924,
hardware store,Toko Bahan Bangunan,TB. LOGAM BARU,"67W5+JCC, Jl. Panunjung Tarung, Pulang Pisau, Kec. Kahayan Hilir, Kabupaten Pulang Pisau, Kalimantan Tengah 73564","Jl. Panunjung Tarung, Pulang Pisau, Kec. Kahayan Hilir, Kabupaten Pulang Pisau",KALIMANTAN TENGAH,73564.0,Indonesia,,,,-2.7534415,114.2585129,https://maps.google.com/?cid=0x0:0xa8f459f078c73400,
hardware store,Toko Alat Tulis Kantor,Toko Laris 88 Jual Alat Tulis Kantor dan Sekolah Mantaren 1.Kec.Kahayan Hilir. Kab. Pulang Pisau,"Mantaren I, Kec. Kahayan Hilir, Kabupaten Pulang Pisau, Kalimantan Tengah 73564","Kec. Kahayan Hilir, Kabupaten Pulang Pisau",KALIMANTAN TENGAH,73564.0,Indonesia,,,,-2.7790033,114.2438556,https://maps.google.com/?cid=0x0:0x4d73569450b5e68,
hardware store,Toko Kayu,Kahayan Lumber PT,"25W9+47F, Kanamit, Kec. Maliku, Kabupaten Pulang Pisau, Kalimantan Tengah 74871","Kanamit, Kec. Maliku, Kabupaten Pulang Pisau",KALIMANTAN TENGAH,74871.0,Indonesia, 051323760,,,-2.954698,114.168178,https://maps.google.com/?cid=0x0:0x768632f2fac7fef1,
hardware store,Toko Bahan Bangunan,TB.RIZ-Q LOGAM,"23PX+74, Gandang, Kec. Maliku, Kabupaten Pulang Pisau, Kalimantan Tengah","Kabupaten Pulang Pisau, Kalimantan Tengah",KALIMANTAN TENGAH,,Indonesia,,,,-2.964272,114.097854,https://maps.google.com/?cid=0x0:0xc264ee2b8cd3ea46,
hardware store,Toko,Gudang Beruntung Jaya,"24VX+FGQ, Maliku Baru, Kec. Maliku, Kabupaten Pulang Pisau, Kalimantan Tengah 74871","Maliku Baru, Kec. Maliku, Kabupaten Pulang Pisau",KALIMANTAN TENGAH,74871.0,Indonesia,,,,-2.956277,114.148857,https://maps.google.com/?cid=0x0:0x4e08be840a9c9ca0,
hardware store,Industri Pasir,Tumpukan pasir sungai,"Pasar sabtu, Kec. Maliku, Kabupaten Pulang Pisau, Kalimantan Tengah","Kabupaten Pulang Pisau, Kalimantan Tengah",KALIMANTAN TENGAH,,Indonesia, 081235555975,,,-2.8900033,114.1772129,https://maps.google.com/?cid=0x0:0x2a580848c23f4a01,
hardware store,Toko Bahan Bangunan,Toko Berkah Anjir Kalampan,"Anjir Kalampan, Kec. Kapuas Bar., Kabupaten Kapuas, Kalimantan Tengah 73564","Kec. Kapuas Bar., Kabupaten Kapuas",KALIMANTAN TENGAH,73564.0,Indonesia, 085651348949,,,-2.8149457,114.3339102,https://maps.google.com/?cid=0x0:0xd8fbe6aac45d20b5,
hardware store,Toko,TOKO KAHAYAN BERKAH 2 BAHAUR,"Jl. Hidayatullah, Bahaur Hilir, Kec. Kahayan Kuala, Kabupaten Pulang Pisau, Kalimantan Tengah 74872","Bahaur Hilir, Kec. Kahayan Kuala, Kabupaten Pulang Pisau",KALIMANTAN TENGAH,74872.0,Indonesia, 081253363670,,,-3.2315597,114.0977027,https://maps.google.com/?cid=0x0:0xd52f0651d6155cc9,
hardware store,Toko Bahan Bangunan,TB. H. Ibas,"25V2+M53, Jl. Tjilik Riwut, Maliku Baru, Kec. Maliku, Kabupaten Pulang Pisau, Kalimantan Tengah 74871","Jl. Tjilik Riwut, Maliku Baru, Kec. Maliku, Kabupaten Pulang Pisau",KALIMANTAN TENGAH,74871.0,Indonesia, 081348357524,,,-2.9558573,114.1504366,https://maps.google.com/?cid=0x0:0x64f6470c804ca99f,
hardware store,Toko Bahan Bangunan,Tb Ifan 2 Maliku,"24RW+QP, Maliku Baru, Kec. Maliku, Kabupaten Pulang Pisau, Kalimantan Tengah","Kabupaten Pulang Pisau, Kalimantan Tengah",KALIMANTAN TENGAH,,Indonesia,,,,-2.9581047,114.1468354,https://maps.google.com/?cid=0x0:0x4b3dc33dd0732594,
hardware store,Toko Bahan Bangunan,"Tb barokah kapuas, sey kayu","49C9+9W, Sei Pitung, Kec. Kapuas Bar., Kabupaten Kapuas, Kalimantan Tengah","Kabupaten Kapuas, Kalimantan Tengah",KALIMANTAN TENGAH,,Indonesia,,,,-2.8791179,114.3698663,https://maps.google.com/?cid=0x0:0x5d9a90d88ccc5b69,
hardware store,Toko Perlengkapan Rumah,VITA FROZEN FOOD,"jln pakis 3, Sidodadi, Kec. Maliku, Kabupaten Pulang Pisau, Kalimantan Tengah 74873","Sidodadi, Kec. Maliku, Kabupaten Pulang Pisau",KALIMANTAN TENGAH,74873.0,Indonesia, 085828219457,,,-2.9192923,114.1080762,https://maps.google.com/?cid=0x0:0xdb6d39f7d8546fc0,
hardware store,hardware store,Kalimantan Tengah 74813,Kalimantan Tengah,Kalimantan Tengah,KALIMANTAN TENGAH,,Indonesia,,,,-2.5771654,114.3222577,https://maps.google.com/?cid=0x0:0xfaa2c870e86154d8,
hardware store,Toko Bahan Bangunan,TB.Berkat Sabar,"Mantaren I, Kec. Kahayan Hilir, Kabupaten Pulang Pisau, Kalimantan Tengah","Kabupaten Pulang Pisau, Kalimantan Tengah",KALIMANTAN TENGAH,,Indonesia,,,,-2.8004649,114.253464,https://maps.google.com/?cid=0x0:0x20e59b29ac4429e9,
hardware store,Toko Bahan Bangunan,Toko Bangunan Shohibah,"Jl. Trans - Kalimantan NO WA, RT.OI54O54-249, Mantaren I, Kec. Kahayan Hilir, Kabupaten Pulang Pisau, Kalimantan Tengah 73564","RT.OI54O54-249, Mantaren I, Kec. Kahayan Hilir, Kabupaten Pulang Pisau",KALIMANTAN TENGAH,73564.0,Indonesia, 082186774521,,,-2.7921992,114.261941,https://maps.google.com/?cid=0x0:0x9919e9b40efbf5a,
hardware store,Toko Bahan Bangunan,Toko UD. YANOR,"P3VX+H39, Jl. Hidayatullah, RT.004/RW.002, Tj. Perawan, Kec. Kahayan Kuala, Kabupaten Pulang Pisau, Kalimantan Tengah 74872","Jl. Hidayatullah, RT.004/RW.002, Tj. Perawan, Kec. Kahayan Kuala, Kabupaten Pulang Pisau",KALIMANTAN TENGAH,74872.0,Indonesia,,,,-3.2560886,114.0977299,https://maps.google.com/?cid=0x0:0xc503b4523d7b483f,
hardware store,Toko Bahan Bangunan,TB Caca Cia,"Jl. Trans - Kalimantan, Anjir Pulang Pisau, Kec. Kahayan Hilir, Kabupaten Pulang Pisau, Kalimantan Tengah","Kabupaten Pulang Pisau, Kalimantan Tengah",KALIMANTAN TENGAH,,Indonesia,,,,-2.7560254,114.2936361,https://maps.google.com/?cid=0x0:0xb877674f9f1cf924,
hardware store,Toko Kayu,Kahayan Lumber PT,"25W9+47F, Kanamit, Kec. Maliku, Kabupaten Pulang Pisau, Kalimantan Tengah 74871","Kanamit, Kec. Maliku, Kabupaten Pulang Pisau",KALIMANTAN TENGAH,74871.0,Indonesia, 051323760,,,-2.954698,114.168178,https://maps.google.com/?cid=0x0:0x768632f2fac7fef1,
hardware store,Toko Bahan Bangunan,TB. LOGAM BARU,"67W5+JCC, Jl. Panunjung Tarung, Pulang Pisau, Kec. Kahayan Hilir, Kabupaten Pulang Pisau, Kalimantan Tengah 73564","Jl. Panunjung Tarung, Pulang Pisau, Kec. Kahayan Hilir, Kabupaten Pulang Pisau",KALIMANTAN TENGAH,73564.0,Indonesia,,,,-2.7534415,114.2585129,https://maps.google.com/?cid=0x0:0xa8f459f078c73400,
hardware store,Toko Alat Tulis Kantor,Toko Laris 88 Jual Alat Tulis Kantor dan Sekolah Mantaren 1.Kec.Kahayan Hilir. Kab. Pulang Pisau,"Mantaren I, Kec. Kahayan Hilir, Kabupaten Pulang Pisau, Kalimantan Tengah 73564","Kec. Kahayan Hilir, Kabupaten Pulang Pisau",KALIMANTAN TENGAH,73564.0,Indonesia,,,,-2.7790033,114.2438556,https://maps.google.com/?cid=0x0:0x4d73569450b5e68,
hardware store,hardware store,Kec. Kahayan Hilir,"Kabupaten Pulang Pisau, Kalimantan Tengah","Kabupaten Pulang Pisau, Kalimantan Tengah",KALIMANTAN TENGAH,,Indonesia,,,,-2.7914682,114.262235,https://maps.google.com/?cid=0x0:0x7f1583868799e28e,
hardware store,Toko Bahan Bangunan,TB. KHAIRUNNISA,"46V7+8C6, Jl. Trans - Kalimantan, Mintin, Kec. Kahayan Hilir, Kabupaten Pulang Pisau, Kalimantan Tengah 74873","Jl. Trans - Kalimantan, Mintin, Kec. Kahayan Hilir, Kabupaten Pulang Pisau",KALIMANTAN TENGAH,74873.0,Indonesia, 085248489984,,,-2.8567,114.2135084,https://maps.google.com/?cid=0x0:0x567136827ee1e54b,
hardware store,hardware store,Toko H. Suhaimi,"F5FR+W83, Jabiren, Kec. Jabiren, Kabupaten Pulang Pisau, Kalimantan Tengah 74812","Jabiren, Kec. Jabiren, Kabupaten Pulang Pisau",KALIMANTAN TENGAH,74812.0,Indonesia,,,,-2.5252479,114.1908102,https://maps.google.com/?cid=0x0:0x6e26b7ab4a6658e4,
hardware store,Toko Bahan Bangunan,TB.RIZ-Q LOGAM,"23PX+74, Gandang, Kec. Maliku, Kabupaten Pulang Pisau, Kalimantan Tengah","Kabupaten Pulang Pisau, Kalimantan Tengah",KALIMANTAN TENGAH,,Indonesia,,,,-2.964272,114.097854,https://maps.google.com/?cid=0x0:0xc264ee2b8cd3ea46,
hardware store,Toko,Gudang Beruntung Jaya,"24VX+FGQ, Maliku Baru, Kec. Maliku, Kabupaten Pulang Pisau, Kalimantan Tengah 74871","Maliku Baru, Kec. Maliku, Kabupaten Pulang Pisau",KALIMANTAN TENGAH,74871.0,Indonesia,,,,-2.956277,114.148857,https://maps.google.com/?cid=0x0:0x4e08be840a9c9ca0,
hardware store,Industri Pasir,Tumpukan pasir sungai,"Pasar sabtu, Kec. Maliku, Kabupaten Pulang Pisau, Kalimantan Tengah","Kabupaten Pulang Pisau, Kalimantan Tengah",KALIMANTAN TENGAH,,Indonesia, 081235555975,,,-2.8900033,114.1772129,https://maps.google.com/?cid=0x0:0x2a580848c23f4a01,
hardware store,Toko Bahan Bangunan,Toko Berkah Anjir Kalampan,"Anjir Kalampan, Kec. Kapuas Bar., Kabupaten Kapuas, Kalimantan Tengah 73564","Kec. Kapuas Bar., Kabupaten Kapuas",KALIMANTAN TENGAH,73564.0,Indonesia, 085651348949,,,-2.8149457,114.3339102,https://maps.google.com/?cid=0x0:0xd8fbe6aac45d20b5,
hardware store,Toko Bahan Bangunan,TB. H. Ibas,"25V2+M53, Jl. Tjilik Riwut, Maliku Baru, Kec. Maliku, Kabupaten Pulang Pisau, Kalimantan Tengah 74871","Jl. Tjilik Riwut, Maliku Baru, Kec. Maliku, Kabupaten Pulang Pisau",KALIMANTAN TENGAH,74871.0,Indonesia, 081348357524,,,-2.9558573,114.1504366,https://maps.google.com/?cid=0x0:0x64f6470c804ca99f,
hardware store,Toko Bahan Bangunan,Tb Ifan 2 Maliku,"24RW+QP, Maliku Baru, Kec. Maliku, Kabupaten Pulang Pisau, Kalimantan Tengah","Kabupaten Pulang Pisau, Kalimantan Tengah",KALIMANTAN TENGAH,,Indonesia,,,,-2.9581047,114.1468354,https://maps.google.com/?cid=0x0:0x4b3dc33dd0732594,
hardware store,Toko Perlengkapan Rumah,VITA FROZEN FOOD,"jln pakis 3, Sidodadi, Kec. Maliku, Kabupaten Pulang Pisau, Kalimantan Tengah 74873","Sidodadi, Kec. Maliku, Kabupaten Pulang Pisau",KALIMANTAN TENGAH,74873.0,Indonesia, 085828219457,,,-2.9192923,114.1080762,https://maps.google.com/?cid=0x0:0xdb6d39f7d8546fc0,
hardware store,hardware store,Kalimantan Tengah 74816,Kalimantan Tengah,Kalimantan Tengah,KALIMANTAN TENGAH,,Indonesia,,,,-2.3159685,114.2390498,https://maps.google.com/?cid=0x0:0x699fd2cedf1d1e7c,
hardware store,Toko Bahan Bangunan,Toko Bangunan Shohibah,"Jl. Trans - Kalimantan NO WA, RT.OI54O54-249, Mantaren I, Kec. Kahayan Hilir, Kabupaten Pulang Pisau, Kalimantan Tengah 73564","RT.OI54O54-249, Mantaren I, Kec. Kahayan Hilir, Kabupaten Pulang Pisau",KALIMANTAN TENGAH,73564.0,Indonesia, 082186774521,,,-2.7921992,114.261941,https://maps.google.com/?cid=0x0:0x9919e9b40efbf5a,
hardware store,Grosir,PT. Kahayan Berseri,"Garung, Kec. Jabiren, Kabupaten Pulang Pisau, Kalimantan Tengah 74861","Kec. Jabiren, Kabupaten Pulang Pisau",KALIMANTAN TENGAH,74861.0,Indonesia,,,,-2.6412773,114.2200829,https://maps.google.com/?cid=0x0:0x1cb159c46ece6f45,
hardware store,Toko Bahan Bangunan,TB Berkah Azhar,"Jalan Bukit Rawi (Palangkaraya, Buntok, Kec. Pahandut, Kota Palangka Raya, Kalimantan Tengah 73111","Buntok, Kec. Pahandut, Kota Palangka Raya",KALIMANTAN TENGAH,73111.0,Indonesia, 089691627436,,,-2.1925186,113.9482172,https://maps.google.com/?cid=0x0:0xbb4a2c3966ef1e41,
hardware store,Toko Bahan Bangunan,Gemilang Pusat Bahan Bangunan RTA Milono Palangka Raya,"Jl. RTA Milono, Menteng, Kec. Jekan Raya, Kota Palangka Raya, Kalimantan Tengah 74874","Menteng, Kec. Jekan Raya, Kota Palangka Raya",KALIMANTAN TENGAH,74874.0,Indonesia, 081250170853,,,-2.240658,113.919759,https://maps.google.com/?cid=0x0:0xd0ff11a63ca3103f,
hardware store,hardware store,Toko bangunan lancar jaya,"Jl. Adonis Samad Jl. Ratu Zaleha No.samping, Langkai, Kec. Pahandut, Kota Palangka Raya, Kalimantan Tengah 73111","Langkai, Kec. Pahandut, Kota Palangka Raya",KALIMANTAN TENGAH,73111.0,Indonesia,,,,-2.249605,113.9262318,https://maps.google.com/?cid=0x0:0x49bd06a38823dbfa,
hardware store,Toko Bahan Bangunan,Toko Sumber Urip,"Jl. Halmahera No.47, Pahandut, Kec. Pahandut, Kota Palangka Raya, Kalimantan Tengah 73111","Pahandut, Kec. Pahandut, Kota Palangka Raya",KALIMANTAN TENGAH,73111.0,Indonesia, 082358564000,,,-2.2068086,113.9372359,https://maps.google.com/?cid=0x0:0x5c57e83959a73eb7,
hardware store,hardware store,TB. SUMBER REJEKI (UTAMA),"Jl. RTA Milono No.KM 7, Menteng, Kec. Jekan Raya, Kota Palangka Raya, Kalimantan Tengah 74874","Menteng, Kec. Jekan Raya, Kota Palangka Raya",KALIMANTAN TENGAH,74874.0,Indonesia, 081352616064,,,-2.2682124,113.9192209,https://maps.google.com/?cid=0x0:0xc9f7d1bff39038e6,
hardware store,Toko bahan makanan,Gemilang Pusat Bahan Bangunan Tjilik Riwut,"Jl. Tjilik Riwut No.KM. 8, RT.12/RW.14, Bukit Tunggal, Kec. Jekan Raya, Kota Palangka Raya, Kalimantan Tengah 73112","RT.12/RW.14, Bukit Tunggal, Kec. Jekan Raya, Kota Palangka Raya",KALIMANTAN TENGAH,73112.0,Indonesia, 082150615528,,,-2.1697497,113.8584061,https://maps.google.com/?cid=0x0:0xe3824ddbb790492,
hardware store,Toko,Toko Bangunan Tiga Dara,"Jl. Bangas Permai Induk No.03, Menteng, Kec. Jekan Raya, Kota Palangka Raya, Kalimantan Tengah 73112","Menteng, Kec. Jekan Raya, Kota Palangka Raya",KALIMANTAN TENGAH,73112.0,Indonesia, 081396801512,,,-2.2443851,113.9189297,https://maps.google.com/?cid=0x0:0x46bb1495d10f56ee,
hardware store,Toko Perlengkapan Rumah,Toko Budi Annor,"Jl Tjilik Riwut Km 1,5 Blok L No 5, Jekan Raya, Palangka, Kec. Jekan Raya, Kota Palangka Raya, Kalimantan Tengah 74874","Jekan Raya, Palangka, Kec. Jekan Raya, Kota Palangka Raya",KALIMANTAN TENGAH,74874.0,Indonesia, 081312342558,,,-2.1994246,113.9084048,https://maps.google.com/?cid=0x0:0x292bcdc14a8ffde7,
hardware store,Toko,Maju Jaya,"Jl. Wortel, Panarung, Kec. Pahandut, Kota Palangka Raya, Kalimantan Tengah 74874","Panarung, Kec. Pahandut, Kota Palangka Raya",KALIMANTAN TENGAH,74874.0,Indonesia, 0895342978318,,,-2.2367642,113.9318735,https://maps.google.com/?cid=0x0:0x9ae4b2427d37a8d9,
hardware store,Toko Bahan Bangunan,istana plapon Palangkaraya,"jln.simpei Karuhei induk no.05 blok1,2, Kota Palangka Raya, Kalimantan Tengah 73111",Kota Palangka Raya,KALIMANTAN TENGAH,73111.0,Indonesia, 082164465822,,,-2.2202776,113.8606235,https://maps.google.com/?cid=0x0:0x1cead9984927465c,
hardware store,Toko Perlengkapan Rumah,MR D.I.Y.,"Lt. GF, Palangkaraya Mall (Palma, Jl. Tjilik Riwut No.KM 1, Palangka, Kec. Jekan Raya, Kota Palangka Raya, Kalimantan Tengah 74874","Palangkaraya Mall (Palma, Jl. Tjilik Riwut No.KM 1, Palangka, Kec. Jekan Raya, Kota Palangka Raya",KALIMANTAN TENGAH,74874.0,Indonesia, 02130022789,,,-2.2064682,113.9151432,https://maps.google.com/?cid=0x0:0x2c970adc7549c6da,
hardware store,Toko Bahan Bangunan,Borneo Raya Cipta,"Jl. Menteng Raya No.I, Menteng, Kec. Jekan Raya, Kota Palangka Raya, Kalimantan Tengah 74874","Menteng, Kec. Jekan Raya, Kota Palangka Raya",KALIMANTAN TENGAH,74874.0,Indonesia, 081396801512,,,-2.2355202,113.9181017,https://maps.google.com/?cid=0x0:0x283a7c29902e4003,
hardware store,Pemasok Bahan Bangunan,UD. Lestari Jaya,"Jl. Tingang Induk No.199, Bukit Tunggal, Kec. Jekan Raya, Kota Palangka Raya, Kalimantan Tengah 74874","Bukit Tunggal, Kec. Jekan Raya, Kota Palangka Raya",KALIMANTAN TENGAH,74874.0,Indonesia,,,,-2.1939437,113.8886487,https://maps.google.com/?cid=0x0:0xb4b156eadac18aae,
hardware store,Toko Bahan Bangunan,TB.MEKAR JAYA ABADI,"Jl. Temanggung Tilung induk, Menteng, Kec. Jekan Raya, Kota Palangka Raya, Kalimantan Tengah 74874","Menteng, Kec. Jekan Raya, Kota Palangka Raya",KALIMANTAN TENGAH,74874.0,Indonesia, 081350207693,,,-2.2296259,113.9181293,https://maps.google.com/?cid=0x0:0x63c5b6f2e597caed,
hardware store,Toko Kayu,Kahayan Lumber PT,"25W9+47F, Kanamit, Kec. Maliku, Kabupaten Pulang Pisau, Kalimantan Tengah 74871","Kanamit, Kec. Maliku, Kabupaten Pulang Pisau",KALIMANTAN TENGAH,74871.0,Indonesia, 051323760,,,-2.954698,114.168178,https://maps.google.com/?cid=0x0:0x768632f2fac7fef1,
hardware store,Toko Elektronik,Toko Putra Jaya,"Jl. Rajawali, Palangka, Kec. Jekan Raya, Kota Palangka Raya, Kalimantan Tengah 74874","Palangka, Kec. Jekan Raya, Kota Palangka Raya",KALIMANTAN TENGAH,74874.0,Indonesia, 081396801512,,,-2.1945683,113.895115,https://maps.google.com/?cid=0x0:0xc2a5b77ea10a4fb4,
hardware store,Toko Bahan Bangunan,TB.Titipan Ilahi,"7738+783, Jl. Darung Bawan, Anjir, Pulang Pisau, Kec. Kahayan Hilir, Kabupaten Pulang Pisau, Kalimantan Tengah 73564","Jl. Darung Bawan, Anjir, Pulang Pisau, Kec. Kahayan Hilir, Kabupaten Pulang Pisau",KALIMANTAN TENGAH,73564.0,Indonesia,,,,-2.7468503,114.2657918,https://maps.google.com/?cid=0x0:0x74ed4fb5413f1bfa,
hardware store,Toko Bahan Bangunan,TB Caca Cia,"Jl. Trans - Kalimantan, Anjir Pulang Pisau, Kec. Kahayan Hilir, Kabupaten Pulang Pisau, Kalimantan Tengah","Kabupaten Pulang Pisau, Kalimantan Tengah",KALIMANTAN TENGAH,,Indonesia,,,,-2.7560254,114.2936361,https://maps.google.com/?cid=0x0:0xb877674f9f1cf924,
hardware store,Toko Alat Tulis Kantor,Toko Laris 88 Jual Alat Tulis Kantor dan Sekolah Mantaren 1.Kec.Kahayan Hilir. Kab. Pulang Pisau,"Mantaren I, Kec. Kahayan Hilir, Kabupaten Pulang Pisau, Kalimantan Tengah 73564","Kec. Kahayan Hilir, Kabupaten Pulang Pisau",KALIMANTAN TENGAH,73564.0,Indonesia,,,,-2.7790033,114.2438556,https://maps.google.com/?cid=0x0:0x4d73569450b5e68,
hardware store,Toko Bahan Bangunan,TB. LOGAM BARU,"67W5+JCC, Jl. Panunjung Tarung, Pulang Pisau, Kec. Kahayan Hilir, Kabupaten Pulang Pisau, Kalimantan Tengah 73564","Jl. Panunjung Tarung, Pulang Pisau, Kec. Kahayan Hilir, Kabupaten Pulang Pisau",KALIMANTAN TENGAH,73564.0,Indonesia,,,,-2.7534415,114.2585129,https://maps.google.com/?cid=0x0:0xa8f459f078c73400,
hardware store,hardware store,Toko H. Suhaimi,"F5FR+W83, Jabiren, Kec. Jabiren, Kabupaten Pulang Pisau, Kalimantan Tengah 74812","Jabiren, Kec. Jabiren, Kabupaten Pulang Pisau",KALIMANTAN TENGAH,74812.0,Indonesia,,,,-2.5252479,114.1908102,https://maps.google.com/?cid=0x0:0x6e26b7ab4a6658e4,
hardware store,hardware store,Kec. Kahayan Hilir,"Kabupaten Pulang Pisau, Kalimantan Tengah","Kabupaten Pulang Pisau, Kalimantan Tengah",KALIMANTAN TENGAH,,Indonesia,,,,-2.7914682,114.262235,https://maps.google.com/?cid=0x0:0x7f1583868799e28e,
hardware store,Toko Bahan Bangunan,TB. KHAIRUNNISA,"46V7+8C6, Jl. Trans - Kalimantan, Mintin, Kec. Kahayan Hilir, Kabupaten Pulang Pisau, Kalimantan Tengah 74873","Jl. Trans - Kalimantan, Mintin, Kec. Kahayan Hilir, Kabupaten Pulang Pisau",KALIMANTAN TENGAH,74873.0,Indonesia, 085248489984,,,-2.8567,114.2135084,https://maps.google.com/?cid=0x0:0x567136827ee1e54b,
hardware store,Toko,Gudang Beruntung Jaya,"24VX+FGQ, Maliku Baru, Kec. Maliku, Kabupaten Pulang Pisau, Kalimantan Tengah 74871","Maliku Baru, Kec. Maliku, Kabupaten Pulang Pisau",KALIMANTAN TENGAH,74871.0,Indonesia,,,,-2.956277,114.148857,https://maps.google.com/?cid=0x0:0x4e08be840a9c9ca0,
hardware store,Industri Pasir,Tumpukan pasir sungai,"Pasar sabtu, Kec. Maliku, Kabupaten Pulang Pisau, Kalimantan Tengah","Kabupaten Pulang Pisau, Kalimantan Tengah",KALIMANTAN TENGAH,,Indonesia, 081235555975,,,-2.8900033,114.1772129,https://maps.google.com/?cid=0x0:0x2a580848c23f4a01,
hardware store,hardware store,Kec. Kahayan Hilir,"Kabupaten Pulang Pisau, Kalimantan Tengah","Kabupaten Pulang Pisau, Kalimantan Tengah",KALIMANTAN TENGAH,,Indonesia,,,,-2.7914682,114.262235,https://maps.google.com/?cid=0x0:0x7f1583868799e28e,
hardware store,Toko Bahan Bangunan,Toko Bangunan Shohibah,"Jl. Trans - Kalimantan NO WA, RT.OI54O54-249, Mantaren I, Kec. Kahayan Hilir, Kabupaten Pulang Pisau, Kalimantan Tengah 73564","RT.OI54O54-249, Mantaren I, Kec. Kahayan Hilir, Kabupaten Pulang Pisau",KALIMANTAN TENGAH,73564.0,Indonesia, 082186774521,,,-2.7921992,114.261941,https://maps.google.com/?cid=0x0:0x9919e9b40efbf5a,
hardware store,Toko Bahan Bangunan,TB. KHAIRUNNISA,"46V7+8C6, Jl. Trans - Kalimantan, Mintin, Kec. Kahayan Hilir, Kabupaten Pulang Pisau, Kalimantan Tengah 74873","Jl. Trans - Kalimantan, Mintin, Kec. Kahayan Hilir, Kabupaten Pulang Pisau",KALIMANTAN TENGAH,74873.0,Indonesia, 085248489984,,,-2.8567,114.2135084,https://maps.google.com/?cid=0x0:0x567136827ee1e54b,
hardware store,Toko Bahan Bangunan,TB.Titipan Ilahi,"7738+783, Jl. Darung Bawan, Anjir, Pulang Pisau, Kec. Kahayan Hilir, Kabupaten Pulang Pisau, Kalimantan Tengah 73564","Jl. Darung Bawan, Anjir, Pulang Pisau, Kec. Kahayan Hilir, Kabupaten Pulang Pisau",KALIMANTAN TENGAH,73564.0,Indonesia,,,,-2.7468503,114.2657918,https://maps.google.com/?cid=0x0:0x74ed4fb5413f1bfa,
hardware store,Toko Alat Tulis Kantor,Toko Laris 88 Jual Alat Tulis Kantor dan Sekolah Mantaren 1.Kec.Kahayan Hilir. Kab. Pulang Pisau,"Mantaren I, Kec. Kahayan Hilir, Kabupaten Pulang Pisau, Kalimantan Tengah 73564","Kec. Kahayan Hilir, Kabupaten Pulang Pisau",KALIMANTAN TENGAH,73564.0,Indonesia,,,,-2.7790033,114.2438556,https://maps.google.com/?cid=0x0:0x4d73569450b5e68,
hardware store,Toko Bahan Bangunan,TB Caca Cia,"Jl. Trans - Kalimantan, Anjir Pulang Pisau, Kec. Kahayan Hilir, Kabupaten Pulang Pisau, Kalimantan Tengah","Kabupaten Pulang Pisau, Kalimantan Tengah",KALIMANTAN TENGAH,,Indonesia,,,,-2.7560254,114.2936361,https://maps.google.com/?cid=0x0:0xb877674f9f1cf924,
hardware store,Toko,Gudang Beruntung Jaya,"24VX+FGQ, Maliku Baru, Kec. Maliku, Kabupaten Pulang Pisau, Kalimantan Tengah 74871","Maliku Baru, Kec. Maliku, Kabupaten Pulang Pisau",KALIMANTAN TENGAH,74871.0,Indonesia,,,,-2.956277,114.148857,https://maps.google.com/?cid=0x0:0x4e08be840a9c9ca0,
hardware store,Toko Bahan Bangunan,TB. LOGAM BARU,"67W5+JCC, Jl. Panunjung Tarung, Pulang Pisau, Kec. Kahayan Hilir, Kabupaten Pulang Pisau, Kalimantan Tengah 73564","Jl. Panunjung Tarung, Pulang Pisau, Kec. Kahayan Hilir, Kabupaten Pulang Pisau",KALIMANTAN TENGAH,73564.0,Indonesia,,,,-2.7534415,114.2585129,https://maps.google.com/?cid=0x0:0xa8f459f078c73400,
hardware store,Toko Bahan Bangunan,TB.RIZ-Q LOGAM,"23PX+74, Gandang, Kec. Maliku, Kabupaten Pulang Pisau, Kalimantan Tengah","Kabupaten Pulang Pisau, Kalimantan Tengah",KALIMANTAN TENGAH,,Indonesia,,,,-2.964272,114.097854,https://maps.google.com/?cid=0x0:0xc264ee2b8cd3ea46,
hardware store,Industri Pasir,Tumpukan pasir sungai,"Pasar sabtu, Kec. Maliku, Kabupaten Pulang Pisau, Kalimantan Tengah","Kabupaten Pulang Pisau, Kalimantan Tengah",KALIMANTAN TENGAH,,Indonesia, 081235555975,,,-2.8900033,114.1772129,https://maps.google.com/?cid=0x0:0x2a580848c23f4a01,
hardware store,Toko Bahan Bangunan,Toko Berkah Anjir Kalampan,"Anjir Kalampan, Kec. Kapuas Bar., Kabupaten Kapuas, Kalimantan Tengah 73564","Kec. Kapuas Bar., Kabupaten Kapuas",KALIMANTAN TENGAH,73564.0,Indonesia, 085651348949,,,-2.8149457,114.3339102,https://maps.google.com/?cid=0x0:0xd8fbe6aac45d20b5,
hardware store,Toko Bahan Bangunan,TB. H. Ibas,"25V2+M53, Jl. Tjilik Riwut, Maliku Baru, Kec. Maliku, Kabupaten Pulang Pisau, Kalimantan Tengah 74871","Jl. Tjilik Riwut, Maliku Baru, Kec. Maliku, Kabupaten Pulang Pisau",KALIMANTAN TENGAH,74871.0,Indonesia, 081348357524,,,-2.9558573,114.1504366,https://maps.google.com/?cid=0x0:0x64f6470c804ca99f,
hardware store,Toko Bahan Bangunan,Tb Ifan 2 Maliku,"24RW+QP, Maliku Baru, Kec. Maliku, Kabupaten Pulang Pisau, Kalimantan Tengah","Kabupaten Pulang Pisau, Kalimantan Tengah",KALIMANTAN TENGAH,,Indonesia,,,,-2.9581047,114.1468354,https://maps.google.com/?cid=0x0:0x4b3dc33dd0732594,
hardware store,Toko Perlengkapan Rumah,VITA FROZEN FOOD,"jln pakis 3, Sidodadi, Kec. Maliku, Kabupaten Pulang Pisau, Kalimantan Tengah 74873","Sidodadi, Kec. Maliku, Kabupaten Pulang Pisau",KALIMANTAN TENGAH,74873.0,Indonesia, 085828219457,,,-2.9192923,114.1080762,https://maps.google.com/?cid=0x0:0xdb6d39f7d8546fc0,
hardware store,Toko Bahan Bangunan,DK Hardware Supply Sdn Bhd,"3535-I, Jalan Kuala Krai, Bandar Kota Bharu, 15050 Kota Bharu, Kelantan, Malaysia",Kota Bharu,KALIMANTAN TENGAH,15050.0,Indonesia, +60109253440,,,6.1160529,102.242061,https://maps.google.com/?cid=0x0:0x4673b254e0c64758,
hardware store,hardware store,Kec. Kahayan Hilir,"Kabupaten Pulang Pisau, Kalimantan Tengah","Kabupaten Pulang Pisau, Kalimantan Tengah",KALIMANTAN TENGAH,,Indonesia,,,,-2.7914682,114.262235,https://maps.google.com/?cid=0x0:0x7f1583868799e28e,
hardware store,Toko Bahan Bangunan,Toko Bangunan Shohibah,"Jl. Trans - Kalimantan NO WA, RT.OI54O54-249, Mantaren I, Kec. Kahayan Hilir, Kabupaten Pulang Pisau, Kalimantan Tengah 73564","RT.OI54O54-249, Mantaren I, Kec. Kahayan Hilir, Kabupaten Pulang Pisau",KALIMANTAN TENGAH,73564.0,Indonesia, 082186774521,,,-2.7921992,114.261941,https://maps.google.com/?cid=0x0:0x9919e9b40efbf5a,
hardware store,Toko Bahan Bangunan,TB. KHAIRUNNISA,"46V7+8C6, Jl. Trans - Kalimantan, Mintin, Kec. Kahayan Hilir, Kabupaten Pulang Pisau, Kalimantan Tengah 74873","Jl. Trans - Kalimantan, Mintin, Kec. Kahayan Hilir, Kabupaten Pulang Pisau",KALIMANTAN TENGAH,74873.0,Indonesia, 085248489984,,,-2.8567,114.2135084,https://maps.google.com/?cid=0x0:0x567136827ee1e54b,
hardware store,Toko Bahan Bangunan,TB.Berkat Sabar,"Mantaren I, Kec. Kahayan Hilir, Kabupaten Pulang Pisau, Kalimantan Tengah","Kabupaten Pulang Pisau, Kalimantan Tengah",KALIMANTAN TENGAH,,Indonesia,,,,-2.8004649,114.253464,https://maps.google.com/?cid=0x0:0x20e59b29ac4429e9,
hardware store,Toko Bahan Bangunan,TB Caca Cia,"Jl. Trans - Kalimantan, Anjir Pulang Pisau, Kec. Kahayan Hilir, Kabupaten Pulang Pisau, Kalimantan Tengah","Kabupaten Pulang Pisau, Kalimantan Tengah",KALIMANTAN TENGAH,,Indonesia,,,,-2.7560254,114.2936361,https://maps.google.com/?cid=0x0:0xb877674f9f1cf924,
hardware store,Toko Alat Tulis Kantor,Toko Laris 88 Jual Alat Tulis Kantor dan Sekolah Mantaren 1.Kec.Kahayan Hilir. Kab. Pulang Pisau,"Mantaren I, Kec. Kahayan Hilir, Kabupaten Pulang Pisau, Kalimantan Tengah 73564","Kec. Kahayan Hilir, Kabupaten Pulang Pisau",KALIMANTAN TENGAH,73564.0,Indonesia,,,,-2.7790033,114.2438556,https://maps.google.com/?cid=0x0:0x4d73569450b5e68,
hardware store,Toko,Gudang Beruntung Jaya,"24VX+FGQ, Maliku Baru, Kec. Maliku, Kabupaten Pulang Pisau, Kalimantan Tengah 74871","Maliku Baru, Kec. Maliku, Kabupaten Pulang Pisau",KALIMANTAN TENGAH,74871.0,Indonesia,,,,-2.956277,114.148857,https://maps.google.com/?cid=0x0:0x4e08be840a9c9ca0,
hardware store,Toko Bahan Bangunan,TB. LOGAM BARU,"67W5+JCC, Jl. Panunjung Tarung, Pulang Pisau, Kec. Kahayan Hilir, Kabupaten Pulang Pisau, Kalimantan Tengah 73564","Jl. Panunjung Tarung, Pulang Pisau, Kec. Kahayan Hilir, Kabupaten Pulang Pisau",KALIMANTAN TENGAH,73564.0,Indonesia,,,,-2.7534415,114.2585129,https://maps.google.com/?cid=0x0:0xa8f459f078c73400,
hardware store,Toko Bahan Bangunan,TB.RIZ-Q LOGAM,"23PX+74, Gandang, Kec. Maliku, Kabupaten Pulang Pisau, Kalimantan Tengah","Kabupaten Pulang Pisau, Kalimantan Tengah",KALIMANTAN TENGAH,,Indonesia,,,,-2.964272,114.097854,https://maps.google.com/?cid=0x0:0xc264ee2b8cd3ea46,
hardware store,Industri Pasir,Tumpukan pasir sungai,"Pasar sabtu, Kec. Maliku, Kabupaten Pulang Pisau, Kalimantan Tengah","Kabupaten Pulang Pisau, Kalimantan Tengah",KALIMANTAN TENGAH,,Indonesia, 081235555975,,,-2.8900033,114.1772129,https://maps.google.com/?cid=0x0:0x2a580848c23f4a01,
hardware store,Toko Bahan Bangunan,TB. H. Ibas,"25V2+M53, Jl. Tjilik Riwut, Maliku Baru, Kec. Maliku, Kabupaten Pulang Pisau, Kalimantan Tengah 74871","Jl. Tjilik Riwut, Maliku Baru, Kec. Maliku, Kabupaten Pulang Pisau",KALIMANTAN TENGAH,74871.0,Indonesia, 081348357524,,,-2.9558573,114.1504366,https://maps.google.com/?cid=0x0:0x64f6470c804ca99f,
hardware store,Toko Bahan Bangunan,Toko Berkah Anjir Kalampan,"Anjir Kalampan, Kec. Kapuas Bar., Kabupaten Kapuas, Kalimantan Tengah 73564","Kec. Kapuas Bar., Kabupaten Kapuas",KALIMANTAN TENGAH,73564.0,Indonesia, 085651348949,,,-2.8149457,114.3339102,https://maps.google.com/?cid=0x0:0xd8fbe6aac45d20b5,
hardware store,Toko Bahan Bangunan,Tb Ifan 2 Maliku,"24RW+QP, Maliku Baru, Kec. Maliku, Kabupaten Pulang Pisau, Kalimantan Tengah","Kabupaten Pulang Pisau, Kalimantan Tengah",KALIMANTAN TENGAH,,Indonesia,,,,-2.9581047,114.1468354,https://maps.google.com/?cid=0x0:0x4b3dc33dd0732594,
hardware store,Gereja,Gereja Bethel Jemaat Bukit Raya,"67V4+94J, Pulang Pisau, Kec. Kahayan Hilir, Kabupaten Pulang Pisau, Kalimantan Tengah 73564","Pulang Pisau, Kec. Kahayan Hilir, Kabupaten Pulang Pisau",KALIMANTAN TENGAH,73564.0,Indonesia,,,,-2.7565277,114.2552742,https://maps.google.com/?cid=0x0:0x26226386b12b2f98,
hardware store,Toko Perlengkapan Rumah,VITA FROZEN FOOD,"jln pakis 3, Sidodadi, Kec. Maliku, Kabupaten Pulang Pisau, Kalimantan Tengah 74873","Sidodadi, Kec. Maliku, Kabupaten Pulang Pisau",KALIMANTAN TENGAH,74873.0,Indonesia, 085828219457,,,-2.9192923,114.1080762,https://maps.google.com/?cid=0x0:0xdb6d39f7d8546fc0,
hardware store,hardware store,KEDAI AYUIPAN,"7727+CGQ, Jl. Oberlin Metar, Pulang Pisau, Kec. Kahayan Hilir, Kabupaten Pulang Pisau, Kalimantan Tengah 73564","Jl. Oberlin Metar, Pulang Pisau, Kec. Kahayan Hilir, Kabupaten Pulang Pisau",KALIMANTAN TENGAH,73564.0,Indonesia,,,,-2.7489156,114.2638579,https://maps.google.com/?cid=0x0:0xe0ffa4570d33fb2e,
hardware store,hardware store,Kec. Kahayan Hilir,"Kabupaten Pulang Pisau, Kalimantan Tengah","Kabupaten Pulang Pisau, Kalimantan Tengah",KALIMANTAN TENGAH,,Indonesia,,,,-2.7914682,114.262235,https://maps.google.com/?cid=0x0:0x7f1583868799e28e,
hardware store,Toko Bahan Bangunan,Toko Bangunan Shohibah,"Jl. Trans - Kalimantan NO WA, RT.OI54O54-249, Mantaren I, Kec. Kahayan Hilir, Kabupaten Pulang Pisau, Kalimantan Tengah 73564","RT.OI54O54-249, Mantaren I, Kec. Kahayan Hilir, Kabupaten Pulang Pisau",KALIMANTAN TENGAH,73564.0,Indonesia, 082186774521,,,-2.7921992,114.261941,https://maps.google.com/?cid=0x0:0x9919e9b40efbf5a,
hardware store,Toko Bahan Bangunan,TB. KHAIRUNNISA,"46V7+8C6, Jl. Trans - Kalimantan, Mintin, Kec. Kahayan Hilir, Kabupaten Pulang Pisau, Kalimantan Tengah 74873","Jl. Trans - Kalimantan, Mintin, Kec. Kahayan Hilir, Kabupaten Pulang Pisau",KALIMANTAN TENGAH,74873.0,Indonesia, 085248489984,,,-2.8567,114.2135084,https://maps.google.com/?cid=0x0:0x567136827ee1e54b,
hardware store,Toko Bahan Bangunan,TB.Berkat Sabar,"Mantaren I, Kec. Kahayan Hilir, Kabupaten Pulang Pisau, Kalimantan Tengah","Kabupaten Pulang Pisau, Kalimantan Tengah",KALIMANTAN TENGAH,,Indonesia,,,,-2.8004649,114.253464,https://maps.google.com/?cid=0x0:0x20e59b29ac4429e9,
hardware store,Toko Bahan Bangunan,TB Caca Cia,"Jl. Trans - Kalimantan, Anjir Pulang Pisau, Kec. Kahayan Hilir, Kabupaten Pulang Pisau, Kalimantan Tengah","Kabupaten Pulang Pisau, Kalimantan Tengah",KALIMANTAN TENGAH,,Indonesia,,,,-2.7560254,114.2936361,https://maps.google.com/?cid=0x0:0xb877674f9f1cf924,
hardware store,Toko,Gudang Beruntung Jaya,"24VX+FGQ, Maliku Baru, Kec. Maliku, Kabupaten Pulang Pisau, Kalimantan Tengah 74871","Maliku Baru, Kec. Maliku, Kabupaten Pulang Pisau",KALIMANTAN TENGAH,74871.0,Indonesia,,,,-2.956277,114.148857,https://maps.google.com/?cid=0x0:0x4e08be840a9c9ca0,
hardware store,Toko Kayu,Kahayan Lumber PT,"25W9+47F, Kanamit, Kec. Maliku, Kabupaten Pulang Pisau, Kalimantan Tengah 74871","Kanamit, Kec. Maliku, Kabupaten Pulang Pisau",KALIMANTAN TENGAH,74871.0,Indonesia, 051323760,,,-2.954698,114.168178,https://maps.google.com/?cid=0x0:0x768632f2fac7fef1,
hardware store,Toko Alat Tulis Kantor,Toko Laris 88 Jual Alat Tulis Kantor dan Sekolah Mantaren 1.Kec.Kahayan Hilir. Kab. Pulang Pisau,"Mantaren I, Kec. Kahayan Hilir, Kabupaten Pulang Pisau, Kalimantan Tengah 73564","Kec. Kahayan Hilir, Kabupaten Pulang Pisau",KALIMANTAN TENGAH,73564.0,Indonesia,,,,-2.7790033,114.2438556,https://maps.google.com/?cid=0x0:0x4d73569450b5e68,
hardware store,Toko Bahan Bangunan,TB. LOGAM BARU,"67W5+JCC, Jl. Panunjung Tarung, Pulang Pisau, Kec. Kahayan Hilir, Kabupaten Pulang Pisau, Kalimantan Tengah 73564","Jl. Panunjung Tarung, Pulang Pisau, Kec. Kahayan Hilir, Kabupaten Pulang Pisau",KALIMANTAN TENGAH,73564.0,Indonesia,,,,-2.7534415,114.2585129,https://maps.google.com/?cid=0x0:0xa8f459f078c73400,
hardware store,Toko Bahan Bangunan,TB.RIZ-Q LOGAM,"23PX+74, Gandang, Kec. Maliku, Kabupaten Pulang Pisau, Kalimantan Tengah","Kabupaten Pulang Pisau, Kalimantan Tengah",KALIMANTAN TENGAH,,Indonesia,,,,-2.964272,114.097854,https://maps.google.com/?cid=0x0:0xc264ee2b8cd3ea46,
hardware store,Industri Pasir,Tumpukan pasir sungai,"Pasar sabtu, Kec. Maliku, Kabupaten Pulang Pisau, Kalimantan Tengah","Kabupaten Pulang Pisau, Kalimantan Tengah",KALIMANTAN TENGAH,,Indonesia, 081235555975,,,-2.8900033,114.1772129,https://maps.google.com/?cid=0x0:0x2a580848c23f4a01,
hardware store,Toko Bahan Bangunan,TB. H. Ibas,"25V2+M53, Jl. Tjilik Riwut, Maliku Baru, Kec. Maliku, Kabupaten Pulang Pisau, Kalimantan Tengah 74871","Jl. Tjilik Riwut, Maliku Baru, Kec. Maliku, Kabupaten Pulang Pisau",KALIMANTAN TENGAH,74871.0,Indonesia, 081348357524,,,-2.9558573,114.1504366,https://maps.google.com/?cid=0x0:0x64f6470c804ca99f,
hardware store,Toko Bahan Bangunan,Toko Berkah Anjir Kalampan,"Anjir Kalampan, Kec. Kapuas Bar., Kabupaten Kapuas, Kalimantan Tengah 73564","Kec. Kapuas Bar., Kabupaten Kapuas",KALIMANTAN TENGAH,73564.0,Indonesia, 085651348949,,,-2.8149457,114.3339102,https://maps.google.com/?cid=0x0:0xd8fbe6aac45d20b5,
hardware store,Toko Bahan Bangunan,Tb Ifan 2 Maliku,"24RW+QP, Maliku Baru, Kec. Maliku, Kabupaten Pulang Pisau, Kalimantan Tengah","Kabupaten Pulang Pisau, Kalimantan Tengah",KALIMANTAN TENGAH,,Indonesia,,,,-2.9581047,114.1468354,https://maps.google.com/?cid=0x0:0x4b3dc33dd0732594,
hardware store,Gereja,Gereja Bethel Jemaat Bukit Raya,"67V4+94J, Pulang Pisau, Kec. Kahayan Hilir, Kabupaten Pulang Pisau, Kalimantan Tengah 73564","Pulang Pisau, Kec. Kahayan Hilir, Kabupaten Pulang Pisau",KALIMANTAN TENGAH,73564.0,Indonesia,,,,-2.7565277,114.2552742,https://maps.google.com/?cid=0x0:0x26226386b12b2f98,
hardware store,Toko Perlengkapan Rumah,VITA FROZEN FOOD,"jln pakis 3, Sidodadi, Kec. Maliku, Kabupaten Pulang Pisau, Kalimantan Tengah 74873","Sidodadi, Kec. Maliku, Kabupaten Pulang Pisau",KALIMANTAN TENGAH,74873.0,Indonesia, 085828219457,,,-2.9192923,114.1080762,https://maps.google.com/?cid=0x0:0xdb6d39f7d8546fc0,
hardware store,Toko Bahan Bangunan,TB.Titipan Ilahi,"7738+783, Jl. Darung Bawan, Anjir, Pulang Pisau, Kec. Kahayan Hilir, Kabupaten Pulang Pisau, Kalimantan Tengah 73564","Jl. Darung Bawan, Anjir, Pulang Pisau, Kec. Kahayan Hilir, Kabupaten Pulang Pisau",KALIMANTAN TENGAH,73564.0,Indonesia,,,,-2.7468503,114.2657918,https://maps.google.com/?cid=0x0:0x74ed4fb5413f1bfa,
hardware store,Toko Bahan Bangunan,TB. LOGAM BARU,"67W5+JCC, Jl. Panunjung Tarung, Pulang Pisau, Kec. Kahayan Hilir, Kabupaten Pulang Pisau, Kalimantan Tengah 73564","Jl. Panunjung Tarung, Pulang Pisau, Kec. Kahayan Hilir, Kabupaten Pulang Pisau",KALIMANTAN TENGAH,73564.0,Indonesia,,,,-2.7534415,114.2585129,https://maps.google.com/?cid=0x0:0xa8f459f078c73400,
hardware store,hardware store,Kec. Kahayan Hilir,"Kabupaten Pulang Pisau, Kalimantan Tengah","Kabupaten Pulang Pisau, Kalimantan Tengah",KALIMANTAN TENGAH,,Indonesia,,,,-2.7914682,114.262235,https://maps.google.com/?cid=0x0:0x7f1583868799e28e,
hardware store,Toko Bahan Bangunan,TB. KHAIRUNNISA,"46V7+8C6, Jl. Trans - Kalimantan, Mintin, Kec. Kahayan Hilir, Kabupaten Pulang Pisau, Kalimantan Tengah 74873","Jl. Trans - Kalimantan, Mintin, Kec. Kahayan Hilir, Kabupaten Pulang Pisau",KALIMANTAN TENGAH,74873.0,Indonesia, 085248489984,,,-2.8567,114.2135084,https://maps.google.com/?cid=0x0:0x567136827ee1e54b,
hardware store,Toko Bahan Bangunan,TB.Berkat Sabar,"Mantaren I, Kec. Kahayan Hilir, Kabupaten Pulang Pisau, Kalimantan Tengah","Kabupaten Pulang Pisau, Kalimantan Tengah",KALIMANTAN TENGAH,,Indonesia,,,,-2.8004649,114.253464,https://maps.google.com/?cid=0x0:0x20e59b29ac4429e9,
hardware store,Toko Bahan Bangunan,TB Caca Cia,"Jl. Trans - Kalimantan, Anjir Pulang Pisau, Kec. Kahayan Hilir, Kabupaten Pulang Pisau, Kalimantan Tengah","Kabupaten Pulang Pisau, Kalimantan Tengah",KALIMANTAN TENGAH,,Indonesia,,,,-2.7560254,114.2936361,https://maps.google.com/?cid=0x0:0xb877674f9f1cf924,
hardware store,Toko Alat Tulis Kantor,Toko Laris 88 Jual Alat Tulis Kantor dan Sekolah Mantaren 1.Kec.Kahayan Hilir. Kab. Pulang Pisau,"Mantaren I, Kec. Kahayan Hilir, Kabupaten Pulang Pisau, Kalimantan Tengah 73564","Kec. Kahayan Hilir, Kabupaten Pulang Pisau",KALIMANTAN TENGAH,73564.0,Indonesia,,,,-2.7790033,114.2438556,https://maps.google.com/?cid=0x0:0x4d73569450b5e68,
hardware store,Toko,Gudang Beruntung Jaya,"24VX+FGQ, Maliku Baru, Kec. Maliku, Kabupaten Pulang Pisau, Kalimantan Tengah 74871","Maliku Baru, Kec. Maliku, Kabupaten Pulang Pisau",KALIMANTAN TENGAH,74871.0,Indonesia,,,,-2.956277,114.148857,https://maps.google.com/?cid=0x0:0x4e08be840a9c9ca0,
hardware store,Toko Bahan Bangunan,TB.RIZ-Q LOGAM,"23PX+74, Gandang, Kec. Maliku, Kabupaten Pulang Pisau, Kalimantan Tengah","Kabupaten Pulang Pisau, Kalimantan Tengah",KALIMANTAN TENGAH,,Indonesia,,,,-2.964272,114.097854,https://maps.google.com/?cid=0x0:0xc264ee2b8cd3ea46,
hardware store,Industri Pasir,Tumpukan pasir sungai,"Pasar sabtu, Kec. Maliku, Kabupaten Pulang Pisau, Kalimantan Tengah","Kabupaten Pulang Pisau, Kalimantan Tengah",KALIMANTAN TENGAH,,Indonesia, 081235555975,,,-2.8900033,114.1772129,https://maps.google.com/?cid=0x0:0x2a580848c23f4a01,
hardware store,Toko Bahan Bangunan,TB. H. Ibas,"25V2+M53, Jl. Tjilik Riwut, Maliku Baru, Kec. Maliku, Kabupaten Pulang Pisau, Kalimantan Tengah 74871","Jl. Tjilik Riwut, Maliku Baru, Kec. Maliku, Kabupaten Pulang Pisau",KALIMANTAN TENGAH,74871.0,Indonesia, 081348357524,,,-2.9558573,114.1504366,https://maps.google.com/?cid=0x0:0x64f6470c804ca99f,
hardware store,Toko Bahan Bangunan,Tb Ifan 2 Maliku,"24RW+QP, Maliku Baru, Kec. Maliku, Kabupaten Pulang Pisau, Kalimantan Tengah","Kabupaten Pulang Pisau, Kalimantan Tengah",KALIMANTAN TENGAH,,Indonesia,,,,-2.9581047,114.1468354,https://maps.google.com/?cid=0x0:0x4b3dc33dd0732594,
hardware store,Toko Bahan Bangunan,Toko Berkah Anjir Kalampan,"Anjir Kalampan, Kec. Kapuas Bar., Kabupaten Kapuas, Kalimantan Tengah 73564","Kec. Kapuas Bar., Kabupaten Kapuas",KALIMANTAN TENGAH,73564.0,Indonesia, 085651348949,,,-2.8149457,114.3339102,https://maps.google.com/?cid=0x0:0xd8fbe6aac45d20b5,
hardware store,Toko Perlengkapan Rumah,VITA FROZEN FOOD,"jln pakis 3, Sidodadi, Kec. Maliku, Kabupaten Pulang Pisau, Kalimantan Tengah 74873","Sidodadi, Kec. Maliku, Kabupaten Pulang Pisau",KALIMANTAN TENGAH,74873.0,Indonesia, 085828219457,,,-2.9192923,114.1080762,https://maps.google.com/?cid=0x0:0xdb6d39f7d8546fc0,
hardware store,hardware store,Kalimantan Tengah 74872,"Kabupaten Pulang Pisau, Kalimantan Tengah","Kabupaten Pulang Pisau, Kalimantan Tengah",KALIMANTAN TENGAH,,Indonesia,,,,-3.197171,114.0488007,https://maps.google.com/?cid=0x0:0x496607f806bb7e7f,
hardware store,Kantor Perusahaan,TB. Sinar Abadi,"X4R9+3J2, Kantan Muara, Kec. Pandih Batu, Kabupaten Pulang Pisau, Kalimantan Tengah 74871","Kantan Muara, Kec. Pandih Batu, Kabupaten Pulang Pisau",KALIMANTAN TENGAH,74871.0,Indonesia, 085247170525,,,-3.0098738,114.1190156,https://maps.google.com/?cid=0x0:0x6c0ad1e145d8b432,
hardware store,Toko,Gudang Beruntung Jaya,"24VX+FGQ, Maliku Baru, Kec. Maliku, Kabupaten Pulang Pisau, Kalimantan Tengah 74871","Maliku Baru, Kec. Maliku, Kabupaten Pulang Pisau",KALIMANTAN TENGAH,74871.0,Indonesia,,,,-2.956277,114.148857,https://maps.google.com/?cid=0x0:0x4e08be840a9c9ca0,
hardware store,Toko Bahan Bangunan,TB. KHAIRUNNISA,"46V7+8C6, Jl. Trans - Kalimantan, Mintin, Kec. Kahayan Hilir, Kabupaten Pulang Pisau, Kalimantan Tengah 74873","Jl. Trans - Kalimantan, Mintin, Kec. Kahayan Hilir, Kabupaten Pulang Pisau",KALIMANTAN TENGAH,74873.0,Indonesia, 085248489984,,,-2.8567,114.2135084,https://maps.google.com/?cid=0x0:0x567136827ee1e54b,
hardware store,Toko Bahan Bangunan,UD aura yani,"V55V+RGM, Unnamed Road, Belanti Siam, Kec. Pandih Batu, Kabupaten Pulang Pisau, Kalimantan Tengah 73583","Unnamed Road, Belanti Siam, Kec. Pandih Batu, Kabupaten Pulang Pisau",KALIMANTAN TENGAH,73583.0,Indonesia, 085252549272,,,-3.1404122,114.193806,https://maps.google.com/?cid=0x0:0x28f969e0f0b80d4a,
hardware store,Toko Kayu,Kahayan Lumber PT,"25W9+47F, Kanamit, Kec. Maliku, Kabupaten Pulang Pisau, Kalimantan Tengah 74871","Kanamit, Kec. Maliku, Kabupaten Pulang Pisau",KALIMANTAN TENGAH,74871.0,Indonesia, 051323760,,,-2.954698,114.168178,https://maps.google.com/?cid=0x0:0x768632f2fac7fef1,
hardware store,Toko Bahan Bangunan,TB.RIZ-Q LOGAM,"23PX+74, Gandang, Kec. Maliku, Kabupaten Pulang Pisau, Kalimantan Tengah","Kabupaten Pulang Pisau, Kalimantan Tengah",KALIMANTAN TENGAH,,Indonesia,,,,-2.964272,114.097854,https://maps.google.com/?cid=0x0:0xc264ee2b8cd3ea46,
hardware store,Toko Alat Tulis,Toko Nuansa Bahaur,"Q37X+5Q6, Jl. Hidayatullah, Bahaur Hilir, Kec. Kahayan Kuala, Kabupaten Pulang Pisau, Kalimantan Tengah 74872","Jl. Hidayatullah, Bahaur Hilir, Kec. Kahayan Kuala, Kabupaten Pulang Pisau",KALIMANTAN TENGAH,74872.0,Indonesia, 085349810246,,,-3.2370944,114.0993904,https://maps.google.com/?cid=0x0:0xc39c77def1b43776,
hardware store,Toko Bahan Bangunan,TB. Sumber Material,"Jl. Poros, Tahai Baru, Kec. Maliku, Kabupaten Pulang Pisau, Kalimantan Tengah 73516","Tahai Baru, Kec. Maliku, Kabupaten Pulang Pisau",KALIMANTAN TENGAH,73516.0,Indonesia, 082153483345,,,-3.0511443,114.212787,https://maps.google.com/?cid=0x0:0x49340411d887bd3,
hardware store,Toko Perlengkapan Rumah,Toko Bangunan Karya Niaga,"Jalan Poros Pangkoh 3 Blok B Kanan, Pangkoh Hulu, Kec. Pandih Batu, Kabupaten Pulang Pisau, Kalimantan Tengah 74871","Pangkoh Hulu, Kec. Pandih Batu, Kabupaten Pulang Pisau",KALIMANTAN TENGAH,74871.0,Indonesia, 081348934606,,,-3.0423621,114.1617709,https://maps.google.com/?cid=0x0:0x1f860cfcceeff65f,
hardware store,Toko Alat Tulis,HN Percetakan dan Atk Belanti,"Jalan Katingan No.Blok B, Belanti Siam, Kec. Pandih Batu, Kabupaten Pulang Pisau, Kalimantan Tengah 74871","Belanti Siam, Kec. Pandih Batu, Kabupaten Pulang Pisau",KALIMANTAN TENGAH,74871.0,Indonesia, 082240863208,,,-3.1440818,114.1979312,https://maps.google.com/?cid=0x0:0xc08b36f0f53773de,
hardware store,Toko Bahan Bangunan,TB. H. Ibas,"25V2+M53, Jl. Tjilik Riwut, Maliku Baru, Kec. Maliku, Kabupaten Pulang Pisau, Kalimantan Tengah 74871","Jl. Tjilik Riwut, Maliku Baru, Kec. Maliku, Kabupaten Pulang Pisau",KALIMANTAN TENGAH,74871.0,Indonesia, 081348357524,,,-2.9558573,114.1504366,https://maps.google.com/?cid=0x0:0x64f6470c804ca99f,
hardware store,Toko Bahan Bangunan,Tb Ifan 2 Maliku,"24RW+QP, Maliku Baru, Kec. Maliku, Kabupaten Pulang Pisau, Kalimantan Tengah","Kabupaten Pulang Pisau, Kalimantan Tengah",KALIMANTAN TENGAH,,Indonesia,,,,-2.9581047,114.1468354,https://maps.google.com/?cid=0x0:0x4b3dc33dd0732594,
hardware store,Industri Pasir,Tumpukan pasir sungai,"Pasar sabtu, Kec. Maliku, Kabupaten Pulang Pisau, Kalimantan Tengah","Kabupaten Pulang Pisau, Kalimantan Tengah",KALIMANTAN TENGAH,,Indonesia, 081235555975,,,-2.8900033,114.1772129,https://maps.google.com/?cid=0x0:0x2a580848c23f4a01,
hardware store,Toko Bahan Bangunan,UD. Berkat Usaha (H. Bahrian),"Tahai Jaya, Kec. Maliku, Kabupaten Pulang Pisau, Kalimantan Tengah","Kabupaten Pulang Pisau, Kalimantan Tengah",KALIMANTAN TENGAH,,Indonesia, 085252889086,,,-3.0229757,114.1847668,https://maps.google.com/?cid=0x0:0xec746fa61c1d9e53,
hardware store,Toko bahan makanan,FOTOCOPY REZKY ANUM,"2578+RPQ, Badirih, Kec. Maliku, Kabupaten Pulang Pisau, Kalimantan Tengah 74871","Badirih, Kec. Maliku, Kabupaten Pulang Pisau",KALIMANTAN TENGAH,74871.0,Indonesia, 082256303423,,,-2.9854056,114.1668587,https://maps.google.com/?cid=0x0:0xe1f5521814268b51,
hardware store,Toko Bahan Bangunan,DK Hardware Supply Sdn Bhd,"3535-I, Jalan Kuala Krai, Bandar Kota Bharu, 15050 Kota Bharu, Kelantan, Malaysia",Kota Bharu,KALIMANTAN TENGAH,15050.0,Indonesia, +60109253440,,,6.1160529,102.242061,https://maps.google.com/?cid=0x0:0x4673b254e0c64758,
hardware store,Toko Makanan,Toko Dwe Ahmad / Kedai Hifza Sembako,"Kantan Muara, Kec. Pandih Batu, Kabupaten Pulang Pisau, Kalimantan Tengah 74871","Kec. Pandih Batu, Kabupaten Pulang Pisau",KALIMANTAN TENGAH,74871.0,Indonesia, 082251020584,,,-3.0126989,114.1229497,https://maps.google.com/?cid=0x0:0xd7e3cc028e233f0e,
hardware store,Toko Perlengkapan Rumah,VITA FROZEN FOOD,"jln pakis 3, Sidodadi, Kec. Maliku, Kabupaten Pulang Pisau, Kalimantan Tengah 74873","Sidodadi, Kec. Maliku, Kabupaten Pulang Pisau",KALIMANTAN TENGAH,74873.0,Indonesia, 085828219457,,,-2.9192923,114.1080762,https://maps.google.com/?cid=0x0:0xdb6d39f7d8546fc0,
hardware store,hardware store,Kalimantan Tengah 74862,"Lahei Mangkutup, Kec. Mantangai, Kabupaten Kapuas, Kalimantan Tengah","Kabupaten Kapuas, Kalimantan Tengah",KALIMANTAN TENGAH,,Indonesia,,,,-1.8507872,114.0963705,https://maps.google.com/?cid=0x0:0x57aa0e32b731e17e,
hardware store,,Toko viola,"6X62+PQM, Jl. Palangka Raya - Kuala Kurun, Manen Kaleka, Kec. Banama Tingang, Kabupaten Pulang Pisau, Kalimantan Tengah 74862","Jl. Palangka Raya - Kuala Kurun, Manen Kaleka, Kec. Banama Tingang, Kabupaten Pulang Pisau",KALIMANTAN TENGAH,74862.0,Indonesia,,,,-1.7881541,113.9519276,https://maps.google.com/?cid=0x0:0x88ed12c1d64a5988,
hardware store,Toko Bahan Bangunan,TB Berkah Azhar,"Jalan Bukit Rawi (Palangkaraya, Buntok, Kec. Pahandut, Kota Palangka Raya, Kalimantan Tengah 73111","Buntok, Kec. Pahandut, Kota Palangka Raya",KALIMANTAN TENGAH,73111.0,Indonesia, 089691627436,,,-2.1925186,113.9482172,https://maps.google.com/?cid=0x0:0xbb4a2c3966ef1e41,
hardware store,Toko Lampu,Toko Sumber Mulia,"Jl. K.S. Tubun No.39, Langkai, Kec. Pahandut, Kota Palangka Raya, Kalimantan Tengah 73111","Langkai, Kec. Pahandut, Kota Palangka Raya",KALIMANTAN TENGAH,73111.0,Indonesia, 082173389240,,,-2.2124228,113.9293654,https://maps.google.com/?cid=0x0:0x88b3e585b424f114,
hardware store,Toko Perlengkapan Rumah,Toko Budi Annor,"Jl Tjilik Riwut Km 1,5 Blok L No 5, Jekan Raya, Palangka, Kec. Jekan Raya, Kota Palangka Raya, Kalimantan Tengah 74874","Jekan Raya, Palangka, Kec. Jekan Raya, Kota Palangka Raya",KALIMANTAN TENGAH,74874.0,Indonesia, 081312342558,,,-2.1994246,113.9084048,https://maps.google.com/?cid=0x0:0x292bcdc14a8ffde7,
hardware store,Toko Bahan Bangunan,Toko Sumber Urip,"Jl. Halmahera No.47, Pahandut, Kec. Pahandut, Kota Palangka Raya, Kalimantan Tengah 73111","Pahandut, Kec. Pahandut, Kota Palangka Raya",KALIMANTAN TENGAH,73111.0,Indonesia, 082358564000,,,-2.2068086,113.9372359,https://maps.google.com/?cid=0x0:0x5c57e83959a73eb7,
hardware store,Toko Bahan Bangunan,BBS Toko,"5 73111, Jl. Tjilik Riwut Km. 1, Palangka, Kec. Jekan Raya, Kota Palangka Raya, Kalimantan Tengah 74874","Jl. Tjilik Riwut Km. 1, Palangka, Kec. Jekan Raya, Kota Palangka Raya",KALIMANTAN TENGAH,74874.0,Indonesia, 08125140856,,,-2.1994439,113.908452,https://maps.google.com/?cid=0x0:0x743f5bc3ac9d7695,
hardware store,Toko bahan makanan,Gemilang Pusat Bahan Bangunan Tjilik Riwut,"Jl. Tjilik Riwut No.KM. 8, RT.12/RW.14, Bukit Tunggal, Kec. Jekan Raya, Kota Palangka Raya, Kalimantan Tengah 73112","RT.12/RW.14, Bukit Tunggal, Kec. Jekan Raya, Kota Palangka Raya",KALIMANTAN TENGAH,73112.0,Indonesia, 082150615528,,,-2.1697497,113.8584061,https://maps.google.com/?cid=0x0:0xe3824ddbb790492,
hardware store,Toko Bahan Bangunan,TB.MEKAR JAYA ABADI,"Jl. Temanggung Tilung induk, Menteng, Kec. Jekan Raya, Kota Palangka Raya, Kalimantan Tengah 74874","Menteng, Kec. Jekan Raya, Kota Palangka Raya",KALIMANTAN TENGAH,74874.0,Indonesia, 081350207693,,,-2.2296259,113.9181293,https://maps.google.com/?cid=0x0:0x63c5b6f2e597caed,
hardware store,Toko,Sanjaya Toko,"Jl. Darmosugondo No.53, Pahandut, Kec. Pahandut, Kota Palangka Raya, Kalimantan Tengah 74874","Pahandut, Kec. Pahandut, Kota Palangka Raya",KALIMANTAN TENGAH,74874.0,Indonesia, 085939898813,,,-2.2066689,113.9379632,https://maps.google.com/?cid=0x0:0x7137ee8d40fa3e0d,
hardware store,Toko Bahan Bangunan,Borneo Raya Cipta,"Jl. Menteng Raya No.I, Menteng, Kec. Jekan Raya, Kota Palangka Raya, Kalimantan Tengah 74874","Menteng, Kec. Jekan Raya, Kota Palangka Raya",KALIMANTAN TENGAH,74874.0,Indonesia, 081396801512,,,-2.2355202,113.9181017,https://maps.google.com/?cid=0x0:0x283a7c29902e4003,
hardware store,Pemasok Bahan Bangunan,UD. Lestari Jaya,"Jl. Tingang Induk No.199, Bukit Tunggal, Kec. Jekan Raya, Kota Palangka Raya, Kalimantan Tengah 74874","Bukit Tunggal, Kec. Jekan Raya, Kota Palangka Raya",KALIMANTAN TENGAH,74874.0,Indonesia,,,,-2.1939437,113.8886487,https://maps.google.com/?cid=0x0:0xb4b156eadac18aae,
hardware store,Toko Bahan Bangunan,Toko Mulia Teknik,"Jl. Tjilik Riwut No.Km. 9, Palangka, Kec. Jekan Raya, Kota Palangka Raya, Kalimantan Tengah 73112","Palangka, Kec. Jekan Raya, Kota Palangka Raya",KALIMANTAN TENGAH,73112.0,Indonesia,,,,-2.1650386,113.8510665,https://maps.google.com/?cid=0x0:0x29f831c47d2ed4f,
hardware store,Pemasok Bahan Bangunan,Doa Bersama,"Menteng, Kec. Jekan Raya, Kota Palangka Raya, Kalimantan Tengah 74874","Kec. Jekan Raya, Kota Palangka Raya",KALIMANTAN TENGAH,74874.0,Indonesia, 082173389240,,,-2.2171446,113.8996453,https://maps.google.com/?cid=0x0:0x95fe748480e0321,
hardware store,Toko Perlengkapan Rumah,MR.DIY,"Ruko, Jl. G. Obos, Menteng, Kec. Jekan Raya, Kalimantan Tengah 74874","Jl. G. Obos, Menteng, Kec. Jekan Raya",KALIMANTAN TENGAH,74874.0,Indonesia, 02130022789,,,-2.2255315,113.9010391,https://maps.google.com/?cid=0x0:0xac45a7c5cc44f9aa,
hardware store,Toko Bahan Bangunan,istana plapon Palangkaraya,"jln.simpei Karuhei induk no.05 blok1,2, Kota Palangka Raya, Kalimantan Tengah 73111",Kota Palangka Raya,KALIMANTAN TENGAH,73111.0,Indonesia, 082164465822,,,-2.2202776,113.8606235,https://maps.google.com/?cid=0x0:0x1cead9984927465c,
hardware store,Toko,Maju Jaya,"Jl. Wortel, Panarung, Kec. Pahandut, Kota Palangka Raya, Kalimantan Tengah 74874","Panarung, Kec. Pahandut, Kota Palangka Raya",KALIMANTAN TENGAH,74874.0,Indonesia, 0895342978318,,,-2.2367642,113.9318735,https://maps.google.com/?cid=0x0:0x9ae4b2427d37a8d9,
hardware store,Toko Elektronik,Toko Putra Jaya,"Jl. Rajawali, Palangka, Kec. Jekan Raya, Kota Palangka Raya, Kalimantan Tengah 74874","Palangka, Kec. Jekan Raya, Kota Palangka Raya",KALIMANTAN TENGAH,74874.0,Indonesia, 081396801512,,,-2.1945683,113.895115,https://maps.google.com/?cid=0x0:0xc2a5b77ea10a4fb4,
hardware store,Toko,Toko Bangunan Berkat Raya,"Jalan Bukit Raya RT.OI, Palangka, Kec. Jekan Raya, Kota Palangka Raya, Kalimantan Tengah 74874","Palangka, Kec. Jekan Raya, Kota Palangka Raya",KALIMANTAN TENGAH,74874.0,Indonesia, 0817210881,,,-2.2044373,113.8963593,https://maps.google.com/?cid=0x0:0xb3d6509aa78552f1,
hardware store,Toko Bahan Bangunan,Toko Bina Subur Jaya,"RVCG+HMF, Bukit Tunggal, Kec. Jekan Raya, Kota Palangka Raya, Kalimantan Tengah 74874","Bukit Tunggal, Kec. Jekan Raya, Kota Palangka Raya",KALIMANTAN TENGAH,74874.0,Indonesia, 087784554231,,,-2.1785585,113.8766649,https://maps.google.com/?cid=0x0:0x9383206d891f8ec6,
hardware store,Toko Bahan Bangunan,TOKO BANGUNAN JUNA,"6XH2+R77, Jl. Palangka Raya - Kuala Kurun, Lawang Uru, Kec. Banama Tingang, Kabupaten Pulang Pisau, Kalimantan Tengah 74862","Jl. Palangka Raya - Kuala Kurun, Lawang Uru, Kec. Banama Tingang, Kabupaten Pulang Pisau",KALIMANTAN TENGAH,74862.0,Indonesia,,,,-1.7704685,113.9506733,https://maps.google.com/?cid=0x0:0x71ae4600d8ccaebf,
hardware store,hardware store,Kec. Kahayan Tengah,"Kabupaten Pulang Pisau, Kalimantan Tengah","Kabupaten Pulang Pisau, Kalimantan Tengah",KALIMANTAN TENGAH,,Indonesia,,,,-1.9893487,113.9532855,https://maps.google.com/?cid=0x0:0xdd2d66915fc2a0ef,
hardware store,Toko Bahan Bangunan,ARA WOOD'S,"JL. Tingang, Induk Ruko No.03, Kota Palangka Raya, Kalimantan Tengah 73112","Induk Ruko No.03, Kota Palangka Raya",KALIMANTAN TENGAH,73112.0,Indonesia, 082278420443,,,-2.2011626,113.8793866,https://maps.google.com/?cid=0x0:0x5f884d8b4573685d,
hardware store,Toko Bahan Bangunan,Griya roster,"Jl. Bukit Kaminting X No.4, Palangka, Kec. Jekan Raya, Kota Palangka Raya, Kalimantan Tengah 73111","Palangka, Kec. Jekan Raya, Kota Palangka Raya",KALIMANTAN TENGAH,73111.0,Indonesia, 087798642957,,,-2.218696,113.8949547,https://maps.google.com/?cid=0x0:0xfebbf5b46f7cf762,
hardware store,,Harco Toko,"Pasar Baru, JL. Jawa 1, Pahandut, Palangkaraya, Kota Palangka Raya, Kalimantan Tengah 73111","JL. Jawa 1, Pahandut, Palangkaraya, Kota Palangka Raya",KALIMANTAN TENGAH,73111.0,Indonesia, 05363222796,,,-2.2075009,113.9356579,https://maps.google.com/?cid=0x0:0xc66ab49bb0a22bbc,
hardware store,Toko,Toko Bangunan Tiga Dara,"Jl. Bangas Permai Induk No.03, Menteng, Kec. Jekan Raya, Kota Palangka Raya, Kalimantan Tengah 73112","Menteng, Kec. Jekan Raya, Kota Palangka Raya",KALIMANTAN TENGAH,73112.0,Indonesia, 081396801512,,,-2.2443851,113.9189297,https://maps.google.com/?cid=0x0:0x46bb1495d10f56ee,
hardware store,Industri Pasir,Tumpukan pasir sungai,"Pasar sabtu, Kec. Maliku, Kabupaten Pulang Pisau, Kalimantan Tengah","Kabupaten Pulang Pisau, Kalimantan Tengah",KALIMANTAN TENGAH,,Indonesia, 081235555975,,,-2.8900033,114.1772129,https://maps.google.com/?cid=0x0:0x2a580848c23f4a01,
hardware store,Layanan Transportasi,Galangan pasir,"Pasar sabtu, Kanamit, Kec. Kahayan Hilir, Kalimantan Tengah","Kabupaten Pulang Pisau, Kalimantan Tengah",KALIMANTAN TENGAH,,Indonesia, 081235555975,,,-2.8899568,114.177172,https://maps.google.com/?cid=0x0:0xaea0013349f90ba7,
hardware store,hardware store,Kec. Maliku,"Kabupaten Pulang Pisau, Kalimantan Tengah","Kabupaten Pulang Pisau, Kalimantan Tengah",KALIMANTAN TENGAH,,Indonesia,,,,-2.8753071,114.1160931,https://maps.google.com/?cid=0x0:0x4de75ea196d98929,
hardware store,Toko Bahan Bangunan,Tb Ifan 2 Maliku,"24RW+QP, Maliku Baru, Kec. Maliku, Kabupaten Pulang Pisau, Kalimantan Tengah","Kabupaten Pulang Pisau, Kalimantan Tengah",KALIMANTAN TENGAH,,Indonesia,,,,-2.9581047,114.1468354,https://maps.google.com/?cid=0x0:0x4b3dc33dd0732594,
hardware store,Toko Bahan Bangunan,TB.RIZ-Q LOGAM,"23PX+74, Gandang, Kec. Maliku, Kabupaten Pulang Pisau, Kalimantan Tengah","Kabupaten Pulang Pisau, Kalimantan Tengah",KALIMANTAN TENGAH,,Indonesia,,,,-2.964272,114.097854,https://maps.google.com/?cid=0x0:0xc264ee2b8cd3ea46,
hardware store,Toko Bahan Bangunan,TB. Sumber Material,"Jl. Poros, Tahai Baru, Kec. Maliku, Kabupaten Pulang Pisau, Kalimantan Tengah 73516","Tahai Baru, Kec. Maliku, Kabupaten Pulang Pisau",KALIMANTAN TENGAH,73516.0,Indonesia, 082153483345,,,-3.0511443,114.212787,https://maps.google.com/?cid=0x0:0x49340411d887bd3,
hardware store,Kantor Perusahaan,TB. Sinar Abadi,"X4R9+3J2, Kantan Muara, Kec. Pandih Batu, Kabupaten Pulang Pisau, Kalimantan Tengah 74871","Kantan Muara, Kec. Pandih Batu, Kabupaten Pulang Pisau",KALIMANTAN TENGAH,74871.0,Indonesia, 085247170525,,,-3.0098738,114.1190156,https://maps.google.com/?cid=0x0:0x6c0ad1e145d8b432,
hardware store,Toko Perlengkapan Rumah,VITA FROZEN FOOD,"jln pakis 3, Sidodadi, Kec. Maliku, Kabupaten Pulang Pisau, Kalimantan Tengah 74873","Sidodadi, Kec. Maliku, Kabupaten Pulang Pisau",KALIMANTAN TENGAH,74873.0,Indonesia, 085828219457,,,-2.9192923,114.1080762,https://maps.google.com/?cid=0x0:0xdb6d39f7d8546fc0,
hardware store,Toko bahan makanan,FOTOCOPY REZKY ANUM,"2578+RPQ, Badirih, Kec. Maliku, Kabupaten Pulang Pisau, Kalimantan Tengah 74871","Badirih, Kec. Maliku, Kabupaten Pulang Pisau",KALIMANTAN TENGAH,74871.0,Indonesia, 082256303423,,,-2.9854056,114.1668587,https://maps.google.com/?cid=0x0:0xe1f5521814268b51,
hardware store,Toko bahan makanan,"Toko HAFIZAH, jln. Cilik riwut, maliku baru, kec maliku, pulang pisau, kal teng","25R4+CF7, Jln. Cilik Riwut, Maliku Baru, Kec. Maliku, Kabupaten Pulang Pisau, Kalimantan Tengah 73571","Jln. Cilik Riwut, Maliku Baru, Kec. Maliku, Kabupaten Pulang Pisau",KALIMANTAN TENGAH,73571.0,Indonesia, 085222097274,,,-2.9589522,114.1561676,https://maps.google.com/?cid=0x0:0xb8e064d37a687df2,
hardware store,Toko Bahan Bangunan,TB. KHAIRUNNISA,"46V7+8C6, Jl. Trans - Kalimantan, Mintin, Kec. Kahayan Hilir, Kabupaten Pulang Pisau, Kalimantan Tengah 74873","Jl. Trans - Kalimantan, Mintin, Kec. Kahayan Hilir, Kabupaten Pulang Pisau",KALIMANTAN TENGAH,74873.0,Indonesia, 085248489984,,,-2.8567,114.2135084,https://maps.google.com/?cid=0x0:0x567136827ee1e54b,
hardware store,Toko Bahan Bangunan,UD. Berkat Usaha (H. Bahrian),"Tahai Jaya, Kec. Maliku, Kabupaten Pulang Pisau, Kalimantan Tengah","Kabupaten Pulang Pisau, Kalimantan Tengah",KALIMANTAN TENGAH,,Indonesia, 085252889086,,,-3.0229757,114.1847668,https://maps.google.com/?cid=0x0:0xec746fa61c1d9e53,
hardware store,Toko Perlengkapan Rumah,Toko Bangunan Karya Niaga,"Jalan Poros Pangkoh 3 Blok B Kanan, Pangkoh Hulu, Kec. Pandih Batu, Kabupaten Pulang Pisau, Kalimantan Tengah 74871","Pangkoh Hulu, Kec. Pandih Batu, Kabupaten Pulang Pisau",KALIMANTAN TENGAH,74871.0,Indonesia, 081348934606,,,-3.0423621,114.1617709,https://maps.google.com/?cid=0x0:0x1f860cfcceeff65f,
hardware store,Toko Bahan Bangunan,TB. H. Ibas,"25V2+M53, Jl. Tjilik Riwut, Maliku Baru, Kec. Maliku, Kabupaten Pulang Pisau, Kalimantan Tengah 74871","Jl. Tjilik Riwut, Maliku Baru, Kec. Maliku, Kabupaten Pulang Pisau",KALIMANTAN TENGAH,74871.0,Indonesia, 081348357524,,,-2.9558573,114.1504366,https://maps.google.com/?cid=0x0:0x64f6470c804ca99f,
hardware store,Toko Bahan Bangunan,Quality Hardware,"123 N Broadway St, Tecumseh, OK 74873, Amerika Serikat","Tecumseh, OK",KALIMANTAN TENGAH,74873.0,Indonesia, +14055983751,,,35.2585682,-96.9366023,https://maps.google.com/?cid=0x0:0x21b7b980f60c4ec0,
hardware store,Toko Bahan Bangunan,McLoud Hardware,"124 N Main St, McLoud, OK 74851, Amerika Serikat","McLoud, OK",KALIMANTAN TENGAH,74851.0,Indonesia, +14059882989,,,35.4368573,-97.0916421,https://maps.google.com/?cid=0x0:0x876201fae7cd862f,
hardware store,Kantor Perusahaan,TB. Sinar Abadi,"X4R9+3J2, Kantan Muara, Kec. Pandih Batu, Kabupaten Pulang Pisau, Kalimantan Tengah 74871","Kantan Muara, Kec. Pandih Batu, Kabupaten Pulang Pisau",KALIMANTAN TENGAH,74871.0,Indonesia, 085247170525,,,-3.0098738,114.1190156,https://maps.google.com/?cid=0x0:0x6c0ad1e145d8b432,
hardware store,Kantor Perusahaan,CV. SINAR ABADI PANGKOH TIGA,"X4R9+3J2, Kantan Muara, Kec. Pandih Batu, Kabupaten Pulang Pisau, Kalimantan Tengah 74871","Kantan Muara, Kec. Pandih Batu, Kabupaten Pulang Pisau",KALIMANTAN TENGAH,74871.0,Indonesia,,,,-3.0098647,114.1190151,https://maps.google.com/?cid=0x0:0x892cfcdbc282f3af,
hardware store,hardware store,Kalimantan Tengah 74874,"Kabupaten Pulang Pisau, Kalimantan Tengah","Kabupaten Pulang Pisau, Kalimantan Tengah",KALIMANTAN TENGAH,,Indonesia,,,,-2.613866,113.8584737,https://maps.google.com/?cid=0x0:0x9a5d3171805f893d,
hardware store,Toko Perlengkapan Rumah,MR.DIY,"Ruko, Jl. G. Obos, Menteng, Kec. Jekan Raya, Kalimantan Tengah 74874","Jl. G. Obos, Menteng, Kec. Jekan Raya",KALIMANTAN TENGAH,74874.0,Indonesia, 02130022789,,,-2.2255315,113.9010391,https://maps.google.com/?cid=0x0:0xac45a7c5cc44f9aa,
hardware store,Toko Perlengkapan Rumah,MR D.I.Y.,"Lt. GF, Palangkaraya Mall (Palma, Jl. Tjilik Riwut No.KM 1, Palangka, Kec. Jekan Raya, Kota Palangka Raya, Kalimantan Tengah 74874","Palangkaraya Mall (Palma, Jl. Tjilik Riwut No.KM 1, Palangka, Kec. Jekan Raya, Kota Palangka Raya",KALIMANTAN TENGAH,74874.0,Indonesia, 02130022789,,,-2.2064682,113.9151432,https://maps.google.com/?cid=0x0:0x2c970adc7549c6da,
hardware store,hardware store,TB. SUMBER REJEKI (UTAMA),"Jl. RTA Milono No.KM 7, Menteng, Kec. Jekan Raya, Kota Palangka Raya, Kalimantan Tengah 74874","Menteng, Kec. Jekan Raya, Kota Palangka Raya",KALIMANTAN TENGAH,74874.0,Indonesia, 081352616064,,,-2.2682124,113.9192209,https://maps.google.com/?cid=0x0:0xc9f7d1bff39038e6,
hardware store,Toko Bahan Bangunan,TB.MEKAR JAYA ABADI,"Jl. Temanggung Tilung induk, Menteng, Kec. Jekan Raya, Kota Palangka Raya, Kalimantan Tengah 74874","Menteng, Kec. Jekan Raya, Kota Palangka Raya",KALIMANTAN TENGAH,74874.0,Indonesia, 081350207693,,,-2.2296259,113.9181293,https://maps.google.com/?cid=0x0:0x63c5b6f2e597caed,
hardware store,hardware store,Toko bangunan lancar jaya,"Jl. Adonis Samad Jl. Ratu Zaleha No.samping, Langkai, Kec. Pahandut, Kota Palangka Raya, Kalimantan Tengah 73111","Langkai, Kec. Pahandut, Kota Palangka Raya",KALIMANTAN TENGAH,73111.0,Indonesia,,,,-2.249605,113.9262318,https://maps.google.com/?cid=0x0:0x49bd06a38823dbfa,
hardware store,Toko Bahan Bangunan,TB Berkah Azhar,"Jalan Bukit Rawi (Palangkaraya, Buntok, Kec. Pahandut, Kota Palangka Raya, Kalimantan Tengah 73111","Buntok, Kec. Pahandut, Kota Palangka Raya",KALIMANTAN TENGAH,73111.0,Indonesia, 089691627436,,,-2.1925186,113.9482172,https://maps.google.com/?cid=0x0:0xbb4a2c3966ef1e41,
hardware store,Toko Perlengkapan Rumah,Toko Budi Annor,"Jl Tjilik Riwut Km 1,5 Blok L No 5, Jekan Raya, Palangka, Kec. Jekan Raya, Kota Palangka Raya, Kalimantan Tengah 74874","Jekan Raya, Palangka, Kec. Jekan Raya, Kota Palangka Raya",KALIMANTAN TENGAH,74874.0,Indonesia, 081312342558,,,-2.1994246,113.9084048,https://maps.google.com/?cid=0x0:0x292bcdc14a8ffde7,
hardware store,Toko Bahan Bangunan,Borneo Raya Cipta,"Jl. Menteng Raya No.I, Menteng, Kec. Jekan Raya, Kota Palangka Raya, Kalimantan Tengah 74874","Menteng, Kec. Jekan Raya, Kota Palangka Raya",KALIMANTAN TENGAH,74874.0,Indonesia, 081396801512,,,-2.2355202,113.9181017,https://maps.google.com/?cid=0x0:0x283a7c29902e4003,
hardware store,Toko Bahan Bangunan,Gemilang Pusat Bahan Bangunan RTA Milono Palangka Raya,"Jl. RTA Milono, Menteng, Kec. Jekan Raya, Kota Palangka Raya, Kalimantan Tengah 74874","Menteng, Kec. Jekan Raya, Kota Palangka Raya",KALIMANTAN TENGAH,74874.0,Indonesia, 081250170853,,,-2.240658,113.919759,https://maps.google.com/?cid=0x0:0xd0ff11a63ca3103f,
hardware store,Toko,Toko Bangunan Tiga Dara,"Jl. Bangas Permai Induk No.03, Menteng, Kec. Jekan Raya, Kota Palangka Raya, Kalimantan Tengah 73112","Menteng, Kec. Jekan Raya, Kota Palangka Raya",KALIMANTAN TENGAH,73112.0,Indonesia, 081396801512,,,-2.2443851,113.9189297,https://maps.google.com/?cid=0x0:0x46bb1495d10f56ee,
hardware store,Toko Bahan Bangunan,Toko Sumber Urip,"Jl. Halmahera No.47, Pahandut, Kec. Pahandut, Kota Palangka Raya, Kalimantan Tengah 73111","Pahandut, Kec. Pahandut, Kota Palangka Raya",KALIMANTAN TENGAH,73111.0,Indonesia, 082358564000,,,-2.2068086,113.9372359,https://maps.google.com/?cid=0x0:0x5c57e83959a73eb7,
hardware store,Toko Elektronik,Toko Putra Jaya,"Jl. Rajawali, Palangka, Kec. Jekan Raya, Kota Palangka Raya, Kalimantan Tengah 74874","Palangka, Kec. Jekan Raya, Kota Palangka Raya",KALIMANTAN TENGAH,74874.0,Indonesia, 081396801512,,,-2.1945683,113.895115,https://maps.google.com/?cid=0x0:0xc2a5b77ea10a4fb4,
hardware store,Toko bahan makanan,Gemilang Pusat Bahan Bangunan Tjilik Riwut,"Jl. Tjilik Riwut No.KM. 8, RT.12/RW.14, Bukit Tunggal, Kec. Jekan Raya, Kota Palangka Raya, Kalimantan Tengah 73112","RT.12/RW.14, Bukit Tunggal, Kec. Jekan Raya, Kota Palangka Raya",KALIMANTAN TENGAH,73112.0,Indonesia, 082150615528,,,-2.1697497,113.8584061,https://maps.google.com/?cid=0x0:0xe3824ddbb790492,
hardware store,Toko Lampu,Toko Sumber Mulia,"Jl. K.S. Tubun No.39, Langkai, Kec. Pahandut, Kota Palangka Raya, Kalimantan Tengah 73111","Langkai, Kec. Pahandut, Kota Palangka Raya",KALIMANTAN TENGAH,73111.0,Indonesia, 082173389240,,,-2.2124228,113.9293654,https://maps.google.com/?cid=0x0:0x88b3e585b424f114,
hardware store,Pemasok Bahan Bangunan,UD. Lestari Jaya,"Jl. Tingang Induk No.199, Bukit Tunggal, Kec. Jekan Raya, Kota Palangka Raya, Kalimantan Tengah 74874","Bukit Tunggal, Kec. Jekan Raya, Kota Palangka Raya",KALIMANTAN TENGAH,74874.0,Indonesia,,,,-2.1939437,113.8886487,https://maps.google.com/?cid=0x0:0xb4b156eadac18aae,
hardware store,Toko,Maju Jaya,"Jl. Wortel, Panarung, Kec. Pahandut, Kota Palangka Raya, Kalimantan Tengah 74874","Panarung, Kec. Pahandut, Kota Palangka Raya",KALIMANTAN TENGAH,74874.0,Indonesia, 0895342978318,,,-2.2367642,113.9318735,https://maps.google.com/?cid=0x0:0x9ae4b2427d37a8d9,
hardware store,Toko Bahan Bangunan,istana plapon Palangkaraya,"jln.simpei Karuhei induk no.05 blok1,2, Kota Palangka Raya, Kalimantan Tengah 73111",Kota Palangka Raya,KALIMANTAN TENGAH,73111.0,Indonesia, 082164465822,,,-2.2202776,113.8606235,https://maps.google.com/?cid=0x0:0x1cead9984927465c,
hardware store,Distributor Baja,BAJA GUNA ABADI TEMANGGUNG TILUNG,"Jl. Temanggung Tilung, Menteng, Kec. Jekan Raya, Kota Palangka Raya, Kalimantan Tengah 74874","Menteng, Kec. Jekan Raya, Kota Palangka Raya",KALIMANTAN TENGAH,74874.0,Indonesia, 083833052031,,,-2.2352488,113.9136295,https://maps.google.com/?cid=0x0:0xc8a64a175c71dace,
hardware store,Toko Bahan Bangunan,Toko WIRA NIAGA,"PWC9+PJW, Jl. RTA Milono, Kereng Bangkirai, Kec. Sebangau, Kota Palangka Raya, Kalimantan Tengah 74874","Jl. RTA Milono, Kereng Bangkirai, Kec. Sebangau, Kota Palangka Raya",KALIMANTAN TENGAH,74874.0,Indonesia, 085249268482,,,-2.2781433,113.9190887,https://maps.google.com/?cid=0x0:0xdf5b97d8b3b371f6,
hardware store,Toko,Toko Bangunan Berkat Raya,"Jalan Bukit Raya RT.OI, Palangka, Kec. Jekan Raya, Kota Palangka Raya, Kalimantan Tengah 74874","Palangka, Kec. Jekan Raya, Kota Palangka Raya",KALIMANTAN TENGAH,74874.0,Indonesia, 0817210881,,,-2.2044373,113.8963593,https://maps.google.com/?cid=0x0:0xb3d6509aa78552f1,
hardware store,Toko Perlengkapan Rumah,MR.DIY,"Jl. Rajawali Induk, Bukit Tunggal, Kec. Jekan Raya, Kota Palangka Raya, Kalimantan Tengah 74874","Bukit Tunggal, Kec. Jekan Raya, Kota Palangka Raya",KALIMANTAN TENGAH,74874.0,Indonesia, 082176260100,,,-2.1873455,113.8890232,https://maps.google.com/?cid=0x0:0xbb2fddab0a324d83,
