Category,Real Category,Business Name,Address,City,State,Postal Code,Country,Phone,Email,Website,Latitude,Longitude,Map Link,Details Link
mall,mall,Kalimantan Tengah 74863,"Kabupaten Gunung MAS, Kalimantan Tengah","Kabupaten Gunung MAS, Kalimantan Tengah",KALIMANTAN TENGAH,,Indonesia,,,,-1.496827,113.9060624,https://maps.google.com/?cid=0x0:0xf3a5fde9497362af,
mall,Toko bahan makanan,Kios virna,"8WJP+C27, Jl. SAKA PERMAI, Pahawan, Kec. Banama Tingang, Kabupaten Pulang Pisau, Kalimantan Tengah 74863","Jl. SAKA PERMAI, Pahawan, Kec. Banama Tingang, Kabupaten Pulang Pisau",KALIMANTAN TENGAH,74863.0,Indonesia,,,,-1.6689589,113.9350422,https://maps.google.com/?cid=0x0:0x1692645989370b6,
mall,Toko,Toko Abah,"9WQJ+732, Jl. Palangka Raya - Kuala Kurun, Kuala Kurun, Kec. Banama Tingang, Kabupaten Pulang Pisau, Kalimantan Tengah 74863","Jl. Palangka Raya - Kuala Kurun, Kuala Kurun, Kec. Banama Tingang, Kabupaten Pulang Pisau",KALIMANTAN TENGAH,74863.0,Indonesia, 082350622530,,,-1.611869,113.930129,https://maps.google.com/?cid=0x0:0x29d9369a87e87a6d,
mall,Pusat Perbelanjaan,Warung Mama Ufik Amuntai,"9WCP+3RH, Bawan, Kec. Banama Tingang, Kabupaten Pulang Pisau, Kalimantan Tengah 74863","Bawan, Kec. Banama Tingang, Kabupaten Pulang Pisau",KALIMANTAN TENGAH,74863.0,Indonesia, 081255006695,,,-1.6298147,113.9371148,https://maps.google.com/?cid=0x0:0xffdcaeace597ede4,
mall,mall,Toko Widiw,"Jln. Lintas Jl. Palangka Raya - Kuala Kurun, Bawan, Kec. Banama Tingang, Kabupaten Pulang Pisau, Kalimantan Tengah 74863","Bawan, Kec. Banama Tingang, Kabupaten Pulang Pisau",KALIMANTAN TENGAH,74863.0,Indonesia,,,,-1.6220915,113.9347882,https://maps.google.com/?cid=0x0:0x192b90b6fca195d0,
mall,Bengkel Sepeda Motor,Bengkel Zulfa/ikhrom(menjual Bhan Mkanan Dan Bahan Bangunan),"9W5R+P77, Goha, Kec. Banama Tingang, Kabupaten Pulang Pisau, Kalimantan Tengah 74863","Goha, Kec. Banama Tingang, Kabupaten Pulang Pisau",KALIMANTAN TENGAH,74863.0,Indonesia, 082153387116,,,-1.6407113,113.9406832,https://maps.google.com/?cid=0x0:0x8c3214742c9a841d,
mall,Pusat Perbelanjaan,UD Nana,"JWC6+J9G, Tumbang Empas, Kec. Mihing Raya, Kabupaten Gunung MAS, Kalimantan Tengah 74863","Tumbang Empas, Kec. Mihing Raya, Kabupaten Gunung MAS",KALIMANTAN TENGAH,74863.0,Indonesia, 085249196222,,,-1.3784298,113.9109665,https://maps.google.com/?cid=0x0:0xa6d5ac3b548c4c00,
mall,Pusat Perbelanjaan,Toko Rina,"MWFH+WFX, Tumbang Danau, Kec. Mihing Raya, Kabupaten Gunung MAS, Kalimantan Tengah 74863","Tumbang Danau, Kec. Mihing Raya, Kabupaten Gunung MAS",KALIMANTAN TENGAH,74863.0,Indonesia, 082149542729,,,-1.3250829,113.9284272,https://maps.google.com/?cid=0x0:0xcb7825b5d1c49bca,
mall,Pusat Perbelanjaan,UD SUSAN,"JWP8+9WV, Rangan Tate, Kec. Mihing Raya, Kabupaten Gunung MAS, Kalimantan Tengah 74863","Rangan Tate, Kec. Mihing Raya, Kabupaten Gunung MAS",KALIMANTAN TENGAH,74863.0,Indonesia, 082351371801,,,-1.3640185,113.9173043,https://maps.google.com/?cid=0x0:0xb55fa90badcddfea,
mall,Toko,Toko Arziki,"FW2C+WRQ Toko Arziki tiga pintu warna biru. BRI Link, jalan Lintas Palangkaraya RT.8, Desa Tangkahen, Kec. Banama Tingang, Kabupaten Pulang Pisau, Kalimantan Tengah 74863","jalan Lintas Palangkaraya RT.8, Desa Tangkahen, Kec. Banama Tingang, Kabupaten Pulang Pisau",KALIMANTAN TENGAH,74863.0,Indonesia,,,,-1.5476646,113.9221238,https://maps.google.com/?cid=0x0:0x43d4829d746dc405,
mall,Pusat Perbelanjaan,UD. DONY,"JWXC+863, Jl. Palangka Raya - Kuala Kurun, Kampuri, Kec. Mihing Raya, Kabupaten Gunung MAS, Kalimantan Tengah 74863","Jl. Palangka Raya - Kuala Kurun, Kampuri, Kec. Mihing Raya, Kabupaten Gunung MAS",KALIMANTAN TENGAH,74863.0,Indonesia, 081350544126,,,-1.351747,113.9205348,https://maps.google.com/?cid=0x0:0xc48c287d8dc5f99e,
mall,Kantor Pemerintahan Daerah,Pasar Desa Tewai Baru,"GWP9+2H4, Jl. Tewai Baru, Tewai Baru, Kec. Sepang, Kabupaten Gunung MAS, Kalimantan Tengah 74863","Jl. Tewai Baru, Tewai Baru, Kec. Sepang, Kabupaten Gunung MAS",KALIMANTAN TENGAH,74863.0,Indonesia,,,,-1.464985,113.9189523,https://maps.google.com/?cid=0x0:0x870226e08c9c4dc6,
mall,Toko,Toko Sinar MULIA,"GV5H+HJ8, Sepang Simin, Kec. Sepang, Kabupaten Gunung MAS, Kalimantan Tengah 74863","Sepang Simin, Kec. Sepang, Kabupaten Gunung MAS",KALIMANTAN TENGAH,74863.0,Indonesia,,,,-1.4910985,113.8790811,https://maps.google.com/?cid=0x0:0x91d108b7bf441cc6,
mall,Pusat Perbelanjaan,Warung mbak nana,"GV58+F3G, Sepang Simin, Kec. Sepang, Kabupaten Gunung MAS, Kalimantan Tengah","Kabupaten Gunung MAS, Kalimantan Tengah",KALIMANTAN TENGAH,,Indonesia,,,,-1.4913124,113.8652086,https://maps.google.com/?cid=0x0:0x760f0f3a6fc7d5c3,
mall,Toko bahan makanan,Toko Linda,"MVXX+PX, Pilang Munduk, Kec. Kurun, Kabupaten Gunung MAS, Kalimantan Tengah 74571","Pilang Munduk, Kec. Kurun, Kabupaten Gunung MAS",KALIMANTAN TENGAH,74571.0,Indonesia,,,,-1.3006597,113.8999844,https://maps.google.com/?cid=0x0:0xb8a3e14c886aef6c,
mall,Pusat Perbelanjaan,TOKO DORY,"GW32+JW2, Sepang, Sepang Kota, Kec. Sepang, Kabupaten Gunung MAS, Kalimantan Tengah 74863","Sepang, Sepang Kota, Kec. Sepang, Kabupaten Gunung MAS",KALIMANTAN TENGAH,74863.0,Indonesia, 082351357296,,,-1.4959889,113.9022798,https://maps.google.com/?cid=0x0:0x900347c5a8bb43bf,
mall,Toko bahan makanan,Kios Pulah/Ridha 01,"FWQ8+H29, Jl. Trans Kalimantan, Sepang Kota, Kec. Sepang, Kabupaten Gunung MAS, Kalimantan Tengah 74863","Jl. Trans Kalimantan, Sepang Kota, Kec. Sepang, Kabupaten Gunung MAS",KALIMANTAN TENGAH,74863.0,Indonesia,,,,-1.5110974,113.9151049,https://maps.google.com/?cid=0x0:0x66ca361d05207763,
mall,Toko bahan makanan,BRILINK REFAN,"Desa tampelas, simin, Kec. Sepang, Kabupaten Gunung MAS, Kalimantan Tengah 74570","simin, Kec. Sepang, Kabupaten Gunung MAS",KALIMANTAN TENGAH,74570.0,Indonesia,,,,-1.5125377,113.9153999,https://maps.google.com/?cid=0x0:0x78fb0e3c49ba3ba8,
mall,Pusat Perbelanjaan,UD' NAUOVAL,"MVRP+67Q, Unnamed Road, Pilang Munduk, Kec. Kurun, Kabupaten Gunung MAS, Kalimantan Tengah 74571","Unnamed Road, Pilang Munduk, Kec. Kurun, Kabupaten Gunung MAS",KALIMANTAN TENGAH,74571.0,Indonesia,,,,-1.3094053,113.8857221,https://maps.google.com/?cid=0x0:0x96b880064a758915,
mall,Toko umum,Banama Mart,"9WJJ+WPP, Jl. Lintas Kuala Kurun, Bawan, Kec. Banama Tingang, Kabupaten Pulang Pisau, Kalimantan Tengah","Kabupaten Pulang Pisau, Kalimantan Tengah",KALIMANTAN TENGAH,,Indonesia,,,,-1.6176517,113.9318148,https://maps.google.com/?cid=0x0:0xd65cada7dba12c6d,
mall,mall,Kalimantan Tengah 74816,Kalimantan Tengah,Kalimantan Tengah,KALIMANTAN TENGAH,,Indonesia,,,,-2.3159685,114.2390498,https://maps.google.com/?cid=0x0:0x699fd2cedf1d1e7c,
mall,Pusat Perbelanjaan,PASAR RAKYAT HANDEP HAPAKAT,"7725+V79, Pulang Pisau, Kec. Kahayan Hilir, Kabupaten Pulang Pisau, Kalimantan Tengah 73564","Pulang Pisau, Kec. Kahayan Hilir, Kabupaten Pulang Pisau",KALIMANTAN TENGAH,73564.0,Indonesia,,,,-2.7478472,114.2582376,https://maps.google.com/?cid=0x0:0xcffed0ea8893a352,
mall,Pusat Perbelanjaan,Komplek Pasar Kamis (Pasar Mingguan),"67V4+R24, Pulang Pisau, Kec. Kahayan Hilir, Kabupaten Pulang Pisau, Kalimantan Tengah 73564","Pulang Pisau, Kec. Kahayan Hilir, Kabupaten Pulang Pisau",KALIMANTAN TENGAH,73564.0,Indonesia,,,,-2.7554864,114.2550672,https://maps.google.com/?cid=0x0:0x11426deb9cc0d6c5,
mall,Pusat Perbelanjaan,Toko Rudi,"96C7+443, Henda, Kec. Jabiren, Kabupaten Pulang Pisau, Kalimantan Tengah 74861","Henda, Kec. Jabiren, Kabupaten Pulang Pisau",KALIMANTAN TENGAH,74861.0,Indonesia, 082155680269,,,-2.6297419,114.2128087,https://maps.google.com/?cid=0x0:0x1bea03c37baa715a,
mall,Pusat Perbelanjaan,Palangkaraya Mall (Palma),"Jl. Tjilik Riwut No.1, Palangka, Kec. Jekan Raya, Kota Palangka Raya, Kalimantan Tengah 74874","Palangka, Kec. Jekan Raya, Kota Palangka Raya",KALIMANTAN TENGAH,74874.0,Indonesia,,,,-2.2065433,113.9154004,https://maps.google.com/?cid=0x0:0xe30705d17366c7e0,
mall,Toko,Dareani(Adilla colection),"F5GR+694, Jabiren, Kec. Jabiren, Kabupaten Pulang Pisau, Kalimantan Tengah","Kabupaten Pulang Pisau, Kalimantan Tengah",KALIMANTAN TENGAH,,Indonesia,,,,-2.5244957,114.1909625,https://maps.google.com/?cid=0x0:0xd7e91764a3f8334b,
mall,Restoran,Warung Putri Anggun,"87HG+3J6, Gohong, Kec. Kahayan Hilir, Kabupaten Pulang Pisau, Kalimantan Tengah 74816","Gohong, Kec. Kahayan Hilir, Kabupaten Pulang Pisau",KALIMANTAN TENGAH,74816.0,Indonesia,,,,-2.6723271,114.2765244,https://maps.google.com/?cid=0x0:0xb618f66b7075eb28,
mall,Pusat Perbelanjaan,Pasar Patanak,"Pulang Pisau, Kec. Kahayan Hilir, Kabupaten Pulang Pisau, Kalimantan Tengah 73564","Kec. Kahayan Hilir, Kabupaten Pulang Pisau",KALIMANTAN TENGAH,73564.0,Indonesia, 085705921217,,,-2.7473515,114.258468,https://maps.google.com/?cid=0x0:0x50f5a3bbdaf1624d,
mall,Toko Pakaian Wanita,Mama ayub,"7725+3VQ, Jl. Unggul, Pulang Pisau, Kec. Kahayan Hilir, Kabupaten Pulang Pisau, Kalimantan Tengah 73564","Jl. Unggul, Pulang Pisau, Kec. Kahayan Hilir, Kabupaten Pulang Pisau",KALIMANTAN TENGAH,73564.0,Indonesia, 085332366636,,,-2.7497862,114.2597393,https://maps.google.com/?cid=0x0:0x80fd5a5e207313fc,
mall,,ponsel Hafizi,"Jl. Tingang Menteng, Pulang Pisau, Kec. Kahayan Hilir, Kabupaten Pulang Pisau, Kalimantan Tengah 73564","Pulang Pisau, Kec. Kahayan Hilir, Kabupaten Pulang Pisau",KALIMANTAN TENGAH,73564.0,Indonesia, 081349260044,,,-2.7477618,114.2582497,https://maps.google.com/?cid=0x0:0x4bb00635603c130c,
mall,Toko bahan makanan,loket nova,"77C9+3JW, Jl. Tajahan Antang, Bereng, Kec. Kahayan Hilir, Kabupaten Pulang Pisau, Kalimantan Tengah 73564","Jl. Tajahan Antang, Bereng, Kec. Kahayan Hilir, Kabupaten Pulang Pisau",KALIMANTAN TENGAH,73564.0,Indonesia, 083874617766,,,-2.7297628,114.2690883,https://maps.google.com/?cid=0x0:0x7f150adde2f14979,
mall,Toko,Warung Delvin,"7763+PF8, Kalawa, Kec. Kahayan Hilir, Kabupaten Pulang Pisau, Kalimantan Tengah 73564","Kalawa, Kec. Kahayan Hilir, Kabupaten Pulang Pisau",KALIMANTAN TENGAH,73564.0,Indonesia, 081256175040,,,-2.7389901,114.2541839,https://maps.google.com/?cid=0x0:0x2a1326ce6b309b4a,
mall,Balai masyarakat,PERPUSDES HENDA,"Henda, Kec. Jabiren, Kabupaten Pulang Pisau, Kalimantan Tengah 74861","Kec. Jabiren, Kabupaten Pulang Pisau",KALIMANTAN TENGAH,74861.0,Indonesia, 085249771814,,,-2.6071191,114.2144001,https://maps.google.com/?cid=0x0:0x346347e04c7a659e,
mall,Pusat Perbelanjaan,Toko Nabila,"7735+26M, Pulang Pisau, Kec. Kahayan Hilir, Kabupaten Pulang Pisau, Kalimantan Tengah 73564","Pulang Pisau, Kec. Kahayan Hilir, Kabupaten Pulang Pisau",KALIMANTAN TENGAH,73564.0,Indonesia, 081251888899,,,-2.747415,114.25804,https://maps.google.com/?cid=0x0:0x7d301d37f8d23270,
mall,Pusat Perbelanjaan,Duta Mall Palangka Raya,"QW2F+G58, Langkai, Kec. Pahandut, Kota Palangka Raya, Kalimantan Tengah 74874","Langkai, Kec. Pahandut, Kota Palangka Raya",KALIMANTAN TENGAH,74874.0,Indonesia,,,,-2.248704,113.922958,https://maps.google.com/?cid=0x0:0xd4fe13501def807f,
mall,Toko,Warung Aqila Jl Mahir Mahar,"P25M+PHQ, Tj. Taruna, Kec. Jabiren, Kabupaten Pulang Pisau, Kalimantan Tengah","Kabupaten Pulang Pisau, Kalimantan Tengah",KALIMANTAN TENGAH,,Indonesia,,,,-2.290655,114.033992,https://maps.google.com/?cid=0x0:0x140dc5f308ae61ef,
mall,Toko,Toko surya agung,"67JM+M5P, Jl. Trans - Kalimantan, Anjir Pulang Pisau, Kec. Kahayan Hilir, Kabupaten Pulang Pisau, Kalimantan Tengah 73564","Jl. Trans - Kalimantan, Anjir Pulang Pisau, Kec. Kahayan Hilir, Kabupaten Pulang Pisau",KALIMANTAN TENGAH,73564.0,Indonesia, 081250058544,,,-2.768289,114.28294,https://maps.google.com/?cid=0x0:0x95076e7710ac34ce,
mall,Kerajinan,Anyaman Rotan Kelompok Pahari,"879M+82R, Gohong, Kec. Kahayan Hilir, Kabupaten Pulang Pisau, Kalimantan Tengah 74816","Gohong, Kec. Kahayan Hilir, Kabupaten Pulang Pisau",KALIMANTAN TENGAH,74816.0,Indonesia,,,,-2.6813689,114.2827161,https://maps.google.com/?cid=0x0:0x565aa088bf28dcfd,
mall,Toko,H. Udin Helm,"7725+J6Q, Jl. Tingang Menteng, Pulang Pisau, Kec. Kahayan Hilir, Kabupaten Pulang Pisau, Kalimantan Tengah 73564","Jl. Tingang Menteng, Pulang Pisau, Kec. Kahayan Hilir, Kabupaten Pulang Pisau",KALIMANTAN TENGAH,73564.0,Indonesia,,,,-2.7484134,114.258099,https://maps.google.com/?cid=0x0:0xc3c86d33cd44f1d8,
mall,Tempat Cukur Rambut,Pangkas rambut ucu,"67RR+83F, Anjir Pulang Pisau, Kec. Kahayan Hilir, Kabupaten Pulang Pisau, Kalimantan Tengah 73564","Anjir Pulang Pisau, Kec. Kahayan Hilir, Kabupaten Pulang Pisau",KALIMANTAN TENGAH,73564.0,Indonesia, 085245141718,,,-2.7591942,114.2901845,https://maps.google.com/?cid=0x0:0x91cdaaa900d2bdf4,
mall,Minimarket,Indomaret Jabiren,"F5GR+5CV, Jabiren, Kec. Jabiren, Kabupaten Pulang Pisau, Kalimantan Tengah 74812","Jabiren, Kec. Jabiren, Kabupaten Pulang Pisau",KALIMANTAN TENGAH,74812.0,Indonesia,,,,-2.5244728,114.1912988,https://maps.google.com/?cid=0x0:0x282ca84c160a398b,
mall,Pemakaman,Pasar Jabiren,"F5GR+FW2, Unnamed Road, Jabiren, Kec. Jabiren, Kabupaten Pulang Pisau, Kalimantan Tengah 74812","Unnamed Road, Jabiren, Kec. Jabiren, Kabupaten Pulang Pisau",KALIMANTAN TENGAH,74812.0,Indonesia,,,,-2.5238589,114.1922737,https://maps.google.com/?cid=0x0:0x7ce8450ea67dffe,
mall,Minimarket,Alfamart jabiren,"F5JR+C58, Jl. Trans - Kalimantan, Jabiren, Kec. Jabiren, Kabupaten Pulang Pisau, Kalimantan Tengah 74812","Jl. Trans - Kalimantan, Jabiren, Kec. Jabiren, Kabupaten Pulang Pisau",KALIMANTAN TENGAH,74812.0,Indonesia,,,,-2.5193093,114.1908843,https://maps.google.com/?cid=0x0:0xf1d27603a458d160,
mall,Pusat Perbelanjaan,Palangkaraya Mall (Palma),"Jl. Tjilik Riwut No.1, Palangka, Kec. Jekan Raya, Kota Palangka Raya, Kalimantan Tengah 74874","Palangka, Kec. Jekan Raya, Kota Palangka Raya",KALIMANTAN TENGAH,74874.0,Indonesia,,,,-2.2065433,113.9154004,https://maps.google.com/?cid=0x0:0xe30705d17366c7e0,
mall,mall,Kalimantan Tengah 74812,"Kec. Kahayan Hilir, Kabupaten Pulang Pisau, Kalimantan Tengah","Kabupaten Pulang Pisau, Kalimantan Tengah",KALIMANTAN TENGAH,,Indonesia,,,,-2.5166535,114.1677159,https://maps.google.com/?cid=0x0:0x6dbda426ddb6f3ad,
mall,Toko,Tanjung Raya,"Tj. Sanggalang, Kec. Kahayan Tengah, Kabupaten Pulang Pisau, Kalimantan Tengah 74874","Kec. Kahayan Tengah, Kabupaten Pulang Pisau",KALIMANTAN TENGAH,74874.0,Indonesia,,,,-2.1512697,113.9494839,https://maps.google.com/?cid=0x0:0xe1f3d598202b7daf,
mall,Pusat Perbelanjaan,PASAR RAKYAT HANDEP HAPAKAT,"7725+V79, Pulang Pisau, Kec. Kahayan Hilir, Kabupaten Pulang Pisau, Kalimantan Tengah 73564","Pulang Pisau, Kec. Kahayan Hilir, Kabupaten Pulang Pisau",KALIMANTAN TENGAH,73564.0,Indonesia,,,,-2.7478472,114.2582376,https://maps.google.com/?cid=0x0:0xcffed0ea8893a352,
mall,Pusat Perbelanjaan,Toko berkat rahmat,"F5GV+93V, Jln jaya pasar, Jabiren, Kec. Jabiren, Kabupaten Pulang Pisau, Kalimantan Tengah 74812","Jln jaya pasar, Jabiren, Kec. Jabiren, Kabupaten Pulang Pisau",KALIMANTAN TENGAH,74812.0,Indonesia,,,,-2.5240187,114.1926801,https://maps.google.com/?cid=0x0:0xb39ce3ca8ab4d141,
mall,Toko,Dareani(Adilla colection),"F5GR+694, Jabiren, Kec. Jabiren, Kabupaten Pulang Pisau, Kalimantan Tengah","Kabupaten Pulang Pisau, Kalimantan Tengah",KALIMANTAN TENGAH,,Indonesia,,,,-2.5244957,114.1909625,https://maps.google.com/?cid=0x0:0xd7e91764a3f8334b,
mall,Restoran,Warung Putri Anggun,"87HG+3J6, Gohong, Kec. Kahayan Hilir, Kabupaten Pulang Pisau, Kalimantan Tengah 74816","Gohong, Kec. Kahayan Hilir, Kabupaten Pulang Pisau",KALIMANTAN TENGAH,74816.0,Indonesia,,,,-2.6723271,114.2765244,https://maps.google.com/?cid=0x0:0xb618f66b7075eb28,
mall,Pusat Perbelanjaan,Pasar Patanak,"Pulang Pisau, Kec. Kahayan Hilir, Kabupaten Pulang Pisau, Kalimantan Tengah 73564","Kec. Kahayan Hilir, Kabupaten Pulang Pisau",KALIMANTAN TENGAH,73564.0,Indonesia, 085705921217,,,-2.7473515,114.258468,https://maps.google.com/?cid=0x0:0x50f5a3bbdaf1624d,
mall,Salon Kecantikan,Salon Family,"XXV2+8FX, Jl. Palangkaraya - Buntok, Petuk Liti, Kec. Kahayan Tengah, Kabupaten Pulang Pisau, Kalimantan Tengah 73111","Jl. Palangkaraya - Buntok, Petuk Liti, Kec. Kahayan Tengah, Kabupaten Pulang Pisau",KALIMANTAN TENGAH,73111.0,Indonesia, 081254824808,,,-2.0066491,113.9512303,https://maps.google.com/?cid=0x0:0xde44e119b0cf2f15,
mall,Toko,Warung Delvin,"7763+PF8, Kalawa, Kec. Kahayan Hilir, Kabupaten Pulang Pisau, Kalimantan Tengah 73564","Kalawa, Kec. Kahayan Hilir, Kabupaten Pulang Pisau",KALIMANTAN TENGAH,73564.0,Indonesia, 081256175040,,,-2.7389901,114.2541839,https://maps.google.com/?cid=0x0:0x2a1326ce6b309b4a,
mall,Toko bahan makanan,loket nova,"77C9+3JW, Jl. Tajahan Antang, Bereng, Kec. Kahayan Hilir, Kabupaten Pulang Pisau, Kalimantan Tengah 73564","Jl. Tajahan Antang, Bereng, Kec. Kahayan Hilir, Kabupaten Pulang Pisau",KALIMANTAN TENGAH,73564.0,Indonesia, 083874617766,,,-2.7297628,114.2690883,https://maps.google.com/?cid=0x0:0x7f150adde2f14979,
mall,Toko Pakaian Wanita,Mama ayub,"7725+3VQ, Jl. Unggul, Pulang Pisau, Kec. Kahayan Hilir, Kabupaten Pulang Pisau, Kalimantan Tengah 73564","Jl. Unggul, Pulang Pisau, Kec. Kahayan Hilir, Kabupaten Pulang Pisau",KALIMANTAN TENGAH,73564.0,Indonesia, 085332366636,,,-2.7497862,114.2597393,https://maps.google.com/?cid=0x0:0x80fd5a5e207313fc,
mall,,ponsel Hafizi,"Jl. Tingang Menteng, Pulang Pisau, Kec. Kahayan Hilir, Kabupaten Pulang Pisau, Kalimantan Tengah 73564","Pulang Pisau, Kec. Kahayan Hilir, Kabupaten Pulang Pisau",KALIMANTAN TENGAH,73564.0,Indonesia, 081349260044,,,-2.7477618,114.2582497,https://maps.google.com/?cid=0x0:0x4bb00635603c130c,
mall,Pusat Perbelanjaan,Toko Rudi,"96C7+443, Henda, Kec. Jabiren, Kabupaten Pulang Pisau, Kalimantan Tengah 74861","Henda, Kec. Jabiren, Kabupaten Pulang Pisau",KALIMANTAN TENGAH,74861.0,Indonesia, 082155680269,,,-2.6297419,114.2128087,https://maps.google.com/?cid=0x0:0x1bea03c37baa715a,
mall,Toko,Toko surya agung,"67JM+M5P, Jl. Trans - Kalimantan, Anjir Pulang Pisau, Kec. Kahayan Hilir, Kabupaten Pulang Pisau, Kalimantan Tengah 73564","Jl. Trans - Kalimantan, Anjir Pulang Pisau, Kec. Kahayan Hilir, Kabupaten Pulang Pisau",KALIMANTAN TENGAH,73564.0,Indonesia, 081250058544,,,-2.768289,114.28294,https://maps.google.com/?cid=0x0:0x95076e7710ac34ce,
mall,Pusat Perbelanjaan,Toko Nabila,"7735+26M, Pulang Pisau, Kec. Kahayan Hilir, Kabupaten Pulang Pisau, Kalimantan Tengah 73564","Pulang Pisau, Kec. Kahayan Hilir, Kabupaten Pulang Pisau",KALIMANTAN TENGAH,73564.0,Indonesia, 081251888899,,,-2.747415,114.25804,https://maps.google.com/?cid=0x0:0x7d301d37f8d23270,
mall,Pusat Perbelanjaan,Duta Mall Palangka Raya,"QW2F+G58, Langkai, Kec. Pahandut, Kota Palangka Raya, Kalimantan Tengah 74874","Langkai, Kec. Pahandut, Kota Palangka Raya",KALIMANTAN TENGAH,74874.0,Indonesia,,,,-2.248704,113.922958,https://maps.google.com/?cid=0x0:0xd4fe13501def807f,
mall,Toko,H. Udin Helm,"7725+J6Q, Jl. Tingang Menteng, Pulang Pisau, Kec. Kahayan Hilir, Kabupaten Pulang Pisau, Kalimantan Tengah 73564","Jl. Tingang Menteng, Pulang Pisau, Kec. Kahayan Hilir, Kabupaten Pulang Pisau",KALIMANTAN TENGAH,73564.0,Indonesia,,,,-2.7484134,114.258099,https://maps.google.com/?cid=0x0:0xc3c86d33cd44f1d8,
mall,Tempat Cukur Rambut,Pangkas rambut ucu,"67RR+83F, Anjir Pulang Pisau, Kec. Kahayan Hilir, Kabupaten Pulang Pisau, Kalimantan Tengah 73564","Anjir Pulang Pisau, Kec. Kahayan Hilir, Kabupaten Pulang Pisau",KALIMANTAN TENGAH,73564.0,Indonesia, 085245141718,,,-2.7591942,114.2901845,https://maps.google.com/?cid=0x0:0x91cdaaa900d2bdf4,
mall,Pusat Perbelanjaan,THE PARK MALL PALANGKARAYA,"Jl. Tjilik Riwut No.Km 2, RW.2, Bukit Tunggal, Kec. Jekan Raya, Kota Palangka Raya, Kalimantan Tengah 73113","RW.2, Bukit Tunggal, Kec. Jekan Raya, Kota Palangka Raya",KALIMANTAN TENGAH,73113.0,Indonesia, 053688982873,,,-2.1539085,113.8390794,https://maps.google.com/?cid=0x0:0xa727fc05dfe20707,
mall,Toko Herbal,Stokis Center HNI HPAI Pulang Pisau,"Komplek Glora Asri Blok G-15, Jl. Abel Gawei Rey 2 (blk Perumahan Setda, Mantaren I, Kec. Kahayan Hilir, Kabupaten Pulang Pisau, Kalimantan Tengah 73564","Jl. Abel Gawei Rey 2 (blk Perumahan Setda, Mantaren I, Kec. Kahayan Hilir, Kabupaten Pulang Pisau",KALIMANTAN TENGAH,73564.0,Indonesia, 08125006553,,,-2.7705689,114.2623998,https://maps.google.com/?cid=0x0:0x9ab47d99f46f6694,
mall,mall,Kalimantan Tengah 74813,Kalimantan Tengah,Kalimantan Tengah,KALIMANTAN TENGAH,,Indonesia,,,,-2.5771654,114.3222577,https://maps.google.com/?cid=0x0:0xfaa2c870e86154d8,
mall,Pusat Perbelanjaan,PASAR RAKYAT HANDEP HAPAKAT,"7725+V79, Pulang Pisau, Kec. Kahayan Hilir, Kabupaten Pulang Pisau, Kalimantan Tengah 73564","Pulang Pisau, Kec. Kahayan Hilir, Kabupaten Pulang Pisau",KALIMANTAN TENGAH,73564.0,Indonesia,,,,-2.7478472,114.2582376,https://maps.google.com/?cid=0x0:0xcffed0ea8893a352,
mall,Pusat Perbelanjaan,Komplek Pasar Kamis (Pasar Mingguan),"67V4+R24, Pulang Pisau, Kec. Kahayan Hilir, Kabupaten Pulang Pisau, Kalimantan Tengah 73564","Pulang Pisau, Kec. Kahayan Hilir, Kabupaten Pulang Pisau",KALIMANTAN TENGAH,73564.0,Indonesia,,,,-2.7554864,114.2550672,https://maps.google.com/?cid=0x0:0x11426deb9cc0d6c5,
mall,Restoran,Warung Putri Anggun,"87HG+3J6, Gohong, Kec. Kahayan Hilir, Kabupaten Pulang Pisau, Kalimantan Tengah 74816","Gohong, Kec. Kahayan Hilir, Kabupaten Pulang Pisau",KALIMANTAN TENGAH,74816.0,Indonesia,,,,-2.6723271,114.2765244,https://maps.google.com/?cid=0x0:0xb618f66b7075eb28,
mall,Toko Pakaian Wanita,Mama ayub,"7725+3VQ, Jl. Unggul, Pulang Pisau, Kec. Kahayan Hilir, Kabupaten Pulang Pisau, Kalimantan Tengah 73564","Jl. Unggul, Pulang Pisau, Kec. Kahayan Hilir, Kabupaten Pulang Pisau",KALIMANTAN TENGAH,73564.0,Indonesia, 085332366636,,,-2.7497862,114.2597393,https://maps.google.com/?cid=0x0:0x80fd5a5e207313fc,
mall,,ponsel Hafizi,"Jl. Tingang Menteng, Pulang Pisau, Kec. Kahayan Hilir, Kabupaten Pulang Pisau, Kalimantan Tengah 73564","Pulang Pisau, Kec. Kahayan Hilir, Kabupaten Pulang Pisau",KALIMANTAN TENGAH,73564.0,Indonesia, 081349260044,,,-2.7477618,114.2582497,https://maps.google.com/?cid=0x0:0x4bb00635603c130c,
mall,Toko bahan makanan,loket nova,"77C9+3JW, Jl. Tajahan Antang, Bereng, Kec. Kahayan Hilir, Kabupaten Pulang Pisau, Kalimantan Tengah 73564","Jl. Tajahan Antang, Bereng, Kec. Kahayan Hilir, Kabupaten Pulang Pisau",KALIMANTAN TENGAH,73564.0,Indonesia, 083874617766,,,-2.7297628,114.2690883,https://maps.google.com/?cid=0x0:0x7f150adde2f14979,
mall,Pusat Perbelanjaan,Palangkaraya Mall (Palma),"Jl. Tjilik Riwut No.1, Palangka, Kec. Jekan Raya, Kota Palangka Raya, Kalimantan Tengah 74874","Palangka, Kec. Jekan Raya, Kota Palangka Raya",KALIMANTAN TENGAH,74874.0,Indonesia,,,,-2.2065433,113.9154004,https://maps.google.com/?cid=0x0:0xe30705d17366c7e0,
mall,Toko,Warung Delvin,"7763+PF8, Kalawa, Kec. Kahayan Hilir, Kabupaten Pulang Pisau, Kalimantan Tengah 73564","Kalawa, Kec. Kahayan Hilir, Kabupaten Pulang Pisau",KALIMANTAN TENGAH,73564.0,Indonesia, 081256175040,,,-2.7389901,114.2541839,https://maps.google.com/?cid=0x0:0x2a1326ce6b309b4a,
mall,Toko bahan makanan,Warung km 17,"464X+QJR, Jl. Trans - Kalimantan, Mintin, Kec. Kahayan Hilir, Kabupaten Pulang Pisau, Kalimantan Tengah 74873","Jl. Trans - Kalimantan, Mintin, Kec. Kahayan Hilir, Kabupaten Pulang Pisau",KALIMANTAN TENGAH,74873.0,Indonesia,,,,-2.8930226,114.2490095,https://maps.google.com/?cid=0x0:0xa5c45f4af19e7314,
mall,Pusat Perbelanjaan,Toko Nabila,"7735+26M, Pulang Pisau, Kec. Kahayan Hilir, Kabupaten Pulang Pisau, Kalimantan Tengah 73564","Pulang Pisau, Kec. Kahayan Hilir, Kabupaten Pulang Pisau",KALIMANTAN TENGAH,73564.0,Indonesia, 081251888899,,,-2.747415,114.25804,https://maps.google.com/?cid=0x0:0x7d301d37f8d23270,
mall,Pasar,Pasar Minggu,"44F9+229, Desa, Kanamit Bar., Kec. Maliku, Kabupaten Pulang Pisau, Kalimantan Tengah 74871","Desa, Kanamit Bar., Kec. Maliku, Kabupaten Pulang Pisau",KALIMANTAN TENGAH,74871.0,Indonesia,,,,-2.8774654,114.1175987,https://maps.google.com/?cid=0x0:0x3f9aa654333a5bbd,
mall,Toko,Toko surya agung,"67JM+M5P, Jl. Trans - Kalimantan, Anjir Pulang Pisau, Kec. Kahayan Hilir, Kabupaten Pulang Pisau, Kalimantan Tengah 73564","Jl. Trans - Kalimantan, Anjir Pulang Pisau, Kec. Kahayan Hilir, Kabupaten Pulang Pisau",KALIMANTAN TENGAH,73564.0,Indonesia, 081250058544,,,-2.768289,114.28294,https://maps.google.com/?cid=0x0:0x95076e7710ac34ce,
mall,Pusat Perbelanjaan,Toko ilam,"jln. desa kenamit muara, pangkoh 9e, Kanamit, Kec. Maliku, Kabupaten Pulang Pisau, Kalimantan Tengah 74871","pangkoh 9e, Kanamit, Kec. Maliku, Kabupaten Pulang Pisau",KALIMANTAN TENGAH,74871.0,Indonesia, 085806569685,,,-2.8880705,114.1742681,https://maps.google.com/?cid=0x0:0xb3e9a2e326610d50,
mall,Toko,Pulang pisau,"Jl. Trans - Kalimantan No.184, Mintin, Kec. Kahayan Hilir, Kabupaten Pulang Pisau, Kalimantan Tengah 74873","Mintin, Kec. Kahayan Hilir, Kabupaten Pulang Pisau",KALIMANTAN TENGAH,74873.0,Indonesia,,,,-2.850321,114.21583,https://maps.google.com/?cid=0x0:0x1659defa339b3ddc,
mall,Pusat Perbelanjaan,Toko Rudi,"96C7+443, Henda, Kec. Jabiren, Kabupaten Pulang Pisau, Kalimantan Tengah 74861","Henda, Kec. Jabiren, Kabupaten Pulang Pisau",KALIMANTAN TENGAH,74861.0,Indonesia, 082155680269,,,-2.6297419,114.2128087,https://maps.google.com/?cid=0x0:0x1bea03c37baa715a,
mall,Toko,H. Udin Helm,"7725+J6Q, Jl. Tingang Menteng, Pulang Pisau, Kec. Kahayan Hilir, Kabupaten Pulang Pisau, Kalimantan Tengah 73564","Jl. Tingang Menteng, Pulang Pisau, Kec. Kahayan Hilir, Kabupaten Pulang Pisau",KALIMANTAN TENGAH,73564.0,Indonesia,,,,-2.7484134,114.258099,https://maps.google.com/?cid=0x0:0xc3c86d33cd44f1d8,
mall,Pusat Perbelanjaan,Sumatra maju jaya,"24RW+VRJ, Unnamed Road, Maliku Baru, Kec. Maliku, Kabupaten Pulang Pisau, Kalimantan Tengah 74871","Unnamed Road, Maliku Baru, Kec. Maliku, Kabupaten Pulang Pisau",KALIMANTAN TENGAH,74871.0,Indonesia, 082153066742,,,-2.9577941,114.1470229,https://maps.google.com/?cid=0x0:0xe66fe1b84e845d07,
mall,Pusat Perbelanjaan,MORODADI MALL,"PWG5+XH, Menteng, Kec. Jekan Raya, Kota Palangka Raya, Kalimantan Tengah","Kota Palangka Raya, Kalimantan Tengah",KALIMANTAN TENGAH,,Indonesia,,,,-2.2726102,113.9089949,https://maps.google.com/?cid=0x0:0x6ec960f13a8d7822,
mall,Tempat Cukur Rambut,Pangkas rambut ucu,"67RR+83F, Anjir Pulang Pisau, Kec. Kahayan Hilir, Kabupaten Pulang Pisau, Kalimantan Tengah 73564","Anjir Pulang Pisau, Kec. Kahayan Hilir, Kabupaten Pulang Pisau",KALIMANTAN TENGAH,73564.0,Indonesia, 085245141718,,,-2.7591942,114.2901845,https://maps.google.com/?cid=0x0:0x91cdaaa900d2bdf4,
mall,mall,Pulang Pisau,"7725+MC6, Pulang Pisau, Kec. Kahayan Hilir, Kabupaten Pulang Pisau, Kalimantan Tengah 73564","Pulang Pisau, Kec. Kahayan Hilir, Kabupaten Pulang Pisau",KALIMANTAN TENGAH,73564.0,Indonesia, 081259917177,,,-2.7483388,114.2585199,https://maps.google.com/?cid=0x0:0x7a627b0bca366d0d,
mall,mall,RH PULSA D12,"F947+2F9, Pulau Kaladan, Kec. Mantangai, Kabupaten Kapuas, Kalimantan Tengah 74816","Pulau Kaladan, Kec. Mantangai, Kabupaten Kapuas",KALIMANTAN TENGAH,74816.0,Indonesia, 085348487829,,,-2.5449529,114.3637396,https://maps.google.com/?cid=0x0:0x9f1a34850ad4e901,
mall,Pusat Perbelanjaan,Pasar Patanak,"Pulang Pisau, Kec. Kahayan Hilir, Kabupaten Pulang Pisau, Kalimantan Tengah 73564","Kec. Kahayan Hilir, Kabupaten Pulang Pisau",KALIMANTAN TENGAH,73564.0,Indonesia, 085705921217,,,-2.7473515,114.258468,https://maps.google.com/?cid=0x0:0x50f5a3bbdaf1624d,
mall,mall,Kalimantan Tengah 74816,Kalimantan Tengah,Kalimantan Tengah,KALIMANTAN TENGAH,,Indonesia,,,,-2.3159685,114.2390498,https://maps.google.com/?cid=0x0:0x699fd2cedf1d1e7c,
mall,Restoran,Warung Putri Anggun,"87HG+3J6, Gohong, Kec. Kahayan Hilir, Kabupaten Pulang Pisau, Kalimantan Tengah 74816","Gohong, Kec. Kahayan Hilir, Kabupaten Pulang Pisau",KALIMANTAN TENGAH,74816.0,Indonesia,,,,-2.6723271,114.2765244,https://maps.google.com/?cid=0x0:0xb618f66b7075eb28,
mall,Pusat Perbelanjaan,Palangkaraya Mall (Palma),"Jl. Tjilik Riwut No.1, Palangka, Kec. Jekan Raya, Kota Palangka Raya, Kalimantan Tengah 74874","Palangka, Kec. Jekan Raya, Kota Palangka Raya",KALIMANTAN TENGAH,74874.0,Indonesia,,,,-2.2065433,113.9154004,https://maps.google.com/?cid=0x0:0xe30705d17366c7e0,
mall,Pusat Perbelanjaan,Toko berkat rahmat,"F5GV+93V, Jln jaya pasar, Jabiren, Kec. Jabiren, Kabupaten Pulang Pisau, Kalimantan Tengah 74812","Jln jaya pasar, Jabiren, Kec. Jabiren, Kabupaten Pulang Pisau",KALIMANTAN TENGAH,74812.0,Indonesia,,,,-2.5240187,114.1926801,https://maps.google.com/?cid=0x0:0xb39ce3ca8ab4d141,
mall,Salon Kecantikan,Salon Family,"XXV2+8FX, Jl. Palangkaraya - Buntok, Petuk Liti, Kec. Kahayan Tengah, Kabupaten Pulang Pisau, Kalimantan Tengah 73111","Jl. Palangkaraya - Buntok, Petuk Liti, Kec. Kahayan Tengah, Kabupaten Pulang Pisau",KALIMANTAN TENGAH,73111.0,Indonesia, 081254824808,,,-2.0066491,113.9512303,https://maps.google.com/?cid=0x0:0xde44e119b0cf2f15,
mall,Toko,Dareani(Adilla colection),"F5GR+694, Jabiren, Kec. Jabiren, Kabupaten Pulang Pisau, Kalimantan Tengah","Kabupaten Pulang Pisau, Kalimantan Tengah",KALIMANTAN TENGAH,,Indonesia,,,,-2.5244957,114.1909625,https://maps.google.com/?cid=0x0:0xd7e91764a3f8334b,
mall,Kerajinan,Anyaman Rotan Kelompok Pahari,"879M+82R, Gohong, Kec. Kahayan Hilir, Kabupaten Pulang Pisau, Kalimantan Tengah 74816","Gohong, Kec. Kahayan Hilir, Kabupaten Pulang Pisau",KALIMANTAN TENGAH,74816.0,Indonesia,,,,-2.6813689,114.2827161,https://maps.google.com/?cid=0x0:0x565aa088bf28dcfd,
mall,Toko Bahan Bangunan,Toko Yuli,"7725+P7W, Unnamed Road, Pulang Pisau, Kec. Kahayan Hilir, Kabupaten Pulang Pisau, Kalimantan Tengah 73564","Unnamed Road, Pulang Pisau, Kec. Kahayan Hilir, Kabupaten Pulang Pisau",KALIMANTAN TENGAH,73564.0,Indonesia, 051361039,,,-2.7481342,114.2582135,https://maps.google.com/?cid=0x0:0x1388ef77d7e1f8be,
mall,Pusat Perbelanjaan,Duta Mall Palangka Raya,"QW2F+G58, Langkai, Kec. Pahandut, Kota Palangka Raya, Kalimantan Tengah 74874","Langkai, Kec. Pahandut, Kota Palangka Raya",KALIMANTAN TENGAH,74874.0,Indonesia,,,,-2.248704,113.922958,https://maps.google.com/?cid=0x0:0xd4fe13501def807f,
mall,Kantor Pemerintahan Kota,Kantor Desa Hanjak Maju,"Jl. Jeruk No.000 Rt. 09, Des, Hanjak Maju, Kec. Kahayan Hilir, Kabupaten Pulang Pisau, Kalimantan Tengah 74812","Des, Hanjak Maju, Kec. Kahayan Hilir, Kabupaten Pulang Pisau",KALIMANTAN TENGAH,74812.0,Indonesia,,,,-2.7567314,114.3179939,https://maps.google.com/?cid=0x0:0xc9c578db9d5e6810,
mall,Gereja Pantekosta,Christian Center Pulang Pisau,"8872+382, Gohong, Kec. Kahayan Hilir, Kabupaten Pulang Pisau, Kalimantan Tengah 73552","Gohong, Kec. Kahayan Hilir, Kabupaten Pulang Pisau",KALIMANTAN TENGAH,73552.0,Indonesia,,,,-2.6873722,114.3007594,https://maps.google.com/?cid=0x0:0xc2a93f0a4cb59346,
mall,Toko bahan makanan,Warung km 17,"464X+QJR, Jl. Trans - Kalimantan, Mintin, Kec. Kahayan Hilir, Kabupaten Pulang Pisau, Kalimantan Tengah 74873","Jl. Trans - Kalimantan, Mintin, Kec. Kahayan Hilir, Kabupaten Pulang Pisau",KALIMANTAN TENGAH,74873.0,Indonesia,,,,-2.8930226,114.2490095,https://maps.google.com/?cid=0x0:0xa5c45f4af19e7314,
mall,Pusat Perbelanjaan,THE PARK MALL PALANGKARAYA,"Jl. Tjilik Riwut No.Km 2, RW.2, Bukit Tunggal, Kec. Jekan Raya, Kota Palangka Raya, Kalimantan Tengah 73113","RW.2, Bukit Tunggal, Kec. Jekan Raya, Kota Palangka Raya",KALIMANTAN TENGAH,73113.0,Indonesia, 053688982873,,,-2.1539085,113.8390794,https://maps.google.com/?cid=0x0:0xa727fc05dfe20707,
mall,Jembatan,Jembatan Cukai Bereng Kalingu,"7756+8G6, Jembatan Cukai, Kec. Kahayan Hilir, Kabupaten Pulang Pisau, Kalimantan Tengah 73564","Jembatan Cukai, Kec. Kahayan Hilir, Kabupaten Pulang Pisau",KALIMANTAN TENGAH,73564.0,Indonesia,,,,-2.7417155,114.2612736,https://maps.google.com/?cid=0x0:0x468edca28cb51fd6,
mall,Pusat Perbelanjaan,Pertokoan Keminting Square,"QVWP+PP4, Jl. Bukit Kaminting, Palangka, Kec. Jekan Raya, Kota Palangka Raya, Kalimantan Tengah 74874","Jl. Bukit Kaminting, Palangka, Kec. Jekan Raya, Kota Palangka Raya",KALIMANTAN TENGAH,74874.0,Indonesia, 05363247733,,,-2.2032302,113.8868135,https://maps.google.com/?cid=0x0:0xf8c2343aa95a980c,
mall,Komplek perumahan,Simp. Mendawai induk,"RW35+5W2, Jl. Mendawai, Palangka, Kec. Jekan Raya, Kota Palangka Raya, Kalimantan Tengah 74874","Jl. Mendawai, Palangka, Kec. Jekan Raya, Kota Palangka Raya",KALIMANTAN TENGAH,74874.0,Indonesia, 082148645792,,,-2.1971171,113.9097706,https://maps.google.com/?cid=0x0:0x907a99ebb8fa2998,
mall,Taman,Pulpis,"78H4+F8Q, Gohong, Kec. Kahayan Hilir, Kabupaten Pulang Pisau, Kalimantan Tengah","Kabupaten Pulang Pisau, Kalimantan Tengah",KALIMANTAN TENGAH,,Indonesia,,,,-2.7212763,114.3058623,https://maps.google.com/?cid=0x0:0x215edf494aad52fb,
mall,Pusat Perbelanjaan,AsmiliantiOlshopPky,"RW44+XM4, Palangka, Kec. Jekan Raya, Kota Palangka Raya, Kalimantan Tengah 74874","Palangka, Kec. Jekan Raya, Kota Palangka Raya",KALIMANTAN TENGAH,74874.0,Indonesia, 081251950618,,,-2.1926109,113.9067118,https://maps.google.com/?cid=0x0:0xde4bfd8ceece9a82,
mall,Pusat Perbelanjaan,SUN WALET INDONESIA,"RW3P+6F6, Jl. Wisata, Pahandut Seberang, Kec. Pahandut, Kota Palangka Raya, Kalimantan Tengah 74874","Jl. Wisata, Pahandut Seberang, Kec. Pahandut, Kota Palangka Raya",KALIMANTAN TENGAH,74874.0,Indonesia, 082150991159,,,-2.1969735,113.9361491,https://maps.google.com/?cid=0x0:0x2de6c7f1f9e648ba,
mall,Pusat Perbelanjaan,PASAR RAKYAT HANDEP HAPAKAT,"7725+V79, Pulang Pisau, Kec. Kahayan Hilir, Kabupaten Pulang Pisau, Kalimantan Tengah 73564","Pulang Pisau, Kec. Kahayan Hilir, Kabupaten Pulang Pisau",KALIMANTAN TENGAH,73564.0,Indonesia,,,,-2.7478472,114.2582376,https://maps.google.com/?cid=0x0:0xcffed0ea8893a352,
mall,Pusat Perbelanjaan,Komplek Pasar Kamis (Pasar Mingguan),"67V4+R24, Pulang Pisau, Kec. Kahayan Hilir, Kabupaten Pulang Pisau, Kalimantan Tengah 73564","Pulang Pisau, Kec. Kahayan Hilir, Kabupaten Pulang Pisau",KALIMANTAN TENGAH,73564.0,Indonesia,,,,-2.7554864,114.2550672,https://maps.google.com/?cid=0x0:0x11426deb9cc0d6c5,
mall,Toko bahan makanan,loket nova,"77C9+3JW, Jl. Tajahan Antang, Bereng, Kec. Kahayan Hilir, Kabupaten Pulang Pisau, Kalimantan Tengah 73564","Jl. Tajahan Antang, Bereng, Kec. Kahayan Hilir, Kabupaten Pulang Pisau",KALIMANTAN TENGAH,73564.0,Indonesia, 083874617766,,,-2.7297628,114.2690883,https://maps.google.com/?cid=0x0:0x7f150adde2f14979,
mall,Toko,Warung Delvin,"7763+PF8, Kalawa, Kec. Kahayan Hilir, Kabupaten Pulang Pisau, Kalimantan Tengah 73564","Kalawa, Kec. Kahayan Hilir, Kabupaten Pulang Pisau",KALIMANTAN TENGAH,73564.0,Indonesia, 081256175040,,,-2.7389901,114.2541839,https://maps.google.com/?cid=0x0:0x2a1326ce6b309b4a,
mall,,ponsel Hafizi,"Jl. Tingang Menteng, Pulang Pisau, Kec. Kahayan Hilir, Kabupaten Pulang Pisau, Kalimantan Tengah 73564","Pulang Pisau, Kec. Kahayan Hilir, Kabupaten Pulang Pisau",KALIMANTAN TENGAH,73564.0,Indonesia, 081349260044,,,-2.7477618,114.2582497,https://maps.google.com/?cid=0x0:0x4bb00635603c130c,
mall,Pusat Perbelanjaan,Toko Nabila,"7735+26M, Pulang Pisau, Kec. Kahayan Hilir, Kabupaten Pulang Pisau, Kalimantan Tengah 73564","Pulang Pisau, Kec. Kahayan Hilir, Kabupaten Pulang Pisau",KALIMANTAN TENGAH,73564.0,Indonesia, 081251888899,,,-2.747415,114.25804,https://maps.google.com/?cid=0x0:0x7d301d37f8d23270,
mall,Toko,H. Udin Helm,"7725+J6Q, Jl. Tingang Menteng, Pulang Pisau, Kec. Kahayan Hilir, Kabupaten Pulang Pisau, Kalimantan Tengah 73564","Jl. Tingang Menteng, Pulang Pisau, Kec. Kahayan Hilir, Kabupaten Pulang Pisau",KALIMANTAN TENGAH,73564.0,Indonesia,,,,-2.7484134,114.258099,https://maps.google.com/?cid=0x0:0xc3c86d33cd44f1d8,
mall,Toko Pakaian Wanita,Mama ayub,"7725+3VQ, Jl. Unggul, Pulang Pisau, Kec. Kahayan Hilir, Kabupaten Pulang Pisau, Kalimantan Tengah 73564","Jl. Unggul, Pulang Pisau, Kec. Kahayan Hilir, Kabupaten Pulang Pisau",KALIMANTAN TENGAH,73564.0,Indonesia, 085332366636,,,-2.7497862,114.2597393,https://maps.google.com/?cid=0x0:0x80fd5a5e207313fc,
mall,Pusat Perbelanjaan,Toko Rudi,"96C7+443, Henda, Kec. Jabiren, Kabupaten Pulang Pisau, Kalimantan Tengah 74861","Henda, Kec. Jabiren, Kabupaten Pulang Pisau",KALIMANTAN TENGAH,74861.0,Indonesia, 082155680269,,,-2.6297419,114.2128087,https://maps.google.com/?cid=0x0:0x1bea03c37baa715a,
mall,mall,Kec. Kahayan Hilir,"Kabupaten Pulang Pisau, Kalimantan Tengah","Kabupaten Pulang Pisau, Kalimantan Tengah",KALIMANTAN TENGAH,,Indonesia,,,,-2.7914682,114.262235,https://maps.google.com/?cid=0x0:0x7f1583868799e28e,
mall,Pusat Perbelanjaan,Komplek Pasar Kamis (Pasar Mingguan),"67V4+R24, Pulang Pisau, Kec. Kahayan Hilir, Kabupaten Pulang Pisau, Kalimantan Tengah 73564","Pulang Pisau, Kec. Kahayan Hilir, Kabupaten Pulang Pisau",KALIMANTAN TENGAH,73564.0,Indonesia,,,,-2.7554864,114.2550672,https://maps.google.com/?cid=0x0:0x11426deb9cc0d6c5,
mall,Toko bahan makanan,Warung km 17,"464X+QJR, Jl. Trans - Kalimantan, Mintin, Kec. Kahayan Hilir, Kabupaten Pulang Pisau, Kalimantan Tengah 74873","Jl. Trans - Kalimantan, Mintin, Kec. Kahayan Hilir, Kabupaten Pulang Pisau",KALIMANTAN TENGAH,74873.0,Indonesia,,,,-2.8930226,114.2490095,https://maps.google.com/?cid=0x0:0xa5c45f4af19e7314,
mall,Pusat Perbelanjaan,PASAR RAKYAT HANDEP HAPAKAT,"7725+V79, Pulang Pisau, Kec. Kahayan Hilir, Kabupaten Pulang Pisau, Kalimantan Tengah 73564","Pulang Pisau, Kec. Kahayan Hilir, Kabupaten Pulang Pisau",KALIMANTAN TENGAH,73564.0,Indonesia,,,,-2.7478472,114.2582376,https://maps.google.com/?cid=0x0:0xcffed0ea8893a352,
mall,Toko,Warung Delvin,"7763+PF8, Kalawa, Kec. Kahayan Hilir, Kabupaten Pulang Pisau, Kalimantan Tengah 73564","Kalawa, Kec. Kahayan Hilir, Kabupaten Pulang Pisau",KALIMANTAN TENGAH,73564.0,Indonesia, 081256175040,,,-2.7389901,114.2541839,https://maps.google.com/?cid=0x0:0x2a1326ce6b309b4a,
mall,,ponsel Hafizi,"Jl. Tingang Menteng, Pulang Pisau, Kec. Kahayan Hilir, Kabupaten Pulang Pisau, Kalimantan Tengah 73564","Pulang Pisau, Kec. Kahayan Hilir, Kabupaten Pulang Pisau",KALIMANTAN TENGAH,73564.0,Indonesia, 081349260044,,,-2.7477618,114.2582497,https://maps.google.com/?cid=0x0:0x4bb00635603c130c,
mall,Toko bahan makanan,loket nova,"77C9+3JW, Jl. Tajahan Antang, Bereng, Kec. Kahayan Hilir, Kabupaten Pulang Pisau, Kalimantan Tengah 73564","Jl. Tajahan Antang, Bereng, Kec. Kahayan Hilir, Kabupaten Pulang Pisau",KALIMANTAN TENGAH,73564.0,Indonesia, 083874617766,,,-2.7297628,114.2690883,https://maps.google.com/?cid=0x0:0x7f150adde2f14979,
mall,Pusat Perbelanjaan,Toko Nabila,"7735+26M, Pulang Pisau, Kec. Kahayan Hilir, Kabupaten Pulang Pisau, Kalimantan Tengah 73564","Pulang Pisau, Kec. Kahayan Hilir, Kabupaten Pulang Pisau",KALIMANTAN TENGAH,73564.0,Indonesia, 081251888899,,,-2.747415,114.25804,https://maps.google.com/?cid=0x0:0x7d301d37f8d23270,
mall,Toko Pakaian Wanita,Mama ayub,"7725+3VQ, Jl. Unggul, Pulang Pisau, Kec. Kahayan Hilir, Kabupaten Pulang Pisau, Kalimantan Tengah 73564","Jl. Unggul, Pulang Pisau, Kec. Kahayan Hilir, Kabupaten Pulang Pisau",KALIMANTAN TENGAH,73564.0,Indonesia, 085332366636,,,-2.7497862,114.2597393,https://maps.google.com/?cid=0x0:0x80fd5a5e207313fc,
mall,Restoran,Warung Putri Anggun,"87HG+3J6, Gohong, Kec. Kahayan Hilir, Kabupaten Pulang Pisau, Kalimantan Tengah 74816","Gohong, Kec. Kahayan Hilir, Kabupaten Pulang Pisau",KALIMANTAN TENGAH,74816.0,Indonesia,,,,-2.6723271,114.2765244,https://maps.google.com/?cid=0x0:0xb618f66b7075eb28,
mall,Pasar,Pasar Minggu,"44F9+229, Desa, Kanamit Bar., Kec. Maliku, Kabupaten Pulang Pisau, Kalimantan Tengah 74871","Desa, Kanamit Bar., Kec. Maliku, Kabupaten Pulang Pisau",KALIMANTAN TENGAH,74871.0,Indonesia,,,,-2.8774654,114.1175987,https://maps.google.com/?cid=0x0:0x3f9aa654333a5bbd,
mall,Toko,H. Udin Helm,"7725+J6Q, Jl. Tingang Menteng, Pulang Pisau, Kec. Kahayan Hilir, Kabupaten Pulang Pisau, Kalimantan Tengah 73564","Jl. Tingang Menteng, Pulang Pisau, Kec. Kahayan Hilir, Kabupaten Pulang Pisau",KALIMANTAN TENGAH,73564.0,Indonesia,,,,-2.7484134,114.258099,https://maps.google.com/?cid=0x0:0xc3c86d33cd44f1d8,
mall,Toko,Toko surya agung,"67JM+M5P, Jl. Trans - Kalimantan, Anjir Pulang Pisau, Kec. Kahayan Hilir, Kabupaten Pulang Pisau, Kalimantan Tengah 73564","Jl. Trans - Kalimantan, Anjir Pulang Pisau, Kec. Kahayan Hilir, Kabupaten Pulang Pisau",KALIMANTAN TENGAH,73564.0,Indonesia, 081250058544,,,-2.768289,114.28294,https://maps.google.com/?cid=0x0:0x95076e7710ac34ce,
mall,Toko,Akmal Store,"jl.garuda No.1, Garantung, Kec. Maliku, Kabupaten Pulang Pisau, Kalimantan Tengah 74871","Garantung, Kec. Maliku, Kabupaten Pulang Pisau",KALIMANTAN TENGAH,74871.0,Indonesia, 082242226263,,,-2.9245988,114.1410362,https://maps.google.com/?cid=0x0:0x11622132a7966d57,
mall,Pusat Perbelanjaan,Toko ilam,"jln. desa kenamit muara, pangkoh 9e, Kanamit, Kec. Maliku, Kabupaten Pulang Pisau, Kalimantan Tengah 74871","pangkoh 9e, Kanamit, Kec. Maliku, Kabupaten Pulang Pisau",KALIMANTAN TENGAH,74871.0,Indonesia, 085806569685,,,-2.8880705,114.1742681,https://maps.google.com/?cid=0x0:0xb3e9a2e326610d50,
mall,mall,Pulang Pisau,"Kec. Kahayan Hilir, Kabupaten Pulang Pisau, Kalimantan Tengah","Kabupaten Pulang Pisau, Kalimantan Tengah",KALIMANTAN TENGAH,,Indonesia,,,,-2.7582411,114.2657969,https://maps.google.com/?cid=0x0:0xdbeada59bb2cdd04,
mall,Pasar,Pasar kamis Tahai Jaya,"Tahai Jaya, Kec. Maliku, Kabupaten Pulang Pisau, Kalimantan Tengah 74871","Kec. Maliku, Kabupaten Pulang Pisau",KALIMANTAN TENGAH,74871.0,Indonesia, 0822225437171,,,-3.0239431,114.1837632,https://maps.google.com/?cid=0x0:0xcf5d7140b96a634e,
mall,Kantor Pemerintahan Kota,Kantor Desa Hanjak Maju,"Jl. Jeruk No.000 Rt. 09, Des, Hanjak Maju, Kec. Kahayan Hilir, Kabupaten Pulang Pisau, Kalimantan Tengah 74812","Des, Hanjak Maju, Kec. Kahayan Hilir, Kabupaten Pulang Pisau",KALIMANTAN TENGAH,74812.0,Indonesia,,,,-2.7567314,114.3179939,https://maps.google.com/?cid=0x0:0xc9c578db9d5e6810,
mall,Toko Parfum,Toko indah parfum..,"komp gren asas, Jalan abel gawey, Pulang Pisau, Kec. Kahayan Hilir, Kabupaten Pulang Pisau, Kalimantan Tengah 73564","Jalan abel gawey, Pulang Pisau, Kec. Kahayan Hilir, Kabupaten Pulang Pisau",KALIMANTAN TENGAH,73564.0,Indonesia, 085345018585,,,-2.7777464,114.2681376,https://maps.google.com/?cid=0x0:0x7f394e775ce65b82,
mall,Toko Swalayan,Penggilingan Daging Mama Fitri,"67W5+HH3, Jl. Rey I, Pulang Pisau, Kec. Kahayan Hilir, Kabupaten Pulang Pisau, Kalimantan Tengah 73564","Jl. Rey I, Pulang Pisau, Kec. Kahayan Hilir, Kabupaten Pulang Pisau",KALIMANTAN TENGAH,73564.0,Indonesia, 085332568405,,,-2.7536219,114.2589337,https://maps.google.com/?cid=0x0:0x69a5fda850f3b350,
mall,Tempat Cukur Rambut,Pangkas rambut ucu,"67RR+83F, Anjir Pulang Pisau, Kec. Kahayan Hilir, Kabupaten Pulang Pisau, Kalimantan Tengah 73564","Anjir Pulang Pisau, Kec. Kahayan Hilir, Kabupaten Pulang Pisau",KALIMANTAN TENGAH,73564.0,Indonesia, 085245141718,,,-2.7591942,114.2901845,https://maps.google.com/?cid=0x0:0x91cdaaa900d2bdf4,
mall,Kerajinan,Anyaman Rotan Kelompok Pahari,"879M+82R, Gohong, Kec. Kahayan Hilir, Kabupaten Pulang Pisau, Kalimantan Tengah 74816","Gohong, Kec. Kahayan Hilir, Kabupaten Pulang Pisau",KALIMANTAN TENGAH,74816.0,Indonesia,,,,-2.6813689,114.2827161,https://maps.google.com/?cid=0x0:0x565aa088bf28dcfd,
mall,Kantor Keselamatan Publik,Polsek Kahayan Hilir,"67X4+FQ8, Jl. Tingang Menteng, Pulang Pisau, Kec. Kahayan Hilir, Kabupaten Pulang Pisau, Kalimantan Tengah 73564","Jl. Tingang Menteng, Pulang Pisau, Kec. Kahayan Hilir, Kabupaten Pulang Pisau",KALIMANTAN TENGAH,73564.0,Indonesia,,,,-2.7513411,114.2569666,https://maps.google.com/?cid=0x0:0x5b1bda2712f6bd09,
mall,Pusat Perbelanjaan,Komplek Pasar Kamis (Pasar Mingguan),"67V4+R24, Pulang Pisau, Kec. Kahayan Hilir, Kabupaten Pulang Pisau, Kalimantan Tengah 73564","Pulang Pisau, Kec. Kahayan Hilir, Kabupaten Pulang Pisau",KALIMANTAN TENGAH,73564.0,Indonesia,,,,-2.7554864,114.2550672,https://maps.google.com/?cid=0x0:0x11426deb9cc0d6c5,
mall,mall,Kec. Kahayan Hilir,"Kabupaten Pulang Pisau, Kalimantan Tengah","Kabupaten Pulang Pisau, Kalimantan Tengah",KALIMANTAN TENGAH,,Indonesia,,,,-2.7914682,114.262235,https://maps.google.com/?cid=0x0:0x7f1583868799e28e,
mall,Pusat Perbelanjaan,PASAR RAKYAT HANDEP HAPAKAT,"7725+V79, Pulang Pisau, Kec. Kahayan Hilir, Kabupaten Pulang Pisau, Kalimantan Tengah 73564","Pulang Pisau, Kec. Kahayan Hilir, Kabupaten Pulang Pisau",KALIMANTAN TENGAH,73564.0,Indonesia,,,,-2.7478472,114.2582376,https://maps.google.com/?cid=0x0:0xcffed0ea8893a352,
mall,Toko bahan makanan,Warung km 17,"464X+QJR, Jl. Trans - Kalimantan, Mintin, Kec. Kahayan Hilir, Kabupaten Pulang Pisau, Kalimantan Tengah 74873","Jl. Trans - Kalimantan, Mintin, Kec. Kahayan Hilir, Kabupaten Pulang Pisau",KALIMANTAN TENGAH,74873.0,Indonesia,,,,-2.8930226,114.2490095,https://maps.google.com/?cid=0x0:0xa5c45f4af19e7314,
mall,,ponsel Hafizi,"Jl. Tingang Menteng, Pulang Pisau, Kec. Kahayan Hilir, Kabupaten Pulang Pisau, Kalimantan Tengah 73564","Pulang Pisau, Kec. Kahayan Hilir, Kabupaten Pulang Pisau",KALIMANTAN TENGAH,73564.0,Indonesia, 081349260044,,,-2.7477618,114.2582497,https://maps.google.com/?cid=0x0:0x4bb00635603c130c,
mall,Pusat Perbelanjaan,Toko Nabila,"7735+26M, Pulang Pisau, Kec. Kahayan Hilir, Kabupaten Pulang Pisau, Kalimantan Tengah 73564","Pulang Pisau, Kec. Kahayan Hilir, Kabupaten Pulang Pisau",KALIMANTAN TENGAH,73564.0,Indonesia, 081251888899,,,-2.747415,114.25804,https://maps.google.com/?cid=0x0:0x7d301d37f8d23270,
mall,Toko,Warung Delvin,"7763+PF8, Kalawa, Kec. Kahayan Hilir, Kabupaten Pulang Pisau, Kalimantan Tengah 73564","Kalawa, Kec. Kahayan Hilir, Kabupaten Pulang Pisau",KALIMANTAN TENGAH,73564.0,Indonesia, 081256175040,,,-2.7389901,114.2541839,https://maps.google.com/?cid=0x0:0x2a1326ce6b309b4a,
mall,Toko Pakaian Wanita,Mama ayub,"7725+3VQ, Jl. Unggul, Pulang Pisau, Kec. Kahayan Hilir, Kabupaten Pulang Pisau, Kalimantan Tengah 73564","Jl. Unggul, Pulang Pisau, Kec. Kahayan Hilir, Kabupaten Pulang Pisau",KALIMANTAN TENGAH,73564.0,Indonesia, 085332366636,,,-2.7497862,114.2597393,https://maps.google.com/?cid=0x0:0x80fd5a5e207313fc,
mall,Pasar,Pasar Minggu,"44F9+229, Desa, Kanamit Bar., Kec. Maliku, Kabupaten Pulang Pisau, Kalimantan Tengah 74871","Desa, Kanamit Bar., Kec. Maliku, Kabupaten Pulang Pisau",KALIMANTAN TENGAH,74871.0,Indonesia,,,,-2.8774654,114.1175987,https://maps.google.com/?cid=0x0:0x3f9aa654333a5bbd,
mall,Toko,Toko surya agung,"67JM+M5P, Jl. Trans - Kalimantan, Anjir Pulang Pisau, Kec. Kahayan Hilir, Kabupaten Pulang Pisau, Kalimantan Tengah 73564","Jl. Trans - Kalimantan, Anjir Pulang Pisau, Kec. Kahayan Hilir, Kabupaten Pulang Pisau",KALIMANTAN TENGAH,73564.0,Indonesia, 081250058544,,,-2.768289,114.28294,https://maps.google.com/?cid=0x0:0x95076e7710ac34ce,
mall,Restoran,Warung Putri Anggun,"87HG+3J6, Gohong, Kec. Kahayan Hilir, Kabupaten Pulang Pisau, Kalimantan Tengah 74816","Gohong, Kec. Kahayan Hilir, Kabupaten Pulang Pisau",KALIMANTAN TENGAH,74816.0,Indonesia,,,,-2.6723271,114.2765244,https://maps.google.com/?cid=0x0:0xb618f66b7075eb28,
mall,Toko bahan makanan,loket nova,"77C9+3JW, Jl. Tajahan Antang, Bereng, Kec. Kahayan Hilir, Kabupaten Pulang Pisau, Kalimantan Tengah 73564","Jl. Tajahan Antang, Bereng, Kec. Kahayan Hilir, Kabupaten Pulang Pisau",KALIMANTAN TENGAH,73564.0,Indonesia, 083874617766,,,-2.7297628,114.2690883,https://maps.google.com/?cid=0x0:0x7f150adde2f14979,
mall,Toko,Akmal Store,"jl.garuda No.1, Garantung, Kec. Maliku, Kabupaten Pulang Pisau, Kalimantan Tengah 74871","Garantung, Kec. Maliku, Kabupaten Pulang Pisau",KALIMANTAN TENGAH,74871.0,Indonesia, 082242226263,,,-2.9245988,114.1410362,https://maps.google.com/?cid=0x0:0x11622132a7966d57,
mall,Pusat Perbelanjaan,Toko ilam,"jln. desa kenamit muara, pangkoh 9e, Kanamit, Kec. Maliku, Kabupaten Pulang Pisau, Kalimantan Tengah 74871","pangkoh 9e, Kanamit, Kec. Maliku, Kabupaten Pulang Pisau",KALIMANTAN TENGAH,74871.0,Indonesia, 085806569685,,,-2.8880705,114.1742681,https://maps.google.com/?cid=0x0:0xb3e9a2e326610d50,
mall,mall,Pulang Pisau,"Kec. Kahayan Hilir, Kabupaten Pulang Pisau, Kalimantan Tengah","Kabupaten Pulang Pisau, Kalimantan Tengah",KALIMANTAN TENGAH,,Indonesia,,,,-2.7582411,114.2657969,https://maps.google.com/?cid=0x0:0xdbeada59bb2cdd04,
mall,Toko,H. Udin Helm,"7725+J6Q, Jl. Tingang Menteng, Pulang Pisau, Kec. Kahayan Hilir, Kabupaten Pulang Pisau, Kalimantan Tengah 73564","Jl. Tingang Menteng, Pulang Pisau, Kec. Kahayan Hilir, Kabupaten Pulang Pisau",KALIMANTAN TENGAH,73564.0,Indonesia,,,,-2.7484134,114.258099,https://maps.google.com/?cid=0x0:0xc3c86d33cd44f1d8,
mall,Pasar,Pasar kamis Tahai Jaya,"Tahai Jaya, Kec. Maliku, Kabupaten Pulang Pisau, Kalimantan Tengah 74871","Kec. Maliku, Kabupaten Pulang Pisau",KALIMANTAN TENGAH,74871.0,Indonesia, 0822225437171,,,-3.0239431,114.1837632,https://maps.google.com/?cid=0x0:0xcf5d7140b96a634e,
mall,Tempat Cukur Rambut,Pangkas rambut ucu,"67RR+83F, Anjir Pulang Pisau, Kec. Kahayan Hilir, Kabupaten Pulang Pisau, Kalimantan Tengah 73564","Anjir Pulang Pisau, Kec. Kahayan Hilir, Kabupaten Pulang Pisau",KALIMANTAN TENGAH,73564.0,Indonesia, 085245141718,,,-2.7591942,114.2901845,https://maps.google.com/?cid=0x0:0x91cdaaa900d2bdf4,
mall,Toko Swalayan,Penggilingan Daging Mama Fitri,"67W5+HH3, Jl. Rey I, Pulang Pisau, Kec. Kahayan Hilir, Kabupaten Pulang Pisau, Kalimantan Tengah 73564","Jl. Rey I, Pulang Pisau, Kec. Kahayan Hilir, Kabupaten Pulang Pisau",KALIMANTAN TENGAH,73564.0,Indonesia, 085332568405,,,-2.7536219,114.2589337,https://maps.google.com/?cid=0x0:0x69a5fda850f3b350,
mall,Toko Parfum,Toko indah parfum..,"komp gren asas, Jalan abel gawey, Pulang Pisau, Kec. Kahayan Hilir, Kabupaten Pulang Pisau, Kalimantan Tengah 73564","Jalan abel gawey, Pulang Pisau, Kec. Kahayan Hilir, Kabupaten Pulang Pisau",KALIMANTAN TENGAH,73564.0,Indonesia, 085345018585,,,-2.7777464,114.2681376,https://maps.google.com/?cid=0x0:0x7f394e775ce65b82,
mall,Kantor Keselamatan Publik,Polsek Kahayan Hilir,"67X4+FQ8, Jl. Tingang Menteng, Pulang Pisau, Kec. Kahayan Hilir, Kabupaten Pulang Pisau, Kalimantan Tengah 73564","Jl. Tingang Menteng, Pulang Pisau, Kec. Kahayan Hilir, Kabupaten Pulang Pisau",KALIMANTAN TENGAH,73564.0,Indonesia,,,,-2.7513411,114.2569666,https://maps.google.com/?cid=0x0:0x5b1bda2712f6bd09,
mall,Pusat Perbelanjaan,Toko Rudi,"96C7+443, Henda, Kec. Jabiren, Kabupaten Pulang Pisau, Kalimantan Tengah 74861","Henda, Kec. Jabiren, Kabupaten Pulang Pisau",KALIMANTAN TENGAH,74861.0,Indonesia, 082155680269,,,-2.6297419,114.2128087,https://maps.google.com/?cid=0x0:0x1bea03c37baa715a,
mall,Pusat Perbelanjaan,Komplek Pasar Kamis (Pasar Mingguan),"67V4+R24, Pulang Pisau, Kec. Kahayan Hilir, Kabupaten Pulang Pisau, Kalimantan Tengah 73564","Pulang Pisau, Kec. Kahayan Hilir, Kabupaten Pulang Pisau",KALIMANTAN TENGAH,73564.0,Indonesia,,,,-2.7554864,114.2550672,https://maps.google.com/?cid=0x0:0x11426deb9cc0d6c5,
mall,mall,Kec. Kahayan Hilir,"Kabupaten Pulang Pisau, Kalimantan Tengah","Kabupaten Pulang Pisau, Kalimantan Tengah",KALIMANTAN TENGAH,,Indonesia,,,,-2.7914682,114.262235,https://maps.google.com/?cid=0x0:0x7f1583868799e28e,
mall,Pusat Perbelanjaan,PASAR RAKYAT HANDEP HAPAKAT,"7725+V79, Pulang Pisau, Kec. Kahayan Hilir, Kabupaten Pulang Pisau, Kalimantan Tengah 73564","Pulang Pisau, Kec. Kahayan Hilir, Kabupaten Pulang Pisau",KALIMANTAN TENGAH,73564.0,Indonesia,,,,-2.7478472,114.2582376,https://maps.google.com/?cid=0x0:0xcffed0ea8893a352,
mall,,ponsel Hafizi,"Jl. Tingang Menteng, Pulang Pisau, Kec. Kahayan Hilir, Kabupaten Pulang Pisau, Kalimantan Tengah 73564","Pulang Pisau, Kec. Kahayan Hilir, Kabupaten Pulang Pisau",KALIMANTAN TENGAH,73564.0,Indonesia, 081349260044,,,-2.7477618,114.2582497,https://maps.google.com/?cid=0x0:0x4bb00635603c130c,
mall,Pusat Perbelanjaan,Toko Nabila,"7735+26M, Pulang Pisau, Kec. Kahayan Hilir, Kabupaten Pulang Pisau, Kalimantan Tengah 73564","Pulang Pisau, Kec. Kahayan Hilir, Kabupaten Pulang Pisau",KALIMANTAN TENGAH,73564.0,Indonesia, 081251888899,,,-2.747415,114.25804,https://maps.google.com/?cid=0x0:0x7d301d37f8d23270,
mall,Toko bahan makanan,Warung km 17,"464X+QJR, Jl. Trans - Kalimantan, Mintin, Kec. Kahayan Hilir, Kabupaten Pulang Pisau, Kalimantan Tengah 74873","Jl. Trans - Kalimantan, Mintin, Kec. Kahayan Hilir, Kabupaten Pulang Pisau",KALIMANTAN TENGAH,74873.0,Indonesia,,,,-2.8930226,114.2490095,https://maps.google.com/?cid=0x0:0xa5c45f4af19e7314,
mall,Toko bahan makanan,loket nova,"77C9+3JW, Jl. Tajahan Antang, Bereng, Kec. Kahayan Hilir, Kabupaten Pulang Pisau, Kalimantan Tengah 73564","Jl. Tajahan Antang, Bereng, Kec. Kahayan Hilir, Kabupaten Pulang Pisau",KALIMANTAN TENGAH,73564.0,Indonesia, 083874617766,,,-2.7297628,114.2690883,https://maps.google.com/?cid=0x0:0x7f150adde2f14979,
mall,Restoran,Warung Putri Anggun,"87HG+3J6, Gohong, Kec. Kahayan Hilir, Kabupaten Pulang Pisau, Kalimantan Tengah 74816","Gohong, Kec. Kahayan Hilir, Kabupaten Pulang Pisau",KALIMANTAN TENGAH,74816.0,Indonesia,,,,-2.6723271,114.2765244,https://maps.google.com/?cid=0x0:0xb618f66b7075eb28,
mall,Toko,Warung Delvin,"7763+PF8, Kalawa, Kec. Kahayan Hilir, Kabupaten Pulang Pisau, Kalimantan Tengah 73564","Kalawa, Kec. Kahayan Hilir, Kabupaten Pulang Pisau",KALIMANTAN TENGAH,73564.0,Indonesia, 081256175040,,,-2.7389901,114.2541839,https://maps.google.com/?cid=0x0:0x2a1326ce6b309b4a,
mall,Toko Pakaian Wanita,Mama ayub,"7725+3VQ, Jl. Unggul, Pulang Pisau, Kec. Kahayan Hilir, Kabupaten Pulang Pisau, Kalimantan Tengah 73564","Jl. Unggul, Pulang Pisau, Kec. Kahayan Hilir, Kabupaten Pulang Pisau",KALIMANTAN TENGAH,73564.0,Indonesia, 085332366636,,,-2.7497862,114.2597393,https://maps.google.com/?cid=0x0:0x80fd5a5e207313fc,
mall,Toko,Toko surya agung,"67JM+M5P, Jl. Trans - Kalimantan, Anjir Pulang Pisau, Kec. Kahayan Hilir, Kabupaten Pulang Pisau, Kalimantan Tengah 73564","Jl. Trans - Kalimantan, Anjir Pulang Pisau, Kec. Kahayan Hilir, Kabupaten Pulang Pisau",KALIMANTAN TENGAH,73564.0,Indonesia, 081250058544,,,-2.768289,114.28294,https://maps.google.com/?cid=0x0:0x95076e7710ac34ce,
mall,Toko,Akmal Store,"jl.garuda No.1, Garantung, Kec. Maliku, Kabupaten Pulang Pisau, Kalimantan Tengah 74871","Garantung, Kec. Maliku, Kabupaten Pulang Pisau",KALIMANTAN TENGAH,74871.0,Indonesia, 082242226263,,,-2.9245988,114.1410362,https://maps.google.com/?cid=0x0:0x11622132a7966d57,
mall,Pasar,Pasar Minggu,"44F9+229, Desa, Kanamit Bar., Kec. Maliku, Kabupaten Pulang Pisau, Kalimantan Tengah 74871","Desa, Kanamit Bar., Kec. Maliku, Kabupaten Pulang Pisau",KALIMANTAN TENGAH,74871.0,Indonesia,,,,-2.8774654,114.1175987,https://maps.google.com/?cid=0x0:0x3f9aa654333a5bbd,
mall,Pusat Perbelanjaan,Toko ilam,"jln. desa kenamit muara, pangkoh 9e, Kanamit, Kec. Maliku, Kabupaten Pulang Pisau, Kalimantan Tengah 74871","pangkoh 9e, Kanamit, Kec. Maliku, Kabupaten Pulang Pisau",KALIMANTAN TENGAH,74871.0,Indonesia, 085806569685,,,-2.8880705,114.1742681,https://maps.google.com/?cid=0x0:0xb3e9a2e326610d50,
mall,Toko,H. Udin Helm,"7725+J6Q, Jl. Tingang Menteng, Pulang Pisau, Kec. Kahayan Hilir, Kabupaten Pulang Pisau, Kalimantan Tengah 73564","Jl. Tingang Menteng, Pulang Pisau, Kec. Kahayan Hilir, Kabupaten Pulang Pisau",KALIMANTAN TENGAH,73564.0,Indonesia,,,,-2.7484134,114.258099,https://maps.google.com/?cid=0x0:0xc3c86d33cd44f1d8,
mall,Pasar,Pasar kamis Tahai Jaya,"Tahai Jaya, Kec. Maliku, Kabupaten Pulang Pisau, Kalimantan Tengah 74871","Kec. Maliku, Kabupaten Pulang Pisau",KALIMANTAN TENGAH,74871.0,Indonesia, 0822225437171,,,-3.0239431,114.1837632,https://maps.google.com/?cid=0x0:0xcf5d7140b96a634e,
mall,Pusat Perbelanjaan,Palangkaraya Mall (Palma),"Jl. Tjilik Riwut No.1, Palangka, Kec. Jekan Raya, Kota Palangka Raya, Kalimantan Tengah 74874","Palangka, Kec. Jekan Raya, Kota Palangka Raya",KALIMANTAN TENGAH,74874.0,Indonesia,,,,-2.2065433,113.9154004,https://maps.google.com/?cid=0x0:0xe30705d17366c7e0,
mall,Tempat Cukur Rambut,Pangkas rambut ucu,"67RR+83F, Anjir Pulang Pisau, Kec. Kahayan Hilir, Kabupaten Pulang Pisau, Kalimantan Tengah 73564","Anjir Pulang Pisau, Kec. Kahayan Hilir, Kabupaten Pulang Pisau",KALIMANTAN TENGAH,73564.0,Indonesia, 085245141718,,,-2.7591942,114.2901845,https://maps.google.com/?cid=0x0:0x91cdaaa900d2bdf4,
mall,Toko Parfum,Toko indah parfum..,"komp gren asas, Jalan abel gawey, Pulang Pisau, Kec. Kahayan Hilir, Kabupaten Pulang Pisau, Kalimantan Tengah 73564","Jalan abel gawey, Pulang Pisau, Kec. Kahayan Hilir, Kabupaten Pulang Pisau",KALIMANTAN TENGAH,73564.0,Indonesia, 085345018585,,,-2.7777464,114.2681376,https://maps.google.com/?cid=0x0:0x7f394e775ce65b82,
mall,Salon Kecantikan,Salon Family,"XXV2+8FX, Jl. Palangkaraya - Buntok, Petuk Liti, Kec. Kahayan Tengah, Kabupaten Pulang Pisau, Kalimantan Tengah 73111","Jl. Palangkaraya - Buntok, Petuk Liti, Kec. Kahayan Tengah, Kabupaten Pulang Pisau",KALIMANTAN TENGAH,73111.0,Indonesia, 081254824808,,,-2.0066491,113.9512303,https://maps.google.com/?cid=0x0:0xde44e119b0cf2f15,
mall,mall,Pulang Pisau,"Kec. Kahayan Hilir, Kabupaten Pulang Pisau, Kalimantan Tengah","Kabupaten Pulang Pisau, Kalimantan Tengah",KALIMANTAN TENGAH,,Indonesia,,,,-2.7582411,114.2657969,https://maps.google.com/?cid=0x0:0xdbeada59bb2cdd04,
mall,Kantor Keselamatan Publik,Polsek Kahayan Hilir,"67X4+FQ8, Jl. Tingang Menteng, Pulang Pisau, Kec. Kahayan Hilir, Kabupaten Pulang Pisau, Kalimantan Tengah 73564","Jl. Tingang Menteng, Pulang Pisau, Kec. Kahayan Hilir, Kabupaten Pulang Pisau",KALIMANTAN TENGAH,73564.0,Indonesia,,,,-2.7513411,114.2569666,https://maps.google.com/?cid=0x0:0x5b1bda2712f6bd09,
mall,mall,Kalimantan Tengah 74861,"Kec. Kahayan Hilir, Kabupaten Pulang Pisau, Kalimantan Tengah","Kabupaten Pulang Pisau, Kalimantan Tengah",KALIMANTAN TENGAH,,Indonesia,,,,-2.6258092,114.1677159,https://maps.google.com/?cid=0x0:0xa561bda05dfda1b5,
mall,Pusat Perbelanjaan,Toko Rudi,"96C7+443, Henda, Kec. Jabiren, Kabupaten Pulang Pisau, Kalimantan Tengah 74861","Henda, Kec. Jabiren, Kabupaten Pulang Pisau",KALIMANTAN TENGAH,74861.0,Indonesia, 082155680269,,,-2.6297419,114.2128087,https://maps.google.com/?cid=0x0:0x1bea03c37baa715a,
mall,Pusat Perbelanjaan,PASAR RAKYAT HANDEP HAPAKAT,"7725+V79, Pulang Pisau, Kec. Kahayan Hilir, Kabupaten Pulang Pisau, Kalimantan Tengah 73564","Pulang Pisau, Kec. Kahayan Hilir, Kabupaten Pulang Pisau",KALIMANTAN TENGAH,73564.0,Indonesia,,,,-2.7478472,114.2582376,https://maps.google.com/?cid=0x0:0xcffed0ea8893a352,
mall,Restoran,Warung Putri Anggun,"87HG+3J6, Gohong, Kec. Kahayan Hilir, Kabupaten Pulang Pisau, Kalimantan Tengah 74816","Gohong, Kec. Kahayan Hilir, Kabupaten Pulang Pisau",KALIMANTAN TENGAH,74816.0,Indonesia,,,,-2.6723271,114.2765244,https://maps.google.com/?cid=0x0:0xb618f66b7075eb28,
mall,Toko bahan makanan,loket nova,"77C9+3JW, Jl. Tajahan Antang, Bereng, Kec. Kahayan Hilir, Kabupaten Pulang Pisau, Kalimantan Tengah 73564","Jl. Tajahan Antang, Bereng, Kec. Kahayan Hilir, Kabupaten Pulang Pisau",KALIMANTAN TENGAH,73564.0,Indonesia, 083874617766,,,-2.7297628,114.2690883,https://maps.google.com/?cid=0x0:0x7f150adde2f14979,
mall,Toko,Warung Delvin,"7763+PF8, Kalawa, Kec. Kahayan Hilir, Kabupaten Pulang Pisau, Kalimantan Tengah 73564","Kalawa, Kec. Kahayan Hilir, Kabupaten Pulang Pisau",KALIMANTAN TENGAH,73564.0,Indonesia, 081256175040,,,-2.7389901,114.2541839,https://maps.google.com/?cid=0x0:0x2a1326ce6b309b4a,
mall,,ponsel Hafizi,"Jl. Tingang Menteng, Pulang Pisau, Kec. Kahayan Hilir, Kabupaten Pulang Pisau, Kalimantan Tengah 73564","Pulang Pisau, Kec. Kahayan Hilir, Kabupaten Pulang Pisau",KALIMANTAN TENGAH,73564.0,Indonesia, 081349260044,,,-2.7477618,114.2582497,https://maps.google.com/?cid=0x0:0x4bb00635603c130c,
mall,Pusat Perbelanjaan,Toko Nabila,"7735+26M, Pulang Pisau, Kec. Kahayan Hilir, Kabupaten Pulang Pisau, Kalimantan Tengah 73564","Pulang Pisau, Kec. Kahayan Hilir, Kabupaten Pulang Pisau",KALIMANTAN TENGAH,73564.0,Indonesia, 081251888899,,,-2.747415,114.25804,https://maps.google.com/?cid=0x0:0x7d301d37f8d23270,
mall,Toko Pakaian Wanita,Mama ayub,"7725+3VQ, Jl. Unggul, Pulang Pisau, Kec. Kahayan Hilir, Kabupaten Pulang Pisau, Kalimantan Tengah 73564","Jl. Unggul, Pulang Pisau, Kec. Kahayan Hilir, Kabupaten Pulang Pisau",KALIMANTAN TENGAH,73564.0,Indonesia, 085332366636,,,-2.7497862,114.2597393,https://maps.google.com/?cid=0x0:0x80fd5a5e207313fc,
mall,Balai masyarakat,PERPUSDES HENDA,"Henda, Kec. Jabiren, Kabupaten Pulang Pisau, Kalimantan Tengah 74861","Kec. Jabiren, Kabupaten Pulang Pisau",KALIMANTAN TENGAH,74861.0,Indonesia, 085249771814,,,-2.6071191,114.2144001,https://maps.google.com/?cid=0x0:0x346347e04c7a659e,
mall,Toko,Pulang pisau,"Jl. Trans - Kalimantan No.184, Mintin, Kec. Kahayan Hilir, Kabupaten Pulang Pisau, Kalimantan Tengah 74873","Mintin, Kec. Kahayan Hilir, Kabupaten Pulang Pisau",KALIMANTAN TENGAH,74873.0,Indonesia,,,,-2.850321,114.21583,https://maps.google.com/?cid=0x0:0x1659defa339b3ddc,
mall,Pusat Perbelanjaan,Palangkaraya Mall (Palma),"Jl. Tjilik Riwut No.1, Palangka, Kec. Jekan Raya, Kota Palangka Raya, Kalimantan Tengah 74874","Palangka, Kec. Jekan Raya, Kota Palangka Raya",KALIMANTAN TENGAH,74874.0,Indonesia,,,,-2.2065433,113.9154004,https://maps.google.com/?cid=0x0:0xe30705d17366c7e0,
mall,Toko,H. Udin Helm,"7725+J6Q, Jl. Tingang Menteng, Pulang Pisau, Kec. Kahayan Hilir, Kabupaten Pulang Pisau, Kalimantan Tengah 73564","Jl. Tingang Menteng, Pulang Pisau, Kec. Kahayan Hilir, Kabupaten Pulang Pisau",KALIMANTAN TENGAH,73564.0,Indonesia,,,,-2.7484134,114.258099,https://maps.google.com/?cid=0x0:0xc3c86d33cd44f1d8,
mall,Kantor Keselamatan Publik,Polsek Kahayan Hilir,"67X4+FQ8, Jl. Tingang Menteng, Pulang Pisau, Kec. Kahayan Hilir, Kabupaten Pulang Pisau, Kalimantan Tengah 73564","Jl. Tingang Menteng, Pulang Pisau, Kec. Kahayan Hilir, Kabupaten Pulang Pisau",KALIMANTAN TENGAH,73564.0,Indonesia,,,,-2.7513411,114.2569666,https://maps.google.com/?cid=0x0:0x5b1bda2712f6bd09,
mall,Kerajinan,Anyaman Rotan Kelompok Pahari,"879M+82R, Gohong, Kec. Kahayan Hilir, Kabupaten Pulang Pisau, Kalimantan Tengah 74816","Gohong, Kec. Kahayan Hilir, Kabupaten Pulang Pisau",KALIMANTAN TENGAH,74816.0,Indonesia,,,,-2.6813689,114.2827161,https://maps.google.com/?cid=0x0:0x565aa088bf28dcfd,
mall,Pusat Perbelanjaan,Kedai AF,"Kiapak, Kec. Kahayan Kuala, Kabupaten Pulang Pisau, Kalimantan Tengah 74872","Kec. Kahayan Kuala, Kabupaten Pulang Pisau",KALIMANTAN TENGAH,74872.0,Indonesia,,,,-3.3673104,114.113048,https://maps.google.com/?cid=0x0:0x3c16cc4c6d74c192,
mall,mall,Kalimantan Tengah 74872,"Kabupaten Pulang Pisau, Kalimantan Tengah","Kabupaten Pulang Pisau, Kalimantan Tengah",KALIMANTAN TENGAH,,Indonesia,,,,-3.197171,114.0488007,https://maps.google.com/?cid=0x0:0x496607f806bb7e7f,
mall,Pusat Perbelanjaan,Toko Berkat Sumber Baru,"Q37X+8M5, Bahaur Hilir, Kec. Kahayan Kuala, Kabupaten Pulang Pisau, Kalimantan Tengah 74872","Bahaur Hilir, Kec. Kahayan Kuala, Kabupaten Pulang Pisau",KALIMANTAN TENGAH,74872.0,Indonesia, 082353261769,,,-3.2367418,114.0992235,https://maps.google.com/?cid=0x0:0xe339826da29ba63b,
mall,Komplek perumahan,T.Raya Barat,"Q5WP+GXW, Unnamed Road, Bahaur Batu Raya, Kec. Kahayan Kuala, Kabupaten Pulang Pisau, Kalimantan Tengah 73583","Unnamed Road, Bahaur Batu Raya, Kec. Kahayan Kuala, Kabupaten Pulang Pisau",KALIMANTAN TENGAH,73583.0,Indonesia,,,,-3.2036312,114.1874642,https://maps.google.com/?cid=0x0:0xe37be0696c33749c,
mall,Pusat Perbelanjaan,Toko Timbul Jaya Bahaur,"Q4F3+PC, Bahaur Hilir, Kec. Kahayan Kuala, Kabupaten Pulang Pisau, Kalimantan Tengah 74872","Bahaur Hilir, Kec. Kahayan Kuala, Kabupaten Pulang Pisau",KALIMANTAN TENGAH,74872.0,Indonesia, 085251619524,,,-3.2358928,114.0998733,https://maps.google.com/?cid=0x0:0x3719ff2cc3be74f9,
mall,Pusat Perbelanjaan,UD.SUMBER JAYA MANDIRI,"Jl. Hidayatullah, Tj. Perawan, Kec. Kahayan Kuala, Kabupaten Pulang Pisau, Kalimantan Tengah 74872","Tj. Perawan, Kec. Kahayan Kuala, Kabupaten Pulang Pisau",KALIMANTAN TENGAH,74872.0,Indonesia, 081346644686,,,-3.2527543,114.0963755,https://maps.google.com/?cid=0x0:0x1b320aaf1d6911f1,
mall,Toko,Latifaah lutfhiy,"Q35X+GMC, Jl. Idrus, Bahaur Hilir, Kec. Kahayan Kuala, Kabupaten Pulang Pisau, Kalimantan Tengah 74872","Jl. Idrus, Bahaur Hilir, Kec. Kahayan Kuala, Kabupaten Pulang Pisau",KALIMANTAN TENGAH,74872.0,Indonesia,,,,-3.2415234,114.0993154,https://maps.google.com/?cid=0x0:0xd989faf538651dfd,
mall,Kedai Kopi,Pisang Keju helwati,"Q36X+8MC, Jl. Idrus, Bahaur Hilir, Kec. Kahayan Kuala, Kabupaten Pulang Pisau, Kalimantan Tengah 74872","Jl. Idrus, Bahaur Hilir, Kec. Kahayan Kuala, Kabupaten Pulang Pisau",KALIMANTAN TENGAH,74872.0,Indonesia, 082354930986,,,-3.2391952,114.0991282,https://maps.google.com/?cid=0x0:0xa548ef59a62e436a,
mall,Bengkel Mobil,Bengkel TJP,"Jl. Hidayatullah, Tj. Perawan, Kec. Kahayan Kuala, Kabupaten Pulang Pisau, Kalimantan Tengah 74872","Tj. Perawan, Kec. Kahayan Kuala, Kabupaten Pulang Pisau",KALIMANTAN TENGAH,74872.0,Indonesia,,,,-3.2563399,114.0975904,https://maps.google.com/?cid=0x0:0x2c1abb02a3df18c7,
mall,Toko,Akmal Store,"jl.garuda No.1, Garantung, Kec. Maliku, Kabupaten Pulang Pisau, Kalimantan Tengah 74871","Garantung, Kec. Maliku, Kabupaten Pulang Pisau",KALIMANTAN TENGAH,74871.0,Indonesia, 082242226263,,,-2.9245988,114.1410362,https://maps.google.com/?cid=0x0:0x11622132a7966d57,
mall,Pasar,Pasar Sabtu Kecamatan Sebangau Kuala,"3R8Q+2FQ, Jl. Diponegoro, Sebangau Permai, Kec. Sebangau Kuala, Kabupaten Pulang Pisau, Kalimantan Tengah 74874","Jl. Diponegoro, Sebangau Permai, Kec. Sebangau Kuala, Kabupaten Pulang Pisau",KALIMANTAN TENGAH,74874.0,Indonesia,,,,-2.9349071,113.8387445,https://maps.google.com/?cid=0x0:0x68a3dcccf96dd572,
mall,Toko sembako pemerintah,Warung Anggi Rifani,"Q37X+WQG, Bahaur Hilir, Kec. Kahayan Kuala, Kabupaten Pulang Pisau, Kalimantan Tengah 74872","Bahaur Hilir, Kec. Kahayan Kuala, Kabupaten Pulang Pisau",KALIMANTAN TENGAH,74872.0,Indonesia, 085348340354,,,-3.2351908,114.0994423,https://maps.google.com/?cid=0x0:0x1a399ef959765357,
mall,Pusat Perbelanjaan,Emas Bahaur,"Q37X+HJH, Jl. Hidayatullah, Bahaur Hilir, Kec. Kahayan Kuala, Kabupaten Pulang Pisau, Kalimantan Tengah 74872","Jl. Hidayatullah, Bahaur Hilir, Kec. Kahayan Kuala, Kabupaten Pulang Pisau",KALIMANTAN TENGAH,74872.0,Indonesia,,,,-3.2362078,114.0991927,https://maps.google.com/?cid=0x0:0xcf67ec65fc12e766,
mall,Pusat Perbelanjaan,Toko Berkah,"24HC+X89, Gandang, Kec. Maliku, Kabupaten Pulang Pisau, Kalimantan Tengah 74871","Gandang, Kec. Maliku, Kabupaten Pulang Pisau",KALIMANTAN TENGAH,74871.0,Indonesia, 085391806364,,,-2.9700838,114.1208635,https://maps.google.com/?cid=0x0:0x52492c79375eadc,
mall,Pusat Perbelanjaan,Toko Basri,"24J9+3PJ, Gandang, Kec. Maliku, Kabupaten Pulang Pisau, Kalimantan Tengah 74871","Gandang, Kec. Maliku, Kabupaten Pulang Pisau",KALIMANTAN TENGAH,74871.0,Indonesia,,,,-2.9697881,114.1192751,https://maps.google.com/?cid=0x0:0xed07ec9804b9c063,
mall,Pasar,Pasar kamis Tahai Jaya,"Tahai Jaya, Kec. Maliku, Kabupaten Pulang Pisau, Kalimantan Tengah 74871","Kec. Maliku, Kabupaten Pulang Pisau",KALIMANTAN TENGAH,74871.0,Indonesia, 0822225437171,,,-3.0239431,114.1837632,https://maps.google.com/?cid=0x0:0xcf5d7140b96a634e,
mall,Pusat Perbelanjaan,Toko Acha Olshop,"Gandang, Kec. Maliku, Kabupaten Pulang Pisau, Kalimantan Tengah 74871","Kec. Maliku, Kabupaten Pulang Pisau",KALIMANTAN TENGAH,74871.0,Indonesia,,,,-2.9708396,114.1363415,https://maps.google.com/?cid=0x0:0x7f779c5f2dca4acf,
mall,Pasar,Komplek Pasar Talio Muara,"W43H+7G8, Talio Muara, Kec. Pandih Batu, Kabupaten Pulang Pisau, Kalimantan Tengah 74872","Talio Muara, Kec. Pandih Batu, Kabupaten Pulang Pisau",KALIMANTAN TENGAH,74872.0,Indonesia,,,,-3.0968256,114.1288261,https://maps.google.com/?cid=0x0:0x91a016b44a4ee619,
mall,Pusat Perbelanjaan,Toko Berkah 2,"24JQ+RGM, Jl. Tjilik Riwut, Maliku Baru, Kec. Maliku, Kabupaten Pulang Pisau, Kalimantan Tengah 74871","Jl. Tjilik Riwut, Maliku Baru, Kec. Maliku, Kabupaten Pulang Pisau",KALIMANTAN TENGAH,74871.0,Indonesia,,,,-2.9679588,114.1387706,https://maps.google.com/?cid=0x0:0xf90e2da5d40dbada,
mall,Toko Bahan Bangunan,Toko Bangunan UD. MORO DADI,"X3WX+88R, Kantan Dalam, Kec. Pandih Batu, Kabupaten Pulang Pisau, Kalimantan Tengah 74871","Kantan Dalam, Kec. Pandih Batu, Kabupaten Pulang Pisau",KALIMANTAN TENGAH,74871.0,Indonesia, 081348982160,,,-3.0041456,114.0982561,https://maps.google.com/?cid=0x0:0xecc0db4a97b0b91e,
mall,Pusat Perbelanjaan,toko nisa,"24JC+Q9X, Unnamed Road, Gandang, Kec. Maliku, Kabupaten Pulang Pisau, Kalimantan Tengah 74871","Unnamed Road, Gandang, Kec. Maliku, Kabupaten Pulang Pisau",KALIMANTAN TENGAH,74871.0,Indonesia, 085247928071,,,-2.9680132,114.1209786,https://maps.google.com/?cid=0x0:0x200a31ec5b1c2e99,
mall,Pusat Perbelanjaan,Toko Kaswanto.,"24H7+PWP, Gandang, Kec. Maliku, Kabupaten Pulang Pisau, Kalimantan Tengah 74871","Gandang, Kec. Maliku, Kabupaten Pulang Pisau",KALIMANTAN TENGAH,74871.0,Indonesia,,,,-2.9706608,114.1148193,https://maps.google.com/?cid=0x0:0x8f6d1b135ddc98f2,
mall,mall,Kalimantan Tengah 74862,"Lahei Mangkutup, Kec. Mantangai, Kabupaten Kapuas, Kalimantan Tengah","Kabupaten Kapuas, Kalimantan Tengah",KALIMANTAN TENGAH,,Indonesia,,,,-1.8507872,114.0963705,https://maps.google.com/?cid=0x0:0x57aa0e32b731e17e,
mall,Pusat Perbelanjaan,Palangkaraya Mall (Palma),"Jl. Tjilik Riwut No.1, Palangka, Kec. Jekan Raya, Kota Palangka Raya, Kalimantan Tengah 74874","Palangka, Kec. Jekan Raya, Kota Palangka Raya",KALIMANTAN TENGAH,74874.0,Indonesia,,,,-2.2065433,113.9154004,https://maps.google.com/?cid=0x0:0xe30705d17366c7e0,
mall,Salon Kecantikan,Salon Family,"XXV2+8FX, Jl. Palangkaraya - Buntok, Petuk Liti, Kec. Kahayan Tengah, Kabupaten Pulang Pisau, Kalimantan Tengah 73111","Jl. Palangkaraya - Buntok, Petuk Liti, Kec. Kahayan Tengah, Kabupaten Pulang Pisau",KALIMANTAN TENGAH,73111.0,Indonesia, 081254824808,,,-2.0066491,113.9512303,https://maps.google.com/?cid=0x0:0xde44e119b0cf2f15,
mall,Pusat Perbelanjaan,Duta Mall Palangka Raya,"QW2F+G58, Langkai, Kec. Pahandut, Kota Palangka Raya, Kalimantan Tengah 74874","Langkai, Kec. Pahandut, Kota Palangka Raya",KALIMANTAN TENGAH,74874.0,Indonesia,,,,-2.248704,113.922958,https://maps.google.com/?cid=0x0:0xd4fe13501def807f,
mall,Toko bahan makanan,Kios virna,"8WJP+C27, Jl. SAKA PERMAI, Pahawan, Kec. Banama Tingang, Kabupaten Pulang Pisau, Kalimantan Tengah 74863","Jl. SAKA PERMAI, Pahawan, Kec. Banama Tingang, Kabupaten Pulang Pisau",KALIMANTAN TENGAH,74863.0,Indonesia,,,,-1.6689589,113.9350422,https://maps.google.com/?cid=0x0:0x1692645989370b6,
mall,Toko umum,Warung amelia aryani,"2X63+MH2, Jl. Palangka Raya - Kuala Kurun, Bukit Liti, Kec. Kahayan Tengah, Kabupaten Pulang Pisau, Kalimantan Tengah 73111","Jl. Palangka Raya - Kuala Kurun, Bukit Liti, Kec. Kahayan Tengah, Kabupaten Pulang Pisau",KALIMANTAN TENGAH,73111.0,Indonesia, 085252936089,,,-1.9883722,113.9538935,https://maps.google.com/?cid=0x0:0x246850b734bf9fe2,
mall,Toko bahan makanan,Warung Mama Cia,"9WHC+2RX, Jl. Darung Bawan, Bawan, Kec. Banama Tingang, Kabupaten Pulang Pisau, Kalimantan Tengah 74863","Jl. Darung Bawan, Bawan, Kec. Banama Tingang, Kabupaten Pulang Pisau",KALIMANTAN TENGAH,74863.0,Indonesia,,,,-1.6223756,113.9221148,https://maps.google.com/?cid=0x0:0x4416f9337d54bdde,
mall,mall,Toko Widiw,"Jln. Lintas Jl. Palangka Raya - Kuala Kurun, Bawan, Kec. Banama Tingang, Kabupaten Pulang Pisau, Kalimantan Tengah 74863","Bawan, Kec. Banama Tingang, Kabupaten Pulang Pisau",KALIMANTAN TENGAH,74863.0,Indonesia,,,,-1.6220915,113.9347882,https://maps.google.com/?cid=0x0:0x192b90b6fca195d0,
mall,Pusat Perbelanjaan,Warung Mama Ufik Amuntai,"9WCP+3RH, Bawan, Kec. Banama Tingang, Kabupaten Pulang Pisau, Kalimantan Tengah 74863","Bawan, Kec. Banama Tingang, Kabupaten Pulang Pisau",KALIMANTAN TENGAH,74863.0,Indonesia, 081255006695,,,-1.6298147,113.9371148,https://maps.google.com/?cid=0x0:0xffdcaeace597ede4,
mall,mall,Bahu Palawa,"Kec. Kahayan Tengah, Kabupaten Pulang Pisau, Kalimantan Tengah","Kabupaten Pulang Pisau, Kalimantan Tengah",KALIMANTAN TENGAH,,Indonesia,,,,-1.9741754,113.9358031,https://maps.google.com/?cid=0x0:0x4cfdc151b268dfe6,
mall,mall,Sayur bapak riski,"8W5X+6M, Kasali Baru, Kec. Banama Tingang, Kabupaten Pulang Pisau, Kalimantan Tengah 74862","Kasali Baru, Kec. Banama Tingang, Kabupaten Pulang Pisau",KALIMANTAN TENGAH,74862.0,Indonesia,,,,-1.6919071,113.9492227,https://maps.google.com/?cid=0x0:0xcf4735978a9b2137,
mall,Pusat Perbelanjaan,Matahari Department Lippo Plaza Palangkaraya,"Jl. Yos Sudarso No.57, Menteng, Kec. Jekan Raya, Kota Palangka Raya, Kalimantan Tengah 74874","Menteng, Kec. Jekan Raya, Kota Palangka Raya",KALIMANTAN TENGAH,74874.0,Indonesia,,,,-2.2141989,113.9055548,https://maps.google.com/?cid=0x0:0xb3a6d520ec175c36,
mall,Toko,Toko Suka Collection,"QWH5+WVV, Jl. Sisingamangaraja, Menteng, Kec. Jekan Raya, Kota Palangka Raya, Kalimantan Tengah 74874","Jl. Sisingamangaraja, Menteng, Kec. Jekan Raya, Kota Palangka Raya",KALIMANTAN TENGAH,74874.0,Indonesia, 081351734645,,,-2.2201355,113.9096865,https://maps.google.com/?cid=0x0:0xb94deb34f94ddb0c,
mall,Toko Pakaian,Ayzha Outfit,"Jl. Sisingamangaraja, Menteng, Kec. Jekan Raya, Kota Palangka Raya, Kalimantan Tengah 74874","Menteng, Kec. Jekan Raya, Kota Palangka Raya",KALIMANTAN TENGAH,74874.0,Indonesia, 082199656088,,,-2.2177907,113.9082913,https://maps.google.com/?cid=0x0:0x76c9d6d75cd870cf,
mall,Bengkel Sepeda Motor,Bengkel Zulfa/ikhrom(menjual Bhan Mkanan Dan Bahan Bangunan),"9W5R+P77, Goha, Kec. Banama Tingang, Kabupaten Pulang Pisau, Kalimantan Tengah 74863","Goha, Kec. Banama Tingang, Kabupaten Pulang Pisau",KALIMANTAN TENGAH,74863.0,Indonesia, 082153387116,,,-1.6407113,113.9406832,https://maps.google.com/?cid=0x0:0x8c3214742c9a841d,
mall,Toko,Toko Arziki,"FW2C+WRQ Toko Arziki tiga pintu warna biru. BRI Link, jalan Lintas Palangkaraya RT.8, Desa Tangkahen, Kec. Banama Tingang, Kabupaten Pulang Pisau, Kalimantan Tengah 74863","jalan Lintas Palangkaraya RT.8, Desa Tangkahen, Kec. Banama Tingang, Kabupaten Pulang Pisau",KALIMANTAN TENGAH,74863.0,Indonesia,,,,-1.5476646,113.9221238,https://maps.google.com/?cid=0x0:0x43d4829d746dc405,
mall,mall,Kalimantan Tengah 74873,"Kabupaten Pulang Pisau, Kalimantan Tengah","Kabupaten Pulang Pisau, Kalimantan Tengah",KALIMANTAN TENGAH,,Indonesia,,,,-2.7184995,114.0963705,https://maps.google.com/?cid=0x0:0x10a01f8ddb581de7,
mall,Pasar,Pasar Minggu,"44F9+229, Desa, Kanamit Bar., Kec. Maliku, Kabupaten Pulang Pisau, Kalimantan Tengah 74871","Desa, Kanamit Bar., Kec. Maliku, Kabupaten Pulang Pisau",KALIMANTAN TENGAH,74871.0,Indonesia,,,,-2.8774654,114.1175987,https://maps.google.com/?cid=0x0:0x3f9aa654333a5bbd,
mall,Toko,Akmal Store,"jl.garuda No.1, Garantung, Kec. Maliku, Kabupaten Pulang Pisau, Kalimantan Tengah 74871","Garantung, Kec. Maliku, Kabupaten Pulang Pisau",KALIMANTAN TENGAH,74871.0,Indonesia, 082242226263,,,-2.9245988,114.1410362,https://maps.google.com/?cid=0x0:0x11622132a7966d57,
mall,Pusat Perbelanjaan,Komplek Pasar Kamis (Pasar Mingguan),"67V4+R24, Pulang Pisau, Kec. Kahayan Hilir, Kabupaten Pulang Pisau, Kalimantan Tengah 73564","Pulang Pisau, Kec. Kahayan Hilir, Kabupaten Pulang Pisau",KALIMANTAN TENGAH,73564.0,Indonesia,,,,-2.7554864,114.2550672,https://maps.google.com/?cid=0x0:0x11426deb9cc0d6c5,
mall,Pusat Perbelanjaan,Sumatra maju jaya,"24RW+VRJ, Unnamed Road, Maliku Baru, Kec. Maliku, Kabupaten Pulang Pisau, Kalimantan Tengah 74871","Unnamed Road, Maliku Baru, Kec. Maliku, Kabupaten Pulang Pisau",KALIMANTAN TENGAH,74871.0,Indonesia, 082153066742,,,-2.9577941,114.1470229,https://maps.google.com/?cid=0x0:0xe66fe1b84e845d07,
mall,Toko bahan makanan,Bakul tempe,"Gandang, Kec. Maliku, Kabupaten Pulang Pisau, Kalimantan Tengah 74871","Kec. Maliku, Kabupaten Pulang Pisau",KALIMANTAN TENGAH,74871.0,Indonesia,,,,-2.9669083,114.1160933,https://maps.google.com/?cid=0x0:0xf37856349cccc7e,
mall,Pusat Perbelanjaan,PASAR RAKYAT HANDEP HAPAKAT,"7725+V79, Pulang Pisau, Kec. Kahayan Hilir, Kabupaten Pulang Pisau, Kalimantan Tengah 73564","Pulang Pisau, Kec. Kahayan Hilir, Kabupaten Pulang Pisau",KALIMANTAN TENGAH,73564.0,Indonesia,,,,-2.7478472,114.2582376,https://maps.google.com/?cid=0x0:0xcffed0ea8893a352,
mall,Toko Pakaian Wanita,Mama ayub,"7725+3VQ, Jl. Unggul, Pulang Pisau, Kec. Kahayan Hilir, Kabupaten Pulang Pisau, Kalimantan Tengah 73564","Jl. Unggul, Pulang Pisau, Kec. Kahayan Hilir, Kabupaten Pulang Pisau",KALIMANTAN TENGAH,73564.0,Indonesia, 085332366636,,,-2.7497862,114.2597393,https://maps.google.com/?cid=0x0:0x80fd5a5e207313fc,
mall,Toko bahan makanan,Warung km 17,"464X+QJR, Jl. Trans - Kalimantan, Mintin, Kec. Kahayan Hilir, Kabupaten Pulang Pisau, Kalimantan Tengah 74873","Jl. Trans - Kalimantan, Mintin, Kec. Kahayan Hilir, Kabupaten Pulang Pisau",KALIMANTAN TENGAH,74873.0,Indonesia,,,,-2.8930226,114.2490095,https://maps.google.com/?cid=0x0:0xa5c45f4af19e7314,
mall,Pusat Perbelanjaan,Toko Basri,"24J9+3PJ, Gandang, Kec. Maliku, Kabupaten Pulang Pisau, Kalimantan Tengah 74871","Gandang, Kec. Maliku, Kabupaten Pulang Pisau",KALIMANTAN TENGAH,74871.0,Indonesia,,,,-2.9697881,114.1192751,https://maps.google.com/?cid=0x0:0xed07ec9804b9c063,
mall,Pusat Perbelanjaan,TOKO SERBA 35 MALIKU,"25V2+Q47, Jl. Tjilik Riwut, Maliku Baru, Kec. Maliku, Kabupaten Pulang Pisau, Kalimantan Tengah 74871","Jl. Tjilik Riwut, Maliku Baru, Kec. Maliku, Kabupaten Pulang Pisau",KALIMANTAN TENGAH,74871.0,Indonesia,,,,-2.9558389,114.1501225,https://maps.google.com/?cid=0x0:0x3e6b96ae6db848c9,
mall,Pusat Perbelanjaan,Pasar Patanak,"Pulang Pisau, Kec. Kahayan Hilir, Kabupaten Pulang Pisau, Kalimantan Tengah 73564","Kec. Kahayan Hilir, Kabupaten Pulang Pisau",KALIMANTAN TENGAH,73564.0,Indonesia, 085705921217,,,-2.7473515,114.258468,https://maps.google.com/?cid=0x0:0x50f5a3bbdaf1624d,
mall,Pusat Perbelanjaan,Toko Berkah,"24HC+X89, Gandang, Kec. Maliku, Kabupaten Pulang Pisau, Kalimantan Tengah 74871","Gandang, Kec. Maliku, Kabupaten Pulang Pisau",KALIMANTAN TENGAH,74871.0,Indonesia, 085391806364,,,-2.9700838,114.1208635,https://maps.google.com/?cid=0x0:0x52492c79375eadc,
mall,,ponsel Hafizi,"Jl. Tingang Menteng, Pulang Pisau, Kec. Kahayan Hilir, Kabupaten Pulang Pisau, Kalimantan Tengah 73564","Pulang Pisau, Kec. Kahayan Hilir, Kabupaten Pulang Pisau",KALIMANTAN TENGAH,73564.0,Indonesia, 081349260044,,,-2.7477618,114.2582497,https://maps.google.com/?cid=0x0:0x4bb00635603c130c,
mall,Pusat Perbelanjaan,TOKO NABILA,"35H3+FVX, Unnamed Road, Garantung, Kec. Maliku, Kabupaten Pulang Pisau, Kalimantan Tengah 74871","Unnamed Road, Garantung, Kec. Maliku, Kabupaten Pulang Pisau",KALIMANTAN TENGAH,74871.0,Indonesia, 081351668519,,,-2.9212687,114.1547242,https://maps.google.com/?cid=0x0:0x94b52d8282faa33e,
mall,Toko,Toko surya agung,"67JM+M5P, Jl. Trans - Kalimantan, Anjir Pulang Pisau, Kec. Kahayan Hilir, Kabupaten Pulang Pisau, Kalimantan Tengah 73564","Jl. Trans - Kalimantan, Anjir Pulang Pisau, Kec. Kahayan Hilir, Kabupaten Pulang Pisau",KALIMANTAN TENGAH,73564.0,Indonesia, 081250058544,,,-2.768289,114.28294,https://maps.google.com/?cid=0x0:0x95076e7710ac34ce,
mall,Toko,TOKO MAMA JAYA,"Unnamed Road, Gandang, Maliku, Pulang Pisau Regency, Central Kalimantan 74871","Gandang, Maliku, Pulang Pisau Regency",KALIMANTAN TENGAH,74871.0,Indonesia, 081288769509,,,-2.9705663,114.1208061,https://maps.google.com/?cid=0x0:0x56549456080b7180,
mall,Pusat Perbelanjaan,"Pasar Minggu, Maliku Baru","Maliku Baru, Kec. Maliku, Kabupaten Pulang Pisau, Kalimantan Tengah 74871","Kec. Maliku, Kabupaten Pulang Pisau",KALIMANTAN TENGAH,74871.0,Indonesia,,,,-2.975006,114.158981,https://maps.google.com/?cid=0x0:0x5a17eba2756bb88a,
mall,Toko,Toko Sembako H. M Nurul,"Jl. Tjilik Riwut, Maliku Baru, Kec. Maliku, Kabupaten Pulang Pisau, Kalimantan Tengah 74871","Maliku Baru, Kec. Maliku, Kabupaten Pulang Pisau",KALIMANTAN TENGAH,74871.0,Indonesia,,,,-2.955861,114.1509721,https://maps.google.com/?cid=0x0:0x1267dc6066954fc6,
mall,Toko bahan makanan,loket nova,"77C9+3JW, Jl. Tajahan Antang, Bereng, Kec. Kahayan Hilir, Kabupaten Pulang Pisau, Kalimantan Tengah 73564","Jl. Tajahan Antang, Bereng, Kec. Kahayan Hilir, Kabupaten Pulang Pisau",KALIMANTAN TENGAH,73564.0,Indonesia, 083874617766,,,-2.7297628,114.2690883,https://maps.google.com/?cid=0x0:0x7f150adde2f14979,
mall,Toko,Warung Delvin,"7763+PF8, Kalawa, Kec. Kahayan Hilir, Kabupaten Pulang Pisau, Kalimantan Tengah 73564","Kalawa, Kec. Kahayan Hilir, Kabupaten Pulang Pisau",KALIMANTAN TENGAH,73564.0,Indonesia, 081256175040,,,-2.7389901,114.2541839,https://maps.google.com/?cid=0x0:0x2a1326ce6b309b4a,
mall,mall,Kalimantan Tengah 74871,"Kabupaten Pulang Pisau, Kalimantan Tengah","Kabupaten Pulang Pisau, Kalimantan Tengah",KALIMANTAN TENGAH,,Indonesia,,,,-2.9382332,114.0963705,https://maps.google.com/?cid=0x0:0x716d476799e79fc,
mall,Pusat Perbelanjaan,Toko ilam,"jln. desa kenamit muara, pangkoh 9e, Kanamit, Kec. Maliku, Kabupaten Pulang Pisau, Kalimantan Tengah 74871","pangkoh 9e, Kanamit, Kec. Maliku, Kabupaten Pulang Pisau",KALIMANTAN TENGAH,74871.0,Indonesia, 085806569685,,,-2.8880705,114.1742681,https://maps.google.com/?cid=0x0:0xb3e9a2e326610d50,
mall,Toko Bahan Bangunan,Toko Bangunan UD. MORO DADI,"X3WX+88R, Kantan Dalam, Kec. Pandih Batu, Kabupaten Pulang Pisau, Kalimantan Tengah 74871","Kantan Dalam, Kec. Pandih Batu, Kabupaten Pulang Pisau",KALIMANTAN TENGAH,74871.0,Indonesia, 081348982160,,,-3.0041456,114.0982561,https://maps.google.com/?cid=0x0:0xecc0db4a97b0b91e,
mall,Toko Fotokopi,ER ES Fotocopy dan Laminating,"Kode Pos, Jl. Dahlia No.3, RT.006/RW.002, Kantan Atas, Kec. Pandih Batu, Kabupaten Pulang Pisau, Kalimantan Tengah 74871","Jl. Dahlia No.3, RT.006/RW.002, Kantan Atas, Kec. Pandih Batu, Kabupaten Pulang Pisau",KALIMANTAN TENGAH,74871.0,Indonesia,,,,-2.9944143,114.0734439,https://maps.google.com/?cid=0x0:0x9dcc1934520c35a4,
mall,Pasar,Pasar Minggu,"44F9+229, Desa, Kanamit Bar., Kec. Maliku, Kabupaten Pulang Pisau, Kalimantan Tengah 74871","Desa, Kanamit Bar., Kec. Maliku, Kabupaten Pulang Pisau",KALIMANTAN TENGAH,74871.0,Indonesia,,,,-2.8774654,114.1175987,https://maps.google.com/?cid=0x0:0x3f9aa654333a5bbd,
mall,Pusat Perbelanjaan,Dewi Olshop,"X5JP+27R, RT.005/RW.002, Tahai Jaya, Kec. Maliku, Kabupaten Pulang Pisau, Kalimantan Tengah 74871","RT.005/RW.002, Tahai Jaya, Kec. Maliku, Kabupaten Pulang Pisau",KALIMANTAN TENGAH,74871.0,Indonesia, 082254996899,,,-3.0198923,114.1856534,https://maps.google.com/?cid=0x0:0xc87dc2bf76de7ebb,
mall,Toko,Akmal Store,"jl.garuda No.1, Garantung, Kec. Maliku, Kabupaten Pulang Pisau, Kalimantan Tengah 74871","Garantung, Kec. Maliku, Kabupaten Pulang Pisau",KALIMANTAN TENGAH,74871.0,Indonesia, 082242226263,,,-2.9245988,114.1410362,https://maps.google.com/?cid=0x0:0x11622132a7966d57,
mall,Pusat Perbelanjaan,Toko Berkah,"24HC+X89, Gandang, Kec. Maliku, Kabupaten Pulang Pisau, Kalimantan Tengah 74871","Gandang, Kec. Maliku, Kabupaten Pulang Pisau",KALIMANTAN TENGAH,74871.0,Indonesia, 085391806364,,,-2.9700838,114.1208635,https://maps.google.com/?cid=0x0:0x52492c79375eadc,
mall,Toko Perlengkapan Rumah,Stokis Center Halalmart HNI Hafifah,"PASAR MINGGU RT 1A, Maliku Baru, Kec. Maliku, Kabupaten Pulang Pisau, Kalimantan Tengah 74873","Maliku Baru, Kec. Maliku, Kabupaten Pulang Pisau",KALIMANTAN TENGAH,74873.0,Indonesia, 085389647828,,,-2.9744626,114.1612134,https://maps.google.com/?cid=0x0:0x7a8f40e73d7e9068,
mall,Pasar,Pasar kamis Tahai Jaya,"Tahai Jaya, Kec. Maliku, Kabupaten Pulang Pisau, Kalimantan Tengah 74871","Kec. Maliku, Kabupaten Pulang Pisau",KALIMANTAN TENGAH,74871.0,Indonesia, 0822225437171,,,-3.0239431,114.1837632,https://maps.google.com/?cid=0x0:0xcf5d7140b96a634e,
mall,Toko,TOKO INAYAH,"24RW+RXR, Jl. Lintas bahaur, Maliku Baru, Kec. Maliku, Kabupaten Pulang Pisau, Kalimantan Tengah 74871","Jl. Lintas bahaur, Maliku Baru, Kec. Maliku, Kabupaten Pulang Pisau",KALIMANTAN TENGAH,74871.0,Indonesia, 082252640124,,,-2.9578853,114.1474024,https://maps.google.com/?cid=0x0:0xc94a6d3e359bbdce,
mall,Pusat Perbelanjaan,Sumatra maju jaya,"24RW+VRJ, Unnamed Road, Maliku Baru, Kec. Maliku, Kabupaten Pulang Pisau, Kalimantan Tengah 74871","Unnamed Road, Maliku Baru, Kec. Maliku, Kabupaten Pulang Pisau",KALIMANTAN TENGAH,74871.0,Indonesia, 082153066742,,,-2.9577941,114.1470229,https://maps.google.com/?cid=0x0:0xe66fe1b84e845d07,
mall,Toko,Bengkel Wira,"X5GM+RWF, Tahai Jaya, Kec. Maliku, Kabupaten Pulang Pisau, Kalimantan Tengah 74871","Tahai Jaya, Kec. Maliku, Kabupaten Pulang Pisau",KALIMANTAN TENGAH,74871.0,Indonesia, 085251920575,,,-3.0229395,114.1847913,https://maps.google.com/?cid=0x0:0xdf8e8836377fe0db,
mall,Pusat Perbelanjaan,Toko Basri,"24J9+3PJ, Gandang, Kec. Maliku, Kabupaten Pulang Pisau, Kalimantan Tengah 74871","Gandang, Kec. Maliku, Kabupaten Pulang Pisau",KALIMANTAN TENGAH,74871.0,Indonesia,,,,-2.9697881,114.1192751,https://maps.google.com/?cid=0x0:0xed07ec9804b9c063,
mall,,Fotocopy Renando,"25V3+6C9, Jl. Tjilik Riwut, Maliku Baru, Kec. Maliku, Kabupaten Pulang Pisau, Kalimantan Tengah 74871","Jl. Tjilik Riwut, Maliku Baru, Kec. Maliku, Kabupaten Pulang Pisau",KALIMANTAN TENGAH,74871.0,Indonesia, 085391806270,,,-2.956964,114.1535948,https://maps.google.com/?cid=0x0:0x936aeabd1d915108,
mall,Toko bahan makanan,Bakul tempe,"Gandang, Kec. Maliku, Kabupaten Pulang Pisau, Kalimantan Tengah 74871","Kec. Maliku, Kabupaten Pulang Pisau",KALIMANTAN TENGAH,74871.0,Indonesia,,,,-2.9669083,114.1160933,https://maps.google.com/?cid=0x0:0xf37856349cccc7e,
mall,Pembangunan Perumahan,Kantin Amang Yadi,"25F5+PPQ, Maliku Baru, Kec. Maliku, Kabupaten Pulang Pisau, Kalimantan Tengah 74871","Maliku Baru, Kec. Maliku, Kabupaten Pulang Pisau",KALIMANTAN TENGAH,74871.0,Indonesia,,,,-2.9756513,114.1593674,https://maps.google.com/?cid=0x0:0x93e63c7e2187528,
mall,Balai masyarakat,Waroung,"2685+62, Kanamit, Kec. Maliku, Kabupaten Pulang Pisau, Kalimantan Tengah","Kabupaten Pulang Pisau, Kalimantan Tengah",KALIMANTAN TENGAH,,Indonesia,,,,-2.9843767,114.2075536,https://maps.google.com/?cid=0x0:0x9abbbfcdc613e66e,
mall,Pusat Perbelanjaan,Toko Acha Olshop,"Gandang, Kec. Maliku, Kabupaten Pulang Pisau, Kalimantan Tengah 74871","Kec. Maliku, Kabupaten Pulang Pisau",KALIMANTAN TENGAH,74871.0,Indonesia,,,,-2.9708396,114.1363415,https://maps.google.com/?cid=0x0:0x7f779c5f2dca4acf,
mall,Toko,Toko Sembako H. M Nurul,"Jl. Tjilik Riwut, Maliku Baru, Kec. Maliku, Kabupaten Pulang Pisau, Kalimantan Tengah 74871","Maliku Baru, Kec. Maliku, Kabupaten Pulang Pisau",KALIMANTAN TENGAH,74871.0,Indonesia,,,,-2.955861,114.1509721,https://maps.google.com/?cid=0x0:0x1267dc6066954fc6,
mall,Toko,TOKO MAMA JAYA,"Unnamed Road, Gandang, Maliku, Pulang Pisau Regency, Central Kalimantan 74871","Gandang, Maliku, Pulang Pisau Regency",KALIMANTAN TENGAH,74871.0,Indonesia, 081288769509,,,-2.9705663,114.1208061,https://maps.google.com/?cid=0x0:0x56549456080b7180,
mall,Pusat Perbelanjaan,Warung Bu Sinung,"X5CP+M69, Tahai Jaya, Kec. Maliku, Kabupaten Pulang Pisau, Kalimantan Tengah 74871","Tahai Jaya, Kec. Maliku, Kabupaten Pulang Pisau",KALIMANTAN TENGAH,74871.0,Indonesia,,,,-3.0283482,114.1856012,https://maps.google.com/?cid=0x0:0x5189c2e6ed6ee99,
mall,Bengkel Sepeda Motor,Arsiyla Pare Asiy Motor,"24QW+W5Q, Gandang, Kec. Maliku, Kabupaten Pulang Pisau, Kalimantan Tengah 74871","Gandang, Kec. Maliku, Kabupaten Pulang Pisau",KALIMANTAN TENGAH,74871.0,Indonesia, 082254844543,,,-2.960162,114.1455,https://maps.google.com/?cid=0x0:0x38a42084bc25c825,
mall,mall,Kalimantan Tengah 74874,"Kabupaten Pulang Pisau, Kalimantan Tengah","Kabupaten Pulang Pisau, Kalimantan Tengah",KALIMANTAN TENGAH,,Indonesia,,,,-2.613866,113.8584737,https://maps.google.com/?cid=0x0:0x9a5d3171805f893d,
mall,Pusat Perbelanjaan,Palangkaraya Mall (Palma),"Jl. Tjilik Riwut No.1, Palangka, Kec. Jekan Raya, Kota Palangka Raya, Kalimantan Tengah 74874","Palangka, Kec. Jekan Raya, Kota Palangka Raya",KALIMANTAN TENGAH,74874.0,Indonesia,,,,-2.2065433,113.9154004,https://maps.google.com/?cid=0x0:0xe30705d17366c7e0,
mall,Pasar,Pasar Sabtu Kecamatan Sebangau Kuala,"3R8Q+2FQ, Jl. Diponegoro, Sebangau Permai, Kec. Sebangau Kuala, Kabupaten Pulang Pisau, Kalimantan Tengah 74874","Jl. Diponegoro, Sebangau Permai, Kec. Sebangau Kuala, Kabupaten Pulang Pisau",KALIMANTAN TENGAH,74874.0,Indonesia,,,,-2.9349071,113.8387445,https://maps.google.com/?cid=0x0:0x68a3dcccf96dd572,
mall,Pusat Perbelanjaan,Duta Mall Palangka Raya,"QW2F+G58, Langkai, Kec. Pahandut, Kota Palangka Raya, Kalimantan Tengah 74874","Langkai, Kec. Pahandut, Kota Palangka Raya",KALIMANTAN TENGAH,74874.0,Indonesia,,,,-2.248704,113.922958,https://maps.google.com/?cid=0x0:0xd4fe13501def807f,
mall,Pusat Perbelanjaan,SUN WALET INDONESIA,"RW3P+6F6, Jl. Wisata, Pahandut Seberang, Kec. Pahandut, Kota Palangka Raya, Kalimantan Tengah 74874","Jl. Wisata, Pahandut Seberang, Kec. Pahandut, Kota Palangka Raya",KALIMANTAN TENGAH,74874.0,Indonesia, 082150991159,,,-2.1969735,113.9361491,https://maps.google.com/?cid=0x0:0x2de6c7f1f9e648ba,
mall,Pasar,Pasar Rakyat Kalampangan,"P2C6+8C8, Kalampangan, Kec. Sebangau, Kota Palangka Raya, Kalimantan Tengah 74874","Kalampangan, Kec. Sebangau, Kota Palangka Raya",KALIMANTAN TENGAH,74874.0,Indonesia,,,,-2.2792136,114.0110674,https://maps.google.com/?cid=0x0:0x22afde52aab4e63f,
mall,Perumahan,Jl panenga raya 2,"marsidi, Jalan, Gg. Panenga 2 No.26 blok a2, Kereng Bangkirai, Kec. Sebangau, Kota Palangka Raya, Kalimantan Tengah 74874","Jalan, Gg. Panenga 2 No.26 blok a2, Kereng Bangkirai, Kec. Sebangau, Kota Palangka Raya",KALIMANTAN TENGAH,74874.0,Indonesia, 081250500616,,,-2.2779704,113.9156957,https://maps.google.com/?cid=0x0:0x4e3302cde5b142ea,
mall,Mal outlet,Mall PINO4D.ASIA,"Jl. Yos Sudarso No.57, Menteng, Kec. Jekan Raya, Kota Palangka Raya, Kalimantan Tengah 74874","Menteng, Kec. Jekan Raya, Kota Palangka Raya",KALIMANTAN TENGAH,74874.0,Indonesia,,,,-2.2146839,113.9055048,https://maps.google.com/?cid=0x0:0x3f3c6fb573a4cb79,
mall,Pusat Perbelanjaan,MORODADI MALL,"PWG5+XH, Menteng, Kec. Jekan Raya, Kota Palangka Raya, Kalimantan Tengah","Kota Palangka Raya, Kalimantan Tengah",KALIMANTAN TENGAH,,Indonesia,,,,-2.2726102,113.9089949,https://maps.google.com/?cid=0x0:0x6ec960f13a8d7822,
mall,Pusat Perbelanjaan,Matahari Department Lippo Plaza Palangkaraya,"Jl. Yos Sudarso No.57, Menteng, Kec. Jekan Raya, Kota Palangka Raya, Kalimantan Tengah 74874","Menteng, Kec. Jekan Raya, Kota Palangka Raya",KALIMANTAN TENGAH,74874.0,Indonesia,,,,-2.2141989,113.9055548,https://maps.google.com/?cid=0x0:0xb3a6d520ec175c36,
mall,Kios,Diati Water,"P27F+J3Q, Jl. Trans Kalimantan, Kalampangan, Kec. Sebangau, Kota Palangka Raya, Kalimantan Tengah 74874","Jl. Trans Kalimantan, Kalampangan, Kec. Sebangau, Kota Palangka Raya",KALIMANTAN TENGAH,74874.0,Indonesia, 081250180465,,,-2.2859024,114.0227294,https://maps.google.com/?cid=0x0:0x4be1028d1736fd94,
mall,Toko,Toko Rezeki,"PW69+7C7, Sabaru, Kec. Sebangau, Kota Palangka Raya, Kalimantan Tengah 74874","Sabaru, Kec. Sebangau, Kota Palangka Raya",KALIMANTAN TENGAH,74874.0,Indonesia,,,,-2.2893395,113.9185602,https://maps.google.com/?cid=0x0:0xfbbf1d15a5f6da95,
mall,Agen tiket maskapai penerbangan,Loket Fastpay TT,"PWF8+C79, Gg. Panenga Permai, Kereng Bangkirai, Kec. Sebangau, Kota Palangka Raya, Kalimantan Tengah 74874","Gg. Panenga Permai, Kereng Bangkirai, Kec. Sebangau, Kota Palangka Raya",KALIMANTAN TENGAH,74874.0,Indonesia,,,,-2.2764623,113.9157471,https://maps.google.com/?cid=0x0:0xfd9f387d1f0b9aaa,
mall,Pusat Perbelanjaan,SUN WALET INDONESIA,"no 44f, Jl. RTA Milono, Langkai, Kec. Pahandut, Kota Palangka Raya, Kalimantan Tengah 73111","Jl. RTA Milono, Langkai, Kec. Pahandut, Kota Palangka Raya",KALIMANTAN TENGAH,73111.0,Indonesia,,,,-2.2312091,113.9202149,https://maps.google.com/?cid=0x0:0x11d59391cdd3e770,
mall,mall,BHK. Trader,"Jl. G. Obos XIV No.6, Menteng, Kec. Jekan Raya, Kota Palangka Raya, Kalimantan Tengah 74874","Menteng, Kec. Jekan Raya, Kota Palangka Raya",KALIMANTAN TENGAH,74874.0,Indonesia,,,,-2.2365191,113.8872214,https://maps.google.com/?cid=0x0:0xb8f86f43f63f9c06,
mall,Pusat Perbelanjaan,Maju Jaya Central,"Jl. Menteng XI No.69B, Menteng, Kec. Jekan Raya, Kota Palangka Raya, Kalimantan Tengah 74874","Menteng, Kec. Jekan Raya, Kota Palangka Raya",KALIMANTAN TENGAH,74874.0,Indonesia, 082350771561,,,-2.2344259,113.9097791,https://maps.google.com/?cid=0x0:0x5dceccc22c176a20,
mall,Toko umum,Depot Air Minum Pak Kumis. Dan Masjid Asyifa.,"PW92+W6V, Jl. Pasir Panjang, Kereng Bangkirai, Kec. Sebangau, Kota Palangka Raya, Kalimantan Tengah 74874","Jl. Pasir Panjang, Kereng Bangkirai, Kec. Sebangau, Kota Palangka Raya",KALIMANTAN TENGAH,74874.0,Indonesia,,,,-2.2801397,113.9005551,https://maps.google.com/?cid=0x0:0x5ebcbb68baf0dbd4,
mall,Pusat Perbelanjaan,FR_Shop Cihonk,"QW6P+R6H, Panarung, Kec. Pahandut, Kota Palangka Raya, Kalimantan Tengah 74874","Panarung, Kec. Pahandut, Kota Palangka Raya",KALIMANTAN TENGAH,74874.0,Indonesia, 081347122624,,,-2.2379463,113.9356227,https://maps.google.com/?cid=0x0:0xc64749b31a393caf,
mall,mall,PANE KELULUT,"Gg. Panenga Permai Induk No.12 A 1, Kereng Bangkirai, Kec. Sebangau, Kota Palangka Raya, Kalimantan Tengah 74874","Kereng Bangkirai, Kec. Sebangau, Kota Palangka Raya",KALIMANTAN TENGAH,74874.0,Indonesia, 085252505558,,,-2.2764837,113.9156647,https://maps.google.com/?cid=0x0:0x85e6397252c030e3,
mall,Pusat Perbelanjaan,Celcius Mississippi Mal Mega Town Square Palangkaraya,"Jl. Yos Sudarso No.57, Menteng, Kec. Jekan Raya, Kota Palangka Raya, Kalimantan Tengah 74874","Menteng, Kec. Jekan Raya, Kota Palangka Raya",KALIMANTAN TENGAH,74874.0,Indonesia,,,,-2.2142338,113.905566,https://maps.google.com/?cid=0x0:0x7707886542f7e24c,
mall,Toko Ikan,Locality Aquatic Palangkaraya,"QW2H+RH3, Jl. Komp. Damai Sejahtera, Langkai, Kec. Pahandut, Kota Palangka Raya, Kalimantan Tengah 74874","Jl. Komp. Damai Sejahtera, Langkai, Kec. Pahandut, Kota Palangka Raya",KALIMANTAN TENGAH,74874.0,Indonesia, 085390754857,,,-2.2479762,113.9289258,https://maps.google.com/?cid=0x0:0xad3daeba8ba6fc91,
mall,Toko Pakaian,Serba Harga Murah,"Jl. Bukit Kaminting No.2, Palangka, Kec. Jekan Raya, Kota Palangka Raya, Kalimantan Tengah 74874","Palangka, Kec. Jekan Raya, Kota Palangka Raya",KALIMANTAN TENGAH,74874.0,Indonesia, 081348216668,,,-2.2034417,113.8868963,https://maps.google.com/?cid=0x0:0xfa05aa053b298e0f,
mall,Toko Bahan Bangunan,Pertokoan CAHAYA BETON,"Sabaru, Kec. Sebangau, Kota Palangka Raya, Kalimantan Tengah 74874","Kec. Sebangau, Kota Palangka Raya",KALIMANTAN TENGAH,74874.0,Indonesia, 081345001226,,,-2.2900324,113.9185697,https://maps.google.com/?cid=0x0:0x55c60ac2809bd133,
mall,Toko Ponsel,Zahra Cell,"PW64+Q9V, Kereng Bangkirai, Kec. Sebangau, Kota Palangka Raya, Kalimantan Tengah 74874","Kereng Bangkirai, Kec. Sebangau, Kota Palangka Raya",KALIMANTAN TENGAH,74874.0,Indonesia,,,,-2.2880074,113.9059237,https://maps.google.com/?cid=0x0:0xca162374cefcdaa3,
mall,Toko Pakaian,Ayzha Outfit,"Jl. Sisingamangaraja, Menteng, Kec. Jekan Raya, Kota Palangka Raya, Kalimantan Tengah 74874","Menteng, Kec. Jekan Raya, Kota Palangka Raya",KALIMANTAN TENGAH,74874.0,Indonesia, 082199656088,,,-2.2177907,113.9082913,https://maps.google.com/?cid=0x0:0x76c9d6d75cd870cf,
mall,Toko Perlengkapan Rumah,Distributor Mawar Super Laundry Kalimantan,"PWRC+37Q, Langkai, Kec. Pahandut, Kota Palangka Raya, Kalimantan Tengah 74874","Langkai, Kec. Pahandut, Kota Palangka Raya",KALIMANTAN TENGAH,74874.0,Indonesia, 082269104979,,,-2.2597858,113.9207254,https://maps.google.com/?cid=0x0:0x96f8dc5283b4a5de,
mall,Pemasok air minum,Ocen Depo Air Minum Isi Ulang Tangkiling,"QWG7+5XP, Jl. Samudin Aman, Menteng, Kec. Jekan Raya, Kota Palangka Raya, Kalimantan Tengah 74874","Jl. Samudin Aman, Menteng, Kec. Jekan Raya, Kota Palangka Raya",KALIMANTAN TENGAH,74874.0,Indonesia,,,,-2.2245368,113.9149645,https://maps.google.com/?cid=0x0:0x8b3dd6e4b7afda5a,
mall,Toko Jam,PKY WATCH STORE,"arah ke, Jl. Sisingamangaraja Jl. Yos Sudarso, Menteng, Kec. Jekan Raya, Kota Palangka Raya, Kalimantan Tengah 74874","Jl. Sisingamangaraja Jl. Yos Sudarso, Menteng, Kec. Jekan Raya, Kota Palangka Raya",KALIMANTAN TENGAH,74874.0,Indonesia, 085249121242,,,-2.2175868,113.9080502,https://maps.google.com/?cid=0x0:0xcd68943657e921f3,
mall,Pusat Perbelanjaan,Tyan Floris,"Jl. Yos Sudarso, Menteng, Kota Palangka Raya, Kalimantan Tengah 74874","Menteng, Kota Palangka Raya",KALIMANTAN TENGAH,74874.0,Indonesia, 085268629526,,,-2.2269633,113.8796163,https://maps.google.com/?cid=0x0:0x5605e7bc35a5aaae,
supermarket,supermarket,Kalimantan Tengah 74863,"Kabupaten Gunung MAS, Kalimantan Tengah","Kabupaten Gunung MAS, Kalimantan Tengah",KALIMANTAN TENGAH,,Indonesia,,,,-1.496827,113.9060624,https://maps.google.com/?cid=0x0:0xf3a5fde9497362af,
supermarket,Pasar,Kios KHARISMA Dahian Tambuk,"PW6H+XCF, Jl. Palangka Raya - Kuala Kurun, Dahian Tambuk, Kec. Mihing Raya, Kabupaten Gunung MAS, Kalimantan Tengah 74863","Jl. Palangka Raya - Kuala Kurun, Dahian Tambuk, Kec. Mihing Raya, Kabupaten Gunung MAS",KALIMANTAN TENGAH,74863.0,Indonesia,,,,-1.287567,113.928558,https://maps.google.com/?cid=0x0:0x1d0c751162aaadce,
supermarket,Toko umum,Banama Mart,"9WJJ+WPP, Jl. Lintas Kuala Kurun, Bawan, Kec. Banama Tingang, Kabupaten Pulang Pisau, Kalimantan Tengah","Kabupaten Pulang Pisau, Kalimantan Tengah",KALIMANTAN TENGAH,,Indonesia,,,,-1.6176517,113.9318148,https://maps.google.com/?cid=0x0:0xd65cada7dba12c6d,
supermarket,Toko bahan makanan,Toko Den Pratama,"CWQF+5HW, Jl. Trans Kalimantan, Pematang Limau, Kec. Sepang, Kabupaten Gunung MAS, Kalimantan Tengah 74863","Jl. Trans Kalimantan, Pematang Limau, Kec. Sepang, Kabupaten Gunung MAS",KALIMANTAN TENGAH,74863.0,Indonesia,,,,-1.5620037,113.9239438,https://maps.google.com/?cid=0x0:0xbc9019f0db777525,
supermarket,Toko bahan makanan,BRILINK REFAN,"Desa tampelas, simin, Kec. Sepang, Kabupaten Gunung MAS, Kalimantan Tengah 74570","simin, Kec. Sepang, Kabupaten Gunung MAS",KALIMANTAN TENGAH,74570.0,Indonesia,,,,-1.5125377,113.9153999,https://maps.google.com/?cid=0x0:0x78fb0e3c49ba3ba8,
supermarket,supermarket,TOKO NESTHA PAHAWAN,"8WHW+9R6, Pahawan, Kec. Banama Tingang, Kabupaten Pulang Pisau, Kalimantan Tengah 74863","Pahawan, Kec. Banama Tingang, Kabupaten Pulang Pisau",KALIMANTAN TENGAH,74863.0,Indonesia,,,,-1.6715864,113.9470058,https://maps.google.com/?cid=0x0:0x1b06e7ab380233c1,
supermarket,Pusat Perbelanjaan,TOKO KING PAHAWAN,"8WMV+4G2, Pahawan, Kec. Banama Tingang, Kabupaten Pulang Pisau, Kalimantan Tengah 74863","Pahawan, Kec. Banama Tingang, Kabupaten Pulang Pisau",KALIMANTAN TENGAH,74863.0,Indonesia,,,,-1.6672404,113.943753,https://maps.google.com/?cid=0x0:0xf1251e8838c38a85,
supermarket,Pusat Perbelanjaan,KIOS VANJOSH,"9WMH+5HJ, Unnamed Road, Bawan, Kec. Banama Tingang, Kabupaten Pulang Pisau, Kalimantan Tengah 74863","Unnamed Road, Bawan, Kec. Banama Tingang, Kabupaten Pulang Pisau",KALIMANTAN TENGAH,74863.0,Indonesia, 085349960991,,,-1.6170308,113.9288899,https://maps.google.com/?cid=0x0:0xd0f2c26ea1f251f7,
supermarket,Pusat Perbelanjaan,Warung Mama Devi,"9WGC+MF8, Jl. Darung Bawan, Bawan, Kec. Banama Tingang, Kabupaten Pulang Pisau, Kalimantan Tengah 74863","Jl. Darung Bawan, Bawan, Kec. Banama Tingang, Kabupaten Pulang Pisau",KALIMANTAN TENGAH,74863.0,Indonesia, 081348228244,,,-1.6233382,113.921193,https://maps.google.com/?cid=0x0:0xfc739ad2f7e77094,
supermarket,Komplek perumahan,Rumah fitri,"7XV2+F8, Tambak, Kec. Banama Tingang, Kabupaten Pulang Pisau, Kalimantan Tengah","Kabupaten Pulang Pisau, Kalimantan Tengah",KALIMANTAN TENGAH,,Indonesia,,,,-1.701602,113.9447276,https://maps.google.com/?cid=0x0:0x32935803059308ab,
supermarket,,TOKO MAMA KISMA,"8WMV+WGX, Jl. Palangka Raya - Kuala Kurun, Pahawan, Kec. Banama Tingang, Kabupaten Pulang Pisau, Kalimantan Tengah 74863","Jl. Palangka Raya - Kuala Kurun, Pahawan, Kec. Banama Tingang, Kabupaten Pulang Pisau",KALIMANTAN TENGAH,74863.0,Indonesia,,,,-1.665125,113.9438718,https://maps.google.com/?cid=0x0:0x3c67347f63c9a293,
supermarket,Toko bahan makanan,Toko mama ridho,"7VQ5+22C, Jalan poros pt agl, Kasali Baru, Kec. Banama Tingang, Kabupaten Pulang Pisau, Kalimantan Tengah","Kabupaten Pulang Pisau, Kalimantan Tengah",KALIMANTAN TENGAH,,Indonesia,,,,-1.712445,113.8575,https://maps.google.com/?cid=0x0:0x54d3036d69cafda9,
supermarket,,TOKO ALVIN,"9WMJ+3FQ, Jl. Palangka Raya - Kuala Kurun, Bawan, Kec. Banama Tingang, Kabupaten Pulang Pisau, Kalimantan Tengah 74863","Jl. Palangka Raya - Kuala Kurun, Bawan, Kec. Banama Tingang, Kabupaten Pulang Pisau",KALIMANTAN TENGAH,74863.0,Indonesia,,,,-1.6172992,113.9312288,https://maps.google.com/?cid=0x0:0xac90ea1239c4eb45,
supermarket,Toko bahan makanan,toko sembako aisyah,"9WGC+XRV, Jl. Darung Bawan, Bawan, Kec. Banama Tingang, Kabupaten Pulang Pisau, Kalimantan Tengah 74863","Jl. Darung Bawan, Bawan, Kec. Banama Tingang, Kabupaten Pulang Pisau",KALIMANTAN TENGAH,74863.0,Indonesia,,,,-1.6225238,113.9220534,https://maps.google.com/?cid=0x0:0x5819a8e3044a5560,
supermarket,Toko bahan makanan,Toko ARDHY,"9W4R+CG3, Jl. Palangka Raya - Kuala Kurun, Goha, Kec. Banama Tingang, Kabupaten Pulang Pisau, Kalimantan Tengah 74863","Jl. Palangka Raya - Kuala Kurun, Goha, Kec. Banama Tingang, Kabupaten Pulang Pisau",KALIMANTAN TENGAH,74863.0,Indonesia,,,,-1.6439976,113.9412854,https://maps.google.com/?cid=0x0:0x18d0b74dc561f791,
supermarket,,Toko Turus Pambelum 2,"8W2X+H79, Jl. Palangka Raya - Kuala Kurun, Tambak, Kec. Banama Tingang, Kabupaten Pulang Pisau, Kalimantan Tengah 74862","Jl. Palangka Raya - Kuala Kurun, Tambak, Kec. Banama Tingang, Kabupaten Pulang Pisau",KALIMANTAN TENGAH,74862.0,Indonesia,,,,-1.6985767,113.9482368,https://maps.google.com/?cid=0x0:0x4ec7acc92c1207a1,
supermarket,supermarket,Toko Cacha,"7WFC+34W, Ramang, Kec. Banama Tingang, Kabupaten Pulang Pisau, Kalimantan Tengah","Kabupaten Pulang Pisau, Kalimantan Tengah",KALIMANTAN TENGAH,,Indonesia,,,,-1.727262,113.9203225,https://maps.google.com/?cid=0x0:0x473f63dc6ed5dcbe,
supermarket,Toko Minuman Keras,Toko Rista,"GW53+HX7, Unnamed Road, Tewai Baru, Kec. Sepang, Kabupaten Gunung MAS, Kalimantan Tengah 74863","Unnamed Road, Tewai Baru, Kec. Sepang, Kabupaten Gunung MAS",KALIMANTAN TENGAH,74863.0,Indonesia,,,,-1.4910947,113.904908,https://maps.google.com/?cid=0x0:0x5cabd77456274abc,
supermarket,Toko,Toko Budi Luhur,"GW62+P3G, Sepang Simin, Kec. Sepang, Kabupaten Gunung MAS, Kalimantan Tengah 74863","Sepang Simin, Kec. Sepang, Kabupaten Gunung MAS",KALIMANTAN TENGAH,74863.0,Indonesia, 081255124381,,,-1.4881958,113.9001952,https://maps.google.com/?cid=0x0:0xad75e3085adb2f2f,
supermarket,Toko,Toko AMILAN (Aminah Alan),"FW2C+MF9, Pematang Limau, Kec. Sepang, Kabupaten Gunung MAS, Kalimantan Tengah 74863","Pematang Limau, Kec. Sepang, Kabupaten Gunung MAS",KALIMANTAN TENGAH,74863.0,Indonesia, 085350523248,,,-1.5483284,113.92124,https://maps.google.com/?cid=0x0:0x21218971c68ce1c,
supermarket,Toko bahan makanan,Warung Sayur Mama Risoi,"CW9H+75Q, Jl. Palangka Raya - Kuala Kurun, Pangi, Kec. Banama Tingang, Kabupaten Pulang Pisau, Kalimantan Tengah 74863","Jl. Palangka Raya - Kuala Kurun, Pangi, Kec. Banama Tingang, Kabupaten Pulang Pisau",KALIMANTAN TENGAH,74863.0,Indonesia,,,,-1.5817924,113.9279876,https://maps.google.com/?cid=0x0:0x4841588a8406dc45,
supermarket,supermarket,Kalimantan Tengah 74816,Kalimantan Tengah,Kalimantan Tengah,KALIMANTAN TENGAH,,Indonesia,,,,-2.3159685,114.2390498,https://maps.google.com/?cid=0x0:0x699fd2cedf1d1e7c,
supermarket,Pemakaman,Pasar Jabiren,"F5GR+FW2, Unnamed Road, Jabiren, Kec. Jabiren, Kabupaten Pulang Pisau, Kalimantan Tengah 74812","Unnamed Road, Jabiren, Kec. Jabiren, Kabupaten Pulang Pisau",KALIMANTAN TENGAH,74812.0,Indonesia,,,,-2.5238589,114.1922737,https://maps.google.com/?cid=0x0:0x7ce8450ea67dffe,
supermarket,Toko bahan makanan,Toko Zhe-Zhe,"67X4+CPV, Jl. Tingang Menteng, Pulang Pisau, Kec. Kahayan Hilir, Kabupaten Pulang Pisau, Kalimantan Tengah 73564","Jl. Tingang Menteng, Pulang Pisau, Kec. Kahayan Hilir, Kabupaten Pulang Pisau",KALIMANTAN TENGAH,73564.0,Indonesia,,,,-2.7513916,114.2567932,https://maps.google.com/?cid=0x0:0x41bffee862358ec8,
supermarket,Minimarket,Indomaret Jabiren,"F5GR+5CV, Jabiren, Kec. Jabiren, Kabupaten Pulang Pisau, Kalimantan Tengah 74812","Jabiren, Kec. Jabiren, Kabupaten Pulang Pisau",KALIMANTAN TENGAH,74812.0,Indonesia,,,,-2.5244728,114.1912988,https://maps.google.com/?cid=0x0:0x282ca84c160a398b,
supermarket,Toko bahan makanan,TOKO AGA,"Jl. Darung Bawan, Pulang Pisau, Kec. Kahayan Hilir, Kabupaten Pulang Pisau, Kalimantan Tengah 73564","Pulang Pisau, Kec. Kahayan Hilir, Kabupaten Pulang Pisau",KALIMANTAN TENGAH,73564.0,Indonesia,,,,-2.7460656,114.2649481,https://maps.google.com/?cid=0x0:0xa9070ea0057ebdbf,
supermarket,Minimarket,Alfamart jabiren,"F5JR+C58, Jl. Trans - Kalimantan, Jabiren, Kec. Jabiren, Kabupaten Pulang Pisau, Kalimantan Tengah 74812","Jl. Trans - Kalimantan, Jabiren, Kec. Jabiren, Kabupaten Pulang Pisau",KALIMANTAN TENGAH,74812.0,Indonesia,,,,-2.5193093,114.1908843,https://maps.google.com/?cid=0x0:0xf1d27603a458d160,
supermarket,Nasi,Warung,"G5CX+966, Pilang, Kec. Jabiren, Kabupaten Pulang Pisau, Kalimantan Tengah","Kabupaten Pulang Pisau, Kalimantan Tengah",KALIMANTAN TENGAH,,Indonesia,,,,-2.4790926,114.1980247,https://maps.google.com/?cid=0x0:0xe66674bba7f3c296,
supermarket,Toko umum,Kios Beras Partai Dan Eceran,"7725+95F, Jl. Tingang Menteng, Pulang Pisau, Kec. Kahayan Hilir, Kabupaten Pulang Pisau, Kalimantan Tengah 73564","Jl. Tingang Menteng, Pulang Pisau, Kec. Kahayan Hilir, Kabupaten Pulang Pisau",KALIMANTAN TENGAH,73564.0,Indonesia, 085652320760,,,-2.7490576,114.2579149,https://maps.google.com/?cid=0x0:0xd2553d6910316885,
supermarket,Toko bahan makanan,warung humaira,"lahan RT 006, Jl. Trans - Kalimantan No.km.70, Garung, Kec. Kahayan Hilir, Kabupaten Pulang Pisau, Kalimantan Tengah","Kabupaten Pulang Pisau, Kalimantan Tengah",KALIMANTAN TENGAH,,Indonesia, 081348649303,,,-2.6532577,114.2331927,https://maps.google.com/?cid=0x0:0xc9a0f6c6f574e92a,
supermarket,Kedai Kopi,WARUNG MAMA TIFAH,"J4VR+P6C, Tumbang Nusa, Kec. Jabiren, Kabupaten Pulang Pisau, Kalimantan Tengah 74816","Tumbang Nusa, Kec. Jabiren, Kabupaten Pulang Pisau",KALIMANTAN TENGAH,74816.0,Indonesia,,,,-2.3555872,114.140308,https://maps.google.com/?cid=0x0:0x90795a133ccf2c7e,
supermarket,Toko bahan makanan,TOKO AZMI,"7725+V96, Jl. Tingang Menteng, Pulang Pisau, Kec. Kahayan Hilir, Kabupaten Pulang Pisau, Kalimantan Tengah 73564","Jl. Tingang Menteng, Pulang Pisau, Kec. Kahayan Hilir, Kabupaten Pulang Pisau",KALIMANTAN TENGAH,73564.0,Indonesia,,,,-2.7478457,114.258389,https://maps.google.com/?cid=0x0:0x80e4cf83e441c90b,
supermarket,Toko,toko ilfah,"J4Q3+QW3, Tumbang Nusa, Kec. Jabiren, Kabupaten Pulang Pisau, Kalimantan Tengah","Kabupaten Pulang Pisau, Kalimantan Tengah",KALIMANTAN TENGAH,,Indonesia, 082156442150,,,-2.360634,114.1047667,https://maps.google.com/?cid=0x0:0x241e53e0af75af83,
supermarket,Kios,Kios Sabrina,"9665+5M3, Jl. Trans - Kalimantan, Garung, Kec. Jabiren, Kabupaten Pulang Pisau, Kalimantan Tengah 74861","Jl. Trans - Kalimantan, Garung, Kec. Jabiren, Kabupaten Pulang Pisau",KALIMANTAN TENGAH,74861.0,Indonesia, 081250879340,,,-2.6396162,114.2091725,https://maps.google.com/?cid=0x0:0xd84595636ee9d575,
supermarket,Toko bahan makanan,TOKO YULIRIAN,"67X4+PQH, Jl. Tingang Menteng, Pulang Pisau, Kec. Kahayan Hilir, Kabupaten Pulang Pisau, Kalimantan Tengah 73564","Jl. Tingang Menteng, Pulang Pisau, Kec. Kahayan Hilir, Kabupaten Pulang Pisau",KALIMANTAN TENGAH,73564.0,Indonesia,,,,-2.750686,114.2569886,https://maps.google.com/?cid=0x0:0x617e59d6580cd945,
supermarket,Toko,Toko Vania,"Jl. Abel Gawei Jl. Rey II, Mantaren I, Kec. Kahayan Hilir, Kabupaten Pulang Pisau, Kalimantan Tengah 74813","Mantaren I, Kec. Kahayan Hilir, Kabupaten Pulang Pisau",KALIMANTAN TENGAH,74813.0,Indonesia, 083141663952,,,-2.7756314,114.2680994,https://maps.google.com/?cid=0x0:0x9c005c716b54e215,
supermarket,Pom bensin/SPBU,Pom Mini KyVa,"Jalan Hantasan Raya No.RT.02, Pulang Pisau, Kec. Kahayan Hilir, Kabupaten Pulang Pisau, Kalimantan Tengah 73564","Pulang Pisau, Kec. Kahayan Hilir, Kabupaten Pulang Pisau",KALIMANTAN TENGAH,73564.0,Indonesia, 085285888538,,,-2.7501438,114.2665156,https://maps.google.com/?cid=0x0:0x3b6116e5da5e7d04,
supermarket,Toko Buah dan Sayur,Kios Buah MUAZZAM,"Jl. Trans - Kalimantan No.KM 22, RW.No 15, Tj. Taruna, Kec. Jabiren, Kabupaten Pulang Pisau, Kalimantan Tengah 74874","RW.No 15, Tj. Taruna, Kec. Jabiren, Kabupaten Pulang Pisau",KALIMANTAN TENGAH,74874.0,Indonesia, 082283935771,,,-2.29315,114.0362754,https://maps.google.com/?cid=0x0:0x1deb7b5fef938eac,
supermarket,Pasar Petani,Pasar UPT Anjir Pulang Pisau,"773X+PVW, Anjir Pulang Pisau, Kec. Kahayan Hilir, Kabupaten Pulang Pisau, Kalimantan Tengah 73564","Anjir Pulang Pisau, Kec. Kahayan Hilir, Kabupaten Pulang Pisau",KALIMANTAN TENGAH,73564.0,Indonesia,,,,-2.7456309,114.2996876,https://maps.google.com/?cid=0x0:0xd77f057e08072b2b,
supermarket,Toko bahan makanan,Toko Dua Sekawan (HJ Siska),"7725+W67, Pulang Pisau, Kec. Kahayan Hilir, Kabupaten Pulang Pisau, Kalimantan Tengah 73564","Pulang Pisau, Kec. Kahayan Hilir, Kabupaten Pulang Pisau",KALIMANTAN TENGAH,73564.0,Indonesia, 085251130486,,,-2.7477039,114.258046,https://maps.google.com/?cid=0x0:0x1636c2cc7d30f2a3,
supermarket,Toko bahan makanan,penjual Es Tebu,"7725+R87, Unnamed Road, Pulang Pisau, Kec. Kahayan Hilir, Kabupaten Pulang Pisau, Kalimantan Tengah 73564","Unnamed Road, Pulang Pisau, Kec. Kahayan Hilir, Kabupaten Pulang Pisau",KALIMANTAN TENGAH,73564.0,Indonesia, 082156485470,,,-2.747956,114.2583037,https://maps.google.com/?cid=0x0:0x8f90982931ebd77c,
supermarket,Toko Makanan,Tram pulpis,"Jl. Tingang Menteng No.70, Pulang Pisau, Kec. Kahayan Hilir, Kabupaten Pulang Pisau, Kalimantan Tengah 73564","Pulang Pisau, Kec. Kahayan Hilir, Kabupaten Pulang Pisau",KALIMANTAN TENGAH,73564.0,Indonesia, 082256347756,,,-2.7539878,114.2563596,https://maps.google.com/?cid=0x0:0x561bbab0ad3537b1,
supermarket,Minimarket,Alfamart,"Jl.Lintas Kalimantan No.Rt.014, Anjir Pulang Pisau, Kec. Kahayan Hilir, Kabupaten Pulang Pisau, Kalimantan Tengah 74813","Anjir Pulang Pisau, Kec. Kahayan Hilir, Kabupaten Pulang Pisau",KALIMANTAN TENGAH,74813.0,Indonesia, 1500959,,,-2.7682292,114.2828674,https://maps.google.com/?cid=0x0:0x60093dfbc993b5f1,
supermarket,Toko bahan makanan,Warung kenzo,"F5JR+Q6X, Jl. Trans - Kalimantan, Jabiren, Kec. Jabiren, Kabupaten Pulang Pisau, Kalimantan Tengah 74812","Jl. Trans - Kalimantan, Jabiren, Kec. Jabiren, Kabupaten Pulang Pisau",KALIMANTAN TENGAH,74812.0,Indonesia, 082253773210,,,-2.518011,114.1906037,https://maps.google.com/?cid=0x0:0x75f9671538cfd60b,
supermarket,Toko bahan makanan,Toko ahmad nafis,"Jl. Tingang Menteng No.70, Pulang Pisau, Kec. Kahayan Hilir, Kabupaten Pulang Pisau, Kalimantan Tengah 73564","Pulang Pisau, Kec. Kahayan Hilir, Kabupaten Pulang Pisau",KALIMANTAN TENGAH,73564.0,Indonesia,,,,-2.7545965,114.2564211,https://maps.google.com/?cid=0x0:0x7c93ffe7e8ddc1d4,
supermarket,Toko bahan makanan,warung caca,"7729+GJJ, Jl. Masyrumi Layar, Bereng, Kec. Kahayan Hilir, Kabupaten Pulang Pisau, Kalimantan Tengah 73564","Jl. Masyrumi Layar, Bereng, Kec. Kahayan Hilir, Kabupaten Pulang Pisau",KALIMANTAN TENGAH,73564.0,Indonesia,,,,-2.7486539,114.2690292,https://maps.google.com/?cid=0x0:0x49a7167c86b387df,
supermarket,Toko bahan makanan,Warung kenzo,"F5JR+Q6X, Jl. Trans - Kalimantan, Jabiren, Kec. Jabiren, Kabupaten Pulang Pisau, Kalimantan Tengah 74812","Jl. Trans - Kalimantan, Jabiren, Kec. Jabiren, Kabupaten Pulang Pisau",KALIMANTAN TENGAH,74812.0,Indonesia, 082253773210,,,-2.518011,114.1906037,https://maps.google.com/?cid=0x0:0x75f9671538cfd60b,
supermarket,supermarket,Kalimantan Tengah 74813,Kalimantan Tengah,Kalimantan Tengah,KALIMANTAN TENGAH,,Indonesia,,,,-2.5771654,114.3222577,https://maps.google.com/?cid=0x0:0xfaa2c870e86154d8,
supermarket,Minimarket,Alfamart,"Jl.Lintas Kalimantan No.Rt.014, Anjir Pulang Pisau, Kec. Kahayan Hilir, Kabupaten Pulang Pisau, Kalimantan Tengah 74813","Anjir Pulang Pisau, Kec. Kahayan Hilir, Kabupaten Pulang Pisau",KALIMANTAN TENGAH,74813.0,Indonesia, 1500959,,,-2.7682292,114.2828674,https://maps.google.com/?cid=0x0:0x60093dfbc993b5f1,
supermarket,Minimarket,Alfamart,"Jl. Trans - Kalimantan No.Rt.06, Mantaren I, Kec. Kahayan Hilir, Kabupaten Pulang Pisau, Kalimantan Tengah 74861","Mantaren I, Kec. Kahayan Hilir, Kabupaten Pulang Pisau",KALIMANTAN TENGAH,74861.0,Indonesia, 1500959,,,-2.7918211,114.2618116,https://maps.google.com/?cid=0x0:0x758e982c80481489,
supermarket,Pusat Perbelanjaan,TIGA SAUDARA COPY CENTER,"25R4+QFF, Jl. Tjilik Riwut, Maliku Baru, Kec. Maliku, Kabupaten Pulang Pisau, Kalimantan Tengah 74871","Jl. Tjilik Riwut, Maliku Baru, Kec. Maliku, Kabupaten Pulang Pisau",KALIMANTAN TENGAH,74871.0,Indonesia, 082150046256,,,-2.9580653,114.1561785,https://maps.google.com/?cid=0x0:0xfc6f7b0e9215911b,
supermarket,Toko Makanan,Tram pulpis,"Jl. Tingang Menteng No.70, Pulang Pisau, Kec. Kahayan Hilir, Kabupaten Pulang Pisau, Kalimantan Tengah 73564","Pulang Pisau, Kec. Kahayan Hilir, Kabupaten Pulang Pisau",KALIMANTAN TENGAH,73564.0,Indonesia, 082256347756,,,-2.7539878,114.2563596,https://maps.google.com/?cid=0x0:0x561bbab0ad3537b1,
supermarket,Toko Elektronik,Toko Rexxa,"Jl. Panunjung Tarung RT.06, Pulang Pisau, Kec. Kahayan Hilir, Kabupaten Pulang Pisau, Kalimantan Tengah 73564","Pulang Pisau, Kec. Kahayan Hilir, Kabupaten Pulang Pisau",KALIMANTAN TENGAH,73564.0,Indonesia, 082353246778,,,-2.7521448,114.2597507,https://maps.google.com/?cid=0x0:0x4f2fe0d7ffa728ce,
supermarket,Toko bahan makanan,penjual Es Tebu,"7725+R87, Unnamed Road, Pulang Pisau, Kec. Kahayan Hilir, Kabupaten Pulang Pisau, Kalimantan Tengah 73564","Unnamed Road, Pulang Pisau, Kec. Kahayan Hilir, Kabupaten Pulang Pisau",KALIMANTAN TENGAH,73564.0,Indonesia, 082156485470,,,-2.747956,114.2583037,https://maps.google.com/?cid=0x0:0x8f90982931ebd77c,
supermarket,Pusat Perbelanjaan,Toko Danau Sekumpul,"PWRP+J8Q, Jl. Kecipir, Panarung, Kec. Pahandut, Kota Palangka Raya, Kalimantan Tengah 74874","Jl. Kecipir, Panarung, Kec. Pahandut, Kota Palangka Raya",KALIMANTAN TENGAH,74874.0,Indonesia,,,,-2.2584026,113.9358716,https://maps.google.com/?cid=0x0:0xec9e09860dd0de22,
supermarket,Pusat Perbelanjaan,Toko Haji Awi,"PW34+XPM, Jl. Mangku Raya, Kereng Bangkirai, Kec. Sebangau, Kota Palangka Raya, Kalimantan Tengah 73113","Jl. Mangku Raya, Kereng Bangkirai, Kec. Sebangau, Kota Palangka Raya",KALIMANTAN TENGAH,73113.0,Indonesia, 081253414762,,,-2.2950461,113.9067984,https://maps.google.com/?cid=0x0:0x8735d1a2fbf53926,
supermarket,Toko Obat,Toko Obat Asy-Syifa,"Jl. Lintas Bahaur No.Rt. 08, Kanamit Jaya, Kec. Maliku, Kabupaten Pulang Pisau, Kalimantan Tengah 74871","Kanamit Jaya, Kec. Maliku, Kabupaten Pulang Pisau",KALIMANTAN TENGAH,74871.0,Indonesia, 082226468737,,,-2.9321472,114.1617709,https://maps.google.com/?cid=0x0:0x4d74ca7f207e101c,
supermarket,Toko bahan makanan,Toko Mitra Tani,"P298+449, Jl. Trans Kalimantan, Kalampangan, Kec. Sebangau, Kota Palangka Raya, Kalimantan Tengah 74874","Jl. Trans Kalimantan, Kalampangan, Kec. Sebangau, Kota Palangka Raya",KALIMANTAN TENGAH,74874.0,Indonesia,,,,-2.2822073,114.0153452,https://maps.google.com/?cid=0x0:0x906ceddfdeb4604b,
supermarket,Toko,Toko Mini Market  frozen food Lina,"X9MR+59C, Selat Hilir, Kec. Selat, Kabupaten Kapuas, Kalimantan Tengah 73516","Selat Hilir, Kec. Selat, Kabupaten Kapuas",KALIMANTAN TENGAH,73516.0,Indonesia, 089691377102,,,-3.0170611,114.3909047,https://maps.google.com/?cid=0x0:0x8b2cbe6449ef714b,
supermarket,Toko Swalayan,Usaha Makmur Penggilingan Daging,"35H3+8R2, Jl. Mawar IV, RW.Pangkoh 10, Kanamit Jaya, Kec. Maliku, Kabupaten Pulang Pisau, Kalimantan Tengah 74871","Jl. Mawar IV, RW.Pangkoh 10, Kanamit Jaya, Kec. Maliku, Kabupaten Pulang Pisau",KALIMANTAN TENGAH,74871.0,Indonesia, 081256280893,,,-2.921726,114.1545223,https://maps.google.com/?cid=0x0:0xe3b45a5b2d8caa34,
supermarket,Restoran,Toko Perdanamart,"Selat Hilir, Kec. Selat, Kabupaten Kapuas, Kalimantan Tengah 73516","Kec. Selat, Kabupaten Kapuas",KALIMANTAN TENGAH,73516.0,Indonesia, 082157318943,,,-3.0185041,114.388203,https://maps.google.com/?cid=0x0:0x1e0fb53e8f9bd1ee,
supermarket,Pusat Perbelanjaan,MRMP Mart,"Pertokoan Bandar Estate, Jl. Adonis Samad, Panarung, Kec. Pahandut, Kota Palangka Raya, Kalimantan Tengah 74874","Jl. Adonis Samad, Panarung, Kec. Pahandut, Kota Palangka Raya",KALIMANTAN TENGAH,74874.0,Indonesia, 081375503228,,,-2.2505763,113.9461269,https://maps.google.com/?cid=0x0:0xd13c88ca8872f6fa,
supermarket,Toko bahan makanan,Toko Maulida,"PXCM+9FJ, Jl. Trans Kalimantan, Kalampangan, Kec. Sebangau, Kota Palangka Raya, Kalimantan Tengah 74874","Jl. Trans Kalimantan, Kalampangan, Kec. Sebangau, Kota Palangka Raya",KALIMANTAN TENGAH,74874.0,Indonesia, 085249003459,,,-2.2790495,113.9836311,https://maps.google.com/?cid=0x0:0xff2580d518264619,
supermarket,Toko Swalayan,Penggilingan Daging Barokah,"35M3+2M Jl. Mawar VI, RT. 006, RW. 002, Pangkoh 10, Kanamit Jaya, Purwodadi, Kec. Maliku, Kabupaten Pulang Pisau, Kalimantan Tengah 74871","RT. 006, RW. 002, Pangkoh 10, Kanamit Jaya, Purwodadi, Kec. Maliku, Kabupaten Pulang Pisau",KALIMANTAN TENGAH,74871.0,Indonesia, 082149480569,,,-2.9174685,114.1541441,https://maps.google.com/?cid=0x0:0x8e1e249bfa3fa521,
supermarket,Toko Swalayan,Toko Riska,"Jl. Langkai Permai I, Langkai, Kec. Pahandut, Kota Palangka Raya, Kalimantan Tengah 74874","Langkai, Kec. Pahandut, Kota Palangka Raya",KALIMANTAN TENGAH,74874.0,Indonesia, 089614752339,,,-2.2699425,113.9195622,https://maps.google.com/?cid=0x0:0x26af2583a6e8326d,
supermarket,Pusat Perbelanjaan,Kpd Yogi,"FFQV+JG6, Mantangai Hilir, Kec. Mantangai, Kabupaten Kapuas, Kalimantan Tengah 73552","Mantangai Hilir, Kec. Mantangai, Kabupaten Kapuas",KALIMANTAN TENGAH,73552.0,Indonesia, 085214175651,,,-2.5109723,114.4937534,https://maps.google.com/?cid=0x0:0x1c86e9a7ce3eb9fa,
supermarket,supermarket,Warung Ali,"469R+248, Jl. Trans Kalimantan, Mintin, Kec. Kahayan Hilir, Kabupaten Pulang Pisau, Kalimantan Tengah 74873","Jl. Trans Kalimantan, Mintin, Kec. Kahayan Hilir, Kabupaten Pulang Pisau",KALIMANTAN TENGAH,74873.0,Indonesia,,,,-2.8824625,114.2403309,https://maps.google.com/?cid=0x0:0x90c2eda0b8fb4d5c,
supermarket,supermarket,Kalimantan Tengah 74816,Kalimantan Tengah,Kalimantan Tengah,KALIMANTAN TENGAH,,Indonesia,,,,-2.3159685,114.2390498,https://maps.google.com/?cid=0x0:0x699fd2cedf1d1e7c,
supermarket,Minimarket,Alfamart,"Jl.Lintas Kalimantan No.Rt.014, Anjir Pulang Pisau, Kec. Kahayan Hilir, Kabupaten Pulang Pisau, Kalimantan Tengah 74813","Anjir Pulang Pisau, Kec. Kahayan Hilir, Kabupaten Pulang Pisau",KALIMANTAN TENGAH,74813.0,Indonesia, 1500959,,,-2.7682292,114.2828674,https://maps.google.com/?cid=0x0:0x60093dfbc993b5f1,
supermarket,Toko umum,Kios Beras Partai Dan Eceran,"7725+95F, Jl. Tingang Menteng, Pulang Pisau, Kec. Kahayan Hilir, Kabupaten Pulang Pisau, Kalimantan Tengah 73564","Jl. Tingang Menteng, Pulang Pisau, Kec. Kahayan Hilir, Kabupaten Pulang Pisau",KALIMANTAN TENGAH,73564.0,Indonesia, 085652320760,,,-2.7490576,114.2579149,https://maps.google.com/?cid=0x0:0xd2553d6910316885,
supermarket,Minimarket,KPD Swalayan,"RV3W+9MH, Palangka, Kec. Jekan Raya, Kota Palangka Raya, Kalimantan Tengah 73112","Palangka, Kec. Jekan Raya, Kota Palangka Raya",KALIMANTAN TENGAH,73112.0,Indonesia,,,,-2.196565,113.89673,https://maps.google.com/?cid=0x0:0x3b88414904f9aaa9,
supermarket,Minimarket,KPD Swalayan,"RVG7+7WR, Bukit Tunggal, Kec. Jekan Raya, Kota Palangka Raya, Kalimantan Tengah 74874","Bukit Tunggal, Kec. Jekan Raya, Kota Palangka Raya",KALIMANTAN TENGAH,74874.0,Indonesia,,,,-2.1742522,113.8647802,https://maps.google.com/?cid=0x0:0x559e62f52706de81,
supermarket,Minimarket,Alfamart,"Jl. Trans - Kalimantan No.Rt.06, Mantaren I, Kec. Kahayan Hilir, Kabupaten Pulang Pisau, Kalimantan Tengah 74861","Mantaren I, Kec. Kahayan Hilir, Kabupaten Pulang Pisau",KALIMANTAN TENGAH,74861.0,Indonesia, 1500959,,,-2.7918211,114.2618116,https://maps.google.com/?cid=0x0:0x758e982c80481489,
supermarket,Toko bahan makanan,Warung kenzo,"F5JR+Q6X, Jl. Trans - Kalimantan, Jabiren, Kec. Jabiren, Kabupaten Pulang Pisau, Kalimantan Tengah 74812","Jl. Trans - Kalimantan, Jabiren, Kec. Jabiren, Kabupaten Pulang Pisau",KALIMANTAN TENGAH,74812.0,Indonesia, 082253773210,,,-2.518011,114.1906037,https://maps.google.com/?cid=0x0:0x75f9671538cfd60b,
supermarket,Minimarket,KPD Swalayan,"QWF3+FQF, Jl. Temanggung Tilung, Menteng, Kec. Jekan Raya, Kota Palangka Raya, Kalimantan Tengah 74874","Jl. Temanggung Tilung, Menteng, Kec. Jekan Raya, Kota Palangka Raya",KALIMANTAN TENGAH,74874.0,Indonesia,,,,-2.2263205,113.9044201,https://maps.google.com/?cid=0x0:0x85898d75470f4f26,
supermarket,Toko Makanan,Tram pulpis,"Jl. Tingang Menteng No.70, Pulang Pisau, Kec. Kahayan Hilir, Kabupaten Pulang Pisau, Kalimantan Tengah 73564","Pulang Pisau, Kec. Kahayan Hilir, Kabupaten Pulang Pisau",KALIMANTAN TENGAH,73564.0,Indonesia, 082256347756,,,-2.7539878,114.2563596,https://maps.google.com/?cid=0x0:0x561bbab0ad3537b1,
supermarket,Toko bahan makanan,penjual Es Tebu,"7725+R87, Unnamed Road, Pulang Pisau, Kec. Kahayan Hilir, Kabupaten Pulang Pisau, Kalimantan Tengah 73564","Unnamed Road, Pulang Pisau, Kec. Kahayan Hilir, Kabupaten Pulang Pisau",KALIMANTAN TENGAH,73564.0,Indonesia, 082156485470,,,-2.747956,114.2583037,https://maps.google.com/?cid=0x0:0x8f90982931ebd77c,
supermarket,Toko Kue,TOKO IQBAL,"7725+V5P, Pulang Pisau, Kec. Kahayan Hilir, Kabupaten Pulang Pisau, Kalimantan Tengah 73564","Pulang Pisau, Kec. Kahayan Hilir, Kabupaten Pulang Pisau",KALIMANTAN TENGAH,73564.0,Indonesia,,,,-2.7477962,114.2579662,https://maps.google.com/?cid=0x0:0xbfcffd2bcadb4422,
supermarket,supermarket,Warung Abah Subahan,"7756+JJ4, Bereng, Kec. Kahayan Hilir, Kabupaten Pulang Pisau, Kalimantan Tengah 73564","Bereng, Kec. Kahayan Hilir, Kabupaten Pulang Pisau",KALIMANTAN TENGAH,73564.0,Indonesia,,,,-2.7409813,114.2615637,https://maps.google.com/?cid=0x0:0x3404fd348a22af21,
supermarket,supermarket,Depo Air Minum Nizaar,"7756+RMF, Bereng, Kec. Kahayan Hilir, Kabupaten Pulang Pisau, Kalimantan Tengah 73564","Bereng, Kec. Kahayan Hilir, Kabupaten Pulang Pisau",KALIMANTAN TENGAH,73564.0,Indonesia,,,,-2.7404341,114.2616781,https://maps.google.com/?cid=0x0:0x7228467d8f9618a9,
supermarket,supermarket,Kec. Kahayan Hilir,"Kabupaten Pulang Pisau, Kalimantan Tengah","Kabupaten Pulang Pisau, Kalimantan Tengah",KALIMANTAN TENGAH,,Indonesia,,,,-2.7914682,114.262235,https://maps.google.com/?cid=0x0:0x7f1583868799e28e,
supermarket,Minimarket,Alfamart,"Jl. Trans - Kalimantan No.Rt.06, Mantaren I, Kec. Kahayan Hilir, Kabupaten Pulang Pisau, Kalimantan Tengah 74861","Mantaren I, Kec. Kahayan Hilir, Kabupaten Pulang Pisau",KALIMANTAN TENGAH,74861.0,Indonesia, 1500959,,,-2.7918211,114.2618116,https://maps.google.com/?cid=0x0:0x758e982c80481489,
supermarket,Minimarket,Alfamart,"Jl.Lintas Kalimantan No.Rt.014, Anjir Pulang Pisau, Kec. Kahayan Hilir, Kabupaten Pulang Pisau, Kalimantan Tengah 74813","Anjir Pulang Pisau, Kec. Kahayan Hilir, Kabupaten Pulang Pisau",KALIMANTAN TENGAH,74813.0,Indonesia, 1500959,,,-2.7682292,114.2828674,https://maps.google.com/?cid=0x0:0x60093dfbc993b5f1,
supermarket,Toko Makanan,Tram pulpis,"Jl. Tingang Menteng No.70, Pulang Pisau, Kec. Kahayan Hilir, Kabupaten Pulang Pisau, Kalimantan Tengah 73564","Pulang Pisau, Kec. Kahayan Hilir, Kabupaten Pulang Pisau",KALIMANTAN TENGAH,73564.0,Indonesia, 082256347756,,,-2.7539878,114.2563596,https://maps.google.com/?cid=0x0:0x561bbab0ad3537b1,
supermarket,Toko umum,Kios Beras Partai Dan Eceran,"7725+95F, Jl. Tingang Menteng, Pulang Pisau, Kec. Kahayan Hilir, Kabupaten Pulang Pisau, Kalimantan Tengah 73564","Jl. Tingang Menteng, Pulang Pisau, Kec. Kahayan Hilir, Kabupaten Pulang Pisau",KALIMANTAN TENGAH,73564.0,Indonesia, 085652320760,,,-2.7490576,114.2579149,https://maps.google.com/?cid=0x0:0xd2553d6910316885,
supermarket,Toko bahan makanan,penjual Es Tebu,"7725+R87, Unnamed Road, Pulang Pisau, Kec. Kahayan Hilir, Kabupaten Pulang Pisau, Kalimantan Tengah 73564","Unnamed Road, Pulang Pisau, Kec. Kahayan Hilir, Kabupaten Pulang Pisau",KALIMANTAN TENGAH,73564.0,Indonesia, 082156485470,,,-2.747956,114.2583037,https://maps.google.com/?cid=0x0:0x8f90982931ebd77c,
supermarket,Peternakan wisata,Ternak ikan Hidayat Briyantara,"Mantaren I, Kec. Kahayan Hilir, Kabupaten Pulang Pisau, Kalimantan Tengah 73564","Kec. Kahayan Hilir, Kabupaten Pulang Pisau",KALIMANTAN TENGAH,73564.0,Indonesia, 082155680910,,,-2.7766772,114.2737089,https://maps.google.com/?cid=0x0:0xf82c220a30ffad18,
supermarket,Pusat Perbelanjaan,TIGA SAUDARA COPY CENTER,"25R4+QFF, Jl. Tjilik Riwut, Maliku Baru, Kec. Maliku, Kabupaten Pulang Pisau, Kalimantan Tengah 74871","Jl. Tjilik Riwut, Maliku Baru, Kec. Maliku, Kabupaten Pulang Pisau",KALIMANTAN TENGAH,74871.0,Indonesia, 082150046256,,,-2.9580653,114.1561785,https://maps.google.com/?cid=0x0:0xfc6f7b0e9215911b,
supermarket,Toko,Jual madu murni. B7,"jl Abel Gawei, Mantaren I, Kec. Kahayan Hilir, Kabupaten Pulang Pisau, Kalimantan Tengah 73564","Mantaren I, Kec. Kahayan Hilir, Kabupaten Pulang Pisau",KALIMANTAN TENGAH,73564.0,Indonesia, 081233391119,,,-2.7823302,114.2676121,https://maps.google.com/?cid=0x0:0xcb82a223370c72da,
supermarket,Toko Obat,Toko Obat Asy-Syifa,"Jl. Lintas Bahaur No.Rt. 08, Kanamit Jaya, Kec. Maliku, Kabupaten Pulang Pisau, Kalimantan Tengah 74871","Kanamit Jaya, Kec. Maliku, Kabupaten Pulang Pisau",KALIMANTAN TENGAH,74871.0,Indonesia, 082226468737,,,-2.9321472,114.1617709,https://maps.google.com/?cid=0x0:0x4d74ca7f207e101c,
supermarket,Toko Swalayan,Rina Fotocopy,"24HC+V3M, Jl. Poros, Gandang, Kec. Maliku, Kabupaten Pulang Pisau, Kalimantan Tengah 74871","Jl. Poros, Gandang, Kec. Maliku, Kabupaten Pulang Pisau",KALIMANTAN TENGAH,74871.0,Indonesia, 082155644150,,,-2.9702939,114.1201734,https://maps.google.com/?cid=0x0:0xac65aa9129b6cd91,
supermarket,Toko,Toko Mini Market  frozen food Lina,"X9MR+59C, Selat Hilir, Kec. Selat, Kabupaten Kapuas, Kalimantan Tengah 73516","Selat Hilir, Kec. Selat, Kabupaten Kapuas",KALIMANTAN TENGAH,73516.0,Indonesia, 089691377102,,,-3.0170611,114.3909047,https://maps.google.com/?cid=0x0:0x8b2cbe6449ef714b,
supermarket,Minimarket,Alfamart - Trans Kalimantan Basarang,"Jl. Trans - Kalimantan No.Km 9, RT.06/RW.01, Bungai Jaya, Kec. Basarang, Kabupaten Kapuas, Kalimantan Tengah 73564","RT.06/RW.01, Bungai Jaya, Kec. Basarang, Kabupaten Kapuas",KALIMANTAN TENGAH,73564.0,Indonesia, 1500959,,,-2.9501236,114.3035199,https://maps.google.com/?cid=0x0:0xf0d14192c1bda940,
supermarket,Toko Swalayan,Fotocopy Rahmat,"24G8+8X9, Gandang, Kec. Maliku, Kabupaten Pulang Pisau, Kalimantan Tengah 74871","Gandang, Kec. Maliku, Kabupaten Pulang Pisau",KALIMANTAN TENGAH,74871.0,Indonesia,,,,-2.9742094,114.1174694,https://maps.google.com/?cid=0x0:0x49d164edf9dbd396,
supermarket,Toko Swalayan,Usaha Makmur Penggilingan Daging,"35H3+8R2, Jl. Mawar IV, RW.Pangkoh 10, Kanamit Jaya, Kec. Maliku, Kabupaten Pulang Pisau, Kalimantan Tengah 74871","Jl. Mawar IV, RW.Pangkoh 10, Kanamit Jaya, Kec. Maliku, Kabupaten Pulang Pisau",KALIMANTAN TENGAH,74871.0,Indonesia, 081256280893,,,-2.921726,114.1545223,https://maps.google.com/?cid=0x0:0xe3b45a5b2d8caa34,
supermarket,Pusat Perbelanjaan,KODO KATNI KEBO,"22WR+X27, Unnamed Road, Gandang Bar., Kec. Maliku, Kabupaten Pulang Pisau, Kalimantan Tengah 74871","Unnamed Road, Gandang Bar., Kec. Maliku, Kabupaten Pulang Pisau",KALIMANTAN TENGAH,74871.0,Indonesia,,,,-2.9525763,114.0400515,https://maps.google.com/?cid=0x0:0x884516db70f8d106,
supermarket,Toko bahan makanan,Yuda Puji,"378P+PXV, Jl. Trans - Kalimantan, Panarung, Kec. Basarang, Kabupaten Kapuas, Kalimantan Tengah 73511","Jl. Trans - Kalimantan, Panarung, Kec. Basarang, Kabupaten Kapuas",KALIMANTAN TENGAH,73511.0,Indonesia, 082350598886,,,-2.933147,114.2874216,https://maps.google.com/?cid=0x0:0x943d00b7d1ee98a,
supermarket,supermarket,Warung Ali,"469R+248, Jl. Trans Kalimantan, Mintin, Kec. Kahayan Hilir, Kabupaten Pulang Pisau, Kalimantan Tengah 74873","Jl. Trans Kalimantan, Mintin, Kec. Kahayan Hilir, Kabupaten Pulang Pisau",KALIMANTAN TENGAH,74873.0,Indonesia,,,,-2.8824625,114.2403309,https://maps.google.com/?cid=0x0:0x90c2eda0b8fb4d5c,
supermarket,supermarket,Warung Abah Subahan,"7756+JJ4, Bereng, Kec. Kahayan Hilir, Kabupaten Pulang Pisau, Kalimantan Tengah 73564","Bereng, Kec. Kahayan Hilir, Kabupaten Pulang Pisau",KALIMANTAN TENGAH,73564.0,Indonesia,,,,-2.7409813,114.2615637,https://maps.google.com/?cid=0x0:0x3404fd348a22af21,
supermarket,Minimarket,Alfamart,"Jl.Lintas Kalimantan No.Rt.014, Anjir Pulang Pisau, Kec. Kahayan Hilir, Kabupaten Pulang Pisau, Kalimantan Tengah 74813","Anjir Pulang Pisau, Kec. Kahayan Hilir, Kabupaten Pulang Pisau",KALIMANTAN TENGAH,74813.0,Indonesia, 1500959,,,-2.7682292,114.2828674,https://maps.google.com/?cid=0x0:0x60093dfbc993b5f1,
supermarket,Toko umum,Kios Beras Partai Dan Eceran,"7725+95F, Jl. Tingang Menteng, Pulang Pisau, Kec. Kahayan Hilir, Kabupaten Pulang Pisau, Kalimantan Tengah 73564","Jl. Tingang Menteng, Pulang Pisau, Kec. Kahayan Hilir, Kabupaten Pulang Pisau",KALIMANTAN TENGAH,73564.0,Indonesia, 085652320760,,,-2.7490576,114.2579149,https://maps.google.com/?cid=0x0:0xd2553d6910316885,
supermarket,Toko bahan makanan,penjual Es Tebu,"7725+R87, Unnamed Road, Pulang Pisau, Kec. Kahayan Hilir, Kabupaten Pulang Pisau, Kalimantan Tengah 73564","Unnamed Road, Pulang Pisau, Kec. Kahayan Hilir, Kabupaten Pulang Pisau",KALIMANTAN TENGAH,73564.0,Indonesia, 082156485470,,,-2.747956,114.2583037,https://maps.google.com/?cid=0x0:0x8f90982931ebd77c,
supermarket,Peternakan wisata,Ternak ikan Hidayat Briyantara,"Mantaren I, Kec. Kahayan Hilir, Kabupaten Pulang Pisau, Kalimantan Tengah 73564","Kec. Kahayan Hilir, Kabupaten Pulang Pisau",KALIMANTAN TENGAH,73564.0,Indonesia, 082155680910,,,-2.7766772,114.2737089,https://maps.google.com/?cid=0x0:0xf82c220a30ffad18,
supermarket,Pusat Perbelanjaan,TIGA SAUDARA COPY CENTER,"25R4+QFF, Jl. Tjilik Riwut, Maliku Baru, Kec. Maliku, Kabupaten Pulang Pisau, Kalimantan Tengah 74871","Jl. Tjilik Riwut, Maliku Baru, Kec. Maliku, Kabupaten Pulang Pisau",KALIMANTAN TENGAH,74871.0,Indonesia, 082150046256,,,-2.9580653,114.1561785,https://maps.google.com/?cid=0x0:0xfc6f7b0e9215911b,
supermarket,Toko,Jual madu murni. B7,"jl Abel Gawei, Mantaren I, Kec. Kahayan Hilir, Kabupaten Pulang Pisau, Kalimantan Tengah 73564","Mantaren I, Kec. Kahayan Hilir, Kabupaten Pulang Pisau",KALIMANTAN TENGAH,73564.0,Indonesia, 081233391119,,,-2.7823302,114.2676121,https://maps.google.com/?cid=0x0:0xcb82a223370c72da,
supermarket,supermarket,Kec. Kahayan Hilir,"Kabupaten Pulang Pisau, Kalimantan Tengah","Kabupaten Pulang Pisau, Kalimantan Tengah",KALIMANTAN TENGAH,,Indonesia,,,,-2.7914682,114.262235,https://maps.google.com/?cid=0x0:0x7f1583868799e28e,
supermarket,Toko Obat,Toko Obat Asy-Syifa,"Jl. Lintas Bahaur No.Rt. 08, Kanamit Jaya, Kec. Maliku, Kabupaten Pulang Pisau, Kalimantan Tengah 74871","Kanamit Jaya, Kec. Maliku, Kabupaten Pulang Pisau",KALIMANTAN TENGAH,74871.0,Indonesia, 082226468737,,,-2.9321472,114.1617709,https://maps.google.com/?cid=0x0:0x4d74ca7f207e101c,
supermarket,Toko Makanan,Tram pulpis,"Jl. Tingang Menteng No.70, Pulang Pisau, Kec. Kahayan Hilir, Kabupaten Pulang Pisau, Kalimantan Tengah 73564","Pulang Pisau, Kec. Kahayan Hilir, Kabupaten Pulang Pisau",KALIMANTAN TENGAH,73564.0,Indonesia, 082256347756,,,-2.7539878,114.2563596,https://maps.google.com/?cid=0x0:0x561bbab0ad3537b1,
supermarket,Toko Swalayan,Usaha Makmur Penggilingan Daging,"35H3+8R2, Jl. Mawar IV, RW.Pangkoh 10, Kanamit Jaya, Kec. Maliku, Kabupaten Pulang Pisau, Kalimantan Tengah 74871","Jl. Mawar IV, RW.Pangkoh 10, Kanamit Jaya, Kec. Maliku, Kabupaten Pulang Pisau",KALIMANTAN TENGAH,74871.0,Indonesia, 081256280893,,,-2.921726,114.1545223,https://maps.google.com/?cid=0x0:0xe3b45a5b2d8caa34,
supermarket,Toko Swalayan,Fotocopy Rahmat,"24G8+8X9, Gandang, Kec. Maliku, Kabupaten Pulang Pisau, Kalimantan Tengah 74871","Gandang, Kec. Maliku, Kabupaten Pulang Pisau",KALIMANTAN TENGAH,74871.0,Indonesia,,,,-2.9742094,114.1174694,https://maps.google.com/?cid=0x0:0x49d164edf9dbd396,
supermarket,Minimarket,Alfamart - Trans Kalimantan Basarang,"Jl. Trans - Kalimantan No.Km 9, RT.06/RW.01, Bungai Jaya, Kec. Basarang, Kabupaten Kapuas, Kalimantan Tengah 73564","RT.06/RW.01, Bungai Jaya, Kec. Basarang, Kabupaten Kapuas",KALIMANTAN TENGAH,73564.0,Indonesia, 1500959,,,-2.9501236,114.3035199,https://maps.google.com/?cid=0x0:0xf0d14192c1bda940,
supermarket,Pom bensin/SPBU,SPBU Pertamina 64.731.06,"67HH+7V8, Anjir Pulang Pisau, Kec. Kahayan Hilir, Kabupaten Pulang Pisau, Kalimantan Tengah 73564","Anjir Pulang Pisau, Kec. Kahayan Hilir, Kabupaten Pulang Pisau",KALIMANTAN TENGAH,73564.0,Indonesia,,,,-2.7718495,114.2796876,https://maps.google.com/?cid=0x0:0xf893b9440a5f7d84,
supermarket,Toko bahan makanan,Yuda Puji,"378P+PXV, Jl. Trans - Kalimantan, Panarung, Kec. Basarang, Kabupaten Kapuas, Kalimantan Tengah 73511","Jl. Trans - Kalimantan, Panarung, Kec. Basarang, Kabupaten Kapuas",KALIMANTAN TENGAH,73511.0,Indonesia, 082350598886,,,-2.933147,114.2874216,https://maps.google.com/?cid=0x0:0x943d00b7d1ee98a,
supermarket,Toko Elektronik,Toko Rexxa,"Jl. Panunjung Tarung RT.06, Pulang Pisau, Kec. Kahayan Hilir, Kabupaten Pulang Pisau, Kalimantan Tengah 73564","Pulang Pisau, Kec. Kahayan Hilir, Kabupaten Pulang Pisau",KALIMANTAN TENGAH,73564.0,Indonesia, 082353246778,,,-2.7521448,114.2597507,https://maps.google.com/?cid=0x0:0x4f2fe0d7ffa728ce,
supermarket,supermarket,Kec. Kahayan Hilir,"Kabupaten Pulang Pisau, Kalimantan Tengah","Kabupaten Pulang Pisau, Kalimantan Tengah",KALIMANTAN TENGAH,,Indonesia,,,,-2.7914682,114.262235,https://maps.google.com/?cid=0x0:0x7f1583868799e28e,
supermarket,Minimarket,Alfamart,"Jl. Trans - Kalimantan No.Rt.06, Mantaren I, Kec. Kahayan Hilir, Kabupaten Pulang Pisau, Kalimantan Tengah 74861","Mantaren I, Kec. Kahayan Hilir, Kabupaten Pulang Pisau",KALIMANTAN TENGAH,74861.0,Indonesia, 1500959,,,-2.7918211,114.2618116,https://maps.google.com/?cid=0x0:0x758e982c80481489,
supermarket,Minimarket,Alfamart,"Jl.Lintas Kalimantan No.Rt.014, Anjir Pulang Pisau, Kec. Kahayan Hilir, Kabupaten Pulang Pisau, Kalimantan Tengah 74813","Anjir Pulang Pisau, Kec. Kahayan Hilir, Kabupaten Pulang Pisau",KALIMANTAN TENGAH,74813.0,Indonesia, 1500959,,,-2.7682292,114.2828674,https://maps.google.com/?cid=0x0:0x60093dfbc993b5f1,
supermarket,Toko umum,Kios Beras Partai Dan Eceran,"7725+95F, Jl. Tingang Menteng, Pulang Pisau, Kec. Kahayan Hilir, Kabupaten Pulang Pisau, Kalimantan Tengah 73564","Jl. Tingang Menteng, Pulang Pisau, Kec. Kahayan Hilir, Kabupaten Pulang Pisau",KALIMANTAN TENGAH,73564.0,Indonesia, 085652320760,,,-2.7490576,114.2579149,https://maps.google.com/?cid=0x0:0xd2553d6910316885,
supermarket,Toko Makanan,Tram pulpis,"Jl. Tingang Menteng No.70, Pulang Pisau, Kec. Kahayan Hilir, Kabupaten Pulang Pisau, Kalimantan Tengah 73564","Pulang Pisau, Kec. Kahayan Hilir, Kabupaten Pulang Pisau",KALIMANTAN TENGAH,73564.0,Indonesia, 082256347756,,,-2.7539878,114.2563596,https://maps.google.com/?cid=0x0:0x561bbab0ad3537b1,
supermarket,Toko bahan makanan,penjual Es Tebu,"7725+R87, Unnamed Road, Pulang Pisau, Kec. Kahayan Hilir, Kabupaten Pulang Pisau, Kalimantan Tengah 73564","Unnamed Road, Pulang Pisau, Kec. Kahayan Hilir, Kabupaten Pulang Pisau",KALIMANTAN TENGAH,73564.0,Indonesia, 082156485470,,,-2.747956,114.2583037,https://maps.google.com/?cid=0x0:0x8f90982931ebd77c,
supermarket,Pusat Perbelanjaan,TIGA SAUDARA COPY CENTER,"25R4+QFF, Jl. Tjilik Riwut, Maliku Baru, Kec. Maliku, Kabupaten Pulang Pisau, Kalimantan Tengah 74871","Jl. Tjilik Riwut, Maliku Baru, Kec. Maliku, Kabupaten Pulang Pisau",KALIMANTAN TENGAH,74871.0,Indonesia, 082150046256,,,-2.9580653,114.1561785,https://maps.google.com/?cid=0x0:0xfc6f7b0e9215911b,
supermarket,Peternakan wisata,Ternak ikan Hidayat Briyantara,"Mantaren I, Kec. Kahayan Hilir, Kabupaten Pulang Pisau, Kalimantan Tengah 73564","Kec. Kahayan Hilir, Kabupaten Pulang Pisau",KALIMANTAN TENGAH,73564.0,Indonesia, 082155680910,,,-2.7766772,114.2737089,https://maps.google.com/?cid=0x0:0xf82c220a30ffad18,
supermarket,Toko,Jual madu murni. B7,"jl Abel Gawei, Mantaren I, Kec. Kahayan Hilir, Kabupaten Pulang Pisau, Kalimantan Tengah 73564","Mantaren I, Kec. Kahayan Hilir, Kabupaten Pulang Pisau",KALIMANTAN TENGAH,73564.0,Indonesia, 081233391119,,,-2.7823302,114.2676121,https://maps.google.com/?cid=0x0:0xcb82a223370c72da,
supermarket,Toko Obat,Toko Obat Asy-Syifa,"Jl. Lintas Bahaur No.Rt. 08, Kanamit Jaya, Kec. Maliku, Kabupaten Pulang Pisau, Kalimantan Tengah 74871","Kanamit Jaya, Kec. Maliku, Kabupaten Pulang Pisau",KALIMANTAN TENGAH,74871.0,Indonesia, 082226468737,,,-2.9321472,114.1617709,https://maps.google.com/?cid=0x0:0x4d74ca7f207e101c,
supermarket,Toko Swalayan,Rina Fotocopy,"24HC+V3M, Jl. Poros, Gandang, Kec. Maliku, Kabupaten Pulang Pisau, Kalimantan Tengah 74871","Jl. Poros, Gandang, Kec. Maliku, Kabupaten Pulang Pisau",KALIMANTAN TENGAH,74871.0,Indonesia, 082155644150,,,-2.9702939,114.1201734,https://maps.google.com/?cid=0x0:0xac65aa9129b6cd91,
supermarket,Pom bensin/SPBU,SPBU Pertamina 64.731.06,"67HH+7V8, Anjir Pulang Pisau, Kec. Kahayan Hilir, Kabupaten Pulang Pisau, Kalimantan Tengah 73564","Anjir Pulang Pisau, Kec. Kahayan Hilir, Kabupaten Pulang Pisau",KALIMANTAN TENGAH,73564.0,Indonesia,,,,-2.7718495,114.2796876,https://maps.google.com/?cid=0x0:0xf893b9440a5f7d84,
supermarket,Toko Swalayan,Fotocopy Rahmat,"24G8+8X9, Gandang, Kec. Maliku, Kabupaten Pulang Pisau, Kalimantan Tengah 74871","Gandang, Kec. Maliku, Kabupaten Pulang Pisau",KALIMANTAN TENGAH,74871.0,Indonesia,,,,-2.9742094,114.1174694,https://maps.google.com/?cid=0x0:0x49d164edf9dbd396,
supermarket,Minimarket,Alfamart - Trans Kalimantan Basarang,"Jl. Trans - Kalimantan No.Km 9, RT.06/RW.01, Bungai Jaya, Kec. Basarang, Kabupaten Kapuas, Kalimantan Tengah 73564","RT.06/RW.01, Bungai Jaya, Kec. Basarang, Kabupaten Kapuas",KALIMANTAN TENGAH,73564.0,Indonesia, 1500959,,,-2.9501236,114.3035199,https://maps.google.com/?cid=0x0:0xf0d14192c1bda940,
supermarket,Toko Swalayan,Usaha Makmur Penggilingan Daging,"35H3+8R2, Jl. Mawar IV, RW.Pangkoh 10, Kanamit Jaya, Kec. Maliku, Kabupaten Pulang Pisau, Kalimantan Tengah 74871","Jl. Mawar IV, RW.Pangkoh 10, Kanamit Jaya, Kec. Maliku, Kabupaten Pulang Pisau",KALIMANTAN TENGAH,74871.0,Indonesia, 081256280893,,,-2.921726,114.1545223,https://maps.google.com/?cid=0x0:0xe3b45a5b2d8caa34,
supermarket,Toko bahan makanan,Yuda Puji,"378P+PXV, Jl. Trans - Kalimantan, Panarung, Kec. Basarang, Kabupaten Kapuas, Kalimantan Tengah 73511","Jl. Trans - Kalimantan, Panarung, Kec. Basarang, Kabupaten Kapuas",KALIMANTAN TENGAH,73511.0,Indonesia, 082350598886,,,-2.933147,114.2874216,https://maps.google.com/?cid=0x0:0x943d00b7d1ee98a,
supermarket,supermarket,KEDAI AYUIPAN,"7727+CGQ, Jl. Oberlin Metar, Pulang Pisau, Kec. Kahayan Hilir, Kabupaten Pulang Pisau, Kalimantan Tengah 73564","Jl. Oberlin Metar, Pulang Pisau, Kec. Kahayan Hilir, Kabupaten Pulang Pisau",KALIMANTAN TENGAH,73564.0,Indonesia,,,,-2.7489156,114.2638579,https://maps.google.com/?cid=0x0:0xe0ffa4570d33fb2e,
supermarket,Pusat Perbelanjaan,KODO KATNI KEBO,"22WR+X27, Unnamed Road, Gandang Bar., Kec. Maliku, Kabupaten Pulang Pisau, Kalimantan Tengah 74871","Unnamed Road, Gandang Bar., Kec. Maliku, Kabupaten Pulang Pisau",KALIMANTAN TENGAH,74871.0,Indonesia,,,,-2.9525763,114.0400515,https://maps.google.com/?cid=0x0:0x884516db70f8d106,
supermarket,Toko,Warung Mama Siti,"W6V8+J48, Unnamed Road, Tahai Baru, Kec. Maliku, Kabupaten Pulang Pisau, Kalimantan Tengah 73516","Unnamed Road, Tahai Baru, Kec. Maliku, Kabupaten Pulang Pisau",KALIMANTAN TENGAH,73516.0,Indonesia,,,,-3.0559646,114.2153269,https://maps.google.com/?cid=0x0:0x4a9656b55a3d4,
supermarket,supermarket,Warung Ali,"469R+248, Jl. Trans Kalimantan, Mintin, Kec. Kahayan Hilir, Kabupaten Pulang Pisau, Kalimantan Tengah 74873","Jl. Trans Kalimantan, Mintin, Kec. Kahayan Hilir, Kabupaten Pulang Pisau",KALIMANTAN TENGAH,74873.0,Indonesia,,,,-2.8824625,114.2403309,https://maps.google.com/?cid=0x0:0x90c2eda0b8fb4d5c,
supermarket,supermarket,Fitria water,"Jl. Tingang Menteng No.70, Pulang Pisau, Kec. Kahayan Hilir, Kabupaten Pulang Pisau, Kalimantan Tengah 73564","Pulang Pisau, Kec. Kahayan Hilir, Kabupaten Pulang Pisau",KALIMANTAN TENGAH,73564.0,Indonesia,,,,-2.7539465,114.2563836,https://maps.google.com/?cid=0x0:0x11199787f8d1343b,
supermarket,supermarket,Warung Abah Subahan,"7756+JJ4, Bereng, Kec. Kahayan Hilir, Kabupaten Pulang Pisau, Kalimantan Tengah 73564","Bereng, Kec. Kahayan Hilir, Kabupaten Pulang Pisau",KALIMANTAN TENGAH,73564.0,Indonesia,,,,-2.7409813,114.2615637,https://maps.google.com/?cid=0x0:0x3404fd348a22af21,
supermarket,supermarket,Kalimantan Tengah 74861,"Kec. Kahayan Hilir, Kabupaten Pulang Pisau, Kalimantan Tengah","Kabupaten Pulang Pisau, Kalimantan Tengah",KALIMANTAN TENGAH,,Indonesia,,,,-2.6258092,114.1677159,https://maps.google.com/?cid=0x0:0xa561bda05dfda1b5,
supermarket,Toko bahan makanan,penjual Es Tebu,"7725+R87, Unnamed Road, Pulang Pisau, Kec. Kahayan Hilir, Kabupaten Pulang Pisau, Kalimantan Tengah 73564","Unnamed Road, Pulang Pisau, Kec. Kahayan Hilir, Kabupaten Pulang Pisau",KALIMANTAN TENGAH,73564.0,Indonesia, 082156485470,,,-2.747956,114.2583037,https://maps.google.com/?cid=0x0:0x8f90982931ebd77c,
supermarket,supermarket,Warung Abah Subahan,"7756+JJ4, Bereng, Kec. Kahayan Hilir, Kabupaten Pulang Pisau, Kalimantan Tengah 73564","Bereng, Kec. Kahayan Hilir, Kabupaten Pulang Pisau",KALIMANTAN TENGAH,73564.0,Indonesia,,,,-2.7409813,114.2615637,https://maps.google.com/?cid=0x0:0x3404fd348a22af21,
supermarket,Toko Alat Tulis Kantor,TOKO HUSNA ATK  MAINAN,"67X4+VV8, Jl. Tingang Menteng, Pulang Pisau, Kec. Kahayan Hilir, Kabupaten Pulang Pisau, Kalimantan Tengah 73564","Jl. Tingang Menteng, Pulang Pisau, Kec. Kahayan Hilir, Kabupaten Pulang Pisau",KALIMANTAN TENGAH,73564.0,Indonesia, 081346333310,,,-2.7503444,114.2572046,https://maps.google.com/?cid=0x0:0x3c027517264e948d,
supermarket,Toko umum,Kios Beras Partai Dan Eceran,"7725+95F, Jl. Tingang Menteng, Pulang Pisau, Kec. Kahayan Hilir, Kabupaten Pulang Pisau, Kalimantan Tengah 73564","Jl. Tingang Menteng, Pulang Pisau, Kec. Kahayan Hilir, Kabupaten Pulang Pisau",KALIMANTAN TENGAH,73564.0,Indonesia, 085652320760,,,-2.7490576,114.2579149,https://maps.google.com/?cid=0x0:0xd2553d6910316885,
supermarket,Toko,Toko Assyifa Pulang Pisau,"7735+6CG, Pulang Pisau, Kec. Kahayan Hilir, Kabupaten Pulang Pisau, Kalimantan Tengah 73564","Pulang Pisau, Kec. Kahayan Hilir, Kabupaten Pulang Pisau",KALIMANTAN TENGAH,73564.0,Indonesia, 082250224666,,,-2.746948,114.2585858,https://maps.google.com/?cid=0x0:0xbafc58e02f0f4aa3,
supermarket,supermarket,Kalimantan Tengah 74872,"Kabupaten Pulang Pisau, Kalimantan Tengah","Kabupaten Pulang Pisau, Kalimantan Tengah",KALIMANTAN TENGAH,,Indonesia,,,,-3.197171,114.0488007,https://maps.google.com/?cid=0x0:0x496607f806bb7e7f,
supermarket,Toko Swalayan,Fotocopy Rahmat,"24G8+8X9, Gandang, Kec. Maliku, Kabupaten Pulang Pisau, Kalimantan Tengah 74871","Gandang, Kec. Maliku, Kabupaten Pulang Pisau",KALIMANTAN TENGAH,74871.0,Indonesia,,,,-2.9742094,114.1174694,https://maps.google.com/?cid=0x0:0x49d164edf9dbd396,
supermarket,Toko Swalayan,Rina Fotocopy,"24HC+V3M, Jl. Poros, Gandang, Kec. Maliku, Kabupaten Pulang Pisau, Kalimantan Tengah 74871","Jl. Poros, Gandang, Kec. Maliku, Kabupaten Pulang Pisau",KALIMANTAN TENGAH,74871.0,Indonesia, 082155644150,,,-2.9702939,114.1201734,https://maps.google.com/?cid=0x0:0xac65aa9129b6cd91,
supermarket,Pusat Perbelanjaan,TIGA SAUDARA COPY CENTER,"25R4+QFF, Jl. Tjilik Riwut, Maliku Baru, Kec. Maliku, Kabupaten Pulang Pisau, Kalimantan Tengah 74871","Jl. Tjilik Riwut, Maliku Baru, Kec. Maliku, Kabupaten Pulang Pisau",KALIMANTAN TENGAH,74871.0,Indonesia, 082150046256,,,-2.9580653,114.1561785,https://maps.google.com/?cid=0x0:0xfc6f7b0e9215911b,
supermarket,Toko Obat,Toko Obat Asy-Syifa,"Jl. Lintas Bahaur No.Rt. 08, Kanamit Jaya, Kec. Maliku, Kabupaten Pulang Pisau, Kalimantan Tengah 74871","Kanamit Jaya, Kec. Maliku, Kabupaten Pulang Pisau",KALIMANTAN TENGAH,74871.0,Indonesia, 082226468737,,,-2.9321472,114.1617709,https://maps.google.com/?cid=0x0:0x4d74ca7f207e101c,
supermarket,Kios,Kios Bangun Tani,"R6P3+6Q9, Unnamed Road, Gadabung, Kec. Pandih Batu, Kabupaten Pulang Pisau, Kalimantan Tengah 73583","Unnamed Road, Gadabung, Kec. Pandih Batu, Kabupaten Pulang Pisau",KALIMANTAN TENGAH,73583.0,Indonesia,,,,-3.1644557,114.2044732,https://maps.google.com/?cid=0x0:0xd8cd089338af5877,
supermarket,Toko,Toko Mini Market  frozen food Lina,"X9MR+59C, Selat Hilir, Kec. Selat, Kabupaten Kapuas, Kalimantan Tengah 73516","Selat Hilir, Kec. Selat, Kabupaten Kapuas",KALIMANTAN TENGAH,73516.0,Indonesia, 089691377102,,,-3.0170611,114.3909047,https://maps.google.com/?cid=0x0:0x8b2cbe6449ef714b,
supermarket,Toko bahan makanan,Toko Ridho,"VFGJ+493, Jl. Trans - Kalimantan, Anjir Ps. Lama, Kec. Anjir Ps., Kabupaten Barito Kuala, Kalimantan Selatan 70565","Jl. Trans - Kalimantan, Anjir Ps. Lama, Kec. Anjir Ps., Kabupaten Barito Kuala",KALIMANTAN TENGAH,70565.0,Indonesia, 085389827675,,,-3.1247418,114.480915,https://maps.google.com/?cid=0x0:0x9c5fd3d0de842f72,
supermarket,Toko bahan makanan,Warung Shanty / Wandi,"232H+X33, Kantan Dalam, Kec. Pandih Batu, Kabupaten Pulang Pisau, Kalimantan Tengah 74872","Kantan Dalam, Kec. Pandih Batu, Kabupaten Pulang Pisau",KALIMANTAN TENGAH,74872.0,Indonesia, 082155688501,,,-2.9976203,114.0776758,https://maps.google.com/?cid=0x0:0x375b98d7f8cbafd,
supermarket,Toko Swalayan,Toko Dina  Ghina,"PGFC+M8W, Jl. Taman Sari Bunga, Anjir Serapat Lama, Kec. Mekarsari, Kabupaten Barito Kuala, Kalimantan Selatan 70566","Jl. Taman Sari Bunga, Anjir Serapat Lama, Kec. Mekarsari, Kabupaten Barito Kuala",KALIMANTAN TENGAH,70566.0,Indonesia, 085332200303,,,-3.2757543,114.5208388,https://maps.google.com/?cid=0x0:0x6ae784420be748a1,
supermarket,Pusat Perbelanjaan,Hyfresh Supermarket Kuala Kapuas,"Jl. Pemuda No.KM 1, RW.5, Selat Dalam, Kec. Selat, Kabupaten Kapuas, Kalimantan Tengah 73516","RW.5, Selat Dalam, Kec. Selat, Kabupaten Kapuas",KALIMANTAN TENGAH,73516.0,Indonesia, 085752706042,,,-2.9870307,114.3990786,https://maps.google.com/?cid=0x0:0x9e318e41c80f896c,
supermarket,Toko Swalayan,Usaha Makmur Penggilingan Daging,"35H3+8R2, Jl. Mawar IV, RW.Pangkoh 10, Kanamit Jaya, Kec. Maliku, Kabupaten Pulang Pisau, Kalimantan Tengah 74871","Jl. Mawar IV, RW.Pangkoh 10, Kanamit Jaya, Kec. Maliku, Kabupaten Pulang Pisau",KALIMANTAN TENGAH,74871.0,Indonesia, 081256280893,,,-2.921726,114.1545223,https://maps.google.com/?cid=0x0:0xe3b45a5b2d8caa34,
supermarket,Restoran,Toko Perdanamart,"Selat Hilir, Kec. Selat, Kabupaten Kapuas, Kalimantan Tengah 73516","Kec. Selat, Kabupaten Kapuas",KALIMANTAN TENGAH,73516.0,Indonesia, 082157318943,,,-3.0185041,114.388203,https://maps.google.com/?cid=0x0:0x1e0fb53e8f9bd1ee,
supermarket,Toko bahan makanan,Toko ANUGERAH,"XCP4+G6V, Jl. Trans - Kalimantan, Hampatung, Kec. Kapuas Hilir, Kabupaten Kapuas, Kalimantan Tengah 73581","Jl. Trans - Kalimantan, Hampatung, Kec. Kapuas Hilir, Kabupaten Kapuas",KALIMANTAN TENGAH,73581.0,Indonesia,,,,-3.0136427,114.4055372,https://maps.google.com/?cid=0x0:0xb5e4f4364a176bd0,
supermarket,Grosir Sayur dan Buah,Warung sayur yu iyut,"P6PG+6XW, Terusan Karya, Kec. Selat, Kabupaten Kapuas, Kalimantan Tengah 73583","Terusan Karya, Kec. Selat, Kabupaten Kapuas",KALIMANTAN TENGAH,73583.0,Indonesia,,,,-3.2643983,114.2274429,https://maps.google.com/?cid=0x0:0xe2680d9b9de45950,
supermarket,Toko Swalayan,Penggilingan Daging Barokah,"35M3+2M Jl. Mawar VI, RT. 006, RW. 002, Pangkoh 10, Kanamit Jaya, Purwodadi, Kec. Maliku, Kabupaten Pulang Pisau, Kalimantan Tengah 74871","RT. 006, RW. 002, Pangkoh 10, Kanamit Jaya, Purwodadi, Kec. Maliku, Kabupaten Pulang Pisau",KALIMANTAN TENGAH,74871.0,Indonesia, 082149480569,,,-2.9174685,114.1541441,https://maps.google.com/?cid=0x0:0x8e1e249bfa3fa521,
supermarket,Toko Swalayan,BIZ STORE DAN PERCETAKAN,"JF8G+X24, Sungai Teras Dalam, Kec. Tabunganen, Kabupaten Barito Kuala, Kalimantan Selatan 70567","Sungai Teras Dalam, Kec. Tabunganen, Kabupaten Barito Kuala",KALIMANTAN TENGAH,70567.0,Indonesia, 085245545987,,,-3.3826175,114.4750823,https://maps.google.com/?cid=0x0:0xd4051a7bd2c31d9,
supermarket,Toko,Warung Mama Siti,"W6V8+J48, Unnamed Road, Tahai Baru, Kec. Maliku, Kabupaten Pulang Pisau, Kalimantan Tengah 73516","Unnamed Road, Tahai Baru, Kec. Maliku, Kabupaten Pulang Pisau",KALIMANTAN TENGAH,73516.0,Indonesia,,,,-3.0559646,114.2153269,https://maps.google.com/?cid=0x0:0x4a9656b55a3d4,
supermarket,supermarket,Toko Sumber Hidup,"Q38W+RFW, Bahaur Hilir, Kec. Kahayan Kuala, Kabupaten Pulang Pisau, Kalimantan Tengah 74872","Bahaur Hilir, Kec. Kahayan Kuala, Kabupaten Pulang Pisau",KALIMANTAN TENGAH,74872.0,Indonesia,,,,-3.2328982,114.0961933,https://maps.google.com/?cid=0x0:0xbf29eb6acd5c05e0,
supermarket,Toko Makanan,Kios sembako Ridha/Fullah 01,"Q4H3+VR6, Bahaur Hilir, Kec. Kahayan Kuala, Kabupaten Pulang Pisau, Kalimantan Tengah 74872","Bahaur Hilir, Kec. Kahayan Kuala, Kabupaten Pulang Pisau",KALIMANTAN TENGAH,74872.0,Indonesia, 085349533229,,,-3.2203399,114.1045182,https://maps.google.com/?cid=0x0:0xf97ecb9092964b1e,
supermarket,supermarket,Toko Siti Sholehah,"233G+3H6, Kantan Dalam, Kec. Pandih Batu, Kabupaten Pulang Pisau, Kalimantan Tengah 74872","Kantan Dalam, Kec. Pandih Batu, Kabupaten Pulang Pisau",KALIMANTAN TENGAH,74872.0,Indonesia,,,,-2.9973379,114.0763943,https://maps.google.com/?cid=0x0:0x433368a9b980f738,
supermarket,Minimarket,Toko Aira,"24PC+693, Unnamed Road, Gandang, Kec. Maliku, Kabupaten Pulang Pisau, Kalimantan Tengah 74871","Unnamed Road, Gandang, Kec. Maliku, Kabupaten Pulang Pisau",KALIMANTAN TENGAH,74871.0,Indonesia, 085247783225,,,-2.9644961,114.120919,https://maps.google.com/?cid=0x0:0x993fac22c62fd8d6,
supermarket,Toko,Toko herman,"R37M+5QH, Bahaur Tengah, Kec. Kahayan Kuala, Kabupaten Pulang Pisau, Kalimantan Tengah","Kabupaten Pulang Pisau, Kalimantan Tengah",KALIMANTAN TENGAH,,Indonesia,,,,-3.1870516,114.0844785,https://maps.google.com/?cid=0x0:0x24421a38f240cabb,
supermarket,Minimarket,Dikki Cell Pangkoh,"Jl. Patih Rumbih, Pangkoh Hulu, Kec. Pandih Batu, Kabupaten Pulang Pisau, Kalimantan Tengah 74872","Pangkoh Hulu, Kec. Pandih Batu, Kabupaten Pulang Pisau",KALIMANTAN TENGAH,74872.0,Indonesia, 081250034280,,,-3.063335,114.1568747,https://maps.google.com/?cid=0x0:0xf9754a4349f58b92,
supermarket,Pusat Perbelanjaan,UD. BERKAT MUPAKAT,"Q4X6+JFM, Unnamed Road, Bahaur Tengah, Kec. Kahayan Kuala, Kabupaten Pulang Pisau, Kalimantan Tengah 74872","Unnamed Road, Bahaur Tengah, Kec. Kahayan Kuala, Kabupaten Pulang Pisau",KALIMANTAN TENGAH,74872.0,Indonesia, 081351662696,,,-3.2009063,114.1111622,https://maps.google.com/?cid=0x0:0x9ebce9ea6e7e2b2a,
supermarket,Pusat Perbelanjaan,.,"Badirih, Kec. Maliku, Kabupaten Pulang Pisau, Kalimantan Tengah 74871","Kec. Maliku, Kabupaten Pulang Pisau",KALIMANTAN TENGAH,74871.0,Indonesia,,,,-2.9854785,114.16646,https://maps.google.com/?cid=0x0:0x377d0af3b49bb177,
supermarket,Toko Ponsel,Toko Raisa Cell,"Q37X+RQV, Jl. Hidayatullah, Bahaur Hilir, Kec. Kahayan Kuala, Kabupaten Pulang Pisau, Kalimantan Tengah 74872","Jl. Hidayatullah, Bahaur Hilir, Kec. Kahayan Kuala, Kabupaten Pulang Pisau",KALIMANTAN TENGAH,74872.0,Indonesia, 085752621584,,,-3.2353894,114.0994348,https://maps.google.com/?cid=0x0:0xc293972ed2623546,
supermarket,supermarket,Kalimantan Tengah 74862,"Lahei Mangkutup, Kec. Mantangai, Kabupaten Kapuas, Kalimantan Tengah","Kabupaten Kapuas, Kalimantan Tengah",KALIMANTAN TENGAH,,Indonesia,,,,-1.8507872,114.0963705,https://maps.google.com/?cid=0x0:0x57aa0e32b731e17e,
supermarket,Toko Swalayan,SENDY'S SWALAYAN A.YANI,"Jl. Ahmad Yani No.90, Pahandut, Kec. Pahandut, Kota Palangka Raya, Kalimantan Tengah 73112","Pahandut, Kec. Pahandut, Kota Palangka Raya",KALIMANTAN TENGAH,73112.0,Indonesia, 085250809515,,,-2.2098021,113.9383745,https://maps.google.com/?cid=0x0:0x5c2c74b38eb5c834,
supermarket,Minimarket,KPD Swalayan,"RV3W+9MH, Palangka, Kec. Jekan Raya, Kota Palangka Raya, Kalimantan Tengah 73112","Palangka, Kec. Jekan Raya, Kota Palangka Raya",KALIMANTAN TENGAH,73112.0,Indonesia,,,,-2.196565,113.89673,https://maps.google.com/?cid=0x0:0x3b88414904f9aaa9,
supermarket,Minimarket,KPD Swalayan,"RVG7+7WR, Bukit Tunggal, Kec. Jekan Raya, Kota Palangka Raya, Kalimantan Tengah 74874","Bukit Tunggal, Kec. Jekan Raya, Kota Palangka Raya",KALIMANTAN TENGAH,74874.0,Indonesia,,,,-2.1742522,113.8647802,https://maps.google.com/?cid=0x0:0x559e62f52706de81,
supermarket,Minimarket,KPD Swalayan,"QWF3+FQF, Jl. Temanggung Tilung, Menteng, Kec. Jekan Raya, Kota Palangka Raya, Kalimantan Tengah 74874","Jl. Temanggung Tilung, Menteng, Kec. Jekan Raya, Kota Palangka Raya",KALIMANTAN TENGAH,74874.0,Indonesia,,,,-2.2263205,113.9044201,https://maps.google.com/?cid=0x0:0x85898d75470f4f26,
supermarket,Toko,Hypermart Mega Town Square Palangkaraya,"Jl. Yos Sudarso No.57, Menteng, Kec. Jekan Raya, Kota Palangka Raya, Kalimantan Tengah 73112","Menteng, Kec. Jekan Raya, Kota Palangka Raya",KALIMANTAN TENGAH,73112.0,Indonesia, 05364200005,,,-2.2146127,113.9054936,https://maps.google.com/?cid=0x0:0xd0d2a7d4e965b262,
supermarket,Toko,Azumi Mart Palangkaraya,"Langkai, Kec. Jekan Raya, Kota Palangka Raya, Kalimantan Tengah 74874","Kec. Jekan Raya, Kota Palangka Raya",KALIMANTAN TENGAH,74874.0,Indonesia,,,,-2.2207711,113.9309804,https://maps.google.com/?cid=0x0:0x148af36665e6ba56,
supermarket,Toko Perlengkapan Rumah,Swalayan Kawan Serbu,"Palangka, Kec. Jekan Raya, Kota Palangka Raya, Kalimantan Tengah 74874","Kec. Jekan Raya, Kota Palangka Raya",KALIMANTAN TENGAH,74874.0,Indonesia, 085787541213,,,-2.2080928,113.9223431,https://maps.google.com/?cid=0x0:0xc9687cc90f27fde3,
supermarket,Hipermarket,TREND MART,"QVXM+RW4, Palangka, Kec. Jekan Raya, Kota Palangka Raya, Kalimantan Tengah 74874","Palangka, Kec. Jekan Raya, Kota Palangka Raya",KALIMANTAN TENGAH,74874.0,Indonesia,,,,-2.2004997,113.884843,https://maps.google.com/?cid=0x0:0x688168b437ce7852,
supermarket,Toko Swalayan,Toko Salamah,"Jl. Badak No.88, Bukit Tunggal, Kec. Jekan Raya, Kota Palangka Raya, Kalimantan Tengah 74874","Bukit Tunggal, Kec. Jekan Raya, Kota Palangka Raya",KALIMANTAN TENGAH,74874.0,Indonesia, 081325090199,,,-2.1863932,113.8776789,https://maps.google.com/?cid=0x0:0xe09b37ca1612ad9f,
supermarket,Toko Swalayan,Sandy's swalayan,"Jl. G. Obos No.62, Menteng, Kec. Jekan Raya, Kota Palangka Raya, Kalimantan Tengah 74874","Menteng, Kec. Jekan Raya, Kota Palangka Raya",KALIMANTAN TENGAH,74874.0,Indonesia, 082327771600,,,-2.222276,113.9066182,https://maps.google.com/?cid=0x0:0xddc076eb5799971e,
supermarket,Toko bahan makanan,Daun Mart,"Jl. Yos Sudarso No.81b, Menteng, Kec. Jekan Raya, Kota Palangka Raya, Kalimantan Tengah 74874","Menteng, Kec. Jekan Raya, Kota Palangka Raya",KALIMANTAN TENGAH,74874.0,Indonesia,,,,-2.2170573,113.8998383,https://maps.google.com/?cid=0x0:0x8441a081f153850b,
supermarket,Toko Ponsel,Dias Phoncell,"QWH5+C6V, Jl. P. Samudera, Menteng, Kec. Jekan Raya, Kota Palangka Raya, Kalimantan Tengah 74874","Jl. P. Samudera, Menteng, Kec. Jekan Raya, Kota Palangka Raya",KALIMANTAN TENGAH,74874.0,Indonesia, 081348724436,,,-2.2213792,113.9080376,https://maps.google.com/?cid=0x0:0xaddd6f76d5d76be1,
supermarket,Toko Swalayan,Toko Fajar,"RVG8+96G, Bukit Tunggal, Kec. Jekan Raya, Kota Palangka Raya, Kalimantan Tengah 74874","Bukit Tunggal, Kec. Jekan Raya, Kota Palangka Raya",KALIMANTAN TENGAH,74874.0,Indonesia, 085787754332,,,-2.1740603,113.865592,https://maps.google.com/?cid=0x0:0x94e690898ede652d,
supermarket,Minimarket,Warung Naesya,"QVRQ+7VH, Jl. Bukit Kaminting, Palangka, Kec. Jekan Raya, Kota Palangka Raya, Kalimantan Tengah 74874","Jl. Bukit Kaminting, Palangka, Kec. Jekan Raya, Kota Palangka Raya",KALIMANTAN TENGAH,74874.0,Indonesia,,,,-2.2093193,113.8897464,https://maps.google.com/?cid=0x0:0x49cad46cc9674a4e,
supermarket,Toko bahan makanan,Toko Wulan,"QWP6+Q2F, Jl. Patimura, Menteng, Kec. Jekan Raya, Kota Palangka Raya, Kalimantan Tengah 74874","Jl. Patimura, Menteng, Kec. Jekan Raya, Kota Palangka Raya",KALIMANTAN TENGAH,74874.0,Indonesia,,,,-2.2130644,113.9100558,https://maps.google.com/?cid=0x0:0x9b2e47733ac2b98f,
supermarket,Pusat Perbelanjaan,Toko Rizky,"QV9V+XQV, Jl. G. Obos VIII, Menteng, Kec. Jekan Raya, Kota Palangka Raya, Kalimantan Tengah 74874","Jl. G. Obos VIII, Menteng, Kec. Jekan Raya, Kota Palangka Raya",KALIMANTAN TENGAH,74874.0,Indonesia, 081882856209,,,-2.2300124,113.8944145,https://maps.google.com/?cid=0x0:0xded2645b3c4727cc,
supermarket,Toko bahan makanan,Cemara Labat Pahandut Seberang,"RW2Q+RGJ, Pahandut Seberang, Kec. Pahandut, Kota Palangka Raya, Kalimantan Tengah 74874","Pahandut Seberang, Kec. Pahandut, Kota Palangka Raya",KALIMANTAN TENGAH,74874.0,Indonesia,,,,-2.1979239,113.9387561,https://maps.google.com/?cid=0x0:0xe3f4478684134349,
supermarket,Toko Swalayan,Toko Naga Mas,"QWVQ+Q9J, Pahandut, Kec. Pahandut, Kota Palangka Raya, Kalimantan Tengah 74874","Pahandut, Kec. Pahandut, Kota Palangka Raya",KALIMANTAN TENGAH,74874.0,Indonesia,,,,-2.2055394,113.9383767,https://maps.google.com/?cid=0x0:0xcf15a3f1f054d532,
supermarket,Toko bahan makanan,citra sentosa,"QWV4+852, Jl. Cakra Buana, Palangka, Kec. Jekan Raya, Kota Palangka Raya, Kalimantan Tengah 74874","Jl. Cakra Buana, Palangka, Kec. Jekan Raya, Kota Palangka Raya",KALIMANTAN TENGAH,74874.0,Indonesia,,,,-2.2067292,113.9053863,https://maps.google.com/?cid=0x0:0xedbeac349b71642a,
supermarket,Toko Swalayan,Toko Yahya,"RVFH+JX7, Jl. Tjilik Riwut, Palangka, Kec. Jekan Raya, Kota Palangka Raya, Kalimantan Tengah 74874","Jl. Tjilik Riwut, Palangka, Kec. Jekan Raya, Kota Palangka Raya",KALIMANTAN TENGAH,74874.0,Indonesia, 085249344447,,,-2.1759713,113.8799348,https://maps.google.com/?cid=0x0:0xba96b794f68e47aa,
supermarket,Toko Swalayan,Alfamart 24 Jam Pasar Kahayan,"Palangka, Kec. Jekan Raya, Kota Palangka Raya, Kalimantan Tengah 74874","Kec. Jekan Raya, Kota Palangka Raya",KALIMANTAN TENGAH,74874.0,Indonesia,,,,-2.1995068,113.9085912,https://maps.google.com/?cid=0x0:0xe23a5bd779d520b4,
supermarket,Pasar,Pasar Kahayan,"RW25+XH7, Palangka, Kec. Jekan Raya, Kota Palangka Raya, Kalimantan Tengah 74874","Palangka, Kec. Jekan Raya, Kota Palangka Raya",KALIMANTAN TENGAH,74874.0,Indonesia,,,,-2.197595,113.9089312,https://maps.google.com/?cid=0x0:0xd4a33d27b24c1464,
supermarket,,Fotocopy Ricko Lucky,"9WGC+PG5, Jl. Darung Bawan, Bawan, Kec. Banama Tingang, Kabupaten Pulang Pisau, Kalimantan Tengah 74863","Jl. Darung Bawan, Bawan, Kec. Banama Tingang, Kabupaten Pulang Pisau",KALIMANTAN TENGAH,74863.0,Indonesia,,,,-1.6232316,113.9213457,https://maps.google.com/?cid=0x0:0xe5c6a7aa10344a82,
supermarket,Toko bahan makanan,Toko Den Pratama,"CWQF+5HW, Jl. Trans Kalimantan, Pematang Limau, Kec. Sepang, Kabupaten Gunung MAS, Kalimantan Tengah 74863","Jl. Trans Kalimantan, Pematang Limau, Kec. Sepang, Kabupaten Gunung MAS",KALIMANTAN TENGAH,74863.0,Indonesia,,,,-1.5620037,113.9239438,https://maps.google.com/?cid=0x0:0xbc9019f0db777525,
supermarket,supermarket,TOKO NESTHA PAHAWAN,"8WHW+9R6, Pahawan, Kec. Banama Tingang, Kabupaten Pulang Pisau, Kalimantan Tengah 74863","Pahawan, Kec. Banama Tingang, Kabupaten Pulang Pisau",KALIMANTAN TENGAH,74863.0,Indonesia,,,,-1.6715864,113.9470058,https://maps.google.com/?cid=0x0:0x1b06e7ab380233c1,
supermarket,supermarket,Kalimantan Tengah 74873,"Kabupaten Pulang Pisau, Kalimantan Tengah","Kabupaten Pulang Pisau, Kalimantan Tengah",KALIMANTAN TENGAH,,Indonesia,,,,-2.7184995,114.0963705,https://maps.google.com/?cid=0x0:0x10a01f8ddb581de7,
supermarket,Minimarket,Alfamart,"Jl.Lintas Kalimantan No.Rt.014, Anjir Pulang Pisau, Kec. Kahayan Hilir, Kabupaten Pulang Pisau, Kalimantan Tengah 74813","Anjir Pulang Pisau, Kec. Kahayan Hilir, Kabupaten Pulang Pisau",KALIMANTAN TENGAH,74813.0,Indonesia, 1500959,,,-2.7682292,114.2828674,https://maps.google.com/?cid=0x0:0x60093dfbc993b5f1,
supermarket,Toko Swalayan,Usaha Makmur Penggilingan Daging,"35H3+8R2, Jl. Mawar IV, RW.Pangkoh 10, Kanamit Jaya, Kec. Maliku, Kabupaten Pulang Pisau, Kalimantan Tengah 74871","Jl. Mawar IV, RW.Pangkoh 10, Kanamit Jaya, Kec. Maliku, Kabupaten Pulang Pisau",KALIMANTAN TENGAH,74871.0,Indonesia, 081256280893,,,-2.921726,114.1545223,https://maps.google.com/?cid=0x0:0xe3b45a5b2d8caa34,
supermarket,Minimarket,Alfamart,"Jl. Trans - Kalimantan No.Rt.06, Mantaren I, Kec. Kahayan Hilir, Kabupaten Pulang Pisau, Kalimantan Tengah 74861","Mantaren I, Kec. Kahayan Hilir, Kabupaten Pulang Pisau",KALIMANTAN TENGAH,74861.0,Indonesia, 1500959,,,-2.7918211,114.2618116,https://maps.google.com/?cid=0x0:0x758e982c80481489,
supermarket,Toko Makanan,Tram pulpis,"Jl. Tingang Menteng No.70, Pulang Pisau, Kec. Kahayan Hilir, Kabupaten Pulang Pisau, Kalimantan Tengah 73564","Pulang Pisau, Kec. Kahayan Hilir, Kabupaten Pulang Pisau",KALIMANTAN TENGAH,73564.0,Indonesia, 082256347756,,,-2.7539878,114.2563596,https://maps.google.com/?cid=0x0:0x561bbab0ad3537b1,
supermarket,Toko Swalayan,Fotocopy Rahmat,"24G8+8X9, Gandang, Kec. Maliku, Kabupaten Pulang Pisau, Kalimantan Tengah 74871","Gandang, Kec. Maliku, Kabupaten Pulang Pisau",KALIMANTAN TENGAH,74871.0,Indonesia,,,,-2.9742094,114.1174694,https://maps.google.com/?cid=0x0:0x49d164edf9dbd396,
supermarket,Toko Obat,Toko Obat Asy-Syifa,"Jl. Lintas Bahaur No.Rt. 08, Kanamit Jaya, Kec. Maliku, Kabupaten Pulang Pisau, Kalimantan Tengah 74871","Kanamit Jaya, Kec. Maliku, Kabupaten Pulang Pisau",KALIMANTAN TENGAH,74871.0,Indonesia, 082226468737,,,-2.9321472,114.1617709,https://maps.google.com/?cid=0x0:0x4d74ca7f207e101c,
supermarket,Toko Swalayan,Penggilingan Daging Barokah,"35M3+2M Jl. Mawar VI, RT. 006, RW. 002, Pangkoh 10, Kanamit Jaya, Purwodadi, Kec. Maliku, Kabupaten Pulang Pisau, Kalimantan Tengah 74871","RT. 006, RW. 002, Pangkoh 10, Kanamit Jaya, Purwodadi, Kec. Maliku, Kabupaten Pulang Pisau",KALIMANTAN TENGAH,74871.0,Indonesia, 082149480569,,,-2.9174685,114.1541441,https://maps.google.com/?cid=0x0:0x8e1e249bfa3fa521,
supermarket,Toko umum,Kios Beras Partai Dan Eceran,"7725+95F, Jl. Tingang Menteng, Pulang Pisau, Kec. Kahayan Hilir, Kabupaten Pulang Pisau, Kalimantan Tengah 73564","Jl. Tingang Menteng, Pulang Pisau, Kec. Kahayan Hilir, Kabupaten Pulang Pisau",KALIMANTAN TENGAH,73564.0,Indonesia, 085652320760,,,-2.7490576,114.2579149,https://maps.google.com/?cid=0x0:0xd2553d6910316885,
supermarket,Toko,Jual madu murni. B7,"jl Abel Gawei, Mantaren I, Kec. Kahayan Hilir, Kabupaten Pulang Pisau, Kalimantan Tengah 73564","Mantaren I, Kec. Kahayan Hilir, Kabupaten Pulang Pisau",KALIMANTAN TENGAH,73564.0,Indonesia, 081233391119,,,-2.7823302,114.2676121,https://maps.google.com/?cid=0x0:0xcb82a223370c72da,
supermarket,Toko bahan makanan,penjual Es Tebu,"7725+R87, Unnamed Road, Pulang Pisau, Kec. Kahayan Hilir, Kabupaten Pulang Pisau, Kalimantan Tengah 73564","Unnamed Road, Pulang Pisau, Kec. Kahayan Hilir, Kabupaten Pulang Pisau",KALIMANTAN TENGAH,73564.0,Indonesia, 082156485470,,,-2.747956,114.2583037,https://maps.google.com/?cid=0x0:0x8f90982931ebd77c,
supermarket,Toko bahan makanan,Yuda Puji,"378P+PXV, Jl. Trans - Kalimantan, Panarung, Kec. Basarang, Kabupaten Kapuas, Kalimantan Tengah 73511","Jl. Trans - Kalimantan, Panarung, Kec. Basarang, Kabupaten Kapuas",KALIMANTAN TENGAH,73511.0,Indonesia, 082350598886,,,-2.933147,114.2874216,https://maps.google.com/?cid=0x0:0x943d00b7d1ee98a,
supermarket,supermarket,Warung Ali,"469R+248, Jl. Trans Kalimantan, Mintin, Kec. Kahayan Hilir, Kabupaten Pulang Pisau, Kalimantan Tengah 74873","Jl. Trans Kalimantan, Mintin, Kec. Kahayan Hilir, Kabupaten Pulang Pisau",KALIMANTAN TENGAH,74873.0,Indonesia,,,,-2.8824625,114.2403309,https://maps.google.com/?cid=0x0:0x90c2eda0b8fb4d5c,
supermarket,Toko Swalayan,Toko Dika,"W6V8+679, Tahai Baru, Kec. Maliku, Kabupaten Pulang Pisau, Kalimantan Tengah 73516","Tahai Baru, Kec. Maliku, Kabupaten Pulang Pisau",KALIMANTAN TENGAH,73516.0,Indonesia,,,,-3.0569724,114.2157332,https://maps.google.com/?cid=0x0:0xb1c78e87e0cb5ff2,
supermarket,Toko Swalayan,Rina Fotocopy,"24HC+V3M, Jl. Poros, Gandang, Kec. Maliku, Kabupaten Pulang Pisau, Kalimantan Tengah 74871","Jl. Poros, Gandang, Kec. Maliku, Kabupaten Pulang Pisau",KALIMANTAN TENGAH,74871.0,Indonesia, 082155644150,,,-2.9702939,114.1201734,https://maps.google.com/?cid=0x0:0xac65aa9129b6cd91,
supermarket,Hipermarket,Funhilol store,"73Q6+VF7, Minicoy, Lakshadweep 682559, India","Minicoy, Lakshadweep",KALIMANTAN TENGAH,682559.0,Indonesia,,,,8.2896501,73.0611654,https://maps.google.com/?cid=0x0:0xf79bfbd642504b18,
supermarket,Toko Kue,Dapoer 99 Maliku,"Maliku Baru, Kec. Maliku, Kabupaten Pulang Pisau, Kalimantan Tengah 74871","Kec. Maliku, Kabupaten Pulang Pisau",KALIMANTAN TENGAH,74871.0,Indonesia, 085345792691,,,-2.9571715,114.1542279,https://maps.google.com/?cid=0x0:0x803ac50269c832ed,
supermarket,Toko,Toko budi,"34CM+2XF, Garantung, Kec. Maliku, Kabupaten Pulang Pisau, Kalimantan Tengah 74871","Garantung, Kec. Maliku, Kabupaten Pulang Pisau",KALIMANTAN TENGAH,74871.0,Indonesia, 082250043789,,,-2.9284907,114.1351419,https://maps.google.com/?cid=0x0:0x5bc1108f70f9ddf2,
supermarket,Hipermarket,Dhivehi Food's,"Haji Ali Rd, Minicoy, Lakshadweep 682559, India","Minicoy, Lakshadweep",KALIMANTAN TENGAH,682559.0,Indonesia,,,,8.2914858,73.0625327,https://maps.google.com/?cid=0x0:0xb1087380e386bdc4,
supermarket,supermarket,Kalimantan Tengah 74871,"Kabupaten Pulang Pisau, Kalimantan Tengah","Kabupaten Pulang Pisau, Kalimantan Tengah",KALIMANTAN TENGAH,,Indonesia,,,,-2.9382332,114.0963705,https://maps.google.com/?cid=0x0:0x716d476799e79fc,
supermarket,Toko Kelontong Asia,Toko Fika 1,"46PC+7G4, Mintin, Kec. Kahayan Hilir, Kabupaten Pulang Pisau, Kalimantan Tengah 74873","Mintin, Kec. Kahayan Hilir, Kabupaten Pulang Pisau",KALIMANTAN TENGAH,74873.0,Indonesia, 082151855747,,,-2.8643676,114.2213351,https://maps.google.com/?cid=0x0:0xb84704166bc03801,
supermarket,Pusat Perbelanjaan,.,"Badirih, Kec. Maliku, Kabupaten Pulang Pisau, Kalimantan Tengah 74871","Kec. Maliku, Kabupaten Pulang Pisau",KALIMANTAN TENGAH,74871.0,Indonesia,,,,-2.9854785,114.16646,https://maps.google.com/?cid=0x0:0x377d0af3b49bb177,
supermarket,Pusat Perbelanjaan,TIGA SAUDARA COPY CENTER,"25R4+QFF, Jl. Tjilik Riwut, Maliku Baru, Kec. Maliku, Kabupaten Pulang Pisau, Kalimantan Tengah 74871","Jl. Tjilik Riwut, Maliku Baru, Kec. Maliku, Kabupaten Pulang Pisau",KALIMANTAN TENGAH,74871.0,Indonesia, 082150046256,,,-2.9580653,114.1561785,https://maps.google.com/?cid=0x0:0xfc6f7b0e9215911b,
supermarket,Toko bahan makanan,Toko Mama Ayu,"232H+WM4, Kantan Atas, Kec. Pandih Batu, Kabupaten Pulang Pisau, Kalimantan Tengah","Kabupaten Pulang Pisau, Kalimantan Tengah",KALIMANTAN TENGAH,,Indonesia,,,,-2.997732,114.0791948,https://maps.google.com/?cid=0x0:0x976e1c809d09381f,
supermarket,Toko umum,Toko Intan Wahyuni Dan Puri Handayani,"W4WP+9M2, Jl. H.M.Soeharto, Pangkoh Hulu, Kec. Pandih Batu, Kabupaten Pulang Pisau, Kalimantan Tengah 74872","Jl. H.M.Soeharto, Pangkoh Hulu, Kec. Pandih Batu, Kabupaten Pulang Pisau",KALIMANTAN TENGAH,74872.0,Indonesia, 081528815821,,,-3.054111,114.1366361,https://maps.google.com/?cid=0x0:0x84067ca74c6ec43c,
supermarket,Toko bahan makanan,Toko Mma Andina,"W5V9+3QW, Pangkoh Hulu, Kec. Pandih Batu, Kabupaten Pulang Pisau, Kalimantan Tengah 73516","Pangkoh Hulu, Kec. Pandih Batu, Kabupaten Pulang Pisau",KALIMANTAN TENGAH,73516.0,Indonesia,,,,-3.0572664,114.1694477,https://maps.google.com/?cid=0x0:0xfb5180f081600669,
supermarket,Toko Buah dan Sayuran,Tyas Ponik Maliku,"24VW+VM8, Garantung, Kec. Maliku, Kabupaten Pulang Pisau, Kalimantan Tengah 74871","Garantung, Kec. Maliku, Kabupaten Pulang Pisau",KALIMANTAN TENGAH,74871.0,Indonesia, 082357314141,,,-2.9553252,114.146703,https://maps.google.com/?cid=0x0:0x238ae57e5f8158ac,
supermarket,Toko Swalayan,Usaha Makmur Penggilingan Daging,"35H3+8R2, Jl. Mawar IV, RW.Pangkoh 10, Kanamit Jaya, Kec. Maliku, Kabupaten Pulang Pisau, Kalimantan Tengah 74871","Jl. Mawar IV, RW.Pangkoh 10, Kanamit Jaya, Kec. Maliku, Kabupaten Pulang Pisau",KALIMANTAN TENGAH,74871.0,Indonesia, 081256280893,,,-2.921726,114.1545223,https://maps.google.com/?cid=0x0:0xe3b45a5b2d8caa34,
supermarket,Toko Swalayan,Fotocopy Rahmat,"24G8+8X9, Gandang, Kec. Maliku, Kabupaten Pulang Pisau, Kalimantan Tengah 74871","Gandang, Kec. Maliku, Kabupaten Pulang Pisau",KALIMANTAN TENGAH,74871.0,Indonesia,,,,-2.9742094,114.1174694,https://maps.google.com/?cid=0x0:0x49d164edf9dbd396,
supermarket,Toko,Masduqi Home,"25XQ+33P, Kanamit, Kec. Maliku, Kabupaten Pulang Pisau, Kalimantan Tengah 74871","Kanamit, Kec. Maliku, Kabupaten Pulang Pisau",KALIMANTAN TENGAH,74871.0,Indonesia,,,,-2.9522953,114.187713,https://maps.google.com/?cid=0x0:0x7f38fae4f31edb20,
supermarket,Toko bahan makanan,Warung Shanty / Wandi,"232H+X33, Kantan Dalam, Kec. Pandih Batu, Kabupaten Pulang Pisau, Kalimantan Tengah 74872","Kantan Dalam, Kec. Pandih Batu, Kabupaten Pulang Pisau",KALIMANTAN TENGAH,74872.0,Indonesia, 082155688501,,,-2.9976203,114.0776758,https://maps.google.com/?cid=0x0:0x375b98d7f8cbafd,
supermarket,Toko Swalayan,Rina Fotocopy,"24HC+V3M, Jl. Poros, Gandang, Kec. Maliku, Kabupaten Pulang Pisau, Kalimantan Tengah 74871","Jl. Poros, Gandang, Kec. Maliku, Kabupaten Pulang Pisau",KALIMANTAN TENGAH,74871.0,Indonesia, 082155644150,,,-2.9702939,114.1201734,https://maps.google.com/?cid=0x0:0xac65aa9129b6cd91,
supermarket,Indonesia,Warung Mama Ita,"W4VR+VJ6, Jl. Patih Rumbih, Pangkoh Hulu, Kec. Pandih Batu, Kabupaten Pulang Pisau, Kalimantan Tengah 74872","Jl. Patih Rumbih, Pangkoh Hulu, Kec. Pandih Batu, Kabupaten Pulang Pisau",KALIMANTAN TENGAH,74872.0,Indonesia, 085347218009,,,-3.0553279,114.1415011,https://maps.google.com/?cid=0x0:0x955f4ea97dc50cc5,
supermarket,Pusat Perbelanjaan,KODO KATNI KEBO,"22WR+X27, Unnamed Road, Gandang Bar., Kec. Maliku, Kabupaten Pulang Pisau, Kalimantan Tengah 74871","Unnamed Road, Gandang Bar., Kec. Maliku, Kabupaten Pulang Pisau",KALIMANTAN TENGAH,74871.0,Indonesia,,,,-2.9525763,114.0400515,https://maps.google.com/?cid=0x0:0x884516db70f8d106,
supermarket,Toko Swalayan,Penggilingan Daging Barokah,"35M3+2M Jl. Mawar VI, RT. 006, RW. 002, Pangkoh 10, Kanamit Jaya, Purwodadi, Kec. Maliku, Kabupaten Pulang Pisau, Kalimantan Tengah 74871","RT. 006, RW. 002, Pangkoh 10, Kanamit Jaya, Purwodadi, Kec. Maliku, Kabupaten Pulang Pisau",KALIMANTAN TENGAH,74871.0,Indonesia, 082149480569,,,-2.9174685,114.1541441,https://maps.google.com/?cid=0x0:0x8e1e249bfa3fa521,
supermarket,Toko Obat,Toko Obat Asy-Syifa,"Jl. Lintas Bahaur No.Rt. 08, Kanamit Jaya, Kec. Maliku, Kabupaten Pulang Pisau, Kalimantan Tengah 74871","Kanamit Jaya, Kec. Maliku, Kabupaten Pulang Pisau",KALIMANTAN TENGAH,74871.0,Indonesia, 082226468737,,,-2.9321472,114.1617709,https://maps.google.com/?cid=0x0:0x4d74ca7f207e101c,
supermarket,Minimarket,Toko Aira,"24PC+693, Unnamed Road, Gandang, Kec. Maliku, Kabupaten Pulang Pisau, Kalimantan Tengah 74871","Unnamed Road, Gandang, Kec. Maliku, Kabupaten Pulang Pisau",KALIMANTAN TENGAH,74871.0,Indonesia, 085247783225,,,-2.9644961,114.120919,https://maps.google.com/?cid=0x0:0x993fac22c62fd8d6,
supermarket,Toko bahan makanan,Warung Bintang,"W4VP+QH6, Pangkoh Hulu, Kec. Pandih Batu, Kabupaten Pulang Pisau, Kalimantan Tengah 74872","Pangkoh Hulu, Kec. Pandih Batu, Kabupaten Pulang Pisau",KALIMANTAN TENGAH,74872.0,Indonesia,,,,-3.0555848,114.1363984,https://maps.google.com/?cid=0x0:0xd1b11b4b1c0ff8c7,
supermarket,Kios,Kios Bangun Tani,"R6P3+6Q9, Unnamed Road, Gadabung, Kec. Pandih Batu, Kabupaten Pulang Pisau, Kalimantan Tengah 73583","Unnamed Road, Gadabung, Kec. Pandih Batu, Kabupaten Pulang Pisau",KALIMANTAN TENGAH,73583.0,Indonesia,,,,-3.1644557,114.2044732,https://maps.google.com/?cid=0x0:0xd8cd089338af5877,
supermarket,Toko bahan makanan,Yuda Puji,"378P+PXV, Jl. Trans - Kalimantan, Panarung, Kec. Basarang, Kabupaten Kapuas, Kalimantan Tengah 73511","Jl. Trans - Kalimantan, Panarung, Kec. Basarang, Kabupaten Kapuas",KALIMANTAN TENGAH,73511.0,Indonesia, 082350598886,,,-2.933147,114.2874216,https://maps.google.com/?cid=0x0:0x943d00b7d1ee98a,
supermarket,Tempat Ibadah,Masjid Nurul Mubin,"X4R9+FP3, Kantan Muara, Kec. Pandih Batu, Kabupaten Pulang Pisau, Kalimantan Tengah 74871","Kantan Muara, Kec. Pandih Batu, Kabupaten Pulang Pisau",KALIMANTAN TENGAH,74871.0,Indonesia,,,,-3.0088592,114.1193099,https://maps.google.com/?cid=0x0:0xe3bb625a3a29ca04,
supermarket,Toko umum,Warung om Sampur,"X4V6+F3R, Unnamed Road, Kantan Muara, Kec. Pandih Batu, Kabupaten Pulang Pisau, Kalimantan Tengah 74871","Unnamed Road, Kantan Muara, Kec. Pandih Batu, Kabupaten Pulang Pisau",KALIMANTAN TENGAH,74871.0,Indonesia,,,,-3.00626,114.110155,https://maps.google.com/?cid=0x0:0x39a5b3dc5e9c61ee,
supermarket,supermarket,Toko Siti Sholehah,"233G+3H6, Kantan Dalam, Kec. Pandih Batu, Kabupaten Pulang Pisau, Kalimantan Tengah 74872","Kantan Dalam, Kec. Pandih Batu, Kabupaten Pulang Pisau",KALIMANTAN TENGAH,74872.0,Indonesia,,,,-2.9973379,114.0763943,https://maps.google.com/?cid=0x0:0x433368a9b980f738,
supermarket,Toko Alat Tulis Kantor,Kios Rezky Anum,"2588+9G, Badirih, Kec. Maliku, Kabupaten Pulang Pisau, Kalimantan Tengah 74871","Badirih, Kec. Maliku, Kabupaten Pulang Pisau",KALIMANTAN TENGAH,74871.0,Indonesia,,,,-2.9841489,114.166317,https://maps.google.com/?cid=0x0:0xa7d959fac420a10a,
supermarket,supermarket,Kalimantan Tengah 74874,"Kabupaten Pulang Pisau, Kalimantan Tengah","Kabupaten Pulang Pisau, Kalimantan Tengah",KALIMANTAN TENGAH,,Indonesia,,,,-2.613866,113.8584737,https://maps.google.com/?cid=0x0:0x9a5d3171805f893d,
supermarket,Toko bahan makanan,Toko Mitra Tani,"P298+449, Jl. Trans Kalimantan, Kalampangan, Kec. Sebangau, Kota Palangka Raya, Kalimantan Tengah 74874","Jl. Trans Kalimantan, Kalampangan, Kec. Sebangau, Kota Palangka Raya",KALIMANTAN TENGAH,74874.0,Indonesia,,,,-2.2822073,114.0153452,https://maps.google.com/?cid=0x0:0x906ceddfdeb4604b,
supermarket,Toko bahan makanan,Toko Maulida,"PXCM+9FJ, Jl. Trans Kalimantan, Kalampangan, Kec. Sebangau, Kota Palangka Raya, Kalimantan Tengah 74874","Jl. Trans Kalimantan, Kalampangan, Kec. Sebangau, Kota Palangka Raya",KALIMANTAN TENGAH,74874.0,Indonesia, 085249003459,,,-2.2790495,113.9836311,https://maps.google.com/?cid=0x0:0xff2580d518264619,
supermarket,Pusat Perbelanjaan,Toko Haji Awi,"PW34+XPM, Jl. Mangku Raya, Kereng Bangkirai, Kec. Sebangau, Kota Palangka Raya, Kalimantan Tengah 73113","Jl. Mangku Raya, Kereng Bangkirai, Kec. Sebangau, Kota Palangka Raya",KALIMANTAN TENGAH,73113.0,Indonesia, 081253414762,,,-2.2950461,113.9067984,https://maps.google.com/?cid=0x0:0x8735d1a2fbf53926,
supermarket,Pusat Perbelanjaan,Toko Danau Sekumpul,"PWRP+J8Q, Jl. Kecipir, Panarung, Kec. Pahandut, Kota Palangka Raya, Kalimantan Tengah 74874","Jl. Kecipir, Panarung, Kec. Pahandut, Kota Palangka Raya",KALIMANTAN TENGAH,74874.0,Indonesia,,,,-2.2584026,113.9358716,https://maps.google.com/?cid=0x0:0xec9e09860dd0de22,
supermarket,Toko Swalayan,SENDY'S SWALAYAN A.YANI,"Jl. Ahmad Yani No.90, Pahandut, Kec. Pahandut, Kota Palangka Raya, Kalimantan Tengah 73112","Pahandut, Kec. Pahandut, Kota Palangka Raya",KALIMANTAN TENGAH,73112.0,Indonesia, 085250809515,,,-2.2098021,113.9383745,https://maps.google.com/?cid=0x0:0x5c2c74b38eb5c834,
supermarket,Toko,Warung Sumber Rejeki,"PWCG+HC5, Jl. Markus Paul, Sabaru, Kec. Sebangau, Kota Palangka Raya, Kalimantan Tengah 74874","Jl. Markus Paul, Sabaru, Kec. Sebangau, Kota Palangka Raya",KALIMANTAN TENGAH,74874.0,Indonesia, 085348426859,,,-2.2786067,113.9261166,https://maps.google.com/?cid=0x0:0x6e17681eb4036dcf,
supermarket,Toko bahan makanan,Uchu seluler,"PWG6+7M2, Jl. Epapras, Kereng Bangkirai, Kec. Sebangau, Kota Palangka Raya, Kalimantan Tengah 74874","Jl. Epapras, Kereng Bangkirai, Kec. Sebangau, Kota Palangka Raya",KALIMANTAN TENGAH,74874.0,Indonesia, 083150705571,,,-2.2743726,113.9116506,https://maps.google.com/?cid=0x0:0x518b748cadcc81b3,
supermarket,Toko Swalayan,TOKO HAIFA,"Jl. Karanggan, Panarung, Kec. Pahandut, Kota Palangka Raya, Kalimantan Tengah 74874","Panarung, Kec. Pahandut, Kota Palangka Raya",KALIMANTAN TENGAH,74874.0,Indonesia,,,,-2.2447189,113.9624116,https://maps.google.com/?cid=0x0:0x9cb225e2b012c765,
supermarket,Toko,Hypermart Mega Town Square Palangkaraya,"Jl. Yos Sudarso No.57, Menteng, Kec. Jekan Raya, Kota Palangka Raya, Kalimantan Tengah 73112","Menteng, Kec. Jekan Raya, Kota Palangka Raya",KALIMANTAN TENGAH,73112.0,Indonesia, 05364200005,,,-2.2146127,113.9054936,https://maps.google.com/?cid=0x0:0xd0d2a7d4e965b262,
supermarket,Toko Swalayan,Sandy's swalayan,"Jl. G. Obos No.62, Menteng, Kec. Jekan Raya, Kota Palangka Raya, Kalimantan Tengah 74874","Menteng, Kec. Jekan Raya, Kota Palangka Raya",KALIMANTAN TENGAH,74874.0,Indonesia, 082327771600,,,-2.222276,113.9066182,https://maps.google.com/?cid=0x0:0xddc076eb5799971e,
supermarket,Toko Swalayan,Toko Riska,"Jl. Langkai Permai I, Langkai, Kec. Pahandut, Kota Palangka Raya, Kalimantan Tengah 74874","Langkai, Kec. Pahandut, Kota Palangka Raya",KALIMANTAN TENGAH,74874.0,Indonesia, 089614752339,,,-2.2699425,113.9195622,https://maps.google.com/?cid=0x0:0x26af2583a6e8326d,
supermarket,Pasar,Pasar Sebangau Jaya,"Jl. RTA Milono, Kereng Bangkirai, Kec. Sebangau, Kota Palangka Raya, Kalimantan Tengah 74874","Kereng Bangkirai, Kec. Sebangau, Kota Palangka Raya",KALIMANTAN TENGAH,74874.0,Indonesia,,,,-2.2868943,113.9185298,https://maps.google.com/?cid=0x0:0x7c66aac119b652d8,
supermarket,supermarket,"Toko BUMDES BINA JAYA, Desa Mekar Jaya","3RP4+CFF, Pasar Desa Mekar Jaya Jl. Diponegoro, Desa, Mekar Jaya, Kec. Sebangau Kuala, Kabupaten Pulang Pisau, Kalimantan Tengah 74874","Pasar Desa Mekar Jaya Jl. Diponegoro, Desa, Mekar Jaya, Kec. Sebangau Kuala, Kabupaten Pulang Pisau",KALIMANTAN TENGAH,74874.0,Indonesia, 082124536616,,,-2.9139262,113.8061753,https://maps.google.com/?cid=0x0:0xf6c75b0b84d26959,
supermarket,Toko bahan makanan,Toko Kristi Rahayu,"PV7X+6G3, Jl. Pasir Panjang, Kereng Bangkirai, Kec. Sebangau, Kota Palangka Raya, Kalimantan Tengah 74874","Jl. Pasir Panjang, Kereng Bangkirai, Kec. Sebangau, Kota Palangka Raya",KALIMANTAN TENGAH,74874.0,Indonesia,,,,-2.2869869,113.8987921,https://maps.google.com/?cid=0x0:0x2612eb716a0741ae,
supermarket,Toko bahan makanan,Daun Mart,"Jl. Yos Sudarso No.81b, Menteng, Kec. Jekan Raya, Kota Palangka Raya, Kalimantan Tengah 74874","Menteng, Kec. Jekan Raya, Kota Palangka Raya",KALIMANTAN TENGAH,74874.0,Indonesia,,,,-2.2170573,113.8998383,https://maps.google.com/?cid=0x0:0x8441a081f153850b,
supermarket,Toko bahan makanan,Toko Wulan,"QWP6+Q2F, Jl. Patimura, Menteng, Kec. Jekan Raya, Kota Palangka Raya, Kalimantan Tengah 74874","Jl. Patimura, Menteng, Kec. Jekan Raya, Kota Palangka Raya",KALIMANTAN TENGAH,74874.0,Indonesia,,,,-2.2130644,113.9100558,https://maps.google.com/?cid=0x0:0x9b2e47733ac2b98f,
supermarket,Toko Perlengkapan Rumah,Sentra Plastik dan Pecah Belah,"Jl. RTA Milono No.Km. 2, Menteng, Kec. Jekan Raya, Kota Palangka Raya, Kalimantan Tengah 74874","Menteng, Kec. Jekan Raya, Kota Palangka Raya",KALIMANTAN TENGAH,74874.0,Indonesia, 081254887686,,,-2.2264318,113.9196415,https://maps.google.com/?cid=0x0:0xddc29ad5718a7a66,
supermarket,Toko Swalayan,Toko Sumber Tani,"P296+MXF, Jl. Trans Kalimantan, Kalampangan, Kec. Sebangau, Kota Palangka Raya, Kalimantan Tengah 74874","Jl. Trans Kalimantan, Kalampangan, Kec. Sebangau, Kota Palangka Raya",KALIMANTAN TENGAH,74874.0,Indonesia,,,,-2.2808205,114.0124138,https://maps.google.com/?cid=0x0:0x3d462f57a1883620,
supermarket,Minimarket,KPD Swalayan,"RVG7+7WR, Bukit Tunggal, Kec. Jekan Raya, Kota Palangka Raya, Kalimantan Tengah 74874","Bukit Tunggal, Kec. Jekan Raya, Kota Palangka Raya",KALIMANTAN TENGAH,74874.0,Indonesia,,,,-2.1742522,113.8647802,https://maps.google.com/?cid=0x0:0x559e62f52706de81,
supermarket,Toko Swalayan,Toko Azka,"PW48+8MM, Kereng Bangkirai, Kec. Sebangau, Kota Palangka Raya, Kalimantan Tengah 74874","Kereng Bangkirai, Kec. Sebangau, Kota Palangka Raya",KALIMANTAN TENGAH,74874.0,Indonesia,,,,-2.2941731,113.9166858,https://maps.google.com/?cid=0x0:0xb3a682d2e51a2f4c,
supermarket,Toko bahan makanan,Cemara Labat Pahandut Seberang,"RW2Q+RGJ, Pahandut Seberang, Kec. Pahandut, Kota Palangka Raya, Kalimantan Tengah 74874","Pahandut Seberang, Kec. Pahandut, Kota Palangka Raya",KALIMANTAN TENGAH,74874.0,Indonesia,,,,-2.1979239,113.9387561,https://maps.google.com/?cid=0x0:0xe3f4478684134349,
supermarket,Toko Perlengkapan Rumah,Swalayan Kawan Serbu,"Palangka, Kec. Jekan Raya, Kota Palangka Raya, Kalimantan Tengah 74874","Kec. Jekan Raya, Kota Palangka Raya",KALIMANTAN TENGAH,74874.0,Indonesia, 085787541213,,,-2.2080928,113.9223431,https://maps.google.com/?cid=0x0:0xc9687cc90f27fde3,
supermarket,Toko bahan makanan,INDOMARET HIU PUTIH,"RVF7+5WM, Jl. Hiu Putih Raya, Bukit Tunggal, Kec. Jekan Raya, Kota Palangka Raya, Kalimantan Tengah 74874","Jl. Hiu Putih Raya, Bukit Tunggal, Kec. Jekan Raya, Kota Palangka Raya",KALIMANTAN TENGAH,74874.0,Indonesia,,,,-2.1770436,113.86481,https://maps.google.com/?cid=0x0:0x406394fa85066b60,
supermarket,Toko bahan makanan,citra sentosa,"QWV4+852, Jl. Cakra Buana, Palangka, Kec. Jekan Raya, Kota Palangka Raya, Kalimantan Tengah 74874","Jl. Cakra Buana, Palangka, Kec. Jekan Raya, Kota Palangka Raya",KALIMANTAN TENGAH,74874.0,Indonesia,,,,-2.2067292,113.9053863,https://maps.google.com/?cid=0x0:0xedbeac349b71642a,
supermarket,Pusat Perbelanjaan,MRMP Mart,"Pertokoan Bandar Estate, Jl. Adonis Samad, Panarung, Kec. Pahandut, Kota Palangka Raya, Kalimantan Tengah 74874","Jl. Adonis Samad, Panarung, Kec. Pahandut, Kota Palangka Raya",KALIMANTAN TENGAH,74874.0,Indonesia, 081375503228,,,-2.2505763,113.9461269,https://maps.google.com/?cid=0x0:0xd13c88ca8872f6fa,
supermarket,Toko bahan makanan,Toko Lora Jaya,"PW79+3H2, Sabaru, Kec. Sebangau, Kota Palangka Raya, Kalimantan Tengah 74874","Sabaru, Kec. Sebangau, Kota Palangka Raya",KALIMANTAN TENGAH,74874.0,Indonesia,,,,-2.2873574,113.9188992,https://maps.google.com/?cid=0x0:0x42e942945be588af,
supermarket,Hipermarket,TREND MART,"QVXM+RW4, Palangka, Kec. Jekan Raya, Kota Palangka Raya, Kalimantan Tengah 74874","Palangka, Kec. Jekan Raya, Kota Palangka Raya",KALIMANTAN TENGAH,74874.0,Indonesia,,,,-2.2004997,113.884843,https://maps.google.com/?cid=0x0:0x688168b437ce7852,
supermarket,Toko Ponsel,Dias Phoncell,"QWH5+C6V, Jl. P. Samudera, Menteng, Kec. Jekan Raya, Kota Palangka Raya, Kalimantan Tengah 74874","Jl. P. Samudera, Menteng, Kec. Jekan Raya, Kota Palangka Raya",KALIMANTAN TENGAH,74874.0,Indonesia, 081348724436,,,-2.2213792,113.9080376,https://maps.google.com/?cid=0x0:0xaddd6f76d5d76be1,
