Category,Real Category,Business Name,Address,City,State,Postal Code,Country,Phone,Email,Website,Latitude,Longitude,Map Link,Details Link
komplek housing,komplek housing,Kalimantan Tengah 74863,"Kabupaten Gunung MAS, Kalimantan Tengah","Kabupaten Gunung MAS, Kalimantan Tengah",KALIMANTAN TENGAH,,Indonesia,,,,-1.496827,113.9060624,https://maps.google.com/?cid=0x0:0xf3a5fde9497362af,
komplek housing,Kantor Administrasi Kota,Kantor Camat Banama Tingang,"Komplek Perkantoran Trans, Jl. Perkebunan Jl. Palangka Raya - Kuala Kurun, Bawan, Kec. Banama Tingang, Kabupaten Pulang Pisau, Kalimantan Tengah 74863","Jl. Perkebunan Jl. Palangka Raya - Kuala Kurun, Bawan, Kec. Banama Tingang, Kabupaten Pulang Pisau",KALIMANTAN TENGAH,74863.0,Indonesia,,,,-1.6159178,113.933697,https://maps.google.com/?cid=0x0:0xa68c653606e533f2,
komplek housing,Perhimpunan Pengembang Perumahan,Sadung desa goha,"9W3G+7Q, Goha, Kec. Banama Tingang, Kabupaten Pulang Pisau, Kalimantan Tengah","Kabupaten Pulang Pisau, Kalimantan Tengah",KALIMANTAN TENGAH,,Indonesia,,,,-1.6468171,113.9269348,https://maps.google.com/?cid=0x0:0xa4b39ab47e784196,
komplek housing,Komplek perumahan,Ramang,"7W9C+QV8, Ramang, Kec. Banama Tingang, Kabupaten Pulang Pisau, Kalimantan Tengah","Kabupaten Pulang Pisau, Kalimantan Tengah",KALIMANTAN TENGAH,,Indonesia,,,,-1.730576,113.922203,https://maps.google.com/?cid=0x0:0x3842fc0c3ab1cf49,
komplek housing,Komplek perumahan,human bp rika (almin),"HW3F+C6W, Tj. Karitak, Kec. Sepang, Kabupaten Gunung MAS, Kalimantan Tengah","Kabupaten Gunung MAS, Kalimantan Tengah",KALIMANTAN TENGAH,,Indonesia,,,,-1.4463861,113.9230839,https://maps.google.com/?cid=0x0:0x74039fd412049709,
komplek housing,Kantor Pemerintah,Desa pangi,"CXC2+J73, Pangi, Kec. Banama Tingang, Kabupaten Pulang Pisau, Kalimantan Tengah 74863","Pangi, Kec. Banama Tingang, Kabupaten Pulang Pisau",KALIMANTAN TENGAH,74863.0,Indonesia,,,,-1.5784837,113.9506727,https://maps.google.com/?cid=0x0:0xe13be506e9f478d0,
komplek housing,Pembangunan Perumahan,Sanggar Senam Alam,"9WGC+XRV, Jl. Darung Bawan Permai komplek BTN pal 11 No.74, Bawan, Kec. Banama Tingang, Kabupaten Pulang Pisau, Kalimantan Tengah 74863","Jl. Darung Bawan Permai komplek BTN pal 11 No.74, Bawan, Kec. Banama Tingang, Kabupaten Pulang Pisau",KALIMANTAN TENGAH,74863.0,Indonesia,,,,-1.6225238,113.9220534,https://maps.google.com/?cid=0x0:0x9d8a8d7d3bcfc654,
komplek housing,Pembangunan Perumahan,Rumah BP. Andre Mahman/Mahir,"GV7X+24M, Sepang Simin, Kec. Sepang, Kabupaten Gunung MAS, Kalimantan Tengah 74863","Sepang Simin, Kec. Sepang, Kabupaten Gunung MAS",KALIMANTAN TENGAH,74863.0,Indonesia,,,,-1.4874075,113.8977936,https://maps.google.com/?cid=0x0:0xe29dc241f63d30ae,
komplek housing,Komplek perumahan,Human MONONG BP SALSA,"HW3F+6C, Tj. Karitak, Kec. Sepang, Kabupaten Gunung MAS, Kalimantan Tengah","Kabupaten Gunung MAS, Kalimantan Tengah",KALIMANTAN TENGAH,,Indonesia,,,,-1.4469442,113.923624,https://maps.google.com/?cid=0x0:0xa52ac4410fa39922,
komplek housing,komplek housing,Pt BAP bumi agro prima,"GXV3+RMV, Tewai Baru, Kec. Sepang, Kabupaten Gunung MAS, Kalimantan Tengah","Kabupaten Gunung MAS, Kalimantan Tengah",KALIMANTAN TENGAH,,Indonesia,,,,-1.455369,113.9542274,https://maps.google.com/?cid=0x0:0xe04a37e9a5e79068,
komplek housing,Komplek perumahan,Bapak Fernando (bue Vania),"GV6X+RGF, Sepang Simin, Kec. Sepang, Kabupaten Gunung MAS, Kalimantan Tengah","Kabupaten Gunung MAS, Kalimantan Tengah",KALIMANTAN TENGAH,,Indonesia,,,,-1.4879347,113.8987837,https://maps.google.com/?cid=0x0:0x605e627cc036648f,
komplek housing,Komplek perumahan,PERUMAHAN GURU,"HWH9+J4, Rabauh, Kec. Sepang, Kabupaten Gunung MAS, Kalimantan Tengah","Kabupaten Gunung MAS, Kalimantan Tengah",KALIMANTAN TENGAH,,Indonesia,,,,-1.4207914,113.9186982,https://maps.google.com/?cid=0x0:0x4dc127287ad8301f,
komplek housing,Pembangunan Perumahan,Jl.Palasuen,"JWP8+4PH, Jl. Palangka Raya - Kuala Kurun, Kampuri, Kec. Mihing Raya, Kabupaten Gunung MAS, Kalimantan Tengah 74863","Jl. Palangka Raya - Kuala Kurun, Kampuri, Kec. Mihing Raya, Kabupaten Gunung MAS",KALIMANTAN TENGAH,74863.0,Indonesia,,,,-1.3646778,113.9168518,https://maps.google.com/?cid=0x0:0xef523491ca972d87,
komplek housing,Komplek perumahan,Eka Bp Santi,"HW25+M2, Tj. Karitak, Kec. Sepang, Kabupaten Gunung MAS, Kalimantan Tengah","Kabupaten Gunung MAS, Kalimantan Tengah",KALIMANTAN TENGAH,,Indonesia,,,,-1.4483362,113.9075938,https://maps.google.com/?cid=0x0:0x3b6f773641192e3a,
komplek housing,Komplek perumahan,Perumahan Karyawan,"GXV3+RMV, Tewai Baru, Kec. Sepang, Kabupaten Gunung MAS, Kalimantan Tengah","Kabupaten Gunung MAS, Kalimantan Tengah",KALIMANTAN TENGAH,,Indonesia,,,,-1.4553766,113.9541762,https://maps.google.com/?cid=0x0:0x87aebf3e307bb6e0,
komplek housing,Komplek perumahan,Rumah Jefri Rona,"JWM7+PJH, Rangan Tate, Kec. Mihing Raya, Kabupaten Gunung MAS, Kalimantan Tengah","Kabupaten Gunung MAS, Kalimantan Tengah",KALIMANTAN TENGAH,,Indonesia,,,,-1.3656762,113.9141162,https://maps.google.com/?cid=0x0:0x6697b48fcf847417,
komplek housing,Komplek perumahan,Gudang puya depan mesjid mentaha,"MVQM+QF, Pilang Munduk, Kec. Kurun, Kabupaten Gunung MAS, Kalimantan Tengah","Kabupaten Gunung MAS, Kalimantan Tengah",KALIMANTAN TENGAH,,Indonesia,,,,-1.3105625,113.8836875,https://maps.google.com/?cid=0x0:0x8e5f7555ebab73da,
komplek housing,Komplek perumahan,Rumah bapa rika,"HW3F+6C, Tj. Karitak, Kec. Sepang, Kabupaten Gunung MAS, Kalimantan Tengah","Kabupaten Gunung MAS, Kalimantan Tengah",KALIMANTAN TENGAH,,Indonesia,,,,-1.446169,113.923099,https://maps.google.com/?cid=0x0:0x5db5bde7a584eb5d,
komplek housing,Komplek perumahan,Pasah 3 saudara putra,"JVR7+JQ, Kampuri, Kec. Mihing Raya, Kabupaten Gunung MAS, Kalimantan Tengah","Kabupaten Gunung MAS, Kalimantan Tengah",KALIMANTAN TENGAH,,Indonesia,,,,-1.3584028,113.8644296,https://maps.google.com/?cid=0x0:0x715b7d5ea38cbfce,
komplek housing,Pembangunan Perumahan,OKFRIANTI,"Kampuri, Kec. Mihing Raya, Kabupaten Gunung MAS, Kalimantan Tengah","Kabupaten Gunung MAS, Kalimantan Tengah",KALIMANTAN TENGAH,,Indonesia,,,,-1.3410706,113.9232099,https://maps.google.com/?cid=0x0:0x1f27fabdacd7865d,
komplek housing,komplek housing,Kec. Banama Tingang,"Kabupaten Pulang Pisau, Kalimantan Tengah","Kabupaten Pulang Pisau, Kalimantan Tengah",KALIMANTAN TENGAH,,Indonesia,,,,-1.5763885,113.9265394,https://maps.google.com/?cid=0x0:0xc2314adf2e8a4645,
komplek housing,Komplek perumahan,Rumah indu Tikih,"Jabiren, rt 06, Jabiren, Kec. Jabiren, Kabupaten Pulang Pisau, Kalimantan Tengah 73561","rt 06, Jabiren, Kec. Jabiren, Kabupaten Pulang Pisau",KALIMANTAN TENGAH,73561.0,Indonesia,,,,-2.5234653,114.1910567,https://maps.google.com/?cid=0x0:0xbfd48976b93bf98f,
komplek housing,Komplek perumahan,Indu uyi,"F5MV+V3, Jabiren, Kec. Jabiren, Kabupaten Pulang Pisau, Kalimantan Tengah 74812","Jabiren, Kec. Jabiren, Kabupaten Pulang Pisau",KALIMANTAN TENGAH,74812.0,Indonesia,,,,-2.5157204,114.1919517,https://maps.google.com/?cid=0x0:0xbe2d49ead23e3fb3,
komplek housing,komplek housing,Kalimantan Tengah 74816,Kalimantan Tengah,Kalimantan Tengah,KALIMANTAN TENGAH,,Indonesia,,,,-2.3159685,114.2390498,https://maps.google.com/?cid=0x0:0x699fd2cedf1d1e7c,
komplek housing,Tempat Istirahat,Pelabuhan jabiren,"F6GG+5VF, Jabiren, Kec. Jabiren, Kabupaten Pulang Pisau, Kalimantan Tengah","Kabupaten Pulang Pisau, Kalimantan Tengah",KALIMANTAN TENGAH,,Indonesia,,,,-2.5245634,114.2271616,https://maps.google.com/?cid=0x0:0x1a04a06fe7425402,
komplek housing,Komplek perumahan,Rumah Sendri/ Bp. Ayu,"F5GV+53F, Jabiren, Kec. Jabiren, Kabupaten Pulang Pisau, Kalimantan Tengah","Kabupaten Pulang Pisau, Kalimantan Tengah",KALIMANTAN TENGAH,,Indonesia,,,,-2.5253856,114.1936372,https://maps.google.com/?cid=0x0:0x110049e5a264e9e4,
komplek housing,komplek housing,Rumah Melin djamboy,"G5FX+XP, Pilang, Kec. Jabiren, Kabupaten Pulang Pisau, Kalimantan Tengah","Kabupaten Pulang Pisau, Kalimantan Tengah",KALIMANTAN TENGAH,,Indonesia,,,,-2.4756876,114.1991021,https://maps.google.com/?cid=0x0:0xdae1b3080c143613,
komplek housing,Tur Kawasan Pertanian,PT Ketapang agro lestari,"F5GR+694, Jabiren, Kec. Jabiren, Kabupaten Pulang Pisau, Kalimantan Tengah","Kabupaten Pulang Pisau, Kalimantan Tengah",KALIMANTAN TENGAH,,Indonesia,,,,-2.5244957,114.1909625,https://maps.google.com/?cid=0x0:0xffb5ef90941adcaf,
komplek housing,Pembangunan Perumahan,Rumah Aditia Pebrian,"7798+845, Bereng, Kec. Kahayan Hilir, Kabupaten Pulang Pisau, Kalimantan Tengah 73564","Bereng, Kec. Kahayan Hilir, Kabupaten Pulang Pisau",KALIMANTAN TENGAH,73564.0,Indonesia,,,,-2.7317455,114.2653448,https://maps.google.com/?cid=0x0:0x8e9b6a31bdf4b896,
komplek housing,komplek housing,Eka Risa,"77PF+J29, Gohong, Kec. Kahayan Hilir, Kabupaten Pulang Pisau, Kalimantan Tengah","Kabupaten Pulang Pisau, Kalimantan Tengah",KALIMANTAN TENGAH,,Indonesia,,,,-2.7134503,114.2726097,https://maps.google.com/?cid=0x0:0x71606d0d6c0b6cdc,
komplek housing,Komplek perumahan,Gelumbang,"8762+V94, Gohong, Kec. Kahayan Hilir, Kabupaten Pulang Pisau, Kalimantan Tengah","Kabupaten Pulang Pisau, Kalimantan Tengah",KALIMANTAN TENGAH,,Indonesia,,,,-2.6878591,114.2509376,https://maps.google.com/?cid=0x0:0xebdd6f036c59a260,
komplek housing,Komplek perumahan,RUMAH SLR,"7767+9VW, Bereng, Kec. Kahayan Hilir, Kabupaten Pulang Pisau, Kalimantan Tengah 73564","Bereng, Kec. Kahayan Hilir, Kabupaten Pulang Pisau",KALIMANTAN TENGAH,73564.0,Indonesia,,,,-2.7391643,114.2637357,https://maps.google.com/?cid=0x0:0x871f28516bdf3033,
komplek housing,Komplek perumahan,Hasbi/abah akmal,"67XC+W6X, Bereng, Kec. Kahayan Hilir, Kabupaten Pulang Pisau, Kalimantan Tengah 73564","Bereng, Kec. Kahayan Hilir, Kabupaten Pulang Pisau",KALIMANTAN TENGAH,73564.0,Indonesia,,,,-2.7500799,114.2709657,https://maps.google.com/?cid=0x0:0x23f86f16e60a34f4,
komplek housing,Komplek perumahan,Rumah elloyyy,"G5HX+69, Pilang, Kec. Jabiren, Kabupaten Pulang Pisau, Kalimantan Tengah","Kabupaten Pulang Pisau, Kalimantan Tengah",KALIMANTAN TENGAH,,Indonesia,,,,-2.4719793,114.1984391,https://maps.google.com/?cid=0x0:0x1b78399eb6b903b3,
komplek housing,komplek housing,Kec. Jabiren,"Kabupaten Pulang Pisau, Kalimantan Tengah","Kabupaten Pulang Pisau, Kalimantan Tengah",KALIMANTAN TENGAH,,Indonesia,,,,-2.5244637,114.1909544,https://maps.google.com/?cid=0x0:0x602ff7acaabd3bef,
komplek housing,Sekolah pendidikan umum,Jalan Kasturi (samping sekolah MAN 1 Pulang Pisau),"Kasturi, Kec. Kahayan Hilir, Kabupaten Pulang Pisau, Kalimantan Tengah 73564","Kec. Kahayan Hilir, Kabupaten Pulang Pisau",KALIMANTAN TENGAH,73564.0,Indonesia, 081251951777,,,-2.7833331,114.2753231,https://maps.google.com/?cid=0x0:0x4a3eaae116357fdc,
komplek housing,Kantor Hubungan Masyarakat,Tunggu desa henda,"Masuk Tunggu, dekat SDN No.1, Henda, ujung, Kabupaten Pulang Pisau, Kalimantan Tengah","Kabupaten Pulang Pisau, Kalimantan Tengah",KALIMANTAN TENGAH,,Indonesia,,,,-2.6090699,114.2118143,https://maps.google.com/?cid=0x0:0x5f17f3ff14f68b33,
komplek housing,Komplek perumahan,Rumah Iskanto,"7778+WX7, Bereng, Kec. Kahayan Hilir, Kabupaten Pulang Pisau, Kalimantan Tengah 73564","Bereng, Kec. Kahayan Hilir, Kabupaten Pulang Pisau",KALIMANTAN TENGAH,73564.0,Indonesia,,,,-2.7358406,114.2669554,https://maps.google.com/?cid=0x0:0xbc8b6e95f9bd29f8,
komplek housing,Komplek perumahan,Rumah Balinga Onggoe,"7798+845, Bereng, Kec. Kahayan Hilir, Kabupaten Pulang Pisau, Kalimantan Tengah 73564","Bereng, Kec. Kahayan Hilir, Kabupaten Pulang Pisau",KALIMANTAN TENGAH,73564.0,Indonesia,,,,-2.7315781,114.2655308,https://maps.google.com/?cid=0x0:0x6f78f98b666f3756,
komplek housing,Restoran,WARUNG REZA,"879G+65Q, Gohong, Kec. Kahayan Hilir, Kabupaten Pulang Pisau, Kalimantan Tengah 74816","Gohong, Kec. Kahayan Hilir, Kabupaten Pulang Pisau",KALIMANTAN TENGAH,74816.0,Indonesia, 085251268356,,,-2.6819169,114.2754983,https://maps.google.com/?cid=0x0:0x7207605e0a78a43c,
komplek housing,Kantor Pemerintah,Gohong,"879J+GXV, Gohong, Kec. Kahayan Hilir, Kabupaten Pulang Pisau, Kalimantan Tengah 74816","Gohong, Kec. Kahayan Hilir, Kabupaten Pulang Pisau",KALIMANTAN TENGAH,74816.0,Indonesia,,,,-2.6811462,114.2824086,https://maps.google.com/?cid=0x0:0xf0ff2c1e7189779d,
komplek housing,Restoran,Warung Hafizah,"87P7+XP2, Gohong, Kec. Kahayan Hilir, Kabupaten Pulang Pisau, Kalimantan Tengah 74816","Gohong, Kec. Kahayan Hilir, Kabupaten Pulang Pisau",KALIMANTAN TENGAH,74816.0,Indonesia,,,,-2.6626018,114.2642545,https://maps.google.com/?cid=0x0:0xfb617a70c09d860,
komplek housing,komplek housing,Kec. Kahayan Hilir,"Kabupaten Pulang Pisau, Kalimantan Tengah","Kabupaten Pulang Pisau, Kalimantan Tengah",KALIMANTAN TENGAH,,Indonesia,,,,-2.7914682,114.262235,https://maps.google.com/?cid=0x0:0x7f1583868799e28e,
komplek housing,Pembangunan Perumahan,Komplek MARINA PERMAI PULANG PISAU,"67FF+6FG, Komplek Marina Permai Jalan Abei Gawei, Mantaren I, Kec. Kahayan Hilir, Kabupaten Pulang Pisau, Kalimantan Tengah 73564","Komplek Marina Permai Jalan Abei Gawei, Mantaren I, Kec. Kahayan Hilir, Kabupaten Pulang Pisau",KALIMANTAN TENGAH,73564.0,Indonesia,,,,-2.7769346,114.2736988,https://maps.google.com/?cid=0x0:0xeb2e39be51da2068,
komplek housing,Sekolah pendidikan umum,Jalan Kasturi (samping sekolah MAN 1 Pulang Pisau),"Kasturi, Kec. Kahayan Hilir, Kabupaten Pulang Pisau, Kalimantan Tengah 73564","Kec. Kahayan Hilir, Kabupaten Pulang Pisau",KALIMANTAN TENGAH,73564.0,Indonesia, 081251951777,,,-2.7833331,114.2753231,https://maps.google.com/?cid=0x0:0x4a3eaae116357fdc,
komplek housing,komplek housing,WINI ALFIANA,"67FW+XPJ, Anjir Pulang Pisau, Kec. Kahayan Hilir, Kabupaten Pulang Pisau, Kalimantan Tengah 73564","Anjir Pulang Pisau, Kec. Kahayan Hilir, Kabupaten Pulang Pisau",KALIMANTAN TENGAH,73564.0,Indonesia,,,,-2.7755069,114.2963227,https://maps.google.com/?cid=0x0:0xe56e86de35e7f264,
komplek housing,Toko bahan makanan,Rumah eka Lidia Wati,"C5PW+C3, Saka Kajang, Kec. Jabiren, Kabupaten Pulang Pisau, Kalimantan Tengah 74812","Saka Kajang, Kec. Jabiren, Kabupaten Pulang Pisau",KALIMANTAN TENGAH,74812.0,Indonesia,,,,-2.5648504,114.1951366,https://maps.google.com/?cid=0x0:0xc0f87c255224149b,
komplek housing,komplek housing,Kalimantan Tengah 74813,Kalimantan Tengah,Kalimantan Tengah,KALIMANTAN TENGAH,,Indonesia,,,,-2.5771654,114.3222577,https://maps.google.com/?cid=0x0:0xfaa2c870e86154d8,
komplek housing,Pembangunan Perumahan,Komplek MARINA PERMAI PULANG PISAU,"67FF+6FG, Komplek Marina Permai Jalan Abei Gawei, Mantaren I, Kec. Kahayan Hilir, Kabupaten Pulang Pisau, Kalimantan Tengah 73564","Komplek Marina Permai Jalan Abei Gawei, Mantaren I, Kec. Kahayan Hilir, Kabupaten Pulang Pisau",KALIMANTAN TENGAH,73564.0,Indonesia,,,,-2.7769346,114.2736988,https://maps.google.com/?cid=0x0:0xeb2e39be51da2068,
komplek housing,Sekolah pendidikan umum,Jalan Kasturi (samping sekolah MAN 1 Pulang Pisau),"Kasturi, Kec. Kahayan Hilir, Kabupaten Pulang Pisau, Kalimantan Tengah 73564","Kec. Kahayan Hilir, Kabupaten Pulang Pisau",KALIMANTAN TENGAH,73564.0,Indonesia, 081251951777,,,-2.7833331,114.2753231,https://maps.google.com/?cid=0x0:0x4a3eaae116357fdc,
komplek housing,Komplek perumahan,MESH PT GAL LAMUNTI TIMUR ESTATE,"F2 lamunti timur, Lamunti, Kec. Mantangai, Kabupaten Kapuas, Kalimantan Tengah","Kabupaten Kapuas, Kalimantan Tengah",KALIMANTAN TENGAH,,Indonesia,,,,-2.5938838,114.3935655,https://maps.google.com/?cid=0x0:0x5ddbf813a07beebd,
komplek housing,Komplek perumahan,Divisi 1 Plasma,"F93J+V37, Pulau Kaladan, Kec. Mantangai, Kabupaten Kapuas, Kalimantan Tengah 73552","Pulau Kaladan, Kec. Mantangai, Kabupaten Kapuas",KALIMANTAN TENGAH,73552.0,Indonesia,,,,-2.5453365,114.3801693,https://maps.google.com/?cid=0x0:0xb2221f164b17c0aa,
komplek housing,Komplek perumahan,Zainah,"C94V+FC, Lamunti, Kec. Mantangai, Kabupaten Kapuas, Kalimantan Tengah","Kabupaten Kapuas, Kalimantan Tengah",KALIMANTAN TENGAH,,Indonesia,,,,-2.593866,114.393585,https://maps.google.com/?cid=0x0:0xa08f28025926e05f,
komplek housing,Komplek perumahan,citra kahayan,"PVGV+8M5, Kereng Bangkirai, Kec. Sebangau, Kota Palangka Raya, Kalimantan Tengah 74874","Kereng Bangkirai, Kec. Sebangau, Kota Palangka Raya",KALIMANTAN TENGAH,74874.0,Indonesia,,,,-2.2737,113.8936953,https://maps.google.com/?cid=0x0:0x556fa28e5c2b04bf,
komplek housing,Komplek perumahan,Perumahan Citra Barito 3,"Jalan dulin kandang No.3, Kereng Bangkirai, Kec. Sebangau, Kota Palangka Raya, Kalimantan Tengah 74874","Kereng Bangkirai, Kec. Sebangau, Kota Palangka Raya",KALIMANTAN TENGAH,74874.0,Indonesia, 082350827292,,,-2.26169,113.8726991,https://maps.google.com/?cid=0x0:0xd858326a27469b1f,
komplek housing,Komplek perumahan,GRIYA PUSPA,"jalan kahayan Permai No.RT 06 Blok F, Lamunti, Kec. Mantangai, Kabupaten Kapuas, Kalimantan Tengah","Kabupaten Kapuas, Kalimantan Tengah",KALIMANTAN TENGAH,,Indonesia,,,,-2.5938838,114.3935655,https://maps.google.com/?cid=0x0:0x66dcd96ab3c143eb,
komplek housing,Komplek perumahan,Perumahan Cassadova Tahap 2,"PWJX+W3W, Panarung, Kec. Pahandut, Kota Palangka Raya, Kalimantan Tengah 74874","Panarung, Kec. Pahandut, Kota Palangka Raya",KALIMANTAN TENGAH,74874.0,Indonesia,,,,-2.2676473,113.9477113,https://maps.google.com/?cid=0x0:0xa15f2cbe0f47af9d,
komplek housing,komplek housing,Kec. Kahayan Hilir,"Kabupaten Pulang Pisau, Kalimantan Tengah","Kabupaten Pulang Pisau, Kalimantan Tengah",KALIMANTAN TENGAH,,Indonesia,,,,-2.7914682,114.262235,https://maps.google.com/?cid=0x0:0x7f1583868799e28e,
komplek housing,Toko,Pulang pisau,"Jl. Trans - Kalimantan No.184, Mintin, Kec. Kahayan Hilir, Kabupaten Pulang Pisau, Kalimantan Tengah 74873","Mintin, Kec. Kahayan Hilir, Kabupaten Pulang Pisau",KALIMANTAN TENGAH,74873.0,Indonesia,,,,-2.850321,114.21583,https://maps.google.com/?cid=0x0:0x1659defa339b3ddc,
komplek housing,Perhimpunan Pengembang Perumahan,Perumahan gang manusup,"89QX+6R6, gang, Manusup, Kec. Mantangai, Kabupaten Kapuas, Kalimantan Tengah","Kabupaten Kapuas, Kalimantan Tengah",KALIMANTAN TENGAH,,Indonesia,,,,-2.6619585,114.3995073,https://maps.google.com/?cid=0x0:0x3e3c7c467b8c40da,
komplek housing,Penginapan,Rafisha guest house,"Jl. Tingang, Palangka, Kec. Jekan Raya, Kota Palangka Raya, Kalimantan Tengah 74874","Palangka, Kec. Jekan Raya, Kota Palangka Raya",KALIMANTAN TENGAH,74874.0,Indonesia, 082155794966,,,-2.2011546,113.8795674,https://maps.google.com/?cid=0x0:0x3ef57bd77f8cef9b,
komplek housing,Pembangunan Perumahan,Winning Property (Griya Batu Ampar Asri),"PWF4+959, Kereng Bangkirai, Kec. Sebangau, Kota Palangka Raya, Kalimantan Tengah 74874","Kereng Bangkirai, Kec. Sebangau, Kota Palangka Raya",KALIMANTAN TENGAH,74874.0,Indonesia, 085249033770,,,-2.2765962,113.9054936,https://maps.google.com/?cid=0x0:0x932a2db1f200b3bf,
komplek housing,Pembangunan Perumahan,PENDA PUNTIK CITY,"997V+R27, Tarantang, Kec. Mantangai, Kabupaten Kapuas, Kalimantan Tengah","Kabupaten Kapuas, Kalimantan Tengah",KALIMANTAN TENGAH,,Indonesia,,,,-2.6354587,114.3925519,https://maps.google.com/?cid=0x0:0x59ab88f0d510e246,
komplek housing,Perhimpunan Pengembang Perumahan,Tempat tidur,"89GQ+JH, Manusup Hilir, Kec. Mantangai, Kabupaten Kapuas, Kalimantan Tengah","Kabupaten Kapuas, Kalimantan Tengah",KALIMANTAN TENGAH,,Indonesia,,,,-2.6732945,114.3894037,https://maps.google.com/?cid=0x0:0x4ec177664e8ae87f,
komplek housing,Komplek perumahan,niky jeem,"FC24+P54, Pulau Kaladan, Kec. Mantangai, Kabupaten Kapuas, Kalimantan Tengah","Kabupaten Kapuas, Kalimantan Tengah",KALIMANTAN TENGAH,,Indonesia,,,,-2.5482385,114.405449,https://maps.google.com/?cid=0x0:0x127e8a0e01e8bdc7,
komplek housing,Komplek perumahan,Yeni R,"998Q+22Q, Tarantang, Kec. Mantangai, Kabupaten Kapuas, Kalimantan Tengah","Kabupaten Kapuas, Kalimantan Tengah",KALIMANTAN TENGAH,,Indonesia,,,,-2.6349143,114.3876237,https://maps.google.com/?cid=0x0:0x464a12c60dc78884,
komplek housing,komplek housing,Kalimantan Tengah 74816,Kalimantan Tengah,Kalimantan Tengah,KALIMANTAN TENGAH,,Indonesia,,,,-2.3159685,114.2390498,https://maps.google.com/?cid=0x0:0x699fd2cedf1d1e7c,
komplek housing,Komplek perumahan,komplek perumahan depag,"jalan wad.duha perkantoran, Mantaren I, Jl. Oberlin Metar No.1, Pulang Pisau, Kec. Kahayan Hilir, Kabupaten Pulang Pisau, Kalimantan Tengah 73564","Mantaren I, Jl. Oberlin Metar No.1, Pulang Pisau, Kec. Kahayan Hilir, Kabupaten Pulang Pisau",KALIMANTAN TENGAH,73564.0,Indonesia, 085350077879,,,-2.758241,114.2657969,https://maps.google.com/?cid=0x0:0x7233a84ba5a8a47d,
komplek housing,Restoran,WARUNG REZA,"879G+65Q, Gohong, Kec. Kahayan Hilir, Kabupaten Pulang Pisau, Kalimantan Tengah 74816","Gohong, Kec. Kahayan Hilir, Kabupaten Pulang Pisau",KALIMANTAN TENGAH,74816.0,Indonesia, 085251268356,,,-2.6819169,114.2754983,https://maps.google.com/?cid=0x0:0x7207605e0a78a43c,
komplek housing,komplek housing,Eka Risa,"77PF+J29, Gohong, Kec. Kahayan Hilir, Kabupaten Pulang Pisau, Kalimantan Tengah","Kabupaten Pulang Pisau, Kalimantan Tengah",KALIMANTAN TENGAH,,Indonesia,,,,-2.7134503,114.2726097,https://maps.google.com/?cid=0x0:0x71606d0d6c0b6cdc,
komplek housing,Komplek perumahan,RUMAH SLR,"7767+9VW, Bereng, Kec. Kahayan Hilir, Kabupaten Pulang Pisau, Kalimantan Tengah 73564","Bereng, Kec. Kahayan Hilir, Kabupaten Pulang Pisau",KALIMANTAN TENGAH,73564.0,Indonesia,,,,-2.7391643,114.2637357,https://maps.google.com/?cid=0x0:0x871f28516bdf3033,
komplek housing,Pembangunan Perumahan,Rumah Aditia Pebrian,"7798+845, Bereng, Kec. Kahayan Hilir, Kabupaten Pulang Pisau, Kalimantan Tengah 73564","Bereng, Kec. Kahayan Hilir, Kabupaten Pulang Pisau",KALIMANTAN TENGAH,73564.0,Indonesia,,,,-2.7317455,114.2653448,https://maps.google.com/?cid=0x0:0x8e9b6a31bdf4b896,
komplek housing,Komplek perumahan,Gelumbang,"8762+V94, Gohong, Kec. Kahayan Hilir, Kabupaten Pulang Pisau, Kalimantan Tengah","Kabupaten Pulang Pisau, Kalimantan Tengah",KALIMANTAN TENGAH,,Indonesia,,,,-2.6878591,114.2509376,https://maps.google.com/?cid=0x0:0xebdd6f036c59a260,
komplek housing,Pembangunan Perumahan,Komplek MARINA PERMAI PULANG PISAU,"67FF+6FG, Komplek Marina Permai Jalan Abei Gawei, Mantaren I, Kec. Kahayan Hilir, Kabupaten Pulang Pisau, Kalimantan Tengah 73564","Komplek Marina Permai Jalan Abei Gawei, Mantaren I, Kec. Kahayan Hilir, Kabupaten Pulang Pisau",KALIMANTAN TENGAH,73564.0,Indonesia,,,,-2.7769346,114.2736988,https://maps.google.com/?cid=0x0:0xeb2e39be51da2068,
komplek housing,Komplek perumahan,Agung budiono saridi,"68R9+V69, Hanjak maju, Kec. Kahayan Hilir, Kabupaten Pulang Pisau, Kalimantan Tengah","Kabupaten Pulang Pisau, Kalimantan Tengah",KALIMANTAN TENGAH,,Indonesia,,,,-2.7578459,114.3181156,https://maps.google.com/?cid=0x0:0x33318352ec6d25b4,
komplek housing,Komplek perumahan,Rumah Iskanto,"7778+WX7, Bereng, Kec. Kahayan Hilir, Kabupaten Pulang Pisau, Kalimantan Tengah 73564","Bereng, Kec. Kahayan Hilir, Kabupaten Pulang Pisau",KALIMANTAN TENGAH,73564.0,Indonesia,,,,-2.7358406,114.2669554,https://maps.google.com/?cid=0x0:0xbc8b6e95f9bd29f8,
komplek housing,Kantor Pemerintah,Gohong,"879J+GXV, Gohong, Kec. Kahayan Hilir, Kabupaten Pulang Pisau, Kalimantan Tengah 74816","Gohong, Kec. Kahayan Hilir, Kabupaten Pulang Pisau",KALIMANTAN TENGAH,74816.0,Indonesia,,,,-2.6811462,114.2824086,https://maps.google.com/?cid=0x0:0xf0ff2c1e7189779d,
komplek housing,Komplek perumahan,Rumah indu Tikih,"Jabiren, rt 06, Jabiren, Kec. Jabiren, Kabupaten Pulang Pisau, Kalimantan Tengah 73561","rt 06, Jabiren, Kec. Jabiren, Kabupaten Pulang Pisau",KALIMANTAN TENGAH,73561.0,Indonesia,,,,-2.5234653,114.1910567,https://maps.google.com/?cid=0x0:0xbfd48976b93bf98f,
komplek housing,Komplek perumahan,Indu uyi,"F5MV+V3, Jabiren, Kec. Jabiren, Kabupaten Pulang Pisau, Kalimantan Tengah 74812","Jabiren, Kec. Jabiren, Kabupaten Pulang Pisau",KALIMANTAN TENGAH,74812.0,Indonesia,,,,-2.5157204,114.1919517,https://maps.google.com/?cid=0x0:0xbe2d49ead23e3fb3,
komplek housing,Komplek perumahan,Hasbi/abah akmal,"67XC+W6X, Bereng, Kec. Kahayan Hilir, Kabupaten Pulang Pisau, Kalimantan Tengah 73564","Bereng, Kec. Kahayan Hilir, Kabupaten Pulang Pisau",KALIMANTAN TENGAH,73564.0,Indonesia,,,,-2.7500799,114.2709657,https://maps.google.com/?cid=0x0:0x23f86f16e60a34f4,
komplek housing,Sekolah pendidikan umum,Jalan Kasturi (samping sekolah MAN 1 Pulang Pisau),"Kasturi, Kec. Kahayan Hilir, Kabupaten Pulang Pisau, Kalimantan Tengah 73564","Kec. Kahayan Hilir, Kabupaten Pulang Pisau",KALIMANTAN TENGAH,73564.0,Indonesia, 081251951777,,,-2.7833331,114.2753231,https://maps.google.com/?cid=0x0:0x4a3eaae116357fdc,
komplek housing,Komplek perumahan,Rumah Balinga Onggoe,"7798+845, Bereng, Kec. Kahayan Hilir, Kabupaten Pulang Pisau, Kalimantan Tengah 73564","Bereng, Kec. Kahayan Hilir, Kabupaten Pulang Pisau",KALIMANTAN TENGAH,73564.0,Indonesia,,,,-2.7315781,114.2655308,https://maps.google.com/?cid=0x0:0x6f78f98b666f3756,
komplek housing,Komplek perumahan,Rumah ridayatullah,"7725+8RX, Pulang Pisau, Kec. Kahayan Hilir, Kabupaten Pulang Pisau, Kalimantan Tengah 73564","Pulang Pisau, Kec. Kahayan Hilir, Kabupaten Pulang Pisau",KALIMANTAN TENGAH,73564.0,Indonesia,,,,-2.7491402,114.2595989,https://maps.google.com/?cid=0x0:0x8a484c535ae581be,
komplek housing,Komplek perumahan,Tempat mama mira,"87GJ+GR, Gohong, Kec. Kahayan Hilir, Kabupaten Pulang Pisau, Kalimantan Tengah","Kabupaten Pulang Pisau, Kalimantan Tengah",KALIMANTAN TENGAH,,Indonesia,,,,-2.6736964,114.2820054,https://maps.google.com/?cid=0x0:0xeaf715902a7cccc9,
komplek housing,Komplek perumahan,Rumah Sheila,"77C8+8JX, Bereng, Kec. Kahayan Hilir, Kabupaten Pulang Pisau, Kalimantan Tengah 73564","Bereng, Kec. Kahayan Hilir, Kabupaten Pulang Pisau",KALIMANTAN TENGAH,73564.0,Indonesia,,,,-2.7291375,114.2666094,https://maps.google.com/?cid=0x0:0x11b9c649fcf9ec82,
komplek housing,Komplek perumahan,Rumah mustafid pulang pisau,"masuk perumahan dinas pertigaan belok kiri rumah, Jl. Abel Gawei Jl. Rey II No.2, Mantaren I, Kec. Kahayan Hilir, Kabupaten Pulang Pisau, Kalimantan Tengah 73564","Jl. Abel Gawei Jl. Rey II No.2, Mantaren I, Kec. Kahayan Hilir, Kabupaten Pulang Pisau",KALIMANTAN TENGAH,73564.0,Indonesia, 082256111922,,,-2.7627784,114.254561,https://maps.google.com/?cid=0x0:0xaad1b623a007f205,
komplek housing,komplek housing,Kec. Kahayan Hilir,"Kabupaten Pulang Pisau, Kalimantan Tengah","Kabupaten Pulang Pisau, Kalimantan Tengah",KALIMANTAN TENGAH,,Indonesia,,,,-2.7914682,114.262235,https://maps.google.com/?cid=0x0:0x7f1583868799e28e,
komplek housing,Pembangunan Perumahan,Komplek MARINA PERMAI PULANG PISAU,"67FF+6FG, Komplek Marina Permai Jalan Abei Gawei, Mantaren I, Kec. Kahayan Hilir, Kabupaten Pulang Pisau, Kalimantan Tengah 73564","Komplek Marina Permai Jalan Abei Gawei, Mantaren I, Kec. Kahayan Hilir, Kabupaten Pulang Pisau",KALIMANTAN TENGAH,73564.0,Indonesia,,,,-2.7769346,114.2736988,https://maps.google.com/?cid=0x0:0xeb2e39be51da2068,
komplek housing,komplek housing,Kec. Kahayan Hilir,"Kabupaten Pulang Pisau, Kalimantan Tengah","Kabupaten Pulang Pisau, Kalimantan Tengah",KALIMANTAN TENGAH,,Indonesia,,,,-2.7914682,114.262235,https://maps.google.com/?cid=0x0:0x7f1583868799e28e,
komplek housing,Sekolah pendidikan umum,Jalan Kasturi (samping sekolah MAN 1 Pulang Pisau),"Kasturi, Kec. Kahayan Hilir, Kabupaten Pulang Pisau, Kalimantan Tengah 73564","Kec. Kahayan Hilir, Kabupaten Pulang Pisau",KALIMANTAN TENGAH,73564.0,Indonesia, 081251951777,,,-2.7833331,114.2753231,https://maps.google.com/?cid=0x0:0x4a3eaae116357fdc,
komplek housing,Pembangunan Perumahan,Komplek MARINA PERMAI PULANG PISAU,"67FF+6FG, Komplek Marina Permai Jalan Abei Gawei, Mantaren I, Kec. Kahayan Hilir, Kabupaten Pulang Pisau, Kalimantan Tengah 73564","Komplek Marina Permai Jalan Abei Gawei, Mantaren I, Kec. Kahayan Hilir, Kabupaten Pulang Pisau",KALIMANTAN TENGAH,73564.0,Indonesia,,,,-2.7769346,114.2736988,https://maps.google.com/?cid=0x0:0xeb2e39be51da2068,
komplek housing,komplek housing,Kec. Kahayan Hilir,"Kabupaten Pulang Pisau, Kalimantan Tengah","Kabupaten Pulang Pisau, Kalimantan Tengah",KALIMANTAN TENGAH,,Indonesia,,,,-2.7914682,114.262235,https://maps.google.com/?cid=0x0:0x7f1583868799e28e,
komplek housing,Sekolah pendidikan umum,Jalan Kasturi (samping sekolah MAN 1 Pulang Pisau),"Kasturi, Kec. Kahayan Hilir, Kabupaten Pulang Pisau, Kalimantan Tengah 73564","Kec. Kahayan Hilir, Kabupaten Pulang Pisau",KALIMANTAN TENGAH,73564.0,Indonesia, 081251951777,,,-2.7833331,114.2753231,https://maps.google.com/?cid=0x0:0x4a3eaae116357fdc,
komplek housing,komplek housing,Kec. Kahayan Hilir,"Kabupaten Pulang Pisau, Kalimantan Tengah","Kabupaten Pulang Pisau, Kalimantan Tengah",KALIMANTAN TENGAH,,Indonesia,,,,-2.7914682,114.262235,https://maps.google.com/?cid=0x0:0x7f1583868799e28e,
komplek housing,Sekolah pendidikan umum,Jalan Kasturi (samping sekolah MAN 1 Pulang Pisau),"Kasturi, Kec. Kahayan Hilir, Kabupaten Pulang Pisau, Kalimantan Tengah 73564","Kec. Kahayan Hilir, Kabupaten Pulang Pisau",KALIMANTAN TENGAH,73564.0,Indonesia, 081251951777,,,-2.7833331,114.2753231,https://maps.google.com/?cid=0x0:0x4a3eaae116357fdc,
komplek housing,Pembangunan Perumahan,komplek perumahan surya darma,"Unnamed Road, Mantaren I, Kec. Kahayan Hilir, Kabupaten Pulang Pisau, Kalimantan Tengah 73564","Mantaren I, Kec. Kahayan Hilir, Kabupaten Pulang Pisau",KALIMANTAN TENGAH,73564.0,Indonesia, 081289367063,,,-2.7971485,114.2663034,https://maps.google.com/?cid=0x0:0x63b0f2a9ed0c8e23,
komplek housing,Pembangunan Perumahan,Komplek MARINA PERMAI PULANG PISAU,"67FF+6FG, Komplek Marina Permai Jalan Abei Gawei, Mantaren I, Kec. Kahayan Hilir, Kabupaten Pulang Pisau, Kalimantan Tengah 73564","Komplek Marina Permai Jalan Abei Gawei, Mantaren I, Kec. Kahayan Hilir, Kabupaten Pulang Pisau",KALIMANTAN TENGAH,73564.0,Indonesia,,,,-2.7769346,114.2736988,https://maps.google.com/?cid=0x0:0xeb2e39be51da2068,
komplek housing,Restoran,WARUNG REZA,"879G+65Q, Gohong, Kec. Kahayan Hilir, Kabupaten Pulang Pisau, Kalimantan Tengah 74816","Gohong, Kec. Kahayan Hilir, Kabupaten Pulang Pisau",KALIMANTAN TENGAH,74816.0,Indonesia, 085251268356,,,-2.6819169,114.2754983,https://maps.google.com/?cid=0x0:0x7207605e0a78a43c,
komplek housing,komplek housing,Kalimantan Tengah 74861,"Kec. Kahayan Hilir, Kabupaten Pulang Pisau, Kalimantan Tengah","Kabupaten Pulang Pisau, Kalimantan Tengah",KALIMANTAN TENGAH,,Indonesia,,,,-2.6258092,114.1677159,https://maps.google.com/?cid=0x0:0xa561bda05dfda1b5,
komplek housing,komplek housing,Eka Risa,"77PF+J29, Gohong, Kec. Kahayan Hilir, Kabupaten Pulang Pisau, Kalimantan Tengah","Kabupaten Pulang Pisau, Kalimantan Tengah",KALIMANTAN TENGAH,,Indonesia,,,,-2.7134503,114.2726097,https://maps.google.com/?cid=0x0:0x71606d0d6c0b6cdc,
komplek housing,Komplek perumahan,RUMAH SLR,"7767+9VW, Bereng, Kec. Kahayan Hilir, Kabupaten Pulang Pisau, Kalimantan Tengah 73564","Bereng, Kec. Kahayan Hilir, Kabupaten Pulang Pisau",KALIMANTAN TENGAH,73564.0,Indonesia,,,,-2.7391643,114.2637357,https://maps.google.com/?cid=0x0:0x871f28516bdf3033,
komplek housing,Komplek perumahan,Gelumbang,"8762+V94, Gohong, Kec. Kahayan Hilir, Kabupaten Pulang Pisau, Kalimantan Tengah","Kabupaten Pulang Pisau, Kalimantan Tengah",KALIMANTAN TENGAH,,Indonesia,,,,-2.6878591,114.2509376,https://maps.google.com/?cid=0x0:0xebdd6f036c59a260,
komplek housing,Pembangunan Perumahan,Rumah Aditia Pebrian,"7798+845, Bereng, Kec. Kahayan Hilir, Kabupaten Pulang Pisau, Kalimantan Tengah 73564","Bereng, Kec. Kahayan Hilir, Kabupaten Pulang Pisau",KALIMANTAN TENGAH,73564.0,Indonesia,,,,-2.7317455,114.2653448,https://maps.google.com/?cid=0x0:0x8e9b6a31bdf4b896,
komplek housing,Komplek perumahan,Walet biru,"77QF+57, Gohong, Kec. Kahayan Hilir, Kabupaten Pulang Pisau, Kalimantan Tengah 73564","Gohong, Kec. Kahayan Hilir, Kabupaten Pulang Pisau",KALIMANTAN TENGAH,73564.0,Indonesia,,,,-2.7127891,114.2743332,https://maps.google.com/?cid=0x0:0xe84313e69f50c787,
komplek housing,Perhimpunan Pengembang Perumahan,Parlemen hd,"Jl. Bereng Kalingu No.3, Bereng, Kec. Kahayan Hilir, Kabupaten Pulang Pisau, Kalimantan Tengah 73564","Bereng, Kec. Kahayan Hilir, Kabupaten Pulang Pisau",KALIMANTAN TENGAH,73564.0,Indonesia,,,,-2.7175988,114.2704892,https://maps.google.com/?cid=0x0:0x1f9e84b6ed5a8791,
komplek housing,Perhimpunan Pengembang Perumahan,Sikaranan,"77XH+9PW, Gohong, Kec. Kahayan Hilir, Kabupaten Pulang Pisau, Kalimantan Tengah 73564","Gohong, Kec. Kahayan Hilir, Kabupaten Pulang Pisau",KALIMANTAN TENGAH,73564.0,Indonesia,,,,-2.7015152,114.2793366,https://maps.google.com/?cid=0x0:0x1a452734d3e9051e,
komplek housing,Komplek perumahan,Rumah BP Nely,"7774+568, Kalawa, Kec. Kahayan Hilir, Kabupaten Pulang Pisau, Kalimantan Tengah 73564","Kalawa, Kec. Kahayan Hilir, Kabupaten Pulang Pisau",KALIMANTAN TENGAH,73564.0,Indonesia,,,,-2.7370786,114.2555947,https://maps.google.com/?cid=0x0:0xd3ba90096bb8dbb2,
komplek housing,Komplek perumahan,Rumah Iskanto,"7778+WX7, Bereng, Kec. Kahayan Hilir, Kabupaten Pulang Pisau, Kalimantan Tengah 73564","Bereng, Kec. Kahayan Hilir, Kabupaten Pulang Pisau",KALIMANTAN TENGAH,73564.0,Indonesia,,,,-2.7358406,114.2669554,https://maps.google.com/?cid=0x0:0xbc8b6e95f9bd29f8,
komplek housing,Komplek perumahan,Rumah ridayatullah,"7725+8RX, Pulang Pisau, Kec. Kahayan Hilir, Kabupaten Pulang Pisau, Kalimantan Tengah 73564","Pulang Pisau, Kec. Kahayan Hilir, Kabupaten Pulang Pisau",KALIMANTAN TENGAH,73564.0,Indonesia,,,,-2.7491402,114.2595989,https://maps.google.com/?cid=0x0:0x8a484c535ae581be,
komplek housing,Komplek perumahan,Rumah Dinas Kadinkes Pulang Pisau,"7735+8FX, Jl. Tingang Menteng, Pulang Pisau, Kec. Kahayan Hilir, Kabupaten Pulang Pisau, Kalimantan Tengah 73564","Jl. Tingang Menteng, Pulang Pisau, Kec. Kahayan Hilir, Kabupaten Pulang Pisau",KALIMANTAN TENGAH,73564.0,Indonesia,,,,-2.7466396,114.2587767,https://maps.google.com/?cid=0x0:0x2a6b1679fe62f262,
komplek housing,Kantor Pemerintah,Gohong,"879J+GXV, Gohong, Kec. Kahayan Hilir, Kabupaten Pulang Pisau, Kalimantan Tengah 74816","Gohong, Kec. Kahayan Hilir, Kabupaten Pulang Pisau",KALIMANTAN TENGAH,74816.0,Indonesia,,,,-2.6811462,114.2824086,https://maps.google.com/?cid=0x0:0xf0ff2c1e7189779d,
komplek housing,Komplek perumahan,Tempat mama mira,"87GJ+GR, Gohong, Kec. Kahayan Hilir, Kabupaten Pulang Pisau, Kalimantan Tengah","Kabupaten Pulang Pisau, Kalimantan Tengah",KALIMANTAN TENGAH,,Indonesia,,,,-2.6736964,114.2820054,https://maps.google.com/?cid=0x0:0xeaf715902a7cccc9,
komplek housing,Kantor Hubungan Masyarakat,Tunggu desa henda,"Masuk Tunggu, dekat SDN No.1, Henda, ujung, Kabupaten Pulang Pisau, Kalimantan Tengah","Kabupaten Pulang Pisau, Kalimantan Tengah",KALIMANTAN TENGAH,,Indonesia,,,,-2.6090699,114.2118143,https://maps.google.com/?cid=0x0:0x5f17f3ff14f68b33,
komplek housing,Komplek perumahan,RUMAH BU LITRI,"Jl. Djanias Djangkan, Bereng, Kec. Kahayan Hilir, Kabupaten Pulang Pisau, Kalimantan Tengah 73564","Bereng, Kec. Kahayan Hilir, Kabupaten Pulang Pisau",KALIMANTAN TENGAH,73564.0,Indonesia,,,,-2.7383767,114.2704318,https://maps.google.com/?cid=0x0:0x3c75f5b44cfa45ff,
komplek housing,Rumah Kayu,Rumah mama ampung,"Bereng, Kec. Kahayan Hilir, Kabupaten Pulang Pisau, Kalimantan Tengah","Kabupaten Pulang Pisau, Kalimantan Tengah",KALIMANTAN TENGAH,,Indonesia,,,,-2.736152,114.2647928,https://maps.google.com/?cid=0x0:0xcbc036b74f82a63d,
komplek housing,Pembangunan Perumahan,Lulu,"7725+523, Jl. Tingang Menteng, Pulang Pisau, Kec. Kahayan Hilir, Kabupaten Pulang Pisau, Kalimantan Tengah 73564","Jl. Tingang Menteng, Pulang Pisau, Kec. Kahayan Hilir, Kabupaten Pulang Pisau",KALIMANTAN TENGAH,73564.0,Indonesia, 087715523321,,,-2.7496024,114.2575555,https://maps.google.com/?cid=0x0:0x8baf202993b9f8fc,
komplek housing,Komplek perumahan,Mama Andi Sakakajang House,"C5FR+8FF, Saka Kajang, Kec. Jabiren, Kabupaten Pulang Pisau, Kalimantan Tengah 74812","Saka Kajang, Kec. Jabiren, Kabupaten Pulang Pisau",KALIMANTAN TENGAH,74812.0,Indonesia,,,,-2.5766913,114.1911663,https://maps.google.com/?cid=0x0:0x9c76b58e17e4b4ad,
komplek housing,komplek housing,Kec. Kahayan Hilir,"Kabupaten Pulang Pisau, Kalimantan Tengah","Kabupaten Pulang Pisau, Kalimantan Tengah",KALIMANTAN TENGAH,,Indonesia,,,,-2.7914682,114.262235,https://maps.google.com/?cid=0x0:0x7f1583868799e28e,
komplek housing,komplek housing,Kalimantan Tengah 74872,"Kabupaten Pulang Pisau, Kalimantan Tengah","Kabupaten Pulang Pisau, Kalimantan Tengah",KALIMANTAN TENGAH,,Indonesia,,,,-3.197171,114.0488007,https://maps.google.com/?cid=0x0:0x496607f806bb7e7f,
komplek housing,Komplek perumahan,YUSUF,"jalan h. Amur No.rt 07Bahaur, Tengah, Kec. Kahayan Kuala, Kabupaten Pulang Pisau, Kalimantan Tengah 74872","Tengah, Kec. Kahayan Kuala, Kabupaten Pulang Pisau",KALIMANTAN TENGAH,74872.0,Indonesia,,,,-3.2158185,114.1045219,https://maps.google.com/?cid=0x0:0x93958a588e5be3bd,
komplek housing,Komplek perumahan,Gifta Gema,"P3HX+QP5, Jalan Datu Karim, Sei Rungun, Kec. Kahayan Kuala, Kabupaten Pulang Pisau, Kalimantan Tengah 74872","Jalan Datu Karim, Sei Rungun, Kec. Kahayan Kuala, Kabupaten Pulang Pisau",KALIMANTAN TENGAH,74872.0,Indonesia,,,,-3.2710931,114.0998008,https://maps.google.com/?cid=0x0:0x3ba175a350ce820d,
komplek housing,Komplek perumahan,Perumahan 1947,"PX44+CMF, Papuyu I Sei Pasanan, Kec. Kahayan Kuala, Kabupaten Pulang Pisau, Kalimantan Tengah","Kabupaten Pulang Pisau, Kalimantan Tengah",KALIMANTAN TENGAH,,Indonesia,,,,-3.2941482,113.9561123,https://maps.google.com/?cid=0x0:0xbea1d1960ab0c30c,
komplek housing,Komplek perumahan,Malik,"Q4M3+RWH, Bahaur Tengah, Kec. Kahayan Kuala, Kabupaten Pulang Pisau, Kalimantan Tengah 74872","Bahaur Tengah, Kec. Kahayan Kuala, Kabupaten Pulang Pisau",KALIMANTAN TENGAH,74872.0,Indonesia,,,,-3.2154375,114.1048594,https://maps.google.com/?cid=0x0:0xdd1524bb8c8a2c02,
komplek housing,Komplek perumahan,Rumah.M,"Jl.H amur No.3, Bahaur Tengah, Kec. Kahayan Kuala, Kabupaten Pulang Pisau, Kalimantan Tengah 74872","Bahaur Tengah, Kec. Kahayan Kuala, Kabupaten Pulang Pisau",KALIMANTAN TENGAH,74872.0,Indonesia,,,,-3.2121181,114.1079893,https://maps.google.com/?cid=0x0:0x9d49d5425643a4a1,
komplek housing,Komplek perumahan,Rumah Muhid,"Q5R5+2CV, Bahaur Tengah, Kec. Kahayan Kuala, Kabupaten Pulang Pisau, Kalimantan Tengah 74872","Bahaur Tengah, Kec. Kahayan Kuala, Kabupaten Pulang Pisau",KALIMANTAN TENGAH,74872.0,Indonesia,,,,-3.2101029,114.1601248,https://maps.google.com/?cid=0x0:0xa65f5029f89ce59e,
komplek housing,Rumah Kayu,Rumah AMANG AGAN,"R456+67P, Permai, Bahaur Hulu, Kec. Kahayan Kuala, Kabupaten Pulang Pisau, Kalimantan Tengah 74872","Permai, Bahaur Hulu, Kec. Kahayan Kuala, Kabupaten Pulang Pisau",KALIMANTAN TENGAH,74872.0,Indonesia,,,,-3.1924635,114.1117163,https://maps.google.com/?cid=0x0:0x27b62f5d9bcda3fc,
komplek housing,Komplek perumahan,Haris Herman,"V53V+7FW, Belanti Siam, Kec. Pandih Batu, Kabupaten Pulang Pisau, Kalimantan Tengah","Kabupaten Pulang Pisau, Kalimantan Tengah",KALIMANTAN TENGAH,,Indonesia,,,,-3.1467646,114.1937028,https://maps.google.com/?cid=0x0:0xc75e8f1a43bb2905,
komplek housing,Komplek perumahan,Rumah aulia ramadhani (usman),"Q37X+PGC, Bahaur Hilir, Kec. Kahayan Kuala, Kabupaten Pulang Pisau, Kalimantan Tengah 74872","Bahaur Hilir, Kec. Kahayan Kuala, Kabupaten Pulang Pisau",KALIMANTAN TENGAH,74872.0,Indonesia,,,,-3.2356782,114.0987659,https://maps.google.com/?cid=0x0:0x48e8e4953fa4f082,
komplek housing,Pembangunan Perumahan,Bahaur hilir SEI rungun,"QX38+R67 sebrang mesjid JAMI AL-MUNA, Kecamatan Kahayan Kuala, kabupaten pulang pisau,didesa, Sei Rungun","Kabupaten Pulang Pisau, Kalimantan Tengah",KALIMANTAN TENGAH,,Indonesia,,,,-3.2454685,113.9655419,https://maps.google.com/?cid=0x0:0xe3e40a95258ec8ab,
komplek housing,komplek housing,rumah nafis,"X3RX+5F, Kantan Dalam, Kec. Pandih Batu, Kabupaten Pulang Pisau, Kalimantan Tengah","Kabupaten Pulang Pisau, Kalimantan Tengah",KALIMANTAN TENGAH,,Indonesia,,,,-3.0095815,114.0986817,https://maps.google.com/?cid=0x0:0x330b780528bf9761,
komplek housing,Komplek perumahan,ujang Hermawan family,"W4X2+XW9, Mulyasari, Kec. Pandih Batu, Kabupaten Pulang Pisau, Kalimantan Tengah 74872","Mulyasari, Kec. Pandih Batu, Kabupaten Pulang Pisau",KALIMANTAN TENGAH,74872.0,Indonesia,,,,-3.0500778,114.1023713,https://maps.google.com/?cid=0x0:0x9f83549ab0b2c962,
komplek housing,Komplek perumahan,Perumahan Walis,"Jl. Damang Rambang No.RT. 001, Pangkoh Hilir, Kec. Pandih Batu, Kabupaten Pulang Pisau, Kalimantan Tengah","Kabupaten Pulang Pisau, Kalimantan Tengah",KALIMANTAN TENGAH,,Indonesia,,,,-3.0749944,114.1497416,https://maps.google.com/?cid=0x0:0x7d27ea3156c27d5c,
komplek housing,Komplek perumahan,Wasturi Family House,"X423+W6R, Pangkoh Sari, Kec. Pandih Batu, Kabupaten Pulang Pisau, Kalimantan Tengah 74872","Pangkoh Sari, Kec. Pandih Batu, Kabupaten Pulang Pisau",KALIMANTAN TENGAH,74872.0,Indonesia,,,,-3.04764,114.1030026,https://maps.google.com/?cid=0x0:0x39d500949f78634f,
komplek housing,Rumah Kayu,H.HAMIDAH,"P28V+7Q8, Papuyu I Sei Pasanan, Kec. Kahayan Kuala, Kabupaten Pulang Pisau, Kalimantan Tengah","Kabupaten Pulang Pisau, Kalimantan Tengah",KALIMANTAN TENGAH,,Indonesia,,,,-3.2848979,114.0431342,https://maps.google.com/?cid=0x0:0x1ac78107cb160794,
komplek housing,Komplek perumahan,MIRJA CABUL,"W5P4+2M2, Pangkoh Hilir, Kec. Pandih Batu, Kabupaten Pulang Pisau, Kalimantan Tengah 74872","Pangkoh Hilir, Kec. Pandih Batu, Kabupaten Pulang Pisau",KALIMANTAN TENGAH,74872.0,Indonesia,,,,-3.0653129,114.1565754,https://maps.google.com/?cid=0x0:0x72c832ccd8bb5d32,
komplek housing,Komplek perumahan,Rumah nengsih,"M48J+FRV, Kiapak, Kec. Kahayan Kuala, Kabupaten Pulang Pisau, Kalimantan Tengah 74872","Kiapak, Kec. Kahayan Kuala, Kabupaten Pulang Pisau",KALIMANTAN TENGAH,74872.0,Indonesia,,,,-3.3337589,114.1320446,https://maps.google.com/?cid=0x0:0xdaeadb5b18b4262b,
komplek housing,Perhimpunan Pengembang Perumahan,Amang Muhdi,"P353+6X8, Papuyu I Sei Pasanan, Kec. Kahayan Kuala, Kabupaten Pulang Pisau, Kalimantan Tengah","Kabupaten Pulang Pisau, Kalimantan Tengah",KALIMANTAN TENGAH,,Indonesia,,,,-3.2919561,114.0549443,https://maps.google.com/?cid=0x0:0x2bc54005f405a7be,
komplek housing,Komplek perumahan,Haris Hermawan,"V53V+7FW, Belanti Siam, Kec. Pandih Batu, Kabupaten Pulang Pisau, Kalimantan Tengah","Kabupaten Pulang Pisau, Kalimantan Tengah",KALIMANTAN TENGAH,,Indonesia,,,,-3.1467503,114.1936853,https://maps.google.com/?cid=0x0:0x14faf476ce4ad142,
komplek housing,komplek housing,Kec. Kahayan Kuala,"Kabupaten Pulang Pisau, Kalimantan Tengah","Kabupaten Pulang Pisau, Kalimantan Tengah",KALIMANTAN TENGAH,,Indonesia,,,,-3.2353237,114.001226,https://maps.google.com/?cid=0x0:0x6c3818e62fe8741a,
komplek housing,Komplek perumahan,Rumah rizqy faruq,"Q36X+5M2, Jl. Idrus kel, RT.04/RW.02, Bahaur basantan, Kec. Kahayan Kuala, Kabupaten Pulang Pisau, Kalimantan Tengah 74872","Jl. Idrus kel, RT.04/RW.02, Bahaur basantan, Kec. Kahayan Kuala, Kabupaten Pulang Pisau",KALIMANTAN TENGAH,74872.0,Indonesia,,,,-3.2396177,114.0991303,https://maps.google.com/?cid=0x0:0xf354dea7b0cd274d,
komplek housing,Komplek perumahan,rumah pinwin,"Q4H3+VR6, Bahaur Hilir, Kec. Kahayan Kuala, Kabupaten Pulang Pisau, Kalimantan Tengah 74872","Bahaur Hilir, Kec. Kahayan Kuala, Kabupaten Pulang Pisau",KALIMANTAN TENGAH,74872.0,Indonesia,,,,-3.2340625,114.1126875,https://maps.google.com/?cid=0x0:0x3792200fedce5bbf,
komplek housing,Perhimpunan Pengembang Perumahan,Sei Banyuatis,"Q39X+528, Jl. Hidayatullah, Bahaur Hilir, Kec. Kahayan Kuala, Kabupaten Pulang Pisau, Kalimantan Tengah 74872","Jl. Hidayatullah, Bahaur Hilir, Kec. Kahayan Kuala, Kabupaten Pulang Pisau",KALIMANTAN TENGAH,74872.0,Indonesia,,,,-3.2320881,114.0975927,https://maps.google.com/?cid=0x0:0xda4cf3789088219c,
komplek housing,Perhimpunan Pengembang Perumahan,Syafawiahmad,"Q32V+7R8, Jl. Hidayatullah, Tj. Perawan, Kec. Kahayan Kuala, Kabupaten Pulang Pisau, Kalimantan Tengah 74872","Jl. Hidayatullah, Tj. Perawan, Kec. Kahayan Kuala, Kabupaten Pulang Pisau",KALIMANTAN TENGAH,74872.0,Indonesia,,,,-3.2485517,114.0953333,https://maps.google.com/?cid=0x0:0xde38abafe4c083d4,
komplek housing,Komplek perumahan,Utuh/jainal abidin,"P2CP+742, Papuyu I Sei Pasanan, Kec. Kahayan Kuala, Kabupaten Pulang Pisau, Kalimantan Tengah 74872","Papuyu I Sei Pasanan, Kec. Kahayan Kuala, Kabupaten Pulang Pisau",KALIMANTAN TENGAH,74872.0,Indonesia,,,,-3.2794663,114.0352106,https://maps.google.com/?cid=0x0:0xc9291d9b1a68f70d,
komplek housing,Pembangunan Perumahan,Rumah Lucky Perdana,"V33H+PCF, RT.005, Bahaur Hulu Permai, Kec. Kahayan Kuala, Kabupaten Pulang Pisau, Kalimantan Tengah 74872","RT.005, Bahaur Hulu Permai, Kec. Kahayan Kuala, Kabupaten Pulang Pisau",KALIMANTAN TENGAH,74872.0,Indonesia,,,,-3.145676,114.0785324,https://maps.google.com/?cid=0x0:0x667eb1e9fa47da06,
komplek housing,Komplek perumahan,Rumah mama.ridhai,"Q34W+VX2, Jl. Idrus, Bahaur Hilir, Kec. Kahayan Kuala, Kabupaten Pulang Pisau, Kalimantan Tengah 74872","Jl. Idrus, Bahaur Hilir, Kec. Kahayan Kuala, Kabupaten Pulang Pisau",KALIMANTAN TENGAH,74872.0,Indonesia,,,,-3.243653,114.097553,https://maps.google.com/?cid=0x0:0x77f793f32eb5b646,
komplek housing,Komplek perumahan,Perumahan mama Ronirina,"Q37X+FPQ, Bahaur Hilir, Kec. Kahayan Kuala, Kabupaten Pulang Pisau, Kalimantan Tengah 74872","Bahaur Hilir, Kec. Kahayan Kuala, Kabupaten Pulang Pisau",KALIMANTAN TENGAH,74872.0,Indonesia,,,,-3.2362872,114.0993493,https://maps.google.com/?cid=0x0:0x73d32d3f2dbb102,
komplek housing,komplek housing,Kalimantan Tengah 74862,"Lahei Mangkutup, Kec. Mantangai, Kabupaten Kapuas, Kalimantan Tengah","Kabupaten Kapuas, Kalimantan Tengah",KALIMANTAN TENGAH,,Indonesia,,,,-1.8507872,114.0963705,https://maps.google.com/?cid=0x0:0x57aa0e32b731e17e,
komplek housing,Pembangunan Perumahan,Human Babah,"3XF5+R23, Balukon, Kec. Kahayan Tengah, Kabupaten Pulang Pisau, Kalimantan Tengah 73111","Balukon, Kec. Kahayan Tengah, Kabupaten Pulang Pisau",KALIMANTAN TENGAH,73111.0,Indonesia,,,,-1.9254833,113.9575348,https://maps.google.com/?cid=0x0:0x3b16e1a9e98cedae,
komplek housing,Komplek perumahan,Manen Paduran.,"5XQ4+44P, Jl. Palangka Raya - Kuala Kurun, Manen Paduran, Kec. Banama Tingang, Kabupaten Pulang Pisau, Kalimantan Tengah 74862","Jl. Palangka Raya - Kuala Kurun, Manen Paduran, Kec. Banama Tingang, Kabupaten Pulang Pisau",KALIMANTAN TENGAH,74862.0,Indonesia,,,,-1.8121628,113.9553354,https://maps.google.com/?cid=0x0:0xdc5d70bea9bfd46e,
komplek housing,Komplek perumahan,Rumah chelsya,"5XG8+WVV, Bereng Rambang, Kec. Kahayan Tengah, Kabupaten Pulang Pisau, Kalimantan Tengah","Kabupaten Pulang Pisau, Kalimantan Tengah",KALIMANTAN TENGAH,,Indonesia,,,,-1.8226251,113.9671749,https://maps.google.com/?cid=0x0:0x6c0883705f3430f0,
komplek housing,Komplek perumahan,Rumah Indu Asha,"3XR5+RRQ, Jl. Palangka Raya - Kuala Kurun, Bukit Bamba, Kec. Kahayan Tengah, Kabupaten Pulang Pisau, Kalimantan Tengah 73111","Jl. Palangka Raya - Kuala Kurun, Bukit Bamba, Kec. Kahayan Tengah, Kabupaten Pulang Pisau",KALIMANTAN TENGAH,73111.0,Indonesia,,,,-1.9077193,113.9588179,https://maps.google.com/?cid=0x0:0xb40e6892db5780d6,
komplek housing,Komplek perumahan,Desa Hurung,"6WWX+3H, Hurung, Kec. Banama Tingang, Kabupaten Pulang Pisau, Kalimantan Tengah","Kabupaten Pulang Pisau, Kalimantan Tengah",KALIMANTAN TENGAH,,Indonesia,,,,-1.7548225,113.9488977,https://maps.google.com/?cid=0x0:0x1e725e23299e670e,
komplek housing,Komplek perumahan,Rumah Oyi,"3XC5+X5, Balukon, Kec. Kahayan Tengah, Kabupaten Pulang Pisau, Kalimantan Tengah","Kabupaten Pulang Pisau, Kalimantan Tengah",KALIMANTAN TENGAH,,Indonesia,,,,-1.9276054,113.9579928,https://maps.google.com/?cid=0x0:0x2b9b456bb404ae2d,
komplek housing,Komplek perumahan,Ramang,"7W9C+QV8, Ramang, Kec. Banama Tingang, Kabupaten Pulang Pisau, Kalimantan Tengah","Kabupaten Pulang Pisau, Kalimantan Tengah",KALIMANTAN TENGAH,,Indonesia,,,,-1.730576,113.922203,https://maps.google.com/?cid=0x0:0x3842fc0c3ab1cf49,
komplek housing,Pembangunan Perumahan,Rumah Ego,"3X53+PRM, Pamarunan, Kec. Kahayan Tengah, Kabupaten Pulang Pisau, Kalimantan Tengah","Kabupaten Pulang Pisau, Kalimantan Tengah",KALIMANTAN TENGAH,,Indonesia,,,,-1.9406518,113.9545498,https://maps.google.com/?cid=0x0:0x2faaf8e1415ce12d,
komplek housing,Taman,Tanah Hak Milik a.n Sony,"XW4W+R54, Tuwung, Kec. Kahayan Tengah, Kabupaten Pulang Pisau, Kalimantan Tengah","Kabupaten Pulang Pisau, Kalimantan Tengah",KALIMANTAN TENGAH,,Indonesia,,,,-2.042352,113.945676,https://maps.google.com/?cid=0x0:0xfabb5756d3259262,
komplek housing,Komplek perumahan,Kel Sally ( In Agus ),"5XG4+PMV, Jl. Palangka Raya - Kuala Kurun, Bereng Rambang, Kec. Kahayan Tengah, Kabupaten Pulang Pisau, Kalimantan Tengah 74862","Jl. Palangka Raya - Kuala Kurun, Bereng Rambang, Kec. Kahayan Tengah, Kabupaten Pulang Pisau",KALIMANTAN TENGAH,74862.0,Indonesia,,,,-1.8212087,113.957596,https://maps.google.com/?cid=0x0:0x648b27a4f85d6cd1,
komplek housing,Komplek perumahan,Parahangan,"4WF6+MR6, Parahangan, Kec. Kahayan Tengah, Kabupaten Pulang Pisau, Kalimantan Tengah","Kabupaten Pulang Pisau, Kalimantan Tengah",KALIMANTAN TENGAH,,Indonesia,,,,-1.8758378,113.9120107,https://maps.google.com/?cid=0x0:0x450428f43be80bcb,
komplek housing,Komplek perumahan,Rumah keluarga indu pandih,"5XJ4+9P7, Bereng Rambang, Kec. Kahayan Tengah, Kabupaten Pulang Pisau, Kalimantan Tengah","Kabupaten Pulang Pisau, Kalimantan Tengah",KALIMANTAN TENGAH,,Indonesia,,,,-1.8190788,113.9567965,https://maps.google.com/?cid=0x0:0xc73a16f77e7f4fa6,
komplek housing,Kantor Pemerintah,Desa tahawa,"4XG4+H9V, Tahawa, Kec. Kahayan Tengah, Kabupaten Pulang Pisau, Kalimantan Tengah 74862","Tahawa, Kec. Kahayan Tengah, Kabupaten Pulang Pisau",KALIMANTAN TENGAH,74862.0,Indonesia,,,,-1.8735147,113.955916,https://maps.google.com/?cid=0x0:0x35892e744a5b318d,
komplek housing,Komplek perumahan,Rumah Nola,"6XG2+9R4, Jl. Palangka Raya - Kuala Kurun, Lawang Uru, Kec. Banama Tingang, Kabupaten Pulang Pisau, Kalimantan Tengah 74862","Jl. Palangka Raya - Kuala Kurun, Lawang Uru, Kec. Banama Tingang, Kabupaten Pulang Pisau",KALIMANTAN TENGAH,74862.0,Indonesia,,,,-1.773861,113.952027,https://maps.google.com/?cid=0x0:0x28417865c8500e15,
komplek housing,Pembangunan Perumahan,Rumah Bp Eman,"7W5C+VR9, Jl. Desa Hurung, Hanua, Kec. Banama Tingang, Kabupaten Pulang Pisau, Kalimantan Tengah 74862","Jl. Desa Hurung, Hanua, Kec. Banama Tingang, Kabupaten Pulang Pisau",KALIMANTAN TENGAH,74862.0,Indonesia,,,,-1.7403448,113.9221226,https://maps.google.com/?cid=0x0:0xd4a85f803a36545a,
komplek housing,Komplek perumahan,Lawang uru,"6W72+C25, Lawang Uru, Kec. Banama Tingang, Kabupaten Pulang Pisau, Kalimantan Tengah","Kabupaten Pulang Pisau, Kalimantan Tengah",KALIMANTAN TENGAH,,Indonesia,,,,-1.7864826,113.9001141,https://maps.google.com/?cid=0x0:0xd8f8a874a3fadc54,
komplek housing,Pembangunan Perumahan,Jihin Fam's,"8WHW+CFQ, Jl. Palangka Raya - Kuala Kurun, Pahawan, Kec. Banama Tingang, Kabupaten Pulang Pisau, Kalimantan Tengah 74863","Jl. Palangka Raya - Kuala Kurun, Pahawan, Kec. Banama Tingang, Kabupaten Pulang Pisau",KALIMANTAN TENGAH,74863.0,Indonesia,,,,-1.671423,113.946242,https://maps.google.com/?cid=0x0:0x137cedc8de3e1651,
komplek housing,Kantor Pemerintah,Kantor Desa Hanua,"7W9X+64, Hanua, Kec. Banama Tingang, Kabupaten Pulang Pisau, Kalimantan Tengah","Kabupaten Pulang Pisau, Kalimantan Tengah",KALIMANTAN TENGAH,,Indonesia,,,,-1.7319648,113.9478138,https://maps.google.com/?cid=0x0:0x6f488f723a0d54a6,
komplek housing,Komplek perumahan,Perumahan Cassadova Tahap 2,"PWJX+W3W, Panarung, Kec. Pahandut, Kota Palangka Raya, Kalimantan Tengah 74874","Panarung, Kec. Pahandut, Kota Palangka Raya",KALIMANTAN TENGAH,74874.0,Indonesia,,,,-2.2676473,113.9477113,https://maps.google.com/?cid=0x0:0xa15f2cbe0f47af9d,
komplek housing,Pembangunan Perumahan,Kotapalangkaraya,"RVCR+6QM, Jl. Buluh Merindu, Bukit Tunggal, Kec. Jekan Raya, Kota Palangka Raya, Kalimantan Tengah 74874","Jl. Buluh Merindu, Bukit Tunggal, Kec. Jekan Raya, Kota Palangka Raya",KALIMANTAN TENGAH,74874.0,Indonesia,,,,-2.1794184,113.891924,https://maps.google.com/?cid=0x0:0xcd27cf3d85725308,
komplek housing,komplek housing,Kec. Kahayan Tengah,"Kabupaten Pulang Pisau, Kalimantan Tengah","Kabupaten Pulang Pisau, Kalimantan Tengah",KALIMANTAN TENGAH,,Indonesia,,,,-1.9893487,113.9532855,https://maps.google.com/?cid=0x0:0xdd2d66915fc2a0ef,
komplek housing,komplek housing,"Tanah hartamedie, dari Rustam",,,KALIMANTAN TENGAH,,Indonesia,,,,-2.2097023,113.9016651,https://maps.google.com/?cid=0x0:0xd34334ab3cc8f6d8,
komplek housing,Sekolah pendidikan umum,Jalan Kasturi (samping sekolah MAN 1 Pulang Pisau),"Kasturi, Kec. Kahayan Hilir, Kabupaten Pulang Pisau, Kalimantan Tengah 73564","Kec. Kahayan Hilir, Kabupaten Pulang Pisau",KALIMANTAN TENGAH,73564.0,Indonesia, 081251951777,,,-2.7833331,114.2753231,https://maps.google.com/?cid=0x0:0x4a3eaae116357fdc,
komplek housing,Pembangunan Perumahan,Komplek MARINA PERMAI PULANG PISAU,"67FF+6FG, Komplek Marina Permai Jalan Abei Gawei, Mantaren I, Kec. Kahayan Hilir, Kabupaten Pulang Pisau, Kalimantan Tengah 73564","Komplek Marina Permai Jalan Abei Gawei, Mantaren I, Kec. Kahayan Hilir, Kabupaten Pulang Pisau",KALIMANTAN TENGAH,73564.0,Indonesia,,,,-2.7769346,114.2736988,https://maps.google.com/?cid=0x0:0xeb2e39be51da2068,
komplek housing,komplek housing,Kalimantan Tengah 74873,"Kabupaten Pulang Pisau, Kalimantan Tengah","Kabupaten Pulang Pisau, Kalimantan Tengah",KALIMANTAN TENGAH,,Indonesia,,,,-2.7184995,114.0963705,https://maps.google.com/?cid=0x0:0x10a01f8ddb581de7,
komplek housing,Pembangunan Perumahan,Pulang pisau maliku,"8X83+2F6, Paduran Sabangau, Kec. Sebangau Kuala, Kabupaten Pulang Pisau, Kalimantan Tengah","Kabupaten Pulang Pisau, Kalimantan Tengah",KALIMANTAN TENGAH,,Indonesia,,,,-2.6849607,113.9536466,https://maps.google.com/?cid=0x0:0x7cddd676964aff7b,
komplek housing,Komplek perumahan,Rumah penghuni LEJEN,"455H+Q3W, Kanamit, Kec. Maliku, Kabupaten Pulang Pisau, Kalimantan Tengah 74871","Kanamit, Kec. Maliku, Kabupaten Pulang Pisau",KALIMANTAN TENGAH,74871.0,Indonesia,,,,-2.8905216,114.1776899,https://maps.google.com/?cid=0x0:0xd7cf837906578e72,
komplek housing,Komplek perumahan,Rumah Jaes,"4573+96, Purwodadi, Kec. Maliku, Kabupaten Pulang Pisau, Kalimantan Tengah","Kabupaten Pulang Pisau, Kalimantan Tengah",KALIMANTAN TENGAH,,Indonesia,,,,-2.8865591,114.1530364,https://maps.google.com/?cid=0x0:0x9d4d3b13f18fc733,
komplek housing,Komplek perumahan,Rumah memei,"457C+FG, Kanamit, Kec. Maliku, Kabupaten Pulang Pisau, Kalimantan Tengah 74871","Kanamit, Kec. Maliku, Kabupaten Pulang Pisau",KALIMANTAN TENGAH,74871.0,Indonesia,,,,-2.8861937,114.1713354,https://maps.google.com/?cid=0x0:0x12b629db5c8e70dc,
komplek housing,Pembangunan Perumahan,Komplek MARINA PERMAI PULANG PISAU,"67FF+6FG, Komplek Marina Permai Jalan Abei Gawei, Mantaren I, Kec. Kahayan Hilir, Kabupaten Pulang Pisau, Kalimantan Tengah 73564","Komplek Marina Permai Jalan Abei Gawei, Mantaren I, Kec. Kahayan Hilir, Kabupaten Pulang Pisau",KALIMANTAN TENGAH,73564.0,Indonesia,,,,-2.7769346,114.2736988,https://maps.google.com/?cid=0x0:0xeb2e39be51da2068,
komplek housing,Komplek perumahan,maliku,"25Q5+45C, Maliku Baru, Kec. Maliku, Kabupaten Pulang Pisau, Kalimantan Tengah 74871","Maliku Baru, Kec. Maliku, Kabupaten Pulang Pisau",KALIMANTAN TENGAH,74871.0,Indonesia,,,,-2.962063,114.157241,https://maps.google.com/?cid=0x0:0xc04feb1234e69428,
komplek housing,komplek housing,Rumah Nizam,"4575+59F, Purwodadi, Kec. Maliku, Kabupaten Pulang Pisau, Kalimantan Tengah 74871","Purwodadi, Kec. Maliku, Kabupaten Pulang Pisau",KALIMANTAN TENGAH,74871.0,Indonesia,,,,-2.8871464,114.1574013,https://maps.google.com/?cid=0x0:0xe520b99a9072565a,
komplek housing,Komplek perumahan,Rumah Tewai,"35VC+22, Kanamit, Kec. Maliku, Kabupaten Pulang Pisau, Kalimantan Tengah","Kabupaten Pulang Pisau, Kalimantan Tengah",KALIMANTAN TENGAH,,Indonesia,,,,-2.9074182,114.1700149,https://maps.google.com/?cid=0x0:0xe9644c7d3d8d9a03,
komplek housing,Komplek perumahan,Rumah BP Nely,"7774+568, Kalawa, Kec. Kahayan Hilir, Kabupaten Pulang Pisau, Kalimantan Tengah 73564","Kalawa, Kec. Kahayan Hilir, Kabupaten Pulang Pisau",KALIMANTAN TENGAH,73564.0,Indonesia,,,,-2.7370786,114.2555947,https://maps.google.com/?cid=0x0:0xd3ba90096bb8dbb2,
komplek housing,Komplek perumahan,Heri,"4585+5WW, Unnamed Road, Purwodadi, Kec. Maliku, Kabupaten Pulang Pisau, Kalimantan Tengah 74871","Unnamed Road, Purwodadi, Kec. Maliku, Kabupaten Pulang Pisau",KALIMANTAN TENGAH,74871.0,Indonesia,,,,-2.8845024,114.1598301,https://maps.google.com/?cid=0x0:0xb6380b738a9649d8,
komplek housing,Komplek perumahan,Rumah al,"35WC+MGC, Jalan tankasiang, Kanamit, Kec. Maliku, Kabupaten Pulang Pisau, Kalimantan Tengah 74871","Jalan tankasiang, Kanamit, Kec. Maliku, Kabupaten Pulang Pisau",KALIMANTAN TENGAH,74871.0,Indonesia,,,,-2.903568,114.171092,https://maps.google.com/?cid=0x0:0xbec3ba45773dae89,
komplek housing,Pembangunan Perumahan,Home Pulpis,"Unnamed Road, Mantaren I, Kahayan Hilir, Pulang Pisau Regency, Central Kalimantan 73564","Mantaren I, Kahayan Hilir, Pulang Pisau Regency",KALIMANTAN TENGAH,73564.0,Indonesia,,,,-2.7788848,114.2667824,https://maps.google.com/?cid=0x0:0xd4e78c431566219e,
komplek housing,Komplek perumahan,Rumah Budiyono,"4586+G5G, Purwodadi, Kec. Maliku, Kabupaten Pulang Pisau, Kalimantan Tengah 74871","Purwodadi, Kec. Maliku, Kabupaten Pulang Pisau",KALIMANTAN TENGAH,74871.0,Indonesia,,,,-2.8836954,114.1604483,https://maps.google.com/?cid=0x0:0xdeaa3c290d64efe9,
komplek housing,Rumah Kayu,Rumah mama ampung,"Bereng, Kec. Kahayan Hilir, Kabupaten Pulang Pisau, Kalimantan Tengah","Kabupaten Pulang Pisau, Kalimantan Tengah",KALIMANTAN TENGAH,,Indonesia,,,,-2.736152,114.2647928,https://maps.google.com/?cid=0x0:0xcbc036b74f82a63d,
komplek housing,Komplek perumahan,Rumah. Salma,"35W6+2C5, Kanamit, Kec. Maliku, Kabupaten Pulang Pisau, Kalimantan Tengah","Kabupaten Pulang Pisau, Kalimantan Tengah",KALIMANTAN TENGAH,,Indonesia,,,,-2.9049809,114.161102,https://maps.google.com/?cid=0x0:0x8be867dff27919c0,
komplek housing,Komplek perumahan,Rumah agus,"443X+PX2, Jalan sukajadi 2, Purwodadi, Kec. Maliku, Kabupaten Pulang Pisau, Kalimantan Tengah 74871","Jalan sukajadi 2, Purwodadi, Kec. Maliku, Kabupaten Pulang Pisau",KALIMANTAN TENGAH,74871.0,Indonesia,,,,-2.8957393,114.1498806,https://maps.google.com/?cid=0x0:0xdaca6131867a1ba,
komplek housing,Komplek perumahan,Batas SBT/KNMT,"459H+38X, Sei Baru Tewu, Kec. Maliku, Kabupaten Pulang Pisau, Kalimantan Tengah","Kabupaten Pulang Pisau, Kalimantan Tengah",KALIMANTAN TENGAH,,Indonesia,,,,-2.882271,114.1783537,https://maps.google.com/?cid=0x0:0x994faf141bb0c77,
komplek housing,Komplek perumahan,Rmh Budiono,"Jln jadi mulya No.1 1, Purwodadi, Kec. Maliku, Kabupaten Pulang Pisau, Kalimantan Tengah 74871","Purwodadi, Kec. Maliku, Kabupaten Pulang Pisau",KALIMANTAN TENGAH,74871.0,Indonesia,,,,-2.8957393,114.1498806,https://maps.google.com/?cid=0x0:0xa495cb0aaacdfa9f,
komplek housing,Pembangunan Perumahan,INDU tunung,"35W6+2C5, Kanamit, Kec. Maliku, Kabupaten Pulang Pisau, Kalimantan Tengah","Kabupaten Pulang Pisau, Kalimantan Tengah",KALIMANTAN TENGAH,,Indonesia,,,,-2.9049809,114.161102,https://maps.google.com/?cid=0x0:0xb930c3039152aa3b,
komplek housing,komplek housing,Kec. Maliku,"Kabupaten Pulang Pisau, Kalimantan Tengah","Kabupaten Pulang Pisau, Kalimantan Tengah",KALIMANTAN TENGAH,,Indonesia,,,,-2.8753071,114.1160931,https://maps.google.com/?cid=0x0:0x4de75ea196d98929,
komplek housing,Komplek perumahan,WARUNG: MAMA ALWI,"468Q+VJC, Mintin, Kec. Kahayan Hilir, Kabupaten Pulang Pisau, Kalimantan Tengah 74873","Mintin, Kec. Kahayan Hilir, Kabupaten Pulang Pisau",KALIMANTAN TENGAH,74873.0,Indonesia,,,,-2.8831971,114.2386934,https://maps.google.com/?cid=0x0:0x5e0d9a39b40d3d9d,
komplek housing,Komplek perumahan,Sala aal,"37X3+GWH, Mintin, Kec. Kahayan Hilir, Kabupaten Pulang Pisau, Kalimantan Tengah 74873","Mintin, Kec. Kahayan Hilir, Kabupaten Pulang Pisau",KALIMANTAN TENGAH,74873.0,Indonesia,,,,-2.9011782,114.254849,https://maps.google.com/?cid=0x0:0x5cb127de4ca7c4d7,
komplek housing,Pembangunan Perumahan,Mambang Handuran,"Jl. Ahmad Yani No.19, Mintin, Kec. Kahayan Hilir, Kabupaten Pulang Pisau, Kalimantan Tengah 74873","Mintin, Kec. Kahayan Hilir, Kabupaten Pulang Pisau",KALIMANTAN TENGAH,74873.0,Indonesia,,,,-2.8820774,114.2392102,https://maps.google.com/?cid=0x0:0x746d669e02a2c8aa,
komplek housing,komplek housing,Maliku lama,"3538+GX6, Kanamit, Kec. Maliku, Kabupaten Pulang Pisau, Kalimantan Tengah 74871","Kanamit, Kec. Maliku, Kabupaten Pulang Pisau",KALIMANTAN TENGAH,74871.0,Indonesia,,,,-2.9464328,114.1668501,https://maps.google.com/?cid=0x0:0x4c362e708b69ab8a,
komplek housing,Komplek perumahan,Komplek Raya Housing (Molek) Blok L3 - ZAIA,"Komplek Raya Housing (Molek No.3 Blok-L, RT.005/RW.011, Jatiwaringin, Kec. Pd. Gede, Kota Bks, Jawa Barat 17411","RT.005/RW.011, Jatiwaringin, Kec. Pd. Gede, Kota Bks",KALIMANTAN TENGAH,17411.0,Indonesia,,,,-6.2791346,106.9098178,https://maps.google.com/?cid=0x0:0x70e05a91fbc23a92,
komplek housing,Komplek perumahan,Adam Malik Residence,"Jl. H. Adam Malik No.113B, RT.007/RW.007, Cipadu Jaya, Kec. Larangan, Kota Tangerang, Banten 15155","RT.007/RW.007, Cipadu Jaya, Kec. Larangan, Kota Tangerang",KALIMANTAN TENGAH,15155.0,Indonesia, 081287621637,,,-6.2460917,106.7454985,https://maps.google.com/?cid=0x0:0x8db88677a504fe51,
komplek housing,Pembangunan Perumahan,Malikha residence,"Malikha residence, Jl. TPU Cipenjo No.5, RT.08/RW.04, Cipenjo, Kec. Cileungsi, Kabupaten Bogor, Jawa Barat 16820","Jl. TPU Cipenjo No.5, RT.08/RW.04, Cipenjo, Kec. Cileungsi, Kabupaten Bogor",KALIMANTAN TENGAH,16820.0,Indonesia,,,,-6.3906101,106.9967433,https://maps.google.com/?cid=0x0:0x12d8a2e572c721,
komplek housing,komplek housing,Kalimantan Tengah 74871,"Kabupaten Pulang Pisau, Kalimantan Tengah","Kabupaten Pulang Pisau, Kalimantan Tengah",KALIMANTAN TENGAH,,Indonesia,,,,-2.9382332,114.0963705,https://maps.google.com/?cid=0x0:0x716d476799e79fc,
komplek housing,Pembangunan Perumahan,Dwiki's House,"Pangkoh Hulu, Kec. Pandih Batu, Kabupaten Pulang Pisau, Kalimantan Tengah","Kabupaten Pulang Pisau, Kalimantan Tengah",KALIMANTAN TENGAH,,Indonesia,,,,-3.0553224,114.1653219,https://maps.google.com/?cid=0x0:0x82eb9f60bfab575e,
komplek housing,Kantor Pemerintah,CB Pandih Batu Official,"Jl. Patih Rumbih No.24 rt 06, Pangkoh Hulu, Kec. Pandih Batu, Kabupaten Pulang Pisau, Kalimantan Tengah 74872","Pangkoh Hulu, Kec. Pandih Batu, Kabupaten Pulang Pisau",KALIMANTAN TENGAH,74872.0,Indonesia,,,,-3.0605149,114.1510192,https://maps.google.com/?cid=0x0:0x3641ab94f2987177,
komplek housing,Komplek perumahan,Pakde Nung,"X4WC+2JG, Kantan Muara, Kec. Pandih Batu, Kabupaten Pulang Pisau, Kalimantan Tengah 74871","Kantan Muara, Kec. Pandih Batu, Kabupaten Pulang Pisau",KALIMANTAN TENGAH,74871.0,Indonesia,,,,-3.0049468,114.121586,https://maps.google.com/?cid=0x0:0xb78b7616d2c53ce6,
komplek housing,Komplek perumahan,Dimas,"233G+4XV, Kantan Atas, Kec. Pandih Batu, Kabupaten Pulang Pisau, Kalimantan Tengah","Kabupaten Pulang Pisau, Kalimantan Tengah",KALIMANTAN TENGAH,,Indonesia,,,,-2.9969525,114.0769039,https://maps.google.com/?cid=0x0:0x820c78f448c06579,
komplek housing,Perumahan,Sawah,"X3HV+F7, Kantan Dalam, Kec. Pandih Batu, Kabupaten Pulang Pisau, Kalimantan Tengah","Kabupaten Pulang Pisau, Kalimantan Tengah",KALIMANTAN TENGAH,,Indonesia,,,,-3.0212518,114.0932014,https://maps.google.com/?cid=0x0:0x3dbba0e5028d5d20,
komplek housing,Komplek perumahan,Rumah Askep PT BSG,"X4JJ+552, Pangkoh Hulu, Kec. Pandih Batu, Kabupaten Pulang Pisau, Kalimantan Tengah","Kabupaten Pulang Pisau, Kalimantan Tengah",KALIMANTAN TENGAH,,Indonesia,,,,-3.0196037,114.1304029,https://maps.google.com/?cid=0x0:0x69e7d902a57b727c,
komplek housing,Komplek perumahan,Wasturi Family House,"X423+W6R, Pangkoh Sari, Kec. Pandih Batu, Kabupaten Pulang Pisau, Kalimantan Tengah 74872","Pangkoh Sari, Kec. Pandih Batu, Kabupaten Pulang Pisau",KALIMANTAN TENGAH,74872.0,Indonesia,,,,-3.04764,114.1030026,https://maps.google.com/?cid=0x0:0x39d500949f78634f,
komplek housing,Komplek perumahan,Tia Wahyuni,"X422+6Q7, Mulyasari, Kec. Pandih Batu, Kabupaten Pulang Pisau, Kalimantan Tengah 74872","Mulyasari, Kec. Pandih Batu, Kabupaten Pulang Pisau",KALIMANTAN TENGAH,74872.0,Indonesia,,,,-3.0494714,114.1019332,https://maps.google.com/?cid=0x0:0x66ba1a1f518de026,
komplek housing,komplek housing,rumah nafis,"X3RX+5F, Kantan Dalam, Kec. Pandih Batu, Kabupaten Pulang Pisau, Kalimantan Tengah","Kabupaten Pulang Pisau, Kalimantan Tengah",KALIMANTAN TENGAH,,Indonesia,,,,-3.0095815,114.0986817,https://maps.google.com/?cid=0x0:0x330b780528bf9761,
komplek housing,Komplek perumahan,Rumah mbokyah,"X3XW+MP8, Kantan Dalam, Kec. Pandih Batu, Kabupaten Pulang Pisau, Kalimantan Tengah","Kabupaten Pulang Pisau, Kalimantan Tengah",KALIMANTAN TENGAH,,Indonesia,,,,-3.0008281,114.0968159,https://maps.google.com/?cid=0x0:0x3bae200821ee5841,
komplek housing,Komplek perumahan,Rumah Handi,"232R+Q5F, Kantan Dalam, Kec. Pandih Batu, Kabupaten Pulang Pisau, Kalimantan Tengah","Kabupaten Pulang Pisau, Kalimantan Tengah",KALIMANTAN TENGAH,,Indonesia,,,,-2.9980741,114.0904246,https://maps.google.com/?cid=0x0:0xced8ba2d406a3e83,
komplek housing,Pembangunan Perumahan,"Bagiono, S.Pd.I, M.Pd.","233H+RRV, Kantan Dalam, Kec. Pandih Batu, Kabupaten Pulang Pisau, Kalimantan Tengah 74871","Kantan Dalam, Kec. Pandih Batu, Kabupaten Pulang Pisau",KALIMANTAN TENGAH,74871.0,Indonesia,,,,-2.9953909,114.0795339,https://maps.google.com/?cid=0x0:0x5a3a4142640b5a77,
komplek housing,Pembangunan Perumahan,Home Iswan,"W39W+83, Talio Hulu, Kec. Pandih Batu, Kabupaten Pulang Pisau, Kalimantan Tengah","Kabupaten Pulang Pisau, Kalimantan Tengah",KALIMANTAN TENGAH,,Indonesia,,,,-3.08165,114.0951935,https://maps.google.com/?cid=0x0:0xf123113d09532272,
komplek housing,Perhimpunan Pengembang Perumahan,Rumah Sahrul Adi prayitno,"X3XV+PXC, Kantan Dalam, Kec. Pandih Batu, Kabupaten Pulang Pisau, Kalimantan Tengah 74871","Kantan Dalam, Kec. Pandih Batu, Kabupaten Pulang Pisau",KALIMANTAN TENGAH,74871.0,Indonesia,,,,-3.0006884,114.0948986,https://maps.google.com/?cid=0x0:0x31dfd483998b5294,
komplek housing,,Rumah Babah Erin,"X42P+93M, Pangkoh Hulu, Kec. Pandih Batu, Kabupaten Pulang Pisau, Kalimantan Tengah","Kabupaten Pulang Pisau, Kalimantan Tengah",KALIMANTAN TENGAH,,Indonesia, 085204618231,,,-3.0486766,114.1356325,https://maps.google.com/?cid=0x0:0x4a98f3ef28a0439e,
komplek housing,Komplek perumahan,Perumahan Walis,"Jl. Damang Rambang No.RT. 001, Pangkoh Hilir, Kec. Pandih Batu, Kabupaten Pulang Pisau, Kalimantan Tengah","Kabupaten Pulang Pisau, Kalimantan Tengah",KALIMANTAN TENGAH,,Indonesia,,,,-3.0749944,114.1497416,https://maps.google.com/?cid=0x0:0x7d27ea3156c27d5c,
komplek housing,Komplek perumahan,RUMAH DAMIS,"X435+288, Mulyasari, Kec. Pandih Batu, Kabupaten Pulang Pisau, Kalimantan Tengah 74872","Mulyasari, Kec. Pandih Batu, Kabupaten Pulang Pisau",KALIMANTAN TENGAH,74872.0,Indonesia, 085945648772,,,-3.0474614,114.1083354,https://maps.google.com/?cid=0x0:0x9aaaa5b7b0a7e238,
komplek housing,Komplek perumahan,Rumah Tiyah,"W4X3+3R, Pangkoh Sari, Kec. Pandih Batu, Kabupaten Pulang Pisau, Kalimantan Tengah","Kabupaten Pulang Pisau, Kalimantan Tengah",KALIMANTAN TENGAH,,Indonesia,,,,-3.0523098,114.1045526,https://maps.google.com/?cid=0x0:0x30d3363a2ff554dc,
komplek housing,,Rumahnya Bang Ali,"W4XM+HV, Pangkoh Hulu, Kec. Pandih Batu, Kabupaten Pulang Pisau, Kalimantan Tengah","Kabupaten Pulang Pisau, Kalimantan Tengah",KALIMANTAN TENGAH,,Indonesia,,,,-3.0510193,114.1347127,https://maps.google.com/?cid=0x0:0x9d8bbf98cc3ea3c2,
komplek housing,komplek housing,Kec. Pandih Batu,"Kabupaten Pulang Pisau, Kalimantan Tengah","Kabupaten Pulang Pisau, Kalimantan Tengah",KALIMANTAN TENGAH,,Indonesia,,,,-3.064159,114.1580748,https://maps.google.com/?cid=0x0:0x7e708a343b23ff54,
komplek housing,Komplek perumahan,Rumah Parsiti,"X5CH+QVV, Badirih, Kec. Maliku, Kabupaten Pulang Pisau, Kalimantan Tengah 74871","Badirih, Kec. Maliku, Kabupaten Pulang Pisau",KALIMANTAN TENGAH,74871.0,Indonesia,,,,-3.0274154,114.1808059,https://maps.google.com/?cid=0x0:0x27e56e84d70270e6,
komplek housing,Pembangunan Perumahan,Anto karet,"X4PH+57C, Kantan Muara, Kec. Pandih Batu, Kabupaten Pulang Pisau, Kalimantan Tengah 74871","Kantan Muara, Kec. Pandih Batu, Kabupaten Pulang Pisau",KALIMANTAN TENGAH,74871.0,Indonesia,,,,-3.014299,114.1270169,https://maps.google.com/?cid=0x0:0x48b176e8afc88f7c,
komplek housing,komplek housing,Tempat pak de,"24H9+6X8, Gandang, Kec. Maliku, Kabupaten Pulang Pisau, Kalimantan Tengah 74871","Gandang, Kec. Maliku, Kabupaten Pulang Pisau",KALIMANTAN TENGAH,74871.0,Indonesia,,,,-2.9727118,114.1200006,https://maps.google.com/?cid=0x0:0x876127e330b7834f,
komplek housing,Peternakan,Mendho UB Farm,"23RV+5J5, Gandang, Kec. Maliku, Kabupaten Pulang Pisau, Kalimantan Tengah 74871","Gandang, Kec. Maliku, Kabupaten Pulang Pisau",KALIMANTAN TENGAH,74871.0,Indonesia,,,,-2.9584797,114.0944519,https://maps.google.com/?cid=0x0:0xec324eec76e18660,
komplek housing,Pembangunan Perumahan,Home base anak veteran cees,"X5JQ+6C8, Badirih, Kec. Maliku, Kabupaten Pulang Pisau, Kalimantan Tengah 74871","Badirih, Kec. Maliku, Kabupaten Pulang Pisau",KALIMANTAN TENGAH,74871.0,Indonesia,,,,-3.0200805,114.1888207,https://maps.google.com/?cid=0x0:0x57abe0fa373c8d57,
komplek housing,Kompleks Kondominium,Omah Parel,"24MF+R8R, Gandang, Kec. Maliku, Kabupaten Pulang Pisau, Kalimantan Tengah 74871","Gandang, Kec. Maliku, Kabupaten Pulang Pisau",KALIMANTAN TENGAH,74871.0,Indonesia,,,,-2.9653775,114.1232598,https://maps.google.com/?cid=0x0:0x46dc23a96d424f06,
komplek housing,Komplek perumahan,Omah e wong cilik,"Jln. elang 3 No.desa, Garantung, Kec. Maliku, Kabupaten Pulang Pisau, Kalimantan Tengah 74871","Garantung, Kec. Maliku, Kabupaten Pulang Pisau",KALIMANTAN TENGAH,74871.0,Indonesia,,,,-2.9729589,114.1177392,https://maps.google.com/?cid=0x0:0xb4480af3489cfcc2,
komplek housing,Komplek perumahan,Rumah bu ANARSIH,"desa nusa indah No.12, Tahai Jaya, Kec. Maliku, Kabupaten Pulang Pisau, Kalimantan Tengah 74871","Tahai Jaya, Kec. Maliku, Kabupaten Pulang Pisau",KALIMANTAN TENGAH,74871.0,Indonesia,,,,-3.0231799,114.1909128,https://maps.google.com/?cid=0x0:0x12cfb67d5852cc89,
komplek housing,komplek housing,Kalimantan Tengah 74874,"Kabupaten Pulang Pisau, Kalimantan Tengah","Kabupaten Pulang Pisau, Kalimantan Tengah",KALIMANTAN TENGAH,,Indonesia,,,,-2.613866,113.8584737,https://maps.google.com/?cid=0x0:0x9a5d3171805f893d,
komplek housing,Komplek perumahan,Rumah fira,"3RQ4+G39, Mekar Jaya, Kec. Sebangau Kuala, Kabupaten Pulang Pisau, Kalimantan Tengah 74874","Mekar Jaya, Kec. Sebangau Kuala, Kabupaten Pulang Pisau",KALIMANTAN TENGAH,74874.0,Indonesia,,,,-2.9112236,113.8052364,https://maps.google.com/?cid=0x0:0xee96e62bbf4aa35a,
komplek housing,Komplek perumahan,Perumahan indomandiri permai kereng,"PWC9+JQJ, Sabaru, Kec. Sebangau, Kota Palangka Raya, Kalimantan Tengah 74874","Sabaru, Kec. Sebangau, Kota Palangka Raya",KALIMANTAN TENGAH,74874.0,Indonesia,,,,-2.2784096,113.9193777,https://maps.google.com/?cid=0x0:0xa5c9b7faf1a30423,
komplek housing,Komplek perumahan,Rc,"3R8R+367, Sebangau Permai, Kec. Sebangau Kuala, Kabupaten Pulang Pisau, Kalimantan Tengah 74874","Sebangau Permai, Kec. Sebangau Kuala, Kabupaten Pulang Pisau",KALIMANTAN TENGAH,74874.0,Indonesia,,,,-2.9348463,113.840537,https://maps.google.com/?cid=0x0:0xddd349b248f1e2b,
komplek housing,Sekolah,Perumahan sababilah 2,"Jl. RTA Milono No.KM 8, RW.2, Sabaru, Kec. Sebangau, Kota Palangka Raya, Kalimantan Tengah 74874","RW.2, Sabaru, Kec. Sebangau, Kota Palangka Raya",KALIMANTAN TENGAH,74874.0,Indonesia,,,,-2.2832172,113.9188186,https://maps.google.com/?cid=0x0:0xb635de569b9c7634,
komplek housing,Komplek perumahan,Rumah Hadil Arifin PPL,"4R5M+66, Sebangau Jaya, Kec. Sebangau Kuala, Kabupaten Pulang Pisau, Kalimantan Tengah 74874","Sebangau Jaya, Kec. Sebangau Kuala, Kabupaten Pulang Pisau",KALIMANTAN TENGAH,74874.0,Indonesia,,,,-2.8920004,113.8330646,https://maps.google.com/?cid=0x0:0x72f6353ff33d5d43,
komplek housing,komplek housing,Perumahan,"PWFF+Q7Q, Jl. Asabri III, Sabaru, Kec. Sebangau, Kota Palangka Raya, Kalimantan Tengah 74874","Jl. Asabri III, Sabaru, Kec. Sebangau, Kota Palangka Raya",KALIMANTAN TENGAH,74874.0,Indonesia,,,,-2.2755498,113.9232341,https://maps.google.com/?cid=0x0:0x670e9c8414c4e385,
komplek housing,Perumahan,Perumahan Matal Permai,"Jl. Matal No.19, Sabaru, Kec. Sebangau, Kota Palangka Raya, Kalimantan Tengah 74874","Sabaru, Kec. Sebangau, Kota Palangka Raya",KALIMANTAN TENGAH,74874.0,Indonesia,,,,-2.295941,113.9258178,https://maps.google.com/?cid=0x0:0xa8dca325f96c0e98,
komplek housing,Komplek perumahan,Perumahan Sri Rezeki,"PW68+JQ8, Jalan Sri Rezeki, Kereng Bangkirai, Kec. Sebangau, Kota Palangka Raya, Kalimantan Tengah 74874","Jalan Sri Rezeki, Kereng Bangkirai, Kec. Sebangau, Kota Palangka Raya",KALIMANTAN TENGAH,74874.0,Indonesia, 082251296887,,,-2.288472,113.9169546,https://maps.google.com/?cid=0x0:0x2107d471175bf91c,
komplek housing,Komplek perumahan,Perumahan citra kahayan 4,"Jl. Mahir Mahar, Kereng Bangkirai, Kec. Sebangau, Kota Palangka Raya, Kalimantan Tengah 74874","Kereng Bangkirai, Kec. Sebangau, Kota Palangka Raya",KALIMANTAN TENGAH,74874.0,Indonesia,,,,-2.2730767,113.8860733,https://maps.google.com/?cid=0x0:0x5338035cef281630,
komplek housing,Komplek perumahan,Rumah Mas Her,"4Q68+VC, Sebangau Mulya, Kec. Sebangau Kuala, Kabupaten Pulang Pisau, Kalimantan Tengah","Kabupaten Pulang Pisau, Kalimantan Tengah",KALIMANTAN TENGAH,,Indonesia,,,,-2.8878459,113.7660057,https://maps.google.com/?cid=0x0:0xd6aab298bfe4f366,
komplek housing,Komplek perumahan,Rumah Kamarudin,"4R4J+4G, Sebangau Jaya, Kec. Sebangau Kuala, Kabupaten Pulang Pisau, Kalimantan Tengah","Kabupaten Pulang Pisau, Kalimantan Tengah",KALIMANTAN TENGAH,,Indonesia,,,,-2.8946631,113.8313527,https://maps.google.com/?cid=0x0:0x78c16c8b03c779e3,
komplek housing,Perumahan,Perum Citra Barito 4,"Jl. Temanggung Iman, Kereng Bangkirai, Kec. Sebangau, Kota Palangka Raya, Kalimantan Tengah 74874","Kereng Bangkirai, Kec. Sebangau, Kota Palangka Raya",KALIMANTAN TENGAH,74874.0,Indonesia,,,,-2.2839878,113.9022354,https://maps.google.com/?cid=0x0:0x6ea5525117767387,
komplek housing,Komplek perumahan,Rumah mbah amir,"3RQ4+J3R, Mekar Jaya, Kec. Sebangau Kuala, Kabupaten Pulang Pisau, Kalimantan Tengah 74874","Mekar Jaya, Kec. Sebangau Kuala, Kabupaten Pulang Pisau",KALIMANTAN TENGAH,74874.0,Indonesia,,,,-2.9108917,113.8051304,https://maps.google.com/?cid=0x0:0xc91e7eca8406f9be,
komplek housing,komplek housing,Perumahan Gaol,"PW94+RGG, Jl. Anggrek Putih II, Kereng Bangkirai, Kec. Sebangau, Kota Palangka Raya, Kalimantan Tengah 74874","Jl. Anggrek Putih II, Kereng Bangkirai, Kec. Sebangau, Kota Palangka Raya",KALIMANTAN TENGAH,74874.0,Indonesia,,,,-2.2804324,113.9063201,https://maps.google.com/?cid=0x0:0x47de9c3a3d386197,
komplek housing,Komplek perumahan,Perumahan Villa Tirta Mas,"QV4G+R6P, Jl. G. Obos No.KM 5, Menteng, Kec. Jekan Raya, Kota Palangka Raya, Kalimantan Tengah 74874","Jl. G. Obos No.KM 5, Menteng, Kec. Jekan Raya, Kota Palangka Raya",KALIMANTAN TENGAH,74874.0,Indonesia,,,,-2.2415652,113.8742846,https://maps.google.com/?cid=0x0:0xf3c84ae4bd7e2b60,
komplek housing,Komplek perumahan,Perumahan Griya Tirza Indah,"PV6V+875, Jl. Manduhara, Kereng Bangkirai, Kec. Sebangau, Kota Palangka Raya, Kalimantan Tengah 74874","Jl. Manduhara, Kereng Bangkirai, Kec. Sebangau, Kota Palangka Raya",KALIMANTAN TENGAH,74874.0,Indonesia, 082230782696,,,-2.2892341,113.893239,https://maps.google.com/?cid=0x0:0x794c8e4ca39c2b1b,
komplek housing,Komplek perumahan,Perumahan Betang Tuah Rajaki,"Jl. Matal, Sabaru, Kec. Sebangau, Kota Palangka Raya, Kalimantan Tengah 74874","Sabaru, Kec. Sebangau, Kota Palangka Raya",KALIMANTAN TENGAH,74874.0,Indonesia,,,,-2.2951584,113.9254251,https://maps.google.com/?cid=0x0:0x7ef88a30f9f54130,
komplek housing,Pembangunan Perumahan,Perumahan Barito Elfariz,"PW66+7XH, Jl. Kambang Muhur, Kereng Bangkirai, Kec. Sebangau, Kota Palangka Raya, Kalimantan Tengah 74874","Jl. Kambang Muhur, Kereng Bangkirai, Kec. Sebangau, Kota Palangka Raya",KALIMANTAN TENGAH,74874.0,Indonesia,,,,-2.2893185,113.9124918,https://maps.google.com/?cid=0x0:0x9fc93dce67d0e6bd,
komplek housing,Komplek perumahan,Imam hadi komplek ay,"PT.surya mascipta perkasa 02 jln Mbah Hardi Bejo 02, Paduran Sabangau, Kec. Sebangau Kuala, Kabupaten Pulang Pisau, Kalimantan Tengah","Kabupaten Pulang Pisau, Kalimantan Tengah",KALIMANTAN TENGAH,,Indonesia,,,,-2.613866,113.8584737,https://maps.google.com/?cid=0x0:0xdad3c2bd74ea3c50,
komplek housing,komplek housing,Kec. Sebangau Kuala,"Kabupaten Pulang Pisau, Kalimantan Tengah","Kabupaten Pulang Pisau, Kalimantan Tengah",KALIMANTAN TENGAH,,Indonesia,,,,-2.9068878,113.8584737,https://maps.google.com/?cid=0x0:0x2d98e8655c0640b6,
komplek housing,Komplek perumahan,Rumah gopur,"4R9F+CFR, Sebangau Jaya, Kec. Sebangau Kuala, Kabupaten Pulang Pisau, Kalimantan Tengah 74874","Sebangau Jaya, Kec. Sebangau Kuala, Kabupaten Pulang Pisau",KALIMANTAN TENGAH,74874.0,Indonesia,,,,-2.8813948,113.8236276,https://maps.google.com/?cid=0x0:0xd07decc6c9367c85,
komplek housing,Komplek perumahan,Rumah,"PW4F+J2M, Jl. Matal B  C, Sabaru, Kec. Sebangau, Kota Palangka Raya, Kalimantan Tengah 74874","Jl. Matal B  C, Sabaru, Kec. Sebangau, Kota Palangka Raya",KALIMANTAN TENGAH,74874.0,Indonesia,,,,-2.293408,113.9225506,https://maps.google.com/?cid=0x0:0x43e3cbfd82f46a69,
komplek housing,Komplek perumahan,Eko Siswanto,"P2F7+92G, Gg. Mawar, Kalampangan, Kec. Sebangau, Kota Palangka Raya, Kalimantan Tengah 74874","Gg. Mawar, Kalampangan, Kec. Sebangau, Kota Palangka Raya",KALIMANTAN TENGAH,74874.0,Indonesia,,,,-2.2771043,114.0134378,https://maps.google.com/?cid=0x0:0x51529da7d5c9a6c8,
komplek housing,Komplek perumahan,Jl Pemandu Raya IV,"PW7H+JFF, Sabaru, Kec. Sebangau, Kota Palangka Raya, Kalimantan Tengah 74874","Sabaru, Kec. Sebangau, Kota Palangka Raya",KALIMANTAN TENGAH,74874.0,Indonesia,,,,-2.2859269,113.9286743,https://maps.google.com/?cid=0x0:0xac2abb6b9500a5c,
komplek housing,Komplek perumahan,Rumahku Gerejaku,"PWCG+HC5, Jl. Markus Paul, Sabaru, Kec. Sebangau, Kota Palangka Raya, Kalimantan Tengah 74874","Jl. Markus Paul, Sabaru, Kec. Sebangau, Kota Palangka Raya",KALIMANTAN TENGAH,74874.0,Indonesia,,,,-2.2786424,113.9260463,https://maps.google.com/?cid=0x0:0x300e665efe26127a,
komplek housing,Hotel,Wisma 2 Putri II,"Jl. Matal 1, Sabaru, Kec. Sebangau, Kota Palangka Raya, Kalimantan Tengah 74874","Sabaru, Kec. Sebangau, Kota Palangka Raya",KALIMANTAN TENGAH,74874.0,Indonesia,,,,-2.2954565,113.9224605,https://maps.google.com/?cid=0x0:0xd0c2e346ace6731e,
komplek housing,Komplek perumahan,RUMAH KAI HAIKAL,"Jl. Basir Jahan XVIII No.45d, Sabaru, Kec. Sebangau, Kota Palangka Raya, Kalimantan Tengah 74874","Sabaru, Kec. Sebangau, Kota Palangka Raya",KALIMANTAN TENGAH,74874.0,Indonesia,,,,-2.2908518,113.9206729,https://maps.google.com/?cid=0x0:0x6a729a886d4270dc,
perumahan,perumahan,Kalimantan Tengah 74863,"Kabupaten Gunung MAS, Kalimantan Tengah","Kabupaten Gunung MAS, Kalimantan Tengah",KALIMANTAN TENGAH,,Indonesia,,,,-1.496827,113.9060624,https://maps.google.com/?cid=0x0:0xf3a5fde9497362af,
perumahan,Komplek perumahan,"Desa Tumbang Tarusan, Kec. Banama Tingang, Kab. Pulang Pisau","CW9G+RR8, Tumbang Tarusan, Kec. Banama Tingang, Kabupaten Pulang Pisau, Kalimantan Tengah 74863","Tumbang Tarusan, Kec. Banama Tingang, Kabupaten Pulang Pisau",KALIMANTAN TENGAH,74863.0,Indonesia,,,,-1.5804499,113.9270991,https://maps.google.com/?cid=0x0:0x2dab993ed9e8acaa,
perumahan,Kantor Administrasi Kota,Kantor Camat Banama Tingang,"Komplek Perkantoran Trans, Jl. Perkebunan Jl. Palangka Raya - Kuala Kurun, Bawan, Kec. Banama Tingang, Kabupaten Pulang Pisau, Kalimantan Tengah 74863","Jl. Perkebunan Jl. Palangka Raya - Kuala Kurun, Bawan, Kec. Banama Tingang, Kabupaten Pulang Pisau",KALIMANTAN TENGAH,74863.0,Indonesia,,,,-1.6159178,113.933697,https://maps.google.com/?cid=0x0:0xa68c653606e533f2,
perumahan,Pembangunan Perumahan,Desa Bawan,"9V9V+VM3, Bawan, Kec. Banama Tingang, Kabupaten Pulang Pisau, Kalimantan Tengah","Kabupaten Pulang Pisau, Kalimantan Tengah",KALIMANTAN TENGAH,,Indonesia,,,,-1.6303636,113.8941657,https://maps.google.com/?cid=0x0:0xc05f506349762ac7,
perumahan,Gedung Apartemen,Pangkalan tahasak langanen,"9WMJ+F82, Jl. Palangka Raya - Kuala Kurun, Bawan, Kec. Banama Tingang, Kabupaten Pulang Pisau, Kalimantan Tengah 74863","Jl. Palangka Raya - Kuala Kurun, Bawan, Kec. Banama Tingang, Kabupaten Pulang Pisau",KALIMANTAN TENGAH,74863.0,Indonesia,,,,-1.6165149,113.9307403,https://maps.google.com/?cid=0x0:0x66454060bda8995f,
perumahan,Komplek perumahan,Ramang,"7W9C+QV8, Ramang, Kec. Banama Tingang, Kabupaten Pulang Pisau, Kalimantan Tengah","Kabupaten Pulang Pisau, Kalimantan Tengah",KALIMANTAN TENGAH,,Indonesia,,,,-1.730576,113.922203,https://maps.google.com/?cid=0x0:0x3842fc0c3ab1cf49,
perumahan,Kantor Pemerintah,Desa pangi,"CXC2+J73, Pangi, Kec. Banama Tingang, Kabupaten Pulang Pisau, Kalimantan Tengah 74863","Pangi, Kec. Banama Tingang, Kabupaten Pulang Pisau",KALIMANTAN TENGAH,74863.0,Indonesia,,,,-1.5784837,113.9506727,https://maps.google.com/?cid=0x0:0xe13be506e9f478d0,
perumahan,Pembangunan Perumahan,Set bawan,"9WMJ+49Q, Bawan, Kec. Banama Tingang, Kabupaten Pulang Pisau, Kalimantan Tengah 74863","Bawan, Kec. Banama Tingang, Kabupaten Pulang Pisau",KALIMANTAN TENGAH,74863.0,Indonesia,,,,-1.6177284,113.9313643,https://maps.google.com/?cid=0x0:0xedf3810048c66247,
perumahan,Perhimpunan Pengembang Perumahan,Sadung desa goha,"9W3G+7Q, Goha, Kec. Banama Tingang, Kabupaten Pulang Pisau, Kalimantan Tengah","Kabupaten Pulang Pisau, Kalimantan Tengah",KALIMANTAN TENGAH,,Indonesia,,,,-1.6468171,113.9269348,https://maps.google.com/?cid=0x0:0xa4b39ab47e784196,
perumahan,perumahan,Simpang Tiga kem pak sinchan,"8WX6+2RJ, Goha, Kec. Banama Tingang, Kabupaten Pulang Pisau, Kalimantan Tengah","Kabupaten Pulang Pisau, Kalimantan Tengah",KALIMANTAN TENGAH,,Indonesia,,,,-1.6524126,113.9120107,https://maps.google.com/?cid=0x0:0x3af82ab00378a412,
perumahan,Komplek perumahan,Desa ghoa,"9W4H+8RF, Goha, Kec. Banama Tingang, Kabupaten Pulang Pisau, Kalimantan Tengah","Kabupaten Pulang Pisau, Kalimantan Tengah",KALIMANTAN TENGAH,,Indonesia,,,,-1.6441984,113.9295507,https://maps.google.com/?cid=0x0:0x6e62ca6364295f20,
perumahan,Pembangunan Perumahan,Fran s senggo,"MW8H+R47, Jl. Palangka Raya - Kuala Kurun, Tumbang Danau, Kec. Mihing Raya, Kabupaten Gunung MAS, Kalimantan Tengah 74863","Jl. Palangka Raya - Kuala Kurun, Tumbang Danau, Kec. Mihing Raya, Kabupaten Gunung MAS",KALIMANTAN TENGAH,74863.0,Indonesia, 082137305869,,,-1.332956,113.927801,https://maps.google.com/?cid=0x0:0x28411735053fe5f2,
perumahan,perumahan,Kec. Banama Tingang,"Kabupaten Pulang Pisau, Kalimantan Tengah","Kabupaten Pulang Pisau, Kalimantan Tengah",KALIMANTAN TENGAH,,Indonesia,,,,-1.5763885,113.9265394,https://maps.google.com/?cid=0x0:0xc2314adf2e8a4645,
perumahan,Pembangunan Perumahan,Jihin Fam's,"8WHW+CFQ, Jl. Palangka Raya - Kuala Kurun, Pahawan, Kec. Banama Tingang, Kabupaten Pulang Pisau, Kalimantan Tengah 74863","Jl. Palangka Raya - Kuala Kurun, Pahawan, Kec. Banama Tingang, Kabupaten Pulang Pisau",KALIMANTAN TENGAH,74863.0,Indonesia,,,,-1.671423,113.946242,https://maps.google.com/?cid=0x0:0x137cedc8de3e1651,
perumahan,Pembangunan Perumahan,Sanggar Senam Alam,"9WGC+XRV, Jl. Darung Bawan Permai komplek BTN pal 11 No.74, Bawan, Kec. Banama Tingang, Kabupaten Pulang Pisau, Kalimantan Tengah 74863","Jl. Darung Bawan Permai komplek BTN pal 11 No.74, Bawan, Kec. Banama Tingang, Kabupaten Pulang Pisau",KALIMANTAN TENGAH,74863.0,Indonesia,,,,-1.6225238,113.9220534,https://maps.google.com/?cid=0x0:0x9d8a8d7d3bcfc654,
perumahan,Komplek perumahan,Rumah Hardiman Adyaa Riel Nainggolan,"GV5V+XGH, Jl. Antang Taoi, Sepang Simin, Kec. Sepang, Kabupaten Gunung MAS, Kalimantan Tengah 74863","Jl. Antang Taoi, Sepang Simin, Kec. Sepang, Kabupaten Gunung MAS",KALIMANTAN TENGAH,74863.0,Indonesia,,,,-1.490063,113.893875,https://maps.google.com/?cid=0x0:0xc625601a1649407,
perumahan,Pembangunan Perumahan,Rumah BP. Andre Mahman/Mahir,"GV7X+24M, Sepang Simin, Kec. Sepang, Kabupaten Gunung MAS, Kalimantan Tengah 74863","Sepang Simin, Kec. Sepang, Kabupaten Gunung MAS",KALIMANTAN TENGAH,74863.0,Indonesia,,,,-1.4874075,113.8977936,https://maps.google.com/?cid=0x0:0xe29dc241f63d30ae,
perumahan,Komplek perumahan,JS,"8WHW+CGJ, Jl. Palangka Raya - Kuala Kurun, Pahawan, Kec. Banama Tingang, Kabupaten Pulang Pisau, Kalimantan Tengah 74863","Jl. Palangka Raya - Kuala Kurun, Pahawan, Kec. Banama Tingang, Kabupaten Pulang Pisau",KALIMANTAN TENGAH,74863.0,Indonesia,,,,-1.6714222,113.9462665,https://maps.google.com/?cid=0x0:0x8d9af2338e8012a1,
perumahan,Kantor Polisi,Polsek banama tingang,"9W4R+M4W, Jl. Palangka Raya - Kuala Kurun, Goha, Kec. Banama Tingang, Kabupaten Pulang Pisau, Kalimantan Tengah 74863","Jl. Palangka Raya - Kuala Kurun, Goha, Kec. Banama Tingang, Kabupaten Pulang Pisau",KALIMANTAN TENGAH,74863.0,Indonesia, 082152008739,,,-1.6432685,113.9403129,https://maps.google.com/?cid=0x0:0x69a8aa1b0ca2329a,
perumahan,Pembangunan Perumahan,Rumah Bp Eman,"7W5C+VR9, Jl. Desa Hurung, Hanua, Kec. Banama Tingang, Kabupaten Pulang Pisau, Kalimantan Tengah 74862","Jl. Desa Hurung, Hanua, Kec. Banama Tingang, Kabupaten Pulang Pisau",KALIMANTAN TENGAH,74862.0,Indonesia,,,,-1.7403448,113.9221226,https://maps.google.com/?cid=0x0:0xd4a85f803a36545a,
perumahan,Komplek perumahan,Kedai Abbelselin,"HWV5+HFM, Tuyun, Kec. Mihing Raya, Kabupaten Gunung MAS, Kalimantan Tengah 74863","Tuyun, Kec. Mihing Raya, Kabupaten Gunung MAS",KALIMANTAN TENGAH,74863.0,Indonesia, 085345821991,,,-1.4060271,113.9086836,https://maps.google.com/?cid=0x0:0x8c51e70342199243,
perumahan,Pembangunan Perumahan,Stevin carderon,"9WPQ+GCG, Bawan, Kec. Banama Tingang, Kabupaten Pulang Pisau, Kalimantan Tengah","Kabupaten Pulang Pisau, Kalimantan Tengah",KALIMANTAN TENGAH,,Indonesia,,,,-1.6138786,113.9379742,https://maps.google.com/?cid=0x0:0x2ace10b1dc289d7f,
perumahan,perumahan,Kalimantan Tengah 74816,Kalimantan Tengah,Kalimantan Tengah,KALIMANTAN TENGAH,,Indonesia,,,,-2.3159685,114.2390498,https://maps.google.com/?cid=0x0:0x699fd2cedf1d1e7c,
perumahan,Komplek perumahan,Rumah indu Tikih,"Jabiren, rt 06, Jabiren, Kec. Jabiren, Kabupaten Pulang Pisau, Kalimantan Tengah 73561","rt 06, Jabiren, Kec. Jabiren, Kabupaten Pulang Pisau",KALIMANTAN TENGAH,73561.0,Indonesia,,,,-2.5234653,114.1910567,https://maps.google.com/?cid=0x0:0xbfd48976b93bf98f,
perumahan,Komplek perumahan,Indu uyi,"F5MV+V3, Jabiren, Kec. Jabiren, Kabupaten Pulang Pisau, Kalimantan Tengah 74812","Jabiren, Kec. Jabiren, Kabupaten Pulang Pisau",KALIMANTAN TENGAH,74812.0,Indonesia,,,,-2.5157204,114.1919517,https://maps.google.com/?cid=0x0:0xbe2d49ead23e3fb3,
perumahan,Tempat Istirahat,Pelabuhan jabiren,"F6GG+5VF, Jabiren, Kec. Jabiren, Kabupaten Pulang Pisau, Kalimantan Tengah","Kabupaten Pulang Pisau, Kalimantan Tengah",KALIMANTAN TENGAH,,Indonesia,,,,-2.5245634,114.2271616,https://maps.google.com/?cid=0x0:0x1a04a06fe7425402,
perumahan,perumahan,Rumah Melin djamboy,"G5FX+XP, Pilang, Kec. Jabiren, Kabupaten Pulang Pisau, Kalimantan Tengah","Kabupaten Pulang Pisau, Kalimantan Tengah",KALIMANTAN TENGAH,,Indonesia,,,,-2.4756876,114.1991021,https://maps.google.com/?cid=0x0:0xdae1b3080c143613,
perumahan,Pembangunan Perumahan,Rumah Fefeb,"G58V+77X, Pilang, Kec. Jabiren, Kabupaten Pulang Pisau, Kalimantan Tengah","Kabupaten Pulang Pisau, Kalimantan Tengah",KALIMANTAN TENGAH,,Indonesia,,,,-2.4842606,114.1932498,https://maps.google.com/?cid=0x0:0x111df51252839194,
perumahan,perumahan,Tanjung taruna,"M4XC+X3J, Tj. Taruna, Kec. Jabiren, Kabupaten Pulang Pisau, Kalimantan Tengah","Kabupaten Pulang Pisau, Kalimantan Tengah",KALIMANTAN TENGAH,,Indonesia,,,,-2.3000388,114.1201536,https://maps.google.com/?cid=0x0:0x77f850fa9eb5cc2b,
perumahan,Pembangunan Perumahan,Tanah taruna (Nova I),"M4XC+X3J, Tj. Taruna, Kec. Jabiren, Kabupaten Pulang Pisau, Kalimantan Tengah 74816","Tj. Taruna, Kec. Jabiren, Kabupaten Pulang Pisau",KALIMANTAN TENGAH,74816.0,Indonesia,,,,-2.3000388,114.1201536,https://maps.google.com/?cid=0x0:0xef08a1a1b440e2a,
perumahan,Tur Kawasan Pertanian,PT Ketapang agro lestari,"F5GR+694, Jabiren, Kec. Jabiren, Kabupaten Pulang Pisau, Kalimantan Tengah","Kabupaten Pulang Pisau, Kalimantan Tengah",KALIMANTAN TENGAH,,Indonesia,,,,-2.5244957,114.1909625,https://maps.google.com/?cid=0x0:0xffb5ef90941adcaf,
perumahan,Komplek perumahan,Rumah elloyyy,"G5HX+69, Pilang, Kec. Jabiren, Kabupaten Pulang Pisau, Kalimantan Tengah","Kabupaten Pulang Pisau, Kalimantan Tengah",KALIMANTAN TENGAH,,Indonesia,,,,-2.4719793,114.1984391,https://maps.google.com/?cid=0x0:0x1b78399eb6b903b3,
perumahan,perumahan,Kec. Jabiren,"Kabupaten Pulang Pisau, Kalimantan Tengah","Kabupaten Pulang Pisau, Kalimantan Tengah",KALIMANTAN TENGAH,,Indonesia,,,,-2.5244637,114.1909544,https://maps.google.com/?cid=0x0:0x602ff7acaabd3bef,
perumahan,perumahan,Jabiren,"Kec. Jabiren, Kabupaten Pulang Pisau, Kalimantan Tengah","Kabupaten Pulang Pisau, Kalimantan Tengah",KALIMANTAN TENGAH,,Indonesia,,,,-2.5245634,114.2271616,https://maps.google.com/?cid=0x0:0x1de6aef35d255ce0,
perumahan,Pembangunan Perumahan,Tanah taruna jaya ( Nova I),"M3P5+WP, Tj. Taruna, Kec. Jabiren, Kabupaten Pulang Pisau, Kalimantan Tengah 74874","Tj. Taruna, Kec. Jabiren, Kabupaten Pulang Pisau",KALIMANTAN TENGAH,74874.0,Indonesia,,,,-2.3126433,114.0592958,https://maps.google.com/?cid=0x0:0x516ce85eebdd0937,
perumahan,Kantor Pemerintah,Desa pilang,"H648+P4R, Pilang, Kec. Jabiren, Kabupaten Pulang Pisau, Kalimantan Tengah","Kabupaten Pulang Pisau, Kalimantan Tengah",KALIMANTAN TENGAH,,Indonesia, 083147920516,,,-2.4431287,114.2152731,https://maps.google.com/?cid=0x0:0x18652912ec67eb1,
perumahan,Komplek perumahan,fitriansyah,"86VP+8V2, Jl. Trans - Kalimantan, Gohong, Kec. Kahayan Hilir, Kabupaten Pulang Pisau, Kalimantan Tengah 74816","Jl. Trans - Kalimantan, Gohong, Kec. Kahayan Hilir, Kabupaten Pulang Pisau",KALIMANTAN TENGAH,74816.0,Indonesia, 081250507931,,,-2.656739,114.237134,https://maps.google.com/?cid=0x0:0xdad81a57a4cd51f8,
perumahan,Komplek perumahan,Kampung Kameloh RT.03,"P3P6+RFR, Kameloh Baru, Kec. Sebangau, Kota Palangka Raya, Kalimantan Tengah","Kota Palangka Raya, Kalimantan Tengah",KALIMANTAN TENGAH,,Indonesia,,,,-2.2628837,114.0611368,https://maps.google.com/?cid=0x0:0x9c2346ba0bcd24b6,
perumahan,Kantor Hubungan Masyarakat,Tunggu desa henda,"Masuk Tunggu, dekat SDN No.1, Henda, ujung, Kabupaten Pulang Pisau, Kalimantan Tengah","Kabupaten Pulang Pisau, Kalimantan Tengah",KALIMANTAN TENGAH,,Indonesia,,,,-2.6090699,114.2118143,https://maps.google.com/?cid=0x0:0x5f17f3ff14f68b33,
perumahan,Komplek perumahan,Kampung Kameloh RT.01,"P3P7+8J3, Kameloh Baru, Kec. Sebangau, Kota Palangka Raya, Kalimantan Tengah","Kota Palangka Raya, Kalimantan Tengah",KALIMANTAN TENGAH,,Indonesia,,,,-2.2642432,114.0640507,https://maps.google.com/?cid=0x0:0xc1f1d228e9be5705,
perumahan,Komplek perumahan,Rumah Firli,"Q2V3+8WJ, Danau Tundai, Kec. Sebangau, Kota Palangka Raya, Kalimantan Tengah","Kota Palangka Raya, Kalimantan Tengah",KALIMANTAN TENGAH,,Indonesia,,,,-2.2066702,114.0047675,https://maps.google.com/?cid=0x0:0xa1c829d3590ef9a7,
perumahan,Toko bahan makanan,Rumah eka Lidia Wati,"C5PW+C3, Saka Kajang, Kec. Jabiren, Kabupaten Pulang Pisau, Kalimantan Tengah 74812","Saka Kajang, Kec. Jabiren, Kabupaten Pulang Pisau",KALIMANTAN TENGAH,74812.0,Indonesia,,,,-2.5648504,114.1951366,https://maps.google.com/?cid=0x0:0xc0f87c255224149b,
perumahan,Komplek perumahan,Perumahan Pama Tirta Jaya,"Jl. Karanggan Gang XVI No.No, Panarung, Kec. Pahandut, Kota Palangka Raya, Kalimantan Tengah 73112","Panarung, Kec. Pahandut, Kota Palangka Raya",KALIMANTAN TENGAH,73112.0,Indonesia,,,,-2.2492459,113.9649062,https://maps.google.com/?cid=0x0:0xc337582ac9d03b6c,
perumahan,Komplek perumahan,Kampung/Lewu Kameloh Baru,"Kameloh Baru, Kec. Sebangau, Kota Palangka Raya, Kalimantan Tengah 74874","Kec. Sebangau, Kota Palangka Raya",KALIMANTAN TENGAH,74874.0,Indonesia,,,,-2.2647481,114.0624568,https://maps.google.com/?cid=0x0:0x8932716b8e1dd475,
perumahan,Kompleks Apartemen,DIVISI C PT.GRAHA INTI JAYA,"C9M3+M9, Pulau Kaladan, Kec. Mantangai, Kabupaten Kapuas, Kalimantan Tengah","Kabupaten Kapuas, Kalimantan Tengah",KALIMANTAN TENGAH,,Indonesia,,,,-2.5657901,114.3534792,https://maps.google.com/?cid=0x0:0x9ce753a64776aae2,
perumahan,Pembangunan Perumahan,Perumahan Kahayan Permai,"67PJ+99G, Anjir Pulang Pisau, Kec. Kahayan Hilir, Kabupaten Pulang Pisau, Kalimantan Tengah 73564","Anjir Pulang Pisau, Kec. Kahayan Hilir, Kabupaten Pulang Pisau",KALIMANTAN TENGAH,73564.0,Indonesia,,,,-2.7640527,114.2809512,https://maps.google.com/?cid=0x0:0xe969cbc8ae68ab83,
perumahan,perumahan,Kalimantan Tengah 74812,"Kec. Kahayan Hilir, Kabupaten Pulang Pisau, Kalimantan Tengah","Kabupaten Pulang Pisau, Kalimantan Tengah",KALIMANTAN TENGAH,,Indonesia,,,,-2.5166535,114.1677159,https://maps.google.com/?cid=0x0:0x6dbda426ddb6f3ad,
perumahan,perumahan,Rumah Melin djamboy,"G5FX+XP, Pilang, Kec. Jabiren, Kabupaten Pulang Pisau, Kalimantan Tengah","Kabupaten Pulang Pisau, Kalimantan Tengah",KALIMANTAN TENGAH,,Indonesia,,,,-2.4756876,114.1991021,https://maps.google.com/?cid=0x0:0xdae1b3080c143613,
perumahan,Komplek perumahan,Indu uyi,"F5MV+V3, Jabiren, Kec. Jabiren, Kabupaten Pulang Pisau, Kalimantan Tengah 74812","Jabiren, Kec. Jabiren, Kabupaten Pulang Pisau",KALIMANTAN TENGAH,74812.0,Indonesia,,,,-2.5157204,114.1919517,https://maps.google.com/?cid=0x0:0xbe2d49ead23e3fb3,
perumahan,Pembangunan Perumahan,Rumah Fefeb,"G58V+77X, Pilang, Kec. Jabiren, Kabupaten Pulang Pisau, Kalimantan Tengah","Kabupaten Pulang Pisau, Kalimantan Tengah",KALIMANTAN TENGAH,,Indonesia,,,,-2.4842606,114.1932498,https://maps.google.com/?cid=0x0:0x111df51252839194,
perumahan,Toko bahan makanan,Rumah eka Lidia Wati,"C5PW+C3, Saka Kajang, Kec. Jabiren, Kabupaten Pulang Pisau, Kalimantan Tengah 74812","Saka Kajang, Kec. Jabiren, Kabupaten Pulang Pisau",KALIMANTAN TENGAH,74812.0,Indonesia,,,,-2.5648504,114.1951366,https://maps.google.com/?cid=0x0:0xc0f87c255224149b,
perumahan,Komplek perumahan,Rumah Rahmat Pencinta Pri Payer,"F5GV+53F, Jabiren, Kec. Jabiren, Kabupaten Pulang Pisau, Kalimantan Tengah","Kabupaten Pulang Pisau, Kalimantan Tengah",KALIMANTAN TENGAH,,Indonesia,,,,-2.5246909,114.1929403,https://maps.google.com/?cid=0x0:0x2adfa33b8c12ee04,
perumahan,Komplek perumahan,Rumah Sendri/ Bp. Ayu,"F5GV+53F, Jabiren, Kec. Jabiren, Kabupaten Pulang Pisau, Kalimantan Tengah","Kabupaten Pulang Pisau, Kalimantan Tengah",KALIMANTAN TENGAH,,Indonesia,,,,-2.5253856,114.1936372,https://maps.google.com/?cid=0x0:0x110049e5a264e9e4,
perumahan,Komplek perumahan,Rumah elloyyy,"G5HX+69, Pilang, Kec. Jabiren, Kabupaten Pulang Pisau, Kalimantan Tengah","Kabupaten Pulang Pisau, Kalimantan Tengah",KALIMANTAN TENGAH,,Indonesia,,,,-2.4719793,114.1984391,https://maps.google.com/?cid=0x0:0x1b78399eb6b903b3,
perumahan,Tur Kawasan Pertanian,PT Ketapang agro lestari,"F5GR+694, Jabiren, Kec. Jabiren, Kabupaten Pulang Pisau, Kalimantan Tengah","Kabupaten Pulang Pisau, Kalimantan Tengah",KALIMANTAN TENGAH,,Indonesia,,,,-2.5244957,114.1909625,https://maps.google.com/?cid=0x0:0xffb5ef90941adcaf,
perumahan,Komplek perumahan,Perumahan Cassadova Tahap 2,"PWJX+W3W, Panarung, Kec. Pahandut, Kota Palangka Raya, Kalimantan Tengah 74874","Panarung, Kec. Pahandut, Kota Palangka Raya",KALIMANTAN TENGAH,74874.0,Indonesia,,,,-2.2676473,113.9477113,https://maps.google.com/?cid=0x0:0xa15f2cbe0f47af9d,
perumahan,Komplek perumahan,Mama Andi Sakakajang House,"C5FR+8FF, Saka Kajang, Kec. Jabiren, Kabupaten Pulang Pisau, Kalimantan Tengah 74812","Saka Kajang, Kec. Jabiren, Kabupaten Pulang Pisau",KALIMANTAN TENGAH,74812.0,Indonesia,,,,-2.5766913,114.1911663,https://maps.google.com/?cid=0x0:0x9c76b58e17e4b4ad,
perumahan,Tempat Istirahat,Pelabuhan jabiren,"F6GG+5VF, Jabiren, Kec. Jabiren, Kabupaten Pulang Pisau, Kalimantan Tengah","Kabupaten Pulang Pisau, Kalimantan Tengah",KALIMANTAN TENGAH,,Indonesia,,,,-2.5245634,114.2271616,https://maps.google.com/?cid=0x0:0x1a04a06fe7425402,
perumahan,Komplek perumahan,Rumah m haris buntoi,"56M2+699, Buntoi, Kec. Kahayan Hilir, Kabupaten Pulang Pisau, Kalimantan Tengah","Kabupaten Pulang Pisau, Kalimantan Tengah",KALIMANTAN TENGAH,,Indonesia, 085296348596,,,-2.8169589,114.2009933,https://maps.google.com/?cid=0x0:0x50310dcc6bd9ee27,
perumahan,Komplek perumahan,Rumah BP Nely,"7774+568, Kalawa, Kec. Kahayan Hilir, Kabupaten Pulang Pisau, Kalimantan Tengah 73564","Kalawa, Kec. Kahayan Hilir, Kabupaten Pulang Pisau",KALIMANTAN TENGAH,73564.0,Indonesia,,,,-2.7370786,114.2555947,https://maps.google.com/?cid=0x0:0xd3ba90096bb8dbb2,
perumahan,Restoran,WARUNG REZA,"879G+65Q, Gohong, Kec. Kahayan Hilir, Kabupaten Pulang Pisau, Kalimantan Tengah 74816","Gohong, Kec. Kahayan Hilir, Kabupaten Pulang Pisau",KALIMANTAN TENGAH,74816.0,Indonesia, 085251268356,,,-2.6819169,114.2754983,https://maps.google.com/?cid=0x0:0x7207605e0a78a43c,
perumahan,Komplek perumahan,komplek perumahan depag,"jalan wad.duha perkantoran, Mantaren I, Jl. Oberlin Metar No.1, Pulang Pisau, Kec. Kahayan Hilir, Kabupaten Pulang Pisau, Kalimantan Tengah 73564","Mantaren I, Jl. Oberlin Metar No.1, Pulang Pisau, Kec. Kahayan Hilir, Kabupaten Pulang Pisau",KALIMANTAN TENGAH,73564.0,Indonesia, 085350077879,,,-2.758241,114.2657969,https://maps.google.com/?cid=0x0:0x7233a84ba5a8a47d,
perumahan,Komplek perumahan,Tempat mama mira,"87GJ+GR, Gohong, Kec. Kahayan Hilir, Kabupaten Pulang Pisau, Kalimantan Tengah","Kabupaten Pulang Pisau, Kalimantan Tengah",KALIMANTAN TENGAH,,Indonesia,,,,-2.6736964,114.2820054,https://maps.google.com/?cid=0x0:0xeaf715902a7cccc9,
perumahan,Komplek perumahan,SantanG,"7774+568, Kalawa, Kec. Kahayan Hilir, Kabupaten Pulang Pisau, Kalimantan Tengah 73564","Kalawa, Kec. Kahayan Hilir, Kabupaten Pulang Pisau",KALIMANTAN TENGAH,73564.0,Indonesia,,,,-2.7370472,114.2562427,https://maps.google.com/?cid=0x0:0xbb003ec872929b82,
perumahan,Komplek perumahan,Rumah mustafid pulang pisau,"masuk perumahan dinas pertigaan belok kiri rumah, Jl. Abel Gawei Jl. Rey II No.2, Mantaren I, Kec. Kahayan Hilir, Kabupaten Pulang Pisau, Kalimantan Tengah 73564","Jl. Abel Gawei Jl. Rey II No.2, Mantaren I, Kec. Kahayan Hilir, Kabupaten Pulang Pisau",KALIMANTAN TENGAH,73564.0,Indonesia, 082256111922,,,-2.7627784,114.254561,https://maps.google.com/?cid=0x0:0xaad1b623a007f205,
perumahan,Komplek perumahan,Rumah Iskanto,"7778+WX7, Bereng, Kec. Kahayan Hilir, Kabupaten Pulang Pisau, Kalimantan Tengah 73564","Bereng, Kec. Kahayan Hilir, Kabupaten Pulang Pisau",KALIMANTAN TENGAH,73564.0,Indonesia,,,,-2.7358406,114.2669554,https://maps.google.com/?cid=0x0:0xbc8b6e95f9bd29f8,
perumahan,Komplek perumahan,Rumah Dinas Kadinkes Pulang Pisau,"7735+8FX, Jl. Tingang Menteng, Pulang Pisau, Kec. Kahayan Hilir, Kabupaten Pulang Pisau, Kalimantan Tengah 73564","Jl. Tingang Menteng, Pulang Pisau, Kec. Kahayan Hilir, Kabupaten Pulang Pisau",KALIMANTAN TENGAH,73564.0,Indonesia,,,,-2.7466396,114.2587767,https://maps.google.com/?cid=0x0:0x2a6b1679fe62f262,
perumahan,perumahan,Rumah santa,"77PF+J29, Bereng, Kec. Kahayan Hilir, Kabupaten Pulang Pisau, Kalimantan Tengah 73564","Bereng, Kec. Kahayan Hilir, Kabupaten Pulang Pisau",KALIMANTAN TENGAH,73564.0,Indonesia,,,,-2.7134617,114.2726211,https://maps.google.com/?cid=0x0:0x75e70a9ded5a613d,
perumahan,Perumahan,rumah april,"77MF+34P, Bereng, Kec. Kahayan Hilir, Kabupaten Pulang Pisau, Kalimantan Tengah","Kabupaten Pulang Pisau, Kalimantan Tengah",KALIMANTAN TENGAH,,Indonesia,,,,-2.717288,114.2728419,https://maps.google.com/?cid=0x0:0xdcfa00d4533e4b9a,
perumahan,Pembangunan Perumahan,Komplek Perumahan Pulang Pisau Permai,"6788+XJ8, Mantaren I, Kec. Kahayan Hilir, Kabupaten Pulang Pisau, Kalimantan Tengah 73564","Mantaren I, Kec. Kahayan Hilir, Kabupaten Pulang Pisau",KALIMANTAN TENGAH,73564.0,Indonesia, 082338307227,,,-2.7825961,114.2665757,https://maps.google.com/?cid=0x0:0x7f011903e4fafc2d,
perumahan,perumahan,baccos pulpis,"Jl. Darung Bawan No.17, Anjir Pulang Pisau, Kec. Kahayan Hilir, Kabupaten Pulang Pisau, Kalimantan Tengah 73564","Anjir Pulang Pisau, Kec. Kahayan Hilir, Kabupaten Pulang Pisau",KALIMANTAN TENGAH,73564.0,Indonesia,,,,-2.7642051,114.2805962,https://maps.google.com/?cid=0x0:0x47634e9b750bfc72,
perumahan,Pembangunan Perumahan,Perumahan Kahayan Permai,"67PJ+99G, Anjir Pulang Pisau, Kec. Kahayan Hilir, Kabupaten Pulang Pisau, Kalimantan Tengah 73564","Anjir Pulang Pisau, Kec. Kahayan Hilir, Kabupaten Pulang Pisau",KALIMANTAN TENGAH,73564.0,Indonesia,,,,-2.7640527,114.2809512,https://maps.google.com/?cid=0x0:0xe969cbc8ae68ab83,
perumahan,perumahan,Kalimantan Tengah 74813,Kalimantan Tengah,Kalimantan Tengah,KALIMANTAN TENGAH,,Indonesia,,,,-2.5771654,114.3222577,https://maps.google.com/?cid=0x0:0xfaa2c870e86154d8,
perumahan,Komplek perumahan,Rumah BP Nely,"7774+568, Kalawa, Kec. Kahayan Hilir, Kabupaten Pulang Pisau, Kalimantan Tengah 73564","Kalawa, Kec. Kahayan Hilir, Kabupaten Pulang Pisau",KALIMANTAN TENGAH,73564.0,Indonesia,,,,-2.7370786,114.2555947,https://maps.google.com/?cid=0x0:0xd3ba90096bb8dbb2,
perumahan,Pembangunan Perumahan,komplek perumahan surya darma,"Unnamed Road, Mantaren I, Kec. Kahayan Hilir, Kabupaten Pulang Pisau, Kalimantan Tengah 73564","Mantaren I, Kec. Kahayan Hilir, Kabupaten Pulang Pisau",KALIMANTAN TENGAH,73564.0,Indonesia, 081289367063,,,-2.7971485,114.2663034,https://maps.google.com/?cid=0x0:0x63b0f2a9ed0c8e23,
perumahan,Restoran,WARUNG REZA,"879G+65Q, Gohong, Kec. Kahayan Hilir, Kabupaten Pulang Pisau, Kalimantan Tengah 74816","Gohong, Kec. Kahayan Hilir, Kabupaten Pulang Pisau",KALIMANTAN TENGAH,74816.0,Indonesia, 085251268356,,,-2.6819169,114.2754983,https://maps.google.com/?cid=0x0:0x7207605e0a78a43c,
perumahan,Komplek perumahan,home,"67J6+622, Jl. Rey II, Mantaren I, Kec. Kahayan Hilir, Kabupaten Pulang Pisau, Kalimantan Tengah 73564","Jl. Rey II, Mantaren I, Kec. Kahayan Hilir, Kabupaten Pulang Pisau",KALIMANTAN TENGAH,73564.0,Indonesia,,,,-2.7694928,114.2600117,https://maps.google.com/?cid=0x0:0x4f7996773c8a9d71,
perumahan,Komplek perumahan,Tempat mama mira,"87GJ+GR, Gohong, Kec. Kahayan Hilir, Kabupaten Pulang Pisau, Kalimantan Tengah","Kabupaten Pulang Pisau, Kalimantan Tengah",KALIMANTAN TENGAH,,Indonesia,,,,-2.6736964,114.2820054,https://maps.google.com/?cid=0x0:0xeaf715902a7cccc9,
perumahan,Komplek perumahan,komplek perumahan depag,"jalan wad.duha perkantoran, Mantaren I, Jl. Oberlin Metar No.1, Pulang Pisau, Kec. Kahayan Hilir, Kabupaten Pulang Pisau, Kalimantan Tengah 73564","Mantaren I, Jl. Oberlin Metar No.1, Pulang Pisau, Kec. Kahayan Hilir, Kabupaten Pulang Pisau",KALIMANTAN TENGAH,73564.0,Indonesia, 085350077879,,,-2.758241,114.2657969,https://maps.google.com/?cid=0x0:0x7233a84ba5a8a47d,
perumahan,Komplek perumahan,Rumah mustafid pulang pisau,"masuk perumahan dinas pertigaan belok kiri rumah, Jl. Abel Gawei Jl. Rey II No.2, Mantaren I, Kec. Kahayan Hilir, Kabupaten Pulang Pisau, Kalimantan Tengah 73564","Jl. Abel Gawei Jl. Rey II No.2, Mantaren I, Kec. Kahayan Hilir, Kabupaten Pulang Pisau",KALIMANTAN TENGAH,73564.0,Indonesia, 082256111922,,,-2.7627784,114.254561,https://maps.google.com/?cid=0x0:0xaad1b623a007f205,
perumahan,Komplek perumahan,SantanG,"7774+568, Kalawa, Kec. Kahayan Hilir, Kabupaten Pulang Pisau, Kalimantan Tengah 73564","Kalawa, Kec. Kahayan Hilir, Kabupaten Pulang Pisau",KALIMANTAN TENGAH,73564.0,Indonesia,,,,-2.7370472,114.2562427,https://maps.google.com/?cid=0x0:0xbb003ec872929b82,
perumahan,Komplek perumahan,Arkam,"87FP+WW2, Gohong, Kec. Kahayan Hilir, Kabupaten Pulang Pisau, Kalimantan Tengah 74816","Gohong, Kec. Kahayan Hilir, Kabupaten Pulang Pisau",KALIMANTAN TENGAH,74816.0,Indonesia,,,,-2.6758867,114.288225,https://maps.google.com/?cid=0x0:0x80136d71c8f7ce84,
perumahan,Perumahan,rumah april,"77MF+34P, Bereng, Kec. Kahayan Hilir, Kabupaten Pulang Pisau, Kalimantan Tengah","Kabupaten Pulang Pisau, Kalimantan Tengah",KALIMANTAN TENGAH,,Indonesia,,,,-2.717288,114.2728419,https://maps.google.com/?cid=0x0:0xdcfa00d4533e4b9a,
perumahan,Pembangunan Perumahan,@dr,"7788+7R4, Jl. Tajahan Antang, Bereng, Kec. Kahayan Hilir, Kabupaten Pulang Pisau, Kalimantan Tengah 73564","Jl. Tajahan Antang, Bereng, Kec. Kahayan Hilir, Kabupaten Pulang Pisau",KALIMANTAN TENGAH,73564.0,Indonesia,,,,-2.7343531,114.2670776,https://maps.google.com/?cid=0x0:0xe63e1387e652eea7,
perumahan,Komplek perumahan,Rumah amang Husni,"772C+29C, Bereng, Kec. Kahayan Hilir, Kabupaten Pulang Pisau, Kalimantan Tengah 73564","Bereng, Kec. Kahayan Hilir, Kabupaten Pulang Pisau",KALIMANTAN TENGAH,73564.0,Indonesia,,,,-2.7499412,114.2708863,https://maps.google.com/?cid=0x0:0xbaae5af0d7474a08,
perumahan,Komplek perumahan,Rumah Amang Utar,"67XC+W6X, Bereng, Kec. Kahayan Hilir, Kabupaten Pulang Pisau, Kalimantan Tengah 73564","Bereng, Kec. Kahayan Hilir, Kabupaten Pulang Pisau",KALIMANTAN TENGAH,73564.0,Indonesia,,,,-2.7501459,114.2706011,https://maps.google.com/?cid=0x0:0xdd49bc221d6aa32b,
perumahan,Komplek perumahan,fitriansyah,"86VP+8V2, Jl. Trans - Kalimantan, Gohong, Kec. Kahayan Hilir, Kabupaten Pulang Pisau, Kalimantan Tengah 74816","Jl. Trans - Kalimantan, Gohong, Kec. Kahayan Hilir, Kabupaten Pulang Pisau",KALIMANTAN TENGAH,74816.0,Indonesia, 081250507931,,,-2.656739,114.237134,https://maps.google.com/?cid=0x0:0xdad81a57a4cd51f8,
perumahan,Pembangunan Perumahan,Pelanggan,"67RH+87V, Jl. Darung Bawan, Anjir Pulang Pisau, Kec. Kahayan Hilir, Kabupaten Pulang Pisau, Kalimantan Tengah 73564","Jl. Darung Bawan, Anjir Pulang Pisau, Kec. Kahayan Hilir, Kabupaten Pulang Pisau",KALIMANTAN TENGAH,73564.0,Indonesia,,,,-2.7591464,114.2781655,https://maps.google.com/?cid=0x0:0xfe35ba3616f54a55,
perumahan,Komplek perumahan,Rumah Dianto,"67PJ+MPH, Jl. Darung Bawan permai, Pulang Pisau, Kec. Kahayan Hilir, Kabupaten Pulang Pisau, Kalimantan Tengah 73564","Jl. Darung Bawan permai, Pulang Pisau, Kec. Kahayan Hilir, Kabupaten Pulang Pisau",KALIMANTAN TENGAH,73564.0,Indonesia,,,,-2.7633143,114.2818464,https://maps.google.com/?cid=0x0:0x54473e1353a74c49,
perumahan,Komplek perumahan,Rumah Iskanto,"7778+WX7, Bereng, Kec. Kahayan Hilir, Kabupaten Pulang Pisau, Kalimantan Tengah 73564","Bereng, Kec. Kahayan Hilir, Kabupaten Pulang Pisau",KALIMANTAN TENGAH,73564.0,Indonesia,,,,-2.7358406,114.2669554,https://maps.google.com/?cid=0x0:0xbc8b6e95f9bd29f8,
perumahan,,Toko MakmurJaya/Gunung Pasir,"7729+H33, Jl. Darung Bawan, Pulang Pisau, Kec. Kahayan Hilir, Kabupaten Pulang Pisau, Kalimantan Tengah 73564","Jl. Darung Bawan, Pulang Pisau, Kec. Kahayan Hilir, Kabupaten Pulang Pisau",KALIMANTAN TENGAH,73564.0,Indonesia,,,,-2.7486035,114.2676677,https://maps.google.com/?cid=0x0:0xa3c7f842bf63c471,
perumahan,Komplek perumahan,PT igrha inti jaya,"C985+XX, Lamunti, Kec. Mantangai, Kabupaten Kapuas, Kalimantan Tengah 74813","Lamunti, Kec. Mantangai, Kabupaten Kapuas",KALIMANTAN TENGAH,74813.0,Indonesia,,,,-2.5825035,114.3599557,https://maps.google.com/?cid=0x0:0xc31e656fde1f434,
perumahan,Kompleks Apartemen,DIVISI C PT.GRAHA INTI JAYA,"C9M3+M9, Pulau Kaladan, Kec. Mantangai, Kabupaten Kapuas, Kalimantan Tengah","Kabupaten Kapuas, Kalimantan Tengah",KALIMANTAN TENGAH,,Indonesia,,,,-2.5657901,114.3534792,https://maps.google.com/?cid=0x0:0x9ce753a64776aae2,
perumahan,Komplek perumahan,Divisi 1 Plasma,"F93J+V37, Pulau Kaladan, Kec. Mantangai, Kabupaten Kapuas, Kalimantan Tengah 73552","Pulau Kaladan, Kec. Mantangai, Kabupaten Kapuas",KALIMANTAN TENGAH,73552.0,Indonesia,,,,-2.5453365,114.3801693,https://maps.google.com/?cid=0x0:0xb2221f164b17c0aa,
perumahan,Perumahan,Vina,"97P2+294, Henda, Kec. Jabiren, Kabupaten Pulang Pisau, Kalimantan Tengah","Kabupaten Pulang Pisau, Kalimantan Tengah",KALIMANTAN TENGAH,,Indonesia,,,,-2.6149963,114.2509376,https://maps.google.com/?cid=0x0:0x7ad6e862e8b375f0,
perumahan,Komplek perumahan,GRIYA PUSPA,"jalan kahayan Permai No.RT 06 Blok F, Lamunti, Kec. Mantangai, Kabupaten Kapuas, Kalimantan Tengah","Kabupaten Kapuas, Kalimantan Tengah",KALIMANTAN TENGAH,,Indonesia,,,,-2.5938838,114.3935655,https://maps.google.com/?cid=0x0:0x66dcd96ab3c143eb,
perumahan,perumahan,Kalimantan Tengah 74816,Kalimantan Tengah,Kalimantan Tengah,KALIMANTAN TENGAH,,Indonesia,,,,-2.3159685,114.2390498,https://maps.google.com/?cid=0x0:0x699fd2cedf1d1e7c,
perumahan,Pembangunan Perumahan,Perumahan Kahayan Permai,"67PJ+99G, Anjir Pulang Pisau, Kec. Kahayan Hilir, Kabupaten Pulang Pisau, Kalimantan Tengah 73564","Anjir Pulang Pisau, Kec. Kahayan Hilir, Kabupaten Pulang Pisau",KALIMANTAN TENGAH,73564.0,Indonesia,,,,-2.7640527,114.2809512,https://maps.google.com/?cid=0x0:0xe969cbc8ae68ab83,
perumahan,Restoran,WARUNG REZA,"879G+65Q, Gohong, Kec. Kahayan Hilir, Kabupaten Pulang Pisau, Kalimantan Tengah 74816","Gohong, Kec. Kahayan Hilir, Kabupaten Pulang Pisau",KALIMANTAN TENGAH,74816.0,Indonesia, 085251268356,,,-2.6819169,114.2754983,https://maps.google.com/?cid=0x0:0x7207605e0a78a43c,
perumahan,Kantor Pemerintah,Gohong,"879J+GXV, Gohong, Kec. Kahayan Hilir, Kabupaten Pulang Pisau, Kalimantan Tengah 74816","Gohong, Kec. Kahayan Hilir, Kabupaten Pulang Pisau",KALIMANTAN TENGAH,74816.0,Indonesia,,,,-2.6811462,114.2824086,https://maps.google.com/?cid=0x0:0xf0ff2c1e7189779d,
perumahan,Perumahan,rumah april,"77MF+34P, Bereng, Kec. Kahayan Hilir, Kabupaten Pulang Pisau, Kalimantan Tengah","Kabupaten Pulang Pisau, Kalimantan Tengah",KALIMANTAN TENGAH,,Indonesia,,,,-2.717288,114.2728419,https://maps.google.com/?cid=0x0:0xdcfa00d4533e4b9a,
perumahan,Komplek perumahan,fitriansyah,"86VP+8V2, Jl. Trans - Kalimantan, Gohong, Kec. Kahayan Hilir, Kabupaten Pulang Pisau, Kalimantan Tengah 74816","Jl. Trans - Kalimantan, Gohong, Kec. Kahayan Hilir, Kabupaten Pulang Pisau",KALIMANTAN TENGAH,74816.0,Indonesia, 081250507931,,,-2.656739,114.237134,https://maps.google.com/?cid=0x0:0xdad81a57a4cd51f8,
perumahan,Komplek perumahan,Indu uyi,"F5MV+V3, Jabiren, Kec. Jabiren, Kabupaten Pulang Pisau, Kalimantan Tengah 74812","Jabiren, Kec. Jabiren, Kabupaten Pulang Pisau",KALIMANTAN TENGAH,74812.0,Indonesia,,,,-2.5157204,114.1919517,https://maps.google.com/?cid=0x0:0xbe2d49ead23e3fb3,
perumahan,Komplek perumahan,Rumah indu Tikih,"Jabiren, rt 06, Jabiren, Kec. Jabiren, Kabupaten Pulang Pisau, Kalimantan Tengah 73561","rt 06, Jabiren, Kec. Jabiren, Kabupaten Pulang Pisau",KALIMANTAN TENGAH,73561.0,Indonesia,,,,-2.5234653,114.1910567,https://maps.google.com/?cid=0x0:0xbfd48976b93bf98f,
perumahan,Komplek perumahan,Rumah Vira,"Jl. Ngambun Hawun No.Rt 4, Bereng, Kec. Kahayan Hilir, Kabupaten Pulang Pisau, Kalimantan Tengah","Kabupaten Pulang Pisau, Kalimantan Tengah",KALIMANTAN TENGAH,,Indonesia,,,,-2.732847,114.2649435,https://maps.google.com/?cid=0x0:0xad266f0213086eeb,
perumahan,perumahan,Rumah Melin djamboy,"G5FX+XP, Pilang, Kec. Jabiren, Kabupaten Pulang Pisau, Kalimantan Tengah","Kabupaten Pulang Pisau, Kalimantan Tengah",KALIMANTAN TENGAH,,Indonesia,,,,-2.4756876,114.1991021,https://maps.google.com/?cid=0x0:0xdae1b3080c143613,
perumahan,Pembangunan Perumahan,Rumah Fefeb,"G58V+77X, Pilang, Kec. Jabiren, Kabupaten Pulang Pisau, Kalimantan Tengah","Kabupaten Pulang Pisau, Kalimantan Tengah",KALIMANTAN TENGAH,,Indonesia,,,,-2.4842606,114.1932498,https://maps.google.com/?cid=0x0:0x111df51252839194,
perumahan,perumahan,Tanjung taruna,"M4XC+X3J, Tj. Taruna, Kec. Jabiren, Kabupaten Pulang Pisau, Kalimantan Tengah","Kabupaten Pulang Pisau, Kalimantan Tengah",KALIMANTAN TENGAH,,Indonesia,,,,-2.3000388,114.1201536,https://maps.google.com/?cid=0x0:0x77f850fa9eb5cc2b,
perumahan,Pembangunan Perumahan,Tanah taruna (Nova I),"M4XC+X3J, Tj. Taruna, Kec. Jabiren, Kabupaten Pulang Pisau, Kalimantan Tengah 74816","Tj. Taruna, Kec. Jabiren, Kabupaten Pulang Pisau",KALIMANTAN TENGAH,74816.0,Indonesia,,,,-2.3000388,114.1201536,https://maps.google.com/?cid=0x0:0xef08a1a1b440e2a,
perumahan,Pembangunan Perumahan,Tanah taruna jaya ( Nova I),"M3P5+WP, Tj. Taruna, Kec. Jabiren, Kabupaten Pulang Pisau, Kalimantan Tengah 74874","Tj. Taruna, Kec. Jabiren, Kabupaten Pulang Pisau",KALIMANTAN TENGAH,74874.0,Indonesia,,,,-2.3126433,114.0592958,https://maps.google.com/?cid=0x0:0x516ce85eebdd0937,
perumahan,Komplek perumahan,Kampung Kameloh RT.03,"P3P6+RFR, Kameloh Baru, Kec. Sebangau, Kota Palangka Raya, Kalimantan Tengah","Kota Palangka Raya, Kalimantan Tengah",KALIMANTAN TENGAH,,Indonesia,,,,-2.2628837,114.0611368,https://maps.google.com/?cid=0x0:0x9c2346ba0bcd24b6,
perumahan,Komplek perumahan,Perumahan Pama Tirta Jaya,"Jl. Karanggan Gang XVI No.No, Panarung, Kec. Pahandut, Kota Palangka Raya, Kalimantan Tengah 73112","Panarung, Kec. Pahandut, Kota Palangka Raya",KALIMANTAN TENGAH,73112.0,Indonesia,,,,-2.2492459,113.9649062,https://maps.google.com/?cid=0x0:0xc337582ac9d03b6c,
perumahan,Tur Kawasan Pertanian,PT Ketapang agro lestari,"F5GR+694, Jabiren, Kec. Jabiren, Kabupaten Pulang Pisau, Kalimantan Tengah","Kabupaten Pulang Pisau, Kalimantan Tengah",KALIMANTAN TENGAH,,Indonesia,,,,-2.5244957,114.1909625,https://maps.google.com/?cid=0x0:0xffb5ef90941adcaf,
perumahan,Komplek perumahan,Rumah elloyyy,"G5HX+69, Pilang, Kec. Jabiren, Kabupaten Pulang Pisau, Kalimantan Tengah","Kabupaten Pulang Pisau, Kalimantan Tengah",KALIMANTAN TENGAH,,Indonesia,,,,-2.4719793,114.1984391,https://maps.google.com/?cid=0x0:0x1b78399eb6b903b3,
perumahan,Komplek perumahan,Rumah Sendri/ Bp. Ayu,"F5GV+53F, Jabiren, Kec. Jabiren, Kabupaten Pulang Pisau, Kalimantan Tengah","Kabupaten Pulang Pisau, Kalimantan Tengah",KALIMANTAN TENGAH,,Indonesia,,,,-2.5253856,114.1936372,https://maps.google.com/?cid=0x0:0x110049e5a264e9e4,
perumahan,Komplek perumahan,rumah jeje cantik,"P289+CG7, Jl. Trans Kalimantan, Kalampangan, Kec. Sebangau, Kota Palangka Raya, Kalimantan Tengah 74874","Jl. Trans Kalimantan, Kalampangan, Kec. Sebangau, Kota Palangka Raya",KALIMANTAN TENGAH,74874.0,Indonesia,,,,-2.2845356,114.0190597,https://maps.google.com/?cid=0x0:0x6793c0df4eeabc31,
perumahan,Komplek perumahan,RUMAH SLR,"7767+9VW, Bereng, Kec. Kahayan Hilir, Kabupaten Pulang Pisau, Kalimantan Tengah 73564","Bereng, Kec. Kahayan Hilir, Kabupaten Pulang Pisau",KALIMANTAN TENGAH,73564.0,Indonesia,,,,-2.7391643,114.2637357,https://maps.google.com/?cid=0x0:0x871f28516bdf3033,
perumahan,Pembangunan Perumahan,Rumah Aditia Pebrian,"7798+845, Bereng, Kec. Kahayan Hilir, Kabupaten Pulang Pisau, Kalimantan Tengah 73564","Bereng, Kec. Kahayan Hilir, Kabupaten Pulang Pisau",KALIMANTAN TENGAH,73564.0,Indonesia,,,,-2.7317455,114.2653448,https://maps.google.com/?cid=0x0:0x8e9b6a31bdf4b896,
perumahan,Rumah Kayu,Rumah mama ampung,"Bereng, Kec. Kahayan Hilir, Kabupaten Pulang Pisau, Kalimantan Tengah","Kabupaten Pulang Pisau, Kalimantan Tengah",KALIMANTAN TENGAH,,Indonesia,,,,-2.736152,114.2647928,https://maps.google.com/?cid=0x0:0xcbc036b74f82a63d,
perumahan,Pembangunan Perumahan,Komplek Perumahan Pulang Pisau Permai,"6788+XJ8, Mantaren I, Kec. Kahayan Hilir, Kabupaten Pulang Pisau, Kalimantan Tengah 73564","Mantaren I, Kec. Kahayan Hilir, Kabupaten Pulang Pisau",KALIMANTAN TENGAH,73564.0,Indonesia, 082338307227,,,-2.7825961,114.2665757,https://maps.google.com/?cid=0x0:0x7f011903e4fafc2d,
perumahan,Komplek perumahan,Arkam,"87FP+WW2, Gohong, Kec. Kahayan Hilir, Kabupaten Pulang Pisau, Kalimantan Tengah 74816","Gohong, Kec. Kahayan Hilir, Kabupaten Pulang Pisau",KALIMANTAN TENGAH,74816.0,Indonesia,,,,-2.6758867,114.288225,https://maps.google.com/?cid=0x0:0x80136d71c8f7ce84,
perumahan,Komplek perumahan,Rumah Iskanto,"7778+WX7, Bereng, Kec. Kahayan Hilir, Kabupaten Pulang Pisau, Kalimantan Tengah 73564","Bereng, Kec. Kahayan Hilir, Kabupaten Pulang Pisau",KALIMANTAN TENGAH,73564.0,Indonesia,,,,-2.7358406,114.2669554,https://maps.google.com/?cid=0x0:0xbc8b6e95f9bd29f8,
perumahan,Komplek perumahan,Rumah ridayatullah,"7725+8RX, Pulang Pisau, Kec. Kahayan Hilir, Kabupaten Pulang Pisau, Kalimantan Tengah 73564","Pulang Pisau, Kec. Kahayan Hilir, Kabupaten Pulang Pisau",KALIMANTAN TENGAH,73564.0,Indonesia,,,,-2.7491402,114.2595989,https://maps.google.com/?cid=0x0:0x8a484c535ae581be,
perumahan,Komplek perumahan,Rumah Bu Litri,"77CJ+M7R, Bereng, Kec. Kahayan Hilir, Kabupaten Pulang Pisau, Kalimantan Tengah 73564","Bereng, Kec. Kahayan Hilir, Kabupaten Pulang Pisau",KALIMANTAN TENGAH,73564.0,Indonesia,,,,-2.7282618,114.2806558,https://maps.google.com/?cid=0x0:0x274e939089d4aee0,
perumahan,Komplek perumahan,RUMAH BU LITRI,"Jl. Djanias Djangkan, Bereng, Kec. Kahayan Hilir, Kabupaten Pulang Pisau, Kalimantan Tengah 73564","Bereng, Kec. Kahayan Hilir, Kabupaten Pulang Pisau",KALIMANTAN TENGAH,73564.0,Indonesia,,,,-2.7383767,114.2704318,https://maps.google.com/?cid=0x0:0x3c75f5b44cfa45ff,
perumahan,perumahan,Kec. Kahayan Hilir,"Kabupaten Pulang Pisau, Kalimantan Tengah","Kabupaten Pulang Pisau, Kalimantan Tengah",KALIMANTAN TENGAH,,Indonesia,,,,-2.7914682,114.262235,https://maps.google.com/?cid=0x0:0x7f1583868799e28e,
perumahan,Pembangunan Perumahan,Perumahan Kahayan Permai,"67PJ+99G, Anjir Pulang Pisau, Kec. Kahayan Hilir, Kabupaten Pulang Pisau, Kalimantan Tengah 73564","Anjir Pulang Pisau, Kec. Kahayan Hilir, Kabupaten Pulang Pisau",KALIMANTAN TENGAH,73564.0,Indonesia,,,,-2.7640527,114.2809512,https://maps.google.com/?cid=0x0:0xe969cbc8ae68ab83,
perumahan,Pembangunan Perumahan,Perumahan Griya Sahabat,"6767+JM5, Mantaren I, Kec. Kahayan Hilir, Kabupaten Pulang Pisau, Kalimantan Tengah 73564","Mantaren I, Kec. Kahayan Hilir, Kabupaten Pulang Pisau",KALIMANTAN TENGAH,73564.0,Indonesia,,,,-2.7884835,114.2642303,https://maps.google.com/?cid=0x0:0x4ff05dc51735c679,
perumahan,Pembangunan Perumahan,Komplek MARINA PERMAI PULANG PISAU,"67FF+6FG, Komplek Marina Permai Jalan Abei Gawei, Mantaren I, Kec. Kahayan Hilir, Kabupaten Pulang Pisau, Kalimantan Tengah 73564","Komplek Marina Permai Jalan Abei Gawei, Mantaren I, Kec. Kahayan Hilir, Kabupaten Pulang Pisau",KALIMANTAN TENGAH,73564.0,Indonesia,,,,-2.7769346,114.2736988,https://maps.google.com/?cid=0x0:0xeb2e39be51da2068,
perumahan,Komplek perumahan,home,"67J6+622, Jl. Rey II, Mantaren I, Kec. Kahayan Hilir, Kabupaten Pulang Pisau, Kalimantan Tengah 73564","Jl. Rey II, Mantaren I, Kec. Kahayan Hilir, Kabupaten Pulang Pisau",KALIMANTAN TENGAH,73564.0,Indonesia,,,,-2.7694928,114.2600117,https://maps.google.com/?cid=0x0:0x4f7996773c8a9d71,
perumahan,Komplek perumahan,RUMAH SLR,"7767+9VW, Bereng, Kec. Kahayan Hilir, Kabupaten Pulang Pisau, Kalimantan Tengah 73564","Bereng, Kec. Kahayan Hilir, Kabupaten Pulang Pisau",KALIMANTAN TENGAH,73564.0,Indonesia,,,,-2.7391643,114.2637357,https://maps.google.com/?cid=0x0:0x871f28516bdf3033,
perumahan,Pembangunan Perumahan,Perum. Green Asas Residence,"67F9+5HJ, Jl. Rey II, Mantaren I, Kec. Kahayan Hilir, Kabupaten Pulang Pisau, Kalimantan Tengah 73564","Jl. Rey II, Mantaren I, Kec. Kahayan Hilir, Kabupaten Pulang Pisau",KALIMANTAN TENGAH,73564.0,Indonesia, 082153602045,,,-2.7770412,114.2688977,https://maps.google.com/?cid=0x0:0xff4335c4b6212154,
perumahan,Komplek perumahan,Rumah Rafan/agus,"666H+9PW, Mantaren I, Kec. Kahayan Hilir, Kabupaten Pulang Pisau, Kalimantan Tengah","Kabupaten Pulang Pisau, Kalimantan Tengah",KALIMANTAN TENGAH,,Indonesia,,,,-2.7890199,114.2293274,https://maps.google.com/?cid=0x0:0xe2d977d35478e373,
perumahan,Pembangunan Perumahan,2R,"Jl. Panunjung Tarung Gang Lusian No.137, Pulang Pisau, Kec. Kahayan Hilir, Kabupaten Pulang Pisau, Kalimantan Tengah 74811","Pulang Pisau, Kec. Kahayan Hilir, Kabupaten Pulang Pisau",KALIMANTAN TENGAH,74811.0,Indonesia,,,,-2.7523066,114.2627467,https://maps.google.com/?cid=0x0:0xf5ac03d87ae50cf7,
perumahan,Pembangunan Perumahan,komplek perumahan surya darma,"Unnamed Road, Mantaren I, Kec. Kahayan Hilir, Kabupaten Pulang Pisau, Kalimantan Tengah 73564","Mantaren I, Kec. Kahayan Hilir, Kabupaten Pulang Pisau",KALIMANTAN TENGAH,73564.0,Indonesia, 081289367063,,,-2.7971485,114.2663034,https://maps.google.com/?cid=0x0:0x63b0f2a9ed0c8e23,
perumahan,Pembangunan Perumahan,Komplek Green Asas B46,"67C8+GQP, Mantaren I, Kec. Kahayan Hilir, Kabupaten Pulang Pisau, Kalimantan Tengah 73564","Mantaren I, Kec. Kahayan Hilir, Kabupaten Pulang Pisau",KALIMANTAN TENGAH,73564.0,Indonesia,,,,-2.778657,114.2669414,https://maps.google.com/?cid=0x0:0x4ef96bf49a9a5aea,
perumahan,Pembangunan Perumahan,Tapaka ngawa palawi,"66JQ+9H4, Mantaren I, Kec. Kahayan Hilir, Kabupaten Pulang Pisau, Kalimantan Tengah 74873","Mantaren I, Kec. Kahayan Hilir, Kabupaten Pulang Pisau",KALIMANTAN TENGAH,74873.0,Indonesia,,,,-2.7691025,114.2389628,https://maps.google.com/?cid=0x0:0x8fd29c4913bd06c1,
perumahan,Perumahan,Aknes,"67CC+JQ2, Jl. Rey II, Mantaren I, Kec. Kahayan Hilir, Kabupaten Pulang Pisau, Kalimantan Tengah 73564","Jl. Rey II, Mantaren I, Kec. Kahayan Hilir, Kabupaten Pulang Pisau",KALIMANTAN TENGAH,73564.0,Indonesia,,,,-2.7784956,114.2718775,https://maps.google.com/?cid=0x0:0xc2997f51e7fe0e9c,
perumahan,Komplek perumahan,Rumah Dinas Kadinkes Pulang Pisau,"7735+8FX, Jl. Tingang Menteng, Pulang Pisau, Kec. Kahayan Hilir, Kabupaten Pulang Pisau, Kalimantan Tengah 73564","Jl. Tingang Menteng, Pulang Pisau, Kec. Kahayan Hilir, Kabupaten Pulang Pisau",KALIMANTAN TENGAH,73564.0,Indonesia,,,,-2.7466396,114.2587767,https://maps.google.com/?cid=0x0:0x2a6b1679fe62f262,
perumahan,Komplek perumahan,komplek perumahan depag,"jalan wad.duha perkantoran, Mantaren I, Jl. Oberlin Metar No.1, Pulang Pisau, Kec. Kahayan Hilir, Kabupaten Pulang Pisau, Kalimantan Tengah 73564","Mantaren I, Jl. Oberlin Metar No.1, Pulang Pisau, Kec. Kahayan Hilir, Kabupaten Pulang Pisau",KALIMANTAN TENGAH,73564.0,Indonesia, 085350077879,,,-2.758241,114.2657969,https://maps.google.com/?cid=0x0:0x7233a84ba5a8a47d,
perumahan,Pembangunan Perumahan,Home Pulpis,"Unnamed Road, Mantaren I, Kahayan Hilir, Pulang Pisau Regency, Central Kalimantan 73564","Mantaren I, Kahayan Hilir, Pulang Pisau Regency",KALIMANTAN TENGAH,73564.0,Indonesia,,,,-2.7788848,114.2667824,https://maps.google.com/?cid=0x0:0xd4e78c431566219e,
perumahan,Komplek perumahan,Perumahan Alfi Logam,"57X4+958, Mantaren I, Kec. Kahayan Hilir, Kabupaten Pulang Pisau, Kalimantan Tengah 73564","Mantaren I, Kec. Kahayan Hilir, Kabupaten Pulang Pisau",KALIMANTAN TENGAH,73564.0,Indonesia,,,,-2.801593,114.2554445,https://maps.google.com/?cid=0x0:0x6064838867f87251,
perumahan,perumahan,Jhery Indriano,"Jl. Lintas Kalimantan No.48, Palangka, Kec. Kahayan Hilir, Kota Palangka Raya, Kalimantan Tengah","Kota Palangka Raya, Kalimantan Tengah",KALIMANTAN TENGAH,,Indonesia,,,,-2.7688048,114.283433,https://maps.google.com/?cid=0x0:0xe991832b1deaf0d9,
perumahan,perumahan,Tanah atas nama marwan,"jalan hantasan raya No.35, RT.10, Pulang Pisau, Kec. Kahayan Hilir, Kabupaten Pulang Pisau, Kalimantan Tengah 73564","RT.10, Pulang Pisau, Kec. Kahayan Hilir, Kabupaten Pulang Pisau",KALIMANTAN TENGAH,73564.0,Indonesia,,,,-2.7509247,114.2659021,https://maps.google.com/?cid=0x0:0x9c7ff145d10a77bd,
perumahan,Komplek perumahan,RUMAH PAK DHE TARA,"68X4+57V, Anjir Pulang Pisau, Kec. Kahayan Hilir, Kabupaten Pulang Pisau, Kalimantan Tengah 73564","Anjir Pulang Pisau, Kec. Kahayan Hilir, Kabupaten Pulang Pisau",KALIMANTAN TENGAH,73564.0,Indonesia,,,,-2.752097,114.306633,https://maps.google.com/?cid=0x0:0x29ebc8eefe75d63,
perumahan,Komplek perumahan,Perumahan depag,"6737+HV5, Mantaren I, Kec. Kahayan Hilir, Kabupaten Pulang Pisau, Kalimantan Tengah","Kabupaten Pulang Pisau, Kalimantan Tengah",KALIMANTAN TENGAH,,Indonesia,,,,-2.7961226,114.2647261,https://maps.google.com/?cid=0x0:0x26867d9bb4ddf94e,
perumahan,Komplek perumahan,Rumah Keluarga Bapa Vina,"7773+WR2, Kalawa, Kec. Kahayan Hilir, Kabupaten Pulang Pisau, Kalimantan Tengah 73564","Kalawa, Kec. Kahayan Hilir, Kabupaten Pulang Pisau",KALIMANTAN TENGAH,73564.0,Indonesia, 082255624038,,,-2.7352418,114.2545116,https://maps.google.com/?cid=0x0:0x93a338046c07d27e,
perumahan,Komplek perumahan,Rumah BP Nely,"7774+568, Kalawa, Kec. Kahayan Hilir, Kabupaten Pulang Pisau, Kalimantan Tengah 73564","Kalawa, Kec. Kahayan Hilir, Kabupaten Pulang Pisau",KALIMANTAN TENGAH,73564.0,Indonesia,,,,-2.7370786,114.2555947,https://maps.google.com/?cid=0x0:0xd3ba90096bb8dbb2,
perumahan,Pembangunan Perumahan,Frantika P.D,"56R2+RQ9, Buntoi, Kec. Kahayan Hilir, Kabupaten Pulang Pisau, Kalimantan Tengah 74873","Buntoi, Kec. Kahayan Hilir, Kabupaten Pulang Pisau",KALIMANTAN TENGAH,74873.0,Indonesia,,,,-2.8079676,114.2019812,https://maps.google.com/?cid=0x0:0x20544fa0857b0c27,
perumahan,Pembangunan Perumahan,Perumahan Palm Indah Lestari,"Jl. Tulungagung Rey 6, Mantaren II, Kec. Kahayan Hilir, Kabupaten Pulang Pisau, Kalimantan Tengah 73564","Mantaren II, Kec. Kahayan Hilir, Kabupaten Pulang Pisau",KALIMANTAN TENGAH,73564.0,Indonesia, 082327694700,,,-2.8048008,114.2446755,https://maps.google.com/?cid=0x0:0x17e2a607646fe2e4,
perumahan,Pembangunan Perumahan,Rumah Aditia Pebrian,"7798+845, Bereng, Kec. Kahayan Hilir, Kabupaten Pulang Pisau, Kalimantan Tengah 73564","Bereng, Kec. Kahayan Hilir, Kabupaten Pulang Pisau",KALIMANTAN TENGAH,73564.0,Indonesia,,,,-2.7317455,114.2653448,https://maps.google.com/?cid=0x0:0x8e9b6a31bdf4b896,
perumahan,Kantor Pemerintah,Kelurahan Kalawa RT 005,"7773+VQC, Kalawa, Kec. Kahayan Hilir, Kabupaten Pulang Pisau, Kalimantan Tengah 73564","Kalawa, Kec. Kahayan Hilir, Kabupaten Pulang Pisau",KALIMANTAN TENGAH,73564.0,Indonesia, 085752514687,,,-2.7353229,114.2543927,https://maps.google.com/?cid=0x0:0xde7ced8b1664abea,
perumahan,perumahan,Kec. Kahayan Hilir,"Kabupaten Pulang Pisau, Kalimantan Tengah","Kabupaten Pulang Pisau, Kalimantan Tengah",KALIMANTAN TENGAH,,Indonesia,,,,-2.7914682,114.262235,https://maps.google.com/?cid=0x0:0x7f1583868799e28e,
perumahan,Pembangunan Perumahan,Perumahan Griya Sahabat,"6767+JM5, Mantaren I, Kec. Kahayan Hilir, Kabupaten Pulang Pisau, Kalimantan Tengah 73564","Mantaren I, Kec. Kahayan Hilir, Kabupaten Pulang Pisau",KALIMANTAN TENGAH,73564.0,Indonesia,,,,-2.7884835,114.2642303,https://maps.google.com/?cid=0x0:0x4ff05dc51735c679,
perumahan,Pembangunan Perumahan,Perumahan Kahayan Permai,"67PJ+99G, Anjir Pulang Pisau, Kec. Kahayan Hilir, Kabupaten Pulang Pisau, Kalimantan Tengah 73564","Anjir Pulang Pisau, Kec. Kahayan Hilir, Kabupaten Pulang Pisau",KALIMANTAN TENGAH,73564.0,Indonesia,,,,-2.7640527,114.2809512,https://maps.google.com/?cid=0x0:0xe969cbc8ae68ab83,
perumahan,Pembangunan Perumahan,Komplek Perumahan Pulang Pisau Permai,"6788+XJ8, Mantaren I, Kec. Kahayan Hilir, Kabupaten Pulang Pisau, Kalimantan Tengah 73564","Mantaren I, Kec. Kahayan Hilir, Kabupaten Pulang Pisau",KALIMANTAN TENGAH,73564.0,Indonesia, 082338307227,,,-2.7825961,114.2665757,https://maps.google.com/?cid=0x0:0x7f011903e4fafc2d,
perumahan,Pembangunan Perumahan,Komplek Green Asas B46,"67C8+GQP, Mantaren I, Kec. Kahayan Hilir, Kabupaten Pulang Pisau, Kalimantan Tengah 73564","Mantaren I, Kec. Kahayan Hilir, Kabupaten Pulang Pisau",KALIMANTAN TENGAH,73564.0,Indonesia,,,,-2.778657,114.2669414,https://maps.google.com/?cid=0x0:0x4ef96bf49a9a5aea,
perumahan,Komplek perumahan,RUMAH SLR,"7767+9VW, Bereng, Kec. Kahayan Hilir, Kabupaten Pulang Pisau, Kalimantan Tengah 73564","Bereng, Kec. Kahayan Hilir, Kabupaten Pulang Pisau",KALIMANTAN TENGAH,73564.0,Indonesia,,,,-2.7391643,114.2637357,https://maps.google.com/?cid=0x0:0x871f28516bdf3033,
perumahan,Pembangunan Perumahan,Komplek MARINA PERMAI PULANG PISAU,"67FF+6FG, Komplek Marina Permai Jalan Abei Gawei, Mantaren I, Kec. Kahayan Hilir, Kabupaten Pulang Pisau, Kalimantan Tengah 73564","Komplek Marina Permai Jalan Abei Gawei, Mantaren I, Kec. Kahayan Hilir, Kabupaten Pulang Pisau",KALIMANTAN TENGAH,73564.0,Indonesia,,,,-2.7769346,114.2736988,https://maps.google.com/?cid=0x0:0xeb2e39be51da2068,
perumahan,Komplek perumahan,Rumah Keluarga Bapa Vina,"7773+WR2, Kalawa, Kec. Kahayan Hilir, Kabupaten Pulang Pisau, Kalimantan Tengah 73564","Kalawa, Kec. Kahayan Hilir, Kabupaten Pulang Pisau",KALIMANTAN TENGAH,73564.0,Indonesia, 082255624038,,,-2.7352418,114.2545116,https://maps.google.com/?cid=0x0:0x93a338046c07d27e,
perumahan,Perumahan,Aknes,"67CC+JQ2, Jl. Rey II, Mantaren I, Kec. Kahayan Hilir, Kabupaten Pulang Pisau, Kalimantan Tengah 73564","Jl. Rey II, Mantaren I, Kec. Kahayan Hilir, Kabupaten Pulang Pisau",KALIMANTAN TENGAH,73564.0,Indonesia,,,,-2.7784956,114.2718775,https://maps.google.com/?cid=0x0:0xc2997f51e7fe0e9c,
perumahan,Pembangunan Perumahan,2R,"Jl. Panunjung Tarung Gang Lusian No.137, Pulang Pisau, Kec. Kahayan Hilir, Kabupaten Pulang Pisau, Kalimantan Tengah 74811","Pulang Pisau, Kec. Kahayan Hilir, Kabupaten Pulang Pisau",KALIMANTAN TENGAH,74811.0,Indonesia,,,,-2.7523066,114.2627467,https://maps.google.com/?cid=0x0:0xf5ac03d87ae50cf7,
perumahan,Komplek perumahan,home,"67J6+622, Jl. Rey II, Mantaren I, Kec. Kahayan Hilir, Kabupaten Pulang Pisau, Kalimantan Tengah 73564","Jl. Rey II, Mantaren I, Kec. Kahayan Hilir, Kabupaten Pulang Pisau",KALIMANTAN TENGAH,73564.0,Indonesia,,,,-2.7694928,114.2600117,https://maps.google.com/?cid=0x0:0x4f7996773c8a9d71,
perumahan,Komplek perumahan,Rumah Dinas Kadinkes Pulang Pisau,"7735+8FX, Jl. Tingang Menteng, Pulang Pisau, Kec. Kahayan Hilir, Kabupaten Pulang Pisau, Kalimantan Tengah 73564","Jl. Tingang Menteng, Pulang Pisau, Kec. Kahayan Hilir, Kabupaten Pulang Pisau",KALIMANTAN TENGAH,73564.0,Indonesia,,,,-2.7466396,114.2587767,https://maps.google.com/?cid=0x0:0x2a6b1679fe62f262,
perumahan,Komplek perumahan,Rumah Rafan/agus,"666H+9PW, Mantaren I, Kec. Kahayan Hilir, Kabupaten Pulang Pisau, Kalimantan Tengah","Kabupaten Pulang Pisau, Kalimantan Tengah",KALIMANTAN TENGAH,,Indonesia,,,,-2.7890199,114.2293274,https://maps.google.com/?cid=0x0:0xe2d977d35478e373,
perumahan,Pembangunan Perumahan,Home Pulpis,"Unnamed Road, Mantaren I, Kahayan Hilir, Pulang Pisau Regency, Central Kalimantan 73564","Mantaren I, Kahayan Hilir, Pulang Pisau Regency",KALIMANTAN TENGAH,73564.0,Indonesia,,,,-2.7788848,114.2667824,https://maps.google.com/?cid=0x0:0xd4e78c431566219e,
perumahan,Pembangunan Perumahan,La Casa de Gwyn,"67F9+5HJ Perum. Green Asas Residence No. B50, Jl. Rey II, Mantaren II, Kec. Kahayan Hilir, Kabupaten Pulang Pisau, Kalimantan Tengah 73564","Jl. Rey II, Mantaren II, Kec. Kahayan Hilir, Kabupaten Pulang Pisau",KALIMANTAN TENGAH,73564.0,Indonesia,,,,-2.7770412,114.2688977,https://maps.google.com/?cid=0x0:0xf0d8c0838712e16e,
perumahan,Komplek perumahan,komplek perumahan depag,"jalan wad.duha perkantoran, Mantaren I, Jl. Oberlin Metar No.1, Pulang Pisau, Kec. Kahayan Hilir, Kabupaten Pulang Pisau, Kalimantan Tengah 73564","Mantaren I, Jl. Oberlin Metar No.1, Pulang Pisau, Kec. Kahayan Hilir, Kabupaten Pulang Pisau",KALIMANTAN TENGAH,73564.0,Indonesia, 085350077879,,,-2.758241,114.2657969,https://maps.google.com/?cid=0x0:0x7233a84ba5a8a47d,
perumahan,perumahan,Tanah atas nama marwan,"jalan hantasan raya No.35, RT.10, Pulang Pisau, Kec. Kahayan Hilir, Kabupaten Pulang Pisau, Kalimantan Tengah 73564","RT.10, Pulang Pisau, Kec. Kahayan Hilir, Kabupaten Pulang Pisau",KALIMANTAN TENGAH,73564.0,Indonesia,,,,-2.7509247,114.2659021,https://maps.google.com/?cid=0x0:0x9c7ff145d10a77bd,
perumahan,Komplek perumahan,Perumahan Alfi Logam,"57X4+958, Mantaren I, Kec. Kahayan Hilir, Kabupaten Pulang Pisau, Kalimantan Tengah 73564","Mantaren I, Kec. Kahayan Hilir, Kabupaten Pulang Pisau",KALIMANTAN TENGAH,73564.0,Indonesia,,,,-2.801593,114.2554445,https://maps.google.com/?cid=0x0:0x6064838867f87251,
perumahan,Komplek perumahan,RUMAH PAK DHE TARA,"68X4+57V, Anjir Pulang Pisau, Kec. Kahayan Hilir, Kabupaten Pulang Pisau, Kalimantan Tengah 73564","Anjir Pulang Pisau, Kec. Kahayan Hilir, Kabupaten Pulang Pisau",KALIMANTAN TENGAH,73564.0,Indonesia,,,,-2.752097,114.306633,https://maps.google.com/?cid=0x0:0x29ebc8eefe75d63,
perumahan,Pembangunan Perumahan,Tapaka ngawa palawi,"66JQ+9H4, Mantaren I, Kec. Kahayan Hilir, Kabupaten Pulang Pisau, Kalimantan Tengah 74873","Mantaren I, Kec. Kahayan Hilir, Kabupaten Pulang Pisau",KALIMANTAN TENGAH,74873.0,Indonesia,,,,-2.7691025,114.2389628,https://maps.google.com/?cid=0x0:0x8fd29c4913bd06c1,
perumahan,Perhimpunan Pengembang Perumahan,anjir pulang pisau,"678G+PM2, Anjir Pulang Pisau, Kec. Kahayan Hilir, Kabupaten Pulang Pisau, Kalimantan Tengah","Kabupaten Pulang Pisau, Kalimantan Tengah",KALIMANTAN TENGAH,,Indonesia,,,,-2.7832457,114.2766503,https://maps.google.com/?cid=0x0:0xdbb0cb113361bfa3,
perumahan,perumahan,Jhery Indriano,"Jl. Lintas Kalimantan No.48, Palangka, Kec. Kahayan Hilir, Kota Palangka Raya, Kalimantan Tengah","Kota Palangka Raya, Kalimantan Tengah",KALIMANTAN TENGAH,,Indonesia,,,,-2.7688048,114.283433,https://maps.google.com/?cid=0x0:0xe991832b1deaf0d9,
perumahan,Pembangunan Perumahan,komplek perumahan surya darma,"Unnamed Road, Mantaren I, Kec. Kahayan Hilir, Kabupaten Pulang Pisau, Kalimantan Tengah 73564","Mantaren I, Kec. Kahayan Hilir, Kabupaten Pulang Pisau",KALIMANTAN TENGAH,73564.0,Indonesia, 081289367063,,,-2.7971485,114.2663034,https://maps.google.com/?cid=0x0:0x63b0f2a9ed0c8e23,
perumahan,Komplek perumahan,Rumah BP Nely,"7774+568, Kalawa, Kec. Kahayan Hilir, Kabupaten Pulang Pisau, Kalimantan Tengah 73564","Kalawa, Kec. Kahayan Hilir, Kabupaten Pulang Pisau",KALIMANTAN TENGAH,73564.0,Indonesia,,,,-2.7370786,114.2555947,https://maps.google.com/?cid=0x0:0xd3ba90096bb8dbb2,
perumahan,Pembangunan Perumahan,Kurnia tri Widiyastuti,"68W9+X9R, Desa hanjak maju, Kec. Kahayan Hilir, Kabupaten Pulang Pisau, Kalimantan Tengah 73564","Desa hanjak maju, Kec. Kahayan Hilir, Kabupaten Pulang Pisau",KALIMANTAN TENGAH,73564.0,Indonesia,,,,-2.7525242,114.3183868,https://maps.google.com/?cid=0x0:0xe31fa5b43a96219e,
perumahan,Pembangunan Perumahan,Frantika P.D,"56R2+RQ9, Buntoi, Kec. Kahayan Hilir, Kabupaten Pulang Pisau, Kalimantan Tengah 74873","Buntoi, Kec. Kahayan Hilir, Kabupaten Pulang Pisau",KALIMANTAN TENGAH,74873.0,Indonesia,,,,-2.8079676,114.2019812,https://maps.google.com/?cid=0x0:0x20544fa0857b0c27,
perumahan,Pembangunan Perumahan,Perumahan Palm Indah Lestari,"Jl. Tulungagung Rey 6, Mantaren II, Kec. Kahayan Hilir, Kabupaten Pulang Pisau, Kalimantan Tengah 73564","Mantaren II, Kec. Kahayan Hilir, Kabupaten Pulang Pisau",KALIMANTAN TENGAH,73564.0,Indonesia, 082327694700,,,-2.8048008,114.2446755,https://maps.google.com/?cid=0x0:0x17e2a607646fe2e4,
perumahan,Pembangunan Perumahan,Rumah Aditia Pebrian,"7798+845, Bereng, Kec. Kahayan Hilir, Kabupaten Pulang Pisau, Kalimantan Tengah 73564","Bereng, Kec. Kahayan Hilir, Kabupaten Pulang Pisau",KALIMANTAN TENGAH,73564.0,Indonesia,,,,-2.7317455,114.2653448,https://maps.google.com/?cid=0x0:0x8e9b6a31bdf4b896,
perumahan,Komplek perumahan,SantanG,"7774+568, Kalawa, Kec. Kahayan Hilir, Kabupaten Pulang Pisau, Kalimantan Tengah 73564","Kalawa, Kec. Kahayan Hilir, Kabupaten Pulang Pisau",KALIMANTAN TENGAH,73564.0,Indonesia,,,,-2.7370472,114.2562427,https://maps.google.com/?cid=0x0:0xbb003ec872929b82,
perumahan,perumahan,Kec. Kahayan Hilir,"Kabupaten Pulang Pisau, Kalimantan Tengah","Kabupaten Pulang Pisau, Kalimantan Tengah",KALIMANTAN TENGAH,,Indonesia,,,,-2.7914682,114.262235,https://maps.google.com/?cid=0x0:0x7f1583868799e28e,
perumahan,Pembangunan Perumahan,Perumahan Kahayan Permai,"67PJ+99G, Anjir Pulang Pisau, Kec. Kahayan Hilir, Kabupaten Pulang Pisau, Kalimantan Tengah 73564","Anjir Pulang Pisau, Kec. Kahayan Hilir, Kabupaten Pulang Pisau",KALIMANTAN TENGAH,73564.0,Indonesia,,,,-2.7640527,114.2809512,https://maps.google.com/?cid=0x0:0xe969cbc8ae68ab83,
perumahan,Pembangunan Perumahan,Komplek Perumahan Pulang Pisau Permai,"6788+XJ8, Mantaren I, Kec. Kahayan Hilir, Kabupaten Pulang Pisau, Kalimantan Tengah 73564","Mantaren I, Kec. Kahayan Hilir, Kabupaten Pulang Pisau",KALIMANTAN TENGAH,73564.0,Indonesia, 082338307227,,,-2.7825961,114.2665757,https://maps.google.com/?cid=0x0:0x7f011903e4fafc2d,
perumahan,Komplek perumahan,RUMAH SLR,"7767+9VW, Bereng, Kec. Kahayan Hilir, Kabupaten Pulang Pisau, Kalimantan Tengah 73564","Bereng, Kec. Kahayan Hilir, Kabupaten Pulang Pisau",KALIMANTAN TENGAH,73564.0,Indonesia,,,,-2.7391643,114.2637357,https://maps.google.com/?cid=0x0:0x871f28516bdf3033,
perumahan,Pembangunan Perumahan,Komplek MARINA PERMAI PULANG PISAU,"67FF+6FG, Komplek Marina Permai Jalan Abei Gawei, Mantaren I, Kec. Kahayan Hilir, Kabupaten Pulang Pisau, Kalimantan Tengah 73564","Komplek Marina Permai Jalan Abei Gawei, Mantaren I, Kec. Kahayan Hilir, Kabupaten Pulang Pisau",KALIMANTAN TENGAH,73564.0,Indonesia,,,,-2.7769346,114.2736988,https://maps.google.com/?cid=0x0:0xeb2e39be51da2068,
perumahan,Pembangunan Perumahan,Perum. Green Asas Residence,"67F9+5HJ, Jl. Rey II, Mantaren I, Kec. Kahayan Hilir, Kabupaten Pulang Pisau, Kalimantan Tengah 73564","Jl. Rey II, Mantaren I, Kec. Kahayan Hilir, Kabupaten Pulang Pisau",KALIMANTAN TENGAH,73564.0,Indonesia, 082153602045,,,-2.7770412,114.2688977,https://maps.google.com/?cid=0x0:0xff4335c4b6212154,
perumahan,Komplek perumahan,home,"67J6+622, Jl. Rey II, Mantaren I, Kec. Kahayan Hilir, Kabupaten Pulang Pisau, Kalimantan Tengah 73564","Jl. Rey II, Mantaren I, Kec. Kahayan Hilir, Kabupaten Pulang Pisau",KALIMANTAN TENGAH,73564.0,Indonesia,,,,-2.7694928,114.2600117,https://maps.google.com/?cid=0x0:0x4f7996773c8a9d71,
perumahan,Pembangunan Perumahan,Home Pulpis,"Unnamed Road, Mantaren I, Kahayan Hilir, Pulang Pisau Regency, Central Kalimantan 73564","Mantaren I, Kahayan Hilir, Pulang Pisau Regency",KALIMANTAN TENGAH,73564.0,Indonesia,,,,-2.7788848,114.2667824,https://maps.google.com/?cid=0x0:0xd4e78c431566219e,
perumahan,Pembangunan Perumahan,Komplek Green Asas B46,"67C8+GQP, Mantaren I, Kec. Kahayan Hilir, Kabupaten Pulang Pisau, Kalimantan Tengah 73564","Mantaren I, Kec. Kahayan Hilir, Kabupaten Pulang Pisau",KALIMANTAN TENGAH,73564.0,Indonesia,,,,-2.778657,114.2669414,https://maps.google.com/?cid=0x0:0x4ef96bf49a9a5aea,
perumahan,Pembangunan Perumahan,2R,"Jl. Panunjung Tarung Gang Lusian No.137, Pulang Pisau, Kec. Kahayan Hilir, Kabupaten Pulang Pisau, Kalimantan Tengah 74811","Pulang Pisau, Kec. Kahayan Hilir, Kabupaten Pulang Pisau",KALIMANTAN TENGAH,74811.0,Indonesia,,,,-2.7523066,114.2627467,https://maps.google.com/?cid=0x0:0xf5ac03d87ae50cf7,
perumahan,Perumahan,Aknes,"67CC+JQ2, Jl. Rey II, Mantaren I, Kec. Kahayan Hilir, Kabupaten Pulang Pisau, Kalimantan Tengah 73564","Jl. Rey II, Mantaren I, Kec. Kahayan Hilir, Kabupaten Pulang Pisau",KALIMANTAN TENGAH,73564.0,Indonesia,,,,-2.7784956,114.2718775,https://maps.google.com/?cid=0x0:0xc2997f51e7fe0e9c,
perumahan,Komplek perumahan,Rumah Rafan/agus,"666H+9PW, Mantaren I, Kec. Kahayan Hilir, Kabupaten Pulang Pisau, Kalimantan Tengah","Kabupaten Pulang Pisau, Kalimantan Tengah",KALIMANTAN TENGAH,,Indonesia,,,,-2.7890199,114.2293274,https://maps.google.com/?cid=0x0:0xe2d977d35478e373,
perumahan,Pembangunan Perumahan,Tapaka ngawa palawi,"66JQ+9H4, Mantaren I, Kec. Kahayan Hilir, Kabupaten Pulang Pisau, Kalimantan Tengah 74873","Mantaren I, Kec. Kahayan Hilir, Kabupaten Pulang Pisau",KALIMANTAN TENGAH,74873.0,Indonesia,,,,-2.7691025,114.2389628,https://maps.google.com/?cid=0x0:0x8fd29c4913bd06c1,
perumahan,Kantor Perusahaan,Blok 21 - Surya Darma,"6747+2QC, Mantaren I, Kec. Kahayan Hilir, Kabupaten Pulang Pisau, Kalimantan Tengah 73564","Mantaren I, Kec. Kahayan Hilir, Kabupaten Pulang Pisau",KALIMANTAN TENGAH,73564.0,Indonesia,,,,-2.794949,114.2643926,https://maps.google.com/?cid=0x0:0xafd4cda4ba9527fe,
perumahan,Komplek perumahan,Rumah Dinas Kadinkes Pulang Pisau,"7735+8FX, Jl. Tingang Menteng, Pulang Pisau, Kec. Kahayan Hilir, Kabupaten Pulang Pisau, Kalimantan Tengah 73564","Jl. Tingang Menteng, Pulang Pisau, Kec. Kahayan Hilir, Kabupaten Pulang Pisau",KALIMANTAN TENGAH,73564.0,Indonesia,,,,-2.7466396,114.2587767,https://maps.google.com/?cid=0x0:0x2a6b1679fe62f262,
perumahan,Komplek perumahan,komplek perumahan depag,"jalan wad.duha perkantoran, Mantaren I, Jl. Oberlin Metar No.1, Pulang Pisau, Kec. Kahayan Hilir, Kabupaten Pulang Pisau, Kalimantan Tengah 73564","Mantaren I, Jl. Oberlin Metar No.1, Pulang Pisau, Kec. Kahayan Hilir, Kabupaten Pulang Pisau",KALIMANTAN TENGAH,73564.0,Indonesia, 085350077879,,,-2.758241,114.2657969,https://maps.google.com/?cid=0x0:0x7233a84ba5a8a47d,
perumahan,Perhimpunan Pengembang Perumahan,Tanah,"67FM+M8, Anjir Pulang Pisau, Kec. Kahayan Hilir, Kabupaten Pulang Pisau, Kalimantan Tengah","Kabupaten Pulang Pisau, Kalimantan Tengah",KALIMANTAN TENGAH,,Indonesia,,,,-2.7758507,114.2833632,https://maps.google.com/?cid=0x0:0xe4a2d7219d69abf,
perumahan,Perhimpunan Pengembang Perumahan,Sri,"67QJ+J4G, Jl. Darung Bawan, Anjir Pulang Pisau, Kec. Kahayan Hilir, Kabupaten Pulang Pisau, Kalimantan Tengah 73564","Jl. Darung Bawan, Anjir Pulang Pisau, Kec. Kahayan Hilir, Kabupaten Pulang Pisau",KALIMANTAN TENGAH,73564.0,Indonesia,,,,-2.7608291,114.2802862,https://maps.google.com/?cid=0x0:0x1ce99b78b47243c2,
perumahan,perumahan,Tanah atas nama marwan,"jalan hantasan raya No.35, RT.10, Pulang Pisau, Kec. Kahayan Hilir, Kabupaten Pulang Pisau, Kalimantan Tengah 73564","RT.10, Pulang Pisau, Kec. Kahayan Hilir, Kabupaten Pulang Pisau",KALIMANTAN TENGAH,73564.0,Indonesia,,,,-2.7509247,114.2659021,https://maps.google.com/?cid=0x0:0x9c7ff145d10a77bd,
perumahan,Perhimpunan Pengembang Perumahan,anjir pulang pisau,"678G+PM2, Anjir Pulang Pisau, Kec. Kahayan Hilir, Kabupaten Pulang Pisau, Kalimantan Tengah","Kabupaten Pulang Pisau, Kalimantan Tengah",KALIMANTAN TENGAH,,Indonesia,,,,-2.7832457,114.2766503,https://maps.google.com/?cid=0x0:0xdbb0cb113361bfa3,
perumahan,Pembangunan Perumahan,komplek perumahan surya darma,"Unnamed Road, Mantaren I, Kec. Kahayan Hilir, Kabupaten Pulang Pisau, Kalimantan Tengah 73564","Mantaren I, Kec. Kahayan Hilir, Kabupaten Pulang Pisau",KALIMANTAN TENGAH,73564.0,Indonesia, 081289367063,,,-2.7971485,114.2663034,https://maps.google.com/?cid=0x0:0x63b0f2a9ed0c8e23,
perumahan,Komplek perumahan,Rumah Keluarga Bapa Vina,"7773+WR2, Kalawa, Kec. Kahayan Hilir, Kabupaten Pulang Pisau, Kalimantan Tengah 73564","Kalawa, Kec. Kahayan Hilir, Kabupaten Pulang Pisau",KALIMANTAN TENGAH,73564.0,Indonesia, 082255624038,,,-2.7352418,114.2545116,https://maps.google.com/?cid=0x0:0x93a338046c07d27e,
perumahan,perumahan,Jhery Indriano,"Jl. Lintas Kalimantan No.48, Palangka, Kec. Kahayan Hilir, Kota Palangka Raya, Kalimantan Tengah","Kota Palangka Raya, Kalimantan Tengah",KALIMANTAN TENGAH,,Indonesia,,,,-2.7688048,114.283433,https://maps.google.com/?cid=0x0:0xe991832b1deaf0d9,
perumahan,Komplek perumahan,Rumah BP Nely,"7774+568, Kalawa, Kec. Kahayan Hilir, Kabupaten Pulang Pisau, Kalimantan Tengah 73564","Kalawa, Kec. Kahayan Hilir, Kabupaten Pulang Pisau",KALIMANTAN TENGAH,73564.0,Indonesia,,,,-2.7370786,114.2555947,https://maps.google.com/?cid=0x0:0xd3ba90096bb8dbb2,
perumahan,Komplek perumahan,RUMAH PAK DHE TARA,"68X4+57V, Anjir Pulang Pisau, Kec. Kahayan Hilir, Kabupaten Pulang Pisau, Kalimantan Tengah 73564","Anjir Pulang Pisau, Kec. Kahayan Hilir, Kabupaten Pulang Pisau",KALIMANTAN TENGAH,73564.0,Indonesia,,,,-2.752097,114.306633,https://maps.google.com/?cid=0x0:0x29ebc8eefe75d63,
perumahan,Pembangunan Perumahan,Perumahan Palm Indah Lestari,"Jl. Tulungagung Rey 6, Mantaren II, Kec. Kahayan Hilir, Kabupaten Pulang Pisau, Kalimantan Tengah 73564","Mantaren II, Kec. Kahayan Hilir, Kabupaten Pulang Pisau",KALIMANTAN TENGAH,73564.0,Indonesia, 082327694700,,,-2.8048008,114.2446755,https://maps.google.com/?cid=0x0:0x17e2a607646fe2e4,
perumahan,Pembangunan Perumahan,Rumah Aditia Pebrian,"7798+845, Bereng, Kec. Kahayan Hilir, Kabupaten Pulang Pisau, Kalimantan Tengah 73564","Bereng, Kec. Kahayan Hilir, Kabupaten Pulang Pisau",KALIMANTAN TENGAH,73564.0,Indonesia,,,,-2.7317455,114.2653448,https://maps.google.com/?cid=0x0:0x8e9b6a31bdf4b896,
perumahan,Pembangunan Perumahan,Kurnia tri Widiyastuti,"68W9+X9R, Desa hanjak maju, Kec. Kahayan Hilir, Kabupaten Pulang Pisau, Kalimantan Tengah 73564","Desa hanjak maju, Kec. Kahayan Hilir, Kabupaten Pulang Pisau",KALIMANTAN TENGAH,73564.0,Indonesia,,,,-2.7525242,114.3183868,https://maps.google.com/?cid=0x0:0xe31fa5b43a96219e,
perumahan,Pembangunan Perumahan,Frantika P.D,"56R2+RQ9, Buntoi, Kec. Kahayan Hilir, Kabupaten Pulang Pisau, Kalimantan Tengah 74873","Buntoi, Kec. Kahayan Hilir, Kabupaten Pulang Pisau",KALIMANTAN TENGAH,74873.0,Indonesia,,,,-2.8079676,114.2019812,https://maps.google.com/?cid=0x0:0x20544fa0857b0c27,
perumahan,perumahan,Kalimantan Tengah 74861,"Kec. Kahayan Hilir, Kabupaten Pulang Pisau, Kalimantan Tengah","Kabupaten Pulang Pisau, Kalimantan Tengah",KALIMANTAN TENGAH,,Indonesia,,,,-2.6258092,114.1677159,https://maps.google.com/?cid=0x0:0xa561bda05dfda1b5,
perumahan,Pembangunan Perumahan,komplek perumahan surya darma,"Unnamed Road, Mantaren I, Kec. Kahayan Hilir, Kabupaten Pulang Pisau, Kalimantan Tengah 73564","Mantaren I, Kec. Kahayan Hilir, Kabupaten Pulang Pisau",KALIMANTAN TENGAH,73564.0,Indonesia, 081289367063,,,-2.7971485,114.2663034,https://maps.google.com/?cid=0x0:0x63b0f2a9ed0c8e23,
perumahan,Komplek perumahan,fitriansyah,"86VP+8V2, Jl. Trans - Kalimantan, Gohong, Kec. Kahayan Hilir, Kabupaten Pulang Pisau, Kalimantan Tengah 74816","Jl. Trans - Kalimantan, Gohong, Kec. Kahayan Hilir, Kabupaten Pulang Pisau",KALIMANTAN TENGAH,74816.0,Indonesia, 081250507931,,,-2.656739,114.237134,https://maps.google.com/?cid=0x0:0xdad81a57a4cd51f8,
perumahan,Pembangunan Perumahan,Rumah Aditia Pebrian,"7798+845, Bereng, Kec. Kahayan Hilir, Kabupaten Pulang Pisau, Kalimantan Tengah 73564","Bereng, Kec. Kahayan Hilir, Kabupaten Pulang Pisau",KALIMANTAN TENGAH,73564.0,Indonesia,,,,-2.7317455,114.2653448,https://maps.google.com/?cid=0x0:0x8e9b6a31bdf4b896,
perumahan,Restoran,WARUNG REZA,"879G+65Q, Gohong, Kec. Kahayan Hilir, Kabupaten Pulang Pisau, Kalimantan Tengah 74816","Gohong, Kec. Kahayan Hilir, Kabupaten Pulang Pisau",KALIMANTAN TENGAH,74816.0,Indonesia, 085251268356,,,-2.6819169,114.2754983,https://maps.google.com/?cid=0x0:0x7207605e0a78a43c,
perumahan,Komplek perumahan,Rumah BP Nely,"7774+568, Kalawa, Kec. Kahayan Hilir, Kabupaten Pulang Pisau, Kalimantan Tengah 73564","Kalawa, Kec. Kahayan Hilir, Kabupaten Pulang Pisau",KALIMANTAN TENGAH,73564.0,Indonesia,,,,-2.7370786,114.2555947,https://maps.google.com/?cid=0x0:0xd3ba90096bb8dbb2,
perumahan,Komplek perumahan,Rumah Keluarga Bapa Vina,"7773+WR2, Kalawa, Kec. Kahayan Hilir, Kabupaten Pulang Pisau, Kalimantan Tengah 73564","Kalawa, Kec. Kahayan Hilir, Kabupaten Pulang Pisau",KALIMANTAN TENGAH,73564.0,Indonesia, 082255624038,,,-2.7352418,114.2545116,https://maps.google.com/?cid=0x0:0x93a338046c07d27e,
perumahan,perumahan,Eka Risa,"77PF+J29, Gohong, Kec. Kahayan Hilir, Kabupaten Pulang Pisau, Kalimantan Tengah","Kabupaten Pulang Pisau, Kalimantan Tengah",KALIMANTAN TENGAH,,Indonesia,,,,-2.7134503,114.2726097,https://maps.google.com/?cid=0x0:0x71606d0d6c0b6cdc,
perumahan,Komplek perumahan,Tempat mama mira,"87GJ+GR, Gohong, Kec. Kahayan Hilir, Kabupaten Pulang Pisau, Kalimantan Tengah","Kabupaten Pulang Pisau, Kalimantan Tengah",KALIMANTAN TENGAH,,Indonesia,,,,-2.6736964,114.2820054,https://maps.google.com/?cid=0x0:0xeaf715902a7cccc9,
perumahan,Komplek perumahan,Gelumbang,"8762+V94, Gohong, Kec. Kahayan Hilir, Kabupaten Pulang Pisau, Kalimantan Tengah","Kabupaten Pulang Pisau, Kalimantan Tengah",KALIMANTAN TENGAH,,Indonesia,,,,-2.6878591,114.2509376,https://maps.google.com/?cid=0x0:0xebdd6f036c59a260,
perumahan,Komplek perumahan,Walet biru,"77QF+57, Gohong, Kec. Kahayan Hilir, Kabupaten Pulang Pisau, Kalimantan Tengah 73564","Gohong, Kec. Kahayan Hilir, Kabupaten Pulang Pisau",KALIMANTAN TENGAH,73564.0,Indonesia,,,,-2.7127891,114.2743332,https://maps.google.com/?cid=0x0:0xe84313e69f50c787,
perumahan,Komplek perumahan,Rumah Dinas Kadinkes Pulang Pisau,"7735+8FX, Jl. Tingang Menteng, Pulang Pisau, Kec. Kahayan Hilir, Kabupaten Pulang Pisau, Kalimantan Tengah 73564","Jl. Tingang Menteng, Pulang Pisau, Kec. Kahayan Hilir, Kabupaten Pulang Pisau",KALIMANTAN TENGAH,73564.0,Indonesia,,,,-2.7466396,114.2587767,https://maps.google.com/?cid=0x0:0x2a6b1679fe62f262,
perumahan,Perhimpunan Pengembang Perumahan,Parlemen hd,"Jl. Bereng Kalingu No.3, Bereng, Kec. Kahayan Hilir, Kabupaten Pulang Pisau, Kalimantan Tengah 73564","Bereng, Kec. Kahayan Hilir, Kabupaten Pulang Pisau",KALIMANTAN TENGAH,73564.0,Indonesia,,,,-2.7175988,114.2704892,https://maps.google.com/?cid=0x0:0x1f9e84b6ed5a8791,
perumahan,Rumah Kayu,Rumah mama ampung,"Bereng, Kec. Kahayan Hilir, Kabupaten Pulang Pisau, Kalimantan Tengah","Kabupaten Pulang Pisau, Kalimantan Tengah",KALIMANTAN TENGAH,,Indonesia,,,,-2.736152,114.2647928,https://maps.google.com/?cid=0x0:0xcbc036b74f82a63d,
perumahan,Pembangunan Perumahan,Tupa,"77JC+5V3, Bereng, Kec. Kahayan Hilir, Kabupaten Pulang Pisau, Kalimantan Tengah","Kabupaten Pulang Pisau, Kalimantan Tengah",KALIMANTAN TENGAH,,Indonesia,,,,-2.7190753,114.2724364,https://maps.google.com/?cid=0x0:0x6afeeb5b3e5d4991,
perumahan,Komplek perumahan,Arkam,"87FP+WW2, Gohong, Kec. Kahayan Hilir, Kabupaten Pulang Pisau, Kalimantan Tengah 74816","Gohong, Kec. Kahayan Hilir, Kabupaten Pulang Pisau",KALIMANTAN TENGAH,74816.0,Indonesia,,,,-2.6758867,114.288225,https://maps.google.com/?cid=0x0:0x80136d71c8f7ce84,
perumahan,Komplek perumahan,Rumah Iskanto,"7778+WX7, Bereng, Kec. Kahayan Hilir, Kabupaten Pulang Pisau, Kalimantan Tengah 73564","Bereng, Kec. Kahayan Hilir, Kabupaten Pulang Pisau",KALIMANTAN TENGAH,73564.0,Indonesia,,,,-2.7358406,114.2669554,https://maps.google.com/?cid=0x0:0xbc8b6e95f9bd29f8,
perumahan,perumahan,Rumah santa,"77PF+J29, Bereng, Kec. Kahayan Hilir, Kabupaten Pulang Pisau, Kalimantan Tengah 73564","Bereng, Kec. Kahayan Hilir, Kabupaten Pulang Pisau",KALIMANTAN TENGAH,73564.0,Indonesia,,,,-2.7134617,114.2726211,https://maps.google.com/?cid=0x0:0x75e70a9ded5a613d,
perumahan,Perhimpunan Pengembang Perumahan,Sikaranan,"77XH+9PW, Gohong, Kec. Kahayan Hilir, Kabupaten Pulang Pisau, Kalimantan Tengah 73564","Gohong, Kec. Kahayan Hilir, Kabupaten Pulang Pisau",KALIMANTAN TENGAH,73564.0,Indonesia,,,,-2.7015152,114.2793366,https://maps.google.com/?cid=0x0:0x1a452734d3e9051e,
perumahan,Komplek perumahan,Rumah sederhana,"8762+V94, Jl.pahlawan ucun, RT.03, Gohong, Kec. Kahayan Hilir, Kabupaten Pulang Pisau, Kalimantan Tengah","Kabupaten Pulang Pisau, Kalimantan Tengah",KALIMANTAN TENGAH,,Indonesia,,,,-2.6878591,114.2509376,https://maps.google.com/?cid=0x0:0x9aeff354823f8246,
perumahan,perumahan,Tanah atas nama marwan,"jalan hantasan raya No.35, RT.10, Pulang Pisau, Kec. Kahayan Hilir, Kabupaten Pulang Pisau, Kalimantan Tengah 73564","RT.10, Pulang Pisau, Kec. Kahayan Hilir, Kabupaten Pulang Pisau",KALIMANTAN TENGAH,73564.0,Indonesia,,,,-2.7509247,114.2659021,https://maps.google.com/?cid=0x0:0x9c7ff145d10a77bd,
perumahan,Komplek perumahan,Hidayatul ailiya,"7788+CGR, Jl. Tajahan Antang, Bereng, Kec. Kahayan Hilir, Kabupaten Pulang Pisau, Kalimantan Tengah 73564","Jl. Tajahan Antang, Bereng, Kec. Kahayan Hilir, Kabupaten Pulang Pisau",KALIMANTAN TENGAH,73564.0,Indonesia,,,,-2.7338932,114.2662681,https://maps.google.com/?cid=0x0:0x84e6dd7a61b093fb,
perumahan,Komplek perumahan,Rumah ridayatullah,"7725+8RX, Pulang Pisau, Kec. Kahayan Hilir, Kabupaten Pulang Pisau, Kalimantan Tengah 73564","Pulang Pisau, Kec. Kahayan Hilir, Kabupaten Pulang Pisau",KALIMANTAN TENGAH,73564.0,Indonesia,,,,-2.7491402,114.2595989,https://maps.google.com/?cid=0x0:0x8a484c535ae581be,
perumahan,perumahan,Kalimantan Tengah 74872,"Kabupaten Pulang Pisau, Kalimantan Tengah","Kabupaten Pulang Pisau, Kalimantan Tengah",KALIMANTAN TENGAH,,Indonesia,,,,-3.197171,114.0488007,https://maps.google.com/?cid=0x0:0x496607f806bb7e7f,
perumahan,Komplek perumahan,YUSUF,"jalan h. Amur No.rt 07Bahaur, Tengah, Kec. Kahayan Kuala, Kabupaten Pulang Pisau, Kalimantan Tengah 74872","Tengah, Kec. Kahayan Kuala, Kabupaten Pulang Pisau",KALIMANTAN TENGAH,74872.0,Indonesia,,,,-3.2158185,114.1045219,https://maps.google.com/?cid=0x0:0x93958a588e5be3bd,
perumahan,Komplek perumahan,Bahaur,"Q4C2+JJ, Bahaur Hilir, Kec. Kahayan Kuala, Kabupaten Pulang Pisau, Kalimantan Tengah","Kabupaten Pulang Pisau, Kalimantan Tengah",KALIMANTAN TENGAH,,Indonesia,,,,-3.2284375,114.1015625,https://maps.google.com/?cid=0x0:0x8609f3df6a14c25b,
perumahan,Pembangunan Perumahan,PKS PT KLS,"MVQG+3VX, Papuyu III, Sei Pudak, Kec. Kahayan Kuala, Kabupaten Pulang Pisau, Kalimantan Tengah 74872","Papuyu III, Sei Pudak, Kec. Kahayan Kuala, Kabupaten Pulang Pisau",KALIMANTAN TENGAH,74872.0,Indonesia,,,,-3.3122541,113.8772429,https://maps.google.com/?cid=0x0:0xff985f1cf8026750,
perumahan,Komplek perumahan,Gifta Gema,"P3HX+QP5, Jalan Datu Karim, Sei Rungun, Kec. Kahayan Kuala, Kabupaten Pulang Pisau, Kalimantan Tengah 74872","Jalan Datu Karim, Sei Rungun, Kec. Kahayan Kuala, Kabupaten Pulang Pisau",KALIMANTAN TENGAH,74872.0,Indonesia,,,,-3.2710931,114.0998008,https://maps.google.com/?cid=0x0:0x3ba175a350ce820d,
perumahan,Komplek perumahan,Ahmad taufik,"P353+6X8, Papuyu I Sei Pasanan, Kec. Kahayan Kuala, Kabupaten Pulang Pisau, Kalimantan Tengah","Kabupaten Pulang Pisau, Kalimantan Tengah",KALIMANTAN TENGAH,,Indonesia,,,,-3.2916157,114.0537926,https://maps.google.com/?cid=0x0:0xe2cfcf8f8577a91b,
perumahan,Pembangunan Perumahan,Ozan,"P22X+F6P, Papuyu I Sei Pasanan, Kec. Kahayan Kuala, Kabupaten Pulang Pisau, Kalimantan Tengah 74872","Papuyu I Sei Pasanan, Kec. Kahayan Kuala, Kabupaten Pulang Pisau",KALIMANTAN TENGAH,74872.0,Indonesia,,,,-3.2987827,114.0480788,https://maps.google.com/?cid=0x0:0x4b25cf0957987b29,
perumahan,perumahan,rumah nafis,"X3RX+5F, Kantan Dalam, Kec. Pandih Batu, Kabupaten Pulang Pisau, Kalimantan Tengah","Kabupaten Pulang Pisau, Kalimantan Tengah",KALIMANTAN TENGAH,,Indonesia,,,,-3.0095815,114.0986817,https://maps.google.com/?cid=0x0:0x330b780528bf9761,
perumahan,Komplek perumahan,Malik,"Q4M3+RWH, Bahaur Tengah, Kec. Kahayan Kuala, Kabupaten Pulang Pisau, Kalimantan Tengah 74872","Bahaur Tengah, Kec. Kahayan Kuala, Kabupaten Pulang Pisau",KALIMANTAN TENGAH,74872.0,Indonesia,,,,-3.2154375,114.1048594,https://maps.google.com/?cid=0x0:0xdd1524bb8c8a2c02,
perumahan,perumahan,Rumah bambang,"Q4M3+4MJ, Bahaur Hilir, Kec. Kahayan Kuala, Kabupaten Pulang Pisau, Kalimantan Tengah 74872","Bahaur Hilir, Kec. Kahayan Kuala, Kabupaten Pulang Pisau",KALIMANTAN TENGAH,74872.0,Indonesia,,,,-3.2182725,114.1045886,https://maps.google.com/?cid=0x0:0x1c7bc05c7b607d2e,
perumahan,Komplek perumahan,Perumahan 1947,"PX44+CMF, Papuyu I Sei Pasanan, Kec. Kahayan Kuala, Kabupaten Pulang Pisau, Kalimantan Tengah","Kabupaten Pulang Pisau, Kalimantan Tengah",KALIMANTAN TENGAH,,Indonesia,,,,-3.2941482,113.9561123,https://maps.google.com/?cid=0x0:0xbea1d1960ab0c30c,
perumahan,Komplek perumahan,Rumah.M,"Jl.H amur No.3, Bahaur Tengah, Kec. Kahayan Kuala, Kabupaten Pulang Pisau, Kalimantan Tengah 74872","Bahaur Tengah, Kec. Kahayan Kuala, Kabupaten Pulang Pisau",KALIMANTAN TENGAH,74872.0,Indonesia,,,,-3.2121181,114.1079893,https://maps.google.com/?cid=0x0:0x9d49d5425643a4a1,
perumahan,Rumah Kayu,Rumah AMANG AGAN,"R456+67P, Permai, Bahaur Hulu, Kec. Kahayan Kuala, Kabupaten Pulang Pisau, Kalimantan Tengah 74872","Permai, Bahaur Hulu, Kec. Kahayan Kuala, Kabupaten Pulang Pisau",KALIMANTAN TENGAH,74872.0,Indonesia,,,,-3.1924635,114.1117163,https://maps.google.com/?cid=0x0:0x27b62f5d9bcda3fc,
perumahan,Komplek perumahan,Rumah rizqy faruq,"Q36X+5M2, Jl. Idrus kel, RT.04/RW.02, Bahaur basantan, Kec. Kahayan Kuala, Kabupaten Pulang Pisau, Kalimantan Tengah 74872","Jl. Idrus kel, RT.04/RW.02, Bahaur basantan, Kec. Kahayan Kuala, Kabupaten Pulang Pisau",KALIMANTAN TENGAH,74872.0,Indonesia,,,,-3.2396177,114.0991303,https://maps.google.com/?cid=0x0:0xf354dea7b0cd274d,
perumahan,Pembangunan Perumahan,Karinyau,"R456+67P, Permai, Bahaur Hulu, Kec. Kahayan Kuala, Kabupaten Pulang Pisau, Kalimantan Tengah 74872","Permai, Bahaur Hulu, Kec. Kahayan Kuala, Kabupaten Pulang Pisau",KALIMANTAN TENGAH,74872.0,Indonesia,,,,-3.1906873,114.1112341,https://maps.google.com/?cid=0x0:0x643c4442e06186cc,
perumahan,Komplek perumahan,Rumah aulia ramadhani (usman),"Q37X+PGC, Bahaur Hilir, Kec. Kahayan Kuala, Kabupaten Pulang Pisau, Kalimantan Tengah 74872","Bahaur Hilir, Kec. Kahayan Kuala, Kabupaten Pulang Pisau",KALIMANTAN TENGAH,74872.0,Indonesia,,,,-3.2356782,114.0987659,https://maps.google.com/?cid=0x0:0x48e8e4953fa4f082,
perumahan,Komplek perumahan,Rumah nengsih,"M48J+FRV, Kiapak, Kec. Kahayan Kuala, Kabupaten Pulang Pisau, Kalimantan Tengah 74872","Kiapak, Kec. Kahayan Kuala, Kabupaten Pulang Pisau",KALIMANTAN TENGAH,74872.0,Indonesia,,,,-3.3337589,114.1320446,https://maps.google.com/?cid=0x0:0xdaeadb5b18b4262b,
perumahan,Pembangunan Perumahan,Ariana,"R4RG+4HX, Bahaur Hulu Permai, Kec. Kahayan Kuala, Kabupaten Pulang Pisau, Kalimantan Tengah 74872","Bahaur Hulu Permai, Kec. Kahayan Kuala, Kabupaten Pulang Pisau",KALIMANTAN TENGAH,74872.0,Indonesia,,,,-3.1600746,114.1261856,https://maps.google.com/?cid=0x0:0xc525f490b500a76b,
perumahan,Komplek perumahan,Rumah Muhid,"Q5R5+2CV, Bahaur Tengah, Kec. Kahayan Kuala, Kabupaten Pulang Pisau, Kalimantan Tengah 74872","Bahaur Tengah, Kec. Kahayan Kuala, Kabupaten Pulang Pisau",KALIMANTAN TENGAH,74872.0,Indonesia,,,,-3.2101029,114.1601248,https://maps.google.com/?cid=0x0:0xa65f5029f89ce59e,
perumahan,perumahan,Rapi,"jl h amur No.2, Bahaur Tengah, Kec. Kahayan Kuala, Kabupaten Pulang Pisau, Kalimantan Tengah 74872","Bahaur Tengah, Kec. Kahayan Kuala, Kabupaten Pulang Pisau",KALIMANTAN TENGAH,74872.0,Indonesia,,,,-3.2160483,114.1067804,https://maps.google.com/?cid=0x0:0x97ee08db24c7774b,
perumahan,Pembangunan Perumahan,Perumahan Kahayan Permai,"67PJ+99G, Anjir Pulang Pisau, Kec. Kahayan Hilir, Kabupaten Pulang Pisau, Kalimantan Tengah 73564","Anjir Pulang Pisau, Kec. Kahayan Hilir, Kabupaten Pulang Pisau",KALIMANTAN TENGAH,73564.0,Indonesia,,,,-2.7640527,114.2809512,https://maps.google.com/?cid=0x0:0xe969cbc8ae68ab83,
perumahan,Komplek perumahan,Rumah Bapa Hadi,"P3XV+XR9, Tj. Perawan, Kec. Kahayan Kuala, Kabupaten Pulang Pisau, Kalimantan Tengah 74872","Tj. Perawan, Kec. Kahayan Kuala, Kabupaten Pulang Pisau",KALIMANTAN TENGAH,74872.0,Indonesia,,,,-3.2500981,114.0946179,https://maps.google.com/?cid=0x0:0x99c4215602bf8b52,
perumahan,Komplek perumahan,Perumahan mama Ronirina,"Q37X+FPQ, Bahaur Hilir, Kec. Kahayan Kuala, Kabupaten Pulang Pisau, Kalimantan Tengah 74872","Bahaur Hilir, Kec. Kahayan Kuala, Kabupaten Pulang Pisau",KALIMANTAN TENGAH,74872.0,Indonesia,,,,-3.2362872,114.0993493,https://maps.google.com/?cid=0x0:0x73d32d3f2dbb102,
perumahan,perumahan,Kalimantan Tengah 74862,"Lahei Mangkutup, Kec. Mantangai, Kabupaten Kapuas, Kalimantan Tengah","Kabupaten Kapuas, Kalimantan Tengah",KALIMANTAN TENGAH,,Indonesia,,,,-1.8507872,114.0963705,https://maps.google.com/?cid=0x0:0x57aa0e32b731e17e,
perumahan,Pembangunan Perumahan,Kandang yulie,"3XM7+92, Bukit Bamba, Kec. Kahayan Tengah, Kabupaten Pulang Pisau, Kalimantan Tengah","Kabupaten Pulang Pisau, Kalimantan Tengah",KALIMANTAN TENGAH,,Indonesia,,,,-1.916163,113.96234,https://maps.google.com/?cid=0x0:0x3f991c3227193f5f,
perumahan,Komplek perumahan,Bp. Eko,"4XG4+H9V, Tahawa, Kec. Kahayan Tengah, Kabupaten Pulang Pisau, Kalimantan Tengah 74862","Tahawa, Kec. Kahayan Tengah, Kabupaten Pulang Pisau",KALIMANTAN TENGAH,74862.0,Indonesia,,,,-1.8726507,113.9554276,https://maps.google.com/?cid=0x0:0x848f9616c9558180,
perumahan,Komplek perumahan,Rumah chelsya,"5XG8+WVV, Bereng Rambang, Kec. Kahayan Tengah, Kabupaten Pulang Pisau, Kalimantan Tengah","Kabupaten Pulang Pisau, Kalimantan Tengah",KALIMANTAN TENGAH,,Indonesia,,,,-1.8226251,113.9671749,https://maps.google.com/?cid=0x0:0x6c0883705f3430f0,
perumahan,Pembangunan Perumahan,Lawinjalan taheta,"4X5G+WF, Bukit Bamba, Kec. Kahayan Tengah, Kabupaten Pulang Pisau, Kalimantan Tengah 74862","Bukit Bamba, Kec. Kahayan Tengah, Kabupaten Pulang Pisau",KALIMANTAN TENGAH,74862.0,Indonesia,,,,-1.8902241,113.9762194,https://maps.google.com/?cid=0x0:0x3cee40adb786896f,
perumahan,Komplek perumahan,Rumah Oyi,"3XC5+X5, Balukon, Kec. Kahayan Tengah, Kabupaten Pulang Pisau, Kalimantan Tengah","Kabupaten Pulang Pisau, Kalimantan Tengah",KALIMANTAN TENGAH,,Indonesia,,,,-1.9276054,113.9579928,https://maps.google.com/?cid=0x0:0x2b9b456bb404ae2d,
perumahan,Komplek perumahan,Perumahan tegal sari,"Jl. Tjilik Riwut No.km 10, RT.07/RW.5, Bukit Tunggal, Kec. Jekan Raya, Kota Palangka Raya, Kalimantan Tengah 74874","RT.07/RW.5, Bukit Tunggal, Kec. Jekan Raya, Kota Palangka Raya",KALIMANTAN TENGAH,74874.0,Indonesia,,,,-2.1569704,113.8410569,https://maps.google.com/?cid=0x0:0x1677026a5f2bba01,
perumahan,Komplek perumahan,Yudison,"2X62+M54, Bukit Liti, Kec. Kahayan Tengah, Kabupaten Pulang Pisau, Kalimantan Tengah","Kabupaten Pulang Pisau, Kalimantan Tengah",KALIMANTAN TENGAH,,Indonesia,,,,-1.9883523,113.9504579,https://maps.google.com/?cid=0x0:0xe70df596d70cdeb9,
perumahan,Komplek perumahan,Rumah Indu Asha,"3XR5+RRQ, Jl. Palangka Raya - Kuala Kurun, Bukit Bamba, Kec. Kahayan Tengah, Kabupaten Pulang Pisau, Kalimantan Tengah 73111","Jl. Palangka Raya - Kuala Kurun, Bukit Bamba, Kec. Kahayan Tengah, Kabupaten Pulang Pisau",KALIMANTAN TENGAH,73111.0,Indonesia,,,,-1.9077193,113.9588179,https://maps.google.com/?cid=0x0:0xb40e6892db5780d6,
perumahan,Komplek perumahan,citra kahayan,"PVGV+8M5, Kereng Bangkirai, Kec. Sebangau, Kota Palangka Raya, Kalimantan Tengah 74874","Kereng Bangkirai, Kec. Sebangau, Kota Palangka Raya",KALIMANTAN TENGAH,74874.0,Indonesia,,,,-2.2737,113.8936953,https://maps.google.com/?cid=0x0:0x556fa28e5c2b04bf,
perumahan,Komplek perumahan,Rungan Sari Housing Area,"Jl. Tjilik Riwut No.KM.36, Sei Gohong, Kec. Bukit Batu, Kota Palangka Raya, Kalimantan Tengah 73225","Sei Gohong, Kec. Bukit Batu, Kota Palangka Raya",KALIMANTAN TENGAH,73225.0,Indonesia,,,,-1.9695694,113.7452172,https://maps.google.com/?cid=0x0:0xdc3bafef536915b7,
perumahan,Komplek perumahan,Mulya Land,"Jl. Tjilik Riwut No.Km.37, Sei Gohong, Kec. Bukit Batu, Kota Palangka Raya, Kalimantan Tengah 73225","Sei Gohong, Kec. Bukit Batu, Kota Palangka Raya",KALIMANTAN TENGAH,73225.0,Indonesia,,,,-1.9689948,113.7377435,https://maps.google.com/?cid=0x0:0x1657ca613083f488,
perumahan,Komplek perumahan,Perumahan Grand Sanur Griya Tama II,"Jl. Hiu Putih Raya No.4, Bukit Tunggal, Kec. Jekan Raya, Kota Palangka Raya, Kalimantan Tengah 74874","Bukit Tunggal, Kec. Jekan Raya, Kota Palangka Raya",KALIMANTAN TENGAH,74874.0,Indonesia,,,,-2.1792887,113.863856,https://maps.google.com/?cid=0x0:0xdefec3310804b141,
perumahan,Komplek perumahan,Desa Hurung,"6WWX+3H, Hurung, Kec. Banama Tingang, Kabupaten Pulang Pisau, Kalimantan Tengah","Kabupaten Pulang Pisau, Kalimantan Tengah",KALIMANTAN TENGAH,,Indonesia,,,,-1.7548225,113.9488977,https://maps.google.com/?cid=0x0:0x1e725e23299e670e,
perumahan,Taman,Tanah Hak Milik a.n Sony,"XW4W+R54, Tuwung, Kec. Kahayan Tengah, Kabupaten Pulang Pisau, Kalimantan Tengah","Kabupaten Pulang Pisau, Kalimantan Tengah",KALIMANTAN TENGAH,,Indonesia,,,,-2.042352,113.945676,https://maps.google.com/?cid=0x0:0xfabb5756d3259262,
perumahan,Komplek perumahan,Rmh deo,"Jln lintas, Jl. Palangka Raya - Kuala Kurun No.km 17","Kabupaten Pulang Pisau, Kalimantan Tengah",KALIMANTAN TENGAH,,Indonesia,,,,-1.8767439,113.9536532,https://maps.google.com/?cid=0x0:0xfbfc9ff936cbe99e,
perumahan,Komplek perumahan,Rumah bahasa Spanyol,"326J+P4P, Jl. Bukit Titi, Petuk Liti, Kec. Kahayan Tengah, Kabupaten Pulang Pisau, Kalimantan Tengah","Kabupaten Pulang Pisau, Kalimantan Tengah",KALIMANTAN TENGAH,,Indonesia,,,,-1.9381625,114.0303281,https://maps.google.com/?cid=0x0:0x95f5d5ed3e65cc64,
perumahan,Komplek perumahan,Perumahan Cassadova Tahap 2,"PWJX+W3W, Panarung, Kec. Pahandut, Kota Palangka Raya, Kalimantan Tengah 74874","Panarung, Kec. Pahandut, Kota Palangka Raya",KALIMANTAN TENGAH,74874.0,Indonesia,,,,-2.2676473,113.9477113,https://maps.google.com/?cid=0x0:0xa15f2cbe0f47af9d,
perumahan,Pembangunan Perumahan,Tnah,"4X37+9G, Bukit Bamba, Kec. Kahayan Tengah, Kabupaten Pulang Pisau, Kalimantan Tengah","Kabupaten Pulang Pisau, Kalimantan Tengah",KALIMANTAN TENGAH,,Indonesia,,,,-1.8978545,113.9629824,https://maps.google.com/?cid=0x0:0x9683abb04fc66220,
perumahan,Komplek perumahan,Parahangan,"4WF6+MR6, Parahangan, Kec. Kahayan Tengah, Kabupaten Pulang Pisau, Kalimantan Tengah","Kabupaten Pulang Pisau, Kalimantan Tengah",KALIMANTAN TENGAH,,Indonesia,,,,-1.8758378,113.9120107,https://maps.google.com/?cid=0x0:0x450428f43be80bcb,
perumahan,Komplek perumahan,Manen Paduran.,"5XQ4+44P, Jl. Palangka Raya - Kuala Kurun, Manen Paduran, Kec. Banama Tingang, Kabupaten Pulang Pisau, Kalimantan Tengah 74862","Jl. Palangka Raya - Kuala Kurun, Manen Paduran, Kec. Banama Tingang, Kabupaten Pulang Pisau",KALIMANTAN TENGAH,74862.0,Indonesia,,,,-1.8121628,113.9553354,https://maps.google.com/?cid=0x0:0xdc5d70bea9bfd46e,
perumahan,Komplek perumahan,Ramang,"7W9C+QV8, Ramang, Kec. Banama Tingang, Kabupaten Pulang Pisau, Kalimantan Tengah","Kabupaten Pulang Pisau, Kalimantan Tengah",KALIMANTAN TENGAH,,Indonesia,,,,-1.730576,113.922203,https://maps.google.com/?cid=0x0:0x3842fc0c3ab1cf49,
perumahan,Komplek perumahan,Bukit liti buntok,"2X74+9M5, Bukit Liti, Kec. Kahayan Tengah, Kabupaten Pulang Pisau, Kalimantan Tengah","Kabupaten Pulang Pisau, Kalimantan Tengah",KALIMANTAN TENGAH,,Indonesia,,,,-1.9866081,113.9567486,https://maps.google.com/?cid=0x0:0x54d441afcc8f870b,
perumahan,Komplek perumahan,Kasali Baru,"8W5X+GG4, Jl. Palangka Raya - Kuala Kurun, Palangka, Kec. Banama Tingang, Kota Palangka Raya, Kalimantan Tengah","Kota Palangka Raya, Kalimantan Tengah",KALIMANTAN TENGAH,,Indonesia,,,,-1.69124,113.948825,https://maps.google.com/?cid=0x0:0x53acaa0f67dde228,
perumahan,Perhimpunan Pengembang Perumahan,Area Pertambangan Model C,"4XM6+PQ6, Tahawa, Kec. Kahayan Tengah, Kabupaten Pulang Pisau, Kalimantan Tengah","Kabupaten Pulang Pisau, Kalimantan Tengah",KALIMANTAN TENGAH,,Indonesia,,,,-1.8657196,113.9618881,https://maps.google.com/?cid=0x0:0x8d6e41bc3153d8e5,
perumahan,Komplek perumahan,Rumah Nola,"6XG2+9R4, Jl. Palangka Raya - Kuala Kurun, Lawang Uru, Kec. Banama Tingang, Kabupaten Pulang Pisau, Kalimantan Tengah 74862","Jl. Palangka Raya - Kuala Kurun, Lawang Uru, Kec. Banama Tingang, Kabupaten Pulang Pisau",KALIMANTAN TENGAH,74862.0,Indonesia,,,,-1.773861,113.952027,https://maps.google.com/?cid=0x0:0x28417865c8500e15,
perumahan,Pembangunan Perumahan,Rumah Ego,"3X53+PRM, Pamarunan, Kec. Kahayan Tengah, Kabupaten Pulang Pisau, Kalimantan Tengah","Kabupaten Pulang Pisau, Kalimantan Tengah",KALIMANTAN TENGAH,,Indonesia,,,,-1.9406518,113.9545498,https://maps.google.com/?cid=0x0:0x2faaf8e1415ce12d,
perumahan,Kantor Pemerintah,Desa tahawa,"4XG4+H9V, Tahawa, Kec. Kahayan Tengah, Kabupaten Pulang Pisau, Kalimantan Tengah 74862","Tahawa, Kec. Kahayan Tengah, Kabupaten Pulang Pisau",KALIMANTAN TENGAH,74862.0,Indonesia,,,,-1.8735147,113.955916,https://maps.google.com/?cid=0x0:0x35892e744a5b318d,
perumahan,perumahan,Kalimantan Tengah 74873,"Kabupaten Pulang Pisau, Kalimantan Tengah","Kabupaten Pulang Pisau, Kalimantan Tengah",KALIMANTAN TENGAH,,Indonesia,,,,-2.7184995,114.0963705,https://maps.google.com/?cid=0x0:0x10a01f8ddb581de7,
perumahan,Pembangunan Perumahan,Pulang pisau maliku,"8X83+2F6, Paduran Sabangau, Kec. Sebangau Kuala, Kabupaten Pulang Pisau, Kalimantan Tengah","Kabupaten Pulang Pisau, Kalimantan Tengah",KALIMANTAN TENGAH,,Indonesia,,,,-2.6849607,113.9536466,https://maps.google.com/?cid=0x0:0x7cddd676964aff7b,
perumahan,perumahan,Tanah atas nama marwan,"jalan hantasan raya No.35, RT.10, Pulang Pisau, Kec. Kahayan Hilir, Kabupaten Pulang Pisau, Kalimantan Tengah 73564","RT.10, Pulang Pisau, Kec. Kahayan Hilir, Kabupaten Pulang Pisau",KALIMANTAN TENGAH,73564.0,Indonesia,,,,-2.7509247,114.2659021,https://maps.google.com/?cid=0x0:0x9c7ff145d10a77bd,
perumahan,Komplek perumahan,maliku,"25Q5+45C, Maliku Baru, Kec. Maliku, Kabupaten Pulang Pisau, Kalimantan Tengah 74871","Maliku Baru, Kec. Maliku, Kabupaten Pulang Pisau",KALIMANTAN TENGAH,74871.0,Indonesia,,,,-2.962063,114.157241,https://maps.google.com/?cid=0x0:0xc04feb1234e69428,
perumahan,Komplek perumahan,Rumah memei,"457C+FG, Kanamit, Kec. Maliku, Kabupaten Pulang Pisau, Kalimantan Tengah 74871","Kanamit, Kec. Maliku, Kabupaten Pulang Pisau",KALIMANTAN TENGAH,74871.0,Indonesia,,,,-2.8861937,114.1713354,https://maps.google.com/?cid=0x0:0x12b629db5c8e70dc,
perumahan,Komplek perumahan,Rumah penghuni LEJEN,"455H+Q3W, Kanamit, Kec. Maliku, Kabupaten Pulang Pisau, Kalimantan Tengah 74871","Kanamit, Kec. Maliku, Kabupaten Pulang Pisau",KALIMANTAN TENGAH,74871.0,Indonesia,,,,-2.8905216,114.1776899,https://maps.google.com/?cid=0x0:0xd7cf837906578e72,
perumahan,Pembangunan Perumahan,Perumahan Kahayan Permai,"67PJ+99G, Anjir Pulang Pisau, Kec. Kahayan Hilir, Kabupaten Pulang Pisau, Kalimantan Tengah 73564","Anjir Pulang Pisau, Kec. Kahayan Hilir, Kabupaten Pulang Pisau",KALIMANTAN TENGAH,73564.0,Indonesia,,,,-2.7640527,114.2809512,https://maps.google.com/?cid=0x0:0xe969cbc8ae68ab83,
perumahan,Pembangunan Perumahan,Komplek Perumahan Pulang Pisau Permai,"6788+XJ8, Mantaren I, Kec. Kahayan Hilir, Kabupaten Pulang Pisau, Kalimantan Tengah 73564","Mantaren I, Kec. Kahayan Hilir, Kabupaten Pulang Pisau",KALIMANTAN TENGAH,73564.0,Indonesia, 082338307227,,,-2.7825961,114.2665757,https://maps.google.com/?cid=0x0:0x7f011903e4fafc2d,
perumahan,Komplek perumahan,rumah walet,"Kanamit Rt,05, Kanamit, Kec. Maliku, Kabupaten Pulang Pisau, Kalimantan Tengah 74871","Kanamit, Kec. Maliku, Kabupaten Pulang Pisau",KALIMANTAN TENGAH,74871.0,Indonesia,,,,-2.889156,114.177198,https://maps.google.com/?cid=0x0:0x6dd091fa3cab2243,
perumahan,Komplek perumahan,Rumah Jaes,"4573+96, Purwodadi, Kec. Maliku, Kabupaten Pulang Pisau, Kalimantan Tengah","Kabupaten Pulang Pisau, Kalimantan Tengah",KALIMANTAN TENGAH,,Indonesia,,,,-2.8865591,114.1530364,https://maps.google.com/?cid=0x0:0x9d4d3b13f18fc733,
perumahan,Pembangunan Perumahan,Frantika P.D,"56R2+RQ9, Buntoi, Kec. Kahayan Hilir, Kabupaten Pulang Pisau, Kalimantan Tengah 74873","Buntoi, Kec. Kahayan Hilir, Kabupaten Pulang Pisau",KALIMANTAN TENGAH,74873.0,Indonesia,,,,-2.8079676,114.2019812,https://maps.google.com/?cid=0x0:0x20544fa0857b0c27,
perumahan,Komplek perumahan,Rumah al,"35WC+MGC, Jalan tankasiang, Kanamit, Kec. Maliku, Kabupaten Pulang Pisau, Kalimantan Tengah 74871","Jalan tankasiang, Kanamit, Kec. Maliku, Kabupaten Pulang Pisau",KALIMANTAN TENGAH,74871.0,Indonesia,,,,-2.903568,114.171092,https://maps.google.com/?cid=0x0:0xbec3ba45773dae89,
perumahan,Komplek perumahan,Tegar,"4596+VP, Purwodadi, Kec. Maliku, Kabupaten Pulang Pisau, Kalimantan Tengah","Kabupaten Pulang Pisau, Kalimantan Tengah",KALIMANTAN TENGAH,,Indonesia,,,,-2.8803656,114.16184,https://maps.google.com/?cid=0x0:0x47f1c177b50b482b,
perumahan,Komplek perumahan,Rumah Fitri,"347M+PR8, Garantung, Kec. Maliku, Kabupaten Pulang Pisau, Kalimantan Tengah 74871","Garantung, Kec. Maliku, Kabupaten Pulang Pisau",KALIMANTAN TENGAH,74871.0,Indonesia,,,,-2.9361507,114.134859,https://maps.google.com/?cid=0x0:0x72d2cd104e9c3d96,
perumahan,Komplek perumahan,Rumah. Salma,"35W6+2C5, Kanamit, Kec. Maliku, Kabupaten Pulang Pisau, Kalimantan Tengah","Kabupaten Pulang Pisau, Kalimantan Tengah",KALIMANTAN TENGAH,,Indonesia,,,,-2.9049809,114.161102,https://maps.google.com/?cid=0x0:0x8be867dff27919c0,
perumahan,Komplek perumahan,Rumah Tewai,"35VC+22, Kanamit, Kec. Maliku, Kabupaten Pulang Pisau, Kalimantan Tengah","Kabupaten Pulang Pisau, Kalimantan Tengah",KALIMANTAN TENGAH,,Indonesia,,,,-2.9074182,114.1700149,https://maps.google.com/?cid=0x0:0xe9644c7d3d8d9a03,
perumahan,Komplek perumahan,Rumah Budiyono,"4586+G5G, Purwodadi, Kec. Maliku, Kabupaten Pulang Pisau, Kalimantan Tengah 74871","Purwodadi, Kec. Maliku, Kabupaten Pulang Pisau",KALIMANTAN TENGAH,74871.0,Indonesia,,,,-2.8836954,114.1604483,https://maps.google.com/?cid=0x0:0xdeaa3c290d64efe9,
perumahan,Pembangunan Perumahan,Manendra,"35W6+2C5, Kanamit, Kec. Maliku, Kabupaten Pulang Pisau, Kalimantan Tengah","Kabupaten Pulang Pisau, Kalimantan Tengah",KALIMANTAN TENGAH,,Indonesia,,,,-2.9049809,114.161102,https://maps.google.com/?cid=0x0:0x14a77f4114e779b1,
perumahan,Pembangunan Perumahan,Tahai jaya,"8X83+2F6, Mantaren I, Kec. Sebangau Kuala, Kabupaten Pulang Pisau, Kalimantan Tengah","Kabupaten Pulang Pisau, Kalimantan Tengah",KALIMANTAN TENGAH,,Indonesia,,,,-2.6849607,113.9536466,https://maps.google.com/?cid=0x0:0x50170912aa6d88fc,
perumahan,Komplek perumahan,Rumah BP Nely,"7774+568, Kalawa, Kec. Kahayan Hilir, Kabupaten Pulang Pisau, Kalimantan Tengah 73564","Kalawa, Kec. Kahayan Hilir, Kabupaten Pulang Pisau",KALIMANTAN TENGAH,73564.0,Indonesia,,,,-2.7370786,114.2555947,https://maps.google.com/?cid=0x0:0xd3ba90096bb8dbb2,
perumahan,Pembangunan Perumahan,RB 3 Mintin,"46Q9+W68, Jl. Trans - Kalimantan, Mintin, Kec. Kahayan Hilir, Kabupaten Pulang Pisau, Kalimantan Tengah 74873","Jl. Trans - Kalimantan, Mintin, Kec. Kahayan Hilir, Kabupaten Pulang Pisau",KALIMANTAN TENGAH,74873.0,Indonesia, 081901281280,,,-2.8602221,114.2180833,https://maps.google.com/?cid=0x0:0x9247a1a790aef0f9,
perumahan,Komplek perumahan,Maliku baru gang mangga,"25F5+454, Maliku Baru, Kec. Maliku, Kabupaten Pulang Pisau, Kalimantan Tengah 74871","Maliku Baru, Kec. Maliku, Kabupaten Pulang Pisau",KALIMANTAN TENGAH,74871.0,Indonesia,,,,-2.9772293,114.1579469,https://maps.google.com/?cid=0x0:0x7b00adc96ea0000f,
perumahan,Komplek perumahan,Rumah Windy,"455H+GHW, RT.,04, Kanamit, Kec. Maliku, Kabupaten Pulang Pisau, Kalimantan Tengah 74871","RT.,04, Kanamit, Kec. Maliku, Kabupaten Pulang Pisau",KALIMANTAN TENGAH,74871.0,Indonesia,,,,-2.8911287,114.1789586,https://maps.google.com/?cid=0x0:0xdbde6ad3ae712011,
perumahan,perumahan,Rumah Nizam,"4575+59F, Purwodadi, Kec. Maliku, Kabupaten Pulang Pisau, Kalimantan Tengah 74871","Purwodadi, Kec. Maliku, Kabupaten Pulang Pisau",KALIMANTAN TENGAH,74871.0,Indonesia,,,,-2.8871464,114.1574013,https://maps.google.com/?cid=0x0:0xe520b99a9072565a,
perumahan,Komplek perumahan,Rumah Bidi,"4586+G54, Purwodadi, Kec. Maliku, Kabupaten Pulang Pisau, Kalimantan Tengah 74871","Purwodadi, Kec. Maliku, Kabupaten Pulang Pisau",KALIMANTAN TENGAH,74871.0,Indonesia,,,,-2.8837281,114.1604396,https://maps.google.com/?cid=0x0:0x3d1ab45ec98ead54,
perumahan,perumahan,Kalimantan Tengah 74871,"Kabupaten Pulang Pisau, Kalimantan Tengah","Kabupaten Pulang Pisau, Kalimantan Tengah",KALIMANTAN TENGAH,,Indonesia,,,,-2.9382332,114.0963705,https://maps.google.com/?cid=0x0:0x716d476799e79fc,
perumahan,perumahan,rumah nafis,"X3RX+5F, Kantan Dalam, Kec. Pandih Batu, Kabupaten Pulang Pisau, Kalimantan Tengah","Kabupaten Pulang Pisau, Kalimantan Tengah",KALIMANTAN TENGAH,,Indonesia,,,,-3.0095815,114.0986817,https://maps.google.com/?cid=0x0:0x330b780528bf9761,
perumahan,Komplek perumahan,Rumah Teguh,"X424+XHW, Pangkoh Sari, Kec. Pandih Batu, Kabupaten Pulang Pisau, Kalimantan Tengah 74872","Pangkoh Sari, Kec. Pandih Batu, Kabupaten Pulang Pisau",KALIMANTAN TENGAH,74872.0,Indonesia,,,,-3.046788,114.1077704,https://maps.google.com/?cid=0x0:0x74275a73753848,
perumahan,Komplek perumahan,Pakde Nung,"X4WC+2JG, Kantan Muara, Kec. Pandih Batu, Kabupaten Pulang Pisau, Kalimantan Tengah 74871","Kantan Muara, Kec. Pandih Batu, Kabupaten Pulang Pisau",KALIMANTAN TENGAH,74871.0,Indonesia,,,,-3.0049468,114.121586,https://maps.google.com/?cid=0x0:0xb78b7616d2c53ce6,
perumahan,Komplek perumahan,Perumahan Walis,"Jl. Damang Rambang No.RT. 001, Pangkoh Hilir, Kec. Pandih Batu, Kabupaten Pulang Pisau, Kalimantan Tengah","Kabupaten Pulang Pisau, Kalimantan Tengah",KALIMANTAN TENGAH,,Indonesia,,,,-3.0749944,114.1497416,https://maps.google.com/?cid=0x0:0x7d27ea3156c27d5c,
perumahan,,Rumah Babah Erin,"X42P+93M, Pangkoh Hulu, Kec. Pandih Batu, Kabupaten Pulang Pisau, Kalimantan Tengah","Kabupaten Pulang Pisau, Kalimantan Tengah",KALIMANTAN TENGAH,,Indonesia, 085204618231,,,-3.0486766,114.1356325,https://maps.google.com/?cid=0x0:0x4a98f3ef28a0439e,
perumahan,Kantor Pemerintah,CB Pandih Batu Official,"Jl. Patih Rumbih No.24 rt 06, Pangkoh Hulu, Kec. Pandih Batu, Kabupaten Pulang Pisau, Kalimantan Tengah 74872","Pangkoh Hulu, Kec. Pandih Batu, Kabupaten Pulang Pisau",KALIMANTAN TENGAH,74872.0,Indonesia,,,,-3.0605149,114.1510192,https://maps.google.com/?cid=0x0:0x3641ab94f2987177,
perumahan,Perhimpunan Pengembang Perumahan,Rumah Sahrul Adi prayitno,"X3XV+PXC, Kantan Dalam, Kec. Pandih Batu, Kabupaten Pulang Pisau, Kalimantan Tengah 74871","Kantan Dalam, Kec. Pandih Batu, Kabupaten Pulang Pisau",KALIMANTAN TENGAH,74871.0,Indonesia,,,,-3.0006884,114.0948986,https://maps.google.com/?cid=0x0:0x31dfd483998b5294,
perumahan,Komplek perumahan,Rumah Askep PT BSG,"X4JJ+552, Pangkoh Hulu, Kec. Pandih Batu, Kabupaten Pulang Pisau, Kalimantan Tengah","Kabupaten Pulang Pisau, Kalimantan Tengah",KALIMANTAN TENGAH,,Indonesia,,,,-3.0196037,114.1304029,https://maps.google.com/?cid=0x0:0x69e7d902a57b727c,
perumahan,Komplek perumahan,Dimas,"233G+4XV, Kantan Atas, Kec. Pandih Batu, Kabupaten Pulang Pisau, Kalimantan Tengah","Kabupaten Pulang Pisau, Kalimantan Tengah",KALIMANTAN TENGAH,,Indonesia,,,,-2.9969525,114.0769039,https://maps.google.com/?cid=0x0:0x820c78f448c06579,
perumahan,Komplek perumahan,Rm. Bapak Rahmat Gunawqn,"X444+4M, Mulyasari, Kec. Pandih Batu, Kabupaten Pulang Pisau, Kalimantan Tengah","Kabupaten Pulang Pisau, Kalimantan Tengah",KALIMANTAN TENGAH,,Indonesia,,,,-3.0446875,114.1066875,https://maps.google.com/?cid=0x0:0xd3607389358a47da,
perumahan,Komplek perumahan,Wasturi Family House,"X423+W6R, Pangkoh Sari, Kec. Pandih Batu, Kabupaten Pulang Pisau, Kalimantan Tengah 74872","Pangkoh Sari, Kec. Pandih Batu, Kabupaten Pulang Pisau",KALIMANTAN TENGAH,74872.0,Indonesia,,,,-3.04764,114.1030026,https://maps.google.com/?cid=0x0:0x39d500949f78634f,
perumahan,Komplek perumahan,Rumah mbokyah,"X3XW+MP8, Kantan Dalam, Kec. Pandih Batu, Kabupaten Pulang Pisau, Kalimantan Tengah","Kabupaten Pulang Pisau, Kalimantan Tengah",KALIMANTAN TENGAH,,Indonesia,,,,-3.0008281,114.0968159,https://maps.google.com/?cid=0x0:0x3bae200821ee5841,
perumahan,Komplek perumahan,MAS ABIDIN,"X4PC+X23, Kantan Muara, Kec. Pandih Batu, Kabupaten Pulang Pisau, Kalimantan Tengah 74871","Kantan Muara, Kec. Pandih Batu, Kabupaten Pulang Pisau",KALIMANTAN TENGAH,74871.0,Indonesia,,,,-3.0117582,114.120579,https://maps.google.com/?cid=0x0:0x154912ec8daa196d,
perumahan,Komplek perumahan,RUMAH DAMIS,"X435+288, Mulyasari, Kec. Pandih Batu, Kabupaten Pulang Pisau, Kalimantan Tengah 74872","Mulyasari, Kec. Pandih Batu, Kabupaten Pulang Pisau",KALIMANTAN TENGAH,74872.0,Indonesia, 085945648772,,,-3.0474614,114.1083354,https://maps.google.com/?cid=0x0:0x9aaaa5b7b0a7e238,
perumahan,,Rumah Fandi,"W4MM+XPX, Jl. H.M.Soeharto, Pangkoh Hilir, Kec. Pandih Batu, Kabupaten Pulang Pisau, Kalimantan Tengah 74872","Jl. H.M.Soeharto, Pangkoh Hilir, Kec. Pandih Batu, Kabupaten Pulang Pisau",KALIMANTAN TENGAH,74872.0,Indonesia,,,,-3.0650138,114.1343481,https://maps.google.com/?cid=0x0:0xf79545266d29b24c,
perumahan,Komplek perumahan,Andi Suhariyanto,"X463+MJ, Mulyasari, Kec. Pandih Batu, Kabupaten Pulang Pisau, Kalimantan Tengah","Kabupaten Pulang Pisau, Kalimantan Tengah",KALIMANTAN TENGAH,,Indonesia,,,,-3.03837,114.104059,https://maps.google.com/?cid=0x0:0x39e1f213f541c66c,
perumahan,Pembangunan Perumahan,"Bagiono, S.Pd.I, M.Pd.","233H+RRV, Kantan Dalam, Kec. Pandih Batu, Kabupaten Pulang Pisau, Kalimantan Tengah 74871","Kantan Dalam, Kec. Pandih Batu, Kabupaten Pulang Pisau",KALIMANTAN TENGAH,74871.0,Indonesia,,,,-2.9953909,114.0795339,https://maps.google.com/?cid=0x0:0x5a3a4142640b5a77,
perumahan,Perhimpunan Pengembang Perumahan,Rumah Pak Monjo,"X3XG+H83, Kantan Atas, Kec. Pandih Batu, Kabupaten Pulang Pisau, Kalimantan Tengah","Kabupaten Pulang Pisau, Kalimantan Tengah",KALIMANTAN TENGAH,,Indonesia,,,,-3.0011066,114.0757978,https://maps.google.com/?cid=0x0:0xcb3e3fd1fbcd4afd,
perumahan,Komplek perumahan,Rumah Handi,"232R+Q5F, Kantan Dalam, Kec. Pandih Batu, Kabupaten Pulang Pisau, Kalimantan Tengah","Kabupaten Pulang Pisau, Kalimantan Tengah",KALIMANTAN TENGAH,,Indonesia,,,,-2.9980741,114.0904246,https://maps.google.com/?cid=0x0:0xced8ba2d406a3e83,
perumahan,Komplek perumahan,Latif bahtiar,"X3WC+VXX, Unnamed Road, Kantan Dalam, Kec. Pandih Batu, Kabupaten Pulang Pisau, Kalimantan Tengah 74872","Unnamed Road, Kantan Dalam, Kec. Pandih Batu, Kabupaten Pulang Pisau",KALIMANTAN TENGAH,74872.0,Indonesia,,,,-3.0027529,114.0724937,https://maps.google.com/?cid=0x0:0x565ee80a5325ef52,
perumahan,Komplek perumahan,Fitria ningsih,"Jl. Melati 2 No.4, Kantan Atas, Kec. Pandih Batu, Kabupaten Pulang Pisau, Kalimantan Tengah 74871","Kantan Atas, Kec. Pandih Batu, Kabupaten Pulang Pisau",KALIMANTAN TENGAH,74871.0,Indonesia,,,,-3.000783,114.0746906,https://maps.google.com/?cid=0x0:0x2aa0a8eb4e7a30f0,
perumahan,Gedung Apartemen,Rumah Ibu Susanti,"W3XX+HF, Mulyasari, Kec. Pandih Batu, Kabupaten Pulang Pisau, Kalimantan Tengah","Kabupaten Pulang Pisau, Kalimantan Tengah",KALIMANTAN TENGAH,,Indonesia,,,,-3.0510627,114.0987337,https://maps.google.com/?cid=0x0:0xb09f1006500b03c1,
perumahan,Komplek perumahan,Rumah Mas Mul,"X454+PP5, Jl. Melati 5, Mulyasari, Kec. Pandih Batu, Kabupaten Pulang Pisau, Kalimantan Tengah 74872","Jl. Melati 5, Mulyasari, Kec. Pandih Batu, Kabupaten Pulang Pisau",KALIMANTAN TENGAH,74872.0,Indonesia,,,,-3.0407314,114.1068548,https://maps.google.com/?cid=0x0:0xe359f219c6febdd7,
perumahan,Pembangunan Perumahan,Pangkoh City,"W5P5+86P, Pangkoh Hulu, Kec. Pandih Batu, Kabupaten Pulang Pisau, Kalimantan Tengah","Kabupaten Pulang Pisau, Kalimantan Tengah",KALIMANTAN TENGAH,,Indonesia,,,,-3.0640299,114.1580087,https://maps.google.com/?cid=0x0:0x42219b47eb5f0f60,
perumahan,,Pondok tongkrongan bulan puasa,"W4RM+39C, Pangkoh Sari, Kec. Pandih Batu, Kabupaten Pulang Pisau, Kalimantan Tengah","Kabupaten Pulang Pisau, Kalimantan Tengah",KALIMANTAN TENGAH,,Indonesia,,,,-3.0598084,114.1333982,https://maps.google.com/?cid=0x0:0xd0f0ac7e1a71f516,
perumahan,Komplek perumahan,Tia Wahyuni,"X422+6Q7, Mulyasari, Kec. Pandih Batu, Kabupaten Pulang Pisau, Kalimantan Tengah 74872","Mulyasari, Kec. Pandih Batu, Kabupaten Pulang Pisau",KALIMANTAN TENGAH,74872.0,Indonesia,,,,-3.0494714,114.1019332,https://maps.google.com/?cid=0x0:0x66ba1a1f518de026,
perumahan,perumahan,Kalimantan Tengah 74874,"Kabupaten Pulang Pisau, Kalimantan Tengah","Kabupaten Pulang Pisau, Kalimantan Tengah",KALIMANTAN TENGAH,,Indonesia,,,,-2.613866,113.8584737,https://maps.google.com/?cid=0x0:0x9a5d3171805f893d,
perumahan,Agen Asuransi,Perumahan Supra,"PW78+2C8, Kereng Bangkirai, Kec. Sebangau, Kota Palangka Raya, Kalimantan Tengah 74874","Kereng Bangkirai, Kec. Sebangau, Kota Palangka Raya",KALIMANTAN TENGAH,74874.0,Indonesia, 082153664347,,,-2.2874602,113.9160662,https://maps.google.com/?cid=0x0:0x4a6e4aade0de5d6a,
perumahan,perumahan,Pemukiman,"3RHC+3F, Sebangau Permai, Kec. Sebangau Kuala, Kabupaten Pulang Pisau, Kalimantan Tengah","Kabupaten Pulang Pisau, Kalimantan Tengah",KALIMANTAN TENGAH,,Indonesia, 085390409118,,,-2.9222698,113.8211788,https://maps.google.com/?cid=0x0:0x95c276b4de6bc19d,
perumahan,Komplek perumahan,Rumah fira,"3RQ4+G39, Mekar Jaya, Kec. Sebangau Kuala, Kabupaten Pulang Pisau, Kalimantan Tengah 74874","Mekar Jaya, Kec. Sebangau Kuala, Kabupaten Pulang Pisau",KALIMANTAN TENGAH,74874.0,Indonesia,,,,-2.9112236,113.8052364,https://maps.google.com/?cid=0x0:0xee96e62bbf4aa35a,
perumahan,Komplek perumahan,Rumah Hadil Arifin PPL,"4R5M+66, Sebangau Jaya, Kec. Sebangau Kuala, Kabupaten Pulang Pisau, Kalimantan Tengah 74874","Sebangau Jaya, Kec. Sebangau Kuala, Kabupaten Pulang Pisau",KALIMANTAN TENGAH,74874.0,Indonesia,,,,-2.8920004,113.8330646,https://maps.google.com/?cid=0x0:0x72f6353ff33d5d43,
perumahan,Komplek perumahan,Nadi,"3RR3+2G, Mekar Jaya, Kec. Sebangau Kuala, Kabupaten Pulang Pisau, Kalimantan Tengah 74874","Mekar Jaya, Kec. Sebangau Kuala, Kabupaten Pulang Pisau",KALIMANTAN TENGAH,74874.0,Indonesia,,,,-2.9099823,113.8037591,https://maps.google.com/?cid=0x0:0x3ded3b56e3804353,
perumahan,Komplek perumahan,Perumahan indomandiri permai kereng,"PWC9+JQJ, Sabaru, Kec. Sebangau, Kota Palangka Raya, Kalimantan Tengah 74874","Sabaru, Kec. Sebangau, Kota Palangka Raya",KALIMANTAN TENGAH,74874.0,Indonesia,,,,-2.2784096,113.9193777,https://maps.google.com/?cid=0x0:0xa5c9b7faf1a30423,
perumahan,Perumahan,Perumahan Matal Permai,"Jl. Matal No.19, Sabaru, Kec. Sebangau, Kota Palangka Raya, Kalimantan Tengah 74874","Sabaru, Kec. Sebangau, Kota Palangka Raya",KALIMANTAN TENGAH,74874.0,Indonesia,,,,-2.295941,113.9258178,https://maps.google.com/?cid=0x0:0xa8dca325f96c0e98,
perumahan,Komplek perumahan,Perumahan Sri Rezeki,"PW68+JQ8, Jalan Sri Rezeki, Kereng Bangkirai, Kec. Sebangau, Kota Palangka Raya, Kalimantan Tengah 74874","Jalan Sri Rezeki, Kereng Bangkirai, Kec. Sebangau, Kota Palangka Raya",KALIMANTAN TENGAH,74874.0,Indonesia, 082251296887,,,-2.288472,113.9169546,https://maps.google.com/?cid=0x0:0x2107d471175bf91c,
perumahan,Perhimpunan Pengembang Perumahan,Perumahan Kereng Indah Permai II,"PW99+4MX, Sabaru, Kec. Sebangau, Kota Palangka Raya, Kalimantan Tengah 74874","Sabaru, Kec. Sebangau, Kota Palangka Raya",KALIMANTAN TENGAH,74874.0,Indonesia,,,,-2.2821384,113.919234,https://maps.google.com/?cid=0x0:0x29900176d249d48c,
perumahan,Komplek perumahan,Rumah mbah amir,"3RQ4+J3R, Mekar Jaya, Kec. Sebangau Kuala, Kabupaten Pulang Pisau, Kalimantan Tengah 74874","Mekar Jaya, Kec. Sebangau Kuala, Kabupaten Pulang Pisau",KALIMANTAN TENGAH,74874.0,Indonesia,,,,-2.9108917,113.8051304,https://maps.google.com/?cid=0x0:0xc91e7eca8406f9be,
perumahan,perumahan,Rumah caknip..,"3RHC+3F, Sebangau Permai, Kec. Sebangau Kuala, Kabupaten Pulang Pisau, Kalimantan Tengah","Kabupaten Pulang Pisau, Kalimantan Tengah",KALIMANTAN TENGAH,,Indonesia,,,,-2.9222119,113.8211292,https://maps.google.com/?cid=0x0:0x89325adacd209c8d,
perumahan,Komplek perumahan,Rumah,"PWFG+34G, Jl. Markus Paul, Sabaru, Kec. Sebangau, Kota Palangka Raya, Kalimantan Tengah 74874","Jl. Markus Paul, Sabaru, Kec. Sebangau, Kota Palangka Raya",KALIMANTAN TENGAH,74874.0,Indonesia,,,,-2.2773123,113.9253257,https://maps.google.com/?cid=0x0:0xa6c367c4f4d7eadb,
perumahan,Pembangunan Perumahan,Perumahan Grand Sanur Griya Tama,"PWCG+MG2, Jl. Markus Paul, Sabaru, Kec. Sebangau, Kota Palangka Raya, Kalimantan Tengah 74874","Jl. Markus Paul, Sabaru, Kec. Sebangau, Kota Palangka Raya",KALIMANTAN TENGAH,74874.0,Indonesia,,,,-2.2783633,113.9262519,https://maps.google.com/?cid=0x0:0xdf0e916db27ef2e9,
perumahan,Pembangunan Perumahan,Perumahan Surung Asri,"Jl. Surung No.5c, Sabaru, Kec. Sebangau, Kota Palangka Raya, Kalimantan Tengah 74874","Sabaru, Kec. Sebangau, Kota Palangka Raya",KALIMANTAN TENGAH,74874.0,Indonesia, 082255993407,,,-2.2985825,113.9212365,https://maps.google.com/?cid=0x0:0x8bd87a120b6e112c,
perumahan,perumahan,Perumahan,"PWFF+Q7Q, Jl. Asabri III, Sabaru, Kec. Sebangau, Kota Palangka Raya, Kalimantan Tengah 74874","Jl. Asabri III, Sabaru, Kec. Sebangau, Kota Palangka Raya",KALIMANTAN TENGAH,74874.0,Indonesia,,,,-2.2755498,113.9232341,https://maps.google.com/?cid=0x0:0x670e9c8414c4e385,
perumahan,Pembangunan Perumahan,Kelurahan pulpis,"8X73+WJ3, Paduran Sabangau, Kec. Sebangau Kuala, Kabupaten Pulang Pisau, Kalimantan Tengah","Kabupaten Pulang Pisau, Kalimantan Tengah",KALIMANTAN TENGAH,,Indonesia, 082255371817,,,-2.6852364,113.954053,https://maps.google.com/?cid=0x0:0xdf783f016ed638fb,
perumahan,Taman,Sebangau muara sampang,"XQH3+QPR, Paduran Sabangau, Kec. Sebangau Kuala, Kabupaten Pulang Pisau, Kalimantan Tengah","Kabupaten Pulang Pisau, Kalimantan Tengah",KALIMANTAN TENGAH,,Indonesia,,,,-3.0205234,113.7542707,https://maps.google.com/?cid=0x0:0x3466d0ae98132ca9,
perumahan,Komplek perumahan,Perumahan Hasgar Permai,"PW4F+G55, Jl. Matal, Sabaru, Kec. Sebangau, Kota Palangka Raya, Kalimantan Tengah 74874","Jl. Matal, Sabaru, Kec. Sebangau, Kota Palangka Raya",KALIMANTAN TENGAH,74874.0,Indonesia,,,,-2.2937402,113.9229709,https://maps.google.com/?cid=0x0:0xaf62cc4ebc9015fe,
perumahan,Perhimpunan Pengembang Perumahan,Syahrul Gunawan Sebangau Per ma i,"3R7R+G67, Jl. Diponegoro, Sebangau Permai, Kec. Sebangau Kuala, Kabupaten Pulang Pisau, Kalimantan Tengah 74874","Jl. Diponegoro, Sebangau Permai, Kec. Sebangau Kuala, Kabupaten Pulang Pisau",KALIMANTAN TENGAH,74874.0,Indonesia,,,,-2.9368515,113.8417305,https://maps.google.com/?cid=0x0:0x24f9c0fb57fb187c,
perumahan,Komplek perumahan,Rumah gopur,"4R9F+CFR, Sebangau Jaya, Kec. Sebangau Kuala, Kabupaten Pulang Pisau, Kalimantan Tengah 74874","Sebangau Jaya, Kec. Sebangau Kuala, Kabupaten Pulang Pisau",KALIMANTAN TENGAH,74874.0,Indonesia,,,,-2.8813948,113.8236276,https://maps.google.com/?cid=0x0:0xd07decc6c9367c85,
perumahan,Pembangunan Perumahan,Pulang pisau maliku,"8X83+2F6, Paduran Sabangau, Kec. Sebangau Kuala, Kabupaten Pulang Pisau, Kalimantan Tengah","Kabupaten Pulang Pisau, Kalimantan Tengah",KALIMANTAN TENGAH,,Indonesia,,,,-2.6849607,113.9536466,https://maps.google.com/?cid=0x0:0x7cddd676964aff7b,
perumahan,Komplek perumahan,Rumah Kamarudin,"4R4J+4G, Sebangau Jaya, Kec. Sebangau Kuala, Kabupaten Pulang Pisau, Kalimantan Tengah","Kabupaten Pulang Pisau, Kalimantan Tengah",KALIMANTAN TENGAH,,Indonesia,,,,-2.8946631,113.8313527,https://maps.google.com/?cid=0x0:0x78c16c8b03c779e3,
perumahan,Komplek perumahan,Akhir Poros,"3RH9+76M, Sebangau Permai, Kec. Sebangau Kuala, Kabupaten Pulang Pisau, Kalimantan Tengah 74874","Sebangau Permai, Kec. Sebangau Kuala, Kabupaten Pulang Pisau",KALIMANTAN TENGAH,74874.0,Indonesia,,,,-2.9217793,113.8180472,https://maps.google.com/?cid=0x0:0x69966e4cbad76790,
perumahan,Komplek perumahan,Rumah Dila Nanu Nia,"3R8Q+9X4, Sebangau Permai, Kec. Sebangau Kuala, Kabupaten Pulang Pisau, Kalimantan Tengah","Kabupaten Pulang Pisau, Kalimantan Tengah",KALIMANTAN TENGAH,,Indonesia,,,,-2.9341177,113.8399585,https://maps.google.com/?cid=0x0:0x759ecd659e1e74d6,
perumahan,Pembangunan Perumahan,Tahai jaya,"8X83+2F6, Mantaren I, Kec. Sebangau Kuala, Kabupaten Pulang Pisau, Kalimantan Tengah","Kabupaten Pulang Pisau, Kalimantan Tengah",KALIMANTAN TENGAH,,Indonesia,,,,-2.6849607,113.9536466,https://maps.google.com/?cid=0x0:0x50170912aa6d88fc,
perumahan,Komplek perumahan,Rc,"3R8R+367, Sebangau Permai, Kec. Sebangau Kuala, Kabupaten Pulang Pisau, Kalimantan Tengah 74874","Sebangau Permai, Kec. Sebangau Kuala, Kabupaten Pulang Pisau",KALIMANTAN TENGAH,74874.0,Indonesia,,,,-2.9348463,113.840537,https://maps.google.com/?cid=0x0:0xddd349b248f1e2b,
perumahan,Komplek perumahan,Rumah Mas Her,"4Q68+VC, Sebangau Mulya, Kec. Sebangau Kuala, Kabupaten Pulang Pisau, Kalimantan Tengah","Kabupaten Pulang Pisau, Kalimantan Tengah",KALIMANTAN TENGAH,,Indonesia,,,,-2.8878459,113.7660057,https://maps.google.com/?cid=0x0:0xd6aab298bfe4f366,
