Category;Real Category;Business Name;Address;City;State;Postal Code;Country;Phone;Email;Website;Latitude;Longitude;Map Link;Details Link
mall;mall;Pasar Kendahe;"MCQ2+Q93, Kendahe I, Kendahe, Kabupaten Kepulauan Sangihe, Sulawesi Utara";"Kabupaten Kepulauan Sangihe, Sulawesi Utara";SULAWESI UTARA;;Indonesia;;;;36.893.865;1.254.009.268;https://maps.google.com/?cid=0x0:0x1ebe54ef632d0151;
mall;mall;Kepulauan Marore;"Kabupaten Kepulauan Sangihe, Sulawesi Utara";"Kabupaten Kepulauan Sangihe, Sulawesi Utara";SULAWESI UTARA;;Indonesia;;;;46.413.429;1.256.259.517;https://maps.google.com/?cid=0x0:0x3a2e9dfaedbd16ca;
mall;mall;Marore iland indonesia;"PFJP+HMV, Marore, Kepulauan Marore, Kabupaten Kepulauan Sangihe, Sulawesi Utara";"Kabupaten Kepulauan Sangihe, Sulawesi Utara";SULAWESI UTARA;;Indonesia;;;;47.314.855;1.254.866.653;https://maps.google.com/?cid=0x0:0xb1983448bb33c937;
mall;Pasar;Paragon Mart;"JF6V+45X, Sawang Bendar, Kec. Tahuna, Kabupaten Kepulauan Sangihe, Sulawesi Utara";"Kabupaten Kepulauan Sangihe, Sulawesi Utara";SULAWESI UTARA;;Indonesia;;;;36.103.533;1.254.929.745;https://maps.google.com/?cid=0x0:0x54085e71379ddd32;
mall;mall;Kec. Manganitu;"Kabupaten Kepulauan Sangihe, Sulawesi Utara";"Kabupaten Kepulauan Sangihe, Sulawesi Utara";SULAWESI UTARA;;Indonesia;;;;35.693.016;125.512.093;https://maps.google.com/?cid=0x0:0xc130a69c6e159c08;
mall;Pasar;Paragon Mart;"JF6V+45X, Sawang Bendar, Kec. Tahuna, Kabupaten Kepulauan Sangihe, Sulawesi Utara";"Kabupaten Kepulauan Sangihe, Sulawesi Utara";SULAWESI UTARA;;Indonesia;;;;36.103.533;1.254.929.745;https://maps.google.com/?cid=0x0:0x54085e71379ddd32;
mall;Pusat Perbelanjaan;Mini Mall Tahuna;"JF6R+4C2, Sawang Bendar, Kec. Tahuna, Kabupaten Kepulauan Sangihe, Sulawesi Utara";"Kabupaten Kepulauan Sangihe, Sulawesi Utara";SULAWESI UTARA;;Indonesia;;;;36.102.652;1.254.910.135;https://maps.google.com/?cid=0x0:0xfb5df94980acc17c;
mall;Pasar;Pusat Kota Tahuna;"JF5R+QW8, Jl. Raramenusa, Sawang Bendar, Kec. Tahuna, Kabupaten Kepulauan Sangihe, Sulawesi Utara";"Kabupaten Kepulauan Sangihe, Sulawesi Utara";SULAWESI UTARA;;Indonesia;;;;36.094.072;125.492.338;https://maps.google.com/?cid=0x0:0xad2f6634d6a4b0c;
mall;mall;Tahuna Mall;"JF77+VJQ, Santiago, Kec. Tahuna, Kabupaten Kepulauan Sangihe, Sulawesi Utara";"Kabupaten Kepulauan Sangihe, Sulawesi Utara";SULAWESI UTARA;;Indonesia;;;;3.614.701;1.254.641.197;https://maps.google.com/?cid=0x0:0x4cb4dc79a530f55f;
mall;Otoritas Pelabuhan;Pelabuhan tua tahuna;"JF5R+FF5, Apeng Sembeka, Kec. Tahuna, Kabupaten Kepulauan Sangihe, Sulawesi Utara";"Kabupaten Kepulauan Sangihe, Sulawesi Utara";SULAWESI UTARA;;Indonesia;;;;3.608.635;125.491.224;https://maps.google.com/?cid=0x0:0x37780677d02ec8a3;
mall;Kios;Warung Angel;"HG87+P89, Mala, Kec. Manganitu, Kabupaten Kepulauan Sangihe, Sulawesi Utara";"Kabupaten Kepulauan Sangihe, Sulawesi Utara";SULAWESI UTARA;;Indonesia;082192389444;;;35.667.832;1.255.133.509;https://maps.google.com/?cid=0x0:0xfd8194aef32f1055;
mall;Toko bahan makanan;Pasar Rakyat Tamako;"FG43+JFH, Nagha I, Tamako, Kabupaten Kepulauan Sangihe, Sulawesi Utara";"Kabupaten Kepulauan Sangihe, Sulawesi Utara";SULAWESI UTARA;;Indonesia;085299299208;;;34.565.664;1.255.037.236;https://maps.google.com/?cid=0x0:0x77174ec484a08012;
mall;Toko bahan makanan;Kios Berkat Mulia;"JG45+HH7, Unnamed Road, Tona I, Kec. Tahuna Tim., Kabupaten Kepulauan Sangihe, Sulawesi Utara";"Kabupaten Kepulauan Sangihe, Sulawesi Utara";SULAWESI UTARA;;Indonesia;;;;36.064.112;1.255.089.169;https://maps.google.com/?cid=0x0:0xaa63b26e7d81e2fe;
mall;Pasar;Sangihe Art And Souvenir;"JF6X+HWV, Soataloara I, Kec. Tahuna, Kabupaten Kepulauan Sangihe, Sulawesi Utara";"Kabupaten Kepulauan Sangihe, Sulawesi Utara";SULAWESI UTARA;;Indonesia;085240513567;;;36.114.979;1.254.998.101;https://maps.google.com/?cid=0x0:0x8260fa3095d558f6;
mall;Toko Pakaian;Trufarm~Mart And Modern~Fashion;"JF5R+HRR, Jl. Makaampo, Sawang Bendar, Kec. Tahuna, Kabupaten Kepulauan Sangihe, Sulawesi Utara";"Kabupaten Kepulauan Sangihe, Sulawesi Utara";SULAWESI UTARA;;Indonesia;;;;36.089.831;1.254.920.025;https://maps.google.com/?cid=0x0:0xae2a34e9066debae;
mall;Toko bahan makanan;Lulege;"JF6W+3MH, Pasar Towo'e, Soataloara I, Kec. Tahuna, Kabupaten Kepulauan Sangihe, Sulawesi Utara 95812";"Pasar Towo'e, Soataloara I, Kec. Tahuna, Kabupaten Kepulauan Sangihe";SULAWESI UTARA;95812;Indonesia;;;;36.101.853;1.254.967.281;https://maps.google.com/?cid=0x0:0x5a9793a27a767241;
mall;Pusat Perbelanjaan;Agzo shop;"JF4J+RV4, Apeng Sembeka, Kec. Tahuna, Kabupaten Kepulauan Sangihe, Sulawesi Utara";"Kabupaten Kepulauan Sangihe, Sulawesi Utara";SULAWESI UTARA;;Indonesia;085242707182;;;36.070.041;125.482.195;https://maps.google.com/?cid=0x0:0x847525cd23fb3b14;
mall;mall;Kios UWO Manganitu;"HGC8+8P5, Jalan Pertigaan ke Nahepese, Taloarane, Kec. Manganitu, Kabupaten Kepulauan Sangihe, Sulawesi Utara";"Kabupaten Kepulauan Sangihe, Sulawesi Utara";SULAWESI UTARA;;Indonesia;;;;35.707.653;1.255.168.711;https://maps.google.com/?cid=0x0:0x4fea4ff0e8e8e28b;
mall;Komplek perumahan;Rumah Raja Manganitu;"HG89+938, Taloarane I, Kec. Manganitu, Kabupaten Kepulauan Sangihe, Sulawesi Utara";"Kabupaten Kepulauan Sangihe, Sulawesi Utara";SULAWESI UTARA;;Indonesia;;;;35.659.151;1.255.177.055;https://maps.google.com/?cid=0x0:0x4e67d14d5a2b2bfa;
mall;Perusahaan pengolahan makanan;agen buah;"JF6W+F99, Sawang Bendar, Kec. Tahuna, Kabupaten Kepulauan Sangihe, Sulawesi Utara";"Kabupaten Kepulauan Sangihe, Sulawesi Utara";SULAWESI UTARA;;Indonesia;082353344070;;;36.111.686;125.495.983;https://maps.google.com/?cid=0x0:0x7e01a16904e4ad78;
mall;Toko Pakaian;Toko STARS TAHUNA;"JF5R+MFJ, Unnamed Road, Sawang Bendar, Kec. Tahuna, Kabupaten Kepulauan Sangihe, Sulawesi Utara";"Kabupaten Kepulauan Sangihe, Sulawesi Utara";SULAWESI UTARA;;Indonesia;082347508687;;;36.092.167;125.491.143;https://maps.google.com/?cid=0x0:0x6aefc3604056e37b;
mall;mall;Manganitu Sel.;"Kabupaten Kepulauan Sangihe, Sulawesi Utara";"Kabupaten Kepulauan Sangihe, Sulawesi Utara";SULAWESI UTARA;;Indonesia;;;;34.016.429;125.620.484;https://maps.google.com/?cid=0x0:0x74c38fb5de9eba1e;
mall;mall;SMP Negeri 1 Manganitu Selatan;"CHQM+FX3, Kaluwatu, Manganitu Sel., Kabupaten Kepulauan Sangihe, Sulawesi Utara";"Kabupaten Kepulauan Sangihe, Sulawesi Utara";SULAWESI UTARA;;Indonesia;082347506492;;;34.386.328;1.255.849.346;https://maps.google.com/?cid=0x0:0xae61b86a0a39a572;
mall;Pasar;Pasar Ikan Kalawatu;"CHQC+JHP, Kaluwatu, Manganitu Sel., Kabupaten Kepulauan Sangihe, Sulawesi Utara";"Kabupaten Kepulauan Sangihe, Sulawesi Utara";SULAWESI UTARA;;Indonesia;;;;34.390.829;1.255.714.627;https://maps.google.com/?cid=0x0:0x8c1b6481a1635590;
mall;Minimarket;Dumarisi89 Mart(D-89);"CHQ7+VF5, Dagho, Tamako, Kabupaten Kepulauan Sangihe, Sulawesi Utara";"Kabupaten Kepulauan Sangihe, Sulawesi Utara";SULAWESI UTARA;;Indonesia;081340599968;;;34.396.373;1.255.637.474;https://maps.google.com/?cid=0x0:0x6567a77c4e02fb50;
mall;mall;Nusa Tabukan;"Kabupaten Kepulauan Sangihe, Sulawesi Utara";"Kabupaten Kepulauan Sangihe, Sulawesi Utara";SULAWESI UTARA;;Indonesia;;;;37.780.322;1.255.904.048;https://maps.google.com/?cid=0x0:0x6fd788077ef450df;
mall;Pasar;Paragon Mart;"JF6V+45X, Sawang Bendar, Kec. Tahuna, Kabupaten Kepulauan Sangihe, Sulawesi Utara";"Kabupaten Kepulauan Sangihe, Sulawesi Utara";SULAWESI UTARA;;Indonesia;;;;36.103.533;1.254.929.745;https://maps.google.com/?cid=0x0:0x54085e71379ddd32;
mall;mall;Tahuna Mall;"JF77+VJQ, Santiago, Kec. Tahuna, Kabupaten Kepulauan Sangihe, Sulawesi Utara";"Kabupaten Kepulauan Sangihe, Sulawesi Utara";SULAWESI UTARA;;Indonesia;;;;3.614.701;1.254.641.197;https://maps.google.com/?cid=0x0:0x4cb4dc79a530f55f;
mall;mall;Tabukan Sel. Tengah;"Kabupaten Kepulauan Sangihe, Sulawesi Utara";"Kabupaten Kepulauan Sangihe, Sulawesi Utara";SULAWESI UTARA;;Indonesia;;;;34.630.696;1.256.478.189;https://maps.google.com/?cid=0x0:0xd87fa84db2a69d30;
mall;Pusat Perbelanjaan;Pasar Talengen;"HHR8+G9V, Talengen, Kec. Tabukan Tengah, Kabupaten Kepulauan Sangihe, Sulawesi Utara";"Kabupaten Kepulauan Sangihe, Sulawesi Utara";SULAWESI UTARA;;Indonesia;;;;35.913.562;1.255.659.347;https://maps.google.com/?cid=0x0:0x2bcd2224072ddbfd;
mall;Pusat Perbelanjaan;Megamall Manado;"Kawasan Megamas, Kantor Pengelola Megamall, Jl. Piere Tendean, Wenang Sel., Kec. Wenang, Kota Manado, Sulawesi Utara 95234";"Kantor Pengelola Megamall, Jl. Piere Tendean, Wenang Sel., Kec. Wenang, Kota Manado";SULAWESI UTARA;95234;Indonesia;0431879889;;;14.839.687;1.248.348.372;https://maps.google.com/?cid=0x0:0xfcc9b9fa2283700;
mall;mall;Market;"HHFJ+JGJ, Kuma I, Kec. Tabukan Tengah, Kabupaten Kepulauan Sangihe, Sulawesi Utara";"Kabupaten Kepulauan Sangihe, Sulawesi Utara";SULAWESI UTARA;;Indonesia;;;;35.740.793;1.255.812.725;https://maps.google.com/?cid=0x0:0xf60e08b4b204733;
mall;mall;Martine;"HHFJ+G9J, Pasar, Kuma, Kec. Tabukan Tengah, Kabupaten Kepulauan Sangihe, Sulawesi Utara";"Kabupaten Kepulauan Sangihe, Sulawesi Utara";SULAWESI UTARA;;Indonesia;;;;3.573.839;1.255.808.801;https://maps.google.com/?cid=0x0:0x7db75dc6f1505178;
mall;mall;Kec. Tabukan Sel.;"Kabupaten Kepulauan Sangihe, Sulawesi Utara";"Kabupaten Kepulauan Sangihe, Sulawesi Utara";SULAWESI UTARA;;Indonesia;;;;35.171.771;1.256.226.871;https://maps.google.com/?cid=0x0:0xf03a5b084c01a081;
mall;Pusat Perbelanjaan;Pasar Talengen;"HHR8+G9V, Talengen, Kec. Tabukan Tengah, Kabupaten Kepulauan Sangihe, Sulawesi Utara";"Kabupaten Kepulauan Sangihe, Sulawesi Utara";SULAWESI UTARA;;Indonesia;;;;35.913.562;1.255.659.347;https://maps.google.com/?cid=0x0:0x2bcd2224072ddbfd;
mall;mall;Tahuna Mall;"JF77+VJQ, Santiago, Kec. Tahuna, Kabupaten Kepulauan Sangihe, Sulawesi Utara";"Kabupaten Kepulauan Sangihe, Sulawesi Utara";SULAWESI UTARA;;Indonesia;;;;3.614.701;1.254.641.197;https://maps.google.com/?cid=0x0:0x4cb4dc79a530f55f;
mall;Pembangunan Perumahan;Bahu Mall;"FR6G+W4J, Bahu Mall, R.W., Jl. Wolter Monginsidi, Bahu, Malalayang, Manado City, North Sulawesi";"Kota Manado, Sulawesi Utara";SULAWESI UTARA;;Indonesia;1500125;;;14.623.338;1.248.252.763;https://maps.google.com/?cid=0x0:0x75b15af9becce842;
mall;mall;Market;"HHFJ+JGJ, Kuma I, Kec. Tabukan Tengah, Kabupaten Kepulauan Sangihe, Sulawesi Utara";"Kabupaten Kepulauan Sangihe, Sulawesi Utara";SULAWESI UTARA;;Indonesia;;;;35.740.793;1.255.812.725;https://maps.google.com/?cid=0x0:0xf60e08b4b204733;
mall;Pusat Perbelanjaan;Mini Mall Tahuna;"JF6R+4C2, Sawang Bendar, Kec. Tahuna, Kabupaten Kepulauan Sangihe, Sulawesi Utara";"Kabupaten Kepulauan Sangihe, Sulawesi Utara";SULAWESI UTARA;;Indonesia;;;;36.102.652;1.254.910.135;https://maps.google.com/?cid=0x0:0xfb5df94980acc17c;
mall;mall;Martine;"HHFJ+G9J, Pasar, Kuma, Kec. Tabukan Tengah, Kabupaten Kepulauan Sangihe, Sulawesi Utara";"Kabupaten Kepulauan Sangihe, Sulawesi Utara";SULAWESI UTARA;;Indonesia;;;;3.573.839;1.255.808.801;https://maps.google.com/?cid=0x0:0x7db75dc6f1505178;
mall;Pasar;Paragon Mart;"JF6V+45X, Sawang Bendar, Kec. Tahuna, Kabupaten Kepulauan Sangihe, Sulawesi Utara";"Kabupaten Kepulauan Sangihe, Sulawesi Utara";SULAWESI UTARA;;Indonesia;;;;36.103.533;1.254.929.745;https://maps.google.com/?cid=0x0:0x54085e71379ddd32;
mall;mall;Kec. Tabukan Tengah;"Kabupaten Kepulauan Sangihe, Sulawesi Utara";"Kabupaten Kepulauan Sangihe, Sulawesi Utara";SULAWESI UTARA;;Indonesia;;;;35.716.264;1.255.765.487;https://maps.google.com/?cid=0x0:0x4030bfbcaf78960;
mall;Pusat Perbelanjaan;Pasar Talengen;"HHR8+G9V, Talengen, Kec. Tabukan Tengah, Kabupaten Kepulauan Sangihe, Sulawesi Utara";"Kabupaten Kepulauan Sangihe, Sulawesi Utara";SULAWESI UTARA;;Indonesia;;;;35.913.562;1.255.659.347;https://maps.google.com/?cid=0x0:0x2bcd2224072ddbfd;
mall;Pasar;Pasar Petta;"JHW5+MMG, Petta Bar., Kec. Tabukan Utara, Kabupaten Kepulauan Sangihe, Sulawesi Utara";"Kabupaten Kepulauan Sangihe, Sulawesi Utara";SULAWESI UTARA;;Indonesia;;;;36.466.899;125.559.198;https://maps.google.com/?cid=0x0:0x14e6d093f4375e52;
mall;mall;Tahuna Mall;"JF77+VJQ, Santiago, Kec. Tahuna, Kabupaten Kepulauan Sangihe, Sulawesi Utara";"Kabupaten Kepulauan Sangihe, Sulawesi Utara";SULAWESI UTARA;;Indonesia;;;;3.614.701;1.254.641.197;https://maps.google.com/?cid=0x0:0x4cb4dc79a530f55f;
mall;Pasar;Pusat Kota Tahuna;"JF5R+QW8, Jl. Raramenusa, Sawang Bendar, Kec. Tahuna, Kabupaten Kepulauan Sangihe, Sulawesi Utara";"Kabupaten Kepulauan Sangihe, Sulawesi Utara";SULAWESI UTARA;;Indonesia;;;;36.094.072;125.492.338;https://maps.google.com/?cid=0x0:0xad2f6634d6a4b0c;
mall;Otoritas Pelabuhan;Pelabuhan tua tahuna;"JF5R+FF5, Apeng Sembeka, Kec. Tahuna, Kabupaten Kepulauan Sangihe, Sulawesi Utara";"Kabupaten Kepulauan Sangihe, Sulawesi Utara";SULAWESI UTARA;;Indonesia;;;;3.608.635;125.491.224;https://maps.google.com/?cid=0x0:0x37780677d02ec8a3;
mall;Pasar;FC CENTER;"Jln. SMK NEGERI 1 Tahuna Tim.,, Dumuhung, Kec. Tahuna Tim., Kabupaten Kepulauan Sangihe, Sulawesi Utara";"Kabupaten Kepulauan Sangihe, Sulawesi Utara";SULAWESI UTARA;;Indonesia;085242593169;;;36.105.571;1.255.048.727;https://maps.google.com/?cid=0x0:0xe0269faf51e05a22;
mall;Toko;BELVINT CELL PETTA;"JHX6+965, Petta Tim., Kec. Tabukan Utara, Kabupaten Kepulauan Sangihe, Sulawesi Utara";"Kabupaten Kepulauan Sangihe, Sulawesi Utara";SULAWESI UTARA;;Indonesia;;;;36.483.924;1.255.606.209;https://maps.google.com/?cid=0x0:0x1d2f1e487a6bf338;
mall;Pusat Perbelanjaan;Warung Ibnu;"JHW5+QW9, Unnamed Road, Petta Tim., Kec. Tabukan Utara, Kabupaten Kepulauan Sangihe, Sulawesi Utara";"Kabupaten Kepulauan Sangihe, Sulawesi Utara";SULAWESI UTARA;;Indonesia;;;;3.646.912;1.255.598.485;https://maps.google.com/?cid=0x0:0xcbbc3e00dc2b2667;
mall;mall;Market;"HHFJ+JGJ, Kuma I, Kec. Tabukan Tengah, Kabupaten Kepulauan Sangihe, Sulawesi Utara";"Kabupaten Kepulauan Sangihe, Sulawesi Utara";SULAWESI UTARA;;Indonesia;;;;35.740.793;1.255.812.725;https://maps.google.com/?cid=0x0:0xf60e08b4b204733;
mall;mall;Martine;"HHFJ+G9J, Pasar, Kuma, Kec. Tabukan Tengah, Kabupaten Kepulauan Sangihe, Sulawesi Utara";"Kabupaten Kepulauan Sangihe, Sulawesi Utara";SULAWESI UTARA;;Indonesia;;;;3.573.839;1.255.808.801;https://maps.google.com/?cid=0x0:0x7db75dc6f1505178;
mall;mall;Kec. Tabukan Sel. Tenggara;"Kabupaten Kepulauan Sangihe, Sulawesi Utara";"Kabupaten Kepulauan Sangihe, Sulawesi Utara";SULAWESI UTARA;;Indonesia;;;;34.599.844;1.256.590.853;https://maps.google.com/?cid=0x0:0xea3a936de4045559;
mall;mall;Tahuna Mall;"JF77+VJQ, Santiago, Kec. Tahuna, Kabupaten Kepulauan Sangihe, Sulawesi Utara";"Kabupaten Kepulauan Sangihe, Sulawesi Utara";SULAWESI UTARA;;Indonesia;;;;3.614.701;1.254.641.197;https://maps.google.com/?cid=0x0:0x4cb4dc79a530f55f;
mall;Pasar;Pasar Ikan Kalawatu;"CHQC+JHP, Kaluwatu, Manganitu Sel., Kabupaten Kepulauan Sangihe, Sulawesi Utara";"Kabupaten Kepulauan Sangihe, Sulawesi Utara";SULAWESI UTARA;;Indonesia;;;;34.390.829;1.255.714.627;https://maps.google.com/?cid=0x0:0x8c1b6481a1635590;
mall;Pusat Perbelanjaan;Mini Mall Tahuna;"JF6R+4C2, Sawang Bendar, Kec. Tahuna, Kabupaten Kepulauan Sangihe, Sulawesi Utara";"Kabupaten Kepulauan Sangihe, Sulawesi Utara";SULAWESI UTARA;;Indonesia;;;;36.102.652;1.254.910.135;https://maps.google.com/?cid=0x0:0xfb5df94980acc17c;
mall;Pembangunan Perumahan;Bahu Mall;"FR6G+W4J, Bahu Mall, R.W., Jl. Wolter Monginsidi, Bahu, Malalayang, Manado City, North Sulawesi";"Kota Manado, Sulawesi Utara";SULAWESI UTARA;;Indonesia;1500125;;;14.623.338;1.248.252.763;https://maps.google.com/?cid=0x0:0x75b15af9becce842;
mall;Pusat Perbelanjaan;Manado Town Square;"Jl. Piere Tendean, Kota Manado, Sulawesi Utara 95114";Kota Manado;SULAWESI UTARA;95114;Indonesia;;;;14.723.227;1.248.319.485;https://maps.google.com/?cid=0x0:0xea03227619d4f862;
mall;mall;Kios Yanasti;"CH2R+885, Lapango I, Manganitu Sel., Kabupaten Kepulauan Sangihe, Sulawesi Utara";"Kabupaten Kepulauan Sangihe, Sulawesi Utara";SULAWESI UTARA;;Indonesia;082349077039;;;34.007.598;1.255.908.748;https://maps.google.com/?cid=0x0:0x506bb766cb2f45b9;
mall;Pusat Perbelanjaan;Star Square Manado;"FR6G+V7M, Jl. R.W. Monginsidi VI, Bahu, Kec. Malalayang, Kota Manado, Sulawesi Utara";"Kota Manado, Sulawesi Utara";SULAWESI UTARA;;Indonesia;;;;14.622.127;1.248.256.859;https://maps.google.com/?cid=0x0:0x83f753d1d9781005;
mall;mall;SMP Negeri 1 Manganitu Selatan;"CHQM+FX3, Kaluwatu, Manganitu Sel., Kabupaten Kepulauan Sangihe, Sulawesi Utara";"Kabupaten Kepulauan Sangihe, Sulawesi Utara";SULAWESI UTARA;;Indonesia;082347506492;;;34.386.328;1.255.849.346;https://maps.google.com/?cid=0x0:0xae61b86a0a39a572;
mall;mall;Market;"HHFJ+JGJ, Kuma I, Kec. Tabukan Tengah, Kabupaten Kepulauan Sangihe, Sulawesi Utara";"Kabupaten Kepulauan Sangihe, Sulawesi Utara";SULAWESI UTARA;;Indonesia;;;;35.740.793;1.255.812.725;https://maps.google.com/?cid=0x0:0xf60e08b4b204733;
mall;mall;Martine;"HHFJ+G9J, Pasar, Kuma, Kec. Tabukan Tengah, Kabupaten Kepulauan Sangihe, Sulawesi Utara";"Kabupaten Kepulauan Sangihe, Sulawesi Utara";SULAWESI UTARA;;Indonesia;;;;3.573.839;1.255.808.801;https://maps.google.com/?cid=0x0:0x7db75dc6f1505178;
mall;mall;Pasar Rakyat Kaluwatu;"CHRC+6F2, Kaluwatu, Manganitu Sel., Kabupaten Kepulauan Sangihe, Sulawesi Utara";"Kabupaten Kepulauan Sangihe, Sulawesi Utara";SULAWESI UTARA;;Indonesia;;;;34.405.138;1.255.711.517;https://maps.google.com/?cid=0x0:0x602973dc2cb40c36;
mall;mall;Kec. Tabukan Utara;"Kabupaten Kepulauan Sangihe, Sulawesi Utara";"Kabupaten Kepulauan Sangihe, Sulawesi Utara";SULAWESI UTARA;;Indonesia;;;;36.892.367;1.255.353.986;https://maps.google.com/?cid=0x0:0x3513a069515adb7f;
mall;Toko umum;Pasar Naha;"MGRM+H4F, Naha I, Kec. Tabukan Utara, Kabupaten Kepulauan Sangihe, Sulawesi Utara";"Kabupaten Kepulauan Sangihe, Sulawesi Utara";SULAWESI UTARA;;Indonesia;;;;36.914.421;125.532.801;https://maps.google.com/?cid=0x0:0x63bc5f727b65cfde;
mall;Pasar;Pasar Petta;"JHW5+MMG, Petta Bar., Kec. Tabukan Utara, Kabupaten Kepulauan Sangihe, Sulawesi Utara";"Kabupaten Kepulauan Sangihe, Sulawesi Utara";SULAWESI UTARA;;Indonesia;;;;36.466.899;125.559.198;https://maps.google.com/?cid=0x0:0x14e6d093f4375e52;
mall;Pasar;Pusat Kota Tahuna;"JF5R+QW8, Jl. Raramenusa, Sawang Bendar, Kec. Tahuna, Kabupaten Kepulauan Sangihe, Sulawesi Utara";"Kabupaten Kepulauan Sangihe, Sulawesi Utara";SULAWESI UTARA;;Indonesia;;;;36.094.072;125.492.338;https://maps.google.com/?cid=0x0:0xad2f6634d6a4b0c;
mall;Pusat Perbelanjaan;Warung Ibnu;"JHW5+QW9, Unnamed Road, Petta Tim., Kec. Tabukan Utara, Kabupaten Kepulauan Sangihe, Sulawesi Utara";"Kabupaten Kepulauan Sangihe, Sulawesi Utara";SULAWESI UTARA;;Indonesia;;;;3.646.912;1.255.598.485;https://maps.google.com/?cid=0x0:0xcbbc3e00dc2b2667;
mall;Pasar;FC CENTER;"Jln. SMK NEGERI 1 Tahuna Tim.,, Dumuhung, Kec. Tahuna Tim., Kabupaten Kepulauan Sangihe, Sulawesi Utara";"Kabupaten Kepulauan Sangihe, Sulawesi Utara";SULAWESI UTARA;;Indonesia;085242593169;;;36.105.571;1.255.048.727;https://maps.google.com/?cid=0x0:0xe0269faf51e05a22;
mall;Pusat Perbelanjaan;Mini Mall Tahuna;"JF6R+4C2, Sawang Bendar, Kec. Tahuna, Kabupaten Kepulauan Sangihe, Sulawesi Utara";"Kabupaten Kepulauan Sangihe, Sulawesi Utara";SULAWESI UTARA;;Indonesia;;;;36.102.652;1.254.910.135;https://maps.google.com/?cid=0x0:0xfb5df94980acc17c;
mall;Toko;BELVINT CELL PETTA;"JHX6+965, Petta Tim., Kec. Tabukan Utara, Kabupaten Kepulauan Sangihe, Sulawesi Utara";"Kabupaten Kepulauan Sangihe, Sulawesi Utara";SULAWESI UTARA;;Indonesia;;;;36.483.924;1.255.606.209;https://maps.google.com/?cid=0x0:0x1d2f1e487a6bf338;
mall;Otoritas Pelabuhan;Pelabuhan tua tahuna;"JF5R+FF5, Apeng Sembeka, Kec. Tahuna, Kabupaten Kepulauan Sangihe, Sulawesi Utara";"Kabupaten Kepulauan Sangihe, Sulawesi Utara";SULAWESI UTARA;;Indonesia;;;;3.608.635;125.491.224;https://maps.google.com/?cid=0x0:0x37780677d02ec8a3;
mall;Tujuan Wisata;Tahuna Waterpark  Mall;"jl apengsembeka, Santiago, Kec. Tahuna, Kabupaten Kepulauan Sangihe, Sulawesi Utara 95811";"Santiago, Kec. Tahuna, Kabupaten Kepulauan Sangihe";SULAWESI UTARA;95811;Indonesia;081238803746;;;36.141.414;1.254.633.304;https://maps.google.com/?cid=0x0:0xef2bd2785f359905;
mall;Pasar;Sangihe Art And Souvenir;"JF6X+HWV, Soataloara I, Kec. Tahuna, Kabupaten Kepulauan Sangihe, Sulawesi Utara";"Kabupaten Kepulauan Sangihe, Sulawesi Utara";SULAWESI UTARA;;Indonesia;085240513567;;;36.114.979;1.254.998.101;https://maps.google.com/?cid=0x0:0x8260fa3095d558f6;
mall;Toko Pakaian;Toko STARS TAHUNA;"JF5R+MFJ, Unnamed Road, Sawang Bendar, Kec. Tahuna, Kabupaten Kepulauan Sangihe, Sulawesi Utara";"Kabupaten Kepulauan Sangihe, Sulawesi Utara";SULAWESI UTARA;;Indonesia;082347508687;;;36.092.167;125.491.143;https://maps.google.com/?cid=0x0:0x6aefc3604056e37b;
mall;Toko bahan makanan;Kios Berkat Mulia;"JG45+HH7, Unnamed Road, Tona I, Kec. Tahuna Tim., Kabupaten Kepulauan Sangihe, Sulawesi Utara";"Kabupaten Kepulauan Sangihe, Sulawesi Utara";SULAWESI UTARA;;Indonesia;;;;36.064.112;1.255.089.169;https://maps.google.com/?cid=0x0:0xaa63b26e7d81e2fe;
mall;Toko Pakaian;Trufarm~Mart And Modern~Fashion;"JF5R+HRR, Jl. Makaampo, Sawang Bendar, Kec. Tahuna, Kabupaten Kepulauan Sangihe, Sulawesi Utara";"Kabupaten Kepulauan Sangihe, Sulawesi Utara";SULAWESI UTARA;;Indonesia;;;;36.089.831;1.254.920.025;https://maps.google.com/?cid=0x0:0xae2a34e9066debae;
mall;Pusat Perbelanjaan;Pasar Talengen;"HHR8+G9V, Talengen, Kec. Tabukan Tengah, Kabupaten Kepulauan Sangihe, Sulawesi Utara";"Kabupaten Kepulauan Sangihe, Sulawesi Utara";SULAWESI UTARA;;Indonesia;;;;35.913.562;1.255.659.347;https://maps.google.com/?cid=0x0:0x2bcd2224072ddbfd;
mall;mall;Tahuna Mall;"JF77+VJQ, Santiago, Kec. Tahuna, Kabupaten Kepulauan Sangihe, Sulawesi Utara";"Kabupaten Kepulauan Sangihe, Sulawesi Utara";SULAWESI UTARA;;Indonesia;;;;3.614.701;1.254.641.197;https://maps.google.com/?cid=0x0:0x4cb4dc79a530f55f;
mall;Printer Digital;D'PrintingFotocopy;"Bungalawang, Kec. Tahuna, Kabupaten Kepulauan Sangihe, Sulawesi Utara";"Kabupaten Kepulauan Sangihe, Sulawesi Utara";SULAWESI UTARA;;Indonesia;082281130023;;;36.084.702;1.254.781.396;https://maps.google.com/?cid=0x0:0x56625d94e76e614e;
mall;Toko bahan makanan;Toko Manente Indah;"JF7C+99G, Santiago, Kec. Tahuna, Kabupaten Kepulauan Sangihe, Sulawesi Utara";"Kabupaten Kepulauan Sangihe, Sulawesi Utara";SULAWESI UTARA;;Indonesia;082290649655;;;36.134.416;1.254.709.522;https://maps.google.com/?cid=0x0:0x97872a9eafdf13d9;
mall;Perusahaan pengolahan makanan;agen buah;"JF6W+F99, Sawang Bendar, Kec. Tahuna, Kabupaten Kepulauan Sangihe, Sulawesi Utara";"Kabupaten Kepulauan Sangihe, Sulawesi Utara";SULAWESI UTARA;;Indonesia;082353344070;;;36.111.686;125.495.983;https://maps.google.com/?cid=0x0:0x7e01a16904e4ad78;
mall;Pasar;Pasar IKAN towoe;"JF5W+WM6, Sawang Bendar, Kec. Tahuna, Kabupaten Kepulauan Sangihe, Sulawesi Utara";"Kabupaten Kepulauan Sangihe, Sulawesi Utara";SULAWESI UTARA;;Indonesia;;;;3.609.785;1.254.966.468;https://maps.google.com/?cid=0x0:0xafa2a781c6b2fac6;
mall;Pusat Perbelanjaan;Warung Eby;"JG73+587, Tim., Dumuhung, Kec. Tahuna Tim., Kabupaten Kepulauan Sangihe, Sulawesi Utara";"Kabupaten Kepulauan Sangihe, Sulawesi Utara";SULAWESI UTARA;;Indonesia;081340629593;;;3.612.913;125.503.294;https://maps.google.com/?cid=0x0:0x1c08aaa91260e27c;
mall;mall;Petta;"Kec. Tabukan Utara, Kabupaten Kepulauan Sangihe, Sulawesi Utara";"Kabupaten Kepulauan Sangihe, Sulawesi Utara";SULAWESI UTARA;;Indonesia;;;;36.505.732;1.255.507.378;https://maps.google.com/?cid=0x0:0xb2f035ccdc3bf7be;
mall;mall;Tahuna;"Sawang Bendar, Kec. Tahuna, Kabupaten Kepulauan Sangihe, Sulawesi Utara";"Kabupaten Kepulauan Sangihe, Sulawesi Utara";SULAWESI UTARA;;Indonesia;;;;3.611.106;125.485.509;https://maps.google.com/?cid=0x0:0xac6d1c5aacbd436;
mall;mall;Tahuna Mall;"JF77+VJQ, Santiago, Kec. Tahuna, Kabupaten Kepulauan Sangihe, Sulawesi Utara";"Kabupaten Kepulauan Sangihe, Sulawesi Utara";SULAWESI UTARA;;Indonesia;;;;3.614.701;1.254.641.197;https://maps.google.com/?cid=0x0:0x4cb4dc79a530f55f;
mall;Pasar;Pusat Kota Tahuna;"JF5R+QW8, Jl. Raramenusa, Sawang Bendar, Kec. Tahuna, Kabupaten Kepulauan Sangihe, Sulawesi Utara";"Kabupaten Kepulauan Sangihe, Sulawesi Utara";SULAWESI UTARA;;Indonesia;;;;36.094.072;125.492.338;https://maps.google.com/?cid=0x0:0xad2f6634d6a4b0c;
mall;Pusat Perbelanjaan;Mini Mall Tahuna;"JF6R+4C2, Sawang Bendar, Kec. Tahuna, Kabupaten Kepulauan Sangihe, Sulawesi Utara";"Kabupaten Kepulauan Sangihe, Sulawesi Utara";SULAWESI UTARA;;Indonesia;;;;36.102.652;1.254.910.135;https://maps.google.com/?cid=0x0:0xfb5df94980acc17c;
mall;Otoritas Pelabuhan;Pelabuhan tua tahuna;"JF5R+FF5, Apeng Sembeka, Kec. Tahuna, Kabupaten Kepulauan Sangihe, Sulawesi Utara";"Kabupaten Kepulauan Sangihe, Sulawesi Utara";SULAWESI UTARA;;Indonesia;;;;3.608.635;125.491.224;https://maps.google.com/?cid=0x0:0x37780677d02ec8a3;
mall;Tujuan Wisata;Tahuna Waterpark  Mall;"jl apengsembeka, Santiago, Kec. Tahuna, Kabupaten Kepulauan Sangihe, Sulawesi Utara 95811";"Santiago, Kec. Tahuna, Kabupaten Kepulauan Sangihe";SULAWESI UTARA;95811;Indonesia;081238803746;;;36.141.414;1.254.633.304;https://maps.google.com/?cid=0x0:0xef2bd2785f359905;
mall;Pasar;FC CENTER;"Jln. SMK NEGERI 1 Tahuna Tim.,, Dumuhung, Kec. Tahuna Tim., Kabupaten Kepulauan Sangihe, Sulawesi Utara";"Kabupaten Kepulauan Sangihe, Sulawesi Utara";SULAWESI UTARA;;Indonesia;085242593169;;;36.105.571;1.255.048.727;https://maps.google.com/?cid=0x0:0xe0269faf51e05a22;
mall;Toko Pakaian;Toko STARS TAHUNA;"JF5R+MFJ, Unnamed Road, Sawang Bendar, Kec. Tahuna, Kabupaten Kepulauan Sangihe, Sulawesi Utara";"Kabupaten Kepulauan Sangihe, Sulawesi Utara";SULAWESI UTARA;;Indonesia;082347508687;;;36.092.167;125.491.143;https://maps.google.com/?cid=0x0:0x6aefc3604056e37b;
mall;Pusat Perbelanjaan;Kampung Basauh;"JF6P+C6R, Sawang Bendar, Kec. Tahuna, Kabupaten Kepulauan Sangihe, Sulawesi Utara";"Kabupaten Kepulauan Sangihe, Sulawesi Utara";SULAWESI UTARA;;Indonesia;;;;3.611.106;125.485.509;https://maps.google.com/?cid=0x0:0xb233745247c3ba7a;
mall;mall;Sulawesi Utara 95812;"Sawang Bendar, Kec. Tahuna, Kabupaten Kepulauan Sangihe, Sulawesi Utara";"Kabupaten Kepulauan Sangihe, Sulawesi Utara";SULAWESI UTARA;;Indonesia;;;;36.100.689;1.254.899.246;https://maps.google.com/?cid=0x0:0xb2f5cb5e87df0b38;
mall;mall;Tahuna Mall;"JF77+VJQ, Santiago, Kec. Tahuna, Kabupaten Kepulauan Sangihe, Sulawesi Utara";"Kabupaten Kepulauan Sangihe, Sulawesi Utara";SULAWESI UTARA;;Indonesia;;;;3.614.701;1.254.641.197;https://maps.google.com/?cid=0x0:0x4cb4dc79a530f55f;
mall;Pasar;Pusat Kota Tahuna;"JF5R+QW8, Jl. Raramenusa, Sawang Bendar, Kec. Tahuna, Kabupaten Kepulauan Sangihe, Sulawesi Utara";"Kabupaten Kepulauan Sangihe, Sulawesi Utara";SULAWESI UTARA;;Indonesia;;;;36.094.072;125.492.338;https://maps.google.com/?cid=0x0:0xad2f6634d6a4b0c;
mall;Pusat Perbelanjaan;Mini Mall Tahuna;"JF6R+4C2, Sawang Bendar, Kec. Tahuna, Kabupaten Kepulauan Sangihe, Sulawesi Utara";"Kabupaten Kepulauan Sangihe, Sulawesi Utara";SULAWESI UTARA;;Indonesia;;;;36.102.652;1.254.910.135;https://maps.google.com/?cid=0x0:0xfb5df94980acc17c;
mall;Pasar;FC CENTER;"Jln. SMK NEGERI 1 Tahuna Tim.,, Dumuhung, Kec. Tahuna Tim., Kabupaten Kepulauan Sangihe, Sulawesi Utara";"Kabupaten Kepulauan Sangihe, Sulawesi Utara";SULAWESI UTARA;;Indonesia;085242593169;;;36.105.571;1.255.048.727;https://maps.google.com/?cid=0x0:0xe0269faf51e05a22;
mall;Otoritas Pelabuhan;Pelabuhan tua tahuna;"JF5R+FF5, Apeng Sembeka, Kec. Tahuna, Kabupaten Kepulauan Sangihe, Sulawesi Utara";"Kabupaten Kepulauan Sangihe, Sulawesi Utara";SULAWESI UTARA;;Indonesia;;;;3.608.635;125.491.224;https://maps.google.com/?cid=0x0:0x37780677d02ec8a3;
mall;Toko Pakaian;Toko STARS TAHUNA;"JF5R+MFJ, Unnamed Road, Sawang Bendar, Kec. Tahuna, Kabupaten Kepulauan Sangihe, Sulawesi Utara";"Kabupaten Kepulauan Sangihe, Sulawesi Utara";SULAWESI UTARA;;Indonesia;082347508687;;;36.092.167;125.491.143;https://maps.google.com/?cid=0x0:0x6aefc3604056e37b;
mall;Toko Pakaian;Trufarm~Mart And Modern~Fashion;"JF5R+HRR, Jl. Makaampo, Sawang Bendar, Kec. Tahuna, Kabupaten Kepulauan Sangihe, Sulawesi Utara";"Kabupaten Kepulauan Sangihe, Sulawesi Utara";SULAWESI UTARA;;Indonesia;;;;36.089.831;1.254.920.025;https://maps.google.com/?cid=0x0:0xae2a34e9066debae;
mall;Salon Kecantikan;BLESS SALON MINI MALL TAHUNA;"JF6R+39X, Jl. Jend. Sudirman, Sawang Bendar, Kec. Tahuna, Kabupaten Kepulauan Sangihe, Sulawesi Utara 95813";"Jl. Jend. Sudirman, Sawang Bendar, Kec. Tahuna, Kabupaten Kepulauan Sangihe";SULAWESI UTARA;95813;Indonesia;085396659856;;;36.102.277;1.254.909.864;https://maps.google.com/?cid=0x0:0x9b34e6deee8bc3a5;
mall;Toko Pakaian Bayi;Rania kids n baby shop;"JF6R+268, Sawang Bendar, Kec. Tahuna, Kabupaten Kepulauan Sangihe, Sulawesi Utara";"Kabupaten Kepulauan Sangihe, Sulawesi Utara";SULAWESI UTARA;;Indonesia;081380148082;;;36.100.256;125.490.588;https://maps.google.com/?cid=0x0:0x18672ccc42a5c151;
mall;Pusat Perbelanjaan;Warung Eby;"JG73+587, Tim., Dumuhung, Kec. Tahuna Tim., Kabupaten Kepulauan Sangihe, Sulawesi Utara";"Kabupaten Kepulauan Sangihe, Sulawesi Utara";SULAWESI UTARA;;Indonesia;081340629593;;;3.612.913;125.503.294;https://maps.google.com/?cid=0x0:0x1c08aaa91260e27c;
mall;Tujuan Wisata;Tahuna Waterpark  Mall;"jl apengsembeka, Santiago, Kec. Tahuna, Kabupaten Kepulauan Sangihe, Sulawesi Utara 95811";"Santiago, Kec. Tahuna, Kabupaten Kepulauan Sangihe";SULAWESI UTARA;95811;Indonesia;081238803746;;;36.141.414;1.254.633.304;https://maps.google.com/?cid=0x0:0xef2bd2785f359905;
mall;Pasar;Sangihe Art And Souvenir;"JF6X+HWV, Soataloara I, Kec. Tahuna, Kabupaten Kepulauan Sangihe, Sulawesi Utara";"Kabupaten Kepulauan Sangihe, Sulawesi Utara";SULAWESI UTARA;;Indonesia;085240513567;;;36.114.979;1.254.998.101;https://maps.google.com/?cid=0x0:0x8260fa3095d558f6;
mall;Toko bahan makanan;Toko Manente Indah;"JF7C+99G, Santiago, Kec. Tahuna, Kabupaten Kepulauan Sangihe, Sulawesi Utara";"Kabupaten Kepulauan Sangihe, Sulawesi Utara";SULAWESI UTARA;;Indonesia;082290649655;;;36.134.416;1.254.709.522;https://maps.google.com/?cid=0x0:0x97872a9eafdf13d9;
mall;Pusat Perbelanjaan;Warung foto copy;"Apeng Sembeka, Kec. Tahuna, Kabupaten Kepulauan Sangihe, Sulawesi Utara";"Kabupaten Kepulauan Sangihe, Sulawesi Utara";SULAWESI UTARA;;Indonesia;081355568910;;;36.070.603;1.254.810.633;https://maps.google.com/?cid=0x0:0x6f9763ee05451991;
mall;Minimarket;Ceria Mart Tahuna;"JF6G+57F, Bungalawang, Kec. Tahuna, Kabupaten Kepulauan Sangihe, Sulawesi Utara";"Kabupaten Kepulauan Sangihe, Sulawesi Utara";SULAWESI UTARA;;Indonesia;043224453;;;36.104.343;125.475.657;https://maps.google.com/?cid=0x0:0xc7a35bdd8112590f;
mall;Toko bahan makanan;Tahuna Swalayan;"JF77+RGW, Sawang Bendar, Kec. Tahuna, Kabupaten Kepulauan Sangihe, Sulawesi Utara";"Kabupaten Kepulauan Sangihe, Sulawesi Utara";SULAWESI UTARA;;Indonesia;085256164510;;;36.146.049;125.463.821;https://maps.google.com/?cid=0x0:0x149cfe296c7ebd7;
mall;mall;Sulawesi Utara 95813;"Sawang Bendar, Kec. Tahuna, Kabupaten Kepulauan Sangihe, Sulawesi Utara";"Kabupaten Kepulauan Sangihe, Sulawesi Utara";SULAWESI UTARA;;Indonesia;;;;3.611.136;1.254.935.326;https://maps.google.com/?cid=0x0:0x6fc0fd255464dafb;
mall;Pasar;Paragon Mart;"JF6V+45X, Sawang Bendar, Kec. Tahuna, Kabupaten Kepulauan Sangihe, Sulawesi Utara";"Kabupaten Kepulauan Sangihe, Sulawesi Utara";SULAWESI UTARA;;Indonesia;;;;36.103.533;1.254.929.745;https://maps.google.com/?cid=0x0:0x54085e71379ddd32;
mall;Pasar;Pusat Kota Tahuna;"JF5R+QW8, Jl. Raramenusa, Sawang Bendar, Kec. Tahuna, Kabupaten Kepulauan Sangihe, Sulawesi Utara";"Kabupaten Kepulauan Sangihe, Sulawesi Utara";SULAWESI UTARA;;Indonesia;;;;36.094.072;125.492.338;https://maps.google.com/?cid=0x0:0xad2f6634d6a4b0c;
mall;Pusat Perbelanjaan;Mini Mall Tahuna;"JF6R+4C2, Sawang Bendar, Kec. Tahuna, Kabupaten Kepulauan Sangihe, Sulawesi Utara";"Kabupaten Kepulauan Sangihe, Sulawesi Utara";SULAWESI UTARA;;Indonesia;;;;36.102.652;1.254.910.135;https://maps.google.com/?cid=0x0:0xfb5df94980acc17c;
mall;Otoritas Pelabuhan;Pelabuhan tua tahuna;"JF5R+FF5, Apeng Sembeka, Kec. Tahuna, Kabupaten Kepulauan Sangihe, Sulawesi Utara";"Kabupaten Kepulauan Sangihe, Sulawesi Utara";SULAWESI UTARA;;Indonesia;;;;3.608.635;125.491.224;https://maps.google.com/?cid=0x0:0x37780677d02ec8a3;
mall;Pasar;FC CENTER;"Jln. SMK NEGERI 1 Tahuna Tim.,, Dumuhung, Kec. Tahuna Tim., Kabupaten Kepulauan Sangihe, Sulawesi Utara";"Kabupaten Kepulauan Sangihe, Sulawesi Utara";SULAWESI UTARA;;Indonesia;085242593169;;;36.105.571;1.255.048.727;https://maps.google.com/?cid=0x0:0xe0269faf51e05a22;
mall;Toko Pakaian;Toko STARS TAHUNA;"JF5R+MFJ, Unnamed Road, Sawang Bendar, Kec. Tahuna, Kabupaten Kepulauan Sangihe, Sulawesi Utara";"Kabupaten Kepulauan Sangihe, Sulawesi Utara";SULAWESI UTARA;;Indonesia;082347508687;;;36.092.167;125.491.143;https://maps.google.com/?cid=0x0:0x6aefc3604056e37b;
mall;Pasar;Sangihe Art And Souvenir;"JF6X+HWV, Soataloara I, Kec. Tahuna, Kabupaten Kepulauan Sangihe, Sulawesi Utara";"Kabupaten Kepulauan Sangihe, Sulawesi Utara";SULAWESI UTARA;;Indonesia;085240513567;;;36.114.979;1.254.998.101;https://maps.google.com/?cid=0x0:0x8260fa3095d558f6;
mall;Toko Pakaian;Trufarm~Mart And Modern~Fashion;"JF5R+HRR, Jl. Makaampo, Sawang Bendar, Kec. Tahuna, Kabupaten Kepulauan Sangihe, Sulawesi Utara";"Kabupaten Kepulauan Sangihe, Sulawesi Utara";SULAWESI UTARA;;Indonesia;;;;36.089.831;1.254.920.025;https://maps.google.com/?cid=0x0:0xae2a34e9066debae;
mall;mall;Kec. Tahuna Bar.;"Kabupaten Kepulauan Sangihe, Sulawesi Utara";"Kabupaten Kepulauan Sangihe, Sulawesi Utara";SULAWESI UTARA;;Indonesia;;;;36.391.395;1.254.232.867;https://maps.google.com/?cid=0x0:0x172c70b55a90c8a3;
mall;Tujuan Wisata;Tahuna Waterpark  Mall;"jl apengsembeka, Santiago, Kec. Tahuna, Kabupaten Kepulauan Sangihe, Sulawesi Utara 95811";"Santiago, Kec. Tahuna, Kabupaten Kepulauan Sangihe";SULAWESI UTARA;95811;Indonesia;081238803746;;;36.141.414;1.254.633.304;https://maps.google.com/?cid=0x0:0xef2bd2785f359905;
mall;Pasar;Pusat Kota Tahuna;"JF5R+QW8, Jl. Raramenusa, Sawang Bendar, Kec. Tahuna, Kabupaten Kepulauan Sangihe, Sulawesi Utara";"Kabupaten Kepulauan Sangihe, Sulawesi Utara";SULAWESI UTARA;;Indonesia;;;;36.094.072;125.492.338;https://maps.google.com/?cid=0x0:0xad2f6634d6a4b0c;
mall;Pasar;Paragon Mart;"JF6V+45X, Sawang Bendar, Kec. Tahuna, Kabupaten Kepulauan Sangihe, Sulawesi Utara";"Kabupaten Kepulauan Sangihe, Sulawesi Utara";SULAWESI UTARA;;Indonesia;;;;36.103.533;1.254.929.745;https://maps.google.com/?cid=0x0:0x54085e71379ddd32;
mall;mall;Tahuna Mall;"JF77+VJQ, Santiago, Kec. Tahuna, Kabupaten Kepulauan Sangihe, Sulawesi Utara";"Kabupaten Kepulauan Sangihe, Sulawesi Utara";SULAWESI UTARA;;Indonesia;;;;3.614.701;1.254.641.197;https://maps.google.com/?cid=0x0:0x4cb4dc79a530f55f;
mall;mall;Kec. Tahuna Bar.;"Kabupaten Kepulauan Sangihe, Sulawesi Utara";"Kabupaten Kepulauan Sangihe, Sulawesi Utara";SULAWESI UTARA;;Indonesia;;;;36.391.395;1.254.232.867;https://maps.google.com/?cid=0x0:0x172c70b55a90c8a3;
mall;mall;Tahuna Mall;"JF77+VJQ, Santiago, Kec. Tahuna, Kabupaten Kepulauan Sangihe, Sulawesi Utara";"Kabupaten Kepulauan Sangihe, Sulawesi Utara";SULAWESI UTARA;;Indonesia;;;;3.614.701;1.254.641.197;https://maps.google.com/?cid=0x0:0x4cb4dc79a530f55f;
mall;Tujuan Wisata;Tahuna Waterpark  Mall;"jl apengsembeka, Santiago, Kec. Tahuna, Kabupaten Kepulauan Sangihe, Sulawesi Utara 95811";"Santiago, Kec. Tahuna, Kabupaten Kepulauan Sangihe";SULAWESI UTARA;95811;Indonesia;081238803746;;;36.141.414;1.254.633.304;https://maps.google.com/?cid=0x0:0xef2bd2785f359905;
mall;Pasar;Paragon Mart;"JF6V+45X, Sawang Bendar, Kec. Tahuna, Kabupaten Kepulauan Sangihe, Sulawesi Utara";"Kabupaten Kepulauan Sangihe, Sulawesi Utara";SULAWESI UTARA;;Indonesia;;;;36.103.533;1.254.929.745;https://maps.google.com/?cid=0x0:0x54085e71379ddd32;
mall;Pusat Perbelanjaan;Mini Mall Tahuna;"JF6R+4C2, Sawang Bendar, Kec. Tahuna, Kabupaten Kepulauan Sangihe, Sulawesi Utara";"Kabupaten Kepulauan Sangihe, Sulawesi Utara";SULAWESI UTARA;;Indonesia;;;;36.102.652;1.254.910.135;https://maps.google.com/?cid=0x0:0xfb5df94980acc17c;
mall;Pusat Rekreasi;Tahuna Waterpark  Sport Center;"Santiago, Kec. Tahuna, Kabupaten Kepulauan Sangihe, Sulawesi Utara";"Kabupaten Kepulauan Sangihe, Sulawesi Utara";SULAWESI UTARA;;Indonesia;;;;36.150.692;1.254.628.835;https://maps.google.com/?cid=0x0:0x3faa16a224f374e9;
mall;Printer Digital;D'PrintingFotocopy;"Bungalawang, Kec. Tahuna, Kabupaten Kepulauan Sangihe, Sulawesi Utara";"Kabupaten Kepulauan Sangihe, Sulawesi Utara";SULAWESI UTARA;;Indonesia;082281130023;;;36.084.702;1.254.781.396;https://maps.google.com/?cid=0x0:0x56625d94e76e614e;
mall;Toko Elektronik;Electronic City;"Tahuna Mall, Lantai GF, Santiago, Kec. Tahuna, Kabupaten Kepulauan Sangihe, Sulawesi Utara 95811";"Lantai GF, Santiago, Kec. Tahuna, Kabupaten Kepulauan Sangihe";SULAWESI UTARA;95811;Indonesia;082291639788;;;36.144.434;1.254.640.902;https://maps.google.com/?cid=0x0:0xce0900b6bcc294b9;
mall;mall;Kec. Tahuna Bar.;"Kabupaten Kepulauan Sangihe, Sulawesi Utara";"Kabupaten Kepulauan Sangihe, Sulawesi Utara";SULAWESI UTARA;;Indonesia;;;;36.391.395;1.254.232.867;https://maps.google.com/?cid=0x0:0x172c70b55a90c8a3;
mall;mall;Tahuna Mall;"JF77+VJQ, Santiago, Kec. Tahuna, Kabupaten Kepulauan Sangihe, Sulawesi Utara";"Kabupaten Kepulauan Sangihe, Sulawesi Utara";SULAWESI UTARA;;Indonesia;;;;3.614.701;1.254.641.197;https://maps.google.com/?cid=0x0:0x4cb4dc79a530f55f;
mall;Tujuan Wisata;Tahuna Waterpark  Mall;"jl apengsembeka, Santiago, Kec. Tahuna, Kabupaten Kepulauan Sangihe, Sulawesi Utara 95811";"Santiago, Kec. Tahuna, Kabupaten Kepulauan Sangihe";SULAWESI UTARA;95811;Indonesia;081238803746;;;36.141.414;1.254.633.304;https://maps.google.com/?cid=0x0:0xef2bd2785f359905;
mall;Pasar;Paragon Mart;"JF6V+45X, Sawang Bendar, Kec. Tahuna, Kabupaten Kepulauan Sangihe, Sulawesi Utara";"Kabupaten Kepulauan Sangihe, Sulawesi Utara";SULAWESI UTARA;;Indonesia;;;;36.103.533;1.254.929.745;https://maps.google.com/?cid=0x0:0x54085e71379ddd32;
mall;Pasar;FC CENTER;"Jln. SMK NEGERI 1 Tahuna Tim.,, Dumuhung, Kec. Tahuna Tim., Kabupaten Kepulauan Sangihe, Sulawesi Utara";"Kabupaten Kepulauan Sangihe, Sulawesi Utara";SULAWESI UTARA;;Indonesia;085242593169;;;36.105.571;1.255.048.727;https://maps.google.com/?cid=0x0:0xe0269faf51e05a22;
mall;Pusat Perbelanjaan;Mini Mall Tahuna;"JF6R+4C2, Sawang Bendar, Kec. Tahuna, Kabupaten Kepulauan Sangihe, Sulawesi Utara";"Kabupaten Kepulauan Sangihe, Sulawesi Utara";SULAWESI UTARA;;Indonesia;;;;36.102.652;1.254.910.135;https://maps.google.com/?cid=0x0:0xfb5df94980acc17c;
mall;Otoritas Pelabuhan;Pelabuhan tua tahuna;"JF5R+FF5, Apeng Sembeka, Kec. Tahuna, Kabupaten Kepulauan Sangihe, Sulawesi Utara";"Kabupaten Kepulauan Sangihe, Sulawesi Utara";SULAWESI UTARA;;Indonesia;;;;3.608.635;125.491.224;https://maps.google.com/?cid=0x0:0x37780677d02ec8a3;
mall;Toko bahan makanan;Toko Manente Indah;"JF7C+99G, Santiago, Kec. Tahuna, Kabupaten Kepulauan Sangihe, Sulawesi Utara";"Kabupaten Kepulauan Sangihe, Sulawesi Utara";SULAWESI UTARA;;Indonesia;082290649655;;;36.134.416;1.254.709.522;https://maps.google.com/?cid=0x0:0x97872a9eafdf13d9;
mall;Printer Digital;D'PrintingFotocopy;"Bungalawang, Kec. Tahuna, Kabupaten Kepulauan Sangihe, Sulawesi Utara";"Kabupaten Kepulauan Sangihe, Sulawesi Utara";SULAWESI UTARA;;Indonesia;082281130023;;;36.084.702;1.254.781.396;https://maps.google.com/?cid=0x0:0x56625d94e76e614e;
mall;Pusat Rekreasi;Tahuna Waterpark  Sport Center;"Santiago, Kec. Tahuna, Kabupaten Kepulauan Sangihe, Sulawesi Utara";"Kabupaten Kepulauan Sangihe, Sulawesi Utara";SULAWESI UTARA;;Indonesia;;;;36.150.692;1.254.628.835;https://maps.google.com/?cid=0x0:0x3faa16a224f374e9;
mall;Toko Elektronik;Electronic City;"Tahuna Mall, Lantai GF, Santiago, Kec. Tahuna, Kabupaten Kepulauan Sangihe, Sulawesi Utara 95811";"Lantai GF, Santiago, Kec. Tahuna, Kabupaten Kepulauan Sangihe";SULAWESI UTARA;95811;Indonesia;082291639788;;;36.144.434;1.254.640.902;https://maps.google.com/?cid=0x0:0xce0900b6bcc294b9;
mall;mall;Kec. Tahuna Bar.;"Kabupaten Kepulauan Sangihe, Sulawesi Utara";"Kabupaten Kepulauan Sangihe, Sulawesi Utara";SULAWESI UTARA;;Indonesia;;;;36.391.395;1.254.232.867;https://maps.google.com/?cid=0x0:0x172c70b55a90c8a3;
mall;mall;Tahuna Mall;"JF77+VJQ, Santiago, Kec. Tahuna, Kabupaten Kepulauan Sangihe, Sulawesi Utara";"Kabupaten Kepulauan Sangihe, Sulawesi Utara";SULAWESI UTARA;;Indonesia;;;;3.614.701;1.254.641.197;https://maps.google.com/?cid=0x0:0x4cb4dc79a530f55f;
mall;Tujuan Wisata;Tahuna Waterpark  Mall;"jl apengsembeka, Santiago, Kec. Tahuna, Kabupaten Kepulauan Sangihe, Sulawesi Utara 95811";"Santiago, Kec. Tahuna, Kabupaten Kepulauan Sangihe";SULAWESI UTARA;95811;Indonesia;081238803746;;;36.141.414;1.254.633.304;https://maps.google.com/?cid=0x0:0xef2bd2785f359905;
mall;Pasar;Paragon Mart;"JF6V+45X, Sawang Bendar, Kec. Tahuna, Kabupaten Kepulauan Sangihe, Sulawesi Utara";"Kabupaten Kepulauan Sangihe, Sulawesi Utara";SULAWESI UTARA;;Indonesia;;;;36.103.533;1.254.929.745;https://maps.google.com/?cid=0x0:0x54085e71379ddd32;
mall;Pusat Perbelanjaan;Mini Mall Tahuna;"JF6R+4C2, Sawang Bendar, Kec. Tahuna, Kabupaten Kepulauan Sangihe, Sulawesi Utara";"Kabupaten Kepulauan Sangihe, Sulawesi Utara";SULAWESI UTARA;;Indonesia;;;;36.102.652;1.254.910.135;https://maps.google.com/?cid=0x0:0xfb5df94980acc17c;
mall;Otoritas Pelabuhan;Pelabuhan tua tahuna;"JF5R+FF5, Apeng Sembeka, Kec. Tahuna, Kabupaten Kepulauan Sangihe, Sulawesi Utara";"Kabupaten Kepulauan Sangihe, Sulawesi Utara";SULAWESI UTARA;;Indonesia;;;;3.608.635;125.491.224;https://maps.google.com/?cid=0x0:0x37780677d02ec8a3;
mall;Pasar;FC CENTER;"Jln. SMK NEGERI 1 Tahuna Tim.,, Dumuhung, Kec. Tahuna Tim., Kabupaten Kepulauan Sangihe, Sulawesi Utara";"Kabupaten Kepulauan Sangihe, Sulawesi Utara";SULAWESI UTARA;;Indonesia;085242593169;;;36.105.571;1.255.048.727;https://maps.google.com/?cid=0x0:0xe0269faf51e05a22;
mall;Printer Digital;D'PrintingFotocopy;"Bungalawang, Kec. Tahuna, Kabupaten Kepulauan Sangihe, Sulawesi Utara";"Kabupaten Kepulauan Sangihe, Sulawesi Utara";SULAWESI UTARA;;Indonesia;082281130023;;;36.084.702;1.254.781.396;https://maps.google.com/?cid=0x0:0x56625d94e76e614e;
mall;Pusat Rekreasi;Tahuna Waterpark  Sport Center;"Santiago, Kec. Tahuna, Kabupaten Kepulauan Sangihe, Sulawesi Utara";"Kabupaten Kepulauan Sangihe, Sulawesi Utara";SULAWESI UTARA;;Indonesia;;;;36.150.692;1.254.628.835;https://maps.google.com/?cid=0x0:0x3faa16a224f374e9;
mall;Toko Pakaian;Toko STARS TAHUNA;"JF5R+MFJ, Unnamed Road, Sawang Bendar, Kec. Tahuna, Kabupaten Kepulauan Sangihe, Sulawesi Utara";"Kabupaten Kepulauan Sangihe, Sulawesi Utara";SULAWESI UTARA;;Indonesia;082347508687;;;36.092.167;125.491.143;https://maps.google.com/?cid=0x0:0x6aefc3604056e37b;
mall;Toko bahan makanan;Toko Manente Indah;"JF7C+99G, Santiago, Kec. Tahuna, Kabupaten Kepulauan Sangihe, Sulawesi Utara";"Kabupaten Kepulauan Sangihe, Sulawesi Utara";SULAWESI UTARA;;Indonesia;082290649655;;;36.134.416;1.254.709.522;https://maps.google.com/?cid=0x0:0x97872a9eafdf13d9;
mall;Pasar;Sangihe Art And Souvenir;"JF6X+HWV, Soataloara I, Kec. Tahuna, Kabupaten Kepulauan Sangihe, Sulawesi Utara";"Kabupaten Kepulauan Sangihe, Sulawesi Utara";SULAWESI UTARA;;Indonesia;085240513567;;;36.114.979;1.254.998.101;https://maps.google.com/?cid=0x0:0x8260fa3095d558f6;
mall;Toko Elektronik;Electronic City;"Tahuna Mall, Lantai GF, Santiago, Kec. Tahuna, Kabupaten Kepulauan Sangihe, Sulawesi Utara 95811";"Lantai GF, Santiago, Kec. Tahuna, Kabupaten Kepulauan Sangihe";SULAWESI UTARA;95811;Indonesia;082291639788;;;36.144.434;1.254.640.902;https://maps.google.com/?cid=0x0:0xce0900b6bcc294b9;
mall;Pusat Perbelanjaan;Kampung Basauh;"JF6P+C6R, Sawang Bendar, Kec. Tahuna, Kabupaten Kepulauan Sangihe, Sulawesi Utara";"Kabupaten Kepulauan Sangihe, Sulawesi Utara";SULAWESI UTARA;;Indonesia;;;;3.611.106;125.485.509;https://maps.google.com/?cid=0x0:0xb233745247c3ba7a;
mall;Toko bahan makanan;Tahuna Swalayan;"JF77+RGW, Sawang Bendar, Kec. Tahuna, Kabupaten Kepulauan Sangihe, Sulawesi Utara";"Kabupaten Kepulauan Sangihe, Sulawesi Utara";SULAWESI UTARA;;Indonesia;085256164510;;;36.146.049;125.463.821;https://maps.google.com/?cid=0x0:0x149cfe296c7ebd7;
mall;Toko Pakaian;Trufarm~Mart And Modern~Fashion;"JF5R+HRR, Jl. Makaampo, Sawang Bendar, Kec. Tahuna, Kabupaten Kepulauan Sangihe, Sulawesi Utara";"Kabupaten Kepulauan Sangihe, Sulawesi Utara";SULAWESI UTARA;;Indonesia;;;;36.089.831;1.254.920.025;https://maps.google.com/?cid=0x0:0xae2a34e9066debae;
mall;Pusat Perbelanjaan;Warung foto copy;"Apeng Sembeka, Kec. Tahuna, Kabupaten Kepulauan Sangihe, Sulawesi Utara";"Kabupaten Kepulauan Sangihe, Sulawesi Utara";SULAWESI UTARA;;Indonesia;081355568910;;;36.070.603;1.254.810.633;https://maps.google.com/?cid=0x0:0x6f9763ee05451991;
mall;mall;Sulawesi Utara 95812;"Sawang Bendar, Kec. Tahuna, Kabupaten Kepulauan Sangihe, Sulawesi Utara";"Kabupaten Kepulauan Sangihe, Sulawesi Utara";SULAWESI UTARA;;Indonesia;;;;36.100.689;1.254.899.246;https://maps.google.com/?cid=0x0:0xb2f5cb5e87df0b38;
mall;Pasar;Pusat Kota Tahuna;"JF5R+QW8, Jl. Raramenusa, Sawang Bendar, Kec. Tahuna, Kabupaten Kepulauan Sangihe, Sulawesi Utara";"Kabupaten Kepulauan Sangihe, Sulawesi Utara";SULAWESI UTARA;;Indonesia;;;;36.094.072;125.492.338;https://maps.google.com/?cid=0x0:0xad2f6634d6a4b0c;
mall;mall;Tahuna Mall;"JF77+VJQ, Santiago, Kec. Tahuna, Kabupaten Kepulauan Sangihe, Sulawesi Utara";"Kabupaten Kepulauan Sangihe, Sulawesi Utara";SULAWESI UTARA;;Indonesia;;;;3.614.701;1.254.641.197;https://maps.google.com/?cid=0x0:0x4cb4dc79a530f55f;
mall;Pasar;Paragon Mart;"JF6V+45X, Sawang Bendar, Kec. Tahuna, Kabupaten Kepulauan Sangihe, Sulawesi Utara";"Kabupaten Kepulauan Sangihe, Sulawesi Utara";SULAWESI UTARA;;Indonesia;;;;36.103.533;1.254.929.745;https://maps.google.com/?cid=0x0:0x54085e71379ddd32;
mall;Otoritas Pelabuhan;Pelabuhan tua tahuna;"JF5R+FF5, Apeng Sembeka, Kec. Tahuna, Kabupaten Kepulauan Sangihe, Sulawesi Utara";"Kabupaten Kepulauan Sangihe, Sulawesi Utara";SULAWESI UTARA;;Indonesia;;;;3.608.635;125.491.224;https://maps.google.com/?cid=0x0:0x37780677d02ec8a3;
mall;Pasar;FC CENTER;"Jln. SMK NEGERI 1 Tahuna Tim.,, Dumuhung, Kec. Tahuna Tim., Kabupaten Kepulauan Sangihe, Sulawesi Utara";"Kabupaten Kepulauan Sangihe, Sulawesi Utara";SULAWESI UTARA;;Indonesia;085242593169;;;36.105.571;1.255.048.727;https://maps.google.com/?cid=0x0:0xe0269faf51e05a22;
mall;Toko Pakaian;Toko STARS TAHUNA;"JF5R+MFJ, Unnamed Road, Sawang Bendar, Kec. Tahuna, Kabupaten Kepulauan Sangihe, Sulawesi Utara";"Kabupaten Kepulauan Sangihe, Sulawesi Utara";SULAWESI UTARA;;Indonesia;082347508687;;;36.092.167;125.491.143;https://maps.google.com/?cid=0x0:0x6aefc3604056e37b;
mall;Toko Pakaian;Trufarm~Mart And Modern~Fashion;"JF5R+HRR, Jl. Makaampo, Sawang Bendar, Kec. Tahuna, Kabupaten Kepulauan Sangihe, Sulawesi Utara";"Kabupaten Kepulauan Sangihe, Sulawesi Utara";SULAWESI UTARA;;Indonesia;;;;36.089.831;1.254.920.025;https://maps.google.com/?cid=0x0:0xae2a34e9066debae;
mall;Salon Kecantikan;BLESS SALON MINI MALL TAHUNA;"JF6R+39X, Jl. Jend. Sudirman, Sawang Bendar, Kec. Tahuna, Kabupaten Kepulauan Sangihe, Sulawesi Utara 95813";"Jl. Jend. Sudirman, Sawang Bendar, Kec. Tahuna, Kabupaten Kepulauan Sangihe";SULAWESI UTARA;95813;Indonesia;085396659856;;;36.102.277;1.254.909.864;https://maps.google.com/?cid=0x0:0x9b34e6deee8bc3a5;
mall;Toko Pakaian Bayi;Rania kids n baby shop;"JF6R+268, Sawang Bendar, Kec. Tahuna, Kabupaten Kepulauan Sangihe, Sulawesi Utara";"Kabupaten Kepulauan Sangihe, Sulawesi Utara";SULAWESI UTARA;;Indonesia;081380148082;;;36.100.256;125.490.588;https://maps.google.com/?cid=0x0:0x18672ccc42a5c151;
mall;mall;Eneratu;"Tona II, Kec. Tahuna Tim., Kabupaten Kepulauan Sangihe, Sulawesi Utara";"Kabupaten Kepulauan Sangihe, Sulawesi Utara";SULAWESI UTARA;;Indonesia;;;;36.109.996;125.508.998;https://maps.google.com/?cid=0x0:0xeeec849a0644002b;
mall;Pusat Perbelanjaan;Warung Eby;"JG73+587, Tim., Dumuhung, Kec. Tahuna Tim., Kabupaten Kepulauan Sangihe, Sulawesi Utara";"Kabupaten Kepulauan Sangihe, Sulawesi Utara";SULAWESI UTARA;;Indonesia;081340629593;;;3.612.913;125.503.294;https://maps.google.com/?cid=0x0:0x1c08aaa91260e27c;
mall;mall;Kec. Tahuna Tim.;"Kabupaten Kepulauan Sangihe, Sulawesi Utara";"Kabupaten Kepulauan Sangihe, Sulawesi Utara";SULAWESI UTARA;;Indonesia;;;;36.107.787;1.255.084.379;https://maps.google.com/?cid=0x0:0x12910a813072e8b9;
mall;Tujuan Wisata;Tahuna Waterpark  Mall;"jl apengsembeka, Santiago, Kec. Tahuna, Kabupaten Kepulauan Sangihe, Sulawesi Utara 95811";"Santiago, Kec. Tahuna, Kabupaten Kepulauan Sangihe";SULAWESI UTARA;95811;Indonesia;081238803746;;;36.141.414;1.254.633.304;https://maps.google.com/?cid=0x0:0xef2bd2785f359905;
mall;Toko bahan makanan;Kios Berkat Mulia;"JG45+HH7, Unnamed Road, Tona I, Kec. Tahuna Tim., Kabupaten Kepulauan Sangihe, Sulawesi Utara";"Kabupaten Kepulauan Sangihe, Sulawesi Utara";SULAWESI UTARA;;Indonesia;;;;36.064.112;1.255.089.169;https://maps.google.com/?cid=0x0:0xaa63b26e7d81e2fe;
mall;Pasar;Sangihe Art And Souvenir;"JF6X+HWV, Soataloara I, Kec. Tahuna, Kabupaten Kepulauan Sangihe, Sulawesi Utara";"Kabupaten Kepulauan Sangihe, Sulawesi Utara";SULAWESI UTARA;;Indonesia;085240513567;;;36.114.979;1.254.998.101;https://maps.google.com/?cid=0x0:0x8260fa3095d558f6;
mall;Printer Digital;D'PrintingFotocopy;"Bungalawang, Kec. Tahuna, Kabupaten Kepulauan Sangihe, Sulawesi Utara";"Kabupaten Kepulauan Sangihe, Sulawesi Utara";SULAWESI UTARA;;Indonesia;082281130023;;;36.084.702;1.254.781.396;https://maps.google.com/?cid=0x0:0x56625d94e76e614e;
mall;Pagoda;Taman Malahasa Kota Tahuna;"JG64+3F8, Tim, Tona II, Kec. Tahuna Tim., Kabupaten Kepulauan Sangihe, Sulawesi Utara";"Kabupaten Kepulauan Sangihe, Sulawesi Utara";SULAWESI UTARA;;Indonesia;;;;36.101.708;1.255.062.079;https://maps.google.com/?cid=0x0:0xeb22251c61519851;
mall;Pasar;Pasar IKAN towoe;"JF5W+WM6, Sawang Bendar, Kec. Tahuna, Kabupaten Kepulauan Sangihe, Sulawesi Utara";"Kabupaten Kepulauan Sangihe, Sulawesi Utara";SULAWESI UTARA;;Indonesia;;;;3.609.785;1.254.966.468;https://maps.google.com/?cid=0x0:0xafa2a781c6b2fac6;
mall;Pusat Perbelanjaan;Pasar Towo'e;"JF6W+4F6, Sawang Bendar, Kec. Tahuna, Kabupaten Kepulauan Sangihe, Sulawesi Utara";"Kabupaten Kepulauan Sangihe, Sulawesi Utara";SULAWESI UTARA;;Indonesia;;;;36.102.802;1.254.961.559;https://maps.google.com/?cid=0x0:0x53a6ba46aaf563ec;
mall;Pusat Perbelanjaan;Foto Copy LIONY;"Jl.Tatehe No.1, Apeng Sembeka, Kec. Tahuna, Kabupaten Kepulauan Sangihe, Sulawesi Utara";"Kabupaten Kepulauan Sangihe, Sulawesi Utara";SULAWESI UTARA;;Indonesia;;;;36.078.222;1.254.855.699;https://maps.google.com/?cid=0x0:0xb14275f8e8dfc05d;
mall;mall;Kec. Tahuna Tim.;"Kabupaten Kepulauan Sangihe, Sulawesi Utara";"Kabupaten Kepulauan Sangihe, Sulawesi Utara";SULAWESI UTARA;;Indonesia;;;;36.107.787;1.255.084.379;https://maps.google.com/?cid=0x0:0x12910a813072e8b9;
mall;Pasar;Pusat Kota Tahuna;"JF5R+QW8, Jl. Raramenusa, Sawang Bendar, Kec. Tahuna, Kabupaten Kepulauan Sangihe, Sulawesi Utara";"Kabupaten Kepulauan Sangihe, Sulawesi Utara";SULAWESI UTARA;;Indonesia;;;;36.094.072;125.492.338;https://maps.google.com/?cid=0x0:0xad2f6634d6a4b0c;
mall;mall;Tahuna Mall;"JF77+VJQ, Santiago, Kec. Tahuna, Kabupaten Kepulauan Sangihe, Sulawesi Utara";"Kabupaten Kepulauan Sangihe, Sulawesi Utara";SULAWESI UTARA;;Indonesia;;;;3.614.701;1.254.641.197;https://maps.google.com/?cid=0x0:0x4cb4dc79a530f55f;
mall;Pasar;Paragon Mart;"JF6V+45X, Sawang Bendar, Kec. Tahuna, Kabupaten Kepulauan Sangihe, Sulawesi Utara";"Kabupaten Kepulauan Sangihe, Sulawesi Utara";SULAWESI UTARA;;Indonesia;;;;36.103.533;1.254.929.745;https://maps.google.com/?cid=0x0:0x54085e71379ddd32;
mall;Tujuan Wisata;Tahuna Waterpark  Mall;"jl apengsembeka, Santiago, Kec. Tahuna, Kabupaten Kepulauan Sangihe, Sulawesi Utara 95811";"Santiago, Kec. Tahuna, Kabupaten Kepulauan Sangihe";SULAWESI UTARA;95811;Indonesia;081238803746;;;36.141.414;1.254.633.304;https://maps.google.com/?cid=0x0:0xef2bd2785f359905;
mall;Pusat Perbelanjaan;Mini Mall Tahuna;"JF6R+4C2, Sawang Bendar, Kec. Tahuna, Kabupaten Kepulauan Sangihe, Sulawesi Utara";"Kabupaten Kepulauan Sangihe, Sulawesi Utara";SULAWESI UTARA;;Indonesia;;;;36.102.652;1.254.910.135;https://maps.google.com/?cid=0x0:0xfb5df94980acc17c;
mall;Otoritas Pelabuhan;Pelabuhan tua tahuna;"JF5R+FF5, Apeng Sembeka, Kec. Tahuna, Kabupaten Kepulauan Sangihe, Sulawesi Utara";"Kabupaten Kepulauan Sangihe, Sulawesi Utara";SULAWESI UTARA;;Indonesia;;;;3.608.635;125.491.224;https://maps.google.com/?cid=0x0:0x37780677d02ec8a3;
mall;Toko bahan makanan;Kios Berkat Mulia;"JG45+HH7, Unnamed Road, Tona I, Kec. Tahuna Tim., Kabupaten Kepulauan Sangihe, Sulawesi Utara";"Kabupaten Kepulauan Sangihe, Sulawesi Utara";SULAWESI UTARA;;Indonesia;;;;36.064.112;1.255.089.169;https://maps.google.com/?cid=0x0:0xaa63b26e7d81e2fe;
mall;Pasar;Sangihe Art And Souvenir;"JF6X+HWV, Soataloara I, Kec. Tahuna, Kabupaten Kepulauan Sangihe, Sulawesi Utara";"Kabupaten Kepulauan Sangihe, Sulawesi Utara";SULAWESI UTARA;;Indonesia;085240513567;;;36.114.979;1.254.998.101;https://maps.google.com/?cid=0x0:0x8260fa3095d558f6;
mall;Pagoda;Taman Malahasa Kota Tahuna;"JG64+3F8, Tim, Tona II, Kec. Tahuna Tim., Kabupaten Kepulauan Sangihe, Sulawesi Utara";"Kabupaten Kepulauan Sangihe, Sulawesi Utara";SULAWESI UTARA;;Indonesia;;;;36.101.708;1.255.062.079;https://maps.google.com/?cid=0x0:0xeb22251c61519851;
mall;Printer Digital;D'PrintingFotocopy;"Bungalawang, Kec. Tahuna, Kabupaten Kepulauan Sangihe, Sulawesi Utara";"Kabupaten Kepulauan Sangihe, Sulawesi Utara";SULAWESI UTARA;;Indonesia;082281130023;;;36.084.702;1.254.781.396;https://maps.google.com/?cid=0x0:0x56625d94e76e614e;
mall;Pusat Perbelanjaan;Pasar Towo'e;"JF6W+4F6, Sawang Bendar, Kec. Tahuna, Kabupaten Kepulauan Sangihe, Sulawesi Utara";"Kabupaten Kepulauan Sangihe, Sulawesi Utara";SULAWESI UTARA;;Indonesia;;;;36.102.802;1.254.961.559;https://maps.google.com/?cid=0x0:0x53a6ba46aaf563ec;
mall;Pasar;Pasar IKAN towoe;"JF5W+WM6, Sawang Bendar, Kec. Tahuna, Kabupaten Kepulauan Sangihe, Sulawesi Utara";"Kabupaten Kepulauan Sangihe, Sulawesi Utara";SULAWESI UTARA;;Indonesia;;;;3.609.785;1.254.966.468;https://maps.google.com/?cid=0x0:0xafa2a781c6b2fac6;
mall;Toko Pakaian;Trufarm~Mart And Modern~Fashion;"JF5R+HRR, Jl. Makaampo, Sawang Bendar, Kec. Tahuna, Kabupaten Kepulauan Sangihe, Sulawesi Utara";"Kabupaten Kepulauan Sangihe, Sulawesi Utara";SULAWESI UTARA;;Indonesia;;;;36.089.831;1.254.920.025;https://maps.google.com/?cid=0x0:0xae2a34e9066debae;
mall;Toko Pakaian;Toko STARS TAHUNA;"JF5R+MFJ, Unnamed Road, Sawang Bendar, Kec. Tahuna, Kabupaten Kepulauan Sangihe, Sulawesi Utara";"Kabupaten Kepulauan Sangihe, Sulawesi Utara";SULAWESI UTARA;;Indonesia;082347508687;;;36.092.167;125.491.143;https://maps.google.com/?cid=0x0:0x6aefc3604056e37b;
mall;Pusat Perbelanjaan;Foto Copy LIONY;"Jl.Tatehe No.1, Apeng Sembeka, Kec. Tahuna, Kabupaten Kepulauan Sangihe, Sulawesi Utara";"Kabupaten Kepulauan Sangihe, Sulawesi Utara";SULAWESI UTARA;;Indonesia;;;;36.078.222;1.254.855.699;https://maps.google.com/?cid=0x0:0xb14275f8e8dfc05d;
mall;Pusat Perbelanjaan;Warung Eby;"JG73+587, Tim., Dumuhung, Kec. Tahuna Tim., Kabupaten Kepulauan Sangihe, Sulawesi Utara";"Kabupaten Kepulauan Sangihe, Sulawesi Utara";SULAWESI UTARA;;Indonesia;081340629593;;;3.612.913;125.503.294;https://maps.google.com/?cid=0x0:0x1c08aaa91260e27c;
mall;Toko bahan makanan;Lulege;"JF6W+3MH, Pasar Towo'e, Soataloara I, Kec. Tahuna, Kabupaten Kepulauan Sangihe, Sulawesi Utara 95812";"Pasar Towo'e, Soataloara I, Kec. Tahuna, Kabupaten Kepulauan Sangihe";SULAWESI UTARA;95812;Indonesia;;;;36.101.853;1.254.967.281;https://maps.google.com/?cid=0x0:0x5a9793a27a767241;
mall;Pusat Perbelanjaan;Warung foto copy;"Apeng Sembeka, Kec. Tahuna, Kabupaten Kepulauan Sangihe, Sulawesi Utara";"Kabupaten Kepulauan Sangihe, Sulawesi Utara";SULAWESI UTARA;;Indonesia;081355568910;;;36.070.603;1.254.810.633;https://maps.google.com/?cid=0x0:0x6f9763ee05451991;
mall;Pusat Rekreasi;Tahuna Waterpark  Sport Center;"Santiago, Kec. Tahuna, Kabupaten Kepulauan Sangihe, Sulawesi Utara";"Kabupaten Kepulauan Sangihe, Sulawesi Utara";SULAWESI UTARA;;Indonesia;;;;36.150.692;1.254.628.835;https://maps.google.com/?cid=0x0:0x3faa16a224f374e9;
mall;Pusat Perbelanjaan;Agzo shop;"JF4J+RV4, Apeng Sembeka, Kec. Tahuna, Kabupaten Kepulauan Sangihe, Sulawesi Utara";"Kabupaten Kepulauan Sangihe, Sulawesi Utara";SULAWESI UTARA;;Indonesia;085242707182;;;36.070.041;125.482.195;https://maps.google.com/?cid=0x0:0x847525cd23fb3b14;
mall;mall;Kec. Tahuna Tim.;"Kabupaten Kepulauan Sangihe, Sulawesi Utara";"Kabupaten Kepulauan Sangihe, Sulawesi Utara";SULAWESI UTARA;;Indonesia;;;;36.107.787;1.255.084.379;https://maps.google.com/?cid=0x0:0x12910a813072e8b9;
mall;Pasar;Pusat Kota Tahuna;"JF5R+QW8, Jl. Raramenusa, Sawang Bendar, Kec. Tahuna, Kabupaten Kepulauan Sangihe, Sulawesi Utara";"Kabupaten Kepulauan Sangihe, Sulawesi Utara";SULAWESI UTARA;;Indonesia;;;;36.094.072;125.492.338;https://maps.google.com/?cid=0x0:0xad2f6634d6a4b0c;
mall;Pasar;FC CENTER;"Jln. SMK NEGERI 1 Tahuna Tim.,, Dumuhung, Kec. Tahuna Tim., Kabupaten Kepulauan Sangihe, Sulawesi Utara";"Kabupaten Kepulauan Sangihe, Sulawesi Utara";SULAWESI UTARA;;Indonesia;085242593169;;;36.105.571;1.255.048.727;https://maps.google.com/?cid=0x0:0xe0269faf51e05a22;
mall;Pasar;Paragon Mart;"JF6V+45X, Sawang Bendar, Kec. Tahuna, Kabupaten Kepulauan Sangihe, Sulawesi Utara";"Kabupaten Kepulauan Sangihe, Sulawesi Utara";SULAWESI UTARA;;Indonesia;;;;36.103.533;1.254.929.745;https://maps.google.com/?cid=0x0:0x54085e71379ddd32;
mall;Pusat Perbelanjaan;Mini Mall Tahuna;"JF6R+4C2, Sawang Bendar, Kec. Tahuna, Kabupaten Kepulauan Sangihe, Sulawesi Utara";"Kabupaten Kepulauan Sangihe, Sulawesi Utara";SULAWESI UTARA;;Indonesia;;;;36.102.652;1.254.910.135;https://maps.google.com/?cid=0x0:0xfb5df94980acc17c;
mall;Tujuan Wisata;Tahuna Waterpark  Mall;"jl apengsembeka, Santiago, Kec. Tahuna, Kabupaten Kepulauan Sangihe, Sulawesi Utara 95811";"Santiago, Kec. Tahuna, Kabupaten Kepulauan Sangihe";SULAWESI UTARA;95811;Indonesia;081238803746;;;36.141.414;1.254.633.304;https://maps.google.com/?cid=0x0:0xef2bd2785f359905;
mall;Otoritas Pelabuhan;Pelabuhan tua tahuna;"JF5R+FF5, Apeng Sembeka, Kec. Tahuna, Kabupaten Kepulauan Sangihe, Sulawesi Utara";"Kabupaten Kepulauan Sangihe, Sulawesi Utara";SULAWESI UTARA;;Indonesia;;;;3.608.635;125.491.224;https://maps.google.com/?cid=0x0:0x37780677d02ec8a3;
mall;Toko bahan makanan;Kios Berkat Mulia;"JG45+HH7, Unnamed Road, Tona I, Kec. Tahuna Tim., Kabupaten Kepulauan Sangihe, Sulawesi Utara";"Kabupaten Kepulauan Sangihe, Sulawesi Utara";SULAWESI UTARA;;Indonesia;;;;36.064.112;1.255.089.169;https://maps.google.com/?cid=0x0:0xaa63b26e7d81e2fe;
mall;Pasar;Sangihe Art And Souvenir;"JF6X+HWV, Soataloara I, Kec. Tahuna, Kabupaten Kepulauan Sangihe, Sulawesi Utara";"Kabupaten Kepulauan Sangihe, Sulawesi Utara";SULAWESI UTARA;;Indonesia;085240513567;;;36.114.979;1.254.998.101;https://maps.google.com/?cid=0x0:0x8260fa3095d558f6;
mall;Toko Pakaian;Toko STARS TAHUNA;"JF5R+MFJ, Unnamed Road, Sawang Bendar, Kec. Tahuna, Kabupaten Kepulauan Sangihe, Sulawesi Utara";"Kabupaten Kepulauan Sangihe, Sulawesi Utara";SULAWESI UTARA;;Indonesia;082347508687;;;36.092.167;125.491.143;https://maps.google.com/?cid=0x0:0x6aefc3604056e37b;
mall;Pagoda;Taman Malahasa Kota Tahuna;"JG64+3F8, Tim, Tona II, Kec. Tahuna Tim., Kabupaten Kepulauan Sangihe, Sulawesi Utara";"Kabupaten Kepulauan Sangihe, Sulawesi Utara";SULAWESI UTARA;;Indonesia;;;;36.101.708;1.255.062.079;https://maps.google.com/?cid=0x0:0xeb22251c61519851;
mall;Pasar;Pasar IKAN towoe;"JF5W+WM6, Sawang Bendar, Kec. Tahuna, Kabupaten Kepulauan Sangihe, Sulawesi Utara";"Kabupaten Kepulauan Sangihe, Sulawesi Utara";SULAWESI UTARA;;Indonesia;;;;3.609.785;1.254.966.468;https://maps.google.com/?cid=0x0:0xafa2a781c6b2fac6;
mall;Printer Digital;D'PrintingFotocopy;"Bungalawang, Kec. Tahuna, Kabupaten Kepulauan Sangihe, Sulawesi Utara";"Kabupaten Kepulauan Sangihe, Sulawesi Utara";SULAWESI UTARA;;Indonesia;082281130023;;;36.084.702;1.254.781.396;https://maps.google.com/?cid=0x0:0x56625d94e76e614e;
mall;Pusat Perbelanjaan;Pasar Towo'e;"JF6W+4F6, Sawang Bendar, Kec. Tahuna, Kabupaten Kepulauan Sangihe, Sulawesi Utara";"Kabupaten Kepulauan Sangihe, Sulawesi Utara";SULAWESI UTARA;;Indonesia;;;;36.102.802;1.254.961.559;https://maps.google.com/?cid=0x0:0x53a6ba46aaf563ec;
mall;Toko Pakaian;Trufarm~Mart And Modern~Fashion;"JF5R+HRR, Jl. Makaampo, Sawang Bendar, Kec. Tahuna, Kabupaten Kepulauan Sangihe, Sulawesi Utara";"Kabupaten Kepulauan Sangihe, Sulawesi Utara";SULAWESI UTARA;;Indonesia;;;;36.089.831;1.254.920.025;https://maps.google.com/?cid=0x0:0xae2a34e9066debae;
mall;Pusat Perbelanjaan;Foto Copy LIONY;"Jl.Tatehe No.1, Apeng Sembeka, Kec. Tahuna, Kabupaten Kepulauan Sangihe, Sulawesi Utara";"Kabupaten Kepulauan Sangihe, Sulawesi Utara";SULAWESI UTARA;;Indonesia;;;;36.078.222;1.254.855.699;https://maps.google.com/?cid=0x0:0xb14275f8e8dfc05d;
mall;Pusat Perbelanjaan;Warung Eby;"JG73+587, Tim., Dumuhung, Kec. Tahuna Tim., Kabupaten Kepulauan Sangihe, Sulawesi Utara";"Kabupaten Kepulauan Sangihe, Sulawesi Utara";SULAWESI UTARA;;Indonesia;081340629593;;;3.612.913;125.503.294;https://maps.google.com/?cid=0x0:0x1c08aaa91260e27c;
mall;Toko bahan makanan;Lulege;"JF6W+3MH, Pasar Towo'e, Soataloara I, Kec. Tahuna, Kabupaten Kepulauan Sangihe, Sulawesi Utara 95812";"Pasar Towo'e, Soataloara I, Kec. Tahuna, Kabupaten Kepulauan Sangihe";SULAWESI UTARA;95812;Indonesia;;;;36.101.853;1.254.967.281;https://maps.google.com/?cid=0x0:0x5a9793a27a767241;
mall;Pusat Perbelanjaan;Warung foto copy;"Apeng Sembeka, Kec. Tahuna, Kabupaten Kepulauan Sangihe, Sulawesi Utara";"Kabupaten Kepulauan Sangihe, Sulawesi Utara";SULAWESI UTARA;;Indonesia;081355568910;;;36.070.603;1.254.810.633;https://maps.google.com/?cid=0x0:0x6f9763ee05451991;
mall;Pusat Rekreasi;Tahuna Waterpark  Sport Center;"Santiago, Kec. Tahuna, Kabupaten Kepulauan Sangihe, Sulawesi Utara";"Kabupaten Kepulauan Sangihe, Sulawesi Utara";SULAWESI UTARA;;Indonesia;;;;36.150.692;1.254.628.835;https://maps.google.com/?cid=0x0:0x3faa16a224f374e9;
mall;mall;Kec. Tahuna Tim.;"Kabupaten Kepulauan Sangihe, Sulawesi Utara";"Kabupaten Kepulauan Sangihe, Sulawesi Utara";SULAWESI UTARA;;Indonesia;;;;36.107.787;1.255.084.379;https://maps.google.com/?cid=0x0:0x12910a813072e8b9;
mall;Pasar;FC CENTER;"Jln. SMK NEGERI 1 Tahuna Tim.,, Dumuhung, Kec. Tahuna Tim., Kabupaten Kepulauan Sangihe, Sulawesi Utara";"Kabupaten Kepulauan Sangihe, Sulawesi Utara";SULAWESI UTARA;;Indonesia;085242593169;;;36.105.571;1.255.048.727;https://maps.google.com/?cid=0x0:0xe0269faf51e05a22;
mall;mall;Tahuna Mall;"JF77+VJQ, Santiago, Kec. Tahuna, Kabupaten Kepulauan Sangihe, Sulawesi Utara";"Kabupaten Kepulauan Sangihe, Sulawesi Utara";SULAWESI UTARA;;Indonesia;;;;3.614.701;1.254.641.197;https://maps.google.com/?cid=0x0:0x4cb4dc79a530f55f;
mall;Pusat Perbelanjaan;Mini Mall Tahuna;"JF6R+4C2, Sawang Bendar, Kec. Tahuna, Kabupaten Kepulauan Sangihe, Sulawesi Utara";"Kabupaten Kepulauan Sangihe, Sulawesi Utara";SULAWESI UTARA;;Indonesia;;;;36.102.652;1.254.910.135;https://maps.google.com/?cid=0x0:0xfb5df94980acc17c;
mall;Pasar;Paragon Mart;"JF6V+45X, Sawang Bendar, Kec. Tahuna, Kabupaten Kepulauan Sangihe, Sulawesi Utara";"Kabupaten Kepulauan Sangihe, Sulawesi Utara";SULAWESI UTARA;;Indonesia;;;;36.103.533;1.254.929.745;https://maps.google.com/?cid=0x0:0x54085e71379ddd32;
mall;Otoritas Pelabuhan;Pelabuhan tua tahuna;"JF5R+FF5, Apeng Sembeka, Kec. Tahuna, Kabupaten Kepulauan Sangihe, Sulawesi Utara";"Kabupaten Kepulauan Sangihe, Sulawesi Utara";SULAWESI UTARA;;Indonesia;;;;3.608.635;125.491.224;https://maps.google.com/?cid=0x0:0x37780677d02ec8a3;
mall;Tujuan Wisata;Tahuna Waterpark  Mall;"jl apengsembeka, Santiago, Kec. Tahuna, Kabupaten Kepulauan Sangihe, Sulawesi Utara 95811";"Santiago, Kec. Tahuna, Kabupaten Kepulauan Sangihe";SULAWESI UTARA;95811;Indonesia;081238803746;;;36.141.414;1.254.633.304;https://maps.google.com/?cid=0x0:0xef2bd2785f359905;
mall;Pasar;Sangihe Art And Souvenir;"JF6X+HWV, Soataloara I, Kec. Tahuna, Kabupaten Kepulauan Sangihe, Sulawesi Utara";"Kabupaten Kepulauan Sangihe, Sulawesi Utara";SULAWESI UTARA;;Indonesia;085240513567;;;36.114.979;1.254.998.101;https://maps.google.com/?cid=0x0:0x8260fa3095d558f6;
mall;Toko bahan makanan;Kios Berkat Mulia;"JG45+HH7, Unnamed Road, Tona I, Kec. Tahuna Tim., Kabupaten Kepulauan Sangihe, Sulawesi Utara";"Kabupaten Kepulauan Sangihe, Sulawesi Utara";SULAWESI UTARA;;Indonesia;;;;36.064.112;1.255.089.169;https://maps.google.com/?cid=0x0:0xaa63b26e7d81e2fe;
mall;Printer Digital;D'PrintingFotocopy;"Bungalawang, Kec. Tahuna, Kabupaten Kepulauan Sangihe, Sulawesi Utara";"Kabupaten Kepulauan Sangihe, Sulawesi Utara";SULAWESI UTARA;;Indonesia;082281130023;;;36.084.702;1.254.781.396;https://maps.google.com/?cid=0x0:0x56625d94e76e614e;
mall;Pusat Perbelanjaan;Warung Eby;"JG73+587, Tim., Dumuhung, Kec. Tahuna Tim., Kabupaten Kepulauan Sangihe, Sulawesi Utara";"Kabupaten Kepulauan Sangihe, Sulawesi Utara";SULAWESI UTARA;;Indonesia;081340629593;;;3.612.913;125.503.294;https://maps.google.com/?cid=0x0:0x1c08aaa91260e27c;
mall;Pusat Perbelanjaan;Foto Copy LIONY;"Jl.Tatehe No.1, Apeng Sembeka, Kec. Tahuna, Kabupaten Kepulauan Sangihe, Sulawesi Utara";"Kabupaten Kepulauan Sangihe, Sulawesi Utara";SULAWESI UTARA;;Indonesia;;;;36.078.222;1.254.855.699;https://maps.google.com/?cid=0x0:0xb14275f8e8dfc05d;
mall;Pasar;Pasar IKAN towoe;"JF5W+WM6, Sawang Bendar, Kec. Tahuna, Kabupaten Kepulauan Sangihe, Sulawesi Utara";"Kabupaten Kepulauan Sangihe, Sulawesi Utara";SULAWESI UTARA;;Indonesia;;;;3.609.785;1.254.966.468;https://maps.google.com/?cid=0x0:0xafa2a781c6b2fac6;
mall;Pusat Perbelanjaan;Agzo shop;"JF4J+RV4, Apeng Sembeka, Kec. Tahuna, Kabupaten Kepulauan Sangihe, Sulawesi Utara";"Kabupaten Kepulauan Sangihe, Sulawesi Utara";SULAWESI UTARA;;Indonesia;085242707182;;;36.070.041;125.482.195;https://maps.google.com/?cid=0x0:0x847525cd23fb3b14;
mall;Pusat Perbelanjaan;Pasar Towo'e;"JF6W+4F6, Sawang Bendar, Kec. Tahuna, Kabupaten Kepulauan Sangihe, Sulawesi Utara";"Kabupaten Kepulauan Sangihe, Sulawesi Utara";SULAWESI UTARA;;Indonesia;;;;36.102.802;1.254.961.559;https://maps.google.com/?cid=0x0:0x53a6ba46aaf563ec;
mall;Pusat Perbelanjaan;Warung foto copy;"Apeng Sembeka, Kec. Tahuna, Kabupaten Kepulauan Sangihe, Sulawesi Utara";"Kabupaten Kepulauan Sangihe, Sulawesi Utara";SULAWESI UTARA;;Indonesia;081355568910;;;36.070.603;1.254.810.633;https://maps.google.com/?cid=0x0:0x6f9763ee05451991;
mall;Toko bahan makanan;Lulege;"JF6W+3MH, Pasar Towo'e, Soataloara I, Kec. Tahuna, Kabupaten Kepulauan Sangihe, Sulawesi Utara 95812";"Pasar Towo'e, Soataloara I, Kec. Tahuna, Kabupaten Kepulauan Sangihe";SULAWESI UTARA;95812;Indonesia;;;;36.101.853;1.254.967.281;https://maps.google.com/?cid=0x0:0x5a9793a27a767241;
mall;Toko Pakaian;Trufarm~Mart And Modern~Fashion;"JF5R+HRR, Jl. Makaampo, Sawang Bendar, Kec. Tahuna, Kabupaten Kepulauan Sangihe, Sulawesi Utara";"Kabupaten Kepulauan Sangihe, Sulawesi Utara";SULAWESI UTARA;;Indonesia;;;;36.089.831;1.254.920.025;https://maps.google.com/?cid=0x0:0xae2a34e9066debae;
mall;Toko Pakaian;Toko STARS TAHUNA;"JF5R+MFJ, Unnamed Road, Sawang Bendar, Kec. Tahuna, Kabupaten Kepulauan Sangihe, Sulawesi Utara";"Kabupaten Kepulauan Sangihe, Sulawesi Utara";SULAWESI UTARA;;Indonesia;082347508687;;;36.092.167;125.491.143;https://maps.google.com/?cid=0x0:0x6aefc3604056e37b;
mall;Pagoda;Taman Malahasa Kota Tahuna;"JG64+3F8, Tim, Tona II, Kec. Tahuna Tim., Kabupaten Kepulauan Sangihe, Sulawesi Utara";"Kabupaten Kepulauan Sangihe, Sulawesi Utara";SULAWESI UTARA;;Indonesia;;;;36.101.708;1.255.062.079;https://maps.google.com/?cid=0x0:0xeb22251c61519851;
mall;mall;Tamako;"Pokol, Tamako, Kabupaten Kepulauan Sangihe, Sulawesi Utara";"Kabupaten Kepulauan Sangihe, Sulawesi Utara";SULAWESI UTARA;;Indonesia;;;;3.457.318;125.512.815;https://maps.google.com/?cid=0x0:0xc351e5c82bb74d45;
mall;Pasar;Paragon Mart;"JF6V+45X, Sawang Bendar, Kec. Tahuna, Kabupaten Kepulauan Sangihe, Sulawesi Utara";"Kabupaten Kepulauan Sangihe, Sulawesi Utara";SULAWESI UTARA;;Indonesia;;;;36.103.533;1.254.929.745;https://maps.google.com/?cid=0x0:0x54085e71379ddd32;
mall;mall;Tahuna Mall;"JF77+VJQ, Santiago, Kec. Tahuna, Kabupaten Kepulauan Sangihe, Sulawesi Utara";"Kabupaten Kepulauan Sangihe, Sulawesi Utara";SULAWESI UTARA;;Indonesia;;;;3.614.701;1.254.641.197;https://maps.google.com/?cid=0x0:0x4cb4dc79a530f55f;
mall;Toko Gadai;Pegadaian UPC Pasar Tona;"Kompleks Terminal Tona, Kel. Tona 1, Kec. Tahuna Timur, Batulewehe, Sangihe, Sangihe Islands Regency, North Sulawesi 95815";"Kel. Tona 1, Kec. Tahuna Timur, Batulewehe, Sangihe, Sangihe Islands Regency";SULAWESI UTARA;95815;Indonesia;043221138;;;35.948.915;1.255.055.758;https://maps.google.com/?cid=0x0:0x9ecc8c46fe29efb6;
mall;Pusat Perbelanjaan;Blok M Plaza;"Jl. Bulungan No.76, RT.6/RW.6, Kramat Pela, Kec. Kby. Baru, Kota Jakarta Selatan, Daerah Khusus Ibukota Jakarta 12130";"RT.6/RW.6, Kramat Pela, Kec. Kby. Baru, Kota Jakarta Selatan";SULAWESI UTARA;12130;Indonesia;0217209288;;;-62.441.189;1.067.976.404;https://maps.google.com/?cid=0x0:0x3e110f817acb352d;
mall;Mal outlet;Supermal Karawaci;"Jl. Boulevard Diponegoro No.105, Bencongan, Kec. Klp. Dua, Kabupaten Tangerang, Banten 15810";"Bencongan, Kec. Klp. Dua, Kabupaten Tangerang";SULAWESI UTARA;15810;Indonesia;0215466666;;;-62.268.116;1.066.070.233;https://maps.google.com/?cid=0x0:0xc5927a7be82e23b8;
mall;Toko;VHITA SHOP;"3G82+MMG, Para, Kec. Tatoareng, Kabupaten Kepulauan Sangihe, Sulawesi Utara";"Kabupaten Kepulauan Sangihe, Sulawesi Utara";SULAWESI UTARA;;Indonesia;081242996436;;;30.666.898;1.255.017.179;https://maps.google.com/?cid=0x0:0xf75e666eed933f03;
mall;Toko;kios Tasya;"GF9R+G8J, Sesiwung, Kec. Manganitu, Kabupaten Kepulauan Sangihe, Sulawesi Utara";"Kabupaten Kepulauan Sangihe, Sulawesi Utara";SULAWESI UTARA;;Indonesia;;;;35.189.112;1.254.906.605;https://maps.google.com/?cid=0x0:0xdd373e0c6b434e50;
supermarket;supermarket;Kendahe;"Kabupaten Kepulauan Sangihe, Sulawesi Utara";"Kabupaten Kepulauan Sangihe, Sulawesi Utara";SULAWESI UTARA;;Indonesia;;;;37.121.105;1.254.233.987;https://maps.google.com/?cid=0x0:0x86c5529cf19759d;
supermarket;Minimarket;Megaria SwalayanTahuna;"Jl. Makaampo No.26, Sawang Bendar, Kec. Tahuna, Kabupaten Kepulauan Sangihe, Sulawesi Utara 95812";"Sawang Bendar, Kec. Tahuna, Kabupaten Kepulauan Sangihe";SULAWESI UTARA;95812;Indonesia;082349681805;;;36.093.144;125.491.729;https://maps.google.com/?cid=0x0:0x6345099cefab6c5d;
supermarket;Toko bahan makanan;Utama Supermarket;"FG43+GGM, Nagha I, Tamako, Kabupaten Kepulauan Sangihe, Sulawesi Utara";"Kabupaten Kepulauan Sangihe, Sulawesi Utara";SULAWESI UTARA;;Indonesia;;;;34.563.488;12.550.381;https://maps.google.com/?cid=0x0:0x9b49b76a347ea52;
supermarket;Pusat Perbelanjaan;Toko Idola Tidore;"JG43+5XJ, Tidore, Kec. Tahuna Tim., Kabupaten Kepulauan Sangihe, Sulawesi Utara";"Kabupaten Kepulauan Sangihe, Sulawesi Utara";SULAWESI UTARA;;Indonesia;;;;36.054.692;1.255.048.983;https://maps.google.com/?cid=0x0:0xdc52027df7da88de;
supermarket;Toko bahan makanan;PELITAMART Cab. SANTIAGO;"JF7C+4XG, Santiago, Kec. Tahuna, Kabupaten Kepulauan Sangihe, Sulawesi Utara";"Kabupaten Kepulauan Sangihe, Sulawesi Utara";SULAWESI UTARA;;Indonesia;04323350056;;;36.128.296;1.254.724.629;https://maps.google.com/?cid=0x0:0x76b83aac0d1320e4;
supermarket;Minimarket;Ceria Mart Cabang Sawang Bendar;"Jl. Makaampo No.44, Sawang Bendar, Kec. Tahuna, Kabupaten Kepulauan Sangihe, Sulawesi Utara";"Kabupaten Kepulauan Sangihe, Sulawesi Utara";SULAWESI UTARA;;Indonesia;;;;3.609.363;1.254.921.812;https://maps.google.com/?cid=0x0:0x48323867432b57f;
supermarket;Toko bahan makanan;Tahuna Swalayan;"JF77+RGW, Sawang Bendar, Kec. Tahuna, Kabupaten Kepulauan Sangihe, Sulawesi Utara";"Kabupaten Kepulauan Sangihe, Sulawesi Utara";SULAWESI UTARA;;Indonesia;085256164510;;;36.146.049;125.463.821;https://maps.google.com/?cid=0x0:0x149cfe296c7ebd7;
supermarket;Minimarket;Megaria Next Naha;"Naha-Petta, Kec. Tahuna, Kabupaten Kepulauan Sangihe, Sulawesi Utara 95856";"Kec. Tahuna, Kabupaten Kepulauan Sangihe";SULAWESI UTARA;95856;Indonesia;;;;36.753.136;1.255.447.065;https://maps.google.com/?cid=0x0:0xc313fc9622e1704c;
supermarket;Toko Swalayan;Tk. Empat Sejati;"JF5Q+G94, Sawang Bendar, Kec. Tahuna, Kabupaten Kepulauan Sangihe, Sulawesi Utara";"Kabupaten Kepulauan Sangihe, Sulawesi Utara";SULAWESI UTARA;;Indonesia;043221056;;;36.087.658;1.254.884.648;https://maps.google.com/?cid=0x0:0x28954c81fb34da00;
supermarket;Toko bahan makanan;Popmartz Supermarket;"Petta Bar., Kec. Tabukan Utara, Kabupaten Kepulauan Sangihe, Sulawesi Utara 95856";"Kec. Tabukan Utara, Kabupaten Kepulauan Sangihe";SULAWESI UTARA;95856;Indonesia;081913220000;;;36.484.893;1.255.595.184;https://maps.google.com/?cid=0x0:0x3df50b03c4e1fd5;
supermarket;Toko bahan makanan;Lulege;"JF6W+3MH, Pasar Towo'e, Soataloara I, Kec. Tahuna, Kabupaten Kepulauan Sangihe, Sulawesi Utara 95812";"Pasar Towo'e, Soataloara I, Kec. Tahuna, Kabupaten Kepulauan Sangihe";SULAWESI UTARA;95812;Indonesia;;;;36.101.853;1.254.967.281;https://maps.google.com/?cid=0x0:0x5a9793a27a767241;
supermarket;Minimarket;Megaria Link Santiago;"Santiago, Kota, Kec. Tahuna, Kabupaten Kepulauan Sangihe, Sulawesi Utara 95811";"Kota, Kec. Tahuna, Kabupaten Kepulauan Sangihe";SULAWESI UTARA;95811;Indonesia;082349681805;;;36.143.397;12.546.646;https://maps.google.com/?cid=0x0:0x63aa281b766d90f8;
supermarket;Toserba;Toko Merpati Tahuna;"JF6R+244, Jl. Hasanudin, Sawang Bendar, Kec. Tahuna, Kabupaten Kepulauan Sangihe, Sulawesi Utara";"Kabupaten Kepulauan Sangihe, Sulawesi Utara";SULAWESI UTARA;;Indonesia;081340043610;;;36.100.098;1.254.903.378;https://maps.google.com/?cid=0x0:0x1cc43d39207012e1;
supermarket;Toko Swalayan;Golden Pasar Swalayan;"Ruko Boulevard, Jl. Piere Tendean No.5, Wenang Utara, Kec. Wenang, Kota Manado, Sulawesi Utara";"Kota Manado, Sulawesi Utara";SULAWESI UTARA;;Indonesia;;;;14.884.317;1.248.379.329;https://maps.google.com/?cid=0x0:0x2d4fb94562e6ef96;
supermarket;Toko bahan makanan;Toko miracle;"JFCM+CFF, Sawang bentar depan gereja tiberias, Mahena, Kec. Tahuna, Kabupaten Kepulauan Sangihe, Sulawesi Utara";"Kabupaten Kepulauan Sangihe, Sulawesi Utara";SULAWESI UTARA;;Indonesia;085240782088;;;36.210.581;12.548.367;https://maps.google.com/?cid=0x0:0x1a3048c85bce7fd1;
supermarket;Toko Swalayan;CV. Centra Pangan Mandiri;"Sawang Bendar, Kec. Tahuna, Kabupaten Kepulauan Sangihe, Sulawesi Utara";"Kabupaten Kepulauan Sangihe, Sulawesi Utara";SULAWESI UTARA;;Indonesia;082190860475;;;36.101.394;1.254.922.653;https://maps.google.com/?cid=0x0:0x6ee6bbdf658eb590;
supermarket;Pasar;KIOS. OLDY SAWANGJAO;"PCMV+F2X, Jalan 2, Sawangjao, Kendahe, Kabupaten Kepulauan Sangihe, Sulawesi Utara";"Kabupaten Kepulauan Sangihe, Sulawesi Utara";SULAWESI UTARA;;Indonesia;085240554548;;;37.337.445;1.254.426.116;https://maps.google.com/?cid=0x0:0x7006b0fbe59d721f;
supermarket;Dapur Umum;Nita damaling home;"MCR3+G83, Kendahe I, Kendahe, Kabupaten Kepulauan Sangihe, Sulawesi Utara";"Kabupaten Kepulauan Sangihe, Sulawesi Utara";SULAWESI UTARA;;Indonesia;;;;36.913.332;12.540.331;https://maps.google.com/?cid=0x0:0xb844838fc08e887a;
supermarket;Minimarket;Ceria Mart Tahuna;"JF6G+57F, Bungalawang, Kec. Tahuna, Kabupaten Kepulauan Sangihe, Sulawesi Utara";"Kabupaten Kepulauan Sangihe, Sulawesi Utara";SULAWESI UTARA;;Indonesia;043224453;;;36.104.343;125.475.657;https://maps.google.com/?cid=0x0:0xc7a35bdd8112590f;
supermarket;Toko bahan makanan;STAR MART;"JF7F+2GJ, Santiago, Kec. Tahuna, Kabupaten Kepulauan Sangihe, Sulawesi Utara";"Kabupaten Kepulauan Sangihe, Sulawesi Utara";SULAWESI UTARA;;Indonesia;085341776070;;;36.125.839;1.254.737.583;https://maps.google.com/?cid=0x0:0xb60fc294ef2ba6ee;
supermarket;Toko;Kios Ibu Eva;"JCHM+VWC, Kolongan Mitung, Kec. Tahuna Bar., Kabupaten Kepulauan Sangihe, Sulawesi Utara";"Kabupaten Kepulauan Sangihe, Sulawesi Utara";SULAWESI UTARA;;Indonesia;082261802382;;;36.296.852;1.254.347.631;https://maps.google.com/?cid=0x0:0xdd8791980fc1c13e;
supermarket;Toko Swalayan;Toko Maju;"JF5Q+FFH, Sawang Bendar, Kec. Tahuna, Kabupaten Kepulauan Sangihe, Sulawesi Utara";"Kabupaten Kepulauan Sangihe, Sulawesi Utara";SULAWESI UTARA;;Indonesia;043221400;;;36.086.805;1.254.887.458;https://maps.google.com/?cid=0x0:0xca7543668f766734;
supermarket;Minimarket;Golden Mart;"JG54+P2M, Tona II, Kec. Tahuna Tim., Kabupaten Kepulauan Sangihe, Sulawesi Utara";"Kabupaten Kepulauan Sangihe, Sulawesi Utara";SULAWESI UTARA;;Indonesia;;;;36.093.433;1.255.050.324;https://maps.google.com/?cid=0x0:0xe6827ef578a80db6;
supermarket;Kios;Kios 24;"JG33+3P7, Tidore, atas, Kabupaten Kepulauan Sangihe, Sulawesi Utara 95413";"Tidore, atas, Kabupaten Kepulauan Sangihe";SULAWESI UTARA;95413;Indonesia;085256781695;;;36.026.718;1.255.042.864;https://maps.google.com/?cid=0x0:0xeb04eee0a698b69;
supermarket;Toko;Toko Berkat Indah;"Jl. Tidore No.Rt. 3, Tidore, Kec. Tahuna Tim., Kabupaten Kepulauan Sangihe, Sulawesi Utara";"Kabupaten Kepulauan Sangihe, Sulawesi Utara";SULAWESI UTARA;;Indonesia;;;;36.040.963;1.255.049.261;https://maps.google.com/?cid=0x0:0x1944045dc5874fbc;
supermarket;supermarket;Marore iland indonesia;"PFJP+HMV, Marore, Kepulauan Marore, Kabupaten Kepulauan Sangihe, Sulawesi Utara";"Kabupaten Kepulauan Sangihe, Sulawesi Utara";SULAWESI UTARA;;Indonesia;;;;47.314.855;1.254.866.653;https://maps.google.com/?cid=0x0:0xb1983448bb33c937;
supermarket;supermarket;Pulau Marore;"Marore, Kepulauan Marore, Kabupaten Kepulauan Sangihe, Sulawesi Utara";"Kabupaten Kepulauan Sangihe, Sulawesi Utara";SULAWESI UTARA;;Indonesia;;;;47.333.333;1.254.833.333;https://maps.google.com/?cid=0x0:0xf9423e670477642d;
supermarket;Toko bahan makanan;Utama Supermarket;"FG43+GGM, Nagha I, Tamako, Kabupaten Kepulauan Sangihe, Sulawesi Utara";"Kabupaten Kepulauan Sangihe, Sulawesi Utara";SULAWESI UTARA;;Indonesia;;;;34.563.488;12.550.381;https://maps.google.com/?cid=0x0:0x9b49b76a347ea52;
supermarket;supermarket;Kec. Manganitu;"Kabupaten Kepulauan Sangihe, Sulawesi Utara";"Kabupaten Kepulauan Sangihe, Sulawesi Utara";SULAWESI UTARA;;Indonesia;;;;35.693.016;125.512.093;https://maps.google.com/?cid=0x0:0xc130a69c6e159c08;
supermarket;Museum;PASAR MANGANITU;"HG87+QFC, Mala, Kec. Manganitu, Kabupaten Kepulauan Sangihe, Sulawesi Utara";"Kabupaten Kepulauan Sangihe, Sulawesi Utara";SULAWESI UTARA;;Indonesia;;;;35.669.403;1.255.136.336;https://maps.google.com/?cid=0x0:0x498a74884cfdcb91;
supermarket;Toko bahan makanan;Utama Supermarket;"FG43+GGM, Nagha I, Tamako, Kabupaten Kepulauan Sangihe, Sulawesi Utara";"Kabupaten Kepulauan Sangihe, Sulawesi Utara";SULAWESI UTARA;;Indonesia;;;;34.563.488;12.550.381;https://maps.google.com/?cid=0x0:0x9b49b76a347ea52;
supermarket;Pasar;Paragon Mart;"JF6V+45X, Sawang Bendar, Kec. Tahuna, Kabupaten Kepulauan Sangihe, Sulawesi Utara";"Kabupaten Kepulauan Sangihe, Sulawesi Utara";SULAWESI UTARA;;Indonesia;;;;36.103.533;1.254.929.745;https://maps.google.com/?cid=0x0:0x54085e71379ddd32;
supermarket;Toko bahan makanan;Lulege;"JF6W+3MH, Pasar Towo'e, Soataloara I, Kec. Tahuna, Kabupaten Kepulauan Sangihe, Sulawesi Utara 95812";"Pasar Towo'e, Soataloara I, Kec. Tahuna, Kabupaten Kepulauan Sangihe";SULAWESI UTARA;95812;Indonesia;;;;36.101.853;1.254.967.281;https://maps.google.com/?cid=0x0:0x5a9793a27a767241;
supermarket;Minimarket;Ceria Mart Cabang Sawang Bendar;"Jl. Makaampo No.44, Sawang Bendar, Kec. Tahuna, Kabupaten Kepulauan Sangihe, Sulawesi Utara";"Kabupaten Kepulauan Sangihe, Sulawesi Utara";SULAWESI UTARA;;Indonesia;;;;3.609.363;1.254.921.812;https://maps.google.com/?cid=0x0:0x48323867432b57f;
supermarket;Toko Swalayan;Tk. Empat Sejati;"JF5Q+G94, Sawang Bendar, Kec. Tahuna, Kabupaten Kepulauan Sangihe, Sulawesi Utara";"Kabupaten Kepulauan Sangihe, Sulawesi Utara";SULAWESI UTARA;;Indonesia;043221056;;;36.087.658;1.254.884.648;https://maps.google.com/?cid=0x0:0x28954c81fb34da00;
supermarket;Pusat Perbelanjaan;Toko Idola Tidore;"JG43+5XJ, Tidore, Kec. Tahuna Tim., Kabupaten Kepulauan Sangihe, Sulawesi Utara";"Kabupaten Kepulauan Sangihe, Sulawesi Utara";SULAWESI UTARA;;Indonesia;;;;36.054.692;1.255.048.983;https://maps.google.com/?cid=0x0:0xdc52027df7da88de;
supermarket;Toko Swalayan;CV. Centra Pangan Mandiri;"Sawang Bendar, Kec. Tahuna, Kabupaten Kepulauan Sangihe, Sulawesi Utara";"Kabupaten Kepulauan Sangihe, Sulawesi Utara";SULAWESI UTARA;;Indonesia;082190860475;;;36.101.394;1.254.922.653;https://maps.google.com/?cid=0x0:0x6ee6bbdf658eb590;
supermarket;Toserba;Toko Merpati Tahuna;"JF6R+244, Jl. Hasanudin, Sawang Bendar, Kec. Tahuna, Kabupaten Kepulauan Sangihe, Sulawesi Utara";"Kabupaten Kepulauan Sangihe, Sulawesi Utara";SULAWESI UTARA;;Indonesia;081340043610;;;36.100.098;1.254.903.378;https://maps.google.com/?cid=0x0:0x1cc43d39207012e1;
supermarket;Minimarket;JUNI MART;"9HVR+V37, Lapango, Manganitu Sel., Kabupaten Kepulauan Sangihe, Sulawesi Utara";"Kabupaten Kepulauan Sangihe, Sulawesi Utara";SULAWESI UTARA;;Indonesia;;;;33.946.419;1.255.900.602;https://maps.google.com/?cid=0x0:0xb536d29fd6803079;
supermarket;Minimarket;Golden Mart;"JG54+P2M, Tona II, Kec. Tahuna Tim., Kabupaten Kepulauan Sangihe, Sulawesi Utara";"Kabupaten Kepulauan Sangihe, Sulawesi Utara";SULAWESI UTARA;;Indonesia;;;;36.093.433;1.255.050.324;https://maps.google.com/?cid=0x0:0xe6827ef578a80db6;
supermarket;Minimarket;Kios Gamaliel;"FGFF+WWM, Binala, Tamako, Kabupaten Kepulauan Sangihe, Sulawesi Utara";"Kabupaten Kepulauan Sangihe, Sulawesi Utara";SULAWESI UTARA;;Indonesia;;;;3.475.023;1.255.249.515;https://maps.google.com/?cid=0x0:0x142887f03e0af34a;
supermarket;Toko Swalayan;Toko Maju;"JF5Q+FFH, Sawang Bendar, Kec. Tahuna, Kabupaten Kepulauan Sangihe, Sulawesi Utara";"Kabupaten Kepulauan Sangihe, Sulawesi Utara";SULAWESI UTARA;;Indonesia;043221400;;;36.086.805;1.254.887.458;https://maps.google.com/?cid=0x0:0xca7543668f766734;
supermarket;Toko bahan makanan;Wd Home;"HGC5+XWQ, Barangka, Kec. Manganitu, Kabupaten Kepulauan Sangihe, Sulawesi Utara";"Kabupaten Kepulauan Sangihe, Sulawesi Utara";SULAWESI UTARA;;Indonesia;;;;357.247;1.255.098.472;https://maps.google.com/?cid=0x0:0x289783dac819f175;
supermarket;Kedai Kopi;Kantin oma yuke;"FFMQ+63J, Barangkalang, Kec. Manganitu, Kabupaten Kepulauan Sangihe, Sulawesi Utara";"Kabupaten Kepulauan Sangihe, Sulawesi Utara";SULAWESI UTARA;;Indonesia;;;;34.843.242;1.254.877.956;https://maps.google.com/?cid=0x0:0x1ae54524417c1cf0;
supermarket;Minimarket;Jania Cell/Kios Pink;"FFMQ+CWX, Barangkalang, Kec. Manganitu, Kabupaten Kepulauan Sangihe, Sulawesi Utara";"Kabupaten Kepulauan Sangihe, Sulawesi Utara";SULAWESI UTARA;;Indonesia;;;;3.483.612;1.254.898.692;https://maps.google.com/?cid=0x0:0x7a7324b31ea86144;
supermarket;Kios;Kios 24;"JG33+3P7, Tidore, atas, Kabupaten Kepulauan Sangihe, Sulawesi Utara 95413";"Tidore, atas, Kabupaten Kepulauan Sangihe";SULAWESI UTARA;95413;Indonesia;085256781695;;;36.026.718;1.255.042.864;https://maps.google.com/?cid=0x0:0xeb04eee0a698b69;
supermarket;Toko;JUEN CELL (Kios Murni);"Unnamed Road, Balane, Tamako, Kabupaten Kepulauan Sangihe, Sulawesi Utara";"Kabupaten Kepulauan Sangihe, Sulawesi Utara";SULAWESI UTARA;;Indonesia;085298400435;;;34.634.464;1.255.170.126;https://maps.google.com/?cid=0x0:0x70f0fdc270f7ee6b;
supermarket;Toko;Toko Berkat Indah;"Jl. Tidore No.Rt. 3, Tidore, Kec. Tahuna Tim., Kabupaten Kepulauan Sangihe, Sulawesi Utara";"Kabupaten Kepulauan Sangihe, Sulawesi Utara";SULAWESI UTARA;;Indonesia;;;;36.040.963;1.255.049.261;https://maps.google.com/?cid=0x0:0x1944045dc5874fbc;
supermarket;Komplek perumahan;Rumah Raja Manganitu;"HG89+938, Taloarane I, Kec. Manganitu, Kabupaten Kepulauan Sangihe, Sulawesi Utara";"Kabupaten Kepulauan Sangihe, Sulawesi Utara";SULAWESI UTARA;;Indonesia;;;;35.659.151;1.255.177.055;https://maps.google.com/?cid=0x0:0x4e67d14d5a2b2bfa;
supermarket;Toko umum;Waserda Agape Tapuang;"Kelurahan Jl. Tidore No.25, Tapuang, Kec. Tahuna Tim., Kabupaten Kepulauan Sangihe, Sulawesi Utara";"Kabupaten Kepulauan Sangihe, Sulawesi Utara";SULAWESI UTARA;;Indonesia;085242891899;;;3.598.765;125.504.121;https://maps.google.com/?cid=0x0:0xc95624a30b3d8b0f;
supermarket;Toko bahan makanan;Utama Supermarket;"FG43+GGM, Nagha I, Tamako, Kabupaten Kepulauan Sangihe, Sulawesi Utara";"Kabupaten Kepulauan Sangihe, Sulawesi Utara";SULAWESI UTARA;;Indonesia;;;;34.563.488;12.550.381;https://maps.google.com/?cid=0x0:0x9b49b76a347ea52;
supermarket;supermarket;Manganitu Sel.;"Kabupaten Kepulauan Sangihe, Sulawesi Utara";"Kabupaten Kepulauan Sangihe, Sulawesi Utara";SULAWESI UTARA;;Indonesia;;;;34.016.429;125.620.484;https://maps.google.com/?cid=0x0:0x74c38fb5de9eba1e;
supermarket;Minimarket;Megaria SwalayanTahuna;"Jl. Makaampo No.26, Sawang Bendar, Kec. Tahuna, Kabupaten Kepulauan Sangihe, Sulawesi Utara 95812";"Sawang Bendar, Kec. Tahuna, Kabupaten Kepulauan Sangihe";SULAWESI UTARA;95812;Indonesia;082349681805;;;36.093.144;125.491.729;https://maps.google.com/?cid=0x0:0x6345099cefab6c5d;
supermarket;Pasar;Hafid PayTren Ngalipaeng II;"9JRC+266, Ngalipaeng II, Manganitu Sel., Kabupaten Kepulauan Sangihe, Sulawesi Utara";"Kabupaten Kepulauan Sangihe, Sulawesi Utara";SULAWESI UTARA;;Indonesia;085396612285;;;33.900.437;1.256.205.136;https://maps.google.com/?cid=0x0:0x6b21ad705c2860cb;
supermarket;Toko bahan makanan;Toko  Kantin Kochiks;"CHRC+599, Dagho, Tamako, Kabupaten Kepulauan Sangihe, Sulawesi Utara";"Kabupaten Kepulauan Sangihe, Sulawesi Utara";SULAWESI UTARA;;Indonesia;081340361593;;;3.440.402;1.255.709.755;https://maps.google.com/?cid=0x0:0xa5488dd49d7c05ca;
supermarket;Minimarket;Kios Gamaliel;"FGFF+WWM, Binala, Tamako, Kabupaten Kepulauan Sangihe, Sulawesi Utara";"Kabupaten Kepulauan Sangihe, Sulawesi Utara";SULAWESI UTARA;;Indonesia;;;;3.475.023;1.255.249.515;https://maps.google.com/?cid=0x0:0x142887f03e0af34a;
supermarket;Toko Swalayan;Multimart Ranotana;"Jl. Stadion Klabat, Ranotana, Kec. Sario, Kota Manado, Sulawesi Utara 95114";"Ranotana, Kec. Sario, Kota Manado";SULAWESI UTARA;95114;Indonesia;;;;14.593.079;124.837.613;https://maps.google.com/?cid=0x0:0x92248971a0c4fc9a;
supermarket;Toko;Warung Viona Nova;"CG8V+V87, Unnamed Road, Makalekuhe, Tamako, Kabupaten Kepulauan Sangihe, Sulawesi Utara";"Kabupaten Kepulauan Sangihe, Sulawesi Utara";SULAWESI UTARA;;Indonesia;085756625813;;;34.171.522;1.255.433.035;https://maps.google.com/?cid=0x0:0x6c2888f01861ae78;
supermarket;Toko bahan makanan;Utama Supermarket;"FG43+GGM, Nagha I, Tamako, Kabupaten Kepulauan Sangihe, Sulawesi Utara";"Kabupaten Kepulauan Sangihe, Sulawesi Utara";SULAWESI UTARA;;Indonesia;;;;34.563.488;12.550.381;https://maps.google.com/?cid=0x0:0x9b49b76a347ea52;
supermarket;supermarket;Nusa Tabukan;"Kabupaten Kepulauan Sangihe, Sulawesi Utara";"Kabupaten Kepulauan Sangihe, Sulawesi Utara";SULAWESI UTARA;;Indonesia;;;;37.780.322;1.255.904.048;https://maps.google.com/?cid=0x0:0x6fd788077ef450df;
supermarket;Minimarket;Megaria SwalayanTahuna;"Jl. Makaampo No.26, Sawang Bendar, Kec. Tahuna, Kabupaten Kepulauan Sangihe, Sulawesi Utara 95812";"Sawang Bendar, Kec. Tahuna, Kabupaten Kepulauan Sangihe";SULAWESI UTARA;95812;Indonesia;082349681805;;;36.093.144;125.491.729;https://maps.google.com/?cid=0x0:0x6345099cefab6c5d;
supermarket;Gereja;Nipa Nusa Tabukan;"QH3J+4F5, Kampung Nusa Lendongan Nipa, Nusa, Nusa Tabukan, Sangihe Islands Regency, North Sulawesi";"Kabupaten Kepulauan Sangihe, Sulawesi Utara";SULAWESI UTARA;;Indonesia;;;;3.752.756;1.255.812.463;https://maps.google.com/?cid=0x0:0xbc713a57c2e8f914;
supermarket;Minimarket;Megaria SwalayanTahuna;"Jl. Makaampo No.26, Sawang Bendar, Kec. Tahuna, Kabupaten Kepulauan Sangihe, Sulawesi Utara 95812";"Sawang Bendar, Kec. Tahuna, Kabupaten Kepulauan Sangihe";SULAWESI UTARA;95812;Indonesia;082349681805;;;36.093.144;125.491.729;https://maps.google.com/?cid=0x0:0x6345099cefab6c5d;
supermarket;Toko bahan makanan;Megaria Link Apengsembeka;"Jl. Raya Tatehe, Apeng Sembeka, Kec. Tahuna, Kabupaten Kepulauan Sangihe, Sulawesi Utara 95812";"Apeng Sembeka, Kec. Tahuna, Kabupaten Kepulauan Sangihe";SULAWESI UTARA;95812;Indonesia;082349681805;;;36.061.604;1.254.817.095;https://maps.google.com/?cid=0x0:0x88be3348b2bdf66a;
supermarket;supermarket;Tabukan Sel. Tengah;"Kabupaten Kepulauan Sangihe, Sulawesi Utara";"Kabupaten Kepulauan Sangihe, Sulawesi Utara";SULAWESI UTARA;;Indonesia;;;;34.630.696;1.256.478.189;https://maps.google.com/?cid=0x0:0xd87fa84db2a69d30;
supermarket;supermarket;Toko Karimako;"GJ9F+935, Lesabe I, Kec. Tabukan Sel., Kabupaten Kepulauan Sangihe, Sulawesi Utara";"Kabupaten Kepulauan Sangihe, Sulawesi Utara";SULAWESI UTARA;;Indonesia;;;;35.183.937;1.256.227.397;https://maps.google.com/?cid=0x0:0xaf0355996127e644;
supermarket;supermarket;Kec. Tabukan Sel.;"Kabupaten Kepulauan Sangihe, Sulawesi Utara";"Kabupaten Kepulauan Sangihe, Sulawesi Utara";SULAWESI UTARA;;Indonesia;;;;35.171.771;1.256.226.871;https://maps.google.com/?cid=0x0:0xf03a5b084c01a081;
supermarket;Toko Swalayan;Diskon Supermarket;"Jl. Raya Bogor No.20 KM26 No, Susukan, Kec. Ciracas, Kota Jakarta Timur, Daerah Khusus Ibukota Jakarta 13740";"Susukan, Kec. Ciracas, Kota Jakarta Timur";SULAWESI UTARA;13740;Indonesia;081282109990;;;-63.290.415;106.865.772;https://maps.google.com/?cid=0x0:0xe881f3fa8ae14640;
supermarket;supermarket;M-Kios;"HHFJ+J9C, Pasar, Kuma, Kec. Tabukan Tengah, Kabupaten Kepulauan Sangihe, Sulawesi Utara";"Kabupaten Kepulauan Sangihe, Sulawesi Utara";SULAWESI UTARA;;Indonesia;;;;35.740.606;1.255.808.826;https://maps.google.com/?cid=0x0:0x2d91a493a3fe539c;
supermarket;supermarket;Pasar Salurang;"FMF7+8M2, Salurang, Tabukan Sel. Tengah, Kabupaten Kepulauan Sangihe, Sulawesi Utara";"Kabupaten Kepulauan Sangihe, Sulawesi Utara";SULAWESI UTARA;;Indonesia;;;;34.732.741;1.256.641.287;https://maps.google.com/?cid=0x0:0xa00fa8d8f2fe3637;
supermarket;supermarket;Olahan bahan makanan sagu;"Palareng, Tahuna, Kabupaten Kepulauan Sangihe, Sulawesi Utara";"Kabupaten Kepulauan Sangihe, Sulawesi Utara";SULAWESI UTARA;;Indonesia;081354573694;;;3.517.834;1.256.566.963;https://maps.google.com/?cid=0x0:0xedfcf69fcab6567;
supermarket;supermarket;Kec. Tabukan Tengah;"Kabupaten Kepulauan Sangihe, Sulawesi Utara";"Kabupaten Kepulauan Sangihe, Sulawesi Utara";SULAWESI UTARA;;Indonesia;;;;35.716.264;1.255.765.487;https://maps.google.com/?cid=0x0:0x4030bfbcaf78960;
supermarket;Toko bahan makanan;Popmartz Supermarket;"Petta Bar., Kec. Tabukan Utara, Kabupaten Kepulauan Sangihe, Sulawesi Utara 95856";"Kec. Tabukan Utara, Kabupaten Kepulauan Sangihe";SULAWESI UTARA;95856;Indonesia;081913220000;;;36.484.893;1.255.595.184;https://maps.google.com/?cid=0x0:0x3df50b03c4e1fd5;
supermarket;Toko bahan makanan;Utama Supermarket;"FG43+GGM, Nagha I, Tamako, Kabupaten Kepulauan Sangihe, Sulawesi Utara";"Kabupaten Kepulauan Sangihe, Sulawesi Utara";SULAWESI UTARA;;Indonesia;;;;34.563.488;12.550.381;https://maps.google.com/?cid=0x0:0x9b49b76a347ea52;
supermarket;Pasar;Paragon Mart;"JF6V+45X, Sawang Bendar, Kec. Tahuna, Kabupaten Kepulauan Sangihe, Sulawesi Utara";"Kabupaten Kepulauan Sangihe, Sulawesi Utara";SULAWESI UTARA;;Indonesia;;;;36.103.533;1.254.929.745;https://maps.google.com/?cid=0x0:0x54085e71379ddd32;
supermarket;Toko bahan makanan;Lulege;"JF6W+3MH, Pasar Towo'e, Soataloara I, Kec. Tahuna, Kabupaten Kepulauan Sangihe, Sulawesi Utara 95812";"Pasar Towo'e, Soataloara I, Kec. Tahuna, Kabupaten Kepulauan Sangihe";SULAWESI UTARA;95812;Indonesia;;;;36.101.853;1.254.967.281;https://maps.google.com/?cid=0x0:0x5a9793a27a767241;
supermarket;Toko Swalayan;Tk. Empat Sejati;"JF5Q+G94, Sawang Bendar, Kec. Tahuna, Kabupaten Kepulauan Sangihe, Sulawesi Utara";"Kabupaten Kepulauan Sangihe, Sulawesi Utara";SULAWESI UTARA;;Indonesia;043221056;;;36.087.658;1.254.884.648;https://maps.google.com/?cid=0x0:0x28954c81fb34da00;
supermarket;Minimarket;Waroeng Kapuhu;"JHFJ+X7X, Tariangbaru, Kec. Tabukan Tengah, Kabupaten Kepulauan Sangihe, Sulawesi Utara";"Kabupaten Kepulauan Sangihe, Sulawesi Utara";SULAWESI UTARA;;Indonesia;;;;36.249.896;1.255.807.455;https://maps.google.com/?cid=0x0:0x387b180f8cc6447d;
supermarket;Minimarket;Golden Mart;"JG54+P2M, Tona II, Kec. Tahuna Tim., Kabupaten Kepulauan Sangihe, Sulawesi Utara";"Kabupaten Kepulauan Sangihe, Sulawesi Utara";SULAWESI UTARA;;Indonesia;;;;36.093.433;1.255.050.324;https://maps.google.com/?cid=0x0:0xe6827ef578a80db6;
supermarket;Toko bahan makanan;KIOS MOUREN;"MH46+P85, Unnamed Road, Petta, Kec. Tabukan Utara, Kabupaten Kepulauan Sangihe, Sulawesi Utara";"Kabupaten Kepulauan Sangihe, Sulawesi Utara";SULAWESI UTARA;;Indonesia;;;;36.567.569;1.255.608.506;https://maps.google.com/?cid=0x0:0x8225c2cf61b01338;
supermarket;Kios;KIOS ALI;"JHW6+GF7, lindungan 3, RT.lindungan/RW.3, Petta Bar., Kec. Tabukan Utara, Kabupaten Kepulauan Sangihe, Sulawesi Utara";"Kabupaten Kepulauan Sangihe, Sulawesi Utara";SULAWESI UTARA;;Indonesia;082229134247;;;36.462.944;1.255.611.853;https://maps.google.com/?cid=0x0:0x1e8cbe904d90d3c0;
supermarket;supermarket;M-Kios;"HHFJ+J9C, Pasar, Kuma, Kec. Tabukan Tengah, Kabupaten Kepulauan Sangihe, Sulawesi Utara";"Kabupaten Kepulauan Sangihe, Sulawesi Utara";SULAWESI UTARA;;Indonesia;;;;35.740.606;1.255.808.826;https://maps.google.com/?cid=0x0:0x2d91a493a3fe539c;
supermarket;Minimarket;Megaria SwalayanTahuna;"Jl. Makaampo No.26, Sawang Bendar, Kec. Tahuna, Kabupaten Kepulauan Sangihe, Sulawesi Utara 95812";"Sawang Bendar, Kec. Tahuna, Kabupaten Kepulauan Sangihe";SULAWESI UTARA;95812;Indonesia;082349681805;;;36.093.144;125.491.729;https://maps.google.com/?cid=0x0:0x6345099cefab6c5d;
supermarket;Toko bahan makanan;Megaria Link Apengsembeka;"Jl. Raya Tatehe, Apeng Sembeka, Kec. Tahuna, Kabupaten Kepulauan Sangihe, Sulawesi Utara 95812";"Apeng Sembeka, Kec. Tahuna, Kabupaten Kepulauan Sangihe";SULAWESI UTARA;95812;Indonesia;082349681805;;;36.061.604;1.254.817.095;https://maps.google.com/?cid=0x0:0x88be3348b2bdf66a;
supermarket;supermarket;Toko Karimako;"GJ9F+935, Lesabe I, Kec. Tabukan Sel., Kabupaten Kepulauan Sangihe, Sulawesi Utara";"Kabupaten Kepulauan Sangihe, Sulawesi Utara";SULAWESI UTARA;;Indonesia;;;;35.183.937;1.256.227.397;https://maps.google.com/?cid=0x0:0xaf0355996127e644;
supermarket;supermarket;Tahuna;"Sawang Bendar, Kec. Tahuna, Kabupaten Kepulauan Sangihe, Sulawesi Utara";"Kabupaten Kepulauan Sangihe, Sulawesi Utara";SULAWESI UTARA;;Indonesia;;;;3.611.106;125.485.509;https://maps.google.com/?cid=0x0:0xac6d1c5aacbd436;
supermarket;Minimarket;Megaria SwalayanTahuna;"Jl. Makaampo No.26, Sawang Bendar, Kec. Tahuna, Kabupaten Kepulauan Sangihe, Sulawesi Utara 95812";"Sawang Bendar, Kec. Tahuna, Kabupaten Kepulauan Sangihe";SULAWESI UTARA;95812;Indonesia;082349681805;;;36.093.144;125.491.729;https://maps.google.com/?cid=0x0:0x6345099cefab6c5d;
supermarket;Pasar;Paragon Mart;"JF6V+45X, Sawang Bendar, Kec. Tahuna, Kabupaten Kepulauan Sangihe, Sulawesi Utara";"Kabupaten Kepulauan Sangihe, Sulawesi Utara";SULAWESI UTARA;;Indonesia;;;;36.103.533;1.254.929.745;https://maps.google.com/?cid=0x0:0x54085e71379ddd32;
supermarket;Toserba;Toko Merpati Tahuna;"JF6R+244, Jl. Hasanudin, Sawang Bendar, Kec. Tahuna, Kabupaten Kepulauan Sangihe, Sulawesi Utara";"Kabupaten Kepulauan Sangihe, Sulawesi Utara";SULAWESI UTARA;;Indonesia;081340043610;;;36.100.098;1.254.903.378;https://maps.google.com/?cid=0x0:0x1cc43d39207012e1;
supermarket;Minimarket;Ceria Mart Tahuna;"JF6G+57F, Bungalawang, Kec. Tahuna, Kabupaten Kepulauan Sangihe, Sulawesi Utara";"Kabupaten Kepulauan Sangihe, Sulawesi Utara";SULAWESI UTARA;;Indonesia;043224453;;;36.104.343;125.475.657;https://maps.google.com/?cid=0x0:0xc7a35bdd8112590f;
supermarket;Toko bahan makanan;PELITAMART Cab. SANTIAGO;"JF7C+4XG, Santiago, Kec. Tahuna, Kabupaten Kepulauan Sangihe, Sulawesi Utara";"Kabupaten Kepulauan Sangihe, Sulawesi Utara";SULAWESI UTARA;;Indonesia;04323350056;;;36.128.296;1.254.724.629;https://maps.google.com/?cid=0x0:0x76b83aac0d1320e4;
supermarket;Pusat Perbelanjaan;Pasar Towo'e;"JF6W+4F6, Sawang Bendar, Kec. Tahuna, Kabupaten Kepulauan Sangihe, Sulawesi Utara";"Kabupaten Kepulauan Sangihe, Sulawesi Utara";SULAWESI UTARA;;Indonesia;;;;36.102.802;1.254.961.559;https://maps.google.com/?cid=0x0:0x53a6ba46aaf563ec;
supermarket;Toko bahan makanan;Utama Supermarket;"FG43+GGM, Nagha I, Tamako, Kabupaten Kepulauan Sangihe, Sulawesi Utara";"Kabupaten Kepulauan Sangihe, Sulawesi Utara";SULAWESI UTARA;;Indonesia;;;;34.563.488;12.550.381;https://maps.google.com/?cid=0x0:0x9b49b76a347ea52;
supermarket;Minimarket;Megaria Link Santiago;"Santiago, Kota, Kec. Tahuna, Kabupaten Kepulauan Sangihe, Sulawesi Utara 95811";"Kota, Kec. Tahuna, Kabupaten Kepulauan Sangihe";SULAWESI UTARA;95811;Indonesia;082349681805;;;36.143.397;12.546.646;https://maps.google.com/?cid=0x0:0x63aa281b766d90f8;
supermarket;supermarket;Sulawesi Utara 95812;"Sawang Bendar, Kec. Tahuna, Kabupaten Kepulauan Sangihe, Sulawesi Utara";"Kabupaten Kepulauan Sangihe, Sulawesi Utara";SULAWESI UTARA;;Indonesia;;;;36.100.689;1.254.899.246;https://maps.google.com/?cid=0x0:0xb2f5cb5e87df0b38;
supermarket;Minimarket;Megaria SwalayanTahuna;"Jl. Makaampo No.26, Sawang Bendar, Kec. Tahuna, Kabupaten Kepulauan Sangihe, Sulawesi Utara 95812";"Sawang Bendar, Kec. Tahuna, Kabupaten Kepulauan Sangihe";SULAWESI UTARA;95812;Indonesia;082349681805;;;36.093.144;125.491.729;https://maps.google.com/?cid=0x0:0x6345099cefab6c5d;
supermarket;Pasar;Paragon Mart;"JF6V+45X, Sawang Bendar, Kec. Tahuna, Kabupaten Kepulauan Sangihe, Sulawesi Utara";"Kabupaten Kepulauan Sangihe, Sulawesi Utara";SULAWESI UTARA;;Indonesia;;;;36.103.533;1.254.929.745;https://maps.google.com/?cid=0x0:0x54085e71379ddd32;
supermarket;Toko bahan makanan;PELITAMART Cab. SANTIAGO;"JF7C+4XG, Santiago, Kec. Tahuna, Kabupaten Kepulauan Sangihe, Sulawesi Utara";"Kabupaten Kepulauan Sangihe, Sulawesi Utara";SULAWESI UTARA;;Indonesia;04323350056;;;36.128.296;1.254.724.629;https://maps.google.com/?cid=0x0:0x76b83aac0d1320e4;
supermarket;Toserba;Toko Merpati Tahuna;"JF6R+244, Jl. Hasanudin, Sawang Bendar, Kec. Tahuna, Kabupaten Kepulauan Sangihe, Sulawesi Utara";"Kabupaten Kepulauan Sangihe, Sulawesi Utara";SULAWESI UTARA;;Indonesia;081340043610;;;36.100.098;1.254.903.378;https://maps.google.com/?cid=0x0:0x1cc43d39207012e1;
supermarket;Toko bahan makanan;Utama Supermarket;"FG43+GGM, Nagha I, Tamako, Kabupaten Kepulauan Sangihe, Sulawesi Utara";"Kabupaten Kepulauan Sangihe, Sulawesi Utara";SULAWESI UTARA;;Indonesia;;;;34.563.488;12.550.381;https://maps.google.com/?cid=0x0:0x9b49b76a347ea52;
supermarket;Minimarket;Ceria Mart Tahuna;"JF6G+57F, Bungalawang, Kec. Tahuna, Kabupaten Kepulauan Sangihe, Sulawesi Utara";"Kabupaten Kepulauan Sangihe, Sulawesi Utara";SULAWESI UTARA;;Indonesia;043224453;;;36.104.343;125.475.657;https://maps.google.com/?cid=0x0:0xc7a35bdd8112590f;
supermarket;supermarket;Sulawesi Utara 95813;"Sawang Bendar, Kec. Tahuna, Kabupaten Kepulauan Sangihe, Sulawesi Utara";"Kabupaten Kepulauan Sangihe, Sulawesi Utara";SULAWESI UTARA;;Indonesia;;;;3.611.136;1.254.935.326;https://maps.google.com/?cid=0x0:0x6fc0fd255464dafb;
supermarket;Minimarket;Megaria SwalayanTahuna;"Jl. Makaampo No.26, Sawang Bendar, Kec. Tahuna, Kabupaten Kepulauan Sangihe, Sulawesi Utara 95812";"Sawang Bendar, Kec. Tahuna, Kabupaten Kepulauan Sangihe";SULAWESI UTARA;95812;Indonesia;082349681805;;;36.093.144;125.491.729;https://maps.google.com/?cid=0x0:0x6345099cefab6c5d;
supermarket;Pasar;Paragon Mart;"JF6V+45X, Sawang Bendar, Kec. Tahuna, Kabupaten Kepulauan Sangihe, Sulawesi Utara";"Kabupaten Kepulauan Sangihe, Sulawesi Utara";SULAWESI UTARA;;Indonesia;;;;36.103.533;1.254.929.745;https://maps.google.com/?cid=0x0:0x54085e71379ddd32;
supermarket;Toko bahan makanan;PELITAMART Cab. SANTIAGO;"JF7C+4XG, Santiago, Kec. Tahuna, Kabupaten Kepulauan Sangihe, Sulawesi Utara";"Kabupaten Kepulauan Sangihe, Sulawesi Utara";SULAWESI UTARA;;Indonesia;04323350056;;;36.128.296;1.254.724.629;https://maps.google.com/?cid=0x0:0x76b83aac0d1320e4;
supermarket;Pusat Perbelanjaan;Pasar Towo'e;"JF6W+4F6, Sawang Bendar, Kec. Tahuna, Kabupaten Kepulauan Sangihe, Sulawesi Utara";"Kabupaten Kepulauan Sangihe, Sulawesi Utara";SULAWESI UTARA;;Indonesia;;;;36.102.802;1.254.961.559;https://maps.google.com/?cid=0x0:0x53a6ba46aaf563ec;
supermarket;Toko bahan makanan;Utama Supermarket;"FG43+GGM, Nagha I, Tamako, Kabupaten Kepulauan Sangihe, Sulawesi Utara";"Kabupaten Kepulauan Sangihe, Sulawesi Utara";SULAWESI UTARA;;Indonesia;;;;34.563.488;12.550.381;https://maps.google.com/?cid=0x0:0x9b49b76a347ea52;
supermarket;Toserba;Toko Merpati Tahuna;"JF6R+244, Jl. Hasanudin, Sawang Bendar, Kec. Tahuna, Kabupaten Kepulauan Sangihe, Sulawesi Utara";"Kabupaten Kepulauan Sangihe, Sulawesi Utara";SULAWESI UTARA;;Indonesia;081340043610;;;36.100.098;1.254.903.378;https://maps.google.com/?cid=0x0:0x1cc43d39207012e1;
supermarket;Minimarket;Ceria Mart Tahuna;"JF6G+57F, Bungalawang, Kec. Tahuna, Kabupaten Kepulauan Sangihe, Sulawesi Utara";"Kabupaten Kepulauan Sangihe, Sulawesi Utara";SULAWESI UTARA;;Indonesia;043224453;;;36.104.343;125.475.657;https://maps.google.com/?cid=0x0:0xc7a35bdd8112590f;
supermarket;Otoritas Pelabuhan;Pelabuhan tua tahuna;"JF5R+FF5, Apeng Sembeka, Kec. Tahuna, Kabupaten Kepulauan Sangihe, Sulawesi Utara";"Kabupaten Kepulauan Sangihe, Sulawesi Utara";SULAWESI UTARA;;Indonesia;;;;3.608.635;125.491.224;https://maps.google.com/?cid=0x0:0x37780677d02ec8a3;
supermarket;Minimarket;Golden Mart;"JG54+P2M, Tona II, Kec. Tahuna Tim., Kabupaten Kepulauan Sangihe, Sulawesi Utara";"Kabupaten Kepulauan Sangihe, Sulawesi Utara";SULAWESI UTARA;;Indonesia;;;;36.093.433;1.255.050.324;https://maps.google.com/?cid=0x0:0xe6827ef578a80db6;
supermarket;Toko bahan makanan;Kios Ruben;"Dumuhung, Kec. Tahuna Tim., Kabupaten Kepulauan Sangihe, Sulawesi Utara";"Kabupaten Kepulauan Sangihe, Sulawesi Utara";SULAWESI UTARA;;Indonesia;085156854925;;;36.138.206;1.255.066.201;https://maps.google.com/?cid=0x0:0x2e25ec3a2be49f1b;
supermarket;Toko bahan makanan;Toko miracle;"JFCM+CFF, Sawang bentar depan gereja tiberias, Mahena, Kec. Tahuna, Kabupaten Kepulauan Sangihe, Sulawesi Utara";"Kabupaten Kepulauan Sangihe, Sulawesi Utara";SULAWESI UTARA;;Indonesia;085240782088;;;36.210.581;12.548.367;https://maps.google.com/?cid=0x0:0x1a3048c85bce7fd1;
supermarket;supermarket;Modern Mart;"JF6R+4P7, Sawang Bendar, Kec. Tahuna, Kabupaten Kepulauan Sangihe, Sulawesi Utara";"Kabupaten Kepulauan Sangihe, Sulawesi Utara";SULAWESI UTARA;;Indonesia;;;;36.102.997;1.254.917.967;https://maps.google.com/?cid=0x0:0xb10c2a979cb0f2c7;
supermarket;supermarket;Kec. Tahuna Bar.;"Kabupaten Kepulauan Sangihe, Sulawesi Utara";"Kabupaten Kepulauan Sangihe, Sulawesi Utara";SULAWESI UTARA;;Indonesia;;;;36.391.395;1.254.232.867;https://maps.google.com/?cid=0x0:0x172c70b55a90c8a3;
supermarket;Toko bahan makanan;Tahuna Swalayan;"JF77+RGW, Sawang Bendar, Kec. Tahuna, Kabupaten Kepulauan Sangihe, Sulawesi Utara";"Kabupaten Kepulauan Sangihe, Sulawesi Utara";SULAWESI UTARA;;Indonesia;085256164510;;;36.146.049;125.463.821;https://maps.google.com/?cid=0x0:0x149cfe296c7ebd7;
supermarket;Minimarket;Megaria SwalayanTahuna;"Jl. Makaampo No.26, Sawang Bendar, Kec. Tahuna, Kabupaten Kepulauan Sangihe, Sulawesi Utara 95812";"Sawang Bendar, Kec. Tahuna, Kabupaten Kepulauan Sangihe";SULAWESI UTARA;95812;Indonesia;082349681805;;;36.093.144;125.491.729;https://maps.google.com/?cid=0x0:0x6345099cefab6c5d;
supermarket;Minimarket;Megaria Link Santiago;"Santiago, Kota, Kec. Tahuna, Kabupaten Kepulauan Sangihe, Sulawesi Utara 95811";"Kota, Kec. Tahuna, Kabupaten Kepulauan Sangihe";SULAWESI UTARA;95811;Indonesia;082349681805;;;36.143.397;12.546.646;https://maps.google.com/?cid=0x0:0x63aa281b766d90f8;
supermarket;Toko bahan makanan;PELITAMART Cab. SANTIAGO;"JF7C+4XG, Santiago, Kec. Tahuna, Kabupaten Kepulauan Sangihe, Sulawesi Utara";"Kabupaten Kepulauan Sangihe, Sulawesi Utara";SULAWESI UTARA;;Indonesia;04323350056;;;36.128.296;1.254.724.629;https://maps.google.com/?cid=0x0:0x76b83aac0d1320e4;
supermarket;Pasar;Paragon Mart;"JF6V+45X, Sawang Bendar, Kec. Tahuna, Kabupaten Kepulauan Sangihe, Sulawesi Utara";"Kabupaten Kepulauan Sangihe, Sulawesi Utara";SULAWESI UTARA;;Indonesia;;;;36.103.533;1.254.929.745;https://maps.google.com/?cid=0x0:0x54085e71379ddd32;
supermarket;Toserba;Toko Merpati Tahuna;"JF6R+244, Jl. Hasanudin, Sawang Bendar, Kec. Tahuna, Kabupaten Kepulauan Sangihe, Sulawesi Utara";"Kabupaten Kepulauan Sangihe, Sulawesi Utara";SULAWESI UTARA;;Indonesia;081340043610;;;36.100.098;1.254.903.378;https://maps.google.com/?cid=0x0:0x1cc43d39207012e1;
supermarket;Pusat Perbelanjaan;Pasar Towo'e;"JF6W+4F6, Sawang Bendar, Kec. Tahuna, Kabupaten Kepulauan Sangihe, Sulawesi Utara";"Kabupaten Kepulauan Sangihe, Sulawesi Utara";SULAWESI UTARA;;Indonesia;;;;36.102.802;1.254.961.559;https://maps.google.com/?cid=0x0:0x53a6ba46aaf563ec;
supermarket;Toko Swalayan;Tk. Empat Sejati;"JF5Q+G94, Sawang Bendar, Kec. Tahuna, Kabupaten Kepulauan Sangihe, Sulawesi Utara";"Kabupaten Kepulauan Sangihe, Sulawesi Utara";SULAWESI UTARA;;Indonesia;043221056;;;36.087.658;1.254.884.648;https://maps.google.com/?cid=0x0:0x28954c81fb34da00;
supermarket;Toko bahan makanan;Utama Supermarket;"FG43+GGM, Nagha I, Tamako, Kabupaten Kepulauan Sangihe, Sulawesi Utara";"Kabupaten Kepulauan Sangihe, Sulawesi Utara";SULAWESI UTARA;;Indonesia;;;;34.563.488;12.550.381;https://maps.google.com/?cid=0x0:0x9b49b76a347ea52;
supermarket;Minimarket;Golden Mart;"JG54+P2M, Tona II, Kec. Tahuna Tim., Kabupaten Kepulauan Sangihe, Sulawesi Utara";"Kabupaten Kepulauan Sangihe, Sulawesi Utara";SULAWESI UTARA;;Indonesia;;;;36.093.433;1.255.050.324;https://maps.google.com/?cid=0x0:0xe6827ef578a80db6;
supermarket;Otoritas Pelabuhan;Pelabuhan tua tahuna;"JF5R+FF5, Apeng Sembeka, Kec. Tahuna, Kabupaten Kepulauan Sangihe, Sulawesi Utara";"Kabupaten Kepulauan Sangihe, Sulawesi Utara";SULAWESI UTARA;;Indonesia;;;;3.608.635;125.491.224;https://maps.google.com/?cid=0x0:0x37780677d02ec8a3;
supermarket;Toko bahan makanan;Toko miracle;"JFCM+CFF, Sawang bentar depan gereja tiberias, Mahena, Kec. Tahuna, Kabupaten Kepulauan Sangihe, Sulawesi Utara";"Kabupaten Kepulauan Sangihe, Sulawesi Utara";SULAWESI UTARA;;Indonesia;085240782088;;;36.210.581;12.548.367;https://maps.google.com/?cid=0x0:0x1a3048c85bce7fd1;
supermarket;Toko bahan makanan;STAR MART;"JF7F+2GJ, Santiago, Kec. Tahuna, Kabupaten Kepulauan Sangihe, Sulawesi Utara";"Kabupaten Kepulauan Sangihe, Sulawesi Utara";SULAWESI UTARA;;Indonesia;085341776070;;;36.125.839;1.254.737.583;https://maps.google.com/?cid=0x0:0xb60fc294ef2ba6ee;
supermarket;Toko;Kios Ibu Eva;"JCHM+VWC, Kolongan Mitung, Kec. Tahuna Bar., Kabupaten Kepulauan Sangihe, Sulawesi Utara";"Kabupaten Kepulauan Sangihe, Sulawesi Utara";SULAWESI UTARA;;Indonesia;082261802382;;;36.296.852;1.254.347.631;https://maps.google.com/?cid=0x0:0xdd8791980fc1c13e;
supermarket;Toko Swalayan;Toko Maju;"JF5Q+FFH, Sawang Bendar, Kec. Tahuna, Kabupaten Kepulauan Sangihe, Sulawesi Utara";"Kabupaten Kepulauan Sangihe, Sulawesi Utara";SULAWESI UTARA;;Indonesia;043221400;;;36.086.805;1.254.887.458;https://maps.google.com/?cid=0x0:0xca7543668f766734;
supermarket;Pusat Perbelanjaan;Kios Manente Jaya (KO LENG);"JF8C+59C, Santiago, Kec. Tahuna, Kabupaten Kepulauan Sangihe, Sulawesi Utara";"Kabupaten Kepulauan Sangihe, Sulawesi Utara";SULAWESI UTARA;;Indonesia;081344970321;;;36.154.279;1.254.708.932;https://maps.google.com/?cid=0x0:0x125fa64d7c2aaebc;
supermarket;Kios;Kios Revalina;"JF6P+QRW, Sawang Bendar, Kec. Tahuna, Kabupaten Kepulauan Sangihe, Sulawesi Utara";"Kabupaten Kepulauan Sangihe, Sulawesi Utara";SULAWESI UTARA;;Indonesia;;;;36.119.818;1.254.870.932;https://maps.google.com/?cid=0x0:0x9b430678a410153;
supermarket;supermarket;Kec. Tahuna Bar.;"Kabupaten Kepulauan Sangihe, Sulawesi Utara";"Kabupaten Kepulauan Sangihe, Sulawesi Utara";SULAWESI UTARA;;Indonesia;;;;36.391.395;1.254.232.867;https://maps.google.com/?cid=0x0:0x172c70b55a90c8a3;
supermarket;Toko bahan makanan;Tahuna Swalayan;"JF77+RGW, Sawang Bendar, Kec. Tahuna, Kabupaten Kepulauan Sangihe, Sulawesi Utara";"Kabupaten Kepulauan Sangihe, Sulawesi Utara";SULAWESI UTARA;;Indonesia;085256164510;;;36.146.049;125.463.821;https://maps.google.com/?cid=0x0:0x149cfe296c7ebd7;
supermarket;Minimarket;Megaria SwalayanTahuna;"Jl. Makaampo No.26, Sawang Bendar, Kec. Tahuna, Kabupaten Kepulauan Sangihe, Sulawesi Utara 95812";"Sawang Bendar, Kec. Tahuna, Kabupaten Kepulauan Sangihe";SULAWESI UTARA;95812;Indonesia;082349681805;;;36.093.144;125.491.729;https://maps.google.com/?cid=0x0:0x6345099cefab6c5d;
supermarket;Minimarket;Ceria Mart Tahuna;"JF6G+57F, Bungalawang, Kec. Tahuna, Kabupaten Kepulauan Sangihe, Sulawesi Utara";"Kabupaten Kepulauan Sangihe, Sulawesi Utara";SULAWESI UTARA;;Indonesia;043224453;;;36.104.343;125.475.657;https://maps.google.com/?cid=0x0:0xc7a35bdd8112590f;
supermarket;Pasar;Paragon Mart;"JF6V+45X, Sawang Bendar, Kec. Tahuna, Kabupaten Kepulauan Sangihe, Sulawesi Utara";"Kabupaten Kepulauan Sangihe, Sulawesi Utara";SULAWESI UTARA;;Indonesia;;;;36.103.533;1.254.929.745;https://maps.google.com/?cid=0x0:0x54085e71379ddd32;
supermarket;Toserba;Toko Merpati Tahuna;"JF6R+244, Jl. Hasanudin, Sawang Bendar, Kec. Tahuna, Kabupaten Kepulauan Sangihe, Sulawesi Utara";"Kabupaten Kepulauan Sangihe, Sulawesi Utara";SULAWESI UTARA;;Indonesia;081340043610;;;36.100.098;1.254.903.378;https://maps.google.com/?cid=0x0:0x1cc43d39207012e1;
supermarket;Toko Swalayan;Tk. Empat Sejati;"JF5Q+G94, Sawang Bendar, Kec. Tahuna, Kabupaten Kepulauan Sangihe, Sulawesi Utara";"Kabupaten Kepulauan Sangihe, Sulawesi Utara";SULAWESI UTARA;;Indonesia;043221056;;;36.087.658;1.254.884.648;https://maps.google.com/?cid=0x0:0x28954c81fb34da00;
supermarket;Toko bahan makanan;Utama Supermarket;"FG43+GGM, Nagha I, Tamako, Kabupaten Kepulauan Sangihe, Sulawesi Utara";"Kabupaten Kepulauan Sangihe, Sulawesi Utara";SULAWESI UTARA;;Indonesia;;;;34.563.488;12.550.381;https://maps.google.com/?cid=0x0:0x9b49b76a347ea52;
supermarket;Minimarket;Megaria Link Santiago;"Santiago, Kota, Kec. Tahuna, Kabupaten Kepulauan Sangihe, Sulawesi Utara 95811";"Kota, Kec. Tahuna, Kabupaten Kepulauan Sangihe";SULAWESI UTARA;95811;Indonesia;082349681805;;;36.143.397;12.546.646;https://maps.google.com/?cid=0x0:0x63aa281b766d90f8;
supermarket;Pusat Perbelanjaan;Pasar Towo'e;"JF6W+4F6, Sawang Bendar, Kec. Tahuna, Kabupaten Kepulauan Sangihe, Sulawesi Utara";"Kabupaten Kepulauan Sangihe, Sulawesi Utara";SULAWESI UTARA;;Indonesia;;;;36.102.802;1.254.961.559;https://maps.google.com/?cid=0x0:0x53a6ba46aaf563ec;
supermarket;Toko bahan makanan;Toko miracle;"JFCM+CFF, Sawang bentar depan gereja tiberias, Mahena, Kec. Tahuna, Kabupaten Kepulauan Sangihe, Sulawesi Utara";"Kabupaten Kepulauan Sangihe, Sulawesi Utara";SULAWESI UTARA;;Indonesia;085240782088;;;36.210.581;12.548.367;https://maps.google.com/?cid=0x0:0x1a3048c85bce7fd1;
supermarket;Pusat Rekreasi;Tahuna Waterpark  Sport Center;"Santiago, Kec. Tahuna, Kabupaten Kepulauan Sangihe, Sulawesi Utara";"Kabupaten Kepulauan Sangihe, Sulawesi Utara";SULAWESI UTARA;;Indonesia;;;;36.150.692;1.254.628.835;https://maps.google.com/?cid=0x0:0x3faa16a224f374e9;
supermarket;Minimarket;Golden Mart;"JG54+P2M, Tona II, Kec. Tahuna Tim., Kabupaten Kepulauan Sangihe, Sulawesi Utara";"Kabupaten Kepulauan Sangihe, Sulawesi Utara";SULAWESI UTARA;;Indonesia;;;;36.093.433;1.255.050.324;https://maps.google.com/?cid=0x0:0xe6827ef578a80db6;
supermarket;Pusat Perbelanjaan;KOPITIAM TAHUNA;"JF77+G7F, Santiago, Kec. Tahuna, Kabupaten Kepulauan Sangihe, Sulawesi Utara";"Kabupaten Kepulauan Sangihe, Sulawesi Utara";SULAWESI UTARA;;Indonesia;082128320960;;;36.138.134;1.254.631.658;https://maps.google.com/?cid=0x0:0x63511b8bfb71e704;
supermarket;Toko bahan makanan;STAR MART;"JF7F+2GJ, Santiago, Kec. Tahuna, Kabupaten Kepulauan Sangihe, Sulawesi Utara";"Kabupaten Kepulauan Sangihe, Sulawesi Utara";SULAWESI UTARA;;Indonesia;085341776070;;;36.125.839;1.254.737.583;https://maps.google.com/?cid=0x0:0xb60fc294ef2ba6ee;
supermarket;Toko Swalayan;Toko Maju;"JF5Q+FFH, Sawang Bendar, Kec. Tahuna, Kabupaten Kepulauan Sangihe, Sulawesi Utara";"Kabupaten Kepulauan Sangihe, Sulawesi Utara";SULAWESI UTARA;;Indonesia;043221400;;;36.086.805;1.254.887.458;https://maps.google.com/?cid=0x0:0xca7543668f766734;
supermarket;Toko;Kios Ibu Eva;"JCHM+VWC, Kolongan Mitung, Kec. Tahuna Bar., Kabupaten Kepulauan Sangihe, Sulawesi Utara";"Kabupaten Kepulauan Sangihe, Sulawesi Utara";SULAWESI UTARA;;Indonesia;082261802382;;;36.296.852;1.254.347.631;https://maps.google.com/?cid=0x0:0xdd8791980fc1c13e;
supermarket;Pusat Perbelanjaan;Kios Manente Jaya (KO LENG);"JF8C+59C, Santiago, Kec. Tahuna, Kabupaten Kepulauan Sangihe, Sulawesi Utara";"Kabupaten Kepulauan Sangihe, Sulawesi Utara";SULAWESI UTARA;;Indonesia;081344970321;;;36.154.279;1.254.708.932;https://maps.google.com/?cid=0x0:0x125fa64d7c2aaebc;
supermarket;Kios;Kios Revalina;"JF6P+QRW, Sawang Bendar, Kec. Tahuna, Kabupaten Kepulauan Sangihe, Sulawesi Utara";"Kabupaten Kepulauan Sangihe, Sulawesi Utara";SULAWESI UTARA;;Indonesia;;;;36.119.818;1.254.870.932;https://maps.google.com/?cid=0x0:0x9b430678a410153;
supermarket;supermarket;Kec. Tahuna Bar.;"Kabupaten Kepulauan Sangihe, Sulawesi Utara";"Kabupaten Kepulauan Sangihe, Sulawesi Utara";SULAWESI UTARA;;Indonesia;;;;36.391.395;1.254.232.867;https://maps.google.com/?cid=0x0:0x172c70b55a90c8a3;
supermarket;Toko bahan makanan;Tahuna Swalayan;"JF77+RGW, Sawang Bendar, Kec. Tahuna, Kabupaten Kepulauan Sangihe, Sulawesi Utara";"Kabupaten Kepulauan Sangihe, Sulawesi Utara";SULAWESI UTARA;;Indonesia;085256164510;;;36.146.049;125.463.821;https://maps.google.com/?cid=0x0:0x149cfe296c7ebd7;
supermarket;Minimarket;Megaria SwalayanTahuna;"Jl. Makaampo No.26, Sawang Bendar, Kec. Tahuna, Kabupaten Kepulauan Sangihe, Sulawesi Utara 95812";"Sawang Bendar, Kec. Tahuna, Kabupaten Kepulauan Sangihe";SULAWESI UTARA;95812;Indonesia;082349681805;;;36.093.144;125.491.729;https://maps.google.com/?cid=0x0:0x6345099cefab6c5d;
supermarket;Pasar;Paragon Mart;"JF6V+45X, Sawang Bendar, Kec. Tahuna, Kabupaten Kepulauan Sangihe, Sulawesi Utara";"Kabupaten Kepulauan Sangihe, Sulawesi Utara";SULAWESI UTARA;;Indonesia;;;;36.103.533;1.254.929.745;https://maps.google.com/?cid=0x0:0x54085e71379ddd32;
supermarket;Minimarket;Ceria Mart Tahuna;"JF6G+57F, Bungalawang, Kec. Tahuna, Kabupaten Kepulauan Sangihe, Sulawesi Utara";"Kabupaten Kepulauan Sangihe, Sulawesi Utara";SULAWESI UTARA;;Indonesia;043224453;;;36.104.343;125.475.657;https://maps.google.com/?cid=0x0:0xc7a35bdd8112590f;
supermarket;Toko Swalayan;Tk. Empat Sejati;"JF5Q+G94, Sawang Bendar, Kec. Tahuna, Kabupaten Kepulauan Sangihe, Sulawesi Utara";"Kabupaten Kepulauan Sangihe, Sulawesi Utara";SULAWESI UTARA;;Indonesia;043221056;;;36.087.658;1.254.884.648;https://maps.google.com/?cid=0x0:0x28954c81fb34da00;
supermarket;Toserba;Toko Merpati Tahuna;"JF6R+244, Jl. Hasanudin, Sawang Bendar, Kec. Tahuna, Kabupaten Kepulauan Sangihe, Sulawesi Utara";"Kabupaten Kepulauan Sangihe, Sulawesi Utara";SULAWESI UTARA;;Indonesia;081340043610;;;36.100.098;1.254.903.378;https://maps.google.com/?cid=0x0:0x1cc43d39207012e1;
supermarket;Toko bahan makanan;Utama Supermarket;"FG43+GGM, Nagha I, Tamako, Kabupaten Kepulauan Sangihe, Sulawesi Utara";"Kabupaten Kepulauan Sangihe, Sulawesi Utara";SULAWESI UTARA;;Indonesia;;;;34.563.488;12.550.381;https://maps.google.com/?cid=0x0:0x9b49b76a347ea52;
supermarket;Minimarket;Megaria Link Santiago;"Santiago, Kota, Kec. Tahuna, Kabupaten Kepulauan Sangihe, Sulawesi Utara 95811";"Kota, Kec. Tahuna, Kabupaten Kepulauan Sangihe";SULAWESI UTARA;95811;Indonesia;082349681805;;;36.143.397;12.546.646;https://maps.google.com/?cid=0x0:0x63aa281b766d90f8;
supermarket;Toko bahan makanan;Toko miracle;"JFCM+CFF, Sawang bentar depan gereja tiberias, Mahena, Kec. Tahuna, Kabupaten Kepulauan Sangihe, Sulawesi Utara";"Kabupaten Kepulauan Sangihe, Sulawesi Utara";SULAWESI UTARA;;Indonesia;085240782088;;;36.210.581;12.548.367;https://maps.google.com/?cid=0x0:0x1a3048c85bce7fd1;
supermarket;Minimarket;Golden Mart;"JG54+P2M, Tona II, Kec. Tahuna Tim., Kabupaten Kepulauan Sangihe, Sulawesi Utara";"Kabupaten Kepulauan Sangihe, Sulawesi Utara";SULAWESI UTARA;;Indonesia;;;;36.093.433;1.255.050.324;https://maps.google.com/?cid=0x0:0xe6827ef578a80db6;
supermarket;Toko bahan makanan;Lulege;"JF6W+3MH, Pasar Towo'e, Soataloara I, Kec. Tahuna, Kabupaten Kepulauan Sangihe, Sulawesi Utara 95812";"Pasar Towo'e, Soataloara I, Kec. Tahuna, Kabupaten Kepulauan Sangihe";SULAWESI UTARA;95812;Indonesia;;;;36.101.853;1.254.967.281;https://maps.google.com/?cid=0x0:0x5a9793a27a767241;
supermarket;Otoritas Pelabuhan;Pelabuhan tua tahuna;"JF5R+FF5, Apeng Sembeka, Kec. Tahuna, Kabupaten Kepulauan Sangihe, Sulawesi Utara";"Kabupaten Kepulauan Sangihe, Sulawesi Utara";SULAWESI UTARA;;Indonesia;;;;3.608.635;125.491.224;https://maps.google.com/?cid=0x0:0x37780677d02ec8a3;
supermarket;Toko bahan makanan;STAR MART;"JF7F+2GJ, Santiago, Kec. Tahuna, Kabupaten Kepulauan Sangihe, Sulawesi Utara";"Kabupaten Kepulauan Sangihe, Sulawesi Utara";SULAWESI UTARA;;Indonesia;085341776070;;;36.125.839;1.254.737.583;https://maps.google.com/?cid=0x0:0xb60fc294ef2ba6ee;
supermarket;Toko;Kios Ibu Eva;"JCHM+VWC, Kolongan Mitung, Kec. Tahuna Bar., Kabupaten Kepulauan Sangihe, Sulawesi Utara";"Kabupaten Kepulauan Sangihe, Sulawesi Utara";SULAWESI UTARA;;Indonesia;082261802382;;;36.296.852;1.254.347.631;https://maps.google.com/?cid=0x0:0xdd8791980fc1c13e;
supermarket;Toko Swalayan;Toko Maju;"JF5Q+FFH, Sawang Bendar, Kec. Tahuna, Kabupaten Kepulauan Sangihe, Sulawesi Utara";"Kabupaten Kepulauan Sangihe, Sulawesi Utara";SULAWESI UTARA;;Indonesia;043221400;;;36.086.805;1.254.887.458;https://maps.google.com/?cid=0x0:0xca7543668f766734;
supermarket;Pusat Perbelanjaan;Kios Manente Jaya (KO LENG);"JF8C+59C, Santiago, Kec. Tahuna, Kabupaten Kepulauan Sangihe, Sulawesi Utara";"Kabupaten Kepulauan Sangihe, Sulawesi Utara";SULAWESI UTARA;;Indonesia;081344970321;;;36.154.279;1.254.708.932;https://maps.google.com/?cid=0x0:0x125fa64d7c2aaebc;
supermarket;Kios;Kios Revalina;"JF6P+QRW, Sawang Bendar, Kec. Tahuna, Kabupaten Kepulauan Sangihe, Sulawesi Utara";"Kabupaten Kepulauan Sangihe, Sulawesi Utara";SULAWESI UTARA;;Indonesia;;;;36.119.818;1.254.870.932;https://maps.google.com/?cid=0x0:0x9b430678a410153;
supermarket;supermarket;Kec. Tahuna Bar.;"Kabupaten Kepulauan Sangihe, Sulawesi Utara";"Kabupaten Kepulauan Sangihe, Sulawesi Utara";SULAWESI UTARA;;Indonesia;;;;36.391.395;1.254.232.867;https://maps.google.com/?cid=0x0:0x172c70b55a90c8a3;
supermarket;Toko bahan makanan;Tahuna Swalayan;"JF77+RGW, Sawang Bendar, Kec. Tahuna, Kabupaten Kepulauan Sangihe, Sulawesi Utara";"Kabupaten Kepulauan Sangihe, Sulawesi Utara";SULAWESI UTARA;;Indonesia;085256164510;;;36.146.049;125.463.821;https://maps.google.com/?cid=0x0:0x149cfe296c7ebd7;
supermarket;Minimarket;Megaria SwalayanTahuna;"Jl. Makaampo No.26, Sawang Bendar, Kec. Tahuna, Kabupaten Kepulauan Sangihe, Sulawesi Utara 95812";"Sawang Bendar, Kec. Tahuna, Kabupaten Kepulauan Sangihe";SULAWESI UTARA;95812;Indonesia;082349681805;;;36.093.144;125.491.729;https://maps.google.com/?cid=0x0:0x6345099cefab6c5d;
supermarket;Toko bahan makanan;PELITAMART Cab. SANTIAGO;"JF7C+4XG, Santiago, Kec. Tahuna, Kabupaten Kepulauan Sangihe, Sulawesi Utara";"Kabupaten Kepulauan Sangihe, Sulawesi Utara";SULAWESI UTARA;;Indonesia;04323350056;;;36.128.296;1.254.724.629;https://maps.google.com/?cid=0x0:0x76b83aac0d1320e4;
supermarket;Minimarket;Megaria Link Santiago;"Santiago, Kota, Kec. Tahuna, Kabupaten Kepulauan Sangihe, Sulawesi Utara 95811";"Kota, Kec. Tahuna, Kabupaten Kepulauan Sangihe";SULAWESI UTARA;95811;Indonesia;082349681805;;;36.143.397;12.546.646;https://maps.google.com/?cid=0x0:0x63aa281b766d90f8;
supermarket;Pasar;Paragon Mart;"JF6V+45X, Sawang Bendar, Kec. Tahuna, Kabupaten Kepulauan Sangihe, Sulawesi Utara";"Kabupaten Kepulauan Sangihe, Sulawesi Utara";SULAWESI UTARA;;Indonesia;;;;36.103.533;1.254.929.745;https://maps.google.com/?cid=0x0:0x54085e71379ddd32;
supermarket;Toserba;Toko Merpati Tahuna;"JF6R+244, Jl. Hasanudin, Sawang Bendar, Kec. Tahuna, Kabupaten Kepulauan Sangihe, Sulawesi Utara";"Kabupaten Kepulauan Sangihe, Sulawesi Utara";SULAWESI UTARA;;Indonesia;081340043610;;;36.100.098;1.254.903.378;https://maps.google.com/?cid=0x0:0x1cc43d39207012e1;
supermarket;Toko Swalayan;Tk. Empat Sejati;"JF5Q+G94, Sawang Bendar, Kec. Tahuna, Kabupaten Kepulauan Sangihe, Sulawesi Utara";"Kabupaten Kepulauan Sangihe, Sulawesi Utara";SULAWESI UTARA;;Indonesia;043221056;;;36.087.658;1.254.884.648;https://maps.google.com/?cid=0x0:0x28954c81fb34da00;
supermarket;Toko bahan makanan;Utama Supermarket;"FG43+GGM, Nagha I, Tamako, Kabupaten Kepulauan Sangihe, Sulawesi Utara";"Kabupaten Kepulauan Sangihe, Sulawesi Utara";SULAWESI UTARA;;Indonesia;;;;34.563.488;12.550.381;https://maps.google.com/?cid=0x0:0x9b49b76a347ea52;
supermarket;Toko bahan makanan;Toko miracle;"JFCM+CFF, Sawang bentar depan gereja tiberias, Mahena, Kec. Tahuna, Kabupaten Kepulauan Sangihe, Sulawesi Utara";"Kabupaten Kepulauan Sangihe, Sulawesi Utara";SULAWESI UTARA;;Indonesia;085240782088;;;36.210.581;12.548.367;https://maps.google.com/?cid=0x0:0x1a3048c85bce7fd1;
supermarket;Otoritas Pelabuhan;Pelabuhan tua tahuna;"JF5R+FF5, Apeng Sembeka, Kec. Tahuna, Kabupaten Kepulauan Sangihe, Sulawesi Utara";"Kabupaten Kepulauan Sangihe, Sulawesi Utara";SULAWESI UTARA;;Indonesia;;;;3.608.635;125.491.224;https://maps.google.com/?cid=0x0:0x37780677d02ec8a3;
supermarket;Toko bahan makanan;STAR MART;"JF7F+2GJ, Santiago, Kec. Tahuna, Kabupaten Kepulauan Sangihe, Sulawesi Utara";"Kabupaten Kepulauan Sangihe, Sulawesi Utara";SULAWESI UTARA;;Indonesia;085341776070;;;36.125.839;1.254.737.583;https://maps.google.com/?cid=0x0:0xb60fc294ef2ba6ee;
supermarket;Toko;Kios Ibu Eva;"JCHM+VWC, Kolongan Mitung, Kec. Tahuna Bar., Kabupaten Kepulauan Sangihe, Sulawesi Utara";"Kabupaten Kepulauan Sangihe, Sulawesi Utara";SULAWESI UTARA;;Indonesia;082261802382;;;36.296.852;1.254.347.631;https://maps.google.com/?cid=0x0:0xdd8791980fc1c13e;
supermarket;Toko Swalayan;Toko Maju;"JF5Q+FFH, Sawang Bendar, Kec. Tahuna, Kabupaten Kepulauan Sangihe, Sulawesi Utara";"Kabupaten Kepulauan Sangihe, Sulawesi Utara";SULAWESI UTARA;;Indonesia;043221400;;;36.086.805;1.254.887.458;https://maps.google.com/?cid=0x0:0xca7543668f766734;
supermarket;Pusat Perbelanjaan;Kios Manente Jaya (KO LENG);"JF8C+59C, Santiago, Kec. Tahuna, Kabupaten Kepulauan Sangihe, Sulawesi Utara";"Kabupaten Kepulauan Sangihe, Sulawesi Utara";SULAWESI UTARA;;Indonesia;081344970321;;;36.154.279;1.254.708.932;https://maps.google.com/?cid=0x0:0x125fa64d7c2aaebc;
supermarket;Kios;Kios Revalina;"JF6P+QRW, Sawang Bendar, Kec. Tahuna, Kabupaten Kepulauan Sangihe, Sulawesi Utara";"Kabupaten Kepulauan Sangihe, Sulawesi Utara";SULAWESI UTARA;;Indonesia;;;;36.119.818;1.254.870.932;https://maps.google.com/?cid=0x0:0x9b430678a410153;
supermarket;supermarket;Sulawesi Utara 95812;"Sawang Bendar, Kec. Tahuna, Kabupaten Kepulauan Sangihe, Sulawesi Utara";"Kabupaten Kepulauan Sangihe, Sulawesi Utara";SULAWESI UTARA;;Indonesia;;;;36.100.689;1.254.899.246;https://maps.google.com/?cid=0x0:0xb2f5cb5e87df0b38;
supermarket;Minimarket;Megaria SwalayanTahuna;"Jl. Makaampo No.26, Sawang Bendar, Kec. Tahuna, Kabupaten Kepulauan Sangihe, Sulawesi Utara 95812";"Sawang Bendar, Kec. Tahuna, Kabupaten Kepulauan Sangihe";SULAWESI UTARA;95812;Indonesia;082349681805;;;36.093.144;125.491.729;https://maps.google.com/?cid=0x0:0x6345099cefab6c5d;
supermarket;Pasar;Paragon Mart;"JF6V+45X, Sawang Bendar, Kec. Tahuna, Kabupaten Kepulauan Sangihe, Sulawesi Utara";"Kabupaten Kepulauan Sangihe, Sulawesi Utara";SULAWESI UTARA;;Indonesia;;;;36.103.533;1.254.929.745;https://maps.google.com/?cid=0x0:0x54085e71379ddd32;
supermarket;Toko bahan makanan;Tahuna Swalayan;"JF77+RGW, Sawang Bendar, Kec. Tahuna, Kabupaten Kepulauan Sangihe, Sulawesi Utara";"Kabupaten Kepulauan Sangihe, Sulawesi Utara";SULAWESI UTARA;;Indonesia;085256164510;;;36.146.049;125.463.821;https://maps.google.com/?cid=0x0:0x149cfe296c7ebd7;
supermarket;supermarket;Kec. Tahuna Tim.;"Kabupaten Kepulauan Sangihe, Sulawesi Utara";"Kabupaten Kepulauan Sangihe, Sulawesi Utara";SULAWESI UTARA;;Indonesia;;;;36.107.787;1.255.084.379;https://maps.google.com/?cid=0x0:0x12910a813072e8b9;
supermarket;Minimarket;Golden Mart;"JG54+P2M, Tona II, Kec. Tahuna Tim., Kabupaten Kepulauan Sangihe, Sulawesi Utara";"Kabupaten Kepulauan Sangihe, Sulawesi Utara";SULAWESI UTARA;;Indonesia;;;;36.093.433;1.255.050.324;https://maps.google.com/?cid=0x0:0xe6827ef578a80db6;
supermarket;Toko;Toko Berkat Indah;"Jl. Tidore No.Rt. 3, Tidore, Kec. Tahuna Tim., Kabupaten Kepulauan Sangihe, Sulawesi Utara";"Kabupaten Kepulauan Sangihe, Sulawesi Utara";SULAWESI UTARA;;Indonesia;;;;36.040.963;1.255.049.261;https://maps.google.com/?cid=0x0:0x1944045dc5874fbc;
supermarket;Toko bahan makanan;Lulege;"JF6W+3MH, Pasar Towo'e, Soataloara I, Kec. Tahuna, Kabupaten Kepulauan Sangihe, Sulawesi Utara 95812";"Pasar Towo'e, Soataloara I, Kec. Tahuna, Kabupaten Kepulauan Sangihe";SULAWESI UTARA;95812;Indonesia;;;;36.101.853;1.254.967.281;https://maps.google.com/?cid=0x0:0x5a9793a27a767241;
supermarket;Pusat Perbelanjaan;Toko Idola Tidore;"JG43+5XJ, Tidore, Kec. Tahuna Tim., Kabupaten Kepulauan Sangihe, Sulawesi Utara";"Kabupaten Kepulauan Sangihe, Sulawesi Utara";SULAWESI UTARA;;Indonesia;;;;36.054.692;1.255.048.983;https://maps.google.com/?cid=0x0:0xdc52027df7da88de;
supermarket;Toko bahan makanan;Kios Ruben;"Dumuhung, Kec. Tahuna Tim., Kabupaten Kepulauan Sangihe, Sulawesi Utara";"Kabupaten Kepulauan Sangihe, Sulawesi Utara";SULAWESI UTARA;;Indonesia;085156854925;;;36.138.206;1.255.066.201;https://maps.google.com/?cid=0x0:0x2e25ec3a2be49f1b;
supermarket;Minimarket;Ceria Mart Tahuna;"JF6G+57F, Bungalawang, Kec. Tahuna, Kabupaten Kepulauan Sangihe, Sulawesi Utara";"Kabupaten Kepulauan Sangihe, Sulawesi Utara";SULAWESI UTARA;;Indonesia;043224453;;;36.104.343;125.475.657;https://maps.google.com/?cid=0x0:0xc7a35bdd8112590f;
supermarket;Kios;Kios 24;"JG33+3P7, Tidore, atas, Kabupaten Kepulauan Sangihe, Sulawesi Utara 95413";"Tidore, atas, Kabupaten Kepulauan Sangihe";SULAWESI UTARA;95413;Indonesia;085256781695;;;36.026.718;1.255.042.864;https://maps.google.com/?cid=0x0:0xeb04eee0a698b69;
supermarket;Toko bahan makanan;LENTERA MART;"JG65+5G6, Tona II, Kec. Tahuna Tim., Kabupaten Kepulauan Sangihe, Sulawesi Utara";"Kabupaten Kepulauan Sangihe, Sulawesi Utara";SULAWESI UTARA;;Indonesia;;;;36.104.385;1.255.087.603;https://maps.google.com/?cid=0x0:0xc509230790d36b38;
supermarket;Minimarket;Toko Pelangi;"JG36+78W, Tona I, Kec. Tahuna Tim., Kabupaten Kepulauan Sangihe, Sulawesi Utara";"Kabupaten Kepulauan Sangihe, Sulawesi Utara";SULAWESI UTARA;;Indonesia;082195656311;;;36.032.335;1.255.108.266;https://maps.google.com/?cid=0x0:0xfacd7c91cdc550fd;
supermarket;Toko Swalayan;Tk. Empat Sejati;"JF5Q+G94, Sawang Bendar, Kec. Tahuna, Kabupaten Kepulauan Sangihe, Sulawesi Utara";"Kabupaten Kepulauan Sangihe, Sulawesi Utara";SULAWESI UTARA;;Indonesia;043221056;;;36.087.658;1.254.884.648;https://maps.google.com/?cid=0x0:0x28954c81fb34da00;
supermarket;Toko bahan makanan;STAR MART;"JF7F+2GJ, Santiago, Kec. Tahuna, Kabupaten Kepulauan Sangihe, Sulawesi Utara";"Kabupaten Kepulauan Sangihe, Sulawesi Utara";SULAWESI UTARA;;Indonesia;085341776070;;;36.125.839;1.254.737.583;https://maps.google.com/?cid=0x0:0xb60fc294ef2ba6ee;
supermarket;Toko bahan makanan;PELITAMART Cab. SANTIAGO;"JF7C+4XG, Santiago, Kec. Tahuna, Kabupaten Kepulauan Sangihe, Sulawesi Utara";"Kabupaten Kepulauan Sangihe, Sulawesi Utara";SULAWESI UTARA;;Indonesia;04323350056;;;36.128.296;1.254.724.629;https://maps.google.com/?cid=0x0:0x76b83aac0d1320e4;
supermarket;Toko umum;Waserda Agape Tapuang;"Kelurahan Jl. Tidore No.25, Tapuang, Kec. Tahuna Tim., Kabupaten Kepulauan Sangihe, Sulawesi Utara";"Kabupaten Kepulauan Sangihe, Sulawesi Utara";SULAWESI UTARA;;Indonesia;085242891899;;;3.598.765;125.504.121;https://maps.google.com/?cid=0x0:0xc95624a30b3d8b0f;
supermarket;Toko Swalayan;Toko Maju;"JF5Q+FFH, Sawang Bendar, Kec. Tahuna, Kabupaten Kepulauan Sangihe, Sulawesi Utara";"Kabupaten Kepulauan Sangihe, Sulawesi Utara";SULAWESI UTARA;;Indonesia;043221400;;;36.086.805;1.254.887.458;https://maps.google.com/?cid=0x0:0xca7543668f766734;
supermarket;Toko bahan makanan;Utama Supermarket;"FG43+GGM, Nagha I, Tamako, Kabupaten Kepulauan Sangihe, Sulawesi Utara";"Kabupaten Kepulauan Sangihe, Sulawesi Utara";SULAWESI UTARA;;Indonesia;;;;34.563.488;12.550.381;https://maps.google.com/?cid=0x0:0x9b49b76a347ea52;
supermarket;Toko;"Toko Joy (Stationary, Computer Supplies and Daily Needs)";"Jl. Malahasa, Soataloara I, Kec. Tahuna, Kabupaten Kepulauan Sangihe, Sulawesi Utara 95813";"Soataloara I, Kec. Tahuna, Kabupaten Kepulauan Sangihe";SULAWESI UTARA;95813;Indonesia;081354864754;;;36.144.379;125.496.941;https://maps.google.com/?cid=0x0:0xe231892adcdac5a4;
supermarket;supermarket;Kec. Tahuna Tim.;"Kabupaten Kepulauan Sangihe, Sulawesi Utara";"Kabupaten Kepulauan Sangihe, Sulawesi Utara";SULAWESI UTARA;;Indonesia;;;;36.107.787;1.255.084.379;https://maps.google.com/?cid=0x0:0x12910a813072e8b9;
supermarket;Minimarket;Megaria SwalayanTahuna;"Jl. Makaampo No.26, Sawang Bendar, Kec. Tahuna, Kabupaten Kepulauan Sangihe, Sulawesi Utara 95812";"Sawang Bendar, Kec. Tahuna, Kabupaten Kepulauan Sangihe";SULAWESI UTARA;95812;Indonesia;082349681805;;;36.093.144;125.491.729;https://maps.google.com/?cid=0x0:0x6345099cefab6c5d;
supermarket;Pasar;Paragon Mart;"JF6V+45X, Sawang Bendar, Kec. Tahuna, Kabupaten Kepulauan Sangihe, Sulawesi Utara";"Kabupaten Kepulauan Sangihe, Sulawesi Utara";SULAWESI UTARA;;Indonesia;;;;36.103.533;1.254.929.745;https://maps.google.com/?cid=0x0:0x54085e71379ddd32;
supermarket;Minimarket;Ceria Mart Tahuna;"JF6G+57F, Bungalawang, Kec. Tahuna, Kabupaten Kepulauan Sangihe, Sulawesi Utara";"Kabupaten Kepulauan Sangihe, Sulawesi Utara";SULAWESI UTARA;;Indonesia;043224453;;;36.104.343;125.475.657;https://maps.google.com/?cid=0x0:0xc7a35bdd8112590f;
supermarket;Toko bahan makanan;Lulege;"JF6W+3MH, Pasar Towo'e, Soataloara I, Kec. Tahuna, Kabupaten Kepulauan Sangihe, Sulawesi Utara 95812";"Pasar Towo'e, Soataloara I, Kec. Tahuna, Kabupaten Kepulauan Sangihe";SULAWESI UTARA;95812;Indonesia;;;;36.101.853;1.254.967.281;https://maps.google.com/?cid=0x0:0x5a9793a27a767241;
supermarket;Toko bahan makanan;Tahuna Swalayan;"JF77+RGW, Sawang Bendar, Kec. Tahuna, Kabupaten Kepulauan Sangihe, Sulawesi Utara";"Kabupaten Kepulauan Sangihe, Sulawesi Utara";SULAWESI UTARA;;Indonesia;085256164510;;;36.146.049;125.463.821;https://maps.google.com/?cid=0x0:0x149cfe296c7ebd7;
supermarket;Toserba;Toko Merpati Tahuna;"JF6R+244, Jl. Hasanudin, Sawang Bendar, Kec. Tahuna, Kabupaten Kepulauan Sangihe, Sulawesi Utara";"Kabupaten Kepulauan Sangihe, Sulawesi Utara";SULAWESI UTARA;;Indonesia;081340043610;;;36.100.098;1.254.903.378;https://maps.google.com/?cid=0x0:0x1cc43d39207012e1;
supermarket;Toko bahan makanan;PELITAMART Cab. SANTIAGO;"JF7C+4XG, Santiago, Kec. Tahuna, Kabupaten Kepulauan Sangihe, Sulawesi Utara";"Kabupaten Kepulauan Sangihe, Sulawesi Utara";SULAWESI UTARA;;Indonesia;04323350056;;;36.128.296;1.254.724.629;https://maps.google.com/?cid=0x0:0x76b83aac0d1320e4;
supermarket;Toko Swalayan;Tk. Empat Sejati;"JF5Q+G94, Sawang Bendar, Kec. Tahuna, Kabupaten Kepulauan Sangihe, Sulawesi Utara";"Kabupaten Kepulauan Sangihe, Sulawesi Utara";SULAWESI UTARA;;Indonesia;043221056;;;36.087.658;1.254.884.648;https://maps.google.com/?cid=0x0:0x28954c81fb34da00;
supermarket;supermarket;Gudang TF mart;"HGX6+P24, Tapuang, Kec. Tahuna Tim., Kabupaten Kepulauan Sangihe, Sulawesi Utara";"Kabupaten Kepulauan Sangihe, Sulawesi Utara";SULAWESI UTARA;;Indonesia;;;;35.992.668;1.255.100.697;https://maps.google.com/?cid=0x0:0x30197591303e350a;
supermarket;Toko bahan makanan;Utama Supermarket;"FG43+GGM, Nagha I, Tamako, Kabupaten Kepulauan Sangihe, Sulawesi Utara";"Kabupaten Kepulauan Sangihe, Sulawesi Utara";SULAWESI UTARA;;Indonesia;;;;34.563.488;12.550.381;https://maps.google.com/?cid=0x0:0x9b49b76a347ea52;
supermarket;Minimarket;Ceria Mart Cabang Sawang Bendar;"Jl. Makaampo No.44, Sawang Bendar, Kec. Tahuna, Kabupaten Kepulauan Sangihe, Sulawesi Utara";"Kabupaten Kepulauan Sangihe, Sulawesi Utara";SULAWESI UTARA;;Indonesia;;;;3.609.363;1.254.921.812;https://maps.google.com/?cid=0x0:0x48323867432b57f;
supermarket;Toko Swalayan;CV. Centra Pangan Mandiri;"Sawang Bendar, Kec. Tahuna, Kabupaten Kepulauan Sangihe, Sulawesi Utara";"Kabupaten Kepulauan Sangihe, Sulawesi Utara";SULAWESI UTARA;;Indonesia;082190860475;;;36.101.394;1.254.922.653;https://maps.google.com/?cid=0x0:0x6ee6bbdf658eb590;
supermarket;Minimarket;Megaria Link Santiago;"Santiago, Kota, Kec. Tahuna, Kabupaten Kepulauan Sangihe, Sulawesi Utara 95811";"Kota, Kec. Tahuna, Kabupaten Kepulauan Sangihe";SULAWESI UTARA;95811;Indonesia;082349681805;;;36.143.397;12.546.646;https://maps.google.com/?cid=0x0:0x63aa281b766d90f8;
supermarket;;SKB TAHUNA;"JG36+95P, Tona I, Kec. Tahuna Tim., Kabupaten Kepulauan Sangihe, Sulawesi Utara";"Kabupaten Kepulauan Sangihe, Sulawesi Utara";SULAWESI UTARA;;Indonesia;;;;36.034.709;1.255.104.575;https://maps.google.com/?cid=0x0:0x10cee89b7ce93084;
supermarket;ATM;Bank BRI ATM - MEGARIA SUPERMARKET;"Soataloara II, Kec. Tahuna, Kabupaten Kepulauan Sangihe, Sulawesi Utara";"Kabupaten Kepulauan Sangihe, Sulawesi Utara";SULAWESI UTARA;;Indonesia;02114017;;;36.104.628;1.254.894.743;https://maps.google.com/?cid=0x0:0xb9547a5c35cfdaeb;
supermarket;Komplek perumahan;Perum BULOG Kancab Tahuna;"Jl. Baru No. 75, Sawang Bendar, Tahuna, Tona I, Kepulauan Sangihe, Kabupaten Kepulauan Sangihe, Sulawesi Utara";"Kabupaten Kepulauan Sangihe, Sulawesi Utara";SULAWESI UTARA;;Indonesia;043221022;;;36.044.148;1.255.103.888;https://maps.google.com/?cid=0x0:0xd6e9744ffb729d5c;
supermarket;Kantor Pemerintah;Kantor Bupati Kepulauan Sangihe;"JF6X+VVC, Soataloara I, Kec. Tahuna, Kabupaten Kepulauan Sangihe, Sulawesi Utara";"Kabupaten Kepulauan Sangihe, Sulawesi Utara";SULAWESI UTARA;;Indonesia;043221003;;;36.121.956;1.254.996.448;https://maps.google.com/?cid=0x0:0x3bf033a364ef8865;
supermarket;Toko bahan makanan;Toko miracle;"JFCM+CFF, Sawang bentar depan gereja tiberias, Mahena, Kec. Tahuna, Kabupaten Kepulauan Sangihe, Sulawesi Utara";"Kabupaten Kepulauan Sangihe, Sulawesi Utara";SULAWESI UTARA;;Indonesia;085240782088;;;36.210.581;12.548.367;https://maps.google.com/?cid=0x0:0x1a3048c85bce7fd1;
supermarket;supermarket;BINTANG MART TAHUNA;"JLN SMKN1, Tona II, Kec. Tahuna, Kabupaten Kepulauan Sangihe, Sulawesi Utara";"Kabupaten Kepulauan Sangihe, Sulawesi Utara";SULAWESI UTARA;;Indonesia;;;;3.609.174;1.255.058.096;https://maps.google.com/?cid=0x0:0x773c36fb00db026c;
supermarket;Minimarket;Golden Mart;"JG54+P2M, Tona II, Kec. Tahuna Tim., Kabupaten Kepulauan Sangihe, Sulawesi Utara";"Kabupaten Kepulauan Sangihe, Sulawesi Utara";SULAWESI UTARA;;Indonesia;;;;36.093.433;1.255.050.324;https://maps.google.com/?cid=0x0:0xe6827ef578a80db6;
supermarket;Warnet;AA Rental PlayStation;"Jl. Tidore Tengah, RT.005/RW.Lingk II, Tidore, Kec. Tahuna Tim., Kabupaten Kepulauan Sangihe, Sulawesi Utara 95814";"RT.005/RW.Lingk II, Tidore, Kec. Tahuna Tim., Kabupaten Kepulauan Sangihe";SULAWESI UTARA;95814;Indonesia;085314687869;;;36.067.938;1.255.051.609;https://maps.google.com/?cid=0x0:0x8dc7205a34f1078c;
supermarket;Toko;Toko Berkat Indah;"Jl. Tidore No.Rt. 3, Tidore, Kec. Tahuna Tim., Kabupaten Kepulauan Sangihe, Sulawesi Utara";"Kabupaten Kepulauan Sangihe, Sulawesi Utara";SULAWESI UTARA;;Indonesia;;;;36.040.963;1.255.049.261;https://maps.google.com/?cid=0x0:0x1944045dc5874fbc;
supermarket;Toko bahan makanan;Kios Ruben;"Dumuhung, Kec. Tahuna Tim., Kabupaten Kepulauan Sangihe, Sulawesi Utara";"Kabupaten Kepulauan Sangihe, Sulawesi Utara";SULAWESI UTARA;;Indonesia;085156854925;;;36.138.206;1.255.066.201;https://maps.google.com/?cid=0x0:0x2e25ec3a2be49f1b;
supermarket;Kios;Kios 24;"JG33+3P7, Tidore, atas, Kabupaten Kepulauan Sangihe, Sulawesi Utara 95413";"Tidore, atas, Kabupaten Kepulauan Sangihe";SULAWESI UTARA;95413;Indonesia;085256781695;;;36.026.718;1.255.042.864;https://maps.google.com/?cid=0x0:0xeb04eee0a698b69;
supermarket;Toko bahan makanan;STAR MART;"JF7F+2GJ, Santiago, Kec. Tahuna, Kabupaten Kepulauan Sangihe, Sulawesi Utara";"Kabupaten Kepulauan Sangihe, Sulawesi Utara";SULAWESI UTARA;;Indonesia;085341776070;;;36.125.839;1.254.737.583;https://maps.google.com/?cid=0x0:0xb60fc294ef2ba6ee;
supermarket;Minimarket;Toko Pelangi;"JG36+78W, Tona I, Kec. Tahuna Tim., Kabupaten Kepulauan Sangihe, Sulawesi Utara";"Kabupaten Kepulauan Sangihe, Sulawesi Utara";SULAWESI UTARA;;Indonesia;082195656311;;;36.032.335;1.255.108.266;https://maps.google.com/?cid=0x0:0xfacd7c91cdc550fd;
supermarket;Toko umum;Waserda Agape Tapuang;"Kelurahan Jl. Tidore No.25, Tapuang, Kec. Tahuna Tim., Kabupaten Kepulauan Sangihe, Sulawesi Utara";"Kabupaten Kepulauan Sangihe, Sulawesi Utara";SULAWESI UTARA;;Indonesia;085242891899;;;3.598.765;125.504.121;https://maps.google.com/?cid=0x0:0xc95624a30b3d8b0f;
supermarket;Toko Swalayan;Toko Maju;"JF5Q+FFH, Sawang Bendar, Kec. Tahuna, Kabupaten Kepulauan Sangihe, Sulawesi Utara";"Kabupaten Kepulauan Sangihe, Sulawesi Utara";SULAWESI UTARA;;Indonesia;043221400;;;36.086.805;1.254.887.458;https://maps.google.com/?cid=0x0:0xca7543668f766734;
supermarket;supermarket;Kec. Tahuna Tim.;"Kabupaten Kepulauan Sangihe, Sulawesi Utara";"Kabupaten Kepulauan Sangihe, Sulawesi Utara";SULAWESI UTARA;;Indonesia;;;;36.107.787;1.255.084.379;https://maps.google.com/?cid=0x0:0x12910a813072e8b9;
supermarket;Minimarket;Megaria SwalayanTahuna;"Jl. Makaampo No.26, Sawang Bendar, Kec. Tahuna, Kabupaten Kepulauan Sangihe, Sulawesi Utara 95812";"Sawang Bendar, Kec. Tahuna, Kabupaten Kepulauan Sangihe";SULAWESI UTARA;95812;Indonesia;082349681805;;;36.093.144;125.491.729;https://maps.google.com/?cid=0x0:0x6345099cefab6c5d;
supermarket;Pasar;Paragon Mart;"JF6V+45X, Sawang Bendar, Kec. Tahuna, Kabupaten Kepulauan Sangihe, Sulawesi Utara";"Kabupaten Kepulauan Sangihe, Sulawesi Utara";SULAWESI UTARA;;Indonesia;;;;36.103.533;1.254.929.745;https://maps.google.com/?cid=0x0:0x54085e71379ddd32;
supermarket;Minimarket;Ceria Mart Tahuna;"JF6G+57F, Bungalawang, Kec. Tahuna, Kabupaten Kepulauan Sangihe, Sulawesi Utara";"Kabupaten Kepulauan Sangihe, Sulawesi Utara";SULAWESI UTARA;;Indonesia;043224453;;;36.104.343;125.475.657;https://maps.google.com/?cid=0x0:0xc7a35bdd8112590f;
supermarket;Toserba;Toko Merpati Tahuna;"JF6R+244, Jl. Hasanudin, Sawang Bendar, Kec. Tahuna, Kabupaten Kepulauan Sangihe, Sulawesi Utara";"Kabupaten Kepulauan Sangihe, Sulawesi Utara";SULAWESI UTARA;;Indonesia;081340043610;;;36.100.098;1.254.903.378;https://maps.google.com/?cid=0x0:0x1cc43d39207012e1;
supermarket;Pusat Perbelanjaan;Toko Idola Tidore;"JG43+5XJ, Tidore, Kec. Tahuna Tim., Kabupaten Kepulauan Sangihe, Sulawesi Utara";"Kabupaten Kepulauan Sangihe, Sulawesi Utara";SULAWESI UTARA;;Indonesia;;;;36.054.692;1.255.048.983;https://maps.google.com/?cid=0x0:0xdc52027df7da88de;
supermarket;Toko Swalayan;Tk. Empat Sejati;"JF5Q+G94, Sawang Bendar, Kec. Tahuna, Kabupaten Kepulauan Sangihe, Sulawesi Utara";"Kabupaten Kepulauan Sangihe, Sulawesi Utara";SULAWESI UTARA;;Indonesia;043221056;;;36.087.658;1.254.884.648;https://maps.google.com/?cid=0x0:0x28954c81fb34da00;
supermarket;Toko bahan makanan;Tahuna Swalayan;"JF77+RGW, Sawang Bendar, Kec. Tahuna, Kabupaten Kepulauan Sangihe, Sulawesi Utara";"Kabupaten Kepulauan Sangihe, Sulawesi Utara";SULAWESI UTARA;;Indonesia;085256164510;;;36.146.049;125.463.821;https://maps.google.com/?cid=0x0:0x149cfe296c7ebd7;
supermarket;Toko bahan makanan;PELITAMART Cab. SANTIAGO;"JF7C+4XG, Santiago, Kec. Tahuna, Kabupaten Kepulauan Sangihe, Sulawesi Utara";"Kabupaten Kepulauan Sangihe, Sulawesi Utara";SULAWESI UTARA;;Indonesia;04323350056;;;36.128.296;1.254.724.629;https://maps.google.com/?cid=0x0:0x76b83aac0d1320e4;
supermarket;supermarket;Gudang TF mart;"HGX6+P24, Tapuang, Kec. Tahuna Tim., Kabupaten Kepulauan Sangihe, Sulawesi Utara";"Kabupaten Kepulauan Sangihe, Sulawesi Utara";SULAWESI UTARA;;Indonesia;;;;35.992.668;1.255.100.697;https://maps.google.com/?cid=0x0:0x30197591303e350a;
supermarket;Toko bahan makanan;Utama Supermarket;"FG43+GGM, Nagha I, Tamako, Kabupaten Kepulauan Sangihe, Sulawesi Utara";"Kabupaten Kepulauan Sangihe, Sulawesi Utara";SULAWESI UTARA;;Indonesia;;;;34.563.488;12.550.381;https://maps.google.com/?cid=0x0:0x9b49b76a347ea52;
supermarket;Toko Swalayan;CV. Centra Pangan Mandiri;"Sawang Bendar, Kec. Tahuna, Kabupaten Kepulauan Sangihe, Sulawesi Utara";"Kabupaten Kepulauan Sangihe, Sulawesi Utara";SULAWESI UTARA;;Indonesia;082190860475;;;36.101.394;1.254.922.653;https://maps.google.com/?cid=0x0:0x6ee6bbdf658eb590;
supermarket;Minimarket;Ceria Mart Cabang Sawang Bendar;"Jl. Makaampo No.44, Sawang Bendar, Kec. Tahuna, Kabupaten Kepulauan Sangihe, Sulawesi Utara";"Kabupaten Kepulauan Sangihe, Sulawesi Utara";SULAWESI UTARA;;Indonesia;;;;3.609.363;1.254.921.812;https://maps.google.com/?cid=0x0:0x48323867432b57f;
supermarket;;SKB TAHUNA;"JG36+95P, Tona I, Kec. Tahuna Tim., Kabupaten Kepulauan Sangihe, Sulawesi Utara";"Kabupaten Kepulauan Sangihe, Sulawesi Utara";SULAWESI UTARA;;Indonesia;;;;36.034.709;1.255.104.575;https://maps.google.com/?cid=0x0:0x10cee89b7ce93084;
supermarket;Minimarket;Megaria Link Santiago;"Santiago, Kota, Kec. Tahuna, Kabupaten Kepulauan Sangihe, Sulawesi Utara 95811";"Kota, Kec. Tahuna, Kabupaten Kepulauan Sangihe";SULAWESI UTARA;95811;Indonesia;082349681805;;;36.143.397;12.546.646;https://maps.google.com/?cid=0x0:0x63aa281b766d90f8;
supermarket;ATM;Bank BRI ATM - MEGARIA SUPERMARKET;"Soataloara II, Kec. Tahuna, Kabupaten Kepulauan Sangihe, Sulawesi Utara";"Kabupaten Kepulauan Sangihe, Sulawesi Utara";SULAWESI UTARA;;Indonesia;02114017;;;36.104.628;1.254.894.743;https://maps.google.com/?cid=0x0:0xb9547a5c35cfdaeb;
supermarket;Toko bahan makanan;Toko miracle;"JFCM+CFF, Sawang bentar depan gereja tiberias, Mahena, Kec. Tahuna, Kabupaten Kepulauan Sangihe, Sulawesi Utara";"Kabupaten Kepulauan Sangihe, Sulawesi Utara";SULAWESI UTARA;;Indonesia;085240782088;;;36.210.581;12.548.367;https://maps.google.com/?cid=0x0:0x1a3048c85bce7fd1;
supermarket;supermarket;BINTANG MART TAHUNA;"JLN SMKN1, Tona II, Kec. Tahuna, Kabupaten Kepulauan Sangihe, Sulawesi Utara";"Kabupaten Kepulauan Sangihe, Sulawesi Utara";SULAWESI UTARA;;Indonesia;;;;3.609.174;1.255.058.096;https://maps.google.com/?cid=0x0:0x773c36fb00db026c;
supermarket;supermarket;DNS Cell;"JG54+CXG, Tona II, Kec. Tahuna Tim., Kabupaten Kepulauan Sangihe, Sulawesi Utara";"Kabupaten Kepulauan Sangihe, Sulawesi Utara";SULAWESI UTARA;;Indonesia;082187854819;;;36.085.733;1.255.074.549;https://maps.google.com/?cid=0x0:0x475e2e1000416956;
supermarket;Minimarket;Golden Mart;"JG54+P2M, Tona II, Kec. Tahuna Tim., Kabupaten Kepulauan Sangihe, Sulawesi Utara";"Kabupaten Kepulauan Sangihe, Sulawesi Utara";SULAWESI UTARA;;Indonesia;;;;36.093.433;1.255.050.324;https://maps.google.com/?cid=0x0:0xe6827ef578a80db6;
supermarket;Komplek perumahan;Perum BULOG Kancab Tahuna;"Jl. Baru No. 75, Sawang Bendar, Tahuna, Tona I, Kepulauan Sangihe, Kabupaten Kepulauan Sangihe, Sulawesi Utara";"Kabupaten Kepulauan Sangihe, Sulawesi Utara";SULAWESI UTARA;;Indonesia;043221022;;;36.044.148;1.255.103.888;https://maps.google.com/?cid=0x0:0xd6e9744ffb729d5c;
supermarket;Toko;Toko Berkat Indah;"Jl. Tidore No.Rt. 3, Tidore, Kec. Tahuna Tim., Kabupaten Kepulauan Sangihe, Sulawesi Utara";"Kabupaten Kepulauan Sangihe, Sulawesi Utara";SULAWESI UTARA;;Indonesia;;;;36.040.963;1.255.049.261;https://maps.google.com/?cid=0x0:0x1944045dc5874fbc;
supermarket;Toko bahan makanan;Kios Ruben;"Dumuhung, Kec. Tahuna Tim., Kabupaten Kepulauan Sangihe, Sulawesi Utara";"Kabupaten Kepulauan Sangihe, Sulawesi Utara";SULAWESI UTARA;;Indonesia;085156854925;;;36.138.206;1.255.066.201;https://maps.google.com/?cid=0x0:0x2e25ec3a2be49f1b;
supermarket;Minimarket;Toko Pelangi;"JG36+78W, Tona I, Kec. Tahuna Tim., Kabupaten Kepulauan Sangihe, Sulawesi Utara";"Kabupaten Kepulauan Sangihe, Sulawesi Utara";SULAWESI UTARA;;Indonesia;082195656311;;;36.032.335;1.255.108.266;https://maps.google.com/?cid=0x0:0xfacd7c91cdc550fd;
supermarket;Kios;Kios 24;"JG33+3P7, Tidore, atas, Kabupaten Kepulauan Sangihe, Sulawesi Utara 95413";"Tidore, atas, Kabupaten Kepulauan Sangihe";SULAWESI UTARA;95413;Indonesia;085256781695;;;36.026.718;1.255.042.864;https://maps.google.com/?cid=0x0:0xeb04eee0a698b69;
supermarket;Toko umum;Waserda Agape Tapuang;"Kelurahan Jl. Tidore No.25, Tapuang, Kec. Tahuna Tim., Kabupaten Kepulauan Sangihe, Sulawesi Utara";"Kabupaten Kepulauan Sangihe, Sulawesi Utara";SULAWESI UTARA;;Indonesia;085242891899;;;3.598.765;125.504.121;https://maps.google.com/?cid=0x0:0xc95624a30b3d8b0f;
supermarket;Toko bahan makanan;STAR MART;"JF7F+2GJ, Santiago, Kec. Tahuna, Kabupaten Kepulauan Sangihe, Sulawesi Utara";"Kabupaten Kepulauan Sangihe, Sulawesi Utara";SULAWESI UTARA;;Indonesia;085341776070;;;36.125.839;1.254.737.583;https://maps.google.com/?cid=0x0:0xb60fc294ef2ba6ee;
supermarket;Toko Swalayan;Toko Maju;"JF5Q+FFH, Sawang Bendar, Kec. Tahuna, Kabupaten Kepulauan Sangihe, Sulawesi Utara";"Kabupaten Kepulauan Sangihe, Sulawesi Utara";SULAWESI UTARA;;Indonesia;043221400;;;36.086.805;1.254.887.458;https://maps.google.com/?cid=0x0:0xca7543668f766734;
supermarket;Toko;"Toko Joy (Stationary, Computer Supplies and Daily Needs)";"Jl. Malahasa, Soataloara I, Kec. Tahuna, Kabupaten Kepulauan Sangihe, Sulawesi Utara 95813";"Soataloara I, Kec. Tahuna, Kabupaten Kepulauan Sangihe";SULAWESI UTARA;95813;Indonesia;081354864754;;;36.144.379;125.496.941;https://maps.google.com/?cid=0x0:0xe231892adcdac5a4;
supermarket;supermarket;Kec. Tahuna Tim.;"Kabupaten Kepulauan Sangihe, Sulawesi Utara";"Kabupaten Kepulauan Sangihe, Sulawesi Utara";SULAWESI UTARA;;Indonesia;;;;36.107.787;1.255.084.379;https://maps.google.com/?cid=0x0:0x12910a813072e8b9;
supermarket;Minimarket;Megaria SwalayanTahuna;"Jl. Makaampo No.26, Sawang Bendar, Kec. Tahuna, Kabupaten Kepulauan Sangihe, Sulawesi Utara 95812";"Sawang Bendar, Kec. Tahuna, Kabupaten Kepulauan Sangihe";SULAWESI UTARA;95812;Indonesia;082349681805;;;36.093.144;125.491.729;https://maps.google.com/?cid=0x0:0x6345099cefab6c5d;
supermarket;Pasar;Paragon Mart;"JF6V+45X, Sawang Bendar, Kec. Tahuna, Kabupaten Kepulauan Sangihe, Sulawesi Utara";"Kabupaten Kepulauan Sangihe, Sulawesi Utara";SULAWESI UTARA;;Indonesia;;;;36.103.533;1.254.929.745;https://maps.google.com/?cid=0x0:0x54085e71379ddd32;
supermarket;Pusat Perbelanjaan;Toko Idola Tidore;"JG43+5XJ, Tidore, Kec. Tahuna Tim., Kabupaten Kepulauan Sangihe, Sulawesi Utara";"Kabupaten Kepulauan Sangihe, Sulawesi Utara";SULAWESI UTARA;;Indonesia;;;;36.054.692;1.255.048.983;https://maps.google.com/?cid=0x0:0xdc52027df7da88de;
supermarket;Minimarket;Ceria Mart Tahuna;"JF6G+57F, Bungalawang, Kec. Tahuna, Kabupaten Kepulauan Sangihe, Sulawesi Utara";"Kabupaten Kepulauan Sangihe, Sulawesi Utara";SULAWESI UTARA;;Indonesia;043224453;;;36.104.343;125.475.657;https://maps.google.com/?cid=0x0:0xc7a35bdd8112590f;
supermarket;Toko bahan makanan;Tahuna Swalayan;"JF77+RGW, Sawang Bendar, Kec. Tahuna, Kabupaten Kepulauan Sangihe, Sulawesi Utara";"Kabupaten Kepulauan Sangihe, Sulawesi Utara";SULAWESI UTARA;;Indonesia;085256164510;;;36.146.049;125.463.821;https://maps.google.com/?cid=0x0:0x149cfe296c7ebd7;
supermarket;Toko bahan makanan;PELITAMART Cab. SANTIAGO;"JF7C+4XG, Santiago, Kec. Tahuna, Kabupaten Kepulauan Sangihe, Sulawesi Utara";"Kabupaten Kepulauan Sangihe, Sulawesi Utara";SULAWESI UTARA;;Indonesia;04323350056;;;36.128.296;1.254.724.629;https://maps.google.com/?cid=0x0:0x76b83aac0d1320e4;
supermarket;Toko Swalayan;Tk. Empat Sejati;"JF5Q+G94, Sawang Bendar, Kec. Tahuna, Kabupaten Kepulauan Sangihe, Sulawesi Utara";"Kabupaten Kepulauan Sangihe, Sulawesi Utara";SULAWESI UTARA;;Indonesia;043221056;;;36.087.658;1.254.884.648;https://maps.google.com/?cid=0x0:0x28954c81fb34da00;
supermarket;Toko bahan makanan;Utama Supermarket;"FG43+GGM, Nagha I, Tamako, Kabupaten Kepulauan Sangihe, Sulawesi Utara";"Kabupaten Kepulauan Sangihe, Sulawesi Utara";SULAWESI UTARA;;Indonesia;;;;34.563.488;12.550.381;https://maps.google.com/?cid=0x0:0x9b49b76a347ea52;
supermarket;supermarket;Gudang TF mart;"HGX6+P24, Tapuang, Kec. Tahuna Tim., Kabupaten Kepulauan Sangihe, Sulawesi Utara";"Kabupaten Kepulauan Sangihe, Sulawesi Utara";SULAWESI UTARA;;Indonesia;;;;35.992.668;1.255.100.697;https://maps.google.com/?cid=0x0:0x30197591303e350a;
supermarket;Toserba;Toko Merpati Tahuna;"JF6R+244, Jl. Hasanudin, Sawang Bendar, Kec. Tahuna, Kabupaten Kepulauan Sangihe, Sulawesi Utara";"Kabupaten Kepulauan Sangihe, Sulawesi Utara";SULAWESI UTARA;;Indonesia;081340043610;;;36.100.098;1.254.903.378;https://maps.google.com/?cid=0x0:0x1cc43d39207012e1;
supermarket;Toko Swalayan;CV. Centra Pangan Mandiri;"Sawang Bendar, Kec. Tahuna, Kabupaten Kepulauan Sangihe, Sulawesi Utara";"Kabupaten Kepulauan Sangihe, Sulawesi Utara";SULAWESI UTARA;;Indonesia;082190860475;;;36.101.394;1.254.922.653;https://maps.google.com/?cid=0x0:0x6ee6bbdf658eb590;
supermarket;Minimarket;Ceria Mart Cabang Sawang Bendar;"Jl. Makaampo No.44, Sawang Bendar, Kec. Tahuna, Kabupaten Kepulauan Sangihe, Sulawesi Utara";"Kabupaten Kepulauan Sangihe, Sulawesi Utara";SULAWESI UTARA;;Indonesia;;;;3.609.363;1.254.921.812;https://maps.google.com/?cid=0x0:0x48323867432b57f;
supermarket;ATM;Bank BRI ATM - MEGARIA SUPERMARKET;"Soataloara II, Kec. Tahuna, Kabupaten Kepulauan Sangihe, Sulawesi Utara";"Kabupaten Kepulauan Sangihe, Sulawesi Utara";SULAWESI UTARA;;Indonesia;02114017;;;36.104.628;1.254.894.743;https://maps.google.com/?cid=0x0:0xb9547a5c35cfdaeb;
supermarket;Minimarket;Megaria Link Santiago;"Santiago, Kota, Kec. Tahuna, Kabupaten Kepulauan Sangihe, Sulawesi Utara 95811";"Kota, Kec. Tahuna, Kabupaten Kepulauan Sangihe";SULAWESI UTARA;95811;Indonesia;082349681805;;;36.143.397;12.546.646;https://maps.google.com/?cid=0x0:0x63aa281b766d90f8;
supermarket;;SKB TAHUNA;"JG36+95P, Tona I, Kec. Tahuna Tim., Kabupaten Kepulauan Sangihe, Sulawesi Utara";"Kabupaten Kepulauan Sangihe, Sulawesi Utara";SULAWESI UTARA;;Indonesia;;;;36.034.709;1.255.104.575;https://maps.google.com/?cid=0x0:0x10cee89b7ce93084;
supermarket;Toko bahan makanan;Toko miracle;"JFCM+CFF, Sawang bentar depan gereja tiberias, Mahena, Kec. Tahuna, Kabupaten Kepulauan Sangihe, Sulawesi Utara";"Kabupaten Kepulauan Sangihe, Sulawesi Utara";SULAWESI UTARA;;Indonesia;085240782088;;;36.210.581;12.548.367;https://maps.google.com/?cid=0x0:0x1a3048c85bce7fd1;
supermarket;Kantor Pemerintah;Kantor Bupati Kepulauan Sangihe;"JF6X+VVC, Soataloara I, Kec. Tahuna, Kabupaten Kepulauan Sangihe, Sulawesi Utara";"Kabupaten Kepulauan Sangihe, Sulawesi Utara";SULAWESI UTARA;;Indonesia;043221003;;;36.121.956;1.254.996.448;https://maps.google.com/?cid=0x0:0x3bf033a364ef8865;
supermarket;supermarket;BINTANG MART TAHUNA;"JLN SMKN1, Tona II, Kec. Tahuna, Kabupaten Kepulauan Sangihe, Sulawesi Utara";"Kabupaten Kepulauan Sangihe, Sulawesi Utara";SULAWESI UTARA;;Indonesia;;;;3.609.174;1.255.058.096;https://maps.google.com/?cid=0x0:0x773c36fb00db026c;
supermarket;supermarket;DNS Cell;"JG54+CXG, Tona II, Kec. Tahuna Tim., Kabupaten Kepulauan Sangihe, Sulawesi Utara";"Kabupaten Kepulauan Sangihe, Sulawesi Utara";SULAWESI UTARA;;Indonesia;082187854819;;;36.085.733;1.255.074.549;https://maps.google.com/?cid=0x0:0x475e2e1000416956;
supermarket;Minimarket;Golden Mart;"JG54+P2M, Tona II, Kec. Tahuna Tim., Kabupaten Kepulauan Sangihe, Sulawesi Utara";"Kabupaten Kepulauan Sangihe, Sulawesi Utara";SULAWESI UTARA;;Indonesia;;;;36.093.433;1.255.050.324;https://maps.google.com/?cid=0x0:0xe6827ef578a80db6;
supermarket;Toko;Toko Berkat Indah;"Jl. Tidore No.Rt. 3, Tidore, Kec. Tahuna Tim., Kabupaten Kepulauan Sangihe, Sulawesi Utara";"Kabupaten Kepulauan Sangihe, Sulawesi Utara";SULAWESI UTARA;;Indonesia;;;;36.040.963;1.255.049.261;https://maps.google.com/?cid=0x0:0x1944045dc5874fbc;
supermarket;Toko bahan makanan;Kios Ruben;"Dumuhung, Kec. Tahuna Tim., Kabupaten Kepulauan Sangihe, Sulawesi Utara";"Kabupaten Kepulauan Sangihe, Sulawesi Utara";SULAWESI UTARA;;Indonesia;085156854925;;;36.138.206;1.255.066.201;https://maps.google.com/?cid=0x0:0x2e25ec3a2be49f1b;
supermarket;Minimarket;Toko Pelangi;"JG36+78W, Tona I, Kec. Tahuna Tim., Kabupaten Kepulauan Sangihe, Sulawesi Utara";"Kabupaten Kepulauan Sangihe, Sulawesi Utara";SULAWESI UTARA;;Indonesia;082195656311;;;36.032.335;1.255.108.266;https://maps.google.com/?cid=0x0:0xfacd7c91cdc550fd;
supermarket;Kios;Kios 24;"JG33+3P7, Tidore, atas, Kabupaten Kepulauan Sangihe, Sulawesi Utara 95413";"Tidore, atas, Kabupaten Kepulauan Sangihe";SULAWESI UTARA;95413;Indonesia;085256781695;;;36.026.718;1.255.042.864;https://maps.google.com/?cid=0x0:0xeb04eee0a698b69;
supermarket;Toko umum;Waserda Agape Tapuang;"Kelurahan Jl. Tidore No.25, Tapuang, Kec. Tahuna Tim., Kabupaten Kepulauan Sangihe, Sulawesi Utara";"Kabupaten Kepulauan Sangihe, Sulawesi Utara";SULAWESI UTARA;;Indonesia;085242891899;;;3.598.765;125.504.121;https://maps.google.com/?cid=0x0:0xc95624a30b3d8b0f;
supermarket;Toko bahan makanan;STAR MART;"JF7F+2GJ, Santiago, Kec. Tahuna, Kabupaten Kepulauan Sangihe, Sulawesi Utara";"Kabupaten Kepulauan Sangihe, Sulawesi Utara";SULAWESI UTARA;;Indonesia;085341776070;;;36.125.839;1.254.737.583;https://maps.google.com/?cid=0x0:0xb60fc294ef2ba6ee;
supermarket;Toko;"Toko Joy (Stationary, Computer Supplies and Daily Needs)";"Jl. Malahasa, Soataloara I, Kec. Tahuna, Kabupaten Kepulauan Sangihe, Sulawesi Utara 95813";"Soataloara I, Kec. Tahuna, Kabupaten Kepulauan Sangihe";SULAWESI UTARA;95813;Indonesia;081354864754;;;36.144.379;125.496.941;https://maps.google.com/?cid=0x0:0xe231892adcdac5a4;
supermarket;Toko Swalayan;Toko Maju;"JF5Q+FFH, Sawang Bendar, Kec. Tahuna, Kabupaten Kepulauan Sangihe, Sulawesi Utara";"Kabupaten Kepulauan Sangihe, Sulawesi Utara";SULAWESI UTARA;;Indonesia;043221400;;;36.086.805;1.254.887.458;https://maps.google.com/?cid=0x0:0xca7543668f766734;
supermarket;supermarket;Tamako;"Pokol, Tamako, Kabupaten Kepulauan Sangihe, Sulawesi Utara";"Kabupaten Kepulauan Sangihe, Sulawesi Utara";SULAWESI UTARA;;Indonesia;;;;3.457.318;125.512.815;https://maps.google.com/?cid=0x0:0xc351e5c82bb74d45;
supermarket;Toko bahan makanan;Utama Supermarket;"FG43+GGM, Nagha I, Tamako, Kabupaten Kepulauan Sangihe, Sulawesi Utara";"Kabupaten Kepulauan Sangihe, Sulawesi Utara";SULAWESI UTARA;;Indonesia;;;;34.563.488;12.550.381;https://maps.google.com/?cid=0x0:0x9b49b76a347ea52;
supermarket;Toko Swalayan;Utara Tamako;"FG43+GCH, Nagha I, Tamako, Kabupaten Kepulauan Sangihe, Sulawesi Utara";"Kabupaten Kepulauan Sangihe, Sulawesi Utara";SULAWESI UTARA;;Indonesia;081356317140;;;3.456.307;1.255.036.246;https://maps.google.com/?cid=0x0:0x9435f2f5ba6f629d;
supermarket;Toko Makanan;Toko Tritama;"Jl. Poltangan Raya No.30 2, RT.2/RW.11, Pejaten Timur, Ps. Minggu, Kota Jakarta Selatan, Daerah Khusus Ibukota Jakarta 12510";"RT.2/RW.11, Pejaten Timur, Ps. Minggu, Kota Jakarta Selatan";SULAWESI UTARA;12510;Indonesia;0217821033;;;-62.972.079;1.068.467.564;https://maps.google.com/?cid=0x0:0x80f388afc24c3baf;
supermarket;Toko bahan makanan;Utama Supermarket;"FG43+GGM, Nagha I, Tamako, Kabupaten Kepulauan Sangihe, Sulawesi Utara";"Kabupaten Kepulauan Sangihe, Sulawesi Utara";SULAWESI UTARA;;Indonesia;;;;34.563.488;12.550.381;https://maps.google.com/?cid=0x0:0x9b49b76a347ea52;
supermarket;Toko Swalayan;Utara Tamako;"FG43+GCH, Nagha I, Tamako, Kabupaten Kepulauan Sangihe, Sulawesi Utara";"Kabupaten Kepulauan Sangihe, Sulawesi Utara";SULAWESI UTARA;;Indonesia;081356317140;;;3.456.307;1.255.036.246;https://maps.google.com/?cid=0x0:0x9435f2f5ba6f629d;
