Category;Real Category;Business Name;Address;City;State;Postal Code;Country;Phone;Email;Website;Latitude;Longitude;Map Link;Details Link
"komplek housing";"Komplek perumahan";"Shalman house";"MCJ2+GX, Kendahe II, Kendahe, Kabupaten Kepulauan Sangihe, Sulawesi Utara";"Kabupaten Kepulauan Sangihe, Sulawesi Utara";"SULAWESI UTARA";"";"Indonesia";"";"";"";"3.680847";"125.402386";"https://maps.google.com/?cid=0x0:0xe69c34f297e9253a";""
"komplek housing";"Komplek perumahan";"Natalia sahentombage house";"PC96+HHX, Tarianglama, Kendahe, Kabupaten Kepulauan Sangihe, Sulawesi Utara";"Kabupaten Kepulauan Sangihe, Sulawesi Utara";"SULAWESI UTARA";"";"Indonesia";"";"";"";"3.7189477";"125.4115152";"https://maps.google.com/?cid=0x0:0x30cf12874b457cbe";""
"komplek housing";"komplek housing";"Kendahe";"Kabupaten Kepulauan Sangihe, Sulawesi Utara";"Kabupaten Kepulauan Sangihe, Sulawesi Utara";"SULAWESI UTARA";"";"Indonesia";"";"";"";"3.7121105";"125.4233987";"https://maps.google.com/?cid=0x0:0x86c5529cf19759d";""
"komplek housing";"komplek housing";"Kepulauan Marore";"Kabupaten Kepulauan Sangihe, Sulawesi Utara";"Kabupaten Kepulauan Sangihe, Sulawesi Utara";"SULAWESI UTARA";"";"Indonesia";"";"";"";"4.6413429";"125.6259517";"https://maps.google.com/?cid=0x0:0x3a2e9dfaedbd16ca";""
"komplek housing";"komplek housing";"Kec. Manganitu";"Kabupaten Kepulauan Sangihe, Sulawesi Utara";"Kabupaten Kepulauan Sangihe, Sulawesi Utara";"SULAWESI UTARA";"";"Indonesia";"";"";"";"3.5693016";"125.512093";"https://maps.google.com/?cid=0x0:0xc130a69c6e159c08";""
"komplek housing";"Komplek perumahan";"Rumah Raja Manganitu";"HG89+938, Taloarane I, Kec. Manganitu, Kabupaten Kepulauan Sangihe, Sulawesi Utara";"Kabupaten Kepulauan Sangihe, Sulawesi Utara";"SULAWESI UTARA";"";"Indonesia";"";"";"";"3.5659151";"125.5177055";"https://maps.google.com/?cid=0x0:0x4e67d14d5a2b2bfa";""
"komplek housing";"Kantor Pemda";"Rumah Dinas Camat Manganitu";"HG79+W3J, Taloarane I, Kec. Manganitu, Kabupaten Kepulauan Sangihe, Sulawesi Utara";"Kabupaten Kepulauan Sangihe, Sulawesi Utara";"SULAWESI UTARA";"";"Indonesia";"";"";"";"3.5653797";"125.5180736";"https://maps.google.com/?cid=0x0:0x1af03b95941332ef";""
"komplek housing";"komplek housing";"Manganitu Sel.";"Kabupaten Kepulauan Sangihe, Sulawesi Utara";"Kabupaten Kepulauan Sangihe, Sulawesi Utara";"SULAWESI UTARA";"";"Indonesia";"";"";"";"3.4016429";"125.620484";"https://maps.google.com/?cid=0x0:0x74c38fb5de9eba1e";""
"komplek housing";"Gudang";"KAMPUNG DAGHO";"CHR7+9J8, Dagho, Tamako, Kabupaten Kepulauan Sangihe, Sulawesi Utara";"Kabupaten Kepulauan Sangihe, Sulawesi Utara";"SULAWESI UTARA";"";"Indonesia";"";"";"";"3.4413566";"125.5647883";"https://maps.google.com/?cid=0x0:0xed755e932237f86a";""
"komplek housing";"Komplek perumahan";"Dagho,Kecamatan Tamako";"CHP7+VH, Kalama Darat, Kabupaten Kepulauan Sangihe, Sulawesi Utara";"Kabupaten Kepulauan Sangihe, Sulawesi Utara";"SULAWESI UTARA";"";"Indonesia";"";"";"";"3.4371875";"125.5639375";"https://maps.google.com/?cid=0x0:0xca9efe052d979697";""
"komplek housing";"komplek housing";"Nusa Tabukan";"Kabupaten Kepulauan Sangihe, Sulawesi Utara";"Kabupaten Kepulauan Sangihe, Sulawesi Utara";"SULAWESI UTARA";"";"Indonesia";"";"";"";"3.7780322";"125.5904048";"https://maps.google.com/?cid=0x0:0x6fd788077ef450df";""
"komplek housing";"komplek housing";"Tabukan Sel. Tengah";"Kabupaten Kepulauan Sangihe, Sulawesi Utara";"Kabupaten Kepulauan Sangihe, Sulawesi Utara";"SULAWESI UTARA";"";"Indonesia";"";"";"";"3.4630696";"125.6478189";"https://maps.google.com/?cid=0x0:0xd87fa84db2a69d30";""
"komplek housing";"komplek housing";"Kec. Tabukan Sel.";"Kabupaten Kepulauan Sangihe, Sulawesi Utara";"Kabupaten Kepulauan Sangihe, Sulawesi Utara";"SULAWESI UTARA";"";"Indonesia";"";"";"";"3.5171771";"125.6226871";"https://maps.google.com/?cid=0x0:0xf03a5b084c01a081";""
"komplek housing";"Perhimpunan Pengembang Perumahan";"Kel. Sahabir Makahengke";"Kampung Bira, Lindongan 1, Kec. Tabukan Tengah, Sulawesi Utara 95857";"Lindongan 1, Kec. Tabukan Tengah";"SULAWESI UTARA";"95857";"Indonesia";"";"";"";"3.5575831";"125.5809401";"https://maps.google.com/?cid=0x0:0x9503365baaf85dad";""
"komplek housing";"Komplek perumahan";"Kel Lanongbuka Malansa";"HH26+648, Bira, Kec. Tabukan Tengah, Kabupaten Kepulauan Sangihe, Sulawesi Utara";"Kabupaten Kepulauan Sangihe, Sulawesi Utara";"SULAWESI UTARA";"";"Indonesia";"";"";"";"3.5505382";"125.5603143";"https://maps.google.com/?cid=0x0:0x3dbd6bd72ca02924";""
"komplek housing";"komplek housing";"Kec. Tabukan Sel. Tenggara";"Kabupaten Kepulauan Sangihe, Sulawesi Utara";"Kabupaten Kepulauan Sangihe, Sulawesi Utara";"SULAWESI UTARA";"";"Indonesia";"";"";"";"3.4599844";"125.6590853";"https://maps.google.com/?cid=0x0:0xea3a936de4045559";""
"komplek housing";"komplek housing";"Kec. Tabukan Utara";"Kabupaten Kepulauan Sangihe, Sulawesi Utara";"Kabupaten Kepulauan Sangihe, Sulawesi Utara";"SULAWESI UTARA";"";"Indonesia";"";"";"";"3.6892367";"125.5353986";"https://maps.google.com/?cid=0x0:0x3513a069515adb7f";""
"komplek housing";"Komplek perumahan";"Perum ASN Naha 46 Queensy";"MGMQ+M6P, Naha I, Kec. Tabukan Utara, Kabupaten Kepulauan Sangihe, Sulawesi Utara 95856";"Naha I, Kec. Tabukan Utara, Kabupaten Kepulauan Sangihe";"SULAWESI UTARA";"95856";"Indonesia";"";"";"";"3.6842048";"125.5380626";"https://maps.google.com/?cid=0x0:0x463a9d329cb0abca";""
"komplek housing";"Komplek perumahan";"Nanz Home";"MGMQ+M6P, Naha I, Kec. Tabukan Utara, Kabupaten Kepulauan Sangihe, Sulawesi Utara 95856";"Naha I, Kec. Tabukan Utara, Kabupaten Kepulauan Sangihe";"SULAWESI UTARA";"95856";"Indonesia";"";"";"";"3.6842981";"125.5379562";"https://maps.google.com/?cid=0x0:0xfdd4b6dc4218f8c1";""
"komplek housing";"Komplek perumahan";"Nike Belle Homr";"MG3J+634, Jln. Raya, Lindongan II, Tarolang, Kec. Tabukan Utara, Kabupaten Kepulauan Sangihe, Sulawesi Utara 95856";"Jln. Raya, Lindongan II, Tarolang, Kec. Tabukan Utara, Kabupaten Kepulauan Sangihe";"SULAWESI UTARA";"95856";"Indonesia";" 082393374514";"";"";"3.6530054";"125.5301895";"https://maps.google.com/?cid=0x0:0x92a4478aee000f68";""
"komplek housing";"Komplek perumahan";"Rumah";"JFCF+RCQ, Manente, Kec. Tahuna, Kabupaten Kepulauan Sangihe, Sulawesi Utara";"Kabupaten Kepulauan Sangihe, Sulawesi Utara";"SULAWESI UTARA";"";"Indonesia";"";"";"";"3.6220903";"125.4735942";"https://maps.google.com/?cid=0x0:0x163f71c153892964";""
"komplek housing";"komplek housing";"Tahuna";"Sawang Bendar, Kec. Tahuna, Kabupaten Kepulauan Sangihe, Sulawesi Utara";"Kabupaten Kepulauan Sangihe, Sulawesi Utara";"SULAWESI UTARA";"";"Indonesia";"";"";"";"3.611106";"125.485509";"https://maps.google.com/?cid=0x0:0xac6d1c5aacbd436";""
"komplek housing";"Komplek perumahan";"Perum Malahasa";"JF9G+G55, Manente, Kec. Tahuna, Kabupaten Kepulauan Sangihe, Sulawesi Utara";"Kabupaten Kepulauan Sangihe, Sulawesi Utara";"SULAWESI UTARA";"";"Indonesia";"";"";"";"3.6187538";"125.4754917";"https://maps.google.com/?cid=0x0:0x99805cf4ab9bf755";""
"komplek housing";"Komplek perumahan";"Rumah";"JFCF+RCQ, Manente, Kec. Tahuna, Kabupaten Kepulauan Sangihe, Sulawesi Utara";"Kabupaten Kepulauan Sangihe, Sulawesi Utara";"SULAWESI UTARA";"";"Indonesia";"";"";"";"3.6220903";"125.4735942";"https://maps.google.com/?cid=0x0:0x163f71c153892964";""
"komplek housing";"Komplek perumahan";"Akembuala";"JF5R+X8X, Sawang Bendar, Kec. Tahuna, Kabupaten Kepulauan Sangihe, Sulawesi Utara";"Kabupaten Kepulauan Sangihe, Sulawesi Utara";"SULAWESI UTARA";"";"Indonesia";"";"";"";"3.6099928";"125.4908496";"https://maps.google.com/?cid=0x0:0xde9090cf60d93f3e";""
"komplek housing";"Pembangunan Perumahan";"Rumah manente";"JF9C+PWQ, Jl. Manente, Manente, Kec. Tahuna, Kabupaten Kepulauan Sangihe, Sulawesi Utara";"Kabupaten Kepulauan Sangihe, Sulawesi Utara";"SULAWESI UTARA";"";"Indonesia";"";"";"";"3.6193374";"125.472369";"https://maps.google.com/?cid=0x0:0xb63813a31f18fe23";""
"komplek housing";"komplek housing";"Kec. Tebet";"Kota Jakarta Selatan, Daerah Khusus Ibukota Jakarta";"Kota Jakarta Selatan, Daerah Khusus Ibukota Jakarta";"SULAWESI UTARA";"";"Indonesia";"";"";"";"-6.2251223";"106.8549881";"https://maps.google.com/?cid=0x0:0xd575e31c807295f9";""
"komplek housing";"komplek housing";"Sulawesi Utara 95812";"Sawang Bendar, Kec. Tahuna, Kabupaten Kepulauan Sangihe, Sulawesi Utara";"Kabupaten Kepulauan Sangihe, Sulawesi Utara";"SULAWESI UTARA";"";"Indonesia";"";"";"";"3.6100689";"125.4899246";"https://maps.google.com/?cid=0x0:0xb2f5cb5e87df0b38";""
"komplek housing";"Komplek perumahan";"Home Tumadang Kasiaheng";"JF5R+X8X, Sawang Bendar, Kec. Tahuna, Kabupaten Kepulauan Sangihe, Sulawesi Utara";"Kabupaten Kepulauan Sangihe, Sulawesi Utara";"SULAWESI UTARA";"";"Indonesia";"";"";"";"3.6099928";"125.4908496";"https://maps.google.com/?cid=0x0:0x9a2c7ef4380313f1";""
"komplek housing";"Komplek perumahan";"Perum Malahasa";"JF9G+G55, Manente, Kec. Tahuna, Kabupaten Kepulauan Sangihe, Sulawesi Utara";"Kabupaten Kepulauan Sangihe, Sulawesi Utara";"SULAWESI UTARA";"";"Indonesia";"";"";"";"3.6187538";"125.4754917";"https://maps.google.com/?cid=0x0:0x99805cf4ab9bf755";""
"komplek housing";"Komplek perumahan";"Rumah";"JFCF+RCQ, Manente, Kec. Tahuna, Kabupaten Kepulauan Sangihe, Sulawesi Utara";"Kabupaten Kepulauan Sangihe, Sulawesi Utara";"SULAWESI UTARA";"";"Indonesia";"";"";"";"3.6220903";"125.4735942";"https://maps.google.com/?cid=0x0:0x163f71c153892964";""
"komplek housing";"Area Mendaki";"Kel.Sasikome Dalope";"JF5R+X8X, Sawang Bendar, Kec. Tahuna, Kabupaten Kepulauan Sangihe, Sulawesi Utara";"Kabupaten Kepulauan Sangihe, Sulawesi Utara";"SULAWESI UTARA";"";"Indonesia";"";"";"";"3.6099928";"125.4908496";"https://maps.google.com/?cid=0x0:0x12a8ebfe20dcf9e3";""
"komplek housing";"Komplek perumahan";"Perumahan ASN";"JFR2+4VM, Kolongan Mitung, Kec. Tahuna Bar., Kabupaten Kepulauan Sangihe, Sulawesi Utara";"Kabupaten Kepulauan Sangihe, Sulawesi Utara";"SULAWESI UTARA";"";"Indonesia";"";"";"";"3.6403311";"125.4521701";"https://maps.google.com/?cid=0x0:0x70dfe32dddc0e4fb";""
"komplek housing";"Pembangunan Perumahan";"Rumah manente";"JF9C+PWQ, Jl. Manente, Manente, Kec. Tahuna, Kabupaten Kepulauan Sangihe, Sulawesi Utara";"Kabupaten Kepulauan Sangihe, Sulawesi Utara";"SULAWESI UTARA";"";"Indonesia";"";"";"";"3.6193374";"125.472369";"https://maps.google.com/?cid=0x0:0xb63813a31f18fe23";""
"komplek housing";"komplek housing";"Tahuna";"Sawang Bendar, Kec. Tahuna, Kabupaten Kepulauan Sangihe, Sulawesi Utara";"Kabupaten Kepulauan Sangihe, Sulawesi Utara";"SULAWESI UTARA";"";"Indonesia";"";"";"";"3.611106";"125.485509";"https://maps.google.com/?cid=0x0:0xac6d1c5aacbd436";""
"komplek housing";"komplek housing";"Kec. Tebet";"Kota Jakarta Selatan, Daerah Khusus Ibukota Jakarta";"Kota Jakarta Selatan, Daerah Khusus Ibukota Jakarta";"SULAWESI UTARA";"";"Indonesia";"";"";"";"-6.2251223";"106.8549881";"https://maps.google.com/?cid=0x0:0xd575e31c807295f9";""
"komplek housing";"komplek housing";"Keluarga M L";"";"";"SULAWESI UTARA";"";"Indonesia";" 082237378899";"";"";"-2.44565";"117.8888";"https://maps.google.com/?cid=0x0:0x81a40bc87bfe7a1b";""
"komplek housing";"komplek housing";"Sulawesi Utara 95813";"Sawang Bendar, Kec. Tahuna, Kabupaten Kepulauan Sangihe, Sulawesi Utara";"Kabupaten Kepulauan Sangihe, Sulawesi Utara";"SULAWESI UTARA";"";"Indonesia";"";"";"";"3.611136";"125.4935326";"https://maps.google.com/?cid=0x0:0x6fc0fd255464dafb";""
"komplek housing";"Komplek perumahan";"Perum Malahasa";"JF9G+G55, Manente, Kec. Tahuna, Kabupaten Kepulauan Sangihe, Sulawesi Utara";"Kabupaten Kepulauan Sangihe, Sulawesi Utara";"SULAWESI UTARA";"";"Indonesia";"";"";"";"3.6187538";"125.4754917";"https://maps.google.com/?cid=0x0:0x99805cf4ab9bf755";""
"komplek housing";"Komplek perumahan";"Rumah";"JFCF+RCQ, Manente, Kec. Tahuna, Kabupaten Kepulauan Sangihe, Sulawesi Utara";"Kabupaten Kepulauan Sangihe, Sulawesi Utara";"SULAWESI UTARA";"";"Indonesia";"";"";"";"3.6220903";"125.4735942";"https://maps.google.com/?cid=0x0:0x163f71c153892964";""
"komplek housing";"Komplek perumahan";"Akembuala";"JF5R+X8X, Sawang Bendar, Kec. Tahuna, Kabupaten Kepulauan Sangihe, Sulawesi Utara";"Kabupaten Kepulauan Sangihe, Sulawesi Utara";"SULAWESI UTARA";"";"Indonesia";"";"";"";"3.6099928";"125.4908496";"https://maps.google.com/?cid=0x0:0xde9090cf60d93f3e";""
"komplek housing";"Komplek perumahan";"Perumahan ASN";"JFR2+4VM, Kolongan Mitung, Kec. Tahuna Bar., Kabupaten Kepulauan Sangihe, Sulawesi Utara";"Kabupaten Kepulauan Sangihe, Sulawesi Utara";"SULAWESI UTARA";"";"Indonesia";"";"";"";"3.6403311";"125.4521701";"https://maps.google.com/?cid=0x0:0x70dfe32dddc0e4fb";""
"komplek housing";"Pembangunan Perumahan";"Rumah manente";"JF9C+PWQ, Jl. Manente, Manente, Kec. Tahuna, Kabupaten Kepulauan Sangihe, Sulawesi Utara";"Kabupaten Kepulauan Sangihe, Sulawesi Utara";"SULAWESI UTARA";"";"Indonesia";"";"";"";"3.6193374";"125.472369";"https://maps.google.com/?cid=0x0:0xb63813a31f18fe23";""
"komplek housing";"komplek housing";"Kec. Tahuna";"Kabupaten Kepulauan Sangihe, Sulawesi Utara";"Kabupaten Kepulauan Sangihe, Sulawesi Utara";"SULAWESI UTARA";"";"Indonesia";"";"";"";"3.6099928";"125.4908496";"https://maps.google.com/?cid=0x0:0xeeb4eaec90f60772";""
"komplek housing";"komplek housing";"Kec. Tebet";"Kota Jakarta Selatan, Daerah Khusus Ibukota Jakarta";"Kota Jakarta Selatan, Daerah Khusus Ibukota Jakarta";"SULAWESI UTARA";"";"Indonesia";"";"";"";"-6.2251223";"106.8549881";"https://maps.google.com/?cid=0x0:0xd575e31c807295f9";""
"komplek housing";"Kantor Pemerintah";"Rumah Dinas KPPN";"Jl. Makaampo No.45, Soataloara I, Kec. Tahuna, Kabupaten Kepulauan Sangihe, Sulawesi Utara 95813";"Soataloara I, Kec. Tahuna, Kabupaten Kepulauan Sangihe";"SULAWESI UTARA";"95813";"Indonesia";"";"";"";"3.613296";"125.4987701";"https://maps.google.com/?cid=0x0:0xef09896bea198795";""
"komplek housing";"komplek housing";"Keluarga M L";"";"";"SULAWESI UTARA";"";"Indonesia";" 082237378899";"";"";"-2.44565";"117.8888";"https://maps.google.com/?cid=0x0:0x81a40bc87bfe7a1b";""
"komplek housing";"komplek housing";"Kec. Tahuna Bar.";"Kabupaten Kepulauan Sangihe, Sulawesi Utara";"Kabupaten Kepulauan Sangihe, Sulawesi Utara";"SULAWESI UTARA";"";"Indonesia";"";"";"";"3.6391395";"125.4232867";"https://maps.google.com/?cid=0x0:0x172c70b55a90c8a3";""
"komplek housing";"Komplek perumahan";"Perum Malahasa";"JF9G+G55, Manente, Kec. Tahuna, Kabupaten Kepulauan Sangihe, Sulawesi Utara";"Kabupaten Kepulauan Sangihe, Sulawesi Utara";"SULAWESI UTARA";"";"Indonesia";"";"";"";"3.6187538";"125.4754917";"https://maps.google.com/?cid=0x0:0x99805cf4ab9bf755";""
"komplek housing";"Komplek perumahan";"Fathur Hatim Home";"Santiago, Kec. Tahuna, Kabupaten Kepulauan Sangihe, Sulawesi Utara 95811";"Kec. Tahuna, Kabupaten Kepulauan Sangihe";"SULAWESI UTARA";"95811";"Indonesia";" 081243651038";"";"";"3.6135478";"125.4664784";"https://maps.google.com/?cid=0x0:0x9d0fe4da27332d77";""
"komplek housing";"Komplek perumahan";"Lorong Senggihilang";"JFCG+XP7, Lorong Senggihilang, Manente, Kec. Tahuna, Kabupaten Kepulauan Sangihe, Sulawesi Utara 95811";"Lorong Senggihilang, Manente, Kec. Tahuna, Kabupaten Kepulauan Sangihe";"SULAWESI UTARA";"95811";"Indonesia";"";"";"";"3.6224138";"125.4768029";"https://maps.google.com/?cid=0x0:0xdb0732ec7cde6da9";""
"komplek housing";"Komplek perumahan";"Akembuala";"JF5R+X8X, Sawang Bendar, Kec. Tahuna, Kabupaten Kepulauan Sangihe, Sulawesi Utara";"Kabupaten Kepulauan Sangihe, Sulawesi Utara";"SULAWESI UTARA";"";"Indonesia";"";"";"";"3.6099928";"125.4908496";"https://maps.google.com/?cid=0x0:0xde9090cf60d93f3e";""
"komplek housing";"Komplek perumahan";"Rumah";"JFCF+RCQ, Manente, Kec. Tahuna, Kabupaten Kepulauan Sangihe, Sulawesi Utara";"Kabupaten Kepulauan Sangihe, Sulawesi Utara";"SULAWESI UTARA";"";"Indonesia";"";"";"";"3.6220903";"125.4735942";"https://maps.google.com/?cid=0x0:0x163f71c153892964";""
"komplek housing";"Pembangunan Perumahan";"Rumah manente";"JF9C+PWQ, Jl. Manente, Manente, Kec. Tahuna, Kabupaten Kepulauan Sangihe, Sulawesi Utara";"Kabupaten Kepulauan Sangihe, Sulawesi Utara";"SULAWESI UTARA";"";"Indonesia";"";"";"";"3.6193374";"125.472369";"https://maps.google.com/?cid=0x0:0xb63813a31f18fe23";""
"komplek housing";"komplek housing";"Kec. Tahuna Bar.";"Kabupaten Kepulauan Sangihe, Sulawesi Utara";"Kabupaten Kepulauan Sangihe, Sulawesi Utara";"SULAWESI UTARA";"";"Indonesia";"";"";"";"3.6391395";"125.4232867";"https://maps.google.com/?cid=0x0:0x172c70b55a90c8a3";""
"komplek housing";"Komplek perumahan";"Perum Malahasa";"JF9G+G55, Manente, Kec. Tahuna, Kabupaten Kepulauan Sangihe, Sulawesi Utara";"Kabupaten Kepulauan Sangihe, Sulawesi Utara";"SULAWESI UTARA";"";"Indonesia";"";"";"";"3.6187538";"125.4754917";"https://maps.google.com/?cid=0x0:0x99805cf4ab9bf755";""
"komplek housing";"Komplek perumahan";"Perumahan ASN";"JFR2+4VM, Kolongan Mitung, Kec. Tahuna Bar., Kabupaten Kepulauan Sangihe, Sulawesi Utara";"Kabupaten Kepulauan Sangihe, Sulawesi Utara";"SULAWESI UTARA";"";"Indonesia";"";"";"";"3.6403311";"125.4521701";"https://maps.google.com/?cid=0x0:0x70dfe32dddc0e4fb";""
"komplek housing";"Komplek perumahan";"Rumah";"JFCF+RCQ, Manente, Kec. Tahuna, Kabupaten Kepulauan Sangihe, Sulawesi Utara";"Kabupaten Kepulauan Sangihe, Sulawesi Utara";"SULAWESI UTARA";"";"Indonesia";"";"";"";"3.6220903";"125.4735942";"https://maps.google.com/?cid=0x0:0x163f71c153892964";""
"komplek housing";"Pembangunan Perumahan";"Rumah manente";"JF9C+PWQ, Jl. Manente, Manente, Kec. Tahuna, Kabupaten Kepulauan Sangihe, Sulawesi Utara";"Kabupaten Kepulauan Sangihe, Sulawesi Utara";"SULAWESI UTARA";"";"Indonesia";"";"";"";"3.6193374";"125.472369";"https://maps.google.com/?cid=0x0:0xb63813a31f18fe23";""
"komplek housing";"komplek housing";"Kec. Tahuna Bar.";"Kabupaten Kepulauan Sangihe, Sulawesi Utara";"Kabupaten Kepulauan Sangihe, Sulawesi Utara";"SULAWESI UTARA";"";"Indonesia";"";"";"";"3.6391395";"125.4232867";"https://maps.google.com/?cid=0x0:0x172c70b55a90c8a3";""
"komplek housing";"Komplek perumahan";"Perum Malahasa";"JF9G+G55, Manente, Kec. Tahuna, Kabupaten Kepulauan Sangihe, Sulawesi Utara";"Kabupaten Kepulauan Sangihe, Sulawesi Utara";"SULAWESI UTARA";"";"Indonesia";"";"";"";"3.6187538";"125.4754917";"https://maps.google.com/?cid=0x0:0x99805cf4ab9bf755";""
"komplek housing";"Komplek perumahan";"Rumah";"JFCF+RCQ, Manente, Kec. Tahuna, Kabupaten Kepulauan Sangihe, Sulawesi Utara";"Kabupaten Kepulauan Sangihe, Sulawesi Utara";"SULAWESI UTARA";"";"Indonesia";"";"";"";"3.6220903";"125.4735942";"https://maps.google.com/?cid=0x0:0x163f71c153892964";""
"komplek housing";"Pembangunan Perumahan";"Rumah manente";"JF9C+PWQ, Jl. Manente, Manente, Kec. Tahuna, Kabupaten Kepulauan Sangihe, Sulawesi Utara";"Kabupaten Kepulauan Sangihe, Sulawesi Utara";"SULAWESI UTARA";"";"Indonesia";"";"";"";"3.6193374";"125.472369";"https://maps.google.com/?cid=0x0:0xb63813a31f18fe23";""
"komplek housing";"Komplek perumahan";"Akembuala";"JF5R+X8X, Sawang Bendar, Kec. Tahuna, Kabupaten Kepulauan Sangihe, Sulawesi Utara";"Kabupaten Kepulauan Sangihe, Sulawesi Utara";"SULAWESI UTARA";"";"Indonesia";"";"";"";"3.6099928";"125.4908496";"https://maps.google.com/?cid=0x0:0xde9090cf60d93f3e";""
"komplek housing";"komplek housing";"Kec. Tahuna Bar.";"Kabupaten Kepulauan Sangihe, Sulawesi Utara";"Kabupaten Kepulauan Sangihe, Sulawesi Utara";"SULAWESI UTARA";"";"Indonesia";"";"";"";"3.6391395";"125.4232867";"https://maps.google.com/?cid=0x0:0x172c70b55a90c8a3";""
"komplek housing";"Komplek perumahan";"Perum Malahasa";"JF9G+G55, Manente, Kec. Tahuna, Kabupaten Kepulauan Sangihe, Sulawesi Utara";"Kabupaten Kepulauan Sangihe, Sulawesi Utara";"SULAWESI UTARA";"";"Indonesia";"";"";"";"3.6187538";"125.4754917";"https://maps.google.com/?cid=0x0:0x99805cf4ab9bf755";""
"komplek housing";"Komplek perumahan";"Perumahan ASN";"JFR2+4VM, Kolongan Mitung, Kec. Tahuna Bar., Kabupaten Kepulauan Sangihe, Sulawesi Utara";"Kabupaten Kepulauan Sangihe, Sulawesi Utara";"SULAWESI UTARA";"";"Indonesia";"";"";"";"3.6403311";"125.4521701";"https://maps.google.com/?cid=0x0:0x70dfe32dddc0e4fb";""
"komplek housing";"Komplek perumahan";"Rumah";"JFCF+RCQ, Manente, Kec. Tahuna, Kabupaten Kepulauan Sangihe, Sulawesi Utara";"Kabupaten Kepulauan Sangihe, Sulawesi Utara";"SULAWESI UTARA";"";"Indonesia";"";"";"";"3.6220903";"125.4735942";"https://maps.google.com/?cid=0x0:0x163f71c153892964";""
"komplek housing";"Pembangunan Perumahan";"Rumah manente";"JF9C+PWQ, Jl. Manente, Manente, Kec. Tahuna, Kabupaten Kepulauan Sangihe, Sulawesi Utara";"Kabupaten Kepulauan Sangihe, Sulawesi Utara";"SULAWESI UTARA";"";"Indonesia";"";"";"";"3.6193374";"125.472369";"https://maps.google.com/?cid=0x0:0xb63813a31f18fe23";""
"komplek housing";"komplek housing";"Sulawesi Utara 95812";"Sawang Bendar, Kec. Tahuna, Kabupaten Kepulauan Sangihe, Sulawesi Utara";"Kabupaten Kepulauan Sangihe, Sulawesi Utara";"SULAWESI UTARA";"";"Indonesia";"";"";"";"3.6100689";"125.4899246";"https://maps.google.com/?cid=0x0:0xb2f5cb5e87df0b38";""
"komplek housing";"Komplek perumahan";"Home Tumadang Kasiaheng";"JF5R+X8X, Sawang Bendar, Kec. Tahuna, Kabupaten Kepulauan Sangihe, Sulawesi Utara";"Kabupaten Kepulauan Sangihe, Sulawesi Utara";"SULAWESI UTARA";"";"Indonesia";"";"";"";"3.6099928";"125.4908496";"https://maps.google.com/?cid=0x0:0x9a2c7ef4380313f1";""
"komplek housing";"Komplek perumahan";"Akembuala";"JF5R+X8X, Sawang Bendar, Kec. Tahuna, Kabupaten Kepulauan Sangihe, Sulawesi Utara";"Kabupaten Kepulauan Sangihe, Sulawesi Utara";"SULAWESI UTARA";"";"Indonesia";"";"";"";"3.6099928";"125.4908496";"https://maps.google.com/?cid=0x0:0xde9090cf60d93f3e";""
"komplek housing";"Komplek perumahan";"Tona";"JG35+C2Q RRI tona, Tona I, Kec. Tahuna Tim., Kabupaten Kepulauan Sangihe, Sulawesi Utara";"Kabupaten Kepulauan Sangihe, Sulawesi Utara";"SULAWESI UTARA";"";"Indonesia";"";"";"";"3.6035769";"125.5076003";"https://maps.google.com/?cid=0x0:0xef8c674a97a7b471";""
"komplek housing";"komplek housing";"Kec. Tahuna Tim.";"Kabupaten Kepulauan Sangihe, Sulawesi Utara";"Kabupaten Kepulauan Sangihe, Sulawesi Utara";"SULAWESI UTARA";"";"Indonesia";"";"";"";"3.6107787";"125.5084379";"https://maps.google.com/?cid=0x0:0x12910a813072e8b9";""
"komplek housing";"komplek housing";"Keluarga M L";"";"";"SULAWESI UTARA";"";"Indonesia";" 082237378899";"";"";"-2.44565";"117.8888";"https://maps.google.com/?cid=0x0:0x81a40bc87bfe7a1b";""
"komplek housing";"komplek housing";"Kec. Tahuna Tim.";"Kabupaten Kepulauan Sangihe, Sulawesi Utara";"Kabupaten Kepulauan Sangihe, Sulawesi Utara";"SULAWESI UTARA";"";"Indonesia";"";"";"";"3.6107787";"125.5084379";"https://maps.google.com/?cid=0x0:0x12910a813072e8b9";""
"komplek housing";"Komplek perumahan";"Perum Malahasa";"JF9G+G55, Manente, Kec. Tahuna, Kabupaten Kepulauan Sangihe, Sulawesi Utara";"Kabupaten Kepulauan Sangihe, Sulawesi Utara";"SULAWESI UTARA";"";"Indonesia";"";"";"";"3.6187538";"125.4754917";"https://maps.google.com/?cid=0x0:0x99805cf4ab9bf755";""
"komplek housing";"Komplek perumahan";"Tona";"JG35+C2Q RRI tona, Tona I, Kec. Tahuna Tim., Kabupaten Kepulauan Sangihe, Sulawesi Utara";"Kabupaten Kepulauan Sangihe, Sulawesi Utara";"SULAWESI UTARA";"";"Indonesia";"";"";"";"3.6035769";"125.5076003";"https://maps.google.com/?cid=0x0:0xef8c674a97a7b471";""
"komplek housing";"Komplek perumahan";"Rumah";"JFCF+RCQ, Manente, Kec. Tahuna, Kabupaten Kepulauan Sangihe, Sulawesi Utara";"Kabupaten Kepulauan Sangihe, Sulawesi Utara";"SULAWESI UTARA";"";"Indonesia";"";"";"";"3.6220903";"125.4735942";"https://maps.google.com/?cid=0x0:0x163f71c153892964";""
"komplek housing";"Sekolah";"DINAS PERUMAHAN RAKYAT DAN KAWASAN PERMUKIMAN SERTA PERTANAHAN DAERAH";"JG55+W43, Tona II, Kec. Tahuna Tim., Kabupaten Kepulauan Sangihe, Sulawesi Utara";"Kabupaten Kepulauan Sangihe, Sulawesi Utara";"SULAWESI UTARA";"";"Indonesia";"";"";"";"3.6097339";"125.5083904";"https://maps.google.com/?cid=0x0:0x855992110d85c472";""
"komplek housing";"Pembangunan Perumahan";"Rumah manente";"JF9C+PWQ, Jl. Manente, Manente, Kec. Tahuna, Kabupaten Kepulauan Sangihe, Sulawesi Utara";"Kabupaten Kepulauan Sangihe, Sulawesi Utara";"SULAWESI UTARA";"";"Indonesia";"";"";"";"3.6193374";"125.472369";"https://maps.google.com/?cid=0x0:0xb63813a31f18fe23";""
"komplek housing";"komplek housing";"Kec. Tahuna Tim.";"Kabupaten Kepulauan Sangihe, Sulawesi Utara";"Kabupaten Kepulauan Sangihe, Sulawesi Utara";"SULAWESI UTARA";"";"Indonesia";"";"";"";"3.6107787";"125.5084379";"https://maps.google.com/?cid=0x0:0x12910a813072e8b9";""
"komplek housing";"Kantor Perusahaan";"PERUMAHAN PLN III";"Perumahan PLN III ENERATU, Tona II, Kec. Tahuna Tim., Kabupaten Kepulauan Sangihe, Sulawesi Utara 95815";"Tona II, Kec. Tahuna Tim., Kabupaten Kepulauan Sangihe";"SULAWESI UTARA";"95815";"Indonesia";"";"";"";"3.6117471";"125.5093734";"https://maps.google.com/?cid=0x0:0xee50c334c5f87ab6";""
"komplek housing";"Komplek perumahan";"Tona";"JG35+C2Q RRI tona, Tona I, Kec. Tahuna Tim., Kabupaten Kepulauan Sangihe, Sulawesi Utara";"Kabupaten Kepulauan Sangihe, Sulawesi Utara";"SULAWESI UTARA";"";"Indonesia";"";"";"";"3.6035769";"125.5076003";"https://maps.google.com/?cid=0x0:0xef8c674a97a7b471";""
"komplek housing";"komplek housing";"Kec. Tahuna Tim.";"Kabupaten Kepulauan Sangihe, Sulawesi Utara";"Kabupaten Kepulauan Sangihe, Sulawesi Utara";"SULAWESI UTARA";"";"Indonesia";"";"";"";"3.6107787";"125.5084379";"https://maps.google.com/?cid=0x0:0x12910a813072e8b9";""
"komplek housing";"Komplek perumahan";"Perum Malahasa";"JF9G+G55, Manente, Kec. Tahuna, Kabupaten Kepulauan Sangihe, Sulawesi Utara";"Kabupaten Kepulauan Sangihe, Sulawesi Utara";"SULAWESI UTARA";"";"Indonesia";"";"";"";"3.6187538";"125.4754917";"https://maps.google.com/?cid=0x0:0x99805cf4ab9bf755";""
"komplek housing";"Komplek perumahan";"Tona";"JG35+C2Q RRI tona, Tona I, Kec. Tahuna Tim., Kabupaten Kepulauan Sangihe, Sulawesi Utara";"Kabupaten Kepulauan Sangihe, Sulawesi Utara";"SULAWESI UTARA";"";"Indonesia";"";"";"";"3.6035769";"125.5076003";"https://maps.google.com/?cid=0x0:0xef8c674a97a7b471";""
"komplek housing";"Komplek perumahan";"Perumahan ASN";"JFR2+4VM, Kolongan Mitung, Kec. Tahuna Bar., Kabupaten Kepulauan Sangihe, Sulawesi Utara";"Kabupaten Kepulauan Sangihe, Sulawesi Utara";"SULAWESI UTARA";"";"Indonesia";"";"";"";"3.6403311";"125.4521701";"https://maps.google.com/?cid=0x0:0x70dfe32dddc0e4fb";""
"komplek housing";"Sekolah";"DINAS PERUMAHAN RAKYAT DAN KAWASAN PERMUKIMAN SERTA PERTANAHAN DAERAH";"JG55+W43, Tona II, Kec. Tahuna Tim., Kabupaten Kepulauan Sangihe, Sulawesi Utara";"Kabupaten Kepulauan Sangihe, Sulawesi Utara";"SULAWESI UTARA";"";"Indonesia";"";"";"";"3.6097339";"125.5083904";"https://maps.google.com/?cid=0x0:0x855992110d85c472";""
"komplek housing";"Komplek perumahan";"Rumah";"JFCF+RCQ, Manente, Kec. Tahuna, Kabupaten Kepulauan Sangihe, Sulawesi Utara";"Kabupaten Kepulauan Sangihe, Sulawesi Utara";"SULAWESI UTARA";"";"Indonesia";"";"";"";"3.6220903";"125.4735942";"https://maps.google.com/?cid=0x0:0x163f71c153892964";""
"komplek housing";"Toko Komputer";"G3TFixed Service";"Komplek Telkom, Jln. Buas No.76, RT.03, Kabupaten Kepulauan Sangihe, Sulawesi Utara 95816";"Jln. Buas No.76, RT.03, Kabupaten Kepulauan Sangihe";"SULAWESI UTARA";"95816";"Indonesia";" 082292784831";"";"";"3.6118839";"125.5039441";"https://maps.google.com/?cid=0x0:0x569de8694725132";""
"komplek housing";"Pembangunan Perumahan";"Rumah manente";"JF9C+PWQ, Jl. Manente, Manente, Kec. Tahuna, Kabupaten Kepulauan Sangihe, Sulawesi Utara";"Kabupaten Kepulauan Sangihe, Sulawesi Utara";"SULAWESI UTARA";"";"Indonesia";"";"";"";"3.6193374";"125.472369";"https://maps.google.com/?cid=0x0:0xb63813a31f18fe23";""
"komplek housing";"komplek housing";"Tamako";"Pokol, Tamako, Kabupaten Kepulauan Sangihe, Sulawesi Utara";"Kabupaten Kepulauan Sangihe, Sulawesi Utara";"SULAWESI UTARA";"";"Indonesia";"";"";"";"3.457318";"125.512815";"https://maps.google.com/?cid=0x0:0xc351e5c82bb74d45";""
"komplek housing";"komplek housing";"Kec. Tebet";"Kota Jakarta Selatan, Daerah Khusus Ibukota Jakarta";"Kota Jakarta Selatan, Daerah Khusus Ibukota Jakarta";"SULAWESI UTARA";"";"Indonesia";"";"";"";"-6.2251223";"106.8549881";"https://maps.google.com/?cid=0x0:0xd575e31c807295f9";""
"komplek housing";"Komplek perumahan";"Arkamaya Residence Perumahan Ciputat";"Jl. RE Martadinata No.13, Pd. Cabe Udik, Kec. Pamulang, Kota Tangerang Selatan, Banten 15418";"Pd. Cabe Udik, Kec. Pamulang, Kota Tangerang Selatan";"SULAWESI UTARA";"15418";"Indonesia";" 081119999252";"";"";"-6.3457757";"106.7501132";"https://maps.google.com/?cid=0x0:0xf3f94694df30463e";""
"komplek housing";"Komplek perumahan";"Perumahan Alamanda Regency";"BLOK B1, Jl. Perumahan Taman Alamanda, Karangsatria, Kec. Tambun Utara, Kabupaten Bekasi, Jawa Barat 17510";"Jl. Perumahan Taman Alamanda, Karangsatria, Kec. Tambun Utara, Kabupaten Bekasi";"SULAWESI UTARA";"17510";"Indonesia";"";"";"";"-6.2201416";"107.0446584";"https://maps.google.com/?cid=0x0:0x7f30fe8df1022015";""
"komplek housing";"Komplek perumahan";"Perumahan Puri Cendana";"Q389+J4X, Grand, Jl. Semeru Raya, Sumberjaya, Kec. Tambun Sel., Kabupaten Bekasi, Jawa Barat 17510";"Grand, Jl. Semeru Raya, Sumberjaya, Kec. Tambun Sel., Kabupaten Bekasi";"SULAWESI UTARA";"17510";"Indonesia";"";"";"";"-6.233377";"107.0678622";"https://maps.google.com/?cid=0x0:0x4024173714fa4c9f";""
"komplek housing";"Komplek perumahan";"Cluster Lavender";"Jl. Desa Klari No.2-11, Klari, Kec. Klari, Karawang, Jawa Barat 41371";"Klari, Kec. Klari, Karawang";"SULAWESI UTARA";"41371";"Indonesia";"";"";"";"-6.3392627";"107.3577366";"https://maps.google.com/?cid=0x0:0x2d1f36569d82574f";""
"komplek housing";"Komplek perumahan";"Perumahan Bumi Bhayangkara";"Q3PF+86G, Jejalenjaya, Kec. Tambun Utara, Kabupaten Bekasi, Jawa Barat 17510";"Jejalenjaya, Kec. Tambun Utara, Kabupaten Bekasi";"SULAWESI UTARA";"17510";"Indonesia";"";"";"";"-6.2141934";"107.0730779";"https://maps.google.com/?cid=0x0:0xcde749e1f6220357";""
"komplek housing";"Komplek perumahan";"Cluster Delima Residence Sumberjaya";"Jl. Pesona Raya, Sumberjaya, Kec. Tambun Sel., Kabupaten Bekasi, Jawa Barat 17510";"Sumberjaya, Kec. Tambun Sel., Kabupaten Bekasi";"SULAWESI UTARA";"17510";"Indonesia";" 081288840090";"";"";"-6.2189044";"107.074914";"https://maps.google.com/?cid=0x0:0xe61d39cecc818202";""
"komplek housing";"Otoritas Perumahan";"Perum Cluster Rajeg City Mansion (RCM)";"Rajeg Mulya, Kec. Rajeg, Kabupaten Tangerang, Banten";"Kabupaten Tangerang, Banten";"SULAWESI UTARA";"";"Indonesia";"";"";"";"-6.1114733";"106.539408";"https://maps.google.com/?cid=0x0:0x6f1d4ed9b22ba5d8";""
"komplek housing";"Perusahaan investasi properti";"Perumahan Grand Cikarang City 2";"Perumahan Grand Cikarang City 2 (GCC2, Kedungwaringin, Bekasi Regency, West Java 17540";"Kedungwaringin, Bekasi Regency";"SULAWESI UTARA";"17540";"Indonesia";" 085711892520";"";"";"-6.2548368";"107.2682915";"https://maps.google.com/?cid=0x0:0x66492a1c1a8e7f0d";""
"komplek housing";"komplek housing";"Komplek Housing";"Blok Bojong Nangka I, Jl. Ring Rudal Blok Bojong Nangka I No.68, RT.001/RW.007, Jatirahayu, Kec. Pd. Melati, Kota Bks, Jawa Barat 17414";"Jl. Ring Rudal Blok Bojong Nangka I No.68, RT.001/RW.007, Jatirahayu, Kec. Pd. Melati, Kota Bks";"SULAWESI UTARA";"17414";"Indonesia";"";"";"";"-6.293724";"106.9165114";"https://maps.google.com/?cid=0x0:0x9c50464976dee674";""
"komplek housing";"komplek housing";"Kec. Tatoareng";"Kabupaten Kepulauan Sangihe, Sulawesi Utara";"Kabupaten Kepulauan Sangihe, Sulawesi Utara";"SULAWESI UTARA";"";"Indonesia";"";"";"";"3.2525762";"125.460962";"https://maps.google.com/?cid=0x0:0x4030bfbcaf78970";""
"perumahan";"perumahan";"Kendahe";"Kabupaten Kepulauan Sangihe, Sulawesi Utara";"Kabupaten Kepulauan Sangihe, Sulawesi Utara";"SULAWESI UTARA";"";"Indonesia";"";"";"";"3.7121105";"125.4233987";"https://maps.google.com/?cid=0x0:0x86c5529cf19759d";""
"perumahan";"Komplek perumahan";"Rumah Yanita🏠";"PFM2+VXC, Kalasuge, Kendahe, Kabupaten Kepulauan Sangihe, Sulawesi Utara";"Kabupaten Kepulauan Sangihe, Sulawesi Utara";"SULAWESI UTARA";"";"Indonesia";"";"";"";"3.7350054";"125.4524581";"https://maps.google.com/?cid=0x0:0x8632c2313d510b91";""
"perumahan";"Komplek perumahan";"Rumah nofita gaghana";"PFM2+W4H, Kalasuge, Kendahe, Kabupaten Kepulauan Sangihe, Sulawesi Utara";"Kabupaten Kepulauan Sangihe, Sulawesi Utara";"SULAWESI UTARA";"";"Indonesia";"";"";"";"3.7348198";"125.4503592";"https://maps.google.com/?cid=0x0:0xfbbb7a14ffcd91b3";""
"perumahan";"Komplek perumahan";"Rumah AfnySalur";"M9MX+CQJ, Kendahe II, Kendahe, Kabupaten Kepulauan Sangihe, Sulawesi Utara";"Kabupaten Kepulauan Sangihe, Sulawesi Utara";"SULAWESI UTARA";"";"Indonesia";"";"";"";"3.683595";"125.3993971";"https://maps.google.com/?cid=0x0:0xd2b3d791cd07057d";""
"perumahan";"Komplek perumahan";"jmz home";"PCPX+5V2, Mohongsawang, Kendahe, Kabupaten Kepulauan Sangihe, Sulawesi Utara";"Kabupaten Kepulauan Sangihe, Sulawesi Utara";"SULAWESI UTARA";"";"Indonesia";"";"";"";"3.735615";"125.449007";"https://maps.google.com/?cid=0x0:0x744fc97b14a59c78";""
"perumahan";"Komplek perumahan";"Serina Home";"PFP2+3FF, Kalasuge, Kendahe, Kabupaten Kepulauan Sangihe, Sulawesi Utara";"Kabupaten Kepulauan Sangihe, Sulawesi Utara";"SULAWESI UTARA";"";"Indonesia";"";"";"";"3.7351849";"125.4511674";"https://maps.google.com/?cid=0x0:0xe41e53ee17151ca3";""
"perumahan";"Tujuan Wisata";"Tugu Selamat Datang Di Kendahe";"MCJ2+GX, Kendahe II, Kendahe, Kabupaten Kepulauan Sangihe, Sulawesi Utara";"Kabupaten Kepulauan Sangihe, Sulawesi Utara";"SULAWESI UTARA";"";"Indonesia";"";"";"";"3.6813246";"125.4024652";"https://maps.google.com/?cid=0x0:0x8b1202cf9b79496b";""
"perumahan";"Komplek perumahan";"Rumah geboy";"MCQ2+CPC, Kendahe I, Kendahe, Kabupaten Kepulauan Sangihe, Sulawesi Utara";"Kabupaten Kepulauan Sangihe, Sulawesi Utara";"SULAWESI UTARA";"";"Indonesia";"";"";"";"3.6871317";"125.402291";"https://maps.google.com/?cid=0x0:0x213113992eda5373";""
"perumahan";"Komplek perumahan";"Macpal Binalai";"PC96+5FM, Tarianglama, Kendahe, Kabupaten Kepulauan Sangihe, Sulawesi Utara";"Kabupaten Kepulauan Sangihe, Sulawesi Utara";"SULAWESI UTARA";"";"Indonesia";"";"";"";"3.7179653";"125.4111581";"https://maps.google.com/?cid=0x0:0x3b2785ecf80a6a67";""
"perumahan";"Komplek perumahan";"Rumah Sukma durumias";"MCJ3+M53, Kendahe II, Kendahe, Kabupaten Kepulauan Sangihe, Sulawesi Utara";"Kabupaten Kepulauan Sangihe, Sulawesi Utara";"SULAWESI UTARA";"";"Indonesia";"";"";"";"3.6816331";"125.4029139";"https://maps.google.com/?cid=0x0:0x4e56856ebdf9658c";""
"perumahan";"Komplek perumahan";"Anti Home";"PCFP+V32, Pempalaraeng, Kendahe, Kabupaten Kepulauan Sangihe, Sulawesi Utara";"Kabupaten Kepulauan Sangihe, Sulawesi Utara";"SULAWESI UTARA";"";"Indonesia";"";"";"";"3.7246456";"125.4351293";"https://maps.google.com/?cid=0x0:0x72cdadcc34ab638";""
"perumahan";"Komplek perumahan";"Putri house";"MCRH+8HC, Kendahe I, Kendahe, Kabupaten Kepulauan Sangihe, Sulawesi Utara";"Kabupaten Kepulauan Sangihe, Sulawesi Utara";"SULAWESI UTARA";"";"Indonesia";"";"";"";"3.6908083";"125.4288797";"https://maps.google.com/?cid=0x0:0xc6633973c021cba8";""
"perumahan";"Komplek perumahan";"Rumah Lasug";"PFM2+W4H, Kalasuge, Kendahe, Kabupaten Kepulauan Sangihe, Sulawesi Utara";"Kabupaten Kepulauan Sangihe, Sulawesi Utara";"SULAWESI UTARA";"";"Indonesia";"";"";"";"3.7353303";"125.4497444";"https://maps.google.com/?cid=0x0:0xd8ccacaff7a7f38b";""
"perumahan";"Komplek perumahan";"Acel home";"MCQ2+RGV, Kendahe I, Kendahe, Kabupaten Kepulauan Sangihe, Sulawesi Utara";"Kabupaten Kepulauan Sangihe, Sulawesi Utara";"SULAWESI UTARA";"";"Indonesia";"";"";"";"3.689622";"125.401312";"https://maps.google.com/?cid=0x0:0xc8d1a550abb19ba4";""
"perumahan";"Komplek perumahan";"Opo Yush";"M9QX+WR6, Kendahe II, Kendahe, Kabupaten Kepulauan Sangihe, Sulawesi Utara";"Kabupaten Kepulauan Sangihe, Sulawesi Utara";"SULAWESI UTARA";"";"Indonesia";"";"";"";"3.6897819";"125.3995086";"https://maps.google.com/?cid=0x0:0x722c8f6afda32828";""
"perumahan";"perumahan";"Rumah Rasya";"PC7G+JFJ, Tarianglama, Kendahe, Kabupaten Kepulauan Sangihe, Sulawesi Utara";"Kabupaten Kepulauan Sangihe, Sulawesi Utara";"SULAWESI UTARA";"";"Indonesia";"";"";"";"3.7140902";"125.4261392";"https://maps.google.com/?cid=0x0:0xcc981b64739fea4f";""
"perumahan";"Komplek perumahan";"Rumah Athalia Madonsa";"PCC8+27, Tarianglama, Kendahe, Kabupaten Kepulauan Sangihe, Sulawesi Utara";"Kabupaten Kepulauan Sangihe, Sulawesi Utara";"SULAWESI UTARA";"";"Indonesia";"";"";"";"3.7200971";"125.415683";"https://maps.google.com/?cid=0x0:0xfe8a0273b3d4f796";""
"perumahan";"Komplek perumahan";"Rumah Ririn";"MCR2+992, Kendahe I, Kendahe, Kabupaten Kepulauan Sangihe, Sulawesi Utara";"Kabupaten Kepulauan Sangihe, Sulawesi Utara";"SULAWESI UTARA";"";"Indonesia";"";"";"";"3.6908961";"125.4008859";"https://maps.google.com/?cid=0x0:0xaa32dcd4f8c90d7d";""
"perumahan";"Komplek perumahan";"Rumah Deycrysya Sagemba";"PCC7+29C, Tarianglama, Kendahe, Kabupaten Kepulauan Sangihe, Sulawesi Utara";"Kabupaten Kepulauan Sangihe, Sulawesi Utara";"SULAWESI UTARA";"";"Indonesia";"";"";"";"3.7201058";"125.4133877";"https://maps.google.com/?cid=0x0:0xf04cfe149ab2d3de";""
"perumahan";"Komplek perumahan";"Gerald home";"PFG3+5CM, Mohongsawang, Kendahe, Kabupaten Kepulauan Sangihe, Sulawesi Utara";"Kabupaten Kepulauan Sangihe, Sulawesi Utara";"SULAWESI UTARA";"";"Indonesia";"";"";"";"3.7254619";"125.4535399";"https://maps.google.com/?cid=0x0:0x32f37a6c155843e4";""
"perumahan";"Komplek perumahan";"Binalai Sahentombage";"PC96+MJC, Tarianglama, Kendahe, Kabupaten Kepulauan Sangihe, Sulawesi Utara";"Kabupaten Kepulauan Sangihe, Sulawesi Utara";"SULAWESI UTARA";"";"Indonesia";"";"";"";"3.7199509";"125.4105697";"https://maps.google.com/?cid=0x0:0x3c0b213a67fa2d8f";""
"perumahan";"Pembangunan Perumahan";"Dexter hone";"MCQ2+QX9, Kendahe I, Kendahe, Kabupaten Kepulauan Sangihe, Sulawesi Utara";"Kabupaten Kepulauan Sangihe, Sulawesi Utara";"SULAWESI UTARA";"";"Indonesia";"";"";"";"3.6892613";"125.4029137";"https://maps.google.com/?cid=0x0:0x9bf329ccb8994e3f";""
"perumahan";"Kantor Pemerintah";"Perumahan Pegawai No. 01";"JCHM+RWP, Kolongan Mitung, Kec. Tahuna Bar., Kabupaten Kepulauan Sangihe, Sulawesi Utara";"Kabupaten Kepulauan Sangihe, Sulawesi Utara";"SULAWESI UTARA";"";"Indonesia";" 082292276846";"";"";"3.6295851";"125.43484";"https://maps.google.com/?cid=0x0:0x27f677af0f6f2720";""
"perumahan";"Komplek perumahan";"Rumah, Kel: Makatulung - Kobis";"PFJ3+V62, Mohongsawang, Kendahe, Kabupaten Kepulauan Sangihe, Sulawesi Utara";"Kabupaten Kepulauan Sangihe, Sulawesi Utara";"SULAWESI UTARA";"";"Indonesia";"";"";"";"3.7321432";"125.4530187";"https://maps.google.com/?cid=0x0:0x84fe93de2915236f";""
"perumahan";"perumahan";"Kepulauan Marore";"Kabupaten Kepulauan Sangihe, Sulawesi Utara";"Kabupaten Kepulauan Sangihe, Sulawesi Utara";"SULAWESI UTARA";"";"Indonesia";"";"";"";"4.6413429";"125.6259517";"https://maps.google.com/?cid=0x0:0x3a2e9dfaedbd16ca";""
"perumahan";"perumahan";"Marore";"Kepulauan Marore, Kabupaten Kepulauan Sangihe, Sulawesi Utara";"Kabupaten Kepulauan Sangihe, Sulawesi Utara";"SULAWESI UTARA";"";"Indonesia";"";"";"";"4.73634";"125.5083136";"https://maps.google.com/?cid=0x0:0xfbbf911ee622acce";""
"perumahan";"perumahan";"Pastori GMIST Imanuel Marore";"PFHH+RF6, Marore, Kepulauan Marore, Kabupaten Kepulauan Sangihe, Sulawesi Utara";"Kabupaten Kepulauan Sangihe, Sulawesi Utara";"SULAWESI UTARA";"";"Indonesia";"";"";"";"4.7295254";"125.4786339";"https://maps.google.com/?cid=0x0:0xbf7f94e3cda1d0f8";""
"perumahan";"perumahan";"Kec. Manganitu";"Kabupaten Kepulauan Sangihe, Sulawesi Utara";"Kabupaten Kepulauan Sangihe, Sulawesi Utara";"SULAWESI UTARA";"";"Indonesia";"";"";"";"3.5693016";"125.512093";"https://maps.google.com/?cid=0x0:0xc130a69c6e159c08";""
"perumahan";"Komplek perumahan";"MABES SMC";"HGX5+VQ3, Tapuang, Kec. Tahuna Tim., Kabupaten Kepulauan Sangihe, Sulawesi Utara";"Kabupaten Kepulauan Sangihe, Sulawesi Utara";"SULAWESI UTARA";"";"Indonesia";"";"";"";"3.5997717";"125.509228";"https://maps.google.com/?cid=0x0:0x6541fa82e6450bac";""
"perumahan";"Pembangunan Perumahan";"RDG";"HG78+2PG, Mala, Kec. Manganitu, Kabupaten Kepulauan Sangihe, Sulawesi Utara";"Kabupaten Kepulauan Sangihe, Sulawesi Utara";"SULAWESI UTARA";"";"Indonesia";"";"";"";"3.5626268";"125.5170862";"https://maps.google.com/?cid=0x0:0x63ee589f962cc5b0";""
"perumahan";"Komplek perumahan";"Meysirlia Home";"HGC8+8P5, Taloarane, Kec. Manganitu, Kabupaten Kepulauan Sangihe, Sulawesi Utara";"Kabupaten Kepulauan Sangihe, Sulawesi Utara";"SULAWESI UTARA";"";"Indonesia";"";"";"";"3.5707113";"125.5169411";"https://maps.google.com/?cid=0x0:0x24af120dbd879fe5";""
"perumahan";"Komplek perumahan";"Mangsunaung";"HG86+RP6, Mala, Kec. Manganitu, Kabupaten Kepulauan Sangihe, Sulawesi Utara";"Kabupaten Kepulauan Sangihe, Sulawesi Utara";"SULAWESI UTARA";"";"Indonesia";"";"";"";"3.5670448";"125.5117768";"https://maps.google.com/?cid=0x0:0x3c4552c3a1bbdacd";""
"perumahan";"Komplek perumahan";"Rumah Delon";"HGG3+W59, Bakalaeng, Kec. Manganitu, Kabupaten Kepulauan Sangihe, Sulawesi Utara";"Kabupaten Kepulauan Sangihe, Sulawesi Utara";"SULAWESI UTARA";"";"Indonesia";"";"";"";"3.5772927";"125.5029832";"https://maps.google.com/?cid=0x0:0xd8fb0e7af60ff011";""
"perumahan";"perumahan";"The House Of Barahama";"HG87+X73, Taloarane I, Kec. Manganitu, Kabupaten Kepulauan Sangihe, Sulawesi Utara";"Kabupaten Kepulauan Sangihe, Sulawesi Utara";"SULAWESI UTARA";"";"Indonesia";"";"";"";"3.5673907";"125.5131788";"https://maps.google.com/?cid=0x0:0xef39c0f9d320d5df";""
"perumahan";"Komplek perumahan";"Fransisco Dalawir";"GFVX+RQX, Karatung II, Kec. Manganitu, Kabupaten Kepulauan Sangihe, Sulawesi Utara";"Kabupaten Kepulauan Sangihe, Sulawesi Utara";"SULAWESI UTARA";"";"Indonesia";"";"";"";"3.5446172";"125.4994698";"https://maps.google.com/?cid=0x0:0x5356592af5b44c3f";""
"perumahan";"Komplek perumahan";"RikoTakaonselang";"GFRX+FW, Karatung II, Kec. Manganitu, Kabupaten Kepulauan Sangihe, Sulawesi Utara";"Kabupaten Kepulauan Sangihe, Sulawesi Utara";"SULAWESI UTARA";"";"Indonesia";"";"";"";"3.5411444";"125.4998021";"https://maps.google.com/?cid=0x0:0x99846edc231195f3";""
"perumahan";"Perumahan";"Dream Place";"HFHV+R73, Tawoali, Kec. Manganitu, Kabupaten Kepulauan Sangihe, Sulawesi Utara";"Kabupaten Kepulauan Sangihe, Sulawesi Utara";"SULAWESI UTARA";"";"Indonesia";"";"";"";"3.5795059";"125.4931583";"https://maps.google.com/?cid=0x0:0xd9fc68070f26776f";""
"perumahan";"Komplek perumahan";"Egi Home";"GGV2+V58, Karatung II, Kec. Manganitu, Kabupaten Kepulauan Sangihe, Sulawesi Utara";"Kabupaten Kepulauan Sangihe, Sulawesi Utara";"SULAWESI UTARA";"";"Indonesia";"";"";"";"3.5446888";"125.499685";"https://maps.google.com/?cid=0x0:0xb42bfa8d218e0f0";""
"perumahan";"Komplek perumahan";"Rumah ROI TAKASABARE";"GFGW+W9C, Kauhis, Kec. Manganitu, Kabupaten Kepulauan Sangihe, Sulawesi Utara";"Kabupaten Kepulauan Sangihe, Sulawesi Utara";"SULAWESI UTARA";"";"Indonesia";"";"";"";"3.5273228";"125.4959058";"https://maps.google.com/?cid=0x0:0xf5127df53a6278be";""
"perumahan";"Pembangunan Perumahan";"Kel. Letunggamu Manumpil";"HG88+77P, Mala, Kec. Manganitu, Kabupaten Kepulauan Sangihe, Sulawesi Utara";"Kabupaten Kepulauan Sangihe, Sulawesi Utara";"SULAWESI UTARA";"";"Indonesia";"";"";"";"3.5660145";"125.5163396";"https://maps.google.com/?cid=0x0:0xdc9d5a49e2a7ce77";""
"perumahan";"Komplek perumahan";"Rumah Raja Manganitu";"HG89+938, Taloarane I, Kec. Manganitu, Kabupaten Kepulauan Sangihe, Sulawesi Utara";"Kabupaten Kepulauan Sangihe, Sulawesi Utara";"SULAWESI UTARA";"";"Indonesia";"";"";"";"3.5659151";"125.5177055";"https://maps.google.com/?cid=0x0:0x4e67d14d5a2b2bfa";""
"perumahan";"Komplek perumahan";"SINADIA-LAHEA";"GGW2+758, Karatung II, Kec. Manganitu, Kabupaten Kepulauan Sangihe, Sulawesi Utara";"Kabupaten Kepulauan Sangihe, Sulawesi Utara";"SULAWESI UTARA";"";"Indonesia";"";"";"";"3.5458323";"125.5004532";"https://maps.google.com/?cid=0x0:0xa5eb06da2eb67fca";""
"perumahan";"Komplek perumahan";"Janita Betelambung";"HG23+96P, Karatung I, Kec. Manganitu, Kabupaten Kepulauan Sangihe, Sulawesi Utara";"Kabupaten Kepulauan Sangihe, Sulawesi Utara";"SULAWESI UTARA";"";"Indonesia";"";"";"";"3.551573";"125.5035329";"https://maps.google.com/?cid=0x0:0x5d8d3b398ed2c54c";""
"perumahan";"Komplek perumahan";"Miranty Home";"HGCM+H67, Manumpitaeng, Kec. Manganitu, Kabupaten Kepulauan Sangihe, Sulawesi Utara";"Kabupaten Kepulauan Sangihe, Sulawesi Utara";"SULAWESI UTARA";"";"Indonesia";"";"";"";"3.571403";"125.5330487";"https://maps.google.com/?cid=0x0:0x13e8a3868896af5e";""
"perumahan";"Komplek perumahan";"Intan Lumasuge";"GFVW+QW4, Karatung II, Kec. Manganitu, Kabupaten Kepulauan Sangihe, Sulawesi Utara";"Kabupaten Kepulauan Sangihe, Sulawesi Utara";"SULAWESI UTARA";"";"Indonesia";"";"";"";"3.5456934";"125.4974748";"https://maps.google.com/?cid=0x0:0x4a9ef7c58160014";""
"perumahan";"Komplek perumahan";"FRH";"HG98+JMP, Taloarane, Kec. Manganitu, Kabupaten Kepulauan Sangihe, Sulawesi Utara";"Kabupaten Kepulauan Sangihe, Sulawesi Utara";"SULAWESI UTARA";"";"Indonesia";"";"";"";"3.5690968";"125.5166963";"https://maps.google.com/?cid=0x0:0x73edb40e4a8ef88c";""
"perumahan";"Komplek perumahan";"Kampung Gunung ( Manganitu,Gunung )";"HGMV+GMX, Gunung, Kec. Tabukan Tengah, Kabupaten Kepulauan Sangihe, Sulawesi Utara";"Kabupaten Kepulauan Sangihe, Sulawesi Utara";"SULAWESI UTARA";"";"Indonesia";"";"";"";"3.5838587";"125.5442439";"https://maps.google.com/?cid=0x0:0x2f4b528defe922e8";""
"perumahan";"Pembangunan Perumahan";"Freelance Mangsunaung";"Barangka, Kec. Manganitu, Kabupaten Kepulauan Sangihe, Sulawesi Utara";"Kabupaten Kepulauan Sangihe, Sulawesi Utara";"SULAWESI UTARA";"";"Indonesia";" 08125331263";"";"";"3.5678573";"125.5129486";"https://maps.google.com/?cid=0x0:0xe2fdcc188bcd211a";""
"perumahan";"Komplek perumahan";"Rumah Pak Gerarard Kasombang";"GGXF+PF, Hiung, Kec. Manganitu, Kabupaten Kepulauan Sangihe, Sulawesi Utara";"Kabupaten Kepulauan Sangihe, Sulawesi Utara";"SULAWESI UTARA";"";"Indonesia";"";"";"";"3.5492768";"125.5237397";"https://maps.google.com/?cid=0x0:0x9390b37eebd49ae6";""
"perumahan";"perumahan";"Manganitu Sel.";"Kabupaten Kepulauan Sangihe, Sulawesi Utara";"Kabupaten Kepulauan Sangihe, Sulawesi Utara";"SULAWESI UTARA";"";"Indonesia";"";"";"";"3.4016429";"125.620484";"https://maps.google.com/?cid=0x0:0x74c38fb5de9eba1e";""
"perumahan";"Kantor Pemerintah";"Kampung Ngalipaeng I";"1, Ngalipaeng II";"Kabupaten Kepulauan Sangihe, Sulawesi Utara";"SULAWESI UTARA";"";"Indonesia";"";"";"";"3.4077832";"125.6232179";"https://maps.google.com/?cid=0x0:0xdda00a4fc210550f";""
"perumahan";"Komplek perumahan";"Kel.E.Mamudi-Bawondes";"9JF7+GC6, Batunderang, Manganitu Sel., Kabupaten Kepulauan Sangihe, Sulawesi Utara";"Kabupaten Kepulauan Sangihe, Sulawesi Utara";"SULAWESI UTARA";"";"Indonesia";"";"";"";"3.3737792";"125.6135117";"https://maps.google.com/?cid=0x0:0xc8ae68d67b441f97";""
"perumahan";"Komplek perumahan";"KAMPUNG BATUNDERANG";"9J24+QH6, Batunderang, Manganitu Sel., Kabupaten Kepulauan Sangihe, Sulawesi Utara";"Kabupaten Kepulauan Sangihe, Sulawesi Utara";"SULAWESI UTARA";"";"Indonesia";"";"";"";"3.3519225";"125.6063847";"https://maps.google.com/?cid=0x0:0x5c9acc014d00a13c";""
"perumahan";"Komplek perumahan";"Oma Tensi TMailang";"CHHW+Q3H, Laine, Manganitu Sel., Kabupaten Kepulauan Sangihe, Sulawesi Utara";"Kabupaten Kepulauan Sangihe, Sulawesi Utara";"SULAWESI UTARA";"";"Indonesia";"";"";"";"3.4294493";"125.595222";"https://maps.google.com/?cid=0x0:0x2a4e7858d99f532a";""
"perumahan";"Tujuan Wisata";"Manalu";"GJ54+FPW, Lesabe I, Kec. Tabukan Sel., Kabupaten Kepulauan Sangihe, Sulawesi Utara";"Kabupaten Kepulauan Sangihe, Sulawesi Utara";"SULAWESI UTARA";"";"Indonesia";"";"";"";"3.508732";"125.606813";"https://maps.google.com/?cid=0x0:0xe7854c19f66a8511";""
"perumahan";"Komplek perumahan";"Jufly Kalombone";"CHQH+G2R, Kaluwatu, Manganitu Sel., Kabupaten Kepulauan Sangihe, Sulawesi Utara";"Kabupaten Kepulauan Sangihe, Sulawesi Utara";"SULAWESI UTARA";"";"Indonesia";"";"";"";"3.4393367";"125.5780063";"https://maps.google.com/?cid=0x0:0xd2ac5a18f03ccb1b";""
"perumahan";"Gereja Protestan";"Pastori GMIST El-Roi Ngalipaeng";"9JQ9+PW7, Ngalipaeng I, Manganitu Sel., Kabupaten Kepulauan Sangihe, Sulawesi Utara";"Kabupaten Kepulauan Sangihe, Sulawesi Utara";"SULAWESI UTARA";"";"Indonesia";"";"";"";"3.3892823";"125.6198812";"https://maps.google.com/?cid=0x0:0xd2236efe4f798847";""
"perumahan";"Komplek perumahan";"Ruma oma Buas";"CM34+73, Mawira, Manganitu Sel., Kabupaten Kepulauan Sangihe, Sulawesi Utara";"Kabupaten Kepulauan Sangihe, Sulawesi Utara";"SULAWESI UTARA";"";"Indonesia";"";"";"";"3.4032476";"125.6551688";"https://maps.google.com/?cid=0x0:0x7dcb919fc0cf8fcc";""
"perumahan";"Perumahan";"Rumah andeyti";"CJH2+C89, Laine, Manganitu Sel., Kabupaten Kepulauan Sangihe, Sulawesi Utara";"Kabupaten Kepulauan Sangihe, Sulawesi Utara";"SULAWESI UTARA";"";"Indonesia";"";"";"";"3.4283018";"125.6017418";"https://maps.google.com/?cid=0x0:0x68f032a01c75eb29";""
"perumahan";"Komplek perumahan";"Reza Tahulending";"9JR9+CWH, Ngalipaeng II, Manganitu Sel., Kabupaten Kepulauan Sangihe, Sulawesi Utara";"Kabupaten Kepulauan Sangihe, Sulawesi Utara";"SULAWESI UTARA";"";"Indonesia";"";"";"";"3.3914521";"125.6197122";"https://maps.google.com/?cid=0x0:0x7a6a71c8f801ef7a";""
"perumahan";"Komplek perumahan";"GR Residence";"FJJ4+WX5, Birahi, Kec. Tabukan Sel., Kabupaten Kepulauan Sangihe, Sulawesi Utara";"Kabupaten Kepulauan Sangihe, Sulawesi Utara";"SULAWESI UTARA";"";"Indonesia";"";"";"";"3.4822556";"125.6074837";"https://maps.google.com/?cid=0x0:0xa8efde61bd722628";""
"perumahan";"Pembangunan Perumahan";"Tuwonaung-Tamamile";"CHHR+JV7, Laine, Manganitu Sel., Kabupaten Kepulauan Sangihe, Sulawesi Utara";"Kabupaten Kepulauan Sangihe, Sulawesi Utara";"SULAWESI UTARA";"";"Indonesia";"";"";"";"3.4290436";"125.5921576";"https://maps.google.com/?cid=0x0:0x8ef87b8836f2b65a";""
"perumahan";"Perhimpunan Pengembang Perumahan";"Ruamah Salipati";"9JQC+C4W, Ngalipaeng I, Manganitu Sel., Kabupaten Kepulauan Sangihe, Sulawesi Utara";"Kabupaten Kepulauan Sangihe, Sulawesi Utara";"SULAWESI UTARA";"";"Indonesia";"";"";"";"3.3886125";"125.6203281";"https://maps.google.com/?cid=0x0:0xfae825c8f5ba7685";""
"perumahan";"Pembangunan Perumahan";"Dhini Home";"9HVR+VC7, Lapango, Manganitu Sel., Kabupaten Kepulauan Sangihe, Sulawesi Utara";"Kabupaten Kepulauan Sangihe, Sulawesi Utara";"SULAWESI UTARA";"";"Indonesia";"";"";"";"3.395282";"125.590902";"https://maps.google.com/?cid=0x0:0x47164f48c2daebaa";""
"perumahan";"Komplek perumahan";"Matenggahe";"9HVR+288, Lapango, Manganitu Sel., Kabupaten Kepulauan Sangihe, Sulawesi Utara";"Kabupaten Kepulauan Sangihe, Sulawesi Utara";"SULAWESI UTARA";"";"Indonesia";"";"";"";"3.3925361";"125.5908399";"https://maps.google.com/?cid=0x0:0x8a992d2bb2eea816";""
"perumahan";"Agen Properti";"Lokasi APK";"CM23+WCC, Mawira, Manganitu Sel., Kabupaten Kepulauan Sangihe, Sulawesi Utara";"Kabupaten Kepulauan Sangihe, Sulawesi Utara";"SULAWESI UTARA";"";"Indonesia";"";"";"";"3.4028194";"125.6535104";"https://maps.google.com/?cid=0x0:0x1553aabed1c1df8b";""
"perumahan";"Komplek perumahan";"Muhdar padati";"9JR9+CWH, Ngalipaeng II, Manganitu Sel., Kabupaten Kepulauan Sangihe, Sulawesi Utara";"Kabupaten Kepulauan Sangihe, Sulawesi Utara";"SULAWESI UTARA";"";"Indonesia";"";"";"";"3.3916523";"125.6198038";"https://maps.google.com/?cid=0x0:0xb3df1382562917c";""
"perumahan";"Komplek perumahan";"VCN";"CHCR+WM, Laine, Manganitu Sel., Kabupaten Kepulauan Sangihe, Sulawesi Utara";"Kabupaten Kepulauan Sangihe, Sulawesi Utara";"SULAWESI UTARA";"";"Indonesia";"";"";"";"3.4222945";"125.5916439";"https://maps.google.com/?cid=0x0:0x35e5b4483aca2824";""
"perumahan";"Komplek perumahan";"Rumah Kel Antibe-Kirimang";"9J24+R63, Batunderang, Manganitu Sel., Kabupaten Kepulauan Sangihe, Sulawesi Utara";"Kabupaten Kepulauan Sangihe, Sulawesi Utara";"SULAWESI UTARA";"";"Indonesia";"";"";"";"3.3520043";"125.605561";"https://maps.google.com/?cid=0x0:0x9bd6544db6d70317";""
"perumahan";"Komplek perumahan";"Adolf Manumpil Place";"CHRC+CH6, Kaluwatu, Manganitu Sel., Kabupaten Kepulauan Sangihe, Sulawesi Utara";"Kabupaten Kepulauan Sangihe, Sulawesi Utara";"SULAWESI UTARA";"";"Indonesia";"";"";"";"3.441045";"125.571401";"https://maps.google.com/?cid=0x0:0xa227d5a4ecf8c917";""
"perumahan";"Komplek perumahan";"Lalo-Mananoma";"9HQW+68Q, Lapango, Manganitu Sel., Kabupaten Kepulauan Sangihe, Sulawesi Utara";"Kabupaten Kepulauan Sangihe, Sulawesi Utara";"SULAWESI UTARA";"";"Indonesia";"";"";"";"3.3880876";"125.5958746";"https://maps.google.com/?cid=0x0:0xe83405a106c94085";""
"perumahan";"Komplek perumahan";"Komplek Bimber's";"9JR9+PWH, Ngalipaeng II, Manganitu Sel., Kabupaten Kepulauan Sangihe, Sulawesi Utara";"Kabupaten Kepulauan Sangihe, Sulawesi Utara";"SULAWESI UTARA";"";"Indonesia";"";"";"";"3.3918192";"125.6198624";"https://maps.google.com/?cid=0x0:0x7a768a4a815cbf66";""
"perumahan";"perumahan";"Nusa Tabukan";"Kabupaten Kepulauan Sangihe, Sulawesi Utara";"Kabupaten Kepulauan Sangihe, Sulawesi Utara";"SULAWESI UTARA";"";"Indonesia";"";"";"";"3.7780322";"125.5904048";"https://maps.google.com/?cid=0x0:0x6fd788077ef450df";""
"perumahan";"Komplek perumahan";"MACPAL HOME";"QH5M+M6R, Unnamed Road, Nusa, Nusa Tabukan, Kabupaten Kepulauan Sangihe, Sulawesi Utara";"Kabupaten Kepulauan Sangihe, Sulawesi Utara";"SULAWESI UTARA";"";"Indonesia";"";"";"";"3.7592396";"125.5830042";"https://maps.google.com/?cid=0x0:0xcb82c1e526383ae2";""
"perumahan";"Komplek perumahan";"Rumah Dinas Camat NusTab";"QH3J+5H4, Kampung Nusa, Lindongan V, Nipa, Kecamatan NusTab";"Kabupaten Kepulauan Sangihe, Sulawesi Utara";"SULAWESI UTARA";"";"Indonesia";"";"";"";"3.7528909";"125.5814561";"https://maps.google.com/?cid=0x0:0x1a0bfd6eb60e4d12";""
"perumahan";"Perhimpunan Pengembang Perumahan";"Perumahan Pengungsi Nanedakele";"QH24+CMF, Dusun Tinakareng, Nanedakele, Nusa Tabukan, Kabupaten Kepulauan Sangihe, Sulawesi Utara";"Kabupaten Kepulauan Sangihe, Sulawesi Utara";"SULAWESI UTARA";"";"Indonesia";"";"";"";"3.7510576";"125.5566665";"https://maps.google.com/?cid=0x0:0x5310b85465481641";""
"perumahan";"Perhimpunan Pengembang Perumahan";"Rumah asis";"QHCQ+QMM, Bukide, Nusa Tabukan, Kabupaten Kepulauan Sangihe, Sulawesi Utara";"Kabupaten Kepulauan Sangihe, Sulawesi Utara";"SULAWESI UTARA";"";"Indonesia";"";"";"";"3.7719683";"125.5891595";"https://maps.google.com/?cid=0x0:0x7d040900ba898e19";""
"perumahan";"perumahan";"Rumah TAMPILANG MANOLANG";"QHHR+656, Bukide, Nusa Tabukan, Kabupaten Kepulauan Sangihe, Sulawesi Utara";"Kabupaten Kepulauan Sangihe, Sulawesi Utara";"SULAWESI UTARA";"";"Indonesia";"";"";"";"3.7780322";"125.5904048";"https://maps.google.com/?cid=0x0:0x39ef2510ed2111f5";""
"perumahan";"Komplek perumahan";"Pulau Bebitung";"QH9H+C24, Nanusa, Nusa Tabukan, Kabupaten Kepulauan Sangihe, Sulawesi Utara";"Kabupaten Kepulauan Sangihe, Sulawesi Utara";"SULAWESI UTARA";"";"Indonesia";"";"";"";"3.7685167";"125.5775803";"https://maps.google.com/?cid=0x0:0xf6355bd1445f5aa1";""
"perumahan";"Pembangunan Perumahan";"Keluarga Onthoni-Yonas";"PHX4+3M4, Nusa, Nusa Tabukan, Kabupaten Kepulauan Sangihe, Sulawesi Utara";"Kabupaten Kepulauan Sangihe, Sulawesi Utara";"SULAWESI UTARA";"";"Indonesia";"";"";"";"3.7472949";"125.5567229";"https://maps.google.com/?cid=0x0:0x75c40055cca9a95";""
"perumahan";"Komplek perumahan";"Rumah Dinas Perawat";"QH3J+9F2, Nipa, Nusa, Nusa Tabukan";"Kabupaten Kepulauan Sangihe, Sulawesi Utara";"SULAWESI UTARA";"";"Indonesia";"";"";"";"3.7533858";"125.5811484";"https://maps.google.com/?cid=0x0:0x7a4d8022d18ac0af";""
"perumahan";"Pembangunan Perumahan";"febriyan makapedua home";"QHCQ+8Q7, Bukide, Nusa Tabukan, Kabupaten Kepulauan Sangihe, Sulawesi Utara";"Kabupaten Kepulauan Sangihe, Sulawesi Utara";"SULAWESI UTARA";"";"Indonesia";"";"";"";"3.7707037";"125.5894838";"https://maps.google.com/?cid=0x0:0x14ba239faa240bac";""
"perumahan";"perumahan";"Nusa";"Nusa Tabukan, Kabupaten Kepulauan Sangihe, Sulawesi Utara";"Kabupaten Kepulauan Sangihe, Sulawesi Utara";"SULAWESI UTARA";"";"Indonesia";"";"";"";"3.754918";"125.5671541";"https://maps.google.com/?cid=0x0:0xff401e7e5451cec0";""
"perumahan";"perumahan";"Randika Home";"QH5M+H3G, Nusa";"";"SULAWESI UTARA";"";"Indonesia";"";"";"";"3.7589375";"125.5827031";"https://maps.google.com/?cid=0x0:0x3a7eb90dbd700de5";""
"perumahan";"perumahan";"Tabukan Sel. Tengah";"Kabupaten Kepulauan Sangihe, Sulawesi Utara";"Kabupaten Kepulauan Sangihe, Sulawesi Utara";"SULAWESI UTARA";"";"Indonesia";"";"";"";"3.4630696";"125.6478189";"https://maps.google.com/?cid=0x0:0xd87fa84db2a69d30";""
"perumahan";"perumahan";"Ch. Tolibakuta";"FMM3+392, Bowone, Tabukan Sel. Tengah, Kabupaten Kepulauan Sangihe, Sulawesi Utara";"Kabupaten Kepulauan Sangihe, Sulawesi Utara";"SULAWESI UTARA";"";"Indonesia";"";"";"";"3.4826375";"125.6533906";"https://maps.google.com/?cid=0x0:0x72564a50a15dfb2";""
"perumahan";"Komplek perumahan";"Rumah saya";"FJRM+8MC, Binebas, Kec. Tabukan Sel., Kabupaten Kepulauan Sangihe, Sulawesi Utara";"Kabupaten Kepulauan Sangihe, Sulawesi Utara";"SULAWESI UTARA";"";"Indonesia";"";"";"";"3.4908158";"125.6341526";"https://maps.google.com/?cid=0x0:0x8c59e141c1d58b46";""
"perumahan";"Komplek perumahan";"RUMAH ELA";"CJPJ+G9P, Pintareng, Kec. Tabukan Sel. Tenggara, Kabupaten Kepulauan Sangihe, Sulawesi Utara";"Kabupaten Kepulauan Sangihe, Sulawesi Utara";"SULAWESI UTARA";"";"Indonesia";"";"";"";"3.4363416";"125.630967";"https://maps.google.com/?cid=0x0:0x138896ac63b4afff";""
"perumahan";"Komplek perumahan";"Rumah Apit";"FJQQ+9MV, Binebas, Kec. Tabukan Sel., Kabupaten Kepulauan Sangihe, Sulawesi Utara";"Kabupaten Kepulauan Sangihe, Sulawesi Utara";"SULAWESI UTARA";"";"Indonesia";"";"";"";"3.4883119";"125.6395909";"https://maps.google.com/?cid=0x0:0x2776e0056b919632";""
"perumahan";"Pembangunan Perumahan";"Kel Makausi Mananohas";"FJ7X+64F, Salurang, Tabukan Sel. Tengah, Kabupaten Kepulauan Sangihe, Sulawesi Utara";"Kabupaten Kepulauan Sangihe, Sulawesi Utara";"SULAWESI UTARA";"";"Indonesia";"";"";"";"3.4630705";"125.6477866";"https://maps.google.com/?cid=0x0:0x5f48a8b9ae21dc33";""
"perumahan";"Komplek perumahan";"rumah ido";"FMF7+MPC, Salurang, Tabukan Sel. Tengah, Kabupaten Kepulauan Sangihe, Sulawesi Utara";"Kabupaten Kepulauan Sangihe, Sulawesi Utara";"SULAWESI UTARA";"";"Indonesia";"";"";"";"3.4752867";"125.6644535";"https://maps.google.com/?cid=0x0:0xc2d646c57ef5b3f1";""
"perumahan";"Komplek perumahan";"Kompleks Magurang";"FMH7+2PM, Salurang, Tabukan Sel. Tengah, Kabupaten Kepulauan Sangihe, Sulawesi Utara";"Kabupaten Kepulauan Sangihe, Sulawesi Utara";"SULAWESI UTARA";"";"Indonesia";"";"";"";"3.4772394";"125.664767";"https://maps.google.com/?cid=0x0:0x99a42aae1784aa54";""
"perumahan";"Komplek perumahan";"Rumah femas";"FJRM+8MC, Binebas, Kec. Tabukan Sel., Kabupaten Kepulauan Sangihe, Sulawesi Utara";"Kabupaten Kepulauan Sangihe, Sulawesi Utara";"SULAWESI UTARA";"";"Indonesia";"";"";"";"3.4908158";"125.6341526";"https://maps.google.com/?cid=0x0:0xf4666c80f3a07b33";""
"perumahan";"perumahan";"WALTON HOME";"FJQ9+88X, Birahi, Kec. Tabukan Sel., Kabupaten Kepulauan Sangihe, Sulawesi Utara";"Kabupaten Kepulauan Sangihe, Sulawesi Utara";"SULAWESI UTARA";"";"Indonesia";"";"";"";"3.4879153";"125.6177733";"https://maps.google.com/?cid=0x0:0x1eb161f1abb47774";""
"perumahan";"Pembangunan Perumahan";"Kel. Bahebangsawang-Lumampi";"FP95+RG, Beeng, Tabukan Sel. Tengah, Kabupaten Kepulauan Sangihe, Sulawesi Utara";"Kabupaten Kepulauan Sangihe, Sulawesi Utara";"SULAWESI UTARA";"";"Indonesia";"";"";"";"3.4695028";"125.708832";"https://maps.google.com/?cid=0x0:0x5b1561d9171dd01a";""
"perumahan";"Komplek perumahan";"Jimli home";"FJ5R+HH8, Salurang, Tabukan Sel. Tengah, Kabupaten Kepulauan Sangihe, Sulawesi Utara";"Kabupaten Kepulauan Sangihe, Sulawesi Utara";"SULAWESI UTARA";"";"Indonesia";"";"";"";"3.458924";"125.6414512";"https://maps.google.com/?cid=0x0:0x130a7404695902f7";""
"perumahan";"Pembangunan Perumahan";"TUMADANG - GANSALANGI";"GM63+79X, Palareng, Kec. Tabukan Sel., Kabupaten Kepulauan Sangihe, Sulawesi Utara";"Kabupaten Kepulauan Sangihe, Sulawesi Utara";"SULAWESI UTARA";"";"Indonesia";"";"";"";"3.5107142";"125.653568";"https://maps.google.com/?cid=0x0:0xef0683b6c4e1eb29";""
"perumahan";"Komplek perumahan";"Makasipate Senggetang";"FMM3+7VW, Bowone, Tabukan Sel. Tengah, Kabupaten Kepulauan Sangihe, Sulawesi Utara";"Kabupaten Kepulauan Sangihe, Sulawesi Utara";"SULAWESI UTARA";"";"Indonesia";"";"";"";"3.4832338";"125.6547181";"https://maps.google.com/?cid=0x0:0x70cfb9a7323ebd24";""
"perumahan";"Komplek perumahan";"Rumah Kel.Ponto-Salenda";"FJ7X+85G, Salurang, Tabukan Sel. Tengah, Kabupaten Kepulauan Sangihe, Sulawesi Utara";"Kabupaten Kepulauan Sangihe, Sulawesi Utara";"SULAWESI UTARA";"";"Indonesia";"";"";"";"3.4633112";"125.6479475";"https://maps.google.com/?cid=0x0:0x39e94573bd74202e";""
"perumahan";"Perhimpunan Pengembang Perumahan";"Srikandi Ampage";"FJXM+M3P, Kalagheng, Kec. Tabukan Sel., Kabupaten Kepulauan Sangihe, Sulawesi Utara";"Kabupaten Kepulauan Sangihe, Sulawesi Utara";"SULAWESI UTARA";"";"Indonesia";"";"";"";"3.4992132";"125.6327099";"https://maps.google.com/?cid=0x0:0xd532b7d23588c3cb";""
"perumahan";"Komplek perumahan";"Misel Home";"GM24+JQF, Hangke, Jalan, Palareng";"Kabupaten Kepulauan Sangihe, Sulawesi Utara";"SULAWESI UTARA";"";"Indonesia";"";"";"";"3.5015507";"125.6569329";"https://maps.google.com/?cid=0x0:0xa6cec74ab3365efd";""
"perumahan";"Komplek perumahan";"Aril Nagaring";"FM28+Q6, Tambung, Tabukan Sel. Tengah, Kabupaten Kepulauan Sangihe, Sulawesi Utara";"Kabupaten Kepulauan Sangihe, Sulawesi Utara";"SULAWESI UTARA";"";"Indonesia";"";"";"";"3.4519375";"125.6655625";"https://maps.google.com/?cid=0x0:0x3c16922a2995897d";""
"perumahan";"Komplek perumahan";"BAHOWO STREET";"FMF7+MPC, Salurang, Tabukan Sel. Tengah, Kabupaten Kepulauan Sangihe, Sulawesi Utara";"Kabupaten Kepulauan Sangihe, Sulawesi Utara";"SULAWESI UTARA";"";"Indonesia";"";"";"";"3.4752991";"125.663907";"https://maps.google.com/?cid=0x0:0xbe24fec4a41b2b58";""
"perumahan";"Pembangunan Perumahan";"Yane.A.Makapuase.S.Pd";"FJRQ+XGR, Binebas, Kec. Tabukan Sel., Kabupaten Kepulauan Sangihe, Sulawesi Utara";"Kabupaten Kepulauan Sangihe, Sulawesi Utara";"SULAWESI UTARA";"";"Indonesia";"";"";"";"3.4924923";"125.6387578";"https://maps.google.com/?cid=0x0:0x5e8c997d03b59dd3";""
"perumahan";"Penginapan";"Rumah Grivio";"FJQQ+MPH, Binebas, Kec. Tabukan Sel., Kabupaten Kepulauan Sangihe, Sulawesi Utara";"Kabupaten Kepulauan Sangihe, Sulawesi Utara";"SULAWESI UTARA";"";"Indonesia";"";"";"";"3.490194";"125.638994";"https://maps.google.com/?cid=0x0:0x339111112aada00b";""
"perumahan";"Komplek perumahan";"kakakei home";"FMG7+4Q8 rumah ido, Salurang, Tabukan Sel. Tengah, Kabupaten Kepulauan Sangihe, Sulawesi Utara";"Kabupaten Kepulauan Sangihe, Sulawesi Utara";"SULAWESI UTARA";"";"Indonesia";"";"";"";"3.4752867";"125.6644535";"https://maps.google.com/?cid=0x0:0xf9052936b9ad295f";""
"perumahan";"perumahan";"Kec. Tabukan Sel.";"Kabupaten Kepulauan Sangihe, Sulawesi Utara";"Kabupaten Kepulauan Sangihe, Sulawesi Utara";"SULAWESI UTARA";"";"Indonesia";"";"";"";"3.5171771";"125.6226871";"https://maps.google.com/?cid=0x0:0xf03a5b084c01a081";""
"perumahan";"Komplek perumahan";"Rumah Irwan Tatali";"GJC9+3J2, Bentung, Kec. Tabukan Sel., Kabupaten Kepulauan Sangihe, Sulawesi Utara";"Kabupaten Kepulauan Sangihe, Sulawesi Utara";"SULAWESI UTARA";"";"Indonesia";"";"";"";"3.5201402";"125.6190264";"https://maps.google.com/?cid=0x0:0x13a557188bf67d3e";""
"perumahan";"Komplek perumahan";"GR Residence";"FJJ4+WX5, Birahi, Kec. Tabukan Sel., Kabupaten Kepulauan Sangihe, Sulawesi Utara";"Kabupaten Kepulauan Sangihe, Sulawesi Utara";"SULAWESI UTARA";"";"Indonesia";"";"";"";"3.4822556";"125.6074837";"https://maps.google.com/?cid=0x0:0xa8efde61bd722628";""
"perumahan";"Komplek perumahan";"Talumingan";"GJ9F+76G, Lesabe I, Kec. Tabukan Sel., Kabupaten Kepulauan Sangihe, Sulawesi Utara";"Kabupaten Kepulauan Sangihe, Sulawesi Utara";"SULAWESI UTARA";"";"Indonesia";"";"";"";"3.5181875";"125.6230781";"https://maps.google.com/?cid=0x0:0xb97f0e4ac21b9e53";""
"perumahan";"perumahan";"WALTON HOME";"FJQ9+88X, Birahi, Kec. Tabukan Sel., Kabupaten Kepulauan Sangihe, Sulawesi Utara";"Kabupaten Kepulauan Sangihe, Sulawesi Utara";"SULAWESI UTARA";"";"Indonesia";"";"";"";"3.4879153";"125.6177733";"https://maps.google.com/?cid=0x0:0x1eb161f1abb47774";""
"perumahan";"Komplek perumahan";"Rumah saya";"FJRM+8MC, Binebas, Kec. Tabukan Sel., Kabupaten Kepulauan Sangihe, Sulawesi Utara";"Kabupaten Kepulauan Sangihe, Sulawesi Utara";"SULAWESI UTARA";"";"Indonesia";"";"";"";"3.4908158";"125.6341526";"https://maps.google.com/?cid=0x0:0x8c59e141c1d58b46";""
"perumahan";"Komplek perumahan";"Taufik Tatali";"GJFC+2CQ, Bentung, Kec. Tabukan Sel., Kabupaten Kepulauan Sangihe, Sulawesi Utara";"Kabupaten Kepulauan Sangihe, Sulawesi Utara";"SULAWESI UTARA";"";"Indonesia";"";"";"";"3.522593";"125.6211184";"https://maps.google.com/?cid=0x0:0xba8cb82f45264216";""
"perumahan";"Komplek perumahan";"Fidelis Lumondo";"GJ9F+76G, Lesabe I, Kec. Tabukan Sel., Kabupaten Kepulauan Sangihe, Sulawesi Utara";"Kabupaten Kepulauan Sangihe, Sulawesi Utara";"SULAWESI UTARA";"";"Indonesia";"";"";"";"3.5180974";"125.623002";"https://maps.google.com/?cid=0x0:0x5979ab9c755116c7";""
"perumahan";"Perhimpunan Pengembang Perumahan";"Rumah Kel.Bulangkaehe - Nusalawo";"GHRW+HXV, Bowongkali, Kec. Tabukan Tengah, Kabupaten Kepulauan Sangihe, Sulawesi Utara";"Kabupaten Kepulauan Sangihe, Sulawesi Utara";"SULAWESI UTARA";"";"Indonesia";"";"";"";"3.5414913";"125.5974424";"https://maps.google.com/?cid=0x0:0x987f5e294cb06dd1";""
"perumahan";"perumahan";"Rumah S²";"FJRM+8MC, Binebas, Kec. Tabukan Sel., Kabupaten Kepulauan Sangihe, Sulawesi Utara";"Kabupaten Kepulauan Sangihe, Sulawesi Utara";"SULAWESI UTARA";"";"Indonesia";"";"";"";"3.4908158";"125.6341526";"https://maps.google.com/?cid=0x0:0xc3a92f0efdff402b";""
"perumahan";"Komplek perumahan";"Livy";"GH4V+V7R, Bukide, Kec. Tabukan Sel., Kabupaten Kepulauan Sangihe, Sulawesi Utara";"Kabupaten Kepulauan Sangihe, Sulawesi Utara";"SULAWESI UTARA";"";"Indonesia";"";"";"";"3.5072386";"125.5931397";"https://maps.google.com/?cid=0x0:0xf04ebcc91645e65d";""
"perumahan";"perumahan";"Juliano Hangunaung";"GJ99+W7W, Bentung, Kec. Tabukan Sel., Kabupaten Kepulauan Sangihe, Sulawesi Utara";"Kabupaten Kepulauan Sangihe, Sulawesi Utara";"SULAWESI UTARA";"";"Indonesia";"";"";"";"3.519729";"125.6182106";"https://maps.google.com/?cid=0x0:0x182a976af88fccbe";""
"perumahan";"Komplek perumahan";"rumah eyenna";"GJF9+95H, Bentung, Kec. Tabukan Sel., Kabupaten Kepulauan Sangihe, Sulawesi Utara";"Kabupaten Kepulauan Sangihe, Sulawesi Utara";"SULAWESI UTARA";"";"Indonesia";"";"";"";"3.5234373";"125.6179876";"https://maps.google.com/?cid=0x0:0x29e9f0b67e318bd3";""
"perumahan";"Komplek perumahan";"Rumah Apit";"FJQQ+9MV, Binebas, Kec. Tabukan Sel., Kabupaten Kepulauan Sangihe, Sulawesi Utara";"Kabupaten Kepulauan Sangihe, Sulawesi Utara";"SULAWESI UTARA";"";"Indonesia";"";"";"";"3.4883119";"125.6395909";"https://maps.google.com/?cid=0x0:0x2776e0056b919632";""
"perumahan";"Komplek perumahan";"Rumah Riany  Maisye";"GJ99+W7W, Bentung, Kec. Tabukan Sel., Kabupaten Kepulauan Sangihe, Sulawesi Utara";"Kabupaten Kepulauan Sangihe, Sulawesi Utara";"SULAWESI UTARA";"";"Indonesia";"";"";"";"3.5198556";"125.6181968";"https://maps.google.com/?cid=0x0:0xa82e7ae5c456e70c";""
"perumahan";"Komplek perumahan";"Queen  Gav";"GJ8F+R6R, Lesabe I, Kec. Tabukan Sel., Kabupaten Kepulauan Sangihe, Sulawesi Utara";"Kabupaten Kepulauan Sangihe, Sulawesi Utara";"SULAWESI UTARA";"";"Indonesia";" 085194820013";"";"";"3.5171063";"125.623009";"https://maps.google.com/?cid=0x0:0x9ad3fb8abbc18598";""
"perumahan";"Komplek perumahan";"Rumah femas";"FJRM+8MC, Binebas, Kec. Tabukan Sel., Kabupaten Kepulauan Sangihe, Sulawesi Utara";"Kabupaten Kepulauan Sangihe, Sulawesi Utara";"SULAWESI UTARA";"";"Indonesia";"";"";"";"3.4908158";"125.6341526";"https://maps.google.com/?cid=0x0:0xf4666c80f3a07b33";""
"perumahan";"Komplek perumahan";"Sambene";"GJG4+5PP, Simueng, Kec. Tabukan Sel., Kabupaten Kepulauan Sangihe, Sulawesi Utara";"Kabupaten Kepulauan Sangihe, Sulawesi Utara";"SULAWESI UTARA";"";"Indonesia";"";"";"";"3.5254643";"125.606813";"https://maps.google.com/?cid=0x0:0x41fff81bc259a37e";""
"perumahan";"Pembangunan Perumahan";"Kel Makausi Mananohas";"FJ7X+64F, Salurang, Tabukan Sel. Tengah, Kabupaten Kepulauan Sangihe, Sulawesi Utara";"Kabupaten Kepulauan Sangihe, Sulawesi Utara";"SULAWESI UTARA";"";"Indonesia";"";"";"";"3.4630705";"125.6477866";"https://maps.google.com/?cid=0x0:0x5f48a8b9ae21dc33";""
"perumahan";"perumahan";"Ch. Tolibakuta";"FMM3+392, Bowone, Tabukan Sel. Tengah, Kabupaten Kepulauan Sangihe, Sulawesi Utara";"Kabupaten Kepulauan Sangihe, Sulawesi Utara";"SULAWESI UTARA";"";"Indonesia";"";"";"";"3.4826375";"125.6533906";"https://maps.google.com/?cid=0x0:0x72564a50a15dfb2";""
"perumahan";"Pembangunan Perumahan";"Kost Place";"GJ8C+QQX, Lesabe I, Kec. Tabukan Sel., Kabupaten Kepulauan Sangihe, Sulawesi Utara";"Kabupaten Kepulauan Sangihe, Sulawesi Utara";"SULAWESI UTARA";"";"Indonesia";"";"";"";"3.5169994";"125.6219734";"https://maps.google.com/?cid=0x0:0xb947efa0754d7638";""
"perumahan";"perumahan";"Haikal moblec";"FJ84+QPG, Basauh, Kec. Tabukan Sel. Tenggara, Kabupaten Kepulauan Sangihe, Sulawesi Utara";"Kabupaten Kepulauan Sangihe, Sulawesi Utara";"SULAWESI UTARA";"";"Indonesia";"";"";"";"3.4669309";"125.606813";"https://maps.google.com/?cid=0x0:0x2d5f474c701c2202";""
"perumahan";"perumahan";"Kec. Tabukan Tengah";"Kabupaten Kepulauan Sangihe, Sulawesi Utara";"Kabupaten Kepulauan Sangihe, Sulawesi Utara";"SULAWESI UTARA";"";"Indonesia";"";"";"";"3.5716264";"125.5765487";"https://maps.google.com/?cid=0x0:0x4030bfbcaf78960";""
"perumahan";"Rumah Kayu";"Alfarid  Laurent";"Rendingan, Kec. Tabukan Tengah, Kabupaten Kepulauan Sangihe, Sulawesi Utara 95857";"Kec. Tabukan Tengah, Kabupaten Kepulauan Sangihe";"SULAWESI UTARA";"95857";"Indonesia";"";"";"";"3.615182";"125.5748133";"https://maps.google.com/?cid=0x0:0x344dd187491d5712";""
"perumahan";"Perhimpunan Pengembang Perumahan";"Kel. Sahabir Makahengke";"Kampung Bira, Lindongan 1, Kec. Tabukan Tengah, Sulawesi Utara 95857";"Lindongan 1, Kec. Tabukan Tengah";"SULAWESI UTARA";"95857";"Indonesia";"";"";"";"3.5575831";"125.5809401";"https://maps.google.com/?cid=0x0:0x9503365baaf85dad";""
"perumahan";"Rumah Kayu";"Kel Sahempa Mehare";"Rendingan, Kec. Tabukan Tengah, Kabupaten Kepulauan Sangihe, Sulawesi Utara 95857";"Kec. Tabukan Tengah, Kabupaten Kepulauan Sangihe";"SULAWESI UTARA";"95857";"Indonesia";"";"";"";"3.6151087";"125.5745949";"https://maps.google.com/?cid=0x0:0xf48aa7e5984adc4";""
"perumahan";"Komplek perumahan";"RUMAH SINGGAH KADADEMAHE";"HHFJ+M8R, Kuma, Kec. Tabukan Tengah, Kabupaten Kepulauan Sangihe, Sulawesi Utara 95857";"Kuma, Kec. Tabukan Tengah, Kabupaten Kepulauan Sangihe";"SULAWESI UTARA";"95857";"Indonesia";" 081342354227";"";"";"3.5742289";"125.5807651";"https://maps.google.com/?cid=0x0:0x53698eea4c53c5ab";""
"perumahan";"Komplek perumahan";"RUMAH SATRIA BUDIMAN";"HHG3+PPV, Miulu, Kec. Tabukan Tengah, Kabupaten Kepulauan Sangihe, Sulawesi Utara";"Kabupaten Kepulauan Sangihe, Sulawesi Utara";"SULAWESI UTARA";"";"Indonesia";"";"";"";"3.5768744";"125.5542888";"https://maps.google.com/?cid=0x0:0xc6f247fae1db52cc";""
"perumahan";"Komplek perumahan";"Tola Tengah";"JGPG+9X5, Tola, Kec. Tabukan Utara, Kabupaten Kepulauan Sangihe, Sulawesi Utara";"Kabupaten Kepulauan Sangihe, Sulawesi Utara";"SULAWESI UTARA";"";"Indonesia";"";"";"";"3.6358806";"125.5274756";"https://maps.google.com/?cid=0x0:0xa0fc11a5edfe3351";""
"perumahan";"Komplek perumahan";"Mirna House";"JGFV+3F, Sensong, Kec. Tabukan Tengah, Kabupaten Kepulauan Sangihe, Sulawesi Utara";"Kabupaten Kepulauan Sangihe, Sulawesi Utara";"SULAWESI UTARA";"";"Indonesia";"";"";"";"3.6226582";"125.5436972";"https://maps.google.com/?cid=0x0:0xa5b4e5873482dcf2";""
"perumahan";"Perhimpunan Pengembang Perumahan";"Rumah Kel.Bulangkaehe - Nusalawo";"GHRW+HXV, Bowongkali, Kec. Tabukan Tengah, Kabupaten Kepulauan Sangihe, Sulawesi Utara";"Kabupaten Kepulauan Sangihe, Sulawesi Utara";"SULAWESI UTARA";"";"Indonesia";"";"";"";"3.5414913";"125.5974424";"https://maps.google.com/?cid=0x0:0x987f5e294cb06dd1";""
"perumahan";"Komplek perumahan";"Rumah Sahrul mase";"HHX2+JRX, Biru, Kec. Tabukan Tengah, Kabupaten Kepulauan Sangihe, Sulawesi Utara";"Kabupaten Kepulauan Sangihe, Sulawesi Utara";"SULAWESI UTARA";"";"Indonesia";"";"";"";"3.5991034";"125.5521059";"https://maps.google.com/?cid=0x0:0x9f6870ced3fd2713";""
"perumahan";"Komplek perumahan";"Devid(M-A)";"HH98+V22, Bungalawang, Kec. Tabukan Tengah, Kabupaten Kepulauan Sangihe, Sulawesi Utara";"Kabupaten Kepulauan Sangihe, Sulawesi Utara";"SULAWESI UTARA";"";"Indonesia";"";"";"";"3.5696255";"125.5650304";"https://maps.google.com/?cid=0x0:0x349e27dec3f85d30";""
"perumahan";"Komplek perumahan";"Perkumpulan";"JHF6+VMG, Sensong, Kec. Tabukan Tengah, Kabupaten Kepulauan Sangihe, Sulawesi Utara";"Kabupaten Kepulauan Sangihe, Sulawesi Utara";"SULAWESI UTARA";"";"Indonesia";"";"";"";"3.625455";"125.561795";"https://maps.google.com/?cid=0x0:0xcdc21610725a1bdf";""
"perumahan";"Komplek perumahan";"Rumah Algeo";"HHFM+V33, Kuma I, Kec. Tabukan Tengah, Kabupaten Kepulauan Sangihe, Sulawesi Utara";"Kabupaten Kepulauan Sangihe, Sulawesi Utara";"SULAWESI UTARA";"";"Indonesia";"";"";"";"3.5744792";"125.5836115";"https://maps.google.com/?cid=0x0:0x80779d50a5783cd5";""
"perumahan";"Pembangunan Perumahan";"AULA Banala Pegimpolongan E.T Steller Gunung";"HGWR+HX9, Biru, Kec. Tabukan Tengah, Kabupaten Kepulauan Sangihe, Sulawesi Utara";"Kabupaten Kepulauan Sangihe, Sulawesi Utara";"SULAWESI UTARA";"";"Indonesia";"";"";"";"3.5964012";"125.5424723";"https://maps.google.com/?cid=0x0:0x19de20a90d3c09a7";""
"perumahan";"Komplek perumahan";"Rumah Kel Manganguling-Matantu";"JHQF+XP4, Petta Sel., Kec. Tabukan Utara, Kabupaten Kepulauan Sangihe, Sulawesi Utara";"Kabupaten Kepulauan Sangihe, Sulawesi Utara";"SULAWESI UTARA";"";"Indonesia";"";"";"";"3.6398875";"125.5743196";"https://maps.google.com/?cid=0x0:0x961c0a9137725a8b";""
"perumahan";"Komplek perumahan";"REP BESAR";"JGRW+M5J, Kampung Balane, Petta, Kec. Tabukan Utara, Kabupaten Kepulauan Sangihe, Sulawesi Utara";"Kabupaten Kepulauan Sangihe, Sulawesi Utara";"SULAWESI UTARA";"";"Indonesia";"";"";"";"3.6417057";"125.5453856";"https://maps.google.com/?cid=0x0:0x6a5ec35820ebd493";""
"perumahan";"Komplek perumahan";"Rumah Musdahlia makagansa";"JH9F+62W, Tariangbaru, Kec. Tabukan Tengah, Kabupaten Kepulauan Sangihe, Sulawesi Utara";"Kabupaten Kepulauan Sangihe, Sulawesi Utara";"SULAWESI UTARA";"";"Indonesia";"";"";"";"3.6185133";"125.5730619";"https://maps.google.com/?cid=0x0:0xc6c23b772a434fae";""
"perumahan";"Komplek perumahan";"Kel.Timbangnusa Damalang";"HGGQ+WQ3, Gunung, Kec. Tabukan Tengah, Kabupaten Kepulauan Sangihe, Sulawesi Utara";"Kabupaten Kepulauan Sangihe, Sulawesi Utara";"SULAWESI UTARA";"";"Indonesia";"";"";"";"3.5772561";"125.5394221";"https://maps.google.com/?cid=0x0:0xa15597fef7ead3e4";""
"perumahan";"Komplek perumahan";"Dermaga Puntieng";"HHH8+77W, Bungalawang, Kec. Tabukan Tengah, Kabupaten Kepulauan Sangihe, Sulawesi Utara";"Kabupaten Kepulauan Sangihe, Sulawesi Utara";"SULAWESI UTARA";"";"Indonesia";"";"";"";"3.5782484";"125.5657033";"https://maps.google.com/?cid=0x0:0x9f5fed2b1cf0f4e2";""
"perumahan";"Komplek perumahan";"Yolkhya's House";"JHJ6+CHX, Sensong, Kec. Tabukan Tengah, Kabupaten Kepulauan Sangihe, Sulawesi Utara";"Kabupaten Kepulauan Sangihe, Sulawesi Utara";"SULAWESI UTARA";"";"Indonesia";"";"";"";"3.6311142";"125.5614899";"https://maps.google.com/?cid=0x0:0x760c3a8d811b9af9";""
"perumahan";"Pembangunan Perumahan";"KJ Home";"HH97+VV6, Bungalawang, Kec. Tabukan Tengah, Kabupaten Kepulauan Sangihe, Sulawesi Utara";"Kabupaten Kepulauan Sangihe, Sulawesi Utara";"SULAWESI UTARA";"";"Indonesia";"";"";"";"3.5696653";"125.5646297";"https://maps.google.com/?cid=0x0:0xa06ec60a0cda2be7";""
"perumahan";"Komplek perumahan";"Rumah Irwan Tatali";"GJC9+3J2, Bentung, Kec. Tabukan Sel., Kabupaten Kepulauan Sangihe, Sulawesi Utara";"Kabupaten Kepulauan Sangihe, Sulawesi Utara";"SULAWESI UTARA";"";"Indonesia";"";"";"";"3.5201402";"125.6190264";"https://maps.google.com/?cid=0x0:0x13a557188bf67d3e";""
"perumahan";"perumahan";"Rumah putra";"JHF6+VMG, Sensong, Kec. Tabukan Tengah, Kabupaten Kepulauan Sangihe, Sulawesi Utara";"Kabupaten Kepulauan Sangihe, Sulawesi Utara";"SULAWESI UTARA";"";"Indonesia";"";"";"";"3.625279";"125.560766";"https://maps.google.com/?cid=0x0:0xe3ae62e9271d8e3";""
"perumahan";"perumahan";"Rumah Ade Pantolaeng Meivan Bawulang";"HHFJ+JGJ, Kuma I, Kec. Tabukan Tengah, Kabupaten Kepulauan Sangihe, Sulawesi Utara";"Kabupaten Kepulauan Sangihe, Sulawesi Utara";"SULAWESI UTARA";"";"Indonesia";"";"";"";"3.5735714";"125.5820815";"https://maps.google.com/?cid=0x0:0x5369137f732e949b";""
"perumahan";"Komplek perumahan";"Yiin Melope Home";"HHCH+V53, Kuma I, Kec. Tabukan Tengah, Kabupaten Kepulauan Sangihe, Sulawesi Utara";"Kabupaten Kepulauan Sangihe, Sulawesi Utara";"SULAWESI UTARA";"";"Indonesia";"";"";"";"3.5721306";"125.5779088";"https://maps.google.com/?cid=0x0:0xab3e62d13aef3398";""
"perumahan";"Komplek perumahan";"sam";"HHC8+892, Bungalawang, Kec. Tabukan Tengah, Kabupaten Kepulauan Sangihe, Sulawesi Utara";"Kabupaten Kepulauan Sangihe, Sulawesi Utara";"SULAWESI UTARA";"";"Indonesia";"";"";"";"3.5712052";"125.5662149";"https://maps.google.com/?cid=0x0:0x513baeb366d88788";""
"perumahan";"perumahan";"Kec. Tabukan Sel. Tenggara";"Kabupaten Kepulauan Sangihe, Sulawesi Utara";"Kabupaten Kepulauan Sangihe, Sulawesi Utara";"SULAWESI UTARA";"";"Indonesia";"";"";"";"3.4599844";"125.6590853";"https://maps.google.com/?cid=0x0:0xea3a936de4045559";""
"perumahan";"Komplek perumahan";"RUMAH ELA";"CJPJ+G9P, Pintareng, Kec. Tabukan Sel. Tenggara, Kabupaten Kepulauan Sangihe, Sulawesi Utara";"Kabupaten Kepulauan Sangihe, Sulawesi Utara";"SULAWESI UTARA";"";"Indonesia";"";"";"";"3.4363416";"125.630967";"https://maps.google.com/?cid=0x0:0x138896ac63b4afff";""
"perumahan";"perumahan";"Haikal moblec";"FJ84+QPG, Basauh, Kec. Tabukan Sel. Tenggara, Kabupaten Kepulauan Sangihe, Sulawesi Utara";"Kabupaten Kepulauan Sangihe, Sulawesi Utara";"SULAWESI UTARA";"";"Indonesia";"";"";"";"3.4669309";"125.606813";"https://maps.google.com/?cid=0x0:0x2d5f474c701c2202";""
"perumahan";"perumahan";"Basauh";"FJ84+FW2 Home andre, Basauh, Kec. Tabukan Sel. Tenggara, Kabupaten Kepulauan Sangihe, Sulawesi Utara";"Kabupaten Kepulauan Sangihe, Sulawesi Utara";"SULAWESI UTARA";"";"Indonesia";"";"";"";"3.4661401";"125.6072611";"https://maps.google.com/?cid=0x0:0x523b7c1ca684a13f";""
"perumahan";"perumahan";"WALTON HOME";"FJQ9+88X, Birahi, Kec. Tabukan Sel., Kabupaten Kepulauan Sangihe, Sulawesi Utara";"Kabupaten Kepulauan Sangihe, Sulawesi Utara";"SULAWESI UTARA";"";"Indonesia";"";"";"";"3.4879153";"125.6177733";"https://maps.google.com/?cid=0x0:0x1eb161f1abb47774";""
"perumahan";"Komplek perumahan";"Sampakang";"CMG5+4CX, Sampakang, Kec. Tabukan Sel. Tenggara, Kabupaten Kepulauan Sangihe, Sulawesi Utara";"Kabupaten Kepulauan Sangihe, Sulawesi Utara";"SULAWESI UTARA";"";"Indonesia";"";"";"";"3.4253565";"125.6585946";"https://maps.google.com/?cid=0x0:0x1bb6d2fa8327e63d";""
"perumahan";"Komplek perumahan";"Bang Vio B.I";"CJXP+MPC, Pintareng, Kec. Tabukan Sel. Tenggara, Kabupaten Kepulauan Sangihe, Sulawesi Utara";"Kabupaten Kepulauan Sangihe, Sulawesi Utara";"SULAWESI UTARA";"";"Indonesia";"";"";"";"3.4491983";"125.6367627";"https://maps.google.com/?cid=0x0:0x8253b2d15bd0b679";""
"perumahan";"Tujuan Wisata";"Manalu";"GJ54+FPW, Lesabe I, Kec. Tabukan Sel., Kabupaten Kepulauan Sangihe, Sulawesi Utara";"Kabupaten Kepulauan Sangihe, Sulawesi Utara";"SULAWESI UTARA";"";"Indonesia";"";"";"";"3.508732";"125.606813";"https://maps.google.com/?cid=0x0:0xe7854c19f66a8511";""
"perumahan";"Komplek perumahan";"Kel. Kasilinsina Tahulending";"FJ84+QPG, Basauh, Kec. Tabukan Sel. Tenggara, Kabupaten Kepulauan Sangihe, Sulawesi Utara";"Kabupaten Kepulauan Sangihe, Sulawesi Utara";"SULAWESI UTARA";"";"Indonesia";"";"";"";"3.4669309";"125.606813";"https://maps.google.com/?cid=0x0:0x3c5a92dc1336a8c5";""
"perumahan";"Perhimpunan Pengembang Perumahan";"Rumah Rikar Ansar";"FM55+XJW, Dalokaweng, Kec. Tabukan Sel. Tenggara, Kabupaten Kepulauan Sangihe, Sulawesi Utara";"Kabupaten Kepulauan Sangihe, Sulawesi Utara";"SULAWESI UTARA";"";"Indonesia";"";"";"";"3.4593994";"125.6589536";"https://maps.google.com/?cid=0x0:0x938b49a2d63822fd";""
"perumahan";"perumahan";"Ch. Tolibakuta";"FMM3+392, Bowone, Tabukan Sel. Tengah, Kabupaten Kepulauan Sangihe, Sulawesi Utara";"Kabupaten Kepulauan Sangihe, Sulawesi Utara";"SULAWESI UTARA";"";"Indonesia";"";"";"";"3.4826375";"125.6533906";"https://maps.google.com/?cid=0x0:0x72564a50a15dfb2";""
"perumahan";"Komplek perumahan";"Aril Nagaring";"FM28+Q6, Tambung, Tabukan Sel. Tengah, Kabupaten Kepulauan Sangihe, Sulawesi Utara";"Kabupaten Kepulauan Sangihe, Sulawesi Utara";"SULAWESI UTARA";"";"Indonesia";"";"";"";"3.4519375";"125.6655625";"https://maps.google.com/?cid=0x0:0x3c16922a2995897d";""
"perumahan";"Komplek perumahan";"Jimli home";"FJ5R+HH8, Salurang, Tabukan Sel. Tengah, Kabupaten Kepulauan Sangihe, Sulawesi Utara";"Kabupaten Kepulauan Sangihe, Sulawesi Utara";"SULAWESI UTARA";"";"Indonesia";"";"";"";"3.458924";"125.6414512";"https://maps.google.com/?cid=0x0:0x130a7404695902f7";""
"perumahan";"Komplek perumahan";"Mirbaw Regency (CR. CGA)";"FJJ4+WX3, Jln. Birahi, Malammenggu";"Kabupaten Kepulauan Sangihe, Sulawesi Utara";"SULAWESI UTARA";"";"Indonesia";"";"";"";"3.482267";"125.6074224";"https://maps.google.com/?cid=0x0:0x625fbf7e831ef824";""
"perumahan";"perumahan";"Rumah S²";"FJRM+8MC, Binebas, Kec. Tabukan Sel., Kabupaten Kepulauan Sangihe, Sulawesi Utara";"Kabupaten Kepulauan Sangihe, Sulawesi Utara";"SULAWESI UTARA";"";"Indonesia";"";"";"";"3.4908158";"125.6341526";"https://maps.google.com/?cid=0x0:0xc3a92f0efdff402b";""
"perumahan";"Komplek perumahan";"Rumah saya";"FJRM+8MC, Binebas, Kec. Tabukan Sel., Kabupaten Kepulauan Sangihe, Sulawesi Utara";"Kabupaten Kepulauan Sangihe, Sulawesi Utara";"SULAWESI UTARA";"";"Indonesia";"";"";"";"3.4908158";"125.6341526";"https://maps.google.com/?cid=0x0:0x8c59e141c1d58b46";""
"perumahan";"Agen Properti";"Lokasi APK";"CM23+WCC, Mawira, Manganitu Sel., Kabupaten Kepulauan Sangihe, Sulawesi Utara";"Kabupaten Kepulauan Sangihe, Sulawesi Utara";"SULAWESI UTARA";"";"Indonesia";"";"";"";"3.4028194";"125.6535104";"https://maps.google.com/?cid=0x0:0x1553aabed1c1df8b";""
"perumahan";"Komplek perumahan";"Rumah Apit";"FJQQ+9MV, Binebas, Kec. Tabukan Sel., Kabupaten Kepulauan Sangihe, Sulawesi Utara";"Kabupaten Kepulauan Sangihe, Sulawesi Utara";"SULAWESI UTARA";"";"Indonesia";"";"";"";"3.4883119";"125.6395909";"https://maps.google.com/?cid=0x0:0x2776e0056b919632";""
"perumahan";"Komplek perumahan";"Livy";"GH4V+V7R, Bukide, Kec. Tabukan Sel., Kabupaten Kepulauan Sangihe, Sulawesi Utara";"Kabupaten Kepulauan Sangihe, Sulawesi Utara";"SULAWESI UTARA";"";"Indonesia";"";"";"";"3.5072386";"125.5931397";"https://maps.google.com/?cid=0x0:0xf04ebcc91645e65d";""
"perumahan";"Komplek perumahan";"rumah ido";"FMF7+MPC, Salurang, Tabukan Sel. Tengah, Kabupaten Kepulauan Sangihe, Sulawesi Utara";"Kabupaten Kepulauan Sangihe, Sulawesi Utara";"SULAWESI UTARA";"";"Indonesia";"";"";"";"3.4752867";"125.6644535";"https://maps.google.com/?cid=0x0:0xc2d646c57ef5b3f1";""
"perumahan";"Pembangunan Perumahan";"Kel Makausi Mananohas";"FJ7X+64F, Salurang, Tabukan Sel. Tengah, Kabupaten Kepulauan Sangihe, Sulawesi Utara";"Kabupaten Kepulauan Sangihe, Sulawesi Utara";"SULAWESI UTARA";"";"Indonesia";"";"";"";"3.4630705";"125.6477866";"https://maps.google.com/?cid=0x0:0x5f48a8b9ae21dc33";""
"perumahan";"Komplek perumahan";"Ruma oma Buas";"CM34+73, Mawira, Manganitu Sel., Kabupaten Kepulauan Sangihe, Sulawesi Utara";"Kabupaten Kepulauan Sangihe, Sulawesi Utara";"SULAWESI UTARA";"";"Indonesia";"";"";"";"3.4032476";"125.6551688";"https://maps.google.com/?cid=0x0:0x7dcb919fc0cf8fcc";""
"perumahan";"Komplek perumahan";"Rumah Irwan Tatali";"GJC9+3J2, Bentung, Kec. Tabukan Sel., Kabupaten Kepulauan Sangihe, Sulawesi Utara";"Kabupaten Kepulauan Sangihe, Sulawesi Utara";"SULAWESI UTARA";"";"Indonesia";"";"";"";"3.5201402";"125.6190264";"https://maps.google.com/?cid=0x0:0x13a557188bf67d3e";""
"perumahan";"perumahan";"Kec. Tabukan Utara";"Kabupaten Kepulauan Sangihe, Sulawesi Utara";"Kabupaten Kepulauan Sangihe, Sulawesi Utara";"SULAWESI UTARA";"";"Indonesia";"";"";"";"3.6892367";"125.5353986";"https://maps.google.com/?cid=0x0:0x3513a069515adb7f";""
"perumahan";"Perumahan";"Tabukan Lama";"MGCV+MX8, Tabukan Lama, Kec. Tabukan Utara, Kabupaten Kepulauan Sangihe, Sulawesi Utara";"Kabupaten Kepulauan Sangihe, Sulawesi Utara";"SULAWESI UTARA";"";"Indonesia";"";"";"";"3.6716515";"125.5449671";"https://maps.google.com/?cid=0x0:0xb2fa00b092253c61";""
"perumahan";"Komplek perumahan";"Perum ASN Naha 46 Queensy";"MGMQ+M6P, Naha I, Kec. Tabukan Utara, Kabupaten Kepulauan Sangihe, Sulawesi Utara 95856";"Naha I, Kec. Tabukan Utara, Kabupaten Kepulauan Sangihe";"SULAWESI UTARA";"95856";"Indonesia";"";"";"";"3.6842048";"125.5380626";"https://maps.google.com/?cid=0x0:0x463a9d329cb0abca";""
"perumahan";"Komplek perumahan";"Rumah Kel Manganguling-Matantu";"JHQF+XP4, Petta Sel., Kec. Tabukan Utara, Kabupaten Kepulauan Sangihe, Sulawesi Utara";"Kabupaten Kepulauan Sangihe, Sulawesi Utara";"SULAWESI UTARA";"";"Indonesia";"";"";"";"3.6398875";"125.5743196";"https://maps.google.com/?cid=0x0:0x961c0a9137725a8b";""
"perumahan";"Komplek perumahan";"Rumah Jendry";"MGQ8+5W7, Beha, Kec. Tabukan Utara, Kabupaten Kepulauan Sangihe, Sulawesi Utara";"Kabupaten Kepulauan Sangihe, Sulawesi Utara";"SULAWESI UTARA";"";"Indonesia";"";"";"";"3.687924";"125.5173005";"https://maps.google.com/?cid=0x0:0xc14f0d74474729a6";""
"perumahan";"Pembangunan Perumahan";"Home";"MH46+497 SMPN, Kep, Kec. Tabukan Utara, Kabupaten Kepulauan Sangihe, Sulawesi Utara";"Kabupaten Kepulauan Sangihe, Sulawesi Utara";"SULAWESI UTARA";"";"Indonesia";"";"";"";"3.6550887";"125.5608839";"https://maps.google.com/?cid=0x0:0xf66309d80b8601b0";""
"perumahan";"Komplek perumahan";"Balane";"JGXV+XJP, Bengketang, Kec. Tabukan Utara, Kabupaten Kepulauan Sangihe, Sulawesi Utara";"Kabupaten Kepulauan Sangihe, Sulawesi Utara";"SULAWESI UTARA";"";"Indonesia";"";"";"";"3.6499572";"125.5440676";"https://maps.google.com/?cid=0x0:0xcb0af4a4aec9b1ca";""
"perumahan";"Pembangunan Perumahan";"PERUM GREEN RAKU PERMAI";"MGCH+PM9, Unnamed Road, Kalurae, Kec. Tabukan Utara, Kabupaten Kepulauan Sangihe, Sulawesi Utara";"Kabupaten Kepulauan Sangihe, Sulawesi Utara";"SULAWESI UTARA";"";"Indonesia";"";"";"";"3.6717927";"125.5292417";"https://maps.google.com/?cid=0x0:0x1988aadadbde05a3";""
"perumahan";"Komplek perumahan";"R durubatu";"MGQM+9J2, Naha I, Kec. Tabukan Utara, Kabupaten Kepulauan Sangihe, Sulawesi Utara";"Kabupaten Kepulauan Sangihe, Sulawesi Utara";"SULAWESI UTARA";"";"Indonesia";"";"";"";"3.6891312";"125.534009";"https://maps.google.com/?cid=0x0:0xec348eefc47a5b37";""
"perumahan";"Pembangunan Perumahan";"Perum Utaurano I";"MG65+WJ7, Utaurano, Kec. Tabukan Utara, Kabupaten Kepulauan Sangihe, Sulawesi Utara";"Kabupaten Kepulauan Sangihe, Sulawesi Utara";"SULAWESI UTARA";"";"Indonesia";" 081354796627";"";"";"3.6622833";"125.5090463";"https://maps.google.com/?cid=0x0:0x91229e2160a074c5";""
"perumahan";"Komplek perumahan";"REP BESAR";"JGRW+M5J, Kampung Balane, Petta, Kec. Tabukan Utara, Kabupaten Kepulauan Sangihe, Sulawesi Utara";"Kabupaten Kepulauan Sangihe, Sulawesi Utara";"SULAWESI UTARA";"";"Indonesia";"";"";"";"3.6417057";"125.5453856";"https://maps.google.com/?cid=0x0:0x6a5ec35820ebd493";""
"perumahan";"Komplek perumahan";"Arka Home";"MGMQ+R92, Naha I, Kec. Tabukan Utara, Kabupaten Kepulauan Sangihe, Sulawesi Utara";"Kabupaten Kepulauan Sangihe, Sulawesi Utara";"SULAWESI UTARA";"";"Indonesia";"";"";"";"3.6845079";"125.5380953";"https://maps.google.com/?cid=0x0:0x7f516fcdc506d8f1";""
"perumahan";"Komplek perumahan";"Perum ASN Naha 15 Chylva";"MGMQ+J35, Naha, Kec. Tabukan Utara, Kabupaten Kepulauan Sangihe, Sulawesi Utara";"Kabupaten Kepulauan Sangihe, Sulawesi Utara";"SULAWESI UTARA";"";"Indonesia";"";"";"";"3.684003";"125.5377399";"https://maps.google.com/?cid=0x0:0xc81584983e314533";""
"perumahan";"Perhimpunan Pengembang Perumahan";"Kompleks Perumahan Sebelas";"Mala, Kec. Tabukan Utara, Kabupaten Kepulauan Sangihe, Sulawesi Utara";"Kabupaten Kepulauan Sangihe, Sulawesi Utara";"SULAWESI UTARA";"";"Indonesia";"";"";"";"3.6981909";"125.4973618";"https://maps.google.com/?cid=0x0:0xa12b1b2675e434b9";""
"perumahan";"Komplek perumahan";"DEDE AZKA";"JHV5+RFM, Petta Bar., Kec. Tabukan Utara, Kabupaten Kepulauan Sangihe, Sulawesi Utara";"Kabupaten Kepulauan Sangihe, Sulawesi Utara";"SULAWESI UTARA";"";"Indonesia";"";"";"";"3.6445755";"125.5586685";"https://maps.google.com/?cid=0x0:0x57a8650a580d6d4b";""
"perumahan";"Komplek perumahan";"MmaO";"Plot 383, Lenganeng, North Tabukan, Sangihe Islands Regency, North Sulawesi";"Kabupaten Kepulauan Sangihe, Sulawesi Utara";"SULAWESI UTARA";"";"Indonesia";"";"";"";"3.6432943";"125.5028379";"https://maps.google.com/?cid=0x0:0x7bbe0431d67baf9a";""
"perumahan";"Komplek perumahan";"KEL ADIPATI - LUMONDO";"MGQH+CXG, Naha I, Kec. Tabukan Utara, Kabupaten Kepulauan Sangihe, Sulawesi Utara";"Kabupaten Kepulauan Sangihe, Sulawesi Utara";"SULAWESI UTARA";"";"Indonesia";"";"";"";"3.6885704";"125.5299461";"https://maps.google.com/?cid=0x0:0x7eaffe4061008f02";""
"perumahan";"Komplek perumahan";"Dats home";"JGVX+26X, Petta Bar., Kec. Tabukan Utara, Kabupaten Kepulauan Sangihe, Sulawesi Utara";"Kabupaten Kepulauan Sangihe, Sulawesi Utara";"SULAWESI UTARA";"";"Indonesia";"";"";"";"3.6425064";"125.5478998";"https://maps.google.com/?cid=0x0:0xc24ad2fed850ab53";""
"perumahan";"Komplek perumahan";"Rumah IBO Matheos";"MGM9+VF6, Beha, Kec. Tabukan Utara, Kabupaten Kepulauan Sangihe, Sulawesi Utara";"Kabupaten Kepulauan Sangihe, Sulawesi Utara";"SULAWESI UTARA";"";"Indonesia";"";"";"";"3.6846682";"125.518652";"https://maps.google.com/?cid=0x0:0xe62d8a989bcae874";""
"perumahan";"Gedung Apartemen";"Home Makaempi Taduminggir";"MGM9+R38, Beha, Kec. Tabukan Utara, Kabupaten Kepulauan Sangihe, Sulawesi Utara";"Kabupaten Kepulauan Sangihe, Sulawesi Utara";"SULAWESI UTARA";"";"Indonesia";"";"";"";"3.6845256";"125.5176948";"https://maps.google.com/?cid=0x0:0xe07314883e2a885f";""
"perumahan";"Gedung Apartemen";"Keluarga Lintuhaseng Tompoh";"JHX5+QP4, Petta, Kec. Tabukan Utara, Kabupaten Kepulauan Sangihe, Sulawesi Utara";"Kabupaten Kepulauan Sangihe, Sulawesi Utara";"SULAWESI UTARA";"";"Indonesia";"";"";"";"3.6493814";"125.5593419";"https://maps.google.com/?cid=0x0:0xdbb6ec3a70862eac";""
"perumahan";"Komplek perumahan";"House Riyandy";"PG82+GR3, Mala, Kec. Tabukan Utara, Kabupaten Kepulauan Sangihe, Sulawesi Utara";"Kabupaten Kepulauan Sangihe, Sulawesi Utara";"SULAWESI UTARA";"";"Indonesia";"";"";"";"3.716263";"125.5020447";"https://maps.google.com/?cid=0x0:0xe753bee30903ea2d";""
"perumahan";"Komplek perumahan";"Roland home";"PF6W+G57, Mala, Kec. Tabukan Utara, Kabupaten Kepulauan Sangihe, Sulawesi Utara";"Kabupaten Kepulauan Sangihe, Sulawesi Utara";"SULAWESI UTARA";"";"Indonesia";"";"";"";"3.7112835";"125.4954137";"https://maps.google.com/?cid=0x0:0xbd64a4c72b2da79c";""
"perumahan";"perumahan";"Tahuna";"Sawang Bendar, Kec. Tahuna, Kabupaten Kepulauan Sangihe, Sulawesi Utara";"Kabupaten Kepulauan Sangihe, Sulawesi Utara";"SULAWESI UTARA";"";"Indonesia";"";"";"";"3.611106";"125.485509";"https://maps.google.com/?cid=0x0:0xac6d1c5aacbd436";""
"perumahan";"Komplek perumahan";"Perumahan Elite Tahuna";"JF6C+GJV, Santiago, Kec. Tahuna, Kabupaten Kepulauan Sangihe, Sulawesi Utara";"Kabupaten Kepulauan Sangihe, Sulawesi Utara";"SULAWESI UTARA";"";"Indonesia";"";"";"";"3.611362";"125.471562";"https://maps.google.com/?cid=0x0:0x1d9d44360d5b8495";""
"perumahan";"Komplek perumahan";"Perum Malahasa";"JF9G+G55, Manente, Kec. Tahuna, Kabupaten Kepulauan Sangihe, Sulawesi Utara";"Kabupaten Kepulauan Sangihe, Sulawesi Utara";"SULAWESI UTARA";"";"Indonesia";"";"";"";"3.6187538";"125.4754917";"https://maps.google.com/?cid=0x0:0x99805cf4ab9bf755";""
"perumahan";"Komplek perumahan";"Terminal tona";"JF6P+C6R, Sawang Bendar, Kec. Tahuna, Kabupaten Kepulauan Sangihe, Sulawesi Utara";"Kabupaten Kepulauan Sangihe, Sulawesi Utara";"SULAWESI UTARA";"";"Indonesia";"";"";"";"3.611106";"125.485509";"https://maps.google.com/?cid=0x0:0xa6bf07b610d4c50c";""
"perumahan";"Komplek perumahan";"rumah indra budiman";"JF6P+C6R, Sawang Bendar, Kec. Tahuna, Kabupaten Kepulauan Sangihe, Sulawesi Utara";"Kabupaten Kepulauan Sangihe, Sulawesi Utara";"SULAWESI UTARA";"";"Indonesia";"";"";"";"3.611106";"125.485509";"https://maps.google.com/?cid=0x0:0x40730af792f7df71";""
"perumahan";"Komplek perumahan";"Perumahan ASN";"JFR2+4VM, Kolongan Mitung, Kec. Tahuna Bar., Kabupaten Kepulauan Sangihe, Sulawesi Utara";"Kabupaten Kepulauan Sangihe, Sulawesi Utara";"SULAWESI UTARA";"";"Indonesia";"";"";"";"3.6403311";"125.4521701";"https://maps.google.com/?cid=0x0:0x70dfe32dddc0e4fb";""
"perumahan";"Komplek perumahan";"ADISTA";"JF6P+C6R, lorong smp 4, Sawang Bendar, Kec. Tahuna, Kabupaten Kepulauan Sangihe, Sulawesi Utara";"Kabupaten Kepulauan Sangihe, Sulawesi Utara";"SULAWESI UTARA";"";"Indonesia";"";"";"";"3.611106";"125.485509";"https://maps.google.com/?cid=0x0:0x8064644cb48d636a";""
"perumahan";"Komplek perumahan";"APES Kompleks Gereja Advent patongan jln Raya";"Gereja Advent, Kompleks, Apeng Sembeka, Tahuna, Sangihe Islands Regency, North Sulawesi";"Kabupaten Kepulauan Sangihe, Sulawesi Utara";"SULAWESI UTARA";"";"Indonesia";"";"";"";"3.6111";"125.485515";"https://maps.google.com/?cid=0x0:0xf732c94a93a4b55f";""
"perumahan";"perumahan";"Rumah eneratu";"JF6P+C6R, Sawang Bendar, Kec. Tahuna, Kabupaten Kepulauan Sangihe, Sulawesi Utara";"Kabupaten Kepulauan Sangihe, Sulawesi Utara";"SULAWESI UTARA";"";"Indonesia";"";"";"";"3.611106";"125.485509";"https://maps.google.com/?cid=0x0:0xe790d9922493df6e";""
"perumahan";"Komplek perumahan";"Apengsembeka";"JF6P+C6J Kompleks Gereja Advent, Jalan Tatehe, Apeng Sembeka, Kec. Tahuna, Kabupaten Kepulauan Sangihe, Sulawesi Utara";"Kabupaten Kepulauan Sangihe, Sulawesi Utara";"SULAWESI UTARA";"";"Indonesia";"";"";"";"3.6111";"125.485515";"https://maps.google.com/?cid=0x0:0xf1a22e4dc888b292";""
"perumahan";"Pembangunan Perumahan";"Rumah manente";"JF9C+PWQ, Jl. Manente, Manente, Kec. Tahuna, Kabupaten Kepulauan Sangihe, Sulawesi Utara";"Kabupaten Kepulauan Sangihe, Sulawesi Utara";"SULAWESI UTARA";"";"Indonesia";"";"";"";"3.6193374";"125.472369";"https://maps.google.com/?cid=0x0:0xb63813a31f18fe23";""
"perumahan";"Komplek perumahan";"Akembuala";"JF5R+X8X, Sawang Bendar, Kec. Tahuna, Kabupaten Kepulauan Sangihe, Sulawesi Utara";"Kabupaten Kepulauan Sangihe, Sulawesi Utara";"SULAWESI UTARA";"";"Indonesia";"";"";"";"3.6099928";"125.4908496";"https://maps.google.com/?cid=0x0:0xde9090cf60d93f3e";""
"perumahan";"Sekolah";"DINAS PERUMAHAN RAKYAT DAN KAWASAN PERMUKIMAN SERTA PERTANAHAN DAERAH";"JG55+W43, Tona II, Kec. Tahuna Tim., Kabupaten Kepulauan Sangihe, Sulawesi Utara";"Kabupaten Kepulauan Sangihe, Sulawesi Utara";"SULAWESI UTARA";"";"Indonesia";"";"";"";"3.6097339";"125.5083904";"https://maps.google.com/?cid=0x0:0x855992110d85c472";""
"perumahan";"perumahan";"Perumahan PLN eneratu Tahuna";"JF6P+C5X, Sawang Bendar, Kec. Tahuna Tim., Kabupaten Kepulauan Sangihe, Sulawesi Utara";"Kabupaten Kepulauan Sangihe, Sulawesi Utara";"SULAWESI UTARA";"";"Indonesia";"";"";"";"3.6111221";"125.4854928";"https://maps.google.com/?cid=0x0:0xc054f661cb6bd2a9";""
"perumahan";"perumahan";"Sulawesi Utara 95812";"Sawang Bendar, Kec. Tahuna, Kabupaten Kepulauan Sangihe, Sulawesi Utara";"Kabupaten Kepulauan Sangihe, Sulawesi Utara";"SULAWESI UTARA";"";"Indonesia";"";"";"";"3.6100689";"125.4899246";"https://maps.google.com/?cid=0x0:0xb2f5cb5e87df0b38";""
"perumahan";"Perhimpunan Pengembang Perumahan";"Perumahan Pemerintah Daerah";"Jl. Hasanudin No.85, Sawang Bendar, Kec. Tahuna, Kabupaten Kepulauan Sangihe, Sulawesi Utara 95812";"Sawang Bendar, Kec. Tahuna, Kabupaten Kepulauan Sangihe";"SULAWESI UTARA";"95812";"Indonesia";"";"";"";"3.6100403";"125.4895148";"https://maps.google.com/?cid=0x0:0xe93ac9ab9a0300f9";""
"perumahan";"Komplek perumahan";"Perum Malahasa";"JF9G+G55, Manente, Kec. Tahuna, Kabupaten Kepulauan Sangihe, Sulawesi Utara";"Kabupaten Kepulauan Sangihe, Sulawesi Utara";"SULAWESI UTARA";"";"Indonesia";"";"";"";"3.6187538";"125.4754917";"https://maps.google.com/?cid=0x0:0x99805cf4ab9bf755";""
"perumahan";"Komplek perumahan";"Mahena kawa";"JF5R+X8X, Sawang Bendar, Kec. Tahuna, Kabupaten Kepulauan Sangihe, Sulawesi Utara";"Kabupaten Kepulauan Sangihe, Sulawesi Utara";"SULAWESI UTARA";"";"Indonesia";"";"";"";"3.6099928";"125.4908496";"https://maps.google.com/?cid=0x0:0x4b90c2eea95479ca";""
"perumahan";"Komplek perumahan";"Pondok Om Untu";"JF5R+X8X, Sawang Bendar, Kec. Tahuna, Kabupaten Kepulauan Sangihe, Sulawesi Utara";"Kabupaten Kepulauan Sangihe, Sulawesi Utara";"SULAWESI UTARA";"";"Indonesia";"";"";"";"3.6099928";"125.4908496";"https://maps.google.com/?cid=0x0:0x79d859e6fe31337f";""
"perumahan";"Komplek perumahan";"Akembuala";"JF5R+X8X, Sawang Bendar, Kec. Tahuna, Kabupaten Kepulauan Sangihe, Sulawesi Utara";"Kabupaten Kepulauan Sangihe, Sulawesi Utara";"SULAWESI UTARA";"";"Indonesia";"";"";"";"3.6099928";"125.4908496";"https://maps.google.com/?cid=0x0:0xde9090cf60d93f3e";""
"perumahan";"Komplek perumahan";"Home Tumadang Kasiaheng";"JF5R+X8X, Sawang Bendar, Kec. Tahuna, Kabupaten Kepulauan Sangihe, Sulawesi Utara";"Kabupaten Kepulauan Sangihe, Sulawesi Utara";"SULAWESI UTARA";"";"Indonesia";"";"";"";"3.6099928";"125.4908496";"https://maps.google.com/?cid=0x0:0x9a2c7ef4380313f1";""
"perumahan";"Komplek perumahan";"Kolongan akembawi";"JF5R+X8X, Sawang Bendar, Kec. Tahuna, Kabupaten Kepulauan Sangihe, Sulawesi Utara";"Kabupaten Kepulauan Sangihe, Sulawesi Utara";"SULAWESI UTARA";"";"Indonesia";"";"";"";"3.6099928";"125.4908496";"https://maps.google.com/?cid=0x0:0xa94f1616959a0465";""
"perumahan";"Area Mendaki";"Kel.Sasikome Dalope";"JF5R+X8X, Sawang Bendar, Kec. Tahuna, Kabupaten Kepulauan Sangihe, Sulawesi Utara";"Kabupaten Kepulauan Sangihe, Sulawesi Utara";"SULAWESI UTARA";"";"Indonesia";"";"";"";"3.6099928";"125.4908496";"https://maps.google.com/?cid=0x0:0x12a8ebfe20dcf9e3";""
"perumahan";"Pembangunan Perumahan";"Rumah manente";"JF9C+PWQ, Jl. Manente, Manente, Kec. Tahuna, Kabupaten Kepulauan Sangihe, Sulawesi Utara";"Kabupaten Kepulauan Sangihe, Sulawesi Utara";"SULAWESI UTARA";"";"Indonesia";"";"";"";"3.6193374";"125.472369";"https://maps.google.com/?cid=0x0:0xb63813a31f18fe23";""
"perumahan";"Komplek perumahan";"Perumahan ASN";"JFR2+4VM, Kolongan Mitung, Kec. Tahuna Bar., Kabupaten Kepulauan Sangihe, Sulawesi Utara";"Kabupaten Kepulauan Sangihe, Sulawesi Utara";"SULAWESI UTARA";"";"Indonesia";"";"";"";"3.6403311";"125.4521701";"https://maps.google.com/?cid=0x0:0x70dfe32dddc0e4fb";""
"perumahan";"Kafe";"R2 Remang-Remang";"JF5R+F49, Jl. Raramenusa, Sawang Bendar, Kec. Tahuna, Kabupaten Kepulauan Sangihe, Sulawesi Utara";"Kabupaten Kepulauan Sangihe, Sulawesi Utara";"SULAWESI UTARA";"";"Indonesia";" 082192228943";"";"";"3.6086583";"125.490371";"https://maps.google.com/?cid=0x0:0x3f63c31baa9457e1";""
"perumahan";"Toko";"Toko Fajar";"Jl. Hasanudin No.85, Sawang Bendar, Kec. Tahuna, Kabupaten Kepulauan Sangihe, Sulawesi Utara 95812";"Sawang Bendar, Kec. Tahuna, Kabupaten Kepulauan Sangihe";"SULAWESI UTARA";"95812";"Indonesia";" 081254734567";"";"";"3.6094997";"125.4897645";"https://maps.google.com/?cid=0x0:0xa5af83ca442d8992";""
"perumahan";"Pembangunan Perumahan";"PERUM GREEN RAKU PERMAI";"MGCH+PM9, Unnamed Road, Kalurae, Kec. Tabukan Utara, Kabupaten Kepulauan Sangihe, Sulawesi Utara";"Kabupaten Kepulauan Sangihe, Sulawesi Utara";"SULAWESI UTARA";"";"Indonesia";"";"";"";"3.6717927";"125.5292417";"https://maps.google.com/?cid=0x0:0x1988aadadbde05a3";""
"perumahan";"perumahan";"kel.aer-tendaunusa";"akembuala, lorong, inpres, Apeng Sembeka, Tahuna, Sangihe Islands Regency, North Sulawesi";"Kabupaten Kepulauan Sangihe, Sulawesi Utara";"SULAWESI UTARA";"";"Indonesia";"";"";"";"3.6099928";"125.4908496";"https://maps.google.com/?cid=0x0:0xc9670b02a9461468";""
"perumahan";"Sekolah";"DINAS PERUMAHAN RAKYAT DAN KAWASAN PERMUKIMAN SERTA PERTANAHAN DAERAH";"JG55+W43, Tona II, Kec. Tahuna Tim., Kabupaten Kepulauan Sangihe, Sulawesi Utara";"Kabupaten Kepulauan Sangihe, Sulawesi Utara";"SULAWESI UTARA";"";"Indonesia";"";"";"";"3.6097339";"125.5083904";"https://maps.google.com/?cid=0x0:0x855992110d85c472";""
"perumahan";"Toko";"Toko Lily";"JF5R+QHP, Sawang Bendar, Kec. Tahuna, Kabupaten Kepulauan Sangihe, Sulawesi Utara";"Kabupaten Kepulauan Sangihe, Sulawesi Utara";"SULAWESI UTARA";"";"Indonesia";"";"";"";"3.6094558";"125.4914597";"https://maps.google.com/?cid=0x0:0xddc93021b950a2a4";""
"perumahan";"Rumah Makan";"Rumah Makan Tiga Raya";"JF5R+J7V, Sawang Bendar, Kec. Tahuna, Kabupaten Kepulauan Sangihe, Sulawesi Utara";"Kabupaten Kepulauan Sangihe, Sulawesi Utara";"SULAWESI UTARA";"";"Indonesia";" 043222334";"";"";"3.609101";"125.4906552";"https://maps.google.com/?cid=0x0:0x87b8418275a4a5e6";""
"perumahan";"Minimarket";"Megaria SwalayanTahuna";"Jl. Makaampo No.26, Sawang Bendar, Kec. Tahuna, Kabupaten Kepulauan Sangihe, Sulawesi Utara 95812";"Sawang Bendar, Kec. Tahuna, Kabupaten Kepulauan Sangihe";"SULAWESI UTARA";"95812";"Indonesia";" 082349681805";"";"";"3.6093144";"125.491729";"https://maps.google.com/?cid=0x0:0x6345099cefab6c5d";""
"perumahan";"Toko Komputer";"Centro Computer";"Jl. Makaampo, Sawang Bendar, Kec. Tahuna, Kabupaten Kepulauan Sangihe, Sulawesi Utara";"Kabupaten Kepulauan Sangihe, Sulawesi Utara";"SULAWESI UTARA";"";"Indonesia";" 082190860475";"";"";"3.6095202";"125.4918554";"https://maps.google.com/?cid=0x0:0x53a7904277121d57";""
"perumahan";"perumahan";"Sulawesi Utara 95813";"Sawang Bendar, Kec. Tahuna, Kabupaten Kepulauan Sangihe, Sulawesi Utara";"Kabupaten Kepulauan Sangihe, Sulawesi Utara";"SULAWESI UTARA";"";"Indonesia";"";"";"";"3.611136";"125.4935326";"https://maps.google.com/?cid=0x0:0x6fc0fd255464dafb";""
"perumahan";"Komplek perumahan";"Perum Malahasa";"JF9G+G55, Manente, Kec. Tahuna, Kabupaten Kepulauan Sangihe, Sulawesi Utara";"Kabupaten Kepulauan Sangihe, Sulawesi Utara";"SULAWESI UTARA";"";"Indonesia";"";"";"";"3.6187538";"125.4754917";"https://maps.google.com/?cid=0x0:0x99805cf4ab9bf755";""
"perumahan";"Komplek perumahan";"Rumah";"JFCF+RCQ, Manente, Kec. Tahuna, Kabupaten Kepulauan Sangihe, Sulawesi Utara";"Kabupaten Kepulauan Sangihe, Sulawesi Utara";"SULAWESI UTARA";"";"Indonesia";"";"";"";"3.6220903";"125.4735942";"https://maps.google.com/?cid=0x0:0x163f71c153892964";""
"perumahan";"Komplek perumahan";"My Kost Nirwan";"JF6V+CRR, Sawang Bendar, Kec. Tahuna, Kabupaten Kepulauan Sangihe, Sulawesi Utara";"Kabupaten Kepulauan Sangihe, Sulawesi Utara";"SULAWESI UTARA";"";"Indonesia";"";"";"";"3.6111116";"125.4945094";"https://maps.google.com/?cid=0x0:0x2699807605591fd6";""
"perumahan";"Pembangunan Perumahan";"PERUM GREEN RAKU PERMAI";"MGCH+PM9, Unnamed Road, Kalurae, Kec. Tabukan Utara, Kabupaten Kepulauan Sangihe, Sulawesi Utara";"Kabupaten Kepulauan Sangihe, Sulawesi Utara";"SULAWESI UTARA";"";"Indonesia";"";"";"";"3.6717927";"125.5292417";"https://maps.google.com/?cid=0x0:0x1988aadadbde05a3";""
"perumahan";"Pembangunan Perumahan";"Rumah manente";"JF9C+PWQ, Jl. Manente, Manente, Kec. Tahuna, Kabupaten Kepulauan Sangihe, Sulawesi Utara";"Kabupaten Kepulauan Sangihe, Sulawesi Utara";"SULAWESI UTARA";"";"Indonesia";"";"";"";"3.6193374";"125.472369";"https://maps.google.com/?cid=0x0:0xb63813a31f18fe23";""
"perumahan";"Komplek perumahan";"Akembuala";"JF5R+X8X, Sawang Bendar, Kec. Tahuna, Kabupaten Kepulauan Sangihe, Sulawesi Utara";"Kabupaten Kepulauan Sangihe, Sulawesi Utara";"SULAWESI UTARA";"";"Indonesia";"";"";"";"3.6099928";"125.4908496";"https://maps.google.com/?cid=0x0:0xde9090cf60d93f3e";""
"perumahan";"Komplek perumahan";"Perumahan ASN";"JFR2+4VM, Kolongan Mitung, Kec. Tahuna Bar., Kabupaten Kepulauan Sangihe, Sulawesi Utara";"Kabupaten Kepulauan Sangihe, Sulawesi Utara";"SULAWESI UTARA";"";"Indonesia";"";"";"";"3.6403311";"125.4521701";"https://maps.google.com/?cid=0x0:0x70dfe32dddc0e4fb";""
"perumahan";"perumahan";"Kec. Tahuna Bar.";"Kabupaten Kepulauan Sangihe, Sulawesi Utara";"Kabupaten Kepulauan Sangihe, Sulawesi Utara";"SULAWESI UTARA";"";"Indonesia";"";"";"";"3.6391395";"125.4232867";"https://maps.google.com/?cid=0x0:0x172c70b55a90c8a3";""
"perumahan";"Kantor Pemerintah";"Perumahan Pegawai No. 01";"JCHM+RWP, Kolongan Mitung, Kec. Tahuna Bar., Kabupaten Kepulauan Sangihe, Sulawesi Utara";"Kabupaten Kepulauan Sangihe, Sulawesi Utara";"SULAWESI UTARA";"";"Indonesia";" 082292276846";"";"";"3.6295851";"125.43484";"https://maps.google.com/?cid=0x0:0x27f677af0f6f2720";""
"perumahan";"Komplek perumahan";"Perum Malahasa";"JF9G+G55, Manente, Kec. Tahuna, Kabupaten Kepulauan Sangihe, Sulawesi Utara";"Kabupaten Kepulauan Sangihe, Sulawesi Utara";"SULAWESI UTARA";"";"Indonesia";"";"";"";"3.6187538";"125.4754917";"https://maps.google.com/?cid=0x0:0x99805cf4ab9bf755";""
"perumahan";"Komplek perumahan";"Perumahan Elite Tahuna";"JF6C+GJV, Santiago, Kec. Tahuna, Kabupaten Kepulauan Sangihe, Sulawesi Utara";"Kabupaten Kepulauan Sangihe, Sulawesi Utara";"SULAWESI UTARA";"";"Indonesia";"";"";"";"3.611362";"125.471562";"https://maps.google.com/?cid=0x0:0x1d9d44360d5b8495";""
"perumahan";"Komplek perumahan";"Perumahan ASN";"JFR2+4VM, Kolongan Mitung, Kec. Tahuna Bar., Kabupaten Kepulauan Sangihe, Sulawesi Utara";"Kabupaten Kepulauan Sangihe, Sulawesi Utara";"SULAWESI UTARA";"";"Indonesia";"";"";"";"3.6403311";"125.4521701";"https://maps.google.com/?cid=0x0:0x70dfe32dddc0e4fb";""
"perumahan";"Perhimpunan Pengembang Perumahan";"Perumahan Lelepu";"JFMJ+XR3, Mahena, Kec. Tahuna, Kabupaten Kepulauan Sangihe, Sulawesi Utara";"Kabupaten Kepulauan Sangihe, Sulawesi Utara";"SULAWESI UTARA";"";"Indonesia";"";"";"";"3.6339617";"125.4814937";"https://maps.google.com/?cid=0x0:0x7459f988b973a91f";""
"perumahan";"Komplek perumahan";"Ivonne Home";"JCGQ+7MR, Kolongan Mitung, Kec. Tahuna Bar., Kabupaten Kepulauan Sangihe, Sulawesi Utara";"Kabupaten Kepulauan Sangihe, Sulawesi Utara";"SULAWESI UTARA";"";"Indonesia";"";"";"";"3.6257367";"125.4391539";"https://maps.google.com/?cid=0x0:0x210659d2e9467eb7";""
"perumahan";"Komplek perumahan";"Frieden";"JFFG+JRP, Manente, Kec. Tahuna, Kabupaten Kepulauan Sangihe, Sulawesi Utara";"Kabupaten Kepulauan Sangihe, Sulawesi Utara";"SULAWESI UTARA";"";"Indonesia";"";"";"";"3.624208";"125.477007";"https://maps.google.com/?cid=0x0:0x1404bbe4b217ad3";""
"perumahan";"Komplek perumahan";"Rumah Putriyanti bewengbugo";"JFC9+52Q, Santiago, Kec. Tahuna, Kabupaten Kepulauan Sangihe, Sulawesi Utara";"Kabupaten Kepulauan Sangihe, Sulawesi Utara";"SULAWESI UTARA";"";"Indonesia";"";"";"";"3.6192685";"125.4672246";"https://maps.google.com/?cid=0x0:0xa45c81d1103b5677";""
"perumahan";"Pembangunan Perumahan";"Tamalawe maheda";"JFF4+5M3, Pananekeng, Kec. Tahuna Bar., Kabupaten Kepulauan Sangihe, Sulawesi Utara";"Kabupaten Kepulauan Sangihe, Sulawesi Utara";"SULAWESI UTARA";"";"Indonesia";"";"";"";"3.6228791";"125.4566757";"https://maps.google.com/?cid=0x0:0x94a640a58a887fce";""
"perumahan";"Komplek perumahan";"Rumah MHM";"JCGQ+M7G, Lorong Soawuhu, Kolongan Mitung, Kec. Tahuna Bar., Kabupaten Kepulauan Sangihe, Sulawesi Utara";"Kabupaten Kepulauan Sangihe, Sulawesi Utara";"SULAWESI UTARA";"";"Indonesia";"";"";"";"3.6266887";"125.4382182";"https://maps.google.com/?cid=0x0:0x46d52201b5c61efd";""
"perumahan";"Komplek perumahan";"Tanalawo-Yunus home";"JFCF+96C, Manente, Kec. Tahuna, Kabupaten Kepulauan Sangihe, Sulawesi Utara";"Kabupaten Kepulauan Sangihe, Sulawesi Utara";"SULAWESI UTARA";"";"Indonesia";"";"";"";"3.6209652";"125.4729694";"https://maps.google.com/?cid=0x0:0x60ad74536f2c8cc";""
"perumahan";"perumahan";"Kongginawan";"JF6C+GJV, Santiago, Kec. Tahuna, Kabupaten Kepulauan Sangihe, Sulawesi Utara";"Kabupaten Kepulauan Sangihe, Sulawesi Utara";"SULAWESI UTARA";"";"Indonesia";"";"";"";"3.6113209";"125.4714652";"https://maps.google.com/?cid=0x0:0xeab8ecf728922a03";""
"perumahan";"perumahan";"Rumah fredy tatunduge";"JCQR+QQ, Kologan Beha Baru, Kec. Tahuna Bar., Kabupaten Kepulauan Sangihe, Sulawesi Utara";"Kabupaten Kepulauan Sangihe, Sulawesi Utara";"SULAWESI UTARA";"";"Indonesia";"";"";"";"3.6395829";"125.4432887";"https://maps.google.com/?cid=0x0:0x918f41e68ed5ec2b";""
"perumahan";"Komplek perumahan";"Blessing Home";"JFC4+F9W, Pananekeng, Kec. Tahuna Bar., Kabupaten Kepulauan Sangihe, Sulawesi Utara";"Kabupaten Kepulauan Sangihe, Sulawesi Utara";"SULAWESI UTARA";"";"Indonesia";"";"";"";"3.6212101";"125.4560268";"https://maps.google.com/?cid=0x0:0x3269b7ceec501b97";""
"perumahan";"Komplek perumahan";"Rumah Kinan";"Manente, Kec. Tahuna, Kabupaten Kepulauan Sangihe, Sulawesi Utara";"Kabupaten Kepulauan Sangihe, Sulawesi Utara";"SULAWESI UTARA";"";"Indonesia";"";"";"";"3.6224374";"125.4775346";"https://maps.google.com/?cid=0x0:0xc017850f2b7b5452";""
"perumahan";"Komplek perumahan";"Kontrakan RD";"JFCC+2XR, Manente, Kec. Tahuna, Kabupaten Kepulauan Sangihe, Sulawesi Utara";"Kabupaten Kepulauan Sangihe, Sulawesi Utara";"SULAWESI UTARA";"";"Indonesia";"";"";"";"3.6201398";"125.4722867";"https://maps.google.com/?cid=0x0:0x3f2e022ccc57088b";""
"perumahan";"Komplek perumahan";"Rivanto Home";"JFGP+VVQ, Mahena, Kec. Tahuna, Kabupaten Kepulauan Sangihe, Sulawesi Utara";"Kabupaten Kepulauan Sangihe, Sulawesi Utara";"SULAWESI UTARA";"";"Indonesia";"";"";"";"3.6272057";"125.4872436";"https://maps.google.com/?cid=0x0:0x9269b51b06d3bce8";""
"perumahan";"Komplek perumahan";"Rumah Kel. Endo Budiman";"JFCG+XP7, Manente, Kec. Tahuna, Kabupaten Kepulauan Sangihe, Sulawesi Utara";"Kabupaten Kepulauan Sangihe, Sulawesi Utara";"SULAWESI UTARA";"";"Indonesia";"";"";"";"3.6224138";"125.4768029";"https://maps.google.com/?cid=0x0:0xe933d68ccbc4090f";""
"perumahan";"Komplek perumahan";"Tew";"JF88+XFQ, Santiago, Kec. Tahuna, Kabupaten Kepulauan Sangihe, Sulawesi Utara";"Kabupaten Kepulauan Sangihe, Sulawesi Utara";"SULAWESI UTARA";"";"Indonesia";"";"";"";"3.617462";"125.4662426";"https://maps.google.com/?cid=0x0:0xb323b17c36bb68a6";""
"perumahan";"Komplek perumahan";"Roby Sahabat";"JCFQ+8RJ, Kolongan Mitung, Kec. Tahuna Bar., Kabupaten Kepulauan Sangihe, Sulawesi Utara";"Kabupaten Kepulauan Sangihe, Sulawesi Utara";"SULAWESI UTARA";"";"Indonesia";"";"";"";"3.6233447";"125.4395147";"https://maps.google.com/?cid=0x0:0x3f21b2deccf2e9d9";""
"perumahan";"Komplek perumahan";"Andinny Home";"JFCG+XP7, Manente, Kec. Tahuna, Kabupaten Kepulauan Sangihe, Sulawesi Utara";"Kabupaten Kepulauan Sangihe, Sulawesi Utara";"SULAWESI UTARA";"";"Indonesia";"";"";"";"3.6224138";"125.4768029";"https://maps.google.com/?cid=0x0:0xdea2158504f6e9ae";""
"perumahan";"Perumahan";"Kompleks Pulo Permai";"JCQJ+6JH, Kolongan Beha, Kec. Tahuna Bar., Kabupaten Kepulauan Sangihe, Sulawesi Utara";"Kabupaten Kepulauan Sangihe, Sulawesi Utara";"SULAWESI UTARA";"";"Indonesia";"";"";"";"3.6380716";"125.4315942";"https://maps.google.com/?cid=0x0:0x6cec788b6ab55ae0";""
"perumahan";"Komplek perumahan";"Rumah vandy";"JCPH+H9, Kolongan Beha, Kec. Tahuna Bar., Kabupaten Kepulauan Sangihe, Sulawesi Utara";"Kabupaten Kepulauan Sangihe, Sulawesi Utara";"SULAWESI UTARA";"";"Indonesia";"";"";"";"3.6363297";"125.4283873";"https://maps.google.com/?cid=0x0:0xad3d90b5b2a4f88";""
"perumahan";"Komplek perumahan";"Keluarga Gaghana Budiman";"JCPM+3P, Kolongan Beha, Kec. Tahuna Bar., Kabupaten Kepulauan Sangihe, Sulawesi Utara";"Kabupaten Kepulauan Sangihe, Sulawesi Utara";"SULAWESI UTARA";"";"Indonesia";"";"";"";"3.6355721";"125.4347689";"https://maps.google.com/?cid=0x0:0x990c235aeedfc3e7";""
"perumahan";"perumahan";"Kec. Tahuna Bar.";"Kabupaten Kepulauan Sangihe, Sulawesi Utara";"Kabupaten Kepulauan Sangihe, Sulawesi Utara";"SULAWESI UTARA";"";"Indonesia";"";"";"";"3.6391395";"125.4232867";"https://maps.google.com/?cid=0x0:0x172c70b55a90c8a3";""
"perumahan";"Kantor Pemerintah";"Perumahan Pegawai No. 01";"JCHM+RWP, Kolongan Mitung, Kec. Tahuna Bar., Kabupaten Kepulauan Sangihe, Sulawesi Utara";"Kabupaten Kepulauan Sangihe, Sulawesi Utara";"SULAWESI UTARA";"";"Indonesia";" 082292276846";"";"";"3.6295851";"125.43484";"https://maps.google.com/?cid=0x0:0x27f677af0f6f2720";""
"perumahan";"Komplek perumahan";"Perum Malahasa";"JF9G+G55, Manente, Kec. Tahuna, Kabupaten Kepulauan Sangihe, Sulawesi Utara";"Kabupaten Kepulauan Sangihe, Sulawesi Utara";"SULAWESI UTARA";"";"Indonesia";"";"";"";"3.6187538";"125.4754917";"https://maps.google.com/?cid=0x0:0x99805cf4ab9bf755";""
"perumahan";"Komplek perumahan";"Rumah Kinan";"Manente, Kec. Tahuna, Kabupaten Kepulauan Sangihe, Sulawesi Utara";"Kabupaten Kepulauan Sangihe, Sulawesi Utara";"SULAWESI UTARA";"";"Indonesia";"";"";"";"3.6224374";"125.4775346";"https://maps.google.com/?cid=0x0:0xc017850f2b7b5452";""
"perumahan";"Komplek perumahan";"Perumahan Elite Tahuna";"JF6C+GJV, Santiago, Kec. Tahuna, Kabupaten Kepulauan Sangihe, Sulawesi Utara";"Kabupaten Kepulauan Sangihe, Sulawesi Utara";"SULAWESI UTARA";"";"Indonesia";"";"";"";"3.611362";"125.471562";"https://maps.google.com/?cid=0x0:0x1d9d44360d5b8495";""
"perumahan";"Komplek perumahan";"Perumahan ASN";"JFR2+4VM, Kolongan Mitung, Kec. Tahuna Bar., Kabupaten Kepulauan Sangihe, Sulawesi Utara";"Kabupaten Kepulauan Sangihe, Sulawesi Utara";"SULAWESI UTARA";"";"Indonesia";"";"";"";"3.6403311";"125.4521701";"https://maps.google.com/?cid=0x0:0x70dfe32dddc0e4fb";""
"perumahan";"Perumahan";"Kompleks Pulo Permai";"JCQJ+6JH, Kolongan Beha, Kec. Tahuna Bar., Kabupaten Kepulauan Sangihe, Sulawesi Utara";"Kabupaten Kepulauan Sangihe, Sulawesi Utara";"SULAWESI UTARA";"";"Indonesia";"";"";"";"3.6380716";"125.4315942";"https://maps.google.com/?cid=0x0:0x6cec788b6ab55ae0";""
"perumahan";"Komplek perumahan";"Rumah Risbel Mareoli";"JF89+4XX, Santiago, Kec. Tahuna, Kabupaten Kepulauan Sangihe, Sulawesi Utara";"Kabupaten Kepulauan Sangihe, Sulawesi Utara";"SULAWESI UTARA";"";"Indonesia";"";"";"";"3.615805";"125.4699789";"https://maps.google.com/?cid=0x0:0x31c1eb593c54b264";""
"perumahan";"perumahan";"Rumah Mandalika-lapasiang";"JCHM+VWC, Kolongan Mitung, Kec. Tahuna Bar., Kabupaten Kepulauan Sangihe, Sulawesi Utara";"Kabupaten Kepulauan Sangihe, Sulawesi Utara";"SULAWESI UTARA";"";"Indonesia";"";"";"";"3.6296875";"125.4347656";"https://maps.google.com/?cid=0x0:0x964bf966db42564e";""
"perumahan";"perumahan";"Ka tirsaka lany";"JCJP+975, Kolongan Mitung, Kec. Tahuna Bar., Kabupaten Kepulauan Sangihe, Sulawesi Utara";"Kabupaten Kepulauan Sangihe, Sulawesi Utara";"SULAWESI UTARA";"";"Indonesia";"";"";"";"3.6301512";"125.4356772";"https://maps.google.com/?cid=0x0:0xece04f83448212de";""
"perumahan";"Komplek perumahan";"Frieden";"JFFG+JRP, Manente, Kec. Tahuna, Kabupaten Kepulauan Sangihe, Sulawesi Utara";"Kabupaten Kepulauan Sangihe, Sulawesi Utara";"SULAWESI UTARA";"";"Indonesia";"";"";"";"3.624208";"125.477007";"https://maps.google.com/?cid=0x0:0x1404bbe4b217ad3";""
"perumahan";"Komplek perumahan";"Ivonne Home";"JCGQ+7MR, Kolongan Mitung, Kec. Tahuna Bar., Kabupaten Kepulauan Sangihe, Sulawesi Utara";"Kabupaten Kepulauan Sangihe, Sulawesi Utara";"SULAWESI UTARA";"";"Indonesia";"";"";"";"3.6257367";"125.4391539";"https://maps.google.com/?cid=0x0:0x210659d2e9467eb7";""
"perumahan";"Komplek perumahan";"Rumah Kel. Endo Budiman";"JFCG+XP7, Manente, Kec. Tahuna, Kabupaten Kepulauan Sangihe, Sulawesi Utara";"Kabupaten Kepulauan Sangihe, Sulawesi Utara";"SULAWESI UTARA";"";"Indonesia";"";"";"";"3.6224138";"125.4768029";"https://maps.google.com/?cid=0x0:0xe933d68ccbc4090f";""
"perumahan";"Komplek perumahan";"Wahono Home";"Manente, Kec. Tahuna, Kabupaten Kepulauan Sangihe, Sulawesi Utara";"Kabupaten Kepulauan Sangihe, Sulawesi Utara";"SULAWESI UTARA";"";"Indonesia";"";"";"";"3.6229452";"125.4792835";"https://maps.google.com/?cid=0x0:0xe79f7a1ac6a3c9bf";""
"perumahan";"Perhimpunan Pengembang Perumahan";"Rumah Keluarga Kantu-Berhandus";"JF6C+F84, Santiago, Kec. Tahuna, Kabupaten Kepulauan Sangihe, Sulawesi Utara";"Kabupaten Kepulauan Sangihe, Sulawesi Utara";"SULAWESI UTARA";"";"Indonesia";"";"";"";"3.6111469";"125.4708198";"https://maps.google.com/?cid=0x0:0x67197a4895f693b9";""
"perumahan";"Komplek perumahan";"Rumah MHM";"JCGQ+M7G, Lorong Soawuhu, Kolongan Mitung, Kec. Tahuna Bar., Kabupaten Kepulauan Sangihe, Sulawesi Utara";"Kabupaten Kepulauan Sangihe, Sulawesi Utara";"SULAWESI UTARA";"";"Indonesia";"";"";"";"3.6266887";"125.4382182";"https://maps.google.com/?cid=0x0:0x46d52201b5c61efd";""
"perumahan";"Komplek perumahan";"Kel. Makawata-Lombongaris";"JFFG+7X8, Manente, Kec. Tahuna, Kabupaten Kepulauan Sangihe, Sulawesi Utara";"Kabupaten Kepulauan Sangihe, Sulawesi Utara";"SULAWESI UTARA";"";"Indonesia";"";"";"";"3.6231561";"125.4774654";"https://maps.google.com/?cid=0x0:0xa1035dd3c3332b84";""
"perumahan";"Komplek perumahan";"Kintal";"JF79+PQ, Santiago, Kec. Tahuna, Kabupaten Kepulauan Sangihe, Sulawesi Utara";"Kabupaten Kepulauan Sangihe, Sulawesi Utara";"SULAWESI UTARA";"";"Indonesia";"";"";"";"3.6142959";"125.4694435";"https://maps.google.com/?cid=0x0:0xb056b8224ccbc640";""
"perumahan";"Komplek perumahan";"Kel. Taupahangeng Daleno";"JCQR+QQ, Kologan Beha Baru, Kec. Tahuna Bar., Kabupaten Kepulauan Sangihe, Sulawesi Utara";"Kabupaten Kepulauan Sangihe, Sulawesi Utara";"SULAWESI UTARA";"";"Indonesia";"";"";"";"3.6377604";"125.4417618";"https://maps.google.com/?cid=0x0:0xfefa63a31ceec6c7";""
"perumahan";"perumahan";"Kongginawan";"JF6C+GJV, Santiago, Kec. Tahuna, Kabupaten Kepulauan Sangihe, Sulawesi Utara";"Kabupaten Kepulauan Sangihe, Sulawesi Utara";"SULAWESI UTARA";"";"Indonesia";"";"";"";"3.6113209";"125.4714652";"https://maps.google.com/?cid=0x0:0xeab8ecf728922a03";""
"perumahan";"Komplek perumahan";"Kel.Makaghana - Manoy";"JFCF+VJ6, RT.10, Manente, Kec. Tahuna, Kabupaten Kepulauan Sangihe, Sulawesi Utara";"Kabupaten Kepulauan Sangihe, Sulawesi Utara";"SULAWESI UTARA";"";"Indonesia";"";"";"";"3.6221684";"125.474022";"https://maps.google.com/?cid=0x0:0x2689d552e85ec98f";""
"perumahan";"Perhimpunan Pengembang Perumahan";"Perumahan Lelepu";"JFMJ+XR3, Mahena, Kec. Tahuna, Kabupaten Kepulauan Sangihe, Sulawesi Utara";"Kabupaten Kepulauan Sangihe, Sulawesi Utara";"SULAWESI UTARA";"";"Indonesia";"";"";"";"3.6339617";"125.4814937";"https://maps.google.com/?cid=0x0:0x7459f988b973a91f";""
"perumahan";"Komplek perumahan";"Keluarga Gaghana Budiman";"JCPM+3P, Kolongan Beha, Kec. Tahuna Bar., Kabupaten Kepulauan Sangihe, Sulawesi Utara";"Kabupaten Kepulauan Sangihe, Sulawesi Utara";"SULAWESI UTARA";"";"Indonesia";"";"";"";"3.6355721";"125.4347689";"https://maps.google.com/?cid=0x0:0x990c235aeedfc3e7";""
"perumahan";"Komplek perumahan";"Tanalawo-Yunus home";"JFCF+96C, Manente, Kec. Tahuna, Kabupaten Kepulauan Sangihe, Sulawesi Utara";"Kabupaten Kepulauan Sangihe, Sulawesi Utara";"SULAWESI UTARA";"";"Indonesia";"";"";"";"3.6209652";"125.4729694";"https://maps.google.com/?cid=0x0:0x60ad74536f2c8cc";""
"perumahan";"Komplek perumahan";"Kavling Manente";"JFFG+JRP, Manente, Kec. Tahuna, Kabupaten Kepulauan Sangihe, Sulawesi Utara";"Kabupaten Kepulauan Sangihe, Sulawesi Utara";"SULAWESI UTARA";"";"Indonesia";" 081241028560";"";"";"3.6240783";"125.4770717";"https://maps.google.com/?cid=0x0:0x8f236084252ebf95";""
"perumahan";"Komplek perumahan";"Kel Piambera Mamantung";"JCQC+PP3, Kologan Akembawi, Kec. Tahuna Bar., Kabupaten Kepulauan Sangihe, Sulawesi Utara";"Kabupaten Kepulauan Sangihe, Sulawesi Utara";"SULAWESI UTARA";"";"Indonesia";"";"";"";"3.6392671";"125.4218008";"https://maps.google.com/?cid=0x0:0xb60225385e0740c";""
"perumahan";"perumahan";"Kec. Tahuna Bar.";"Kabupaten Kepulauan Sangihe, Sulawesi Utara";"Kabupaten Kepulauan Sangihe, Sulawesi Utara";"SULAWESI UTARA";"";"Indonesia";"";"";"";"3.6391395";"125.4232867";"https://maps.google.com/?cid=0x0:0x172c70b55a90c8a3";""
"perumahan";"Kantor Pemerintah";"Perumahan Pegawai No. 01";"JCHM+RWP, Kolongan Mitung, Kec. Tahuna Bar., Kabupaten Kepulauan Sangihe, Sulawesi Utara";"Kabupaten Kepulauan Sangihe, Sulawesi Utara";"SULAWESI UTARA";"";"Indonesia";" 082292276846";"";"";"3.6295851";"125.43484";"https://maps.google.com/?cid=0x0:0x27f677af0f6f2720";""
"perumahan";"Komplek perumahan";"Rumah vandy";"JCPH+H9, Kolongan Beha, Kec. Tahuna Bar., Kabupaten Kepulauan Sangihe, Sulawesi Utara";"Kabupaten Kepulauan Sangihe, Sulawesi Utara";"SULAWESI UTARA";"";"Indonesia";"";"";"";"3.6363297";"125.4283873";"https://maps.google.com/?cid=0x0:0xad3d90b5b2a4f88";""
"perumahan";"Komplek perumahan";"Frieden";"JFFG+JRP, Manente, Kec. Tahuna, Kabupaten Kepulauan Sangihe, Sulawesi Utara";"Kabupaten Kepulauan Sangihe, Sulawesi Utara";"SULAWESI UTARA";"";"Indonesia";"";"";"";"3.624208";"125.477007";"https://maps.google.com/?cid=0x0:0x1404bbe4b217ad3";""
"perumahan";"Komplek perumahan";"Rumah";"JFCF+RCQ, Manente, Kec. Tahuna, Kabupaten Kepulauan Sangihe, Sulawesi Utara";"Kabupaten Kepulauan Sangihe, Sulawesi Utara";"SULAWESI UTARA";"";"Indonesia";"";"";"";"3.6220903";"125.4735942";"https://maps.google.com/?cid=0x0:0x163f71c153892964";""
"perumahan";"Komplek perumahan";"Perum Malahasa";"JF9G+G55, Manente, Kec. Tahuna, Kabupaten Kepulauan Sangihe, Sulawesi Utara";"Kabupaten Kepulauan Sangihe, Sulawesi Utara";"SULAWESI UTARA";"";"Indonesia";"";"";"";"3.6187538";"125.4754917";"https://maps.google.com/?cid=0x0:0x99805cf4ab9bf755";""
"perumahan";"perumahan";"Kongginawan";"JF6C+GJV, Santiago, Kec. Tahuna, Kabupaten Kepulauan Sangihe, Sulawesi Utara";"Kabupaten Kepulauan Sangihe, Sulawesi Utara";"SULAWESI UTARA";"";"Indonesia";"";"";"";"3.6113209";"125.4714652";"https://maps.google.com/?cid=0x0:0xeab8ecf728922a03";""
"perumahan";"Komplek perumahan";"Ivonne Home";"JCGQ+7MR, Kolongan Mitung, Kec. Tahuna Bar., Kabupaten Kepulauan Sangihe, Sulawesi Utara";"Kabupaten Kepulauan Sangihe, Sulawesi Utara";"SULAWESI UTARA";"";"Indonesia";"";"";"";"3.6257367";"125.4391539";"https://maps.google.com/?cid=0x0:0x210659d2e9467eb7";""
"perumahan";"Brunch";"Devan seba";"JFFJ+83G, Manente, Kec. Tahuna, Kabupaten Kepulauan Sangihe, Sulawesi Utara";"Kabupaten Kepulauan Sangihe, Sulawesi Utara";"SULAWESI UTARA";"";"Indonesia";"";"";"";"3.6233163";"125.4802115";"https://maps.google.com/?cid=0x0:0x6d7f2bb0dd6681d7";""
"perumahan";"Komplek perumahan";"Rumah Kel. Gentindatu - Tahulending";"JFFG+8XQ, Perumnas, Manente, Kec. Tahuna, Kabupaten Kepulauan Sangihe, Sulawesi Utara";"Kabupaten Kepulauan Sangihe, Sulawesi Utara";"SULAWESI UTARA";"";"Indonesia";"";"";"";"3.6233266";"125.4774995";"https://maps.google.com/?cid=0x0:0x7eac4ab8e599711e";""
"perumahan";"Komplek perumahan";"Rumah Kel. Endo Budiman";"JFCG+XP7, Manente, Kec. Tahuna, Kabupaten Kepulauan Sangihe, Sulawesi Utara";"Kabupaten Kepulauan Sangihe, Sulawesi Utara";"SULAWESI UTARA";"";"Indonesia";"";"";"";"3.6224138";"125.4768029";"https://maps.google.com/?cid=0x0:0xe933d68ccbc4090f";""
"perumahan";"Pembangunan Perumahan";"Tamalawe maheda";"JFF4+5M3, Pananekeng, Kec. Tahuna Bar., Kabupaten Kepulauan Sangihe, Sulawesi Utara";"Kabupaten Kepulauan Sangihe, Sulawesi Utara";"SULAWESI UTARA";"";"Indonesia";"";"";"";"3.6228791";"125.4566757";"https://maps.google.com/?cid=0x0:0x94a640a58a887fce";""
"perumahan";"Komplek perumahan";"Rumah Putriyanti bewengbugo";"JFC9+52Q, Santiago, Kec. Tahuna, Kabupaten Kepulauan Sangihe, Sulawesi Utara";"Kabupaten Kepulauan Sangihe, Sulawesi Utara";"SULAWESI UTARA";"";"Indonesia";"";"";"";"3.6192685";"125.4672246";"https://maps.google.com/?cid=0x0:0xa45c81d1103b5677";""
"perumahan";"Komplek perumahan";"Andinny Home";"JFCG+XP7, Manente, Kec. Tahuna, Kabupaten Kepulauan Sangihe, Sulawesi Utara";"Kabupaten Kepulauan Sangihe, Sulawesi Utara";"SULAWESI UTARA";"";"Indonesia";"";"";"";"3.6224138";"125.4768029";"https://maps.google.com/?cid=0x0:0xdea2158504f6e9ae";""
"perumahan";"Perumahan";"Kompleks Pulo Permai";"JCQJ+6JH, Kolongan Beha, Kec. Tahuna Bar., Kabupaten Kepulauan Sangihe, Sulawesi Utara";"Kabupaten Kepulauan Sangihe, Sulawesi Utara";"SULAWESI UTARA";"";"Indonesia";"";"";"";"3.6380716";"125.4315942";"https://maps.google.com/?cid=0x0:0x6cec788b6ab55ae0";""
"perumahan";"Pembangunan Perumahan";"vellya bawanda";"JF94+528, Pananekeng, Kec. Tahuna Bar., Kabupaten Kepulauan Sangihe, Sulawesi Utara";"Kabupaten Kepulauan Sangihe, Sulawesi Utara";"SULAWESI UTARA";"";"Indonesia";"";"";"";"3.6181546";"125.4551329";"https://maps.google.com/?cid=0x0:0x31637a3a15a579ad";""
"perumahan";"Komplek perumahan";"Kintal";"JF79+PQ, Santiago, Kec. Tahuna, Kabupaten Kepulauan Sangihe, Sulawesi Utara";"Kabupaten Kepulauan Sangihe, Sulawesi Utara";"SULAWESI UTARA";"";"Indonesia";"";"";"";"3.6142959";"125.4694435";"https://maps.google.com/?cid=0x0:0xb056b8224ccbc640";""
"perumahan";"Perhimpunan Pengembang Perumahan";"Rumah Keluarga Kantu-Berhandus";"JF6C+F84, Santiago, Kec. Tahuna, Kabupaten Kepulauan Sangihe, Sulawesi Utara";"Kabupaten Kepulauan Sangihe, Sulawesi Utara";"SULAWESI UTARA";"";"Indonesia";"";"";"";"3.6111469";"125.4708198";"https://maps.google.com/?cid=0x0:0x67197a4895f693b9";""
"perumahan";"Komplek perumahan";"Keluarga Gaghana Budiman";"JCPM+3P, Kolongan Beha, Kec. Tahuna Bar., Kabupaten Kepulauan Sangihe, Sulawesi Utara";"Kabupaten Kepulauan Sangihe, Sulawesi Utara";"SULAWESI UTARA";"";"Indonesia";"";"";"";"3.6355721";"125.4347689";"https://maps.google.com/?cid=0x0:0x990c235aeedfc3e7";""
"perumahan";"Komplek perumahan";"SADIENG-TAMBUBULU HOME";"JFCF+53V, Manente, Kec. Tahuna, Kabupaten Kepulauan Sangihe, Sulawesi Utara";"Kabupaten Kepulauan Sangihe, Sulawesi Utara";"SULAWESI UTARA";"";"Indonesia";" 082293416692";"";"";"3.6207338";"125.4729113";"https://maps.google.com/?cid=0x0:0x753b72ed266d5a7d";""
"perumahan";"Komplek perumahan";"Rumah Kinan";"Manente, Kec. Tahuna, Kabupaten Kepulauan Sangihe, Sulawesi Utara";"Kabupaten Kepulauan Sangihe, Sulawesi Utara";"SULAWESI UTARA";"";"Indonesia";"";"";"";"3.6224374";"125.4775346";"https://maps.google.com/?cid=0x0:0xc017850f2b7b5452";""
"perumahan";"Komplek perumahan";"Kavling Manente";"JFFG+JRP, Manente, Kec. Tahuna, Kabupaten Kepulauan Sangihe, Sulawesi Utara";"Kabupaten Kepulauan Sangihe, Sulawesi Utara";"SULAWESI UTARA";"";"Indonesia";" 081241028560";"";"";"3.6240783";"125.4770717";"https://maps.google.com/?cid=0x0:0x8f236084252ebf95";""
"perumahan";"Komplek perumahan";"Valen mandalika";"JCPH+H9, Kolongan Beha, Kec. Tahuna Bar., Kabupaten Kepulauan Sangihe, Sulawesi Utara";"Kabupaten Kepulauan Sangihe, Sulawesi Utara";"SULAWESI UTARA";"";"Indonesia";"";"";"";"3.6368051";"125.428461";"https://maps.google.com/?cid=0x0:0x53e19036beb1fa21";""
"perumahan";"Komplek perumahan";"Roby Sahabat";"JCFQ+8RJ, Kolongan Mitung, Kec. Tahuna Bar., Kabupaten Kepulauan Sangihe, Sulawesi Utara";"Kabupaten Kepulauan Sangihe, Sulawesi Utara";"SULAWESI UTARA";"";"Indonesia";"";"";"";"3.6233447";"125.4395147";"https://maps.google.com/?cid=0x0:0x3f21b2deccf2e9d9";""
"perumahan";"perumahan";"Kec. Tahuna Bar.";"Kabupaten Kepulauan Sangihe, Sulawesi Utara";"Kabupaten Kepulauan Sangihe, Sulawesi Utara";"SULAWESI UTARA";"";"Indonesia";"";"";"";"3.6391395";"125.4232867";"https://maps.google.com/?cid=0x0:0x172c70b55a90c8a3";""
"perumahan";"Komplek perumahan";"Perum Malahasa";"JF9G+G55, Manente, Kec. Tahuna, Kabupaten Kepulauan Sangihe, Sulawesi Utara";"Kabupaten Kepulauan Sangihe, Sulawesi Utara";"SULAWESI UTARA";"";"Indonesia";"";"";"";"3.6187538";"125.4754917";"https://maps.google.com/?cid=0x0:0x99805cf4ab9bf755";""
"perumahan";"Kantor Pemerintah";"Perumahan Pegawai No. 01";"JCHM+RWP, Kolongan Mitung, Kec. Tahuna Bar., Kabupaten Kepulauan Sangihe, Sulawesi Utara";"Kabupaten Kepulauan Sangihe, Sulawesi Utara";"SULAWESI UTARA";"";"Indonesia";" 082292276846";"";"";"3.6295851";"125.43484";"https://maps.google.com/?cid=0x0:0x27f677af0f6f2720";""
"perumahan";"Komplek perumahan";"Rumah";"JFCF+RCQ, Manente, Kec. Tahuna, Kabupaten Kepulauan Sangihe, Sulawesi Utara";"Kabupaten Kepulauan Sangihe, Sulawesi Utara";"SULAWESI UTARA";"";"Indonesia";"";"";"";"3.6220903";"125.4735942";"https://maps.google.com/?cid=0x0:0x163f71c153892964";""
"perumahan";"perumahan";"Rumah fredy tatunduge";"JCQR+QQ, Kologan Beha Baru, Kec. Tahuna Bar., Kabupaten Kepulauan Sangihe, Sulawesi Utara";"Kabupaten Kepulauan Sangihe, Sulawesi Utara";"SULAWESI UTARA";"";"Indonesia";"";"";"";"3.6395829";"125.4432887";"https://maps.google.com/?cid=0x0:0x918f41e68ed5ec2b";""
"perumahan";"perumahan";"Kongginawan";"JF6C+GJV, Santiago, Kec. Tahuna, Kabupaten Kepulauan Sangihe, Sulawesi Utara";"Kabupaten Kepulauan Sangihe, Sulawesi Utara";"SULAWESI UTARA";"";"Indonesia";"";"";"";"3.6113209";"125.4714652";"https://maps.google.com/?cid=0x0:0xeab8ecf728922a03";""
"perumahan";"Komplek perumahan";"Frieden";"JFFG+JRP, Manente, Kec. Tahuna, Kabupaten Kepulauan Sangihe, Sulawesi Utara";"Kabupaten Kepulauan Sangihe, Sulawesi Utara";"SULAWESI UTARA";"";"Indonesia";"";"";"";"3.624208";"125.477007";"https://maps.google.com/?cid=0x0:0x1404bbe4b217ad3";""
"perumahan";"Perumahan";"Kompleks Pulo Permai";"JCQJ+6JH, Kolongan Beha, Kec. Tahuna Bar., Kabupaten Kepulauan Sangihe, Sulawesi Utara";"Kabupaten Kepulauan Sangihe, Sulawesi Utara";"SULAWESI UTARA";"";"Indonesia";"";"";"";"3.6380716";"125.4315942";"https://maps.google.com/?cid=0x0:0x6cec788b6ab55ae0";""
"perumahan";"Komplek perumahan";"Tanalawo-Yunus home";"JFCF+96C, Manente, Kec. Tahuna, Kabupaten Kepulauan Sangihe, Sulawesi Utara";"Kabupaten Kepulauan Sangihe, Sulawesi Utara";"SULAWESI UTARA";"";"Indonesia";"";"";"";"3.6209652";"125.4729694";"https://maps.google.com/?cid=0x0:0x60ad74536f2c8cc";""
"perumahan";"Komplek perumahan";"Perumahan Elite Tahuna";"JF6C+GJV, Santiago, Kec. Tahuna, Kabupaten Kepulauan Sangihe, Sulawesi Utara";"Kabupaten Kepulauan Sangihe, Sulawesi Utara";"SULAWESI UTARA";"";"Indonesia";"";"";"";"3.611362";"125.471562";"https://maps.google.com/?cid=0x0:0x1d9d44360d5b8495";""
"perumahan";"Komplek perumahan";"Rumah vandy";"JCPH+H9, Kolongan Beha, Kec. Tahuna Bar., Kabupaten Kepulauan Sangihe, Sulawesi Utara";"Kabupaten Kepulauan Sangihe, Sulawesi Utara";"SULAWESI UTARA";"";"Indonesia";"";"";"";"3.6363297";"125.4283873";"https://maps.google.com/?cid=0x0:0xad3d90b5b2a4f88";""
"perumahan";"Komplek perumahan";"Rumah MHM";"JCGQ+M7G, Lorong Soawuhu, Kolongan Mitung, Kec. Tahuna Bar., Kabupaten Kepulauan Sangihe, Sulawesi Utara";"Kabupaten Kepulauan Sangihe, Sulawesi Utara";"SULAWESI UTARA";"";"Indonesia";"";"";"";"3.6266887";"125.4382182";"https://maps.google.com/?cid=0x0:0x46d52201b5c61efd";""
"perumahan";"Pembangunan Perumahan";"vellya bawanda";"JF94+528, Pananekeng, Kec. Tahuna Bar., Kabupaten Kepulauan Sangihe, Sulawesi Utara";"Kabupaten Kepulauan Sangihe, Sulawesi Utara";"SULAWESI UTARA";"";"Indonesia";"";"";"";"3.6181546";"125.4551329";"https://maps.google.com/?cid=0x0:0x31637a3a15a579ad";""
"perumahan";"Perhimpunan Pengembang Perumahan";"Perumahan Lelepu";"JFMJ+XR3, Mahena, Kec. Tahuna, Kabupaten Kepulauan Sangihe, Sulawesi Utara";"Kabupaten Kepulauan Sangihe, Sulawesi Utara";"SULAWESI UTARA";"";"Indonesia";"";"";"";"3.6339617";"125.4814937";"https://maps.google.com/?cid=0x0:0x7459f988b973a91f";""
"perumahan";"Komplek perumahan";"Rumah Lutfiyah Anwar";"JF89+4XX, Santiago, Kec. Tahuna, Kabupaten Kepulauan Sangihe, Sulawesi Utara";"Kabupaten Kepulauan Sangihe, Sulawesi Utara";"SULAWESI UTARA";"";"Indonesia";"";"";"";"3.6153736";"125.4699759";"https://maps.google.com/?cid=0x0:0xf97a2b61c14d0bf7";""
"perumahan";"Komplek perumahan";"Tanods home";"JFFG+5JC, RT.07/RW.04, Manente, Kec. Tahuna, Kabupaten Kepulauan Sangihe, Sulawesi Utara";"Kabupaten Kepulauan Sangihe, Sulawesi Utara";"SULAWESI UTARA";"";"Indonesia";"";"";"";"3.6229293";"125.4765128";"https://maps.google.com/?cid=0x0:0xebaed442b497db49";""
"perumahan";"Komplek perumahan";"Rumah Risbel Mareoli";"JF89+4XX, Santiago, Kec. Tahuna, Kabupaten Kepulauan Sangihe, Sulawesi Utara";"Kabupaten Kepulauan Sangihe, Sulawesi Utara";"SULAWESI UTARA";"";"Indonesia";"";"";"";"3.615805";"125.4699789";"https://maps.google.com/?cid=0x0:0x31c1eb593c54b264";""
"perumahan";"Komplek perumahan";"Kavling Manente";"JFFG+JRP, Manente, Kec. Tahuna, Kabupaten Kepulauan Sangihe, Sulawesi Utara";"Kabupaten Kepulauan Sangihe, Sulawesi Utara";"SULAWESI UTARA";"";"Indonesia";" 081241028560";"";"";"3.6240783";"125.4770717";"https://maps.google.com/?cid=0x0:0x8f236084252ebf95";""
"perumahan";"Komplek perumahan";"Keluarga Gaghana Budiman";"JCPM+3P, Kolongan Beha, Kec. Tahuna Bar., Kabupaten Kepulauan Sangihe, Sulawesi Utara";"Kabupaten Kepulauan Sangihe, Sulawesi Utara";"SULAWESI UTARA";"";"Indonesia";"";"";"";"3.6355721";"125.4347689";"https://maps.google.com/?cid=0x0:0x990c235aeedfc3e7";""
"perumahan";"Pembangunan Perumahan";"ValDai";"JFFH+69C, Manente, Kec. Tahuna, Kabupaten Kepulauan Sangihe, Sulawesi Utara";"Kabupaten Kepulauan Sangihe, Sulawesi Utara";"SULAWESI UTARA";"";"Indonesia";"";"";"";"3.6230623";"125.4783908";"https://maps.google.com/?cid=0x0:0xea27383bbc056286";""
"perumahan";"Brunch";"Devan seba";"JFFJ+83G, Manente, Kec. Tahuna, Kabupaten Kepulauan Sangihe, Sulawesi Utara";"Kabupaten Kepulauan Sangihe, Sulawesi Utara";"SULAWESI UTARA";"";"Indonesia";"";"";"";"3.6233163";"125.4802115";"https://maps.google.com/?cid=0x0:0x6d7f2bb0dd6681d7";""
"perumahan";"Komplek perumahan";"Ivonne Home";"JCGQ+7MR, Kolongan Mitung, Kec. Tahuna Bar., Kabupaten Kepulauan Sangihe, Sulawesi Utara";"Kabupaten Kepulauan Sangihe, Sulawesi Utara";"SULAWESI UTARA";"";"Indonesia";"";"";"";"3.6257367";"125.4391539";"https://maps.google.com/?cid=0x0:0x210659d2e9467eb7";""
"perumahan";"Komplek perumahan";"Perumahan ASN";"JFR2+4VM, Kolongan Mitung, Kec. Tahuna Bar., Kabupaten Kepulauan Sangihe, Sulawesi Utara";"Kabupaten Kepulauan Sangihe, Sulawesi Utara";"SULAWESI UTARA";"";"Indonesia";"";"";"";"3.6403311";"125.4521701";"https://maps.google.com/?cid=0x0:0x70dfe32dddc0e4fb";""
"perumahan";"Komplek perumahan";"Sya home";"JFF2+XHW, Angges, Kec. Tahuna Bar., Kabupaten Kepulauan Sangihe, Sulawesi Utara";"Kabupaten Kepulauan Sangihe, Sulawesi Utara";"SULAWESI UTARA";"";"Indonesia";"";"";"";"3.624999";"125.4514529";"https://maps.google.com/?cid=0x0:0xe8cb541932a9140c";""
"perumahan";"Komplek perumahan";"Hart Home";"JF8C+FCR, Santiago, Kec. Tahuna, Kabupaten Kepulauan Sangihe, Sulawesi Utara";"Kabupaten Kepulauan Sangihe, Sulawesi Utara";"SULAWESI UTARA";"";"Indonesia";"";"";"";"3.616423";"125.47093";"https://maps.google.com/?cid=0x0:0x75cf26615e392982";""
"perumahan";"perumahan";"Sulawesi Utara 95812";"Sawang Bendar, Kec. Tahuna, Kabupaten Kepulauan Sangihe, Sulawesi Utara";"Kabupaten Kepulauan Sangihe, Sulawesi Utara";"SULAWESI UTARA";"";"Indonesia";"";"";"";"3.6100689";"125.4899246";"https://maps.google.com/?cid=0x0:0xb2f5cb5e87df0b38";""
"perumahan";"Perhimpunan Pengembang Perumahan";"Perumahan Pemerintah Daerah";"Jl. Hasanudin No.85, Sawang Bendar, Kec. Tahuna, Kabupaten Kepulauan Sangihe, Sulawesi Utara 95812";"Sawang Bendar, Kec. Tahuna, Kabupaten Kepulauan Sangihe";"SULAWESI UTARA";"95812";"Indonesia";"";"";"";"3.6100403";"125.4895148";"https://maps.google.com/?cid=0x0:0xe93ac9ab9a0300f9";""
"perumahan";"Komplek perumahan";"Perum Malahasa";"JF9G+G55, Manente, Kec. Tahuna, Kabupaten Kepulauan Sangihe, Sulawesi Utara";"Kabupaten Kepulauan Sangihe, Sulawesi Utara";"SULAWESI UTARA";"";"Indonesia";"";"";"";"3.6187538";"125.4754917";"https://maps.google.com/?cid=0x0:0x99805cf4ab9bf755";""
"perumahan";"Komplek perumahan";"Mahena kawa";"JF5R+X8X, Sawang Bendar, Kec. Tahuna, Kabupaten Kepulauan Sangihe, Sulawesi Utara";"Kabupaten Kepulauan Sangihe, Sulawesi Utara";"SULAWESI UTARA";"";"Indonesia";"";"";"";"3.6099928";"125.4908496";"https://maps.google.com/?cid=0x0:0x4b90c2eea95479ca";""
"perumahan";"Komplek perumahan";"Home Tumadang Kasiaheng";"JF5R+X8X, Sawang Bendar, Kec. Tahuna, Kabupaten Kepulauan Sangihe, Sulawesi Utara";"Kabupaten Kepulauan Sangihe, Sulawesi Utara";"SULAWESI UTARA";"";"Indonesia";"";"";"";"3.6099928";"125.4908496";"https://maps.google.com/?cid=0x0:0x9a2c7ef4380313f1";""
"perumahan";"Komplek perumahan";"Kolongan akembawi";"JF5R+X8X, Sawang Bendar, Kec. Tahuna, Kabupaten Kepulauan Sangihe, Sulawesi Utara";"Kabupaten Kepulauan Sangihe, Sulawesi Utara";"SULAWESI UTARA";"";"Indonesia";"";"";"";"3.6099928";"125.4908496";"https://maps.google.com/?cid=0x0:0xa94f1616959a0465";""
"perumahan";"Komplek perumahan";"Akembuala";"JF5R+X8X, Sawang Bendar, Kec. Tahuna, Kabupaten Kepulauan Sangihe, Sulawesi Utara";"Kabupaten Kepulauan Sangihe, Sulawesi Utara";"SULAWESI UTARA";"";"Indonesia";"";"";"";"3.6099928";"125.4908496";"https://maps.google.com/?cid=0x0:0xde9090cf60d93f3e";""
"perumahan";"Area Mendaki";"Kel.Sasikome Dalope";"JF5R+X8X, Sawang Bendar, Kec. Tahuna, Kabupaten Kepulauan Sangihe, Sulawesi Utara";"Kabupaten Kepulauan Sangihe, Sulawesi Utara";"SULAWESI UTARA";"";"Indonesia";"";"";"";"3.6099928";"125.4908496";"https://maps.google.com/?cid=0x0:0x12a8ebfe20dcf9e3";""
"perumahan";"perumahan";"Kec. Tahuna Tim.";"Kabupaten Kepulauan Sangihe, Sulawesi Utara";"Kabupaten Kepulauan Sangihe, Sulawesi Utara";"SULAWESI UTARA";"";"Indonesia";"";"";"";"3.6107787";"125.5084379";"https://maps.google.com/?cid=0x0:0x12910a813072e8b9";""
"perumahan";"Sekolah";"DINAS PERUMAHAN RAKYAT DAN KAWASAN PERMUKIMAN SERTA PERTANAHAN DAERAH";"JG55+W43, Tona II, Kec. Tahuna Tim., Kabupaten Kepulauan Sangihe, Sulawesi Utara";"Kabupaten Kepulauan Sangihe, Sulawesi Utara";"SULAWESI UTARA";"";"Indonesia";"";"";"";"3.6097339";"125.5083904";"https://maps.google.com/?cid=0x0:0x855992110d85c472";""
"perumahan";"Komplek perumahan";"Perumahan ASN";"JFR2+4VM, Kolongan Mitung, Kec. Tahuna Bar., Kabupaten Kepulauan Sangihe, Sulawesi Utara";"Kabupaten Kepulauan Sangihe, Sulawesi Utara";"SULAWESI UTARA";"";"Indonesia";"";"";"";"3.6403311";"125.4521701";"https://maps.google.com/?cid=0x0:0x70dfe32dddc0e4fb";""
"perumahan";"perumahan";"Kec. Tahuna";"Kabupaten Kepulauan Sangihe, Sulawesi Utara";"Kabupaten Kepulauan Sangihe, Sulawesi Utara";"SULAWESI UTARA";"";"Indonesia";"";"";"";"3.6099928";"125.4908496";"https://maps.google.com/?cid=0x0:0xeeb4eaec90f60772";""
"perumahan";"Kafe";"R2 Remang-Remang";"JF5R+F49, Jl. Raramenusa, Sawang Bendar, Kec. Tahuna, Kabupaten Kepulauan Sangihe, Sulawesi Utara";"Kabupaten Kepulauan Sangihe, Sulawesi Utara";"SULAWESI UTARA";"";"Indonesia";" 082192228943";"";"";"3.6086583";"125.490371";"https://maps.google.com/?cid=0x0:0x3f63c31baa9457e1";""
"perumahan";"perumahan";"kel.aer-tendaunusa";"akembuala, lorong, inpres, Apeng Sembeka, Tahuna, Sangihe Islands Regency, North Sulawesi";"Kabupaten Kepulauan Sangihe, Sulawesi Utara";"SULAWESI UTARA";"";"Indonesia";"";"";"";"3.6099928";"125.4908496";"https://maps.google.com/?cid=0x0:0xc9670b02a9461468";""
"perumahan";"Komplek perumahan";"Rumah";"JFCF+RCQ, Manente, Kec. Tahuna, Kabupaten Kepulauan Sangihe, Sulawesi Utara";"Kabupaten Kepulauan Sangihe, Sulawesi Utara";"SULAWESI UTARA";"";"Indonesia";"";"";"";"3.6220903";"125.4735942";"https://maps.google.com/?cid=0x0:0x163f71c153892964";""
"perumahan";"Pembangunan Perumahan";"Rumah manente";"JF9C+PWQ, Jl. Manente, Manente, Kec. Tahuna, Kabupaten Kepulauan Sangihe, Sulawesi Utara";"Kabupaten Kepulauan Sangihe, Sulawesi Utara";"SULAWESI UTARA";"";"Indonesia";"";"";"";"3.6193374";"125.472369";"https://maps.google.com/?cid=0x0:0xb63813a31f18fe23";""
"perumahan";"perumahan";"Kec. Tahuna Tim.";"Kabupaten Kepulauan Sangihe, Sulawesi Utara";"Kabupaten Kepulauan Sangihe, Sulawesi Utara";"SULAWESI UTARA";"";"Indonesia";"";"";"";"3.6107787";"125.5084379";"https://maps.google.com/?cid=0x0:0x12910a813072e8b9";""
"perumahan";"Komplek perumahan";"Perumahan Elite Tahuna";"JF6C+GJV, Santiago, Kec. Tahuna, Kabupaten Kepulauan Sangihe, Sulawesi Utara";"Kabupaten Kepulauan Sangihe, Sulawesi Utara";"SULAWESI UTARA";"";"Indonesia";"";"";"";"3.611362";"125.471562";"https://maps.google.com/?cid=0x0:0x1d9d44360d5b8495";""
"perumahan";"Komplek perumahan";"Perum Malahasa";"JF9G+G55, Manente, Kec. Tahuna, Kabupaten Kepulauan Sangihe, Sulawesi Utara";"Kabupaten Kepulauan Sangihe, Sulawesi Utara";"SULAWESI UTARA";"";"Indonesia";"";"";"";"3.6187538";"125.4754917";"https://maps.google.com/?cid=0x0:0x99805cf4ab9bf755";""
"perumahan";"Rumah wisata";"In de.kost 8k";"Jl. Boulevard Tahuna, Tidore, Kec. Tahuna Tim., Kabupaten Kepulauan Sangihe, Sulawesi Utara 95814";"Tidore, Kec. Tahuna Tim., Kabupaten Kepulauan Sangihe";"SULAWESI UTARA";"95814";"Indonesia";" 082319848576";"";"";"3.6030536";"125.5043072";"https://maps.google.com/?cid=0x0:0x1559f7f40e397378";""
"perumahan";"Rumah wisata";"The Captain's Kost";"JL. TK Pembina No.RT 011, Tidore, Kec. Tahuna, Kabupaten Kepulauan Sangihe, Sulawesi Utara 95814";"Tidore, Kec. Tahuna, Kabupaten Kepulauan Sangihe";"SULAWESI UTARA";"95814";"Indonesia";" 08124126402";"";"";"3.6055541";"125.5058002";"https://maps.google.com/?cid=0x0:0x1d91af39a20c044d";""
"perumahan";"Komplek perumahan";"Perumahan ASN";"JFR2+4VM, Kolongan Mitung, Kec. Tahuna Bar., Kabupaten Kepulauan Sangihe, Sulawesi Utara";"Kabupaten Kepulauan Sangihe, Sulawesi Utara";"SULAWESI UTARA";"";"Indonesia";"";"";"";"3.6403311";"125.4521701";"https://maps.google.com/?cid=0x0:0x70dfe32dddc0e4fb";""
"perumahan";"Komplek perumahan";"Akembuala";"JF5R+X8X, Sawang Bendar, Kec. Tahuna, Kabupaten Kepulauan Sangihe, Sulawesi Utara";"Kabupaten Kepulauan Sangihe, Sulawesi Utara";"SULAWESI UTARA";"";"Indonesia";"";"";"";"3.6099928";"125.4908496";"https://maps.google.com/?cid=0x0:0xde9090cf60d93f3e";""
"perumahan";"Pembangunan Perumahan";"Rumah manente";"JF9C+PWQ, Jl. Manente, Manente, Kec. Tahuna, Kabupaten Kepulauan Sangihe, Sulawesi Utara";"Kabupaten Kepulauan Sangihe, Sulawesi Utara";"SULAWESI UTARA";"";"Indonesia";"";"";"";"3.6193374";"125.472369";"https://maps.google.com/?cid=0x0:0xb63813a31f18fe23";""
"perumahan";"Komplek perumahan";"Tahuna timur";"JG36+J2V, Tona I, Kec. Tahuna Tim., Kabupaten Kepulauan Sangihe, Sulawesi Utara";"Kabupaten Kepulauan Sangihe, Sulawesi Utara";"SULAWESI UTARA";"";"Indonesia";"";"";"";"3.604115";"125.5100407";"https://maps.google.com/?cid=0x0:0x7ca5a58e96c9dfa2";""
"perumahan";"Komplek perumahan";"Lorong YAKUSA";"JG33+HX8, Tidore, Kec. Tahuna Tim., Kabupaten Kepulauan Sangihe, Sulawesi Utara";"Kabupaten Kepulauan Sangihe, Sulawesi Utara";"SULAWESI UTARA";"";"Indonesia";"";"";"";"3.6039148";"125.5049461";"https://maps.google.com/?cid=0x0:0xc3d8ae53e1c1b2d8";""
"perumahan";"Komplek perumahan";"Stevano";"JF2X+6W7, Batulewehe, Kec. Tahuna Tim., Kabupaten Kepulauan Sangihe, Sulawesi Utara";"Kabupaten Kepulauan Sangihe, Sulawesi Utara";"SULAWESI UTARA";"";"Indonesia";"";"";"";"3.5998155";"125.4997858";"https://maps.google.com/?cid=0x0:0x2b4be9e867e615e1";""
"perumahan";"Komplek perumahan";"KEL.BAWELLE-LUKAS";"JG45+XP7, Tona I, Kec. Tahuna Tim., Kabupaten Kepulauan Sangihe, Sulawesi Utara";"Kabupaten Kepulauan Sangihe, Sulawesi Utara";"SULAWESI UTARA";"";"Indonesia";"";"";"";"3.6074151";"125.5093056";"https://maps.google.com/?cid=0x0:0x72de166a50d9136a";""
"perumahan";"Komplek perumahan";"Kondoalumang's";"JG66+H58, Tona II, Kec. Tahuna Tim., Kabupaten Kepulauan Sangihe, Sulawesi Utara";"Kabupaten Kepulauan Sangihe, Sulawesi Utara";"SULAWESI UTARA";"";"Indonesia";"";"";"";"3.6114119";"125.5104521";"https://maps.google.com/?cid=0x0:0xabb52f861b593e7a";""
"perumahan";"Komplek perumahan";"HomeSH";"JG65+GQ6, Tona II, Kec. Tahuna Tim., Kabupaten Kepulauan Sangihe, Sulawesi Utara";"Kabupaten Kepulauan Sangihe, Sulawesi Utara";"SULAWESI UTARA";"";"Indonesia";"";"";"";"3.6112844";"125.5094021";"https://maps.google.com/?cid=0x0:0xa7ee453903ba9240";""
"perumahan";"Komplek perumahan";"Tidore";"JG43+9X6, Tidore, Kec. Tahuna Tim., Kabupaten Kepulauan Sangihe, Sulawesi Utara";"Kabupaten Kepulauan Sangihe, Sulawesi Utara";"SULAWESI UTARA";"";"Indonesia";" 085298933620";"";"";"3.6059103";"125.5048856";"https://maps.google.com/?cid=0x0:0x2ef660e00682d7d9";""
"perumahan";"Perhimpunan Pengembang Perumahan";"Kel. Bawole-Kambong (Rumah Tahuna)";"HGX5+VQ3, Tapuang, Kec. Tahuna Tim., Kabupaten Kepulauan Sangihe, Sulawesi Utara";"Kabupaten Kepulauan Sangihe, Sulawesi Utara";"SULAWESI UTARA";"";"Indonesia";"";"";"";"3.5998293";"125.5094956";"https://maps.google.com/?cid=0x0:0xc3f2d081d15a794b";""
"perumahan";"Komplek perumahan";"Kaluhaghi";"JG36+J4W, Tona I, Kec. Tahuna Tim., Kabupaten Kepulauan Sangihe, Sulawesi Utara";"Kabupaten Kepulauan Sangihe, Sulawesi Utara";"SULAWESI UTARA";"";"Indonesia";"";"";"";"3.6041475";"125.510381";"https://maps.google.com/?cid=0x0:0x581d7b7d640a750";""
"perumahan";"Komplek perumahan";"Tengkue - Janis";"JG65+VXM, Tona II, Kec. Tahuna Tim., Kabupaten Kepulauan Sangihe, Sulawesi Utara";"Kabupaten Kepulauan Sangihe, Sulawesi Utara";"SULAWESI UTARA";"";"Indonesia";"";"";"";"3.6126021";"125.5099767";"https://maps.google.com/?cid=0x0:0xf7cfdb5010f460ba";""
"perumahan";"Komplek perumahan";"Enteng Creation Zone";"JG66+X3H Enteng CZ, Tona II, Kec. Tahuna Tim., Kabupaten Kepulauan Sangihe, Sulawesi Utara";"Kabupaten Kepulauan Sangihe, Sulawesi Utara";"SULAWESI UTARA";"";"Indonesia";"";"";"";"3.612433";"125.510233";"https://maps.google.com/?cid=0x0:0x9bc69c696c89f5e8";""
"perumahan";"Komplek perumahan";"MABES SMC";"HGX5+VQ3, Tapuang, Kec. Tahuna Tim., Kabupaten Kepulauan Sangihe, Sulawesi Utara";"Kabupaten Kepulauan Sangihe, Sulawesi Utara";"SULAWESI UTARA";"";"Indonesia";"";"";"";"3.5997717";"125.509228";"https://maps.google.com/?cid=0x0:0x6541fa82e6450bac";""
"perumahan";"Komplek perumahan";"Talau Lalinsa Home";"JG35+R7C, Tona I, Kec. Tahuna Tim., Kabupaten Kepulauan Sangihe, Sulawesi Utara";"Kabupaten Kepulauan Sangihe, Sulawesi Utara";"SULAWESI UTARA";"";"Indonesia";"";"";"";"3.604214";"125.507589";"https://maps.google.com/?cid=0x0:0xaf48d78986a50956";""
"perumahan";"Komplek perumahan";"Rumah Kel.Marthin Mananohas";"JG65+765, Tona II, Kec. Tahuna Tim., Kabupaten Kepulauan Sangihe, Sulawesi Utara";"Kabupaten Kepulauan Sangihe, Sulawesi Utara";"SULAWESI UTARA";"";"Indonesia";"";"";"";"3.6106296";"125.5081062";"https://maps.google.com/?cid=0x0:0x8ed637f676fb1798";""
"perumahan";"Pembangunan Perumahan";"Lorong Towo'e";"JF5V+RPX, Sawang Bendar, Kec. Tahuna, Kabupaten Kepulauan Sangihe, Sulawesi Utara";"Kabupaten Kepulauan Sangihe, Sulawesi Utara";"SULAWESI UTARA";"";"Indonesia";"";"";"";"3.6096185";"125.4943688";"https://maps.google.com/?cid=0x0:0x6e5393a15a47827e";""
"perumahan";"Komplek perumahan";"Rumah Aldy";"HFXV+C35, Enengpahembang, Kec. Tahuna Tim., Kabupaten Kepulauan Sangihe, Sulawesi Utara";"Kabupaten Kepulauan Sangihe, Sulawesi Utara";"SULAWESI UTARA";"";"Indonesia";"";"";"";"3.598701";"125.4919905";"https://maps.google.com/?cid=0x0:0xc4d3ffa739cbf87e";""
"perumahan";"Kantor Pemerintah";"Rumah Jabatan Bupati Kepulauan Sangihe";"JG65+254, Tona II, Kec. Tahuna Tim., Kabupaten Kepulauan Sangihe, Sulawesi Utara";"Kabupaten Kepulauan Sangihe, Sulawesi Utara";"SULAWESI UTARA";"";"Indonesia";"";"";"";"3.6100062";"125.5079573";"https://maps.google.com/?cid=0x0:0xc1d57cc74a347a3a";""
"perumahan";"Komplek perumahan";"Patimbano Musa";"JG35+PRW, Tona I, Kec. Tahuna Tim., Kabupaten Kepulauan Sangihe, Sulawesi Utara";"Kabupaten Kepulauan Sangihe, Sulawesi Utara";"SULAWESI UTARA";"";"Indonesia";"";"";"";"3.6043717";"125.5095794";"https://maps.google.com/?cid=0x0:0xb8be0b71847f464e";""
"perumahan";"Komplek perumahan";"Rumah Alisya";"JG85+6C3, Dumuhung, Kec. Tahuna Tim., Kabupaten Kepulauan Sangihe, Sulawesi Utara";"Kabupaten Kepulauan Sangihe, Sulawesi Utara";"SULAWESI UTARA";"";"Indonesia";"";"";"";"3.6155042";"125.5085555";"https://maps.google.com/?cid=0x0:0x7736cd69007b0208";""
"perumahan";"Komplek perumahan";"Dominic Home";"JG36+JW7 Rumah Kel. Awumbas, Jln Baru, Tona I, Kec. Tahuna Tim., Kabupaten Kepulauan Sangihe, Sulawesi Utara";"Kabupaten Kepulauan Sangihe, Sulawesi Utara";"SULAWESI UTARA";"";"Indonesia";"";"";"";"3.6040411";"125.5122884";"https://maps.google.com/?cid=0x0:0x4e14d73468ff83bc";""
"perumahan";"Komplek perumahan";"keluarga. Dolase-Pulumbara";"JG37+P98, Tona I, Kec. Tahuna Tim., Kabupaten Kepulauan Sangihe, Sulawesi Utara";"Kabupaten Kepulauan Sangihe, Sulawesi Utara";"SULAWESI UTARA";"";"Indonesia";"";"";"";"3.6038008";"125.51256";"https://maps.google.com/?cid=0x0:0x17c60af86f15ea73";""
"perumahan";"perumahan";"Kec. Tahuna Tim.";"Kabupaten Kepulauan Sangihe, Sulawesi Utara";"Kabupaten Kepulauan Sangihe, Sulawesi Utara";"SULAWESI UTARA";"";"Indonesia";"";"";"";"3.6107787";"125.5084379";"https://maps.google.com/?cid=0x0:0x12910a813072e8b9";""
"perumahan";"Komplek perumahan";"Kondoalumang's";"JG66+H58, Tona II, Kec. Tahuna Tim., Kabupaten Kepulauan Sangihe, Sulawesi Utara";"Kabupaten Kepulauan Sangihe, Sulawesi Utara";"SULAWESI UTARA";"";"Indonesia";"";"";"";"3.6114119";"125.5104521";"https://maps.google.com/?cid=0x0:0xabb52f861b593e7a";""
"perumahan";"Komplek perumahan";"Perumahan kapolres";"JG63+2J9, Dumuhung, Kec. Tahuna Tim., Kabupaten Kepulauan Sangihe, Sulawesi Utara";"Kabupaten Kepulauan Sangihe, Sulawesi Utara";"SULAWESI UTARA";"";"Indonesia";"";"";"";"3.610049";"125.5041077";"https://maps.google.com/?cid=0x0:0x9642567555cccf48";""
"perumahan";"Komplek perumahan";"KEL.BAWELLE-LUKAS";"JG45+XP7, Tona I, Kec. Tahuna Tim., Kabupaten Kepulauan Sangihe, Sulawesi Utara";"Kabupaten Kepulauan Sangihe, Sulawesi Utara";"SULAWESI UTARA";"";"Indonesia";"";"";"";"3.6074151";"125.5093056";"https://maps.google.com/?cid=0x0:0x72de166a50d9136a";""
"perumahan";"Perhimpunan Pengembang Perumahan";"Kel. Bawole-Kambong (Rumah Tahuna)";"HGX5+VQ3, Tapuang, Kec. Tahuna Tim., Kabupaten Kepulauan Sangihe, Sulawesi Utara";"Kabupaten Kepulauan Sangihe, Sulawesi Utara";"SULAWESI UTARA";"";"Indonesia";"";"";"";"3.5998293";"125.5094956";"https://maps.google.com/?cid=0x0:0xc3f2d081d15a794b";""
"perumahan";"Komplek perumahan";"Lorong YAKUSA";"JG33+HX8, Tidore, Kec. Tahuna Tim., Kabupaten Kepulauan Sangihe, Sulawesi Utara";"Kabupaten Kepulauan Sangihe, Sulawesi Utara";"SULAWESI UTARA";"";"Indonesia";"";"";"";"3.6039148";"125.5049461";"https://maps.google.com/?cid=0x0:0xc3d8ae53e1c1b2d8";""
"perumahan";"Komplek perumahan";"Rumah Kel.Marthin Mananohas";"JG65+765, Tona II, Kec. Tahuna Tim., Kabupaten Kepulauan Sangihe, Sulawesi Utara";"Kabupaten Kepulauan Sangihe, Sulawesi Utara";"SULAWESI UTARA";"";"Indonesia";"";"";"";"3.6106296";"125.5081062";"https://maps.google.com/?cid=0x0:0x8ed637f676fb1798";""
"perumahan";"Komplek perumahan";"Putri House";"JG46+F7X, Tona I, Kec. Tahuna Tim., Kabupaten Kepulauan Sangihe, Sulawesi Utara";"Kabupaten Kepulauan Sangihe, Sulawesi Utara";"SULAWESI UTARA";"";"Indonesia";"";"";"";"3.6065045";"125.5107847";"https://maps.google.com/?cid=0x0:0x15c4db851863a358";""
"perumahan";"Kantor Perusahaan";"PERUMAHAN PLN III";"Perumahan PLN III ENERATU, Tona II, Kec. Tahuna Tim., Kabupaten Kepulauan Sangihe, Sulawesi Utara 95815";"Tona II, Kec. Tahuna Tim., Kabupaten Kepulauan Sangihe";"SULAWESI UTARA";"95815";"Indonesia";"";"";"";"3.6117471";"125.5093734";"https://maps.google.com/?cid=0x0:0xee50c334c5f87ab6";""
"perumahan";"Komplek perumahan";"HomeSH";"JG65+GQ6, Tona II, Kec. Tahuna Tim., Kabupaten Kepulauan Sangihe, Sulawesi Utara";"Kabupaten Kepulauan Sangihe, Sulawesi Utara";"SULAWESI UTARA";"";"Indonesia";"";"";"";"3.6112844";"125.5094021";"https://maps.google.com/?cid=0x0:0xa7ee453903ba9240";""
"perumahan";"Komplek perumahan";"Kel Paparang Welong";"JG36+V26, Tona I, Kec. Tahuna Tim., Kabupaten Kepulauan Sangihe, Sulawesi Utara";"Kabupaten Kepulauan Sangihe, Sulawesi Utara";"SULAWESI UTARA";"";"Indonesia";"";"";"";"3.6046717";"125.510016";"https://maps.google.com/?cid=0x0:0xcf960e4010a14daf";""
"perumahan";"Komplek perumahan";"Nina";"JG36+78V, Tona I, Kec. Tahuna Tim., Kabupaten Kepulauan Sangihe, Sulawesi Utara";"Kabupaten Kepulauan Sangihe, Sulawesi Utara";"SULAWESI UTARA";"";"Indonesia";"";"";"";"3.6032952";"125.5111022";"https://maps.google.com/?cid=0x0:0xb962538f28ce0a4e";""
"perumahan";"Komplek perumahan";"Talau Lalinsa Home";"JG35+R7C, Tona I, Kec. Tahuna Tim., Kabupaten Kepulauan Sangihe, Sulawesi Utara";"Kabupaten Kepulauan Sangihe, Sulawesi Utara";"SULAWESI UTARA";"";"Indonesia";"";"";"";"3.604214";"125.507589";"https://maps.google.com/?cid=0x0:0xaf48d78986a50956";""
"perumahan";"Komplek perumahan";"keluarga. Dolase-Pulumbara";"JG37+P98, Tona I, Kec. Tahuna Tim., Kabupaten Kepulauan Sangihe, Sulawesi Utara";"Kabupaten Kepulauan Sangihe, Sulawesi Utara";"SULAWESI UTARA";"";"Indonesia";"";"";"";"3.6038008";"125.51256";"https://maps.google.com/?cid=0x0:0x17c60af86f15ea73";""
"perumahan";"Komplek perumahan";"Kaluhaghi";"JG36+J4W, Tona I, Kec. Tahuna Tim., Kabupaten Kepulauan Sangihe, Sulawesi Utara";"Kabupaten Kepulauan Sangihe, Sulawesi Utara";"SULAWESI UTARA";"";"Indonesia";"";"";"";"3.6041475";"125.510381";"https://maps.google.com/?cid=0x0:0x581d7b7d640a750";""
"perumahan";"Komplek perumahan";"Perumahan Elite Tahuna";"JF6C+GJV, Santiago, Kec. Tahuna, Kabupaten Kepulauan Sangihe, Sulawesi Utara";"Kabupaten Kepulauan Sangihe, Sulawesi Utara";"SULAWESI UTARA";"";"Indonesia";"";"";"";"3.611362";"125.471562";"https://maps.google.com/?cid=0x0:0x1d9d44360d5b8495";""
"perumahan";"Komplek perumahan";"Tengkue - Janis";"JG65+VXM, Tona II, Kec. Tahuna Tim., Kabupaten Kepulauan Sangihe, Sulawesi Utara";"Kabupaten Kepulauan Sangihe, Sulawesi Utara";"SULAWESI UTARA";"";"Indonesia";"";"";"";"3.6126021";"125.5099767";"https://maps.google.com/?cid=0x0:0xf7cfdb5010f460ba";""
"perumahan";"Komplek perumahan";"Dominic Home";"JG36+JW7 Rumah Kel. Awumbas, Jln Baru, Tona I, Kec. Tahuna Tim., Kabupaten Kepulauan Sangihe, Sulawesi Utara";"Kabupaten Kepulauan Sangihe, Sulawesi Utara";"SULAWESI UTARA";"";"Indonesia";"";"";"";"3.6040411";"125.5122884";"https://maps.google.com/?cid=0x0:0x4e14d73468ff83bc";""
"perumahan";"Komplek perumahan";"Kel Pukoliwutang Sutardji";"JG75+X4Q, Dumuhung, Kec. Tahuna Tim., Kabupaten Kepulauan Sangihe, Sulawesi Utara";"Kabupaten Kepulauan Sangihe, Sulawesi Utara";"SULAWESI UTARA";"";"Indonesia";"";"";"";"3.6149547";"125.5078444";"https://maps.google.com/?cid=0x0:0xe8eabcf20cdd5c10";""
"perumahan";"Komplek perumahan";"Rumah Kel Tempomona Ponto";"JG34+WHG, Tona I, Kec. Tahuna Tim., Kabupaten Kepulauan Sangihe, Sulawesi Utara";"Kabupaten Kepulauan Sangihe, Sulawesi Utara";"SULAWESI UTARA";"";"Indonesia";"";"";"";"3.6049061";"125.5065248";"https://maps.google.com/?cid=0x0:0x25a64f6cbd39a65d";""
"perumahan";"Komplek perumahan";"Enteng Creation Zone";"JG66+X3H Enteng CZ, Tona II, Kec. Tahuna Tim., Kabupaten Kepulauan Sangihe, Sulawesi Utara";"Kabupaten Kepulauan Sangihe, Sulawesi Utara";"SULAWESI UTARA";"";"Indonesia";"";"";"";"3.612433";"125.510233";"https://maps.google.com/?cid=0x0:0x9bc69c696c89f5e8";""
"perumahan";"Komplek perumahan";"Stevano";"JF2X+6W7, Batulewehe, Kec. Tahuna Tim., Kabupaten Kepulauan Sangihe, Sulawesi Utara";"Kabupaten Kepulauan Sangihe, Sulawesi Utara";"SULAWESI UTARA";"";"Indonesia";"";"";"";"3.5998155";"125.4997858";"https://maps.google.com/?cid=0x0:0x2b4be9e867e615e1";""
"perumahan";"Komplek perumahan";"Tidore";"JG43+9X6, Tidore, Kec. Tahuna Tim., Kabupaten Kepulauan Sangihe, Sulawesi Utara";"Kabupaten Kepulauan Sangihe, Sulawesi Utara";"SULAWESI UTARA";"";"Indonesia";" 085298933620";"";"";"3.6059103";"125.5048856";"https://maps.google.com/?cid=0x0:0x2ef660e00682d7d9";""
"perumahan";"perumahan";"Kec. Tahuna Tim.";"Kabupaten Kepulauan Sangihe, Sulawesi Utara";"Kabupaten Kepulauan Sangihe, Sulawesi Utara";"SULAWESI UTARA";"";"Indonesia";"";"";"";"3.6107787";"125.5084379";"https://maps.google.com/?cid=0x0:0x12910a813072e8b9";""
"perumahan";"Komplek perumahan";"Perum Malahasa";"JF9G+G55, Manente, Kec. Tahuna, Kabupaten Kepulauan Sangihe, Sulawesi Utara";"Kabupaten Kepulauan Sangihe, Sulawesi Utara";"SULAWESI UTARA";"";"Indonesia";"";"";"";"3.6187538";"125.4754917";"https://maps.google.com/?cid=0x0:0x99805cf4ab9bf755";""
"perumahan";"Komplek perumahan";"Perumahan ASN";"JFR2+4VM, Kolongan Mitung, Kec. Tahuna Bar., Kabupaten Kepulauan Sangihe, Sulawesi Utara";"Kabupaten Kepulauan Sangihe, Sulawesi Utara";"SULAWESI UTARA";"";"Indonesia";"";"";"";"3.6403311";"125.4521701";"https://maps.google.com/?cid=0x0:0x70dfe32dddc0e4fb";""
"perumahan";"Sekolah";"DINAS PERUMAHAN RAKYAT DAN KAWASAN PERMUKIMAN SERTA PERTANAHAN DAERAH";"JG55+W43, Tona II, Kec. Tahuna Tim., Kabupaten Kepulauan Sangihe, Sulawesi Utara";"Kabupaten Kepulauan Sangihe, Sulawesi Utara";"SULAWESI UTARA";"";"Indonesia";"";"";"";"3.6097339";"125.5083904";"https://maps.google.com/?cid=0x0:0x855992110d85c472";""
"perumahan";"Komplek perumahan";"Kondoalumang's";"JG66+H58, Tona II, Kec. Tahuna Tim., Kabupaten Kepulauan Sangihe, Sulawesi Utara";"Kabupaten Kepulauan Sangihe, Sulawesi Utara";"SULAWESI UTARA";"";"Indonesia";"";"";"";"3.6114119";"125.5104521";"https://maps.google.com/?cid=0x0:0xabb52f861b593e7a";""
"perumahan";"Komplek perumahan";"Tahuna timur";"JG36+J2V, Tona I, Kec. Tahuna Tim., Kabupaten Kepulauan Sangihe, Sulawesi Utara";"Kabupaten Kepulauan Sangihe, Sulawesi Utara";"SULAWESI UTARA";"";"Indonesia";"";"";"";"3.604115";"125.5100407";"https://maps.google.com/?cid=0x0:0x7ca5a58e96c9dfa2";""
"perumahan";"Komplek perumahan";"Stevano";"JF2X+6W7, Batulewehe, Kec. Tahuna Tim., Kabupaten Kepulauan Sangihe, Sulawesi Utara";"Kabupaten Kepulauan Sangihe, Sulawesi Utara";"SULAWESI UTARA";"";"Indonesia";"";"";"";"3.5998155";"125.4997858";"https://maps.google.com/?cid=0x0:0x2b4be9e867e615e1";""
"perumahan";"Komplek perumahan";"Enteng Creation Zone";"JG66+X3H Enteng CZ, Tona II, Kec. Tahuna Tim., Kabupaten Kepulauan Sangihe, Sulawesi Utara";"Kabupaten Kepulauan Sangihe, Sulawesi Utara";"SULAWESI UTARA";"";"Indonesia";"";"";"";"3.612433";"125.510233";"https://maps.google.com/?cid=0x0:0x9bc69c696c89f5e8";""
"perumahan";"Komplek perumahan";"Lorong YAKUSA";"JG33+HX8, Tidore, Kec. Tahuna Tim., Kabupaten Kepulauan Sangihe, Sulawesi Utara";"Kabupaten Kepulauan Sangihe, Sulawesi Utara";"SULAWESI UTARA";"";"Indonesia";"";"";"";"3.6039148";"125.5049461";"https://maps.google.com/?cid=0x0:0xc3d8ae53e1c1b2d8";""
"perumahan";"Perhimpunan Pengembang Perumahan";"Kel. Bawole-Kambong (Rumah Tahuna)";"HGX5+VQ3, Tapuang, Kec. Tahuna Tim., Kabupaten Kepulauan Sangihe, Sulawesi Utara";"Kabupaten Kepulauan Sangihe, Sulawesi Utara";"SULAWESI UTARA";"";"Indonesia";"";"";"";"3.5998293";"125.5094956";"https://maps.google.com/?cid=0x0:0xc3f2d081d15a794b";""
"perumahan";"Komplek perumahan";"HomeSH";"JG65+GQ6, Tona II, Kec. Tahuna Tim., Kabupaten Kepulauan Sangihe, Sulawesi Utara";"Kabupaten Kepulauan Sangihe, Sulawesi Utara";"SULAWESI UTARA";"";"Indonesia";"";"";"";"3.6112844";"125.5094021";"https://maps.google.com/?cid=0x0:0xa7ee453903ba9240";""
"perumahan";"Komplek perumahan";"MABES SMC";"HGX5+VQ3, Tapuang, Kec. Tahuna Tim., Kabupaten Kepulauan Sangihe, Sulawesi Utara";"Kabupaten Kepulauan Sangihe, Sulawesi Utara";"SULAWESI UTARA";"";"Indonesia";"";"";"";"3.5997717";"125.509228";"https://maps.google.com/?cid=0x0:0x6541fa82e6450bac";""
"perumahan";"Komplek perumahan";"Rumah Kel.Marthin Mananohas";"JG65+765, Tona II, Kec. Tahuna Tim., Kabupaten Kepulauan Sangihe, Sulawesi Utara";"Kabupaten Kepulauan Sangihe, Sulawesi Utara";"SULAWESI UTARA";"";"Indonesia";"";"";"";"3.6106296";"125.5081062";"https://maps.google.com/?cid=0x0:0x8ed637f676fb1798";""
"perumahan";"Komplek perumahan";"KEL.BAWELLE-LUKAS";"JG45+XP7, Tona I, Kec. Tahuna Tim., Kabupaten Kepulauan Sangihe, Sulawesi Utara";"Kabupaten Kepulauan Sangihe, Sulawesi Utara";"SULAWESI UTARA";"";"Indonesia";"";"";"";"3.6074151";"125.5093056";"https://maps.google.com/?cid=0x0:0x72de166a50d9136a";""
"perumahan";"Komplek perumahan";"Kaluhaghi";"JG36+J4W, Tona I, Kec. Tahuna Tim., Kabupaten Kepulauan Sangihe, Sulawesi Utara";"Kabupaten Kepulauan Sangihe, Sulawesi Utara";"SULAWESI UTARA";"";"Indonesia";"";"";"";"3.6041475";"125.510381";"https://maps.google.com/?cid=0x0:0x581d7b7d640a750";""
"perumahan";"Komplek perumahan";"Kel Paparang Welong";"JG36+V26, Tona I, Kec. Tahuna Tim., Kabupaten Kepulauan Sangihe, Sulawesi Utara";"Kabupaten Kepulauan Sangihe, Sulawesi Utara";"SULAWESI UTARA";"";"Indonesia";"";"";"";"3.6046717";"125.510016";"https://maps.google.com/?cid=0x0:0xcf960e4010a14daf";""
"perumahan";"Komplek perumahan";"Perumahan kapolres";"JG63+2J9, Dumuhung, Kec. Tahuna Tim., Kabupaten Kepulauan Sangihe, Sulawesi Utara";"Kabupaten Kepulauan Sangihe, Sulawesi Utara";"SULAWESI UTARA";"";"Indonesia";"";"";"";"3.610049";"125.5041077";"https://maps.google.com/?cid=0x0:0x9642567555cccf48";""
"perumahan";"Komplek perumahan";"Kel Pukoliwutang Sutardji";"JG75+X4Q, Dumuhung, Kec. Tahuna Tim., Kabupaten Kepulauan Sangihe, Sulawesi Utara";"Kabupaten Kepulauan Sangihe, Sulawesi Utara";"SULAWESI UTARA";"";"Indonesia";"";"";"";"3.6149547";"125.5078444";"https://maps.google.com/?cid=0x0:0xe8eabcf20cdd5c10";""
"perumahan";"Komplek perumahan";"Tengkue - Janis";"JG65+VXM, Tona II, Kec. Tahuna Tim., Kabupaten Kepulauan Sangihe, Sulawesi Utara";"Kabupaten Kepulauan Sangihe, Sulawesi Utara";"SULAWESI UTARA";"";"Indonesia";"";"";"";"3.6126021";"125.5099767";"https://maps.google.com/?cid=0x0:0xf7cfdb5010f460ba";""
"perumahan";"Komplek perumahan";"Patimbano Musa";"JG35+PRW, Tona I, Kec. Tahuna Tim., Kabupaten Kepulauan Sangihe, Sulawesi Utara";"Kabupaten Kepulauan Sangihe, Sulawesi Utara";"SULAWESI UTARA";"";"Indonesia";"";"";"";"3.6043717";"125.5095794";"https://maps.google.com/?cid=0x0:0xb8be0b71847f464e";""
"perumahan";"Komplek perumahan";"Tidore";"JG43+9X6, Tidore, Kec. Tahuna Tim., Kabupaten Kepulauan Sangihe, Sulawesi Utara";"Kabupaten Kepulauan Sangihe, Sulawesi Utara";"SULAWESI UTARA";"";"Indonesia";" 085298933620";"";"";"3.6059103";"125.5048856";"https://maps.google.com/?cid=0x0:0x2ef660e00682d7d9";""
"perumahan";"Komplek perumahan";"Perumahan Elite Tahuna";"JF6C+GJV, Santiago, Kec. Tahuna, Kabupaten Kepulauan Sangihe, Sulawesi Utara";"Kabupaten Kepulauan Sangihe, Sulawesi Utara";"SULAWESI UTARA";"";"Indonesia";"";"";"";"3.611362";"125.471562";"https://maps.google.com/?cid=0x0:0x1d9d44360d5b8495";""
"perumahan";"Kantor Perusahaan";"PERUMAHAN PLN III";"Perumahan PLN III ENERATU, Tona II, Kec. Tahuna Tim., Kabupaten Kepulauan Sangihe, Sulawesi Utara 95815";"Tona II, Kec. Tahuna Tim., Kabupaten Kepulauan Sangihe";"SULAWESI UTARA";"95815";"Indonesia";"";"";"";"3.6117471";"125.5093734";"https://maps.google.com/?cid=0x0:0xee50c334c5f87ab6";""
"perumahan";"Komplek perumahan";"Beny Home";"JG25+4RM, Tapuang, Kec. Tahuna Tim., Kabupaten Kepulauan Sangihe, Sulawesi Utara";"Kabupaten Kepulauan Sangihe, Sulawesi Utara";"SULAWESI UTARA";"";"Indonesia";"";"";"";"3.6002874";"125.5095636";"https://maps.google.com/?cid=0x0:0xac79fe1feec3804b";""
"perumahan";"Komplek perumahan";"Keluarga Pontoh - Barik";"JG46+M8R, Tona I, Kec. Tahuna Tim., Kabupaten Kepulauan Sangihe, Sulawesi Utara";"Kabupaten Kepulauan Sangihe, Sulawesi Utara";"SULAWESI UTARA";"";"Indonesia";"";"";"";"3.6067496";"125.5107812";"https://maps.google.com/?cid=0x0:0xa6b5119df0db1bc2";""
"perumahan";"Komplek perumahan";"keluarga. Dolase-Pulumbara";"JG37+P98, Tona I, Kec. Tahuna Tim., Kabupaten Kepulauan Sangihe, Sulawesi Utara";"Kabupaten Kepulauan Sangihe, Sulawesi Utara";"SULAWESI UTARA";"";"Indonesia";"";"";"";"3.6038008";"125.51256";"https://maps.google.com/?cid=0x0:0x17c60af86f15ea73";""
"perumahan";"Komplek perumahan";"🏡Kel.Lahea-Pangke(Otje Lahea  Heidy Pangke";"FG56+7GV, Pokol, Tamako, Kabupaten Kepulauan Sangihe, Sulawesi Utara";"Kabupaten Kepulauan Sangihe, Sulawesi Utara";"SULAWESI UTARA";"";"Indonesia";"";"";"";"3.4582751";"125.5113185";"https://maps.google.com/?cid=0x0:0xb93c9d59b8ebd702";""
"perumahan";"Komplek perumahan";"Kel Katilahe Taloko";"FG45+5VF, Pokol, Tamako, Kabupaten Kepulauan Sangihe, Sulawesi Utara";"Kabupaten Kepulauan Sangihe, Sulawesi Utara";"SULAWESI UTARA";"";"Indonesia";"";"";"";"3.4554411";"125.5096825";"https://maps.google.com/?cid=0x0:0xe769ef66e7156b7c";""
"perumahan";"Kantor Pemerintahan Regional";"Pt. PLN Persero, Rayon Tamako";"FG56+77M, Pokol, Tamako, Kabupaten Kepulauan Sangihe, Sulawesi Utara";"Kabupaten Kepulauan Sangihe, Sulawesi Utara";"SULAWESI UTARA";"";"Indonesia";"";"";"";"3.4582073";"125.5106814";"https://maps.google.com/?cid=0x0:0x6c8b2d5122e230b8";""
"perumahan";"Komplek perumahan";"Cluster Kintamani";"Kluster Kintamani, Benda Baru, Kec. Pamulang, Kota Tangerang Selatan, Banten 15416";"Benda Baru, Kec. Pamulang, Kota Tangerang Selatan";"SULAWESI UTARA";"15416";"Indonesia";"";"";"";"-6.3334822";"106.7170689";"https://maps.google.com/?cid=0x0:0x895e4ecf4638037";""
"perumahan";"Komplek perumahan";"Surupati Gorahe";"5GJ7+P4W Alamat, Dalako Bembanehe, Kec. Tatoareng, Kabupaten Kepulauan Sangihe, Sulawesi Utara";"Kabupaten Kepulauan Sangihe, Sulawesi Utara";"SULAWESI UTARA";"";"Indonesia";"";"";"";"3.1818676";"125.5128365";"https://maps.google.com/?cid=0x0:0xf4540e07b42a9c27";""
"perumahan";"perumahan";"Kec. Tatoareng";"Kabupaten Kepulauan Sangihe, Sulawesi Utara";"Kabupaten Kepulauan Sangihe, Sulawesi Utara";"SULAWESI UTARA";"";"Indonesia";"";"";"";"3.2525762";"125.460962";"https://maps.google.com/?cid=0x0:0x4030bfbcaf78970";""
"perumahan";"Komplek perumahan";"Sigma Bunker";"3F6P+WX, Para, Kec. Tatoareng, Kabupaten Kepulauan Sangihe, Sulawesi Utara";"Kabupaten Kepulauan Sangihe, Sulawesi Utara";"SULAWESI UTARA";"";"Indonesia";"";"";"";"3.0613889";"125.4872222";"https://maps.google.com/?cid=0x0:0x42de3bf45640a611";""
"perumahan";"Perumahan";"Rumah Lombo";"5GG8+7R9, Kahakitang, Kec. Tatoareng, Kabupaten Kepulauan Sangihe, Sulawesi Utara";"Kabupaten Kepulauan Sangihe, Sulawesi Utara";"SULAWESI UTARA";"";"Indonesia";"";"";"";"3.1756342";"125.5171935";"https://maps.google.com/?cid=0x0:0xbb0e9f4c28a7df8";""
"perumahan";"Komplek perumahan";"Lahanusa Saluhang";"5G7G+M86, Kahakitang, Kec. Tatoareng, Kabupaten Kepulauan Sangihe, Sulawesi Utara";"Kabupaten Kepulauan Sangihe, Sulawesi Utara";"SULAWESI UTARA";"";"Indonesia";"";"";"";"3.1641685";"125.5257525";"https://maps.google.com/?cid=0x0:0x236e2726f25ee7b4";""
"perumahan";"Komplek perumahan";"Kel.Tatontos Pasuma";"6FM3+8QV, Kalama, Kec. Tatoareng, Kabupaten Kepulauan Sangihe, Sulawesi Utara";"Kabupaten Kepulauan Sangihe, Sulawesi Utara";"SULAWESI UTARA";"";"Indonesia";"";"";"";"3.2333578";"125.4544194";"https://maps.google.com/?cid=0x0:0x4f3e88dec10573b8";""
"perumahan";"Komplek perumahan";"Kel MAMONTHO SAKENDATU";"3G82+MMG, Para, Kec. Tatoareng, Kabupaten Kepulauan Sangihe, Sulawesi Utara";"Kabupaten Kepulauan Sangihe, Sulawesi Utara";"SULAWESI UTARA";"";"Indonesia";"";"";"";"3.0667953";"125.5023609";"https://maps.google.com/?cid=0x0:0xf12ce94feb695493";""
"perumahan";"Komplek perumahan";"glend gorahe";"5GJ7+P4W, Dalako Bembanehe, Kec. Tatoareng, Kabupaten Kepulauan Sangihe, Sulawesi Utara";"Kabupaten Kepulauan Sangihe, Sulawesi Utara";"SULAWESI UTARA";"";"Indonesia";"";"";"";"3.181784";"125.5129228";"https://maps.google.com/?cid=0x0:0x7873f1540b9d1c3";""
"perumahan";"Komplek perumahan";"Gorahe sasako";"5GM7+GM6, Dalako Bembanehe, Kec. Tatoareng, Kabupaten Kepulauan Sangihe, Sulawesi Utara";"Kabupaten Kepulauan Sangihe, Sulawesi Utara";"SULAWESI UTARA";"";"Indonesia";"";"";"";"3.1837892";"125.5141358";"https://maps.google.com/?cid=0x0:0x46ae416d56ac44e3";""
"perumahan";"Perumahan";"Kawuka L. Izaak";"3G82+V82, Para, Kec. Tatoareng, Kabupaten Kepulauan Sangihe, Sulawesi Utara";"Kabupaten Kepulauan Sangihe, Sulawesi Utara";"SULAWESI UTARA";"";"Indonesia";"";"";"";"3.0671495";"125.5007633";"https://maps.google.com/?cid=0x0:0xf08bce7acc6f4982";""
"perumahan";"Komplek perumahan";"kendrick dinur home";"3G82+56, Para, Kabupaten Kepulauan Sangihe, Sulawesi Utara";"Kabupaten Kepulauan Sangihe, Sulawesi Utara";"SULAWESI UTARA";"";"Indonesia";"";"";"";"3.0654008";"125.5005072";"https://maps.google.com/?cid=0x0:0x61d3fd3fadb36c4c";""
"perumahan";"Rumah Kaca";"JUNAIDI ERENS TUMBALE";"5G8C+4XQ, Kahakitang, Kec. Tatoareng, Kabupaten Kepulauan Sangihe, Sulawesi Utara";"Kabupaten Kepulauan Sangihe, Sulawesi Utara";"SULAWESI UTARA";"";"Indonesia";"";"";"";"3.1653469";"125.5224828";"https://maps.google.com/?cid=0x0:0x80e3255e280bc879";""
"perumahan";"Komplek perumahan";"Antonius Gorahe";"5GM7+JM8, Dalako Bembanehe, Kec. Tatoareng, Kabupaten Kepulauan Sangihe, Sulawesi Utara";"Kabupaten Kepulauan Sangihe, Sulawesi Utara";"SULAWESI UTARA";"";"Indonesia";"";"";"";"3.183637";"125.514033";"https://maps.google.com/?cid=0x0:0x9793578867be39f0";""
"perumahan";"Rumah Sakit";"Puskesmas Kahakitang";"5GG8+7R9, Kahakitang, Kec. Tatoareng, Kabupaten Kepulauan Sangihe, Sulawesi Utara";"Kabupaten Kepulauan Sangihe, Sulawesi Utara";"SULAWESI UTARA";"";"Indonesia";"";"";"";"3.1756512";"125.5171231";"https://maps.google.com/?cid=0x0:0xb5dac8f209f54b82";""
"perumahan";"Pembangunan Perumahan";"Kampung dalako bembanehe";"5GH6+F7H, Dalako Bembanehe, Kec. Tatoareng, Kabupaten Kepulauan Sangihe, Sulawesi Utara";"Kabupaten Kepulauan Sangihe, Sulawesi Utara";"SULAWESI UTARA";"";"Indonesia";"";"";"";"3.1786902";"125.5107234";"https://maps.google.com/?cid=0x0:0x98ae13e8d7976327";""
