Category,Real Category,Business Name,Address,City,State,Postal Code,Country,Phone,Email,Website,Latitude,Longitude,Map Link,Details Link
hardware store,hardware store,Kalimantan Selatan 71664,Kalimantan Selatan,Kalimantan Selatan,KALIMANTAN SELATAN,,Indonesia,,,,-2.4693999,115.6154732,https://maps.google.com/?cid=0x0:0xde090cef9f025bcd,
hardware store,Toko Bahan Bangunan,Toko lesmana2,"GFVF+5V8, Pelajau, Kec. Batu Mandi, Kabupaten Balangan, Kalimantan Selatan 71663","Pelajau, Kec. Batu Mandi, Kabupaten Balangan",KALIMANTAN SELATAN,71663.0,Indonesia,,,,-2.4570768,115.4746934,https://maps.google.com/?cid=0x0:0xbc749078023aef3a,
hardware store,Toko Ponsel,AULIA PONSEL,"Kedondong, Kec. Awayan, Kabupaten Balangan, Kalimantan Selatan 71664","Kec. Awayan, Kabupaten Balangan",KALIMANTAN SELATAN,71664.0,Indonesia, 085391362369,,,-2.4132473,115.5299217,https://maps.google.com/?cid=0x0:0x61e81838261ab570,
hardware store,Toko Aksesori Ponsel,Raisya Phoncell,"HGPG+7FQ, Butat Basuin, Kec. Awayan, Kabupaten Balangan, Kalimantan Selatan 71664","Butat Basuin, Kec. Awayan, Kabupaten Balangan",KALIMANTAN SELATAN,71664.0,Indonesia, 082156771302,,,-2.4142881,115.5262249,https://maps.google.com/?cid=0x0:0x8b216a067424e69c,
hardware store,hardware store,Toko Bangunan Awayan,"MF55+WH2, Jl. A. Yani, Halubau Utara, Kec. Paringin Sel., Kabupaten Balangan, Kalimantan Selatan 71612","Jl. A. Yani, Halubau Utara, Kec. Paringin Sel., Kabupaten Balangan",KALIMANTAN SELATAN,71612.0,Indonesia,,,,-2.3402345,115.4588887,https://maps.google.com/?cid=0x0:0x4e7568b106ef5512,
hardware store,Toko Bahan Bangunan,Toko Yafilia,"RT2 No.25, pasar, Awayan, Kec. Awayan, Kabupaten Balangan, Kalimantan Selatan 71664","pasar, Awayan, Kec. Awayan, Kabupaten Balangan",KALIMANTAN SELATAN,71664.0,Indonesia,,,,-2.4136147,115.5304166,https://maps.google.com/?cid=0x0:0x59e1b356a2f6b4e4,
hardware store,hardware store,Kec. Awayan,"Kabupaten Balangan, Kalimantan Selatan","Kabupaten Balangan, Kalimantan Selatan",KALIMANTAN SELATAN,,Indonesia,,,,-2.4131684,115.5291259,https://maps.google.com/?cid=0x0:0x383c814bc1fe5fe6,
hardware store,Toko Bahan Bangunan,Kanchana aluminum works  Hardware,"Blk. D No.14, Lingsir, Kec. Paringin Sel., Kabupaten Balangan, Kalimantan Selatan","Kabupaten Balangan, Kalimantan Selatan",KALIMANTAN SELATAN,,Indonesia, 0778577783,,,-2.34323,115.457374,https://maps.google.com/?cid=0x0:0xd4aa0a4762dd8d12,
hardware store,Toko Bahan Bangunan,P,"jalan, Mampari, Kec. Batu Mandi, Kabupaten Balangan, Kalimantan Selatan 71663","Mampari, Kec. Batu Mandi, Kabupaten Balangan",KALIMANTAN SELATAN,71663.0,Indonesia,,,,-2.388106,115.4464615,https://maps.google.com/?cid=0x0:0xae54bdd23b33eb58,
hardware store,Toko Bahan Bangunan,UD.M.JUNIARDI,"MF86+QV2, Bungin, Kec. Paringin Sel., Kabupaten Balangan, Kalimantan Selatan 71611","Bungin, Kec. Paringin Sel., Kabupaten Balangan",KALIMANTAN SELATAN,71611.0,Indonesia, 081349795576,,,-2.3331008,115.462145,https://maps.google.com/?cid=0x0:0x7760f35d30417cc5,
hardware store,Toko Percetakan,Fotocopy dan ATK (Aries),"No.01. RT.01, Desa, Badalungga, Kec. Awayan, Kabupaten Balangan, Kalimantan Selatan 71664","Desa, Badalungga, Kec. Awayan, Kabupaten Balangan",KALIMANTAN SELATAN,71664.0,Indonesia,,,,-2.4137529,115.5311156,https://maps.google.com/?cid=0x0:0xff79899a4c3fda2b,
hardware store,Toko Bahan Bangunan,TB. HALPAR,"Halubau, Kec. Paringin Sel., Kabupaten Balangan, Kalimantan Selatan","Kabupaten Balangan, Kalimantan Selatan",KALIMANTAN SELATAN,,Indonesia, 085251383634,,,-2.3388966,115.452544,https://maps.google.com/?cid=0x0:0x677930b7fe362b2d,
hardware store,hardware store,Toko pa.adur,"JHVJ+RJ2, Pamurus, Kec. Juai, Kabupaten Balangan, Kalimantan Selatan 71665","Pamurus, Kec. Juai, Kabupaten Balangan",KALIMANTAN SELATAN,71665.0,Indonesia,,,,-2.3561595,115.5813707,https://maps.google.com/?cid=0x0:0x7afe0a3a84f8a8e2,
hardware store,Toko Bahan Bangunan,Toko lesmana2,"GFVF+5V8, Pelajau, Kec. Batu Mandi, Kabupaten Balangan, Kalimantan Selatan 71663","Pelajau, Kec. Batu Mandi, Kabupaten Balangan",KALIMANTAN SELATAN,71663.0,Indonesia,,,,-2.4570768,115.4746934,https://maps.google.com/?cid=0x0:0xbc749078023aef3a,
hardware store,Toko Bahan Bangunan,Toko Lesmana 3,"HC69+456, Jl. A. Yani, Hamparaya, Kec. Batu Mandi, Kabupaten Balangan, Kalimantan Selatan 71663","Jl. A. Yani, Hamparaya, Kec. Batu Mandi, Kabupaten Balangan",KALIMANTAN SELATAN,71663.0,Indonesia,,,,-2.4397169,115.4178867,https://maps.google.com/?cid=0x0:0x3fc62be83937838f,
hardware store,hardware store,Batu Mandi,"Kec. Batu Mandi, Kabupaten Balangan, Kalimantan Selatan","Kabupaten Balangan, Kalimantan Selatan",KALIMANTAN SELATAN,,Indonesia,,,,-2.4106555,115.4141193,https://maps.google.com/?cid=0x0:0x6f0ce48d97cc3912,
hardware store,Toko Bahan Bangunan,Tb. Anugerah,"JF42+86C, Jl. A. Yani, Mantimin, Kec. Batu Mandi, Kabupaten Balangan, Kalimantan Selatan 71663","Jl. A. Yani, Mantimin, Kec. Batu Mandi, Kabupaten Balangan",KALIMANTAN SELATAN,71663.0,Indonesia,,,,-2.3941973,115.4505234,https://maps.google.com/?cid=0x0:0xafce0b8c24e36d52,
hardware store,Pemasok Bahan Bangunan,Toko alat bangunan Rahmat,"HC8C+73W, Jl. A. Yani, Batu Mandi, Kec. Batu Mandi, Kabupaten Balangan, Kalimantan Selatan 71663","Jl. A. Yani, Batu Mandi, Kec. Batu Mandi, Kabupaten Balangan",KALIMANTAN SELATAN,71663.0,Indonesia,,,,-2.4342553,115.420191,https://maps.google.com/?cid=0x0:0x21e54d522565834a,
hardware store,Servis Komputer,Ehsan Computer,"Jl. A. Yani, Batu Mandi, Kec. Batu Mandi, Kabupaten Balangan, Kalimantan Selatan 71663","Batu Mandi, Kec. Batu Mandi, Kabupaten Balangan",KALIMANTAN SELATAN,71663.0,Indonesia, 08119853868,,,-2.4097987,115.4316566,https://maps.google.com/?cid=0x0:0x84e3486e49a4d42e,
hardware store,hardware store,Kalimantan Selatan 71663,Kalimantan Selatan,Kalimantan Selatan,KALIMANTAN SELATAN,,Indonesia,,,,-2.4198707,115.4022706,https://maps.google.com/?cid=0x0:0x41176e2d43c2c021,
hardware store,Toko Bahan Bangunan,Hardware Clothing,"Rukan Gading Indah, Blok V9-12, RT.18/RW.8, Klp. Gading Bar., Kec. Klp. Gading, Jkt Utara, Daerah Khusus Ibukota Jakarta 12930","Blok V9-12, RT.18/RW.8, Klp. Gading Bar., Kec. Klp. Gading, Jkt Utara",KALIMANTAN SELATAN,12930.0,Indonesia, 02125539858,,,-6.149231,106.896942,https://maps.google.com/?cid=0x0:0x488fdb7f986cd389,
hardware store,Toko Pakaian Wanita,Hardware,"Mal Metropolitan, Jl. KH. Noer Ali No.2, RT.008/RW.002, Pekayon Jaya, Kec. Bekasi Sel., Kota Bks, Jawa Barat 17148","Jl. KH. Noer Ali No.2, RT.008/RW.002, Pekayon Jaya, Kec. Bekasi Sel., Kota Bks",KALIMANTAN SELATAN,17148.0,Indonesia, 02188861991,,,-6.2480342,106.9915778,https://maps.google.com/?cid=0x0:0x4ae65d80217112f0,
hardware store,Kantor Perusahaan,TB. 3 SAUDARA,"PJRV+Q74, Jl. Datuk Kandang H., Binjai Punggal, Kec. Halong, Kabupaten Balangan, Kalimantan Selatan 71665","Jl. Datuk Kandang H., Binjai Punggal, Kec. Halong, Kabupaten Balangan",KALIMANTAN SELATAN,71665.0,Indonesia, 085249738651,,,-2.2582465,115.6433666,https://maps.google.com/?cid=0x0:0x84ec7eafc78b7a23,
hardware store,Toko Bahan Bangunan,TB.SAUKI (toko bangunan),"MF76+C7M, Bungin, Kec. Paringin Sel., Kabupaten Balangan, Kalimantan Selatan 71612","Bungin, Kec. Paringin Sel., Kabupaten Balangan",KALIMANTAN SELATAN,71612.0,Indonesia, 082354180604,,,-2.3364024,115.4606821,https://maps.google.com/?cid=0x0:0x8d8bcec3d9c93681,
hardware store,hardware store,Toko Bangunan Dan Matrial Gunarwan,"7HH6+99C, Sumber Baru, Kec. Angsana, Kabupaten Tanah Bumbu, Kalimantan Selatan 72275","Sumber Baru, Kec. Angsana, Kabupaten Tanah Bumbu",KALIMANTAN SELATAN,72275.0,Indonesia,,,,-3.721556,115.5608778,https://maps.google.com/?cid=0x0:0x941e44222466d7f5,
hardware store,Toko Alat-Alat,Toko bangunan dan teknik setia pelamar,"sebamban 1 blok a,desa kab, Sari Mulya, Kec. Sungai Loban, Kabupaten Tanah Bumbu, Kalimantan Selatan 72274","Sari Mulya, Kec. Sungai Loban, Kabupaten Tanah Bumbu",KALIMANTAN SELATAN,72274.0,Indonesia,,,,-3.6491621,115.7549269,https://maps.google.com/?cid=0x0:0x713758100b49c042,
hardware store,Kantor Perusahaan,TB. 3 SAUDARA,"PJRV+Q74, Jl. Datuk Kandang H., Binjai Punggal, Kec. Halong, Kabupaten Balangan, Kalimantan Selatan 71665","Jl. Datuk Kandang H., Binjai Punggal, Kec. Halong, Kabupaten Balangan",KALIMANTAN SELATAN,71665.0,Indonesia, 085249738651,,,-2.2582465,115.6433666,https://maps.google.com/?cid=0x0:0x84ec7eafc78b7a23,
hardware store,hardware store,Toko pa.adur,"JHVJ+RJ2, Pamurus, Kec. Juai, Kabupaten Balangan, Kalimantan Selatan 71665","Pamurus, Kec. Juai, Kabupaten Balangan",KALIMANTAN SELATAN,71665.0,Indonesia,,,,-2.3561595,115.5813707,https://maps.google.com/?cid=0x0:0x7afe0a3a84f8a8e2,
hardware store,Toko Bahan Bangunan,Toko Bangunan Haikal,"PF6H+R8P, Lasung Batu, Kec. Paringin, Kabupaten Balangan, Kalimantan Selatan 71662","Lasung Batu, Kec. Paringin, Kabupaten Balangan",KALIMANTAN SELATAN,71662.0,Indonesia, 081649049436,,,-2.2879098,115.4783349,https://maps.google.com/?cid=0x0:0xdb1f248672aa4835,
hardware store,hardware store,Kalimantan Selatan 71661,"Kec. Lampihong, Kabupaten Balangan, Kalimantan Selatan","Kabupaten Balangan, Kalimantan Selatan",KALIMANTAN SELATAN,,Indonesia,,,,-2.3761607,115.3430203,https://maps.google.com/?cid=0x0:0xcd5508eff3edd85b,
hardware store,Toko Swalayan,TB BERKAT SABAR,"J86G+4F3, Jl. Jermani Husein, Tlk. Karya, Kec. Lampihong, Kabupaten Balangan, Kalimantan Selatan","Kabupaten Balangan, Kalimantan Selatan",KALIMANTAN SELATAN,,Indonesia,,,,-2.3897296,115.3261829,https://maps.google.com/?cid=0x0:0xeb9c0e8cafb8672b,
hardware store,Toko umum,Toko Lhala,"Lampihong kiri RT. 002 No. 150, Matang Lurus, Kec. Lampihong, Kabupaten Balangan, Kalimantan Selatan 71661","Matang Lurus, Kec. Lampihong, Kabupaten Balangan",KALIMANTAN SELATAN,71661.0,Indonesia,,,,-2.3761607,115.3430203,https://maps.google.com/?cid=0x0:0x4058134cc29e57d8,
hardware store,Toko,Percetakan Rezqy @badi,"M94F+8H9, Lampihong Kanan, Kec. Lampihong, Kabupaten Balangan, Kalimantan Selatan 71661","Lampihong Kanan, Kec. Lampihong, Kabupaten Balangan",KALIMANTAN SELATAN,71661.0,Indonesia,,,,-2.344225,115.3739782,https://maps.google.com/?cid=0x0:0xa4eb04ccf4f279e4,
hardware store,hardware store,Kec. Lampihong,"Kabupaten Balangan, Kalimantan Selatan","Kabupaten Balangan, Kalimantan Selatan",KALIMANTAN SELATAN,,Indonesia,,,,-2.3400922,115.376444,https://maps.google.com/?cid=0x0:0xd21d7f569305f006,
hardware store,Toko Bahan Bangunan,TB. HALPAR,"Halubau, Kec. Paringin Sel., Kabupaten Balangan, Kalimantan Selatan","Kabupaten Balangan, Kalimantan Selatan",KALIMANTAN SELATAN,,Indonesia, 085251383634,,,-2.3388966,115.452544,https://maps.google.com/?cid=0x0:0x677930b7fe362b2d,
hardware store,Toko Bahan Bangunan,P,"jalan, Mampari, Kec. Batu Mandi, Kabupaten Balangan, Kalimantan Selatan 71663","Mampari, Kec. Batu Mandi, Kabupaten Balangan",KALIMANTAN SELATAN,71663.0,Indonesia,,,,-2.388106,115.4464615,https://maps.google.com/?cid=0x0:0xae54bdd23b33eb58,
hardware store,Toko Bahan Bangunan,Kanchana aluminum works  Hardware,"Blk. D No.14, Lingsir, Kec. Paringin Sel., Kabupaten Balangan, Kalimantan Selatan","Kabupaten Balangan, Kalimantan Selatan",KALIMANTAN SELATAN,,Indonesia, 0778577783,,,-2.34323,115.457374,https://maps.google.com/?cid=0x0:0xd4aa0a4762dd8d12,
hardware store,Toko Bahan Bangunan,Ms Tk. Material Sejahtera,"MF64+R94, Halubau Utara, Kec. Paringin Sel., Kabupaten Balangan, Kalimantan Selatan 71613","Halubau Utara, Kec. Paringin Sel., Kabupaten Balangan",KALIMANTAN SELATAN,71613.0,Indonesia,,,,-2.337996,115.4559602,https://maps.google.com/?cid=0x0:0xfb36bfe56efd2185,
hardware store,Toko Bahan Bangunan,UD.M.JUNIARDI,"MF86+QV2, Bungin, Kec. Paringin Sel., Kabupaten Balangan, Kalimantan Selatan 71611","Bungin, Kec. Paringin Sel., Kabupaten Balangan",KALIMANTAN SELATAN,71611.0,Indonesia, 081349795576,,,-2.3331008,115.462145,https://maps.google.com/?cid=0x0:0x7760f35d30417cc5,
hardware store,hardware store,MR.DIY,"Jl. A. Yani No.Kel, Batu Piring, Kec. Paringin Sel., Kabupaten Balangan, Kalimantan Selatan 71611","Batu Piring, Kec. Paringin Sel., Kabupaten Balangan",KALIMANTAN SELATAN,71611.0,Indonesia,,,,-2.343177,115.462513,https://maps.google.com/?cid=0x0:0xb122835c1cadaf73,
hardware store,Toko Bahan Bangunan,TB.ALFI (toko bangunan),"Paringin Kota, Kec. Paringin, Kabupaten Balangan, Kalimantan Selatan 71614","Kec. Paringin, Kabupaten Balangan",KALIMANTAN SELATAN,71614.0,Indonesia, 085393028054,,,-2.317992,115.466265,https://maps.google.com/?cid=0x0:0x5254d579177ffa63,
hardware store,hardware store,Kalimantan Selatan 71614,"Kec. Paringin, Kabupaten Balangan, Kalimantan Selatan","Kabupaten Balangan, Kalimantan Selatan",KALIMANTAN SELATAN,,Indonesia,,,,-2.3177773,115.4644708,https://maps.google.com/?cid=0x0:0x761e498857a54f05,
hardware store,Toko Bahan Bangunan,Toko Bangunan Haikal,"PF6H+R8P, Lasung Batu, Kec. Paringin, Kabupaten Balangan, Kalimantan Selatan 71662","Lasung Batu, Kec. Paringin, Kabupaten Balangan",KALIMANTAN SELATAN,71662.0,Indonesia, 081649049436,,,-2.2879098,115.4783349,https://maps.google.com/?cid=0x0:0xdb1f248672aa4835,
hardware store,Toko Bahan Bangunan,TB.HJ LINDA (toko bangunan),"Jl. A. Yani No.2, RW.5, Batu Piring, Kec. Paringin Sel., Kabupaten Balangan, Kalimantan Selatan 71662","RW.5, Batu Piring, Kec. Paringin Sel., Kabupaten Balangan",KALIMANTAN SELATAN,71662.0,Indonesia,,,,-2.3504459,115.4688875,https://maps.google.com/?cid=0x0:0x7314e8bfd97c7d5e,
hardware store,Toko Bahan Bangunan,UD.M.JUNIARDI,"MF86+QV2, Bungin, Kec. Paringin Sel., Kabupaten Balangan, Kalimantan Selatan 71611","Bungin, Kec. Paringin Sel., Kabupaten Balangan",KALIMANTAN SELATAN,71611.0,Indonesia, 081349795576,,,-2.3331008,115.462145,https://maps.google.com/?cid=0x0:0x7760f35d30417cc5,
hardware store,Toko Bahan Bangunan,TB.SAUKI (toko bangunan),"MF76+C7M, Bungin, Kec. Paringin Sel., Kabupaten Balangan, Kalimantan Selatan 71612","Bungin, Kec. Paringin Sel., Kabupaten Balangan",KALIMANTAN SELATAN,71612.0,Indonesia, 082354180604,,,-2.3364024,115.4606821,https://maps.google.com/?cid=0x0:0x8d8bcec3d9c93681,
hardware store,Toko Bahan Bangunan,Toko ANITA,"JFH8+CFM, Jl. A. Yani, Gampa, Kec. Paringin Sel., Kabupaten Balangan, Kalimantan Selatan 71662","Jl. A. Yani, Gampa, Kec. Paringin Sel., Kabupaten Balangan",KALIMANTAN SELATAN,71662.0,Indonesia,,,,-2.3714236,115.4661729,https://maps.google.com/?cid=0x0:0x1b5a36b10fb30699,
hardware store,Toko Bahan Bangunan,TB.SUMBER REJEKI,"MF76+F65, Halubau Utara, Kec. Paringin Sel., Kabupaten Balangan, Kalimantan Selatan 71612","Halubau Utara, Kec. Paringin Sel., Kabupaten Balangan",KALIMANTAN SELATAN,71612.0,Indonesia, 081351822834,,,-2.3363593,115.460602,https://maps.google.com/?cid=0x0:0xcc50db93097060c1,
hardware store,Toko Bahan Bangunan,Ms Tk. Material Sejahtera,"MF64+R94, Halubau Utara, Kec. Paringin Sel., Kabupaten Balangan, Kalimantan Selatan 71613","Halubau Utara, Kec. Paringin Sel., Kabupaten Balangan",KALIMANTAN SELATAN,71613.0,Indonesia,,,,-2.337996,115.4559602,https://maps.google.com/?cid=0x0:0xfb36bfe56efd2185,
hardware store,Toko Suku Cadang Motor,Toko Helm Mubarak  Kue Ziya,"MF86+7JX, Jl. A. Yani, Bungin, Kec. Paringin Sel., Kabupaten Balangan, Kalimantan Selatan 71611","Jl. A. Yani, Bungin, Kec. Paringin Sel., Kabupaten Balangan",KALIMANTAN SELATAN,71611.0,Indonesia, 085248979030,,,-2.3342671,115.4616188,https://maps.google.com/?cid=0x0:0xf98ebcab61d94142,
hardware store,Toko Ponsel,Centra Phone  Computer,"Jl. A. Yani No.Rt. 002, Halubau Utara, Kec. Paringin Sel., Kabupaten Balangan, Kalimantan Selatan 71618","Halubau Utara, Kec. Paringin Sel., Kabupaten Balangan",KALIMANTAN SELATAN,71618.0,Indonesia, 081351161222,,,-2.337405,115.45835,https://maps.google.com/?cid=0x0:0x6fb6c88d958b6607,
hardware store,Toko,Toko Langganan,"Bungin, Kec. Paringin Sel., Kabupaten Balangan, Kalimantan Selatan 71611","Kec. Paringin Sel., Kabupaten Balangan",KALIMANTAN SELATAN,71611.0,Indonesia, 085224834682,,,-2.3351087,115.4614954,https://maps.google.com/?cid=0x0:0xa0f2b92c81fc8056,
hardware store,Toko Perlengkapan Rumah,TB.YADI H.UD (toko bangunan),"MF86+QV2, Bungin, Kec. Paringin Sel., Kabupaten Balangan, Kalimantan Selatan 71611","Bungin, Kec. Paringin Sel., Kabupaten Balangan",KALIMANTAN SELATAN,71611.0,Indonesia, 081349795576,,,-2.333103,115.4621343,https://maps.google.com/?cid=0x0:0xf17ef938c68636f0,
hardware store,Toko Ponsel,shakina phone (service  accesories handphone),"jln bahagia merdeka, Halubau Utara, Kec. Paringin Sel., Kabupaten Balangan, Kalimantan Selatan 71612","Halubau Utara, Kec. Paringin Sel., Kabupaten Balangan",KALIMANTAN SELATAN,71612.0,Indonesia, 083141144414,,,-2.3358477,115.4591265,https://maps.google.com/?cid=0x0:0xd03f2d2ae733f7eb,
hardware store,Toko umum,Toko Berkat Usaha Dua,"Jl. A. Yani, Batu Piring, Kec. Paringin Sel., Kabupaten Balangan, Kalimantan Selatan","Kabupaten Balangan, Kalimantan Selatan",KALIMANTAN SELATAN,,Indonesia, 081352634455,,,-2.3404148,115.4589352,https://maps.google.com/?cid=0x0:0x21642b3a2514f3f2,
hardware store,Toko Bahan Bangunan,TB.TAMAN HIJAU,"Batu Piring, Kec. Paringin Sel., Kabupaten Balangan, Kalimantan Selatan 71662","Kec. Paringin Sel., Kabupaten Balangan",KALIMANTAN SELATAN,71662.0,Indonesia, 085249703280,,,-2.35048,115.4688798,https://maps.google.com/?cid=0x0:0x24cf81103c235d3c,
hardware store,Dealer Kendaraan Bermotor,Trio Motor Paringin,"Jl. A. Yani, Bungin, Kec. Paringin Sel., Kabupaten Balangan, Kalimantan Selatan 71611","Bungin, Kec. Paringin Sel., Kabupaten Balangan",KALIMANTAN SELATAN,71611.0,Indonesia, 081347037442,,,-2.3311872,115.4626326,https://maps.google.com/?cid=0x0:0x466c696f13ea9757,
hardware store,Toko Elektronik,"Zyto Digicom, Balangan","MFG7+3PW, Layap, Kec. Paringin, Kabupaten Balangan, Kalimantan Selatan 71614","Layap, Kec. Paringin, Kabupaten Balangan",KALIMANTAN SELATAN,71614.0,Indonesia, 085321221253,,,-2.324773,115.4643325,https://maps.google.com/?cid=0x0:0xa1aac3f03084049,
hardware store,Toko Elektronik,Toko elektronik,"JGG2+FFR, Jl. Temenggung Jalil, Batu Piring, Kec. Paringin Sel., Kabupaten Balangan, Kalimantan Selatan 71662","Jl. Temenggung Jalil, Batu Piring, Kec. Paringin Sel., Kabupaten Balangan",KALIMANTAN SELATAN,71662.0,Indonesia, 082251578757,,,-2.3737562,115.5011291,https://maps.google.com/?cid=0x0:0x33188d3a023637ae,
hardware store,Pasar,Pasar Paringin,"Pasar lantai 2 blok h17, Halubau Utara, Kec. Paringin Sel., Kabupaten Balangan, Kalimantan Selatan 71618","Halubau Utara, Kec. Paringin Sel., Kabupaten Balangan",KALIMANTAN SELATAN,71618.0,Indonesia,,,,-2.335349,115.4606896,https://maps.google.com/?cid=0x0:0x3bb52267d0596c43,
hardware store,Toko Elektronik,Toko Elektronik Haji Udin,"Halubau Utara, Kec. Paringin Sel., Kabupaten Balangan, Kalimantan Selatan 71612","Kec. Paringin Sel., Kabupaten Balangan",KALIMANTAN SELATAN,71612.0,Indonesia,,,,-2.332952,115.4602305,https://maps.google.com/?cid=0x0:0x776a935f604cfbb1,
hardware store,Toko Bahan Bangunan,TB Berkat Usaha Dua,"Seberang Masjid Assaadah, Batu Piring, Kec. Paringin Sel., Kabupaten Balangan, Kalimantan Selatan 76122","Batu Piring, Kec. Paringin Sel., Kabupaten Balangan",KALIMANTAN SELATAN,76122.0,Indonesia, 081352634455,,,-2.3403433,115.4588625,https://maps.google.com/?cid=0x0:0x157450c18ce117ad,
hardware store,hardware store,Kec. Paringin Sel.,"Kabupaten Balangan, Kalimantan Selatan","Kabupaten Balangan, Kalimantan Selatan",KALIMANTAN SELATAN,,Indonesia,,,,-2.3361693,115.459805,https://maps.google.com/?cid=0x0:0xe8342405120c1ee9,
hardware store,hardware store,MR.DIY,"Jl. A. Yani No.Kel, Batu Piring, Kec. Paringin Sel., Kabupaten Balangan, Kalimantan Selatan 71611","Batu Piring, Kec. Paringin Sel., Kabupaten Balangan",KALIMANTAN SELATAN,71611.0,Indonesia,,,,-2.343177,115.462513,https://maps.google.com/?cid=0x0:0xb122835c1cadaf73,
hardware store,Toko Bahan Bangunan,Kanchana aluminum works  Hardware,"Blk. D No.14, Lingsir, Kec. Paringin Sel., Kabupaten Balangan, Kalimantan Selatan","Kabupaten Balangan, Kalimantan Selatan",KALIMANTAN SELATAN,,Indonesia, 0778577783,,,-2.34323,115.457374,https://maps.google.com/?cid=0x0:0xd4aa0a4762dd8d12,
hardware store,Toko Bahan Bangunan,P,"jalan, Mampari, Kec. Batu Mandi, Kabupaten Balangan, Kalimantan Selatan 71663","Mampari, Kec. Batu Mandi, Kabupaten Balangan",KALIMANTAN SELATAN,71663.0,Indonesia,,,,-2.388106,115.4464615,https://maps.google.com/?cid=0x0:0xae54bdd23b33eb58,
hardware store,Toko Bahan Bangunan,TB. HALPAR,"Halubau, Kec. Paringin Sel., Kabupaten Balangan, Kalimantan Selatan","Kabupaten Balangan, Kalimantan Selatan",KALIMANTAN SELATAN,,Indonesia, 085251383634,,,-2.3388966,115.452544,https://maps.google.com/?cid=0x0:0x677930b7fe362b2d,
hardware store,Toko Percetakan,"TOKO ZAHRA (Percetakan, fotocopy, ATK  BRILINK)","Jl. Ahmad Yani KM.4,4 No.2, Batu Piring, Kec. Paringin Sel., Kabupaten Balangan, Kalimantan Selatan 71662","Batu Piring, Kec. Paringin Sel., Kabupaten Balangan",KALIMANTAN SELATAN,71662.0,Indonesia, 085346464952,,,-2.36192,115.4690595,https://maps.google.com/?cid=0x0:0x74ff83521329152d,
hardware store,hardware store,Kalimantan Selatan 71616,"Batu Piring, Kec. Paringin Sel., Kabupaten Balangan, Kalimantan Selatan","Kabupaten Balangan, Kalimantan Selatan",KALIMANTAN SELATAN,,Indonesia,,,,-2.344415,115.4763169,https://maps.google.com/?cid=0x0:0xd46c446c8be01cd3,
hardware store,hardware store,MR.DIY,"Jl. A. Yani No.Kel, Batu Piring, Kec. Paringin Sel., Kabupaten Balangan, Kalimantan Selatan 71611","Batu Piring, Kec. Paringin Sel., Kabupaten Balangan",KALIMANTAN SELATAN,71611.0,Indonesia,,,,-2.343177,115.462513,https://maps.google.com/?cid=0x0:0xb122835c1cadaf73,
hardware store,Toko Bahan Bangunan,TB.HJ LINDA (toko bangunan),"Jl. A. Yani No.2, RW.5, Batu Piring, Kec. Paringin Sel., Kabupaten Balangan, Kalimantan Selatan 71662","RW.5, Batu Piring, Kec. Paringin Sel., Kabupaten Balangan",KALIMANTAN SELATAN,71662.0,Indonesia,,,,-2.3504459,115.4688875,https://maps.google.com/?cid=0x0:0x7314e8bfd97c7d5e,
hardware store,Toko Bahan Bangunan,UD.M.JUNIARDI,"MF86+QV2, Bungin, Kec. Paringin Sel., Kabupaten Balangan, Kalimantan Selatan 71611","Bungin, Kec. Paringin Sel., Kabupaten Balangan",KALIMANTAN SELATAN,71611.0,Indonesia, 081349795576,,,-2.3331008,115.462145,https://maps.google.com/?cid=0x0:0x7760f35d30417cc5,
hardware store,Toko Bahan Bangunan,Toko ANITA,"JFH8+CFM, Jl. A. Yani, Gampa, Kec. Paringin Sel., Kabupaten Balangan, Kalimantan Selatan 71662","Jl. A. Yani, Gampa, Kec. Paringin Sel., Kabupaten Balangan",KALIMANTAN SELATAN,71662.0,Indonesia,,,,-2.3714236,115.4661729,https://maps.google.com/?cid=0x0:0x1b5a36b10fb30699,
hardware store,Toko Bahan Bangunan,TB.SAUKI (toko bangunan),"MF76+C7M, Bungin, Kec. Paringin Sel., Kabupaten Balangan, Kalimantan Selatan 71612","Bungin, Kec. Paringin Sel., Kabupaten Balangan",KALIMANTAN SELATAN,71612.0,Indonesia, 082354180604,,,-2.3364024,115.4606821,https://maps.google.com/?cid=0x0:0x8d8bcec3d9c93681,
hardware store,Toko Ponsel,Centra Phone  Computer,"Jl. A. Yani No.Rt. 002, Halubau Utara, Kec. Paringin Sel., Kabupaten Balangan, Kalimantan Selatan 71618","Halubau Utara, Kec. Paringin Sel., Kabupaten Balangan",KALIMANTAN SELATAN,71618.0,Indonesia, 081351161222,,,-2.337405,115.45835,https://maps.google.com/?cid=0x0:0x6fb6c88d958b6607,
hardware store,Toko umum,Toko Berkat Usaha Dua,"Jl. A. Yani, Batu Piring, Kec. Paringin Sel., Kabupaten Balangan, Kalimantan Selatan","Kabupaten Balangan, Kalimantan Selatan",KALIMANTAN SELATAN,,Indonesia, 081352634455,,,-2.3404148,115.4589352,https://maps.google.com/?cid=0x0:0x21642b3a2514f3f2,
hardware store,Toko,Toko Langganan,"Bungin, Kec. Paringin Sel., Kabupaten Balangan, Kalimantan Selatan 71611","Kec. Paringin Sel., Kabupaten Balangan",KALIMANTAN SELATAN,71611.0,Indonesia, 085224834682,,,-2.3351087,115.4614954,https://maps.google.com/?cid=0x0:0xa0f2b92c81fc8056,
hardware store,Toko Gorden,Azizah GORDEN,"MFG7+QVV, Paringin Kota, Kec. Paringin, Kabupaten Balangan, Kalimantan Selatan 71614","Paringin Kota, Kec. Paringin, Kabupaten Balangan",KALIMANTAN SELATAN,71614.0,Indonesia, 085248063829,,,-2.3230169,115.464661,https://maps.google.com/?cid=0x0:0x52e64fa79a45c9e7,
hardware store,Toko Perlengkapan Rumah,TB.YADI H.UD (toko bangunan),"MF86+QV2, Bungin, Kec. Paringin Sel., Kabupaten Balangan, Kalimantan Selatan 71611","Bungin, Kec. Paringin Sel., Kabupaten Balangan",KALIMANTAN SELATAN,71611.0,Indonesia, 081349795576,,,-2.333103,115.4621343,https://maps.google.com/?cid=0x0:0xf17ef938c68636f0,
hardware store,Toko Ponsel,shakina phone (service  accesories handphone),"jln bahagia merdeka, Halubau Utara, Kec. Paringin Sel., Kabupaten Balangan, Kalimantan Selatan 71612","Halubau Utara, Kec. Paringin Sel., Kabupaten Balangan",KALIMANTAN SELATAN,71612.0,Indonesia, 083141144414,,,-2.3358477,115.4591265,https://maps.google.com/?cid=0x0:0xd03f2d2ae733f7eb,
hardware store,Toko Elektronik,Toko elektronik,"JGG2+FFR, Jl. Temenggung Jalil, Batu Piring, Kec. Paringin Sel., Kabupaten Balangan, Kalimantan Selatan 71662","Jl. Temenggung Jalil, Batu Piring, Kec. Paringin Sel., Kabupaten Balangan",KALIMANTAN SELATAN,71662.0,Indonesia, 082251578757,,,-2.3737562,115.5011291,https://maps.google.com/?cid=0x0:0x33188d3a023637ae,
hardware store,Toko Pakan Hewan,Mong Petshop,"MF77+852, Bungin, Kec. Paringin Sel., Kabupaten Balangan, Kalimantan Selatan 71611","Bungin, Kec. Paringin Sel., Kabupaten Balangan",KALIMANTAN SELATAN,71611.0,Indonesia, 081350008575,,,-2.3367425,115.4628825,https://maps.google.com/?cid=0x0:0x1fe057ec43fdacd0,
hardware store,Toko Perlengkapan Rumah,Toko Barang Unik Paringin,"Komplek Bumi Raya Indah blok 2 Tungkap, Kelurahan, Batu Piring, Kec. Paringin Sel., Kalimantan Selatan 71618","Kelurahan, Batu Piring, Kec. Paringin Sel.",KALIMANTAN SELATAN,71618.0,Indonesia, 081255564889,,,-2.3417233,115.4631988,https://maps.google.com/?cid=0x0:0x349abe66a8c3465d,
hardware store,Dealer Kendaraan Bermotor,Trio Motor Paringin,"Jl. A. Yani, Bungin, Kec. Paringin Sel., Kabupaten Balangan, Kalimantan Selatan 71611","Bungin, Kec. Paringin Sel., Kabupaten Balangan",KALIMANTAN SELATAN,71611.0,Indonesia, 081347037442,,,-2.3311872,115.4626326,https://maps.google.com/?cid=0x0:0x466c696f13ea9757,
hardware store,Toko Bahan Bangunan,TB Berkat Usaha Dua,"Seberang Masjid Assaadah, Batu Piring, Kec. Paringin Sel., Kabupaten Balangan, Kalimantan Selatan 76122","Batu Piring, Kec. Paringin Sel., Kabupaten Balangan",KALIMANTAN SELATAN,76122.0,Indonesia, 081352634455,,,-2.3403433,115.4588625,https://maps.google.com/?cid=0x0:0x157450c18ce117ad,
hardware store,Pasar,Pasar Paringin,"Pasar lantai 2 blok h17, Halubau Utara, Kec. Paringin Sel., Kabupaten Balangan, Kalimantan Selatan 71618","Halubau Utara, Kec. Paringin Sel., Kabupaten Balangan",KALIMANTAN SELATAN,71618.0,Indonesia,,,,-2.335349,115.4606896,https://maps.google.com/?cid=0x0:0x3bb52267d0596c43,
hardware store,Toko Elektronik,Isak Paran,"pasar blok D, Halubau Utara, Kec. Paringin Sel., Kabupaten Balangan, Kalimantan Selatan 71612","Halubau Utara, Kec. Paringin Sel., Kabupaten Balangan",KALIMANTAN SELATAN,71612.0,Indonesia, 085248778999,,,-2.3355684,115.4604637,https://maps.google.com/?cid=0x0:0xe90e9e857cb7fd4c,
hardware store,Toko Perlengkapan Rumah,Toko Mebel Azizah Paringin,"Halubau Utara, Kec. Paringin Sel., Kabupaten Balangan, Kalimantan Selatan","Kabupaten Balangan, Kalimantan Selatan",KALIMANTAN SELATAN,,Indonesia,,,,-2.3355537,115.4581375,https://maps.google.com/?cid=0x0:0xbc75301c24cd846a,
hardware store,Toko Bahan Bangunan,Toko Bangunan Haikal,"PF6H+R8P, Lasung Batu, Kec. Paringin, Kabupaten Balangan, Kalimantan Selatan 71662","Lasung Batu, Kec. Paringin, Kabupaten Balangan",KALIMANTAN SELATAN,71662.0,Indonesia, 081649049436,,,-2.2879098,115.4783349,https://maps.google.com/?cid=0x0:0xdb1f248672aa4835,
hardware store,Toko Bahan Bangunan,Toko bangunan h udin,"MF75+QF2, Halubau Utara, Kec. Paringin Sel., Kabupaten Balangan, Kalimantan Selatan 71612","Halubau Utara, Kec. Paringin Sel., Kabupaten Balangan",KALIMANTAN SELATAN,71612.0,Indonesia,,,,-2.3356143,115.4586308,https://maps.google.com/?cid=0x0:0xabaa76dd9f17f45f,
hardware store,Toko Elektronik,Toko Elektronik Haji Udin,"Halubau Utara, Kec. Paringin Sel., Kabupaten Balangan, Kalimantan Selatan 71612","Kec. Paringin Sel., Kabupaten Balangan",KALIMANTAN SELATAN,71612.0,Indonesia,,,,-2.332952,115.4602305,https://maps.google.com/?cid=0x0:0x776a935f604cfbb1,
hardware store,hardware store,Kec. Paringin Sel.,"Kabupaten Balangan, Kalimantan Selatan","Kabupaten Balangan, Kalimantan Selatan",KALIMANTAN SELATAN,,Indonesia,,,,-2.3361693,115.459805,https://maps.google.com/?cid=0x0:0xe8342405120c1ee9,
hardware store,Toko Bahan Bangunan,Kanchana aluminum works  Hardware,"Blk. D No.14, Lingsir, Kec. Paringin Sel., Kabupaten Balangan, Kalimantan Selatan","Kabupaten Balangan, Kalimantan Selatan",KALIMANTAN SELATAN,,Indonesia, 0778577783,,,-2.34323,115.457374,https://maps.google.com/?cid=0x0:0xd4aa0a4762dd8d12,
hardware store,Toko Bahan Bangunan,P,"jalan, Mampari, Kec. Batu Mandi, Kabupaten Balangan, Kalimantan Selatan 71663","Mampari, Kec. Batu Mandi, Kabupaten Balangan",KALIMANTAN SELATAN,71663.0,Indonesia,,,,-2.388106,115.4464615,https://maps.google.com/?cid=0x0:0xae54bdd23b33eb58,
hardware store,Toko Bahan Bangunan,TB.SUMBER REJEKI,"MF76+F65, Halubau Utara, Kec. Paringin Sel., Kabupaten Balangan, Kalimantan Selatan 71612","Halubau Utara, Kec. Paringin Sel., Kabupaten Balangan",KALIMANTAN SELATAN,71612.0,Indonesia, 081351822834,,,-2.3363593,115.460602,https://maps.google.com/?cid=0x0:0xcc50db93097060c1,
hardware store,Toko Bahan Bangunan,Ms Tk. Material Sejahtera,"MF64+R94, Halubau Utara, Kec. Paringin Sel., Kabupaten Balangan, Kalimantan Selatan 71613","Halubau Utara, Kec. Paringin Sel., Kabupaten Balangan",KALIMANTAN SELATAN,71613.0,Indonesia,,,,-2.337996,115.4559602,https://maps.google.com/?cid=0x0:0xfb36bfe56efd2185,
hardware store,Toko Bahan Bangunan,TB. HALPAR,"Halubau, Kec. Paringin Sel., Kabupaten Balangan, Kalimantan Selatan","Kabupaten Balangan, Kalimantan Selatan",KALIMANTAN SELATAN,,Indonesia, 085251383634,,,-2.3388966,115.452544,https://maps.google.com/?cid=0x0:0x677930b7fe362b2d,
hardware store,hardware store,Kalimantan Selatan 71662,"Kabupaten Balangan, Kalimantan Selatan","Kabupaten Balangan, Kalimantan Selatan",KALIMANTAN SELATAN,,Indonesia,,,,-2.3012625,115.5088914,https://maps.google.com/?cid=0x0:0xb7382a61ae82526e,
hardware store,Toko Bahan Bangunan,Toko Bangunan Haikal,"PF6H+R8P, Lasung Batu, Kec. Paringin, Kabupaten Balangan, Kalimantan Selatan 71662","Lasung Batu, Kec. Paringin, Kabupaten Balangan",KALIMANTAN SELATAN,71662.0,Indonesia, 081649049436,,,-2.2879098,115.4783349,https://maps.google.com/?cid=0x0:0xdb1f248672aa4835,
hardware store,hardware store,MR.DIY,"Jl. A. Yani No.Kel, Batu Piring, Kec. Paringin Sel., Kabupaten Balangan, Kalimantan Selatan 71611","Batu Piring, Kec. Paringin Sel., Kabupaten Balangan",KALIMANTAN SELATAN,71611.0,Indonesia,,,,-2.343177,115.462513,https://maps.google.com/?cid=0x0:0xb122835c1cadaf73,
hardware store,Toko Bahan Bangunan,TB.HJ LINDA (toko bangunan),"Jl. A. Yani No.2, RW.5, Batu Piring, Kec. Paringin Sel., Kabupaten Balangan, Kalimantan Selatan 71662","RW.5, Batu Piring, Kec. Paringin Sel., Kabupaten Balangan",KALIMANTAN SELATAN,71662.0,Indonesia,,,,-2.3504459,115.4688875,https://maps.google.com/?cid=0x0:0x7314e8bfd97c7d5e,
hardware store,Toko Bahan Bangunan,Toko ANITA,"JFH8+CFM, Jl. A. Yani, Gampa, Kec. Paringin Sel., Kabupaten Balangan, Kalimantan Selatan 71662","Jl. A. Yani, Gampa, Kec. Paringin Sel., Kabupaten Balangan",KALIMANTAN SELATAN,71662.0,Indonesia,,,,-2.3714236,115.4661729,https://maps.google.com/?cid=0x0:0x1b5a36b10fb30699,
hardware store,Toko Bahan Bangunan,UD.M.JUNIARDI,"MF86+QV2, Bungin, Kec. Paringin Sel., Kabupaten Balangan, Kalimantan Selatan 71611","Bungin, Kec. Paringin Sel., Kabupaten Balangan",KALIMANTAN SELATAN,71611.0,Indonesia, 081349795576,,,-2.3331008,115.462145,https://maps.google.com/?cid=0x0:0x7760f35d30417cc5,
hardware store,Toko Bahan Bangunan,Toko bangunan h udin,"MF75+QF2, Halubau Utara, Kec. Paringin Sel., Kabupaten Balangan, Kalimantan Selatan 71612","Halubau Utara, Kec. Paringin Sel., Kabupaten Balangan",KALIMANTAN SELATAN,71612.0,Indonesia,,,,-2.3356143,115.4586308,https://maps.google.com/?cid=0x0:0xabaa76dd9f17f45f,
hardware store,Toko Bahan Bangunan,TB.ALFI (toko bangunan),"Paringin Kota, Kec. Paringin, Kabupaten Balangan, Kalimantan Selatan 71614","Kec. Paringin, Kabupaten Balangan",KALIMANTAN SELATAN,71614.0,Indonesia, 085393028054,,,-2.317992,115.466265,https://maps.google.com/?cid=0x0:0x5254d579177ffa63,
hardware store,Toko Bahan Bangunan,TB.SAUKI (toko bangunan),"MF76+C7M, Bungin, Kec. Paringin Sel., Kabupaten Balangan, Kalimantan Selatan 71612","Bungin, Kec. Paringin Sel., Kabupaten Balangan",KALIMANTAN SELATAN,71612.0,Indonesia, 082354180604,,,-2.3364024,115.4606821,https://maps.google.com/?cid=0x0:0x8d8bcec3d9c93681,
hardware store,Toko Bahan Bangunan,TB. Rizky Bersama,"Jl. A. Yani, RT.03/RW.No. 180, Dahai, Kec. Paringin, Kabupaten Balangan, Kalimantan Selatan 71662","RT.03/RW.No. 180, Dahai, Kec. Paringin, Kabupaten Balangan",KALIMANTAN SELATAN,71662.0,Indonesia, 085190042639,,,-2.2646082,115.4776887,https://maps.google.com/?cid=0x0:0x15feb98d02dfcece,
hardware store,Toko Bahan Bangunan,TB.TAMAN HIJAU,"Batu Piring, Kec. Paringin Sel., Kabupaten Balangan, Kalimantan Selatan 71662","Kec. Paringin Sel., Kabupaten Balangan",KALIMANTAN SELATAN,71662.0,Indonesia, 085249703280,,,-2.35048,115.4688798,https://maps.google.com/?cid=0x0:0x24cf81103c235d3c,
hardware store,Toko Bahan Bangunan,P,"jalan, Mampari, Kec. Batu Mandi, Kabupaten Balangan, Kalimantan Selatan 71663","Mampari, Kec. Batu Mandi, Kabupaten Balangan",KALIMANTAN SELATAN,71663.0,Indonesia,,,,-2.388106,115.4464615,https://maps.google.com/?cid=0x0:0xae54bdd23b33eb58,
hardware store,Toko Bahan Bangunan,Ms Tk. Material Sejahtera,"MF64+R94, Halubau Utara, Kec. Paringin Sel., Kabupaten Balangan, Kalimantan Selatan 71613","Halubau Utara, Kec. Paringin Sel., Kabupaten Balangan",KALIMANTAN SELATAN,71613.0,Indonesia,,,,-2.337996,115.4559602,https://maps.google.com/?cid=0x0:0xfb36bfe56efd2185,
hardware store,Toko Elektronik,Toko elektronik,"JGG2+FFR, Jl. Temenggung Jalil, Batu Piring, Kec. Paringin Sel., Kabupaten Balangan, Kalimantan Selatan 71662","Jl. Temenggung Jalil, Batu Piring, Kec. Paringin Sel., Kabupaten Balangan",KALIMANTAN SELATAN,71662.0,Indonesia, 082251578757,,,-2.3737562,115.5011291,https://maps.google.com/?cid=0x0:0x33188d3a023637ae,
hardware store,Toko Bahan Bangunan,TB.SUMBER REJEKI,"MF76+F65, Halubau Utara, Kec. Paringin Sel., Kabupaten Balangan, Kalimantan Selatan 71612","Halubau Utara, Kec. Paringin Sel., Kabupaten Balangan",KALIMANTAN SELATAN,71612.0,Indonesia, 081351822834,,,-2.3363593,115.460602,https://maps.google.com/?cid=0x0:0xcc50db93097060c1,
hardware store,Toko Percetakan,"TOKO ZAHRA (Percetakan, fotocopy, ATK  BRILINK)","Jl. Ahmad Yani KM.4,4 No.2, Batu Piring, Kec. Paringin Sel., Kabupaten Balangan, Kalimantan Selatan 71662","Batu Piring, Kec. Paringin Sel., Kabupaten Balangan",KALIMANTAN SELATAN,71662.0,Indonesia, 085346464952,,,-2.36192,115.4690595,https://maps.google.com/?cid=0x0:0x74ff83521329152d,
hardware store,Toko umum,Toko Berkat Usaha Dua,"Jl. A. Yani, Batu Piring, Kec. Paringin Sel., Kabupaten Balangan, Kalimantan Selatan","Kabupaten Balangan, Kalimantan Selatan",KALIMANTAN SELATAN,,Indonesia, 081352634455,,,-2.3404148,115.4589352,https://maps.google.com/?cid=0x0:0x21642b3a2514f3f2,
hardware store,Toko Ponsel,Centra Phone  Computer,"Jl. A. Yani No.Rt. 002, Halubau Utara, Kec. Paringin Sel., Kabupaten Balangan, Kalimantan Selatan 71618","Halubau Utara, Kec. Paringin Sel., Kabupaten Balangan",KALIMANTAN SELATAN,71618.0,Indonesia, 081351161222,,,-2.337405,115.45835,https://maps.google.com/?cid=0x0:0x6fb6c88d958b6607,
hardware store,Toko Perlengkapan Rumah,TB.YADI H.UD (toko bangunan),"MF86+QV2, Bungin, Kec. Paringin Sel., Kabupaten Balangan, Kalimantan Selatan 71611","Bungin, Kec. Paringin Sel., Kabupaten Balangan",KALIMANTAN SELATAN,71611.0,Indonesia, 081349795576,,,-2.333103,115.4621343,https://maps.google.com/?cid=0x0:0xf17ef938c68636f0,
hardware store,hardware store,Kec. Paringin Sel.,"Kabupaten Balangan, Kalimantan Selatan","Kabupaten Balangan, Kalimantan Selatan",KALIMANTAN SELATAN,,Indonesia,,,,-2.3361693,115.459805,https://maps.google.com/?cid=0x0:0xe8342405120c1ee9,
hardware store,Toko Ponsel,shakina phone (service  accesories handphone),"jln bahagia merdeka, Halubau Utara, Kec. Paringin Sel., Kabupaten Balangan, Kalimantan Selatan 71612","Halubau Utara, Kec. Paringin Sel., Kabupaten Balangan",KALIMANTAN SELATAN,71612.0,Indonesia, 083141144414,,,-2.3358477,115.4591265,https://maps.google.com/?cid=0x0:0xd03f2d2ae733f7eb,
hardware store,Toko Musik,Toko Gitar Balangan,"MF86+JPC, Jl. A. Yani, Paringin Kota, Kec. Paringin Sel., Kabupaten Balangan, Kalimantan Selatan 71611","Jl. A. Yani, Paringin Kota, Kec. Paringin Sel., Kabupaten Balangan",KALIMANTAN SELATAN,71611.0,Indonesia, 087887102475,,,-2.3334493,115.4617583,https://maps.google.com/?cid=0x0:0x234c187bbfb81240,
hardware store,Toko Gorden,Azizah GORDEN,"MFG7+QVV, Paringin Kota, Kec. Paringin, Kabupaten Balangan, Kalimantan Selatan 71614","Paringin Kota, Kec. Paringin, Kabupaten Balangan",KALIMANTAN SELATAN,71614.0,Indonesia, 085248063829,,,-2.3230169,115.464661,https://maps.google.com/?cid=0x0:0x52e64fa79a45c9e7,
hardware store,Minimarket,Indomaret A Yani 25A Balangan,"MF86+RQQ, Jl. A. Yani, Paringin Kota, Kec. Paringin Sel., Kabupaten Balangan, Kalimantan Selatan 71611","Jl. A. Yani, Paringin Kota, Kec. Paringin Sel., Kabupaten Balangan",KALIMANTAN SELATAN,71611.0,Indonesia,,,,-2.3329229,115.4619966,https://maps.google.com/?cid=0x0:0xdfbc976d2806db75,
hardware store,Toko Elektronik,Tri Jaya Electronic,"MF97+W4R, Halubau Utara, Kec. Paringin Sel., Kabupaten Balangan, Kalimantan Selatan 71611","Halubau Utara, Kec. Paringin Sel., Kabupaten Balangan",KALIMANTAN SELATAN,71611.0,Indonesia,,,,-2.3301374,115.4627778,https://maps.google.com/?cid=0x0:0xfe92e74595c351ae,
hardware store,Toko Bahan Bangunan,TB. HALPAR,"Halubau, Kec. Paringin Sel., Kabupaten Balangan, Kalimantan Selatan","Kabupaten Balangan, Kalimantan Selatan",KALIMANTAN SELATAN,,Indonesia, 085251383634,,,-2.3388966,115.452544,https://maps.google.com/?cid=0x0:0x677930b7fe362b2d,
hardware store,hardware store,Kalimantan Selatan 71617,"Halubau, Kec. Paringin Sel., Kabupaten Balangan, Kalimantan Selatan","Kabupaten Balangan, Kalimantan Selatan",KALIMANTAN SELATAN,,Indonesia,,,,-2.3493563,115.4526241,https://maps.google.com/?cid=0x0:0xf932e7e492a1671c,
hardware store,hardware store,MR.DIY,"Jl. A. Yani No.Kel, Batu Piring, Kec. Paringin Sel., Kabupaten Balangan, Kalimantan Selatan 71611","Batu Piring, Kec. Paringin Sel., Kabupaten Balangan",KALIMANTAN SELATAN,71611.0,Indonesia,,,,-2.343177,115.462513,https://maps.google.com/?cid=0x0:0xb122835c1cadaf73,
hardware store,Toko Bahan Bangunan,Kanchana aluminum works  Hardware,"Blk. D No.14, Lingsir, Kec. Paringin Sel., Kabupaten Balangan, Kalimantan Selatan","Kabupaten Balangan, Kalimantan Selatan",KALIMANTAN SELATAN,,Indonesia, 0778577783,,,-2.34323,115.457374,https://maps.google.com/?cid=0x0:0xd4aa0a4762dd8d12,
hardware store,Toko Bahan Bangunan,Toko Bangunan Haikal,"PF6H+R8P, Lasung Batu, Kec. Paringin, Kabupaten Balangan, Kalimantan Selatan 71662","Lasung Batu, Kec. Paringin, Kabupaten Balangan",KALIMANTAN SELATAN,71662.0,Indonesia, 081649049436,,,-2.2879098,115.4783349,https://maps.google.com/?cid=0x0:0xdb1f248672aa4835,
hardware store,Toko Bahan Bangunan,TB.HJ LINDA (toko bangunan),"Jl. A. Yani No.2, RW.5, Batu Piring, Kec. Paringin Sel., Kabupaten Balangan, Kalimantan Selatan 71662","RW.5, Batu Piring, Kec. Paringin Sel., Kabupaten Balangan",KALIMANTAN SELATAN,71662.0,Indonesia,,,,-2.3504459,115.4688875,https://maps.google.com/?cid=0x0:0x7314e8bfd97c7d5e,
hardware store,Toko Bahan Bangunan,TB.SAUKI (toko bangunan),"MF76+C7M, Bungin, Kec. Paringin Sel., Kabupaten Balangan, Kalimantan Selatan 71612","Bungin, Kec. Paringin Sel., Kabupaten Balangan",KALIMANTAN SELATAN,71612.0,Indonesia, 082354180604,,,-2.3364024,115.4606821,https://maps.google.com/?cid=0x0:0x8d8bcec3d9c93681,
hardware store,Toko Bahan Bangunan,Toko ANITA,"JFH8+CFM, Jl. A. Yani, Gampa, Kec. Paringin Sel., Kabupaten Balangan, Kalimantan Selatan 71662","Jl. A. Yani, Gampa, Kec. Paringin Sel., Kabupaten Balangan",KALIMANTAN SELATAN,71662.0,Indonesia,,,,-2.3714236,115.4661729,https://maps.google.com/?cid=0x0:0x1b5a36b10fb30699,
hardware store,Toko Bahan Bangunan,TB.ALFI (toko bangunan),"Paringin Kota, Kec. Paringin, Kabupaten Balangan, Kalimantan Selatan 71614","Kec. Paringin, Kabupaten Balangan",KALIMANTAN SELATAN,71614.0,Indonesia, 085393028054,,,-2.317992,115.466265,https://maps.google.com/?cid=0x0:0x5254d579177ffa63,
hardware store,Toko umum,Toko Berkat Usaha Dua,"Jl. A. Yani, Batu Piring, Kec. Paringin Sel., Kabupaten Balangan, Kalimantan Selatan","Kabupaten Balangan, Kalimantan Selatan",KALIMANTAN SELATAN,,Indonesia, 081352634455,,,-2.3404148,115.4589352,https://maps.google.com/?cid=0x0:0x21642b3a2514f3f2,
hardware store,Toko Ponsel,Centra Phone  Computer,"Jl. A. Yani No.Rt. 002, Halubau Utara, Kec. Paringin Sel., Kabupaten Balangan, Kalimantan Selatan 71618","Halubau Utara, Kec. Paringin Sel., Kabupaten Balangan",KALIMANTAN SELATAN,71618.0,Indonesia, 081351161222,,,-2.337405,115.45835,https://maps.google.com/?cid=0x0:0x6fb6c88d958b6607,
hardware store,Toko Ponsel,shakina phone (service  accesories handphone),"jln bahagia merdeka, Halubau Utara, Kec. Paringin Sel., Kabupaten Balangan, Kalimantan Selatan 71612","Halubau Utara, Kec. Paringin Sel., Kabupaten Balangan",KALIMANTAN SELATAN,71612.0,Indonesia, 083141144414,,,-2.3358477,115.4591265,https://maps.google.com/?cid=0x0:0xd03f2d2ae733f7eb,
hardware store,Toko Suku Cadang Motor,Toko Helm Mubarak  Kue Ziya,"MF86+7JX, Jl. A. Yani, Bungin, Kec. Paringin Sel., Kabupaten Balangan, Kalimantan Selatan 71611","Jl. A. Yani, Bungin, Kec. Paringin Sel., Kabupaten Balangan",KALIMANTAN SELATAN,71611.0,Indonesia, 085248979030,,,-2.3342671,115.4616188,https://maps.google.com/?cid=0x0:0xf98ebcab61d94142,
hardware store,Toko Bahan Bangunan,TB. HALPAR,"Halubau, Kec. Paringin Sel., Kabupaten Balangan, Kalimantan Selatan","Kabupaten Balangan, Kalimantan Selatan",KALIMANTAN SELATAN,,Indonesia, 085251383634,,,-2.3388966,115.452544,https://maps.google.com/?cid=0x0:0x677930b7fe362b2d,
hardware store,Toko Perlengkapan Rumah,TB.YADI H.UD (toko bangunan),"MF86+QV2, Bungin, Kec. Paringin Sel., Kabupaten Balangan, Kalimantan Selatan 71611","Bungin, Kec. Paringin Sel., Kabupaten Balangan",KALIMANTAN SELATAN,71611.0,Indonesia, 081349795576,,,-2.333103,115.4621343,https://maps.google.com/?cid=0x0:0xf17ef938c68636f0,
hardware store,Toko,Toko Langganan,"Bungin, Kec. Paringin Sel., Kabupaten Balangan, Kalimantan Selatan 71611","Kec. Paringin Sel., Kabupaten Balangan",KALIMANTAN SELATAN,71611.0,Indonesia, 085224834682,,,-2.3351087,115.4614954,https://maps.google.com/?cid=0x0:0xa0f2b92c81fc8056,
hardware store,Toko Elektronik,Toko elektronik,"JGG2+FFR, Jl. Temenggung Jalil, Batu Piring, Kec. Paringin Sel., Kabupaten Balangan, Kalimantan Selatan 71662","Jl. Temenggung Jalil, Batu Piring, Kec. Paringin Sel., Kabupaten Balangan",KALIMANTAN SELATAN,71662.0,Indonesia, 082251578757,,,-2.3737562,115.5011291,https://maps.google.com/?cid=0x0:0x33188d3a023637ae,
hardware store,Toko Bahan Bangunan,TB Berkat Usaha Dua,"Seberang Masjid Assaadah, Batu Piring, Kec. Paringin Sel., Kabupaten Balangan, Kalimantan Selatan 76122","Batu Piring, Kec. Paringin Sel., Kabupaten Balangan",KALIMANTAN SELATAN,76122.0,Indonesia, 081352634455,,,-2.3403433,115.4588625,https://maps.google.com/?cid=0x0:0x157450c18ce117ad,
hardware store,Toko Elektronik,Isak Paran,"pasar blok D, Halubau Utara, Kec. Paringin Sel., Kabupaten Balangan, Kalimantan Selatan 71612","Halubau Utara, Kec. Paringin Sel., Kabupaten Balangan",KALIMANTAN SELATAN,71612.0,Indonesia, 085248778999,,,-2.3355684,115.4604637,https://maps.google.com/?cid=0x0:0xe90e9e857cb7fd4c,
hardware store,Toko Perlengkapan Rumah,Toko Barang Unik Paringin,"Komplek Bumi Raya Indah blok 2 Tungkap, Kelurahan, Batu Piring, Kec. Paringin Sel., Kalimantan Selatan 71618","Kelurahan, Batu Piring, Kec. Paringin Sel.",KALIMANTAN SELATAN,71618.0,Indonesia, 081255564889,,,-2.3417233,115.4631988,https://maps.google.com/?cid=0x0:0x349abe66a8c3465d,
hardware store,Toko Elektronik,Toko Elektronik Haji Udin,"Halubau Utara, Kec. Paringin Sel., Kabupaten Balangan, Kalimantan Selatan 71612","Kec. Paringin Sel., Kabupaten Balangan",KALIMANTAN SELATAN,71612.0,Indonesia,,,,-2.332952,115.4602305,https://maps.google.com/?cid=0x0:0x776a935f604cfbb1,
hardware store,hardware store,Kalimantan Selatan 71618,"Lingsir, Kec. Paringin Sel., Kabupaten Balangan, Kalimantan Selatan","Kabupaten Balangan, Kalimantan Selatan",KALIMANTAN SELATAN,,Indonesia,,,,-2.3480342,115.46299,https://maps.google.com/?cid=0x0:0xaaca6ef0c3889113,
hardware store,hardware store,MR.DIY,"Jl. A. Yani No.Kel, Batu Piring, Kec. Paringin Sel., Kabupaten Balangan, Kalimantan Selatan 71611","Batu Piring, Kec. Paringin Sel., Kabupaten Balangan",KALIMANTAN SELATAN,71611.0,Indonesia,,,,-2.343177,115.462513,https://maps.google.com/?cid=0x0:0xb122835c1cadaf73,
hardware store,Toko Bahan Bangunan,Toko bangunan h udin,"MF75+QF2, Halubau Utara, Kec. Paringin Sel., Kabupaten Balangan, Kalimantan Selatan 71612","Halubau Utara, Kec. Paringin Sel., Kabupaten Balangan",KALIMANTAN SELATAN,71612.0,Indonesia,,,,-2.3356143,115.4586308,https://maps.google.com/?cid=0x0:0xabaa76dd9f17f45f,
hardware store,Toko Bahan Bangunan,Kanchana aluminum works  Hardware,"Blk. D No.14, Lingsir, Kec. Paringin Sel., Kabupaten Balangan, Kalimantan Selatan","Kabupaten Balangan, Kalimantan Selatan",KALIMANTAN SELATAN,,Indonesia, 0778577783,,,-2.34323,115.457374,https://maps.google.com/?cid=0x0:0xd4aa0a4762dd8d12,
hardware store,Toko Bahan Bangunan,Toko Bangunan Haikal,"PF6H+R8P, Lasung Batu, Kec. Paringin, Kabupaten Balangan, Kalimantan Selatan 71662","Lasung Batu, Kec. Paringin, Kabupaten Balangan",KALIMANTAN SELATAN,71662.0,Indonesia, 081649049436,,,-2.2879098,115.4783349,https://maps.google.com/?cid=0x0:0xdb1f248672aa4835,
hardware store,Toko Bahan Bangunan,TB.SAUKI (toko bangunan),"MF76+C7M, Bungin, Kec. Paringin Sel., Kabupaten Balangan, Kalimantan Selatan 71612","Bungin, Kec. Paringin Sel., Kabupaten Balangan",KALIMANTAN SELATAN,71612.0,Indonesia, 082354180604,,,-2.3364024,115.4606821,https://maps.google.com/?cid=0x0:0x8d8bcec3d9c93681,
hardware store,Toko Bahan Bangunan,TB.ALFI (toko bangunan),"Paringin Kota, Kec. Paringin, Kabupaten Balangan, Kalimantan Selatan 71614","Kec. Paringin, Kabupaten Balangan",KALIMANTAN SELATAN,71614.0,Indonesia, 085393028054,,,-2.317992,115.466265,https://maps.google.com/?cid=0x0:0x5254d579177ffa63,
hardware store,Toko Bahan Bangunan,Toko ANITA,"JFH8+CFM, Jl. A. Yani, Gampa, Kec. Paringin Sel., Kabupaten Balangan, Kalimantan Selatan 71662","Jl. A. Yani, Gampa, Kec. Paringin Sel., Kabupaten Balangan",KALIMANTAN SELATAN,71662.0,Indonesia,,,,-2.3714236,115.4661729,https://maps.google.com/?cid=0x0:0x1b5a36b10fb30699,
hardware store,Toko Ponsel,Centra Phone  Computer,"Jl. A. Yani No.Rt. 002, Halubau Utara, Kec. Paringin Sel., Kabupaten Balangan, Kalimantan Selatan 71618","Halubau Utara, Kec. Paringin Sel., Kabupaten Balangan",KALIMANTAN SELATAN,71618.0,Indonesia, 081351161222,,,-2.337405,115.45835,https://maps.google.com/?cid=0x0:0x6fb6c88d958b6607,
hardware store,Toko Bahan Bangunan,TB.TAMAN HIJAU,"Batu Piring, Kec. Paringin Sel., Kabupaten Balangan, Kalimantan Selatan 71662","Kec. Paringin Sel., Kabupaten Balangan",KALIMANTAN SELATAN,71662.0,Indonesia, 085249703280,,,-2.35048,115.4688798,https://maps.google.com/?cid=0x0:0x24cf81103c235d3c,
hardware store,Toko Suku Cadang Motor,Toko Helm Mubarak  Kue Ziya,"MF86+7JX, Jl. A. Yani, Bungin, Kec. Paringin Sel., Kabupaten Balangan, Kalimantan Selatan 71611","Jl. A. Yani, Bungin, Kec. Paringin Sel., Kabupaten Balangan",KALIMANTAN SELATAN,71611.0,Indonesia, 085248979030,,,-2.3342671,115.4616188,https://maps.google.com/?cid=0x0:0xf98ebcab61d94142,
hardware store,Toko umum,Toko Berkat Usaha Dua,"Jl. A. Yani, Batu Piring, Kec. Paringin Sel., Kabupaten Balangan, Kalimantan Selatan","Kabupaten Balangan, Kalimantan Selatan",KALIMANTAN SELATAN,,Indonesia, 081352634455,,,-2.3404148,115.4589352,https://maps.google.com/?cid=0x0:0x21642b3a2514f3f2,
hardware store,Toko Ponsel,shakina phone (service  accesories handphone),"jln bahagia merdeka, Halubau Utara, Kec. Paringin Sel., Kabupaten Balangan, Kalimantan Selatan 71612","Halubau Utara, Kec. Paringin Sel., Kabupaten Balangan",KALIMANTAN SELATAN,71612.0,Indonesia, 083141144414,,,-2.3358477,115.4591265,https://maps.google.com/?cid=0x0:0xd03f2d2ae733f7eb,
hardware store,Toko,Toko Langganan,"Bungin, Kec. Paringin Sel., Kabupaten Balangan, Kalimantan Selatan 71611","Kec. Paringin Sel., Kabupaten Balangan",KALIMANTAN SELATAN,71611.0,Indonesia, 085224834682,,,-2.3351087,115.4614954,https://maps.google.com/?cid=0x0:0xa0f2b92c81fc8056,
hardware store,Toko Perlengkapan Rumah,Toko Barang Unik Paringin,"Komplek Bumi Raya Indah blok 2 Tungkap, Kelurahan, Batu Piring, Kec. Paringin Sel., Kalimantan Selatan 71618","Kelurahan, Batu Piring, Kec. Paringin Sel.",KALIMANTAN SELATAN,71618.0,Indonesia, 081255564889,,,-2.3417233,115.4631988,https://maps.google.com/?cid=0x0:0x349abe66a8c3465d,
hardware store,Toko Perlengkapan Rumah,TB.YADI H.UD (toko bangunan),"MF86+QV2, Bungin, Kec. Paringin Sel., Kabupaten Balangan, Kalimantan Selatan 71611","Bungin, Kec. Paringin Sel., Kabupaten Balangan",KALIMANTAN SELATAN,71611.0,Indonesia, 081349795576,,,-2.333103,115.4621343,https://maps.google.com/?cid=0x0:0xf17ef938c68636f0,
hardware store,Toko Elektronik,Toko elektronik,"JGG2+FFR, Jl. Temenggung Jalil, Batu Piring, Kec. Paringin Sel., Kabupaten Balangan, Kalimantan Selatan 71662","Jl. Temenggung Jalil, Batu Piring, Kec. Paringin Sel., Kabupaten Balangan",KALIMANTAN SELATAN,71662.0,Indonesia, 082251578757,,,-2.3737562,115.5011291,https://maps.google.com/?cid=0x0:0x33188d3a023637ae,
hardware store,Toko Bahan Bangunan,TB Berkat Usaha Dua,"Seberang Masjid Assaadah, Batu Piring, Kec. Paringin Sel., Kabupaten Balangan, Kalimantan Selatan 76122","Batu Piring, Kec. Paringin Sel., Kabupaten Balangan",KALIMANTAN SELATAN,76122.0,Indonesia, 081352634455,,,-2.3403433,115.4588625,https://maps.google.com/?cid=0x0:0x157450c18ce117ad,
hardware store,Toko Elektronik,Isak Paran,"pasar blok D, Halubau Utara, Kec. Paringin Sel., Kabupaten Balangan, Kalimantan Selatan 71612","Halubau Utara, Kec. Paringin Sel., Kabupaten Balangan",KALIMANTAN SELATAN,71612.0,Indonesia, 085248778999,,,-2.3355684,115.4604637,https://maps.google.com/?cid=0x0:0xe90e9e857cb7fd4c,
hardware store,Pasar,Pasar Paringin,"Pasar lantai 2 blok h17, Halubau Utara, Kec. Paringin Sel., Kabupaten Balangan, Kalimantan Selatan 71618","Halubau Utara, Kec. Paringin Sel., Kabupaten Balangan",KALIMANTAN SELATAN,71618.0,Indonesia,,,,-2.335349,115.4606896,https://maps.google.com/?cid=0x0:0x3bb52267d0596c43,
hardware store,Toko Elektronik,Toko Elektronik Haji Udin,"Halubau Utara, Kec. Paringin Sel., Kabupaten Balangan, Kalimantan Selatan 71612","Kec. Paringin Sel., Kabupaten Balangan",KALIMANTAN SELATAN,71612.0,Indonesia,,,,-2.332952,115.4602305,https://maps.google.com/?cid=0x0:0x776a935f604cfbb1,
hardware store,hardware store,Kalimantan Selatan 71662,"Kabupaten Balangan, Kalimantan Selatan","Kabupaten Balangan, Kalimantan Selatan",KALIMANTAN SELATAN,,Indonesia,,,,-2.3012625,115.5088914,https://maps.google.com/?cid=0x0:0xb7382a61ae82526e,
hardware store,Toko Bahan Bangunan,Toko Bangunan Haikal,"PF6H+R8P, Lasung Batu, Kec. Paringin, Kabupaten Balangan, Kalimantan Selatan 71662","Lasung Batu, Kec. Paringin, Kabupaten Balangan",KALIMANTAN SELATAN,71662.0,Indonesia, 081649049436,,,-2.2879098,115.4783349,https://maps.google.com/?cid=0x0:0xdb1f248672aa4835,
hardware store,hardware store,MR.DIY,"Jl. A. Yani No.Kel, Batu Piring, Kec. Paringin Sel., Kabupaten Balangan, Kalimantan Selatan 71611","Batu Piring, Kec. Paringin Sel., Kabupaten Balangan",KALIMANTAN SELATAN,71611.0,Indonesia,,,,-2.343177,115.462513,https://maps.google.com/?cid=0x0:0xb122835c1cadaf73,
hardware store,Toko Bahan Bangunan,TB.HJ LINDA (toko bangunan),"Jl. A. Yani No.2, RW.5, Batu Piring, Kec. Paringin Sel., Kabupaten Balangan, Kalimantan Selatan 71662","RW.5, Batu Piring, Kec. Paringin Sel., Kabupaten Balangan",KALIMANTAN SELATAN,71662.0,Indonesia,,,,-2.3504459,115.4688875,https://maps.google.com/?cid=0x0:0x7314e8bfd97c7d5e,
hardware store,Toko Bahan Bangunan,UD.M.JUNIARDI,"MF86+QV2, Bungin, Kec. Paringin Sel., Kabupaten Balangan, Kalimantan Selatan 71611","Bungin, Kec. Paringin Sel., Kabupaten Balangan",KALIMANTAN SELATAN,71611.0,Indonesia, 081349795576,,,-2.3331008,115.462145,https://maps.google.com/?cid=0x0:0x7760f35d30417cc5,
hardware store,Toko Bahan Bangunan,Toko ANITA,"JFH8+CFM, Jl. A. Yani, Gampa, Kec. Paringin Sel., Kabupaten Balangan, Kalimantan Selatan 71662","Jl. A. Yani, Gampa, Kec. Paringin Sel., Kabupaten Balangan",KALIMANTAN SELATAN,71662.0,Indonesia,,,,-2.3714236,115.4661729,https://maps.google.com/?cid=0x0:0x1b5a36b10fb30699,
hardware store,Toko Bahan Bangunan,Toko bangunan h udin,"MF75+QF2, Halubau Utara, Kec. Paringin Sel., Kabupaten Balangan, Kalimantan Selatan 71612","Halubau Utara, Kec. Paringin Sel., Kabupaten Balangan",KALIMANTAN SELATAN,71612.0,Indonesia,,,,-2.3356143,115.4586308,https://maps.google.com/?cid=0x0:0xabaa76dd9f17f45f,
hardware store,Toko Bahan Bangunan,TB.ALFI (toko bangunan),"Paringin Kota, Kec. Paringin, Kabupaten Balangan, Kalimantan Selatan 71614","Kec. Paringin, Kabupaten Balangan",KALIMANTAN SELATAN,71614.0,Indonesia, 085393028054,,,-2.317992,115.466265,https://maps.google.com/?cid=0x0:0x5254d579177ffa63,
hardware store,Toko Bahan Bangunan,P,"jalan, Mampari, Kec. Batu Mandi, Kabupaten Balangan, Kalimantan Selatan 71663","Mampari, Kec. Batu Mandi, Kabupaten Balangan",KALIMANTAN SELATAN,71663.0,Indonesia,,,,-2.388106,115.4464615,https://maps.google.com/?cid=0x0:0xae54bdd23b33eb58,
hardware store,Toko Bahan Bangunan,TB.SAUKI (toko bangunan),"MF76+C7M, Bungin, Kec. Paringin Sel., Kabupaten Balangan, Kalimantan Selatan 71612","Bungin, Kec. Paringin Sel., Kabupaten Balangan",KALIMANTAN SELATAN,71612.0,Indonesia, 082354180604,,,-2.3364024,115.4606821,https://maps.google.com/?cid=0x0:0x8d8bcec3d9c93681,
hardware store,Toko Bahan Bangunan,TB. Rizky Bersama,"Jl. A. Yani, RT.03/RW.No. 180, Dahai, Kec. Paringin, Kabupaten Balangan, Kalimantan Selatan 71662","RT.03/RW.No. 180, Dahai, Kec. Paringin, Kabupaten Balangan",KALIMANTAN SELATAN,71662.0,Indonesia, 085190042639,,,-2.2646082,115.4776887,https://maps.google.com/?cid=0x0:0x15feb98d02dfcece,
hardware store,Toko Bahan Bangunan,TB.TAMAN HIJAU,"Batu Piring, Kec. Paringin Sel., Kabupaten Balangan, Kalimantan Selatan 71662","Kec. Paringin Sel., Kabupaten Balangan",KALIMANTAN SELATAN,71662.0,Indonesia, 085249703280,,,-2.35048,115.4688798,https://maps.google.com/?cid=0x0:0x24cf81103c235d3c,
hardware store,Toko Bahan Bangunan,Ms Tk. Material Sejahtera,"MF64+R94, Halubau Utara, Kec. Paringin Sel., Kabupaten Balangan, Kalimantan Selatan 71613","Halubau Utara, Kec. Paringin Sel., Kabupaten Balangan",KALIMANTAN SELATAN,71613.0,Indonesia,,,,-2.337996,115.4559602,https://maps.google.com/?cid=0x0:0xfb36bfe56efd2185,
hardware store,Toko Bahan Bangunan,TB.SUMBER REJEKI,"MF76+F65, Halubau Utara, Kec. Paringin Sel., Kabupaten Balangan, Kalimantan Selatan 71612","Halubau Utara, Kec. Paringin Sel., Kabupaten Balangan",KALIMANTAN SELATAN,71612.0,Indonesia, 081351822834,,,-2.3363593,115.460602,https://maps.google.com/?cid=0x0:0xcc50db93097060c1,
hardware store,Toko Suku Cadang Motor,Toko Helm Mubarak  Kue Ziya,"MF86+7JX, Jl. A. Yani, Bungin, Kec. Paringin Sel., Kabupaten Balangan, Kalimantan Selatan 71611","Jl. A. Yani, Bungin, Kec. Paringin Sel., Kabupaten Balangan",KALIMANTAN SELATAN,71611.0,Indonesia, 085248979030,,,-2.3342671,115.4616188,https://maps.google.com/?cid=0x0:0xf98ebcab61d94142,
hardware store,Toko Elektronik,Toko elektronik,"JGG2+FFR, Jl. Temenggung Jalil, Batu Piring, Kec. Paringin Sel., Kabupaten Balangan, Kalimantan Selatan 71662","Jl. Temenggung Jalil, Batu Piring, Kec. Paringin Sel., Kabupaten Balangan",KALIMANTAN SELATAN,71662.0,Indonesia, 082251578757,,,-2.3737562,115.5011291,https://maps.google.com/?cid=0x0:0x33188d3a023637ae,
hardware store,Toko umum,Toko Berkat Usaha Dua,"Jl. A. Yani, Batu Piring, Kec. Paringin Sel., Kabupaten Balangan, Kalimantan Selatan","Kabupaten Balangan, Kalimantan Selatan",KALIMANTAN SELATAN,,Indonesia, 081352634455,,,-2.3404148,115.4589352,https://maps.google.com/?cid=0x0:0x21642b3a2514f3f2,
hardware store,Toko Percetakan,"TOKO ZAHRA (Percetakan, fotocopy, ATK  BRILINK)","Jl. Ahmad Yani KM.4,4 No.2, Batu Piring, Kec. Paringin Sel., Kabupaten Balangan, Kalimantan Selatan 71662","Batu Piring, Kec. Paringin Sel., Kabupaten Balangan",KALIMANTAN SELATAN,71662.0,Indonesia, 085346464952,,,-2.36192,115.4690595,https://maps.google.com/?cid=0x0:0x74ff83521329152d,
hardware store,Toko Ponsel,Centra Phone  Computer,"Jl. A. Yani No.Rt. 002, Halubau Utara, Kec. Paringin Sel., Kabupaten Balangan, Kalimantan Selatan 71618","Halubau Utara, Kec. Paringin Sel., Kabupaten Balangan",KALIMANTAN SELATAN,71618.0,Indonesia, 081351161222,,,-2.337405,115.45835,https://maps.google.com/?cid=0x0:0x6fb6c88d958b6607,
hardware store,Toko Perlengkapan Rumah,TB.YADI H.UD (toko bangunan),"MF86+QV2, Bungin, Kec. Paringin Sel., Kabupaten Balangan, Kalimantan Selatan 71611","Bungin, Kec. Paringin Sel., Kabupaten Balangan",KALIMANTAN SELATAN,71611.0,Indonesia, 081349795576,,,-2.333103,115.4621343,https://maps.google.com/?cid=0x0:0xf17ef938c68636f0,
hardware store,Toko Ponsel,shakina phone (service  accesories handphone),"jln bahagia merdeka, Halubau Utara, Kec. Paringin Sel., Kabupaten Balangan, Kalimantan Selatan 71612","Halubau Utara, Kec. Paringin Sel., Kabupaten Balangan",KALIMANTAN SELATAN,71612.0,Indonesia, 083141144414,,,-2.3358477,115.4591265,https://maps.google.com/?cid=0x0:0xd03f2d2ae733f7eb,
hardware store,hardware store,Kec. Paringin Sel.,"Kabupaten Balangan, Kalimantan Selatan","Kabupaten Balangan, Kalimantan Selatan",KALIMANTAN SELATAN,,Indonesia,,,,-2.3361693,115.459805,https://maps.google.com/?cid=0x0:0xe8342405120c1ee9,
hardware store,Toko Perlengkapan Rumah,Toko Barang Unik Paringin,"Komplek Bumi Raya Indah blok 2 Tungkap, Kelurahan, Batu Piring, Kec. Paringin Sel., Kalimantan Selatan 71618","Kelurahan, Batu Piring, Kec. Paringin Sel.",KALIMANTAN SELATAN,71618.0,Indonesia, 081255564889,,,-2.3417233,115.4631988,https://maps.google.com/?cid=0x0:0x349abe66a8c3465d,
hardware store,Toko Bahan Bangunan,TB Berkat Usaha Dua,"Seberang Masjid Assaadah, Batu Piring, Kec. Paringin Sel., Kabupaten Balangan, Kalimantan Selatan 76122","Batu Piring, Kec. Paringin Sel., Kabupaten Balangan",KALIMANTAN SELATAN,76122.0,Indonesia, 081352634455,,,-2.3403433,115.4588625,https://maps.google.com/?cid=0x0:0x157450c18ce117ad,
hardware store,Kantor Pemerintah,KANTOR KECAMATAN PARINGIN SELATAN,"JFXG+G9X, Lingsir, Kec. Paringin Sel., Kabupaten Balangan, Kalimantan Selatan 71662","Lingsir, Kec. Paringin Sel., Kabupaten Balangan",KALIMANTAN SELATAN,71662.0,Indonesia,,,,-2.3511353,115.4759696,https://maps.google.com/?cid=0x0:0xaa9b699620ecdfe6,
hardware store,Toko Elektronik,Isak Paran,"pasar blok D, Halubau Utara, Kec. Paringin Sel., Kabupaten Balangan, Kalimantan Selatan 71612","Halubau Utara, Kec. Paringin Sel., Kabupaten Balangan",KALIMANTAN SELATAN,71612.0,Indonesia, 085248778999,,,-2.3355684,115.4604637,https://maps.google.com/?cid=0x0:0xe90e9e857cb7fd4c,
hardware store,Toko Elektronik,ARGA SERVIS ELEKTRONIK,"jalan banyu hirang No.rt 1, Halubau, Kec. Paringin Sel., Kabupaten Balangan, Kalimantan Selatan 71663","Halubau, Kec. Paringin Sel., Kabupaten Balangan",KALIMANTAN SELATAN,71663.0,Indonesia, 082150005233,,,-2.3726179,115.4376747,https://maps.google.com/?cid=0x0:0x5f7c36671cf5791a,
hardware store,Toko Bahan Bangunan,Toko bangunan INUR,"HJ34+P7W, Sungsum, Kec. Tebing Tinggi, Kabupaten Balangan, Kalimantan Selatan","Kabupaten Balangan, Kalimantan Selatan",KALIMANTAN SELATAN,,Indonesia,,,,-2.4458331,115.6056068,https://maps.google.com/?cid=0x0:0x1bccedb17a346c8f,
hardware store,Toko Bahan Bangunan,Tukang bataku,"GHQV+7J2, Auh, Kec. Tebing Tinggi, Kabupaten Balangan, Kalimantan Selatan 71664","Auh, Kec. Tebing Tinggi, Kabupaten Balangan",KALIMANTAN SELATAN,71664.0,Indonesia,,,,-2.461964,115.594105,https://maps.google.com/?cid=0x0:0x69dd6a03f7e9bf3,
hardware store,hardware store,Batu Hadangan,"HJ34+P7W, Sungsum, Kec. Tebing Tinggi, Kabupaten Balangan, Kalimantan Selatan","Kabupaten Balangan, Kalimantan Selatan",KALIMANTAN SELATAN,,Indonesia,,,,-2.4456375,115.6057031,https://maps.google.com/?cid=0x0:0x53ac1dc71cd6d6c6,
hardware store,Toko Bahan Bangunan,Decomart Sentra Bangunan,"Jl. Yos Sudarso No.191, Lalang, Kec. Rambutan, Kota Tebing Tinggi, Sumatera Utara 20998","Lalang, Kec. Rambutan, Kota Tebing Tinggi",KALIMANTAN SELATAN,20998.0,Indonesia,,,,3.3647942,99.1670581,https://maps.google.com/?cid=0x0:0x84ee41799c5bc72b,
hardware store,hardware store,Tebing Tinggi,"Kec. Tebing Tinggi Kota, Kota Tebing Tinggi, Sumatera Utara","Kota Tebing Tinggi, Sumatera Utara",KALIMANTAN SELATAN,,Indonesia,,,,3.3272531,99.161808,https://maps.google.com/?cid=0x0:0x63f26bfa4c863d20,
hardware store,Toko Bahan Bangunan,MR.DIY,"Ruko Imam Bonjol Jl. Imam Bonjol No.58, Tebing Tinggi Lama, Kec. Tebing Tinggi Kota, Kota Tebing Tinggi, Sumatera Utara 20998","Tebing Tinggi Lama, Kec. Tebing Tinggi Kota, Kota Tebing Tinggi",KALIMANTAN SELATAN,20998.0,Indonesia, 02130022789,,,3.3274186,99.1680279,https://maps.google.com/?cid=0x0:0xf6cb63e501da3a46,
hardware store,Toko Bahan Bangunan,Toko Jaya Profil,"Jl. Imam Bonjol No.40, Satria, Kec. Padang Hilir, Kota Tebing Tinggi, Sumatera Utara 20998","Satria, Kec. Padang Hilir, Kota Tebing Tinggi",KALIMANTAN SELATAN,20998.0,Indonesia, 08126361236,,,3.3301289,99.1690645,https://maps.google.com/?cid=0x0:0xa5361193351308e9,
hardware store,Toko Bahan Bangunan,Rahmad Jaya,"85J9+3QR, Jalan T Jl. Imam Bonjol, Satria, Padang Hilir, Tebing Tinggi City, North Sumatra 20998","Jalan T Jl. Imam Bonjol, Satria, Padang Hilir, Tebing Tinggi City",KALIMANTAN SELATAN,20998.0,Indonesia, 081361432935,,,3.330233,99.1693862,https://maps.google.com/?cid=0x0:0xa4fe5564c8802764,
hardware store,Toko Bahan Bangunan,Toko Bangunan Sinar Sakti,"Jl. Udang Kel No.2E, Badak Bejuang, Kec. Tebing Tinggi Kota, Kota Tebing Tinggi, Sumatera Utara 20615","Badak Bejuang, Kec. Tebing Tinggi Kota, Kota Tebing Tinggi",KALIMANTAN SELATAN,20615.0,Indonesia, 062122909,,,3.3311639,99.1616565,https://maps.google.com/?cid=0x0:0xfa1ecc796e163593,
hardware store,Toko Cat,"Samurai, Diton, Sapporo, Belkote, TOA, Propan, Paragon, Maritex, Avian, Asian Paint, Oxygen (Toko Sentra Bangunan)","Jl. Soekarno - Hatta, Tambangan, Kec. Padang Hilir, Kota Tebing Tinggi, Sumatera Utara 20998","Tambangan, Kec. Padang Hilir, Kota Tebing Tinggi",KALIMANTAN SELATAN,20998.0,Indonesia, 082370701885,,,3.3432417,99.1810722,https://maps.google.com/?cid=0x0:0x38c8dbfd33bcd6f,
hardware store,Toko Bahan Bangunan,TB. Imam Bonjol Jaya,"85J9+FQW, Jl. Imam Bonjol, Satria, Kec. Padang Hilir, Kota Tebing Tinggi, Sumatera Utara 20998","Jl. Imam Bonjol, Satria, Kec. Padang Hilir, Kota Tebing Tinggi",KALIMANTAN SELATAN,20998.0,Indonesia, 081918063548,,,3.3312258,99.1694644,https://maps.google.com/?cid=0x0:0xb66090e3ddf76d50,
hardware store,Toko Bahan Bangunan,Toko Bahan Bangunan Sejati,"Jl. Ir. H. Juanda No.66, Tj. Marulak, Kec. Rambutan, Kota Tebing Tinggi, Sumatera Utara 20998","Tj. Marulak, Kec. Rambutan, Kota Tebing Tinggi",KALIMANTAN SELATAN,20998.0,Indonesia,,,,3.3427619,99.1593724,https://maps.google.com/?cid=0x0:0x6270b0fd095e86f9,
hardware store,Toko Bahan Bangunan,TB Sejahtera,"Jl. Mayjen Sutoyo, Rambung, Kec. Tebing Tinggi Kota, Kota Tebing Tinggi, Sumatera Utara","Kota Tebing Tinggi, Sumatera Utara",KALIMANTAN SELATAN,,Indonesia, 085186004888,,,3.3240553,99.1668539,https://maps.google.com/?cid=0x0:0xcedd44104652e19a,
hardware store,Toko Bahan Bangunan,Megah Raya,"Jl. Letda Sujono, Tlk. Karang, Kec. Bajenis, Kota Tebing Tinggi, Sumatera Utara 20998","Tlk. Karang, Kec. Bajenis, Kota Tebing Tinggi",KALIMANTAN SELATAN,20998.0,Indonesia, 085122229599,,,3.3330703,99.1401428,https://maps.google.com/?cid=0x0:0xaa819f16354bdb12,
hardware store,Toko Bahan Bangunan,UD. Mitra Bangunan,"Ps. Gambir, Kec. Tebing Tinggi Kota, Kota Tebing Tinggi, Sumatera Utara 20631","Kec. Tebing Tinggi Kota, Kota Tebing Tinggi",KALIMANTAN SELATAN,20631.0,Indonesia, 085360335777,,,3.3216114,99.1588234,https://maps.google.com/?cid=0x0:0xa48316e6bb0af105,
hardware store,Toko Bahan Bangunan,Panglong Karya,"Jl. Imam Bonjol No.8, Satria, Kec. Padang Hilir, Kota Tebing Tinggi, Sumatera Utara 20998","Satria, Kec. Padang Hilir, Kota Tebing Tinggi",KALIMANTAN SELATAN,20998.0,Indonesia, 081396352475,,,3.33624,99.1710815,https://maps.google.com/?cid=0x0:0x40ffdfdb9cb9a321,
hardware store,Pemasok Bahan Bangunan,Toko Besi Gunung Raya,"84PH+867, Jl. Merpati, Pinang Mancung, Kec. Bajenis, Kota Tebing Tinggi, Sumatera Utara 20998","Jl. Merpati, Pinang Mancung, Kec. Bajenis, Kota Tebing Tinggi",KALIMANTAN SELATAN,20998.0,Indonesia, 081360233564,,,3.3357797,99.1280576,https://maps.google.com/?cid=0x0:0x764c45bde490ea9f,
hardware store,Toko Bahan Bangunan,Cv.TJA,"8564+6G7, jln.asrama kodim baglen, Persiakan, Kec. Tebing Tinggi, Kabupaten Serdang Bedagai, Sumatera Utara 20631","jln.asrama kodim baglen, Persiakan, Kec. Tebing Tinggi, Kabupaten Serdang Bedagai",KALIMANTAN SELATAN,20631.0,Indonesia, 085276550976,,,3.3105352,99.1563082,https://maps.google.com/?cid=0x0:0x11e2eb59c8b1ae77,
hardware store,Toko Bahan Bangunan,Toko Bangunan Bukit Raya,"Jl. Let. Jend. Suprapto No.73, Ps. Baru, Kec. Tebing Tinggi Kota, Kota Tebing Tinggi, Sumatera Utara 20998","Ps. Baru, Kec. Tebing Tinggi Kota, Kota Tebing Tinggi",KALIMANTAN SELATAN,20998.0,Indonesia, 085360842633,,,3.3288251,99.1600784,https://maps.google.com/?cid=0x0:0x10cb7562d9cf3d50,
hardware store,Toko Bahan Bangunan,Dian Panglong,"Jl. Letda Sujono No.162, Batu 5, Kec. Bajenis, Kota Tebing Tinggi, Sumatera Utara 20998","Batu 5, Kec. Bajenis, Kota Tebing Tinggi",KALIMANTAN SELATAN,20998.0,Indonesia, 081361132097,,,3.3316969,99.1282476,https://maps.google.com/?cid=0x0:0xd9ab26b6e4f24c08,
hardware store,Pemasok Bahan Bangunan,Toko Sentosa Jaya plafon,"JL Soekarno Hatta, No. 12, Tambangan Padang Hilir, Tambangan Hulu, Kec. Tebing Tinggi, Kota Tebing Tinggi, Sumatera Utara 20631","No. 12, Tambangan Padang Hilir, Tambangan Hulu, Kec. Tebing Tinggi, Kota Tebing Tinggi",KALIMANTAN SELATAN,20631.0,Indonesia, 085270273700,,,3.3409182,99.1729837,https://maps.google.com/?cid=0x0:0x5e9b619024eb4fa6,
hardware store,Toko Perlengkapan Rumah,Panglong Bintang jaya,"Jl. Setiabudi, Berohol, Kec. Bajenis, Kota Tebing Tinggi, Sumatera Utara 20998","Berohol, Kec. Bajenis, Kota Tebing Tinggi",KALIMANTAN SELATAN,20998.0,Indonesia, 08126545550,,,3.343813,99.1411641,https://maps.google.com/?cid=0x0:0x24df99ec77a7d951,
hardware store,Toko Bahan Bangunan,Metro 8 (Bahan Bangunan),"AH25, Paya Pasir, Kec. Tebing Syahbandar, Kabupaten Serdang Bedagai, Sumatera Utara 20998","Paya Pasir, Kec. Tebing Syahbandar, Kabupaten Serdang Bedagai",KALIMANTAN SELATAN,20998.0,Indonesia, 08116201912,,,3.3421609,99.204747,https://maps.google.com/?cid=0x0:0xfc7d511a0ac43295,
hardware store,Toko Bahan Bangunan,Toko bangunan INUR,"HJ34+P7W, Sungsum, Kec. Tebing Tinggi, Kabupaten Balangan, Kalimantan Selatan","Kabupaten Balangan, Kalimantan Selatan",KALIMANTAN SELATAN,,Indonesia,,,,-2.4458331,115.6056068,https://maps.google.com/?cid=0x0:0x1bccedb17a346c8f,
hardware store,Toko Bahan Bangunan,Tukang bataku,"GHQV+7J2, Auh, Kec. Tebing Tinggi, Kabupaten Balangan, Kalimantan Selatan 71664","Auh, Kec. Tebing Tinggi, Kabupaten Balangan",KALIMANTAN SELATAN,71664.0,Indonesia,,,,-2.461964,115.594105,https://maps.google.com/?cid=0x0:0x69dd6a03f7e9bf3,
hardware store,hardware store,Batu Hadangan,"HJ34+P7W, Sungsum, Kec. Tebing Tinggi, Kabupaten Balangan, Kalimantan Selatan","Kabupaten Balangan, Kalimantan Selatan",KALIMANTAN SELATAN,,Indonesia,,,,-2.4456375,115.6057031,https://maps.google.com/?cid=0x0:0x53ac1dc71cd6d6c6,
hardware store,Toko Bahan Bangunan,Toko Jaya Profil,"Jl. Imam Bonjol No.40, Satria, Kec. Padang Hilir, Kota Tebing Tinggi, Sumatera Utara 20998","Satria, Kec. Padang Hilir, Kota Tebing Tinggi",KALIMANTAN SELATAN,20998.0,Indonesia, 08126361236,,,3.3301289,99.1690645,https://maps.google.com/?cid=0x0:0xa5361193351308e9,
hardware store,Toko Bahan Bangunan,Decomart Sentra Bangunan,"Jl. Yos Sudarso No.191, Lalang, Kec. Rambutan, Kota Tebing Tinggi, Sumatera Utara 20998","Lalang, Kec. Rambutan, Kota Tebing Tinggi",KALIMANTAN SELATAN,20998.0,Indonesia,,,,3.3647942,99.1670581,https://maps.google.com/?cid=0x0:0x84ee41799c5bc72b,
hardware store,Toko Cat,"Samurai, Diton, Sapporo, Belkote, TOA, Propan, Paragon, Maritex, Avian, Asian Paint, Oxygen (Toko Sentra Bangunan)","Jl. Soekarno - Hatta, Tambangan, Kec. Padang Hilir, Kota Tebing Tinggi, Sumatera Utara 20998","Tambangan, Kec. Padang Hilir, Kota Tebing Tinggi",KALIMANTAN SELATAN,20998.0,Indonesia, 082370701885,,,3.3432417,99.1810722,https://maps.google.com/?cid=0x0:0x38c8dbfd33bcd6f,
hardware store,Toko Bahan Bangunan,DJ Build Mart - Plaza Bahan Bangunan Terlengkap di Tebing Tinggi,"Jl. Yos Sudarso No.191, Lalang, Kec. Rambutan, Kota Tebing Tinggi, Sumatera Utara 20998","Lalang, Kec. Rambutan, Kota Tebing Tinggi",KALIMANTAN SELATAN,20998.0,Indonesia, 081262383828,,,3.3632609,99.1672107,https://maps.google.com/?cid=0x0:0xa5ce48cce41bfac3,
hardware store,Toko Bahan Bangunan,Rahmad Jaya,"85J9+3QR, Jalan T Jl. Imam Bonjol, Satria, Padang Hilir, Tebing Tinggi City, North Sumatra 20998","Jalan T Jl. Imam Bonjol, Satria, Padang Hilir, Tebing Tinggi City",KALIMANTAN SELATAN,20998.0,Indonesia, 081361432935,,,3.330233,99.1693862,https://maps.google.com/?cid=0x0:0xa4fe5564c8802764,
hardware store,Toko Bahan Bangunan,TB. Imam Bonjol Jaya,"85J9+FQW, Jl. Imam Bonjol, Satria, Kec. Padang Hilir, Kota Tebing Tinggi, Sumatera Utara 20998","Jl. Imam Bonjol, Satria, Kec. Padang Hilir, Kota Tebing Tinggi",KALIMANTAN SELATAN,20998.0,Indonesia, 081918063548,,,3.3312258,99.1694644,https://maps.google.com/?cid=0x0:0xb66090e3ddf76d50,
hardware store,Komplek perumahan,Sri Meranti,"Jl. Sisingamangaraja No.17, Mandailing, Kec. Tebing Tinggi Kota, Kota Tebing Tinggi, Sumatera Utara 20611","Mandailing, Kec. Tebing Tinggi Kota, Kota Tebing Tinggi",KALIMANTAN SELATAN,20611.0,Indonesia, 06213950777,,,3.322023,99.152061,https://maps.google.com/?cid=0x0:0x9342bc1f439496b7,
hardware store,Toko Bahan Bangunan,Megah Raya,"Jl. Letda Sujono, Tlk. Karang, Kec. Bajenis, Kota Tebing Tinggi, Sumatera Utara 20998","Tlk. Karang, Kec. Bajenis, Kota Tebing Tinggi",KALIMANTAN SELATAN,20998.0,Indonesia, 085122229599,,,3.3330703,99.1401428,https://maps.google.com/?cid=0x0:0xaa819f16354bdb12,
hardware store,Toko Bahan Bangunan,Toko Bangunan Bukit Raya,"Jl. Let. Jend. Suprapto No.73, Ps. Baru, Kec. Tebing Tinggi Kota, Kota Tebing Tinggi, Sumatera Utara 20998","Ps. Baru, Kec. Tebing Tinggi Kota, Kota Tebing Tinggi",KALIMANTAN SELATAN,20998.0,Indonesia, 085360842633,,,3.3288251,99.1600784,https://maps.google.com/?cid=0x0:0x10cb7562d9cf3d50,
hardware store,Toko Bahan Bangunan,TB.Selamat Jaya,"Jl. Jend. Sudirman No.177, Badak Bejuang, Kec. Tebing Tinggi Kota, Kota Tebing Tinggi, Sumatera Utara 20998","Badak Bejuang, Kec. Tebing Tinggi Kota, Kota Tebing Tinggi",KALIMANTAN SELATAN,20998.0,Indonesia,,,,3.3308556,99.1599454,https://maps.google.com/?cid=0x0:0xae939a83db39794,
hardware store,Toko Bahan Bangunan,TB Sejahtera,"Jl. Mayjen Sutoyo, Rambung, Kec. Tebing Tinggi Kota, Kota Tebing Tinggi, Sumatera Utara","Kota Tebing Tinggi, Sumatera Utara",KALIMANTAN SELATAN,,Indonesia, 085186004888,,,3.3240553,99.1668539,https://maps.google.com/?cid=0x0:0xcedd44104652e19a,
hardware store,Toko Bahan Bangunan,Toko bangunan INUR,"HJ34+P7W, Sungsum, Kec. Tebing Tinggi, Kabupaten Balangan, Kalimantan Selatan","Kabupaten Balangan, Kalimantan Selatan",KALIMANTAN SELATAN,,Indonesia,,,,-2.4458331,115.6056068,https://maps.google.com/?cid=0x0:0x1bccedb17a346c8f,
hardware store,Toko Bahan Bangunan,Tukang bataku,"GHQV+7J2, Auh, Kec. Tebing Tinggi, Kabupaten Balangan, Kalimantan Selatan 71664","Auh, Kec. Tebing Tinggi, Kabupaten Balangan",KALIMANTAN SELATAN,71664.0,Indonesia,,,,-2.461964,115.594105,https://maps.google.com/?cid=0x0:0x69dd6a03f7e9bf3,
hardware store,Pemasok Bahan Bangunan,MEGA TRI,"C37M+233, Ps. Tebing Tinggi, Kec. Tebing Tinggi, Kabupaten Empat Lawang, Sumatera Selatan 31453","Ps. Tebing Tinggi, Kec. Tebing Tinggi, Kabupaten Empat Lawang",KALIMANTAN SELATAN,31453.0,Indonesia, 070221016,,,-3.5874817,103.0826775,https://maps.google.com/?cid=0x0:0x64b7b61bf2dfebde,
hardware store,hardware store,Batu Hadangan,"HJ34+P7W, Sungsum, Kec. Tebing Tinggi, Kabupaten Balangan, Kalimantan Selatan","Kabupaten Balangan, Kalimantan Selatan",KALIMANTAN SELATAN,,Indonesia,,,,-2.4456375,115.6057031,https://maps.google.com/?cid=0x0:0x53ac1dc71cd6d6c6,
hardware store,Toko Bahan Bangunan,Tukang bataku,"GHQV+7J2, Auh, Kec. Tebing Tinggi, Kabupaten Balangan, Kalimantan Selatan 71664","Auh, Kec. Tebing Tinggi, Kabupaten Balangan",KALIMANTAN SELATAN,71664.0,Indonesia,,,,-2.461964,115.594105,https://maps.google.com/?cid=0x0:0x69dd6a03f7e9bf3,
hardware store,hardware store,Batu Hadangan,"HJ34+P7W, Sungsum, Kec. Tebing Tinggi, Kabupaten Balangan, Kalimantan Selatan","Kabupaten Balangan, Kalimantan Selatan",KALIMANTAN SELATAN,,Indonesia,,,,-2.4456375,115.6057031,https://maps.google.com/?cid=0x0:0x53ac1dc71cd6d6c6,
hardware store,Toko Bahan Bangunan,Toko bangunan INUR,"HJ34+P7W, Sungsum, Kec. Tebing Tinggi, Kabupaten Balangan, Kalimantan Selatan","Kabupaten Balangan, Kalimantan Selatan",KALIMANTAN SELATAN,,Indonesia,,,,-2.4458331,115.6056068,https://maps.google.com/?cid=0x0:0x1bccedb17a346c8f,
hardware store,Toko Bahan Bangunan,Toko Jaya Profil,"Jl. Imam Bonjol No.40, Satria, Kec. Padang Hilir, Kota Tebing Tinggi, Sumatera Utara 20998","Satria, Kec. Padang Hilir, Kota Tebing Tinggi",KALIMANTAN SELATAN,20998.0,Indonesia, 08126361236,,,3.3301289,99.1690645,https://maps.google.com/?cid=0x0:0xa5361193351308e9,
hardware store,Toko Bahan Bangunan,DJ Build Mart - Plaza Bahan Bangunan Terlengkap di Tebing Tinggi,"Jl. Yos Sudarso No.191, Lalang, Kec. Rambutan, Kota Tebing Tinggi, Sumatera Utara 20998","Lalang, Kec. Rambutan, Kota Tebing Tinggi",KALIMANTAN SELATAN,20998.0,Indonesia, 081262383828,,,3.3632609,99.1672107,https://maps.google.com/?cid=0x0:0xa5ce48cce41bfac3,
hardware store,Toko Bahan Bangunan,Decomart Sentra Bangunan,"Jl. Yos Sudarso No.191, Lalang, Kec. Rambutan, Kota Tebing Tinggi, Sumatera Utara 20998","Lalang, Kec. Rambutan, Kota Tebing Tinggi",KALIMANTAN SELATAN,20998.0,Indonesia,,,,3.3647942,99.1670581,https://maps.google.com/?cid=0x0:0x84ee41799c5bc72b,
hardware store,Toko Cat,"Samurai, Diton, Sapporo, Belkote, TOA, Propan, Paragon, Maritex, Avian, Asian Paint, Oxygen (Toko Sentra Bangunan)","Jl. Soekarno - Hatta, Tambangan, Kec. Padang Hilir, Kota Tebing Tinggi, Sumatera Utara 20998","Tambangan, Kec. Padang Hilir, Kota Tebing Tinggi",KALIMANTAN SELATAN,20998.0,Indonesia, 082370701885,,,3.3432417,99.1810722,https://maps.google.com/?cid=0x0:0x38c8dbfd33bcd6f,
hardware store,Toko Bahan Bangunan,Toko Bahan Bangunan Sejati,"Jl. Ir. H. Juanda No.66, Tj. Marulak, Kec. Rambutan, Kota Tebing Tinggi, Sumatera Utara 20998","Tj. Marulak, Kec. Rambutan, Kota Tebing Tinggi",KALIMANTAN SELATAN,20998.0,Indonesia,,,,3.3427619,99.1593724,https://maps.google.com/?cid=0x0:0x6270b0fd095e86f9,
hardware store,Toko Bahan Bangunan,TB. Imam Bonjol Jaya,"85J9+FQW, Jl. Imam Bonjol, Satria, Kec. Padang Hilir, Kota Tebing Tinggi, Sumatera Utara 20998","Jl. Imam Bonjol, Satria, Kec. Padang Hilir, Kota Tebing Tinggi",KALIMANTAN SELATAN,20998.0,Indonesia, 081918063548,,,3.3312258,99.1694644,https://maps.google.com/?cid=0x0:0xb66090e3ddf76d50,
hardware store,Toko Bahan Bangunan,TB Sejahtera,"Jl. Mayjen Sutoyo, Rambung, Kec. Tebing Tinggi Kota, Kota Tebing Tinggi, Sumatera Utara","Kota Tebing Tinggi, Sumatera Utara",KALIMANTAN SELATAN,,Indonesia, 085186004888,,,3.3240553,99.1668539,https://maps.google.com/?cid=0x0:0xcedd44104652e19a,
hardware store,Toko Bahan Bangunan,Toko bangunan INUR,"HJ34+P7W, Sungsum, Kec. Tebing Tinggi, Kabupaten Balangan, Kalimantan Selatan","Kabupaten Balangan, Kalimantan Selatan",KALIMANTAN SELATAN,,Indonesia,,,,-2.4458331,115.6056068,https://maps.google.com/?cid=0x0:0x1bccedb17a346c8f,
hardware store,hardware store,Batu Hadangan,"HJ34+P7W, Sungsum, Kec. Tebing Tinggi, Kabupaten Balangan, Kalimantan Selatan","Kabupaten Balangan, Kalimantan Selatan",KALIMANTAN SELATAN,,Indonesia,,,,-2.4456375,115.6057031,https://maps.google.com/?cid=0x0:0x53ac1dc71cd6d6c6,
hardware store,Toko Bahan Bangunan,Tukang bataku,"GHQV+7J2, Auh, Kec. Tebing Tinggi, Kabupaten Balangan, Kalimantan Selatan 71664","Auh, Kec. Tebing Tinggi, Kabupaten Balangan",KALIMANTAN SELATAN,71664.0,Indonesia,,,,-2.461964,115.594105,https://maps.google.com/?cid=0x0:0x69dd6a03f7e9bf3,
hardware store,Toko Bahan Bangunan,Decomart Sentra Bangunan,"Jl. Yos Sudarso No.191, Lalang, Kec. Rambutan, Kota Tebing Tinggi, Sumatera Utara 20998","Lalang, Kec. Rambutan, Kota Tebing Tinggi",KALIMANTAN SELATAN,20998.0,Indonesia,,,,3.3647942,99.1670581,https://maps.google.com/?cid=0x0:0x84ee41799c5bc72b,
hardware store,Toko Bahan Bangunan,Hardware Clothing,"Rukan Gading Indah, Blok V9-12, RT.18/RW.8, Klp. Gading Bar., Kec. Klp. Gading, Jkt Utara, Daerah Khusus Ibukota Jakarta 12930","Blok V9-12, RT.18/RW.8, Klp. Gading Bar., Kec. Klp. Gading, Jkt Utara",KALIMANTAN SELATAN,12930.0,Indonesia, 02125539858,,,-6.149231,106.896942,https://maps.google.com/?cid=0x0:0x488fdb7f986cd389,
hardware store,Toko Bahan Bangunan,Toko Jaya Profil,"Jl. Imam Bonjol No.40, Satria, Kec. Padang Hilir, Kota Tebing Tinggi, Sumatera Utara 20998","Satria, Kec. Padang Hilir, Kota Tebing Tinggi",KALIMANTAN SELATAN,20998.0,Indonesia, 08126361236,,,3.3301289,99.1690645,https://maps.google.com/?cid=0x0:0xa5361193351308e9,
hardware store,Toko Cat,"Samurai, Diton, Sapporo, Belkote, TOA, Propan, Paragon, Maritex, Avian, Asian Paint, Oxygen (Toko Sentra Bangunan)","Jl. Soekarno - Hatta, Tambangan, Kec. Padang Hilir, Kota Tebing Tinggi, Sumatera Utara 20998","Tambangan, Kec. Padang Hilir, Kota Tebing Tinggi",KALIMANTAN SELATAN,20998.0,Indonesia, 082370701885,,,3.3432417,99.1810722,https://maps.google.com/?cid=0x0:0x38c8dbfd33bcd6f,
hardware store,Toko Bahan Bangunan,TB. Imam Bonjol Jaya,"85J9+FQW, Jl. Imam Bonjol, Satria, Kec. Padang Hilir, Kota Tebing Tinggi, Sumatera Utara 20998","Jl. Imam Bonjol, Satria, Kec. Padang Hilir, Kota Tebing Tinggi",KALIMANTAN SELATAN,20998.0,Indonesia, 081918063548,,,3.3312258,99.1694644,https://maps.google.com/?cid=0x0:0xb66090e3ddf76d50,
hardware store,Toko Bahan Bangunan,Rahmad Jaya,"85J9+3QR, Jalan T Jl. Imam Bonjol, Satria, Padang Hilir, Tebing Tinggi City, North Sumatra 20998","Jalan T Jl. Imam Bonjol, Satria, Padang Hilir, Tebing Tinggi City",KALIMANTAN SELATAN,20998.0,Indonesia, 081361432935,,,3.330233,99.1693862,https://maps.google.com/?cid=0x0:0xa4fe5564c8802764,
toko bangunan,toko bangunan,Kalimantan Selatan 71664,Kalimantan Selatan,Kalimantan Selatan,KALIMANTAN SELATAN,,Indonesia,,,,-2.4693999,115.6154732,https://maps.google.com/?cid=0x0:0xde090cef9f025bcd,
toko bangunan,Toko Bahan Bangunan,Toko Yafilia,"RT2 No.25, pasar, Awayan, Kec. Awayan, Kabupaten Balangan, Kalimantan Selatan 71664","pasar, Awayan, Kec. Awayan, Kabupaten Balangan",KALIMANTAN SELATAN,71664.0,Indonesia,,,,-2.4136147,115.5304166,https://maps.google.com/?cid=0x0:0x59e1b356a2f6b4e4,
toko bangunan,Toko Bahan Bangunan,Toko bangunan Yafilia (putat basiun),"HGPF+CXX, Butat Basuin, Kec. Awayan, Kabupaten Balangan, Kalimantan Selatan 71664","Butat Basuin, Kec. Awayan, Kabupaten Balangan",KALIMANTAN SELATAN,71664.0,Indonesia,,,,-2.4138889,115.5249729,https://maps.google.com/?cid=0x0:0xc3482bc5e4a2a5f9,
toko bangunan,Toko Bahan Bangunan,Toko Bahan Bangunan,"JGFG+9QX, Pudak, Kec. Awayan, Kabupaten Balangan, Kalimantan Selatan","Kabupaten Balangan, Kalimantan Selatan",KALIMANTAN SELATAN,,Indonesia,,,,-2.3765205,115.5269971,https://maps.google.com/?cid=0x0:0x129be8a49f7520cf,
toko bangunan,Toko Bahan Bangunan,TB.SAUKI (toko bangunan),"MF76+C7M, Bungin, Kec. Paringin Sel., Kabupaten Balangan, Kalimantan Selatan 71612","Bungin, Kec. Paringin Sel., Kabupaten Balangan",KALIMANTAN SELATAN,71612.0,Indonesia, 082354180604,,,-2.3364024,115.4606821,https://maps.google.com/?cid=0x0:0x8d8bcec3d9c93681,
toko bangunan,Toko Bahan Bangunan,TB.HJ LINDA (toko bangunan),"Jl. A. Yani No.2, RW.5, Batu Piring, Kec. Paringin Sel., Kabupaten Balangan, Kalimantan Selatan 71662","RW.5, Batu Piring, Kec. Paringin Sel., Kabupaten Balangan",KALIMANTAN SELATAN,71662.0,Indonesia,,,,-2.3504459,115.4688875,https://maps.google.com/?cid=0x0:0x7314e8bfd97c7d5e,
toko bangunan,Toko Bahan Bangunan,Toko lesmana2,"GFVF+5V8, Pelajau, Kec. Batu Mandi, Kabupaten Balangan, Kalimantan Selatan 71663","Pelajau, Kec. Batu Mandi, Kabupaten Balangan",KALIMANTAN SELATAN,71663.0,Indonesia,,,,-2.4570768,115.4746934,https://maps.google.com/?cid=0x0:0xbc749078023aef3a,
toko bangunan,Toko Bahan Bangunan,Toko ANITA,"JFH8+CFM, Jl. A. Yani, Gampa, Kec. Paringin Sel., Kabupaten Balangan, Kalimantan Selatan 71662","Jl. A. Yani, Gampa, Kec. Paringin Sel., Kabupaten Balangan",KALIMANTAN SELATAN,71662.0,Indonesia,,,,-2.3714236,115.4661729,https://maps.google.com/?cid=0x0:0x1b5a36b10fb30699,
toko bangunan,toko bangunan,Toko Bangunan Awayan,"MF55+WH2, Jl. A. Yani, Halubau Utara, Kec. Paringin Sel., Kabupaten Balangan, Kalimantan Selatan 71612","Jl. A. Yani, Halubau Utara, Kec. Paringin Sel., Kabupaten Balangan",KALIMANTAN SELATAN,71612.0,Indonesia,,,,-2.3402345,115.4588887,https://maps.google.com/?cid=0x0:0x4e7568b106ef5512,
toko bangunan,toko bangunan,Toko bangunan,"HGMM+MXP, Kedondong, Kec. Awayan, Kabupaten Balangan, Kalimantan Selatan 71664","Kedondong, Kec. Awayan, Kabupaten Balangan",KALIMANTAN SELATAN,71664.0,Indonesia,,,,-2.4157823,115.5349613,https://maps.google.com/?cid=0x0:0x88a6315c42aacb34,
toko bangunan,Toko Bahan Bangunan,Toko bangunan h udin,"MF75+QF2, Halubau Utara, Kec. Paringin Sel., Kabupaten Balangan, Kalimantan Selatan 71612","Halubau Utara, Kec. Paringin Sel., Kabupaten Balangan",KALIMANTAN SELATAN,71612.0,Indonesia,,,,-2.3356143,115.4586308,https://maps.google.com/?cid=0x0:0xabaa76dd9f17f45f,
toko bangunan,Toko Perlengkapan Rumah,TB.YADI H.UD (toko bangunan),"MF86+QV2, Bungin, Kec. Paringin Sel., Kabupaten Balangan, Kalimantan Selatan 71611","Bungin, Kec. Paringin Sel., Kabupaten Balangan",KALIMANTAN SELATAN,71611.0,Indonesia, 081349795576,,,-2.333103,115.4621343,https://maps.google.com/?cid=0x0:0xf17ef938c68636f0,
toko bangunan,Toko Bahan Bangunan,TB.ALFI (toko bangunan),"Paringin Kota, Kec. Paringin, Kabupaten Balangan, Kalimantan Selatan 71614","Kec. Paringin, Kabupaten Balangan",KALIMANTAN SELATAN,71614.0,Indonesia, 085393028054,,,-2.317992,115.466265,https://maps.google.com/?cid=0x0:0x5254d579177ffa63,
toko bangunan,Toko Bahan Bangunan,Toko Bangunan Mulia,"HCCF+PCH, Timbun Tulang, Kec. Batu Mandi, Kabupaten Balangan, Kalimantan Selatan 71663","Timbun Tulang, Kec. Batu Mandi, Kabupaten Balangan",KALIMANTAN SELATAN,71663.0,Indonesia,,,,-2.4281985,115.4236132,https://maps.google.com/?cid=0x0:0x36a6c23e6b27b767,
toko bangunan,Toko Bahan Bangunan,Ms Tk. Material Sejahtera,"MF64+R94, Halubau Utara, Kec. Paringin Sel., Kabupaten Balangan, Kalimantan Selatan 71613","Halubau Utara, Kec. Paringin Sel., Kabupaten Balangan",KALIMANTAN SELATAN,71613.0,Indonesia,,,,-2.337996,115.4559602,https://maps.google.com/?cid=0x0:0xfb36bfe56efd2185,
toko bangunan,Pemasok Bahan Bangunan,Toko alat bangunan Rahmat,"HC8C+73W, Jl. A. Yani, Batu Mandi, Kec. Batu Mandi, Kabupaten Balangan, Kalimantan Selatan 71663","Jl. A. Yani, Batu Mandi, Kec. Batu Mandi, Kabupaten Balangan",KALIMANTAN SELATAN,71663.0,Indonesia,,,,-2.4342553,115.420191,https://maps.google.com/?cid=0x0:0x21e54d522565834a,
toko bangunan,toko bangunan,Kec. Awayan,"Kabupaten Balangan, Kalimantan Selatan","Kabupaten Balangan, Kalimantan Selatan",KALIMANTAN SELATAN,,Indonesia,,,,-2.4131684,115.5291259,https://maps.google.com/?cid=0x0:0x383c814bc1fe5fe6,
toko bangunan,Toko Bahan Bangunan,Tukang bataku,"GHQV+7J2, Auh, Kec. Tebing Tinggi, Kabupaten Balangan, Kalimantan Selatan 71664","Auh, Kec. Tebing Tinggi, Kabupaten Balangan",KALIMANTAN SELATAN,71664.0,Indonesia,,,,-2.461964,115.594105,https://maps.google.com/?cid=0x0:0x69dd6a03f7e9bf3,
toko bangunan,toko bangunan,Toko pa.adur,"JHVJ+RJ2, Pamurus, Kec. Juai, Kabupaten Balangan, Kalimantan Selatan 71665","Pamurus, Kec. Juai, Kabupaten Balangan",KALIMANTAN SELATAN,71665.0,Indonesia,,,,-2.3561595,115.5813707,https://maps.google.com/?cid=0x0:0x7afe0a3a84f8a8e2,
toko bangunan,Toko Bahan Bangunan,Toko bangunan INUR,"HJ34+P7W, Sungsum, Kec. Tebing Tinggi, Kabupaten Balangan, Kalimantan Selatan","Kabupaten Balangan, Kalimantan Selatan",KALIMANTAN SELATAN,,Indonesia,,,,-2.4458331,115.6056068,https://maps.google.com/?cid=0x0:0x1bccedb17a346c8f,
toko bangunan,Toko Bahan Bangunan,TB. JUANDA,"JFCF+847, Mampari, Kec. Batu Mandi, Kabupaten Balangan, Kalimantan Selatan 71662","Mampari, Kec. Batu Mandi, Kabupaten Balangan",KALIMANTAN SELATAN,71662.0,Indonesia,,,,-2.379148,115.4727346,https://maps.google.com/?cid=0x0:0xf88df39d72fa28bf,
toko bangunan,Toko Bahan Bangunan,Kanchana aluminum works  Hardware,"Blk. D No.14, Lingsir, Kec. Paringin Sel., Kabupaten Balangan, Kalimantan Selatan","Kabupaten Balangan, Kalimantan Selatan",KALIMANTAN SELATAN,,Indonesia, 0778577783,,,-2.34323,115.457374,https://maps.google.com/?cid=0x0:0xd4aa0a4762dd8d12,
toko bangunan,Toko Bahan Bangunan,Tb. Anugerah,"JF42+86C, Jl. A. Yani, Mantimin, Kec. Batu Mandi, Kabupaten Balangan, Kalimantan Selatan 71663","Jl. A. Yani, Mantimin, Kec. Batu Mandi, Kabupaten Balangan",KALIMANTAN SELATAN,71663.0,Indonesia,,,,-2.3941973,115.4505234,https://maps.google.com/?cid=0x0:0xafce0b8c24e36d52,
toko bangunan,Toko Perlengkapan Rumah,ABAN BATAKO paringin timur,"MF89+98R, Unnamed Road, Bungin, Kec. Paringin Sel., Kabupaten Balangan, Kalimantan Selatan 71615","Unnamed Road, Bungin, Kec. Paringin Sel., Kabupaten Balangan",KALIMANTAN SELATAN,71615.0,Indonesia, 081253468617,,,-2.3340179,115.4682569,https://maps.google.com/?cid=0x0:0x9b48409ad4b00172,
toko bangunan,Toko Bahan Bangunan,Workshop 2 halpar group,"MC5X+6CX, Halubau, Kec. Paringin Sel., Kabupaten Balangan, Kalimantan Selatan 71613","Halubau, Kec. Paringin Sel., Kabupaten Balangan",KALIMANTAN SELATAN,71613.0,Indonesia, 085251383634,,,-2.3418978,115.44861,https://maps.google.com/?cid=0x0:0xc4181be70dedc8d6,
toko bangunan,toko bangunan,Wahyu Bayu PLAFON PVC dan GYPSUM,"MF88+4HJ, Bungin, Kec. Paringin Sel., Kabupaten Balangan, Kalimantan Selatan 71600","Bungin, Kec. Paringin Sel., Kabupaten Balangan",KALIMANTAN SELATAN,71600.0,Indonesia, 081351032750,,,-2.334669,115.4664115,https://maps.google.com/?cid=0x0:0xdc1bfd22d76a88d1,
toko bangunan,Toko Bahan Bangunan,Tb. Anugerah,"JF42+86C, Jl. A. Yani, Mantimin, Kec. Batu Mandi, Kabupaten Balangan, Kalimantan Selatan 71663","Jl. A. Yani, Mantimin, Kec. Batu Mandi, Kabupaten Balangan",KALIMANTAN SELATAN,71663.0,Indonesia,,,,-2.3941973,115.4505234,https://maps.google.com/?cid=0x0:0xafce0b8c24e36d52,
toko bangunan,toko bangunan,Batu Mandi,"Kec. Batu Mandi, Kabupaten Balangan, Kalimantan Selatan","Kabupaten Balangan, Kalimantan Selatan",KALIMANTAN SELATAN,,Indonesia,,,,-2.4106555,115.4141193,https://maps.google.com/?cid=0x0:0x6f0ce48d97cc3912,
toko bangunan,Toko Bahan Bangunan,Toko Bangunan Mulia,"HCCF+PCH, Timbun Tulang, Kec. Batu Mandi, Kabupaten Balangan, Kalimantan Selatan 71663","Timbun Tulang, Kec. Batu Mandi, Kabupaten Balangan",KALIMANTAN SELATAN,71663.0,Indonesia,,,,-2.4281985,115.4236132,https://maps.google.com/?cid=0x0:0x36a6c23e6b27b767,
toko bangunan,Toko Bahan Bangunan,Toko Lesmana 3,"HC69+456, Jl. A. Yani, Hamparaya, Kec. Batu Mandi, Kabupaten Balangan, Kalimantan Selatan 71663","Jl. A. Yani, Hamparaya, Kec. Batu Mandi, Kabupaten Balangan",KALIMANTAN SELATAN,71663.0,Indonesia,,,,-2.4397169,115.4178867,https://maps.google.com/?cid=0x0:0x3fc62be83937838f,
toko bangunan,Pemasok Bahan Bangunan,Toko alat bangunan Rahmat,"HC8C+73W, Jl. A. Yani, Batu Mandi, Kec. Batu Mandi, Kabupaten Balangan, Kalimantan Selatan 71663","Jl. A. Yani, Batu Mandi, Kec. Batu Mandi, Kabupaten Balangan",KALIMANTAN SELATAN,71663.0,Indonesia,,,,-2.4342553,115.420191,https://maps.google.com/?cid=0x0:0x21e54d522565834a,
toko bangunan,Toko Bahan Bangunan,Toko Bangunan Haikal,"PF6H+R8P, Lasung Batu, Kec. Paringin, Kabupaten Balangan, Kalimantan Selatan 71662","Lasung Batu, Kec. Paringin, Kabupaten Balangan",KALIMANTAN SELATAN,71662.0,Indonesia, 081649049436,,,-2.2879098,115.4783349,https://maps.google.com/?cid=0x0:0xdb1f248672aa4835,
toko bangunan,Toko Bahan Bangunan,P,"jalan, Mampari, Kec. Batu Mandi, Kabupaten Balangan, Kalimantan Selatan 71663","Mampari, Kec. Batu Mandi, Kabupaten Balangan",KALIMANTAN SELATAN,71663.0,Indonesia,,,,-2.388106,115.4464615,https://maps.google.com/?cid=0x0:0xae54bdd23b33eb58,
toko bangunan,Toko Bahan Bangunan,Toko lesmana2,"GFVF+5V8, Pelajau, Kec. Batu Mandi, Kabupaten Balangan, Kalimantan Selatan 71663","Pelajau, Kec. Batu Mandi, Kabupaten Balangan",KALIMANTAN SELATAN,71663.0,Indonesia,,,,-2.4570768,115.4746934,https://maps.google.com/?cid=0x0:0xbc749078023aef3a,
toko bangunan,toko bangunan,Ituy teknik,"HCRJ+VRR, Batu Mandi, Kec. Batu Mandi, Kabupaten Balangan, Kalimantan Selatan","Kabupaten Balangan, Kalimantan Selatan",KALIMANTAN SELATAN,,Indonesia,,,,-2.4077504,115.4320229,https://maps.google.com/?cid=0x0:0x805319e5f4cda392,
toko bangunan,toko bangunan,Kalimantan Selatan 71663,Kalimantan Selatan,Kalimantan Selatan,KALIMANTAN SELATAN,,Indonesia,,,,-2.4198707,115.4022706,https://maps.google.com/?cid=0x0:0x41176e2d43c2c021,
toko bangunan,Toko Bahan Bangunan,TB. JUANDA,"JFCF+847, Mampari, Kec. Batu Mandi, Kabupaten Balangan, Kalimantan Selatan 71662","Mampari, Kec. Batu Mandi, Kabupaten Balangan",KALIMANTAN SELATAN,71662.0,Indonesia,,,,-2.379148,115.4727346,https://maps.google.com/?cid=0x0:0xf88df39d72fa28bf,
toko bangunan,Toko Bahan Bangunan,Toko Bangunan Lesmana,"GCX7+PHW, Jl. A. Yani, Haur Gading, Kec. Batang Alai Utara, Kabupaten Hulu Sungai Tengah, Kalimantan Selatan 71663","Jl. A. Yani, Haur Gading, Kec. Batang Alai Utara, Kabupaten Hulu Sungai Tengah",KALIMANTAN SELATAN,71663.0,Indonesia,,,,-2.4506378,115.4139436,https://maps.google.com/?cid=0x0:0x5f8db236cdfc966f,
toko bangunan,Toko Bahan Bangunan,Tk Bangunan Berkah,"FCR4+RHH, Maringgit, Kec. Batang Alai Utara, Kabupaten Hulu Sungai Tengah, Kalimantan Selatan 71391","Maringgit, Kec. Batang Alai Utara, Kabupaten Hulu Sungai Tengah",KALIMANTAN SELATAN,71391.0,Indonesia, 085348331880,,,-2.5079391,115.4064755,https://maps.google.com/?cid=0x0:0x7545a5fb31ca1b62,
toko bangunan,Toko Bahan Bangunan,Toko ANITA,"JFH8+CFM, Jl. A. Yani, Gampa, Kec. Paringin Sel., Kabupaten Balangan, Kalimantan Selatan 71662","Jl. A. Yani, Gampa, Kec. Paringin Sel., Kabupaten Balangan",KALIMANTAN SELATAN,71662.0,Indonesia,,,,-2.3714236,115.4661729,https://maps.google.com/?cid=0x0:0x1b5a36b10fb30699,
toko bangunan,Toko Perlengkapan Rumah,Tb berkat mandiri birayang,"FFWH+WJ8, Karatungan, Kec. Limpasu, Kabupaten Hulu Sungai Tengah, Kalimantan Selatan 71391","Karatungan, Kec. Limpasu, Kabupaten Hulu Sungai Tengah",KALIMANTAN SELATAN,71391.0,Indonesia,,,,-2.5040733,115.4788433,https://maps.google.com/?cid=0x0:0xbf9ab98bab9ff83e,
toko bangunan,Toko Perlengkapan Rumah,Toko alat bangunan sudi bungkang.trimas.,"FCH2+JVM, JL.ULAMA, Ilung, Kec. Batang Alai Utara, Kabupaten Hulu Sungai Tengah, Kalimantan Selatan 71391","JL.ULAMA, Ilung, Kec. Batang Alai Utara, Kabupaten Hulu Sungai Tengah",KALIMANTAN SELATAN,71391.0,Indonesia, 081319997337,,,-2.5209169,115.4021704,https://maps.google.com/?cid=0x0:0xb0eed6f4bed79f55,
toko bangunan,Toko Bahan Bangunan,Toko Yafilia,"RT2 No.25, pasar, Awayan, Kec. Awayan, Kabupaten Balangan, Kalimantan Selatan 71664","pasar, Awayan, Kec. Awayan, Kabupaten Balangan",KALIMANTAN SELATAN,71664.0,Indonesia,,,,-2.4136147,115.5304166,https://maps.google.com/?cid=0x0:0x59e1b356a2f6b4e4,
toko bangunan,Toko Bahan Bangunan,TB.HJ LINDA (toko bangunan),"Jl. A. Yani No.2, RW.5, Batu Piring, Kec. Paringin Sel., Kabupaten Balangan, Kalimantan Selatan 71662","RW.5, Batu Piring, Kec. Paringin Sel., Kabupaten Balangan",KALIMANTAN SELATAN,71662.0,Indonesia,,,,-2.3504459,115.4688875,https://maps.google.com/?cid=0x0:0x7314e8bfd97c7d5e,
toko bangunan,Toko Perlengkapan Rumah,Toko Bangunan Husenan,"C9X5+C25, Banua Batung, Kec. Pandawan, Kabupaten Hulu Sungai Tengah, Kalimantan Selatan 71352","Banua Batung, Kec. Pandawan, Kabupaten Hulu Sungai Tengah",KALIMANTAN SELATAN,71352.0,Indonesia,,,,-2.5514914,115.357612,https://maps.google.com/?cid=0x0:0xc0fd38eecf20dfa,
toko bangunan,Toko Perlengkapan Rumah,Toko Bangunan UD. ULIS ILUNG,"FCW4+552, Muara Rintis, Kec. Batang Alai Utara, Kabupaten Hulu Sungai Tengah, Kalimantan Selatan 71391","Muara Rintis, Kec. Batang Alai Utara, Kabupaten Hulu Sungai Tengah",KALIMANTAN SELATAN,71391.0,Indonesia, 085248114944,,,-2.5046169,115.4053876,https://maps.google.com/?cid=0x0:0xbba0093ed766762,
toko bangunan,Minimarket,Pasar Batumandi,"HCFF+8M4, Tlk. Mesjid, Kec. Batu Mandi, Kabupaten Balangan, Kalimantan Selatan 71663","Tlk. Mesjid, Kec. Batu Mandi, Kabupaten Balangan",KALIMANTAN SELATAN,71663.0,Indonesia,,,,-2.4267432,115.4241953,https://maps.google.com/?cid=0x0:0x97828d33e37b19ad,
toko bangunan,Pusat Perbelanjaan,Toko aisyah,"FFFF+XQ6, Abung Surapati, Kec. Limpasu, Kabupaten Hulu Sungai Tengah, Kalimantan Selatan","Kabupaten Hulu Sungai Tengah, Kalimantan Selatan",KALIMANTAN SELATAN,,Indonesia, 085238105051,,,-2.5250808,115.4743904,https://maps.google.com/?cid=0x0:0x48fa9388812746fe,
toko bangunan,Toko Bahan Bangunan,Toko Bangunan Haikal,"PF6H+R8P, Lasung Batu, Kec. Paringin, Kabupaten Balangan, Kalimantan Selatan 71662","Lasung Batu, Kec. Paringin, Kabupaten Balangan",KALIMANTAN SELATAN,71662.0,Indonesia, 081649049436,,,-2.2879098,115.4783349,https://maps.google.com/?cid=0x0:0xdb1f248672aa4835,
toko bangunan,Toko Bahan Bangunan,TB.HJ LINDA (toko bangunan),"Jl. A. Yani No.2, RW.5, Batu Piring, Kec. Paringin Sel., Kabupaten Balangan, Kalimantan Selatan 71662","RW.5, Batu Piring, Kec. Paringin Sel., Kabupaten Balangan",KALIMANTAN SELATAN,71662.0,Indonesia,,,,-2.3504459,115.4688875,https://maps.google.com/?cid=0x0:0x7314e8bfd97c7d5e,
toko bangunan,Toko Bahan Bangunan,TB.SAUKI (toko bangunan),"MF76+C7M, Bungin, Kec. Paringin Sel., Kabupaten Balangan, Kalimantan Selatan 71612","Bungin, Kec. Paringin Sel., Kabupaten Balangan",KALIMANTAN SELATAN,71612.0,Indonesia, 082354180604,,,-2.3364024,115.4606821,https://maps.google.com/?cid=0x0:0x8d8bcec3d9c93681,
toko bangunan,Toko Bahan Bangunan,Toko bangunan h udin,"MF75+QF2, Halubau Utara, Kec. Paringin Sel., Kabupaten Balangan, Kalimantan Selatan 71612","Halubau Utara, Kec. Paringin Sel., Kabupaten Balangan",KALIMANTAN SELATAN,71612.0,Indonesia,,,,-2.3356143,115.4586308,https://maps.google.com/?cid=0x0:0xabaa76dd9f17f45f,
toko bangunan,Toko Bahan Bangunan,Ms Tk. Material Sejahtera,"MF64+R94, Halubau Utara, Kec. Paringin Sel., Kabupaten Balangan, Kalimantan Selatan 71613","Halubau Utara, Kec. Paringin Sel., Kabupaten Balangan",KALIMANTAN SELATAN,71613.0,Indonesia,,,,-2.337996,115.4559602,https://maps.google.com/?cid=0x0:0xfb36bfe56efd2185,
toko bangunan,Toko Bahan Bangunan,Toko Bangunan Mulia,"HCCF+PCH, Timbun Tulang, Kec. Batu Mandi, Kabupaten Balangan, Kalimantan Selatan 71663","Timbun Tulang, Kec. Batu Mandi, Kabupaten Balangan",KALIMANTAN SELATAN,71663.0,Indonesia,,,,-2.4281985,115.4236132,https://maps.google.com/?cid=0x0:0x36a6c23e6b27b767,
toko bangunan,Toko Bahan Bangunan,TB.ALFI (toko bangunan),"Paringin Kota, Kec. Paringin, Kabupaten Balangan, Kalimantan Selatan 71614","Kec. Paringin, Kabupaten Balangan",KALIMANTAN SELATAN,71614.0,Indonesia, 085393028054,,,-2.317992,115.466265,https://maps.google.com/?cid=0x0:0x5254d579177ffa63,
toko bangunan,Toko Bahan Bangunan,Toko Bangunan Hanora,"Jl. Ahmad Yani, Kupang, Belangamas, Kabupaten Tapin, Kalimantan Selatan 71113","Kupang, Belangamas, Kabupaten Tapin",KALIMANTAN SELATAN,71113.0,Indonesia, 08125554155,,,-2.9474769,115.1465224,https://maps.google.com/?cid=0x0:0x37378076141f165e,
toko bangunan,Toko Perlengkapan Rumah,Toko Bangunan,"Jl. A. Yani, Matang Ginalun, Kec. Pandawan, Kabupaten Hulu Sungai Tengah, Kalimantan Selatan 71352","Matang Ginalun, Kec. Pandawan, Kabupaten Hulu Sungai Tengah",KALIMANTAN SELATAN,71352.0,Indonesia, 081251331323,,,-2.5866557,115.3759065,https://maps.google.com/?cid=0x0:0xf79511cc081343d5,
toko bangunan,Toko Perlengkapan Rumah,Toko bangunan,"57V3+FGF, Jl. Bina Warga, Telaga Bidadari, Kec. Sungai Raya, Kabupaten Hulu Sungai Selatan, Kalimantan Selatan 71261","Jl. Bina Warga, Telaga Bidadari, Kec. Sungai Raya, Kabupaten Hulu Sungai Selatan",KALIMANTAN SELATAN,71261.0,Indonesia,,,,-2.8057734,115.2541953,https://maps.google.com/?cid=0x0:0xb9e8dd3c7d0dd41e,
toko bangunan,Toko umum,Toko Berkat Usaha Dua,"Jl. A. Yani, Batu Piring, Kec. Paringin Sel., Kabupaten Balangan, Kalimantan Selatan","Kabupaten Balangan, Kalimantan Selatan",KALIMANTAN SELATAN,,Indonesia, 081352634455,,,-2.3404148,115.4589352,https://maps.google.com/?cid=0x0:0x21642b3a2514f3f2,
toko bangunan,Toko Perlengkapan Rumah,TB.YADI H.UD (toko bangunan),"MF86+QV2, Bungin, Kec. Paringin Sel., Kabupaten Balangan, Kalimantan Selatan 71611","Bungin, Kec. Paringin Sel., Kabupaten Balangan",KALIMANTAN SELATAN,71611.0,Indonesia, 081349795576,,,-2.333103,115.4621343,https://maps.google.com/?cid=0x0:0xf17ef938c68636f0,
toko bangunan,Toko Perlengkapan Rumah,Toko Bangunan Naufal,"7725+2FW, Gambah Dalam Bar., Kec. Kandangan, Kabupaten Hulu Sungai Selatan, Kalimantan Selatan 71217","Gambah Dalam Bar., Kec. Kandangan, Kabupaten Hulu Sungai Selatan",KALIMANTAN SELATAN,71217.0,Indonesia,,,,-2.7498908,115.258712,https://maps.google.com/?cid=0x0:0xcc7fe07817bc5ba4,
toko bangunan,Toko Bahan Bangunan,TB.TAMAN HIJAU,"Batu Piring, Kec. Paringin Sel., Kabupaten Balangan, Kalimantan Selatan 71662","Kec. Paringin Sel., Kabupaten Balangan",KALIMANTAN SELATAN,71662.0,Indonesia, 085249703280,,,-2.35048,115.4688798,https://maps.google.com/?cid=0x0:0x24cf81103c235d3c,
toko bangunan,Kantor Perusahaan,TB. 3 SAUDARA,"PJRV+Q74, Jl. Datuk Kandang H., Binjai Punggal, Kec. Halong, Kabupaten Balangan, Kalimantan Selatan 71665","Jl. Datuk Kandang H., Binjai Punggal, Kec. Halong, Kabupaten Balangan",KALIMANTAN SELATAN,71665.0,Indonesia, 085249738651,,,-2.2582465,115.6433666,https://maps.google.com/?cid=0x0:0x84ec7eafc78b7a23,
toko bangunan,Toko Bahan Bangunan,TOKO ASWAJA,"57Q5+P8Q, Unnamed Road, Hamalau, Kec. Sungai Raya, Kabupaten Hulu Sungai Selatan, Kalimantan Selatan 71261","Unnamed Road, Hamalau, Kec. Sungai Raya, Kabupaten Hulu Sungai Selatan",KALIMANTAN SELATAN,71261.0,Indonesia,,,,-2.8106649,115.2583646,https://maps.google.com/?cid=0x0:0xe6b71a2e1c2a6ed7,
toko bangunan,Toko Bahan Bangunan,TOKO BANGUNAN ARI,"243J+H4P, Tambarangan, Kec. Tapin Sel., Kabupaten Tapin, Kalimantan Selatan 71161","Tambarangan, Kec. Tapin Sel., Kabupaten Tapin",KALIMANTAN SELATAN,71161.0,Indonesia, 081291637868,,,-2.9960384,115.1303257,https://maps.google.com/?cid=0x0:0x6984fada7e0d4fc8,
toko bangunan,Toko Bahan Bangunan,Toko Bangunan Lesmana,"GCX7+PHW, Jl. A. Yani, Haur Gading, Kec. Batang Alai Utara, Kabupaten Hulu Sungai Tengah, Kalimantan Selatan 71663","Jl. A. Yani, Haur Gading, Kec. Batang Alai Utara, Kabupaten Hulu Sungai Tengah",KALIMANTAN SELATAN,71663.0,Indonesia,,,,-2.4506378,115.4139436,https://maps.google.com/?cid=0x0:0x5f8db236cdfc966f,
toko bangunan,toko bangunan,Kalimantan Selatan 71666,"Kec. Halong, Kabupaten Balangan, Kalimantan Selatan","Kabupaten Balangan, Kalimantan Selatan",KALIMANTAN SELATAN,,Indonesia,,,,-2.1814492,115.7101789,https://maps.google.com/?cid=0x0:0x67e1657e047c87a3,
toko bangunan,Toko Bahan Bangunan,Toko Bangunan Ina,"673M+79G, Jambu Hilir, Kec. Kandangan, Kabupaten Hulu Sungai Selatan, Kalimantan Selatan 71211","Jambu Hilir, Kec. Kandangan, Kabupaten Hulu Sungai Selatan",KALIMANTAN SELATAN,71211.0,Indonesia, 087841417838,,,-2.7968061,115.2834616,https://maps.google.com/?cid=0x0:0x95de7f7299633166,
toko bangunan,toko bangunan,Toko 2 bersaudara,"PM69+QVG, Tabuan, Padang Raya, Kabupaten Balangan, Kalimantan Selatan","Kabupaten Balangan, Kalimantan Selatan",KALIMANTAN SELATAN,,Indonesia,,,,-2.2880301,115.6696928,https://maps.google.com/?cid=0x0:0x8331ae0cb8560117,
toko bangunan,Toko Bahan Bangunan,CV. TIGA SAUDARA,"QMC4+VGH, Karya, Kec. Halong, Kabupaten Balangan, Kalimantan Selatan 71666","Karya, Kec. Halong, Kabupaten Balangan",KALIMANTAN SELATAN,71666.0,Indonesia, 082152738445,,,-2.227815,115.6563477,https://maps.google.com/?cid=0x0:0x7d1725794ad1e2de,
toko bangunan,Toko Perlengkapan Rumah,Toko BERKAT Cabang Simpang 4 Wirang,"Jl. Tj. - Kuaro No.RT.03, Wirang, Kec. Haruai, Kabupaten Tabalong, Kalimantan Selatan 71572","Wirang, Kec. Haruai, Kabupaten Tabalong",KALIMANTAN SELATAN,71572.0,Indonesia, 081251343975,,,-2.0060857,115.5886842,https://maps.google.com/?cid=0x0:0x17fdd2b3e16ad47f,
toko bangunan,Toko Bahan Bangunan,Toko Bangunan Haikal,"PF6H+R8P, Lasung Batu, Kec. Paringin, Kabupaten Balangan, Kalimantan Selatan 71662","Lasung Batu, Kec. Paringin, Kabupaten Balangan",KALIMANTAN SELATAN,71662.0,Indonesia, 081649049436,,,-2.2879098,115.4783349,https://maps.google.com/?cid=0x0:0xdb1f248672aa4835,
toko bangunan,Toko Bahan Bangunan,Toko Yafilia,"RT2 No.25, pasar, Awayan, Kec. Awayan, Kabupaten Balangan, Kalimantan Selatan 71664","pasar, Awayan, Kec. Awayan, Kabupaten Balangan",KALIMANTAN SELATAN,71664.0,Indonesia,,,,-2.4136147,115.5304166,https://maps.google.com/?cid=0x0:0x59e1b356a2f6b4e4,
toko bangunan,Toko Bahan Bangunan,TB.SAUKI (toko bangunan),"MF76+C7M, Bungin, Kec. Paringin Sel., Kabupaten Balangan, Kalimantan Selatan 71612","Bungin, Kec. Paringin Sel., Kabupaten Balangan",KALIMANTAN SELATAN,71612.0,Indonesia, 082354180604,,,-2.3364024,115.4606821,https://maps.google.com/?cid=0x0:0x8d8bcec3d9c93681,
toko bangunan,Toko Bahan Bangunan,TB.HJ LINDA (toko bangunan),"Jl. A. Yani No.2, RW.5, Batu Piring, Kec. Paringin Sel., Kabupaten Balangan, Kalimantan Selatan 71662","RW.5, Batu Piring, Kec. Paringin Sel., Kabupaten Balangan",KALIMANTAN SELATAN,71662.0,Indonesia,,,,-2.3504459,115.4688875,https://maps.google.com/?cid=0x0:0x7314e8bfd97c7d5e,
toko bangunan,Toko Bahan Bangunan,Toko bangunan h udin,"MF75+QF2, Halubau Utara, Kec. Paringin Sel., Kabupaten Balangan, Kalimantan Selatan 71612","Halubau Utara, Kec. Paringin Sel., Kabupaten Balangan",KALIMANTAN SELATAN,71612.0,Indonesia,,,,-2.3356143,115.4586308,https://maps.google.com/?cid=0x0:0xabaa76dd9f17f45f,
toko bangunan,Toko Bahan Bangunan,TB.ALFI (toko bangunan),"Paringin Kota, Kec. Paringin, Kabupaten Balangan, Kalimantan Selatan 71614","Kec. Paringin, Kabupaten Balangan",KALIMANTAN SELATAN,71614.0,Indonesia, 085393028054,,,-2.317992,115.466265,https://maps.google.com/?cid=0x0:0x5254d579177ffa63,
toko bangunan,Toko Perlengkapan Rumah,Toko Bangunan Raihan,"WJWF+5C6, Belawang Kolam Kiri, Kec. Wanaraya, Kabupaten Barito Kuala, Kalimantan Selatan 70562","Belawang Kolam Kiri, Kec. Wanaraya, Kabupaten Barito Kuala",KALIMANTAN SELATAN,70562.0,Indonesia,,,,-3.0545899,114.6235237,https://maps.google.com/?cid=0x0:0x70f4408c22ee6645,
toko bangunan,toko bangunan,Toko pa.adur,"JHVJ+RJ2, Pamurus, Kec. Juai, Kabupaten Balangan, Kalimantan Selatan 71665","Pamurus, Kec. Juai, Kabupaten Balangan",KALIMANTAN SELATAN,71665.0,Indonesia,,,,-2.3561595,115.5813707,https://maps.google.com/?cid=0x0:0x7afe0a3a84f8a8e2,
toko bangunan,Toko Bahan Bangunan,Toko bangunan Yafilia (putat basiun),"HGPF+CXX, Butat Basuin, Kec. Awayan, Kabupaten Balangan, Kalimantan Selatan 71664","Butat Basuin, Kec. Awayan, Kabupaten Balangan",KALIMANTAN SELATAN,71664.0,Indonesia,,,,-2.4138889,115.5249729,https://maps.google.com/?cid=0x0:0xc3482bc5e4a2a5f9,
toko bangunan,Toko Bahan Bangunan,Toko Bangunan Mirhan,"9PW2+M3P, Benua Raya, Kec. Bati Bati, Kabupaten Tanah Laut, Kalimantan Selatan 70853","Benua Raya, Kec. Bati Bati, Kabupaten Tanah Laut",KALIMANTAN SELATAN,70853.0,Indonesia, 085349286410,,,-3.603285,114.7002082,https://maps.google.com/?cid=0x0:0x6776ac64e1127450,
toko bangunan,Toko Perlengkapan Rumah,Toko Bangunan,"Jl. A. Yani, Matang Ginalun, Kec. Pandawan, Kabupaten Hulu Sungai Tengah, Kalimantan Selatan 71352","Matang Ginalun, Kec. Pandawan, Kabupaten Hulu Sungai Tengah",KALIMANTAN SELATAN,71352.0,Indonesia, 081251331323,,,-2.5866557,115.3759065,https://maps.google.com/?cid=0x0:0xf79511cc081343d5,
toko bangunan,Toko Alat-Alat,Toko bangunan dan teknik setia pelamar,"sebamban 1 blok a,desa kab, Sari Mulya, Kec. Sungai Loban, Kabupaten Tanah Bumbu, Kalimantan Selatan 72274","Sari Mulya, Kec. Sungai Loban, Kabupaten Tanah Bumbu",KALIMANTAN SELATAN,72274.0,Indonesia,,,,-3.6491621,115.7549269,https://maps.google.com/?cid=0x0:0x713758100b49c042,
toko bangunan,Toko Bahan Bangunan,Toko Bangunan H.Misran,"2Q9C+W8X, Marabahan Kota, Kec. Marabahan, Kabupaten Barito Kuala, Kalimantan Selatan 70513","Marabahan Kota, Kec. Marabahan, Kabupaten Barito Kuala",KALIMANTAN SELATAN,70513.0,Indonesia,,,,-2.9801426,114.7708467,https://maps.google.com/?cid=0x0:0x620eb772bf5960c9,
toko bangunan,Toko Bahan Bangunan,Toko bangunan INUR,"HJ34+P7W, Sungsum, Kec. Tebing Tinggi, Kabupaten Balangan, Kalimantan Selatan","Kabupaten Balangan, Kalimantan Selatan",KALIMANTAN SELATAN,,Indonesia,,,,-2.4458331,115.6056068,https://maps.google.com/?cid=0x0:0x1bccedb17a346c8f,
toko bangunan,Toko Bahan Bangunan,YJ batako,"722H+HGH, Lingsir, Kec. Daha Sel., Kabupaten Balangan, Kalimantan Selatan","Kabupaten Balangan, Kalimantan Selatan",KALIMANTAN SELATAN,,Indonesia,,,,-2.7485725,115.02885,https://maps.google.com/?cid=0x0:0x964f910484042513,
toko bangunan,Toko Perlengkapan Rumah,TB.YADI H.UD (toko bangunan),"MF86+QV2, Bungin, Kec. Paringin Sel., Kabupaten Balangan, Kalimantan Selatan 71611","Bungin, Kec. Paringin Sel., Kabupaten Balangan",KALIMANTAN SELATAN,71611.0,Indonesia, 081349795576,,,-2.333103,115.4621343,https://maps.google.com/?cid=0x0:0xf17ef938c68636f0,
toko bangunan,Toko Bahan Bangunan,Toko Bahan Bangunan,"JGFG+9QX, Pudak, Kec. Awayan, Kabupaten Balangan, Kalimantan Selatan","Kabupaten Balangan, Kalimantan Selatan",KALIMANTAN SELATAN,,Indonesia,,,,-2.3765205,115.5269971,https://maps.google.com/?cid=0x0:0x129be8a49f7520cf,
toko bangunan,Toko Bahan Bangunan,Tb. Anugerah,"JF42+86C, Jl. A. Yani, Mantimin, Kec. Batu Mandi, Kabupaten Balangan, Kalimantan Selatan 71663","Jl. A. Yani, Mantimin, Kec. Batu Mandi, Kabupaten Balangan",KALIMANTAN SELATAN,71663.0,Indonesia,,,,-2.3941973,115.4505234,https://maps.google.com/?cid=0x0:0xafce0b8c24e36d52,
toko bangunan,Toko Bahan Bangunan,Toko Bangunan Apung,"9WWH+8J7, Ps. Baru, Kec. Kusan Hilir, Kabupaten Tanah Bumbu, Kalimantan Selatan 72273","Ps. Baru, Kec. Kusan Hilir, Kabupaten Tanah Bumbu",KALIMANTAN SELATAN,72273.0,Indonesia,,,,-3.6042013,115.92904,https://maps.google.com/?cid=0x0:0xf5b3d6b09ceb8686,
toko bangunan,Toko Bahan Bangunan,Toko lesmana2,"GFVF+5V8, Pelajau, Kec. Batu Mandi, Kabupaten Balangan, Kalimantan Selatan 71663","Pelajau, Kec. Batu Mandi, Kabupaten Balangan",KALIMANTAN SELATAN,71663.0,Indonesia,,,,-2.4570768,115.4746934,https://maps.google.com/?cid=0x0:0xbc749078023aef3a,
toko bangunan,Toko Bahan Bangunan,Toko Bangunan Hanora,"Jl. Ahmad Yani, Kupang, Belangamas, Kabupaten Tapin, Kalimantan Selatan 71113","Kupang, Belangamas, Kabupaten Tapin",KALIMANTAN SELATAN,71113.0,Indonesia, 08125554155,,,-2.9474769,115.1465224,https://maps.google.com/?cid=0x0:0x37378076141f165e,
toko bangunan,Toko Bahan Bangunan,Toko Bangunan Borneo Perkasa Jaya,"Handil Bakti, Kec. Alalak, Kabupaten Barito Kuala, Kalimantan Selatan 70582","Kec. Alalak, Kabupaten Barito Kuala",KALIMANTAN SELATAN,70582.0,Indonesia, 085161153252,,,-3.2615413,114.605714,https://maps.google.com/?cid=0x0:0xb2dc44693f0e23a1,
toko bangunan,Toko Bahan Bangunan,TOKO BANGUNAN ARI,"243J+H4P, Tambarangan, Kec. Tapin Sel., Kabupaten Tapin, Kalimantan Selatan 71161","Tambarangan, Kec. Tapin Sel., Kabupaten Tapin",KALIMANTAN SELATAN,71161.0,Indonesia, 081291637868,,,-2.9960384,115.1303257,https://maps.google.com/?cid=0x0:0x6984fada7e0d4fc8,
toko bangunan,Toko Bahan Bangunan,Tb. Joe Jaya,"Jl. Joe Klp. Tiga No.6-7 6, RT.6/RW.3, Lenteng Agung, Kec. Jagakarsa, Kota Jakarta Selatan, Daerah Khusus Ibukota Jakarta 12620","RT.6/RW.3, Lenteng Agung, Kec. Jagakarsa, Kota Jakarta Selatan",KALIMANTAN SELATAN,12620.0,Indonesia, 02178884507,,,-6.328605,106.8291409,https://maps.google.com/?cid=0x0:0x9f3a4a9a63c37269,
toko bangunan,Toko Bahan Bangunan,TB Guna Bangunan,"Jl. Gongseng Raya No.9, RT.7/RW.7, Cijantung, Kec. Ps. Rebo, Kota Jakarta Timur, Daerah Khusus Ibukota Jakarta 13770","RT.7/RW.7, Cijantung, Kec. Ps. Rebo, Kota Jakarta Timur",KALIMANTAN SELATAN,13770.0,Indonesia, 08129349191,,,-6.3259753,106.859547,https://maps.google.com/?cid=0x0:0x373ec0b4607952d2,
toko bangunan,Toko Bahan Bangunan,Toko jaya 99,"Jalan Angsana 1 No.21 10 no WA, RT.10/RW.5, Pejaten Timur, Ps. Minggu, Kota Jakarta Selatan, Daerah Khusus Ibukota Jakarta 12510","RT.10/RW.5, Pejaten Timur, Ps. Minggu, Kota Jakarta Selatan",KALIMANTAN SELATAN,12510.0,Indonesia, 081297099899,,,-6.2722841,106.8479864,https://maps.google.com/?cid=0x0:0xc4350d88bfb69ad3,
toko bangunan,Toko Bahan Bangunan,TB. Sinar Bangunan I,"Jl. Moh. Kahfi 1 No.13, RT.3/RW.4, Ciganjur, Kec. Jagakarsa, Kota Jakarta Selatan, Daerah Khusus Ibukota Jakarta 12620","RT.3/RW.4, Ciganjur, Kec. Jagakarsa, Kota Jakarta Selatan",KALIMANTAN SELATAN,12620.0,Indonesia, 02122708475,,,-6.3214296,106.8110129,https://maps.google.com/?cid=0x0:0x8132049fe7a07ac3,
toko bangunan,Toko Perlengkapan Rumah,TB Karya Maju,"Jl. Moch. Kahfi II No.31 5, RT.5/RW.4, Ciganjur, Kec. Jagakarsa, Kota Jakarta Selatan, Daerah Khusus Ibukota Jakarta 12630","RT.5/RW.4, Ciganjur, Kec. Jagakarsa, Kota Jakarta Selatan",KALIMANTAN SELATAN,12630.0,Indonesia, 087789539531,,,-6.3447729,106.8159027,https://maps.google.com/?cid=0x0:0x1bebfb9c2b3b6433,
toko bangunan,Toko Bahan Bangunan,TB. Jaya Bangunan,"Jl. Raya Jagakarsa No.168, RT.9/RW.5, Jagakarsa, Kec. Jagakarsa, Kota Jakarta Selatan, Daerah Khusus Ibukota Jakarta 12620","RT.9/RW.5, Jagakarsa, Kec. Jagakarsa, Kota Jakarta Selatan",KALIMANTAN SELATAN,12620.0,Indonesia, 0217864954,,,-6.3265147,106.8215831,https://maps.google.com/?cid=0x0:0x964dd4caacf3ac15,
toko bangunan,toko bangunan,Kalimantan Selatan 71661,"Kec. Lampihong, Kabupaten Balangan, Kalimantan Selatan","Kabupaten Balangan, Kalimantan Selatan",KALIMANTAN SELATAN,,Indonesia,,,,-2.3761607,115.3430203,https://maps.google.com/?cid=0x0:0xcd5508eff3edd85b,
toko bangunan,Toko Bahan Bangunan,Toko Bangunan Haikal,"PF6H+R8P, Lasung Batu, Kec. Paringin, Kabupaten Balangan, Kalimantan Selatan 71662","Lasung Batu, Kec. Paringin, Kabupaten Balangan",KALIMANTAN SELATAN,71662.0,Indonesia, 081649049436,,,-2.2879098,115.4783349,https://maps.google.com/?cid=0x0:0xdb1f248672aa4835,
toko bangunan,Toko Bahan Bangunan,TB.HJ LINDA (toko bangunan),"Jl. A. Yani No.2, RW.5, Batu Piring, Kec. Paringin Sel., Kabupaten Balangan, Kalimantan Selatan 71662","RW.5, Batu Piring, Kec. Paringin Sel., Kabupaten Balangan",KALIMANTAN SELATAN,71662.0,Indonesia,,,,-2.3504459,115.4688875,https://maps.google.com/?cid=0x0:0x7314e8bfd97c7d5e,
toko bangunan,Toko Bahan Bangunan,TB.SAUKI (toko bangunan),"MF76+C7M, Bungin, Kec. Paringin Sel., Kabupaten Balangan, Kalimantan Selatan 71612","Bungin, Kec. Paringin Sel., Kabupaten Balangan",KALIMANTAN SELATAN,71612.0,Indonesia, 082354180604,,,-2.3364024,115.4606821,https://maps.google.com/?cid=0x0:0x8d8bcec3d9c93681,
toko bangunan,Toko Bahan Bangunan,Toko Bangunan Syauqi,"J76Q+F7P, Jl. Amuntai - Kelua, Tlk. Daun, Kec. Amuntai Utara, Kabupaten Hulu Sungai Utara, Kalimantan Selatan 71471","Jl. Amuntai - Kelua, Tlk. Daun, Kec. Amuntai Utara, Kabupaten Hulu Sungai Utara",KALIMANTAN SELATAN,71471.0,Indonesia, 085251655065,,,-2.3887924,115.2882162,https://maps.google.com/?cid=0x0:0x62a4abed2463e5dc,
toko bangunan,Toko Bahan Bangunan,TB.ALFI (toko bangunan),"Paringin Kota, Kec. Paringin, Kabupaten Balangan, Kalimantan Selatan 71614","Kec. Paringin, Kabupaten Balangan",KALIMANTAN SELATAN,71614.0,Indonesia, 085393028054,,,-2.317992,115.466265,https://maps.google.com/?cid=0x0:0x5254d579177ffa63,
toko bangunan,Toko,Cv. Sinar Vision,"M95G+9RG, Jl. Sutera Ali Adul, Lok Panginangan, Kec. Lampihong, Kabupaten Balangan, Kalimantan Selatan 71661","Jl. Sutera Ali Adul, Lok Panginangan, Kec. Lampihong, Kabupaten Balangan",KALIMANTAN SELATAN,71661.0,Indonesia, 085248583108,,,-2.3415638,115.3770759,https://maps.google.com/?cid=0x0:0xe1a95ed7aa5f09aa,
toko bangunan,Toko Bahan Bangunan,Toko ANITA,"JFH8+CFM, Jl. A. Yani, Gampa, Kec. Paringin Sel., Kabupaten Balangan, Kalimantan Selatan 71662","Jl. A. Yani, Gampa, Kec. Paringin Sel., Kabupaten Balangan",KALIMANTAN SELATAN,71662.0,Indonesia,,,,-2.3714236,115.4661729,https://maps.google.com/?cid=0x0:0x1b5a36b10fb30699,
toko bangunan,Toko Bahan Bangunan,Toko bangunan h udin,"MF75+QF2, Halubau Utara, Kec. Paringin Sel., Kabupaten Balangan, Kalimantan Selatan 71612","Halubau Utara, Kec. Paringin Sel., Kabupaten Balangan",KALIMANTAN SELATAN,71612.0,Indonesia,,,,-2.3356143,115.4586308,https://maps.google.com/?cid=0x0:0xabaa76dd9f17f45f,
toko bangunan,Pemasok Bahan Bangunan,Toko alat bangunan Rahmat,"HC8C+73W, Jl. A. Yani, Batu Mandi, Kec. Batu Mandi, Kabupaten Balangan, Kalimantan Selatan 71663","Jl. A. Yani, Batu Mandi, Kec. Batu Mandi, Kabupaten Balangan",KALIMANTAN SELATAN,71663.0,Indonesia,,,,-2.4342553,115.420191,https://maps.google.com/?cid=0x0:0x21e54d522565834a,
toko bangunan,toko bangunan,Kec. Lampihong,"Kabupaten Balangan, Kalimantan Selatan","Kabupaten Balangan, Kalimantan Selatan",KALIMANTAN SELATAN,,Indonesia,,,,-2.3400922,115.376444,https://maps.google.com/?cid=0x0:0xd21d7f569305f006,
toko bangunan,Toko Bahan Bangunan,Toko Bangunan Dani,"Jl. Amuntai - Kelua, Pudak Setegal, Kec. Kelua, Kabupaten Tabalong, Kalimantan Selatan 71552","Pudak Setegal, Kec. Kelua, Kabupaten Tabalong",KALIMANTAN SELATAN,71552.0,Indonesia, 087721911145,,,-2.2813156,115.2966567,https://maps.google.com/?cid=0x0:0xbfb376d45ab2cc02,
toko bangunan,toko bangunan,Toko Raihan Najwa,"H8R3+FVQ, Kalintamui, Kec. Banjang, Kabupaten Hulu Sungai Utara, Kalimantan Selatan","Kabupaten Hulu Sungai Utara, Kalimantan Selatan",KALIMANTAN SELATAN,,Indonesia,,,,-2.4087926,115.3047474,https://maps.google.com/?cid=0x0:0x5d209bad46504cfe,
toko bangunan,toko bangunan,Katrina Shop,"H8R4+J43, Kalintamui, Kec. Banjang, Kabupaten Hulu Sungai Utara, Kalimantan Selatan","Kabupaten Hulu Sungai Utara, Kalimantan Selatan",KALIMANTAN SELATAN,,Indonesia,,,,-2.4084946,115.3052839,https://maps.google.com/?cid=0x0:0xc8bc7c49dbd2056d,
toko bangunan,Toko Bahan Bangunan,TB.ARIF (toko bangunan),"P7CX+VHJ, Pulau, Kec. Kelua, Kabupaten Tabalong, Kalimantan Selatan 71552","Pulau, Kec. Kelua, Kabupaten Tabalong",KALIMANTAN SELATAN,71552.0,Indonesia,,,,-2.2777763,115.2989029,https://maps.google.com/?cid=0x0:0x7e79ebb9645cead2,
toko bangunan,Toko Bahan Bangunan,Ms Tk. Material Sejahtera,"MF64+R94, Halubau Utara, Kec. Paringin Sel., Kabupaten Balangan, Kalimantan Selatan 71613","Halubau Utara, Kec. Paringin Sel., Kabupaten Balangan",KALIMANTAN SELATAN,71613.0,Indonesia,,,,-2.337996,115.4559602,https://maps.google.com/?cid=0x0:0xfb36bfe56efd2185,
toko bangunan,Toko Bahan Bangunan,Toko Bangunan Mulia,"HCCF+PCH, Timbun Tulang, Kec. Batu Mandi, Kabupaten Balangan, Kalimantan Selatan 71663","Timbun Tulang, Kec. Batu Mandi, Kabupaten Balangan",KALIMANTAN SELATAN,71663.0,Indonesia,,,,-2.4281985,115.4236132,https://maps.google.com/?cid=0x0:0x36a6c23e6b27b767,
toko bangunan,Toko Perlengkapan Rumah,TB.YADI H.UD (toko bangunan),"MF86+QV2, Bungin, Kec. Paringin Sel., Kabupaten Balangan, Kalimantan Selatan 71611","Bungin, Kec. Paringin Sel., Kabupaten Balangan",KALIMANTAN SELATAN,71611.0,Indonesia, 081349795576,,,-2.333103,115.4621343,https://maps.google.com/?cid=0x0:0xf17ef938c68636f0,
toko bangunan,Toko Bahan Bangunan,Toko Sumber Rezki,"J79W+JP4, Tlk. Daun, Kec. Amuntai Utara, Kabupaten Hulu Sungai Utara, Kalimantan Selatan 71471","Tlk. Daun, Kec. Amuntai Utara, Kabupaten Hulu Sungai Utara",KALIMANTAN SELATAN,71471.0,Indonesia, 081945423273,,,-2.380978,115.296836,https://maps.google.com/?cid=0x0:0x9cad35e96b368c9a,
toko bangunan,toko bangunan,Tb berkat sabar amuntai,"J86H+4GQ, Tanah Habang Kanan, Kec. Lampihong, Kabupaten Balangan, Kalimantan Selatan 71661","Tanah Habang Kanan, Kec. Lampihong, Kabupaten Balangan",KALIMANTAN SELATAN,71661.0,Indonesia,,,,-2.3897337,115.3281008,https://maps.google.com/?cid=0x0:0x259a0d7c007ebf85,
toko bangunan,toko bangunan,Kalimantan Selatan 71614,"Kec. Paringin, Kabupaten Balangan, Kalimantan Selatan","Kabupaten Balangan, Kalimantan Selatan",KALIMANTAN SELATAN,,Indonesia,,,,-2.3177773,115.4644708,https://maps.google.com/?cid=0x0:0x761e498857a54f05,
toko bangunan,Toko Bahan Bangunan,TB.ALFI (toko bangunan),"Paringin Kota, Kec. Paringin, Kabupaten Balangan, Kalimantan Selatan 71614","Kec. Paringin, Kabupaten Balangan",KALIMANTAN SELATAN,71614.0,Indonesia, 085393028054,,,-2.317992,115.466265,https://maps.google.com/?cid=0x0:0x5254d579177ffa63,
toko bangunan,Toko Bahan Bangunan,TB.HJ LINDA (toko bangunan),"Jl. A. Yani No.2, RW.5, Batu Piring, Kec. Paringin Sel., Kabupaten Balangan, Kalimantan Selatan 71662","RW.5, Batu Piring, Kec. Paringin Sel., Kabupaten Balangan",KALIMANTAN SELATAN,71662.0,Indonesia,,,,-2.3504459,115.4688875,https://maps.google.com/?cid=0x0:0x7314e8bfd97c7d5e,
toko bangunan,Toko Bahan Bangunan,TB.SAUKI (toko bangunan),"MF76+C7M, Bungin, Kec. Paringin Sel., Kabupaten Balangan, Kalimantan Selatan 71612","Bungin, Kec. Paringin Sel., Kabupaten Balangan",KALIMANTAN SELATAN,71612.0,Indonesia, 082354180604,,,-2.3364024,115.4606821,https://maps.google.com/?cid=0x0:0x8d8bcec3d9c93681,
toko bangunan,Toko Bahan Bangunan,Toko Bangunan Haikal,"PF6H+R8P, Lasung Batu, Kec. Paringin, Kabupaten Balangan, Kalimantan Selatan 71662","Lasung Batu, Kec. Paringin, Kabupaten Balangan",KALIMANTAN SELATAN,71662.0,Indonesia, 081649049436,,,-2.2879098,115.4783349,https://maps.google.com/?cid=0x0:0xdb1f248672aa4835,
toko bangunan,Jasa Konstruksi dan Bangunan,Plapon pvc,"MFF9+HF, Paringin Kota, Kec. Paringin, Kabupaten Balangan, Kalimantan Selatan","Kabupaten Balangan, Kalimantan Selatan",KALIMANTAN SELATAN,,Indonesia,,,,-2.326069,115.4686428,https://maps.google.com/?cid=0x0:0x375fcc1e77176150,
toko bangunan,Toko Bahan Bangunan,Toko ANITA,"JFH8+CFM, Jl. A. Yani, Gampa, Kec. Paringin Sel., Kabupaten Balangan, Kalimantan Selatan 71662","Jl. A. Yani, Gampa, Kec. Paringin Sel., Kabupaten Balangan",KALIMANTAN SELATAN,71662.0,Indonesia,,,,-2.3714236,115.4661729,https://maps.google.com/?cid=0x0:0x1b5a36b10fb30699,
toko bangunan,Toko Perlengkapan Rumah,TB.YADI H.UD (toko bangunan),"MF86+QV2, Bungin, Kec. Paringin Sel., Kabupaten Balangan, Kalimantan Selatan 71611","Bungin, Kec. Paringin Sel., Kabupaten Balangan",KALIMANTAN SELATAN,71611.0,Indonesia, 081349795576,,,-2.333103,115.4621343,https://maps.google.com/?cid=0x0:0xf17ef938c68636f0,
toko bangunan,Toko Bahan Bangunan,TB. Rizky Bersama,"Jl. A. Yani, RT.03/RW.No. 180, Dahai, Kec. Paringin, Kabupaten Balangan, Kalimantan Selatan 71662","RT.03/RW.No. 180, Dahai, Kec. Paringin, Kabupaten Balangan",KALIMANTAN SELATAN,71662.0,Indonesia, 085190042639,,,-2.2646082,115.4776887,https://maps.google.com/?cid=0x0:0x15feb98d02dfcece,
toko bangunan,Toko Bahan Bangunan,TB.SUMBER REJEKI,"MF76+F65, Halubau Utara, Kec. Paringin Sel., Kabupaten Balangan, Kalimantan Selatan 71612","Halubau Utara, Kec. Paringin Sel., Kabupaten Balangan",KALIMANTAN SELATAN,71612.0,Indonesia, 081351822834,,,-2.3363593,115.460602,https://maps.google.com/?cid=0x0:0xcc50db93097060c1,
toko bangunan,Toko Perlengkapan Rumah,ABAN BATAKO paringin timur,"MF89+98R, Unnamed Road, Bungin, Kec. Paringin Sel., Kabupaten Balangan, Kalimantan Selatan 71615","Unnamed Road, Bungin, Kec. Paringin Sel., Kabupaten Balangan",KALIMANTAN SELATAN,71615.0,Indonesia, 081253468617,,,-2.3340179,115.4682569,https://maps.google.com/?cid=0x0:0x9b48409ad4b00172,
toko bangunan,Toko Bahan Bangunan,PRG INTERIOR 2 BY CV ALFATH SETIA JAYA,"Jl. A. Yani, batu piring, Kec. Paringin Sel., Kabupaten Balangan, Kalimantan Selatan 71662","batu piring, Kec. Paringin Sel., Kabupaten Balangan",KALIMANTAN SELATAN,71662.0,Indonesia, 082256899949,,,-2.3379936,115.4578827,https://maps.google.com/?cid=0x0:0x94c77ba965c94bcd,
toko bangunan,Toko Bahan Bangunan,Ms Tk. Material Sejahtera,"MF64+R94, Halubau Utara, Kec. Paringin Sel., Kabupaten Balangan, Kalimantan Selatan 71613","Halubau Utara, Kec. Paringin Sel., Kabupaten Balangan",KALIMANTAN SELATAN,71613.0,Indonesia,,,,-2.337996,115.4559602,https://maps.google.com/?cid=0x0:0xfb36bfe56efd2185,
toko bangunan,Toko Bahan Bangunan,Toko Berkat Anugerah,"MFC7+753, Jl. A. Yani, Layap, Kec. Paringin, Kabupaten Balangan, Kalimantan Selatan 71611","Jl. A. Yani, Layap, Kec. Paringin, Kabupaten Balangan",KALIMANTAN SELATAN,71611.0,Indonesia,,,,-2.3293564,115.4629124,https://maps.google.com/?cid=0x0:0x8683c9085cd71716,
toko bangunan,Toko Bahan Bangunan,Wantilan Haji Madi,"MFH8+J46, Jl. A. Yani, haur batu, Kec. Paringin Sel., Kabupaten Balangan, Kalimantan Selatan 71611","Jl. A. Yani, haur batu, Kec. Paringin Sel., Kabupaten Balangan",KALIMANTAN SELATAN,71611.0,Indonesia,,,,-2.320835,115.4653324,https://maps.google.com/?cid=0x0:0xf685513c1a11a5ae,
toko bangunan,toko bangunan,Wahyu Bayu PLAFON PVC dan GYPSUM,"MF88+4HJ, Bungin, Kec. Paringin Sel., Kabupaten Balangan, Kalimantan Selatan 71600","Bungin, Kec. Paringin Sel., Kabupaten Balangan",KALIMANTAN SELATAN,71600.0,Indonesia, 081351032750,,,-2.334669,115.4664115,https://maps.google.com/?cid=0x0:0xdc1bfd22d76a88d1,
toko bangunan,Toko Bahan Bangunan,UD.M.JUNIARDI,"MF86+QV2, Bungin, Kec. Paringin Sel., Kabupaten Balangan, Kalimantan Selatan 71611","Bungin, Kec. Paringin Sel., Kabupaten Balangan",KALIMANTAN SELATAN,71611.0,Indonesia, 081349795576,,,-2.3331008,115.462145,https://maps.google.com/?cid=0x0:0x7760f35d30417cc5,
toko bangunan,Toko umum,Toko Berkat Usaha Dua,"Jl. A. Yani, Batu Piring, Kec. Paringin Sel., Kabupaten Balangan, Kalimantan Selatan","Kabupaten Balangan, Kalimantan Selatan",KALIMANTAN SELATAN,,Indonesia, 081352634455,,,-2.3404148,115.4589352,https://maps.google.com/?cid=0x0:0x21642b3a2514f3f2,
toko bangunan,Toko Bahan Bangunan,TB Berkat Usaha Dua,"Seberang Masjid Assaadah, Batu Piring, Kec. Paringin Sel., Kabupaten Balangan, Kalimantan Selatan 76122","Batu Piring, Kec. Paringin Sel., Kabupaten Balangan",KALIMANTAN SELATAN,76122.0,Indonesia, 081352634455,,,-2.3403433,115.4588625,https://maps.google.com/?cid=0x0:0x157450c18ce117ad,
toko bangunan,Toko Bahan Bangunan,TB.TAMAN HIJAU,"Batu Piring, Kec. Paringin Sel., Kabupaten Balangan, Kalimantan Selatan 71662","Kec. Paringin Sel., Kabupaten Balangan",KALIMANTAN SELATAN,71662.0,Indonesia, 085249703280,,,-2.35048,115.4688798,https://maps.google.com/?cid=0x0:0x24cf81103c235d3c,
toko bangunan,toko bangunan,Kalimantan Selatan 71616,"Batu Piring, Kec. Paringin Sel., Kabupaten Balangan, Kalimantan Selatan","Kabupaten Balangan, Kalimantan Selatan",KALIMANTAN SELATAN,,Indonesia,,,,-2.344415,115.4763169,https://maps.google.com/?cid=0x0:0xd46c446c8be01cd3,
toko bangunan,Toko Bahan Bangunan,TB.HJ LINDA (toko bangunan),"Jl. A. Yani No.2, RW.5, Batu Piring, Kec. Paringin Sel., Kabupaten Balangan, Kalimantan Selatan 71662","RW.5, Batu Piring, Kec. Paringin Sel., Kabupaten Balangan",KALIMANTAN SELATAN,71662.0,Indonesia,,,,-2.3504459,115.4688875,https://maps.google.com/?cid=0x0:0x7314e8bfd97c7d5e,
toko bangunan,Toko Bahan Bangunan,TB.ALFI (toko bangunan),"Paringin Kota, Kec. Paringin, Kabupaten Balangan, Kalimantan Selatan 71614","Kec. Paringin, Kabupaten Balangan",KALIMANTAN SELATAN,71614.0,Indonesia, 085393028054,,,-2.317992,115.466265,https://maps.google.com/?cid=0x0:0x5254d579177ffa63,
toko bangunan,Toko Bahan Bangunan,Toko bangunan h udin,"MF75+QF2, Halubau Utara, Kec. Paringin Sel., Kabupaten Balangan, Kalimantan Selatan 71612","Halubau Utara, Kec. Paringin Sel., Kabupaten Balangan",KALIMANTAN SELATAN,71612.0,Indonesia,,,,-2.3356143,115.4586308,https://maps.google.com/?cid=0x0:0xabaa76dd9f17f45f,
toko bangunan,Toko Bahan Bangunan,TB.SAUKI (toko bangunan),"MF76+C7M, Bungin, Kec. Paringin Sel., Kabupaten Balangan, Kalimantan Selatan 71612","Bungin, Kec. Paringin Sel., Kabupaten Balangan",KALIMANTAN SELATAN,71612.0,Indonesia, 082354180604,,,-2.3364024,115.4606821,https://maps.google.com/?cid=0x0:0x8d8bcec3d9c93681,
toko bangunan,Toko Perlengkapan Rumah,TB.YADI H.UD (toko bangunan),"MF86+QV2, Bungin, Kec. Paringin Sel., Kabupaten Balangan, Kalimantan Selatan 71611","Bungin, Kec. Paringin Sel., Kabupaten Balangan",KALIMANTAN SELATAN,71611.0,Indonesia, 081349795576,,,-2.333103,115.4621343,https://maps.google.com/?cid=0x0:0xf17ef938c68636f0,
toko bangunan,Toko Bahan Bangunan,Toko ANITA,"JFH8+CFM, Jl. A. Yani, Gampa, Kec. Paringin Sel., Kabupaten Balangan, Kalimantan Selatan 71662","Jl. A. Yani, Gampa, Kec. Paringin Sel., Kabupaten Balangan",KALIMANTAN SELATAN,71662.0,Indonesia,,,,-2.3714236,115.4661729,https://maps.google.com/?cid=0x0:0x1b5a36b10fb30699,
toko bangunan,Jasa Konstruksi dan Bangunan,Plapon pvc,"MFF9+HF, Paringin Kota, Kec. Paringin, Kabupaten Balangan, Kalimantan Selatan","Kabupaten Balangan, Kalimantan Selatan",KALIMANTAN SELATAN,,Indonesia,,,,-2.326069,115.4686428,https://maps.google.com/?cid=0x0:0x375fcc1e77176150,
toko bangunan,Toko Bahan Bangunan,TB. Rizky Bersama,"Jl. A. Yani, RT.03/RW.No. 180, Dahai, Kec. Paringin, Kabupaten Balangan, Kalimantan Selatan 71662","RT.03/RW.No. 180, Dahai, Kec. Paringin, Kabupaten Balangan",KALIMANTAN SELATAN,71662.0,Indonesia, 085190042639,,,-2.2646082,115.4776887,https://maps.google.com/?cid=0x0:0x15feb98d02dfcece,
toko bangunan,Toko Bahan Bangunan,Ms Tk. Material Sejahtera,"MF64+R94, Halubau Utara, Kec. Paringin Sel., Kabupaten Balangan, Kalimantan Selatan 71613","Halubau Utara, Kec. Paringin Sel., Kabupaten Balangan",KALIMANTAN SELATAN,71613.0,Indonesia,,,,-2.337996,115.4559602,https://maps.google.com/?cid=0x0:0xfb36bfe56efd2185,
toko bangunan,Toko Bahan Bangunan,TB.SUMBER REJEKI,"MF76+F65, Halubau Utara, Kec. Paringin Sel., Kabupaten Balangan, Kalimantan Selatan 71612","Halubau Utara, Kec. Paringin Sel., Kabupaten Balangan",KALIMANTAN SELATAN,71612.0,Indonesia, 081351822834,,,-2.3363593,115.460602,https://maps.google.com/?cid=0x0:0xcc50db93097060c1,
toko bangunan,Toko Perlengkapan Rumah,ABAN BATAKO paringin timur,"MF89+98R, Unnamed Road, Bungin, Kec. Paringin Sel., Kabupaten Balangan, Kalimantan Selatan 71615","Unnamed Road, Bungin, Kec. Paringin Sel., Kabupaten Balangan",KALIMANTAN SELATAN,71615.0,Indonesia, 081253468617,,,-2.3340179,115.4682569,https://maps.google.com/?cid=0x0:0x9b48409ad4b00172,
toko bangunan,toko bangunan,Wahyu Bayu PLAFON PVC dan GYPSUM,"MF88+4HJ, Bungin, Kec. Paringin Sel., Kabupaten Balangan, Kalimantan Selatan 71600","Bungin, Kec. Paringin Sel., Kabupaten Balangan",KALIMANTAN SELATAN,71600.0,Indonesia, 081351032750,,,-2.334669,115.4664115,https://maps.google.com/?cid=0x0:0xdc1bfd22d76a88d1,
toko bangunan,Toko Bahan Bangunan,TB.TAMAN HIJAU,"Batu Piring, Kec. Paringin Sel., Kabupaten Balangan, Kalimantan Selatan 71662","Kec. Paringin Sel., Kabupaten Balangan",KALIMANTAN SELATAN,71662.0,Indonesia, 085249703280,,,-2.35048,115.4688798,https://maps.google.com/?cid=0x0:0x24cf81103c235d3c,
toko bangunan,Toko Bahan Bangunan,Wantilan Haji Madi,"MFH8+J46, Jl. A. Yani, haur batu, Kec. Paringin Sel., Kabupaten Balangan, Kalimantan Selatan 71611","Jl. A. Yani, haur batu, Kec. Paringin Sel., Kabupaten Balangan",KALIMANTAN SELATAN,71611.0,Indonesia,,,,-2.320835,115.4653324,https://maps.google.com/?cid=0x0:0xf685513c1a11a5ae,
toko bangunan,Toko umum,Toko Berkat Usaha Dua,"Jl. A. Yani, Batu Piring, Kec. Paringin Sel., Kabupaten Balangan, Kalimantan Selatan","Kabupaten Balangan, Kalimantan Selatan",KALIMANTAN SELATAN,,Indonesia, 081352634455,,,-2.3404148,115.4589352,https://maps.google.com/?cid=0x0:0x21642b3a2514f3f2,
toko bangunan,Toko Bahan Bangunan,TB Berkat Usaha Dua,"Seberang Masjid Assaadah, Batu Piring, Kec. Paringin Sel., Kabupaten Balangan, Kalimantan Selatan 76122","Batu Piring, Kec. Paringin Sel., Kabupaten Balangan",KALIMANTAN SELATAN,76122.0,Indonesia, 081352634455,,,-2.3403433,115.4588625,https://maps.google.com/?cid=0x0:0x157450c18ce117ad,
toko bangunan,Toko Bahan Bangunan,UD.M.JUNIARDI,"MF86+QV2, Bungin, Kec. Paringin Sel., Kabupaten Balangan, Kalimantan Selatan 71611","Bungin, Kec. Paringin Sel., Kabupaten Balangan",KALIMANTAN SELATAN,71611.0,Indonesia, 081349795576,,,-2.3331008,115.462145,https://maps.google.com/?cid=0x0:0x7760f35d30417cc5,
toko bangunan,Bengkel Logam,Bengkel Las RISQUNA,"Batu Piring, Kec. Paringin Sel., Kabupaten Balangan, Kalimantan Selatan 71662","Kec. Paringin Sel., Kabupaten Balangan",KALIMANTAN SELATAN,71662.0,Indonesia, 085350063111,,,-2.3512864,115.4764363,https://maps.google.com/?cid=0x0:0x189762f72705ec0d,
toko bangunan,Toko Bahan Bangunan,Toko Yafilia,"RT2 No.25, pasar, Awayan, Kec. Awayan, Kabupaten Balangan, Kalimantan Selatan 71664","pasar, Awayan, Kec. Awayan, Kabupaten Balangan",KALIMANTAN SELATAN,71664.0,Indonesia,,,,-2.4136147,115.5304166,https://maps.google.com/?cid=0x0:0x59e1b356a2f6b4e4,
toko bangunan,Toko Bahan Bangunan,Toko Berkat Anugerah,"MFC7+753, Jl. A. Yani, Layap, Kec. Paringin, Kabupaten Balangan, Kalimantan Selatan 71611","Jl. A. Yani, Layap, Kec. Paringin, Kabupaten Balangan",KALIMANTAN SELATAN,71611.0,Indonesia,,,,-2.3293564,115.4629124,https://maps.google.com/?cid=0x0:0x8683c9085cd71716,
toko bangunan,Toko Bahan Bangunan,YJ batako,"JFW7+HQ5, Lingsir, Kec. Paringin Sel., Kabupaten Balangan, Kalimantan Selatan","Kabupaten Balangan, Kalimantan Selatan",KALIMANTAN SELATAN,,Indonesia,,,,-2.3536056,115.4644708,https://maps.google.com/?cid=0x0:0xcf2d195e08f6534c,
toko bangunan,toko bangunan,Kalimantan Selatan 71662,"Kabupaten Balangan, Kalimantan Selatan","Kabupaten Balangan, Kalimantan Selatan",KALIMANTAN SELATAN,,Indonesia,,,,-2.3012625,115.5088914,https://maps.google.com/?cid=0x0:0xb7382a61ae82526e,
toko bangunan,Toko Bahan Bangunan,Toko Bangunan Haikal,"PF6H+R8P, Lasung Batu, Kec. Paringin, Kabupaten Balangan, Kalimantan Selatan 71662","Lasung Batu, Kec. Paringin, Kabupaten Balangan",KALIMANTAN SELATAN,71662.0,Indonesia, 081649049436,,,-2.2879098,115.4783349,https://maps.google.com/?cid=0x0:0xdb1f248672aa4835,
toko bangunan,Toko Bahan Bangunan,TB.HJ LINDA (toko bangunan),"Jl. A. Yani No.2, RW.5, Batu Piring, Kec. Paringin Sel., Kabupaten Balangan, Kalimantan Selatan 71662","RW.5, Batu Piring, Kec. Paringin Sel., Kabupaten Balangan",KALIMANTAN SELATAN,71662.0,Indonesia,,,,-2.3504459,115.4688875,https://maps.google.com/?cid=0x0:0x7314e8bfd97c7d5e,
toko bangunan,Toko Bahan Bangunan,TB.SAUKI (toko bangunan),"MF76+C7M, Bungin, Kec. Paringin Sel., Kabupaten Balangan, Kalimantan Selatan 71612","Bungin, Kec. Paringin Sel., Kabupaten Balangan",KALIMANTAN SELATAN,71612.0,Indonesia, 082354180604,,,-2.3364024,115.4606821,https://maps.google.com/?cid=0x0:0x8d8bcec3d9c93681,
toko bangunan,Toko Bahan Bangunan,TB.ALFI (toko bangunan),"Paringin Kota, Kec. Paringin, Kabupaten Balangan, Kalimantan Selatan 71614","Kec. Paringin, Kabupaten Balangan",KALIMANTAN SELATAN,71614.0,Indonesia, 085393028054,,,-2.317992,115.466265,https://maps.google.com/?cid=0x0:0x5254d579177ffa63,
toko bangunan,Toko Bahan Bangunan,TB. Rizky Bersama,"Jl. A. Yani, RT.03/RW.No. 180, Dahai, Kec. Paringin, Kabupaten Balangan, Kalimantan Selatan 71662","RT.03/RW.No. 180, Dahai, Kec. Paringin, Kabupaten Balangan",KALIMANTAN SELATAN,71662.0,Indonesia, 085190042639,,,-2.2646082,115.4776887,https://maps.google.com/?cid=0x0:0x15feb98d02dfcece,
toko bangunan,Toko Bahan Bangunan,Toko bangunan h udin,"MF75+QF2, Halubau Utara, Kec. Paringin Sel., Kabupaten Balangan, Kalimantan Selatan 71612","Halubau Utara, Kec. Paringin Sel., Kabupaten Balangan",KALIMANTAN SELATAN,71612.0,Indonesia,,,,-2.3356143,115.4586308,https://maps.google.com/?cid=0x0:0xabaa76dd9f17f45f,
toko bangunan,Toko Bahan Bangunan,Workshop 2 halpar group,"MC5X+6CX, Halubau, Kec. Paringin Sel., Kabupaten Balangan, Kalimantan Selatan 71613","Halubau, Kec. Paringin Sel., Kabupaten Balangan",KALIMANTAN SELATAN,71613.0,Indonesia, 085251383634,,,-2.3418978,115.44861,https://maps.google.com/?cid=0x0:0xc4181be70dedc8d6,
toko bangunan,Toko Perlengkapan Rumah,TB.YADI H.UD (toko bangunan),"MF86+QV2, Bungin, Kec. Paringin Sel., Kabupaten Balangan, Kalimantan Selatan 71611","Bungin, Kec. Paringin Sel., Kabupaten Balangan",KALIMANTAN SELATAN,71611.0,Indonesia, 081349795576,,,-2.333103,115.4621343,https://maps.google.com/?cid=0x0:0xf17ef938c68636f0,
toko bangunan,Toko Bahan Bangunan,PRG INTERIOR 2 BY CV ALFATH SETIA JAYA,"Jl. A. Yani, batu piring, Kec. Paringin Sel., Kabupaten Balangan, Kalimantan Selatan 71662","batu piring, Kec. Paringin Sel., Kabupaten Balangan",KALIMANTAN SELATAN,71662.0,Indonesia, 082256899949,,,-2.3379936,115.4578827,https://maps.google.com/?cid=0x0:0x94c77ba965c94bcd,
toko bangunan,Toko Perlengkapan Rumah,ABAN BATAKO paringin timur,"MF89+98R, Unnamed Road, Bungin, Kec. Paringin Sel., Kabupaten Balangan, Kalimantan Selatan 71615","Unnamed Road, Bungin, Kec. Paringin Sel., Kabupaten Balangan",KALIMANTAN SELATAN,71615.0,Indonesia, 081253468617,,,-2.3340179,115.4682569,https://maps.google.com/?cid=0x0:0x9b48409ad4b00172,
toko bangunan,Toko Bahan Bangunan,TB.TAMAN HIJAU,"Batu Piring, Kec. Paringin Sel., Kabupaten Balangan, Kalimantan Selatan 71662","Kec. Paringin Sel., Kabupaten Balangan",KALIMANTAN SELATAN,71662.0,Indonesia, 085249703280,,,-2.35048,115.4688798,https://maps.google.com/?cid=0x0:0x24cf81103c235d3c,
toko bangunan,Toko Bahan Bangunan,UD.M.JUNIARDI,"MF86+QV2, Bungin, Kec. Paringin Sel., Kabupaten Balangan, Kalimantan Selatan 71611","Bungin, Kec. Paringin Sel., Kabupaten Balangan",KALIMANTAN SELATAN,71611.0,Indonesia, 081349795576,,,-2.3331008,115.462145,https://maps.google.com/?cid=0x0:0x7760f35d30417cc5,
toko bangunan,Toko Bahan Bangunan,Ms Tk. Material Sejahtera,"MF64+R94, Halubau Utara, Kec. Paringin Sel., Kabupaten Balangan, Kalimantan Selatan 71613","Halubau Utara, Kec. Paringin Sel., Kabupaten Balangan",KALIMANTAN SELATAN,71613.0,Indonesia,,,,-2.337996,115.4559602,https://maps.google.com/?cid=0x0:0xfb36bfe56efd2185,
toko bangunan,Toko Bahan Bangunan,Wantilan Haji Madi,"MFH8+J46, Jl. A. Yani, haur batu, Kec. Paringin Sel., Kabupaten Balangan, Kalimantan Selatan 71611","Jl. A. Yani, haur batu, Kec. Paringin Sel., Kabupaten Balangan",KALIMANTAN SELATAN,71611.0,Indonesia,,,,-2.320835,115.4653324,https://maps.google.com/?cid=0x0:0xf685513c1a11a5ae,
toko bangunan,Toko Bahan Bangunan,TB Berkat Usaha Dua,"Seberang Masjid Assaadah, Batu Piring, Kec. Paringin Sel., Kabupaten Balangan, Kalimantan Selatan 76122","Batu Piring, Kec. Paringin Sel., Kabupaten Balangan",KALIMANTAN SELATAN,76122.0,Indonesia, 081352634455,,,-2.3403433,115.4588625,https://maps.google.com/?cid=0x0:0x157450c18ce117ad,
toko bangunan,Toko Bahan Bangunan,Tb. Anugerah,"JF42+86C, Jl. A. Yani, Mantimin, Kec. Batu Mandi, Kabupaten Balangan, Kalimantan Selatan 71663","Jl. A. Yani, Mantimin, Kec. Batu Mandi, Kabupaten Balangan",KALIMANTAN SELATAN,71663.0,Indonesia,,,,-2.3941973,115.4505234,https://maps.google.com/?cid=0x0:0xafce0b8c24e36d52,
toko bangunan,Toko Bahan Bangunan,TB.SUMBER REJEKI,"MF76+F65, Halubau Utara, Kec. Paringin Sel., Kabupaten Balangan, Kalimantan Selatan 71612","Halubau Utara, Kec. Paringin Sel., Kabupaten Balangan",KALIMANTAN SELATAN,71612.0,Indonesia, 081351822834,,,-2.3363593,115.460602,https://maps.google.com/?cid=0x0:0xcc50db93097060c1,
toko bangunan,Toko umum,Toko Berkat Usaha Dua,"Jl. A. Yani, Batu Piring, Kec. Paringin Sel., Kabupaten Balangan, Kalimantan Selatan","Kabupaten Balangan, Kalimantan Selatan",KALIMANTAN SELATAN,,Indonesia, 081352634455,,,-2.3404148,115.4589352,https://maps.google.com/?cid=0x0:0x21642b3a2514f3f2,
toko bangunan,Toko Bahan Bangunan,Kanchana aluminum works  Hardware,"Blk. D No.14, Lingsir, Kec. Paringin Sel., Kabupaten Balangan, Kalimantan Selatan","Kabupaten Balangan, Kalimantan Selatan",KALIMANTAN SELATAN,,Indonesia, 0778577783,,,-2.34323,115.457374,https://maps.google.com/?cid=0x0:0xd4aa0a4762dd8d12,
toko bangunan,Jasa Konstruksi dan Bangunan,Plapon pvc,"MFF9+HF, Paringin Kota, Kec. Paringin, Kabupaten Balangan, Kalimantan Selatan","Kabupaten Balangan, Kalimantan Selatan",KALIMANTAN SELATAN,,Indonesia,,,,-2.326069,115.4686428,https://maps.google.com/?cid=0x0:0x375fcc1e77176150,
toko bangunan,Toko Bahan Bangunan,TB. HALPAR,"Halubau, Kec. Paringin Sel., Kabupaten Balangan, Kalimantan Selatan","Kabupaten Balangan, Kalimantan Selatan",KALIMANTAN SELATAN,,Indonesia, 085251383634,,,-2.3388966,115.452544,https://maps.google.com/?cid=0x0:0x677930b7fe362b2d,
toko bangunan,toko bangunan,Kalimantan Selatan 71617,"Halubau, Kec. Paringin Sel., Kabupaten Balangan, Kalimantan Selatan","Kabupaten Balangan, Kalimantan Selatan",KALIMANTAN SELATAN,,Indonesia,,,,-2.3493563,115.4526241,https://maps.google.com/?cid=0x0:0xf932e7e492a1671c,
toko bangunan,Toko Bahan Bangunan,TB.HJ LINDA (toko bangunan),"Jl. A. Yani No.2, RW.5, Batu Piring, Kec. Paringin Sel., Kabupaten Balangan, Kalimantan Selatan 71662","RW.5, Batu Piring, Kec. Paringin Sel., Kabupaten Balangan",KALIMANTAN SELATAN,71662.0,Indonesia,,,,-2.3504459,115.4688875,https://maps.google.com/?cid=0x0:0x7314e8bfd97c7d5e,
toko bangunan,Toko Bahan Bangunan,Toko bangunan h udin,"MF75+QF2, Halubau Utara, Kec. Paringin Sel., Kabupaten Balangan, Kalimantan Selatan 71612","Halubau Utara, Kec. Paringin Sel., Kabupaten Balangan",KALIMANTAN SELATAN,71612.0,Indonesia,,,,-2.3356143,115.4586308,https://maps.google.com/?cid=0x0:0xabaa76dd9f17f45f,
toko bangunan,Toko Bahan Bangunan,Toko Bangunan Haikal,"PF6H+R8P, Lasung Batu, Kec. Paringin, Kabupaten Balangan, Kalimantan Selatan 71662","Lasung Batu, Kec. Paringin, Kabupaten Balangan",KALIMANTAN SELATAN,71662.0,Indonesia, 081649049436,,,-2.2879098,115.4783349,https://maps.google.com/?cid=0x0:0xdb1f248672aa4835,
toko bangunan,Toko Bahan Bangunan,TB.ALFI (toko bangunan),"Paringin Kota, Kec. Paringin, Kabupaten Balangan, Kalimantan Selatan 71614","Kec. Paringin, Kabupaten Balangan",KALIMANTAN SELATAN,71614.0,Indonesia, 085393028054,,,-2.317992,115.466265,https://maps.google.com/?cid=0x0:0x5254d579177ffa63,
toko bangunan,Toko Bahan Bangunan,Workshop 2 halpar group,"MC5X+6CX, Halubau, Kec. Paringin Sel., Kabupaten Balangan, Kalimantan Selatan 71613","Halubau, Kec. Paringin Sel., Kabupaten Balangan",KALIMANTAN SELATAN,71613.0,Indonesia, 085251383634,,,-2.3418978,115.44861,https://maps.google.com/?cid=0x0:0xc4181be70dedc8d6,
toko bangunan,Toko Perlengkapan Rumah,TB.YADI H.UD (toko bangunan),"MF86+QV2, Bungin, Kec. Paringin Sel., Kabupaten Balangan, Kalimantan Selatan 71611","Bungin, Kec. Paringin Sel., Kabupaten Balangan",KALIMANTAN SELATAN,71611.0,Indonesia, 081349795576,,,-2.333103,115.4621343,https://maps.google.com/?cid=0x0:0xf17ef938c68636f0,
toko bangunan,Toko Bahan Bangunan,Toko ANITA,"JFH8+CFM, Jl. A. Yani, Gampa, Kec. Paringin Sel., Kabupaten Balangan, Kalimantan Selatan 71662","Jl. A. Yani, Gampa, Kec. Paringin Sel., Kabupaten Balangan",KALIMANTAN SELATAN,71662.0,Indonesia,,,,-2.3714236,115.4661729,https://maps.google.com/?cid=0x0:0x1b5a36b10fb30699,
toko bangunan,Toko Bahan Bangunan,Ms Tk. Material Sejahtera,"MF64+R94, Halubau Utara, Kec. Paringin Sel., Kabupaten Balangan, Kalimantan Selatan 71613","Halubau Utara, Kec. Paringin Sel., Kabupaten Balangan",KALIMANTAN SELATAN,71613.0,Indonesia,,,,-2.337996,115.4559602,https://maps.google.com/?cid=0x0:0xfb36bfe56efd2185,
toko bangunan,Toko Bahan Bangunan,PRG INTERIOR 2 BY CV ALFATH SETIA JAYA,"Jl. A. Yani, batu piring, Kec. Paringin Sel., Kabupaten Balangan, Kalimantan Selatan 71662","batu piring, Kec. Paringin Sel., Kabupaten Balangan",KALIMANTAN SELATAN,71662.0,Indonesia, 082256899949,,,-2.3379936,115.4578827,https://maps.google.com/?cid=0x0:0x94c77ba965c94bcd,
toko bangunan,Toko Bahan Bangunan,TB.SUMBER REJEKI,"MF76+F65, Halubau Utara, Kec. Paringin Sel., Kabupaten Balangan, Kalimantan Selatan 71612","Halubau Utara, Kec. Paringin Sel., Kabupaten Balangan",KALIMANTAN SELATAN,71612.0,Indonesia, 081351822834,,,-2.3363593,115.460602,https://maps.google.com/?cid=0x0:0xcc50db93097060c1,
toko bangunan,Toko Bahan Bangunan,Kanchana aluminum works  Hardware,"Blk. D No.14, Lingsir, Kec. Paringin Sel., Kabupaten Balangan, Kalimantan Selatan","Kabupaten Balangan, Kalimantan Selatan",KALIMANTAN SELATAN,,Indonesia, 0778577783,,,-2.34323,115.457374,https://maps.google.com/?cid=0x0:0xd4aa0a4762dd8d12,
toko bangunan,Toko Bahan Bangunan,TB.TAMAN HIJAU,"Batu Piring, Kec. Paringin Sel., Kabupaten Balangan, Kalimantan Selatan 71662","Kec. Paringin Sel., Kabupaten Balangan",KALIMANTAN SELATAN,71662.0,Indonesia, 085249703280,,,-2.35048,115.4688798,https://maps.google.com/?cid=0x0:0x24cf81103c235d3c,
toko bangunan,Toko Bahan Bangunan,TB. Rizky Bersama,"Jl. A. Yani, RT.03/RW.No. 180, Dahai, Kec. Paringin, Kabupaten Balangan, Kalimantan Selatan 71662","RT.03/RW.No. 180, Dahai, Kec. Paringin, Kabupaten Balangan",KALIMANTAN SELATAN,71662.0,Indonesia, 085190042639,,,-2.2646082,115.4776887,https://maps.google.com/?cid=0x0:0x15feb98d02dfcece,
toko bangunan,Toko Bahan Bangunan,TB. HALPAR,"Halubau, Kec. Paringin Sel., Kabupaten Balangan, Kalimantan Selatan","Kabupaten Balangan, Kalimantan Selatan",KALIMANTAN SELATAN,,Indonesia, 085251383634,,,-2.3388966,115.452544,https://maps.google.com/?cid=0x0:0x677930b7fe362b2d,
toko bangunan,Toko Bahan Bangunan,TB Berkat Usaha Dua,"Seberang Masjid Assaadah, Batu Piring, Kec. Paringin Sel., Kabupaten Balangan, Kalimantan Selatan 76122","Batu Piring, Kec. Paringin Sel., Kabupaten Balangan",KALIMANTAN SELATAN,76122.0,Indonesia, 081352634455,,,-2.3403433,115.4588625,https://maps.google.com/?cid=0x0:0x157450c18ce117ad,
toko bangunan,Toko umum,Toko Berkat Usaha Dua,"Jl. A. Yani, Batu Piring, Kec. Paringin Sel., Kabupaten Balangan, Kalimantan Selatan","Kabupaten Balangan, Kalimantan Selatan",KALIMANTAN SELATAN,,Indonesia, 081352634455,,,-2.3404148,115.4589352,https://maps.google.com/?cid=0x0:0x21642b3a2514f3f2,
toko bangunan,Toko Bahan Bangunan,YJ batako,"JFW7+HQ5, Lingsir, Kec. Paringin Sel., Kabupaten Balangan, Kalimantan Selatan","Kabupaten Balangan, Kalimantan Selatan",KALIMANTAN SELATAN,,Indonesia,,,,-2.3536056,115.4644708,https://maps.google.com/?cid=0x0:0xcf2d195e08f6534c,
toko bangunan,Toko Bahan Bangunan,Toko Berkat Anugerah,"MFC7+753, Jl. A. Yani, Layap, Kec. Paringin, Kabupaten Balangan, Kalimantan Selatan 71611","Jl. A. Yani, Layap, Kec. Paringin, Kabupaten Balangan",KALIMANTAN SELATAN,71611.0,Indonesia,,,,-2.3293564,115.4629124,https://maps.google.com/?cid=0x0:0x8683c9085cd71716,
toko bangunan,Toko Bahan Bangunan,UD.M.JUNIARDI,"MF86+QV2, Bungin, Kec. Paringin Sel., Kabupaten Balangan, Kalimantan Selatan 71611","Bungin, Kec. Paringin Sel., Kabupaten Balangan",KALIMANTAN SELATAN,71611.0,Indonesia, 081349795576,,,-2.3331008,115.462145,https://maps.google.com/?cid=0x0:0x7760f35d30417cc5,
toko bangunan,Toko Bahan Bangunan,Tb. Anugerah,"JF42+86C, Jl. A. Yani, Mantimin, Kec. Batu Mandi, Kabupaten Balangan, Kalimantan Selatan 71663","Jl. A. Yani, Mantimin, Kec. Batu Mandi, Kabupaten Balangan",KALIMANTAN SELATAN,71663.0,Indonesia,,,,-2.3941973,115.4505234,https://maps.google.com/?cid=0x0:0xafce0b8c24e36d52,
toko bangunan,toko bangunan,Kalimantan Selatan 71618,"Lingsir, Kec. Paringin Sel., Kabupaten Balangan, Kalimantan Selatan","Kabupaten Balangan, Kalimantan Selatan",KALIMANTAN SELATAN,,Indonesia,,,,-2.3480342,115.46299,https://maps.google.com/?cid=0x0:0xaaca6ef0c3889113,
toko bangunan,Toko Bahan Bangunan,TB.HJ LINDA (toko bangunan),"Jl. A. Yani No.2, RW.5, Batu Piring, Kec. Paringin Sel., Kabupaten Balangan, Kalimantan Selatan 71662","RW.5, Batu Piring, Kec. Paringin Sel., Kabupaten Balangan",KALIMANTAN SELATAN,71662.0,Indonesia,,,,-2.3504459,115.4688875,https://maps.google.com/?cid=0x0:0x7314e8bfd97c7d5e,
toko bangunan,Toko Bahan Bangunan,TB.SAUKI (toko bangunan),"MF76+C7M, Bungin, Kec. Paringin Sel., Kabupaten Balangan, Kalimantan Selatan 71612","Bungin, Kec. Paringin Sel., Kabupaten Balangan",KALIMANTAN SELATAN,71612.0,Indonesia, 082354180604,,,-2.3364024,115.4606821,https://maps.google.com/?cid=0x0:0x8d8bcec3d9c93681,
toko bangunan,Toko Bahan Bangunan,Toko Bangunan Haikal,"PF6H+R8P, Lasung Batu, Kec. Paringin, Kabupaten Balangan, Kalimantan Selatan 71662","Lasung Batu, Kec. Paringin, Kabupaten Balangan",KALIMANTAN SELATAN,71662.0,Indonesia, 081649049436,,,-2.2879098,115.4783349,https://maps.google.com/?cid=0x0:0xdb1f248672aa4835,
toko bangunan,Toko Bahan Bangunan,TB.ALFI (toko bangunan),"Paringin Kota, Kec. Paringin, Kabupaten Balangan, Kalimantan Selatan 71614","Kec. Paringin, Kabupaten Balangan",KALIMANTAN SELATAN,71614.0,Indonesia, 085393028054,,,-2.317992,115.466265,https://maps.google.com/?cid=0x0:0x5254d579177ffa63,
toko bangunan,Toko Perlengkapan Rumah,TB.YADI H.UD (toko bangunan),"MF86+QV2, Bungin, Kec. Paringin Sel., Kabupaten Balangan, Kalimantan Selatan 71611","Bungin, Kec. Paringin Sel., Kabupaten Balangan",KALIMANTAN SELATAN,71611.0,Indonesia, 081349795576,,,-2.333103,115.4621343,https://maps.google.com/?cid=0x0:0xf17ef938c68636f0,
toko bangunan,Toko Bahan Bangunan,Toko ANITA,"JFH8+CFM, Jl. A. Yani, Gampa, Kec. Paringin Sel., Kabupaten Balangan, Kalimantan Selatan 71662","Jl. A. Yani, Gampa, Kec. Paringin Sel., Kabupaten Balangan",KALIMANTAN SELATAN,71662.0,Indonesia,,,,-2.3714236,115.4661729,https://maps.google.com/?cid=0x0:0x1b5a36b10fb30699,
toko bangunan,Toko Bahan Bangunan,TB.SUMBER REJEKI,"MF76+F65, Halubau Utara, Kec. Paringin Sel., Kabupaten Balangan, Kalimantan Selatan 71612","Halubau Utara, Kec. Paringin Sel., Kabupaten Balangan",KALIMANTAN SELATAN,71612.0,Indonesia, 081351822834,,,-2.3363593,115.460602,https://maps.google.com/?cid=0x0:0xcc50db93097060c1,
toko bangunan,Toko Bahan Bangunan,TB.TAMAN HIJAU,"Batu Piring, Kec. Paringin Sel., Kabupaten Balangan, Kalimantan Selatan 71662","Kec. Paringin Sel., Kabupaten Balangan",KALIMANTAN SELATAN,71662.0,Indonesia, 085249703280,,,-2.35048,115.4688798,https://maps.google.com/?cid=0x0:0x24cf81103c235d3c,
toko bangunan,Toko Bahan Bangunan,Ms Tk. Material Sejahtera,"MF64+R94, Halubau Utara, Kec. Paringin Sel., Kabupaten Balangan, Kalimantan Selatan 71613","Halubau Utara, Kec. Paringin Sel., Kabupaten Balangan",KALIMANTAN SELATAN,71613.0,Indonesia,,,,-2.337996,115.4559602,https://maps.google.com/?cid=0x0:0xfb36bfe56efd2185,
toko bangunan,Toko Bahan Bangunan,Kanchana aluminum works  Hardware,"Blk. D No.14, Lingsir, Kec. Paringin Sel., Kabupaten Balangan, Kalimantan Selatan","Kabupaten Balangan, Kalimantan Selatan",KALIMANTAN SELATAN,,Indonesia, 0778577783,,,-2.34323,115.457374,https://maps.google.com/?cid=0x0:0xd4aa0a4762dd8d12,
toko bangunan,Toko Bahan Bangunan,TB. Rizky Bersama,"Jl. A. Yani, RT.03/RW.No. 180, Dahai, Kec. Paringin, Kabupaten Balangan, Kalimantan Selatan 71662","RT.03/RW.No. 180, Dahai, Kec. Paringin, Kabupaten Balangan",KALIMANTAN SELATAN,71662.0,Indonesia, 085190042639,,,-2.2646082,115.4776887,https://maps.google.com/?cid=0x0:0x15feb98d02dfcece,
toko bangunan,Toko Bahan Bangunan,TB Berkat Usaha Dua,"Seberang Masjid Assaadah, Batu Piring, Kec. Paringin Sel., Kabupaten Balangan, Kalimantan Selatan 76122","Batu Piring, Kec. Paringin Sel., Kabupaten Balangan",KALIMANTAN SELATAN,76122.0,Indonesia, 081352634455,,,-2.3403433,115.4588625,https://maps.google.com/?cid=0x0:0x157450c18ce117ad,
toko bangunan,Toko umum,Toko Berkat Usaha Dua,"Jl. A. Yani, Batu Piring, Kec. Paringin Sel., Kabupaten Balangan, Kalimantan Selatan","Kabupaten Balangan, Kalimantan Selatan",KALIMANTAN SELATAN,,Indonesia, 081352634455,,,-2.3404148,115.4589352,https://maps.google.com/?cid=0x0:0x21642b3a2514f3f2,
toko bangunan,Toko Bahan Bangunan,YJ batako,"JFW7+HQ5, Lingsir, Kec. Paringin Sel., Kabupaten Balangan, Kalimantan Selatan","Kabupaten Balangan, Kalimantan Selatan",KALIMANTAN SELATAN,,Indonesia,,,,-2.3536056,115.4644708,https://maps.google.com/?cid=0x0:0xcf2d195e08f6534c,
toko bangunan,Pasar,Pasar Paringin,"Pasar lantai 2 blok h17, Halubau Utara, Kec. Paringin Sel., Kabupaten Balangan, Kalimantan Selatan 71618","Halubau Utara, Kec. Paringin Sel., Kabupaten Balangan",KALIMANTAN SELATAN,71618.0,Indonesia,,,,-2.335349,115.4606896,https://maps.google.com/?cid=0x0:0x3bb52267d0596c43,
toko bangunan,Toko Perlengkapan Rumah,Toko Barang Unik Paringin,"Komplek Bumi Raya Indah blok 2 Tungkap, Kelurahan, Batu Piring, Kec. Paringin Sel., Kalimantan Selatan 71618","Kelurahan, Batu Piring, Kec. Paringin Sel.",KALIMANTAN SELATAN,71618.0,Indonesia, 081255564889,,,-2.3417233,115.4631988,https://maps.google.com/?cid=0x0:0x349abe66a8c3465d,
toko bangunan,Toko Bahan Bangunan,Toko Berkat Anugerah,"MFC7+753, Jl. A. Yani, Layap, Kec. Paringin, Kabupaten Balangan, Kalimantan Selatan 71611","Jl. A. Yani, Layap, Kec. Paringin, Kabupaten Balangan",KALIMANTAN SELATAN,71611.0,Indonesia,,,,-2.3293564,115.4629124,https://maps.google.com/?cid=0x0:0x8683c9085cd71716,
toko bangunan,Toko Perlengkapan Rumah,Toko MJ,"Halubau Utara, Kec. Paringin Sel., Kabupaten Balangan, Kalimantan Selatan 71612","Kec. Paringin Sel., Kabupaten Balangan",KALIMANTAN SELATAN,71612.0,Indonesia, 085390833044,,,-2.3405417,115.4591853,https://maps.google.com/?cid=0x0:0xf6173f97b7afad51,
toko bangunan,toko bangunan,Kalimantan Selatan 71662,"Kabupaten Balangan, Kalimantan Selatan","Kabupaten Balangan, Kalimantan Selatan",KALIMANTAN SELATAN,,Indonesia,,,,-2.3012625,115.5088914,https://maps.google.com/?cid=0x0:0xb7382a61ae82526e,
toko bangunan,Toko Bahan Bangunan,Toko Bangunan Haikal,"PF6H+R8P, Lasung Batu, Kec. Paringin, Kabupaten Balangan, Kalimantan Selatan 71662","Lasung Batu, Kec. Paringin, Kabupaten Balangan",KALIMANTAN SELATAN,71662.0,Indonesia, 081649049436,,,-2.2879098,115.4783349,https://maps.google.com/?cid=0x0:0xdb1f248672aa4835,
toko bangunan,Toko Bahan Bangunan,TB.HJ LINDA (toko bangunan),"Jl. A. Yani No.2, RW.5, Batu Piring, Kec. Paringin Sel., Kabupaten Balangan, Kalimantan Selatan 71662","RW.5, Batu Piring, Kec. Paringin Sel., Kabupaten Balangan",KALIMANTAN SELATAN,71662.0,Indonesia,,,,-2.3504459,115.4688875,https://maps.google.com/?cid=0x0:0x7314e8bfd97c7d5e,
toko bangunan,Toko Bahan Bangunan,Toko ANITA,"JFH8+CFM, Jl. A. Yani, Gampa, Kec. Paringin Sel., Kabupaten Balangan, Kalimantan Selatan 71662","Jl. A. Yani, Gampa, Kec. Paringin Sel., Kabupaten Balangan",KALIMANTAN SELATAN,71662.0,Indonesia,,,,-2.3714236,115.4661729,https://maps.google.com/?cid=0x0:0x1b5a36b10fb30699,
toko bangunan,Toko Bahan Bangunan,TB.ALFI (toko bangunan),"Paringin Kota, Kec. Paringin, Kabupaten Balangan, Kalimantan Selatan 71614","Kec. Paringin, Kabupaten Balangan",KALIMANTAN SELATAN,71614.0,Indonesia, 085393028054,,,-2.317992,115.466265,https://maps.google.com/?cid=0x0:0x5254d579177ffa63,
toko bangunan,Toko Bahan Bangunan,TB. Rizky Bersama,"Jl. A. Yani, RT.03/RW.No. 180, Dahai, Kec. Paringin, Kabupaten Balangan, Kalimantan Selatan 71662","RT.03/RW.No. 180, Dahai, Kec. Paringin, Kabupaten Balangan",KALIMANTAN SELATAN,71662.0,Indonesia, 085190042639,,,-2.2646082,115.4776887,https://maps.google.com/?cid=0x0:0x15feb98d02dfcece,
toko bangunan,Toko Bahan Bangunan,Toko bangunan h udin,"MF75+QF2, Halubau Utara, Kec. Paringin Sel., Kabupaten Balangan, Kalimantan Selatan 71612","Halubau Utara, Kec. Paringin Sel., Kabupaten Balangan",KALIMANTAN SELATAN,71612.0,Indonesia,,,,-2.3356143,115.4586308,https://maps.google.com/?cid=0x0:0xabaa76dd9f17f45f,
toko bangunan,Toko Bahan Bangunan,Workshop 2 halpar group,"MC5X+6CX, Halubau, Kec. Paringin Sel., Kabupaten Balangan, Kalimantan Selatan 71613","Halubau, Kec. Paringin Sel., Kabupaten Balangan",KALIMANTAN SELATAN,71613.0,Indonesia, 085251383634,,,-2.3418978,115.44861,https://maps.google.com/?cid=0x0:0xc4181be70dedc8d6,
toko bangunan,Toko Perlengkapan Rumah,TB.YADI H.UD (toko bangunan),"MF86+QV2, Bungin, Kec. Paringin Sel., Kabupaten Balangan, Kalimantan Selatan 71611","Bungin, Kec. Paringin Sel., Kabupaten Balangan",KALIMANTAN SELATAN,71611.0,Indonesia, 081349795576,,,-2.333103,115.4621343,https://maps.google.com/?cid=0x0:0xf17ef938c68636f0,
toko bangunan,Toko Bahan Bangunan,PRG INTERIOR 2 BY CV ALFATH SETIA JAYA,"Jl. A. Yani, batu piring, Kec. Paringin Sel., Kabupaten Balangan, Kalimantan Selatan 71662","batu piring, Kec. Paringin Sel., Kabupaten Balangan",KALIMANTAN SELATAN,71662.0,Indonesia, 082256899949,,,-2.3379936,115.4578827,https://maps.google.com/?cid=0x0:0x94c77ba965c94bcd,
toko bangunan,Toko Bahan Bangunan,TB.TAMAN HIJAU,"Batu Piring, Kec. Paringin Sel., Kabupaten Balangan, Kalimantan Selatan 71662","Kec. Paringin Sel., Kabupaten Balangan",KALIMANTAN SELATAN,71662.0,Indonesia, 085249703280,,,-2.35048,115.4688798,https://maps.google.com/?cid=0x0:0x24cf81103c235d3c,
toko bangunan,Toko Perlengkapan Rumah,ABAN BATAKO paringin timur,"MF89+98R, Unnamed Road, Bungin, Kec. Paringin Sel., Kabupaten Balangan, Kalimantan Selatan 71615","Unnamed Road, Bungin, Kec. Paringin Sel., Kabupaten Balangan",KALIMANTAN SELATAN,71615.0,Indonesia, 081253468617,,,-2.3340179,115.4682569,https://maps.google.com/?cid=0x0:0x9b48409ad4b00172,
toko bangunan,Toko Bahan Bangunan,Ms Tk. Material Sejahtera,"MF64+R94, Halubau Utara, Kec. Paringin Sel., Kabupaten Balangan, Kalimantan Selatan 71613","Halubau Utara, Kec. Paringin Sel., Kabupaten Balangan",KALIMANTAN SELATAN,71613.0,Indonesia,,,,-2.337996,115.4559602,https://maps.google.com/?cid=0x0:0xfb36bfe56efd2185,
toko bangunan,Toko Bahan Bangunan,UD.M.JUNIARDI,"MF86+QV2, Bungin, Kec. Paringin Sel., Kabupaten Balangan, Kalimantan Selatan 71611","Bungin, Kec. Paringin Sel., Kabupaten Balangan",KALIMANTAN SELATAN,71611.0,Indonesia, 081349795576,,,-2.3331008,115.462145,https://maps.google.com/?cid=0x0:0x7760f35d30417cc5,
toko bangunan,Toko Bahan Bangunan,TB.SUMBER REJEKI,"MF76+F65, Halubau Utara, Kec. Paringin Sel., Kabupaten Balangan, Kalimantan Selatan 71612","Halubau Utara, Kec. Paringin Sel., Kabupaten Balangan",KALIMANTAN SELATAN,71612.0,Indonesia, 081351822834,,,-2.3363593,115.460602,https://maps.google.com/?cid=0x0:0xcc50db93097060c1,
toko bangunan,Toko Bahan Bangunan,TB Berkat Usaha Dua,"Seberang Masjid Assaadah, Batu Piring, Kec. Paringin Sel., Kabupaten Balangan, Kalimantan Selatan 76122","Batu Piring, Kec. Paringin Sel., Kabupaten Balangan",KALIMANTAN SELATAN,76122.0,Indonesia, 081352634455,,,-2.3403433,115.4588625,https://maps.google.com/?cid=0x0:0x157450c18ce117ad,
toko bangunan,Toko Bahan Bangunan,Tb. Anugerah,"JF42+86C, Jl. A. Yani, Mantimin, Kec. Batu Mandi, Kabupaten Balangan, Kalimantan Selatan 71663","Jl. A. Yani, Mantimin, Kec. Batu Mandi, Kabupaten Balangan",KALIMANTAN SELATAN,71663.0,Indonesia,,,,-2.3941973,115.4505234,https://maps.google.com/?cid=0x0:0xafce0b8c24e36d52,
toko bangunan,Toko Bahan Bangunan,Wantilan Haji Madi,"MFH8+J46, Jl. A. Yani, haur batu, Kec. Paringin Sel., Kabupaten Balangan, Kalimantan Selatan 71611","Jl. A. Yani, haur batu, Kec. Paringin Sel., Kabupaten Balangan",KALIMANTAN SELATAN,71611.0,Indonesia,,,,-2.320835,115.4653324,https://maps.google.com/?cid=0x0:0xf685513c1a11a5ae,
toko bangunan,Toko umum,Toko Berkat Usaha Dua,"Jl. A. Yani, Batu Piring, Kec. Paringin Sel., Kabupaten Balangan, Kalimantan Selatan","Kabupaten Balangan, Kalimantan Selatan",KALIMANTAN SELATAN,,Indonesia, 081352634455,,,-2.3404148,115.4589352,https://maps.google.com/?cid=0x0:0x21642b3a2514f3f2,
toko bangunan,Toko Bahan Bangunan,Kanchana aluminum works  Hardware,"Blk. D No.14, Lingsir, Kec. Paringin Sel., Kabupaten Balangan, Kalimantan Selatan","Kabupaten Balangan, Kalimantan Selatan",KALIMANTAN SELATAN,,Indonesia, 0778577783,,,-2.34323,115.457374,https://maps.google.com/?cid=0x0:0xd4aa0a4762dd8d12,
toko bangunan,Jasa Konstruksi dan Bangunan,Plapon pvc,"MFF9+HF, Paringin Kota, Kec. Paringin, Kabupaten Balangan, Kalimantan Selatan","Kabupaten Balangan, Kalimantan Selatan",KALIMANTAN SELATAN,,Indonesia,,,,-2.326069,115.4686428,https://maps.google.com/?cid=0x0:0x375fcc1e77176150,
toko bangunan,Toko Bahan Bangunan,TB. HALPAR,"Halubau, Kec. Paringin Sel., Kabupaten Balangan, Kalimantan Selatan","Kabupaten Balangan, Kalimantan Selatan",KALIMANTAN SELATAN,,Indonesia, 085251383634,,,-2.3388966,115.452544,https://maps.google.com/?cid=0x0:0x677930b7fe362b2d,
toko bangunan,Toko Bahan Bangunan,Toko bangunan INUR,"HJ34+P7W, Sungsum, Kec. Tebing Tinggi, Kabupaten Balangan, Kalimantan Selatan","Kabupaten Balangan, Kalimantan Selatan",KALIMANTAN SELATAN,,Indonesia,,,,-2.4458331,115.6056068,https://maps.google.com/?cid=0x0:0x1bccedb17a346c8f,
toko bangunan,Toko Bahan Bangunan,Tukang bataku,"GHQV+7J2, Auh, Kec. Tebing Tinggi, Kabupaten Balangan, Kalimantan Selatan 71664","Auh, Kec. Tebing Tinggi, Kabupaten Balangan",KALIMANTAN SELATAN,71664.0,Indonesia,,,,-2.461964,115.594105,https://maps.google.com/?cid=0x0:0x69dd6a03f7e9bf3,
toko bangunan,toko bangunan,Batu Hadangan,"HJ34+P7W, Sungsum, Kec. Tebing Tinggi, Kabupaten Balangan, Kalimantan Selatan","Kabupaten Balangan, Kalimantan Selatan",KALIMANTAN SELATAN,,Indonesia,,,,-2.4456375,115.6057031,https://maps.google.com/?cid=0x0:0x53ac1dc71cd6d6c6,
toko bangunan,Toko Bahan Bangunan,Toko Bangunan Bukit Raya,"Jl. Let. Jend. Suprapto No.73, Ps. Baru, Kec. Tebing Tinggi Kota, Kota Tebing Tinggi, Sumatera Utara 20998","Ps. Baru, Kec. Tebing Tinggi Kota, Kota Tebing Tinggi",KALIMANTAN SELATAN,20998.0,Indonesia, 085360842633,,,3.3288251,99.1600784,https://maps.google.com/?cid=0x0:0x10cb7562d9cf3d50,
toko bangunan,Toko Bahan Bangunan,Toko Bahan Bangunan Sejati,"Jl. Ir. H. Juanda No.66, Tj. Marulak, Kec. Rambutan, Kota Tebing Tinggi, Sumatera Utara 20998","Tj. Marulak, Kec. Rambutan, Kota Tebing Tinggi",KALIMANTAN SELATAN,20998.0,Indonesia,,,,3.3427619,99.1593724,https://maps.google.com/?cid=0x0:0x6270b0fd095e86f9,
toko bangunan,Toko Bahan Bangunan,Toko Jaya Profil,"Jl. Imam Bonjol No.40, Satria, Kec. Padang Hilir, Kota Tebing Tinggi, Sumatera Utara 20998","Satria, Kec. Padang Hilir, Kota Tebing Tinggi",KALIMANTAN SELATAN,20998.0,Indonesia, 08126361236,,,3.3301289,99.1690645,https://maps.google.com/?cid=0x0:0xa5361193351308e9,
toko bangunan,Toko Bahan Bangunan,DJ Build Mart - Plaza Bahan Bangunan Terlengkap di Tebing Tinggi,"Jl. Yos Sudarso No.191, Lalang, Kec. Rambutan, Kota Tebing Tinggi, Sumatera Utara 20998","Lalang, Kec. Rambutan, Kota Tebing Tinggi",KALIMANTAN SELATAN,20998.0,Indonesia, 081262383828,,,3.3632609,99.1672107,https://maps.google.com/?cid=0x0:0xa5ce48cce41bfac3,
toko bangunan,Toko Bahan Bangunan,Toko Bangunan Thamrin Jaya,"Lk v, Jl. M.H. Thamrin No.32, Pasar Gambir, Tebing Tinggi Kota, Tebing Tinggi City, North Sumatra 20614","Jl. M.H. Thamrin No.32, Pasar Gambir, Tebing Tinggi Kota, Tebing Tinggi City",KALIMANTAN SELATAN,20614.0,Indonesia,,,,3.3264091,99.1593442,https://maps.google.com/?cid=0x0:0xcaa04c8d8dd1b257,
toko bangunan,Pusat Perbelanjaan,Toko Besi WAJA,"Jl. Jend. Sudirman No.165, Badak Bejuang, Kec. Tebing Tinggi Kota, Kota Tebing Tinggi, Sumatera Utara 20998","Badak Bejuang, Kec. Tebing Tinggi Kota, Kota Tebing Tinggi",KALIMANTAN SELATAN,20998.0,Indonesia, 062122460,,,3.3303441,99.1596615,https://maps.google.com/?cid=0x0:0x5dd870272455dbd7,
toko bangunan,Toko Kaca >>u0026 Cermin,Toko Kaca  Triplek Aman,"Jl. Let. Jend. Suprapto No.101, Ps. Baru, Kec. Tebing Tinggi Kota, Kota Tebing Tinggi, Sumatera Utara 20998","Ps. Baru, Kec. Tebing Tinggi Kota, Kota Tebing Tinggi",KALIMANTAN SELATAN,20998.0,Indonesia, 085373207881,,,3.3292417,99.1594676,https://maps.google.com/?cid=0x0:0x1936d8dd04c1df51,
toko bangunan,Toko Bahan Bangunan,Decomart Sentra Bangunan,"Jl. Yos Sudarso No.191, Lalang, Kec. Rambutan, Kota Tebing Tinggi, Sumatera Utara 20998","Lalang, Kec. Rambutan, Kota Tebing Tinggi",KALIMANTAN SELATAN,20998.0,Indonesia,,,,3.3647942,99.1670581,https://maps.google.com/?cid=0x0:0x84ee41799c5bc72b,
toko bangunan,Toko Bahan Bangunan,TB.Selamat Jaya,"Jl. Jend. Sudirman No.177, Badak Bejuang, Kec. Tebing Tinggi Kota, Kota Tebing Tinggi, Sumatera Utara 20998","Badak Bejuang, Kec. Tebing Tinggi Kota, Kota Tebing Tinggi",KALIMANTAN SELATAN,20998.0,Indonesia,,,,3.3308556,99.1599454,https://maps.google.com/?cid=0x0:0xae939a83db39794,
toko bangunan,Toko Bahan Bangunan,UD. Mitra Bangunan,"Ps. Gambir, Kec. Tebing Tinggi Kota, Kota Tebing Tinggi, Sumatera Utara 20631","Kec. Tebing Tinggi Kota, Kota Tebing Tinggi",KALIMANTAN SELATAN,20631.0,Indonesia, 085360335777,,,3.3216114,99.1588234,https://maps.google.com/?cid=0x0:0xa48316e6bb0af105,
toko bangunan,Pusat Perbelanjaan,Toko Besi Jaya Beton,"Jl. Udang No.2, Badak Bejuang, Kec. Tebing Tinggi Kota, Kota Tebing Tinggi, Sumatera Utara 20998","Badak Bejuang, Kec. Tebing Tinggi Kota, Kota Tebing Tinggi",KALIMANTAN SELATAN,20998.0,Indonesia, 085960360531,,,3.3308973,99.1614311,https://maps.google.com/?cid=0x0:0xca3e2a11c87c6159,
toko bangunan,Toko Bahan Bangunan,Toko Teguh Jaya,"85J3+VH7, Jl. Kf Tandean / Bulian, Bandar Utama, Kec. Tebing Tinggi Kota, Kota Tebing Tinggi, Sumatera Utara 20998","Jl. Kf Tandean / Bulian, Bandar Utama, Kec. Tebing Tinggi Kota, Kota Tebing Tinggi",KALIMANTAN SELATAN,20998.0,Indonesia,,,,3.33217,99.1539106,https://maps.google.com/?cid=0x0:0xe03c4d14ab5f57b8,
toko bangunan,Toko Bahan Bangunan,Toko Jayaboard,"Jl. Senangin No.28, Tebing Tinggi Lama, Kec. Tebing Tinggi Kota, Kota Tebing Tinggi, Sumatera Utara 20998","Tebing Tinggi Lama, Kec. Tebing Tinggi Kota, Kota Tebing Tinggi",KALIMANTAN SELATAN,20998.0,Indonesia, 062122751,,,3.3311661,99.1613464,https://maps.google.com/?cid=0x0:0x96cc6b55d1f93042,
toko bangunan,Toko Perlengkapan Atap,Toko Jayaboard,"85H5+QR5, Jl. Let. Jend. Suprapto, Ps. Baru, Kec. Tebing Tinggi Kota, Kota Tebing Tinggi, Sumatera Utara 20998","Jl. Let. Jend. Suprapto, Ps. Baru, Kec. Tebing Tinggi Kota, Kota Tebing Tinggi",KALIMANTAN SELATAN,20998.0,Indonesia, 062121379,,,3.3294,99.1595989,https://maps.google.com/?cid=0x0:0x119cf1307c57851f,
toko bangunan,Toko Perlengkapan Rumah,Toko besi bintang jaya,"Jl. Letda Sujono No.9, Pinang Mancung, Kec. Bajenis, Kota Tebing Tinggi, Sumatera Utara 20998","Pinang Mancung, Kec. Bajenis, Kota Tebing Tinggi",KALIMANTAN SELATAN,20998.0,Indonesia,,,,3.3343993,99.1373775,https://maps.google.com/?cid=0x0:0x439eba31bd1d687f,
toko bangunan,Toko Bahan Bangunan,TB Indoraya,"Jl. Jend. Sudirman No.170, Badak Bejuang, Kec. Tebing Tinggi Kota, Kota Tebing Tinggi, Sumatera Utara 20998","Badak Bejuang, Kec. Tebing Tinggi Kota, Kota Tebing Tinggi",KALIMANTAN SELATAN,20998.0,Indonesia, 081375096184,,,3.3310738,99.1595562,https://maps.google.com/?cid=0x0:0xaa4bddfae1b65d87,
toko bangunan,Toserba,Kota Baru,"Jl. K.H. Ahmad Dahlan, Ps. Baru, Kec. Tebing Tinggi Kota, Kota Tebing Tinggi, Sumatera Utara 20998","Ps. Baru, Kec. Tebing Tinggi Kota, Kota Tebing Tinggi",KALIMANTAN SELATAN,20998.0,Indonesia, 062121725,,,3.3287716,99.159456,https://maps.google.com/?cid=0x0:0x7b36399ec45dd052,
toko bangunan,Pemasok Bahan Bangunan,Toko Besi,"Jl. Imam Bonjol No.36, Satria, Kec. Padang Hilir, Kota Tebing Tinggi, Sumatera Utara 20998","Satria, Kec. Padang Hilir, Kota Tebing Tinggi",KALIMANTAN SELATAN,20998.0,Indonesia,,,,3.3309033,99.16931,https://maps.google.com/?cid=0x0:0x35ab12621d110e36,
toko bangunan,Toko Bahan Bangunan,Toko Bangunan Pelangi,"JL. Kapt P. Tandean No.29, Bandar Sono, Tebingtinggi, Kota Tebing Tinggi, Sumatera Utara 20631","Bandar Sono, Tebingtinggi, Kota Tebing Tinggi",KALIMANTAN SELATAN,20631.0,Indonesia, 062123070,,,3.3207316,99.152985,https://maps.google.com/?cid=0x0:0xf6ec00a26645d354,
toko bangunan,Toko Bahan Bangunan,Toko bangunan INUR,"HJ34+P7W, Sungsum, Kec. Tebing Tinggi, Kabupaten Balangan, Kalimantan Selatan","Kabupaten Balangan, Kalimantan Selatan",KALIMANTAN SELATAN,,Indonesia,,,,-2.4458331,115.6056068,https://maps.google.com/?cid=0x0:0x1bccedb17a346c8f,
toko bangunan,Toko Bahan Bangunan,Tukang bataku,"GHQV+7J2, Auh, Kec. Tebing Tinggi, Kabupaten Balangan, Kalimantan Selatan 71664","Auh, Kec. Tebing Tinggi, Kabupaten Balangan",KALIMANTAN SELATAN,71664.0,Indonesia,,,,-2.461964,115.594105,https://maps.google.com/?cid=0x0:0x69dd6a03f7e9bf3,
toko bangunan,toko bangunan,Batu Hadangan,"HJ34+P7W, Sungsum, Kec. Tebing Tinggi, Kabupaten Balangan, Kalimantan Selatan","Kabupaten Balangan, Kalimantan Selatan",KALIMANTAN SELATAN,,Indonesia,,,,-2.4456375,115.6057031,https://maps.google.com/?cid=0x0:0x53ac1dc71cd6d6c6,
toko bangunan,Toko Bahan Bangunan,Toko Bangunan Mega Tri,"C3GP+233, Ps. Tebing Tinggi, Kec. Tebing Tinggi, Kabupaten Empat Lawang, Sumatera Selatan 31453","Ps. Tebing Tinggi, Kec. Tebing Tinggi, Kabupaten Empat Lawang",KALIMANTAN SELATAN,31453.0,Indonesia, 081248731595,,,-3.5749774,103.0851808,https://maps.google.com/?cid=0x0:0xe417f27af83542cb,
toko bangunan,Toko Bahan Bangunan,DJ Build Mart - Plaza Bahan Bangunan Terlengkap di Tebing Tinggi,"Jl. Yos Sudarso No.191, Lalang, Kec. Rambutan, Kota Tebing Tinggi, Sumatera Utara 20998","Lalang, Kec. Rambutan, Kota Tebing Tinggi",KALIMANTAN SELATAN,20998.0,Indonesia, 081262383828,,,3.3632609,99.1672107,https://maps.google.com/?cid=0x0:0xa5ce48cce41bfac3,
toko bangunan,Toko Perlengkapan Rumah,Panglong Maju jaya,"Jl. Sisingamangaraja No.42, Bandar Sono, Kec. Padang Hulu, Kota Tebing Tinggi, Sumatera Utara 20361","Bandar Sono, Kec. Padang Hulu, Kota Tebing Tinggi",KALIMANTAN SELATAN,20361.0,Indonesia, 085262770880,,,3.3202013,99.1542601,https://maps.google.com/?cid=0x0:0xb1cce95dbe9d388b,
toko bangunan,Toko Bahan Bangunan,Decomart Sentra Bangunan,"Jl. Yos Sudarso No.191, Lalang, Kec. Rambutan, Kota Tebing Tinggi, Sumatera Utara 20998","Lalang, Kec. Rambutan, Kota Tebing Tinggi",KALIMANTAN SELATAN,20998.0,Indonesia,,,,3.3647942,99.1670581,https://maps.google.com/?cid=0x0:0x84ee41799c5bc72b,
toko bangunan,Toko Bahan Bangunan,Toko Jaya Profil,"Jl. Imam Bonjol No.40, Satria, Kec. Padang Hilir, Kota Tebing Tinggi, Sumatera Utara 20998","Satria, Kec. Padang Hilir, Kota Tebing Tinggi",KALIMANTAN SELATAN,20998.0,Indonesia, 08126361236,,,3.3301289,99.1690645,https://maps.google.com/?cid=0x0:0xa5361193351308e9,
toko bangunan,Toko Bahan Bangunan,UD. Mitra Bangunan,"Ps. Gambir, Kec. Tebing Tinggi Kota, Kota Tebing Tinggi, Sumatera Utara 20631","Kec. Tebing Tinggi Kota, Kota Tebing Tinggi",KALIMANTAN SELATAN,20631.0,Indonesia, 085360335777,,,3.3216114,99.1588234,https://maps.google.com/?cid=0x0:0xa48316e6bb0af105,
toko bangunan,Toko Bahan Bangunan,Toko Bahan Bangunan Sejati,"Jl. Ir. H. Juanda No.66, Tj. Marulak, Kec. Rambutan, Kota Tebing Tinggi, Sumatera Utara 20998","Tj. Marulak, Kec. Rambutan, Kota Tebing Tinggi",KALIMANTAN SELATAN,20998.0,Indonesia,,,,3.3427619,99.1593724,https://maps.google.com/?cid=0x0:0x6270b0fd095e86f9,
toko bangunan,Toko Bahan Bangunan,Toko Bangunan Sinar Sakti,"Jl. Udang Kel No.2E, Badak Bejuang, Kec. Tebing Tinggi Kota, Kota Tebing Tinggi, Sumatera Utara 20615","Badak Bejuang, Kec. Tebing Tinggi Kota, Kota Tebing Tinggi",KALIMANTAN SELATAN,20615.0,Indonesia, 062122909,,,3.3311639,99.1616565,https://maps.google.com/?cid=0x0:0xfa1ecc796e163593,
toko bangunan,Toko Bahan Bangunan,Bangunan Jaya,"2P75+QH7, Jl, Selat Panjang Tim., Kec. Tebing Tinggi, Kabupaten Kepulauan Meranti, Riau","Kabupaten Kepulauan Meranti, Riau",KALIMANTAN SELATAN,,Indonesia,,,,1.0146379,102.7098291,https://maps.google.com/?cid=0x0:0xbb63b1a83ea56499,
toko bangunan,Toko Bahan Bangunan,Topten Bangunan,"2P65+FX6, Jl. Diponegoro, Selat Panjang Kota, Kec. Tebing Tinggi, Kabupaten Kepulauan Meranti, Riau","Kabupaten Kepulauan Meranti, Riau",KALIMANTAN SELATAN,,Indonesia,,,,1.0112181,102.7098803,https://maps.google.com/?cid=0x0:0x16bc4967c1fc855c,
toko bangunan,Toko Perlengkapan Rumah,Toko Bangunan Cahaya,", Jl. Banglas Jl. Handayani, Selat Panjang Tim., Kec. Tebing Tinggi, Kabupaten Kepulauan Meranti, Riau","Kabupaten Kepulauan Meranti, Riau",KALIMANTAN SELATAN,,Indonesia,,,,0.9979488,102.7142021,https://maps.google.com/?cid=0x0:0x27fb08e2c30b27b3,
toko bangunan,Toko Bahan Bangunan,Toko Bangunan Thamrin Jaya,"Lk v, Jl. M.H. Thamrin No.32, Pasar Gambir, Tebing Tinggi Kota, Tebing Tinggi City, North Sumatra 20614","Jl. M.H. Thamrin No.32, Pasar Gambir, Tebing Tinggi Kota, Tebing Tinggi City",KALIMANTAN SELATAN,20614.0,Indonesia,,,,3.3264091,99.1593442,https://maps.google.com/?cid=0x0:0xcaa04c8d8dd1b257,
toko bangunan,Toko Bahan Bangunan,Toko Bangunan Dolphin,"Jl. Alahair, Selat Panjang Sel., Kec. Tebing Tinggi, Kabupaten Kepulauan Meranti, Riau","Kabupaten Kepulauan Meranti, Riau",KALIMANTAN SELATAN,,Indonesia, 085376235828,,,1.0017422,102.6987652,https://maps.google.com/?cid=0x0:0xeca4c6b58e74b2ae,
toko bangunan,Toko Kaca >>u0026 Cermin,Toko Kaca  Triplek Aman,"Jl. Let. Jend. Suprapto No.101, Ps. Baru, Kec. Tebing Tinggi Kota, Kota Tebing Tinggi, Sumatera Utara 20998","Ps. Baru, Kec. Tebing Tinggi Kota, Kota Tebing Tinggi",KALIMANTAN SELATAN,20998.0,Indonesia, 085373207881,,,3.3292417,99.1594676,https://maps.google.com/?cid=0x0:0x1936d8dd04c1df51,
toko bangunan,Toko Bahan Bangunan,Toko Tetap Jaya,"Jl. HAR. Syihab No.7B/9, Badak Bejuang, Kec. Tebing Tinggi Kota, Kota Tebing Tinggi, Sumatera Utara 20615","Badak Bejuang, Kec. Tebing Tinggi Kota, Kota Tebing Tinggi",KALIMANTAN SELATAN,20615.0,Indonesia, 082364488599,,,3.3301525,99.1607303,https://maps.google.com/?cid=0x0:0x2c5de317106f4b5a,
toko bangunan,Toko Bahan Bangunan,Usaha Jaya Keramik,"2P73+7RR, Selat Panjang Bar., Kec. Tebing Tinggi, Kabupaten Kepulauan Meranti, Riau","Kabupaten Kepulauan Meranti, Riau",KALIMANTAN SELATAN,,Indonesia,,,,1.0132878,102.7045816,https://maps.google.com/?cid=0x0:0x26cbd9782243353e,
toko bangunan,Toko Bahan Bangunan,Megah Raya,"Jl. Letda Sujono, Tlk. Karang, Kec. Bajenis, Kota Tebing Tinggi, Sumatera Utara 20998","Tlk. Karang, Kec. Bajenis, Kota Tebing Tinggi",KALIMANTAN SELATAN,20998.0,Indonesia, 085122229599,,,3.3330703,99.1401428,https://maps.google.com/?cid=0x0:0xaa819f16354bdb12,
toko bangunan,Komplek perumahan,Sri Meranti,"Jl. Sisingamangaraja No.17, Mandailing, Kec. Tebing Tinggi Kota, Kota Tebing Tinggi, Sumatera Utara 20611","Mandailing, Kec. Tebing Tinggi Kota, Kota Tebing Tinggi",KALIMANTAN SELATAN,20611.0,Indonesia, 06213950777,,,3.322023,99.152061,https://maps.google.com/?cid=0x0:0x9342bc1f439496b7,
toko bangunan,Toko Cat,"Samurai, Diton, Sapporo, Belkote, TOA, Propan, Paragon, Maritex, Avian, Asian Paint, Oxygen (Toko Sentra Bangunan)","Jl. Soekarno - Hatta, Tambangan, Kec. Padang Hilir, Kota Tebing Tinggi, Sumatera Utara 20998","Tambangan, Kec. Padang Hilir, Kota Tebing Tinggi",KALIMANTAN SELATAN,20998.0,Indonesia, 082370701885,,,3.3432417,99.1810722,https://maps.google.com/?cid=0x0:0x38c8dbfd33bcd6f,
toko bangunan,Toko Bahan Bangunan,TB.Selamat Jaya,"Jl. Jend. Sudirman No.177, Badak Bejuang, Kec. Tebing Tinggi Kota, Kota Tebing Tinggi, Sumatera Utara 20998","Badak Bejuang, Kec. Tebing Tinggi Kota, Kota Tebing Tinggi",KALIMANTAN SELATAN,20998.0,Indonesia,,,,3.3308556,99.1599454,https://maps.google.com/?cid=0x0:0xae939a83db39794,
toko bangunan,toko bangunan,Kec. Tebing Tinggi,"Kabupaten Balangan, Kalimantan Selatan","Kabupaten Balangan, Kalimantan Selatan",KALIMANTAN SELATAN,,Indonesia,,,,-2.4395901,115.6149061,https://maps.google.com/?cid=0x0:0x13f9bd5ff497183c,
toko bangunan,Toko Bahan Bangunan,Toko Bangunan Mega Tri,"C3GP+233, Ps. Tebing Tinggi, Kec. Tebing Tinggi, Kabupaten Empat Lawang, Sumatera Selatan 31453","Ps. Tebing Tinggi, Kec. Tebing Tinggi, Kabupaten Empat Lawang",KALIMANTAN SELATAN,31453.0,Indonesia, 081248731595,,,-3.5749774,103.0851808,https://maps.google.com/?cid=0x0:0xe417f27af83542cb,
toko bangunan,Toko Bahan Bangunan,Toko bangunan INUR,"HJ34+P7W, Sungsum, Kec. Tebing Tinggi, Kabupaten Balangan, Kalimantan Selatan","Kabupaten Balangan, Kalimantan Selatan",KALIMANTAN SELATAN,,Indonesia,,,,-2.4458331,115.6056068,https://maps.google.com/?cid=0x0:0x1bccedb17a346c8f,
toko bangunan,Toko Bahan Bangunan,DJ Build Mart - Plaza Bahan Bangunan Terlengkap di Tebing Tinggi,"Jl. Yos Sudarso No.191, Lalang, Kec. Rambutan, Kota Tebing Tinggi, Sumatera Utara 20998","Lalang, Kec. Rambutan, Kota Tebing Tinggi",KALIMANTAN SELATAN,20998.0,Indonesia, 081262383828,,,3.3632609,99.1672107,https://maps.google.com/?cid=0x0:0xa5ce48cce41bfac3,
toko bangunan,Toko Bahan Bangunan,Toko Bangunan Thamrin Jaya,"Lk v, Jl. M.H. Thamrin No.32, Pasar Gambir, Tebing Tinggi Kota, Tebing Tinggi City, North Sumatra 20614","Jl. M.H. Thamrin No.32, Pasar Gambir, Tebing Tinggi Kota, Tebing Tinggi City",KALIMANTAN SELATAN,20614.0,Indonesia,,,,3.3264091,99.1593442,https://maps.google.com/?cid=0x0:0xcaa04c8d8dd1b257,
toko bangunan,Toko Bahan Bangunan,Toko Bangunan Bukit Raya,"Jl. Let. Jend. Suprapto No.73, Ps. Baru, Kec. Tebing Tinggi Kota, Kota Tebing Tinggi, Sumatera Utara 20998","Ps. Baru, Kec. Tebing Tinggi Kota, Kota Tebing Tinggi",KALIMANTAN SELATAN,20998.0,Indonesia, 085360842633,,,3.3288251,99.1600784,https://maps.google.com/?cid=0x0:0x10cb7562d9cf3d50,
toko bangunan,Pemasok Bahan Bangunan,UD 88,"Jl. Deblod Sundoro Jl. Bagelen No.25, Ps. Gambir, Kec. Tebing Tinggi Kota, Kota Tebing Tinggi, Sumatera Utara 20634","Ps. Gambir, Kec. Tebing Tinggi Kota, Kota Tebing Tinggi",KALIMANTAN SELATAN,20634.0,Indonesia, 081918063548,,,3.3189206,99.1612936,https://maps.google.com/?cid=0x0:0xad1b9ba8c60ef58b,
toko bangunan,Toko,TOKO SUMBER LOGAM,"Jl. Lintas Sumatera No.30, Tj. Kupang, Kec. Tebing Tinggi, Kabupaten Empat Lawang, Sumatera Selatan 31453","Tj. Kupang, Kec. Tebing Tinggi, Kabupaten Empat Lawang",KALIMANTAN SELATAN,31453.0,Indonesia, 081297753000,,,-3.5986232,103.0886742,https://maps.google.com/?cid=0x0:0xeea7a71fa03c6aef,
toko bangunan,Toko Bahan Bangunan,UD. Mitra Bangunan,"Ps. Gambir, Kec. Tebing Tinggi Kota, Kota Tebing Tinggi, Sumatera Utara 20631","Kec. Tebing Tinggi Kota, Kota Tebing Tinggi",KALIMANTAN SELATAN,20631.0,Indonesia, 085360335777,,,3.3216114,99.1588234,https://maps.google.com/?cid=0x0:0xa48316e6bb0af105,
toko bangunan,Toko Kaca >>u0026 Cermin,Toko Kaca  Triplek Aman,"Jl. Let. Jend. Suprapto No.101, Ps. Baru, Kec. Tebing Tinggi Kota, Kota Tebing Tinggi, Sumatera Utara 20998","Ps. Baru, Kec. Tebing Tinggi Kota, Kota Tebing Tinggi",KALIMANTAN SELATAN,20998.0,Indonesia, 085373207881,,,3.3292417,99.1594676,https://maps.google.com/?cid=0x0:0x1936d8dd04c1df51,
toko bangunan,Toko Bahan Bangunan,Toko Tetap Jaya,"Jl. HAR. Syihab No.7B/9, Badak Bejuang, Kec. Tebing Tinggi Kota, Kota Tebing Tinggi, Sumatera Utara 20615","Badak Bejuang, Kec. Tebing Tinggi Kota, Kota Tebing Tinggi",KALIMANTAN SELATAN,20615.0,Indonesia, 082364488599,,,3.3301525,99.1607303,https://maps.google.com/?cid=0x0:0x2c5de317106f4b5a,
toko bangunan,Toko Bahan Bangunan,Toko Jaya Profil,"Jl. Imam Bonjol No.40, Satria, Kec. Padang Hilir, Kota Tebing Tinggi, Sumatera Utara 20998","Satria, Kec. Padang Hilir, Kota Tebing Tinggi",KALIMANTAN SELATAN,20998.0,Indonesia, 08126361236,,,3.3301289,99.1690645,https://maps.google.com/?cid=0x0:0xa5361193351308e9,
toko bangunan,Toko Perlengkapan Rumah,Panglong Maju jaya,"Jl. Sisingamangaraja No.42, Bandar Sono, Kec. Padang Hulu, Kota Tebing Tinggi, Sumatera Utara 20361","Bandar Sono, Kec. Padang Hulu, Kota Tebing Tinggi",KALIMANTAN SELATAN,20361.0,Indonesia, 085262770880,,,3.3202013,99.1542601,https://maps.google.com/?cid=0x0:0xb1cce95dbe9d388b,
toko bangunan,Toko Bahan Bangunan,TB.Selamat Jaya,"Jl. Jend. Sudirman No.177, Badak Bejuang, Kec. Tebing Tinggi Kota, Kota Tebing Tinggi, Sumatera Utara 20998","Badak Bejuang, Kec. Tebing Tinggi Kota, Kota Tebing Tinggi",KALIMANTAN SELATAN,20998.0,Indonesia,,,,3.3308556,99.1599454,https://maps.google.com/?cid=0x0:0xae939a83db39794,
toko bangunan,Toko Bahan Bangunan,Decomart Sentra Bangunan,"Jl. Yos Sudarso No.191, Lalang, Kec. Rambutan, Kota Tebing Tinggi, Sumatera Utara 20998","Lalang, Kec. Rambutan, Kota Tebing Tinggi",KALIMANTAN SELATAN,20998.0,Indonesia,,,,3.3647942,99.1670581,https://maps.google.com/?cid=0x0:0x84ee41799c5bc72b,
toko bangunan,Toko Bahan Bangunan,Toko Bangunan Sinar Sakti,"Jl. Udang Kel No.2E, Badak Bejuang, Kec. Tebing Tinggi Kota, Kota Tebing Tinggi, Sumatera Utara 20615","Badak Bejuang, Kec. Tebing Tinggi Kota, Kota Tebing Tinggi",KALIMANTAN SELATAN,20615.0,Indonesia, 062122909,,,3.3311639,99.1616565,https://maps.google.com/?cid=0x0:0xfa1ecc796e163593,
toko bangunan,Toko Bahan Bangunan,TETAP JAYA ( GUDANG 68 ),"Jl. Soekarno - Hatta No.68, Tambangan, Kec. Padang Hilir, Kota Tebing Tinggi, Sumatera Utara 20615","Tambangan, Kec. Padang Hilir, Kota Tebing Tinggi",KALIMANTAN SELATAN,20615.0,Indonesia, 0621328118,,,3.34284,99.1875513,https://maps.google.com/?cid=0x0:0x25c7b40019051fd5,
toko bangunan,Toko Bahan Bangunan,Megah Raya,"Jl. Letda Sujono, Tlk. Karang, Kec. Bajenis, Kota Tebing Tinggi, Sumatera Utara 20998","Tlk. Karang, Kec. Bajenis, Kota Tebing Tinggi",KALIMANTAN SELATAN,20998.0,Indonesia, 085122229599,,,3.3330703,99.1401428,https://maps.google.com/?cid=0x0:0xaa819f16354bdb12,
toko bangunan,Toko Bahan Bangunan,Panglong Karya,"Jl. Imam Bonjol No.8, Satria, Kec. Padang Hilir, Kota Tebing Tinggi, Sumatera Utara 20998","Satria, Kec. Padang Hilir, Kota Tebing Tinggi",KALIMANTAN SELATAN,20998.0,Indonesia, 081396352475,,,3.33624,99.1710815,https://maps.google.com/?cid=0x0:0x40ffdfdb9cb9a321,
toko bangunan,Toko Cat,"Samurai, Diton, Sapporo, Belkote, TOA, Propan, Paragon, Maritex, Avian, Asian Paint, Oxygen (Toko Sentra Bangunan)","Jl. Soekarno - Hatta, Tambangan, Kec. Padang Hilir, Kota Tebing Tinggi, Sumatera Utara 20998","Tambangan, Kec. Padang Hilir, Kota Tebing Tinggi",KALIMANTAN SELATAN,20998.0,Indonesia, 082370701885,,,3.3432417,99.1810722,https://maps.google.com/?cid=0x0:0x38c8dbfd33bcd6f,
toko bangunan,Toko Bahan Bangunan,TB. Imam Bonjol Jaya,"85J9+FQW, Jl. Imam Bonjol, Satria, Kec. Padang Hilir, Kota Tebing Tinggi, Sumatera Utara 20998","Jl. Imam Bonjol, Satria, Kec. Padang Hilir, Kota Tebing Tinggi",KALIMANTAN SELATAN,20998.0,Indonesia, 081918063548,,,3.3312258,99.1694644,https://maps.google.com/?cid=0x0:0xb66090e3ddf76d50,
toko bangunan,Toko Bahan Bangunan,Toko bangunan INUR,"HJ34+P7W, Sungsum, Kec. Tebing Tinggi, Kabupaten Balangan, Kalimantan Selatan","Kabupaten Balangan, Kalimantan Selatan",KALIMANTAN SELATAN,,Indonesia,,,,-2.4458331,115.6056068,https://maps.google.com/?cid=0x0:0x1bccedb17a346c8f,
toko bangunan,toko bangunan,Ss,"GHRV+2V7, Unnamed Road, Ju'uh, Kec. Tebing Tinggi, Kabupaten Balangan, Kalimantan Selatan 71664","Unnamed Road, Ju'uh, Kec. Tebing Tinggi, Kabupaten Balangan",KALIMANTAN SELATAN,71664.0,Indonesia,,,,-2.4599641,115.5946845,https://maps.google.com/?cid=0x0:0xb41ee30e776a1f20,
toko bangunan,Toko Bahan Bangunan,Toko Bahan Bangunan Sejati,"Jl. Ir. H. Juanda No.66, Tj. Marulak, Kec. Rambutan, Kota Tebing Tinggi, Sumatera Utara 20998","Tj. Marulak, Kec. Rambutan, Kota Tebing Tinggi",KALIMANTAN SELATAN,20998.0,Indonesia,,,,3.3427619,99.1593724,https://maps.google.com/?cid=0x0:0x6270b0fd095e86f9,
toko bangunan,Toko Bahan Bangunan,DJ Build Mart - Plaza Bahan Bangunan Terlengkap di Tebing Tinggi,"Jl. Yos Sudarso No.191, Lalang, Kec. Rambutan, Kota Tebing Tinggi, Sumatera Utara 20998","Lalang, Kec. Rambutan, Kota Tebing Tinggi",KALIMANTAN SELATAN,20998.0,Indonesia, 081262383828,,,3.3632609,99.1672107,https://maps.google.com/?cid=0x0:0xa5ce48cce41bfac3,
toko bangunan,Toko Bahan Bangunan,Toko Bangunan Rifqi,"Tebing Tinggi, Kec. Tebing Tinggi, Kabupaten Tanjung Jabung Barat, Jambi 36552","Kec. Tebing Tinggi, Kabupaten Tanjung Jabung Barat",KALIMANTAN SELATAN,36552.0,Indonesia, 085366456091,,,-1.0236481,103.0901405,https://maps.google.com/?cid=0x0:0x7b6a24d08a13c4fb,
toko bangunan,Toko Bahan Bangunan,Toko Bangunan Bukit Raya,"Jl. Let. Jend. Suprapto No.73, Ps. Baru, Kec. Tebing Tinggi Kota, Kota Tebing Tinggi, Sumatera Utara 20998","Ps. Baru, Kec. Tebing Tinggi Kota, Kota Tebing Tinggi",KALIMANTAN SELATAN,20998.0,Indonesia, 085360842633,,,3.3288251,99.1600784,https://maps.google.com/?cid=0x0:0x10cb7562d9cf3d50,
toko bangunan,Pemasok Bahan Bangunan,UD 88,"Jl. Deblod Sundoro Jl. Bagelen No.25, Ps. Gambir, Kec. Tebing Tinggi Kota, Kota Tebing Tinggi, Sumatera Utara 20634","Ps. Gambir, Kec. Tebing Tinggi Kota, Kota Tebing Tinggi",KALIMANTAN SELATAN,20634.0,Indonesia, 081918063548,,,3.3189206,99.1612936,https://maps.google.com/?cid=0x0:0xad1b9ba8c60ef58b,
toko bangunan,Toko Bahan Bangunan,Toko Bangunan Thamrin Jaya,"Lk v, Jl. M.H. Thamrin No.32, Pasar Gambir, Tebing Tinggi Kota, Tebing Tinggi City, North Sumatra 20614","Jl. M.H. Thamrin No.32, Pasar Gambir, Tebing Tinggi Kota, Tebing Tinggi City",KALIMANTAN SELATAN,20614.0,Indonesia,,,,3.3264091,99.1593442,https://maps.google.com/?cid=0x0:0xcaa04c8d8dd1b257,
toko bangunan,Toko Bahan Bangunan,Decomart Sentra Bangunan,"Jl. Yos Sudarso No.191, Lalang, Kec. Rambutan, Kota Tebing Tinggi, Sumatera Utara 20998","Lalang, Kec. Rambutan, Kota Tebing Tinggi",KALIMANTAN SELATAN,20998.0,Indonesia,,,,3.3647942,99.1670581,https://maps.google.com/?cid=0x0:0x84ee41799c5bc72b,
toko bangunan,Toko Bahan Bangunan,TETAP JAYA ( GUDANG 68 ),"Jl. Soekarno - Hatta No.68, Tambangan, Kec. Padang Hilir, Kota Tebing Tinggi, Sumatera Utara 20615","Tambangan, Kec. Padang Hilir, Kota Tebing Tinggi",KALIMANTAN SELATAN,20615.0,Indonesia, 0621328118,,,3.34284,99.1875513,https://maps.google.com/?cid=0x0:0x25c7b40019051fd5,
toko bangunan,Toko Bahan Bangunan,Toko Bangunan Sinar Sakti,"Jl. Udang Kel No.2E, Badak Bejuang, Kec. Tebing Tinggi Kota, Kota Tebing Tinggi, Sumatera Utara 20615","Badak Bejuang, Kec. Tebing Tinggi Kota, Kota Tebing Tinggi",KALIMANTAN SELATAN,20615.0,Indonesia, 062122909,,,3.3311639,99.1616565,https://maps.google.com/?cid=0x0:0xfa1ecc796e163593,
toko bangunan,Toko Bahan Bangunan,Toko Tetap Jaya,"Jl. HAR. Syihab No.7B/9, Badak Bejuang, Kec. Tebing Tinggi Kota, Kota Tebing Tinggi, Sumatera Utara 20615","Badak Bejuang, Kec. Tebing Tinggi Kota, Kota Tebing Tinggi",KALIMANTAN SELATAN,20615.0,Indonesia, 082364488599,,,3.3301525,99.1607303,https://maps.google.com/?cid=0x0:0x2c5de317106f4b5a,
toko bangunan,Toko Bahan Bangunan,Toko Jaya Profil,"Jl. Imam Bonjol No.40, Satria, Kec. Padang Hilir, Kota Tebing Tinggi, Sumatera Utara 20998","Satria, Kec. Padang Hilir, Kota Tebing Tinggi",KALIMANTAN SELATAN,20998.0,Indonesia, 08126361236,,,3.3301289,99.1690645,https://maps.google.com/?cid=0x0:0xa5361193351308e9,
toko bangunan,Toko Bahan Bangunan,TOKO BUKIT JAYA,"Jl. Udang kelurahan No.2A, Badak Bejuang, Kec. Tebing Tinggi Kota, Kota Tebing Tinggi, Sumatera Utara 20615","Badak Bejuang, Kec. Tebing Tinggi Kota, Kota Tebing Tinggi",KALIMANTAN SELATAN,20615.0,Indonesia, 062121275,,,3.3310606,99.1615425,https://maps.google.com/?cid=0x0:0xe9bfab801fcde6e3,
toko bangunan,Toko Bahan Bangunan,berkah jaya bangunan,"Jl. Gatot Subroto No.62, Lubuk Baru, Kec. Padang Hulu, Kota Tebing Tinggi, Sumatera Utara 20621","Lubuk Baru, Kec. Padang Hulu, Kota Tebing Tinggi",KALIMANTAN SELATAN,20621.0,Indonesia, 081918063548,,,3.3066769,99.1348241,https://maps.google.com/?cid=0x0:0x4decb2b56db7bf0,
toko bangunan,Toko Perlengkapan Rumah,Panglong Maju jaya,"Jl. Sisingamangaraja No.42, Bandar Sono, Kec. Padang Hulu, Kota Tebing Tinggi, Sumatera Utara 20361","Bandar Sono, Kec. Padang Hulu, Kota Tebing Tinggi",KALIMANTAN SELATAN,20361.0,Indonesia, 085262770880,,,3.3202013,99.1542601,https://maps.google.com/?cid=0x0:0xb1cce95dbe9d388b,
toko bangunan,Toko Bahan Bangunan,SBA Panglong,"JL Profesor Doktor Hamka, No. 23, Bulian, Bajenis, Bulian, Kec. Tebing Tinggi, Kota Tebing Tinggi, Sumatera Utara 20612","No. 23, Bulian, Bajenis, Bulian, Kec. Tebing Tinggi, Kota Tebing Tinggi",KALIMANTAN SELATAN,20612.0,Indonesia, 081361046373,,,3.3304951,99.1445208,https://maps.google.com/?cid=0x0:0xd7d70e90da78fd0b,
toko bangunan,Toko Bahan Bangunan,TB.Selamat Jaya,"Jl. Jend. Sudirman No.177, Badak Bejuang, Kec. Tebing Tinggi Kota, Kota Tebing Tinggi, Sumatera Utara 20998","Badak Bejuang, Kec. Tebing Tinggi Kota, Kota Tebing Tinggi",KALIMANTAN SELATAN,20998.0,Indonesia,,,,3.3308556,99.1599454,https://maps.google.com/?cid=0x0:0xae939a83db39794,
toko bangunan,Toko Cat,"Samurai, Diton, Sapporo, Belkote, TOA, Propan, Paragon, Maritex, Avian, Asian Paint, Oxygen (Toko Sentra Bangunan)","Jl. Soekarno - Hatta, Tambangan, Kec. Padang Hilir, Kota Tebing Tinggi, Sumatera Utara 20998","Tambangan, Kec. Padang Hilir, Kota Tebing Tinggi",KALIMANTAN SELATAN,20998.0,Indonesia, 082370701885,,,3.3432417,99.1810722,https://maps.google.com/?cid=0x0:0x38c8dbfd33bcd6f,
toko bangunan,Toko Bahan Bangunan,Megah Raya,"Jl. Letda Sujono, Tlk. Karang, Kec. Bajenis, Kota Tebing Tinggi, Sumatera Utara 20998","Tlk. Karang, Kec. Bajenis, Kota Tebing Tinggi",KALIMANTAN SELATAN,20998.0,Indonesia, 085122229599,,,3.3330703,99.1401428,https://maps.google.com/?cid=0x0:0xaa819f16354bdb12,
toko bangunan,Toko Bahan Bangunan,UD. Mitra Bangunan,"Ps. Gambir, Kec. Tebing Tinggi Kota, Kota Tebing Tinggi, Sumatera Utara 20631","Kec. Tebing Tinggi Kota, Kota Tebing Tinggi",KALIMANTAN SELATAN,20631.0,Indonesia, 085360335777,,,3.3216114,99.1588234,https://maps.google.com/?cid=0x0:0xa48316e6bb0af105,
toko bangunan,toko bangunan,Tebing Tinggi,"Kec. Tebing Tinggi, Kabupaten Balangan, Kalimantan Selatan","Kabupaten Balangan, Kalimantan Selatan",KALIMANTAN SELATAN,,Indonesia,,,,-2.4291508,115.609553,https://maps.google.com/?cid=0x0:0xf4b23c7baaba3dcc,
toko bangunan,Toko Bahan Bangunan,Toko bangunan INUR,"HJ34+P7W, Sungsum, Kec. Tebing Tinggi, Kabupaten Balangan, Kalimantan Selatan","Kabupaten Balangan, Kalimantan Selatan",KALIMANTAN SELATAN,,Indonesia,,,,-2.4458331,115.6056068,https://maps.google.com/?cid=0x0:0x1bccedb17a346c8f,
toko bangunan,toko bangunan,Toko Bangunan ( JASA REZEKI ),"HJ23+WVR, Unnamed Road, Sungsum, Kec. Tebing Tinggi, Kabupaten Balangan, Kalimantan Selatan 71664","Unnamed Road, Sungsum, Kec. Tebing Tinggi, Kabupaten Balangan",KALIMANTAN SELATAN,71664.0,Indonesia, 082255935293,,,-2.4476468,115.6046542,https://maps.google.com/?cid=0x0:0xb4fef20d165f0520,
