Category,Real Category,Business Name,Address,City,State,Postal Code,Country,Phone,Email,Website,Latitude,Longitude,Map Link,Details Link
perumahan,Restoran,RUMAH MAKAN LAMONGAN,"HGQH+2QW, Kedondong, Kec. Awayan, Kabupaten Balangan, Kalimantan Selatan 71664","Kedondong, Kec. Awayan, Kabupaten Balangan",KALIMANTAN SELATAN,71664.0,Indonesia, 081282646094,,,-2.4123825,115.5294448,https://maps.google.com/?cid=0x0:0x1e9f681e7401b53b,
perumahan,perumahan,,,,KALIMANTAN SELATAN,,Indonesia,,,,,,https://maps.google.com/?cid=0x0:0x1e9f681e7401b53bu0026onu003dNasi+Gorengu0026midu003d/g/11gyy9z5j8,
perumahan,Restoran,Warung Lamongan Tata,"MF64+8XW, Unnamed Road, Halubau Utara, Kec. Paringin Sel., Kabupaten Balangan, Kalimantan Selatan 71612","Unnamed Road, Halubau Utara, Kec. Paringin Sel., Kabupaten Balangan",KALIMANTAN SELATAN,71612.0,Indonesia,,,,-2.3391481,115.457468,https://maps.google.com/?cid=0x0:0x18707bed631ae974,
perumahan,perumahan,,,,KALIMANTAN SELATAN,,Indonesia,,,,,,https://maps.google.com/?cid=0x0:0x1e9f681e7401b53bu0026onu003dIce+Teau0026midu003d/g/11gyy9z5j8,
perumahan,perumahan,,,,KALIMANTAN SELATAN,,Indonesia,,,,,,https://maps.google.com/?cid=0x0:0x1e9f681e7401b53bu0026onu003dKakap+Saus+Tiram+Asam+Manisu0026midu003d/g/11gyy9z5j8,
perumahan,perumahan,Kalimantan Selatan 71664,Kalimantan Selatan,Kalimantan Selatan,KALIMANTAN SELATAN,,Indonesia,,,,-2.4693999,115.6154732,https://maps.google.com/?cid=0x0:0xde090cef9f025bcd,
perumahan,Pembangunan Perumahan,FY,"HG87+HW7, Merah, Kec. Awayan, Kabupaten Balangan, Kalimantan Selatan 71664","Merah, Kec. Awayan, Kabupaten Balangan",KALIMANTAN SELATAN,71664.0,Indonesia,,,,-2.4335884,115.5148035,https://maps.google.com/?cid=0x0:0x9b3702dcf678b7f1,
perumahan,Komplek perumahan,robi,"HGXM+RJM, Awayan Hilir, Kec. Awayan, Kabupaten Balangan, Kalimantan Selatan 71664","Awayan Hilir, Kec. Awayan, Kabupaten Balangan",KALIMANTAN SELATAN,71664.0,Indonesia,,,,-2.4004092,115.5340601,https://maps.google.com/?cid=0x0:0xfbd29fd9c02cded8,
perumahan,perumahan,Rumah rafiq,"JG3G+FJ7, Baru, Kec. Awayan, Kabupaten Balangan, Kalimantan Selatan 71664","Baru, Kec. Awayan, Kabupaten Balangan",KALIMANTAN SELATAN,71664.0,Indonesia,,,,-2.3963496,115.526544,https://maps.google.com/?cid=0x0:0x732bbc02f9fbf4a1,
perumahan,Komplek perumahan,Misransyah,"JG2H+X53, Jl. Paringin, Awayan Hilir, Kec. Awayan, Kabupaten Balangan, Kalimantan Selatan 71664","Jl. Paringin, Awayan Hilir, Kec. Awayan, Kabupaten Balangan",KALIMANTAN SELATAN,71664.0,Indonesia,,,,-2.3978762,115.5280017,https://maps.google.com/?cid=0x0:0xdb7a029b4a480470,
perumahan,Komplek perumahan,RUMAH ARKA,"HG6J+PV3 rt 1, Bihara Hilir, Kec. Awayan, Kabupaten Balangan, Kalimantan Selatan 71664","Bihara Hilir, Kec. Awayan, Kabupaten Balangan",KALIMANTAN SELATAN,71664.0,Indonesia,,,,-2.4382376,115.5321769,https://maps.google.com/?cid=0x0:0x4fac573e70892bd6,
perumahan,Komplek perumahan,Nungka rumah mega,"HH35+MM5 rt1 gang arul, Nungka, Kec. Awayan, Kabupaten Balangan, Kalimantan Selatan 71664","Nungka, Kec. Awayan, Kabupaten Balangan",KALIMANTAN SELATAN,71664.0,Indonesia,,,,-2.4458733,115.5592266,https://maps.google.com/?cid=0x0:0x1385676e7cb5ee58,
perumahan,Komplek perumahan,Keluarga Suriansyah,"HGXM+RJM, RT.01/RW.no. 05, Awayan Hilir, Kec. Awayan, Kabupaten Balangan, Kalimantan Selatan 71664","RT.01/RW.no. 05, Awayan Hilir, Kec. Awayan, Kabupaten Balangan",KALIMANTAN SELATAN,71664.0,Indonesia,,,,-2.4004092,115.5340601,https://maps.google.com/?cid=0x0:0xf630ef62479de4bb,
perumahan,perumahan,Rumah Dika,"JGFP+GPM, Jl. H. Husin, Pudak, Kec. Awayan, Kabupaten Balangan, Kalimantan Selatan 71662","Jl. H. Husin, Pudak, Kec. Awayan, Kabupaten Balangan",KALIMANTAN SELATAN,71662.0,Indonesia,,,,-2.3759115,115.5367347,https://maps.google.com/?cid=0x0:0xfbe93699ac0e135a,
perumahan,Rumah Kayu,Arsat,"Ambakiyang, Kec. Awayan, Kabupaten Balangan, Kalimantan Selatan 71664","Kec. Awayan, Kabupaten Balangan",KALIMANTAN SELATAN,71664.0,Indonesia,,,,-2.4114591,115.5977123,https://maps.google.com/?cid=0x0:0xcb5a4c033bc32c67,
perumahan,Pembangunan Perumahan,Rumah Mahmud,"HG4R+V5Q, Unnamed Road, Sungai Pumpung, Kec. Awayan, Kabupaten Balangan, Kalimantan Selatan 71664","Unnamed Road, Sungai Pumpung, Kec. Awayan, Kabupaten Balangan",KALIMANTAN SELATAN,71664.0,Indonesia,,,,-2.4427875,115.5404844,https://maps.google.com/?cid=0x0:0x84801a5de3ddd3ed,
perumahan,perumahan,RhyNurNurul,"HGMP+JCH, Badalungga, Kec. Awayan, Kabupaten Balangan, Kalimantan Selatan 71664","Badalungga, Kec. Awayan, Kabupaten Balangan",KALIMANTAN SELATAN,71664.0,Indonesia,,,,-2.4156444,115.5360685,https://maps.google.com/?cid=0x0:0xb25152aedd893133,
perumahan,perumahan,Marsil,"HGCR+J9, Merah, Kec. Awayan, Kabupaten Balangan, Kalimantan Selatan","Kabupaten Balangan, Kalimantan Selatan",KALIMANTAN SELATAN,,Indonesia,,,,-2.428399,115.540891,https://maps.google.com/?cid=0x0:0x66f984c27dcbfc5d,
perumahan,Komplek perumahan,aman ganal,"JG78+HRP, Pudak, Kec. Awayan, Kabupaten Balangan, Kalimantan Selatan 71662","Pudak, Kec. Awayan, Kabupaten Balangan",KALIMANTAN SELATAN,71662.0,Indonesia,,,,-2.3861463,115.5177616,https://maps.google.com/?cid=0x0:0x1d63dd3f31731f13,
perumahan,Komplek perumahan,Rumah Makhliansyah_Abah Laura,"Jalan Desa Merah No.RT.02, Merah, Kec. Awayan, Kabupaten Balangan, Kalimantan Selatan 71664","Merah, Kec. Awayan, Kabupaten Balangan",KALIMANTAN SELATAN,71664.0,Indonesia,,,,-2.4286475,115.5236968,https://maps.google.com/?cid=0x0:0xf744ef491c8c889d,
perumahan,Pembangunan Perumahan,Hajihandak,"JG3G+6QG, Awayan Hilir, Kec. Awayan, Kabupaten Balangan, Kalimantan Selatan 71664","Awayan Hilir, Kec. Awayan, Kabupaten Balangan",KALIMANTAN SELATAN,71664.0,Indonesia,,,,-2.396621,115.5275072,https://maps.google.com/?cid=0x0:0xd4190fee9089d742,
perumahan,Kantor Pemerintah,Desa Tawahan kabupaten Balangan,"JHHC+Q9F, Tundi, Kec. Awayan, Kabupaten Balangan, Kalimantan Selatan","Kabupaten Balangan, Kalimantan Selatan",KALIMANTAN SELATAN,,Indonesia,,,,-2.3705611,115.5709101,https://maps.google.com/?cid=0x0:0x143b884c4a0728b4,
perumahan,Kantor Pemerintah,Desa langkap Awayan dusun Dayak pitap,"HJ5J+5C4, Simpang Nadung, Kec. Awayan, Kabupaten Balangan, Kalimantan Selatan","Kabupaten Balangan, Kalimantan Selatan",KALIMANTAN SELATAN,,Indonesia,,,,-2.4421214,115.6310765,https://maps.google.com/?cid=0x0:0x4569cb1ddc4a7fbb,
perumahan,Komplek perumahan,Rumah riduan,"desa nungka rt 02, Bihara Hilir, Kec. Awayan, Kabupaten Balangan, Kalimantan Selatan 71664","Bihara Hilir, Kec. Awayan, Kabupaten Balangan",KALIMANTAN SELATAN,71664.0,Indonesia,,,,-2.4460174,115.5410366,https://maps.google.com/?cid=0x0:0xed6aeea363a8d5ea,
perumahan,Komplek perumahan,Rasidah / Iyan,"Desa Ambakiang No.RT, 2, Sikontan, Kec. Awayan, Kabupaten Balangan, Kalimantan Selatan","Kabupaten Balangan, Kalimantan Selatan",KALIMANTAN SELATAN,,Indonesia,,,,-2.3982489,115.5671306,https://maps.google.com/?cid=0x0:0x39e3d27a5cc3df67,
perumahan,Komplek perumahan,Rumah Ariel,"HG4Q+FQG, Bihara, Kec. Awayan, Kabupaten Balangan, Kalimantan Selatan","Kabupaten Balangan, Kalimantan Selatan",KALIMANTAN SELATAN,,Indonesia,,,,-2.4438216,115.5394431,https://maps.google.com/?cid=0x0:0xa06af4429e0490b2,
perumahan,Perhimpunan Pengembang Perumahan,Posko Bpk T.A.P tiga benua,"JH27+H9M, Sikontan, Kec. Awayan, Kabupaten Balangan, Kalimantan Selatan 71664","Sikontan, Kec. Awayan, Kabupaten Balangan",KALIMANTAN SELATAN,71664.0,Indonesia,,,,-2.3985288,115.5634371,https://maps.google.com/?cid=0x0:0x44c3754f699125d,
perumahan,perumahan,Kec. Awayan,"Kabupaten Balangan, Kalimantan Selatan","Kabupaten Balangan, Kalimantan Selatan",KALIMANTAN SELATAN,,Indonesia,,,,-2.4131684,115.5291259,https://maps.google.com/?cid=0x0:0x383c814bc1fe5fe6,
perumahan,perumahan,Rumah zidan,"HGFM+G5C, Merah, Kec. Awayan, Kabupaten Balangan, Kalimantan Selatan 71664","Merah, Kec. Awayan, Kabupaten Balangan",KALIMANTAN SELATAN,71664.0,Indonesia,,,,-2.4262707,115.5329231,https://maps.google.com/?cid=0x0:0xbfebc8b1e0009bb1,
perumahan,perumahan,Batu Mandi,"Kec. Batu Mandi, Kabupaten Balangan, Kalimantan Selatan","Kabupaten Balangan, Kalimantan Selatan",KALIMANTAN SELATAN,,Indonesia,,,,-2.4106555,115.4141193,https://maps.google.com/?cid=0x0:0x6f0ce48d97cc3912,
perumahan,Pembangunan Perumahan,Rumah Saulin,"JC3X+4R3, Mantimin, Kec. Batu Mandi, Kabupaten Balangan, Kalimantan Selatan 71663","Mantimin, Kec. Batu Mandi, Kabupaten Balangan",KALIMANTAN SELATAN,71663.0,Indonesia,,,,-2.3985833,115.4496783,https://maps.google.com/?cid=0x0:0xca6e16fcf655298b,
perumahan,Komplek perumahan,MUNDRANG,"JC2X+WVM, Jl. A. Yani, MUNDRANG, Mantimin, Kec. Batu Mandi, Kabupaten Balangan, Kalimantan Selatan 71663","Jl. A. Yani, MUNDRANG, Mantimin, Kec. Batu Mandi, Kabupaten Balangan",KALIMANTAN SELATAN,71663.0,Indonesia,,,,-2.3976524,115.4496643,https://maps.google.com/?cid=0x0:0x60702bd223932df9,
perumahan,Pembangunan Perumahan,The buruy,"JF42+86C, Jl. A. Yani, Mantimin, Kec. Batu Mandi, Kabupaten Balangan, Kalimantan Selatan 71663","Jl. A. Yani, Mantimin, Kec. Batu Mandi, Kabupaten Balangan",KALIMANTAN SELATAN,71663.0,Indonesia,,,,-2.3944607,115.4504537,https://maps.google.com/?cid=0x0:0x4650edc2fdc4bbe7,
perumahan,Komplek perumahan,Batumandi,"GJGC+FHR, Auh, Kec. Tebing Tinggi, Kabupaten Balangan, Kalimantan Selatan","Kabupaten Balangan, Kalimantan Selatan",KALIMANTAN SELATAN,,Indonesia,,,,-2.4737654,115.6213932,https://maps.google.com/?cid=0x0:0x8b38abbb5b6bc29c,
perumahan,Balai Pertemuan Desa,Desa timbun tulang,"HCRJ+VRR, Batu Mandi, Kec. Batu Mandi, Kabupaten Balangan, Kalimantan Selatan 71663","Batu Mandi, Kec. Batu Mandi, Kabupaten Balangan",KALIMANTAN SELATAN,71663.0,Indonesia,,,,-2.4077504,115.4320229,https://maps.google.com/?cid=0x0:0x72d4fa393e3ef5ee,
perumahan,Komplek perumahan,"Dusun Teluk Batu Desa Tembawang Panjang, Kec Nanga Pinoh","H9FX+8PM desa tembawang panjang, Tlk. Mesjid, Kec. Batu Mandi, Kabupaten Balangan, Kalimantan Selatan 71663","Tlk. Mesjid, Kec. Batu Mandi, Kabupaten Balangan",KALIMANTAN SELATAN,71663.0,Indonesia,,,,-2.4266654,115.3993084,https://maps.google.com/?cid=0x0:0x53ca4dd9cd70badd,
perumahan,Komplek perumahan,Rumah Rafboys,"Jl. A. Yani No.232, Timbun Tulang, Kec. Batu Mandi, Kabupaten Balangan, Kalimantan Selatan 71663","Timbun Tulang, Kec. Batu Mandi, Kabupaten Balangan",KALIMANTAN SELATAN,71663.0,Indonesia,,,,-2.4317625,115.4216496,https://maps.google.com/?cid=0x0:0x6923150213019191,
perumahan,Masjid,LDII Banua Hanyar,"JC2P+RF5, RT.1, Banua Hanyar, Kec. Batu Mandi, Kabupaten Balangan, Kalimantan Selatan 71663","RT.1, Banua Hanyar, Kec. Batu Mandi, Kabupaten Balangan",KALIMANTAN SELATAN,71663.0,Indonesia, 085345760393,,,-2.3979971,115.4362407,https://maps.google.com/?cid=0x0:0xe9be07773061c999,
perumahan,Markas Besar Suku,Komplek cahaya Muhibbin Balangan,"JF42+J69, Banua Hanyar, Kec. Batu Mandi, Kabupaten Balangan, Kalimantan Selatan 71663","Banua Hanyar, Kec. Batu Mandi, Kabupaten Balangan",KALIMANTAN SELATAN,71663.0,Indonesia,,,,-2.3934673,115.4506009,https://maps.google.com/?cid=0x0:0x68530f72fedd79bf,
perumahan,Minimarket,Pasar Batumandi,"HCFF+8M4, Tlk. Mesjid, Kec. Batu Mandi, Kabupaten Balangan, Kalimantan Selatan 71663","Tlk. Mesjid, Kec. Batu Mandi, Kabupaten Balangan",KALIMANTAN SELATAN,71663.0,Indonesia,,,,-2.4267432,115.4241953,https://maps.google.com/?cid=0x0:0x97828d33e37b19ad,
perumahan,Masjid,Samping masjid Al Muhajirin desa riwa,"HCMJ+P2F, Jl. A. Yani, Batu Mandi, Kec. Batu Mandi, Kabupaten Balangan, Kalimantan Selatan 71663","Jl. A. Yani, Batu Mandi, Kec. Batu Mandi, Kabupaten Balangan",KALIMANTAN SELATAN,71663.0,Indonesia,,,,-2.415483,115.429407,https://maps.google.com/?cid=0x0:0x779adfc1e9e531c2,
perumahan,perumahan,Aman,"HCRJ+VRR, Batu Mandi, Kec. Batu Mandi, Kabupaten Balangan, Kalimantan Selatan 71663","Batu Mandi, Kec. Batu Mandi, Kabupaten Balangan",KALIMANTAN SELATAN,71663.0,Indonesia,,,,-2.4077504,115.4320229,https://maps.google.com/?cid=0x0:0x9b3f2905c0f288eb,
perumahan,Pembangunan Perumahan,FIRDI,"HCGG+34P, Jl. A. Yani, Batu Mandi, Kec. Batu Mandi, Kabupaten Balangan, Kalimantan Selatan 71663","Jl. A. Yani, Batu Mandi, Kec. Batu Mandi, Kabupaten Balangan",KALIMANTAN SELATAN,71663.0,Indonesia,,,,-2.4252025,115.426055,https://maps.google.com/?cid=0x0:0x41908a44f306f687,
perumahan,Komplek perumahan,Siti Rusits,"HCVJ+9PG, Jl. Sutera Ali Adul, Batu Mandi, Kec. Batu Mandi, Kabupaten Balangan, Kalimantan Selatan 71663","Jl. Sutera Ali Adul, Batu Mandi, Kec. Batu Mandi, Kabupaten Balangan",KALIMANTAN SELATAN,71663.0,Indonesia,,,,-2.4066406,115.4318026,https://maps.google.com/?cid=0x0:0x1502f8097e81565f,
perumahan,Rumah Kayu,Bang_yatt,"Jl. Sungai Hanyar No.92, RT.05, Batu Mandi, Kec. Batu Mandi, Kabupaten Balangan, Kalimantan Selatan 71663","RT.05, Batu Mandi, Kec. Batu Mandi, Kabupaten Balangan",KALIMANTAN SELATAN,71663.0,Indonesia, 085771264757,,,-2.4159501,115.4087884,https://maps.google.com/?cid=0x0:0xe365802323a3a98a,
perumahan,perumahan,Kec. Batu Mandi,"Kabupaten Balangan, Kalimantan Selatan","Kabupaten Balangan, Kalimantan Selatan",KALIMANTAN SELATAN,,Indonesia,,,,-2.4077504,115.4320229,https://maps.google.com/?cid=0x0:0xb93b552653d704a2,
perumahan,perumahan,Gudang Panjang,"HFH4+Q3V, Kasai, Kec. Batu Mandi, Kabupaten Balangan, Kalimantan Selatan 71663","Kasai, Kec. Batu Mandi, Kabupaten Balangan",KALIMANTAN SELATAN,71663.0,Indonesia,,,,-2.4205004,115.455164,https://maps.google.com/?cid=0x0:0x2f1aec56455403f8,
perumahan,perumahan,Kalimantan Selatan 71663,Kalimantan Selatan,Kalimantan Selatan,KALIMANTAN SELATAN,,Indonesia,,,,-2.4198707,115.4022706,https://maps.google.com/?cid=0x0:0x41176e2d43c2c021,
perumahan,Komplek perumahan,Rumah usu arif,"HC8C+69M, Timbun Tulang, Kec. Batu Mandi, Kabupaten Balangan, Kalimantan Selatan 71663","Timbun Tulang, Kec. Batu Mandi, Kabupaten Balangan",KALIMANTAN SELATAN,71663.0,Indonesia,,,,-2.4344057,115.4209285,https://maps.google.com/?cid=0x0:0xa91b1e2dfd26675a,
perumahan,Pembangunan Perumahan,Perumahan puri gardena-balangan,"JF9C+9GW, Unnamed Road, Mampari, Kec. Batu Mandi, Kabupaten Balangan, Kalimantan Selatan 71663","Unnamed Road, Mampari, Kec. Batu Mandi, Kabupaten Balangan",KALIMANTAN SELATAN,71663.0,Indonesia, 082254780385,,,-2.3815139,115.4713263,https://maps.google.com/?cid=0x0:0x2c6335b18947208e,
perumahan,Pembangunan Perumahan,R.Rasidah,"JF97+92C, Mampari, Kec. Batu Mandi, Kabupaten Balangan, Kalimantan Selatan 71663","Mampari, Kec. Batu Mandi, Kabupaten Balangan",KALIMANTAN SELATAN,71663.0,Indonesia,,,,-2.3815516,115.4625129,https://maps.google.com/?cid=0x0:0xc6ec09b969112d26,
perumahan,Pembangunan Perumahan,Perumahan Harapan Baru Permai,"JF96+8X6, Unnamed Road, Mampari, Kec. Batu Mandi, Kabupaten Balangan, Kalimantan Selatan 71663","Unnamed Road, Mampari, Kec. Batu Mandi, Kabupaten Balangan",KALIMANTAN SELATAN,71663.0,Indonesia, 082148019516,,,-2.3817135,115.4623926,https://maps.google.com/?cid=0x0:0x997c6b2b85feb5dd,
perumahan,Komplek perumahan,Rumah Noor Paidi,"GFQV+QJ8, Karuh, Kec. Batu Mandi, Kabupaten Balangan, Kalimantan Selatan 71663","Karuh, Kec. Batu Mandi, Kabupaten Balangan",KALIMANTAN SELATAN,71663.0,Indonesia,,,,-2.4605879,115.494081,https://maps.google.com/?cid=0x0:0xcb07c9cfd290eb56,
perumahan,Kantor Perusahaan,Griya mampari permai,"JF62+JQ9, perumahan griya mampari permai, Mampari, Kec. Batu Mandi, Kabupaten Balangan, Kalimantan Selatan 71663","perumahan griya mampari permai, Mampari, Kec. Batu Mandi, Kabupaten Balangan",KALIMANTAN SELATAN,71663.0,Indonesia,,,,-2.3884658,115.4519869,https://maps.google.com/?cid=0x0:0x24714cf351d5a04a,
perumahan,perumahan,Rumah acil ijun,"HF37+46P, Kasai, Kec. Batu Mandi, Kabupaten Balangan, Kalimantan Selatan 71663","Kasai, Kec. Batu Mandi, Kabupaten Balangan",KALIMANTAN SELATAN,71663.0,Indonesia,,,,-2.4472755,115.4626712,https://maps.google.com/?cid=0x0:0xdd5e024e88710944,
perumahan,perumahan,Amat,"JF63+492, Banua Hanyar, Kec. Batu Mandi, Kabupaten Balangan, Kalimantan Selatan 71663","Banua Hanyar, Kec. Batu Mandi, Kabupaten Balangan",KALIMANTAN SELATAN,71663.0,Indonesia,,,,-2.38932,115.4529059,https://maps.google.com/?cid=0x0:0x3f622c612cd45432,
perumahan,Komplek perumahan,Dony Home,"JF63+492, Banua Hanyar, Kec. Batu Mandi, Kabupaten Balangan, Kalimantan Selatan 71663","Banua Hanyar, Kec. Batu Mandi, Kabupaten Balangan",KALIMANTAN SELATAN,71663.0,Indonesia,,,,-2.3892902,115.4536036,https://maps.google.com/?cid=0x0:0xad138f9bf27c8345,
perumahan,Komplek perumahan,Rumah Yuda,"JCMJ+VJJ, Mampari, Kec. Batu Mandi, Kabupaten Balangan, Kalimantan Selatan 71662","Mampari, Kec. Batu Mandi, Kabupaten Balangan",KALIMANTAN SELATAN,71662.0,Indonesia, 083149160167,,,-2.3652999,115.4315227,https://maps.google.com/?cid=0x0:0x19cf6e78072d5620,
perumahan,perumahan,Halong,"Kec. Halong, Kabupaten Balangan, Kalimantan Selatan","Kabupaten Balangan, Kalimantan Selatan",KALIMANTAN SELATAN,,Indonesia,,,,-2.266709,115.6805868,https://maps.google.com/?cid=0x0:0x3dcbc9d8d93c302c,
perumahan,Kantor Pemerintah,Desa Padang Raya,"PM69+HPR, Padang Raya, Kec. Halong, Kabupaten Balangan, Kalimantan Selatan 71666","Padang Raya, Kec. Halong, Kabupaten Balangan",KALIMANTAN SELATAN,71666.0,Indonesia,,,,-2.2885008,115.6692563,https://maps.google.com/?cid=0x0:0xb31b7a5a7e857662,
perumahan,Komplek perumahan,Rumah Gue,"QM48+5RJ, Halong, Kec. Halong, Kabupaten Balangan, Kalimantan Selatan 71666","Halong, Kec. Halong, Kabupaten Balangan",KALIMANTAN SELATAN,71666.0,Indonesia,,,,-2.244318,115.667501,https://maps.google.com/?cid=0x0:0x3459394abd00e05e,
perumahan,Pembangunan Perumahan,Rumah saya,"QM2G+8PJ, Ha'uwai, Kec. Halong, Kabupaten Balangan, Kalimantan Selatan 71666","Ha'uwai, Kec. Halong, Kabupaten Balangan",KALIMANTAN SELATAN,71666.0,Indonesia,,,,-2.2491542,115.6767518,https://maps.google.com/?cid=0x0:0x5d0fbc61d7e1da7e,
perumahan,Rumah Kayu,Rumah,"PMR5+9WX, Binjai Punggal, Kec. Halong, Kabupaten Balangan, Kalimantan Selatan 71666","Binjai Punggal, Kec. Halong, Kabupaten Balangan",KALIMANTAN SELATAN,71666.0,Indonesia,,,,-2.2590103,115.6598444,https://maps.google.com/?cid=0x0:0x9e77fddbf86d8d40,
perumahan,Komplek perumahan,M.badali,"QM2G+XRC, Kapul, Kec. Halong, Kabupaten Balangan, Kalimantan Selatan 71666","Kapul, Kec. Halong, Kabupaten Balangan",KALIMANTAN SELATAN,71666.0,Indonesia,,,,-2.2474395,115.6770598,https://maps.google.com/?cid=0x0:0xeec45be60fbe524f,
perumahan,Komplek perumahan,Rumah sa'adah cantiiikkk,"QM59+QQ7, Desa, RW.3, Ha'uwai, Kec. Halong, Kabupaten Balangan, Kalimantan Selatan 71666","Desa, RW.3, Ha'uwai, Kec. Halong, Kabupaten Balangan",KALIMANTAN SELATAN,71666.0,Indonesia,,,,-2.2405756,115.6694078,https://maps.google.com/?cid=0x0:0xe496404abe227d01,
perumahan,Komplek perumahan,Rumah fatimah,"QM2G+XPQ, Ha'uwai, Kec. Halong, Kabupaten Balangan, Kalimantan Selatan 71666","Ha'uwai, Kec. Halong, Kabupaten Balangan",KALIMANTAN SELATAN,71666.0,Indonesia,,,,-2.2475399,115.6768505,https://maps.google.com/?cid=0x0:0xe3d2f5a849526521,
perumahan,Komplek perumahan,rumah nadia ulfah,"QM6R+4X7, Ha'uwai, Kec. Halong, Kabupaten Balangan, Kalimantan Selatan 71666","Ha'uwai, Kec. Halong, Kabupaten Balangan",KALIMANTAN SELATAN,71666.0,Indonesia,,,,-2.2397147,115.692424,https://maps.google.com/?cid=0x0:0xc7f7c5638d1dd3d2,
perumahan,Komplek perumahan,Rumah nenek Muhammad Askara Gifari,"QM3F+J6P, Ha'uwai, Kec. Halong, Kabupaten Balangan, Kalimantan Selatan 71666","Ha'uwai, Kec. Halong, Kabupaten Balangan",KALIMANTAN SELATAN,71666.0,Indonesia,,,,-2.2469248,115.6729256,https://maps.google.com/?cid=0x0:0x8c785d580f03fa9,
perumahan,Komplek perumahan,mama mahfuz,"jln No.rt 05, Halong, Kec. Halong, Kabupaten Balangan, Kalimantan Selatan 71666","Halong, Kec. Halong, Kabupaten Balangan",KALIMANTAN SELATAN,71666.0,Indonesia,,,,-2.266709,115.6805868,https://maps.google.com/?cid=0x0:0xcd48cec7b3160576,
perumahan,Komplek perumahan,RUMAH BPK SUJANI SYASKIN,"PMQ4+M9V, Halong, Kec. Halong, Kabupaten Balangan, Kalimantan Selatan 71666","Halong, Kec. Halong, Kabupaten Balangan",KALIMANTAN SELATAN,71666.0,Indonesia,,,,-2.2607606,115.6559117,https://maps.google.com/?cid=0x0:0x37d50afedcadbbcc,
perumahan,Komplek perumahan,Rumah septi,"PMXQ+JQP, Kapul, Kec. Halong, Kabupaten Balangan, Kalimantan Selatan 71666","Kapul, Kec. Halong, Kabupaten Balangan",KALIMANTAN SELATAN,71666.0,Indonesia,,,,-2.2509223,115.6894647,https://maps.google.com/?cid=0x0:0xbb208d00ce07fe31,
perumahan,Pemasok Pintu,Toko lemari,"PM89+3V4, Halong, Kec. Halong, Kabupaten Balangan, Kalimantan Selatan 71666","Halong, Kec. Halong, Kabupaten Balangan",KALIMANTAN SELATAN,71666.0,Indonesia,,,,-2.2851822,115.6696972,https://maps.google.com/?cid=0x0:0x3b5d376ff316b5ff,
perumahan,Komplek perumahan,Rumah kipli,"QM95+J4P, Suryatama, Kec. Halong, Kabupaten Balangan, Kalimantan Selatan 71666","Suryatama, Kec. Halong, Kabupaten Balangan",KALIMANTAN SELATAN,71666.0,Indonesia,,,,-2.2311495,115.6581264,https://maps.google.com/?cid=0x0:0x896101078b3ba5bc,
perumahan,perumahan,Kalimantan Selatan 71666,"Kec. Halong, Kabupaten Balangan, Kalimantan Selatan","Kabupaten Balangan, Kalimantan Selatan",KALIMANTAN SELATAN,,Indonesia,,,,-2.1814492,115.7101789,https://maps.google.com/?cid=0x0:0x67e1657e047c87a3,
perumahan,Komplek perumahan,Rumah Hamka,"PJVM+MR5, Baruh Panyambaran, Kec. Halong, Kabupaten Balangan, Kalimantan Selatan 71665","Baruh Panyambaran, Kec. Halong, Kabupaten Balangan",KALIMANTAN SELATAN,71665.0,Indonesia,,,,-2.2551911,115.6344449,https://maps.google.com/?cid=0x0:0x56565483d70f8313,
perumahan,Komplek perumahan,Rumah Ku,"RM63+CCH, Gn. Riut, Kec. Halong, Kabupaten Balangan, Kalimantan Selatan 71665","Gn. Riut, Kec. Halong, Kabupaten Balangan",KALIMANTAN SELATAN,71665.0,Indonesia,,,,-2.1888398,115.6536339,https://maps.google.com/?cid=0x0:0x400456a4f6be9fab,
perumahan,Perumahan,Hj. Masdia,"PJVP+7V2, Bangkal, Kec. Halong, Kabupaten Balangan, Kalimantan Selatan 71665","Bangkal, Kec. Halong, Kabupaten Balangan",KALIMANTAN SELATAN,71665.0,Indonesia, 085251581585,,,-2.2568682,115.6371519,https://maps.google.com/?cid=0x0:0x61d5cf6af5377900,
perumahan,Perhimpunan Pengembang Perumahan,Rumah Ma Nika,"PJQR+WV6, Binju, Kec. Halong, Kabupaten Balangan, Kalimantan Selatan 71665","Binju, Kec. Halong, Kabupaten Balangan",KALIMANTAN SELATAN,71665.0,Indonesia,,,,-2.2602157,115.6421448,https://maps.google.com/?cid=0x0:0x41927d07e3d05765,
perumahan,Pembangunan Perumahan,Mbah men,"QMF4+GW2, Karya, Kec. Halong, Kabupaten Balangan, Kalimantan Selatan 71666","Karya, Kec. Halong, Kabupaten Balangan",KALIMANTAN SELATAN,71666.0,Indonesia,,,,-2.2262675,115.6577613,https://maps.google.com/?cid=0x0:0x9ce578b2b71bfb2a,
perumahan,perumahan,Rumah Halimah bahan hulu halong,"Bahan hulu, Jl. Datuk Kandang H., Bangkal, Kec. Halong, Kabupaten Balangan, Kalimantan Selatan 71665","Jl. Datuk Kandang H., Bangkal, Kec. Halong, Kabupaten Balangan",KALIMANTAN SELATAN,71665.0,Indonesia,,,,-2.2552391,115.6312616,https://maps.google.com/?cid=0x0:0x35b83f6687ed7c71,
perumahan,Komplek perumahan,Rumah Pak Barowi,"QMF4+GW2, Karya, Kec. Halong, Kabupaten Balangan, Kalimantan Selatan 71666","Karya, Kec. Halong, Kabupaten Balangan",KALIMANTAN SELATAN,71666.0,Indonesia,,,,-2.2262293,115.6572873,https://maps.google.com/?cid=0x0:0xd7efa82df767484,
perumahan,Komplek perumahan,R. Purwanto,"PJJQ+J2V, Binjai Punggal, Kec. Halong, Kabupaten Balangan, Kalimantan Selatan 71666","Binjai Punggal, Kec. Halong, Kabupaten Balangan",KALIMANTAN SELATAN,71666.0,Indonesia,,,,-2.2683875,115.6375469,https://maps.google.com/?cid=0x0:0x3f3634b00eac2d1f,
perumahan,Pembangunan Perumahan,Kec. Halong desa hauwai,"QM6R+4X7, Ha'uwai, Kec. Halong, Kabupaten Balangan, Kalimantan Selatan","Kabupaten Balangan, Kalimantan Selatan",KALIMANTAN SELATAN,,Indonesia,,,,-2.2397147,115.692424,https://maps.google.com/?cid=0x0:0xa66cef5e6a8bb648,
perumahan,Pembangunan Perumahan,Hasan Martabak,"PMM4+Q3, Binjai Punggal, Kec. Halong, Kabupaten Balangan, Kalimantan Selatan","Kabupaten Balangan, Kalimantan Selatan",KALIMANTAN SELATAN,,Indonesia,,,,-2.2655109,115.6551569,https://maps.google.com/?cid=0x0:0x2669788a3cefd2a3,
perumahan,Komplek perumahan,Abdullah,"MP92+HG7, Mauya, Kec. Halong, Kabupaten Balangan, Kalimantan Selatan 71666","Mauya, Kec. Halong, Kabupaten Balangan",KALIMANTAN SELATAN,71666.0,Indonesia,,,,-2.3310751,115.7013016,https://maps.google.com/?cid=0x0:0xd66ef595df72e13e,
perumahan,Kantor Pemerintah,Desa mantuyan,"MM8G+VRR, Mantuyan, Kec. Halong, Kabupaten Balangan, Kalimantan Selatan","Kabupaten Balangan, Kalimantan Selatan",KALIMANTAN SELATAN,,Indonesia,,,,-2.3327618,115.6770189,https://maps.google.com/?cid=0x0:0xb6bfb164cf90a62a,
perumahan,Pembangunan Perumahan,Perumahan puri gardena-balangan,"JF9C+9GW, Unnamed Road, Mampari, Kec. Batu Mandi, Kabupaten Balangan, Kalimantan Selatan 71663","Unnamed Road, Mampari, Kec. Batu Mandi, Kabupaten Balangan",KALIMANTAN SELATAN,71663.0,Indonesia, 082254780385,,,-2.3815139,115.4713263,https://maps.google.com/?cid=0x0:0x2c6335b18947208e,
perumahan,Pembangunan Perumahan,Desa juai,"MF75+GWM, Halubau Utara, Kec. Paringin Sel., Kabupaten Balangan, Kalimantan Selatan","Kabupaten Balangan, Kalimantan Selatan",KALIMANTAN SELATAN,,Indonesia,,,,-2.3361693,115.459805,https://maps.google.com/?cid=0x0:0x6fa3368ead06e7df,
perumahan,Komplek perumahan,RYAN PARABOLA 93,"Sungai Cuka, Kec. Satui, Kabupaten Tanah Bumbu, Kalimantan Selatan 72275","Kec. Satui, Kabupaten Tanah Bumbu",KALIMANTAN SELATAN,72275.0,Indonesia,,,,-3.8012352,115.3754219,https://maps.google.com/?cid=0x0:0x4f0508501c2bad6e,
perumahan,Pembangunan Perumahan,Rumah Acil idai,"PHRX+V25, Jl. Paringin, Mungkur Uyam, Kec. Juai, Kabupaten Balangan, Kalimantan Selatan 71665","Jl. Paringin, Mungkur Uyam, Kec. Juai, Kabupaten Balangan",KALIMANTAN SELATAN,71665.0,Indonesia,,,,-2.2578624,115.5976087,https://maps.google.com/?cid=0x0:0x8b517f6943854646,
perumahan,Komplek perumahan,Yusuf efendy,"PJW4+MR8, Jl. Datuk Kandang H., Tlk. Bayur, Kec. Juai, Kabupaten Balangan, Kalimantan Selatan 71665","Jl. Datuk Kandang H., Tlk. Bayur, Kec. Juai, Kabupaten Balangan",KALIMANTAN SELATAN,71665.0,Indonesia,,,,-2.2533475,115.6070779,https://maps.google.com/?cid=0x0:0x94a7fb87ad5bff9f,
perumahan,Pembangunan Perumahan,Rumah syahman,"PHPR+PQ3, Jl. Datuk Kandang H., Tlk. Bayur, Kec. Juai, Kabupaten Balangan, Kalimantan Selatan 71665","Jl. Datuk Kandang H., Tlk. Bayur, Kec. Juai, Kabupaten Balangan",KALIMANTAN SELATAN,71665.0,Indonesia,,,,-2.2632271,115.5918605,https://maps.google.com/?cid=0x0:0xf8aa1b807e40d46b,
perumahan,Komplek perumahan,Rumah Bp Tugimin,"PJVH+VG8, Galumbang, Kec. Juai, Kabupaten Balangan, Kalimantan Selatan 71665","Galumbang, Kec. Juai, Kabupaten Balangan",KALIMANTAN SELATAN,71665.0,Indonesia,,,,-2.2553486,115.6288365,https://maps.google.com/?cid=0x0:0xd52bbf230d30b06e,
perumahan,Toko umum,"Rumah mbakal H,masran","PJV4+M22, Galumbang, Kec. Juai, Kabupaten Balangan, Kalimantan Selatan 71665","Galumbang, Kec. Juai, Kabupaten Balangan",KALIMANTAN SELATAN,71665.0,Indonesia,,,,-2.256115,115.60384,https://maps.google.com/?cid=0x0:0xc06946f8b31d4eb8,
perumahan,Tukang Jahit,Tukang jahit,"Jl. Datuk Kandang H. No.53, Galumbang, Kec. Juai, Kabupaten Balangan, Kalimantan Selatan 71665","Galumbang, Kec. Juai, Kabupaten Balangan",KALIMANTAN SELATAN,71665.0,Indonesia,,,,-2.2545098,115.6259025,https://maps.google.com/?cid=0x0:0x4d8dea82236384e0,
perumahan,Asosiasi/organisasi,"Rumah Abang Adam, pecinta alam / teknisi parabola","Desa Galumbang No.RT. 03, Tlk. Bayur, Kec. Juai, Kabupaten Balangan, Kalimantan Selatan 71665","Tlk. Bayur, Kec. Juai, Kabupaten Balangan",KALIMANTAN SELATAN,71665.0,Indonesia,,,,-2.2509913,115.6055587,https://maps.google.com/?cid=0x0:0x1e4824a16a63dc28,
perumahan,perumahan,Kalimantan Selatan 71665,"Kec. Juai, Kabupaten Balangan, Kalimantan Selatan","Kabupaten Balangan, Kalimantan Selatan",KALIMANTAN SELATAN,,Indonesia,,,,-2.2728607,115.5917918,https://maps.google.com/?cid=0x0:0x782a9ff056e00fad,
perumahan,perumahan,Hotel ashofa syariah tabalong,"Jl. A. Yani, Maburai, Kec. Murung Pudak, Kabupaten Tabalong, Kalimantan Selatan 71571","Maburai, Kec. Murung Pudak, Kabupaten Tabalong",KALIMANTAN SELATAN,71571.0,Indonesia, 085920318218,,,-2.1995946,115.4454434,https://maps.google.com/?cid=0x0:0x47561071467609e2,
perumahan,perumahan,Kalimantan Selatan 71661,"Kec. Lampihong, Kabupaten Balangan, Kalimantan Selatan","Kabupaten Balangan, Kalimantan Selatan",KALIMANTAN SELATAN,,Indonesia,,,,-2.3761607,115.3430203,https://maps.google.com/?cid=0x0:0xcd5508eff3edd85b,
perumahan,perumahan,Rumah AMELIA,"M9XV+77J, Lajar, Kec. Lampihong, Kabupaten Balangan, Kalimantan Selatan 71561","Lajar, Kec. Lampihong, Kabupaten Balangan",KALIMANTAN SELATAN,71561.0,Indonesia,,,,-2.300995,115.393311,https://maps.google.com/?cid=0x0:0x7952349ca6274b0a,
perumahan,Komplek perumahan,LPK anugerah madani,"Jl. Lampihong, Lok Panginangan, Kec. Lampihong, Kabupaten Balangan, Kalimantan Selatan 71661","Lok Panginangan, Kec. Lampihong, Kabupaten Balangan",KALIMANTAN SELATAN,71661.0,Indonesia,,,,-2.3405349,115.3766242,https://maps.google.com/?cid=0x0:0x6a03c966e214d54b,
perumahan,Komplek perumahan,Jimmi Zaenal S,"Jln, Sungai Awang, Kec. Lampihong, Kabupaten Balangan, Kalimantan Selatan 71661","Sungai Awang, Kec. Lampihong, Kabupaten Balangan",KALIMANTAN SELATAN,71661.0,Indonesia, 082352542394,,,-2.3251978,115.3865139,https://maps.google.com/?cid=0x0:0xde23f83ea152f63a,
perumahan,Gedung Apartemen,Rumah BOBOHO,"M98H+47M, Lok Panginangan, Kec. Lampihong, Kabupaten Balangan, Kalimantan Selatan 71661","Lok Panginangan, Kec. Lampihong, Kabupaten Balangan",KALIMANTAN SELATAN,71661.0,Indonesia,,,,-2.3347604,115.3780257,https://maps.google.com/?cid=0x0:0xa9c489eaa7df1f76,
perumahan,Kantor Perusahaan,Batu Merah,"J9RQ+VPR, Jl. Sutera Ali Adul, RT.03/RW.No 157, Batu merah, Kec. Lampihong, Kabupaten Balangan, Kalimantan Selatan 71661","Jl. Sutera Ali Adul, RT.03/RW.No 157, Batu merah, Kec. Lampihong, Kabupaten Balangan",KALIMANTAN SELATAN,71661.0,Indonesia,,,,-2.3578812,115.388755,https://maps.google.com/?cid=0x0:0x535c7ab45efd894a,
perumahan,perumahan,Rumah Sam'ani,"Sungai Awang, Kec. Lampihong, Kabupaten Balangan, Kalimantan Selatan 71662","Kec. Lampihong, Kabupaten Balangan",KALIMANTAN SELATAN,71662.0,Indonesia,,,,-2.3200642,115.4037517,https://maps.google.com/?cid=0x0:0x4dedeee0064a45ae,
perumahan,perumahan,Aminudinamin,"MC83+HGR, Simpang Tiga, Kec. Lampihong, Kabupaten Balangan, Kalimantan Selatan","Kabupaten Balangan, Kalimantan Selatan",KALIMANTAN SELATAN,,Indonesia,,,,-2.3335032,115.4037517,https://maps.google.com/?cid=0x0:0xf1d6b021174a737a,
perumahan,Komplek perumahan,Rumah fiqri,"M9QP+6X3, Jln.Kh.kurdi, Lajar, Kec. Lampihong, Kabupaten Balangan, Kalimantan Selatan 71661","Jln.Kh.kurdi, Lajar, Kec. Lampihong, Kabupaten Balangan",KALIMANTAN SELATAN,71661.0,Indonesia,,,,-2.3119721,115.3874393,https://maps.google.com/?cid=0x0:0xbcca29e86b4ca2a8,
perumahan,Toko Perlengkapan Rumah,Lampihong selatan,"M928+7W2, Panaitan, Kec. Lampihong, Kabupaten Balangan, Kalimantan Selatan 71661","Panaitan, Kec. Lampihong, Kabupaten Balangan",KALIMANTAN SELATAN,71661.0,Indonesia,,,,-2.3491568,115.3668395,https://maps.google.com/?cid=0x0:0xdf85a1f57c4baac2,
perumahan,Komplek perumahan,Rumah PARISYA,"RT.02/RW.No.72, Lampihong Sel., Kec. Lampihong, Kabupaten Balangan, Kalimantan Selatan","Kabupaten Balangan, Kalimantan Selatan",KALIMANTAN SELATAN,,Indonesia,,,,-2.3449933,115.3889403,https://maps.google.com/?cid=0x0:0x8a21878f6223b895,
perumahan,Komplek perumahan,Tempat pengantin pria,"J9Q4+2JH, Tampang, Kec. Lampihong, Kabupaten Balangan, Kalimantan Selatan 71661","Tampang, Kec. Lampihong, Kabupaten Balangan",KALIMANTAN SELATAN,71661.0,Indonesia,,,,-2.3624479,115.3566046,https://maps.google.com/?cid=0x0:0x421a32bde98a31a2,
perumahan,Komplek perumahan,Rumah Pratu Rizki Amanda,"J8CQ+HCX, Jl. Paringin, Matang Lurus, Kec. Lampihong, Kabupaten Balangan, Kalimantan Selatan 71661","Jl. Paringin, Matang Lurus, Kec. Lampihong, Kabupaten Balangan",KALIMANTAN SELATAN,71661.0,Indonesia,,,,-2.3785153,115.3386124,https://maps.google.com/?cid=0x0:0xe7bb25088012431a,
perumahan,Komplek perumahan,Rumah Parisya,"M929+754, Jl. Pakapuran Utara, Panaitan, Kec. Lampihong, Kabupaten Balangan, Kalimantan Selatan 71661","Jl. Pakapuran Utara, Panaitan, Kec. Lampihong, Kabupaten Balangan",KALIMANTAN SELATAN,71661.0,Indonesia,,,,-2.3492312,115.3679261,https://maps.google.com/?cid=0x0:0x7d8b769211c0ca15,
perumahan,Pembangunan Perumahan,hariyati,"J87M+G8J, Tanah Habang Kanan, Kec. Lampihong, Kabupaten Balangan, Kalimantan Selatan 71661","Tanah Habang Kanan, Kec. Lampihong, Kabupaten Balangan",KALIMANTAN SELATAN,71661.0,Indonesia,,,,-2.3861655,115.3332642,https://maps.google.com/?cid=0x0:0xf3da5fef4c5f08c,
perumahan,Komplek perumahan,Rumah Upir,"J8FV+M3X, Jl. Paringin, RT.01, Desa Kupang, Kec. Lampihong, Kabupaten Balangan, Kalimantan Selatan 71661","Jl. Paringin, RT.01, Desa Kupang, Kec. Lampihong, Kabupaten Balangan",KALIMANTAN SELATAN,71661.0,Indonesia,,,,-2.3757726,115.3427384,https://maps.google.com/?cid=0x0:0x3964b680597d5140,
perumahan,Tempat acara,Gesung serbaguna,"M95G+96G, Unnamed Road, Lok Panginangan, Kec. Lampihong, Kabupaten Balangan, Kalimantan Selatan 71661","Unnamed Road, Lok Panginangan, Kec. Lampihong, Kabupaten Balangan",KALIMANTAN SELATAN,71661.0,Indonesia,,,,-2.3415676,115.3755632,https://maps.google.com/?cid=0x0:0x3794e5c28460ada1,
perumahan,Komplek perumahan,Rusiyana_uci,"J86C+3WH, Jl.penghulu wahid, Matang Lurus, Kec. Lampihong, Kabupaten Balangan, Kalimantan Selatan 71661","Jl.penghulu wahid, Matang Lurus, Kec. Lampihong, Kabupaten Balangan",KALIMANTAN SELATAN,71661.0,Indonesia,,,,-2.3901776,115.3221613,https://maps.google.com/?cid=0x0:0x41ddfad7df1e6c1e,
perumahan,Komplek perumahan,Rumah AYUP,"M9VR+4VR, Lajar, Kec. Lampihong, Kabupaten Balangan, Kalimantan Selatan","Kabupaten Balangan, Kalimantan Selatan",KALIMANTAN SELATAN,,Indonesia,,,,-2.3071405,115.3921529,https://maps.google.com/?cid=0x0:0xf6644397bf8aa086,
perumahan,Komplek perumahan,Rumah Bintuha,"M938+7R, Panaitan, Kec. Lampihong, Kabupaten Balangan, Kalimantan Selatan","Kabupaten Balangan, Kalimantan Selatan",KALIMANTAN SELATAN,,Indonesia,,,,-2.3468731,115.3670488,https://maps.google.com/?cid=0x0:0xe17453346c635cb7,
perumahan,perumahan,Kandang Jaya,"J8CQ+98M, Jalan Raya Amuntai Jl. Paringin, Matang Lurus, Kec. Lampihong, Kabupaten Balangan, Kalimantan Selatan 71661","Jalan Raya Amuntai Jl. Paringin, Matang Lurus, Kec. Lampihong, Kabupaten Balangan",KALIMANTAN SELATAN,71661.0,Indonesia,,,,-2.3790265,115.3382879,https://maps.google.com/?cid=0x0:0x1d19065e5dc5ac66,
perumahan,Komplek perumahan,Rumah,"J9X8+R4M, Jl. Pakapuran Utara, Panaitan, Kec. Lampihong, Kabupaten Balangan, Kalimantan Selatan 71661","Jl. Pakapuran Utara, Panaitan, Kec. Lampihong, Kabupaten Balangan",KALIMANTAN SELATAN,71661.0,Indonesia,,,,-2.3503364,115.3652782,https://maps.google.com/?cid=0x0:0x2f4752dbef22fc17,
perumahan,perumahan,Kalimantan Selatan 71614,"Kec. Paringin, Kabupaten Balangan, Kalimantan Selatan","Kabupaten Balangan, Kalimantan Selatan",KALIMANTAN SELATAN,,Indonesia,,,,-2.3177773,115.4644708,https://maps.google.com/?cid=0x0:0x761e498857a54f05,
perumahan,Pembangunan Perumahan,Komplek Balangan Permai Haur Batu,"MFJ8+JV5, Jl. Balangan Permai, Paringin Kota, Kec. Paringin, Kabupaten Balangan, Kalimantan Selatan 71614","Jl. Balangan Permai, Paringin Kota, Kec. Paringin, Kabupaten Balangan",KALIMANTAN SELATAN,71614.0,Indonesia,,,,-2.3181628,115.4669035,https://maps.google.com/?cid=0x0:0x981e59b6560ac154,
perumahan,Pembangunan Perumahan,Kantor Perumahan Haur Batu Permai,"jalan jendral A yani Haur Batu, RT.15/RW.05, Paringin Kota, Kec. Paringin Sel., Kabupaten Balangan, Kalimantan Selatan 71614","RT.15/RW.05, Paringin Kota, Kec. Paringin Sel., Kabupaten Balangan",KALIMANTAN SELATAN,71614.0,Indonesia, 082154262049,,,-2.3099565,115.4682334,https://maps.google.com/?cid=0x0:0x433cc971e28bcfe5,
perumahan,Komplek perumahan,Perumahan Balangan Residence,"MF44+H6F, Lingsir, Kec. Paringin Sel., Kabupaten Balangan, Kalimantan Selatan 71612","Lingsir, Kec. Paringin Sel., Kabupaten Balangan",KALIMANTAN SELATAN,71612.0,Indonesia, 085349229223,,,-2.3435582,115.4555579,https://maps.google.com/?cid=0x0:0xf8a058e5c900e6de,
perumahan,Markas Besar Suku,Perumahan Cahaya.M.Residence,"Rica, kel part, Bungin, Kec. Paringin Sel., Kabupaten Balangan, Kalimantan Selatan 71611","kel part, Bungin, Kec. Paringin Sel., Kabupaten Balangan",KALIMANTAN SELATAN,71611.0,Indonesia,,,,-2.3310563,115.4635231,https://maps.google.com/?cid=0x0:0x76afa822d55b4812,
perumahan,Pembangunan Perumahan,Perumahan Raditiya,"MFP9+FP3, Paringin Kota, Kec. Paringin, Kabupaten Balangan, Kalimantan Selatan 71662","Paringin Kota, Kec. Paringin, Kabupaten Balangan",KALIMANTAN SELATAN,71662.0,Indonesia,,,,-2.3138715,115.4692955,https://maps.google.com/?cid=0x0:0x5f5763dd84982e88,
perumahan,Komplek perumahan,Perumahan raditiya 2,"MFJ8+2GV, Jl. A. Yani, Paringin Kota, Kec. Paringin Sel., Kabupaten Balangan, Kalimantan Selatan 71614","Jl. A. Yani, Paringin Kota, Kec. Paringin Sel., Kabupaten Balangan",KALIMANTAN SELATAN,71614.0,Indonesia,,,,-2.3198843,115.4663013,https://maps.google.com/?cid=0x0:0xd55745af1b8290e9,
perumahan,Pembangunan Perumahan,Perumahan Cahaya Muhibbin,"MFF8+H46, Paringin Kota, Kec. Paringin, Kabupaten Balangan, Kalimantan Selatan 71614","Paringin Kota, Kec. Paringin, Kabupaten Balangan",KALIMANTAN SELATAN,71614.0,Indonesia,,,,-2.3260807,115.4652615,https://maps.google.com/?cid=0x0:0x10132c2bca1c55b5,
perumahan,Komplek perumahan,Balangan,"MFPG+QGG, Paringin Kota, Kec. Paringin, Kabupaten Balangan, Kalimantan Selatan","Kabupaten Balangan, Kalimantan Selatan",KALIMANTAN SELATAN,,Indonesia,,,,-2.3130734,115.4763169,https://maps.google.com/?cid=0x0:0x9a4dbcc5c2beffe5,
perumahan,Komplek perumahan,Perumahan Pondok Indah V Balangan,"MFJ8+CHW, Jl. A. Yani, Paringin Kota, Kec. Paringin, Kabupaten Balangan, Kalimantan Selatan 71614","Jl. A. Yani, Paringin Kota, Kec. Paringin, Kabupaten Balangan",KALIMANTAN SELATAN,71614.0,Indonesia, 081389232232,,,-2.3188829,115.4664498,https://maps.google.com/?cid=0x0:0xb051e1761bef8617,
perumahan,Komplek perumahan,Rumah ufik,"MFJ8+67J, Jl. Balangan Permai, Paringin Kota, Kec. Paringin, Kabupaten Balangan, Kalimantan Selatan 71614","Jl. Balangan Permai, Paringin Kota, Kec. Paringin, Kabupaten Balangan",KALIMANTAN SELATAN,71614.0,Indonesia,,,,-2.3194628,115.4655845,https://maps.google.com/?cid=0x0:0x377f246a511dbcd8,
perumahan,Pembangunan Perumahan,Komplek Balangan Permai,"MFJ8+PWG, Paringin Kota, Kec. Paringin, Kabupaten Balangan, Kalimantan Selatan 71614","Paringin Kota, Kec. Paringin, Kabupaten Balangan",KALIMANTAN SELATAN,71614.0,Indonesia,,,,-2.3181804,115.4673181,https://maps.google.com/?cid=0x0:0x2f90f30683088588,
perumahan,Komplek perumahan,Perumahan Raditya 1,"perumahan Raditiya Haur batu, Jl. A. Yani, Paringin Kota, Kec. Paringin, Kabupaten Balangan, Kalimantan Selatan","Kabupaten Balangan, Kalimantan Selatan",KALIMANTAN SELATAN,,Indonesia,,,,-2.3115455,115.4693955,https://maps.google.com/?cid=0x0:0x6246028e6fa236f4,
perumahan,Komplek perumahan,Komp. Citra Permai Paringin,"MF97+5H5, Komp. Citra Permai, Paringin Timur, Bungin, Paringin Selatan, Balangan Regency, South Kalimantan 71611","Komp. Citra Permai, Paringin Timur, Bungin, Paringin Selatan, Balangan Regency",KALIMANTAN SELATAN,71611.0,Indonesia,,,,-2.3321087,115.4639725,https://maps.google.com/?cid=0x0:0xdf0806a44e6e1e99,
perumahan,Otoritas Perumahan,Komplek Perumahan Bumi Raya Indah,"MF57+CR, Bungin, Kec. Paringin Sel., Kabupaten Balangan, Kalimantan Selatan 71611","Bungin, Kec. Paringin Sel., Kabupaten Balangan",KALIMANTAN SELATAN,71611.0,Indonesia,,,,-2.3413102,115.4648263,https://maps.google.com/?cid=0x0:0xc2fc7bdd885a1c4e,
perumahan,Markas Besar Suku,PARINGIN LEATHER,"Perumahan cahaya Muhibbin Block ar Razzaaq No 96, Kabupaten Balangan, Kalimantan Selatan 71614",Kabupaten Balangan,KALIMANTAN SELATAN,71614.0,Indonesia, 082152981713,,,-2.3252543,115.466236,https://maps.google.com/?cid=0x0:0x25ecd6371f9152ce,
perumahan,perumahan,Perumahan Dinas Bupati GM,"MFFF+X5P, Paringin Kota, Kec. Paringin, Kabupaten Balangan, Kalimantan Selatan","Kabupaten Balangan, Kalimantan Selatan",KALIMANTAN SELATAN,,Indonesia,,,,-2.325028,115.4729524,https://maps.google.com/?cid=0x0:0xcd19ee1365d07862,
perumahan,Pembangunan Perumahan,Tanah Thomhert,"MFC6+J4, Halubau Utara, Kec. Paringin Sel., Kabupaten Balangan, Kalimantan Selatan 71614","Halubau Utara, Kec. Paringin Sel., Kabupaten Balangan",KALIMANTAN SELATAN,71614.0,Indonesia,,,,-2.3283927,115.4603087,https://maps.google.com/?cid=0x0:0xd9161b31455d7c0f,
perumahan,perumahan,Cahaya Muhibbin Paringin,"MFG7+CQ8, Jl. A. Yani, Paringin Kota, Kec. Paringin, Kabupaten Balangan, Kalimantan Selatan 71614","Jl. A. Yani, Paringin Kota, Kec. Paringin, Kabupaten Balangan",KALIMANTAN SELATAN,71614.0,Indonesia, 0811502196,,,-2.324023,115.4644555,https://maps.google.com/?cid=0x0:0x300b756625bc7bf6,
perumahan,Agen Sewa Mobil,rental mobil kembar balangan,"perumahan cahaya muhibin blok arrazak no 95, Jl. Cahaya Muhibbin blok arrazak No.178, RT.18/RW.05, Kec. Paringin, Kalimantan Selatan 71614","Jl. Cahaya Muhibbin blok arrazak No.178, RT.18/RW.05, Kec. Paringin",KALIMANTAN SELATAN,71614.0,Indonesia, 082351861345,,,-2.3258985,115.466354,https://maps.google.com/?cid=0x0:0x4b16e84bf620f692,
perumahan,Komplek perumahan,Lollyeesha Sweet Home,"Cahaya Muhibbin, Jalan, Paringin Kota, Paringin, Balangan Regency, South Kalimantan 71614","Jalan, Paringin Kota, Paringin, Balangan Regency",KALIMANTAN SELATAN,71614.0,Indonesia,,,,-2.3251489,115.4665431,https://maps.google.com/?cid=0x0:0xc582f78588beb553,
perumahan,Komplek perumahan,Home Noorkhalis,"MFJ8+JV5, Paringin Kota, Kec. Paringin, Kabupaten Balangan, Kalimantan Selatan 71614","Paringin Kota, Kec. Paringin, Kabupaten Balangan",KALIMANTAN SELATAN,71614.0,Indonesia,,,,-2.3184813,115.4672249,https://maps.google.com/?cid=0x0:0xa87c4d8da13b9b9b,
perumahan,Komplek perumahan,Perumahan Balangan Residence,"MF44+H6F, Lingsir, Kec. Paringin Sel., Kabupaten Balangan, Kalimantan Selatan 71612","Lingsir, Kec. Paringin Sel., Kabupaten Balangan",KALIMANTAN SELATAN,71612.0,Indonesia, 085349229223,,,-2.3435582,115.4555579,https://maps.google.com/?cid=0x0:0xf8a058e5c900e6de,
perumahan,perumahan,Kalimantan Selatan 71616,"Batu Piring, Kec. Paringin Sel., Kabupaten Balangan, Kalimantan Selatan","Kabupaten Balangan, Kalimantan Selatan",KALIMANTAN SELATAN,,Indonesia,,,,-2.344415,115.4763169,https://maps.google.com/?cid=0x0:0xd46c446c8be01cd3,
perumahan,Gedung Apartemen,PUTRI SALWA,"NO 69, RT.03/RW.01, Batu Piring","Kabupaten Balangan, Kalimantan Selatan",KALIMANTAN SELATAN,,Indonesia,,,,-2.3418873,115.491124,https://maps.google.com/?cid=0x0:0x1b92ef985ebe9f38,
perumahan,Pembangunan Perumahan,Balai Pangeran Residence Balangan,"Jl Junjung Buih No.RT 08, Batu Piring, Kec. Paringin Sel., Kabupaten Balangan, Kalimantan Selatan 71616","Batu Piring, Kec. Paringin Sel., Kabupaten Balangan",KALIMANTAN SELATAN,71616.0,Indonesia, 081293292823,,,-2.3492876,115.4749134,https://maps.google.com/?cid=0x0:0x31cdf82ce23d57da,
perumahan,Markas Besar Suku,Perumahan Cahaya.M.Residence,"Rica, kel part, Bungin, Kec. Paringin Sel., Kabupaten Balangan, Kalimantan Selatan 71611","kel part, Bungin, Kec. Paringin Sel., Kabupaten Balangan",KALIMANTAN SELATAN,71611.0,Indonesia,,,,-2.3310563,115.4635231,https://maps.google.com/?cid=0x0:0x76afa822d55b4812,
perumahan,Otoritas Perumahan,Komplek Perumahan Bumi Raya Indah,"MF57+CR, Bungin, Kec. Paringin Sel., Kabupaten Balangan, Kalimantan Selatan 71611","Bungin, Kec. Paringin Sel., Kabupaten Balangan",KALIMANTAN SELATAN,71611.0,Indonesia,,,,-2.3413102,115.4648263,https://maps.google.com/?cid=0x0:0xc2fc7bdd885a1c4e,
perumahan,Komplek perumahan,Perumahan Batu Piring,"MF79+8H7, Bungin, Kec. Paringin Sel., Kabupaten Balangan, Kalimantan Selatan 71615","Bungin, Kec. Paringin Sel., Kabupaten Balangan",KALIMANTAN SELATAN,71615.0,Indonesia,,,,-2.336721,115.4689131,https://maps.google.com/?cid=0x0:0xd871465e2bd8cf71,
perumahan,Pembangunan Perumahan,Pesona Balangan Residence,"MF3H+XX4, Jl. Temenggung Jalil, Batu Piring, Kec. Paringin Sel., Kabupaten Balangan, Kalimantan Selatan 71616","Jl. Temenggung Jalil, Batu Piring, Kec. Paringin Sel., Kabupaten Balangan",KALIMANTAN SELATAN,71616.0,Indonesia, 085349676222,,,-2.3451056,115.4799641,https://maps.google.com/?cid=0x0:0xbdb016ecfd2ddf93,
perumahan,Komplek perumahan,Perumahan Rizky Balangan Residence Tahap 4,"JFR8+F97, Batu Piring, Kec. Paringin Sel., Kabupaten Balangan, Kalimantan Selatan","Kabupaten Balangan, Kalimantan Selatan",KALIMANTAN SELATAN,,Indonesia,,,,-2.3588351,115.4659264,https://maps.google.com/?cid=0x0:0xb3fb76cd465d8564,
perumahan,Komplek perumahan,Balangan,"MFPG+QGG, Paringin Kota, Kec. Paringin, Kabupaten Balangan, Kalimantan Selatan","Kabupaten Balangan, Kalimantan Selatan",KALIMANTAN SELATAN,,Indonesia,,,,-2.3130734,115.4763169,https://maps.google.com/?cid=0x0:0x9a4dbcc5c2beffe5,
perumahan,Pembangunan Perumahan,Rizky Balangan Residence,"Perumahan Jl. Rizky Balangan Residence blok j25, Lingsir, Kec. Paringin Sel., Kabupaten Balangan, Kalimantan Selatan 71662","Lingsir, Kec. Paringin Sel., Kabupaten Balangan",KALIMANTAN SELATAN,71662.0,Indonesia, 05262094183,,,-2.3553287,115.4647338,https://maps.google.com/?cid=0x0:0x7a9570148f004365,
perumahan,Pembangunan Perumahan,Komplek Griya Rika Mandiri 2,"MF6G+GPF, Batu Piring, Kec. Paringin Sel., Kabupaten Balangan, Kalimantan Selatan 71616","Batu Piring, Kec. Paringin Sel., Kabupaten Balangan",KALIMANTAN SELATAN,71616.0,Indonesia,,,,-2.3386879,115.4767969,https://maps.google.com/?cid=0x0:0xa42fd6fdb7198a39,
perumahan,Pembangunan Perumahan,Aulia,"MF6G+CHP, Bungin, Kec. Paringin Sel., Kabupaten Balangan, Kalimantan Selatan 71616","Bungin, Kec. Paringin Sel., Kabupaten Balangan",KALIMANTAN SELATAN,71616.0,Indonesia,,,,-2.3389262,115.4764195,https://maps.google.com/?cid=0x0:0x9812798c89067d33,
perumahan,Kantor Pengawas,Rika Mandiri,"MF6G+8W7, Batu Piring, Kec. Paringin Sel., Kabupaten Balangan, Kalimantan Selatan 71616","Batu Piring, Kec. Paringin Sel., Kabupaten Balangan",KALIMANTAN SELATAN,71616.0,Indonesia,,,,-2.3392119,115.4772991,https://maps.google.com/?cid=0x0:0x3e5f033a64c3d0d5,
perumahan,Komplek perumahan,Garuda Maharam,"MFFF+P85, Paringin Kota, Kec. Paringin, Kabupaten Balangan, Kalimantan Selatan 71616","Paringin Kota, Kec. Paringin, Kabupaten Balangan",KALIMANTAN SELATAN,71616.0,Indonesia,,,,-2.3257482,115.473344,https://maps.google.com/?cid=0x0:0x9ea3c9c8c5310d53,
perumahan,Pembangunan Perumahan,Perumahan Cahaya Muhibbin,"MFF8+H46, Paringin Kota, Kec. Paringin, Kabupaten Balangan, Kalimantan Selatan 71614","Paringin Kota, Kec. Paringin, Kabupaten Balangan",KALIMANTAN SELATAN,71614.0,Indonesia,,,,-2.3260807,115.4652615,https://maps.google.com/?cid=0x0:0x10132c2bca1c55b5,
perumahan,Pembangunan Perumahan,Rumah,"MFHQ+GMH, Jl. Gn. Pandau, Paringin Tim., Kec. Paringin Sel., Kabupaten Balangan, Kalimantan Selatan 71662","Jl. Gn. Pandau, Paringin Tim., Kec. Paringin Sel., Kabupaten Balangan",KALIMANTAN SELATAN,71662.0,Indonesia,,,,-2.3211758,115.4892489,https://maps.google.com/?cid=0x0:0x89858d1377a246ed,
perumahan,Otoritas Perumahan,LINDA REGENCY 14,"JFXG+G9X, Lingsir, Kec. Paringin Sel., Kabupaten Balangan, Kalimantan Selatan 71662","Lingsir, Kec. Paringin Sel., Kabupaten Balangan",KALIMANTAN SELATAN,71662.0,Indonesia,,,,-2.349905,115.475463,https://maps.google.com/?cid=0x0:0x7298c9f9f926a37,
perumahan,Perumahan,Garuda Maharam No. A2,"MFGF+4JP, Paringin Kota, Kec. Paringin Sel., Kabupaten Balangan, Kalimantan Selatan 71616","Paringin Kota, Kec. Paringin Sel., Kabupaten Balangan",KALIMANTAN SELATAN,71616.0,Indonesia,,,,-2.3246676,115.4740697,https://maps.google.com/?cid=0x0:0xe3dc70b78e137b1,
perumahan,Rumah Sakit Umum,RSUD Datu Kandang Haji Balangan,"MFCG+4P5, Jl. Gn. Pandau, Paringin Kota, Kec. Paringin, Kabupaten Balangan, Kalimantan Selatan 71616","Jl. Gn. Pandau, Paringin Kota, Kec. Paringin, Kabupaten Balangan",KALIMANTAN SELATAN,71616.0,Indonesia,,,,-2.3297383,115.4768566,https://maps.google.com/?cid=0x0:0xa046ca4bfaa2862c,
perumahan,Komplek perumahan,Milan's House,"MF67+GQ2, Bungin, Kec. Paringin Sel., Kabupaten Balangan, Kalimantan Selatan 71611","Bungin, Kec. Paringin Sel., Kabupaten Balangan",KALIMANTAN SELATAN,71611.0,Indonesia,,,,-2.3386152,115.4653524,https://maps.google.com/?cid=0x0:0x2d58bb38e655ffe2,
perumahan,Pembangunan Perumahan,Galih Adelia,"MF3C+HXH, Batu Piring, Kec. Paringin Sel., Kabupaten Balangan, Kalimantan Selatan","Kabupaten Balangan, Kalimantan Selatan",KALIMANTAN SELATAN,,Indonesia,,,,-2.3460534,115.4724877,https://maps.google.com/?cid=0x0:0xab8dd05ef8cfef3a,
perumahan,Pembangunan Perumahan,Komplek Balangan Permai Haur Batu,"MFJ8+JV5, Jl. Balangan Permai, Paringin Kota, Kec. Paringin, Kabupaten Balangan, Kalimantan Selatan 71614","Jl. Balangan Permai, Paringin Kota, Kec. Paringin, Kabupaten Balangan",KALIMANTAN SELATAN,71614.0,Indonesia,,,,-2.3181628,115.4669035,https://maps.google.com/?cid=0x0:0x981e59b6560ac154,
perumahan,Pembangunan Perumahan,Villa Sayid,"MF49+QP9, Tungkap, Kec. Paringin Sel., Kabupaten Balangan, Kalimantan Selatan 71615","Tungkap, Kec. Paringin Sel., Kabupaten Balangan",KALIMANTAN SELATAN,71615.0,Indonesia,,,,-2.3430716,115.4693698,https://maps.google.com/?cid=0x0:0xd9ca592b45c4c8f0,
perumahan,Komplek perumahan,Perumahan Balangan Residence,"MF44+H6F, Lingsir, Kec. Paringin Sel., Kabupaten Balangan, Kalimantan Selatan 71612","Lingsir, Kec. Paringin Sel., Kabupaten Balangan",KALIMANTAN SELATAN,71612.0,Indonesia, 085349229223,,,-2.3435582,115.4555579,https://maps.google.com/?cid=0x0:0xf8a058e5c900e6de,
perumahan,perumahan,Kalimantan Selatan 71662,"Kabupaten Balangan, Kalimantan Selatan","Kabupaten Balangan, Kalimantan Selatan",KALIMANTAN SELATAN,,Indonesia,,,,-2.3012625,115.5088914,https://maps.google.com/?cid=0x0:0xb7382a61ae82526e,
perumahan,Otoritas Perumahan,Komplek Perumahan Bumi Raya Indah,"MF57+CR, Bungin, Kec. Paringin Sel., Kabupaten Balangan, Kalimantan Selatan 71611","Bungin, Kec. Paringin Sel., Kabupaten Balangan",KALIMANTAN SELATAN,71611.0,Indonesia,,,,-2.3413102,115.4648263,https://maps.google.com/?cid=0x0:0xc2fc7bdd885a1c4e,
perumahan,Komplek perumahan,Perumahan raditiya 2,"MFJ8+2GV, Jl. A. Yani, Paringin Kota, Kec. Paringin Sel., Kabupaten Balangan, Kalimantan Selatan 71614","Jl. A. Yani, Paringin Kota, Kec. Paringin Sel., Kabupaten Balangan",KALIMANTAN SELATAN,71614.0,Indonesia,,,,-2.3198843,115.4663013,https://maps.google.com/?cid=0x0:0xd55745af1b8290e9,
perumahan,Pembangunan Perumahan,BALANGAN RESIDENCE 2,"MF55+47J, Lingsir, Kec. Paringin Sel., Kabupaten Balangan, Kalimantan Selatan 71612","Lingsir, Kec. Paringin Sel., Kabupaten Balangan",KALIMANTAN SELATAN,71612.0,Indonesia,,,,-2.3420442,115.4569574,https://maps.google.com/?cid=0x0:0xf47b726b22379ac1,
perumahan,Pembangunan Perumahan,Rizky Balangan Residence,"Perumahan Jl. Rizky Balangan Residence blok j25, Lingsir, Kec. Paringin Sel., Kabupaten Balangan, Kalimantan Selatan 71662","Lingsir, Kec. Paringin Sel., Kabupaten Balangan",KALIMANTAN SELATAN,71662.0,Indonesia, 05262094183,,,-2.3553287,115.4647338,https://maps.google.com/?cid=0x0:0x7a9570148f004365,
perumahan,Markas Besar Suku,Perumahan Cahaya.M.Residence,"Rica, kel part, Bungin, Kec. Paringin Sel., Kabupaten Balangan, Kalimantan Selatan 71611","kel part, Bungin, Kec. Paringin Sel., Kabupaten Balangan",KALIMANTAN SELATAN,71611.0,Indonesia,,,,-2.3310563,115.4635231,https://maps.google.com/?cid=0x0:0x76afa822d55b4812,
perumahan,Komplek perumahan,Perumahan Batu Piring,"MF79+8H7, Bungin, Kec. Paringin Sel., Kabupaten Balangan, Kalimantan Selatan 71615","Bungin, Kec. Paringin Sel., Kabupaten Balangan",KALIMANTAN SELATAN,71615.0,Indonesia,,,,-2.336721,115.4689131,https://maps.google.com/?cid=0x0:0xd871465e2bd8cf71,
perumahan,Komplek perumahan,Balangan,"MFPG+QGG, Paringin Kota, Kec. Paringin, Kabupaten Balangan, Kalimantan Selatan","Kabupaten Balangan, Kalimantan Selatan",KALIMANTAN SELATAN,,Indonesia,,,,-2.3130734,115.4763169,https://maps.google.com/?cid=0x0:0x9a4dbcc5c2beffe5,
perumahan,Otoritas Perumahan,LINDA REGENCY 14,"JFXG+G9X, Lingsir, Kec. Paringin Sel., Kabupaten Balangan, Kalimantan Selatan 71662","Lingsir, Kec. Paringin Sel., Kabupaten Balangan",KALIMANTAN SELATAN,71662.0,Indonesia,,,,-2.349905,115.475463,https://maps.google.com/?cid=0x0:0x7298c9f9f926a37,
perumahan,Inspektur Tempat Tinggal,Jl Temanggung jalil,"Jl. Temenggung Jalil No.RT, RW.01, Panggung, Kec. Paringin Sel., Kabupaten Balangan, Kalimantan Selatan 71662","RW.01, Panggung, Kec. Paringin Sel., Kabupaten Balangan",KALIMANTAN SELATAN,71662.0,Indonesia,,,,-2.376577,115.5071127,https://maps.google.com/?cid=0x0:0xc253b38719199a20,
perumahan,Gedung Apartemen,Rumah Arief Meina,"MF44+79X Perumahan balangan residence, Jl. Blk. E, RT.4/RW.No.270, Bungin, Kec. Paringin Sel., Kabupaten Balangan, Kalimantan Selatan","Kabupaten Balangan, Kalimantan Selatan",KALIMANTAN SELATAN,,Indonesia,,,,-2.3442639,115.4559848,https://maps.google.com/?cid=0x0:0xee947c9dcfc30edf,
perumahan,Taman bermain,Wisata rumah Hantu,"PFMP+PJ, Dahai, Kec. Paringin, Kabupaten Balangan, Kalimantan Selatan","Kabupaten Balangan, Kalimantan Selatan",KALIMANTAN SELATAN,,Indonesia,,,,-2.2656425,115.4865437,https://maps.google.com/?cid=0x0:0xa0e4abfaf7013c02,
perumahan,Komplek perumahan,Garuda Maharam Residence,"Jalan Lingkar Timur No.RT 09, Paringin Tim., Kec. Paringin, Kabupaten Balangan, Kalimantan Selatan 71662","Paringin Tim., Kec. Paringin, Kabupaten Balangan",KALIMANTAN SELATAN,71662.0,Indonesia, 081251360969,,,-2.3276113,115.4693132,https://maps.google.com/?cid=0x0:0x1226b1735df004c8,
perumahan,Pembangunan Perumahan,Komplek Balangan Permai Haur Batu,"MFJ8+JV5, Jl. Balangan Permai, Paringin Kota, Kec. Paringin, Kabupaten Balangan, Kalimantan Selatan 71614","Jl. Balangan Permai, Paringin Kota, Kec. Paringin, Kabupaten Balangan",KALIMANTAN SELATAN,71614.0,Indonesia,,,,-2.3181628,115.4669035,https://maps.google.com/?cid=0x0:0x981e59b6560ac154,
perumahan,Pembangunan Perumahan,Komplek Griya Rika Mandiri 2,"MF6G+GPF, Batu Piring, Kec. Paringin Sel., Kabupaten Balangan, Kalimantan Selatan 71616","Batu Piring, Kec. Paringin Sel., Kabupaten Balangan",KALIMANTAN SELATAN,71616.0,Indonesia,,,,-2.3386879,115.4767969,https://maps.google.com/?cid=0x0:0xa42fd6fdb7198a39,
perumahan,Pembangunan Perumahan,Ipah home,"MFJW+9MW, Balida, Kec. Paringin, Kabupaten Balangan, Kalimantan Selatan 71662","Balida, Kec. Paringin, Kabupaten Balangan",KALIMANTAN SELATAN,71662.0,Indonesia,,,,-2.3189715,115.4963973,https://maps.google.com/?cid=0x0:0x4c0c372b7a11c085,
perumahan,Komplek perumahan,Desa Lingsir,"Mampari, Kec. Batu Mandi, Kabupaten Balangan, Kalimantan Selatan 71662","Kec. Batu Mandi, Kabupaten Balangan",KALIMANTAN SELATAN,71662.0,Indonesia,,,,-2.3623577,115.4476167,https://maps.google.com/?cid=0x0:0x61dc869b90ee3201,
perumahan,Pembangunan Perumahan,Balai Pangeran Residence Balangan,"Jl Junjung Buih No.RT 08, Batu Piring, Kec. Paringin Sel., Kabupaten Balangan, Kalimantan Selatan 71616","Batu Piring, Kec. Paringin Sel., Kabupaten Balangan",KALIMANTAN SELATAN,71616.0,Indonesia, 081293292823,,,-2.3492876,115.4749134,https://maps.google.com/?cid=0x0:0x31cdf82ce23d57da,
perumahan,Komplek perumahan,Komplek Perumahan AB. PGRI,"JFH8+VWV, Jl. A. Yani, Batu Piring, Kec. Paringin Sel., Kabupaten Balangan, Kalimantan Selatan 71662","Jl. A. Yani, Batu Piring, Kec. Paringin Sel., Kabupaten Balangan",KALIMANTAN SELATAN,71662.0,Indonesia,,,,-2.370443,115.4668065,https://maps.google.com/?cid=0x0:0xced030027a017473,
perumahan,Pembangunan Perumahan,Kantor Perumahan Haur Batu Permai,"jalan jendral A yani Haur Batu, RT.15/RW.05, Paringin Kota, Kec. Paringin Sel., Kabupaten Balangan, Kalimantan Selatan 71614","RT.15/RW.05, Paringin Kota, Kec. Paringin Sel., Kabupaten Balangan",KALIMANTAN SELATAN,71614.0,Indonesia, 082154262049,,,-2.3099565,115.4682334,https://maps.google.com/?cid=0x0:0x433cc971e28bcfe5,
perumahan,Perumahan,Rumah Nida,"MH32+9FJ, Pamurus, Kec. Paringin Sel., Kabupaten Balangan, Kalimantan Selatan","Kabupaten Balangan, Kalimantan Selatan",KALIMANTAN SELATAN,,Indonesia,,,,-2.3465405,115.5511298,https://maps.google.com/?cid=0x0:0x6ba94e0184ff3193,
perumahan,perumahan,Kalimantan Selatan 71617,"Halubau, Kec. Paringin Sel., Kabupaten Balangan, Kalimantan Selatan","Kabupaten Balangan, Kalimantan Selatan",KALIMANTAN SELATAN,,Indonesia,,,,-2.3493563,115.4526241,https://maps.google.com/?cid=0x0:0xf932e7e492a1671c,
perumahan,Komplek perumahan,Perumahan Balangan Residence,"MF44+H6F, Lingsir, Kec. Paringin Sel., Kabupaten Balangan, Kalimantan Selatan 71612","Lingsir, Kec. Paringin Sel., Kabupaten Balangan",KALIMANTAN SELATAN,71612.0,Indonesia, 085349229223,,,-2.3435582,115.4555579,https://maps.google.com/?cid=0x0:0xf8a058e5c900e6de,
perumahan,Pembangunan Perumahan,Rizky Balangan Residence,"Perumahan Jl. Rizky Balangan Residence blok j25, Lingsir, Kec. Paringin Sel., Kabupaten Balangan, Kalimantan Selatan 71662","Lingsir, Kec. Paringin Sel., Kabupaten Balangan",KALIMANTAN SELATAN,71662.0,Indonesia, 05262094183,,,-2.3553287,115.4647338,https://maps.google.com/?cid=0x0:0x7a9570148f004365,
perumahan,Komplek perumahan,AHE PERUMAHAN 1000 (Balangan),"Residence Balangan Gg. As-Salam No.14BunginKec, Kec. Paringin Sel., Kabupaten Balangan, Kalimantan Selatan 71617","Kec. Paringin Sel., Kabupaten Balangan",KALIMANTAN SELATAN,71617.0,Indonesia, 081285663426,,,-2.343442,115.4559047,https://maps.google.com/?cid=0x0:0xbdd008d9f76da100,
perumahan,Otoritas Perumahan,Komplek Perumahan Bumi Raya Indah,"MF57+CR, Bungin, Kec. Paringin Sel., Kabupaten Balangan, Kalimantan Selatan 71611","Bungin, Kec. Paringin Sel., Kabupaten Balangan",KALIMANTAN SELATAN,71611.0,Indonesia,,,,-2.3413102,115.4648263,https://maps.google.com/?cid=0x0:0xc2fc7bdd885a1c4e,
perumahan,Pembangunan Perumahan,Komplek Baru Piring,"MF45+JF6, Lingsir, Paringin Kota, Kabupaten Balangan, Kalimantan Selatan","Kabupaten Balangan, Kalimantan Selatan",KALIMANTAN SELATAN,,Indonesia,,,,-2.3434544,115.458651,https://maps.google.com/?cid=0x0:0x9f4cb661bf76827a,
perumahan,Gedung Apartemen,Rumah Arief Meina,"MF44+79X Perumahan balangan residence, Jl. Blk. E, RT.4/RW.No.270, Bungin, Kec. Paringin Sel., Kabupaten Balangan, Kalimantan Selatan","Kabupaten Balangan, Kalimantan Selatan",KALIMANTAN SELATAN,,Indonesia,,,,-2.3442639,115.4559848,https://maps.google.com/?cid=0x0:0xee947c9dcfc30edf,
perumahan,Pembangunan Perumahan,AininNaufal.Mpapahofal,"MF44+VGJ, Unnamed Road, Halubau, Kec. Paringin Sel., Kabupaten Balangan, Kalimantan Selatan 71613","Unnamed Road, Halubau, Kec. Paringin Sel., Kabupaten Balangan",KALIMANTAN SELATAN,71613.0,Indonesia,,,,-2.3427983,115.456265,https://maps.google.com/?cid=0x0:0xc3cb6bc29d6bf112,
perumahan,Pembangunan Perumahan,Balai Pangeran Residence Balangan,"Jl Junjung Buih No.RT 08, Batu Piring, Kec. Paringin Sel., Kabupaten Balangan, Kalimantan Selatan 71616","Batu Piring, Kec. Paringin Sel., Kabupaten Balangan",KALIMANTAN SELATAN,71616.0,Indonesia, 081293292823,,,-2.3492876,115.4749134,https://maps.google.com/?cid=0x0:0x31cdf82ce23d57da,
perumahan,Pembangunan Perumahan,Bungin berkah,"MC6W+46J, Bungin, Kec. Paringin Sel., Kabupaten Balangan, Kalimantan Selatan 71613","Bungin, Kec. Paringin Sel., Kabupaten Balangan",KALIMANTAN SELATAN,71613.0,Indonesia,,,,-2.3396554,115.4455311,https://maps.google.com/?cid=0x0:0x7e27bc5395dc307,
perumahan,Pembangunan Perumahan,Rumah Kahfi,"Perumahan, Batu Piring, Kec. Paringin Sel., Kabupaten Balangan, Kalimantan Selatan 71618","Batu Piring, Kec. Paringin Sel., Kabupaten Balangan",KALIMANTAN SELATAN,71618.0,Indonesia, 082200000001,,,-2.3438866,115.4591514,https://maps.google.com/?cid=0x0:0xa967ab29f2d5d296,
perumahan,Komplek perumahan,Baihaki House,"MC5X+9P5, Unnamed Road, Halubau, Kec. Paringin Sel., Kabupaten Balangan, Kalimantan Selatan 71613","Unnamed Road, Halubau, Kec. Paringin Sel., Kabupaten Balangan",KALIMANTAN SELATAN,71613.0,Indonesia, 082255476929,,,-2.3416244,115.449347,https://maps.google.com/?cid=0x0:0xb67e2ab5cef1fbd9,
perumahan,perumahan,Perumnas Batu Piring Permai,"MF45+768, Kelurahan Batu Piring, Kec. Paringin Sel., Kabupaten Balangan, Kalimantan Selatan","Kabupaten Balangan, Kalimantan Selatan",KALIMANTAN SELATAN,,Indonesia,,,,-2.3443391,115.4580644,https://maps.google.com/?cid=0x0:0xeb4647927faa4571,
perumahan,Komplek perumahan,Margo Mulyo Kelurahan Batu Piring Kecamatan Paringin Selatan Kabupaten Balangan,"MF56+884, Margo Mulyo, RT06, RW.02, Batu Piring, Kec. Paringin Sel., Kabupaten Balangan, Kalimantan Selatan","Kabupaten Balangan, Kalimantan Selatan",KALIMANTAN SELATAN,,Indonesia,,,,-2.3428048,115.4602277,https://maps.google.com/?cid=0x0:0x4e4d4b66db00c0ad,
perumahan,Pembangunan Perumahan,BALANGAN RESIDENCE 2,"MF55+47J, Lingsir, Kec. Paringin Sel., Kabupaten Balangan, Kalimantan Selatan 71612","Lingsir, Kec. Paringin Sel., Kabupaten Balangan",KALIMANTAN SELATAN,71612.0,Indonesia,,,,-2.3420442,115.4569574,https://maps.google.com/?cid=0x0:0xf47b726b22379ac1,
perumahan,Pembangunan Perumahan,Batu Piring Orchid,"MF45+C7H, Batu Piring, Paringin Selatan, Balangan Regency, South Kalimantan","Kabupaten Balangan, Kalimantan Selatan",KALIMANTAN SELATAN,,Indonesia,,,,-2.3436481,115.4582073,https://maps.google.com/?cid=0x0:0xf259e883cd30591f,
perumahan,Pembangunan Perumahan,Perumahan Cahaya Muhibbin,"MFF8+H46, Paringin Kota, Kec. Paringin, Kabupaten Balangan, Kalimantan Selatan 71614","Paringin Kota, Kec. Paringin, Kabupaten Balangan",KALIMANTAN SELATAN,71614.0,Indonesia,,,,-2.3260807,115.4652615,https://maps.google.com/?cid=0x0:0x10132c2bca1c55b5,
perumahan,Pembangunan Perumahan,Jeeva-Blok E 41,"Jl. Blk. E No.268, Bungin, Kec. Paringin Sel., Kabupaten Balangan, Kalimantan Selatan","Kabupaten Balangan, Kalimantan Selatan",KALIMANTAN SELATAN,,Indonesia,,,,-2.3442799,115.4561647,https://maps.google.com/?cid=0x0:0x78463dac18a9fbcf,
perumahan,Komplek perumahan,Rumah Hanif,"Komplek Batu Piring Permai RT.14, Blk. D, Lingsir, Kec. Paringin Sel., Kabupaten Balangan, Kalimantan Selatan 71612","Blk. D, Lingsir, Kec. Paringin Sel., Kabupaten Balangan",KALIMANTAN SELATAN,71612.0,Indonesia,,,,-2.344499,115.4587455,https://maps.google.com/?cid=0x0:0x944e18b393bf3df1,
perumahan,Komplek perumahan,Gang Merak,"MF45+P8Q, Lingsir, Kec. Paringin Sel., Kabupaten Balangan, Kalimantan Selatan 71612","Lingsir, Kec. Paringin Sel., Kabupaten Balangan",KALIMANTAN SELATAN,71612.0,Indonesia,,,,-2.3431639,115.458345,https://maps.google.com/?cid=0x0:0x19f8bd86482b29c2,
perumahan,Komplek perumahan,Perumahan Rizky Balangan Residence Tahap 4,"JFR8+F97, Batu Piring, Kec. Paringin Sel., Kabupaten Balangan, Kalimantan Selatan","Kabupaten Balangan, Kalimantan Selatan",KALIMANTAN SELATAN,,Indonesia,,,,-2.3588351,115.4659264,https://maps.google.com/?cid=0x0:0xb3fb76cd465d8564,
perumahan,Gedung Apartemen,PUTRI SALWA,"MF64+2F7, Bungin, Kec. Paringin Sel., Kabupaten Balangan, Kalimantan Selatan","Kabupaten Balangan, Kalimantan Selatan",KALIMANTAN SELATAN,,Indonesia,,,,-2.3399625,115.4561719,https://maps.google.com/?cid=0x0:0xdc89e9e3e6d09463,
perumahan,Pembangunan Perumahan,Bescemp,"MF45+56F, Lingsir, Kec. Paringin Sel., Kabupaten Balangan, Kalimantan Selatan 71618","Lingsir, Kec. Paringin Sel., Kabupaten Balangan",KALIMANTAN SELATAN,71618.0,Indonesia,,,,-2.344574,115.458034,https://maps.google.com/?cid=0x0:0x90578283bf121be7,
perumahan,perumahan,Kalimantan Selatan 71618,"Lingsir, Kec. Paringin Sel., Kabupaten Balangan, Kalimantan Selatan","Kabupaten Balangan, Kalimantan Selatan",KALIMANTAN SELATAN,,Indonesia,,,,-2.3480342,115.46299,https://maps.google.com/?cid=0x0:0xaaca6ef0c3889113,
perumahan,Komplek perumahan,Perumahan Balangan Residence,"MF44+H6F, Lingsir, Kec. Paringin Sel., Kabupaten Balangan, Kalimantan Selatan 71612","Lingsir, Kec. Paringin Sel., Kabupaten Balangan",KALIMANTAN SELATAN,71612.0,Indonesia, 085349229223,,,-2.3435582,115.4555579,https://maps.google.com/?cid=0x0:0xf8a058e5c900e6de,
perumahan,Pembangunan Perumahan,Komplek Balangan Permai Haur Batu,"MFJ8+JV5, Jl. Balangan Permai, Paringin Kota, Kec. Paringin, Kabupaten Balangan, Kalimantan Selatan 71614","Jl. Balangan Permai, Paringin Kota, Kec. Paringin, Kabupaten Balangan",KALIMANTAN SELATAN,71614.0,Indonesia,,,,-2.3181628,115.4669035,https://maps.google.com/?cid=0x0:0x981e59b6560ac154,
perumahan,Komplek perumahan,Perumahan Batu Piring,"MF79+8H7, Bungin, Kec. Paringin Sel., Kabupaten Balangan, Kalimantan Selatan 71615","Bungin, Kec. Paringin Sel., Kabupaten Balangan",KALIMANTAN SELATAN,71615.0,Indonesia,,,,-2.336721,115.4689131,https://maps.google.com/?cid=0x0:0xd871465e2bd8cf71,
perumahan,Pembangunan Perumahan,Komplek Baru Piring,"MF45+JF6, Lingsir, Paringin Kota, Kabupaten Balangan, Kalimantan Selatan","Kabupaten Balangan, Kalimantan Selatan",KALIMANTAN SELATAN,,Indonesia,,,,-2.3434544,115.458651,https://maps.google.com/?cid=0x0:0x9f4cb661bf76827a,
perumahan,Pembangunan Perumahan,Balai Pangeran Residence Balangan,"Jl Junjung Buih No.RT 08, Batu Piring, Kec. Paringin Sel., Kabupaten Balangan, Kalimantan Selatan 71616","Batu Piring, Kec. Paringin Sel., Kabupaten Balangan",KALIMANTAN SELATAN,71616.0,Indonesia, 081293292823,,,-2.3492876,115.4749134,https://maps.google.com/?cid=0x0:0x31cdf82ce23d57da,
perumahan,Komplek perumahan,Perumahan Rizky Balangan Residence Tahap 4,"JFR8+F97, Batu Piring, Kec. Paringin Sel., Kabupaten Balangan, Kalimantan Selatan","Kabupaten Balangan, Kalimantan Selatan",KALIMANTAN SELATAN,,Indonesia,,,,-2.3588351,115.4659264,https://maps.google.com/?cid=0x0:0xb3fb76cd465d8564,
perumahan,Pembangunan Perumahan,Perumahan Raditiya,"MFP9+FP3, Paringin Kota, Kec. Paringin, Kabupaten Balangan, Kalimantan Selatan 71662","Paringin Kota, Kec. Paringin, Kabupaten Balangan",KALIMANTAN SELATAN,71662.0,Indonesia,,,,-2.3138715,115.4692955,https://maps.google.com/?cid=0x0:0x5f5763dd84982e88,
perumahan,Pembangunan Perumahan,Rizky Balangan Residence,"Perumahan Jl. Rizky Balangan Residence blok j25, Lingsir, Kec. Paringin Sel., Kabupaten Balangan, Kalimantan Selatan 71662","Lingsir, Kec. Paringin Sel., Kabupaten Balangan",KALIMANTAN SELATAN,71662.0,Indonesia, 05262094183,,,-2.3553287,115.4647338,https://maps.google.com/?cid=0x0:0x7a9570148f004365,
perumahan,Pembangunan Perumahan,Rumah Kahfi,"Perumahan, Batu Piring, Kec. Paringin Sel., Kabupaten Balangan, Kalimantan Selatan 71618","Batu Piring, Kec. Paringin Sel., Kabupaten Balangan",KALIMANTAN SELATAN,71618.0,Indonesia, 082200000001,,,-2.3438866,115.4591514,https://maps.google.com/?cid=0x0:0xa967ab29f2d5d296,
perumahan,Komplek perumahan,AHE PERUMAHAN 1000 (Balangan),"Residence Balangan Gg. As-Salam No.14BunginKec, Kec. Paringin Sel., Kabupaten Balangan, Kalimantan Selatan 71617","Kec. Paringin Sel., Kabupaten Balangan",KALIMANTAN SELATAN,71617.0,Indonesia, 081285663426,,,-2.343442,115.4559047,https://maps.google.com/?cid=0x0:0xbdd008d9f76da100,
perumahan,Gedung Apartemen,Rumah Arief Meina,"MF44+79X Perumahan balangan residence, Jl. Blk. E, RT.4/RW.No.270, Bungin, Kec. Paringin Sel., Kabupaten Balangan, Kalimantan Selatan","Kabupaten Balangan, Kalimantan Selatan",KALIMANTAN SELATAN,,Indonesia,,,,-2.3442639,115.4559848,https://maps.google.com/?cid=0x0:0xee947c9dcfc30edf,
perumahan,Pembangunan Perumahan,Perumahan Cahaya Muhibbin,"MFF8+H46, Paringin Kota, Kec. Paringin, Kabupaten Balangan, Kalimantan Selatan 71614","Paringin Kota, Kec. Paringin, Kabupaten Balangan",KALIMANTAN SELATAN,71614.0,Indonesia,,,,-2.3260807,115.4652615,https://maps.google.com/?cid=0x0:0x10132c2bca1c55b5,
perumahan,Pembangunan Perumahan,KOMPLEK PERUMAHAN AL HUSNA PARINGIN-BALANGAN,"JFX9+QHC, Lingsir, Kec. Paringin Sel., Kabupaten Balangan, Kalimantan Selatan 71662","Lingsir, Kec. Paringin Sel., Kabupaten Balangan",KALIMANTAN SELATAN,71662.0,Indonesia,,,,-2.3505594,115.4688869,https://maps.google.com/?cid=0x0:0x33a65d7ae440403a,
perumahan,Pembangunan Perumahan,Galih Adelia,"MF3C+HXH, Batu Piring, Kec. Paringin Sel., Kabupaten Balangan, Kalimantan Selatan","Kabupaten Balangan, Kalimantan Selatan",KALIMANTAN SELATAN,,Indonesia,,,,-2.3460534,115.4724877,https://maps.google.com/?cid=0x0:0xab8dd05ef8cfef3a,
perumahan,Komplek perumahan,Margo Mulyo Kelurahan Batu Piring Kecamatan Paringin Selatan Kabupaten Balangan,"MF56+884, Margo Mulyo, RT06, RW.02, Batu Piring, Kec. Paringin Sel., Kabupaten Balangan, Kalimantan Selatan","Kabupaten Balangan, Kalimantan Selatan",KALIMANTAN SELATAN,,Indonesia,,,,-2.3428048,115.4602277,https://maps.google.com/?cid=0x0:0x4e4d4b66db00c0ad,
perumahan,Pembangunan Perumahan,Batu Piring Orchid,"MF45+C7H, Batu Piring, Paringin Selatan, Balangan Regency, South Kalimantan","Kabupaten Balangan, Kalimantan Selatan",KALIMANTAN SELATAN,,Indonesia,,,,-2.3436481,115.4582073,https://maps.google.com/?cid=0x0:0xf259e883cd30591f,
perumahan,perumahan,Perumnas Batu Piring Permai,"MF45+768, Kelurahan Batu Piring, Kec. Paringin Sel., Kabupaten Balangan, Kalimantan Selatan","Kabupaten Balangan, Kalimantan Selatan",KALIMANTAN SELATAN,,Indonesia,,,,-2.3443391,115.4580644,https://maps.google.com/?cid=0x0:0xeb4647927faa4571,
perumahan,perumahan,Rumah Hairy dan Azhar,"MF56+6VQ, Lingsir, Kec. Paringin Sel., Kabupaten Balangan, Kalimantan Selatan 71611","Lingsir, Kec. Paringin Sel., Kabupaten Balangan",KALIMANTAN SELATAN,71611.0,Indonesia,,,,-2.341691,115.462447,https://maps.google.com/?cid=0x0:0xa346fac78d6f3a0a,
perumahan,Pembangunan Perumahan,AininNaufal.Mpapahofal,"MF44+VGJ, Unnamed Road, Halubau, Kec. Paringin Sel., Kabupaten Balangan, Kalimantan Selatan 71613","Unnamed Road, Halubau, Kec. Paringin Sel., Kabupaten Balangan",KALIMANTAN SELATAN,71613.0,Indonesia,,,,-2.3427983,115.456265,https://maps.google.com/?cid=0x0:0xc3cb6bc29d6bf112,
perumahan,Pembangunan Perumahan,Jeeva-Blok E 41,"Jl. Blk. E No.268, Bungin, Kec. Paringin Sel., Kabupaten Balangan, Kalimantan Selatan","Kabupaten Balangan, Kalimantan Selatan",KALIMANTAN SELATAN,,Indonesia,,,,-2.3442799,115.4561647,https://maps.google.com/?cid=0x0:0x78463dac18a9fbcf,
perumahan,Pembangunan Perumahan,Bescemp,"MF45+56F, Lingsir, Kec. Paringin Sel., Kabupaten Balangan, Kalimantan Selatan 71618","Lingsir, Kec. Paringin Sel., Kabupaten Balangan",KALIMANTAN SELATAN,71618.0,Indonesia,,,,-2.344574,115.458034,https://maps.google.com/?cid=0x0:0x90578283bf121be7,
perumahan,Komplek perumahan,Rumah Hanif,"Komplek Batu Piring Permai RT.14, Blk. D, Lingsir, Kec. Paringin Sel., Kabupaten Balangan, Kalimantan Selatan 71612","Blk. D, Lingsir, Kec. Paringin Sel., Kabupaten Balangan",KALIMANTAN SELATAN,71612.0,Indonesia,,,,-2.344499,115.4587455,https://maps.google.com/?cid=0x0:0x944e18b393bf3df1,
perumahan,perumahan,Kalimantan Selatan 71662,"Kabupaten Balangan, Kalimantan Selatan","Kabupaten Balangan, Kalimantan Selatan",KALIMANTAN SELATAN,,Indonesia,,,,-2.3012625,115.5088914,https://maps.google.com/?cid=0x0:0xb7382a61ae82526e,
perumahan,Komplek perumahan,Perumahan Balangan Residence,"MF44+H6F, Lingsir, Kec. Paringin Sel., Kabupaten Balangan, Kalimantan Selatan 71612","Lingsir, Kec. Paringin Sel., Kabupaten Balangan",KALIMANTAN SELATAN,71612.0,Indonesia, 085349229223,,,-2.3435582,115.4555579,https://maps.google.com/?cid=0x0:0xf8a058e5c900e6de,
perumahan,Komplek perumahan,Perumahan raditiya 2,"MFJ8+2GV, Jl. A. Yani, Paringin Kota, Kec. Paringin Sel., Kabupaten Balangan, Kalimantan Selatan 71614","Jl. A. Yani, Paringin Kota, Kec. Paringin Sel., Kabupaten Balangan",KALIMANTAN SELATAN,71614.0,Indonesia,,,,-2.3198843,115.4663013,https://maps.google.com/?cid=0x0:0xd55745af1b8290e9,
perumahan,Otoritas Perumahan,Komplek Perumahan Bumi Raya Indah,"MF57+CR, Bungin, Kec. Paringin Sel., Kabupaten Balangan, Kalimantan Selatan 71611","Bungin, Kec. Paringin Sel., Kabupaten Balangan",KALIMANTAN SELATAN,71611.0,Indonesia,,,,-2.3413102,115.4648263,https://maps.google.com/?cid=0x0:0xc2fc7bdd885a1c4e,
perumahan,Inspektur Tempat Tinggal,Jl Temanggung jalil,"Jl. Temenggung Jalil No.RT, RW.01, Panggung, Kec. Paringin Sel., Kabupaten Balangan, Kalimantan Selatan 71662","RW.01, Panggung, Kec. Paringin Sel., Kabupaten Balangan",KALIMANTAN SELATAN,71662.0,Indonesia,,,,-2.376577,115.5071127,https://maps.google.com/?cid=0x0:0xc253b38719199a20,
perumahan,Komplek perumahan,Perumahan Batu Piring,"MF79+8H7, Bungin, Kec. Paringin Sel., Kabupaten Balangan, Kalimantan Selatan 71615","Bungin, Kec. Paringin Sel., Kabupaten Balangan",KALIMANTAN SELATAN,71615.0,Indonesia,,,,-2.336721,115.4689131,https://maps.google.com/?cid=0x0:0xd871465e2bd8cf71,
perumahan,Pembangunan Perumahan,BALANGAN RESIDENCE 2,"MF55+47J, Lingsir, Kec. Paringin Sel., Kabupaten Balangan, Kalimantan Selatan 71612","Lingsir, Kec. Paringin Sel., Kabupaten Balangan",KALIMANTAN SELATAN,71612.0,Indonesia,,,,-2.3420442,115.4569574,https://maps.google.com/?cid=0x0:0xf47b726b22379ac1,
perumahan,Pembangunan Perumahan,Rizky Balangan Residence,"Perumahan Jl. Rizky Balangan Residence blok j25, Lingsir, Kec. Paringin Sel., Kabupaten Balangan, Kalimantan Selatan 71662","Lingsir, Kec. Paringin Sel., Kabupaten Balangan",KALIMANTAN SELATAN,71662.0,Indonesia, 05262094183,,,-2.3553287,115.4647338,https://maps.google.com/?cid=0x0:0x7a9570148f004365,
perumahan,Otoritas Perumahan,LINDA REGENCY 14,"JFXG+G9X, Lingsir, Kec. Paringin Sel., Kabupaten Balangan, Kalimantan Selatan 71662","Lingsir, Kec. Paringin Sel., Kabupaten Balangan",KALIMANTAN SELATAN,71662.0,Indonesia,,,,-2.349905,115.475463,https://maps.google.com/?cid=0x0:0x7298c9f9f926a37,
perumahan,Markas Besar Suku,Perumahan Cahaya.M.Residence,"Rica, kel part, Bungin, Kec. Paringin Sel., Kabupaten Balangan, Kalimantan Selatan 71611","kel part, Bungin, Kec. Paringin Sel., Kabupaten Balangan",KALIMANTAN SELATAN,71611.0,Indonesia,,,,-2.3310563,115.4635231,https://maps.google.com/?cid=0x0:0x76afa822d55b4812,
perumahan,Komplek perumahan,Balangan,"MFPG+QGG, Paringin Kota, Kec. Paringin, Kabupaten Balangan, Kalimantan Selatan","Kabupaten Balangan, Kalimantan Selatan",KALIMANTAN SELATAN,,Indonesia,,,,-2.3130734,115.4763169,https://maps.google.com/?cid=0x0:0x9a4dbcc5c2beffe5,
perumahan,Komplek perumahan,Garuda Maharam Residence,"Jalan Lingkar Timur No.RT 09, Paringin Tim., Kec. Paringin, Kabupaten Balangan, Kalimantan Selatan 71662","Paringin Tim., Kec. Paringin, Kabupaten Balangan",KALIMANTAN SELATAN,71662.0,Indonesia, 081251360969,,,-2.3276113,115.4693132,https://maps.google.com/?cid=0x0:0x1226b1735df004c8,
perumahan,Komplek perumahan,Komplek Perumahan AB. PGRI,"JFH8+VWV, Jl. A. Yani, Batu Piring, Kec. Paringin Sel., Kabupaten Balangan, Kalimantan Selatan 71662","Jl. A. Yani, Batu Piring, Kec. Paringin Sel., Kabupaten Balangan",KALIMANTAN SELATAN,71662.0,Indonesia,,,,-2.370443,115.4668065,https://maps.google.com/?cid=0x0:0xced030027a017473,
perumahan,Gedung Apartemen,Rumah Arief Meina,"MF44+79X Perumahan balangan residence, Jl. Blk. E, RT.4/RW.No.270, Bungin, Kec. Paringin Sel., Kabupaten Balangan, Kalimantan Selatan","Kabupaten Balangan, Kalimantan Selatan",KALIMANTAN SELATAN,,Indonesia,,,,-2.3442639,115.4559848,https://maps.google.com/?cid=0x0:0xee947c9dcfc30edf,
perumahan,Taman bermain,Wisata rumah Hantu,"PFMP+PJ, Dahai, Kec. Paringin, Kabupaten Balangan, Kalimantan Selatan","Kabupaten Balangan, Kalimantan Selatan",KALIMANTAN SELATAN,,Indonesia,,,,-2.2656425,115.4865437,https://maps.google.com/?cid=0x0:0xa0e4abfaf7013c02,
perumahan,Kantor Pemerintah,Dinas Perumahan Rakyat dan Kawasan Permukiman Kabupaten Balangan,"JFMC+H76, Jl. A. Yani, Batu Piring, Kec. Paringin Sel., Kabupaten Balangan, Kalimantan Selatan 71662","Jl. A. Yani, Batu Piring, Kec. Paringin Sel., Kabupaten Balangan",KALIMANTAN SELATAN,71662.0,Indonesia, 05262029523,,,-2.3660801,115.4706304,https://maps.google.com/?cid=0x0:0xf9da7f83dd0d5aec,
perumahan,Pembangunan Perumahan,Komplek Balangan Permai Haur Batu,"MFJ8+JV5, Jl. Balangan Permai, Paringin Kota, Kec. Paringin, Kabupaten Balangan, Kalimantan Selatan 71614","Jl. Balangan Permai, Paringin Kota, Kec. Paringin, Kabupaten Balangan",KALIMANTAN SELATAN,71614.0,Indonesia,,,,-2.3181628,115.4669035,https://maps.google.com/?cid=0x0:0x981e59b6560ac154,
perumahan,Pembangunan Perumahan,Ipah home,"MFJW+9MW, Balida, Kec. Paringin, Kabupaten Balangan, Kalimantan Selatan 71662","Balida, Kec. Paringin, Kabupaten Balangan",KALIMANTAN SELATAN,71662.0,Indonesia,,,,-2.3189715,115.4963973,https://maps.google.com/?cid=0x0:0x4c0c372b7a11c085,
perumahan,Pembangunan Perumahan,Komplek Griya Rika Mandiri 2,"MF6G+GPF, Batu Piring, Kec. Paringin Sel., Kabupaten Balangan, Kalimantan Selatan 71616","Batu Piring, Kec. Paringin Sel., Kabupaten Balangan",KALIMANTAN SELATAN,71616.0,Indonesia,,,,-2.3386879,115.4767969,https://maps.google.com/?cid=0x0:0xa42fd6fdb7198a39,
perumahan,Pembangunan Perumahan,Balai Pangeran Residence Balangan,"Jl Junjung Buih No.RT 08, Batu Piring, Kec. Paringin Sel., Kabupaten Balangan, Kalimantan Selatan 71616","Batu Piring, Kec. Paringin Sel., Kabupaten Balangan",KALIMANTAN SELATAN,71616.0,Indonesia, 081293292823,,,-2.3492876,115.4749134,https://maps.google.com/?cid=0x0:0x31cdf82ce23d57da,
perumahan,Pembangunan Perumahan,KOMPLEK PERUMAHAN AL HUSNA PARINGIN-BALANGAN,"JFX9+QHC, Lingsir, Kec. Paringin Sel., Kabupaten Balangan, Kalimantan Selatan 71662","Lingsir, Kec. Paringin Sel., Kabupaten Balangan",KALIMANTAN SELATAN,71662.0,Indonesia,,,,-2.3505594,115.4688869,https://maps.google.com/?cid=0x0:0x33a65d7ae440403a,
perumahan,Kantor Perusahaan,PT.Bangun Sejahtera Mandiri,"MFP9+MJQ, Jl. A. Yani, Paringin Kota, Kec. Paringin, Kabupaten Balangan, Kalimantan Selatan 71662","Jl. A. Yani, Paringin Kota, Kec. Paringin, Kabupaten Balangan",KALIMANTAN SELATAN,71662.0,Indonesia,,,,-2.3132778,115.4691249,https://maps.google.com/?cid=0x0:0x1a3846c5f7cad7f,
perumahan,perumahan,Kades Inan,"JGF3+CPM, Jl. Temenggung Jalil, Batu Piring, Kec. Paringin Sel., Kabupaten Balangan, Kalimantan Selatan 71662","Jl. Temenggung Jalil, Batu Piring, Kec. Paringin Sel., Kabupaten Balangan",KALIMANTAN SELATAN,71662.0,Indonesia,,,,-2.3763654,115.504321,https://maps.google.com/?cid=0x0:0x186ed1acca2a6f09,
perumahan,Pembangunan Perumahan,Kantor Perumahan Haur Batu Permai,"jalan jendral A yani Haur Batu, RT.15/RW.05, Paringin Kota, Kec. Paringin Sel., Kabupaten Balangan, Kalimantan Selatan 71614","RT.15/RW.05, Paringin Kota, Kec. Paringin Sel., Kabupaten Balangan",KALIMANTAN SELATAN,71614.0,Indonesia, 082154262049,,,-2.3099565,115.4682334,https://maps.google.com/?cid=0x0:0x433cc971e28bcfe5,
perumahan,Perhimpunan Pengembang Perumahan,Tebingtinggi,"HH3Q+7J, Ju'uh, Kec. Tebing Tinggi, Kabupaten Balangan, Kalimantan Selatan","Kabupaten Balangan, Kalimantan Selatan",KALIMANTAN SELATAN,,Indonesia,,,,-2.4468426,115.5890408,https://maps.google.com/?cid=0x0:0xb3e34e7c1b6745e6,
perumahan,Komplek perumahan,Perumahan Gunung Mas,"Lalang, Kec. Rambutan, Kota Tebing Tinggi, Sumatera Utara 20998","Kec. Rambutan, Kota Tebing Tinggi",KALIMANTAN SELATAN,20998.0,Indonesia,,,,3.3682375,99.1580003,https://maps.google.com/?cid=0x0:0x1ac883a70d6a0465,
perumahan,perumahan,Tebing Tinggi,"Kec. Tebing Tinggi Kota, Kota Tebing Tinggi, Sumatera Utara","Kota Tebing Tinggi, Sumatera Utara",KALIMANTAN SELATAN,,Indonesia,,,,3.3272531,99.161808,https://maps.google.com/?cid=0x0:0x63f26bfa4c863d20,
perumahan,Pembangunan Perumahan,Tebing tinggi,"HJ55+Q6M, Sungsum, Kec. Tebing Tinggi, Kabupaten Balangan, Kalimantan Selatan 71664","Sungsum, Kec. Tebing Tinggi, Kabupaten Balangan",KALIMANTAN SELATAN,71664.0,Indonesia,,,,-2.4406734,115.6079519,https://maps.google.com/?cid=0x0:0x17080ab021713e71,
perumahan,Komplek perumahan,Komplek Perumahan Kodim,"9576+PXM, Lalang, Kec. Rambutan, Kota Tebing Tinggi, Sumatera Utara 20998","Lalang, Kec. Rambutan, Kota Tebing Tinggi",KALIMANTAN SELATAN,20998.0,Indonesia, 082364483939,,,3.3643346,99.1624099,https://maps.google.com/?cid=0x0:0xccecf5a0faadd423,
perumahan,Otoritas Perumahan,Perumahan GRIYA AIRA ASRI TT,"85CJ+24X, Tebing Tinggi, Kec. Padang Hilir, Kota Tebing Tinggi, Sumatera Utara 20998","Tebing Tinggi, Kec. Padang Hilir, Kota Tebing Tinggi",KALIMANTAN SELATAN,20998.0,Indonesia, 081265661926,,,3.3201047,99.1803593,https://maps.google.com/?cid=0x0:0xba88b4f293ab13cf,
perumahan,Pembangunan Perumahan,Perumahan Asia Baru No. 24K,"Jl. Badak No.24K, Bandar Utama, Kec. Tebing Tinggi Kota, Kota Tebing Tinggi, Sumatera Utara 20998","Bandar Utama, Kec. Tebing Tinggi Kota, Kota Tebing Tinggi",KALIMANTAN SELATAN,20998.0,Indonesia,,,,3.334111,99.160063,https://maps.google.com/?cid=0x0:0xa55f0a9d45d16bdb,
perumahan,perumahan,Perumahan griya syech Baringin Raya,"858P+HX8, Jl. Syech Beringin, Tebing Tinggi, Kec. Tebing Tinggi Kota, Kota Tebing Tinggi, Sumatera Utara 20998","Jl. Syech Beringin, Tebing Tinggi, Kec. Tebing Tinggi Kota, Kota Tebing Tinggi",KALIMANTAN SELATAN,20998.0,Indonesia,,,,3.3164113,99.1874641,https://maps.google.com/?cid=0x0:0xa11fa092cbdd0514,
perumahan,Pembangunan Perumahan,Perumahan GRIYA AZZAHRA,"859H+M89, Tebing Tinggi, Kec. Padang Hilir, Kota Tebing Tinggi, Sumatera Utara 20998","Tebing Tinggi, Kec. Padang Hilir, Kota Tebing Tinggi",KALIMANTAN SELATAN,20998.0,Indonesia, 085762577641,,,3.3191549,99.178369,https://maps.google.com/?cid=0x0:0xabb018fb2838087e,
perumahan,Perumahan,Perumahan Sungai Indah,"Berohol, Kec. Bajenis, Kota Tebing Tinggi, Sumatera Utara 20614","Kec. Bajenis, Kota Tebing Tinggi",KALIMANTAN SELATAN,20614.0,Indonesia, 082273920430,,,3.3337268,99.1464752,https://maps.google.com/?cid=0x0:0xe55d3d88dcb40752,
perumahan,Perhimpunan Pengembang Perumahan,Perumahan Pencipta,"85M6+JGM, Jl. Sudirman, Badak Bejuang, Kec. Tebing Tinggi Kota, Kota Tebing Tinggi, Sumatera Utara 20998","Jl. Sudirman, Badak Bejuang, Kec. Tebing Tinggi Kota, Kota Tebing Tinggi",KALIMANTAN SELATAN,20998.0,Indonesia,,,,3.3340881,99.1612864,https://maps.google.com/?cid=0x0:0x421bc1c81b9d98d0,
perumahan,Perumahan,PERUMAHAN TEBING BERLIAN INDAH,"Jl. Emas, Tambangan Hulu, Kec. Padang Hilir, Kota Tebing Tinggi, Sumatera Utara 20998","Tambangan Hulu, Kec. Padang Hilir, Kota Tebing Tinggi",KALIMANTAN SELATAN,20998.0,Indonesia, 085762956094,,,3.3412736,99.1774682,https://maps.google.com/?cid=0x0:0x2526329002ddc328,
perumahan,Perancang Situs Web,Perumahan bajenis indah,"Jl. Bunga Raya, Bulian, Kec. Bajenis, Kota Tebing Tinggi, Sumatera Utara 20998","Bulian, Kec. Bajenis, Kota Tebing Tinggi",KALIMANTAN SELATAN,20998.0,Indonesia,,,,3.3297387,99.1352963,https://maps.google.com/?cid=0x0:0x8eaa3ab5ca52d810,
perumahan,Komplek perumahan,Perumahan GRIYA MEKAR SENTOSA ASRI II,"959C+5P3, Gg. Keluarga, Mekar Sentosa, Kec. Rambutan, Kota Tebing Tinggi, Sumatera Utara 20998","Gg. Keluarga, Mekar Sentosa, Kec. Rambutan, Kota Tebing Tinggi",KALIMANTAN SELATAN,20998.0,Indonesia, 085836119474,,,3.367882,99.1717866,https://maps.google.com/?cid=0x0:0x6ce565253b8db15e,
perumahan,Komplek perumahan,PERUMAHAN ZAKARIA ASRI TEBING TINGGI,"857F+XJQ, Tebing Tinggi, Kec. Padang Hilir, Kota Tebing Tinggi, Sumatera Utara 20998","Tebing Tinggi, Kec. Padang Hilir, Kota Tebing Tinggi",KALIMANTAN SELATAN,20998.0,Indonesia, 081279898050,,,3.3151042,99.1726288,https://maps.google.com/?cid=0x0:0x75efd72c769a3680,
perumahan,Toko Perlengkapan Rumah,Perumahan Tebing Tinggi Asri Blok C No.6,"POS 20635, Jl Syech Baringin, Perumahan, Asri No.6 Blok C, Tebing Tinggi, Kec. Padang Hilir, Kota Tebing Tinggi, Sumatera Utara 20998","Jl Syech Baringin, Perumahan, Asri No.6 Blok C, Tebing Tinggi, Kec. Padang Hilir, Kota Tebing Tinggi",KALIMANTAN SELATAN,20998.0,Indonesia,,,,3.3170289,99.1876565,https://maps.google.com/?cid=0x0:0xc17e6dc801a831fc,
perumahan,Komplek perumahan,PERUMAHAN JATI RESIDENCE,"84PH+MQ4, Jl. Merpati, Pinang Mancung, Kec. Bajenis, Kota Tebing Tinggi, Sumatera Utara 20998","Jl. Merpati, Pinang Mancung, Kec. Bajenis, Kota Tebing Tinggi",KALIMANTAN SELATAN,20998.0,Indonesia, 082366816666,,,3.3366475,99.1294584,https://maps.google.com/?cid=0x0:0xa13b4a699b24b18e,
perumahan,Komplek perumahan,SITE PERUMAHAN BP7,"Jl. Gn. Martimbang IV No.14, Lalang, Kec. Rambutan, Kota Tebing Tinggi, Sumatera Utara 20998","Lalang, Kec. Rambutan, Kota Tebing Tinggi",KALIMANTAN SELATAN,20998.0,Indonesia,,,,3.3647888,99.1613868,https://maps.google.com/?cid=0x0:0xca3acf867b5da763,
perumahan,Komplek perumahan,Rumah Tandi Suwanto,"85J5+2RJ, Badak Bejuang, Kec. Tebing Tinggi Kota, Kota Tebing Tinggi, Sumatera Utara 20998","Badak Bejuang, Kec. Tebing Tinggi Kota, Kota Tebing Tinggi",KALIMANTAN SELATAN,20998.0,Indonesia,,,,3.3300753,99.1595252,https://maps.google.com/?cid=0x0:0x6a21cfbc3855354d,
perumahan,Kantor Perusahaan,Perumahan Villa Alila Shafa,"9539+G3F, Jl. Gn. Bakti Lkmd I, Lalang, Kec. Rambutan, Kota Tebing Tinggi, Sumatera Utara 20998","Jl. Gn. Bakti Lkmd I, Lalang, Kec. Rambutan, Kota Tebing Tinggi",KALIMANTAN SELATAN,20998.0,Indonesia, 082272506798,,,3.3538123,99.1676835,https://maps.google.com/?cid=0x0:0xf489811c146e0a85,
perumahan,Perumahan,Perumahan Tebing Tinggi Indah,"859F+C5J, Jl. Abd. Rahim Lubis, Tebing Tinggi, Kec. Padang Hilir, Kota Tebing Tinggi, Sumatera Utara","Kota Tebing Tinggi, Sumatera Utara",KALIMANTAN SELATAN,,Indonesia,,,,3.3185896,99.1728819,https://maps.google.com/?cid=0x0:0x37a90180544a0732,
perumahan,Perhimpunan Pengembang Perumahan,Tebingtinggi,"HH3Q+7J, Ju'uh, Kec. Tebing Tinggi, Kabupaten Balangan, Kalimantan Selatan","Kabupaten Balangan, Kalimantan Selatan",KALIMANTAN SELATAN,,Indonesia,,,,-2.4468426,115.5890408,https://maps.google.com/?cid=0x0:0xb3e34e7c1b6745e6,
perumahan,Pembangunan Perumahan,Tebing tinggi,"HJ55+Q6M, Sungsum, Kec. Tebing Tinggi, Kabupaten Balangan, Kalimantan Selatan 71664","Sungsum, Kec. Tebing Tinggi, Kabupaten Balangan",KALIMANTAN SELATAN,71664.0,Indonesia,,,,-2.4406734,115.6079519,https://maps.google.com/?cid=0x0:0x17080ab021713e71,
perumahan,Komplek perumahan,Perumahan Meranti Permai,"Jl. Danau Semayang No.89, Lubuk Raya, Kec. Padang Hulu, Kota Tebing Tinggi, Sumatera Utara 20615","Lubuk Raya, Kec. Padang Hulu, Kota Tebing Tinggi",KALIMANTAN SELATAN,20615.0,Indonesia, 08116577721,,,3.3163529,99.1419861,https://maps.google.com/?cid=0x0:0xf462ee78183f7085,
perumahan,Komplek perumahan,Perumahan Cemara Asri,"859C+QFH, Jl. Abd. Rahim Lubis, Tebing Tinggi, Kec. Padang Hilir, Kota Tebing Tinggi, Sumatera Utara 20631","Jl. Abd. Rahim Lubis, Tebing Tinggi, Kec. Padang Hilir, Kota Tebing Tinggi",KALIMANTAN SELATAN,20631.0,Indonesia,,,,3.3194469,99.1712209,https://maps.google.com/?cid=0x0:0xb3d5a3ca91012a32,
perumahan,Toko Perlengkapan Rumah,Perumahan Tebing Tinggi Asri Blok C No.6,"POS 20635, Jl Syech Baringin, Perumahan, Asri No.6 Blok C, Tebing Tinggi, Kec. Padang Hilir, Kota Tebing Tinggi, Sumatera Utara 20998","Jl Syech Baringin, Perumahan, Asri No.6 Blok C, Tebing Tinggi, Kec. Padang Hilir, Kota Tebing Tinggi",KALIMANTAN SELATAN,20998.0,Indonesia,,,,3.3170289,99.1876565,https://maps.google.com/?cid=0x0:0xc17e6dc801a831fc,
perumahan,Toko Perlengkapan Rumah,Perumahan Tebingtinggi Asri Blok F 29,"858Q+6FF, Tebing Tinggi, Kec. Padang Hilir, Kota Tebing Tinggi, Sumatera Utara 20998","Tebing Tinggi, Kec. Padang Hilir, Kota Tebing Tinggi",KALIMANTAN SELATAN,20998.0,Indonesia,,,,3.3155439,99.1886336,https://maps.google.com/?cid=0x0:0x3983572af797a21b,
perumahan,Perhimpunan Pengembang Perumahan,Perumahan Cemara Residence,"857F+V2V, Jl. Sofyan Zakaria, Tebing Tinggi, Kec. Padang Hilir, Kota Tebing Tinggi, Sumatera Utara 20998","Jl. Sofyan Zakaria, Tebing Tinggi, Kec. Padang Hilir, Kota Tebing Tinggi",KALIMANTAN SELATAN,20998.0,Indonesia, 085122242627,,,3.3147278,99.1725589,https://maps.google.com/?cid=0x0:0xa1ee369d22d4e200,
perumahan,Perumahan,Griya Kelapa Asri,"85HC+3WQ cik ramlah, Jl. Selambo, Damar Sari, Padang Hilir, Tebing Tinggi City, North Sumatra 20998","Jl. Selambo, Damar Sari, Padang Hilir, Tebing Tinggi City",KALIMANTAN SELATAN,20998.0,Indonesia, 081291895888,,,3.3277142,99.1723726,https://maps.google.com/?cid=0x0:0xe3fa807503771277,
perumahan,Komplek perumahan,Kota tebing tinggi,"85G4+FMF, Mandailing, Kec. Tebing Tinggi Kota, Kota Tebing Tinggi, Sumatera Utara","Kota Tebing Tinggi, Sumatera Utara",KALIMANTAN SELATAN,,Indonesia,,,,3.3261945,99.1566765,https://maps.google.com/?cid=0x0:0xcdc72287afc012cc,
perumahan,Otoritas Perumahan,Perumahan Citra Harapan,"8585+X6W, Jl. Sisingamangaraja No.05, Bandar Sono, Kec. Padang Hulu, Kota Tebing Tinggi, Sumatera Utara 20631","Jl. Sisingamangaraja No.05, Bandar Sono, Kec. Padang Hulu, Kota Tebing Tinggi",KALIMANTAN SELATAN,20631.0,Indonesia,,,,3.3203955,99.1544213,https://maps.google.com/?cid=0x0:0xedc7547b45b0e99,
perumahan,perumahan,CV. Karya Konstruksi Abadi,"Jl. Sei Batanang No.04, Durian, Kec. Bajenis, Kota Tebing Tinggi, Sumatera Utara 20621","Durian, Kec. Bajenis, Kota Tebing Tinggi",KALIMANTAN SELATAN,20621.0,Indonesia,,,,3.3271436,99.1540847,https://maps.google.com/?cid=0x0:0x5e16d586e7678f78,
perumahan,Komplek perumahan,PERUMAHAN ZAKARIA ASRI TEBING TINGGI,"857F+XJQ, Tebing Tinggi, Kec. Padang Hilir, Kota Tebing Tinggi, Sumatera Utara 20998","Tebing Tinggi, Kec. Padang Hilir, Kota Tebing Tinggi",KALIMANTAN SELATAN,20998.0,Indonesia, 081279898050,,,3.3151042,99.1726288,https://maps.google.com/?cid=0x0:0x75efd72c769a3680,
perumahan,Perhimpunan Pengembang Perumahan,Perumahan Pencipta,"85M6+JGM, Jl. Sudirman, Badak Bejuang, Kec. Tebing Tinggi Kota, Kota Tebing Tinggi, Sumatera Utara 20998","Jl. Sudirman, Badak Bejuang, Kec. Tebing Tinggi Kota, Kota Tebing Tinggi",KALIMANTAN SELATAN,20998.0,Indonesia,,,,3.3340881,99.1612864,https://maps.google.com/?cid=0x0:0x421bc1c81b9d98d0,
perumahan,Perumahan,Tebingtinggi,"8576+827, Bagelen, Kec. Padang Hilir, Kota Tebing Tinggi, Sumatera Utara 20631","Bagelen, Kec. Padang Hilir, Kota Tebing Tinggi",KALIMANTAN SELATAN,20631.0,Indonesia,,,,3.3132831,99.1600568,https://maps.google.com/?cid=0x0:0x1cad5c70d2f9c885,
perumahan,Rumah Pondokan,"RAFFLES Residence, Tebing Tinggi","Jl. Ir. H. Juanda No.16, Karya Jaya, Kec. Rambutan, Kota Tebing Tinggi, Sumatera Utara 20614","Karya Jaya, Kec. Rambutan, Kota Tebing Tinggi",KALIMANTAN SELATAN,20614.0,Indonesia, 082267611888,,,3.3424163,99.1557238,https://maps.google.com/?cid=0x0:0xecea6e189ce1931,
perumahan,Jasa Kereta Api,Stasiun kreta api tebing tinggi,"85F9+G5H, Jl. Saga Jl. Darat, Satria, Kec. Padang Hilir, Kota Tebing Tinggi, Sumatera Utara","Kota Tebing Tinggi, Sumatera Utara",KALIMANTAN SELATAN,,Indonesia,,,,3.3238159,99.1679954,https://maps.google.com/?cid=0x0:0xbbc5c2d40f3fd7ee,
perumahan,Pembangunan Perumahan,Perumahan Sigiling Lestari,"858G+8PG, Jl. Bhayangkara, Tebing Tinggi, Kec. Padang Hilir, Kota Tebing Tinggi, Sumatera Utara 20998","Jl. Bhayangkara, Tebing Tinggi, Kec. Padang Hilir, Kota Tebing Tinggi",KALIMANTAN SELATAN,20998.0,Indonesia,,,,3.3158161,99.1768272,https://maps.google.com/?cid=0x0:0x6e453fda8dde9e29,
perumahan,Perhimpunan Pengembang Perumahan,Perumahan Villa Cemara Lestari,"Jl. Abd. Rahim Lubis Jl. Cemara No.6e, Rambung, Kec. Tebing Tinggi Kota, Kota Tebing Tinggi, Sumatera Utara 20631","Rambung, Kec. Tebing Tinggi Kota, Kota Tebing Tinggi",KALIMANTAN SELATAN,20631.0,Indonesia,,,,3.3185378,99.1662328,https://maps.google.com/?cid=0x0:0xd4a045173096a39e,
perumahan,Perhimpunan Pengembang Perumahan,Perumahan Griya Baja 11 Tebing tinggi,"85G6+WP8, Ps. Gambir, Kec. Tebing Tinggi Kota, Kota Tebing Tinggi, Sumatera Utara 20616","Ps. Gambir, Kec. Tebing Tinggi Kota, Kota Tebing Tinggi",KALIMANTAN SELATAN,20616.0,Indonesia,,,,3.3272925,99.1618136,https://maps.google.com/?cid=0x0:0xa03cf244762a42d1,
perumahan,Perumahan,Perumahan Amd Asri,"848J+PX7, Bulian, Kec. Bajenis, Kota Tebing Tinggi, Sumatera Utara 20613","Bulian, Kec. Bajenis, Kota Tebing Tinggi",KALIMANTAN SELATAN,20613.0,Indonesia,,,,3.3167766,99.1324213,https://maps.google.com/?cid=0x0:0x95f7282c9dee6337,
perumahan,Perhimpunan Pengembang Perumahan,Tebingtinggi,"HH3Q+7J, Ju'uh, Kec. Tebing Tinggi, Kabupaten Balangan, Kalimantan Selatan","Kabupaten Balangan, Kalimantan Selatan",KALIMANTAN SELATAN,,Indonesia,,,,-2.4468426,115.5890408,https://maps.google.com/?cid=0x0:0xb3e34e7c1b6745e6,
perumahan,Pembangunan Perumahan,Tebing tinggi,"HJ55+Q6M, Sungsum, Kec. Tebing Tinggi, Kabupaten Balangan, Kalimantan Selatan 71664","Sungsum, Kec. Tebing Tinggi, Kabupaten Balangan",KALIMANTAN SELATAN,71664.0,Indonesia,,,,-2.4406734,115.6079519,https://maps.google.com/?cid=0x0:0x17080ab021713e71,
perumahan,Komplek perumahan,Perumahan Gatri Residence,"C35J+F2, Kupang, Kec. Tebing Tinggi, Kabupaten Empat Lawang, Sumatera Selatan 31453","Kupang, Kec. Tebing Tinggi, Kabupaten Empat Lawang",KALIMANTAN SELATAN,31453.0,Indonesia,,,,-3.5910824,103.0797943,https://maps.google.com/?cid=0x0:0xbd5c3b909a630632,
perumahan,Pembangunan Perumahan,Desa Auh,"GHPX+567, Auh, Kec. Tebing Tinggi, Kabupaten Balangan, Kalimantan Selatan","Kabupaten Balangan, Kalimantan Selatan",KALIMANTAN SELATAN,,Indonesia,,,,-2.4645796,115.5980342,https://maps.google.com/?cid=0x0:0xe0a1b8be13ef5ed7,
perumahan,Pembangunan Perumahan,HERMANSYAH,"GHV9+JXJ, Ju'uh, Kec. Tebing Tinggi, Kabupaten Balangan, Kalimantan Selatan 71664","Ju'uh, Kec. Tebing Tinggi, Kabupaten Balangan",KALIMANTAN SELATAN,71664.0,Indonesia,,,,-2.4562261,115.5699395,https://maps.google.com/?cid=0x0:0x70ce3bcdf065e4e8,
perumahan,perumahan,UNCIT ABAH FAHRI,"JHRJ+MPF, Tundi, Kec. Juai, Kabupaten Balangan, Kalimantan Selatan RT04","Kabupaten Balangan, Kalimantan Selatan",KALIMANTAN SELATAN,,Indonesia,,,,-2.3586532,115.5820925,https://maps.google.com/?cid=0x0:0x510d40d185e47ee4,
perumahan,Pembangunan Perumahan,Echa,"GHV6+CJ6, RT.001, Ju'uh, Kec. Tebing Tinggi, Kabupaten Balangan, Kalimantan Selatan 71664","RT.001, Ju'uh, Kec. Tebing Tinggi, Kabupaten Balangan",KALIMANTAN SELATAN,71664.0,Indonesia,,,,-2.456469,115.561516,https://maps.google.com/?cid=0x0:0x174a0a2558889887,
perumahan,Perhimpunan Pengembang Perumahan,Sss,"HJ66+575, Sungsum, Kec. Tebing Tinggi, Kabupaten Balangan, Kalimantan Selatan 71664","Sungsum, Kec. Tebing Tinggi, Kabupaten Balangan",KALIMANTAN SELATAN,71664.0,Indonesia,,,,-2.4399818,115.6111113,https://maps.google.com/?cid=0x0:0xa07d9e0655356d8,
perumahan,perumahan,Desa kaitan,"HM73+Q5J, Langkap, Kec. Tebing Tinggi, Kabupaten Balangan, Kalimantan Selatan 71664","Langkap, Kec. Tebing Tinggi, Kabupaten Balangan",KALIMANTAN SELATAN,71664.0,Indonesia,,,,-2.4353165,115.6538479,https://maps.google.com/?cid=0x0:0xbdbaec4c5df4a2b8,
perumahan,Pembangunan Perumahan,Rumah abut,"JM5V+3V, Langkap, Kec. Tebing Tinggi, Kabupaten Balangan, Kalimantan Selatan","Kabupaten Balangan, Kalimantan Selatan",KALIMANTAN SELATAN,,Indonesia,,,,-2.3911065,115.694461,https://maps.google.com/?cid=0x0:0xeae36c40ed9181bb,
perumahan,Pembangunan Perumahan,Rumah Nanda,"HJ66+2F6, Sungsum, Kec. Tebing Tinggi, Kabupaten Balangan, Kalimantan Selatan","Kabupaten Balangan, Kalimantan Selatan",KALIMANTAN SELATAN,,Indonesia,,,,-2.4399616,115.6111337,https://maps.google.com/?cid=0x0:0xeba3f9e4beccc8a6,
perumahan,Komplek perumahan,rumah Tegi Oktavia,"Perumahan Gatri Residence 2, Blok C No. 9, RT.2/RW.3, Jayaloka, Kelurahan Kupang, Tebing Tinggi, 31453","Blok C No. 9, RT.2/RW.3, Jayaloka, Kelurahan Kupang",KALIMANTAN SELATAN,31453.0,Indonesia,,,,-6.1758809,106.821525,https://maps.google.com/?cid=0x0:0x98cb710ba32ca0cb,
perumahan,Komplek perumahan,rumah tria,"Jl. Gembira II No.8b, RT.6/RW.7, Sungai Bambu, Kec. Tj. Priok, Jkt Utara, Daerah Khusus Ibukota Jakarta 14370","RT.6/RW.7, Sungai Bambu, Kec. Tj. Priok, Jkt Utara",KALIMANTAN SELATAN,14370.0,Indonesia,,,,-6.1194602,106.8814518,https://maps.google.com/?cid=0x0:0xda579acc0df1a185,
perumahan,Perhimpunan Pengembang Perumahan,Tebingtinggi,"HH3Q+7J, Ju'uh, Kec. Tebing Tinggi, Kabupaten Balangan, Kalimantan Selatan","Kabupaten Balangan, Kalimantan Selatan",KALIMANTAN SELATAN,,Indonesia,,,,-2.4468426,115.5890408,https://maps.google.com/?cid=0x0:0xb3e34e7c1b6745e6,
perumahan,Pembangunan Perumahan,Tebing tinggi,"HJ55+Q6M, Sungsum, Kec. Tebing Tinggi, Kabupaten Balangan, Kalimantan Selatan 71664","Sungsum, Kec. Tebing Tinggi, Kabupaten Balangan",KALIMANTAN SELATAN,71664.0,Indonesia,,,,-2.4406734,115.6079519,https://maps.google.com/?cid=0x0:0x17080ab021713e71,
perumahan,Pembangunan Perumahan,HERMANSYAH,"GHV9+JXJ, Ju'uh, Kec. Tebing Tinggi, Kabupaten Balangan, Kalimantan Selatan 71664","Ju'uh, Kec. Tebing Tinggi, Kabupaten Balangan",KALIMANTAN SELATAN,71664.0,Indonesia,,,,-2.4562261,115.5699395,https://maps.google.com/?cid=0x0:0x70ce3bcdf065e4e8,
perumahan,Pembangunan Perumahan,surya,"HJ35+5R7, RT.01, Sungsum, Kec. Tebing Tinggi, Kabupaten Balangan, Kalimantan Selatan 71664","RT.01, Sungsum, Kec. Tebing Tinggi, Kabupaten Balangan",KALIMANTAN SELATAN,71664.0,Indonesia, 085965905160,,,-2.4470888,115.609553,https://maps.google.com/?cid=0x0:0xf1e412a402739082,
perumahan,Pembangunan Perumahan,Desa Auh,"GHPX+567, Auh, Kec. Tebing Tinggi, Kabupaten Balangan, Kalimantan Selatan","Kabupaten Balangan, Kalimantan Selatan",KALIMANTAN SELATAN,,Indonesia,,,,-2.4645796,115.5980342,https://maps.google.com/?cid=0x0:0xe0a1b8be13ef5ed7,
perumahan,perumahan,UNCIT ABAH FAHRI,"JHRJ+MPF, Tundi, Kec. Juai, Kabupaten Balangan, Kalimantan Selatan RT04","Kabupaten Balangan, Kalimantan Selatan",KALIMANTAN SELATAN,,Indonesia,,,,-2.3586532,115.5820925,https://maps.google.com/?cid=0x0:0x510d40d185e47ee4,
perumahan,perumahan,Desa maiwa kecamatan tebingtinggi,"HM88+W7, Langkap, Kec. Tebing Tinggi, Kabupaten Balangan, Kalimantan Selatan","Kabupaten Balangan, Kalimantan Selatan",KALIMANTAN SELATAN,,Indonesia,,,,-2.4326845,115.6656571,https://maps.google.com/?cid=0x0:0x58453b63f9f1b3da,
perumahan,Perhimpunan Pengembang Perumahan,Rumah pakco global,"HJ7C+2QM, Mayanau, Kec. Tebing Tinggi, Kabupaten Balangan, Kalimantan Selatan","Kabupaten Balangan, Kalimantan Selatan",KALIMANTAN SELATAN,,Indonesia,,,,-2.4374166,115.621928,https://maps.google.com/?cid=0x0:0xdda24b9a18719be7,
perumahan,Perhimpunan Pengembang Perumahan,Dukun TikTok,"HJ7F+7GR, Simpang Nadung, Kec. Tebing Tinggi, Kabupaten Balangan, Kalimantan Selatan 71664","Simpang Nadung, Kec. Tebing Tinggi, Kabupaten Balangan",KALIMANTAN SELATAN,71664.0,Indonesia,,,,-2.4367517,115.6237683,https://maps.google.com/?cid=0x0:0xfef28c7e3846fddd,
perumahan,Perhimpunan Pengembang Perumahan,Sss,"HJ66+575, Sungsum, Kec. Tebing Tinggi, Kabupaten Balangan, Kalimantan Selatan 71664","Sungsum, Kec. Tebing Tinggi, Kabupaten Balangan",KALIMANTAN SELATAN,71664.0,Indonesia,,,,-2.4399818,115.6111113,https://maps.google.com/?cid=0x0:0xa07d9e0655356d8,
perumahan,Toko Perlengkapan Rumah,Perumahan Tebing Tinggi Asri Blok C No.6,"POS 20635, Jl Syech Baringin, Perumahan, Asri No.6 Blok C, Tebing Tinggi, Kec. Padang Hilir, Kota Tebing Tinggi, Sumatera Utara 20998","Jl Syech Baringin, Perumahan, Asri No.6 Blok C, Tebing Tinggi, Kec. Padang Hilir, Kota Tebing Tinggi",KALIMANTAN SELATAN,20998.0,Indonesia,,,,3.3170289,99.1876565,https://maps.google.com/?cid=0x0:0xc17e6dc801a831fc,
perumahan,perumahan,Rumah Mutiara,"HJXW+92P, Mayanau, Kec. Tebing Tinggi, Kabupaten Balangan, Kalimantan Selatan","Kabupaten Balangan, Kalimantan Selatan",KALIMANTAN SELATAN,,Indonesia,,,,-2.4015449,115.6450721,https://maps.google.com/?cid=0x0:0xafeac7b94b42f1bd,
perumahan,Agen Properti,PERUMAHAN MUTIARA RESIDENCE 2,"856G+HW6, Jl. Abdul Hamid, Tebing Tinggi, Kec. Tebing Tinggi Kota, Kota Tebing Tinggi, Sumatera Utara","Kota Tebing Tinggi, Sumatera Utara",KALIMANTAN SELATAN,,Indonesia,,,,3.3114241,99.1772667,https://maps.google.com/?cid=0x0:0xfa6116e5906cad27,
perumahan,Perumahan,Perumahan Tebing Tinggi Indah,"859F+C5J, Jl. Abd. Rahim Lubis, Tebing Tinggi, Kec. Padang Hilir, Kota Tebing Tinggi, Sumatera Utara","Kota Tebing Tinggi, Sumatera Utara",KALIMANTAN SELATAN,,Indonesia,,,,3.3185896,99.1728819,https://maps.google.com/?cid=0x0:0x37a90180544a0732,
perumahan,Pembangunan Perumahan,Perumahan Asia Baru No. 24K,"Jl. Badak No.24K, Bandar Utama, Kec. Tebing Tinggi Kota, Kota Tebing Tinggi, Sumatera Utara 20998","Bandar Utama, Kec. Tebing Tinggi Kota, Kota Tebing Tinggi",KALIMANTAN SELATAN,20998.0,Indonesia,,,,3.334111,99.160063,https://maps.google.com/?cid=0x0:0xa55f0a9d45d16bdb,
perumahan,Pembangunan Perumahan,Perumahan Sigiling Lestari,"858G+8PG, Jl. Bhayangkara, Tebing Tinggi, Kec. Padang Hilir, Kota Tebing Tinggi, Sumatera Utara 20998","Jl. Bhayangkara, Tebing Tinggi, Kec. Padang Hilir, Kota Tebing Tinggi",KALIMANTAN SELATAN,20998.0,Indonesia,,,,3.3158161,99.1768272,https://maps.google.com/?cid=0x0:0x6e453fda8dde9e29,
perumahan,Perumahan,Tebingtinggi,"8576+827, Bagelen, Kec. Padang Hilir, Kota Tebing Tinggi, Sumatera Utara 20631","Bagelen, Kec. Padang Hilir, Kota Tebing Tinggi",KALIMANTAN SELATAN,20631.0,Indonesia,,,,3.3132831,99.1600568,https://maps.google.com/?cid=0x0:0x1cad5c70d2f9c885,
perumahan,Perumahan,Perumahan Sungai Indah,"Berohol, Kec. Bajenis, Kota Tebing Tinggi, Sumatera Utara 20614","Kec. Bajenis, Kota Tebing Tinggi",KALIMANTAN SELATAN,20614.0,Indonesia, 082273920430,,,3.3337268,99.1464752,https://maps.google.com/?cid=0x0:0xe55d3d88dcb40752,
perumahan,perumahan,CV. Karya Konstruksi Abadi,"Jl. Sei Batanang No.04, Durian, Kec. Bajenis, Kota Tebing Tinggi, Sumatera Utara 20621","Durian, Kec. Bajenis, Kota Tebing Tinggi",KALIMANTAN SELATAN,20621.0,Indonesia,,,,3.3271436,99.1540847,https://maps.google.com/?cid=0x0:0x5e16d586e7678f78,
perumahan,Komplek perumahan,PERUMAHAN ZAKARIA ASRI TEBING TINGGI,"857F+XJQ, Tebing Tinggi, Kec. Padang Hilir, Kota Tebing Tinggi, Sumatera Utara 20998","Tebing Tinggi, Kec. Padang Hilir, Kota Tebing Tinggi",KALIMANTAN SELATAN,20998.0,Indonesia, 081279898050,,,3.3151042,99.1726288,https://maps.google.com/?cid=0x0:0x75efd72c769a3680,
perumahan,Jasa Kereta Api,Stasiun kreta api tebing tinggi,"85F9+G5H, Jl. Saga Jl. Darat, Satria, Kec. Padang Hilir, Kota Tebing Tinggi, Sumatera Utara","Kota Tebing Tinggi, Sumatera Utara",KALIMANTAN SELATAN,,Indonesia,,,,3.3238159,99.1679954,https://maps.google.com/?cid=0x0:0xbbc5c2d40f3fd7ee,
perumahan,Pembangunan Perumahan,Perumahan Bukit Padang Merbau,"74RP+PH6, Jl. Danau Singkarak, Padang Merbau, Kec. Padang Hulu, Kota Tebing Tinggi, Sumatera Utara 20634","Jl. Danau Singkarak, Padang Merbau, Kec. Padang Hulu, Kota Tebing Tinggi",KALIMANTAN SELATAN,20634.0,Indonesia, 081378878383,,,3.2917291,99.1373259,https://maps.google.com/?cid=0x0:0x8a72294cd77d662a,
perumahan,Perhimpunan Pengembang Perumahan,PERUMAHAN ASRAMA ASRI,"Persiakan, Kec. Padang Hulu, Kota Tebing Tinggi, Sumatera Utara 20631","Kec. Padang Hulu, Kota Tebing Tinggi",KALIMANTAN SELATAN,20631.0,Indonesia, 082369951414,,,3.311583,99.1568523,https://maps.google.com/?cid=0x0:0xfa27e2241f0efeb2,
perumahan,Perancang Situs Web,Perumahan bajenis indah,"Jl. Bunga Raya, Bulian, Kec. Bajenis, Kota Tebing Tinggi, Sumatera Utara 20998","Bulian, Kec. Bajenis, Kota Tebing Tinggi",KALIMANTAN SELATAN,20998.0,Indonesia,,,,3.3297387,99.1352963,https://maps.google.com/?cid=0x0:0x8eaa3ab5ca52d810,
perumahan,Komplek perumahan,Perumahan Dosniroha,"8563+4H6, Persiakan, Kec. Padang Hulu, Kota Tebing Tinggi, Sumatera Utara 20631","Persiakan, Kec. Padang Hulu, Kota Tebing Tinggi",KALIMANTAN SELATAN,20631.0,Indonesia,,,,3.310277,99.1538979,https://maps.google.com/?cid=0x0:0x454d7b449763e9c0,
perumahan,Komplek perumahan,Perumahan Bagelen Sejuk,"8559+QJ8, Bagelen, Kec. Padang Hilir, Kota Tebing Tinggi, Sumatera Utara","Kota Tebing Tinggi, Sumatera Utara",KALIMANTAN SELATAN,,Indonesia,,,,3.3094235,99.1690895,https://maps.google.com/?cid=0x0:0xa4b734f269fa0849,
perumahan,Komplek perumahan,Kota tebing tinggi,"85G4+FMF, Mandailing, Kec. Tebing Tinggi Kota, Kota Tebing Tinggi, Sumatera Utara","Kota Tebing Tinggi, Sumatera Utara",KALIMANTAN SELATAN,,Indonesia,,,,3.3261945,99.1566765,https://maps.google.com/?cid=0x0:0xcdc72287afc012cc,
perumahan,Perhimpunan Pengembang Perumahan,Perumahan Pencipta,"85M6+JGM, Jl. Sudirman, Badak Bejuang, Kec. Tebing Tinggi Kota, Kota Tebing Tinggi, Sumatera Utara 20998","Jl. Sudirman, Badak Bejuang, Kec. Tebing Tinggi Kota, Kota Tebing Tinggi",KALIMANTAN SELATAN,20998.0,Indonesia,,,,3.3340881,99.1612864,https://maps.google.com/?cid=0x0:0x421bc1c81b9d98d0,
perumahan,Komplek perumahan,Perumahan Bagelen Atas,"8569+794, Bagelen, Kec. Padang Hilir, Kota Tebing Tinggi, Sumatera Utara 20998","Bagelen, Kec. Padang Hilir, Kota Tebing Tinggi",KALIMANTAN SELATAN,20998.0,Indonesia,,,,3.3106294,99.1684492,https://maps.google.com/?cid=0x0:0xb263cddbe399f492,
perumahan,perumahan,Tebing Tinggi,"Kec. Tebing Tinggi, Kabupaten Balangan, Kalimantan Selatan","Kabupaten Balangan, Kalimantan Selatan",KALIMANTAN SELATAN,,Indonesia,,,,-2.4291508,115.609553,https://maps.google.com/?cid=0x0:0xf4b23c7baaba3dcc,
perumahan,Pembangunan Perumahan,Tebing tinggi,"HJ55+Q6M, Sungsum, Kec. Tebing Tinggi, Kabupaten Balangan, Kalimantan Selatan 71664","Sungsum, Kec. Tebing Tinggi, Kabupaten Balangan",KALIMANTAN SELATAN,71664.0,Indonesia,,,,-2.4406734,115.6079519,https://maps.google.com/?cid=0x0:0x17080ab021713e71,
perumahan,perumahan,Desa Mayanau,"HJ7F+488, Mayanau, Kec. Tebing Tinggi, Kabupaten Balangan, Kalimantan Selatan 71664","Mayanau, Kec. Tebing Tinggi, Kabupaten Balangan",KALIMANTAN SELATAN,71664.0,Indonesia,,,,-2.4372051,115.6233156,https://maps.google.com/?cid=0x0:0xdf885232804e97cb,
perumahan,perumahan,rumah aBang AL,"HJ6F+XG9, Mayanau, Kec. Tebing Tinggi, Kabupaten Balangan, Kalimantan Selatan 71664","Mayanau, Kec. Tebing Tinggi, Kabupaten Balangan",KALIMANTAN SELATAN,71664.0,Indonesia,,,,-2.4375875,115.6238594,https://maps.google.com/?cid=0x0:0xb5e89a94a2184dda,
perumahan,Perhimpunan Pengembang Perumahan,Rumah pakco global,"HJ7C+2QM, Mayanau, Kec. Tebing Tinggi, Kabupaten Balangan, Kalimantan Selatan","Kabupaten Balangan, Kalimantan Selatan",KALIMANTAN SELATAN,,Indonesia,,,,-2.4374166,115.621928,https://maps.google.com/?cid=0x0:0xdda24b9a18719be7,
perumahan,Pembangunan Perumahan,Najril ilham10,"HJ67+5X6, Tebing Tinggi, Kec. Tebing Tinggi, Kabupaten Balangan, Kalimantan Selatan 71664","Tebing Tinggi, Kec. Tebing Tinggi, Kabupaten Balangan",KALIMANTAN SELATAN,71664.0,Indonesia,,,,-2.4395901,115.6149061,https://maps.google.com/?cid=0x0:0x800af282dc13e533,
perumahan,Pembangunan Perumahan,Viona,"HH2X+MJC, Sungsum, Kec. Tebing Tinggi, Kabupaten Balangan, Kalimantan Selatan 71664","Sungsum, Kec. Tebing Tinggi, Kabupaten Balangan",KALIMANTAN SELATAN,71664.0,Indonesia,,,,-2.4483046,115.598938,https://maps.google.com/?cid=0x0:0xd2756987413197c8,
perumahan,Pembangunan Perumahan,surya,"HJ35+5R7, RT.01, Sungsum, Kec. Tebing Tinggi, Kabupaten Balangan, Kalimantan Selatan 71664","RT.01, Sungsum, Kec. Tebing Tinggi, Kabupaten Balangan",KALIMANTAN SELATAN,71664.0,Indonesia, 085965905160,,,-2.4470888,115.609553,https://maps.google.com/?cid=0x0:0xf1e412a402739082,
perumahan,Komplek perumahan,Rumah rahimah,"HJ68+CX9, Simpang Bumbuan, Kec. Tebing Tinggi, Kabupaten Balangan, Kalimantan Selatan 71664","Simpang Bumbuan, Kec. Tebing Tinggi, Kabupaten Balangan",KALIMANTAN SELATAN,71664.0,Indonesia,,,,-2.4389878,115.6176707,https://maps.google.com/?cid=0x0:0x9b31a06245feeda9,
perumahan,Komplek perumahan,Rumah nika,"HJ67+4RJ, Sungsum, Kec. Tebing Tinggi, Kabupaten Balangan, Kalimantan Selatan 71664","Sungsum, Kec. Tebing Tinggi, Kabupaten Balangan",KALIMANTAN SELATAN,71664.0,Indonesia,,,,-2.4394716,115.6139311,https://maps.google.com/?cid=0x0:0x318630bf549ec5a5,
perumahan,Komplek perumahan,Simpang tiga Rumah mama Yudi,"HJ3G+P8W, Gn. Batu, Kec. Tebing Tinggi, Kabupaten Balangan, Kalimantan Selatan 71664","Gn. Batu, Kec. Tebing Tinggi, Kabupaten Balangan",KALIMANTAN SELATAN,71664.0,Indonesia,,,,-2.4456346,115.6258332,https://maps.google.com/?cid=0x0:0xfb3f1956e5c4a6fa,
perumahan,Perhimpunan Pengembang Perumahan,Sss,"HJ66+575, Sungsum, Kec. Tebing Tinggi, Kabupaten Balangan, Kalimantan Selatan 71664","Sungsum, Kec. Tebing Tinggi, Kabupaten Balangan",KALIMANTAN SELATAN,71664.0,Indonesia,,,,-2.4399818,115.6111113,https://maps.google.com/?cid=0x0:0xa07d9e0655356d8,
perumahan,Komplek perumahan,Rumah suganda,"2 RT o4 09, Gn. Batu","Kabupaten Balangan, Kalimantan Selatan",KALIMANTAN SELATAN,,Indonesia,,,,-2.4456346,115.6258332,https://maps.google.com/?cid=0x0:0x79b001abf0b79285,
perumahan,Perhimpunan Pengembang Perumahan,Dukun TikTok,"HJ7F+7GR, Simpang Nadung, Kec. Tebing Tinggi, Kabupaten Balangan, Kalimantan Selatan 71664","Simpang Nadung, Kec. Tebing Tinggi, Kabupaten Balangan",KALIMANTAN SELATAN,71664.0,Indonesia,,,,-2.4367517,115.6237683,https://maps.google.com/?cid=0x0:0xfef28c7e3846fddd,
perumahan,Pembangunan Perumahan,Rumah Nanda,"HJ66+2F6, Sungsum, Kec. Tebing Tinggi, Kabupaten Balangan, Kalimantan Selatan","Kabupaten Balangan, Kalimantan Selatan",KALIMANTAN SELATAN,,Indonesia,,,,-2.4399616,115.6111337,https://maps.google.com/?cid=0x0:0xeba3f9e4beccc8a6,
perumahan,Perumahan,Perumahan Tebing Tinggi Indah,"859F+C5J, Jl. Abd. Rahim Lubis, Tebing Tinggi, Kec. Padang Hilir, Kota Tebing Tinggi, Sumatera Utara","Kota Tebing Tinggi, Sumatera Utara",KALIMANTAN SELATAN,,Indonesia,,,,3.3185896,99.1728819,https://maps.google.com/?cid=0x0:0x37a90180544a0732,
perumahan,perumahan,CV. Karya Konstruksi Abadi,"Jl. Sei Batanang No.04, Durian, Kec. Bajenis, Kota Tebing Tinggi, Sumatera Utara 20621","Durian, Kec. Bajenis, Kota Tebing Tinggi",KALIMANTAN SELATAN,20621.0,Indonesia,,,,3.3271436,99.1540847,https://maps.google.com/?cid=0x0:0x5e16d586e7678f78,
