Category;Real Category;Business Name;Address;City;State;Postal Code;Country;Phone;Email;Website;Latitude;Longitude;Map Link;Details Link
"building materials";"Toko Bahan Bangunan";"U D. S I A M O N";"9C9H+7FM Sisarahili, Esiwa, Kec. Namohalu Esiwa, Kabupaten Nias Utara, Sumatera Utara";"Kabupaten Nias Utara, Sumatera Utara";"SUMATERA UTARA";"";"Indonesia";" 081287458656";"";"";"1.3682203";"97.4286806";"https://maps.google.com/?cid=0x0:0xc6c824ee453ebb2a";""
"building materials";"building materials";"Afulu";"Lauru I Afulu, Kec. Afulu, Kabupaten Nias Utara, Sumatera Utara";"Kabupaten Nias Utara, Sumatera Utara";"SUMATERA UTARA";"";"Indonesia";"";"";"";"1.275923";"97.228146";"https://maps.google.com/?cid=0x0:0x19123ccab5436978";""
"building materials";"Toko Bahan Bangunan";"Gudang(Ud.Nias bersama)";"99Q5+5QW, Hilidundra, Kec. Lotu, Kabupaten Nias Utara, Sumatera Utara";"Kabupaten Nias Utara, Sumatera Utara";"SUMATERA UTARA";"";"Indonesia";"";"";"";"1.3879875";"97.3594531";"https://maps.google.com/?cid=0x0:0xc0ff55daf11469c4";""
"building materials";"building materials";"UD ALDO";"95VC+4XG, Bolia, Lingkungan V, Ps. Lahewa, Kecamaten Lahewa, Kabupaten Nias Utara, Sumatera Utara 22853";"Bolia, Lingkungan V, Ps. Lahewa, Kecamaten Lahewa, Kabupaten Nias Utara";"SUMATERA UTARA";"22853";"Indonesia";"";"";"";"1.392801";"97.1724551";"https://maps.google.com/?cid=0x0:0x38612b2f0c53810c";""
"building materials";"Toko Bahan Bangunan";"UD. DELRICH";"588J+C6, Ononamolo Tumula, Kec. Alasa, Kabupaten Nias Utara, Sumatera Utara";"Kabupaten Nias Utara, Sumatera Utara";"SUMATERA UTARA";"";"Indonesia";" 081265566528";"";"";"1.1660829";"97.3306281";"https://maps.google.com/?cid=0x0:0x8bb8a57f86f3580e";""
"building materials";"Toko";"UD.BOY HULU";"6CGC+986, Jl. Fulölö, Loloana'a, Kec. Tugala Oyo, Kabupaten Nias Utara, Sumatera Utara 22814";"Jl. Fulölö, Loloana'a, Kec. Tugala Oyo, Kabupaten Nias Utara";"SUMATERA UTARA";"22814";"Indonesia";"";"";"";"1.225908";"97.4207507";"https://maps.google.com/?cid=0x0:0x437140e514a420ca";""
"building materials";"building materials";"Sumatera Utara 22857";"Kec. Afulu, Kabupaten Nias Utara, Sumatera Utara";"Kabupaten Nias Utara, Sumatera Utara";"SUMATERA UTARA";"";"Indonesia";"";"";"";"1.2548965";"97.2598913";"https://maps.google.com/?cid=0x0:0x7b808d1bfbbe7383";""
"building materials";"Toko Bahan Bangunan";"U D. S I A M O N";"9C9H+7FM Sisarahili, Esiwa, Kec. Namohalu Esiwa, Kabupaten Nias Utara, Sumatera Utara";"Kabupaten Nias Utara, Sumatera Utara";"SUMATERA UTARA";"";"Indonesia";" 081287458656";"";"";"1.3682203";"97.4286806";"https://maps.google.com/?cid=0x0:0xc6c824ee453ebb2a";""
"building materials";"";"UD.78";"Jl. Yos Sudarso Ujung No.26B, Saombo, Kec. Gunungsitoli, Kota Gunungsitoli, Sumatera Utara";"Kota Gunungsitoli, Sumatera Utara";"SUMATERA UTARA";"";"Indonesia";" 082274686060";"";"";"1.2946077";"97.6094872";"https://maps.google.com/?cid=0x0:0x7beb4b64cda0563a";""
"building materials";"Toko";"UD. Yosef";"WQWX+QW8, Sifaoroasi Uluhou, Kec. Bawolato, Kabupaten Nias, Sumatera Utara 22876";"Sifaoroasi Uluhou, Kec. Bawolato, Kabupaten Nias";"SUMATERA UTARA";"22876";"Indonesia";" 081231645392";"";"";"0.9471454";"97.7998943";"https://maps.google.com/?cid=0x0:0x509a2b1855e2ff60";""
"building materials";"Toko Bahan Bangunan";"UD.NIAS BERSAMA";"depan tribun, Jl. Arah Gunungsitoli-Lahewa No.desa, hilidundra, Kec. Lotu, Kabupaten Nias Utara, Sumatera Utara";"Kabupaten Nias Utara, Sumatera Utara";"SUMATERA UTARA";"";"Indonesia";"";"";"";"1.4974405";"97.3946163";"https://maps.google.com/?cid=0x0:0x3f0f7e0d90665201";""
"building materials";"Toko Bahan Bangunan";"FBC";"CF2W+FQV, Hilimbosi, Kec. Sitolu Ori, Kabupaten Nias Utara, Sumatera Utara 22852";"Hilimbosi, Kec. Sitolu Ori, Kabupaten Nias Utara";"SUMATERA UTARA";"22852";"Indonesia";"";"";"";"1.4012425";"97.4969313";"https://maps.google.com/?cid=0x0:0xcb77b2eaf66bbec0";""
"building materials";"building materials";"Afulu";"Lauru I Afulu, Kec. Afulu, Kabupaten Nias Utara, Sumatera Utara";"Kabupaten Nias Utara, Sumatera Utara";"SUMATERA UTARA";"";"Indonesia";"";"";"";"1.275923";"97.228146";"https://maps.google.com/?cid=0x0:0x19123ccab5436978";""
"building materials";"Toko Bahan Bangunan";"Toko ANEKA BANGUNAN";"depan rumah makan beringin baru, Jl. Sirao No.6, Saombo, Kec. Gunungsitoli, Kabupaten Nias, Sumatera Utara";"Kabupaten Nias, Sumatera Utara";"SUMATERA UTARA";"";"Indonesia";" 081231645392";"";"";"1.2903411";"97.6158857";"https://maps.google.com/?cid=0x0:0x53ca275b69ef0d2c";""
"building materials";"building materials";"UD ALDO";"95VC+4XG, Bolia, Lingkungan V, Ps. Lahewa, Kecamaten Lahewa, Kabupaten Nias Utara, Sumatera Utara 22853";"Bolia, Lingkungan V, Ps. Lahewa, Kecamaten Lahewa, Kabupaten Nias Utara";"SUMATERA UTARA";"22853";"Indonesia";"";"";"";"1.392801";"97.1724551";"https://maps.google.com/?cid=0x0:0x38612b2f0c53810c";""
"building materials";"Toko Bahan Bangunan";"UD. ZULFAN";"Hili Hao, Kec. Gunungsitoli, Kota Gunungsitoli, Sumatera Utara";"Kota Gunungsitoli, Sumatera Utara";"SUMATERA UTARA";"";"Indonesia";"";"";"";"1.3315433";"97.5960085";"https://maps.google.com/?cid=0x0:0xa85b7c1070ec1d4a";""
"building materials";"Toko Alat-Alat";"UD. Start Jaya";"Jl. Yos Sudarso Ujung No.KM. 5,6, Hili Hao, Kec. Gunungsitoli, Kota Gunungsitoli, Sumatera Utara";"Kota Gunungsitoli, Sumatera Utara";"SUMATERA UTARA";"";"Indonesia";" 081231645392";"";"";"1.3320776";"97.5957471";"https://maps.google.com/?cid=0x0:0xb80213d4744667a1";""
"building materials";"building materials";"Sumatera Utara 22861";"Kabupaten Nias Utara, Sumatera Utara";"Kabupaten Nias Utara, Sumatera Utara";"SUMATERA UTARA";"";"Indonesia";"";"";"";"1.1639401";"97.394882";"https://maps.google.com/?cid=0x0:0x146e7c32a97f723";""
"building materials";"Toko Bahan Bangunan";"UD. DELRICH";"588J+C6, Ononamolo Tumula, Kec. Alasa, Kabupaten Nias Utara, Sumatera Utara";"Kabupaten Nias Utara, Sumatera Utara";"SUMATERA UTARA";"";"Indonesia";" 081265566528";"";"";"1.1660829";"97.3306281";"https://maps.google.com/?cid=0x0:0x8bb8a57f86f3580e";""
"building materials";"Toko";"UD.BOY HULU";"6CGC+986, Jl. Fulölö, Loloana'a, Kec. Tugala Oyo, Kabupaten Nias Utara, Sumatera Utara 22814";"Jl. Fulölö, Loloana'a, Kec. Tugala Oyo, Kabupaten Nias Utara";"SUMATERA UTARA";"22814";"Indonesia";"";"";"";"1.225908";"97.4207507";"https://maps.google.com/?cid=0x0:0x437140e514a420ca";""
"building materials";"Toko Bahan Bangunan";"Toko Tiga Serangkai";"5MFQ+9CJ, Jl. Raya Pelud Binaka, Lasara Idanoi, Kec. Gido, Kabupaten Nias, Sumatera Utara";"Kabupaten Nias, Sumatera Utara";"SUMATERA UTARA";"";"Indonesia";" 081287458656";"";"";"1.1734639";"97.6885163";"https://maps.google.com/?cid=0x0:0xc947e6c19ba134a6";""
"building materials";"Toko umum";"Wewin BATUBATA PREMIUM";"79V4+4RF, Laowowaga, Kec. Lahewa Tim., Kabupaten Nias Utara, Sumatera Utara";"Kabupaten Nias Utara, Sumatera Utara";"SUMATERA UTARA";"";"Indonesia";" 081291902169";"";"";"1.2936315";"97.3567029";"https://maps.google.com/?cid=0x0:0x4d6fa2f5d11e9482";""
"building materials";"building materials";"Kec. Alasa";"Kabupaten Nias Utara, Sumatera Utara";"Kabupaten Nias Utara, Sumatera Utara";"SUMATERA UTARA";"";"Indonesia";"";"";"";"1.2303221";"97.4118596";"https://maps.google.com/?cid=0x0:0x58238ef9e24a371d";""
"building materials";"Kantor Perusahaan";"PT. Powerblock Indonesia";"Jl. Biak No.60, Cideng, Kecamatan Gambir, Kota Jakarta Pusat, Daerah Khusus Ibukota Jakarta 10150";"Cideng, Kecamatan Gambir, Kota Jakarta Pusat";"SUMATERA UTARA";"10150";"Indonesia";" 08388827792";"";"";"-6.1667801";"106.8084455";"https://maps.google.com/?cid=0x0:0xa6f33905b9df6ce5";""
"building materials";"Toko";"CV. Jampea Anugerah Sejahtera ( Distributor Gypsum, Hollow, Baja Ringan, Besi, Semen, Dll )";"Jl. Insinyur H. Juanda No.111, RT.007/RW.001, Duren Jaya, Kec. Bekasi Tim., Kota Bks, Jawa Barat 17111";"RT.007/RW.001, Duren Jaya, Kec. Bekasi Tim., Kota Bks";"SUMATERA UTARA";"17111";"Indonesia";" 081229292986";"";"";"-6.2486342";"107.0224714";"https://maps.google.com/?cid=0x0:0xf5efc43096477b89";""
"building materials";"Toko Bahan Bangunan";"Toko Besi Sinar Bajatama Pengasinan";"Jl. Raya Pengasinan No.74, RT.002/RW.003, Pengasinan, Kec. Sawangan, Kota Depok, Jawa Barat 16518";"RT.002/RW.003, Pengasinan, Kec. Sawangan, Kota Depok";"SUMATERA UTARA";"16518";"Indonesia";" 085163059367";"";"";"-6.425595";"106.7519398";"https://maps.google.com/?cid=0x0:0x51e20f797a30ea59";""
"building materials";"Toko Alat-Alat";"Toko Karya Baru";"Jl. Sudirman Pasar No.30, Saombo, Kec. Gunungsitoli, Kota Gunungsitoli, Sumatera Utara";"Kota Gunungsitoli, Sumatera Utara";"SUMATERA UTARA";"";"Indonesia";" 08179025265";"";"";"1.2872793";"97.6175534";"https://maps.google.com/?cid=0x0:0x3f78a2a9624e44a5";""
"building materials";"building materials";"Sumatera Utara 22814";"Saombo, Kec. Gunungsitoli, Kota Gunungsitoli, Sumatera Utara";"Kota Gunungsitoli, Sumatera Utara";"SUMATERA UTARA";"";"Indonesia";"";"";"";"1.2897758";"97.6188016";"https://maps.google.com/?cid=0x0:0x72677cb0cc3dbd55";""
"building materials";"Toko";"Toko Setia Jaya";"JL Sirao, No. 116, Pasar Kota, Saombo, Kec. Gunungsitoli, Kota Gunungsitoli, Sumatera Utara 22814";"No. 116, Pasar Kota, Saombo, Kec. Gunungsitoli, Kota Gunungsitoli";"SUMATERA UTARA";"22814";"Indonesia";" 063922526";"";"";"1.2900876";"97.6170381";"https://maps.google.com/?cid=0x0:0xef3b5a98bce917c8";""
"building materials";"Toko Bahan Bangunan";"Toko Bangun";"Jl. Sirao No.46D, Pasar, Kec. Gunungsitoli, Kota Gunungsitoli, Sumatera Utara 22815";"Pasar, Kec. Gunungsitoli, Kota Gunungsitoli";"SUMATERA UTARA";"22815";"Indonesia";" 081361694919";"";"";"1.2899006";"97.6176682";"https://maps.google.com/?cid=0x0:0x9ce61f651849b821";""
"building materials";"Toko Bahan Bangunan";"Mitra Baru";"JL Diponegoro, No. 69A, Lingkungan 2, Ilir, Gunungsitoli, Ps. Gn. Sitoli, Kec. Gunungsitoli, Kota Gunungsitoli, Sumatera Utara";"Kota Gunungsitoli, Sumatera Utara";"SUMATERA UTARA";"";"Indonesia";" 083170586111";"";"";"1.2877738";"97.6216442";"https://maps.google.com/?cid=0x0:0xf1149cf92c41909a";""
"building materials";"Toko Bahan Bangunan";"Metro jaya";"Jl. Sudirman No.5, Saombo, Kec. Gunungsitoli, Kota Gunungsitoli, Sumatera Utara";"Kota Gunungsitoli, Sumatera Utara";"SUMATERA UTARA";"";"Indonesia";"";"";"";"1.2876696";"97.6184053";"https://maps.google.com/?cid=0x0:0xf94d19040b837d3b";""
"building materials";"Toko Bahan Bangunan";"Toko SEJATI";"Jl. Sirao No.118, Ps. Gn. Sitoli, Kec. Gunungsitoli, Kota Gunungsitoli, Sumatera Utara 22814";"Ps. Gn. Sitoli, Kec. Gunungsitoli, Kota Gunungsitoli";"SUMATERA UTARA";"22814";"Indonesia";"";"";"";"1.2886541";"97.6191848";"https://maps.google.com/?cid=0x0:0xd2db58abc550eee1";""
"building materials";"Toko Bahan Bangunan";"Toko Karya Rezeki";"JL Diponegoro, No. 83, Lingkungan 2, Ilir, Gunungsitoli, Ps. Gn. Sitoli, Kec. Gunungsitoli, Kota Gunungsitoli, Sumatera Utara";"Kota Gunungsitoli, Sumatera Utara";"SUMATERA UTARA";"";"Indonesia";" 063922198";"";"";"1.2875646";"97.6221646";"https://maps.google.com/?cid=0x0:0x973cc7bf514e3b95";""
"building materials";"Toko";"UD.BOY HULU";"6CGC+986, Jl. Fulölö, Loloana'a, Kec. Tugala Oyo, Kabupaten Nias Utara, Sumatera Utara 22814";"Jl. Fulölö, Loloana'a, Kec. Tugala Oyo, Kabupaten Nias Utara";"SUMATERA UTARA";"22814";"Indonesia";"";"";"";"1.225908";"97.4207507";"https://maps.google.com/?cid=0x0:0x437140e514a420ca";""
"building materials";"Toko Bahan Bangunan";"UD. DEO HULU";"Jl. Fulölö No.66, Loloana'a, Kec. Tugala Oyo, Kabupaten Nias Utara, Sumatera Utara 22861";"Loloana'a, Kec. Tugala Oyo, Kabupaten Nias Utara";"SUMATERA UTARA";"22861";"Indonesia";"";"";"";"1.2283915";"97.4286317";"https://maps.google.com/?cid=0x0:0x52511417746128bd";""
"building materials";"Sekolah";"SD NEGERI 076689 FULOLO ALASA";"6CGC+78Q, Jl. Fulölö, Loloana'a, Kec. Tugala Oyo, Kabupaten Nias Utara, Sumatera Utara 22814";"Jl. Fulölö, Loloana'a, Kec. Tugala Oyo, Kabupaten Nias Utara";"SUMATERA UTARA";"22814";"Indonesia";"";"";"";"1.2257224";"97.4208739";"https://maps.google.com/?cid=0x0:0xac1cd4b866758197";""
"building materials";"Pemasok Pipa";"Surya Utama Metalindo PT.";"Jl. Gunung Sahari Raya no.1 Mangga Dua Square lt 2 blok C 61, RT.11/RW.6, Ancol, Kec. Pademangan, Jkt Utara, Daerah Khusus Ibukota Jakarta 14420";"RT.11/RW.6, Ancol, Kec. Pademangan, Jkt Utara";"SUMATERA UTARA";"14420";"Indonesia";" 082310999956";"";"";"-6.1387824";"106.8314329";"https://maps.google.com/?cid=0x0:0x213f9340f3f4865";""
"building materials";"Kontraktor Insulasi";"PT Tali Rejeki";"Jl. Taruma Jaya No.11, Setia Asih, Kec. Tarumajaya, Kota Bks, Jawa Barat 17215";"Setia Asih, Kec. Tarumajaya, Kota Bks";"SUMATERA UTARA";"17215";"Indonesia";" 02122889956";"";"";"-6.1652412";"106.9900241";"https://maps.google.com/?cid=0x0:0x15898fadc067eab7";""
"building materials";"building materials";"Sumatera Utara 22853";"Kecamaten Lahewa, Kabupaten Nias Utara, Sumatera Utara";"Kabupaten Nias Utara, Sumatera Utara";"SUMATERA UTARA";"";"Indonesia";"";"";"";"1.3266447";"97.2329255";"https://maps.google.com/?cid=0x0:0xc7df9697de637a01";""
"building materials";"Toko Perlengkapan Rumah";"UD. JORKAY";"95RG+HV3, Ps. Lahewa, Kecamaten Lahewa, Kabupaten Nias Utara, Sumatera Utara";"Kabupaten Nias Utara, Sumatera Utara";"SUMATERA UTARA";"";"Indonesia";" 081287458656";"";"";"1.3913839";"97.1771655";"https://maps.google.com/?cid=0x0:0xe075c01a7769eecb";""
"building materials";"Toko Bahan Bangunan";"Fatma house";"95VC+W7R, Ps. Lahewa, Kecamaten Lahewa, Kabupaten Nias Utara, Sumatera Utara 22853";"Ps. Lahewa, Kecamaten Lahewa, Kabupaten Nias Utara";"SUMATERA UTARA";"22853";"Indonesia";"";"";"";"1.3949433";"97.1704839";"https://maps.google.com/?cid=0x0:0xfdc5c50a9a8bc5d1";""
"building materials";"Toko Bahan Bangunan";"Toko Material Bangunan Daniel";"5HW9+W7R, Dahadano Botombawo, Kec. HiliSerangkai, Kabupaten Nias, Sumatera Utara 22851";"Dahadano Botombawo, Kec. HiliSerangkai, Kabupaten Nias";"SUMATERA UTARA";"22851";"Indonesia";" 083114785308";"";"";"1.1975201";"97.5674987";"https://maps.google.com/?cid=0x0:0x5ac67810e5b018cd";""
"building materials";"Sekolah";"Ombelata ulu";"Jl. Elang I, Ombolata Ulu, Kec. Gunungsitoli, Kota Gunungsitoli, Sumatera Utara";"Kota Gunungsitoli, Sumatera Utara";"SUMATERA UTARA";"";"Indonesia";" 085270925384";"";"";"1.3103813";"97.6089595";"https://maps.google.com/?cid=0x0:0xb8397e83cda6db56";""
"building materials";"Toko Bahan Bangunan";"UD. UMBU HARAZAKI";"Jl. Arah Nias Utara No.504, Afia, Kec. Gunungsitoli Utara, Kota Gunungsitoli, Sumatera Utara 22851";"Afia, Kec. Gunungsitoli Utara, Kota Gunungsitoli";"SUMATERA UTARA";"22851";"Indonesia";"";"";"";"1.3738691";"97.5588053";"https://maps.google.com/?cid=0x0:0x5b315db80b8af2c8";""
"building materials";"Toko Bahan Bangunan";"U D. S I A M O N";"9C9H+7FM Sisarahili, Esiwa, Kec. Namohalu Esiwa, Kabupaten Nias Utara, Sumatera Utara";"Kabupaten Nias Utara, Sumatera Utara";"SUMATERA UTARA";"";"Indonesia";" 081287458656";"";"";"1.3682203";"97.4286806";"https://maps.google.com/?cid=0x0:0xc6c824ee453ebb2a";""
"building materials";"Toko";"UD.BOY HULU";"6CGC+986, Jl. Fulölö, Loloana'a, Kec. Tugala Oyo, Kabupaten Nias Utara, Sumatera Utara 22814";"Jl. Fulölö, Loloana'a, Kec. Tugala Oyo, Kabupaten Nias Utara";"SUMATERA UTARA";"22814";"Indonesia";"";"";"";"1.225908";"97.4207507";"https://maps.google.com/?cid=0x0:0x437140e514a420ca";""
"building materials";"Toko Bahan Bangunan";"Total Bangunan 696";"Jalan Gunungsitoli -Lahewa No.km.14, RW.5, Muara Indah, Kec. Gunungsitoli Utara, Kota Gunungsitoli, Sumatera Utara 22851";"RW.5, Muara Indah, Kec. Gunungsitoli Utara, Kota Gunungsitoli";"SUMATERA UTARA";"22851";"Indonesia";" 082364705520";"";"";"1.3839234";"97.5375444";"https://maps.google.com/?cid=0x0:0x9e5edcc3989bea1d";""
"building materials";"Toko";"UD.98";"4P7J+699, Wea-Wea, Kec. Gido, Kabupaten Nias, Sumatera Utara 22871";"Wea-Wea, Kec. Gido, Kabupaten Nias";"SUMATERA UTARA";"22871";"Indonesia";" 081287458656";"";"";"1.1130302";"97.7309753";"https://maps.google.com/?cid=0x0:0x5c7440accd4d2fd5";""
"building materials";"Toko Bahan Bangunan";"Toko ANEKA BANGUNAN";"depan rumah makan beringin baru, Jl. Sirao No.6, Saombo, Kec. Gunungsitoli, Kabupaten Nias, Sumatera Utara";"Kabupaten Nias, Sumatera Utara";"SUMATERA UTARA";"";"Indonesia";" 081231645392";"";"";"1.2903411";"97.6158857";"https://maps.google.com/?cid=0x0:0x53ca275b69ef0d2c";""
"building materials";"Toko Bahan Bangunan";"UD CIPTA";"FFC2+25J, Jl. Tuhemberua, Banuagea, Kec. Tuhemberua, Kabupaten Nias Utara, Sumatera Utara 22852";"Jl. Tuhemberua, Banuagea, Kec. Tuhemberua, Kabupaten Nias Utara";"SUMATERA UTARA";"22852";"Indonesia";" 085296022295";"";"";"1.4700751";"97.4503753";"https://maps.google.com/?cid=0x0:0x2f377451e1e741c1";""
"building materials";"building materials";"UD may nerfan";"3G6V+JQM dusun 2 Hiligo'o, Lakhene, Kec. Mandrehe, Kabupaten Nias Barat, Sumatera Utara 22862";"Lakhene, Kec. Mandrehe, Kabupaten Nias Barat";"SUMATERA UTARA";"22862";"Indonesia";"";"";"";"1.0615992";"97.5444337";"https://maps.google.com/?cid=0x0:0xa9fc1d5ff161abd4";""
"building materials";"Toko Bahan Bangunan";"UD. ZULFAN";"Hili Hao, Kec. Gunungsitoli, Kota Gunungsitoli, Sumatera Utara";"Kota Gunungsitoli, Sumatera Utara";"SUMATERA UTARA";"";"Indonesia";"";"";"";"1.3315433";"97.5960085";"https://maps.google.com/?cid=0x0:0xa85b7c1070ec1d4a";""
"building materials";"Toko Elektronik";"UD. SEDERHANA ELECTRIC";"WJWP+9JQ, Koendrafo, Kec. Lolomatua, Kabupaten Nias Selatan, Sumatera Utara 22867";"Koendrafo, Kec. Lolomatua, Kabupaten Nias Selatan";"SUMATERA UTARA";"22867";"Indonesia";" 081287458656";"";"";"0.9459738";"97.6366155";"https://maps.google.com/?cid=0x0:0xf311ab55dbaf7faf";""
"building materials";"Toko Bahan Bangunan";"UD.NIAS BERSAMA";"depan tribun, Jl. Arah Gunungsitoli-Lahewa No.desa, hilidundra, Kec. Lotu, Kabupaten Nias Utara, Sumatera Utara";"Kabupaten Nias Utara, Sumatera Utara";"SUMATERA UTARA";"";"Indonesia";"";"";"";"1.4974405";"97.3946163";"https://maps.google.com/?cid=0x0:0x3f0f7e0d90665201";""
"building materials";"Toko Perlengkapan Rumah";"Bintang Keramik";"Jl. Diponegoro No.331, Ilir, Kec. Gunungsitoli, Kota Gunungsitoli, Sumatera Utara";"Kota Gunungsitoli, Sumatera Utara";"SUMATERA UTARA";"";"Indonesia";" 085261215008";"";"";"1.2768764";"97.6304523";"https://maps.google.com/?cid=0x0:0xc308ef56f059f942";""
"building materials";"Rumah Kayu";"Pondok sinoki gea";"Fadoro hilimbowo, Kecamaten Lahewa, Kabupaten Nias Utara, Sumatera Utara";"Kabupaten Nias Utara, Sumatera Utara";"SUMATERA UTARA";"";"Indonesia";" 082277193200";"";"";"1.3938595";"97.2202877";"https://maps.google.com/?cid=0x0:0xc179d17fd3d56606";""
"building materials";"Toko Bahan Bangunan";"Gudang(Ud.Nias bersama)";"99Q5+5QW, Hilidundra, Kec. Lotu, Kabupaten Nias Utara, Sumatera Utara";"Kabupaten Nias Utara, Sumatera Utara";"SUMATERA UTARA";"";"Indonesia";"";"";"";"1.3879875";"97.3594531";"https://maps.google.com/?cid=0x0:0xc0ff55daf11469c4";""
"building materials";"Toko";"UD. CEMERLANG";"Jl. Raya Onolimbu - Lahomi No.7, Onolimbu, Kec. Lahomi, Kabupaten Nias Barat, Sumatera Utara 22864";"Onolimbu, Kec. Lahomi, Kabupaten Nias Barat";"SUMATERA UTARA";"22864";"Indonesia";" 081287458656";"";"";"1.0096416";"97.4925114";"https://maps.google.com/?cid=0x0:0x81401eb2dfac7be5";""
"building materials";"building materials";"Lahewa";"Fadoro Sitolu Hili, Kecamaten Lahewa, Kabupaten Nias Utara, Sumatera Utara";"Kabupaten Nias Utara, Sumatera Utara";"SUMATERA UTARA";"";"Indonesia";"";"";"";"1.390561";"97.176434";"https://maps.google.com/?cid=0x0:0x8aba201f76253f8d";""
"building materials";"building materials";"UD. RIZKA";"Jl. Soekarno No.90, Ps. Lahewa, Kecamaten Lahewa, Kabupaten Nias Utara, Sumatera Utara 22853";"Ps. Lahewa, Kecamaten Lahewa, Kabupaten Nias Utara";"SUMATERA UTARA";"22853";"Indonesia";"";"";"";"1.3928575";"97.1693355";"https://maps.google.com/?cid=0x0:0x778d1da127d6f8f2";""
"building materials";"building materials";"UD ALDO";"95VC+4XG, Bolia, Lingkungan V, Ps. Lahewa, Kecamaten Lahewa, Kabupaten Nias Utara, Sumatera Utara 22853";"Bolia, Lingkungan V, Ps. Lahewa, Kecamaten Lahewa, Kabupaten Nias Utara";"SUMATERA UTARA";"22853";"Indonesia";"";"";"";"1.392801";"97.1724551";"https://maps.google.com/?cid=0x0:0x38612b2f0c53810c";""
"building materials";"Kontraktor Insulasi";"PT Tali Rejeki";"Jl. Taruma Jaya No.11, Setia Asih, Kec. Tarumajaya, Kota Bks, Jawa Barat 17215";"Setia Asih, Kec. Tarumajaya, Kota Bks";"SUMATERA UTARA";"17215";"Indonesia";" 02122889956";"";"";"-6.1652412";"106.9900241";"https://maps.google.com/?cid=0x0:0x15898fadc067eab7";""
"building materials";"Pemasok Pipa";"Surya Utama Metalindo PT.";"Jl. Gunung Sahari Raya no.1 Mangga Dua Square lt 2 blok C 61, RT.11/RW.6, Ancol, Kec. Pademangan, Jkt Utara, Daerah Khusus Ibukota Jakarta 14420";"RT.11/RW.6, Ancol, Kec. Pademangan, Jkt Utara";"SUMATERA UTARA";"14420";"Indonesia";" 082310999956";"";"";"-6.1387824";"106.8314329";"https://maps.google.com/?cid=0x0:0x213f9340f3f4865";""
"building materials";"Jasa Konstruksi dan Bangunan";"PT. Tirta Citra Bara Persada";"Ruko Prima Sunter Jl. Agung Timur 8, kav D5-6. Sunter Agung, 14350, Sunter, Tanjung Priok, RT.10/RW.11, Sunter Jaya, Kec. Tj. Priok, Jkt Utara, Daerah Khusus Ibukota Jakarta 14450";"kav D5-6. Sunter Agung, 14350, Sunter, Tanjung Priok, RT.10/RW.11, Sunter Jaya, Kec. Tj. Priok, Jkt Utara";"SUMATERA UTARA";"14450";"Indonesia";" 02165307671";"";"";"-6.141923";"106.88518";"https://maps.google.com/?cid=0x0:0xed9a88afd6a7dd88";""
"building materials";"building materials";"Kec. Lahewa Tim.";"Kabupaten Nias Utara, Sumatera Utara";"Kabupaten Nias Utara, Sumatera Utara";"SUMATERA UTARA";"";"Indonesia";"";"";"";"1.3690959";"97.3010539";"https://maps.google.com/?cid=0x0:0x1c45965c923c9076";""
"building materials";"Toko umum";"Wewin BATUBATA PREMIUM";"79V4+4RF, Laowowaga, Kec. Lahewa Tim., Kabupaten Nias Utara, Sumatera Utara";"Kabupaten Nias Utara, Sumatera Utara";"SUMATERA UTARA";"";"Indonesia";" 081291902169";"";"";"1.2936315";"97.3567029";"https://maps.google.com/?cid=0x0:0x4d6fa2f5d11e9482";""
"building materials";"Toko Bahan Bangunan";"SIAMON GROUP (PETI MATI  BATAKO)";"98MW+QG3, Hilidundra, Kec. Lotu, Kabupaten Nias Utara, Sumatera Utara 22851";"Hilidundra, Kec. Lotu, Kabupaten Nias Utara";"SUMATERA UTARA";"22851";"Indonesia";" 085329716866";"";"";"1.3843921";"97.3463042";"https://maps.google.com/?cid=0x0:0x68cef3331160ab0d";""
"building materials";"Toko Bahan Bangunan";"U D. S I A M O N";"9C9H+7FM Sisarahili, Esiwa, Kec. Namohalu Esiwa, Kabupaten Nias Utara, Sumatera Utara";"Kabupaten Nias Utara, Sumatera Utara";"SUMATERA UTARA";"";"Indonesia";" 081287458656";"";"";"1.3682203";"97.4286806";"https://maps.google.com/?cid=0x0:0xc6c824ee453ebb2a";""
"building materials";"Toko Bahan Bangunan";"Gudang(Ud.Nias bersama)";"99Q5+5QW, Hilidundra, Kec. Lotu, Kabupaten Nias Utara, Sumatera Utara";"Kabupaten Nias Utara, Sumatera Utara";"SUMATERA UTARA";"";"Indonesia";"";"";"";"1.3879875";"97.3594531";"https://maps.google.com/?cid=0x0:0xc0ff55daf11469c4";""
"building materials";"Toko";"UD.BOY HULU";"6CGC+986, Jl. Fulölö, Loloana'a, Kec. Tugala Oyo, Kabupaten Nias Utara, Sumatera Utara 22814";"Jl. Fulölö, Loloana'a, Kec. Tugala Oyo, Kabupaten Nias Utara";"SUMATERA UTARA";"22814";"Indonesia";"";"";"";"1.225908";"97.4207507";"https://maps.google.com/?cid=0x0:0x437140e514a420ca";""
"building materials";"Toko Bahan Bangunan";"BATAKO Si@mon";"Sisarahili, Esiwa, Kec. Namohalu Esiwa, Kabupaten Nias Utara, Sumatera Utara";"Kabupaten Nias Utara, Sumatera Utara";"SUMATERA UTARA";"";"Indonesia";" 085329716866";"";"";"1.3683976";"97.4289592";"https://maps.google.com/?cid=0x0:0xbe7bf81080d14024";""
"building materials";"Toko Komputer";"UD TERASTORE";"Jln. Dinas Pendidikan, Hilidundra, Kec. Lotu, Kabupaten Nias Utara, Sumatera Utara 22851";"Hilidundra, Kec. Lotu, Kabupaten Nias Utara";"SUMATERA UTARA";"22851";"Indonesia";" 081363487567";"";"";"1.3800533";"97.3626025";"https://maps.google.com/?cid=0x0:0x525872cba2133201";""
"building materials";"Toko Bahan Bangunan";"UD.NIAS BERSAMA";"depan tribun, Jl. Arah Gunungsitoli-Lahewa No.desa, hilidundra, Kec. Lotu, Kabupaten Nias Utara, Sumatera Utara";"Kabupaten Nias Utara, Sumatera Utara";"SUMATERA UTARA";"";"Indonesia";"";"";"";"1.4974405";"97.3946163";"https://maps.google.com/?cid=0x0:0x3f0f7e0d90665201";""
"building materials";"Kontraktor Insulasi";"PT Tali Rejeki";"Jl. Taruma Jaya No.11, Setia Asih, Kec. Tarumajaya, Kota Bks, Jawa Barat 17215";"Setia Asih, Kec. Tarumajaya, Kota Bks";"SUMATERA UTARA";"17215";"Indonesia";" 02122889956";"";"";"-6.1652412";"106.9900241";"https://maps.google.com/?cid=0x0:0x15898fadc067eab7";""
"building materials";"Pemasok Pipa";"Surya Utama Metalindo PT.";"Jl. Gunung Sahari Raya no.1 Mangga Dua Square lt 2 blok C 61, RT.11/RW.6, Ancol, Kec. Pademangan, Jkt Utara, Daerah Khusus Ibukota Jakarta 14420";"RT.11/RW.6, Ancol, Kec. Pademangan, Jkt Utara";"SUMATERA UTARA";"14420";"Indonesia";" 082310999956";"";"";"-6.1387824";"106.8314329";"https://maps.google.com/?cid=0x0:0x213f9340f3f4865";""
"building materials";"Toko umum";"UD.ABID";"FCX3+F2M, Seriwau, Kec. Sawo, Kabupaten Nias Utara, Sumatera Utara";"Kabupaten Nias Utara, Sumatera Utara";"SUMATERA UTARA";"";"Indonesia";"";"";"";"1.4987792";"97.4030594";"https://maps.google.com/?cid=0x0:0xadaa739a63f80adf";""
"building materials";"building materials";"Kec. Lotu";"Kabupaten Nias Utara, Sumatera Utara";"Kabupaten Nias Utara, Sumatera Utara";"SUMATERA UTARA";"";"Indonesia";"";"";"";"1.3891445";"97.3577578";"https://maps.google.com/?cid=0x0:0x33654c018df13e36";""
"building materials";"Toko Bahan Bangunan";"SIAMON GROUP (PETI MATI  BATAKO)";"98MW+QG3, Hilidundra, Kec. Lotu, Kabupaten Nias Utara, Sumatera Utara 22851";"Hilidundra, Kec. Lotu, Kabupaten Nias Utara";"SUMATERA UTARA";"22851";"Indonesia";" 085329716866";"";"";"1.3843921";"97.3463042";"https://maps.google.com/?cid=0x0:0x68cef3331160ab0d";""
"building materials";"Toko Bahan Bangunan";"U D. S I A M O N";"9C9H+7FM Sisarahili, Esiwa, Kec. Namohalu Esiwa, Kabupaten Nias Utara, Sumatera Utara";"Kabupaten Nias Utara, Sumatera Utara";"SUMATERA UTARA";"";"Indonesia";" 081287458656";"";"";"1.3682203";"97.4286806";"https://maps.google.com/?cid=0x0:0xc6c824ee453ebb2a";""
"building materials";"Toko Bahan Bangunan";"BATAKO Si@mon";"Sisarahili, Esiwa, Kec. Namohalu Esiwa, Kabupaten Nias Utara, Sumatera Utara";"Kabupaten Nias Utara, Sumatera Utara";"SUMATERA UTARA";"";"Indonesia";" 085329716866";"";"";"1.3683976";"97.4289592";"https://maps.google.com/?cid=0x0:0xbe7bf81080d14024";""
"building materials";"Toko Bahan Bangunan";"UD.NIAS BERSAMA";"depan tribun, Jl. Arah Gunungsitoli-Lahewa No.desa, hilidundra, Kec. Lotu, Kabupaten Nias Utara, Sumatera Utara";"Kabupaten Nias Utara, Sumatera Utara";"SUMATERA UTARA";"";"Indonesia";"";"";"";"1.4974405";"97.3946163";"https://maps.google.com/?cid=0x0:0x3f0f7e0d90665201";""
"building materials";"Toko Komputer";"UD TERASTORE";"Jln. Dinas Pendidikan, Hilidundra, Kec. Lotu, Kabupaten Nias Utara, Sumatera Utara 22851";"Hilidundra, Kec. Lotu, Kabupaten Nias Utara";"SUMATERA UTARA";"22851";"Indonesia";" 081363487567";"";"";"1.3800533";"97.3626025";"https://maps.google.com/?cid=0x0:0x525872cba2133201";""
"building materials";"Kantor Pemerintah";"Desa sawo, kecamatan sowo, kabupaten Nias Utara";"F9PX+J2W, Sawo, Kec. Sawo, Kabupaten Nias Utara, Sumatera Utara";"Kabupaten Nias Utara, Sumatera Utara";"SUMATERA UTARA";"";"Indonesia";"";"";"";"1.4866095";"97.3975845";"https://maps.google.com/?cid=0x0:0x3527be45ae9a4d22";""
"building materials";"Toko Bahan Bangunan";"UD CIPTA";"FFC2+25J, Jl. Tuhemberua, Banuagea, Kec. Tuhemberua, Kabupaten Nias Utara, Sumatera Utara 22852";"Jl. Tuhemberua, Banuagea, Kec. Tuhemberua, Kabupaten Nias Utara";"SUMATERA UTARA";"22852";"Indonesia";" 085296022295";"";"";"1.4700751";"97.4503753";"https://maps.google.com/?cid=0x0:0x2f377451e1e741c1";""
"building materials";"Toko Bahan Bangunan";"FBC";"CF2W+FQV, Hilimbosi, Kec. Sitolu Ori, Kabupaten Nias Utara, Sumatera Utara 22852";"Hilimbosi, Kec. Sitolu Ori, Kabupaten Nias Utara";"SUMATERA UTARA";"22852";"Indonesia";"";"";"";"1.4012425";"97.4969313";"https://maps.google.com/?cid=0x0:0xcb77b2eaf66bbec0";""
"building materials";"Toko Batu";"Omahbata - Toko Bata Expose , Toko Bata Tempel , Pabrik Roster Jakarta , Toko Roster";"Jl. Ciputat Raya No.59, RT.5/RW.2, Pd. Pinang, Kec. Kby. Lama, Kota Jakarta Selatan, Daerah Khusus Ibukota Jakarta 12310";"RT.5/RW.2, Pd. Pinang, Kec. Kby. Lama, Kota Jakarta Selatan";"SUMATERA UTARA";"12310";"Indonesia";" 081250050053";"";"";"-6.2656927";"106.7752628";"https://maps.google.com/?cid=0x0:0x978761a979cda9cb";""
"building materials";"Kontraktor Insulasi";"PT Tali Rejeki";"Jl. Taruma Jaya No.11, Setia Asih, Kec. Tarumajaya, Kota Bks, Jawa Barat 17215";"Setia Asih, Kec. Tarumajaya, Kota Bks";"SUMATERA UTARA";"17215";"Indonesia";" 02122889956";"";"";"-6.1652412";"106.9900241";"https://maps.google.com/?cid=0x0:0x15898fadc067eab7";""
"building materials";"Pemasok Pipa";"Surya Utama Metalindo PT.";"Jl. Gunung Sahari Raya no.1 Mangga Dua Square lt 2 blok C 61, RT.11/RW.6, Ancol, Kec. Pademangan, Jkt Utara, Daerah Khusus Ibukota Jakarta 14420";"RT.11/RW.6, Ancol, Kec. Pademangan, Jkt Utara";"SUMATERA UTARA";"14420";"Indonesia";" 082310999956";"";"";"-6.1387824";"106.8314329";"https://maps.google.com/?cid=0x0:0x213f9340f3f4865";""
"building materials";"Insinyur Teknik Lingkungan";"PT Tetrasa Geosinindo";"ITC ROXY MAS, Business Center, Jl. Kh Hasyim Ashari No.18-20 Block C4, Cideng, Gambir, Central Jakarta City, Jakarta 10150";"Business Center, Jl. Kh Hasyim Ashari No.18-20 Block C4, Cideng, Gambir, Central Jakarta City";"SUMATERA UTARA";"10150";"Indonesia";" 0216330150";"";"";"-6.1680063";"106.8051124";"https://maps.google.com/?cid=0x0:0x7c88f7e107a42fb8";""
"building materials";"building materials";"Sumatera Utara 22816";"Kec. Namohalu Esiwa, Kabupaten Nias Utara, Sumatera Utara";"Kabupaten Nias Utara, Sumatera Utara";"SUMATERA UTARA";"";"Indonesia";"";"";"";"1.3453232";"97.3840729";"https://maps.google.com/?cid=0x0:0x13bcd8183011aa";""
"building materials";"Toko Bahan Bangunan";"U D. S I A M O N";"9C9H+7FM Sisarahili, Esiwa, Kec. Namohalu Esiwa, Kabupaten Nias Utara, Sumatera Utara";"Kabupaten Nias Utara, Sumatera Utara";"SUMATERA UTARA";"";"Indonesia";" 081287458656";"";"";"1.3682203";"97.4286806";"https://maps.google.com/?cid=0x0:0xc6c824ee453ebb2a";""
"building materials";"Toko Bahan Bangunan";"BATAKO Si@mon";"Sisarahili, Esiwa, Kec. Namohalu Esiwa, Kabupaten Nias Utara, Sumatera Utara";"Kabupaten Nias Utara, Sumatera Utara";"SUMATERA UTARA";"";"Indonesia";" 085329716866";"";"";"1.3683976";"97.4289592";"https://maps.google.com/?cid=0x0:0xbe7bf81080d14024";""
"building materials";"building materials";"Kec. Namohalu Esiwa";"Kabupaten Nias Utara, Sumatera Utara";"Kabupaten Nias Utara, Sumatera Utara";"SUMATERA UTARA";"";"Indonesia";"";"";"";"1.3516333";"97.4047158";"https://maps.google.com/?cid=0x0:0x704a4afe59371577";""
"building materials";"Toko Bahan Bangunan";"U D. S I A M O N";"9C9H+7FM Sisarahili, Esiwa, Kec. Namohalu Esiwa, Kabupaten Nias Utara, Sumatera Utara";"Kabupaten Nias Utara, Sumatera Utara";"SUMATERA UTARA";"";"Indonesia";" 081287458656";"";"";"1.3682203";"97.4286806";"https://maps.google.com/?cid=0x0:0xc6c824ee453ebb2a";""
"building materials";"Toko Bahan Bangunan";"BATAKO Si@mon";"Sisarahili, Esiwa, Kec. Namohalu Esiwa, Kabupaten Nias Utara, Sumatera Utara";"Kabupaten Nias Utara, Sumatera Utara";"SUMATERA UTARA";"";"Indonesia";" 085329716866";"";"";"1.3683976";"97.4289592";"https://maps.google.com/?cid=0x0:0xbe7bf81080d14024";""
"building materials";"building materials";"Kec. Namohalu Esiwa";"Kabupaten Nias Utara, Sumatera Utara";"Kabupaten Nias Utara, Sumatera Utara";"SUMATERA UTARA";"";"Indonesia";"";"";"";"1.3516333";"97.4047158";"https://maps.google.com/?cid=0x0:0x704a4afe59371577";""
"building materials";"building materials";"Sumatera Utara 22852";"Kabupaten Nias Utara, Sumatera Utara";"Kabupaten Nias Utara, Sumatera Utara";"SUMATERA UTARA";"";"Indonesia";"";"";"";"1.4120939";"97.4597725";"https://maps.google.com/?cid=0x0:0x230853ed5a2114a9";""
"building materials";"Toko Bahan Bangunan";"BATAKO Si@mon";"Sisarahili, Esiwa, Kec. Namohalu Esiwa, Kabupaten Nias Utara, Sumatera Utara";"Kabupaten Nias Utara, Sumatera Utara";"SUMATERA UTARA";"";"Indonesia";" 085329716866";"";"";"1.3683976";"97.4289592";"https://maps.google.com/?cid=0x0:0xbe7bf81080d14024";""
"building materials";"Toko Bahan Bangunan";"SIAMON GROUP (PETI MATI  BATAKO)";"98MW+QG3, Hilidundra, Kec. Lotu, Kabupaten Nias Utara, Sumatera Utara 22851";"Hilidundra, Kec. Lotu, Kabupaten Nias Utara";"SUMATERA UTARA";"22851";"Indonesia";" 085329716866";"";"";"1.3843921";"97.3463042";"https://maps.google.com/?cid=0x0:0x68cef3331160ab0d";""
"building materials";"building materials";"Kec. Sawo";"Kabupaten Nias Utara, Sumatera Utara";"Kabupaten Nias Utara, Sumatera Utara";"SUMATERA UTARA";"";"Indonesia";"";"";"";"1.497956";"97.3989135";"https://maps.google.com/?cid=0x0:0x766aabcbebe65b39";""
"building materials";"Kantor Pemerintah";"Desa sawo, kecamatan sowo, kabupaten Nias Utara";"F9PX+J2W, Sawo, Kec. Sawo, Kabupaten Nias Utara, Sumatera Utara";"Kabupaten Nias Utara, Sumatera Utara";"SUMATERA UTARA";"";"Indonesia";"";"";"";"1.4866095";"97.3975845";"https://maps.google.com/?cid=0x0:0x3527be45ae9a4d22";""
"building materials";"Toko umum";"UD.ABID";"FCX3+F2M, Seriwau, Kec. Sawo, Kabupaten Nias Utara, Sumatera Utara";"Kabupaten Nias Utara, Sumatera Utara";"SUMATERA UTARA";"";"Indonesia";"";"";"";"1.4987792";"97.4030594";"https://maps.google.com/?cid=0x0:0xadaa739a63f80adf";""
"building materials";"Toko Bahan Bangunan";"UD.NIAS BERSAMA";"depan tribun, Jl. Arah Gunungsitoli-Lahewa No.desa, hilidundra, Kec. Lotu, Kabupaten Nias Utara, Sumatera Utara";"Kabupaten Nias Utara, Sumatera Utara";"SUMATERA UTARA";"";"Indonesia";"";"";"";"1.4974405";"97.3946163";"https://maps.google.com/?cid=0x0:0x3f0f7e0d90665201";""
"building materials";"building materials";"Kec. Sitolu Ori";"Kabupaten Nias Utara, Sumatera Utara";"Kabupaten Nias Utara, Sumatera Utara";"SUMATERA UTARA";"";"Indonesia";"";"";"";"1.3987456";"97.4439582";"https://maps.google.com/?cid=0x0:0xe9e1d2f552ca917e";""
"building materials";"Toko Bahan Bangunan";"FBC";"CF2W+FQV, Hilimbosi, Kec. Sitolu Ori, Kabupaten Nias Utara, Sumatera Utara 22852";"Hilimbosi, Kec. Sitolu Ori, Kabupaten Nias Utara";"SUMATERA UTARA";"22852";"Indonesia";"";"";"";"1.4012425";"97.4969313";"https://maps.google.com/?cid=0x0:0xcb77b2eaf66bbec0";""
"building materials";"Toko Bahan Bangunan";"U D. S I A M O N";"9C9H+7FM Sisarahili, Esiwa, Kec. Namohalu Esiwa, Kabupaten Nias Utara, Sumatera Utara";"Kabupaten Nias Utara, Sumatera Utara";"SUMATERA UTARA";"";"Indonesia";" 081287458656";"";"";"1.3682203";"97.4286806";"https://maps.google.com/?cid=0x0:0xc6c824ee453ebb2a";""
"building materials";"Toko Bahan Bangunan";"UD CIPTA";"FFC2+25J, Jl. Tuhemberua, Banuagea, Kec. Tuhemberua, Kabupaten Nias Utara, Sumatera Utara 22852";"Jl. Tuhemberua, Banuagea, Kec. Tuhemberua, Kabupaten Nias Utara";"SUMATERA UTARA";"22852";"Indonesia";" 085296022295";"";"";"1.4700751";"97.4503753";"https://maps.google.com/?cid=0x0:0x2f377451e1e741c1";""
"building materials";"Toko Bahan Bangunan";"Gudang(Ud.Nias bersama)";"99Q5+5QW, Hilidundra, Kec. Lotu, Kabupaten Nias Utara, Sumatera Utara";"Kabupaten Nias Utara, Sumatera Utara";"SUMATERA UTARA";"";"Indonesia";"";"";"";"1.3879875";"97.3594531";"https://maps.google.com/?cid=0x0:0xc0ff55daf11469c4";""
"building materials";"Pemasok Pipa";"Surya Utama Metalindo PT.";"Jl. Gunung Sahari Raya no.1 Mangga Dua Square lt 2 blok C 61, RT.11/RW.6, Ancol, Kec. Pademangan, Jkt Utara, Daerah Khusus Ibukota Jakarta 14420";"RT.11/RW.6, Ancol, Kec. Pademangan, Jkt Utara";"SUMATERA UTARA";"14420";"Indonesia";" 082310999956";"";"";"-6.1387824";"106.8314329";"https://maps.google.com/?cid=0x0:0x213f9340f3f4865";""
"building materials";"Kontraktor Insulasi";"PT Tali Rejeki";"Jl. Taruma Jaya No.11, Setia Asih, Kec. Tarumajaya, Kota Bks, Jawa Barat 17215";"Setia Asih, Kec. Tarumajaya, Kota Bks";"SUMATERA UTARA";"17215";"Indonesia";" 02122889956";"";"";"-6.1652412";"106.9900241";"https://maps.google.com/?cid=0x0:0x15898fadc067eab7";""
"building materials";"building materials";"Kec. Tugala Oyo";"Kabupaten Nias Utara, Sumatera Utara";"Kabupaten Nias Utara, Sumatera Utara";"SUMATERA UTARA";"";"Indonesia";"";"";"";"1.1465578";"97.4559257";"https://maps.google.com/?cid=0x0:0x1602712094e01383";""
"building materials";"Komplek perumahan";"Dahana tugala oyo";"6C4W+M7J, Harefanaese, Kec. Alasa Talumuzoi, Kabupaten Nias Utara, Sumatera Utara 22861";"Harefanaese, Kec. Alasa Talumuzoi, Kabupaten Nias Utara";"SUMATERA UTARA";"22861";"Indonesia";" 081270663518";"";"";"1.2067141";"97.4456386";"https://maps.google.com/?cid=0x0:0xf2cd38b0b4704fa1";""
"building materials";"Toko Bahan Bangunan";"UD. DELRICH";"588J+C6, Ononamolo Tumula, Kec. Alasa, Kabupaten Nias Utara, Sumatera Utara";"Kabupaten Nias Utara, Sumatera Utara";"SUMATERA UTARA";"";"Indonesia";" 081265566528";"";"";"1.1660829";"97.3306281";"https://maps.google.com/?cid=0x0:0x8bb8a57f86f3580e";""
"building materials";"Museum Sejarah Lokal";"Monumen Nasional";"Merdeka Square, Jalan Lapangan Monas, Gambir, Kecamatan Gambir, Kota Jakarta Pusat, Daerah Khusus Ibukota Jakarta 10110";"Jalan Lapangan Monas, Gambir, Kecamatan Gambir, Kota Jakarta Pusat";"SUMATERA UTARA";"10110";"Indonesia";" 0213853040";"";"";"-6.1753924";"106.8271528";"https://maps.google.com/?cid=0x0:0x3d2ad6e1e0e9bcc8";""
"building materials";"Suburban train line";"Stasiun Cikini";"No.5, Jl. Pegangsaan Timur No.RT.4, Pegangsaan, Kec. Menteng, Daerah Khusus Ibukota Jakarta 10310";"Jl. Pegangsaan Timur No.RT.4, Pegangsaan, Kec. Menteng";"SUMATERA UTARA";"10310";"Indonesia";"";"";"";"-6.1984393";"106.8413109";"https://maps.google.com/?cid=0x0:0x950c3b02c92fab81";""
"building materials";"building materials";"OYO 94362 Hotel Kebayoran";"Airy Eco, 62, Kebayoran Baru, BlokSSenayan, Jakarta 12170";"62, Kebayoran Baru, BlokSSenayan";"SUMATERA UTARA";"12170";"Indonesia";" 0817788016";"";"";"-6.237734";"106.816753";"https://maps.google.com/?cid=0x0:0x7fd0ebd60531357f";""
"building materials";"Perhentian bus";"Stadiun Karet";"Kb. Melati, Kecamatan Tanah Abang, Kota Jakarta Pusat, Daerah Khusus Ibukota Jakarta";"Kota Jakarta Pusat, Daerah Khusus Ibukota Jakarta";"SUMATERA UTARA";"";"Indonesia";"";"";"";"-6.2008419";"106.8159048";"https://maps.google.com/?cid=0x0:0x6b67090796653b2b";""
"building materials";"building materials";"OYO 90941 Egelsa 2020 Syariah Near Bank Mega Syariah KCP Rawamangun";"Jl. Kayu Jati I Gg. 1 No.3, RT.8/RW.4, Rawamangun, Kec. Pulo Gadung, Kota Jakarta Timur, Daerah Khusus Ibukota Jakarta 13220";"RT.8/RW.4, Rawamangun, Kec. Pulo Gadung, Kota Jakarta Timur";"SUMATERA UTARA";"13220";"Indonesia";" 02129707601";"";"";"-6.1924274";"106.884727";"https://maps.google.com/?cid=0x0:0x8b5011cf37fa3096";""
"building materials";"Layanan Transportasi";"Kramat";"dari Jalan Pramuka Jaya Sari, Jl. Penegak Jl. Gugus Depan Gg. II, Paseban, Kec. Senen, Daerah Khusus Ibukota Jakarta 10440";"Jl. Penegak Jl. Gugus Depan Gg. II, Paseban, Kec. Senen";"SUMATERA UTARA";"10440";"Indonesia";"";"";"";"-6.19371";"106.85659";"https://maps.google.com/?cid=0x0:0x1b1a874b25622c3b";""
"building materials";"building materials";"OYO 245 Juana 21";"6, Jl. Juana No.21, RT.7/RW.6, Dukuh Atas, Menteng, Jakarta, Kota Jakarta Pusat, Daerah Khusus Ibukota Jakarta 10310";"Jl. Juana No.21, RT.7/RW.6, Dukuh Atas, Menteng, Jakarta, Kota Jakarta Pusat";"SUMATERA UTARA";"10310";"Indonesia";" 02129707601";"";"";"-6.2015974";"106.8246861";"https://maps.google.com/?cid=0x0:0xdc52615b2c13595d";""
"building materials";"Stasiun Kereta";"Stasiun Sudirman";"10, Jl. Kendal No.24, RW.6, Menteng, 10310";"Jl. Kendal No.24, RW.6";"SUMATERA UTARA";"10310";"Indonesia";"";"";"";"-6.2024499";"106.8237671";"https://maps.google.com/?cid=0x0:0x13f90424139e1edf";""
"building materials";"building materials";"OYO 1990 Kost Kuningan Executive Boading House Setiabudi";"79, Jl. Genteng Ijo Kecamatan No.79, RT.6/RW.7, Kuningan, Karet Kuningan, Kecamatan Setiabudi, Daerah Khusus Ibukota Jakarta 12940";"Jl. Genteng Ijo Kecamatan No.79, RT.6/RW.7, Kuningan, Karet Kuningan, Kecamatan Setiabudi";"SUMATERA UTARA";"12940";"Indonesia";" 02129707601";"";"";"-6.2203417";"106.8269305";"https://maps.google.com/?cid=0x0:0xf7fcbcb33db42a78";""
"building materials";"building materials";"N/A";"";"";"SUMATERA UTARA";"";"Indonesia";"";"";"";"";"";"https://maps.google.com/?cid=0x0:0xf7fcbcb33db42a78%7C/g/11h8j43t1x%7Cen-ID";""
"building materials";"building materials";"OYO 94494 Krekot Residence Pasar Baru";"4, Jl. Krekot Bunder Raya No.4, RW.6, Jakarta, 10120";"Jl. Krekot Bunder Raya No.4, RW.6";"SUMATERA UTARA";"10120";"Indonesia";" 08383838387";"";"";"-6.1605899";"106.8320437";"https://maps.google.com/?cid=0x0:0xa5475966f7e52169";""
"building materials";"building materials";"OYO 90469 BENHIL KARET TENGSIN";"RS AL Mintohardjo, 94, RT.17/RW.5, Karet Tengsin, Tanah Abang, Jakarta, 10220";"94, RT.17/RW.5, Karet Tengsin, Tanah Abang";"SUMATERA UTARA";"10220";"Indonesia";" 02129707601";"";"";"-6.2087122";"106.8126948";"https://maps.google.com/?cid=0x0:0x95673a0217b680d0";""
"building materials";"building materials";"OYO 90635 Tango Juliet Residence";"18, Jl. Pejompongan Dalam No.18, Bend. Hilir, Kecamatan Tanah Abang, Jakarta, Daerah Khusus Ibukota Jakarta 10210";"Jl. Pejompongan Dalam No.18, Bend. Hilir, Kecamatan Tanah Abang, Jakarta";"SUMATERA UTARA";"10210";"Indonesia";" 02129707601";"";"";"-6.2052408";"106.8040285";"https://maps.google.com/?cid=0x0:0x25b6c7815ead1f6";""
"building materials";"building materials";"OYO 91654 Bintang Residence";"Gg. Anggrek XII No.12, RW.2, Kuningan, Karet Kuningan, Jakarta, Kota Jakarta Selatan, Daerah Khusus Ibukota Jakarta 12940";"RW.2, Kuningan, Karet Kuningan, Jakarta, Kota Jakarta Selatan";"SUMATERA UTARA";"12940";"Indonesia";" 02129707601";"";"";"-6.2158756";"106.8271931";"https://maps.google.com/?cid=0x0:0x917967218cd2cb79";""
"building materials";"building materials";"OYO 90109 Wisma Basco";"Jl. K.H. Mas Mansyur No.110 5, RT.5/RW.17, Kb. Melati, Kecamatan, Jakarta, Daerah Khusus Ibukota Jakarta 10230";"RT.5/RW.17, Kb. Melati, Kecamatan, Jakarta";"SUMATERA UTARA";"10230";"Indonesia";" 02129707601";"";"";"-6.1982143";"106.8140671";"https://maps.google.com/?cid=0x0:0xd74245e047668d14";""
"building materials";"building materials";"N/A";"";"";"SUMATERA UTARA";"";"Indonesia";"";"";"";"";"";"https://maps.google.com/?cid=0x0:0xd74245e047668d14%7C/g/11mw8gyn75%7Cen-ID";""
"building materials";"building materials";"Residence 38";"3, Jl. Karet Pedurenan No.38, RT.3/RW.4, Kuningan, Karet Kuningan, Kota Jakarta Selatan, Daerah Khusus Ibukota Jakarta 12940";"Jl. Karet Pedurenan No.38, RT.3/RW.4, Kuningan, Karet Kuningan, Kota Jakarta Selatan";"SUMATERA UTARA";"12940";"Indonesia";" 02129707601";"";"";"-6.2212969";"106.8247061";"https://maps.google.com/?cid=0x0:0xcd3e96c2f9dfcf8a";""
"building materials";"building materials";"Super OYO 90692 Point Hostel";"16, Jl. Kota Baru No.16, RT.11/RW.6, Cideng, Gambir, Jakarta, 10150";"Jl. Kota Baru No.16, RT.11/RW.6, Cideng, Gambir";"SUMATERA UTARA";"10150";"Indonesia";" 02129707601";"";"";"-6.1702987";"106.8058902";"https://maps.google.com/?cid=0x0:0x43871a9e5cbcbf41";""
"building materials";"Simpangan transportasi";"Duri";"Jl. Duri Utara, Duri Utara, Kec. Tambora, Kota Jakarta Barat, Daerah Khusus Ibukota Jakarta 11270";"Duri Utara, Kec. Tambora, Kota Jakarta Barat";"SUMATERA UTARA";"11270";"Indonesia";"";"";"";"-6.1552465";"106.8014521";"https://maps.google.com/?cid=0x0:0x2b7736c4b159d50b";""
"building materials";"building materials";"Super OYO 90422 Mall Of Indonesia";"20-21, Jl. Raya Gading Batavia Klp No.20-21 Blok LC8, RT.10/RW.7, Jakarta, 14240";"Jl. Raya Gading Batavia Klp No.20-21 Blok LC8, RT.10/RW.7";"SUMATERA UTARA";"14240";"Indonesia";" 02129707601";"";"";"-6.1544934";"106.8967095";"https://maps.google.com/?cid=0x0:0xd97a877bfb7ee77b";""
"building materials";"Grosir";"Lotte Mart Kelapa Gading";"Unnamed Road, RT.18/RW.8, Klp. Gading Bar., Kec. Klp. Gading, Jkt Utara, Daerah Khusus Ibukota Jakarta 14240";"RT.18/RW.8, Klp. Gading Bar., Kec. Klp. Gading, Jkt Utara";"SUMATERA UTARA";"14240";"Indonesia";"";"";"";"-6.1542611";"106.8947611";"https://maps.google.com/?cid=0x0:0x4dc173adc8960294";""
"building materials";"building materials";"OYO 3854 Pama Syariah Inn";"4, Jl. Sukamulya III No.56, RT.5/RW.6, Harapan Mulya, Kec. Kemayoran, Kota Jakarta Pusat, Daerah Khusus Ibukota Jakarta 10640";"Jl. Sukamulya III No.56, RT.5/RW.6, Harapan Mulya, Kec. Kemayoran, Kota Jakarta Pusat";"SUMATERA UTARA";"10640";"Indonesia";" 02129707601";"";"";"-6.1705745";"106.8534716";"https://maps.google.com/?cid=0x0:0x154a8158757d5745";""
"building materials";"Layanan Transportasi";"Stasiun Pasar Senen";"Jl. Pasar Senen No.14, Senen, Kec. Senen, Kota Jakarta Pusat, Daerah Khusus Ibukota Jakarta 10410";"Senen, Kec. Senen, Kota Jakarta Pusat";"SUMATERA UTARA";"10410";"Indonesia";"";"";"";"-6.1747";"106.84435";"https://maps.google.com/?cid=0x0:0x26d8e8d36c8b8021";""
"building materials";"building materials";"OYO 93958 JB Smart Jatinegara";"169, Jl. Jatinegara Bar. No.169, RT.5/RW.3, Bali Mester, Kecamatan, Jakarta, 13320";"Jl. Jatinegara Bar. No.169, RT.5/RW.3, Bali Mester, Kecamatan";"SUMATERA UTARA";"13320";"Indonesia";" 02129707601";"";"";"-6.2223585";"106.8659357";"https://maps.google.com/?cid=0x0:0x7678955646e7579d";""
"building materials";"Layanan Transportasi";"Tebet";"Tim, Jl. Tebet Raya No.62, Tebet Tim., Kec. Tebet, Kota Jakarta Selatan, Daerah Khusus Ibukota Jakarta 12820";"Jl. Tebet Raya No.62, Tebet Tim., Kec. Tebet, Kota Jakarta Selatan";"SUMATERA UTARA";"12820";"Indonesia";"";"";"";"-6.2263866";"106.8584642";"https://maps.google.com/?cid=0x0:0x1219f397c6c4c44b";""
"building materials";"building materials";"OYO 93691 Minongga";"15, Jl. Pinang Raya No.15, RW.2, Jakarta, 12450";"Jl. Pinang Raya No.15, RW.2";"SUMATERA UTARA";"12450";"Indonesia";" 0817788016";"";"";"-6.3088323";"106.7962302";"https://maps.google.com/?cid=0x0:0xf8eb473492b2edaf";""
"building materials";"building materials";"Sumatera Utara 22852";"Kabupaten Nias Utara, Sumatera Utara";"Kabupaten Nias Utara, Sumatera Utara";"SUMATERA UTARA";"";"Indonesia";"";"";"";"1.4120939";"97.4597725";"https://maps.google.com/?cid=0x0:0x230853ed5a2114a9";""
"building materials";"Toko Bahan Bangunan";"UD CIPTA";"FFC2+25J, Jl. Tuhemberua, Banuagea, Kec. Tuhemberua, Kabupaten Nias Utara, Sumatera Utara 22852";"Jl. Tuhemberua, Banuagea, Kec. Tuhemberua, Kabupaten Nias Utara";"SUMATERA UTARA";"22852";"Indonesia";" 085296022295";"";"";"1.4700751";"97.4503753";"https://maps.google.com/?cid=0x0:0x2f377451e1e741c1";""
"building materials";"Toko umum";"Wewin BATUBATA PREMIUM";"79V4+4RF, Laowowaga, Kec. Lahewa Tim., Kabupaten Nias Utara, Sumatera Utara";"Kabupaten Nias Utara, Sumatera Utara";"SUMATERA UTARA";"";"Indonesia";" 081291902169";"";"";"1.2936315";"97.3567029";"https://maps.google.com/?cid=0x0:0x4d6fa2f5d11e9482";""
"building materials";"Toko Bahan Bangunan";"BATAKO Si@mon";"Sisarahili, Esiwa, Kec. Namohalu Esiwa, Kabupaten Nias Utara, Sumatera Utara";"Kabupaten Nias Utara, Sumatera Utara";"SUMATERA UTARA";"";"Indonesia";" 085329716866";"";"";"1.3683976";"97.4289592";"https://maps.google.com/?cid=0x0:0xbe7bf81080d14024";""
"building materials";"Pemasok Pipa";"Surya Utama Metalindo PT.";"Jl. Gunung Sahari Raya no.1 Mangga Dua Square lt 2 blok C 61, RT.11/RW.6, Ancol, Kec. Pademangan, Jkt Utara, Daerah Khusus Ibukota Jakarta 14420";"RT.11/RW.6, Ancol, Kec. Pademangan, Jkt Utara";"SUMATERA UTARA";"14420";"Indonesia";" 082310999956";"";"";"-6.1387824";"106.8314329";"https://maps.google.com/?cid=0x0:0x213f9340f3f4865";""
"building materials";"Kontraktor Insulasi";"PT Tali Rejeki";"Jl. Taruma Jaya No.11, Setia Asih, Kec. Tarumajaya, Kota Bks, Jawa Barat 17215";"Setia Asih, Kec. Tarumajaya, Kota Bks";"SUMATERA UTARA";"17215";"Indonesia";" 02122889956";"";"";"-6.1652412";"106.9900241";"https://maps.google.com/?cid=0x0:0x15898fadc067eab7";""
"building materials";"Toko Bahan Bangunan";"U D. S I A M O N";"9C9H+7FM Sisarahili, Esiwa, Kec. Namohalu Esiwa, Kabupaten Nias Utara, Sumatera Utara";"Kabupaten Nias Utara, Sumatera Utara";"SUMATERA UTARA";"";"Indonesia";" 081287458656";"";"";"1.3682203";"97.4286806";"https://maps.google.com/?cid=0x0:0xc6c824ee453ebb2a";""
"building materials";"Toko Bahan Bangunan";"FBC";"CF2W+FQV, Hilimbosi, Kec. Sitolu Ori, Kabupaten Nias Utara, Sumatera Utara 22852";"Hilimbosi, Kec. Sitolu Ori, Kabupaten Nias Utara";"SUMATERA UTARA";"22852";"Indonesia";"";"";"";"1.4012425";"97.4969313";"https://maps.google.com/?cid=0x0:0xcb77b2eaf66bbec0";""
"toko bangunan";"toko bangunan";"Afulu";"Lauru I Afulu, Kec. Afulu, Kabupaten Nias Utara, Sumatera Utara";"Kabupaten Nias Utara, Sumatera Utara";"SUMATERA UTARA";"";"Indonesia";"";"";"";"1.275923";"97.228146";"https://maps.google.com/?cid=0x0:0x19123ccab5436978";""
"toko bangunan";"Toko Bahan Bangunan";"Toko Material Bangunan Daniel";"5HW9+W7R, Dahadano Botombawo, Kec. HiliSerangkai, Kabupaten Nias, Sumatera Utara 22851";"Dahadano Botombawo, Kec. HiliSerangkai, Kabupaten Nias";"SUMATERA UTARA";"22851";"Indonesia";" 083114785308";"";"";"1.1975201";"97.5674987";"https://maps.google.com/?cid=0x0:0x5ac67810e5b018cd";""
"toko bangunan";"Toko Bahan Bangunan";"Toko ANEKA BANGUNAN";"depan rumah makan beringin baru, Jl. Sirao No.6, Saombo, Kec. Gunungsitoli, Kabupaten Nias, Sumatera Utara";"Kabupaten Nias, Sumatera Utara";"SUMATERA UTARA";"";"Indonesia";" 081231645392";"";"";"1.2903411";"97.6158857";"https://maps.google.com/?cid=0x0:0x53ca275b69ef0d2c";""
"toko bangunan";"toko bangunan";"UD ALDO";"95VC+4XG, Bolia, Lingkungan V, Ps. Lahewa, Kecamaten Lahewa, Kabupaten Nias Utara, Sumatera Utara 22853";"Bolia, Lingkungan V, Ps. Lahewa, Kecamaten Lahewa, Kabupaten Nias Utara";"SUMATERA UTARA";"22853";"Indonesia";"";"";"";"1.392801";"97.1724551";"https://maps.google.com/?cid=0x0:0x38612b2f0c53810c";""
"toko bangunan";"Toko Bahan Bangunan";"Toko Material Bangunan Daniel";"5HW9+W7R, Dahadano Botombawo, Kec. HiliSerangkai, Kabupaten Nias, Sumatera Utara 22851";"Dahadano Botombawo, Kec. HiliSerangkai, Kabupaten Nias";"SUMATERA UTARA";"22851";"Indonesia";" 083114785308";"";"";"1.1975201";"97.5674987";"https://maps.google.com/?cid=0x0:0x5ac67810e5b018cd";""
"toko bangunan";"Toko Bahan Bangunan";"UD. SANGEHAO";"Jl. Nias Tengah No.Km. 33, Hiliuso, Kec. HiliSerangkai, Kabupaten Nias, Sumatera Utara";"Kabupaten Nias, Sumatera Utara";"SUMATERA UTARA";"";"Indonesia";"";"";"";"1.1830273";"97.5809173";"https://maps.google.com/?cid=0x0:0xa9b531138d56902";""
"toko bangunan";"toko bangunan";"Sumatera Utara 22861";"Kabupaten Nias Utara, Sumatera Utara";"Kabupaten Nias Utara, Sumatera Utara";"SUMATERA UTARA";"";"Indonesia";"";"";"";"1.1639401";"97.394882";"https://maps.google.com/?cid=0x0:0x146e7c32a97f723";""
"toko bangunan";"Toko Bahan Bangunan";"UD. DELRICH";"588J+C6, Ononamolo Tumula, Kec. Alasa, Kabupaten Nias Utara, Sumatera Utara";"Kabupaten Nias Utara, Sumatera Utara";"SUMATERA UTARA";"";"Indonesia";" 081265566528";"";"";"1.1660829";"97.3306281";"https://maps.google.com/?cid=0x0:0x8bb8a57f86f3580e";""
"toko bangunan";"Toko";"UD.BOY HULU";"6CGC+986, Jl. Fulölö, Loloana'a, Kec. Tugala Oyo, Kabupaten Nias Utara, Sumatera Utara 22814";"Jl. Fulölö, Loloana'a, Kec. Tugala Oyo, Kabupaten Nias Utara";"SUMATERA UTARA";"22814";"Indonesia";"";"";"";"1.225908";"97.4207507";"https://maps.google.com/?cid=0x0:0x437140e514a420ca";""
"toko bangunan";"Pemasok Bahan Bangunan";"TOKO BANGUNAN CV. LALA THREE";"HRCG+F24, Ps. Tlk. Dalam, Kec. Tlk. Dalam, Kabupaten Nias Selatan, Sumatera Utara 22865";"Ps. Tlk. Dalam, Kec. Tlk. Dalam, Kabupaten Nias Selatan";"SUMATERA UTARA";"22865";"Indonesia";" 081231645392";"";"";"0.5711401";"97.8250731";"https://maps.google.com/?cid=0x0:0xbcd9a459dd32a3a";""
"toko bangunan";"Toko Bahan Bangunan";"Toko Tiga Serangkai";"5MFQ+9CJ, Jl. Raya Pelud Binaka, Lasara Idanoi, Kec. Gido, Kabupaten Nias, Sumatera Utara";"Kabupaten Nias, Sumatera Utara";"SUMATERA UTARA";"";"Indonesia";" 081287458656";"";"";"1.1734639";"97.6885163";"https://maps.google.com/?cid=0x0:0xc947e6c19ba134a6";""
"toko bangunan";"Toko Bahan Bangunan";"Toko Material Bangunan Daniel";"5HW9+W7R, Dahadano Botombawo, Kec. HiliSerangkai, Kabupaten Nias, Sumatera Utara 22851";"Dahadano Botombawo, Kec. HiliSerangkai, Kabupaten Nias";"SUMATERA UTARA";"22851";"Indonesia";" 083114785308";"";"";"1.1975201";"97.5674987";"https://maps.google.com/?cid=0x0:0x5ac67810e5b018cd";""
"toko bangunan";"Toko Elektronik";"UD. SEDERHANA ELECTRIC";"WJWP+9JQ, Koendrafo, Kec. Lolomatua, Kabupaten Nias Selatan, Sumatera Utara 22867";"Koendrafo, Kec. Lolomatua, Kabupaten Nias Selatan";"SUMATERA UTARA";"22867";"Indonesia";" 081287458656";"";"";"0.9459738";"97.6366155";"https://maps.google.com/?cid=0x0:0xf311ab55dbaf7faf";""
"toko bangunan";"Toko";"UD.98";"4P7J+699, Wea-Wea, Kec. Gido, Kabupaten Nias, Sumatera Utara 22871";"Wea-Wea, Kec. Gido, Kabupaten Nias";"SUMATERA UTARA";"22871";"Indonesia";" 081287458656";"";"";"1.1130302";"97.7309753";"https://maps.google.com/?cid=0x0:0x5c7440accd4d2fd5";""
"toko bangunan";"Toko umum";"Wewin BATUBATA PREMIUM";"79V4+4RF, Laowowaga, Kec. Lahewa Tim., Kabupaten Nias Utara, Sumatera Utara";"Kabupaten Nias Utara, Sumatera Utara";"SUMATERA UTARA";"";"Indonesia";" 081291902169";"";"";"1.2936315";"97.3567029";"https://maps.google.com/?cid=0x0:0x4d6fa2f5d11e9482";""
"toko bangunan";"Toko Bahan Bangunan";"Toko Sejahtera";"Jl. Diponegoro No.218, Ilir, Kec. Gunungsitoli, Kota Gunungsitoli, Sumatera Utara";"Kota Gunungsitoli, Sumatera Utara";"SUMATERA UTARA";"";"Indonesia";" 08179025265";"";"";"1.2832148";"97.6263947";"https://maps.google.com/?cid=0x0:0x465e75de58cb5644";""
"toko bangunan";"Toko Bahan Bangunan";"Toko Sahabat Jasa";"Jl. Sudirman Pasar No.46, Ps. Gn. Sitoli, Kec. Gunungsitoli, Kota Gunungsitoli, Sumatera Utara 22814";"Ps. Gn. Sitoli, Kec. Gunungsitoli, Kota Gunungsitoli";"SUMATERA UTARA";"22814";"Indonesia";" 08126266142";"";"";"1.2861173";"97.6163063";"https://maps.google.com/?cid=0x0:0x3193ed782b83b2bd";""
"toko bangunan";"Toko Kayu";"Panglong UD Fortuna desa dahadano gawu-gawu,jln sutomo no.101 kota gunungsitoli nias";"Jl. Sutomo No.101, Dahadano Gawu Gawu, Kec. Gunungsitoli, Kota Gunungsitoli, Sumatera Utara 22810";"Dahadano Gawu Gawu, Kec. Gunungsitoli, Kota Gunungsitoli";"SUMATERA UTARA";"22810";"Indonesia";" 081231645392";"";"";"1.2678817";"97.6136189";"https://maps.google.com/?cid=0x0:0x33c97b0eecf5a043";""
"toko bangunan";"Toko Bahan Bangunan";"Bata Pres Nias Santo Lase";"Iraono Lase, Kec. Gunungsitoli Alo'oa, Kota Gunungsitoli, Sumatera Utara 22851";"Kec. Gunungsitoli Alo'oa, Kota Gunungsitoli";"SUMATERA UTARA";"22851";"Indonesia";" 082233533407";"";"";"1.3114966";"97.5733412";"https://maps.google.com/?cid=0x0:0xb9e5b7fcc4157eed";""
"toko bangunan";"Toko Bahan Bangunan";"UD. ZULFAN";"Hili Hao, Kec. Gunungsitoli, Kota Gunungsitoli, Sumatera Utara";"Kota Gunungsitoli, Sumatera Utara";"SUMATERA UTARA";"";"Indonesia";"";"";"";"1.3315433";"97.5960085";"https://maps.google.com/?cid=0x0:0xa85b7c1070ec1d4a";""
"toko bangunan";"Toko Bahan Bangunan";"Bintang Gemilang";"8J74+PGQ, Jl. Yos Sudarso Ujung, Ombolata Ulu, Kec. Gunungsitoli, Kota Gunungsitoli, Sumatera Utara";"Kota Gunungsitoli, Sumatera Utara";"SUMATERA UTARA";"";"Indonesia";" 082363345222";"";"";"1.3143268";"97.6063735";"https://maps.google.com/?cid=0x0:0xbd93f14995b591";""
"toko bangunan";"Sekolah";"Ombelata ulu";"Jl. Elang I, Ombolata Ulu, Kec. Gunungsitoli, Kota Gunungsitoli, Sumatera Utara";"Kota Gunungsitoli, Sumatera Utara";"SUMATERA UTARA";"";"Indonesia";" 085270925384";"";"";"1.3103813";"97.6089595";"https://maps.google.com/?cid=0x0:0xb8397e83cda6db56";""
"toko bangunan";"Kantor Perusahaan";"Toko ARDETRA";"7J3Q+VG8, Fodo, Kec. Gunungsitoli Sel., Kota Gunungsitoli, Sumatera Utara";"Kota Gunungsitoli, Sumatera Utara";"SUMATERA UTARA";"";"Indonesia";" 085293949898";"";"";"1.2546656";"97.6388293";"https://maps.google.com/?cid=0x0:0x7b132725c599f3cc";""
"toko bangunan";"Toko Perlengkapan Rumah";"Bintang Keramik";"Jl. Diponegoro No.331, Ilir, Kec. Gunungsitoli, Kota Gunungsitoli, Sumatera Utara";"Kota Gunungsitoli, Sumatera Utara";"SUMATERA UTARA";"";"Indonesia";" 085261215008";"";"";"1.2768764";"97.6304523";"https://maps.google.com/?cid=0x0:0xc308ef56f059f942";""
"toko bangunan";"Toko";"UD. CEMERLANG";"Jl. Raya Onolimbu - Lahomi No.7, Onolimbu, Kec. Lahomi, Kabupaten Nias Barat, Sumatera Utara 22864";"Onolimbu, Kec. Lahomi, Kabupaten Nias Barat";"SUMATERA UTARA";"22864";"Indonesia";" 081287458656";"";"";"1.0096416";"97.4925114";"https://maps.google.com/?cid=0x0:0x81401eb2dfac7be5";""
"toko bangunan";"Toko Alat-Alat";"Toko Karya Baru";"Jl. Sudirman Pasar No.30, Saombo, Kec. Gunungsitoli, Kota Gunungsitoli, Sumatera Utara";"Kota Gunungsitoli, Sumatera Utara";"SUMATERA UTARA";"";"Indonesia";" 08179025265";"";"";"1.2872793";"97.6175534";"https://maps.google.com/?cid=0x0:0x3f78a2a9624e44a5";""
"toko bangunan";"toko bangunan";"Sumatera Utara 22814";"Saombo, Kec. Gunungsitoli, Kota Gunungsitoli, Sumatera Utara";"Kota Gunungsitoli, Sumatera Utara";"SUMATERA UTARA";"";"Indonesia";"";"";"";"1.2897758";"97.6188016";"https://maps.google.com/?cid=0x0:0x72677cb0cc3dbd55";""
"toko bangunan";"Toko";"Toko Setia Jaya";"JL Sirao, No. 116, Pasar Kota, Saombo, Kec. Gunungsitoli, Kota Gunungsitoli, Sumatera Utara 22814";"No. 116, Pasar Kota, Saombo, Kec. Gunungsitoli, Kota Gunungsitoli";"SUMATERA UTARA";"22814";"Indonesia";" 063922526";"";"";"1.2900876";"97.6170381";"https://maps.google.com/?cid=0x0:0xef3b5a98bce917c8";""
"toko bangunan";"Toko Alat-Alat";"Toko Karya Baru";"Jl. Sudirman Pasar No.30, Saombo, Kec. Gunungsitoli, Kota Gunungsitoli, Sumatera Utara";"Kota Gunungsitoli, Sumatera Utara";"SUMATERA UTARA";"";"Indonesia";" 08179025265";"";"";"1.2872793";"97.6175534";"https://maps.google.com/?cid=0x0:0x3f78a2a9624e44a5";""
"toko bangunan";"Toko Bahan Bangunan";"Toko Bangun";"Jl. Sirao No.46D, Pasar, Kec. Gunungsitoli, Kota Gunungsitoli, Sumatera Utara 22815";"Pasar, Kec. Gunungsitoli, Kota Gunungsitoli";"SUMATERA UTARA";"22815";"Indonesia";" 081361694919";"";"";"1.2899006";"97.6176682";"https://maps.google.com/?cid=0x0:0x9ce61f651849b821";""
"toko bangunan";"Toko Bahan Bangunan";"TOKO CAT UD SENTOSA";"Jl. Gomo No.39, Saombo, Kec. Gunungsitoli, Kota Gunungsitoli, Sumatera Utara 22811";"Saombo, Kec. Gunungsitoli, Kota Gunungsitoli";"SUMATERA UTARA";"22811";"Indonesia";" 081231645392";"";"";"1.2900935";"97.6160597";"https://maps.google.com/?cid=0x0:0x6b6eaa15592f0560";""
"toko bangunan";"Toko Perlengkapan Rumah";"Bintang Keramik";"Jl. Diponegoro No.331, Ilir, Kec. Gunungsitoli, Kota Gunungsitoli, Sumatera Utara";"Kota Gunungsitoli, Sumatera Utara";"SUMATERA UTARA";"";"Indonesia";" 085261215008";"";"";"1.2768764";"97.6304523";"https://maps.google.com/?cid=0x0:0xc308ef56f059f942";""
"toko bangunan";"Toko Bahan Bangunan";"Toko Karya Rezeki";"JL Diponegoro, No. 83, Lingkungan 2, Ilir, Gunungsitoli, Ps. Gn. Sitoli, Kec. Gunungsitoli, Kota Gunungsitoli, Sumatera Utara";"Kota Gunungsitoli, Sumatera Utara";"SUMATERA UTARA";"";"Indonesia";" 063922198";"";"";"1.2875646";"97.6221646";"https://maps.google.com/?cid=0x0:0x973cc7bf514e3b95";""
"toko bangunan";"Toko Bahan Bangunan";"Metro jaya";"Jl. Sudirman No.5, Saombo, Kec. Gunungsitoli, Kota Gunungsitoli, Sumatera Utara";"Kota Gunungsitoli, Sumatera Utara";"SUMATERA UTARA";"";"Indonesia";"";"";"";"1.2876696";"97.6184053";"https://maps.google.com/?cid=0x0:0xf94d19040b837d3b";""
"toko bangunan";"Toko Bahan Bangunan";"Mitra Baru";"JL Diponegoro, No. 69A, Lingkungan 2, Ilir, Gunungsitoli, Ps. Gn. Sitoli, Kec. Gunungsitoli, Kota Gunungsitoli, Sumatera Utara";"Kota Gunungsitoli, Sumatera Utara";"SUMATERA UTARA";"";"Indonesia";" 083170586111";"";"";"1.2877738";"97.6216442";"https://maps.google.com/?cid=0x0:0xf1149cf92c41909a";""
"toko bangunan";"Toko Bahan Bangunan";"Toko Inti Keramik";"JL Diponegoro, No. 103B, Lingkungan 2, Ilir, Gunungsitoli, Ps. Gn. Sitoli, Kec. Gunungsitoli, Kota Gunungsitoli, Sumatera Utara";"Kota Gunungsitoli, Sumatera Utara";"SUMATERA UTARA";"";"Indonesia";" 081231645392";"";"";"1.2870806";"97.6226972";"https://maps.google.com/?cid=0x0:0x357d246298946d5c";""
"toko bangunan";"Toko Alat-Alat";"UD. Start Jaya";"Jl. Yos Sudarso Ujung No.KM. 5,6, Hili Hao, Kec. Gunungsitoli, Kota Gunungsitoli, Sumatera Utara";"Kota Gunungsitoli, Sumatera Utara";"SUMATERA UTARA";"";"Indonesia";" 081231645392";"";"";"1.3320776";"97.5957471";"https://maps.google.com/?cid=0x0:0xb80213d4744667a1";""
"toko bangunan";"Toko Bahan Bangunan";"Star jaya";"8HJW+R68, Unnamed Road, Hili Hao, Kec. Gunungsitoli, Kota Gunungsitoli, Sumatera Utara 22871";"Unnamed Road, Hili Hao, Kec. Gunungsitoli, Kota Gunungsitoli";"SUMATERA UTARA";"22871";"Indonesia";" 082282403347";"";"";"1.3320331";"97.5955906";"https://maps.google.com/?cid=0x0:0x6913cd5225353fdf";""
"toko bangunan";"toko bangunan";"Sumatera Utara 22853";"Kecamaten Lahewa, Kabupaten Nias Utara, Sumatera Utara";"Kabupaten Nias Utara, Sumatera Utara";"SUMATERA UTARA";"";"Indonesia";"";"";"";"1.3266447";"97.2329255";"https://maps.google.com/?cid=0x0:0xc7df9697de637a01";""
"toko bangunan";"Toko Perlengkapan Rumah";"UD. TIGA JAYA LAHEWA";"Jl. Soekarno No.107 Lingkungan II (Dua, Ps. Lahewa, Kecamaten Lahewa, Kabupaten Nias Utara, Sumatera Utara 22853";"Ps. Lahewa, Kecamaten Lahewa, Kabupaten Nias Utara";"SUMATERA UTARA";"22853";"Indonesia";"";"";"";"1.3912936";"97.170182";"https://maps.google.com/?cid=0x0:0x2ab02e12ef0747b8";""
"toko bangunan";"Toko Perlengkapan Rumah";"UD. JORKAY";"95RG+HV3, Ps. Lahewa, Kecamaten Lahewa, Kabupaten Nias Utara, Sumatera Utara";"Kabupaten Nias Utara, Sumatera Utara";"SUMATERA UTARA";"";"Indonesia";" 081287458656";"";"";"1.3913839";"97.1771655";"https://maps.google.com/?cid=0x0:0xe075c01a7769eecb";""
"toko bangunan";"Toko Bahan Bangunan";"Toko Material Bangunan Daniel";"5HW9+W7R, Dahadano Botombawo, Kec. HiliSerangkai, Kabupaten Nias, Sumatera Utara 22851";"Dahadano Botombawo, Kec. HiliSerangkai, Kabupaten Nias";"SUMATERA UTARA";"22851";"Indonesia";" 083114785308";"";"";"1.1975201";"97.5674987";"https://maps.google.com/?cid=0x0:0x5ac67810e5b018cd";""
"toko bangunan";"Toko Bahan Bangunan";"Toko ANEKA BANGUNAN";"depan rumah makan beringin baru, Jl. Sirao No.6, Saombo, Kec. Gunungsitoli, Kabupaten Nias, Sumatera Utara";"Kabupaten Nias, Sumatera Utara";"SUMATERA UTARA";"";"Indonesia";" 081231645392";"";"";"1.2903411";"97.6158857";"https://maps.google.com/?cid=0x0:0x53ca275b69ef0d2c";""
"toko bangunan";"Toko Bahan Bangunan";"Total Bangunan 696";"Jalan Gunungsitoli -Lahewa No.km.14, RW.5, Muara Indah, Kec. Gunungsitoli Utara, Kota Gunungsitoli, Sumatera Utara 22851";"RW.5, Muara Indah, Kec. Gunungsitoli Utara, Kota Gunungsitoli";"SUMATERA UTARA";"22851";"Indonesia";" 082364705520";"";"";"1.3839234";"97.5375444";"https://maps.google.com/?cid=0x0:0x9e5edcc3989bea1d";""
"toko bangunan";"Toko Bahan Bangunan";"UD Noser";"9HG3+F5W, Tambalou, Afia, Kec. Gunungsitoli Utara, Kota Gunungsitoli, Sumatera Utara";"Kota Gunungsitoli, Sumatera Utara";"SUMATERA UTARA";"";"Indonesia";" 082360686231";"";"";"1.376229";"97.5529474";"https://maps.google.com/?cid=0x0:0xe37c8c1ff3150230";""
"toko bangunan";"Toko umum";"Wewin BATUBATA PREMIUM";"79V4+4RF, Laowowaga, Kec. Lahewa Tim., Kabupaten Nias Utara, Sumatera Utara";"Kabupaten Nias Utara, Sumatera Utara";"SUMATERA UTARA";"";"Indonesia";" 081291902169";"";"";"1.2936315";"97.3567029";"https://maps.google.com/?cid=0x0:0x4d6fa2f5d11e9482";""
"toko bangunan";"toko bangunan";"UD. RIZKA";"Jl. Soekarno No.90, Ps. Lahewa, Kecamaten Lahewa, Kabupaten Nias Utara, Sumatera Utara 22853";"Ps. Lahewa, Kecamaten Lahewa, Kabupaten Nias Utara";"SUMATERA UTARA";"22853";"Indonesia";"";"";"";"1.3928575";"97.1693355";"https://maps.google.com/?cid=0x0:0x778d1da127d6f8f2";""
"toko bangunan";"toko bangunan";"UD ALDO";"95VC+4XG, Bolia, Lingkungan V, Ps. Lahewa, Kecamaten Lahewa, Kabupaten Nias Utara, Sumatera Utara 22853";"Bolia, Lingkungan V, Ps. Lahewa, Kecamaten Lahewa, Kabupaten Nias Utara";"SUMATERA UTARA";"22853";"Indonesia";"";"";"";"1.392801";"97.1724551";"https://maps.google.com/?cid=0x0:0x38612b2f0c53810c";""
"toko bangunan";"Pemasok Bahan Bangunan";"TOKO BANGUNAN CV. LALA THREE";"HRCG+F24, Ps. Tlk. Dalam, Kec. Tlk. Dalam, Kabupaten Nias Selatan, Sumatera Utara 22865";"Ps. Tlk. Dalam, Kec. Tlk. Dalam, Kabupaten Nias Selatan";"SUMATERA UTARA";"22865";"Indonesia";" 081231645392";"";"";"0.5711401";"97.8250731";"https://maps.google.com/?cid=0x0:0xbcd9a459dd32a3a";""
"toko bangunan";"Toko";"UD.CINDY";"8GPF+32H, Unnamed Road, Nazalou Lolowua, Kec. Gunungsitoli Alo'oa, Kota Gunungsitoli, Sumatera Utara 22851";"Unnamed Road, Nazalou Lolowua, Kec. Gunungsitoli Alo'oa, Kota Gunungsitoli";"SUMATERA UTARA";"22851";"Indonesia";"";"";"";"1.3351933";"97.5225995";"https://maps.google.com/?cid=0x0:0xa9c3e29592121097";""
"toko bangunan";"toko bangunan";"Kec. Lahewa Tim.";"Kabupaten Nias Utara, Sumatera Utara";"Kabupaten Nias Utara, Sumatera Utara";"SUMATERA UTARA";"";"Indonesia";"";"";"";"1.3690959";"97.3010539";"https://maps.google.com/?cid=0x0:0x1c45965c923c9076";""
"toko bangunan";"Toko umum";"Wewin BATUBATA PREMIUM";"79V4+4RF, Laowowaga, Kec. Lahewa Tim., Kabupaten Nias Utara, Sumatera Utara";"Kabupaten Nias Utara, Sumatera Utara";"SUMATERA UTARA";"";"Indonesia";" 081291902169";"";"";"1.2936315";"97.3567029";"https://maps.google.com/?cid=0x0:0x4d6fa2f5d11e9482";""
"toko bangunan";"Toko Bahan Bangunan";"Toko Bahan Bangunan Van";"WVPC+475, Sisarahili, Kec. Bawolato, Kabupaten Nias, Sumatera Utara";"Kabupaten Nias, Sumatera Utara";"SUMATERA UTARA";"";"Indonesia";" 083114785308";"";"";"0.9352594";"97.8707382";"https://maps.google.com/?cid=0x0:0x64e5df789f52852c";""
"toko bangunan";"Toko";"UD.BOY HULU";"6CGC+986, Jl. Fulölö, Loloana'a, Kec. Tugala Oyo, Kabupaten Nias Utara, Sumatera Utara 22814";"Jl. Fulölö, Loloana'a, Kec. Tugala Oyo, Kabupaten Nias Utara";"SUMATERA UTARA";"22814";"Indonesia";"";"";"";"1.225908";"97.4207507";"https://maps.google.com/?cid=0x0:0x437140e514a420ca";""
"toko bangunan";"Toko Bahan Bangunan";"SIAMON GROUP (PETI MATI  BATAKO)";"98MW+QG3, Hilidundra, Kec. Lotu, Kabupaten Nias Utara, Sumatera Utara 22851";"Hilidundra, Kec. Lotu, Kabupaten Nias Utara";"SUMATERA UTARA";"22851";"Indonesia";" 085329716866";"";"";"1.3843921";"97.3463042";"https://maps.google.com/?cid=0x0:0x68cef3331160ab0d";""
"toko bangunan";"Toko Bahan Bangunan";"Gudang(Ud.Nias bersama)";"99Q5+5QW, Hilidundra, Kec. Lotu, Kabupaten Nias Utara, Sumatera Utara";"Kabupaten Nias Utara, Sumatera Utara";"SUMATERA UTARA";"";"Indonesia";"";"";"";"1.3879875";"97.3594531";"https://maps.google.com/?cid=0x0:0xc0ff55daf11469c4";""
"toko bangunan";"Toko Bahan Bangunan";"UD.NIAS BERSAMA";"depan tribun, Jl. Arah Gunungsitoli-Lahewa No.desa, hilidundra, Kec. Lotu, Kabupaten Nias Utara, Sumatera Utara";"Kabupaten Nias Utara, Sumatera Utara";"SUMATERA UTARA";"";"Indonesia";"";"";"";"1.4974405";"97.3946163";"https://maps.google.com/?cid=0x0:0x3f0f7e0d90665201";""
"toko bangunan";"Toko Perlengkapan Rumah";"UD. TIGA JAYA LAHEWA";"Jl. Soekarno No.107 Lingkungan II (Dua, Ps. Lahewa, Kecamaten Lahewa, Kabupaten Nias Utara, Sumatera Utara 22853";"Ps. Lahewa, Kecamaten Lahewa, Kabupaten Nias Utara";"SUMATERA UTARA";"22853";"Indonesia";"";"";"";"1.3912936";"97.170182";"https://maps.google.com/?cid=0x0:0x2ab02e12ef0747b8";""
"toko bangunan";"Toko Perlengkapan Rumah";"Bintang Keramik";"Jl. Diponegoro No.331, Ilir, Kec. Gunungsitoli, Kota Gunungsitoli, Sumatera Utara";"Kota Gunungsitoli, Sumatera Utara";"SUMATERA UTARA";"";"Indonesia";" 085261215008";"";"";"1.2768764";"97.6304523";"https://maps.google.com/?cid=0x0:0xc308ef56f059f942";""
"toko bangunan";"Toko Alat-Alat";"Toko Karya Baru";"Jl. Sudirman Pasar No.30, Saombo, Kec. Gunungsitoli, Kota Gunungsitoli, Sumatera Utara";"Kota Gunungsitoli, Sumatera Utara";"SUMATERA UTARA";"";"Indonesia";" 08179025265";"";"";"1.2872793";"97.6175534";"https://maps.google.com/?cid=0x0:0x3f78a2a9624e44a5";""
"toko bangunan";"toko bangunan";"UD. Tiaman";"C9J3+9GX, Jl. Sawö, Nalua, Lolofaoso, Kec. Lotu, Kabupaten Nias Utara, Sumatera Utara 22851";"Jl. Sawö, Nalua, Lolofaoso, Kec. Lotu, Kabupaten Nias Utara";"SUMATERA UTARA";"22851";"Indonesia";"";"";"";"1.4309884";"97.35385";"https://maps.google.com/?cid=0x0:0x6bea91c07433bbbd";""
"toko bangunan";"toko bangunan";"UD ALDO";"95VC+4XG, Bolia, Lingkungan V, Ps. Lahewa, Kecamaten Lahewa, Kabupaten Nias Utara, Sumatera Utara 22853";"Bolia, Lingkungan V, Ps. Lahewa, Kecamaten Lahewa, Kabupaten Nias Utara";"SUMATERA UTARA";"22853";"Indonesia";"";"";"";"1.392801";"97.1724551";"https://maps.google.com/?cid=0x0:0x38612b2f0c53810c";""
"toko bangunan";"toko bangunan";"Kec. Lotu";"Kabupaten Nias Utara, Sumatera Utara";"Kabupaten Nias Utara, Sumatera Utara";"SUMATERA UTARA";"";"Indonesia";"";"";"";"1.3891445";"97.3577578";"https://maps.google.com/?cid=0x0:0x33654c018df13e36";""
"toko bangunan";"Toko Bahan Bangunan";"U D. S I A M O N";"9C9H+7FM Sisarahili, Esiwa, Kec. Namohalu Esiwa, Kabupaten Nias Utara, Sumatera Utara";"Kabupaten Nias Utara, Sumatera Utara";"SUMATERA UTARA";"";"Indonesia";" 081287458656";"";"";"1.3682203";"97.4286806";"https://maps.google.com/?cid=0x0:0xc6c824ee453ebb2a";""
"toko bangunan";"Toko Bahan Bangunan";"SIAMON GROUP (PETI MATI  BATAKO)";"98MW+QG3, Hilidundra, Kec. Lotu, Kabupaten Nias Utara, Sumatera Utara 22851";"Hilidundra, Kec. Lotu, Kabupaten Nias Utara";"SUMATERA UTARA";"22851";"Indonesia";" 085329716866";"";"";"1.3843921";"97.3463042";"https://maps.google.com/?cid=0x0:0x68cef3331160ab0d";""
"toko bangunan";"Toko Bahan Bangunan";"BATAKO Si@mon";"Sisarahili, Esiwa, Kec. Namohalu Esiwa, Kabupaten Nias Utara, Sumatera Utara";"Kabupaten Nias Utara, Sumatera Utara";"SUMATERA UTARA";"";"Indonesia";" 085329716866";"";"";"1.3683976";"97.4289592";"https://maps.google.com/?cid=0x0:0xbe7bf81080d14024";""
"toko bangunan";"Toko Bahan Bangunan";"UD.NIAS BERSAMA";"depan tribun, Jl. Arah Gunungsitoli-Lahewa No.desa, hilidundra, Kec. Lotu, Kabupaten Nias Utara, Sumatera Utara";"Kabupaten Nias Utara, Sumatera Utara";"SUMATERA UTARA";"";"Indonesia";"";"";"";"1.4974405";"97.3946163";"https://maps.google.com/?cid=0x0:0x3f0f7e0d90665201";""
"toko bangunan";"Toko Bahan Bangunan";"UD CIPTA";"FFC2+25J, Jl. Tuhemberua, Banuagea, Kec. Tuhemberua, Kabupaten Nias Utara, Sumatera Utara 22852";"Jl. Tuhemberua, Banuagea, Kec. Tuhemberua, Kabupaten Nias Utara";"SUMATERA UTARA";"22852";"Indonesia";" 085296022295";"";"";"1.4700751";"97.4503753";"https://maps.google.com/?cid=0x0:0x2f377451e1e741c1";""
"toko bangunan";"Kantor Pemerintah";"Desa sawo, kecamatan sowo, kabupaten Nias Utara";"F9PX+J2W, Sawo, Kec. Sawo, Kabupaten Nias Utara, Sumatera Utara";"Kabupaten Nias Utara, Sumatera Utara";"SUMATERA UTARA";"";"Indonesia";"";"";"";"1.4866095";"97.3975845";"https://maps.google.com/?cid=0x0:0x3527be45ae9a4d22";""
"toko bangunan";"toko bangunan";"UD. Tiaman";"C9J3+9GX, Jl. Sawö, Nalua, Lolofaoso, Kec. Lotu, Kabupaten Nias Utara, Sumatera Utara 22851";"Jl. Sawö, Nalua, Lolofaoso, Kec. Lotu, Kabupaten Nias Utara";"SUMATERA UTARA";"22851";"Indonesia";"";"";"";"1.4309884";"97.35385";"https://maps.google.com/?cid=0x0:0x6bea91c07433bbbd";""
"toko bangunan";"Toko Perlengkapan Rumah";"Bintang Keramik";"Jl. Diponegoro No.331, Ilir, Kec. Gunungsitoli, Kota Gunungsitoli, Sumatera Utara";"Kota Gunungsitoli, Sumatera Utara";"SUMATERA UTARA";"";"Indonesia";" 085261215008";"";"";"1.2768764";"97.6304523";"https://maps.google.com/?cid=0x0:0xc308ef56f059f942";""
"toko bangunan";"toko bangunan";"Sumatera Utara 22816";"Kec. Namohalu Esiwa, Kabupaten Nias Utara, Sumatera Utara";"Kabupaten Nias Utara, Sumatera Utara";"SUMATERA UTARA";"";"Indonesia";"";"";"";"1.3453232";"97.3840729";"https://maps.google.com/?cid=0x0:0x13bcd8183011aa";""
"toko bangunan";"Toko Bahan Bangunan";"U D. S I A M O N";"9C9H+7FM Sisarahili, Esiwa, Kec. Namohalu Esiwa, Kabupaten Nias Utara, Sumatera Utara";"Kabupaten Nias Utara, Sumatera Utara";"SUMATERA UTARA";"";"Indonesia";" 081287458656";"";"";"1.3682203";"97.4286806";"https://maps.google.com/?cid=0x0:0xc6c824ee453ebb2a";""
"toko bangunan";"Toko Bahan Bangunan";"BATAKO Si@mon";"Sisarahili, Esiwa, Kec. Namohalu Esiwa, Kabupaten Nias Utara, Sumatera Utara";"Kabupaten Nias Utara, Sumatera Utara";"SUMATERA UTARA";"";"Indonesia";" 085329716866";"";"";"1.3683976";"97.4289592";"https://maps.google.com/?cid=0x0:0xbe7bf81080d14024";""
"toko bangunan";"Toko Bahan Bangunan";"SIAMON GROUP (PETI MATI  BATAKO)";"98MW+QG3, Hilidundra, Kec. Lotu, Kabupaten Nias Utara, Sumatera Utara 22851";"Hilidundra, Kec. Lotu, Kabupaten Nias Utara";"SUMATERA UTARA";"22851";"Indonesia";" 085329716866";"";"";"1.3843921";"97.3463042";"https://maps.google.com/?cid=0x0:0x68cef3331160ab0d";""
"toko bangunan";"Toko Bahan Bangunan";"U D. S I A M O N";"9C9H+7FM Sisarahili, Esiwa, Kec. Namohalu Esiwa, Kabupaten Nias Utara, Sumatera Utara";"Kabupaten Nias Utara, Sumatera Utara";"SUMATERA UTARA";"";"Indonesia";" 081287458656";"";"";"1.3682203";"97.4286806";"https://maps.google.com/?cid=0x0:0xc6c824ee453ebb2a";""
"toko bangunan";"Toko Bahan Bangunan";"BATAKO Si@mon";"Sisarahili, Esiwa, Kec. Namohalu Esiwa, Kabupaten Nias Utara, Sumatera Utara";"Kabupaten Nias Utara, Sumatera Utara";"SUMATERA UTARA";"";"Indonesia";" 085329716866";"";"";"1.3683976";"97.4289592";"https://maps.google.com/?cid=0x0:0xbe7bf81080d14024";""
"toko bangunan";"toko bangunan";"Sumatera Utara 22817";"Kabupaten Nias Utara, Sumatera Utara";"Kabupaten Nias Utara, Sumatera Utara";"SUMATERA UTARA";"";"Indonesia";"";"";"";"1.2834877";"97.2814718";"https://maps.google.com/?cid=0x0:0x99ac41ee85893cf2";""
"toko bangunan";"toko bangunan";"Sumatera Utara 22852";"Kabupaten Nias Utara, Sumatera Utara";"Kabupaten Nias Utara, Sumatera Utara";"SUMATERA UTARA";"";"Indonesia";"";"";"";"1.4120939";"97.4597725";"https://maps.google.com/?cid=0x0:0x230853ed5a2114a9";""
"toko bangunan";"Toko";"UD.98";"4P7J+699, Wea-Wea, Kec. Gido, Kabupaten Nias, Sumatera Utara 22871";"Wea-Wea, Kec. Gido, Kabupaten Nias";"SUMATERA UTARA";"22871";"Indonesia";" 081287458656";"";"";"1.1130302";"97.7309753";"https://maps.google.com/?cid=0x0:0x5c7440accd4d2fd5";""
"toko bangunan";"Toko umum";"UD.ABID";"FCX3+F2M, Seriwau, Kec. Sawo, Kabupaten Nias Utara, Sumatera Utara";"Kabupaten Nias Utara, Sumatera Utara";"SUMATERA UTARA";"";"Indonesia";"";"";"";"1.4987792";"97.4030594";"https://maps.google.com/?cid=0x0:0xadaa739a63f80adf";""
"toko bangunan";"Kantor Perusahaan";"Kantor Desa Sawo";"F9XX+6G3, Sawo, Kec. Sawo, Kabupaten Nias Utara, Sumatera Utara";"Kabupaten Nias Utara, Sumatera Utara";"SUMATERA UTARA";"";"Indonesia";"";"";"";"1.4980067";"97.3988064";"https://maps.google.com/?cid=0x0:0xf62934bc099292f9";""
"toko bangunan";"Toko Bahan Bangunan";"TB Karya Bangun";"Jl. Sawo Kecil 6 No.49, RT.7/RW.7, Bukit Duri, Kec. Tebet, Kota Jakarta Selatan, Daerah Khusus Ibukota Jakarta 12840";"RT.7/RW.7, Bukit Duri, Kec. Tebet, Kota Jakarta Selatan";"SUMATERA UTARA";"12840";"Indonesia";" 087712803059";"";"";"-6.2215714";"106.8554304";"https://maps.google.com/?cid=0x0:0xe2ed991c28928552";""
"toko bangunan";"Toko Bahan Bangunan";"Toko Material Wan Abud 104";"jalan haji saiyan rt 05 rw 06 no 25,tanjung barat jagakarsa kode pos, RT.5/RW.6, Tj. Bar., Kec. Jagakarsa, Kota Jakarta Selatan, Daerah Khusus Ibukota Jakarta 12530";"RT.5/RW.6, Tj. Bar., Kec. Jagakarsa, Kota Jakarta Selatan";"SUMATERA UTARA";"12530";"Indonesia";" 081380077923";"";"";"-6.3109194";"106.8489014";"https://maps.google.com/?cid=0x0:0x8519d945a14d9db6";""
"toko bangunan";"Toko Bahan Bangunan";"Toko Surya Timur";"Jl. Rajawali Selatan I No.79, RT.15/RW.2, Gn. Sahari Utara, Kecamatan Sawah Besar, Kota Jakarta Pusat, Daerah Khusus Ibukota Jakarta 10720";"RT.15/RW.2, Gn. Sahari Utara, Kecamatan Sawah Besar, Kota Jakarta Pusat";"SUMATERA UTARA";"10720";"Indonesia";" 087880958046";"";"";"-6.1424396";"106.8385365";"https://maps.google.com/?cid=0x0:0x9cba333bcac04f47";""
"toko bangunan";"Toko Bahan Bangunan";"Tb. Sumber Bangunan";"Jl. Bendungan Hilir No.90 5, RT.5/RW.3, Bend. Hilir, Kecamatan Tanah Abang, Kota Jakarta Pusat, Daerah Khusus Ibukota Jakarta 10210";"RT.5/RW.3, Bend. Hilir, Kecamatan Tanah Abang, Kota Jakarta Pusat";"SUMATERA UTARA";"10210";"Indonesia";" 082186748825";"";"";"-6.21169";"106.8123992";"https://maps.google.com/?cid=0x0:0xb8460084f9d63700";""
"toko bangunan";"Toko Bahan Bangunan";"Toko Bangunan Penjuru";"Jl. Kemayoran Ketapang No.01 9, RT.1/RW.8, Kb. Kosong, Kec. Kemayoran, Kota Jakarta Pusat, Daerah Khusus Ibukota Jakarta 10620";"RT.1/RW.8, Kb. Kosong, Kec. Kemayoran, Kota Jakarta Pusat";"SUMATERA UTARA";"10620";"Indonesia";" 082174999886";"";"";"-6.16194";"106.8500061";"https://maps.google.com/?cid=0x0:0x1b46df32e9e1c7d1";""
"toko bangunan";"Toko Bahan Bangunan";"Toko Bangunan 89JAYA";"Jl. Banjaran Pucung No.Rt.05/07, Cilangkap, Kec. Tapos, Kota Depok, Jawa Barat 16465";"Cilangkap, Kec. Tapos, Kota Depok";"SUMATERA UTARA";"16465";"Indonesia";" 02183723589";"";"";"-6.4308133";"106.8712317";"https://maps.google.com/?cid=0x0:0x2477b30a57073bf1";""
"toko bangunan";"toko bangunan";"Kec. Sitolu Ori";"Kabupaten Nias Utara, Sumatera Utara";"Kabupaten Nias Utara, Sumatera Utara";"SUMATERA UTARA";"";"Indonesia";"";"";"";"1.3987456";"97.4439582";"https://maps.google.com/?cid=0x0:0xe9e1d2f552ca917e";""
"toko bangunan";"Toko Bahan Bangunan";"U D. S I A M O N";"9C9H+7FM Sisarahili, Esiwa, Kec. Namohalu Esiwa, Kabupaten Nias Utara, Sumatera Utara";"Kabupaten Nias Utara, Sumatera Utara";"SUMATERA UTARA";"";"Indonesia";" 081287458656";"";"";"1.3682203";"97.4286806";"https://maps.google.com/?cid=0x0:0xc6c824ee453ebb2a";""
"toko bangunan";"Toko Bahan Bangunan";"FBC";"CF2W+FQV, Hilimbosi, Kec. Sitolu Ori, Kabupaten Nias Utara, Sumatera Utara 22852";"Hilimbosi, Kec. Sitolu Ori, Kabupaten Nias Utara";"SUMATERA UTARA";"22852";"Indonesia";"";"";"";"1.4012425";"97.4969313";"https://maps.google.com/?cid=0x0:0xcb77b2eaf66bbec0";""
"toko bangunan";"Toko Bahan Bangunan";"UD CIPTA";"FFC2+25J, Jl. Tuhemberua, Banuagea, Kec. Tuhemberua, Kabupaten Nias Utara, Sumatera Utara 22852";"Jl. Tuhemberua, Banuagea, Kec. Tuhemberua, Kabupaten Nias Utara";"SUMATERA UTARA";"22852";"Indonesia";" 085296022295";"";"";"1.4700751";"97.4503753";"https://maps.google.com/?cid=0x0:0x2f377451e1e741c1";""
"toko bangunan";"Toko Bahan Bangunan";"UD Noser";"9HG3+F5W, Tambalou, Afia, Kec. Gunungsitoli Utara, Kota Gunungsitoli, Sumatera Utara";"Kota Gunungsitoli, Sumatera Utara";"SUMATERA UTARA";"";"Indonesia";" 082360686231";"";"";"1.376229";"97.5529474";"https://maps.google.com/?cid=0x0:0xe37c8c1ff3150230";""
"toko bangunan";"Toko Bahan Bangunan";"TOKO BANGUNAN 123";"7J3Q+RM6, Jl. Diponegoro, Fodo, Kec. Gunungsitoli, Kota Gunungsitoli, Sumatera Utara";"Kota Gunungsitoli, Sumatera Utara";"SUMATERA UTARA";"";"Indonesia";"";"";"";"1.2545367";"97.639141";"https://maps.google.com/?cid=0x0:0x92a58f55691c5b21";""
"toko bangunan";"Toko Bahan Bangunan";"Total Bangunan 696";"Jalan Gunungsitoli -Lahewa No.km.14, RW.5, Muara Indah, Kec. Gunungsitoli Utara, Kota Gunungsitoli, Sumatera Utara 22851";"RW.5, Muara Indah, Kec. Gunungsitoli Utara, Kota Gunungsitoli";"SUMATERA UTARA";"22851";"Indonesia";" 082364705520";"";"";"1.3839234";"97.5375444";"https://maps.google.com/?cid=0x0:0x9e5edcc3989bea1d";""
"toko bangunan";"Toko Alat-Alat";"Toko Karya Baru";"Jl. Sudirman Pasar No.30, Saombo, Kec. Gunungsitoli, Kota Gunungsitoli, Sumatera Utara";"Kota Gunungsitoli, Sumatera Utara";"SUMATERA UTARA";"";"Indonesia";" 08179025265";"";"";"1.2872793";"97.6175534";"https://maps.google.com/?cid=0x0:0x3f78a2a9624e44a5";""
"toko bangunan";"Toko Alat-Alat";"UD. Start Jaya";"Jl. Yos Sudarso Ujung No.KM. 5,6, Hili Hao, Kec. Gunungsitoli, Kota Gunungsitoli, Sumatera Utara";"Kota Gunungsitoli, Sumatera Utara";"SUMATERA UTARA";"";"Indonesia";" 081231645392";"";"";"1.3320776";"97.5957471";"https://maps.google.com/?cid=0x0:0xb80213d4744667a1";""
"toko bangunan";"Toko Bahan Bangunan";"Gudang(Ud.Nias bersama)";"99Q5+5QW, Hilidundra, Kec. Lotu, Kabupaten Nias Utara, Sumatera Utara";"Kabupaten Nias Utara, Sumatera Utara";"SUMATERA UTARA";"";"Indonesia";"";"";"";"1.3879875";"97.3594531";"https://maps.google.com/?cid=0x0:0xc0ff55daf11469c4";""
"toko bangunan";"Toko Bahan Bangunan";"UD.NIAS BERSAMA";"depan tribun, Jl. Arah Gunungsitoli-Lahewa No.desa, hilidundra, Kec. Lotu, Kabupaten Nias Utara, Sumatera Utara";"Kabupaten Nias Utara, Sumatera Utara";"SUMATERA UTARA";"";"Indonesia";"";"";"";"1.4974405";"97.3946163";"https://maps.google.com/?cid=0x0:0x3f0f7e0d90665201";""
"toko bangunan";"toko bangunan";"Kec. Tugala Oyo";"Kabupaten Nias Utara, Sumatera Utara";"Kabupaten Nias Utara, Sumatera Utara";"SUMATERA UTARA";"";"Indonesia";"";"";"";"1.1465578";"97.4559257";"https://maps.google.com/?cid=0x0:0x1602712094e01383";""
"toko bangunan";"Toko";"UD.BOY HULU";"6CGC+986, Jl. Fulölö, Loloana'a, Kec. Tugala Oyo, Kabupaten Nias Utara, Sumatera Utara 22814";"Jl. Fulölö, Loloana'a, Kec. Tugala Oyo, Kabupaten Nias Utara";"SUMATERA UTARA";"22814";"Indonesia";"";"";"";"1.225908";"97.4207507";"https://maps.google.com/?cid=0x0:0x437140e514a420ca";""
"toko bangunan";"Toko Bahan Bangunan";"Toko Tiga Serangkai";"5MFQ+9CJ, Jl. Raya Pelud Binaka, Lasara Idanoi, Kec. Gido, Kabupaten Nias, Sumatera Utara";"Kabupaten Nias, Sumatera Utara";"SUMATERA UTARA";"";"Indonesia";" 081287458656";"";"";"1.1734639";"97.6885163";"https://maps.google.com/?cid=0x0:0xc947e6c19ba134a6";""
"toko bangunan";"Toko Bahan Bangunan";"Toko Material Bangunan Daniel";"5HW9+W7R, Dahadano Botombawo, Kec. HiliSerangkai, Kabupaten Nias, Sumatera Utara 22851";"Dahadano Botombawo, Kec. HiliSerangkai, Kabupaten Nias";"SUMATERA UTARA";"22851";"Indonesia";" 083114785308";"";"";"1.1975201";"97.5674987";"https://maps.google.com/?cid=0x0:0x5ac67810e5b018cd";""
"toko bangunan";"Toko Bahan Bangunan";"UD. DELRICH";"588J+C6, Ononamolo Tumula, Kec. Alasa, Kabupaten Nias Utara, Sumatera Utara";"Kabupaten Nias Utara, Sumatera Utara";"SUMATERA UTARA";"";"Indonesia";" 081265566528";"";"";"1.1660829";"97.3306281";"https://maps.google.com/?cid=0x0:0x8bb8a57f86f3580e";""
"toko bangunan";"Toko Bahan Bangunan";"Toko Hinoz, Sembako  Bahan Bangunan";"Simpang 3 Bawomataluo Jln. Ds. Bawofanayama, Orahili Fau, Fanayama, South Nias Regency, North Sumatra 22865";"Orahili Fau, Fanayama, South Nias Regency";"SUMATERA UTARA";"22865";"Indonesia";" 081231645392";"";"";"0.5951276";"97.7683415";"https://maps.google.com/?cid=0x0:0x4d2b25073029b6b7";""
"toko bangunan";"Toko Kayu";"Panglong UD Fortuna desa dahadano gawu-gawu,jln sutomo no.101 kota gunungsitoli nias";"Jl. Sutomo No.101, Dahadano Gawu Gawu, Kec. Gunungsitoli, Kota Gunungsitoli, Sumatera Utara 22810";"Dahadano Gawu Gawu, Kec. Gunungsitoli, Kota Gunungsitoli";"SUMATERA UTARA";"22810";"Indonesia";" 081231645392";"";"";"1.2678817";"97.6136189";"https://maps.google.com/?cid=0x0:0x33c97b0eecf5a043";""
"toko bangunan";"Toko Bahan Bangunan";"Total Bangunan 696";"Jalan Gunungsitoli -Lahewa No.km.14, RW.5, Muara Indah, Kec. Gunungsitoli Utara, Kota Gunungsitoli, Sumatera Utara 22851";"RW.5, Muara Indah, Kec. Gunungsitoli Utara, Kota Gunungsitoli";"SUMATERA UTARA";"22851";"Indonesia";" 082364705520";"";"";"1.3839234";"97.5375444";"https://maps.google.com/?cid=0x0:0x9e5edcc3989bea1d";""
"toko bangunan";"toko bangunan";"Kec. Tuhemberua";"Kabupaten Nias Utara, Sumatera Utara";"Kabupaten Nias Utara, Sumatera Utara";"SUMATERA UTARA";"";"Indonesia";"";"";"";"1.4702731";"97.4498504";"https://maps.google.com/?cid=0x0:0x9c5633cc92cfd2d7";""
"toko bangunan";"Toko Bahan Bangunan";"UD CIPTA";"FFC2+25J, Jl. Tuhemberua, Banuagea, Kec. Tuhemberua, Kabupaten Nias Utara, Sumatera Utara 22852";"Jl. Tuhemberua, Banuagea, Kec. Tuhemberua, Kabupaten Nias Utara";"SUMATERA UTARA";"22852";"Indonesia";" 085296022295";"";"";"1.4700751";"97.4503753";"https://maps.google.com/?cid=0x0:0x2f377451e1e741c1";""
"toko bangunan";"Toko Bahan Bangunan";"U D. S I A M O N";"9C9H+7FM Sisarahili, Esiwa, Kec. Namohalu Esiwa, Kabupaten Nias Utara, Sumatera Utara";"Kabupaten Nias Utara, Sumatera Utara";"SUMATERA UTARA";"";"Indonesia";" 081287458656";"";"";"1.3682203";"97.4286806";"https://maps.google.com/?cid=0x0:0xc6c824ee453ebb2a";""
"toko bangunan";"Kantor Pemerintah";"Desa sawo, kecamatan sowo, kabupaten Nias Utara";"F9PX+J2W, Sawo, Kec. Sawo, Kabupaten Nias Utara, Sumatera Utara";"Kabupaten Nias Utara, Sumatera Utara";"SUMATERA UTARA";"";"Indonesia";"";"";"";"1.4866095";"97.3975845";"https://maps.google.com/?cid=0x0:0x3527be45ae9a4d22";""
"toko bangunan";"Toko Alat-Alat";"UD. Start Jaya";"Jl. Yos Sudarso Ujung No.KM. 5,6, Hili Hao, Kec. Gunungsitoli, Kota Gunungsitoli, Sumatera Utara";"Kota Gunungsitoli, Sumatera Utara";"SUMATERA UTARA";"";"Indonesia";" 081231645392";"";"";"1.3320776";"97.5957471";"https://maps.google.com/?cid=0x0:0xb80213d4744667a1";""
"toko bangunan";"Toko Bahan Bangunan";"FBC";"CF2W+FQV, Hilimbosi, Kec. Sitolu Ori, Kabupaten Nias Utara, Sumatera Utara 22852";"Hilimbosi, Kec. Sitolu Ori, Kabupaten Nias Utara";"SUMATERA UTARA";"22852";"Indonesia";"";"";"";"1.4012425";"97.4969313";"https://maps.google.com/?cid=0x0:0xcb77b2eaf66bbec0";""
"toko bangunan";"Toko Bahan Bangunan";"UD.NIAS BERSAMA";"depan tribun, Jl. Arah Gunungsitoli-Lahewa No.desa, hilidundra, Kec. Lotu, Kabupaten Nias Utara, Sumatera Utara";"Kabupaten Nias Utara, Sumatera Utara";"SUMATERA UTARA";"";"Indonesia";"";"";"";"1.4974405";"97.3946163";"https://maps.google.com/?cid=0x0:0x3f0f7e0d90665201";""
"hardware store";"hardware store";"Afulu";"Lauru I Afulu, Kec. Afulu, Kabupaten Nias Utara, Sumatera Utara";"Kabupaten Nias Utara, Sumatera Utara";"SUMATERA UTARA";"";"Indonesia";"";"";"";"1.275923";"97.228146";"https://maps.google.com/?cid=0x0:0x19123ccab5436978";""
"hardware store";"hardware store";"Kec. Tebet";"Kota Jakarta Selatan, Daerah Khusus Ibukota Jakarta";"Kota Jakarta Selatan, Daerah Khusus Ibukota Jakarta";"SUMATERA UTARA";"";"Indonesia";"";"";"";"-6.2251223";"106.8549881";"https://maps.google.com/?cid=0x0:0xd575e31c807295f9";""
"hardware store";"Toko Bahan Bangunan";"Afra Hardware Stores ,Afrin Ceramic";"Sri Lanka";"Sri Lanka";"SUMATERA UTARA";"";"Indonesia";" +94767670754";"";"";"7.7594012";"79.8284509";"https://maps.google.com/?cid=0x0:0xcad51002adfa62f0";""
"hardware store";"hardware store";"Sumatera Utara 22857";"Kec. Afulu, Kabupaten Nias Utara, Sumatera Utara";"Kabupaten Nias Utara, Sumatera Utara";"SUMATERA UTARA";"";"Indonesia";"";"";"";"1.2548965";"97.2598913";"https://maps.google.com/?cid=0x0:0x7b808d1bfbbe7383";""
"hardware store";"Toko Bahan Bangunan";"Rasik Hardware  Rila Ceramic";"Sri Lanka";"Sri Lanka";"SUMATERA UTARA";"";"Indonesia";"";"";"";"7.7576908";"79.8290285";"https://maps.google.com/?cid=0x0:0x656c9b7185c9644c";""
"hardware store";"hardware store";"Sumatera Utara 22861";"Kabupaten Nias Utara, Sumatera Utara";"Kabupaten Nias Utara, Sumatera Utara";"SUMATERA UTARA";"";"Indonesia";"";"";"";"1.1639401";"97.394882";"https://maps.google.com/?cid=0x0:0x146e7c32a97f723";""
"hardware store";"Toko Alat Tulis Kantor";"UD. FEIVEL";"Jl. Lolomboli, Desa Siduahili, Sidua Hili, Kec. Moro'o, Kabupaten Nias Barat, Sumatera Utara 22862";"Desa Siduahili, Sidua Hili, Kec. Moro'o, Kabupaten Nias Barat";"SUMATERA UTARA";"22862";"Indonesia";" 082258818361";"";"";"1.0619718";"97.4104009";"https://maps.google.com/?cid=0x0:0x2b1640e35d39b6f4";""
"hardware store";"Toko Bahan Bangunan";"Toko Tiga Serangkai";"5MFQ+9CJ, Jl. Raya Pelud Binaka, Lasara Idanoi, Kec. Gido, Kabupaten Nias, Sumatera Utara";"Kabupaten Nias, Sumatera Utara";"SUMATERA UTARA";"";"Indonesia";" 081287458656";"";"";"1.1734639";"97.6885163";"https://maps.google.com/?cid=0x0:0xc947e6c19ba134a6";""
"hardware store";"Toko Bahan Bangunan";"MR.DIY";"Ruko Gunung Sitoli Nias, Jl. Diponegoro No.218, Ilir, Kec. Gunungsitoli, Kota Gunungsitoli, Sumatera Utara 22811";"Jl. Diponegoro No.218, Ilir, Kec. Gunungsitoli, Kota Gunungsitoli";"SUMATERA UTARA";"22811";"Indonesia";" 02130022789";"";"";"1.2832392";"97.6263763";"https://maps.google.com/?cid=0x0:0xea830496b6a4f508";""
"hardware store";"Toko Alat Tulis Kantor";"UD. ALDO";"2FHM+CVH, Simaeasi, Kec. Mandrehe, Kabupaten Nias Barat, Sumatera Utara 22862";"Simaeasi, Kec. Mandrehe, Kabupaten Nias Barat";"SUMATERA UTARA";"22862";"Indonesia";" 081396490730";"";"";"1.0285595";"97.484726";"https://maps.google.com/?cid=0x0:0x2a9c39c24b85995";""
"hardware store";"Toko Bahan Bangunan";"TOKO TERANG JAYA";"Ps. Gn. Sitoli, Kec. Gunungsitoli, Kota Gunungsitoli, Sumatera Utara";"Kota Gunungsitoli, Sumatera Utara";"SUMATERA UTARA";"";"Indonesia";" 082378560100";"";"";"1.2858085";"97.6241595";"https://maps.google.com/?cid=0x0:0x844ad21453a3989c";""
"hardware store";"Toko Alat Tulis Kantor";"UD. TEXOTEL";"Jl. Sisobaholi, Gn. Baru, Kec. Moro'o, Kabupaten Nias Barat, Sumatera Utara 22862";"Gn. Baru, Kec. Moro'o, Kabupaten Nias Barat";"SUMATERA UTARA";"22862";"Indonesia";" 081264510503";"";"";"1.0649573";"97.4558412";"https://maps.google.com/?cid=0x0:0x12e23ad71468fb81";""
"hardware store";"Toko Alat Tulis Kantor";"UD. TALENTA";"Jl. Pattimura No.2, Onolimbu, Kec. Lahomi, Kabupaten Nias Barat, Sumatera Utara 22864";"Onolimbu, Kec. Lahomi, Kabupaten Nias Barat";"SUMATERA UTARA";"22864";"Indonesia";"";"";"";"1.0053696";"97.4923617";"https://maps.google.com/?cid=0x0:0x3867609c85801da8";""
"hardware store";"Toko Mebel";"OMODA INTERIOR";"Keluarahan No.80, Saombo, Kec. Gunungsitoli, Kota Gunungsitoli, Sumatera Utara 22814";"Saombo, Kec. Gunungsitoli, Kota Gunungsitoli";"SUMATERA UTARA";"22814";"Indonesia";" 082298369968";"";"";"1.2953159";"97.6090955";"https://maps.google.com/?cid=0x0:0xaaab9b6fcf21fc3d";""
"hardware store";"Toko Perlengkapan Rumah";"Bintang Keramik";"Jl. Diponegoro No.331, Ilir, Kec. Gunungsitoli, Kota Gunungsitoli, Sumatera Utara";"Kota Gunungsitoli, Sumatera Utara";"SUMATERA UTARA";"";"Indonesia";" 085261215008";"";"";"1.2768764";"97.6304523";"https://maps.google.com/?cid=0x0:0xc308ef56f059f942";""
"hardware store";"Toko Bahan Bangunan";"Toko Bangun";"Jl. Sirao No.46D, Pasar, Kec. Gunungsitoli, Kota Gunungsitoli, Sumatera Utara 22815";"Pasar, Kec. Gunungsitoli, Kota Gunungsitoli";"SUMATERA UTARA";"22815";"Indonesia";" 081361694919";"";"";"1.2899006";"97.6176682";"https://maps.google.com/?cid=0x0:0x9ce61f651849b821";""
"hardware store";"Toko Alat-Alat";"Toko Karya Baru";"Jl. Sudirman Pasar No.30, Saombo, Kec. Gunungsitoli, Kota Gunungsitoli, Sumatera Utara";"Kota Gunungsitoli, Sumatera Utara";"SUMATERA UTARA";"";"Indonesia";" 08179025265";"";"";"1.2872793";"97.6175534";"https://maps.google.com/?cid=0x0:0x3f78a2a9624e44a5";""
"hardware store";"Toko Bahan Bangunan";"UD.MUAMMAR";"simpang pondok pesantren putri ummi Kalsum, Jl. Pattimura No.70, Ps. Gn. Sitoli, Kec. Gunungsitoli, Kota Gunungsitoli, Sumatera Utara 22810";"Jl. Pattimura No.70, Ps. Gn. Sitoli, Kec. Gunungsitoli, Kota Gunungsitoli";"SUMATERA UTARA";"22810";"Indonesia";"";"";"";"1.283899";"97.6184811";"https://maps.google.com/?cid=0x0:0x23cda40ee34b371c";""
"hardware store";"Toko Bahan Bangunan";"Alas Hardware  Construction Supplies";"Municipal Hall, Rizal Street In Front of, San Enrique, 6104 Negros Occidental, Filipina";"San Enrique, Negros Occidental, Filipina";"SUMATERA UTARA";"";"Indonesia";" +639190620744";"";"";"10.4195221";"122.8492612";"https://maps.google.com/?cid=0x0:0xbf2213c160b13769";""
"hardware store";"Toko Bahan Bangunan";"ALS HARDWARE  CONSTRUCTION SUPPLIES";"Pontevedra, Negros Occidental, Filipina";"Pontevedra, Negros Occidental, Filipina";"SUMATERA UTARA";"";"Indonesia";"";"";"";"10.3729562";"122.8681116";"https://maps.google.com/?cid=0x0:0x2f2171280bbe60d";""
"hardware store";"Toko Bahan Bangunan";"Toko Bangun";"Jl. Sirao No.46D, Pasar, Kec. Gunungsitoli, Kota Gunungsitoli, Sumatera Utara 22815";"Pasar, Kec. Gunungsitoli, Kota Gunungsitoli";"SUMATERA UTARA";"22815";"Indonesia";" 081361694919";"";"";"1.2899006";"97.6176682";"https://maps.google.com/?cid=0x0:0x9ce61f651849b821";""
"hardware store";"Toko Bahan Bangunan";"Toko ANEKA BANGUNAN";"depan rumah makan beringin baru, Jl. Sirao No.6, Saombo, Kec. Gunungsitoli, Kabupaten Nias, Sumatera Utara";"Kabupaten Nias, Sumatera Utara";"SUMATERA UTARA";"";"Indonesia";" 081231645392";"";"";"1.2903411";"97.6158857";"https://maps.google.com/?cid=0x0:0x53ca275b69ef0d2c";""
"hardware store";"Rumah Sakit";"Puskesmas Alasa Talumuzoi";"Hilimbowo Kare, Kec. Alasa Talumuzoi, Kabupaten Nias Utara, Sumatera Utara";"Kabupaten Nias Utara, Sumatera Utara";"SUMATERA UTARA";"";"Indonesia";"";"";"";"1.2375525";"97.4857812";"https://maps.google.com/?cid=0x0:0x87efee1088180580";""
"hardware store";"hardware store";"Kec. Alasa Talumuzoi";"Kabupaten Nias Utara, Sumatera Utara";"Kabupaten Nias Utara, Sumatera Utara";"SUMATERA UTARA";"";"Indonesia";"";"";"";"1.24495";"97.4440065";"https://maps.google.com/?cid=0x0:0x2616b4f75864e0d8";""
"hardware store";"Apotek";"Toko D'law I.Andy Tel";"Jalan Sukarno No.32 Kelurahan Pasar Lahewa Kecamatan Lahewa, Ps. Lahewa, Sumatera Utara, Kabupaten Nias Utara, Sumatera Utara 22853";"Ps. Lahewa, Sumatera Utara, Kabupaten Nias Utara";"SUMATERA UTARA";"22853";"Indonesia";" 081284847340";"";"";"1.3934369";"97.1689846";"https://maps.google.com/?cid=0x0:0xebc12eab6370a951";""
"hardware store";"hardware store";"Sumatera Utara 22853";"Kecamaten Lahewa, Kabupaten Nias Utara, Sumatera Utara";"Kabupaten Nias Utara, Sumatera Utara";"SUMATERA UTARA";"";"Indonesia";"";"";"";"1.3266447";"97.2329255";"https://maps.google.com/?cid=0x0:0xc7df9697de637a01";""
"hardware store";"Toko Bahan Bangunan";"Bata Pres Nias Santo Lase";"Iraono Lase, Kec. Gunungsitoli Alo'oa, Kota Gunungsitoli, Sumatera Utara 22851";"Kec. Gunungsitoli Alo'oa, Kota Gunungsitoli";"SUMATERA UTARA";"22851";"Indonesia";" 082233533407";"";"";"1.3114966";"97.5733412";"https://maps.google.com/?cid=0x0:0xb9e5b7fcc4157eed";""
"hardware store";"Toko Bahan Bangunan";"TOKO TERANG JAYA";"Ps. Gn. Sitoli, Kec. Gunungsitoli, Kota Gunungsitoli, Sumatera Utara";"Kota Gunungsitoli, Sumatera Utara";"SUMATERA UTARA";"";"Indonesia";" 082378560100";"";"";"1.2858085";"97.6241595";"https://maps.google.com/?cid=0x0:0x844ad21453a3989c";""
"hardware store";"Toko Bahan Bangunan";"Toko Tiga Serangkai";"5MFQ+9CJ, Jl. Raya Pelud Binaka, Lasara Idanoi, Kec. Gido, Kabupaten Nias, Sumatera Utara";"Kabupaten Nias, Sumatera Utara";"SUMATERA UTARA";"";"Indonesia";" 081287458656";"";"";"1.1734639";"97.6885163";"https://maps.google.com/?cid=0x0:0xc947e6c19ba134a6";""
"hardware store";"Toko Perlengkapan Rumah";"Bintang Keramik";"Jl. Diponegoro No.331, Ilir, Kec. Gunungsitoli, Kota Gunungsitoli, Sumatera Utara";"Kota Gunungsitoli, Sumatera Utara";"SUMATERA UTARA";"";"Indonesia";" 085261215008";"";"";"1.2768764";"97.6304523";"https://maps.google.com/?cid=0x0:0xc308ef56f059f942";""
"hardware store";"Toko Mebel";"OMODA INTERIOR";"Keluarahan No.80, Saombo, Kec. Gunungsitoli, Kota Gunungsitoli, Sumatera Utara 22814";"Saombo, Kec. Gunungsitoli, Kota Gunungsitoli";"SUMATERA UTARA";"22814";"Indonesia";" 082298369968";"";"";"1.2953159";"97.6090955";"https://maps.google.com/?cid=0x0:0xaaab9b6fcf21fc3d";""
"hardware store";"Toko Alat-Alat";"Toko Karya Baru";"Jl. Sudirman Pasar No.30, Saombo, Kec. Gunungsitoli, Kota Gunungsitoli, Sumatera Utara";"Kota Gunungsitoli, Sumatera Utara";"SUMATERA UTARA";"";"Indonesia";" 08179025265";"";"";"1.2872793";"97.6175534";"https://maps.google.com/?cid=0x0:0x3f78a2a9624e44a5";""
"hardware store";"Toko Bahan Bangunan";"UD.MUAMMAR";"simpang pondok pesantren putri ummi Kalsum, Jl. Pattimura No.70, Ps. Gn. Sitoli, Kec. Gunungsitoli, Kota Gunungsitoli, Sumatera Utara 22810";"Jl. Pattimura No.70, Ps. Gn. Sitoli, Kec. Gunungsitoli, Kota Gunungsitoli";"SUMATERA UTARA";"22810";"Indonesia";"";"";"";"1.283899";"97.6184811";"https://maps.google.com/?cid=0x0:0x23cda40ee34b371c";""
"hardware store";"hardware store";"Lahewa";"Fadoro Sitolu Hili, Kecamaten Lahewa, Kabupaten Nias Utara, Sumatera Utara";"Kabupaten Nias Utara, Sumatera Utara";"SUMATERA UTARA";"";"Indonesia";"";"";"";"1.390561";"97.176434";"https://maps.google.com/?cid=0x0:0x8aba201f76253f8d";""
"hardware store";"hardware store";"Kec. Tebet";"Kota Jakarta Selatan, Daerah Khusus Ibukota Jakarta";"Kota Jakarta Selatan, Daerah Khusus Ibukota Jakarta";"SUMATERA UTARA";"";"Indonesia";"";"";"";"-6.2251223";"106.8549881";"https://maps.google.com/?cid=0x0:0xd575e31c807295f9";""
"hardware store";"Apotek";"Toko D'law I.Andy Tel";"Jalan Sukarno No.32 Kelurahan Pasar Lahewa Kecamatan Lahewa, Ps. Lahewa, Sumatera Utara, Kabupaten Nias Utara, Sumatera Utara 22853";"Ps. Lahewa, Sumatera Utara, Kabupaten Nias Utara";"SUMATERA UTARA";"22853";"Indonesia";" 081284847340";"";"";"1.3934369";"97.1689846";"https://maps.google.com/?cid=0x0:0xebc12eab6370a951";""
"hardware store";"Apotek";"Toiw6";"95RG+6HF, Fadoro Sitolu Hili, Kecamaten Lahewa, Kabupaten Nias Utara, Sumatera Utara";"Kabupaten Nias Utara, Sumatera Utara";"SUMATERA UTARA";"";"Indonesia";"";"";"";"1.3906";"97.1764";"https://maps.google.com/?cid=0x0:0xc11637488b4cbe5b";""
"hardware store";"hardware store";"Kec. Lahewa Tim.";"Kabupaten Nias Utara, Sumatera Utara";"Kabupaten Nias Utara, Sumatera Utara";"SUMATERA UTARA";"";"Indonesia";"";"";"";"1.3690959";"97.3010539";"https://maps.google.com/?cid=0x0:0x1c45965c923c9076";""
"hardware store";"Toko Mebel";"UD. ADRIEL (MEUBELAIR)";"FFC8+FRX Tanaya'o, Banuagea, Kec. Tuhemberua, Kabupaten Nias Utara, Sumatera Utara";"Kabupaten Nias Utara, Sumatera Utara";"SUMATERA UTARA";"";"Indonesia";" 081327100196";"";"";"1.4712423";"97.4670996";"https://maps.google.com/?cid=0x0:0x2391c28e26524635";""
"hardware store";"Toko Perlengkapan Rumah";"UD. AIR EFENDI";"Jl. Arah Gunungsitoli-Lahewa, Lasara Sawo, Kec. Sawo, Kabupaten Nias Utara, Sumatera Utara 22852";"Lasara Sawo, Kec. Sawo, Kabupaten Nias Utara";"SUMATERA UTARA";"22852";"Indonesia";" 082246059458";"";"";"1.5024679";"97.3807944";"https://maps.google.com/?cid=0x0:0xa4355e0aa7ff8bc7";""
"hardware store";"Toko Bahan Bangunan";"HOME AFFIX HARDWARE";"pusat perniagaan, 48, Laluan Lapangan 6, Taman Lapangan Jaya, 31650 Ipoh, Perak, Malaysia";"Ipoh";"SUMATERA UTARA";"31650";"Indonesia";" +601159799334";"";"";"4.5575995";"101.095982";"https://maps.google.com/?cid=0x0:0x4ea494f0596bf0b7";""
"hardware store";"Toko Bahan Bangunan";"U D. S I A M O N";"9C9H+7FM Sisarahili, Esiwa, Kec. Namohalu Esiwa, Kabupaten Nias Utara, Sumatera Utara";"Kabupaten Nias Utara, Sumatera Utara";"SUMATERA UTARA";"";"Indonesia";" 081287458656";"";"";"1.3682203";"97.4286806";"https://maps.google.com/?cid=0x0:0xc6c824ee453ebb2a";""
"hardware store";"Toko Bahan Bangunan";"BATAKO Si@mon";"Sisarahili, Esiwa, Kec. Namohalu Esiwa, Kabupaten Nias Utara, Sumatera Utara";"Kabupaten Nias Utara, Sumatera Utara";"SUMATERA UTARA";"";"Indonesia";" 085329716866";"";"";"1.3683976";"97.4289592";"https://maps.google.com/?cid=0x0:0xbe7bf81080d14024";""
"hardware store";"Toko Bahan Bangunan";"U D. S I A M O N";"9C9H+7FM Sisarahili, Esiwa, Kec. Namohalu Esiwa, Kabupaten Nias Utara, Sumatera Utara";"Kabupaten Nias Utara, Sumatera Utara";"SUMATERA UTARA";"";"Indonesia";" 081287458656";"";"";"1.3682203";"97.4286806";"https://maps.google.com/?cid=0x0:0xc6c824ee453ebb2a";""
"hardware store";"Toko Bahan Bangunan";"BATAKO Si@mon";"Sisarahili, Esiwa, Kec. Namohalu Esiwa, Kabupaten Nias Utara, Sumatera Utara";"Kabupaten Nias Utara, Sumatera Utara";"SUMATERA UTARA";"";"Indonesia";" 085329716866";"";"";"1.3683976";"97.4289592";"https://maps.google.com/?cid=0x0:0xbe7bf81080d14024";""
"hardware store";"hardware store";"Kec. Sawo";"Kabupaten Nias Utara, Sumatera Utara";"Kabupaten Nias Utara, Sumatera Utara";"SUMATERA UTARA";"";"Indonesia";"";"";"";"1.497956";"97.3989135";"https://maps.google.com/?cid=0x0:0x766aabcbebe65b39";""
"hardware store";"hardware store";"Sumatera Utara 22852";"Kabupaten Nias Utara, Sumatera Utara";"Kabupaten Nias Utara, Sumatera Utara";"SUMATERA UTARA";"";"Indonesia";"";"";"";"1.4120939";"97.4597725";"https://maps.google.com/?cid=0x0:0x230853ed5a2114a9";""
"hardware store";"Grosir Perlengkapan Rumah Tangga";"Tangga lipat alumunium";"Perum gramapuri tamansari, Wanasari, Kec. Cibitung, Kabupaten Bekasi, Jawa Barat";"Kabupaten Bekasi, Jawa Barat";"SUMATERA UTARA";"";"Indonesia";" 082164755877";"";"";"-6.2566974";"107.0833406";"https://maps.google.com/?cid=0x0:0xe33bca764eb95f15";""
"hardware store";"Toko Mebel";"UD. ADRIEL (MEUBELAIR)";"FFC8+FRX Tanaya'o, Banuagea, Kec. Tuhemberua, Kabupaten Nias Utara, Sumatera Utara";"Kabupaten Nias Utara, Sumatera Utara";"SUMATERA UTARA";"";"Indonesia";" 081327100196";"";"";"1.4712423";"97.4670996";"https://maps.google.com/?cid=0x0:0x2391c28e26524635";""
"hardware store";"Toko Perlengkapan Rumah";"UD. AIR EFENDI";"Jl. Arah Gunungsitoli-Lahewa, Lasara Sawo, Kec. Sawo, Kabupaten Nias Utara, Sumatera Utara 22852";"Lasara Sawo, Kec. Sawo, Kabupaten Nias Utara";"SUMATERA UTARA";"22852";"Indonesia";" 082246059458";"";"";"1.5024679";"97.3807944";"https://maps.google.com/?cid=0x0:0xa4355e0aa7ff8bc7";""
"hardware store";"Toko Alat Tulis Kantor";"UD. FEIVEL";"Jl. Lolomboli, Desa Siduahili, Sidua Hili, Kec. Moro'o, Kabupaten Nias Barat, Sumatera Utara 22862";"Desa Siduahili, Sidua Hili, Kec. Moro'o, Kabupaten Nias Barat";"SUMATERA UTARA";"22862";"Indonesia";" 082258818361";"";"";"1.0619718";"97.4104009";"https://maps.google.com/?cid=0x0:0x2b1640e35d39b6f4";""
"hardware store";"Toko Alat Tulis Kantor";"UD. Adil";"2F5V+Q34, Onolimbu, Kec. Lahomi, Kabupaten Nias Barat, Sumatera Utara 22862";"Onolimbu, Kec. Lahomi, Kabupaten Nias Barat";"SUMATERA UTARA";"22862";"Indonesia";" 082274852472";"";"";"1.0094052";"97.4927288";"https://maps.google.com/?cid=0x0:0xf6e20f2c1fb19b75";""
"hardware store";"hardware store";"OYO 3733 Guntur 40 Residence";"Jl. Guntur No.40, RT.8/RW.1, Guntur, Kecamatan Setiabudi, Kota Jakarta Selatan, Daerah Khusus Ibukota Jakarta 12980";"RT.8/RW.1, Guntur, Kecamatan Setiabudi, Kota Jakarta Selatan";"SUMATERA UTARA";"12980";"Indonesia";" 02129707601";"";"";"-6.2085273";"106.8367715";"https://maps.google.com/?cid=0x0:0x6726a3ca2eadb3dc";""
"hardware store";"Suburban train line";"Stasiun Cikini";"No.5, Jl. Pegangsaan Timur No.RT.4, Pegangsaan, Kec. Menteng, Daerah Khusus Ibukota Jakarta 10310";"Jl. Pegangsaan Timur No.RT.4, Pegangsaan, Kec. Menteng";"SUMATERA UTARA";"10310";"Indonesia";"";"";"";"-6.1984393";"106.8413109";"https://maps.google.com/?cid=0x0:0x950c3b02c92fab81";""
"hardware store";"hardware store";"OYO 1990 Kost Kuningan Executive Boading House Setiabudi";"79, Jl. Genteng Ijo Kecamatan No.79, RT.6/RW.7, Kuningan, Karet Kuningan, Kecamatan Setiabudi, Daerah Khusus Ibukota Jakarta 12940";"Jl. Genteng Ijo Kecamatan No.79, RT.6/RW.7, Kuningan, Karet Kuningan, Kecamatan Setiabudi";"SUMATERA UTARA";"12940";"Indonesia";" 02129707601";"";"";"-6.2203417";"106.8269305";"https://maps.google.com/?cid=0x0:0xf7fcbcb33db42a78";""
"hardware store";"hardware store";"N/A";"";"";"SUMATERA UTARA";"";"Indonesia";"";"";"";"";"";"https://maps.google.com/?cid=0x0:0xf7fcbcb33db42a78%7C/g/11h8j43t1x%7Cen-ID";""
"hardware store";"Stasiun Kereta";"Stasiun Sudirman";"10, Jl. Kendal No.24, RW.6, Menteng, 10310";"Jl. Kendal No.24, RW.6";"SUMATERA UTARA";"10310";"Indonesia";"";"";"";"-6.2024499";"106.8237671";"https://maps.google.com/?cid=0x0:0x13f90424139e1edf";""
"hardware store";"hardware store";"OYO 94362 Hotel Kebayoran";"Airy Eco, 62, Kebayoran Baru, BlokSSenayan, Jakarta 12170";"62, Kebayoran Baru, BlokSSenayan";"SUMATERA UTARA";"12170";"Indonesia";" 0817788016";"";"";"-6.237734";"106.816753";"https://maps.google.com/?cid=0x0:0x7fd0ebd60531357f";""
"hardware store";"Perhentian bus";"Stadiun Karet";"Kb. Melati, Kecamatan Tanah Abang, Kota Jakarta Pusat, Daerah Khusus Ibukota Jakarta";"Kota Jakarta Pusat, Daerah Khusus Ibukota Jakarta";"SUMATERA UTARA";"";"Indonesia";"";"";"";"-6.2008419";"106.8159048";"https://maps.google.com/?cid=0x0:0x6b67090796653b2b";""
"hardware store";"hardware store";"OYO 90941 Egelsa 2020 Syariah Near Bank Mega Syariah KCP Rawamangun";"Jl. Kayu Jati I Gg. 1 No.3, RT.8/RW.4, Rawamangun, Kec. Pulo Gadung, Kota Jakarta Timur, Daerah Khusus Ibukota Jakarta 13220";"RT.8/RW.4, Rawamangun, Kec. Pulo Gadung, Kota Jakarta Timur";"SUMATERA UTARA";"13220";"Indonesia";" 02129707601";"";"";"-6.1924274";"106.884727";"https://maps.google.com/?cid=0x0:0x8b5011cf37fa3096";""
"hardware store";"Layanan Transportasi";"Kramat";"dari Jalan Pramuka Jaya Sari, Jl. Penegak Jl. Gugus Depan Gg. II, Paseban, Kec. Senen, Daerah Khusus Ibukota Jakarta 10440";"Jl. Penegak Jl. Gugus Depan Gg. II, Paseban, Kec. Senen";"SUMATERA UTARA";"10440";"Indonesia";"";"";"";"-6.19371";"106.85659";"https://maps.google.com/?cid=0x0:0x1b1a874b25622c3b";""
"hardware store";"hardware store";"OYO 91654 Bintang Residence";"Gg. Anggrek XII No.12, RW.2, Kuningan, Karet Kuningan, Jakarta, Kota Jakarta Selatan, Daerah Khusus Ibukota Jakarta 12940";"RW.2, Kuningan, Karet Kuningan, Jakarta, Kota Jakarta Selatan";"SUMATERA UTARA";"12940";"Indonesia";" 02129707601";"";"";"-6.2158756";"106.8271931";"https://maps.google.com/?cid=0x0:0x917967218cd2cb79";""
"hardware store";"hardware store";"OYO 245 Juana 21";"6, Jl. Juana No.21, RT.7/RW.6, Dukuh Atas, Menteng, Jakarta, Kota Jakarta Pusat, Daerah Khusus Ibukota Jakarta 10310";"Jl. Juana No.21, RT.7/RW.6, Dukuh Atas, Menteng, Jakarta, Kota Jakarta Pusat";"SUMATERA UTARA";"10310";"Indonesia";" 02129707601";"";"";"-6.2015974";"106.8246861";"https://maps.google.com/?cid=0x0:0xdc52615b2c13595d";""
"hardware store";"hardware store";"Residence 38";"3, Jl. Karet Pedurenan No.38, RT.3/RW.4, Kuningan, Karet Kuningan, Kota Jakarta Selatan, Daerah Khusus Ibukota Jakarta 12940";"Jl. Karet Pedurenan No.38, RT.3/RW.4, Kuningan, Karet Kuningan, Kota Jakarta Selatan";"SUMATERA UTARA";"12940";"Indonesia";" 02129707601";"";"";"-6.2212969";"106.8247061";"https://maps.google.com/?cid=0x0:0xcd3e96c2f9dfcf8a";""
"hardware store";"hardware store";"OYO 3854 Pama Syariah Inn";"4, Jl. Sukamulya III No.56, RT.5/RW.6, Harapan Mulya, Kec. Kemayoran, Kota Jakarta Pusat, Daerah Khusus Ibukota Jakarta 10640";"Jl. Sukamulya III No.56, RT.5/RW.6, Harapan Mulya, Kec. Kemayoran, Kota Jakarta Pusat";"SUMATERA UTARA";"10640";"Indonesia";" 02129707601";"";"";"-6.1705745";"106.8534716";"https://maps.google.com/?cid=0x0:0x154a8158757d5745";""
"hardware store";"Layanan Transportasi";"Stasiun Pasar Senen";"Jl. Pasar Senen No.14, Senen, Kec. Senen, Kota Jakarta Pusat, Daerah Khusus Ibukota Jakarta 10410";"Senen, Kec. Senen, Kota Jakarta Pusat";"SUMATERA UTARA";"10410";"Indonesia";"";"";"";"-6.1747";"106.84435";"https://maps.google.com/?cid=0x0:0x26d8e8d36c8b8021";""
"hardware store";"hardware store";"Super OYO 90692 Point Hostel";"16, Jl. Kota Baru No.16, RT.11/RW.6, Cideng, Gambir, Jakarta, 10150";"Jl. Kota Baru No.16, RT.11/RW.6, Cideng, Gambir";"SUMATERA UTARA";"10150";"Indonesia";" 02129707601";"";"";"-6.1702987";"106.8058902";"https://maps.google.com/?cid=0x0:0x43871a9e5cbcbf41";""
"hardware store";"Simpangan transportasi";"Duri";"Jl. Duri Utara, Duri Utara, Kec. Tambora, Kota Jakarta Barat, Daerah Khusus Ibukota Jakarta 11270";"Duri Utara, Kec. Tambora, Kota Jakarta Barat";"SUMATERA UTARA";"11270";"Indonesia";"";"";"";"-6.1552465";"106.8014521";"https://maps.google.com/?cid=0x0:0x2b7736c4b159d50b";""
"hardware store";"hardware store";"N/A";"";"";"SUMATERA UTARA";"";"Indonesia";"";"";"";"";"";"https://maps.google.com/?cid=0x0:0x4e7d74e1e51e177a%7C/g/11fcv7jn74%7Cen-ID";""
"hardware store";"hardware store";"OYO 121 Rumah Ayub Syariah";"10, Hotel near Taman Bangdes 550 m, Gg. C No.21, RT.10/RW.1, West Pejaten, Jakarta, 12510";"Hotel near Taman Bangdes 550 m, Gg. C No.21, RT.10/RW.1, West Pejaten";"SUMATERA UTARA";"12510";"Indonesia";" 02129707601";"";"";"-6.2671245";"106.8414867";"https://maps.google.com/?cid=0x0:0x4e7d74e1e51e177a";""
"hardware store";"Museum";"Taman Mini Indonesia Indah";"Jl. Taman Mini Indonesia Indah, Ceger, Kec. Cipayung, Kota Jakarta Timur, Daerah Khusus Ibukota Jakarta 13820";"Ceger, Kec. Cipayung, Kota Jakarta Timur";"SUMATERA UTARA";"13820";"Indonesia";" 08041789789";"";"";"-6.3020386";"106.8898924";"https://maps.google.com/?cid=0x0:0x73127b9ecf2da0c";""
"hardware store";"Stasiun Kereta";"Stasiun Pasar Minggu Baru";"Jalan Batu Merah IV, Pejaten Timur, Pasar Minggu, Kota Jakarta Selatan, 12510";"Pejaten Timur, Pasar Minggu";"SUMATERA UTARA";"12510";"Indonesia";"";"";"";"-6.2630599";"106.8515975";"https://maps.google.com/?cid=0x0:0xa52ed8c2747beee";""
"hardware store";"hardware store";"OYO 90469 BENHIL KARET TENGSIN";"RS AL Mintohardjo, 94, RT.17/RW.5, Karet Tengsin, Tanah Abang, Jakarta, 10220";"94, RT.17/RW.5, Karet Tengsin, Tanah Abang";"SUMATERA UTARA";"10220";"Indonesia";" 02129707601";"";"";"-6.2087122";"106.8126948";"https://maps.google.com/?cid=0x0:0x95673a0217b680d0";""
"hardware store";"hardware store";"Coolz Homestay Tebet";"Hotel near Taman Kirana Surya 350 m, TIS Square Jakarta, 22 Jalan Tebet Barat Dalam X No 22, RT 12/RW 05, Tebet Barat, Tebet Jakarta Selatan, Jakarta, 12810";"TIS Square Jakarta, 22 Jalan Tebet Barat Dalam X No 22, RT 12/RW 05, Tebet Barat, Tebet Jakarta Selatan";"SUMATERA UTARA";"12810";"Indonesia";" 02129707601";"";"";"-6.2402848";"106.8475797";"https://maps.google.com/?cid=0x0:0x4f457ead5fc827f1";""
"hardware store";"hardware store";"OYO 90109 Wisma Basco";"Jl. K.H. Mas Mansyur No.110 5, RT.5/RW.17, Kb. Melati, Kecamatan, Jakarta, Daerah Khusus Ibukota Jakarta 10230";"RT.5/RW.17, Kb. Melati, Kecamatan, Jakarta";"SUMATERA UTARA";"10230";"Indonesia";" 02129707601";"";"";"-6.1982143";"106.8140671";"https://maps.google.com/?cid=0x0:0xd74245e047668d14";""
"hardware store";"Perhentian bus";"Stasiun Cawang";"Jl. Tebet Timur Raya No.55, Tebet Tim., Kec. Tebet, Kota Jakarta Selatan, Daerah Khusus Ibukota Jakarta 12820";"Tebet Tim., Kec. Tebet, Kota Jakarta Selatan";"SUMATERA UTARA";"12820";"Indonesia";"";"";"";"-6.2424292";"106.8587271";"https://maps.google.com/?cid=0x0:0x8ec60d936a45b39d";""
"hardware store";"hardware store";"N/A";"";"";"SUMATERA UTARA";"";"Indonesia";"";"";"";"";"";"https://maps.google.com/?cid=0x0:0xd74245e047668d14%7C/g/11mw8gyn75%7Cen-ID";""
"hardware store";"hardware store";"OYO 90635 Tango Juliet Residence";"18, Jl. Pejompongan Dalam No.18, Bend. Hilir, Kecamatan Tanah Abang, Jakarta, Daerah Khusus Ibukota Jakarta 10210";"Jl. Pejompongan Dalam No.18, Bend. Hilir, Kecamatan Tanah Abang, Jakarta";"SUMATERA UTARA";"10210";"Indonesia";" 02129707601";"";"";"-6.2052408";"106.8040285";"https://maps.google.com/?cid=0x0:0x25b6c7815ead1f6";""
"hardware store";"hardware store";"OYO 2768 OQ Residence";"Jl. Purwodadi No.21, RT.9/RW.6, Dukuh Atas, Menteng, Kec. Menteng, Kota Jakarta Pusat, Daerah Khusus Ibukota Jakarta 10310";"RT.9/RW.6, Dukuh Atas, Menteng, Kec. Menteng, Kota Jakarta Pusat";"SUMATERA UTARA";"10310";"Indonesia";" 02129707601";"";"";"-6.2025352";"106.8258675";"https://maps.google.com/?cid=0x0:0x8db6f0bddcc93ee9";""
"hardware store";"hardware store";"Kec. Tuhemberua";"Kabupaten Nias Utara, Sumatera Utara";"Kabupaten Nias Utara, Sumatera Utara";"SUMATERA UTARA";"";"Indonesia";"";"";"";"1.4702731";"97.4498504";"https://maps.google.com/?cid=0x0:0x9c5633cc92cfd2d7";""
"hardware store";"Toko Mebel";"UD. ADRIEL (MEUBELAIR)";"FFC8+FRX Tanaya'o, Banuagea, Kec. Tuhemberua, Kabupaten Nias Utara, Sumatera Utara";"Kabupaten Nias Utara, Sumatera Utara";"SUMATERA UTARA";"";"Indonesia";" 081327100196";"";"";"1.4712423";"97.4670996";"https://maps.google.com/?cid=0x0:0x2391c28e26524635";""
"hardware store";"hardware store";"Toko Tensen";"FCFQ+CJQ, Silima Banua, Kec. Tuhemberua, Kabupaten Nias Utara, Sumatera Utara";"Kabupaten Nias Utara, Sumatera Utara";"SUMATERA UTARA";"";"Indonesia";"";"";"";"1.4735962";"97.4391006";"https://maps.google.com/?cid=0x0:0x63ba9f263574ca88";""
"home improvement";"home improvement";"Afulu";"Lauru I Afulu, Kec. Afulu, Kabupaten Nias Utara, Sumatera Utara";"Kabupaten Nias Utara, Sumatera Utara";"SUMATERA UTARA";"";"Indonesia";"";"";"";"1.275923";"97.228146";"https://maps.google.com/?cid=0x0:0x19123ccab5436978";""
"home improvement";"home improvement";"Kec. Tebet";"Kota Jakarta Selatan, Daerah Khusus Ibukota Jakarta";"Kota Jakarta Selatan, Daerah Khusus Ibukota Jakarta";"SUMATERA UTARA";"";"Indonesia";"";"";"";"-6.2251223";"106.8549881";"https://maps.google.com/?cid=0x0:0xd575e31c807295f9";""
"home improvement";"Toko Mebel";"UD.HP PRABOT";"Unnamed Road, Kec. Afulu, Kabupaten Nias Utara, Sumatera Utara 22857";"Kec. Afulu, Kabupaten Nias Utara";"SUMATERA UTARA";"22857";"Indonesia";" 082223921664";"";"";"1.2565899";"97.2512719";"https://maps.google.com/?cid=0x0:0x104a02aee142719";""
"home improvement";"Toko Mebel";"Panglon UD.Abert";"2FVP+PJC, Desa fadoro, dusun 3, aramba, Kec. Mandrehe, Kabupaten Nias Barat, Sumatera Utara";"Kabupaten Nias Barat, Sumatera Utara";"SUMATERA UTARA";"";"Indonesia";"";"";"";"1.0443152";"97.4865276";"https://maps.google.com/?cid=0x0:0xba08fd2d6ac01d27";""
"home improvement";"home improvement";"Afulu";"Lauru I Afulu, Kec. Afulu, Kabupaten Nias Utara, Sumatera Utara";"Kabupaten Nias Utara, Sumatera Utara";"SUMATERA UTARA";"";"Indonesia";"";"";"";"1.275923";"97.228146";"https://maps.google.com/?cid=0x0:0x19123ccab5436978";""
"home improvement";"home improvement";"Sumatera Utara 22861";"Kabupaten Nias Utara, Sumatera Utara";"Kabupaten Nias Utara, Sumatera Utara";"SUMATERA UTARA";"";"Indonesia";"";"";"";"1.1639401";"97.394882";"https://maps.google.com/?cid=0x0:0x146e7c32a97f723";""
"home improvement";"Kantor Perusahaan";"ASKENA COMPANY";"Saitagari Desa Botonaai Kecamatan Tugala Oyo, Kab, Kabupaten Nias Utara, Sumatera Utara 22861";"Kab, Kabupaten Nias Utara";"SUMATERA UTARA";"22861";"Indonesia";" 081284444489";"";"";"1.1002386";"97.4685683";"https://maps.google.com/?cid=0x0:0x539553c0ad1ef82d";""
"home improvement";"Toko Perlengkapan Rumah";"UD.VALEN";"6CGM+9GW, Loloana'a, Kec. Tugala Oyo, Kabupaten Nias Utara, Sumatera Utara";"Kabupaten Nias Utara, Sumatera Utara";"SUMATERA UTARA";"";"Indonesia";" 085207856665";"";"";"1.2259824";"97.4338187";"https://maps.google.com/?cid=0x0:0xfd47bc1bc15a462e";""
"home improvement";"home improvement";"Sumatera Utara 22814";"Saombo, Kec. Gunungsitoli, Kota Gunungsitoli, Sumatera Utara";"Kota Gunungsitoli, Sumatera Utara";"SUMATERA UTARA";"";"Indonesia";"";"";"";"1.2897758";"97.6188016";"https://maps.google.com/?cid=0x0:0x72677cb0cc3dbd55";""
"home improvement";"Toko Perlengkapan Rumah";"PERABOT HAFIZH";"sebelah kanan sebelum jembatan samping Mie Aceh WAK TOM, Jalan Diponegoro ilir, Jl. Diponegoro lingkungan 1, Kampung baru, Kec. Gunungsitoli, Kota Gunungsitoli, Sumatera Utara 22815";"Jalan Diponegoro ilir, Jl. Diponegoro lingkungan 1, Kampung baru, Kec. Gunungsitoli, Kota Gunungsitoli";"SUMATERA UTARA";"22815";"Indonesia";" 082273003626";"";"";"1.2879565";"97.6201636";"https://maps.google.com/?cid=0x0:0xf989380d66250d3e";""
"home improvement";"home improvement";"Rumah A/I.Tara";"6CVV+M45, Hilina A, Kec. Alasa Talumuzoi, Kabupaten Nias Utara, Sumatera Utara";"Kabupaten Nias Utara, Sumatera Utara";"SUMATERA UTARA";"";"Indonesia";"";"";"";"1.2441317";"97.4428733";"https://maps.google.com/?cid=0x0:0xbcfbe19b220260e2";""
"home improvement";"Jasa Konstruksi dan Bangunan";"PT. Guna Karya Konstruksi";"Alinda I No.19, RW.021, Kaliabang Tengah, Kec. Bekasi Utara, Kota Bks, Jawa Barat 17125";"RW.021, Kaliabang Tengah, Kec. Bekasi Utara, Kota Bks";"SUMATERA UTARA";"17125";"Indonesia";"";"";"";"-6.1975414";"107.0087801";"https://maps.google.com/?cid=0x0:0xbde23782e912702b";""
"home improvement";"home improvement";"Sumatera Utara 22853";"Kecamaten Lahewa, Kabupaten Nias Utara, Sumatera Utara";"Kabupaten Nias Utara, Sumatera Utara";"SUMATERA UTARA";"";"Indonesia";"";"";"";"1.3266447";"97.2329255";"https://maps.google.com/?cid=0x0:0xc7df9697de637a01";""
"home improvement";"Kantor Perusahaan";"PERABOT RISWAN LASE";"95VF+FQF, Ps. Lahewa, Kecamaten Lahewa, Kabupaten Nias Utara, Sumatera Utara";"Kabupaten Nias Utara, Sumatera Utara";"SUMATERA UTARA";"";"Indonesia";" 081362124582";"";"";"1.393641";"97.1742999";"https://maps.google.com/?cid=0x0:0xdaff8de20aad4cd3";""
"home improvement";"Toko Mebel";"UD.HP PRABOT";"Unnamed Road, Kec. Afulu, Kabupaten Nias Utara, Sumatera Utara 22857";"Kec. Afulu, Kabupaten Nias Utara";"SUMATERA UTARA";"22857";"Indonesia";" 082223921664";"";"";"1.2565899";"97.2512719";"https://maps.google.com/?cid=0x0:0x104a02aee142719";""
"home improvement";"Toko Mebel";"UD.FRANS";"Jl. Nias Tengah, Dahadano Botombawo, Kec. Botomuzoi, Kabupaten Nias, Sumatera Utara 22811";"Dahadano Botombawo, Kec. Botomuzoi, Kabupaten Nias";"SUMATERA UTARA";"22811";"Indonesia";" 082370375787";"";"";"1.1959077";"97.5587159";"https://maps.google.com/?cid=0x0:0x44e57674427ea493";""
"home improvement";"Rumah Kayu";"Lettys gea";"97HR+W96, Tefao, Kec. Lahewa Tim., Kabupaten Nias Utara, Sumatera Utara";"Kabupaten Nias Utara, Sumatera Utara";"SUMATERA UTARA";"";"Indonesia";"";"";"";"1.3797981";"97.2908758";"https://maps.google.com/?cid=0x0:0x3c177d672891c9db";""
"home improvement";"Toko";"LAHEWA SERVICE ELEKTRONIK";"Kelurahan Kec Jl. Soekarno No.138, Ps. Lahewa, Kecamaten Lahewa, Kabupaten Nias Utara, Sumatera Utara 22853";"Ps. Lahewa, Kecamaten Lahewa, Kabupaten Nias Utara";"SUMATERA UTARA";"22853";"Indonesia";"";"";"";"1.3910068";"97.1737038";"https://maps.google.com/?cid=0x0:0xb1be465bdbbce106";""
"home improvement";"Perusahaan Konstruksi";"PT GKA";"Perumahan Bintang Metropol, Jl. Bintang Raya No.24 Blok A4, Perwira, Kec. Bekasi Utara, Kota Bks, Jawa Barat 17122";"Jl. Bintang Raya No.24 Blok A4, Perwira, Kec. Bekasi Utara, Kota Bks";"SUMATERA UTARA";"17122";"Indonesia";" 087864338937";"";"";"-6.2146196";"107.0059062";"https://maps.google.com/?cid=0x0:0x2ea3864a8a808e2b";""
"home improvement";"Jasa Konstruksi dan Bangunan";"PT. Guna Karya Konstruksi";"Alinda I No.19, RW.021, Kaliabang Tengah, Kec. Bekasi Utara, Kota Bks, Jawa Barat 17125";"RW.021, Kaliabang Tengah, Kec. Bekasi Utara, Kota Bks";"SUMATERA UTARA";"17125";"Indonesia";"";"";"";"-6.1975414";"107.0087801";"https://maps.google.com/?cid=0x0:0xbde23782e912702b";""
"home improvement";"home improvement";"Kec. Lahewa Tim.";"Kabupaten Nias Utara, Sumatera Utara";"Kabupaten Nias Utara, Sumatera Utara";"SUMATERA UTARA";"";"Indonesia";"";"";"";"1.3690959";"97.3010539";"https://maps.google.com/?cid=0x0:0x1c45965c923c9076";""
"home improvement";"Rumah Kayu";"Lettys gea";"97HR+W96, Tefao, Kec. Lahewa Tim., Kabupaten Nias Utara, Sumatera Utara";"Kabupaten Nias Utara, Sumatera Utara";"SUMATERA UTARA";"";"Indonesia";"";"";"";"1.3797981";"97.2908758";"https://maps.google.com/?cid=0x0:0x3c177d672891c9db";""
"home improvement";"Kantor Perusahaan";"PERABOT RISWAN LASE";"95VF+FQF, Ps. Lahewa, Kecamaten Lahewa, Kabupaten Nias Utara, Sumatera Utara";"Kabupaten Nias Utara, Sumatera Utara";"SUMATERA UTARA";"";"Indonesia";" 081362124582";"";"";"1.393641";"97.1742999";"https://maps.google.com/?cid=0x0:0xdaff8de20aad4cd3";""
"home improvement";"Toko Mebel";"Otoli Zega (A.theo)";"997H+CVM, Baho, Kec. Lotu, Kabupaten Nias Utara, Sumatera Utara 22816";"Baho, Kec. Lotu, Kabupaten Nias Utara";"SUMATERA UTARA";"22816";"Indonesia";" 085372928686";"";"";"1.364042";"97.378564";"https://maps.google.com/?cid=0x0:0x25ceac91816a06b5";""
"home improvement";"Toko Mebel";"Ike mebel/ Taylor (Rmh,B.A.Sinar Harefa)";"C97Q+GH2, Lombuzaua, Kec. Lotu, Kabupaten Nias Utara, Sumatera Utara 22852";"Lombuzaua, Kec. Lotu, Kabupaten Nias Utara";"SUMATERA UTARA";"22852";"Indonesia";"";"";"";"1.4135956";"97.3892703";"https://maps.google.com/?cid=0x0:0xfbf5700c7e4b804d";""
"home improvement";"Toko Mebel";"UD.HP PRABOT";"Unnamed Road, Kec. Afulu, Kabupaten Nias Utara, Sumatera Utara 22857";"Kec. Afulu, Kabupaten Nias Utara";"SUMATERA UTARA";"22857";"Indonesia";" 082223921664";"";"";"1.2565899";"97.2512719";"https://maps.google.com/?cid=0x0:0x104a02aee142719";""
"home improvement";"Toko Perabot untuk Taman";"UD RONNY PERABOT";"Jl baho, Hilidundra, Kec. Lotu, Kabupaten Nias Utara, Sumatera Utara 22852";"Hilidundra, Kec. Lotu, Kabupaten Nias Utara";"SUMATERA UTARA";"22852";"Indonesia";" 082297859681";"";"";"1.380584";"97.3623422";"https://maps.google.com/?cid=0x0:0xe40a84f854179312";""
"home improvement";"home improvement";"UD.HARAPAN BARU";"C923+RMJ, Jl. Sawö, Lolofaoso, Kec. Lotu, Kabupaten Nias Utara, Sumatera Utara 22851";"Jl. Sawö, Lolofaoso, Kec. Lotu, Kabupaten Nias Utara";"SUMATERA UTARA";"22851";"Indonesia";"";"";"";"1.4020941";"97.3541454";"https://maps.google.com/?cid=0x0:0x88161c71ff678d9c";""
"home improvement";"Toko Perlengkapan Rumah";"UD. AIR EFENDI";"Jl. Arah Gunungsitoli-Lahewa, Lasara Sawo, Kec. Sawo, Kabupaten Nias Utara, Sumatera Utara 22852";"Lasara Sawo, Kec. Sawo, Kabupaten Nias Utara";"SUMATERA UTARA";"22852";"Indonesia";" 082246059458";"";"";"1.5024679";"97.3807944";"https://maps.google.com/?cid=0x0:0xa4355e0aa7ff8bc7";""
"home improvement";"home improvement";"Miswar";"C84F+CMW, JL. Al Muslim, Peusangan, Gp Paya Cut, Bireuen, 24261";"JL. Al Muslim, Peusangan, Gp Paya Cut";"SUMATERA UTARA";"24261";"Indonesia";" 085261662159";"";"";"1.406109";"97.324212";"https://maps.google.com/?cid=0x0:0x4bc7e2977467851f";""
"home improvement";"home improvement";"Kec. Lotu";"Kabupaten Nias Utara, Sumatera Utara";"Kabupaten Nias Utara, Sumatera Utara";"SUMATERA UTARA";"";"Indonesia";"";"";"";"1.3891445";"97.3577578";"https://maps.google.com/?cid=0x0:0x33654c018df13e36";""
"home improvement";"Toko Mebel";"Ike mebel/ Taylor (Rmh,B.A.Sinar Harefa)";"C97Q+GH2, Lombuzaua, Kec. Lotu, Kabupaten Nias Utara, Sumatera Utara 22852";"Lombuzaua, Kec. Lotu, Kabupaten Nias Utara";"SUMATERA UTARA";"22852";"Indonesia";"";"";"";"1.4135956";"97.3892703";"https://maps.google.com/?cid=0x0:0xfbf5700c7e4b804d";""
"home improvement";"Toko Mebel";"Otoli Zega (A.theo)";"997H+CVM, Baho, Kec. Lotu, Kabupaten Nias Utara, Sumatera Utara 22816";"Baho, Kec. Lotu, Kabupaten Nias Utara";"SUMATERA UTARA";"22816";"Indonesia";" 085372928686";"";"";"1.364042";"97.378564";"https://maps.google.com/?cid=0x0:0x25ceac91816a06b5";""
"home improvement";"home improvement";"UD.HARAPAN BARU";"C923+RMJ, Jl. Sawö, Lolofaoso, Kec. Lotu, Kabupaten Nias Utara, Sumatera Utara 22851";"Jl. Sawö, Lolofaoso, Kec. Lotu, Kabupaten Nias Utara";"SUMATERA UTARA";"22851";"Indonesia";"";"";"";"1.4020941";"97.3541454";"https://maps.google.com/?cid=0x0:0x88161c71ff678d9c";""
"home improvement";"Toko Perabot untuk Taman";"UD. RYFMAN";"9FR4+FJW, Unnamed Road, Umbubalodano, Kec. Sitolu Ori, Kabupaten Nias Utara, Sumatera Utara 22852";"Unnamed Road, Umbubalodano, Kec. Sitolu Ori, Kabupaten Nias Utara";"SUMATERA UTARA";"22852";"Indonesia";" 085264051174";"";"";"1.391248";"97.456577";"https://maps.google.com/?cid=0x0:0xb24a3c192920cd46";""
"home improvement";"Toko Perlengkapan Rumah";"UD. AIR EFENDI";"Jl. Arah Gunungsitoli-Lahewa, Lasara Sawo, Kec. Sawo, Kabupaten Nias Utara, Sumatera Utara 22852";"Lasara Sawo, Kec. Sawo, Kabupaten Nias Utara";"SUMATERA UTARA";"22852";"Indonesia";" 082246059458";"";"";"1.5024679";"97.3807944";"https://maps.google.com/?cid=0x0:0xa4355e0aa7ff8bc7";""
"home improvement";"Rumah Kayu";"Lettys gea";"97HR+W96, Tefao, Kec. Lahewa Tim., Kabupaten Nias Utara, Sumatera Utara";"Kabupaten Nias Utara, Sumatera Utara";"SUMATERA UTARA";"";"Indonesia";"";"";"";"1.3797981";"97.2908758";"https://maps.google.com/?cid=0x0:0x3c177d672891c9db";""
"home improvement";"home improvement";"Miswar";"C84F+CMW, JL. Al Muslim, Peusangan, Gp Paya Cut, Bireuen, 24261";"JL. Al Muslim, Peusangan, Gp Paya Cut";"SUMATERA UTARA";"24261";"Indonesia";" 085261662159";"";"";"1.406109";"97.324212";"https://maps.google.com/?cid=0x0:0x4bc7e2977467851f";""
"home improvement";"home improvement";"Sumatera Utara 22816";"Kec. Namohalu Esiwa, Kabupaten Nias Utara, Sumatera Utara";"Kabupaten Nias Utara, Sumatera Utara";"SUMATERA UTARA";"";"Indonesia";"";"";"";"1.3453232";"97.3840729";"https://maps.google.com/?cid=0x0:0x13bcd8183011aa";""
"home improvement";"Toko Bahan Bangunan";"U D. S I A M O N";"9C9H+7FM Sisarahili, Esiwa, Kec. Namohalu Esiwa, Kabupaten Nias Utara, Sumatera Utara";"Kabupaten Nias Utara, Sumatera Utara";"SUMATERA UTARA";"";"Indonesia";" 081287458656";"";"";"1.3682203";"97.4286806";"https://maps.google.com/?cid=0x0:0xc6c824ee453ebb2a";""
"home improvement";"Toko Mebel";"Otoli Zega (A.theo)";"997H+CVM, Baho, Kec. Lotu, Kabupaten Nias Utara, Sumatera Utara 22816";"Baho, Kec. Lotu, Kabupaten Nias Utara";"SUMATERA UTARA";"22816";"Indonesia";" 085372928686";"";"";"1.364042";"97.378564";"https://maps.google.com/?cid=0x0:0x25ceac91816a06b5";""
"home improvement";"Toko Perlengkapan Rumah";"UD.VALEN";"6CGM+9GW, Loloana'a, Kec. Tugala Oyo, Kabupaten Nias Utara, Sumatera Utara";"Kabupaten Nias Utara, Sumatera Utara";"SUMATERA UTARA";"";"Indonesia";" 085207856665";"";"";"1.2259824";"97.4338187";"https://maps.google.com/?cid=0x0:0xfd47bc1bc15a462e";""
"home improvement";"Produsen";"Nei";"Hilizukhu, Kecamaten Lahewa, Kabupaten Nias Utara, Sumatera Utara 22853";"Kecamaten Lahewa, Kabupaten Nias Utara";"SUMATERA UTARA";"22853";"Indonesia";" 082391068465";"";"";"1.3320628";"97.2424646";"https://maps.google.com/?cid=0x0:0x8da0229f99fb202f";""
"home improvement";"Rumah Kaca";"Rumah Wiberman Jaya Harefa";"8C6X+G96, Sisobahili, Kec. Namohalu Esiwa, Kabupaten Nias Utara, Sumatera Utara 22817";"Sisobahili, Kec. Namohalu Esiwa, Kabupaten Nias Utara";"SUMATERA UTARA";"22817";"Indonesia";"";"";"";"1.3121527";"97.4490979";"https://maps.google.com/?cid=0x0:0xcfdca297824846c7";""
"home improvement";"Kantor Perusahaan";"PERABOT RISWAN LASE";"95VF+FQF, Ps. Lahewa, Kecamaten Lahewa, Kabupaten Nias Utara, Sumatera Utara";"Kabupaten Nias Utara, Sumatera Utara";"SUMATERA UTARA";"";"Indonesia";" 081362124582";"";"";"1.393641";"97.1742999";"https://maps.google.com/?cid=0x0:0xdaff8de20aad4cd3";""
"home improvement";"Toko Perabot untuk Taman";"UD RONNY PERABOT";"Jl baho, Hilidundra, Kec. Lotu, Kabupaten Nias Utara, Sumatera Utara 22852";"Hilidundra, Kec. Lotu, Kabupaten Nias Utara";"SUMATERA UTARA";"22852";"Indonesia";" 082297859681";"";"";"1.380584";"97.3623422";"https://maps.google.com/?cid=0x0:0xe40a84f854179312";""
"home improvement";"Grosir";"Yunieli Hia";"898V+JXR, Dusun II Arolawolo Desa, Humenesihene'asi, Kabupaten Nias Utara";"Kabupaten Nias Utara, Sumatera Utara";"SUMATERA UTARA";"";"Indonesia";"";"";"";"1.3166036";"97.394882";"https://maps.google.com/?cid=0x0:0xca034426ad8621ef";""
"home improvement";"Komplek perumahan";"Hime";"FC68+G7Q, Jl.Lölö'ana'a, Sanawuyu, Kec. Sawo, Kabupaten Nias Utara, Sumatera Utara 22852";"Jl.Lölö'ana'a, Sanawuyu, Kec. Sawo, Kabupaten Nias Utara";"SUMATERA UTARA";"22852";"Indonesia";"";"";"";"1.461332";"97.4157259";"https://maps.google.com/?cid=0x0:0xf49290b4617b3ff1";""
"home improvement";"Toko Mebel";"UD.HP PRABOT";"Unnamed Road, Kec. Afulu, Kabupaten Nias Utara, Sumatera Utara 22857";"Kec. Afulu, Kabupaten Nias Utara";"SUMATERA UTARA";"22857";"Indonesia";" 082223921664";"";"";"1.2565899";"97.2512719";"https://maps.google.com/?cid=0x0:0x104a02aee142719";""
"home improvement";"Toko Perabot untuk Taman";"UD. RYFMAN";"9FR4+FJW, Unnamed Road, Umbubalodano, Kec. Sitolu Ori, Kabupaten Nias Utara, Sumatera Utara 22852";"Unnamed Road, Umbubalodano, Kec. Sitolu Ori, Kabupaten Nias Utara";"SUMATERA UTARA";"22852";"Indonesia";" 085264051174";"";"";"1.391248";"97.456577";"https://maps.google.com/?cid=0x0:0xb24a3c192920cd46";""
"home improvement";"Toko Mebel";"Ike mebel/ Taylor (Rmh,B.A.Sinar Harefa)";"C97Q+GH2, Lombuzaua, Kec. Lotu, Kabupaten Nias Utara, Sumatera Utara 22852";"Lombuzaua, Kec. Lotu, Kabupaten Nias Utara";"SUMATERA UTARA";"22852";"Indonesia";"";"";"";"1.4135956";"97.3892703";"https://maps.google.com/?cid=0x0:0xfbf5700c7e4b804d";""
"home improvement";"Komplek perumahan";"Mei Ikhlas Hia";"Samping GEREJA ONKP TUHEMBERUA, Lauru Fadoro, Kec. Afulu, Sumatera Utara 22857";"Lauru Fadoro, Kec. Afulu";"SUMATERA UTARA";"22857";"Indonesia";" 081387858746";"";"";"1.2270103";"97.266332";"https://maps.google.com/?cid=0x0:0xa688b804fecd0673";""
"home improvement";"home improvement";"UD.HARAPAN BARU";"C923+RMJ, Jl. Sawö, Lolofaoso, Kec. Lotu, Kabupaten Nias Utara, Sumatera Utara 22851";"Jl. Sawö, Lolofaoso, Kec. Lotu, Kabupaten Nias Utara";"SUMATERA UTARA";"22851";"Indonesia";"";"";"";"1.4020941";"97.3541454";"https://maps.google.com/?cid=0x0:0x88161c71ff678d9c";""
"home improvement";"home improvement";"Kec. Namohalu Esiwa";"Kabupaten Nias Utara, Sumatera Utara";"Kabupaten Nias Utara, Sumatera Utara";"SUMATERA UTARA";"";"Indonesia";"";"";"";"1.3516333";"97.4047158";"https://maps.google.com/?cid=0x0:0x704a4afe59371577";""
"home improvement";"home improvement";"Sumatera Utara 22817";"Kabupaten Nias Utara, Sumatera Utara";"Kabupaten Nias Utara, Sumatera Utara";"SUMATERA UTARA";"";"Indonesia";"";"";"";"1.2834877";"97.2814718";"https://maps.google.com/?cid=0x0:0x99ac41ee85893cf2";""
"home improvement";"Toko Bahan Bangunan";"U D. S I A M O N";"9C9H+7FM Sisarahili, Esiwa, Kec. Namohalu Esiwa, Kabupaten Nias Utara, Sumatera Utara";"Kabupaten Nias Utara, Sumatera Utara";"SUMATERA UTARA";"";"Indonesia";" 081287458656";"";"";"1.3682203";"97.4286806";"https://maps.google.com/?cid=0x0:0xc6c824ee453ebb2a";""
"home improvement";"Komplek perumahan";"Namohalu Esiwa";"8FM4+7R4, Sisarahili, Kec. Namohalu Esiwa, Kabupaten Nias Utara, Sumatera Utara";"Kabupaten Nias Utara, Sumatera Utara";"SUMATERA UTARA";"";"Indonesia";"";"";"";"1.3331466";"97.4570675";"https://maps.google.com/?cid=0x0:0x3aa7be09db1679c8";""
"home improvement";"Produsen";"Nei";"Hilizukhu, Kecamaten Lahewa, Kabupaten Nias Utara, Sumatera Utara 22853";"Kecamaten Lahewa, Kabupaten Nias Utara";"SUMATERA UTARA";"22853";"Indonesia";" 082391068465";"";"";"1.3320628";"97.2424646";"https://maps.google.com/?cid=0x0:0x8da0229f99fb202f";""
"home improvement";"Komplek perumahan";"Hime";"FC68+G7Q, Jl.Lölö'ana'a, Sanawuyu, Kec. Sawo, Kabupaten Nias Utara, Sumatera Utara 22852";"Jl.Lölö'ana'a, Sanawuyu, Kec. Sawo, Kabupaten Nias Utara";"SUMATERA UTARA";"22852";"Indonesia";"";"";"";"1.461332";"97.4157259";"https://maps.google.com/?cid=0x0:0xf49290b4617b3ff1";""
"home improvement";"Komplek perumahan";"Mei Ikhlas Hia";"Samping GEREJA ONKP TUHEMBERUA, Lauru Fadoro, Kec. Afulu, Sumatera Utara 22857";"Lauru Fadoro, Kec. Afulu";"SUMATERA UTARA";"22857";"Indonesia";" 081387858746";"";"";"1.2270103";"97.266332";"https://maps.google.com/?cid=0x0:0xa688b804fecd0673";""
"home improvement";"home improvement";"Kec. Namohalu Esiwa";"Kabupaten Nias Utara, Sumatera Utara";"Kabupaten Nias Utara, Sumatera Utara";"SUMATERA UTARA";"";"Indonesia";"";"";"";"1.3516333";"97.4047158";"https://maps.google.com/?cid=0x0:0x704a4afe59371577";""
"home improvement";"home improvement";"Kec. Sawo";"Kabupaten Nias Utara, Sumatera Utara";"Kabupaten Nias Utara, Sumatera Utara";"SUMATERA UTARA";"";"Indonesia";"";"";"";"1.497956";"97.3989135";"https://maps.google.com/?cid=0x0:0x766aabcbebe65b39";""
"home improvement";"Komplek perumahan";"Hime";"FC68+G7Q, Jl.Lölö'ana'a, Sanawuyu, Kec. Sawo, Kabupaten Nias Utara, Sumatera Utara 22852";"Jl.Lölö'ana'a, Sanawuyu, Kec. Sawo, Kabupaten Nias Utara";"SUMATERA UTARA";"22852";"Indonesia";"";"";"";"1.461332";"97.4157259";"https://maps.google.com/?cid=0x0:0xf49290b4617b3ff1";""
"home improvement";"Toko Perlengkapan Rumah";"UD. AIR EFENDI";"Jl. Arah Gunungsitoli-Lahewa, Lasara Sawo, Kec. Sawo, Kabupaten Nias Utara, Sumatera Utara 22852";"Lasara Sawo, Kec. Sawo, Kabupaten Nias Utara";"SUMATERA UTARA";"22852";"Indonesia";" 082246059458";"";"";"1.5024679";"97.3807944";"https://maps.google.com/?cid=0x0:0xa4355e0aa7ff8bc7";""
"home improvement";"home improvement";"Kec. Sitolu Ori";"Kabupaten Nias Utara, Sumatera Utara";"Kabupaten Nias Utara, Sumatera Utara";"SUMATERA UTARA";"";"Indonesia";"";"";"";"1.3987456";"97.4439582";"https://maps.google.com/?cid=0x0:0xe9e1d2f552ca917e";""
"home improvement";"Toko Perabot untuk Taman";"UD. RYFMAN";"9FR4+FJW, Unnamed Road, Umbubalodano, Kec. Sitolu Ori, Kabupaten Nias Utara, Sumatera Utara 22852";"Unnamed Road, Umbubalodano, Kec. Sitolu Ori, Kabupaten Nias Utara";"SUMATERA UTARA";"22852";"Indonesia";" 085264051174";"";"";"1.391248";"97.456577";"https://maps.google.com/?cid=0x0:0xb24a3c192920cd46";""
"home improvement";"Toko Perabot untuk Taman";"UD RONNY PERABOT";"Jl baho, Hilidundra, Kec. Lotu, Kabupaten Nias Utara, Sumatera Utara 22852";"Hilidundra, Kec. Lotu, Kabupaten Nias Utara";"SUMATERA UTARA";"22852";"Indonesia";" 082297859681";"";"";"1.380584";"97.3623422";"https://maps.google.com/?cid=0x0:0xe40a84f854179312";""
"home improvement";"Toko Mebel";"Ike mebel/ Taylor (Rmh,B.A.Sinar Harefa)";"C97Q+GH2, Lombuzaua, Kec. Lotu, Kabupaten Nias Utara, Sumatera Utara 22852";"Lombuzaua, Kec. Lotu, Kabupaten Nias Utara";"SUMATERA UTARA";"22852";"Indonesia";"";"";"";"1.4135956";"97.3892703";"https://maps.google.com/?cid=0x0:0xfbf5700c7e4b804d";""
"home improvement";"home improvement";"Kec. Tugala Oyo";"Kabupaten Nias Utara, Sumatera Utara";"Kabupaten Nias Utara, Sumatera Utara";"SUMATERA UTARA";"";"Indonesia";"";"";"";"1.1465578";"97.4559257";"https://maps.google.com/?cid=0x0:0x1602712094e01383";""
"home improvement";"Komplek perumahan";"Dahana tugala oyo";"6C4W+M7J, Harefanaese, Kec. Alasa Talumuzoi, Kabupaten Nias Utara, Sumatera Utara 22861";"Harefanaese, Kec. Alasa Talumuzoi, Kabupaten Nias Utara";"SUMATERA UTARA";"22861";"Indonesia";" 081270663518";"";"";"1.2067141";"97.4456386";"https://maps.google.com/?cid=0x0:0xf2cd38b0b4704fa1";""
"home improvement";"Rumah Kayu";"Tyan house";"Hiligara , desa siwawo, Siwawo, Kec. Tugala Oyo, Kabupaten Nias Utara, Sumatera Utara 22861";"desa siwawo, Siwawo, Kec. Tugala Oyo, Kabupaten Nias Utara";"SUMATERA UTARA";"22861";"Indonesia";" 081802121942";"";"";"1.1107527";"97.4319994";"https://maps.google.com/?cid=0x0:0x8c7b3b7ce11b8159";""
"home improvement";"home improvement";"kantor cv. aswan";"4F79+7PP, Harefa, Kec. Tugala Oyo, Kabupaten Nias Utara, Sumatera Utara 22861";"Harefa, Kec. Tugala Oyo, Kabupaten Nias Utara";"SUMATERA UTARA";"22861";"Indonesia";"";"";"";"1.1131382";"97.4694147";"https://maps.google.com/?cid=0x0:0xc9505e14bfe7b7c0";""
"home improvement";"home improvement";"OYO 90941 Egelsa 2020 Syariah Near Bank Mega Syariah KCP Rawamangun";"Jl. Kayu Jati I Gg. 1 No.3, RT.8/RW.4, Rawamangun, Kec. Pulo Gadung, Kota Jakarta Timur, Daerah Khusus Ibukota Jakarta 13220";"RT.8/RW.4, Rawamangun, Kec. Pulo Gadung, Kota Jakarta Timur";"SUMATERA UTARA";"13220";"Indonesia";" 02129707601";"";"";"-6.1924274";"106.884727";"https://maps.google.com/?cid=0x0:0x8b5011cf37fa3096";""
"home improvement";"Museum Sejarah Lokal";"Monumen Nasional";"Merdeka Square, Jalan Lapangan Monas, Gambir, Kecamatan Gambir, Kota Jakarta Pusat, Daerah Khusus Ibukota Jakarta 10110";"Jalan Lapangan Monas, Gambir, Kecamatan Gambir, Kota Jakarta Pusat";"SUMATERA UTARA";"10110";"Indonesia";" 0213853040";"";"";"-6.1753924";"106.8271528";"https://maps.google.com/?cid=0x0:0x3d2ad6e1e0e9bcc8";""
"home improvement";"Layanan Transportasi";"Kramat";"dari Jalan Pramuka Jaya Sari, Jl. Penegak Jl. Gugus Depan Gg. II, Paseban, Kec. Senen, Daerah Khusus Ibukota Jakarta 10440";"Jl. Penegak Jl. Gugus Depan Gg. II, Paseban, Kec. Senen";"SUMATERA UTARA";"10440";"Indonesia";"";"";"";"-6.19371";"106.85659";"https://maps.google.com/?cid=0x0:0x1b1a874b25622c3b";""
"home improvement";"home improvement";"OYO 245 Juana 21";"6, Jl. Juana No.21, RT.7/RW.6, Dukuh Atas, Menteng, Jakarta, Kota Jakarta Pusat, Daerah Khusus Ibukota Jakarta 10310";"Jl. Juana No.21, RT.7/RW.6, Dukuh Atas, Menteng, Jakarta, Kota Jakarta Pusat";"SUMATERA UTARA";"10310";"Indonesia";" 02129707601";"";"";"-6.2015974";"106.8246861";"https://maps.google.com/?cid=0x0:0xdc52615b2c13595d";""
"home improvement";"Stasiun Kereta";"Stasiun Sudirman";"10, Jl. Kendal No.24, RW.6, Menteng, 10310";"Jl. Kendal No.24, RW.6";"SUMATERA UTARA";"10310";"Indonesia";"";"";"";"-6.2024499";"106.8237671";"https://maps.google.com/?cid=0x0:0x13f90424139e1edf";""
"home improvement";"home improvement";"OYO 3733 Guntur 40 Residence";"Jl. Guntur No.40, RT.8/RW.1, Guntur, Kecamatan Setiabudi, Kota Jakarta Selatan, Daerah Khusus Ibukota Jakarta 12980";"RT.8/RW.1, Guntur, Kecamatan Setiabudi, Kota Jakarta Selatan";"SUMATERA UTARA";"12980";"Indonesia";" 02129707601";"";"";"-6.2085273";"106.8367715";"https://maps.google.com/?cid=0x0:0x6726a3ca2eadb3dc";""
"home improvement";"Suburban train line";"Stasiun Cikini";"No.5, Jl. Pegangsaan Timur No.RT.4, Pegangsaan, Kec. Menteng, Daerah Khusus Ibukota Jakarta 10310";"Jl. Pegangsaan Timur No.RT.4, Pegangsaan, Kec. Menteng";"SUMATERA UTARA";"10310";"Indonesia";"";"";"";"-6.1984393";"106.8413109";"https://maps.google.com/?cid=0x0:0x950c3b02c92fab81";""
"home improvement";"home improvement";"OYO 94362 Hotel Kebayoran";"Airy Eco, 62, Kebayoran Baru, BlokSSenayan, Jakarta 12170";"62, Kebayoran Baru, BlokSSenayan";"SUMATERA UTARA";"12170";"Indonesia";" 0817788016";"";"";"-6.237734";"106.816753";"https://maps.google.com/?cid=0x0:0x7fd0ebd60531357f";""
"home improvement";"Perhentian bus";"Stadiun Karet";"Kb. Melati, Kecamatan Tanah Abang, Kota Jakarta Pusat, Daerah Khusus Ibukota Jakarta";"Kota Jakarta Pusat, Daerah Khusus Ibukota Jakarta";"SUMATERA UTARA";"";"Indonesia";"";"";"";"-6.2008419";"106.8159048";"https://maps.google.com/?cid=0x0:0x6b67090796653b2b";""
"home improvement";"home improvement";"Super OYO 90692 Point Hostel";"16, Jl. Kota Baru No.16, RT.11/RW.6, Cideng, Gambir, Jakarta, 10150";"Jl. Kota Baru No.16, RT.11/RW.6, Cideng, Gambir";"SUMATERA UTARA";"10150";"Indonesia";" 02129707601";"";"";"-6.1702987";"106.8058902";"https://maps.google.com/?cid=0x0:0x43871a9e5cbcbf41";""
"home improvement";"Simpangan transportasi";"Duri";"Jl. Duri Utara, Duri Utara, Kec. Tambora, Kota Jakarta Barat, Daerah Khusus Ibukota Jakarta 11270";"Duri Utara, Kec. Tambora, Kota Jakarta Barat";"SUMATERA UTARA";"11270";"Indonesia";"";"";"";"-6.1552465";"106.8014521";"https://maps.google.com/?cid=0x0:0x2b7736c4b159d50b";""
"home improvement";"home improvement";"OYO 91654 Bintang Residence";"Gg. Anggrek XII No.12, RW.2, Kuningan, Karet Kuningan, Jakarta, Kota Jakarta Selatan, Daerah Khusus Ibukota Jakarta 12940";"RW.2, Kuningan, Karet Kuningan, Jakarta, Kota Jakarta Selatan";"SUMATERA UTARA";"12940";"Indonesia";" 02129707601";"";"";"-6.2158756";"106.8271931";"https://maps.google.com/?cid=0x0:0x917967218cd2cb79";""
"home improvement";"home improvement";"OYO 1990 Kost Kuningan Executive Boading House Setiabudi";"79, Jl. Genteng Ijo Kecamatan No.79, RT.6/RW.7, Kuningan, Karet Kuningan, Kecamatan Setiabudi, Daerah Khusus Ibukota Jakarta 12940";"Jl. Genteng Ijo Kecamatan No.79, RT.6/RW.7, Kuningan, Karet Kuningan, Kecamatan Setiabudi";"SUMATERA UTARA";"12940";"Indonesia";" 02129707601";"";"";"-6.2203417";"106.8269305";"https://maps.google.com/?cid=0x0:0xf7fcbcb33db42a78";""
"home improvement";"home improvement";"N/A";"";"";"SUMATERA UTARA";"";"Indonesia";"";"";"";"";"";"https://maps.google.com/?cid=0x0:0xf7fcbcb33db42a78%7C/g/11h8j43t1x%7Cen-ID";""
"home improvement";"home improvement";"Coolz Homestay Tebet";"Hotel near Taman Kirana Surya 350 m, TIS Square Jakarta, 22 Jalan Tebet Barat Dalam X No 22, RT 12/RW 05, Tebet Barat, Tebet Jakarta Selatan, Jakarta, 12810";"TIS Square Jakarta, 22 Jalan Tebet Barat Dalam X No 22, RT 12/RW 05, Tebet Barat, Tebet Jakarta Selatan";"SUMATERA UTARA";"12810";"Indonesia";" 02129707601";"";"";"-6.2402848";"106.8475797";"https://maps.google.com/?cid=0x0:0x4f457ead5fc827f1";""
"home improvement";"Perhentian bus";"Stasiun Cawang";"Jl. Tebet Timur Raya No.55, Tebet Tim., Kec. Tebet, Kota Jakarta Selatan, Daerah Khusus Ibukota Jakarta 12820";"Tebet Tim., Kec. Tebet, Kota Jakarta Selatan";"SUMATERA UTARA";"12820";"Indonesia";"";"";"";"-6.2424292";"106.8587271";"https://maps.google.com/?cid=0x0:0x8ec60d936a45b39d";""
"home improvement";"home improvement";"OYO 90469 BENHIL KARET TENGSIN";"RS AL Mintohardjo, 94, RT.17/RW.5, Karet Tengsin, Tanah Abang, Jakarta, 10220";"94, RT.17/RW.5, Karet Tengsin, Tanah Abang";"SUMATERA UTARA";"10220";"Indonesia";" 02129707601";"";"";"-6.2087122";"106.8126948";"https://maps.google.com/?cid=0x0:0x95673a0217b680d0";""
"home improvement";"home improvement";"N/A";"";"";"SUMATERA UTARA";"";"Indonesia";"";"";"";"";"";"https://maps.google.com/?cid=0x0:0x4e7d74e1e51e177a%7C/g/11fcv7jn74%7Cen-ID";""
"home improvement";"home improvement";"OYO 121 Rumah Ayub Syariah";"10, Hotel near Taman Bangdes 550 m, Gg. C No.21, RT.10/RW.1, West Pejaten, Jakarta, 12510";"Hotel near Taman Bangdes 550 m, Gg. C No.21, RT.10/RW.1, West Pejaten";"SUMATERA UTARA";"12510";"Indonesia";" 02129707601";"";"";"-6.2671245";"106.8414867";"https://maps.google.com/?cid=0x0:0x4e7d74e1e51e177a";""
"home improvement";"Museum";"Taman Mini Indonesia Indah";"Jl. Taman Mini Indonesia Indah, Ceger, Kec. Cipayung, Kota Jakarta Timur, Daerah Khusus Ibukota Jakarta 13820";"Ceger, Kec. Cipayung, Kota Jakarta Timur";"SUMATERA UTARA";"13820";"Indonesia";" 08041789789";"";"";"-6.3020386";"106.8898924";"https://maps.google.com/?cid=0x0:0x73127b9ecf2da0c";""
"home improvement";"Stasiun Kereta";"Stasiun Pasar Minggu Baru";"Jalan Batu Merah IV, Pejaten Timur, Pasar Minggu, Kota Jakarta Selatan, 12510";"Pejaten Timur, Pasar Minggu";"SUMATERA UTARA";"12510";"Indonesia";"";"";"";"-6.2630599";"106.8515975";"https://maps.google.com/?cid=0x0:0xa52ed8c2747beee";""
"home improvement";"home improvement";"OYO 90635 Tango Juliet Residence";"18, Jl. Pejompongan Dalam No.18, Bend. Hilir, Kecamatan Tanah Abang, Jakarta, Daerah Khusus Ibukota Jakarta 10210";"Jl. Pejompongan Dalam No.18, Bend. Hilir, Kecamatan Tanah Abang, Jakarta";"SUMATERA UTARA";"10210";"Indonesia";" 02129707601";"";"";"-6.2052408";"106.8040285";"https://maps.google.com/?cid=0x0:0x25b6c7815ead1f6";""
"home improvement";"home improvement";"OYO 2768 OQ Residence";"Jl. Purwodadi No.21, RT.9/RW.6, Dukuh Atas, Menteng, Kec. Menteng, Kota Jakarta Pusat, Daerah Khusus Ibukota Jakarta 10310";"RT.9/RW.6, Dukuh Atas, Menteng, Kec. Menteng, Kota Jakarta Pusat";"SUMATERA UTARA";"10310";"Indonesia";" 02129707601";"";"";"-6.2025352";"106.8258675";"https://maps.google.com/?cid=0x0:0x8db6f0bddcc93ee9";""
"home improvement";"home improvement";"OYO 90322 Joy Homestay Near Bella Terra Lifestyle Center";"Jl. Pulo Nangka Timur No.23, RT.8/RW.8, Pulo Gadung, Kec. Pulo Gadung, Kota Jakarta Timur, Daerah Khusus Ibukota Jakarta 13260";"RT.8/RW.8, Pulo Gadung, Kec. Pulo Gadung, Kota Jakarta Timur";"SUMATERA UTARA";"13260";"Indonesia";" 02129707601";"";"";"-6.1792603";"106.8951189";"https://maps.google.com/?cid=0x0:0x51e3ad8b0c13317";""
"home improvement";"Simpangan transportasi";"Klender";"Jl. Bekasi Timur Raya No.7, RW.1, Jatinegara, Kec. Cakung, Kota Jakarta Timur, Daerah Khusus Ibukota Jakarta 13250";"RW.1, Jatinegara, Kec. Cakung, Kota Jakarta Timur";"SUMATERA UTARA";"13250";"Indonesia";"";"";"";"-6.21333";"106.89942";"https://maps.google.com/?cid=0x0:0x256f95253d9a3a62";""
"home improvement";"home improvement";"Kec. Tuhemberua";"Kabupaten Nias Utara, Sumatera Utara";"Kabupaten Nias Utara, Sumatera Utara";"SUMATERA UTARA";"";"Indonesia";"";"";"";"1.4702731";"97.4498504";"https://maps.google.com/?cid=0x0:0x9c5633cc92cfd2d7";""
"home improvement";"home improvement";"Sumatera Utara 22852";"Kabupaten Nias Utara, Sumatera Utara";"Kabupaten Nias Utara, Sumatera Utara";"SUMATERA UTARA";"";"Indonesia";"";"";"";"1.4120939";"97.4597725";"https://maps.google.com/?cid=0x0:0x230853ed5a2114a9";""
"home improvement";"Kantor Perusahaan";"UD. DIVAN NIAS PERABOT";"jl. Tuhemberua km 22 desa hilimbosi kec, Hilimbosi, Kec. Sitolu Ori, Kabupaten Nias Utara, Sumatera Utara 22852";"Hilimbosi, Kec. Sitolu Ori, Kabupaten Nias Utara";"SUMATERA UTARA";"22852";"Indonesia";" 081397197891";"";"";"1.4076453";"97.4918192";"https://maps.google.com/?cid=0x0:0xaa7b9028bfbc421d";""
"home improvement";"Komplek perumahan";"Hime";"FC68+G7Q, Jl.Lölö'ana'a, Sanawuyu, Kec. Sawo, Kabupaten Nias Utara, Sumatera Utara 22852";"Jl.Lölö'ana'a, Sanawuyu, Kec. Sawo, Kabupaten Nias Utara";"SUMATERA UTARA";"22852";"Indonesia";"";"";"";"1.461332";"97.4157259";"https://maps.google.com/?cid=0x0:0xf49290b4617b3ff1";""
