Category;Real Category;Business Name;Address;City;State;Postal Code;Country;Phone;Email;Website;Latitude;Longitude;Map Link;Details Link
mall;mall;Afulu;Lauru I Afulu, Kec. Afulu, Kabupaten Nias Utara, Sumatera Utara;Kabupaten Nias Utara, Sumatera Utara;SUMATERA UTARA;;Indonesia;;;;1.275.923;97.228.146;https://maps.google.com/?cid=0x0:0x19123ccab5436978;
mall;Pusat Perbelanjaan;Medan Mall;Jl. M. T. Haryono No.8, Pusat Ps., Kec. Medan Kota, Kota Medan, Sumatera Utara 20212;Pusat Ps., Kec. Medan Kota, Kota Medan;SUMATERA UTARA;20212;Indonesia;614531800;;;358.767;986.867.939;https://maps.google.com/?cid=0x0:0x19be424c62eb0f57;
mall;mall;LESTARI TAFONAO;VRRC+8PF, Hilimbowo, Kec. Gomo, Kabupaten Nias Selatan, Sumatera Utara 22873;Hilimbowo, Kec. Gomo, Kabupaten Nias Selatan;SUMATERA UTARA;22873;Indonesia;8126411456;;;0.8907764;978.218.448;https://maps.google.com/?cid=0x0:0x7f9629167487315c;
mall;Toko Swalayan;Ararasa BSD;Jl. BSD Raya Utama, Lengkong Kulon, Kec. Pagedangan, Kabupaten Tangerang, Banten 15331;Lengkong Kulon, Kec. Pagedangan, Kabupaten Tangerang;SUMATERA UTARA;15331;Indonesia;;;;-62.817.841;1.066.370.657;https://maps.google.com/?cid=0x0:0x2372a05b061d99f8;
mall;Toko;UD. HAGA;Afulu, Kec. Afulu, Kabupaten Nias Utara, Sumatera Utara 22857;Kec. Afulu, Kabupaten Nias Utara;SUMATERA UTARA;22857;Indonesia;85352383839;;;12.546.733;972.524.317;https://maps.google.com/?cid=0x0:0xef38820322abc830;
mall;Pusat Perbelanjaan;UD. RENI;Jl. Dusun II No.Desa, Lauru Fadoro, Kec. Afulu, Kabupaten Nias Utara, Sumatera Utara 22851;Lauru Fadoro, Kec. Afulu, Kabupaten Nias Utara;SUMATERA UTARA;22851;Indonesia;81263401322;;;12.438.017;9.726.382;https://maps.google.com/?cid=0x0:0xbfce79b6f4ece710;
mall;mall;Sumatera Utara 22857;Kec. Afulu, Kabupaten Nias Utara, Sumatera Utara;Kabupaten Nias Utara, Sumatera Utara;SUMATERA UTARA;;Indonesia;;;;12.548.965;972.598.913;https://maps.google.com/?cid=0x0:0x7b808d1bfbbe7383;
mall;Toko;UD. HAGA;Afulu, Kec. Afulu, Kabupaten Nias Utara, Sumatera Utara 22857;Kec. Afulu, Kabupaten Nias Utara;SUMATERA UTARA;22857;Indonesia;85352383839;;;12.546.733;972.524.317;https://maps.google.com/?cid=0x0:0xef38820322abc830;
mall;Pusat Perbelanjaan;UD. RENI;Jl. Dusun II No.Desa, Lauru Fadoro, Kec. Afulu, Kabupaten Nias Utara, Sumatera Utara 22851;Lauru Fadoro, Kec. Afulu, Kabupaten Nias Utara;SUMATERA UTARA;22851;Indonesia;81263401322;;;12.438.017;9.726.382;https://maps.google.com/?cid=0x0:0xbfce79b6f4ece710;
mall;Agen Gas Elpiji;UD. RAIH;Jl. Lauru Fadoro, Lauru Fadoro, Kec. Afulu, Kabupaten Nias Utara, Sumatera Utara 22857;Lauru Fadoro, Kec. Afulu, Kabupaten Nias Utara;SUMATERA UTARA;22857;Indonesia;81263401322;;;12.438.659;972.638.894;https://maps.google.com/?cid=0x0:0x3b93fde89ea14345;
mall;mall;Kec. Afulu;Kabupaten Nias Utara, Sumatera Utara;Kabupaten Nias Utara, Sumatera Utara;SUMATERA UTARA;;Indonesia;;;;12.638.546;972.450.477;https://maps.google.com/?cid=0x0:0x37ed228075273cba;
mall;mall;Sumatera Utara 22861;Kabupaten Nias Utara, Sumatera Utara;Kabupaten Nias Utara, Sumatera Utara;SUMATERA UTARA;;Indonesia;;;;11.639.401;97.394.882;https://maps.google.com/?cid=0x0:0x146e7c32a97f723;
mall;Toko;Pasar Alasa;6CH6+V3J, Jl. Ombolata, Ombolata, Kec. Tugala Oyo, Kabupaten Nias Utara, Sumatera Utara 22861;Jl. Ombolata, Ombolata, Kec. Tugala Oyo, Kabupaten Nias Utara;SUMATERA UTARA;22861;Indonesia;;;;12.297.058;974.101.445;https://maps.google.com/?cid=0x0:0x51864fbe0192dd22;
mall;Pusat Perbelanjaan;UD. CHANSIA;Ombolata, Kec. Alasa, Kabupaten Nias Utara, Sumatera Utara 22861;Kec. Alasa, Kabupaten Nias Utara;SUMATERA UTARA;22861;Indonesia;85311721779;;;12.281.947;974.087.658;https://maps.google.com/?cid=0x0:0x26e8eef6fcac43a1;
mall;Toko;UD.Festha;6CH5+6F, Ombolata, Kec. Alasa, Kabupaten Nias Utara, Sumatera Utara 22861;Ombolata, Kec. Alasa, Kabupaten Nias Utara;SUMATERA UTARA;22861;Indonesia;82273003251;;;12.280.901;974.086.918;https://maps.google.com/?cid=0x0:0x346d39bcdb23bb58;
mall;Pusat Perbelanjaan;UD. AERYL HULU;5F6C+GMC, Desa, Ononazara, Kec. Tugala Oyo, Kabupaten Nias Utara, Sumatera Utara 22861;Desa, Ononazara, Kec. Tugala Oyo, Kabupaten Nias Utara;SUMATERA UTARA;22861;Indonesia;85296698019;;;11.613.212;97.471.648;https://maps.google.com/?cid=0x0:0xb271a7f8aa3bf168;
mall;Kantor Pemerintah;Kantor Kecamatan Alasa;6CH6+J28, Jl. Ombolata, Ombolata, Kec. Tugala Oyo, Kabupaten Nias Utara, Sumatera Utara 22861;Jl. Ombolata, Ombolata, Kec. Tugala Oyo, Kabupaten Nias Utara;SUMATERA UTARA;22861;Indonesia;;;;12.290.434;974.100.658;https://maps.google.com/?cid=0x0:0xa72bf10300b4166;
mall;Pusat Perbelanjaan;Pasar Loloanaa;Loloana'a, Desa, Halifadolo, Kec. Moro'o, Kabupaten Nias Barat, Sumatera Utara 22862;Desa, Halifadolo, Kec. Moro'o, Kabupaten Nias Barat;SUMATERA UTARA;22862;Indonesia;;;;10.603.899;974.340.667;https://maps.google.com/?cid=0x0:0x9d68e27112add1;
mall;Pusat Perbelanjaan;UD.RIEL;4FR3+X6F, Teolo, Kec. Tugala Oyo, Kabupaten Nias Utara, Sumatera Utara 22861;Teolo, Kec. Tugala Oyo, Kabupaten Nias Utara;SUMATERA UTARA;22861;Indonesia;;;;11.424.479;97.453.053;https://maps.google.com/?cid=0x0:0xe9be4df944ac93ae;
mall;Pusat Perbelanjaan;UD. Setia;3F3C+24P, Tetehosi, Kec. Mandrehe, Kabupaten Nias Barat, Sumatera Utara;Kabupaten Nias Barat, Sumatera Utara;SUMATERA UTARA;;Indonesia;82299869902;;;10.525.959;974.703.266;https://maps.google.com/?cid=0x0:0xa7869bcbd34f652f;
mall;Pusat Perbelanjaan;UD.4 putri;Harefa, Kec. Tugala Oyo, Kabupaten Nias Utara, Sumatera Utara 22862;Kec. Tugala Oyo, Kabupaten Nias Utara;SUMATERA UTARA;22862;Indonesia;81260969686;;;11.287.002;974.669.928;https://maps.google.com/?cid=0x0:0xd7b3570f261c134f;
mall;Pusat Perbelanjaan;UD. MELONA;39CR+H79, II Dusun III, Iraono Gambo, Mandrehe, West Nias Regency, North Sumatra 22862;II Dusun III, Iraono Gambo, Mandrehe, West Nias Regency;SUMATERA UTARA;22862;Indonesia;;;;10.714.041;973.907.265;https://maps.google.com/?cid=0x0:0x54ab6b2016cf58b3;
mall;Pusat Perbelanjaan;A/i Beni Zalukhu;79V4+4RF, Laowowaga, Kec. Lahewa Tim., Kabupaten Nias Utara, Sumatera Utara;Kabupaten Nias Utara, Sumatera Utara;SUMATERA UTARA;;Indonesia;;;;12.928.235;973.570.576;https://maps.google.com/?cid=0x0:0x41e4d4f5eb2ab41d;
mall;Toko;UD .Ivan;Alamat Hilifadolo, Kecamatan Moro'o Kabupaten Nias Barat, Desa Lasarabahili Dusun III No.01, Hilisoromi, Kec. Moro'o, Kabupaten Nias Barat, Sumatera Utara 22862;Kecamatan Moro'o Kabupaten Nias Barat, Desa Lasarabahili Dusun III No.01, Hilisoromi, Kec. Moro'o, Kabupaten Nias Barat;SUMATERA UTARA;22862;Indonesia;81377462223;;;107.599;974.353.942;https://maps.google.com/?cid=0x0:0x5984df575bde4cc2;
mall;Pusat Perbelanjaan;UD.HAFIZ MAULANA;58F5+P9, Faekhunaa, Kec. Afulu, Kabupaten Nias Utara, Sumatera Utara 22851;Faekhunaa, Kec. Afulu, Kabupaten Nias Utara;SUMATERA UTARA;22851;Indonesia;85359598397;;;11.743.186;973.084.399;https://maps.google.com/?cid=0x0:0x3d2e5672deb473a6;
mall;Komplek perumahan;Lasara;6CR3+8GQ, Ombolata, Kec. Alasa, Kabupaten Nias Utara, Sumatera Utara;Kabupaten Nias Utara, Sumatera Utara;SUMATERA UTARA;;Indonesia;;;;12.408.364;974.038.484;https://maps.google.com/?cid=0x0:0xb9214160ec6acd4a;
mall;Toko umum;UD.NENI Desa Laowowaga;kab, dusun IV, Laowowaga, Kec. Lahewa Tim., Kabupaten Nias Utara, Sumatera Utara 22851;dusun IV, Laowowaga, Kec. Lahewa Tim., Kabupaten Nias Utara;SUMATERA UTARA;22851;Indonesia;82162253066;;;12.894.863;973.605.464;https://maps.google.com/?cid=0x0:0x28406e5800293cb8;
mall;Pusat Perbelanjaan;Warung RINDA Laowowaga;79V7+WH4, Unnamed Road, Laowowaga, Lahewa Timur, North Nias Regency, North Sumatra 22851;Unnamed Road, Laowowaga, Lahewa Timur, North Nias Regency;SUMATERA UTARA;22851;Indonesia;81269103634;;;12.947.626;973.639.399;https://maps.google.com/?cid=0x0:0x993ee309ed6f4c67;
mall;Pasar;Loloana'a, Moro'ö Nias Barat;Halifadolo, Kec. Moro'o, Kabupaten Nias Barat, Sumatera Utara;Kabupaten Nias Barat, Sumatera Utara;SUMATERA UTARA;;Indonesia;;;;10.628.261;974.308.039;https://maps.google.com/?cid=0x0:0x466680e31bf1f6e3;
mall;Toko;Pasar Hiliweto Gidӧ;4P8G+X2M, Desa Hiliweto, Kecamatan Hiliweto Gidӧ, Wea-Wea, Kec. Sogae'adu, Kabupaten Nias, Sumatera Utara 22871;Desa Hiliweto, Kecamatan Hiliweto Gidӧ, Wea-Wea, Kec. Sogae'adu, Kabupaten Nias;SUMATERA UTARA;22871;Indonesia;;;;11.174.649;977.250.378;https://maps.google.com/?cid=0x0:0x4836436a61425dfc;
mall;Pusat Perbelanjaan;UD. Iman;2FXQ+WX2, Fadoro, Kec. Mandrehe, Kabupaten Nias Barat, Sumatera Utara 22862;Fadoro, Kec. Mandrehe, Kabupaten Nias Barat;SUMATERA UTARA;22862;Indonesia;81370985334;;;10.497.659;97.489.902;https://maps.google.com/?cid=0x0:0xca610322b1e413c3;
mall;mall;Desa Harefanaesa;5CWM+V3H, Harefanaese, Kec. Alasa Talumuzoi, Kabupaten Nias Utara, Sumatera Utara 22861;Harefanaese, Kec. Alasa Talumuzoi, Kabupaten Nias Utara;SUMATERA UTARA;22861;Indonesia;;;;11.971.845;974.327.273;https://maps.google.com/?cid=0x0:0x659f24220964c57a;
mall;Pusat Perbelanjaan;Mall Kota Kasablanka;Jl. Raya Casablanca No.Kav 88, Menteng Dalam, Kec. Tebet, Kota Jakarta Selatan, Daerah Khusus Ibukota Jakarta 12870;Menteng Dalam, Kec. Tebet, Kota Jakarta Selatan;SUMATERA UTARA;12870;Indonesia;2129465000;;;-62.240.353;1.068.425.979;https://maps.google.com/?cid=0x0:0xaf54cb631563acce;
mall;Pusat Perbelanjaan;Mall Plaza Senayan;Jl. Asia Afrika No.8, RT.1/RW.3, Gelora, Kecamatan Tanah Abang, Kota Jakarta Pusat, Daerah Khusus Ibukota Jakarta 10270;RT.1/RW.3, Gelora, Kecamatan Tanah Abang, Kota Jakarta Pusat;SUMATERA UTARA;10270;Indonesia;215725555;;;-62.255.918;1.067.993.027;https://maps.google.com/?cid=0x0:0x788e3a1eef75ac94;
mall;Pusat Perbelanjaan;Mall Senayan City;Jl. Asia Afrika No.Lot 19, Gelora, Kecamatan Tanah Abang, Kota Jakarta Pusat, Daerah Khusus Ibukota Jakarta 10270;Gelora, Kecamatan Tanah Abang, Kota Jakarta Pusat;SUMATERA UTARA;10270;Indonesia;2172781000;;;-62.271.953;1.067.970.117;https://maps.google.com/?cid=0x0:0x300c043104acc004;
mall;Pusat Perbelanjaan;Gajah Mada Plaza Mall;Jl. Gajah Mada No.19 26, RT.2/RW.1, North Petojo, Gambir, Central Jakarta City, Jakarta 10130;RT.2/RW.1, North Petojo, Gambir, Central Jakarta City;SUMATERA UTARA;10130;Indonesia;2163858888;;;-61.607.576;1.068.187.836;https://maps.google.com/?cid=0x0:0x66b6d7b7ea79dc8a;
mall;Pusat Perbelanjaan;Mahaka Square;Jl. Raya Kelapa Nias No.6, RT.8/RW.6, Klp. Gading Bar., Kec. Klp. Gading, Jkt Utara, Daerah Khusus Ibukota Jakarta 14240;RT.8/RW.6, Klp. Gading Bar., Kec. Klp. Gading, Jkt Utara;SUMATERA UTARA;14240;Indonesia;2145878780;;;-61.497.348;10.690.302;https://maps.google.com/?cid=0x0:0x6e2cea822d81ad2d;
mall;Pusat Perbelanjaan;Thamrin City;Jl. Thamrin Boulevard, Kb. Melati, Kecamatan Tanah Abang, Kota Jakarta Pusat, Daerah Khusus Ibukota Jakarta 10230;Kb. Melati, Kecamatan Tanah Abang, Kota Jakarta Pusat;SUMATERA UTARA;10230;Indonesia;2131990988;;;-61.939.374;1.068.161.005;https://maps.google.com/?cid=0x0:0x1b60abd2e0b3d6d1;
mall;Pusat Perbelanjaan;Pondok Indah Mall 2;Jl. Metro Pondok Indah, Pd. Pinang, Kec. Kby. Lama, Kota Jakarta Selatan, Daerah Khusus Ibukota Jakarta 12310;Pd. Pinang, Kec. Kby. Lama, Kota Jakarta Selatan;SUMATERA UTARA;12310;Indonesia;217506750;;;-62.656.951;106.783.133;https://maps.google.com/?cid=0x0:0x203a5d09556daf5f;
mall;Pusat Perbelanjaan;Grand ITC Permata Hijau.;Jl. Arteri Permata Hijau No.11, RT.11/RW.10, Grogol Utara, Kec. Kby. Lama, Kota Jakarta Selatan, Daerah Khusus Ibukota Jakarta 12210;RT.11/RW.10, Grogol Utara, Kec. Kby. Lama, Kota Jakarta Selatan;SUMATERA UTARA;12210;Indonesia;2153663888;;;-6.221.082;1.067.834.284;https://maps.google.com/?cid=0x0:0x58635aeb951ccaec;
mall;mall;Sumatera Utara 22814;Saombo, Kec. Gunungsitoli, Kota Gunungsitoli, Sumatera Utara;Kota Gunungsitoli, Sumatera Utara;SUMATERA UTARA;;Indonesia;;;;12.897.758;976.188.016;https://maps.google.com/?cid=0x0:0x72677cb0cc3dbd55;
mall;Pasar;Pasar Gomo;7JQ8+RW7, Jl. Gomo, Saombo, Kec. Gunungsitoli, Kota Gunungsitoli, Sumatera Utara;Kota Gunungsitoli, Sumatera Utara;SUMATERA UTARA;;Indonesia;;;;12.895.364;976.172.875;https://maps.google.com/?cid=0x0:0x50ef939c84cf05b4;
mall;Pusat Perbelanjaan;Ud.Rospita;7JQ9+593, Saombo, Kec. Gunungsitoli, Kota Gunungsitoli, Sumatera Utara 22814;Saombo, Kec. Gunungsitoli, Kota Gunungsitoli;SUMATERA UTARA;22814;Indonesia;81260591158;;;12.878.808;976.184.244;https://maps.google.com/?cid=0x0:0xaaa73f8bcce47171;
mall;Toko Swalayan;4LL_VAPOR;7JQ9+VX4, Jl. Lagundri, Saombo, Kec. Gunungsitoli, Kota Gunungsitoli, Sumatera Utara;Kota Gunungsitoli, Sumatera Utara;SUMATERA UTARA;;Indonesia;85358648412;;;12.896.253;976.199.646;https://maps.google.com/?cid=0x0:0x1759b5b2362ec436;
mall;Toko;Mom's 3G Santan  Bumbu;Jl. Lagundri No.61, Saombo, Kec. Gunungsitoli, Kota Gunungsitoli, Sumatera Utara;Kota Gunungsitoli, Sumatera Utara;SUMATERA UTARA;;Indonesia;81365653535;;;12.896.155;976.201.837;https://maps.google.com/?cid=0x0:0x2e352d1efca8959a;
mall;Toko Tas;Toko Mata Air Grosir Eceran Tas;7JQ9+WR4 pasar ya'ahowu, Jl. Lagundri blok c nias, Saombo, Kec. Gunungsitoli, Kota Gunungsitoli, Sumatera Utara 22814;Jl. Lagundri blok c nias, Saombo, Kec. Gunungsitoli, Kota Gunungsitoli;SUMATERA UTARA;22814;Indonesia;85270109589;;;12.897.637;976.195.852;https://maps.google.com/?cid=0x0:0x8adea43a1d3962e5;
mall;;Toko Kaca Amri Ali;7JQC+35P, Jl. Gomo, Ps. Gn. Sitoli, Kec. Gunungsitoli, Kota Gunungsitoli, Sumatera Utara;Kota Gunungsitoli, Sumatera Utara;SUMATERA UTARA;;Indonesia;81263071179;;;12.877.028;976.204.513;https://maps.google.com/?cid=0x0:0x821825f7deb35045;
mall;Pusat Perbelanjaan;TOKO CAN - CAN AKSESORIS;Jl. Karet No.No, Kampung Baru, Kec. Gunungsitoli, Kota Gunungsitoli, Sumatera Utara;Kota Gunungsitoli, Sumatera Utara;SUMATERA UTARA;;Indonesia;;;;12.874.122;976.213.175;https://maps.google.com/?cid=0x0:0xfe7cc8d96fa37f61;
mall;Toko;UD. MISKA;Jl. Sudirman No.07, Ps. Gn. Sitoli, Kec. Gunungsitoli, Kota Gunungsitoli, Sumatera Utara;Kota Gunungsitoli, Sumatera Utara;SUMATERA UTARA;;Indonesia;85262321754;;;12.878.005;976.191.852;https://maps.google.com/?cid=0x0:0xbea556e00eea384b;
mall;mall;Store juang;Jl, Hilimbowo Kare, Kec. Alasa Talumuzoi, Kabupaten Nias Utara, Sumatera Utara 22814;Hilimbowo Kare, Kec. Alasa Talumuzoi, Kabupaten Nias Utara;SUMATERA UTARA;22814;Indonesia;85371162546;;;12.896.926;976.187.708;https://maps.google.com/?cid=0x0:0x12a44482c78adb19;
mall;mall;Toko Misyka Foot Cloth Distributor;Jl. Sirao No.93 135 pasar, Saombo, Gunungsitoli, Gunungsitoli City, North Sumatra 22814;Saombo, Gunungsitoli, Gunungsitoli City;SUMATERA UTARA;22814;Indonesia;;;;12.901.111;976.179.167;https://maps.google.com/?cid=0x0:0x36984424a46a7798;
mall;mall;Toko Ega;7JQ9+J85, Jl. Gomo, Saombo, Kec. Gunungsitoli, Kota Gunungsitoli, Sumatera Utara;Kota Gunungsitoli, Sumatera Utara;SUMATERA UTARA;;Indonesia;;;;12.890.052;976.183.624;https://maps.google.com/?cid=0x0:0x3e178be09acf5d4f;
mall;Pusat Perbelanjaan;UD. CHANSIA;Ombolata, Kec. Alasa, Kabupaten Nias Utara, Sumatera Utara 22861;Kec. Alasa, Kabupaten Nias Utara;SUMATERA UTARA;22861;Indonesia;85311721779;;;12.281.947;974.087.658;https://maps.google.com/?cid=0x0:0x26e8eef6fcac43a1;
mall;Pusat Perbelanjaan;Pekan Dahana Sowu - Banua Sibohou;8F5P+WFV, Banua Sibohou, Kec. Namohalu Esiwa, Kabupaten Nias Utara, Sumatera Utara 22851;Banua Sibohou, Kec. Namohalu Esiwa, Kabupaten Nias Utara;SUMATERA UTARA;22851;Indonesia;;;;13.098.703;974.861.592;https://maps.google.com/?cid=0x0:0xa9a960d330a3963;
mall;Pusat Perbelanjaan;Pekan Sisobahili;8C4X+74X, Sisobahili, Kec. Namohalu Esiwa, Kabupaten Nias Utara, Sumatera Utara 22816;Sisobahili, Kec. Namohalu Esiwa, Kabupaten Nias Utara;SUMATERA UTARA;22816;Indonesia;;;;13.057.261;974.478.632;https://maps.google.com/?cid=0x0:0xd4b29fcb0427a4ae;
mall;Toko;UD.Festha;6CH5+6F, Ombolata, Kec. Alasa, Kabupaten Nias Utara, Sumatera Utara 22861;Ombolata, Kec. Alasa, Kabupaten Nias Utara;SUMATERA UTARA;22861;Indonesia;82273003251;;;12.280.901;974.086.918;https://maps.google.com/?cid=0x0:0x346d39bcdb23bb58;
mall;Pusat Perbelanjaan;Pekan Banua Sibohou;8F78+2RG, Banua Sibohou, Kec. Namohalu Esiwa, Kabupaten Nias Utara, Sumatera Utara 22817;Banua Sibohou, Kec. Namohalu Esiwa, Kabupaten Nias Utara;SUMATERA UTARA;22817;Indonesia;;;;13.125.615;974.670.916;https://maps.google.com/?cid=0x0:0x905454a45370a2af;
mall;Pusat Perbelanjaan;UD. PRETTY;7GPC+3RC, Fadoro You, Kec. Gunungsitoli Alo'oa, Kota Gunungsitoli, Sumatera Utara;Kota Gunungsitoli, Sumatera Utara;SUMATERA UTARA;;Indonesia;;;;12.851.753;975.220.167;https://maps.google.com/?cid=0x0:0xa1e8d9d73ffb6e95;
mall;Pusat Perbelanjaan;Pames Mend;Law-lawa, Jl. Nias Tengah, Lolowua, Kec. HiliSerangkai, Kabupaten Nias, Sumatera Utara 22851;Jl. Nias Tengah, Lolowua, Kec. HiliSerangkai, Kabupaten Nias;SUMATERA UTARA;22851;Indonesia;85275290088;;;11.811.384;97.582.569;https://maps.google.com/?cid=0x0:0x44f205d447b92368;
mall;mall;Desa Harefanaesa;5CWM+V3H, Harefanaese, Kec. Alasa Talumuzoi, Kabupaten Nias Utara, Sumatera Utara 22861;Harefanaese, Kec. Alasa Talumuzoi, Kabupaten Nias Utara;SUMATERA UTARA;22861;Indonesia;;;;11.971.845;974.327.273;https://maps.google.com/?cid=0x0:0x659f24220964c57a;
mall;mall;SP 4 Desa Hilinaa;6CVV+XH4, Hilina A, Kec. Alasa Talumuzoi, Kabupaten Nias Utara, Sumatera Utara 22814;Hilina A, Kec. Alasa Talumuzoi, Kabupaten Nias Utara;SUMATERA UTARA;22814;Indonesia;;;;12.448.909;974.439.498;https://maps.google.com/?cid=0x0:0x22212df66936c5f8;
mall;mall;Pekan laehuwa;7FMP+5P4, Laehuwa, Kec. Alasa Talumuzoi, Kabupaten Nias Utara, Sumatera Utara;Kabupaten Nias Utara, Sumatera Utara;SUMATERA UTARA;;Indonesia;;;;12.828.918;974.868.283;https://maps.google.com/?cid=0x0:0x309fbea7fc749df9;
mall;mall;UD. MURIS;7F3H+XH5, Kare, Sisarahili, Kec. Namohalu Esiwa, Kabupaten Nias Utara, Sumatera Utara;Kabupaten Nias Utara, Sumatera Utara;SUMATERA UTARA;;Indonesia;;;;12.548.847;974.789.822;https://maps.google.com/?cid=0x0:0xc88f7530020c2ce8;
mall;Tujuan Wisata;Pasar LAHEWA;Jl. Soekarno No.136, Fadoro Sitolu Hili, Kecamaten Lahewa, Kabupaten Nias Utara, Sumatera Utara 22853;Fadoro Sitolu Hili, Kecamaten Lahewa, Kabupaten Nias Utara;SUMATERA UTARA;22853;Indonesia;;;;13.943.641;97.168.883;https://maps.google.com/?cid=0x0:0xa38e4ae7fbfb447b;
mall;Pusat Perbelanjaan;UD. CLEMENT;8663+VV2, Holi, Kecamaten Lahewa, Kabupaten Nias Utara, Sumatera Utara 22853;Holi, Kecamaten Lahewa, Kabupaten Nias Utara;SUMATERA UTARA;22853;Indonesia;85277699827;;;13.121.326;972.046.262;https://maps.google.com/?cid=0x0:0x48c9b60336e33a0d;
mall;Pusat Perbelanjaan;UD. SAOTADA;95V9+CFV, Ps. Lahewa, Kecamaten Lahewa, Kabupaten Nias Utara, Sumatera Utara 22853;Ps. Lahewa, Kecamaten Lahewa, Kabupaten Nias Utara;SUMATERA UTARA;22853;Indonesia;8126464810;;;13.936.001;971.686.871;https://maps.google.com/?cid=0x0:0xab88ed1752a97f3e;
mall;Pusat Perbelanjaan;UD. Merlin;Dusun II Desa Lasara Kecamatan, Hili Goduhoya, Kecamaten Lahewa, Kabupaten Nias Utara, Sumatera Utara 22853;Hili Goduhoya, Kecamaten Lahewa, Kabupaten Nias Utara;SUMATERA UTARA;22853;Indonesia;82363270201;;;13.669.072;972.117.472;https://maps.google.com/?cid=0x0:0x53c6402a82d1ce43;
mall;Toko umum;UD.NENI Desa Laowowaga;kab, dusun IV, Laowowaga, Kec. Lahewa Tim., Kabupaten Nias Utara, Sumatera Utara 22851;dusun IV, Laowowaga, Kec. Lahewa Tim., Kabupaten Nias Utara;SUMATERA UTARA;22851;Indonesia;82162253066;;;12.894.863;973.605.464;https://maps.google.com/?cid=0x0:0x28406e5800293cb8;
mall;Pusat Perbelanjaan;A/i Beni Zalukhu;79V4+4RF, Laowowaga, Kec. Lahewa Tim., Kabupaten Nias Utara, Sumatera Utara;Kabupaten Nias Utara, Sumatera Utara;SUMATERA UTARA;;Indonesia;;;;12.928.235;973.570.576;https://maps.google.com/?cid=0x0:0x41e4d4f5eb2ab41d;
mall;Pasar;Pajak Ikan Lahewa;95VC+W7R, Ps. Lahewa, Kecamaten Lahewa, Kabupaten Nias Utara, Sumatera Utara 22853;Ps. Lahewa, Kecamaten Lahewa, Kabupaten Nias Utara;SUMATERA UTARA;22853;Indonesia;;;;13.948.662;971.706.286;https://maps.google.com/?cid=0x0:0xe0a782089ccb10a7;
mall;Toko;Pasar Hiliweto Gidӧ;4P8G+X2M, Desa Hiliweto, Kecamatan Hiliweto Gidӧ, Wea-Wea, Kec. Sogae'adu, Kabupaten Nias, Sumatera Utara 22871;Desa Hiliweto, Kecamatan Hiliweto Gidӧ, Wea-Wea, Kec. Sogae'adu, Kabupaten Nias;SUMATERA UTARA;22871;Indonesia;;;;11.174.649;977.250.378;https://maps.google.com/?cid=0x0:0x4836436a61425dfc;
mall;Pusat Perbelanjaan;Pames Mend;Law-lawa, Jl. Nias Tengah, Lolowua, Kec. HiliSerangkai, Kabupaten Nias, Sumatera Utara 22851;Jl. Nias Tengah, Lolowua, Kec. HiliSerangkai, Kabupaten Nias;SUMATERA UTARA;22851;Indonesia;85275290088;;;11.811.384;97.582.569;https://maps.google.com/?cid=0x0:0x44f205d447b92368;
mall;Pusat Perbelanjaan;UD. AERYL HULU;5F6C+GMC, Desa, Ononazara, Kec. Tugala Oyo, Kabupaten Nias Utara, Sumatera Utara 22861;Desa, Ononazara, Kec. Tugala Oyo, Kabupaten Nias Utara;SUMATERA UTARA;22861;Indonesia;85296698019;;;11.613.212;97.471.648;https://maps.google.com/?cid=0x0:0xb271a7f8aa3bf168;
mall;Pusat Perbelanjaan;Warung RINDA Laowowaga;79V7+WH4, Unnamed Road, Laowowaga, Lahewa Timur, North Nias Regency, North Sumatra 22851;Unnamed Road, Laowowaga, Lahewa Timur, North Nias Regency;SUMATERA UTARA;22851;Indonesia;81269103634;;;12.947.626;973.639.399;https://maps.google.com/?cid=0x0:0x993ee309ed6f4c67;
mall;Pusat Perbelanjaan;UD. LASWA;4QM7+63, Wea-Wea, Kec. Sogae'adu, Kabupaten Nias, Sumatera Utara;Kabupaten Nias, Sumatera Utara;SUMATERA UTARA;;Indonesia;81397117126;;;11.330.018;977.626.909;https://maps.google.com/?cid=0x0:0xb81692a213d4f8a7;
mall;Makanan Kecil;Warung ASJ;Ononamolo II Lot, Kec. Gunungsitoli Bar., Kota Gunungsitoli, Sumatera Utara 22811;Kec. Gunungsitoli Bar., Kota Gunungsitoli;SUMATERA UTARA;22811;Indonesia;81358790365;;;12.210.204;975.702.745;https://maps.google.com/?cid=0x0:0x1204d63d8d357e4d;
mall;Tujuan Wisata;Lahewa;95PJ+JMX, Fadoro Sitolu Hili, Kecamaten Lahewa, Kabupaten Nias Utara, Sumatera Utara 22853;Fadoro Sitolu Hili, Kecamaten Lahewa, Kabupaten Nias Utara;SUMATERA UTARA;22853;Indonesia;;;;13.866.228;9.718.172;https://maps.google.com/?cid=0x0:0x9eeca41bef7eddf9;
mall;Apotek;Apotik ARJUN;Jl. Soekarno No.121, Ombolata Ulu, Kecamaten Lahewa, Kabupaten Nias Utara, Sumatera Utara 22853;Ombolata Ulu, Kecamaten Lahewa, Kabupaten Nias Utara;SUMATERA UTARA;22853;Indonesia;;;;13.911.833;971.705.841;https://maps.google.com/?cid=0x0:0xceb9330b21b32ec4;
mall;mall;Kec. Lahewa Tim.;Kabupaten Nias Utara, Sumatera Utara;Kabupaten Nias Utara, Sumatera Utara;SUMATERA UTARA;;Indonesia;;;;13.690.959;973.010.539;https://maps.google.com/?cid=0x0:0x1c45965c923c9076;
mall;Toko umum;UD.NENI Desa Laowowaga;kab, dusun IV, Laowowaga, Kec. Lahewa Tim., Kabupaten Nias Utara, Sumatera Utara 22851;dusun IV, Laowowaga, Kec. Lahewa Tim., Kabupaten Nias Utara;SUMATERA UTARA;22851;Indonesia;82162253066;;;12.894.863;973.605.464;https://maps.google.com/?cid=0x0:0x28406e5800293cb8;
mall;Pusat Perbelanjaan;A/i Beni Zalukhu;79V4+4RF, Laowowaga, Kec. Lahewa Tim., Kabupaten Nias Utara, Sumatera Utara;Kabupaten Nias Utara, Sumatera Utara;SUMATERA UTARA;;Indonesia;;;;12.928.235;973.570.576;https://maps.google.com/?cid=0x0:0x41e4d4f5eb2ab41d;
mall;Tujuan Wisata;Pasar LAHEWA;Jl. Soekarno No.136, Fadoro Sitolu Hili, Kecamaten Lahewa, Kabupaten Nias Utara, Sumatera Utara 22853;Fadoro Sitolu Hili, Kecamaten Lahewa, Kabupaten Nias Utara;SUMATERA UTARA;22853;Indonesia;;;;13.943.641;97.168.883;https://maps.google.com/?cid=0x0:0xa38e4ae7fbfb447b;
mall;Pusat Perbelanjaan;Laoli Lian;99X3+HHV, Lawira Satua, Kec. Lotu, Kabupaten Nias Utara, Sumatera Utara 22851;Lawira Satua, Kec. Lotu, Kabupaten Nias Utara;SUMATERA UTARA;22851;Indonesia;82167075853;;;13.989.817;973.539.368;https://maps.google.com/?cid=0x0:0x56169d8728382d20;
mall;Pasar;Pasar Tradisional Nalua;C9H2+PC4, Lolofaoso, Kec. Lotu, Kabupaten Nias Utara, Sumatera Utara 22851;Lolofaoso, Kec. Lotu, Kabupaten Nias Utara;SUMATERA UTARA;22851;Indonesia;;;;1.429.273;973.510.873;https://maps.google.com/?cid=0x0:0x8ae83dcb40684ca4;
mall;Toko Pakaian;Eiger Nagoya hill;993C+8QW, Unnamed Road, Dahana Hiligodu, Kec. Namohalu Esiwa, Kabupaten Nias Utara, Sumatera Utara 22816;Unnamed Road, Dahana Hiligodu, Kec. Namohalu Esiwa, Kabupaten Nias Utara;SUMATERA UTARA;22816;Indonesia;;;;13.533.587;973.719.482;https://maps.google.com/?cid=0x0:0x331af879adfa69bd;
mall;Toko umum;UD.WIJER;797M+4P3, Dahana Alasa, Kec. Alasa, Kabupaten Nias Utara, Sumatera Utara 22861;Dahana Alasa, Kec. Alasa, Kabupaten Nias Utara;SUMATERA UTARA;22861;Indonesia;;;;12.627.537;973.842.857;https://maps.google.com/?cid=0x0:0xa24c406296772ad7;
mall;Pusat Perbelanjaan;UD KARYA ARNI JAYA;99Q5+3WQ, Jl. Arah Gunungsitoli-Lahewa, Hilidundra, Kec. Lotu, Kabupaten Nias Utara, Sumatera Utara 22851;Jl. Arah Gunungsitoli-Lahewa, Hilidundra, Kec. Lotu, Kabupaten Nias Utara;SUMATERA UTARA;22851;Indonesia;81265401399;;;13.877.136;973.598.439;https://maps.google.com/?cid=0x0:0xd34ae861af503bdf;
mall;Pusat Perbelanjaan;UD. CLEMENT;8663+VV2, Holi, Kecamaten Lahewa, Kabupaten Nias Utara, Sumatera Utara 22853;Holi, Kecamaten Lahewa, Kabupaten Nias Utara;SUMATERA UTARA;22853;Indonesia;85277699827;;;13.121.326;972.046.262;https://maps.google.com/?cid=0x0:0x48c9b60336e33a0d;
mall;Pusat Perbelanjaan;UD.Nayla;Jl. Kihajar Dewantara No.7, Ps. Lahewa, Kecamaten Lahewa, Kabupaten Nias Utara, Sumatera Utara 22853;Ps. Lahewa, Kecamaten Lahewa, Kabupaten Nias Utara;SUMATERA UTARA;22853;Indonesia;;;;13.951.708;971.668.178;https://maps.google.com/?cid=0x0:0x586db9e5e10333b5;
mall;Pasar;Nisela Ponsel;99Q5+C78, Unnamed Road, Hilidundra, Kec. Lotu, Kabupaten Nias Utara, Sumatera Utara 22851;Unnamed Road, Hilidundra, Kec. Lotu, Kabupaten Nias Utara;SUMATERA UTARA;22851;Indonesia;85372937777;;;13.885.399;973.582.019;https://maps.google.com/?cid=0x0:0xea3c5d3d7991f2aa;
mall;mall;Afulu;Lauru I Afulu, Kec. Afulu, Kabupaten Nias Utara, Sumatera Utara;Kabupaten Nias Utara, Sumatera Utara;SUMATERA UTARA;;Indonesia;;;;1.275.923;97.228.146;https://maps.google.com/?cid=0x0:0x19123ccab5436978;
mall;Toko Swalayan;Ararasa BSD;Jl. BSD Raya Utama, Lengkong Kulon, Kec. Pagedangan, Kabupaten Tangerang, Banten 15331;Lengkong Kulon, Kec. Pagedangan, Kabupaten Tangerang;SUMATERA UTARA;15331;Indonesia;;;;-62.817.841;1.066.370.657;https://maps.google.com/?cid=0x0:0x2372a05b061d99f8;
mall;mall;LESTARI TAFONAO;VRRC+8PF, Hilimbowo, Kec. Gomo, Kabupaten Nias Selatan, Sumatera Utara 22873;Hilimbowo, Kec. Gomo, Kabupaten Nias Selatan;SUMATERA UTARA;22873;Indonesia;8126411456;;;0.8907764;978.218.448;https://maps.google.com/?cid=0x0:0x7f9629167487315c;
mall;Pusat Perbelanjaan;Medan Mall;Jl. M. T. Haryono No.8, Pusat Ps., Kec. Medan Kota, Kota Medan, Sumatera Utara 20212;Pusat Ps., Kec. Medan Kota, Kota Medan;SUMATERA UTARA;20212;Indonesia;614531800;;;358.767;986.867.939;https://maps.google.com/?cid=0x0:0x19be424c62eb0f57;
mall;Pusat Perbelanjaan;UD. RENI;Jl. Dusun II No.Desa, Lauru Fadoro, Kec. Afulu, Kabupaten Nias Utara, Sumatera Utara 22851;Lauru Fadoro, Kec. Afulu, Kabupaten Nias Utara;SUMATERA UTARA;22851;Indonesia;81263401322;;;12.438.017;9.726.382;https://maps.google.com/?cid=0x0:0xbfce79b6f4ece710;
mall;Toko;UD. HAGA;Afulu, Kec. Afulu, Kabupaten Nias Utara, Sumatera Utara 22857;Kec. Afulu, Kabupaten Nias Utara;SUMATERA UTARA;22857;Indonesia;85352383839;;;12.546.733;972.524.317;https://maps.google.com/?cid=0x0:0xef38820322abc830;
mall;Toko;UD. HAGA;Afulu, Kec. Afulu, Kabupaten Nias Utara, Sumatera Utara 22857;Kec. Afulu, Kabupaten Nias Utara;SUMATERA UTARA;22857;Indonesia;85352383839;;;12.546.733;972.524.317;https://maps.google.com/?cid=0x0:0xef38820322abc830;
mall;Pusat Perbelanjaan;UD. RENI;Jl. Dusun II No.Desa, Lauru Fadoro, Kec. Afulu, Kabupaten Nias Utara, Sumatera Utara 22851;Lauru Fadoro, Kec. Afulu, Kabupaten Nias Utara;SUMATERA UTARA;22851;Indonesia;81263401322;;;12.438.017;9.726.382;https://maps.google.com/?cid=0x0:0xbfce79b6f4ece710;
mall;mall;Sumatera Utara 22857;Kec. Afulu, Kabupaten Nias Utara, Sumatera Utara;Kabupaten Nias Utara, Sumatera Utara;SUMATERA UTARA;;Indonesia;;;;12.548.965;972.598.913;https://maps.google.com/?cid=0x0:0x7b808d1bfbbe7383;
mall;Agen Gas Elpiji;UD. RAIH;Jl. Lauru Fadoro, Lauru Fadoro, Kec. Afulu, Kabupaten Nias Utara, Sumatera Utara 22857;Lauru Fadoro, Kec. Afulu, Kabupaten Nias Utara;SUMATERA UTARA;22857;Indonesia;81263401322;;;12.438.659;972.638.894;https://maps.google.com/?cid=0x0:0x3b93fde89ea14345;
mall;mall;Kec. Afulu;Kabupaten Nias Utara, Sumatera Utara;Kabupaten Nias Utara, Sumatera Utara;SUMATERA UTARA;;Indonesia;;;;12.638.546;972.450.477;https://maps.google.com/?cid=0x0:0x37ed228075273cba;
mall;mall;Sumatera Utara 22861;Kabupaten Nias Utara, Sumatera Utara;Kabupaten Nias Utara, Sumatera Utara;SUMATERA UTARA;;Indonesia;;;;11.639.401;97.394.882;https://maps.google.com/?cid=0x0:0x146e7c32a97f723;
mall;Toko;Pasar Alasa;6CH6+V3J, Jl. Ombolata, Ombolata, Kec. Tugala Oyo, Kabupaten Nias Utara, Sumatera Utara 22861;Jl. Ombolata, Ombolata, Kec. Tugala Oyo, Kabupaten Nias Utara;SUMATERA UTARA;22861;Indonesia;;;;12.297.058;974.101.445;https://maps.google.com/?cid=0x0:0x51864fbe0192dd22;
mall;Kantor Pemerintah;Kantor Kecamatan Alasa;6CH6+J28, Jl. Ombolata, Ombolata, Kec. Tugala Oyo, Kabupaten Nias Utara, Sumatera Utara 22861;Jl. Ombolata, Ombolata, Kec. Tugala Oyo, Kabupaten Nias Utara;SUMATERA UTARA;22861;Indonesia;;;;12.290.434;974.100.658;https://maps.google.com/?cid=0x0:0xa72bf10300b4166;
mall;Pusat Perbelanjaan;UD. CHANSIA;Ombolata, Kec. Alasa, Kabupaten Nias Utara, Sumatera Utara 22861;Kec. Alasa, Kabupaten Nias Utara;SUMATERA UTARA;22861;Indonesia;85311721779;;;12.281.947;974.087.658;https://maps.google.com/?cid=0x0:0x26e8eef6fcac43a1;
mall;Toko;UD.Festha;6CH5+6F, Ombolata, Kec. Alasa, Kabupaten Nias Utara, Sumatera Utara 22861;Ombolata, Kec. Alasa, Kabupaten Nias Utara;SUMATERA UTARA;22861;Indonesia;82273003251;;;12.280.901;974.086.918;https://maps.google.com/?cid=0x0:0x346d39bcdb23bb58;
mall;Pusat Perbelanjaan;UD.RIEL;4FR3+X6F, Teolo, Kec. Tugala Oyo, Kabupaten Nias Utara, Sumatera Utara 22861;Teolo, Kec. Tugala Oyo, Kabupaten Nias Utara;SUMATERA UTARA;22861;Indonesia;;;;11.424.479;97.453.053;https://maps.google.com/?cid=0x0:0xe9be4df944ac93ae;
mall;Pusat Perbelanjaan;Pasar Loloanaa;Loloana'a, Desa, Halifadolo, Kec. Moro'o, Kabupaten Nias Barat, Sumatera Utara 22862;Desa, Halifadolo, Kec. Moro'o, Kabupaten Nias Barat;SUMATERA UTARA;22862;Indonesia;;;;10.603.899;974.340.667;https://maps.google.com/?cid=0x0:0x9d68e27112add1;
mall;Pusat Perbelanjaan;UD. AERYL HULU;5F6C+GMC, Desa, Ononazara, Kec. Tugala Oyo, Kabupaten Nias Utara, Sumatera Utara 22861;Desa, Ononazara, Kec. Tugala Oyo, Kabupaten Nias Utara;SUMATERA UTARA;22861;Indonesia;85296698019;;;11.613.212;97.471.648;https://maps.google.com/?cid=0x0:0xb271a7f8aa3bf168;
mall;Pusat Perbelanjaan;UD.4 putri;Harefa, Kec. Tugala Oyo, Kabupaten Nias Utara, Sumatera Utara 22862;Kec. Tugala Oyo, Kabupaten Nias Utara;SUMATERA UTARA;22862;Indonesia;81260969686;;;11.287.002;974.669.928;https://maps.google.com/?cid=0x0:0xd7b3570f261c134f;
mall;Pusat Perbelanjaan;UD. Setia;3F3C+24P, Tetehosi, Kec. Mandrehe, Kabupaten Nias Barat, Sumatera Utara;Kabupaten Nias Barat, Sumatera Utara;SUMATERA UTARA;;Indonesia;82299869902;;;10.525.959;974.703.266;https://maps.google.com/?cid=0x0:0xa7869bcbd34f652f;
mall;Pusat Perbelanjaan;UD. MELONA;39CR+H79, II Dusun III, Iraono Gambo, Mandrehe, West Nias Regency, North Sumatra 22862;II Dusun III, Iraono Gambo, Mandrehe, West Nias Regency;SUMATERA UTARA;22862;Indonesia;;;;10.714.041;973.907.265;https://maps.google.com/?cid=0x0:0x54ab6b2016cf58b3;
mall;Pusat Perbelanjaan;A/i Beni Zalukhu;79V4+4RF, Laowowaga, Kec. Lahewa Tim., Kabupaten Nias Utara, Sumatera Utara;Kabupaten Nias Utara, Sumatera Utara;SUMATERA UTARA;;Indonesia;;;;12.928.235;973.570.576;https://maps.google.com/?cid=0x0:0x41e4d4f5eb2ab41d;
mall;Toko;UD .Ivan;Alamat Hilifadolo, Kecamatan Moro'o Kabupaten Nias Barat, Desa Lasarabahili Dusun III No.01, Hilisoromi, Kec. Moro'o, Kabupaten Nias Barat, Sumatera Utara 22862;Kecamatan Moro'o Kabupaten Nias Barat, Desa Lasarabahili Dusun III No.01, Hilisoromi, Kec. Moro'o, Kabupaten Nias Barat;SUMATERA UTARA;22862;Indonesia;81377462223;;;107.599;974.353.942;https://maps.google.com/?cid=0x0:0x5984df575bde4cc2;
mall;Pusat Perbelanjaan;UD.HAFIZ MAULANA;58F5+P9, Faekhunaa, Kec. Afulu, Kabupaten Nias Utara, Sumatera Utara 22851;Faekhunaa, Kec. Afulu, Kabupaten Nias Utara;SUMATERA UTARA;22851;Indonesia;85359598397;;;11.743.186;973.084.399;https://maps.google.com/?cid=0x0:0x3d2e5672deb473a6;
mall;Toko umum;UD.NENI Desa Laowowaga;kab, dusun IV, Laowowaga, Kec. Lahewa Tim., Kabupaten Nias Utara, Sumatera Utara 22851;dusun IV, Laowowaga, Kec. Lahewa Tim., Kabupaten Nias Utara;SUMATERA UTARA;22851;Indonesia;82162253066;;;12.894.863;973.605.464;https://maps.google.com/?cid=0x0:0x28406e5800293cb8;
mall;Pusat Perbelanjaan;Warung RINDA Laowowaga;79V7+WH4, Unnamed Road, Laowowaga, Lahewa Timur, North Nias Regency, North Sumatra 22851;Unnamed Road, Laowowaga, Lahewa Timur, North Nias Regency;SUMATERA UTARA;22851;Indonesia;81269103634;;;12.947.626;973.639.399;https://maps.google.com/?cid=0x0:0x993ee309ed6f4c67;
mall;Komplek perumahan;Lasara;6CR3+8GQ, Ombolata, Kec. Alasa, Kabupaten Nias Utara, Sumatera Utara;Kabupaten Nias Utara, Sumatera Utara;SUMATERA UTARA;;Indonesia;;;;12.408.364;974.038.484;https://maps.google.com/?cid=0x0:0xb9214160ec6acd4a;
mall;Pasar;Loloana'a, Moro'ö Nias Barat;Halifadolo, Kec. Moro'o, Kabupaten Nias Barat, Sumatera Utara;Kabupaten Nias Barat, Sumatera Utara;SUMATERA UTARA;;Indonesia;;;;10.628.261;974.308.039;https://maps.google.com/?cid=0x0:0x466680e31bf1f6e3;
mall;Toko;Pasar Hiliweto Gidӧ;4P8G+X2M, Desa Hiliweto, Kecamatan Hiliweto Gidӧ, Wea-Wea, Kec. Sogae'adu, Kabupaten Nias, Sumatera Utara 22871;Desa Hiliweto, Kecamatan Hiliweto Gidӧ, Wea-Wea, Kec. Sogae'adu, Kabupaten Nias;SUMATERA UTARA;22871;Indonesia;;;;11.174.649;977.250.378;https://maps.google.com/?cid=0x0:0x4836436a61425dfc;
mall;Pusat Perbelanjaan;UD. Iman;2FXQ+WX2, Fadoro, Kec. Mandrehe, Kabupaten Nias Barat, Sumatera Utara 22862;Fadoro, Kec. Mandrehe, Kabupaten Nias Barat;SUMATERA UTARA;22862;Indonesia;81370985334;;;10.497.659;97.489.902;https://maps.google.com/?cid=0x0:0xca610322b1e413c3;
mall;mall;Desa Harefanaesa;5CWM+V3H, Harefanaese, Kec. Alasa Talumuzoi, Kabupaten Nias Utara, Sumatera Utara 22861;Harefanaese, Kec. Alasa Talumuzoi, Kabupaten Nias Utara;SUMATERA UTARA;22861;Indonesia;;;;11.971.845;974.327.273;https://maps.google.com/?cid=0x0:0x659f24220964c57a;
mall;Pusat Perbelanjaan;Mall Senayan City;Jl. Asia Afrika No.Lot 19, Gelora, Kecamatan Tanah Abang, Kota Jakarta Pusat, Daerah Khusus Ibukota Jakarta 10270;Gelora, Kecamatan Tanah Abang, Kota Jakarta Pusat;SUMATERA UTARA;10270;Indonesia;2172781000;;;-62.271.953;1.067.970.117;https://maps.google.com/?cid=0x0:0x300c043104acc004;
mall;Pusat Perbelanjaan;Mall Plaza Senayan;Jl. Asia Afrika No.8, RT.1/RW.3, Gelora, Kecamatan Tanah Abang, Kota Jakarta Pusat, Daerah Khusus Ibukota Jakarta 10270;RT.1/RW.3, Gelora, Kecamatan Tanah Abang, Kota Jakarta Pusat;SUMATERA UTARA;10270;Indonesia;215725555;;;-62.255.918;1.067.993.027;https://maps.google.com/?cid=0x0:0x788e3a1eef75ac94;
mall;Pusat Perbelanjaan;Gajah Mada Plaza Mall;Jl. Gajah Mada No.19 26, RT.2/RW.1, North Petojo, Gambir, Central Jakarta City, Jakarta 10130;RT.2/RW.1, North Petojo, Gambir, Central Jakarta City;SUMATERA UTARA;10130;Indonesia;2163858888;;;-61.607.576;1.068.187.836;https://maps.google.com/?cid=0x0:0x66b6d7b7ea79dc8a;
mall;Pusat Perbelanjaan;Pondok Indah Mall 2;Jl. Metro Pondok Indah, Pd. Pinang, Kec. Kby. Lama, Kota Jakarta Selatan, Daerah Khusus Ibukota Jakarta 12310;Pd. Pinang, Kec. Kby. Lama, Kota Jakarta Selatan;SUMATERA UTARA;12310;Indonesia;217506750;;;-62.656.951;106.783.133;https://maps.google.com/?cid=0x0:0x203a5d09556daf5f;
mall;Pusat Perbelanjaan;Mahaka Square;Jl. Raya Kelapa Nias No.6, RT.8/RW.6, Klp. Gading Bar., Kec. Klp. Gading, Jkt Utara, Daerah Khusus Ibukota Jakarta 14240;RT.8/RW.6, Klp. Gading Bar., Kec. Klp. Gading, Jkt Utara;SUMATERA UTARA;14240;Indonesia;2145878780;;;-61.497.348;10.690.302;https://maps.google.com/?cid=0x0:0x6e2cea822d81ad2d;
mall;Pusat Perbelanjaan;Thamrin City;Jl. Thamrin Boulevard, Kb. Melati, Kecamatan Tanah Abang, Kota Jakarta Pusat, Daerah Khusus Ibukota Jakarta 10230;Kb. Melati, Kecamatan Tanah Abang, Kota Jakarta Pusat;SUMATERA UTARA;10230;Indonesia;2131990988;;;-61.939.374;1.068.161.005;https://maps.google.com/?cid=0x0:0x1b60abd2e0b3d6d1;
mall;Pusat Perbelanjaan;Grand ITC Permata Hijau.;Jl. Arteri Permata Hijau No.11, RT.11/RW.10, Grogol Utara, Kec. Kby. Lama, Kota Jakarta Selatan, Daerah Khusus Ibukota Jakarta 12210;RT.11/RW.10, Grogol Utara, Kec. Kby. Lama, Kota Jakarta Selatan;SUMATERA UTARA;12210;Indonesia;2153663888;;;-6.221.082;1.067.834.284;https://maps.google.com/?cid=0x0:0x58635aeb951ccaec;
mall;Pusat Perbelanjaan;Ciel;Jl. Jenderal Sudirman No.52-53, RT.5/RW.3, Senayan, Kec. Kby. Baru, Kota Jakarta Selatan, Daerah Khusus Ibukota Jakarta 12190;RT.5/RW.3, Senayan, Kec. Kby. Baru, Kota Jakarta Selatan;SUMATERA UTARA;12190;Indonesia;;;;-62.245.324;1.068.097.835;https://maps.google.com/?cid=0x0:0xdd53a4c3209db0cb;
mall;mall;Sumatera Utara 22814;Saombo, Kec. Gunungsitoli, Kota Gunungsitoli, Sumatera Utara;Kota Gunungsitoli, Sumatera Utara;SUMATERA UTARA;;Indonesia;;;;12.897.758;976.188.016;https://maps.google.com/?cid=0x0:0x72677cb0cc3dbd55;
mall;Pusat Perbelanjaan;Ud.Rospita;7JQ9+593, Saombo, Kec. Gunungsitoli, Kota Gunungsitoli, Sumatera Utara 22814;Saombo, Kec. Gunungsitoli, Kota Gunungsitoli;SUMATERA UTARA;22814;Indonesia;81260591158;;;12.878.808;976.184.244;https://maps.google.com/?cid=0x0:0xaaa73f8bcce47171;
mall;Pasar;Pasar Gomo;7JQ8+RW7, Jl. Gomo, Saombo, Kec. Gunungsitoli, Kota Gunungsitoli, Sumatera Utara;Kota Gunungsitoli, Sumatera Utara;SUMATERA UTARA;;Indonesia;;;;12.895.364;976.172.875;https://maps.google.com/?cid=0x0:0x50ef939c84cf05b4;
mall;Toko Swalayan;4LL_VAPOR;7JQ9+VX4, Jl. Lagundri, Saombo, Kec. Gunungsitoli, Kota Gunungsitoli, Sumatera Utara;Kota Gunungsitoli, Sumatera Utara;SUMATERA UTARA;;Indonesia;85358648412;;;12.896.253;976.199.646;https://maps.google.com/?cid=0x0:0x1759b5b2362ec436;
mall;Toko;Mom's 3G Santan  Bumbu;Jl. Lagundri No.61, Saombo, Kec. Gunungsitoli, Kota Gunungsitoli, Sumatera Utara;Kota Gunungsitoli, Sumatera Utara;SUMATERA UTARA;;Indonesia;81365653535;;;12.896.155;976.201.837;https://maps.google.com/?cid=0x0:0x2e352d1efca8959a;
mall;Toko Tas;Toko Mata Air Grosir Eceran Tas;7JQ9+WR4 pasar ya'ahowu, Jl. Lagundri blok c nias, Saombo, Kec. Gunungsitoli, Kota Gunungsitoli, Sumatera Utara 22814;Jl. Lagundri blok c nias, Saombo, Kec. Gunungsitoli, Kota Gunungsitoli;SUMATERA UTARA;22814;Indonesia;85270109589;;;12.897.637;976.195.852;https://maps.google.com/?cid=0x0:0x8adea43a1d3962e5;
mall;;Toko Kaca Amri Ali;7JQC+35P, Jl. Gomo, Ps. Gn. Sitoli, Kec. Gunungsitoli, Kota Gunungsitoli, Sumatera Utara;Kota Gunungsitoli, Sumatera Utara;SUMATERA UTARA;;Indonesia;81263071179;;;12.877.028;976.204.513;https://maps.google.com/?cid=0x0:0x821825f7deb35045;
mall;Pusat Perbelanjaan;TOKO CAN - CAN AKSESORIS;Jl. Karet No.No, Kampung Baru, Kec. Gunungsitoli, Kota Gunungsitoli, Sumatera Utara;Kota Gunungsitoli, Sumatera Utara;SUMATERA UTARA;;Indonesia;;;;12.874.122;976.213.175;https://maps.google.com/?cid=0x0:0xfe7cc8d96fa37f61;
mall;mall;Store juang;Jl, Hilimbowo Kare, Kec. Alasa Talumuzoi, Kabupaten Nias Utara, Sumatera Utara 22814;Hilimbowo Kare, Kec. Alasa Talumuzoi, Kabupaten Nias Utara;SUMATERA UTARA;22814;Indonesia;85371162546;;;12.896.926;976.187.708;https://maps.google.com/?cid=0x0:0x12a44482c78adb19;
mall;Toko;UD. MISKA;Jl. Sudirman No.07, Ps. Gn. Sitoli, Kec. Gunungsitoli, Kota Gunungsitoli, Sumatera Utara;Kota Gunungsitoli, Sumatera Utara;SUMATERA UTARA;;Indonesia;85262321754;;;12.878.005;976.191.852;https://maps.google.com/?cid=0x0:0xbea556e00eea384b;
mall;mall;Toko Misyka Foot Cloth Distributor;Jl. Sirao No.93 135 pasar, Saombo, Gunungsitoli, Gunungsitoli City, North Sumatra 22814;Saombo, Gunungsitoli, Gunungsitoli City;SUMATERA UTARA;22814;Indonesia;;;;12.901.111;976.179.167;https://maps.google.com/?cid=0x0:0x36984424a46a7798;
mall;Pusat Perbelanjaan;UD. CHANSIA;Ombolata, Kec. Alasa, Kabupaten Nias Utara, Sumatera Utara 22861;Kec. Alasa, Kabupaten Nias Utara;SUMATERA UTARA;22861;Indonesia;85311721779;;;12.281.947;974.087.658;https://maps.google.com/?cid=0x0:0x26e8eef6fcac43a1;
mall;mall;Toko Ega;7JQ9+J85, Jl. Gomo, Saombo, Kec. Gunungsitoli, Kota Gunungsitoli, Sumatera Utara;Kota Gunungsitoli, Sumatera Utara;SUMATERA UTARA;;Indonesia;;;;12.890.052;976.183.624;https://maps.google.com/?cid=0x0:0x3e178be09acf5d4f;
mall;Pusat Perbelanjaan;Pekan Dahana Sowu - Banua Sibohou;8F5P+WFV, Banua Sibohou, Kec. Namohalu Esiwa, Kabupaten Nias Utara, Sumatera Utara 22851;Banua Sibohou, Kec. Namohalu Esiwa, Kabupaten Nias Utara;SUMATERA UTARA;22851;Indonesia;;;;13.098.703;974.861.592;https://maps.google.com/?cid=0x0:0xa9a960d330a3963;
mall;Pusat Perbelanjaan;Pekan Sisobahili;8C4X+74X, Sisobahili, Kec. Namohalu Esiwa, Kabupaten Nias Utara, Sumatera Utara 22816;Sisobahili, Kec. Namohalu Esiwa, Kabupaten Nias Utara;SUMATERA UTARA;22816;Indonesia;;;;13.057.261;974.478.632;https://maps.google.com/?cid=0x0:0xd4b29fcb0427a4ae;
mall;Toko;UD.Festha;6CH5+6F, Ombolata, Kec. Alasa, Kabupaten Nias Utara, Sumatera Utara 22861;Ombolata, Kec. Alasa, Kabupaten Nias Utara;SUMATERA UTARA;22861;Indonesia;82273003251;;;12.280.901;974.086.918;https://maps.google.com/?cid=0x0:0x346d39bcdb23bb58;
mall;Pusat Perbelanjaan;Pekan Banua Sibohou;8F78+2RG, Banua Sibohou, Kec. Namohalu Esiwa, Kabupaten Nias Utara, Sumatera Utara 22817;Banua Sibohou, Kec. Namohalu Esiwa, Kabupaten Nias Utara;SUMATERA UTARA;22817;Indonesia;;;;13.125.615;974.670.916;https://maps.google.com/?cid=0x0:0x905454a45370a2af;
mall;Pusat Perbelanjaan;UD. PRETTY;7GPC+3RC, Fadoro You, Kec. Gunungsitoli Alo'oa, Kota Gunungsitoli, Sumatera Utara;Kota Gunungsitoli, Sumatera Utara;SUMATERA UTARA;;Indonesia;;;;12.851.753;975.220.167;https://maps.google.com/?cid=0x0:0xa1e8d9d73ffb6e95;
mall;mall;Desa Harefanaesa;5CWM+V3H, Harefanaese, Kec. Alasa Talumuzoi, Kabupaten Nias Utara, Sumatera Utara 22861;Harefanaese, Kec. Alasa Talumuzoi, Kabupaten Nias Utara;SUMATERA UTARA;22861;Indonesia;;;;11.971.845;974.327.273;https://maps.google.com/?cid=0x0:0x659f24220964c57a;
mall;mall;SP 4 Desa Hilinaa;6CVV+XH4, Hilina A, Kec. Alasa Talumuzoi, Kabupaten Nias Utara, Sumatera Utara 22814;Hilina A, Kec. Alasa Talumuzoi, Kabupaten Nias Utara;SUMATERA UTARA;22814;Indonesia;;;;12.448.909;974.439.498;https://maps.google.com/?cid=0x0:0x22212df66936c5f8;
mall;mall;Pekan laehuwa;7FMP+5P4, Laehuwa, Kec. Alasa Talumuzoi, Kabupaten Nias Utara, Sumatera Utara;Kabupaten Nias Utara, Sumatera Utara;SUMATERA UTARA;;Indonesia;;;;12.828.918;974.868.283;https://maps.google.com/?cid=0x0:0x309fbea7fc749df9;
mall;mall;UD. MURIS;7F3H+XH5, Kare, Sisarahili, Kec. Namohalu Esiwa, Kabupaten Nias Utara, Sumatera Utara;Kabupaten Nias Utara, Sumatera Utara;SUMATERA UTARA;;Indonesia;;;;12.548.847;974.789.822;https://maps.google.com/?cid=0x0:0xc88f7530020c2ce8;
mall;Tujuan Wisata;Pasar LAHEWA;Jl. Soekarno No.136, Fadoro Sitolu Hili, Kecamaten Lahewa, Kabupaten Nias Utara, Sumatera Utara 22853;Fadoro Sitolu Hili, Kecamaten Lahewa, Kabupaten Nias Utara;SUMATERA UTARA;22853;Indonesia;;;;13.943.641;97.168.883;https://maps.google.com/?cid=0x0:0xa38e4ae7fbfb447b;
mall;mall;Sumatera Utara 22853;Kecamaten Lahewa, Kabupaten Nias Utara, Sumatera Utara;Kabupaten Nias Utara, Sumatera Utara;SUMATERA UTARA;;Indonesia;;;;13.266.447;972.329.255;https://maps.google.com/?cid=0x0:0xc7df9697de637a01;
mall;Pasar;Pajak Ikan Lahewa;95VC+W7R, Ps. Lahewa, Kecamaten Lahewa, Kabupaten Nias Utara, Sumatera Utara 22853;Ps. Lahewa, Kecamaten Lahewa, Kabupaten Nias Utara;SUMATERA UTARA;22853;Indonesia;;;;13.948.662;971.706.286;https://maps.google.com/?cid=0x0:0xe0a782089ccb10a7;
mall;Pusat Perbelanjaan;UD. SAOTADA;95V9+CFV, Ps. Lahewa, Kecamaten Lahewa, Kabupaten Nias Utara, Sumatera Utara 22853;Ps. Lahewa, Kecamaten Lahewa, Kabupaten Nias Utara;SUMATERA UTARA;22853;Indonesia;8126464810;;;13.936.001;971.686.871;https://maps.google.com/?cid=0x0:0xab88ed1752a97f3e;
mall;Pusat Perbelanjaan;UD. CLEMENT;8663+VV2, Holi, Kecamaten Lahewa, Kabupaten Nias Utara, Sumatera Utara 22853;Holi, Kecamaten Lahewa, Kabupaten Nias Utara;SUMATERA UTARA;22853;Indonesia;85277699827;;;13.121.326;972.046.262;https://maps.google.com/?cid=0x0:0x48c9b60336e33a0d;
mall;Pusat Perbelanjaan;UD. Merlin;Dusun II Desa Lasara Kecamatan, Hili Goduhoya, Kecamaten Lahewa, Kabupaten Nias Utara, Sumatera Utara 22853;Hili Goduhoya, Kecamaten Lahewa, Kabupaten Nias Utara;SUMATERA UTARA;22853;Indonesia;82363270201;;;13.669.072;972.117.472;https://maps.google.com/?cid=0x0:0x53c6402a82d1ce43;
mall;Toko umum;UD.NENI Desa Laowowaga;kab, dusun IV, Laowowaga, Kec. Lahewa Tim., Kabupaten Nias Utara, Sumatera Utara 22851;dusun IV, Laowowaga, Kec. Lahewa Tim., Kabupaten Nias Utara;SUMATERA UTARA;22851;Indonesia;82162253066;;;12.894.863;973.605.464;https://maps.google.com/?cid=0x0:0x28406e5800293cb8;
mall;Pusat Perbelanjaan;A/i Beni Zalukhu;79V4+4RF, Laowowaga, Kec. Lahewa Tim., Kabupaten Nias Utara, Sumatera Utara;Kabupaten Nias Utara, Sumatera Utara;SUMATERA UTARA;;Indonesia;;;;12.928.235;973.570.576;https://maps.google.com/?cid=0x0:0x41e4d4f5eb2ab41d;
mall;Toko;Pasar Hiliweto Gidӧ;4P8G+X2M, Desa Hiliweto, Kecamatan Hiliweto Gidӧ, Wea-Wea, Kec. Sogae'adu, Kabupaten Nias, Sumatera Utara 22871;Desa Hiliweto, Kecamatan Hiliweto Gidӧ, Wea-Wea, Kec. Sogae'adu, Kabupaten Nias;SUMATERA UTARA;22871;Indonesia;;;;11.174.649;977.250.378;https://maps.google.com/?cid=0x0:0x4836436a61425dfc;
mall;Pusat Perbelanjaan;Pames Mend;Law-lawa, Jl. Nias Tengah, Lolowua, Kec. HiliSerangkai, Kabupaten Nias, Sumatera Utara 22851;Jl. Nias Tengah, Lolowua, Kec. HiliSerangkai, Kabupaten Nias;SUMATERA UTARA;22851;Indonesia;85275290088;;;11.811.384;97.582.569;https://maps.google.com/?cid=0x0:0x44f205d447b92368;
mall;Pusat Perbelanjaan;UD. AERYL HULU;5F6C+GMC, Desa, Ononazara, Kec. Tugala Oyo, Kabupaten Nias Utara, Sumatera Utara 22861;Desa, Ononazara, Kec. Tugala Oyo, Kabupaten Nias Utara;SUMATERA UTARA;22861;Indonesia;85296698019;;;11.613.212;97.471.648;https://maps.google.com/?cid=0x0:0xb271a7f8aa3bf168;
mall;Pusat Perbelanjaan;Warung RINDA Laowowaga;79V7+WH4, Unnamed Road, Laowowaga, Lahewa Timur, North Nias Regency, North Sumatra 22851;Unnamed Road, Laowowaga, Lahewa Timur, North Nias Regency;SUMATERA UTARA;22851;Indonesia;81269103634;;;12.947.626;973.639.399;https://maps.google.com/?cid=0x0:0x993ee309ed6f4c67;
mall;Pusat Perbelanjaan;UD. LASWA;4QM7+63, Wea-Wea, Kec. Sogae'adu, Kabupaten Nias, Sumatera Utara;Kabupaten Nias, Sumatera Utara;SUMATERA UTARA;;Indonesia;81397117126;;;11.330.018;977.626.909;https://maps.google.com/?cid=0x0:0xb81692a213d4f8a7;
mall;Makanan Kecil;Warung ASJ;Ononamolo II Lot, Kec. Gunungsitoli Bar., Kota Gunungsitoli, Sumatera Utara 22811;Kec. Gunungsitoli Bar., Kota Gunungsitoli;SUMATERA UTARA;22811;Indonesia;81358790365;;;12.210.204;975.702.745;https://maps.google.com/?cid=0x0:0x1204d63d8d357e4d;
mall;Tujuan Wisata;Lahewa;95PJ+JMX, Fadoro Sitolu Hili, Kecamaten Lahewa, Kabupaten Nias Utara, Sumatera Utara 22853;Fadoro Sitolu Hili, Kecamaten Lahewa, Kabupaten Nias Utara;SUMATERA UTARA;22853;Indonesia;;;;13.866.228;9.718.172;https://maps.google.com/?cid=0x0:0x9eeca41bef7eddf9;
mall;Apotek;Apotik ARJUN;Jl. Soekarno No.121, Ombolata Ulu, Kecamaten Lahewa, Kabupaten Nias Utara, Sumatera Utara 22853;Ombolata Ulu, Kecamaten Lahewa, Kabupaten Nias Utara;SUMATERA UTARA;22853;Indonesia;;;;13.911.833;971.705.841;https://maps.google.com/?cid=0x0:0xceb9330b21b32ec4;
mall;mall;Kec. Lahewa Tim.;Kabupaten Nias Utara, Sumatera Utara;Kabupaten Nias Utara, Sumatera Utara;SUMATERA UTARA;;Indonesia;;;;13.690.959;973.010.539;https://maps.google.com/?cid=0x0:0x1c45965c923c9076;
mall;Toko umum;UD.NENI Desa Laowowaga;kab, dusun IV, Laowowaga, Kec. Lahewa Tim., Kabupaten Nias Utara, Sumatera Utara 22851;dusun IV, Laowowaga, Kec. Lahewa Tim., Kabupaten Nias Utara;SUMATERA UTARA;22851;Indonesia;82162253066;;;12.894.863;973.605.464;https://maps.google.com/?cid=0x0:0x28406e5800293cb8;
mall;Pusat Perbelanjaan;A/i Beni Zalukhu;79V4+4RF, Laowowaga, Kec. Lahewa Tim., Kabupaten Nias Utara, Sumatera Utara;Kabupaten Nias Utara, Sumatera Utara;SUMATERA UTARA;;Indonesia;;;;12.928.235;973.570.576;https://maps.google.com/?cid=0x0:0x41e4d4f5eb2ab41d;
mall;Pusat Perbelanjaan;Laoli Lian;99X3+HHV, Lawira Satua, Kec. Lotu, Kabupaten Nias Utara, Sumatera Utara 22851;Lawira Satua, Kec. Lotu, Kabupaten Nias Utara;SUMATERA UTARA;22851;Indonesia;82167075853;;;13.989.817;973.539.368;https://maps.google.com/?cid=0x0:0x56169d8728382d20;
mall;Pasar;Pasar Tradisional Nalua;C9H2+PC4, Lolofaoso, Kec. Lotu, Kabupaten Nias Utara, Sumatera Utara 22851;Lolofaoso, Kec. Lotu, Kabupaten Nias Utara;SUMATERA UTARA;22851;Indonesia;;;;1.429.273;973.510.873;https://maps.google.com/?cid=0x0:0x8ae83dcb40684ca4;
mall;Tujuan Wisata;Pasar LAHEWA;Jl. Soekarno No.136, Fadoro Sitolu Hili, Kecamaten Lahewa, Kabupaten Nias Utara, Sumatera Utara 22853;Fadoro Sitolu Hili, Kecamaten Lahewa, Kabupaten Nias Utara;SUMATERA UTARA;22853;Indonesia;;;;13.943.641;97.168.883;https://maps.google.com/?cid=0x0:0xa38e4ae7fbfb447b;
mall;Toko Pakaian;Eiger Nagoya hill;993C+8QW, Unnamed Road, Dahana Hiligodu, Kec. Namohalu Esiwa, Kabupaten Nias Utara, Sumatera Utara 22816;Unnamed Road, Dahana Hiligodu, Kec. Namohalu Esiwa, Kabupaten Nias Utara;SUMATERA UTARA;22816;Indonesia;;;;13.533.587;973.719.482;https://maps.google.com/?cid=0x0:0x331af879adfa69bd;
mall;Toko umum;UD.WIJER;797M+4P3, Dahana Alasa, Kec. Alasa, Kabupaten Nias Utara, Sumatera Utara 22861;Dahana Alasa, Kec. Alasa, Kabupaten Nias Utara;SUMATERA UTARA;22861;Indonesia;;;;12.627.537;973.842.857;https://maps.google.com/?cid=0x0:0xa24c406296772ad7;
mall;Pusat Perbelanjaan;UD KARYA ARNI JAYA;99Q5+3WQ, Jl. Arah Gunungsitoli-Lahewa, Hilidundra, Kec. Lotu, Kabupaten Nias Utara, Sumatera Utara 22851;Jl. Arah Gunungsitoli-Lahewa, Hilidundra, Kec. Lotu, Kabupaten Nias Utara;SUMATERA UTARA;22851;Indonesia;81265401399;;;13.877.136;973.598.439;https://maps.google.com/?cid=0x0:0xd34ae861af503bdf;
mall;Pusat Perbelanjaan;UD. CLEMENT;8663+VV2, Holi, Kecamaten Lahewa, Kabupaten Nias Utara, Sumatera Utara 22853;Holi, Kecamaten Lahewa, Kabupaten Nias Utara;SUMATERA UTARA;22853;Indonesia;85277699827;;;13.121.326;972.046.262;https://maps.google.com/?cid=0x0:0x48c9b60336e33a0d;
mall;Pusat Perbelanjaan;UD.Nayla;Jl. Kihajar Dewantara No.7, Ps. Lahewa, Kecamaten Lahewa, Kabupaten Nias Utara, Sumatera Utara 22853;Ps. Lahewa, Kecamaten Lahewa, Kabupaten Nias Utara;SUMATERA UTARA;22853;Indonesia;;;;13.951.708;971.668.178;https://maps.google.com/?cid=0x0:0x586db9e5e10333b5;
mall;Pasar;Nisela Ponsel;99Q5+C78, Unnamed Road, Hilidundra, Kec. Lotu, Kabupaten Nias Utara, Sumatera Utara 22851;Unnamed Road, Hilidundra, Kec. Lotu, Kabupaten Nias Utara;SUMATERA UTARA;22851;Indonesia;85372937777;;;13.885.399;973.582.019;https://maps.google.com/?cid=0x0:0xea3c5d3d7991f2aa;
mall;mall;Kec. Lotu;Kabupaten Nias Utara, Sumatera Utara;Kabupaten Nias Utara, Sumatera Utara;SUMATERA UTARA;;Indonesia;;;;13.891.445;973.577.578;https://maps.google.com/?cid=0x0:0x33654c018df13e36;
mall;Pusat Perbelanjaan;Laoli Lian;99X3+HHV, Lawira Satua, Kec. Lotu, Kabupaten Nias Utara, Sumatera Utara 22851;Lawira Satua, Kec. Lotu, Kabupaten Nias Utara;SUMATERA UTARA;22851;Indonesia;82167075853;;;13.989.817;973.539.368;https://maps.google.com/?cid=0x0:0x56169d8728382d20;
mall;Pasar;Nisela Ponsel;99Q5+C78, Unnamed Road, Hilidundra, Kec. Lotu, Kabupaten Nias Utara, Sumatera Utara 22851;Unnamed Road, Hilidundra, Kec. Lotu, Kabupaten Nias Utara;SUMATERA UTARA;22851;Indonesia;85372937777;;;13.885.399;973.582.019;https://maps.google.com/?cid=0x0:0xea3c5d3d7991f2aa;
mall;Minimarket;Toko SERLIS Animer Mart;Desa Sawo, Kecamatan Sawo, Sawo, Kec. Lotu, Kabupaten Nias Utara, Sumatera Utara 22852;Kecamatan Sawo, Sawo, Kec. Lotu, Kabupaten Nias Utara;SUMATERA UTARA;22852;Indonesia;;;;14.978.481;973.986.284;https://maps.google.com/?cid=0x0:0xe28a7c0ae94fbb77;
mall;Pusat Perbelanjaan;UD KARYA ARNI JAYA;99Q5+3WQ, Jl. Arah Gunungsitoli-Lahewa, Hilidundra, Kec. Lotu, Kabupaten Nias Utara, Sumatera Utara 22851;Jl. Arah Gunungsitoli-Lahewa, Hilidundra, Kec. Lotu, Kabupaten Nias Utara;SUMATERA UTARA;22851;Indonesia;81265401399;;;13.877.136;973.598.439;https://maps.google.com/?cid=0x0:0xd34ae861af503bdf;
mall;Pusat Perbelanjaan;Japut*Shop;99P6+R98, Hilidundra, Kec. Lotu, Kabupaten Nias Utara, Sumatera Utara 22851;Hilidundra, Kec. Lotu, Kabupaten Nias Utara;SUMATERA UTARA;22851;Indonesia;85275799334;;;13.870.439;973.609.611;https://maps.google.com/?cid=0x0:0x69bc988a2d307720;
mall;Pusat Perbelanjaan;UD Temani maziaya;9CQ7+RR, Maziaya, Kec. Lotu, Kabupaten Nias Utara, Sumatera Utara 22852;Maziaya, Kec. Lotu, Kabupaten Nias Utara;SUMATERA UTARA;22852;Indonesia;82363697747;;;1.390.101;97.413.656;https://maps.google.com/?cid=0x0:0x589321fb0c4f1026;
mall;Pusat Perbelanjaan;UD.FAMO;Jl. Arah Gunungsitoli-Lahewa No.123, Sawo, Kec. Sawo, Kabupaten Nias Utara, Sumatera Utara 22852;Sawo, Kec. Sawo, Kabupaten Nias Utara;SUMATERA UTARA;22852;Indonesia;85370954526;;;14.975.658;973.958.237;https://maps.google.com/?cid=0x0:0xa3d261609741aea3;
mall;Minimarket;UD. RIDES;9CXW+8J4, Tetehosi Maziaya, Kec. Sitolu Ori, Kabupaten Nias Utara, Sumatera Utara 22852;Tetehosi Maziaya, Kec. Sitolu Ori, Kabupaten Nias Utara;SUMATERA UTARA;22852;Indonesia;81360789484;;;13.982.741;974.465.753;https://maps.google.com/?cid=0x0:0x3274d16d71b620af;
mall;Pusat Perbelanjaan;Ud. Umbunia Jln. Gowe Zalawa;99QQ+6P7, Fadoro Fulolo, Kec. Lotu, Kabupaten Nias Utara, Sumatera Utara 22852;Fadoro Fulolo, Kec. Lotu, Kabupaten Nias Utara;SUMATERA UTARA;22852;Indonesia;;;;13.880.442;97.389.285;https://maps.google.com/?cid=0x0:0x945f31c418dc56d;
mall;Pusat Perbelanjaan;UD. 90;CC8C+RQ3, Bogali, Hilisaloo, Kec. Sitolu Ori, Kabupaten Nias Utara, Sumatera Utara;Kabupaten Nias Utara, Sumatera Utara;SUMATERA UTARA;;Indonesia;85371089000;;;14.170.061;974.219.122;https://maps.google.com/?cid=0x0:0xde7f753845f8ce05;
mall;Pusat Perbelanjaan;UD. ANCY;99M6+W9G, Hilidundra, Kec. Lotu, Kabupaten Nias Utara, Sumatera Utara 22851;Hilidundra, Kec. Lotu, Kabupaten Nias Utara;SUMATERA UTARA;22851;Indonesia;;;;13.848.114;973.609.592;https://maps.google.com/?cid=0x0:0x2b8af54b1a9d57c6;
mall;Pusat Perbelanjaan;UD ROLLY;F9XW+6P5, Sawo, Kec. Sawo, Kabupaten Nias Utara, Sumatera Utara;Kabupaten Nias Utara, Sumatera Utara;SUMATERA UTARA;;Indonesia;85275752657;;;14.980.023;973.968.451;https://maps.google.com/?cid=0x0:0x4b58a4b71749482c;
mall;Tujuan Wisata;Hiligeo Majinge, Fadoro;CC3X+2HG, Umbubalodano, Kec. Sitolu Ori, Kabupaten Nias Utara, Sumatera Utara 22852;Umbubalodano, Kec. Sitolu Ori, Kabupaten Nias Utara;SUMATERA UTARA;22852;Indonesia;81372351165;;;14.025.503;974.489.531;https://maps.google.com/?cid=0x0:0xf2c9d1a8888daf9b;
mall;Toko umum;Ud delta sawo;F9XP+2RH, Lasara Sawo, Kec. Sawo, Kabupaten Nias Utara, Sumatera Utara;Kabupaten Nias Utara, Sumatera Utara;SUMATERA UTARA;;Indonesia;;;;1.497.573;973.871.129;https://maps.google.com/?cid=0x0:0xd8ed26b4782320ea;
mall;Toko Pakaian;Eiger Nagoya hill;993C+8QW, Unnamed Road, Dahana Hiligodu, Kec. Namohalu Esiwa, Kabupaten Nias Utara, Sumatera Utara 22816;Unnamed Road, Dahana Hiligodu, Kec. Namohalu Esiwa, Kabupaten Nias Utara;SUMATERA UTARA;22816;Indonesia;;;;13.533.587;973.719.482;https://maps.google.com/?cid=0x0:0x331af879adfa69bd;
mall;Pasar;Pasar SIMPANG EMPAT NAMOHALU ESIWA;Lasara, Kec. Namohalu Esiwa, Kabupaten Nias Utara, Sumatera Utara 22816;Kec. Namohalu Esiwa, Kabupaten Nias Utara;SUMATERA UTARA;22816;Indonesia;;;;13.515.821;974.050.691;https://maps.google.com/?cid=0x0:0x2464f9312e958cb6;
mall;Pusat Perbelanjaan;Pekan Sisobahili;8C4X+74X, Sisobahili, Kec. Namohalu Esiwa, Kabupaten Nias Utara, Sumatera Utara 22816;Sisobahili, Kec. Namohalu Esiwa, Kabupaten Nias Utara;SUMATERA UTARA;22816;Indonesia;;;;13.057.261;974.478.632;https://maps.google.com/?cid=0x0:0xd4b29fcb0427a4ae;
mall;mall;Sumatera Utara 22816;Kec. Namohalu Esiwa, Kabupaten Nias Utara, Sumatera Utara;Kabupaten Nias Utara, Sumatera Utara;SUMATERA UTARA;;Indonesia;;;;13.453.232;973.840.729;https://maps.google.com/?cid=0x0:0x13bcd8183011aa;
mall;Toko umum;UD.NENI Desa Laowowaga;kab, dusun IV, Laowowaga, Kec. Lahewa Tim., Kabupaten Nias Utara, Sumatera Utara 22851;dusun IV, Laowowaga, Kec. Lahewa Tim., Kabupaten Nias Utara;SUMATERA UTARA;22851;Indonesia;82162253066;;;12.894.863;973.605.464;https://maps.google.com/?cid=0x0:0x28406e5800293cb8;
mall;Pusat Perbelanjaan;Pekan Banua Sibohou;8F78+2RG, Banua Sibohou, Kec. Namohalu Esiwa, Kabupaten Nias Utara, Sumatera Utara 22817;Banua Sibohou, Kec. Namohalu Esiwa, Kabupaten Nias Utara;SUMATERA UTARA;22817;Indonesia;;;;13.125.615;974.670.916;https://maps.google.com/?cid=0x0:0x905454a45370a2af;
mall;mall;Kec. Namohalu Esiwa;Kabupaten Nias Utara, Sumatera Utara;Kabupaten Nias Utara, Sumatera Utara;SUMATERA UTARA;;Indonesia;;;;13.516.333;974.047.158;https://maps.google.com/?cid=0x0:0x704a4afe59371577;
mall;Pusat Perbelanjaan;A/i Beni Zalukhu;79V4+4RF, Laowowaga, Kec. Lahewa Tim., Kabupaten Nias Utara, Sumatera Utara;Kabupaten Nias Utara, Sumatera Utara;SUMATERA UTARA;;Indonesia;;;;12.928.235;973.570.576;https://maps.google.com/?cid=0x0:0x41e4d4f5eb2ab41d;
mall;Pusat Perbelanjaan;Pekan Dahana Sowu - Banua Sibohou;8F5P+WFV, Banua Sibohou, Kec. Namohalu Esiwa, Kabupaten Nias Utara, Sumatera Utara 22851;Banua Sibohou, Kec. Namohalu Esiwa, Kabupaten Nias Utara;SUMATERA UTARA;22851;Indonesia;;;;13.098.703;974.861.592;https://maps.google.com/?cid=0x0:0xa9a960d330a3963;
mall;Kedai Kopi;Perbatasan namohalu esiwa;8CW5+G5, Lasara, Kec. Namohalu Esiwa, Kabupaten Nias Utara, Sumatera Utara;Kabupaten Nias Utara, Sumatera Utara;SUMATERA UTARA;;Indonesia;81398999622;;;13.456.875;974.076.875;https://maps.google.com/?cid=0x0:0x6b4ef6b1d3129f59;
mall;Pusat Perbelanjaan;UD. Merlin;Dusun II Desa Lasara Kecamatan, Hili Goduhoya, Kecamaten Lahewa, Kabupaten Nias Utara, Sumatera Utara 22853;Hili Goduhoya, Kecamaten Lahewa, Kabupaten Nias Utara;SUMATERA UTARA;22853;Indonesia;82363270201;;;13.669.072;972.117.472;https://maps.google.com/?cid=0x0:0x53c6402a82d1ce43;
mall;Pasar;Nisela Ponsel;99Q5+C78, Unnamed Road, Hilidundra, Kec. Lotu, Kabupaten Nias Utara, Sumatera Utara 22851;Unnamed Road, Hilidundra, Kec. Lotu, Kabupaten Nias Utara;SUMATERA UTARA;22851;Indonesia;85372937777;;;13.885.399;973.582.019;https://maps.google.com/?cid=0x0:0xea3c5d3d7991f2aa;
mall;Pusat Perbelanjaan;Laoli Lian;99X3+HHV, Lawira Satua, Kec. Lotu, Kabupaten Nias Utara, Sumatera Utara 22851;Lawira Satua, Kec. Lotu, Kabupaten Nias Utara;SUMATERA UTARA;22851;Indonesia;82167075853;;;13.989.817;973.539.368;https://maps.google.com/?cid=0x0:0x56169d8728382d20;
mall;Pusat Perbelanjaan;UD.JELIS;9FQ6+MV4, Umbubalodano, Kec. Sitolu Ori, Kabupaten Nias Utara, Sumatera Utara 22852;Umbubalodano, Kec. Sitolu Ori, Kabupaten Nias Utara;SUMATERA UTARA;22852;Indonesia;85261987754;;;13.891.271;974.622.176;https://maps.google.com/?cid=0x0:0xc6e13932d333c342;
mall;Pusat Perbelanjaan;Warung RINDA Laowowaga;79V7+WH4, Unnamed Road, Laowowaga, Lahewa Timur, North Nias Regency, North Sumatra 22851;Unnamed Road, Laowowaga, Lahewa Timur, North Nias Regency;SUMATERA UTARA;22851;Indonesia;81269103634;;;12.947.626;973.639.399;https://maps.google.com/?cid=0x0:0x993ee309ed6f4c67;
mall;Pusat Perbelanjaan;UD Temani maziaya;9CQ7+RR, Maziaya, Kec. Lotu, Kabupaten Nias Utara, Sumatera Utara 22852;Maziaya, Kec. Lotu, Kabupaten Nias Utara;SUMATERA UTARA;22852;Indonesia;82363697747;;;1.390.101;97.413.656;https://maps.google.com/?cid=0x0:0x589321fb0c4f1026;
mall;Toko umum;UD.WIJER;797M+4P3, Dahana Alasa, Kec. Alasa, Kabupaten Nias Utara, Sumatera Utara 22861;Dahana Alasa, Kec. Alasa, Kabupaten Nias Utara;SUMATERA UTARA;22861;Indonesia;;;;12.627.537;973.842.857;https://maps.google.com/?cid=0x0:0xa24c406296772ad7;
mall;Pusat Perbelanjaan;UD. CLEMENT;8663+VV2, Holi, Kecamaten Lahewa, Kabupaten Nias Utara, Sumatera Utara 22853;Holi, Kecamaten Lahewa, Kabupaten Nias Utara;SUMATERA UTARA;22853;Indonesia;85277699827;;;13.121.326;972.046.262;https://maps.google.com/?cid=0x0:0x48c9b60336e33a0d;
mall;Pusat Perbelanjaan;Japut*Shop;99P6+R98, Hilidundra, Kec. Lotu, Kabupaten Nias Utara, Sumatera Utara 22851;Hilidundra, Kec. Lotu, Kabupaten Nias Utara;SUMATERA UTARA;22851;Indonesia;85275799334;;;13.870.439;973.609.611;https://maps.google.com/?cid=0x0:0x69bc988a2d307720;
mall;Pusat Perbelanjaan;Simson Daeli;67G8+JH, Lauru Fadoro, Kec. Afulu, Kabupaten Nias Utara, Sumatera Utara;Kabupaten Nias Utara, Sumatera Utara;SUMATERA UTARA;;Indonesia;81370401313;;;12.265.244;972.664.675;https://maps.google.com/?cid=0x0:0x6a37bc47f5ec52ae;
mall;Pusat Perbelanjaan;Ud. Umbunia Jln. Gowe Zalawa;99QQ+6P7, Fadoro Fulolo, Kec. Lotu, Kabupaten Nias Utara, Sumatera Utara 22852;Fadoro Fulolo, Kec. Lotu, Kabupaten Nias Utara;SUMATERA UTARA;22852;Indonesia;;;;13.880.442;97.389.285;https://maps.google.com/?cid=0x0:0x945f31c418dc56d;
mall;Pusat Perbelanjaan;UD KARYA ARNI JAYA;99Q5+3WQ, Jl. Arah Gunungsitoli-Lahewa, Hilidundra, Kec. Lotu, Kabupaten Nias Utara, Sumatera Utara 22851;Jl. Arah Gunungsitoli-Lahewa, Hilidundra, Kec. Lotu, Kabupaten Nias Utara;SUMATERA UTARA;22851;Indonesia;81265401399;;;13.877.136;973.598.439;https://maps.google.com/?cid=0x0:0xd34ae861af503bdf;
mall;mall;Sumatera Utara 22817;Kabupaten Nias Utara, Sumatera Utara;Kabupaten Nias Utara, Sumatera Utara;SUMATERA UTARA;;Indonesia;;;;12.834.877;972.814.718;https://maps.google.com/?cid=0x0:0x99ac41ee85893cf2;
mall;Pasar;Pasar SIMPANG EMPAT NAMOHALU ESIWA;Lasara, Kec. Namohalu Esiwa, Kabupaten Nias Utara, Sumatera Utara 22816;Kec. Namohalu Esiwa, Kabupaten Nias Utara;SUMATERA UTARA;22816;Indonesia;;;;13.515.821;974.050.691;https://maps.google.com/?cid=0x0:0x2464f9312e958cb6;
mall;Pusat Perbelanjaan;Pekan Banua Sibohou;8F78+2RG, Banua Sibohou, Kec. Namohalu Esiwa, Kabupaten Nias Utara, Sumatera Utara 22817;Banua Sibohou, Kec. Namohalu Esiwa, Kabupaten Nias Utara;SUMATERA UTARA;22817;Indonesia;;;;13.125.615;974.670.916;https://maps.google.com/?cid=0x0:0x905454a45370a2af;
mall;Toko umum;UD.NENI Desa Laowowaga;kab, dusun IV, Laowowaga, Kec. Lahewa Tim., Kabupaten Nias Utara, Sumatera Utara 22851;dusun IV, Laowowaga, Kec. Lahewa Tim., Kabupaten Nias Utara;SUMATERA UTARA;22851;Indonesia;82162253066;;;12.894.863;973.605.464;https://maps.google.com/?cid=0x0:0x28406e5800293cb8;
mall;Pusat Perbelanjaan;Pekan Dahana Sowu - Banua Sibohou;8F5P+WFV, Banua Sibohou, Kec. Namohalu Esiwa, Kabupaten Nias Utara, Sumatera Utara 22851;Banua Sibohou, Kec. Namohalu Esiwa, Kabupaten Nias Utara;SUMATERA UTARA;22851;Indonesia;;;;13.098.703;974.861.592;https://maps.google.com/?cid=0x0:0xa9a960d330a3963;
mall;Kedai Kopi;Perbatasan namohalu esiwa;8CW5+G5, Lasara, Kec. Namohalu Esiwa, Kabupaten Nias Utara, Sumatera Utara;Kabupaten Nias Utara, Sumatera Utara;SUMATERA UTARA;;Indonesia;81398999622;;;13.456.875;974.076.875;https://maps.google.com/?cid=0x0:0x6b4ef6b1d3129f59;
mall;Toko Pakaian;Eiger Nagoya hill;993C+8QW, Unnamed Road, Dahana Hiligodu, Kec. Namohalu Esiwa, Kabupaten Nias Utara, Sumatera Utara 22816;Unnamed Road, Dahana Hiligodu, Kec. Namohalu Esiwa, Kabupaten Nias Utara;SUMATERA UTARA;22816;Indonesia;;;;13.533.587;973.719.482;https://maps.google.com/?cid=0x0:0x331af879adfa69bd;
mall;Pusat Perbelanjaan;A/i Beni Zalukhu;79V4+4RF, Laowowaga, Kec. Lahewa Tim., Kabupaten Nias Utara, Sumatera Utara;Kabupaten Nias Utara, Sumatera Utara;SUMATERA UTARA;;Indonesia;;;;12.928.235;973.570.576;https://maps.google.com/?cid=0x0:0x41e4d4f5eb2ab41d;
mall;Pusat Perbelanjaan;UD. RENI;Jl. Dusun II No.Desa, Lauru Fadoro, Kec. Afulu, Kabupaten Nias Utara, Sumatera Utara 22851;Lauru Fadoro, Kec. Afulu, Kabupaten Nias Utara;SUMATERA UTARA;22851;Indonesia;81263401322;;;12.438.017;9.726.382;https://maps.google.com/?cid=0x0:0xbfce79b6f4ece710;
mall;Toko;UD. HAGA;Afulu, Kec. Afulu, Kabupaten Nias Utara, Sumatera Utara 22857;Kec. Afulu, Kabupaten Nias Utara;SUMATERA UTARA;22857;Indonesia;85352383839;;;12.546.733;972.524.317;https://maps.google.com/?cid=0x0:0xef38820322abc830;
mall;Toko umum;UD.WIJER;797M+4P3, Dahana Alasa, Kec. Alasa, Kabupaten Nias Utara, Sumatera Utara 22861;Dahana Alasa, Kec. Alasa, Kabupaten Nias Utara;SUMATERA UTARA;22861;Indonesia;;;;12.627.537;973.842.857;https://maps.google.com/?cid=0x0:0xa24c406296772ad7;
mall;mall;Kec. Sawo;Kabupaten Nias Utara, Sumatera Utara;Kabupaten Nias Utara, Sumatera Utara;SUMATERA UTARA;;Indonesia;;;;1.497.956;973.989.135;https://maps.google.com/?cid=0x0:0x766aabcbebe65b39;
mall;Minimarket;Toko SERLIS Animer Mart;Desa Sawo, Kecamatan Sawo, Sawo, Kec. Lotu, Kabupaten Nias Utara, Sumatera Utara 22852;Kecamatan Sawo, Sawo, Kec. Lotu, Kabupaten Nias Utara;SUMATERA UTARA;22852;Indonesia;;;;14.978.481;973.986.284;https://maps.google.com/?cid=0x0:0xe28a7c0ae94fbb77;
mall;Pusat Perbelanjaan;UD.FAMO;Jl. Arah Gunungsitoli-Lahewa No.123, Sawo, Kec. Sawo, Kabupaten Nias Utara, Sumatera Utara 22852;Sawo, Kec. Sawo, Kabupaten Nias Utara;SUMATERA UTARA;22852;Indonesia;85370954526;;;14.975.658;973.958.237;https://maps.google.com/?cid=0x0:0xa3d261609741aea3;
mall;Pasar;Pasar Pekan Sanawuyu;FC26+M3P, Unnamed Road, Sanawuyu, Kec. Sawo, Kabupaten Nias Utara, Sumatera Utara 22852;Unnamed Road, Sanawuyu, Kec. Sawo, Kabupaten Nias Utara;SUMATERA UTARA;22852;Indonesia;;;;14.517.009;974.101.889;https://maps.google.com/?cid=0x0:0x675c07cd13bc2c52;
mall;Pusat Perbelanjaan;UD. KIRO;GC27+QFJ, Seriwau, Kec. Sawo, Kabupaten Nias Utara, Sumatera Utara;Kabupaten Nias Utara, Sumatera Utara;SUMATERA UTARA;;Indonesia;;;;15.019.697;974.136.435;https://maps.google.com/?cid=0x0:0x3b4567aae9743f3;
mall;Pusat Perbelanjaan;UD ROLLY;F9XW+6P5, Sawo, Kec. Sawo, Kabupaten Nias Utara, Sumatera Utara;Kabupaten Nias Utara, Sumatera Utara;SUMATERA UTARA;;Indonesia;85275752657;;;14.980.023;973.968.451;https://maps.google.com/?cid=0x0:0x4b58a4b71749482c;
mall;Toko umum;Ud delta sawo;F9XP+2RH, Lasara Sawo, Kec. Sawo, Kabupaten Nias Utara, Sumatera Utara;Kabupaten Nias Utara, Sumatera Utara;SUMATERA UTARA;;Indonesia;;;;1.497.573;973.871.129;https://maps.google.com/?cid=0x0:0xd8ed26b4782320ea;
mall;Pusat Perbelanjaan;UD.Arsan;GC36+384, Jl. Arah Gunungsitoli-Lahewa, Seriwau, Kec. Sawo, Kabupaten Nias Utara, Sumatera Utara 22852;Jl. Arah Gunungsitoli-Lahewa, Seriwau, Kec. Sawo, Kabupaten Nias Utara;SUMATERA UTARA;22852;Indonesia;;;;15.026.272;974.108.272;https://maps.google.com/?cid=0x0:0x1fde6c91615b85d0;
mall;Pusat Perbelanjaan;Suzuya Mall Marelan;Jl. Marelan Raya No.207, Tanah Enam Ratus, Kec. Medan Marelan, Kota Medan, Sumatera Utara 20243;Tanah Enam Ratus, Kec. Medan Marelan, Kota Medan;SUMATERA UTARA;20243;Indonesia;6188810707;;;36.783.197;986.572.295;https://maps.google.com/?cid=0x0:0xb9d1c8237d6468c7;
mall;Pusat Perbelanjaan;Suzuya Merdeka Mall;Jl. Merdeka No.365, Pardomuan, Kec. Siantar Tim., Kota Pematang Siantar, Sumatera Utara 21136;Pardomuan, Kec. Siantar Tim., Kota Pematang Siantar;SUMATERA UTARA;21136;Indonesia;;;;29.617.357;990.728.387;https://maps.google.com/?cid=0x0:0xb0f117e79d0984e4;
mall;Pusat Perbelanjaan;Suzuya Tanjung Morawa. SM;Jalan Medan - Lubuk Pakam, Dusun IV Jl. Tj. Morawa No.KM. 17, Tj. Morawa A, Kec. Tj. Morawa, Kabupaten Deli Serdang, Sumatera Utara 20511;Dusun IV Jl. Tj. Morawa No.KM. 17, Tj. Morawa A, Kec. Tj. Morawa, Kabupaten Deli Serdang;SUMATERA UTARA;20511;Indonesia;617943122;;;35.264.099;987.967.316;https://maps.google.com/?cid=0x0:0x4356f378223ca6d9;
mall;mall;UD.RESTA;Jl. Arah Gunungsitoli-Lahewa No.94, Sawo, Kec. Sawo, Kabupaten Nias Utara, Sumatera Utara 22852;Sawo, Kec. Sawo, Kabupaten Nias Utara;SUMATERA UTARA;22852;Indonesia;;;;14.978.429;973.985.287;https://maps.google.com/?cid=0x0:0x7832eb6459671536;
mall;Pusat Perbelanjaan;Sawo Collection;Pusat Grosir Blok A Tanah Abang Lantai 5 Los G No. 48, JL Fachrudin, No. 1, Kp. Bali, Jakarta Pusat, Kota Jakarta Pusat, Daerah Khusus Ibukota Jakarta 10250;JL Fachrudin, No. 1, Kp. Bali, Jakarta Pusat, Kota Jakarta Pusat;SUMATERA UTARA;10250;Indonesia;2123570001;;;-61.876.163;106.815.267;https://maps.google.com/?cid=0x0:0xa8f06d2edeeec93d;
mall;Pusat Perbelanjaan;UD.Netha;FCX3+HC, Seriwau, Kec. Sawo, Kabupaten Nias Utara, Sumatera Utara;Kabupaten Nias Utara, Sumatera Utara;SUMATERA UTARA;;Indonesia;;;;14.989.961;974.035.631;https://maps.google.com/?cid=0x0:0xffc15f00b5cb5429;
mall;Perhentian bus;Jalan Sawo Manila;Pejaten Bar., Ps. Minggu, Kota Jakarta Selatan, Daerah Khusus Ibukota Jakarta;Kota Jakarta Selatan, Daerah Khusus Ibukota Jakarta;SUMATERA UTARA;;Indonesia;;;;-627.943;10.683.685;https://maps.google.com/?cid=0x0:0xbae7f3875a232726;
mall;Pusat Perbelanjaan;Mall Kota Kasablanka;Jl. Raya Casablanca No.Kav 88, Menteng Dalam, Kec. Tebet, Kota Jakarta Selatan, Daerah Khusus Ibukota Jakarta 12870;Menteng Dalam, Kec. Tebet, Kota Jakarta Selatan;SUMATERA UTARA;12870;Indonesia;2129465000;;;-62.240.353;1.068.425.979;https://maps.google.com/?cid=0x0:0xaf54cb631563acce;
mall;Pusat Perbelanjaan;Plaza Indonesia;Jl. M.H. Thamrin No.Kav.28-30, Gondangdia, Kec. Menteng, Kota Jakarta Pusat, Daerah Khusus Ibukota Jakarta 10350;Gondangdia, Kec. Menteng, Kota Jakarta Pusat;SUMATERA UTARA;10350;Indonesia;2129920000;;;-61.935.977;1.068.219.468;https://maps.google.com/?cid=0x0:0x7d7fe17ad64a053f;
mall;Perhentian bus;Gg. Sawo 2;Penggilingan, Kec. Cakung, Kota Jakarta Timur, Daerah Khusus Ibukota Jakarta;Kota Jakarta Timur, Daerah Khusus Ibukota Jakarta;SUMATERA UTARA;;Indonesia;;;;-620.167;10.693.518;https://maps.google.com/?cid=0x0:0xa010ec35e0f4f376;
mall;mall;Kec. Sitolu Ori;Kabupaten Nias Utara, Sumatera Utara;Kabupaten Nias Utara, Sumatera Utara;SUMATERA UTARA;;Indonesia;;;;13.987.456;974.439.582;https://maps.google.com/?cid=0x0:0xe9e1d2f552ca917e;
mall;Pusat Perbelanjaan;UD.JELIS;9FQ6+MV4, Umbubalodano, Kec. Sitolu Ori, Kabupaten Nias Utara, Sumatera Utara 22852;Umbubalodano, Kec. Sitolu Ori, Kabupaten Nias Utara;SUMATERA UTARA;22852;Indonesia;85261987754;;;13.891.271;974.622.176;https://maps.google.com/?cid=0x0:0xc6e13932d333c342;
mall;Pusat Perbelanjaan;UD. RESTU ZEND;CF2R+R89, Umbubalodano, Kec. Sitolu Ori, Kabupaten Nias Utara, Sumatera Utara 22852;Umbubalodano, Kec. Sitolu Ori, Kabupaten Nias Utara;SUMATERA UTARA;22852;Indonesia;82276860885;;;14.020.364;9.749.087;https://maps.google.com/?cid=0x0:0x6991dd2969abd89f;
mall;Minimarket;UD. RIDES;9CXW+8J4, Tetehosi Maziaya, Kec. Sitolu Ori, Kabupaten Nias Utara, Sumatera Utara 22852;Tetehosi Maziaya, Kec. Sitolu Ori, Kabupaten Nias Utara;SUMATERA UTARA;22852;Indonesia;81360789484;;;13.982.741;974.465.753;https://maps.google.com/?cid=0x0:0x3274d16d71b620af;
mall;Pusat Perbelanjaan;UD. Damar;jl. gunungsitoli-lotu km. 25,6, Umbubalodano, Kec. Sitolu Ori, Kabupaten Nias Utara, Sumatera Utara 22852;Umbubalodano, Kec. Sitolu Ori, Kabupaten Nias Utara;SUMATERA UTARA;22852;Indonesia;81265128551;;;13.906.535;974.588.347;https://maps.google.com/?cid=0x0:0x6dacc0c9c16b5c48;
mall;Pusat Perbelanjaan;UD. 90;CC8C+RQ3, Bogali, Hilisaloo, Kec. Sitolu Ori, Kabupaten Nias Utara, Sumatera Utara;Kabupaten Nias Utara, Sumatera Utara;SUMATERA UTARA;;Indonesia;85371089000;;;14.170.061;974.219.122;https://maps.google.com/?cid=0x0:0xde7f753845f8ce05;
mall;Pusat Perbelanjaan;UD. B R A I N A R D;Hilisaloo, Kec. Sitolu Ori, Kabupaten Nias Utara, Sumatera Utara 22852;Kec. Sitolu Ori, Kabupaten Nias Utara;SUMATERA UTARA;22852;Indonesia;82370897770;;;13.906.677;974.585.118;https://maps.google.com/?cid=0x0:0x707a41565a666b0;
mall;Pusat Perbelanjaan;UD Temani maziaya;9CQ7+RR, Maziaya, Kec. Lotu, Kabupaten Nias Utara, Sumatera Utara 22852;Maziaya, Kec. Lotu, Kabupaten Nias Utara;SUMATERA UTARA;22852;Indonesia;82363697747;;;1.390.101;97.413.656;https://maps.google.com/?cid=0x0:0x589321fb0c4f1026;
mall;Pasar;Pasar Pekan Sanawuyu;FC26+M3P, Unnamed Road, Sanawuyu, Kec. Sawo, Kabupaten Nias Utara, Sumatera Utara 22852;Unnamed Road, Sanawuyu, Kec. Sawo, Kabupaten Nias Utara;SUMATERA UTARA;22852;Indonesia;;;;14.517.009;974.101.889;https://maps.google.com/?cid=0x0:0x675c07cd13bc2c52;
mall;Pusat Perbelanjaan;Laoli Lian;99X3+HHV, Lawira Satua, Kec. Lotu, Kabupaten Nias Utara, Sumatera Utara 22851;Lawira Satua, Kec. Lotu, Kabupaten Nias Utara;SUMATERA UTARA;22851;Indonesia;82167075853;;;13.989.817;973.539.368;https://maps.google.com/?cid=0x0:0x56169d8728382d20;
mall;Salon Kecantikan;Waspin Salon;CF9R+J65, Botolakha, Kec. Tuhemberua, Kabupaten Nias Utara, Sumatera Utara 22852;Botolakha, Kec. Tuhemberua, Kabupaten Nias Utara;SUMATERA UTARA;22852;Indonesia;85373406716;;;14.190.041;974.906.153;https://maps.google.com/?cid=0x0:0x59c1080327fff62c;
mall;Pusat Perbelanjaan;Japut*Shop;99P6+R98, Hilidundra, Kec. Lotu, Kabupaten Nias Utara, Sumatera Utara 22851;Hilidundra, Kec. Lotu, Kabupaten Nias Utara;SUMATERA UTARA;22851;Indonesia;85275799334;;;13.870.439;973.609.611;https://maps.google.com/?cid=0x0:0x69bc988a2d307720;
mall;Pasar;Nisela Ponsel;99Q5+C78, Unnamed Road, Hilidundra, Kec. Lotu, Kabupaten Nias Utara, Sumatera Utara 22851;Unnamed Road, Hilidundra, Kec. Lotu, Kabupaten Nias Utara;SUMATERA UTARA;22851;Indonesia;85372937777;;;13.885.399;973.582.019;https://maps.google.com/?cid=0x0:0xea3c5d3d7991f2aa;
mall;Pusat Perbelanjaan;Ud. Umbunia Jln. Gowe Zalawa;99QQ+6P7, Fadoro Fulolo, Kec. Lotu, Kabupaten Nias Utara, Sumatera Utara 22852;Fadoro Fulolo, Kec. Lotu, Kabupaten Nias Utara;SUMATERA UTARA;22852;Indonesia;;;;13.880.442;97.389.285;https://maps.google.com/?cid=0x0:0x945f31c418dc56d;
mall;Pusat Perbelanjaan;UD. Leon;FF2V+W78, Hilimbowo Siofabanua, Alooa, Kec. Tuhemberua, Kabupaten Nias Utara, Sumatera Utara 22852;Hilimbowo Siofabanua, Alooa, Kec. Tuhemberua, Kabupaten Nias Utara;SUMATERA UTARA;22852;Indonesia;85296458322;;;14.522.783;974.931.951;https://maps.google.com/?cid=0x0:0x760ed58c2461cea3;
mall;Pasar;Pasar Kec. Tuhemberua;Jl. Arah Sawo, Km 35.1, Silima Banua, Kec. Tuhemberua, Kabupaten Nias Utara, Sumatera Utara 22852;Km 35.1, Silima Banua, Kec. Tuhemberua, Kabupaten Nias Utara;SUMATERA UTARA;22852;Indonesia;;;;14.698.904;974.422.362;https://maps.google.com/?cid=0x0:0xda0e78cb1cf845a0;
mall;Pusat Perbelanjaan;UD LOSEFAS;CFGP+HP4, Botolakha, Kec. Tuhemberua, Kabupaten Nias Utara, Sumatera Utara;Kabupaten Nias Utara, Sumatera Utara;SUMATERA UTARA;;Indonesia;;;;14.263.771;974.868.283;https://maps.google.com/?cid=0x0:0x5bd5ebc61bc49e60;
mall;Sekolah Menengah Pertama;SMP NEGERI 1 SITOLU ORI;Unnamed Road, Kota Gunungsitoli, 22852, Hilimbosi, Kec. Sitolu Ori, Kabupaten Nias Utara, Sumatera Utara 22852;Kota Gunungsitoli,;SUMATERA UTARA;22852;Indonesia;;;;14.041.591;974.977.818;https://maps.google.com/?cid=0x0:0x73554f5fb8418829;
mall;mall;Kec. Tugala Oyo;Kabupaten Nias Utara, Sumatera Utara;Kabupaten Nias Utara, Sumatera Utara;SUMATERA UTARA;;Indonesia;;;;11.465.578;974.559.257;https://maps.google.com/?cid=0x0:0x1602712094e01383;
mall;Pusat Perbelanjaan;UD.RIEL;4FR3+X6F, Teolo, Kec. Tugala Oyo, Kabupaten Nias Utara, Sumatera Utara 22861;Teolo, Kec. Tugala Oyo, Kabupaten Nias Utara;SUMATERA UTARA;22861;Indonesia;;;;11.424.479;97.453.053;https://maps.google.com/?cid=0x0:0xe9be4df944ac93ae;
mall;Pusat Perbelanjaan;UD. AERYL HULU;5F6C+GMC, Desa, Ononazara, Kec. Tugala Oyo, Kabupaten Nias Utara, Sumatera Utara 22861;Desa, Ononazara, Kec. Tugala Oyo, Kabupaten Nias Utara;SUMATERA UTARA;22861;Indonesia;85296698019;;;11.613.212;97.471.648;https://maps.google.com/?cid=0x0:0xb271a7f8aa3bf168;
mall;mall;Jembatan tugala oyo;5F27+P38, Ononazara, Kec. Tugala Oyo, Kabupaten Nias Utara, Sumatera Utara 22861;Ononazara, Kec. Tugala Oyo, Kabupaten Nias Utara;SUMATERA UTARA;22861;Indonesia;;;;11.517.951;974.627.085;https://maps.google.com/?cid=0x0:0x9db8ef718cc5a5cc;
mall;Pusat Perbelanjaan;UD.4 putri;Harefa, Kec. Tugala Oyo, Kabupaten Nias Utara, Sumatera Utara 22862;Kec. Tugala Oyo, Kabupaten Nias Utara;SUMATERA UTARA;22862;Indonesia;81260969686;;;11.287.002;974.669.928;https://maps.google.com/?cid=0x0:0xd7b3570f261c134f;
mall;mall;Kec. Tuhemberua;Kabupaten Nias Utara, Sumatera Utara;Kabupaten Nias Utara, Sumatera Utara;SUMATERA UTARA;;Indonesia;;;;14.702.731;974.498.504;https://maps.google.com/?cid=0x0:0x9c5633cc92cfd2d7;
mall;Pasar;Pasar Kec. Tuhemberua;Jl. Arah Sawo, Km 35.1, Silima Banua, Kec. Tuhemberua, Kabupaten Nias Utara, Sumatera Utara 22852;Km 35.1, Silima Banua, Kec. Tuhemberua, Kabupaten Nias Utara;SUMATERA UTARA;22852;Indonesia;;;;14.698.904;974.422.362;https://maps.google.com/?cid=0x0:0xda0e78cb1cf845a0;
mall;Pusat Perbelanjaan;UD. NEMA;CFW3+Q83, Banuagea, Kec. Tuhemberua, Kabupaten Nias Utara, Sumatera Utara 22852;Banuagea, Kec. Tuhemberua, Kabupaten Nias Utara;SUMATERA UTARA;22852;Indonesia;85276358693;;;14.471.718;9.745.319;https://maps.google.com/?cid=0x0:0xb3573b1cc6a4c84f;
mall;Salon Kecantikan;Waspin Salon;CF9R+J65, Botolakha, Kec. Tuhemberua, Kabupaten Nias Utara, Sumatera Utara 22852;Botolakha, Kec. Tuhemberua, Kabupaten Nias Utara;SUMATERA UTARA;22852;Indonesia;85373406716;;;14.190.041;974.906.153;https://maps.google.com/?cid=0x0:0x59c1080327fff62c;
mall;Pusat Perbelanjaan;UD ANGELINE;Banuagea, Kec. Tuhemberua, Kabupaten Nias Utara, Sumatera Utara;Kabupaten Nias Utara, Sumatera Utara;SUMATERA UTARA;;Indonesia;81327528762;;;14.700.132;974.503.331;https://maps.google.com/?cid=0x0:0x72c11ef4149a6c3a;
mall;Pusat Perbelanjaan;UD. RESTU ZEND;CF2R+R89, Umbubalodano, Kec. Sitolu Ori, Kabupaten Nias Utara, Sumatera Utara 22852;Umbubalodano, Kec. Sitolu Ori, Kabupaten Nias Utara;SUMATERA UTARA;22852;Indonesia;82276860885;;;14.020.364;9.749.087;https://maps.google.com/?cid=0x0:0x6991dd2969abd89f;
mall;Pusat Perbelanjaan;UD.JELIS;9FQ6+MV4, Umbubalodano, Kec. Sitolu Ori, Kabupaten Nias Utara, Sumatera Utara 22852;Umbubalodano, Kec. Sitolu Ori, Kabupaten Nias Utara;SUMATERA UTARA;22852;Indonesia;85261987754;;;13.891.271;974.622.176;https://maps.google.com/?cid=0x0:0xc6e13932d333c342;
mall;Pusat Perbelanjaan;UD. B R A I N A R D;Hilisaloo, Kec. Sitolu Ori, Kabupaten Nias Utara, Sumatera Utara 22852;Kec. Sitolu Ori, Kabupaten Nias Utara;SUMATERA UTARA;22852;Indonesia;82370897770;;;13.906.677;974.585.118;https://maps.google.com/?cid=0x0:0x707a41565a666b0;
mall;Pusat Perbelanjaan;UD LOSEFAS;CFGP+HP4, Botolakha, Kec. Tuhemberua, Kabupaten Nias Utara, Sumatera Utara;Kabupaten Nias Utara, Sumatera Utara;SUMATERA UTARA;;Indonesia;;;;14.263.771;974.868.283;https://maps.google.com/?cid=0x0:0x5bd5ebc61bc49e60;
mall;Minimarket;UD. RIDES;9CXW+8J4, Tetehosi Maziaya, Kec. Sitolu Ori, Kabupaten Nias Utara, Sumatera Utara 22852;Tetehosi Maziaya, Kec. Sitolu Ori, Kabupaten Nias Utara;SUMATERA UTARA;22852;Indonesia;81360789484;;;13.982.741;974.465.753;https://maps.google.com/?cid=0x0:0x3274d16d71b620af;
mall;Pusat Perbelanjaan;UD. Damar;jl. gunungsitoli-lotu km. 25,6, Umbubalodano, Kec. Sitolu Ori, Kabupaten Nias Utara, Sumatera Utara 22852;Umbubalodano, Kec. Sitolu Ori, Kabupaten Nias Utara;SUMATERA UTARA;22852;Indonesia;81265128551;;;13.906.535;974.588.347;https://maps.google.com/?cid=0x0:0x6dacc0c9c16b5c48;
mall;Minimarket;Toko SERLIS Animer Mart;Desa Sawo, Kecamatan Sawo, Sawo, Kec. Lotu, Kabupaten Nias Utara, Sumatera Utara 22852;Kecamatan Sawo, Sawo, Kec. Lotu, Kabupaten Nias Utara;SUMATERA UTARA;22852;Indonesia;;;;14.978.481;973.986.284;https://maps.google.com/?cid=0x0:0xe28a7c0ae94fbb77;
mall;Toko bahan makanan;UD LOSEFAS;CFVX+V8, Siofa Banua, Kec. Tuhemberua, Kabupaten Nias Utara, Sumatera Utara;Kabupaten Nias Utara, Sumatera Utara;SUMATERA UTARA;;Indonesia;;;;14.447.442;974.982.685;https://maps.google.com/?cid=0x0:0x31f5dabce72db9a0;
mall;Toko bahan makanan;UD. Oza Damai;Jl. Tuhemberua No.96, Ladara, Kec. Sawo, Kabupaten Nias Utara, Sumatera Utara;Kabupaten Nias Utara, Sumatera Utara;SUMATERA UTARA;;Indonesia;;;;14.709.316;974.630.514;https://maps.google.com/?cid=0x0:0x7027e2698f2613d2;
mall;Pasar;Pasar Pekan Sanawuyu;FC26+M3P, Unnamed Road, Sanawuyu, Kec. Sawo, Kabupaten Nias Utara, Sumatera Utara 22852;Unnamed Road, Sanawuyu, Kec. Sawo, Kabupaten Nias Utara;SUMATERA UTARA;22852;Indonesia;;;;14.517.009;974.101.889;https://maps.google.com/?cid=0x0:0x675c07cd13bc2c52;
mall;Pusat Perbelanjaan;UD Temani maziaya;9CQ7+RR, Maziaya, Kec. Lotu, Kabupaten Nias Utara, Sumatera Utara 22852;Maziaya, Kec. Lotu, Kabupaten Nias Utara;SUMATERA UTARA;22852;Indonesia;82363697747;;;1.390.101;97.413.656;https://maps.google.com/?cid=0x0:0x589321fb0c4f1026;
supermarket;supermarket;SIFAOROASI AFULU;76RM+5WM, Ombolata Afulu, Kec. Afulu, Kabupaten Nias Utara, Sumatera Utara;Kabupaten Nias Utara, Sumatera Utara;SUMATERA UTARA;;Indonesia;;;;12.904.549;972.347.817;https://maps.google.com/?cid=0x0:0x4363838e2391b47a;
supermarket;Toko umum;Winter jaya zalukhu;865X+85P, Sisobahili, Kec. Afulu, Kabupaten Nias Utara, Sumatera Utara;Kabupaten Nias Utara, Sumatera Utara;SUMATERA UTARA;;Indonesia;;;;13.083.295;972.479.426;https://maps.google.com/?cid=0x0:0x33b07b011c48fd07;
supermarket;supermarket;SIFAOROASI AFULU;76RM+5WM, Ombolata Afulu, Kec. Afulu, Kabupaten Nias Utara, Sumatera Utara;Kabupaten Nias Utara, Sumatera Utara;SUMATERA UTARA;;Indonesia;;;;12.904.549;972.347.817;https://maps.google.com/?cid=0x0:0x4363838e2391b47a;
supermarket;supermarket;Sumatera Utara 22857;Kec. Afulu, Kabupaten Nias Utara, Sumatera Utara;Kabupaten Nias Utara, Sumatera Utara;SUMATERA UTARA;;Indonesia;;;;12.548.965;972.598.913;https://maps.google.com/?cid=0x0:0x7b808d1bfbbe7383;
supermarket;supermarket;Kec. Afulu;Kabupaten Nias Utara, Sumatera Utara;Kabupaten Nias Utara, Sumatera Utara;SUMATERA UTARA;;Indonesia;;;;12.638.546;972.450.477;https://maps.google.com/?cid=0x0:0x37ed228075273cba;
supermarket;supermarket;Sumatera Utara 22861;Kabupaten Nias Utara, Sumatera Utara;Kabupaten Nias Utara, Sumatera Utara;SUMATERA UTARA;;Indonesia;;;;11.639.401;97.394.882;https://maps.google.com/?cid=0x0:0x146e7c32a97f723;
supermarket;Toko;Pasar Alasa;6CH6+V3J, Jl. Ombolata, Ombolata, Kec. Tugala Oyo, Kabupaten Nias Utara, Sumatera Utara 22861;Jl. Ombolata, Ombolata, Kec. Tugala Oyo, Kabupaten Nias Utara;SUMATERA UTARA;22861;Indonesia;;;;12.297.058;974.101.445;https://maps.google.com/?cid=0x0:0x51864fbe0192dd22;
supermarket;Toko bahan makanan;UD. SUKA MAJU;7C47+95R, Mazingo, Kec. Alasa Talumuzoi, Kabupaten Nias Utara, Sumatera Utara 22814;Mazingo, Kec. Alasa Talumuzoi, Kabupaten Nias Utara;SUMATERA UTARA;22814;Indonesia;82360036901;;;12.559.869;974.128.978;https://maps.google.com/?cid=0x0:0x61d41556c3140fa9;
supermarket;Minimarket;UD. Asran Maju;Jl. Diponegoro No.75, Tetehosi, Kecamatan Idanogawo, Kabupaten Nias, Sumatera Utara 22872;Tetehosi, Kecamatan Idanogawo, Kabupaten Nias;SUMATERA UTARA;22872;Indonesia;85275554193;;;10.266.938;977.715.478;https://maps.google.com/?cid=0x0:0xaec618fd8626c5a6;
supermarket;Toko bahan makanan;UD. Kurnia;6CH4+69H, Jl. Ombolata, Banua Sibohou I, Kec. Tugala Oyo, Kabupaten Nias Utara, Sumatera Utara 22861;Jl. Ombolata, Banua Sibohou I, Kec. Tugala Oyo, Kabupaten Nias Utara;SUMATERA UTARA;22861;Indonesia;;;;12.280.723;974.059.974;https://maps.google.com/?cid=0x0:0x2d02e95cba6a340b;
supermarket;Kantor Pemerintah;Kantor Kecamatan Alasa;6CH6+J28, Jl. Ombolata, Ombolata, Kec. Tugala Oyo, Kabupaten Nias Utara, Sumatera Utara 22861;Jl. Ombolata, Ombolata, Kec. Tugala Oyo, Kabupaten Nias Utara;SUMATERA UTARA;22861;Indonesia;;;;12.290.434;974.100.658;https://maps.google.com/?cid=0x0:0xa72bf10300b4166;
supermarket;Toko;Cinta Mart;Jl. Diponegoro No.83, Tetehosi, Kecamatan Idanogawo, Kabupaten Nias, Sumatera Utara 22872;Tetehosi, Kecamatan Idanogawo, Kabupaten Nias;SUMATERA UTARA;22872;Indonesia;;;;10.266.668;977.717.121;https://maps.google.com/?cid=0x0:0xe5b75e354314622b;
supermarket;Toko Swalayan;UD. Ferdi;4C23+R7, Siwawo, Kec. Tugala Oyo, Kabupaten Nias Utara, Sumatera Utara;Kabupaten Nias Utara, Sumatera Utara;SUMATERA UTARA;;Indonesia;81265446515;;;11.014.946;974.033.817;https://maps.google.com/?cid=0x0:0x7f0a288c6cb998ba;
supermarket;Toko bahan makanan;Swalayan Materna Pasar Yaahowu;7JQC+H38, Saombo, Kec. Gunungsitoli, Kota Gunungsitoli, Sumatera Utara;Kota Gunungsitoli, Sumatera Utara;SUMATERA UTARA;;Indonesia;;;;12.889.207;976.202.038;https://maps.google.com/?cid=0x0:0xcf3c204cb3ef9412;
supermarket;Komplek perumahan;Lasara;6CR3+8GQ, Ombolata, Kec. Alasa, Kabupaten Nias Utara, Sumatera Utara;Kabupaten Nias Utara, Sumatera Utara;SUMATERA UTARA;;Indonesia;;;;12.408.364;974.038.484;https://maps.google.com/?cid=0x0:0xb9214160ec6acd4a;
supermarket;Toko Swalayan;UD. SEZ6;2CMH+8CQ, Jln, Lasara Faga, Kec. Mandrehe Bar., Kabupaten Nias Barat, Sumatera Utara 22812;Jln, Lasara Faga, Kec. Mandrehe Bar., Kabupaten Nias Barat;SUMATERA UTARA;22812;Indonesia;;;;10.334.601;974.281.841;https://maps.google.com/?cid=0x0:0x2f0e183709fa2a1b;
supermarket;Pusat Perbelanjaan;UD. RETHA;WH2J+GXG, Lolowau, Kec. Lalowau, Kabupaten Nias Selatan, Sumatera Utara 22864;Lolowau, Kec. Lalowau, Kabupaten Nias Selatan;SUMATERA UTARA;22864;Indonesia;81384503929;;;0.9013094;975.824.423;https://maps.google.com/?cid=0x0:0xceba32412dbd9bff;
supermarket;Toko;UD saudara;WQ72+5MJ, Lawindra, Kec. Umbunasi, Kabupaten Nias Selatan, Sumatera Utara;Kabupaten Nias Selatan, Sumatera Utara;SUMATERA UTARA;;Indonesia;;;;0.9127547;977.515.981;https://maps.google.com/?cid=0x0:0x253278672fb8f76e;
supermarket;Toko bahan makanan;Ina Kuru;7H52+WHC, Dima, Kec. Hiliduho, Kabupaten Nias, Sumatera Utara;Kabupaten Nias, Sumatera Utara;SUMATERA UTARA;;Indonesia;;;;12.598.176;975.513.767;https://maps.google.com/?cid=0x0:0x171feca135213788;
supermarket;Toko Swalayan;Lolo Anaa Idanegawo;2QH7+WCM, Tetehosi, Kecamatan Idanogawo, Kabupaten Nias, Sumatera Utara 22872;Tetehosi, Kecamatan Idanogawo, Kabupaten Nias;SUMATERA UTARA;22872;Indonesia;81270265274;;;10.298.434;977.635.324;https://maps.google.com/?cid=0x0:0x2c39ec5d342201eb;
supermarket;Toko umum;UD. Tesa;2C6X+QPQ, Sisobambowo, Mandrehe, Kabupaten Nias Barat, Sumatera Utara, Kode, Sisobambowo, Kec. Mandrehe, Kabupaten Nias Barat, Sumatera Utara 22862;Sisobambowo, Mandrehe, Kabupaten Nias Barat, Sumatera Utara, Kode, Sisobambowo, Kec. Mandrehe, Kabupaten Nias Barat;SUMATERA UTARA;22862;Indonesia;;;;10.119.664;974.493.543;https://maps.google.com/?cid=0x0:0xe3123b86857c60e;
supermarket;Pusat Perbelanjaan;UD.putra;XJPC+VWP, Hilizoliga, Kec. Lalowau, Kabupaten Nias Selatan, Sumatera Utara 22864;Hilizoliga, Kec. Lalowau, Kabupaten Nias Selatan;SUMATERA UTARA;22864;Indonesia;85367320924;;;0.9872172;976.223.348;https://maps.google.com/?cid=0x0:0xff055320a94996b0;
supermarket;Minimarket;UD Amanda;898V+JXR, Berua, Kec. Namohalu Esiwa, Kabupaten Nias Utara, Sumatera Utara 22816;Berua, Kec. Namohalu Esiwa, Kabupaten Nias Utara;SUMATERA UTARA;22816;Indonesia;8222258055;;;13.166.036;97.394.882;https://maps.google.com/?cid=0x0:0x1e9d0197a35378f1;
supermarket;Toko;UD. Vide;2CVM+95R, Orahili Badalu, Kec. Mandrehe Bar., Kabupaten Nias Barat, Sumatera Utara 22862;Orahili Badalu, Kec. Mandrehe Bar., Kabupaten Nias Barat;SUMATERA UTARA;22862;Indonesia;82276995851;;;10.434.785;974.328.889;https://maps.google.com/?cid=0x0:0xf8a5d3e8b3e9c93a;
supermarket;Komplek perumahan;Rumah Stephan Gulo;XJW9+53X, Jl. Lōlōwa'u, Ehosakhozi, Kec. Huruna, Kabupaten Nias Selatan, Sumatera Utara 22852;Jl. Lōlōwa'u, Ehosakhozi, Kec. Huruna, Kabupaten Nias Selatan;SUMATERA UTARA;22852;Indonesia;;;;0.9953803;976.178.279;https://maps.google.com/?cid=0x0:0x7f49955f40605a9a;
supermarket;Minimarket;UD. ZOAR;Lolohia, Kec. Mandrehe, Kabupaten Nias Barat, Sumatera Utara 22861;Kec. Mandrehe, Kabupaten Nias Barat;SUMATERA UTARA;22861;Indonesia;81396206400;;;10.214.349;97.463.328;https://maps.google.com/?cid=0x0:0x618e5e3f286fcc5d;
supermarket;Pusat Perbelanjaan;Alaska Supermarket;WHVX+4PW, Lamokato, Kec. Kolaka, Kabupaten Kolaka, Sulawesi Tenggara;Kabupaten Kolaka, Sulawesi Tenggara;SUMATERA UTARA;;Indonesia;;;;-40.571.371;121.599.325;https://maps.google.com/?cid=0x0:0xc0dcc174e4651626;
supermarket;Toko bahan makanan;Top Swalayan Kolaka;Laloeha, Kec. Kolaka, Kabupaten Kolaka, Sulawesi Tenggara 93561;Kec. Kolaka, Kabupaten Kolaka;SUMATERA UTARA;93561;Indonesia;82347453535;;;-40.603.204;1.216.112.796;https://maps.google.com/?cid=0x0:0xf40e49d7c66c766f;
supermarket;supermarket;Sumatera Utara 22814;Saombo, Kec. Gunungsitoli, Kota Gunungsitoli, Sumatera Utara;Kota Gunungsitoli, Sumatera Utara;SUMATERA UTARA;;Indonesia;;;;12.897.758;976.188.016;https://maps.google.com/?cid=0x0:0x72677cb0cc3dbd55;
supermarket;Toko bahan makanan;Swalayan Materna Pasar Yaahowu;7JQC+H38, Saombo, Kec. Gunungsitoli, Kota Gunungsitoli, Sumatera Utara;Kota Gunungsitoli, Sumatera Utara;SUMATERA UTARA;;Indonesia;;;;12.889.207;976.202.038;https://maps.google.com/?cid=0x0:0xcf3c204cb3ef9412;
supermarket;Toko bahan makanan;UD. SUKA MAJU;7C47+95R, Mazingo, Kec. Alasa Talumuzoi, Kabupaten Nias Utara, Sumatera Utara 22814;Mazingo, Kec. Alasa Talumuzoi, Kabupaten Nias Utara;SUMATERA UTARA;22814;Indonesia;82360036901;;;12.559.869;974.128.978;https://maps.google.com/?cid=0x0:0x61d41556c3140fa9;
supermarket;Toko;Pasar Alasa;6CH6+V3J, Jl. Ombolata, Ombolata, Kec. Tugala Oyo, Kabupaten Nias Utara, Sumatera Utara 22861;Jl. Ombolata, Ombolata, Kec. Tugala Oyo, Kabupaten Nias Utara;SUMATERA UTARA;22861;Indonesia;;;;12.297.058;974.101.445;https://maps.google.com/?cid=0x0:0x51864fbe0192dd22;
supermarket;Toko Elektronik;All Vapor;7JQ9+RXH, Saombo, Kec. Gunungsitoli, Kota Gunungsitoli, Sumatera Utara;Kota Gunungsitoli, Sumatera Utara;SUMATERA UTARA;;Indonesia;;;;12.895.595;976.199.802;https://maps.google.com/?cid=0x0:0x1633e85982eb1d37;
supermarket;Minimarket;UD AZAS;9CQ3+6VQ, Maziaya, Kec. Lotu, Kabupaten Nias Utara, Sumatera Utara 22852;Maziaya, Kec. Lotu, Kabupaten Nias Utara;SUMATERA UTARA;22852;Indonesia;;;;1.388.079;974.047.429;https://maps.google.com/?cid=0x0:0xa6431f6a70dd25e9;
supermarket;supermarket;Sumatera Utara 22853;Kecamaten Lahewa, Kabupaten Nias Utara, Sumatera Utara;Kabupaten Nias Utara, Sumatera Utara;SUMATERA UTARA;;Indonesia;;;;13.266.447;972.329.255;https://maps.google.com/?cid=0x0:0xc7df9697de637a01;
supermarket;Tujuan Wisata;Pasar LAHEWA;Jl. Soekarno No.136, Fadoro Sitolu Hili, Kecamaten Lahewa, Kabupaten Nias Utara, Sumatera Utara 22853;Fadoro Sitolu Hili, Kecamaten Lahewa, Kabupaten Nias Utara;SUMATERA UTARA;22853;Indonesia;;;;13.943.641;97.168.883;https://maps.google.com/?cid=0x0:0xa38e4ae7fbfb447b;
supermarket;Toko;Toko Aan;95R9+RR4, Ps. Lahewa, Kecamaten Lahewa, Kabupaten Nias Utara, Sumatera Utara 22853;Ps. Lahewa, Kecamaten Lahewa, Kabupaten Nias Utara;SUMATERA UTARA;22853;Indonesia;;;;13.920.076;971.695.849;https://maps.google.com/?cid=0x0:0x33ba512e37471b73;
supermarket;Toko bahan makanan;Ud. BaloHili;95F8+5GX, Jl. Lahewa-Afulu, Hili Hati, Kecamaten Lahewa, Kabupaten Nias Utara, Sumatera Utara 22853;Jl. Lahewa-Afulu, Hili Hati, Kecamaten Lahewa, Kabupaten Nias Utara;SUMATERA UTARA;22853;Indonesia;82297115215;;;13.729.806;971.663.465;https://maps.google.com/?cid=0x0:0xed388872032b6b47;
supermarket;Minimarket;Indomaret Lahewa;Jl. Soekarno No.106, Ombolata Ulu, Kecamaten Lahewa, Kabupaten Nias Utara, Sumatera Utara 22853;Ombolata Ulu, Kecamaten Lahewa, Kabupaten Nias Utara;SUMATERA UTARA;22853;Indonesia;;;;13.912.176;971.699.336;https://maps.google.com/?cid=0x0:0x746468ea81ff4a51;
supermarket;Toko bahan makanan;Toko Mega Lase;9845+M7V, Jl. Idanöndrawa, Tugala Lauru, Kec. Lahewa Tim., Kabupaten Nias Utara, Sumatera Utara 22851;Jl. Idanöndrawa, Tugala Lauru, Kec. Lahewa Tim., Kabupaten Nias Utara;SUMATERA UTARA;22851;Indonesia;;;;13.567.401;973.081.721;https://maps.google.com/?cid=0x0:0x2c889dd1078a14ab;
supermarket;Toko umum;UD. SELFI;Jl. Soekarno No.4, Ps. Lahewa, Kecamaten Lahewa, Kabupaten Nias Utara, Sumatera Utara 22853;Ps. Lahewa, Kecamaten Lahewa, Kabupaten Nias Utara;SUMATERA UTARA;22853;Indonesia;;;;139.681;971.679.669;https://maps.google.com/?cid=0x0:0x587efa9abbc2ef94;
supermarket;Mi;KEDAI MIE ORDELL LASE;Ps. Lahewa, Kecamaten Lahewa, Kabupaten Nias Utara, Sumatera Utara 22853;Kecamaten Lahewa, Kabupaten Nias Utara;SUMATERA UTARA;22853;Indonesia;82276111700;;;13.910.698;971.735.056;https://maps.google.com/?cid=0x0:0xfdc677f3d2332006;
supermarket;Apotek;Toko D'law I.Andy Tel;Jalan Sukarno No.32 Kelurahan Pasar Lahewa Kecamatan Lahewa, Ps. Lahewa, Sumatera Utara, Kabupaten Nias Utara, Sumatera Utara 22853;Ps. Lahewa, Sumatera Utara, Kabupaten Nias Utara;SUMATERA UTARA;22853;Indonesia;81284847340;;;13.934.369;971.689.846;https://maps.google.com/?cid=0x0:0xebc12eab6370a951;
supermarket;Pemasok gas industri;UD. ALDO;95C8+6M5, Hili Hati, Kecamaten Lahewa, Kabupaten Nias Utara, Sumatera Utara 22853;Hili Hati, Kecamaten Lahewa, Kabupaten Nias Utara;SUMATERA UTARA;22853;Indonesia;;;;13.705.008;971.667.207;https://maps.google.com/?cid=0x0:0x8998494768ae0698;
supermarket;Toko;UD NurYama;C43C+F6Q, Jl. Raya Toyolawa, Hili Gawolo, Kecamaten Lahewa, Kabupaten Nias Utara, Sumatera Utara 22853;Jl. Raya Toyolawa, Hili Gawolo, Kecamaten Lahewa, Kabupaten Nias Utara;SUMATERA UTARA;22853;Indonesia;;;;14.037.249;971.206.138;https://maps.google.com/?cid=0x0:0x482027e31ab2e01d;
supermarket;Toko bahan makanan;Swalayan Materna Pasar Yaahowu;7JQC+H38, Saombo, Kec. Gunungsitoli, Kota Gunungsitoli, Sumatera Utara;Kota Gunungsitoli, Sumatera Utara;SUMATERA UTARA;;Indonesia;;;;12.889.207;976.202.038;https://maps.google.com/?cid=0x0:0xcf3c204cb3ef9412;
supermarket;Toko bahan makanan;Toko Rizal;FF7R+PFM, Hilimbowo Siofabanua, Alooa, Kec. Tuhemberua, Kabupaten Nias Utara, Sumatera Utara 22852;Hilimbowo Siofabanua, Alooa, Kec. Tuhemberua, Kabupaten Nias Utara;SUMATERA UTARA;22852;Indonesia;85282851162;;;14.643.289;974.911.785;https://maps.google.com/?cid=0x0:0x8342f2b558227abb;
supermarket;supermarket;UD. JETRO;9FG3+W5, Tetehosi Maziaya, Kec. Sitolu Ori, Kabupaten Nias Utara, Sumatera Utara;Kabupaten Nias Utara, Sumatera Utara;SUMATERA UTARA;;Indonesia;81260130623;;;1.377.321;97.452.997;https://maps.google.com/?cid=0x0:0xebd756e9393d1f8c;
supermarket;Toko umum;Winter jaya zalukhu;865X+85P, Sisobahili, Kec. Afulu, Kabupaten Nias Utara, Sumatera Utara;Kabupaten Nias Utara, Sumatera Utara;SUMATERA UTARA;;Indonesia;;;;13.083.295;972.479.426;https://maps.google.com/?cid=0x0:0x33b07b011c48fd07;
supermarket;Toko;Grosir fesra MENDROFA;6H37+G7G, Dahadano Botombawo, Kec. Botomuzoi, Kabupaten Nias, Sumatera Utara;Kabupaten Nias, Sumatera Utara;SUMATERA UTARA;;Indonesia;;;;12.038.152;975.631.911;https://maps.google.com/?cid=0x0:0x1afaf1ae8378ce79;
supermarket;Pasar;Pasar SIMPANG EMPAT NAMOHALU ESIWA;Lasara, Kec. Namohalu Esiwa, Kabupaten Nias Utara, Sumatera Utara 22816;Kec. Namohalu Esiwa, Kabupaten Nias Utara;SUMATERA UTARA;22816;Indonesia;;;;13.515.821;974.050.691;https://maps.google.com/?cid=0x0:0x2464f9312e958cb6;
supermarket;Grosir Barang Kelontong;UD. ANEKA PRATAMA;Hilidundra, Kec. Lotu, Kabupaten Nias Utara, Sumatera Utara 22851;Kec. Lotu, Kabupaten Nias Utara;SUMATERA UTARA;22851;Indonesia;;;;13.878.514;973.596.305;https://maps.google.com/?cid=0x0:0x178cccc5bff6ac48;
supermarket;Toko bahan makanan;Ina Kuru;7H52+WHC, Dima, Kec. Hiliduho, Kabupaten Nias, Sumatera Utara;Kabupaten Nias, Sumatera Utara;SUMATERA UTARA;;Indonesia;;;;12.598.176;975.513.767;https://maps.google.com/?cid=0x0:0x171feca135213788;
supermarket;Pusat Perbelanjaan;UD.FAREL;Jalan Afia-Nazalou Dusun III, Lasara Sowu, Kec. Gunungsitoli Alo'oa, Kota Gunungsitoli, Sumatera Utara 22851;Lasara Sowu, Kec. Gunungsitoli Alo'oa, Kota Gunungsitoli;SUMATERA UTARA;22851;Indonesia;;;;13.349.665;975.224.796;https://maps.google.com/?cid=0x0:0x5b000c0a7e1fa87;
supermarket;Minimarket;UD. Asran Maju;Jl. Diponegoro No.75, Tetehosi, Kecamatan Idanogawo, Kabupaten Nias, Sumatera Utara 22872;Tetehosi, Kecamatan Idanogawo, Kabupaten Nias;SUMATERA UTARA;22872;Indonesia;85275554193;;;10.266.938;977.715.478;https://maps.google.com/?cid=0x0:0xaec618fd8626c5a6;
supermarket;Pusat Perbelanjaan;UD. RETHA;WH2J+GXG, Lolowau, Kec. Lalowau, Kabupaten Nias Selatan, Sumatera Utara 22864;Lolowau, Kec. Lalowau, Kabupaten Nias Selatan;SUMATERA UTARA;22864;Indonesia;81384503929;;;0.9013094;975.824.423;https://maps.google.com/?cid=0x0:0xceba32412dbd9bff;
supermarket;Toko;Cinta Mart;Jl. Diponegoro No.83, Tetehosi, Kecamatan Idanogawo, Kabupaten Nias, Sumatera Utara 22872;Tetehosi, Kecamatan Idanogawo, Kabupaten Nias;SUMATERA UTARA;22872;Indonesia;;;;10.266.668;977.717.121;https://maps.google.com/?cid=0x0:0xe5b75e354314622b;
supermarket;Sekolah Dasar;SD Swasta Daya Baru Lahewa;95RC+5WX, Jl. Soekarno, Fadoro Sitolu Hili, Kecamaten Lahewa, Kabupaten Nias Utara, Sumatera Utara 22853;Jl. Soekarno, Fadoro Sitolu Hili, Kecamaten Lahewa, Kabupaten Nias Utara;SUMATERA UTARA;22853;Indonesia;;;;13.904.916;971.723.697;https://maps.google.com/?cid=0x0:0x38513d97f5e7885e;
supermarket;Grosir Barang Kelontong;UD.Nogar Zalukhu;7974+MR7, Ononamolo Alasa, Kec. Tugala Oyo, Kabupaten Nias Utara, Sumatera Utara 22851;Ononamolo Alasa, Kec. Tugala Oyo, Kabupaten Nias Utara;SUMATERA UTARA;22851;Indonesia;81261429188;;;12.641.704;973.570.576;https://maps.google.com/?cid=0x0:0x9d0b7a7acbb0ef47;
supermarket;Masjid;Mesjid jami'lafau;C627+QC4, Siheneasi, Kecamaten Lahewa, Kabupaten Nias Utara, Sumatera Utara;Kabupaten Nias Utara, Sumatera Utara;SUMATERA UTARA;;Indonesia;;;;14.018.775;972.135.926;https://maps.google.com/?cid=0x0:0xd0dab736c30e3fd5;
supermarket;Pusat Perbelanjaan;UD. Laow;Jl. Bakaru, Lolozasai, Kec. Gido, Kabupaten Nias, Sumatera Utara 22871;Lolozasai, Kec. Gido, Kabupaten Nias;SUMATERA UTARA;22871;Indonesia;;;;11.456.205;977.087.923;https://maps.google.com/?cid=0x0:0x95eabf3a96303b18;
supermarket;Pusat Perbelanjaan;UD.putra;XJPC+VWP, Hilizoliga, Kec. Lalowau, Kabupaten Nias Selatan, Sumatera Utara 22864;Hilizoliga, Kec. Lalowau, Kabupaten Nias Selatan;SUMATERA UTARA;22864;Indonesia;85367320924;;;0.9872172;976.223.348;https://maps.google.com/?cid=0x0:0xff055320a94996b0;
supermarket;Toko bahan makanan;UD. Marturia;Jl. Arah Gunungsitoli-Lahewa No.42, Seriwau, Kec. Sawo, Kabupaten Nias Utara, Sumatera Utara 22852;Seriwau, Kec. Sawo, Kabupaten Nias Utara;SUMATERA UTARA;22852;Indonesia;;;;14.981.059;974.001.919;https://maps.google.com/?cid=0x0:0xe03b69ee248dfb34;
supermarket;supermarket;Kec. Lahewa Tim.;Kabupaten Nias Utara, Sumatera Utara;Kabupaten Nias Utara, Sumatera Utara;SUMATERA UTARA;;Indonesia;;;;13.690.959;973.010.539;https://maps.google.com/?cid=0x0:0x1c45965c923c9076;
supermarket;Tujuan Wisata;Pasar LAHEWA;Jl. Soekarno No.136, Fadoro Sitolu Hili, Kecamaten Lahewa, Kabupaten Nias Utara, Sumatera Utara 22853;Fadoro Sitolu Hili, Kecamaten Lahewa, Kabupaten Nias Utara;SUMATERA UTARA;22853;Indonesia;;;;13.943.641;97.168.883;https://maps.google.com/?cid=0x0:0xa38e4ae7fbfb447b;
supermarket;Toko bahan makanan;Toko Mega Lase;9845+M7V, Jl. Idanöndrawa, Tugala Lauru, Kec. Lahewa Tim., Kabupaten Nias Utara, Sumatera Utara 22851;Jl. Idanöndrawa, Tugala Lauru, Kec. Lahewa Tim., Kabupaten Nias Utara;SUMATERA UTARA;22851;Indonesia;;;;13.567.401;973.081.721;https://maps.google.com/?cid=0x0:0x2c889dd1078a14ab;
supermarket;Grosir Barang Kelontong;UD.Nogar Zalukhu;7974+MR7, Ononamolo Alasa, Kec. Tugala Oyo, Kabupaten Nias Utara, Sumatera Utara 22851;Ononamolo Alasa, Kec. Tugala Oyo, Kabupaten Nias Utara;SUMATERA UTARA;22851;Indonesia;81261429188;;;12.641.704;973.570.576;https://maps.google.com/?cid=0x0:0x9d0b7a7acbb0ef47;
supermarket;Toko umum;UD. JASMAN;Jl. Ombölata Langi, Lukhu Lase, Kec. Lahewa Tim., Kabupaten Nias Utara, Sumatera Utara 22851;Lukhu Lase, Kec. Lahewa Tim., Kabupaten Nias Utara;SUMATERA UTARA;22851;Indonesia;81361972966;;;13.212.798;97.333.117;https://maps.google.com/?cid=0x0:0x9ca0c52db9cb7690;
supermarket;Minimarket;UD Amanda;898V+JXR, Berua, Kec. Namohalu Esiwa, Kabupaten Nias Utara, Sumatera Utara 22816;Berua, Kec. Namohalu Esiwa, Kabupaten Nias Utara;SUMATERA UTARA;22816;Indonesia;8222258055;;;13.166.036;97.394.882;https://maps.google.com/?cid=0x0:0x1e9d0197a35378f1;
supermarket;Toko Daging;Aine Potong;Tefao, Kec. Lahewa Tim., Kabupaten Nias Utara, Sumatera Utara 22858;Kec. Lahewa Tim., Kabupaten Nias Utara;SUMATERA UTARA;22858;Indonesia;81375660010;;;14.028.457;972.789.396;https://maps.google.com/?cid=0x0:0xaeee7b57f292c668;
supermarket;Pasar;Pasar SIMPANG EMPAT NAMOHALU ESIWA;Lasara, Kec. Namohalu Esiwa, Kabupaten Nias Utara, Sumatera Utara 22816;Kec. Namohalu Esiwa, Kabupaten Nias Utara;SUMATERA UTARA;22816;Indonesia;;;;13.515.821;974.050.691;https://maps.google.com/?cid=0x0:0x2464f9312e958cb6;
supermarket;Toko;Manu Gadedi;9892+JCC, Muzoi, Kec. Lahewa Tim., Kabupaten Nias Utara, Sumatera Utara;Kabupaten Nias Utara, Sumatera Utara;SUMATERA UTARA;;Indonesia;;;;13.692.524;973.015.603;https://maps.google.com/?cid=0x0:0xe70e7886078cf892;
supermarket;Toko bahan makanan;UD. SUKA MAJU;7C47+95R, Mazingo, Kec. Alasa Talumuzoi, Kabupaten Nias Utara, Sumatera Utara 22814;Mazingo, Kec. Alasa Talumuzoi, Kabupaten Nias Utara;SUMATERA UTARA;22814;Indonesia;82360036901;;;12.559.869;974.128.978;https://maps.google.com/?cid=0x0:0x61d41556c3140fa9;
supermarket;Minimarket;Alfamidi Lahewa;Jl. Soekarno No.102, Ombolata Ulu, Kecamaten Lahewa, Kabupaten Nias Utara, Sumatera Utara 22853;Ombolata Ulu, Kecamaten Lahewa, Kabupaten Nias Utara;SUMATERA UTARA;22853;Indonesia;;;;13.913.604;971.700.302;https://maps.google.com/?cid=0x0:0xdec87861820bd197;
supermarket;Toko Swalayan;UD rachella;Jl. Ombolata, Banua Sibohou I, Kec. Tugala Oyo, Kabupaten Nias Utara, Sumatera Utara 22861;Banua Sibohou I, Kec. Tugala Oyo, Kabupaten Nias Utara;SUMATERA UTARA;22861;Indonesia;81285662888;;;12.278.443;974.055.612;https://maps.google.com/?cid=0x0:0x7f8a44e920257ef0;
supermarket;Toko Daging;RUMAH POTONG B2 PAK NOGAR;Jl. Lahewa, RT.004/RW.002, Ononamolo Alasa, Kec. Alasa, Kabupaten Nias Utara, Sumatera Utara 22861;RT.004/RW.002, Ononamolo Alasa, Kec. Alasa, Kabupaten Nias Utara;SUMATERA UTARA;22861;Indonesia;81261429188;;;12.720.006;973.785.757;https://maps.google.com/?cid=0x0:0xc7b6365c1a86f478;
supermarket;Pusat Perbelanjaan;UD.LORENS PONSEL;Jl. Simpang Empat, Lasara, Kec. Namohalu Esiwa, Kabupaten Nias Utara, Sumatera Utara 22816;Lasara, Kec. Namohalu Esiwa, Kabupaten Nias Utara;SUMATERA UTARA;22816;Indonesia;85373236000;;;1.351.268;974.058.505;https://maps.google.com/?cid=0x0:0xf0f749330d71cdf6;
supermarket;Komplek perumahan;Rumah A/i. Lestari Harefa. ( SEKRETARIAT FALUKHA ITA ZUI);997J+F29, Unnamed Road, Baho, Kec. Lotu, Kabupaten Nias Utara, Sumatera Utara 22816;Unnamed Road, Baho, Kec. Lotu, Kabupaten Nias Utara;SUMATERA UTARA;22816;Indonesia;82260708017;;;13.636.736;973.801.031;https://maps.google.com/?cid=0x0:0xb2f071d22b2871a4;
supermarket;Apotek;Toko D'law I.Andy Tel;Jalan Sukarno No.32 Kelurahan Pasar Lahewa Kecamatan Lahewa, Ps. Lahewa, Sumatera Utara, Kabupaten Nias Utara, Sumatera Utara 22853;Ps. Lahewa, Sumatera Utara, Kabupaten Nias Utara;SUMATERA UTARA;22853;Indonesia;81284847340;;;13.934.369;971.689.846;https://maps.google.com/?cid=0x0:0xebc12eab6370a951;
supermarket;Minimarket;Indomaret Lahewa;Jl. Soekarno No.106, Ombolata Ulu, Kecamaten Lahewa, Kabupaten Nias Utara, Sumatera Utara 22853;Ombolata Ulu, Kecamaten Lahewa, Kabupaten Nias Utara;SUMATERA UTARA;22853;Indonesia;;;;13.912.176;971.699.336;https://maps.google.com/?cid=0x0:0x746468ea81ff4a51;
supermarket;Toko bahan makanan;UD. Marturia;Jl. Arah Gunungsitoli-Lahewa No.42, Seriwau, Kec. Sawo, Kabupaten Nias Utara, Sumatera Utara 22852;Seriwau, Kec. Sawo, Kabupaten Nias Utara;SUMATERA UTARA;22852;Indonesia;;;;14.981.059;974.001.919;https://maps.google.com/?cid=0x0:0xe03b69ee248dfb34;
supermarket;supermarket;Fabe;8849+WP2, Lukhu Lase, Kec. Lahewa Tim., Kabupaten Nias Utara, Sumatera Utara;Kabupaten Nias Utara, Sumatera Utara;SUMATERA UTARA;;Indonesia;;;;1.307.172;97.319.449;https://maps.google.com/?cid=0x0:0x1b64be1d877fe025;
supermarket;supermarket;Ud Boris Muzoi;C857+4G5, Tim., Muzoi, Kec. Lahewa Tim., Kabupaten Nias Utara, Sumatera Utara 22851;Tim., Muzoi, Kec. Lahewa Tim., Kabupaten Nias Utara;SUMATERA UTARA;22851;Indonesia;;;;1.407.769;973.138.554;https://maps.google.com/?cid=0x0:0xc67abda5189c77cc;
supermarket;Toko bahan makanan;UD. Kurnia;6CH4+69H, Jl. Ombolata, Banua Sibohou I, Kec. Tugala Oyo, Kabupaten Nias Utara, Sumatera Utara 22861;Jl. Ombolata, Banua Sibohou I, Kec. Tugala Oyo, Kabupaten Nias Utara;SUMATERA UTARA;22861;Indonesia;;;;12.280.723;974.059.974;https://maps.google.com/?cid=0x0:0x2d02e95cba6a340b;
supermarket;Toko umum;Winter jaya zalukhu;865X+85P, Sisobahili, Kec. Afulu, Kabupaten Nias Utara, Sumatera Utara;Kabupaten Nias Utara, Sumatera Utara;SUMATERA UTARA;;Indonesia;;;;13.083.295;972.479.426;https://maps.google.com/?cid=0x0:0x33b07b011c48fd07;
supermarket;Minimarket;UD AZAS;9CQ3+6VQ, Maziaya, Kec. Lotu, Kabupaten Nias Utara, Sumatera Utara 22852;Maziaya, Kec. Lotu, Kabupaten Nias Utara;SUMATERA UTARA;22852;Indonesia;;;;1.388.079;974.047.429;https://maps.google.com/?cid=0x0:0xa6431f6a70dd25e9;
supermarket;supermarket;UD.HARAPAN BARU;C923+RMJ, Jl. Sawö, Lolofaoso, Kec. Lotu, Kabupaten Nias Utara, Sumatera Utara 22851;Jl. Sawö, Lolofaoso, Kec. Lotu, Kabupaten Nias Utara;SUMATERA UTARA;22851;Indonesia;;;;14.020.941;973.541.454;https://maps.google.com/?cid=0x0:0x88161c71ff678d9c;
supermarket;supermarket;Kec. Lotu;Kabupaten Nias Utara, Sumatera Utara;Kabupaten Nias Utara, Sumatera Utara;SUMATERA UTARA;;Indonesia;;;;13.891.445;973.577.578;https://maps.google.com/?cid=0x0:0x33654c018df13e36;
supermarket;Grosir Barang Kelontong;UD. ANEKA PRATAMA;Hilidundra, Kec. Lotu, Kabupaten Nias Utara, Sumatera Utara 22851;Kec. Lotu, Kabupaten Nias Utara;SUMATERA UTARA;22851;Indonesia;;;;13.878.514;973.596.305;https://maps.google.com/?cid=0x0:0x178cccc5bff6ac48;
supermarket;Minimarket;Indomaret Lotu Nias Utara;99Q5+8CV, Jl.Lotu Gunungsitoli, Kec. Lotu, Kabupaten Nias Utara, Sumatera Utara 22851;Jl.Lotu Gunungsitoli, Kec. Lotu, Kabupaten Nias Utara;SUMATERA UTARA;22851;Indonesia;;;;13.883.625;973.585.469;https://maps.google.com/?cid=0x0:0xe382053b16589bc0;
supermarket;supermarket;UD.HARAPAN BARU;C923+RMJ, Jl. Sawö, Lolofaoso, Kec. Lotu, Kabupaten Nias Utara, Sumatera Utara 22851;Jl. Sawö, Lolofaoso, Kec. Lotu, Kabupaten Nias Utara;SUMATERA UTARA;22851;Indonesia;;;;14.020.941;973.541.454;https://maps.google.com/?cid=0x0:0x88161c71ff678d9c;
supermarket;Minimarket;Alfamidi Lotu;98HW+HGC, Hilidundra, Kec. Lotu, Kabupaten Nias Utara, Sumatera Utara 22851;Hilidundra, Kec. Lotu, Kabupaten Nias Utara;SUMATERA UTARA;22851;Indonesia;;;;13.789.343;973.462.545;https://maps.google.com/?cid=0x0:0x9714c8eac170fc69;
supermarket;Toko Swalayan;The FoodHall - Grand Indonesia;Grand Indonesia shopping West Mall, Jl. M.H. Thamrin No.1 LG Floor, Kb. Melati, Kecamatan Tanah Abang, Kota Jakarta Pusat, Daerah Khusus Ibukota Jakarta 10350;Jl. M.H. Thamrin No.1 LG Floor, Kb. Melati, Kecamatan Tanah Abang, Kota Jakarta Pusat;SUMATERA UTARA;10350;Indonesia;85973703191;;;-61.954.464;1.068.197.669;https://maps.google.com/?cid=0x0:0x4a1351e22f783bb;
supermarket;Minimarket;FoodMax Supermarket;Jl. R.A. Kartini No.16, Cilandak Bar., Kec. Cilandak, Kota Jakarta Selatan, Daerah Khusus Ibukota Jakarta 12430;Cilandak Bar., Kec. Cilandak, Kota Jakarta Selatan;SUMATERA UTARA;12430;Indonesia;;;;-62.926.283;1.067.862.876;https://maps.google.com/?cid=0x0:0x2127dec7d159dc41;
supermarket;Toko Swalayan;GS THE FRESH JATIBENING;Jl. Caman Raya No.7-24, RT.004/RW.003, Jatibening, Kec. Pd. Gede, Kota Bks, Jawa Barat 17412;RT.004/RW.003, Jatibening, Kec. Pd. Gede, Kota Bks;SUMATERA UTARA;17412;Indonesia;2184982211;;;-62.676.455;1.069.436.409;https://maps.google.com/?cid=0x0:0x2cdb50c3ee3206c;
supermarket;Toko Swalayan;Daily FoodHall Senayan Residence;Jl. Patal Senayan RT.1 No.5., Grogol Utara, Kebayoran Lama, RT.1/RW.7, Grogol Utara, Kec. Kby. Lama, Kota Jakarta Selatan, Daerah Khusus Ibukota Jakarta 12210;Grogol Utara, Kebayoran Lama, RT.1/RW.7, Grogol Utara, Kec. Kby. Lama, Kota Jakarta Selatan;SUMATERA UTARA;12210;Indonesia;;;;-62.220.449;1.067.937.299;https://maps.google.com/?cid=0x0:0x8fb46244e90f3158;
supermarket;Toko Swalayan;GS The Fresh Mampang;Jl. Buncit Raya No.301, Duren Tiga, Kec. Pancoran, Kota Jakarta Selatan, Daerah Khusus Ibukota Jakarta 12760;Duren Tiga, Kec. Pancoran, Kota Jakarta Selatan;SUMATERA UTARA;12760;Indonesia;2126961986;;;-6.256.991;106.828.987;https://maps.google.com/?cid=0x0:0x47a84d3b86619147;
supermarket;supermarket;Lotus Minimarket;Jalan Pembangunan Golf No 6A Rt 001 Rw 08 Kecamatan Cibinong, Ciriung, Kec. Cibinong, Kabupaten Bogor, Jawa Barat 16918;Ciriung, Kec. Cibinong, Kabupaten Bogor;SUMATERA UTARA;16918;Indonesia;218755395;;;-6.469.086;10.686.191;https://maps.google.com/?cid=0x0:0x20ae6aefcc90d9dc;
supermarket;Pasar;Pasar SIMPANG EMPAT NAMOHALU ESIWA;Lasara, Kec. Namohalu Esiwa, Kabupaten Nias Utara, Sumatera Utara 22816;Kec. Namohalu Esiwa, Kabupaten Nias Utara;SUMATERA UTARA;22816;Indonesia;;;;13.515.821;974.050.691;https://maps.google.com/?cid=0x0:0x2464f9312e958cb6;
supermarket;supermarket;Sumatera Utara 22816;Kec. Namohalu Esiwa, Kabupaten Nias Utara, Sumatera Utara;Kabupaten Nias Utara, Sumatera Utara;SUMATERA UTARA;;Indonesia;;;;13.453.232;973.840.729;https://maps.google.com/?cid=0x0:0x13bcd8183011aa;
supermarket;Grosir Barang Kelontong;UD.Nogar Zalukhu;7974+MR7, Ononamolo Alasa, Kec. Tugala Oyo, Kabupaten Nias Utara, Sumatera Utara 22851;Ononamolo Alasa, Kec. Tugala Oyo, Kabupaten Nias Utara;SUMATERA UTARA;22851;Indonesia;81261429188;;;12.641.704;973.570.576;https://maps.google.com/?cid=0x0:0x9d0b7a7acbb0ef47;
supermarket;Minimarket;UD Amanda;898V+JXR, Berua, Kec. Namohalu Esiwa, Kabupaten Nias Utara, Sumatera Utara 22816;Berua, Kec. Namohalu Esiwa, Kabupaten Nias Utara;SUMATERA UTARA;22816;Indonesia;8222258055;;;13.166.036;97.394.882;https://maps.google.com/?cid=0x0:0x1e9d0197a35378f1;
supermarket;Toko bahan makanan;UD. SUKA MAJU;7C47+95R, Mazingo, Kec. Alasa Talumuzoi, Kabupaten Nias Utara, Sumatera Utara 22814;Mazingo, Kec. Alasa Talumuzoi, Kabupaten Nias Utara;SUMATERA UTARA;22814;Indonesia;82360036901;;;12.559.869;974.128.978;https://maps.google.com/?cid=0x0:0x61d41556c3140fa9;
supermarket;Grosir Barang Kelontong;UD. ANEKA PRATAMA;Hilidundra, Kec. Lotu, Kabupaten Nias Utara, Sumatera Utara 22851;Kec. Lotu, Kabupaten Nias Utara;SUMATERA UTARA;22851;Indonesia;;;;13.878.514;973.596.305;https://maps.google.com/?cid=0x0:0x178cccc5bff6ac48;
supermarket;Pusat Perbelanjaan;UD.LORENS PONSEL;Jl. Simpang Empat, Lasara, Kec. Namohalu Esiwa, Kabupaten Nias Utara, Sumatera Utara 22816;Lasara, Kec. Namohalu Esiwa, Kabupaten Nias Utara;SUMATERA UTARA;22816;Indonesia;85373236000;;;1.351.268;974.058.505;https://maps.google.com/?cid=0x0:0xf0f749330d71cdf6;
supermarket;Komplek perumahan;Rumah A/i. Lestari Harefa. ( SEKRETARIAT FALUKHA ITA ZUI);997J+F29, Unnamed Road, Baho, Kec. Lotu, Kabupaten Nias Utara, Sumatera Utara 22816;Unnamed Road, Baho, Kec. Lotu, Kabupaten Nias Utara;SUMATERA UTARA;22816;Indonesia;82260708017;;;13.636.736;973.801.031;https://maps.google.com/?cid=0x0:0xb2f071d22b2871a4;
supermarket;supermarket;UD. JETRO;9FG3+W5, Tetehosi Maziaya, Kec. Sitolu Ori, Kabupaten Nias Utara, Sumatera Utara;Kabupaten Nias Utara, Sumatera Utara;SUMATERA UTARA;;Indonesia;81260130623;;;1.377.321;97.452.997;https://maps.google.com/?cid=0x0:0xebd756e9393d1f8c;
supermarket;Toko Daging;RUMAH POTONG B2 PAK NOGAR;Jl. Lahewa, RT.004/RW.002, Ononamolo Alasa, Kec. Alasa, Kabupaten Nias Utara, Sumatera Utara 22861;RT.004/RW.002, Ononamolo Alasa, Kec. Alasa, Kabupaten Nias Utara;SUMATERA UTARA;22861;Indonesia;81261429188;;;12.720.006;973.785.757;https://maps.google.com/?cid=0x0:0xc7b6365c1a86f478;
supermarket;supermarket;Sumatera Utara 22817;Kabupaten Nias Utara, Sumatera Utara;Kabupaten Nias Utara, Sumatera Utara;SUMATERA UTARA;;Indonesia;;;;12.834.877;972.814.718;https://maps.google.com/?cid=0x0:0x99ac41ee85893cf2;
supermarket;Pasar;Pasar SIMPANG EMPAT NAMOHALU ESIWA;Lasara, Kec. Namohalu Esiwa, Kabupaten Nias Utara, Sumatera Utara 22816;Kec. Namohalu Esiwa, Kabupaten Nias Utara;SUMATERA UTARA;22816;Indonesia;;;;13.515.821;974.050.691;https://maps.google.com/?cid=0x0:0x2464f9312e958cb6;
supermarket;Minimarket;UD Amanda;898V+JXR, Berua, Kec. Namohalu Esiwa, Kabupaten Nias Utara, Sumatera Utara 22816;Berua, Kec. Namohalu Esiwa, Kabupaten Nias Utara;SUMATERA UTARA;22816;Indonesia;8222258055;;;13.166.036;97.394.882;https://maps.google.com/?cid=0x0:0x1e9d0197a35378f1;
supermarket;Toko bahan makanan;UD. SUKA MAJU;7C47+95R, Mazingo, Kec. Alasa Talumuzoi, Kabupaten Nias Utara, Sumatera Utara 22814;Mazingo, Kec. Alasa Talumuzoi, Kabupaten Nias Utara;SUMATERA UTARA;22814;Indonesia;82360036901;;;12.559.869;974.128.978;https://maps.google.com/?cid=0x0:0x61d41556c3140fa9;
supermarket;Grosir;Yunieli Hia;898V+JXR, Dusun II Arolawolo Desa, Humenesihene'asi, Kabupaten Nias Utara;Kabupaten Nias Utara, Sumatera Utara;SUMATERA UTARA;;Indonesia;;;;13.166.036;97.394.882;https://maps.google.com/?cid=0x0:0xca034426ad8621ef;
supermarket;Pusat Perbelanjaan;UD.LORENS PONSEL;Jl. Simpang Empat, Lasara, Kec. Namohalu Esiwa, Kabupaten Nias Utara, Sumatera Utara 22816;Lasara, Kec. Namohalu Esiwa, Kabupaten Nias Utara;SUMATERA UTARA;22816;Indonesia;85373236000;;;1.351.268;974.058.505;https://maps.google.com/?cid=0x0:0xf0f749330d71cdf6;
supermarket;Toko umum;Winter jaya zalukhu;865X+85P, Sisobahili, Kec. Afulu, Kabupaten Nias Utara, Sumatera Utara;Kabupaten Nias Utara, Sumatera Utara;SUMATERA UTARA;;Indonesia;;;;13.083.295;972.479.426;https://maps.google.com/?cid=0x0:0x33b07b011c48fd07;
supermarket;Toko;Ud. GILBERT;Jalan arah Afulu No.km. 14, Lauru I Afulu, Kec. Afulu, Kabupaten Nias Utara, Sumatera Utara;Kabupaten Nias Utara, Sumatera Utara;SUMATERA UTARA;;Indonesia;;;;1.275.923;97.228.146;https://maps.google.com/?cid=0x0:0x88bf7c4e672b199d;
supermarket;Toko umum;UD. JASMAN;Jl. Ombölata Langi, Lukhu Lase, Kec. Lahewa Tim., Kabupaten Nias Utara, Sumatera Utara 22851;Lukhu Lase, Kec. Lahewa Tim., Kabupaten Nias Utara;SUMATERA UTARA;22851;Indonesia;81361972966;;;13.212.798;97.333.117;https://maps.google.com/?cid=0x0:0x9ca0c52db9cb7690;
supermarket;Pusat Perbelanjaan;UD.FAREL;Jalan Afia-Nazalou Dusun III, Lasara Sowu, Kec. Gunungsitoli Alo'oa, Kota Gunungsitoli, Sumatera Utara 22851;Lasara Sowu, Kec. Gunungsitoli Alo'oa, Kota Gunungsitoli;SUMATERA UTARA;22851;Indonesia;;;;13.349.665;975.224.796;https://maps.google.com/?cid=0x0:0x5b000c0a7e1fa87;
supermarket;Toko Daging;RUMAH POTONG B2 PAK NOGAR;Jl. Lahewa, RT.004/RW.002, Ononamolo Alasa, Kec. Alasa, Kabupaten Nias Utara, Sumatera Utara 22861;RT.004/RW.002, Ononamolo Alasa, Kec. Alasa, Kabupaten Nias Utara;SUMATERA UTARA;22861;Indonesia;81261429188;;;12.720.006;973.785.757;https://maps.google.com/?cid=0x0:0xc7b6365c1a86f478;
supermarket;supermarket;Kec. Sawo;Kabupaten Nias Utara, Sumatera Utara;Kabupaten Nias Utara, Sumatera Utara;SUMATERA UTARA;;Indonesia;;;;1.497.956;973.989.135;https://maps.google.com/?cid=0x0:0x766aabcbebe65b39;
supermarket;Toko bahan makanan;UD. Marturia;Jl. Arah Gunungsitoli-Lahewa No.42, Seriwau, Kec. Sawo, Kabupaten Nias Utara, Sumatera Utara 22852;Seriwau, Kec. Sawo, Kabupaten Nias Utara;SUMATERA UTARA;22852;Indonesia;;;;14.981.059;974.001.919;https://maps.google.com/?cid=0x0:0xe03b69ee248dfb34;
supermarket;Toko Swalayan;Toko. Hasibuan;Jl. Sawo No.69 RT.003/010, Daerah Khusus Ibukota Jakarta 13870;Kota Jakarta Timur, Daerah Khusus Ibukota Jakarta;SUMATERA UTARA;;Indonesia;87779405462;;;-63.278.559;1.068.486.066;https://maps.google.com/?cid=0x0:0x8714e74b160ed1a9;
supermarket;Toko Swalayan;GS The Fresh Mampang;Jl. Buncit Raya No.301, Duren Tiga, Kec. Pancoran, Kota Jakarta Selatan, Daerah Khusus Ibukota Jakarta 12760;Duren Tiga, Kec. Pancoran, Kota Jakarta Selatan;SUMATERA UTARA;12760;Indonesia;2126961986;;;-6.256.991;106.828.987;https://maps.google.com/?cid=0x0:0x47a84d3b86619147;
supermarket;Toko Swalayan;GS THE FRESH JATIBENING;Jl. Caman Raya No.7-24, RT.004/RW.003, Jatibening, Kec. Pd. Gede, Kota Bks, Jawa Barat 17412;RT.004/RW.003, Jatibening, Kec. Pd. Gede, Kota Bks;SUMATERA UTARA;17412;Indonesia;2184982211;;;-62.676.455;1.069.436.409;https://maps.google.com/?cid=0x0:0x2cdb50c3ee3206c;
supermarket;Toko Swalayan;GS The Fresh Alam Sutera;Flavor Bliss, Jl. Alam Sutera Boulevard, Pakulonan, Kec. Serpong Utara, Kota Tangerang Selatan, Banten 15325;Jl. Alam Sutera Boulevard, Pakulonan, Kec. Serpong Utara, Kota Tangerang Selatan;SUMATERA UTARA;15325;Indonesia;2150200763;;;-62.429.576;1.066.509.779;https://maps.google.com/?cid=0x0:0x2e1e78cfe6fb23eb;
supermarket;supermarket;Kec. Sitolu Ori;Kabupaten Nias Utara, Sumatera Utara;Kabupaten Nias Utara, Sumatera Utara;SUMATERA UTARA;;Indonesia;;;;13.987.456;974.439.582;https://maps.google.com/?cid=0x0:0xe9e1d2f552ca917e;
supermarket;Toko bahan makanan;UD.ARIF ZAI;CFQW+MGJ, Siofa Banua, Kec. Tuhemberua, Kabupaten Nias Utara, Sumatera Utara;Kabupaten Nias Utara, Sumatera Utara;SUMATERA UTARA;;Indonesia;85260136945;;;14.392.074;974.962.541;https://maps.google.com/?cid=0x0:0xcf63f094317795ef;
supermarket;Komplek perumahan;Kedai Ama Asri Zendrato;CF3X+9PM, Hilimbosi, Kec. Sitolu Ori, Kabupaten Nias Utara, Sumatera Utara 22852;Hilimbosi, Kec. Sitolu Ori, Kabupaten Nias Utara;SUMATERA UTARA;22852;Indonesia;;;;14.034.718;97.499.303;https://maps.google.com/?cid=0x0:0x4b141a02184c4172;
supermarket;supermarket;UD. JETRO;9FG3+W5, Tetehosi Maziaya, Kec. Sitolu Ori, Kabupaten Nias Utara, Sumatera Utara;Kabupaten Nias Utara, Sumatera Utara;SUMATERA UTARA;;Indonesia;81260130623;;;1.377.321;97.452.997;https://maps.google.com/?cid=0x0:0xebd756e9393d1f8c;
supermarket;Brunch;Aula REKOR;99QJ+897, Fadoro Fulolo, Kec. Lotu, Kabupaten Nias Utara, Sumatera Utara 22851;Fadoro Fulolo, Kec. Lotu, Kabupaten Nias Utara;SUMATERA UTARA;22851;Indonesia;82290214496;;;13.882.887;973.809.149;https://maps.google.com/?cid=0x0:0xa07adf458779f987;
supermarket;Toko sembako pemerintah;Warung Kelontong Nesti;CF2J+RM, Umbubalodano, Kec. Sitolu Ori, Kabupaten Nias Utara, Sumatera Utara;Kabupaten Nias Utara, Sumatera Utara;SUMATERA UTARA;;Indonesia;;;;14.020.208;974.818.092;https://maps.google.com/?cid=0x0:0xfa627d49ef26e8d3;
supermarket;Grosir Barang Kelontong;UD. ANEKA PRATAMA;Hilidundra, Kec. Lotu, Kabupaten Nias Utara, Sumatera Utara 22851;Kec. Lotu, Kabupaten Nias Utara;SUMATERA UTARA;22851;Indonesia;;;;13.878.514;973.596.305;https://maps.google.com/?cid=0x0:0x178cccc5bff6ac48;
supermarket;Pasar;Pasar SIMPANG EMPAT NAMOHALU ESIWA;Lasara, Kec. Namohalu Esiwa, Kabupaten Nias Utara, Sumatera Utara 22816;Kec. Namohalu Esiwa, Kabupaten Nias Utara;SUMATERA UTARA;22816;Indonesia;;;;13.515.821;974.050.691;https://maps.google.com/?cid=0x0:0x2464f9312e958cb6;
supermarket;Minimarket;UD AZAS;9CQ3+6VQ, Maziaya, Kec. Lotu, Kabupaten Nias Utara, Sumatera Utara 22852;Maziaya, Kec. Lotu, Kabupaten Nias Utara;SUMATERA UTARA;22852;Indonesia;;;;1.388.079;974.047.429;https://maps.google.com/?cid=0x0:0xa6431f6a70dd25e9;
supermarket;Toko Swalayan;UD. MICHELLE;FCCR+H4C, Silima Banua, Kec. Tuhemberua, Kabupaten Nias Utara, Sumatera Utara;Kabupaten Nias Utara, Sumatera Utara;SUMATERA UTARA;;Indonesia;85262490055;;;14.714.376;97.440.258;https://maps.google.com/?cid=0x0:0x1fc31d464c33f5a;
supermarket;Toko umum;Cv ina juwita;CC3P+GHJ, Hilisaloo, Kec. Sitolu Ori, Kabupaten Nias Utara, Sumatera Utara;Kabupaten Nias Utara, Sumatera Utara;SUMATERA UTARA;;Indonesia;;;;14.038.327;97.436.396;https://maps.google.com/?cid=0x0:0x2f46ae42d0057d98;
supermarket;Pusat Perbelanjaan;UD.LORENS PONSEL;Jl. Simpang Empat, Lasara, Kec. Namohalu Esiwa, Kabupaten Nias Utara, Sumatera Utara 22816;Lasara, Kec. Namohalu Esiwa, Kabupaten Nias Utara;SUMATERA UTARA;22816;Indonesia;85373236000;;;1.351.268;974.058.505;https://maps.google.com/?cid=0x0:0xf0f749330d71cdf6;
supermarket;Grosir Barang Kelontong;UD. WARTA;CFCV+H4C, Botolakha, Kec. Tuhemberua, Kabupaten Nias Utara, Sumatera Utara 22852;Botolakha, Kec. Tuhemberua, Kabupaten Nias Utara;SUMATERA UTARA;22852;Indonesia;82304716234;;;1.421.429;974.927.754;https://maps.google.com/?cid=0x0:0xb54b747fdfe80df5;
supermarket;Komplek perumahan;Desa Teluk Belukar;Jl. Diponegoro No.284, Tlk. Belukar, Kec. Gunungsitoli Utara, Kota Gunungsitoli, Sumatera Utara 22851;Tlk. Belukar, Kec. Gunungsitoli Utara, Kota Gunungsitoli;SUMATERA UTARA;22851;Indonesia;;;;13.931.462;975.208.128;https://maps.google.com/?cid=0x0:0xade9b5742550277d;
supermarket;Toko bahan makanan;UD. Sinar Mutiara;Silima Banua, Kec. Tuhemberua, Kabupaten Nias Utara, Sumatera Utara;Kabupaten Nias Utara, Sumatera Utara;SUMATERA UTARA;;Indonesia;;;;14.718.185;97.440.943;https://maps.google.com/?cid=0x0:0xe35b5ee364c5abb9;
supermarket;Toko bahan makanan;UD.TOPAN;Desa siofabanua, Kec. Tuhemberua, Kabupaten Nias Utara, Sumatera Utara 22852;Kec. Tuhemberua, Kabupaten Nias Utara;SUMATERA UTARA;22852;Indonesia;85321446292;;;14.638.266;974.913.257;https://maps.google.com/?cid=0x0:0xd00ba44a0be25eca;
supermarket;supermarket;UD. ASRI;CF3X+9PM, Hilimbosi, Kec. Sitolu Ori, Kabupaten Nias Utara, Sumatera Utara 22852;Hilimbosi, Kec. Sitolu Ori, Kabupaten Nias Utara;SUMATERA UTARA;22852;Indonesia;;;;14.034.503;974.992.983;https://maps.google.com/?cid=0x0:0xd67310b8769c7a54;
supermarket;Minimarket;UD Amanda;898V+JXR, Berua, Kec. Namohalu Esiwa, Kabupaten Nias Utara, Sumatera Utara 22816;Berua, Kec. Namohalu Esiwa, Kabupaten Nias Utara;SUMATERA UTARA;22816;Indonesia;8222258055;;;13.166.036;97.394.882;https://maps.google.com/?cid=0x0:0x1e9d0197a35378f1;
supermarket;supermarket;UD.HARAPAN BARU;C923+RMJ, Jl. Sawö, Lolofaoso, Kec. Lotu, Kabupaten Nias Utara, Sumatera Utara 22851;Jl. Sawö, Lolofaoso, Kec. Lotu, Kabupaten Nias Utara;SUMATERA UTARA;22851;Indonesia;;;;14.020.941;973.541.454;https://maps.google.com/?cid=0x0:0x88161c71ff678d9c;
supermarket;Minimarket;Horas Sitorus;Jl. Gereja No.18 Dusun I, Patane I, Siraituruk, Kec. Porsea, Toba, Sumatera Utara 22384;Patane I, Siraituruk, Kec. Porsea, Toba;SUMATERA UTARA;22384;Indonesia;81325526816;;;24.694.129;991.449.237;https://maps.google.com/?cid=0x0:0xae116ba7bfa3a677;
supermarket;Toko Swalayan;UD. Ferdi;4C23+R7, Siwawo, Kec. Tugala Oyo, Kabupaten Nias Utara, Sumatera Utara;Kabupaten Nias Utara, Sumatera Utara;SUMATERA UTARA;;Indonesia;81265446515;;;11.014.946;974.033.817;https://maps.google.com/?cid=0x0:0x7f0a288c6cb998ba;
supermarket;Toko bahan makanan;UD. Kurnia;6CH4+69H, Jl. Ombolata, Banua Sibohou I, Kec. Tugala Oyo, Kabupaten Nias Utara, Sumatera Utara 22861;Jl. Ombolata, Banua Sibohou I, Kec. Tugala Oyo, Kabupaten Nias Utara;SUMATERA UTARA;22861;Indonesia;;;;12.280.723;974.059.974;https://maps.google.com/?cid=0x0:0x2d02e95cba6a340b;
supermarket;supermarket;Kec. Tugala Oyo;Kabupaten Nias Utara, Sumatera Utara;Kabupaten Nias Utara, Sumatera Utara;SUMATERA UTARA;;Indonesia;;;;11.465.578;974.559.257;https://maps.google.com/?cid=0x0:0x1602712094e01383;
supermarket;Sekolah Menengah Kejuruan;SMK Negeri 1 Tugala Oyo;Teolo, Kec. Tugala Oyo, Kabupaten Nias Utara, Sumatera Utara 22861;Kec. Tugala Oyo, Kabupaten Nias Utara;SUMATERA UTARA;22861;Indonesia;85262249939;;;11.464.592;97.459.296;https://maps.google.com/?cid=0x0:0x96fee4944c44ab6a;
supermarket;Komplek perumahan;Dahana tugala oyo;6C4W+M7J, Harefanaese, Kec. Alasa Talumuzoi, Kabupaten Nias Utara, Sumatera Utara 22861;Harefanaese, Kec. Alasa Talumuzoi, Kabupaten Nias Utara;SUMATERA UTARA;22861;Indonesia;81270663518;;;12.067.141;974.456.386;https://maps.google.com/?cid=0x0:0xf2cd38b0b4704fa1;
supermarket;Tempat penjualan tiket;Rumah A. Nias Zalukhi;59C5+WVW, Tugala Oyo - Alasa, Ononamolo Tumula, Kec. Alasa, Kabupaten Nias Utara, Sumatera Utara 22861;Tugala Oyo - Alasa, Ononamolo Tumula, Kec. Alasa, Kabupaten Nias Utara;SUMATERA UTARA;22861;Indonesia;;;;11.727.076;973.603.879;https://maps.google.com/?cid=0x0:0x4b6a0879ee7f012f;
supermarket;Perhimpunan Pengembang Perumahan;Pasar Tuhemberua;Jl. Raya, Tuhemberua, Kec. Lolomatua, Kabupaten Nias Selatan, Sumatera Utara 22852;Tuhemberua, Kec. Lolomatua, Kabupaten Nias Selatan;SUMATERA UTARA;22852;Indonesia;;;;0.9136912;976.574.446;https://maps.google.com/?cid=0x0:0xc4161dfb2fca2112;
supermarket;Komplek perumahan;Deris Ndruru;WM75+464, Jl, Tuhemberua, Kec. Lolomatua, Kabupaten Nias Selatan, Sumatera Utara;Kabupaten Nias Selatan, Sumatera Utara;SUMATERA UTARA;;Indonesia;;;;0.9127676;976.580.672;https://maps.google.com/?cid=0x0:0xa770fabdc1693376;
supermarket;Pasar;PASAR TUHEMBERUA LOLOMATUA;WMM7+65G, Tuhemberua, Kec. Lolomatua, Kabupaten Nias Selatan, Sumatera Utara;Kabupaten Nias Selatan, Sumatera Utara;SUMATERA UTARA;;Indonesia;;;;0.9330531;976.629.495;https://maps.google.com/?cid=0x0:0xad5e637c5b8211;
supermarket;Toko bahan makanan;UD.TOPAN;Desa siofabanua, Kec. Tuhemberua, Kabupaten Nias Utara, Sumatera Utara 22852;Kec. Tuhemberua, Kabupaten Nias Utara;SUMATERA UTARA;22852;Indonesia;85321446292;;;14.638.266;974.913.257;https://maps.google.com/?cid=0x0:0xd00ba44a0be25eca;
supermarket;Toko bahan makanan;Toko Rizal;FF7R+PFM, Hilimbowo Siofabanua, Alooa, Kec. Tuhemberua, Kabupaten Nias Utara, Sumatera Utara 22852;Hilimbowo Siofabanua, Alooa, Kec. Tuhemberua, Kabupaten Nias Utara;SUMATERA UTARA;22852;Indonesia;85282851162;;;14.643.289;974.911.785;https://maps.google.com/?cid=0x0:0x8342f2b558227abb;
supermarket;Toko bahan makanan;UD. Sinar Mutiara;Silima Banua, Kec. Tuhemberua, Kabupaten Nias Utara, Sumatera Utara;Kabupaten Nias Utara, Sumatera Utara;SUMATERA UTARA;;Indonesia;;;;14.718.185;97.440.943;https://maps.google.com/?cid=0x0:0xe35b5ee364c5abb9;
supermarket;Grosir Barang Kelontong;UD. WARTA;CFCV+H4C, Botolakha, Kec. Tuhemberua, Kabupaten Nias Utara, Sumatera Utara 22852;Botolakha, Kec. Tuhemberua, Kabupaten Nias Utara;SUMATERA UTARA;22852;Indonesia;82304716234;;;1.421.429;974.927.754;https://maps.google.com/?cid=0x0:0xb54b747fdfe80df5;
supermarket;Toko Swalayan;UD. MICHELLE;FCCR+H4C, Silima Banua, Kec. Tuhemberua, Kabupaten Nias Utara, Sumatera Utara;Kabupaten Nias Utara, Sumatera Utara;SUMATERA UTARA;;Indonesia;85262490055;;;14.714.376;97.440.258;https://maps.google.com/?cid=0x0:0x1fc31d464c33f5a;
supermarket;Toko bahan makanan;UD.ARIF ZAI;CFQW+MGJ, Siofa Banua, Kec. Tuhemberua, Kabupaten Nias Utara, Sumatera Utara;Kabupaten Nias Utara, Sumatera Utara;SUMATERA UTARA;;Indonesia;85260136945;;;14.392.074;974.962.541;https://maps.google.com/?cid=0x0:0xcf63f094317795ef;
supermarket;supermarket;UD. JETRO;9FG3+W5, Tetehosi Maziaya, Kec. Sitolu Ori, Kabupaten Nias Utara, Sumatera Utara;Kabupaten Nias Utara, Sumatera Utara;SUMATERA UTARA;;Indonesia;81260130623;;;1.377.321;97.452.997;https://maps.google.com/?cid=0x0:0xebd756e9393d1f8c;
supermarket;Grosir Barang Kelontong;Mercy Buah;FF93+RRV, Jl. Tuhemberua, Banuagea, Kec. Tuhemberua, Kabupaten Nias Utara, Sumatera Utara;Kabupaten Nias Utara, Sumatera Utara;SUMATERA UTARA;;Indonesia;85261732233;;;1.469.624;974.545.582;https://maps.google.com/?cid=0x0:0xa265184aa7bf3147;
supermarket;Toko Swalayan;UD.MARI;FCJP+H4Q, Silima Banua, Kec. Tuhemberua, Kabupaten Nias Utara, Sumatera Utara;Kabupaten Nias Utara, Sumatera Utara;SUMATERA UTARA;;Indonesia;82382832913;;;14.814.509;974.353.588;https://maps.google.com/?cid=0x0:0x12c5beb8bd7c7fac;
supermarket;Toko bahan makanan;UD. Marturia;Jl. Arah Gunungsitoli-Lahewa No.42, Seriwau, Kec. Sawo, Kabupaten Nias Utara, Sumatera Utara 22852;Seriwau, Kec. Sawo, Kabupaten Nias Utara;SUMATERA UTARA;22852;Indonesia;;;;14.981.059;974.001.919;https://maps.google.com/?cid=0x0:0xe03b69ee248dfb34;
supermarket;Toko sembako pemerintah;Warung Kelontong Nesti;CF2J+RM, Umbubalodano, Kec. Sitolu Ori, Kabupaten Nias Utara, Sumatera Utara;Kabupaten Nias Utara, Sumatera Utara;SUMATERA UTARA;;Indonesia;;;;14.020.208;974.818.092;https://maps.google.com/?cid=0x0:0xfa627d49ef26e8d3;
