Category;Real Category;Business Name;Address;City;State;Postal Code;Country;Phone;Email;Website;Latitude;Longitude;Map Link;Details Link
"komplek housing";"komplek housing";"Afulu";"Lauru I Afulu, Kec. Afulu, Kabupaten Nias Utara, Sumatera Utara";"Kabupaten Nias Utara, Sumatera Utara";"SUMATERA UTARA";"";"Indonesia";"";"";"";"1.275923";"97.228146";"https://maps.google.com/?cid=0x0:0x19123ccab5436978";""
"komplek housing";"komplek housing";"Kec. Tebet";"Kota Jakarta Selatan, Daerah Khusus Ibukota Jakarta";"Kota Jakarta Selatan, Daerah Khusus Ibukota Jakarta";"SUMATERA UTARA";"";"Indonesia";"";"";"";"-6.2251223";"106.8549881";"https://maps.google.com/?cid=0x0:0xd575e31c807295f9";""
"komplek housing";"komplek housing";"Sumatera Utara 22857";"Kec. Afulu, Kabupaten Nias Utara, Sumatera Utara";"Kabupaten Nias Utara, Sumatera Utara";"SUMATERA UTARA";"";"Indonesia";"";"";"";"1.2548965";"97.2598913";"https://maps.google.com/?cid=0x0:0x7b808d1bfbbe7383";""
"komplek housing";"Pembangunan Perumahan";"AnalismaNZ House";"767W+P77, Afulu, Kec. Afulu, Kabupaten Nias Utara, Sumatera Utara 22857";"Afulu, Kec. Afulu, Kabupaten Nias Utara";"SUMATERA UTARA";"22857";"Indonesia";"";"";"";"1.265359";"97.245734";"https://maps.google.com/?cid=0x0:0xcedc87a073f92dca";""
"komplek housing";"Komplek perumahan";"RUMAH WARASLIN ZEBUA";"7742+GPM, Afulu, Kec. Afulu, Kabupaten Nias Utara, Sumatera Utara";"Kabupaten Nias Utara, Sumatera Utara";"SUMATERA UTARA";"";"Indonesia";"";"";"";"1.2563471";"97.2517888";"https://maps.google.com/?cid=0x0:0xc0c5b4766b3586ed";""
"komplek housing";"Komplek perumahan";"Rumah saya";"77H6+52, Afulu, Kec. Afulu, Kabupaten Nias Utara, Sumatera Utara";"Kabupaten Nias Utara, Sumatera Utara";"SUMATERA UTARA";"";"Indonesia";"";"";"";"1.277908";"97.260111";"https://maps.google.com/?cid=0x0:0x2895d15ba93adeb5";""
"komplek housing";"Komplek perumahan";"R.ZEBUA";"7742+5V9, Afulu, Kec. Afulu, Kabupaten Nias Utara, Sumatera Utara 22857";"Afulu, Kec. Afulu, Kabupaten Nias Utara";"SUMATERA UTARA";"22857";"Indonesia";"";"";"";"1.2554158";"97.252248";"https://maps.google.com/?cid=0x0:0x31a2bef395dcb1ad";""
"komplek housing";"Komplek perumahan";"Rumah misnah";"767W+H24, Afulu, Kec. Afulu, Kabupaten Nias Utara, Sumatera Utara";"Kabupaten Nias Utara, Sumatera Utara";"SUMATERA UTARA";"";"Indonesia";"";"";"";"1.2638773";"97.2450745";"https://maps.google.com/?cid=0x0:0x2cf4c29be262e328";""
"komplek housing";"komplek housing";"Kec. Afulu";"Kabupaten Nias Utara, Sumatera Utara";"Kabupaten Nias Utara, Sumatera Utara";"SUMATERA UTARA";"";"Indonesia";"";"";"";"1.2638546";"97.2450477";"https://maps.google.com/?cid=0x0:0x37ed228075273cba";""
"komplek housing";"komplek housing";"Afulu";"Lauru I Afulu, Kec. Afulu, Kabupaten Nias Utara, Sumatera Utara";"Kabupaten Nias Utara, Sumatera Utara";"SUMATERA UTARA";"";"Indonesia";"";"";"";"1.275923";"97.228146";"https://maps.google.com/?cid=0x0:0x19123ccab5436978";""
"komplek housing";"Pembangunan Perumahan";"Yarni baeha";"767Q+87M, Lauru I Afulu, Kec. Afulu, Kabupaten Nias Utara, Sumatera Utara 22857";"Lauru I Afulu, Kec. Afulu, Kabupaten Nias Utara";"SUMATERA UTARA";"22857";"Indonesia";"";"";"";"1.2632871";"97.2381056";"https://maps.google.com/?cid=0x0:0x3f8137813c78d3b1";""
"komplek housing";"komplek housing";"Kec. Tebet";"Kota Jakarta Selatan, Daerah Khusus Ibukota Jakarta";"Kota Jakarta Selatan, Daerah Khusus Ibukota Jakarta";"SUMATERA UTARA";"";"Indonesia";"";"";"";"-6.2251223";"106.8549881";"https://maps.google.com/?cid=0x0:0xd575e31c807295f9";""
"komplek housing";"komplek housing";"Sumatera Utara 22861";"Kabupaten Nias Utara, Sumatera Utara";"Kabupaten Nias Utara, Sumatera Utara";"SUMATERA UTARA";"";"Indonesia";"";"";"";"1.1639401";"97.394882";"https://maps.google.com/?cid=0x0:0x146e7c32a97f723";""
"komplek housing";"komplek housing";"RUMAH A/i. ADZKIYA DAWÖLÖ";"6C67+45C, Jl.hiligeo desa, Fulolo, Kec. Alasa, Kabupaten Nias Utara, Sumatera Utara";"Kabupaten Nias Utara, Sumatera Utara";"SUMATERA UTARA";"";"Indonesia";"";"";"";"1.2103101";"97.4128895";"https://maps.google.com/?cid=0x0:0x51b1f2a773302322";""
"komplek housing";"Komplek perumahan";"LAHAGU KECAMATAN ALASA";"793J+M4F, Banua Sibohou II, Kec. Tugala Oyo, Kabupaten Nias Utara, Sumatera Utara 22861";"Banua Sibohou II, Kec. Tugala Oyo, Kabupaten Nias Utara";"SUMATERA UTARA";"22861";"Indonesia";"";"";"";"1.2541967";"97.3802875";"https://maps.google.com/?cid=0x0:0x114cf957e1d54207";""
"komplek housing";"Komplek perumahan";"TETEHOSI DESA OMBOLATA KECAMATAN ALASA KABUPATEN NIAS UTARA";"6CJ6+4WV, Ombolata, Kec. Tugala Oyo, Kabupaten Nias Utara, Sumatera Utara 22861";"Ombolata, Kec. Tugala Oyo, Kabupaten Nias Utara";"SUMATERA UTARA";"22861";"Indonesia";"";"";"";"1.2303738";"97.4122933";"https://maps.google.com/?cid=0x0:0x772ecc2ba06b77be";""
"komplek housing";"Komplek perumahan";"IDANOMBAE KECAMATAN ALASA";"69XW+76H, Ombolata, Kec. Alasa, Kabupaten Nias Utara, Sumatera Utara 22861";"Ombolata, Kec. Alasa, Kabupaten Nias Utara";"SUMATERA UTARA";"22861";"Indonesia";"";"";"";"1.2481973";"97.3955972";"https://maps.google.com/?cid=0x0:0xf09eb8eafcf198f5";""
"komplek housing";"Komplek perumahan";"TUMORI DESA OMBOLATA KECAMATAN ALASA KABUPATEN NIAS UTARA";"6CP5+V5C, Jl. Lahewa, Ombolata, Kec. Tugala Oyo, Kabupaten Nias Utara, Sumatera Utara 22861";"Jl. Lahewa, Ombolata, Kec. Tugala Oyo, Kabupaten Nias Utara";"SUMATERA UTARA";"22861";"Indonesia";"";"";"";"1.237176";"97.4078989";"https://maps.google.com/?cid=0x0:0xcfb2cb85452f822";""
"komplek housing";"Komplek perumahan";"HILIDAWUYU DESA OMBOLATA KECAMATAN ALASA KABUPATEN NIAS UTARA";"6CH4+536, Jl. Alasa Ombölata, Banua Sibohou I, Kec. Tugala Oyo, Kabupaten Nias Utara, Sumatera Utara 22861";"Jl. Alasa Ombölata, Banua Sibohou I, Kec. Tugala Oyo, Kabupaten Nias Utara";"SUMATERA UTARA";"22861";"Indonesia";"";"";"";"1.2279068";"97.4051322";"https://maps.google.com/?cid=0x0:0x8d47b9ebc7b687f";""
"komplek housing";"Komplek perumahan";"HILISOROMI DESA OMBOLATA KECAMATAN ALASA KABUPATEN NIAS UTARA";"6CP2+8W9, Jl. Sisarahili, Ombolata, Kec. Tugala Oyo, Kabupaten Nias Utara, Sumatera Utara 22861";"Jl. Sisarahili, Ombolata, Kec. Tugala Oyo, Kabupaten Nias Utara";"SUMATERA UTARA";"22861";"Indonesia";"";"";"";"1.235797";"97.402345";"https://maps.google.com/?cid=0x0:0x69d75b5fd42ba72d";""
"komplek housing";"Komplek perumahan";"HILIKARA DESA OMBOLATA KECAMATAN ALASA KABUPATEN NIAS UTARA";"69WX+4P3, Jl. Lahewa, Ombolata, Kec. Tugala Oyo, Kabupaten Nias Utara, Sumatera Utara 22861";"Jl. Lahewa, Ombolata, Kec. Tugala Oyo, Kabupaten Nias Utara";"SUMATERA UTARA";"22861";"Indonesia";"";"";"";"1.2452647";"97.3992943";"https://maps.google.com/?cid=0x0:0x964ce742e2dc49cb";""
"komplek housing";"Komplek perumahan";"DAHANA ALASA";"795P+PM4, Jl. Lahewa, Dahana Alasa, Kec. Alasa, Kabupaten Nias Utara, Sumatera Utara 22861";"Jl. Lahewa, Dahana Alasa, Kec. Alasa, Kabupaten Nias Utara";"SUMATERA UTARA";"22861";"Indonesia";"";"";"";"1.2592625";"97.3866987";"https://maps.google.com/?cid=0x0:0x1fe08e9e316e2a0f";""
"komplek housing";"Komplek perumahan";"AWOLO DESA OMBOLATA KECAMATAN ALASA KABUPATEN NIAS UTARA";"6CV5+6GP, Ombolata, Kec. Alasa, Kabupaten Nias Utara, Sumatera Utara 22861";"Ombolata, Kec. Alasa, Kabupaten Nias Utara";"SUMATERA UTARA";"22861";"Indonesia";"";"";"";"1.2430935";"97.4088329";"https://maps.google.com/?cid=0x0:0xe40f47571471f4ef";""
"komplek housing";"Komplek perumahan";"Rumah ku";"6CR3+W33, Ombolata, Kec. Alasa, Kabupaten Nias Utara, Sumatera Utara";"Kabupaten Nias Utara, Sumatera Utara";"SUMATERA UTARA";"";"Indonesia";"";"";"";"1.2422625";"97.4026719";"https://maps.google.com/?cid=0x0:0xb17732a475e4db75";""
"komplek housing";"Komplek perumahan";"Lasara";"6CR3+8GQ, Ombolata, Kec. Alasa, Kabupaten Nias Utara, Sumatera Utara";"Kabupaten Nias Utara, Sumatera Utara";"SUMATERA UTARA";"";"Indonesia";"";"";"";"1.2408364";"97.4038484";"https://maps.google.com/?cid=0x0:0xb9214160ec6acd4a";""
"komplek housing";"Komplek perumahan";"Rumah Ama siska";"696Q+9Q, Fulolo, Kec. Alasa, Kabupaten Nias Utara, Sumatera Utara";"Kabupaten Nias Utara, Sumatera Utara";"SUMATERA UTARA";"";"Indonesia";"";"";"";"1.210929";"97.389401";"https://maps.google.com/?cid=0x0:0x9839c45ce98a8c9e";""
"komplek housing";"Rumah Kayu";"Ombolata Desa Dahana Tugala Oyo";"6C5W+RJ8, Jalan, Dahana Tugala Oyo, Alasa, North Nias Regency, North Sumatra 22861";"Jalan, Dahana Tugala Oyo, Alasa, North Nias Regency";"SUMATERA UTARA";"22861";"Indonesia";"";"";"";"1.2095462";"97.4465895";"https://maps.google.com/?cid=0x0:0x1f1818cf2ade156a";""
"komplek housing";"Komplek perumahan";"Rumah A. Kevin Hulu";"5CHQ+MC, Hilisebua, Kec. Alasa, Kabupaten Nias Utara, Sumatera Utara";"Kabupaten Nias Utara, Sumatera Utara";"SUMATERA UTARA";"";"Indonesia";"";"";"";"1.1792455";"97.4385025";"https://maps.google.com/?cid=0x0:0x2661612372b970cb";""
"komplek housing";"Komplek perumahan";"Alasa";"6CMF+5RQ, Loloana'a, Kec. Alasa, Kabupaten Nias Utara, Sumatera Utara";"Kabupaten Nias Utara, Sumatera Utara";"SUMATERA UTARA";"";"Indonesia";"";"";"";"1.2329632";"97.4246158";"https://maps.google.com/?cid=0x0:0x52dbd5f8fa29f5a8";""
"komplek housing";"Komplek perumahan";"HILIGODU DESA MAZINGO KECAMATAN ALASA TALUMUZOI";"7C47+28P, Jl, Hilina A, Kec. Alasa Talumuzoi, Kabupaten Nias Utara, Sumatera Utara";"Kabupaten Nias Utara, Sumatera Utara";"SUMATERA UTARA";"";"Indonesia";"";"";"";"1.2550789";"97.4133156";"https://maps.google.com/?cid=0x0:0x5237814f2b9d2540";""
"komplek housing";"komplek housing";"Rumah Pa Reuhel Lahagu";"7C8G+8P, Mazingo, Kec. Alasa Talumuzoi, Kabupaten Nias Utara, Sumatera Utara";"Kabupaten Nias Utara, Sumatera Utara";"SUMATERA UTARA";"";"Indonesia";"";"";"";"1.2658521";"97.4267695";"https://maps.google.com/?cid=0x0:0x4bcb8d7832fee741";""
"komplek housing";"Komplek perumahan";"Perumnas";"Jl. Alasa No.a48, Hiligawoni, Kec. Alasa, Kabupaten Nias Utara, Sumatera Utara";"Kabupaten Nias Utara, Sumatera Utara";"SUMATERA UTARA";"";"Indonesia";"";"";"";"1.2412432";"97.3457077";"https://maps.google.com/?cid=0x0:0x76f8bf3c862c96d7";""
"komplek housing";"komplek housing";"Kec. Alasa";"Kabupaten Nias Utara, Sumatera Utara";"Kabupaten Nias Utara, Sumatera Utara";"SUMATERA UTARA";"";"Indonesia";"";"";"";"1.2303221";"97.4118596";"https://maps.google.com/?cid=0x0:0x58238ef9e24a371d";""
"komplek housing";"Perumahan";"Rumah A/I. JOIN HULU";"5F6C+GMC, Ononazara, Kec. Tugala Oyo, Kabupaten Nias Utara, Sumatera Utara 22861";"Ononazara, Kec. Tugala Oyo, Kabupaten Nias Utara";"SUMATERA UTARA";"22861";"Indonesia";"";"";"";"1.1611829";"97.4717247";"https://maps.google.com/?cid=0x0:0xf3d964596262bbfb";""
"komplek housing";"Komplek perumahan";"Anaoma";"5FRC+W7F, Anaoma, Kec. Alasa, Kabupaten Nias Utara, Sumatera Utara 22861";"Anaoma, Kec. Alasa, Kabupaten Nias Utara";"SUMATERA UTARA";"22861";"Indonesia";" 082172975964";"";"";"1.192304";"97.4706783";"https://maps.google.com/?cid=0x0:0x9dd2c376d6a4e7a8";""
"komplek housing";"Komplek perumahan";"Rumah Jendi Hulu";"5FPG+PQ8, Anaoma, Kec. Alasa, Kabupaten Nias Utara, Sumatera Utara 22861";"Anaoma, Kec. Alasa, Kabupaten Nias Utara";"SUMATERA UTARA";"22861";"Indonesia";"";"";"";"1.1867772";"97.4769554";"https://maps.google.com/?cid=0x0:0xcd4d93361582a726";""
"komplek housing";"Pembangunan Perumahan";"Justin Zal";"6CJ5+8MF, Jl. Ombolata, Ombolata, Kec. Alasa, Kabupaten Nias Utara, Sumatera Utara 22861";"Jl. Ombolata, Ombolata, Kec. Alasa, Kabupaten Nias Utara";"SUMATERA UTARA";"22861";"Indonesia";"";"";"";"1.2308029";"97.4091655";"https://maps.google.com/?cid=0x0:0xe0a71d5e753563f0";""
"komplek housing";"Kantor Pemerintah";"Desa Ononazara";"5F4C+W2R, Ononazara, Kec. Tugala Oyo, Kabupaten Nias Utara, Sumatera Utara 22861";"Ononazara, Kec. Tugala Oyo, Kabupaten Nias Utara";"SUMATERA UTARA";"22861";"Indonesia";"";"";"";"1.157359";"97.47";"https://maps.google.com/?cid=0x0:0x3bf1814b112a1232";""
"komplek housing";"Komplek perumahan";"Rumah Ama Eno Harefa.";"692G+CGF, Jl. Alasa, Hiligawoni, Kec. Tugala Oyo, Kabupaten Nias Utara, Sumatera Utara 22861";"Jl. Alasa, Hiligawoni, Kec. Tugala Oyo, Kabupaten Nias Utara";"SUMATERA UTARA";"22861";"Indonesia";"";"";"";"1.2010656";"97.3762883";"https://maps.google.com/?cid=0x0:0xf573141deadf1a3a";""
"komplek housing";"Pembangunan Perumahan";"Devan Home";"6CJ5+8MF, Jl. Ombolata, Ombolata, Kec. Alasa, Kabupaten Nias Utara, Sumatera Utara 22861";"Jl. Ombolata, Ombolata, Kec. Alasa, Kabupaten Nias Utara";"SUMATERA UTARA";"22861";"Indonesia";"";"";"";"1.2308045";"97.4091181";"https://maps.google.com/?cid=0x0:0x17d820dc5b0434e1";""
"komplek housing";"Komplek perumahan";"Rumah ani hulu";"59FH+RWW, Bitaya, Kec. Alasa, Kabupaten Nias Utara, Sumatera Utara 22861";"Bitaya, Kec. Alasa, Kabupaten Nias Utara";"SUMATERA UTARA";"22861";"Indonesia";"";"";"";"1.1746069";"97.3798302";"https://maps.google.com/?cid=0x0:0x12c1ce37ef546e63";""
"komplek housing";"komplek housing";"Kec. Alasa Talumuzoi";"Kabupaten Nias Utara, Sumatera Utara";"Kabupaten Nias Utara, Sumatera Utara";"SUMATERA UTARA";"";"Indonesia";"";"";"";"1.24495";"97.4440065";"https://maps.google.com/?cid=0x0:0x2616b4f75864e0d8";""
"komplek housing";"Rumah Sakit";"Puskesmas Alasa Talumuzoi";"Hilimbowo Kare, Kec. Alasa Talumuzoi, Kabupaten Nias Utara, Sumatera Utara";"Kabupaten Nias Utara, Sumatera Utara";"SUMATERA UTARA";"";"Indonesia";"";"";"";"1.2375525";"97.4857812";"https://maps.google.com/?cid=0x0:0x87efee1088180580";""
"komplek housing";"Rumah Sakit";"Puskesmas Alasa";"6CJ6+33Q, Jl. Ombolata, Ombolata, Kec. Tugala Oyo, Kabupaten Nias Utara, Sumatera Utara 22861";"Jl. Ombolata, Ombolata, Kec. Tugala Oyo, Kabupaten Nias Utara";"SUMATERA UTARA";"22861";"Indonesia";"";"";"";"1.23021";"97.4102233";"https://maps.google.com/?cid=0x0:0x7122b65f552242bb";""
"komplek housing";"komplek housing";"Sumatera Utara 22853";"Kecamaten Lahewa, Kabupaten Nias Utara, Sumatera Utara";"Kabupaten Nias Utara, Sumatera Utara";"SUMATERA UTARA";"";"Indonesia";"";"";"";"1.3266447";"97.2329255";"https://maps.google.com/?cid=0x0:0xc7df9697de637a01";""
"komplek housing";"Perhimpunan Pengembang Perumahan";"Hiliwaele banuasibohou";"9569+RF8, Hili Hati, Kecamaten Lahewa, Kabupaten Nias Utara, Sumatera Utara 22853";"Hili Hati, Kecamaten Lahewa, Kabupaten Nias Utara";"SUMATERA UTARA";"22853";"Indonesia";"";"";"";"1.3620495";"97.1687087";"https://maps.google.com/?cid=0x0:0xbc79d5bf58ae2d26";""
"komplek housing";"Perhimpunan Pengembang Perumahan";"Rumah A/l. Dese baehs";"959W+W3G, Afia, Kecamaten Lahewa, Kabupaten Nias Utara, Sumatera Utara 22853";"Afia, Kecamaten Lahewa, Kabupaten Nias Utara";"SUMATERA UTARA";"22853";"Indonesia";"";"";"";"1.3698217";"97.1951913";"https://maps.google.com/?cid=0x0:0xf916e7a827301075";""
"komplek housing";"Pembangunan Perumahan";"Afilaza-Lahewa";"Jl. Kihajar Dewantara No.5h, Ps. Lahewa, Kecamaten Lahewa, Kabupaten Nias Utara, Sumatera Utara 22853";"Ps. Lahewa, Kecamaten Lahewa, Kabupaten Nias Utara";"SUMATERA UTARA";"22853";"Indonesia";"";"";"";"1.39439";"97.1659713";"https://maps.google.com/?cid=0x0:0x6e8406bfeb35da78";""
"komplek housing";"Perhimpunan Pengembang Perumahan";"SYIAR LASE";"Jl. Lahewa-Afulu, Iraonolase, Kecamaten Lahewa, Kabupaten Nias Utara, Sumatera Utara 22853";"Iraonolase, Kecamaten Lahewa, Kabupaten Nias Utara";"SUMATERA UTARA";"22853";"Indonesia";" 085270995288";"";"";"1.3515317";"97.1802621";"https://maps.google.com/?cid=0x0:0xcb430039efd6bc5e";""
"komplek housing";"Rumah Kayu";"A. Wilman Harefa";"86QH+9H, Onozalukhu, Kecamaten Lahewa, Kabupaten Nias Utara, Sumatera Utara 22853";"Onozalukhu, Kecamaten Lahewa, Kabupaten Nias Utara";"SUMATERA UTARA";"22853";"Indonesia";"";"";"";"1.3393035";"97.2284668";"https://maps.google.com/?cid=0x0:0x8b5780689e2c1fb4";""
"komplek housing";"komplek housing";"Rumah Desputman Zalukhu";"867W+9FP, Jl. Afulu, Lauru Lahewa, Kec. Afulu, Kabupaten Nias Utara, Sumatera Utara 22853";"Jl. Afulu, Lauru Lahewa, Kec. Afulu, Kabupaten Nias Utara";"SUMATERA UTARA";"22853";"Indonesia";"";"";"";"1.3134532";"97.2462016";"https://maps.google.com/?cid=0x0:0x54981e7ca4fc0d09";""
"komplek housing";"Komplek perumahan";"Hiligawoni Mado Nazara Sitolubanua Lahewa";"85PQ+WGV, Jalan Afulu, Iraonolase, Lahewa, North Nias Regency, North Sumatra 22853";"Jalan Afulu, Iraonolase, Lahewa, North Nias Regency";"SUMATERA UTARA";"22853";"Indonesia";"";"";"";"1.3373551";"97.1887924";"https://maps.google.com/?cid=0x0:0x49c519596a38cde3";""
"komplek housing";"Pembangunan Perumahan";"Fadorositelu hili,lahewa,Nias utara";"8HJG+QW4, Bawadesolo, Kec. Gunungsitoli, Kota Gunungsitoli, Sumatera Utara";"Kota Gunungsitoli, Sumatera Utara";"SUMATERA UTARA";"";"Indonesia";"";"";"";"1.3876108";"97.1696007";"https://maps.google.com/?cid=0x0:0x26e6684fc98334be";""
"komplek housing";"Komplek perumahan";"Mitha Lase";"96C3+29, Hili Goduhoya, Kecamaten Lahewa, Kabupaten Nias Utara, Sumatera Utara";"Kabupaten Nias Utara, Sumatera Utara";"SUMATERA UTARA";"";"Indonesia";"";"";"";"1.3709879";"97.2037838";"https://maps.google.com/?cid=0x0:0xa1d23e3a6314e11a";""
"komplek housing";"Perhimpunan Pengembang Perumahan";"Rumah Ustadz Sohanda";"95R9+VG5, Ps. Lahewa, Kecamaten Lahewa, Kabupaten Nias Utara, Sumatera Utara";"Kabupaten Nias Utara, Sumatera Utara";"SUMATERA UTARA";"";"Indonesia";"";"";"";"1.392127";"97.1691749";"https://maps.google.com/?cid=0x0:0x63a7ac3f3d0e9dbc";""
"komplek housing";"Pembangunan Perumahan";"Rumah a.riel wrw";"95P2+XXW, Marafala, Kecamaten Lahewa, Kabupaten Nias Utara, Sumatera Utara 22853";"Marafala, Kecamaten Lahewa, Kabupaten Nias Utara";"SUMATERA UTARA";"22853";"Indonesia";"";"";"";"1.3874755";"97.152466";"https://maps.google.com/?cid=0x0:0x5f737ef7583b9478";""
"komplek housing";"Perhimpunan Pengembang Perumahan";"Soroma'asi";"94PV+MJR, Marafala, Kecamaten Lahewa, Kabupaten Nias Utara, Sumatera Utara 22853";"Marafala, Kecamaten Lahewa, Kabupaten Nias Utara";"SUMATERA UTARA";"22853";"Indonesia";"";"";"";"1.3867375";"97.1440146";"https://maps.google.com/?cid=0x0:0x44c9eff46520d759";""
"komplek housing";"komplek housing";"Ina Tati Harefa";"9673+WH6, Hili Goduhoya, Kecamaten Lahewa, Kabupaten Nias Utara, Sumatera Utara";"Kabupaten Nias Utara, Sumatera Utara";"SUMATERA UTARA";"";"Indonesia";"";"";"";"1.3647899";"97.2038415";"https://maps.google.com/?cid=0x0:0x9dc605fd52a5ba59";""
"komplek housing";"Kantor Pemerintah";"Rumah Dinas KPLP";"95VC+W7R, Ps. Lahewa, Kecamaten Lahewa, Kabupaten Nias Utara, Sumatera Utara 22853";"Ps. Lahewa, Kecamaten Lahewa, Kabupaten Nias Utara";"SUMATERA UTARA";"22853";"Indonesia";"";"";"";"1.394967";"97.1705054";"https://maps.google.com/?cid=0x0:0x792ec2db1ab5f226";""
"komplek housing";"Komplek perumahan";"Ama Taro Zalukhu";"86PH+GQR, Onozalukhu, Kecamaten Lahewa, Kabupaten Nias Utara, Sumatera Utara 22853";"Onozalukhu, Kecamaten Lahewa, Kabupaten Nias Utara";"SUMATERA UTARA";"22853";"Indonesia";"";"";"";"1.3363678";"97.2294047";"https://maps.google.com/?cid=0x0:0xee79bc23a202056c";""
"komplek housing";"Komplek perumahan";"JAYDEN DASTA ZALUKHU";"96C5+G7, Lasara Bahili, Kecamaten Lahewa, Kabupaten Nias Utara, Sumatera Utara";"Kabupaten Nias Utara, Sumatera Utara";"SUMATERA UTARA";"";"Indonesia";"";"";"";"1.3715715";"97.2075073";"https://maps.google.com/?cid=0x0:0x64bb9907643e9f28";""
"komplek housing";"Komplek perumahan";"Rumah Ama Eni Lase";"96C3+29, Hili Goduhoya, Kecamaten Lahewa, Kabupaten Nias Utara, Sumatera Utara";"Kabupaten Nias Utara, Sumatera Utara";"SUMATERA UTARA";"";"Indonesia";" 085194419237";"";"";"1.3688786";"97.2039474";"https://maps.google.com/?cid=0x0:0x1dc200138c597e26";""
"komplek housing";"Komplek perumahan";"Rumah A/I. Dyces Harefa";"Jl. Kihajar Dewantara Kompleks Belakang SMPN 1 No.5h, Fadoro Sitolu Hili, Kecamaten Lahewa, Kabupaten Nias Utara, Sumatera Utara";"Kabupaten Nias Utara, Sumatera Utara";"SUMATERA UTARA";"";"Indonesia";"";"";"";"1.390561";"97.176434";"https://maps.google.com/?cid=0x0:0xbc9d56c62a735776";""
"komplek housing";"Komplek perumahan";"Finsensius Ubaseo Lase";"9673+WH6, Hili Goduhoya, Kecamaten Lahewa, Kabupaten Nias Utara, Sumatera Utara";"Kabupaten Nias Utara, Sumatera Utara";"SUMATERA UTARA";"";"Indonesia";"";"";"";"1.3647789";"97.2039033";"https://maps.google.com/?cid=0x0:0x4a62d3723c967620";""
"komplek housing";"komplek housing";"Kecamaten Lahewa";"Kabupaten Nias Utara, Sumatera Utara";"Kabupaten Nias Utara, Sumatera Utara";"SUMATERA UTARA";"";"Indonesia";"";"";"";"1.3939578";"97.1685986";"https://maps.google.com/?cid=0x0:0xbb3b61874eb55c46";""
"komplek housing";"Komplek perumahan";"Rumah Amirjan Telaumbanua";"C4GV+54C, Jl. Balefadoro Tuho, Balefadoro Tuho, Kecamaten Lahewa, Kabupaten Nias Utara, Sumatera Utara 22853";"Jl. Balefadoro Tuho, Balefadoro Tuho, Kecamaten Lahewa, Kabupaten Nias Utara";"SUMATERA UTARA";"22853";"Indonesia";"";"";"";"1.4254299";"97.1427545";"https://maps.google.com/?cid=0x0:0xe1db8fb5f908af57";""
"komplek housing";"Komplek perumahan";"Ama Desna Zalukhu";"86QP+R2H, Desa, Sifaoro'asi, Kecamaten Lahewa, Kabupaten Nias Utara, Sumatera Utara 22853";"Desa, Sifaoro'asi, Kecamaten Lahewa, Kabupaten Nias Utara";"SUMATERA UTARA";"22853";"Indonesia";"";"";"";"1.339883";"97.2350613";"https://maps.google.com/?cid=0x0:0x87fc52a132f7c800";""
"komplek housing";"komplek housing";"RUMAH A/I. LENTA HAREFA";"94XM+FG, Balefadoro Tuho, Kecamaten Lahewa, Kabupaten Nias Utara, Sumatera Utara 22853";"Balefadoro Tuho, Kecamaten Lahewa, Kabupaten Nias Utara";"SUMATERA UTARA";"22853";"Indonesia";"";"";"";"1.3986283";"97.1338079";"https://maps.google.com/?cid=0x0:0x7a5292a44986d0ec";""
"komplek housing";"komplek housing";"Kec. Tebet";"Kota Jakarta Selatan, Daerah Khusus Ibukota Jakarta";"Kota Jakarta Selatan, Daerah Khusus Ibukota Jakarta";"SUMATERA UTARA";"";"Indonesia";"";"";"";"-6.2251223";"106.8549881";"https://maps.google.com/?cid=0x0:0xd575e31c807295f9";""
"komplek housing";"komplek housing";"Lahewa";"Fadoro Sitolu Hili, Kecamaten Lahewa, Kabupaten Nias Utara, Sumatera Utara";"Kabupaten Nias Utara, Sumatera Utara";"SUMATERA UTARA";"";"Indonesia";"";"";"";"1.390561";"97.176434";"https://maps.google.com/?cid=0x0:0x8aba201f76253f8d";""
"komplek housing";"komplek housing";"Kec. Lahewa Tim.";"Kabupaten Nias Utara, Sumatera Utara";"Kabupaten Nias Utara, Sumatera Utara";"SUMATERA UTARA";"";"Indonesia";"";"";"";"1.3690959";"97.3010539";"https://maps.google.com/?cid=0x0:0x1c45965c923c9076";""
"komplek housing";"Komplek perumahan";"enjel gea";"989C+P4R Jembatan Sungai Muzoi, Tugala Lauru, Kec. Lahewa Tim., Kabupaten Nias Utara, Sumatera Utara";"Kabupaten Nias Utara, Sumatera Utara";"SUMATERA UTARA";"";"Indonesia";"";"";"";"1.3690204";"97.3194078";"https://maps.google.com/?cid=0x0:0xaf5431e0983b427b";""
"komplek housing";"Komplek perumahan";"Dodi zalukhu";"9883+Q4X, Tugala Lauru, Kec. Lahewa Tim., Kabupaten Nias Utara, Sumatera Utara 22851";"Tugala Lauru, Kec. Lahewa Tim., Kabupaten Nias Utara";"SUMATERA UTARA";"22851";"Indonesia";"";"";"";"1.3669973";"97.3028545";"https://maps.google.com/?cid=0x0:0x195308cea9aae5ce";""
"komplek housing";"komplek housing";"A. Selvi Zalukhu House";"79Q6+V7F, Laowowaga, Kec. Lahewa Tim., Kabupaten Nias Utara, Sumatera Utara";"Kabupaten Nias Utara, Sumatera Utara";"SUMATERA UTARA";"";"Indonesia";"";"";"";"1.2892281";"97.3608828";"https://maps.google.com/?cid=0x0:0xfb4d064b6b1ee278";""
"komplek housing";"komplek housing";"A/I Wanda Lahagu";"887R+76, Lukhu Lase, Kec. Lahewa Tim., Kabupaten Nias Utara, Sumatera Utara";"Kabupaten Nias Utara, Sumatera Utara";"SUMATERA UTARA";"";"Indonesia";"";"";"";"1.3131516";"97.340508";"https://maps.google.com/?cid=0x0:0xe0fe636c56bd2b";""
"komplek housing";"Perhimpunan Pengembang Perumahan";"Rumah Axell";"97VG+26, Tefao, Kec. Lahewa Tim., Kabupaten Nias Utara, Sumatera Utara";"Kabupaten Nias Utara, Sumatera Utara";"SUMATERA UTARA";"";"Indonesia";"";"";"";"1.3925875";"97.2755778";"https://maps.google.com/?cid=0x0:0x61d2e238751afa4b";""
"komplek housing";"Perumahan";"Laksa";"98CF+2H6, Muzoi, Kec. Lahewa Tim., Kabupaten Nias Utara, Sumatera Utara 22851";"Muzoi, Kec. Lahewa Tim., Kabupaten Nias Utara";"SUMATERA UTARA";"22851";"Indonesia";"";"";"";"1.3700134";"97.3238576";"https://maps.google.com/?cid=0x0:0x7efbcf8980ffe711";""
"komplek housing";"Komplek perumahan";"Miner nage";"9854+CW2, Tugala Lauru, Kec. Lahewa Tim., Kabupaten Nias Utara, Sumatera Utara";"Kabupaten Nias Utara, Sumatera Utara";"SUMATERA UTARA";"";"Indonesia";"";"";"";"1.3585066";"97.3072521";"https://maps.google.com/?cid=0x0:0x55e8ae42ee2d6041";""
"komplek housing";"Rumah Kaca";"Rumah Sahabat Nazara";"Jl. Sawö, Lawira I, Kec. Lotu, Kabupaten Nias Utara, Sumatera Utara 22851";"Lawira I, Kec. Lotu, Kabupaten Nias Utara";"SUMATERA UTARA";"22851";"Indonesia";"";"";"";"1.4019092";"97.3542196";"https://maps.google.com/?cid=0x0:0x9c9e59b9118a1a03";""
"komplek housing";"Komplek perumahan";"Rumah Kontrakan A. Zihan Gea";"99Q5+M49, Jl. Sawö, Lawira Satua, Kec. Lotu, Kabupaten Nias Utara, Sumatera Utara 22851";"Jl. Sawö, Lawira Satua, Kec. Lotu, Kabupaten Nias Utara";"SUMATERA UTARA";"22851";"Indonesia";"";"";"";"1.3891727";"97.3578653";"https://maps.google.com/?cid=0x0:0xbefff26d9ee421cb";""
"komplek housing";"komplek housing";"Kec. Lotu";"Kabupaten Nias Utara, Sumatera Utara";"Kabupaten Nias Utara, Sumatera Utara";"SUMATERA UTARA";"";"Indonesia";"";"";"";"1.3891445";"97.3577578";"https://maps.google.com/?cid=0x0:0x33654c018df13e36";""
"komplek housing";"komplek housing";"Perumahan Ama/Ina Queen Gulo";"C9P9+G4Q, Lolomboli, Kec. Lotu, Kabupaten Nias Utara, Sumatera Utara";"Kabupaten Nias Utara, Sumatera Utara";"SUMATERA UTARA";"";"Indonesia";"";"";"";"1.4363488";"97.3678624";"https://maps.google.com/?cid=0x0:0xca816387fd834a50";""
"komplek housing";"Komplek perumahan";"Desa dahana, kecamatan lotu, kabupaten Nias Utara";"998C+V4Q, Baho, Kec. Lotu, Kabupaten Nias Utara, Sumatera Utara 22816";"Baho, Kec. Lotu, Kabupaten Nias Utara";"SUMATERA UTARA";"22816";"Indonesia";"";"";"";"1.3670975";"97.3692829";"https://maps.google.com/?cid=0x0:0xd0283a693cdf66bb";""
"komplek housing";"Perhimpunan Pengembang Perumahan";"Rumah filenus harefa";"99PF+X54, Fadoro Fulolo, Kec. Lotu, Kabupaten Nias Utara, Sumatera Utara 22851";"Fadoro Fulolo, Kec. Lotu, Kabupaten Nias Utara";"SUMATERA UTARA";"22851";"Indonesia";"";"";"";"1.3873981";"97.3729015";"https://maps.google.com/?cid=0x0:0x6fccd9414e1a07c2";""
"komplek housing";"Komplek perumahan";"Komplek Wata";"G946+MHG, Sifahandro, Kec. Sawo, Kabupaten Nias Utara, Sumatera Utara";"Kabupaten Nias Utara, Sumatera Utara";"SUMATERA UTARA";"";"Indonesia";"";"";"";"1.5066987";"97.3614521";"https://maps.google.com/?cid=0x0:0xa2eb9dd192c34397";""
"komplek housing";"Komplek perumahan";"Komplek Hili Watas";"G954+HRW, Sifahandro, Kec. Sawo, Kabupaten Nias Utara, Sumatera Utara";"Kabupaten Nias Utara, Sumatera Utara";"SUMATERA UTARA";"";"Indonesia";"";"";"";"1.5089915";"97.3570643";"https://maps.google.com/?cid=0x0:0x64f414177c60d069";""
"komplek housing";"Komplek perumahan";"Rumah Ama Remi Gulo";"C87W+WC, Lolofaoso, Kec. Lotu, Kabupaten Nias Utara, Sumatera Utara";"Kabupaten Nias Utara, Sumatera Utara";"SUMATERA UTARA";"";"Indonesia";"";"";"";"1.4144273";"97.346052";"https://maps.google.com/?cid=0x0:0xee859bb1a25a2646";""
"komplek housing";"Komplek perumahan";"Hana";"99RR+26W, Baho, Kec. Lotu, Kabupaten Nias Utara, Sumatera Utara 22852";"Baho, Kec. Lotu, Kabupaten Nias Utara";"SUMATERA UTARA";"22852";"Indonesia";"";"";"";"1.3904618";"97.3908883";"https://maps.google.com/?cid=0x0:0xfdb62440cc39b94d";""
"komplek housing";"Perhimpunan Pengembang Perumahan";"Rumah hasrat halawa";"99Q5+M42, Lawira Satua, Kec. Lotu, Kabupaten Nias Utara, Sumatera Utara";"Kabupaten Nias Utara, Sumatera Utara";"SUMATERA UTARA";"";"Indonesia";"";"";"";"1.3891445";"97.3577578";"https://maps.google.com/?cid=0x0:0xa79f5870bf44be97";""
"komplek housing";"Perhimpunan Pengembang Perumahan";"A/I deli";"9CF3+5W6, Jln, orahili, Kec. Lotu, Kabupaten Nias Utara, Sumatera Utara";"Kabupaten Nias Utara, Sumatera Utara";"SUMATERA UTARA";"";"Indonesia";"";"";"";"1.3729061";"97.4047721";"https://maps.google.com/?cid=0x0:0x72bfa71a7b29f239";""
"komplek housing";"Komplek perumahan";"Tanah Iman dan Jora";"98XR+9P, Lawira I, Kec. Lotu, Kabupaten Nias Utara, Sumatera Utara";"Kabupaten Nias Utara, Sumatera Utara";"SUMATERA UTARA";"";"Indonesia";"";"";"";"1.398401";"97.341789";"https://maps.google.com/?cid=0x0:0xcfb57069612b0da4";""
"komplek housing";"Rumah Kaca";"Rumah Sahabat Nazara";"Jl. Sawö, Lawira I, Kec. Lotu, Kabupaten Nias Utara, Sumatera Utara 22851";"Lawira I, Kec. Lotu, Kabupaten Nias Utara";"SUMATERA UTARA";"22851";"Indonesia";"";"";"";"1.4019092";"97.3542196";"https://maps.google.com/?cid=0x0:0x9c9e59b9118a1a03";""
"komplek housing";"Komplek perumahan";"Rumah Pak Bertin Nazara";"99V4+7PM, Lawira Satua, Kec. Lotu, Kabupaten Nias Utara, Sumatera Utara 22851";"Lawira Satua, Kec. Lotu, Kabupaten Nias Utara";"SUMATERA UTARA";"22851";"Indonesia";"";"";"";"1.3931972";"97.3567358";"https://maps.google.com/?cid=0x0:0xdc2e5e77d9a65592";""
"komplek housing";"Komplek perumahan";"Desa hiligeoafia";"F924+GQ4, Hiligeo Afia, Kec. Lotu, Kabupaten Nias Utara, Sumatera Utara";"Kabupaten Nias Utara, Sumatera Utara";"SUMATERA UTARA";"";"Indonesia";"";"";"";"1.4512605";"97.3569677";"https://maps.google.com/?cid=0x0:0xea5870a15bd8ba02";""
"komplek housing";"Komplek perumahan";"KADUS I";"9C58+896, Jl. Simpang Empat, Lasara, Kec. Namohalu Esiwa, Kabupaten Nias Utara, Sumatera Utara 22852";"Jl. Simpang Empat, Lasara, Kec. Namohalu Esiwa, Kabupaten Nias Utara";"SUMATERA UTARA";"22852";"Indonesia";"";"";"";"1.3582825";"97.4158751";"https://maps.google.com/?cid=0x0:0xd76b0e196663e1c";""
"komplek housing";"Perhimpunan Pengembang Perumahan";"Lawira";"9CRF+7R9, Botombawo, Kec. Sitolu Ori, Kabupaten Nias Utara, Sumatera Utara 22852";"Botombawo, Kec. Sitolu Ori, Kabupaten Nias Utara";"SUMATERA UTARA";"22852";"Indonesia";"";"";"";"1.3906573";"97.4246158";"https://maps.google.com/?cid=0x0:0x15a9d955afb747c6";""
"komplek housing";"Komplek perumahan";"A. Tili nazara";"99W4+VC3, Lawira Satua, Kec. Lotu, Kabupaten Nias Utara, Sumatera Utara 22851";"Lawira Satua, Kec. Lotu, Kabupaten Nias Utara";"SUMATERA UTARA";"22851";"Indonesia";"";"";"";"1.3971328";"97.3560608";"https://maps.google.com/?cid=0x0:0x28311a69b006c264";""
"komplek housing";"Komplek perumahan";"Rumah Reynand";"F9M4+XX9, Hiligeo Afia, Kec. Lotu, Kabupaten Nias Utara, Sumatera Utara";"Kabupaten Nias Utara, Sumatera Utara";"SUMATERA UTARA";"";"Indonesia";"";"";"";"1.4849206";"97.3574727";"https://maps.google.com/?cid=0x0:0x65d164816920d07b";""
"komplek housing";"Komplek perumahan";"enjel gea";"989C+P4R Jembatan Sungai Muzoi, Tugala Lauru, Kec. Lahewa Tim., Kabupaten Nias Utara, Sumatera Utara";"Kabupaten Nias Utara, Sumatera Utara";"SUMATERA UTARA";"";"Indonesia";"";"";"";"1.3690204";"97.3194078";"https://maps.google.com/?cid=0x0:0xaf5431e0983b427b";""
"komplek housing";"Komplek perumahan";"Komplek Harefa";"Jl. Turelaoya, Sifahandro, Kec. Sawo, Kabupaten Nias Utara, Sumatera Utara";"Kabupaten Nias Utara, Sumatera Utara";"SUMATERA UTARA";"";"Indonesia";"";"";"";"1.5129303";"97.3516566";"https://maps.google.com/?cid=0x0:0xf4b6277db182bd88";""
"komplek housing";"Kantor Pemda";"Desa lombujaua";"C9GQ+MQH, Lombuzaua, Kec. Lotu, Kabupaten Nias Utara, Sumatera Utara";"Kabupaten Nias Utara, Sumatera Utara";"SUMATERA UTARA";"";"Indonesia";"";"";"";"1.4266934";"97.3894772";"https://maps.google.com/?cid=0x0:0x5db3b5e5a7bf4a14";""
"komplek housing";"Komplek perumahan";"Casa Royal Town House";"Komp. Casa Royal Town House, Jl. Asem II, RT.13/RW.2, Cipete Sel., Kec. Cilandak, Kota Jakarta Selatan, Daerah Khusus Ibukota Jakarta 12410";"Jl. Asem II, RT.13/RW.2, Cipete Sel., Kec. Cilandak, Kota Jakarta Selatan";"SUMATERA UTARA";"12410";"Indonesia";"";"";"";"-6.2719443";"106.8067432";"https://maps.google.com/?cid=0x0:0xf8c97831e5ddeda7";""
"komplek housing";"";"Perumahan Kota Damai Lestari KDL";"Kota damai lestari blok D1 no 19 gank, jangkrik, Ciantra, Cikarang Sel., Kabupaten Bekasi, Jawa Barat 17530";"jangkrik, Ciantra, Cikarang Sel., Kabupaten Bekasi";"SUMATERA UTARA";"17530";"Indonesia";"";"";"";"-6.3581066";"107.0965911";"https://maps.google.com/?cid=0x0:0xb841db6714ab4dfa";""
"komplek housing";"Pembangunan Perumahan";"Perumahan Mustika Media Residence";"Jl. Raya Mustika Media Residence, Lubangbuaya, Kec. Setu, Kabupaten Bekasi, Jawa Barat 17320";"Lubangbuaya, Kec. Setu, Kabupaten Bekasi";"SUMATERA UTARA";"17320";"Indonesia";"";"";"";"-6.3326788";"107.0461776";"https://maps.google.com/?cid=0x0:0x7065805baf7c47e9";""
"komplek housing";"komplek housing";"Komplek Housing";"Blok Bojong Nangka I, Jl. Ring Rudal Blok Bojong Nangka I No.68, RT.001/RW.007, Jatirahayu, Kec. Pd. Melati, Kota Bks, Jawa Barat 17414";"Jl. Ring Rudal Blok Bojong Nangka I No.68, RT.001/RW.007, Jatirahayu, Kec. Pd. Melati, Kota Bks";"SUMATERA UTARA";"17414";"Indonesia";"";"";"";"-6.293724";"106.9165114";"https://maps.google.com/?cid=0x0:0x9c50464976dee674";""
"komplek housing";"komplek housing";"Sumatera Utara 22816";"Kec. Namohalu Esiwa, Kabupaten Nias Utara, Sumatera Utara";"Kabupaten Nias Utara, Sumatera Utara";"SUMATERA UTARA";"";"Indonesia";"";"";"";"1.3453232";"97.3840729";"https://maps.google.com/?cid=0x0:0x13bcd8183011aa";""
"komplek housing";"Komplek perumahan";"A/I. AGUS GEA";"9929+JXW, Dahana Hiligodu, Kec. Namohalu Esiwa, Kabupaten Nias Utara, Sumatera Utara 22816";"Dahana Hiligodu, Kec. Namohalu Esiwa, Kabupaten Nias Utara";"SUMATERA UTARA";"22816";"Indonesia";"";"";"";"1.3507054";"97.3705665";"https://maps.google.com/?cid=0x0:0xd0d58acdbb0e2347";""
"komplek housing";"Komplek perumahan";"RUMAH MARDIUS HAREFA";"8C6X+F64, Sisobahili, Kec. Namohalu Esiwa, Kabupaten Nias Utara, Sumatera Utara 22817";"Sisobahili, Kec. Namohalu Esiwa, Kabupaten Nias Utara";"SUMATERA UTARA";"22817";"Indonesia";"";"";"";"1.311128";"97.4480891";"https://maps.google.com/?cid=0x0:0xd9090ab40e47b757";""
"komplek housing";"Komplek perumahan";"Rumah Ama Aurel Harefa";"8CHM+XQP, Hilibanua, Kec. Namohalu Esiwa, Kabupaten Nias Utara, Sumatera Utara 22816";"Hilibanua, Kec. Namohalu Esiwa, Kabupaten Nias Utara";"SUMATERA UTARA";"22816";"Indonesia";"";"";"";"1.3299706";"97.4344675";"https://maps.google.com/?cid=0x0:0xc31ea28016bf22d1";""
"komplek housing";"Komplek perumahan";"Arif House";"9C37+W53, Jl. Simpang Empat, Lasara, Kec. Namohalu Esiwa, Kabupaten Nias Utara, Sumatera Utara 22816";"Jl. Simpang Empat, Lasara, Kec. Namohalu Esiwa, Kabupaten Nias Utara";"SUMATERA UTARA";"22816";"Indonesia";"";"";"";"1.3547743";"97.4129264";"https://maps.google.com/?cid=0x0:0xc0deb8101574a238";""
"komplek housing";"Komplek perumahan";"Damar house";"8FH2+VHF, Sisarahili, Kec. Namohalu Esiwa, Kabupaten Nias Utara, Sumatera Utara 22817";"Sisarahili, Kec. Namohalu Esiwa, Kabupaten Nias Utara";"SUMATERA UTARA";"22817";"Indonesia";"";"";"";"1.3296883";"97.4514147";"https://maps.google.com/?cid=0x0:0xd7841c37e25eac8";""
"komplek housing";"Komplek perumahan";"Aveto Tuhenakhe";"8FM4+7R4, Sisarahili, Kec. Namohalu Esiwa, Kabupaten Nias Utara, Sumatera Utara";"Kabupaten Nias Utara, Sumatera Utara";"SUMATERA UTARA";"";"Indonesia";"";"";"";"1.3331466";"97.4570675";"https://maps.google.com/?cid=0x0:0x4463d126ddd8c372";""
"komplek housing";"Komplek perumahan";"Rumah Velixs Harefa";"8CQ9+WGF, Tuhenakhe I, Kec. Namohalu Esiwa, Kabupaten Nias Utara, Sumatera Utara 22852";"Tuhenakhe I, Kec. Namohalu Esiwa, Kabupaten Nias Utara";"SUMATERA UTARA";"22852";"Indonesia";"";"";"";"1.3390722";"97.4195621";"https://maps.google.com/?cid=0x0:0x894570e4fd1d494a";""
"komplek housing";"Komplek perumahan";"KADUS I";"9C58+896, Jl. Simpang Empat, Lasara, Kec. Namohalu Esiwa, Kabupaten Nias Utara, Sumatera Utara 22852";"Jl. Simpang Empat, Lasara, Kec. Namohalu Esiwa, Kabupaten Nias Utara";"SUMATERA UTARA";"22852";"Indonesia";"";"";"";"1.3582825";"97.4158751";"https://maps.google.com/?cid=0x0:0xd76b0e196663e1c";""
"komplek housing";"Komplek perumahan";"Rumah Doni Harefa";"8C6X+F95, Sisobahili, Kec. Namohalu Esiwa, Kabupaten Nias Utara, Sumatera Utara 22817";"Sisobahili, Kec. Namohalu Esiwa, Kabupaten Nias Utara";"SUMATERA UTARA";"22817";"Indonesia";"";"";"";"1.3111327";"97.448475";"https://maps.google.com/?cid=0x0:0x8e4ce0bdec4568e7";""
"komplek housing";"Komplek perumahan";"Wita Gea";"89WX+PJV, Berua, Kec. Namohalu Esiwa, Kabupaten Nias Utara, Sumatera Utara";"Kabupaten Nias Utara, Sumatera Utara";"SUMATERA UTARA";"";"Indonesia";"";"";"";"1.3468595";"97.3990516";"https://maps.google.com/?cid=0x0:0xa48f1099180ce191";""
"komplek housing";"Komplek perumahan";"Rumah Dinas Kepala Sekolah";"8CCV+FCV, Dusun III, Hilibanua, Kec. Namohalu Esiwa, Kabupaten Nias Utara, Sumatera Utara";"Kabupaten Nias Utara, Sumatera Utara";"SUMATERA UTARA";"";"Indonesia";"";"";"";"1.3212373";"97.4435441";"https://maps.google.com/?cid=0x0:0x9c67615e1d8126cb";""
"komplek housing";"Komplek perumahan";"Rony house";"8FC3+M37, Sisarahili, Kec. Namohalu Esiwa, Kabupaten Nias Utara, Sumatera Utara";"Kabupaten Nias Utara, Sumatera Utara";"SUMATERA UTARA";"";"Indonesia";"";"";"";"1.3212128";"97.4525576";"https://maps.google.com/?cid=0x0:0x97c712bb5c1c853e";""
"komplek housing";"Pembangunan Perumahan";"Ama Fanjer Harefa";"8FH2+GFH, Sisarahili, Kec. Namohalu Esiwa, Kabupaten Nias Utara, Sumatera Utara 22817";"Sisarahili, Kec. Namohalu Esiwa, Kabupaten Nias Utara";"SUMATERA UTARA";"22817";"Indonesia";"";"";"";"1.3279132";"97.4511203";"https://maps.google.com/?cid=0x0:0xf6ecd1380d13f9e5";""
"komplek housing";"Komplek perumahan";"Simpang gowe onombongi";"8FH2+VHF, Sisarahili, Kec. Namohalu Esiwa, Kabupaten Nias Utara, Sumatera Utara 22817";"Sisarahili, Kec. Namohalu Esiwa, Kabupaten Nias Utara";"SUMATERA UTARA";"22817";"Indonesia";"";"";"";"1.3292553";"97.4513614";"https://maps.google.com/?cid=0x0:0xe212062d1e054d34";""
"komplek housing";"Komplek perumahan";"Rumah A.Delon Gea";"9C58+HM, Esiwa, Kec. Namohalu Esiwa, Kabupaten Nias Utara, Sumatera Utara";"Kabupaten Nias Utara, Sumatera Utara";"SUMATERA UTARA";"";"Indonesia";"";"";"";"1.3589375";"97.4166875";"https://maps.google.com/?cid=0x0:0xd8e02619b5243ebe";""
"komplek housing";"Komplek perumahan";"Pierca house";"8FC3+662, Sisarahili, Kec. Namohalu Esiwa, Kabupaten Nias Utara, Sumatera Utara 22817";"Sisarahili, Kec. Namohalu Esiwa, Kabupaten Nias Utara";"SUMATERA UTARA";"22817";"Indonesia";"";"";"";"1.3205076";"97.4530059";"https://maps.google.com/?cid=0x0:0xc867e3b16e868bd7";""
"komplek housing";"Komplek perumahan";"RUMAH Almh. A. Dama Lahagu";"899P+HCF, Berua, Kec. Namohalu Esiwa, Kabupaten Nias Utara, Sumatera Utara";"Kabupaten Nias Utara, Sumatera Utara";"SUMATERA UTARA";"";"Indonesia";"";"";"";"1.3189329";"97.3860563";"https://maps.google.com/?cid=0x0:0x7c979c34d28212f8";""
"komplek housing";"Komplek perumahan";"A.Helsa Harefa";"8CQ9+FXG, Jl. Desa Namohalu, RT.015/RW.003, Siwalubanua, Kec. Namohalu Esiwa, Kabupaten Nias Utara, Sumatera Utara";"Kabupaten Nias Utara, Sumatera Utara";"SUMATERA UTARA";"";"Indonesia";"";"";"";"1.3386921";"97.419953";"https://maps.google.com/?cid=0x0:0x2febe63eaf290e97";""
"komplek housing";"Rumah Kaca";"Rumah Ibu Ina Rini";"8C5W+5QP, Sisobahili, Kec. Namohalu Esiwa, Kabupaten Nias Utara, Sumatera Utara";"Kabupaten Nias Utara, Sumatera Utara";"SUMATERA UTARA";"";"Indonesia";"";"";"";"1.3080845";"97.4465096";"https://maps.google.com/?cid=0x0:0xf0ba42af3fe3a120";""
"komplek housing";"komplek housing";"Kec. Namohalu Esiwa";"Kabupaten Nias Utara, Sumatera Utara";"Kabupaten Nias Utara, Sumatera Utara";"SUMATERA UTARA";"";"Indonesia";"";"";"";"1.3516333";"97.4047158";"https://maps.google.com/?cid=0x0:0x704a4afe59371577";""
"komplek housing";"Perhimpunan Pengembang Perumahan";"LAURU SIBOHOU";"898V+JXR, Berua, Kec. Namohalu Esiwa, Kabupaten Nias Utara, Sumatera Utara 22816";"Berua, Kec. Namohalu Esiwa, Kabupaten Nias Utara";"SUMATERA UTARA";"22816";"Indonesia";"";"";"";"1.3172261";"97.3939812";"https://maps.google.com/?cid=0x0:0x767fb594f211440e";""
"komplek housing";"Komplek perumahan";"Desa dahana, kecamatan lotu, kabupaten Nias Utara";"998C+V4Q, Baho, Kec. Lotu, Kabupaten Nias Utara, Sumatera Utara 22816";"Baho, Kec. Lotu, Kabupaten Nias Utara";"SUMATERA UTARA";"22816";"Indonesia";"";"";"";"1.3670975";"97.3692829";"https://maps.google.com/?cid=0x0:0xd0283a693cdf66bb";""
"komplek housing";"Komplek perumahan";"Namohalu esiwa";"83C2+69, Hili Gawolo, Kabupaten Nias Utara, Sumatera Utara";"Kabupaten Nias Utara, Sumatera Utara";"SUMATERA UTARA";"";"Indonesia";"";"";"";"1.3205625";"97.0509375";"https://maps.google.com/?cid=0x0:0x352c697e1168e720";""
"komplek housing";"komplek housing";"Sumatera Utara 22817";"Kabupaten Nias Utara, Sumatera Utara";"Kabupaten Nias Utara, Sumatera Utara";"SUMATERA UTARA";"";"Indonesia";"";"";"";"1.2834877";"97.2814718";"https://maps.google.com/?cid=0x0:0x99ac41ee85893cf2";""
"komplek housing";"Komplek perumahan";"Damar house";"8FH2+VHF, Sisarahili, Kec. Namohalu Esiwa, Kabupaten Nias Utara, Sumatera Utara 22817";"Sisarahili, Kec. Namohalu Esiwa, Kabupaten Nias Utara";"SUMATERA UTARA";"22817";"Indonesia";"";"";"";"1.3296883";"97.4514147";"https://maps.google.com/?cid=0x0:0xd7841c37e25eac8";""
"komplek housing";"Komplek perumahan";"Aveto Tuhenakhe";"8FM4+7R4, Sisarahili, Kec. Namohalu Esiwa, Kabupaten Nias Utara, Sumatera Utara";"Kabupaten Nias Utara, Sumatera Utara";"SUMATERA UTARA";"";"Indonesia";"";"";"";"1.3331466";"97.4570675";"https://maps.google.com/?cid=0x0:0x4463d126ddd8c372";""
"komplek housing";"Pembangunan Perumahan";"Rmh. A. Mega Lahagu";"7FW3+RV4, Banua Sibohou, Kec. Namohalu Esiwa, Kabupaten Nias Utara, Sumatera Utara";"Kabupaten Nias Utara, Sumatera Utara";"SUMATERA UTARA";"";"Indonesia";"";"";"";"1.2970075";"97.4546944";"https://maps.google.com/?cid=0x0:0xf80b339e3b3999ef";""
"komplek housing";"Komplek perumahan";"Pierca house";"8FC3+662, Sisarahili, Kec. Namohalu Esiwa, Kabupaten Nias Utara, Sumatera Utara 22817";"Sisarahili, Kec. Namohalu Esiwa, Kabupaten Nias Utara";"SUMATERA UTARA";"22817";"Indonesia";"";"";"";"1.3205076";"97.4530059";"https://maps.google.com/?cid=0x0:0xc867e3b16e868bd7";""
"komplek housing";"Komplek perumahan";"Simpang gowe onombongi";"8FH2+VHF, Sisarahili, Kec. Namohalu Esiwa, Kabupaten Nias Utara, Sumatera Utara 22817";"Sisarahili, Kec. Namohalu Esiwa, Kabupaten Nias Utara";"SUMATERA UTARA";"22817";"Indonesia";"";"";"";"1.3292553";"97.4513614";"https://maps.google.com/?cid=0x0:0xe212062d1e054d34";""
"komplek housing";"Pembangunan Perumahan";"Ama Fanjer Harefa";"8FH2+GFH, Sisarahili, Kec. Namohalu Esiwa, Kabupaten Nias Utara, Sumatera Utara 22817";"Sisarahili, Kec. Namohalu Esiwa, Kabupaten Nias Utara";"SUMATERA UTARA";"22817";"Indonesia";"";"";"";"1.3279132";"97.4511203";"https://maps.google.com/?cid=0x0:0xf6ecd1380d13f9e5";""
"komplek housing";"Komplek perumahan";"Rumah Doni Harefa";"8C6X+F95, Sisobahili, Kec. Namohalu Esiwa, Kabupaten Nias Utara, Sumatera Utara 22817";"Sisobahili, Kec. Namohalu Esiwa, Kabupaten Nias Utara";"SUMATERA UTARA";"22817";"Indonesia";"";"";"";"1.3111327";"97.448475";"https://maps.google.com/?cid=0x0:0x8e4ce0bdec4568e7";""
"komplek housing";"Rumah Kaca";"Rumah Ibu Ina Rini";"8C5W+5QP, Sisobahili, Kec. Namohalu Esiwa, Kabupaten Nias Utara, Sumatera Utara";"Kabupaten Nias Utara, Sumatera Utara";"SUMATERA UTARA";"";"Indonesia";"";"";"";"1.3080845";"97.4465096";"https://maps.google.com/?cid=0x0:0xf0ba42af3fe3a120";""
"komplek housing";"Komplek perumahan";"Rumah Dinas Kepala Sekolah";"8CCV+FCV, Dusun III, Hilibanua, Kec. Namohalu Esiwa, Kabupaten Nias Utara, Sumatera Utara";"Kabupaten Nias Utara, Sumatera Utara";"SUMATERA UTARA";"";"Indonesia";"";"";"";"1.3212373";"97.4435441";"https://maps.google.com/?cid=0x0:0x9c67615e1d8126cb";""
"komplek housing";"Komplek perumahan";"Rumah Ama Aurel Harefa";"8CHM+XQP, Hilibanua, Kec. Namohalu Esiwa, Kabupaten Nias Utara, Sumatera Utara 22816";"Hilibanua, Kec. Namohalu Esiwa, Kabupaten Nias Utara";"SUMATERA UTARA";"22816";"Indonesia";"";"";"";"1.3299706";"97.4344675";"https://maps.google.com/?cid=0x0:0xc31ea28016bf22d1";""
"komplek housing";"Komplek perumahan";"Rony house";"8FC3+M37, Sisarahili, Kec. Namohalu Esiwa, Kabupaten Nias Utara, Sumatera Utara";"Kabupaten Nias Utara, Sumatera Utara";"SUMATERA UTARA";"";"Indonesia";"";"";"";"1.3212128";"97.4525576";"https://maps.google.com/?cid=0x0:0x97c712bb5c1c853e";""
"komplek housing";"Komplek perumahan";"Tuhegafoa";"8CCX+J64, Sisarahili, Kec. Namohalu Esiwa, Kabupaten Nias Utara, Sumatera Utara 22817";"Sisarahili, Kec. Namohalu Esiwa, Kabupaten Nias Utara";"SUMATERA UTARA";"22817";"Indonesia";"";"";"";"1.321432";"97.4475956";"https://maps.google.com/?cid=0x0:0xf3cea474eb989c98";""
"komplek housing";"Komplek perumahan";"Rumah DESIMAN HAREFA";"8C6X+C9F, Sisobahili, Kec. Namohalu Esiwa, Kabupaten Nias Utara, Sumatera Utara";"Kabupaten Nias Utara, Sumatera Utara";"SUMATERA UTARA";"";"Indonesia";"";"";"";"1.3110697";"97.4484366";"https://maps.google.com/?cid=0x0:0x989d3295c30a495f";""
"komplek housing";"Pembangunan Perumahan";"A.moko H";"8CCX+G32, Hilibanua, Kec. Namohalu Esiwa, Kabupaten Nias Utara, Sumatera Utara 22817";"Hilibanua, Kec. Namohalu Esiwa, Kabupaten Nias Utara";"SUMATERA UTARA";"22817";"Indonesia";"";"";"";"1.3212574";"97.4476475";"https://maps.google.com/?cid=0x0:0xf77291c7473fd780";""
"komplek housing";"Komplek perumahan";"RUMAH AMA LENTA HAREFA";"8F74+CQF, Sisobahili, Kec. Namohalu Esiwa, Kabupaten Nias Utara, Sumatera Utara";"Kabupaten Nias Utara, Sumatera Utara";"SUMATERA UTARA";"";"Indonesia";"";"";"";"1.3135625";"97.4569327";"https://maps.google.com/?cid=0x0:0xaea051da92870fea";""
"komplek housing";"Pembangunan Perumahan";"Banua Sibohou 01";"8C3H+8J Banua Sibohou 01, Kabupaten Nias Utara, Sumatera Utara";"Kabupaten Nias Utara, Sumatera Utara";"SUMATERA UTARA";"";"Indonesia";"";"";"";"1.3033125";"97.4290625";"https://maps.google.com/?cid=0x0:0xbfcee86cc4a39dd1";""
"komplek housing";"Komplek perumahan";"A/I. AGUS GEA";"9929+JXW, Dahana Hiligodu, Kec. Namohalu Esiwa, Kabupaten Nias Utara, Sumatera Utara 22816";"Dahana Hiligodu, Kec. Namohalu Esiwa, Kabupaten Nias Utara";"SUMATERA UTARA";"22816";"Indonesia";"";"";"";"1.3507054";"97.3705665";"https://maps.google.com/?cid=0x0:0xd0d58acdbb0e2347";""
"komplek housing";"Komplek perumahan";"Rumah A. Fani Harefa";"8FCG+FC2, Sisobahili, Kec. Namohalu Esiwa, Kabupaten Nias Utara, Sumatera Utara";"Kabupaten Nias Utara, Sumatera Utara";"SUMATERA UTARA";"";"Indonesia";"";"";"";"1.3211393";"97.4760047";"https://maps.google.com/?cid=0x0:0x96b7b527781b6b55";""
"komplek housing";"komplek housing";"Kec. Namohalu Esiwa";"Kabupaten Nias Utara, Sumatera Utara";"Kabupaten Nias Utara, Sumatera Utara";"SUMATERA UTARA";"";"Indonesia";"";"";"";"1.3516333";"97.4047158";"https://maps.google.com/?cid=0x0:0x704a4afe59371577";""
"komplek housing";"Klub Badminton";"Lapangan FUTSAL Desa Sisobahili";"8C6X+H3X, Sisobahili, Kec. Namohalu Esiwa, Kabupaten Nias Utara, Sumatera Utara 22817";"Sisobahili, Kec. Namohalu Esiwa, Kabupaten Nias Utara";"SUMATERA UTARA";"22817";"Indonesia";"";"";"";"1.3115829";"97.4478105";"https://maps.google.com/?cid=0x0:0xfa798376158dbb79";""
"komplek housing";"Komplek perumahan";"A.Helsa Harefa";"8CQ9+FXG, Jl. Desa Namohalu, RT.015/RW.003, Siwalubanua, Kec. Namohalu Esiwa, Kabupaten Nias Utara, Sumatera Utara";"Kabupaten Nias Utara, Sumatera Utara";"SUMATERA UTARA";"";"Indonesia";"";"";"";"1.3386921";"97.419953";"https://maps.google.com/?cid=0x0:0x2febe63eaf290e97";""
"komplek housing";"Komplek perumahan";"Namohalu esiwa";"83C2+69, Hili Gawolo, Kabupaten Nias Utara, Sumatera Utara";"Kabupaten Nias Utara, Sumatera Utara";"SUMATERA UTARA";"";"Indonesia";"";"";"";"1.3205625";"97.0509375";"https://maps.google.com/?cid=0x0:0x352c697e1168e720";""
"komplek housing";"komplek housing";"Kec. Sawo";"Kabupaten Nias Utara, Sumatera Utara";"Kabupaten Nias Utara, Sumatera Utara";"SUMATERA UTARA";"";"Indonesia";"";"";"";"1.497956";"97.3989135";"https://maps.google.com/?cid=0x0:0x766aabcbebe65b39";""
"komplek housing";"Komplek perumahan";"Komplek Harefa";"Jl. Turelaoya, Sifahandro, Kec. Sawo, Kabupaten Nias Utara, Sumatera Utara";"Kabupaten Nias Utara, Sumatera Utara";"SUMATERA UTARA";"";"Indonesia";"";"";"";"1.5129303";"97.3516566";"https://maps.google.com/?cid=0x0:0xf4b6277db182bd88";""
"komplek housing";"Komplek perumahan";"Komplek Hareffa";"G9C2+FPF, Sifahandro, Kec. Sawo, Kabupaten Nias Utara, Sumatera Utara";"Kabupaten Nias Utara, Sumatera Utara";"SUMATERA UTARA";"";"Indonesia";"";"";"";"1.5211853";"97.3517857";"https://maps.google.com/?cid=0x0:0x3281ab9aaa3c5d49";""
"komplek housing";"Komplek perumahan";"Komplek sifadaya hiligawo'o";"G992+9PP, JL Turelaoya, Sifahandro, Kec. Sawo, Kabupaten Nias Utara, Sumatera Utara";"Kabupaten Nias Utara, Sumatera Utara";"SUMATERA UTARA";"";"Indonesia";"";"";"";"1.5184642";"97.3518293";"https://maps.google.com/?cid=0x0:0xdc9479023a74df1";""
"komplek housing";"Komplek perumahan";"Komplek Botohili";"Jl. Turelaoya, Sifahandro, Kec. Sawo, Kabupaten Nias Utara, Sumatera Utara";"Kabupaten Nias Utara, Sumatera Utara";"SUMATERA UTARA";"";"Indonesia";"";"";"";"1.5194482";"97.3517837";"https://maps.google.com/?cid=0x0:0x6bfea1fdfce7a46a";""
"komplek housing";"Komplek perumahan";"Komplek sifadaya tano";"Jl. Turelaoya, Sifahandro, Kec. Sawo, Kabupaten Nias Utara, Sumatera Utara";"Kabupaten Nias Utara, Sumatera Utara";"SUMATERA UTARA";"";"Indonesia";"";"";"";"1.5184702";"97.351836";"https://maps.google.com/?cid=0x0:0x93ff4a114c6b60e0";""
"komplek housing";"Komplek perumahan";"Komplek silima omo";"G9C2+5P5, JL Turelaoya, Sifahandro, Kec. Sawo, Kabupaten Nias Utara, Sumatera Utara";"Kabupaten Nias Utara, Sumatera Utara";"SUMATERA UTARA";"";"Indonesia";"";"";"";"1.5203865";"97.3518456";"https://maps.google.com/?cid=0x0:0x8985744c8b7d94c2";""
"komplek housing";"Perhimpunan Pengembang Perumahan";"Rumah Tuty";"Sisarahili Tlk. Siabang, Kec. Sawo, Kabupaten Nias Utara, Sumatera Utara";"Kabupaten Nias Utara, Sumatera Utara";"SUMATERA UTARA";"";"Indonesia";"";"";"";"1.5147318";"97.3684023";"https://maps.google.com/?cid=0x0:0xaf1d7da73fae0142";""
"komplek housing";"Komplek perumahan";"Komplek Hili Watas";"G954+HRW, Sifahandro, Kec. Sawo, Kabupaten Nias Utara, Sumatera Utara";"Kabupaten Nias Utara, Sumatera Utara";"SUMATERA UTARA";"";"Indonesia";"";"";"";"1.5089915";"97.3570643";"https://maps.google.com/?cid=0x0:0x64f414177c60d069";""
"komplek housing";"Perumahan";"Penggis Home";"GC28+HF6, Hiliduruwa, Kec. Sawo, Kabupaten Nias Utara, Sumatera Utara";"Kabupaten Nias Utara, Sumatera Utara";"SUMATERA UTARA";"";"Indonesia";"";"";"";"1.50142";"97.4161367";"https://maps.google.com/?cid=0x0:0x23d6fa1f4764e718";""
"komplek housing";"Pembangunan Perumahan";"Hilimbowo sawo";"F9PX+J2W, Sawo, Kec. Sawo, Kabupaten Nias Utara, Sumatera Utara";"Kabupaten Nias Utara, Sumatera Utara";"SUMATERA UTARA";"";"Indonesia";"";"";"";"1.4866095";"97.3975845";"https://maps.google.com/?cid=0x0:0xb6ad828cc0e29c";""
"komplek housing";"Komplek perumahan";"Rumah I.Gayusu Tel";"F9PX+J2W, Jalan idanö sawö, Onozitoli Sawo, Kec. Sawo, Kabupaten Nias Utara, Sumatera Utara 22852";"Jalan idanö sawö, Onozitoli Sawo, Kec. Sawo, Kabupaten Nias Utara";"SUMATERA UTARA";"22852";"Indonesia";"";"";"";"1.4866095";"97.3975845";"https://maps.google.com/?cid=0x0:0xee6b179e3dc58786";""
"komplek housing";"Kantor Pemerintahan Wilayah";"desa Lasara Sawo";"F9XX+5G5, Sawo, Kec. Sawo, Kabupaten Nias Utara, Sumatera Utara";"Kabupaten Nias Utara, Sumatera Utara";"SUMATERA UTARA";"";"Indonesia";"";"";"";"1.4978866";"97.3988658";"https://maps.google.com/?cid=0x0:0xfc004ebf8e82eea0";""
"komplek housing";"Pembangunan Perumahan";"Kampung tetenaulu";"F9P4+3V2, Jl. Sawö, Sisarahili Tlk. Siabang, Kec. Sawo, Kabupaten Nias Utara, Sumatera Utara 22852";"Jl. Sawö, Sisarahili Tlk. Siabang, Kec. Sawo, Kabupaten Nias Utara";"SUMATERA UTARA";"22852";"Indonesia";"";"";"";"1.4851353";"97.3571256";"https://maps.google.com/?cid=0x0:0x70a48bef81215680";""
"komplek housing";"Komplek perumahan";"Komplek bukit soya uro";"Jl. Turelaoya, Sifahandro, Kec. Sawo, Kabupaten Nias Utara, Sumatera Utara";"Kabupaten Nias Utara, Sumatera Utara";"SUMATERA UTARA";"";"Indonesia";"";"";"";"1.5282058";"97.355572";"https://maps.google.com/?cid=0x0:0xac48b5f57f5b5049";""
"komplek housing";"Komplek perumahan";"Eko hardian";"FC46+P3, Sanawuyu, Kec. Sawo, Kabupaten Nias Utara, Sumatera Utara";"Kabupaten Nias Utara, Sumatera Utara";"SUMATERA UTARA";"";"Indonesia";"";"";"";"1.4566641";"97.410044";"https://maps.google.com/?cid=0x0:0x1fcf8e452ad7b4b1";""
"komplek housing";"Pembangunan Perumahan";"Lahagu";"F9VR+JGR, Sawo, Kec. Sawo, Kabupaten Nias Utara, Sumatera Utara";"Kabupaten Nias Utara, Sumatera Utara";"SUMATERA UTARA";"";"Indonesia";"";"";"";"1.4941238";"97.3912799";"https://maps.google.com/?cid=0x0:0x6c0dbe1c7edf8153";""
"komplek housing";"komplek housing";"Rumah ina roma tel";"FCC3+V5H, Jalan indano sawo,dusun II,tuhenkhe, Onozitoli Sawo, Kec. Sawo";"Kabupaten Nias Utara, Sumatera Utara";"SUMATERA UTARA";"";"Indonesia";"";"";"";"1.4721976";"97.4029899";"https://maps.google.com/?cid=0x0:0x81e15692e9c3c17";""
"komplek housing";"Pembangunan Perumahan";"Rumah. A/i. Wiliam";"FC36+CF5, Jl. Sawo Botombawo, Sanawuyu, Kec. Sawo, Kabupaten Nias Utara, Sumatera Utara 22852";"Jl. Sawo Botombawo, Sanawuyu, Kec. Sawo, Kabupaten Nias Utara";"SUMATERA UTARA";"22852";"Indonesia";"";"";"";"1.4531622";"97.4102215";"https://maps.google.com/?cid=0x0:0x1b0c8b89514d2a1";""
"komplek housing";"Grosir Barang Kelontong";"Rumah A. Teguh Tel";"FCC4+FJ, Onozitoli Sawo, Kec. Sawo, Kabupaten Nias Utara, Sumatera Utara";"Kabupaten Nias Utara, Sumatera Utara";"SUMATERA UTARA";"";"Indonesia";"";"";"";"1.4709268";"97.4068287";"https://maps.google.com/?cid=0x0:0x8803aab0f4d9247e";""
"komplek housing";"Komplek perumahan";"Rumah A/I Mide";"GC25+7GJ, Jl. Arah Gunungsitoli-Lahewa, Seriwau, Kec. Sawo, Kabupaten Nias Utara, Sumatera Utara 22852";"Jl. Arah Gunungsitoli-Lahewa, Seriwau, Kec. Sawo, Kabupaten Nias Utara";"SUMATERA UTARA";"22852";"Indonesia";"";"";"";"1.5007205";"97.408767";"https://maps.google.com/?cid=0x0:0xf82ff1723f5200a";""
"komplek housing";"Komplek perumahan";"Perumahan housing 2";"Jl. Raya Hankam No.12 Blok U, RT.005/RW.002, Jatirahayu, Kec. Pd. Melati, Kota Bks, Jawa Barat 17414";"RT.005/RW.002, Jatirahayu, Kec. Pd. Melati, Kota Bks";"SUMATERA UTARA";"17414";"Indonesia";"";"";"";"-6.287153";"106.9155932";"https://maps.google.com/?cid=0x0:0x60205f6f07650dd6";""
"komplek housing";"Komplek perumahan";"Pondok Gede Housing II";"Housing II, Jl. Raya Hankam, RT.001/RW.004, Jatirahayu, Pondok Gede, Bekasi, West Java";"Kota Bks, Jawa Barat";"SUMATERA UTARA";"";"Indonesia";"";"";"";"-6.2876701";"106.9147674";"https://maps.google.com/?cid=0x0:0x2a52e601c20d18f2";""
"komplek housing";"Komplek perumahan";"Rumah keluarga Martianus Zega";"Hilimbosi, Kec. Sitolu Ori, Kabupaten Nias Utara, Sumatera Utara 22852";"Kec. Sitolu Ori, Kabupaten Nias Utara";"SUMATERA UTARA";"22852";"Indonesia";"";"";"";"1.3972331";"97.4867577";"https://maps.google.com/?cid=0x0:0xaf190df4fd3c912e";""
"komplek housing";"Komplek perumahan";"Sihareo";"CC38+WW5, Hilisaloo, Kec. Sitolu Ori, Kabupaten Nias Utara, Sumatera Utara 22852";"Hilisaloo, Kec. Sitolu Ori, Kabupaten Nias Utara";"SUMATERA UTARA";"22852";"Indonesia";"";"";"";"1.4047648";"97.4173583";"https://maps.google.com/?cid=0x0:0xf9b1f74830af942f";""
"komplek housing";"komplek housing";"Kec. Sitolu Ori";"Kabupaten Nias Utara, Sumatera Utara";"Kabupaten Nias Utara, Sumatera Utara";"SUMATERA UTARA";"";"Indonesia";"";"";"";"1.3987456";"97.4439582";"https://maps.google.com/?cid=0x0:0xe9e1d2f552ca917e";""
"komplek housing";"Perhimpunan Pengembang Perumahan";"Lawira";"9CRF+7R9, Botombawo, Kec. Sitolu Ori, Kabupaten Nias Utara, Sumatera Utara 22852";"Botombawo, Kec. Sitolu Ori, Kabupaten Nias Utara";"SUMATERA UTARA";"22852";"Indonesia";"";"";"";"1.3906573";"97.4246158";"https://maps.google.com/?cid=0x0:0x15a9d955afb747c6";""
"komplek housing";"komplek housing";"Rumah A/I Grace hulu";"CC6F+3VP, Hilisaloo, Kec. Sitolu Ori, Kabupaten Nias Utara, Sumatera Utara 22852";"Hilisaloo, Kec. Sitolu Ori, Kabupaten Nias Utara";"SUMATERA UTARA";"22852";"Indonesia";"";"";"";"1.4102167";"97.4247002";"https://maps.google.com/?cid=0x0:0x22d6fdbf5bb7a9d9";""
"komplek housing";"Komplek perumahan";"Rumah, a/i Dian Hulu";"9CRF+7R9, Botombawo, Kec. Sitolu Ori, Kabupaten Nias Utara, Sumatera Utara 22852";"Botombawo, Kec. Sitolu Ori, Kabupaten Nias Utara";"SUMATERA UTARA";"22852";"Indonesia";"";"";"";"1.3906573";"97.4246158";"https://maps.google.com/?cid=0x0:0x1745bc4247ee8d6c";""
"komplek housing";"Pembangunan Perumahan";"Chardlinrev";"9CXV+CW6, Hilisaloo, Kec. Sitolu Ori, Kabupaten Nias Utara, Sumatera Utara 22852";"Hilisaloo, Kec. Sitolu Ori, Kabupaten Nias Utara";"SUMATERA UTARA";"22852";"Indonesia";"";"";"";"1.3985444";"97.4447611";"https://maps.google.com/?cid=0x0:0x6f71d75df64d6a85";""
"komplek housing";"Komplek perumahan";"Rumah A/I. Naomi Zega";"CC2R+GHC, Hilisaloo, Kec. Sitolu Ori, Kabupaten Nias Utara, Sumatera Utara 22852";"Hilisaloo, Kec. Sitolu Ori, Kabupaten Nias Utara";"SUMATERA UTARA";"22852";"Indonesia";"";"";"";"1.4013125";"97.4413906";"https://maps.google.com/?cid=0x0:0x409fbc9ec758bd24";""
"komplek housing";"komplek housing";"Juli Kasih Gea";"CCFV+Q4, Hilisaloo, Kec. Sitolu Ori, Kabupaten Nias Utara, Sumatera Utara";"Kabupaten Nias Utara, Sumatera Utara";"SUMATERA UTARA";"";"Indonesia";"";"";"";"1.4243822";"97.4427706";"https://maps.google.com/?cid=0x0:0x54cb56e0404107bb";""
"komplek housing";"Perhimpunan Pengembang Perumahan";"Desa fulolosaloo";"CCP6+FCQ, Fulolo Saloo, Kec. Sitolu Ori, Kabupaten Nias Utara, Sumatera Utara 22852";"Fulolo Saloo, Kec. Sitolu Ori, Kabupaten Nias Utara";"SUMATERA UTARA";"22852";"Indonesia";"";"";"";"1.4362083";"97.4110988";"https://maps.google.com/?cid=0x0:0xbd51778e175e38aa";""
"komplek housing";"Komplek perumahan";"Rumah Keluarga A/I Ziagus Zega";"9FWR+32X, Hilimbosi, Kec. Sitolu Ori, Kabupaten Nias Utara, Sumatera Utara 22852";"Hilimbosi, Kec. Sitolu Ori, Kabupaten Nias Utara";"SUMATERA UTARA";"22852";"Indonesia";"";"";"";"1.3952647";"97.4900736";"https://maps.google.com/?cid=0x0:0x89287d48ff48cbf1";""
"komplek housing";"Komplek perumahan";"Rumah a/i Tristan hulu";"CC5H+J5, Hilisaloo, Kec. Sitolu Ori, Kabupaten Nias Utara, Sumatera Utara";"Kabupaten Nias Utara, Sumatera Utara";"SUMATERA UTARA";"";"Indonesia";"";"";"";"1.4090564";"97.4279879";"https://maps.google.com/?cid=0x0:0x21c533f23a5497cf";""
"komplek housing";"Komplek perumahan";"Rumah Emon Kurnia Zega";"CC4M+36G, Tarahoso, Botombawo, Kec. Sitolu Ori, Kabupaten Nias Utara, Sumatera Utara 22852";"Tarahoso, Botombawo, Kec. Sitolu Ori, Kabupaten Nias Utara";"SUMATERA UTARA";"22852";"Indonesia";"";"";"";"1.4051804";"97.4330875";"https://maps.google.com/?cid=0x0:0x9164f63b0b4d356f";""
"komplek housing";"Komplek perumahan";"Rumah Muzawa Zega";"CC8C+RQ3, Hilisaloo, Kec. Sitolu Ori, Kabupaten Nias Utara, Sumatera Utara 22852";"Hilisaloo, Kec. Sitolu Ori, Kabupaten Nias Utara";"SUMATERA UTARA";"22852";"Indonesia";"";"";"";"1.4170061";"97.4219122";"https://maps.google.com/?cid=0x0:0xf35ecb1cb245934b";""
"komplek housing";"Komplek perumahan";"Rumah Ama kari hulu";"9CRF+7R9, Sisobahili, Botombawo";"Kabupaten Nias Utara, Sumatera Utara";"SUMATERA UTARA";"";"Indonesia";"";"";"";"1.3906573";"97.4246158";"https://maps.google.com/?cid=0x0:0xb7427de56d28a188";""
"komplek housing";"Komplek perumahan";"A/I. Fama Zega";"CC2W+7W9, Tetehosi Maziaya, Kec. Sitolu Ori, Kabupaten Nias Utara, Sumatera Utara 22852";"Tetehosi Maziaya, Kec. Sitolu Ori, Kabupaten Nias Utara";"SUMATERA UTARA";"22852";"Indonesia";"";"";"";"1.4006746";"97.4473682";"https://maps.google.com/?cid=0x0:0x694475bc0158d799";""
"komplek housing";"Komplek perumahan";"Rumah I. Sada Zega";"CC3P+PF6, Desa Botombawö, Kec. Sitolu Ori, Kabupaten Nias Utara, Sumatera Utara 22852";"Desa Botombawö, Kec. Sitolu Ori, Kabupaten Nias Utara";"SUMATERA UTARA";"22852";"Indonesia";"";"";"";"1.4042811";"97.4361392";"https://maps.google.com/?cid=0x0:0xa4f630163c43da17";""
"komplek housing";"Pembangunan Perumahan";"Munieli";"9FH7+G5, Tetehosi Maziaya, Kec. Sitolu Ori, Kabupaten Nias Utara, Sumatera Utara";"Kabupaten Nias Utara, Sumatera Utara";"SUMATERA UTARA";"";"Indonesia";"";"";"";"1.378802";"97.462939";"https://maps.google.com/?cid=0x0:0x1e89ec5a9e84bb81";""
"komplek housing";"Komplek perumahan";"Rumah Yatafati Zega";"CC2W+4V6, Tetehosi Maziaya, Kec. Sitolu Ori, Kabupaten Nias Utara, Sumatera Utara 22852";"Tetehosi Maziaya, Kec. Sitolu Ori, Kabupaten Nias Utara";"SUMATERA UTARA";"22852";"Indonesia";"";"";"";"1.4001571";"97.4466883";"https://maps.google.com/?cid=0x0:0xa69fca7ff1a6a55e";""
"komplek housing";"Pembangunan Perumahan";"Hiligara";"CC8R+PQP, Hiligara, Desa Fulolo, Salo'o, Kec. Sitolu Ori, Kabupaten Nias Utara, Sumatera Utara";"Kabupaten Nias Utara, Sumatera Utara";"SUMATERA UTARA";"";"Indonesia";"";"";"";"1.4168391";"97.4419565";"https://maps.google.com/?cid=0x0:0x96e1b82f4138ff03";""
"komplek housing";"Komplek perumahan";"KADUS I";"9C58+896, Jl. Simpang Empat, Lasara, Kec. Namohalu Esiwa, Kabupaten Nias Utara, Sumatera Utara 22852";"Jl. Simpang Empat, Lasara, Kec. Namohalu Esiwa, Kabupaten Nias Utara";"SUMATERA UTARA";"22852";"Indonesia";"";"";"";"1.3582825";"97.4158751";"https://maps.google.com/?cid=0x0:0xd76b0e196663e1c";""
"komplek housing";"komplek housing";"Kec. Tugala Oyo";"Kabupaten Nias Utara, Sumatera Utara";"Kabupaten Nias Utara, Sumatera Utara";"SUMATERA UTARA";"";"Indonesia";"";"";"";"1.1465578";"97.4559257";"https://maps.google.com/?cid=0x0:0x1602712094e01383";""
"komplek housing";"Balai masyarakat";"Tugala oyo";"4CJR+FQH, Gn. Tua, Kec. Tugala Oyo, Kabupaten Nias Utara, Sumatera Utara 22861";"Gn. Tua, Kec. Tugala Oyo, Kabupaten Nias Utara";"SUMATERA UTARA";"22861";"Indonesia";"";"";"";"1.131247";"97.4420401";"https://maps.google.com/?cid=0x0:0xc3a8ba4c01956285";""
"komplek housing";"Perumahan";"Rumah A/I. JOIN HULU";"5F6C+GMC, Ononazara, Kec. Tugala Oyo, Kabupaten Nias Utara, Sumatera Utara 22861";"Ononazara, Kec. Tugala Oyo, Kabupaten Nias Utara";"SUMATERA UTARA";"22861";"Indonesia";"";"";"";"1.1611829";"97.4717247";"https://maps.google.com/?cid=0x0:0xf3d964596262bbfb";""
"komplek housing";"komplek housing";"Kec. Tuhemberua";"Kabupaten Nias Utara, Sumatera Utara";"Kabupaten Nias Utara, Sumatera Utara";"SUMATERA UTARA";"";"Indonesia";"";"";"";"1.4702731";"97.4498504";"https://maps.google.com/?cid=0x0:0x9c5633cc92cfd2d7";""
"komplek housing";"Komplek perumahan";"My Home Syukur";"CFX3+68R, Banuagea, Kec. Tuhemberua, Kabupaten Nias Utara, Sumatera Utara 22852";"Banuagea, Kec. Tuhemberua, Kabupaten Nias Utara";"SUMATERA UTARA";"22852";"Indonesia";"";"";"";"1.4482523";"97.4531949";"https://maps.google.com/?cid=0x0:0xdd5f07f4a71ebed6";""
"komplek housing";"Komplek perumahan";"RUMAH A. DETI ZEGA.";"FC6X+RPQ, Banuagea, Kec. Tuhemberua, Kabupaten Nias Utara, Sumatera Utara 22852";"Banuagea, Kec. Tuhemberua, Kabupaten Nias Utara";"SUMATERA UTARA";"22852";"Indonesia";"";"";"";"1.4620951";"97.4493574";"https://maps.google.com/?cid=0x0:0xea3ad107e80b1af6";""
"komplek housing";"Komplek perumahan";"S z";"FFC7+49P, Jl. Tuhemberua, Banuagea, Kec. Tuhemberua, Kabupaten Nias Utara, Sumatera Utara";"Kabupaten Nias Utara, Sumatera Utara";"SUMATERA UTARA";"";"Indonesia";"";"";"";"1.4703474";"97.4634669";"https://maps.google.com/?cid=0x0:0x9ba5022e66789bcb";""
"komplek housing";"Perhimpunan Pengembang Perumahan";"RUMAH MAMA RINI";"CFJV+8F5, Botolakha, Kec. Tuhemberua, Kabupaten Nias Utara, Sumatera Utara 22852";"Botolakha, Kec. Tuhemberua, Kabupaten Nias Utara";"SUMATERA UTARA";"22852";"Indonesia";"";"";"";"1.4307561";"97.4937192";"https://maps.google.com/?cid=0x0:0x48596789863980d6";""
"komplek housing";"Komplek perumahan";"Alvaro";"FF3V+7Q2, Hilimbowo Siofabanua, Alooa, Kec. Tuhemberua, Kabupaten Nias Utara, Sumatera Utara 22852";"Hilimbowo Siofabanua, Alooa, Kec. Tuhemberua, Kabupaten Nias Utara";"SUMATERA UTARA";"22852";"Indonesia";"";"";"";"1.453134";"97.4943859";"https://maps.google.com/?cid=0x0:0xb6b0c63c069e2cd4";""
"komplek housing";"Pembangunan Perumahan";"Tempat tinggal";"FCCX+4W5, Banuagea, Kec. Tuhemberua, Kabupaten Nias Utara, Sumatera Utara";"Kabupaten Nias Utara, Sumatera Utara";"SUMATERA UTARA";"";"Indonesia";"";"";"";"1.4702731";"97.4498504";"https://maps.google.com/?cid=0x0:0x7bbf4744508bdf6a";""
"komplek housing";"Komplek perumahan";"Deni Telaumbanua";"FFC8+FV9, Ladara, Kec. Tuhemberua, Kabupaten Nias Utara, Sumatera Utara 22852";"Ladara, Kec. Tuhemberua, Kabupaten Nias Utara";"SUMATERA UTARA";"22852";"Indonesia";"";"";"";"1.4711527";"97.467231";"https://maps.google.com/?cid=0x0:0x3c3e75f50422c357";""
"komplek housing";"Tujuan Wisata";"Tempat tinggal";"FC7M+X39, Silima Banua, Kec. Tuhemberua, Kabupaten Nias Utara, Sumatera Utara";"Kabupaten Nias Utara, Sumatera Utara";"SUMATERA UTARA";"";"Indonesia";"";"";"";"1.4649036";"97.4327273";"https://maps.google.com/?cid=0x0:0xc1c99bd03561a9f3";""
"komplek housing";"Komplek perumahan";"Rumah keluarga Martianus Zega";"Hilimbosi, Kec. Sitolu Ori, Kabupaten Nias Utara, Sumatera Utara 22852";"Kec. Sitolu Ori, Kabupaten Nias Utara";"SUMATERA UTARA";"22852";"Indonesia";"";"";"";"1.3972331";"97.4867577";"https://maps.google.com/?cid=0x0:0xaf190df4fd3c912e";""
"komplek housing";"Komplek perumahan";"Melvin G";"FC8X+XVH, Banuagea, Kec. Tuhemberua, Kabupaten Nias Utara, Sumatera Utara 22852";"Banuagea, Kec. Tuhemberua, Kabupaten Nias Utara";"SUMATERA UTARA";"22852";"Indonesia";"";"";"";"1.4674333";"97.4497326";"https://maps.google.com/?cid=0x0:0xae270245cf8ea0a7";""
"komplek housing";"Komplek perumahan";"Rumah A. Wiman";"Silima Banua, Kec. Tuhemberua, Kabupaten Nias Utara, Sumatera Utara 22852";"Kec. Tuhemberua, Kabupaten Nias Utara";"SUMATERA UTARA";"22852";"Indonesia";" 082276906821";"";"";"1.4677151";"97.4442931";"https://maps.google.com/?cid=0x0:0xdccd2231ffb55251";""
"komplek housing";"Komplek perumahan";"Rea Gea";"FF99+72, Ladara, Kec. Tuhemberua, Kabupaten Nias Utara, Sumatera Utara";"Kabupaten Nias Utara, Sumatera Utara";"SUMATERA UTARA";"";"Indonesia";"";"";"";"1.468143";"97.4675977";"https://maps.google.com/?cid=0x0:0x68306dcdd37a2bf8";""
"komplek housing";"Pembangunan Perumahan";"Rumah A. Mabel Zai";"CFGR+6G7, Jalan Sogawu, Botolakha, Kec. Tuhemberua, Kabupaten Nias Utara, Sumatera Utara 22852";"Jalan Sogawu, Botolakha, Kec. Tuhemberua, Kabupaten Nias Utara";"SUMATERA UTARA";"22852";"Indonesia";"";"";"";"1.4255499";"97.4913109";"https://maps.google.com/?cid=0x0:0x347ab6e07ce24ffb";""
"komplek housing";"Komplek perumahan";"Rumah Tulus zai";"FFC8+423, Ladara, Kec. Tuhemberua, Kabupaten Nias Utara, Sumatera Utara";"Kabupaten Nias Utara, Sumatera Utara";"SUMATERA UTARA";"";"Indonesia";"";"";"";"1.4703231";"97.46499";"https://maps.google.com/?cid=0x0:0x28f12c50a6297283";""
"komplek housing";"Komplek perumahan";"Putra zega";"FF8R+843, Hilimbowo Siofabanua, Laaya, Kec. Tuhemberua, Kabupaten Nias Utara, Sumatera Utara 22852";"Hilimbowo Siofabanua, Laaya, Kec. Tuhemberua, Kabupaten Nias Utara";"SUMATERA UTARA";"22852";"Indonesia";"";"";"";"1.4653841";"97.4896541";"https://maps.google.com/?cid=0x0:0xa3e1bb46b5e43f0d";""
"komplek housing";"komplek housing";"Rumah A.perdi";"CFMV+CWQ, Botolakha, Kec. Tuhemberua, Kabupaten Nias Utara, Sumatera Utara";"Kabupaten Nias Utara, Sumatera Utara";"SUMATERA UTARA";"";"Indonesia";"";"";"";"1.4336178";"97.4948569";"https://maps.google.com/?cid=0x0:0x11f13c05aed1824c";""
"komplek housing";"Perumahan";"Penggis Home";"GC28+HF6, Hiliduruwa, Kec. Sawo, Kabupaten Nias Utara, Sumatera Utara";"Kabupaten Nias Utara, Sumatera Utara";"SUMATERA UTARA";"";"Indonesia";"";"";"";"1.50142";"97.4161367";"https://maps.google.com/?cid=0x0:0x23d6fa1f4764e718";""
"komplek housing";"Rumah Ibadat Bahá'í";"Arsan Gea";"FFHJ+43G, jl.desa, Laaya, Kec. Tuhemberua, Kabupaten Nias Utara, Sumatera Utara";"Kabupaten Nias Utara, Sumatera Utara";"SUMATERA UTARA";"";"Indonesia";"";"";"";"1.4778003";"97.4802447";"https://maps.google.com/?cid=0x0:0x8449d44b6da048c2";""
"komplek housing";"Komplek perumahan";"Pangkas Neah Zega";"Tanaya'o, Banuagea, Kec. Tuhemberua, Kabupaten Nias Utara, Sumatera Utara";"Kabupaten Nias Utara, Sumatera Utara";"SUMATERA UTARA";"";"Indonesia";"";"";"";"1.4677886";"97.4677453";"https://maps.google.com/?cid=0x0:0x65b7caa2bac39027";""
"komplek housing";"Komplek perumahan";"ADRIEL TELAUMBANUA";"FFC8+GVJ, Ladara, Kec. Tuhemberua, Kabupaten Nias Utara, Sumatera Utara";"Kabupaten Nias Utara, Sumatera Utara";"SUMATERA UTARA";"";"Indonesia";"";"";"";"1.4713457";"97.467141";"https://maps.google.com/?cid=0x0:0xde8bed90b33d6c1c";""
"perumahan";"Pembangunan Perumahan";"AFULU";"776W+43P, Lauru Fadoro, Kec. Afulu, Kabupaten Nias Utara, Sumatera Utara";"Kabupaten Nias Utara, Sumatera Utara";"SUMATERA UTARA";"";"Indonesia";"";"";"";"1.2603265";"97.2952004";"https://maps.google.com/?cid=0x0:0x53444ba7be45f869";""
"perumahan";"Balai masyarakat";"Kecamatan afulu";"76GH+976, Lauru I Afulu, Kec. Afulu, Kabupaten Nias Utara, Sumatera Utara";"Kabupaten Nias Utara, Sumatera Utara";"SUMATERA UTARA";"";"Indonesia";"";"";"";"1.275923";"97.228146";"https://maps.google.com/?cid=0x0:0x88a057198e20312e";""
"perumahan";"perumahan";"Sumatera Utara 22857";"Kec. Afulu, Kabupaten Nias Utara, Sumatera Utara";"Kabupaten Nias Utara, Sumatera Utara";"SUMATERA UTARA";"";"Indonesia";"";"";"";"1.2548965";"97.2598913";"https://maps.google.com/?cid=0x0:0x7b808d1bfbbe7383";""
"perumahan";"Kantor Pemerintah Distrik";"Dusun I Desa Afulu Kecamatan afulu";"767W+H24, Afulu, Kec. Afulu, Kabupaten Nias Utara, Sumatera Utara";"Kabupaten Nias Utara, Sumatera Utara";"SUMATERA UTARA";"";"Indonesia";"";"";"";"1.2638773";"97.2450745";"https://maps.google.com/?cid=0x0:0xd9c2f169ab9c4d69";""
"perumahan";"Pembangunan Perumahan";"AnalismaNZ House";"767W+P77, Afulu, Kec. Afulu, Kabupaten Nias Utara, Sumatera Utara 22857";"Afulu, Kec. Afulu, Kabupaten Nias Utara";"SUMATERA UTARA";"22857";"Indonesia";"";"";"";"1.265359";"97.245734";"https://maps.google.com/?cid=0x0:0xcedc87a073f92dca";""
"perumahan";"Komplek perumahan";"R.ZEBUA";"7742+5V9, Afulu, Kec. Afulu, Kabupaten Nias Utara, Sumatera Utara 22857";"Afulu, Kec. Afulu, Kabupaten Nias Utara";"SUMATERA UTARA";"22857";"Indonesia";"";"";"";"1.2554158";"97.252248";"https://maps.google.com/?cid=0x0:0x31a2bef395dcb1ad";""
"perumahan";"Komplek perumahan";"Rumah saya";"77H6+52, Afulu, Kec. Afulu, Kabupaten Nias Utara, Sumatera Utara";"Kabupaten Nias Utara, Sumatera Utara";"SUMATERA UTARA";"";"Indonesia";"";"";"";"1.277908";"97.260111";"https://maps.google.com/?cid=0x0:0x2895d15ba93adeb5";""
"perumahan";"Pembangunan Perumahan";"Nasozatulo Zalukhu";"67W7+9J9, Lauru Fadoro, Kec. Afulu, Kabupaten Nias Utara, Sumatera Utara 22857";"Lauru Fadoro, Kec. Afulu, Kabupaten Nias Utara";"SUMATERA UTARA";"22857";"Indonesia";"";"";"";"1.2459375";"97.2640625";"https://maps.google.com/?cid=0x0:0xe06d5575ec4ac833";""
"perumahan";"Komplek perumahan";"PUTRA TUNGGAL.";"767Q+8PG, Dusun Walo Desa, Lauru I Afulu, Kec. Afulu, Kabupaten Nias Utara, Sumatera Utara 22857";"Dusun Walo Desa, Lauru I Afulu, Kec. Afulu, Kabupaten Nias Utara";"SUMATERA UTARA";"22857";"Indonesia";"";"";"";"1.2633052";"97.2393147";"https://maps.google.com/?cid=0x0:0x9baa61d1a9d91aff";""
"perumahan";"Pembangunan Perumahan";"Gubuk Impian";"Jl. Lauru No.II, Afulu, Kec. Afulu, Kabupaten Nias Utara, Sumatera Utara 22857";"Afulu, Kec. Afulu, Kabupaten Nias Utara";"SUMATERA UTARA";"22857";"Indonesia";"";"";"";"1.2548965";"97.2598913";"https://maps.google.com/?cid=0x0:0x767e183065b92a5c";""
"perumahan";"Balai masyarakat";"Kecamatan afulu";"76GH+976, Lauru I Afulu, Kec. Afulu, Kabupaten Nias Utara, Sumatera Utara";"Kabupaten Nias Utara, Sumatera Utara";"SUMATERA UTARA";"";"Indonesia";"";"";"";"1.275923";"97.228146";"https://maps.google.com/?cid=0x0:0x88a057198e20312e";""
"perumahan";"Pembangunan Perumahan";"Bobby";"769X+8PG, Afulu, Kec. Afulu, Kabupaten Nias Utara, Sumatera Utara";"Kabupaten Nias Utara, Sumatera Utara";"SUMATERA UTARA";"";"Indonesia";"";"";"";"1.268305";"97.2493287";"https://maps.google.com/?cid=0x0:0x1517afd4c0eb535e";""
"perumahan";"Komplek perumahan";"Rumah misnah";"767W+H24, Afulu, Kec. Afulu, Kabupaten Nias Utara, Sumatera Utara";"Kabupaten Nias Utara, Sumatera Utara";"SUMATERA UTARA";"";"Indonesia";"";"";"";"1.2638773";"97.2450745";"https://maps.google.com/?cid=0x0:0x2cf4c29be262e328";""
"perumahan";"Pembangunan Perumahan";"S.gulo";"7792+C24, Afulu, Kec. Afulu, Kabupaten Nias Utara, Sumatera Utara 22817";"Afulu, Kec. Afulu, Kabupaten Nias Utara";"SUMATERA UTARA";"22817";"Indonesia";"";"";"";"1.2686803";"97.2507107";"https://maps.google.com/?cid=0x0:0xef1206c0ff2b9d94";""
"perumahan";"Komplek perumahan";"A. Devon Waruwu";"77C3+JVQ, Afulu, Kec. Afulu, Kabupaten Nias Utara, Sumatera Utara 22817";"Afulu, Kec. Afulu, Kabupaten Nias Utara";"SUMATERA UTARA";"22817";"Indonesia";"";"";"";"1.2715822";"97.254721";"https://maps.google.com/?cid=0x0:0x6d8e00a855c47a2c";""
"perumahan";"Pembangunan Perumahan";"Yarni baeha";"767Q+87M, Lauru I Afulu, Kec. Afulu, Kabupaten Nias Utara, Sumatera Utara 22857";"Lauru I Afulu, Kec. Afulu, Kabupaten Nias Utara";"SUMATERA UTARA";"22857";"Indonesia";"";"";"";"1.2632871";"97.2381056";"https://maps.google.com/?cid=0x0:0x3f8137813c78d3b1";""
"perumahan";"Pom bensin/SPBU";"Rumah Ama Alonis Waruwu, S.AP";"769X+6R8, Dusun 3, Lauru I Afulu, Kec. Afulu, Kabupaten Nias Utara, Sumatera Utara 22857";"Dusun 3, Lauru I Afulu, Kec. Afulu, Kabupaten Nias Utara";"SUMATERA UTARA";"22857";"Indonesia";"";"";"";"1.268132";"97.2497119";"https://maps.google.com/?cid=0x0:0x728a03a17dc95273";""
"perumahan";"Komplek perumahan";"Open Zebua";"67G8+JH, Lauru Fadoro, Kec. Afulu, Kabupaten Nias Utara, Sumatera Utara";"Kabupaten Nias Utara, Sumatera Utara";"SUMATERA UTARA";"";"Indonesia";"";"";"";"1.2255919";"97.2663664";"https://maps.google.com/?cid=0x0:0x68be0b19d23bded3";""
"perumahan";"Rumah Kaca";"Sentra IKM Rumah Produksi Pangan Bersama Kabupaten Nias Utara";"767P+8PH, Lauru I Afulu, Kec. Afulu, Kabupaten Nias Utara, Sumatera Utara 22857";"Lauru I Afulu, Kec. Afulu, Kabupaten Nias Utara";"SUMATERA UTARA";"22857";"Indonesia";"";"";"";"1.2623611";"97.2360833";"https://maps.google.com/?cid=0x0:0xbd2d49be9c9bbc10";""
"perumahan";"perumahan";"A/i. Oli gulo";"67J8+74, Lauru Fadoro, Kec. Afulu, Kabupaten Nias Utara, Sumatera Utara";"Kabupaten Nias Utara, Sumatera Utara";"SUMATERA UTARA";"";"Indonesia";"";"";"";"1.230633";"97.265315";"https://maps.google.com/?cid=0x0:0x16a2d299e87d90f";""
"perumahan";"Komplek perumahan";"Rumah INOTODA GULO, SE.,S.Gr";"67G8+JF7, Lauru Fadoro, Kec. Afulu, Kabupaten Nias Utara, Sumatera Utara";"Kabupaten Nias Utara, Sumatera Utara";"SUMATERA UTARA";"";"Indonesia";"";"";"";"1.2265415";"97.2661645";"https://maps.google.com/?cid=0x0:0xcb7c5b84c7d168cd";""
"perumahan";"Komplek perumahan";"TUMORI DESA OMBOLATA KECAMATAN ALASA KABUPATEN NIAS UTARA";"6CP5+V5C, Jl. Lahewa, Ombolata, Kec. Tugala Oyo, Kabupaten Nias Utara, Sumatera Utara 22861";"Jl. Lahewa, Ombolata, Kec. Tugala Oyo, Kabupaten Nias Utara";"SUMATERA UTARA";"22861";"Indonesia";"";"";"";"1.237176";"97.4078989";"https://maps.google.com/?cid=0x0:0xcfb2cb85452f822";""
"perumahan";"Komplek perumahan";"IDANOMBAE KECAMATAN ALASA";"69XW+76H, Ombolata, Kec. Alasa, Kabupaten Nias Utara, Sumatera Utara 22861";"Ombolata, Kec. Alasa, Kabupaten Nias Utara";"SUMATERA UTARA";"22861";"Indonesia";"";"";"";"1.2481973";"97.3955972";"https://maps.google.com/?cid=0x0:0xf09eb8eafcf198f5";""
"perumahan";"perumahan";"Sumatera Utara 22861";"Kabupaten Nias Utara, Sumatera Utara";"Kabupaten Nias Utara, Sumatera Utara";"SUMATERA UTARA";"";"Indonesia";"";"";"";"1.1639401";"97.394882";"https://maps.google.com/?cid=0x0:0x146e7c32a97f723";""
"perumahan";"perumahan";"RUMAH A/i. ADZKIYA DAWÖLÖ";"6C67+45C, Jl.hiligeo desa, Fulolo, Kec. Alasa, Kabupaten Nias Utara, Sumatera Utara";"Kabupaten Nias Utara, Sumatera Utara";"SUMATERA UTARA";"";"Indonesia";"";"";"";"1.2103101";"97.4128895";"https://maps.google.com/?cid=0x0:0x51b1f2a773302322";""
"perumahan";"Komplek perumahan";"SOHAHAU DESA OMBOLATA KECAMATAN ALASA KABUPATEN NIAS UTARA";"6CP5+7HM, Jl. Lahewa, Ombolata, Kec. Tugala Oyo, Kabupaten Nias Utara, Sumatera Utara 22861";"Jl. Lahewa, Ombolata, Kec. Tugala Oyo, Kabupaten Nias Utara";"SUMATERA UTARA";"22861";"Indonesia";"";"";"";"1.2357041";"97.4089149";"https://maps.google.com/?cid=0x0:0xc802bff75c5e4fed";""
"perumahan";"Komplek perumahan";"AWOLO DESA OMBOLATA KECAMATAN ALASA KABUPATEN NIAS UTARA";"6CV5+6GP, Ombolata, Kec. Alasa, Kabupaten Nias Utara, Sumatera Utara 22861";"Ombolata, Kec. Alasa, Kabupaten Nias Utara";"SUMATERA UTARA";"22861";"Indonesia";"";"";"";"1.2430935";"97.4088329";"https://maps.google.com/?cid=0x0:0xe40f47571471f4ef";""
"perumahan";"Komplek perumahan";"HILISOROMI DESA OMBOLATA KECAMATAN ALASA KABUPATEN NIAS UTARA";"6CP2+8W9, Jl. Sisarahili, Ombolata, Kec. Tugala Oyo, Kabupaten Nias Utara, Sumatera Utara 22861";"Jl. Sisarahili, Ombolata, Kec. Tugala Oyo, Kabupaten Nias Utara";"SUMATERA UTARA";"22861";"Indonesia";"";"";"";"1.235797";"97.402345";"https://maps.google.com/?cid=0x0:0x69d75b5fd42ba72d";""
"perumahan";"Komplek perumahan";"HILIDAWUYU DESA OMBOLATA KECAMATAN ALASA KABUPATEN NIAS UTARA";"6CH4+536, Jl. Alasa Ombölata, Banua Sibohou I, Kec. Tugala Oyo, Kabupaten Nias Utara, Sumatera Utara 22861";"Jl. Alasa Ombölata, Banua Sibohou I, Kec. Tugala Oyo, Kabupaten Nias Utara";"SUMATERA UTARA";"22861";"Indonesia";"";"";"";"1.2279068";"97.4051322";"https://maps.google.com/?cid=0x0:0x8d47b9ebc7b687f";""
"perumahan";"Komplek perumahan";"LAHAGU KECAMATAN ALASA";"793J+M4F, Banua Sibohou II, Kec. Tugala Oyo, Kabupaten Nias Utara, Sumatera Utara 22861";"Banua Sibohou II, Kec. Tugala Oyo, Kabupaten Nias Utara";"SUMATERA UTARA";"22861";"Indonesia";"";"";"";"1.2541967";"97.3802875";"https://maps.google.com/?cid=0x0:0x114cf957e1d54207";""
"perumahan";"Komplek perumahan";"HILIKARA DESA OMBOLATA KECAMATAN ALASA KABUPATEN NIAS UTARA";"69WX+4P3, Jl. Lahewa, Ombolata, Kec. Tugala Oyo, Kabupaten Nias Utara, Sumatera Utara 22861";"Jl. Lahewa, Ombolata, Kec. Tugala Oyo, Kabupaten Nias Utara";"SUMATERA UTARA";"22861";"Indonesia";"";"";"";"1.2452647";"97.3992943";"https://maps.google.com/?cid=0x0:0x964ce742e2dc49cb";""
"perumahan";"Komplek perumahan";"Rumah Alm. Fadoma Lase ( Ama Yasa Lase )";"SAITAGARI, Botona Ai, Kec. Tugala Oyo, Kabupaten Nias Utara, Sumatera Utara 22861";"Botona Ai, Kec. Tugala Oyo, Kabupaten Nias Utara";"SUMATERA UTARA";"22861";"Indonesia";" 085372156990";"";"";"1.1002113";"97.4685217";"https://maps.google.com/?cid=0x0:0x70d2ebb7c83d4853";""
"perumahan";"Komplek perumahan";"DAHANA ALASA";"795P+PM4, Jl. Lahewa, Dahana Alasa, Kec. Alasa, Kabupaten Nias Utara, Sumatera Utara 22861";"Jl. Lahewa, Dahana Alasa, Kec. Alasa, Kabupaten Nias Utara";"SUMATERA UTARA";"22861";"Indonesia";"";"";"";"1.2592625";"97.3866987";"https://maps.google.com/?cid=0x0:0x1fe08e9e316e2a0f";""
"perumahan";"Komplek perumahan";"Lasara";"6CR3+8GQ, Ombolata, Kec. Alasa, Kabupaten Nias Utara, Sumatera Utara";"Kabupaten Nias Utara, Sumatera Utara";"SUMATERA UTARA";"";"Indonesia";"";"";"";"1.2408364";"97.4038484";"https://maps.google.com/?cid=0x0:0xb9214160ec6acd4a";""
"perumahan";"perumahan";"Rumah Pa Reuhel Lahagu";"7C8G+8P, Mazingo, Kec. Alasa Talumuzoi, Kabupaten Nias Utara, Sumatera Utara";"Kabupaten Nias Utara, Sumatera Utara";"SUMATERA UTARA";"";"Indonesia";"";"";"";"1.2658521";"97.4267695";"https://maps.google.com/?cid=0x0:0x4bcb8d7832fee741";""
"perumahan";"Komplek perumahan";"Rumah Ama siska";"696Q+9Q, Fulolo, Kec. Alasa, Kabupaten Nias Utara, Sumatera Utara";"Kabupaten Nias Utara, Sumatera Utara";"SUMATERA UTARA";"";"Indonesia";"";"";"";"1.210929";"97.389401";"https://maps.google.com/?cid=0x0:0x9839c45ce98a8c9e";""
"perumahan";"Komplek perumahan";"Rumah ku";"6CR3+W33, Ombolata, Kec. Alasa, Kabupaten Nias Utara, Sumatera Utara";"Kabupaten Nias Utara, Sumatera Utara";"SUMATERA UTARA";"";"Indonesia";"";"";"";"1.2422625";"97.4026719";"https://maps.google.com/?cid=0x0:0xb17732a475e4db75";""
"perumahan";"Komplek perumahan";"Alasa";"6CMF+5RQ, Loloana'a, Kec. Alasa, Kabupaten Nias Utara, Sumatera Utara";"Kabupaten Nias Utara, Sumatera Utara";"SUMATERA UTARA";"";"Indonesia";"";"";"";"1.2329632";"97.4246158";"https://maps.google.com/?cid=0x0:0x52dbd5f8fa29f5a8";""
"perumahan";"Komplek perumahan";"Perumnas";"Jl. Alasa No.a48, Hiligawoni, Kec. Alasa, Kabupaten Nias Utara, Sumatera Utara";"Kabupaten Nias Utara, Sumatera Utara";"SUMATERA UTARA";"";"Indonesia";"";"";"";"1.2412432";"97.3457077";"https://maps.google.com/?cid=0x0:0x76f8bf3c862c96d7";""
"perumahan";"Komplek perumahan";"Anaoma";"5FRC+W7F, Anaoma, Kec. Alasa, Kabupaten Nias Utara, Sumatera Utara 22861";"Anaoma, Kec. Alasa, Kabupaten Nias Utara";"SUMATERA UTARA";"22861";"Indonesia";" 082172975964";"";"";"1.192304";"97.4706783";"https://maps.google.com/?cid=0x0:0x9dd2c376d6a4e7a8";""
"perumahan";"Komplek perumahan";"Ama Evan Hulu / UD. CAREL Ononazara";"5F49+44H, Ononazara, Kec. Tugala Oyo, Kabupaten Nias Utara, Sumatera Utara 22861";"Ononazara, Kec. Tugala Oyo, Kabupaten Nias Utara";"SUMATERA UTARA";"22861";"Indonesia";" 082366822646";"";"";"1.155305";"97.4678747";"https://maps.google.com/?cid=0x0:0x7f7ef9f33a0533ad";""
"perumahan";"Rumah Kayu";"Ombolata Desa Dahana Tugala Oyo";"6C5W+RJ8, Jalan, Dahana Tugala Oyo, Alasa, North Nias Regency, North Sumatra 22861";"Jalan, Dahana Tugala Oyo, Alasa, North Nias Regency";"SUMATERA UTARA";"22861";"Indonesia";"";"";"";"1.2095462";"97.4465895";"https://maps.google.com/?cid=0x0:0x1f1818cf2ade156a";""
"perumahan";"Perumahan";"Rumah A/I. JOIN HULU";"5F6C+GMC, Ononazara, Kec. Tugala Oyo, Kabupaten Nias Utara, Sumatera Utara 22861";"Ononazara, Kec. Tugala Oyo, Kabupaten Nias Utara";"SUMATERA UTARA";"22861";"Indonesia";"";"";"";"1.1611829";"97.4717247";"https://maps.google.com/?cid=0x0:0xf3d964596262bbfb";""
"perumahan";"perumahan";"Kec. Alasa Talumuzoi";"Kabupaten Nias Utara, Sumatera Utara";"Kabupaten Nias Utara, Sumatera Utara";"SUMATERA UTARA";"";"Indonesia";"";"";"";"1.24495";"97.4440065";"https://maps.google.com/?cid=0x0:0x2616b4f75864e0d8";""
"perumahan";"Toko Bahan Bangunan";"Toko SEJATI";"Jl. Sirao No.118, Ps. Gn. Sitoli, Kec. Gunungsitoli, Kota Gunungsitoli, Sumatera Utara 22814";"Ps. Gn. Sitoli, Kec. Gunungsitoli, Kota Gunungsitoli";"SUMATERA UTARA";"22814";"Indonesia";"";"";"";"1.2886541";"97.6191848";"https://maps.google.com/?cid=0x0:0xd2db58abc550eee1";""
"perumahan";"Toko Bahan Bangunan";"Toko Sejahtera";"Jl. Diponegoro No.218, Ilir, Kec. Gunungsitoli, Kota Gunungsitoli, Sumatera Utara";"Kota Gunungsitoli, Sumatera Utara";"SUMATERA UTARA";"";"Indonesia";" 08179025265";"";"";"1.2832148";"97.6263947";"https://maps.google.com/?cid=0x0:0x465e75de58cb5644";""
"perumahan";"perumahan";"Sumatera Utara 22853";"Kecamaten Lahewa, Kabupaten Nias Utara, Sumatera Utara";"Kabupaten Nias Utara, Sumatera Utara";"SUMATERA UTARA";"";"Indonesia";"";"";"";"1.3266447";"97.2329255";"https://maps.google.com/?cid=0x0:0xc7df9697de637a01";""
"perumahan";"Kantor Pemerintahan Daerah";"Desa Marafala, Lahewa Kabupaten Nias Utara";"94PP+QHJ, Unnamed Road, Hili Gawolo, Kecamaten Lahewa, Kabupaten Nias Utara, Sumatera Utara 22853";"Unnamed Road, Hili Gawolo, Kecamaten Lahewa, Kabupaten Nias Utara";"SUMATERA UTARA";"22853";"Indonesia";"";"";"";"1.3869628";"97.1363863";"https://maps.google.com/?cid=0x0:0x54286dd2d7e486a2";""
"perumahan";"Perhimpunan Pengembang Perumahan";"Hiliwaele banuasibohou";"9569+RF8, Hili Hati, Kecamaten Lahewa, Kabupaten Nias Utara, Sumatera Utara 22853";"Hili Hati, Kecamaten Lahewa, Kabupaten Nias Utara";"SUMATERA UTARA";"22853";"Indonesia";"";"";"";"1.3620495";"97.1687087";"https://maps.google.com/?cid=0x0:0xbc79d5bf58ae2d26";""
"perumahan";"Komplek perumahan";"Kebun Ama Grace Lase";"96G5+FJ, Lasara Bahili, Kecamaten Lahewa, Kabupaten Nias Utara, Sumatera Utara";"Kabupaten Nias Utara, Sumatera Utara";"SUMATERA UTARA";"";"Indonesia";"";"";"";"1.3762083";"97.2090157";"https://maps.google.com/?cid=0x0:0x3612a7a69fbe3963";""
"perumahan";"Pembangunan Perumahan";"Afilaza-Lahewa";"Jl. Kihajar Dewantara No.5h, Ps. Lahewa, Kecamaten Lahewa, Kabupaten Nias Utara, Sumatera Utara 22853";"Ps. Lahewa, Kecamaten Lahewa, Kabupaten Nias Utara";"SUMATERA UTARA";"22853";"Indonesia";"";"";"";"1.39439";"97.1659713";"https://maps.google.com/?cid=0x0:0x6e8406bfeb35da78";""
"perumahan";"Komplek perumahan";"Rumah Kanali Lase";"96C5+G7, Lasara Bahili, Kecamaten Lahewa, Kabupaten Nias Utara, Sumatera Utara";"Kabupaten Nias Utara, Sumatera Utara";"SUMATERA UTARA";"";"Indonesia";"";"";"";"1.3712862";"97.2081735";"https://maps.google.com/?cid=0x0:0xeeae4793178265de";""
"perumahan";"Perhimpunan Pengembang Perumahan";"SYIAR LASE";"Jl. Lahewa-Afulu, Iraonolase, Kecamaten Lahewa, Kabupaten Nias Utara, Sumatera Utara 22853";"Iraonolase, Kecamaten Lahewa, Kabupaten Nias Utara";"SUMATERA UTARA";"22853";"Indonesia";" 085270995288";"";"";"1.3515317";"97.1802621";"https://maps.google.com/?cid=0x0:0xcb430039efd6bc5e";""
"perumahan";"Perhimpunan Pengembang Perumahan";"Rumah A/l. Dese baehs";"959W+W3G, Afia, Kecamaten Lahewa, Kabupaten Nias Utara, Sumatera Utara 22853";"Afia, Kecamaten Lahewa, Kabupaten Nias Utara";"SUMATERA UTARA";"22853";"Indonesia";"";"";"";"1.3698217";"97.1951913";"https://maps.google.com/?cid=0x0:0xf916e7a827301075";""
"perumahan";"Sekolah";"TPQ Al Khairat Nur";"95R9+VG5, Ps. Lahewa, Kecamaten Lahewa, Kabupaten Nias Utara, Sumatera Utara";"Kabupaten Nias Utara, Sumatera Utara";"SUMATERA UTARA";"";"Indonesia";"";"";"";"1.3921278";"97.1688659";"https://maps.google.com/?cid=0x0:0x3a7cad6b10bc382f";""
"perumahan";"Komplek perumahan";"Suadodo lase";"96C9+VQ4, Lasara Bahili, Kecamaten Lahewa, Kabupaten Nias Utara, Sumatera Utara";"Kabupaten Nias Utara, Sumatera Utara";"SUMATERA UTARA";"";"Indonesia";"";"";"";"1.3721422";"97.2194466";"https://maps.google.com/?cid=0x0:0x169801f9a0cbfbda";""
"perumahan";"Pembangunan Perumahan";"Rumah a.riel wrw";"95P2+XXW, Marafala, Kecamaten Lahewa, Kabupaten Nias Utara, Sumatera Utara 22853";"Marafala, Kecamaten Lahewa, Kabupaten Nias Utara";"SUMATERA UTARA";"22853";"Indonesia";"";"";"";"1.3874755";"97.152466";"https://maps.google.com/?cid=0x0:0x5f737ef7583b9478";""
"perumahan";"perumahan";"Rumah Desputman Zalukhu";"867W+9FP, Jl. Afulu, Lauru Lahewa, Kec. Afulu, Kabupaten Nias Utara, Sumatera Utara 22853";"Jl. Afulu, Lauru Lahewa, Kec. Afulu, Kabupaten Nias Utara";"SUMATERA UTARA";"22853";"Indonesia";"";"";"";"1.3134532";"97.2462016";"https://maps.google.com/?cid=0x0:0x54981e7ca4fc0d09";""
"perumahan";"Komplek perumahan";"Hiligawoni Mado Nazara Sitolubanua Lahewa";"85PQ+WGV, Jalan Afulu, Iraonolase, Lahewa, North Nias Regency, North Sumatra 22853";"Jalan Afulu, Iraonolase, Lahewa, North Nias Regency";"SUMATERA UTARA";"22853";"Indonesia";"";"";"";"1.3373551";"97.1887924";"https://maps.google.com/?cid=0x0:0x49c519596a38cde3";""
"perumahan";"Pembangunan Perumahan";"Fadorositelu hili,lahewa,Nias utara";"8HJG+QW4, Bawadesolo, Kec. Gunungsitoli, Kota Gunungsitoli, Sumatera Utara";"Kota Gunungsitoli, Sumatera Utara";"SUMATERA UTARA";"";"Indonesia";"";"";"";"1.3876108";"97.1696007";"https://maps.google.com/?cid=0x0:0x26e6684fc98334be";""
"perumahan";"Sekolah";"Dusun I Desa Holi kecamatan Lahewa Kabupaten Nias Utara";"8682+HF, Iraonolase, Kecamaten Lahewa, Kabupaten Nias Utara, Sumatera Utara";"Kabupaten Nias Utara, Sumatera Utara";"SUMATERA UTARA";"";"Indonesia";"";"";"";"1.31639";"97.201171";"https://maps.google.com/?cid=0x0:0x8fc31b4aed6851c3";""
"perumahan";"Pembangunan Perumahan";"Kano Zalukhu";"Jl. Lahewa-Afulu, Harewakhe, Kec. Afulu, Kabupaten Nias Utara, Sumatera Utara 22853";"Harewakhe, Kec. Afulu, Kabupaten Nias Utara";"SUMATERA UTARA";"22853";"Indonesia";"";"";"";"1.2901901";"97.2058893";"https://maps.google.com/?cid=0x0:0xbaf1ff87dc34f060";""
"perumahan";"Pembangunan Perumahan";"Simpang Marafala Dusun III";"94XP+JGV, Hili Gawolo, Kecamaten Lahewa, Kabupaten Nias Utara, Sumatera Utara 22853";"Hili Gawolo, Kecamaten Lahewa, Kabupaten Nias Utara";"SUMATERA UTARA";"22853";"Indonesia";"";"";"";"1.3991189";"97.1362938";"https://maps.google.com/?cid=0x0:0xa5a692838e78a5b0";""
"perumahan";"Kantor Pemerintah";"Rumah Dinas KPLP";"95VC+W7R, Ps. Lahewa, Kecamaten Lahewa, Kabupaten Nias Utara, Sumatera Utara 22853";"Ps. Lahewa, Kecamaten Lahewa, Kabupaten Nias Utara";"SUMATERA UTARA";"22853";"Indonesia";"";"";"";"1.394967";"97.1705054";"https://maps.google.com/?cid=0x0:0x792ec2db1ab5f226";""
"perumahan";"Rumah Kayu";"A. Wilman Harefa";"86QH+9H, Onozalukhu, Kecamaten Lahewa, Kabupaten Nias Utara, Sumatera Utara 22853";"Onozalukhu, Kecamaten Lahewa, Kabupaten Nias Utara";"SUMATERA UTARA";"22853";"Indonesia";"";"";"";"1.3393035";"97.2284668";"https://maps.google.com/?cid=0x0:0x8b5780689e2c1fb4";""
"perumahan";"Komplek perumahan";"A.Meiwan zal";"86XF+52H, Onozalukhu, Kecamaten Lahewa, Kabupaten Nias Utara, Sumatera Utara Indonesia1";"Kabupaten Nias Utara, Sumatera Utara";"SUMATERA UTARA";"";"Indonesia";"";"";"";"1.3479336";"97.222597";"https://maps.google.com/?cid=0x0:0xfdea45bdfa0c9d95";""
"perumahan";"Komplek perumahan";"Miner nage";"9854+CW2, Tugala Lauru, Kec. Lahewa Tim., Kabupaten Nias Utara, Sumatera Utara";"Kabupaten Nias Utara, Sumatera Utara";"SUMATERA UTARA";"";"Indonesia";"";"";"";"1.3585066";"97.3072521";"https://maps.google.com/?cid=0x0:0x55e8ae42ee2d6041";""
"perumahan";"Toko Perlengkapan Rumah";"UD. TIGA JAYA LAHEWA";"Jl. Soekarno No.107 Lingkungan II (Dua, Ps. Lahewa, Kecamaten Lahewa, Kabupaten Nias Utara, Sumatera Utara 22853";"Ps. Lahewa, Kecamaten Lahewa, Kabupaten Nias Utara";"SUMATERA UTARA";"22853";"Indonesia";"";"";"";"1.3912936";"97.170182";"https://maps.google.com/?cid=0x0:0x2ab02e12ef0747b8";""
"perumahan";"Kantor Pemerintahan Daerah";"WILAYAH ADAT "TUHENAKHE"";"Jl. Raya Afia No.Raya, Afia, Kecamaten Lahewa, Kabupaten Nias Utara, Sumatera Utara";"Kabupaten Nias Utara, Sumatera Utara";"SUMATERA UTARA";"";"Indonesia";"";"";"";"1.3869724";"97.1808697";"https://maps.google.com/?cid=0x0:0x9b4da5b5c9a77ff6";""
"perumahan";"Komplek perumahan";"Rumah Dinas Pelabuhan Lahewa";"95V8+GW5, Ps. Lahewa, Kecamaten Lahewa, Kabupaten Nias Utara, Sumatera Utara 22853";"Ps. Lahewa, Kecamaten Lahewa, Kabupaten Nias Utara";"SUMATERA UTARA";"22853";"Indonesia";"";"";"";"1.3932799";"97.1675755";"https://maps.google.com/?cid=0x0:0x8f5c68906d666381";""
"perumahan";"Komplek perumahan";"Hilihoya , lahewa Nias";"9626+77X, Dusun, Hilihoya, Kecamaten Lahewa, Kabupaten Nias Utara, Sumatera Utara";"Kabupaten Nias Utara, Sumatera Utara";"SUMATERA UTARA";"";"Indonesia";"";"";"";"1.3507483";"97.2107223";"https://maps.google.com/?cid=0x0:0xde476d0b6fbae4a4";""
"perumahan";"Komplek perumahan";"Home Stay Mesra Jullyanti Lase";"97JQ+V44, Dusun II Batoto, Desa Muzoi, Tefao, Kec. Lahewa Tim., Kabupaten Nias Utara, Sumatera Utara 22851";"Dusun II Batoto, Desa Muzoi, Tefao, Kec. Lahewa Tim., Kabupaten Nias Utara";"SUMATERA UTARA";"22851";"Indonesia";"";"";"";"1.3821439";"97.287833";"https://maps.google.com/?cid=0x0:0x50318ee1971832e5";""
"perumahan";"Komplek perumahan";"Rumah Pak A ini Lase";"C4FV+PJ4, Balefadoro Tuho, Kecamaten Lahewa, Kabupaten Nias Utara, Sumatera Utara";"Kabupaten Nias Utara, Sumatera Utara";"SUMATERA UTARA";"";"Indonesia";"";"";"";"1.4245538";"97.1445398";"https://maps.google.com/?cid=0x0:0x3a4c21044b8a4f73";""
"perumahan";"perumahan";"Kec. Lahewa Tim.";"Kabupaten Nias Utara, Sumatera Utara";"Kabupaten Nias Utara, Sumatera Utara";"SUMATERA UTARA";"";"Indonesia";"";"";"";"1.3690959";"97.3010539";"https://maps.google.com/?cid=0x0:0x1c45965c923c9076";""
"perumahan";"Komplek perumahan";"Home Stay Mesra Jullyanti Lase";"97JQ+V44, Dusun II Batoto, Desa Muzoi, Tefao, Kec. Lahewa Tim., Kabupaten Nias Utara, Sumatera Utara 22851";"Dusun II Batoto, Desa Muzoi, Tefao, Kec. Lahewa Tim., Kabupaten Nias Utara";"SUMATERA UTARA";"22851";"Indonesia";"";"";"";"1.3821439";"97.287833";"https://maps.google.com/?cid=0x0:0x50318ee1971832e5";""
"perumahan";"Komplek perumahan";"Dodi zalukhu";"9883+Q4X, Tugala Lauru, Kec. Lahewa Tim., Kabupaten Nias Utara, Sumatera Utara 22851";"Tugala Lauru, Kec. Lahewa Tim., Kabupaten Nias Utara";"SUMATERA UTARA";"22851";"Indonesia";"";"";"";"1.3669973";"97.3028545";"https://maps.google.com/?cid=0x0:0x195308cea9aae5ce";""
"perumahan";"Perumahan";"Laksa";"98CF+2H6, Muzoi, Kec. Lahewa Tim., Kabupaten Nias Utara, Sumatera Utara 22851";"Muzoi, Kec. Lahewa Tim., Kabupaten Nias Utara";"SUMATERA UTARA";"22851";"Indonesia";"";"";"";"1.3700134";"97.3238576";"https://maps.google.com/?cid=0x0:0x7efbcf8980ffe711";""
"perumahan";"Komplek perumahan";"enjel gea";"989C+P4R Jembatan Sungai Muzoi, Tugala Lauru, Kec. Lahewa Tim., Kabupaten Nias Utara, Sumatera Utara";"Kabupaten Nias Utara, Sumatera Utara";"SUMATERA UTARA";"";"Indonesia";"";"";"";"1.3690204";"97.3194078";"https://maps.google.com/?cid=0x0:0xaf5431e0983b427b";""
"perumahan";"Komplek perumahan";"Miner nage";"9854+CW2, Tugala Lauru, Kec. Lahewa Tim., Kabupaten Nias Utara, Sumatera Utara";"Kabupaten Nias Utara, Sumatera Utara";"SUMATERA UTARA";"";"Indonesia";"";"";"";"1.3585066";"97.3072521";"https://maps.google.com/?cid=0x0:0x55e8ae42ee2d6041";""
"perumahan";"Perhimpunan Pengembang Perumahan";"Rumah Axell";"97VG+26, Tefao, Kec. Lahewa Tim., Kabupaten Nias Utara, Sumatera Utara";"Kabupaten Nias Utara, Sumatera Utara";"SUMATERA UTARA";"";"Indonesia";"";"";"";"1.3925875";"97.2755778";"https://maps.google.com/?cid=0x0:0x61d2e238751afa4b";""
"perumahan";"Pembangunan Perumahan";"Muzoi";"98CF+2H6, Muzoi, Kec. Lahewa Tim., Kabupaten Nias Utara, Sumatera Utara 22851";"Muzoi, Kec. Lahewa Tim., Kabupaten Nias Utara";"SUMATERA UTARA";"22851";"Indonesia";"";"";"";"1.3700625";"97.3235625";"https://maps.google.com/?cid=0x0:0x794edf0eae7a286d";""
"perumahan";"Komplek perumahan";"Rumah SELVIN ZALUKHU";"88FJ+JV, Lukhu Lase, Kec. Lahewa Tim., Kabupaten Nias Utara, Sumatera Utara";"Kabupaten Nias Utara, Sumatera Utara";"SUMATERA UTARA";"";"Indonesia";"";"";"";"1.3240625";"97.3321875";"https://maps.google.com/?cid=0x0:0x11feba8bcd29606e";""
"perumahan";"Pembangunan Perumahan";"Fadoro";"8924+68, Laowowaga, Kec. Lahewa Tim., Kabupaten Nias Utara, Sumatera Utara";"Kabupaten Nias Utara, Sumatera Utara";"SUMATERA UTARA";"";"Indonesia";"";"";"";"1.3006235";"97.3558643";"https://maps.google.com/?cid=0x0:0x460a15049128699";""
"perumahan";"perumahan";"A/I Wanda Lahagu";"887R+76, Lukhu Lase, Kec. Lahewa Tim., Kabupaten Nias Utara, Sumatera Utara";"Kabupaten Nias Utara, Sumatera Utara";"SUMATERA UTARA";"";"Indonesia";"";"";"";"1.3131516";"97.340508";"https://maps.google.com/?cid=0x0:0xe0fe636c56bd2b";""
"perumahan";"perumahan";"AMA PUTRA GEA";"Jl. Lotu-Lahewa No.km 42, hlidundra, Kec. Lotu, Kabupaten Nias Utara, Sumatera Utara 22851";"hlidundra, Kec. Lotu, Kabupaten Nias Utara";"SUMATERA UTARA";"22851";"Indonesia";"";"";"";"1.3806242";"97.2894044";"https://maps.google.com/?cid=0x0:0x2a63240b3843bee3";""
"perumahan";"perumahan";"A. Selvi Zalukhu House";"79Q6+V7F, Laowowaga, Kec. Lahewa Tim., Kabupaten Nias Utara, Sumatera Utara";"Kabupaten Nias Utara, Sumatera Utara";"SUMATERA UTARA";"";"Indonesia";"";"";"";"1.2892281";"97.3608828";"https://maps.google.com/?cid=0x0:0xfb4d064b6b1ee278";""
"perumahan";"Perumahan";"Dima muzoi lukhulase";"88PR+PC3, Lukhu Lase, Kec. Lahewa Tim., Kabupaten Nias Utara, Sumatera Utara";"Kabupaten Nias Utara, Sumatera Utara";"SUMATERA UTARA";"";"Indonesia";"";"";"";"1.3367659";"97.341035";"https://maps.google.com/?cid=0x0:0x8621dae86a5e2292";""
"perumahan";"Kantor Pemerintahan Daerah";"WILAYAH ADAT "TUHENAKHE"";"Jl. Raya Afia No.Raya, Afia, Kecamaten Lahewa, Kabupaten Nias Utara, Sumatera Utara";"Kabupaten Nias Utara, Sumatera Utara";"SUMATERA UTARA";"";"Indonesia";"";"";"";"1.3869724";"97.1808697";"https://maps.google.com/?cid=0x0:0x9b4da5b5c9a77ff6";""
"perumahan";"Komplek perumahan";"Tugala lauru";"9866+WF6, Tugala Lauru, Kec. Lahewa Tim., Kabupaten Nias Utara, Sumatera Utara";"Kabupaten Nias Utara, Sumatera Utara";"SUMATERA UTARA";"";"Indonesia";"";"";"";"1.3622901";"97.3111562";"https://maps.google.com/?cid=0x0:0xb9340c4c4a1ff914";""
"perumahan";"Komplek perumahan";"A. Fira Zalukhu";"79V4+HFG, Laowowaga, Kec. Lahewa Tim., Kabupaten Nias Utara, Sumatera Utara";"Kabupaten Nias Utara, Sumatera Utara";"SUMATERA UTARA";"";"Indonesia";"";"";"";"1.2939398";"97.356215";"https://maps.google.com/?cid=0x0:0x28e348ca455f9842";""
"perumahan";"Perumahan";"Rumah SEPTIANUS ZALUKHU";"889P+93, Lukhu Lase, Kec. Lahewa Tim., Kabupaten Nias Utara, Sumatera Utara";"Kabupaten Nias Utara, Sumatera Utara";"SUMATERA UTARA";"";"Indonesia";"";"";"";"1.3184196";"97.3351265";"https://maps.google.com/?cid=0x0:0x9b1f5925ba0fdcad";""
"perumahan";"Perhimpunan Pengembang Perumahan";"Simpang menuju dusun lV";"9866+WF6, Dusun satu, Tugala Lauru, Kec. Lahewa Tim., Kabupaten Nias Utara, Sumatera Utara";"Kabupaten Nias Utara, Sumatera Utara";"SUMATERA UTARA";"";"Indonesia";"";"";"";"1.3622901";"97.3111562";"https://maps.google.com/?cid=0x0:0xda98a8608cc73cda";""
"perumahan";"Komplek perumahan";"HILIKARA DESA OMBOLATA KECAMATAN ALASA KABUPATEN NIAS UTARA";"69WX+4P3, Jl. Lahewa, Ombolata, Kec. Tugala Oyo, Kabupaten Nias Utara, Sumatera Utara 22861";"Jl. Lahewa, Ombolata, Kec. Tugala Oyo, Kabupaten Nias Utara";"SUMATERA UTARA";"22861";"Indonesia";"";"";"";"1.2452647";"97.3992943";"https://maps.google.com/?cid=0x0:0x964ce742e2dc49cb";""
"perumahan";"perumahan";"Rumah A. Dewi zalukhu";"Jl. Lahewa No.1, Laowowaga, Kec. Lahewa Tim., Kabupaten Nias Utara, Sumatera Utara 22851";"Laowowaga, Kec. Lahewa Tim., Kabupaten Nias Utara";"SUMATERA UTARA";"22851";"Indonesia";"";"";"";"1.2884213";"97.3576611";"https://maps.google.com/?cid=0x0:0x430322044bb4c46c";""
"perumahan";"perumahan";"A. Dhalvin Zalukhu";"79V4+HFG, Laowowaga, Kec. Lahewa Tim., Kabupaten Nias Utara, Sumatera Utara";"Kabupaten Nias Utara, Sumatera Utara";"SUMATERA UTARA";"";"Indonesia";"";"";"";"1.2938068";"97.3563626";"https://maps.google.com/?cid=0x0:0x81ad1ce2a4bbec16";""
"perumahan";"Rumah Kayu";"A. FANY GEA";"97CX+GJX, Tefao, Kec. Lahewa Tim., Kabupaten Nias Utara, Sumatera Utara 22851";"Tefao, Kec. Lahewa Tim., Kabupaten Nias Utara";"SUMATERA UTARA";"22851";"Indonesia";"";"";"";"1.3713677";"97.2991041";"https://maps.google.com/?cid=0x0:0x592dabf1adbf5780";""
"perumahan";"Komplek perumahan";"Rumah Ama Remi Gulo";"C87W+WC, Lolofaoso, Kec. Lotu, Kabupaten Nias Utara, Sumatera Utara";"Kabupaten Nias Utara, Sumatera Utara";"SUMATERA UTARA";"";"Indonesia";"";"";"";"1.4144273";"97.346052";"https://maps.google.com/?cid=0x0:0xee859bb1a25a2646";""
"perumahan";"perumahan";"Kec. Lotu";"Kabupaten Nias Utara, Sumatera Utara";"Kabupaten Nias Utara, Sumatera Utara";"SUMATERA UTARA";"";"Indonesia";"";"";"";"1.3891445";"97.3577578";"https://maps.google.com/?cid=0x0:0x33654c018df13e36";""
"perumahan";"perumahan";"Perumahan Ama/Ina Queen Gulo";"C9P9+G4Q, Lolomboli, Kec. Lotu, Kabupaten Nias Utara, Sumatera Utara";"Kabupaten Nias Utara, Sumatera Utara";"SUMATERA UTARA";"";"Indonesia";"";"";"";"1.4363488";"97.3678624";"https://maps.google.com/?cid=0x0:0xca816387fd834a50";""
"perumahan";"Komplek perumahan";"Rumah Ama Remi Gulo";"C87W+WC, Lolofaoso, Kec. Lotu, Kabupaten Nias Utara, Sumatera Utara";"Kabupaten Nias Utara, Sumatera Utara";"SUMATERA UTARA";"";"Indonesia";"";"";"";"1.4144273";"97.346052";"https://maps.google.com/?cid=0x0:0xee859bb1a25a2646";""
"perumahan";"Komplek perumahan";"Desa dahana, kecamatan lotu, kabupaten Nias Utara";"998C+V4Q, Baho, Kec. Lotu, Kabupaten Nias Utara, Sumatera Utara 22816";"Baho, Kec. Lotu, Kabupaten Nias Utara";"SUMATERA UTARA";"22816";"Indonesia";"";"";"";"1.3670975";"97.3692829";"https://maps.google.com/?cid=0x0:0xd0283a693cdf66bb";""
"perumahan";"Perhimpunan Pengembang Perumahan";"Rumah filenus harefa";"99PF+X54, Fadoro Fulolo, Kec. Lotu, Kabupaten Nias Utara, Sumatera Utara 22851";"Fadoro Fulolo, Kec. Lotu, Kabupaten Nias Utara";"SUMATERA UTARA";"22851";"Indonesia";"";"";"";"1.3873981";"97.3729015";"https://maps.google.com/?cid=0x0:0x6fccd9414e1a07c2";""
"perumahan";"Rumah Kaca";"Rumah Sahabat Nazara";"Jl. Sawö, Lawira I, Kec. Lotu, Kabupaten Nias Utara, Sumatera Utara 22851";"Lawira I, Kec. Lotu, Kabupaten Nias Utara";"SUMATERA UTARA";"22851";"Indonesia";"";"";"";"1.4019092";"97.3542196";"https://maps.google.com/?cid=0x0:0x9c9e59b9118a1a03";""
"perumahan";"Komplek perumahan";"Rumah Pak Bertin Nazara";"99V4+7PM, Lawira Satua, Kec. Lotu, Kabupaten Nias Utara, Sumatera Utara 22851";"Lawira Satua, Kec. Lotu, Kabupaten Nias Utara";"SUMATERA UTARA";"22851";"Indonesia";"";"";"";"1.3931972";"97.3567358";"https://maps.google.com/?cid=0x0:0xdc2e5e77d9a65592";""
"perumahan";"Komplek perumahan";"Harefa";"C9M3+PPP, Jl. Sawö, Lolofaoso, Kec. Lotu, Kabupaten Nias Utara, Sumatera Utara 22851";"Jl. Sawö, Lolofaoso, Kec. Lotu, Kabupaten Nias Utara";"SUMATERA UTARA";"22851";"Indonesia";"";"";"";"1.4343271";"97.3543311";"https://maps.google.com/?cid=0x0:0x9d03ac459c6b9db3";""
"perumahan";"Komplek perumahan";"Home Stay Mesra Jullyanti Lase";"97JQ+V44, Dusun II Batoto, Desa Muzoi, Tefao, Kec. Lahewa Tim., Kabupaten Nias Utara, Sumatera Utara 22851";"Dusun II Batoto, Desa Muzoi, Tefao, Kec. Lahewa Tim., Kabupaten Nias Utara";"SUMATERA UTARA";"22851";"Indonesia";"";"";"";"1.3821439";"97.287833";"https://maps.google.com/?cid=0x0:0x50318ee1971832e5";""
"perumahan";"Pembangunan Perumahan";"Ridho J Hulu";"99RR+26W, Baho, Kec. Lotu, Kabupaten Nias Utara, Sumatera Utara 22852";"Baho, Kec. Lotu, Kabupaten Nias Utara";"SUMATERA UTARA";"22852";"Indonesia";"";"";"";"1.3901099";"97.3905775";"https://maps.google.com/?cid=0x0:0x16618824e9079b8e";""
"perumahan";"Komplek perumahan";"Rumah pak nita nazara";"99V4+4Q4, Lawira Satua, Kec. Lotu, Kabupaten Nias Utara, Sumatera Utara 22851";"Lawira Satua, Kec. Lotu, Kabupaten Nias Utara";"SUMATERA UTARA";"22851";"Indonesia";"";"";"";"1.3927641";"97.3569669";"https://maps.google.com/?cid=0x0:0x93eceeebec163d7a";""
"perumahan";"Pembangunan Perumahan";"Yesman Jaya Gulo";"99X4+849, Lawira Satua, Kec. Lotu, Kabupaten Nias Utara, Sumatera Utara 22851";"Lawira Satua, Kec. Lotu, Kabupaten Nias Utara";"SUMATERA UTARA";"22851";"Indonesia";"";"";"";"1.3982952";"97.355348";"https://maps.google.com/?cid=0x0:0xb449eb28f7cdb5cd";""
"perumahan";"Komplek perumahan";"Rumah A. Imran Zega";"99PF+X54, Fadoro Fulolo, Kec. Lotu, Kabupaten Nias Utara, Sumatera Utara 22851";"Fadoro Fulolo, Kec. Lotu, Kabupaten Nias Utara";"SUMATERA UTARA";"22851";"Indonesia";"";"";"";"1.3872523";"97.3722693";"https://maps.google.com/?cid=0x0:0xece1aab613104d3c";""
"perumahan";"Komplek perumahan";"Rumah Reynand";"F9M4+XX9, Hiligeo Afia, Kec. Lotu, Kabupaten Nias Utara, Sumatera Utara";"Kabupaten Nias Utara, Sumatera Utara";"SUMATERA UTARA";"";"Indonesia";"";"";"";"1.4849206";"97.3574727";"https://maps.google.com/?cid=0x0:0x65d164816920d07b";""
"perumahan";"Komplek perumahan";"Ivan Gea";"Lawira Satua, Kec. Lotu, Kabupaten Nias Utara, Sumatera Utara 22851";"Kec. Lotu, Kabupaten Nias Utara";"SUMATERA UTARA";"22851";"Indonesia";" 082168276473";"";"";"1.3977676";"97.3552596";"https://maps.google.com/?cid=0x0:0xa97d703b5d7ebc56";""
"perumahan";"Perhimpunan Pengembang Perumahan";"Rumah hasrat halawa";"99Q5+M42, Lawira Satua, Kec. Lotu, Kabupaten Nias Utara, Sumatera Utara";"Kabupaten Nias Utara, Sumatera Utara";"SUMATERA UTARA";"";"Indonesia";"";"";"";"1.3891445";"97.3577578";"https://maps.google.com/?cid=0x0:0xa79f5870bf44be97";""
"perumahan";"Perhimpunan Pengembang Perumahan";"Liman";"C9P3+4QX, Jl. Sawö, Lolofaoso, Kec. Lotu, Kabupaten Nias Utara, Sumatera Utara 22851";"Jl. Sawö, Lolofaoso, Kec. Lotu, Kabupaten Nias Utara";"SUMATERA UTARA";"22851";"Indonesia";"";"";"";"1.4353672";"97.3544826";"https://maps.google.com/?cid=0x0:0xaa3cb016ed7820ad";""
"perumahan";"Komplek perumahan";"Tanah Iman dan Jora";"98XR+9P, Lawira I, Kec. Lotu, Kabupaten Nias Utara, Sumatera Utara";"Kabupaten Nias Utara, Sumatera Utara";"SUMATERA UTARA";"";"Indonesia";"";"";"";"1.398401";"97.341789";"https://maps.google.com/?cid=0x0:0xcfb57069612b0da4";""
"perumahan";"Komplek perumahan";"A. Tili nazara";"99W4+VC3, Lawira Satua, Kec. Lotu, Kabupaten Nias Utara, Sumatera Utara 22851";"Lawira Satua, Kec. Lotu, Kabupaten Nias Utara";"SUMATERA UTARA";"22851";"Indonesia";"";"";"";"1.3971328";"97.3560608";"https://maps.google.com/?cid=0x0:0x28311a69b006c264";""
"perumahan";"Komplek perumahan";"A/I Metha Zega";"99PV+RMQ, Baho, Kec. Lotu, Kabupaten Nias Utara, Sumatera Utara 22852";"Baho, Kec. Lotu, Kabupaten Nias Utara";"SUMATERA UTARA";"22852";"Indonesia";"";"";"";"1.3870809";"97.3942474";"https://maps.google.com/?cid=0x0:0x18543058b6eefec1";""
"perumahan";"Perhimpunan Pengembang Perumahan";"Lawira";"9CRF+7R9, Botombawo, Kec. Sitolu Ori, Kabupaten Nias Utara, Sumatera Utara 22852";"Botombawo, Kec. Sitolu Ori, Kabupaten Nias Utara";"SUMATERA UTARA";"22852";"Indonesia";"";"";"";"1.3906573";"97.4246158";"https://maps.google.com/?cid=0x0:0x15a9d955afb747c6";""
"perumahan";"Komplek perumahan";"Arif House";"9C37+W53, Jl. Simpang Empat, Lasara, Kec. Namohalu Esiwa, Kabupaten Nias Utara, Sumatera Utara 22816";"Jl. Simpang Empat, Lasara, Kec. Namohalu Esiwa, Kabupaten Nias Utara";"SUMATERA UTARA";"22816";"Indonesia";"";"";"";"1.3547743";"97.4129264";"https://maps.google.com/?cid=0x0:0xc0deb8101574a238";""
"perumahan";"Pembangunan Perumahan";"Yesman jaya gulo";"C9M3+MM4, Jl. Sawö, Lolofaoso, Kec. Lotu, Kabupaten Nias Utara, Sumatera Utara 22851";"Jl. Sawö, Lolofaoso, Kec. Lotu, Kabupaten Nias Utara";"SUMATERA UTARA";"22851";"Indonesia";"";"";"";"1.4341291";"97.3541882";"https://maps.google.com/?cid=0x0:0x326945fbdfbede57";""
"perumahan";"Komplek perumahan";"Rumah Kontrakan A. Zihan Gea";"99Q5+M49, Jl. Sawö, Lawira Satua, Kec. Lotu, Kabupaten Nias Utara, Sumatera Utara 22851";"Jl. Sawö, Lawira Satua, Kec. Lotu, Kabupaten Nias Utara";"SUMATERA UTARA";"22851";"Indonesia";"";"";"";"1.3891727";"97.3578653";"https://maps.google.com/?cid=0x0:0xbefff26d9ee421cb";""
"perumahan";"Komplek perumahan";"KADUS I";"9C58+896, Jl. Simpang Empat, Lasara, Kec. Namohalu Esiwa, Kabupaten Nias Utara, Sumatera Utara 22852";"Jl. Simpang Empat, Lasara, Kec. Namohalu Esiwa, Kabupaten Nias Utara";"SUMATERA UTARA";"22852";"Indonesia";"";"";"";"1.3582825";"97.4158751";"https://maps.google.com/?cid=0x0:0xd76b0e196663e1c";""
"perumahan";"Kantor Pemda";"Kantor Perumahan Rakyat dan Kawasan Prmukiman";"99P6+G5H, Unnamed Road, Baho, Kec. Lotu, Kabupaten Nias Utara, Sumatera Utara 22851";"Unnamed Road, Baho, Kec. Lotu, Kabupaten Nias Utara";"SUMATERA UTARA";"22851";"Indonesia";"";"";"";"1.3863207";"97.3604888";"https://maps.google.com/?cid=0x0:0x44a96a1822c34c8a";""
"perumahan";"perumahan";"Sumatera Utara 22816";"Kec. Namohalu Esiwa, Kabupaten Nias Utara, Sumatera Utara";"Kabupaten Nias Utara, Sumatera Utara";"SUMATERA UTARA";"";"Indonesia";"";"";"";"1.3453232";"97.3840729";"https://maps.google.com/?cid=0x0:0x13bcd8183011aa";""
"perumahan";"Komplek perumahan";"A/I. AGUS GEA";"9929+JXW, Dahana Hiligodu, Kec. Namohalu Esiwa, Kabupaten Nias Utara, Sumatera Utara 22816";"Dahana Hiligodu, Kec. Namohalu Esiwa, Kabupaten Nias Utara";"SUMATERA UTARA";"22816";"Indonesia";"";"";"";"1.3507054";"97.3705665";"https://maps.google.com/?cid=0x0:0xd0d58acdbb0e2347";""
"perumahan";"Komplek perumahan";"Rumah Ama Aurel Harefa";"8CHM+XQP, Hilibanua, Kec. Namohalu Esiwa, Kabupaten Nias Utara, Sumatera Utara 22816";"Hilibanua, Kec. Namohalu Esiwa, Kabupaten Nias Utara";"SUMATERA UTARA";"22816";"Indonesia";"";"";"";"1.3299706";"97.4344675";"https://maps.google.com/?cid=0x0:0xc31ea28016bf22d1";""
"perumahan";"Pembangunan Perumahan";"Rmh. Alisama Harefa (A. Sepakat)";"8CCX+G95, Sisarahili, Kec. Namohalu Esiwa, Kabupaten Nias Utara, Sumatera Utara";"Kabupaten Nias Utara, Sumatera Utara";"SUMATERA UTARA";"";"Indonesia";"";"";"";"1.3212691";"97.4484763";"https://maps.google.com/?cid=0x0:0x50db9eb5302af697";""
"perumahan";"Komplek perumahan";"Rmh. Krispinus Lhg/Wentriani Zal. (A/I. Khalista)";"Lauru, Hilibanua, Kec. Namohalu Esiwa, Kabupaten Nias Utara, Sumatera Utara";"Kabupaten Nias Utara, Sumatera Utara";"SUMATERA UTARA";"";"Indonesia";"";"";"";"1.299447";"97.452677";"https://maps.google.com/?cid=0x0:0xf447b57c7bb7397f";""
"perumahan";"Komplek perumahan";"Rmh. Buala Zebua/Suida Lhg (A/I. Lesi)";"Lauru, Hilibanua, Kec. Namohalu Esiwa, Kabupaten Nias Utara, Sumatera Utara";"Kabupaten Nias Utara, Sumatera Utara";"SUMATERA UTARA";"";"Indonesia";"";"";"";"1.2991179";"97.4540335";"https://maps.google.com/?cid=0x0:0xf92e8681ba53174e";""
"perumahan";"Komplek perumahan";"RUMAH MARDIUS HAREFA";"8C6X+F64, Sisobahili, Kec. Namohalu Esiwa, Kabupaten Nias Utara, Sumatera Utara 22817";"Sisobahili, Kec. Namohalu Esiwa, Kabupaten Nias Utara";"SUMATERA UTARA";"22817";"Indonesia";"";"";"";"1.311128";"97.4480891";"https://maps.google.com/?cid=0x0:0xd9090ab40e47b757";""
"perumahan";"Komplek perumahan";"Arif House";"9C37+W53, Jl. Simpang Empat, Lasara, Kec. Namohalu Esiwa, Kabupaten Nias Utara, Sumatera Utara 22816";"Jl. Simpang Empat, Lasara, Kec. Namohalu Esiwa, Kabupaten Nias Utara";"SUMATERA UTARA";"22816";"Indonesia";"";"";"";"1.3547743";"97.4129264";"https://maps.google.com/?cid=0x0:0xc0deb8101574a238";""
"perumahan";"Komplek perumahan";"Damar house";"8FH2+VHF, Sisarahili, Kec. Namohalu Esiwa, Kabupaten Nias Utara, Sumatera Utara 22817";"Sisarahili, Kec. Namohalu Esiwa, Kabupaten Nias Utara";"SUMATERA UTARA";"22817";"Indonesia";"";"";"";"1.3296883";"97.4514147";"https://maps.google.com/?cid=0x0:0xd7841c37e25eac8";""
"perumahan";"Komplek perumahan";"KADUS I";"9C58+896, Jl. Simpang Empat, Lasara, Kec. Namohalu Esiwa, Kabupaten Nias Utara, Sumatera Utara 22852";"Jl. Simpang Empat, Lasara, Kec. Namohalu Esiwa, Kabupaten Nias Utara";"SUMATERA UTARA";"22852";"Indonesia";"";"";"";"1.3582825";"97.4158751";"https://maps.google.com/?cid=0x0:0xd76b0e196663e1c";""
"perumahan";"Perhimpunan Pengembang Perumahan";"Pertapakan tanah milik Seti Lahagu (A. Yuru)";"Lauru, Hilibanua, Kec. Namohalu Esiwa, Kabupaten Nias Utara, Sumatera Utara 22816";"Hilibanua, Kec. Namohalu Esiwa, Kabupaten Nias Utara";"SUMATERA UTARA";"22816";"Indonesia";"";"";"";"1.2994926";"97.4532839";"https://maps.google.com/?cid=0x0:0x53939ea456493ab2";""
"perumahan";"Perhimpunan Pengembang Perumahan";"Hilibanua";"8CCV+FCV, Hilibanua, Kec. Namohalu Esiwa, Kabupaten Nias Utara, Sumatera Utara";"Kabupaten Nias Utara, Sumatera Utara";"SUMATERA UTARA";"";"Indonesia";"";"";"";"1.3212373";"97.4435441";"https://maps.google.com/?cid=0x0:0x6b2f8aade1761ff3";""
"perumahan";"Komplek perumahan";"Simpang gowe onombongi";"8FH2+VHF, Sisarahili, Kec. Namohalu Esiwa, Kabupaten Nias Utara, Sumatera Utara 22817";"Sisarahili, Kec. Namohalu Esiwa, Kabupaten Nias Utara";"SUMATERA UTARA";"22817";"Indonesia";"";"";"";"1.3292553";"97.4513614";"https://maps.google.com/?cid=0x0:0xe212062d1e054d34";""
"perumahan";"Komplek perumahan";"Rumah Velixs Harefa";"8CQ9+WGF, Tuhenakhe I, Kec. Namohalu Esiwa, Kabupaten Nias Utara, Sumatera Utara 22852";"Tuhenakhe I, Kec. Namohalu Esiwa, Kabupaten Nias Utara";"SUMATERA UTARA";"22852";"Indonesia";"";"";"";"1.3390722";"97.4195621";"https://maps.google.com/?cid=0x0:0x894570e4fd1d494a";""
"perumahan";"Pembangunan Perumahan";"Rmh. A. Mega Lahagu";"7FW3+RV4, Banua Sibohou, Kec. Namohalu Esiwa, Kabupaten Nias Utara, Sumatera Utara";"Kabupaten Nias Utara, Sumatera Utara";"SUMATERA UTARA";"";"Indonesia";"";"";"";"1.2970075";"97.4546944";"https://maps.google.com/?cid=0x0:0xf80b339e3b3999ef";""
"perumahan";"Rumah Kaca";"Rumah Ibu Ina Rini";"8C5W+5QP, Sisobahili, Kec. Namohalu Esiwa, Kabupaten Nias Utara, Sumatera Utara";"Kabupaten Nias Utara, Sumatera Utara";"SUMATERA UTARA";"";"Indonesia";"";"";"";"1.3080845";"97.4465096";"https://maps.google.com/?cid=0x0:0xf0ba42af3fe3a120";""
"perumahan";"Pembangunan Perumahan";"Ama nita halawa";"7CQ3+J9X, Ora Hili, Kec. Namohalu Esiwa, Kabupaten Nias Utara, Sumatera Utara";"Kabupaten Nias Utara, Sumatera Utara";"SUMATERA UTARA";"";"Indonesia";"";"";"";"1.2888";"97.404114";"https://maps.google.com/?cid=0x0:0x2fd30c551bb6f51a";""
"perumahan";"Komplek perumahan";"Rumah Dinas Kepala Sekolah";"8CCV+FCV, Dusun III, Hilibanua, Kec. Namohalu Esiwa, Kabupaten Nias Utara, Sumatera Utara";"Kabupaten Nias Utara, Sumatera Utara";"SUMATERA UTARA";"";"Indonesia";"";"";"";"1.3212373";"97.4435441";"https://maps.google.com/?cid=0x0:0x9c67615e1d8126cb";""
"perumahan";"Pembangunan Perumahan";"Kampung IRAONOLASE";"Jl. Dusun III, Dahana Hiligodu, Kec. Namohalu Esiwa, Kabupaten Nias Utara, Sumatera Utara 22816";"Dahana Hiligodu, Kec. Namohalu Esiwa, Kabupaten Nias Utara";"SUMATERA UTARA";"22816";"Indonesia";"";"";"";"1.3501887";"97.3570576";"https://maps.google.com/?cid=0x0:0xa8da05f295e6852f";""
"perumahan";"Komplek perumahan";"Aveto Tuhenakhe";"8FM4+7R4, Sisarahili, Kec. Namohalu Esiwa, Kabupaten Nias Utara, Sumatera Utara";"Kabupaten Nias Utara, Sumatera Utara";"SUMATERA UTARA";"";"Indonesia";"";"";"";"1.3331466";"97.4570675";"https://maps.google.com/?cid=0x0:0x4463d126ddd8c372";""
"perumahan";"Komplek perumahan";"Wita Gea";"89WX+PJV, Berua, Kec. Namohalu Esiwa, Kabupaten Nias Utara, Sumatera Utara";"Kabupaten Nias Utara, Sumatera Utara";"SUMATERA UTARA";"";"Indonesia";"";"";"";"1.3468595";"97.3990516";"https://maps.google.com/?cid=0x0:0xa48f1099180ce191";""
"perumahan";"Pembangunan Perumahan";"Ama Fanjer Harefa";"8FH2+GFH, Sisarahili, Kec. Namohalu Esiwa, Kabupaten Nias Utara, Sumatera Utara 22817";"Sisarahili, Kec. Namohalu Esiwa, Kabupaten Nias Utara";"SUMATERA UTARA";"22817";"Indonesia";"";"";"";"1.3279132";"97.4511203";"https://maps.google.com/?cid=0x0:0xf6ecd1380d13f9e5";""
"perumahan";"perumahan";"Sumatera Utara 22817";"Kabupaten Nias Utara, Sumatera Utara";"Kabupaten Nias Utara, Sumatera Utara";"SUMATERA UTARA";"";"Indonesia";"";"";"";"1.2834877";"97.2814718";"https://maps.google.com/?cid=0x0:0x99ac41ee85893cf2";""
"perumahan";"Komplek perumahan";"Damar house";"8FH2+VHF, Sisarahili, Kec. Namohalu Esiwa, Kabupaten Nias Utara, Sumatera Utara 22817";"Sisarahili, Kec. Namohalu Esiwa, Kabupaten Nias Utara";"SUMATERA UTARA";"22817";"Indonesia";"";"";"";"1.3296883";"97.4514147";"https://maps.google.com/?cid=0x0:0xd7841c37e25eac8";""
"perumahan";"Pembangunan Perumahan";"Rmh. Alisama Harefa (A. Sepakat)";"8CCX+G95, Sisarahili, Kec. Namohalu Esiwa, Kabupaten Nias Utara, Sumatera Utara";"Kabupaten Nias Utara, Sumatera Utara";"SUMATERA UTARA";"";"Indonesia";"";"";"";"1.3212691";"97.4484763";"https://maps.google.com/?cid=0x0:0x50db9eb5302af697";""
"perumahan";"Komplek perumahan";"RUMAH MARDIUS HAREFA";"8C6X+F64, Sisobahili, Kec. Namohalu Esiwa, Kabupaten Nias Utara, Sumatera Utara 22817";"Sisobahili, Kec. Namohalu Esiwa, Kabupaten Nias Utara";"SUMATERA UTARA";"22817";"Indonesia";"";"";"";"1.311128";"97.4480891";"https://maps.google.com/?cid=0x0:0xd9090ab40e47b757";""
"perumahan";"Pembangunan Perumahan";"Ama Fanjer Harefa";"8FH2+GFH, Sisarahili, Kec. Namohalu Esiwa, Kabupaten Nias Utara, Sumatera Utara 22817";"Sisarahili, Kec. Namohalu Esiwa, Kabupaten Nias Utara";"SUMATERA UTARA";"22817";"Indonesia";"";"";"";"1.3279132";"97.4511203";"https://maps.google.com/?cid=0x0:0xf6ecd1380d13f9e5";""
"perumahan";"Komplek perumahan";"Rmh. Krispinus Lhg/Wentriani Zal. (A/I. Khalista)";"Lauru, Hilibanua, Kec. Namohalu Esiwa, Kabupaten Nias Utara, Sumatera Utara";"Kabupaten Nias Utara, Sumatera Utara";"SUMATERA UTARA";"";"Indonesia";"";"";"";"1.299447";"97.452677";"https://maps.google.com/?cid=0x0:0xf447b57c7bb7397f";""
"perumahan";"Komplek perumahan";"Rmh. Buala Zebua/Suida Lhg (A/I. Lesi)";"Lauru, Hilibanua, Kec. Namohalu Esiwa, Kabupaten Nias Utara, Sumatera Utara";"Kabupaten Nias Utara, Sumatera Utara";"SUMATERA UTARA";"";"Indonesia";"";"";"";"1.2991179";"97.4540335";"https://maps.google.com/?cid=0x0:0xf92e8681ba53174e";""
"perumahan";"Komplek perumahan";"Aveto Tuhenakhe";"8FM4+7R4, Sisarahili, Kec. Namohalu Esiwa, Kabupaten Nias Utara, Sumatera Utara";"Kabupaten Nias Utara, Sumatera Utara";"SUMATERA UTARA";"";"Indonesia";"";"";"";"1.3331466";"97.4570675";"https://maps.google.com/?cid=0x0:0x4463d126ddd8c372";""
"perumahan";"Rumah Kaca";"Rumah Ibu Ina Rini";"8C5W+5QP, Sisobahili, Kec. Namohalu Esiwa, Kabupaten Nias Utara, Sumatera Utara";"Kabupaten Nias Utara, Sumatera Utara";"SUMATERA UTARA";"";"Indonesia";"";"";"";"1.3080845";"97.4465096";"https://maps.google.com/?cid=0x0:0xf0ba42af3fe3a120";""
"perumahan";"Perhimpunan Pengembang Perumahan";"Rmh. Yosia Lhg/Yanuria Hulu (A/I. Yenti)";"7FW4+JC2, Jl. Lauru Hilibanua ke Alasa Talu Muzöi, Kec. Namohalu Esiwa, Kabupaten Nias Utara, Sumatera Utara 22816";"Jl. Lauru Hilibanua ke Alasa Talu Muzöi, Kec. Namohalu Esiwa, Kabupaten Nias Utara";"SUMATERA UTARA";"22816";"Indonesia";"";"";"";"1.2965081";"97.4559949";"https://maps.google.com/?cid=0x0:0x93d8e3408c4896e1";""
"perumahan";"Komplek perumahan";"Rumah Ama Aurel Harefa";"8CHM+XQP, Hilibanua, Kec. Namohalu Esiwa, Kabupaten Nias Utara, Sumatera Utara 22816";"Hilibanua, Kec. Namohalu Esiwa, Kabupaten Nias Utara";"SUMATERA UTARA";"22816";"Indonesia";"";"";"";"1.3299706";"97.4344675";"https://maps.google.com/?cid=0x0:0xc31ea28016bf22d1";""
"perumahan";"Perhimpunan Pengembang Perumahan";"Hilibanua";"8CCV+FCV, Hilibanua, Kec. Namohalu Esiwa, Kabupaten Nias Utara, Sumatera Utara";"Kabupaten Nias Utara, Sumatera Utara";"SUMATERA UTARA";"";"Indonesia";"";"";"";"1.3212373";"97.4435441";"https://maps.google.com/?cid=0x0:0x6b2f8aade1761ff3";""
"perumahan";"Pembangunan Perumahan";"Rmh. Bazatulo Harefa (A. Odi)";"8CCX+7MC, Sisarahili, Kec. Namohalu Esiwa, Kabupaten Nias Utara, Sumatera Utara";"Kabupaten Nias Utara, Sumatera Utara";"SUMATERA UTARA";"";"Indonesia";"";"";"";"1.3206872";"97.4491516";"https://maps.google.com/?cid=0x0:0x1e3de074ede41763";""
"perumahan";"Komplek perumahan";"Pierca house";"8FC3+662, Sisarahili, Kec. Namohalu Esiwa, Kabupaten Nias Utara, Sumatera Utara 22817";"Sisarahili, Kec. Namohalu Esiwa, Kabupaten Nias Utara";"SUMATERA UTARA";"22817";"Indonesia";"";"";"";"1.3205076";"97.4530059";"https://maps.google.com/?cid=0x0:0xc867e3b16e868bd7";""
"perumahan";"Komplek perumahan";"Rumah Dinas Kepala Sekolah";"8CCV+FCV, Dusun III, Hilibanua, Kec. Namohalu Esiwa, Kabupaten Nias Utara, Sumatera Utara";"Kabupaten Nias Utara, Sumatera Utara";"SUMATERA UTARA";"";"Indonesia";"";"";"";"1.3212373";"97.4435441";"https://maps.google.com/?cid=0x0:0x9c67615e1d8126cb";""
"perumahan";"Pembangunan Perumahan";"Rmh. A. Mega Lahagu";"7FW3+RV4, Banua Sibohou, Kec. Namohalu Esiwa, Kabupaten Nias Utara, Sumatera Utara";"Kabupaten Nias Utara, Sumatera Utara";"SUMATERA UTARA";"";"Indonesia";"";"";"";"1.2970075";"97.4546944";"https://maps.google.com/?cid=0x0:0xf80b339e3b3999ef";""
"perumahan";"Komplek perumahan";"Lauru Hilibanua";"Lauru, Hilibanua, Kec. Namohalu Esiwa, Kabupaten Nias Utara, Sumatera Utara";"Kabupaten Nias Utara, Sumatera Utara";"SUMATERA UTARA";"";"Indonesia";"";"";"";"1.2991588";"97.4540771";"https://maps.google.com/?cid=0x0:0x543749446fa4b31a";""
"perumahan";"Komplek perumahan";"Tuhegafoa";"8CCX+J64, Sisarahili, Kec. Namohalu Esiwa, Kabupaten Nias Utara, Sumatera Utara 22817";"Sisarahili, Kec. Namohalu Esiwa, Kabupaten Nias Utara";"SUMATERA UTARA";"22817";"Indonesia";"";"";"";"1.321432";"97.4475956";"https://maps.google.com/?cid=0x0:0xf3cea474eb989c98";""
"perumahan";"Komplek perumahan";"Rumah Doni Harefa";"8C6X+F95, Sisobahili, Kec. Namohalu Esiwa, Kabupaten Nias Utara, Sumatera Utara 22817";"Sisobahili, Kec. Namohalu Esiwa, Kabupaten Nias Utara";"SUMATERA UTARA";"22817";"Indonesia";"";"";"";"1.3111327";"97.448475";"https://maps.google.com/?cid=0x0:0x8e4ce0bdec4568e7";""
"perumahan";"Pembangunan Perumahan";"A.moko H";"8CCX+G32, Hilibanua, Kec. Namohalu Esiwa, Kabupaten Nias Utara, Sumatera Utara 22817";"Hilibanua, Kec. Namohalu Esiwa, Kabupaten Nias Utara";"SUMATERA UTARA";"22817";"Indonesia";"";"";"";"1.3212574";"97.4476475";"https://maps.google.com/?cid=0x0:0xf77291c7473fd780";""
"perumahan";"Perhimpunan Pengembang Perumahan";"Pertapakan tanah milik Seti Lahagu (A. Yuru)";"Lauru, Hilibanua, Kec. Namohalu Esiwa, Kabupaten Nias Utara, Sumatera Utara 22816";"Hilibanua, Kec. Namohalu Esiwa, Kabupaten Nias Utara";"SUMATERA UTARA";"22816";"Indonesia";"";"";"";"1.2994926";"97.4532839";"https://maps.google.com/?cid=0x0:0x53939ea456493ab2";""
"perumahan";"Klub Badminton";"Lapangan FUTSAL Desa Sisobahili";"8C6X+H3X, Sisobahili, Kec. Namohalu Esiwa, Kabupaten Nias Utara, Sumatera Utara 22817";"Sisobahili, Kec. Namohalu Esiwa, Kabupaten Nias Utara";"SUMATERA UTARA";"22817";"Indonesia";"";"";"";"1.3115829";"97.4478105";"https://maps.google.com/?cid=0x0:0xfa798376158dbb79";""
"perumahan";"perumahan";"Kec. Sawo";"Kabupaten Nias Utara, Sumatera Utara";"Kabupaten Nias Utara, Sumatera Utara";"SUMATERA UTARA";"";"Indonesia";"";"";"";"1.497956";"97.3989135";"https://maps.google.com/?cid=0x0:0x766aabcbebe65b39";""
"perumahan";"perumahan";"Sawo";"Kec. Sawo, Kabupaten Nias Utara, Sumatera Utara";"Kabupaten Nias Utara, Sumatera Utara";"SUMATERA UTARA";"";"Indonesia";"";"";"";"1.4866095";"97.3975845";"https://maps.google.com/?cid=0x0:0x547cfdd552254f62";""
"perumahan";"perumahan";"Sumatera Utara 22852";"Kabupaten Nias Utara, Sumatera Utara";"Kabupaten Nias Utara, Sumatera Utara";"SUMATERA UTARA";"";"Indonesia";"";"";"";"1.4120939";"97.4597725";"https://maps.google.com/?cid=0x0:0x230853ed5a2114a9";""
"perumahan";"Komplek perumahan";"Ombolata sawo";"Jl. Arah Gunungsitoli-Lahewa No.42, Seriwau, Kec. Sawo, Kabupaten Nias Utara, Sumatera Utara 22852";"Seriwau, Kec. Sawo, Kabupaten Nias Utara";"SUMATERA UTARA";"22852";"Indonesia";"";"";"";"1.4980418";"97.4004862";"https://maps.google.com/?cid=0x0:0x8644b2b02fd5b7f0";""
"perumahan";"Komplek perumahan";"Rumah I.Gayusu Tel";"F9PX+J2W, Jalan idanö sawö, Onozitoli Sawo, Kec. Sawo, Kabupaten Nias Utara, Sumatera Utara 22852";"Jalan idanö sawö, Onozitoli Sawo, Kec. Sawo, Kabupaten Nias Utara";"SUMATERA UTARA";"22852";"Indonesia";"";"";"";"1.4866095";"97.3975845";"https://maps.google.com/?cid=0x0:0xee6b179e3dc58786";""
"perumahan";"Pembangunan Perumahan";"Hilimbowo sawo";"F9PX+J2W, Sawo, Kec. Sawo, Kabupaten Nias Utara, Sumatera Utara";"Kabupaten Nias Utara, Sumatera Utara";"SUMATERA UTARA";"";"Indonesia";"";"";"";"1.4866095";"97.3975845";"https://maps.google.com/?cid=0x0:0xb6ad828cc0e29c";""
"perumahan";"Komplek perumahan";"Komplek Wata";"G946+MHG, Sifahandro, Kec. Sawo, Kabupaten Nias Utara, Sumatera Utara";"Kabupaten Nias Utara, Sumatera Utara";"SUMATERA UTARA";"";"Indonesia";"";"";"";"1.5066987";"97.3614521";"https://maps.google.com/?cid=0x0:0xa2eb9dd192c34397";""
"perumahan";"Perhimpunan Pengembang Perumahan";"Rumah Tuty";"Sisarahili Tlk. Siabang, Kec. Sawo, Kabupaten Nias Utara, Sumatera Utara";"Kabupaten Nias Utara, Sumatera Utara";"SUMATERA UTARA";"";"Indonesia";"";"";"";"1.5147318";"97.3684023";"https://maps.google.com/?cid=0x0:0xaf1d7da73fae0142";""
"perumahan";"Kantor Pemerintahan Wilayah";"desa Lasara Sawo";"F9XX+5G5, Sawo, Kec. Sawo, Kabupaten Nias Utara, Sumatera Utara";"Kabupaten Nias Utara, Sumatera Utara";"SUMATERA UTARA";"";"Indonesia";"";"";"";"1.4978866";"97.3988658";"https://maps.google.com/?cid=0x0:0xfc004ebf8e82eea0";""
"perumahan";"Komplek perumahan";"Komplek Hareffa";"G9C2+FPF, Sifahandro, Kec. Sawo, Kabupaten Nias Utara, Sumatera Utara";"Kabupaten Nias Utara, Sumatera Utara";"SUMATERA UTARA";"";"Indonesia";"";"";"";"1.5211853";"97.3517857";"https://maps.google.com/?cid=0x0:0x3281ab9aaa3c5d49";""
"perumahan";"Komplek perumahan";"Komplek Harefa";"Jl. Turelaoya, Sifahandro, Kec. Sawo, Kabupaten Nias Utara, Sumatera Utara";"Kabupaten Nias Utara, Sumatera Utara";"SUMATERA UTARA";"";"Indonesia";"";"";"";"1.5129303";"97.3516566";"https://maps.google.com/?cid=0x0:0xf4b6277db182bd88";""
"perumahan";"Grosir Barang Kelontong";"Rumah A. Teguh Tel";"FCC4+FJ, Onozitoli Sawo, Kec. Sawo, Kabupaten Nias Utara, Sumatera Utara";"Kabupaten Nias Utara, Sumatera Utara";"SUMATERA UTARA";"";"Indonesia";"";"";"";"1.4709268";"97.4068287";"https://maps.google.com/?cid=0x0:0x8803aab0f4d9247e";""
"perumahan";"Komplek perumahan";"Rumah Bapak Ama Otariani";"FC36+X4F, Sanawuyu, Kec. Sawo, Kabupaten Nias Utara, Sumatera Utara 22852";"Sanawuyu, Kec. Sawo, Kabupaten Nias Utara";"SUMATERA UTARA";"22852";"Indonesia";" 085372508253";"";"";"1.4549057";"97.4103177";"https://maps.google.com/?cid=0x0:0x452203d0042405a1";""
"perumahan";"perumahan";"Rumah ina roma tel";"FCC3+V5H, Jalan indano sawo,dusun II,tuhenkhe, Onozitoli Sawo, Kec. Sawo";"Kabupaten Nias Utara, Sumatera Utara";"SUMATERA UTARA";"";"Indonesia";"";"";"";"1.4721976";"97.4029899";"https://maps.google.com/?cid=0x0:0x81e15692e9c3c17";""
"perumahan";"Pembangunan Perumahan";"Rumah. A/i. Wiliam";"FC36+CF5, Jl. Sawo Botombawo, Sanawuyu, Kec. Sawo, Kabupaten Nias Utara, Sumatera Utara 22852";"Jl. Sawo Botombawo, Sanawuyu, Kec. Sawo, Kabupaten Nias Utara";"SUMATERA UTARA";"22852";"Indonesia";"";"";"";"1.4531622";"97.4102215";"https://maps.google.com/?cid=0x0:0x1b0c8b89514d2a1";""
"perumahan";"Komplek perumahan";"Hime";"FC68+G7Q, Jl.Lölö'ana'a, Sanawuyu, Kec. Sawo, Kabupaten Nias Utara, Sumatera Utara 22852";"Jl.Lölö'ana'a, Sanawuyu, Kec. Sawo, Kabupaten Nias Utara";"SUMATERA UTARA";"22852";"Indonesia";"";"";"";"1.461332";"97.4157259";"https://maps.google.com/?cid=0x0:0xf49290b4617b3ff1";""
"perumahan";"Komplek perumahan";"Komplek sifadaya tano";"Jl. Turelaoya, Sifahandro, Kec. Sawo, Kabupaten Nias Utara, Sumatera Utara";"Kabupaten Nias Utara, Sumatera Utara";"SUMATERA UTARA";"";"Indonesia";"";"";"";"1.5184702";"97.351836";"https://maps.google.com/?cid=0x0:0x93ff4a114c6b60e0";""
"perumahan";"Komplek perumahan";"Komplek sifadaya hiligawo'o";"G992+9PP, JL Turelaoya, Sifahandro, Kec. Sawo, Kabupaten Nias Utara, Sumatera Utara";"Kabupaten Nias Utara, Sumatera Utara";"SUMATERA UTARA";"";"Indonesia";"";"";"";"1.5184642";"97.3518293";"https://maps.google.com/?cid=0x0:0xdc9479023a74df1";""
"perumahan";"Komplek perumahan";"Komplek Botohili";"Jl. Turelaoya, Sifahandro, Kec. Sawo, Kabupaten Nias Utara, Sumatera Utara";"Kabupaten Nias Utara, Sumatera Utara";"SUMATERA UTARA";"";"Indonesia";"";"";"";"1.5194482";"97.3517837";"https://maps.google.com/?cid=0x0:0x6bfea1fdfce7a46a";""
"perumahan";"Pembangunan Perumahan";"Kampung tetenaulu";"F9P4+3V2, Jl. Sawö, Sisarahili Tlk. Siabang, Kec. Sawo, Kabupaten Nias Utara, Sumatera Utara 22852";"Jl. Sawö, Sisarahili Tlk. Siabang, Kec. Sawo, Kabupaten Nias Utara";"SUMATERA UTARA";"22852";"Indonesia";"";"";"";"1.4851353";"97.3571256";"https://maps.google.com/?cid=0x0:0x70a48bef81215680";""
"perumahan";"Pembangunan Perumahan";"Lahagu";"F9VR+JGR, Sawo, Kec. Sawo, Kabupaten Nias Utara, Sumatera Utara";"Kabupaten Nias Utara, Sumatera Utara";"SUMATERA UTARA";"";"Indonesia";"";"";"";"1.4941238";"97.3912799";"https://maps.google.com/?cid=0x0:0x6c0dbe1c7edf8153";""
"perumahan";"Komplek perumahan";"Eko hardian";"FC46+P3, Sanawuyu, Kec. Sawo, Kabupaten Nias Utara, Sumatera Utara";"Kabupaten Nias Utara, Sumatera Utara";"SUMATERA UTARA";"";"Indonesia";"";"";"";"1.4566641";"97.410044";"https://maps.google.com/?cid=0x0:0x1fcf8e452ad7b4b1";""
"perumahan";"Komplek perumahan";"Rumah Sawo Kecik";"Jl. Sawo Kecik Raya No.5 11, RT.11/RW.7, Bukit Duri, Kec. Tebet, Kota Jakarta Selatan, Daerah Khusus Ibukota Jakarta 12850";"RT.11/RW.7, Bukit Duri, Kec. Tebet, Kota Jakarta Selatan";"SUMATERA UTARA";"12850";"Indonesia";"";"";"";"-6.2227085";"106.8552683";"https://maps.google.com/?cid=0x0:0x72ae8aec3ba78b9b";""
"perumahan";"Komplek perumahan";"Perumahan Sawo Indah 2";"Perumahan Jl. Sawo Indah 2, Pabuaran, Kecamatan Bojonggede, Kabupaten Bogor, Jawa Barat 16327";"Pabuaran, Kecamatan Bojonggede, Kabupaten Bogor";"SUMATERA UTARA";"16327";"Indonesia";"";"";"";"-6.4634251";"106.795761";"https://maps.google.com/?cid=0x0:0xfbcabf237a106e9d";""
"perumahan";"perumahan";"Kec. Sitolu Ori";"Kabupaten Nias Utara, Sumatera Utara";"Kabupaten Nias Utara, Sumatera Utara";"SUMATERA UTARA";"";"Indonesia";"";"";"";"1.3987456";"97.4439582";"https://maps.google.com/?cid=0x0:0xe9e1d2f552ca917e";""
"perumahan";"Komplek perumahan";"Rumah keluarga Martianus Zega";"Hilimbosi, Kec. Sitolu Ori, Kabupaten Nias Utara, Sumatera Utara 22852";"Kec. Sitolu Ori, Kabupaten Nias Utara";"SUMATERA UTARA";"22852";"Indonesia";"";"";"";"1.3972331";"97.4867577";"https://maps.google.com/?cid=0x0:0xaf190df4fd3c912e";""
"perumahan";"Perhimpunan Pengembang Perumahan";"Lawira";"9CRF+7R9, Botombawo, Kec. Sitolu Ori, Kabupaten Nias Utara, Sumatera Utara 22852";"Botombawo, Kec. Sitolu Ori, Kabupaten Nias Utara";"SUMATERA UTARA";"22852";"Indonesia";"";"";"";"1.3906573";"97.4246158";"https://maps.google.com/?cid=0x0:0x15a9d955afb747c6";""
"perumahan";"Komplek perumahan";"A.Gerhat";"9FH3+GFC, Tetehosi Maziaya, Kec. Sitolu Ori, Kabupaten Nias Utara, Sumatera Utara 22852";"Tetehosi Maziaya, Kec. Sitolu Ori, Kabupaten Nias Utara";"SUMATERA UTARA";"22852";"Indonesia";"";"";"";"1.378803";"97.4536426";"https://maps.google.com/?cid=0x0:0xb8560b0b035f9f25";""
"perumahan";"Komplek perumahan";"Sihareo";"CC38+WW5, Hilisaloo, Kec. Sitolu Ori, Kabupaten Nias Utara, Sumatera Utara 22852";"Hilisaloo, Kec. Sitolu Ori, Kabupaten Nias Utara";"SUMATERA UTARA";"22852";"Indonesia";"";"";"";"1.4047648";"97.4173583";"https://maps.google.com/?cid=0x0:0xf9b1f74830af942f";""
"perumahan";"Pembangunan Perumahan";"NOBEL ZEGA BALÖDANÖ";"9FQH+5QP, Umbubalodano, Kec. Sitolu Ori, Kabupaten Nias Utara, Sumatera Utara 22852";"Umbubalodano, Kec. Sitolu Ori, Kabupaten Nias Utara";"SUMATERA UTARA";"22852";"Indonesia";" 082252017028";"";"";"1.3879553";"97.4794448";"https://maps.google.com/?cid=0x0:0x3dfa2f6c0f3a4621";""
"perumahan";"Komplek perumahan";"Rumah, a/i Dian Hulu";"9CRF+7R9, Botombawo, Kec. Sitolu Ori, Kabupaten Nias Utara, Sumatera Utara 22852";"Botombawo, Kec. Sitolu Ori, Kabupaten Nias Utara";"SUMATERA UTARA";"22852";"Indonesia";"";"";"";"1.3906573";"97.4246158";"https://maps.google.com/?cid=0x0:0x1745bc4247ee8d6c";""
"perumahan";"Pembangunan Perumahan";"A/I DEWI BALODANO";"9FPH+VVW, Umbubalodano, Kec. Sitolu Ori, Kabupaten Nias Utara, Sumatera Utara 22852";"Umbubalodano, Kec. Sitolu Ori, Kabupaten Nias Utara";"SUMATERA UTARA";"22852";"Indonesia";" 085261735325";"";"";"1.3872384";"97.4797015";"https://maps.google.com/?cid=0x0:0xa3cc977a3adbcf1";""
"perumahan";"perumahan";"Rumah A/I Grace hulu";"CC6F+3VP, Hilisaloo, Kec. Sitolu Ori, Kabupaten Nias Utara, Sumatera Utara 22852";"Hilisaloo, Kec. Sitolu Ori, Kabupaten Nias Utara";"SUMATERA UTARA";"22852";"Indonesia";"";"";"";"1.4102167";"97.4247002";"https://maps.google.com/?cid=0x0:0x22d6fdbf5bb7a9d9";""
"perumahan";"Komplek perumahan";"A/I LASTRI ZEGS";"9CWR+CCV, Unnamed Road, Tetehosi Maziaya, Kec. Sitolu Ori, Kabupaten Nias Utara, Sumatera Utara 22852";"Unnamed Road, Tetehosi Maziaya, Kec. Sitolu Ori, Kabupaten Nias Utara";"SUMATERA UTARA";"22852";"Indonesia";"";"";"";"1.3961032";"97.4410443";"https://maps.google.com/?cid=0x0:0x8c92e84477a443c7";""
"perumahan";"Komplek perumahan";"Minirius Hulu";"9CRF+7R9, Botombawo, Kec. Sitolu Ori, Kabupaten Nias Utara, Sumatera Utara 22852";"Botombawo, Kec. Sitolu Ori, Kabupaten Nias Utara";"SUMATERA UTARA";"22852";"Indonesia";"";"";"";"1.3906573";"97.4246158";"https://maps.google.com/?cid=0x0:0xd44017e5204aefd8";""
"perumahan";"Komplek perumahan";"Hiligodu";"9CWJ+2X, Botombawo, Kec. Sitolu Ori, Kabupaten Nias Utara, Sumatera Utara 22852";"Botombawo, Kec. Sitolu Ori, Kabupaten Nias Utara";"SUMATERA UTARA";"22852";"Indonesia";"";"";"";"1.3951177";"97.4323765";"https://maps.google.com/?cid=0x0:0xc370bbbc5222a84a";""
"perumahan";"Pembangunan Perumahan";"Bogali nias utara";"CC8C+QQP, Hilisaloo, Kec. Sitolu Ori, Kabupaten Nias Utara, Sumatera Utara";"Kabupaten Nias Utara, Sumatera Utara";"SUMATERA UTARA";"";"Indonesia";"";"";"";"1.4169675";"97.4219399";"https://maps.google.com/?cid=0x0:0xa6e19dd91bfa3f40";""
"perumahan";"Komplek perumahan";"Awal";"CC4C+Q4H, Botombawo, Kec. Sitolu Ori, Kabupaten Nias Utara, Sumatera Utara 22852";"Botombawo, Kec. Sitolu Ori, Kabupaten Nias Utara";"SUMATERA UTARA";"22852";"Indonesia";"";"";"";"1.4069474";"97.4203664";"https://maps.google.com/?cid=0x0:0x37b8e52c32f98ae2";""
"perumahan";"Pembangunan Perumahan";"Chardlinrev";"9CXV+CW6, Hilisaloo, Kec. Sitolu Ori, Kabupaten Nias Utara, Sumatera Utara 22852";"Hilisaloo, Kec. Sitolu Ori, Kabupaten Nias Utara";"SUMATERA UTARA";"22852";"Indonesia";"";"";"";"1.3985444";"97.4447611";"https://maps.google.com/?cid=0x0:0x6f71d75df64d6a85";""
"perumahan";"Pembangunan Perumahan";"HPZ";"CC6V+MPP, Hilisaloo, Kec. Sitolu Ori, Kabupaten Nias Utara, Sumatera Utara 22852";"Hilisaloo, Kec. Sitolu Ori, Kabupaten Nias Utara";"SUMATERA UTARA";"22852";"Indonesia";"";"";"";"1.4117096";"97.4443176";"https://maps.google.com/?cid=0x0:0xd163e8d05c0b1073";""
"perumahan";"Perhimpunan Pengembang Perumahan";"Desa fulolosaloo";"CCP6+FCQ, Fulolo Saloo, Kec. Sitolu Ori, Kabupaten Nias Utara, Sumatera Utara 22852";"Fulolo Saloo, Kec. Sitolu Ori, Kabupaten Nias Utara";"SUMATERA UTARA";"22852";"Indonesia";"";"";"";"1.4362083";"97.4110988";"https://maps.google.com/?cid=0x0:0xbd51778e175e38aa";""
"perumahan";"Komplek perumahan";"Rumah A/I. Naomi Zega";"CC2R+GHC, Hilisaloo, Kec. Sitolu Ori, Kabupaten Nias Utara, Sumatera Utara 22852";"Hilisaloo, Kec. Sitolu Ori, Kabupaten Nias Utara";"SUMATERA UTARA";"22852";"Indonesia";"";"";"";"1.4013125";"97.4413906";"https://maps.google.com/?cid=0x0:0x409fbc9ec758bd24";""
"perumahan";"Komplek perumahan";"Rumah Keluarga A/I Ziagus Zega";"9FWR+32X, Hilimbosi, Kec. Sitolu Ori, Kabupaten Nias Utara, Sumatera Utara 22852";"Hilimbosi, Kec. Sitolu Ori, Kabupaten Nias Utara";"SUMATERA UTARA";"22852";"Indonesia";"";"";"";"1.3952647";"97.4900736";"https://maps.google.com/?cid=0x0:0x89287d48ff48cbf1";""
"perumahan";"Komplek perumahan";"Rumah Muzawa Zega";"CC8C+RQ3, Hilisaloo, Kec. Sitolu Ori, Kabupaten Nias Utara, Sumatera Utara 22852";"Hilisaloo, Kec. Sitolu Ori, Kabupaten Nias Utara";"SUMATERA UTARA";"22852";"Indonesia";"";"";"";"1.4170061";"97.4219122";"https://maps.google.com/?cid=0x0:0xf35ecb1cb245934b";""
"perumahan";"Komplek perumahan";"Rumah Emon Kurnia Zega";"CC4M+36G, Tarahoso, Botombawo, Kec. Sitolu Ori, Kabupaten Nias Utara, Sumatera Utara 22852";"Tarahoso, Botombawo, Kec. Sitolu Ori, Kabupaten Nias Utara";"SUMATERA UTARA";"22852";"Indonesia";"";"";"";"1.4051804";"97.4330875";"https://maps.google.com/?cid=0x0:0x9164f63b0b4d356f";""
"perumahan";"Balai masyarakat";"Tugala oyo";"4CJR+FQH, Gn. Tua, Kec. Tugala Oyo, Kabupaten Nias Utara, Sumatera Utara 22861";"Gn. Tua, Kec. Tugala Oyo, Kabupaten Nias Utara";"SUMATERA UTARA";"22861";"Indonesia";"";"";"";"1.131247";"97.4420401";"https://maps.google.com/?cid=0x0:0xc3a8ba4c01956285";""
"perumahan";"perumahan";"Kec. Tugala Oyo";"Kabupaten Nias Utara, Sumatera Utara";"Kabupaten Nias Utara, Sumatera Utara";"SUMATERA UTARA";"";"Indonesia";"";"";"";"1.1465578";"97.4559257";"https://maps.google.com/?cid=0x0:0x1602712094e01383";""
"perumahan";"Balai masyarakat";"Tugala oyo";"Teolo, Kec. Tugala Oyo, Kabupaten Nias Utara, Sumatera Utara";"Kabupaten Nias Utara, Sumatera Utara";"SUMATERA UTARA";"";"Indonesia";"";"";"";"1.1465578";"97.4559257";"https://maps.google.com/?cid=0x0:0xf3f8061b1061b0aa";""
"perumahan";"perumahan";"Kec. Tuhemberua";"Kabupaten Nias Utara, Sumatera Utara";"Kabupaten Nias Utara, Sumatera Utara";"SUMATERA UTARA";"";"Indonesia";"";"";"";"1.4702731";"97.4498504";"https://maps.google.com/?cid=0x0:0x9c5633cc92cfd2d7";""
"perumahan";"Komplek perumahan";"RUMAH A. DETI ZEGA.";"FC6X+RPQ, Banuagea, Kec. Tuhemberua, Kabupaten Nias Utara, Sumatera Utara 22852";"Banuagea, Kec. Tuhemberua, Kabupaten Nias Utara";"SUMATERA UTARA";"22852";"Indonesia";"";"";"";"1.4620951";"97.4493574";"https://maps.google.com/?cid=0x0:0xea3ad107e80b1af6";""
"perumahan";"Komplek perumahan";"MurdyMesra ZaiZeg";"CFHV+349, Botolakha, Kec. Tuhemberua, Kabupaten Nias Utara, Sumatera Utara 22852";"Botolakha, Kec. Tuhemberua, Kabupaten Nias Utara";"SUMATERA UTARA";"22852";"Indonesia";"";"";"";"1.4276742";"97.4928484";"https://maps.google.com/?cid=0x0:0xef70e16380d93b90";""
"perumahan";"Komplek perumahan";"S z";"FFC7+49P, Jl. Tuhemberua, Banuagea, Kec. Tuhemberua, Kabupaten Nias Utara, Sumatera Utara";"Kabupaten Nias Utara, Sumatera Utara";"SUMATERA UTARA";"";"Indonesia";"";"";"";"1.4703474";"97.4634669";"https://maps.google.com/?cid=0x0:0x9ba5022e66789bcb";""
"perumahan";"Komplek perumahan";"My Home Syukur";"CFX3+68R, Banuagea, Kec. Tuhemberua, Kabupaten Nias Utara, Sumatera Utara 22852";"Banuagea, Kec. Tuhemberua, Kabupaten Nias Utara";"SUMATERA UTARA";"22852";"Indonesia";"";"";"";"1.4482523";"97.4531949";"https://maps.google.com/?cid=0x0:0xdd5f07f4a71ebed6";""
"perumahan";"Rumah Kayu";"Rumah Mamah Syukur Telaumbanua";"Jl. Sawo, Silima Banua, Kec. Tuhemberua, Kabupaten Nias Utara, Sumatera Utara";"Kabupaten Nias Utara, Sumatera Utara";"SUMATERA UTARA";"";"Indonesia";" 081265816638";"";"";"1.4685086";"97.4421999";"https://maps.google.com/?cid=0x0:0x41f7e8dad90b1a8c";""
"perumahan";"Komplek perumahan";"Rumah A/I Wendy Zega";"FFGF+J2J, Jl. Tuhemberua, Ladara, Kec. Tuhemberua, Kabupaten Nias Utara, Sumatera Utara";"Kabupaten Nias Utara, Sumatera Utara";"SUMATERA UTARA";"";"Indonesia";"";"";"";"1.4765813";"97.4725012";"https://maps.google.com/?cid=0x0:0x1b6be07edd5d7deb";""
"perumahan";"Komplek perumahan";"Alvaro";"FF3V+7Q2, Hilimbowo Siofabanua, Alooa, Kec. Tuhemberua, Kabupaten Nias Utara, Sumatera Utara 22852";"Hilimbowo Siofabanua, Alooa, Kec. Tuhemberua, Kabupaten Nias Utara";"SUMATERA UTARA";"22852";"Indonesia";"";"";"";"1.453134";"97.4943859";"https://maps.google.com/?cid=0x0:0xb6b0c63c069e2cd4";""
"perumahan";"Komplek perumahan";"Rahmat B. Zega";"FF3V+97X, Hilimbowo Siofabanua, Alooa, Kec. Tuhemberua, Kabupaten Nias Utara, Sumatera Utara 22852";"Hilimbowo Siofabanua, Alooa, Kec. Tuhemberua, Kabupaten Nias Utara";"SUMATERA UTARA";"22852";"Indonesia";"";"";"";"1.4535215";"97.4933155";"https://maps.google.com/?cid=0x0:0xf9c73cd86177d8ff";""
"perumahan";"Komplek perumahan";"Rumah A. Wiman";"Silima Banua, Kec. Tuhemberua, Kabupaten Nias Utara, Sumatera Utara 22852";"Kec. Tuhemberua, Kabupaten Nias Utara";"SUMATERA UTARA";"22852";"Indonesia";" 082276906821";"";"";"1.4677151";"97.4442931";"https://maps.google.com/?cid=0x0:0xdccd2231ffb55251";""
"perumahan";"Pembangunan Perumahan";"Tempat tinggal";"FCCX+4W5, Banuagea, Kec. Tuhemberua, Kabupaten Nias Utara, Sumatera Utara";"Kabupaten Nias Utara, Sumatera Utara";"SUMATERA UTARA";"";"Indonesia";"";"";"";"1.4702731";"97.4498504";"https://maps.google.com/?cid=0x0:0x7bbf4744508bdf6a";""
"perumahan";"Komplek perumahan";"Deni Telaumbanua";"FFC8+FV9, Ladara, Kec. Tuhemberua, Kabupaten Nias Utara, Sumatera Utara 22852";"Ladara, Kec. Tuhemberua, Kabupaten Nias Utara";"SUMATERA UTARA";"22852";"Indonesia";"";"";"";"1.4711527";"97.467231";"https://maps.google.com/?cid=0x0:0x3c3e75f50422c357";""
"perumahan";"Komplek perumahan";"Rumah Tulus zai";"FFC8+423, Ladara, Kec. Tuhemberua, Kabupaten Nias Utara, Sumatera Utara";"Kabupaten Nias Utara, Sumatera Utara";"SUMATERA UTARA";"";"Indonesia";"";"";"";"1.4703231";"97.46499";"https://maps.google.com/?cid=0x0:0x28f12c50a6297283";""
"perumahan";"Tujuan Wisata";"Tempat tinggal";"FC7M+X39, Silima Banua, Kec. Tuhemberua, Kabupaten Nias Utara, Sumatera Utara";"Kabupaten Nias Utara, Sumatera Utara";"SUMATERA UTARA";"";"Indonesia";"";"";"";"1.4649036";"97.4327273";"https://maps.google.com/?cid=0x0:0xc1c99bd03561a9f3";""
"perumahan";"Pembangunan Perumahan";"A. Sio";"Jl. Tuhemberua No.175, Silima Banua, Kec. Tuhemberua, Kabupaten Nias Utara, Sumatera Utara 22852";"Silima Banua, Kec. Tuhemberua, Kabupaten Nias Utara";"SUMATERA UTARA";"22852";"Indonesia";"";"";"";"1.470062";"97.4420756";"https://maps.google.com/?cid=0x0:0xe2a1941dea35bce4";""
"perumahan";"Pembangunan Perumahan";"Rumah A. Mabel Zai";"CFGR+6G7, Jalan Sogawu, Botolakha, Kec. Tuhemberua, Kabupaten Nias Utara, Sumatera Utara 22852";"Jalan Sogawu, Botolakha, Kec. Tuhemberua, Kabupaten Nias Utara";"SUMATERA UTARA";"22852";"Indonesia";"";"";"";"1.4255499";"97.4913109";"https://maps.google.com/?cid=0x0:0x347ab6e07ce24ffb";""
"perumahan";"Komplek perumahan";"lolozai";"CFFR+JQ8, Botolakha, Kec. Tuhemberua, Kabupaten Nias Utara, Sumatera Utara";"Kabupaten Nias Utara, Sumatera Utara";"SUMATERA UTARA";"";"Indonesia";"";"";"";"1.4240453";"97.4919687";"https://maps.google.com/?cid=0x0:0x4d3a39434ce515eb";""
"perumahan";"Pembangunan Perumahan";"A.sean zai";"FF3V+X6P, Hilimbowo Siofabanua, Alooa, Kec. Tuhemberua, Kabupaten Nias Utara, Sumatera Utara 22852";"Hilimbowo Siofabanua, Alooa, Kec. Tuhemberua, Kabupaten Nias Utara";"SUMATERA UTARA";"22852";"Indonesia";"";"";"";"1.4559111";"97.4929122";"https://maps.google.com/?cid=0x0:0xa6ac8e7247b52c4d";""
"perumahan";"Vila";"Botogawu tetehesi";"FCCX+4W5, Banuagea, Kec. Tuhemberua, Kabupaten Nias Utara, Sumatera Utara";"Kabupaten Nias Utara, Sumatera Utara";"SUMATERA UTARA";"";"Indonesia";"";"";"";"1.4702731";"97.4498504";"https://maps.google.com/?cid=0x0:0x1adb8baa9fe3bb94";""
"perumahan";"perumahan";"Rumah A.perdi";"CFMV+CWQ, Botolakha, Kec. Tuhemberua, Kabupaten Nias Utara, Sumatera Utara";"Kabupaten Nias Utara, Sumatera Utara";"SUMATERA UTARA";"";"Indonesia";"";"";"";"1.4336178";"97.4948569";"https://maps.google.com/?cid=0x0:0x11f13c05aed1824c";""
"perumahan";"Toko";"A. Elora Zai";"CFFR+4GW, Botolakha, Kec. Tuhemberua, Kabupaten Nias Utara, Sumatera Utara";"Kabupaten Nias Utara, Sumatera Utara";"SUMATERA UTARA";"";"Indonesia";"";"";"";"1.4228695";"97.4913408";"https://maps.google.com/?cid=0x0:0x6f67d30ae0081116";""
"perumahan";"Universitas";"RUMAH ARIF BRIMAN GEA (AMA IAN GEA)";"FF96+XM9, Jl. Tuhemberua, Banuagea, Kec. Tuhemberua, Kabupaten Nias Utara, Sumatera Utara 22852";"Jl. Tuhemberua, Banuagea, Kec. Tuhemberua, Kabupaten Nias Utara";"SUMATERA UTARA";"22852";"Indonesia";" 081241870307";"";"";"1.4699142";"97.4617378";"https://maps.google.com/?cid=0x0:0x49b7bd3d34419630";""
"perumahan";"Rumah Kayu";"God Bless House -Supry Zega-";"FF9Q+4MP, Alooa, Kec. Tuhemberua, Kabupaten Nias Utara, Sumatera Utara 22852";"Alooa, Kec. Tuhemberua, Kabupaten Nias Utara";"SUMATERA UTARA";"22852";"Indonesia";" 081356212625";"";"";"1.4678302";"97.4891993";"https://maps.google.com/?cid=0x0:0x5b39b6351a29ab68";""
"perumahan";"Komplek perumahan";"Arian Zai";"CFQW+GCQ, Botolakha, Kec. Tuhemberua, Kabupaten Nias Utara, Sumatera Utara";"Kabupaten Nias Utara, Sumatera Utara";"SUMATERA UTARA";"";"Indonesia";"";"";"";"1.4388271";"97.4961081";"https://maps.google.com/?cid=0x0:0x7c0afd8bc61a615";""
"perumahan";"Komplek perumahan";"Rumah keluarga Martianus Zega";"Hilimbosi, Kec. Sitolu Ori, Kabupaten Nias Utara, Sumatera Utara 22852";"Kec. Sitolu Ori, Kabupaten Nias Utara";"SUMATERA UTARA";"22852";"Indonesia";"";"";"";"1.3972331";"97.4867577";"https://maps.google.com/?cid=0x0:0xaf190df4fd3c912e";""
"perumahan";"Rumah Makan";"Rumah Makan BANIS";"FCCR+4H6, Jl. Sawo, Silima Banua, Kec. Tuhemberua, Kabupaten Nias Utara, Sumatera Utara 22852";"Jl. Sawo, Silima Banua, Kec. Tuhemberua, Kabupaten Nias Utara";"SUMATERA UTARA";"22852";"Indonesia";"";"";"";"1.470298";"97.4413895";"https://maps.google.com/?cid=0x0:0x525049cdf18c2925";""
"perumahan";"Komplek perumahan";"Delau";"Jl. Arah Gunungsitoli-Lahewa No.294, Silima Banua, Kec. Tuhemberua, Kabupaten Nias Utara, Sumatera Utara 22852";"Silima Banua, Kec. Tuhemberua, Kabupaten Nias Utara";"SUMATERA UTARA";"22852";"Indonesia";"";"";"";"1.4726832";"97.4394071";"https://maps.google.com/?cid=0x0:0xdf5917fd60c44323";""
"perumahan";"Komplek perumahan";"Rumah Bapak Ama Otariani";"FC36+X4F, Sanawuyu, Kec. Sawo, Kabupaten Nias Utara, Sumatera Utara 22852";"Sanawuyu, Kec. Sawo, Kabupaten Nias Utara";"SUMATERA UTARA";"22852";"Indonesia";" 085372508253";"";"";"1.4549057";"97.4103177";"https://maps.google.com/?cid=0x0:0x452203d0042405a1";""
"perumahan";"Komplek perumahan";"Melvin G";"FC8X+XVH, Banuagea, Kec. Tuhemberua, Kabupaten Nias Utara, Sumatera Utara 22852";"Banuagea, Kec. Tuhemberua, Kabupaten Nias Utara";"SUMATERA UTARA";"22852";"Indonesia";"";"";"";"1.4674333";"97.4497326";"https://maps.google.com/?cid=0x0:0xae270245cf8ea0a7";""
