Category,Real Category,Business Name,Address,City,State,Postal Code,Country,Phone,Email,Website,Latitude,Longitude,Map Link,Details Link
hotel,hotel,Bali 80611,"Kabupaten Bangli, Bali","Kabupaten Bangli, Bali",BALI,,Indonesia,,,,-8.4047261,115.3696844,https://maps.google.com/?cid=0x0:0x1c00c5eb6016bf10,
hotel,hotel,Tapa Agung View,"Jl. Raya Besakih, Menanga, Kec. Rendang, Kabupaten Karangasem, Bali 80863","Menanga, Kec. Rendang, Kabupaten Karangasem",BALI,80863.0,Indonesia,3665502455.0,,,-8.4099575,115.4249071,https://maps.google.com/?cid=0x0:0xf04069cfc11d4524,
hotel,hotel,,,,BALI,,Indonesia,,,,,,https://maps.google.com/?cid=0x0:0xf04069cfc11d4524%7C/g/11vcx4bczv%7Cid-ID,
hotel,hotel,Bambootel Sawah View,"Banjar Maniktawang, Manukaya, Kec. Tampaksiring, Kabupaten Gianyar, Bali 80552","Manukaya, Kec. Tampaksiring, Kabupaten Gianyar",BALI,80552.0,Indonesia,85974171995.0,,,-8.4247853,115.321693,https://maps.google.com/?cid=0x0:0x2e2f06740c382279,
hotel,hotel,The Scape Valley by Pramana Villas,"J8JR+69F, Jl. Raya Kintamani, Penglumbaran, Kec. Susut, Kabupaten Bangli, Bali 80661","Jl. Raya Kintamani, Penglumbaran, Kec. Susut, Kabupaten Bangli",BALI,80661.0,Indonesia,,,,-8.3689927,115.3409812,https://maps.google.com/?cid=0x0:0x227f7f4b8e8dbc78,
hotel,hotel,Green Pacing Lodge,"Yangapi, Kec. Tembuku, Kabupaten Bangli, Bali","Kabupaten Bangli, Bali",BALI,,Indonesia,85904285889.0,,,-8.447284,115.3902121,https://maps.google.com/?cid=0x0:0x819120e94b42ce62,
hotel,hotel,,,,BALI,,Indonesia,,,,,,https://maps.google.com/?cid=0x0:0xb2ab0adf0af6d817%7C/g/1tcynbf_%7Cid-ID,
hotel,hotel,Puri Saron Hotel Madangan,"Ds Madangan Kaja, Desa Petak, Petak Kaja, Kec. Gianyar, Kabupaten Gianyar, Bali 80515","Desa Petak, Petak Kaja, Kec. Gianyar, Kabupaten Gianyar",BALI,80515.0,Indonesia,361954257.0,,,-8.4649117,115.3258662,https://maps.google.com/?cid=0x0:0xb2ab0adf0af6d817,
hotel,hotel,Pondok Manca,"G9XV+FVR, Undisan, Kec. Tembuku, Kabupaten Bangli, Bali","Kabupaten Bangli, Bali",BALI,,Indonesia,,,,-8.4512566,115.3946309,https://maps.google.com/?cid=0x0:0x95911f72a63c0356,
hotel,hotel,Aksha Riverside Ubud,"Jl. Pertiwi Brata, Tampaksiring, Kec. Tampaksiring, Kabupaten Gianyar, Bali 80552","Tampaksiring, Kec. Tampaksiring, Kabupaten Gianyar",BALI,80552.0,Indonesia,81337155266.0,,,-8.4327476,115.3177814,https://maps.google.com/?cid=0x0:0x3200e7e5f426e00c,
hotel,hotel,Alvia Joglo House  Private Pool,"Pulagan, Kec. Tampaksiring, Kabupaten Gianyar, Bali 80552","Kec. Tampaksiring, Kabupaten Gianyar",BALI,80552.0,Indonesia,81916461808.0,,,-8.4330564,115.3103261,https://maps.google.com/?cid=0x0:0xd86e54680e7fd98a,
hotel,hotel,De Umah Bali Eco Tradi Home,"H95W+RVF, Br. undisan kaja, Jl. Raya Undisan, Undisan, Kec. Tembuku, Kabupaten Bangli, Bali 80671","Br. undisan kaja, Jl. Raya Undisan, Undisan, Kec. Tembuku, Kabupaten Bangli",BALI,80671.0,Indonesia,8123811161.0,,,-8.4402214,115.3967467,https://maps.google.com/?cid=0x0:0xfe41ade1b1e8caf1,
hotel,hotel,Umah saren homestay,"H92V+Q86 Jalan Legong Keraton, gang buntu banjar bukit sari, Undisan, Kec. Tembuku, Kabupaten Bangli, Bali 80671","gang buntu banjar bukit sari, Undisan, Kec. Tembuku, Kabupaten Bangli",BALI,80671.0,Indonesia,82340834635.0,,,-8.4481164,115.3932715,https://maps.google.com/?cid=0x0:0xd943c46d7d381420,
hotel,hotel,Maru Fortuna Villa,"Jalan Raya Tampaksiring, Tegalsaat, Jl. Raya Ayodya, Pejeng Kangin, Kabupaten Gianyar, Bali 80552","Tegalsaat, Jl. Raya Ayodya, Pejeng Kangin, Kabupaten Gianyar",BALI,80552.0,Indonesia,81338272777.0,,,-8.4576243,115.3090108,https://maps.google.com/?cid=0x0:0x51a8c7d72c9ddbf2,
hotel,hotel,Mahagiri Panoramic Resort  Restaurant,"Jl. Surya Indah, Desa Rendang, Kec. Rendang, Rendang, Karangasem, Kabupaten Karangasem, Bali 80863","Desa Rendang, Kec. Rendang, Rendang, Karangasem, Kabupaten Karangasem",BALI,80863.0,Indonesia,8113805009.0,,,-8.4232089,115.4282001,https://maps.google.com/?cid=0x0:0x6b4e4379e63423dd,
hotel,hotel,Kintamani Hotel,"Jalan Puri Bening, Toya Bungkah, Kintamani, Batur Tengah, Kec. Kintamani, Kabupaten Bangli, Bali","Kabupaten Bangli, Bali",BALI,,Indonesia,36652222.0,,,-8.2504001,115.400164,https://maps.google.com/?cid=0x0:0x8f16d1b7673f88ab,
hotel,hotel,,,,BALI,,Indonesia,,,,,,https://maps.google.com/?cid=0x0:0x8f16d1b7673f88ab%7C/g/1td5by0t%7Cid-ID,
hotel,hotel,Eco Six Bali,"Eco Six Bali, Jl. Raya Ayodya, Tampaksiring, Kec. Tampaksiring, Kabupaten Gianyar, Bali 80552","Jl. Raya Ayodya, Tampaksiring, Kec. Tampaksiring, Kabupaten Gianyar",BALI,80552.0,Indonesia,81239494923.0,,,-8.4384899,115.3108812,https://maps.google.com/?cid=0x0:0x92a2706ab50e5694,
hotel,hotel,Puri karang Undisan,"H93W+8HM, Undisan, Kec. Tembuku, Kabupaten Bangli, Bali 80671","Undisan, Kec. Tembuku, Kabupaten Bangli",BALI,80671.0,Indonesia,81239690091.0,,,-8.4466509,115.3964233,https://maps.google.com/?cid=0x0:0x67546e59236f10f4,
hotel,hotel,D’Sari Undisan Houses,"JL.Arjuna,Br.Loka Sari, Kelod Jl. Arjuna, Undisan, Tembuku, Bangli Regency, Bali 80671","Kelod Jl. Arjuna, Undisan, Tembuku, Bangli Regency",BALI,80671.0,Indonesia,82236575855.0,,,-8.445299,115.3967527,https://maps.google.com/?cid=0x0:0xa557699a15c716ea,
hotel,hotel,Kawi Resort a Spiritual Sanctuary to Escape,"Br. Bukit, Tampaksiring, Jalan Doktor Ir. Soekarno, Sanding, Kec. Tampaksiring, Kabupaten Gianyar, Bali 80552","Tampaksiring, Jalan Doktor Ir. Soekarno, Sanding, Kec. Tampaksiring, Kabupaten Gianyar",BALI,80552.0,Indonesia,3614793008.0,,,-8.4476705,115.3097781,https://maps.google.com/?cid=0x0:0x35a4f5cb614056eb,
hotel,hotel,,,,BALI,,Indonesia,,,,,,https://maps.google.com/?cid=0x0:0x35a4f5cb614056eb%7C/g/11cmqg4jp5%7Cid-ID,
hotel,hotel,Rindu Homestay,"Jl. Calonarang kelod No.4, Undisan, Kec. Tembuku, Kabupaten Bangli, Bali 80671","Undisan, Kec. Tembuku, Kabupaten Bangli",BALI,80671.0,Indonesia,81999165644.0,,,-8.4485223,115.3966784,https://maps.google.com/?cid=0x0:0x2689141c248957df,
hotel,hotel,Pecampuhan retreat villa,"Abuan, Kec. Susut, Kabupaten Bangli, Bali","Kabupaten Bangli, Bali",BALI,,Indonesia,,,,-8.4593856,115.330164,https://maps.google.com/?cid=0x0:0x5470febc9d4b1e7d,
hotel,hotel,Devanora Hotel  Resto,"P9C4+8H3, Jl. Raya Penelokan, Batur Tengah, Kec. Kintamani, Kabupaten Bangli, Bali 80652","Jl. Raya Penelokan, Batur Tengah, Kec. Kintamani, Kabupaten Bangli",BALI,80652.0,Indonesia,81943283429.0,,,-8.2788804,115.3564101,https://maps.google.com/?cid=0x0:0x5e307c05d4c8f27f,
hotel,hotel,Triangular house and hot spring,"rumah jero ris, Jl. Pendakian Gn. Batur, Batur Tengah, Kec. Kintamani, Kabupaten Bangli, Bali 80111","Jl. Pendakian Gn. Batur, Batur Tengah, Kec. Kintamani, Kabupaten Bangli",BALI,80111.0,Indonesia,87764393488.0,,,-8.2527796,115.3968618,https://maps.google.com/?cid=0x0:0x20391cc9cdc5cec1,
hotel,hotel,Segara Hotel  Restaurant,"Kedisan, Kec. Kintamani, Kabupaten Bangli, Bali 80652","Kec. Kintamani, Kabupaten Bangli",BALI,80652.0,Indonesia,895417300072.0,,,-8.2780915,115.3788163,https://maps.google.com/?cid=0x0:0xed597bac454f6967,
hotel,hotel,,,,BALI,,Indonesia,,,,,,https://maps.google.com/?cid=0x0:0xed597bac454f6967%7C/g/12q4x38jy%7Cid-ID,
hotel,hotel,Tangkas house,"Banjar Maniktawang, Desa, Manukaya, Kec. Tampaksiring, Kabupaten Gianyar, Bali 80661","Desa, Manukaya, Kec. Tampaksiring, Kabupaten Gianyar",BALI,80661.0,Indonesia,81805348759.0,,,-8.4238194,115.321715,https://maps.google.com/?cid=0x0:0x76a7fc132c2db8c0,
hotel,hotel,Bali 80612,"Kabupaten Bangli, Bali","Kabupaten Bangli, Bali",BALI,,Indonesia,,,,-8.4198291,115.3696844,https://maps.google.com/?cid=0x0:0x1c00c5eb6016bf20,
hotel,hotel,Tapa Agung View,"Jl. Raya Besakih, Menanga, Kec. Rendang, Kabupaten Karangasem, Bali 80863","Menanga, Kec. Rendang, Kabupaten Karangasem",BALI,80863.0,Indonesia,3665502455.0,,,-8.4099575,115.4249071,https://maps.google.com/?cid=0x0:0xf04069cfc11d4524,
hotel,hotel,,,,BALI,,Indonesia,,,,,,https://maps.google.com/?cid=0x0:0xf04069cfc11d4524%7C/g/11vcx4bczv%7Cid-ID,
hotel,hotel,D'Karang Eco Lodge,"Jl. Raya Besakih, Undisan, Kec. Tembuku, Kabupaten Bangli, Bali 80671","Undisan, Kec. Tembuku, Kabupaten Bangli",BALI,80671.0,Indonesia,81337559615.0,,,-8.4470113,115.3978932,https://maps.google.com/?cid=0x0:0xda500e1a0484a1d8,
hotel,hotel,Puri Saron Hotel Madangan,"Ds Madangan Kaja, Desa Petak, Petak Kaja, Kec. Gianyar, Kabupaten Gianyar, Bali 80515","Desa Petak, Petak Kaja, Kec. Gianyar, Kabupaten Gianyar",BALI,80515.0,Indonesia,361954257.0,,,-8.4649117,115.3258662,https://maps.google.com/?cid=0x0:0xb2ab0adf0af6d817,
hotel,hotel,,,,BALI,,Indonesia,,,,,,https://maps.google.com/?cid=0x0:0xb2ab0adf0af6d817%7C/g/1tcynbf_%7Cid-ID,
hotel,hotel,Green Pacing Lodge,"Yangapi, Kec. Tembuku, Kabupaten Bangli, Bali","Kabupaten Bangli, Bali",BALI,,Indonesia,85904285889.0,,,-8.447284,115.3902121,https://maps.google.com/?cid=0x0:0x819120e94b42ce62,
hotel,hotel,De Umah Bali Eco Tradi Home,"H95W+RVF, Br. undisan kaja, Jl. Raya Undisan, Undisan, Kec. Tembuku, Kabupaten Bangli, Bali 80671","Br. undisan kaja, Jl. Raya Undisan, Undisan, Kec. Tembuku, Kabupaten Bangli",BALI,80671.0,Indonesia,8123811161.0,,,-8.4402214,115.3967467,https://maps.google.com/?cid=0x0:0xfe41ade1b1e8caf1,
hotel,hotel,Alvia Joglo House  Private Pool,"Pulagan, Kec. Tampaksiring, Kabupaten Gianyar, Bali 80552","Kec. Tampaksiring, Kabupaten Gianyar",BALI,80552.0,Indonesia,81916461808.0,,,-8.4330564,115.3103261,https://maps.google.com/?cid=0x0:0xd86e54680e7fd98a,
hotel,hotel,Pondok Manca,"G9XV+FVR, Undisan, Kec. Tembuku, Kabupaten Bangli, Bali","Kabupaten Bangli, Bali",BALI,,Indonesia,,,,-8.4512566,115.3946309,https://maps.google.com/?cid=0x0:0x95911f72a63c0356,
hotel,hotel,Umah saren homestay,"H92V+Q86 Jalan Legong Keraton, gang buntu banjar bukit sari, Undisan, Kec. Tembuku, Kabupaten Bangli, Bali 80671","gang buntu banjar bukit sari, Undisan, Kec. Tembuku, Kabupaten Bangli",BALI,80671.0,Indonesia,82340834635.0,,,-8.4481164,115.3932715,https://maps.google.com/?cid=0x0:0xd943c46d7d381420,
hotel,hotel,Mahagiri Panoramic Resort  Restaurant,"Jl. Surya Indah, Desa Rendang, Kec. Rendang, Rendang, Karangasem, Kabupaten Karangasem, Bali 80863","Desa Rendang, Kec. Rendang, Rendang, Karangasem, Kabupaten Karangasem",BALI,80863.0,Indonesia,8113805009.0,,,-8.4232089,115.4282001,https://maps.google.com/?cid=0x0:0x6b4e4379e63423dd,
hotel,hotel,Aksha Riverside Ubud,"Jl. Pertiwi Brata, Tampaksiring, Kec. Tampaksiring, Kabupaten Gianyar, Bali 80552","Tampaksiring, Kec. Tampaksiring, Kabupaten Gianyar",BALI,80552.0,Indonesia,81337155266.0,,,-8.4327476,115.3177814,https://maps.google.com/?cid=0x0:0x3200e7e5f426e00c,
hotel,hotel,Maru Fortuna Villa,"Jalan Raya Tampaksiring, Tegalsaat, Jl. Raya Ayodya, Pejeng Kangin, Kabupaten Gianyar, Bali 80552","Tegalsaat, Jl. Raya Ayodya, Pejeng Kangin, Kabupaten Gianyar",BALI,80552.0,Indonesia,81338272777.0,,,-8.4576243,115.3090108,https://maps.google.com/?cid=0x0:0x51a8c7d72c9ddbf2,
hotel,hotel,Eco Six Bali,"Eco Six Bali, Jl. Raya Ayodya, Tampaksiring, Kec. Tampaksiring, Kabupaten Gianyar, Bali 80552","Jl. Raya Ayodya, Tampaksiring, Kec. Tampaksiring, Kabupaten Gianyar",BALI,80552.0,Indonesia,81239494923.0,,,-8.4384899,115.3108812,https://maps.google.com/?cid=0x0:0x92a2706ab50e5694,
hotel,hotel,D’Sari Undisan Houses,"JL.Arjuna,Br.Loka Sari, Kelod Jl. Arjuna, Undisan, Tembuku, Bangli Regency, Bali 80671","Kelod Jl. Arjuna, Undisan, Tembuku, Bangli Regency",BALI,80671.0,Indonesia,82236575855.0,,,-8.445299,115.3967527,https://maps.google.com/?cid=0x0:0xa557699a15c716ea,
hotel,hotel,The Scape Valley by Pramana Villas,"J8JR+69F, Jl. Raya Kintamani, Penglumbaran, Kec. Susut, Kabupaten Bangli, Bali 80661","Jl. Raya Kintamani, Penglumbaran, Kec. Susut, Kabupaten Bangli",BALI,80661.0,Indonesia,,,,-8.3689927,115.3409812,https://maps.google.com/?cid=0x0:0x227f7f4b8e8dbc78,
hotel,hotel,Puri karang Undisan,"H93W+8HM, Undisan, Kec. Tembuku, Kabupaten Bangli, Bali 80671","Undisan, Kec. Tembuku, Kabupaten Bangli",BALI,80671.0,Indonesia,81239690091.0,,,-8.4466509,115.3964233,https://maps.google.com/?cid=0x0:0x67546e59236f10f4,
hotel,hotel,Kintamani Hotel,"Jalan Puri Bening, Toya Bungkah, Kintamani, Batur Tengah, Kec. Kintamani, Kabupaten Bangli, Bali","Kabupaten Bangli, Bali",BALI,,Indonesia,36652222.0,,,-8.2504001,115.400164,https://maps.google.com/?cid=0x0:0x8f16d1b7673f88ab,
hotel,hotel,,,,BALI,,Indonesia,,,,,,https://maps.google.com/?cid=0x0:0x8f16d1b7673f88ab%7C/g/1td5by0t%7Cid-ID,
hotel,hotel,Rindu Homestay,"Jl. Calonarang kelod No.4, Undisan, Kec. Tembuku, Kabupaten Bangli, Bali 80671","Undisan, Kec. Tembuku, Kabupaten Bangli",BALI,80671.0,Indonesia,81999165644.0,,,-8.4485223,115.3966784,https://maps.google.com/?cid=0x0:0x2689141c248957df,
hotel,hotel,Pecampuhan retreat villa,"Abuan, Kec. Susut, Kabupaten Bangli, Bali","Kabupaten Bangli, Bali",BALI,,Indonesia,,,,-8.4593856,115.330164,https://maps.google.com/?cid=0x0:0x5470febc9d4b1e7d,
hotel,hotel,Kawi Resort a Spiritual Sanctuary to Escape,"Br. Bukit, Tampaksiring, Jalan Doktor Ir. Soekarno, Sanding, Kec. Tampaksiring, Kabupaten Gianyar, Bali 80552","Tampaksiring, Jalan Doktor Ir. Soekarno, Sanding, Kec. Tampaksiring, Kabupaten Gianyar",BALI,80552.0,Indonesia,3614793008.0,,,-8.4476705,115.3097781,https://maps.google.com/?cid=0x0:0x35a4f5cb614056eb,
hotel,hotel,,,,BALI,,Indonesia,,,,,,https://maps.google.com/?cid=0x0:0x35a4f5cb614056eb%7C/g/11cmqg4jp5%7Cid-ID,
hotel,hotel,The BENAWAH Villa,"G8H7+VW9, Petak, Kec. Gianyar, Kabupaten Gianyar, Bali 80515","Petak, Kec. Gianyar, Kabupaten Gianyar",BALI,80515.0,Indonesia,3614493636.0,,,-8.46931,115.314964,https://maps.google.com/?cid=0x0:0xb50bdd70a6860390,
hotel,hotel,Devanora Hotel  Resto,"P9C4+8H3, Jl. Raya Penelokan, Batur Tengah, Kec. Kintamani, Kabupaten Bangli, Bali 80652","Jl. Raya Penelokan, Batur Tengah, Kec. Kintamani, Kabupaten Bangli",BALI,80652.0,Indonesia,81943283429.0,,,-8.2788804,115.3564101,https://maps.google.com/?cid=0x0:0x5e307c05d4c8f27f,
hotel,hotel,Tangkas house,"Banjar Maniktawang, Desa, Manukaya, Kec. Tampaksiring, Kabupaten Gianyar, Bali 80661","Desa, Manukaya, Kec. Tampaksiring, Kabupaten Gianyar",BALI,80661.0,Indonesia,81805348759.0,,,-8.4238194,115.321715,https://maps.google.com/?cid=0x0:0x76a7fc132c2db8c0,
hotel,hotel,Suci Amerta Guest House,"HCQF+854, Jl. Surya Indah, Menanga, Kec. Rendang, Kabupaten Karangasem, Bali 80863","Jl. Surya Indah, Menanga, Kec. Rendang, Kabupaten Karangasem",BALI,80863.0,Indonesia,,,,-8.4117479,115.4229524,https://maps.google.com/?cid=0x0:0xcb188a0e0121a804,
hotel,hotel,Yoga Lokanata Ashram  Arnata Guesthouse,"Jl. Giri Kusuma, Demulih, Kec. Susut, Kabupaten Bangli, Bali 80661","Demulih, Kec. Susut, Kabupaten Bangli",BALI,80661.0,Indonesia,,,,-8.451685,115.3439425,https://maps.google.com/?cid=0x0:0x7efdb89ececc1636,
hotel,hotel,Bali 80613,"Kec. Bangli, Kabupaten Bangli, Bali","Kabupaten Bangli, Bali",BALI,,Indonesia,,,,-8.4399718,115.3696844,https://maps.google.com/?cid=0x0:0x1c00c5eb6016bf30,
hotel,hotel,Puri Saron Hotel Madangan,"Ds Madangan Kaja, Desa Petak, Petak Kaja, Kec. Gianyar, Kabupaten Gianyar, Bali 80515","Desa Petak, Petak Kaja, Kec. Gianyar, Kabupaten Gianyar",BALI,80515.0,Indonesia,361954257.0,,,-8.4649117,115.3258662,https://maps.google.com/?cid=0x0:0xb2ab0adf0af6d817,
hotel,hotel,,,,BALI,,Indonesia,,,,,,https://maps.google.com/?cid=0x0:0xb2ab0adf0af6d817%7C/g/1tcynbf_%7Cid-ID,
hotel,hotel,Green Pacing Lodge,"Yangapi, Kec. Tembuku, Kabupaten Bangli, Bali","Kabupaten Bangli, Bali",BALI,,Indonesia,85904285889.0,,,-8.447284,115.3902121,https://maps.google.com/?cid=0x0:0x819120e94b42ce62,
hotel,hotel,D'Karang Eco Lodge,"Jl. Raya Besakih, Undisan, Kec. Tembuku, Kabupaten Bangli, Bali 80671","Undisan, Kec. Tembuku, Kabupaten Bangli",BALI,80671.0,Indonesia,81337559615.0,,,-8.4470113,115.3978932,https://maps.google.com/?cid=0x0:0xda500e1a0484a1d8,
hotel,hotel,De Umah Bali Eco Tradi Home,"H95W+RVF, Br. undisan kaja, Jl. Raya Undisan, Undisan, Kec. Tembuku, Kabupaten Bangli, Bali 80671","Br. undisan kaja, Jl. Raya Undisan, Undisan, Kec. Tembuku, Kabupaten Bangli",BALI,80671.0,Indonesia,8123811161.0,,,-8.4402214,115.3967467,https://maps.google.com/?cid=0x0:0xfe41ade1b1e8caf1,
hotel,hotel,Pondok Manca,"G9XV+FVR, Undisan, Kec. Tembuku, Kabupaten Bangli, Bali","Kabupaten Bangli, Bali",BALI,,Indonesia,,,,-8.4512566,115.3946309,https://maps.google.com/?cid=0x0:0x95911f72a63c0356,
hotel,hotel,Umah saren homestay,"H92V+Q86 Jalan Legong Keraton, gang buntu banjar bukit sari, Undisan, Kec. Tembuku, Kabupaten Bangli, Bali 80671","gang buntu banjar bukit sari, Undisan, Kec. Tembuku, Kabupaten Bangli",BALI,80671.0,Indonesia,82340834635.0,,,-8.4481164,115.3932715,https://maps.google.com/?cid=0x0:0xd943c46d7d381420,
hotel,hotel,Puri karang Undisan,"H93W+8HM, Undisan, Kec. Tembuku, Kabupaten Bangli, Bali 80671","Undisan, Kec. Tembuku, Kabupaten Bangli",BALI,80671.0,Indonesia,81239690091.0,,,-8.4466509,115.3964233,https://maps.google.com/?cid=0x0:0x67546e59236f10f4,
hotel,hotel,D’Sari Undisan Houses,"JL.Arjuna,Br.Loka Sari, Kelod Jl. Arjuna, Undisan, Tembuku, Bangli Regency, Bali 80671","Kelod Jl. Arjuna, Undisan, Tembuku, Bangli Regency",BALI,80671.0,Indonesia,82236575855.0,,,-8.445299,115.3967527,https://maps.google.com/?cid=0x0:0xa557699a15c716ea,
hotel,hotel,Pecampuhan retreat villa,"Abuan, Kec. Susut, Kabupaten Bangli, Bali","Kabupaten Bangli, Bali",BALI,,Indonesia,,,,-8.4593856,115.330164,https://maps.google.com/?cid=0x0:0x5470febc9d4b1e7d,
hotel,hotel,Rindu Homestay,"Jl. Calonarang kelod No.4, Undisan, Kec. Tembuku, Kabupaten Bangli, Bali 80671","Undisan, Kec. Tembuku, Kabupaten Bangli",BALI,80671.0,Indonesia,81999165644.0,,,-8.4485223,115.3966784,https://maps.google.com/?cid=0x0:0x2689141c248957df,
hotel,hotel,Tangkas house,"Banjar Maniktawang, Desa, Manukaya, Kec. Tampaksiring, Kabupaten Gianyar, Bali 80661","Desa, Manukaya, Kec. Tampaksiring, Kabupaten Gianyar",BALI,80661.0,Indonesia,81805348759.0,,,-8.4238194,115.321715,https://maps.google.com/?cid=0x0:0x76a7fc132c2db8c0,
hotel,hotel,Lembah Wanna,"Timuhun, Kec. Banjarangkan, Kabupaten Klungkung, Bali 80752","Kec. Banjarangkan, Kabupaten Klungkung",BALI,80752.0,Indonesia,82322843759.0,,,-8.489413,115.383356,https://maps.google.com/?cid=0x0:0x8f02bbdd31dd480c,
hotel,hotel,Yoga Lokanata Ashram  Arnata Guesthouse,"Jl. Giri Kusuma, Demulih, Kec. Susut, Kabupaten Bangli, Bali 80661","Demulih, Kec. Susut, Kabupaten Bangli",BALI,80661.0,Indonesia,,,,-8.451685,115.3439425,https://maps.google.com/?cid=0x0:0x7efdb89ececc1636,
hotel,hotel,B DODY,"Jl. Raya Besakih No.1, Undisan, Kec. Tembuku, Kabupaten Bangli, Bali 80671","Undisan, Kec. Tembuku, Kabupaten Bangli",BALI,80671.0,Indonesia,,,,-8.4466916,115.3961772,https://maps.google.com/?cid=0x0:0x4e56a79673be487d,
hotel,hotel,Hansebali,"Jl. Pura Yeh Panes, Desan songan, Kec. Kintamani, Kabupaten Bangli, Bali 80652","Desan songan, Kec. Kintamani, Kabupaten Bangli",BALI,80652.0,Indonesia,81916562716.0,,,-8.2290684,115.4110219,https://maps.google.com/?cid=0x0:0x3576b4943a18da67,
hotel,hotel,Bangli Dogen,"Jl. Erlangga No.V/10, Cempaga, Kec. Bangli, Kabupaten Bangli, Bali 80613","Cempaga, Kec. Bangli, Kabupaten Bangli",BALI,80613.0,Indonesia,81225696866.0,,,-8.4436937,115.3641232,https://maps.google.com/?cid=0x0:0x9906828ddef18659,
hotel,hotel,One Bali Villa,"jalan majapahit, tegallalang, Kec. Bangli, Kabupaten Bangli, Bali 80614","tegallalang, Kec. Bangli, Kabupaten Bangli",BALI,80614.0,Indonesia,,,,-8.4603174,115.3646921,https://maps.google.com/?cid=0x0:0x8147042c8b24cb1b,
hotel,hotel,Avana Bamboo Villas,"Selat, Kec. Klungkung, Kabupaten Klungkung, Bali 80716","Kec. Klungkung, Kabupaten Klungkung",BALI,80716.0,Indonesia,82145837098.0,,,-8.4755625,115.4083125,https://maps.google.com/?cid=0x0:0x654b50de152e9cf9,
hotel,hotel,Bali Alam Villa,"Jl. Peninjoan, Peninjoan, Kec. Tembuku, Kabupaten Bangli, Bali 80371","Peninjoan, Kec. Tembuku, Kabupaten Bangli",BALI,80371.0,Indonesia,82146815216.0,,,-8.4275153,115.3989052,https://maps.google.com/?cid=0x0:0x9fcaf3b17a4a12f,
hotel,hotel,Kintamani Hotel,"Jalan Puri Bening, Toya Bungkah, Kintamani, Batur Tengah, Kec. Kintamani, Kabupaten Bangli, Bali","Kabupaten Bangli, Bali",BALI,,Indonesia,36652222.0,,,-8.2504001,115.400164,https://maps.google.com/?cid=0x0:0x8f16d1b7673f88ab,
hotel,hotel,,,,BALI,,Indonesia,,,,,,https://maps.google.com/?cid=0x0:0x8f16d1b7673f88ab%7C/g/1td5by0t%7Cid-ID,
hotel,hotel,Batur Soul Bambo,"Q9P9+5QQ, Br Tabu Desa Songan Kintamani Bangli, Songan A, Bangli, Kabupaten Bangli, Bali 80614","Br Tabu Desa Songan Kintamani Bangli, Songan A, Bangli, Kabupaten Bangli",BALI,80614.0,Indonesia,82144084089.0,,,-8.2145467,115.369491,https://maps.google.com/?cid=0x0:0xbe40533977aef7c4,
hotel,hotel,"Pondok Yana Villa, Tampaksiring Gianyar","H8QG+9RM, Manukaya, Kec. Tampaksiring, Kabupaten Gianyar, Bali 80552","Manukaya, Kec. Tampaksiring, Kabupaten Gianyar",BALI,80552.0,Indonesia,87756285588.0,,,-8.4115446,115.3270483,https://maps.google.com/?cid=0x0:0x9a9c72512bc60f29,
hotel,hotel,Griya Petapan,"Jl. Panca Kumara No.5, Cempaga, Kec. Bangli, Kabupaten Bangli, Bali 80614","Cempaga, Kec. Bangli, Kabupaten Bangli",BALI,80614.0,Indonesia,85338370252.0,,,-8.4515936,115.3589702,https://maps.google.com/?cid=0x0:0x1cec90ac4873e7e9,
hotel,hotel,,,,BALI,,Indonesia,,,,,,https://maps.google.com/?cid=0x0:0xee21fdc9d042e005%7C/g/11ckvksnwr%7Cid-ID,
hotel,hotel,De Klumpu Bali Eco Tradi Stay,"Undisan, Kec. Tembuku, Kabupaten Bangli, Bali 80671","Kec. Tembuku, Kabupaten Bangli",BALI,80671.0,Indonesia,8123811161.0,,,-8.4542892,115.3944165,https://maps.google.com/?cid=0x0:0xee21fdc9d042e005,
hotel,hotel,Bangli,"Kawan, Kec. Bangli, Kabupaten Bangli, Bali","Kabupaten Bangli, Bali",BALI,,Indonesia,,,,-8.454303,115.354897,https://maps.google.com/?cid=0x0:0x4030bfbca7d2c10,
hotel,hotel,,,,BALI,,Indonesia,,,,,,https://maps.google.com/?cid=0x0:0xb2ab0adf0af6d817%7C/g/1tcynbf_%7Cid-ID,
hotel,hotel,Puri Saron Hotel Madangan,"Ds Madangan Kaja, Desa Petak, Petak Kaja, Kec. Gianyar, Kabupaten Gianyar, Bali 80515","Desa Petak, Petak Kaja, Kec. Gianyar, Kabupaten Gianyar",BALI,80515.0,Indonesia,361954257.0,,,-8.4649117,115.3258662,https://maps.google.com/?cid=0x0:0xb2ab0adf0af6d817,
hotel,hotel,Alvia Joglo House  Private Pool,"Pulagan, Kec. Tampaksiring, Kabupaten Gianyar, Bali 80552","Kec. Tampaksiring, Kabupaten Gianyar",BALI,80552.0,Indonesia,81916461808.0,,,-8.4330564,115.3103261,https://maps.google.com/?cid=0x0:0xd86e54680e7fd98a,
hotel,hotel,Aksha Riverside Ubud,"Jl. Pertiwi Brata, Tampaksiring, Kec. Tampaksiring, Kabupaten Gianyar, Bali 80552","Tampaksiring, Kec. Tampaksiring, Kabupaten Gianyar",BALI,80552.0,Indonesia,81337155266.0,,,-8.4327476,115.3177814,https://maps.google.com/?cid=0x0:0x3200e7e5f426e00c,
hotel,hotel,Eco Six Bali,"Eco Six Bali, Jl. Raya Ayodya, Tampaksiring, Kec. Tampaksiring, Kabupaten Gianyar, Bali 80552","Jl. Raya Ayodya, Tampaksiring, Kec. Tampaksiring, Kabupaten Gianyar",BALI,80552.0,Indonesia,81239494923.0,,,-8.4384899,115.3108812,https://maps.google.com/?cid=0x0:0x92a2706ab50e5694,
hotel,hotel,Maru Fortuna Villa,"Jalan Raya Tampaksiring, Tegalsaat, Jl. Raya Ayodya, Pejeng Kangin, Kabupaten Gianyar, Bali 80552","Tegalsaat, Jl. Raya Ayodya, Pejeng Kangin, Kabupaten Gianyar",BALI,80552.0,Indonesia,81338272777.0,,,-8.4576243,115.3090108,https://maps.google.com/?cid=0x0:0x51a8c7d72c9ddbf2,
hotel,hotel,,,,BALI,,Indonesia,,,,,,https://maps.google.com/?cid=0x0:0x35a4f5cb614056eb%7C/g/11cmqg4jp5%7Cid-ID,
hotel,hotel,Kawi Resort a Spiritual Sanctuary to Escape,"Br. Bukit, Tampaksiring, Jalan Doktor Ir. Soekarno, Sanding, Kec. Tampaksiring, Kabupaten Gianyar, Bali 80552","Tampaksiring, Jalan Doktor Ir. Soekarno, Sanding, Kec. Tampaksiring, Kabupaten Gianyar",BALI,80552.0,Indonesia,3614793008.0,,,-8.4476705,115.3097781,https://maps.google.com/?cid=0x0:0x35a4f5cb614056eb,
hotel,hotel,D'Karang Eco Lodge,"Jl. Raya Besakih, Undisan, Kec. Tembuku, Kabupaten Bangli, Bali 80671","Undisan, Kec. Tembuku, Kabupaten Bangli",BALI,80671.0,Indonesia,81337559615.0,,,-8.4470113,115.3978932,https://maps.google.com/?cid=0x0:0xda500e1a0484a1d8,
hotel,hotel,The BENAWAH Villa,"G8H7+VW9, Petak, Kec. Gianyar, Kabupaten Gianyar, Bali 80515","Petak, Kec. Gianyar, Kabupaten Gianyar",BALI,80515.0,Indonesia,3614493636.0,,,-8.46931,115.314964,https://maps.google.com/?cid=0x0:0xb50bdd70a6860390,
hotel,hotel,Green Pacing Lodge,"Yangapi, Kec. Tembuku, Kabupaten Bangli, Bali","Kabupaten Bangli, Bali",BALI,,Indonesia,85904285889.0,,,-8.447284,115.3902121,https://maps.google.com/?cid=0x0:0x819120e94b42ce62,
hotel,hotel,Pecampuhan retreat villa,"Abuan, Kec. Susut, Kabupaten Bangli, Bali","Kabupaten Bangli, Bali",BALI,,Indonesia,,,,-8.4593856,115.330164,https://maps.google.com/?cid=0x0:0x5470febc9d4b1e7d,
hotel,hotel,De Umah Bali Eco Tradi Home,"H95W+RVF, Br. undisan kaja, Jl. Raya Undisan, Undisan, Kec. Tembuku, Kabupaten Bangli, Bali 80671","Br. undisan kaja, Jl. Raya Undisan, Undisan, Kec. Tembuku, Kabupaten Bangli",BALI,80671.0,Indonesia,8123811161.0,,,-8.4402214,115.3967467,https://maps.google.com/?cid=0x0:0xfe41ade1b1e8caf1,
hotel,hotel,Pondok Manca,"G9XV+FVR, Undisan, Kec. Tembuku, Kabupaten Bangli, Bali","Kabupaten Bangli, Bali",BALI,,Indonesia,,,,-8.4512566,115.3946309,https://maps.google.com/?cid=0x0:0x95911f72a63c0356,
hotel,hotel,,,,BALI,,Indonesia,,,,,,https://maps.google.com/?cid=0x0:0xa6106742f2f92982%7C/g/11c1xjbskt%7Cid-ID,
hotel,hotel,Asli Bali Villa,"Taman Bali, Kec. Bangli, Kabupaten Bangli, Bali 80614","Kec. Bangli, Kabupaten Bangli",BALI,80614.0,Indonesia,8123903421.0,,,-8.4985503,115.3512801,https://maps.google.com/?cid=0x0:0xa6106742f2f92982,
hotel,hotel,Kintamani Hotel,"Jalan Puri Bening, Toya Bungkah, Kintamani, Batur Tengah, Kec. Kintamani, Kabupaten Bangli, Bali","Kabupaten Bangli, Bali",BALI,,Indonesia,36652222.0,,,-8.2504001,115.400164,https://maps.google.com/?cid=0x0:0x8f16d1b7673f88ab,
hotel,hotel,,,,BALI,,Indonesia,,,,,,https://maps.google.com/?cid=0x0:0x8f16d1b7673f88ab%7C/g/1td5by0t%7Cid-ID,
hotel,hotel,Umah saren homestay,"H92V+Q86 Jalan Legong Keraton, gang buntu banjar bukit sari, Undisan, Kec. Tembuku, Kabupaten Bangli, Bali 80671","gang buntu banjar bukit sari, Undisan, Kec. Tembuku, Kabupaten Bangli",BALI,80671.0,Indonesia,82340834635.0,,,-8.4481164,115.3932715,https://maps.google.com/?cid=0x0:0xd943c46d7d381420,
hotel,hotel,Yoga Lokanata Ashram  Arnata Guesthouse,"Jl. Giri Kusuma, Demulih, Kec. Susut, Kabupaten Bangli, Bali 80661","Demulih, Kec. Susut, Kabupaten Bangli",BALI,80661.0,Indonesia,,,,-8.451685,115.3439425,https://maps.google.com/?cid=0x0:0x7efdb89ececc1636,
hotel,hotel,Bon Nyuh Bungalows,"Desa Petak Kelod, Petak, Gianyar, Gianyar Regency, Bali 80511","Petak, Gianyar, Gianyar Regency",BALI,80511.0,Indonesia,811399238.0,,,-8.4736879,115.3190199,https://maps.google.com/?cid=0x0:0x32db5741a4db02fb,
hotel,hotel,,,,BALI,,Indonesia,,,,,,https://maps.google.com/?cid=0x0:0x32db5741a4db02fb%7C/g/11y3073qp%7Cid-ID,
hotel,hotel,Uma Dewa Villa,"Jl. Pertiwi Brata, Tampaksiring, Kec. Tampaksiring, Kabupaten Gianyar, Bali 80552","Tampaksiring, Kec. Tampaksiring, Kabupaten Gianyar",BALI,80552.0,Indonesia,,,,-8.4309741,115.3096601,https://maps.google.com/?cid=0x0:0x6db06710666d5090,
hotel,hotel,Devanora Hotel  Resto,"P9C4+8H3, Jl. Raya Penelokan, Batur Tengah, Kec. Kintamani, Kabupaten Bangli, Bali 80652","Jl. Raya Penelokan, Batur Tengah, Kec. Kintamani, Kabupaten Bangli",BALI,80652.0,Indonesia,81943283429.0,,,-8.2788804,115.3564101,https://maps.google.com/?cid=0x0:0x5e307c05d4c8f27f,
hotel,hotel,Sarang apartments by EVDEkimi,"G7MC+FM, Tegallalang, Kec. Tegallalang, Kabupaten Gianyar, Bali","Kabupaten Gianyar, Bali",BALI,,Indonesia,81353526737.0,,,-8.4663773,115.2717492,https://maps.google.com/?cid=0x0:0xd1dc873245dfeabe,
hotel,hotel,Rindu Homestay,"Jl. Calonarang kelod No.4, Undisan, Kec. Tembuku, Kabupaten Bangli, Bali 80671","Undisan, Kec. Tembuku, Kabupaten Bangli",BALI,80671.0,Indonesia,81999165644.0,,,-8.4485223,115.3966784,https://maps.google.com/?cid=0x0:0x2689141c248957df,
hotel,hotel,D’Sari Undisan Houses,"JL.Arjuna,Br.Loka Sari, Kelod Jl. Arjuna, Undisan, Tembuku, Bangli Regency, Bali 80671","Kelod Jl. Arjuna, Undisan, Tembuku, Bangli Regency",BALI,80671.0,Indonesia,82236575855.0,,,-8.445299,115.3967527,https://maps.google.com/?cid=0x0:0xa557699a15c716ea,
hotel,hotel,Tangkas house,"Banjar Maniktawang, Desa, Manukaya, Kec. Tampaksiring, Kabupaten Gianyar, Bali 80661","Desa, Manukaya, Kec. Tampaksiring, Kabupaten Gianyar",BALI,80661.0,Indonesia,81805348759.0,,,-8.4238194,115.321715,https://maps.google.com/?cid=0x0:0x76a7fc132c2db8c0,
hotel,hotel,Bali 80652,"Kec. Kintamani, Kabupaten Bangli, Bali","Kabupaten Bangli, Bali",BALI,,Indonesia,,,,-8.2172149,115.3548713,https://maps.google.com/?cid=0x0:0x1c00c5eb6016bf60,
hotel,hotel,The Cave Hotel,"Batur Tengah, Kec. Kintamani, Kabupaten Bangli, Bali 80652","Kec. Kintamani, Kabupaten Bangli",BALI,80652.0,Indonesia,81337787816.0,,,-8.2811289,115.3620484,https://maps.google.com/?cid=0x0:0xa6c22d8f5ebbdfab,
hotel,hotel,Devanora Hotel  Resto,"P9C4+8H3, Jl. Raya Penelokan, Batur Tengah, Kec. Kintamani, Kabupaten Bangli, Bali 80652","Jl. Raya Penelokan, Batur Tengah, Kec. Kintamani, Kabupaten Bangli",BALI,80652.0,Indonesia,81943283429.0,,,-8.2788804,115.3564101,https://maps.google.com/?cid=0x0:0x5e307c05d4c8f27f,
hotel,hotel,,,,BALI,,Indonesia,,,,,,https://maps.google.com/?cid=0x0:0x3d9d9bb1d20765a8%7C/g/11h09m7nv%7Cid-ID,
hotel,hotel,Kintamani Hotel,"Jalan Puri Bening, Toya Bungkah, Kintamani, Batur Tengah, Kec. Kintamani, Kabupaten Bangli, Bali","Kabupaten Bangli, Bali",BALI,,Indonesia,36652222.0,,,-8.2504001,115.400164,https://maps.google.com/?cid=0x0:0x8f16d1b7673f88ab,
hotel,hotel,,,,BALI,,Indonesia,,,,,,https://maps.google.com/?cid=0x0:0x8f16d1b7673f88ab%7C/g/1td5by0t%7Cid-ID,
hotel,hotel,Volcano Terrace Bali,"Jalan Raya Jl. Banjar Dalem, Songan A, Kintamani, Bangli Regency, Bali 80652","Songan A, Kintamani, Bangli Regency",BALI,80652.0,Indonesia,81333325150.0,,,-8.2465382,115.4006271,https://maps.google.com/?cid=0x0:0x2361200da9d8cfda,
hotel,hotel,AGUA Hotel,"Jl. Trunyan No.333, Kedisan, Kec. Kintamani, Kabupaten Bangli, Bali 80652","Kedisan, Kec. Kintamani, Kabupaten Bangli",BALI,80652.0,Indonesia,81805511955.0,,,-8.2800386,115.3836667,https://maps.google.com/?cid=0x0:0x205fc9eb63d5fa3c,
hotel,hotel,Pinggan cliff,"Pinggan, Kec. Kintamani, Kabupaten Bangli, Bali 80652","Kec. Kintamani, Kabupaten Bangli",BALI,80652.0,Indonesia,81338905527.0,,,-8.2078909,115.3844938,https://maps.google.com/?cid=0x0:0x1f68aae39774f846,
hotel,hotel,The Dewi Kintamani,"Jl. Song Dikit, Songan A, Kec. Kintamani, Kabupaten Bangli, Bali 80652","Songan A, Kec. Kintamani, Kabupaten Bangli",BALI,80652.0,Indonesia,82144314424.0,,,-8.2340039,115.4019812,https://maps.google.com/?cid=0x0:0xa6db180199daf524,
hotel,hotel,Arlina's Kintamani,"Jl. Pendakian Gn. Batur, Batur Tengah, Bangli, Kabupaten Bangli, Bali 80652","Batur Tengah, Bangli, Kabupaten Bangli",BALI,80652.0,Indonesia,895417300072.0,,,-8.2499851,115.3985339,https://maps.google.com/?cid=0x0:0x797c2ebfa0c84dc4,
hotel,hotel,Bobocabin Kintamani,"Jl. Mundukan Ngandang, Songan A, Kec. Kintamani, Kabupaten Bangli, Bali 80652","Songan A, Kec. Kintamani, Kabupaten Bangli",BALI,80652.0,Indonesia,81121101367.0,,,-8.2353253,115.4003266,https://maps.google.com/?cid=0x0:0x31b4d2c53cffa12b,
hotel,hotel,,,,BALI,,Indonesia,,,,,,https://maps.google.com/?cid=0x0:0x31b4d2c53cffa12b%7C/g/11rdbf5v39%7Cid-ID,
hotel,hotel,Pinggan Panorama,"Pinggan, Kec. Kintamani, Kabupaten Bangli, Bali 80652","Kec. Kintamani, Kabupaten Bangli",BALI,80652.0,Indonesia,87785688970.0,,,-8.2100713,115.3647921,https://maps.google.com/?cid=0x0:0x3651e671e29bd033,
hotel,hotel,Jempana View,"Jl. Songan Jl. Jempana No.6, Songan A, Kec. Kintamani, Kabupaten Bangli, Bali 80652","Songan A, Kec. Kintamani, Kabupaten Bangli",BALI,80652.0,Indonesia,81237078007.0,,,-8.2309774,115.4119327,https://maps.google.com/?cid=0x0:0x47ba6fe2717fc5c4,
hotel,hotel,Mountain Peak Kintamani,"P9J3+95X, Batur Sel., Kec. Kintamani, Kabupaten Bangli, Bali 80652","Batur Sel., Kec. Kintamani, Kabupaten Bangli",BALI,80652.0,Indonesia,85964198050.0,,,-8.2690065,115.3529969,https://maps.google.com/?cid=0x0:0x26bc69da3b327b93,
hotel,hotel,Pramana Zahill Kintamani,"Jl. Raya Kintamani, Batur Sel., Kec. Kintamani, Kabupaten Bangli, Bali 80652","Batur Sel., Kec. Kintamani, Kabupaten Bangli",BALI,80652.0,Indonesia,81238965187.0,,,-8.2599769,115.3368859,https://maps.google.com/?cid=0x0:0x1a94e0c178714e03,
hotel,hotel,,,,BALI,,Indonesia,,,,,,https://maps.google.com/?cid=0x0:0x1a94e0c178714e03%7C/g/11nnnjhpbs%7Cid-ID,
hotel,hotel,Caldera Hotel  Restaurant,"Jl. Windu Sara, Kedisan, Kec. Kintamani, Kabupaten Bangli, Bali 80652","Kedisan, Kec. Kintamani, Kabupaten Bangli",BALI,80652.0,Indonesia,87840523331.0,,,-8.2791916,115.3674313,https://maps.google.com/?cid=0x0:0x60cc76375231453,
hotel,hotel,Tegal Sari Cabin Kintamani,"Jalan Pura Ulun Danu Batur, Batur Sel., Kec. Kintamani, Kabupaten Bangli, Bali 80652","Batur Sel., Kec. Kintamani, Kabupaten Bangli",BALI,80652.0,Indonesia,8873152727.0,,,-8.2548981,115.3367147,https://maps.google.com/?cid=0x0:0x40e9f8c7a149306c,
hotel,hotel,Sandan Agro Resort Kintamani,"Budikarya, Br, Jl. Masem, Batur Sel., Kec. Kintamani, Kabupaten Bangli, Bali 80652","Br, Jl. Masem, Batur Sel., Kec. Kintamani, Kabupaten Bangli",BALI,80652.0,Indonesia,81237055555.0,,,-8.2813312,115.3310522,https://maps.google.com/?cid=0x0:0xa85de0b3084b9cd,
hotel,hotel,Oculus bali,"Jl. Windu Sara, Kedisan, Kec. Kintamani, Kabupaten Bangli, Bali 80652","Kedisan, Kec. Kintamani, Kabupaten Bangli",BALI,80652.0,Indonesia,82145112983.0,,,-8.2797596,115.3695301,https://maps.google.com/?cid=0x0:0xd1c2b740a5032173,
hotel,hotel,Alam Nirwana Kintamani,"Jalan Kulkul 1, Songan B, Kec. Kintamani, Kabupaten Bangli, Bali 80652","Songan B, Kec. Kintamani, Kabupaten Bangli",BALI,80652.0,Indonesia,,,,-8.2221284,115.4228181,https://maps.google.com/?cid=0x0:0xa60171136c0b88cf,
hotel,hotel,Tira Vilagna Suites  Spa,"Jalan Shanti, Padang Mun, Kec. Kintamani, Kabupaten Bangli, Bali 80652","Padang Mun, Kec. Kintamani, Kabupaten Bangli",BALI,80652.0,Indonesia,3616209977.0,,,-8.2600874,115.3337451,https://maps.google.com/?cid=0x0:0x281c99826b920876,
hotel,hotel,Black Lava Camp  Cafe,"Jalan Bukit Payang No.88, Kintamani, Kec. Kintamani, Kabupaten Bangli, Bali 80652","Kintamani, Kec. Kintamani, Kabupaten Bangli",BALI,80652.0,Indonesia,81387673168.0,,,-8.2687441,115.354361,https://maps.google.com/?cid=0x0:0xea80f9655bdbd59e,
hotel,hotel,Host @ Volcano,"Q9MV+V2X, Songan A, Kec. Kintamani, Kabupaten Bangli, Bali 80652","Songan A, Kec. Kintamani, Kabupaten Bangli",BALI,80652.0,Indonesia,81916750545.0,,,-8.2152628,115.3926146,https://maps.google.com/?cid=0x0:0x63ba0c4c6cc23bd0,
hotel,hotel,Wanahita Kintamani,"Pinggan, Kec. Kintamani, Kabupaten Bangli, Bali 80652","Kec. Kintamani, Kabupaten Bangli",BALI,80652.0,Indonesia,87781448989.0,,,-8.2153999,115.3958391,https://maps.google.com/?cid=0x0:0xba35067a2078e452,
hotel,hotel,The Infinity Kintamani,"Jl. Pendakian Gn. Batur, Batur Tengah, Kec. Kintamani, Kabupaten Bangli, Bali 80652","Batur Tengah, Kec. Kintamani, Kabupaten Bangli",BALI,80652.0,Indonesia,81935209217.0,,,-8.2493537,115.3958527,https://maps.google.com/?cid=0x0:0x66a813ee3216936,
hotel,hotel,Oemah Batur,"Q92W+WC, Batur Sel., Kec. Kintamani, Kabupaten Bangli, Bali","Kabupaten Bangli, Bali",BALI,,Indonesia,81353261639.0,,,-8.2477053,115.3960655,https://maps.google.com/?cid=0x0:0x3f5dd73b8e2b450f,
hotel,hotel,Susut,"Sulahan, Kec. Susut, Kabupaten Bangli, Bali","Kabupaten Bangli, Bali",BALI,,Indonesia,,,,-8.424873,115.346001,https://maps.google.com/?cid=0x0:0xc2e9cdd58e9468fb,
hotel,hotel,Bambootel Sawah View,"Banjar Maniktawang, Manukaya, Kec. Tampaksiring, Kabupaten Gianyar, Bali 80552","Manukaya, Kec. Tampaksiring, Kabupaten Gianyar",BALI,80552.0,Indonesia,85974171995.0,,,-8.4247853,115.321693,https://maps.google.com/?cid=0x0:0x2e2f06740c382279,
hotel,hotel,Alam Kawi Ubud Resort  Spa by Island Escape Villas,"Sanding, Kec. Tampaksiring, Kabupaten Gianyar, Bali 80552","Kec. Tampaksiring, Kabupaten Gianyar",BALI,80552.0,Indonesia,81339362407.0,,,-8.4569425,115.3045473,https://maps.google.com/?cid=0x0:0xbe57cd660cca0b18,
hotel,hotel,Puri Saron Hotel Madangan,"Ds Madangan Kaja, Desa Petak, Petak Kaja, Kec. Gianyar, Kabupaten Gianyar, Bali 80515","Desa Petak, Petak Kaja, Kec. Gianyar, Kabupaten Gianyar",BALI,80515.0,Indonesia,361954257.0,,,-8.4649117,115.3258662,https://maps.google.com/?cid=0x0:0xb2ab0adf0af6d817,
hotel,hotel,,,,BALI,,Indonesia,,,,,,https://maps.google.com/?cid=0x0:0xb2ab0adf0af6d817%7C/g/1tcynbf_%7Cid-ID,
hotel,hotel,Aksha Riverside Ubud,"Jl. Pertiwi Brata, Tampaksiring, Kec. Tampaksiring, Kabupaten Gianyar, Bali 80552","Tampaksiring, Kec. Tampaksiring, Kabupaten Gianyar",BALI,80552.0,Indonesia,81337155266.0,,,-8.4327476,115.3177814,https://maps.google.com/?cid=0x0:0x3200e7e5f426e00c,
hotel,hotel,Bali Jungle Resort,"Br, Jl. Raya Pujung Kaja, Sebatu, Kec. Tegallalang, Bali 80561","Jl. Raya Pujung Kaja, Sebatu, Kec. Tegallalang",BALI,80561.0,Indonesia,361980972.0,,,-8.4057083,115.2844468,https://maps.google.com/?cid=0x0:0x3eeeae405245cf6b,
hotel,hotel,Campuhan Sebatu Resort,"Jalan Umekelod, Sebatu, Kec. Tegallalang, Kabupaten Gianyar, Bali 80561","Sebatu, Kec. Tegallalang, Kabupaten Gianyar",BALI,80561.0,Indonesia,3619081891.0,,,-8.4102473,115.2989791,https://maps.google.com/?cid=0x0:0x63600fbe45f453a5,
hotel,hotel,Lawani Resort,"Sebatu, Kec. Tegallalang, Kabupaten Gianyar, Bali 80561","Kec. Tegallalang, Kabupaten Gianyar",BALI,80561.0,Indonesia,85808866373.0,,,-8.3995046,115.2945216,https://maps.google.com/?cid=0x0:0x3b791576ae0334a5,
hotel,hotel,Bali Bamboo Jungle Huts and Hostel,"Jl. Raya Pujung Kaja No.11, Sebatu, Kec. Tegallalang, Kabupaten Gianyar, Bali 80561","Sebatu, Kec. Tegallalang, Kabupaten Gianyar",BALI,80561.0,Indonesia,81238818150.0,,,-8.4064165,115.2861703,https://maps.google.com/?cid=0x0:0xfa0533a4d714ad77,
hotel,hotel,Kawi Resort a Spiritual Sanctuary to Escape,"Br. Bukit, Tampaksiring, Jalan Doktor Ir. Soekarno, Sanding, Kec. Tampaksiring, Kabupaten Gianyar, Bali 80552","Tampaksiring, Jalan Doktor Ir. Soekarno, Sanding, Kec. Tampaksiring, Kabupaten Gianyar",BALI,80552.0,Indonesia,3614793008.0,,,-8.4476705,115.3097781,https://maps.google.com/?cid=0x0:0x35a4f5cb614056eb,
hotel,hotel,,,,BALI,,Indonesia,,,,,,https://maps.google.com/?cid=0x0:0x35a4f5cb614056eb%7C/g/11cmqg4jp5%7Cid-ID,
hotel,hotel,Batan Nyuh Retreat,"Jl. Subak batan nyuh, Jl. Banjar Timbul-Pupuan, Pupuan, Kec. Tegallalang, Kabupaten Gianyar, Bali 80561","Jl. Banjar Timbul-Pupuan, Pupuan, Kec. Tegallalang, Kabupaten Gianyar",BALI,80561.0,Indonesia,87881601474.0,,,-8.3992886,115.3003955,https://maps.google.com/?cid=0x0:0xefcb183cb7110ab6,
hotel,hotel,Alvia Joglo House  Private Pool,"Pulagan, Kec. Tampaksiring, Kabupaten Gianyar, Bali 80552","Kec. Tampaksiring, Kabupaten Gianyar",BALI,80552.0,Indonesia,81916461808.0,,,-8.4330564,115.3103261,https://maps.google.com/?cid=0x0:0xd86e54680e7fd98a,
hotel,hotel,Dukuh Sebatu Villa,"Sebatu, Kec. Tegallalang, Kabupaten Gianyar, Bali 80561","Kec. Tegallalang, Kabupaten Gianyar",BALI,80561.0,Indonesia,81238308083.0,,,-8.3979056,115.2914752,https://maps.google.com/?cid=0x0:0x838c46c4f50140c2,
hotel,hotel,Uma Linggah Resort by Puri Signatures,"Jl. Raya Pujung Kaja, Sebatu, Kec. Tegallalang, Kabupaten Gianyar, Bali 80561","Sebatu, Kec. Tegallalang, Kabupaten Gianyar",BALI,80561.0,Indonesia,82266467690.0,,,-8.4033948,115.2894489,https://maps.google.com/?cid=0x0:0x823e77874798e8,
hotel,hotel,Maru Fortuna Villa,"Jalan Raya Tampaksiring, Tegalsaat, Jl. Raya Ayodya, Pejeng Kangin, Kabupaten Gianyar, Bali 80552","Tegalsaat, Jl. Raya Ayodya, Pejeng Kangin, Kabupaten Gianyar",BALI,80552.0,Indonesia,81338272777.0,,,-8.4576243,115.3090108,https://maps.google.com/?cid=0x0:0x51a8c7d72c9ddbf2,
hotel,hotel,Green Pacing Lodge,"Yangapi, Kec. Tembuku, Kabupaten Bangli, Bali","Kabupaten Bangli, Bali",BALI,,Indonesia,85904285889.0,,,-8.447284,115.3902121,https://maps.google.com/?cid=0x0:0x819120e94b42ce62,
hotel,hotel,Yoga Lokanata Ashram  Arnata Guesthouse,"Jl. Giri Kusuma, Demulih, Kec. Susut, Kabupaten Bangli, Bali 80661","Demulih, Kec. Susut, Kabupaten Bangli",BALI,80661.0,Indonesia,,,,-8.451685,115.3439425,https://maps.google.com/?cid=0x0:0x7efdb89ececc1636,
hotel,hotel,Toya Ubud Ecopark and Waterfall,"Jl. Raya Desa Kenderan, Kenderan, Kec. Tegallalang, Kabupaten Gianyar, Bali 80561","Kenderan, Kec. Tegallalang, Kabupaten Gianyar",BALI,80561.0,Indonesia,81138312503.0,,,-8.4462794,115.2896017,https://maps.google.com/?cid=0x0:0x6d14732196ba1ecf,
hotel,hotel,D'Karang Eco Lodge,"Jl. Raya Besakih, Undisan, Kec. Tembuku, Kabupaten Bangli, Bali 80671","Undisan, Kec. Tembuku, Kabupaten Bangli",BALI,80671.0,Indonesia,81337559615.0,,,-8.4470113,115.3978932,https://maps.google.com/?cid=0x0:0xda500e1a0484a1d8,
hotel,hotel,"Bobocabin Ubud, Bali","Kedisan, Kec. Tegallalang, Kabupaten Gianyar, Bali","Kabupaten Gianyar, Bali",BALI,,Indonesia,81120212577.0,,,-8.4194668,115.2894303,https://maps.google.com/?cid=0x0:0xd6407a12af23392a,
hotel,hotel,The Scape Valley by Pramana Villas,"J8JR+69F, Jl. Raya Kintamani, Penglumbaran, Kec. Susut, Kabupaten Bangli, Bali 80661","Jl. Raya Kintamani, Penglumbaran, Kec. Susut, Kabupaten Bangli",BALI,80661.0,Indonesia,,,,-8.3689927,115.3409812,https://maps.google.com/?cid=0x0:0x227f7f4b8e8dbc78,
hotel,hotel,The BENAWAH Villa,"G8H7+VW9, Petak, Kec. Gianyar, Kabupaten Gianyar, Bali 80515","Petak, Kec. Gianyar, Kabupaten Gianyar",BALI,80515.0,Indonesia,3614493636.0,,,-8.46931,115.314964,https://maps.google.com/?cid=0x0:0xb50bdd70a6860390,
hotel,hotel,Daydream Lodge,"Jl. Banjar Timbul-Pupuan, Pupuan, Kec. Tegallalang, Kabupaten Gianyar, Bali 80561","Pupuan, Kec. Tegallalang, Kabupaten Gianyar",BALI,80561.0,Indonesia,89620771888.0,,,-8.3798873,115.3051205,https://maps.google.com/?cid=0x0:0x67871ac336bfd12d,
hotel,hotel,Uma sebatu villa,"Sebatu, Kec. Tegallalang, Kabupaten Gianyar, Bali 80561","Kec. Tegallalang, Kabupaten Gianyar",BALI,80561.0,Indonesia,3619087559.0,,,-8.3977605,115.2953995,https://maps.google.com/?cid=0x0:0x7c3a519000511899,
hotel,hotel,Rindu Homestay,"Jl. Calonarang kelod No.4, Undisan, Kec. Tembuku, Kabupaten Bangli, Bali 80671","Undisan, Kec. Tembuku, Kabupaten Bangli",BALI,80671.0,Indonesia,81999165644.0,,,-8.4485223,115.3966784,https://maps.google.com/?cid=0x0:0x2689141c248957df,
hotel,hotel,Umah Tis Sebatu,"Sebatu, Kec. Tegallalang, Kabupaten Gianyar, Bali 80561","Kec. Tegallalang, Kabupaten Gianyar",BALI,80561.0,Indonesia,81999370369.0,,,-8.4118124,115.2985474,https://maps.google.com/?cid=0x0:0x3b40c80927d5ec6a,
hotel,hotel,AMBARA GUEST HOUSE,"Jl. Raya Pujung Kaja, Sebatu, Kec. Tegallalang, Kabupaten Gianyar, Bali 80561","Sebatu, Kec. Tegallalang, Kabupaten Gianyar",BALI,80561.0,Indonesia,85857182281.0,,,-8.4050182,115.2875132,https://maps.google.com/?cid=0x0:0x2ac8022fee70bb75,
hotel,hotel,Bali 80671,"Kec. Tembuku, Kabupaten Bangli, Bali","Kabupaten Bangli, Bali",BALI,,Indonesia,,,,-8.4058202,115.3904215,https://maps.google.com/?cid=0x0:0x1c00c5eb6016bf80,
hotel,hotel,D'Karang Eco Lodge,"Jl. Raya Besakih, Undisan, Kec. Tembuku, Kabupaten Bangli, Bali 80671","Undisan, Kec. Tembuku, Kabupaten Bangli",BALI,80671.0,Indonesia,81337559615.0,,,-8.4470113,115.3978932,https://maps.google.com/?cid=0x0:0xda500e1a0484a1d8,
hotel,hotel,Puri karang Undisan,"H93W+8HM, Undisan, Kec. Tembuku, Kabupaten Bangli, Bali 80671","Undisan, Kec. Tembuku, Kabupaten Bangli",BALI,80671.0,Indonesia,81239690091.0,,,-8.4466509,115.3964233,https://maps.google.com/?cid=0x0:0x67546e59236f10f4,
hotel,hotel,,,,BALI,,Indonesia,,,,,,https://maps.google.com/?cid=0x0:0xf04069cfc11d4524%7C/g/11vcx4bczv%7Cid-ID,
hotel,hotel,Green Pacing Lodge,"Yangapi, Kec. Tembuku, Kabupaten Bangli, Bali","Kabupaten Bangli, Bali",BALI,,Indonesia,85904285889.0,,,-8.447284,115.3902121,https://maps.google.com/?cid=0x0:0x819120e94b42ce62,
hotel,hotel,De Umah Bali Eco Tradi Home,"H95W+RVF, Br. undisan kaja, Jl. Raya Undisan, Undisan, Kec. Tembuku, Kabupaten Bangli, Bali 80671","Br. undisan kaja, Jl. Raya Undisan, Undisan, Kec. Tembuku, Kabupaten Bangli",BALI,80671.0,Indonesia,8123811161.0,,,-8.4402214,115.3967467,https://maps.google.com/?cid=0x0:0xfe41ade1b1e8caf1,
hotel,hotel,Suci Amerta Guest House,"HCQF+854, Jl. Surya Indah, Menanga, Kec. Rendang, Kabupaten Karangasem, Bali 80863","Jl. Surya Indah, Menanga, Kec. Rendang, Kabupaten Karangasem",BALI,80863.0,Indonesia,,,,-8.4117479,115.4229524,https://maps.google.com/?cid=0x0:0xcb188a0e0121a804,
hotel,hotel,The Babakan Accomodations,"GCGV+M56, Jl. Raya Tebola, Telaga Tawang, Kec. Sidemen, Kabupaten Karangasem, Bali 80864","Jl. Raya Tebola, Telaga Tawang, Kec. Sidemen, Kabupaten Karangasem",BALI,80864.0,Indonesia,81917203476.0,,,-8.4732697,115.4432236,https://maps.google.com/?cid=0x0:0x81ee2f0aee87b71f,
hotel,hotel,D’Sari Undisan Houses,"JL.Arjuna,Br.Loka Sari, Kelod Jl. Arjuna, Undisan, Tembuku, Bangli Regency, Bali 80671","Kelod Jl. Arjuna, Undisan, Tembuku, Bangli Regency",BALI,80671.0,Indonesia,82236575855.0,,,-8.445299,115.3967527,https://maps.google.com/?cid=0x0:0xa557699a15c716ea,
hotel,hotel,Rindu Homestay,"Jl. Calonarang kelod No.4, Undisan, Kec. Tembuku, Kabupaten Bangli, Bali 80671","Undisan, Kec. Tembuku, Kabupaten Bangli",BALI,80671.0,Indonesia,81999165644.0,,,-8.4485223,115.3966784,https://maps.google.com/?cid=0x0:0x2689141c248957df,
hotel,hotel,Mahagiri Panoramic Resort  Restaurant,"Jl. Surya Indah, Desa Rendang, Kec. Rendang, Rendang, Karangasem, Kabupaten Karangasem, Bali 80863","Desa Rendang, Kec. Rendang, Rendang, Karangasem, Kabupaten Karangasem",BALI,80863.0,Indonesia,8113805009.0,,,-8.4232089,115.4282001,https://maps.google.com/?cid=0x0:0x6b4e4379e63423dd,
hotel,hotel,Umah saren homestay,"H92V+Q86 Jalan Legong Keraton, gang buntu banjar bukit sari, Undisan, Kec. Tembuku, Kabupaten Bangli, Bali 80671","gang buntu banjar bukit sari, Undisan, Kec. Tembuku, Kabupaten Bangli",BALI,80671.0,Indonesia,82340834635.0,,,-8.4481164,115.3932715,https://maps.google.com/?cid=0x0:0xd943c46d7d381420,
hotel,hotel,Besakih Homestay  Villa,"Jl. Kedugung Besakih, Besakih, Kec. Rendang, Kabupaten Karangasem, Bali 80863","Besakih, Kec. Rendang, Kabupaten Karangasem",BALI,80863.0,Indonesia,85738852279.0,,,-8.3874882,115.441967,https://maps.google.com/?cid=0x0:0xadedb81741a3d890,
hotel,hotel,Pondok Manca,"G9XV+FVR, Undisan, Kec. Tembuku, Kabupaten Bangli, Bali","Kabupaten Bangli, Bali",BALI,,Indonesia,,,,-8.4512566,115.3946309,https://maps.google.com/?cid=0x0:0x95911f72a63c0356,
hotel,hotel,The River Island Bali,"Br klungah, Wismakerta, Kec. Sidemen, Kabupaten Karangasem, Bali 80864","Wismakerta, Kec. Sidemen, Kabupaten Karangasem",BALI,80864.0,Indonesia,82266227546.0,,,-8.4818317,115.4394088,https://maps.google.com/?cid=0x0:0x9c0292549fd42af5,
hotel,hotel,Puri Karang Besakih,"JC9W+932, Jalan Raya Besakih, Besakih, Tirtagangga, Besakih, Kec. Rendang, Kabupaten Karangasem, Bali 80863","Jalan Raya Besakih, Besakih, Tirtagangga, Besakih, Kec. Rendang, Kabupaten Karangasem",BALI,80863.0,Indonesia,85792145695.0,,,-8.3816069,115.4451352,https://maps.google.com/?cid=0x0:0xa8e4243c8cf7eeae,
hotel,hotel,B DODY,"Jl. Raya Besakih No.1, Undisan, Kec. Tembuku, Kabupaten Bangli, Bali 80671","Undisan, Kec. Tembuku, Kabupaten Bangli",BALI,80671.0,Indonesia,,,,-8.4466916,115.3961772,https://maps.google.com/?cid=0x0:0x4e56a79673be487d,
hotel,hotel,Made Putu homestay,"GCMW+PCC, Sidemen, Kec. Sidemen, Kabupaten Karangasem, Bali 80864","Sidemen, Kec. Sidemen, Kabupaten Karangasem",BALI,80864.0,Indonesia,81943289210.0,,,-8.4657291,115.4460643,https://maps.google.com/?cid=0x0:0xcc4c9a3aed077ec5,
hotel,hotel,Bambootel Sawah View,"Banjar Maniktawang, Manukaya, Kec. Tampaksiring, Kabupaten Gianyar, Bali 80552","Manukaya, Kec. Tampaksiring, Kabupaten Gianyar",BALI,80552.0,Indonesia,85974171995.0,,,-8.4247853,115.321693,https://maps.google.com/?cid=0x0:0x2e2f06740c382279,
hotel,hotel,Puri jumpungan villas,"GCJV+XC7, Sidemen, Kec. Sidemen, Kabupaten Karangasem, Bali 80864","Sidemen, Kec. Sidemen, Kabupaten Karangasem",BALI,80864.0,Indonesia,87865830752.0,,,-8.4679992,115.4428041,https://maps.google.com/?cid=0x0:0xa8f025c0861713aa,
hotel,hotel,Tepi Sungai Restaurant,"Jl. Sangkan Gn., Sangkan Gn., Kec. Sidemen, Kabupaten Karangasem, Bali 80352","Sangkan Gn., Kec. Sidemen, Kabupaten Karangasem",BALI,80352.0,Indonesia,81236939400.0,,,-8.4692389,115.4383066,https://maps.google.com/?cid=0x0:0xc65c2a40af056580,
hotel,hotel,,,,BALI,,Indonesia,,,,,,https://maps.google.com/?cid=0x0:0x8098500e54e69993%7C/g/1v3g6p61%7Cid-ID,
hotel,hotel,The Kubu Hotel,"Kuta Jl. Poppies 1 Gg, Sorga, Kec. Kuta, Kabupaten Badung, Bali 80361","Sorga, Kec. Kuta, Kabupaten Badung",BALI,80361.0,Indonesia,81231394366.0,,,-8.7189581,115.1733522,https://maps.google.com/?cid=0x0:0x8098500e54e69993,
hotel,hotel,Candra homestay besakih,"JCCX+QRH, Besakih, Kec. Rendang, Kabupaten Karangasem, Bali 80863","Besakih, Kec. Rendang, Kabupaten Karangasem",BALI,80863.0,Indonesia,,,,-8.378041,115.449595,https://maps.google.com/?cid=0x0:0xbadb88597e0450ed,
hotel,hotel,Milla Homestay,"Jl. Raya Tebola, Telaga Tawang, Kec. Sidemen, Kabupaten Karangasem, Bali 80864","Telaga Tawang, Kec. Sidemen, Kabupaten Karangasem",BALI,80864.0,Indonesia,85792758815.0,,,-8.4695442,115.4435712,https://maps.google.com/?cid=0x0:0xdd96b4185b4bd3ca,
hotel,hotel,Abian view house,"Banjar tabola, Telaga Tawang, Kec. Sidemen, Kabupaten Karangasem, Bali 80864","Telaga Tawang, Kec. Sidemen, Kabupaten Karangasem",BALI,80864.0,Indonesia,81936646484.0,,,-8.4704269,115.4419162,https://maps.google.com/?cid=0x0:0xbc6673bebf12886f,
hotel,hotel,Kadek Homestay,"JC8V+6G6, Banjar palak, Besakih, Kec. Rendang, Kabupaten Karangasem, Bali 80863","Banjar palak, Besakih, Kec. Rendang, Kabupaten Karangasem",BALI,80863.0,Indonesia,,,,-8.3844788,115.4439553,https://maps.google.com/?cid=0x0:0x1fa95b797e0b936e,
restaurant,restaurant,Bali 80611,"Kabupaten Bangli, Bali","Kabupaten Bangli, Bali",BALI,,Indonesia,,,,-8.4047261,115.3696844,https://maps.google.com/?cid=0x0:0x1c00c5eb6016bf10,
restaurant,Kafe,Dijumah Cafe Bali,"Jl. Nusantara No.96, Cempaga, Kec. Bangli, Kabupaten Bangli, Bali 80613","Cempaga, Kec. Bangli, Kabupaten Bangli",BALI,80613.0,Indonesia,87861753335.0,,,-8.4435263,115.3561128,https://maps.google.com/?cid=0x0:0x89889d12514ff72b,
restaurant,Restoran,D'Carik Tibumana,"Jl. Setra Agung, Apuan, Kec. Susut, Kabupaten Bangli, Bali 80661","Apuan, Kec. Susut, Kabupaten Bangli",BALI,80661.0,Indonesia,85190088810.0,,,-8.5066385,115.3312319,https://maps.google.com/?cid=0x0:0xcdcf94add0e81066,
restaurant,Prasmanan,Grand Puncak Sari Restaurant (Kintamani),"JL. Raya Penelokan, Kintamani, Batur Tengah, Kec. Bangli, Kabupaten Bangli, Bali 80652","Kintamani, Batur Tengah, Kec. Bangli, Kabupaten Bangli",BALI,80652.0,Indonesia,,,,-8.2728057,115.3474123,https://maps.google.com/?cid=0x0:0x16a599d1badeca2c,
restaurant,Restoran,Blessing Restaurant,"Goa Raja Waterfall, Jehem, Kec. Tembuku, Kabupaten Bangli, Bali 80671","Jehem, Kec. Tembuku, Kabupaten Bangli",BALI,80671.0,Indonesia,81327875558.0,,,-8.4405592,115.3744186,https://maps.google.com/?cid=0x0:0x4ca3c7ece1f78661,
restaurant,Prasmanan,"sari mountain View Restaurant, Bar and Coffee","Jl. Raya Penelokan 888 Br Masem, Batur Selatan, Kintamani, Batur Sel., Kec. Kintamani, Kabupaten Bangli, Bali 80652","Batur Selatan, Kintamani, Batur Sel., Kec. Kintamani, Kabupaten Bangli",BALI,80652.0,Indonesia,87753498058.0,,,-8.2675208,115.3420161,https://maps.google.com/?cid=0x0:0xe38bc208a2fa124,
restaurant,Hotel bintang 1,Floating Restaurant Kedisan,"P99P+FWX, Jl. Trunyan, Songan B, Kec. Kintamani, Kabupaten Bangli, Bali 80652","Jl. Trunyan, Songan B, Kec. Kintamani, Kabupaten Bangli",BALI,80652.0,Indonesia,81337755411.0,,,-8.2812724,115.3873697,https://maps.google.com/?cid=0x0:0x9ce150fe52c769f,
restaurant,Indonesia,Warung Babi Guling Ibu Desek Putu,"H9M7+X6X, Jl. Nusantara, Kayubihi, Kec. Bangli, Kabupaten Bangli, Bali 80661","Jl. Nusantara, Kayubihi, Kec. Bangli, Kabupaten Bangli",BALI,80661.0,Indonesia,,,,-8.4150238,115.3631089,https://maps.google.com/?cid=0x0:0xca6180a40391214d,
restaurant,Prasmanan,Batur Sari Restaurant,"Jl. Raya Penelokan, Batur Tengah, Kec. Kintamani, Kabupaten Bangli, Bali 80652","Batur Tengah, Kec. Kintamani, Kabupaten Bangli",BALI,80652.0,Indonesia,36651007.0,,,-8.27716,115.3511068,https://maps.google.com/?cid=0x0:0xbc0854620e9f4111,
restaurant,restaurant,Resto Apung Kedisan,"Jl. Raya Kedisan, Kintamani, Songan B, Kec. Bangli, Kabupaten Bangli, Bali 80652","Kintamani, Songan B, Kec. Bangli, Kabupaten Bangli",BALI,80652.0,Indonesia,81337755411.0,,,-8.2808711,115.3878302,https://maps.google.com/?cid=0x0:0x774f233f9b016610,
restaurant,restaurant,Yucabin Kintamani - for Cool Adults only,"Jl. Kedisan No.88, Kedisan, Kec. Kintamani, Kabupaten Bangli, Bali 80652","Kedisan, Kec. Kintamani, Kabupaten Bangli",BALI,80652.0,Indonesia,8118889589.0,,,-8.27995,115.3831389,https://maps.google.com/?cid=0x0:0x92413d78f0774f69,
restaurant,restaurant,Starlake Villa n Glamping,"Jl. Trunyan, Buahan, Kec. Kintamani, Kabupaten Bangli, Bali 80652","Buahan, Kec. Kintamani, Kabupaten Bangli",BALI,80652.0,Indonesia,83115655153.0,,,-8.2852116,115.3864635,https://maps.google.com/?cid=0x0:0xb80eda7e5d5eb756,
restaurant,restaurant,D’TAMAN CABIN,"Jl. Kedisan, Batur Tengah, Kec. Kintamani, Kabupaten Bangli, Bali 80652","Batur Tengah, Kec. Kintamani, Kabupaten Bangli",BALI,80652.0,Indonesia,81238503586.0,,,-8.284168,115.3818961,https://maps.google.com/?cid=0x0:0x631363cc3ce5d640,
restaurant,restaurant,Villa Kedisan Lake View Kintamani,"Jl. Kedisan No.88, Kedisan, Kec. Kintamani, Kabupaten Bangli, Bali 80652","Kedisan, Kec. Kintamani, Kabupaten Bangli",BALI,80652.0,Indonesia,8123978107.0,,,-8.2797775,115.3829113,https://maps.google.com/?cid=0x0:0x642d5504b4f24a7e,
restaurant,restaurant,Double U Camp and Villa,"P9CJ+6CW, Jl. Trunyan, Kedisan, Kec. Kintamani, Kabupaten Bangli, Bali 80652","Jl. Trunyan, Kedisan, Kec. Kintamani, Kabupaten Bangli",BALI,80652.0,Indonesia,81339451037.0,,,-8.2793252,115.3811331,https://maps.google.com/?cid=0x0:0xccb2a5678126b637,
restaurant,restaurant,Cloud Hills Glamping by Bukit Vista,"P98J+6J5, Jl. Windu Sara, Kedisan, Kec. Kintamani, Kabupaten Bangli, Bali 80652","Jl. Windu Sara, Kedisan, Kec. Kintamani, Kabupaten Bangli",BALI,80652.0,Indonesia,,,,-8.284462,115.3816153,https://maps.google.com/?cid=0x0:0xf9e0f5b08f95070e,
restaurant,restaurant,Samuh Camp,"Jl. Kedisan No.80652, Kedisan, Kec. Kintamani, Kabupaten Bangli, Bali 80652","Kedisan, Kec. Kintamani, Kabupaten Bangli",BALI,80652.0,Indonesia,81337354401.0,,,-8.2835,115.379475,https://maps.google.com/?cid=0x0:0x89c44e84185fad7d,
restaurant,restaurant,De Villas KUBU SANDAN,"P9CJ+4C4, Jl. Trunyan, Kedisan, Kec. Kintamani, Kabupaten Bangli, Bali 80652","Jl. Trunyan, Kedisan, Kec. Kintamani, Kabupaten Bangli",BALI,80652.0,Indonesia,81338488682.0,,,-8.2797374,115.3810712,https://maps.google.com/?cid=0x0:0xedd49c267ae5840d,
restaurant,restaurant,Buahan sweet glamping,"Buahan, Kec. Kintamani, Kabupaten Bangli, Bali 80652","Kec. Kintamani, Kabupaten Bangli",BALI,80652.0,Indonesia,88297047983.0,,,-8.287039,115.3920605,https://maps.google.com/?cid=0x0:0x20a6cfba481362c0,
restaurant,restaurant,Gn. Batur,"Batur Sel., Kec. Kintamani, Kabupaten Bangli, Bali","Kabupaten Bangli, Bali",BALI,,Indonesia,,,,-8.2401299,115.3774944,https://maps.google.com/?cid=0x0:0xd38045afa18670b4,
restaurant,Toko Bebas Bea,Bandara Internasional I Gusti Ngurah Rai (DPS),"Bandara International I Gusti Ngurah Rai, Kabupaten Badung, Bali 80362",Kabupaten Badung,BALI,80362.0,Indonesia,85166911003.0,,,-8.7469933,115.1681655,https://maps.google.com/?cid=0x0:0xdf71da6ddd7bcc1f,
restaurant,Indonesia,Mujair Nyat-Nyat Pak Bagong,"Jl. Tirta Geduh, Bebalang, Kec. Bangli, Kabupaten Bangli, Bali 80614","Bebalang, Kec. Bangli, Kabupaten Bangli",BALI,80614.0,Indonesia,81337154900.0,,,-8.4666418,115.3505994,https://maps.google.com/?cid=0x0:0x4833291fef99cd53,
restaurant,Nasi,Waroeng Bli Tantra - LaWang Jogja,"Desa Penglipuran BR, Jl. Penglipuran Angkul / Rumah No.6, Kubu, Kec. Bangli, Bali","Kabupaten Bangli, Bali",BALI,,Indonesia,8119890188.0,,,-8.4208079,115.3592515,https://maps.google.com/?cid=0x0:0x393c0902cdca540,
restaurant,Restoran,RM. MAKAN CITRA RASA BANGLI,"Jl. Muhamad Hatta No.69, Bebalang, Kec. Bangli, Kabupaten Bangli, Bali 80614","Bebalang, Kec. Bangli, Kabupaten Bangli",BALI,80614.0,Indonesia,3665501735.0,,,-8.4628843,115.3508043,https://maps.google.com/?cid=0x0:0x8993b259e7dfb196,
restaurant,Kafe,Ritatkala Cafe,"P8RQ+92C, Jl. Raya Kintamani, Batur Sel., Kec. Kintamani, Kabupaten Bangli, Bali 80652","Jl. Raya Kintamani, Batur Sel., Kec. Kintamani, Kabupaten Bangli",BALI,80652.0,Indonesia,,,,-8.2564831,115.3365631,https://maps.google.com/?cid=0x0:0x9927f29e7f16788e,
restaurant,Restoran,Wr. Babi Guling Me Sepia,"H9P7+X7V, Jl. Veteran, Banjar Kayang, Kec. Bangli, Kabupaten Bangli, Bali 80661","Jl. Veteran, Banjar Kayang, Kec. Bangli, Kabupaten Bangli",BALI,80661.0,Indonesia,8123647101.0,,,-8.4125229,115.3631577,https://maps.google.com/?cid=0x0:0x99e4e7273e070506,
restaurant,Rumah Makan,warung baling baling,"Jl. Raya Penelokan, Batur Tengah, Kec. Kintamani, Kabupaten Bangli, Bali 80652","Batur Tengah, Kec. Kintamani, Kabupaten Bangli",BALI,80652.0,Indonesia,81803190440.0,,,-8.281388,115.3622481,https://maps.google.com/?cid=0x0:0xd056d326a52176af,
restaurant,Restoran,Warung Resto Kintamani,"Jalan Raya, Kintamani, Bangli Regency, Bali 80652","Kintamani, Bangli Regency",BALI,80652.0,Indonesia,81239164822.0,,,-8.2236121,115.324266,https://maps.google.com/?cid=0x0:0x903bb27667c41df7,
restaurant,Nasi,Warung Bu Rumi,"H9H5+5FH, Unnamed Road, Kubu, Bangli, Bangli Regency, Bali 80661","Unnamed Road, Kubu, Bangli, Bangli Regency",BALI,80661.0,Indonesia,81339425338.0,,,-8.422065,115.3587352,https://maps.google.com/?cid=0x0:0xd59c3d2a02d919c7,
restaurant,restaurant,Bali 80612,"Kabupaten Bangli, Bali","Kabupaten Bangli, Bali",BALI,,Indonesia,,,,-8.4198291,115.3696844,https://maps.google.com/?cid=0x0:0x1c00c5eb6016bf20,
restaurant,Nasi,Cafe Kebun Penglipuran,"Di Areal Hutan Bambu Penglipuran, Jl. Penglipuran, Kubu, Kec. Bangli, Kabupaten Bangli, Bali 80611","Jl. Penglipuran, Kubu, Kec. Bangli, Kabupaten Bangli",BALI,80611.0,Indonesia,82247580441.0,,,-8.4183135,115.3618733,https://maps.google.com/?cid=0x0:0xca40293642793bb,
restaurant,Restoran,Warung Makan Penglipuran,"H9G5+XV3, Jl. Penglipuran, Kubu, Kec. Bangli, Kabupaten Bangli, Bali 80611","Jl. Penglipuran, Kubu, Kec. Bangli, Kabupaten Bangli",BALI,80611.0,Indonesia,82236640487.0,,,-8.4250174,115.3580037,https://maps.google.com/?cid=0x0:0x6f6af285e90a2a93,
restaurant,Restoran,Bamboo Cafe,"Jl. Penglipuran, Kubu, Kec. Bangli, Kabupaten Bangli, Bali 80661","Kubu, Kec. Bangli, Kabupaten Bangli",BALI,80661.0,Indonesia,82144543439.0,,,-8.4189443,115.3602731,https://maps.google.com/?cid=0x0:0x96a5c1006fe19096,
restaurant,Restoran,Blessing Restaurant,"Goa Raja Waterfall, Jehem, Kec. Tembuku, Kabupaten Bangli, Bali 80671","Jehem, Kec. Tembuku, Kabupaten Bangli",BALI,80671.0,Indonesia,81327875558.0,,,-8.4405592,115.3744186,https://maps.google.com/?cid=0x0:0x4ca3c7ece1f78661,
restaurant,Kafe,Dijumah Cafe Bali,"Jl. Nusantara No.96, Cempaga, Kec. Bangli, Kabupaten Bangli, Bali 80613","Cempaga, Kec. Bangli, Kabupaten Bangli",BALI,80613.0,Indonesia,87861753335.0,,,-8.4435263,115.3561128,https://maps.google.com/?cid=0x0:0x89889d12514ff72b,
restaurant,Nasi,Desa traditional penglipuran,"Jl. Penglipuran, Kubu, Kec. Bangli, Kabupaten Bangli, Bali 80661","Kubu, Kec. Bangli, Kabupaten Bangli",BALI,80661.0,Indonesia,81353488002.0,,,-8.4212366,115.3602782,https://maps.google.com/?cid=0x0:0x89328c677fe6e1b9,
restaurant,Indonesia,Warung Babi Guling Ibu Desek Putu,"H9M7+X6X, Jl. Nusantara, Kayubihi, Kec. Bangli, Kabupaten Bangli, Bali 80661","Jl. Nusantara, Kayubihi, Kec. Bangli, Kabupaten Bangli",BALI,80661.0,Indonesia,,,,-8.4150238,115.3631089,https://maps.google.com/?cid=0x0:0xca6180a40391214d,
restaurant,Restoran,UUMA ( eatery  playground ),"Jl. Tirta Mumbul, Bebalang, Kec. Bangli, Kabupaten Bangli, Bali 80614","Bebalang, Kec. Bangli, Kabupaten Bangli",BALI,80614.0,Indonesia,82340778768.0,,,-8.4681362,115.3465158,https://maps.google.com/?cid=0x0:0x2d44a1bf1e29542c,
restaurant,Restoran,D'Carik Tibumana,"Jl. Setra Agung, Apuan, Kec. Susut, Kabupaten Bangli, Bali 80661","Apuan, Kec. Susut, Kabupaten Bangli",BALI,80661.0,Indonesia,85190088810.0,,,-8.5066385,115.3312319,https://maps.google.com/?cid=0x0:0xcdcf94add0e81066,
restaurant,Prasmanan,Grand Puncak Sari Restaurant (Kintamani),"JL. Raya Penelokan, Kintamani, Batur Tengah, Kec. Bangli, Kabupaten Bangli, Bali 80652","Kintamani, Batur Tengah, Kec. Bangli, Kabupaten Bangli",BALI,80652.0,Indonesia,,,,-8.2728057,115.3474123,https://maps.google.com/?cid=0x0:0x16a599d1badeca2c,
restaurant,Nasi,Waroeng Bli Tantra - LaWang Jogja,"Desa Penglipuran BR, Jl. Penglipuran Angkul / Rumah No.6, Kubu, Kec. Bangli, Bali","Kabupaten Bangli, Bali",BALI,,Indonesia,8119890188.0,,,-8.4208079,115.3592515,https://maps.google.com/?cid=0x0:0x393c0902cdca540,
restaurant,Nasi,Warung Bu Rumi,"H9H5+5FH, Unnamed Road, Kubu, Bangli, Bangli Regency, Bali 80661","Unnamed Road, Kubu, Bangli, Bangli Regency",BALI,80661.0,Indonesia,81339425338.0,,,-8.422065,115.3587352,https://maps.google.com/?cid=0x0:0xd59c3d2a02d919c7,
restaurant,Restoran,Wr. Babi Guling Me Sepia,"H9P7+X7V, Jl. Veteran, Banjar Kayang, Kec. Bangli, Kabupaten Bangli, Bali 80661","Jl. Veteran, Banjar Kayang, Kec. Bangli, Kabupaten Bangli",BALI,80661.0,Indonesia,8123647101.0,,,-8.4125229,115.3631577,https://maps.google.com/?cid=0x0:0x99e4e7273e070506,
restaurant,Hotel bintang 1,Floating Restaurant Kedisan,"P99P+FWX, Jl. Trunyan, Songan B, Kec. Kintamani, Kabupaten Bangli, Bali 80652","Jl. Trunyan, Songan B, Kec. Kintamani, Kabupaten Bangli",BALI,80652.0,Indonesia,81337755411.0,,,-8.2812724,115.3873697,https://maps.google.com/?cid=0x0:0x9ce150fe52c769f,
restaurant,Restoran,RM. MAKAN CITRA RASA BANGLI,"Jl. Muhamad Hatta No.69, Bebalang, Kec. Bangli, Kabupaten Bangli, Bali 80614","Bebalang, Kec. Bangli, Kabupaten Bangli",BALI,80614.0,Indonesia,3665501735.0,,,-8.4628843,115.3508043,https://maps.google.com/?cid=0x0:0x8993b259e7dfb196,
restaurant,Prasmanan,"sari mountain View Restaurant, Bar and Coffee","Jl. Raya Penelokan 888 Br Masem, Batur Selatan, Kintamani, Batur Sel., Kec. Kintamani, Kabupaten Bangli, Bali 80652","Batur Selatan, Kintamani, Batur Sel., Kec. Kintamani, Kabupaten Bangli",BALI,80652.0,Indonesia,87753498058.0,,,-8.2675208,115.3420161,https://maps.google.com/?cid=0x0:0xe38bc208a2fa124,
restaurant,restaurant,Resto Apung Kedisan,"Jl. Raya Kedisan, Kintamani, Songan B, Kec. Bangli, Kabupaten Bangli, Bali 80652","Kintamani, Songan B, Kec. Bangli, Kabupaten Bangli",BALI,80652.0,Indonesia,81337755411.0,,,-8.2808711,115.3878302,https://maps.google.com/?cid=0x0:0x774f233f9b016610,
restaurant,restaurant,Yucabin Kintamani - for Cool Adults only,"Jl. Kedisan No.88, Kedisan, Kec. Kintamani, Kabupaten Bangli, Bali 80652","Kedisan, Kec. Kintamani, Kabupaten Bangli",BALI,80652.0,Indonesia,8118889589.0,,,-8.27995,115.3831389,https://maps.google.com/?cid=0x0:0x92413d78f0774f69,
restaurant,restaurant,Starlake Villa n Glamping,"Jl. Trunyan, Buahan, Kec. Kintamani, Kabupaten Bangli, Bali 80652","Buahan, Kec. Kintamani, Kabupaten Bangli",BALI,80652.0,Indonesia,83115655153.0,,,-8.2852116,115.3864635,https://maps.google.com/?cid=0x0:0xb80eda7e5d5eb756,
restaurant,restaurant,D’TAMAN CABIN,"Jl. Kedisan, Batur Tengah, Kec. Kintamani, Kabupaten Bangli, Bali 80652","Batur Tengah, Kec. Kintamani, Kabupaten Bangli",BALI,80652.0,Indonesia,81238503586.0,,,-8.284168,115.3818961,https://maps.google.com/?cid=0x0:0x631363cc3ce5d640,
restaurant,restaurant,Villa Kedisan Lake View Kintamani,"Jl. Kedisan No.88, Kedisan, Kec. Kintamani, Kabupaten Bangli, Bali 80652","Kedisan, Kec. Kintamani, Kabupaten Bangli",BALI,80652.0,Indonesia,8123978107.0,,,-8.2797775,115.3829113,https://maps.google.com/?cid=0x0:0x642d5504b4f24a7e,
restaurant,restaurant,Double U Camp and Villa,"P9CJ+6CW, Jl. Trunyan, Kedisan, Kec. Kintamani, Kabupaten Bangli, Bali 80652","Jl. Trunyan, Kedisan, Kec. Kintamani, Kabupaten Bangli",BALI,80652.0,Indonesia,81339451037.0,,,-8.2793252,115.3811331,https://maps.google.com/?cid=0x0:0xccb2a5678126b637,
restaurant,restaurant,Cloud Hills Glamping by Bukit Vista,"P98J+6J5, Jl. Windu Sara, Kedisan, Kec. Kintamani, Kabupaten Bangli, Bali 80652","Jl. Windu Sara, Kedisan, Kec. Kintamani, Kabupaten Bangli",BALI,80652.0,Indonesia,,,,-8.284462,115.3816153,https://maps.google.com/?cid=0x0:0xf9e0f5b08f95070e,
restaurant,restaurant,Samuh Camp,"Jl. Kedisan No.80652, Kedisan, Kec. Kintamani, Kabupaten Bangli, Bali 80652","Kedisan, Kec. Kintamani, Kabupaten Bangli",BALI,80652.0,Indonesia,81337354401.0,,,-8.2835,115.379475,https://maps.google.com/?cid=0x0:0x89c44e84185fad7d,
restaurant,restaurant,De Villas KUBU SANDAN,"P9CJ+4C4, Jl. Trunyan, Kedisan, Kec. Kintamani, Kabupaten Bangli, Bali 80652","Jl. Trunyan, Kedisan, Kec. Kintamani, Kabupaten Bangli",BALI,80652.0,Indonesia,81338488682.0,,,-8.2797374,115.3810712,https://maps.google.com/?cid=0x0:0xedd49c267ae5840d,
restaurant,restaurant,Buahan sweet glamping,"Buahan, Kec. Kintamani, Kabupaten Bangli, Bali 80652","Kec. Kintamani, Kabupaten Bangli",BALI,80652.0,Indonesia,88297047983.0,,,-8.287039,115.3920605,https://maps.google.com/?cid=0x0:0x20a6cfba481362c0,
restaurant,restaurant,Gn. Batur,"Batur Sel., Kec. Kintamani, Kabupaten Bangli, Bali","Kabupaten Bangli, Bali",BALI,,Indonesia,,,,-8.2401299,115.3774944,https://maps.google.com/?cid=0x0:0xd38045afa18670b4,
restaurant,Toko Bebas Bea,Bandara Internasional I Gusti Ngurah Rai (DPS),"Bandara International I Gusti Ngurah Rai, Kabupaten Badung, Bali 80362",Kabupaten Badung,BALI,80362.0,Indonesia,85166911003.0,,,-8.7469933,115.1681655,https://maps.google.com/?cid=0x0:0xdf71da6ddd7bcc1f,
restaurant,restaurant,Bali 80613,"Kec. Bangli, Kabupaten Bangli, Bali","Kabupaten Bangli, Bali",BALI,,Indonesia,,,,-8.4399718,115.3696844,https://maps.google.com/?cid=0x0:0x1c00c5eb6016bf30,
restaurant,Kafe,Dijumah Cafe Bali,"Jl. Nusantara No.96, Cempaga, Kec. Bangli, Kabupaten Bangli, Bali 80613","Cempaga, Kec. Bangli, Kabupaten Bangli",BALI,80613.0,Indonesia,87861753335.0,,,-8.4435263,115.3561128,https://maps.google.com/?cid=0x0:0x89889d12514ff72b,
restaurant,Indonesia,Babi Guling Pande Bangli,"Jl. Erlangga No.16, Cempaga, Kec. Bangli, Kabupaten Bangli, Bali 80613","Cempaga, Kec. Bangli, Kabupaten Bangli",BALI,80613.0,Indonesia,,,,-8.4447678,115.3578859,https://maps.google.com/?cid=0x0:0xbcd57bfbfec39700,
restaurant,Nasi,Penglipuran Kedai Jongor,"Jl. Nusantara, Kubu, Kec. Bangli, Kabupaten Bangli, Bali 80613","Kubu, Kec. Bangli, Kabupaten Bangli",BALI,80613.0,Indonesia,85792631682.0,,,-8.4215488,115.364289,https://maps.google.com/?cid=0x0:0x9a4ce04861926118,
restaurant,Restoran,Warung Makan Penglipuran,"H9G5+XV3, Jl. Penglipuran, Kubu, Kec. Bangli, Kabupaten Bangli, Bali 80611","Jl. Penglipuran, Kubu, Kec. Bangli, Kabupaten Bangli",BALI,80611.0,Indonesia,82236640487.0,,,-8.4250174,115.3580037,https://maps.google.com/?cid=0x0:0x6f6af285e90a2a93,
restaurant,restaurant,Bangli Dogen,"Jl. Erlangga No.V/10, Cempaga, Kec. Bangli, Kabupaten Bangli, Bali 80613","Cempaga, Kec. Bangli, Kabupaten Bangli",BALI,80613.0,Indonesia,81225696866.0,,,-8.4436937,115.3641232,https://maps.google.com/?cid=0x0:0x9906828ddef18659,
restaurant,Restoran,Bamboo Cafe,"Jl. Penglipuran, Kubu, Kec. Bangli, Kabupaten Bangli, Bali 80661","Kubu, Kec. Bangli, Kabupaten Bangli",BALI,80661.0,Indonesia,82144543439.0,,,-8.4189443,115.3602731,https://maps.google.com/?cid=0x0:0x96a5c1006fe19096,
restaurant,Nasi,Warung CINTA RASA Mujair Khas Songan,"H925+8CM, Jl. Kapten Mudita, Cempaga, Kec. Bangli, Kabupaten Bangli, Bali 80614","Jl. Kapten Mudita, Cempaga, Kec. Bangli, Kabupaten Bangli",BALI,80614.0,Indonesia,81805339111.0,,,-8.4491612,115.3585353,https://maps.google.com/?cid=0x0:0x7e0449252a7fec9,
restaurant,Restoran,D'Carik Tibumana,"Jl. Setra Agung, Apuan, Kec. Susut, Kabupaten Bangli, Bali 80661","Apuan, Kec. Susut, Kabupaten Bangli",BALI,80661.0,Indonesia,85190088810.0,,,-8.5066385,115.3312319,https://maps.google.com/?cid=0x0:0xcdcf94add0e81066,
restaurant,Restoran,Warung Makan Soka,"H944+6F3, Jl. Nusantara, Cempaga, Kec. Bangli, Kabupaten Bangli, Bali 80613","Jl. Nusantara, Cempaga, Kec. Bangli, Kabupaten Bangli",BALI,80613.0,Indonesia,85238427535.0,,,-8.4444965,115.3561722,https://maps.google.com/?cid=0x0:0x862e2b73baec93d0,
restaurant,Indonesia,Warung Makan Mujair Nyat-Nyat Matsya Kencana,"Jl. Kesumayudha, Kawan, Kec. Bangli, Kabupaten Bangli, Bali","Kabupaten Bangli, Bali",BALI,,Indonesia,85238413024.0,,,-8.4529051,115.349528,https://maps.google.com/?cid=0x0:0xd5f3a9c18178189,
restaurant,Prasmanan,Grand Puncak Sari Restaurant (Kintamani),"JL. Raya Penelokan, Kintamani, Batur Tengah, Kec. Bangli, Kabupaten Bangli, Bali 80652","Kintamani, Batur Tengah, Kec. Bangli, Kabupaten Bangli",BALI,80652.0,Indonesia,,,,-8.2728057,115.3474123,https://maps.google.com/?cid=0x0:0x16a599d1badeca2c,
restaurant,Nasi,Waroeng Bli Tantra - LaWang Jogja,"Desa Penglipuran BR, Jl. Penglipuran Angkul / Rumah No.6, Kubu, Kec. Bangli, Bali","Kabupaten Bangli, Bali",BALI,,Indonesia,8119890188.0,,,-8.4208079,115.3592515,https://maps.google.com/?cid=0x0:0x393c0902cdca540,
restaurant,Restoran,RM. MAKAN CITRA RASA BANGLI,"Jl. Muhamad Hatta No.69, Bebalang, Kec. Bangli, Kabupaten Bangli, Bali 80614","Bebalang, Kec. Bangli, Kabupaten Bangli",BALI,80614.0,Indonesia,3665501735.0,,,-8.4628843,115.3508043,https://maps.google.com/?cid=0x0:0x8993b259e7dfb196,
restaurant,Rumah Makan,Bangli Meat  Grill,"Jl. Lettu Anom No.15, Kawan, Kec. Bangli, Kabupaten Bangli, Bali 80613","Kawan, Kec. Bangli, Kabupaten Bangli",BALI,80613.0,Indonesia,82235158869.0,,,-8.4546869,115.3539581,https://maps.google.com/?cid=0x0:0xd5e1d2e18b207a0d,
restaurant,Rumah Makan,Betutu Keren Arda Yusa,"Jl. Serma Meranggi No.3, Kawan, Kec. Bangli, Kabupaten Bangli, Bali 80614","Kawan, Kec. Bangli, Kabupaten Bangli",BALI,80614.0,Indonesia,81388003115.0,,,-8.4558431,115.3556025,https://maps.google.com/?cid=0x0:0xdcea1556f231c888,
restaurant,Indonesia,Mujair Nyat-Nyat Pak Bagong,"Jl. Tirta Geduh, Bebalang, Kec. Bangli, Kabupaten Bangli, Bali 80614","Bebalang, Kec. Bangli, Kabupaten Bangli",BALI,80614.0,Indonesia,81337154900.0,,,-8.4666418,115.3505994,https://maps.google.com/?cid=0x0:0x4833291fef99cd53,
restaurant,Bubble Tea,Manja Boba Cafe,"Jl. Nusantara No.66, Cempaga, Kec. Bangli, Kabupaten Bangli, Bali 80614","Cempaga, Kec. Bangli, Kabupaten Bangli",BALI,80614.0,Indonesia,87860095878.0,,,-8.4472825,115.3562988,https://maps.google.com/?cid=0x0:0xf6d1824dec1e4bf8,
restaurant,Indonesia,Warung Babi Guling Ibu Desek Putu,"H9M7+X6X, Jl. Nusantara, Kayubihi, Kec. Bangli, Kabupaten Bangli, Bali 80661","Jl. Nusantara, Kayubihi, Kec. Bangli, Kabupaten Bangli",BALI,80661.0,Indonesia,,,,-8.4150238,115.3631089,https://maps.google.com/?cid=0x0:0xca6180a40391214d,
restaurant,Hotel bintang 3,LakeView Bali,"P988+M4R, Jl. Raya Penelokan, Batur Tengah, Kec. Kintamani, Kabupaten Bangli, Bali 80652","Jl. Raya Penelokan, Batur Tengah, Kec. Kintamani, Kabupaten Bangli",BALI,80652.0,Indonesia,36652525.0,,,-8.2832737,115.3652745,https://maps.google.com/?cid=0x0:0x2af725f7d128d8ad,
restaurant,Restoran,INFINITY RIVER club  resto,"Goa Raja Waterfall, Jehem, Kec. Tembuku, Kabupaten Bangli, Bali 80671","Jehem, Kec. Tembuku, Kabupaten Bangli",BALI,80671.0,Indonesia,,,,-8.4407065,115.3743286,https://maps.google.com/?cid=0x0:0x69b014de91e3caa9,
restaurant,Rumah Makan,Warung Fortuna,"Jl. Kapten Mudita No.208, Cempaga, Kec. Bangli, Kabupaten Bangli, Bali 80614","Cempaga, Kec. Bangli, Kabupaten Bangli",BALI,80614.0,Indonesia,85237444666.0,,,-8.4480108,115.3587055,https://maps.google.com/?cid=0x0:0x10d6624b472a7701,
restaurant,Pemasok makanan dan minuman katering,Katring Sai Mai,"H9C8+3FP, Kubu, Kec. Bangli, Kabupaten Bangli, Bali 80613","Kubu, Kec. Bangli, Kabupaten Bangli",BALI,80613.0,Indonesia,81338609030.0,,,-8.4297899,115.3662113,https://maps.google.com/?cid=0x0:0xa91086251dbedeb,
restaurant,Bali,Babi Guling Panwar Bangli,"H934+2G3, Jl. Nusantara, Cempaga, Kec. Bangli, Kabupaten Bangli, Bali 80613","Jl. Nusantara, Cempaga, Kec. Bangli, Kabupaten Bangli",BALI,80613.0,Indonesia,85737427956.0,,,-8.4474904,115.3563025,https://maps.google.com/?cid=0x0:0x3bb41920145783ca,
restaurant,Nasi,Cafe Kebun Penglipuran,"Di Areal Hutan Bambu Penglipuran, Jl. Penglipuran, Kubu, Kec. Bangli, Kabupaten Bangli, Bali 80611","Jl. Penglipuran, Kubu, Kec. Bangli, Kabupaten Bangli",BALI,80611.0,Indonesia,82247580441.0,,,-8.4183135,115.3618733,https://maps.google.com/?cid=0x0:0xca40293642793bb,
restaurant,Restoran,UUMA ( eatery  playground ),"Jl. Tirta Mumbul, Bebalang, Kec. Bangli, Kabupaten Bangli, Bali 80614","Bebalang, Kec. Bangli, Kabupaten Bangli",BALI,80614.0,Indonesia,82340778768.0,,,-8.4681362,115.3465158,https://maps.google.com/?cid=0x0:0x2d44a1bf1e29542c,
restaurant,Indonesia,Warung Makan Permana Sari,"Jl. Nusantara, Kubu, Kec. Bangli, Kabupaten Bangli, Bali 80613","Kubu, Kec. Bangli, Kabupaten Bangli",BALI,80613.0,Indonesia,81353382526.0,,,-8.4326645,115.3627001,https://maps.google.com/?cid=0x0:0x250e6a36c7c2c4a1,
restaurant,restaurant,Bangli,"Kawan, Kec. Bangli, Kabupaten Bangli, Bali","Kabupaten Bangli, Bali",BALI,,Indonesia,,,,-8.454303,115.354897,https://maps.google.com/?cid=0x0:0x4030bfbca7d2c10,
restaurant,Restoran,UUMA ( eatery  playground ),"Jl. Tirta Mumbul, Bebalang, Kec. Bangli, Kabupaten Bangli, Bali 80614","Bebalang, Kec. Bangli, Kabupaten Bangli",BALI,80614.0,Indonesia,82340778768.0,,,-8.4681362,115.3465158,https://maps.google.com/?cid=0x0:0x2d44a1bf1e29542c,
restaurant,Rumah Makan,Betutu Keren Arda Yusa,"Jl. Serma Meranggi No.3, Kawan, Kec. Bangli, Kabupaten Bangli, Bali 80614","Kawan, Kec. Bangli, Kabupaten Bangli",BALI,80614.0,Indonesia,81388003115.0,,,-8.4558431,115.3556025,https://maps.google.com/?cid=0x0:0xdcea1556f231c888,
restaurant,Kafe,Dijumah Cafe Bali,"Jl. Nusantara No.96, Cempaga, Kec. Bangli, Kabupaten Bangli, Bali 80613","Cempaga, Kec. Bangli, Kabupaten Bangli",BALI,80613.0,Indonesia,87861753335.0,,,-8.4435263,115.3561128,https://maps.google.com/?cid=0x0:0x89889d12514ff72b,
restaurant,Restoran,D'Carik Tibumana,"Jl. Setra Agung, Apuan, Kec. Susut, Kabupaten Bangli, Bali 80661","Apuan, Kec. Susut, Kabupaten Bangli",BALI,80661.0,Indonesia,85190088810.0,,,-8.5066385,115.3312319,https://maps.google.com/?cid=0x0:0xcdcf94add0e81066,
restaurant,Restoran,Blessing Restaurant,"Goa Raja Waterfall, Jehem, Kec. Tembuku, Kabupaten Bangli, Bali 80671","Jehem, Kec. Tembuku, Kabupaten Bangli",BALI,80671.0,Indonesia,81327875558.0,,,-8.4405592,115.3744186,https://maps.google.com/?cid=0x0:0x4ca3c7ece1f78661,
restaurant,Indonesia,Warung Midori nyat²,"Jl. Merdeka No.102, Kawan, Kec. Bangli, Kabupaten Bangli, Bali 80614","Kawan, Kec. Bangli, Kabupaten Bangli",BALI,80614.0,Indonesia,81933038314.0,,,-8.4648686,115.3542108,https://maps.google.com/?cid=0x0:0xe69704775f18f3a6,
restaurant,Nasi,Warung Pojok Lc Subak Aya Bangli,"Jl. Tirta Pegat, Kawan, Kec. Bangli, Kabupaten Bangli, Bali 80614","Kawan, Kec. Bangli, Kabupaten Bangli",BALI,80614.0,Indonesia,87866328183.0,,,-8.4600942,115.3512403,https://maps.google.com/?cid=0x0:0x211c87560e962a4d,
restaurant,restaurant,Warung Baduy,"Gang 1, Sanding, Kecamatan Bangli, Kabupaten Bangli, Bali 80614","Sanding, Kecamatan Bangli, Kabupaten Bangli",BALI,80614.0,Indonesia,82220373730.0,,,-6.4230429,106.9066698,https://maps.google.com/?cid=0x0:0x8eca0ca3464b3ccf,
restaurant,Kedai Kopi,NUGI BALI,"Jl. Tirta Selukat I, Bebalang, Kec. Bangli, Kabupaten Bangli, Bali 80614","Bebalang, Kec. Bangli, Kabupaten Bangli",BALI,80614.0,Indonesia,82145421106.0,,,-8.4663646,115.350125,https://maps.google.com/?cid=0x0:0x3e458d94f204718b,
restaurant,Restoran,Bamboo Cafe,"Jl. Penglipuran, Kubu, Kec. Bangli, Kabupaten Bangli, Bali 80661","Kubu, Kec. Bangli, Kabupaten Bangli",BALI,80661.0,Indonesia,82144543439.0,,,-8.4189443,115.3602731,https://maps.google.com/?cid=0x0:0x96a5c1006fe19096,
restaurant,Balai Pertemuan Desa,Desa Wisata Guliang Kangin,"F9J3+3RH, Br. Guliang Kangin, Tamanbali, Taman Bali, Bangli, Bangli Regency, Bali 80614","Br. Guliang Kangin, Tamanbali, Taman Bali, Bangli, Bangli Regency",BALI,80614.0,Indonesia,82247374420.0,,,-8.5198074,115.3546051,https://maps.google.com/?cid=0x0:0x65dbfd65571dcdd0,
restaurant,Nasi,Waroeng Bli Tantra - LaWang Jogja,"Desa Penglipuran BR, Jl. Penglipuran Angkul / Rumah No.6, Kubu, Kec. Bangli, Bali","Kabupaten Bangli, Bali",BALI,,Indonesia,8119890188.0,,,-8.4208079,115.3592515,https://maps.google.com/?cid=0x0:0x393c0902cdca540,
restaurant,Jawa,Warung Bangli,"G9W3+28W, Jl. Brigjen Ngurah Rai, Kawan, Kec. Bangli, Kabupaten Bangli, Bali 80613","Jl. Brigjen Ngurah Rai, Kawan, Kec. Bangli, Kabupaten Bangli",BALI,80613.0,Indonesia,87761678684.0,,,-8.4548815,115.3533326,https://maps.google.com/?cid=0x0:0x79c61b5753783e34,
restaurant,Nasi,Warung Bu Rumi,"H9H5+5FH, Unnamed Road, Kubu, Bangli, Bangli Regency, Bali 80661","Unnamed Road, Kubu, Bangli, Bangli Regency",BALI,80661.0,Indonesia,81339425338.0,,,-8.422065,115.3587352,https://maps.google.com/?cid=0x0:0xd59c3d2a02d919c7,
restaurant,Prasmanan,Grand Puncak Sari Restaurant (Kintamani),"JL. Raya Penelokan, Kintamani, Batur Tengah, Kec. Bangli, Kabupaten Bangli, Bali 80652","Kintamani, Batur Tengah, Kec. Bangli, Kabupaten Bangli",BALI,80652.0,Indonesia,,,,-8.2728057,115.3474123,https://maps.google.com/?cid=0x0:0x16a599d1badeca2c,
restaurant,Rumah Makan,Warung Kaja Bangli,"Utara RS. BMC, Jl. Tirta Giri Kutri, Kawan, Kec. Bangli, Kabupaten Bangli, Bali 80614","Jl. Tirta Giri Kutri, Kawan, Kec. Bangli, Kabupaten Bangli",BALI,80614.0,Indonesia,,,,-8.4651177,115.3516393,https://maps.google.com/?cid=0x0:0x1ca288b22bf6b7e6,
restaurant,Prasmanan,"sari mountain View Restaurant, Bar and Coffee","Jl. Raya Penelokan 888 Br Masem, Batur Selatan, Kintamani, Batur Sel., Kec. Kintamani, Kabupaten Bangli, Bali 80652","Batur Selatan, Kintamani, Batur Sel., Kec. Kintamani, Kabupaten Bangli",BALI,80652.0,Indonesia,87753498058.0,,,-8.2675208,115.3420161,https://maps.google.com/?cid=0x0:0xe38bc208a2fa124,
restaurant,Hotel bintang 1,Floating Restaurant Kedisan,"P99P+FWX, Jl. Trunyan, Songan B, Kec. Kintamani, Kabupaten Bangli, Bali 80652","Jl. Trunyan, Songan B, Kec. Kintamani, Kabupaten Bangli",BALI,80652.0,Indonesia,81337755411.0,,,-8.2812724,115.3873697,https://maps.google.com/?cid=0x0:0x9ce150fe52c769f,
restaurant,Rumah Makan,Bangli Meat  Grill,"Jl. Lettu Anom No.15, Kawan, Kec. Bangli, Kabupaten Bangli, Bali 80613","Kawan, Kec. Bangli, Kabupaten Bangli",BALI,80613.0,Indonesia,82235158869.0,,,-8.4546869,115.3539581,https://maps.google.com/?cid=0x0:0xd5e1d2e18b207a0d,
restaurant,Indonesia,Mujair Nyat-Nyat Pak Bagong,"Jl. Tirta Geduh, Bebalang, Kec. Bangli, Kabupaten Bangli, Bali 80614","Bebalang, Kec. Bangli, Kabupaten Bangli",BALI,80614.0,Indonesia,81337154900.0,,,-8.4666418,115.3505994,https://maps.google.com/?cid=0x0:0x4833291fef99cd53,
restaurant,Indonesia,Uma Sari D'warung,"F8VJ+9J6, Apuan, Kec. Susut, Kabupaten Bangli, Bali 80661","Apuan, Kec. Susut, Kabupaten Bangli",BALI,80661.0,Indonesia,,,,-8.5065741,115.331832,https://maps.google.com/?cid=0x0:0xf915c4a45d21b0c2,
restaurant,Restoran,Bali 213,"G9W4+75Q Terminal Loka Crana, Jl. Lettu Anom, Kawan, Bangli, Bangli Regency, Bali 80614","Jl. Lettu Anom, Kawan, Bangli, Bangli Regency",BALI,80614.0,Indonesia,,,,-8.4542808,115.3554973,https://maps.google.com/?cid=0x0:0x33396cce18961150,
restaurant,Makan Siang,"Warung Makan Sari Ayu - Pak Ateng (Sate,Gulai Kambing)","Jl Lc Subak Aya, Bebalang, Kec. Bangli, Kabupaten Bangli, Bali 80614","Bebalang, Kec. Bangli, Kabupaten Bangli",BALI,80614.0,Indonesia,81338709908.0,,,-8.4662844,115.3505205,https://maps.google.com/?cid=0x0:0xac1335a41091494e,
restaurant,Indonesia,Warung Makan Mujair Nyat-Nyat Matsya Kencana,"Jl. Kesumayudha, Kawan, Kec. Bangli, Kabupaten Bangli, Bali","Kabupaten Bangli, Bali",BALI,,Indonesia,85238413024.0,,,-8.4529051,115.349528,https://maps.google.com/?cid=0x0:0xd5f3a9c18178189,
restaurant,Restoran,Warung Arjuna,"Jl. Darmawangsa, Kawan, Kec. Bangli, Kabupaten Bangli, Bali 80612","Kawan, Kec. Bangli, Kabupaten Bangli",BALI,80612.0,Indonesia,,,,-8.4514512,115.359428,https://maps.google.com/?cid=0x0:0xe9cb8c87cef72292,
restaurant,Kafe,Kedai Kami All Day Breakfast,"Jl. Kesumayudha, Kawan, Kec. Bangli, Kabupaten Bangli, Bali 80661","Kawan, Kec. Bangli, Kabupaten Bangli",BALI,80661.0,Indonesia,,,,-8.4530954,115.3487583,https://maps.google.com/?cid=0x0:0xef24d52fa8303295,
restaurant,restaurant,Bali 80652,"Kec. Kintamani, Kabupaten Bangli, Bali","Kabupaten Bangli, Bali",BALI,,Indonesia,,,,-8.2172149,115.3548713,https://maps.google.com/?cid=0x0:0x1c00c5eb6016bf60,
restaurant,Prasmanan,Grand Puncak Sari Restaurant (Kintamani),"JL. Raya Penelokan, Kintamani, Batur Tengah, Kec. Bangli, Kabupaten Bangli, Bali 80652","Kintamani, Batur Tengah, Kec. Bangli, Kabupaten Bangli",BALI,80652.0,Indonesia,,,,-8.2728057,115.3474123,https://maps.google.com/?cid=0x0:0x16a599d1badeca2c,
restaurant,Nasi,Warung Makan E-2,"Jalan Raya, Kintamani, Bangli Regency, Bali 80652","Kintamani, Bangli Regency",BALI,80652.0,Indonesia,85216565552.0,,,-8.2257266,115.3240707,https://maps.google.com/?cid=0x0:0x9d38021cc9f0ec27,
restaurant,Hotel bintang 3,LakeView Bali,"P988+M4R, Jl. Raya Penelokan, Batur Tengah, Kec. Kintamani, Kabupaten Bangli, Bali 80652","Jl. Raya Penelokan, Batur Tengah, Kec. Kintamani, Kabupaten Bangli",BALI,80652.0,Indonesia,36652525.0,,,-8.2832737,115.3652745,https://maps.google.com/?cid=0x0:0x2af725f7d128d8ad,
restaurant,Hotel bintang 1,Floating Restaurant Kedisan,"P99P+FWX, Jl. Trunyan, Songan B, Kec. Kintamani, Kabupaten Bangli, Bali 80652","Jl. Trunyan, Songan B, Kec. Kintamani, Kabupaten Bangli",BALI,80652.0,Indonesia,81337755411.0,,,-8.2812724,115.3873697,https://maps.google.com/?cid=0x0:0x9ce150fe52c769f,
restaurant,Kafe,Ritatkala Cafe,"P8RQ+92C, Jl. Raya Kintamani, Batur Sel., Kec. Kintamani, Kabupaten Bangli, Bali 80652","Jl. Raya Kintamani, Batur Sel., Kec. Kintamani, Kabupaten Bangli",BALI,80652.0,Indonesia,,,,-8.2564831,115.3365631,https://maps.google.com/?cid=0x0:0x9927f29e7f16788e,
restaurant,Restoran,Cowboy Restaurant Kintamani,"Jl. Raya Penelokan No.888, Batur Tengah, Kec. Kintamani, Kabupaten Bangli, Bali 80652","Batur Tengah, Kec. Kintamani, Kabupaten Bangli",BALI,80652.0,Indonesia,81999596999.0,,,-8.267141,115.3415641,https://maps.google.com/?cid=0x0:0xa56894e8ac4e22c,
restaurant,Prasmanan,LUNAMOON,"P8HV+WHR, Jl. Raya Penelokan, Batur Tengah, Kec. Kintamani, Kabupaten Bangli, Bali 80652","Jl. Raya Penelokan, Batur Tengah, Kec. Kintamani, Kabupaten Bangli",BALI,80652.0,Indonesia,85956348220.0,,,-8.2706286,115.344762,https://maps.google.com/?cid=0x0:0x8c36849aeb290ea9,
restaurant,Kedai Kopi,Montana Del Cafe,"P8MR+48V, Jl. Raya Penelokan No.889, Batur Sel., Kec. Kintamani, Kabupaten Bangli, Bali 80652","Jl. Raya Penelokan No.889, Batur Sel., Kec. Kintamani, Kabupaten Bangli",BALI,80652.0,Indonesia,81237236716.0,,,-8.2680071,115.3424449,https://maps.google.com/?cid=0x0:0xe93399784bf10228,
restaurant,Prasmanan,"sari mountain View Restaurant, Bar and Coffee","Jl. Raya Penelokan 888 Br Masem, Batur Selatan, Kintamani, Batur Sel., Kec. Kintamani, Kabupaten Bangli, Bali 80652","Batur Selatan, Kintamani, Batur Sel., Kec. Kintamani, Kabupaten Bangli",BALI,80652.0,Indonesia,87753498058.0,,,-8.2675208,115.3420161,https://maps.google.com/?cid=0x0:0xe38bc208a2fa124,
restaurant,Prasmanan,The Amora Bali,"Jl. Raya Penelokan No.999, Batur Tengah, Kec. Kintamani, Kabupaten Bangli, Bali 80652","Batur Tengah, Kec. Kintamani, Kabupaten Bangli",BALI,80652.0,Indonesia,81805511955.0,,,-8.2794494,115.3573777,https://maps.google.com/?cid=0x0:0x6c43e166ac0439fa,
restaurant,restaurant,Resto Apung Kedisan,"Jl. Raya Kedisan, Kintamani, Songan B, Kec. Bangli, Kabupaten Bangli, Bali 80652","Kintamani, Songan B, Kec. Bangli, Kabupaten Bangli",BALI,80652.0,Indonesia,81337755411.0,,,-8.2808711,115.3878302,https://maps.google.com/?cid=0x0:0x774f233f9b016610,
restaurant,restaurant,Yucabin Kintamani - for Cool Adults only,"Jl. Kedisan No.88, Kedisan, Kec. Kintamani, Kabupaten Bangli, Bali 80652","Kedisan, Kec. Kintamani, Kabupaten Bangli",BALI,80652.0,Indonesia,8118889589.0,,,-8.27995,115.3831389,https://maps.google.com/?cid=0x0:0x92413d78f0774f69,
restaurant,restaurant,D’TAMAN CABIN,"Jl. Kedisan, Batur Tengah, Kec. Kintamani, Kabupaten Bangli, Bali 80652","Batur Tengah, Kec. Kintamani, Kabupaten Bangli",BALI,80652.0,Indonesia,81238503586.0,,,-8.284168,115.3818961,https://maps.google.com/?cid=0x0:0x631363cc3ce5d640,
restaurant,restaurant,Starlake Villa n Glamping,"Jl. Trunyan, Buahan, Kec. Kintamani, Kabupaten Bangli, Bali 80652","Buahan, Kec. Kintamani, Kabupaten Bangli",BALI,80652.0,Indonesia,83115655153.0,,,-8.2852116,115.3864635,https://maps.google.com/?cid=0x0:0xb80eda7e5d5eb756,
restaurant,restaurant,Villa Kedisan Lake View Kintamani,"Jl. Kedisan No.88, Kedisan, Kec. Kintamani, Kabupaten Bangli, Bali 80652","Kedisan, Kec. Kintamani, Kabupaten Bangli",BALI,80652.0,Indonesia,8123978107.0,,,-8.2797775,115.3829113,https://maps.google.com/?cid=0x0:0x642d5504b4f24a7e,
restaurant,restaurant,Cloud Hills Glamping by Bukit Vista,"P98J+6J5, Jl. Windu Sara, Kedisan, Kec. Kintamani, Kabupaten Bangli, Bali 80652","Jl. Windu Sara, Kedisan, Kec. Kintamani, Kabupaten Bangli",BALI,80652.0,Indonesia,,,,-8.284462,115.3816153,https://maps.google.com/?cid=0x0:0xf9e0f5b08f95070e,
restaurant,restaurant,Double U Camp and Villa,"P9CJ+6CW, Jl. Trunyan, Kedisan, Kec. Kintamani, Kabupaten Bangli, Bali 80652","Jl. Trunyan, Kedisan, Kec. Kintamani, Kabupaten Bangli",BALI,80652.0,Indonesia,81339451037.0,,,-8.2793252,115.3811331,https://maps.google.com/?cid=0x0:0xccb2a5678126b637,
restaurant,restaurant,Samuh Camp,"Jl. Kedisan No.80652, Kedisan, Kec. Kintamani, Kabupaten Bangli, Bali 80652","Kedisan, Kec. Kintamani, Kabupaten Bangli",BALI,80652.0,Indonesia,81337354401.0,,,-8.2835,115.379475,https://maps.google.com/?cid=0x0:0x89c44e84185fad7d,
restaurant,restaurant,Buahan sweet glamping,"Buahan, Kec. Kintamani, Kabupaten Bangli, Bali 80652","Kec. Kintamani, Kabupaten Bangli",BALI,80652.0,Indonesia,88297047983.0,,,-8.287039,115.3920605,https://maps.google.com/?cid=0x0:0x20a6cfba481362c0,
restaurant,restaurant,De Villas KUBU SANDAN,"P9CJ+4C4, Jl. Trunyan, Kedisan, Kec. Kintamani, Kabupaten Bangli, Bali 80652","Jl. Trunyan, Kedisan, Kec. Kintamani, Kabupaten Bangli",BALI,80652.0,Indonesia,81338488682.0,,,-8.2797374,115.3810712,https://maps.google.com/?cid=0x0:0xedd49c267ae5840d,
restaurant,restaurant,Gn. Batur,"Batur Sel., Kec. Kintamani, Kabupaten Bangli, Bali","Kabupaten Bangli, Bali",BALI,,Indonesia,,,,-8.2401299,115.3774944,https://maps.google.com/?cid=0x0:0xd38045afa18670b4,
restaurant,Toko Bebas Bea,Bandara Internasional I Gusti Ngurah Rai (DPS),"Bandara International I Gusti Ngurah Rai, Kabupaten Badung, Bali 80362",Kabupaten Badung,BALI,80362.0,Indonesia,85166911003.0,,,-8.7469933,115.1681655,https://maps.google.com/?cid=0x0:0xdf71da6ddd7bcc1f,
restaurant,Kafe,Rockaway Kintamani Bali,"Jl. Raya Penelokan No.888, Batur Sel., Kec. Kintamani, Kabupaten Bangli, Bali 80652","Batur Sel., Kec. Kintamani, Kabupaten Bangli",BALI,80652.0,Indonesia,85337229533.0,,,-8.2658427,115.3407111,https://maps.google.com/?cid=0x0:0xca46c2fea6bec3c8,
restaurant,Restoran,Rejeng Bali,"Batur Tengah, Kec. Kintamani, Kabupaten Bangli, Bali","Kabupaten Bangli, Bali",BALI,,Indonesia,81239630521.0,,,-8.2527855,115.4001248,https://maps.google.com/?cid=0x0:0xc4f737707741a98f,
restaurant,Prasmanan,Okuta,"Jl. Raya Penelokan, Batur Tengah, Kec. Kintamani, Kabupaten Bangli, Bali 80652","Batur Tengah, Kec. Kintamani, Kabupaten Bangli",BALI,80652.0,Indonesia,87849580650.0,,,-8.2820958,115.3638168,https://maps.google.com/?cid=0x0:0x43b12f0e5577c67,
restaurant,Prasmanan,The Lookout Resto  Bar,"P988+M8P, Jl. Raya Penelokan, Sekardadi, Kec. Kintamani, Kabupaten Bangli, Bali 80652","Jl. Raya Penelokan, Sekardadi, Kec. Kintamani, Kabupaten Bangli",BALI,80652.0,Indonesia,36652525.0,,,-8.2832987,115.365827,https://maps.google.com/?cid=0x0:0x9b773345b439564a,
restaurant,Restoran,TOTEME RESTAURANT KINTAMANI,"Q92W+JHM, Batur Tengah, Kec. Kintamani, Kabupaten Bangli, Bali 80652","Batur Tengah, Kec. Kintamani, Kabupaten Bangli",BALI,80652.0,Indonesia,87863196594.0,,,-8.2487039,115.3964065,https://maps.google.com/?cid=0x0:0xd45389ce2f660be6,
restaurant,Prasmanan,Batur Sari Restaurant,"Jl. Raya Penelokan, Batur Tengah, Kec. Kintamani, Kabupaten Bangli, Bali 80652","Batur Tengah, Kec. Kintamani, Kabupaten Bangli",BALI,80652.0,Indonesia,36651007.0,,,-8.27716,115.3511068,https://maps.google.com/?cid=0x0:0xbc0854620e9f4111,
restaurant,restaurant,Susut,"Sulahan, Kec. Susut, Kabupaten Bangli, Bali","Kabupaten Bangli, Bali",BALI,,Indonesia,,,,-8.424873,115.346001,https://maps.google.com/?cid=0x0:0xc2e9cdd58e9468fb,
restaurant,Dapur Umum,"Bangli,susut","H8GW+HW7, Jl. Putra Yuda, Sulahan, Kec. Susut, Kabupaten Bangli, Bali 80661","Jl. Putra Yuda, Sulahan, Kec. Susut, Kabupaten Bangli",BALI,80661.0,Indonesia,,,,-8.4236412,115.3470523,https://maps.google.com/?cid=0x0:0xcaecc5e95fbe18c0,
restaurant,Restoran,D'Carik Tibumana,"Jl. Setra Agung, Apuan, Kec. Susut, Kabupaten Bangli, Bali 80661","Apuan, Kec. Susut, Kabupaten Bangli",BALI,80661.0,Indonesia,85190088810.0,,,-8.5066385,115.3312319,https://maps.google.com/?cid=0x0:0xcdcf94add0e81066,
restaurant,Sate,LESEHAN JOKO,"H8GW+6VF, Jl. Putra Yuda, Sulahan, Kec. Susut, Kabupaten Bangli, Bali 80661","Jl. Putra Yuda, Sulahan, Kec. Susut, Kabupaten Bangli",BALI,80661.0,Indonesia,85239173718.0,,,-8.4244256,115.3471724,https://maps.google.com/?cid=0x0:0xcab2adea36409f10,
restaurant,Restoran,Bali 225,"Jl. Kesumayudha No.13, Susut, Kec. Susut, Kabupaten Bangli, Bali 80661","Susut, Kec. Susut, Kabupaten Bangli",BALI,80661.0,Indonesia,85238078678.0,,,-8.4427624,115.3427676,https://maps.google.com/?cid=0x0:0x9eff5ba801a8aceb,
restaurant,Nasi,Waroeng Bli Tantra - LaWang Jogja,"Desa Penglipuran BR, Jl. Penglipuran Angkul / Rumah No.6, Kubu, Kec. Bangli, Bali","Kabupaten Bangli, Bali",BALI,,Indonesia,8119890188.0,,,-8.4208079,115.3592515,https://maps.google.com/?cid=0x0:0x393c0902cdca540,
restaurant,Rumah Makan,Gliwir Catering,"H8GW+8WW, Jl. Kesumayudha, Sulahan, Kec. Susut, Kabupaten Bangli, Bali 80661","Jl. Kesumayudha, Sulahan, Kec. Susut, Kabupaten Bangli",BALI,80661.0,Indonesia,85941457738.0,,,-8.4241292,115.3473214,https://maps.google.com/?cid=0x0:0x264a0dbdad2bf4c1,
restaurant,Indonesia,Mujair Nyat-Nyat Pak Bagong,"Jl. Tirta Geduh, Bebalang, Kec. Bangli, Kabupaten Bangli, Bali 80614","Bebalang, Kec. Bangli, Kabupaten Bangli",BALI,80614.0,Indonesia,81337154900.0,,,-8.4666418,115.3505994,https://maps.google.com/?cid=0x0:0x4833291fef99cd53,
restaurant,Nasi,Warung Bu Rumi,"H9H5+5FH, Unnamed Road, Kubu, Bangli, Bangli Regency, Bali 80661","Unnamed Road, Kubu, Bangli, Bangli Regency",BALI,80661.0,Indonesia,81339425338.0,,,-8.422065,115.3587352,https://maps.google.com/?cid=0x0:0xd59c3d2a02d919c7,
restaurant,Indonesia,Warung Midori nyat²,"Jl. Merdeka No.102, Kawan, Kec. Bangli, Kabupaten Bangli, Bali 80614","Kawan, Kec. Bangli, Kabupaten Bangli",BALI,80614.0,Indonesia,81933038314.0,,,-8.4648686,115.3542108,https://maps.google.com/?cid=0x0:0xe69704775f18f3a6,
restaurant,Restoran,Warung Mini,"H84Q+FR7, Jl. Suluhan, Susut, Kec. Susut, Kabupaten Bangli, Bali 80661","Jl. Suluhan, Susut, Kec. Susut, Kabupaten Bangli",BALI,80661.0,Indonesia,81338925926.0,,,-8.4438304,115.3395446,https://maps.google.com/?cid=0x0:0xb98451cea0ddc502,
restaurant,Toko,Kopi Nini,"H8GW+4F2, JL Br. Demulih, Susut, Sulahan, Kec. Bangli, Kabupaten Bangli, Bali 80661","JL Br. Demulih, Susut, Sulahan, Kec. Bangli, Kabupaten Bangli",BALI,80661.0,Indonesia,81236944574.0,,,-8.424744,115.346138,https://maps.google.com/?cid=0x0:0x2b15129d93f59082,
restaurant,restaurant,Yucabin Kintamani - for Cool Adults only,"Jl. Kedisan No.88, Kedisan, Kec. Kintamani, Kabupaten Bangli, Bali 80652","Kedisan, Kec. Kintamani, Kabupaten Bangli",BALI,80652.0,Indonesia,8118889589.0,,,-8.27995,115.3831389,https://maps.google.com/?cid=0x0:0x92413d78f0774f69,
restaurant,restaurant,Resto Apung Kedisan,"Jl. Raya Kedisan, Kintamani, Songan B, Kec. Bangli, Kabupaten Bangli, Bali 80652","Kintamani, Songan B, Kec. Bangli, Kabupaten Bangli",BALI,80652.0,Indonesia,81337755411.0,,,-8.2808711,115.3878302,https://maps.google.com/?cid=0x0:0x774f233f9b016610,
restaurant,restaurant,Starlake Villa n Glamping,"Jl. Trunyan, Buahan, Kec. Kintamani, Kabupaten Bangli, Bali 80652","Buahan, Kec. Kintamani, Kabupaten Bangli",BALI,80652.0,Indonesia,83115655153.0,,,-8.2852116,115.3864635,https://maps.google.com/?cid=0x0:0xb80eda7e5d5eb756,
restaurant,restaurant,Villa Kedisan Lake View Kintamani,"Jl. Kedisan No.88, Kedisan, Kec. Kintamani, Kabupaten Bangli, Bali 80652","Kedisan, Kec. Kintamani, Kabupaten Bangli",BALI,80652.0,Indonesia,8123978107.0,,,-8.2797775,115.3829113,https://maps.google.com/?cid=0x0:0x642d5504b4f24a7e,
restaurant,Vila,D’TAMAN CABIN,"Jl. Kedisan, Batur Tengah, Kec. Kintamani, Kabupaten Bangli, Bali 80652","Batur Tengah, Kec. Kintamani, Kabupaten Bangli",BALI,80652.0,Indonesia,81238503586.0,,,-8.284168,115.3818961,https://maps.google.com/?cid=0x0:0x631363cc3ce5d640,
restaurant,restaurant,Double U Camp and Villa,"P9CJ+6CW, Jl. Trunyan, Kedisan, Kec. Kintamani, Kabupaten Bangli, Bali 80652","Jl. Trunyan, Kedisan, Kec. Kintamani, Kabupaten Bangli",BALI,80652.0,Indonesia,81339451037.0,,,-8.2793252,115.3811331,https://maps.google.com/?cid=0x0:0xccb2a5678126b637,
restaurant,restaurant,Cloud Hills Glamping by Bukit Vista,"P98J+6J5, Jl. Windu Sara, Kedisan, Kec. Kintamani, Kabupaten Bangli, Bali 80652","Jl. Windu Sara, Kedisan, Kec. Kintamani, Kabupaten Bangli",BALI,80652.0,Indonesia,,,,-8.284462,115.3816153,https://maps.google.com/?cid=0x0:0xf9e0f5b08f95070e,
restaurant,restaurant,De Villas KUBU SANDAN,"P9CJ+4C4, Jl. Trunyan, Kedisan, Kec. Kintamani, Kabupaten Bangli, Bali 80652","Jl. Trunyan, Kedisan, Kec. Kintamani, Kabupaten Bangli",BALI,80652.0,Indonesia,81338488682.0,,,-8.2797374,115.3810712,https://maps.google.com/?cid=0x0:0xedd49c267ae5840d,
restaurant,Bumi perkemahan,Samuh Camp,"Jl. Kedisan No.80652, Kedisan, Kec. Kintamani, Kabupaten Bangli, Bali 80652","Kedisan, Kec. Kintamani, Kabupaten Bangli",BALI,80652.0,Indonesia,81337354401.0,,,-8.2835,115.379475,https://maps.google.com/?cid=0x0:0x89c44e84185fad7d,
restaurant,restaurant,Buahan sweet glamping,"Buahan, Kec. Kintamani, Kabupaten Bangli, Bali 80652","Kec. Kintamani, Kabupaten Bangli",BALI,80652.0,Indonesia,88297047983.0,,,-8.287039,115.3920605,https://maps.google.com/?cid=0x0:0x20a6cfba481362c0,
restaurant,restaurant,Gn. Batur,"Batur Sel., Kec. Kintamani, Kabupaten Bangli, Bali","Kabupaten Bangli, Bali",BALI,,Indonesia,,,,-8.2401299,115.3774944,https://maps.google.com/?cid=0x0:0xd38045afa18670b4,
restaurant,Toko Bebas Bea,Bandara Internasional I Gusti Ngurah Rai (DPS),"Bandara International I Gusti Ngurah Rai, Kabupaten Badung, Bali 80362",Kabupaten Badung,BALI,80362.0,Indonesia,85166911003.0,,,-8.7469933,115.1681655,https://maps.google.com/?cid=0x0:0xdf71da6ddd7bcc1f,
restaurant,Restoran,Warung Makan Bambu,"J8PX+5F6, Jl. Kesumayudha, Tiga, Kec. Susut, Kabupaten Bangli, Bali 80661","Jl. Kesumayudha, Tiga, Kec. Susut, Kabupaten Bangli",BALI,80661.0,Indonesia,82339703669.0,,,-8.364581,115.3486304,https://maps.google.com/?cid=0x0:0x712d1e9b009a9993,
restaurant,Restoran,Warung D'Kubu,"Jl. Tembuku, Dusun Penida Kelod, Kec. Tembuku, Kabupaten Bangli, Bali 80671","Dusun Penida Kelod, Kec. Tembuku, Kabupaten Bangli",BALI,80671.0,Indonesia,81930999946.0,,,-8.4409877,115.3882415,https://maps.google.com/?cid=0x0:0xf52b197eab8db3c1,
restaurant,Restoran,Warung Tunjung,"Jl. Kesumayudha No.51, Sulahan, Kec. Susut, Kabupaten Bangli, Bali 80661","Sulahan, Kec. Susut, Kabupaten Bangli",BALI,80661.0,Indonesia,,,,-8.4258397,115.3467899,https://maps.google.com/?cid=0x0:0xd2231c8e9f125a2,
restaurant,Prasmanan,Batur Sari Restaurant,"Jl. Raya Penelokan, Batur Tengah, Kec. Kintamani, Kabupaten Bangli, Bali 80652","Batur Tengah, Kec. Kintamani, Kabupaten Bangli",BALI,80652.0,Indonesia,36651007.0,,,-8.27716,115.3511068,https://maps.google.com/?cid=0x0:0xbc0854620e9f4111,
restaurant,Jawa,lalapan sederhana,"H8GW+8WW, Jl. Kesumayudha, Sulahan, Kec. Susut, Kabupaten Bangli, Bali 80661","Jl. Kesumayudha, Sulahan, Kec. Susut, Kabupaten Bangli",BALI,80661.0,Indonesia,,,,-8.4241594,115.347827,https://maps.google.com/?cid=0x0:0x6374f6ada22da972,
restaurant,restaurant,Bali 80671,"Kec. Tembuku, Kabupaten Bangli, Bali","Kabupaten Bangli, Bali",BALI,,Indonesia,,,,-8.4058202,115.3904215,https://maps.google.com/?cid=0x0:0x1c00c5eb6016bf80,
restaurant,Restoran,Happy Frog Restaurant,"Tukad Cepung Waterfall Street, Kabupaten Bangli, Bali 80671",Kabupaten Bangli,BALI,80671.0,Indonesia,87758106916.0,,,-8.4412933,115.3885866,https://maps.google.com/?cid=0x0:0x57544f170bbe6635,
restaurant,Restoran,The Cepung Lounge  Restaurant,"Penida Kelod, Tembuku, Kec. Tembuku, Kabupaten Bangli, Bali 80671","Tembuku, Kec. Tembuku, Kabupaten Bangli",BALI,80671.0,Indonesia,85253676661.0,,,-8.4410187,115.3886363,https://maps.google.com/?cid=0x0:0xb79703463d8820fc,
restaurant,Restoran,Warung D'Kubu,"Jl. Tembuku, Dusun Penida Kelod, Kec. Tembuku, Kabupaten Bangli, Bali 80671","Dusun Penida Kelod, Kec. Tembuku, Kabupaten Bangli",BALI,80671.0,Indonesia,81930999946.0,,,-8.4409877,115.3882415,https://maps.google.com/?cid=0x0:0xf52b197eab8db3c1,
restaurant,Rumah Makan,Warung makan apit kuta,"H95P+GHW, Tembuku, Kec. Tembuku, Kabupaten Bangli, Bali 80671","Tembuku, Kec. Tembuku, Kabupaten Bangli",BALI,80671.0,Indonesia,,,,-8.4424344,115.3862061,https://maps.google.com/?cid=0x0:0x125132a76d309987,
restaurant,Restoran,Cucina Del Gabrille,"Penida Kelod, Kec. Tembuku, Kabupaten Bangli, Bali 80671","Kec. Tembuku, Kabupaten Bangli",BALI,80671.0,Indonesia,81339325099.0,,,-8.4409641,115.3869283,https://maps.google.com/?cid=0x0:0xed24f9a59150096c,
restaurant,Restoran,INFINITY RIVER club  resto,"Goa Raja Waterfall, Jehem, Kec. Tembuku, Kabupaten Bangli, Bali 80671","Jehem, Kec. Tembuku, Kabupaten Bangli",BALI,80671.0,Indonesia,,,,-8.4407065,115.3743286,https://maps.google.com/?cid=0x0:0x69b014de91e3caa9,
restaurant,restaurant,De Klumpu Bali Eco Tradi Stay,"Undisan, Kec. Tembuku, Kabupaten Bangli, Bali 80671","Kec. Tembuku, Kabupaten Bangli",BALI,80671.0,Indonesia,8123811161.0,,,-8.4542892,115.3944165,https://maps.google.com/?cid=0x0:0xee21fdc9d042e005,
restaurant,restaurant,,,,BALI,,Indonesia,,,,,,https://maps.google.com/?cid=0x0:0xee21fdc9d042e005%7C/g/11ckvksnwr%7Cid-ID,
restaurant,restaurant,Griya Valud Sidemen,"Jl. Sidemen - Sangkan Gn., Telaga Tawang, Kec. Sidemen, Kabupaten Karangasem, Bali 80864","Telaga Tawang, Kec. Sidemen, Kabupaten Karangasem",BALI,80864.0,Indonesia,81236088446.0,,,-8.4683524,115.4403901,https://maps.google.com/?cid=0x0:0x8dd2adb7fe095c7e,
restaurant,restaurant,Villa Kropak,"Jl. Raya Tebola No.3, Telaga Tawang, Kec. Sidemen, Kabupaten Karangasem, Bali 80864","Telaga Tawang, Kec. Sidemen, Kabupaten Karangasem",BALI,80864.0,Indonesia,81339414215.0,,,-8.4750925,115.4402794,https://maps.google.com/?cid=0x0:0xc0e5fc09bf3bb469,
restaurant,restaurant,Cemara Green Hill,"GC6M+PJH, Jl. Wangsean - Klungah, Wismakerta, Kec. Sidemen, Kabupaten Karangasem, Bali 80864","Jl. Wangsean - Klungah, Wismakerta, Kec. Sidemen, Kabupaten Karangasem",BALI,80864.0,Indonesia,,,,-8.4811388,115.4327984,https://maps.google.com/?cid=0x0:0x52ecf5d46c77cc0a,
restaurant,restaurant,Graha Ayoe,"Jalan Dusun Dukuh, Sangkan Gn., Kec. Sidemen, Kabupaten Karangasem, Bali 80864","Sangkan Gn., Kec. Sidemen, Kabupaten Karangasem",BALI,80864.0,Indonesia,,,,-8.460297,115.4440145,https://maps.google.com/?cid=0x0:0xf75273c8b8d1d61b,
restaurant,Titik Pemandangan,Tukad cepung waterfall,"Jl. Tembuku, Tembuku, Kec. Tembuku, Kabupaten Bangli, Bali 80671","Tembuku, Kec. Tembuku, Kabupaten Bangli",BALI,80671.0,Indonesia,87863220041.0,,,-8.4410173,115.3868079,https://maps.google.com/?cid=0x0:0xbd3a446ae88503f,
restaurant,Toko Bebas Bea,Bandara Internasional I Gusti Ngurah Rai (DPS),"Bandara International I Gusti Ngurah Rai, Kabupaten Badung, Bali 80362",Kabupaten Badung,BALI,80362.0,Indonesia,85166911003.0,,,-8.7469933,115.1681655,https://maps.google.com/?cid=0x0:0xdf71da6ddd7bcc1f,
restaurant,Restoran,Cepung Cafe,"Penida kelod, Kec. Tembuku, Kabupaten Bangli, Bali 80671","Kec. Tembuku, Kabupaten Bangli",BALI,80671.0,Indonesia,81937037946.0,,,-8.4411503,115.3868951,https://maps.google.com/?cid=0x0:0xff24f4d381751506,
restaurant,Nasi,Cafe Kebun Penglipuran,"Di Areal Hutan Bambu Penglipuran, Jl. Penglipuran, Kubu, Kec. Bangli, Kabupaten Bangli, Bali 80611","Jl. Penglipuran, Kubu, Kec. Bangli, Kabupaten Bangli",BALI,80611.0,Indonesia,82247580441.0,,,-8.4183135,115.3618733,https://maps.google.com/?cid=0x0:0xca40293642793bb,
restaurant,Restoran,Warung Mang Dangka,"HC33+J54, Bangbang, Kec. Tembuku, Kabupaten Bangli, Bali 80671","Bangbang, Kec. Tembuku, Kabupaten Bangli",BALI,80671.0,Indonesia,,,,-8.4459755,115.402967,https://maps.google.com/?cid=0x0:0xdb296aa0cdd5a601,
restaurant,Restoran,Warung D'Nukad,"Tukad Cepung Waterfall, Tembuku, Kec. Tembuku, Kabupaten Bangli, Bali 80671","Tembuku, Kec. Tembuku, Kabupaten Bangli",BALI,80671.0,Indonesia,85792865248.0,,,-8.4412435,115.3888768,https://maps.google.com/?cid=0x0:0x9bb612bf4daba60c,
restaurant,Indonesia,Sarin Paon Resto  Swing,"Penida Kelod, Tembuku, Kec. Tembuku, Kabupaten Bangli, Bali 80671","Tembuku, Kec. Tembuku, Kabupaten Bangli",BALI,80671.0,Indonesia,85739955982.0,,,-8.4409825,115.388502,https://maps.google.com/?cid=0x0:0x4c07c3eb29c5af5d,
restaurant,Restoran,Bamboo Cafe,"Jl. Penglipuran, Kubu, Kec. Bangli, Kabupaten Bangli, Bali 80661","Kubu, Kec. Bangli, Kabupaten Bangli",BALI,80661.0,Indonesia,82144543439.0,,,-8.4189443,115.3602731,https://maps.google.com/?cid=0x0:0x96a5c1006fe19096,
restaurant,Restoran,Warung Meme Yuli,"J94J+7M6, Jl. Kresna, Yangapi, Kec. Tembuku, Kabupaten Bangli, Bali 80671","Jl. Kresna, Yangapi, Kec. Tembuku, Kabupaten Bangli",BALI,80671.0,Indonesia,85935369399.0,,,-8.3943401,115.3816546,https://maps.google.com/?cid=0x0:0xa5f0be38f77fe4a,
restaurant,Restoran,Warung Tipat Santok,"J92J+7HG, Jl, Tembuku, Kec. Tembuku, Kabupaten Bangli, Bali 80671","Jl, Tembuku, Kec. Tembuku, Kabupaten Bangli",BALI,80671.0,Indonesia,85205113744.0,,,-8.3993196,115.3814449,https://maps.google.com/?cid=0x0:0x5fde14596a0b4a29,
restaurant,Rumah Makan,Warung Makan Pak Cok,"H9HX+V8X, Peninjoan, Kec. Tembuku, Kabupaten Bangli, Bali 80671","Peninjoan, Kec. Tembuku, Kabupaten Bangli",BALI,80671.0,Indonesia,83117508848.0,,,-8.4202515,115.3983455,https://maps.google.com/?cid=0x0:0xdd64f8aa5c30de5b,
restaurant,Restoran,Bali 211,"Jl. Raya Besakih No.1, Bangbang, Kec. Tembuku, Kabupaten Bangli, Bali 80671","Bangbang, Kec. Tembuku, Kabupaten Bangli",BALI,80671.0,Indonesia,85955359067.0,,,-8.4470245,115.4045459,https://maps.google.com/?cid=0x0:0x4c428c55da08497,
restaurant,Restoran,Warung Pak Mez,"J94M+2P3, Jl. Metro Kaja, Desa Yangpi, Kec. Tembuku, Yangapi, Kec. Tembuku, Kabupaten Bangli, Bali 80671","Jl. Metro Kaja, Desa Yangpi, Kec. Tembuku, Yangapi, Kec. Tembuku, Kabupaten Bangli",BALI,80671.0,Indonesia,81238875447.0,,,-8.3949757,115.3842987,https://maps.google.com/?cid=0x0:0xc54d3e2f134fcd5e,
restaurant,Restoran,Waroeng singgah,"J92Q+JHC, Yangapi, Kec. Tembuku, Kabupaten Bangli, Bali 80671","Yangapi, Kec. Tembuku, Kabupaten Bangli",BALI,80671.0,Indonesia,,,,-8.3982633,115.3887512,https://maps.google.com/?cid=0x0:0x476a0c105f35c042,
restaurant,Indonesia,Warung Makan Pewaregan,"H94H+48X, Jehem, Kec. Tembuku, Kabupaten Bangli, Bali 80671","Jehem, Kec. Tembuku, Kabupaten Bangli",BALI,80671.0,Indonesia,82146435599.0,,,-8.4446308,115.3783597,https://maps.google.com/?cid=0x0:0x7360b27582ae8e95,
restaurant,Toko bahan makanan,Warung dadong sengkek,"J97J+7H5, Jl. Kresna, Yangapi, Kec. Tembuku, Kabupaten Bangli, Bali 80671","Jl. Kresna, Yangapi, Kec. Tembuku, Kabupaten Bangli",BALI,80671.0,Indonesia,82247480298.0,,,-8.3868656,115.3814921,https://maps.google.com/?cid=0x0:0x2748018c115e172d,
cafe,cafe,Bali 80611,"Kabupaten Bangli, Bali","Kabupaten Bangli, Bali",BALI,,Indonesia,,,,-8.4047261,115.3696844,https://maps.google.com/?cid=0x0:0x1c00c5eb6016bf10,
cafe,Kafe,Dijumah Cafe Bali,"Jl. Nusantara No.96, Cempaga, Kec. Bangli, Kabupaten Bangli, Bali 80613","Cempaga, Kec. Bangli, Kabupaten Bangli",BALI,80613.0,Indonesia,87861753335.0,,,-8.4435263,115.3561128,https://maps.google.com/?cid=0x0:0x89889d12514ff72b,
cafe,Restoran,Bamboo Cafe,"Jl. Penglipuran, Kubu, Kec. Bangli, Kabupaten Bangli, Bali 80661","Kubu, Kec. Bangli, Kabupaten Bangli",BALI,80661.0,Indonesia,82144543439.0,,,-8.4189443,115.3602731,https://maps.google.com/?cid=0x0:0x96a5c1006fe19096,
cafe,Kafe,Kedai Kami All Day Breakfast,"Jl. Kesumayudha, Kawan, Kec. Bangli, Kabupaten Bangli, Bali 80661","Kawan, Kec. Bangli, Kabupaten Bangli",BALI,80661.0,Indonesia,,,,-8.4530954,115.3487583,https://maps.google.com/?cid=0x0:0xef24d52fa8303295,
cafe,Restoran,UUMA ( eatery  playground ),"Jl. Tirta Mumbul, Bebalang, Kec. Bangli, Kabupaten Bangli, Bali 80614","Bebalang, Kec. Bangli, Kabupaten Bangli",BALI,80614.0,Indonesia,82340778768.0,,,-8.4681362,115.3465158,https://maps.google.com/?cid=0x0:0x2d44a1bf1e29542c,
cafe,Restoran,Smooth Coffee  Tobacco,"Jl. Merdeka No.60, Kawan, Kec. Bangli, Kabupaten Bangli, Bali 80614","Kawan, Kec. Bangli, Kabupaten Bangli",BALI,80614.0,Indonesia,89667951156.0,,,-8.457802,115.3558847,https://maps.google.com/?cid=0x0:0x9928fad89adb8eef,
cafe,Kedai Kopi,Mahen Cafe,"Jl. Raya Penelokan, Batur Tengah, Kec. Kintamani, Kabupaten Bangli, Bali 80652","Batur Tengah, Kec. Kintamani, Kabupaten Bangli",BALI,80652.0,Indonesia,81238589197.0,,,-8.2812623,115.3621795,https://maps.google.com/?cid=0x0:0x6ed8ca70f1c8d19b,
cafe,Kedai Kopi,Pahdi Specialty Coffee,"P8FX+WJF, Jl. Raya Penelokan, Batur Tengah, Kec. Kintamani, Kabupaten Bangli, Bali 80652","Jl. Raya Penelokan, Batur Tengah, Kec. Kintamani, Kabupaten Bangli",BALI,80652.0,Indonesia,8113971277.0,,,-8.2750595,115.348932,https://maps.google.com/?cid=0x0:0x38832355638ac00c,
cafe,Kafe,Anggy's Cafe and Resto,"Jalan,Samanaia, Kubu, Bangli, Bangli Regency, Bali 80611","Kubu, Bangli, Bangli Regency",BALI,80611.0,Indonesia,85792824241.0,,,-8.4047261,115.3696844,https://maps.google.com/?cid=0x0:0xad2b2b92c0a15cea,
cafe,Kedai Kopi,Tegukopi,"Jl. Raya Penelokan, Batur Tengah, Kec. Kintamani, Kabupaten Bangli, Bali 80652","Batur Tengah, Kec. Kintamani, Kabupaten Bangli",BALI,80652.0,Indonesia,81338300744.0,,,-8.2725664,115.3472637,https://maps.google.com/?cid=0x0:0xd782bf6222b50bc9,
cafe,Kafe,Ritatkala Cafe,"P8RQ+92C, Jl. Raya Kintamani, Batur Sel., Kec. Kintamani, Kabupaten Bangli, Bali 80652","Jl. Raya Kintamani, Batur Sel., Kec. Kintamani, Kabupaten Bangli",BALI,80652.0,Indonesia,,,,-8.2564831,115.3365631,https://maps.google.com/?cid=0x0:0x9927f29e7f16788e,
cafe,Kedai Kopi,Himalila,"Jl. Raya Penelokan No.890, Batur Sel., Kec. Kintamani, Kabupaten Bangli, Bali 80652","Batur Sel., Kec. Kintamani, Kabupaten Bangli",BALI,80652.0,Indonesia,,,,-8.2683305,115.3425684,https://maps.google.com/?cid=0x0:0x8f1fefe3cafd6f3e,
cafe,Kedai Kopi,Montana Del Cafe,"P8MR+48V, Jl. Raya Penelokan No.889, Batur Sel., Kec. Kintamani, Kabupaten Bangli, Bali 80652","Jl. Raya Penelokan No.889, Batur Sel., Kec. Kintamani, Kabupaten Bangli",BALI,80652.0,Indonesia,81237236716.0,,,-8.2680071,115.3424449,https://maps.google.com/?cid=0x0:0xe93399784bf10228,
cafe,Kafe,Tamarillo Hexacafe Bali,"Batur Sel., Kec. Kintamani, Kabupaten Bangli, Bali 80652","Kec. Kintamani, Kabupaten Bangli",BALI,80652.0,Indonesia,81916115155.0,,,-8.259001,115.3375282,https://maps.google.com/?cid=0x0:0xdc312e837876a7c7,
cafe,Kafe,Pondok Gumbring,"H9VF+8GW, Antugan, Jehem, Kec. Tembuku, Kabupaten Bangli, Bali 80611","Antugan, Jehem, Kec. Tembuku, Kabupaten Bangli",BALI,80611.0,Indonesia,,,,-8.4066494,115.3738433,https://maps.google.com/?cid=0x0:0xf568d977a78725b0,
cafe,Kafe,Paperhills,"Jl. Raya Penelokan, Batur Sel., Kec. Kintamani, Kabupaten Bangli, Bali 80652","Batur Sel., Kec. Kintamani, Kabupaten Bangli",BALI,80652.0,Indonesia,8892172359.0,,,-8.2691285,115.3432578,https://maps.google.com/?cid=0x0:0x35aed82ae2b88625,
cafe,Kedai Kopi,AKASA Specialty Coffee,"Jl. Raya Penelokan No.777, Batur Tengah, Kec. Kintamani, Kabupaten Bangli, Bali 80652","Batur Tengah, Kec. Kintamani, Kabupaten Bangli",BALI,80652.0,Indonesia,87787657957.0,,,-8.2796067,115.3575395,https://maps.google.com/?cid=0x0:0xa5be2accdf6b4ba8,
cafe,Kedai Kopi,Coffe Lingsir,"G982+XR7, Banjar petak, Bebalang, Kec. Bangli, Kabupaten Bangli, Bali","Kabupaten Bangli, Bali",BALI,,Indonesia,,,,-8.4825753,115.3520388,https://maps.google.com/?cid=0x0:0x86211638673a1219,
cafe,Kafe,ATTALAS,"Jl. Raya Penelokan, Batur Tengah, Kec. Kintamani, Kabupaten Bangli, Bali 80652","Batur Tengah, Kec. Kintamani, Kabupaten Bangli",BALI,80652.0,Indonesia,81529242216.0,,,-8.2766475,115.3505086,https://maps.google.com/?cid=0x0:0xc4036299583a290a,
cafe,Indonesia,Warung Babi Guling Ibu Desek Putu,"H9M7+X6X, Jl. Nusantara, Kayubihi, Kec. Bangli, Kabupaten Bangli, Bali 80661","Jl. Nusantara, Kayubihi, Kec. Bangli, Kabupaten Bangli",BALI,80661.0,Indonesia,,,,-8.4150238,115.3631089,https://maps.google.com/?cid=0x0:0xca6180a40391214d,
cafe,Nasi,Cafe Kebun Penglipuran,"Di Areal Hutan Bambu Penglipuran, Jl. Penglipuran, Kubu, Kec. Bangli, Kabupaten Bangli, Bali 80611","Jl. Penglipuran, Kubu, Kec. Bangli, Kabupaten Bangli",BALI,80611.0,Indonesia,82247580441.0,,,-8.4183135,115.3618733,https://maps.google.com/?cid=0x0:0xca40293642793bb,
cafe,Kedai Kopi,NUGI BALI,"Jl. Tirta Selukat I, Bebalang, Kec. Bangli, Kabupaten Bangli, Bali 80614","Bebalang, Kec. Bangli, Kabupaten Bangli",BALI,80614.0,Indonesia,82145421106.0,,,-8.4663646,115.350125,https://maps.google.com/?cid=0x0:0x3e458d94f204718b,
cafe,Kafe,Cafe TaJoG,"H924+3GF, Cempaga, Kec. Bangli, Kabupaten Bangli, Bali 80614","Cempaga, Kec. Bangli, Kabupaten Bangli",BALI,80614.0,Indonesia,,,,-8.4498018,115.3563097,https://maps.google.com/?cid=0x0:0x41b9a2be83da8c2b,
cafe,Kedai Kopi,KAPTEN_KOPI,"G9X5+F7F, Jl. Kapten Mudita, Cempaga, Kec. Bangli, Kabupaten Bangli, Bali 80614","Jl. Kapten Mudita, Cempaga, Kec. Bangli, Kabupaten Bangli",BALI,80614.0,Indonesia,87825569666.0,,,-8.4513074,115.3581793,https://maps.google.com/?cid=0x0:0x52e66081c4bb2f1a,
cafe,Kafe,"Kopi luwak,de lubak","Br buungan, Jl. Purasti No.007, Tiga, Kec. Susut, Kabupaten Bangli, Bali 80661","Jl. Purasti No.007, Tiga, Kec. Susut, Kabupaten Bangli",BALI,80661.0,Indonesia,82147738620.0,,,-8.3924924,115.357805,https://maps.google.com/?cid=0x0:0xce5104e43b1de4dd,
cafe,Rumah Makan,Trimaha Abadi,"J988+JJC, Kayubihi, Kec. Bangli, Kabupaten Bangli, Bali 80614","Kayubihi, Kec. Bangli, Kabupaten Bangli",BALI,80614.0,Indonesia,81237832983.0,,,-8.3834452,115.3665111,https://maps.google.com/?cid=0x0:0xd071d631c543222e,
cafe,cafe,Bali 80612,"Kabupaten Bangli, Bali","Kabupaten Bangli, Bali",BALI,,Indonesia,,,,-8.4198291,115.3696844,https://maps.google.com/?cid=0x0:0x1c00c5eb6016bf20,
cafe,Nasi,Cafe Kebun Penglipuran,"Di Areal Hutan Bambu Penglipuran, Jl. Penglipuran, Kubu, Kec. Bangli, Kabupaten Bangli, Bali 80611","Jl. Penglipuran, Kubu, Kec. Bangli, Kabupaten Bangli",BALI,80611.0,Indonesia,82247580441.0,,,-8.4183135,115.3618733,https://maps.google.com/?cid=0x0:0xca40293642793bb,
cafe,Kafe,Dijumah Cafe Bali,"Jl. Nusantara No.96, Cempaga, Kec. Bangli, Kabupaten Bangli, Bali 80613","Cempaga, Kec. Bangli, Kabupaten Bangli",BALI,80613.0,Indonesia,87861753335.0,,,-8.4435263,115.3561128,https://maps.google.com/?cid=0x0:0x89889d12514ff72b,
cafe,Kafe,esmade_PENGLIPURAN,"Jl. Penglipuran No.63, Kubu, Kec. Bangli, Kabupaten Bangli, Bali 80661","Kubu, Kec. Bangli, Kabupaten Bangli",BALI,80661.0,Indonesia,81238316251.0,,,-8.4231359,115.3586167,https://maps.google.com/?cid=0x0:0xf029b6570bb6fb11,
cafe,Kedai Kopi,NUGI BALI,"Jl. Tirta Selukat I, Bebalang, Kec. Bangli, Kabupaten Bangli, Bali 80614","Bebalang, Kec. Bangli, Kabupaten Bangli",BALI,80614.0,Indonesia,82145421106.0,,,-8.4663646,115.350125,https://maps.google.com/?cid=0x0:0x3e458d94f204718b,
cafe,Restoran,Pondok Kopi Penglipuran,"H9G5+M34, Desa, Penglipuran, Kubu, Bangli, Bangli Regency, Bali 80613","Desa, Penglipuran, Kubu, Bangli, Bangli Regency",BALI,80613.0,Indonesia,82237001972.0,,,-8.4233717,115.3576902,https://maps.google.com/?cid=0x0:0xc5ff72625414e70e,
cafe,Restoran,Smooth Coffee  Tobacco,"Jl. Merdeka No.60, Kawan, Kec. Bangli, Kabupaten Bangli, Bali 80614","Kawan, Kec. Bangli, Kabupaten Bangli",BALI,80614.0,Indonesia,89667951156.0,,,-8.457802,115.3558847,https://maps.google.com/?cid=0x0:0x9928fad89adb8eef,
cafe,Kafe,Kedai Kami All Day Breakfast,"Jl. Kesumayudha, Kawan, Kec. Bangli, Kabupaten Bangli, Bali 80661","Kawan, Kec. Bangli, Kabupaten Bangli",BALI,80661.0,Indonesia,,,,-8.4530954,115.3487583,https://maps.google.com/?cid=0x0:0xef24d52fa8303295,
cafe,Nasi,Penglipuran Kedai Jongor,"Jl. Nusantara, Kubu, Kec. Bangli, Kabupaten Bangli, Bali 80613","Kubu, Kec. Bangli, Kabupaten Bangli",BALI,80613.0,Indonesia,85792631682.0,,,-8.4215488,115.364289,https://maps.google.com/?cid=0x0:0x9a4ce04861926118,
cafe,Restoran,UUMA ( eatery  playground ),"Jl. Tirta Mumbul, Bebalang, Kec. Bangli, Kabupaten Bangli, Bali 80614","Bebalang, Kec. Bangli, Kabupaten Bangli",BALI,80614.0,Indonesia,82340778768.0,,,-8.4681362,115.3465158,https://maps.google.com/?cid=0x0:0x2d44a1bf1e29542c,
cafe,Kedai Kopi,Pahdi Specialty Coffee,"P8FX+WJF, Jl. Raya Penelokan, Batur Tengah, Kec. Kintamani, Kabupaten Bangli, Bali 80652","Jl. Raya Penelokan, Batur Tengah, Kec. Kintamani, Kabupaten Bangli",BALI,80652.0,Indonesia,8113971277.0,,,-8.2750595,115.348932,https://maps.google.com/?cid=0x0:0x38832355638ac00c,
cafe,Kedai Kopi,Coffe Lingsir,"G982+XR7, Banjar petak, Bebalang, Kec. Bangli, Kabupaten Bangli, Bali","Kabupaten Bangli, Bali",BALI,,Indonesia,,,,-8.4825753,115.3520388,https://maps.google.com/?cid=0x0:0x86211638673a1219,
cafe,Kafe,Cafe TaJoG,"H924+3GF, Cempaga, Kec. Bangli, Kabupaten Bangli, Bali 80614","Cempaga, Kec. Bangli, Kabupaten Bangli",BALI,80614.0,Indonesia,,,,-8.4498018,115.3563097,https://maps.google.com/?cid=0x0:0x41b9a2be83da8c2b,
cafe,Kedai Kopi,Tegukopi,"Jl. Raya Penelokan, Batur Tengah, Kec. Kintamani, Kabupaten Bangli, Bali 80652","Batur Tengah, Kec. Kintamani, Kabupaten Bangli",BALI,80652.0,Indonesia,81338300744.0,,,-8.2725664,115.3472637,https://maps.google.com/?cid=0x0:0xd782bf6222b50bc9,
cafe,Kedai Kopi,Montana Del Cafe,"P8MR+48V, Jl. Raya Penelokan No.889, Batur Sel., Kec. Kintamani, Kabupaten Bangli, Bali 80652","Jl. Raya Penelokan No.889, Batur Sel., Kec. Kintamani, Kabupaten Bangli",BALI,80652.0,Indonesia,81237236716.0,,,-8.2680071,115.3424449,https://maps.google.com/?cid=0x0:0xe93399784bf10228,
cafe,Kedai Kopi,Mahen Cafe,"Jl. Raya Penelokan, Batur Tengah, Kec. Kintamani, Kabupaten Bangli, Bali 80652","Batur Tengah, Kec. Kintamani, Kabupaten Bangli",BALI,80652.0,Indonesia,81238589197.0,,,-8.2812623,115.3621795,https://maps.google.com/?cid=0x0:0x6ed8ca70f1c8d19b,
cafe,Kafe,Ritatkala Cafe,"P8RQ+92C, Jl. Raya Kintamani, Batur Sel., Kec. Kintamani, Kabupaten Bangli, Bali 80652","Jl. Raya Kintamani, Batur Sel., Kec. Kintamani, Kabupaten Bangli",BALI,80652.0,Indonesia,,,,-8.2564831,115.3365631,https://maps.google.com/?cid=0x0:0x9927f29e7f16788e,
cafe,Bubble Tea,Manja cheese tea kubu bangli,"H9C7+GJG, Jl. Nusantara, Kubu, Kec. Bangli, Kabupaten Bangli, Bali 80613","Jl. Nusantara, Kubu, Kec. Bangli, Kabupaten Bangli",BALI,80613.0,Indonesia,87765865974.0,,,-8.4286961,115.3640926,https://maps.google.com/?cid=0x0:0x846597527f04b261,
cafe,Kedai Kopi,Himalila,"Jl. Raya Penelokan No.890, Batur Sel., Kec. Kintamani, Kabupaten Bangli, Bali 80652","Batur Sel., Kec. Kintamani, Kabupaten Bangli",BALI,80652.0,Indonesia,,,,-8.2683305,115.3425684,https://maps.google.com/?cid=0x0:0x8f1fefe3cafd6f3e,
cafe,Restoran,Warung Makan Penglipuran,"H9G5+XV3, Jl. Penglipuran, Kubu, Kec. Bangli, Kabupaten Bangli, Bali 80611","Jl. Penglipuran, Kubu, Kec. Bangli, Kabupaten Bangli",BALI,80611.0,Indonesia,82236640487.0,,,-8.4250174,115.3580037,https://maps.google.com/?cid=0x0:0x6f6af285e90a2a93,
cafe,Indonesia,WARUNG VIDYA 23 ( Es King Coklat Penglipuran ),Warung >>,"Kabupaten Bangli, Bali",BALI,,Indonesia,81337009338.0,,,-8.4215587,115.3592527,https://maps.google.com/?cid=0x0:0x739db5c293462cef,
cafe,Nasi,Waroeng Bli Tantra - LaWang Jogja,"Desa Penglipuran BR, Jl. Penglipuran Angkul / Rumah No.6, Kubu, Kec. Bangli, Bali","Kabupaten Bangli, Bali",BALI,,Indonesia,8119890188.0,,,-8.4208079,115.3592515,https://maps.google.com/?cid=0x0:0x393c0902cdca540,
cafe,Nasi,Desa traditional penglipuran,"Jl. Penglipuran, Kubu, Kec. Bangli, Kabupaten Bangli, Bali 80661","Kubu, Kec. Bangli, Kabupaten Bangli",BALI,80661.0,Indonesia,81353488002.0,,,-8.4212366,115.3602782,https://maps.google.com/?cid=0x0:0x89328c677fe6e1b9,
cafe,Kafe,Anggy's Cafe and Resto,"Jalan,Samanaia, Kubu, Bangli, Bangli Regency, Bali 80611","Kubu, Bangli, Bangli Regency",BALI,80611.0,Indonesia,85792824241.0,,,-8.4047261,115.3696844,https://maps.google.com/?cid=0x0:0xad2b2b92c0a15cea,
cafe,Kedai Kopi,KEDAI YB,"Jln. Brigjen Ngurah Rai Depan Telkom Bangli Lantai 1, Dbawah Shopping YB, Kawan, Kec. Bangli, Kabupaten Bangli, Bali 80614","Dbawah Shopping YB, Kawan, Kec. Bangli, Kabupaten Bangli",BALI,80614.0,Indonesia,82147938780.0,,,-8.458508,115.352908,https://maps.google.com/?cid=0x0:0x56587ceb49cd3901,
cafe,Kafe,Warung Micin,"H9C9+53H, Kubu, Kec. Bangli, Kabupaten Bangli, Bali 80613","Kubu, Kec. Bangli, Kabupaten Bangli",BALI,80613.0,Indonesia,,,,-8.4295591,115.3677458,https://maps.google.com/?cid=0x0:0xdfbf9917d5e09ec0,
cafe,Rumah Makan,Warung Dede,"H987+W4M, Jl. Taman Sari, Kubu, Kec. Bangli, Kabupaten Bangli, Bali 80614","Jl. Taman Sari, Kubu, Kec. Bangli, Kabupaten Bangli",BALI,80614.0,Indonesia,82145442283.0,,,-8.4326687,115.3627968,https://maps.google.com/?cid=0x0:0x4a64e6f57b9f1b26,
cafe,cafe,Bali 80613,"Kec. Bangli, Kabupaten Bangli, Bali","Kabupaten Bangli, Bali",BALI,,Indonesia,,,,-8.4399718,115.3696844,https://maps.google.com/?cid=0x0:0x1c00c5eb6016bf30,
cafe,Kafe,Dijumah Cafe Bali,"Jl. Nusantara No.96, Cempaga, Kec. Bangli, Kabupaten Bangli, Bali 80613","Cempaga, Kec. Bangli, Kabupaten Bangli",BALI,80613.0,Indonesia,87861753335.0,,,-8.4435263,115.3561128,https://maps.google.com/?cid=0x0:0x89889d12514ff72b,
cafe,Nasi,Cafe Kebun Penglipuran,"Di Areal Hutan Bambu Penglipuran, Jl. Penglipuran, Kubu, Kec. Bangli, Kabupaten Bangli, Bali 80611","Jl. Penglipuran, Kubu, Kec. Bangli, Kabupaten Bangli",BALI,80611.0,Indonesia,82247580441.0,,,-8.4183135,115.3618733,https://maps.google.com/?cid=0x0:0xca40293642793bb,
cafe,Bubble Tea,Manja Boba Cafe,"Jl. Nusantara No.66, Cempaga, Kec. Bangli, Kabupaten Bangli, Bali 80614","Cempaga, Kec. Bangli, Kabupaten Bangli",BALI,80614.0,Indonesia,87860095878.0,,,-8.4472825,115.3562988,https://maps.google.com/?cid=0x0:0xf6d1824dec1e4bf8,
cafe,Kafe,esmade_PENGLIPURAN,"Jl. Penglipuran No.63, Kubu, Kec. Bangli, Kabupaten Bangli, Bali 80661","Kubu, Kec. Bangli, Kabupaten Bangli",BALI,80661.0,Indonesia,81238316251.0,,,-8.4231359,115.3586167,https://maps.google.com/?cid=0x0:0xf029b6570bb6fb11,
cafe,Restoran,Pondok Kopi Penglipuran,"H9G5+M34, Desa, Penglipuran, Kubu, Bangli, Bangli Regency, Bali 80613","Desa, Penglipuran, Kubu, Bangli, Bangli Regency",BALI,80613.0,Indonesia,82237001972.0,,,-8.4233717,115.3576902,https://maps.google.com/?cid=0x0:0xc5ff72625414e70e,
cafe,Kedai Kopi,NUGI BALI,"Jl. Tirta Selukat I, Bebalang, Kec. Bangli, Kabupaten Bangli, Bali 80614","Bebalang, Kec. Bangli, Kabupaten Bangli",BALI,80614.0,Indonesia,82145421106.0,,,-8.4663646,115.350125,https://maps.google.com/?cid=0x0:0x3e458d94f204718b,
cafe,Restoran,Smooth Coffee  Tobacco,"Jl. Merdeka No.60, Kawan, Kec. Bangli, Kabupaten Bangli, Bali 80614","Kawan, Kec. Bangli, Kabupaten Bangli",BALI,80614.0,Indonesia,89667951156.0,,,-8.457802,115.3558847,https://maps.google.com/?cid=0x0:0x9928fad89adb8eef,
cafe,Jasa Pengiriman,JT EXPRESS CP BANGLI (COFFEE  BAKERY),"H924+JG3, Cempaga, Kec. Bangli, Kabupaten Bangli, Bali 80614","Cempaga, Kec. Bangli, Kabupaten Bangli",BALI,80614.0,Indonesia,,,,-8.4484991,115.3562985,https://maps.google.com/?cid=0x0:0xeab268db31238089,
cafe,Kafe,Kedai Kami All Day Breakfast,"Jl. Kesumayudha, Kawan, Kec. Bangli, Kabupaten Bangli, Bali 80661","Kawan, Kec. Bangli, Kabupaten Bangli",BALI,80661.0,Indonesia,,,,-8.4530954,115.3487583,https://maps.google.com/?cid=0x0:0xef24d52fa8303295,
cafe,Restoran,Rich boba tea  food bangli,"Jl. Nusantara depan SMPN 1, Cempaga, Kec. Bangli, Kabupaten Bangli, Bali 80614","Cempaga, Kec. Bangli, Kabupaten Bangli",BALI,80614.0,Indonesia,82145201414.0,,,-8.4484923,115.3562574,https://maps.google.com/?cid=0x0:0x69771cab4e41739f,
cafe,Nasi,Penglipuran Kedai Jongor,"Jl. Nusantara, Kubu, Kec. Bangli, Kabupaten Bangli, Bali 80613","Kubu, Kec. Bangli, Kabupaten Bangli",BALI,80613.0,Indonesia,85792631682.0,,,-8.4215488,115.364289,https://maps.google.com/?cid=0x0:0x9a4ce04861926118,
cafe,cafe,Bangli Dogen,"Jl. Erlangga No.V/10, Cempaga, Kec. Bangli, Kabupaten Bangli, Bali 80613","Cempaga, Kec. Bangli, Kabupaten Bangli",BALI,80613.0,Indonesia,81225696866.0,,,-8.4436937,115.3641232,https://maps.google.com/?cid=0x0:0x9906828ddef18659,
cafe,Restoran,UUMA ( eatery  playground ),"Jl. Tirta Mumbul, Bebalang, Kec. Bangli, Kabupaten Bangli, Bali 80614","Bebalang, Kec. Bangli, Kabupaten Bangli",BALI,80614.0,Indonesia,82340778768.0,,,-8.4681362,115.3465158,https://maps.google.com/?cid=0x0:0x2d44a1bf1e29542c,
cafe,Restoran,Giri Alam Coffe,"Jl. Karna LC Umabukal No.7, Cempaga, Kec. Bangli, Kabupaten Bangli, Bali 80614","Cempaga, Kec. Bangli, Kabupaten Bangli",BALI,80614.0,Indonesia,81337038182.0,,,-8.4492416,115.3576858,https://maps.google.com/?cid=0x0:0x19cc45ec3d0ff20f,
cafe,Restoran,Baker X Kitchen,"H946+95C, Jl. Sriwijaya, Cempaga, Kec. Bangli, Kabupaten Bangli, Bali 80613","Jl. Sriwijaya, Cempaga, Kec. Bangli, Kabupaten Bangli",BALI,80613.0,Indonesia,,,,-8.4440702,115.3603969,https://maps.google.com/?cid=0x0:0x2169d12cefd38319,
cafe,Kafe,Cafe TaJoG,"H924+3GF, Cempaga, Kec. Bangli, Kabupaten Bangli, Bali 80614","Cempaga, Kec. Bangli, Kabupaten Bangli",BALI,80614.0,Indonesia,,,,-8.4498018,115.3563097,https://maps.google.com/?cid=0x0:0x41b9a2be83da8c2b,
cafe,Kedai Kopi,KEDAI YB,"Jln. Brigjen Ngurah Rai Depan Telkom Bangli Lantai 1, Dbawah Shopping YB, Kawan, Kec. Bangli, Kabupaten Bangli, Bali 80614","Dbawah Shopping YB, Kawan, Kec. Bangli, Kabupaten Bangli",BALI,80614.0,Indonesia,82147938780.0,,,-8.458508,115.352908,https://maps.google.com/?cid=0x0:0x56587ceb49cd3901,
cafe,Bubble Tea,Manja cheese tea kubu bangli,"H9C7+GJG, Jl. Nusantara, Kubu, Kec. Bangli, Kabupaten Bangli, Bali 80613","Jl. Nusantara, Kubu, Kec. Bangli, Kabupaten Bangli",BALI,80613.0,Indonesia,87765865974.0,,,-8.4286961,115.3640926,https://maps.google.com/?cid=0x0:0x846597527f04b261,
cafe,Kedai Kopi,Pahdi Specialty Coffee,"P8FX+WJF, Jl. Raya Penelokan, Batur Tengah, Kec. Kintamani, Kabupaten Bangli, Bali 80652","Jl. Raya Penelokan, Batur Tengah, Kec. Kintamani, Kabupaten Bangli",BALI,80652.0,Indonesia,8113971277.0,,,-8.2750595,115.348932,https://maps.google.com/?cid=0x0:0x38832355638ac00c,
cafe,Kafe,Oregano pizza coffe  eatery,"Jl. Merdeka, Bebalang, Kec. Bangli, Kabupaten Bangli, Bali 80614","Bebalang, Kec. Bangli, Kabupaten Bangli",BALI,80614.0,Indonesia,87862510254.0,,,-8.4776876,115.3516381,https://maps.google.com/?cid=0x0:0x57c2783f00196c74,
cafe,Restoran,GOODAY CAFE,"H925+VFW Lc uma bukal, jalan kapten anom Jl. Kapten Mudita, Cempaga, Bangli, Bangli Regency, Bali 80614","jalan kapten anom Jl. Kapten Mudita, Cempaga, Bangli, Bangli Regency",BALI,80614.0,Indonesia,81246749966.0,,,-8.4477645,115.3587047,https://maps.google.com/?cid=0x0:0x957dab7b952b64e5,
cafe,Restoran,INFINITY RIVER club  resto,"Goa Raja Waterfall, Jehem, Kec. Tembuku, Kabupaten Bangli, Bali 80671","Jehem, Kec. Tembuku, Kabupaten Bangli",BALI,80671.0,Indonesia,,,,-8.4407065,115.3743286,https://maps.google.com/?cid=0x0:0x69b014de91e3caa9,
cafe,Restoran,Blessing Restaurant,"Goa Raja Waterfall, Jehem, Kec. Tembuku, Kabupaten Bangli, Bali 80671","Jehem, Kec. Tembuku, Kabupaten Bangli",BALI,80671.0,Indonesia,81327875558.0,,,-8.4405592,115.3744186,https://maps.google.com/?cid=0x0:0x4ca3c7ece1f78661,
cafe,cafe,Bangli,"Kawan, Kec. Bangli, Kabupaten Bangli, Bali","Kabupaten Bangli, Bali",BALI,,Indonesia,,,,-8.454303,115.354897,https://maps.google.com/?cid=0x0:0x4030bfbca7d2c10,
cafe,Kafe,Dijumah Cafe Bali,"Jl. Nusantara No.96, Cempaga, Kec. Bangli, Kabupaten Bangli, Bali 80613","Cempaga, Kec. Bangli, Kabupaten Bangli",BALI,80613.0,Indonesia,87861753335.0,,,-8.4435263,115.3561128,https://maps.google.com/?cid=0x0:0x89889d12514ff72b,
cafe,Nasi,Cafe Kebun Penglipuran,"Di Areal Hutan Bambu Penglipuran, Jl. Penglipuran, Kubu, Kec. Bangli, Kabupaten Bangli, Bali 80611","Jl. Penglipuran, Kubu, Kec. Bangli, Kabupaten Bangli",BALI,80611.0,Indonesia,82247580441.0,,,-8.4183135,115.3618733,https://maps.google.com/?cid=0x0:0xca40293642793bb,
cafe,Restoran,UUMA ( eatery  playground ),"Jl. Tirta Mumbul, Bebalang, Kec. Bangli, Kabupaten Bangli, Bali 80614","Bebalang, Kec. Bangli, Kabupaten Bangli",BALI,80614.0,Indonesia,82340778768.0,,,-8.4681362,115.3465158,https://maps.google.com/?cid=0x0:0x2d44a1bf1e29542c,
cafe,Restoran,Smooth Coffee  Tobacco,"Jl. Merdeka No.60, Kawan, Kec. Bangli, Kabupaten Bangli, Bali 80614","Kawan, Kec. Bangli, Kabupaten Bangli",BALI,80614.0,Indonesia,89667951156.0,,,-8.457802,115.3558847,https://maps.google.com/?cid=0x0:0x9928fad89adb8eef,
cafe,Kafe,Kedai Kami All Day Breakfast,"Jl. Kesumayudha, Kawan, Kec. Bangli, Kabupaten Bangli, Bali 80661","Kawan, Kec. Bangli, Kabupaten Bangli",BALI,80661.0,Indonesia,,,,-8.4530954,115.3487583,https://maps.google.com/?cid=0x0:0xef24d52fa8303295,
cafe,Restoran,Bamboo Cafe,"Jl. Penglipuran, Kubu, Kec. Bangli, Kabupaten Bangli, Bali 80661","Kubu, Kec. Bangli, Kabupaten Bangli",BALI,80661.0,Indonesia,82144543439.0,,,-8.4189443,115.3602731,https://maps.google.com/?cid=0x0:0x96a5c1006fe19096,
cafe,Kedai Kopi,Coffe Lingsir,"G982+XR7, Banjar petak, Bebalang, Kec. Bangli, Kabupaten Bangli, Bali","Kabupaten Bangli, Bali",BALI,,Indonesia,,,,-8.4825753,115.3520388,https://maps.google.com/?cid=0x0:0x86211638673a1219,
cafe,cafe,Warung Baduy,"Gang 1, Sanding, Kecamatan Bangli, Kabupaten Bangli, Bali 80614","Sanding, Kecamatan Bangli, Kabupaten Bangli",BALI,80614.0,Indonesia,82220373730.0,,,-6.4230429,106.9066698,https://maps.google.com/?cid=0x0:0x8eca0ca3464b3ccf,
cafe,Restoran,Pondok Kopi Penglipuran,"H9G5+M34, Desa, Penglipuran, Kubu, Bangli, Bangli Regency, Bali 80613","Desa, Penglipuran, Kubu, Bangli, Bangli Regency",BALI,80613.0,Indonesia,82237001972.0,,,-8.4233717,115.3576902,https://maps.google.com/?cid=0x0:0xc5ff72625414e70e,
cafe,Kedai Kopi,Pahdi Specialty Coffee,"P8FX+WJF, Jl. Raya Penelokan, Batur Tengah, Kec. Kintamani, Kabupaten Bangli, Bali 80652","Jl. Raya Penelokan, Batur Tengah, Kec. Kintamani, Kabupaten Bangli",BALI,80652.0,Indonesia,8113971277.0,,,-8.2750595,115.348932,https://maps.google.com/?cid=0x0:0x38832355638ac00c,
cafe,Kafe,Ritatkala Cafe,"P8RQ+92C, Jl. Raya Kintamani, Batur Sel., Kec. Kintamani, Kabupaten Bangli, Bali 80652","Jl. Raya Kintamani, Batur Sel., Kec. Kintamani, Kabupaten Bangli",BALI,80652.0,Indonesia,,,,-8.2564831,115.3365631,https://maps.google.com/?cid=0x0:0x9927f29e7f16788e,
cafe,Kedai Kopi,Montana Del Cafe,"P8MR+48V, Jl. Raya Penelokan No.889, Batur Sel., Kec. Kintamani, Kabupaten Bangli, Bali 80652","Jl. Raya Penelokan No.889, Batur Sel., Kec. Kintamani, Kabupaten Bangli",BALI,80652.0,Indonesia,81237236716.0,,,-8.2680071,115.3424449,https://maps.google.com/?cid=0x0:0xe93399784bf10228,
cafe,Pasar,Pasar Kidul Bangli,"Jl. Merdeka No.58, Kawan, Kec. Bangli, Kabupaten Bangli, Bali 80614","Kawan, Kec. Bangli, Kabupaten Bangli",BALI,80614.0,Indonesia,,,,-8.4553333,115.356461,https://maps.google.com/?cid=0x0:0x7ac7b39d4989e4b1,
cafe,Kedai Kopi,Tegukopi,"Jl. Raya Penelokan, Batur Tengah, Kec. Kintamani, Kabupaten Bangli, Bali 80652","Batur Tengah, Kec. Kintamani, Kabupaten Bangli",BALI,80652.0,Indonesia,81338300744.0,,,-8.2725664,115.3472637,https://maps.google.com/?cid=0x0:0xd782bf6222b50bc9,
cafe,Kedai Kopi,Himalila,"Jl. Raya Penelokan No.890, Batur Sel., Kec. Kintamani, Kabupaten Bangli, Bali 80652","Batur Sel., Kec. Kintamani, Kabupaten Bangli",BALI,80652.0,Indonesia,,,,-8.2683305,115.3425684,https://maps.google.com/?cid=0x0:0x8f1fefe3cafd6f3e,
cafe,Kedai Kopi,Mahen Cafe,"Jl. Raya Penelokan, Batur Tengah, Kec. Kintamani, Kabupaten Bangli, Bali 80652","Batur Tengah, Kec. Kintamani, Kabupaten Bangli",BALI,80652.0,Indonesia,81238589197.0,,,-8.2812623,115.3621795,https://maps.google.com/?cid=0x0:0x6ed8ca70f1c8d19b,
cafe,Rumah Makan,Betutu Keren Arda Yusa,"Jl. Serma Meranggi No.3, Kawan, Kec. Bangli, Kabupaten Bangli, Bali 80614","Kawan, Kec. Bangli, Kabupaten Bangli",BALI,80614.0,Indonesia,81388003115.0,,,-8.4558431,115.3556025,https://maps.google.com/?cid=0x0:0xdcea1556f231c888,
cafe,Kafe,Paperhills,"Jl. Raya Penelokan, Batur Sel., Kec. Kintamani, Kabupaten Bangli, Bali 80652","Batur Sel., Kec. Kintamani, Kabupaten Bangli",BALI,80652.0,Indonesia,8892172359.0,,,-8.2691285,115.3432578,https://maps.google.com/?cid=0x0:0x35aed82ae2b88625,
cafe,Kedai Kopi,AKASA Specialty Coffee,"Jl. Raya Penelokan No.777, Batur Tengah, Kec. Kintamani, Kabupaten Bangli, Bali 80652","Batur Tengah, Kec. Kintamani, Kabupaten Bangli",BALI,80652.0,Indonesia,87787657957.0,,,-8.2796067,115.3575395,https://maps.google.com/?cid=0x0:0xa5be2accdf6b4ba8,
cafe,Kafe,Cafe TaJoG,"H924+3GF, Cempaga, Kec. Bangli, Kabupaten Bangli, Bali 80614","Cempaga, Kec. Bangli, Kabupaten Bangli",BALI,80614.0,Indonesia,,,,-8.4498018,115.3563097,https://maps.google.com/?cid=0x0:0x41b9a2be83da8c2b,
cafe,Kedai Kopi,Kopi Humoris,"Jl. Nusantara No.19, Cempaga, Kec. Bangli, Kabupaten Bangli, Bali 80614","Cempaga, Kec. Bangli, Kabupaten Bangli",BALI,80614.0,Indonesia,81339770966.0,,,-8.4503327,115.3562609,https://maps.google.com/?cid=0x0:0xa981cc01c8f722a1,
cafe,Kedai Kopi,KAPTEN_KOPI,"G9X5+F7F, Jl. Kapten Mudita, Cempaga, Kec. Bangli, Kabupaten Bangli, Bali 80614","Jl. Kapten Mudita, Cempaga, Kec. Bangli, Kabupaten Bangli",BALI,80614.0,Indonesia,87825569666.0,,,-8.4513074,115.3581793,https://maps.google.com/?cid=0x0:0x52e66081c4bb2f1a,
cafe,Kedai Kopi,Kopi Soe Bangli,"Jl. Brigjen Ngurah Rai No.73, Bebalang, Kec. Bangli, Kabupaten Bangli, Bali 80614","Bebalang, Kec. Bangli, Kabupaten Bangli",BALI,80614.0,Indonesia,,,,-8.4663909,115.3526252,https://maps.google.com/?cid=0x0:0x2507a384038e1f1a,
cafe,Kafe,Club Ola Gloria,"G9V4+MFC, Kawan, Kec. Bangli, Kabupaten Bangli, Bali 80614","Kawan, Kec. Bangli, Kabupaten Bangli",BALI,80614.0,Indonesia,87761832791.0,,,-8.4558162,115.356156,https://maps.google.com/?cid=0x0:0xfcd6f9028b2beb00,
cafe,cafe,Bali 80652,"Kec. Kintamani, Kabupaten Bangli, Bali","Kabupaten Bangli, Bali",BALI,,Indonesia,,,,-8.2172149,115.3548713,https://maps.google.com/?cid=0x0:0x1c00c5eb6016bf60,
cafe,Kedai Kopi,Montana Del Cafe,"P8MR+48V, Jl. Raya Penelokan No.889, Batur Sel., Kec. Kintamani, Kabupaten Bangli, Bali 80652","Jl. Raya Penelokan No.889, Batur Sel., Kec. Kintamani, Kabupaten Bangli",BALI,80652.0,Indonesia,81237236716.0,,,-8.2680071,115.3424449,https://maps.google.com/?cid=0x0:0xe93399784bf10228,
cafe,Kedai Kopi,Pahdi Specialty Coffee,"P8FX+WJF, Jl. Raya Penelokan, Batur Tengah, Kec. Kintamani, Kabupaten Bangli, Bali 80652","Jl. Raya Penelokan, Batur Tengah, Kec. Kintamani, Kabupaten Bangli",BALI,80652.0,Indonesia,8113971277.0,,,-8.2750595,115.348932,https://maps.google.com/?cid=0x0:0x38832355638ac00c,
cafe,Kedai Kopi,Tegukopi,"Jl. Raya Penelokan, Batur Tengah, Kec. Kintamani, Kabupaten Bangli, Bali 80652","Batur Tengah, Kec. Kintamani, Kabupaten Bangli",BALI,80652.0,Indonesia,81338300744.0,,,-8.2725664,115.3472637,https://maps.google.com/?cid=0x0:0xd782bf6222b50bc9,
cafe,Kafe,Ritatkala Cafe,"P8RQ+92C, Jl. Raya Kintamani, Batur Sel., Kec. Kintamani, Kabupaten Bangli, Bali 80652","Jl. Raya Kintamani, Batur Sel., Kec. Kintamani, Kabupaten Bangli",BALI,80652.0,Indonesia,,,,-8.2564831,115.3365631,https://maps.google.com/?cid=0x0:0x9927f29e7f16788e,
cafe,Kedai Kopi,Mahen Cafe,"Jl. Raya Penelokan, Batur Tengah, Kec. Kintamani, Kabupaten Bangli, Bali 80652","Batur Tengah, Kec. Kintamani, Kabupaten Bangli",BALI,80652.0,Indonesia,81238589197.0,,,-8.2812623,115.3621795,https://maps.google.com/?cid=0x0:0x6ed8ca70f1c8d19b,
cafe,Kafe,el lago,"Jl. Raya Penelokan No.899, Batur Sel., Kec. Kintamani, Kabupaten Bangli, Bali 80652","Batur Sel., Kec. Kintamani, Kabupaten Bangli",BALI,80652.0,Indonesia,87884530150.0,,,-8.2674591,115.342025,https://maps.google.com/?cid=0x0:0xd22074e770cf737d,
cafe,Kedai Kopi,AKASA Specialty Coffee,"Jl. Raya Penelokan No.777, Batur Tengah, Kec. Kintamani, Kabupaten Bangli, Bali 80652","Batur Tengah, Kec. Kintamani, Kabupaten Bangli",BALI,80652.0,Indonesia,87787657957.0,,,-8.2796067,115.3575395,https://maps.google.com/?cid=0x0:0xa5be2accdf6b4ba8,
cafe,Kafe,Tamarillo Hexacafe Bali,"Batur Sel., Kec. Kintamani, Kabupaten Bangli, Bali 80652","Kec. Kintamani, Kabupaten Bangli",BALI,80652.0,Indonesia,81916115155.0,,,-8.259001,115.3375282,https://maps.google.com/?cid=0x0:0xdc312e837876a7c7,
cafe,Kedai Kopi,la vista coffeeroastery,"Batur Tengah, Kec. Kintamani, Kabupaten Bangli, Bali 80652","Kec. Kintamani, Kabupaten Bangli",BALI,80652.0,Indonesia,81338193588.0,,,-8.281084,115.3621354,https://maps.google.com/?cid=0x0:0x51f2d4ca801c3de0,
cafe,Restoran,Cowboy Restaurant Kintamani,"Jl. Raya Penelokan No.888, Batur Tengah, Kec. Kintamani, Kabupaten Bangli, Bali 80652","Batur Tengah, Kec. Kintamani, Kabupaten Bangli",BALI,80652.0,Indonesia,81999596999.0,,,-8.267141,115.3415641,https://maps.google.com/?cid=0x0:0xa56894e8ac4e22c,
cafe,cafe,Black Lava Camp  Cafe,"Jalan Bukit Payang No.88, Kintamani, Kec. Kintamani, Kabupaten Bangli, Bali 80652","Kintamani, Kec. Kintamani, Kabupaten Bangli",BALI,80652.0,Indonesia,81387673168.0,,,-8.2687441,115.354361,https://maps.google.com/?cid=0x0:0xea80f9655bdbd59e,
cafe,Kafe,Olympus Coffee Bali,"Jl. Raya Penelokan, Batur Tengah, Kec. Kintamani, Kabupaten Bangli, Bali 80652","Batur Tengah, Kec. Kintamani, Kabupaten Bangli",BALI,80652.0,Indonesia,81233339711.0,,,-8.2729391,115.347656,https://maps.google.com/?cid=0x0:0xc17a7062d07fa0ae,
cafe,cafe,Tiing Bali Guest House,"Batur Tengah, Kec. Kintamani, Kabupaten Bangli, Bali 80652","Kec. Kintamani, Kabupaten Bangli",BALI,80652.0,Indonesia,81246165505.0,,,-8.2765136,115.3651649,https://maps.google.com/?cid=0x0:0xb46e9bf7b658902f,
cafe,cafe,Batur Lakeview,"P997+CPW, Unnamed Road, Batur Tengah, Kec. Kintamani, Kabupaten Bangli, Bali 80652","Unnamed Road, Batur Tengah, Kec. Kintamani, Kabupaten Bangli",BALI,80652.0,Indonesia,,,,-8.281381,115.364335,https://maps.google.com/?cid=0x0:0x72f4536fc037e981,
cafe,cafe,Sari Sky Villa,"Unnamed Road, Central Batur, Kintamani, Bangli Regency, Bali 80652","Central Batur, Kintamani, Bangli Regency",BALI,80652.0,Indonesia,,,,-8.2719096,115.3680715,https://maps.google.com/?cid=0x0:0xa4cb97cbde9c677c,
cafe,cafe,Gn. Batur,"Batur Sel., Kec. Kintamani, Kabupaten Bangli, Bali","Kabupaten Bangli, Bali",BALI,,Indonesia,,,,-8.2401299,115.3774944,https://maps.google.com/?cid=0x0:0xd38045afa18670b4,
cafe,Toko Bebas Bea,Bandara Internasional I Gusti Ngurah Rai (DPS),"Bandara International I Gusti Ngurah Rai, Kabupaten Badung, Bali 80362",Kabupaten Badung,BALI,80362.0,Indonesia,85166911003.0,,,-8.7469933,115.1681655,https://maps.google.com/?cid=0x0:0xdf71da6ddd7bcc1f,
cafe,Kedai Kopi,Himalila,"Jl. Raya Penelokan No.890, Batur Sel., Kec. Kintamani, Kabupaten Bangli, Bali 80652","Batur Sel., Kec. Kintamani, Kabupaten Bangli",BALI,80652.0,Indonesia,,,,-8.2683305,115.3425684,https://maps.google.com/?cid=0x0:0x8f1fefe3cafd6f3e,
cafe,Kafe,Vedzpresso Coffee,"Jl. Raya Penelokan, Batur Tengah, Kec. Kintamani, Kabupaten Bangli, Bali 80652","Batur Tengah, Kec. Kintamani, Kabupaten Bangli",BALI,80652.0,Indonesia,82146078005.0,,,-8.2771728,115.3510885,https://maps.google.com/?cid=0x0:0x819f8968dc25cd76,
cafe,Kafe,Sisi Gege Café  Resto,"Jl. Raya Kintamani, Batur Sel., Kec. Kintamani, Kabupaten Bangli, Bali 80652","Batur Sel., Kec. Kintamani, Kabupaten Bangli",BALI,80652.0,Indonesia,3665531791.0,,,-8.2601266,115.3368384,https://maps.google.com/?cid=0x0:0x41a15e5b513cf557,
cafe,Kafe,Paperhills,"Jl. Raya Penelokan, Batur Sel., Kec. Kintamani, Kabupaten Bangli, Bali 80652","Batur Sel., Kec. Kintamani, Kabupaten Bangli",BALI,80652.0,Indonesia,8892172359.0,,,-8.2691285,115.3432578,https://maps.google.com/?cid=0x0:0x35aed82ae2b88625,
cafe,Prasmanan,"sari mountain View Restaurant, Bar and Coffee","Jl. Raya Penelokan 888 Br Masem, Batur Selatan, Kintamani, Batur Sel., Kec. Kintamani, Kabupaten Bangli, Bali 80652","Batur Selatan, Kintamani, Batur Sel., Kec. Kintamani, Kabupaten Bangli",BALI,80652.0,Indonesia,87753498058.0,,,-8.2675208,115.3420161,https://maps.google.com/?cid=0x0:0xe38bc208a2fa124,
cafe,Kedai Kopi,JEZERA CAFE,"Jl. Windu Sara, Kedisan, Kec. Kintamani, Kabupaten Bangli, Bali 80652","Kedisan, Kec. Kintamani, Kabupaten Bangli",BALI,80652.0,Indonesia,87840523331.0,,,-8.2790204,115.3670866,https://maps.google.com/?cid=0x0:0x875da8d32f5b54c0,
cafe,Kafe,Rockaway Kintamani Bali,"Jl. Raya Penelokan No.888, Batur Sel., Kec. Kintamani, Kabupaten Bangli, Bali 80652","Batur Sel., Kec. Kintamani, Kabupaten Bangli",BALI,80652.0,Indonesia,85337229533.0,,,-8.2658427,115.3407111,https://maps.google.com/?cid=0x0:0xca46c2fea6bec3c8,
cafe,cafe,Kintamani,"Batur Utara, Kec. Kintamani, Kabupaten Bangli, Bali","Kabupaten Bangli, Bali",BALI,,Indonesia,,,,-8.2528889,115.3324266,https://maps.google.com/?cid=0x0:0x11019959a8f510b7,
cafe,Kedai Kopi,Kintamani Coffee Place,"P8QQ+HM7, Jl. Raya Penelokan, Batur Sel., Kec. Kintamani, Kabupaten Bangli, Bali 80652","Jl. Raya Penelokan, Batur Sel., Kec. Kintamani, Kabupaten Bangli",BALI,80652.0,Indonesia,,,,-8.2610959,115.3391693,https://maps.google.com/?cid=0x0:0x35d808132128a50f,
cafe,Prasmanan,Okuta,"Jl. Raya Penelokan, Batur Tengah, Kec. Kintamani, Kabupaten Bangli, Bali 80652","Batur Tengah, Kec. Kintamani, Kabupaten Bangli",BALI,80652.0,Indonesia,87849580650.0,,,-8.2820958,115.3638168,https://maps.google.com/?cid=0x0:0x43b12f0e5577c67,
cafe,Kafe,Tri Mount Coffee  Resto,"Jl. Raya Kintamani, Kintamani, Kec. Kintamani, Kabupaten Bangli, Bali 80652","Kintamani, Kec. Kintamani, Kabupaten Bangli",BALI,80652.0,Indonesia,,,,-8.2237064,115.3242535,https://maps.google.com/?cid=0x0:0x58ce70565e190dfa,
cafe,Toko,Kopi Nini,"H8GW+4F2, JL Br. Demulih, Susut, Sulahan, Kec. Bangli, Kabupaten Bangli, Bali 80661","JL Br. Demulih, Susut, Sulahan, Kec. Bangli, Kabupaten Bangli",BALI,80661.0,Indonesia,81236944574.0,,,-8.424744,115.346138,https://maps.google.com/?cid=0x0:0x2b15129d93f59082,
cafe,Kafe,Toko Nini Puji,"J8GQ+893, Jl. Tampaksiring, Penglumbaran, Kec. Tampaksiring, Kabupaten Gianyar, Bali 80551","Jl. Tampaksiring, Penglumbaran, Kec. Tampaksiring, Kabupaten Gianyar",BALI,80551.0,Indonesia,85237365788.0,,,-8.3742478,115.3384231,https://maps.google.com/?cid=0x0:0x314ddf9fafa1e5ad,
cafe,cafe,Susut,"Sulahan, Kec. Susut, Kabupaten Bangli, Bali","Kabupaten Bangli, Bali",BALI,,Indonesia,,,,-8.424873,115.346001,https://maps.google.com/?cid=0x0:0xc2e9cdd58e9468fb,
cafe,Kafe,Kedai Kami All Day Breakfast,"Jl. Kesumayudha, Kawan, Kec. Bangli, Kabupaten Bangli, Bali 80661","Kawan, Kec. Bangli, Kabupaten Bangli",BALI,80661.0,Indonesia,,,,-8.4530954,115.3487583,https://maps.google.com/?cid=0x0:0xef24d52fa8303295,
cafe,Restoran,Smooth Coffee  Tobacco,"Jl. Merdeka No.60, Kawan, Kec. Bangli, Kabupaten Bangli, Bali 80614","Kawan, Kec. Bangli, Kabupaten Bangli",BALI,80614.0,Indonesia,89667951156.0,,,-8.457802,115.3558847,https://maps.google.com/?cid=0x0:0x9928fad89adb8eef,
cafe,Kafe,Jimmy Cafetaria,"G8XX+C6P, Susut, Kec. Susut, Kabupaten Bangli, Bali 80661","Susut, Kec. Susut, Kabupaten Bangli",BALI,80661.0,Indonesia,,,,-8.4514231,115.3480875,https://maps.google.com/?cid=0x0:0xa94a03e2f33c245,
cafe,Restoran,Kedai Didho,"Jl. Kesumayudha No.8, Susut, Kec. Susut, Kabupaten Bangli, Bali 80661","Susut, Kec. Susut, Kabupaten Bangli",BALI,80661.0,Indonesia,,,,-8.4481324,115.3446391,https://maps.google.com/?cid=0x0:0xd5d8b5a27340e05d,
cafe,Kedai Kopi,NUGI BALI,"Jl. Tirta Selukat I, Bebalang, Kec. Bangli, Kabupaten Bangli, Bali 80614","Bebalang, Kec. Bangli, Kabupaten Bangli",BALI,80614.0,Indonesia,82145421106.0,,,-8.4663646,115.350125,https://maps.google.com/?cid=0x0:0x3e458d94f204718b,
cafe,Restoran,Bamboo Cafe,"Jl. Penglipuran, Kubu, Kec. Bangli, Kabupaten Bangli, Bali 80661","Kubu, Kec. Bangli, Kabupaten Bangli",BALI,80661.0,Indonesia,82144543439.0,,,-8.4189443,115.3602731,https://maps.google.com/?cid=0x0:0x96a5c1006fe19096,
cafe,Restoran,Warung 78,"J8QW+HM2, Tiga, Kec. Susut, Kabupaten Bangli, Bali 80661","Tiga, Kec. Susut, Kabupaten Bangli",BALI,80661.0,Indonesia,83115708209.0,,,-8.3611129,115.3466264,https://maps.google.com/?cid=0x0:0xdc1941197c35d3e5,
cafe,Rumah Makan,Gliwir Catering,"H8GW+8WW, Jl. Kesumayudha, Sulahan, Kec. Susut, Kabupaten Bangli, Bali 80661","Jl. Kesumayudha, Sulahan, Kec. Susut, Kabupaten Bangli",BALI,80661.0,Indonesia,85941457738.0,,,-8.4241292,115.3473214,https://maps.google.com/?cid=0x0:0x264a0dbdad2bf4c1,
cafe,Sate,LESEHAN JOKO,"H8GW+6VF, Jl. Putra Yuda, Sulahan, Kec. Susut, Kabupaten Bangli, Bali 80661","Jl. Putra Yuda, Sulahan, Kec. Susut, Kabupaten Bangli",BALI,80661.0,Indonesia,85239173718.0,,,-8.4244256,115.3471724,https://maps.google.com/?cid=0x0:0xcab2adea36409f10,
cafe,Restoran,Pondok Kopi Penglipuran,"H9G5+M34, Desa, Penglipuran, Kubu, Bangli, Bangli Regency, Bali 80613","Desa, Penglipuran, Kubu, Bangli, Bangli Regency",BALI,80613.0,Indonesia,82237001972.0,,,-8.4233717,115.3576902,https://maps.google.com/?cid=0x0:0xc5ff72625414e70e,
cafe,Restoran,UUMA ( eatery  playground ),"Jl. Tirta Mumbul, Bebalang, Kec. Bangli, Kabupaten Bangli, Bali 80614","Bebalang, Kec. Bangli, Kabupaten Bangli",BALI,80614.0,Indonesia,82340778768.0,,,-8.4681362,115.3465158,https://maps.google.com/?cid=0x0:0x2d44a1bf1e29542c,
cafe,Kedai Kopi,Pahdi Specialty Coffee,"P8FX+WJF, Jl. Raya Penelokan, Batur Tengah, Kec. Kintamani, Kabupaten Bangli, Bali 80652","Jl. Raya Penelokan, Batur Tengah, Kec. Kintamani, Kabupaten Bangli",BALI,80652.0,Indonesia,8113971277.0,,,-8.2750595,115.348932,https://maps.google.com/?cid=0x0:0x38832355638ac00c,
cafe,Restoran,Warung Tunjung,"Jl. Kesumayudha No.51, Sulahan, Kec. Susut, Kabupaten Bangli, Bali 80661","Sulahan, Kec. Susut, Kabupaten Bangli",BALI,80661.0,Indonesia,,,,-8.4258397,115.3467899,https://maps.google.com/?cid=0x0:0xd2231c8e9f125a2,
cafe,Restoran,Cafe Motor,"G9X5+C8Q, Jl. Kapten Mudita, Kawan, Kec. Bangli, Kabupaten Bangli, Bali 80612","Jl. Kapten Mudita, Kawan, Kec. Bangli, Kabupaten Bangli",BALI,80612.0,Indonesia,85237580000.0,,,-8.4514153,115.3583599,https://maps.google.com/?cid=0x0:0x8ae8a0958d4ea829,
cafe,Kedai Kopi,Bukit Susu,"Jln bukit asri rt 1/ 3 no 50, Pagelaran, Kec. Ciomas, Kabupaten Bogor, Jawa Barat 16610","Pagelaran, Kec. Ciomas, Kabupaten Bogor",BALI,16610.0,Indonesia,85157299648.0,,,-6.6033373,106.7620928,https://maps.google.com/?cid=0x0:0x4ea529973704d248,
cafe,Kedai Kopi,Warkop Mind_Lu |Teh Susu Telor (TST),"CQF3+7V3, Laladon, Kec. Ciomas, Kabupaten Bogor, Jawa Barat 16610","Laladon, Kec. Ciomas, Kabupaten Bogor",BALI,16610.0,Indonesia,85218340452.0,,,-6.5768731,106.7546603,https://maps.google.com/?cid=0x0:0xfd6b1d6e6f64fdfc,
cafe,Kafe,Kopi Satu Tudju - Home Made Cheese Cake  Cookies,"Jl. Paledang No.17, RT.02/RW.01, Paledang, Kecamatan Bogor Tengah, Kota Bogor, Jawa Barat 16122","RT.02/RW.01, Paledang, Kecamatan Bogor Tengah, Kota Bogor",BALI,16122.0,Indonesia,87813185337.0,,,-6.5981486,106.7899376,https://maps.google.com/?cid=0x0:0xf58fff934a3d63d5,
cafe,Rumah Makan,Sususi_id,"Jl. Raya Rancabungur No.42, Rancabungur, Kec. Ranca Bungur, Kabupaten Bogor, Jawa Barat 16310","Rancabungur, Kec. Ranca Bungur, Kabupaten Bogor",BALI,16310.0,Indonesia,89516600677.0,,,-6.5351511,106.6987782,https://maps.google.com/?cid=0x0:0x6c669d6aa6e99dab,
cafe,Kedai Kopi,6PAN Cafe SRUPUT TUNAS 7M,"Jl. Tunas No.72, RT.01/RW.04, Sukaresmi, Kec. Tanah Sereal, Kota Bogor, Jawa Barat 16165","RT.01/RW.04, Sukaresmi, Kec. Tanah Sereal, Kota Bogor",BALI,16165.0,Indonesia,85814577788.0,,,-6.5542365,106.7978526,https://maps.google.com/?cid=0x0:0x9d65e54de699332c,
cafe,cafe,Bali 80671,"Kec. Tembuku, Kabupaten Bangli, Bali","Kabupaten Bangli, Bali",BALI,,Indonesia,,,,-8.4058202,115.3904215,https://maps.google.com/?cid=0x0:0x1c00c5eb6016bf80,
cafe,Restoran,Happy Frog Restaurant,"Tukad Cepung Waterfall Street, Kabupaten Bangli, Bali 80671",Kabupaten Bangli,BALI,80671.0,Indonesia,87758106916.0,,,-8.4412933,115.3885866,https://maps.google.com/?cid=0x0:0x57544f170bbe6635,
cafe,Restoran,The Cepung Lounge  Restaurant,"Penida Kelod, Tembuku, Kec. Tembuku, Kabupaten Bangli, Bali 80671","Tembuku, Kec. Tembuku, Kabupaten Bangli",BALI,80671.0,Indonesia,85253676661.0,,,-8.4410187,115.3886363,https://maps.google.com/?cid=0x0:0xb79703463d8820fc,
cafe,Nasi,Cafe Kebun Penglipuran,"Di Areal Hutan Bambu Penglipuran, Jl. Penglipuran, Kubu, Kec. Bangli, Kabupaten Bangli, Bali 80611","Jl. Penglipuran, Kubu, Kec. Bangli, Kabupaten Bangli",BALI,80611.0,Indonesia,82247580441.0,,,-8.4183135,115.3618733,https://maps.google.com/?cid=0x0:0xca40293642793bb,
cafe,Restoran,Cucina Del Gabrille,"Penida Kelod, Kec. Tembuku, Kabupaten Bangli, Bali 80671","Kec. Tembuku, Kabupaten Bangli",BALI,80671.0,Indonesia,81339325099.0,,,-8.4409641,115.3869283,https://maps.google.com/?cid=0x0:0xed24f9a59150096c,
cafe,Rumah Makan,Warung makan apit kuta,"H95P+GHW, Tembuku, Kec. Tembuku, Kabupaten Bangli, Bali 80671","Tembuku, Kec. Tembuku, Kabupaten Bangli",BALI,80671.0,Indonesia,,,,-8.4424344,115.3862061,https://maps.google.com/?cid=0x0:0x125132a76d309987,
cafe,Restoran,Blessing Restaurant,"Goa Raja Waterfall, Jehem, Kec. Tembuku, Kabupaten Bangli, Bali 80671","Jehem, Kec. Tembuku, Kabupaten Bangli",BALI,80671.0,Indonesia,81327875558.0,,,-8.4405592,115.3744186,https://maps.google.com/?cid=0x0:0x4ca3c7ece1f78661,
cafe,Restoran,Warung D'Kubu,"Jl. Tembuku, Dusun Penida Kelod, Kec. Tembuku, Kabupaten Bangli, Bali 80671","Dusun Penida Kelod, Kec. Tembuku, Kabupaten Bangli",BALI,80671.0,Indonesia,81930999946.0,,,-8.4409877,115.3882415,https://maps.google.com/?cid=0x0:0xf52b197eab8db3c1,
cafe,Rumah Makan,keluarga besar jero canang,"H9CR+F6H, Yangapi, Kec. Tembuku, Kabupaten Bangli, Bali 80671","Yangapi, Kec. Tembuku, Kabupaten Bangli",BALI,80671.0,Indonesia,85272374933.0,,,-8.4288089,115.3906177,https://maps.google.com/?cid=0x0:0x39a170d389ef85e3,
cafe,Kafe,esmade_PENGLIPURAN,"Jl. Penglipuran No.63, Kubu, Kec. Bangli, Kabupaten Bangli, Bali 80661","Kubu, Kec. Bangli, Kabupaten Bangli",BALI,80661.0,Indonesia,81238316251.0,,,-8.4231359,115.3586167,https://maps.google.com/?cid=0x0:0xf029b6570bb6fb11,
cafe,Kedai Kopi,TEN TEN COFFEE 4,"H93Q+6PM, Jl. Raya Besakih, Yangapi, Kec. Tembuku, Kabupaten Bangli, Bali 80671","Jl. Raya Besakih, Yangapi, Kec. Tembuku, Kabupaten Bangli",BALI,80671.0,Indonesia,85237357834.0,,,-8.4469145,115.3893085,https://maps.google.com/?cid=0x0:0x8335c0dea9eb4a0e,
cafe,Restoran,Bamboo Cafe,"Jl. Penglipuran, Kubu, Kec. Bangli, Kabupaten Bangli, Bali 80661","Kubu, Kec. Bangli, Kabupaten Bangli",BALI,80661.0,Indonesia,82144543439.0,,,-8.4189443,115.3602731,https://maps.google.com/?cid=0x0:0x96a5c1006fe19096,
cafe,Kedai Kopi,KopikopiKu,"Br. Tambahan Jalan Bakas, Jehem, Kec. Tembuku, Kabupaten Bangli, Bali 80752","Jehem, Kec. Tembuku, Kabupaten Bangli",BALI,80752.0,Indonesia,,,,-8.4600365,115.3689826,https://maps.google.com/?cid=0x0:0xb60230dcc3d6b035,
cafe,Komplek perumahan,Phecamil House,"HCR7+X53, Peninjoan, Kec. Tembuku, Kabupaten Bangli, Bali 80671","Peninjoan, Kec. Tembuku, Kabupaten Bangli",BALI,80671.0,Indonesia,82297310584.0,,,-8.4076123,115.4129287,https://maps.google.com/?cid=0x0:0xf76a270719496a9a,
cafe,cafe,De Klumpu Bali Eco Tradi Stay,"Undisan, Kec. Tembuku, Kabupaten Bangli, Bali 80671","Kec. Tembuku, Kabupaten Bangli",BALI,80671.0,Indonesia,8123811161.0,,,-8.4542892,115.3944165,https://maps.google.com/?cid=0x0:0xee21fdc9d042e005,
cafe,cafe,,,,BALI,,Indonesia,,,,,,https://maps.google.com/?cid=0x0:0xee21fdc9d042e005%7C/g/11ckvksnwr%7Cid-ID,
cafe,cafe,Griya Valud Sidemen,"Jl. Sidemen - Sangkan Gn., Telaga Tawang, Kec. Sidemen, Kabupaten Karangasem, Bali 80864","Telaga Tawang, Kec. Sidemen, Kabupaten Karangasem",BALI,80864.0,Indonesia,81236088446.0,,,-8.4683524,115.4403901,https://maps.google.com/?cid=0x0:0x8dd2adb7fe095c7e,
cafe,cafe,Cemara Green Hill,"GC6M+PJH, Jl. Wangsean - Klungah, Wismakerta, Kec. Sidemen, Kabupaten Karangasem, Bali 80864","Jl. Wangsean - Klungah, Wismakerta, Kec. Sidemen, Kabupaten Karangasem",BALI,80864.0,Indonesia,,,,-8.4811388,115.4327984,https://maps.google.com/?cid=0x0:0x52ecf5d46c77cc0a,
cafe,cafe,Graha Ayoe,"Jalan Dusun Dukuh, Sangkan Gn., Kec. Sidemen, Kabupaten Karangasem, Bali 80864","Sangkan Gn., Kec. Sidemen, Kabupaten Karangasem",BALI,80864.0,Indonesia,,,,-8.460297,115.4440145,https://maps.google.com/?cid=0x0:0xf75273c8b8d1d61b,
cafe,cafe,Villa Kropak,"Jl. Raya Tebola No.3, Telaga Tawang, Kec. Sidemen, Kabupaten Karangasem, Bali 80864","Telaga Tawang, Kec. Sidemen, Kabupaten Karangasem",BALI,80864.0,Indonesia,81339414215.0,,,-8.4750925,115.4402794,https://maps.google.com/?cid=0x0:0xc0e5fc09bf3bb469,
cafe,Titik Pemandangan,Tukad cepung waterfall,"Jl. Tembuku, Tembuku, Kec. Tembuku, Kabupaten Bangli, Bali 80671","Tembuku, Kec. Tembuku, Kabupaten Bangli",BALI,80671.0,Indonesia,87863220041.0,,,-8.4410173,115.3868079,https://maps.google.com/?cid=0x0:0xbd3a446ae88503f,
cafe,Toko Bebas Bea,Bandara Internasional I Gusti Ngurah Rai (DPS),"Bandara International I Gusti Ngurah Rai, Kabupaten Badung, Bali 80362",Kabupaten Badung,BALI,80362.0,Indonesia,85166911003.0,,,-8.7469933,115.1681655,https://maps.google.com/?cid=0x0:0xdf71da6ddd7bcc1f,
cafe,Kedai Kopi,Warung Tetaring Icip-Icip Enak,"Jl. Raya Besakih No.1, Undisan, Kec. Tembuku, Kabupaten Bangli, Bali 80671","Undisan, Kec. Tembuku, Kabupaten Bangli",BALI,80671.0,Indonesia,81236796345.0,,,-8.4466853,115.4013609,https://maps.google.com/?cid=0x0:0xbe8934826c49c4f8,
cafe,Tempat Penampungan,Kedai penida kaja,"H9CM+8VW, Jl. Tembuku, Tembuku, Kec. Tembuku, Kabupaten Bangli, Bali 80671","Jl. Tembuku, Tembuku, Kec. Tembuku, Kabupaten Bangli",BALI,80671.0,Indonesia,,,,-8.4291326,115.3847122,https://maps.google.com/?cid=0x0:0x2f52729c390c79fc,
cafe,Kedai Kopi,Kopcingkwa,"H93Q+4W5, Jl. Raya Besakih, Yangapi, Kec. Tembuku, Kabupaten Bangli, Bali 80671","Jl. Raya Besakih, Yangapi, Kec. Tembuku, Kabupaten Bangli",BALI,80671.0,Indonesia,,,,-8.4472431,115.3898541,https://maps.google.com/?cid=0x0:0x3da3394fdf3dea8c,
cafe,Kedai Kopi,Warung D' pangkung,"Br jehem kaja, Jehem, Kec. Tembuku, Kabupaten Bangli, Bali 80671","Jehem, Kec. Tembuku, Kabupaten Bangli",BALI,80671.0,Indonesia,85739123724.0,,,-8.4384943,115.395431,https://maps.google.com/?cid=0x0:0x6b7979cd7c841d72,
cafe,Kedai Kopi,NOMOR 2B,"H9MQ+4R2, Yangapi, Kec. Tembuku, Kabupaten Bangli, Bali 80671","Yangapi, Kec. Tembuku, Kabupaten Bangli",BALI,80671.0,Indonesia,85230600186.0,,,-8.4172118,115.3893815,https://maps.google.com/?cid=0x0:0xa73dc9b707242d4a,
cafe,Restoran,INFINITY RIVER club  resto,"Goa Raja Waterfall, Jehem, Kec. Tembuku, Kabupaten Bangli, Bali 80671","Jehem, Kec. Tembuku, Kabupaten Bangli",BALI,80671.0,Indonesia,,,,-8.4407065,115.3743286,https://maps.google.com/?cid=0x0:0x69b014de91e3caa9,
cafe,Sarapan,Angkringan Pan Lombeng,"H92X+QH7, Jl. Raya Besakih, Undisan, Kec. Tembuku, Kabupaten Bangli, Bali 80671","Jl. Raya Besakih, Undisan, Kec. Tembuku, Kabupaten Bangli",BALI,80671.0,Indonesia,8561611322.0,,,-8.448094,115.3989288,https://maps.google.com/?cid=0x0:0x311fc2ec45e67664,
