Category,Real Category,Business Name,Address,City,State,Postal Code,Country,Phone,Email,Website,Latitude,Longitude,Map Link,Details Link
hardware store,hardware store,Bali 80611,"Kabupaten Bangli, Bali","Kabupaten Bangli, Bali",BALI,,Indonesia,,,,-8.4047261,115.3696844,https://maps.google.com/?cid=0x0:0x1c00c5eb6016bf10,
hardware store,Toko Alat Listrik,RUMAH LISTRIK (BT),"H9V7+X3F, Dusun Mampeh, Kayubihi, Kec. Bangli, Kabupaten Bangli, Bali 80661","Dusun Mampeh, Kayubihi, Kec. Bangli, Kabupaten Bangli",BALI,80661.0,Indonesia,83119889270.0,,,-8.4050524,115.3626774,https://maps.google.com/?cid=0x0:0xd1d3e33894de6eff,
hardware store,Pusat Perbelanjaan,JESSE14STORE,"G9C2+3H3, Jl. Merdeka, Bebalang, Kec. Bangli, Kabupaten Bangli, Bali 80614","Jl. Merdeka, Bebalang, Kec. Bangli, Kabupaten Bangli",BALI,80614.0,Indonesia,895339162591.0,,,-8.4798674,115.3514211,https://maps.google.com/?cid=0x0:0xe24a845fc7af1a70,
hardware store,Toko Motorsport,KEMBAR HELM  ALAT LISTRIK,"H925+7FC, Jl. Kapten Mudita, Kawan, Kec. Bangli, Kabupaten Bangli, Bali 80612","Jl. Kapten Mudita, Kawan, Kec. Bangli, Kabupaten Bangli",BALI,80612.0,Indonesia,81353674500.0,,,-8.4493206,115.358629,https://maps.google.com/?cid=0x0:0xf54c88b8fbd05d50,
hardware store,Bengkel Mobil,DARMASARI MOTOR,"Jl. Veteran, Kayubihi, Kec. Bangli, Kabupaten Bangli, Bali 80619","Kayubihi, Kec. Bangli, Kabupaten Bangli",BALI,80619.0,Indonesia,81237378519.0,,,-8.4054036,115.3630141,https://maps.google.com/?cid=0x0:0x6b4a8f6a78872985,
hardware store,Toko Elektronik,Highcloud vape Bangli,"G9W3+CQ3, Kawan, Kec. Bangli, Kabupaten Bangli, Bali 80614","Kawan, Kec. Bangli, Kabupaten Bangli",BALI,80614.0,Indonesia,,,,-8.4539638,115.3542922,https://maps.google.com/?cid=0x0:0xb8a5ab4b1b188b39,
hardware store,Grosir Peralatan Listrik,Toko Wiguna Listrik,"Jalan Bukti No.44,Banjar Bukti, Yangapi, Kec. Tembuku, Kabupaten Bangli, Bali 80671","Yangapi, Kec. Tembuku, Kabupaten Bangli",BALI,80671.0,Indonesia,81338331408.0,,,-8.3800541,115.3859504,https://maps.google.com/?cid=0x0:0x78e2fc54c8ad784f,
hardware store,Toko Perlengkapan Rumah,Toko Enka,"G8WQ+H7Q, Demulih, Kec. Susut, Kabupaten Bangli, Bali 80661","Demulih, Kec. Susut, Kabupaten Bangli",BALI,80661.0,Indonesia,,,,-8.4535486,115.3382338,https://maps.google.com/?cid=0x0:0x6191d995a3b0d927,
hardware store,Toko Bahan Bangunan,Toko Sabar,"Jl. Nangka No.10, Kawan, Kec. Bangli, Kabupaten Bangli, Bali 80614","Kawan, Kec. Bangli, Kabupaten Bangli",BALI,80614.0,Indonesia,81238339697.0,,,-8.4549495,115.3569348,https://maps.google.com/?cid=0x0:0x439ac295b1728099,
hardware store,Toko,Bebalang prabotan,"Bebalang, Kec. Bangli, Kabupaten Bangli, Bali 80613","Kec. Bangli, Kabupaten Bangli",BALI,80613.0,Indonesia,82247255599.0,,,-8.4710561,115.3529164,https://maps.google.com/?cid=0x0:0x855f479326f2b61c,
hardware store,hardware store,Bali 80612,"Kabupaten Bangli, Bali","Kabupaten Bangli, Bali",BALI,,Indonesia,,,,-8.4198291,115.3696844,https://maps.google.com/?cid=0x0:0x1c00c5eb6016bf20,
hardware store,Toko Bahan Bangunan,RISKI RAUH,"H9G7+VRG, Jl. Nusantara, Kubu, Kec. Bangli, Kabupaten Bangli, Bali 80613","Jl. Nusantara, Kubu, Kec. Bangli, Kabupaten Bangli",BALI,80613.0,Indonesia,81999312855.0,,,-8.4228071,115.3645844,https://maps.google.com/?cid=0x0:0x4e37d43dc59b35ce,
hardware store,Pusat Perbelanjaan,JESSE14STORE,"G9C2+3H3, Jl. Merdeka, Bebalang, Kec. Bangli, Kabupaten Bangli, Bali 80614","Jl. Merdeka, Bebalang, Kec. Bangli, Kabupaten Bangli",BALI,80614.0,Indonesia,895339162591.0,,,-8.4798674,115.3514211,https://maps.google.com/?cid=0x0:0xe24a845fc7af1a70,
hardware store,Toko Motorsport,KEMBAR HELM  ALAT LISTRIK,"H925+7FC, Jl. Kapten Mudita, Kawan, Kec. Bangli, Kabupaten Bangli, Bali 80612","Jl. Kapten Mudita, Kawan, Kec. Bangli, Kabupaten Bangli",BALI,80612.0,Indonesia,81353674500.0,,,-8.4493206,115.358629,https://maps.google.com/?cid=0x0:0xf54c88b8fbd05d50,
hardware store,Toko,alat tulis lengkap,"br.guliang kangin, Taman Bali, Kec. Bangli, Kabupaten Bangli, Bali 80611","Taman Bali, Kec. Bangli, Kabupaten Bangli",BALI,80611.0,Indonesia,87858616562.0,,,-8.4047261,115.3696844,https://maps.google.com/?cid=0x0:0x70ce3aeaa4571990,
hardware store,Toko Elektronik,Highcloud vape Bangli,"G9W3+CQ3, Kawan, Kec. Bangli, Kabupaten Bangli, Bali 80614","Kawan, Kec. Bangli, Kabupaten Bangli",BALI,80614.0,Indonesia,,,,-8.4539638,115.3542922,https://maps.google.com/?cid=0x0:0xb8a5ab4b1b188b39,
hardware store,Bengkel Mobil,DARMASARI MOTOR,"Jl. Veteran, Kayubihi, Kec. Bangli, Kabupaten Bangli, Bali 80619","Kayubihi, Kec. Bangli, Kabupaten Bangli",BALI,80619.0,Indonesia,81237378519.0,,,-8.4054036,115.3630141,https://maps.google.com/?cid=0x0:0x6b4a8f6a78872985,
hardware store,Grosir Peralatan Listrik,Toko Wiguna Listrik,"Jalan Bukti No.44,Banjar Bukti, Yangapi, Kec. Tembuku, Kabupaten Bangli, Bali 80671","Yangapi, Kec. Tembuku, Kabupaten Bangli",BALI,80671.0,Indonesia,81338331408.0,,,-8.3800541,115.3859504,https://maps.google.com/?cid=0x0:0x78e2fc54c8ad784f,
hardware store,Toko Perlengkapan Rumah,Toko Enka,"G8WQ+H7Q, Demulih, Kec. Susut, Kabupaten Bangli, Bali 80661","Demulih, Kec. Susut, Kabupaten Bangli",BALI,80661.0,Indonesia,,,,-8.4535486,115.3382338,https://maps.google.com/?cid=0x0:0x6191d995a3b0d927,
hardware store,Toko Bahan Bangunan,Toko Sabar,"Jl. Nangka No.10, Kawan, Kec. Bangli, Kabupaten Bangli, Bali 80614","Kawan, Kec. Bangli, Kabupaten Bangli",BALI,80614.0,Indonesia,81238339697.0,,,-8.4549495,115.3569348,https://maps.google.com/?cid=0x0:0x439ac295b1728099,
hardware store,Toko,Bebalang prabotan,"Bebalang, Kec. Bangli, Kabupaten Bangli, Bali 80613","Kec. Bangli, Kabupaten Bangli",BALI,80613.0,Indonesia,82247255599.0,,,-8.4710561,115.3529164,https://maps.google.com/?cid=0x0:0x855f479326f2b61c,
hardware store,Toko Perlengkapan Rumah,Warung AYU Br. Tanggahan Tengah,"G89V+G5G, Unnamed Road, Demulih, Kec. Susut, Kabupaten Bangli, Bali 80661","Unnamed Road, Demulih, Kec. Susut, Kabupaten Bangli",BALI,80661.0,Indonesia,,,,-8.4811964,115.34294,https://maps.google.com/?cid=0x0:0x9685cebbaa663dc2,
hardware store,hardware store,Bali 80613,"Kec. Bangli, Kabupaten Bangli, Bali","Kabupaten Bangli, Bali",BALI,,Indonesia,,,,-8.4399718,115.3696844,https://maps.google.com/?cid=0x0:0x1c00c5eb6016bf30,
hardware store,Toko Bahan Bangunan,UD KEVIN JUNIOR,"Jalan kapten anom mudita, lc umabukal, Kabupaten Bangli, Bali 80614","lc umabukal, Kabupaten Bangli",BALI,80614.0,Indonesia,82346021848.0,,,-8.4457875,115.3592429,https://maps.google.com/?cid=0x0:0x210abc9778e7b366,
hardware store,Toko Bahan Bangunan,UD. Sabar,"Jl. Brigjen Ngurah Rai No.10, Kawan, Kec. Bangli, Kabupaten Bangli, Bali 80614","Kawan, Kec. Bangli, Kabupaten Bangli",BALI,80614.0,Indonesia,85166898954.0,,,-8.4554356,115.3529933,https://maps.google.com/?cid=0x0:0x4f1f460537c9946,
hardware store,Toko Bahan Bangunan,RISKI RAUH,"H9G7+VRG, Jl. Nusantara, Kubu, Kec. Bangli, Kabupaten Bangli, Bali 80613","Jl. Nusantara, Kubu, Kec. Bangli, Kabupaten Bangli",BALI,80613.0,Indonesia,81999312855.0,,,-8.4228071,115.3645844,https://maps.google.com/?cid=0x0:0x4e37d43dc59b35ce,
hardware store,Toko Bahan Bangunan,TB. Kemulan Agung,"H935+RMJ, Jl. Kapten Mudita, Cempaga, Kec. Bangli, Kabupaten Bangli, Bali 80614","Jl. Kapten Mudita, Cempaga, Kec. Bangli, Kabupaten Bangli",BALI,80614.0,Indonesia,81558072678.0,,,-8.4454016,115.3591494,https://maps.google.com/?cid=0x0:0x401214ac4fee3c5f,
hardware store,Toko Perlengkapan Rumah,Utama Jaya Bangunan,"H8JX+3C3, Jl. Putra Yuda, Sulahan, Kec. Susut, Kabupaten Bangli, Bali 80661","Jl. Putra Yuda, Sulahan, Kec. Susut, Kabupaten Bangli",BALI,80661.0,Indonesia,81238584660.0,,,-8.4198666,115.3485603,https://maps.google.com/?cid=0x0:0xc33f3c64bd8c5fc5,
hardware store,Toko Mebel,Bangli Meubel,"Jl. Merdeka No.46, Kawan, Kec. Bangli, Kabupaten Bangli, Bali 80613","Kawan, Kec. Bangli, Kabupaten Bangli",BALI,80613.0,Indonesia,89601765758.0,,,-8.4562258,115.3560792,https://maps.google.com/?cid=0x0:0x6429f0c6b31cd20c,
hardware store,Toko Perlengkapan Rumah,Toko Enka,"G8WQ+H7Q, Demulih, Kec. Susut, Kabupaten Bangli, Bali 80661","Demulih, Kec. Susut, Kabupaten Bangli",BALI,80661.0,Indonesia,,,,-8.4535486,115.3382338,https://maps.google.com/?cid=0x0:0x6191d995a3b0d927,
hardware store,Toko Motorsport,KEMBAR HELM  ALAT LISTRIK,"H925+7FC, Jl. Kapten Mudita, Kawan, Kec. Bangli, Kabupaten Bangli, Bali 80612","Jl. Kapten Mudita, Kawan, Kec. Bangli, Kabupaten Bangli",BALI,80612.0,Indonesia,81353674500.0,,,-8.4493206,115.358629,https://maps.google.com/?cid=0x0:0xf54c88b8fbd05d50,
hardware store,Toko Alat Tulis,Manja Mart,"Jl. Nusantara No.Br, Cempaga, Kec. Bangli, Kabupaten Bangli, Bali 80512","Cempaga, Kec. Bangli, Kabupaten Bangli",BALI,80512.0,Indonesia,,,,-8.4471921,115.3563054,https://maps.google.com/?cid=0x0:0x53145fa1eae08516,
hardware store,Gudang,UD. SANTHI,"H89W+W5G, Jl. Putra Yuda, Sulahan, Kec. Susut, Kabupaten Bangli, Bali 80661","Jl. Putra Yuda, Sulahan, Kec. Susut, Kabupaten Bangli",BALI,80661.0,Indonesia,81338935297.0,,,-8.4301861,115.3454579,https://maps.google.com/?cid=0x0:0xec140a0376539987,
hardware store,Toko,Toko wanayu,"Jl. Nusantara, Cempaga, Kec. Bangli, Kabupaten Bangli, Bali 80614","Cempaga, Kec. Bangli, Kabupaten Bangli",BALI,80614.0,Indonesia,85745592660.0,,,-8.4468521,115.3564387,https://maps.google.com/?cid=0x0:0xffaf3267d369390e,
hardware store,Toko Bahan Bangunan,Ud Enggal Agung,"Jl. Rambutan No.34, Kawan, Kec. Bangli, Kabupaten Bangli, Bali 80613","Kawan, Kec. Bangli, Kabupaten Bangli",BALI,80613.0,Indonesia,36691171.0,,,-8.4554257,115.357303,https://maps.google.com/?cid=0x0:0x5687dde76f404a51,
hardware store,Toko Alat Tulis,TOKO GITA,"Jl. Erlangga No.52, Cempaga, Kec. Bangli, Kabupaten Bangli, Bali 80613","Cempaga, Kec. Bangli, Kabupaten Bangli",BALI,80613.0,Indonesia,81353074336.0,,,-8.4457948,115.3672997,https://maps.google.com/?cid=0x0:0x425e986dc9133989,
hardware store,Pusat Perbelanjaan,JESSE14STORE,"G9C2+3H3, Jl. Merdeka, Bebalang, Kec. Bangli, Kabupaten Bangli, Bali 80614","Jl. Merdeka, Bebalang, Kec. Bangli, Kabupaten Bangli",BALI,80614.0,Indonesia,895339162591.0,,,-8.4798674,115.3514211,https://maps.google.com/?cid=0x0:0xe24a845fc7af1a70,
hardware store,hardware store,Bangli,"Kawan, Kec. Bangli, Kabupaten Bangli, Bali","Kabupaten Bangli, Bali",BALI,,Indonesia,,,,-8.454303,115.354897,https://maps.google.com/?cid=0x0:0x4030bfbca7d2c10,
hardware store,Toko Perlengkapan Rumah,Toko Enka,"G8WQ+H7Q, Demulih, Kec. Susut, Kabupaten Bangli, Bali 80661","Demulih, Kec. Susut, Kabupaten Bangli",BALI,80661.0,Indonesia,,,,-8.4535486,115.3382338,https://maps.google.com/?cid=0x0:0x6191d995a3b0d927,
hardware store,Toko Bahan Bangunan,Ud Enggal Agung,"Jl. Rambutan No.34, Kawan, Kec. Bangli, Kabupaten Bangli, Bali 80613","Kawan, Kec. Bangli, Kabupaten Bangli",BALI,80613.0,Indonesia,36691171.0,,,-8.4554257,115.357303,https://maps.google.com/?cid=0x0:0x5687dde76f404a51,
hardware store,Toko Motorsport,KEMBAR HELM  ALAT LISTRIK,"H925+7FC, Jl. Kapten Mudita, Kawan, Kec. Bangli, Kabupaten Bangli, Bali 80612","Jl. Kapten Mudita, Kawan, Kec. Bangli, Kabupaten Bangli",BALI,80612.0,Indonesia,81353674500.0,,,-8.4493206,115.358629,https://maps.google.com/?cid=0x0:0xf54c88b8fbd05d50,
hardware store,Toko Elektronik,Highcloud vape Bangli,"G9W3+CQ3, Kawan, Kec. Bangli, Kabupaten Bangli, Bali 80614","Kawan, Kec. Bangli, Kabupaten Bangli",BALI,80614.0,Indonesia,,,,-8.4539638,115.3542922,https://maps.google.com/?cid=0x0:0xb8a5ab4b1b188b39,
hardware store,Toko Alat Listrik,RUMAH LISTRIK (BT),"H9V7+X3F, Dusun Mampeh, Kayubihi, Kec. Bangli, Kabupaten Bangli, Bali 80661","Dusun Mampeh, Kayubihi, Kec. Bangli, Kabupaten Bangli",BALI,80661.0,Indonesia,83119889270.0,,,-8.4050524,115.3626774,https://maps.google.com/?cid=0x0:0xd1d3e33894de6eff,
hardware store,Toko Perlengkapan Rumah,Warung AYU Br. Tanggahan Tengah,"G89V+G5G, Unnamed Road, Demulih, Kec. Susut, Kabupaten Bangli, Bali 80661","Unnamed Road, Demulih, Kec. Susut, Kabupaten Bangli",BALI,80661.0,Indonesia,,,,-8.4811964,115.34294,https://maps.google.com/?cid=0x0:0x9685cebbaa663dc2,
hardware store,Toko,Bebalang prabotan,"Bebalang, Kec. Bangli, Kabupaten Bangli, Bali 80613","Kec. Bangli, Kabupaten Bangli",BALI,80613.0,Indonesia,82247255599.0,,,-8.4710561,115.3529164,https://maps.google.com/?cid=0x0:0x855f479326f2b61c,
hardware store,Toko Gorden,IVOS BLINGK GORDEN,"Jl. Lettu Anom Dalam Terminal Blok Barat No.3, Kawan, Kec. Bangli, Kabupaten Bangli, Bali 80613","Kawan, Kec. Bangli, Kabupaten Bangli",BALI,80613.0,Indonesia,82324838899.0,,,-8.4545767,115.3552242,https://maps.google.com/?cid=0x0:0x376df5d72db709bc,
hardware store,Toko Bahan Bangunan,Bintang Jaya Material,"Br. Kembang Sari, Satra, Kec. Kintamani, Kabupaten Bangli, Bali 80652","Satra, Kec. Kintamani, Kabupaten Bangli",BALI,80652.0,Indonesia,85858246079.0,,,-8.1826838,115.2665463,https://maps.google.com/?cid=0x0:0x44419a52c0f279d3,
hardware store,hardware store,Bali 80652,"Kec. Kintamani, Kabupaten Bangli, Bali","Kabupaten Bangli, Bali",BALI,,Indonesia,,,,-8.2172149,115.3548713,https://maps.google.com/?cid=0x0:0x1c00c5eb6016bf60,
hardware store,Toko Bahan Bangunan,UD Tunggal Jaya,"Jl. Raya Kintamani, Kintamani, Kec. Kintamani, Kabupaten Bangli, Bali 80652","Kintamani, Kec. Kintamani, Kabupaten Bangli",BALI,80652.0,Indonesia,85253230308.0,,,-8.246657,115.3278382,https://maps.google.com/?cid=0x0:0xdc57ea34aeded6aa,
hardware store,Toko Bahan Bangunan,Matreal,"Jl. Bayung Cerik, Bayungcerik, Kec. Kintamani, Kabupaten Bangli, Bali 80652","Bayungcerik, Kec. Kintamani, Kabupaten Bangli",BALI,80652.0,Indonesia,,,,-8.2967162,115.2891162,https://maps.google.com/?cid=0x0:0x39a14ee6de36208b,
hardware store,Toko,TOKO PANDE JAYA,"M8FV+MJ5, Sekardadi, Kec. Kintamani, Kabupaten Bangli, Bali 80652","Sekardadi, Kec. Kintamani, Kabupaten Bangli",BALI,80652.0,Indonesia,85333070077.0,,,-8.3258596,115.3440946,https://maps.google.com/?cid=0x0:0xc9a794a81bce1a2c,
hardware store,Toko Bahan Bangunan,Toko Candra,"Q86G+55Q, Jl. Raya, Kintamani, Kec. Kintamani, Kabupaten Bangli, Bali 80652","Jl. Raya, Kintamani, Kec. Kintamani, Kabupaten Bangli",BALI,80652.0,Indonesia,8123973909.0,,,-8.2395423,115.3254803,https://maps.google.com/?cid=0x0:0xd9ef24ce99e88df3,
hardware store,Toko Bahan Bangunan,TB SUASANA,"Q83H+45J, Bangli, Jl. Raya Kintamani, Kintamani, Tegallalang, Kabupaten Bangli, Bali 80652","Bangli, Jl. Raya Kintamani, Kintamani, Tegallalang, Kabupaten Bangli",BALI,80652.0,Indonesia,36651024.0,,,-8.2471674,115.3278791,https://maps.google.com/?cid=0x0:0x5cba4d8ba2f0b88b,
hardware store,Toko,Taro Chan Outlet Kintamani,"Q8V5+XWF, Jalan Raya, Bantang, Kintamani, Bangli Regency, Bali 80652","Jalan Raya, Bantang, Kintamani, Bangli Regency",BALI,80652.0,Indonesia,81337723044.0,,,-8.205051,115.309803,https://maps.google.com/?cid=0x0:0x69ca609ec9c2b1ca,
hardware store,Toko Bahan Bangunan,TB. BANTANG SARI,"Q8W4+8W7, Jl. Raya Kintamani, Dausa, Kec. Kintamani, Kabupaten Bangli, Bali 80652","Jl. Raya Kintamani, Dausa, Kec. Kintamani, Kabupaten Bangli",BALI,80652.0,Indonesia,81353055594.0,,,-8.2042158,115.3073076,https://maps.google.com/?cid=0x0:0xb1674922fd6aff96,
hardware store,Toko Bahan Bangunan,Toko sabar kintamani,"Q84G+V9X, Jl. Raya Kintamani, Kintamani, Kec. Kintamani, Kabupaten Bangli, Bali 80652","Jl. Raya Kintamani, Kintamani, Kec. Kintamani, Kabupaten Bangli",BALI,80652.0,Indonesia,82341635343.0,,,-8.2428714,115.3260311,https://maps.google.com/?cid=0x0:0xca93ad1f5f4f44e4,
hardware store,Toko Bahan Bangunan,Ud krama jaya,"M9QX+J97, Jl. Batur Tengah, Suter, Kec. Kintamani, Kabupaten Bangli, Bali 80652","Jl. Batur Tengah, Suter, Kec. Kintamani, Kabupaten Bangli",BALI,80652.0,Indonesia,,,,-8.3110639,115.3982415,https://maps.google.com/?cid=0x0:0x65e3e44f8fae406,
hardware store,Toko Bahan Bangunan,RUMAH NYOMAN WICANA,"MC65+MF9, Batudinding, Kec. Kintamani, Kabupaten Bangli, Bali","Kabupaten Bangli, Bali",BALI,,Indonesia,,,,-8.3383362,115.4087457,https://maps.google.com/?cid=0x0:0x98d4596cdba4cc93,
hardware store,Toko Bahan Bangunan,Toko Dharma kerti,"Banjar dinas kertabuana, Tukadlegawa, Tianyar Bar., Kabupaten Karangasem, Bali 80853","Tukadlegawa, Tianyar Bar., Kabupaten Karangasem",BALI,80853.0,Indonesia,87711878594.0,,,-8.1815353,115.4732793,https://maps.google.com/?cid=0x0:0x5e29f05e36722b39,
hardware store,Toko,CV Wasita,"Jl. Raya Kintamani, Kintamani, Kec. Kintamani, Kabupaten Bangli, Bali 80652","Kintamani, Kec. Kintamani, Kabupaten Bangli",BALI,80652.0,Indonesia,85253676661.0,,,-8.2509078,115.3297352,https://maps.google.com/?cid=0x0:0xc4e508800b6e0bdc,
hardware store,Toko Bahan Bangunan,UD. DARSANA,"Margatengah, Kerta, Kec. Payangan, Kabupaten Gianyar, Bali 80572","Kerta, Kec. Payangan, Kabupaten Gianyar",BALI,80572.0,Indonesia,81338084707.0,,,-8.319176,115.2868303,https://maps.google.com/?cid=0x0:0x6c08b74ce9ee721,
hardware store,Toko Bahan Bangunan,Atlantic Hardware Store,"Jl. Sunset Road No.65 A, Legian, Kec. Kuta, Kabupaten Badung, Bali 80361","Legian, Kec. Kuta, Kabupaten Badung",BALI,80361.0,Indonesia,81239673975.0,,,-8.7050249,115.1820732,https://maps.google.com/?cid=0x0:0x181fc03fafedc4a2,
hardware store,Toko Pakaian,Omahara fashionstore,"Jl. Raya Kintamani, Kintamani, Kec. Kintamani, Kabupaten Bangli, Bali 80652","Kintamani, Kec. Kintamani, Kabupaten Bangli",BALI,80652.0,Indonesia,81246025202.0,,,-8.2500491,115.3291528,https://maps.google.com/?cid=0x0:0x5ea49b350f21530b,
hardware store,Toko Bahan Bangunan,INDAH CIPTA GYPSUM,"Jl. Raya Kayuambua, Tiga, Kec. Susut, Kabupaten Bangli, Bali","Kabupaten Bangli, Bali",BALI,,Indonesia,82236652356.0,,,-8.3594193,115.3462985,https://maps.google.com/?cid=0x0:0xc4894df3de765927,
hardware store,Toko Alat Tulis Kantor,BHAKTI BUDI MUKTI,"Q82H+3MF, Jl. Raya, Kintamani, Kec. Kintamani, Kabupaten Bangli, Bali 80652","Jl. Raya, Kintamani, Kec. Kintamani, Kabupaten Bangli",BALI,80652.0,Indonesia,85237837744.0,,,-8.2498185,115.3291854,https://maps.google.com/?cid=0x0:0x3b43cd19628dcc6,
hardware store,Kantor Perusahaan,Tb. BUMDesa Sukawana,"Jl. Raya, Sukawana, Kec. Kintamani, Kabupaten Bangli, Bali 80652","Sukawana, Kec. Kintamani, Kabupaten Bangli",BALI,80652.0,Indonesia,,,,-8.2077129,115.3294391,https://maps.google.com/?cid=0x0:0xd60d95bbf40ad19b,
hardware store,Toko Bahan Bangunan,Ud. Merta Utama,"J8RW+3FV, Jl. Raya Kayuambua, Tiga, Kec. Susut, Kabupaten Bangli, Bali 80661","Jl. Raya Kayuambua, Tiga, Kec. Susut, Kabupaten Bangli",BALI,80661.0,Indonesia,81338604565.0,,,-8.3597599,115.346164,https://maps.google.com/?cid=0x0:0x3d67491deed81dd1,
hardware store,Toko Alat Tulis Kantor,D'Fn PRINT,"P8WM+M63, Jalan Raya, North Batur, Kintamani, Bangli Regency, Bali 80652","Jalan Raya, North Batur, Kintamani, Bangli Regency",BALI,80652.0,Indonesia,81936261308.0,,,-8.2533589,115.3330544,https://maps.google.com/?cid=0x0:0x3b5b25326ca62403,
hardware store,hardware store,Kintamani,"Batur Utara, Kec. Kintamani, Kabupaten Bangli, Bali","Kabupaten Bangli, Bali",BALI,,Indonesia,,,,-8.2528889,115.3324266,https://maps.google.com/?cid=0x0:0x11019959a8f510b7,
hardware store,hardware store,Susut,"Sulahan, Kec. Susut, Kabupaten Bangli, Bali","Kabupaten Bangli, Bali",BALI,,Indonesia,,,,-8.424873,115.346001,https://maps.google.com/?cid=0x0:0xc2e9cdd58e9468fb,
hardware store,Toko Perlengkapan Rumah,Toko Enka,"G8WQ+H7Q, Demulih, Kec. Susut, Kabupaten Bangli, Bali 80661","Demulih, Kec. Susut, Kabupaten Bangli",BALI,80661.0,Indonesia,,,,-8.4535486,115.3382338,https://maps.google.com/?cid=0x0:0x6191d995a3b0d927,
hardware store,Toko Perlengkapan Rumah,Warung AYU Br. Tanggahan Tengah,"G89V+G5G, Unnamed Road, Demulih, Kec. Susut, Kabupaten Bangli, Bali 80661","Unnamed Road, Demulih, Kec. Susut, Kabupaten Bangli",BALI,80661.0,Indonesia,,,,-8.4811964,115.34294,https://maps.google.com/?cid=0x0:0x9685cebbaa663dc2,
hardware store,Pusat Perbelanjaan,JESSE14STORE,"G9C2+3H3, Jl. Merdeka, Bebalang, Kec. Bangli, Kabupaten Bangli, Bali 80614","Jl. Merdeka, Bebalang, Kec. Bangli, Kabupaten Bangli",BALI,80614.0,Indonesia,895339162591.0,,,-8.4798674,115.3514211,https://maps.google.com/?cid=0x0:0xe24a845fc7af1a70,
hardware store,Toko Bahan Bangunan,E SHENG HARDWARE (JH) SDN BHD,"NO 15  16 JALAN WP 1, TAMAN, Jl. Warisan Putra, Kampung Jenderam Hilir, 43800 Dengkil, Selangor, Malaysia",Dengkil,BALI,43800.0,Indonesia,60123151651.0,,,2.8851757,101.7265013,https://maps.google.com/?cid=0x0:0x2d42226f51bee2cd,
hardware store,Toko Bahan Bangunan,E Sheng Hardware  Machinery Sdn Bhd,"NO.19, Jalan Dengkil Centre Point, TAMAN DENGKIL CENTRE POINT, 43800 Dengkil, Selangor, Malaysia",Dengkil,BALI,43800.0,Indonesia,60125268211.0,,,2.8704986,101.6708209,https://maps.google.com/?cid=0x0:0xa8b414fced30edd0,
hardware store,hardware store,Bali 80671,"Kec. Tembuku, Kabupaten Bangli, Bali","Kabupaten Bangli, Bali",BALI,,Indonesia,,,,-8.4058202,115.3904215,https://maps.google.com/?cid=0x0:0x1c00c5eb6016bf80,
hardware store,Toko Bahan Bangunan,Toko Hyang Pupuh,"Bangbang, Kec. Tembuku, Kabupaten Bangli, Bali 80671","Kec. Tembuku, Kabupaten Bangli",BALI,80671.0,Indonesia,81338443595.0,,,-8.4325075,115.4100422,https://maps.google.com/?cid=0x0:0xcd21422be2c9b0f3,
hardware store,Toko Kayu,Putra Dukuh Kayu lokal,"Dusun pantunan, banjar bangkiangsidem, Bangbang, Kec. Tembuku, Kabupaten Bangli, Bali 80614","banjar bangkiangsidem, Bangbang, Kec. Tembuku, Kabupaten Bangli",BALI,80614.0,Indonesia,82192947877.0,,,-8.4151522,115.4117292,https://maps.google.com/?cid=0x0:0x6c02699d60d90ccb,
hardware store,hardware store,TRI UNDAGI,"J9HM+HQX, Yangapi, Kec. Tembuku, Kabupaten Bangli, Bali","Kabupaten Bangli, Bali",BALI,,Indonesia,,,,-8.3710022,115.3844968,https://maps.google.com/?cid=0x0:0x5a1f464ef3ef50ab,
hardware store,Toko Bahan Bangunan,UD KEVIN JUNIOR,"Jalan kapten anom mudita, lc umabukal, Kabupaten Bangli, Bali 80614","lc umabukal, Kabupaten Bangli",BALI,80614.0,Indonesia,82346021848.0,,,-8.4457875,115.3592429,https://maps.google.com/?cid=0x0:0x210abc9778e7b366,
hardware store,Kantor Perusahaan,Darma Ukir,"jalan, Cempaga, Kec. Bangli, Kabupaten Bangli, Bali 80614","Cempaga, Kec. Bangli, Kabupaten Bangli",BALI,80614.0,Indonesia,81238587040.0,,,-8.4468651,115.3740858,https://maps.google.com/?cid=0x0:0xec4b8765ec23b40a,
hardware store,Toko Bahan Bangunan,TB. SENTOSA,"G9XJ+M2V, Jl. Erlangga, Jehem, Kec. Tembuku, Kabupaten Bangli, Bali 80671","Jl. Erlangga, Jehem, Kec. Tembuku, Kabupaten Bangli",BALI,80671.0,Indonesia,81237490116.0,,,-8.4507744,115.3800449,https://maps.google.com/?cid=0x0:0xe581d4cba68aa98c,
hardware store,Toko Bahan Bangunan,UD. Sabar,"Jl. Brigjen Ngurah Rai No.10, Kawan, Kec. Bangli, Kabupaten Bangli, Bali 80614","Kawan, Kec. Bangli, Kabupaten Bangli",BALI,80614.0,Indonesia,85166898954.0,,,-8.4554356,115.3529933,https://maps.google.com/?cid=0x0:0x4f1f460537c9946,
hardware store,Toko Bahan Bangunan,RISKI RAUH,"H9G7+VRG, Jl. Nusantara, Kubu, Kec. Bangli, Kabupaten Bangli, Bali 80613","Jl. Nusantara, Kubu, Kec. Bangli, Kabupaten Bangli",BALI,80613.0,Indonesia,81999312855.0,,,-8.4228071,115.3645844,https://maps.google.com/?cid=0x0:0x4e37d43dc59b35ce,
hardware store,Toko Perlengkapan Rumah,UD. Made Hardware,"Jl. Raya Besakih No.116 Banjar Sekar, Nongan, Kec. Rendang, Kabupaten Karangasem, Bali 80863","Nongan, Kec. Rendang, Kabupaten Karangasem",BALI,80863.0,Indonesia,87703081992.0,,,-8.4524476,115.4099723,https://maps.google.com/?cid=0x0:0x81ca230a385e1c9d,
hardware store,Toko Bahan Bangunan,TB. Kemulan Agung,"H935+RMJ, Jl. Kapten Mudita, Cempaga, Kec. Bangli, Kabupaten Bangli, Bali 80614","Jl. Kapten Mudita, Cempaga, Kec. Bangli, Kabupaten Bangli",BALI,80614.0,Indonesia,81558072678.0,,,-8.4454016,115.3591494,https://maps.google.com/?cid=0x0:0x401214ac4fee3c5f,
hardware store,Toko Perlengkapan Rumah,Utama Jaya Bangunan,"H8JX+3C3, Jl. Putra Yuda, Sulahan, Kec. Susut, Kabupaten Bangli, Bali 80661","Jl. Putra Yuda, Sulahan, Kec. Susut, Kabupaten Bangli",BALI,80661.0,Indonesia,81238584660.0,,,-8.4198666,115.3485603,https://maps.google.com/?cid=0x0:0xc33f3c64bd8c5fc5,
hardware store,Toko Bahan Bangunan,RAJIN BANGUNAN,"Jl. Kesumayudha, Sulahan, Kec. Susut, Kabupaten Bangli, Bali 80661","Sulahan, Kec. Susut, Kabupaten Bangli",BALI,80661.0,Indonesia,81353322312.0,,,-8.4014975,115.3484071,https://maps.google.com/?cid=0x0:0x504756573f7771d4,
hardware store,Toko Ponsel,Bali Cell,"H94H+5G3, Jl. Erlangga, Jehem, Kec. Tembuku, Kabupaten Bangli, Bali 80671","Jl. Erlangga, Jehem, Kec. Tembuku, Kabupaten Bangli",BALI,80671.0,Indonesia,857449497949984.0,,,-8.4446043,115.3788119,https://maps.google.com/?cid=0x0:0x1ba991e42236d85c,
hardware store,Toko Bahan Bangunan,yan suar ancut,"J9VP+MPF, Yangapi, Kec. Tembuku, Kabupaten Bangli, Bali 80614","Yangapi, Kec. Tembuku, Kabupaten Bangli",BALI,80614.0,Indonesia,,,,-8.3557717,115.3868343,https://maps.google.com/?cid=0x0:0x411663f3a8e8012e,
hardware store,Pemasok Bahan Bangunan,Yulia dana wiguna/ pak yuli,"Banjar pulesari kawan, Peninjoan, Kec. Tembuku, Kabupaten Bangli, Bali 80671","Peninjoan, Kec. Tembuku, Kabupaten Bangli",BALI,80671.0,Indonesia,81337141675.0,,,-8.4052985,115.4084841,https://maps.google.com/?cid=0x0:0x3c9f6457bc5bc029,
hardware store,Pusat Perbelanjaan,JESSE14STORE,"G9C2+3H3, Jl. Merdeka, Bebalang, Kec. Bangli, Kabupaten Bangli, Bali 80614","Jl. Merdeka, Bebalang, Kec. Bangli, Kabupaten Bangli",BALI,80614.0,Indonesia,895339162591.0,,,-8.4798674,115.3514211,https://maps.google.com/?cid=0x0:0xe24a845fc7af1a70,
hardware store,Toko Bahan Bangunan,UD. Sinar,"J8PX+86Mjl kesumayudha, Tiga, Kec. Susut, Kabupaten Bangli, Bali 80661","Tiga, Kec. Susut, Kabupaten Bangli",BALI,80661.0,Indonesia,85377063616.0,,,-8.3641355,115.3482549,https://maps.google.com/?cid=0x0:0x6adb0d523ec2371f,
hardware store,Gudang,UD. SANTHI,"H89W+W5G, Jl. Putra Yuda, Sulahan, Kec. Susut, Kabupaten Bangli, Bali 80661","Jl. Putra Yuda, Sulahan, Kec. Susut, Kabupaten Bangli",BALI,80661.0,Indonesia,81338935297.0,,,-8.4301861,115.3454579,https://maps.google.com/?cid=0x0:0xec140a0376539987,
hardware store,Toko Bahan Bangunan,Ud. Merta Utama,"J8RW+3FV, Jl. Raya Kayuambua, Tiga, Kec. Susut, Kabupaten Bangli, Bali 80661","Jl. Raya Kayuambua, Tiga, Kec. Susut, Kabupaten Bangli",BALI,80661.0,Indonesia,81338604565.0,,,-8.3597599,115.346164,https://maps.google.com/?cid=0x0:0x3d67491deed81dd1,
hardware store,Toko Bahan Bangunan,TOKO BANGUNAN UD. PRAMANA AGUNG,"LC SUBAK AYA, Jl. Muhamad Hatta, Bebalang, Kec. Bangli, Kabupaten Bangli, Bali 80614","Jl. Muhamad Hatta, Bebalang, Kec. Bangli, Kabupaten Bangli",BALI,80614.0,Indonesia,81338905995.0,,,-8.4660815,115.3502474,https://maps.google.com/?cid=0x0:0x80d00ced3f706489,
toko bangunan,Toko Bahan Bangunan,UD. SURYA BALI BANGUNAN,"J9C9+H23, Jl. Veteran, Kayubihi, Kec. Bangli, Kabupaten Bangli, Bali 80661","Jl. Veteran, Kayubihi, Kec. Bangli, Kabupaten Bangli",BALI,80661.0,Indonesia,85238067940.0,,,-8.3786095,115.3675486,https://maps.google.com/?cid=0x0:0x7ab705cc74d6ace6,
toko bangunan,toko bangunan,Bali 80611,"Kabupaten Bangli, Bali","Kabupaten Bangli, Bali",BALI,,Indonesia,,,,-8.4047261,115.3696844,https://maps.google.com/?cid=0x0:0x1c00c5eb6016bf10,
toko bangunan,Toko Bahan Bangunan,RAJIN BANGUNAN,"Jl. Kesumayudha, Sulahan, Kec. Susut, Kabupaten Bangli, Bali 80661","Sulahan, Kec. Susut, Kabupaten Bangli",BALI,80661.0,Indonesia,81353322312.0,,,-8.4014975,115.3484071,https://maps.google.com/?cid=0x0:0x504756573f7771d4,
toko bangunan,Toko Bahan Bangunan,Toko Bangunan Bang Bang,"HC22+FXG, Jl. Raya Timuhun, Tembuku, Kec. Bangli, Kabupaten Bangli, Bali 80614","Jl. Raya Timuhun, Tembuku, Kec. Bangli, Kabupaten Bangli",BALI,80614.0,Indonesia,8123850459.0,,,-8.4488204,115.4024656,https://maps.google.com/?cid=0x0:0x9576e0540e379b89,
toko bangunan,Toko Bahan Bangunan,TOKO BANGUNAN UD. PRAMANA AGUNG,"LC SUBAK AYA, Jl. Muhamad Hatta, Bebalang, Kec. Bangli, Kabupaten Bangli, Bali 80614","Jl. Muhamad Hatta, Bebalang, Kec. Bangli, Kabupaten Bangli",BALI,80614.0,Indonesia,81338905995.0,,,-8.4660815,115.3502474,https://maps.google.com/?cid=0x0:0x80d00ced3f706489,
toko bangunan,Toko Bahan Bangunan,Mahavirya Bangunan,"J988+HFG, Kayubihi, Kec. Bangli, Kabupaten Bangli, Bali 80614","Kayubihi, Kec. Bangli, Kabupaten Bangli",BALI,80614.0,Indonesia,,,,-8.3835552,115.3661895,https://maps.google.com/?cid=0x0:0xbdfd48fcc4a361e0,
toko bangunan,Toko Bahan Bangunan,Sari Bambu,"H9Q5+CXP, Jl. Nusantara, Kayubihi, Kec. Bangli, Kabupaten Bangli, Bali","Kabupaten Bangli, Bali",BALI,,Indonesia,85238067907.0,,,-8.4114046,115.3599446,https://maps.google.com/?cid=0x0:0x116e47ac5ea81bc5,
toko bangunan,Toko Bahan Bangunan,Agoeng TBTB,"G8XX+JX5, Jl. Kesumayudha, Kawan, Kec. Bangli, Kabupaten Bangli, Bali 80614","Jl. Kesumayudha, Kawan, Kec. Bangli, Kabupaten Bangli",BALI,80614.0,Indonesia,81337791499.0,,,-8.4509789,115.3499863,https://maps.google.com/?cid=0x0:0xd2670fdfff52ab05,
toko bangunan,Toko Bahan Bangunan,Krisnajaya. UD,"G9W3+8JJ, Jl. Raya Kintamani, Kawan, Kec. Bangli, Kabupaten Bangli, Bali 80652","Jl. Raya Kintamani, Kawan, Kec. Bangli, Kabupaten Bangli",BALI,80652.0,Indonesia,36651066.0,,,-8.454165,115.3540204,https://maps.google.com/?cid=0x0:0x1d3536782ad345bf,
toko bangunan,Toko Bahan Bangunan,UD. Sabar,"Jl. Brigjen Ngurah Rai No.10, Kawan, Kec. Bangli, Kabupaten Bangli, Bali 80614","Kawan, Kec. Bangli, Kabupaten Bangli",BALI,80614.0,Indonesia,85166898954.0,,,-8.4554356,115.3529933,https://maps.google.com/?cid=0x0:0x4f1f460537c9946,
toko bangunan,Toko Bahan Bangunan,TB. Kemulan Agung,"H935+RMJ, Jl. Kapten Mudita, Cempaga, Kec. Bangli, Kabupaten Bangli, Bali 80614","Jl. Kapten Mudita, Cempaga, Kec. Bangli, Kabupaten Bangli",BALI,80614.0,Indonesia,81558072678.0,,,-8.4454016,115.3591494,https://maps.google.com/?cid=0x0:0x401214ac4fee3c5f,
toko bangunan,Toko Bahan Bangunan,Mahagotra Bangunan,"Jl. Putra Yuda No.18, Sulahan, Kec. Susut, Kabupaten Bangli, Bali 80661","Sulahan, Kec. Susut, Kabupaten Bangli",BALI,80661.0,Indonesia,81238506309.0,,,-8.4276371,115.3460557,https://maps.google.com/?cid=0x0:0x85a7bcc007885dc2,
toko bangunan,Toko Perlengkapan Rumah,Utama Jaya Bangunan,"H8JX+3C3, Jl. Putra Yuda, Sulahan, Kec. Susut, Kabupaten Bangli, Bali 80661","Jl. Putra Yuda, Sulahan, Kec. Susut, Kabupaten Bangli",BALI,80661.0,Indonesia,81238584660.0,,,-8.4198666,115.3485603,https://maps.google.com/?cid=0x0:0xc33f3c64bd8c5fc5,
toko bangunan,Toko Bahan Bangunan,UD MASA ABADI,"H987+RG8, Jl. Taman Sari, Kubu, Kec. Bangli, Kabupaten Bangli, Bali 80613","Jl. Taman Sari, Kubu, Kec. Bangli, Kabupaten Bangli",BALI,80613.0,Indonesia,,,,-8.4329615,115.3638358,https://maps.google.com/?cid=0x0:0x3053d8d2674a50a7,
toko bangunan,Toko Bahan Bangunan,UD KEVIN JUNIOR,"Jalan kapten anom mudita, lc umabukal, Kabupaten Bangli, Bali 80614","lc umabukal, Kabupaten Bangli",BALI,80614.0,Indonesia,82346021848.0,,,-8.4457875,115.3592429,https://maps.google.com/?cid=0x0:0x210abc9778e7b366,
toko bangunan,Toko Bahan Bangunan,UD Rama Bangunan,"Jl. Raya Kintamani No.32, Banua, Kec. Kintamani, Kabupaten Bangli, Bali 80572","Banua, Kec. Kintamani, Kabupaten Bangli",BALI,80572.0,Indonesia,85237940451.0,,,-8.3270244,115.2926174,https://maps.google.com/?cid=0x0:0xe2c9bb53a842d189,
toko bangunan,Toko Bahan Bangunan,Ud Anugrah Dewata,"G8MW+2VG, Jl. Tirta Gangga, Bebalang, Kec. Bangli, Kabupaten Bangli, Bali 80614","Jl. Tirta Gangga, Bebalang, Kec. Bangli, Kabupaten Bangli",BALI,80614.0,Indonesia,85339609632.0,,,-8.4674259,115.3472062,https://maps.google.com/?cid=0x0:0xceae59bfb12abbb2,
toko bangunan,Toko Bahan Bangunan,Dk toko besi,"M9R2+GFX WhatsApp Tokoh >>u003co87>>u003e- I55o66Io, Jl. Raya Sekardadi, Sekardadi, Kec. Kintamani, Kabupaten Bangli, Bali 62352","Jl. Raya Sekardadi, Sekardadi, Kec. Kintamani, Kabupaten Bangli",BALI,62352.0,Indonesia,,,,-8.3086479,115.3512466,https://maps.google.com/?cid=0x0:0x622edecd3e6ee66c,
toko bangunan,Toko Bahan Bangunan,TB. BANTANG SARI,"Q8W4+8W7, Jl. Raya Kintamani, Dausa, Kec. Kintamani, Kabupaten Bangli, Bali 80652","Jl. Raya Kintamani, Dausa, Kec. Kintamani, Kabupaten Bangli",BALI,80652.0,Indonesia,81353055594.0,,,-8.2042158,115.3073076,https://maps.google.com/?cid=0x0:0xb1674922fd6aff96,
toko bangunan,Toko Bahan Bangunan,Sari Rumput. CV,"G9W3+8RJ, Kawan, Kec. Bangli, Kabupaten Bangli, Bali 80614","Kawan, Kec. Bangli, Kabupaten Bangli",BALI,80614.0,Indonesia,36692222.0,,,-8.454162,115.354508,https://maps.google.com/?cid=0x0:0x350329ceb6ef5f27,
toko bangunan,Toko Bahan Bangunan,Ud. Cahaya Mulia,"Taman Bali, Kec. Bangli, Kabupaten Bangli, Bali","Kabupaten Bangli, Bali",BALI,,Indonesia,,,,-8.486451,115.3502269,https://maps.google.com/?cid=0x0:0x943a757bca54e19c,
toko bangunan,toko bangunan,Bali 80612,"Kabupaten Bangli, Bali","Kabupaten Bangli, Bali",BALI,,Indonesia,,,,-8.4198291,115.3696844,https://maps.google.com/?cid=0x0:0x1c00c5eb6016bf20,
toko bangunan,Toko Bahan Bangunan,UD.SINARMAS ARTHA CEMERLANG,"H9G7+HVJ, Kubu, Kec. Bangli, Kabupaten Bangli, Bali 80612","Kubu, Kec. Bangli, Kabupaten Bangli",BALI,80612.0,Indonesia,81338964222.0,,,-8.4235345,115.3646481,https://maps.google.com/?cid=0x0:0xa104b2a6364fc938,
toko bangunan,Komplek perumahan,UD. Penglipuran,"Kubu, Kec. Bangli, Kabupaten Bangli, Bali 80613","Kec. Bangli, Kabupaten Bangli",BALI,80613.0,Indonesia,8123648614.0,,,-8.423454,115.3629896,https://maps.google.com/?cid=0x0:0xe8c28f9c4c8808c6,
toko bangunan,Toko Bahan Bangunan,RAJIN BANGUNAN,"Jl. Kesumayudha, Sulahan, Kec. Susut, Kabupaten Bangli, Bali 80661","Sulahan, Kec. Susut, Kabupaten Bangli",BALI,80661.0,Indonesia,81353322312.0,,,-8.4014975,115.3484071,https://maps.google.com/?cid=0x0:0x504756573f7771d4,
toko bangunan,Toko Bahan Bangunan,UD. SURYA BALI BANGUNAN,"J9C9+H23, Jl. Veteran, Kayubihi, Kec. Bangli, Kabupaten Bangli, Bali 80661","Jl. Veteran, Kayubihi, Kec. Bangli, Kabupaten Bangli",BALI,80661.0,Indonesia,85238067940.0,,,-8.3786095,115.3675486,https://maps.google.com/?cid=0x0:0x7ab705cc74d6ace6,
toko bangunan,Toko Bahan Bangunan,TB Sinar ( Toko Bangunan ),"Jl. Muhamad Hatta No.18, Bebalang, Kec. Bangli, Kabupaten Bangli, Bali 80614","Bebalang, Kec. Bangli, Kabupaten Bangli",BALI,80614.0,Indonesia,85792052408.0,,,-8.4670396,115.3503437,https://maps.google.com/?cid=0x0:0xf06c591d46472fa1,
toko bangunan,Toko Bahan Bangunan,Toko Bangunan Bang Bang,"HC22+FXG, Jl. Raya Timuhun, Tembuku, Kec. Bangli, Kabupaten Bangli, Bali 80614","Jl. Raya Timuhun, Tembuku, Kec. Bangli, Kabupaten Bangli",BALI,80614.0,Indonesia,8123850459.0,,,-8.4488204,115.4024656,https://maps.google.com/?cid=0x0:0x9576e0540e379b89,
toko bangunan,Toko Bahan Bangunan,RISKI RAUH,"H9G7+VRG, Jl. Nusantara, Kubu, Kec. Bangli, Kabupaten Bangli, Bali 80613","Jl. Nusantara, Kubu, Kec. Bangli, Kabupaten Bangli",BALI,80613.0,Indonesia,81999312855.0,,,-8.4228071,115.3645844,https://maps.google.com/?cid=0x0:0x4e37d43dc59b35ce,
toko bangunan,Toko Bahan Bangunan,Mahagotra Bangunan,"Jl. Putra Yuda No.18, Sulahan, Kec. Susut, Kabupaten Bangli, Bali 80661","Sulahan, Kec. Susut, Kabupaten Bangli",BALI,80661.0,Indonesia,81238506309.0,,,-8.4276371,115.3460557,https://maps.google.com/?cid=0x0:0x85a7bcc007885dc2,
toko bangunan,Toko Bahan Bangunan,TOKO BANGUNAN UD. PRAMANA AGUNG,"LC SUBAK AYA, Jl. Muhamad Hatta, Bebalang, Kec. Bangli, Kabupaten Bangli, Bali 80614","Jl. Muhamad Hatta, Bebalang, Kec. Bangli, Kabupaten Bangli",BALI,80614.0,Indonesia,81338905995.0,,,-8.4660815,115.3502474,https://maps.google.com/?cid=0x0:0x80d00ced3f706489,
toko bangunan,Toko Bahan Bangunan,UD. SRI ARTHA REJEKI 2,"Jl. Kesumayudha No.28, Kawan, Kec. Bangli, Kabupaten Bangli, Bali 80614","Kawan, Kec. Bangli, Kabupaten Bangli",BALI,80614.0,Indonesia,81805516342.0,,,-8.4537374,115.3533336,https://maps.google.com/?cid=0x0:0x74f2c9eba76422d,
toko bangunan,Toko Bahan Bangunan,Sari Bambu,"H9Q5+CXP, Jl. Nusantara, Kayubihi, Kec. Bangli, Kabupaten Bangli, Bali","Kabupaten Bangli, Bali",BALI,,Indonesia,85238067907.0,,,-8.4114046,115.3599446,https://maps.google.com/?cid=0x0:0x116e47ac5ea81bc5,
toko bangunan,Toko Bahan Bangunan,UD Rama Bangunan,"Jl. Raya Kintamani No.32, Banua, Kec. Kintamani, Kabupaten Bangli, Bali 80572","Banua, Kec. Kintamani, Kabupaten Bangli",BALI,80572.0,Indonesia,85237940451.0,,,-8.3270244,115.2926174,https://maps.google.com/?cid=0x0:0xe2c9bb53a842d189,
toko bangunan,Toko Bahan Bangunan,Agoeng TBTB,"G8XX+JX5, Jl. Kesumayudha, Kawan, Kec. Bangli, Kabupaten Bangli, Bali 80614","Jl. Kesumayudha, Kawan, Kec. Bangli, Kabupaten Bangli",BALI,80614.0,Indonesia,81337791499.0,,,-8.4509789,115.3499863,https://maps.google.com/?cid=0x0:0xd2670fdfff52ab05,
toko bangunan,Toko Bahan Bangunan,UD MASA ABADI,"H987+RG8, Jl. Taman Sari, Kubu, Kec. Bangli, Kabupaten Bangli, Bali 80613","Jl. Taman Sari, Kubu, Kec. Bangli, Kabupaten Bangli",BALI,80613.0,Indonesia,,,,-8.4329615,115.3638358,https://maps.google.com/?cid=0x0:0x3053d8d2674a50a7,
toko bangunan,Toko Bahan Bangunan,TB. Kemulan Agung,"H935+RMJ, Jl. Kapten Mudita, Cempaga, Kec. Bangli, Kabupaten Bangli, Bali 80614","Jl. Kapten Mudita, Cempaga, Kec. Bangli, Kabupaten Bangli",BALI,80614.0,Indonesia,81558072678.0,,,-8.4454016,115.3591494,https://maps.google.com/?cid=0x0:0x401214ac4fee3c5f,
toko bangunan,Toko Perlengkapan Rumah,Utama Jaya Bangunan,"H8JX+3C3, Jl. Putra Yuda, Sulahan, Kec. Susut, Kabupaten Bangli, Bali 80661","Jl. Putra Yuda, Sulahan, Kec. Susut, Kabupaten Bangli",BALI,80661.0,Indonesia,81238584660.0,,,-8.4198666,115.3485603,https://maps.google.com/?cid=0x0:0xc33f3c64bd8c5fc5,
toko bangunan,Toko Bahan Bangunan,UD KEVIN JUNIOR,"Jalan kapten anom mudita, lc umabukal, Kabupaten Bangli, Bali 80614","lc umabukal, Kabupaten Bangli",BALI,80614.0,Indonesia,82346021848.0,,,-8.4457875,115.3592429,https://maps.google.com/?cid=0x0:0x210abc9778e7b366,
toko bangunan,Toko Bahan Bangunan,UD. Kanti Sraya,"H939+M8M, Jl. Erlangga, Cempaga, Kec. Bangli, Kabupaten Bangli, Bali 80613","Jl. Erlangga, Cempaga, Kec. Bangli, Kabupaten Bangli",BALI,80613.0,Indonesia,81558052456.0,,,-8.4457777,115.3683047,https://maps.google.com/?cid=0x0:0x3b2e92bb3c331894,
toko bangunan,Toko Bahan Bangunan,Toko bahan bangunan. Wayan Okta supllayer kayu bagasting bangli,"HCV5+4P9, Peninjoan, Kec. Tembuku, Kabupaten Bangli, Bali 80671","Peninjoan, Kec. Tembuku, Kabupaten Bangli",BALI,80671.0,Indonesia,85239053189.0,,,-8.4072116,115.4093618,https://maps.google.com/?cid=0x0:0x3e680c80d31ff27e,
toko bangunan,Toko Bahan Bangunan,"UD.Sari Arta alat bangunan dan Kayu,alat desel dan sengsor","HCM6+WQ3, Bangbang, Kec. Tembuku, Kabupaten Bangli, Bali 80671","Bangbang, Kec. Tembuku, Kabupaten Bangli",BALI,80671.0,Indonesia,,,,-8.414665,115.4109543,https://maps.google.com/?cid=0x0:0x36735f923bc2e106,
toko bangunan,Toko Bahan Bangunan,Ud Anugrah Dewata,"G8MW+2VG, Jl. Tirta Gangga, Bebalang, Kec. Bangli, Kabupaten Bangli, Bali 80614","Jl. Tirta Gangga, Bebalang, Kec. Bangli, Kabupaten Bangli",BALI,80614.0,Indonesia,85339609632.0,,,-8.4674259,115.3472062,https://maps.google.com/?cid=0x0:0xceae59bfb12abbb2,
toko bangunan,Toko Bahan Bangunan,Guna Sari,"G9XF+GXJ, Jl. Erlangga, Cempaga, Kec. Bangli, Kabupaten Bangli, Bali 80613","Jl. Erlangga, Cempaga, Kec. Bangli, Kabupaten Bangli",BALI,80613.0,Indonesia,85237660786.0,,,-8.451164,115.3748967,https://maps.google.com/?cid=0x0:0x7cf21571d53cfc4b,
toko bangunan,toko bangunan,Bali 80613,"Kec. Bangli, Kabupaten Bangli, Bali","Kabupaten Bangli, Bali",BALI,,Indonesia,,,,-8.4399718,115.3696844,https://maps.google.com/?cid=0x0:0x1c00c5eb6016bf30,
toko bangunan,Toko Bahan Bangunan,UD. Sabar,"Jl. Brigjen Ngurah Rai No.10, Kawan, Kec. Bangli, Kabupaten Bangli, Bali 80614","Kawan, Kec. Bangli, Kabupaten Bangli",BALI,80614.0,Indonesia,85166898954.0,,,-8.4554356,115.3529933,https://maps.google.com/?cid=0x0:0x4f1f460537c9946,
toko bangunan,Komplek perumahan,UD. Penglipuran,"Kubu, Kec. Bangli, Kabupaten Bangli, Bali 80613","Kec. Bangli, Kabupaten Bangli",BALI,80613.0,Indonesia,8123648614.0,,,-8.423454,115.3629896,https://maps.google.com/?cid=0x0:0xe8c28f9c4c8808c6,
toko bangunan,Toko Bahan Bangunan,UD MASA ABADI,"H987+RG8, Jl. Taman Sari, Kubu, Kec. Bangli, Kabupaten Bangli, Bali 80613","Jl. Taman Sari, Kubu, Kec. Bangli, Kabupaten Bangli",BALI,80613.0,Indonesia,,,,-8.4329615,115.3638358,https://maps.google.com/?cid=0x0:0x3053d8d2674a50a7,
toko bangunan,Toko Bahan Bangunan,UD. Kanti Sraya,"H939+M8M, Jl. Erlangga, Cempaga, Kec. Bangli, Kabupaten Bangli, Bali 80613","Jl. Erlangga, Cempaga, Kec. Bangli, Kabupaten Bangli",BALI,80613.0,Indonesia,81558052456.0,,,-8.4457777,115.3683047,https://maps.google.com/?cid=0x0:0x3b2e92bb3c331894,
toko bangunan,Toko Bahan Bangunan,UD.SINARMAS ARTHA CEMERLANG,"H9G7+HVJ, Kubu, Kec. Bangli, Kabupaten Bangli, Bali 80612","Kubu, Kec. Bangli, Kabupaten Bangli",BALI,80612.0,Indonesia,81338964222.0,,,-8.4235345,115.3646481,https://maps.google.com/?cid=0x0:0xa104b2a6364fc938,
toko bangunan,Toko Bahan Bangunan,Guna Sari,"G9XF+GXJ, Jl. Erlangga, Cempaga, Kec. Bangli, Kabupaten Bangli, Bali 80613","Jl. Erlangga, Cempaga, Kec. Bangli, Kabupaten Bangli",BALI,80613.0,Indonesia,85237660786.0,,,-8.451164,115.3748967,https://maps.google.com/?cid=0x0:0x7cf21571d53cfc4b,
toko bangunan,Toko Bahan Bangunan,TB Sinar ( Toko Bangunan ),"Jl. Muhamad Hatta No.18, Bebalang, Kec. Bangli, Kabupaten Bangli, Bali 80614","Bebalang, Kec. Bangli, Kabupaten Bangli",BALI,80614.0,Indonesia,85792052408.0,,,-8.4670396,115.3503437,https://maps.google.com/?cid=0x0:0xf06c591d46472fa1,
toko bangunan,Toko Bahan Bangunan,UD KEVIN JUNIOR,"Jalan kapten anom mudita, lc umabukal, Kabupaten Bangli, Bali 80614","lc umabukal, Kabupaten Bangli",BALI,80614.0,Indonesia,82346021848.0,,,-8.4457875,115.3592429,https://maps.google.com/?cid=0x0:0x210abc9778e7b366,
toko bangunan,Toko Bahan Bangunan,RISKI RAUH,"H9G7+VRG, Jl. Nusantara, Kubu, Kec. Bangli, Kabupaten Bangli, Bali 80613","Jl. Nusantara, Kubu, Kec. Bangli, Kabupaten Bangli",BALI,80613.0,Indonesia,81999312855.0,,,-8.4228071,115.3645844,https://maps.google.com/?cid=0x0:0x4e37d43dc59b35ce,
toko bangunan,Toko Bahan Bangunan,Ud. Keluarga,"Jl. Rambutan No.3, Kawan, Kec. Bangli, Kabupaten Bangli, Bali 80613","Kawan, Kec. Bangli, Kabupaten Bangli",BALI,80613.0,Indonesia,36691161.0,,,-8.4544554,115.3575703,https://maps.google.com/?cid=0x0:0xf5b94af6c2f21faa,
toko bangunan,Toko Bahan Bangunan,RAJIN BANGUNAN,"Jl. Kesumayudha, Sulahan, Kec. Susut, Kabupaten Bangli, Bali 80661","Sulahan, Kec. Susut, Kabupaten Bangli",BALI,80661.0,Indonesia,81353322312.0,,,-8.4014975,115.3484071,https://maps.google.com/?cid=0x0:0x504756573f7771d4,
toko bangunan,Toko Bahan Bangunan,Toko Bangunan Bang Bang,"HC22+FXG, Jl. Raya Timuhun, Tembuku, Kec. Bangli, Kabupaten Bangli, Bali 80614","Jl. Raya Timuhun, Tembuku, Kec. Bangli, Kabupaten Bangli",BALI,80614.0,Indonesia,8123850459.0,,,-8.4488204,115.4024656,https://maps.google.com/?cid=0x0:0x9576e0540e379b89,
toko bangunan,Toko Bahan Bangunan,UD. SRI ARTHA REJEKI 2,"Jl. Kesumayudha No.28, Kawan, Kec. Bangli, Kabupaten Bangli, Bali 80614","Kawan, Kec. Bangli, Kabupaten Bangli",BALI,80614.0,Indonesia,81805516342.0,,,-8.4537374,115.3533336,https://maps.google.com/?cid=0x0:0x74f2c9eba76422d,
toko bangunan,Toko Bahan Bangunan,TOKO BANGUNAN UD. PRAMANA AGUNG,"LC SUBAK AYA, Jl. Muhamad Hatta, Bebalang, Kec. Bangli, Kabupaten Bangli, Bali 80614","Jl. Muhamad Hatta, Bebalang, Kec. Bangli, Kabupaten Bangli",BALI,80614.0,Indonesia,81338905995.0,,,-8.4660815,115.3502474,https://maps.google.com/?cid=0x0:0x80d00ced3f706489,
toko bangunan,Toko Bahan Bangunan,UD. SURYA BALI BANGUNAN,"J9C9+H23, Jl. Veteran, Kayubihi, Kec. Bangli, Kabupaten Bangli, Bali 80661","Jl. Veteran, Kayubihi, Kec. Bangli, Kabupaten Bangli",BALI,80661.0,Indonesia,85238067940.0,,,-8.3786095,115.3675486,https://maps.google.com/?cid=0x0:0x7ab705cc74d6ace6,
toko bangunan,Toko Bahan Bangunan,H.SANA JAYA GYPSUM,"Jl. Nusantara, Kubu, Kec. Bangli, Kabupaten Bangli, Bali 80613","Kubu, Kec. Bangli, Kabupaten Bangli",BALI,80613.0,Indonesia,81216509445.0,,,-8.4353648,115.3596394,https://maps.google.com/?cid=0x0:0xc4f1b628522bfae2,
toko bangunan,Toko Bahan Bangunan,UD. Windu Bale Beton,"Jl. Melati, Cempaga, Kec. Bangli, Kabupaten Bangli, Bali 80661","Cempaga, Kec. Bangli, Kabupaten Bangli",BALI,80661.0,Indonesia,81237317209.0,,,-8.4417177,115.3552913,https://maps.google.com/?cid=0x0:0xf975d2530bb978b7,
toko bangunan,Toko Bahan Bangunan,Mahagotra Bangunan,"Jl. Putra Yuda No.18, Sulahan, Kec. Susut, Kabupaten Bangli, Bali 80661","Sulahan, Kec. Susut, Kabupaten Bangli",BALI,80661.0,Indonesia,81238506309.0,,,-8.4276371,115.3460557,https://maps.google.com/?cid=0x0:0x85a7bcc007885dc2,
toko bangunan,Toko Perlengkapan Rumah,Utama Jaya Bangunan,"H8JX+3C3, Jl. Putra Yuda, Sulahan, Kec. Susut, Kabupaten Bangli, Bali 80661","Jl. Putra Yuda, Sulahan, Kec. Susut, Kabupaten Bangli",BALI,80661.0,Indonesia,81238584660.0,,,-8.4198666,115.3485603,https://maps.google.com/?cid=0x0:0xc33f3c64bd8c5fc5,
toko bangunan,Toko Mebel,UD ANTUGAN DEMBUNUT,"H92F+WF7, Jl. Erlangga, Cempaga, Kec. Bangli, Kabupaten Bangli, Bali 80613","Jl. Erlangga, Cempaga, Kec. Bangli, Kabupaten Bangli",BALI,80613.0,Indonesia,,,,-8.4477166,115.3736833,https://maps.google.com/?cid=0x0:0x384ecc5b5b4fa4f3,
toko bangunan,Toko Bahan Bangunan,Fajar Batu Alam,"G8XX+PWW, Jl. Kesumayudha, Kawan, Kec. Bangli, Kabupaten Bangli, Bali 80614","Jl. Kesumayudha, Kawan, Kec. Bangli, Kabupaten Bangli",BALI,80614.0,Indonesia,85253675445.0,,,-8.4506255,115.3498245,https://maps.google.com/?cid=0x0:0xd7b474ad454e7cab,
toko bangunan,toko bangunan,Bangli,"Kawan, Kec. Bangli, Kabupaten Bangli, Bali","Kabupaten Bangli, Bali",BALI,,Indonesia,,,,-8.454303,115.354897,https://maps.google.com/?cid=0x0:0x4030bfbca7d2c10,
toko bangunan,Toko Bahan Bangunan,UD. Sabar,"Jl. Brigjen Ngurah Rai No.10, Kawan, Kec. Bangli, Kabupaten Bangli, Bali 80614","Kawan, Kec. Bangli, Kabupaten Bangli",BALI,80614.0,Indonesia,85166898954.0,,,-8.4554356,115.3529933,https://maps.google.com/?cid=0x0:0x4f1f460537c9946,
toko bangunan,Toko Bahan Bangunan,TB Sinar ( Toko Bangunan ),"Jl. Muhamad Hatta No.18, Bebalang, Kec. Bangli, Kabupaten Bangli, Bali 80614","Bebalang, Kec. Bangli, Kabupaten Bangli",BALI,80614.0,Indonesia,85792052408.0,,,-8.4670396,115.3503437,https://maps.google.com/?cid=0x0:0xf06c591d46472fa1,
toko bangunan,Toko Bahan Bangunan,Toko Bangunan Bang Bang,"HC22+FXG, Jl. Raya Timuhun, Tembuku, Kec. Bangli, Kabupaten Bangli, Bali 80614","Jl. Raya Timuhun, Tembuku, Kec. Bangli, Kabupaten Bangli",BALI,80614.0,Indonesia,8123850459.0,,,-8.4488204,115.4024656,https://maps.google.com/?cid=0x0:0x9576e0540e379b89,
toko bangunan,Toko Bahan Bangunan,Ud. Keluarga,"Jl. Rambutan No.3, Kawan, Kec. Bangli, Kabupaten Bangli, Bali 80613","Kawan, Kec. Bangli, Kabupaten Bangli",BALI,80613.0,Indonesia,36691161.0,,,-8.4544554,115.3575703,https://maps.google.com/?cid=0x0:0xf5b94af6c2f21faa,
toko bangunan,Toko Bahan Bangunan,UD KEVIN JUNIOR,"Jalan kapten anom mudita, lc umabukal, Kabupaten Bangli, Bali 80614","lc umabukal, Kabupaten Bangli",BALI,80614.0,Indonesia,82346021848.0,,,-8.4457875,115.3592429,https://maps.google.com/?cid=0x0:0x210abc9778e7b366,
toko bangunan,Toko Bahan Bangunan,RAJIN BANGUNAN,"Jl. Kesumayudha, Sulahan, Kec. Susut, Kabupaten Bangli, Bali 80661","Sulahan, Kec. Susut, Kabupaten Bangli",BALI,80661.0,Indonesia,81353322312.0,,,-8.4014975,115.3484071,https://maps.google.com/?cid=0x0:0x504756573f7771d4,
toko bangunan,Toko Bahan Bangunan,UD. SURYA BALI BANGUNAN,"J9C9+H23, Jl. Veteran, Kayubihi, Kec. Bangli, Kabupaten Bangli, Bali 80661","Jl. Veteran, Kayubihi, Kec. Bangli, Kabupaten Bangli",BALI,80661.0,Indonesia,85238067940.0,,,-8.3786095,115.3675486,https://maps.google.com/?cid=0x0:0x7ab705cc74d6ace6,
toko bangunan,Toko Bahan Bangunan,Ud Enggal Agung,"Jl. Rambutan No.34, Kawan, Kec. Bangli, Kabupaten Bangli, Bali 80613","Kawan, Kec. Bangli, Kabupaten Bangli",BALI,80613.0,Indonesia,36691171.0,,,-8.4554257,115.357303,https://maps.google.com/?cid=0x0:0x5687dde76f404a51,
toko bangunan,Toko Bahan Bangunan,Krisnajaya. UD,"G9W3+8JJ, Jl. Raya Kintamani, Kawan, Kec. Bangli, Kabupaten Bangli, Bali 80652","Jl. Raya Kintamani, Kawan, Kec. Bangli, Kabupaten Bangli",BALI,80652.0,Indonesia,36651066.0,,,-8.454165,115.3540204,https://maps.google.com/?cid=0x0:0x1d3536782ad345bf,
toko bangunan,Toko,HOMESTORE UD.SARI BUNCING  CENDOLEO,"Lc Subak Aya, Jl. Tirta Pebini, Kawan, Kec. Bangli, Kabupaten Bangli, Bali 80613","Jl. Tirta Pebini, Kawan, Kec. Bangli, Kabupaten Bangli",BALI,80613.0,Indonesia,,,,-8.4654457,115.3508456,https://maps.google.com/?cid=0x0:0x6bddc2177783f02,
toko bangunan,Toko Perlengkapan Rumah,Toko Enka,"G8WQ+H7Q, Demulih, Kec. Susut, Kabupaten Bangli, Bali 80661","Demulih, Kec. Susut, Kabupaten Bangli",BALI,80661.0,Indonesia,,,,-8.4535486,115.3382338,https://maps.google.com/?cid=0x0:0x6191d995a3b0d927,
toko bangunan,Toko Bahan Bangunan,Toko Sabar,"Jl. Nangka No.10, Kawan, Kec. Bangli, Kabupaten Bangli, Bali 80614","Kawan, Kec. Bangli, Kabupaten Bangli",BALI,80614.0,Indonesia,81238339697.0,,,-8.4549495,115.3569348,https://maps.google.com/?cid=0x0:0x439ac295b1728099,
toko bangunan,Toko Bahan Bangunan,UD. SRI ARTHA REJEKI 2,"Jl. Kesumayudha No.28, Kawan, Kec. Bangli, Kabupaten Bangli, Bali 80614","Kawan, Kec. Bangli, Kabupaten Bangli",BALI,80614.0,Indonesia,81805516342.0,,,-8.4537374,115.3533336,https://maps.google.com/?cid=0x0:0x74f2c9eba76422d,
toko bangunan,Toko Bahan Bangunan,TB. Kemulan Agung,"H935+RMJ, Jl. Kapten Mudita, Cempaga, Kec. Bangli, Kabupaten Bangli, Bali 80614","Jl. Kapten Mudita, Cempaga, Kec. Bangli, Kabupaten Bangli",BALI,80614.0,Indonesia,81558072678.0,,,-8.4454016,115.3591494,https://maps.google.com/?cid=0x0:0x401214ac4fee3c5f,
toko bangunan,Toko Bahan Bangunan,Ud Anugrah Dewata,"G8MW+2VG, Jl. Tirta Gangga, Bebalang, Kec. Bangli, Kabupaten Bangli, Bali 80614","Jl. Tirta Gangga, Bebalang, Kec. Bangli, Kabupaten Bangli",BALI,80614.0,Indonesia,85339609632.0,,,-8.4674259,115.3472062,https://maps.google.com/?cid=0x0:0xceae59bfb12abbb2,
toko bangunan,Toko Bahan Bangunan,Sari Rumput. CV,"G9W3+8RJ, Kawan, Kec. Bangli, Kabupaten Bangli, Bali 80614","Kawan, Kec. Bangli, Kabupaten Bangli",BALI,80614.0,Indonesia,36692222.0,,,-8.454162,115.354508,https://maps.google.com/?cid=0x0:0x350329ceb6ef5f27,
toko bangunan,Toko Bahan Bangunan,Mahagotra Bangunan,"Jl. Putra Yuda No.18, Sulahan, Kec. Susut, Kabupaten Bangli, Bali 80661","Sulahan, Kec. Susut, Kabupaten Bangli",BALI,80661.0,Indonesia,81238506309.0,,,-8.4276371,115.3460557,https://maps.google.com/?cid=0x0:0x85a7bcc007885dc2,
toko bangunan,Toko Bahan Bangunan,Agoeng TBTB,"G8XX+JX5, Jl. Kesumayudha, Kawan, Kec. Bangli, Kabupaten Bangli, Bali 80614","Jl. Kesumayudha, Kawan, Kec. Bangli, Kabupaten Bangli",BALI,80614.0,Indonesia,81337791499.0,,,-8.4509789,115.3499863,https://maps.google.com/?cid=0x0:0xd2670fdfff52ab05,
toko bangunan,Toko Bahan Bangunan,UD MASA ABADI,"H987+RG8, Jl. Taman Sari, Kubu, Kec. Bangli, Kabupaten Bangli, Bali 80613","Jl. Taman Sari, Kubu, Kec. Bangli, Kabupaten Bangli",BALI,80613.0,Indonesia,,,,-8.4329615,115.3638358,https://maps.google.com/?cid=0x0:0x3053d8d2674a50a7,
toko bangunan,Toko Perlengkapan Rumah,Utama Jaya Bangunan,"H8JX+3C3, Jl. Putra Yuda, Sulahan, Kec. Susut, Kabupaten Bangli, Bali 80661","Jl. Putra Yuda, Sulahan, Kec. Susut, Kabupaten Bangli",BALI,80661.0,Indonesia,81238584660.0,,,-8.4198666,115.3485603,https://maps.google.com/?cid=0x0:0xc33f3c64bd8c5fc5,
toko bangunan,Toko Bahan Bangunan,Ud. Cahaya Mulia,"Taman Bali, Kec. Bangli, Kabupaten Bangli, Bali","Kabupaten Bangli, Bali",BALI,,Indonesia,,,,-8.486451,115.3502269,https://maps.google.com/?cid=0x0:0x943a757bca54e19c,
toko bangunan,Toko Bahan Bangunan,UD nusa,"Jl. Merdeka No.126, Bebalang, Kec. Bangli, Kabupaten Bangli, Bali 80614","Bebalang, Kec. Bangli, Kabupaten Bangli",BALI,80614.0,Indonesia,,,,-8.4772231,115.351963,https://maps.google.com/?cid=0x0:0xf7a282abc8359503,
toko bangunan,Toko Kosmetik,Toko Indira Bangli,"G9V4+V52, Jl. Serma Meranggi, Kawan, Kec. Bangli, Kabupaten Bangli, Bali 80614","Jl. Serma Meranggi, Kawan, Kec. Bangli, Kabupaten Bangli",BALI,80614.0,Indonesia,81337071885.0,,,-8.4553567,115.3553949,https://maps.google.com/?cid=0x0:0xa0acff0b27ecd6d6,
toko bangunan,Toko Mebel,Bangli Meubel,"Jl. Merdeka No.46, Kawan, Kec. Bangli, Kabupaten Bangli, Bali 80613","Kawan, Kec. Bangli, Kabupaten Bangli",BALI,80613.0,Indonesia,89601765758.0,,,-8.4562258,115.3560792,https://maps.google.com/?cid=0x0:0x6429f0c6b31cd20c,
toko bangunan,toko bangunan,Bali 80652,"Kec. Kintamani, Kabupaten Bangli, Bali","Kabupaten Bangli, Bali",BALI,,Indonesia,,,,-8.2172149,115.3548713,https://maps.google.com/?cid=0x0:0x1c00c5eb6016bf60,
toko bangunan,Toko Bahan Bangunan,UD Tunggal Jaya,"Jl. Raya Kintamani, Kintamani, Kec. Kintamani, Kabupaten Bangli, Bali 80652","Kintamani, Kec. Kintamani, Kabupaten Bangli",BALI,80652.0,Indonesia,85253230308.0,,,-8.246657,115.3278382,https://maps.google.com/?cid=0x0:0xdc57ea34aeded6aa,
toko bangunan,Toko Bahan Bangunan,Toko Bukit Taman sari,"P967+JPQ, Jl. Nusantara, Batur Tengah, Kec. Kintamani, Kabupaten Bangli, Bali 80652","Jl. Nusantara, Batur Tengah, Kec. Kintamani, Kabupaten Bangli",BALI,80652.0,Indonesia,87862954454.0,,,-8.2884023,115.3643497,https://maps.google.com/?cid=0x0:0xcffe7c3106f85630,
toko bangunan,Toko Bahan Bangunan,Tb. Kembang Merta,"R832+598, Jalan Raya, Bantang, Kintamani, Bangli Regency, Bali 80652","Jalan Raya, Bantang, Kintamani, Bangli Regency",BALI,80652.0,Indonesia,8123998690.0,,,-8.1970988,115.3009399,https://maps.google.com/?cid=0x0:0x5e1a7885ce4c3dd4,
toko bangunan,Toko Bahan Bangunan,TB SUASANA,"Q83H+45J, Bangli, Jl. Raya Kintamani, Kintamani, Tegallalang, Kabupaten Bangli, Bali 80652","Bangli, Jl. Raya Kintamani, Kintamani, Tegallalang, Kabupaten Bangli",BALI,80652.0,Indonesia,36651024.0,,,-8.2471674,115.3278791,https://maps.google.com/?cid=0x0:0x5cba4d8ba2f0b88b,
toko bangunan,Toko Bahan Bangunan,UD Rama Bangunan,"Jl. Raya Kintamani No.32, Banua, Kec. Kintamani, Kabupaten Bangli, Bali 80572","Banua, Kec. Kintamani, Kabupaten Bangli",BALI,80572.0,Indonesia,85237940451.0,,,-8.3270244,115.2926174,https://maps.google.com/?cid=0x0:0xe2c9bb53a842d189,
toko bangunan,Toko Bahan Bangunan,Ud. Kembang Wangi,"Jl. Gn. Batur, Satra, Kec. Kintamani, Kabupaten Bangli, Bali 80652","Satra, Kec. Kintamani, Kabupaten Bangli",BALI,80652.0,Indonesia,87750217791.0,,,-8.1830696,115.2678171,https://maps.google.com/?cid=0x0:0x5c1abd1583304dea,
toko bangunan,Toko Perlengkapan Rumah,UD. Tara Merta Jaya,"Q7G2+CW8, Catur, Kec. Kintamani, Kabupaten Bangli, Bali 80652","Catur, Kec. Kintamani, Kabupaten Bangli",BALI,80652.0,Indonesia,,,,-8.223968,115.252317,https://maps.google.com/?cid=0x0:0xb132011c163c0682,
toko bangunan,Toko Bahan Bangunan,Toko Candra,"Q86G+55Q, Jl. Raya, Kintamani, Kec. Kintamani, Kabupaten Bangli, Bali 80652","Jl. Raya, Kintamani, Kec. Kintamani, Kabupaten Bangli",BALI,80652.0,Indonesia,8123973909.0,,,-8.2395423,115.3254803,https://maps.google.com/?cid=0x0:0xd9ef24ce99e88df3,
toko bangunan,Toko Bahan Bangunan,UD. Krisna Jaya,"P8MR+F55, Jl. Raya Penelokan, Batur Tengah, Kec. Kintamani, Kabupaten Bangli, Bali 80652","Jl. Raya Penelokan, Batur Tengah, Kec. Kintamani, Kabupaten Bangli",BALI,80652.0,Indonesia,82237360177.0,,,-8.2663623,115.3404829,https://maps.google.com/?cid=0x0:0xb56db01a8dfca68a,
toko bangunan,Toko Bahan Bangunan,TB. BANTANG SARI,"Q8W4+8W7, Jl. Raya Kintamani, Dausa, Kec. Kintamani, Kabupaten Bangli, Bali 80652","Jl. Raya Kintamani, Dausa, Kec. Kintamani, Kabupaten Bangli",BALI,80652.0,Indonesia,81353055594.0,,,-8.2042158,115.3073076,https://maps.google.com/?cid=0x0:0xb1674922fd6aff96,
toko bangunan,Pemasok Bahan Bangunan,UD. Dwi Putra Katung,"Jalan Ancut Sudamala, Katung, Kintamani, Bali, 80652","Katung, Kintamani",BALI,80652.0,Indonesia,8124676101.0,,,-8.312443,115.303878,https://maps.google.com/?cid=0x0:0x5bdc0d4add7207d0,
toko bangunan,Toko Bahan Bangunan,UD . LINGGA JAYA,"Q6GV+9GW, Jalan, Catur, Kintamani, Bangli Regency, Bali 80652","Jalan, Catur, Kintamani, Bangli Regency",BALI,80652.0,Indonesia,,,,-8.224,115.243822,https://maps.google.com/?cid=0x0:0xa8185139f989f5ca,
toko bangunan,Toko Bahan Bangunan,Toko Mertha Yasa,"P8MR+X2R, Jl. Raya Penelokan, Batur Tengah, Kec. Kintamani, Kabupaten Bangli, Bali 80652","Jl. Raya Penelokan, Batur Tengah, Kec. Kintamani, Kabupaten Bangli",BALI,80652.0,Indonesia,85238355667.0,,,-8.265001,115.3400145,https://maps.google.com/?cid=0x0:0x590768bb0a66458a,
toko bangunan,Toko Bahan Bangunan,UD. Maran Asih,"P9C3+M96, Jl. Raya Penelokan, Batur Tengah, Kec. Kintamani, Kabupaten Bangli, Bali 80652","Jl. Raya Penelokan, Batur Tengah, Kec. Kintamani, Kabupaten Bangli",BALI,80652.0,Indonesia,85333677620.0,,,-8.2783426,115.353376,https://maps.google.com/?cid=0x0:0xe546852eeb503aec,
toko bangunan,Toko Bahan Bangunan,Toko sabar kintamani,"Q84G+V9X, Jl. Raya Kintamani, Kintamani, Kec. Kintamani, Kabupaten Bangli, Bali 80652","Jl. Raya Kintamani, Kintamani, Kec. Kintamani, Kabupaten Bangli",BALI,80652.0,Indonesia,82341635343.0,,,-8.2428714,115.3260311,https://maps.google.com/?cid=0x0:0xca93ad1f5f4f44e4,
toko bangunan,Toko Bahan Bangunan,UD. DINATA,"P848+PCR, Jalan Raya, Bayung Gede, Kintamani, Bangli Regency, Bali 80652","Jalan Raya, Bayung Gede, Kintamani, Bangli Regency",BALI,80652.0,Indonesia,85238845399.0,,,-8.2931264,115.3160025,https://maps.google.com/?cid=0x0:0xca48e6d59279ee06,
toko bangunan,Toko Bahan Bangunan,Bintang Jaya Material,"Br. Kembang Sari, Satra, Kec. Kintamani, Kabupaten Bangli, Bali 80652","Satra, Kec. Kintamani, Kabupaten Bangli",BALI,80652.0,Indonesia,85858246079.0,,,-8.1826838,115.2665463,https://maps.google.com/?cid=0x0:0x44419a52c0f279d3,
toko bangunan,Toko Bahan Bangunan,Dk toko besi,"M9R2+GFX WhatsApp Tokoh >>u003co87>>u003e- I55o66Io, Jl. Raya Sekardadi, Sekardadi, Kec. Kintamani, Kabupaten Bangli, Bali 62352","Jl. Raya Sekardadi, Sekardadi, Kec. Kintamani, Kabupaten Bangli",BALI,62352.0,Indonesia,,,,-8.3086479,115.3512466,https://maps.google.com/?cid=0x0:0x622edecd3e6ee66c,
toko bangunan,Toko Bahan Bangunan,Toko Wisnu,"Jl. Raya Kintamani, Kintamani, Bangli, Kabupaten Bangli, Bali 80652","Kintamani, Bangli, Kabupaten Bangli",BALI,80652.0,Indonesia,81337326825.0,,,-8.2467336,115.3276062,https://maps.google.com/?cid=0x0:0xbfab27c8956eb718,
toko bangunan,Toko,Wijaya,"R74H+PMX, Jl. Gn. Batur, Satra, Kec. Kintamani, Kabupaten Bangli, Bali 80652","Jl. Gn. Batur, Satra, Kec. Kintamani, Kabupaten Bangli",BALI,80652.0,Indonesia,85238444681.0,,,-8.193148,115.279232,https://maps.google.com/?cid=0x0:0x2b23743f9f8460ee,
toko bangunan,toko bangunan,Kintamani,"Batur Utara, Kec. Kintamani, Kabupaten Bangli, Bali","Kabupaten Bangli, Bali",BALI,,Indonesia,,,,-8.2528889,115.3324266,https://maps.google.com/?cid=0x0:0x11019959a8f510b7,
toko bangunan,Toko Bahan Bangunan,Ud. Karya Muliya,"P82W+P72, Jl. Bayung Gede - Sekardadi, Bayung Gede, Kec. Kintamani, Kabupaten Bangli, Bali 80652","Jl. Bayung Gede - Sekardadi, Bayung Gede, Kec. Kintamani, Kabupaten Bangli",BALI,80652.0,Indonesia,85337643448.0,,,-8.2982269,115.3456517,https://maps.google.com/?cid=0x0:0xfc5d7659a69b957f,
toko bangunan,toko bangunan,Susut,"Sulahan, Kec. Susut, Kabupaten Bangli, Bali","Kabupaten Bangli, Bali",BALI,,Indonesia,,,,-8.424873,115.346001,https://maps.google.com/?cid=0x0:0xc2e9cdd58e9468fb,
toko bangunan,Toko Perlengkapan Rumah,Utama Jaya Bangunan,"H8JX+3C3, Jl. Putra Yuda, Sulahan, Kec. Susut, Kabupaten Bangli, Bali 80661","Jl. Putra Yuda, Sulahan, Kec. Susut, Kabupaten Bangli",BALI,80661.0,Indonesia,81238584660.0,,,-8.4198666,115.3485603,https://maps.google.com/?cid=0x0:0xc33f3c64bd8c5fc5,
toko bangunan,Toko Bahan Bangunan,Mahagotra Bangunan,"Jl. Putra Yuda No.18, Sulahan, Kec. Susut, Kabupaten Bangli, Bali 80661","Sulahan, Kec. Susut, Kabupaten Bangli",BALI,80661.0,Indonesia,81238506309.0,,,-8.4276371,115.3460557,https://maps.google.com/?cid=0x0:0x85a7bcc007885dc2,
toko bangunan,Toko Bahan Bangunan,Toko Surya,"H87H+6VH, Susut, Kec. Susut, Kabupaten Bangli, Bali 80661","Susut, Kec. Susut, Kabupaten Bangli",BALI,80661.0,Indonesia,,,,-8.4369554,115.3299831,https://maps.google.com/?cid=0x0:0xd6eebce4cd9a91a8,
toko bangunan,Toko Bahan Bangunan,UD. Sabar,"Jl. Brigjen Ngurah Rai No.10, Kawan, Kec. Bangli, Kabupaten Bangli, Bali 80614","Kawan, Kec. Bangli, Kabupaten Bangli",BALI,80614.0,Indonesia,85166898954.0,,,-8.4554356,115.3529933,https://maps.google.com/?cid=0x0:0x4f1f460537c9946,
toko bangunan,Toko Bahan Bangunan,UD. SURYA BALI BANGUNAN,"J9C9+H23, Jl. Veteran, Kayubihi, Kec. Bangli, Kabupaten Bangli, Bali 80661","Jl. Veteran, Kayubihi, Kec. Bangli, Kabupaten Bangli",BALI,80661.0,Indonesia,85238067940.0,,,-8.3786095,115.3675486,https://maps.google.com/?cid=0x0:0x7ab705cc74d6ace6,
toko bangunan,Toko Bahan Bangunan,UD. Sinar,"J8PX+86Mjl kesumayudha, Tiga, Kec. Susut, Kabupaten Bangli, Bali 80661","Tiga, Kec. Susut, Kabupaten Bangli",BALI,80661.0,Indonesia,85377063616.0,,,-8.3641355,115.3482549,https://maps.google.com/?cid=0x0:0x6adb0d523ec2371f,
toko bangunan,Toko Bahan Bangunan,Ud. Sumber Rejeki,"M88R+5XV, Jl. Raya Kayuambua, Tiga, Kec. Susut, Kabupaten Bangli, Bali 80661","Jl. Raya Kayuambua, Tiga, Kec. Susut, Kabupaten Bangli",BALI,80661.0,Indonesia,81337113685.0,,,-8.334513,115.3424358,https://maps.google.com/?cid=0x0:0xea82c69077bf254,
toko bangunan,Toko Bahan Bangunan,Ud. Putra Surya,"M82V+6CW, Jl. Raya Kayuambua, Tiga, Kec. Susut, Kabupaten Bangli, Bali 80661","Jl. Raya Kayuambua, Tiga, Kec. Susut, Kabupaten Bangli",BALI,80661.0,Indonesia,81338934993.0,,,-8.3493841,115.3435853,https://maps.google.com/?cid=0x0:0xb7163daa0f443a9e,
toko bangunan,Toko Bahan Bangunan,ud.restu rejeki,"F8XH+XXG, Apuan, Kec. Susut, Kabupaten Bangli, Bali 80661","Apuan, Kec. Susut, Kabupaten Bangli",BALI,80661.0,Indonesia,8124651236.0,,,-8.50007,115.3299632,https://maps.google.com/?cid=0x0:0x1ca5806b976a2986,
toko bangunan,Toko Bahan Bangunan,Batu alam,"H87V+47X, Jl. Putra Yuda, Susut, Kec. Susut, Kabupaten Bangli, Bali 80661","Jl. Putra Yuda, Susut, Kec. Susut, Kabupaten Bangli",BALI,80661.0,Indonesia,,,,-8.4371288,115.3432287,https://maps.google.com/?cid=0x0:0xaee01363e531bb71,
toko bangunan,Toko Bahan Bangunan,UD Mulya Karya,"J9G2+VX2, Tiga, Kec. Susut, Kabupaten Bangli, Bali 80661","Tiga, Kec. Susut, Kabupaten Bangli",BALI,80661.0,Indonesia,87860004346.0,,,-8.3728567,115.3523868,https://maps.google.com/?cid=0x0:0x5f0d4b28f47ea478,
toko bangunan,Toko Bahan Bangunan,Ud. ANUGRAH DALEM BANGUNAN,"J993+XHX, Tiga, Kec. Susut, Kabupaten Bangli, Bali","Kabupaten Bangli, Bali",BALI,,Indonesia,87743225697.0,,,-8.3800112,115.3539953,https://maps.google.com/?cid=0x0:0xbaf61ee4b75b3dcc,
toko bangunan,Gudang,UD. SANTHI,"H89W+W5G, Jl. Putra Yuda, Sulahan, Kec. Susut, Kabupaten Bangli, Bali 80661","Jl. Putra Yuda, Sulahan, Kec. Susut, Kabupaten Bangli",BALI,80661.0,Indonesia,81338935297.0,,,-8.4301861,115.3454579,https://maps.google.com/?cid=0x0:0xec140a0376539987,
toko bangunan,Toko Bahan Bangunan,Ud. Merta Utama,"J8RW+3FV, Jl. Raya Kayuambua, Tiga, Kec. Susut, Kabupaten Bangli, Bali 80661","Jl. Raya Kayuambua, Tiga, Kec. Susut, Kabupaten Bangli",BALI,80661.0,Indonesia,81338604565.0,,,-8.3597599,115.346164,https://maps.google.com/?cid=0x0:0x3d67491deed81dd1,
toko bangunan,Toko Bahan Bangunan,TB Sinar ( Toko Bangunan ),"Jl. Muhamad Hatta No.18, Bebalang, Kec. Bangli, Kabupaten Bangli, Bali 80614","Bebalang, Kec. Bangli, Kabupaten Bangli",BALI,80614.0,Indonesia,85792052408.0,,,-8.4670396,115.3503437,https://maps.google.com/?cid=0x0:0xf06c591d46472fa1,
toko bangunan,toko bangunan,Bali 80671,"Kec. Tembuku, Kabupaten Bangli, Bali","Kabupaten Bangli, Bali",BALI,,Indonesia,,,,-8.4058202,115.3904215,https://maps.google.com/?cid=0x0:0x1c00c5eb6016bf80,
toko bangunan,Toko Bahan Bangunan,Toko Bangunan Bang Bang,"HC22+FXG, Jl. Raya Timuhun, Tembuku, Kec. Bangli, Kabupaten Bangli, Bali 80614","Jl. Raya Timuhun, Tembuku, Kec. Bangli, Kabupaten Bangli",BALI,80614.0,Indonesia,8123850459.0,,,-8.4488204,115.4024656,https://maps.google.com/?cid=0x0:0x9576e0540e379b89,
toko bangunan,Toko Bahan Bangunan,Putra Jehem Bangunan,"H93H+4RP, Jehem, Kec. Tembuku, Kabupaten Bangli, Bali 80671","Jehem, Kec. Tembuku, Kabupaten Bangli",BALI,80671.0,Indonesia,8123652236.0,,,-8.4471629,115.3795696,https://maps.google.com/?cid=0x0:0xcb38eef921b4c6ba,
toko bangunan,Toko Bahan Bangunan,Toko bahan bangunan. Wayan Okta supllayer kayu bagasting bangli,"HCV5+4P9, Peninjoan, Kec. Tembuku, Kabupaten Bangli, Bali 80671","Peninjoan, Kec. Tembuku, Kabupaten Bangli",BALI,80671.0,Indonesia,85239053189.0,,,-8.4072116,115.4093618,https://maps.google.com/?cid=0x0:0x3e680c80d31ff27e,
toko bangunan,Toko Bahan Bangunan,UD. SURYA BALI BANGUNAN,"J9C9+H23, Jl. Veteran, Kayubihi, Kec. Bangli, Kabupaten Bangli, Bali 80661","Jl. Veteran, Kayubihi, Kec. Bangli, Kabupaten Bangli",BALI,80661.0,Indonesia,85238067940.0,,,-8.3786095,115.3675486,https://maps.google.com/?cid=0x0:0x7ab705cc74d6ace6,
toko bangunan,Toko Bahan Bangunan,Toko Hyang Pupuh,"Bangbang, Kec. Tembuku, Kabupaten Bangli, Bali 80671","Kec. Tembuku, Kabupaten Bangli",BALI,80671.0,Indonesia,81338443595.0,,,-8.4325075,115.4100422,https://maps.google.com/?cid=0x0:0xcd21422be2c9b0f3,
toko bangunan,Pemasok Bahan Bangunan,Werdi karya,"H9FM+9VV, Jl. Tembuku, Tembuku, Kec. Tembuku, Kabupaten Bangli, Bali 80671","Jl. Tembuku, Tembuku, Kec. Tembuku, Kabupaten Bangli",BALI,80671.0,Indonesia,,,,-8.4265079,115.3846819,https://maps.google.com/?cid=0x0:0xe6d3d80853bd0c1,
toko bangunan,Toko Bahan Bangunan,TB. SENTOSA,"G9XJ+M2V, Jl. Erlangga, Jehem, Kec. Tembuku, Kabupaten Bangli, Bali 80671","Jl. Erlangga, Jehem, Kec. Tembuku, Kabupaten Bangli",BALI,80671.0,Indonesia,81237490116.0,,,-8.4507744,115.3800449,https://maps.google.com/?cid=0x0:0xe581d4cba68aa98c,
toko bangunan,Toko,Ud. Simpang Jaya,"Jalan Raya Nyanggelan, Undisan, Kec. Tembuku, Kabupaten Bangli, Bali 80671","Undisan, Kec. Tembuku, Kabupaten Bangli",BALI,80671.0,Indonesia,8123850459.0,,,-8.4488311,115.4025538,https://maps.google.com/?cid=0x0:0x1d2c1e9d6f11db24,
toko bangunan,Toko Bahan Bangunan,UD JAYA ABADI G (Toko bangunan),"HCC6+2GR, Br bangkiangsidem Ds, Bangbang, Kec. Tembuku, Kabupaten Bangli, Bali 80671","Br bangkiangsidem Ds, Bangbang, Kec. Tembuku, Kabupaten Bangli",BALI,80671.0,Indonesia,85238149693.0,,,-8.4298965,115.4112733,https://maps.google.com/?cid=0x0:0x71edee0358a97fd,
toko bangunan,Toko Bahan Bangunan,UD MASA ABADI,"H987+RG8, Jl. Taman Sari, Kubu, Kec. Bangli, Kabupaten Bangli, Bali 80613","Jl. Taman Sari, Kubu, Kec. Bangli, Kabupaten Bangli",BALI,80613.0,Indonesia,,,,-8.4329615,115.3638358,https://maps.google.com/?cid=0x0:0x3053d8d2674a50a7,
toko bangunan,Toko umum,UD.Sekar sandat Pak Ari,"HCV5+5MC, Peninjoan, Kec. Tembuku, Kabupaten Bangli, Bali","Kabupaten Bangli, Bali",BALI,,Indonesia,85333010079.0,,,-8.4060141,115.4096066,https://maps.google.com/?cid=0x0:0x798edcad489ddc25,
toko bangunan,Komplek perumahan,UD. Penglipuran,"Kubu, Kec. Bangli, Kabupaten Bangli, Bali 80613","Kec. Bangli, Kabupaten Bangli",BALI,80613.0,Indonesia,8123648614.0,,,-8.423454,115.3629896,https://maps.google.com/?cid=0x0:0xe8c28f9c4c8808c6,
toko bangunan,Toko Bahan Bangunan,TB. Kemulan Agung,"H935+RMJ, Jl. Kapten Mudita, Cempaga, Kec. Bangli, Kabupaten Bangli, Bali 80614","Jl. Kapten Mudita, Cempaga, Kec. Bangli, Kabupaten Bangli",BALI,80614.0,Indonesia,81558072678.0,,,-8.4454016,115.3591494,https://maps.google.com/?cid=0x0:0x401214ac4fee3c5f,
toko bangunan,Toko Bahan Bangunan,UD. Sabar,"Jl. Brigjen Ngurah Rai No.10, Kawan, Kec. Bangli, Kabupaten Bangli, Bali 80614","Kawan, Kec. Bangli, Kabupaten Bangli",BALI,80614.0,Indonesia,85166898954.0,,,-8.4554356,115.3529933,https://maps.google.com/?cid=0x0:0x4f1f460537c9946,
toko bangunan,toko bangunan,TRI UNDAGI,"J9HM+HQX, Yangapi, Kec. Tembuku, Kabupaten Bangli, Bali","Kabupaten Bangli, Bali",BALI,,Indonesia,,,,-8.3710022,115.3844968,https://maps.google.com/?cid=0x0:0x5a1f464ef3ef50ab,
toko bangunan,Toko Bahan Bangunan,UD. Kanti Sraya,"H939+M8M, Jl. Erlangga, Cempaga, Kec. Bangli, Kabupaten Bangli, Bali 80613","Jl. Erlangga, Cempaga, Kec. Bangli, Kabupaten Bangli",BALI,80613.0,Indonesia,81558052456.0,,,-8.4457777,115.3683047,https://maps.google.com/?cid=0x0:0x3b2e92bb3c331894,
toko bangunan,Toko Bahan Bangunan,UD.SINARMAS ARTHA CEMERLANG,"H9G7+HVJ, Kubu, Kec. Bangli, Kabupaten Bangli, Bali 80612","Kubu, Kec. Bangli, Kabupaten Bangli",BALI,80612.0,Indonesia,81338964222.0,,,-8.4235345,115.3646481,https://maps.google.com/?cid=0x0:0xa104b2a6364fc938,
toko bangunan,Toko Bahan Bangunan,RISKI RAUH,"H9G7+VRG, Jl. Nusantara, Kubu, Kec. Bangli, Kabupaten Bangli, Bali 80613","Jl. Nusantara, Kubu, Kec. Bangli, Kabupaten Bangli",BALI,80613.0,Indonesia,81999312855.0,,,-8.4228071,115.3645844,https://maps.google.com/?cid=0x0:0x4e37d43dc59b35ce,
toko bangunan,Toko Bahan Bangunan,RAJIN BANGUNAN,"Jl. Kesumayudha, Sulahan, Kec. Susut, Kabupaten Bangli, Bali 80661","Sulahan, Kec. Susut, Kabupaten Bangli",BALI,80661.0,Indonesia,81353322312.0,,,-8.4014975,115.3484071,https://maps.google.com/?cid=0x0:0x504756573f7771d4,
toko bangunan,Toko bahan makanan,UD.Arta Guna 2,"H9MW+9VF, Peninjoan, Kec. Tembuku, Kabupaten Bangli, Bali 80671","Peninjoan, Kec. Tembuku, Kabupaten Bangli",BALI,80671.0,Indonesia,81337587878.0,,,-8.4165043,115.3971085,https://maps.google.com/?cid=0x0:0x6f2c86cc986201d3,
toko bangunan,Toko Bahan Bangunan,PRATAMA SUPLIER KAYU LOKAL,"HCW6+X9F, Unnamed Road, Peninjoan, Kec. Tembuku, Kabupaten Bangli, Bali 80671","Unnamed Road, Peninjoan, Kec. Tembuku, Kabupaten Bangli",BALI,80671.0,Indonesia,,,,-8.4025516,115.4109082,https://maps.google.com/?cid=0x0:0xb00465384b7ae353,
