Category,Real Category,Business Name,Address,City,State,Postal Code,Country,Phone,Email,Website,Latitude,Longitude,Map Link,Details Link
perumahan,perumahan,Bali 80611,"Kabupaten Bangli, Bali","Kabupaten Bangli, Bali",BALI,,Indonesia,,,,-8.4047261,115.3696844,https://maps.google.com/?cid=0x0:0x1c00c5eb6016bf10,
perumahan,Komplek perumahan,Keshara I,"J937+844, Kayubihi, Kec. Bangli, Kabupaten Bangli, Bali","Kabupaten Bangli, Bali",BALI,,Indonesia,,,,-8.3970069,115.3625705,https://maps.google.com/?cid=0x0:0x44ac2970b521bea0,
perumahan,Komplek perumahan,Pondok Tis,"J927+38X, Jl. Kamboja, Kayubihi, Kec. Bangli, Kabupaten Bangli, Bali 80661","Jl. Kamboja, Kayubihi, Kec. Bangli, Kabupaten Bangli",BALI,80661.0,Indonesia,,,,-8.3997613,115.3633548,https://maps.google.com/?cid=0x0:0xacf655de564c3492,
perumahan,,Rama House,"J969+XWF, Jl. Perkutut, Kayubihi, Kec. Bangli, Kabupaten Bangli, Bali 80614","Jl. Perkutut, Kayubihi, Kec. Bangli, Kabupaten Bangli",BALI,80614.0,Indonesia,,,,-8.3875538,115.3697957,https://maps.google.com/?cid=0x0:0x3ad1032ca47b5781,
perumahan,,RUMAH AGUS WISNU,"H9MG+X85, Tembuku, Kec. Tembuku, Kabupaten Bangli, Bali","Kabupaten Bangli, Bali",BALI,,Indonesia,,,,-8.4151971,115.3772558,https://maps.google.com/?cid=0x0:0x71909bcf8d9a2540,
perumahan,Pembangunan Perumahan,Umah ne ALIT,"H9Q8+5QF, Kayubihi, Kec. Bangli, Kabupaten Bangli, Bali 80612","Kayubihi, Kec. Bangli, Kabupaten Bangli",BALI,80612.0,Indonesia,,,,-8.4120706,115.3669079,https://maps.google.com/?cid=0x0:0xe6f59013c9947066,
perumahan,Komplek perumahan,Duwur Kangin,"J947+RG5, Jl. Veteran, Kayubihi, Kec. Bangli, Kabupaten Bangli, Bali 80661","Jl. Veteran, Kayubihi, Kec. Bangli, Kabupaten Bangli",BALI,80661.0,Indonesia,85337433702.0,,,-8.393165,115.364234,https://maps.google.com/?cid=0x0:0xdd5bb6b90e9f3cf5,
perumahan,Komplek perumahan,Rumah Koming Oka,"J9V8+RHG, Jl. Nusantara, Kayubihi, Kec. Bangli, Kabupaten Bangli, Bali","Kabupaten Bangli, Bali",BALI,,Indonesia,,,,-8.3832296,115.3667295,https://maps.google.com/?cid=0x0:0x48f7c81219dd065,
perumahan,Komplek perumahan,Rumah I Wayan Ngambel,"H9QH+W95, Banjar Kedui, Kec. Tembuku, Kabupaten Bangli, Bali 80671","Banjar Kedui, Kec. Tembuku, Kabupaten Bangli",BALI,80671.0,Indonesia,81390914676.0,,,-8.4109957,115.3776405,https://maps.google.com/?cid=0x0:0x5be8c36838ddbad3,
perumahan,Komplek perumahan,Dianahouse,"H9V8+MR, Kayubihi, Kec. Bangli, Kabupaten Bangli, Bali 80611","Kayubihi, Kec. Bangli, Kabupaten Bangli",BALI,80611.0,Indonesia,,,,-8.4060534,115.3670273,https://maps.google.com/?cid=0x0:0x239b459971c94a89,
perumahan,Komplek perumahan,Rumah Made Wahyu Adisena,"H9H9+R3C, Jl. Gelinggang, Kubu, Kec. Bangli, Kabupaten Bangli, Bali","Kabupaten Bangli, Bali",BALI,,Indonesia,,,,-8.4204296,115.3676447,https://maps.google.com/?cid=0x0:0xa28a7292dda53c11,
perumahan,Komplek perumahan,Nini joda's home,"H9PF+55R, Galiran, Jehem, Kec. Tembuku, Kabupaten Bangli, Bali","Kabupaten Bangli, Bali",BALI,,Indonesia,,,,-8.4145038,115.372881,https://maps.google.com/?cid=0x0:0xf9b5d9c73e5ba404,
perumahan,Komplek perumahan,Rumah sumadi,"J935+X8V, desa buungan, Tiga, Kec. Susut, Kabupaten Bangli, Bali 80661","desa buungan, Tiga, Kec. Susut, Kabupaten Bangli",BALI,80661.0,Indonesia,,,,-8.3955985,115.3587114,https://maps.google.com/?cid=0x0:0x21cfdcde198234,
perumahan,Komplek perumahan,Wayan pondok sintang,"J925+8FQ, Jl. Purasti, Tiga, Kec. Susut, Kabupaten Bangli, Bali 80661","Jl. Purasti, Tiga, Kec. Susut, Kabupaten Bangli",BALI,80661.0,Indonesia,,,,-8.3991698,115.3587346,https://maps.google.com/?cid=0x0:0x12eadd5df7dd43ae,
perumahan,Komplek perumahan,Kusumaaa,"H9R8+QRX, Jl. D. Buyan, Kayubihi, Kec. Bangli, Kabupaten Bangli, Bali","Kabupaten Bangli, Bali",BALI,,Indonesia,,,,-8.4078166,115.3671544,https://maps.google.com/?cid=0x0:0xb89930479e6031ff,
perumahan,Inspektur Tempat Tinggal,Maniks house,"J967+FW4, Jl. Nusantara, Kayubihi, Kec. Bangli, Kabupaten Bangli, Bali 80611","Jl. Nusantara, Kayubihi, Kec. Bangli, Kabupaten Bangli",BALI,80611.0,Indonesia,,,,-8.3889433,115.3650894,https://maps.google.com/?cid=0x0:0xdcd2c9b19a8a8fd3,
perumahan,Pembangunan Perumahan,Yan jim house,"J937+G3V, Jl. Veteran, Kayubihi, Kec. Bangli, Kabupaten Bangli, Bali 80661","Jl. Veteran, Kayubihi, Kec. Bangli, Kabupaten Bangli",BALI,80661.0,Indonesia,,,,-8.3961478,115.3626574,https://maps.google.com/?cid=0x0:0x832227f630e655ce,
perumahan,Komplek perumahan,Eva house,"H9V8+MR, Kayubihi, Kec. Bangli, Kabupaten Bangli, Bali 80611","Kayubihi, Kec. Bangli, Kabupaten Bangli",BALI,80611.0,Indonesia,,,,-8.4051143,115.3682142,https://maps.google.com/?cid=0x0:0xd76f6cfe681bb081,
perumahan,Komplek perumahan,Deari,"J93G+XWP, Tembuku, Kec. Tembuku, Kabupaten Bangli, Bali","Kabupaten Bangli, Bali",BALI,,Indonesia,,,,-8.3950433,115.3773166,https://maps.google.com/?cid=0x0:0x3a4bdd9172df12c3,
perumahan,Perhimpunan Pengembang Perumahan,Kumbuh Bajracita,"Tembuku, Kec. Tembuku, Kabupaten Bangli, Bali 80611","Kec. Tembuku, Kabupaten Bangli",BALI,80611.0,Indonesia,,,,-8.4151269,115.3758477,https://maps.google.com/?cid=0x0:0x6e1f3531e4a942b,
perumahan,Komplek perumahan,Triloka Land Bangli,"Jl. Beji Selati, Bunutin, Kec. Bangli, Kabupaten Bangli, Bali 80611","Bunutin, Kec. Bangli, Kabupaten Bangli",BALI,80611.0,Indonesia,,,,-8.5148303,115.3365726,https://maps.google.com/?cid=0x0:0xbbcf4b0719fc7fbd,
perumahan,perumahan,Bali 80612,"Kabupaten Bangli, Bali","Kabupaten Bangli, Bali",BALI,,Indonesia,,,,-8.4198291,115.3696844,https://maps.google.com/?cid=0x0:0x1c00c5eb6016bf20,
perumahan,Komplek perumahan,Komang budiasa home stay,"H9G6+4F6, Unnamed Road, Kubu, Kec. Bangli, Kabupaten Bangli, Bali 80661","Unnamed Road, Kubu, Kec. Bangli, Kabupaten Bangli",BALI,80661.0,Indonesia,,,,-8.4247145,115.3611345,https://maps.google.com/?cid=0x0:0xb79c9e0dd6e316da,
perumahan,Agen Properti,Jalan gelinggang Kubu Bangli,"H9G9+GVG, Kubu, Kec. Bangli, Kabupaten Bangli, Bali 80612","Kubu, Kec. Bangli, Kabupaten Bangli",BALI,80612.0,Indonesia,,,,-8.4239368,115.3687674,https://maps.google.com/?cid=0x0:0xcba1c50b486cd50f,
perumahan,Pembangunan Perumahan,Pondok Tapa,"H9F9+H9F, Kubu, Kec. Bangli, Kabupaten Bangli, Bali 80613","Kubu, Kec. Bangli, Kabupaten Bangli",BALI,80613.0,Indonesia,,,,-8.4260538,115.3684171,https://maps.google.com/?cid=0x0:0x5e6c39c3b947f7c,
perumahan,Pembangunan Perumahan,Umah ne ALIT,"H9Q8+5QF, Kayubihi, Kec. Bangli, Kabupaten Bangli, Bali 80612","Kayubihi, Kec. Bangli, Kabupaten Bangli",BALI,80612.0,Indonesia,,,,-8.4120706,115.3669079,https://maps.google.com/?cid=0x0:0xe6f59013c9947066,
perumahan,Komplek perumahan,Rumah Made Wahyu Adisena,"H9H9+R3C, Jl. Gelinggang, Kubu, Kec. Bangli, Kabupaten Bangli, Bali","Kabupaten Bangli, Bali",BALI,,Indonesia,,,,-8.4204296,115.3676447,https://maps.google.com/?cid=0x0:0xa28a7292dda53c11,
perumahan,Pembangunan Perumahan,Gang bintang,"H9G7+MV7, Jl. Veteran, Kubu, Kec. Bangli, Kabupaten Bangli, Bali 80612","Jl. Veteran, Kubu, Kec. Bangli, Kabupaten Bangli",BALI,80612.0,Indonesia,,,,-8.4233391,115.3646584,https://maps.google.com/?cid=0x0:0xcb19a4f7543fc4e7,
perumahan,Komplek perumahan,Adi Kusuma's House 2,"Jl. Hyang Waringin Lingk No.Br, Kubu, Kec. Bangli, Kabupaten Bangli, Bali 80611","Kubu, Kec. Bangli, Kabupaten Bangli",BALI,80611.0,Indonesia,81338972090.0,,,-8.4250634,115.3611965,https://maps.google.com/?cid=0x0:0x61630bdf2d1fee64,
perumahan,Komplek perumahan,Rumah Dek Sri,"H9C8+3MC, Kubu, Kec. Bangli, Kabupaten Bangli, Bali 80613","Kubu, Kec. Bangli, Kabupaten Bangli",BALI,80613.0,Indonesia,,,,-8.4298214,115.3666329,https://maps.google.com/?cid=0x0:0x3961d696e7f9cec9,
perumahan,Perumahan,Home Putu Devia,"Jl. Nusantara, Kubu, Kec. Bangli, Kabupaten Bangli, Bali","Kabupaten Bangli, Bali",BALI,,Indonesia,,,,-8.4265924,115.3637972,https://maps.google.com/?cid=0x0:0x63f62d48fb4e0860,
perumahan,Komplek perumahan,Home Putra Denhill,"H987+XMP, Jl. Taman Sari, Kubu, Kec. Bangli, Kabupaten Bangli, Bali 80613","Jl. Taman Sari, Kubu, Kec. Bangli, Kabupaten Bangli",BALI,80613.0,Indonesia,85738336590.0,,,-8.4325423,115.3642004,https://maps.google.com/?cid=0x0:0x2da4e73172406595,
perumahan,,RUMAH AGUS WISNU,"H9MG+X85, Tembuku, Kec. Tembuku, Kabupaten Bangli, Bali","Kabupaten Bangli, Bali",BALI,,Indonesia,,,,-8.4151971,115.3772558,https://maps.google.com/?cid=0x0:0x71909bcf8d9a2540,
perumahan,Komplek perumahan,Rumah,"H9F8+P5F, Jl. Pemangkalan, Kubu, Kec. Bangli, Kabupaten Bangli, Bali","Kabupaten Bangli, Bali",BALI,,Indonesia,,,,-8.4256844,115.3654337,https://maps.google.com/?cid=0x0:0xf1dc0f4c274dd0b1,
perumahan,Komplek perumahan,Rumah Pak Dita,"H9CF+RFW, Jehem, Kec. Tembuku, Kabupaten Bangli, Bali 80612","Jehem, Kec. Tembuku, Kabupaten Bangli",BALI,80612.0,Indonesia,,,,-8.4280558,115.3735653,https://maps.google.com/?cid=0x0:0xfee96d23c8ce1559,
perumahan,Komplek perumahan,Rumah I Wayan Ngambel,"H9QH+W95, Banjar Kedui, Kec. Tembuku, Kabupaten Bangli, Bali 80671","Banjar Kedui, Kec. Tembuku, Kabupaten Bangli",BALI,80671.0,Indonesia,81390914676.0,,,-8.4109957,115.3776405,https://maps.google.com/?cid=0x0:0x5be8c36838ddbad3,
perumahan,Komplek perumahan,Rumah Pak andika,"H9JF+2QX, Jehem, Kec. Tembuku, Kabupaten Bangli, Bali 80612","Jehem, Kec. Tembuku, Kabupaten Bangli",BALI,80612.0,Indonesia,,,,-8.4198822,115.3744627,https://maps.google.com/?cid=0x0:0xe96d7dd27ece7555,
perumahan,Komplek perumahan,Rumah Suwadana,"Jl. Pemangkalan No.18, Kubu, Kec. Bangli, Kabupaten Bangli, Bali 80613","Kubu, Kec. Bangli, Kabupaten Bangli",BALI,80613.0,Indonesia,,,,-8.428486,115.368779,https://maps.google.com/?cid=0x0:0x8a589b52bcce8514,
perumahan,Komplek perumahan,Phondok Jennie,"H9G8+VJM, Kubu, Kec. Bangli, Kabupaten Bangli, Bali 80612","Kubu, Kec. Bangli, Kabupaten Bangli",BALI,80612.0,Indonesia,,,,-8.4228275,115.3666162,https://maps.google.com/?cid=0x0:0x3aa802dad2aa546,
perumahan,Komplek perumahan,Pondok MangMiko,"H9G8+VJM, Kubu, Kec. Bangli, Kabupaten Bangli, Bali 80612","Kubu, Kec. Bangli, Kabupaten Bangli",BALI,80612.0,Indonesia,,,,-8.4229625,115.3664298,https://maps.google.com/?cid=0x0:0x4bb2b783cdfa032b,
perumahan,Komplek perumahan,Kusumaaa,"H9R8+QRX, Jl. D. Buyan, Kayubihi, Kec. Bangli, Kabupaten Bangli, Bali","Kabupaten Bangli, Bali",BALI,,Indonesia,,,,-8.4078166,115.3671544,https://maps.google.com/?cid=0x0:0xb89930479e6031ff,
perumahan,Komplek perumahan,Nini joda's home,"H9PF+55R, Galiran, Jehem, Kec. Tembuku, Kabupaten Bangli, Bali","Kabupaten Bangli, Bali",BALI,,Indonesia,,,,-8.4145038,115.372881,https://maps.google.com/?cid=0x0:0xf9b5d9c73e5ba404,
perumahan,Komplek perumahan,Pondok kapah jumah,"H9J9+52C, Kubu, Kec. Bangli, Kabupaten Bangli, Bali 80612","Kubu, Kec. Bangli, Kabupaten Bangli",BALI,80612.0,Indonesia,,,,-8.4195583,115.3675041,https://maps.google.com/?cid=0x0:0x266da4d9cf8d6b51,
perumahan,perumahan,Bali 80613,"Kec. Bangli, Kabupaten Bangli, Bali","Kabupaten Bangli, Bali",BALI,,Indonesia,,,,-8.4399718,115.3696844,https://maps.google.com/?cid=0x0:0x1c00c5eb6016bf30,
perumahan,Perumahan,Griya Katewel Bangli,"H988+6XV, Jl. Taman Sari, Kubu, Kec. Bangli, Kabupaten Bangli, Bali 80613","Jl. Taman Sari, Kubu, Kec. Bangli, Kabupaten Bangli",BALI,80613.0,Indonesia,,,,-8.4344105,115.3675465,https://maps.google.com/?cid=0x0:0xe671ee04cc4542fb,
perumahan,Komplek perumahan,Griya Gede Sidembunut,"Jl. Taman Sari No.9, Cempaga, Kec. Bangli, Kabupaten Bangli, Bali 80613","Cempaga, Kec. Bangli, Kabupaten Bangli",BALI,80613.0,Indonesia,,,,-8.4455832,115.3707704,https://maps.google.com/?cid=0x0:0x3368736cc9b6f861,
perumahan,Tempat Religius,Puri Bukit Bangli Bali,"H955+654, Cempaga, Kec. Bangli, Kabupaten Bangli, Bali 80613","Cempaga, Kec. Bangli, Kabupaten Bangli",BALI,80613.0,Indonesia,,,,-8.4419843,115.3579447,https://maps.google.com/?cid=0x0:0xf311eac11d471f4c,
perumahan,Perumahan,Puri Agung Kepakisan Baleagung Bangli,"Jl. Mataram No.7, Cempaga, Kec. Bangli, Kabupaten Bangli, Bali 80613","Cempaga, Kec. Bangli, Kabupaten Bangli",BALI,80613.0,Indonesia,8170668611.0,,,-8.4438716,115.3577754,https://maps.google.com/?cid=0x0:0xa04936f0c2ed4e1a,
perumahan,Perhimpunan Pengembang Perumahan,Rumah Bayu,"H94C+MH6, Jl. Taman Sari, Cempaga, Kec. Bangli, Kabupaten Bangli, Bali 80613","Jl. Taman Sari, Cempaga, Kec. Bangli, Kabupaten Bangli",BALI,80613.0,Indonesia,,,,-8.443095,115.3721121,https://maps.google.com/?cid=0x0:0x59c6d7e737c87e90,
perumahan,Komplek perumahan,Rumah Ketut Jull,"H94C+MH6, Jl. Taman Sari, Cempaga, Kec. Bangli, Kabupaten Bangli, Bali 80613","Jl. Taman Sari, Cempaga, Kec. Bangli, Kabupaten Bangli",BALI,80613.0,Indonesia,,,,-8.443201,115.372454,https://maps.google.com/?cid=0x0:0x40232a3195af6549,
perumahan,Pembangunan Perumahan,Bukit Bangli,"Jl. Nusantara No.134, Kubu, Kec. Bangli, Kabupaten Bangli, Bali 80613","Kubu, Kec. Bangli, Kabupaten Bangli",BALI,80613.0,Indonesia,,,,-8.4367176,115.3587945,https://maps.google.com/?cid=0x0:0x211234e1022c481e,
perumahan,Komplek perumahan,Rumah Dek Sri,"H9C8+3MC, Kubu, Kec. Bangli, Kabupaten Bangli, Bali 80613","Kubu, Kec. Bangli, Kabupaten Bangli",BALI,80613.0,Indonesia,,,,-8.4298214,115.3666329,https://maps.google.com/?cid=0x0:0x3961d696e7f9cec9,
perumahan,Pembangunan Perumahan,Ngakan mahadi home,"H92C+WVX, Cempaga, Kec. Bangli, Kabupaten Bangli, Bali 80613","Cempaga, Kec. Bangli, Kabupaten Bangli",BALI,80613.0,Indonesia,,,,-8.447648,115.3722304,https://maps.google.com/?cid=0x0:0x672add68a64610d5,
perumahan,Komplek perumahan,Griya Pondok (Griya Manuaba),"H95F+24V, Jl. Taman Sari, Cempaga, Kec. Bangli, Kabupaten Bangli, Bali 80613","Jl. Taman Sari, Cempaga, Kec. Bangli, Kabupaten Bangli",BALI,80613.0,Indonesia,,,,-8.4424419,115.3733694,https://maps.google.com/?cid=0x0:0xd0c42123327e71a8,
perumahan,Pembangunan Perumahan,Pondok Tapa,"H9F9+H9F, Kubu, Kec. Bangli, Kabupaten Bangli, Bali 80613","Kubu, Kec. Bangli, Kabupaten Bangli",BALI,80613.0,Indonesia,,,,-8.4260538,115.3684171,https://maps.google.com/?cid=0x0:0x5e6c39c3b947f7c,
perumahan,Komplek perumahan,Komang budiasa home stay,"H9G6+4F6, Unnamed Road, Kubu, Kec. Bangli, Kabupaten Bangli, Bali 80661","Unnamed Road, Kubu, Kec. Bangli, Kabupaten Bangli",BALI,80661.0,Indonesia,,,,-8.4247145,115.3611345,https://maps.google.com/?cid=0x0:0xb79c9e0dd6e316da,
perumahan,Komplek perumahan,Perumahan Griya Petapan,"G9X5+JVJ, Jl. Darmawangsa, Cempaga, Kec. Bangli, Kabupaten Bangli, Bali 80614","Jl. Darmawangsa, Cempaga, Kec. Bangli, Kabupaten Bangli",BALI,80614.0,Indonesia,,,,-8.4509181,115.3596297,https://maps.google.com/?cid=0x0:0x5e477f6716f96903,
perumahan,Pembangunan Perumahan,ngakan putu eka payana,"Jl. Taman Sari, gg ceper sidembunut No.1, Cempaga, Kec. Bangli, Kabupaten Bangli, Bali 80613","gg ceper sidembunut No.1, Cempaga, Kec. Bangli, Kabupaten Bangli",BALI,80613.0,Indonesia,83845457207.0,,,-8.4470234,115.3722292,https://maps.google.com/?cid=0x0:0x785da2ff515245a4,
perumahan,Komplek perumahan,Griya Taman Delod Telabah Brahmana Bukit Bangli,"Jl. Mawar No.20, Cempaga, Kec. Bangli, Kabupaten Bangli, Bali 80613","Cempaga, Kec. Bangli, Kabupaten Bangli",BALI,80613.0,Indonesia,,,,-8.4440415,115.3555448,https://maps.google.com/?cid=0x0:0x2106fc4151f151b6,
perumahan,Komplek perumahan,Home Putra Denhill,"H987+XMP, Jl. Taman Sari, Kubu, Kec. Bangli, Kabupaten Bangli, Bali 80613","Jl. Taman Sari, Kubu, Kec. Bangli, Kabupaten Bangli",BALI,80613.0,Indonesia,85738336590.0,,,-8.4325423,115.3642004,https://maps.google.com/?cid=0x0:0x2da4e73172406595,
perumahan,Komplek perumahan,Rumah Made Wahyu Adisena,"H9H9+R3C, Jl. Gelinggang, Kubu, Kec. Bangli, Kabupaten Bangli, Bali","Kabupaten Bangli, Bali",BALI,,Indonesia,,,,-8.4204296,115.3676447,https://maps.google.com/?cid=0x0:0xa28a7292dda53c11,
perumahan,Perhimpunan Pengembang Perumahan,Rumah Bangli Pranowo,"Jl. Kesumayudha No.31, Kawan, Kec. Bangli, Kabupaten Bangli, Bali 80613","Kawan, Kec. Bangli, Kabupaten Bangli",BALI,80613.0,Indonesia,,,,-8.4537611,115.3511892,https://maps.google.com/?cid=0x0:0x20f14ff071c40f61,
perumahan,Komplek perumahan,Triloka Land Bangli,"Jl. Beji Selati, Bunutin, Kec. Bangli, Kabupaten Bangli, Bali 80611","Bunutin, Kec. Bangli, Kabupaten Bangli",BALI,80611.0,Indonesia,,,,-8.5148303,115.3365726,https://maps.google.com/?cid=0x0:0xbbcf4b0719fc7fbd,
perumahan,Jasa Tukang,Badung Box Audio speaker Bangli,"H924+RHX, Jl. Nusantara, Cempaga, Kec. Bangli, Kabupaten Bangli, Bali 80613","Jl. Nusantara, Cempaga, Kec. Bangli, Kabupaten Bangli",BALI,80613.0,Indonesia,881038583564.0,,,-8.4478832,115.3565481,https://maps.google.com/?cid=0x0:0xe48c0e8d24e1326e,
perumahan,Perumahan,Puri Kawan Tanggu (Puri Agung Bangli),"Jl. Nuri No.1, Kawan, Kec. Bangli, Kabupaten Bangli, Bali 80614","Kawan, Kec. Bangli, Kabupaten Bangli",BALI,80614.0,Indonesia,,,,-8.4532614,115.3539854,https://maps.google.com/?cid=0x0:0x92b5a43b9e211d1c,
perumahan,Komplek perumahan,Jro Timbul Jehem,"H93G+7FW, Jehem, Kec. Tembuku, Kabupaten Bangli, Bali 80613","Jehem, Kec. Tembuku, Kabupaten Bangli",BALI,80613.0,Indonesia,,,,-8.446728,115.3761582,https://maps.google.com/?cid=0x0:0x93f810f9d49d857a,
perumahan,perumahan,Bangli,"Kawan, Kec. Bangli, Kabupaten Bangli, Bali","Kabupaten Bangli, Bali",BALI,,Indonesia,,,,-8.454303,115.354897,https://maps.google.com/?cid=0x0:0x4030bfbca7d2c10,
perumahan,Pembangunan Perumahan,Puri Kelodan Puri Agung Bangli,"Jl. Serma Meranggi No.3, Kawan, Kec. Bangli, Kabupaten Bangli, Bali 80614","Kawan, Kec. Bangli, Kabupaten Bangli",BALI,80614.0,Indonesia,,,,-8.4558431,115.3556025,https://maps.google.com/?cid=0x0:0x9b0572084dfd80ed,
perumahan,Komplek perumahan,Home,"Jl. Kesumayudha Gang Xf No.4, Kawan, Kec. Bangli, Kabupaten Bangli, Bali 80614","Kawan, Kec. Bangli, Kabupaten Bangli",BALI,80614.0,Indonesia,,,,-8.4537283,115.3555968,https://maps.google.com/?cid=0x0:0x585d90f0b112170b,
perumahan,Komplek perumahan,Triloka Land Bangli,"Jl. Beji Selati, Bunutin, Kec. Bangli, Kabupaten Bangli, Bali 80611","Bunutin, Kec. Bangli, Kabupaten Bangli",BALI,80611.0,Indonesia,,,,-8.5148303,115.3365726,https://maps.google.com/?cid=0x0:0xbbcf4b0719fc7fbd,
perumahan,Komplek perumahan,Puri Timbul-Puri Kanginan,"Jl. Majapahit No.5, Kawan, Kec. Bangli, Kabupaten Bangli, Bali 80614","Kawan, Kec. Bangli, Kabupaten Bangli",BALI,80614.0,Indonesia,,,,-8.4540168,115.3571927,https://maps.google.com/?cid=0x0:0x2c54e63befd3ef93,
perumahan,Komplek perumahan,Pondok Dion,"G9W3+7XC, Banjar, Langkan, Kec. Bangli, Kabupaten Bangli, Bali","Kabupaten Bangli, Bali",BALI,,Indonesia,,,,-8.454303,115.354897,https://maps.google.com/?cid=0x0:0x3b2e14949ec9797f,
perumahan,Gedung Apartemen,Family dewa,"G9W3+7XC, Kawan, Kec. Bangli, Kabupaten Bangli, Bali","Kabupaten Bangli, Bali",BALI,,Indonesia,,,,-8.454303,115.354897,https://maps.google.com/?cid=0x0:0xa4a3a2b9473e6952,
perumahan,Komplek perumahan,Rumah,"Perumahan subsidi, Banjar selati blok E12, Bunutin, Kec. Bangli, Kabupaten Bangli, Bali 80614","Banjar selati blok E12, Bunutin, Kec. Bangli, Kabupaten Bangli",BALI,80614.0,Indonesia,,,,-8.5167952,115.3373648,https://maps.google.com/?cid=0x0:0x643a12283b37a4ed,
perumahan,Pembangunan Perumahan,Nang seti,"G9W3+7XC, Kawan, Kec. Bangli, Kabupaten Bangli, Bali","Kabupaten Bangli, Bali",BALI,,Indonesia,,,,-8.454303,115.354897,https://maps.google.com/?cid=0x0:0xc028f3db2a977d20,
perumahan,Rumah wisata,pondok wisata pink,"G9W3+7XC, Kawan, Kec. Bangli, Kabupaten Bangli, Bali","Kabupaten Bangli, Bali",BALI,,Indonesia,,,,-8.454303,115.354897,https://maps.google.com/?cid=0x0:0x7472843a7cf6786e,
perumahan,Komplek perumahan,ALUCARD SAVEG,"G9W3+7XC, Kawan, Kec. Bangli, Kabupaten Bangli, Bali","Kabupaten Bangli, Bali",BALI,,Indonesia,,,,-8.454303,115.354897,https://maps.google.com/?cid=0x0:0x255a54f157094dfd,
perumahan,Komplek perumahan,Gung Ratu Home,"Near, Jl. Kesumayudha No.6, Kawan, Kec. Bangli, Kabupaten Bangli, Bali 80613","Jl. Kesumayudha No.6, Kawan, Kec. Bangli, Kabupaten Bangli",BALI,80613.0,Indonesia,82340122930.0,,,-8.4538836,115.3557567,https://maps.google.com/?cid=0x0:0x44380ff42703d7d6,
perumahan,Perumahan,Dharma Giri Resident Kayuambua,"J8JW+9PR, Penglumbaran, Kec. Susut, Kabupaten Bangli, Bali 80661","Penglumbaran, Kec. Susut, Kabupaten Bangli",BALI,80661.0,Indonesia,87861474777.0,,,-8.3690215,115.3467762,https://maps.google.com/?cid=0x0:0x70c17b4f2614465a,
perumahan,Bangunan Bersejarah,PURI Saren Kangin Soka Bangli,"Jl. Merdeka No.2, Kawan, Kec. Bangli, Kabupaten Bangli, Bali 80613","Kawan, Kec. Bangli, Kabupaten Bangli",BALI,80613.0,Indonesia,,,,-8.4548827,115.356454,https://maps.google.com/?cid=0x0:0xc926cd457bc7e232,
perumahan,Grosir Perlengkapan Rumah Tangga,Toko Nusa,"G9V4+XGR, Jl. Merdeka, Kawan, Kec. Bangli, Kabupaten Bangli, Bali 80614","Jl. Merdeka, Kawan, Kec. Bangli, Kabupaten Bangli",BALI,80614.0,Indonesia,36691558.0,,,-8.4550178,115.3562669,https://maps.google.com/?cid=0x0:0xba53ed903811dc4b,
perumahan,Toko,Pt.Kurnia Agungmulia Sejahtera,"Jl. Merdeka No.40, Kawan, Kec. Bangli, Kabupaten Bangli, Bali 80614","Kawan, Kec. Bangli, Kabupaten Bangli",BALI,80614.0,Indonesia,,,,-8.4559212,115.3561888,https://maps.google.com/?cid=0x0:0x1de8a38f850eed03,
perumahan,Rumah Sakit,nusa indah bangsal,"G9W3+7XC Ngurah Rai99x, Kawan, Kec. Bangli, Kabupaten Bangli, Bali 80614","Kawan, Kec. Bangli, Kabupaten Bangli",BALI,80614.0,Indonesia,85776660414.0,,,-8.454303,115.354897,https://maps.google.com/?cid=0x0:0x89ceda083f0ce12c,
perumahan,perumahan,Bali 80652,"Kec. Kintamani, Kabupaten Bangli, Bali","Kabupaten Bangli, Bali",BALI,,Indonesia,,,,-8.2172149,115.3548713,https://maps.google.com/?cid=0x0:0x1c00c5eb6016bf60,
perumahan,Layanan Transportasi,Batur selatan,"Jl. Raya Kintamani No.11, Batur Utara, Kec. Kintamani, Kabupaten Bangli, Bali 80652","Batur Utara, Kec. Kintamani, Kabupaten Bangli",BALI,80652.0,Indonesia,,,,-8.2545607,115.3349222,https://maps.google.com/?cid=0x0:0x79472ed89bf727a7,
perumahan,Komplek perumahan,RUMAH DEWALI TABU,"Q9MM+H97, Jl. Tabu, Songan A, Kec. Kintamani, Kabupaten Bangli, Bali 80652","Jl. Tabu, Songan A, Kec. Kintamani, Kabupaten Bangli",BALI,80652.0,Indonesia,,,,-8.2153868,115.3846245,https://maps.google.com/?cid=0x0:0x1ea575aa9ce1a29c,
perumahan,Komplek perumahan,Rumah I Wayan Tabu,"Q9Q4+VQH, Sukawana, Kec. Kintamani, Kabupaten Bangli, Bali 80652","Sukawana, Kec. Kintamani, Kabupaten Bangli",BALI,80652.0,Indonesia,,,,-8.2103199,115.3569714,https://maps.google.com/?cid=0x0:0x20eea46860229f30,
perumahan,Komplek perumahan,RUMAH PAK MULI,"Gang jebuh nomor 8, jalan raya puskesmas No.1, Kintamani, Kec. Kintamani, Kabupaten Bangli, Bali 80652","jalan raya puskesmas No.1, Kintamani, Kec. Kintamani, Kabupaten Bangli",BALI,80652.0,Indonesia,82147127455.0,,,-8.2602726,115.3212849,https://maps.google.com/?cid=0x0:0x4bb5ff6e0a28860c,
perumahan,Komplek perumahan,Rumah,"Serai, Kec. Kintamani, Kabupaten Bangli, Bali 80652","Kec. Kintamani, Kabupaten Bangli",BALI,80652.0,Indonesia,,,,-8.2323273,115.3067913,https://maps.google.com/?cid=0x0:0x44ee97adb6419ae9,
perumahan,perumahan,Rumah Bp Totok,"Q86J+HMP gg cina, Jl kampung sudihati timur Sdn 2, Kintamani, Kec. Kintamani, Kabupaten Bangli, Bali","Kabupaten Bangli, Bali",BALI,,Indonesia,,,,-8.2385494,115.3317045,https://maps.google.com/?cid=0x0:0xfb3eda67b0ac543e,
perumahan,Komplek perumahan,Rumah Longes,"Q9P4+WQF, Sukawana, Kec. Kintamani, Kabupaten Bangli, Bali 80652","Sukawana, Kec. Kintamani, Kabupaten Bangli",BALI,80652.0,Indonesia,,,,-8.2126856,115.3569328,https://maps.google.com/?cid=0x0:0x22c2661dccd790d5,
perumahan,Komplek perumahan,Pondok ANJING KINTAMANI-BALI,"Q8PW+GGV, Banjar, Paketan, Sukawana, Kec. Kintamani, Kabupaten Bangli, Bali 80652","Banjar, Paketan, Sukawana, Kec. Kintamani, Kabupaten Bangli",BALI,80652.0,Indonesia,81238387879.0,,,-8.2136496,115.3462995,https://maps.google.com/?cid=0x0:0x5d8aed71d769af31,
perumahan,Komplek perumahan,Rumah tomi,"Q9RQ+65 Nice view, Pinggan, Kec. Kintamani, Kabupaten Bangli, Bali","Kabupaten Bangli, Bali",BALI,,Indonesia,,,,-8.2085708,115.3888031,https://maps.google.com/?cid=0x0:0xde3646279339a55d,
perumahan,Komplek perumahan,Rumah pak sopo,"P8WJ+HXW, Batur Utara, Kec. Kintamani, Kabupaten Bangli, Bali 80652","Batur Utara, Kec. Kintamani, Kabupaten Bangli",BALI,80652.0,Indonesia,,,,-8.2535451,115.3324019,https://maps.google.com/?cid=0x0:0xe3d62c5aa0eaf3b1,
perumahan,Perhimpunan Pengembang Perumahan,Rumah ni Wayan sovi dia meka,"Q9HR+H6, Songan A, Kec. Kintamani, Kabupaten Bangli, Bali 80652","Songan A, Kec. Kintamani, Kabupaten Bangli",BALI,80652.0,Indonesia,,,,-8.2210858,115.3905386,https://maps.google.com/?cid=0x0:0x6a2e3301e697d845,
perumahan,Komplek perumahan,Cooy Home,"Q9VP+9PW, Pinggan, Kec. Kintamani, Kabupaten Bangli, Bali 80652","Pinggan, Kec. Kintamani, Kabupaten Bangli",BALI,80652.0,Indonesia,,,,-8.2061328,115.3873611,https://maps.google.com/?cid=0x0:0xb8b30c05e1b0792e,
perumahan,Komplek perumahan,Jaba Kuta,"Q8CM+FC, Kintamani, Kec. Kintamani, Kabupaten Bangli, Bali","Kabupaten Bangli, Bali",BALI,,Indonesia,,,,-8.2288125,115.3335625,https://maps.google.com/?cid=0x0:0xb3268780a33c9aa3,
perumahan,Perhimpunan Pengembang Perumahan,Bayu and deo house,"Jl. Pura Bukit Catu No.Desa, Songan A, Kec. Kintamani, Kabupaten Bangli, Bali 80652","Songan A, Kec. Kintamani, Kabupaten Bangli",BALI,80652.0,Indonesia,,,,-8.2278224,115.3907742,https://maps.google.com/?cid=0x0:0x6db15dc3f587c61f,
perumahan,Komplek perumahan,Pondok nya tindih,"Q88J+47, Kintamani, Kec. Kintamani, Kabupaten Bangli, Bali 80652","Kintamani, Kec. Kintamani, Kabupaten Bangli",BALI,80652.0,Indonesia,,,,-8.2347546,115.3307044,https://maps.google.com/?cid=0x0:0x7660ddcfd68fd924,
perumahan,Pembangunan Perumahan,Rumah Lopes angle,"P8XJ+C3X Banjar Dana Petapan, Batur Utara, Kec. Kintamani, Kabupaten Bangli, Bali 80652","Batur Utara, Kec. Kintamani, Kabupaten Bangli",BALI,80652.0,Indonesia,85847514197.0,,,-8.2513751,115.3302492,https://maps.google.com/?cid=0x0:0x237a68a64ba1c16,
perumahan,Komplek perumahan,Pondok Bikul,"Q9P7+W3F Banjar paketan, Sukawana, Kec. Kintamani, Kabupaten Bangli, Bali 80652","Sukawana, Kec. Kintamani, Kabupaten Bangli",BALI,80652.0,Indonesia,,,,-8.212678,115.3626783,https://maps.google.com/?cid=0x0:0x8de7679bf82349ee,
perumahan,Perhimpunan Pengembang Perumahan,kADEK SURAMA,"Q9JJ+M9, Songan A, Kec. Kintamani, Kabupaten Bangli, Bali 80652","Songan A, Kec. Kintamani, Kabupaten Bangli",BALI,80652.0,Indonesia,,,,-8.2164722,115.3816735,https://maps.google.com/?cid=0x0:0x4f9b46ba398b78aa,
perumahan,Rumah Pondokan,Rumah ajik pujangga,"P8XJ+22J, Jalan Raya, Batur Utara, Kec. Kintamani, Kabupaten Bangli, Bali 80652","Jalan Raya, Batur Utara, Kec. Kintamani, Kabupaten Bangli",BALI,80652.0,Indonesia,,,,-8.2523671,115.3300299,https://maps.google.com/?cid=0x0:0x25202f8b3a0e0e22,
perumahan,Komplek perumahan,Keluarga Jro Ardi,"Q86H+G52, Kintamani, Kec. Kintamani, Kabupaten Bangli, Bali 80652","Kintamani, Kec. Kintamani, Kabupaten Bangli",BALI,80652.0,Indonesia,,,,-8.2387489,115.3278944,https://maps.google.com/?cid=0x0:0xf98838defda29661,
perumahan,Komplek perumahan,Pondok I Gede Sunarta,"Q8J7+3R7 Subak gunggung, Sukawana, Kec. Kintamani, Kabupaten Bangli, Bali 80652","Sukawana, Kec. Kintamani, Kabupaten Bangli",BALI,80652.0,Indonesia,,,,-8.2198347,115.3145428,https://maps.google.com/?cid=0x0:0xd1c40ac7b0e05c96,
perumahan,perumahan,Kintamani,"Batur Utara, Kec. Kintamani, Kabupaten Bangli, Bali","Kabupaten Bangli, Bali",BALI,,Indonesia,,,,-8.2528889,115.3324266,https://maps.google.com/?cid=0x0:0x11019959a8f510b7,
perumahan,perumahan,kintamani,"P8WJ+RXG, Batur Utara, Kec. Kintamani, Kabupaten Bangli, Bali","Kabupaten Bangli, Bali",BALI,,Indonesia,,,,-8.2529405,115.3324592,https://maps.google.com/?cid=0x0:0xa7ade4b78f08eeb9,
perumahan,Komplek perumahan,GANG EDEN,"P8WM+W9C, Batur Utara, Kec. Kintamani, Kabupaten Bangli, Bali 80652","Batur Utara, Kec. Kintamani, Kabupaten Bangli",BALI,80652.0,Indonesia,,,,-8.252697,115.3333997,https://maps.google.com/?cid=0x0:0xc52a43e4a8e30269,
perumahan,Komplek perumahan,Kintamani D10/12,"P8WJ+RXG D10/12, North Batur, Kintamani, Bangli Regency, Bali","Kabupaten Bangli, Bali",BALI,,Indonesia,,,,-8.2529405,115.3324592,https://maps.google.com/?cid=0x0:0x1bc35a503bbfd73c,
perumahan,Pembangunan Perumahan,Pondok petapan,"P8XJ+9PC, Jalan Raya, Batur Utara, Kec. Kintamani, Kabupaten Bangli, Bali 80652","Jalan Raya, Batur Utara, Kec. Kintamani, Kabupaten Bangli",BALI,80652.0,Indonesia,,,,-8.2515978,115.3318709,https://maps.google.com/?cid=0x0:0x32f4c81671d98773,
perumahan,Perhimpunan Pengembang Perumahan,MoeR,"Perm candrabaga blok AT 3 No.22, Batur Utara, Kec. Kintamani, Kabupaten Bangli, Bali","Kabupaten Bangli, Bali",BALI,,Indonesia,,,,-8.2529405,115.3324592,https://maps.google.com/?cid=0x0:0x68a28f08ee5d0c2b,
perumahan,perumahan,Susut,"Sulahan, Kec. Susut, Kabupaten Bangli, Bali","Kabupaten Bangli, Bali",BALI,,Indonesia,,,,-8.424873,115.346001,https://maps.google.com/?cid=0x0:0xc2e9cdd58e9468fb,
perumahan,Rumah Berhantu,Rumah John,"Jl. Kesumayudha No.35, Sulahan, Kec. Susut, Kabupaten Bangli, Bali 80661","Sulahan, Kec. Susut, Kabupaten Bangli",BALI,80661.0,Indonesia,,,,-8.426226,115.3468081,https://maps.google.com/?cid=0x0:0xed64f6b4a99cde53,
perumahan,Komplek perumahan,Ayu trista home,"Jl. Putra Yuda No.65, Tanggahan Peken, Sulahan, Kec. Susut, Kabupaten Bangli, Bali 80661","Tanggahan Peken, Sulahan, Kec. Susut, Kabupaten Bangli",BALI,80661.0,Indonesia,,,,-8.4254841,115.3466862,https://maps.google.com/?cid=0x0:0xb7d6004bf25caa67,
perumahan,Rumah Makan,Gliwir Catering,"H8GW+8WW, Jl. Kesumayudha, Sulahan, Kec. Susut, Kabupaten Bangli, Bali 80661","Jl. Kesumayudha, Sulahan, Kec. Susut, Kabupaten Bangli",BALI,80661.0,Indonesia,85941457738.0,,,-8.4241292,115.3473214,https://maps.google.com/?cid=0x0:0x264a0dbdad2bf4c1,
perumahan,Sate,LESEHAN JOKO,"H8GW+6VF, Jl. Putra Yuda, Sulahan, Kec. Susut, Kabupaten Bangli, Bali 80661","Jl. Putra Yuda, Sulahan, Kec. Susut, Kabupaten Bangli",BALI,80661.0,Indonesia,85239173718.0,,,-8.4244256,115.3471724,https://maps.google.com/?cid=0x0:0xcab2adea36409f10,
perumahan,Toko Komputer,CCTV BANGLI,"Jl. Raya, Sulahan, Kec. Susut, Kabupaten Bangli, Bali 80661","Sulahan, Kec. Susut, Kabupaten Bangli",BALI,80661.0,Indonesia,8123699912.0,,,-8.424873,115.346001,https://maps.google.com/?cid=0x0:0xc1578e4b256e0634,
perumahan,Komplek perumahan,Artadi's Home,"Jl. Putra Yuda No.218, Tanggahan Peken, Sulahan, Kec. Susut, Kabupaten Bangli, Bali 80661","Tanggahan Peken, Sulahan, Kec. Susut, Kabupaten Bangli",BALI,80661.0,Indonesia,,,,-8.414866,115.3474525,https://maps.google.com/?cid=0x0:0x37efc922c94b6d76,
perumahan,Komplek perumahan,Rumah sumadi,"J935+X8V, desa buungan, Tiga, Kec. Susut, Kabupaten Bangli, Bali 80661","desa buungan, Tiga, Kec. Susut, Kabupaten Bangli",BALI,80661.0,Indonesia,,,,-8.3955985,115.3587114,https://maps.google.com/?cid=0x0:0x21cfdcde198234,
perumahan,Binatu Cucian Kering,OGI LAUNDRY,"H8GW+RXJ, Jl. Kesumayudha, Sulahan, Kec. Susut, Kabupaten Bangli, Bali 80661","Jl. Kesumayudha, Sulahan, Kec. Susut, Kabupaten Bangli",BALI,80661.0,Indonesia,8776594713.0,,,-8.4229076,115.3473752,https://maps.google.com/?cid=0x0:0x19ae770e0d27bc14,
perumahan,Pembangunan Perumahan,PONDOK BTN,"H85W+925, Susut, Kec. Susut, Kabupaten Bangli, Bali 80661","Susut, Kec. Susut, Kabupaten Bangli",BALI,80661.0,Indonesia,,,,-8.4416115,115.34511,https://maps.google.com/?cid=0x0:0xed84c7201b97c6c5,
perumahan,perumahan,Bali 80671,"Kec. Tembuku, Kabupaten Bangli, Bali","Kabupaten Bangli, Bali",BALI,,Indonesia,,,,-8.4058202,115.3904215,https://maps.google.com/?cid=0x0:0x1c00c5eb6016bf80,
perumahan,Komplek perumahan,"Puri KDS Undisan,Tembuku,Bangli","H93W+C5Q, H93W+C63UndisanKec, Kec. Tembuku, Kabupaten Bangli, Bali 80671","H93W+C63UndisanKec, Kec. Tembuku, Kabupaten Bangli",BALI,80671.0,Indonesia,,,,-8.4464072,115.3954816,https://maps.google.com/?cid=0x0:0xc8887edd94422fe6,
perumahan,Pembangunan Perumahan,Rumah Yusman,"H98P+P3R, Tembuku, Kec. Tembuku, Kabupaten Bangli, Bali 80671","Tembuku, Kec. Tembuku, Kabupaten Bangli",BALI,80671.0,Indonesia,,,,-8.4322925,115.3851402,https://maps.google.com/?cid=0x0:0x89546674c873ed43,
perumahan,Pembangunan Perumahan,Pagehnee,"H9CP+9F5, Jl. Tembuku, Tembuku, Kec. Tembuku, Kabupaten Bangli, Bali 80671","Jl. Tembuku, Tembuku, Kec. Tembuku, Kabupaten Bangli",BALI,80671.0,Indonesia,,,,-8.4290432,115.3861831,https://maps.google.com/?cid=0x0:0x91f362e6766ff036,
perumahan,Pembangunan Perumahan,Ni Wayan Purwita,"H9HM+V75, Tembuku, Kec. Tembuku, Kabupaten Bangli, Bali 80671","Tembuku, Kec. Tembuku, Kabupaten Bangli",BALI,80671.0,Indonesia,,,,-8.4203506,115.3832231,https://maps.google.com/?cid=0x0:0x677d14b547aaa1ad,
perumahan,Pembangunan Perumahan,Gede Rika Family,"H98X+W6R, Peninjoan, Kec. Tembuku, Kabupaten Bangli, Bali 80671","Peninjoan, Kec. Tembuku, Kabupaten Bangli",BALI,80671.0,Indonesia,82147072573.0,,,-8.4326325,115.3980051,https://maps.google.com/?cid=0x0:0x73da887632201afb,
perumahan,Pembangunan Perumahan,Rumah Wayan Asih,"H98P+HCR, Jl. Tembuku, Tembuku, Kec. Tembuku, Kabupaten Bangli, Bali 80671","Jl. Tembuku, Tembuku, Kec. Tembuku, Kabupaten Bangli",BALI,80671.0,Indonesia,,,,-8.4335071,115.3860257,https://maps.google.com/?cid=0x0:0xd742569a37f9246f,
perumahan,Komplek perumahan,Rumah Toni putrawan penida kaja,"H9CP+M82, Jl. Tembuku, Tembuku, Kec. Tembuku, Kabupaten Bangli, Bali 80671","Jl. Tembuku, Tembuku, Kec. Tembuku, Kabupaten Bangli",BALI,80671.0,Indonesia,,,,-8.4283509,115.3857662,https://maps.google.com/?cid=0x0:0x8d32cca06e888b7b,
perumahan,Perhimpunan Pengembang Perumahan,Puri mangku nesa,"H9PX+27F, Jl. Yudistira, Peninjoan, Kec. Tembuku, Kabupaten Bangli, Bali 80671","Jl. Yudistira, Peninjoan, Kec. Tembuku, Kabupaten Bangli",BALI,80671.0,Indonesia,,,,-8.4149368,115.3981821,https://maps.google.com/?cid=0x0:0x6e5c1e01c68aa710,
perumahan,Komplek perumahan,Rumah july artha,"HCP5+F9P, Peninjoan, Kec. Tembuku, Kabupaten Bangli, Bali 80671","Peninjoan, Kec. Tembuku, Kabupaten Bangli",BALI,80671.0,Indonesia,,,,-8.414432,115.409027,https://maps.google.com/?cid=0x0:0xf6eb42c610a3433c,
perumahan,Komplek perumahan,Coxray,"H9HW+HVW, Peninjoan, Kec. Tembuku, Kabupaten Bangli, Bali 80671","Peninjoan, Kec. Tembuku, Kabupaten Bangli",BALI,80671.0,Indonesia,,,,-8.4210183,115.3972109,https://maps.google.com/?cid=0x0:0xff6e1af8a5e6f1f0,
perumahan,Komplek perumahan,Penage,"J95M+X67, Yangapi, Kec. Tembuku, Kabupaten Bangli, Bali 80671","Yangapi, Kec. Tembuku, Kabupaten Bangli",BALI,80671.0,Indonesia,,,,-8.3905284,115.3831886,https://maps.google.com/?cid=0x0:0x95e382b721fe2430,
perumahan,Pembangunan Perumahan,pondok pakel,"H9PW+7C2, Peninjoan, Kec. Tembuku, Kabupaten Bangli, Bali 80671","Peninjoan, Kec. Tembuku, Kabupaten Bangli",BALI,80671.0,Indonesia,,,,-8.4147081,115.3961404,https://maps.google.com/?cid=0x0:0x21b8d523043e97fe,
perumahan,Komplek perumahan,Sudika home,"HCW5+MHJ, Peninjoan, Kec. Tembuku, Kabupaten Bangli, Bali 80671","Peninjoan, Kec. Tembuku, Kabupaten Bangli",BALI,80671.0,Indonesia,,,,-8.4032395,115.4089053,https://maps.google.com/?cid=0x0:0xc8677f2835dad141,
perumahan,Komplek perumahan,Dhenda hause,"H9XM+545, Yangapi, Kec. Tembuku, Kabupaten Bangli, Bali 80671","Yangapi, Kec. Tembuku, Kabupaten Bangli",BALI,80671.0,Indonesia,,,,-8.4021198,115.3828677,https://maps.google.com/?cid=0x0:0xdd4719f11029085c,
perumahan,Perumahan,Jr Tegalasah,"H9GM+H8V, Jl. Tembuku, Tembuku, Kec. Tembuku, Kabupaten Bangli, Bali 80671","Jl. Tembuku, Tembuku, Kec. Tembuku, Kabupaten Bangli",BALI,80671.0,Indonesia,,,,-8.4234979,115.3833214,https://maps.google.com/?cid=0x0:0x21accfe486ef9488,
perumahan,Pembangunan Perumahan,Pondok Keliki,"H9JJ+49W, Banjar Tegalasah kelod, Kec. Tembuku, Kabupaten Bangli, Bali 80671","Banjar Tegalasah kelod, Kec. Tembuku, Kabupaten Bangli",BALI,80671.0,Indonesia,,,,-8.4204189,115.3806295,https://maps.google.com/?cid=0x0:0xba870c4fee3e7592,
perumahan,Komplek perumahan,I WAYAN MUDALARA,"H9CV+427 Desa Adat Tabunan, Unnamed Road, Undisan, Kec. Tembuku, Kabupaten Bangli, Bali 80671","Unnamed Road, Undisan, Kec. Tembuku, Kabupaten Bangli",BALI,80671.0,Indonesia,,,,-8.429708,115.392562,https://maps.google.com/?cid=0x0:0x7506bdd860a99322,
perumahan,Perhimpunan Pengembang Perumahan,Rumah NANG PUTRA,"JC42+QJ6, Br. Kebon kelod, Peninjoan, Kec. Tembuku, Kabupaten Bangli, Bali 80671","Br. Kebon kelod, Peninjoan, Kec. Tembuku, Kabupaten Bangli",BALI,80671.0,Indonesia,,,,-8.3930922,115.4015245,https://maps.google.com/?cid=0x0:0x89799344ed5478a3,
perumahan,Komplek perumahan,Shana Inega House,"J92M+J8C, Yangapi, Kec. Tembuku, Kabupaten Bangli, Bali 80671","Yangapi, Kec. Tembuku, Kabupaten Bangli",BALI,80671.0,Indonesia,,,,-8.398449,115.3832708,https://maps.google.com/?cid=0x0:0x470407af2f8dce48,
perumahan,Komplek perumahan,Rumah Adiputra_x,"HCW6+JXG, Peninjoan, Kec. Tembuku, Kabupaten Bangli, Bali 80671","Peninjoan, Kec. Tembuku, Kabupaten Bangli",BALI,80671.0,Indonesia,,,,-8.4039804,115.4122409,https://maps.google.com/?cid=0x0:0x88f8594211d7dbf4,
perumahan,Gedung Apartemen,Wayan Roni,"HCV4+XPV, Peninjoan, Kec. Tembuku, Kabupaten Bangli, Bali 80671","Peninjoan, Kec. Tembuku, Kabupaten Bangli",BALI,80671.0,Indonesia,,,,-8.4050222,115.4067887,https://maps.google.com/?cid=0x0:0xf2538307418d0b42,
perumahan,Komplek perumahan,Home Dewa Ngurah Satria,"H9GX+P99, Jl. Peninjoan, Peninjoan, Kec. Tembuku, Kabupaten Bangli, Bali 80671","Jl. Peninjoan, Peninjoan, Kec. Tembuku, Kabupaten Bangli",BALI,80671.0,Indonesia,,,,-8.4231678,115.3984955,https://maps.google.com/?cid=0x0:0x276b2aa6dedc0fa9,
perumahan,Komplek perumahan,Rumah rafa n tristan,"H9CH+PPF, Unnamed Road, Jehem, Kec. Tembuku, Kabupaten Bangli, Bali 80671","Unnamed Road, Jehem, Kec. Tembuku, Kabupaten Bangli",BALI,80671.0,Indonesia,,,,-8.4281986,115.379295,https://maps.google.com/?cid=0x0:0x604234a9d18b9aeb,
