Category,Real Category,Business Name,Address,City,State,Postal Code,Country,Phone,Email,Website,Latitude,Longitude,Map Link,Details Link
perumahan,perumahan,Nusaniwe,"Kec. Nusaniwe, Kota Ambon, Maluku","Kota Ambon, Maluku",MALUKU,,Indonesia,,,,-3.758.225,1.281.424.438,https://maps.google.com/?cid=0x0:0x47869cdfaa5c2eae,
perumahan,Komplek perumahan,Dewi nanuru,"64M9+9H2, Seilale, Kec. Nusaniwe, Kota Ambon, Maluku","Kota Ambon, Maluku",MALUKU,,Indonesia,,,,-37.666.734,1.281.188.906,https://maps.google.com/?cid=0x0:0x5e28cddc698b878e,
perumahan,Pembangunan Perumahan,Kompleks Nona  Nyong Manis,"64MG+G3, Nusaniwe, Kec. Nusaniwe, Kota Ambon, Maluku","Kota Ambon, Maluku",MALUKU,,Indonesia,,,,-37.663.485,1.281.253.528,https://maps.google.com/?cid=0x0:0xa33f9e78033588a9,
perumahan,Komplek perumahan,Kel RisBedri Tuhumury,"64M9+JPW, Jl. Amanhuse, Seilale, Kec. Nusaniwe, Kota Ambon, Maluku","Kota Ambon, Maluku",MALUKU,,Indonesia,,,,-37.659.551,128.118.767,https://maps.google.com/?cid=0x0:0xf3de8e162b1dadc8,
perumahan,Komplek perumahan,Kel B Wattilete,"64MJ+8CC, Nusaniwe, Kec. Nusaniwe, Kota Ambon, Maluku","Kota Ambon, Maluku",MALUKU,,Indonesia,,,,-37.666.647,1.281.317.391,https://maps.google.com/?cid=0x0:0xca5db65686db836,
perumahan,Komplek perumahan,Tisera Family,"64MF+HG8 Eri, RT./RW/RW.008/02, Nusaniwe, Kec. Nusaniwe, Kota Ambon, Maluku","Kota Ambon, Maluku",MALUKU,,Indonesia,,,,-37.660.799,1.281.238.326,https://maps.google.com/?cid=0x0:0x546093385efd4761,
perumahan,Komplek perumahan,F. LEKATOMPESSY,"64MC+MMR, Seilale, Kec. Nusaniwe, Kota Ambon, Maluku","Kota Ambon, Maluku",MALUKU,,Indonesia,,,,-37.657.625,1.281.216.406,https://maps.google.com/?cid=0x0:0xcf96949e1c343444,
perumahan,Komplek perumahan,Rmh Kel.simanjuntak,"742J+H9H, Jl. Amanhuse, Nusaniwe, Kec. Nusaniwe, Kota Ambon, Maluku","Kota Ambon, Maluku",MALUKU,,Indonesia,,,,-37.484.046,1.281.309.375,https://maps.google.com/?cid=0x0:0xa4b10c1ce1b82da3,
perumahan,Komplek perumahan,Kel. Hendry.R. Latukolan,"64MH+F8Q, Nusaniwe, Kec. Nusaniwe, Kota Ambon, Maluku","Kota Ambon, Maluku",MALUKU,,Indonesia,,,,-37.658.821,1.281.273.504,https://maps.google.com/?cid=0x0:0x79cc1422339ce8e3,
perumahan,Pembangunan Perumahan,Amora Latukolan,"64HP+5CM, Nusaniwe, Kec. Nusaniwe, Kota Ambon, Maluku","Kota Ambon, Maluku",MALUKU,,Indonesia,,,,-37.729.221,1.281.359.157,https://maps.google.com/?cid=0x0:0x9969808377331bd0,
perumahan,Komplek perumahan,Stella Marlissa,"64MC+MJH, Seilale, Kec. Nusaniwe, Kota Ambon, Maluku","Kota Ambon, Maluku",MALUKU,,Indonesia,,,,-37.646.393,1.281.220.071,https://maps.google.com/?cid=0x0:0x5ae7bb95ee697df1,
perumahan,perumahan,Keluarga Opa Ari Silooy,"745M+HCX, Amahusu, Kec. Nusaniwe, Kota Ambon, Maluku","Kota Ambon, Maluku",MALUKU,,Indonesia,,,,-37.410.246,128.133.619,https://maps.google.com/?cid=0x0:0x7710c7af4bd87700,
perumahan,Komplek perumahan,Nanuruâs Home,"64MJ+8CC, Nusaniwe, Kec. Nusaniwe, Kota Ambon, Maluku","Kota Ambon, Maluku",MALUKU,,Indonesia,,,,-37.666.637,1.281.321.934,https://maps.google.com/?cid=0x0:0x1e7c43989581b942,
perumahan,Komplek perumahan,Tv kabel Nusaniwe,"64PF+Q35, Seilale, Kec. Nusaniwe, Kota Ambon, Maluku","Kota Ambon, Maluku",MALUKU,,Indonesia,,,,-37.631.322,1.281.227.017,https://maps.google.com/?cid=0x0:0xac7fa44b1818e708,
perumahan,Komplek perumahan,Untayana home,"742J+V5Q, Nusaniwe, Kec. Nusaniwe, Kota Ambon, Maluku","Kota Ambon, Maluku",MALUKU,,Indonesia,,,,-37.485.647,1.281.310.179,https://maps.google.com/?cid=0x0:0x547e923817a6e4d6,
perumahan,Komplek perumahan,Dusun erie batu anyo,"Jl. Amanhuse, Nusaniwe, Kec. Nusaniwe, Kota Ambon, Maluku","Kota Ambon, Maluku",MALUKU,,Indonesia,,,,-37.456.292,1.281.304.721,https://maps.google.com/?cid=0x0:0xb65e742607f2fe89,
perumahan,Komplek perumahan,Bethesda Family,"64JG+6MC, Nusaniwe, Kec. Nusaniwe, Kota Ambon, Maluku","Kota Ambon, Maluku",MALUKU,,Indonesia,,,,-37.694.451,1.281.266.476,https://maps.google.com/?cid=0x0:0x2958b57c7a416d61,
perumahan,Komplek perumahan,Rumah Kel Makapuan,"743M+G4, Nusaniwe, Kec. Nusaniwe, Kota Ambon, Maluku","Kota Ambon, Maluku",MALUKU,,Indonesia,,,,-37.468.108,1.281.328.492,https://maps.google.com/?cid=0x0:0xc5ea3ce7551b0dde,
perumahan,Komplek perumahan,kastanja,"742J+9C5, Nusaniwe, Kec. Nusaniwe, Kota Ambon, Maluku","Kota Ambon, Maluku",MALUKU,,Indonesia,,,,-37.491.177,1.281.311.063,https://maps.google.com/?cid=0x0:0x6cda1155d4090e47,
perumahan,perumahan,Kec. Nusaniwe,"Kota Ambon, Maluku","Kota Ambon, Maluku",MALUKU,,Indonesia,,,,-37.050.795,128.174.458,https://maps.google.com/?cid=0x0:0x3f13997f42549327,
perumahan,Komplek perumahan,Keluarga Y. Litaay,"742M+J57, Nusaniwe, Kec. Nusaniwe, Kota Ambon, Maluku","Kota Ambon, Maluku",MALUKU,,Indonesia,,,,-37.484.636,1.281.329.092,https://maps.google.com/?cid=0x0:0xf9d089d8f8c8dae9,
perumahan,Komplek perumahan,Stiven persulessy,"75VG+W92, Kel Mangga Dua, Kec. Nusaniwe, Kota Ambon, Maluku","Kota Ambon, Maluku",MALUKU,,Indonesia,,,,-37.055.677,128.176.248,https://maps.google.com/?cid=0x0:0x660f54acc6482b4f,
perumahan,Pembangunan Perumahan,Perumuhan suwestran,"75XG+2CV, Kel Waihaong, Kec. Nusaniwe, Kota Ambon, Maluku","Kota Ambon, Maluku",MALUKU,,Indonesia,,,,-3.702.385,1.281.760.436,https://maps.google.com/?cid=0x0:0x187ff2b85b718a88,
perumahan,Komplek perumahan,Rumah,"75RG+P97 Batu Gantung Ganemo, Kel Kudamati, Kec. Nusaniwe, Kota Ambon, Maluku","Kota Ambon, Maluku",MALUKU,,Indonesia,,,,-37.082.139,1.281.759.205,https://maps.google.com/?cid=0x0:0xe71d43c1c7b74d22,
perumahan,Komplek perumahan,Keluarga Oma Yos Soselissa,"75VG+JFQ, Jl. DR. Kayadoe Batu Gantong Dalam, Kel Mangga Dua, Kec. Nusaniwe, Kota Ambon, Maluku","Kota Ambon, Maluku",MALUKU,,Indonesia,,,,-37.059.083,1.281.762.366,https://maps.google.com/?cid=0x0:0xd427ecd230096321,
perumahan,Komplek perumahan,Rumah keluarga woriwun,"75VF+7VG, Jl. DR. Kayadoe, Kel Kudamati, Kec. Nusaniwe, Kota Ambon, Maluku","Kota Ambon, Maluku",MALUKU,,Indonesia,,,,-37.065.821,1.281.751.239,https://maps.google.com/?cid=0x0:0x4ec08b4e162d7794,
perumahan,Pembangunan Perumahan,Nusantara erie,"Erie nusaniwe, Kel Wainitu, Kec. Nusaniwe, Kota Ambon, Maluku","Kota Ambon, Maluku",MALUKU,,Indonesia,,,,-37.050.795,128.174.458,https://maps.google.com/?cid=0x0:0xafdbd0584678d9e1,
perumahan,Komplek perumahan,EKA'S HOUSE,"75WF+6HX, Unnamed Road, Kel Wainitu, Kec. Nusaniwe, Kota Ambon, Maluku","Kota Ambon, Maluku",MALUKU,,Indonesia,85244774544,,,-37.043.806,1.281.739.853,https://maps.google.com/?cid=0x0:0x24b69c8e769e871f,
perumahan,Pembangunan Perumahan,KOS PICAULY,"75WC+RRG, Kel Wainitu, Kec. Nusaniwe, Kota Ambon, Maluku","Kota Ambon, Maluku",MALUKU,,Indonesia,,,,-37.029.388,1.281.720.849,https://maps.google.com/?cid=0x0:0x4b6f53aaaf517c4d,
perumahan,perumahan,Nusaniwe,"Kec. Nusaniwe, Kota Ambon, Maluku","Kota Ambon, Maluku",MALUKU,,Indonesia,,,,-3.758.225,1.281.424.438,https://maps.google.com/?cid=0x0:0x47869cdfaa5c2eae,
perumahan,Komplek perumahan,Dewi nanuru,"64M9+9H2, Seilale, Kec. Nusaniwe, Kota Ambon, Maluku","Kota Ambon, Maluku",MALUKU,,Indonesia,,,,-37.666.734,1.281.188.906,https://maps.google.com/?cid=0x0:0x5e28cddc698b878e,
perumahan,Komplek perumahan,Kel RisBedri Tuhumury,"64M9+JPW, Jl. Amanhuse, Seilale, Kec. Nusaniwe, Kota Ambon, Maluku","Kota Ambon, Maluku",MALUKU,,Indonesia,,,,-37.659.551,128.118.767,https://maps.google.com/?cid=0x0:0xf3de8e162b1dadc8,
perumahan,Pembangunan Perumahan,Kompleks Nona  Nyong Manis,"64MG+G3, Nusaniwe, Kec. Nusaniwe, Kota Ambon, Maluku","Kota Ambon, Maluku",MALUKU,,Indonesia,,,,-37.663.485,1.281.253.528,https://maps.google.com/?cid=0x0:0xa33f9e78033588a9,
perumahan,Komplek perumahan,Kel B Wattilete,"64MJ+8CC, Nusaniwe, Kec. Nusaniwe, Kota Ambon, Maluku","Kota Ambon, Maluku",MALUKU,,Indonesia,,,,-37.666.647,1.281.317.391,https://maps.google.com/?cid=0x0:0xca5db65686db836,
perumahan,Komplek perumahan,Nanuruâs Home,"64MJ+8CC, Nusaniwe, Kec. Nusaniwe, Kota Ambon, Maluku","Kota Ambon, Maluku",MALUKU,,Indonesia,,,,-37.666.637,1.281.321.934,https://maps.google.com/?cid=0x0:0x1e7c43989581b942,
perumahan,Komplek perumahan,Kel. Hendry.R. Latukolan,"64MH+F8Q, Nusaniwe, Kec. Nusaniwe, Kota Ambon, Maluku","Kota Ambon, Maluku",MALUKU,,Indonesia,,,,-37.658.821,1.281.273.504,https://maps.google.com/?cid=0x0:0x79cc1422339ce8e3,
perumahan,Komplek perumahan,Kel potoruw,"64MH+F8Q, Nusaniwe, Kec. Nusaniwe, Kota Ambon, Maluku","Kota Ambon, Maluku",MALUKU,,Indonesia,,,,-37.662.776,1.281.283.704,https://maps.google.com/?cid=0x0:0x6e7d9c638d3d32fb,
perumahan,Komplek perumahan,WaNo Home,"64MH+F8Q, Nusaniwe, Kec. Nusaniwe, Kota Ambon, Maluku","Kota Ambon, Maluku",MALUKU,,Indonesia,,,,-37.667.354,1.281.290.184,https://maps.google.com/?cid=0x0:0x88b2f573efd97e4,
perumahan,Komplek perumahan,R Kesauliya,"64JJ+WVC, Nusaniwe, Kec. Nusaniwe, Kota Ambon, Maluku","Kota Ambon, Maluku",MALUKU,,Indonesia,,,,-37.676.933,1.281.321.471,https://maps.google.com/?cid=0x0:0xe55cffe2f0de750e,
perumahan,Komplek perumahan,Rmh Kel.simanjuntak,"742J+H9H, Jl. Amanhuse, Nusaniwe, Kec. Nusaniwe, Kota Ambon, Maluku","Kota Ambon, Maluku",MALUKU,,Indonesia,,,,-37.484.046,1.281.309.375,https://maps.google.com/?cid=0x0:0xa4b10c1ce1b82da3,
perumahan,Perhimpunan Pengembang Perumahan,Lorong Angko Cor,"743J+648, Jl. Amanhuse, Nusaniwe, Kec. Nusaniwe, Kota Ambon, Maluku","Kota Ambon, Maluku",MALUKU,,Indonesia,,,,-37.469.507,1.281.303.141,https://maps.google.com/?cid=0x0:0x64ef69ee9301b1cd,
perumahan,Komplek perumahan,Grantino,"64HF+PG8, Latuhalat, Kec. Nusaniwe, Kota Ambon, Maluku","Kota Ambon, Maluku",MALUKU,,Indonesia,,,,-3.770.392,128.124.513,https://maps.google.com/?cid=0x0:0x33921dfba0b023dc,
perumahan,Komplek perumahan,Rumah Kel Makapuan,"743M+G4, Nusaniwe, Kec. Nusaniwe, Kota Ambon, Maluku","Kota Ambon, Maluku",MALUKU,,Indonesia,,,,-37.468.108,1.281.328.492,https://maps.google.com/?cid=0x0:0xc5ea3ce7551b0dde,
perumahan,Komplek perumahan,Nathasya Parinussa,"64MP+HJC, Airlouw, Kec. Nusaniwe, Kota Ambon, Maluku","Kota Ambon, Maluku",MALUKU,,Indonesia,,,,-37.660.574,1.281.365.021,https://maps.google.com/?cid=0x0:0xf1ff902ef1768ce1,
perumahan,Komplek perumahan,kastanja,"742J+9C5, Nusaniwe, Kec. Nusaniwe, Kota Ambon, Maluku","Kota Ambon, Maluku",MALUKU,,Indonesia,,,,-37.491.177,1.281.311.063,https://maps.google.com/?cid=0x0:0x6cda1155d4090e47,
perumahan,Komplek perumahan,Meyno,"64MP+FCC, Nusaniwe, Kec. Nusaniwe, Kota Ambon, Maluku","Kota Ambon, Maluku",MALUKU,,Indonesia,,,,-3.766.404,128.136.542,https://maps.google.com/?cid=0x0:0x55ec07f0dd09b95c,
perumahan,Komplek perumahan,Kel Riry,"64MJ+W4R, Nusaniwe, Kec. Nusaniwe, Kota Ambon, Maluku","Kota Ambon, Maluku",MALUKU,,Indonesia,,,,-37.651.686,1.281.293.063,https://maps.google.com/?cid=0x0:0xfa8fe47ece38120d,
perumahan,Komplek perumahan,Stella Marlissa,"64MC+MJH, Seilale, Kec. Nusaniwe, Kota Ambon, Maluku","Kota Ambon, Maluku",MALUKU,,Indonesia,,,,-37.646.393,1.281.220.071,https://maps.google.com/?cid=0x0:0x5ae7bb95ee697df1,
perumahan,Pembangunan Perumahan,Amora Latukolan,"64HP+5CM, Nusaniwe, Kec. Nusaniwe, Kota Ambon, Maluku","Kota Ambon, Maluku",MALUKU,,Indonesia,,,,-37.729.221,1.281.359.157,https://maps.google.com/?cid=0x0:0x9969808377331bd0,
perumahan,perumahan,Kec. Nusaniwe,"Kota Ambon, Maluku","Kota Ambon, Maluku",MALUKU,,Indonesia,,,,-37.050.795,128.174.458,https://maps.google.com/?cid=0x0:0x3f13997f42549327,
perumahan,Komplek perumahan,Rumah,"75RG+P97 Batu Gantung Ganemo, Kel Kudamati, Kec. Nusaniwe, Kota Ambon, Maluku","Kota Ambon, Maluku",MALUKU,,Indonesia,,,,-37.082.139,1.281.759.205,https://maps.google.com/?cid=0x0:0xe71d43c1c7b74d22,
perumahan,Pembangunan Perumahan,Perumuhan suwestran,"75XG+2CV, Kel Waihaong, Kec. Nusaniwe, Kota Ambon, Maluku","Kota Ambon, Maluku",MALUKU,,Indonesia,,,,-3.702.385,1.281.760.436,https://maps.google.com/?cid=0x0:0x187ff2b85b718a88,
perumahan,Pembangunan Perumahan,Nusantara erie,"Erie nusaniwe, Kel Wainitu, Kec. Nusaniwe, Kota Ambon, Maluku","Kota Ambon, Maluku",MALUKU,,Indonesia,,,,-37.050.795,128.174.458,https://maps.google.com/?cid=0x0:0xafdbd0584678d9e1,
perumahan,Komplek perumahan,Rumah keluarga woriwun,"75VF+7VG, Jl. DR. Kayadoe, Kel Kudamati, Kec. Nusaniwe, Kota Ambon, Maluku","Kota Ambon, Maluku",MALUKU,,Indonesia,,,,-37.065.821,1.281.751.239,https://maps.google.com/?cid=0x0:0x4ec08b4e162d7794,
perumahan,Komplek perumahan,Stiven persulessy,"75VG+W92, Kel Mangga Dua, Kec. Nusaniwe, Kota Ambon, Maluku","Kota Ambon, Maluku",MALUKU,,Indonesia,,,,-37.055.677,128.176.248,https://maps.google.com/?cid=0x0:0x660f54acc6482b4f,
perumahan,Pembangunan Perumahan,KOS PICAULY,"75WC+RRG, Kel Wainitu, Kec. Nusaniwe, Kota Ambon, Maluku","Kota Ambon, Maluku",MALUKU,,Indonesia,,,,-37.029.388,1.281.720.849,https://maps.google.com/?cid=0x0:0x4b6f53aaaf517c4d,
perumahan,Komplek perumahan,KEL SUNARDI,"75VG+J5W, Kel Mangga Dua, Kec. Nusaniwe, Kota Ambon, Maluku","Kota Ambon, Maluku",MALUKU,,Indonesia,,,,-3.705.877,128.175.445,https://maps.google.com/?cid=0x0:0x95d6c0797614f6e,
perumahan,Komplek perumahan,Keluarga Oma Yos Soselissa,"75VG+JFQ, Jl. DR. Kayadoe Batu Gantong Dalam, Kel Mangga Dua, Kec. Nusaniwe, Kota Ambon, Maluku","Kota Ambon, Maluku",MALUKU,,Indonesia,,,,-37.059.083,1.281.762.366,https://maps.google.com/?cid=0x0:0xd427ecd230096321,
perumahan,Komplek perumahan,Dewi nanuru,"64M9+9H2, Seilale, Kec. Nusaniwe, Kota Ambon, Maluku","Kota Ambon, Maluku",MALUKU,,Indonesia,,,,-37.666.734,1.281.188.906,https://maps.google.com/?cid=0x0:0x5e28cddc698b878e,
perumahan,perumahan,Nusaniwe,"Kec. Nusaniwe, Kota Ambon, Maluku","Kota Ambon, Maluku",MALUKU,,Indonesia,,,,-3.758.225,1.281.424.438,https://maps.google.com/?cid=0x0:0x47869cdfaa5c2eae,
perumahan,Pembangunan Perumahan,Kompleks Nona  Nyong Manis,"64MG+G3, Nusaniwe, Kec. Nusaniwe, Kota Ambon, Maluku","Kota Ambon, Maluku",MALUKU,,Indonesia,,,,-37.663.485,1.281.253.528,https://maps.google.com/?cid=0x0:0xa33f9e78033588a9,
perumahan,perumahan,Keluarga Opa Ari Silooy,"745M+HCX, Amahusu, Kec. Nusaniwe, Kota Ambon, Maluku","Kota Ambon, Maluku",MALUKU,,Indonesia,,,,-37.410.246,128.133.619,https://maps.google.com/?cid=0x0:0x7710c7af4bd87700,
perumahan,Komplek perumahan,Kel B Wattilete,"64MJ+8CC, Nusaniwe, Kec. Nusaniwe, Kota Ambon, Maluku","Kota Ambon, Maluku",MALUKU,,Indonesia,,,,-37.666.647,1.281.317.391,https://maps.google.com/?cid=0x0:0xca5db65686db836,
perumahan,Komplek perumahan,Kel. Hendry.R. Latukolan,"64MH+F8Q, Nusaniwe, Kec. Nusaniwe, Kota Ambon, Maluku","Kota Ambon, Maluku",MALUKU,,Indonesia,,,,-37.658.821,1.281.273.504,https://maps.google.com/?cid=0x0:0x79cc1422339ce8e3,
perumahan,Komplek perumahan,WaNo Home,"64MH+F8Q, Nusaniwe, Kec. Nusaniwe, Kota Ambon, Maluku","Kota Ambon, Maluku",MALUKU,,Indonesia,,,,-37.667.354,1.281.290.184,https://maps.google.com/?cid=0x0:0x88b2f573efd97e4,
perumahan,Komplek perumahan,Kel potoruw,"64MH+F8Q, Nusaniwe, Kec. Nusaniwe, Kota Ambon, Maluku","Kota Ambon, Maluku",MALUKU,,Indonesia,,,,-37.662.776,1.281.283.704,https://maps.google.com/?cid=0x0:0x6e7d9c638d3d32fb,
perumahan,Komplek perumahan,Nanuruâs Home,"64MJ+8CC, Nusaniwe, Kec. Nusaniwe, Kota Ambon, Maluku","Kota Ambon, Maluku",MALUKU,,Indonesia,,,,-37.666.637,1.281.321.934,https://maps.google.com/?cid=0x0:0x1e7c43989581b942,
perumahan,Komplek perumahan,R Kesauliya,"64JJ+WVC, Nusaniwe, Kec. Nusaniwe, Kota Ambon, Maluku","Kota Ambon, Maluku",MALUKU,,Indonesia,,,,-37.676.933,1.281.321.471,https://maps.google.com/?cid=0x0:0xe55cffe2f0de750e,
perumahan,Komplek perumahan,Tv kabel Nusaniwe,"64PF+Q35, Seilale, Kec. Nusaniwe, Kota Ambon, Maluku","Kota Ambon, Maluku",MALUKU,,Indonesia,,,,-37.631.322,1.281.227.017,https://maps.google.com/?cid=0x0:0xac7fa44b1818e708,
perumahan,Komplek perumahan,Tisera Family,"64MF+HG8 Eri, RT./RW/RW.008/02, Nusaniwe, Kec. Nusaniwe, Kota Ambon, Maluku","Kota Ambon, Maluku",MALUKU,,Indonesia,,,,-37.660.799,1.281.238.326,https://maps.google.com/?cid=0x0:0x546093385efd4761,
perumahan,Komplek perumahan,Rumah Kel Makapuan,"743M+G4, Nusaniwe, Kec. Nusaniwe, Kota Ambon, Maluku","Kota Ambon, Maluku",MALUKU,,Indonesia,,,,-37.468.108,1.281.328.492,https://maps.google.com/?cid=0x0:0xc5ea3ce7551b0dde,
perumahan,Komplek perumahan,RION SALHUTERU,"743M+G4, Nusaniwe, Kec. Nusaniwe, Kota Ambon, Maluku","Kota Ambon, Maluku",MALUKU,,Indonesia,,,,-374.573,1.281.322.643,https://maps.google.com/?cid=0x0:0x55fab9bd7b6b3ace,
perumahan,perumahan,Omki's Home,"64HX+FHC, Nusaniwe, Kec. Nusaniwe, Kota Ambon, Maluku","Kota Ambon, Maluku",MALUKU,,Indonesia,,,,-37.713.219,1.281.488.768,https://maps.google.com/?cid=0x0:0x7a8263972ec649ec,
perumahan,perumahan,Kel walakula,"64HR+5WR, Jln hatiari, airlouw, Kec. Nusaniwe, Kota Ambon, Maluku","Kota Ambon, Maluku",MALUKU,,Indonesia,,,,-37.720.135,1.281.422.561,https://maps.google.com/?cid=0x0:0xab108448bac361e6,
perumahan,Komplek perumahan,Keluarga Y. Litaay,"742M+J57, Nusaniwe, Kec. Nusaniwe, Kota Ambon, Maluku","Kota Ambon, Maluku",MALUKU,,Indonesia,,,,-37.484.636,1.281.329.092,https://maps.google.com/?cid=0x0:0xf9d089d8f8c8dae9,
perumahan,Komplek perumahan,Untayana home,"742J+V5Q, Nusaniwe, Kec. Nusaniwe, Kota Ambon, Maluku","Kota Ambon, Maluku",MALUKU,,Indonesia,,,,-37.485.647,1.281.310.179,https://maps.google.com/?cid=0x0:0x547e923817a6e4d6,
perumahan,Pembangunan Perumahan,Amora Latukolan,"64HP+5CM, Nusaniwe, Kec. Nusaniwe, Kota Ambon, Maluku","Kota Ambon, Maluku",MALUKU,,Indonesia,,,,-37.729.221,1.281.359.157,https://maps.google.com/?cid=0x0:0x9969808377331bd0,
perumahan,perumahan,Kec. Nusaniwe,"Kota Ambon, Maluku","Kota Ambon, Maluku",MALUKU,,Indonesia,,,,-37.050.795,128.174.458,https://maps.google.com/?cid=0x0:0x3f13997f42549327,
perumahan,Komplek perumahan,Kel Riry,"64MJ+W4R, Nusaniwe, Kec. Nusaniwe, Kota Ambon, Maluku","Kota Ambon, Maluku",MALUKU,,Indonesia,,,,-37.651.686,1.281.293.063,https://maps.google.com/?cid=0x0:0xfa8fe47ece38120d,
perumahan,Pembangunan Perumahan,Perumuhan suwestran,"75XG+2CV, Kel Waihaong, Kec. Nusaniwe, Kota Ambon, Maluku","Kota Ambon, Maluku",MALUKU,,Indonesia,,,,-3.702.385,1.281.760.436,https://maps.google.com/?cid=0x0:0x187ff2b85b718a88,
perumahan,Komplek perumahan,Rumah keluarga woriwun,"75VF+7VG, Jl. DR. Kayadoe, Kel Kudamati, Kec. Nusaniwe, Kota Ambon, Maluku","Kota Ambon, Maluku",MALUKU,,Indonesia,,,,-37.065.821,1.281.751.239,https://maps.google.com/?cid=0x0:0x4ec08b4e162d7794,
perumahan,Komplek perumahan,Rumah,"75RG+P97 Batu Gantung Ganemo, Kel Kudamati, Kec. Nusaniwe, Kota Ambon, Maluku","Kota Ambon, Maluku",MALUKU,,Indonesia,,,,-37.082.139,1.281.759.205,https://maps.google.com/?cid=0x0:0xe71d43c1c7b74d22,
perumahan,Komplek perumahan,Stiven persulessy,"75VG+W92, Kel Mangga Dua, Kec. Nusaniwe, Kota Ambon, Maluku","Kota Ambon, Maluku",MALUKU,,Indonesia,,,,-37.055.677,128.176.248,https://maps.google.com/?cid=0x0:0x660f54acc6482b4f,
perumahan,Komplek perumahan,Keluarga Oma Yos Soselissa,"75VG+JFQ, Jl. DR. Kayadoe Batu Gantong Dalam, Kel Mangga Dua, Kec. Nusaniwe, Kota Ambon, Maluku","Kota Ambon, Maluku",MALUKU,,Indonesia,,,,-37.059.083,1.281.762.366,https://maps.google.com/?cid=0x0:0xd427ecd230096321,
perumahan,Pembangunan Perumahan,Nusantara erie,"Erie nusaniwe, Kel Wainitu, Kec. Nusaniwe, Kota Ambon, Maluku","Kota Ambon, Maluku",MALUKU,,Indonesia,,,,-37.050.795,128.174.458,https://maps.google.com/?cid=0x0:0xafdbd0584678d9e1,
perumahan,Komplek perumahan,KEL SUNARDI,"75VG+J5W, Kel Mangga Dua, Kec. Nusaniwe, Kota Ambon, Maluku","Kota Ambon, Maluku",MALUKU,,Indonesia,,,,-3.705.877,128.175.445,https://maps.google.com/?cid=0x0:0x95d6c0797614f6e,
perumahan,Komplek perumahan,Rumah keluarga bapak rusly arief,"75WF+GCF, Kel Wainitu, Kec. Nusaniwe, Kota Ambon, Maluku","Kota Ambon, Maluku",MALUKU,,Indonesia,,,,-37.036.933,1.281.735.559,https://maps.google.com/?cid=0x0:0xf75f0ab3d3c61736,
perumahan,perumahan,Nusaniwe,"Kec. Nusaniwe, Kota Ambon, Maluku","Kota Ambon, Maluku",MALUKU,,Indonesia,,,,-3.758.225,1.281.424.438,https://maps.google.com/?cid=0x0:0x47869cdfaa5c2eae,
perumahan,Komplek perumahan,Dewi nanuru,"64M9+9H2, Seilale, Kec. Nusaniwe, Kota Ambon, Maluku","Kota Ambon, Maluku",MALUKU,,Indonesia,,,,-37.666.734,1.281.188.906,https://maps.google.com/?cid=0x0:0x5e28cddc698b878e,
perumahan,Pembangunan Perumahan,Kompleks Nona  Nyong Manis,"64MG+G3, Nusaniwe, Kec. Nusaniwe, Kota Ambon, Maluku","Kota Ambon, Maluku",MALUKU,,Indonesia,,,,-37.663.485,1.281.253.528,https://maps.google.com/?cid=0x0:0xa33f9e78033588a9,
perumahan,Komplek perumahan,Kel RisBedri Tuhumury,"64M9+JPW, Jl. Amanhuse, Seilale, Kec. Nusaniwe, Kota Ambon, Maluku","Kota Ambon, Maluku",MALUKU,,Indonesia,,,,-37.659.551,128.118.767,https://maps.google.com/?cid=0x0:0xf3de8e162b1dadc8,
perumahan,Komplek perumahan,Kel B Wattilete,"64MJ+8CC, Nusaniwe, Kec. Nusaniwe, Kota Ambon, Maluku","Kota Ambon, Maluku",MALUKU,,Indonesia,,,,-37.666.647,1.281.317.391,https://maps.google.com/?cid=0x0:0xca5db65686db836,
perumahan,Komplek perumahan,F. LEKATOMPESSY,"64MC+MMR, Seilale, Kec. Nusaniwe, Kota Ambon, Maluku","Kota Ambon, Maluku",MALUKU,,Indonesia,,,,-37.657.625,1.281.216.406,https://maps.google.com/?cid=0x0:0xcf96949e1c343444,
perumahan,Komplek perumahan,R Kesauliya,"64JJ+WVC, Nusaniwe, Kec. Nusaniwe, Kota Ambon, Maluku","Kota Ambon, Maluku",MALUKU,,Indonesia,,,,-37.676.933,1.281.321.471,https://maps.google.com/?cid=0x0:0xe55cffe2f0de750e,
perumahan,Komplek perumahan,WaNo Home,"64MH+F8Q, Nusaniwe, Kec. Nusaniwe, Kota Ambon, Maluku","Kota Ambon, Maluku",MALUKU,,Indonesia,,,,-37.667.354,1.281.290.184,https://maps.google.com/?cid=0x0:0x88b2f573efd97e4,
perumahan,Komplek perumahan,Nanuruâs Home,"64MJ+8CC, Nusaniwe, Kec. Nusaniwe, Kota Ambon, Maluku","Kota Ambon, Maluku",MALUKU,,Indonesia,,,,-37.666.637,1.281.321.934,https://maps.google.com/?cid=0x0:0x1e7c43989581b942,
perumahan,Komplek perumahan,Keluarga Y. Litaay,"742M+J57, Nusaniwe, Kec. Nusaniwe, Kota Ambon, Maluku","Kota Ambon, Maluku",MALUKU,,Indonesia,,,,-37.484.636,1.281.329.092,https://maps.google.com/?cid=0x0:0xf9d089d8f8c8dae9,
perumahan,Pembangunan Perumahan,Keluarga kastanya,"64WJ+FGV, Nusaniwe, Kec. Nusaniwe, Kota Ambon, Maluku","Kota Ambon, Maluku",MALUKU,,Indonesia,,,,-3.753.883,1.281.323.094,https://maps.google.com/?cid=0x0:0xc3e48f87d25cfe1e,
perumahan,Komplek perumahan,Tv kabel Nusaniwe,"64PF+Q35, Seilale, Kec. Nusaniwe, Kota Ambon, Maluku","Kota Ambon, Maluku",MALUKU,,Indonesia,,,,-37.631.322,1.281.227.017,https://maps.google.com/?cid=0x0:0xac7fa44b1818e708,
perumahan,Komplek perumahan,Rumah Kel Makapuan,"743M+G4, Nusaniwe, Kec. Nusaniwe, Kota Ambon, Maluku","Kota Ambon, Maluku",MALUKU,,Indonesia,,,,-37.468.108,1.281.328.492,https://maps.google.com/?cid=0x0:0xc5ea3ce7551b0dde,
perumahan,Komplek perumahan,Kel potoruw,"64MH+F8Q, Nusaniwe, Kec. Nusaniwe, Kota Ambon, Maluku","Kota Ambon, Maluku",MALUKU,,Indonesia,,,,-37.662.776,1.281.283.704,https://maps.google.com/?cid=0x0:0x6e7d9c638d3d32fb,
perumahan,Komplek perumahan,Keluarga Tandjung,"64MH+F8Q, Nusaniwe, Kec. Nusaniwe, Kota Ambon, Maluku","Kota Ambon, Maluku",MALUKU,,Indonesia,,,,-37.662.759,1.281.287.599,https://maps.google.com/?cid=0x0:0x1c472573c274b7db,
perumahan,Komplek perumahan,Kel. Hendry.R. Latukolan,"64MH+F8Q, Nusaniwe, Kec. Nusaniwe, Kota Ambon, Maluku","Kota Ambon, Maluku",MALUKU,,Indonesia,,,,-37.658.821,1.281.273.504,https://maps.google.com/?cid=0x0:0x79cc1422339ce8e3,
perumahan,Komplek perumahan,Meyno,"64MP+FCC, Nusaniwe, Kec. Nusaniwe, Kota Ambon, Maluku","Kota Ambon, Maluku",MALUKU,,Indonesia,,,,-3.766.404,128.136.542,https://maps.google.com/?cid=0x0:0x55ec07f0dd09b95c,
perumahan,Komplek perumahan,Tisera Family,"64MF+HG8 Eri, RT./RW/RW.008/02, Nusaniwe, Kec. Nusaniwe, Kota Ambon, Maluku","Kota Ambon, Maluku",MALUKU,,Indonesia,,,,-37.660.799,1.281.238.326,https://maps.google.com/?cid=0x0:0x546093385efd4761,
perumahan,Komplek perumahan,Kel Riry,"64MJ+W4R, Nusaniwe, Kec. Nusaniwe, Kota Ambon, Maluku","Kota Ambon, Maluku",MALUKU,,Indonesia,,,,-37.651.686,1.281.293.063,https://maps.google.com/?cid=0x0:0xfa8fe47ece38120d,
perumahan,perumahan,Kec. Nusaniwe,"Kota Ambon, Maluku","Kota Ambon, Maluku",MALUKU,,Indonesia,,,,-37.050.795,128.174.458,https://maps.google.com/?cid=0x0:0x3f13997f42549327,
perumahan,Komplek perumahan,Rmh Kel.simanjuntak,"742J+H9H, Jl. Amanhuse, Nusaniwe, Kec. Nusaniwe, Kota Ambon, Maluku","Kota Ambon, Maluku",MALUKU,,Indonesia,,,,-37.484.046,1.281.309.375,https://maps.google.com/?cid=0x0:0xa4b10c1ce1b82da3,
perumahan,Komplek perumahan,Rumah keluarga woriwun,"75VF+7VG, Jl. DR. Kayadoe, Kel Kudamati, Kec. Nusaniwe, Kota Ambon, Maluku","Kota Ambon, Maluku",MALUKU,,Indonesia,,,,-37.065.821,1.281.751.239,https://maps.google.com/?cid=0x0:0x4ec08b4e162d7794,
perumahan,Pembangunan Perumahan,Perumuhan suwestran,"75XG+2CV, Kel Waihaong, Kec. Nusaniwe, Kota Ambon, Maluku","Kota Ambon, Maluku",MALUKU,,Indonesia,,,,-3.702.385,1.281.760.436,https://maps.google.com/?cid=0x0:0x187ff2b85b718a88,
perumahan,Komplek perumahan,Rumah,"75RG+P97 Batu Gantung Ganemo, Kel Kudamati, Kec. Nusaniwe, Kota Ambon, Maluku","Kota Ambon, Maluku",MALUKU,,Indonesia,,,,-37.082.139,1.281.759.205,https://maps.google.com/?cid=0x0:0xe71d43c1c7b74d22,
perumahan,Komplek perumahan,Keluarga Oma Yos Soselissa,"75VG+JFQ, Jl. DR. Kayadoe Batu Gantong Dalam, Kel Mangga Dua, Kec. Nusaniwe, Kota Ambon, Maluku","Kota Ambon, Maluku",MALUKU,,Indonesia,,,,-37.059.083,1.281.762.366,https://maps.google.com/?cid=0x0:0xd427ecd230096321,
perumahan,Komplek perumahan,Stiven persulessy,"75VG+W92, Kel Mangga Dua, Kec. Nusaniwe, Kota Ambon, Maluku","Kota Ambon, Maluku",MALUKU,,Indonesia,,,,-37.055.677,128.176.248,https://maps.google.com/?cid=0x0:0x660f54acc6482b4f,
perumahan,Pembangunan Perumahan,Kel Rusfader,"75RG+X9G, Kel Kudamati, Kec. Nusaniwe, Kota Ambon, Maluku","Kota Ambon, Maluku",MALUKU,,Indonesia,81248180503,,,-37.075.666,1.281.759.524,https://maps.google.com/?cid=0x0:0xcad6525a85b9427e,
perumahan,Pembangunan Perumahan,Nusantara erie,"Erie nusaniwe, Kel Wainitu, Kec. Nusaniwe, Kota Ambon, Maluku","Kota Ambon, Maluku",MALUKU,,Indonesia,,,,-37.050.795,128.174.458,https://maps.google.com/?cid=0x0:0xafdbd0584678d9e1,
perumahan,Komplek perumahan,Keluarga Rijoly,"75VG+H4R, Kel Mangga Dua, Kec. Nusaniwe, Kota Ambon, Maluku","Kota Ambon, Maluku",MALUKU,,Indonesia,,,,-37.060.028,1.281.752.501,https://maps.google.com/?cid=0x0:0x4adde597449db719,
perumahan,perumahan,Nusaniwe,"Kec. Nusaniwe, Kota Ambon, Maluku","Kota Ambon, Maluku",MALUKU,,Indonesia,,,,-3.758.225,1.281.424.438,https://maps.google.com/?cid=0x0:0x47869cdfaa5c2eae,
perumahan,Pembangunan Perumahan,Kompleks Nona  Nyong Manis,"64MG+G3, Nusaniwe, Kec. Nusaniwe, Kota Ambon, Maluku","Kota Ambon, Maluku",MALUKU,,Indonesia,,,,-37.663.485,1.281.253.528,https://maps.google.com/?cid=0x0:0xa33f9e78033588a9,
perumahan,Komplek perumahan,Dewi nanuru,"64M9+9H2, Seilale, Kec. Nusaniwe, Kota Ambon, Maluku","Kota Ambon, Maluku",MALUKU,,Indonesia,,,,-37.666.734,1.281.188.906,https://maps.google.com/?cid=0x0:0x5e28cddc698b878e,
perumahan,Komplek perumahan,Kel B Wattilete,"64MJ+8CC, Nusaniwe, Kec. Nusaniwe, Kota Ambon, Maluku","Kota Ambon, Maluku",MALUKU,,Indonesia,,,,-37.666.647,1.281.317.391,https://maps.google.com/?cid=0x0:0xca5db65686db836,
perumahan,Komplek perumahan,WaNo Home,"64MH+F8Q, Nusaniwe, Kec. Nusaniwe, Kota Ambon, Maluku","Kota Ambon, Maluku",MALUKU,,Indonesia,,,,-37.667.354,1.281.290.184,https://maps.google.com/?cid=0x0:0x88b2f573efd97e4,
perumahan,Komplek perumahan,Kel. Hendry.R. Latukolan,"64MH+F8Q, Nusaniwe, Kec. Nusaniwe, Kota Ambon, Maluku","Kota Ambon, Maluku",MALUKU,,Indonesia,,,,-37.658.821,1.281.273.504,https://maps.google.com/?cid=0x0:0x79cc1422339ce8e3,
perumahan,Komplek perumahan,Tisera Family,"64MF+HG8 Eri, RT./RW/RW.008/02, Nusaniwe, Kec. Nusaniwe, Kota Ambon, Maluku","Kota Ambon, Maluku",MALUKU,,Indonesia,,,,-37.660.799,1.281.238.326,https://maps.google.com/?cid=0x0:0x546093385efd4761,
perumahan,perumahan,Keluarga Opa Ari Silooy,"745M+HCX, Amahusu, Kec. Nusaniwe, Kota Ambon, Maluku","Kota Ambon, Maluku",MALUKU,,Indonesia,,,,-37.410.246,128.133.619,https://maps.google.com/?cid=0x0:0x7710c7af4bd87700,
perumahan,Komplek perumahan,Nanuruâs Home,"64MJ+8CC, Nusaniwe, Kec. Nusaniwe, Kota Ambon, Maluku","Kota Ambon, Maluku",MALUKU,,Indonesia,,,,-37.666.637,1.281.321.934,https://maps.google.com/?cid=0x0:0x1e7c43989581b942,
perumahan,Komplek perumahan,kastanja,"742J+9C5, Nusaniwe, Kec. Nusaniwe, Kota Ambon, Maluku","Kota Ambon, Maluku",MALUKU,,Indonesia,,,,-37.491.177,1.281.311.063,https://maps.google.com/?cid=0x0:0x6cda1155d4090e47,
perumahan,Komplek perumahan,Rmh Kel.simanjuntak,"742J+H9H, Jl. Amanhuse, Nusaniwe, Kec. Nusaniwe, Kota Ambon, Maluku","Kota Ambon, Maluku",MALUKU,,Indonesia,,,,-37.484.046,1.281.309.375,https://maps.google.com/?cid=0x0:0xa4b10c1ce1b82da3,
perumahan,Komplek perumahan,Keluarga Y. Litaay,"742M+J57, Nusaniwe, Kec. Nusaniwe, Kota Ambon, Maluku","Kota Ambon, Maluku",MALUKU,,Indonesia,,,,-37.484.636,1.281.329.092,https://maps.google.com/?cid=0x0:0xf9d089d8f8c8dae9,
perumahan,Komplek perumahan,Untayana home,"742J+V5Q, Nusaniwe, Kec. Nusaniwe, Kota Ambon, Maluku","Kota Ambon, Maluku",MALUKU,,Indonesia,,,,-37.485.647,1.281.310.179,https://maps.google.com/?cid=0x0:0x547e923817a6e4d6,
perumahan,Komplek perumahan,Tv kabel Nusaniwe,"64PF+Q35, Seilale, Kec. Nusaniwe, Kota Ambon, Maluku","Kota Ambon, Maluku",MALUKU,,Indonesia,,,,-37.631.322,1.281.227.017,https://maps.google.com/?cid=0x0:0xac7fa44b1818e708,
perumahan,Komplek perumahan,Grantino,"64HF+PG8, Latuhalat, Kec. Nusaniwe, Kota Ambon, Maluku","Kota Ambon, Maluku",MALUKU,,Indonesia,,,,-3.770.392,128.124.513,https://maps.google.com/?cid=0x0:0x33921dfba0b023dc,
perumahan,Pembangunan Perumahan,Keluarga kastanya,"64WJ+FGV, Nusaniwe, Kec. Nusaniwe, Kota Ambon, Maluku","Kota Ambon, Maluku",MALUKU,,Indonesia,,,,-3.753.883,1.281.323.094,https://maps.google.com/?cid=0x0:0xc3e48f87d25cfe1e,
perumahan,Komplek perumahan,Meyno,"64MP+FCC, Nusaniwe, Kec. Nusaniwe, Kota Ambon, Maluku","Kota Ambon, Maluku",MALUKU,,Indonesia,,,,-3.766.404,128.136.542,https://maps.google.com/?cid=0x0:0x55ec07f0dd09b95c,
perumahan,Komplek perumahan,Stella Marlissa,"64MC+MJH, Seilale, Kec. Nusaniwe, Kota Ambon, Maluku","Kota Ambon, Maluku",MALUKU,,Indonesia,,,,-37.646.393,1.281.220.071,https://maps.google.com/?cid=0x0:0x5ae7bb95ee697df1,
perumahan,Komplek perumahan,Rumah RayJuven Kailola,"64J8+VR4, Seilale, Kec. Nusaniwe, Kota Ambon, Maluku","Kota Ambon, Maluku",MALUKU,,Indonesia,,,,-3.767.805,1.281.170.394,https://maps.google.com/?cid=0x0:0x94be5c26bb45f718,
perumahan,perumahan,Kec. Nusaniwe,"Kota Ambon, Maluku","Kota Ambon, Maluku",MALUKU,,Indonesia,,,,-37.050.795,128.174.458,https://maps.google.com/?cid=0x0:0x3f13997f42549327,
perumahan,Komplek perumahan,KELUARGA MARIO LATUKOLAN,"64XJ+3P2 Lorong Nippon Paint, Jl.Dusun, RT.005/RW.002, Nusaniwe, Kec. Nusaniwe, Kota Ambon, Maluku","Kota Ambon, Maluku",MALUKU,,Indonesia,,,,-37.523.719,1.281.317.539,https://maps.google.com/?cid=0x0:0x3cd13f8304248669,
perumahan,Komplek perumahan,Rumah keluarga woriwun,"75VF+7VG, Jl. DR. Kayadoe, Kel Kudamati, Kec. Nusaniwe, Kota Ambon, Maluku","Kota Ambon, Maluku",MALUKU,,Indonesia,,,,-37.065.821,1.281.751.239,https://maps.google.com/?cid=0x0:0x4ec08b4e162d7794,
perumahan,Pembangunan Perumahan,Perumuhan suwestran,"75XG+2CV, Kel Waihaong, Kec. Nusaniwe, Kota Ambon, Maluku","Kota Ambon, Maluku",MALUKU,,Indonesia,,,,-3.702.385,1.281.760.436,https://maps.google.com/?cid=0x0:0x187ff2b85b718a88,
perumahan,Komplek perumahan,Keluarga Oma Yos Soselissa,"75VG+JFQ, Jl. DR. Kayadoe Batu Gantong Dalam, Kel Mangga Dua, Kec. Nusaniwe, Kota Ambon, Maluku","Kota Ambon, Maluku",MALUKU,,Indonesia,,,,-37.059.083,1.281.762.366,https://maps.google.com/?cid=0x0:0xd427ecd230096321,
perumahan,Komplek perumahan,Stiven persulessy,"75VG+W92, Kel Mangga Dua, Kec. Nusaniwe, Kota Ambon, Maluku","Kota Ambon, Maluku",MALUKU,,Indonesia,,,,-37.055.677,128.176.248,https://maps.google.com/?cid=0x0:0x660f54acc6482b4f,
perumahan,Komplek perumahan,Rumah,"75RG+P97 Batu Gantung Ganemo, Kel Kudamati, Kec. Nusaniwe, Kota Ambon, Maluku","Kota Ambon, Maluku",MALUKU,,Indonesia,,,,-37.082.139,1.281.759.205,https://maps.google.com/?cid=0x0:0xe71d43c1c7b74d22,
perumahan,Pembangunan Perumahan,KOS PICAULY,"75WC+RRG, Kel Wainitu, Kec. Nusaniwe, Kota Ambon, Maluku","Kota Ambon, Maluku",MALUKU,,Indonesia,,,,-37.029.388,1.281.720.849,https://maps.google.com/?cid=0x0:0x4b6f53aaaf517c4d,
perumahan,Komplek perumahan,Keluarga Rijoly,"75VG+H4R, Kel Mangga Dua, Kec. Nusaniwe, Kota Ambon, Maluku","Kota Ambon, Maluku",MALUKU,,Indonesia,,,,-37.060.028,1.281.752.501,https://maps.google.com/?cid=0x0:0x4adde597449db719,
perumahan,Komplek perumahan,Keluarga Hukunala,"75VG+W92, Kel Mangga Dua, Kec. Nusaniwe, Kota Ambon, Maluku","Kota Ambon, Maluku",MALUKU,,Indonesia,,,,-37.056.624,1.281.765.076,https://maps.google.com/?cid=0x0:0xcf49f5ca37e252aa,
perumahan,perumahan,Nusaniwe,"Kec. Nusaniwe, Kota Ambon, Maluku","Kota Ambon, Maluku",MALUKU,,Indonesia,,,,-3.758.225,1.281.424.438,https://maps.google.com/?cid=0x0:0x47869cdfaa5c2eae,
perumahan,Komplek perumahan,Kel B Wattilete,"64MJ+8CC, Nusaniwe, Kec. Nusaniwe, Kota Ambon, Maluku","Kota Ambon, Maluku",MALUKU,,Indonesia,,,,-37.666.647,1.281.317.391,https://maps.google.com/?cid=0x0:0xca5db65686db836,
perumahan,Komplek perumahan,Dewi nanuru,"64M9+9H2, Seilale, Kec. Nusaniwe, Kota Ambon, Maluku","Kota Ambon, Maluku",MALUKU,,Indonesia,,,,-37.666.734,1.281.188.906,https://maps.google.com/?cid=0x0:0x5e28cddc698b878e,
perumahan,Komplek perumahan,Kel RisBedri Tuhumury,"64M9+JPW, Jl. Amanhuse, Seilale, Kec. Nusaniwe, Kota Ambon, Maluku","Kota Ambon, Maluku",MALUKU,,Indonesia,,,,-37.659.551,128.118.767,https://maps.google.com/?cid=0x0:0xf3de8e162b1dadc8,
perumahan,Komplek perumahan,Kel. Hendry.R. Latukolan,"64MH+F8Q, Nusaniwe, Kec. Nusaniwe, Kota Ambon, Maluku","Kota Ambon, Maluku",MALUKU,,Indonesia,,,,-37.658.821,1.281.273.504,https://maps.google.com/?cid=0x0:0x79cc1422339ce8e3,
perumahan,Komplek perumahan,Kel potoruw,"64MH+F8Q, Nusaniwe, Kec. Nusaniwe, Kota Ambon, Maluku","Kota Ambon, Maluku",MALUKU,,Indonesia,,,,-37.662.776,1.281.283.704,https://maps.google.com/?cid=0x0:0x6e7d9c638d3d32fb,
perumahan,Pembangunan Perumahan,Kompleks Nona  Nyong Manis,"64MG+G3, Nusaniwe, Kec. Nusaniwe, Kota Ambon, Maluku","Kota Ambon, Maluku",MALUKU,,Indonesia,,,,-37.663.485,1.281.253.528,https://maps.google.com/?cid=0x0:0xa33f9e78033588a9,
perumahan,Komplek perumahan,Tv kabel Nusaniwe,"64PF+Q35, Seilale, Kec. Nusaniwe, Kota Ambon, Maluku","Kota Ambon, Maluku",MALUKU,,Indonesia,,,,-37.631.322,1.281.227.017,https://maps.google.com/?cid=0x0:0xac7fa44b1818e708,
perumahan,Komplek perumahan,Rmh Kel.simanjuntak,"742J+H9H, Jl. Amanhuse, Nusaniwe, Kec. Nusaniwe, Kota Ambon, Maluku","Kota Ambon, Maluku",MALUKU,,Indonesia,,,,-37.484.046,1.281.309.375,https://maps.google.com/?cid=0x0:0xa4b10c1ce1b82da3,
perumahan,Komplek perumahan,Rumah Kel Makapuan,"743M+G4, Nusaniwe, Kec. Nusaniwe, Kota Ambon, Maluku","Kota Ambon, Maluku",MALUKU,,Indonesia,,,,-37.468.108,1.281.328.492,https://maps.google.com/?cid=0x0:0xc5ea3ce7551b0dde,
perumahan,Komplek perumahan,WaNo Home,"64MH+F8Q, Nusaniwe, Kec. Nusaniwe, Kota Ambon, Maluku","Kota Ambon, Maluku",MALUKU,,Indonesia,,,,-37.667.354,1.281.290.184,https://maps.google.com/?cid=0x0:0x88b2f573efd97e4,
perumahan,Komplek perumahan,kastanja,"742J+9C5, Nusaniwe, Kec. Nusaniwe, Kota Ambon, Maluku","Kota Ambon, Maluku",MALUKU,,Indonesia,,,,-37.491.177,1.281.311.063,https://maps.google.com/?cid=0x0:0x6cda1155d4090e47,
perumahan,Komplek perumahan,Nanuruâs Home,"64MJ+8CC, Nusaniwe, Kec. Nusaniwe, Kota Ambon, Maluku","Kota Ambon, Maluku",MALUKU,,Indonesia,,,,-37.666.637,1.281.321.934,https://maps.google.com/?cid=0x0:0x1e7c43989581b942,
perumahan,Komplek perumahan,R Kesauliya,"64JJ+WVC, Nusaniwe, Kec. Nusaniwe, Kota Ambon, Maluku","Kota Ambon, Maluku",MALUKU,,Indonesia,,,,-37.676.933,1.281.321.471,https://maps.google.com/?cid=0x0:0xe55cffe2f0de750e,
perumahan,Komplek perumahan,F. LEKATOMPESSY,"64MC+MMR, Seilale, Kec. Nusaniwe, Kota Ambon, Maluku","Kota Ambon, Maluku",MALUKU,,Indonesia,,,,-37.657.625,1.281.216.406,https://maps.google.com/?cid=0x0:0xcf96949e1c343444,
perumahan,Pembangunan Perumahan,Keluarga kastanya,"64WJ+FGV, Nusaniwe, Kec. Nusaniwe, Kota Ambon, Maluku","Kota Ambon, Maluku",MALUKU,,Indonesia,,,,-3.753.883,1.281.323.094,https://maps.google.com/?cid=0x0:0xc3e48f87d25cfe1e,
perumahan,perumahan,Kel walakula,"64HR+5WR, Jln hatiari, airlouw, Kec. Nusaniwe, Kota Ambon, Maluku","Kota Ambon, Maluku",MALUKU,,Indonesia,,,,-37.720.135,1.281.422.561,https://maps.google.com/?cid=0x0:0xab108448bac361e6,
perumahan,Komplek perumahan,Keluarga Tandjung,"64MH+F8Q, Nusaniwe, Kec. Nusaniwe, Kota Ambon, Maluku","Kota Ambon, Maluku",MALUKU,,Indonesia,,,,-37.662.759,1.281.287.599,https://maps.google.com/?cid=0x0:0x1c472573c274b7db,
perumahan,Pembangunan Perumahan,Narueng,"64PF+GH, Seilale, Kec. Nusaniwe, Kota Ambon, Maluku","Kota Ambon, Maluku",MALUKU,,Indonesia,,,,-3.764.048,128.124.576,https://maps.google.com/?cid=0x0:0x5c23b5f24ab5134f,
perumahan,Pembangunan Perumahan,Amora Latukolan,"64HP+5CM, Nusaniwe, Kec. Nusaniwe, Kota Ambon, Maluku","Kota Ambon, Maluku",MALUKU,,Indonesia,,,,-37.729.221,1.281.359.157,https://maps.google.com/?cid=0x0:0x9969808377331bd0,
perumahan,perumahan,Kec. Nusaniwe,"Kota Ambon, Maluku","Kota Ambon, Maluku",MALUKU,,Indonesia,,,,-37.050.795,128.174.458,https://maps.google.com/?cid=0x0:0x3f13997f42549327,
perumahan,Komplek perumahan,Rumah,"75RG+P97 Batu Gantung Ganemo, Kel Kudamati, Kec. Nusaniwe, Kota Ambon, Maluku","Kota Ambon, Maluku",MALUKU,,Indonesia,,,,-37.082.139,1.281.759.205,https://maps.google.com/?cid=0x0:0xe71d43c1c7b74d22,
perumahan,Komplek perumahan,Rumah keluarga woriwun,"75VF+7VG, Jl. DR. Kayadoe, Kel Kudamati, Kec. Nusaniwe, Kota Ambon, Maluku","Kota Ambon, Maluku",MALUKU,,Indonesia,,,,-37.065.821,1.281.751.239,https://maps.google.com/?cid=0x0:0x4ec08b4e162d7794,
perumahan,Komplek perumahan,rumah rimes,"75RG+HXR, Kel Kudamati, Kec. Nusaniwe, Kota Ambon, Maluku","Kota Ambon, Maluku",MALUKU,,Indonesia,,,,-37.085.173,1.281.773.768,https://maps.google.com/?cid=0x0:0x9be4b0cf4b8b7b16,
perumahan,Pembangunan Perumahan,Perumuhan suwestran,"75XG+2CV, Kel Waihaong, Kec. Nusaniwe, Kota Ambon, Maluku","Kota Ambon, Maluku",MALUKU,,Indonesia,,,,-3.702.385,1.281.760.436,https://maps.google.com/?cid=0x0:0x187ff2b85b718a88,
perumahan,Pembangunan Perumahan,KOS PICAULY,"75WC+RRG, Kel Wainitu, Kec. Nusaniwe, Kota Ambon, Maluku","Kota Ambon, Maluku",MALUKU,,Indonesia,,,,-37.029.388,1.281.720.849,https://maps.google.com/?cid=0x0:0x4b6f53aaaf517c4d,
perumahan,Pembangunan Perumahan,Nusantara erie,"Erie nusaniwe, Kel Wainitu, Kec. Nusaniwe, Kota Ambon, Maluku","Kota Ambon, Maluku",MALUKU,,Indonesia,,,,-37.050.795,128.174.458,https://maps.google.com/?cid=0x0:0xafdbd0584678d9e1,
perumahan,Komplek perumahan,Kel Walalohun,"75VF+7VG, Jl. DR. Kayadoe, Kel Kudamati, Kec. Nusaniwe, Kota Ambon, Maluku","Kota Ambon, Maluku",MALUKU,,Indonesia,,,,-37.067.112,1.281.753.793,https://maps.google.com/?cid=0x0:0xa7baec92016a3215,
perumahan,Komplek perumahan,Stiven persulessy,"75VG+W92, Kel Mangga Dua, Kec. Nusaniwe, Kota Ambon, Maluku","Kota Ambon, Maluku",MALUKU,,Indonesia,,,,-37.055.677,128.176.248,https://maps.google.com/?cid=0x0:0x660f54acc6482b4f,
perumahan,perumahan,Nusaniwe,"Kec. Nusaniwe, Kota Ambon, Maluku","Kota Ambon, Maluku",MALUKU,,Indonesia,,,,-3.758.225,1.281.424.438,https://maps.google.com/?cid=0x0:0x47869cdfaa5c2eae,
perumahan,Komplek perumahan,Dewi nanuru,"64M9+9H2, Seilale, Kec. Nusaniwe, Kota Ambon, Maluku","Kota Ambon, Maluku",MALUKU,,Indonesia,,,,-37.666.734,1.281.188.906,https://maps.google.com/?cid=0x0:0x5e28cddc698b878e,
perumahan,Pembangunan Perumahan,Amora Latukolan,"64HP+5CM, Nusaniwe, Kec. Nusaniwe, Kota Ambon, Maluku","Kota Ambon, Maluku",MALUKU,,Indonesia,,,,-37.729.221,1.281.359.157,https://maps.google.com/?cid=0x0:0x9969808377331bd0,
perumahan,Pembangunan Perumahan,Kompleks Nona  Nyong Manis,"64MG+G3, Nusaniwe, Kec. Nusaniwe, Kota Ambon, Maluku","Kota Ambon, Maluku",MALUKU,,Indonesia,,,,-37.663.485,1.281.253.528,https://maps.google.com/?cid=0x0:0xa33f9e78033588a9,
perumahan,Komplek perumahan,Kel B Wattilete,"64MJ+8CC, Nusaniwe, Kec. Nusaniwe, Kota Ambon, Maluku","Kota Ambon, Maluku",MALUKU,,Indonesia,,,,-37.666.647,1.281.317.391,https://maps.google.com/?cid=0x0:0xca5db65686db836,
perumahan,perumahan,Keluarga Opa Ari Silooy,"745M+HCX, Amahusu, Kec. Nusaniwe, Kota Ambon, Maluku","Kota Ambon, Maluku",MALUKU,,Indonesia,,,,-37.410.246,128.133.619,https://maps.google.com/?cid=0x0:0x7710c7af4bd87700,
perumahan,Komplek perumahan,Dusun erie batu anyo,"Jl. Amanhuse, Nusaniwe, Kec. Nusaniwe, Kota Ambon, Maluku","Kota Ambon, Maluku",MALUKU,,Indonesia,,,,-37.456.292,1.281.304.721,https://maps.google.com/?cid=0x0:0xb65e742607f2fe89,
perumahan,Komplek perumahan,Tisera Family,"64MF+HG8 Eri, RT./RW/RW.008/02, Nusaniwe, Kec. Nusaniwe, Kota Ambon, Maluku","Kota Ambon, Maluku",MALUKU,,Indonesia,,,,-37.660.799,1.281.238.326,https://maps.google.com/?cid=0x0:0x546093385efd4761,
perumahan,Komplek perumahan,Keluarga Y. Litaay,"742M+J57, Nusaniwe, Kec. Nusaniwe, Kota Ambon, Maluku","Kota Ambon, Maluku",MALUKU,,Indonesia,,,,-37.484.636,1.281.329.092,https://maps.google.com/?cid=0x0:0xf9d089d8f8c8dae9,
perumahan,Komplek perumahan,Untayana home,"742J+V5Q, Nusaniwe, Kec. Nusaniwe, Kota Ambon, Maluku","Kota Ambon, Maluku",MALUKU,,Indonesia,,,,-37.485.647,1.281.310.179,https://maps.google.com/?cid=0x0:0x547e923817a6e4d6,
perumahan,Balai Pertemuan Desa,Lapang airlouw,"64PJ+FHJ, Nusaniwe, Kec. Nusaniwe, Kota Ambon, Maluku","Kota Ambon, Maluku",MALUKU,,Indonesia,,,,-37.637.959,1.281.313.797,https://maps.google.com/?cid=0x0:0x66d783a717227b4e,
perumahan,Komplek perumahan,Grantino,"64HF+PG8, Latuhalat, Kec. Nusaniwe, Kota Ambon, Maluku","Kota Ambon, Maluku",MALUKU,,Indonesia,,,,-3.770.392,128.124.513,https://maps.google.com/?cid=0x0:0x33921dfba0b023dc,
perumahan,Perhimpunan Pengembang Perumahan,Lorong Angko Cor,"743J+648, Jl. Amanhuse, Nusaniwe, Kec. Nusaniwe, Kota Ambon, Maluku","Kota Ambon, Maluku",MALUKU,,Indonesia,,,,-37.469.507,1.281.303.141,https://maps.google.com/?cid=0x0:0x64ef69ee9301b1cd,
perumahan,Komplek perumahan,R Kesauliya,"64JJ+WVC, Nusaniwe, Kec. Nusaniwe, Kota Ambon, Maluku","Kota Ambon, Maluku",MALUKU,,Indonesia,,,,-37.676.933,1.281.321.471,https://maps.google.com/?cid=0x0:0xe55cffe2f0de750e,
perumahan,Komplek perumahan,Adventio,"64JC+PMP, Latuhalat, Kec. Nusaniwe, Kota Ambon, Maluku","Kota Ambon, Maluku",MALUKU,,Indonesia,,,,-37.681.752,1.281.216.627,https://maps.google.com/?cid=0x0:0x698b51395b3262ef,
perumahan,Komplek perumahan,Rumah RayJuven Kailola,"64J8+VR4, Seilale, Kec. Nusaniwe, Kota Ambon, Maluku","Kota Ambon, Maluku",MALUKU,,Indonesia,,,,-3.767.805,1.281.170.394,https://maps.google.com/?cid=0x0:0x94be5c26bb45f718,
perumahan,Komplek perumahan,Stella Marlissa,"64MC+MJH, Seilale, Kec. Nusaniwe, Kota Ambon, Maluku","Kota Ambon, Maluku",MALUKU,,Indonesia,,,,-37.646.393,1.281.220.071,https://maps.google.com/?cid=0x0:0x5ae7bb95ee697df1,
perumahan,Komplek perumahan,Brigel Waliana,"64HH+7H7, Nusaniwe, Kec. Nusaniwe, Kota Ambon, Maluku","Kota Ambon, Maluku",MALUKU,,Indonesia,,,,-37.716.189,128.128.802,https://maps.google.com/?cid=0x0:0xafded9fb2a1e765f,
perumahan,Komplek perumahan,Meyno,"64MP+FCC, Nusaniwe, Kec. Nusaniwe, Kota Ambon, Maluku","Kota Ambon, Maluku",MALUKU,,Indonesia,,,,-3.766.404,128.136.542,https://maps.google.com/?cid=0x0:0x55ec07f0dd09b95c,
perumahan,Komplek perumahan,Kel. Hendry.R. Latukolan,"64MH+F8Q, Nusaniwe, Kec. Nusaniwe, Kota Ambon, Maluku","Kota Ambon, Maluku",MALUKU,,Indonesia,,,,-37.658.821,1.281.273.504,https://maps.google.com/?cid=0x0:0x79cc1422339ce8e3,
perumahan,perumahan,Kec. Nusaniwe,"Kota Ambon, Maluku","Kota Ambon, Maluku",MALUKU,,Indonesia,,,,-37.050.795,128.174.458,https://maps.google.com/?cid=0x0:0x3f13997f42549327,
perumahan,Komplek perumahan,Rumah keluarga woriwun,"75VF+7VG, Jl. DR. Kayadoe, Kel Kudamati, Kec. Nusaniwe, Kota Ambon, Maluku","Kota Ambon, Maluku",MALUKU,,Indonesia,,,,-37.065.821,1.281.751.239,https://maps.google.com/?cid=0x0:0x4ec08b4e162d7794,
perumahan,Komplek perumahan,Stiven persulessy,"75VG+W92, Kel Mangga Dua, Kec. Nusaniwe, Kota Ambon, Maluku","Kota Ambon, Maluku",MALUKU,,Indonesia,,,,-37.055.677,128.176.248,https://maps.google.com/?cid=0x0:0x660f54acc6482b4f,
perumahan,Pembangunan Perumahan,Perumuhan suwestran,"75XG+2CV, Kel Waihaong, Kec. Nusaniwe, Kota Ambon, Maluku","Kota Ambon, Maluku",MALUKU,,Indonesia,,,,-3.702.385,1.281.760.436,https://maps.google.com/?cid=0x0:0x187ff2b85b718a88,
perumahan,Pembangunan Perumahan,Nusantara erie,"Erie nusaniwe, Kel Wainitu, Kec. Nusaniwe, Kota Ambon, Maluku","Kota Ambon, Maluku",MALUKU,,Indonesia,,,,-37.050.795,128.174.458,https://maps.google.com/?cid=0x0:0xafdbd0584678d9e1,
perumahan,Komplek perumahan,Rumah,"75RG+P97 Batu Gantung Ganemo, Kel Kudamati, Kec. Nusaniwe, Kota Ambon, Maluku","Kota Ambon, Maluku",MALUKU,,Indonesia,,,,-37.082.139,1.281.759.205,https://maps.google.com/?cid=0x0:0xe71d43c1c7b74d22,
perumahan,Komplek perumahan,Garasi,"75VF+XQ8, Kel Wainitu, Kec. Nusaniwe, Kota Ambon, Maluku","Kota Ambon, Maluku",MALUKU,,Indonesia,,,,-37.050.795,128.174.458,https://maps.google.com/?cid=0x0:0xc8e39d35e398b1dc,
perumahan,Pembangunan Perumahan,KOS PICAULY,"75WC+RRG, Kel Wainitu, Kec. Nusaniwe, Kota Ambon, Maluku","Kota Ambon, Maluku",MALUKU,,Indonesia,,,,-37.029.388,1.281.720.849,https://maps.google.com/?cid=0x0:0x4b6f53aaaf517c4d,
perumahan,perumahan,Cleri,"75WC+5RM, Kel Wainitu, Kec. Nusaniwe, Kota Ambon, Maluku","Kota Ambon, Maluku",MALUKU,,Indonesia,,,,-3.704.432,128.172.243,https://maps.google.com/?cid=0x0:0xae8deaf63558914f,
perumahan,Pembangunan Perumahan,Kompleks Nona  Nyong Manis,"64MG+G3, Nusaniwe, Kec. Nusaniwe, Kota Ambon, Maluku","Kota Ambon, Maluku",MALUKU,,Indonesia,,,,-37.663.485,1.281.253.528,https://maps.google.com/?cid=0x0:0xa33f9e78033588a9,
perumahan,Komplek perumahan,Dewi nanuru,"64M9+9H2, Seilale, Kec. Nusaniwe, Kota Ambon, Maluku","Kota Ambon, Maluku",MALUKU,,Indonesia,,,,-37.666.734,1.281.188.906,https://maps.google.com/?cid=0x0:0x5e28cddc698b878e,
perumahan,perumahan,Nusaniwe,"Kec. Nusaniwe, Kota Ambon, Maluku","Kota Ambon, Maluku",MALUKU,,Indonesia,,,,-3.758.225,1.281.424.438,https://maps.google.com/?cid=0x0:0x47869cdfaa5c2eae,
perumahan,perumahan,Keluarga Opa Ari Silooy,"745M+HCX, Amahusu, Kec. Nusaniwe, Kota Ambon, Maluku","Kota Ambon, Maluku",MALUKU,,Indonesia,,,,-37.410.246,128.133.619,https://maps.google.com/?cid=0x0:0x7710c7af4bd87700,
perumahan,Perhimpunan Pengembang Perumahan,Lorong Angko Cor,"743J+648, Jl. Amanhuse, Nusaniwe, Kec. Nusaniwe, Kota Ambon, Maluku","Kota Ambon, Maluku",MALUKU,,Indonesia,,,,-37.469.507,1.281.303.141,https://maps.google.com/?cid=0x0:0x64ef69ee9301b1cd,
perumahan,Komplek perumahan,Tisera Family,"64MF+HG8 Eri, RT./RW/RW.008/02, Nusaniwe, Kec. Nusaniwe, Kota Ambon, Maluku","Kota Ambon, Maluku",MALUKU,,Indonesia,,,,-37.660.799,1.281.238.326,https://maps.google.com/?cid=0x0:0x546093385efd4761,
perumahan,Komplek perumahan,Kel RisBedri Tuhumury,"64M9+JPW, Jl. Amanhuse, Seilale, Kec. Nusaniwe, Kota Ambon, Maluku","Kota Ambon, Maluku",MALUKU,,Indonesia,,,,-37.659.551,128.118.767,https://maps.google.com/?cid=0x0:0xf3de8e162b1dadc8,
perumahan,Pembangunan Perumahan,Amora Latukolan,"64HP+5CM, Nusaniwe, Kec. Nusaniwe, Kota Ambon, Maluku","Kota Ambon, Maluku",MALUKU,,Indonesia,,,,-37.729.221,1.281.359.157,https://maps.google.com/?cid=0x0:0x9969808377331bd0,
perumahan,Komplek perumahan,Nanuruâs Home,"64MJ+8CC, Nusaniwe, Kec. Nusaniwe, Kota Ambon, Maluku","Kota Ambon, Maluku",MALUKU,,Indonesia,,,,-37.666.637,1.281.321.934,https://maps.google.com/?cid=0x0:0x1e7c43989581b942,
perumahan,Komplek perumahan,Grantino,"64HF+PG8, Latuhalat, Kec. Nusaniwe, Kota Ambon, Maluku","Kota Ambon, Maluku",MALUKU,,Indonesia,,,,-3.770.392,128.124.513,https://maps.google.com/?cid=0x0:0x33921dfba0b023dc,
perumahan,Komplek perumahan,kastanja,"742J+9C5, Nusaniwe, Kec. Nusaniwe, Kota Ambon, Maluku","Kota Ambon, Maluku",MALUKU,,Indonesia,,,,-37.491.177,1.281.311.063,https://maps.google.com/?cid=0x0:0x6cda1155d4090e47,
perumahan,Komplek perumahan,F. LEKATOMPESSY,"64MC+MMR, Seilale, Kec. Nusaniwe, Kota Ambon, Maluku","Kota Ambon, Maluku",MALUKU,,Indonesia,,,,-37.657.625,1.281.216.406,https://maps.google.com/?cid=0x0:0xcf96949e1c343444,
perumahan,Komplek perumahan,Meyno,"64MP+FCC, Nusaniwe, Kec. Nusaniwe, Kota Ambon, Maluku","Kota Ambon, Maluku",MALUKU,,Indonesia,,,,-3.766.404,128.136.542,https://maps.google.com/?cid=0x0:0x55ec07f0dd09b95c,
perumahan,Komplek perumahan,Keluarga Y. Litaay,"742M+J57, Nusaniwe, Kec. Nusaniwe, Kota Ambon, Maluku","Kota Ambon, Maluku",MALUKU,,Indonesia,,,,-37.484.636,1.281.329.092,https://maps.google.com/?cid=0x0:0xf9d089d8f8c8dae9,
perumahan,Pembangunan Perumahan,Keluarga kastanya,"64WJ+FGV, Nusaniwe, Kec. Nusaniwe, Kota Ambon, Maluku","Kota Ambon, Maluku",MALUKU,,Indonesia,,,,-3.753.883,1.281.323.094,https://maps.google.com/?cid=0x0:0xc3e48f87d25cfe1e,
perumahan,Komplek perumahan,Kel B Wattilete,"64MJ+8CC, Nusaniwe, Kec. Nusaniwe, Kota Ambon, Maluku","Kota Ambon, Maluku",MALUKU,,Indonesia,,,,-37.666.647,1.281.317.391,https://maps.google.com/?cid=0x0:0xca5db65686db836,
perumahan,Komplek perumahan,Dusun erie batu anyo,"Jl. Amanhuse, Nusaniwe, Kec. Nusaniwe, Kota Ambon, Maluku","Kota Ambon, Maluku",MALUKU,,Indonesia,,,,-37.456.292,1.281.304.721,https://maps.google.com/?cid=0x0:0xb65e742607f2fe89,
perumahan,Komplek perumahan,Rumah RayJuven Kailola,"64J8+VR4, Seilale, Kec. Nusaniwe, Kota Ambon, Maluku","Kota Ambon, Maluku",MALUKU,,Indonesia,,,,-3.767.805,1.281.170.394,https://maps.google.com/?cid=0x0:0x94be5c26bb45f718,
perumahan,Komplek perumahan,Edo Gomies Home's,"744J+MW7, Amahusu, Kec. Nusaniwe, Kota Ambon, Maluku 97117","Amahusu, Kec. Nusaniwe, Kota Ambon",MALUKU,97117.0,Indonesia,,,,-37.434.215,1.281.323.387,https://maps.google.com/?cid=0x0:0xadd9d5d9274a481b,
perumahan,perumahan,Kec. Nusaniwe,"Kota Ambon, Maluku","Kota Ambon, Maluku",MALUKU,,Indonesia,,,,-37.050.795,128.174.458,https://maps.google.com/?cid=0x0:0x3f13997f42549327,
perumahan,perumahan,Omki's Home,"64HX+FHC, Nusaniwe, Kec. Nusaniwe, Kota Ambon, Maluku","Kota Ambon, Maluku",MALUKU,,Indonesia,,,,-37.713.219,1.281.488.768,https://maps.google.com/?cid=0x0:0x7a8263972ec649ec,
perumahan,Komplek perumahan,Stiven persulessy,"75VG+W92, Kel Mangga Dua, Kec. Nusaniwe, Kota Ambon, Maluku","Kota Ambon, Maluku",MALUKU,,Indonesia,,,,-37.055.677,128.176.248,https://maps.google.com/?cid=0x0:0x660f54acc6482b4f,
perumahan,Komplek perumahan,Rumah keluarga woriwun,"75VF+7VG, Jl. DR. Kayadoe, Kel Kudamati, Kec. Nusaniwe, Kota Ambon, Maluku","Kota Ambon, Maluku",MALUKU,,Indonesia,,,,-37.065.821,1.281.751.239,https://maps.google.com/?cid=0x0:0x4ec08b4e162d7794,
perumahan,Komplek perumahan,Keluarga Oma Yos Soselissa,"75VG+JFQ, Jl. DR. Kayadoe Batu Gantong Dalam, Kel Mangga Dua, Kec. Nusaniwe, Kota Ambon, Maluku","Kota Ambon, Maluku",MALUKU,,Indonesia,,,,-37.059.083,1.281.762.366,https://maps.google.com/?cid=0x0:0xd427ecd230096321,
perumahan,Pembangunan Perumahan,Perumuhan suwestran,"75XG+2CV, Kel Waihaong, Kec. Nusaniwe, Kota Ambon, Maluku","Kota Ambon, Maluku",MALUKU,,Indonesia,,,,-3.702.385,1.281.760.436,https://maps.google.com/?cid=0x0:0x187ff2b85b718a88,
perumahan,Komplek perumahan,Rumah,"75RG+P97 Batu Gantung Ganemo, Kel Kudamati, Kec. Nusaniwe, Kota Ambon, Maluku","Kota Ambon, Maluku",MALUKU,,Indonesia,,,,-37.082.139,1.281.759.205,https://maps.google.com/?cid=0x0:0xe71d43c1c7b74d22,
perumahan,Komplek perumahan,Remon Jamlean,"75VC+3RF, Kel Kudamati, Kec. Nusaniwe, Kota Ambon, Maluku","Kota Ambon, Maluku",MALUKU,,Indonesia,,,,-37.072.351,1.281.720.051,https://maps.google.com/?cid=0x0:0x834f876e8d40cd76,
perumahan,Pembangunan Perumahan,KOS PICAULY,"75WC+RRG, Kel Wainitu, Kec. Nusaniwe, Kota Ambon, Maluku","Kota Ambon, Maluku",MALUKU,,Indonesia,,,,-37.029.388,1.281.720.849,https://maps.google.com/?cid=0x0:0x4b6f53aaaf517c4d,
perumahan,Pembangunan Perumahan,Nusantara erie,"Erie nusaniwe, Kel Wainitu, Kec. Nusaniwe, Kota Ambon, Maluku","Kota Ambon, Maluku",MALUKU,,Indonesia,,,,-37.050.795,128.174.458,https://maps.google.com/?cid=0x0:0xafdbd0584678d9e1,
perumahan,Komplek perumahan,Agu5,"854V+JGP, Jalan, Kel Karang Panjang, Kec. Sirimau, Kota Ambon, Maluku","Kota Ambon, Maluku",MALUKU,,Indonesia,,,,-36.933.726,1.281.938.529,https://maps.google.com/?cid=0x0:0xea971e6c1c2f872,
perumahan,perumahan,Maluku 97121,"Kel Amantelu, Kec. Sirimau, Kota Ambon, Maluku","Kota Ambon, Maluku",MALUKU,,Indonesia,,,,-36.939.258,1.281.951.201,https://maps.google.com/?cid=0x0:0x4a8c16c07f16a49a,
perumahan,Komplek perumahan,Semmy Engko,"854V+QXV, Kel Amantelu, Kec. Sirimau, Kota Ambon, Maluku","Kota Ambon, Maluku",MALUKU,,Indonesia,,,,-36.930.166,1.281.949.091,https://maps.google.com/?cid=0x0:0x2f9172c66c511ada,
perumahan,Komplek perumahan,Fam Pattiruhu Franciscus,"854V+94W, Jl. Karang Panjang, Kel Karang Panjang, Kec. Sirimau, Kota Ambon, Maluku","Kota Ambon, Maluku",MALUKU,,Indonesia,,,,-36.940.187,1.281.928.197,https://maps.google.com/?cid=0x0:0x39413f117ac2fc20,
perumahan,Komplek perumahan,Farcia's Home,"854V+GGC, Kel Karang Panjang, Kec. Sirimau, Kota Ambon, Maluku","Kota Ambon, Maluku",MALUKU,,Indonesia,,,,-36.936.964,1.281.937.744,https://maps.google.com/?cid=0x0:0xd7c80e36d38780e1,
perumahan,Komplek perumahan,Rumah Keluarga Matahurilla,"854W+P38, Jl. Petra, Kel Amantelu, Kec. Sirimau, Kota Ambon, Maluku","Kota Ambon, Maluku",MALUKU,,Indonesia,,,,-36.932.181,1.281.952.094,https://maps.google.com/?cid=0x0:0x46158bf929e41cfd,
perumahan,Komplek perumahan,Soselisa's Family,"Jl. Karang Panjang, Kel Karang Panjang, Kec. Sirimau, Kota Ambon, Maluku","Kota Ambon, Maluku",MALUKU,,Indonesia,,,,-36.930.568,1.281.927.963,https://maps.google.com/?cid=0x0:0x54427d0d4bf5e5c2,
perumahan,Pembangunan Perumahan,Gaspers House,"854V+HX4, Kel Amantelu, Kec. Sirimau, Kota Ambon, Maluku","Kota Ambon, Maluku",MALUKU,,Indonesia,,,,-36.936.628,1.281.950.186,https://maps.google.com/?cid=0x0:0xce1ccfa6eae21711,
perumahan,Komplek perumahan,Rumah Keluarga M. Kakiay,"854W+838, Jl. Pitu Ina, Kel Amantelu, Kec. Sirimau, Kota Ambon, Maluku","Kota Ambon, Maluku",MALUKU,,Indonesia,,,,-36.942.118,1.281.952.059,https://maps.google.com/?cid=0x0:0xd3af1d82f5f57ba6,
perumahan,Pembangunan Perumahan,Uny Home,"854V+HX4, Kel Amantelu, Kec. Sirimau, Kota Ambon, Maluku","Kota Ambon, Maluku",MALUKU,,Indonesia,,,,-36.936.216,128.194.966,https://maps.google.com/?cid=0x0:0x1c2c0b76ea90d5bc,
perumahan,Komplek perumahan,Bakker's House,"Kel Karang Panjang, Kec. Sirimau, Kota Ambon, Maluku","Kota Ambon, Maluku",MALUKU,,Indonesia,,,,-36.940.381,1.281.943.141,https://maps.google.com/?cid=0x0:0x76306f97d73aa28a,
perumahan,Pembangunan Perumahan,Kel. S. Mandaku,"854V+G5R, Kel Karang Panjang, Kec. Sirimau, Kota Ambon, Maluku","Kota Ambon, Maluku",MALUKU,,Indonesia,,,,-36.936.269,1.281.928.841,https://maps.google.com/?cid=0x0:0x8b8c71ced942bd4e,
perumahan,Komplek perumahan,Rolly Kuhuparuw,"Jl. Pitu Ina, Kel Amantelu, Kec. Sirimau, Kota Ambon, Maluku","Kota Ambon, Maluku",MALUKU,,Indonesia,81221081236,,,-36.927.043,1.281.938.704,https://maps.google.com/?cid=0x0:0x306a45c3035eeb58,
perumahan,Komplek perumahan,Bobby Hatalaibessy,"854W+H3P, Jl. Petra, Kel Amantelu, Kec. Sirimau, Kota Ambon, Maluku","Kota Ambon, Maluku",MALUKU,,Indonesia,81248821701,,,-36.935.287,1.281.951.972,https://maps.google.com/?cid=0x0:0x3e9f067f10c643c9,
perumahan,Komplek perumahan,Rumah Pak Allen Waplau,"854V+HPQ, Kel Amantelu, Kec. Sirimau, Kota Ambon, Maluku","Kota Ambon, Maluku",MALUKU,,Indonesia,,,,-36.935.322,1.281.943.553,https://maps.google.com/?cid=0x0:0x84330987294e42f9,
perumahan,Perhimpunan Pengembang Perumahan,Kel. D. Marlissa,"854V+H24, Kel Karang Panjang, Kec. Sirimau, Kota Ambon, Maluku","Kota Ambon, Maluku",MALUKU,,Indonesia,,,,-36.935.731,1.281.928.611,https://maps.google.com/?cid=0x0:0x43936cfdb9c68be5,
perumahan,Komplek perumahan,Kel.Dewanna,"854V+F76, Kel Karang Panjang, Kec. Sirimau, Kota Ambon, Maluku","Kota Ambon, Maluku",MALUKU,,Indonesia,,,,-36.938.034,128.193.118,https://maps.google.com/?cid=0x0:0xccc1b9e40d300a48,
perumahan,Komplek perumahan,Widya manuhutu,"854V+P5J, Jl. Karang Panjang, Kel Karang Panjang, Kec. Sirimau, Kota Ambon, Maluku","Kota Ambon, Maluku",MALUKU,,Indonesia,,,,-36.931.623,1.281.928.968,https://maps.google.com/?cid=0x0:0x581c8d3072e04eef,
perumahan,Komplek perumahan,Soselisa Home,"855V+3X9, Jl. Petra, Kel Amantelu, Kec. Sirimau, Kota Ambon, Maluku","Kota Ambon, Maluku",MALUKU,,Indonesia,,,,-36.923.283,1.281.949.908,https://maps.google.com/?cid=0x0:0xe58737f812e3d3e8,
perumahan,Komplek perumahan,KEL. JOPIE MUSKITA,"854V+F7W, Kel Karang Panjang, Kec. Sirimau, Kota Ambon, Maluku","Kota Ambon, Maluku",MALUKU,,Indonesia,,,,-36.937.731,1.281.932.006,https://maps.google.com/?cid=0x0:0x97bf788ac39e9e23,
perumahan,perumahan,Kec. Sirimau,"Kota Ambon, Maluku","Kota Ambon, Maluku",MALUKU,,Indonesia,,,,-36.817.134,1.281.894.692,https://maps.google.com/?cid=0x0:0xb97cce2aeb4856a8,
perumahan,Komplek perumahan,Kompleks miring,"Jl. Jenderal Sudirman No.8, Batu Merah, Kec. Sirimau, Kota Ambon, Maluku 97128","Batu Merah, Kec. Sirimau, Kota Ambon",MALUKU,97128.0,Indonesia,,,,-36.787.267,12.819.096,https://maps.google.com/?cid=0x0:0x10ec191b5dfb1d0a,
perumahan,Pembangunan Perumahan,Rumah randi tomia,"85FR+CH8, Jl. Kapaha, Pandan Kasturi, Kec. Sirimau, Kota Ambon, Maluku","Kota Ambon, Maluku",MALUKU,,Indonesia,,,,-36.766.184,1.281.918.377,https://maps.google.com/?cid=0x0:0x8657dcf0ab7c484c,
perumahan,perumahan,Aljhi Home,"858Q+RV7, Batu Merah, Kec. Sirimau, Kota Ambon, Maluku","Kota Ambon, Maluku",MALUKU,,Indonesia,,,,-36.829.696,1.281.896.567,https://maps.google.com/?cid=0x0:0x1664c7495815d43f,
perumahan,Komplek perumahan,SANMAS HOME,"85FR+6WF, Jl. Kapaha, Pandan Kasturi, Kec. Sirimau, Kota Ambon, Maluku","Kota Ambon, Maluku",MALUKU,,Indonesia,,,,-3.676.947,1.281.923.098,https://maps.google.com/?cid=0x0:0x756a088d3b8b9257,
perumahan,Komplek perumahan,Rumah Radja Kaya,"85CR+WMV, Pandan Kasturi, Kec. Sirimau, Kota Ambon, Maluku","Kota Ambon, Maluku",MALUKU,,Indonesia,,,,-36.776.375,1.281.916.719,https://maps.google.com/?cid=0x0:0xd3366088789a2f8a,
perumahan,Komplek perumahan,Kompleks Batu Anyor,"859Q+Q93, Batu Merah, Kec. Sirimau, Kota Ambon, Maluku","Kota Ambon, Maluku",MALUKU,,Indonesia,,,,-3.680.528,1.281.885.721,https://maps.google.com/?cid=0x0:0xbc8a253f9c27b691,
perumahan,Komplek perumahan,Kartal Com,"859R+G9P, Batu Merah, Kec. Sirimau, Kota Ambon, Maluku","Kota Ambon, Maluku",MALUKU,,Indonesia,,,,-36.811.632,128.190.921,https://maps.google.com/?cid=0x0:0xb9a7e57698b79e94,
perumahan,Komplek perumahan,"Kompas,Kompleks Santri","Jalan Kahena Kayu 1, Batu Merah, Kec. Sirimau, Kota Ambon, Maluku","Kota Ambon, Maluku",MALUKU,,Indonesia,,,,-36.829.696,1.281.896.567,https://maps.google.com/?cid=0x0:0x656807f873e73f13,
perumahan,Pembangunan Perumahan,Rumah randi tomia,"85FR+CH8, Jl. Kapaha, Pandan Kasturi, Kec. Sirimau, Kota Ambon, Maluku","Kota Ambon, Maluku",MALUKU,,Indonesia,,,,-36.766.184,1.281.918.377,https://maps.google.com/?cid=0x0:0x8657dcf0ab7c484c,
perumahan,perumahan,Kec. Sirimau,"Kota Ambon, Maluku","Kota Ambon, Maluku",MALUKU,,Indonesia,,,,-36.817.134,1.281.894.692,https://maps.google.com/?cid=0x0:0xb97cce2aeb4856a8,
perumahan,Komplek perumahan,Kompleks miring,"Jl. Jenderal Sudirman No.8, Batu Merah, Kec. Sirimau, Kota Ambon, Maluku 97128","Batu Merah, Kec. Sirimau, Kota Ambon",MALUKU,97128.0,Indonesia,,,,-36.787.267,12.819.096,https://maps.google.com/?cid=0x0:0x10ec191b5dfb1d0a,
perumahan,Komplek perumahan,Rumah Radja Kaya,"85CR+WMV, Pandan Kasturi, Kec. Sirimau, Kota Ambon, Maluku","Kota Ambon, Maluku",MALUKU,,Indonesia,,,,-36.776.375,1.281.916.719,https://maps.google.com/?cid=0x0:0xd3366088789a2f8a,
perumahan,perumahan,Aljhi Home,"858Q+RV7, Batu Merah, Kec. Sirimau, Kota Ambon, Maluku","Kota Ambon, Maluku",MALUKU,,Indonesia,,,,-36.829.696,1.281.896.567,https://maps.google.com/?cid=0x0:0x1664c7495815d43f,
perumahan,Komplek perumahan,"Kompas,Kompleks Santri","Jalan Kahena Kayu 1, Batu Merah, Kec. Sirimau, Kota Ambon, Maluku","Kota Ambon, Maluku",MALUKU,,Indonesia,,,,-36.829.696,1.281.896.567,https://maps.google.com/?cid=0x0:0x656807f873e73f13,
perumahan,Pembangunan Perumahan,Keluarga dg ceno,"859R+5P5, Batu Merah, Kec. Sirimau, Kota Ambon, Maluku","Kota Ambon, Maluku",MALUKU,,Indonesia,,,,-36.821.111,1.281.918.676,https://maps.google.com/?cid=0x0:0x5e742747fc911a3a,
perumahan,Komplek perumahan,Kompleks Batu Anyor,"859Q+Q93, Batu Merah, Kec. Sirimau, Kota Ambon, Maluku","Kota Ambon, Maluku",MALUKU,,Indonesia,,,,-3.680.528,1.281.885.721,https://maps.google.com/?cid=0x0:0xbc8a253f9c27b691,
perumahan,perumahan,Rumah Dinas Wagub Maluku-Karpan (CanoRumasukun),"856V+V5R, Kel Amantelu, Kec. Sirimau, Kota Ambon, Maluku","Kota Ambon, Maluku",MALUKU,,Indonesia,,,,-36.877.629,1.281.929.059,https://maps.google.com/?cid=0x0:0x9886a2fab58e6380,
perumahan,Komplek perumahan,Rumah Fajar Elsunan,"Jl. Galunggung Jl. Tanah Rata No.23, RT.002/RW.06, Batu Merah, Kec. Sirimau, Kota Ambon, Maluku 97128","RT.002/RW.06, Batu Merah, Kec. Sirimau, Kota Ambon",MALUKU,97128.0,Indonesia,,,,-36.804.534,1.281.928.811,https://maps.google.com/?cid=0x0:0xcee26ce2b55dd8be,
perumahan,Komplek perumahan,Kartal Com,"859R+G9P, Batu Merah, Kec. Sirimau, Kota Ambon, Maluku","Kota Ambon, Maluku",MALUKU,,Indonesia,,,,-36.811.632,128.190.921,https://maps.google.com/?cid=0x0:0xb9a7e57698b79e94,
perumahan,Pembangunan Perumahan,Depression's house,"Jl. Jenderal Sudirman No.88, RT./RW/RW.001/008, Negeri, Batu Merah, Kec. Sirimau, Kota Ambon, Maluku 97128","RT./RW/RW.001/008, Negeri, Batu Merah, Kec. Sirimau, Kota Ambon",MALUKU,97128.0,Indonesia,,,,-3.682.732,1.281.908.639,https://maps.google.com/?cid=0x0:0x70507cefede11f85,
perumahan,Komplek perumahan,H. Idris Kiat,"857Q+M8R, Batu Merah, Kec. Sirimau, Kota Ambon, Maluku","Kota Ambon, Maluku",MALUKU,,Indonesia,,,,-36.857.651,1.281.882.728,https://maps.google.com/?cid=0x0:0x5831f7870313070,
perumahan,Komplek perumahan,Arkana,"Asmil batu merah dalam, Kel Amantelu, Kec. Sirimau, Kota Ambon, Maluku","Kota Ambon, Maluku",MALUKU,,Indonesia,,,,-36.865.899,1.281.884.801,https://maps.google.com/?cid=0x0:0xba36e7a2ff25651c,
perumahan,Pembangunan Perumahan,Rumah Galunggung,"858R+H2Q, Unnamed Road, Batu Merah, Kec. Sirimau, Kota Ambon, Maluku","Kota Ambon, Maluku",MALUKU,,Indonesia,,,,-36.835.387,1.281.901.055,https://maps.google.com/?cid=0x0:0xa05d3bf90a70c69c,
perumahan,Komplek perumahan,Ongen,"Jl. Ahuru, Rt. 001 Rw. 016 Kelurahan, Batu Merah, Kec. Sirimau, Kota Ambon, Maluku 97128","Rt. 001 Rw. 016 Kelurahan, Batu Merah, Kec. Sirimau, Kota Ambon",MALUKU,97128.0,Indonesia,,,,-36.829.172,1.281.896.671,https://maps.google.com/?cid=0x0:0x834e577755972453,
perumahan,Komplek perumahan,SANMAS HOME,"85FR+6WF, Jl. Kapaha, Pandan Kasturi, Kec. Sirimau, Kota Ambon, Maluku","Kota Ambon, Maluku",MALUKU,,Indonesia,,,,-3.676.947,1.281.923.098,https://maps.google.com/?cid=0x0:0x756a088d3b8b9257,
perumahan,Komplek perumahan,gang kartal,"859R+J78, Batu Merah, Kec. Sirimau, Kota Ambon, Maluku","Kota Ambon, Maluku",MALUKU,,Indonesia,,,,-36.809.665,1.281.907.249,https://maps.google.com/?cid=0x0:0xda14c109abe42dfa,
perumahan,Komplek perumahan,Rumah keluarag latar,"858Q+RV7, Jl. Galunggung, Batu Merah, Kec. Sirimau, Kota Ambon, Maluku","Kota Ambon, Maluku",MALUKU,,Indonesia,,,,-36.829.625,1.281.896.719,https://maps.google.com/?cid=0x0:0xbe8349c0f4e90cf4,
perumahan,Komplek perumahan,Eza home,"859V+X58, Jl. Tanah Rata, Batu Merah, Kec. Sirimau, Kota Ambon, Maluku","Kota Ambon, Maluku",MALUKU,,Indonesia,,,,-36.800.792,1.281.929.315,https://maps.google.com/?cid=0x0:0x146e7ce6826b1bbb,
perumahan,Komplek perumahan,Rumah Junedi Helut,"858Q+X98, Batu Merah, Kec. Sirimau, Kota Ambon, Maluku","Kota Ambon, Maluku",MALUKU,,Indonesia,,,,-36.825.793,1.281.884.501,https://maps.google.com/?cid=0x0:0x7190a39bf29300f4,
perumahan,Komplek perumahan,Kel.sukiman,"859V+PF6, Batu Merah, Kec. Sirimau, Kota Ambon, Maluku","Kota Ambon, Maluku",MALUKU,,Indonesia,,,,-36.807.937,1.281.936.049,https://maps.google.com/?cid=0x0:0x74c0b66d9b8be81b,
perumahan,Komplek perumahan,Kota Ambon kabupaten Maluku kecamatan Sirimau,"85CV+HFC, Jl. Jenderal Sudirman, Pandan Kasturi, Kec. Sirimau, Kota Ambon, Maluku","Kota Ambon, Maluku",MALUKU,,Indonesia,,,,-36.785.597,128.193.639,https://maps.google.com/?cid=0x0:0x60d9768f2b8b9584,
perumahan,Komplek perumahan,Safrin gadihu,"858Q+RV7, Batu Merah, Kec. Sirimau, Kota Ambon, Maluku","Kota Ambon, Maluku",MALUKU,,Indonesia,,,,-36.829.696,1.281.896.567,https://maps.google.com/?cid=0x0:0x2eee62803a89fe3d,
perumahan,Komplek perumahan,Gang Vista,"856P+M4R, Jl. Cendrawasih gang vista, Kel Rijali, Kec. Sirimau, Kota Ambon, Maluku 97123","Jl. Cendrawasih gang vista, Kel Rijali, Kec. Sirimau, Kota Ambon",MALUKU,97123.0,Indonesia,,,,-3.688.269,1.281.852.755,https://maps.google.com/?cid=0x0:0x1b5d9d864d33d08b,
perumahan,Pembangunan Perumahan,KOS ZERINA,"Pabrik tahu, Jalan, Kel Rijali, Kec. Sirimau, Kota Ambon, Maluku","Kota Ambon, Maluku",MALUKU,,Indonesia,82397651014,,,-3.687.541,1.281.862.966,https://maps.google.com/?cid=0x0:0xc2dddffe9a96f971,
perumahan,perumahan,Maluku 97123,"Kel Rijali, Kec. Sirimau, Kota Ambon, Maluku","Kota Ambon, Maluku",MALUKU,,Indonesia,,,,-36.882.328,1.281.853.089,https://maps.google.com/?cid=0x0:0x77caa3f9ef4bfe5c,
perumahan,Pembangunan Perumahan,Perumahan Prawira,"857P+7RG, Batu Merah, Kec. Sirimau, Kota Ambon, Maluku","Kota Ambon, Maluku",MALUKU,,Indonesia,82248198519,,,-36.868.068,1.281.870.771,https://maps.google.com/?cid=0x0:0x2792f913afbfb4d2,
perumahan,Komplek perumahan,PT. MASOHI INDAH PERMAI,"Jl. Kesehatan Jl. Karang Panjang No.3, RT.003/RW.005, Kel Amantelu, Kec. Sirimau, Kota Ambon, Maluku","Kota Ambon, Maluku",MALUKU,,Indonesia,811471499,,,-36.938.209,1.281.909.637,https://maps.google.com/?cid=0x0:0xd8050ec9b25fb99d,
perumahan,Komplek perumahan,LORONG TARIPANG,"856P+MQ5, Jl. Rijali, Kel Rijali, Kec. Sirimau, Kota Ambon, Maluku","Kota Ambon, Maluku",MALUKU,,Indonesia,,,,-36.883.607,1.281.869.927,https://maps.google.com/?cid=0x0:0xf8019774205ff518,
perumahan,Komplek perumahan,Diandra Home,"856M+GW6, Jl. Pantai Mardika, Uritetu, Kec. Sirimau, Kota Ambon, Maluku","Kota Ambon, Maluku",MALUKU,,Indonesia,,,,-36.887.066,1.281.847.607,https://maps.google.com/?cid=0x0:0x453180874601bdc8,
perumahan,Pembangunan Perumahan,Rumah,"856P+XPW, Jl. Pabrik Tahu, Kel Rijali, Kec. Sirimau, Kota Ambon, Maluku","Kota Ambon, Maluku",MALUKU,,Indonesia,,,,-36.875.228,1.281.868.279,https://maps.google.com/?cid=0x0:0xb3d0572394c59685,
perumahan,Komplek perumahan,abang oni,"856P+QHH, Jl. Pabrik Tahu, Kel Rijali, Kec. Sirimau, Kota Ambon, Maluku","Kota Ambon, Maluku",MALUKU,,Indonesia,,,,-36.880.204,1.281.864.005,https://maps.google.com/?cid=0x0:0x9b8179ba2f2be19a,
perumahan,Komplek perumahan,Halong Mardika,"Jalan Mutiara Rukan Nomor No.3A, Kel Rijali, Kec. Sirimau, Kota Ambon, Maluku","Kota Ambon, Maluku",MALUKU,,Indonesia,,,,-36.880.683,1.281.872.694,https://maps.google.com/?cid=0x0:0x6509f1e21991bdfa,
perumahan,Rumah wisata,Rumah Bpk Heri Geru,"856P+XC4, Jl. Pabrik Tahu, Kel Rijali, Kec. Sirimau, Kota Ambon, Maluku","Kota Ambon, Maluku",MALUKU,,Indonesia,,,,-36.876.249,12.818.607,https://maps.google.com/?cid=0x0:0x785bfb897d2cb7b4,
perumahan,perumahan,Kec. Sirimau,"Kota Ambon, Maluku","Kota Ambon, Maluku",MALUKU,,Indonesia,,,,-36.817.134,1.281.894.692,https://maps.google.com/?cid=0x0:0xb97cce2aeb4856a8,
perumahan,Pembangunan Perumahan,Rumah randi tomia,"85FR+CH8, Jl. Kapaha, Pandan Kasturi, Kec. Sirimau, Kota Ambon, Maluku","Kota Ambon, Maluku",MALUKU,,Indonesia,,,,-36.766.184,1.281.918.377,https://maps.google.com/?cid=0x0:0x8657dcf0ab7c484c,
perumahan,Komplek perumahan,Rumah adity,"859Q+769, Batu Merah, Kec. Sirimau, Kota Ambon, Maluku","Kota Ambon, Maluku",MALUKU,,Indonesia,,,,-36.821.461,1.281.878.593,https://maps.google.com/?cid=0x0:0x8fcbce7511314ba8,
perumahan,perumahan,Aljhi Home,"858Q+RV7, Batu Merah, Kec. Sirimau, Kota Ambon, Maluku","Kota Ambon, Maluku",MALUKU,,Indonesia,,,,-36.829.696,1.281.896.567,https://maps.google.com/?cid=0x0:0x1664c7495815d43f,
perumahan,Komplek perumahan,Kompleks miring,"Jl. Jenderal Sudirman No.8, Batu Merah, Kec. Sirimau, Kota Ambon, Maluku 97128","Batu Merah, Kec. Sirimau, Kota Ambon",MALUKU,97128.0,Indonesia,,,,-36.787.267,12.819.096,https://maps.google.com/?cid=0x0:0x10ec191b5dfb1d0a,
perumahan,Komplek perumahan,Kartal Com,"859R+G9P, Batu Merah, Kec. Sirimau, Kota Ambon, Maluku","Kota Ambon, Maluku",MALUKU,,Indonesia,,,,-36.811.632,128.190.921,https://maps.google.com/?cid=0x0:0xb9a7e57698b79e94,
perumahan,Komplek perumahan,"Kompas,Kompleks Santri","Jalan Kahena Kayu 1, Batu Merah, Kec. Sirimau, Kota Ambon, Maluku","Kota Ambon, Maluku",MALUKU,,Indonesia,,,,-36.829.696,1.281.896.567,https://maps.google.com/?cid=0x0:0x656807f873e73f13,
perumahan,Komplek perumahan,Rumah Radja Kaya,"85CR+WMV, Pandan Kasturi, Kec. Sirimau, Kota Ambon, Maluku","Kota Ambon, Maluku",MALUKU,,Indonesia,,,,-36.776.375,1.281.916.719,https://maps.google.com/?cid=0x0:0xd3366088789a2f8a,
perumahan,Komplek perumahan,Rumah keluarag latar,"858Q+RV7, Jl. Galunggung, Batu Merah, Kec. Sirimau, Kota Ambon, Maluku","Kota Ambon, Maluku",MALUKU,,Indonesia,,,,-36.829.625,1.281.896.719,https://maps.google.com/?cid=0x0:0xbe8349c0f4e90cf4,
perumahan,perumahan,Rumah Dinas Wagub Maluku-Karpan (CanoRumasukun),"856V+V5R, Kel Amantelu, Kec. Sirimau, Kota Ambon, Maluku","Kota Ambon, Maluku",MALUKU,,Indonesia,,,,-36.877.629,1.281.929.059,https://maps.google.com/?cid=0x0:0x9886a2fab58e6380,
perumahan,Komplek perumahan,gang kartal,"859R+J78, Batu Merah, Kec. Sirimau, Kota Ambon, Maluku","Kota Ambon, Maluku",MALUKU,,Indonesia,,,,-36.809.665,1.281.907.249,https://maps.google.com/?cid=0x0:0xda14c109abe42dfa,
perumahan,Komplek perumahan,Arkana,"Asmil batu merah dalam, Kel Amantelu, Kec. Sirimau, Kota Ambon, Maluku","Kota Ambon, Maluku",MALUKU,,Indonesia,,,,-36.865.899,1.281.884.801,https://maps.google.com/?cid=0x0:0xba36e7a2ff25651c,
perumahan,Komplek perumahan,Kota Ambon kabupaten Maluku kecamatan Sirimau,"85CV+HFC, Jl. Jenderal Sudirman, Pandan Kasturi, Kec. Sirimau, Kota Ambon, Maluku","Kota Ambon, Maluku",MALUKU,,Indonesia,,,,-36.785.597,128.193.639,https://maps.google.com/?cid=0x0:0x60d9768f2b8b9584,
perumahan,Komplek perumahan,SANMAS HOME,"85FR+6WF, Jl. Kapaha, Pandan Kasturi, Kec. Sirimau, Kota Ambon, Maluku","Kota Ambon, Maluku",MALUKU,,Indonesia,,,,-3.676.947,1.281.923.098,https://maps.google.com/?cid=0x0:0x756a088d3b8b9257,
perumahan,Pembangunan Perumahan,Keluarga dg ceno,"859R+5P5, Batu Merah, Kec. Sirimau, Kota Ambon, Maluku","Kota Ambon, Maluku",MALUKU,,Indonesia,,,,-36.821.111,1.281.918.676,https://maps.google.com/?cid=0x0:0x5e742747fc911a3a,
perumahan,perumahan,Rumah Keluarga Sapthu,"856R+H39, Jl. Pitu Ina, Kel Amantelu, Kec. Sirimau, Kota Ambon, Maluku","Kota Ambon, Maluku",MALUKU,,Indonesia,,,,-36.885.753,1.281.902.276,https://maps.google.com/?cid=0x0:0x9ed10393a7aa6523,
perumahan,Komplek perumahan,Rumah Fajar Elsunan,"Jl. Galunggung Jl. Tanah Rata No.23, RT.002/RW.06, Batu Merah, Kec. Sirimau, Kota Ambon, Maluku 97128","RT.002/RW.06, Batu Merah, Kec. Sirimau, Kota Ambon",MALUKU,97128.0,Indonesia,,,,-36.804.534,1.281.928.811,https://maps.google.com/?cid=0x0:0xcee26ce2b55dd8be,
perumahan,Komplek perumahan,Farah's home,"859Q+QXM, Batu Merah, Kec. Sirimau, Kota Ambon, Maluku","Kota Ambon, Maluku",MALUKU,,Indonesia,,,,-3.680.529,1.281.899.279,https://maps.google.com/?cid=0x0:0x91b3f23e7d7b8c6,
perumahan,Komplek perumahan,H. Idris Kiat,"857Q+M8R, Batu Merah, Kec. Sirimau, Kota Ambon, Maluku","Kota Ambon, Maluku",MALUKU,,Indonesia,,,,-36.857.651,1.281.882.728,https://maps.google.com/?cid=0x0:0x5831f7870313070,
perumahan,Komplek perumahan,PERUMAHAN BUKIT HIJAU URIMESSING,"Urimesing, Kec. Nusaniwe, Kota Ambon, Maluku","Kota Ambon, Maluku",MALUKU,,Indonesia,,,,-37.169.577,128.192.707,https://maps.google.com/?cid=0x0:0x641f0754f6c2ac10,
perumahan,Pembangunan Perumahan,Rumah Galunggung,"858R+H2Q, Unnamed Road, Batu Merah, Kec. Sirimau, Kota Ambon, Maluku","Kota Ambon, Maluku",MALUKU,,Indonesia,,,,-36.835.387,1.281.901.055,https://maps.google.com/?cid=0x0:0xa05d3bf90a70c69c,
perumahan,Komplek perumahan,Rumah keluarga suatkab,"859Q+CHW, Batu Merah, Kec. Sirimau, Kota Ambon, Maluku","Kota Ambon, Maluku",MALUKU,,Indonesia,,,,-3.681.419,1.281.888.544,https://maps.google.com/?cid=0x0:0x18c8f85d8c95bc33,
perumahan,Komplek perumahan,Rus Home,"85CV+5FQ, Batu Merah, Kec. Sirimau, Kota Ambon, Maluku","Kota Ambon, Maluku",MALUKU,,Indonesia,,,,-3.679.359,1.281.935.788,https://maps.google.com/?cid=0x0:0x531b79d358645dd5,
perumahan,perumahan,Aljhi Home,"858Q+RV7, Batu Merah, Kec. Sirimau, Kota Ambon, Maluku","Kota Ambon, Maluku",MALUKU,,Indonesia,,,,-36.829.696,1.281.896.567,https://maps.google.com/?cid=0x0:0x1664c7495815d43f,
perumahan,Komplek perumahan,Kartal Com,"859R+G9P, Batu Merah, Kec. Sirimau, Kota Ambon, Maluku","Kota Ambon, Maluku",MALUKU,,Indonesia,,,,-36.811.632,128.190.921,https://maps.google.com/?cid=0x0:0xb9a7e57698b79e94,
perumahan,perumahan,Kec. Sirimau,"Kota Ambon, Maluku","Kota Ambon, Maluku",MALUKU,,Indonesia,,,,-36.817.134,1.281.894.692,https://maps.google.com/?cid=0x0:0xb97cce2aeb4856a8,
perumahan,Komplek perumahan,Rumah adity,"859Q+769, Batu Merah, Kec. Sirimau, Kota Ambon, Maluku","Kota Ambon, Maluku",MALUKU,,Indonesia,,,,-36.821.461,1.281.878.593,https://maps.google.com/?cid=0x0:0x8fcbce7511314ba8,
perumahan,Pembangunan Perumahan,Rumah randi tomia,"85FR+CH8, Jl. Kapaha, Pandan Kasturi, Kec. Sirimau, Kota Ambon, Maluku","Kota Ambon, Maluku",MALUKU,,Indonesia,,,,-36.766.184,1.281.918.377,https://maps.google.com/?cid=0x0:0x8657dcf0ab7c484c,
perumahan,Pembangunan Perumahan,Keluarga dg ceno,"859R+5P5, Batu Merah, Kec. Sirimau, Kota Ambon, Maluku","Kota Ambon, Maluku",MALUKU,,Indonesia,,,,-36.821.111,1.281.918.676,https://maps.google.com/?cid=0x0:0x5e742747fc911a3a,
perumahan,Komplek perumahan,Kota Ambon kabupaten Maluku kecamatan Sirimau,"85CV+HFC, Jl. Jenderal Sudirman, Pandan Kasturi, Kec. Sirimau, Kota Ambon, Maluku","Kota Ambon, Maluku",MALUKU,,Indonesia,,,,-36.785.597,128.193.639,https://maps.google.com/?cid=0x0:0x60d9768f2b8b9584,
perumahan,Komplek perumahan,Alifa Home,"858Q+RRM, Batu Merah, Kec. Sirimau, Kota Ambon, Maluku","Kota Ambon, Maluku",MALUKU,,Indonesia,,,,-36.829.203,1.281.895.619,https://maps.google.com/?cid=0x0:0x749dbc503a7681c0,
perumahan,Komplek perumahan,SANMAS HOME,"85FR+6WF, Jl. Kapaha, Pandan Kasturi, Kec. Sirimau, Kota Ambon, Maluku","Kota Ambon, Maluku",MALUKU,,Indonesia,,,,-3.676.947,1.281.923.098,https://maps.google.com/?cid=0x0:0x756a088d3b8b9257,
perumahan,Komplek perumahan,Kompleks miring,"Jl. Jenderal Sudirman No.8, Batu Merah, Kec. Sirimau, Kota Ambon, Maluku 97128","Batu Merah, Kec. Sirimau, Kota Ambon",MALUKU,97128.0,Indonesia,,,,-36.787.267,12.819.096,https://maps.google.com/?cid=0x0:0x10ec191b5dfb1d0a,
perumahan,perumahan,Rumah Onco,"857R+XF6, Batu Merah, Kec. Sirimau, Kota Ambon, Maluku","Kota Ambon, Maluku",MALUKU,,Indonesia,,,,-36.850.767,1.281.911.454,https://maps.google.com/?cid=0x0:0x30c22b3b2e0940b4,
perumahan,Komplek perumahan,Rumah Fajar Elsunan,"Jl. Galunggung Jl. Tanah Rata No.23, RT.002/RW.06, Batu Merah, Kec. Sirimau, Kota Ambon, Maluku 97128","RT.002/RW.06, Batu Merah, Kec. Sirimau, Kota Ambon",MALUKU,97128.0,Indonesia,,,,-36.804.534,1.281.928.811,https://maps.google.com/?cid=0x0:0xcee26ce2b55dd8be,
perumahan,Perumahan,Batu Merah Dalam,"857R+V5W, Kel Amantelu, Kec. Sirimau, Kota Ambon, Maluku","Kota Ambon, Maluku",MALUKU,,Indonesia,,,,-36.852.551,1.281.904.658,https://maps.google.com/?cid=0x0:0x8281a2c3e329c217,
perumahan,Komplek perumahan,"Kompas,Kompleks Santri","Jalan Kahena Kayu 1, Batu Merah, Kec. Sirimau, Kota Ambon, Maluku","Kota Ambon, Maluku",MALUKU,,Indonesia,,,,-36.829.696,1.281.896.567,https://maps.google.com/?cid=0x0:0x656807f873e73f13,
perumahan,Komplek perumahan,H. Idris Kiat,"857Q+M8R, Batu Merah, Kec. Sirimau, Kota Ambon, Maluku","Kota Ambon, Maluku",MALUKU,,Indonesia,,,,-36.857.651,1.281.882.728,https://maps.google.com/?cid=0x0:0x5831f7870313070,
perumahan,Komplek perumahan,Rumah Radja Kaya,"85CR+WMV, Pandan Kasturi, Kec. Sirimau, Kota Ambon, Maluku","Kota Ambon, Maluku",MALUKU,,Indonesia,,,,-36.776.375,1.281.916.719,https://maps.google.com/?cid=0x0:0xd3366088789a2f8a,
perumahan,Komplek perumahan,Arkana,"Asmil batu merah dalam, Kel Amantelu, Kec. Sirimau, Kota Ambon, Maluku","Kota Ambon, Maluku",MALUKU,,Indonesia,,,,-36.865.899,1.281.884.801,https://maps.google.com/?cid=0x0:0xba36e7a2ff25651c,
perumahan,Komplek perumahan,gang kartal,"859R+J78, Batu Merah, Kec. Sirimau, Kota Ambon, Maluku","Kota Ambon, Maluku",MALUKU,,Indonesia,,,,-36.809.665,1.281.907.249,https://maps.google.com/?cid=0x0:0xda14c109abe42dfa,
perumahan,Komplek perumahan,Rumah keluarag latar,"858Q+RV7, Jl. Galunggung, Batu Merah, Kec. Sirimau, Kota Ambon, Maluku","Kota Ambon, Maluku",MALUKU,,Indonesia,,,,-36.829.625,1.281.896.719,https://maps.google.com/?cid=0x0:0xbe8349c0f4e90cf4,
perumahan,Komplek perumahan,Rumah Junedi Helut,"858Q+X98, Batu Merah, Kec. Sirimau, Kota Ambon, Maluku","Kota Ambon, Maluku",MALUKU,,Indonesia,,,,-36.825.793,1.281.884.501,https://maps.google.com/?cid=0x0:0x7190a39bf29300f4,
perumahan,Pembangunan Perumahan,Lokasi Rumah,"8682+M2V, Batu Merah, Kec. Sirimau, Kota Ambon, Maluku","Kota Ambon, Maluku",MALUKU,,Indonesia,,,,-36.832.716,1.282.000.419,https://maps.google.com/?cid=0x0:0x1f8ccaff09e9579f,
perumahan,perumahan,Rumah Dinas Wagub Maluku-Karpan (CanoRumasukun),"856V+V5R, Kel Amantelu, Kec. Sirimau, Kota Ambon, Maluku","Kota Ambon, Maluku",MALUKU,,Indonesia,,,,-36.877.629,1.281.929.059,https://maps.google.com/?cid=0x0:0x9886a2fab58e6380,
perumahan,Komplek perumahan,Kel.sukiman,"859V+PF6, Batu Merah, Kec. Sirimau, Kota Ambon, Maluku","Kota Ambon, Maluku",MALUKU,,Indonesia,,,,-36.807.937,1.281.936.049,https://maps.google.com/?cid=0x0:0x74c0b66d9b8be81b,
perumahan,Komplek perumahan,PERUMAHAN BUKIT HIJAU URIMESSING,"Urimesing, Kec. Nusaniwe, Kota Ambon, Maluku","Kota Ambon, Maluku",MALUKU,,Indonesia,,,,-37.169.577,128.192.707,https://maps.google.com/?cid=0x0:0x641f0754f6c2ac10,
perumahan,Komplek perumahan,Rus Home,"85CV+5FQ, Batu Merah, Kec. Sirimau, Kota Ambon, Maluku","Kota Ambon, Maluku",MALUKU,,Indonesia,,,,-3.679.359,1.281.935.788,https://maps.google.com/?cid=0x0:0x531b79d358645dd5,
perumahan,Komplek perumahan,Rumah Radja Kaya,"85CR+WMV, Pandan Kasturi, Kec. Sirimau, Kota Ambon, Maluku","Kota Ambon, Maluku",MALUKU,,Indonesia,,,,-36.776.375,1.281.916.719,https://maps.google.com/?cid=0x0:0xd3366088789a2f8a,
perumahan,perumahan,Kec. Sirimau,"Kota Ambon, Maluku","Kota Ambon, Maluku",MALUKU,,Indonesia,,,,-36.817.134,1.281.894.692,https://maps.google.com/?cid=0x0:0xb97cce2aeb4856a8,
perumahan,Komplek perumahan,"Kompas,Kompleks Santri","Jalan Kahena Kayu 1, Batu Merah, Kec. Sirimau, Kota Ambon, Maluku","Kota Ambon, Maluku",MALUKU,,Indonesia,,,,-36.829.696,1.281.896.567,https://maps.google.com/?cid=0x0:0x656807f873e73f13,
perumahan,perumahan,Aljhi Home,"858Q+RV7, Batu Merah, Kec. Sirimau, Kota Ambon, Maluku","Kota Ambon, Maluku",MALUKU,,Indonesia,,,,-36.829.696,1.281.896.567,https://maps.google.com/?cid=0x0:0x1664c7495815d43f,
perumahan,Komplek perumahan,Kota Ambon kabupaten Maluku kecamatan Sirimau,"85CV+HFC, Jl. Jenderal Sudirman, Pandan Kasturi, Kec. Sirimau, Kota Ambon, Maluku","Kota Ambon, Maluku",MALUKU,,Indonesia,,,,-36.785.597,128.193.639,https://maps.google.com/?cid=0x0:0x60d9768f2b8b9584,
perumahan,Komplek perumahan,Rumah adity,"859Q+769, Batu Merah, Kec. Sirimau, Kota Ambon, Maluku","Kota Ambon, Maluku",MALUKU,,Indonesia,,,,-36.821.461,1.281.878.593,https://maps.google.com/?cid=0x0:0x8fcbce7511314ba8,
perumahan,Komplek perumahan,Kartal Com,"859R+G9P, Batu Merah, Kec. Sirimau, Kota Ambon, Maluku","Kota Ambon, Maluku",MALUKU,,Indonesia,,,,-36.811.632,128.190.921,https://maps.google.com/?cid=0x0:0xb9a7e57698b79e94,
perumahan,Komplek perumahan,SANMAS HOME,"85FR+6WF, Jl. Kapaha, Pandan Kasturi, Kec. Sirimau, Kota Ambon, Maluku","Kota Ambon, Maluku",MALUKU,,Indonesia,,,,-3.676.947,1.281.923.098,https://maps.google.com/?cid=0x0:0x756a088d3b8b9257,
perumahan,Komplek perumahan,Kompleks miring,"Jl. Jenderal Sudirman No.8, Batu Merah, Kec. Sirimau, Kota Ambon, Maluku 97128","Batu Merah, Kec. Sirimau, Kota Ambon",MALUKU,97128.0,Indonesia,,,,-36.787.267,12.819.096,https://maps.google.com/?cid=0x0:0x10ec191b5dfb1d0a,
perumahan,Komplek perumahan,Arkana,"Asmil batu merah dalam, Kel Amantelu, Kec. Sirimau, Kota Ambon, Maluku","Kota Ambon, Maluku",MALUKU,,Indonesia,,,,-36.865.899,1.281.884.801,https://maps.google.com/?cid=0x0:0xba36e7a2ff25651c,
perumahan,Komplek perumahan,Farah's home,"859Q+QXM, Batu Merah, Kec. Sirimau, Kota Ambon, Maluku","Kota Ambon, Maluku",MALUKU,,Indonesia,,,,-3.680.529,1.281.899.279,https://maps.google.com/?cid=0x0:0x91b3f23e7d7b8c6,
perumahan,Komplek perumahan,Rumah dinas pengadilan agama ambon,"859V+HC5, Jl. Tanah Rata, Batu Merah, Kec. Sirimau, Kota Ambon, Maluku","Kota Ambon, Maluku",MALUKU,,Indonesia,,,,-36.811.055,1.281.936.063,https://maps.google.com/?cid=0x0:0xfe483235ab34f969,
perumahan,Pembangunan Perumahan,Depression's house,"Jl. Jenderal Sudirman No.88, RT./RW/RW.001/008, Negeri, Batu Merah, Kec. Sirimau, Kota Ambon, Maluku 97128","RT./RW/RW.001/008, Negeri, Batu Merah, Kec. Sirimau, Kota Ambon",MALUKU,97128.0,Indonesia,,,,-3.682.732,1.281.908.639,https://maps.google.com/?cid=0x0:0x70507cefede11f85,
perumahan,Komplek perumahan,Alifa Home,"858Q+RRM, Batu Merah, Kec. Sirimau, Kota Ambon, Maluku","Kota Ambon, Maluku",MALUKU,,Indonesia,,,,-36.829.203,1.281.895.619,https://maps.google.com/?cid=0x0:0x749dbc503a7681c0,
perumahan,perumahan,Rumah Dinas Wagub Maluku-Karpan (CanoRumasukun),"856V+V5R, Kel Amantelu, Kec. Sirimau, Kota Ambon, Maluku","Kota Ambon, Maluku",MALUKU,,Indonesia,,,,-36.877.629,1.281.929.059,https://maps.google.com/?cid=0x0:0x9886a2fab58e6380,
perumahan,Pembangunan Perumahan,Keluarga dg ceno,"859R+5P5, Batu Merah, Kec. Sirimau, Kota Ambon, Maluku","Kota Ambon, Maluku",MALUKU,,Indonesia,,,,-36.821.111,1.281.918.676,https://maps.google.com/?cid=0x0:0x5e742747fc911a3a,
perumahan,Komplek perumahan,Rumah keluarag latar,"858Q+RV7, Jl. Galunggung, Batu Merah, Kec. Sirimau, Kota Ambon, Maluku","Kota Ambon, Maluku",MALUKU,,Indonesia,,,,-36.829.625,1.281.896.719,https://maps.google.com/?cid=0x0:0xbe8349c0f4e90cf4,
perumahan,Komplek perumahan,Rumah Fajar Elsunan,"Jl. Galunggung Jl. Tanah Rata No.23, RT.002/RW.06, Batu Merah, Kec. Sirimau, Kota Ambon, Maluku 97128","RT.002/RW.06, Batu Merah, Kec. Sirimau, Kota Ambon",MALUKU,97128.0,Indonesia,,,,-36.804.534,1.281.928.811,https://maps.google.com/?cid=0x0:0xcee26ce2b55dd8be,
perumahan,Komplek perumahan,Kompleks Batu Anyor,"859Q+Q93, Batu Merah, Kec. Sirimau, Kota Ambon, Maluku","Kota Ambon, Maluku",MALUKU,,Indonesia,,,,-3.680.528,1.281.885.721,https://maps.google.com/?cid=0x0:0xbc8a253f9c27b691,
perumahan,Komplek perumahan,A.R. Sehwaky,"857R+PJ8, Kel Amantelu, Kec. Sirimau, Kota Ambon, Maluku","Kota Ambon, Maluku",MALUKU,,Indonesia,,,,-36.852.863,1.281.916.401,https://maps.google.com/?cid=0x0:0xeb11add0add63a4a,
perumahan,Komplek perumahan,gang kartal,"859R+J78, Batu Merah, Kec. Sirimau, Kota Ambon, Maluku","Kota Ambon, Maluku",MALUKU,,Indonesia,,,,-36.809.665,1.281.907.249,https://maps.google.com/?cid=0x0:0xda14c109abe42dfa,
perumahan,Komplek perumahan,Kel.sukiman,"859V+PF6, Batu Merah, Kec. Sirimau, Kota Ambon, Maluku","Kota Ambon, Maluku",MALUKU,,Indonesia,,,,-36.807.937,1.281.936.049,https://maps.google.com/?cid=0x0:0x74c0b66d9b8be81b,
perumahan,Komplek perumahan,Rus Home,"85CV+5FQ, Batu Merah, Kec. Sirimau, Kota Ambon, Maluku","Kota Ambon, Maluku",MALUKU,,Indonesia,,,,-3.679.359,1.281.935.788,https://maps.google.com/?cid=0x0:0x531b79d358645dd5,
perumahan,perumahan,Maluku 97127,"Kel Ahusen, Kec. Sirimau, Kota Ambon, Maluku","Kota Ambon, Maluku",MALUKU,,Indonesia,,,,-37.003.553,128.182.278,https://maps.google.com/?cid=0x0:0xbf007bb128f02127,
perumahan,Komplek perumahan,Jason Rumah,"Jl. DR. Setiabudi No.11 - 14, Kel Ahusen, Kec. Sirimau, Kota Ambon, Maluku","Kota Ambon, Maluku",MALUKU,,Indonesia,,,,-37.001.779,1.281.838.576,https://maps.google.com/?cid=0x0:0x9a78ef13975e896,
perumahan,Komplek perumahan,Rumah Vanesa,"Jl. DR. Setiabudi Ahusen No.42, Kel Ahusen, Kec. Sirimau, Kota Ambon, Maluku","Kota Ambon, Maluku",MALUKU,,Indonesia,,,,-37.003.861,128.183.022,https://maps.google.com/?cid=0x0:0x4bdd20ca3aed38e8,
perumahan,Komplek perumahan,Ibu Susi Souisa' Home,"Jl. DR. Setiabudi No.64, Kel Ahusen, Kec. Sirimau, Kota Ambon, Maluku 97127","Kel Ahusen, Kec. Sirimau, Kota Ambon",MALUKU,97127.0,Indonesia,,,,-36.992.494,1.281.836.026,https://maps.google.com/?cid=0x0:0xa2a50743bb872cea,
perumahan,Komplek perumahan,RAPHAEL KESAULY,"Jalan Da Silva Gg. 2 No.15, Kel Ahusen, Kec. Sirimau, Kota Ambon, Maluku","Kota Ambon, Maluku",MALUKU,,Indonesia,,,,-37.004.193,1.281.822.807,https://maps.google.com/?cid=0x0:0xc1b14f22d19a2464,
perumahan,Komplek perumahan,GEBRO HOME,"75XJ+RWJ LORONG DA SILVA, Gg. 2, Kel Rijali, Kec. Sirimau, Kota Ambon, Maluku","Kota Ambon, Maluku",MALUKU,,Indonesia,82199636536,,,-37.004.193,1.281.822.807,https://maps.google.com/?cid=0x0:0xa88f322d525e3388,
perumahan,Komplek perumahan,Kost ceria,"852M+53G, Kel Ahusen, Kec. Sirimau, Kota Ambon, Maluku","Kota Ambon, Maluku",MALUKU,,Indonesia,,,,-369.957,1.281.827.181,https://maps.google.com/?cid=0x0:0xf8ae3bb9705f236c,
perumahan,Komplek perumahan,keluarga Lokollo,"852M+563, Jl. DR. Setiabudi, Kel Ahusen, Kec. Sirimau, Kota Ambon, Maluku","Kota Ambon, Maluku",MALUKU,,Indonesia,,,,-3.699.617,1.281.830.355,https://maps.google.com/?cid=0x0:0x100bc641b73f5,
perumahan,Komplek perumahan,Guantero home,"75XM+H6Q, Jl. Batu Kerbau, Kel Batu Gaja, Kec. Sirimau, Kota Ambon, Maluku","Kota Ambon, Maluku",MALUKU,,Indonesia,,,,-37.010.455,1.281.831.139,https://maps.google.com/?cid=0x0:0x7db5305ec98f2118,
perumahan,Perhimpunan Pengembang Perumahan,Kel. Versteegh,"852M+7MH, Kel Ahusen, Kec. Sirimau, Kota Ambon, Maluku","Kota Ambon, Maluku",MALUKU,,Indonesia,,,,-36.993.128,128.184.233,https://maps.google.com/?cid=0x0:0x6db73dff094b8364,
perumahan,Perumahan,Kel. da Costa,"75XJ+RW9, Jl. Diponegoro, Kel Ahusen, Kec. Sirimau, Kota Ambon, Maluku","Kota Ambon, Maluku",MALUKU,,Indonesia,,,,-37.004.674,1.281.823.568,https://maps.google.com/?cid=0x0:0x336203e3370b2754,
perumahan,Komplek perumahan,Kos Fella Gaspersz,"Jl. DR. Setiabudi No.15, Kel Ahusen, Kec. Sirimau, Kota Ambon, Maluku","Kota Ambon, Maluku",MALUKU,,Indonesia,,,,-37.005.627,1.281.840.338,https://maps.google.com/?cid=0x0:0x2617c43e7f5a3e23,
perumahan,perumahan,EXA 53 Valentine,"Jl. DR. Setiabudi No.53, Kel Ahusen, Kec. Sirimau, Kota Ambon, Maluku","Kota Ambon, Maluku",MALUKU,,Indonesia,,,,-36.993.077,128.182.907,https://maps.google.com/?cid=0x0:0x68a8bd330cf18fdb,
perumahan,Komplek perumahan,ROY NOYA,"kode Pos 97113, Jl. Diponegoro No.Atas, RT.003/RW.004, Urimesing, Kec. Nusaniwe, Kota Ambon, Maluku","Kota Ambon, Maluku",MALUKU,,Indonesia,,,,-37.004.193,1.281.822.807,https://maps.google.com/?cid=0x0:0x225083d4af7bb8b9,
perumahan,Kantor Perusahaan,Asrama Militer Valentine Kodam XV/Ptm,"852M+84P, Jl. DR. Setiabudi, Kel Ahusen, Kec. Sirimau, Kota Ambon, Maluku","Kota Ambon, Maluku",MALUKU,,Indonesia,,,,-36.991.598,1.281.828.291,https://maps.google.com/?cid=0x0:0xfe1d8836bb1abed0,
perumahan,perumahan,Perumahan,"8695+JQP, Batu Merah, Kec. Sirimau, Kota Ambon, Maluku","Kota Ambon, Maluku",MALUKU,,Indonesia,,,,-36.809.232,1.282.094.605,https://maps.google.com/?cid=0x0:0x69eeb4a06dbcd52e,
perumahan,Penginapan,CitraLand Ambon,"Jl. Citraland Utama No.Kav. 1, Lateri, Kec. Baguala, Kota Ambon, Maluku 97231","Lateri, Kec. Baguala, Kota Ambon",MALUKU,97231.0,Indonesia,8114785899,,,-36.425.767,1.282.398.854,https://maps.google.com/?cid=0x0:0xe2d14bbca95ee287,
perumahan,perumahan,Kec. Sirimau,"Kota Ambon, Maluku","Kota Ambon, Maluku",MALUKU,,Indonesia,,,,-36.817.134,1.281.894.692,https://maps.google.com/?cid=0x0:0xb97cce2aeb4856a8,
perumahan,China,Imperial Restaurant,"Jl. Diponegoro No.53, Kel Ahusen, Kec. Sirimau, Kota Ambon, Maluku 97127","Kel Ahusen, Kec. Sirimau, Kota Ambon",MALUKU,97127.0,Indonesia,911315333,,,-37.005.626,1.281.826.384,https://maps.google.com/?cid=0x0:0xd6c9b6aab23831e7,
perumahan,Pembangunan Perumahan,Rumah randi tomia,"85FR+CH8, Jl. Kapaha, Pandan Kasturi, Kec. Sirimau, Kota Ambon, Maluku","Kota Ambon, Maluku",MALUKU,,Indonesia,,,,-36.766.184,1.281.918.377,https://maps.google.com/?cid=0x0:0x8657dcf0ab7c484c,
perumahan,Komplek perumahan,Kompleks miring,"Jl. Jenderal Sudirman No.8, Batu Merah, Kec. Sirimau, Kota Ambon, Maluku 97128","Batu Merah, Kec. Sirimau, Kota Ambon",MALUKU,97128.0,Indonesia,,,,-36.787.267,12.819.096,https://maps.google.com/?cid=0x0:0x10ec191b5dfb1d0a,
perumahan,Komplek perumahan,Kartal Com,"859R+G9P, Batu Merah, Kec. Sirimau, Kota Ambon, Maluku","Kota Ambon, Maluku",MALUKU,,Indonesia,,,,-36.811.632,128.190.921,https://maps.google.com/?cid=0x0:0xb9a7e57698b79e94,
perumahan,perumahan,Aljhi Home,"858Q+RV7, Batu Merah, Kec. Sirimau, Kota Ambon, Maluku","Kota Ambon, Maluku",MALUKU,,Indonesia,,,,-36.829.696,1.281.896.567,https://maps.google.com/?cid=0x0:0x1664c7495815d43f,
perumahan,Komplek perumahan,SANMAS HOME,"85FR+6WF, Jl. Kapaha, Pandan Kasturi, Kec. Sirimau, Kota Ambon, Maluku","Kota Ambon, Maluku",MALUKU,,Indonesia,,,,-3.676.947,1.281.923.098,https://maps.google.com/?cid=0x0:0x756a088d3b8b9257,
perumahan,Komplek perumahan,"Kompas,Kompleks Santri","Jalan Kahena Kayu 1, Batu Merah, Kec. Sirimau, Kota Ambon, Maluku","Kota Ambon, Maluku",MALUKU,,Indonesia,,,,-36.829.696,1.281.896.567,https://maps.google.com/?cid=0x0:0x656807f873e73f13,
perumahan,Komplek perumahan,H. Idris Kiat,"857Q+M8R, Batu Merah, Kec. Sirimau, Kota Ambon, Maluku","Kota Ambon, Maluku",MALUKU,,Indonesia,,,,-36.857.651,1.281.882.728,https://maps.google.com/?cid=0x0:0x5831f7870313070,
perumahan,Komplek perumahan,Kota Ambon kabupaten Maluku kecamatan Sirimau,"85CV+HFC, Jl. Jenderal Sudirman, Pandan Kasturi, Kec. Sirimau, Kota Ambon, Maluku","Kota Ambon, Maluku",MALUKU,,Indonesia,,,,-36.785.597,128.193.639,https://maps.google.com/?cid=0x0:0x60d9768f2b8b9584,
perumahan,Komplek perumahan,Rumah keluarag latar,"858Q+RV7, Jl. Galunggung, Batu Merah, Kec. Sirimau, Kota Ambon, Maluku","Kota Ambon, Maluku",MALUKU,,Indonesia,,,,-36.829.625,1.281.896.719,https://maps.google.com/?cid=0x0:0xbe8349c0f4e90cf4,
perumahan,Komplek perumahan,Rumah Radja Kaya,"85CR+WMV, Pandan Kasturi, Kec. Sirimau, Kota Ambon, Maluku","Kota Ambon, Maluku",MALUKU,,Indonesia,,,,-36.776.375,1.281.916.719,https://maps.google.com/?cid=0x0:0xd3366088789a2f8a,
perumahan,perumahan,Maluku 97128,"Batu Merah, Kec. Sirimau, Kota Ambon, Maluku","Kota Ambon, Maluku",MALUKU,,Indonesia,,,,-36.827.473,1.281.907.702,https://maps.google.com/?cid=0x0:0x25ce4f908fabcf46,
perumahan,Pembangunan Perumahan,Depression's house,"Jl. Jenderal Sudirman No.88, RT./RW/RW.001/008, Negeri, Batu Merah, Kec. Sirimau, Kota Ambon, Maluku 97128","RT./RW/RW.001/008, Negeri, Batu Merah, Kec. Sirimau, Kota Ambon",MALUKU,97128.0,Indonesia,,,,-3.682.732,1.281.908.639,https://maps.google.com/?cid=0x0:0x70507cefede11f85,
perumahan,perumahan,Perumahan,"8695+JQP, Batu Merah, Kec. Sirimau, Kota Ambon, Maluku","Kota Ambon, Maluku",MALUKU,,Indonesia,,,,-36.809.232,1.282.094.605,https://maps.google.com/?cid=0x0:0x69eeb4a06dbcd52e,
perumahan,Komplek perumahan,Rumah Chepo,"858R+C4Q, Batu Merah, Kec. Sirimau, Kota Ambon, Maluku","Kota Ambon, Maluku",MALUKU,,Indonesia,,,,-3.683.911,1.281.903.658,https://maps.google.com/?cid=0x0:0xa41a16d0d593654b,
perumahan,Komplek perumahan,Rumah Afifah/Dinda/ila/Azriel,"Kebun cengkeh RT 01Batu, Merah, Kec. Sirimau, Kota Ambon, Maluku","Kota Ambon, Maluku",MALUKU,,Indonesia,,,,-36.826.407,1.281.915.846,https://maps.google.com/?cid=0x0:0x9aa7200566019b30,
perumahan,Komplek perumahan,Evita Sangadji,"858R+QRP, Batu Merah, Kec. Sirimau, Kota Ambon, Maluku","Kota Ambon, Maluku",MALUKU,,Indonesia,,,,-36.827.902,1.281.921.505,https://maps.google.com/?cid=0x0:0xbb89e2888af3eb4f,
perumahan,Penginapan,CitraLand Ambon,"Jl. Citraland Utama No.Kav. 1, Lateri, Kec. Baguala, Kota Ambon, Maluku 97231","Lateri, Kec. Baguala, Kota Ambon",MALUKU,97231.0,Indonesia,8114785899,,,-36.425.767,1.282.398.854,https://maps.google.com/?cid=0x0:0xe2d14bbca95ee287,
perumahan,Komplek perumahan,Rumah Lisaholet,"Batu Merah, Kec. Sirimau, Kota Ambon, Maluku","Kota Ambon, Maluku",MALUKU,,Indonesia,,,,-36.836.781,1.281.901.456,https://maps.google.com/?cid=0x0:0x14c0e7dc76a619f2,
perumahan,Komplek perumahan,Rumah tangga,"858R+WJW, Jl. Galunggung, Batu Merah, Kec. Sirimau, Kota Ambon, Maluku","Kota Ambon, Maluku",MALUKU,,Indonesia,,,,-36.826.407,1.281.915.846,https://maps.google.com/?cid=0x0:0x8ebda7cc892f2f50,
perumahan,Komplek perumahan,ARINABENELSICEMERLANG,"858R+WJW, RT.008/RW.009, Batu Merah, Kec. Sirimau, Kota Ambon, Maluku","Kota Ambon, Maluku",MALUKU,,Indonesia,,,,-36.826.407,1.281.915.846,https://maps.google.com/?cid=0x0:0x5594019742b23ee1,
perumahan,Pembangunan Perumahan,nabila.r,"858Q+7W6, Batu Merah, Kec. Sirimau, Kota Ambon, Maluku","Kota Ambon, Maluku",MALUKU,,Indonesia,,,,-36.843.714,1.281.900.007,https://maps.google.com/?cid=0x0:0xe6c0d77ba76f6c63,
perumahan,Komplek perumahan,Kamar,"858R+R5X, Jl. Galunggung, Batu Merah, Kec. Sirimau, Kota Ambon, Maluku","Kota Ambon, Maluku",MALUKU,,Indonesia,,,,-36.828.757,1.281.904.857,https://maps.google.com/?cid=0x0:0x9e0ba9097003003c,
perumahan,Komplek perumahan,Rumah Payapo,"859R+3H5, Lorong Teratai Jl. Galunggung, Batu Merah, Kec. Sirimau, Kota Ambon, Maluku","Kota Ambon, Maluku",MALUKU,,Indonesia,,,,-3.682.363,128.191.142,https://maps.google.com/?cid=0x0:0x2a6fd0a643ae7e9e,
perumahan,perumahan,Marlon Husein Wattiheluw,"858R+MF7, Jl. Galunggung, Batu Merah, Kec. Sirimau, Kota Ambon, Maluku","Kota Ambon, Maluku",MALUKU,,Indonesia,,,,-36.833.336,1.281.911.841,https://maps.google.com/?cid=0x0:0xf03138253df84e86,
perumahan,Pembangunan Perumahan,Pondokan abadi,"858R+W95, Batu Merah, Kec. Sirimau, Kota Ambon, Maluku","Kota Ambon, Maluku",MALUKU,,Indonesia,,,,-36.827.319,128.190.972,https://maps.google.com/?cid=0x0:0x9a884b63bb6471fb,
perumahan,Komplek perumahan,Mama ir,"858R+Q24, Batu Merah, Kec. Sirimau, Kota Ambon, Maluku","Kota Ambon, Maluku",MALUKU,,Indonesia,,,,-3.682.992,128.190.026,https://maps.google.com/?cid=0x0:0x255b4c5e4632f5f9,
perumahan,Komplek perumahan,Rumah Hj. Ahmad Sahupala,"859R+23M, Jl. Galunggung, Batu Merah, Kec. Sirimau, Kota Ambon, Maluku","Kota Ambon, Maluku",MALUKU,,Indonesia,,,,-36.824.619,1.281.902.152,https://maps.google.com/?cid=0x0:0xa6140cbf128e96d5,
perumahan,Komplek perumahan,Rmh arobi suatkab,"858R+93M, Jl. Galunggung, Batu Merah, Kec. Sirimau, Kota Ambon, Maluku","Kota Ambon, Maluku",MALUKU,,Indonesia,,,,-368.403,1.281.901.617,https://maps.google.com/?cid=0x0:0x72de3f4ebab34bba,
perumahan,Rumah wisata,Debi Attamimi House,"858V+C4F, Jl. Galunggung Lorong Tembok, Batu Merah, Kec. Sirimau, Kota Ambon, Maluku","Kota Ambon, Maluku",MALUKU,,Indonesia,,,,-3.682.898,1.281.905.009,https://maps.google.com/?cid=0x0:0x7c8f706644bc92be,
perumahan,Komplek perumahan,Rumah pak haji,"858R+QRP, Batu Merah, Kec. Sirimau, Kota Ambon, Maluku","Kota Ambon, Maluku",MALUKU,,Indonesia,,,,-36.830.132,1.281.922.016,https://maps.google.com/?cid=0x0:0xc9feb64c94d52338,
perumahan,Komplek perumahan,Bukit indah asri,"8637+9FM, Soya, Kec. Sirimau, Kota Ambon, Maluku","Kota Ambon, Maluku",MALUKU,,Indonesia,,,,-36.965.297,1.282.136.813,https://maps.google.com/?cid=0x0:0x5a978d103f630651,
perumahan,Komplek perumahan,PERUMAHAN BUKIT HIJAU URIMESSING,"Urimesing, Kec. Nusaniwe, Kota Ambon, Maluku","Kota Ambon, Maluku",MALUKU,,Indonesia,,,,-37.169.577,128.192.707,https://maps.google.com/?cid=0x0:0x641f0754f6c2ac10,
perumahan,Komplek perumahan,Air isi ulang Lamaliku,"858R+MFV, Jl. Galunggung, Batu Merah, Kec. Sirimau, Kota Ambon, Maluku","Kota Ambon, Maluku",MALUKU,,Indonesia,,,,-3.683.262,1.281.911.716,https://maps.google.com/?cid=0x0:0x99c5de2bf69a24d5,
perumahan,Jasa Konstruksi dan Bangunan,KELUARGA MUSIIN,"858R+H88, Jl. Galunggung, RT.002/RW.06, Batu Merah, Kec. Sirimau, puncak, Maluku","puncak, Maluku",MALUKU,,Indonesia,,,,-36.835.861,1.281.908.359,https://maps.google.com/?cid=0x0:0xd63a7b03c97e54d,
perumahan,perumahan,Maluku 97129,"Kel Batu Meja, Kec. Sirimau, Kota Ambon, Maluku","Kota Ambon, Maluku",MALUKU,,Indonesia,,,,-36.986.895,1.281.868.726,https://maps.google.com/?cid=0x0:0xdbce3da1bd5931ef,
perumahan,Pondok,Perumahan Bank Indonesia Batu Meja,"Jl. Jend. A Yani No.21, Kel Batu Meja, Kec. Sirimau, Kota Ambon, Maluku","Kota Ambon, Maluku",MALUKU,,Indonesia,,,,-36.985.108,1.281.858.185,https://maps.google.com/?cid=0x0:0xe5a94347f7377b8b,
perumahan,Pembangunan Perumahan,Linansera Famili,"Aspol kayu putih Jl. Sirimau blok H-1, Kel Batu Meja, Kec. Sirimau, Kota Ambon, Maluku","Kota Ambon, Maluku",MALUKU,,Indonesia,,,,-3.698.366,1.281.867.195,https://maps.google.com/?cid=0x0:0x6d3b6707a67ff41b,
perumahan,Pembangunan Perumahan,R.Dasmasela,"852P+PJ5, Jl. Skip Bawah, RT.003/RW.003, Kel Batu Meja, Kec. Sirimau, Kota Ambon, Maluku","Kota Ambon, Maluku",MALUKU,,Indonesia,,,,-36.982.453,1.281.866.202,https://maps.google.com/?cid=0x0:0xee9b00be833178ca,
perumahan,Komplek perumahan,Wilem Pieter Maitimu,"Jl, Kel Batu Meja, Kec. Sirimau, Kota Ambon, Maluku 97125","Kel Batu Meja, Kec. Sirimau, Kota Ambon",MALUKU,97125.0,Indonesia,,,,-36.969.788,1.281.871.523,https://maps.google.com/?cid=0x0:0x53d75598e681bccc,
perumahan,Pembangunan Perumahan,Elsa Picarima,"852P+GMR, Kel Batu Meja, Kec. Sirimau, Kota Ambon, Maluku","Kota Ambon, Maluku",MALUKU,,Indonesia,,,,-36.986.343,1.281.866.422,https://maps.google.com/?cid=0x0:0x46eef8f640675ef8,
perumahan,Komplek perumahan,timo kalwedo,"852P+JV2, Kel Batu Meja, Kec. Sirimau, Kota Ambon, Maluku","Kota Ambon, Maluku",MALUKU,,Indonesia,,,,-36.984.779,1.281.871.324,https://maps.google.com/?cid=0x0:0xada29dd655d6ac12,
perumahan,Kantor Perusahaan,lahani camp,"Jl. Sirimau No.12, Kel Batu Meja, Kec. Sirimau, Kota Ambon, Maluku 97123","Kel Batu Meja, Kec. Sirimau, Kota Ambon",MALUKU,97123.0,Indonesia,,,,-36.976.964,1.281.866.849,https://maps.google.com/?cid=0x0:0x93c47a83edee5607,
perumahan,Kompleks Apartemen,Batu meja jln,"Jl. Rijali No.6, Kel Rijali, Kec. Sirimau, Kota Ambon, Maluku","Kota Ambon, Maluku",MALUKU,,Indonesia,,,,-36.972.561,1.281.871.941,https://maps.google.com/?cid=0x0:0x205c0b409e0844c0,
perumahan,Penginapan,CitraLand Ambon,"Jl. Citraland Utama No.Kav. 1, Lateri, Kec. Baguala, Kota Ambon, Maluku 97231","Lateri, Kec. Baguala, Kota Ambon",MALUKU,97231.0,Indonesia,8114785899,,,-36.425.767,1.282.398.854,https://maps.google.com/?cid=0x0:0xe2d14bbca95ee287,
perumahan,Pembangunan Perumahan,Kintal keluarga GOMIES,"853P+4J2, Kel Batu Meja, Kec. Sirimau, Kota Ambon, Maluku","Kota Ambon, Maluku",MALUKU,,Indonesia,,,,-36.971.814,1.281.865.188,https://maps.google.com/?cid=0x0:0xa6559b6401681efe,
perumahan,Kedai Kopi,Kedai Kopi LumiÃ¨re,"852P+GMQ, Kel Batu Meja, Kec. Sirimau, Kota Ambon, Maluku","Kota Ambon, Maluku",MALUKU,,Indonesia,9113831578,,,-36.986.714,1.281.867.331,https://maps.google.com/?cid=0x0:0x3f100b1f9224262c,
perumahan,Rumah Kaca,Shalleta,"Kel Batu Meja, Kec. Sirimau, Kota Ambon, Maluku 97129","Kec. Sirimau, Kota Ambon",MALUKU,97129.0,Indonesia,85198629837,,,-36.986.673,1.281.868.488,https://maps.google.com/?cid=0x0:0x2d2374b66707c37f,
perumahan,Bank Pangan,Maluku Food.Online,"853P+4MX, Kel Batu Meja, Kec. Sirimau, Kota Ambon, Maluku","Kota Ambon, Maluku",MALUKU,,Indonesia,85243169910,,,-3.697.132,1.281.867.288,https://maps.google.com/?cid=0x0:0x5633bf892dd062e,
perumahan,Gereja,Gereja Suara ketebusan,"853P+7Q3, Kel Batu Meja, Kec. Sirimau, Kota Ambon, Maluku","Kota Ambon, Maluku",MALUKU,,Indonesia,,,,-3.696.871,1.281.869.236,https://maps.google.com/?cid=0x0:0xe4e364e0e21d72ca,
perumahan,perumahan,"KzMwaPqFLo_U1sQPhdLeiAk-,null,null,1,null,""https://www.google.com/maps/preview/place/Rumah/@-3.700746,128.1926515,3981a,13.1y/datau003d!4m2!3m1!1s0x2d6ce9199bf15637:0x5c6f38a761243e85""",,,MALUKU,,Indonesia,911354276,,,-3.700.746,1.281.926.515,https://maps.google.com/?cid=0x0:0x5c6f38a761243e85,
perumahan,Komplek perumahan,kota ambon,"85RR+VJC, Rumah Tiga, Kec. Tlk. Ambon, Kota Ambon, Maluku","Kota Ambon, Maluku",MALUKU,,Indonesia,,,,-36.579.216,1.281.914.915,https://maps.google.com/?cid=0x0:0xa9c4ce8230cf57e9,
perumahan,Komplek perumahan,Ambon,"85VR+R8R, Rumah Tiga, Kec. Tlk. Ambon, Kota Ambon, Maluku","Kota Ambon, Maluku",MALUKU,,Indonesia,,,,-36.553.932,1.281.907.723,https://maps.google.com/?cid=0x0:0xf0b9eee6d0b481cc,
perumahan,Komplek perumahan,Maluku indonesia,"85VR+R8R, Rumah Tiga, Kec. Tlk. Ambon, Kota Ambon, Maluku","Kota Ambon, Maluku",MALUKU,,Indonesia,,,,-36.553.932,1.281.907.723,https://maps.google.com/?cid=0x0:0x34a5217a7c28190,
perumahan,Komplek perumahan,Kel. Alfry Limba,"85VW+8MQ, Rumah Tiga, Kec. Tlk. Ambon, Kota Ambon, Maluku","Kota Ambon, Maluku",MALUKU,,Indonesia,,,,-36.569.629,1.281.967.904,https://maps.google.com/?cid=0x0:0x7353838eb3832c92,
perumahan,Komplek perumahan,Faldiyopan,"85WP+438, Tihu, Kec. Tlk. Ambon, Kota Ambon, Maluku","Kota Ambon, Maluku",MALUKU,,Indonesia,,,,-365.472,1.281.852.045,https://maps.google.com/?cid=0x0:0x972f8b1b83481443,
perumahan,Komplek perumahan,Keluarga B Anthony,"85QR+JHC, Rumah Tiga, Kec. Tlk. Ambon, Kota Ambon, Maluku","Kota Ambon, Maluku",MALUKU,,Indonesia,,,,-36.609.459,1.281.913.941,https://maps.google.com/?cid=0x0:0xc8bbf9618d2a791e,
perumahan,Komplek perumahan,Gandaria Rumah Tiga,"85RR+P33, Gandaria, Rumah Tiga, Kec. Tlk. Ambon, Kota Ambon, Maluku","Kota Ambon, Maluku",MALUKU,,Indonesia,85215997657,,,-36.582.373,1.281.901.843,https://maps.google.com/?cid=0x0:0x6b3f1ddab2aec059,
perumahan,Komplek perumahan,Rumah Arven,"85WJ+CV2, Rumah Tiga, Kec. Tlk. Ambon, Kota Ambon, Maluku","Kota Ambon, Maluku",MALUKU,,Indonesia,,,,-36.539.763,1.281.821.372,https://maps.google.com/?cid=0x0:0xf0e0668e6a834e61,
perumahan,Komplek perumahan,Lovprinc home,"Wai Lela, Rumah Tiga, Kec. Tlk. Ambon, Kota Ambon, Maluku","Kota Ambon, Maluku",MALUKU,,Indonesia,,,,-36.558.482,1.281.827.163,https://maps.google.com/?cid=0x0:0x5e9757e040e74568,
perumahan,Komplek perumahan,Rumah tiga pasar,"85VR+R8R, Rumah Tiga, Kec. Tlk. Ambon, Kota Ambon, Maluku","Kota Ambon, Maluku",MALUKU,,Indonesia,,,,-36.553.932,1.281.907.723,https://maps.google.com/?cid=0x0:0x6d00d0f8556f1acc,
perumahan,Komplek perumahan,Seilatu Family,"85VW+49J, Rumah Tiga, Kec. Tlk. Ambon, Kota Ambon, Maluku","Kota Ambon, Maluku",MALUKU,,Indonesia,,,,-36.571.561,1.281.958.905,https://maps.google.com/?cid=0x0:0xa1292fd440142c21,
perumahan,Komplek perumahan,Komplek Hualoy,"85QJ+JW7, Rumah Tiga, Kec. Tlk. Ambon, Kota Ambon, Maluku","Kota Ambon, Maluku",MALUKU,,Indonesia,,,,-36.609.536,1.281.822.974,https://maps.google.com/?cid=0x0:0x5ed50362ca173f65,
perumahan,Penginapan,CitraLand Ambon,"Jl. Citraland Utama No.Kav. 1, Lateri, Kec. Baguala, Kota Ambon, Maluku 97231","Lateri, Kec. Baguala, Kota Ambon",MALUKU,97231.0,Indonesia,8114785899,,,-36.425.767,1.282.398.854,https://maps.google.com/?cid=0x0:0xe2d14bbca95ee287,
perumahan,Komplek perumahan,Rumah Keluarga Bekak,"85RW+F4X, Rumah Tiga, Kec. Tlk. Ambon, Kota Ambon, Maluku","Kota Ambon, Maluku",MALUKU,,Indonesia,,,,-36.587.645,1.281.953.502,https://maps.google.com/?cid=0x0:0xbe9a06ea279e7474,
perumahan,Komplek perumahan,Awe rumah,"Gandaria No.15, Rumah Tiga, Kec. Tlk. Ambon, Kota Ambon, Maluku","Kota Ambon, Maluku",MALUKU,,Indonesia,,,,-3.657.777,1.281.919.223,https://maps.google.com/?cid=0x0:0x4d8ffdce56079ad0,
perumahan,Komplek perumahan,Perempatan neraka,"85VM+VP4, Rumah Tiga, Kec. Tlk. Ambon, Kota Ambon, Maluku","Kota Ambon, Maluku",MALUKU,,Indonesia,,,,-36.555.058,128.184.185,https://maps.google.com/?cid=0x0:0xa5d017099557c700,
perumahan,Gedung Apartemen,Lorong thallezu,"85VR+5R3, Rumah Tiga, Kec. Tlk. Ambon, Kota Ambon, Maluku","Kota Ambon, Maluku",MALUKU,,Indonesia,,,,-36.571.268,1.281.920.961,https://maps.google.com/?cid=0x0:0x82884bbf2ae01cb5,
perumahan,Komplek perumahan,Lorong masuk rumah tiga,"85QH+F5V, Rumah Tiga, Kec. Tlk. Ambon, Kota Ambon, Maluku","Kota Ambon, Maluku",MALUKU,,Indonesia,,,,-3.661.052,1.281.779.134,https://maps.google.com/?cid=0x0:0x37d33b9d5a69b4bb,
perumahan,Komplek perumahan,Arga,"85VR+R8R, Rumah Tiga, Kec. Tlk. Ambon, Kota Ambon, Maluku","Kota Ambon, Maluku",MALUKU,,Indonesia,,,,-36.553.932,1.281.907.723,https://maps.google.com/?cid=0x0:0x6804aa43876a9f75,
perumahan,Komplek perumahan,Perumahan pasir putih village,"955W+RQ, Poka, Kec. Tlk. Ambon, Kota Ambon, Maluku","Kota Ambon, Maluku",MALUKU,,Indonesia,,,,-36.404.158,1.281.969.443,https://maps.google.com/?cid=0x0:0xcc4b2b6dafe3fe53,
perumahan,perumahan,Kota Ambon,"Kota Ambon, Maluku","Kota Ambon, Maluku",MALUKU,,Indonesia,,,,-36.553.932,1.281.907.723,https://maps.google.com/?cid=0x0:0x26030bfcc0920512,
perumahan,Komplek perumahan,Perumnas,"952Q+QQP, Poka, Kec. Tlk. Ambon, Kota Ambon, Maluku","Kota Ambon, Maluku",MALUKU,,Indonesia,,,,-36.480.334,1.281.894.399,https://maps.google.com/?cid=0x0:0xbd8438c4ea0df79c,
perumahan,Komplek perumahan,Rumah H.Abdul Rengur,"953R+C4J, Poka, Kec. Tlk. Ambon, Kota Ambon, Maluku","Kota Ambon, Maluku",MALUKU,,Indonesia,,,,-36.464.154,1.281.902.736,https://maps.google.com/?cid=0x0:0x5d7007949443630d,
perumahan,Komplek perumahan,Perumahan Pemda 1,"954R+4FP, Poka, Kec. Tlk. Ambon, Kota Ambon, Maluku","Kota Ambon, Maluku",MALUKU,,Indonesia,,,,-36.446.711,1.281.911.961,https://maps.google.com/?cid=0x0:0x7a4eab92d90de307,
perumahan,Komplek perumahan,Rumah Kel F Persulessy,"85VW+5P8, Rumah Tiga, Kec. Tlk. Ambon, Kota Ambon, Maluku","Kota Ambon, Maluku",MALUKU,,Indonesia,82198870229,,,-36.571.055,1.281.968.096,https://maps.google.com/?cid=0x0:0xe3858f804dc96fad,
perumahan,Komplek perumahan,Kalay's Home,"85RR+VJ3, Rumah Tiga, Kec. Tlk. Ambon, Kota Ambon, Maluku","Kota Ambon, Maluku",MALUKU,,Indonesia,,,,-36.578.644,1.281.915.525,https://maps.google.com/?cid=0x0:0x81cf8d9846289b28,
perumahan,Komplek perumahan,Thaifur ahmad kaplale,"85RV+7QQ, Rumah Tiga, Kec. Tlk. Ambon, Kota Ambon, Maluku","Kota Ambon, Maluku",MALUKU,,Indonesia,,,,-36.593.868,1.281.945.968,https://maps.google.com/?cid=0x0:0xf52cba1824ff8ace,
perumahan,Komplek perumahan,Randy Home,"85VV+35C, Chr. Soplanit, Rumah Tiga, Kec. Tlk. Ambon, Kota Ambon, Maluku","Kota Ambon, Maluku",MALUKU,,Indonesia,,,,-36.577.224,1.281.925.303,https://maps.google.com/?cid=0x0:0x806f1c8b4f9a4240,
perumahan,Komplek perumahan,Kel Ubra,"85VM+MVF, Wai Lela, Rumah Tiga, Kec. Tlk. Ambon, Kota Ambon, Maluku","Kota Ambon, Maluku",MALUKU,,Indonesia,,,,-36.558.076,1.281.846.692,https://maps.google.com/?cid=0x0:0x912096d99e3b0b30,
perumahan,perumahan,Maluku 97234,"Hative Besar, Kec. Tlk. Ambon, Kota Ambon, Maluku","Kota Ambon, Maluku",MALUKU,,Indonesia,,,,-3.671.066,1.281.467.661,https://maps.google.com/?cid=0x0:0x8a0032817d51453f,
perumahan,Pembangunan Perumahan,Florida Mulwere RICE COOKER,"84HW+57C, Hative Besar, Kec. Tlk. Ambon, Kota Ambon, Maluku","Kota Ambon, Maluku",MALUKU,,Indonesia,,,,-36.720.695,1.281.456.506,https://maps.google.com/?cid=0x0:0x651eeeb54ed6a05c,
perumahan,Komplek perumahan,Talahaturuson Family,"84HW+GG5, Hative Besar, Kec. Tlk. Ambon, Kota Ambon, Maluku","Kota Ambon, Maluku",MALUKU,,Indonesia,,,,-36.712.386,1.281.463.461,https://maps.google.com/?cid=0x0:0x64d5fa6e488db70c,
perumahan,perumahan,Keluarga Heppy Lelapary,"84HW+GVC, Jl. Dr. J. Leimena, Hative Besar, Kec. Tlk. Ambon, Kota Ambon, Maluku","Kota Ambon, Maluku",MALUKU,,Indonesia,,,,-36.707.108,1.281.473.248,https://maps.google.com/?cid=0x0:0xdf4b38b895ed897a,
perumahan,Komplek perumahan,Keluarga Kayadoe,"84HW+GRQ, Jl. Dr. J. Leimena, Hative Besar, Kec. Tlk. Ambon, Kota Ambon, Maluku","Kota Ambon, Maluku",MALUKU,,Indonesia,,,,-36.711.746,1.281.471.162,https://maps.google.com/?cid=0x0:0x15f97cf8345e47d7,
perumahan,Komplek perumahan,Ivelsolha Home,"84HW+67X, Jl. Dr. J. Leimena, Hative Besar, Kec. Tlk. Ambon, Kota Ambon, Maluku","Kota Ambon, Maluku",MALUKU,,Indonesia,,,,-36.718.957,1.281.457.272,https://maps.google.com/?cid=0x0:0x69689eff31495d88,
perumahan,perumahan,Pastori hative besar SOUHURU,"84HW+PP5, Jl. Dr. J. Leimena, Hative Besar, Kec. Tlk. Ambon, Kota Ambon, Maluku","Kota Ambon, Maluku",MALUKU,,Indonesia,,,,-367.073,1.281.468.447,https://maps.google.com/?cid=0x0:0x52cacfd07f10bae6,
perumahan,Hostel,Kos Grace,"Rumah tiga samping rumah sakit RSUP dr. johannes Leimena, Hative Besar, Kec. Tlk. Ambon, Kota Ambon, Maluku 97234","Hative Besar, Kec. Tlk. Ambon, Kota Ambon",MALUKU,97234.0,Indonesia,85358275113,,,-36.710.958,1.281.467.923,https://maps.google.com/?cid=0x0:0xfb69fc0eca3b5278,
perumahan,Komplek perumahan,Perumahan Ambon Bay Regency,"966W+783, Passo, Kec. Baguala, Kota Ambon, Maluku 97231","Passo, Kec. Baguala, Kota Ambon",MALUKU,97231.0,Indonesia,,,,-36.393.684,1.282.458.006,https://maps.google.com/?cid=0x0:0x5d4f838ba5a25186,
perumahan,Komplek perumahan,Kel Ubra,"85VM+MVF, Wai Lela, Rumah Tiga, Kec. Tlk. Ambon, Kota Ambon, Maluku","Kota Ambon, Maluku",MALUKU,,Indonesia,,,,-36.558.076,1.281.846.692,https://maps.google.com/?cid=0x0:0x912096d99e3b0b30,
perumahan,Komplek perumahan,kota ambon,"85RR+VJC, Rumah Tiga, Kec. Tlk. Ambon, Kota Ambon, Maluku","Kota Ambon, Maluku",MALUKU,,Indonesia,,,,-36.579.216,1.281.914.915,https://maps.google.com/?cid=0x0:0xa9c4ce8230cf57e9,
perumahan,Komplek perumahan,Kel J'Five,"85VM+P57, Rumah Tiga, Kec. Tlk. Ambon, Kota Ambon, Maluku","Kota Ambon, Maluku",MALUKU,,Indonesia,,,,-36.557.193,1.281.829.351,https://maps.google.com/?cid=0x0:0xb6d1abdc6c6b660e,
perumahan,Komplek perumahan,Maluku indonesia,"85VR+R8R, Rumah Tiga, Kec. Tlk. Ambon, Kota Ambon, Maluku","Kota Ambon, Maluku",MALUKU,,Indonesia,,,,-36.553.932,1.281.907.723,https://maps.google.com/?cid=0x0:0x34a5217a7c28190,
perumahan,Komplek perumahan,Kel. Alfry Limba,"85VW+8MQ, Rumah Tiga, Kec. Tlk. Ambon, Kota Ambon, Maluku","Kota Ambon, Maluku",MALUKU,,Indonesia,,,,-36.569.629,1.281.967.904,https://maps.google.com/?cid=0x0:0x7353838eb3832c92,
perumahan,Komplek perumahan,Lovprinc home,"Wai Lela, Rumah Tiga, Kec. Tlk. Ambon, Kota Ambon, Maluku","Kota Ambon, Maluku",MALUKU,,Indonesia,,,,-36.558.482,1.281.827.163,https://maps.google.com/?cid=0x0:0x5e9757e040e74568,
perumahan,Apartemen sewa liburan,K  G Kost,"952Q+3JQ, Tihu, Kec. Tlk. Ambon, Kota Ambon, Maluku","Kota Ambon, Maluku",MALUKU,,Indonesia,,,,-36.494.245,1.281.891.198,https://maps.google.com/?cid=0x0:0x2d4ae8de583c9773,
perumahan,Komplek perumahan,Komplek Hualoy,"85QJ+JW7, Rumah Tiga, Kec. Tlk. Ambon, Kota Ambon, Maluku","Kota Ambon, Maluku",MALUKU,,Indonesia,,,,-36.609.536,1.281.822.974,https://maps.google.com/?cid=0x0:0x5ed50362ca173f65,
perumahan,Komplek perumahan,Pagar Biru,"85XR+54X, Jl. Ir. M. Putuhena, Tihu, Kec. Tlk. Ambon, Kota Ambon, Maluku","Kota Ambon, Maluku",MALUKU,,Indonesia,,,,-36.520.245,1.281.903.709,https://maps.google.com/?cid=0x0:0xd023ab5d2dbe09e0,
perumahan,Komplek perumahan,Kel Hatulesila,"85VM+VG9, Rumah Tiga, Kec. Tlk. Ambon, Kota Ambon, Maluku","Kota Ambon, Maluku",MALUKU,,Indonesia,,,,-36.553.508,128.183.857,https://maps.google.com/?cid=0x0:0xf0b8036d3c775057,
perumahan,Komplek perumahan,Rumah Arven,"85WJ+CV2, Rumah Tiga, Kec. Tlk. Ambon, Kota Ambon, Maluku","Kota Ambon, Maluku",MALUKU,,Indonesia,,,,-36.539.763,1.281.821.372,https://maps.google.com/?cid=0x0:0xf0e0668e6a834e61,
perumahan,Penginapan,CitraLand Ambon,"Jl. Citraland Utama No.Kav. 1, Lateri, Kec. Baguala, Kota Ambon, Maluku 97231","Lateri, Kec. Baguala, Kota Ambon",MALUKU,97231.0,Indonesia,8114785899,,,-36.425.767,1.282.398.854,https://maps.google.com/?cid=0x0:0xe2d14bbca95ee287,
perumahan,Komplek perumahan,Ambon,"85VR+R8R, Rumah Tiga, Kec. Tlk. Ambon, Kota Ambon, Maluku","Kota Ambon, Maluku",MALUKU,,Indonesia,,,,-36.553.932,1.281.907.723,https://maps.google.com/?cid=0x0:0xf0b9eee6d0b481cc,
perumahan,Komplek perumahan,Kel.lerebulan,"85RR+RQ9, Jl. Mr. Chr. Soplanit, Rumah Tiga, Kec. Tlk. Ambon, Kota Ambon, Maluku","Kota Ambon, Maluku",MALUKU,,Indonesia,,,,-36.579.503,1.281.919.792,https://maps.google.com/?cid=0x0:0xca2ee70318d69b6c,
perumahan,Komplek perumahan,Rumah kelilaw,"85XQ+38C, Tihu, Kec. Tlk. Ambon, Kota Ambon, Maluku","Kota Ambon, Maluku",MALUKU,,Indonesia,,,,-36.521.604,1.281.880.905,https://maps.google.com/?cid=0x0:0x721e6061ff29b732,
perumahan,Perhimpunan Pengembang Perumahan,RM.ATHAR FATAH,"85XQ+38C, Tihu, Kec. Tlk. Ambon, Kota Ambon, Maluku","Kota Ambon, Maluku",MALUKU,,Indonesia,,,,-36.521.562,1.281.882.573,https://maps.google.com/?cid=0x0:0xf6c6710d84a5daad,
perumahan,Komplek perumahan,Faldiyopan,"85WP+438, Tihu, Kec. Tlk. Ambon, Kota Ambon, Maluku","Kota Ambon, Maluku",MALUKU,,Indonesia,,,,-365.472,1.281.852.045,https://maps.google.com/?cid=0x0:0x972f8b1b83481443,
perumahan,perumahan,Kos ibu Lina,"85XQ+FRR, Udang 1, Tihu, Kec. Tlk. Ambon, Kota Ambon, Maluku","Kota Ambon, Maluku",MALUKU,,Indonesia,,,,-36.513.397,128.189.509,https://maps.google.com/?cid=0x0:0xa89d0da88219c0b,
perumahan,Kantor Pemerintah,Rumah Dinas BSIP Maluku,"85VV+3PH, Rumah Tiga, Kec. Tlk. Ambon, Kota Ambon, Maluku","Kota Ambon, Maluku",MALUKU,,Indonesia,,,,-36.573.196,128.194.367,https://maps.google.com/?cid=0x0:0xd6678ec1fe121c86,
perumahan,perumahan,Kota Ambon,"Kota Ambon, Maluku","Kota Ambon, Maluku",MALUKU,,Indonesia,,,,-36.553.932,1.281.907.723,https://maps.google.com/?cid=0x0:0x26030bfcc0920512,
perumahan,Komplek perumahan,Perumahan Pemda 1,"954R+4FP, Poka, Kec. Tlk. Ambon, Kota Ambon, Maluku","Kota Ambon, Maluku",MALUKU,,Indonesia,,,,-36.446.711,1.281.911.961,https://maps.google.com/?cid=0x0:0x7a4eab92d90de307,
perumahan,Komplek perumahan,Perumahan pasir putih village,"955W+RQ, Poka, Kec. Tlk. Ambon, Kota Ambon, Maluku","Kota Ambon, Maluku",MALUKU,,Indonesia,,,,-36.404.158,1.281.969.443,https://maps.google.com/?cid=0x0:0xcc4b2b6dafe3fe53,
perumahan,Komplek perumahan,Rumah Kel F Persulessy,"85VW+5P8, Rumah Tiga, Kec. Tlk. Ambon, Kota Ambon, Maluku","Kota Ambon, Maluku",MALUKU,,Indonesia,82198870229,,,-36.571.055,1.281.968.096,https://maps.google.com/?cid=0x0:0xe3858f804dc96fad,
perumahan,Komplek perumahan,Rumah H.Abdul Rengur,"953R+C4J, Poka, Kec. Tlk. Ambon, Kota Ambon, Maluku","Kota Ambon, Maluku",MALUKU,,Indonesia,,,,-36.464.154,1.281.902.736,https://maps.google.com/?cid=0x0:0x5d7007949443630d,
perumahan,Komplek perumahan,Perumnas,"952Q+QQP, Poka, Kec. Tlk. Ambon, Kota Ambon, Maluku","Kota Ambon, Maluku",MALUKU,,Indonesia,,,,-36.480.334,1.281.894.399,https://maps.google.com/?cid=0x0:0xbd8438c4ea0df79c,
perumahan,Komplek perumahan,Gandaria Rumah Tiga,"85RR+P33, Gandaria, Rumah Tiga, Kec. Tlk. Ambon, Kota Ambon, Maluku","Kota Ambon, Maluku",MALUKU,,Indonesia,85215997657,,,-36.582.373,1.281.901.843,https://maps.google.com/?cid=0x0:0x6b3f1ddab2aec059,
perumahan,Komplek perumahan,Kalay's Home,"85RR+VJ3, Rumah Tiga, Kec. Tlk. Ambon, Kota Ambon, Maluku","Kota Ambon, Maluku",MALUKU,,Indonesia,,,,-36.578.644,1.281.915.525,https://maps.google.com/?cid=0x0:0x81cf8d9846289b28,
perumahan,Komplek perumahan,Rumah tiga pasar,"85VR+R8R, Rumah Tiga, Kec. Tlk. Ambon, Kota Ambon, Maluku","Kota Ambon, Maluku",MALUKU,,Indonesia,,,,-36.553.932,1.281.907.723,https://maps.google.com/?cid=0x0:0x6d00d0f8556f1acc,
perumahan,Komplek perumahan,Rumah Keluarga Bekak,"85RW+F4X, Rumah Tiga, Kec. Tlk. Ambon, Kota Ambon, Maluku","Kota Ambon, Maluku",MALUKU,,Indonesia,,,,-36.587.645,1.281.953.502,https://maps.google.com/?cid=0x0:0xbe9a06ea279e7474,
perumahan,Komplek perumahan,Perumahan Ambon Bay Regency,"966W+783, Passo, Kec. Baguala, Kota Ambon, Maluku 97231","Passo, Kec. Baguala, Kota Ambon",MALUKU,97231.0,Indonesia,,,,-36.393.684,1.282.458.006,https://maps.google.com/?cid=0x0:0x5d4f838ba5a25186,
perumahan,Komplek perumahan,Maluku indonesia,"85VR+R8R, Rumah Tiga, Kec. Tlk. Ambon, Kota Ambon, Maluku","Kota Ambon, Maluku",MALUKU,,Indonesia,,,,-36.553.932,1.281.907.723,https://maps.google.com/?cid=0x0:0x34a5217a7c28190,
perumahan,Komplek perumahan,Rumah Arven,"85WJ+CV2, Rumah Tiga, Kec. Tlk. Ambon, Kota Ambon, Maluku","Kota Ambon, Maluku",MALUKU,,Indonesia,,,,-36.539.763,1.281.821.372,https://maps.google.com/?cid=0x0:0xf0e0668e6a834e61,
perumahan,Komplek perumahan,Komplek Hualoy,"85QJ+JW7, Rumah Tiga, Kec. Tlk. Ambon, Kota Ambon, Maluku","Kota Ambon, Maluku",MALUKU,,Indonesia,,,,-36.609.536,1.281.822.974,https://maps.google.com/?cid=0x0:0x5ed50362ca173f65,
perumahan,Komplek perumahan,Ambon,"85VR+R8R, Rumah Tiga, Kec. Tlk. Ambon, Kota Ambon, Maluku","Kota Ambon, Maluku",MALUKU,,Indonesia,,,,-36.553.932,1.281.907.723,https://maps.google.com/?cid=0x0:0xf0b9eee6d0b481cc,
perumahan,Komplek perumahan,Gandaria Rumah Tiga,"85RR+P33, Gandaria, Rumah Tiga, Kec. Tlk. Ambon, Kota Ambon, Maluku","Kota Ambon, Maluku",MALUKU,,Indonesia,85215997657,,,-36.582.373,1.281.901.843,https://maps.google.com/?cid=0x0:0x6b3f1ddab2aec059,
perumahan,Komplek perumahan,Faldiyopan,"85WP+438, Tihu, Kec. Tlk. Ambon, Kota Ambon, Maluku","Kota Ambon, Maluku",MALUKU,,Indonesia,,,,-365.472,1.281.852.045,https://maps.google.com/?cid=0x0:0x972f8b1b83481443,
perumahan,Komplek perumahan,Lovprinc home,"Wai Lela, Rumah Tiga, Kec. Tlk. Ambon, Kota Ambon, Maluku","Kota Ambon, Maluku",MALUKU,,Indonesia,,,,-36.558.482,1.281.827.163,https://maps.google.com/?cid=0x0:0x5e9757e040e74568,
perumahan,perumahan,Ddan,"85VR+R8R, Rumah Tiga, Kec. Tlk. Ambon, Kota Ambon, Maluku","Kota Ambon, Maluku",MALUKU,,Indonesia,,,,-36.553.932,1.281.907.723,https://maps.google.com/?cid=0x0:0xa1b74ebf0974d536,
perumahan,Komplek perumahan,Keluarga B Anthony,"85QR+JHC, Rumah Tiga, Kec. Tlk. Ambon, Kota Ambon, Maluku","Kota Ambon, Maluku",MALUKU,,Indonesia,,,,-36.609.459,1.281.913.941,https://maps.google.com/?cid=0x0:0xc8bbf9618d2a791e,
perumahan,Komplek perumahan,Awe rumah,"Gandaria No.15, Rumah Tiga, Kec. Tlk. Ambon, Kota Ambon, Maluku","Kota Ambon, Maluku",MALUKU,,Indonesia,,,,-3.657.777,1.281.919.223,https://maps.google.com/?cid=0x0:0x4d8ffdce56079ad0,
perumahan,Komplek perumahan,H.E. Nanlohy,"85VJ+VRR, Rumah Tiga, Kec. Tlk. Ambon, Kota Ambon, Maluku","Kota Ambon, Maluku",MALUKU,,Indonesia,,,,-36.552.697,1.281.820.221,https://maps.google.com/?cid=0x0:0xc51e8a1d608f5a54,
perumahan,Komplek perumahan,Rumah tiga pasar,"85VR+R8R, Rumah Tiga, Kec. Tlk. Ambon, Kota Ambon, Maluku","Kota Ambon, Maluku",MALUKU,,Indonesia,,,,-36.553.932,1.281.907.723,https://maps.google.com/?cid=0x0:0x6d00d0f8556f1acc,
perumahan,Komplek perumahan,Pemukiman,"85VP+CVJ, Jl. Ir. M. Putuhena, Rumah Tiga, Kec. Tlk. Ambon, Kota Ambon, Maluku","Kota Ambon, Maluku",MALUKU,,Indonesia,,,,-36.566.949,1.281.875.086,https://maps.google.com/?cid=0x0:0x362cc4efbe16842,
perumahan,Komplek perumahan,Tiahome,"85VR+R8R, Rumah Tiga, Kec. Tlk. Ambon, Kota Ambon, Maluku","Kota Ambon, Maluku",MALUKU,,Indonesia,,,,-36.553.934,1.281.907.722,https://maps.google.com/?cid=0x0:0x7d8fbfdec3dcb333,
perumahan,Pembangunan Perumahan,J.H Pattinama,"85VM+8MP, Wai Lela, Rumah Tiga, Kec. Tlk. Ambon, Kota Ambon, Maluku","Kota Ambon, Maluku",MALUKU,,Indonesia,,,,-36.566.856,1.281.844.073,https://maps.google.com/?cid=0x0:0xd7b6a2eed81d0f9e,
perumahan,Penginapan,CitraLand Ambon,"Jl. Citraland Utama No.Kav. 1, Lateri, Kec. Baguala, Kota Ambon, Maluku 97231","Lateri, Kec. Baguala, Kota Ambon",MALUKU,97231.0,Indonesia,8114785899,,,-36.425.767,1.282.398.854,https://maps.google.com/?cid=0x0:0xe2d14bbca95ee287,
perumahan,Komplek perumahan,Kel. Alfry Limba,"85VW+8MQ, Rumah Tiga, Kec. Tlk. Ambon, Kota Ambon, Maluku","Kota Ambon, Maluku",MALUKU,,Indonesia,,,,-36.569.629,1.281.967.904,https://maps.google.com/?cid=0x0:0x7353838eb3832c92,
perumahan,perumahan,Kota Ambon,"Kota Ambon, Maluku","Kota Ambon, Maluku",MALUKU,,Indonesia,,,,-36.553.932,1.281.907.723,https://maps.google.com/?cid=0x0:0x26030bfcc0920512,
perumahan,Kantor Pemerintah,Rumah Dinas BSIP Maluku,"85VV+3PH, Rumah Tiga, Kec. Tlk. Ambon, Kota Ambon, Maluku","Kota Ambon, Maluku",MALUKU,,Indonesia,,,,-36.573.196,128.194.367,https://maps.google.com/?cid=0x0:0xd6678ec1fe121c86,
perumahan,Komplek perumahan,Seilatu Family,"85VW+49J, Rumah Tiga, Kec. Tlk. Ambon, Kota Ambon, Maluku","Kota Ambon, Maluku",MALUKU,,Indonesia,,,,-36.571.561,1.281.958.905,https://maps.google.com/?cid=0x0:0xa1292fd440142c21,
perumahan,Komplek perumahan,Thaifur ahmad kaplale,"85RV+7QQ, Rumah Tiga, Kec. Tlk. Ambon, Kota Ambon, Maluku","Kota Ambon, Maluku",MALUKU,,Indonesia,,,,-36.593.868,1.281.945.968,https://maps.google.com/?cid=0x0:0xf52cba1824ff8ace,
perumahan,Komplek perumahan,Rumah Kel F Persulessy,"85VW+5P8, Rumah Tiga, Kec. Tlk. Ambon, Kota Ambon, Maluku","Kota Ambon, Maluku",MALUKU,,Indonesia,82198870229,,,-36.571.055,1.281.968.096,https://maps.google.com/?cid=0x0:0xe3858f804dc96fad,
perumahan,Komplek perumahan,Kalay's Home,"85RR+VJ3, Rumah Tiga, Kec. Tlk. Ambon, Kota Ambon, Maluku","Kota Ambon, Maluku",MALUKU,,Indonesia,,,,-36.578.644,1.281.915.525,https://maps.google.com/?cid=0x0:0x81cf8d9846289b28,
perumahan,Instalasi bioskop rumah,Pemda 3 Kelurahan tihu,"Pemda 3, Tihu, Kec. Tlk. Ambon, Kota Ambon, Maluku","Kota Ambon, Maluku",MALUKU,,Indonesia,,,,-36.519.333,1.281.888.725,https://maps.google.com/?cid=0x0:0xdae78ed77da22c39,
perumahan,Komplek perumahan,Rumah Keluarga Bekak,"85RW+F4X, Rumah Tiga, Kec. Tlk. Ambon, Kota Ambon, Maluku","Kota Ambon, Maluku",MALUKU,,Indonesia,,,,-36.587.645,1.281.953.502,https://maps.google.com/?cid=0x0:0xbe9a06ea279e7474,
perumahan,perumahan,Rumah As Wahai,"85VR+R8R, Rumah Tiga, Kec. Tlk. Ambon, Kota Ambon, Maluku","Kota Ambon, Maluku",MALUKU,,Indonesia,,,,-36.553.932,1.281.907.723,https://maps.google.com/?cid=0x0:0xdc29f970ab282256,
perumahan,Komplek perumahan,Perempatan neraka,"85VM+VP4, Rumah Tiga, Kec. Tlk. Ambon, Kota Ambon, Maluku","Kota Ambon, Maluku",MALUKU,,Indonesia,,,,-36.555.058,128.184.185,https://maps.google.com/?cid=0x0:0xa5d017099557c700,
perumahan,Kantor Perusahaan,Rumah Dinas Bea Cukai Poka no. 1,"85WW+8VQ, Poka, Kec. Tlk. Ambon, Kota Ambon, Maluku","Kota Ambon, Maluku",MALUKU,,Indonesia,,,,-36.539.061,1.281.973.626,https://maps.google.com/?cid=0x0:0xafca52fb345d86d,
perumahan,Komplek perumahan,Kel Ubra,"85VM+MVF, Wai Lela, Rumah Tiga, Kec. Tlk. Ambon, Kota Ambon, Maluku","Kota Ambon, Maluku",MALUKU,,Indonesia,,,,-36.558.076,1.281.846.692,https://maps.google.com/?cid=0x0:0x912096d99e3b0b30,
perumahan,Komplek perumahan,Lovprinc home,"Wai Lela, Rumah Tiga, Kec. Tlk. Ambon, Kota Ambon, Maluku","Kota Ambon, Maluku",MALUKU,,Indonesia,,,,-36.558.482,1.281.827.163,https://maps.google.com/?cid=0x0:0x5e9757e040e74568,
perumahan,Komplek perumahan,Perumahan Ambon Bay Regency,"966W+783, Passo, Kec. Baguala, Kota Ambon, Maluku 97231","Passo, Kec. Baguala, Kota Ambon",MALUKU,97231.0,Indonesia,,,,-36.393.684,1.282.458.006,https://maps.google.com/?cid=0x0:0x5d4f838ba5a25186,
perumahan,Komplek perumahan,Perempatan neraka,"85VM+VP4, Rumah Tiga, Kec. Tlk. Ambon, Kota Ambon, Maluku","Kota Ambon, Maluku",MALUKU,,Indonesia,,,,-36.555.058,128.184.185,https://maps.google.com/?cid=0x0:0xa5d017099557c700,
perumahan,Komplek perumahan,Perumahan Griya Sakinah,"Unnamed Road, Batu Merah, Kec. Sirimau, Kota Ambon, Maluku","Kota Ambon, Maluku",MALUKU,,Indonesia,,,,-36.851.027,128.199.408,https://maps.google.com/?cid=0x0:0xa383ee422a045f14,
perumahan,Komplek perumahan,Royal Kingdom Residence,"Jl. Propinsi No.47, Lateri, Kec. Baguala, Kota Ambon, Maluku","Kota Ambon, Maluku",MALUKU,,Indonesia,8114700094,,,-36.534.986,1.282.482.663,https://maps.google.com/?cid=0x0:0xdb3e36d6669f4b3a,
perumahan,Komplek perumahan,BTN Bukit Lateri Indah,"965V+9CW, Btn bukit lateri indah, Blok 4 no.13, Lateri, Kec. Baguala, Kota Ambon, Maluku","Kota Ambon, Maluku",MALUKU,,Indonesia,,,,-36.435.366,1.282.463.734,https://maps.google.com/?cid=0x0:0x8c8c4a4c2a4c7c93,
perumahan,Komplek perumahan,Ambon,"85VR+R8R, Rumah Tiga, Kec. Tlk. Ambon, Kota Ambon, Maluku","Kota Ambon, Maluku",MALUKU,,Indonesia,,,,-36.553.932,1.281.907.723,https://maps.google.com/?cid=0x0:0xf0b9eee6d0b481cc,
perumahan,Komplek perumahan,PERUMAHAN PUNCAK HUNUTH,"95CX+XXW, Hunuth/Durian Patah, Kec. Tlk. Ambon, Kota Ambon, Maluku","Kota Ambon, Maluku",MALUKU,,Indonesia,,,,-3.627.559,128.200.098,https://maps.google.com/?cid=0x0:0xfcd03780c8283da5,
perumahan,Komplek perumahan,Rumah Arven,"85WJ+CV2, Rumah Tiga, Kec. Tlk. Ambon, Kota Ambon, Maluku","Kota Ambon, Maluku",MALUKU,,Indonesia,,,,-36.539.763,1.281.821.372,https://maps.google.com/?cid=0x0:0xf0e0668e6a834e61,
perumahan,Komplek perumahan,Maluku indonesia,"85VR+R8R, Rumah Tiga, Kec. Tlk. Ambon, Kota Ambon, Maluku","Kota Ambon, Maluku",MALUKU,,Indonesia,,,,-36.553.932,1.281.907.723,https://maps.google.com/?cid=0x0:0x34a5217a7c28190,
perumahan,Apartemen sewa liburan,K  G Kost,"952Q+3JQ, Tihu, Kec. Tlk. Ambon, Kota Ambon, Maluku","Kota Ambon, Maluku",MALUKU,,Indonesia,,,,-36.494.245,1.281.891.198,https://maps.google.com/?cid=0x0:0x2d4ae8de583c9773,
perumahan,Penginapan,CitraLand Ambon,"Jl. Citraland Utama No.Kav. 1, Lateri, Kec. Baguala, Kota Ambon, Maluku 97231","Lateri, Kec. Baguala, Kota Ambon",MALUKU,97231.0,Indonesia,8114785899,,,-36.425.767,1.282.398.854,https://maps.google.com/?cid=0x0:0xe2d14bbca95ee287,
perumahan,Komplek perumahan,Faldiyopan,"85WP+438, Tihu, Kec. Tlk. Ambon, Kota Ambon, Maluku","Kota Ambon, Maluku",MALUKU,,Indonesia,,,,-365.472,1.281.852.045,https://maps.google.com/?cid=0x0:0x972f8b1b83481443,
perumahan,Komplek perumahan,Kos tingkat abu - abu,"Wai Lela blkang smp 7 No.blok 2, Rumah Tiga, Kec. Tlk. Ambon, Kota Ambon, Maluku","Kota Ambon, Maluku",MALUKU,,Indonesia,,,,-36.565.809,1.281.849.787,https://maps.google.com/?cid=0x0:0x74cfd3681c3691dd,
perumahan,Komplek perumahan,Gandaria Rumah Tiga,"85RR+P33, Gandaria, Rumah Tiga, Kec. Tlk. Ambon, Kota Ambon, Maluku","Kota Ambon, Maluku",MALUKU,,Indonesia,85215997657,,,-36.582.373,1.281.901.843,https://maps.google.com/?cid=0x0:0x6b3f1ddab2aec059,
perumahan,Komplek perumahan,Pagar Biru,"85XR+54X, Jl. Ir. M. Putuhena, Tihu, Kec. Tlk. Ambon, Kota Ambon, Maluku","Kota Ambon, Maluku",MALUKU,,Indonesia,,,,-36.520.245,1.281.903.709,https://maps.google.com/?cid=0x0:0xd023ab5d2dbe09e0,
perumahan,Kantor Pemerintah,Rumah Dinas BSIP Maluku,"85VV+3PH, Rumah Tiga, Kec. Tlk. Ambon, Kota Ambon, Maluku","Kota Ambon, Maluku",MALUKU,,Indonesia,,,,-36.573.196,128.194.367,https://maps.google.com/?cid=0x0:0xd6678ec1fe121c86,
perumahan,perumahan,Kota Ambon,"Kota Ambon, Maluku","Kota Ambon, Maluku",MALUKU,,Indonesia,,,,-36.553.932,1.281.907.723,https://maps.google.com/?cid=0x0:0x26030bfcc0920512,
perumahan,Komplek perumahan,Perumahan pasir putih village,"955W+RQ, Poka, Kec. Tlk. Ambon, Kota Ambon, Maluku","Kota Ambon, Maluku",MALUKU,,Indonesia,,,,-36.404.158,1.281.969.443,https://maps.google.com/?cid=0x0:0xcc4b2b6dafe3fe53,
perumahan,Komplek perumahan,Kel. Alfry Limba,"85VW+8MQ, Rumah Tiga, Kec. Tlk. Ambon, Kota Ambon, Maluku","Kota Ambon, Maluku",MALUKU,,Indonesia,,,,-36.569.629,1.281.967.904,https://maps.google.com/?cid=0x0:0x7353838eb3832c92,
perumahan,Komplek perumahan,Perumahan Pemda 1,"954R+4FP, Poka, Kec. Tlk. Ambon, Kota Ambon, Maluku","Kota Ambon, Maluku",MALUKU,,Indonesia,,,,-36.446.711,1.281.911.961,https://maps.google.com/?cid=0x0:0x7a4eab92d90de307,
perumahan,Komplek perumahan,Perumnas,"952Q+QQP, Poka, Kec. Tlk. Ambon, Kota Ambon, Maluku","Kota Ambon, Maluku",MALUKU,,Indonesia,,,,-36.480.334,1.281.894.399,https://maps.google.com/?cid=0x0:0xbd8438c4ea0df79c,
perumahan,Komplek perumahan,Rumah H.Abdul Rengur,"953R+C4J, Poka, Kec. Tlk. Ambon, Kota Ambon, Maluku","Kota Ambon, Maluku",MALUKU,,Indonesia,,,,-36.464.154,1.281.902.736,https://maps.google.com/?cid=0x0:0x5d7007949443630d,
perumahan,Instalasi bioskop rumah,Pemda 3 Kelurahan tihu,"Pemda 3, Tihu, Kec. Tlk. Ambon, Kota Ambon, Maluku","Kota Ambon, Maluku",MALUKU,,Indonesia,,,,-36.519.333,1.281.888.725,https://maps.google.com/?cid=0x0:0xdae78ed77da22c39,
perumahan,Komplek perumahan,Rumah Kel F Persulessy,"85VW+5P8, Rumah Tiga, Kec. Tlk. Ambon, Kota Ambon, Maluku","Kota Ambon, Maluku",MALUKU,,Indonesia,82198870229,,,-36.571.055,1.281.968.096,https://maps.google.com/?cid=0x0:0xe3858f804dc96fad,
perumahan,Komplek perumahan,Kalay's Home,"85RR+VJ3, Rumah Tiga, Kec. Tlk. Ambon, Kota Ambon, Maluku","Kota Ambon, Maluku",MALUKU,,Indonesia,,,,-36.578.644,1.281.915.525,https://maps.google.com/?cid=0x0:0x81cf8d9846289b28,
perumahan,Komplek perumahan,Rumah Keluarga Bekak,"85RW+F4X, Rumah Tiga, Kec. Tlk. Ambon, Kota Ambon, Maluku","Kota Ambon, Maluku",MALUKU,,Indonesia,,,,-36.587.645,1.281.953.502,https://maps.google.com/?cid=0x0:0xbe9a06ea279e7474,
perumahan,Komplek perumahan,Rumah tiga pasar,"85VR+R8R, Rumah Tiga, Kec. Tlk. Ambon, Kota Ambon, Maluku","Kota Ambon, Maluku",MALUKU,,Indonesia,,,,-36.553.932,1.281.907.723,https://maps.google.com/?cid=0x0:0x6d00d0f8556f1acc,
perumahan,perumahan,Maluku 97129,"Kel Batu Meja, Kec. Sirimau, Kota Ambon, Maluku","Kota Ambon, Maluku",MALUKU,,Indonesia,,,,-36.986.895,1.281.868.726,https://maps.google.com/?cid=0x0:0xdbce3da1bd5931ef,
perumahan,Pembangunan Perumahan,R.Dasmasela,"852P+PJ5, Jl. Skip Bawah, RT.003/RW.003, Kel Batu Meja, Kec. Sirimau, Kota Ambon, Maluku","Kota Ambon, Maluku",MALUKU,,Indonesia,,,,-36.982.453,1.281.866.202,https://maps.google.com/?cid=0x0:0xee9b00be833178ca,
perumahan,Pondok,Perumahan Bank Indonesia Batu Meja,"Jl. Jend. A Yani No.21, Kel Batu Meja, Kec. Sirimau, Kota Ambon, Maluku","Kota Ambon, Maluku",MALUKU,,Indonesia,,,,-36.985.108,1.281.858.185,https://maps.google.com/?cid=0x0:0xe5a94347f7377b8b,
perumahan,Komplek perumahan,Rumah Ervy Rehatta,"852P+MM5, Jl. Sirimau, RT.001/RW.001, Soya, Kec. Sirimau, Kota Ambon, Maluku","Kota Ambon, Maluku",MALUKU,,Indonesia,,,,-36.983.643,1.281.867.218,https://maps.google.com/?cid=0x0:0xb9727e03d3b8dab8,
perumahan,Pembangunan Perumahan,Linansera Famili,"Aspol kayu putih Jl. Sirimau blok H-1, Kel Batu Meja, Kec. Sirimau, Kota Ambon, Maluku","Kota Ambon, Maluku",MALUKU,,Indonesia,,,,-3.698.366,1.281.867.195,https://maps.google.com/?cid=0x0:0x6d3b6707a67ff41b,
perumahan,Kompleks Apartemen,Batu meja jln,"Jl. Rijali No.6, Kel Rijali, Kec. Sirimau, Kota Ambon, Maluku","Kota Ambon, Maluku",MALUKU,,Indonesia,,,,-36.972.561,1.281.871.941,https://maps.google.com/?cid=0x0:0x205c0b409e0844c0,
perumahan,Komplek perumahan,timo kalwedo,"852P+JV2, Kel Batu Meja, Kec. Sirimau, Kota Ambon, Maluku","Kota Ambon, Maluku",MALUKU,,Indonesia,,,,-36.984.779,1.281.871.324,https://maps.google.com/?cid=0x0:0xada29dd655d6ac12,
perumahan,Kantor Perusahaan,lahani camp,"Jl. Sirimau No.12, Kel Batu Meja, Kec. Sirimau, Kota Ambon, Maluku 97123","Kel Batu Meja, Kec. Sirimau, Kota Ambon",MALUKU,97123.0,Indonesia,,,,-36.976.964,1.281.866.849,https://maps.google.com/?cid=0x0:0x93c47a83edee5607,
perumahan,Pembangunan Perumahan,Kintal keluarga GOMIES,"853P+4J2, Kel Batu Meja, Kec. Sirimau, Kota Ambon, Maluku","Kota Ambon, Maluku",MALUKU,,Indonesia,,,,-36.971.814,1.281.865.188,https://maps.google.com/?cid=0x0:0xa6559b6401681efe,
perumahan,Pembangunan Perumahan,Elsa Picarima,"852P+GMR, Kel Batu Meja, Kec. Sirimau, Kota Ambon, Maluku","Kota Ambon, Maluku",MALUKU,,Indonesia,,,,-36.986.343,1.281.866.422,https://maps.google.com/?cid=0x0:0x46eef8f640675ef8,
perumahan,Penginapan,CitraLand Ambon,"Jl. Citraland Utama No.Kav. 1, Lateri, Kec. Baguala, Kota Ambon, Maluku 97231","Lateri, Kec. Baguala, Kota Ambon",MALUKU,97231.0,Indonesia,8114785899,,,-36.425.767,1.282.398.854,https://maps.google.com/?cid=0x0:0xe2d14bbca95ee287,
perumahan,Kedai Kopi,Kedai Kopi LumiÃ¨re,"852P+GMQ, Kel Batu Meja, Kec. Sirimau, Kota Ambon, Maluku","Kota Ambon, Maluku",MALUKU,,Indonesia,9113831578,,,-36.986.714,1.281.867.331,https://maps.google.com/?cid=0x0:0x3f100b1f9224262c,
perumahan,perumahan,"aTQwaJCEGfOt4-EPtrePyQ0-,null,null,1,null,""https://www.google.com/maps/preview/place/Rumah/@-3.700746,128.1926515,3981a,13.1y/datau003d!4m2!3m1!1s0x2d6ce9199bf15637:0x5c6f38a761243e85""",,,MALUKU,,Indonesia,911354276,,,-3.700.746,1.281.926.515,https://maps.google.com/?cid=0x0:0x5c6f38a761243e85,
perumahan,Rumah Kaca,Shalleta,"Kel Batu Meja, Kec. Sirimau, Kota Ambon, Maluku 97129","Kec. Sirimau, Kota Ambon",MALUKU,97129.0,Indonesia,85198629837,,,-36.986.673,1.281.868.488,https://maps.google.com/?cid=0x0:0x2d2374b66707c37f,
perumahan,perumahan,Kec. Leitimur Sel.,"Kota Ambon, Maluku","Kota Ambon, Maluku",MALUKU,,Indonesia,,,,-36.967.719,1.282.858.692,https://maps.google.com/?cid=0x0:0x93fd04eb1ee8f714,
perumahan,Komplek perumahan,Rumah Velly,"972H+WC2, Jl. Dr. Wem Tehupeiory, Hutumuri, Kec. Leitimur Sel., Kota Ambon, Maluku","Kota Ambon, Maluku",MALUKU,,Indonesia,,,,-36.486.743,1.282.788.167,https://maps.google.com/?cid=0x0:0x3a44be7eaf343e1c,
perumahan,Komplek perumahan,Rutong,"77W9+VFW, Rutong, Kec. Leitimur Sel., Kota Ambon, Maluku","Kota Ambon, Maluku",MALUKU,,Indonesia,,,,-37.030.165,1.282.688.097,https://maps.google.com/?cid=0x0:0x4f1b8b6c1b962592,
perumahan,Komplek perumahan,Pertigaan Pos,"874Q+2M4, Hutumuri, Kec. Leitimur Sel., Kota Ambon, Maluku","Kota Ambon, Maluku",MALUKU,,Indonesia,,,,-36.949.852,1.282.892.105,https://maps.google.com/?cid=0x0:0x3361b6ed09533e1f,
perumahan,Pembangunan Perumahan,Desend Home,"87XM+4Q3, Hutumuri, Kec. Leitimur Sel., Kota Ambon, Maluku","Kota Ambon, Maluku",MALUKU,,Indonesia,,,,-36.532.744,1.282.834.804,https://maps.google.com/?cid=0x0:0xdcf4f30ede90b28c,
perumahan,Pembangunan Perumahan,Kel Tehupeiory,"872G+6G2, Hutumuri, Kec. Leitimur Sel., Kota Ambon, Maluku","Kota Ambon, Maluku",MALUKU,,Indonesia,,,,-36.991.649,1.282.768.315,https://maps.google.com/?cid=0x0:0x850dc0ed91cbfb42,
perumahan,Perhimpunan Pengembang Perumahan,LEWERISSA HOME,"Unnamed Road, Passo, Kec. Baguala, Kota Ambon, Maluku","Kota Ambon, Maluku",MALUKU,,Indonesia,81247247602,,,-36.489.702,1.282.643.634,https://maps.google.com/?cid=0x0:0xe9e8a083c677f6b2,
perumahan,perumahan,Rumah Kel Untajana,"77W8+GFF, Rutong, Kec. Leitimur Sel., Kota Ambon, Maluku","Kota Ambon, Maluku",MALUKU,,Indonesia,,,,-3.704.569,128.265.674,https://maps.google.com/?cid=0x0:0x9be4cb26b528f6fb,
perumahan,perumahan,EPIN BEAY,"87RR+6CQ, Hutumuri, Kec. Leitimur Sel., Kota Ambon, Maluku","Kota Ambon, Maluku",MALUKU,,Indonesia,,,,-36.594.748,1.282.910.316,https://maps.google.com/?cid=0x0:0xee4f00e6b7f33ca1,
perumahan,Pembangunan Perumahan,Achyate/Nuruwe,"972H+WC2, Jl. Dr. Wem Tehupeiory, Hutumuri, Kec. Leitimur Sel., Kota Ambon, Maluku","Kota Ambon, Maluku",MALUKU,,Indonesia,,,,-36.484.556,1.282.785.984,https://maps.google.com/?cid=0x0:0x31f6037ce720a322,
perumahan,Gedung Apartemen,SEAN HOME,"77Q8+4M7, Leahari, Kec. Leitimur Sel., Kota Ambon, Maluku","Kota Ambon, Maluku",MALUKU,,Indonesia,,,,-37.120.015,1.282.676.802,https://maps.google.com/?cid=0x0:0xa6173aee4cc95fb5,
perumahan,Komplek perumahan,PLV home,"873M+MVC, Hutumuri, Kec. Leitimur Sel., Kota Ambon, Maluku","Kota Ambon, Maluku",MALUKU,,Indonesia,,,,-3.695.264,128.284.617,https://maps.google.com/?cid=0x0:0xae2077ab9bbab485,
perumahan,Komplek perumahan,Keluarga Bambulu wellem,"974F+9G8, Jl. Dr. Wem Tehupeiory, Passo, Kec. Leitimur Sel., Kota Ambon, Maluku","Kota Ambon, Maluku",MALUKU,,Indonesia,,,,-36.440.917,1.282.738.359,https://maps.google.com/?cid=0x0:0xd564b087acc0353a,
perumahan,Komplek perumahan,Keluarga Toce Leuwol,"974F+3C9, Jl. Dr. Wem Tehupeiory, Passo, Kec. Leitimur Sel., Kota Ambon, Maluku","Kota Ambon, Maluku",MALUKU,,Indonesia,,,,-36.448.328,1.282.736.132,https://maps.google.com/?cid=0x0:0x52221af579284ab3,
perumahan,Pembangunan Perumahan,Paays home,"875R+3C8, Hutumuri, Kec. Leitimur Sel., Kota Ambon, Maluku","Kota Ambon, Maluku",MALUKU,,Indonesia,,,,-36.923.388,1.282.910.892,https://maps.google.com/?cid=0x0:0x9019f31bb153d0a1,
perumahan,Pembangunan Perumahan,Warul Kel. Lappy,"872G+6G2, Hutumuri, Kec. Leitimur Sel., Kota Ambon, Maluku","Kota Ambon, Maluku",MALUKU,,Indonesia,,,,-36.990.151,1.282.776.699,https://maps.google.com/?cid=0x0:0x5cda33c6ad50ca38,
perumahan,Pembangunan Perumahan,Paulus O. Tepalawatin,"872F+3P3, Hutumuri, Kec. Leitimur Sel., Kota Ambon, Maluku","Kota Ambon, Maluku",MALUKU,,Indonesia,,,,-3.700.103,128.274.104,https://maps.google.com/?cid=0x0:0x218655fb6aa34004,
perumahan,Pembangunan Perumahan,Evert Kailuhu,"87CX+HJR, Jl. Dr. Wem Tehupeiory, Hutumuri, Kec. Leitimur Sel., Kota Ambon, Maluku","Kota Ambon, Maluku",MALUKU,,Indonesia,,,,-36.785.025,1.282.990.292,https://maps.google.com/?cid=0x0:0x9b9476fcd7a24e83,
perumahan,Hotel bintang 2,Toisapu,"87XM+4C9, Jl. Dr. Wem Tehupeiory, Passo, Kec. Leitimur Sel., Kota Ambon, Maluku","Kota Ambon, Maluku",MALUKU,,Indonesia,,,,-36.522.236,1.282.836.147,https://maps.google.com/?cid=0x0:0xff025d2284bb9bd4,
perumahan,Komplek perumahan,ICEN HOME,"873J+FMH, Hutumuri, Kec. Leitimur Sel., Kota Ambon, Maluku","Kota Ambon, Maluku",MALUKU,,Indonesia,82239026862,,,-36.966.656,1.282.816.884,https://maps.google.com/?cid=0x0:0xa4d396e0e955514e,
perumahan,Komplek perumahan,Pastori Jemaat Ema,"769M+F4Q, Ema, Kec. Leitimur Sel., Kota Ambon, Maluku","Kota Ambon, Maluku",MALUKU,,Indonesia,,,,-37.312.928,1.282.328.535,https://maps.google.com/?cid=0x0:0xcfa5afc5a1256fb3,
perumahan,Komplek perumahan,Papi Geis,"Hutumuri, Kec. Leitimur Sel., Kota Ambon, Maluku","Kota Ambon, Maluku",MALUKU,,Indonesia,,,,-36.885.967,1.282.987.427,https://maps.google.com/?cid=0x0:0xb5bbdc796bf45c90,
perumahan,Pembangunan Perumahan,Parera Fams,"766Q+CWF, JALAN SIRIMAU-TIHULESSY, Hukurila, Kec. Leitimur Sel., Kota Ambon, Maluku","Kota Ambon, Maluku",MALUKU,,Indonesia,,,,-37.387.512,1.282.397.815,https://maps.google.com/?cid=0x0:0x87e6a31ce656f87c,
perumahan,Komplek perumahan,ANTHONY PATALALA,"87RQ+GWW, Hutumuri, Kec. Leitimur Sel., Kota Ambon, Maluku","Kota Ambon, Maluku",MALUKU,,Indonesia,,,,-36.572.052,1.282.893.796,https://maps.google.com/?cid=0x0:0x3cf42a3f94c6cfd0,
perumahan,Komplek perumahan,Ithalia's Home,"974F+3C9, Jl. Dr. Wem Tehupeiory, Passo, Kec. Leitimur Sel., Kota Ambon, Maluku","Kota Ambon, Maluku",MALUKU,,Indonesia,,,,-3.644.471,128.273.443,https://maps.google.com/?cid=0x0:0xc50b5461fb9517dc,
perumahan,perumahan,Maluku 97231,"Halong, Kec. Baguala, Kota Ambon, Maluku","Kota Ambon, Maluku",MALUKU,,Indonesia,,,,-36.603.878,1.282.159.191,https://maps.google.com/?cid=0x0:0xc48098870fd5ee97,
perumahan,Penginapan,CitraLand Ambon,"Jl. Citraland Utama No.Kav. 1, Lateri, Kec. Baguala, Kota Ambon, Maluku 97231","Lateri, Kec. Baguala, Kota Ambon",MALUKU,97231.0,Indonesia,8114785899,,,-36.425.767,1.282.398.854,https://maps.google.com/?cid=0x0:0xe2d14bbca95ee287,
perumahan,Komplek perumahan,Rumah Haurissa Walalayo,"Jl. Wolter Monginsidi No.32, Passo, Kec. Baguala, Kota Ambon, Maluku","Kota Ambon, Maluku",MALUKU,,Indonesia,,,,-36.600.723,1.282.148.616,https://maps.google.com/?cid=0x0:0xda37c9781d677216,
perumahan,Komplek perumahan,Rumah Dinas Halong,"Jl. Bobara IV No.3, Halong, Kec. Baguala, Kota Ambon, Maluku","Kota Ambon, Maluku",MALUKU,,Indonesia,,,,-36.593.298,128.214.846,https://maps.google.com/?cid=0x0:0xb7eef4320ebc4422,
perumahan,Komplek perumahan,VR Mussa,"Jl. Kapten Piere Tendean No.156, Halong, Kec. Baguala, Kota Ambon, Maluku 97231","Halong, Kec. Baguala, Kota Ambon",MALUKU,97231.0,Indonesia,,,,-3.660.165,1.282.143.307,https://maps.google.com/?cid=0x0:0x399e632f295b6a17,
perumahan,Komplek perumahan,LSG Lorong setapak gardu,"86R7+6QH, Halong, Kec. Baguala, Kota Ambon, Maluku","Kota Ambon, Maluku",MALUKU,,Indonesia,,,,-36.594.312,1.282.144.702,https://maps.google.com/?cid=0x0:0xf0fb2e394e155cd4,
perumahan,Komplek perumahan,Kel. A. Nanlohy,"86Q7+XWP, Jl. Wolter Monginsidi, Lateri III, Kec. Baguala, Kota Ambon, Maluku","Kota Ambon, Maluku",MALUKU,,Indonesia,,,,-36.600.475,1.282.148.285,https://maps.google.com/?cid=0x0:0x767f52a0065d02cc,
perumahan,Komplek perumahan,ABIE MATTHEW RUT,"86R7+3P5, Halong, Kec. Baguala, Kota Ambon, Maluku","Kota Ambon, Maluku",MALUKU,,Indonesia,,,,-36.600.074,1.282.143.388,https://maps.google.com/?cid=0x0:0xda295b12535c77d8,
perumahan,Pembangunan Perumahan,Milly Vanya Home,"Jl. Kapten Piere Tendean No.156, Halong, Kec. Baguala, Kota Ambon, Maluku","Kota Ambon, Maluku",MALUKU,,Indonesia,,,,-36.607.641,1.282.138.036,https://maps.google.com/?cid=0x0:0x95c0abbc271ac37b,
perumahan,perumahan,Perumahan guru,"86V8+JVX, Lantamal IX, Halong, Kec. Baguala, Kota Ambon, Maluku","Kota Ambon, Maluku",MALUKU,,Indonesia,,,,-36.558.879,1.282.172.218,https://maps.google.com/?cid=0x0:0x2ab59c56b305ade1,
perumahan,perumahan,Budiada's Home,"BTN. Hatuleteng RT/RW 011/034, Jl. PHB Halong Atas, Halong, Kec. Baguala","Kota Ambon, Maluku",MALUKU,,Indonesia,,,,-36.599.737,1.282.147.324,https://maps.google.com/?cid=0x0:0x4638a338e211a5ab,
perumahan,perumahan,Kec. Baguala,"Kota Ambon, Maluku","Kota Ambon, Maluku",MALUKU,,Indonesia,,,,-36.321.471,1.282.521.439,https://maps.google.com/?cid=0x0:0xeda94aa2e12e76d9,
perumahan,Komplek perumahan,Perumahan Bank Indonesia Passo,"97G2+W9W, Passo, Kec. Baguala, Kota Ambon, Maluku","Kota Ambon, Maluku",MALUKU,,Indonesia,,,,-36.226.297,1.282.509.524,https://maps.google.com/?cid=0x0:0xcef4ea27ba054467,
perumahan,Komplek perumahan,Perumahan kejaksaan passo,"96FW+FRJ, Passo, Kec. Baguala, Kota Ambon, Maluku","Kota Ambon, Maluku",MALUKU,,Indonesia,,,,-3.626.297,128.247.016,https://maps.google.com/?cid=0x0:0xe9334362fd8930b4,
perumahan,Komplek perumahan,Walaiya Home,"97G2+CQG, Passo, Kec. Baguala, Kota Ambon, Maluku","Kota Ambon, Maluku",MALUKU,,Indonesia,,,,-36.239.375,1.282.519.531,https://maps.google.com/?cid=0x0:0x2ccee05e002a67d5,
perumahan,Komplek perumahan,Perumahan Ambon Bay Regency,"966W+783, Passo, Kec. Baguala, Kota Ambon, Maluku 97231","Passo, Kec. Baguala, Kota Ambon",MALUKU,97231.0,Indonesia,,,,-36.393.684,1.282.458.006,https://maps.google.com/?cid=0x0:0x5d4f838ba5a25186,
perumahan,Komplek perumahan,Kompleks Dolog,"9784+QCG, Jl. K. A. Satsuitubun Desa, Passo, Kec. Baguala, Kota Ambon, Maluku","Kota Ambon, Maluku",MALUKU,,Indonesia,,,,-36.330.693,1.282.560.692,https://maps.google.com/?cid=0x0:0x89d53c6f95c1b726,
perumahan,Perhimpunan Pengembang Perumahan,Baguala.Passo,"9774+H63, Passo, Kec. Baguala, Kota Ambon, Maluku","Kota Ambon, Maluku",MALUKU,,Indonesia,,,,-36.361.112,1.282.555.487,https://maps.google.com/?cid=0x0:0x777c5f88ca1ee861,
perumahan,Komplek perumahan,BTN Bukit Lateri Indah,"965V+9CW, Btn bukit lateri indah, Blok 4 no.13, Lateri, Kec. Baguala, Kota Ambon, Maluku","Kota Ambon, Maluku",MALUKU,,Indonesia,,,,-36.435.366,1.282.463.734,https://maps.google.com/?cid=0x0:0x8c8c4a4c2a4c7c93,
perumahan,Komplek perumahan,Kel. L Kelwulan,"9784+P4R, Passo, Kec. Baguala, Kota Ambon, Maluku","Kota Ambon, Maluku",MALUKU,,Indonesia,,,,-3.633.511,128.255.273,https://maps.google.com/?cid=0x0:0x51b10f3cc2b2a6f,
perumahan,Komplek perumahan,Rumah Billhan Fransel Kuhumarua,"Jl. Wolter Monginsidi No.8a, Passo, Kec. Baguala, Kota Ambon, Maluku","Kota Ambon, Maluku",MALUKU,,Indonesia,82248636390,,,-36.348.566,1.282.471.151,https://maps.google.com/?cid=0x0:0xf4a7caf0cfb0d69b,
perumahan,Komplek perumahan,Rumah Hursepuny,"96CX+255, Jl. Dr. Wem Tehupeiory, Passo, Kec. Baguala, Kota Ambon, Maluku","Kota Ambon, Maluku",MALUKU,,Indonesia,,,,-36.299.484,1.282.480.668,https://maps.google.com/?cid=0x0:0x8e3a4b1e35c413c5,
perumahan,Komplek perumahan,Tharotack Kompleks,"9772+HR7, Passo, Kec. Baguala, Kota Ambon, Maluku","Kota Ambon, Maluku",MALUKU,,Indonesia,,,,-36.360.655,1.282.521.104,https://maps.google.com/?cid=0x0:0x9b52e58017bd6c6,
perumahan,Komplek perumahan,BALAGU FAMILLY,"9773+W87, Passo, Kec. Baguala, Kota Ambon, Maluku","Kota Ambon, Maluku",MALUKU,,Indonesia,,,,-36.352.212,1.282.533.008,https://maps.google.com/?cid=0x0:0x6ac641bcb2fc3976,
perumahan,Komplek perumahan,Lompira Family,"968X+6WX pertanian, Passo, Kec. Baguala, Kota Ambon, Maluku","Kota Ambon, Maluku",MALUKU,,Indonesia,,,,-36.343.856,1.282.498.455,https://maps.google.com/?cid=0x0:0xb9347e7e5675c2ae,
perumahan,Perumahan,Rumah Enci Hukubun,"9792+66M, Passo, Kec. Baguala, Kota Ambon, Maluku","Kota Ambon, Maluku",MALUKU,,Indonesia,,,,-36.319.057,1.282.505.521,https://maps.google.com/?cid=0x0:0x16a428f62a3e1bf4,
perumahan,Perumahan,Rumah Kresna  Sean,"966W+59F, Passo, Kec. Baguala, Kota Ambon, Maluku","Kota Ambon, Maluku",MALUKU,,Indonesia,,,,-36.395.746,1.282.459.184,https://maps.google.com/?cid=0x0:0xa12f5c35d031b501,
perumahan,Komplek perumahan,Kel. Nifanngelyau,"9784+P4R, Passo, Kec. Baguala, Kota Ambon, Maluku","Kota Ambon, Maluku",MALUKU,,Indonesia,,,,-36.332.043,1.282.551.479,https://maps.google.com/?cid=0x0:0xcf8a1d108f245892,
perumahan,Komplek perumahan,PakaTesta,"9793+9V8 rumah dinas peternakan, Passo, Kec. Baguala, Kota Ambon, Maluku","Kota Ambon, Maluku",MALUKU,,Indonesia,,,,-36.315.813,1.282.547.067,https://maps.google.com/?cid=0x0:0xb2d269d8bdc2592e,
perumahan,perumahan,Kec. Baguala,"Kota Ambon, Maluku","Kota Ambon, Maluku",MALUKU,,Indonesia,,,,-36.321.471,1.282.521.439,https://maps.google.com/?cid=0x0:0xeda94aa2e12e76d9,
perumahan,Komplek perumahan,Perumahan Bank Indonesia Passo,"97G2+W9W, Passo, Kec. Baguala, Kota Ambon, Maluku","Kota Ambon, Maluku",MALUKU,,Indonesia,,,,-36.226.297,1.282.509.524,https://maps.google.com/?cid=0x0:0xcef4ea27ba054467,
perumahan,Komplek perumahan,Kompleks Dolog,"9784+QCG, Jl. K. A. Satsuitubun Desa, Passo, Kec. Baguala, Kota Ambon, Maluku","Kota Ambon, Maluku",MALUKU,,Indonesia,,,,-36.330.693,1.282.560.692,https://maps.google.com/?cid=0x0:0x89d53c6f95c1b726,
perumahan,Komplek perumahan,Walaiya Home,"97G2+CQG, Passo, Kec. Baguala, Kota Ambon, Maluku","Kota Ambon, Maluku",MALUKU,,Indonesia,,,,-36.239.375,1.282.519.531,https://maps.google.com/?cid=0x0:0x2ccee05e002a67d5,
perumahan,Komplek perumahan,Perumahan kejaksaan passo,"96FW+FRJ, Passo, Kec. Baguala, Kota Ambon, Maluku","Kota Ambon, Maluku",MALUKU,,Indonesia,,,,-3.626.297,128.247.016,https://maps.google.com/?cid=0x0:0xe9334362fd8930b4,
perumahan,Komplek perumahan,Rumah Billhan Fransel Kuhumarua,"Jl. Wolter Monginsidi No.8a, Passo, Kec. Baguala, Kota Ambon, Maluku","Kota Ambon, Maluku",MALUKU,,Indonesia,82248636390,,,-36.348.566,1.282.471.151,https://maps.google.com/?cid=0x0:0xf4a7caf0cfb0d69b,
perumahan,Pembangunan Perumahan,Komplek perumahan BI,"97H2+5FX, Passo, Kec. Baguala, Kota Ambon, Maluku 97232","Passo, Kec. Baguala, Kota Ambon",MALUKU,97232.0,Indonesia,,,,-36.219.926,128.251.283,https://maps.google.com/?cid=0x0:0xfe95079ee967d8bc,
perumahan,Perumahan,Rumah Kresna  Sean,"966W+59F, Passo, Kec. Baguala, Kota Ambon, Maluku","Kota Ambon, Maluku",MALUKU,,Indonesia,,,,-36.395.746,1.282.459.184,https://maps.google.com/?cid=0x0:0xa12f5c35d031b501,
perumahan,Komplek perumahan,Tharotack Kompleks,"9772+HR7, Passo, Kec. Baguala, Kota Ambon, Maluku","Kota Ambon, Maluku",MALUKU,,Indonesia,,,,-36.360.655,1.282.521.104,https://maps.google.com/?cid=0x0:0x9b52e58017bd6c6,
perumahan,Komplek perumahan,BTN Bukit Lateri Indah,"965V+9CW, Btn bukit lateri indah, Blok 4 no.13, Lateri, Kec. Baguala, Kota Ambon, Maluku","Kota Ambon, Maluku",MALUKU,,Indonesia,,,,-36.435.366,1.282.463.734,https://maps.google.com/?cid=0x0:0x8c8c4a4c2a4c7c93,
perumahan,Komplek perumahan,PakaTesta,"9793+9V8 rumah dinas peternakan, Passo, Kec. Baguala, Kota Ambon, Maluku","Kota Ambon, Maluku",MALUKU,,Indonesia,,,,-36.315.813,1.282.547.067,https://maps.google.com/?cid=0x0:0xb2d269d8bdc2592e,
perumahan,perumahan,Perumahan kejaksaan,"97F3+48C, Passo, Kec. Baguala, Kota Ambon, Maluku","Kota Ambon, Maluku",MALUKU,,Indonesia,,,,-36.272.862,1.282.529.645,https://maps.google.com/?cid=0x0:0xada2a6e1e545be66,
perumahan,Komplek perumahan,Kecamatan Baguala,"9792+4VR, Passo, Kec. Baguala, Kota Ambon, Maluku","Kota Ambon, Maluku",MALUKU,,Indonesia,,,,-36.321.471,1.282.521.439,https://maps.google.com/?cid=0x0:0xdc9e607ef4366a00,
perumahan,Perumahan,Rumah Enci Hukubun,"9792+66M, Passo, Kec. Baguala, Kota Ambon, Maluku","Kota Ambon, Maluku",MALUKU,,Indonesia,,,,-36.319.057,1.282.505.521,https://maps.google.com/?cid=0x0:0x16a428f62a3e1bf4,
perumahan,Komplek perumahan,Kel. L Kelwulan,"9784+P4R, Passo, Kec. Baguala, Kota Ambon, Maluku","Kota Ambon, Maluku",MALUKU,,Indonesia,,,,-3.633.511,128.255.273,https://maps.google.com/?cid=0x0:0x51b10f3cc2b2a6f,
perumahan,Komplek perumahan,Kel. Nifanngelyau,"9784+P4R, Passo, Kec. Baguala, Kota Ambon, Maluku","Kota Ambon, Maluku",MALUKU,,Indonesia,,,,-36.332.043,1.282.551.479,https://maps.google.com/?cid=0x0:0xcf8a1d108f245892,
perumahan,Perumahan,BTN PASSO INDAH,"969V+398, Negeri Lama, Kec. Baguala, Kota Ambon, Maluku","Kota Ambon, Maluku",MALUKU,,Indonesia,,,,-3.632.336,1.282.434.646,https://maps.google.com/?cid=0x0:0x4a66d67a78ce4ed,
perumahan,Komplek perumahan,Rumah Sem Tiwery,"BTN Kodam Waimahu No.B1/7, Passo, Kec. Baguala, Kota Ambon, Maluku 97232","Passo, Kec. Baguala, Kota Ambon",MALUKU,97232.0,Indonesia,,,,-36.237.671,1.282.559.631,https://maps.google.com/?cid=0x0:0xe400bd5ecea11f06,
perumahan,Kantor Pemerintah,Perumahan Dinas PTUN Ambon,"9792+R8C, Passo, Kec. Baguala, Kota Ambon, Maluku","Kota Ambon, Maluku",MALUKU,,Indonesia,,,,-36.304.453,1.282.507.789,https://maps.google.com/?cid=0x0:0x3d45bc8ca04e214a,
perumahan,Pembangunan Perumahan,Kel. P. M. Thenu,"9792+758, Passo, Kec. Baguala, Kota Ambon, Maluku","Kota Ambon, Maluku",MALUKU,,Indonesia,,,,-36.318.372,1.282.504.388,https://maps.google.com/?cid=0x0:0xfb94ddf9051baa84,
perumahan,Penjara,Perumahan LAPAS Ambon,"969V+XGG, Jl. Laksdya Leo Wattimena, Negeri Lama, Kec. Baguala, Kota Ambon, Maluku","Kota Ambon, Maluku",MALUKU,,Indonesia,,,,-36.300.666,128.243.835,https://maps.google.com/?cid=0x0:0x5cf16082f9a29d81,
perumahan,Komplek perumahan,Kampung baru,"9773+MWG, Passo, Kec. Baguala, Kota Ambon, Maluku","Kota Ambon, Maluku",MALUKU,,Indonesia,81324238753,,,-36.358.211,1.282.548.364,https://maps.google.com/?cid=0x0:0x1f13da29bd24bfc4,
perumahan,Komplek perumahan,BALAGU FAMILLY,"9773+W87, Passo, Kec. Baguala, Kota Ambon, Maluku","Kota Ambon, Maluku",MALUKU,,Indonesia,,,,-36.352.212,1.282.533.008,https://maps.google.com/?cid=0x0:0x6ac641bcb2fc3976,
perumahan,Komplek perumahan,Kel. M. Risakotta,"9783+HV5, Passo, Kec. Baguala, Kota Ambon, Maluku","Kota Ambon, Maluku",MALUKU,,Indonesia,,,,-36.336.063,1.282.547.429,https://maps.google.com/?cid=0x0:0x683fcf936a49707f,
perumahan,Penginapan,CitraLand Ambon,"Jl. Citraland Utama No.Kav. 1, Lateri, Kec. Baguala, Kota Ambon, Maluku 97231","Lateri, Kec. Baguala, Kota Ambon",MALUKU,97231.0,Indonesia,8114785899,,,-36.425.767,1.282.398.854,https://maps.google.com/?cid=0x0:0xe2d14bbca95ee287,
perumahan,perumahan,Kec. Baguala,"Kota Ambon, Maluku","Kota Ambon, Maluku",MALUKU,,Indonesia,,,,-36.321.471,1.282.521.439,https://maps.google.com/?cid=0x0:0xeda94aa2e12e76d9,
perumahan,Komplek perumahan,Perumahan Bank Indonesia Passo,"97G2+W9W, Passo, Kec. Baguala, Kota Ambon, Maluku","Kota Ambon, Maluku",MALUKU,,Indonesia,,,,-36.226.297,1.282.509.524,https://maps.google.com/?cid=0x0:0xcef4ea27ba054467,
perumahan,Komplek perumahan,Kompleks Dolog,"9784+QCG, Jl. K. A. Satsuitubun Desa, Passo, Kec. Baguala, Kota Ambon, Maluku","Kota Ambon, Maluku",MALUKU,,Indonesia,,,,-36.330.693,1.282.560.692,https://maps.google.com/?cid=0x0:0x89d53c6f95c1b726,
perumahan,Perhimpunan Pengembang Perumahan,Baguala.Passo,"9774+H63, Passo, Kec. Baguala, Kota Ambon, Maluku","Kota Ambon, Maluku",MALUKU,,Indonesia,,,,-36.361.112,1.282.555.487,https://maps.google.com/?cid=0x0:0x777c5f88ca1ee861,
perumahan,Komplek perumahan,Perumahan kejaksaan passo,"96FW+FRJ, Passo, Kec. Baguala, Kota Ambon, Maluku","Kota Ambon, Maluku",MALUKU,,Indonesia,,,,-3.626.297,128.247.016,https://maps.google.com/?cid=0x0:0xe9334362fd8930b4,
perumahan,perumahan,Perumahan kejaksaan,"97F3+48C, Passo, Kec. Baguala, Kota Ambon, Maluku","Kota Ambon, Maluku",MALUKU,,Indonesia,,,,-36.272.862,1.282.529.645,https://maps.google.com/?cid=0x0:0xada2a6e1e545be66,
perumahan,Komplek perumahan,Tharotack Kompleks,"9772+HR7, Passo, Kec. Baguala, Kota Ambon, Maluku","Kota Ambon, Maluku",MALUKU,,Indonesia,,,,-36.360.655,1.282.521.104,https://maps.google.com/?cid=0x0:0x9b52e58017bd6c6,
perumahan,Komplek perumahan,Rumah Billhan Fransel Kuhumarua,"Jl. Wolter Monginsidi No.8a, Passo, Kec. Baguala, Kota Ambon, Maluku","Kota Ambon, Maluku",MALUKU,,Indonesia,82248636390,,,-36.348.566,1.282.471.151,https://maps.google.com/?cid=0x0:0xf4a7caf0cfb0d69b,
perumahan,Komplek perumahan,PakaTesta,"9793+9V8 rumah dinas peternakan, Passo, Kec. Baguala, Kota Ambon, Maluku","Kota Ambon, Maluku",MALUKU,,Indonesia,,,,-36.315.813,1.282.547.067,https://maps.google.com/?cid=0x0:0xb2d269d8bdc2592e,
perumahan,Komplek perumahan,Kalahatu Famili,"966W+HR8, Kota Ambon,Mata, Passo, Kec. Baguala, Kota Ambon, Maluku","Kota Ambon, Maluku",MALUKU,,Indonesia,,,,-36.385.941,1.282.470.637,https://maps.google.com/?cid=0x0:0xf9508d298719c737,
perumahan,Komplek perumahan,Kecamatan Baguala,"9792+4VR, Passo, Kec. Baguala, Kota Ambon, Maluku","Kota Ambon, Maluku",MALUKU,,Indonesia,,,,-36.321.471,1.282.521.439,https://maps.google.com/?cid=0x0:0xdc9e607ef4366a00,
perumahan,Pembangunan Perumahan,Komplek perumahan BI,"97H2+5FX, Passo, Kec. Baguala, Kota Ambon, Maluku 97232","Passo, Kec. Baguala, Kota Ambon",MALUKU,97232.0,Indonesia,,,,-36.219.926,128.251.283,https://maps.google.com/?cid=0x0:0xfe95079ee967d8bc,
perumahan,Perumahan,Rumah Kresna  Sean,"966W+59F, Passo, Kec. Baguala, Kota Ambon, Maluku","Kota Ambon, Maluku",MALUKU,,Indonesia,,,,-36.395.746,1.282.459.184,https://maps.google.com/?cid=0x0:0xa12f5c35d031b501,
perumahan,Komplek perumahan,Ambon,"97G2+C36, Passo, Kec. Baguala, Kota Ambon, Maluku","Kota Ambon, Maluku",MALUKU,,Indonesia,,,,-36.239.641,1.282.501.389,https://maps.google.com/?cid=0x0:0xec3afca24ef543e0,
perumahan,Komplek perumahan,BALAGU FAMILLY,"9773+W87, Passo, Kec. Baguala, Kota Ambon, Maluku","Kota Ambon, Maluku",MALUKU,,Indonesia,,,,-36.352.212,1.282.533.008,https://maps.google.com/?cid=0x0:0x6ac641bcb2fc3976,
perumahan,Komplek perumahan,Kel. Nifanngelyau,"9784+P4R, Passo, Kec. Baguala, Kota Ambon, Maluku","Kota Ambon, Maluku",MALUKU,,Indonesia,,,,-36.332.043,1.282.551.479,https://maps.google.com/?cid=0x0:0xcf8a1d108f245892,
perumahan,Penginapan,CitraLand Ambon,"Jl. Citraland Utama No.Kav. 1, Lateri, Kec. Baguala, Kota Ambon, Maluku 97231","Lateri, Kec. Baguala, Kota Ambon",MALUKU,97231.0,Indonesia,8114785899,,,-36.425.767,1.282.398.854,https://maps.google.com/?cid=0x0:0xe2d14bbca95ee287,
perumahan,Komplek perumahan,Kampung baru,"9773+MWG, Passo, Kec. Baguala, Kota Ambon, Maluku","Kota Ambon, Maluku",MALUKU,,Indonesia,81324238753,,,-36.358.211,1.282.548.364,https://maps.google.com/?cid=0x0:0x1f13da29bd24bfc4,
perumahan,perumahan,"Lorong Rumah, Keluarga Sahetapy","9785+6G2, Jl. Baru, Passo, Kec. Baguala, Kota Ambon, Maluku","Kota Ambon, Maluku",MALUKU,,Indonesia,,,,-36.344.885,1.282.587.734,https://maps.google.com/?cid=0x0:0x29532f62a084b472,
perumahan,Perumahan,Rumah Enci Hukubun,"9792+66M, Passo, Kec. Baguala, Kota Ambon, Maluku","Kota Ambon, Maluku",MALUKU,,Indonesia,,,,-36.319.057,1.282.505.521,https://maps.google.com/?cid=0x0:0x16a428f62a3e1bf4,
perumahan,Komplek perumahan,Kel. M. Risakotta,"9783+HV5, Passo, Kec. Baguala, Kota Ambon, Maluku","Kota Ambon, Maluku",MALUKU,,Indonesia,,,,-36.336.063,1.282.547.429,https://maps.google.com/?cid=0x0:0x683fcf936a49707f,
perumahan,Kantor Pemerintah,Perumahan Dinas PTUN Ambon,"9792+R8C, Passo, Kec. Baguala, Kota Ambon, Maluku","Kota Ambon, Maluku",MALUKU,,Indonesia,,,,-36.304.453,1.282.507.789,https://maps.google.com/?cid=0x0:0x3d45bc8ca04e214a,
perumahan,Komplek perumahan,Kel. L Kelwulan,"9784+P4R, Passo, Kec. Baguala, Kota Ambon, Maluku","Kota Ambon, Maluku",MALUKU,,Indonesia,,,,-3.633.511,128.255.273,https://maps.google.com/?cid=0x0:0x51b10f3cc2b2a6f,
perumahan,Penjara,Perumahan LAPAS Ambon,"969V+XGG, Jl. Laksdya Leo Wattimena, Negeri Lama, Kec. Baguala, Kota Ambon, Maluku","Kota Ambon, Maluku",MALUKU,,Indonesia,,,,-36.300.666,128.243.835,https://maps.google.com/?cid=0x0:0x5cf16082f9a29d81,
perumahan,Komplek perumahan,MandaNoah House,"9792+C5R, Passo, Kec. Baguala, Kota Ambon, Maluku","Kota Ambon, Maluku",MALUKU,,Indonesia,,,,-36.314.836,1.282.504.973,https://maps.google.com/?cid=0x0:0xbda22ec6a3a2011c,
perumahan,Komplek perumahan,Keluarga H. Sarimanella,"9784+7C2, Passo, Kec. Baguala, Kota Ambon, Maluku","Kota Ambon, Maluku",MALUKU,,Indonesia,,,,-36.343.709,1.282.560.121,https://maps.google.com/?cid=0x0:0x3b36fcfa8c42ecdd,
perumahan,Pembangunan Perumahan,Kasamilale Family,"969V+39V, Negeri Lama, Kec. Baguala, Kota Ambon, Maluku","Kota Ambon, Maluku",MALUKU,,Indonesia,,,,-36.323.225,1.282.436.302,https://maps.google.com/?cid=0x0:0xc7dc7de944452555,
