Category,Real Category,Business Name,Address,City,State,Postal Code,Country,Phone,Email,Website,Latitude,Longitude,Map Link,Details Link
hotel,hotel,Kairatu,"Kairatu, Kec. Kairatu, Kabupaten Seram Bagian Barat, Maluku","Kabupaten Seram Bagian Barat, Maluku",MALUKU,,Indonesia,,,,-3.341675,128.352798,https://maps.google.com/?cid=0x0:0xccc8b619c657b48e,
hotel,Hotel,Kings inn Guest house,"Jl. Trans Seram, Kairatu, Kec. Kairatu, Kabupaten Seram Bagian Barat, Maluku 97566","Kairatu, Kec. Kairatu, Kabupaten Seram Bagian Barat",MALUKU,97566.0,Indonesia,82228736788.0,,,-3.340429,128.3643226,https://maps.google.com/?cid=0x0:0x4368dd7378867761,
hotel,Hotel Resor,HOTEL KAIRATU BEACH,"M953+84M, Kairatu, Kec. Kairatu, Kabupaten Seram Bagian Barat, Maluku","Kabupaten Seram Bagian Barat, Maluku",MALUKU,,Indonesia,,,,-3.341675,128.352798,https://maps.google.com/?cid=0x0:0xaf35199e0152a1db,
hotel,Pondok,Victoria Guesthouse @ kairatu,"M958+49W, Kairatu, Kec. Kairatu, Kabupaten Seram Bagian Barat, Maluku","Kabupaten Seram Bagian Barat, Maluku",MALUKU,,Indonesia,81230043000.0,,,-3.3421465,128.365961,https://maps.google.com/?cid=0x0:0xcd90c78ad2fa9212,
hotel,hotel,Maluku Resort and Spa,"Jl Waititiri, Suli, Salahutu, Central Maluku Regency, Maluku 97582","Suli, Salahutu, Central Maluku Regency",MALUKU,97582.0,Indonesia,911361970.0,,,-3.6167962,128.2776551,https://maps.google.com/?cid=0x0:0x399bf62f92df6277,
hotel,hotel,Airy Maluku City Sudirman Ambon,"85JX+J8C, Jl. Jenderal Sudirman, Hative Kecil, Kec. Sirimau, Kota Ambon, Maluku 97128","Jl. Jenderal Sudirman, Hative Kecil, Kec. Sirimau, Kota Ambon",MALUKU,97128.0,Indonesia,8041112479.0,,,-3.6684342,128.1982566,https://maps.google.com/?cid=0x0:0xd9a527375825a79,
hotel,hotel,,,,MALUKU,,Indonesia,,,,,,https://maps.google.com/?cid=0x0:0xd9a527375825a79%7C/g/11dzddthkt%7Cen-ID,
hotel,Hotel,Wakaka Cottage Kairatu Beach,"Kairatu, Kec. Kairatu, Kabupaten Seram Bagian Barat, Maluku 97566","Kec. Kairatu, Kabupaten Seram Bagian Barat",MALUKU,97566.0,Indonesia,81241715758.0,,,-3.3529184,128.3552081,https://maps.google.com/?cid=0x0:0x2bab2b6fad660974,
hotel,Pondok,Arion Penginapan,"Jl. Trans Seram, Waimital, Kec. Kairatu, Kabupaten Seram Bagian Barat, Maluku 97566","Waimital, Kec. Kairatu, Kabupaten Seram Bagian Barat",MALUKU,97566.0,Indonesia,82239254626.0,,,-3.3384219,128.3600948,https://maps.google.com/?cid=0x0:0x937eff74b6c0c17a,
hotel,Pondok,Penginapan Waipirit Indah,"M89W+9MC, Waipirit, Kec. Kairatu, Kabupaten Seram Bagian Barat, Maluku","Kabupaten Seram Bagian Barat, Maluku",MALUKU,,Indonesia,,,,-3.3315698,128.3466496,https://maps.google.com/?cid=0x0:0x383295e76a42639e,
hotel,Pondok,Gespak Rilan,"M953+84M, Kairatu, Kec. Kairatu, Kabupaten Seram Bagian Barat, Maluku","Kabupaten Seram Bagian Barat, Maluku",MALUKU,,Indonesia,,,,-3.341675,128.352798,https://maps.google.com/?cid=0x0:0xb3a5600bafb9074e,
hotel,hotel,Kec. Seram Bar.,"Kabupaten Seram Bagian Barat, Maluku","Kabupaten Seram Bagian Barat, Maluku",MALUKU,,Indonesia,,,,-3.0650683,128.194492,https://maps.google.com/?cid=0x0:0xd1612bfbfbd97a94,
hotel,hotel,Sing Key Beach,"Jalan Desa, Saleman, Kec. Seram Utara Bar., Masohi, Maluku 97532","Saleman, Kec. Seram Utara Bar., Masohi",MALUKU,97532.0,Indonesia,85244725146.0,,,-2.9637247,129.1209378,https://maps.google.com/?cid=0x0:0xcc20ca0241000e51,
hotel,hotel,Ora Sunrise View,"24W7+F64, Saleman, Kec. Seram Utara Bar., Kabupaten Maluku Tengah, Maluku","Kabupaten Maluku Tengah, Maluku",MALUKU,,Indonesia,81341516987.0,,,-2.9538605,129.1130922,https://maps.google.com/?cid=0x0:0x7e5ff763da6b1066,
hotel,hotel,Penginapan Piru Permai 1 (Hotel),"Piru, Kec. Seram Bar., Kabupaten Seram Bagian Barat, Maluku","Kabupaten Seram Bagian Barat, Maluku",MALUKU,,Indonesia,859106547976.0,,,-3.0683419,128.1987467,https://maps.google.com/?cid=0x0:0x15a3fc500b9735b1,
hotel,hotel,Nusa Nalan Beach Resort,"Saleman, Kec. Seram Utara Bar., Kabupaten Maluku Tengah, Maluku","Kabupaten Maluku Tengah, Maluku",MALUKU,,Indonesia,82191118069.0,,,-2.9641794,129.1227794,https://maps.google.com/?cid=0x0:0x3e974595c220a8d9,
hotel,hotel,Bellarizki Resort,"24R9+922, Saleman, Kec. Seram Utara Bar., Kabupaten Maluku Tengah, Maluku","Kabupaten Maluku Tengah, Maluku",MALUKU,,Indonesia,82198508001.0,,,-2.9591081,129.1175123,https://maps.google.com/?cid=0x0:0xc6db48cb9142d4b1,
hotel,hotel,"Air Belanda Resort, Near Ora Beach","Bar.,, Saleman, Kec. Seram Utara Bar., Kabupaten Maluku Tengah, Maluku","Kabupaten Maluku Tengah, Maluku",MALUKU,,Indonesia,85343852368.0,,,-2.9696582,129.1301286,https://maps.google.com/?cid=0x0:0x422a9bf330aa0cfd,
hotel,hotel,Ora Beach Eco Resort,"24QQ+PGH, Saleman, Kec. Seram Utara Bar., Kabupaten Maluku Tengah, Maluku","Kabupaten Maluku Tengah, Maluku",MALUKU,,Indonesia,81248896616.0,,,-2.960695,129.1388702,https://maps.google.com/?cid=0x0:0x9de937b6ce29acab,
hotel,hotel,Maluku Residence Syariah,"De Fretes No.12, Kel Waihaong, Kec. Nusaniwe, Kota Ambon, Maluku","Kota Ambon, Maluku",MALUKU,,Indonesia,,,,-3.7011319,128.1764157,https://maps.google.com/?cid=0x0:0x5e6e20d52e229730,
hotel,hotel,Putih Lessi Indah,"GH3Q+59F, Kulur, Kec. Saparua, Kabupaten Maluku Tengah, Maluku","Kabupaten Maluku Tengah, Maluku",MALUKU,,Indonesia,81247486647.0,,,-3.4970565,128.5884321,https://maps.google.com/?cid=0x0:0xe57c1dc22e4f6b20,
hotel,hotel,Nakaela Lodge,"Taniwel, Kec. Taniwel, Kabupaten Seram Bagian Barat, Maluku","Kabupaten Seram Bagian Barat, Maluku",MALUKU,,Indonesia,8123881337.0,,,-2.8470515,128.4527411,https://maps.google.com/?cid=0x0:0x3c326965219ae550,
hotel,hotel,Roneela Cottage,"25VV+R28 Rumah Olat, Sawai, Kec. Seram Utara, Kabupaten Maluku Tengah, Maluku","Kabupaten Maluku Tengah, Maluku",MALUKU,,Indonesia,82198126956.0,,,-2.9554705,129.1925736,https://maps.google.com/?cid=0x0:0xc19687f88c2d3959,
hotel,hotel,Kakatua Bungalow,"24JG+VQC, Saleman, Pulau Seram, Kabupaten Maluku Tengah, Maluku","Kabupaten Maluku Tengah, Maluku",MALUKU,,Indonesia,81344921207.0,,,-2.9678036,129.126883,https://maps.google.com/?cid=0x0:0x309db4f05766cb5c,
hotel,hotel,Singkey Water Cottage,"24PC+G9Q Nemo Tour, BlackDog Motor Studio, Lesane, Kota Masohi, Kabupaten Maluku Tengah, Maluku","Kabupaten Maluku Tengah, Maluku",MALUKU,,Indonesia,85218110003.0,,,-2.9636705,129.1209951,https://maps.google.com/?cid=0x0:0xcdfc3a5a4eb0162f,
hotel,hotel,HOTEL ISABELLA MASOHI,"Jl. Manusela No.17, Namasina, Kec. Kota Masohi, Kabupaten Maluku Tengah, Maluku 97511","Namasina, Kec. Kota Masohi, Kabupaten Maluku Tengah",MALUKU,97511.0,Indonesia,81343393345.0,,,-3.3100135,128.9465446,https://maps.google.com/?cid=0x0:0xb41663efa6c05105,
hotel,hotel,Hotel Onemay,"MXW2+XX5, Namaelo, Kec. Kota Masohi, Kabupaten Maluku Tengah, Maluku 97511","Namaelo, Kec. Kota Masohi, Kabupaten Maluku Tengah",MALUKU,97511.0,Indonesia,,,,-3.3026012,128.9524767,https://maps.google.com/?cid=0x0:0x82e8812004335bea,
hotel,hotel,Penginapan Risal,"MXX4+4R4, Jl. Pala, Namaelo, Kec. Kota Masohi, Kabupaten Maluku Tengah, Maluku 97511","Jl. Pala, Namaelo, Kec. Kota Masohi, Kabupaten Maluku Tengah",MALUKU,97511.0,Indonesia,85254474044.0,,,-3.3022344,128.9570793,https://maps.google.com/?cid=0x0:0xc5c4aa65616cda69,
hotel,hotel,Hotel Irene,"MWPV+V8W, Amahai, Kec. Amahai, Kabupaten Maluku Tengah, Maluku","Kabupaten Maluku Tengah, Maluku",MALUKU,,Indonesia,91421238.0,,,-3.3127584,128.9433128,https://maps.google.com/?cid=0x0:0x76f4018724e3f10b,
hotel,hotel,Airy Maluku City Sudirman Ambon,"85JX+J8C, Jl. Jenderal Sudirman, Hative Kecil, Kec. Sirimau, Kota Ambon, Maluku 97128","Jl. Jenderal Sudirman, Hative Kecil, Kec. Sirimau, Kota Ambon",MALUKU,97128.0,Indonesia,8041112479.0,,,-3.6684342,128.1982566,https://maps.google.com/?cid=0x0:0xd9a527375825a79,
hotel,hotel,,,,MALUKU,,Indonesia,,,,,,https://maps.google.com/?cid=0x0:0xd9a527375825a79%7C/g/11dzddthkt%7Cen-ID,
hotel,hotel,Hotel Santika Premiere Ambon,"Jl. Jenderal Sudirman No.88, Batu Merah, Kec. Sirimau, Kota Ambon, Maluku 19728","Batu Merah, Kec. Sirimau, Kota Ambon",MALUKU,19728.0,Indonesia,9113833888.0,,,-3.6788521,128.1941333,https://maps.google.com/?cid=0x0:0x613a23eacdd61bba,
hotel,hotel,,,,MALUKU,,Indonesia,,,,,,https://maps.google.com/?cid=0x0:0x613a23eacdd61bba%7C/g/11g0tp0_30%7Cen-ID,
hotel,hotel,Budget Hotel Ambon,"Budget Hotel Ambon, Jl. Sirimau No. 12, Batumeja Ambon Kel Batu Meja Sirimau, Kel Batu Meja, maliku, Kota Ambon, Maluku 97123","Jl. Sirimau No. 12, Batumeja Ambon Kel Batu Meja Sirimau, Kel Batu Meja, maliku, Kota Ambon",MALUKU,97123.0,Indonesia,85105311311.0,,,-3.6984668,128.186683,https://maps.google.com/?cid=0x0:0x990aa5cdb07ff873,
hotel,hotel,Hotel ambon,"Jn dr.setia budi sk 10/11, Kel Ahusen, Kec. Sirimau, Kota Ambon, Maluku","Kota Ambon, Maluku",MALUKU,,Indonesia,81385395400.0,,,-3.698005,128.1817344,https://maps.google.com/?cid=0x0:0x4449f3b6b6a7a546,
hotel,hotel,Hotel Wisata,"856P+577, Jl. Mutiara No.67, Kel Rijali, Kec. Sirimau, Kota Ambon, Maluku","Kota Ambon, Maluku",MALUKU,,Indonesia,911353577.0,,,-3.6896138,128.1857578,https://maps.google.com/?cid=0x0:0x3c9e284fb9289848,
hotel,hotel,Taniwel,"Taniwel, Kec. Taniwel, Kabupaten Seram Bagian Barat, Maluku","Kabupaten Seram Bagian Barat, Maluku",MALUKU,,Indonesia,,,,-2.875471,128.4478,https://maps.google.com/?cid=0x0:0x8714c1fa90eff15e,
hotel,hotel,Maluku Resort and Spa,"Jl Waititiri, Suli, Salahutu, Central Maluku Regency, Maluku 97582","Suli, Salahutu, Central Maluku Regency",MALUKU,97582.0,Indonesia,911361970.0,,,-3.6167962,128.2776551,https://maps.google.com/?cid=0x0:0x399bf62f92df6277,
hotel,hotel,Nakaela Lodge,"Taniwel, Kec. Taniwel, Kabupaten Seram Bagian Barat, Maluku","Kabupaten Seram Bagian Barat, Maluku",MALUKU,,Indonesia,8123881337.0,,,-2.8470515,128.4527411,https://maps.google.com/?cid=0x0:0x3c326965219ae550,
hotel,hotel,Airy Maluku City Sudirman Ambon,"85JX+J8C, Jl. Jenderal Sudirman, Hative Kecil, Kec. Sirimau, Kota Ambon, Maluku 97128","Jl. Jenderal Sudirman, Hative Kecil, Kec. Sirimau, Kota Ambon",MALUKU,97128.0,Indonesia,8041112479.0,,,-3.6684342,128.1982566,https://maps.google.com/?cid=0x0:0xd9a527375825a79,
hotel,hotel,,,,MALUKU,,Indonesia,,,,,,https://maps.google.com/?cid=0x0:0xd9a527375825a79%7C/g/11dzddthkt%7Cen-ID,
hotel,hotel,Airy Batu Meja Sirimau 12 Ambon,"Jl. Sirimau No.12, Kel Batu Meja, Kec. Sirimau, Kota Ambon, Maluku 97123","Kel Batu Meja, Kec. Sirimau, Kota Ambon",MALUKU,97123.0,Indonesia,8041112479.0,,,-3.6982453,128.1866202,https://maps.google.com/?cid=0x0:0x9301011cf5cb69ad,
hotel,hotel,Perhotelan,"852H+PVV, Jl. AM Sangaji, Kel Honipopu, Kec. Sirimau, Kota Ambon, Maluku","Kota Ambon, Maluku",MALUKU,,Indonesia,8041112479.0,,,-3.6981356,128.1796815,https://maps.google.com/?cid=0x0:0x20348eeefd913b5a,
hotel,hotel,Penginapan Piru Permai 1 (Hotel),"Piru, Kec. Seram Bar., Kabupaten Seram Bagian Barat, Maluku","Kabupaten Seram Bagian Barat, Maluku",MALUKU,,Indonesia,859106547976.0,,,-3.0683419,128.1987467,https://maps.google.com/?cid=0x0:0x15a3fc500b9735b1,
hotel,Tujuan Wisata,Air Terjun Lumoli,"V7FW+JVW, Bar., Kabupaten Seram Bagian, Lumoli, Kec. Seram Bar., Kabupaten Seram Bagian Barat, Maluku","Kabupaten Seram Bagian Barat, Maluku",MALUKU,,Indonesia,,,,-3.1258757,128.2972113,https://maps.google.com/?cid=0x0:0x74ef46f72babec75,
hotel,hotel,Waesala,"Kec. Huamual Belakang, Kabupaten Seram Bagian Barat, Maluku","Kabupaten Seram Bagian Barat, Maluku",MALUKU,,Indonesia,,,,-3.1946096,127.9572703,https://maps.google.com/?cid=0x0:0xe960ac9124dc066f,
hotel,hotel,Kec. Amalatu,"Kabupaten Seram Bagian Barat, Maluku","Kabupaten Seram Bagian Barat, Maluku",MALUKU,,Indonesia,,,,-3.4079418,128.6921861,https://maps.google.com/?cid=0x0:0xb6a4667e86dc46e1,
hotel,hotel,MahuLodge Dive Operator | Accomodation,"Ihamahu, Kec. Saparua Timur, Kabupaten Maluku Tengah, Maluku 97585","Kec. Saparua Timur, Kabupaten Maluku Tengah",MALUKU,97585.0,Indonesia,82125254789.0,,,-3.5286638,128.6870896,https://maps.google.com/?cid=0x0:0x66cdc8852940cb13,
hotel,hotel,Maluku Resort and Spa,"Jl Waititiri, Suli, Salahutu, Central Maluku Regency, Maluku 97582","Suli, Salahutu, Central Maluku Regency",MALUKU,97582.0,Indonesia,911361970.0,,,-3.6167962,128.2776551,https://maps.google.com/?cid=0x0:0x399bf62f92df6277,
hotel,hotel,Bellarizki Resort,"24R9+922, Saleman, Kec. Seram Utara Bar., Kabupaten Maluku Tengah, Maluku","Kabupaten Maluku Tengah, Maluku",MALUKU,,Indonesia,82198508001.0,,,-2.9591081,129.1175123,https://maps.google.com/?cid=0x0:0xc6db48cb9142d4b1,
hotel,hotel,Maluku Residence Syariah,"De Fretes No.12, Kel Waihaong, Kec. Nusaniwe, Kota Ambon, Maluku","Kota Ambon, Maluku",MALUKU,,Indonesia,,,,-3.7011319,128.1764157,https://maps.google.com/?cid=0x0:0x5e6e20d52e229730,
hotel,hotel,Hotel Perdana,"CMG5+Q6G, Jl benteng durstede, Saparua, Kec. Saparua, Kabupaten Maluku Tengah, Maluku","Kabupaten Maluku Tengah, Maluku",MALUKU,,Indonesia,,,,-3.5730506,128.6580862,https://maps.google.com/?cid=0x0:0x2a458aa63fb3d146,
hotel,hotel,Baguala Beach,"97MH+63G, Suli, Kec. Salahutu, Kabupaten Maluku Tengah, Maluku","Kabupaten Maluku Tengah, Maluku",MALUKU,,Indonesia,81259490022.0,,,-3.6169452,128.2777185,https://maps.google.com/?cid=0x0:0x632f2cf306fa3e94,
hotel,hotel,Airy Maluku City Sudirman Ambon,"85JX+J8C, Jl. Jenderal Sudirman, Hative Kecil, Kec. Sirimau, Kota Ambon, Maluku 97128","Jl. Jenderal Sudirman, Hative Kecil, Kec. Sirimau, Kota Ambon",MALUKU,97128.0,Indonesia,8041112479.0,,,-3.6684342,128.1982566,https://maps.google.com/?cid=0x0:0xd9a527375825a79,
hotel,hotel,,,,MALUKU,,Indonesia,,,,,,https://maps.google.com/?cid=0x0:0xd9a527375825a79%7C/g/11dzddthkt%7Cen-ID,
hotel,hotel,Airy Batu Meja Sirimau 12 Ambon,"Jl. Sirimau No.12, Kel Batu Meja, Kec. Sirimau, Kota Ambon, Maluku 97123","Kel Batu Meja, Kec. Sirimau, Kota Ambon",MALUKU,97123.0,Indonesia,8041112479.0,,,-3.6982453,128.1866202,https://maps.google.com/?cid=0x0:0x9301011cf5cb69ad,
hotel,hotel,Kec. Inamosol,"Kabupaten Seram Bagian Barat, Maluku","Kabupaten Seram Bagian Barat, Maluku",MALUKU,,Indonesia,,,,-3.2334031,128.4500616,https://maps.google.com/?cid=0x0:0x5bec28e34f3cb18d,
hotel,hotel,MahuLodge Dive Operator | Accomodation,"Ihamahu, Kec. Saparua Timur, Kabupaten Maluku Tengah, Maluku 97585","Kec. Saparua Timur, Kabupaten Maluku Tengah",MALUKU,97585.0,Indonesia,82125254789.0,,,-3.5286638,128.6870896,https://maps.google.com/?cid=0x0:0x66cdc8852940cb13,
hotel,hotel,Maluku Resort and Spa,"Jl Waititiri, Suli, Salahutu, Central Maluku Regency, Maluku 97582","Suli, Salahutu, Central Maluku Regency",MALUKU,97582.0,Indonesia,911361970.0,,,-3.6167962,128.2776551,https://maps.google.com/?cid=0x0:0x399bf62f92df6277,
hotel,hotel,Penginapan Piru Permai 1 (Hotel),"Piru, Kec. Seram Bar., Kabupaten Seram Bagian Barat, Maluku","Kabupaten Seram Bagian Barat, Maluku",MALUKU,,Indonesia,859106547976.0,,,-3.0683419,128.1987467,https://maps.google.com/?cid=0x0:0x15a3fc500b9735b1,
hotel,hotel,Airy Maluku City Sudirman Ambon,"85JX+J8C, Jl. Jenderal Sudirman, Hative Kecil, Kec. Sirimau, Kota Ambon, Maluku 97128","Jl. Jenderal Sudirman, Hative Kecil, Kec. Sirimau, Kota Ambon",MALUKU,97128.0,Indonesia,8041112479.0,,,-3.6684342,128.1982566,https://maps.google.com/?cid=0x0:0xd9a527375825a79,
hotel,hotel,,,,MALUKU,,Indonesia,,,,,,https://maps.google.com/?cid=0x0:0xd9a527375825a79%7C/g/11dzddthkt%7Cen-ID,
hotel,hotel,Maluku Residence Syariah,"De Fretes No.12, Kel Waihaong, Kec. Nusaniwe, Kota Ambon, Maluku","Kota Ambon, Maluku",MALUKU,,Indonesia,,,,-3.7011319,128.1764157,https://maps.google.com/?cid=0x0:0x5e6e20d52e229730,
hotel,hotel,HOTEL ISABELLA MASOHI,"Jl. Manusela No.17, Namasina, Kec. Kota Masohi, Kabupaten Maluku Tengah, Maluku 97511","Namasina, Kec. Kota Masohi, Kabupaten Maluku Tengah",MALUKU,97511.0,Indonesia,81343393345.0,,,-3.3100135,128.9465446,https://maps.google.com/?cid=0x0:0xb41663efa6c05105,
hotel,Hotel,HOTEL KAIRATU,"J9W5+27, Kairatu, Kec. Kairatu, Kabupaten Seram Bagian Barat, Maluku","Kabupaten Seram Bagian Barat, Maluku",MALUKU,,Indonesia,,,,-3.3549375,128.3581875,https://maps.google.com/?cid=0x0:0x15708d0c1f8cfcf3,
hotel,Pondok,Victoria Guesthouse @ kairatu,"M958+49W, Kairatu, Kec. Kairatu, Kabupaten Seram Bagian Barat, Maluku","Kabupaten Seram Bagian Barat, Maluku",MALUKU,,Indonesia,81230043000.0,,,-3.3421465,128.365961,https://maps.google.com/?cid=0x0:0xcd90c78ad2fa9212,
hotel,Hotel,Kings inn Guest house,"Jl. Trans Seram, Kairatu, Kec. Kairatu, Kabupaten Seram Bagian Barat, Maluku 97566","Kairatu, Kec. Kairatu, Kabupaten Seram Bagian Barat",MALUKU,97566.0,Indonesia,82228736788.0,,,-3.340429,128.3643226,https://maps.google.com/?cid=0x0:0x4368dd7378867761,
hotel,Hotel,Wakaka Cottage Kairatu Beach,"Kairatu, Kec. Kairatu, Kabupaten Seram Bagian Barat, Maluku 97566","Kec. Kairatu, Kabupaten Seram Bagian Barat",MALUKU,97566.0,Indonesia,81241715758.0,,,-3.3529184,128.3552081,https://maps.google.com/?cid=0x0:0x2bab2b6fad660974,
hotel,Pondok,Penginapan Anugrah,"M965+W9C, Waimital, Kec. Kairatu, Kabupaten Seram Bagian Barat, Maluku","Kabupaten Seram Bagian Barat, Maluku",MALUKU,,Indonesia,81343319964.0,,,-3.3376889,128.3583808,https://maps.google.com/?cid=0x0:0xdd8da1408448a749,
hotel,Pondok,Penginapan Kholifah,"Q7QJ+F3R, Jl. Trans Seram, Kamal, Kec. Kairatu Bar., Kabupaten Seram Bagian Barat, Maluku","Kabupaten Seram Bagian Barat, Maluku",MALUKU,,Indonesia,85230861145.0,,,-3.2112642,128.2801504,https://maps.google.com/?cid=0x0:0x6a7b278bafa34668,
hotel,Hotel Resor,HOTEL KAIRATU BEACH,"M953+84M, Kairatu, Kec. Kairatu, Kabupaten Seram Bagian Barat, Maluku","Kabupaten Seram Bagian Barat, Maluku",MALUKU,,Indonesia,,,,-3.341675,128.352798,https://maps.google.com/?cid=0x0:0xaf35199e0152a1db,
hotel,hotel,Kec. Huamual Belakang,"Kabupaten Seram Bagian Barat, Maluku","Kabupaten Seram Bagian Barat, Maluku",MALUKU,,Indonesia,,,,-3.2255814,128.0662787,https://maps.google.com/?cid=0x0:0x234bd4efeec3b38,
hotel,hotel,Maluku Resort and Spa,"Jl Waititiri, Suli, Salahutu, Central Maluku Regency, Maluku 97582","Suli, Salahutu, Central Maluku Regency",MALUKU,97582.0,Indonesia,911361970.0,,,-3.6167962,128.2776551,https://maps.google.com/?cid=0x0:0x399bf62f92df6277,
hotel,hotel,Casa Felice by Reccoma,"97M5+HG9, Sisingamangaraja, Passo, Kec. Baguala, Kota Ambon, Maluku 97232","Sisingamangaraja, Passo, Kec. Baguala, Kota Ambon",MALUKU,97232.0,Indonesia,9113687438.0,,,-3.6170196,128.2580921,https://maps.google.com/?cid=0x0:0x1133739d00390611,
hotel,hotel,Maluku Residence Syariah,"De Fretes No.12, Kel Waihaong, Kec. Nusaniwe, Kota Ambon, Maluku","Kota Ambon, Maluku",MALUKU,,Indonesia,,,,-3.7011319,128.1764157,https://maps.google.com/?cid=0x0:0x5e6e20d52e229730,
hotel,hotel,OYO 94023 Kost Stan,"051, Negeri Lama, Kota Ambon, Maluku 97231","Negeri Lama, Kota Ambon",MALUKU,97231.0,Indonesia,2129707601.0,,,-3.6236228,128.2450527,https://maps.google.com/?cid=0x0:0x15047ccb8c19caf1,
hotel,hotel,Nusa Ela Resort,"Ureng, Kec. Leihitu, Kabupaten Maluku Tengah, Maluku","Kabupaten Maluku Tengah, Maluku",MALUKU,,Indonesia,81332066794.0,,,-3.6507522,127.910328,https://maps.google.com/?cid=0x0:0x7f1cd5fd9fb4e0d,
hotel,hotel,Holiday Inn Hotel,"97MF+5FH, Sisingamangaraja, Passo, Kec. Baguala, Kota Ambon, Maluku 97232","Sisingamangaraja, Passo, Kec. Baguala, Kota Ambon",MALUKU,97232.0,Indonesia,911361406.0,,,-3.6170601,128.2737232,https://maps.google.com/?cid=0x0:0x4a4bdaf82201c25f,
hotel,hotel,Penginapan Piru Permai 1 (Hotel),"Piru, Kec. Seram Bar., Kabupaten Seram Bagian Barat, Maluku","Kabupaten Seram Bagian Barat, Maluku",MALUKU,,Indonesia,859106547976.0,,,-3.0683419,128.1987467,https://maps.google.com/?cid=0x0:0x15a3fc500b9735b1,
hotel,hotel,New Masoya Maluku Cottage,"85XW+FCW, Jl. Dr. J. Leimena, Poka, Kec. Tlk. Ambon, Kota Ambon, Maluku","Kota Ambon, Maluku",MALUKU,,Indonesia,85334047874.0,,,-3.6512554,128.1960639,https://maps.google.com/?cid=0x0:0xcc2de7647aa80c8f,
hotel,hotel,OYO 2221 Masoya Cottage Amboina,"Jl. Dr. J. Leimena, Poka, Kec. Tlk. Ambon, Kota Ambon, Maluku 97233","Poka, Kec. Tlk. Ambon, Kota Ambon",MALUKU,97233.0,Indonesia,2129707601.0,,,-3.6510707,128.1960189,https://maps.google.com/?cid=0x0:0x92ea2daa96082bb5,
hotel,hotel,OYO 1629 Nadine's Home,"I, Laksdya, Passo, Baguala, Kota Ambon, Maluku 97232","Laksdya, Passo, Baguala, Kota Ambon",MALUKU,97232.0,Indonesia,2129707601.0,,,-3.631656,128.25215,https://maps.google.com/?cid=0x0:0x8480353ccaaa5734,
hotel,hotel,,,,MALUKU,,Indonesia,,,,,,https://maps.google.com/?cid=0x0:0x8480353ccaaa5734%7C/g/11j2wm673z%7Cen-ID,
hotel,hotel,Airy Maluku City Sudirman Ambon,"85JX+J8C, Jl. Jenderal Sudirman, Hative Kecil, Kec. Sirimau, Kota Ambon, Maluku 97128","Jl. Jenderal Sudirman, Hative Kecil, Kec. Sirimau, Kota Ambon",MALUKU,97128.0,Indonesia,8041112479.0,,,-3.6684342,128.1982566,https://maps.google.com/?cid=0x0:0xd9a527375825a79,
hotel,hotel,,,,MALUKU,,Indonesia,,,,,,https://maps.google.com/?cid=0x0:0xd9a527375825a79%7C/g/11dzddthkt%7Cen-ID,
hotel,hotel,Kec. Kepulauan Manipa,"Kabupaten Seram Bagian Barat, Maluku","Kabupaten Seram Bagian Barat, Maluku",MALUKU,,Indonesia,,,,-3.3368083,127.5516442,https://maps.google.com/?cid=0x0:0x44a0c6a82a329841,
hotel,hotel,The Natsepa Hotel  Resort,"Jl. Natsepa No.36, Suli, Kec. Salahutu, Kabupaten Maluku Tengah, Maluku 97582","Suli, Kec. Salahutu, Kabupaten Maluku Tengah",MALUKU,97582.0,Indonesia,911362555.0,,,-3.6224597,128.2856783,https://maps.google.com/?cid=0x0:0xb66509852ba2428c,
hotel,hotel,,,,MALUKU,,Indonesia,,,,,,https://maps.google.com/?cid=0x0:0xb66509852ba2428c%7C/g/121qycpm%7Cen-ID,
hotel,hotel,,,,MALUKU,,Indonesia,,,,,,https://maps.google.com/?cid=0x0:0xd9a527375825a79%7C/g/11dzddthkt%7Cen-ID,
hotel,hotel,Harapan Indah Hotel,"Saumlaki, Jl. Bhineka, Tanimbar Sel., Kab. Kepulauan Tanimbar, Maluku","Kab. Kepulauan Tanimbar, Maluku",MALUKU,,Indonesia,81338289609.0,,,-7.9808931,131.2960111,https://maps.google.com/?cid=0x0:0x9c3b29c7f8b916cb,
hotel,hotel,Allan Bungalow,"FVFR+RR8, gunung Api, Nusantara, Kec. Banda, Kabupaten Maluku Tengah, Maluku","Kabupaten Maluku Tengah, Maluku",MALUKU,,Indonesia,8114704991.0,,,-4.5254702,129.8920786,https://maps.google.com/?cid=0x0:0xdb8b6680262f2810,
hotel,hotel,GC peningapan Banda Island,"Agil Nasrun - Desa kampung baru RT 02 banda neira, Maluku 97593",Maluku,MALUKU,,Indonesia,81315108555.0,,,-4.5194432,129.7791292,https://maps.google.com/?cid=0x0:0x91e37f0b98992c91,
hotel,hotel,Kec. Taniwel Tim.,"Kabupaten Seram Bagian Barat, Maluku","Kabupaten Seram Bagian Barat, Maluku",MALUKU,,Indonesia,,,,-2.8451525,128.6555679,https://maps.google.com/?cid=0x0:0x51e7fe5228d3a153,
hotel,hotel,Maluku Resort and Spa,"Jl Waititiri, Suli, Salahutu, Central Maluku Regency, Maluku 97582","Suli, Salahutu, Central Maluku Regency",MALUKU,97582.0,Indonesia,911361970.0,,,-3.6167962,128.2776551,https://maps.google.com/?cid=0x0:0x399bf62f92df6277,
hotel,hotel,Nakaela Lodge,"Taniwel, Kec. Taniwel, Kabupaten Seram Bagian Barat, Maluku","Kabupaten Seram Bagian Barat, Maluku",MALUKU,,Indonesia,8123881337.0,,,-2.8470515,128.4527411,https://maps.google.com/?cid=0x0:0x3c326965219ae550,
hotel,hotel,,,,MALUKU,,Indonesia,,,,,,https://maps.google.com/?cid=0x0:0xd9a527375825a79%7C/g/11dzddthkt%7Cen-ID,
hotel,hotel,Penginapan Piru Permai 1 (Hotel),"Piru, Kec. Seram Bar., Kabupaten Seram Bagian Barat, Maluku","Kabupaten Seram Bagian Barat, Maluku",MALUKU,,Indonesia,859106547976.0,,,-3.0683419,128.1987467,https://maps.google.com/?cid=0x0:0x15a3fc500b9735b1,
hotel,Tujuan Wisata,Air Terjun Lumoli,"V7FW+JVW, Bar., Kabupaten Seram Bagian, Lumoli, Kec. Seram Bar., Kabupaten Seram Bagian Barat, Maluku","Kabupaten Seram Bagian Barat, Maluku",MALUKU,,Indonesia,,,,-3.1258757,128.2972113,https://maps.google.com/?cid=0x0:0x74ef46f72babec75,
hotel,Penginapan,Mabes Anaktototy,"JMRJ+Q84, Unnamed Road, Seriholo, Kec. Amalatu, Kabupaten Seram Bagian Barat, Maluku","Kabupaten Seram Bagian Barat, Maluku",MALUKU,,Indonesia,,,,-3.3581068,128.6808245,https://maps.google.com/?cid=0x0:0xe977735c8acd7faa,
hotel,Kantor Pemerintah,Tomalehu Maluku Indonesia,"HMRV+PJ3, Jl. Trans Seram, Tomalehu, Kec. Amalatu, Kabupaten Seram Bagian Barat, Maluku","Kabupaten Seram Bagian Barat, Maluku",MALUKU,,Indonesia,,,,-3.408225,128.6940348,https://maps.google.com/?cid=0x0:0xc4f9203f0711a699,
hotel,hotel,Elpaputih,"Kabupaten Maluku Tengah, Maluku","Kabupaten Maluku Tengah, Maluku",MALUKU,,Indonesia,,,,-3.2102958,128.6949149,https://maps.google.com/?cid=0x0:0x5c490d6e0c7c3235,
hotel,hotel,Airy Maluku City Sudirman Ambon,"85JX+J8C, Jl. Jenderal Sudirman, Hative Kecil, Kec. Sirimau, Kota Ambon, Maluku 97128","Jl. Jenderal Sudirman, Hative Kecil, Kec. Sirimau, Kota Ambon",MALUKU,97128.0,Indonesia,8041112479.0,,,-3.6684342,128.1982566,https://maps.google.com/?cid=0x0:0xd9a527375825a79,
hotel,hotel,,,,MALUKU,,Indonesia,,,,,,https://maps.google.com/?cid=0x0:0xd9a527375825a79%7C/g/11dzddthkt%7Cen-ID,
restaurant,restaurant,Kairatu,"Kairatu, Kec. Kairatu, Kabupaten Seram Bagian Barat, Maluku","Kabupaten Seram Bagian Barat, Maluku",MALUKU,,Indonesia,,,,-3.341675,128.352798,https://maps.google.com/?cid=0x0:0xccc8b619c657b48e,
restaurant,Kafe,AKROPOLIS CAFE,"M975+WJJ, Waimital, Kec. Kairatu, Kabupaten Seram Bagian Barat, Maluku","Kabupaten Seram Bagian Barat, Maluku",MALUKU,,Indonesia,,,,-3.3362513,128.3571049,https://maps.google.com/?cid=0x0:0x70426270c10cdd92,
restaurant,Makanan Kecil,De'larissa RestoCafe,"Kairatu, Kec. Kairatu, Kabupaten Seram Bagian Barat, Maluku 97566","Kec. Kairatu, Kabupaten Seram Bagian Barat",MALUKU,97566.0,Indonesia,81280335559.0,,,-3.3536731,128.3559797,https://maps.google.com/?cid=0x0:0x40c4a382b1fa419e,
restaurant,Hotel Resor,Kairatu Beach,"Jl. Trans Seram, Kairatu, Kec. Kairatu, Kabupaten Seram Bagian Barat, Maluku","Kabupaten Seram Bagian Barat, Maluku",MALUKU,,Indonesia,81241715758.0,,,-3.3549168,128.3581276,https://maps.google.com/?cid=0x0:0x10955e5ff88202c,
restaurant,Hotel,Kings inn Guest house,"Jl. Trans Seram, Kairatu, Kec. Kairatu, Kabupaten Seram Bagian Barat, Maluku 97566","Kairatu, Kec. Kairatu, Kabupaten Seram Bagian Barat",MALUKU,97566.0,Indonesia,82228736788.0,,,-3.340429,128.3643226,https://maps.google.com/?cid=0x0:0x4368dd7378867761,
restaurant,Hidangan Laut,Lateri Beach Restaurant,"Lateri, Kec. Baguala, Kota Ambon, Maluku","Kota Ambon, Maluku",MALUKU,,Indonesia,81240783897.0,,,-3.6479651,128.2330484,https://maps.google.com/?cid=0x0:0x17f2f5444327987a,
restaurant,Kedai Kopi,Walang sopibel,"M953+84M, Kairatu, Kec. Kairatu, Kabupaten Seram Bagian Barat, Maluku","Kabupaten Seram Bagian Barat, Maluku",MALUKU,,Indonesia,,,,-3.341675,128.352798,https://maps.google.com/?cid=0x0:0x5b197c1ebeca5d59,
restaurant,Indonesia,Naila Resto,"M982+QGJ, Waimital, Kec. Kairatu, Kabupaten Seram Bagian Barat, Maluku","Kabupaten Seram Bagian Barat, Maluku",MALUKU,,Indonesia,,,,-3.3330315,128.3512671,https://maps.google.com/?cid=0x0:0xece1a87c9e176a25,
restaurant,Restoran,RM. MULIA LESTARI,"Waimital, Kec. Kairatu, Kabupaten Seram Bagian Barat, Maluku 97566","Kec. Kairatu, Kabupaten Seram Bagian Barat",MALUKU,97566.0,Indonesia,82197973444.0,,,-3.3313384,128.3489102,https://maps.google.com/?cid=0x0:0xbb92dcbab8a5ee5b,
restaurant,Restoran,Rumah makan SUDI MAMPIR,"M973+RXQ, Waimital, Kec. Kairatu, Kabupaten Seram Bagian Barat, Maluku","Kabupaten Seram Bagian Barat, Maluku",MALUKU,,Indonesia,,,,-3.3354235,128.3549892,https://maps.google.com/?cid=0x0:0x8d5358f429082f5d,
restaurant,Restoran,Resto Hatusua Seafood  Nusantara,"M8MJ+JR, Hatusua, Kec. Kairatu, Kabupaten Seram Bagian Barat, Maluku","Kabupaten Seram Bagian Barat, Maluku",MALUKU,,Indonesia,,,,-3.3159765,128.3319518,https://maps.google.com/?cid=0x0:0x781ae7c5eee36777,
restaurant,Restoran,Rm Anggun,"J9HF+WQC, Jl. Lintas Sumatra, Kairatu, Kec. Kairatu, Kabupaten Seram Bagian Barat, Maluku","Kabupaten Seram Bagian Barat, Maluku",MALUKU,,Indonesia,,,,-3.3701891,128.3743861,https://maps.google.com/?cid=0x0:0xba30195e283b32ac,
restaurant,Hotel,Wakaka Cottage Kairatu Beach,"Kairatu, Kec. Kairatu, Kabupaten Seram Bagian Barat, Maluku 97566","Kec. Kairatu, Kabupaten Seram Bagian Barat",MALUKU,97566.0,Indonesia,81241715758.0,,,-3.3529184,128.3552081,https://maps.google.com/?cid=0x0:0x2bab2b6fad660974,
restaurant,Kafe,ADICHEIRA CAFFE,"Waipirit, Kec. Kairatu, Kabupaten Seram Bagian Barat, Maluku 97568","Kec. Kairatu, Kabupaten Seram Bagian Barat",MALUKU,97568.0,Indonesia,,,,-3.334434,128.3422163,https://maps.google.com/?cid=0x0:0x35c657f292426518,
restaurant,Restoran,Es kimen,"M967+74P, Waimital, Kec. Kairatu, Kabupaten Seram Bagian Barat, Maluku","Kabupaten Seram Bagian Barat, Maluku",MALUKU,,Indonesia,,,,-3.339193,128.3626616,https://maps.google.com/?cid=0x0:0x17eba69f653a4b77,
restaurant,Restoran,Tenda Biru,"Q7PJ+Q7H, Bar., Kabupaten Seram Bagian, Kamal, Kec. Kairatu Bar., Kabupaten Seram Bagian Barat, Maluku","Kabupaten Seram Bagian Barat, Maluku",MALUKU,,Indonesia,,,,-3.2130705,128.2807373,https://maps.google.com/?cid=0x0:0x55210bde58ea4fee,
restaurant,Restoran,RM NGUDI REJEKI,"P87C+5RH, Jl. Trans Seram, Waihatu, Kec. Kairatu Bar., Kabupaten Seram Bagian Barat, Maluku","Kabupaten Seram Bagian Barat, Maluku",MALUKU,,Indonesia,,,,-3.2870543,128.3221189,https://maps.google.com/?cid=0x0:0x44341fb2818d5122,
restaurant,restaurant,Kec. Seram Bar.,"Kabupaten Seram Bagian Barat, Maluku","Kabupaten Seram Bagian Barat, Maluku",MALUKU,,Indonesia,,,,-3.0650683,128.194492,https://maps.google.com/?cid=0x0:0xd1612bfbfbd97a94,
restaurant,Rumah Makan,NUSA PUAN Resto,"Jl. Waipan, Piru, Kec. Seram Bar., Kabupaten Seram Bagian Barat, Maluku","Kabupaten Seram Bagian Barat, Maluku",MALUKU,,Indonesia,82198855554.0,,,-3.0705717,128.1965654,https://maps.google.com/?cid=0x0:0xf0db80c0a0249089,
restaurant,Hotel,Resto/Penginapan Pulau Osi,"X3GJ+C99, Pulau Osi, Kabupaten Seram Bagian Barat, Maluku 12230","Pulau Osi, Kabupaten Seram Bagian Barat",MALUKU,12230.0,Indonesia,85211226684.0,,,-3.0239615,128.0809751,https://maps.google.com/?cid=0x0:0x439fed4057e3b9a7,
restaurant,Rumah Makan,Resto Mandaya,"W639+CM8, Jl. Trans Seram, Etty, Kec. Seram Bar., Kabupaten Seram Bagian Barat, Maluku","Kabupaten Seram Bagian Barat, Maluku",MALUKU,,Indonesia,,,,-3.0964697,128.2191972,https://maps.google.com/?cid=0x0:0x440ff89b049ee042,
restaurant,Restoran,Agape Indah Resto  Cafe,"Jl. Trans Seram, Piru, Kec. Seram Bar., Kabupaten Seram Bagian Barat, Maluku 97562","Piru, Kec. Seram Bar., Kabupaten Seram Bagian Barat",MALUKU,97562.0,Indonesia,82137951721.0,,,-3.0881487,128.2114976,https://maps.google.com/?cid=0x0:0x3fd1c40df15b423b,
restaurant,Restoran,RM Barokah,"W5HX+G8C, Jl. Ahmad Yani, Piru, Kec. Seram Bar., Kabupaten Seram Bagian Barat, Maluku","Kabupaten Seram Bagian Barat, Maluku",MALUKU,,Indonesia,,,,-3.0711947,128.1982583,https://maps.google.com/?cid=0x0:0x796d5c323af7e8b4,
restaurant,Brunch,Resto Putri,"34HR+R6H, Negeri Kawa, Kec. Seram Bar., Kabupaten Seram Bagian Barat, Maluku","Kabupaten Seram Bagian Barat, Maluku",MALUKU,,Indonesia,,,,-2.9208117,128.1407627,https://maps.google.com/?cid=0x0:0x812725d65d5a9f70,
restaurant,Rumah Makan,Rumah Makan Arema,"W5JX+PJM, Piru, Kec. Seram Bar., Kabupaten Seram Bagian Barat, Maluku","Kabupaten Seram Bagian Barat, Maluku",MALUKU,,Indonesia,85243272660.0,,,-3.0681656,128.1990599,https://maps.google.com/?cid=0x0:0xc1a6761d74a95714,
restaurant,Padang,Rumah Makan Ayah,"W5MW+5R3, Piru, Kec. Seram Bar., Kabupaten Seram Bagian Barat, Maluku","Kabupaten Seram Bagian Barat, Maluku",MALUKU,,Indonesia,,,,-3.0671116,128.1970603,https://maps.google.com/?cid=0x0:0x9f0a9da85e533a80,
restaurant,Restoran,RM AIRYN,"W68G+94, Piru, Kec. Seram Bar., Kabupaten Seram Bagian Barat, Maluku","Kabupaten Seram Bagian Barat, Maluku",MALUKU,,Indonesia,,,,-3.0840177,128.225246,https://maps.google.com/?cid=0x0:0xcee1b9871503a28a,
restaurant,Restoran,Warung makan RM. Lestari,"W6C4+5HQ, Jl. Trans Seram, Piru, Kec. Seram Bar., Kabupaten Seram Bagian Barat, Maluku","Kabupaten Seram Bagian Barat, Maluku",MALUKU,,Indonesia,,,,-3.0795459,128.2064857,https://maps.google.com/?cid=0x0:0xf0be3f58e3cfd753,
restaurant,Restoran,Rumah Makan Telaga Indah,"W6C4+9G3, Jl. Trans Seram, Piru, Kec. Seram Bar., Kabupaten Seram Bagian Barat, Maluku","Kabupaten Seram Bagian Barat, Maluku",MALUKU,,Indonesia,821982200607.0,,,-3.0791211,128.2063079,https://maps.google.com/?cid=0x0:0xfe909ca8be1f8775,
restaurant,Rumah Makan,RM. ALAM RASA,"W6C4+G9Q, Jl. Trans Seram, Piru, Kec. Seram Bar., Kabupaten Seram Bagian Barat, Maluku","Kabupaten Seram Bagian Barat, Maluku",MALUKU,,Indonesia,81344699012.0,,,-3.0786549,128.2059747,https://maps.google.com/?cid=0x0:0x352ef0e7b2304f2c,
restaurant,Restoran,RM. Dona  Aisya,"X3GC+J9P, Etty, Kec. Seram Bar., Kabupaten Seram Bagian Barat, Maluku","Kabupaten Seram Bagian Barat, Maluku",MALUKU,,Indonesia,,,,-3.0240627,128.0720378,https://maps.google.com/?cid=0x0:0x8aa757e6f852b96a,
restaurant,Kedai Kopi,GR Coffe,"W5JX+X7H, Piru, Kec. Seram Bar., Kabupaten Seram Bagian Barat, Maluku","Kabupaten Seram Bagian Barat, Maluku",MALUKU,,Indonesia,,,,-3.0675626,128.1982371,https://maps.google.com/?cid=0x0:0x3aa1a158fbae53e9,
restaurant,Restoran,Warung Mandaya,"W5MV+QXM, Piru, Kec. Seram Bar., Kabupaten Seram Bagian Barat, Maluku","Kabupaten Seram Bagian Barat, Maluku",MALUKU,,Indonesia,81344839101.0,,,-3.0655474,128.194908,https://maps.google.com/?cid=0x0:0xaad7b2730801ebcc,
restaurant,Restoran,Warsot wisa nur aqilah,"Kotania atas, Piru, Kec. Seram Bar., Kabupaten Seram Bagian Barat, Maluku 97562","Piru, Kec. Seram Bar., Kabupaten Seram Bagian Barat",MALUKU,97562.0,Indonesia,82199535066.0,,,-3.0622447,128.1211801,https://maps.google.com/?cid=0x0:0x44da70e4ac6e000b,
restaurant,Rumah Makan,RM. Sinar Bula,"W5MW+H6P, Piru, Kec. Seram Bar., Kabupaten Seram Bagian Barat, Maluku","Kabupaten Seram Bagian Barat, Maluku",MALUKU,,Indonesia,,,,-3.0660311,128.1955824,https://maps.google.com/?cid=0x0:0x278a0591a77f9e16,
restaurant,Rumah Makan,Rumah Makan 99,"W5HW+CXM, Jl. Ahmad Yani, Piru, Kec. Seram Bar., Kabupaten Seram Bagian Barat, Maluku","Kabupaten Seram Bagian Barat, Maluku",MALUKU,,Indonesia,,,,-3.0714191,128.1974274,https://maps.google.com/?cid=0x0:0xf267466d277624c4,
restaurant,Tujuan Wisata,Pulau Osy,"X3GC+J9P, Etty, Kec. Seram Bar., Kabupaten Seram Bagian Barat, Maluku","Kabupaten Seram Bagian Barat, Maluku",MALUKU,,Indonesia,81240904826.0,,,-3.0234205,128.0709511,https://maps.google.com/?cid=0x0:0x24d849f2b6399b6d,
restaurant,Restoran,Rumah Makan Hatutelu,"W5PV+2V2, Piru, Kec. Seram Bar., Kabupaten Seram Bagian Barat, Maluku","Kabupaten Seram Bagian Barat, Maluku",MALUKU,,Indonesia,,,,-3.064981,128.1946433,https://maps.google.com/?cid=0x0:0x6a51342465b30c7,
restaurant,Indonesia,Naila Resto,"M982+QGJ, Waimital, Kec. Kairatu, Kabupaten Seram Bagian Barat, Maluku","Kabupaten Seram Bagian Barat, Maluku",MALUKU,,Indonesia,,,,-3.3330315,128.3512671,https://maps.google.com/?cid=0x0:0xece1a87c9e176a25,
restaurant,Restoran,RM. SARI RASA,"X3GC+J9P, Etty, Kec. Seram Bar., Kabupaten Seram Bagian Barat, Maluku","Kabupaten Seram Bagian Barat, Maluku",MALUKU,,Indonesia,,,,-3.02344,128.0713311,https://maps.google.com/?cid=0x0:0x564768ea3f608123,
restaurant,Restoran,Rumah Makan Kita,"Jl. Trans Seram, Kamal, Kec. Kairatu Bar., Kabupaten Seram Bagian Barat, Maluku","Kabupaten Seram Bagian Barat, Maluku",MALUKU,,Indonesia,85243632488.0,,,-3.2143636,128.2816947,https://maps.google.com/?cid=0x0:0x37aa94563c9fc8ff,
restaurant,Rumah Makan,RM. Morotuman,"M974+R7G, Jl. Trans Seram, Waimital, Kec. Kairatu, Kabupaten Seram Bagian Barat, Maluku","Kabupaten Seram Bagian Barat, Maluku",MALUKU,,Indonesia,,,,-3.3354485,128.3557115,https://maps.google.com/?cid=0x0:0x78b9e94b0d645d59,
restaurant,Rumah Makan,RM Shofiah,"W6C4+9G4, Jl. Trans Seram, Piru, Kec. Seram Bar., Kabupaten Seram Bagian Barat, Maluku","Kabupaten Seram Bagian Barat, Maluku",MALUKU,,Indonesia,,,,-3.0790471,128.2061722,https://maps.google.com/?cid=0x0:0x72c71302b0f88920,
restaurant,restaurant,Taniwel,"Taniwel, Kec. Taniwel, Kabupaten Seram Bagian Barat, Maluku","Kabupaten Seram Bagian Barat, Maluku",MALUKU,,Indonesia,,,,-2.875471,128.4478,https://maps.google.com/?cid=0x0:0x8714c1fa90eff15e,
restaurant,Brunch,Warung Dua Putra,"4FXH+J44, Jl. Kabupaten, Taniwel, Kec. Taniwel, Kabupaten Seram Bagian Barat, Maluku","Kabupaten Seram Bagian Barat, Maluku",MALUKU,,Indonesia,,,,-2.8509806,128.4778261,https://maps.google.com/?cid=0x0:0xe6912ce8171f86bb,
restaurant,Komplek perumahan,Kel lessy,"4FW9+PVJ, Taniwel, Kec. Taniwel, Kabupaten Seram Bagian Barat, Maluku","Kabupaten Seram Bagian Barat, Maluku",MALUKU,,Indonesia,,,,-2.8527902,128.4696331,https://maps.google.com/?cid=0x0:0x8ded4342969aabd9,
restaurant,restaurant,Waesala,"Kec. Huamual Belakang, Kabupaten Seram Bagian Barat, Maluku","Kabupaten Seram Bagian Barat, Maluku",MALUKU,,Indonesia,,,,-3.1946096,127.9572703,https://maps.google.com/?cid=0x0:0xe960ac9124dc066f,
restaurant,Hotel,Resto/Penginapan Pulau Osi,"X3GJ+C99, Pulau Osi, Kabupaten Seram Bagian Barat, Maluku 12230","Pulau Osi, Kabupaten Seram Bagian Barat",MALUKU,12230.0,Indonesia,85211226684.0,,,-3.0239615,128.0809751,https://maps.google.com/?cid=0x0:0x439fed4057e3b9a7,
restaurant,Dapur Umum,Mie Ayam  Bakso Mba Titi Waesala,"VW39+6V6 Andino, Waesala, Huamual Belakang, West Seram, Maluku","Kabupaten Seram Bagian Barat, Maluku",MALUKU,,Indonesia,,,,-3.1466221,127.9197438,https://maps.google.com/?cid=0x0:0x52529af17bfd4a89,
restaurant,Sarapan,WARUNG SINGGA DOLO,"Dusun Amaholu Losy, Luhu, Kec. Huamual Belakang, Kabupaten Seram Bagian Barat, Maluku","Kabupaten Seram Bagian Barat, Maluku",MALUKU,,Indonesia,81211537745.0,,,-3.3841041,127.9414184,https://maps.google.com/?cid=0x0:0x2b6e145f8b1a1f34,
restaurant,restaurant,Kec. Huamual Belakang,"Kabupaten Seram Bagian Barat, Maluku","Kabupaten Seram Bagian Barat, Maluku",MALUKU,,Indonesia,,,,-3.2255814,128.0662787,https://maps.google.com/?cid=0x0:0x234bd4efeec3b38,
restaurant,Rumah Makan,Warung nasi kuning mama macho,"PW84+3M4, Waesala, Kec. Huamual Belakang, Kabupaten Seram Bagian Barat, Maluku","Kabupaten Seram Bagian Barat, Maluku",MALUKU,,Indonesia,,,,-3.2848633,127.9067108,https://maps.google.com/?cid=0x0:0x98cfb68edb848274,
restaurant,Restoran,Warsot wisa nur aqilah,"Kotania atas, Piru, Kec. Seram Bar., Kabupaten Seram Bagian Barat, Maluku 97562","Piru, Kec. Seram Bar., Kabupaten Seram Bagian Barat",MALUKU,97562.0,Indonesia,82199535066.0,,,-3.0622447,128.1211801,https://maps.google.com/?cid=0x0:0x44da70e4ac6e000b,
restaurant,Toko,Kios unyil,"PW84+5H2, Waesala, Kec. Huamual Belakang, Kabupaten Seram Bagian Barat, Maluku","Kabupaten Seram Bagian Barat, Maluku",MALUKU,,Indonesia,,,,-3.2846136,127.9064037,https://maps.google.com/?cid=0x0:0x62ed013f12fd3c8b,
restaurant,Restoran,RM. Dona  Aisya,"X3GC+J9P, Etty, Kec. Seram Bar., Kabupaten Seram Bagian Barat, Maluku","Kabupaten Seram Bagian Barat, Maluku",MALUKU,,Indonesia,,,,-3.0240627,128.0720378,https://maps.google.com/?cid=0x0:0x8aa757e6f852b96a,
restaurant,Restoran,PINANG PUTIH,"M2C6+43Q, Iha, Kec. Huamual Belakang, Kabupaten Seram Bagian Barat, Maluku","Kabupaten Seram Bagian Barat, Maluku",MALUKU,,Indonesia,,,,-3.3296564,128.0102284,https://maps.google.com/?cid=0x0:0x9467ba8b89972f86,
restaurant,Sarapan,Kedai Anis,"JXFP+6PM, Luhu, Kec. Huamual Belakang, Kabupaten Seram Bagian Barat, Maluku","Kabupaten Seram Bagian Barat, Maluku",MALUKU,,Indonesia,,,,-3.3769138,127.9868056,https://maps.google.com/?cid=0x0:0x1d61e7ebce2cdeec,
restaurant,Tujuan Wisata,Pulau Osy,"X3GC+J9P, Etty, Kec. Seram Bar., Kabupaten Seram Bagian Barat, Maluku","Kabupaten Seram Bagian Barat, Maluku",MALUKU,,Indonesia,81240904826.0,,,-3.0234205,128.0709511,https://maps.google.com/?cid=0x0:0x24d849f2b6399b6d,
restaurant,Restoran,RM. Kampung Nelayan Mama Viqa,"X3HF+6JF, Etty, Kabupaten Seram Bagian Barat, Maluku","Kabupaten Seram Bagian Barat, Maluku",MALUKU,,Indonesia,81344387110.0,,,-3.0206373,128.0736012,https://maps.google.com/?cid=0x0:0x9732a78fce8a5845,
restaurant,Rumah Makan,Warung makanan masak bunda anti,"PW74+XC2, Dusun Tapinalu, Waesala, Kec. Huamual Belakang, Kabupaten Seram Bagian Barat, Maluku","Kabupaten Seram Bagian Barat, Maluku",MALUKU,,Indonesia,,,,-3.2851262,127.9060472,https://maps.google.com/?cid=0x0:0x7bb836d918e38bc9,
restaurant,Restoran,Wailela Cafe and Resto | Ambon,"Jl. Kampus, Rumah Tiga, Kec. Tlk. Ambon, Kota Ambon, Maluku","Kota Ambon, Maluku",MALUKU,,Indonesia,82399522113.0,,,-3.6610624,128.180609,https://maps.google.com/?cid=0x0:0x3acbc85ce4ef2d6d,
restaurant,Warnet,Hotspot Selluler,"RWV3+J4Q, Waesala, Kec. Huamual Belakang, Kabupaten Seram Bagian Barat, Maluku","Kabupaten Seram Bagian Barat, Maluku",MALUKU,,Indonesia,,,,-3.1559164,127.9028618,https://maps.google.com/?cid=0x0:0x86aa95a7f5cba2af,
restaurant,Hidangan Laut,Indago Resort and Restaurant,"X3GM+QCH, Pulau Osy Kab, Etty, Kabupaten Seram Bagian Barat, Maluku","Kabupaten Seram Bagian Barat, Maluku",MALUKU,,Indonesia,,,,-3.0230677,128.0836099,https://maps.google.com/?cid=0x0:0x40e304940f9d361a,
restaurant,Kedai Kopi,Four Senja,"VW4F+563, Waesala, Kabupaten Seram Bagian Barat, Maluku","Kabupaten Seram Bagian Barat, Maluku",MALUKU,,Indonesia,,,,-3.1446234,127.9230475,https://maps.google.com/?cid=0x0:0x445d09832bc90519,
restaurant,Restoran,Walang Matasiri Maluku Resto,"JV98+824, Jl. Ir. H. Juanda, Cisalak, Kec. Sukmajaya, Kota Depok, Jawa Barat 16416","Jl. Ir. H. Juanda, Cisalak, Kec. Sukmajaya, Kota Depok",MALUKU,16416.0,Indonesia,,,,-6.3817486,106.8651251,https://maps.google.com/?cid=0x0:0x63334b622f58bba5,
restaurant,Kafe,Teguh,"P3Q3+CV4, Lokki, Kec. Huamual Belakang, Kabupaten Seram Bagian Barat, Maluku","Kabupaten Seram Bagian Barat, Maluku",MALUKU,,Indonesia,,,,-3.2628026,128.0544724,https://maps.google.com/?cid=0x0:0xabd62426a27b08ba,
restaurant,Sarapan,Rumah makan terapung masika jaya,"W2FF+CP9, Waesala, Kec. Huamual Belakang, Kabupaten Seram Bagian Barat, Maluku","Kabupaten Seram Bagian Barat, Maluku",MALUKU,,Indonesia,82198335232.0,,,-3.0764698,128.0243589,https://maps.google.com/?cid=0x0:0x558e95a0631b929a,
restaurant,Kios,Fikram tomia,"Tanjung Erang, Luhu, Kec. Huamual Belakang, Kabupaten Seram Bagian Barat, Maluku","Kabupaten Seram Bagian Barat, Maluku",MALUKU,,Indonesia,,,,-3.2983903,127.9200072,https://maps.google.com/?cid=0x0:0x4e28c94dfc2480db,
restaurant,restaurant,RM. SIDO MAMPIR,"VW3C+GGH, Waesala, Kec. Huamual Belakang, Kabupaten Seram Bagian Barat, Maluku","Kabupaten Seram Bagian Barat, Maluku",MALUKU,,Indonesia,81340396674.0,,,-3.1461923,127.9213449,https://maps.google.com/?cid=0x0:0x537ca28f4022b58f,
restaurant,Klub Malam,Favor,"VXH3+587, Alang Asaude, Kec. Huamual Belakang, Kabupaten Seram Bagian Barat, Maluku","Kabupaten Seram Bagian Barat, Maluku",MALUKU,,Indonesia,,,,-3.122925,127.952724,https://maps.google.com/?cid=0x0:0xd98a4933b9fdece,
restaurant,restaurant,Kec. Amalatu,"Kabupaten Seram Bagian Barat, Maluku","Kabupaten Seram Bagian Barat, Maluku",MALUKU,,Indonesia,,,,-3.4079418,128.6921861,https://maps.google.com/?cid=0x0:0xb6a4667e86dc46e1,
restaurant,Dapur Umum,Halte Tomalehu Part III,"HMRV+3FX, Tomalehu, Kec. Amalatu, Kabupaten Seram Bagian Barat, Maluku","Kabupaten Seram Bagian Barat, Maluku",MALUKU,,Indonesia,,,,-3.4097514,128.6937353,https://maps.google.com/?cid=0x0:0xd0251315ef392e44,
restaurant,Dapur Umum,"Tomollo Rizky-Vikry Cafe, Latu","HM98+7V6, Tomalehu, Kec. Amalatu, Kabupaten Seram Bagian Barat, Maluku","Kabupaten Seram Bagian Barat, Maluku",MALUKU,,Indonesia,81240733356.0,,,-3.431845,128.6671427,https://maps.google.com/?cid=0x0:0x6b475872c430db2f,
restaurant,Komplek perumahan,Kompleks Cinta Damai,"HMRV+V7J, Hualoy, Kec. Amalatu, Kabupaten Seram Bagian Barat, Maluku","Kabupaten Seram Bagian Barat, Maluku",MALUKU,,Indonesia,82238504875.0,,,-3.4077895,128.6931271,https://maps.google.com/?cid=0x0:0xb75d1e7902b4ac27,
restaurant,Dapur Umum,Warung gado gado,"HMJP+4F8, Latu, Kec. Amalatu, Kabupaten Seram Bagian Barat, Maluku","Kabupaten Seram Bagian Barat, Maluku",MALUKU,,Indonesia,,,,-3.4197011,128.6862106,https://maps.google.com/?cid=0x0:0x77e91c6717c7e3ca,
restaurant,Brunch,Walang gorengan umi nailah,"HMMR+H4W, Latu, Kec. Amalatu, Kabupaten Seram Bagian Barat, Maluku","Kabupaten Seram Bagian Barat, Maluku",MALUKU,,Indonesia,82238982466.0,,,-3.4160032,128.6903437,https://maps.google.com/?cid=0x0:0xc57207414a07ea52,
restaurant,Kedai Kopi,Kafe baku dapa,"Latu, Kec. Amalatu, Ambon, Maluku","Ambon, Maluku",MALUKU,,Indonesia,81248976704.0,,,-3.4157799,128.6911338,https://maps.google.com/?cid=0x0:0x19ca7a4ed0544c4a,
restaurant,Brunch,Warung noliga,"HG3R+66C, Rumahkay, Kec. Amalatu, Kabupaten Seram Bagian Barat, Maluku","Kabupaten Seram Bagian Barat, Maluku",MALUKU,,Indonesia,82198829188.0,,,-3.4469268,128.5405045,https://maps.google.com/?cid=0x0:0xe02c42b349dc9545,
restaurant,restaurant,Kediaman behlul,"HMHQ+X7H, Latu, Kec. Amalatu, Kabupaten Seram Bagian Barat, Maluku","Kabupaten Seram Bagian Barat, Maluku",MALUKU,,Indonesia,,,,-3.4201024,128.6882796,https://maps.google.com/?cid=0x0:0x1084c114355ef553,
restaurant,Dapur Umum,"Kedai Damaskus Ø¯ÙØ´Ù, Latu","HMGJ+HC9, Jl. Trans Seram, Latu, Kec. Amalatu, Kabupaten Seram Bagian Barat, Maluku","Kabupaten Seram Bagian Barat, Maluku",MALUKU,,Indonesia,,,,-3.4230415,128.6814025,https://maps.google.com/?cid=0x0:0x503ccc1557aef60f,
restaurant,Brunch,Rujak mama weya,"HMQV+RJ4, Jl. Trans Seram, Tomalehu, Kec. Amalatu, Kabupaten Seram Bagian Barat, Maluku","Kabupaten Seram Bagian Barat, Maluku",MALUKU,,Indonesia,,,,-3.4104838,128.6940881,https://maps.google.com/?cid=0x0:0x95837576dee314b2,
restaurant,Restoran,The Malinan Kei Islands Resto and Cafe,"Jl. Raya Merdeka, Kel. Ohoijang Watdek, Kec. Kei Kecil, Kabupaten Maluku Tenggara, Maluku","Kabupaten Maluku Tenggara, Maluku",MALUKU,,Indonesia,81289094253.0,,,-5.6462414,132.7393326,https://maps.google.com/?cid=0x0:0x13f8227fc228798a,
restaurant,Komplek perumahan,Kermite House,"HG3P+7X8, Rumahkay, Kec. Amalatu, Kabupaten Seram Bagian Barat, Maluku","Kabupaten Seram Bagian Barat, Maluku",MALUKU,,Indonesia,,,,-3.4463372,128.5375071,https://maps.google.com/?cid=0x0:0xe4efb6eb378be936,
restaurant,Hidangan Laut,Lateri Beach Restaurant,"Lateri, Kec. Baguala, Kota Ambon, Maluku","Kota Ambon, Maluku",MALUKU,,Indonesia,81240783897.0,,,-3.6479651,128.2330484,https://maps.google.com/?cid=0x0:0x17f2f5444327987a,
restaurant,Pembangunan Perumahan,Rafa Wifi Coffee,"HMQV+PFJ, Tomalehu, Kec. Amalatu, Kabupaten Seram Bagian Barat, Maluku","Kabupaten Seram Bagian Barat, Maluku",MALUKU,,Indonesia,81247360882.0,,,-3.4106507,128.6936257,https://maps.google.com/?cid=0x0:0x1a812847ec6d05ea,
restaurant,Toko umum,Kedai Lawataka,"HMVR+9GH, Jl. Trans Seram, Hualoy, Kec. Amalatu, Kabupaten Seram Bagian Barat, Maluku","Kabupaten Seram Bagian Barat, Maluku",MALUKU,,Indonesia,,,,-3.4066686,128.6912344,https://maps.google.com/?cid=0x0:0x70df753b182f43d0,
restaurant,restaurant,Restoran SABAING LATALE,"HMRV+PC5, Tomalehu, Kec. Amalatu, Kabupaten Seram Bagian Barat, Maluku","Kabupaten Seram Bagian Barat, Maluku",MALUKU,,Indonesia,,,,-3.4082457,128.6935997,https://maps.google.com/?cid=0x0:0xe759c02e15a271d6,
restaurant,restaurant,Kec. Inamosol,"Kabupaten Seram Bagian Barat, Maluku","Kabupaten Seram Bagian Barat, Maluku",MALUKU,,Indonesia,,,,-3.2334031,128.4500616,https://maps.google.com/?cid=0x0:0x5bec28e34f3cb18d,
restaurant,Indonesia,Naila Resto,"M982+QGJ, Waimital, Kec. Kairatu, Kabupaten Seram Bagian Barat, Maluku","Kabupaten Seram Bagian Barat, Maluku",MALUKU,,Indonesia,,,,-3.3330315,128.3512671,https://maps.google.com/?cid=0x0:0xece1a87c9e176a25,
restaurant,Kafe,Dluku Cafee  Resort,"Jl. Ir . Mohammad Khosi, Waimital, Kec. Kairatu, Ambon, Maluku 97566","Waimital, Kec. Kairatu, Ambon",MALUKU,97566.0,Indonesia,81240221127.0,,,-3.3135564,128.3676982,https://maps.google.com/?cid=0x0:0xd71b08a0e37ca59a,
restaurant,Kafe,Cafe Apuiro,"Air buaya, Kec. Inamosol, Kabupaten Seram Bagian Barat, Maluku","Kabupaten Seram Bagian Barat, Maluku",MALUKU,,Indonesia,,,,-3.1274613,128.400607,https://maps.google.com/?cid=0x0:0x33e8edebdcd4f30f,
restaurant,Restoran,RM ANUGRAH,"M967+557, Jl. Trans Seram, Waimital, Kec. Kairatu, Kabupaten Seram Bagian Barat, Maluku","Kabupaten Seram Bagian Barat, Maluku",MALUKU,,Indonesia,,,,-3.3395959,128.3629068,https://maps.google.com/?cid=0x0:0xb2b5d9bfc14b28c0,
restaurant,Brunch,RM LATANSA 99,"M975+28V, Waimital, Kec. Kairatu, Kabupaten Seram Bagian Barat, Maluku","Kabupaten Seram Bagian Barat, Maluku",MALUKU,,Indonesia,85243230055.0,,,-3.3373956,128.3582844,https://maps.google.com/?cid=0x0:0x32e81c5b4c36f3da,
restaurant,Kafe,AKROPOLIS CAFE,"M975+WJJ, Waimital, Kec. Kairatu, Kabupaten Seram Bagian Barat, Maluku","Kabupaten Seram Bagian Barat, Maluku",MALUKU,,Indonesia,,,,-3.3362513,128.3571049,https://maps.google.com/?cid=0x0:0x70426270c10cdd92,
restaurant,Restoran,Rumah makan SUDI MAMPIR,"M973+RXQ, Waimital, Kec. Kairatu, Kabupaten Seram Bagian Barat, Maluku","Kabupaten Seram Bagian Barat, Maluku",MALUKU,,Indonesia,,,,-3.3354235,128.3549892,https://maps.google.com/?cid=0x0:0x8d5358f429082f5d,
restaurant,Restoran,WaterBoom  LukuCaffe_Kampung Rambutan,"M9P8+GRP, Waimital, Kec. Kairatu, Kabupaten Seram Bagian Barat, Maluku","Kabupaten Seram Bagian Barat, Maluku",MALUKU,,Indonesia,,,,-3.3136624,128.3670834,https://maps.google.com/?cid=0x0:0x3a0aabe8ba383468,
restaurant,Dapur Umum,Top Bakso dan Mie Ayam Lesehan 354 Gemba,"arah Rindam, Jalan Ir Jl. Ir. Mohamad Khosim, Waimital, Kec. Kairatu, Kabupaten Seram Bagian Barat, Maluku","Kabupaten Seram Bagian Barat, Maluku",MALUKU,,Indonesia,82197537526.0,,,-3.3328522,128.3557299,https://maps.google.com/?cid=0x0:0xad9d55b369afb9c6,
restaurant,Rumah Makan,RM. Morotuman,"M974+R7G, Jl. Trans Seram, Waimital, Kec. Kairatu, Kabupaten Seram Bagian Barat, Maluku","Kabupaten Seram Bagian Barat, Maluku",MALUKU,,Indonesia,,,,-3.3354485,128.3557115,https://maps.google.com/?cid=0x0:0x78b9e94b0d645d59,
restaurant,Restoran,Rm.FATINA,"M982+R9H, Jl. Trans Seram, Waimital, Kec. Kairatu, Kabupaten Seram Bagian Barat, Maluku","Kabupaten Seram Bagian Barat, Maluku",MALUKU,,Indonesia,,,,-3.3329444,128.3509918,https://maps.google.com/?cid=0x0:0x21de67a067958712,
restaurant,Kafe,DE Angkringan,"Waimital, Kec. Kairatu, Kabupaten Seram Bagian Barat, Maluku","Kabupaten Seram Bagian Barat, Maluku",MALUKU,,Indonesia,81240526308.0,,,-3.3335217,128.3554582,https://maps.google.com/?cid=0x0:0x3f0b7203f664f4b3,
restaurant,Restoran,Resto Hatusua Seafood  Nusantara,"M8MJ+JR, Hatusua, Kec. Kairatu, Kabupaten Seram Bagian Barat, Maluku","Kabupaten Seram Bagian Barat, Maluku",MALUKU,,Indonesia,,,,-3.3159765,128.3319518,https://maps.google.com/?cid=0x0:0x781ae7c5eee36777,
restaurant,Dapur Umum,"Tomollo Rizky-Vikry Cafe, Latu","HM98+7V6, Tomalehu, Kec. Amalatu, Kabupaten Seram Bagian Barat, Maluku","Kabupaten Seram Bagian Barat, Maluku",MALUKU,,Indonesia,81240733356.0,,,-3.431845,128.6671427,https://maps.google.com/?cid=0x0:0x6b475872c430db2f,
restaurant,Restoran,Martabak Om Kumis,"M983+H2J, Waimital, Kec. Kairatu, Kabupaten Seram Bagian Barat, Maluku","Kabupaten Seram Bagian Barat, Maluku",MALUKU,,Indonesia,82199217373.0,,,-3.333534,128.3525072,https://maps.google.com/?cid=0x0:0x55b047653e5ea0fb,
restaurant,Restoran,Rm Anggun,"J9HF+WQC, Jl. Lintas Sumatra, Kairatu, Kec. Kairatu, Kabupaten Seram Bagian Barat, Maluku","Kabupaten Seram Bagian Barat, Maluku",MALUKU,,Indonesia,,,,-3.3701891,128.3743861,https://maps.google.com/?cid=0x0:0xba30195e283b32ac,
restaurant,Restoran,Rumah makan jusgren,"M88R+3HV, Jl. Dermaga Waipirit, Waipirit, Kec. Kairatu, Kabupaten Seram Bagian Barat, Maluku","Kabupaten Seram Bagian Barat, Maluku",MALUKU,,Indonesia,81248621001.0,,,-3.334773,128.3414238,https://maps.google.com/?cid=0x0:0x44611bedd7c99f94,
restaurant,Restoran,The Malinan Kei Islands Resto and Cafe,"Jl. Raya Merdeka, Kel. Ohoijang Watdek, Kec. Kei Kecil, Kabupaten Maluku Tenggara, Maluku","Kabupaten Maluku Tenggara, Maluku",MALUKU,,Indonesia,81289094253.0,,,-5.6462414,132.7393326,https://maps.google.com/?cid=0x0:0x13f8227fc228798a,
restaurant,Restoran,Es kimen,"M967+74P, Waimital, Kec. Kairatu, Kabupaten Seram Bagian Barat, Maluku","Kabupaten Seram Bagian Barat, Maluku",MALUKU,,Indonesia,,,,-3.339193,128.3626616,https://maps.google.com/?cid=0x0:0x17eba69f653a4b77,
restaurant,Kantor Pemerintah,Puskesmas Inamosol,"M9RW+4R4, Waimital, Kec. Kairatu, Kabupaten Seram Bagian Barat, Maluku","Kabupaten Seram Bagian Barat, Maluku",MALUKU,,Indonesia,,,,-3.3097441,128.3970877,https://maps.google.com/?cid=0x0:0xdd61e73d11770679,
restaurant,Makanan Kecil,De'larissa RestoCafe,"Kairatu, Kec. Kairatu, Kabupaten Seram Bagian Barat, Maluku 97566","Kec. Kairatu, Kabupaten Seram Bagian Barat",MALUKU,97566.0,Indonesia,81280335559.0,,,-3.3536731,128.3559797,https://maps.google.com/?cid=0x0:0x40c4a382b1fa419e,
restaurant,Makanan Kecil,RESTO NOZIRAH WAIPIRIT,"M89W+VH2, Jl. Trans Seram, Waipirit, Kec. Kairatu, Kabupaten Seram Bagian Barat, Maluku","Kabupaten Seram Bagian Barat, Maluku",MALUKU,,Indonesia,,,,-3.3302556,128.3464741,https://maps.google.com/?cid=0x0:0x9d12bfc08edfb088,
restaurant,Rumah Makan,Rumah makan yuni,"J9HG+H86, Jl. Trans Seram, Dusun Air Buaya, Kec. Kairatu, Kabupaten Seram Bagian Barat, Maluku","Kabupaten Seram Bagian Barat, Maluku",MALUKU,,Indonesia,81240949352.0,,,-3.3710898,128.3757688,https://maps.google.com/?cid=0x0:0xd95576f092371ced,
restaurant,Komplek perumahan,Kompleks Cinta Damai,"HMRV+V7J, Hualoy, Kec. Amalatu, Kabupaten Seram Bagian Barat, Maluku","Kabupaten Seram Bagian Barat, Maluku",MALUKU,,Indonesia,82238504875.0,,,-3.4077895,128.6931271,https://maps.google.com/?cid=0x0:0xb75d1e7902b4ac27,
restaurant,Restoran,RM Bunda Nailah,"M974+V34, Jl. Trans Seram, Waimital, Kec. Kairatu, Kabupaten Seram Bagian Barat, Maluku","Kabupaten Seram Bagian Barat, Maluku",MALUKU,,Indonesia,,,,-3.3382353,128.3598044,https://maps.google.com/?cid=0x0:0xf24a95fc3e70508e,
restaurant,Indonesia,Naila Resto,"M982+QGJ, Waimital, Kec. Kairatu, Kabupaten Seram Bagian Barat, Maluku","Kabupaten Seram Bagian Barat, Maluku",MALUKU,,Indonesia,,,,-3.3330315,128.3512671,https://maps.google.com/?cid=0x0:0xece1a87c9e176a25,
restaurant,Restoran,RM. MULIA LESTARI,"Waimital, Kec. Kairatu, Kabupaten Seram Bagian Barat, Maluku 97566","Kec. Kairatu, Kabupaten Seram Bagian Barat",MALUKU,97566.0,Indonesia,82197973444.0,,,-3.3313384,128.3489102,https://maps.google.com/?cid=0x0:0xbb92dcbab8a5ee5b,
restaurant,Restoran,RM ANUGRAH,"M967+557, Jl. Trans Seram, Waimital, Kec. Kairatu, Kabupaten Seram Bagian Barat, Maluku","Kabupaten Seram Bagian Barat, Maluku",MALUKU,,Indonesia,,,,-3.3395959,128.3629068,https://maps.google.com/?cid=0x0:0xb2b5d9bfc14b28c0,
restaurant,Rumah Makan,RM. Morotuman,"M974+R7G, Jl. Trans Seram, Waimital, Kec. Kairatu, Kabupaten Seram Bagian Barat, Maluku","Kabupaten Seram Bagian Barat, Maluku",MALUKU,,Indonesia,,,,-3.3354485,128.3557115,https://maps.google.com/?cid=0x0:0x78b9e94b0d645d59,
restaurant,Restoran,RM Syafira,"M983+868, Waimital, Kec. Kairatu, Kabupaten Seram Bagian Barat, Maluku","Kabupaten Seram Bagian Barat, Maluku",MALUKU,,Indonesia,85344863735.0,,,-3.3342064,128.3530785,https://maps.google.com/?cid=0x0:0x8d8657f8947f12eb,
restaurant,Restoran,Rm Anggun,"J9HF+WQC, Jl. Lintas Sumatra, Kairatu, Kec. Kairatu, Kabupaten Seram Bagian Barat, Maluku","Kabupaten Seram Bagian Barat, Maluku",MALUKU,,Indonesia,,,,-3.3701891,128.3743861,https://maps.google.com/?cid=0x0:0xba30195e283b32ac,
restaurant,Brunch,Rm Kendedes,"Q7MJ+XGH, Kamal, Kec. Kairatu Bar., Kabupaten Seram Bagian Barat, Maluku","Kabupaten Seram Bagian Barat, Maluku",MALUKU,,Indonesia,81240010063.0,,,-3.2150558,128.2813711,https://maps.google.com/?cid=0x0:0x52dea2328b1153a,
restaurant,Restoran,WaterBoom  LukuCaffe_Kampung Rambutan,"M9P8+GRP, Waimital, Kec. Kairatu, Kabupaten Seram Bagian Barat, Maluku","Kabupaten Seram Bagian Barat, Maluku",MALUKU,,Indonesia,,,,-3.3136624,128.3670834,https://maps.google.com/?cid=0x0:0x3a0aabe8ba383468,
restaurant,Restoran,Rumah Makan Kita,"Jl. Trans Seram, Kamal, Kec. Kairatu Bar., Kabupaten Seram Bagian Barat, Maluku","Kabupaten Seram Bagian Barat, Maluku",MALUKU,,Indonesia,85243632488.0,,,-3.2143636,128.2816947,https://maps.google.com/?cid=0x0:0x37aa94563c9fc8ff,
restaurant,Kafe,AKROPOLIS CAFE,"M975+WJJ, Waimital, Kec. Kairatu, Kabupaten Seram Bagian Barat, Maluku","Kabupaten Seram Bagian Barat, Maluku",MALUKU,,Indonesia,,,,-3.3362513,128.3571049,https://maps.google.com/?cid=0x0:0x70426270c10cdd92,
restaurant,Kafe,Dluku Cafee  Resort,"Jl. Ir . Mohammad Khosi, Waimital, Kec. Kairatu, Ambon, Maluku 97566","Waimital, Kec. Kairatu, Ambon",MALUKU,97566.0,Indonesia,81240221127.0,,,-3.3135564,128.3676982,https://maps.google.com/?cid=0x0:0xd71b08a0e37ca59a,
restaurant,Padang,Rumah makan Ibu Nur,"Q7PH+XPW, Kamal, Kec. Kairatu Bar., Kabupaten Seram Bagian Barat, Maluku","Kabupaten Seram Bagian Barat, Maluku",MALUKU,,Indonesia,813236357.0,,,-3.2125156,128.2793365,https://maps.google.com/?cid=0x0:0xa9bd5171e9edda7f,
restaurant,Restoran,Tenda Biru,"Q7PJ+Q7H, Bar., Kabupaten Seram Bagian, Kamal, Kec. Kairatu Bar., Kabupaten Seram Bagian Barat, Maluku","Kabupaten Seram Bagian Barat, Maluku",MALUKU,,Indonesia,,,,-3.2130705,128.2807373,https://maps.google.com/?cid=0x0:0x55210bde58ea4fee,
restaurant,Brunch,RM LATANSA 99,"M975+28V, Waimital, Kec. Kairatu, Kabupaten Seram Bagian Barat, Maluku","Kabupaten Seram Bagian Barat, Maluku",MALUKU,,Indonesia,85243230055.0,,,-3.3373956,128.3582844,https://maps.google.com/?cid=0x0:0x32e81c5b4c36f3da,
restaurant,Restoran,Rm.FATINA,"M982+R9H, Jl. Trans Seram, Waimital, Kec. Kairatu, Kabupaten Seram Bagian Barat, Maluku","Kabupaten Seram Bagian Barat, Maluku",MALUKU,,Indonesia,,,,-3.3329444,128.3509918,https://maps.google.com/?cid=0x0:0x21de67a067958712,
restaurant,Restoran,Rumah makan SUDI MAMPIR,"M973+RXQ, Waimital, Kec. Kairatu, Kabupaten Seram Bagian Barat, Maluku","Kabupaten Seram Bagian Barat, Maluku",MALUKU,,Indonesia,,,,-3.3354235,128.3549892,https://maps.google.com/?cid=0x0:0x8d5358f429082f5d,
restaurant,Restoran,Rumah makan jusgren,"M88R+3HV, Jl. Dermaga Waipirit, Waipirit, Kec. Kairatu, Kabupaten Seram Bagian Barat, Maluku","Kabupaten Seram Bagian Barat, Maluku",MALUKU,,Indonesia,81248621001.0,,,-3.334773,128.3414238,https://maps.google.com/?cid=0x0:0x44611bedd7c99f94,
restaurant,Restoran,Warung Sate,"M975+3C7, Jl. Trans Seram, Waimital, Kec. Kairatu, Kabupaten Seram Bagian Barat, Maluku","Kabupaten Seram Bagian Barat, Maluku",MALUKU,,Indonesia,,,,-3.3373362,128.3585362,https://maps.google.com/?cid=0x0:0x8adec035c8c81bac,
restaurant,Restoran,RM Bunda Nailah,"M974+V34, Jl. Trans Seram, Waimital, Kec. Kairatu, Kabupaten Seram Bagian Barat, Maluku","Kabupaten Seram Bagian Barat, Maluku",MALUKU,,Indonesia,,,,-3.3382353,128.3598044,https://maps.google.com/?cid=0x0:0xf24a95fc3e70508e,
restaurant,Kafe,DE Angkringan,"Waimital, Kec. Kairatu, Kabupaten Seram Bagian Barat, Maluku","Kabupaten Seram Bagian Barat, Maluku",MALUKU,,Indonesia,81240526308.0,,,-3.3335217,128.3554582,https://maps.google.com/?cid=0x0:0x3f0b7203f664f4b3,
restaurant,Betawi,Dapur Fizzul - Rumah Makan Khas Maluku Jakarta No.1 Halal di Dunia,"Food Court Depan Grha Essi, Jl. Raya Ceger No.5, RT.5/RW.1, Ceger, Kec. Cipayung, Kota Jakarta Timur, Daerah Khusus Ibukota Jakarta 13820","Jl. Raya Ceger No.5, RT.5/RW.1, Ceger, Kec. Cipayung, Kota Jakarta Timur",MALUKU,13820.0,Indonesia,82131529069.0,,,-6.307207,106.8886462,https://maps.google.com/?cid=0x0:0xb39e6e8a1a4f4d03,
restaurant,restaurant,Kec. Huamual Belakang,"Kabupaten Seram Bagian Barat, Maluku","Kabupaten Seram Bagian Barat, Maluku",MALUKU,,Indonesia,,,,-3.2255814,128.0662787,https://maps.google.com/?cid=0x0:0x234bd4efeec3b38,
restaurant,Sarapan,WARUNG SINGGA DOLO,"Dusun Amaholu Losy, Luhu, Kec. Huamual Belakang, Kabupaten Seram Bagian Barat, Maluku","Kabupaten Seram Bagian Barat, Maluku",MALUKU,,Indonesia,81211537745.0,,,-3.3841041,127.9414184,https://maps.google.com/?cid=0x0:0x2b6e145f8b1a1f34,
restaurant,Rumah Makan,rumah makan simpang tiga,"JX8J+MQ5, Luhu, Kec. Huamual Belakang, Kabupaten Seram Bagian Barat, Maluku","Kabupaten Seram Bagian Barat, Maluku",MALUKU,,Indonesia,,,,-3.3833536,127.981979,https://maps.google.com/?cid=0x0:0xd9cda9d417a6e98,
restaurant,restaurant,Rumah Makan Hilyah Talaga,"Dusun Talaga, Luhu, Kec. Huamual Belakang, Kabupaten Seram Bagian Barat, Maluku","Kabupaten Seram Bagian Barat, Maluku",MALUKU,,Indonesia,81279268158.0,,,-3.3639803,127.9678652,https://maps.google.com/?cid=0x0:0xd62966fa07a2200d,
restaurant,Kafe,Pinang putih,"JX4H+WHW, Kulur, Kec. Huamual Belakang, Kabupaten Seram Bagian Barat, Maluku","Kabupaten Seram Bagian Barat, Maluku",MALUKU,,Indonesia,,,,-3.392738,127.97856,https://maps.google.com/?cid=0x0:0xab08dcf2b5ce5f34,
restaurant,Restoran,PINANG PUTIH,"M2C6+43Q, Iha, Kec. Huamual Belakang, Kabupaten Seram Bagian Barat, Maluku","Kabupaten Seram Bagian Barat, Maluku",MALUKU,,Indonesia,,,,-3.3296564,128.0102284,https://maps.google.com/?cid=0x0:0x9467ba8b89972f86,
restaurant,Kedai Kopi,Caffe Love Story Waemitena,"JXJR+C6M, Luhu, Kec. Huamual Belakang, Kabupaten Seram Bagian Barat, Maluku","Kabupaten Seram Bagian Barat, Maluku",MALUKU,,Indonesia,,,,-3.3689045,127.9905372,https://maps.google.com/?cid=0x0:0xd3e0534722fd1f67,
restaurant,Kafe,Waroeng MARS,"JX7J+3M5, Unnamed Road, Luhu, Kec. Huamual Belakang, Kabupaten Seram Bagian Barat, Maluku","Kabupaten Seram Bagian Barat, Maluku",MALUKU,,Indonesia,,,,-3.3873548,127.9817314,https://maps.google.com/?cid=0x0:0x51f8a4850bf4891b,
restaurant,Restoran,Rumah Makan Hatutelu,"W5PV+2V2, Piru, Kec. Seram Bar., Kabupaten Seram Bagian Barat, Maluku","Kabupaten Seram Bagian Barat, Maluku",MALUKU,,Indonesia,,,,-3.064981,128.1946433,https://maps.google.com/?cid=0x0:0x6a51342465b30c7,
restaurant,Kafe,Rumah Hunipopu,"Ariate, Kec. Huamual Belakang, Kabupaten Seram Bagian Barat, Maluku","Kabupaten Seram Bagian Barat, Maluku",MALUKU,,Indonesia,81248675354.0,,,-3.1906899,128.0686586,https://maps.google.com/?cid=0x0:0xa93e0fac5749561d,
restaurant,Dapur Umum,Kantin SD Inpres tapinalu,"PW84+478, Waesala, Kec. Huamual Belakang, Kabupaten Seram Bagian Barat, Maluku","Kabupaten Seram Bagian Barat, Maluku",MALUKU,,Indonesia,,,,-3.2847835,127.9056304,https://maps.google.com/?cid=0x0:0x3024d06c403fba75,
restaurant,Kafe,Warung Bang.ucix,"JWRV+6HW, Negri Seri Kambelo, Luhu, Kec. Huamual Belakang, Kabupaten Seram Bagian Barat, Maluku","Kabupaten Seram Bagian Barat, Maluku",MALUKU,,Indonesia,85243725907.0,,,-3.3593924,127.9439486,https://maps.google.com/?cid=0x0:0xde4adc8c99a0034a,
restaurant,Kafe,Teguh,"P3Q3+CV4, Lokki, Kec. Huamual Belakang, Kabupaten Seram Bagian Barat, Maluku","Kabupaten Seram Bagian Barat, Maluku",MALUKU,,Indonesia,,,,-3.2628026,128.0544724,https://maps.google.com/?cid=0x0:0xabd62426a27b08ba,
restaurant,Rumah Makan,Warung nasi kuning mama macho,"PW84+3M4, Waesala, Kec. Huamual Belakang, Kabupaten Seram Bagian Barat, Maluku","Kabupaten Seram Bagian Barat, Maluku",MALUKU,,Indonesia,,,,-3.2848633,127.9067108,https://maps.google.com/?cid=0x0:0x98cfb68edb848274,
restaurant,Toko,Kios unyil,"PW84+5H2, Waesala, Kec. Huamual Belakang, Kabupaten Seram Bagian Barat, Maluku","Kabupaten Seram Bagian Barat, Maluku",MALUKU,,Indonesia,,,,-3.2846136,127.9064037,https://maps.google.com/?cid=0x0:0x62ed013f12fd3c8b,
restaurant,Restoran,Kedai Ricis Ambon,"JWJV+X37 Pertigaan waikamua, Luhu, Kec. Huamual Belakang, Kabupaten Seram Bagian Barat, Maluku","Kabupaten Seram Bagian Barat, Maluku",MALUKU,,Indonesia,,,,-3.3675842,127.94268,https://maps.google.com/?cid=0x0:0xb3d69433ccf69adb,
restaurant,Kafe,Kedai Soma Waka,"JX3H+382, Jl. Raya Negeri, Iha, Kec. Huamual Belakang, Kabupaten Seram Bagian Barat, Maluku","Kabupaten Seram Bagian Barat, Maluku",MALUKU,,Indonesia,,,,-3.3973744,127.9782725,https://maps.google.com/?cid=0x0:0x2f1099e3132c75ee,
restaurant,Rumah Makan,Warung makanan masak bunda anti,"PW74+XC2, Dusun Tapinalu, Waesala, Kec. Huamual Belakang, Kabupaten Seram Bagian Barat, Maluku","Kabupaten Seram Bagian Barat, Maluku",MALUKU,,Indonesia,,,,-3.2851262,127.9060472,https://maps.google.com/?cid=0x0:0x7bb836d918e38bc9,
restaurant,restaurant,harmony caffe,"JXCP+CC9, Luhu, Kec. Huamual Belakang, Kabupaten Seram Bagian Barat, Maluku","Kabupaten Seram Bagian Barat, Maluku",MALUKU,,Indonesia,,,,-3.3789628,127.9857579,https://maps.google.com/?cid=0x0:0x6b252ebbed68f40,
restaurant,Brunch,Rumah Makan AYAH,"C86H+W7V, Hurnala, Tulehu, Kec. Salahutu, Kabupaten Maluku Tengah, Maluku","Kabupaten Maluku Tengah, Maluku",MALUKU,,Indonesia,,,,-3.5876439,128.3281844,https://maps.google.com/?cid=0x0:0x51ae5c6c38e18692,
restaurant,restaurant,Warung Jawa,"JWQV+66Q, Luhu, Kec. Huamual Belakang, Kabupaten Seram Bagian Barat, Maluku","Kabupaten Seram Bagian Barat, Maluku",MALUKU,,Indonesia,,,,-3.3619249,127.9431038,https://maps.google.com/?cid=0x0:0xee39d37ef16c8156,
restaurant,Betawi,Dapur Fizzul - Rumah Makan Khas Maluku Jakarta No.1 Halal di Dunia,"Food Court Depan Grha Essi, Jl. Raya Ceger No.5, RT.5/RW.1, Ceger, Kec. Cipayung, Kota Jakarta Timur, Daerah Khusus Ibukota Jakarta 13820","Jl. Raya Ceger No.5, RT.5/RW.1, Ceger, Kec. Cipayung, Kota Jakarta Timur",MALUKU,13820.0,Indonesia,82131529069.0,,,-6.307207,106.8886462,https://maps.google.com/?cid=0x0:0xb39e6e8a1a4f4d03,
restaurant,Dapur Umum,Mie Ayam  Bakso Mba Titi Waesala,"VW39+6V6 Andino, Waesala, Huamual Belakang, West Seram, Maluku","Kabupaten Seram Bagian Barat, Maluku",MALUKU,,Indonesia,,,,-3.1466221,127.9197438,https://maps.google.com/?cid=0x0:0x52529af17bfd4a89,
restaurant,restaurant,Kec. Kepulauan Manipa,"Kabupaten Seram Bagian Barat, Maluku","Kabupaten Seram Bagian Barat, Maluku",MALUKU,,Indonesia,,,,-3.3368083,127.5516442,https://maps.google.com/?cid=0x0:0x44a0c6a82a329841,
restaurant,Brunch,Warung 3A1R Kalesang Poro,"Masawoi, Kec. Kepulauan Manipa, Kabupaten Seram Bagian Barat, Maluku 97569","Kec. Kepulauan Manipa, Kabupaten Seram Bagian Barat",MALUKU,97569.0,Indonesia,,,,-3.3381879,127.5625631,https://maps.google.com/?cid=0x0:0x68f205bc63730ab8,
restaurant,Rumah wisata,Degu Degu,"MG6W+XM8, Tumalehu Tim., Kec. Kepulauan Manipa, Kabupaten Seram Bagian Barat, Maluku","Kabupaten Seram Bagian Barat, Maluku",MALUKU,,Indonesia,,,,-3.3376864,127.5467308,https://maps.google.com/?cid=0x0:0x50fbaa75a8514bca,
restaurant,restaurant,Kec. Taniwel Tim.,"Kabupaten Seram Bagian Barat, Maluku","Kabupaten Seram Bagian Barat, Maluku",MALUKU,,Indonesia,,,,-2.8451525,128.6555679,https://maps.google.com/?cid=0x0:0x51e7fe5228d3a153,
restaurant,Brunch,Warung Dua Putra,"4FXH+J44, Jl. Kabupaten, Taniwel, Kec. Taniwel, Kabupaten Seram Bagian Barat, Maluku","Kabupaten Seram Bagian Barat, Maluku",MALUKU,,Indonesia,,,,-2.8509806,128.4778261,https://maps.google.com/?cid=0x0:0xe6912ce8171f86bb,
restaurant,Komplek perumahan,Kel lessy,"4FW9+PVJ, Taniwel, Kec. Taniwel, Kabupaten Seram Bagian Barat, Maluku","Kabupaten Seram Bagian Barat, Maluku",MALUKU,,Indonesia,,,,-2.8527902,128.4696331,https://maps.google.com/?cid=0x0:0x8ded4342969aabd9,
restaurant,restaurant,Nawaya,"4PQ8+FG, Lumapelu, Kabupaten Seram Bagian Barat, Maluku","Kabupaten Seram Bagian Barat, Maluku",MALUKU,,Indonesia,,,,-2.8613626,128.716335,https://maps.google.com/?cid=0x0:0xe02fc42cc66b0542,
restaurant,Rumah Kayu,EmbuN Home'S,"Solea, Kec. Taniwel Tim., Kabupaten Seram Bagian Barat, Maluku 97561","Kec. Taniwel Tim., Kabupaten Seram Bagian Barat",MALUKU,97561.0,Indonesia,85354400777.0,,,-2.865281,128.7257839,https://maps.google.com/?cid=0x0:0x1771929b1fdfbb3d,
restaurant,restaurant,Elpaputih,"Kabupaten Maluku Tengah, Maluku","Kabupaten Maluku Tengah, Maluku",MALUKU,,Indonesia,,,,-3.2102958,128.6949149,https://maps.google.com/?cid=0x0:0x5c490d6e0c7c3235,
restaurant,Hidangan Laut,Lateri Beach Restaurant,"Lateri, Kec. Baguala, Kota Ambon, Maluku","Kota Ambon, Maluku",MALUKU,,Indonesia,81240783897.0,,,-3.6479651,128.2330484,https://maps.google.com/?cid=0x0:0x17f2f5444327987a,
restaurant,Rumah Kayu,tempat singgah (purimahua),"QR25+HWQ, Samasuru, Kec. Tlk. Elpaputih, Kabupaten Maluku Tengah, Maluku","Kabupaten Maluku Tengah, Maluku",MALUKU,,Indonesia,,,,-3.2485436,128.8098576,https://maps.google.com/?cid=0x0:0xeea14ea96bd0d708,
restaurant,Restoran,Sari Gurih Restaurant,"853J+639, Jl. Anthony Rebok, Kel Honipopu, Kec. Sirimau, Kota Ambon, Maluku 97127","Jl. Anthony Rebok, Kel Honipopu, Kec. Sirimau, Kota Ambon",MALUKU,97127.0,Indonesia,911341888.0,,,-3.6969553,128.1802475,https://maps.google.com/?cid=0x0:0x275f6b1eabec66d9,
restaurant,Hidangan Laut,Cili Padi Restaurant,"Said Perintah No.52, Kel Honipopu, Kec. Sirimau, Kota Ambon, Maluku","Kota Ambon, Maluku",MALUKU,,Indonesia,911348736.0,,,-3.6977926,128.1806173,https://maps.google.com/?cid=0x0:0x4da49f6c344ede1a,
restaurant,restaurant,RM YUYUN,"PP3V+PJW, Jl. Trans Seram, Sanahu, Elpaputih, Kabupaten Maluku Tengah, Maluku","Kabupaten Maluku Tengah, Maluku",MALUKU,,Indonesia,,,,-3.2956435,128.7440805,https://maps.google.com/?cid=0x0:0x6941a7809ca72c0a,
restaurant,restaurant,Espis Asyura Wattimena,"MH7H+MR7, Hualoy, Kec. Amalatu, Kabupaten Seram Bagian Barat, Maluku","Kabupaten Seram Bagian Barat, Maluku",MALUKU,,Indonesia,,,,-3.3358272,128.5795405,https://maps.google.com/?cid=0x0:0x7a1ebfb34a4397dc,
restaurant,Bar Karaoke,Karaoke Surya pesona,"Jl. Trans Seram, kelapa dua, gunung parang, Kabupaten Seram Bagian Barat, Maluku 97145","kelapa dua, gunung parang, Kabupaten Seram Bagian Barat",MALUKU,97145.0,Indonesia,82199296990.0,,,-3.3259446,128.6968297,https://maps.google.com/?cid=0x0:0x25bd5942b18c40c0,
restaurant,Restoran,Wailela Cafe and Resto | Ambon,"Jl. Kampus, Rumah Tiga, Kec. Tlk. Ambon, Kota Ambon, Maluku","Kota Ambon, Maluku",MALUKU,,Indonesia,82399522113.0,,,-3.6610624,128.180609,https://maps.google.com/?cid=0x0:0x3acbc85ce4ef2d6d,
restaurant,Hidangan Laut,Restaurant Sari Gurih Beach,"963M+565, Lateri, Kec. Baguala, Kota Ambon, Maluku","Kota Ambon, Maluku",MALUKU,,Indonesia,8119798598.0,,,-3.6471037,128.2330997,https://maps.google.com/?cid=0x0:0x56400b7db74be6ae,
restaurant,Betawi,Dapur Fizzul - Rumah Makan Khas Maluku Jakarta No.1 Halal di Dunia,"Food Court Depan Grha Essi, Jl. Raya Ceger No.5, RT.5/RW.1, Ceger, Kec. Cipayung, Kota Jakarta Timur, Daerah Khusus Ibukota Jakarta 13820","Jl. Raya Ceger No.5, RT.5/RW.1, Ceger, Kec. Cipayung, Kota Jakarta Timur",MALUKU,13820.0,Indonesia,82131529069.0,,,-6.307207,106.8886462,https://maps.google.com/?cid=0x0:0xb39e6e8a1a4f4d03,
cafe,cafe,Kairatu,"Kairatu, Kec. Kairatu, Kabupaten Seram Bagian Barat, Maluku","Kabupaten Seram Bagian Barat, Maluku",MALUKU,,Indonesia,,,,-3.341675,128.352798,https://maps.google.com/?cid=0x0:0xccc8b619c657b48e,
cafe,Kafe,AKROPOLIS CAFE,"M975+WJJ, Waimital, Kec. Kairatu, Kabupaten Seram Bagian Barat, Maluku","Kabupaten Seram Bagian Barat, Maluku",MALUKU,,Indonesia,,,,-3.3362513,128.3571049,https://maps.google.com/?cid=0x0:0x70426270c10cdd92,
cafe,Kafe,Dluku Cafee  Resort,"Jl. Ir . Mohammad Khosi, Waimital, Kec. Kairatu, Ambon, Maluku 97566","Waimital, Kec. Kairatu, Ambon",MALUKU,97566.0,Indonesia,81240221127.0,,,-3.3135564,128.3676982,https://maps.google.com/?cid=0x0:0xd71b08a0e37ca59a,
cafe,Kedai Kopi,Oyo,"M984+P46, Jl. Ir. Mohamad Khosim, Waimital, Kec. Kairatu, Kabupaten Seram Bagian Barat, Maluku","Kabupaten Seram Bagian Barat, Maluku",MALUKU,,Indonesia,,,,-3.3332176,128.3552701,https://maps.google.com/?cid=0x0:0xc098ebf1013f0e00,
cafe,Kafe,DE Angkringan,"Waimital, Kec. Kairatu, Kabupaten Seram Bagian Barat, Maluku","Kabupaten Seram Bagian Barat, Maluku",MALUKU,,Indonesia,81240526308.0,,,-3.3335217,128.3554582,https://maps.google.com/?cid=0x0:0x3f0b7203f664f4b3,
cafe,Makanan Kecil,De'larissa RestoCafe,"Kairatu, Kec. Kairatu, Kabupaten Seram Bagian Barat, Maluku 97566","Kec. Kairatu, Kabupaten Seram Bagian Barat",MALUKU,97566.0,Indonesia,81280335559.0,,,-3.3536731,128.3559797,https://maps.google.com/?cid=0x0:0x40c4a382b1fa419e,
cafe,Kafe,Back MAR'S,"M975+HV7, Jl. Trans Seram, Waimital, Kec. Kairatu, Kabupaten Seram Bagian Barat, Maluku","Kabupaten Seram Bagian Barat, Maluku",MALUKU,,Indonesia,,,,-3.3360908,128.3596847,https://maps.google.com/?cid=0x0:0xf5d25ba6b14514b7,
cafe,Kafe,ADICHEIRA CAFFE,"Waipirit, Kec. Kairatu, Kabupaten Seram Bagian Barat, Maluku 97568","Kec. Kairatu, Kabupaten Seram Bagian Barat",MALUKU,97568.0,Indonesia,,,,-3.334434,128.3422163,https://maps.google.com/?cid=0x0:0x35c657f292426518,
cafe,Kedai Kopi,Walang sopibel,"M953+84M, Kairatu, Kec. Kairatu, Kabupaten Seram Bagian Barat, Maluku","Kabupaten Seram Bagian Barat, Maluku",MALUKU,,Indonesia,,,,-3.341675,128.352798,https://maps.google.com/?cid=0x0:0x5b197c1ebeca5d59,
cafe,Kafe,Cafe Apuiro,"J9MF+2FH, Kairatu, Kec. Kairatu, Kabupaten Seram Bagian Barat, Maluku","Kabupaten Seram Bagian Barat, Maluku",MALUKU,,Indonesia,,,,-3.3674254,128.3737263,https://maps.google.com/?cid=0x0:0xc7718c22acf2875c,
cafe,Kafe,christo,"M94C+W6G, Kairatu, Kec. Kairatu, Kabupaten Seram Bagian Barat, Maluku","Kabupaten Seram Bagian Barat, Maluku",MALUKU,,Indonesia,,,,-3.3422737,128.3708644,https://maps.google.com/?cid=0x0:0x15ed94c2a129683c,
cafe,Toko Roti,PJ Bakerry,"M973+59X, Jl. Trans Seram gemba, Waimital, Kec. Kairatu, Kabupaten Seram Bagian Barat, Maluku","Kabupaten Seram Bagian Barat, Maluku",MALUKU,,Indonesia,,,,-3.3370131,128.353496,https://maps.google.com/?cid=0x0:0xf7ce7aeff2bda71c,
cafe,cafe,Kec. Seram Bar.,"Kabupaten Seram Bagian Barat, Maluku","Kabupaten Seram Bagian Barat, Maluku",MALUKU,,Indonesia,,,,-3.0650683,128.194492,https://maps.google.com/?cid=0x0:0xd1612bfbfbd97a94,
cafe,Kafe,Cafe Gaba - Gaba,"X4MF+3FM, Piru, Kec. Seram Bar., Kabupaten Seram Bagian Barat, Maluku","Kabupaten Seram Bagian Barat, Maluku",MALUKU,,Indonesia,,,,-3.0172868,128.1236644,https://maps.google.com/?cid=0x0:0x647ba0663571c532,
cafe,Kedai Kopi,GR Coffe,"W5JX+X7H, Piru, Kec. Seram Bar., Kabupaten Seram Bagian Barat, Maluku","Kabupaten Seram Bagian Barat, Maluku",MALUKU,,Indonesia,,,,-3.0675626,128.1982371,https://maps.google.com/?cid=0x0:0x3aa1a158fbae53e9,
cafe,Kafe,ALCHOCO CAFE  BAKERY shop,"Depan PLN, Jl. Trans Seram, Piru, Kec. Seram Bar., Kabupaten Seram Bagian Barat, Maluku","Kabupaten Seram Bagian Barat, Maluku",MALUKU,,Indonesia,,,,-3.0661459,128.1960453,https://maps.google.com/?cid=0x0:0xff2b8f475b8ea7c9,
cafe,Rumah Makan,NUSA PUAN Resto,"Jl. Waipan, Piru, Kec. Seram Bar., Kabupaten Seram Bagian Barat, Maluku","Kabupaten Seram Bagian Barat, Maluku",MALUKU,,Indonesia,82198855554.0,,,-3.0705717,128.1965654,https://maps.google.com/?cid=0x0:0xf0db80c0a0249089,
cafe,Balai masyarakat,Recreation Area Duta Pulau Osi,"X3GQ+H6R, Unnamed Road, Etty, Kec. Seram Bar., Kabupaten Seram Bagian Barat, Maluku","Kabupaten Seram Bagian Barat, Maluku",MALUKU,,Indonesia,82199004390.0,,,-3.023514,128.088001,https://maps.google.com/?cid=0x0:0xfe59708a7a3ed71a,
cafe,Restoran,Restaurant Anda,"W666+8QH, Etty, Kec. Seram Bar., Kabupaten Seram Bagian Barat, Maluku","Kabupaten Seram Bagian Barat, Maluku",MALUKU,,Indonesia,,,,-3.08918,128.2119754,https://maps.google.com/?cid=0x0:0x80d4984640d731f8,
cafe,Kafe,Jhelia Cafe,"W6G3+7HG, Bar., Kabupaten Seram Bagian, Piru, Kec. Seram Bar., Kabupaten Seram Bagian Barat, Maluku","Kabupaten Seram Bagian Barat, Maluku",MALUKU,,Indonesia,8114786877.0,,,-3.0743011,128.2039555,https://maps.google.com/?cid=0x0:0x52b626cf20eb5a9c,
cafe,Brunch,Resto Putri,"34HR+R6H, Negeri Kawa, Kec. Seram Bar., Kabupaten Seram Bagian Barat, Maluku","Kabupaten Seram Bagian Barat, Maluku",MALUKU,,Indonesia,,,,-2.9208117,128.1407627,https://maps.google.com/?cid=0x0:0x812725d65d5a9f70,
cafe,Kafe,Cafe Shaloom-Piru,"W6J2+CH8, Unnamed Road, Piru, Seram Barat, West Seram, Maluku","Kabupaten Seram Bagian Barat, Maluku",MALUKU,,Indonesia,81247296718.0,,,-3.068972,128.201462,https://maps.google.com/?cid=0x0:0xe352c265e62da143,
cafe,Rumah Makan,Resto Mandaya,"W639+CM8, Jl. Trans Seram, Etty, Kec. Seram Bar., Kabupaten Seram Bagian Barat, Maluku","Kabupaten Seram Bagian Barat, Maluku",MALUKU,,Indonesia,,,,-3.0964697,128.2191972,https://maps.google.com/?cid=0x0:0x440ff89b049ee042,
cafe,Komplek perumahan,WAIMETENG DARAT G.A.W.A.D,"W6H2+4XR, Piru, Kec. Seram Bar., Kabupaten Seram Bagian Barat, Maluku","Kabupaten Seram Bagian Barat, Maluku",MALUKU,,Indonesia,81235670689.0,,,-3.0721483,128.2023937,https://maps.google.com/?cid=0x0:0x9e06a9ff11f9ffe0,
cafe,Rumah Makan,RM. Anugerah,"W6MJ+2MG, Morekau, Kec. Seram Bar., Kabupaten Seram Bagian Barat, Maluku","Kabupaten Seram Bagian Barat, Maluku",MALUKU,,Indonesia,,,,-3.0678418,128.231588,https://maps.google.com/?cid=0x0:0x9f5d3b84d92434d8,
cafe,Rumah Makan,Rumah Makan Arema,"W5JX+PJM, Piru, Kec. Seram Bar., Kabupaten Seram Bagian Barat, Maluku","Kabupaten Seram Bagian Barat, Maluku",MALUKU,,Indonesia,85243272660.0,,,-3.0681656,128.1990599,https://maps.google.com/?cid=0x0:0xc1a6761d74a95714,
cafe,Hotel,Resto/Penginapan Pulau Osi,"X3GJ+C99, Pulau Osi, Kabupaten Seram Bagian Barat, Maluku 12230","Pulau Osi, Kabupaten Seram Bagian Barat",MALUKU,12230.0,Indonesia,85211226684.0,,,-3.0239615,128.0809751,https://maps.google.com/?cid=0x0:0x439fed4057e3b9a7,
cafe,Restoran,WaterBoom  LukuCaffe_Kampung Rambutan,"M9P8+GRP, Waimital, Kec. Kairatu, Kabupaten Seram Bagian Barat, Maluku","Kabupaten Seram Bagian Barat, Maluku",MALUKU,,Indonesia,,,,-3.3136624,128.3670834,https://maps.google.com/?cid=0x0:0x3a0aabe8ba383468,
cafe,Kedai Kopi,MAIDE CAFE,"W5RR+847, Piru, Kec. Seram Bar., Kabupaten Seram Bagian Barat, Maluku","Kabupaten Seram Bagian Barat, Maluku",MALUKU,,Indonesia,82397971816.0,,,-3.059218,128.1903079,https://maps.google.com/?cid=0x0:0x286f50c58075f5d1,
cafe,Kedai Kopi,Tampayang Coffee_09,"W5JX+W4W, Jl. Trans Seram, waimeteng darat, Kec. Seram Bar., Kabupaten Seram Bagian Barat, Maluku 97562","Jl. Trans Seram, waimeteng darat, Kec. Seram Bar., Kabupaten Seram Bagian Barat",MALUKU,97562.0,Indonesia,82199901023.0,,,-3.0676255,128.1978249,https://maps.google.com/?cid=0x0:0x9e79fa73f28eabc1,
cafe,Kedai Kopi,Haikal,"X3GC+J9P, Jl. Haider Mursalim Amd.TEM, Etty, Kec. Seram Bar., Kabupaten Seram Bagian Barat, Maluku","Kabupaten Seram Bagian Barat, Maluku",MALUKU,,Indonesia,82398768588.0,,,-3.0234052,128.0709505,https://maps.google.com/?cid=0x0:0x2ddbea98580cd31f,
cafe,Kafe,Cafe Apuiro,"Air buaya, Kec. Inamosol, Kabupaten Seram Bagian Barat, Maluku","Kabupaten Seram Bagian Barat, Maluku",MALUKU,,Indonesia,,,,-3.1274613,128.400607,https://maps.google.com/?cid=0x0:0x33e8edebdcd4f30f,
cafe,Tujuan Wisata,Pulau Osy,"X3GC+J9P, Etty, Kec. Seram Bar., Kabupaten Seram Bagian Barat, Maluku","Kabupaten Seram Bagian Barat, Maluku",MALUKU,,Indonesia,81240904826.0,,,-3.0234205,128.0709511,https://maps.google.com/?cid=0x0:0x24d849f2b6399b6d,
cafe,Kafe,Warung Meggy,"W5MV+CHG, Jl. Hatutelu, Piru, Kec. Seram Bar., Kabupaten Seram Bagian Barat, Maluku","Kabupaten Seram Bagian Barat, Maluku",MALUKU,,Indonesia,81344307854.0,,,-3.0664388,128.1939391,https://maps.google.com/?cid=0x0:0x6a101246efe98213,
cafe,Sarapan,Es Kinu,"Piru, Kec. Seram Bar., Kabupaten Seram Bagian Barat, Maluku 97562","Kec. Seram Bar., Kabupaten Seram Bagian Barat",MALUKU,97562.0,Indonesia,82248433837.0,,,-3.0647142,128.1940269,https://maps.google.com/?cid=0x0:0x2bd2483b70498812,
cafe,Restoran,Warsot wisa nur aqilah,"Kotania atas, Piru, Kec. Seram Bar., Kabupaten Seram Bagian Barat, Maluku 97562","Piru, Kec. Seram Bar., Kabupaten Seram Bagian Barat",MALUKU,97562.0,Indonesia,82199535066.0,,,-3.0622447,128.1211801,https://maps.google.com/?cid=0x0:0x44da70e4ac6e000b,
cafe,Restoran,Warung makan RM. Lestari,"W6C4+5HQ, Jl. Trans Seram, Piru, Kec. Seram Bar., Kabupaten Seram Bagian Barat, Maluku","Kabupaten Seram Bagian Barat, Maluku",MALUKU,,Indonesia,,,,-3.0795459,128.2064857,https://maps.google.com/?cid=0x0:0xf0be3f58e3cfd753,
cafe,Kafe,DE Angkringan,"Waimital, Kec. Kairatu, Kabupaten Seram Bagian Barat, Maluku","Kabupaten Seram Bagian Barat, Maluku",MALUKU,,Indonesia,81240526308.0,,,-3.3335217,128.3554582,https://maps.google.com/?cid=0x0:0x3f0b7203f664f4b3,
cafe,Kafe,AKROPOLIS CAFE,"M975+WJJ, Waimital, Kec. Kairatu, Kabupaten Seram Bagian Barat, Maluku","Kabupaten Seram Bagian Barat, Maluku",MALUKU,,Indonesia,,,,-3.3362513,128.3571049,https://maps.google.com/?cid=0x0:0x70426270c10cdd92,
cafe,Kedai Kopi,xiexieboba gemba,"M967+74P, Waimital, Kec. Kairatu, Kabupaten Seram Bagian Barat, Maluku","Kabupaten Seram Bagian Barat, Maluku",MALUKU,,Indonesia,81240037634.0,,,-3.339299,128.3628141,https://maps.google.com/?cid=0x0:0xa08ca8d5bf752586,
cafe,Restoran,RM Barokah,"W5HX+G8C, Jl. Ahmad Yani, Piru, Kec. Seram Bar., Kabupaten Seram Bagian Barat, Maluku","Kabupaten Seram Bagian Barat, Maluku",MALUKU,,Indonesia,,,,-3.0711947,128.1982583,https://maps.google.com/?cid=0x0:0x796d5c323af7e8b4,
cafe,Kafe,Forganza Resto  Cafe,"Kelanit, Kec. Kei Kecil, Kabupaten Maluku Tenggara, Maluku","Kabupaten Maluku Tenggara, Maluku",MALUKU,,Indonesia,82231789845.0,,,-5.6575049,132.7029619,https://maps.google.com/?cid=0x0:0x35e7e74d6d2279bc,
cafe,Restoran,Kafe Gloria,"8PWP+GVF, Langgur, Kec. Kei Kecil, Kabupaten Maluku Tenggara, Maluku","Kabupaten Maluku Tenggara, Maluku",MALUKU,,Indonesia,,,,-5.6536782,132.7371868,https://maps.google.com/?cid=0x0:0x343bba23c89005a3,
cafe,cafe,,,,MALUKU,,Indonesia,,,,,,https://maps.google.com/?cid=0x0:0x35e7e74d6d2279bcu0026onu003dLat+Lat+Anggur+Lautu0026midu003d/g/11c5j6rqxd,
cafe,cafe,,,,MALUKU,,Indonesia,,,,,,https://maps.google.com/?cid=0x0:0x35e7e74d6d2279bcu0026onu003dIkan+Kuah+Kuningu0026midu003d/g/11c5j6rqxd,
cafe,cafe,,,,MALUKU,,Indonesia,,,,,,https://maps.google.com/?cid=0x0:0x35e7e74d6d2279bcu0026onu003dSayur+Latu0026midu003d/g/11c5j6rqxd,
cafe,cafe,,,,MALUKU,,Indonesia,,,,,,https://maps.google.com/?cid=0x0:0x35e7e74d6d2279bcu0026onu003dEnbalu0026midu003d/g/11c5j6rqxd,
cafe,cafe,,,,MALUKU,,Indonesia,,,,,,https://maps.google.com/?cid=0x0:0x35e7e74d6d2279bcu0026onu003dSambalu0026midu003d/g/11c5j6rqxd,
cafe,cafe,,,,MALUKU,,Indonesia,,,,,,https://maps.google.com/?cid=0x0:0x35e7e74d6d2279bcu0026onu003dJeruk+Nipis+Panasu0026midu003d/g/11c5j6rqxd,
cafe,cafe,,,,MALUKU,,Indonesia,,,,,,https://maps.google.com/?cid=0x0:0x35e7e74d6d2279bcu0026onu003dGrilled+Fish+and+Seaweed+Saladu0026midu003d/g/11c5j6rqxd,
cafe,cafe,,,,MALUKU,,Indonesia,,,,,,https://maps.google.com/?cid=0x0:0x35e7e74d6d2279bcu0026onu003dlobster1u0026midu003d/g/11c5j6rqxd,
cafe,cafe,,,,MALUKU,,Indonesia,,,,,,https://maps.google.com/?cid=0x0:0x35e7e74d6d2279bcu0026onu003dUdang+Tepung+Dan+Pisang+Embalu0026midu003d/g/11c5j6rqxd,
cafe,cafe,,,,MALUKU,,Indonesia,,,,,,https://maps.google.com/?cid=0x0:0x35e7e74d6d2279bcu0026onu003dPisang+Gorengu0026midu003d/g/11c5j6rqxd,
cafe,cafe,,,,MALUKU,,Indonesia,,,,,,https://maps.google.com/?cid=0x0:0x35e7e74d6d2279bcu0026onu003dSaguu0026midu003d/g/11c5j6rqxd,
cafe,cafe,,,,MALUKU,,Indonesia,,,,,,https://maps.google.com/?cid=0x0:0x35e7e74d6d2279bcu0026onu003dCumi+Goreng+Tepungu0026midu003d/g/11c5j6rqxd,
cafe,cafe,,,,MALUKU,,Indonesia,,,,,,https://maps.google.com/?cid=0x0:0x35e7e74d6d2279bcu0026onu003dPapedau0026midu003d/g/11c5j6rqxd,
cafe,cafe,,,,MALUKU,,Indonesia,,,,,,https://maps.google.com/?cid=0x0:0x35e7e74d6d2279bcu0026onu003dSayur+Daun+Pepayau0026midu003d/g/11c5j6rqxd,
cafe,cafe,,,,MALUKU,,Indonesia,,,,,,https://maps.google.com/?cid=0x0:0x35e7e74d6d2279bcu0026onu003dNasi+Gorengu0026midu003d/g/11c5j6rqxd,
cafe,cafe,,,,MALUKU,,Indonesia,,,,,,https://maps.google.com/?cid=0x0:0x35e7e74d6d2279bcu0026onu003dTumis+Kangkung+Bunga+Pepayau0026midu003d/g/11c5j6rqxd,
cafe,cafe,,,,MALUKU,,Indonesia,,,,,,https://maps.google.com/?cid=0x0:0x35e7e74d6d2279bcu0026onu003dCa+Kangkungu0026midu003d/g/11c5j6rqxd,
cafe,cafe,,,,MALUKU,,Indonesia,,,,,,https://maps.google.com/?cid=0x0:0x35e7e74d6d2279bcu0026onu003dEmbal+Bubuhuku0026midu003d/g/11c5j6rqxd,
cafe,cafe,,,,MALUKU,,Indonesia,,,,,,https://maps.google.com/?cid=0x0:0x35e7e74d6d2279bcu0026onu003dSalad+Lat+Anggur+Lautu0026midu003d/g/11c5j6rqxd,
cafe,Brunch,Walang gorengan umi nailah,"HMMR+H4W, Latu, Kec. Amalatu, Kabupaten Seram Bagian Barat, Maluku","Kabupaten Seram Bagian Barat, Maluku",MALUKU,,Indonesia,82238982466.0,,,-3.4160032,128.6903437,https://maps.google.com/?cid=0x0:0xc57207414a07ea52,
cafe,Dapur Umum,Warung gado gado,"HMJP+4F8, Latu, Kec. Amalatu, Kabupaten Seram Bagian Barat, Maluku","Kabupaten Seram Bagian Barat, Maluku",MALUKU,,Indonesia,,,,-3.4197011,128.6862106,https://maps.google.com/?cid=0x0:0x77e91c6717c7e3ca,
cafe,Komplek perumahan,Kompleks kopi,"2G7Q+Q2M, Buria, Kec. Taniwel, Kabupaten Seram Bagian Barat, Maluku","Kabupaten Seram Bagian Barat, Maluku",MALUKU,,Indonesia,,,,-2.9855335,128.5375358,https://maps.google.com/?cid=0x0:0x1d43b84ce8741d56,
cafe,Komplek perumahan,Kompleks Burpan,"5F2P+HG, Taniwel, Kec. Taniwel, Kabupaten Seram Bagian Barat, Maluku","Kabupaten Seram Bagian Barat, Maluku",MALUKU,,Indonesia,,,,-2.8495571,128.4838129,https://maps.google.com/?cid=0x0:0xd75dc92bc6e5d640,
cafe,cafe,Waesala,"Kec. Huamual Belakang, Kabupaten Seram Bagian Barat, Maluku","Kabupaten Seram Bagian Barat, Maluku",MALUKU,,Indonesia,,,,-3.1946096,127.9572703,https://maps.google.com/?cid=0x0:0xe960ac9124dc066f,
cafe,Toko,Kios unyil,"PW84+5H2, Waesala, Kec. Huamual Belakang, Kabupaten Seram Bagian Barat, Maluku","Kabupaten Seram Bagian Barat, Maluku",MALUKU,,Indonesia,,,,-3.2846136,127.9064037,https://maps.google.com/?cid=0x0:0x62ed013f12fd3c8b,
cafe,Kedai Kopi,Four Senja,"VW4F+563, Waesala, Kabupaten Seram Bagian Barat, Maluku","Kabupaten Seram Bagian Barat, Maluku",MALUKU,,Indonesia,,,,-3.1446234,127.9230475,https://maps.google.com/?cid=0x0:0x445d09832bc90519,
cafe,Kedai Kopi,Caffe Love Story Waemitena,"JXJR+C6M, Luhu, Kec. Huamual Belakang, Kabupaten Seram Bagian Barat, Maluku","Kabupaten Seram Bagian Barat, Maluku",MALUKU,,Indonesia,,,,-3.3689045,127.9905372,https://maps.google.com/?cid=0x0:0xd3e0534722fd1f67,
cafe,Kedai Kopi,Haikal,"X3GC+J9P, Jl. Haider Mursalim Amd.TEM, Etty, Kec. Seram Bar., Kabupaten Seram Bagian Barat, Maluku","Kabupaten Seram Bagian Barat, Maluku",MALUKU,,Indonesia,82398768588.0,,,-3.0234052,128.0709505,https://maps.google.com/?cid=0x0:0x2ddbea98580cd31f,
cafe,Kafe,Teguh,"P3Q3+CV4, Lokki, Kec. Huamual Belakang, Kabupaten Seram Bagian Barat, Maluku","Kabupaten Seram Bagian Barat, Maluku",MALUKU,,Indonesia,,,,-3.2628026,128.0544724,https://maps.google.com/?cid=0x0:0xabd62426a27b08ba,
cafe,Kafe,Cafe Gaba - Gaba,"X4MF+3FM, Piru, Kec. Seram Bar., Kabupaten Seram Bagian Barat, Maluku","Kabupaten Seram Bagian Barat, Maluku",MALUKU,,Indonesia,,,,-3.0172868,128.1236644,https://maps.google.com/?cid=0x0:0x647ba0663571c532,
cafe,Restoran,PINANG PUTIH,"M2C6+43Q, Iha, Kec. Huamual Belakang, Kabupaten Seram Bagian Barat, Maluku","Kabupaten Seram Bagian Barat, Maluku",MALUKU,,Indonesia,,,,-3.3296564,128.0102284,https://maps.google.com/?cid=0x0:0x9467ba8b89972f86,
cafe,Dapur Umum,Kantin SD Inpres tapinalu,"PW84+478, Waesala, Kec. Huamual Belakang, Kabupaten Seram Bagian Barat, Maluku","Kabupaten Seram Bagian Barat, Maluku",MALUKU,,Indonesia,,,,-3.2847835,127.9056304,https://maps.google.com/?cid=0x0:0x3024d06c403fba75,
cafe,Toko Elektronik,Tempat fotocopy sahrul,"PW83+QM2, Waesala, Kec. Huamual Belakang, Kabupaten Seram Bagian Barat, Maluku","Kabupaten Seram Bagian Barat, Maluku",MALUKU,,Indonesia,,,,-3.2831128,127.9041309,https://maps.google.com/?cid=0x0:0x4e559f5658ed1904,
cafe,cafe,Kec. Huamual Belakang,"Kabupaten Seram Bagian Barat, Maluku","Kabupaten Seram Bagian Barat, Maluku",MALUKU,,Indonesia,,,,-3.2255814,128.0662787,https://maps.google.com/?cid=0x0:0x234bd4efeec3b38,
cafe,Dapur Umum,Mie Ayam  Bakso Mba Titi Waesala,"VW39+6V6 Andino, Waesala, Huamual Belakang, West Seram, Maluku","Kabupaten Seram Bagian Barat, Maluku",MALUKU,,Indonesia,,,,-3.1466221,127.9197438,https://maps.google.com/?cid=0x0:0x52529af17bfd4a89,
cafe,Kafe,Waroeng MARS,"JX7J+3M5, Unnamed Road, Luhu, Kec. Huamual Belakang, Kabupaten Seram Bagian Barat, Maluku","Kabupaten Seram Bagian Barat, Maluku",MALUKU,,Indonesia,,,,-3.3873548,127.9817314,https://maps.google.com/?cid=0x0:0x51f8a4850bf4891b,
cafe,Balai masyarakat,Recreation Area Duta Pulau Osi,"X3GQ+H6R, Unnamed Road, Etty, Kec. Seram Bar., Kabupaten Seram Bagian Barat, Maluku","Kabupaten Seram Bagian Barat, Maluku",MALUKU,,Indonesia,82199004390.0,,,-3.023514,128.088001,https://maps.google.com/?cid=0x0:0xfe59708a7a3ed71a,
cafe,Tempat Ibadah,Dusun Telaga Nipa,"Jl. Syaikh Khidhir Al-Limboriy, Telaga Nipa, Kec. Huamual Belakang, Kabupaten Seram Bagian Barat, Maluku","Kabupaten Seram Bagian Barat, Maluku",MALUKU,,Indonesia,,,,-3.1630699,127.8415551,https://maps.google.com/?cid=0x0:0x37cdd26aaa378e29,
cafe,Tujuan Wisata,DUSUN TAMAN SEJARAH (ALUNI),"RWV3+7PG, Waesala, Kec. Huamual Belakang, Kabupaten Seram Bagian Barat, Maluku","Kabupaten Seram Bagian Barat, Maluku",MALUKU,,Indonesia,81279645818.0,,,-3.1568174,127.9043425,https://maps.google.com/?cid=0x0:0x11933c649d5295a1,
cafe,Rumah Makan,Warung nasi kuning mama macho,"PW84+3M4, Waesala, Kec. Huamual Belakang, Kabupaten Seram Bagian Barat, Maluku","Kabupaten Seram Bagian Barat, Maluku",MALUKU,,Indonesia,,,,-3.2848633,127.9067108,https://maps.google.com/?cid=0x0:0x98cfb68edb848274,
cafe,Hotel,Resto/Penginapan Pulau Osi,"X3GJ+C99, Pulau Osi, Kabupaten Seram Bagian Barat, Maluku 12230","Pulau Osi, Kabupaten Seram Bagian Barat",MALUKU,12230.0,Indonesia,85211226684.0,,,-3.0239615,128.0809751,https://maps.google.com/?cid=0x0:0x439fed4057e3b9a7,
cafe,Kios,Fikram tomia,"Tanjung Erang, Luhu, Kec. Huamual Belakang, Kabupaten Seram Bagian Barat, Maluku","Kabupaten Seram Bagian Barat, Maluku",MALUKU,,Indonesia,,,,-3.2983903,127.9200072,https://maps.google.com/?cid=0x0:0x4e28c94dfc2480db,
cafe,cafe,Dusun taman sejarah,"RWV3+C5Q, Waesala, Kec. Huamual Belakang, Kabupaten Seram Bagian Barat, Maluku","Kabupaten Seram Bagian Barat, Maluku",MALUKU,,Indonesia,,,,-3.1563916,127.9029799,https://maps.google.com/?cid=0x0:0x88a2c29144f06f8f,
cafe,Pembangunan Perumahan,Dusun Hato Allang,"RV3F+6WC, Jl. Haider Mursalim Amd.TEM, Waesala, Kec. Huamual Belakang, Kabupaten Seram Bagian Barat, Maluku","Kabupaten Seram Bagian Barat, Maluku",MALUKU,,Indonesia,,,,-3.1969389,127.8747545,https://maps.google.com/?cid=0x0:0x857ff07d6eb38a17,
cafe,Toko Perlengkapan Rumah,KIOS WATI,"Waesala, Kec. Huamual Belakang, Kabupaten Seram Bagian Barat, Maluku","Kabupaten Seram Bagian Barat, Maluku",MALUKU,,Indonesia,,,,-3.20807,127.8744586,https://maps.google.com/?cid=0x0:0xcc9c267cde1b9cac,
cafe,cafe,Kec. Amalatu,"Kabupaten Seram Bagian Barat, Maluku","Kabupaten Seram Bagian Barat, Maluku",MALUKU,,Indonesia,,,,-3.4079418,128.6921861,https://maps.google.com/?cid=0x0:0xb6a4667e86dc46e1,
cafe,Dapur Umum,"Tomollo Rizky-Vikry Cafe, Latu","HM98+7V6, Tomalehu, Kec. Amalatu, Kabupaten Seram Bagian Barat, Maluku","Kabupaten Seram Bagian Barat, Maluku",MALUKU,,Indonesia,81240733356.0,,,-3.431845,128.6671427,https://maps.google.com/?cid=0x0:0x6b475872c430db2f,
cafe,Kedai Kopi,Soiya Beach Cafe,"HM99+895, Latu, Kec. Amalatu, Kabupaten Seram Bagian Barat, Maluku","Kabupaten Seram Bagian Barat, Maluku",MALUKU,,Indonesia,85256189761.0,,,-3.431738,128.6684964,https://maps.google.com/?cid=0x0:0x5ba1397a3659d9b8,
cafe,Brunch,Walang gorengan umi nailah,"HMMR+H4W, Latu, Kec. Amalatu, Kabupaten Seram Bagian Barat, Maluku","Kabupaten Seram Bagian Barat, Maluku",MALUKU,,Indonesia,82238982466.0,,,-3.4160032,128.6903437,https://maps.google.com/?cid=0x0:0xc57207414a07ea52,
cafe,Dapur Umum,Halte Tomalehu Part III,"HMRV+3FX, Tomalehu, Kec. Amalatu, Kabupaten Seram Bagian Barat, Maluku","Kabupaten Seram Bagian Barat, Maluku",MALUKU,,Indonesia,,,,-3.4097514,128.6937353,https://maps.google.com/?cid=0x0:0xd0251315ef392e44,
cafe,Kedai Kopi,Kafe baku dapa,"Latu, Kec. Amalatu, Ambon, Maluku","Ambon, Maluku",MALUKU,,Indonesia,81248976704.0,,,-3.4157799,128.6911338,https://maps.google.com/?cid=0x0:0x19ca7a4ed0544c4a,
cafe,Dapur Umum,"Kedai Damaskus Ø¯ÙØ´Ù, Latu","HMGJ+HC9, Jl. Trans Seram, Latu, Kec. Amalatu, Kabupaten Seram Bagian Barat, Maluku","Kabupaten Seram Bagian Barat, Maluku",MALUKU,,Indonesia,,,,-3.4230415,128.6814025,https://maps.google.com/?cid=0x0:0x503ccc1557aef60f,
cafe,cafe,Kediaman behlul,"HMHQ+X7H, Latu, Kec. Amalatu, Kabupaten Seram Bagian Barat, Maluku","Kabupaten Seram Bagian Barat, Maluku",MALUKU,,Indonesia,,,,-3.4201024,128.6882796,https://maps.google.com/?cid=0x0:0x1084c114355ef553,
cafe,Komplek perumahan,Home Widya,"HJCG+7JH, Jl. Trans Seram, Latu, Kec. Amalatu, Kabupaten Seram Bagian Barat, Maluku","Kabupaten Seram Bagian Barat, Maluku",MALUKU,,Indonesia,,,,-3.4293021,128.6266141,https://maps.google.com/?cid=0x0:0x5a34b7b9757a1230,
cafe,Pembangunan Perumahan,Rafa Wifi Coffee,"HMQV+PFJ, Tomalehu, Kec. Amalatu, Kabupaten Seram Bagian Barat, Maluku","Kabupaten Seram Bagian Barat, Maluku",MALUKU,,Indonesia,81247360882.0,,,-3.4106507,128.6936257,https://maps.google.com/?cid=0x0:0x1a812847ec6d05ea,
cafe,Toko umum,Kedai Lawataka,"HMVR+9GH, Jl. Trans Seram, Hualoy, Kec. Amalatu, Kabupaten Seram Bagian Barat, Maluku","Kabupaten Seram Bagian Barat, Maluku",MALUKU,,Indonesia,,,,-3.4066686,128.6912344,https://maps.google.com/?cid=0x0:0x70df753b182f43d0,
cafe,Dapur Umum,Warung gado gado,"HMJP+4F8, Latu, Kec. Amalatu, Kabupaten Seram Bagian Barat, Maluku","Kabupaten Seram Bagian Barat, Maluku",MALUKU,,Indonesia,,,,-3.4197011,128.6862106,https://maps.google.com/?cid=0x0:0x77e91c6717c7e3ca,
cafe,Penyedia Layanan Internet,Adeirun hospot,"HMJQ+6QH, Latu, Kec. Amalatu, Kabupaten Seram Bagian Barat, Maluku","Kabupaten Seram Bagian Barat, Maluku",MALUKU,,Indonesia,,,,-3.4196573,128.6892162,https://maps.google.com/?cid=0x0:0xf3b5b7f7d4a210ba,
cafe,Kedai Kopi,Kedai Kopi Madep Mantep,"M975+667, Waimital, Kec. Kairatu, Kabupaten Seram Bagian Barat, Maluku","Kabupaten Seram Bagian Barat, Maluku",MALUKU,,Indonesia,,,,-3.3369733,128.3580614,https://maps.google.com/?cid=0x0:0x151413491423eee5,
cafe,Kedai Kopi,SAMA-SAMA COFFEE,"F697+MG2, Morela, Kec. Leihitu, Kabupaten Maluku Tengah, Maluku","Kabupaten Maluku Tengah, Maluku",MALUKU,,Indonesia,,,,-3.5308617,128.2137746,https://maps.google.com/?cid=0x0:0xdc7f81baa9b812ee,
cafe,Kafe,Walang_ASIDA_BANG_MO,"PX25+XMX, Jl. Abdullah Soulissa Masohi, Namaelo, Kec. Kota Masohi, Masohi, Maluku 97500","Jl. Abdullah Soulissa Masohi, Namaelo, Kec. Kota Masohi, Masohi",MALUKU,97500.0,Indonesia,85130411717.0,,,-3.2975025,128.9592316,https://maps.google.com/?cid=0x0:0x11b40a1d1471751f,
cafe,Komplek perumahan,Kermite House,"HG3P+7X8, Rumahkay, Kec. Amalatu, Kabupaten Seram Bagian Barat, Maluku","Kabupaten Seram Bagian Barat, Maluku",MALUKU,,Indonesia,,,,-3.4463372,128.5375071,https://maps.google.com/?cid=0x0:0xe4efb6eb378be936,
cafe,cafe,NOL KM,"HM9F+FXH, Jl. Trans Seram, Latu, Kec. Amalatu, Kabupaten Seram Bagian Barat, Maluku","Kabupaten Seram Bagian Barat, Maluku",MALUKU,,Indonesia,,,,-3.4313101,128.6749947,https://maps.google.com/?cid=0x0:0x640c8d14d60b56d8,
cafe,cafe,kafe nona bak,"HMRV+FFP, Tomalehu, Kec. Amalatu, Kabupaten Seram Bagian Barat, Maluku","Kabupaten Seram Bagian Barat, Maluku",MALUKU,,Indonesia,,,,-3.4087857,128.6936979,https://maps.google.com/?cid=0x0:0x65b6ce04ad6fe99,
cafe,cafe,Soya (Cafe  Risort),"HM98+799, Tomalehu, Kec. Amalatu, Kabupaten Seram Bagian Barat, Maluku","Kabupaten Seram Bagian Barat, Maluku",MALUKU,,Indonesia,,,,-3.4318419,128.6659969,https://maps.google.com/?cid=0x0:0x4888c45e354ca221,
cafe,Kafe,Dluku Cafee  Resort,"Jl. Ir . Mohammad Khosi, Waimital, Kec. Kairatu, Ambon, Maluku 97566","Waimital, Kec. Kairatu, Ambon",MALUKU,97566.0,Indonesia,81240221127.0,,,-3.3135564,128.3676982,https://maps.google.com/?cid=0x0:0xd71b08a0e37ca59a,
cafe,Kafe,AKROPOLIS CAFE,"M975+WJJ, Waimital, Kec. Kairatu, Kabupaten Seram Bagian Barat, Maluku","Kabupaten Seram Bagian Barat, Maluku",MALUKU,,Indonesia,,,,-3.3362513,128.3571049,https://maps.google.com/?cid=0x0:0x70426270c10cdd92,
cafe,cafe,Saving latale,"HMRV+MCG, Tomalehu, Kec. Amalatu, Kabupaten Seram Bagian Barat, Maluku","Kabupaten Seram Bagian Barat, Maluku",MALUKU,,Indonesia,,,,-3.4083211,128.6935697,https://maps.google.com/?cid=0x0:0xf0640f1af7ecb014,
cafe,Kafe,CAFE BAPEPA,"C37R+XP8, Jl. Propinsi, Hila, Kec. Leihitu, Kabupaten Maluku Tengah, Maluku","Kabupaten Maluku Tengah, Maluku",MALUKU,,Indonesia,82248560069.0,,,-3.5850896,128.0918351,https://maps.google.com/?cid=0x0:0x8f78b2a244295872,
cafe,cafe,warung kopi kepeng,"HMHP+HC4, Tomalehu, Kec. Amalatu, Kabupaten Seram Bagian Barat, Maluku","Kabupaten Seram Bagian Barat, Maluku",MALUKU,,Indonesia,,,,-3.4211085,128.686078,https://maps.google.com/?cid=0x0:0xa7feee75f6badd50,
cafe,Brunch,Warung noliga,"HG3R+66C, Rumahkay, Kec. Amalatu, Kabupaten Seram Bagian Barat, Maluku","Kabupaten Seram Bagian Barat, Maluku",MALUKU,,Indonesia,82198829188.0,,,-3.4469268,128.5405045,https://maps.google.com/?cid=0x0:0xe02c42b349dc9545,
cafe,cafe,Kec. Inamosol,"Kabupaten Seram Bagian Barat, Maluku","Kabupaten Seram Bagian Barat, Maluku",MALUKU,,Indonesia,,,,-3.2334031,128.4500616,https://maps.google.com/?cid=0x0:0x5bec28e34f3cb18d,
cafe,Kafe,Cafe Apuiro,"Air buaya, Kec. Inamosol, Kabupaten Seram Bagian Barat, Maluku","Kabupaten Seram Bagian Barat, Maluku",MALUKU,,Indonesia,,,,-3.1274613,128.400607,https://maps.google.com/?cid=0x0:0x33e8edebdcd4f30f,
cafe,Kafe,AKROPOLIS CAFE,"M975+WJJ, Waimital, Kec. Kairatu, Kabupaten Seram Bagian Barat, Maluku","Kabupaten Seram Bagian Barat, Maluku",MALUKU,,Indonesia,,,,-3.3362513,128.3571049,https://maps.google.com/?cid=0x0:0x70426270c10cdd92,
cafe,cafe,Kafein Corner,"Jl. Taman Wisma Asri II No.7A Blok AA 39, Tlk. Pucung, Kec. Bekasi Utara, Kota Bks, Jawa Barat 17121","Tlk. Pucung, Kec. Bekasi Utara, Kota Bks",MALUKU,17121.0,Indonesia,81381153939.0,,,-6.1991276,107.0283332,https://maps.google.com/?cid=0x0:0x29471b9dbd9b1254,
cafe,Kafe,AKROPOLIS CAFE,"M975+WJJ, Waimital, Kec. Kairatu, Kabupaten Seram Bagian Barat, Maluku","Kabupaten Seram Bagian Barat, Maluku",MALUKU,,Indonesia,,,,-3.3362513,128.3571049,https://maps.google.com/?cid=0x0:0x70426270c10cdd92,
cafe,Restoran,WaterBoom  LukuCaffe_Kampung Rambutan,"M9P8+GRP, Waimital, Kec. Kairatu, Kabupaten Seram Bagian Barat, Maluku","Kabupaten Seram Bagian Barat, Maluku",MALUKU,,Indonesia,,,,-3.3136624,128.3670834,https://maps.google.com/?cid=0x0:0x3a0aabe8ba383468,
cafe,Kafe,DE Angkringan,"Waimital, Kec. Kairatu, Kabupaten Seram Bagian Barat, Maluku","Kabupaten Seram Bagian Barat, Maluku",MALUKU,,Indonesia,81240526308.0,,,-3.3335217,128.3554582,https://maps.google.com/?cid=0x0:0x3f0b7203f664f4b3,
cafe,Kedai Kopi,Oyo,"M984+P46, Jl. Ir. Mohamad Khosim, Waimital, Kec. Kairatu, Kabupaten Seram Bagian Barat, Maluku","Kabupaten Seram Bagian Barat, Maluku",MALUKU,,Indonesia,,,,-3.3332176,128.3552701,https://maps.google.com/?cid=0x0:0xc098ebf1013f0e00,
cafe,Kedai Kopi,Kedai Kopi Madep Mantep,"M975+667, Waimital, Kec. Kairatu, Kabupaten Seram Bagian Barat, Maluku","Kabupaten Seram Bagian Barat, Maluku",MALUKU,,Indonesia,,,,-3.3369733,128.3580614,https://maps.google.com/?cid=0x0:0x151413491423eee5,
cafe,Makanan Kecil,De'larissa RestoCafe,"Kairatu, Kec. Kairatu, Kabupaten Seram Bagian Barat, Maluku 97566","Kec. Kairatu, Kabupaten Seram Bagian Barat",MALUKU,97566.0,Indonesia,81280335559.0,,,-3.3536731,128.3559797,https://maps.google.com/?cid=0x0:0x40c4a382b1fa419e,
cafe,Indonesia,Naila Resto,"M982+QGJ, Waimital, Kec. Kairatu, Kabupaten Seram Bagian Barat, Maluku","Kabupaten Seram Bagian Barat, Maluku",MALUKU,,Indonesia,,,,-3.3330315,128.3512671,https://maps.google.com/?cid=0x0:0xece1a87c9e176a25,
cafe,Kafe,Cafe Apuiro,"J9MF+2FH, Kairatu, Kec. Kairatu, Kabupaten Seram Bagian Barat, Maluku","Kabupaten Seram Bagian Barat, Maluku",MALUKU,,Indonesia,,,,-3.3674254,128.3737263,https://maps.google.com/?cid=0x0:0xc7718c22acf2875c,
cafe,Kafe,Back MAR'S,"M975+HV7, Jl. Trans Seram, Waimital, Kec. Kairatu, Kabupaten Seram Bagian Barat, Maluku","Kabupaten Seram Bagian Barat, Maluku",MALUKU,,Indonesia,,,,-3.3360908,128.3596847,https://maps.google.com/?cid=0x0:0xf5d25ba6b14514b7,
cafe,Restoran,Kedai Es Ilayka,"Waimital, Kec. Kairatu, Kabupaten Seram Bagian Barat, Maluku","Kabupaten Seram Bagian Barat, Maluku",MALUKU,,Indonesia,82131185891.0,,,-3.3319674,128.3526299,https://maps.google.com/?cid=0x0:0x7a24b16ab14a6b9f,
cafe,Kafe,ADICHEIRA CAFFE,"Waipirit, Kec. Kairatu, Kabupaten Seram Bagian Barat, Maluku 97568","Kec. Kairatu, Kabupaten Seram Bagian Barat",MALUKU,97568.0,Indonesia,,,,-3.334434,128.3422163,https://maps.google.com/?cid=0x0:0x35c657f292426518,
cafe,Restoran,RM. MULIA LESTARI,"Waimital, Kec. Kairatu, Kabupaten Seram Bagian Barat, Maluku 97566","Kec. Kairatu, Kabupaten Seram Bagian Barat",MALUKU,97566.0,Indonesia,82197973444.0,,,-3.3313384,128.3489102,https://maps.google.com/?cid=0x0:0xbb92dcbab8a5ee5b,
cafe,Kafe,Depot Arseka,"M982+63Q, jl.baru Man Waimital, Dusun, Srimulyo, Kec. Kairatu, Kabupaten Seram Bagian Barat, Maluku","Kabupaten Seram Bagian Barat, Maluku",MALUKU,,Indonesia,82199791875.0,,,-3.3344121,128.3502356,https://maps.google.com/?cid=0x0:0xb75a79887e176aa8,
cafe,Kedai Kopi,xiexieboba gemba,"M967+74P, Waimital, Kec. Kairatu, Kabupaten Seram Bagian Barat, Maluku","Kabupaten Seram Bagian Barat, Maluku",MALUKU,,Indonesia,81240037634.0,,,-3.339299,128.3628141,https://maps.google.com/?cid=0x0:0xa08ca8d5bf752586,
cafe,Kafe,christo,"M94C+W6G, Kairatu, Kec. Kairatu, Kabupaten Seram Bagian Barat, Maluku","Kabupaten Seram Bagian Barat, Maluku",MALUKU,,Indonesia,,,,-3.3422737,128.3708644,https://maps.google.com/?cid=0x0:0x15ed94c2a129683c,
cafe,Makanan Kecil,AGP waimital kairatu,"P93R+F4V, Waimital, Kec. Kairatu, Kabupaten Seram Bagian Barat, Maluku","Kabupaten Seram Bagian Barat, Maluku",MALUKU,,Indonesia,82227889549.0,,,-3.2962591,128.3903087,https://maps.google.com/?cid=0x0:0x69616b91ae32e8bd,
cafe,Toko Perlengkapan Rumah,Toko Oshin,"Q7PJ+2MH, Bar., Kabupaten Seram Bagian, Kamal, Kec. Kairatu Bar., Kabupaten Seram Bagian Barat, Maluku","Kabupaten Seram Bagian Barat, Maluku",MALUKU,,Indonesia,82197877888.0,,,-3.2149477,128.2817498,https://maps.google.com/?cid=0x0:0xbc9c7c489ae48bf2,
cafe,Restoran,Rumah makan SUDI MAMPIR,"M973+RXQ, Waimital, Kec. Kairatu, Kabupaten Seram Bagian Barat, Maluku","Kabupaten Seram Bagian Barat, Maluku",MALUKU,,Indonesia,,,,-3.3354235,128.3549892,https://maps.google.com/?cid=0x0:0x8d5358f429082f5d,
cafe,Kedai Kopi,Walang sopibel,"M953+84M, Kairatu, Kec. Kairatu, Kabupaten Seram Bagian Barat, Maluku","Kabupaten Seram Bagian Barat, Maluku",MALUKU,,Indonesia,,,,-3.341675,128.352798,https://maps.google.com/?cid=0x0:0x5b197c1ebeca5d59,
cafe,cafe,Kec. Huamual Belakang,"Kabupaten Seram Bagian Barat, Maluku","Kabupaten Seram Bagian Barat, Maluku",MALUKU,,Indonesia,,,,-3.2255814,128.0662787,https://maps.google.com/?cid=0x0:0x234bd4efeec3b38,
cafe,Kedai Kopi,Caffe Love Story Waemitena,"JXJR+C6M, Luhu, Kec. Huamual Belakang, Kabupaten Seram Bagian Barat, Maluku","Kabupaten Seram Bagian Barat, Maluku",MALUKU,,Indonesia,,,,-3.3689045,127.9905372,https://maps.google.com/?cid=0x0:0xd3e0534722fd1f67,
cafe,Kafe,Waroeng MARS,"JX7J+3M5, Unnamed Road, Luhu, Kec. Huamual Belakang, Kabupaten Seram Bagian Barat, Maluku","Kabupaten Seram Bagian Barat, Maluku",MALUKU,,Indonesia,,,,-3.3873548,127.9817314,https://maps.google.com/?cid=0x0:0x51f8a4850bf4891b,
cafe,Kafe,Teguh,"P3Q3+CV4, Lokki, Kec. Huamual Belakang, Kabupaten Seram Bagian Barat, Maluku","Kabupaten Seram Bagian Barat, Maluku",MALUKU,,Indonesia,,,,-3.2628026,128.0544724,https://maps.google.com/?cid=0x0:0xabd62426a27b08ba,
cafe,Sarapan,WARUNG SINGGA DOLO,"Dusun Amaholu Losy, Luhu, Kec. Huamual Belakang, Kabupaten Seram Bagian Barat, Maluku","Kabupaten Seram Bagian Barat, Maluku",MALUKU,,Indonesia,81211537745.0,,,-3.3841041,127.9414184,https://maps.google.com/?cid=0x0:0x2b6e145f8b1a1f34,
cafe,Kafe,Rumah Hunipopu,"Ariate, Kec. Huamual Belakang, Kabupaten Seram Bagian Barat, Maluku","Kabupaten Seram Bagian Barat, Maluku",MALUKU,,Indonesia,81248675354.0,,,-3.1906899,128.0686586,https://maps.google.com/?cid=0x0:0xa93e0fac5749561d,
cafe,Rumah Makan,rumah makan simpang tiga,"JX8J+MQ5, Luhu, Kec. Huamual Belakang, Kabupaten Seram Bagian Barat, Maluku","Kabupaten Seram Bagian Barat, Maluku",MALUKU,,Indonesia,,,,-3.3833536,127.981979,https://maps.google.com/?cid=0x0:0xd9cda9d417a6e98,
cafe,Sarapan,Kedai Anis,"JXFP+6PM, Luhu, Kec. Huamual Belakang, Kabupaten Seram Bagian Barat, Maluku","Kabupaten Seram Bagian Barat, Maluku",MALUKU,,Indonesia,,,,-3.3769138,127.9868056,https://maps.google.com/?cid=0x0:0x1d61e7ebce2cdeec,
cafe,Toko,Kios unyil,"PW84+5H2, Waesala, Kec. Huamual Belakang, Kabupaten Seram Bagian Barat, Maluku","Kabupaten Seram Bagian Barat, Maluku",MALUKU,,Indonesia,,,,-3.2846136,127.9064037,https://maps.google.com/?cid=0x0:0x62ed013f12fd3c8b,
cafe,Kafe,Pinang putih,"JX4H+WHW, Kulur, Kec. Huamual Belakang, Kabupaten Seram Bagian Barat, Maluku","Kabupaten Seram Bagian Barat, Maluku",MALUKU,,Indonesia,,,,-3.392738,127.97856,https://maps.google.com/?cid=0x0:0xab08dcf2b5ce5f34,
cafe,Kafe,Warung Bang.ucix,"JWRV+6HW, Negri Seri Kambelo, Luhu, Kec. Huamual Belakang, Kabupaten Seram Bagian Barat, Maluku","Kabupaten Seram Bagian Barat, Maluku",MALUKU,,Indonesia,85243725907.0,,,-3.3593924,127.9439486,https://maps.google.com/?cid=0x0:0xde4adc8c99a0034a,
cafe,cafe,Rumah Makan Hilyah Talaga,"Dusun Talaga, Luhu, Kec. Huamual Belakang, Kabupaten Seram Bagian Barat, Maluku","Kabupaten Seram Bagian Barat, Maluku",MALUKU,,Indonesia,81279268158.0,,,-3.3639803,127.9678652,https://maps.google.com/?cid=0x0:0xd62966fa07a2200d,
cafe,Kafe,Kedai Soma Waka,"JX3H+382, Jl. Raya Negeri, Iha, Kec. Huamual Belakang, Kabupaten Seram Bagian Barat, Maluku","Kabupaten Seram Bagian Barat, Maluku",MALUKU,,Indonesia,,,,-3.3973744,127.9782725,https://maps.google.com/?cid=0x0:0x2f1099e3132c75ee,
cafe,Minimarket,Gumumae Bakery N Cafe,"Jl. Wailola, Bula, Kec. Bula, Kabupaten Seram Bagian Timur, Maluku","Kabupaten Seram Bagian Timur, Maluku",MALUKU,,Indonesia,81247680399.0,,,-3.0944342,130.4750723,https://maps.google.com/?cid=0x0:0xf9df459a574df4ff,
cafe,Toko Elektronik,Tempat fotocopy sahrul,"PW83+QM2, Waesala, Kec. Huamual Belakang, Kabupaten Seram Bagian Barat, Maluku","Kabupaten Seram Bagian Barat, Maluku",MALUKU,,Indonesia,,,,-3.2831128,127.9041309,https://maps.google.com/?cid=0x0:0x4e559f5658ed1904,
cafe,Restoran,Kedai Ricis Ambon,"JWJV+X37 Pertigaan waikamua, Luhu, Kec. Huamual Belakang, Kabupaten Seram Bagian Barat, Maluku","Kabupaten Seram Bagian Barat, Maluku",MALUKU,,Indonesia,,,,-3.3675842,127.94268,https://maps.google.com/?cid=0x0:0xb3d69433ccf69adb,
cafe,Warnet,Travel dan wifi Hanna net,"JW9V+642, Luhu, Kec. Huamual Belakang, Kabupaten Seram Bagian Barat, Maluku","Kabupaten Seram Bagian Barat, Maluku",MALUKU,,Indonesia,,,,-3.3819908,127.9427521,https://maps.google.com/?cid=0x0:0xbf8cbcd1c0c0f5a2,
cafe,Dapur Umum,Kantin SD Inpres tapinalu,"PW84+478, Waesala, Kec. Huamual Belakang, Kabupaten Seram Bagian Barat, Maluku","Kabupaten Seram Bagian Barat, Maluku",MALUKU,,Indonesia,,,,-3.2847835,127.9056304,https://maps.google.com/?cid=0x0:0x3024d06c403fba75,
cafe,Restoran,Wailela Cafe and Resto | Ambon,"Jl. Kampus, Rumah Tiga, Kec. Tlk. Ambon, Kota Ambon, Maluku","Kota Ambon, Maluku",MALUKU,,Indonesia,82399522113.0,,,-3.6610624,128.180609,https://maps.google.com/?cid=0x0:0x3acbc85ce4ef2d6d,
cafe,Kedai Kopi,Kedai Ratu Hitam,"WF5P+RRV, Kec. Bula, Kabupaten Seram Bagian Timur, Maluku","Kabupaten Seram Bagian Timur, Maluku",MALUKU,,Indonesia,8124849165.0,,,-3.0903856,130.4870537,https://maps.google.com/?cid=0x0:0x7344b7bdf27cc044,
cafe,Restoran,gado2 ibu sami,"3P3G+WF, Manusela, Kec. Seram Utara, Kabupaten Maluku Tengah, Maluku","Kabupaten Maluku Tengah, Maluku",MALUKU,,Indonesia,822060489660.0,,,-2.9451727,129.7260783,https://maps.google.com/?cid=0x0:0xb745716b899b4126,
cafe,Kedai Kopi,Starbubuk Cafe,"4PRF+R39 Komplek Koperasi BPG, Jl. Lintas Seram, Manusela, Siatele, Kabupaten Maluku Tengah, Maluku","Kabupaten Maluku Tengah, Maluku",MALUKU,,Indonesia,,,,-2.8579637,129.7227243,https://maps.google.com/?cid=0x0:0x5d420d5fc324f6d,
cafe,Kedai Kopi,Haikal,"X3GC+J9P, Jl. Haider Mursalim Amd.TEM, Etty, Kec. Seram Bar., Kabupaten Seram Bagian Barat, Maluku","Kabupaten Seram Bagian Barat, Maluku",MALUKU,,Indonesia,82398768588.0,,,-3.0234052,128.0709505,https://maps.google.com/?cid=0x0:0x2ddbea98580cd31f,
cafe,Kedai Kopi,Hot Road Cafe Vintage,"Jl. Raden Saleh No.49, RT.5/RW.005, Karang Mulya, Kec. Karang Tengah, Kota Tangerang, Banten 15157","RT.5/RW.005, Karang Mulya, Kec. Karang Tengah, Kota Tangerang",MALUKU,15157.0,Indonesia,,,,-6.1981183,106.7222868,https://maps.google.com/?cid=0x0:0xf3719c33e2991a09,
cafe,cafe,harmony caffe,"JXCP+CC9, Luhu, Kec. Huamual Belakang, Kabupaten Seram Bagian Barat, Maluku","Kabupaten Seram Bagian Barat, Maluku",MALUKU,,Indonesia,,,,-3.3789628,127.9857579,https://maps.google.com/?cid=0x0:0x6b252ebbed68f40,
cafe,Rumah wisata,Degu Degu,"MG6W+XM8, Tumalehu Tim., Kec. Kepulauan Manipa, Kabupaten Seram Bagian Barat, Maluku","Kabupaten Seram Bagian Barat, Maluku",MALUKU,,Indonesia,,,,-3.3376864,127.5467308,https://maps.google.com/?cid=0x0:0x50fbaa75a8514bca,
cafe,Rumah wisata,Bapa Uchen,"MG6W+XM8, Tumalehu Tim., Kec. Kepulauan Manipa, Kabupaten Seram Bagian Barat, Maluku","Kabupaten Seram Bagian Barat, Maluku",MALUKU,,Indonesia,,,,-3.3378566,127.5466997,https://maps.google.com/?cid=0x0:0xd7b95eefa46652e9,
cafe,cafe,Kec. Taniwel Tim.,"Kabupaten Seram Bagian Barat, Maluku","Kabupaten Seram Bagian Barat, Maluku",MALUKU,,Indonesia,,,,-2.8451525,128.6555679,https://maps.google.com/?cid=0x0:0x51e7fe5228d3a153,
cafe,Studio Fotografi,Digital Fotocoppy Rava,"4PQF+39R, Tounussa, Kec. Taniwel Tim., Kabupaten Seram Bagian Barat, Maluku","Kabupaten Seram Bagian Barat, Maluku",MALUKU,,Indonesia,,,,-2.8622597,128.7233992,https://maps.google.com/?cid=0x0:0xcffc31c30be0da6d,
cafe,cafe,Nawaya,"4PQ8+FG, Lumapelu, Kabupaten Seram Bagian Barat, Maluku","Kabupaten Seram Bagian Barat, Maluku",MALUKU,,Indonesia,,,,-2.8613626,128.716335,https://maps.google.com/?cid=0x0:0xe02fc42cc66b0542,
cafe,cafe,Elpaputih,"Kabupaten Maluku Tengah, Maluku","Kabupaten Maluku Tengah, Maluku",MALUKU,,Indonesia,,,,-3.2102958,128.6949149,https://maps.google.com/?cid=0x0:0x5c490d6e0c7c3235,
cafe,Restoran,Wailela Cafe and Resto | Ambon,"Jl. Kampus, Rumah Tiga, Kec. Tlk. Ambon, Kota Ambon, Maluku","Kota Ambon, Maluku",MALUKU,,Indonesia,82399522113.0,,,-3.6610624,128.180609,https://maps.google.com/?cid=0x0:0x3acbc85ce4ef2d6d,
cafe,Kafe,INFINITY CAFE  EATERY,"85CV+M7G, Pandan Kasturi, Kec. Sirimau, Kota Ambon, Maluku","Kota Ambon, Maluku",MALUKU,,Indonesia,81241568878.0,,,-3.6783317,128.1931931,https://maps.google.com/?cid=0x0:0x619ec9a16acc810f,
cafe,Rumah Kayu,tempat singgah (purimahua),"QR25+HWQ, Samasuru, Kec. Tlk. Elpaputih, Kabupaten Maluku Tengah, Maluku","Kabupaten Maluku Tengah, Maluku",MALUKU,,Indonesia,,,,-3.2485436,128.8098576,https://maps.google.com/?cid=0x0:0xeea14ea96bd0d708,
cafe,Kafe,Forganza Resto  Cafe,"Kelanit, Kec. Kei Kecil, Kabupaten Maluku Tenggara, Maluku","Kabupaten Maluku Tenggara, Maluku",MALUKU,,Indonesia,82231789845.0,,,-5.6575049,132.7029619,https://maps.google.com/?cid=0x0:0x35e7e74d6d2279bc,
cafe,cafe,Warung Kopi Pradana Live Music,"PP4W+226, Jalan Trans Seran Waimital Kec Kairatu SBB Gemba Waimital, Piru, Elpaputih, Kabupaten Maluku Tengah, Maluku 97126","Jalan Trans Seran Waimital Kec Kairatu SBB Gemba Waimital, Piru, Elpaputih, Kabupaten Maluku Tengah",MALUKU,97126.0,Indonesia,81247423989.0,,,-3.2949649,128.7450218,https://maps.google.com/?cid=0x0:0x526caeb8c1a61941,
cafe,cafe,RM YUYUN,"PP3V+PJW, Jl. Trans Seram, Sanahu, Elpaputih, Kabupaten Maluku Tengah, Maluku","Kabupaten Maluku Tengah, Maluku",MALUKU,,Indonesia,,,,-3.2956435,128.7440805,https://maps.google.com/?cid=0x0:0x6941a7809ca72c0a,
cafe,cafe,CafeHatai Hualoy,"MH7H+MR7, Hualoy, Kec. Amalatu, Kabupaten Seram Bagian Barat, Maluku","Kabupaten Seram Bagian Barat, Maluku",MALUKU,,Indonesia,,,,-3.3358272,128.5795405,https://maps.google.com/?cid=0x0:0xb6a68cfacd9d5afd,
cafe,cafe,Espis Asyura Wattimena,"MH7H+MR7, Hualoy, Kec. Amalatu, Kabupaten Seram Bagian Barat, Maluku","Kabupaten Seram Bagian Barat, Maluku",MALUKU,,Indonesia,,,,-3.3358272,128.5795405,https://maps.google.com/?cid=0x0:0x7a1ebfb34a4397dc,
cafe,Bar Karaoke,Karaoke Surya pesona,"Jl. Trans Seram, kelapa dua, gunung parang, Kabupaten Seram Bagian Barat, Maluku 97145","kelapa dua, gunung parang, Kabupaten Seram Bagian Barat",MALUKU,97145.0,Indonesia,82199296990.0,,,-3.3259446,128.6968297,https://maps.google.com/?cid=0x0:0x25bd5942b18c40c0,
cafe,Kafe,Cafe 66%,"Q9JG+RQ3, Jl. Cempaka, Maliaro, Kec. Ternate Tengah, Kota Ternate, Maluku Utara","Kota Ternate, Maluku Utara",MALUKU,,Indonesia,81394805660.0,,,0.7820167,127.3769313,https://maps.google.com/?cid=0x0:0x6acab188c934a62a,
cafe,Kafe,AKROPOLIS CAFE,"M975+WJJ, Waimital, Kec. Kairatu, Kabupaten Seram Bagian Barat, Maluku","Kabupaten Seram Bagian Barat, Maluku",MALUKU,,Indonesia,,,,-3.3362513,128.3571049,https://maps.google.com/?cid=0x0:0x70426270c10cdd92,
cafe,Hidangan Laut,Basnup Cafe  Resto,"Sudirman No.354, Pandan Kasturi, Kec. Sirimau, Kota Ambon, Maluku 97128","Pandan Kasturi, Kec. Sirimau, Kota Ambon",MALUKU,97128.0,Indonesia,81333152313.0,,,-3.6782069,128.193766,https://maps.google.com/?cid=0x0:0x8b3a1ab771880477,
cafe,Minimarket,Rianti cafe and resto,"MXW2+94V, Ampera, Kec. Kota Masohi, Kabupaten Maluku Tengah, Maluku","Kabupaten Maluku Tengah, Maluku",MALUKU,,Indonesia,,,,-3.3040121,128.9502963,https://maps.google.com/?cid=0x0:0x76ed2b7903551618,
