Category,Real Category,Business Name,Address,City,State,Postal Code,Country,Phone,Email,Website,Latitude,Longitude,Map Link,Details Link
building materials,building materials,Kairatu,"Kairatu, Kec. Kairatu, Kabupaten Seram Bagian Barat, Maluku","Kabupaten Seram Bagian Barat, Maluku",MALUKU,,Indonesia,,,,-3.341675,128.352798,https://maps.google.com/?cid=0x0:0xccc8b619c657b48e,
building materials,Toko,Toko Tunas Baru,"M966+FP8, Jl. Trans Seram, Waimital, Kec. Kairatu, Kabupaten Seram Bagian Barat, Maluku","Kabupaten Seram Bagian Barat, Maluku",MALUKU,,Indonesia,81385661699.0,,,-3.3388259,128.3618245,https://maps.google.com/?cid=0x0:0x20a66a8197b5b440,
building materials,Toko Bahan Bangunan,Toko Sumber Alam,"M966+8R6, Jl. Trans Seram, Waimital, Kec. Kairatu, Kabupaten Seram Bagian Barat, Maluku","Kabupaten Seram Bagian Barat, Maluku",MALUKU,,Indonesia,82378990826.0,,,-3.3392156,128.362011,https://maps.google.com/?cid=0x0:0x4a1586af5326e028,
building materials,Toko Bahan Bangunan,Toko bangunan Dinda Barokah,"P85C+XWC, Waihatu, Kec. Kairatu Bar., Kabupaten Seram Bagian Barat, Maluku","Kabupaten Seram Bagian Barat, Maluku",MALUKU,,Indonesia,81356194953.0,,,-3.2900692,128.3222692,https://maps.google.com/?cid=0x0:0x634ca5cb31d21d51,
building materials,building materials,Toko bangunan,"M994+PJG, Waimital, Kec. Kairatu, Kabupaten Seram Bagian Barat, Maluku","Kabupaten Seram Bagian Barat, Maluku",MALUKU,,Indonesia,,,,-3.3306794,128.3565723,https://maps.google.com/?cid=0x0:0x24639d7d98e3c1a9,
building materials,building materials,Toko bangunan mba Nur,"M994+27M, Jl. Ir. Mohamad Khosim, Waimital, Kec. Kairatu, Kabupaten Seram Bagian Barat, Maluku","Kabupaten Seram Bagian Barat, Maluku",MALUKU,,Indonesia,,,,-3.3324149,128.3556808,https://maps.google.com/?cid=0x0:0xc56ce3808221aa9d,
building materials,building materials,Kec. Seram Bar.,"Kabupaten Seram Bagian Barat, Maluku","Kabupaten Seram Bagian Barat, Maluku",MALUKU,,Indonesia,,,,-3.0650683,128.194492,https://maps.google.com/?cid=0x0:0xd1612bfbfbd97a94,
building materials,Komplek perumahan,Jalan air kuning seram bagian Barat,"W685+HCR, Piru, Kec. Seram Bar., Kabupaten Seram Bagian Barat, Maluku","Kabupaten Seram Bagian Barat, Maluku",MALUKU,,Indonesia,,,,-3.0835033,128.2085127,https://maps.google.com/?cid=0x0:0x8bd7b2153f9ebc35,
building materials,Toko Perlengkapan Rumah,Toko Berdikari Jaya,"W6H2+GHW, Jl. Trans Seram, Piru, Kec. Seram Bar., Kabupaten Seram Bagian Barat, Maluku","Kabupaten Seram Bagian Barat, Maluku",MALUKU,,Indonesia,,,,-3.0711298,128.2014526,https://maps.google.com/?cid=0x0:0x493d9b22726b068d,
building materials,Toko Bahan Bangunan,Toko Sumber Alam,"M966+8R6, Jl. Trans Seram, Waimital, Kec. Kairatu, Kabupaten Seram Bagian Barat, Maluku","Kabupaten Seram Bagian Barat, Maluku",MALUKU,,Indonesia,82378990826.0,,,-3.3392156,128.362011,https://maps.google.com/?cid=0x0:0x4a1586af5326e028,
building materials,Kantor Perusahaan,PT. Manusela Prima Mining,"Jl. Lintas seram No.25, Piru, Kec. Huamual Belakang, Kabupaten Seram Bagian Barat, Maluku","Kabupaten Seram Bagian Barat, Maluku",MALUKU,,Indonesia,9113940009.0,,,-3.0794167,128.0379325,https://maps.google.com/?cid=0x0:0xd9107a4d0d81e6e,
building materials,Toko,Toko Tunas Baru,"M966+FP8, Jl. Trans Seram, Waimital, Kec. Kairatu, Kabupaten Seram Bagian Barat, Maluku","Kabupaten Seram Bagian Barat, Maluku",MALUKU,,Indonesia,81385661699.0,,,-3.3388259,128.3618245,https://maps.google.com/?cid=0x0:0x20a66a8197b5b440,
building materials,Toko Bahan Bangunan,Eka Pratama,"JWQV+6P5, Luhu, Kec. Huamual Belakang, Kabupaten Seram Bagian Barat, Maluku","Kabupaten Seram Bagian Barat, Maluku",MALUKU,,Indonesia,81385661699.0,,,-3.3619763,127.9443737,https://maps.google.com/?cid=0x0:0x9297fa79318e74fa,
building materials,Pembangunan Perumahan,Kompleks Rumah Tiga,"XXV2+W5, Buano Utara, Kec. Huamual Belakang, Kabupaten Seram Bagian Barat, Maluku","Kabupaten Seram Bagian Barat, Maluku",MALUKU,,Indonesia,,,,-3.0051172,127.9504017,https://maps.google.com/?cid=0x0:0x39c20c8416743982,
building materials,Toko Bahan Bangunan,Toko bangunan Dinda Barokah,"P85C+XWC, Waihatu, Kec. Kairatu Bar., Kabupaten Seram Bagian Barat, Maluku","Kabupaten Seram Bagian Barat, Maluku",MALUKU,,Indonesia,81356194953.0,,,-3.2900692,128.3222692,https://maps.google.com/?cid=0x0:0x634ca5cb31d21d51,
building materials,Toko Bahan Bangunan,PT RBSHERA SOLUSI BANGUNAN INDONESIA,"Alia Building, Jl. M.I. Ridwan Rais No.Kav. 10-18, Gambir, Kecamatan Gambir, Kota Jakarta Pusat, Daerah Khusus Ibukota Jakarta 10110","Jl. M.I. Ridwan Rais No.Kav. 10-18, Gambir, Kecamatan Gambir, Kota Jakarta Pusat",MALUKU,10110.0,Indonesia,213867707.0,,,-6.1818495,106.832449,https://maps.google.com/?cid=0x0:0xe7643e0609e72ce9,
building materials,Toko Bahan Bangunan,Toko Hanna,"JWPV+GV, Luhu, Kec. Huamual Belakang, Kabupaten Seram Bagian Barat, Maluku","Kabupaten Seram Bagian Barat, Maluku",MALUKU,,Indonesia,82199904646.0,,,-3.3636349,127.9446434,https://maps.google.com/?cid=0x0:0x78aff0296928fc4c,
building materials,Toko Bahan Bangunan,Toko Bata/batako,"J9QC+8G8, Kairatu, Kec. Kairatu, Kabupaten Seram Bagian Barat, Maluku","Kabupaten Seram Bagian Barat, Maluku",MALUKU,,Indonesia,81385661699.0,,,-3.3617156,128.3713198,https://maps.google.com/?cid=0x0:0x481586af2d254d67,
building materials,,Aneka Bangunan,"HMRR+HR7, Tomalehu, Kec. Amalatu, Kabupaten Seram Bagian Barat, Maluku","Kabupaten Seram Bagian Barat, Maluku",MALUKU,,Indonesia,82378990826.0,,,-3.4086133,128.6919824,https://maps.google.com/?cid=0x0:0xce54d8093551ed41,
building materials,Toko Bahan Bangunan,Toko DOLIF DESA LUHU,"JX7M+655, kmp bunga 1, Luhu, Kec. Huamual Belakang, Kabupaten Seram Bagian Barat, Maluku","Kabupaten Seram Bagian Barat, Maluku",MALUKU,,Indonesia,,,,-3.3869784,127.9829825,https://maps.google.com/?cid=0x0:0xe28303e624ccca63,
building materials,Toko Bahan Bangunan,Toko Bangunan Lestari Baru,"Waihatu, Kec. Kairatu Bar., Kabupaten Seram Bagian Barat, Maluku","Kabupaten Seram Bagian Barat, Maluku",MALUKU,,Indonesia,82238832490.0,,,-3.2864381,128.3222819,https://maps.google.com/?cid=0x0:0xb14d86a65046c260,
building materials,building materials,Tokoh mom joko,"J96Q+CQ4, Dusun Pakarena, Kairatu, Kec. Kairatu, Kabupaten Seram Bagian Barat, Maluku","Kabupaten Seram Bagian Barat, Maluku",MALUKU,,Indonesia,,,,-3.3888445,128.3898618,https://maps.google.com/?cid=0x0:0x9d686c547315480c,
building materials,building materials,Toko Adi,"4FXG+F9W, Taniwel, Kec. Taniwel, Kabupaten Seram Bagian Barat, Maluku","Kabupaten Seram Bagian Barat, Maluku",MALUKU,,Indonesia,,,,-2.8512629,128.4759595,https://maps.google.com/?cid=0x0:0x832036ee88a32a19,
building materials,building materials,Waesala,"Kec. Huamual Belakang, Kabupaten Seram Bagian Barat, Maluku","Kabupaten Seram Bagian Barat, Maluku",MALUKU,,Indonesia,,,,-3.1946096,127.9572703,https://maps.google.com/?cid=0x0:0xe960ac9124dc066f,
building materials,Pembangunan Perumahan,Kompleks Rumah Tiga,"XXV2+W5, Buano Utara, Kec. Huamual Belakang, Kabupaten Seram Bagian Barat, Maluku","Kabupaten Seram Bagian Barat, Maluku",MALUKU,,Indonesia,,,,-3.0051172,127.9504017,https://maps.google.com/?cid=0x0:0x39c20c8416743982,
building materials,building materials,Kec. Huamual Belakang,"Kabupaten Seram Bagian Barat, Maluku","Kabupaten Seram Bagian Barat, Maluku",MALUKU,,Indonesia,,,,-3.2255814,128.0662787,https://maps.google.com/?cid=0x0:0x234bd4efeec3b38,
building materials,Toko Bahan Bangunan,Toko Hanna,"JWPV+GV, Luhu, Kec. Huamual Belakang, Kabupaten Seram Bagian Barat, Maluku","Kabupaten Seram Bagian Barat, Maluku",MALUKU,,Indonesia,82199904646.0,,,-3.3636349,127.9446434,https://maps.google.com/?cid=0x0:0x78aff0296928fc4c,
building materials,Komplek perumahan,Abu bakar s.d,"RV89+GGP, Waesala, Kec. Huamual Belakang, Kabupaten Seram Bagian Barat, Maluku","Kabupaten Seram Bagian Barat, Maluku",MALUKU,,Indonesia,,,,-3.1836625,127.8688281,https://maps.google.com/?cid=0x0:0x5e7ac4d3d4164e4d,
building materials,Toko,Toko Rifky Jkt Bru,"P385+MC7, Lokki, Kec. Huamual Belakang, Kabupaten Seram Bagian Barat, Maluku","Kabupaten Seram Bagian Barat, Maluku",MALUKU,,Indonesia,82378990826.0,,,-3.2833419,128.0585336,https://maps.google.com/?cid=0x0:0xfc53f32c414a25a3,
building materials,,Aneka Bangunan,"HMRR+HR7, Tomalehu, Kec. Amalatu, Kabupaten Seram Bagian Barat, Maluku","Kabupaten Seram Bagian Barat, Maluku",MALUKU,,Indonesia,82378990826.0,,,-3.4086133,128.6919824,https://maps.google.com/?cid=0x0:0xce54d8093551ed41,
building materials,Toko Bahan Bangunan,Adun.toko Aneka,"HMRR+HR7, Hualoy, Kec. Amalatu, Kabupaten Seram Bagian Barat, Maluku","Kabupaten Seram Bagian Barat, Maluku",MALUKU,,Indonesia,,,,-3.4085927,128.6920418,https://maps.google.com/?cid=0x0:0x11f8ac0e264e1815,
building materials,building materials,Kec. Inamosol,"Kabupaten Seram Bagian Barat, Maluku","Kabupaten Seram Bagian Barat, Maluku",MALUKU,,Indonesia,,,,-3.2334031,128.4500616,https://maps.google.com/?cid=0x0:0x5bec28e34f3cb18d,
building materials,Toko Bahan Bangunan,Toko Sumber Alam,"M966+8R6, Jl. Trans Seram, Waimital, Kec. Kairatu, Kabupaten Seram Bagian Barat, Maluku","Kabupaten Seram Bagian Barat, Maluku",MALUKU,,Indonesia,82378990826.0,,,-3.3392156,128.362011,https://maps.google.com/?cid=0x0:0x4a1586af5326e028,
building materials,building materials,Batoko ABS,"P87C+W99, Waihatu, Kec. Kairatu Bar., Kabupaten Seram Bagian Barat, Maluku","Kabupaten Seram Bagian Barat, Maluku",MALUKU,,Indonesia,81385661699.0,,,-3.2852083,128.3200532,https://maps.google.com/?cid=0x0:0x941733fb21c226d4,
building materials,Toko,Toko Tunas Baru,"M966+FP8, Jl. Trans Seram, Waimital, Kec. Kairatu, Kabupaten Seram Bagian Barat, Maluku","Kabupaten Seram Bagian Barat, Maluku",MALUKU,,Indonesia,81385661699.0,,,-3.3388259,128.3618245,https://maps.google.com/?cid=0x0:0x20a66a8197b5b440,
building materials,Toko Perlengkapan Rumah,TOKO SUMATRA (Kaca  aluminium),"Gemba, Waimital, Kec. Kairatu, Kabupaten Seram Bagian Barat, Maluku 97566","Waimital, Kec. Kairatu, Kabupaten Seram Bagian Barat",MALUKU,97566.0,Indonesia,82199304060.0,,,-3.3308447,128.3479018,https://maps.google.com/?cid=0x0:0x7be33df9193186a5,
building materials,Toko Bahan Bangunan,Toko bangunan Dinda Barokah,"P85C+XWC, Waihatu, Kec. Kairatu Bar., Kabupaten Seram Bagian Barat, Maluku","Kabupaten Seram Bagian Barat, Maluku",MALUKU,,Indonesia,81356194953.0,,,-3.2900692,128.3222692,https://maps.google.com/?cid=0x0:0x634ca5cb31d21d51,
building materials,Toko Bahan Bangunan,Toko Bata/batako,"J9QC+8G8, Kairatu, Kec. Kairatu, Kabupaten Seram Bagian Barat, Maluku","Kabupaten Seram Bagian Barat, Maluku",MALUKU,,Indonesia,81385661699.0,,,-3.3617156,128.3713198,https://maps.google.com/?cid=0x0:0x481586af2d254d67,
building materials,,Aneka Bangunan,"HMRR+HR7, Tomalehu, Kec. Amalatu, Kabupaten Seram Bagian Barat, Maluku","Kabupaten Seram Bagian Barat, Maluku",MALUKU,,Indonesia,82378990826.0,,,-3.4086133,128.6919824,https://maps.google.com/?cid=0x0:0xce54d8093551ed41,
building materials,building materials,Toko CENTRAL SURYA BARU,"J9X7+8FW Jefri, Jln Henaupui No.31, Kairatu, Kec. Kairatu, Kabupaten Seram Bagian Barat, Maluku 97566","Jln Henaupui No.31, Kairatu, Kec. Kairatu, Kabupaten Seram Bagian Barat",MALUKU,97566.0,Indonesia,81312246288.0,,,-3.3514801,128.3628657,https://maps.google.com/?cid=0x0:0xc7605c4ef8912e88,
building materials,Toko Elektronik,Innola Furniture,"Jl. Kp. Bantar Gebang No.31, RT.002/RW.005, Bantargebang, Kec. Bantar Gebang, Kota Bks, Jawa Barat 17151","RT.002/RW.005, Bantargebang, Kec. Bantar Gebang, Kota Bks",MALUKU,17151.0,Indonesia,2182617000.0,,,-6.3218685,106.9826619,https://maps.google.com/?cid=0x0:0xadaea68648f13756,
building materials,Toko,Toko Tunas Baru,"M966+FP8, Jl. Trans Seram, Waimital, Kec. Kairatu, Kabupaten Seram Bagian Barat, Maluku","Kabupaten Seram Bagian Barat, Maluku",MALUKU,,Indonesia,81385661699.0,,,-3.3388259,128.3618245,https://maps.google.com/?cid=0x0:0x20a66a8197b5b440,
building materials,Toko Bahan Bangunan,Toko Bata/batako,"J9QC+8G8, Kairatu, Kec. Kairatu, Kabupaten Seram Bagian Barat, Maluku","Kabupaten Seram Bagian Barat, Maluku",MALUKU,,Indonesia,81385661699.0,,,-3.3617156,128.3713198,https://maps.google.com/?cid=0x0:0x481586af2d254d67,
building materials,Toko Bahan Bangunan,Toko Sumber Alam,"M966+8R6, Jl. Trans Seram, Waimital, Kec. Kairatu, Kabupaten Seram Bagian Barat, Maluku","Kabupaten Seram Bagian Barat, Maluku",MALUKU,,Indonesia,82378990826.0,,,-3.3392156,128.362011,https://maps.google.com/?cid=0x0:0x4a1586af5326e028,
building materials,building materials,Batoko ABS,"P87C+W99, Waihatu, Kec. Kairatu Bar., Kabupaten Seram Bagian Barat, Maluku","Kabupaten Seram Bagian Barat, Maluku",MALUKU,,Indonesia,81385661699.0,,,-3.2852083,128.3200532,https://maps.google.com/?cid=0x0:0x941733fb21c226d4,
building materials,Toko Bahan Bangunan,Toko bangunan Dinda Barokah,"P85C+XWC, Waihatu, Kec. Kairatu Bar., Kabupaten Seram Bagian Barat, Maluku","Kabupaten Seram Bagian Barat, Maluku",MALUKU,,Indonesia,81356194953.0,,,-3.2900692,128.3222692,https://maps.google.com/?cid=0x0:0x634ca5cb31d21d51,
building materials,building materials,Tokoh mom joko,"J96Q+CQ4, Dusun Pakarena, Kairatu, Kec. Kairatu, Kabupaten Seram Bagian Barat, Maluku","Kabupaten Seram Bagian Barat, Maluku",MALUKU,,Indonesia,,,,-3.3888445,128.3898618,https://maps.google.com/?cid=0x0:0x9d686c547315480c,
building materials,Toko Perlengkapan Rumah,TOKO SUMATRA (Kaca  aluminium),"Gemba, Waimital, Kec. Kairatu, Kabupaten Seram Bagian Barat, Maluku 97566","Waimital, Kec. Kairatu, Kabupaten Seram Bagian Barat",MALUKU,97566.0,Indonesia,82199304060.0,,,-3.3308447,128.3479018,https://maps.google.com/?cid=0x0:0x7be33df9193186a5,
building materials,building materials,Toko bangunan,"M994+PJG, Waimital, Kec. Kairatu, Kabupaten Seram Bagian Barat, Maluku","Kabupaten Seram Bagian Barat, Maluku",MALUKU,,Indonesia,,,,-3.3306794,128.3565723,https://maps.google.com/?cid=0x0:0x24639d7d98e3c1a9,
building materials,building materials,Toko bangunan mba Nur,"M994+27M, Jl. Ir. Mohamad Khosim, Waimital, Kec. Kairatu, Kabupaten Seram Bagian Barat, Maluku","Kabupaten Seram Bagian Barat, Maluku",MALUKU,,Indonesia,,,,-3.3324149,128.3556808,https://maps.google.com/?cid=0x0:0xc56ce3808221aa9d,
building materials,building materials,Toko Berkat,"M966+CQ5, Jl. Trans Seram, Waimital, Kec. Kairatu, Kabupaten Seram Bagian Barat, Maluku","Kabupaten Seram Bagian Barat, Maluku",MALUKU,,Indonesia,,,,-3.3389774,128.3619867,https://maps.google.com/?cid=0x0:0xee3af3317bbbc37c,
building materials,Toko Bahan Bangunan,Toko Bangunan Lestari Baru,"Waihatu, Kec. Kairatu Bar., Kabupaten Seram Bagian Barat, Maluku","Kabupaten Seram Bagian Barat, Maluku",MALUKU,,Indonesia,82238832490.0,,,-3.2864381,128.3222819,https://maps.google.com/?cid=0x0:0xb14d86a65046c260,
building materials,building materials,MR.DIY,"Jl. Trans Seram, Kairatu, Kec. Kairatu, Kabupaten Seram Bagian Barat, Maluku 97566","Kairatu, Kec. Kairatu, Kabupaten Seram Bagian Barat",MALUKU,97566.0,Indonesia,,,,-3.351691,128.362639,https://maps.google.com/?cid=0x0:0x8729fcfb2f6e53c4,
building materials,building materials,Toko Berkat 3,"M975+453, Jl. Trans Seram, Waimital, Kec. Kairatu, Kabupaten Seram Bagian Barat, Maluku","Kabupaten Seram Bagian Barat, Maluku",MALUKU,,Indonesia,,,,-3.3372289,128.3579342,https://maps.google.com/?cid=0x0:0x5c9587f1c23252a9,
building materials,building materials,Kec. Huamual Belakang,"Kabupaten Seram Bagian Barat, Maluku","Kabupaten Seram Bagian Barat, Maluku",MALUKU,,Indonesia,,,,-3.2255814,128.0662787,https://maps.google.com/?cid=0x0:0x234bd4efeec3b38,
building materials,Toko Bahan Bangunan,Toko Hanna,"JWPV+GV, Luhu, Kec. Huamual Belakang, Kabupaten Seram Bagian Barat, Maluku","Kabupaten Seram Bagian Barat, Maluku",MALUKU,,Indonesia,82199904646.0,,,-3.3636349,127.9446434,https://maps.google.com/?cid=0x0:0x78aff0296928fc4c,
building materials,Toko Bahan Bangunan,Toko DOLIF DESA LUHU,"JX7M+655, kmp bunga 1, Luhu, Kec. Huamual Belakang, Kabupaten Seram Bagian Barat, Maluku","Kabupaten Seram Bagian Barat, Maluku",MALUKU,,Indonesia,,,,-3.3869784,127.9829825,https://maps.google.com/?cid=0x0:0xe28303e624ccca63,
building materials,Toko,Toko Rifky Jkt Bru,"P385+MC7, Lokki, Kec. Huamual Belakang, Kabupaten Seram Bagian Barat, Maluku","Kabupaten Seram Bagian Barat, Maluku",MALUKU,,Indonesia,82378990826.0,,,-3.2833419,128.0585336,https://maps.google.com/?cid=0x0:0xfc53f32c414a25a3,
building materials,Pembangunan Perumahan,Kompleks Rumah Tiga,"XXV2+W5, Buano Utara, Kec. Huamual Belakang, Kabupaten Seram Bagian Barat, Maluku","Kabupaten Seram Bagian Barat, Maluku",MALUKU,,Indonesia,,,,-3.0051172,127.9504017,https://maps.google.com/?cid=0x0:0x39c20c8416743982,
building materials,Inspektur Tempat Tinggal,CV.IHA AMALATU PRATAMA,"JX5J+776, Iha, Kec. Huamual Belakang, Kabupaten Seram Bagian Barat, Maluku","Kabupaten Seram Bagian Barat, Maluku",MALUKU,,Indonesia,,,,-3.3918421,127.9806533,https://maps.google.com/?cid=0x0:0xde3e5f26a2a03e93,
building materials,Kantor Perusahaan,PT. Huarun Material Bangunan,"Jl. Industri Raya III No.7, Sukadamai, Kec. Cikupa, Kabupaten Tangerang, Banten 15710","Sukadamai, Kec. Cikupa, Kabupaten Tangerang",MALUKU,15710.0,Indonesia,,,,-6.195218,106.5386,https://maps.google.com/?cid=0x0:0x841b2b7e3054f95f,
building materials,Toko Perlengkapan Rumah,Toko Bangunan Manusela,"Jl Manusela No.05, Sari Putih, Werinama, Kabupaten Seram Bagian Timur, Maluku","Kabupaten Seram Bagian Timur, Maluku",MALUKU,,Indonesia,83125236425.0,,,-3.4233267,130.2271243,https://maps.google.com/?cid=0x0:0xa3a109db57d60060,
building materials,Komplek perumahan,Manusela Bangunan,"NO WA OI54O54249, Jl Manusela No.2, Sariputih, Timur, Seram Bagian Utara, Maluku","Seram Bagian Utara, Maluku",MALUKU,,Indonesia,8113622262.0,,,-2.9068033,129.7601032,https://maps.google.com/?cid=0x0:0x88daa0e37101ec98,
building materials,building materials,Kec. Kepulauan Manipa,"Kabupaten Seram Bagian Barat, Maluku","Kabupaten Seram Bagian Barat, Maluku",MALUKU,,Indonesia,,,,-3.3368083,127.5516442,https://maps.google.com/?cid=0x0:0x44a0c6a82a329841,
building materials,Komplek perumahan,Manusela Bangunan,"NO WA OI54O54249, Jl Manusela No.2, Sariputih, Timur, Seram Bagian Utara, Maluku","Seram Bagian Utara, Maluku",MALUKU,,Indonesia,8113622262.0,,,-2.9068033,129.7601032,https://maps.google.com/?cid=0x0:0x88daa0e37101ec98,
building materials,Toko Perlengkapan Rumah,Toko Bangunan Manusela,"Jl Manusela No.05, Sari Putih, Werinama, Kabupaten Seram Bagian Timur, Maluku","Kabupaten Seram Bagian Timur, Maluku",MALUKU,,Indonesia,83125236425.0,,,-3.4233267,130.2271243,https://maps.google.com/?cid=0x0:0xa3a109db57d60060,
building materials,building materials,Kec. Taniwel Tim.,"Kabupaten Seram Bagian Barat, Maluku","Kabupaten Seram Bagian Barat, Maluku",MALUKU,,Indonesia,,,,-2.8451525,128.6555679,https://maps.google.com/?cid=0x0:0x51e7fe5228d3a153,
building materials,Toserba,Toko Bangunan Bintang Timur,"Kecil Atas, Jl. Wailola, Bula, Kec. Bula, Kabupaten Seram Bagian Timur, Maluku","Kabupaten Seram Bagian Timur, Maluku",MALUKU,,Indonesia,82378990826.0,,,-3.1020661,130.4795478,https://maps.google.com/?cid=0x0:0x4aef66ef96eb16a8,
building materials,Pembangunan Perumahan,Kompleks Rumah Tiga,"XXV2+W5, Buano Utara, Kec. Huamual Belakang, Kabupaten Seram Bagian Barat, Maluku","Kabupaten Seram Bagian Barat, Maluku",MALUKU,,Indonesia,,,,-3.0051172,127.9504017,https://maps.google.com/?cid=0x0:0x39c20c8416743982,
building materials,Sekolah Dasar,SD Inpres Uwen Pantai,"4PQG+984, Waraloin, Kec. Taniwel Tim., Kabupaten Seram Bagian Barat, Maluku","Kabupaten Seram Bagian Barat, Maluku",MALUKU,,Indonesia,,,,-2.8612832,128.7267121,https://maps.google.com/?cid=0x0:0xc110bd85ef3be0c8,
building materials,Komplek perumahan,Seakasale,"4PQ6+4W6, Seakasale, Kec. Taniwel Tim., Kabupaten Seram Bagian Barat, Maluku","Kabupaten Seram Bagian Barat, Maluku",MALUKU,,Indonesia,,,,-2.8624569,128.7121166,https://maps.google.com/?cid=0x0:0x77df5c5e6012a9c9,
building materials,Komplek perumahan,PT. GMI Marmer,"4GQH+6R, Kasie, Kec. Taniwel, Kabupaten Seram Bagian Barat, Maluku","Kabupaten Seram Bagian Barat, Maluku",MALUKU,,Indonesia,,,,-2.861904,128.5295124,https://maps.google.com/?cid=0x0:0xff9b94ac5a0fce7b,
building materials,building materials,Elpaputih,"Kabupaten Maluku Tengah, Maluku","Kabupaten Maluku Tengah, Maluku",MALUKU,,Indonesia,,,,-3.2102958,128.6949149,https://maps.google.com/?cid=0x0:0x5c490d6e0c7c3235,
building materials,Restoran,Kedai Baterek,"MXX6+GHC, Namaelo, Kec. Kota Masohi, Kabupaten Maluku Tengah, Maluku 97511","Namaelo, Kec. Kota Masohi, Kabupaten Maluku Tengah",MALUKU,97511.0,Indonesia,,,,-3.3011798,128.9614156,https://maps.google.com/?cid=0x0:0x3a9df1618ad896c8,
building materials,Kedai Kopi,Galeri Kuliner Baterek,"komplek Baterek, Jl. Binaya, Namaelo, Kec. Kota Masohi, Kabupaten Maluku Tengah, Maluku 97511","Jl. Binaya, Namaelo, Kec. Kota Masohi, Kabupaten Maluku Tengah",MALUKU,97511.0,Indonesia,81247209375.0,,,-3.2988016,128.9584558,https://maps.google.com/?cid=0x0:0x7078091f07515222,
toko bangunan,toko bangunan,Kairatu,"Kairatu, Kec. Kairatu, Kabupaten Seram Bagian Barat, Maluku","Kabupaten Seram Bagian Barat, Maluku",MALUKU,,Indonesia,,,,-3.341675,128.352798,https://maps.google.com/?cid=0x0:0xccc8b619c657b48e,
toko bangunan,Toko,Toko Tunas Baru,"M966+FP8, Jl. Trans Seram, Waimital, Kec. Kairatu, Kabupaten Seram Bagian Barat, Maluku","Kabupaten Seram Bagian Barat, Maluku",MALUKU,,Indonesia,81385661699.0,,,-3.3388259,128.3618245,https://maps.google.com/?cid=0x0:0x20a66a8197b5b440,
toko bangunan,Toko Bahan Bangunan,Toko Bangunan Lestari Baru,"Waihatu, Kec. Kairatu Bar., Kabupaten Seram Bagian Barat, Maluku","Kabupaten Seram Bagian Barat, Maluku",MALUKU,,Indonesia,82238832490.0,,,-3.2864381,128.3222819,https://maps.google.com/?cid=0x0:0xb14d86a65046c260,
toko bangunan,Toko Bahan Bangunan,Toko Sumber Alam,"M966+8R6, Jl. Trans Seram, Waimital, Kec. Kairatu, Kabupaten Seram Bagian Barat, Maluku","Kabupaten Seram Bagian Barat, Maluku",MALUKU,,Indonesia,82378990826.0,,,-3.3392156,128.362011,https://maps.google.com/?cid=0x0:0x4a1586af5326e028,
toko bangunan,Toko Bahan Bangunan,Toko Bata/batako,"J9QC+8G8, Kairatu, Kec. Kairatu, Kabupaten Seram Bagian Barat, Maluku","Kabupaten Seram Bagian Barat, Maluku",MALUKU,,Indonesia,81385661699.0,,,-3.3617156,128.3713198,https://maps.google.com/?cid=0x0:0x481586af2d254d67,
toko bangunan,toko bangunan,Toko bangunan,"M994+PJG, Waimital, Kec. Kairatu, Kabupaten Seram Bagian Barat, Maluku","Kabupaten Seram Bagian Barat, Maluku",MALUKU,,Indonesia,,,,-3.3306794,128.3565723,https://maps.google.com/?cid=0x0:0x24639d7d98e3c1a9,
toko bangunan,toko bangunan,Toko bangunan mba Nur,"M994+27M, Jl. Ir. Mohamad Khosim, Waimital, Kec. Kairatu, Kabupaten Seram Bagian Barat, Maluku","Kabupaten Seram Bagian Barat, Maluku",MALUKU,,Indonesia,,,,-3.3324149,128.3556808,https://maps.google.com/?cid=0x0:0xc56ce3808221aa9d,
toko bangunan,Toko Perlengkapan Rumah,Toko Bangun Bintang Timur,"M965+7HC, Waimital, Kec. Kairatu, Kabupaten Seram Bagian Barat, Maluku","Kabupaten Seram Bagian Barat, Maluku",MALUKU,,Indonesia,81356015298.0,,,-3.3393218,128.3589023,https://maps.google.com/?cid=0x0:0x4b850a79fd1e21e1,
toko bangunan,toko bangunan,Kec. Seram Bar.,"Kabupaten Seram Bagian Barat, Maluku","Kabupaten Seram Bagian Barat, Maluku",MALUKU,,Indonesia,,,,-3.0650683,128.194492,https://maps.google.com/?cid=0x0:0xd1612bfbfbd97a94,
toko bangunan,Komplek perumahan,Jalan air kuning seram bagian Barat,"W685+HCR, Piru, Kec. Seram Bar., Kabupaten Seram Bagian Barat, Maluku","Kabupaten Seram Bagian Barat, Maluku",MALUKU,,Indonesia,,,,-3.0835033,128.2085127,https://maps.google.com/?cid=0x0:0x8bd7b2153f9ebc35,
toko bangunan,Toko Bahan Bangunan,Toko Bangunan Lestari Baru,"Waihatu, Kec. Kairatu Bar., Kabupaten Seram Bagian Barat, Maluku","Kabupaten Seram Bagian Barat, Maluku",MALUKU,,Indonesia,82238832490.0,,,-3.2864381,128.3222819,https://maps.google.com/?cid=0x0:0xb14d86a65046c260,
toko bangunan,Toko Perlengkapan Rumah,Toko Berdikari Jaya,"W6H2+GHW, Jl. Trans Seram, Piru, Kec. Seram Bar., Kabupaten Seram Bagian Barat, Maluku","Kabupaten Seram Bagian Barat, Maluku",MALUKU,,Indonesia,,,,-3.0711298,128.2014526,https://maps.google.com/?cid=0x0:0x493d9b22726b068d,
toko bangunan,Toko Bahan Bangunan,Toko Sumber Alam,"M966+8R6, Jl. Trans Seram, Waimital, Kec. Kairatu, Kabupaten Seram Bagian Barat, Maluku","Kabupaten Seram Bagian Barat, Maluku",MALUKU,,Indonesia,82378990826.0,,,-3.3392156,128.362011,https://maps.google.com/?cid=0x0:0x4a1586af5326e028,
toko bangunan,Toko,Toko Tunas Baru,"M966+FP8, Jl. Trans Seram, Waimital, Kec. Kairatu, Kabupaten Seram Bagian Barat, Maluku","Kabupaten Seram Bagian Barat, Maluku",MALUKU,,Indonesia,81385661699.0,,,-3.3388259,128.3618245,https://maps.google.com/?cid=0x0:0x20a66a8197b5b440,
toko bangunan,Komplek perumahan,Manusela Bangunan,"NO WA OI54O54249, Jl Manusela No.2, Sariputih, Timur, Seram Bagian Utara, Maluku","Seram Bagian Utara, Maluku",MALUKU,,Indonesia,8113622262.0,,,-2.9068033,129.7601032,https://maps.google.com/?cid=0x0:0x88daa0e37101ec98,
toko bangunan,Toko Bahan Bangunan,Toko Bangunan Central Surya Baru Mandiri Kobi,"Mandiri, Jl. Lintas Seram, Kobi, Kec. Seram Utara Tim. Kobi, Kabupaten Maluku Tengah, Maluku 97533","Jl. Lintas Seram, Kobi, Kec. Seram Utara Tim. Kobi, Kabupaten Maluku Tengah",MALUKU,97533.0,Indonesia,82230010024.0,,,-2.9320301,129.804093,https://maps.google.com/?cid=0x0:0xf1c882c04b646d61,
toko bangunan,Toko,Toko barokah,"Bar, Kamal, Kec. Kairatu Bar., Kabupaten Seram Bagian Barat, Maluku","Kabupaten Seram Bagian Barat, Maluku",MALUKU,,Indonesia,81343408121.0,,,-3.2130003,128.2797183,https://maps.google.com/?cid=0x0:0xf7219f0003cad7ff,
toko bangunan,Toko Perlengkapan Rumah,Toko Duta Bangunan,"Jl. A.R Unawekla, Bula, Kec. Bula, Kabupaten Seram Bagian Timur, Maluku","Kabupaten Seram Bagian Timur, Maluku",MALUKU,,Indonesia,81272987200.0,,,-3.1021843,130.4885667,https://maps.google.com/?cid=0x0:0x799165d536f28f53,
toko bangunan,toko bangunan,Batoko ABS,"P87C+W99, Waihatu, Kec. Kairatu Bar., Kabupaten Seram Bagian Barat, Maluku","Kabupaten Seram Bagian Barat, Maluku",MALUKU,,Indonesia,81385661699.0,,,-3.2852083,128.3200532,https://maps.google.com/?cid=0x0:0x941733fb21c226d4,
toko bangunan,Toko Bahan Bangunan,Toko Bangunan Sinar Makmur Sentosa,"Jl. Taman Palem Lestari No.B18 23B, RT.7/RW.13, Cengkareng Bar., Kecamatan Cengkareng, Kota Jakarta Barat, Daerah Khusus Ibukota Jakarta 11730","RT.7/RW.13, Cengkareng Bar., Kecamatan Cengkareng, Kota Jakarta Barat",MALUKU,11730.0,Indonesia,82112226464.0,,,-6.1366377,106.7230693,https://maps.google.com/?cid=0x0:0xcb06ad51c8346712,
toko bangunan,Toko Bahan Bangunan,Eka Pratama,"JWQV+6P5, Luhu, Kec. Huamual Belakang, Kabupaten Seram Bagian Barat, Maluku","Kabupaten Seram Bagian Barat, Maluku",MALUKU,,Indonesia,81385661699.0,,,-3.3619763,127.9443737,https://maps.google.com/?cid=0x0:0x9297fa79318e74fa,
toko bangunan,toko bangunan,Toko Adi,"4FXG+F9W, Taniwel, Kec. Taniwel, Kabupaten Seram Bagian Barat, Maluku","Kabupaten Seram Bagian Barat, Maluku",MALUKU,,Indonesia,,,,-2.8512629,128.4759595,https://maps.google.com/?cid=0x0:0x832036ee88a32a19,
toko bangunan,toko bangunan,Waesala,"Kec. Huamual Belakang, Kabupaten Seram Bagian Barat, Maluku","Kabupaten Seram Bagian Barat, Maluku",MALUKU,,Indonesia,,,,-3.1946096,127.9572703,https://maps.google.com/?cid=0x0:0xe960ac9124dc066f,
toko bangunan,Toko Bahan Bangunan,Toko Hanna,"JWPV+GV, Luhu, Kec. Huamual Belakang, Kabupaten Seram Bagian Barat, Maluku","Kabupaten Seram Bagian Barat, Maluku",MALUKU,,Indonesia,82199904646.0,,,-3.3636349,127.9446434,https://maps.google.com/?cid=0x0:0x78aff0296928fc4c,
toko bangunan,Toko Bahan Bangunan,Eka Pratama,"JWQV+6P5, Luhu, Kec. Huamual Belakang, Kabupaten Seram Bagian Barat, Maluku","Kabupaten Seram Bagian Barat, Maluku",MALUKU,,Indonesia,81385661699.0,,,-3.3619763,127.9443737,https://maps.google.com/?cid=0x0:0x9297fa79318e74fa,
toko bangunan,Toko Bahan Bangunan,Toko bangunan Dinda Barokah,"P85C+XWC, Waihatu, Kec. Kairatu Bar., Kabupaten Seram Bagian Barat, Maluku","Kabupaten Seram Bagian Barat, Maluku",MALUKU,,Indonesia,81356194953.0,,,-3.2900692,128.3222692,https://maps.google.com/?cid=0x0:0x634ca5cb31d21d51,
toko bangunan,Toko Perlengkapan Rumah,Toko Bangunan Manusela,"Jl Manusela No.05, Sari Putih, Werinama, Kabupaten Seram Bagian Timur, Maluku","Kabupaten Seram Bagian Timur, Maluku",MALUKU,,Indonesia,83125236425.0,,,-3.4233267,130.2271243,https://maps.google.com/?cid=0x0:0xa3a109db57d60060,
toko bangunan,Toko Bahan Bangunan,Toko Bangunan Lestari Baru,"Waihatu, Kec. Kairatu Bar., Kabupaten Seram Bagian Barat, Maluku","Kabupaten Seram Bagian Barat, Maluku",MALUKU,,Indonesia,82238832490.0,,,-3.2864381,128.3222819,https://maps.google.com/?cid=0x0:0xb14d86a65046c260,
toko bangunan,Toko bahan makanan,Toko Rahmat,"Waesala, Kec. Huamual Belakang, Kabupaten Seram Bagian Barat, Maluku","Kabupaten Seram Bagian Barat, Maluku",MALUKU,,Indonesia,,,,-3.1462388,127.9207521,https://maps.google.com/?cid=0x0:0xc1edef82541db3bb,
toko bangunan,Pembangunan Perumahan,Kompleks Rumah Tiga,"XXV2+W5, Buano Utara, Kec. Huamual Belakang, Kabupaten Seram Bagian Barat, Maluku","Kabupaten Seram Bagian Barat, Maluku",MALUKU,,Indonesia,,,,-3.0051172,127.9504017,https://maps.google.com/?cid=0x0:0x39c20c8416743982,
toko bangunan,Toko Perlengkapan Rumah,Toko Duta Bangunan,"Jl. A.R Unawekla, Bula, Kec. Bula, Kabupaten Seram Bagian Timur, Maluku","Kabupaten Seram Bagian Timur, Maluku",MALUKU,,Indonesia,81272987200.0,,,-3.1021843,130.4885667,https://maps.google.com/?cid=0x0:0x799165d536f28f53,
toko bangunan,Toserba,Toko Bangunan Bintang Timur,"Kecil Atas, Jl. Wailola, Bula, Kec. Bula, Kabupaten Seram Bagian Timur, Maluku","Kabupaten Seram Bagian Timur, Maluku",MALUKU,,Indonesia,82378990826.0,,,-3.1020661,130.4795478,https://maps.google.com/?cid=0x0:0x4aef66ef96eb16a8,
toko bangunan,Toko,Toko Rifky Jkt Bru,"P385+MC7, Lokki, Kec. Huamual Belakang, Kabupaten Seram Bagian Barat, Maluku","Kabupaten Seram Bagian Barat, Maluku",MALUKU,,Indonesia,82378990826.0,,,-3.2833419,128.0585336,https://maps.google.com/?cid=0x0:0xfc53f32c414a25a3,
toko bangunan,toko bangunan,Toko Zam Zam,"JW6Q+QHM, Luhu, Kec. Huamual Belakang, Kabupaten Seram Bagian Barat, Maluku","Kabupaten Seram Bagian Barat, Maluku",MALUKU,,Indonesia,,,,-3.388042,127.9389124,https://maps.google.com/?cid=0x0:0x418cfe828cdcee29,
toko bangunan,Komplek perumahan,Manusela Bangunan,"NO WA OI54O54249, Jl Manusela No.2, Sariputih, Timur, Seram Bagian Utara, Maluku","Seram Bagian Utara, Maluku",MALUKU,,Indonesia,8113622262.0,,,-2.9068033,129.7601032,https://maps.google.com/?cid=0x0:0x88daa0e37101ec98,
toko bangunan,,Aneka Bangunan,"HMRR+HR7, Tomalehu, Kec. Amalatu, Kabupaten Seram Bagian Barat, Maluku","Kabupaten Seram Bagian Barat, Maluku",MALUKU,,Indonesia,82378990826.0,,,-3.4086133,128.6919824,https://maps.google.com/?cid=0x0:0xce54d8093551ed41,
toko bangunan,Toko Bahan Bangunan,Adun.toko Aneka,"HMRR+HR7, Hualoy, Kec. Amalatu, Kabupaten Seram Bagian Barat, Maluku","Kabupaten Seram Bagian Barat, Maluku",MALUKU,,Indonesia,,,,-3.4085927,128.6920418,https://maps.google.com/?cid=0x0:0x11f8ac0e264e1815,
toko bangunan,toko bangunan,Kec. Inamosol,"Kabupaten Seram Bagian Barat, Maluku","Kabupaten Seram Bagian Barat, Maluku",MALUKU,,Indonesia,,,,-3.2334031,128.4500616,https://maps.google.com/?cid=0x0:0x5bec28e34f3cb18d,
toko bangunan,Toko Perlengkapan Rumah,TOKO SUMATRA (Kaca  aluminium),"Gemba, Waimital, Kec. Kairatu, Kabupaten Seram Bagian Barat, Maluku 97566","Waimital, Kec. Kairatu, Kabupaten Seram Bagian Barat",MALUKU,97566.0,Indonesia,82199304060.0,,,-3.3308447,128.3479018,https://maps.google.com/?cid=0x0:0x7be33df9193186a5,
toko bangunan,Toko Bahan Bangunan,CV. NESSTA AMBON( Cat  Bahan Bangunan ),"86XJ+7HQ, Jl. Wolter Monginsidi, Lateri, Kec. Baguala, Kota Ambon, Maluku 97112","Jl. Wolter Monginsidi, Lateri, Kec. Baguala, Kota Ambon",MALUKU,97112.0,Indonesia,911356394.0,,,-3.651793,128.231489,https://maps.google.com/?cid=0x0:0x826e5740b2e0ac2f,
toko bangunan,Toko,Toko Serba Bangunan Ambon,"Jl. Philip Latumahina No.10, Kel Honipopu, Kec. Sirimau, Kota Ambon, Maluku","Kota Ambon, Maluku",MALUKU,,Indonesia,81283093876.0,,,-3.696513,128.1813331,https://maps.google.com/?cid=0x0:0x38f3a5a63eb288ff,
toko bangunan,Toko Perlengkapan Rumah,Toko Bangunan Manusela,"Jl Manusela No.05, Sari Putih, Werinama, Kabupaten Seram Bagian Timur, Maluku","Kabupaten Seram Bagian Timur, Maluku",MALUKU,,Indonesia,83125236425.0,,,-3.4233267,130.2271243,https://maps.google.com/?cid=0x0:0xa3a109db57d60060,
toko bangunan,toko bangunan,Toko CENTRAL SURYA BARU,"J9X7+8FW Jefri, Jln Henaupui No.31, Kairatu, Kec. Kairatu, Kabupaten Seram Bagian Barat, Maluku 97566","Jln Henaupui No.31, Kairatu, Kec. Kairatu, Kabupaten Seram Bagian Barat",MALUKU,97566.0,Indonesia,81312246288.0,,,-3.3514801,128.3628657,https://maps.google.com/?cid=0x0:0xc7605c4ef8912e88,
toko bangunan,Toko Bahan Bangunan,Toko Sumber Alam,"M966+8R6, Jl. Trans Seram, Waimital, Kec. Kairatu, Kabupaten Seram Bagian Barat, Maluku","Kabupaten Seram Bagian Barat, Maluku",MALUKU,,Indonesia,82378990826.0,,,-3.3392156,128.362011,https://maps.google.com/?cid=0x0:0x4a1586af5326e028,
toko bangunan,Toko Bahan Bangunan,Toko bangunan Dinda Barokah,"P85C+XWC, Waihatu, Kec. Kairatu Bar., Kabupaten Seram Bagian Barat, Maluku","Kabupaten Seram Bagian Barat, Maluku",MALUKU,,Indonesia,81356194953.0,,,-3.2900692,128.3222692,https://maps.google.com/?cid=0x0:0x634ca5cb31d21d51,
toko bangunan,Toko,Toko Tunas Baru,"M966+FP8, Jl. Trans Seram, Waimital, Kec. Kairatu, Kabupaten Seram Bagian Barat, Maluku","Kabupaten Seram Bagian Barat, Maluku",MALUKU,,Indonesia,81385661699.0,,,-3.3388259,128.3618245,https://maps.google.com/?cid=0x0:0x20a66a8197b5b440,
toko bangunan,Toko Bahan Bangunan,Toko Bangunan Lestari Baru,"Waihatu, Kec. Kairatu Bar., Kabupaten Seram Bagian Barat, Maluku","Kabupaten Seram Bagian Barat, Maluku",MALUKU,,Indonesia,82238832490.0,,,-3.2864381,128.3222819,https://maps.google.com/?cid=0x0:0xb14d86a65046c260,
toko bangunan,toko bangunan,Tokoh mom joko,"J96Q+CQ4, Dusun Pakarena, Kairatu, Kec. Kairatu, Kabupaten Seram Bagian Barat, Maluku","Kabupaten Seram Bagian Barat, Maluku",MALUKU,,Indonesia,,,,-3.3888445,128.3898618,https://maps.google.com/?cid=0x0:0x9d686c547315480c,
toko bangunan,toko bangunan,Batoko ABS,"P87C+W99, Waihatu, Kec. Kairatu Bar., Kabupaten Seram Bagian Barat, Maluku","Kabupaten Seram Bagian Barat, Maluku",MALUKU,,Indonesia,81385661699.0,,,-3.2852083,128.3200532,https://maps.google.com/?cid=0x0:0x941733fb21c226d4,
toko bangunan,Toko Bahan Bangunan,Toko Bata/batako,"J9QC+8G8, Kairatu, Kec. Kairatu, Kabupaten Seram Bagian Barat, Maluku","Kabupaten Seram Bagian Barat, Maluku",MALUKU,,Indonesia,81385661699.0,,,-3.3617156,128.3713198,https://maps.google.com/?cid=0x0:0x481586af2d254d67,
toko bangunan,,Aneka Bangunan,"HMRR+HR7, Tomalehu, Kec. Amalatu, Kabupaten Seram Bagian Barat, Maluku","Kabupaten Seram Bagian Barat, Maluku",MALUKU,,Indonesia,82378990826.0,,,-3.4086133,128.6919824,https://maps.google.com/?cid=0x0:0xce54d8093551ed41,
toko bangunan,Toko Bahan Bangunan,Toko bangunan UD ISHLAH,"Tlk., Poka, Kec. Tlk. Ambon, Kota Ambon, Maluku","Kota Ambon, Maluku",MALUKU,,Indonesia,85244808244.0,,,-3.6478274,128.1934164,https://maps.google.com/?cid=0x0:0x9ad95512c8471c0d,
toko bangunan,Toko Bahan Bangunan,Toko Bangunan Utama,"Jl. Karel Satsuitubun Batugong, Ambon, Passo, Kec. Baguala, Kota Ambon, Maluku 97232","Ambon, Passo, Kec. Baguala, Kota Ambon",MALUKU,97232.0,Indonesia,85102851565.0,,,-3.6377789,128.2574061,https://maps.google.com/?cid=0x0:0x7640e512aa59b277,
toko bangunan,Toko Bahan Bangunan,Eka Pratama,"JWQV+6P5, Luhu, Kec. Huamual Belakang, Kabupaten Seram Bagian Barat, Maluku","Kabupaten Seram Bagian Barat, Maluku",MALUKU,,Indonesia,81385661699.0,,,-3.3619763,127.9443737,https://maps.google.com/?cid=0x0:0x9297fa79318e74fa,
toko bangunan,Toko Bahan Bangunan,Toko Bangunan depok Alat Teknik dan Safety Citra,"Jl. Margonda No.472, Pondok Cina, Kecamatan Beji, Kota Depok, Jawa Barat 16424","Pondok Cina, Kecamatan Beji, Kota Depok",MALUKU,16424.0,Indonesia,85710032801.0,,,-6.3656692,106.8336797,https://maps.google.com/?cid=0x0:0xcff3501c7ef59783,
toko bangunan,Toko Bahan Bangunan,Toko Bangunan Lestari Baru,"Waihatu, Kec. Kairatu Bar., Kabupaten Seram Bagian Barat, Maluku","Kabupaten Seram Bagian Barat, Maluku",MALUKU,,Indonesia,82238832490.0,,,-3.2864381,128.3222819,https://maps.google.com/?cid=0x0:0xb14d86a65046c260,
toko bangunan,Toko,Toko Tunas Baru,"M966+FP8, Jl. Trans Seram, Waimital, Kec. Kairatu, Kabupaten Seram Bagian Barat, Maluku","Kabupaten Seram Bagian Barat, Maluku",MALUKU,,Indonesia,81385661699.0,,,-3.3388259,128.3618245,https://maps.google.com/?cid=0x0:0x20a66a8197b5b440,
toko bangunan,toko bangunan,Toko bangunan,"M994+PJG, Waimital, Kec. Kairatu, Kabupaten Seram Bagian Barat, Maluku","Kabupaten Seram Bagian Barat, Maluku",MALUKU,,Indonesia,,,,-3.3306794,128.3565723,https://maps.google.com/?cid=0x0:0x24639d7d98e3c1a9,
toko bangunan,Toko Bahan Bangunan,Toko bangunan Dinda Barokah,"P85C+XWC, Waihatu, Kec. Kairatu Bar., Kabupaten Seram Bagian Barat, Maluku","Kabupaten Seram Bagian Barat, Maluku",MALUKU,,Indonesia,81356194953.0,,,-3.2900692,128.3222692,https://maps.google.com/?cid=0x0:0x634ca5cb31d21d51,
toko bangunan,Toko Bahan Bangunan,Toko Bata/batako,"J9QC+8G8, Kairatu, Kec. Kairatu, Kabupaten Seram Bagian Barat, Maluku","Kabupaten Seram Bagian Barat, Maluku",MALUKU,,Indonesia,81385661699.0,,,-3.3617156,128.3713198,https://maps.google.com/?cid=0x0:0x481586af2d254d67,
toko bangunan,Toko Bahan Bangunan,Toko Sumber Alam,"M966+8R6, Jl. Trans Seram, Waimital, Kec. Kairatu, Kabupaten Seram Bagian Barat, Maluku","Kabupaten Seram Bagian Barat, Maluku",MALUKU,,Indonesia,82378990826.0,,,-3.3392156,128.362011,https://maps.google.com/?cid=0x0:0x4a1586af5326e028,
toko bangunan,toko bangunan,Toko CENTRAL SURYA BARU,"J9X7+8FW Jefri, Jln Henaupui No.31, Kairatu, Kec. Kairatu, Kabupaten Seram Bagian Barat, Maluku 97566","Jln Henaupui No.31, Kairatu, Kec. Kairatu, Kabupaten Seram Bagian Barat",MALUKU,97566.0,Indonesia,81312246288.0,,,-3.3514801,128.3628657,https://maps.google.com/?cid=0x0:0xc7605c4ef8912e88,
toko bangunan,toko bangunan,Batoko ABS,"P87C+W99, Waihatu, Kec. Kairatu Bar., Kabupaten Seram Bagian Barat, Maluku","Kabupaten Seram Bagian Barat, Maluku",MALUKU,,Indonesia,81385661699.0,,,-3.2852083,128.3200532,https://maps.google.com/?cid=0x0:0x941733fb21c226d4,
toko bangunan,Toko Perlengkapan Rumah,Toko Bangun Bintang Timur,"M965+7HC, Waimital, Kec. Kairatu, Kabupaten Seram Bagian Barat, Maluku","Kabupaten Seram Bagian Barat, Maluku",MALUKU,,Indonesia,81356015298.0,,,-3.3393218,128.3589023,https://maps.google.com/?cid=0x0:0x4b850a79fd1e21e1,
toko bangunan,Toko Bahan Bangunan,Eka Pratama,"JWQV+6P5, Luhu, Kec. Huamual Belakang, Kabupaten Seram Bagian Barat, Maluku","Kabupaten Seram Bagian Barat, Maluku",MALUKU,,Indonesia,81385661699.0,,,-3.3619763,127.9443737,https://maps.google.com/?cid=0x0:0x9297fa79318e74fa,
toko bangunan,Toko,Toko Serba Bangunan Ambon,"Jl. Philip Latumahina No.10, Kel Honipopu, Kec. Sirimau, Kota Ambon, Maluku","Kota Ambon, Maluku",MALUKU,,Indonesia,81283093876.0,,,-3.696513,128.1813331,https://maps.google.com/?cid=0x0:0x38f3a5a63eb288ff,
toko bangunan,Toko Bahan Bangunan,CV. NESSTA AMBON( Cat  Bahan Bangunan ),"86XJ+7HQ, Jl. Wolter Monginsidi, Lateri, Kec. Baguala, Kota Ambon, Maluku 97112","Jl. Wolter Monginsidi, Lateri, Kec. Baguala, Kota Ambon",MALUKU,97112.0,Indonesia,911356394.0,,,-3.651793,128.231489,https://maps.google.com/?cid=0x0:0x826e5740b2e0ac2f,
toko bangunan,Toko,Toko barokah,"Bar, Kamal, Kec. Kairatu Bar., Kabupaten Seram Bagian Barat, Maluku","Kabupaten Seram Bagian Barat, Maluku",MALUKU,,Indonesia,81343408121.0,,,-3.2130003,128.2797183,https://maps.google.com/?cid=0x0:0xf7219f0003cad7ff,
toko bangunan,toko bangunan,Tokoh mom joko,"J96Q+CQ4, Dusun Pakarena, Kairatu, Kec. Kairatu, Kabupaten Seram Bagian Barat, Maluku","Kabupaten Seram Bagian Barat, Maluku",MALUKU,,Indonesia,,,,-3.3888445,128.3898618,https://maps.google.com/?cid=0x0:0x9d686c547315480c,
toko bangunan,toko bangunan,Toko Bangunan Sumber Risky,"P87V+F57, Waihatu, Kec. Kairatu Bar., Kabupaten Seram Bagian Barat, Maluku","Kabupaten Seram Bagian Barat, Maluku",MALUKU,,Indonesia,,,,-3.2863352,128.3429162,https://maps.google.com/?cid=0x0:0x910f4eba0867c34e,
toko bangunan,toko bangunan,Toko Berkat,"M966+CQ5, Jl. Trans Seram, Waimital, Kec. Kairatu, Kabupaten Seram Bagian Barat, Maluku","Kabupaten Seram Bagian Barat, Maluku",MALUKU,,Indonesia,,,,-3.3389774,128.3619867,https://maps.google.com/?cid=0x0:0xee3af3317bbbc37c,
toko bangunan,Toko Bahan Bangunan,Toko bangunan NARATU,"Jl. Samudra Jaya No.105, Rangkapan Jaya, Kec. Pancoran Mas, Kota Depok, Jawa Barat 16435","Rangkapan Jaya, Kec. Pancoran Mas, Kota Depok",MALUKU,16435.0,Indonesia,87822318680.0,,,-6.391168,106.7846487,https://maps.google.com/?cid=0x0:0x2de4a3f1f7614614,
toko bangunan,Toko Bahan Bangunan,Kenny Jaya Bangunan,"Jl. Pd. Kelapa Raya No.8, RT.4/RW.9, Pd. Klp., Kec. Duren Sawit, Kota Jakarta Timur, Daerah Khusus Ibukota Jakarta 13450","RT.4/RW.9, Pd. Klp., Kec. Duren Sawit, Kota Jakarta Timur",MALUKU,13450.0,Indonesia,218651088.0,,,-6.2342431,106.9345151,https://maps.google.com/?cid=0x0:0xf662fc3222850ae3,
toko bangunan,Toko Bahan Bangunan,Aneka Sarana Bangunan,"Jl. Meruya Ilir Raya No.5, RT.5/RW.8, Srengseng, Kec. Kembangan, Kota Jakarta Barat, Daerah Khusus Ibukota Jakarta 11630","RT.5/RW.8, Srengseng, Kec. Kembangan, Kota Jakarta Barat",MALUKU,11630.0,Indonesia,215846937.0,,,-6.1973627,106.7489981,https://maps.google.com/?cid=0x0:0x72a7b7b86ad90b84,
toko bangunan,Toko Bahan Bangunan,TB.Nirmala,"6, Jl. Nirmala Raya No.2, RT.6/RW.5, Cengkareng Bar., Kecamatan Cengkareng, Kota Jakarta Barat, Daerah Khusus Ibukota Jakarta 11730","Jl. Nirmala Raya No.2, RT.6/RW.5, Cengkareng Bar., Kecamatan Cengkareng, Kota Jakarta Barat",MALUKU,11730.0,Indonesia,215456368.0,,,-6.1499809,106.7202874,https://maps.google.com/?cid=0x0:0xefd2d0323dc5e0b4,
toko bangunan,toko bangunan,Kec. Huamual Belakang,"Kabupaten Seram Bagian Barat, Maluku","Kabupaten Seram Bagian Barat, Maluku",MALUKU,,Indonesia,,,,-3.2255814,128.0662787,https://maps.google.com/?cid=0x0:0x234bd4efeec3b38,
toko bangunan,Toko Bahan Bangunan,Toko Hanna,"JWPV+GV, Luhu, Kec. Huamual Belakang, Kabupaten Seram Bagian Barat, Maluku","Kabupaten Seram Bagian Barat, Maluku",MALUKU,,Indonesia,82199904646.0,,,-3.3636349,127.9446434,https://maps.google.com/?cid=0x0:0x78aff0296928fc4c,
toko bangunan,Toko Bahan Bangunan,Toko DOLIF DESA LUHU,"JX7M+655, kmp bunga 1, Luhu, Kec. Huamual Belakang, Kabupaten Seram Bagian Barat, Maluku","Kabupaten Seram Bagian Barat, Maluku",MALUKU,,Indonesia,,,,-3.3869784,127.9829825,https://maps.google.com/?cid=0x0:0xe28303e624ccca63,
toko bangunan,Toko,Toko Rifky Jkt Bru,"P385+MC7, Lokki, Kec. Huamual Belakang, Kabupaten Seram Bagian Barat, Maluku","Kabupaten Seram Bagian Barat, Maluku",MALUKU,,Indonesia,82378990826.0,,,-3.2833419,128.0585336,https://maps.google.com/?cid=0x0:0xfc53f32c414a25a3,
toko bangunan,Toko Bahan Bangunan,Toko Bangunan Hari-hari,"Jl. Mandala Utara No.21, RT.17/RW.4, Tomang, Kec. Grogol petamburan, Kota Jakarta Barat, Daerah Khusus Ibukota Jakarta 11440","RT.17/RW.4, Tomang, Kec. Grogol petamburan, Kota Jakarta Barat",MALUKU,11440.0,Indonesia,215642893.0,,,-6.1721247,106.7983298,https://maps.google.com/?cid=0x0:0x91aa30314dd11ef,
toko bangunan,Toko Bahan Bangunan,Toko Duta Bangunan,"Jl. Danau Rana, Namlea, Kec. Namlea, Kabupaten Buru, Maluku","Kabupaten Buru, Maluku",MALUKU,,Indonesia,91322010.0,,,-3.269268,127.1034228,https://maps.google.com/?cid=0x0:0x4d2e61629ea407b9,
toko bangunan,Toko Perlengkapan Rumah,Toko Bangunan Manusela,"Jl Manusela No.05, Sari Putih, Werinama, Kabupaten Seram Bagian Timur, Maluku","Kabupaten Seram Bagian Timur, Maluku",MALUKU,,Indonesia,83125236425.0,,,-3.4233267,130.2271243,https://maps.google.com/?cid=0x0:0xa3a109db57d60060,
toko bangunan,Toko Bahan Bangunan,UD.NISKY SERAM DEPO BANGUNAN BULA,"WF4F+CH5, Bula, Kec. Bula, Kabupaten Seram Bagian Timur, Maluku","Kabupaten Seram Bagian Timur, Maluku",MALUKU,,Indonesia,82198535070.0,,,-3.0939921,130.4739724,https://maps.google.com/?cid=0x0:0xc38c7b6a3f0d1249,
toko bangunan,toko bangunan,Kec. Taniwel Tim.,"Kabupaten Seram Bagian Barat, Maluku","Kabupaten Seram Bagian Barat, Maluku",MALUKU,,Indonesia,,,,-2.8451525,128.6555679,https://maps.google.com/?cid=0x0:0x51e7fe5228d3a153,
toko bangunan,Toko Bahan Bangunan,Toko Bangunan Utama,"Jl. Karel Satsuitubun Batugong, Ambon, Passo, Kec. Baguala, Kota Ambon, Maluku 97232","Ambon, Passo, Kec. Baguala, Kota Ambon",MALUKU,97232.0,Indonesia,85102851565.0,,,-3.6377789,128.2574061,https://maps.google.com/?cid=0x0:0x7640e512aa59b277,
toko bangunan,Toko Bahan Bangunan,Toko Bangunan Lestari Baru,"Waihatu, Kec. Kairatu Bar., Kabupaten Seram Bagian Barat, Maluku","Kabupaten Seram Bagian Barat, Maluku",MALUKU,,Indonesia,82238832490.0,,,-3.2864381,128.3222819,https://maps.google.com/?cid=0x0:0xb14d86a65046c260,
toko bangunan,Toserba,Toko Bangunan Bintang Timur,"Kecil Atas, Jl. Wailola, Bula, Kec. Bula, Kabupaten Seram Bagian Timur, Maluku","Kabupaten Seram Bagian Timur, Maluku",MALUKU,,Indonesia,82378990826.0,,,-3.1020661,130.4795478,https://maps.google.com/?cid=0x0:0x4aef66ef96eb16a8,
toko bangunan,Toko Bahan Bangunan,CV. NESSTA AMBON( Cat  Bahan Bangunan ),"86XJ+7HQ, Jl. Wolter Monginsidi, Lateri, Kec. Baguala, Kota Ambon, Maluku 97112","Jl. Wolter Monginsidi, Lateri, Kec. Baguala, Kota Ambon",MALUKU,97112.0,Indonesia,911356394.0,,,-3.651793,128.231489,https://maps.google.com/?cid=0x0:0x826e5740b2e0ac2f,
toko bangunan,Komplek perumahan,TOKO BANGUNAN ANGEL,"97MG+F66, Suli, Kec. Salahutu, Kabupaten Maluku Tengah, Maluku","Kabupaten Maluku Tengah, Maluku",MALUKU,,Indonesia,81343490500.0,,,-3.6163464,128.2755073,https://maps.google.com/?cid=0x0:0x6b74a75f1baf410c,
toko bangunan,Toko Perlengkapan Rumah,Gudang UD. DINA (Toko Bahan Bangunan),"PX46+9J3 NO WA OI54O54249, Letwaru, Kec. Kota Masohi, Kabupaten Maluku Tengah, Maluku 97511","Letwaru, Kec. Kota Masohi, Kabupaten Maluku Tengah",MALUKU,97511.0,Indonesia,81334075073.0,,,-3.2941,128.9615377,https://maps.google.com/?cid=0x0:0x19f72d6dac071e6c,
toko bangunan,Toko Bahan Bangunan,Toko Bangunan Central Surya Baru Mandiri Kobi,"Mandiri, Jl. Lintas Seram, Kobi, Kec. Seram Utara Tim. Kobi, Kabupaten Maluku Tengah, Maluku 97533","Jl. Lintas Seram, Kobi, Kec. Seram Utara Tim. Kobi, Kabupaten Maluku Tengah",MALUKU,97533.0,Indonesia,82230010024.0,,,-2.9320301,129.804093,https://maps.google.com/?cid=0x0:0xf1c882c04b646d61,
toko bangunan,Toko,Toko Tunas Baru,"M966+FP8, Jl. Trans Seram, Waimital, Kec. Kairatu, Kabupaten Seram Bagian Barat, Maluku","Kabupaten Seram Bagian Barat, Maluku",MALUKU,,Indonesia,81385661699.0,,,-3.3388259,128.3618245,https://maps.google.com/?cid=0x0:0x20a66a8197b5b440,
toko bangunan,toko bangunan,Toko Adi,"4FXG+F9W, Taniwel, Kec. Taniwel, Kabupaten Seram Bagian Barat, Maluku","Kabupaten Seram Bagian Barat, Maluku",MALUKU,,Indonesia,,,,-2.8512629,128.4759595,https://maps.google.com/?cid=0x0:0x832036ee88a32a19,
toko bangunan,Toko Bahan Bangunan,Toko ANGIN TIMUR,"Jl. Rijali No.40, Kel Karang Panjang, Kec. Sirimau, Kota Ambon, Maluku","Kota Ambon, Maluku",MALUKU,,Indonesia,85768717059.0,,,-3.6907355,128.1883901,https://maps.google.com/?cid=0x0:0x2563b2060eb7a77,
toko bangunan,Toko Perlengkapan Rumah,Toko Bangun Bintang Timur,"M965+7HC, Waimital, Kec. Kairatu, Kabupaten Seram Bagian Barat, Maluku","Kabupaten Seram Bagian Barat, Maluku",MALUKU,,Indonesia,81356015298.0,,,-3.3393218,128.3589023,https://maps.google.com/?cid=0x0:0x4b850a79fd1e21e1,
toko bangunan,Toko Bahan Bangunan,Toko Sumber Mas (Toko Alat Bangunan) Termurah Di Kota Ambon,"852M+PR7, Jl. Yan Paays, Uritetu, Kec. Sirimau, Kota Ambon, Maluku","Kota Ambon, Maluku",MALUKU,,Indonesia,911342426.0,,,-3.6982201,128.1845433,https://maps.google.com/?cid=0x0:0xa06c0fcbbe266243,
toko bangunan,Toko,Toko Serba Bangunan Ambon,"Jl. Philip Latumahina No.10, Kel Honipopu, Kec. Sirimau, Kota Ambon, Maluku","Kota Ambon, Maluku",MALUKU,,Indonesia,81283093876.0,,,-3.696513,128.1813331,https://maps.google.com/?cid=0x0:0x38f3a5a63eb288ff,
toko bangunan,Toko Perlengkapan Rumah,Toko Bangunan Manusela,"Jl Manusela No.05, Sari Putih, Werinama, Kabupaten Seram Bagian Timur, Maluku","Kabupaten Seram Bagian Timur, Maluku",MALUKU,,Indonesia,83125236425.0,,,-3.4233267,130.2271243,https://maps.google.com/?cid=0x0:0xa3a109db57d60060,
toko bangunan,Toko Bahan Bangunan,Toko bangunan Dinda Barokah,"P85C+XWC, Waihatu, Kec. Kairatu Bar., Kabupaten Seram Bagian Barat, Maluku","Kabupaten Seram Bagian Barat, Maluku",MALUKU,,Indonesia,81356194953.0,,,-3.2900692,128.3222692,https://maps.google.com/?cid=0x0:0x634ca5cb31d21d51,
toko bangunan,Toko,Toko Rifky Jkt Bru,"P385+MC7, Lokki, Kec. Huamual Belakang, Kabupaten Seram Bagian Barat, Maluku","Kabupaten Seram Bagian Barat, Maluku",MALUKU,,Indonesia,82378990826.0,,,-3.2833419,128.0585336,https://maps.google.com/?cid=0x0:0xfc53f32c414a25a3,
toko bangunan,Pasar bahan bangunan,Toko Sumber Bangunan,"P2G6+2MM, Gamsungi, Kec. Tobelo, Kabupaten Halmahera Utara, Maluku Utara","Kabupaten Halmahera Utara, Maluku Utara",MALUKU,,Indonesia,9242621455.0,,,1.7250967,128.0116677,https://maps.google.com/?cid=0x0:0x14835095227102f4,
toko bangunan,Toko Bahan Bangunan,Eka Pratama,"JWQV+6P5, Luhu, Kec. Huamual Belakang, Kabupaten Seram Bagian Barat, Maluku","Kabupaten Seram Bagian Barat, Maluku",MALUKU,,Indonesia,81385661699.0,,,-3.3619763,127.9443737,https://maps.google.com/?cid=0x0:0x9297fa79318e74fa,
toko bangunan,Toko Bahan Bangunan,TOKO ELDY BANGUNAN,"Bobong, Kec. Taliabu Bar., Pulau Taliabu, Maluku Utara","Pulau Taliabu, Maluku Utara",MALUKU,,Indonesia,85342270869.0,,,-1.942625,124.381349,https://maps.google.com/?cid=0x0:0xaf82dabb011de311,
toko bangunan,Toko,Tokoh Bangunan,"CVCH+47, Kilmoy, Kec. Tutuk Tolu, Kabupaten Seram Bagian Timur, Maluku","Kabupaten Seram Bagian Timur, Maluku",MALUKU,,Indonesia,,,,-3.5797428,130.8781934,https://maps.google.com/?cid=0x0:0xa058e35e74bfa9fe,
toko bangunan,,Aneka Bangunan,"HMRR+HR7, Tomalehu, Kec. Amalatu, Kabupaten Seram Bagian Barat, Maluku","Kabupaten Seram Bagian Barat, Maluku",MALUKU,,Indonesia,82378990826.0,,,-3.4086133,128.6919824,https://maps.google.com/?cid=0x0:0xce54d8093551ed41,
toko bangunan,Toko Bahan Bangunan,Makmur Utama Supermarket Bahan Bangunan,"Jambula, Kec. Pulau Ternate, Kota Ternate, Maluku Utara","Kota Ternate, Maluku Utara",MALUKU,,Indonesia,8114313899.0,,,0.7581804,127.3220409,https://maps.google.com/?cid=0x0:0xe3a01731f7851efa,
toko bangunan,Toko Bahan Bangunan,Makmur Utama Supermarket Bahan Bangunan,"Jl. Yasin Gamsungi No.2 Kec. ternate tengah, Kel, Makassar Tim., Makassar Timur, Kota Ternate, Maluku Utara 97724","Kel, Makassar Tim., Makassar Timur, Kota Ternate",MALUKU,97724.0,Indonesia,8114313799.0,,,0.7940352,127.3876695,https://maps.google.com/?cid=0x0:0x2f492ae87bf64247,
toko bangunan,Asosiasi/organisasi,Sekretariat Pilar Ars22,"Q869+CXM, Jambula, Kec. Pulau Ternate, Kota Ternate, Maluku Utara","Kota Ternate, Maluku Utara",MALUKU,,Indonesia,82267658683.0,,,0.7610772,127.3199304,https://maps.google.com/?cid=0x0:0x9b8db383e6d8d67,
toko bangunan,Toko Bahan Bangunan,TB. Sinar Mulia -TamanPalem,"Ruko taman Palem Lestari, Ruko Taman Palem Lestari Blok C1 no. 28, C1/28, RT.3/RW.13, West Cengkareng, Cengkareng, West Jakarta City, Jakarta 11730","Ruko Taman Palem Lestari Blok C1 no. 28, C1/28, RT.3/RW.13, West Cengkareng, Cengkareng, West Jakarta City",MALUKU,11730.0,Indonesia,81370705287.0,,,-6.1347251,106.7195385,https://maps.google.com/?cid=0x0:0x37d76127b1f268d,
hardware store,hardware store,Kairatu,"Kairatu, Kec. Kairatu, Kabupaten Seram Bagian Barat, Maluku","Kabupaten Seram Bagian Barat, Maluku",MALUKU,,Indonesia,,,,-3.341675,128.352798,https://maps.google.com/?cid=0x0:0xccc8b619c657b48e,
hardware store,Toko,Toko Tunas Baru,"M966+FP8, Jl. Trans Seram, Waimital, Kec. Kairatu, Kabupaten Seram Bagian Barat, Maluku","Kabupaten Seram Bagian Barat, Maluku",MALUKU,,Indonesia,81385661699.0,,,-3.3388259,128.3618245,https://maps.google.com/?cid=0x0:0x20a66a8197b5b440,
hardware store,Toko Bahan Bangunan,Toko bangunan Dinda Barokah,"P85C+XWC, Waihatu, Kec. Kairatu Bar., Kabupaten Seram Bagian Barat, Maluku","Kabupaten Seram Bagian Barat, Maluku",MALUKU,,Indonesia,81356194953.0,,,-3.2900692,128.3222692,https://maps.google.com/?cid=0x0:0x634ca5cb31d21d51,
hardware store,Toko,ruko kairatu,"M953+84M, Kairatu, Kec. Kairatu, Kabupaten Seram Bagian Barat, Maluku","Kabupaten Seram Bagian Barat, Maluku",MALUKU,,Indonesia,,,,-3.341675,128.352798,https://maps.google.com/?cid=0x0:0x321809d6505119af,
hardware store,hardware store,Kec. Seram Bar.,"Kabupaten Seram Bagian Barat, Maluku","Kabupaten Seram Bagian Barat, Maluku",MALUKU,,Indonesia,,,,-3.0650683,128.194492,https://maps.google.com/?cid=0x0:0xd1612bfbfbd97a94,
hardware store,Toko Perlengkapan Rumah,Toko Berdikari Jaya,"W6H2+GHW, Jl. Trans Seram, Piru, Kec. Seram Bar., Kabupaten Seram Bagian Barat, Maluku","Kabupaten Seram Bagian Barat, Maluku",MALUKU,,Indonesia,,,,-3.0711298,128.2014526,https://maps.google.com/?cid=0x0:0x493d9b22726b068d,
hardware store,Toko Fotokopi,Toko Super Media,"Jl. Trans Seram, Piru, Kec. Seram Bar., Kabupaten Seram Bagian Barat, Maluku","Kabupaten Seram Bagian Barat, Maluku",MALUKU,,Indonesia,85254085550.0,,,-3.0794138,128.2063444,https://maps.google.com/?cid=0x0:0x3e6ded35fe5711e3,
hardware store,Toko Bahan Bangunan,Toko bangunan Dinda Barokah,"P85C+XWC, Waihatu, Kec. Kairatu Bar., Kabupaten Seram Bagian Barat, Maluku","Kabupaten Seram Bagian Barat, Maluku",MALUKU,,Indonesia,81356194953.0,,,-3.2900692,128.3222692,https://maps.google.com/?cid=0x0:0x634ca5cb31d21d51,
hardware store,Komplek perumahan,Jalan air kuning seram bagian Barat,"W685+HCR, Piru, Kec. Seram Bar., Kabupaten Seram Bagian Barat, Maluku","Kabupaten Seram Bagian Barat, Maluku",MALUKU,,Indonesia,,,,-3.0835033,128.2085127,https://maps.google.com/?cid=0x0:0x8bd7b2153f9ebc35,
hardware store,Toko,Toko Tunas Baru,"M966+FP8, Jl. Trans Seram, Waimital, Kec. Kairatu, Kabupaten Seram Bagian Barat, Maluku","Kabupaten Seram Bagian Barat, Maluku",MALUKU,,Indonesia,81385661699.0,,,-3.3388259,128.3618245,https://maps.google.com/?cid=0x0:0x20a66a8197b5b440,
hardware store,Pusat Perbelanjaan,Toko Mandiri,"W6H2+J9C, Jl. Trans Seram, Piru, Kec. Seram Bar., Kabupaten Seram Bagian Barat, Maluku","Kabupaten Seram Bagian Barat, Maluku",MALUKU,,Indonesia,,,,-3.0709457,128.2008861,https://maps.google.com/?cid=0x0:0xb734b2a5ddbcdb98,
hardware store,Toko Bahan Bangunan,Eka Pratama,"JWQV+6P5, Luhu, Kec. Huamual Belakang, Kabupaten Seram Bagian Barat, Maluku","Kabupaten Seram Bagian Barat, Maluku",MALUKU,,Indonesia,81385661699.0,,,-3.3619763,127.9443737,https://maps.google.com/?cid=0x0:0x9297fa79318e74fa,
hardware store,Toko Bahan Bangunan,Toko Bata/batako,"J9QC+8G8, Kairatu, Kec. Kairatu, Kabupaten Seram Bagian Barat, Maluku","Kabupaten Seram Bagian Barat, Maluku",MALUKU,,Indonesia,81385661699.0,,,-3.3617156,128.3713198,https://maps.google.com/?cid=0x0:0x481586af2d254d67,
hardware store,Toko,Toko Rifky Jkt Bru,"P385+MC7, Lokki, Kec. Huamual Belakang, Kabupaten Seram Bagian Barat, Maluku","Kabupaten Seram Bagian Barat, Maluku",MALUKU,,Indonesia,82378990826.0,,,-3.2833419,128.0585336,https://maps.google.com/?cid=0x0:0xfc53f32c414a25a3,
hardware store,Komplek perumahan,Seram bagian Barat,"W5RR+847, Piru, Kec. Seram Bar., Kabupaten Seram Bagian Barat, Maluku","Kabupaten Seram Bagian Barat, Maluku",MALUKU,,Indonesia,,,,-3.059218,128.1903079,https://maps.google.com/?cid=0x0:0x2c1b7ab04b4552db,
hardware store,hardware store,MR.DIY,"Jl. Trans Seram, Kairatu, Kec. Kairatu, Kabupaten Seram Bagian Barat, Maluku 97566","Kairatu, Kec. Kairatu, Kabupaten Seram Bagian Barat",MALUKU,97566.0,Indonesia,,,,-3.351691,128.362639,https://maps.google.com/?cid=0x0:0x8729fcfb2f6e53c4,
hardware store,hardware store,Toko Adi,"4FXG+F9W, Taniwel, Kec. Taniwel, Kabupaten Seram Bagian Barat, Maluku","Kabupaten Seram Bagian Barat, Maluku",MALUKU,,Indonesia,,,,-2.8512629,128.4759595,https://maps.google.com/?cid=0x0:0x832036ee88a32a19,
hardware store,hardware store,Taniwel,"Taniwel, Kec. Taniwel, Kabupaten Seram Bagian Barat, Maluku","Kabupaten Seram Bagian Barat, Maluku",MALUKU,,Indonesia,,,,-2.875471,128.4478,https://maps.google.com/?cid=0x0:0x8714c1fa90eff15e,
hardware store,hardware store,Kec. Tebet,"Kota Jakarta Selatan, Daerah Khusus Ibukota Jakarta","Kota Jakarta Selatan, Daerah Khusus Ibukota Jakarta",MALUKU,,Indonesia,,,,-6.2251223,106.8549881,https://maps.google.com/?cid=0x0:0xd575e31c807295f9,
hardware store,hardware store,Waesala,"Kec. Huamual Belakang, Kabupaten Seram Bagian Barat, Maluku","Kabupaten Seram Bagian Barat, Maluku",MALUKU,,Indonesia,,,,-3.1946096,127.9572703,https://maps.google.com/?cid=0x0:0xe960ac9124dc066f,
hardware store,Toko,Toko ishak,"PW83+C5C, Waesala, Kec. Huamual Belakang, Kabupaten Seram Bagian Barat, Maluku","Kabupaten Seram Bagian Barat, Maluku",MALUKU,,Indonesia,,,,-3.2839324,127.9028756,https://maps.google.com/?cid=0x0:0xd24a7f2efdaabdfb,
hardware store,Kios,"PETRA CELL (Pulsa, Brilink, ATK, Copy)","VXH3+M74, Alang Asaude, Kec. Huamual Belakang, Kabupaten Seram Bagian Barat, Maluku","Kabupaten Seram Bagian Barat, Maluku",MALUKU,,Indonesia,,,,-3.1208518,127.9532124,https://maps.google.com/?cid=0x0:0xdb1b97be81d55837,
hardware store,Pembangunan Perumahan,Kompleks Rumah Tiga,"XXV2+W5, Buano Utara, Kec. Huamual Belakang, Kabupaten Seram Bagian Barat, Maluku","Kabupaten Seram Bagian Barat, Maluku",MALUKU,,Indonesia,,,,-3.0051172,127.9504017,https://maps.google.com/?cid=0x0:0x39c20c8416743982,
hardware store,Toko Mebel,AZKO Maluku City Mall,"Maluku City Mall (MCM), Jl. Sultan Hasanudin, Tantui, Kec, Kota Ambon, Maluku 97128","Jl. Sultan Hasanudin, Tantui, Kec, Kota Ambon",MALUKU,97128.0,Indonesia,85243845863.0,,,-3.6703085,128.1982929,https://maps.google.com/?cid=0x0:0x32acbca964b44d25,
hardware store,Toko Mebel,Informa Maluku City Mall,"Maluku City Mall Ground Floor - Lower Ground, Jl. Jenderal Sudirman, Hative Kecil, Tantui - Sirimau, Kota Ambon, Maluku 97128","Jl. Jenderal Sudirman, Hative Kecil, Tantui - Sirimau, Kota Ambon",MALUKU,97128.0,Indonesia,81511002000.0,,,-3.66989,128.1972726,https://maps.google.com/?cid=0x0:0xf2c666983c27ae62,
hardware store,Kantor Perusahaan,Sampoerna Kayoe,"Jl. Jenderal Sudirman No.3, RT.3/RW.4, Kuningan, Karet Semanggi, Kecamatan Setiabudi, Kota Jakarta Selatan, Daerah Khusus Ibukota Jakarta 12930","RT.3/RW.4, Kuningan, Karet Semanggi, Kecamatan Setiabudi, Kota Jakarta Selatan",MALUKU,12930.0,Indonesia,,,,-6.2154626,106.8179682,https://maps.google.com/?cid=0x0:0xc60d6fcb12bdbb0f,
hardware store,Kedai Kopi,Starbucks,"Sampoerna Strategic Tower A Ground Floors Unit 03, Jl. Jenderal Sudirman Kav. 45-46, RT.10/RW.3, Karet Semanggi, Daerah Khusus Ibukota Jakarta 12930","Jl. Jenderal Sudirman Kav. 45-46, RT.10/RW.3, Karet Semanggi",MALUKU,12930.0,Indonesia,2157950727.0,,,-6.2171081,106.8183994,https://maps.google.com/?cid=0x0:0xf6871f10c6333748,
hardware store,Kedai Kopi,Ciao Venezia,"Sampoerna Strategic Square North Tower, RT.3, RW.4, Karet Semanggi, Kota Jakarta Selatan, Daerah Khusus Ibukota Jakarta","Kota Jakarta Selatan, Daerah Khusus Ibukota Jakarta",MALUKU,,Indonesia,81399971919.0,,,-6.2170431,106.8183911,https://maps.google.com/?cid=0x0:0xf7b5612c9707aae6,
hardware store,hardware store,,,,MALUKU,,Indonesia,,,,,,https://maps.google.com/?cid=0x0:0xc60d6fcb12bdbb0fu0026onu003dNanu0026midu003d/g/11h84ws46r,
hardware store,hardware store,,,,MALUKU,,Indonesia,,,,,,https://maps.google.com/?cid=0x0:0xc60d6fcb12bdbb0fu0026onu003dIce+Latteu0026midu003d/g/11h84ws46r,
hardware store,hardware store,,,,MALUKU,,Indonesia,,,,,,https://maps.google.com/?cid=0x0:0xc60d6fcb12bdbb0fu0026onu0026midu003d/g/11h84ws46r,
hardware store,hardware store,Kec. Inamosol,"Kabupaten Seram Bagian Barat, Maluku","Kabupaten Seram Bagian Barat, Maluku",MALUKU,,Indonesia,,,,-3.2334031,128.4500616,https://maps.google.com/?cid=0x0:0x5bec28e34f3cb18d,
hardware store,Toko,Toko Tunas Baru,"M966+FP8, Jl. Trans Seram, Waimital, Kec. Kairatu, Kabupaten Seram Bagian Barat, Maluku","Kabupaten Seram Bagian Barat, Maluku",MALUKU,,Indonesia,81385661699.0,,,-3.3388259,128.3618245,https://maps.google.com/?cid=0x0:0x20a66a8197b5b440,
hardware store,hardware store,MR.DIY,"Jl. Trans Seram, Kairatu, Kec. Kairatu, Kabupaten Seram Bagian Barat, Maluku 97566","Kairatu, Kec. Kairatu, Kabupaten Seram Bagian Barat",MALUKU,97566.0,Indonesia,,,,-3.351691,128.362639,https://maps.google.com/?cid=0x0:0x8729fcfb2f6e53c4,
hardware store,Toko Mebel,AZKO Maluku City Mall,"Maluku City Mall (MCM), Jl. Sultan Hasanudin, Tantui, Kec, Kota Ambon, Maluku 97128","Jl. Sultan Hasanudin, Tantui, Kec, Kota Ambon",MALUKU,97128.0,Indonesia,85243845863.0,,,-3.6703085,128.1982929,https://maps.google.com/?cid=0x0:0x32acbca964b44d25,
hardware store,hardware store,Toko CENTRAL SURYA BARU,"J9X7+8FW Jefri, Jln Henaupui No.31, Kairatu, Kec. Kairatu, Kabupaten Seram Bagian Barat, Maluku 97566","Jln Henaupui No.31, Kairatu, Kec. Kairatu, Kabupaten Seram Bagian Barat",MALUKU,97566.0,Indonesia,81312246288.0,,,-3.3514801,128.3628657,https://maps.google.com/?cid=0x0:0xc7605c4ef8912e88,
hardware store,Grosir alat,"Mesin HL Power Tools, JAKARTA","Jl. Pesing Poglar No.18, Kedaung Kali Angke, Kecamatan Cengkareng, Kota Jakarta Barat, Daerah Khusus Ibukota Jakarta 11710","Kedaung Kali Angke, Kecamatan Cengkareng, Kota Jakarta Barat",MALUKU,11710.0,Indonesia,81350007220.0,,,-6.1539883,106.7695081,https://maps.google.com/?cid=0x0:0xb8c2f7e9f0bc9d34,
hardware store,Toko Bahan Bangunan,Total Tools Indonesia,"Jl. Pool PPD No.5, Kedaung Kali Angke, Kecamatan Cengkareng, Kota Jakarta Barat, Daerah Khusus Ibukota Jakarta 11710","Kedaung Kali Angke, Kecamatan Cengkareng, Kota Jakarta Barat",MALUKU,11710.0,Indonesia,6215452222.0,,,-6.1526881,106.7656627,https://maps.google.com/?cid=0x0:0xd9a46d4bfb34afca,
hardware store,Toko,Toko Tunas Baru,"M966+FP8, Jl. Trans Seram, Waimital, Kec. Kairatu, Kabupaten Seram Bagian Barat, Maluku","Kabupaten Seram Bagian Barat, Maluku",MALUKU,,Indonesia,81385661699.0,,,-3.3388259,128.3618245,https://maps.google.com/?cid=0x0:0x20a66a8197b5b440,
hardware store,hardware store,MR.DIY,"Jl. Trans Seram, Kairatu, Kec. Kairatu, Kabupaten Seram Bagian Barat, Maluku 97566","Kairatu, Kec. Kairatu, Kabupaten Seram Bagian Barat",MALUKU,97566.0,Indonesia,,,,-3.351691,128.362639,https://maps.google.com/?cid=0x0:0x8729fcfb2f6e53c4,
hardware store,Toko Bahan Bangunan,Toko Bangunan Lestari Baru,"Waihatu, Kec. Kairatu Bar., Kabupaten Seram Bagian Barat, Maluku","Kabupaten Seram Bagian Barat, Maluku",MALUKU,,Indonesia,82238832490.0,,,-3.2864381,128.3222819,https://maps.google.com/?cid=0x0:0xb14d86a65046c260,
hardware store,hardware store,Kec. Huamual Belakang,"Kabupaten Seram Bagian Barat, Maluku","Kabupaten Seram Bagian Barat, Maluku",MALUKU,,Indonesia,,,,-3.2255814,128.0662787,https://maps.google.com/?cid=0x0:0x234bd4efeec3b38,
hardware store,Toko Bahan Bangunan,Toko Hanna,"JWPV+GV, Luhu, Kec. Huamual Belakang, Kabupaten Seram Bagian Barat, Maluku","Kabupaten Seram Bagian Barat, Maluku",MALUKU,,Indonesia,82199904646.0,,,-3.3636349,127.9446434,https://maps.google.com/?cid=0x0:0x78aff0296928fc4c,
hardware store,Toko Bahan Bangunan,Eka Pratama,"JWQV+6P5, Luhu, Kec. Huamual Belakang, Kabupaten Seram Bagian Barat, Maluku","Kabupaten Seram Bagian Barat, Maluku",MALUKU,,Indonesia,81385661699.0,,,-3.3619763,127.9443737,https://maps.google.com/?cid=0x0:0x9297fa79318e74fa,
hardware store,Toko Roti,Kios Irma Adnan,"JW4M+9VG, Luhu, Huamual Belakang, Kabupaten Seram Bagian Barat,Hatawano, Maluku, Luhu, Kec. Huamual Belakang, Kabupaten Seram Bagian Barat, Maluku","Kabupaten Seram Bagian Barat, Maluku",MALUKU,,Indonesia,82199422325.0,,,-3.3940558,127.934692,https://maps.google.com/?cid=0x0:0xb0ee7647e70fb0d3,
hardware store,Grosir alat,"Mesin HL Power Tools, JAKARTA","Jl. Pesing Poglar No.18, Kedaung Kali Angke, Kecamatan Cengkareng, Kota Jakarta Barat, Daerah Khusus Ibukota Jakarta 11710","Kedaung Kali Angke, Kecamatan Cengkareng, Kota Jakarta Barat",MALUKU,11710.0,Indonesia,81350007220.0,,,-6.1539883,106.7695081,https://maps.google.com/?cid=0x0:0xb8c2f7e9f0bc9d34,
hardware store,Toko Bahan Bangunan,Total Tools Indonesia,"Jl. Pool PPD No.5, Kedaung Kali Angke, Kecamatan Cengkareng, Kota Jakarta Barat, Daerah Khusus Ibukota Jakarta 11710","Kedaung Kali Angke, Kecamatan Cengkareng, Kota Jakarta Barat",MALUKU,11710.0,Indonesia,6215452222.0,,,-6.1526881,106.7656627,https://maps.google.com/?cid=0x0:0xd9a46d4bfb34afca,
hardware store,Komplek perumahan,Manusela Bangunan,"NO WA OI54O54249, Jl Manusela No.2, Sariputih, Timur, Seram Bagian Utara, Maluku","Seram Bagian Utara, Maluku",MALUKU,,Indonesia,8113622262.0,,,-2.9068033,129.7601032,https://maps.google.com/?cid=0x0:0x88daa0e37101ec98,
hardware store,Pembangunan Perumahan,Desa Elemata,"XJ48+CF, Manusela, Kec. Seram Utara, Kabupaten Maluku Tengah, Maluku","Kabupaten Maluku Tengah, Maluku",MALUKU,,Indonesia,,,,-3.043986,129.6162409,https://maps.google.com/?cid=0x0:0x18baf003b0b5182c,
hardware store,hardware store,Pulau Manipa,"Kabupaten Seram Bagian Barat, Maluku","Kabupaten Seram Bagian Barat, Maluku",MALUKU,,Indonesia,,,,-3.3086108,127.5747647,https://maps.google.com/?cid=0x0:0x4bcee1353ff83ad0,
hardware store,hardware store,Kec. Taniwel Tim.,"Kabupaten Seram Bagian Barat, Maluku","Kabupaten Seram Bagian Barat, Maluku",MALUKU,,Indonesia,,,,-2.8451525,128.6555679,https://maps.google.com/?cid=0x0:0x51e7fe5228d3a153,
hardware store,hardware store,Elpaputih,"Kabupaten Maluku Tengah, Maluku","Kabupaten Maluku Tengah, Maluku",MALUKU,,Indonesia,,,,-3.2102958,128.6949149,https://maps.google.com/?cid=0x0:0x5c490d6e0c7c3235,
home improvement,home improvement,Kairatu,"Kairatu, Kec. Kairatu, Kabupaten Seram Bagian Barat, Maluku","Kabupaten Seram Bagian Barat, Maluku",MALUKU,,Indonesia,,,,-3.341675,128.352798,https://maps.google.com/?cid=0x0:0xccc8b619c657b48e,
home improvement,home improvement,Kec. Tebet,"Kota Jakarta Selatan, Daerah Khusus Ibukota Jakarta","Kota Jakarta Selatan, Daerah Khusus Ibukota Jakarta",MALUKU,,Indonesia,,,,-6.2251223,106.8549881,https://maps.google.com/?cid=0x0:0xd575e31c807295f9,
home improvement,Pembangunan Perumahan,Paet home,"M927+XQ, Kairatu, Kec. Kairatu, Kabupaten Seram Bagian Barat, Maluku","Kabupaten Seram Bagian Barat, Maluku",MALUKU,,Indonesia,,,,-3.3475803,128.3643918,https://maps.google.com/?cid=0x0:0x375eeed1638430e0,
home improvement,Pembangunan Perumahan,My home,"P93R+F4V, Waimital, Kec. Kairatu, Kabupaten Seram Bagian Barat, Maluku","Kabupaten Seram Bagian Barat, Maluku",MALUKU,,Indonesia,,,,-3.2962591,128.3903087,https://maps.google.com/?cid=0x0:0xa0db43e449e777aa,
home improvement,Toko,ruko kairatu,"M953+84M, Kairatu, Kec. Kairatu, Kabupaten Seram Bagian Barat, Maluku","Kabupaten Seram Bagian Barat, Maluku",MALUKU,,Indonesia,,,,-3.341675,128.352798,https://maps.google.com/?cid=0x0:0x321809d6505119af,
home improvement,home improvement,Fudo Home,"M949+H4J, Kairatu, Kec. Kairatu, Kabupaten Seram Bagian Barat, Maluku","Kabupaten Seram Bagian Barat, Maluku",MALUKU,,Indonesia,,,,-3.3435792,128.3677157,https://maps.google.com/?cid=0x0:0xa7d90f44c5328b10,
home improvement,home improvement,Kec. Seram Bar.,"Kabupaten Seram Bagian Barat, Maluku","Kabupaten Seram Bagian Barat, Maluku",MALUKU,,Indonesia,,,,-3.0650683,128.194492,https://maps.google.com/?cid=0x0:0xd1612bfbfbd97a94,
home improvement,Taman,Domy'S Home,"X7JW+55Q, Morekau, Kec. Seram Bar., Kabupaten Seram Bagian Barat, Maluku","Kabupaten Seram Bagian Barat, Maluku",MALUKU,,Indonesia,,,,-3.0195288,128.29549,https://maps.google.com/?cid=0x0:0x1f0389862db7a937,
home improvement,Komplek perumahan,Jalan air kuning seram bagian Barat,"W685+HCR, Piru, Kec. Seram Bar., Kabupaten Seram Bagian Barat, Maluku","Kabupaten Seram Bagian Barat, Maluku",MALUKU,,Indonesia,,,,-3.0835033,128.2085127,https://maps.google.com/?cid=0x0:0x8bd7b2153f9ebc35,
home improvement,Toko Mebel,Mandaya Mebel,"W5MW+P2W, Piru, Kec. Seram Bar., Kabupaten Seram Bagian Barat, Maluku","Kabupaten Seram Bagian Barat, Maluku",MALUKU,,Indonesia,81343262575.0,,,-3.0657313,128.1951435,https://maps.google.com/?cid=0x0:0x123ffa7f43a02b3d,
home improvement,Toko Perlengkapan Rumah,Toko Berdikari Jaya,"W6H2+GHW, Jl. Trans Seram, Piru, Kec. Seram Bar., Kabupaten Seram Bagian Barat, Maluku","Kabupaten Seram Bagian Barat, Maluku",MALUKU,,Indonesia,,,,-3.0711298,128.2014526,https://maps.google.com/?cid=0x0:0x493d9b22726b068d,
home improvement,Toko Bahan Bangunan,Toko bangunan Dinda Barokah,"P85C+XWC, Waihatu, Kec. Kairatu Bar., Kabupaten Seram Bagian Barat, Maluku","Kabupaten Seram Bagian Barat, Maluku",MALUKU,,Indonesia,81356194953.0,,,-3.2900692,128.3222692,https://maps.google.com/?cid=0x0:0x634ca5cb31d21d51,
home improvement,Toko Bahan Bangunan,Eka Pratama,"JWQV+6P5, Luhu, Kec. Huamual Belakang, Kabupaten Seram Bagian Barat, Maluku","Kabupaten Seram Bagian Barat, Maluku",MALUKU,,Indonesia,81385661699.0,,,-3.3619763,127.9443737,https://maps.google.com/?cid=0x0:0x9297fa79318e74fa,
home improvement,Komplek perumahan,ISNAIN HOME,"JX8M+45J, Luhu, Kec. Huamual Belakang, Kabupaten Seram Bagian Barat, Maluku","Kabupaten Seram Bagian Barat, Maluku",MALUKU,,Indonesia,,,,-3.3846729,127.9828757,https://maps.google.com/?cid=0x0:0x3dcce4c9c91fd518,
home improvement,Toko Bahan Bangunan,Toko Bangunan Lestari Baru,"Waihatu, Kec. Kairatu Bar., Kabupaten Seram Bagian Barat, Maluku","Kabupaten Seram Bagian Barat, Maluku",MALUKU,,Indonesia,82238832490.0,,,-3.2864381,128.3222819,https://maps.google.com/?cid=0x0:0xb14d86a65046c260,
home improvement,Komplek perumahan,ACESS SIAHAYA,"V7MW+P5Q, Lumoli, Kec. Seram Bar., Kabupaten Seram Bagian Barat, Maluku","Kabupaten Seram Bagian Barat, Maluku",MALUKU,,Indonesia,,,,-3.115656,128.29549,https://maps.google.com/?cid=0x0:0x7d426e891ebec85,
home improvement,home improvement,Kabupaten Seram Bagian Barat,Maluku,"Kabupaten Seram Bagian Barat, Maluku",MALUKU,,Indonesia,,,,-3.1271575,128.4008357,https://maps.google.com/?cid=0x0:0x1301329cdca51d67,
home improvement,home improvement,Taniwel,"Taniwel, Kec. Taniwel, Kabupaten Seram Bagian Barat, Maluku","Kabupaten Seram Bagian Barat, Maluku",MALUKU,,Indonesia,,,,-2.875471,128.4478,https://maps.google.com/?cid=0x0:0x8714c1fa90eff15e,
home improvement,home improvement,Kec. Tebet,"Kota Jakarta Selatan, Daerah Khusus Ibukota Jakarta","Kota Jakarta Selatan, Daerah Khusus Ibukota Jakarta",MALUKU,,Indonesia,,,,-6.2251223,106.8549881,https://maps.google.com/?cid=0x0:0xd575e31c807295f9,
home improvement,home improvement,Kec. Taniwel,"Kabupaten Seram Bagian Barat, Maluku","Kabupaten Seram Bagian Barat, Maluku",MALUKU,,Indonesia,,,,-2.8575078,128.495777,https://maps.google.com/?cid=0x0:0xc8af6843e918a852,
home improvement,home improvement,Waesala,"Kec. Huamual Belakang, Kabupaten Seram Bagian Barat, Maluku","Kabupaten Seram Bagian Barat, Maluku",MALUKU,,Indonesia,,,,-3.1946096,127.9572703,https://maps.google.com/?cid=0x0:0xe960ac9124dc066f,
home improvement,Komplek perumahan,Jamni home,"RV8C+636, Waesala, Kec. Huamual Belakang, Kabupaten Seram Bagian Barat, Maluku","Kabupaten Seram Bagian Barat, Maluku",MALUKU,,Indonesia,,,,-3.184473,127.8701377,https://maps.google.com/?cid=0x0:0x4072a18d4e716dcf,
home improvement,Komplek perumahan,home wan,"QVVF+RRC, Jl. Syaikh Khidhir Al-Limboriy, Waesala, Kec. Huamual Belakang, Kabupaten Seram Bagian Barat, Maluku","Kabupaten Seram Bagian Barat, Maluku",MALUKU,,Indonesia,,,,-3.2051222,127.874577,https://maps.google.com/?cid=0x0:0xd7a97fa2668e9b55,
home improvement,home improvement,Kec. Huamual Belakang,"Kabupaten Seram Bagian Barat, Maluku","Kabupaten Seram Bagian Barat, Maluku",MALUKU,,Indonesia,,,,-3.2255814,128.0662787,https://maps.google.com/?cid=0x0:0x234bd4efeec3b38,
home improvement,Komplek perumahan,ISNAIN HOME,"JX8M+45J, Luhu, Kec. Huamual Belakang, Kabupaten Seram Bagian Barat, Maluku","Kabupaten Seram Bagian Barat, Maluku",MALUKU,,Indonesia,,,,-3.3846729,127.9828757,https://maps.google.com/?cid=0x0:0x3dcce4c9c91fd518,
home improvement,Gedung Apartemen,Ivan huwae,"RV4F+6VJ, Waesala, Kec. Huamual Belakang, Kabupaten Seram Bagian Barat, Maluku","Kabupaten Seram Bagian Barat, Maluku",MALUKU,,Indonesia,,,,-3.194711,127.874611,https://maps.google.com/?cid=0x0:0xbb3cd1f0482b5218,
home improvement,Perumahan,Nia Wanse,"VW39+9XP, Waesala, Kec. Huamual Belakang, Kabupaten Seram Bagian Barat, Maluku","Kabupaten Seram Bagian Barat, Maluku",MALUKU,,Indonesia,,,,-3.1465311,127.9199454,https://maps.google.com/?cid=0x0:0x91a2f1833be73878,
home improvement,Rumah singgah,Wawan,"WX6M+QP9, Waesala, Kec. Huamual Belakang, Kabupaten Seram Bagian Barat, Maluku","Kabupaten Seram Bagian Barat, Maluku",MALUKU,,Indonesia,,,,-3.0881798,127.9845147,https://maps.google.com/?cid=0x0:0x225ef6f2af7d0944,
home improvement,Toko Bahan Bangunan,Toko Hanna,"JWPV+GV, Luhu, Kec. Huamual Belakang, Kabupaten Seram Bagian Barat, Maluku","Kabupaten Seram Bagian Barat, Maluku",MALUKU,,Indonesia,82199904646.0,,,-3.3636349,127.9446434,https://maps.google.com/?cid=0x0:0x78aff0296928fc4c,
home improvement,home improvement,Kec. Amalatu,"Kabupaten Seram Bagian Barat, Maluku","Kabupaten Seram Bagian Barat, Maluku",MALUKU,,Indonesia,,,,-3.4079418,128.6921861,https://maps.google.com/?cid=0x0:0xb6a4667e86dc46e1,
home improvement,Komplek perumahan,Home Widya,"HJCG+7JH, Jl. Trans Seram, Latu, Kec. Amalatu, Kabupaten Seram Bagian Barat, Maluku","Kabupaten Seram Bagian Barat, Maluku",MALUKU,,Indonesia,,,,-3.4293021,128.6266141,https://maps.google.com/?cid=0x0:0x5a34b7b9757a1230,
home improvement,Komplek perumahan,daud samallo home,"HMVV+229, Hualoy, Kec. Amalatu, Kabupaten Seram Bagian Barat, Maluku","Kabupaten Seram Bagian Barat, Maluku",MALUKU,,Indonesia,,,,-3.4074625,128.6926132,https://maps.google.com/?cid=0x0:0x3eb334d2eeca7b21,
home improvement,Inspektur Tempat Tinggal,CV.IHA AMALATU PRATAMA,"JX5J+776, Iha, Kec. Huamual Belakang, Kabupaten Seram Bagian Barat, Maluku","Kabupaten Seram Bagian Barat, Maluku",MALUKU,,Indonesia,,,,-3.3918421,127.9806533,https://maps.google.com/?cid=0x0:0xde3e5f26a2a03e93,
home improvement,Komplek perumahan,Aita home,"MW2H+VG3, Jl. Trans Seram, Soahuku, Kec. Kota Masohi, Kabupaten Maluku Tengah, Maluku","Kabupaten Maluku Tengah, Maluku",MALUKU,,Indonesia,,,,-3.3478688,128.9288172,https://maps.google.com/?cid=0x0:0x3ad5d66493364dc2,
home improvement,home improvement,Andilo_Home,"HM9F+FXH, Jl. Trans Seram, Latu, Kec. Amalatu, Kabupaten Seram Bagian Barat, Maluku","Kabupaten Seram Bagian Barat, Maluku",MALUKU,,Indonesia,,,,-3.431521,128.6747264,https://maps.google.com/?cid=0x0:0x26a942f5d6a2cd0b,
home improvement,home improvement,MR.DIY,"Jl. Trans Seram, Kairatu, Kec. Kairatu, Kabupaten Seram Bagian Barat, Maluku 97566","Kairatu, Kec. Kairatu, Kabupaten Seram Bagian Barat",MALUKU,97566.0,Indonesia,,,,-3.351691,128.362639,https://maps.google.com/?cid=0x0:0x8729fcfb2f6e53c4,
home improvement,home improvement,Kec. Inamosol,"Kabupaten Seram Bagian Barat, Maluku","Kabupaten Seram Bagian Barat, Maluku",MALUKU,,Indonesia,,,,-3.2334031,128.4500616,https://maps.google.com/?cid=0x0:0x5bec28e34f3cb18d,
home improvement,Perhimpunan Pengembang Perumahan,My Home,"Kairatu, Kec. Kairatu, Kabupaten Seram Bagian Barat, Maluku","Kabupaten Seram Bagian Barat, Maluku",MALUKU,,Indonesia,82199066277.0,,,-3.3447166,128.3673281,https://maps.google.com/?cid=0x0:0x619303aa15127847,
home improvement,Pembangunan Perumahan,Paet home,"M927+XQ, Kairatu, Kec. Kairatu, Kabupaten Seram Bagian Barat, Maluku","Kabupaten Seram Bagian Barat, Maluku",MALUKU,,Indonesia,,,,-3.3475803,128.3643918,https://maps.google.com/?cid=0x0:0x375eeed1638430e0,
home improvement,Toko Kesehatan dan Kecantikan,HDI Family Center Kairatu - Maluku,"Jalan Lintas Seram, Dusun Sidodadi, Waimital, Kec. Kairatu, Kabupaten Seram Bagian Barat, Maluku 97566","Dusun Sidodadi, Waimital, Kec. Kairatu, Kabupaten Seram Bagian Barat",MALUKU,97566.0,Indonesia,81236770772.0,,,-3.3382134,128.3603326,https://maps.google.com/?cid=0x0:0xd5d2994f989d509,
home improvement,Toko Perlengkapan Rumah,Toko kaca alumunium (cahaya),"Waimital, Kec. Kairatu, Kabupaten Seram Bagian Barat, Maluku","Kabupaten Seram Bagian Barat, Maluku",MALUKU,,Indonesia,85319312848.0,,,-3.337607,128.3592303,https://maps.google.com/?cid=0x0:0x6494b19834d61a0b,
home improvement,Komplek perumahan,Home Simal,"Q7MG+H3X, Kamal, Kec. Kairatu Bar., Kabupaten Seram Bagian Barat, Maluku","Kabupaten Seram Bagian Barat, Maluku",MALUKU,,Indonesia,,,,-3.2168348,128.2757553,https://maps.google.com/?cid=0x0:0x15b1853a168d5a21,
home improvement,Kantor Perusahaan,KingNizar Sofa,"P859+VR9, Waihatu, Kec. Kairatu Bar., Kabupaten Seram Bagian Barat, Maluku","Kabupaten Seram Bagian Barat, Maluku",MALUKU,,Indonesia,,,,-3.2903479,128.3195989,https://maps.google.com/?cid=0x0:0xa04da8d35f00ab03,
home improvement,Pembangunan Perumahan,My home,"P93R+F4V, Waimital, Kec. Kairatu, Kabupaten Seram Bagian Barat, Maluku","Kabupaten Seram Bagian Barat, Maluku",MALUKU,,Indonesia,,,,-3.2962591,128.3903087,https://maps.google.com/?cid=0x0:0xa0db43e449e777aa,
home improvement,home improvement,Fudo Home,"M949+H4J, Kairatu, Kec. Kairatu, Kabupaten Seram Bagian Barat, Maluku","Kabupaten Seram Bagian Barat, Maluku",MALUKU,,Indonesia,,,,-3.3435792,128.3677157,https://maps.google.com/?cid=0x0:0xa7d90f44c5328b10,
home improvement,home improvement,MR.DIY,"Jl. Trans Seram, Kairatu, Kec. Kairatu, Kabupaten Seram Bagian Barat, Maluku 97566","Kairatu, Kec. Kairatu, Kabupaten Seram Bagian Barat",MALUKU,97566.0,Indonesia,,,,-3.351691,128.362639,https://maps.google.com/?cid=0x0:0x8729fcfb2f6e53c4,
home improvement,home improvement,Kec. Huamual Belakang,"Kabupaten Seram Bagian Barat, Maluku","Kabupaten Seram Bagian Barat, Maluku",MALUKU,,Indonesia,,,,-3.2255814,128.0662787,https://maps.google.com/?cid=0x0:0x234bd4efeec3b38,
home improvement,Toko Bahan Bangunan,Toko Hanna,"JWPV+GV, Luhu, Kec. Huamual Belakang, Kabupaten Seram Bagian Barat, Maluku","Kabupaten Seram Bagian Barat, Maluku",MALUKU,,Indonesia,82199904646.0,,,-3.3636349,127.9446434,https://maps.google.com/?cid=0x0:0x78aff0296928fc4c,
home improvement,Komplek perumahan,Jamni home,"RV8C+636, Waesala, Kec. Huamual Belakang, Kabupaten Seram Bagian Barat, Maluku","Kabupaten Seram Bagian Barat, Maluku",MALUKU,,Indonesia,,,,-3.184473,127.8701377,https://maps.google.com/?cid=0x0:0x4072a18d4e716dcf,
home improvement,Rumah wisata,Home Tiara Pulu,"J2F2+25, Luhu, Kec. Huamual Belakang, Kabupaten Seram Bagian Barat, Maluku","Kabupaten Seram Bagian Barat, Maluku",MALUKU,,Indonesia,,,,-3.3773957,128.0004862,https://maps.google.com/?cid=0x0:0x8d5f77a2b93fe40e,
home improvement,Komplek perumahan,Harvey Home,"P356+WGF, Lokki, Kec. Huamual Belakang, Kabupaten Seram Bagian Barat, Maluku","Kabupaten Seram Bagian Barat, Maluku",MALUKU,,Indonesia,,,,-3.2901754,128.0612955,https://maps.google.com/?cid=0x0:0xd71cc81393474ade,
home improvement,Komplek perumahan,Mebel Arya,"RRPR+V9M, Waesala, Kecamatan Huamual, Kabupaten Seram Bagian Barat, Maluku","Kabupaten Seram Bagian Barat, Maluku",MALUKU,,Indonesia,,,,-3.1627801,127.8409087,https://maps.google.com/?cid=0x0:0x8c863460f8e004aa,
home improvement,Komplek perumahan,Ninilouw Home,"XXR3+H8J, Buano Utara, Kec. Huamual Belakang, Kabupaten Seram Bagian Barat, Maluku","Kabupaten Seram Bagian Barat, Maluku",MALUKU,,Indonesia,,,,-3.0085368,127.953276,https://maps.google.com/?cid=0x0:0x6e4aeb6f8e7d7bfe,
home improvement,home improvement,Kec. Kepulauan Manipa,"Kabupaten Seram Bagian Barat, Maluku","Kabupaten Seram Bagian Barat, Maluku",MALUKU,,Indonesia,,,,-3.3368083,127.5516442,https://maps.google.com/?cid=0x0:0x44a0c6a82a329841,
home improvement,Pembangunan Perumahan,Seite Home,"5M44+VFJ, Lumahlatal, Kec. Taniwel Tim., Kabupaten Seram Bagian Barat, Maluku","Kabupaten Seram Bagian Barat, Maluku",MALUKU,,Indonesia,,,,-2.8427962,128.6561462,https://maps.google.com/?cid=0x0:0xe709f559fab396b6,
home improvement,Komplek perumahan,Latumanasaite homestay,"4JVP+J6C, Souhuwe, Kec. Taniwel Tim., Kabupaten Seram Bagian Barat, Maluku","Kabupaten Seram Bagian Barat, Maluku",MALUKU,,Indonesia,,,,-2.8552356,128.6347392,https://maps.google.com/?cid=0x0:0xeadd808778ded69a,
home improvement,home improvement,Kec. Taniwel Tim.,"Kabupaten Seram Bagian Barat, Maluku","Kabupaten Seram Bagian Barat, Maluku",MALUKU,,Indonesia,,,,-2.8451525,128.6555679,https://maps.google.com/?cid=0x0:0x51e7fe5228d3a153,
home improvement,home improvement,Elpaputih,"Kabupaten Maluku Tengah, Maluku","Kabupaten Maluku Tengah, Maluku",MALUKU,,Indonesia,,,,-3.2102958,128.6949149,https://maps.google.com/?cid=0x0:0x5c490d6e0c7c3235,
