Category,Real Category,Business Name,Address,City,State,Postal Code,Country,Phone,Email,Website,Latitude,Longitude,Map Link,Details Link
mall,mall,Kairatu,"Kairatu, Kec. Kairatu, Kabupaten Seram Bagian Barat, Maluku","Kabupaten Seram Bagian Barat, Maluku",MALUKU,,Indonesia,,,,-3.341675,128.352798,https://maps.google.com/?cid=0x0:0xccc8b619c657b48e,
mall,Toko bahan makanan,MITRA GROSIR,"M982+V7C, Gemba Jl. Trans Seram, Waimital, Kairatu, West Seram, Maluku 97655","Gemba Jl. Trans Seram, Waimital, Kairatu, West Seram",MALUKU,97655.0,Indonesia,,,,-3.332803,128.3506494,https://maps.google.com/?cid=0x0:0xaff03e4867fbcd05,
mall,Pusat Perbelanjaan,Ratu Plaza,"Jl. Jenderal Sudirman No.Kav. 9, RT.1/RW.3, Gelora, Kecamatan Tanah Abang, Kota Jakarta Pusat, Daerah Khusus Ibukota Jakarta 10270","RT.1/RW.3, Gelora, Kecamatan Tanah Abang, Kota Jakarta Pusat",MALUKU,10270.0,Indonesia,217394499.0,,,-6.2266481,106.8015903,https://maps.google.com/?cid=0x0:0x1fa8acd75c6678b,
mall,Toko,BESTU DILA JAYA,"Waimital, Kec. Kairatu, Kabupaten Seram Bagian Barat, Maluku","Kabupaten Seram Bagian Barat, Maluku",MALUKU,,Indonesia,82162888861.0,,,-3.3310358,128.3535672,https://maps.google.com/?cid=0x0:0xeb8e5ea73ccc6847,
mall,Pusat Perbelanjaan,Toko Datuk Center,"Jl. Trans Seram No.14, Kamal, Kec. Kairatu Bar., Kabupaten Seram Bagian Barat, Maluku","Kabupaten Seram Bagian Barat, Maluku",MALUKU,,Indonesia,82222205041.0,,,-3.212288,128.278925,https://maps.google.com/?cid=0x0:0xaf7f9c8a1531922,
mall,Toko,ruko kairatu,"M953+84M, Kairatu, Kec. Kairatu, Kabupaten Seram Bagian Barat, Maluku","Kabupaten Seram Bagian Barat, Maluku",MALUKU,,Indonesia,,,,-3.341675,128.352798,https://maps.google.com/?cid=0x0:0x321809d6505119af,
mall,Pusat Perbelanjaan,Usaha Baru2,"Q7PJ+Q7P, Kamal, Kec. Kairatu Bar., Kabupaten Seram Bagian Barat, Maluku","Kabupaten Seram Bagian Barat, Maluku",MALUKU,,Indonesia,81343495111.0,,,-3.2130437,128.2806928,https://maps.google.com/?cid=0x0:0x6e12544a41a86113,
mall,Pusat Perbelanjaan,Maluku City Mall (MCM),"Jl. Jenderal Sudirman No.1, Hative Kecil, Kec. Sirimau, Kota Ambon, Maluku","Kota Ambon, Maluku",MALUKU,,Indonesia,911352871.0,,,-3.6702679,128.1981163,https://maps.google.com/?cid=0x0:0x2f29bf0afe09144e,
mall,Area Mendaki,Kota piru,"M953+84M, Kairatu, Kec. Kairatu, Kabupaten Seram Bagian Barat, Maluku","Kabupaten Seram Bagian Barat, Maluku",MALUKU,,Indonesia,,,,-3.341675,128.352798,https://maps.google.com/?cid=0x0:0x44bd7137782bda2,
mall,Kios,Royan Kios,"P86C+M76, Waihatu, Kec. Kairatu Bar., Kabupaten Seram Bagian Barat, Maluku","Kabupaten Seram Bagian Barat, Maluku",MALUKU,,Indonesia,81247975093.0,,,-3.2883449,128.3206285,https://maps.google.com/?cid=0x0:0x9a1d3795466c333a,
mall,mall,Mm.kairatu,"M938+FWV, Jl. Trans Seram, Kairatu, Kec. Kairatu, Kabupaten Seram Bagian Barat, Maluku","Kabupaten Seram Bagian Barat, Maluku",MALUKU,,Indonesia,,,,-3.346266,128.3673089,https://maps.google.com/?cid=0x0:0x8bf22f8e01f3b196,
mall,Hotel Resor,Kairatu Beach,"Jl. Trans Seram, Kairatu, Kec. Kairatu, Kabupaten Seram Bagian Barat, Maluku","Kabupaten Seram Bagian Barat, Maluku",MALUKU,,Indonesia,81241715758.0,,,-3.3549168,128.3581276,https://maps.google.com/?cid=0x0:0x10955e5ff88202c,
mall,Kantor Hubungan Masyarakat,Kantor Desa Kairatu,"M927+8R4, Jl. Kapitan Makuressy, Kairatu, West Seram, Maluku","Kabupaten Seram Bagian Barat, Maluku",MALUKU,,Indonesia,,,,-3.3492464,128.3645681,https://maps.google.com/?cid=0x0:0x8976cd2e4dffe12c,
mall,mall,Kec. Seram Bar.,"Kabupaten Seram Bagian Barat, Maluku","Kabupaten Seram Bagian Barat, Maluku",MALUKU,,Indonesia,,,,-3.0650683,128.194492,https://maps.google.com/?cid=0x0:0xd1612bfbfbd97a94,
mall,Toko Swalayan,SINAR MART,"Jl. Trans Seram, Barat, Piru, Kec. Seram Bar., Kabupaten Seram Bagian Barat, Maluku","Kabupaten Seram Bagian Barat, Maluku",MALUKU,,Indonesia,,,,-3.0705292,128.2004269,https://maps.google.com/?cid=0x0:0xba952c381ba33726,
mall,Toko umum,DEI SHOP PIRU,"depan PLN, Jl. Trans Seram, Piru, Kec. Seram Bar., Kabupaten Seram Bagian Barat, Maluku 97562","Jl. Trans Seram, Piru, Kec. Seram Bar., Kabupaten Seram Bagian Barat",MALUKU,97562.0,Indonesia,82244520484.0,,,-3.0662104,128.1960622,https://maps.google.com/?cid=0x0:0xe0c99e6205d14b44,
mall,Pusat Perbelanjaan,Usaha mandiri - piru,"Jl. Waipan, Piru, Kec. Seram Bar., Kabupaten Seram Bagian Barat, Maluku","Kabupaten Seram Bagian Barat, Maluku",MALUKU,,Indonesia,,,,-3.0714217,128.1969733,https://maps.google.com/?cid=0x0:0xb977b1e5cb065767,
mall,Toko umum,Kios ILDA,"Negeri Kawa, Kec. Seram Bar., Kabupaten Seram Bagian Barat, Maluku","Kabupaten Seram Bagian Barat, Maluku",MALUKU,,Indonesia,,,,-2.9580756,128.1243274,https://maps.google.com/?cid=0x0:0x17521554bf21fa65,
mall,Pusat Perbelanjaan,Toko Datuk Center,"Jl. Trans Seram No.14, Kamal, Kec. Kairatu Bar., Kabupaten Seram Bagian Barat, Maluku","Kabupaten Seram Bagian Barat, Maluku",MALUKU,,Indonesia,82222205041.0,,,-3.212288,128.278925,https://maps.google.com/?cid=0x0:0xaf7f9c8a1531922,
mall,Pusat Perbelanjaan,Usaha Baru2,"Q7PJ+Q7P, Kamal, Kec. Kairatu Bar., Kabupaten Seram Bagian Barat, Maluku","Kabupaten Seram Bagian Barat, Maluku",MALUKU,,Indonesia,81343495111.0,,,-3.2130437,128.2806928,https://maps.google.com/?cid=0x0:0x6e12544a41a86113,
mall,Toko Swalayan,Toko fajar - poru,"W5MV+FFX, Jl. Hatutelu, Piru, Kec. Seram Bar., Kabupaten Seram Bagian Barat, Maluku","Kabupaten Seram Bagian Barat, Maluku",MALUKU,,Indonesia,,,,-3.0662706,128.1937196,https://maps.google.com/?cid=0x0:0x8e30dfabf4b82bb6,
mall,Pusat Perbelanjaan,Toko Abdul MP,"Q7PJ+2J6, Kamal, Kec. Kairatu Bar., Kabupaten Seram Bagian Barat, Maluku","Kabupaten Seram Bagian Barat, Maluku",MALUKU,,Indonesia,82199588451.0,,,-3.2149578,128.2815216,https://maps.google.com/?cid=0x0:0xbf01c51c6030b327,
mall,Pusat Perbelanjaan,Toko Makmur - piru,"W5JW+WXF, Jl. Trans Seram, Piru, Kec. Seram Bar., Kabupaten Seram Bagian Barat, Maluku","Kabupaten Seram Bagian Barat, Maluku",MALUKU,,Indonesia,,,,-3.0676979,128.1974071,https://maps.google.com/?cid=0x0:0x1841097e73c01972,
mall,Kios,Kios PUSPITA,"W5RR+847, Waimeteng Pantai, Piru, Kec. Seram Bar., Kabupaten Seram Bagian Barat, Maluku","Kabupaten Seram Bagian Barat, Maluku",MALUKU,,Indonesia,8124008106.0,,,-3.059218,128.1903079,https://maps.google.com/?cid=0x0:0x3c9ab20cddb6f3b1,
mall,Pusat Perbelanjaan,Toko IBU HAR,"Q7MJ+WGX, Kamal, Kec. Kairatu Bar., Kabupaten Seram Bagian Barat, Maluku","Kabupaten Seram Bagian Barat, Maluku",MALUKU,,Indonesia,,,,-3.2151393,128.2813655,https://maps.google.com/?cid=0x0:0x90d546a50675954a,
mall,Toko,Toko Saragih 2,"Q7PJ+9FV, Jl. Trans Seram, Kamal, Kec. Kairatu Bar., Kabupaten Seram Bagian Barat, Maluku","Kabupaten Seram Bagian Barat, Maluku",MALUKU,,Indonesia,82199993300.0,,,-3.2140219,128.2811668,https://maps.google.com/?cid=0x0:0xf34da26e4a19e87c,
mall,Toko bahan makanan,MITRA GROSIR,"M982+V7C, Gemba Jl. Trans Seram, Waimital, Kairatu, West Seram, Maluku 97655","Gemba Jl. Trans Seram, Waimital, Kairatu, West Seram",MALUKU,97655.0,Indonesia,,,,-3.332803,128.3506494,https://maps.google.com/?cid=0x0:0xaff03e4867fbcd05,
mall,Komplek perumahan,Pasar Gemba,"Waimital ( gemba ) kec: kairatu , kab: sbb, Maluku 97566",kab: sbb,MALUKU,97566.0,Indonesia,82399287105.0,,,-3.3346258,128.3528775,https://maps.google.com/?cid=0x0:0xc613da867d2f4b9c,
mall,Pusat Perbelanjaan,Maluku City Mall (MCM),"Jl. Jenderal Sudirman No.1, Hative Kecil, Kec. Sirimau, Kota Ambon, Maluku","Kota Ambon, Maluku",MALUKU,,Indonesia,911352871.0,,,-3.6702679,128.1981163,https://maps.google.com/?cid=0x0:0x2f29bf0afe09144e,
mall,Pusat Perbelanjaan,Saltar,"GGV7+H72, Jl. Trans Seram, Tihulale, Kec. Amalatu, Kabupaten Seram Bagian Barat, Maluku","Kabupaten Seram Bagian Barat, Maluku",MALUKU,,Indonesia,82198404648.0,,,-3.4561105,128.5131281,https://maps.google.com/?cid=0x0:0x444c5c06613e24c9,
mall,Toko Perlengkapan Rumah,GembAquatic,"M972+3JF, Waimital, Kec. Kairatu, Kabupaten Seram Bagian Barat, Maluku","Kabupaten Seram Bagian Barat, Maluku",MALUKU,,Indonesia,,,,-3.3373195,128.3515595,https://maps.google.com/?cid=0x0:0x436363fcc7a32991,
mall,Masjid,pasar katapang,"M3V5+3QX, Lokki, Kec. Huamual Belakang, Kabupaten Seram Bagian Barat, Maluku","Kabupaten Seram Bagian Barat, Maluku",MALUKU,,Indonesia,,,,-3.3073294,128.0595025,https://maps.google.com/?cid=0x0:0xd3fc7d2bf670e811,
mall,Toko Swalayan,Matahari Mart,"Jl. Trans Seram, Haruru, Kec. Amahai, Kabupaten Maluku Tengah, Maluku","Kabupaten Maluku Tengah, Maluku",MALUKU,,Indonesia,82198281372.0,,,-3.2909027,128.9680723,https://maps.google.com/?cid=0x0:0x8c6c9d9f38aa725,
mall,Komplek perumahan,Kompleks Simarole Gadantong,"XXQ2+P45, Buano Utara, Kec. Huamual Belakang, Kabupaten Seram Bagian Barat, Maluku","Kabupaten Seram Bagian Barat, Maluku",MALUKU,,Indonesia,,,,-3.0102135,127.9502728,https://maps.google.com/?cid=0x0:0xec11a1da58e1794a,
mall,Toko bahan makanan,Kios RR,"RRPR+HCP, Dusun Telaga Nipa, Waesala, Kec. Huamual Belakang, Kabupaten Seram Bagian Barat, Maluku","Kabupaten Seram Bagian Barat, Maluku",MALUKU,,Indonesia,81344335989.0,,,-3.1635321,127.8410893,https://maps.google.com/?cid=0x0:0xb1293daf97427422,
mall,Dapur Umum,toko kilat,"HMHM+9XM, Latu, Kec. Amalatu, Kabupaten Seram Bagian Barat, Maluku","Kabupaten Seram Bagian Barat, Maluku",MALUKU,,Indonesia,81247339950.0,,,-3.4215392,128.6849233,https://maps.google.com/?cid=0x0:0xef326a5b7b4c54b8,
mall,Toko,Toko Izara (Grosir/eceran Sandal),"Waimital, Kec. Kairatu, Kabupaten Seram Bagian Barat, Maluku 97566","Kec. Kairatu, Kabupaten Seram Bagian Barat",MALUKU,97566.0,Indonesia,82198320801.0,,,-3.3341949,128.3528115,https://maps.google.com/?cid=0x0:0x6d9ea660620f0de6,
mall,Pusat Perbelanjaan,Maluku City Mall (MCM),"Jl. Jenderal Sudirman No.1, Hative Kecil, Kec. Sirimau, Kota Ambon, Maluku","Kota Ambon, Maluku",MALUKU,,Indonesia,911352871.0,,,-3.6702679,128.1981163,https://maps.google.com/?cid=0x0:0x2f29bf0afe09144e,
mall,Pusat Perbelanjaan,Ambon City Center (ACC),"Jl. Wolter Monginsidi, Passo, Kec. Baguala, Kota Ambon, Maluku 97232","Passo, Kec. Baguala, Kota Ambon",MALUKU,97232.0,Indonesia,9113869522.0,,,-3.6320889,128.2495582,https://maps.google.com/?cid=0x0:0x91b8ed9da337adeb,
mall,Jepang,Ichiban Sushi - Maluku City Mall,"Jl. Jenderal Sudirman No.1, Lantai No.9 UG Blok G, No 8A, Hative Kecil, Sirimau, Kota Ambon, Maluku","Kota Ambon, Maluku",MALUKU,,Indonesia,895357270204.0,,,-3.6699578,128.198051,https://maps.google.com/?cid=0x0:0xf2c6c9f7bce048b8,
mall,mall,Waesala,"Kec. Huamual Belakang, Kabupaten Seram Bagian Barat, Maluku","Kabupaten Seram Bagian Barat, Maluku",MALUKU,,Indonesia,,,,-3.1946096,127.9572703,https://maps.google.com/?cid=0x0:0xe960ac9124dc066f,
mall,Gedung Apartemen,BossKu,"VXH2+J8X, RT.06/RW.3, Alang Asaude, Kec. Huamual Belakang, Kabupaten Seram Bagian Barat, Maluku","Kabupaten Seram Bagian Barat, Maluku",MALUKU,,Indonesia,,,,-3.1208887,127.9508587,https://maps.google.com/?cid=0x0:0x37de72a1ff8a07f1,
mall,Toko bahan makanan,Kios RR,"RRPR+HCP, Dusun Telaga Nipa, Waesala, Kec. Huamual Belakang, Kabupaten Seram Bagian Barat, Maluku","Kabupaten Seram Bagian Barat, Maluku",MALUKU,,Indonesia,81344335989.0,,,-3.1635321,127.8410893,https://maps.google.com/?cid=0x0:0xb1293daf97427422,
mall,Komplek perumahan,Kompleks Simarole Gadantong,"XXQ2+P45, Buano Utara, Kec. Huamual Belakang, Kabupaten Seram Bagian Barat, Maluku","Kabupaten Seram Bagian Barat, Maluku",MALUKU,,Indonesia,,,,-3.0102135,127.9502728,https://maps.google.com/?cid=0x0:0xec11a1da58e1794a,
mall,Kios,Faiz Cell,"P3Q5+762, Unnamed Road, Lokki, Kec. Huamual Belakang, Kabupaten Seram Bagian Barat, Maluku","Kabupaten Seram Bagian Barat, Maluku",MALUKU,,Indonesia,85397384134.0,,,-3.2618734,128.0580039,https://maps.google.com/?cid=0x0:0x3ec621d70ea856a7,
mall,mall,Kec. Huamual Belakang,"Kabupaten Seram Bagian Barat, Maluku","Kabupaten Seram Bagian Barat, Maluku",MALUKU,,Indonesia,,,,-3.2255814,128.0662787,https://maps.google.com/?cid=0x0:0x234bd4efeec3b38,
mall,Toko Perlengkapan Rumah,KIOS WATI,"Waesala, Kec. Huamual Belakang, Kabupaten Seram Bagian Barat, Maluku","Kabupaten Seram Bagian Barat, Maluku",MALUKU,,Indonesia,,,,-3.20807,127.8744586,https://maps.google.com/?cid=0x0:0xcc9c267cde1b9cac,
mall,Toko sembako pemerintah,Kios Sulistiawati,"M3R5+255, Lokki, Kec. Huamual Belakang, Kabupaten Seram Bagian Barat, Maluku","Kabupaten Seram Bagian Barat, Maluku",MALUKU,,Indonesia,81394788830.0,,,-3.3099995,128.0579747,https://maps.google.com/?cid=0x0:0x165d5ba94e586f04,
mall,Toko,Kios Wali,"PW74+W8P, Dusun Tapinalu, Waesala, Kec. Huamual Belakang, Kabupaten Seram Bagian Barat, Maluku","Kabupaten Seram Bagian Barat, Maluku",MALUKU,,Indonesia,,,,-3.2851712,127.90582,https://maps.google.com/?cid=0x0:0xf534f8f76b66e9c,
mall,Pusat Perbelanjaan,Kios cindai,"M3R5+4HJ, Lokki, Kec. Huamual Belakang, Kabupaten Seram Bagian Barat, Maluku","Kabupaten Seram Bagian Barat, Maluku",MALUKU,,Indonesia,,,,-3.3096619,128.0589058,https://maps.google.com/?cid=0x0:0x495f5661ad2882da,
mall,mall,Kec. Amalatu,"Kabupaten Seram Bagian Barat, Maluku","Kabupaten Seram Bagian Barat, Maluku",MALUKU,,Indonesia,,,,-3.4079418,128.6921861,https://maps.google.com/?cid=0x0:0xb6a4667e86dc46e1,
mall,Pusat Perbelanjaan,Saltar,"GGV7+H72, Jl. Trans Seram, Tihulale, Kec. Amalatu, Kabupaten Seram Bagian Barat, Maluku","Kabupaten Seram Bagian Barat, Maluku",MALUKU,,Indonesia,82198404648.0,,,-3.4561105,128.5131281,https://maps.google.com/?cid=0x0:0x444c5c06613e24c9,
mall,Dapur Umum,toko kilat,"HMHM+9XM, Latu, Kec. Amalatu, Kabupaten Seram Bagian Barat, Maluku","Kabupaten Seram Bagian Barat, Maluku",MALUKU,,Indonesia,81247339950.0,,,-3.4215392,128.6849233,https://maps.google.com/?cid=0x0:0xef326a5b7b4c54b8,
mall,mall,Kec. Inamosol,"Kabupaten Seram Bagian Barat, Maluku","Kabupaten Seram Bagian Barat, Maluku",MALUKU,,Indonesia,,,,-3.2334031,128.4500616,https://maps.google.com/?cid=0x0:0x5bec28e34f3cb18d,
mall,Pusat Perbelanjaan,CantikQue olsop,"Jl. Ir. Mohamad Khosim, Waimital, Kec. Kairatu, Kabupaten Seram Bagian Barat, Maluku","Kabupaten Seram Bagian Barat, Maluku",MALUKU,,Indonesia,81240951216.0,,,-3.3312981,128.3561684,https://maps.google.com/?cid=0x0:0xd2616fcb3f72700d,
mall,Komplek perumahan,Pasar Gemba,"Waimital ( gemba ) kec: kairatu , kab: sbb, Maluku 97566",kab: sbb,MALUKU,97566.0,Indonesia,82399287105.0,,,-3.3346258,128.3528775,https://maps.google.com/?cid=0x0:0xc613da867d2f4b9c,
mall,Toko,Toko Izara (Grosir/eceran Sandal),"Waimital, Kec. Kairatu, Kabupaten Seram Bagian Barat, Maluku 97566","Kec. Kairatu, Kabupaten Seram Bagian Barat",MALUKU,97566.0,Indonesia,82198320801.0,,,-3.3341949,128.3528115,https://maps.google.com/?cid=0x0:0x6d9ea660620f0de6,
mall,Toko bahan makanan,MITRA GROSIR,"M982+V7C, Gemba Jl. Trans Seram, Waimital, Kairatu, West Seram, Maluku 97655","Gemba Jl. Trans Seram, Waimital, Kairatu, West Seram",MALUKU,97655.0,Indonesia,,,,-3.332803,128.3506494,https://maps.google.com/?cid=0x0:0xaff03e4867fbcd05,
mall,Pusat Perbelanjaan,Maluku City Mall (MCM),"Jl. Jenderal Sudirman No.1, Hative Kecil, Kec. Sirimau, Kota Ambon, Maluku","Kota Ambon, Maluku",MALUKU,,Indonesia,911352871.0,,,-3.6702679,128.1981163,https://maps.google.com/?cid=0x0:0x2f29bf0afe09144e,
mall,Toko,BESTU DILA JAYA,"Waimital, Kec. Kairatu, Kabupaten Seram Bagian Barat, Maluku","Kabupaten Seram Bagian Barat, Maluku",MALUKU,,Indonesia,82162888861.0,,,-3.3310358,128.3535672,https://maps.google.com/?cid=0x0:0xeb8e5ea73ccc6847,
mall,Toko Swalayan,Dedi Purwanto,"Dusun: Waimital Desa: Waimital Rt: 005 RW: 005 Kec:, Waimital, Kec. Kairatu, Kabupaten Seram Bagian Barat, Maluku","Kabupaten Seram Bagian Barat, Maluku",MALUKU,,Indonesia,85344024698.0,,,-3.3313691,128.3566031,https://maps.google.com/?cid=0x0:0x8a05e84459c0dac2,
mall,Toko,Usaha Pencangkokan Dan Asesoris,"Dusun: Waimital Desa: Waimital Rt: 005 RW: 005 Kec:, Waimital, Kec. Kairatu, Kabupaten Seram Bagian Barat, Maluku","Kabupaten Seram Bagian Barat, Maluku",MALUKU,,Indonesia,82239250822.0,,,-3.3311618,128.3567285,https://maps.google.com/?cid=0x0:0x2566ee014a48379,
mall,Dapur Umum,toko kilat,"HMHM+9XM, Latu, Kec. Amalatu, Kabupaten Seram Bagian Barat, Maluku","Kabupaten Seram Bagian Barat, Maluku",MALUKU,,Indonesia,81247339950.0,,,-3.4215392,128.6849233,https://maps.google.com/?cid=0x0:0xef326a5b7b4c54b8,
mall,Bengkel Sepeda Motor,BENGKEL YATNO MOTOR,"M966+Q24, Jl. Trans Seram, Waimital, Kec. Kairatu, Kabupaten Seram Bagian Barat, Maluku","Kabupaten Seram Bagian Barat, Maluku",MALUKU,,Indonesia,82192744450.0,,,-3.3381186,128.3600709,https://maps.google.com/?cid=0x0:0xfa7ce2560d8e36b3,
mall,Pusat Perbelanjaan,Gramedia Maluku City Mall,"Jalan Jenderal Sudirman. 1 Tantui Ambon UP Floor Blok UG No. 2, Jl. Jenderal Sudirman, Hative Kecil, Kec. Sirimau, Kota Ambon, Maluku 97128","Jl. Jenderal Sudirman, Hative Kecil, Kec. Sirimau, Kota Ambon",MALUKU,97128.0,Indonesia,81248557414.0,,,-3.6703427,128.1983406,https://maps.google.com/?cid=0x0:0xe751f5e37fa0f5c3,
mall,Kios,Royan Kios,"P86C+M76, Waihatu, Kec. Kairatu Bar., Kabupaten Seram Bagian Barat, Maluku","Kabupaten Seram Bagian Barat, Maluku",MALUKU,,Indonesia,81247975093.0,,,-3.2883449,128.3206285,https://maps.google.com/?cid=0x0:0x9a1d3795466c333a,
mall,Toko sembako pemerintah,Kios Sulistiawati,"M3R5+255, Lokki, Kec. Huamual Belakang, Kabupaten Seram Bagian Barat, Maluku","Kabupaten Seram Bagian Barat, Maluku",MALUKU,,Indonesia,81394788830.0,,,-3.3099995,128.0579747,https://maps.google.com/?cid=0x0:0x165d5ba94e586f04,
mall,Pusat Perbelanjaan,Ratu Plaza,"Jl. Jenderal Sudirman No.Kav. 9, RT.1/RW.3, Gelora, Kecamatan Tanah Abang, Kota Jakarta Pusat, Daerah Khusus Ibukota Jakarta 10270","RT.1/RW.3, Gelora, Kecamatan Tanah Abang, Kota Jakarta Pusat",MALUKU,10270.0,Indonesia,217394499.0,,,-6.2266481,106.8015903,https://maps.google.com/?cid=0x0:0x1fa8acd75c6678b,
mall,Pusat Perbelanjaan,Amarta Lobby Grand Indonesia,"JL. MH Thamrin, No.1, Grand Indonesia, West Mall B UG 15A, 10310, Kebon Melati, Tanah Abang, Central Jakarta City, Jakarta 10350","No.1, Grand Indonesia, West Mall B UG 15A, 10310, Kebon Melati, Tanah Abang, Central Jakarta City",MALUKU,10350.0,Indonesia,,,,-6.1946118,106.8196637,https://maps.google.com/?cid=0x0:0xd9d7b54d33d86422,
mall,Pusat Perbelanjaan,Grand Indonesia Shopping Town,"Jl. M.H. Thamrin No.1, Menteng, Kec. Menteng, Kota Jakarta Pusat, Daerah Khusus Ibukota Jakarta 10310","Menteng, Kec. Menteng, Kota Jakarta Pusat",MALUKU,10310.0,Indonesia,2123580001.0,,,-6.1965848,106.8224882,https://maps.google.com/?cid=0x0:0xccfcc89b95aaf1ae,
mall,Pusat Perbelanjaan,Rama Lobby Grand Indonesia East Mall,"Jl. M.H. Thamrin No.1, RT.1/RW.5, Menteng, Kec. Menteng, Kota Jakarta Pusat, Daerah Khusus Ibukota Jakarta 10310","RT.1/RW.5, Menteng, Kec. Menteng, Kota Jakarta Pusat",MALUKU,10310.0,Indonesia,,,,-6.1950568,106.8211282,https://maps.google.com/?cid=0x0:0x8d3d69892cd4ca80,
mall,Pusat Perbelanjaan,Pondok Indah Mall 1,"Jl. Metro Pondok Indah No.Kav. 4, RT.1/RW.16, Pd. Pinang, Kec. Kby. Lama, Kota Jakarta Selatan, Daerah Khusus Ibukota Jakarta 12310","RT.1/RW.16, Pd. Pinang, Kec. Kby. Lama, Kota Jakarta Selatan",MALUKU,12310.0,Indonesia,217506750.0,,,-6.2652166,106.7843165,https://maps.google.com/?cid=0x0:0x682837113c4ea854,
mall,Pusat Perbelanjaan,Arjuna Lobby Grand Indonesia West Mall,"RR3C+V5M, RT.1/RW.5, Menteng, Kec. Menteng, Kota Jakarta Pusat, Daerah Khusus Ibukota Jakarta 10230","RT.1/RW.5, Menteng, Kec. Menteng, Kota Jakarta Pusat",MALUKU,10230.0,Indonesia,,,,-6.1952955,106.820416,https://maps.google.com/?cid=0x0:0x38c8e4959945bdaf,
mall,Pusat Perbelanjaan,Grand Indonesia Skybridge,"Jl. Teluk Betung No.1, RT.1/RW.5, Menteng, Kec. Menteng, Kota Jakarta Pusat, Daerah Khusus Ibukota Jakarta 10230","RT.1/RW.5, Menteng, Kec. Menteng, Kota Jakarta Pusat",MALUKU,10230.0,Indonesia,,,,-6.1948881,106.8208468,https://maps.google.com/?cid=0x0:0x3a0314f105a6bcf9,
mall,Pusat Perbelanjaan,Plaza Indonesia,"Jl. M.H. Thamrin No.Kav.28-30, Gondangdia, Kec. Menteng, Kota Jakarta Pusat, Daerah Khusus Ibukota Jakarta 10350","Gondangdia, Kec. Menteng, Kota Jakarta Pusat",MALUKU,10350.0,Indonesia,2129920000.0,,,-6.1935977,106.8219468,https://maps.google.com/?cid=0x0:0x7d7fe17ad64a053f,
mall,Pusat Perbelanjaan,Mall Senayan City,"Jl. Asia Afrika No.Lot 19, Gelora, Kecamatan Tanah Abang, Kota Jakarta Pusat, Daerah Khusus Ibukota Jakarta 10270","Gelora, Kecamatan Tanah Abang, Kota Jakarta Pusat",MALUKU,10270.0,Indonesia,2172781000.0,,,-6.2271953,106.7970117,https://maps.google.com/?cid=0x0:0x300c043104acc004,
mall,Pusat Perbelanjaan,Pacific Place Mall,"Jl. Jend. Sudirman kav 52-53, Senayan, Kec. Kby. Baru, Kota Jakarta Selatan, Daerah Khusus Ibukota Jakarta 12190","Senayan, Kec. Kby. Baru, Kota Jakarta Selatan",MALUKU,12190.0,Indonesia,2151402828.0,,,-6.2240197,106.8101858,https://maps.google.com/?cid=0x0:0xc4a608b34b5f03cc,
mall,Toko Minuman Keras,Red  White Ratu Plaza,"Ratu Plaza, Jl. Jenderal Sudirman No.9 Ground Floor Unit G, RT.1/RW.3, Gelora, Kecamatan Tanah Abang, Kota Jakarta Pusat, Daerah Khusus Ibukota Jakarta 10270","Jl. Jenderal Sudirman No.9 Ground Floor Unit G, RT.1/RW.3, Gelora, Kecamatan Tanah Abang, Kota Jakarta Pusat",MALUKU,10270.0,Indonesia,81190089737.0,,,-6.2268983,106.8011965,https://maps.google.com/?cid=0x0:0xb9d6c03d6748697a,
mall,Toko drone,DJI Ratu Enterprise Official Store,"Ratu Plaza, Jl. Jenderal Sudirman No.Unit 21 Lantai Dasar, RT.1/RW.3, Gelora, Tanah Abang, Central Jakarta City, Jakarta 10270","Jl. Jenderal Sudirman No.Unit 21 Lantai Dasar, RT.1/RW.3, Gelora, Tanah Abang, Central Jakarta City",MALUKU,10270.0,Indonesia,81360829991.0,,,-6.2266026,106.801438,https://maps.google.com/?cid=0x0:0x406609f801725dd9,
mall,Toko Komputer,Asus Store,"Ratu Plaza Lt.3.10, Jl. Jenderal Sudirman No.Kav. 9, RT.1/RW.3, Gelora, Kecamatan Tanah Abang, Daerah Khusus Ibukota Jakarta 10270","Jl. Jenderal Sudirman No.Kav. 9, RT.1/RW.3, Gelora, Kecamatan Tanah Abang",MALUKU,10270.0,Indonesia,2172791948.0,,,-6.2266064,106.8015539,https://maps.google.com/?cid=0x0:0xf0a29687a4c74780,
mall,Pusat Perbelanjaan,Toko Datuk Center,"Jl. Trans Seram No.14, Kamal, Kec. Kairatu Bar., Kabupaten Seram Bagian Barat, Maluku","Kabupaten Seram Bagian Barat, Maluku",MALUKU,,Indonesia,82222205041.0,,,-3.212288,128.278925,https://maps.google.com/?cid=0x0:0xaf7f9c8a1531922,
mall,Komplek perumahan,Pasar Gemba,"Waimital ( gemba ) kec: kairatu , kab: sbb, Maluku 97566",kab: sbb,MALUKU,97566.0,Indonesia,82399287105.0,,,-3.3346258,128.3528775,https://maps.google.com/?cid=0x0:0xc613da867d2f4b9c,
mall,Pusat Perbelanjaan,Usaha Baru2,"Q7PJ+Q7P, Kamal, Kec. Kairatu Bar., Kabupaten Seram Bagian Barat, Maluku","Kabupaten Seram Bagian Barat, Maluku",MALUKU,,Indonesia,81343495111.0,,,-3.2130437,128.2806928,https://maps.google.com/?cid=0x0:0x6e12544a41a86113,
mall,Pusat Perbelanjaan,DAMAI store,"Jl. Trans Seram, Kamal, Kabupaten Seram Bagian Barat, Maluku","Kabupaten Seram Bagian Barat, Maluku",MALUKU,,Indonesia,81218410977.0,,,-3.2145283,128.2818667,https://maps.google.com/?cid=0x0:0x2b319e5f82120c16,
mall,Toko bahan makanan,MITRA GROSIR,"M982+V7C, Gemba Jl. Trans Seram, Waimital, Kairatu, West Seram, Maluku 97655","Gemba Jl. Trans Seram, Waimital, Kairatu, West Seram",MALUKU,97655.0,Indonesia,,,,-3.332803,128.3506494,https://maps.google.com/?cid=0x0:0xaff03e4867fbcd05,
mall,Toko Perlengkapan Rumah,GembAquatic,"M972+3JF, Waimital, Kec. Kairatu, Kabupaten Seram Bagian Barat, Maluku","Kabupaten Seram Bagian Barat, Maluku",MALUKU,,Indonesia,,,,-3.3373195,128.3515595,https://maps.google.com/?cid=0x0:0x436363fcc7a32991,
mall,Toko,Toko Izara (Grosir/eceran Sandal),"Waimital, Kec. Kairatu, Kabupaten Seram Bagian Barat, Maluku 97566","Kec. Kairatu, Kabupaten Seram Bagian Barat",MALUKU,97566.0,Indonesia,82198320801.0,,,-3.3341949,128.3528115,https://maps.google.com/?cid=0x0:0x6d9ea660620f0de6,
mall,Pusat Perbelanjaan,Toko Abdul MP,"Q7PJ+2J6, Kamal, Kec. Kairatu Bar., Kabupaten Seram Bagian Barat, Maluku","Kabupaten Seram Bagian Barat, Maluku",MALUKU,,Indonesia,82199588451.0,,,-3.2149578,128.2815216,https://maps.google.com/?cid=0x0:0xbf01c51c6030b327,
mall,Toko,BESTU DILA JAYA,"Waimital, Kec. Kairatu, Kabupaten Seram Bagian Barat, Maluku","Kabupaten Seram Bagian Barat, Maluku",MALUKU,,Indonesia,82162888861.0,,,-3.3310358,128.3535672,https://maps.google.com/?cid=0x0:0xeb8e5ea73ccc6847,
mall,Toko,Toko Saragih 2,"Q7PJ+9FV, Jl. Trans Seram, Kamal, Kec. Kairatu Bar., Kabupaten Seram Bagian Barat, Maluku","Kabupaten Seram Bagian Barat, Maluku",MALUKU,,Indonesia,82199993300.0,,,-3.2140219,128.2811668,https://maps.google.com/?cid=0x0:0xf34da26e4a19e87c,
mall,Pusat Perbelanjaan,CantikQue olsop,"Jl. Ir. Mohamad Khosim, Waimital, Kec. Kairatu, Kabupaten Seram Bagian Barat, Maluku","Kabupaten Seram Bagian Barat, Maluku",MALUKU,,Indonesia,81240951216.0,,,-3.3312981,128.3561684,https://maps.google.com/?cid=0x0:0xd2616fcb3f72700d,
mall,Toko,ruko kairatu,"M953+84M, Kairatu, Kec. Kairatu, Kabupaten Seram Bagian Barat, Maluku","Kabupaten Seram Bagian Barat, Maluku",MALUKU,,Indonesia,,,,-3.341675,128.352798,https://maps.google.com/?cid=0x0:0x321809d6505119af,
mall,Pusat Perbelanjaan,Toko IBU HAR,"Q7MJ+WGX, Kamal, Kec. Kairatu Bar., Kabupaten Seram Bagian Barat, Maluku","Kabupaten Seram Bagian Barat, Maluku",MALUKU,,Indonesia,,,,-3.2151393,128.2813655,https://maps.google.com/?cid=0x0:0x90d546a50675954a,
mall,Pusat Perbelanjaan,Saltar,"GGV7+H72, Jl. Trans Seram, Tihulale, Kec. Amalatu, Kabupaten Seram Bagian Barat, Maluku","Kabupaten Seram Bagian Barat, Maluku",MALUKU,,Indonesia,82198404648.0,,,-3.4561105,128.5131281,https://maps.google.com/?cid=0x0:0x444c5c06613e24c9,
mall,Kios,Royan Kios,"P86C+M76, Waihatu, Kec. Kairatu Bar., Kabupaten Seram Bagian Barat, Maluku","Kabupaten Seram Bagian Barat, Maluku",MALUKU,,Indonesia,81247975093.0,,,-3.2883449,128.3206285,https://maps.google.com/?cid=0x0:0x9a1d3795466c333a,
mall,Toko Swalayan,Dedi Purwanto,"Dusun: Waimital Desa: Waimital Rt: 005 RW: 005 Kec:, Waimital, Kec. Kairatu, Kabupaten Seram Bagian Barat, Maluku","Kabupaten Seram Bagian Barat, Maluku",MALUKU,,Indonesia,85344024698.0,,,-3.3313691,128.3566031,https://maps.google.com/?cid=0x0:0x8a05e84459c0dac2,
mall,mall,Kec. Huamual Belakang,"Kabupaten Seram Bagian Barat, Maluku","Kabupaten Seram Bagian Barat, Maluku",MALUKU,,Indonesia,,,,-3.2255814,128.0662787,https://maps.google.com/?cid=0x0:0x234bd4efeec3b38,
mall,Masjid,pasar katapang,"M3V5+3QX, Lokki, Kec. Huamual Belakang, Kabupaten Seram Bagian Barat, Maluku","Kabupaten Seram Bagian Barat, Maluku",MALUKU,,Indonesia,,,,-3.3073294,128.0595025,https://maps.google.com/?cid=0x0:0xd3fc7d2bf670e811,
mall,Layanan Transportasi,Pelabuhan Desa Luhu,"JX7M+F77, Luhu, Kec. Huamual Belakang, Kabupaten Seram Bagian Barat, Maluku","Kabupaten Seram Bagian Barat, Maluku",MALUKU,,Indonesia,,,,-3.3863294,127.9831626,https://maps.google.com/?cid=0x0:0x13819ff9690ccb14,
mall,Kios,Faiz Cell,"P3Q5+762, Unnamed Road, Lokki, Kec. Huamual Belakang, Kabupaten Seram Bagian Barat, Maluku","Kabupaten Seram Bagian Barat, Maluku",MALUKU,,Indonesia,85397384134.0,,,-3.2618734,128.0580039,https://maps.google.com/?cid=0x0:0x3ec621d70ea856a7,
mall,Pusat Perbelanjaan,Maluku City Mall (MCM),"Jl. Jenderal Sudirman No.1, Hative Kecil, Kec. Sirimau, Kota Ambon, Maluku","Kota Ambon, Maluku",MALUKU,,Indonesia,911352871.0,,,-3.6702679,128.1981163,https://maps.google.com/?cid=0x0:0x2f29bf0afe09144e,
mall,Gedung Apartemen,BossKu,"VXH2+J8X, RT.06/RW.3, Alang Asaude, Kec. Huamual Belakang, Kabupaten Seram Bagian Barat, Maluku","Kabupaten Seram Bagian Barat, Maluku",MALUKU,,Indonesia,,,,-3.1208887,127.9508587,https://maps.google.com/?cid=0x0:0x37de72a1ff8a07f1,
mall,mall,Toko munazar,"MWMH+XV6, Jl. Ust. Harmin Mursalim SHI, Limboro, Luhu, Kec. Huamual Belakang, Kabupaten Seram Bagian Barat, Maluku","Kabupaten Seram Bagian Barat, Maluku",MALUKU,,Indonesia,,,,-3.3150972,127.9296437,https://maps.google.com/?cid=0x0:0x7480f3afacd86364,
mall,mall,Kios Ainun,"MWMJ+MF6, Jl. Ust Harmin Mursalim SHI, Dusun Limboro, Luhu, Kec. Huamual Belakang, Kabupaten Seram Bagian Barat, Maluku","Kabupaten Seram Bagian Barat, Maluku",MALUKU,,Indonesia,,,,-3.3158346,127.931125,https://maps.google.com/?cid=0x0:0xb169f3765ee79dfa,
mall,mall,TOKO BANGUNAN BUKAL,"JX7M+C7R, Luhu, Kec. Huamual Belakang, Kabupaten Seram Bagian Barat, Maluku","Kabupaten Seram Bagian Barat, Maluku",MALUKU,,Indonesia,,,,-3.3863769,127.9831313,https://maps.google.com/?cid=0x0:0x7b81bfaece2fc222,
mall,mall,Agen Pulsa All Operator,"Jl. Lintas Seram, Dusun ani, Lokki, Kec. Huamual Belakang, Kabupaten Seram Bagian Barat, Maluku 97562","Dusun ani, Lokki, Kec. Huamual Belakang, Kabupaten Seram Bagian Barat",MALUKU,97562.0,Indonesia,82199452635.0,,,-3.2463827,128.0624706,https://maps.google.com/?cid=0x0:0x8beb71084411efa3,
mall,Komplek perumahan,Kompleks Simarole Gadantong,"XXQ2+P45, Buano Utara, Kec. Huamual Belakang, Kabupaten Seram Bagian Barat, Maluku","Kabupaten Seram Bagian Barat, Maluku",MALUKU,,Indonesia,,,,-3.0102135,127.9502728,https://maps.google.com/?cid=0x0:0xec11a1da58e1794a,
mall,Pusat Perbelanjaan,Usaha Baru2,"Q7PJ+Q7P, Kamal, Kec. Kairatu Bar., Kabupaten Seram Bagian Barat, Maluku","Kabupaten Seram Bagian Barat, Maluku",MALUKU,,Indonesia,81343495111.0,,,-3.2130437,128.2806928,https://maps.google.com/?cid=0x0:0x6e12544a41a86113,
mall,Toko bahan makanan,Kios RR,"RRPR+HCP, Dusun Telaga Nipa, Waesala, Kec. Huamual Belakang, Kabupaten Seram Bagian Barat, Maluku","Kabupaten Seram Bagian Barat, Maluku",MALUKU,,Indonesia,81344335989.0,,,-3.1635321,127.8410893,https://maps.google.com/?cid=0x0:0xb1293daf97427422,
mall,mall,Kec. Kepulauan Manipa,"Kabupaten Seram Bagian Barat, Maluku","Kabupaten Seram Bagian Barat, Maluku",MALUKU,,Indonesia,,,,-3.3368083,127.5516442,https://maps.google.com/?cid=0x0:0x44a0c6a82a329841,
mall,Kios,Kios Mama Haji,"JJXX+WJ9, Luhutuban, Kec. Kepulauan Manipa, Kabupaten Seram Bagian Barat, Maluku","Kabupaten Seram Bagian Barat, Maluku",MALUKU,,Indonesia,,,,-3.3507851,127.6498572,https://maps.google.com/?cid=0x0:0x73ca32a4c2c8d617,
mall,Pembangunan Perumahan,"BPP Kep, Manipa","Kelang Asaude, Kec. Huamual Belakang, Kabupaten Seram Bagian Barat, Maluku","Kabupaten Seram Bagian Barat, Maluku",MALUKU,,Indonesia,,,,-3.3386977,127.5644321,https://maps.google.com/?cid=0x0:0xff56200dbdd511e3,
mall,Kantor Pemerintah,Manipa,"MH73+XGV, Tumalehu barat, Kec. Kepulauan Manipa, Kabupaten Seram Bagian Barat, Maluku","Kabupaten Seram Bagian Barat, Maluku",MALUKU,,Indonesia,,,,-3.3347886,127.5533144,https://maps.google.com/?cid=0x0:0xa237175fea33708f,
mall,Toko,Toko nazwa,"MH72+5XR, Tumalehu Tim., Kec. Kepulauan Manipa, Kabupaten Seram Bagian Barat, Maluku","Kabupaten Seram Bagian Barat, Maluku",MALUKU,,Indonesia,,,,-3.3373009,127.5526623,https://maps.google.com/?cid=0x0:0x1d44b38f3eb9edb6,
mall,mall,Kec. Taniwel Tim.,"Kabupaten Seram Bagian Barat, Maluku","Kabupaten Seram Bagian Barat, Maluku",MALUKU,,Indonesia,,,,-2.8451525,128.6555679,https://maps.google.com/?cid=0x0:0x51e7fe5228d3a153,
mall,Pusat Perbelanjaan,Maluku City Mall (MCM),"Jl. Jenderal Sudirman No.1, Hative Kecil, Kec. Sirimau, Kota Ambon, Maluku","Kota Ambon, Maluku",MALUKU,,Indonesia,911352871.0,,,-3.6702679,128.1981163,https://maps.google.com/?cid=0x0:0x2f29bf0afe09144e,
mall,Pusat Perbelanjaan,Gramedia Maluku City Mall,"Jalan Jenderal Sudirman. 1 Tantui Ambon UP Floor Blok UG No. 2, Jl. Jenderal Sudirman, Hative Kecil, Kec. Sirimau, Kota Ambon, Maluku 97128","Jl. Jenderal Sudirman, Hative Kecil, Kec. Sirimau, Kota Ambon",MALUKU,97128.0,Indonesia,81248557414.0,,,-3.6703427,128.1983406,https://maps.google.com/?cid=0x0:0xe751f5e37fa0f5c3,
mall,Jepang,Ichiban Sushi - Maluku City Mall,"Jl. Jenderal Sudirman No.1, Lantai No.9 UG Blok G, No 8A, Hative Kecil, Sirimau, Kota Ambon, Maluku","Kota Ambon, Maluku",MALUKU,,Indonesia,895357270204.0,,,-3.6699578,128.198051,https://maps.google.com/?cid=0x0:0xf2c6c9f7bce048b8,
mall,Pusat Perbelanjaan,Ambon City Center (ACC),"Jl. Wolter Monginsidi, Passo, Kec. Baguala, Kota Ambon, Maluku 97232","Passo, Kec. Baguala, Kota Ambon",MALUKU,97232.0,Indonesia,9113869522.0,,,-3.6320889,128.2495582,https://maps.google.com/?cid=0x0:0x91b8ed9da337adeb,
mall,Tujuan Wisata,Pohon Batu Elpaputih,"PQ97+49P, Sanahu, Elpaputih, Kabupaten Seram Bagian Barat, Maluku","Kabupaten Seram Bagian Barat, Maluku",MALUKU,,Indonesia,,,,-3.282152,128.763461,https://maps.google.com/?cid=0x0:0xe31a138161990f2f,
mall,Area Mendaki,Pantai Pasir Putih Pohon Batu,"PQ64+54, Wasia, Elpaputih, Kabupaten Seram Bagian Barat, Maluku","Kabupaten Seram Bagian Barat, Maluku",MALUKU,,Indonesia,,,,-3.2895119,128.7552743,https://maps.google.com/?cid=0x0:0x45fddd5fa21b18d6,
mall,Pusat Perbelanjaan,Maluku City Mall (MCM),"Jl. Jenderal Sudirman No.1, Hative Kecil, Kec. Sirimau, Kota Ambon, Maluku","Kota Ambon, Maluku",MALUKU,,Indonesia,911352871.0,,,-3.6702679,128.1981163,https://maps.google.com/?cid=0x0:0x2f29bf0afe09144e,
mall,Jepang,Ichiban Sushi - Maluku City Mall,"Jl. Jenderal Sudirman No.1, Lantai No.9 UG Blok G, No 8A, Hative Kecil, Sirimau, Kota Ambon, Maluku","Kota Ambon, Maluku",MALUKU,,Indonesia,895357270204.0,,,-3.6699578,128.198051,https://maps.google.com/?cid=0x0:0xf2c6c9f7bce048b8,
supermarket,supermarket,Kairatu,"Kairatu, Kec. Kairatu, Kabupaten Seram Bagian Barat, Maluku","Kabupaten Seram Bagian Barat, Maluku",MALUKU,,Indonesia,,,,-3.341675,128.352798,https://maps.google.com/?cid=0x0:0xccc8b619c657b48e,
supermarket,Toserba,Inafut Swalayan,"M982+FXH, Waimital, Kec. Kairatu, Kabupaten Seram Bagian Barat, Maluku","Kabupaten Seram Bagian Barat, Maluku",MALUKU,,Indonesia,,,,-3.3338178,128.3524887,https://maps.google.com/?cid=0x0:0x73bd5cabf20bb96c,
supermarket,Toko umum,NR mart,"M966+FPM, Waimital, Kec. Kairatu, Kabupaten Seram Bagian Barat, Maluku","Kabupaten Seram Bagian Barat, Maluku",MALUKU,,Indonesia,,,,-3.3387803,128.3617883,https://maps.google.com/?cid=0x0:0x40c16dcda67aed04,
supermarket,Toko Swalayan,Toko Sampoerna kairatu,"M949+566, Jl. Trans Seram, Kairatu, Kec. Kairatu, Kabupaten Seram Bagian Barat, Maluku","Kabupaten Seram Bagian Barat, Maluku",MALUKU,,Indonesia,85243366000.0,,,-3.344584,128.3680198,https://maps.google.com/?cid=0x0:0xff052aaf73848d0f,
supermarket,Toko sembako pemerintah,Toko Dewi,"M993+5GR, Waimital, Kec. Kairatu, Kabupaten Seram Bagian Barat, Maluku","Kabupaten Seram Bagian Barat, Maluku",MALUKU,,Indonesia,,,,-3.3320021,128.3537627,https://maps.google.com/?cid=0x0:0x6dd5079f643a1a83,
supermarket,Pasar,Pasar Kairatu,"J9W7+632, Kairatu, Kec. Kairatu, Kabupaten Seram Bagian Barat, Maluku","Kabupaten Seram Bagian Barat, Maluku",MALUKU,,Indonesia,,,,-3.3544944,128.362627,https://maps.google.com/?cid=0x0:0x40cfda048fce3c66,
supermarket,Toko bahan makanan,Inafut Swalayan dan Grosir,"M966+GM6, Jl. Trans Seram, Waimital, Kec. Kairatu, Kabupaten Seram Bagian Barat, Maluku","Kabupaten Seram Bagian Barat, Maluku",MALUKU,,Indonesia,,,,-3.338723,128.3616465,https://maps.google.com/?cid=0x0:0xdec70eb10050d91c,
supermarket,Toko,Mafazaa Store,"Jl, Waimital, Kec. Kairatu, Kabupaten Seram Bagian Barat, Maluku 97566","Waimital, Kec. Kairatu, Kabupaten Seram Bagian Barat",MALUKU,97566.0,Indonesia,82144248360.0,,,-3.337487,128.3515624,https://maps.google.com/?cid=0x0:0x82c8f3e3285b7267,
supermarket,Toko Swalayan,Minimarket Valentine Kairatu,"M948+PW9, Jl. Trans Seram, Kelurahan Riuapa, Kec. Kairatu, Kabupaten Seram Bagian Barat, Maluku 97566","Jl. Trans Seram, Kelurahan Riuapa, Kec. Kairatu, Kabupaten Seram Bagian Barat",MALUKU,97566.0,Indonesia,82234562657.0,,,-3.343207,128.3673681,https://maps.google.com/?cid=0x0:0x8cebcc8a530873aa,
supermarket,supermarket,Inafut mart,"M953+84M, Kairatu, Kec. Kairatu, Kabupaten Seram Bagian Barat, Maluku","Kabupaten Seram Bagian Barat, Maluku",MALUKU,,Indonesia,,,,-3.341675,128.352798,https://maps.google.com/?cid=0x0:0xacb09532db57b792,
supermarket,supermarket,Air Kuning,"M953+84M, Kairatu, Kec. Kairatu, Kabupaten Seram Bagian Barat, Maluku","Kabupaten Seram Bagian Barat, Maluku",MALUKU,,Indonesia,,,,-3.341675,128.352798,https://maps.google.com/?cid=0x0:0x839093352d6120ab,
supermarket,supermarket,Toko Revan,"M953+84M, Air buaya, Kec. Kairatu, Kabupaten Seram Bagian Barat, Maluku","Kabupaten Seram Bagian Barat, Maluku",MALUKU,,Indonesia,85244720410.0,,,-3.341675,128.352798,https://maps.google.com/?cid=0x0:0xa0eba5cae78e8753,
supermarket,Toko,INDOMARET RAYA KAIRATU,"J9HG+7FC, Jl. Trans Seram, Kairatu, Kec. Kairatu, Kabupaten Seram Bagian Barat, Maluku","Kabupaten Seram Bagian Barat, Maluku",MALUKU,,Indonesia,,,,-3.3716504,128.376036,https://maps.google.com/?cid=0x0:0xd90f3b3197c4449d,
supermarket,Toko,Toko Indah lestari WAIHATU,"P86G+M4M, Unnamed Road, Waihatu, Kec. Kairatu Bar., Kabupaten Seram Bagian Barat, Maluku","Kabupaten Seram Bagian Barat, Maluku",MALUKU,,Indonesia,82248040163.0,,,-3.2882868,128.3253115,https://maps.google.com/?cid=0x0:0x8b7b9361ba6d631e,
supermarket,Pusat Perbelanjaan,Fajar Mart,"W5MV+PFF, Piru, Kec. Seram Bar., Kabupaten Seram Bagian Barat, Maluku","Kabupaten Seram Bagian Barat, Maluku",MALUKU,,Indonesia,,,,-3.0656914,128.1936727,https://maps.google.com/?cid=0x0:0x40a2277adf2e3d56,
supermarket,Toko Swalayan,Toko BERKAT,"Jln. Kilo Meter 1 Desa, Piru, Kec. Seram Bar., Kabupaten Seram Bagian Barat, Maluku 97562","Piru, Kec. Seram Bar., Kabupaten Seram Bagian Barat",MALUKU,97562.0,Indonesia,82198199553.0,,,-3.0634416,128.1884682,https://maps.google.com/?cid=0x0:0x500d00816c760cb9,
supermarket,supermarket,Kec. Seram Bar.,"Kabupaten Seram Bagian Barat, Maluku","Kabupaten Seram Bagian Barat, Maluku",MALUKU,,Indonesia,,,,-3.0650683,128.194492,https://maps.google.com/?cid=0x0:0xd1612bfbfbd97a94,
supermarket,Toko Swalayan,Minimarket Denny,"W5JX+JMX, Piru, Kec. Seram Bar., Kabupaten Seram Bagian Barat, Maluku","Kabupaten Seram Bagian Barat, Maluku",MALUKU,,Indonesia,,,,-3.0683976,128.1992399,https://maps.google.com/?cid=0x0:0x98758077fb08da7b,
supermarket,Toko Swalayan,SINAR MART,"Jl. Trans Seram, Barat, Piru, Kec. Seram Bar., Kabupaten Seram Bagian Barat, Maluku","Kabupaten Seram Bagian Barat, Maluku",MALUKU,,Indonesia,,,,-3.0705292,128.2004269,https://maps.google.com/?cid=0x0:0xba952c381ba33726,
supermarket,supermarket,Alfamidi,"W6G2+XVJ, Piru, Kec. Seram Bar., Kabupaten Seram Bagian Barat, Maluku","Kabupaten Seram Bagian Barat, Maluku",MALUKU,,Indonesia,,,,-3.0725465,128.2021664,https://maps.google.com/?cid=0x0:0x4ff98f486ca53cbf,
supermarket,Toko bahan makanan,PONDOK INTAN,"W5HX+Q6W, Piru, Kec. Seram Bar., Kabupaten Seram Bagian Barat, Maluku","Kabupaten Seram Bagian Barat, Maluku",MALUKU,,Indonesia,,,,-3.0705121,128.1980998,https://maps.google.com/?cid=0x0:0xd4318b8d6b0ff8a9,
supermarket,Toko Swalayan,Toko Christi Power,"W5PR+C7Q, Unnamed Road, Piru, Kec. Seram Bar., Kabupaten Seram Bagian Barat, Maluku","Kabupaten Seram Bagian Barat, Maluku",MALUKU,,Indonesia,,,,-3.0639061,128.1907379,https://maps.google.com/?cid=0x0:0x9301b90e7ffab58d,
supermarket,Toko bahan makanan,Pondok Lissa,"W5PW+G7G, Piru, Kec. Seram Bar., Kabupaten Seram Bagian Barat, Maluku","Kabupaten Seram Bagian Barat, Maluku",MALUKU,,Indonesia,81247747435.0,,,-3.0636902,128.1957018,https://maps.google.com/?cid=0x0:0x4a8cb2a396590c05,
supermarket,Minimarket,Indomaret Mata Empat,"W658+5J9, Etty, Kec. Seram Bar., Kabupaten Seram Bagian Barat, Maluku","Kabupaten Seram Bagian Barat, Maluku",MALUKU,,Indonesia,,,,-3.0918066,128.2164155,https://maps.google.com/?cid=0x0:0x29b982770544e794,
supermarket,Toko bahan makanan,Kios 3 Saudara,"Jln. Trans, Telaga Jl. Raya Piru-Luhu No.5, Piru, Kec. Seram Bar., Kabupaten Seram Bagian Barat, Maluku 97652","Telaga Jl. Raya Piru-Luhu No.5, Piru, Kec. Seram Bar., Kabupaten Seram Bagian Barat",MALUKU,97652.0,Indonesia,,,,-3.0967999,128.1247141,https://maps.google.com/?cid=0x0:0x87624b75ab560365,
supermarket,supermarket,Kius tiwi cake,"Lorong mesjit No.Rt 05, Etty, Kec. Seram Bar., Kabupaten Seram Bagian Barat, Maluku","Kabupaten Seram Bagian Barat, Maluku",MALUKU,,Indonesia,,,,-3.1107899,128.2216491,https://maps.google.com/?cid=0x0:0x543e0d959dcefa1b,
supermarket,Pasar tradisional,Pasar Rakyat Kota Piru,"W5MW+FM6, Jl. Trans Seram, Piru, Kec. Seram Bar., Kabupaten Seram Bagian Barat, Maluku","Kabupaten Seram Bagian Barat, Maluku",MALUKU,,Indonesia,,,,-3.0663393,128.1966412,https://maps.google.com/?cid=0x0:0x52d600a8eac3e77f,
supermarket,Toko Swalayan,Jualan kepiting,"W3HQ+CRG, Piru, Kec. Seram Bar., Kabupaten Seram Bagian Barat, Maluku","Kabupaten Seram Bagian Barat, Maluku",MALUKU,,Indonesia,,,,-3.0707616,128.0898222,https://maps.google.com/?cid=0x0:0xa18268b28f473320,
supermarket,Toko Fotokopi,Toko Super Media,"Jl. Trans Seram, Piru, Kec. Seram Bar., Kabupaten Seram Bagian Barat, Maluku","Kabupaten Seram Bagian Barat, Maluku",MALUKU,,Indonesia,85254085550.0,,,-3.0794138,128.2063444,https://maps.google.com/?cid=0x0:0x3e6ded35fe5711e3,
supermarket,Minimarket,TOKO ADHIJUSAN,"HMJP+4H5, Tomalehu, Kec. Amalatu, Kabupaten Seram Bagian Barat, Maluku","Kabupaten Seram Bagian Barat, Maluku",MALUKU,,Indonesia,,,,-3.4197363,128.6864855,https://maps.google.com/?cid=0x0:0x289c841af2500881,
supermarket,Toserba,Inafut Swalayan,"M982+FXH, Waimital, Kec. Kairatu, Kabupaten Seram Bagian Barat, Maluku","Kabupaten Seram Bagian Barat, Maluku",MALUKU,,Indonesia,,,,-3.3338178,128.3524887,https://maps.google.com/?cid=0x0:0x73bd5cabf20bb96c,
supermarket,Toko,Kios Nur Afia,"Jln. Trans, Telaga Jl. Raya Piru-Luhu No.5, Piru, Kec. Seram Bar., Kabupaten Seram Bagian Barat, Maluku 97652","Telaga Jl. Raya Piru-Luhu No.5, Piru, Kec. Seram Bar., Kabupaten Seram Bagian Barat",MALUKU,97652.0,Indonesia,,,,-3.096119,128.1255794,https://maps.google.com/?cid=0x0:0xce9c75d1131d5b53,
supermarket,Toko umum,NR mart,"M966+FPM, Waimital, Kec. Kairatu, Kabupaten Seram Bagian Barat, Maluku","Kabupaten Seram Bagian Barat, Maluku",MALUKU,,Indonesia,,,,-3.3387803,128.3617883,https://maps.google.com/?cid=0x0:0x40c16dcda67aed04,
supermarket,Toko Swalayan,The Gourmet by Ranch Market,"ASHTA Lantai Dasar Unit LG-01, Jl. Senopati No.Raya, RT.8/RW.3, Senayan, Kec. Kby. Baru, Kota Jakarta Selatan, Daerah Khusus Ibukota Jakarta 12190","Jl. Senopati No.Raya, RT.8/RW.3, Senayan, Kec. Kby. Baru, Kota Jakarta Selatan",MALUKU,12190.0,Indonesia,81282091909.0,,,-6.2292324,106.8067785,https://maps.google.com/?cid=0x0:0x32d5081bb2c4af19,
supermarket,Pasar,Santa Swalayan,"Jl. Wolter Monginsidi No.82 2, RT.2/RW.4, Petogogan, Kec. Kby. Baru, Kota Jakarta Selatan, Daerah Khusus Ibukota Jakarta 12170","RT.2/RW.4, Petogogan, Kec. Kby. Baru, Kota Jakarta Selatan",MALUKU,12170.0,Indonesia,217222006.0,,,-6.239018,106.8124009,https://maps.google.com/?cid=0x0:0xb4cafd99972d232f,
supermarket,Toko Swalayan,Toko istiqomah,"M983+C3G, Jl. Trans Seram, Waimital, Kec. Kairatu, Kabupaten Seram Bagian Barat, Maluku","Kabupaten Seram Bagian Barat, Maluku",MALUKU,,Indonesia,82197970083.0,,,-3.3339433,128.352715,https://maps.google.com/?cid=0x0:0x63ad95867c1f8c68,
supermarket,Toko Swalayan,Naga Swalayan Pondok Gede,"Plaza Pd. Gede, Jl. Raya Pd. Gede Lt.1, RT.001/RW.001, Jatiwaringin, Kec. Pd. Gede, Kota Bks, Jawa Barat 17411","Jl. Raya Pd. Gede Lt.1, RT.001/RW.001, Jatiwaringin, Kec. Pd. Gede, Kota Bks",MALUKU,17411.0,Indonesia,218465909.0,,,-6.2849924,106.9118489,https://maps.google.com/?cid=0x0:0x3e6be2f7672cf373,
supermarket,Toko Swalayan,GS The Fresh Mampang,"Jl. Buncit Raya No.301, Duren Tiga, Kec. Pancoran, Kota Jakarta Selatan, Daerah Khusus Ibukota Jakarta 12760","Duren Tiga, Kec. Pancoran, Kota Jakarta Selatan",MALUKU,12760.0,Indonesia,2126961986.0,,,-6.256991,106.828987,https://maps.google.com/?cid=0x0:0x47a84d3b86619147,
supermarket,Toko Swalayan,GS THE FRESH JATIBENING,"Jl. Caman Raya No.7-24, RT.004/RW.003, Jatibening, Kec. Pd. Gede, Kota Bks, Jawa Barat 17412","RT.004/RW.003, Jatibening, Kec. Pd. Gede, Kota Bks",MALUKU,17412.0,Indonesia,2184982211.0,,,-6.2676455,106.9436409,https://maps.google.com/?cid=0x0:0x2cdb50c3ee3206c,
supermarket,Toko Roti,Kios Irma Adnan,"JW4M+9VG, Luhu, Huamual Belakang, Kabupaten Seram Bagian Barat,Hatawano, Maluku, Luhu, Kec. Huamual Belakang, Kabupaten Seram Bagian Barat, Maluku","Kabupaten Seram Bagian Barat, Maluku",MALUKU,,Indonesia,82199422325.0,,,-3.3940558,127.934692,https://maps.google.com/?cid=0x0:0xb0ee7647e70fb0d3,
supermarket,Toko umum,Kios Darsip,"HJF7+RG3, Jl. Trans Seram, Latu, Kec. Amalatu, Kabupaten Seram Bagian Barat, Maluku","Kabupaten Seram Bagian Barat, Maluku",MALUKU,,Indonesia,82238521504.0,,,-3.4254894,128.6137998,https://maps.google.com/?cid=0x0:0xc0791cff07368fd2,
supermarket,Toko umum,Kios Lila,"Jl. Kota raja No.Blok B, Luhu, Kec. Huamual Belakang, Kabupaten Seram Bagian Barat, Maluku","Kabupaten Seram Bagian Barat, Maluku",MALUKU,,Indonesia,82198695633.0,,,-3.3886236,127.9813628,https://maps.google.com/?cid=0x0:0x2488d0ff56a2aedc,
supermarket,supermarket,Taniwel,"Taniwel, Kec. Taniwel, Kabupaten Seram Bagian Barat, Maluku","Kabupaten Seram Bagian Barat, Maluku",MALUKU,,Indonesia,,,,-2.875471,128.4478,https://maps.google.com/?cid=0x0:0x8714c1fa90eff15e,
supermarket,Toko Swalayan,Ranch Market Grand Indonesia,"Grand Indonesia Shoping Town East Mall, Jl. MH Thamrin No.1 Lantai LG, RT.1/RW.5, Menteng, Kec. Menteng, Kota Jakarta Pusat, Daerah Khusus Ibukota Jakarta 10310","Jl. MH Thamrin No.1 Lantai LG, RT.1/RW.5, Menteng, Kec. Menteng, Kota Jakarta Pusat",MALUKU,10310.0,Indonesia,2123599054.0,,,-6.1963902,106.8225851,https://maps.google.com/?cid=0x0:0xdb199471a47076d0,
supermarket,Pom bensin/SPBU,Indomaret Taniwel,"5F2P+HG, Taniwel, Kec. Taniwel, Kabupaten Seram Bagian Barat, Maluku","Kabupaten Seram Bagian Barat, Maluku",MALUKU,,Indonesia,,,,-2.8485585,128.4862718,https://maps.google.com/?cid=0x0:0xb04a0d48beeaeab,
supermarket,Toko Swalayan,The FoodHall - Grand Indonesia,"Grand Indonesia shopping West Mall, Jl. M.H. Thamrin No.1 LG Floor, Kb. Melati, Kecamatan Tanah Abang, Kota Jakarta Pusat, Daerah Khusus Ibukota Jakarta 10350","Jl. M.H. Thamrin No.1 LG Floor, Kb. Melati, Kecamatan Tanah Abang, Kota Jakarta Pusat",MALUKU,10350.0,Indonesia,85973703191.0,,,-6.1954464,106.8197669,https://maps.google.com/?cid=0x0:0x4a1351e22f783bb,
supermarket,supermarket,Kios 3D,"4FXG+JV4, Taniwel, Kec. Taniwel, Kabupaten Seram Bagian Barat, Maluku","Kabupaten Seram Bagian Barat, Maluku",MALUKU,,Indonesia,82239560263.0,,,-2.8509769,128.4772187,https://maps.google.com/?cid=0x0:0x42032b2184ea1e47,
supermarket,Toko,TANIMBAR SWALAYAN,"2894+54M, Jl. Ir. Soekarno, Saumlaki, Tanimbar Sel., Kab. Kepulauan Tanimbar, Maluku","Kab. Kepulauan Tanimbar, Maluku",MALUKU,,Indonesia,,,,-7.9820458,131.3053088,https://maps.google.com/?cid=0x0:0x664828f2a046a570,
supermarket,supermarket,Kios mm julianty,"PW58+F6R, Luhu, Kec. Huamual Belakang, Kabupaten Seram Bagian Barat, Maluku","Kabupaten Seram Bagian Barat, Maluku",MALUKU,,Indonesia,,,,-3.2912702,127.9155048,https://maps.google.com/?cid=0x0:0xbb0a890f4475ee7c,
supermarket,Toko Swalayan,Toko Bu Netti,"XWWX+5QG, Unnamed Road, Wailoping, Kec. Seram Utara Tim. Seti, Kabupaten Maluku Tengah, Maluku","Kabupaten Maluku Tengah, Maluku",MALUKU,,Indonesia,82228003242.0,,,-3.004556,129.949467,https://maps.google.com/?cid=0x0:0xc396e96e853eb8f3,
supermarket,supermarket,Waesala,"Kec. Huamual Belakang, Kabupaten Seram Bagian Barat, Maluku","Kabupaten Seram Bagian Barat, Maluku",MALUKU,,Indonesia,,,,-3.1946096,127.9572703,https://maps.google.com/?cid=0x0:0xe960ac9124dc066f,
supermarket,Toko,Toko Sembako Balqis,"Dusun Temi, Luhu, Kec. Huamual Belakang, Kabupaten Seram Bagian Barat, Maluku","Kabupaten Seram Bagian Barat, Maluku",MALUKU,,Indonesia,82137079482.0,,,-3.3031219,127.9240549,https://maps.google.com/?cid=0x0:0x9efb56804c71c5c1,
supermarket,Toko bahan makanan,Pasar Waesala,"VW3C+VQF, Jl. Syaikh Khidhir Al-Mulkiy, Waesala, Kec. Huamual Belakang, Kabupaten Seram Bagian Barat, Maluku","Kabupaten Seram Bagian Barat, Maluku",MALUKU,,Indonesia,81343270030.0,,,-3.1453243,127.9219299,https://maps.google.com/?cid=0x0:0xc4a33c95f4376a3f,
supermarket,Toko bahan makanan,Toko Rahmat,"Waesala, Kec. Huamual Belakang, Kabupaten Seram Bagian Barat, Maluku","Kabupaten Seram Bagian Barat, Maluku",MALUKU,,Indonesia,,,,-3.1462388,127.9207521,https://maps.google.com/?cid=0x0:0xc1edef82541db3bb,
supermarket,Toko umum,Kios Lila,"Jl. Kota raja No.Blok B, Luhu, Kec. Huamual Belakang, Kabupaten Seram Bagian Barat, Maluku","Kabupaten Seram Bagian Barat, Maluku",MALUKU,,Indonesia,82198695633.0,,,-3.3886236,127.9813628,https://maps.google.com/?cid=0x0:0x2488d0ff56a2aedc,
supermarket,Toko,Toko ishak,"PW83+C5C, Waesala, Kec. Huamual Belakang, Kabupaten Seram Bagian Barat, Maluku","Kabupaten Seram Bagian Barat, Maluku",MALUKU,,Indonesia,,,,-3.2839324,127.9028756,https://maps.google.com/?cid=0x0:0xd24a7f2efdaabdfb,
supermarket,Pusat Perbelanjaan,Winkel Supermarket,"VFXR+3QM, Bula, Kec. Bula, Kabupaten Seram Bagian Timur, Maluku","Kabupaten Seram Bagian Timur, Maluku",MALUKU,,Indonesia,81240251423.0,,,-3.1022975,130.4919094,https://maps.google.com/?cid=0x0:0xcc0933f2fab5253f,
supermarket,Toko Roti,Kios Irma Adnan,"JW4M+9VG, Luhu, Huamual Belakang, Kabupaten Seram Bagian Barat,Hatawano, Maluku, Luhu, Kec. Huamual Belakang, Kabupaten Seram Bagian Barat, Maluku","Kabupaten Seram Bagian Barat, Maluku",MALUKU,,Indonesia,82199422325.0,,,-3.3940558,127.934692,https://maps.google.com/?cid=0x0:0xb0ee7647e70fb0d3,
supermarket,Toko Perlengkapan Rumah,KIOS WATI,"Waesala, Kec. Huamual Belakang, Kabupaten Seram Bagian Barat, Maluku","Kabupaten Seram Bagian Barat, Maluku",MALUKU,,Indonesia,,,,-3.20807,127.8744586,https://maps.google.com/?cid=0x0:0xcc9c267cde1b9cac,
supermarket,Toko,Kios Wali,"PW74+W8P, Dusun Tapinalu, Waesala, Kec. Huamual Belakang, Kabupaten Seram Bagian Barat, Maluku","Kabupaten Seram Bagian Barat, Maluku",MALUKU,,Indonesia,,,,-3.2851712,127.90582,https://maps.google.com/?cid=0x0:0xf534f8f76b66e9c,
supermarket,Toko Swalayan,Winkel Supermarket,"96FG+323, Waiheru, Kec. Baguala, Kota Ambon, Maluku","Kota Ambon, Maluku",MALUKU,,Indonesia,9113869351.0,,,-3.6273656,128.2250609,https://maps.google.com/?cid=0x0:0xec37cd1cfdfa6412,
supermarket,Pusat Perbelanjaan,RISEL AUDIO,"Waesala, Kec. Huamual Belakang, Kabupaten Seram Bagian Barat, Maluku 97532","Kec. Huamual Belakang, Kabupaten Seram Bagian Barat",MALUKU,97532.0,Indonesia,82197778093.0,,,-3.1649651,127.8426782,https://maps.google.com/?cid=0x0:0x7d7de65746dbf56,
supermarket,Kios,Kios mm Desi,"QQ34+63H, Pulau Kelang, Waisala, Tahalupu, Kec. Huamual Belakang, Kabupaten Seram Bagian Barat, Maluku","Kabupaten Seram Bagian Barat, Maluku",MALUKU,,Indonesia,,,,-3.2458392,127.7543748,https://maps.google.com/?cid=0x0:0xb082c92adb13a968,
supermarket,Toko bahan makanan,Fera,"M3V5+3QX, Lokki, Kec. Huamual Belakang, Kabupaten Seram Bagian Barat, Maluku","Kabupaten Seram Bagian Barat, Maluku",MALUKU,,Indonesia,,,,-3.3075855,128.0593265,https://maps.google.com/?cid=0x0:0x9bcda2b1106f30bc,
supermarket,supermarket,waesala,"VW4F+GX, Waesala, Kec. Huamual Belakang, Kabupaten Seram Bagian Barat, Maluku","Kabupaten Seram Bagian Barat, Maluku",MALUKU,,Indonesia,,,,-3.143638,127.92489,https://maps.google.com/?cid=0x0:0x363c71d2bd0be109,
supermarket,supermarket,Kios Mama Fitri,"PW83+HC7, Waesala, Kec. Huamual Belakang, Kabupaten Seram Bagian Barat, Maluku","Kabupaten Seram Bagian Barat, Maluku",MALUKU,,Indonesia,,,,-3.283597,127.9035537,https://maps.google.com/?cid=0x0:0x6303494bc534516,
supermarket,supermarket,Kec. Amalatu,"Kabupaten Seram Bagian Barat, Maluku","Kabupaten Seram Bagian Barat, Maluku",MALUKU,,Indonesia,,,,-3.4079418,128.6921861,https://maps.google.com/?cid=0x0:0xb6a4667e86dc46e1,
supermarket,Minimarket,TOKO ADHIJUSAN,"HMJP+4H5, Tomalehu, Kec. Amalatu, Kabupaten Seram Bagian Barat, Maluku","Kabupaten Seram Bagian Barat, Maluku",MALUKU,,Indonesia,,,,-3.4197363,128.6864855,https://maps.google.com/?cid=0x0:0x289c841af2500881,
supermarket,Toko,Toko MIFAL (Abu Mussa),"Latu, Kec. Amalatu, Kabupaten Seram Bagian Barat, Maluku","Kabupaten Seram Bagian Barat, Maluku",MALUKU,,Indonesia,82239710906.0,,,-3.4199702,128.6880346,https://maps.google.com/?cid=0x0:0x3d6c329fded0ebd0,
supermarket,Toko umum,Kios Darsip,"HJF7+RG3, Jl. Trans Seram, Latu, Kec. Amalatu, Kabupaten Seram Bagian Barat, Maluku","Kabupaten Seram Bagian Barat, Maluku",MALUKU,,Indonesia,82238521504.0,,,-3.4254894,128.6137998,https://maps.google.com/?cid=0x0:0xc0791cff07368fd2,
supermarket,Toko umum,KIOS RIZKY:H,"HMVR+2XQ, Hualoy, Kec. Amalatu, Kabupaten Seram Bagian Barat, Maluku","Kabupaten Seram Bagian Barat, Maluku",MALUKU,,Indonesia,82399215276.0,,,-3.4074066,128.692482,https://maps.google.com/?cid=0x0:0x7b33aacac5ff8ce3,
supermarket,Toko Swalayan,Bri Link Adhitya Pattimura88,"HMJP+3J8, Latu, Kec. Amalatu, Kabupaten Seram Bagian Barat, Maluku","Kabupaten Seram Bagian Barat, Maluku",MALUKU,,Indonesia,81314159494.0,,,-3.4198454,128.6865931,https://maps.google.com/?cid=0x0:0x1a28f1d8667655d2,
supermarket,supermarket,Kec. Inamosol,"Kabupaten Seram Bagian Barat, Maluku","Kabupaten Seram Bagian Barat, Maluku",MALUKU,,Indonesia,,,,-3.2334031,128.4500616,https://maps.google.com/?cid=0x0:0x5bec28e34f3cb18d,
supermarket,Toserba,Inafut Swalayan,"M982+FXH, Waimital, Kec. Kairatu, Kabupaten Seram Bagian Barat, Maluku","Kabupaten Seram Bagian Barat, Maluku",MALUKU,,Indonesia,,,,-3.3338178,128.3524887,https://maps.google.com/?cid=0x0:0x73bd5cabf20bb96c,
supermarket,Toko Swalayan,Toko istiqomah,"M983+C3G, Jl. Trans Seram, Waimital, Kec. Kairatu, Kabupaten Seram Bagian Barat, Maluku","Kabupaten Seram Bagian Barat, Maluku",MALUKU,,Indonesia,82197970083.0,,,-3.3339433,128.352715,https://maps.google.com/?cid=0x0:0x63ad95867c1f8c68,
supermarket,Pusat Perbelanjaan,Winkel Supermarket,"VFXR+3QM, Bula, Kec. Bula, Kabupaten Seram Bagian Timur, Maluku","Kabupaten Seram Bagian Timur, Maluku",MALUKU,,Indonesia,81240251423.0,,,-3.1022975,130.4919094,https://maps.google.com/?cid=0x0:0xcc0933f2fab5253f,
supermarket,Toko umum,NR mart,"M966+FPM, Waimital, Kec. Kairatu, Kabupaten Seram Bagian Barat, Maluku","Kabupaten Seram Bagian Barat, Maluku",MALUKU,,Indonesia,,,,-3.3387803,128.3617883,https://maps.google.com/?cid=0x0:0x40c16dcda67aed04,
supermarket,Toko sembako pemerintah,Toko Dewi,"M993+5GR, Waimital, Kec. Kairatu, Kabupaten Seram Bagian Barat, Maluku","Kabupaten Seram Bagian Barat, Maluku",MALUKU,,Indonesia,,,,-3.3320021,128.3537627,https://maps.google.com/?cid=0x0:0x6dd5079f643a1a83,
supermarket,Toko Swalayan,Toko Sampoerna kairatu,"M949+566, Jl. Trans Seram, Kairatu, Kec. Kairatu, Kabupaten Seram Bagian Barat, Maluku","Kabupaten Seram Bagian Barat, Maluku",MALUKU,,Indonesia,85243366000.0,,,-3.344584,128.3680198,https://maps.google.com/?cid=0x0:0xff052aaf73848d0f,
supermarket,Pusat Perbelanjaan,Toko Grosir PODOMORO,"M982+MRJ, Jl. Trans Seram, Waimital, Kec. Kairatu, Kabupaten Seram Bagian Barat, Maluku","Kabupaten Seram Bagian Barat, Maluku",MALUKU,,Indonesia,,,,-3.3332784,128.3520068,https://maps.google.com/?cid=0x0:0x597b0b147edfa7d5,
supermarket,Toko Swalayan,Winkel Supermarket,"96FG+323, Waiheru, Kec. Baguala, Kota Ambon, Maluku","Kota Ambon, Maluku",MALUKU,,Indonesia,9113869351.0,,,-3.6273656,128.2250609,https://maps.google.com/?cid=0x0:0xec37cd1cfdfa6412,
supermarket,Toko,Toko Alia Jaya,"M982+RJ5, Waimital, Kec. Kairatu, Kabupaten Seram Bagian Barat, Maluku","Kabupaten Seram Bagian Barat, Maluku",MALUKU,,Indonesia,82398674722.0,,,-3.3329871,128.3516149,https://maps.google.com/?cid=0x0:0xdf8dd29fc0b99599,
supermarket,Pusat Perbelanjaan,Hypermart Maluku City Mall,"Jalan Jend. Sudirman, Hative Kecil, Kec. Sirimau, Kota Ambon, Maluku","Kota Ambon, Maluku",MALUKU,,Indonesia,911319999.0,,,-3.6702679,128.1981163,https://maps.google.com/?cid=0x0:0xf361af34b2474744,
supermarket,Toko umum,Toko Sembako WILKAZAN,"M974+GGM, Depan balai desa Jl. Trans Seram, Waimital, Kec. Kairatu, Kabupaten Seram Bagian Barat, Maluku","Kabupaten Seram Bagian Barat, Maluku",MALUKU,,Indonesia,85354745544.0,,,-3.3361663,128.3563117,https://maps.google.com/?cid=0x0:0x47a65e8cd52ba881,
supermarket,Toko umum,Kios Darsip,"HJF7+RG3, Jl. Trans Seram, Latu, Kec. Amalatu, Kabupaten Seram Bagian Barat, Maluku","Kabupaten Seram Bagian Barat, Maluku",MALUKU,,Indonesia,82238521504.0,,,-3.4254894,128.6137998,https://maps.google.com/?cid=0x0:0xc0791cff07368fd2,
supermarket,Toko umum,KIOS RIZKY:H,"HMVR+2XQ, Hualoy, Kec. Amalatu, Kabupaten Seram Bagian Barat, Maluku","Kabupaten Seram Bagian Barat, Maluku",MALUKU,,Indonesia,82399215276.0,,,-3.4074066,128.692482,https://maps.google.com/?cid=0x0:0x7b33aacac5ff8ce3,
supermarket,Toko bahan makanan,Toko Niar's,"WF69+GMR, Jl. Wailola, Bula, Kec. Bula, Kabupaten Seram Bagian Timur, Maluku","Kabupaten Seram Bagian Timur, Maluku",MALUKU,,Indonesia,,,,-3.0886403,130.469127,https://maps.google.com/?cid=0x0:0xea09b41d510f6cce,
supermarket,Minimarket,al_FATIH's,"Jl. Trans Seram No.Km.4, Desa Kelapa Dua, Kec. Kairatu, Kabupaten Seram Bagian Barat, Maluku","Kabupaten Seram Bagian Barat, Maluku",MALUKU,,Indonesia,82293750019.0,,,-3.3825281,128.3829358,https://maps.google.com/?cid=0x0:0x24d2a6eeebd51e7a,
supermarket,Toko,Toko Indah lestari WAIHATU,"P86G+M4M, Unnamed Road, Waihatu, Kec. Kairatu Bar., Kabupaten Seram Bagian Barat, Maluku","Kabupaten Seram Bagian Barat, Maluku",MALUKU,,Indonesia,82248040163.0,,,-3.2882868,128.3253115,https://maps.google.com/?cid=0x0:0x8b7b9361ba6d631e,
supermarket,Toko sembako pemerintah,Toko Tiga Putri,"M975+3C7, Jl. Trans Seram, Waimital, Kec. Kairatu, Kabupaten Seram Bagian Barat, Maluku","Kabupaten Seram Bagian Barat, Maluku",MALUKU,,Indonesia,,,,-3.3373562,128.3586755,https://maps.google.com/?cid=0x0:0x47c3b67a8bc3ac1d,
supermarket,Toko Swalayan,Minimarket Valentine Kairatu,"M948+PW9, Jl. Trans Seram, Kelurahan Riuapa, Kec. Kairatu, Kabupaten Seram Bagian Barat, Maluku 97566","Jl. Trans Seram, Kelurahan Riuapa, Kec. Kairatu, Kabupaten Seram Bagian Barat",MALUKU,97566.0,Indonesia,82234562657.0,,,-3.343207,128.3673681,https://maps.google.com/?cid=0x0:0x8cebcc8a530873aa,
supermarket,Toko,Toko MIFAL (Abu Mussa),"Latu, Kec. Amalatu, Kabupaten Seram Bagian Barat, Maluku","Kabupaten Seram Bagian Barat, Maluku",MALUKU,,Indonesia,82239710906.0,,,-3.4199702,128.6880346,https://maps.google.com/?cid=0x0:0x3d6c329fded0ebd0,
supermarket,Pasar,Pasar Waihatu,"P86C+CRQ, Waihatu, Kec. Kairatu Bar., Kabupaten Seram Bagian Barat, Maluku","Kabupaten Seram Bagian Barat, Maluku",MALUKU,,Indonesia,,,,-3.2889217,128.3221032,https://maps.google.com/?cid=0x0:0x2cee3e8b22f4a943,
supermarket,Toko,YANMart Talagasari Cikupa,"Talagasari, Kec. Cikupa, Kabupaten Tangerang, Banten 15710","Kec. Cikupa, Kabupaten Tangerang",MALUKU,15710.0,Indonesia,2122028972.0,,,-6.2272768,106.5196286,https://maps.google.com/?cid=0x0:0xd1e4cf77e60ffe96,
supermarket,Toko,Toko Malaysia,"HMVR+JVX, Hualoy, Kec. Amalatu, Kabupaten Seram Bagian Barat, Maluku","Kabupaten Seram Bagian Barat, Maluku",MALUKU,,Indonesia,,,,-3.4058985,128.6922239,https://maps.google.com/?cid=0x0:0xf6d08d45e4afd85d,
supermarket,Toko Swalayan,Toko Sampoerna kairatu,"M949+566, Jl. Trans Seram, Kairatu, Kec. Kairatu, Kabupaten Seram Bagian Barat, Maluku","Kabupaten Seram Bagian Barat, Maluku",MALUKU,,Indonesia,85243366000.0,,,-3.344584,128.3680198,https://maps.google.com/?cid=0x0:0xff052aaf73848d0f,
supermarket,Toko umum,NR mart,"M966+FPM, Waimital, Kec. Kairatu, Kabupaten Seram Bagian Barat, Maluku","Kabupaten Seram Bagian Barat, Maluku",MALUKU,,Indonesia,,,,-3.3387803,128.3617883,https://maps.google.com/?cid=0x0:0x40c16dcda67aed04,
supermarket,Toserba,Inafut Swalayan,"M982+FXH, Waimital, Kec. Kairatu, Kabupaten Seram Bagian Barat, Maluku","Kabupaten Seram Bagian Barat, Maluku",MALUKU,,Indonesia,,,,-3.3338178,128.3524887,https://maps.google.com/?cid=0x0:0x73bd5cabf20bb96c,
supermarket,Toko sembako pemerintah,Toko Dewi,"M993+5GR, Waimital, Kec. Kairatu, Kabupaten Seram Bagian Barat, Maluku","Kabupaten Seram Bagian Barat, Maluku",MALUKU,,Indonesia,,,,-3.3320021,128.3537627,https://maps.google.com/?cid=0x0:0x6dd5079f643a1a83,
supermarket,Pasar,Pasar Kairatu,"J9W7+632, Kairatu, Kec. Kairatu, Kabupaten Seram Bagian Barat, Maluku","Kabupaten Seram Bagian Barat, Maluku",MALUKU,,Indonesia,,,,-3.3544944,128.362627,https://maps.google.com/?cid=0x0:0x40cfda048fce3c66,
supermarket,Toko,INDOMARET RAYA KAIRATU,"J9HG+7FC, Jl. Trans Seram, Kairatu, Kec. Kairatu, Kabupaten Seram Bagian Barat, Maluku","Kabupaten Seram Bagian Barat, Maluku",MALUKU,,Indonesia,,,,-3.3716504,128.376036,https://maps.google.com/?cid=0x0:0xd90f3b3197c4449d,
supermarket,Toko Swalayan,Minimarket Valentine Kairatu,"M948+PW9, Jl. Trans Seram, Kelurahan Riuapa, Kec. Kairatu, Kabupaten Seram Bagian Barat, Maluku 97566","Jl. Trans Seram, Kelurahan Riuapa, Kec. Kairatu, Kabupaten Seram Bagian Barat",MALUKU,97566.0,Indonesia,82234562657.0,,,-3.343207,128.3673681,https://maps.google.com/?cid=0x0:0x8cebcc8a530873aa,
supermarket,Toko sembako pemerintah,Toko Tiga Putri,"M975+3C7, Jl. Trans Seram, Waimital, Kec. Kairatu, Kabupaten Seram Bagian Barat, Maluku","Kabupaten Seram Bagian Barat, Maluku",MALUKU,,Indonesia,,,,-3.3373562,128.3586755,https://maps.google.com/?cid=0x0:0x47c3b67a8bc3ac1d,
supermarket,Toko umum,Toko Sembako WILKAZAN,"M974+GGM, Depan balai desa Jl. Trans Seram, Waimital, Kec. Kairatu, Kabupaten Seram Bagian Barat, Maluku","Kabupaten Seram Bagian Barat, Maluku",MALUKU,,Indonesia,85354745544.0,,,-3.3361663,128.3563117,https://maps.google.com/?cid=0x0:0x47a65e8cd52ba881,
supermarket,Toko,Toko Indah lestari WAIHATU,"P86G+M4M, Unnamed Road, Waihatu, Kec. Kairatu Bar., Kabupaten Seram Bagian Barat, Maluku","Kabupaten Seram Bagian Barat, Maluku",MALUKU,,Indonesia,82248040163.0,,,-3.2882868,128.3253115,https://maps.google.com/?cid=0x0:0x8b7b9361ba6d631e,
supermarket,Pusat Perbelanjaan,Toko Grosir PODOMORO,"M982+MRJ, Jl. Trans Seram, Waimital, Kec. Kairatu, Kabupaten Seram Bagian Barat, Maluku","Kabupaten Seram Bagian Barat, Maluku",MALUKU,,Indonesia,,,,-3.3332784,128.3520068,https://maps.google.com/?cid=0x0:0x597b0b147edfa7d5,
supermarket,Toko bahan makanan,Inafut Swalayan dan Grosir,"M966+GM6, Jl. Trans Seram, Waimital, Kec. Kairatu, Kabupaten Seram Bagian Barat, Maluku","Kabupaten Seram Bagian Barat, Maluku",MALUKU,,Indonesia,,,,-3.338723,128.3616465,https://maps.google.com/?cid=0x0:0xdec70eb10050d91c,
supermarket,Toko,Mafazaa Store,"Jl, Waimital, Kec. Kairatu, Kabupaten Seram Bagian Barat, Maluku 97566","Waimital, Kec. Kairatu, Kabupaten Seram Bagian Barat",MALUKU,97566.0,Indonesia,82144248360.0,,,-3.337487,128.3515624,https://maps.google.com/?cid=0x0:0x82c8f3e3285b7267,
supermarket,Toko Ponsel,Toko IBU HAR/ CITRA CELL,"Waimital, Kec. Kairatu, Kabupaten Seram Bagian Barat, Maluku","Kabupaten Seram Bagian Barat, Maluku",MALUKU,,Indonesia,85243079114.0,,,-3.3349095,128.3522476,https://maps.google.com/?cid=0x0:0xec0ad68d44604591,
supermarket,Pasar,Pasar Waihatu,"P86C+CRQ, Waihatu, Kec. Kairatu Bar., Kabupaten Seram Bagian Barat, Maluku","Kabupaten Seram Bagian Barat, Maluku",MALUKU,,Indonesia,,,,-3.2889217,128.3221032,https://maps.google.com/?cid=0x0:0x2cee3e8b22f4a943,
supermarket,Toko umum,KIOS RIZKY:H,"HMVR+2XQ, Hualoy, Kec. Amalatu, Kabupaten Seram Bagian Barat, Maluku","Kabupaten Seram Bagian Barat, Maluku",MALUKU,,Indonesia,82399215276.0,,,-3.4074066,128.692482,https://maps.google.com/?cid=0x0:0x7b33aacac5ff8ce3,
supermarket,Toko,Toko Alia Jaya,"M982+RJ5, Waimital, Kec. Kairatu, Kabupaten Seram Bagian Barat, Maluku","Kabupaten Seram Bagian Barat, Maluku",MALUKU,,Indonesia,82398674722.0,,,-3.3329871,128.3516149,https://maps.google.com/?cid=0x0:0xdf8dd29fc0b99599,
supermarket,Minimarket,Indomaret trans seram kairatu,"M948+WJ4, Jl. Trans Seram, Kairatu, Kec. Kairatu, Kabupaten Seram Bagian Barat, Maluku","Kabupaten Seram Bagian Barat, Maluku",MALUKU,,Indonesia,81247484988.0,,,-3.3427281,128.3665857,https://maps.google.com/?cid=0x0:0xeffa3db0d1f6258a,
supermarket,Toko,KIOS JHO,"Jl. Pelabuhan Batu Kapal, Kamarian, Kec. Kairatu, Kabupaten Seram Bagian Barat, Maluku","Kabupaten Seram Bagian Barat, Maluku",MALUKU,,Indonesia,82239028702.0,,,-3.4437679,128.4314707,https://maps.google.com/?cid=0x0:0xf4840eb5680155c4,
supermarket,Toko Swalayan,Toko Usaha Baru,"M966+H83, Jl. Trans Seram, Waimital, Kec. Kairatu, Kabupaten Seram Bagian Barat, Maluku","Kabupaten Seram Bagian Barat, Maluku",MALUKU,,Indonesia,82165556123.0,,,-3.3385652,128.3607064,https://maps.google.com/?cid=0x0:0x5ac098d2070a002a,
supermarket,Toko,Toko Rey,"P8C8+3QR, RT.01, Waesamu, Kec. Kairatu Bar., Kabupaten Seram Bagian Barat, Maluku","Kabupaten Seram Bagian Barat, Maluku",MALUKU,,Indonesia,,,,-3.279755,128.3169014,https://maps.google.com/?cid=0x0:0x92b373fc7c8175d4,
supermarket,Toko Swalayan,Winkel Supermarket,"96FG+323, Waiheru, Kec. Baguala, Kota Ambon, Maluku","Kota Ambon, Maluku",MALUKU,,Indonesia,9113869351.0,,,-3.6273656,128.2250609,https://maps.google.com/?cid=0x0:0xec37cd1cfdfa6412,
supermarket,supermarket,Kec. Huamual Belakang,"Kabupaten Seram Bagian Barat, Maluku","Kabupaten Seram Bagian Barat, Maluku",MALUKU,,Indonesia,,,,-3.2255814,128.0662787,https://maps.google.com/?cid=0x0:0x234bd4efeec3b38,
supermarket,Toko umum,Kios Lila,"Jl. Kota raja No.Blok B, Luhu, Kec. Huamual Belakang, Kabupaten Seram Bagian Barat, Maluku","Kabupaten Seram Bagian Barat, Maluku",MALUKU,,Indonesia,82198695633.0,,,-3.3886236,127.9813628,https://maps.google.com/?cid=0x0:0x2488d0ff56a2aedc,
supermarket,Toko Roti,Kios Irma Adnan,"JW4M+9VG, Luhu, Huamual Belakang, Kabupaten Seram Bagian Barat,Hatawano, Maluku, Luhu, Kec. Huamual Belakang, Kabupaten Seram Bagian Barat, Maluku","Kabupaten Seram Bagian Barat, Maluku",MALUKU,,Indonesia,82199422325.0,,,-3.3940558,127.934692,https://maps.google.com/?cid=0x0:0xb0ee7647e70fb0d3,
supermarket,Toko bahan makanan,Indah Maret,"JWPV+79R, Luhu, Kec. Huamual Belakang, Kabupaten Seram Bagian Barat, Maluku","Kabupaten Seram Bagian Barat, Maluku",MALUKU,,Indonesia,,,,-3.3653199,127.9434492,https://maps.google.com/?cid=0x0:0x61889232b2c392f7,
supermarket,Toko,Toko Sembako Balqis,"Dusun Temi, Luhu, Kec. Huamual Belakang, Kabupaten Seram Bagian Barat, Maluku","Kabupaten Seram Bagian Barat, Maluku",MALUKU,,Indonesia,82137079482.0,,,-3.3031219,127.9240549,https://maps.google.com/?cid=0x0:0x9efb56804c71c5c1,
supermarket,Toko,Toko Inefa,"JX5H+3J8, Kulur, Kec. Huamual Belakang, Kabupaten Seram Bagian Barat, Maluku","Kabupaten Seram Bagian Barat, Maluku",MALUKU,,Indonesia,,,,-3.3923427,127.9790866,https://maps.google.com/?cid=0x0:0x362d70a1c2ca0818,
supermarket,Toko bahan makanan,Kios Mama Rina,"P376+W6J, Unnamed Road, Lokki, Kec. Huamual Belakang, Kabupaten Seram Bagian Barat, Maluku","Kabupaten Seram Bagian Barat, Maluku",MALUKU,,Indonesia,,,,-3.2851705,128.0605278,https://maps.google.com/?cid=0x0:0xddeaa4b93095cbbe,
supermarket,Toko bahan makanan,Fera,"M3V5+3QX, Lokki, Kec. Huamual Belakang, Kabupaten Seram Bagian Barat, Maluku","Kabupaten Seram Bagian Barat, Maluku",MALUKU,,Indonesia,,,,-3.3075855,128.0593265,https://maps.google.com/?cid=0x0:0x9bcda2b1106f30bc,
supermarket,Toko bahan makanan,Toko Nining,"Q347+459, Lokki, Kec. Huamual Belakang, Kabupaten Seram Bagian Barat, Maluku","Kabupaten Seram Bagian Barat, Maluku",MALUKU,,Indonesia,81247553609.0,,,-3.2446646,128.0629909,https://maps.google.com/?cid=0x0:0x842b5dfeac7fb75,
supermarket,Kios,Kios Fika Celular,"J2WP+GXW, Dusun Hulung, Iha, Kec. Huamual Belakang, Kabupaten Seram Bagian Barat, Maluku","Kabupaten Seram Bagian Barat, Maluku",MALUKU,,Indonesia,82215657562.0,,,-3.3536473,128.0374571,https://maps.google.com/?cid=0x0:0xd38fff8d12c28a1d,
supermarket,Kios,Kios Antii,"GV8X+WW7, Iha, Kec. Huamual Belakang, Kabupaten Seram Bagian Barat, Maluku","Kabupaten Seram Bagian Barat, Maluku",MALUKU,,Indonesia,,,,-3.4817418,127.8993992,https://maps.google.com/?cid=0x0:0x824dbc5fcd6335fc,
supermarket,Toko,Toko sabri,"Q3G8+VF, Lokki, Kec. Huamual Belakang, Kabupaten Seram Bagian Barat, Maluku","Kabupaten Seram Bagian Barat, Maluku",MALUKU,,Indonesia,,,,-3.2227178,128.0661555,https://maps.google.com/?cid=0x0:0xe106cd51f73c3a88,
supermarket,Toko,Tiga Bongso,"JX8M+457 Jl. Ustadz Khidhir Al-Limboriy, Luhu, Kec. Huamual Belakang, Kabupaten Seram Bagian Barat, Maluku","Kabupaten Seram Bagian Barat, Maluku",MALUKU,,Indonesia,,,,-3.3847105,127.9828966,https://maps.google.com/?cid=0x0:0x23dd97d8fc7cfb6,
supermarket,supermarket,Kios silfa,"PW58+3HR, Waesala, Kec. Huamual Belakang, Kabupaten Seram Bagian Barat, Maluku","Kabupaten Seram Bagian Barat, Maluku",MALUKU,,Indonesia,,,,-3.2922625,127.9163906,https://maps.google.com/?cid=0x0:0x4420026b2dc50f2d,
supermarket,Toko umum,KIOS MAMA AMA,"JX8M+672, Luhu, Kec. Huamual Belakang, Kabupaten Seram Bagian Barat, Maluku","Kabupaten Seram Bagian Barat, Maluku",MALUKU,,Indonesia,,,,-3.3844785,127.9831292,https://maps.google.com/?cid=0x0:0x4ee77d2332b37622,
supermarket,Toko,KIOS ARISMAS,"Q337+P49, Lokki, Kec. Huamual Belakang, Kabupaten Seram Bagian Barat, Maluku","Kabupaten Seram Bagian Barat, Maluku",MALUKU,,Indonesia,,,,-3.2457246,128.0628779,https://maps.google.com/?cid=0x0:0xab08a97365d86ead,
supermarket,Sekolah,Nazar LBR,"MWMH+VVR, Jl. Ust Harmin Mursalim SHi, Luhu, Kec. Huamual Belakang, Kabupaten Seram Bagian Barat, Maluku","Kabupaten Seram Bagian Barat, Maluku",MALUKU,,Indonesia,81240600597.0,,,-3.3152705,127.9296371,https://maps.google.com/?cid=0x0:0x1d39c8e3b890c47a,
supermarket,Pusat Perbelanjaan,Hypermart Maluku City Mall,"Jalan Jend. Sudirman, Hative Kecil, Kec. Sirimau, Kota Ambon, Maluku","Kota Ambon, Maluku",MALUKU,,Indonesia,911319999.0,,,-3.6702679,128.1981163,https://maps.google.com/?cid=0x0:0xf361af34b2474744,
supermarket,Toko Swalayan,Winkel Supermarket,"96FG+323, Waiheru, Kec. Baguala, Kota Ambon, Maluku","Kota Ambon, Maluku",MALUKU,,Indonesia,9113869351.0,,,-3.6273656,128.2250609,https://maps.google.com/?cid=0x0:0xec37cd1cfdfa6412,
supermarket,Pusat Perbelanjaan,Winkel Supermarket,"VFXR+3QM, Bula, Kec. Bula, Kabupaten Seram Bagian Timur, Maluku","Kabupaten Seram Bagian Timur, Maluku",MALUKU,,Indonesia,81240251423.0,,,-3.1022975,130.4919094,https://maps.google.com/?cid=0x0:0xcc0933f2fab5253f,
supermarket,Toko bahan makanan,Kios Mama Putri,"P384+RR4, Lokki, Kec. Huamual Belakang, Kabupaten Seram Bagian Barat, Maluku","Kabupaten Seram Bagian Barat, Maluku",MALUKU,,Indonesia,,,,-3.2829845,128.0570772,https://maps.google.com/?cid=0x0:0xf3f1809302d71d51,
supermarket,supermarket,Toko Serba Ada,"MWMM+X4R, Jl. Ust Harmin Mursalim SHi, Luhu, Kec. Huamual Belakang, Kabupaten Seram Bagian Barat, Maluku","Kabupaten Seram Bagian Barat, Maluku",MALUKU,,Indonesia,,,,-3.3150243,127.9327682,https://maps.google.com/?cid=0x0:0x89094efdd2d6948a,
supermarket,supermarket,Kios Bu Tuti,"MWMJ+PJV, Jl. Ust. Harmin Mursalim SHI, Limboro, Luhu, Kec. Huamual Belakang, Kabupaten Seram Bagian Barat, Maluku","Kabupaten Seram Bagian Barat, Maluku",MALUKU,,Indonesia,,,,-3.3156275,127.9315349,https://maps.google.com/?cid=0x0:0xecd395754661607b,
supermarket,supermarket,Toko H. Rudi Salafy,"MWPH+2Q4, Jl. Ust Harmin Mursalim SHi, Luhu, Kec. Huamual Belakang, Kabupaten Seram Bagian Barat, Maluku","Kabupaten Seram Bagian Barat, Maluku",MALUKU,,Indonesia,,,,-3.3149881,127.9294543,https://maps.google.com/?cid=0x0:0x86241abba77d3ffd,
supermarket,Toko Swalayan,The Gourmet by Ranch Market,"ASHTA Lantai Dasar Unit LG-01, Jl. Senopati No.Raya, RT.8/RW.3, Senayan, Kec. Kby. Baru, Kota Jakarta Selatan, Daerah Khusus Ibukota Jakarta 12190","Jl. Senopati No.Raya, RT.8/RW.3, Senayan, Kec. Kby. Baru, Kota Jakarta Selatan",MALUKU,12190.0,Indonesia,81282091909.0,,,-6.2292324,106.8067785,https://maps.google.com/?cid=0x0:0x32d5081bb2c4af19,
supermarket,Pusat Perbelanjaan,Winkel Supermarket,"VFXR+3QM, Bula, Kec. Bula, Kabupaten Seram Bagian Timur, Maluku","Kabupaten Seram Bagian Timur, Maluku",MALUKU,,Indonesia,81240251423.0,,,-3.1022975,130.4919094,https://maps.google.com/?cid=0x0:0xcc0933f2fab5253f,
supermarket,supermarket,Kec. Kepulauan Manipa,"Kabupaten Seram Bagian Barat, Maluku","Kabupaten Seram Bagian Barat, Maluku",MALUKU,,Indonesia,,,,-3.3368083,127.5516442,https://maps.google.com/?cid=0x0:0x44a0c6a82a329841,
supermarket,supermarket,Pasar rakyat manipa,"MH62+X8C, Jl. Haka putra pikaraja, Tumalehu Bar, Kec. Kepulauan Manipa, Kabupaten Seram Bagian Barat, Maluku","Kabupaten Seram Bagian Barat, Maluku",MALUKU,,Indonesia,,,,-3.3376852,127.550549,https://maps.google.com/?cid=0x0:0x872bf04ab5ef8de6,
supermarket,Kantor Pemerintah,Manipa,"MH73+XGV, Tumalehu barat, Kec. Kepulauan Manipa, Kabupaten Seram Bagian Barat, Maluku","Kabupaten Seram Bagian Barat, Maluku",MALUKU,,Indonesia,,,,-3.3347886,127.5533144,https://maps.google.com/?cid=0x0:0xa237175fea33708f,
supermarket,Pembangunan Perumahan,"BPP Kep, Manipa","Kelang Asaude, Kec. Huamual Belakang, Kabupaten Seram Bagian Barat, Maluku","Kabupaten Seram Bagian Barat, Maluku",MALUKU,,Indonesia,,,,-3.3386977,127.5644321,https://maps.google.com/?cid=0x0:0xff56200dbdd511e3,
supermarket,Toko,Toko nazwa,"MH72+5XR, Tumalehu Tim., Kec. Kepulauan Manipa, Kabupaten Seram Bagian Barat, Maluku","Kabupaten Seram Bagian Barat, Maluku",MALUKU,,Indonesia,,,,-3.3373009,127.5526623,https://maps.google.com/?cid=0x0:0x1d44b38f3eb9edb6,
supermarket,supermarket,Kios Alifa,"MH83+333, Tumalehu Tim., Kec. Kepulauan Manipa, Kabupaten Seram Bagian Barat, Maluku","Kabupaten Seram Bagian Barat, Maluku",MALUKU,,Indonesia,,,,-3.3355357,127.5521664,https://maps.google.com/?cid=0x0:0x28437a94c611554e,
supermarket,supermarket,Pulau Manipa,"Kabupaten Seram Bagian Barat, Maluku","Kabupaten Seram Bagian Barat, Maluku",MALUKU,,Indonesia,,,,-3.3086108,127.5747647,https://maps.google.com/?cid=0x0:0x4bcee1353ff83ad0,
supermarket,supermarket,Kec. Taniwel Tim.,"Kabupaten Seram Bagian Barat, Maluku","Kabupaten Seram Bagian Barat, Maluku",MALUKU,,Indonesia,,,,-2.8451525,128.6555679,https://maps.google.com/?cid=0x0:0x51e7fe5228d3a153,
supermarket,Toko Makanan,DARREL CAMP,"Jl. Kabupaten, Seakasale, Kec. Taniwel Tim., Kabupaten Seram Bagian Barat, Maluku","Kabupaten Seram Bagian Barat, Maluku",MALUKU,,Indonesia,85259034531.0,,,-2.862496,128.7120751,https://maps.google.com/?cid=0x0:0x4277bc338db0dfc4,
supermarket,supermarket,TOKO HUSNUL JAYA,"5M34+W6P, Lumahlatal, Kec. Taniwel Tim., Kabupaten Seram Bagian Barat, Maluku","Kabupaten Seram Bagian Barat, Maluku",MALUKU,,Indonesia,,,,-2.8451525,128.6555679,https://maps.google.com/?cid=0x0:0x5a1d0ce02fba3ffc,
supermarket,supermarket,KIOS ULA,"PQQJ+6MP, Samasuru, Kec. Tlk. Elpaputih, Kabupaten Maluku Tengah, Maluku","Kabupaten Maluku Tengah, Maluku",MALUKU,,Indonesia,,,,-3.261902,128.7816983,https://maps.google.com/?cid=0x0:0xf344f7e5ad297168,
supermarket,Pusat Perbelanjaan,IKENNA SHOP,"RWW9+56C, Gading Nias Apartemen tower emerald lobby T, Jl. Pegangsaan Dua, RT.13/RW.3, Pegangsaan Dua, Kec. Klp. Gading, Jkt Utara, Daerah Khusus Ibukota Jakarta 14250","Gading Nias Apartemen tower emerald lobby T, Jl. Pegangsaan Dua, RT.13/RW.3, Pegangsaan Dua, Kec. Klp. Gading, Jkt Utara",MALUKU,14250.0,Indonesia,895333217721.0,,,-6.1545572,106.9180112,https://maps.google.com/?cid=0x0:0xa9967c9000a8535e,
supermarket,Toserba,Rambla Super Departement Store,"Jl. Boulevard Raya No.19, RT.13/RW.18, Klp. Gading Tim., Kec. Klp. Gading, Jkt Utara, Daerah Khusus Ibukota Jakarta 14240","RT.13/RW.18, Klp. Gading Tim., Kec. Klp. Gading, Jkt Utara",MALUKU,14240.0,Indonesia,81908192582.0,,,-6.158576,106.907394,https://maps.google.com/?cid=0x0:0x9bc0c4ec24d3878f,
supermarket,Toko makanan beku,Mugie frozen,"Jl. Sawah Lio No.I, RT.11/RW.1, Jemb. Lima, Kec. Tambora, Kota Jakarta Barat, Daerah Khusus Ibukota Jakarta 11250","RT.11/RW.1, Jemb. Lima, Kec. Tambora, Kota Jakarta Barat",MALUKU,11250.0,Indonesia,85814561987.0,,,-6.1466015,106.8060013,https://maps.google.com/?cid=0x0:0x6b272c8d9ccd891a,
