Category;Real Category;Business Name;Address;City;State;Postal Code;Country;Phone;Email;Website;Latitude;Longitude;Map Link;Details Link
"komplek housing";"komplek housing";"Kairatu";"Kairatu, Kec. Kairatu, Kabupaten Seram Bagian Barat, Maluku";"Kabupaten Seram Bagian Barat, Maluku";"MALUKU";"";"Indonesia";"";"";"";"-3.341675";"128.352798";"https://maps.google.com/?cid=0x0:0xccc8b619c657b48e";""
"komplek housing";"komplek housing";"Kec. Tebet";"Kota Jakarta Selatan, Daerah Khusus Ibukota Jakarta";"Kota Jakarta Selatan, Daerah Khusus Ibukota Jakarta";"MALUKU";"";"Indonesia";"";"";"";"-6.2251223";"106.8549881";"https://maps.google.com/?cid=0x0:0xd575e31c807295f9";""
"komplek housing";"komplek housing";"Kec. Seram Bar.";"Kabupaten Seram Bagian Barat, Maluku";"Kabupaten Seram Bagian Barat, Maluku";"MALUKU";"";"Indonesia";"";"";"";"-3.0650683";"128.194492";"https://maps.google.com/?cid=0x0:0xd1612bfbfbd97a94";""
"komplek housing";"Pembangunan Perumahan";"Home Tn. Yano";"Jl. Trans Seram No.11, Negeri Kawa, Kec. Seram Bar., Kabupaten Seram Bagian Barat, Maluku 97562";"Negeri Kawa, Kec. Seram Bar., Kabupaten Seram Bagian Barat";"MALUKU";"97562";"Indonesia";"";"";"";"-2.9571567";"128.1188699";"https://maps.google.com/?cid=0x0:0xe7257c71c39449a3";""
"komplek housing";"Komplek perumahan";"Keluarga setitit";"Jl. Trans Seram, Piru, Kec. Seram Bar., Kabupaten Seram Bagian Barat, Maluku 97562";"Piru, Kec. Seram Bar., Kabupaten Seram Bagian Barat";"MALUKU";"97562";"Indonesia";"";"";"";"-3.0679038";"128.1995277";"https://maps.google.com/?cid=0x0:0x7976f5484eedc4a0";""
"komplek housing";"Pembangunan Perumahan";"Respol gang";"Sampiing asrama koramil No.1502-07, Piru, Kec. Seram Bar., Kabupaten Seram Bagian Barat, Maluku 97562";"Piru, Kec. Seram Bar., Kabupaten Seram Bagian Barat";"MALUKU";"97562";"Indonesia";"";"";"";"-3.0623356";"128.1968953";"https://maps.google.com/?cid=0x0:0x14050f2637b7e331";""
"komplek housing";"Komplek perumahan";"Tempat putar";"W6J2+7RH, Dusun waimeteng darat, Piru, Kec. Seram Bar., Kabupaten Seram Bagian Barat, Maluku 97562";"Dusun waimeteng darat, Piru, Kec. Seram Bar., Kabupaten Seram Bagian Barat";"MALUKU";"97562";"Indonesia";"";"";"";"-3.0696145";"128.2025862";"https://maps.google.com/?cid=0x0:0xcc7b03b90eefd913";""
"komplek housing";"komplek housing";"Rumah Endroka nendissa";"W5PV+392, Jl. Hatutelu, Piru, Kec. Seram Bar., Kabupaten Seram Bagian Barat, Maluku 97562";"Jl. Hatutelu, Piru, Kec. Seram Bar., Kabupaten Seram Bagian Barat";"MALUKU";"97562";"Indonesia";"";"";"";"-3.0648538";"128.1934061";"https://maps.google.com/?cid=0x0:0x5a7c2f4d9057660";""
"komplek housing";"Komplek perumahan";"HOME PAK LA RE .";"W4PF+85, Etty, Kec. Seram Bar., Kabupaten Seram Bagian Barat, Maluku";"Kabupaten Seram Bagian Barat, Maluku";"MALUKU";"";"Indonesia";"";"";"";"-3.0641923";"128.1230275";"https://maps.google.com/?cid=0x0:0x352215cfc8fdcd87";""
"komplek housing";"komplek housing";"Taniwel";"Taniwel, Kec. Taniwel, Kabupaten Seram Bagian Barat, Maluku";"Kabupaten Seram Bagian Barat, Maluku";"MALUKU";"";"Indonesia";"";"";"";"-2.875471";"128.4478";"https://maps.google.com/?cid=0x0:0x8714c1fa90eff15e";""
"komplek housing";"komplek housing";"Kec. Tebet";"Kota Jakarta Selatan, Daerah Khusus Ibukota Jakarta";"Kota Jakarta Selatan, Daerah Khusus Ibukota Jakarta";"MALUKU";"";"Indonesia";"";"";"";"-6.2251223";"106.8549881";"https://maps.google.com/?cid=0x0:0xd575e31c807295f9";""
"komplek housing";"Komplek perumahan";"Murnaten";"48PW+P44, Mornaten, Kec. Taniwel, Kabupaten Seram Bagian Barat, Maluku";"Kabupaten Seram Bagian Barat, Maluku";"MALUKU";"";"Indonesia";"";"";"";"-2.8637813";"128.3451998";"https://maps.google.com/?cid=0x0:0x4788770952c7b677";""
"komplek housing";"Komplek perumahan";"Melianus Touwe";"48PW+64M, Mornaten, Kec. Taniwel, Kabupaten Seram Bagian Barat, Maluku";"Kabupaten Seram Bagian Barat, Maluku";"MALUKU";"";"Indonesia";"";"";"";"-2.8644125";"128.3452969";"https://maps.google.com/?cid=0x0:0xb5bac48d02c23d37";""
"komplek housing";"komplek housing";"Waesala";"Kec. Huamual Belakang, Kabupaten Seram Bagian Barat, Maluku";"Kabupaten Seram Bagian Barat, Maluku";"MALUKU";"";"Indonesia";"";"";"";"-3.1946096";"127.9572703";"https://maps.google.com/?cid=0x0:0xe960ac9124dc066f";""
"komplek housing";"Komplek perumahan";"Jamni home";"RV8C+636, Waesala, Kec. Huamual Belakang, Kabupaten Seram Bagian Barat, Maluku";"Kabupaten Seram Bagian Barat, Maluku";"MALUKU";"";"Indonesia";"";"";"";"-3.184473";"127.8701377";"https://maps.google.com/?cid=0x0:0x4072a18d4e716dcf";""
"komplek housing";"Komplek perumahan";"AMKEY";"VW3C+GGH, Waesala, Kec. Huamual Belakang, Kabupaten Seram Bagian Barat, Maluku";"Kabupaten Seram Bagian Barat, Maluku";"MALUKU";"";"Indonesia";"";"";"";"-3.1464858";"127.9211938";"https://maps.google.com/?cid=0x0:0xb4e5cfbdeb59a0b";""
"komplek housing";"Komplek perumahan";"Rumah Mama Masi";"PVQQ+J8P, Waesala, Kec. Huamual Belakang, Kabupaten Seram Bagian Barat, Maluku";"Kabupaten Seram Bagian Barat, Maluku";"MALUKU";"";"Indonesia";"";"";"";"-3.2611698";"127.8884856";"https://maps.google.com/?cid=0x0:0x4cb8d55a3032b80a";""
"komplek housing";"Pembangunan Perumahan";"Auliyah's House";"JW4M+HQX, Luhu, Kec. Huamual Belakang, Kabupaten Seram Bagian Barat, Maluku";"Kabupaten Seram Bagian Barat, Maluku";"MALUKU";"";"Indonesia";"";"";"";"-3.3936801";"127.9344948";"https://maps.google.com/?cid=0x0:0xbe149f992d9542a8";""
"komplek housing";"Komplek perumahan";"Kasturian";"VW3F+M49, Waesala, Kec. Huamual Belakang, Kabupaten Seram Bagian Barat, Maluku";"Kabupaten Seram Bagian Barat, Maluku";"MALUKU";"";"Indonesia";"";"";"";"-3.1458403";"127.9228685";"https://maps.google.com/?cid=0x0:0xd604a41eae251ee7";""
"komplek housing";"Komplek perumahan";"Home Nesa Nona akeba";"QVVF+RRC, Waesala, Kec. Huamual Belakang, Kabupaten Seram Bagian Barat, Maluku";"Kabupaten Seram Bagian Barat, Maluku";"MALUKU";"";"Indonesia";"";"";"";"-3.2054653";"127.8740982";"https://maps.google.com/?cid=0x0:0x2e6ab5f5cb80c91b";""
"komplek housing";"Komplek perumahan";"Afi house";"PVQQ+J8P, Waesala, Kec. Huamual Belakang, Kabupaten Seram Bagian Barat, Maluku";"Kabupaten Seram Bagian Barat, Maluku";"MALUKU";"";"Indonesia";"";"";"";"-3.2609125";"127.8883281";"https://maps.google.com/?cid=0x0:0x7d5b90c635085b1d";""
"komplek housing";"Kios";"Valli.";"VXH3+PX2, Alang Asaude, Kec. Huamual Belakang, Kabupaten Seram Bagian Barat, Maluku";"Kabupaten Seram Bagian Barat, Maluku";"MALUKU";"";"Indonesia";"";"";"";"-3.1207375";"127.9548906";"https://maps.google.com/?cid=0x0:0x26fb43098d1183ce";""
"komplek housing";"Komplek perumahan";"IHA ULUPIA";"JX6H+23, Iha, Kec. Huamual Belakang, Kabupaten Seram Bagian Barat, Maluku";"Kabupaten Seram Bagian Barat, Maluku";"MALUKU";"";"Indonesia";"";"";"";"-3.3899099";"127.9776529";"https://maps.google.com/?cid=0x0:0xb0db612a17685ecc";""
"komplek housing";"komplek housing";"Kec. Huamual Belakang";"Kabupaten Seram Bagian Barat, Maluku";"Kabupaten Seram Bagian Barat, Maluku";"MALUKU";"";"Indonesia";"";"";"";"-3.2255814";"128.0662787";"https://maps.google.com/?cid=0x0:0x234bd4efeec3b38";""
"komplek housing";"Komplek perumahan";"Wailisa kompleks";"P386+X76, Lokki, Kec. Huamual Belakang, Kabupaten Seram Bagian Barat, Maluku";"Kabupaten Seram Bagian Barat, Maluku";"MALUKU";"";"Indonesia";"";"";"";"-3.2825604";"128.0611534";"https://maps.google.com/?cid=0x0:0xc6a56dc9160bd361";""
"komplek housing";"Komplek perumahan";"Rumah Mama Apu";"PVQQ+QJ9, Waesala, Kec. Huamual Belakang, Kabupaten Seram Bagian Barat, Maluku";"Kabupaten Seram Bagian Barat, Maluku";"MALUKU";"";"Indonesia";"";"";"";"-3.261146";"127.8889996";"https://maps.google.com/?cid=0x0:0xebe1c2f954bc348e";""
"komplek housing";"Komplek perumahan";"Waebake";"JX6J+G83, Luhu, Kec. Huamual Belakang, Kabupaten Seram Bagian Barat, Maluku";"Kabupaten Seram Bagian Barat, Maluku";"MALUKU";"";"Indonesia";"";"";"";"-3.3887428";"127.9807958";"https://maps.google.com/?cid=0x0:0xb2bdcdf41d190c83";""
"komplek housing";"Komplek perumahan";"Rumah Eza Syarief";"P384+PG, Lokki, Kec. Huamual Belakang, Kabupaten Seram Bagian Barat, Maluku";"Kabupaten Seram Bagian Barat, Maluku";"MALUKU";"";"Indonesia";"";"";"";"-3.2831437";"128.0563761";"https://maps.google.com/?cid=0x0:0x36f25962244ec8cd";""
"komplek housing";"Komplek perumahan";"Huis van de familie Samallo";"HMVR+2XQ, Hualoy, Kec. Amalatu, Kabupaten Seram Bagian Barat, Maluku";"Kabupaten Seram Bagian Barat, Maluku";"MALUKU";"";"Indonesia";"";"";"";"-3.407416";"128.6925351";"https://maps.google.com/?cid=0x0:0xed0869f075a83962";""
"komplek housing";"komplek housing";"Kec. Amalatu";"Kabupaten Seram Bagian Barat, Maluku";"Kabupaten Seram Bagian Barat, Maluku";"MALUKU";"";"Indonesia";"";"";"";"-3.4079418";"128.6921861";"https://maps.google.com/?cid=0x0:0xb6a4667e86dc46e1";""
"komplek housing";"Komplek perumahan";"daud samallo home";"HMVV+229, Hualoy, Kec. Amalatu, Kabupaten Seram Bagian Barat, Maluku";"Kabupaten Seram Bagian Barat, Maluku";"MALUKU";"";"Indonesia";"";"";"";"-3.4074625";"128.6926132";"https://maps.google.com/?cid=0x0:0x3eb334d2eeca7b21";""
"komplek housing";"Hotel";"Rumah leke kaimudin";"Dusun air buaya Piru, Kairatu, Kec. Kairatu, Kabupaten Seram Bagian Barat, Maluku 97566";"Kairatu, Kec. Kairatu, Kabupaten Seram Bagian Barat";"MALUKU";"97566";"Indonesia";" 082198334580";"";"";"-3.3711066";"128.3750432";"https://maps.google.com/?cid=0x0:0xdfe88c51e2c8a2eb";""
"komplek housing";"Rumah wisata";"Idul rumah";"J9MG+PFG, Kairatu, Kec. Kairatu, Kabupaten Seram Bagian Barat, Maluku";"Kabupaten Seram Bagian Barat, Maluku";"MALUKU";"";"Indonesia";"";"";"";"-3.3665827";"128.3759593";"https://maps.google.com/?cid=0x0:0x55feae4f19733057";""
"komplek housing";"komplek housing";"Kec. Kairatu";"Kabupaten Seram Bagian Barat, Maluku";"Kabupaten Seram Bagian Barat, Maluku";"MALUKU";"";"Indonesia";"";"";"";"-3.3348857";"128.3544618";"https://maps.google.com/?cid=0x0:0x5a31e7e6616efb32";""
"komplek housing";"komplek housing";"Kec. Kairatu Bar.";"Kabupaten Seram Bagian Barat, Maluku";"Kabupaten Seram Bagian Barat, Maluku";"MALUKU";"";"Indonesia";"";"";"";"-3.2131072";"128.2805328";"https://maps.google.com/?cid=0x0:0x8d1396bfe0c50507";""
"komplek housing";"Hotel";"Rumah leke kaimudin";"Dusun air buaya Piru, Kairatu, Kec. Kairatu, Kabupaten Seram Bagian Barat, Maluku 97566";"Kairatu, Kec. Kairatu, Kabupaten Seram Bagian Barat";"MALUKU";"97566";"Indonesia";" 082198334580";"";"";"-3.3711066";"128.3750432";"https://maps.google.com/?cid=0x0:0xdfe88c51e2c8a2eb";""
"komplek housing";"komplek housing";"Kec. Huamual Belakang";"Kabupaten Seram Bagian Barat, Maluku";"Kabupaten Seram Bagian Barat, Maluku";"MALUKU";"";"Indonesia";"";"";"";"-3.2255814";"128.0662787";"https://maps.google.com/?cid=0x0:0x234bd4efeec3b38";""
"komplek housing";"Pembangunan Perumahan";"Auliyah's House";"JW4M+HQX, Luhu, Kec. Huamual Belakang, Kabupaten Seram Bagian Barat, Maluku";"Kabupaten Seram Bagian Barat, Maluku";"MALUKU";"";"Indonesia";"";"";"";"-3.3936801";"127.9344948";"https://maps.google.com/?cid=0x0:0xbe149f992d9542a8";""
"komplek housing";"Komplek perumahan";"IHA ULUPIA";"JX6H+23, Iha, Kec. Huamual Belakang, Kabupaten Seram Bagian Barat, Maluku";"Kabupaten Seram Bagian Barat, Maluku";"MALUKU";"";"Indonesia";"";"";"";"-3.3899099";"127.9776529";"https://maps.google.com/?cid=0x0:0xb0db612a17685ecc";""
"komplek housing";"komplek housing";"Kec. Kepulauan Manipa";"Kabupaten Seram Bagian Barat, Maluku";"Kabupaten Seram Bagian Barat, Maluku";"MALUKU";"";"Indonesia";"";"";"";"-3.3368083";"127.5516442";"https://maps.google.com/?cid=0x0:0x44a0c6a82a329841";""
"komplek housing";"komplek housing";"Kec. Taniwel Tim.";"Kabupaten Seram Bagian Barat, Maluku";"Kabupaten Seram Bagian Barat, Maluku";"MALUKU";"";"Indonesia";"";"";"";"-2.8451525";"128.6555679";"https://maps.google.com/?cid=0x0:0x51e7fe5228d3a153";""
"komplek housing";"komplek housing";"Elpaputih";"Kabupaten Maluku Tengah, Maluku";"Kabupaten Maluku Tengah, Maluku";"MALUKU";"";"Indonesia";"";"";"";"-3.2102958";"128.6949149";"https://maps.google.com/?cid=0x0:0x5c490d6e0c7c3235";""
"perumahan";"perumahan";"Kairatu";"Kairatu, Kec. Kairatu, Kabupaten Seram Bagian Barat, Maluku";"Kabupaten Seram Bagian Barat, Maluku";"MALUKU";"";"Indonesia";"";"";"";"-3.341675";"128.352798";"https://maps.google.com/?cid=0x0:0xccc8b619c657b48e";""
"perumahan";"Komplek perumahan";"Enka home";"M953+84M, Jln gemba lama, Kairatu, Kec. Kairatu, Kabupaten Seram Bagian Barat, Maluku";"Kabupaten Seram Bagian Barat, Maluku";"MALUKU";"";"Indonesia";"";"";"";"-3.341675";"128.352798";"https://maps.google.com/?cid=0x0:0xf24a44a0b6cbeb5d";""
"perumahan";"Pembangunan Perumahan";"Rumah penduduk";"M953+84M, dusun waitasi, Kairatu, Kec. Kairatu, Kabupaten Seram Bagian Barat, Maluku";"Kabupaten Seram Bagian Barat, Maluku";"MALUKU";"";"Indonesia";"";"";"";"-3.341675";"128.352798";"https://maps.google.com/?cid=0x0:0x45320d42fdf62486";""
"perumahan";"Komplek perumahan";"Kawatu";"M953+84M, Kairatu, Kec. Kairatu, Kabupaten Seram Bagian Barat, Maluku";"Kabupaten Seram Bagian Barat, Maluku";"MALUKU";"";"Indonesia";"";"";"";"-3.341675";"128.352798";"https://maps.google.com/?cid=0x0:0x9837c46415d2bdd8";""
"perumahan";"Komplek perumahan";"Beskem Rumah Wate Doyok";"M953+84M, Kairatu, Kec. Kairatu, Kabupaten Seram Bagian Barat, Maluku";"Kabupaten Seram Bagian Barat, Maluku";"MALUKU";"";"Indonesia";"";"";"";"-3.341675";"128.352798";"https://maps.google.com/?cid=0x0:0x4d62fcbef06fe8f2";""
"perumahan";"Komplek perumahan";"Kilometer 3";"M953+84M, Kairatu, Kec. Kairatu, Kabupaten Seram Bagian Barat, Maluku";"Kabupaten Seram Bagian Barat, Maluku";"MALUKU";"";"Indonesia";"";"";"";"-3.341675";"128.352798";"https://maps.google.com/?cid=0x0:0x5e28bf68cf1d1b78";""
"perumahan";"Komplek perumahan";"Gapura satu";"M953+84M, Kairatu, Kec. Kairatu, Kabupaten Seram Bagian Barat, Maluku";"Kabupaten Seram Bagian Barat, Maluku";"MALUKU";"";"Indonesia";"";"";"";"-3.341675";"128.352798";"https://maps.google.com/?cid=0x0:0xab38ec92806b46d6";""
"perumahan";"Komplek perumahan";"Belkom polsek kairatu";"M953+84M, Kairatu, Kec. Kairatu, Kabupaten Seram Bagian Barat, Maluku";"Kabupaten Seram Bagian Barat, Maluku";"MALUKU";"";"Indonesia";"";"";"";"-3.341675";"128.352798";"https://maps.google.com/?cid=0x0:0x84ea8a6c216d1a53";""
"perumahan";"Perhimpunan Pengembang Perumahan";"Rumah Jufrian Rehalat";"M953+84M, Kairatu, Kec. Kairatu, Kabupaten Seram Bagian Barat, Maluku";"Kabupaten Seram Bagian Barat, Maluku";"MALUKU";"";"Indonesia";"";"";"";"-3.341675";"128.352798";"https://maps.google.com/?cid=0x0:0xd372cdbf88cf2d2f";""
"perumahan";"Komplek perumahan";"Keluarga Fordatkossu";"Kilo 3, Kec. Kairatu";"Kabupaten Seram Bagian Barat, Maluku";"MALUKU";"";"Indonesia";"";"";"";"-3.341675";"128.352798";"https://maps.google.com/?cid=0x0:0xecc0bd3e92edf7c7";""
"perumahan";"Komplek perumahan";"Kosan ijo";"M953+84M, Kairatu, Kec. Kairatu, Kabupaten Seram Bagian Barat, Maluku";"Kabupaten Seram Bagian Barat, Maluku";"MALUKU";"";"Indonesia";"";"";"";"-3.341675";"128.352798";"https://maps.google.com/?cid=0x0:0x7a2ebf78ab661dfe";""
"perumahan";"Komplek perumahan";"KUDA SO";"M953+84M, Kairatu, Kec. Kairatu, Kabupaten Seram Bagian Barat, Maluku";"Kabupaten Seram Bagian Barat, Maluku";"MALUKU";"";"Indonesia";"";"";"";"-3.341675";"128.352798";"https://maps.google.com/?cid=0x0:0xcf084517379444e1";""
"perumahan";"Perhimpunan Pengembang Perumahan";"Sasya Idrus";"M953+84M, Kairatu, Kec. Kairatu, Kabupaten Seram Bagian Barat, Maluku";"Kabupaten Seram Bagian Barat, Maluku";"MALUKU";"";"Indonesia";"";"";"";"-3.341675";"128.352798";"https://maps.google.com/?cid=0x0:0x19306d27d1215eee";""
"perumahan";"Komplek perumahan";"Kos-Kosan CANTIKA";"M953+84M, Kairatu, Kec. Kairatu, Kabupaten Seram Bagian Barat, Maluku";"Kabupaten Seram Bagian Barat, Maluku";"MALUKU";"";"Indonesia";"";"";"";"-3.341675";"128.352798";"https://maps.google.com/?cid=0x0:0xb7f9d53e4e633de4";""
"perumahan";"perumahan";"Beldi saklil";"M953+84M, Kairatu, Kec. Kairatu, Kabupaten Seram Bagian Barat, Maluku";"Kabupaten Seram Bagian Barat, Maluku";"MALUKU";"";"Indonesia";"";"";"";"-3.341675";"128.352798";"https://maps.google.com/?cid=0x0:0xf496ad34beeee07a";""
"perumahan";"Komplek perumahan";"Ella Nusamara";"M953+84M, Kairatu, Kec. Kairatu, Kabupaten Seram Bagian Barat, Maluku";"Kabupaten Seram Bagian Barat, Maluku";"MALUKU";"";"Indonesia";"";"";"";"-3.341675";"128.352798";"https://maps.google.com/?cid=0x0:0x6fdb7137ad7b5b45";""
"perumahan";"Komplek perumahan";"Josny. J. W. Niak";"M953+84M, Kairatu, Kec. Kairatu, Kabupaten Seram Bagian Barat, Maluku";"Kabupaten Seram Bagian Barat, Maluku";"MALUKU";"";"Indonesia";"";"";"";"-3.341675";"128.352798";"https://maps.google.com/?cid=0x0:0xfe3ecb3e0d9710a9";""
"perumahan";"Pembangunan Perumahan";"Yanseno Alfredo";"M953+84M, Kairatu, Kec. Kairatu, Kabupaten Seram Bagian Barat, Maluku";"Kabupaten Seram Bagian Barat, Maluku";"MALUKU";"";"Indonesia";"";"";"";"-3.341675";"128.352798";"https://maps.google.com/?cid=0x0:0x4db8737f17280d49";""
"perumahan";"Toko";"ruko kairatu";"M953+84M, Kairatu, Kec. Kairatu, Kabupaten Seram Bagian Barat, Maluku";"Kabupaten Seram Bagian Barat, Maluku";"MALUKU";"";"Indonesia";"";"";"";"-3.341675";"128.352798";"https://maps.google.com/?cid=0x0:0x321809d6505119af";""
"perumahan";"Komplek perumahan";"Kairatu";"M94C+W6G, Kairatu, Kec. Kairatu, Kabupaten Seram Bagian Barat, Maluku";"Kabupaten Seram Bagian Barat, Maluku";"MALUKU";"";"Indonesia";"";"";"";"-3.3426909";"128.3705907";"https://maps.google.com/?cid=0x0:0xf304c26437146fbd";""
"perumahan";"perumahan";"Kec. Seram Bar.";"Kabupaten Seram Bagian Barat, Maluku";"Kabupaten Seram Bagian Barat, Maluku";"MALUKU";"";"Indonesia";"";"";"";"-3.0650683";"128.194492";"https://maps.google.com/?cid=0x0:0xd1612bfbfbd97a94";""
"perumahan";"Komplek perumahan";"Tempat pengasingan Herodes";"Sampiing asrama koramil No.1502-07, Piru, Kec. Seram Bar., Kabupaten Seram Bagian Barat, Maluku 97562";"Piru, Kec. Seram Bar., Kabupaten Seram Bagian Barat";"MALUKU";"97562";"Indonesia";"";"";"";"-3.0609045";"128.196326";"https://maps.google.com/?cid=0x0:0xd476bcbe8c37a7ae";""
"perumahan";"Komplek perumahan";"Keluarga setitit";"Jl. Trans Seram, Piru, Kec. Seram Bar., Kabupaten Seram Bagian Barat, Maluku 97562";"Piru, Kec. Seram Bar., Kabupaten Seram Bagian Barat";"MALUKU";"97562";"Indonesia";"";"";"";"-3.0679038";"128.1995277";"https://maps.google.com/?cid=0x0:0x7976f5484eedc4a0";""
"perumahan";"Komplek perumahan";"Tempat putar";"W6J2+7RH, Dusun waimeteng darat, Piru, Kec. Seram Bar., Kabupaten Seram Bagian Barat, Maluku 97562";"Dusun waimeteng darat, Piru, Kec. Seram Bar., Kabupaten Seram Bagian Barat";"MALUKU";"97562";"Indonesia";"";"";"";"-3.0696145";"128.2025862";"https://maps.google.com/?cid=0x0:0xcc7b03b90eefd913";""
"perumahan";"Pembangunan Perumahan";"Respol gang";"Sampiing asrama koramil No.1502-07, Piru, Kec. Seram Bar., Kabupaten Seram Bagian Barat, Maluku 97562";"Piru, Kec. Seram Bar., Kabupaten Seram Bagian Barat";"MALUKU";"97562";"Indonesia";"";"";"";"-3.0623356";"128.1968953";"https://maps.google.com/?cid=0x0:0x14050f2637b7e331";""
"perumahan";"Komplek perumahan";"coffee";"Kaibobu, Kec. Seram Bar., Kabupaten Seram Bagian Barat, Maluku 97562";"Kec. Seram Bar., Kabupaten Seram Bagian Barat";"MALUKU";"97562";"Indonesia";" 081339185938";"";"";"-3.2153146";"128.1759367";"https://maps.google.com/?cid=0x0:0x2c02aca59b2315db";""
"perumahan";"perumahan";"Rumah Endroka nendissa";"W5PV+392, Jl. Hatutelu, Piru, Kec. Seram Bar., Kabupaten Seram Bagian Barat, Maluku 97562";"Jl. Hatutelu, Piru, Kec. Seram Bar., Kabupaten Seram Bagian Barat";"MALUKU";"97562";"Indonesia";"";"";"";"-3.0648538";"128.1934061";"https://maps.google.com/?cid=0x0:0x5a7c2f4d9057660";""
"perumahan";"Komplek perumahan";"Seram bagian Barat";"W5RR+847, Piru, Kec. Seram Bar., Kabupaten Seram Bagian Barat, Maluku";"Kabupaten Seram Bagian Barat, Maluku";"MALUKU";"";"Indonesia";"";"";"";"-3.059218";"128.1903079";"https://maps.google.com/?cid=0x0:0x2c1b7ab04b4552db";""
"perumahan";"Komplek perumahan";"MUTEL";"W5MW+9WJ, Piru, Kec. Seram Bar., Kabupaten Seram Bagian Barat, Maluku";"Kabupaten Seram Bagian Barat, Maluku";"MALUKU";"";"Indonesia";"";"";"";"-3.0667818";"128.1975195";"https://maps.google.com/?cid=0x0:0xe39f33c93e8dab97";""
"perumahan";"Komplek perumahan";"Qiffa Home Stay";"W5JX+JG9, Piru, Kec. Seram Bar., Kabupaten Seram Bagian Barat, Maluku";"Kabupaten Seram Bagian Barat, Maluku";"MALUKU";"";"Indonesia";"";"";"";"-3.0685432";"128.1988222";"https://maps.google.com/?cid=0x0:0xd3fe0dbbce7dfc22";""
"perumahan";"Kantor Perusahaan";"Rumah J Kakisina";"W5JV+MHH, Piru, Kec. Seram Bar., Kabupaten Seram Bagian Barat, Maluku";"Kabupaten Seram Bagian Barat, Maluku";"MALUKU";"";"Indonesia";"";"";"";"-3.0683076";"128.1939318";"https://maps.google.com/?cid=0x0:0x6d872f1b17b21c3f";""
"perumahan";"Kafe";"Waimeteng";"W5RR+847, Piru, Kec. Seram Bar., Kabupaten Seram Bagian Barat, Maluku";"Kabupaten Seram Bagian Barat, Maluku";"MALUKU";"";"Indonesia";"";"";"";"-3.059218";"128.1903079";"https://maps.google.com/?cid=0x0:0xc82921adf9c44224";""
"perumahan";"Komplek perumahan";"Pokdakan Harta Utama , Dusun Wael Kabupaten Seram Bagian Barat";"W5RR+847, Dusun Wael, Desa, Piru, Kec. Seram Bar., Kabupaten Seram Bagian Barat, Maluku";"Kabupaten Seram Bagian Barat, Maluku";"MALUKU";"";"Indonesia";"";"";"";"-3.059218";"128.1903079";"https://maps.google.com/?cid=0x0:0x686906cf0f2d21ec";""
"perumahan";"Pembangunan Perumahan";"Dusun Loun";"W49R+JWP, Etty, Kec. Seram Bar., Kabupaten Seram Bagian Barat, Maluku";"Kabupaten Seram Bagian Barat, Maluku";"MALUKU";"";"Indonesia";"";"";"";"-3.0809088";"128.1423318";"https://maps.google.com/?cid=0x0:0xccade30890e6431c";""
"perumahan";"Komplek perumahan";"Kel dassi";"W6J2+FJV, Piru, Kec. Seram Bar., Kabupaten Seram Bagian Barat, Maluku";"Kabupaten Seram Bagian Barat, Maluku";"MALUKU";"";"Indonesia";"";"";"";"-3.0690882";"128.200933";"https://maps.google.com/?cid=0x0:0x77d2aea8b2144702";""
"perumahan";"Komplek perumahan";"Komplek AIR NAMA";"W5JV+RMC, Jl. Waipan, Piru, Kec. Seram Bar., Kabupaten Seram Bagian Barat, Maluku";"Kabupaten Seram Bagian Barat, Maluku";"MALUKU";"";"Indonesia";"";"";"";"-3.0679302";"128.1941424";"https://maps.google.com/?cid=0x0:0xb8e2b7de88cdba54";""
"perumahan";"Komplek perumahan";"Kel. M Titahena";"W5QX+C96, Piru, Kec. Seram Bar., Kabupaten Seram Bagian Barat, Maluku";"Kabupaten Seram Bagian Barat, Maluku";"MALUKU";"";"Indonesia";"";"";"";"-3.0614559";"128.1983823";"https://maps.google.com/?cid=0x0:0xf2372b0796ac5d34";""
"perumahan";"Komplek perumahan";"Herman Ririhena";"W5PW+394, Piru, Kec. Seram Bar., Kabupaten Seram Bagian Barat, Maluku";"Kabupaten Seram Bagian Barat, Maluku";"MALUKU";"";"Indonesia";"";"";"";"-3.0646335";"128.1959271";"https://maps.google.com/?cid=0x0:0xf8d4c0a2839382d1";""
"perumahan";"Komplek perumahan";"Kenso";"W6C4+G9Q, Jl. Trans Seram, Piru, Kec. Seram Bar., Kabupaten Seram Bagian Barat, Maluku";"Kabupaten Seram Bagian Barat, Maluku";"MALUKU";"";"Indonesia";"";"";"";"-3.0786137";"128.2059599";"https://maps.google.com/?cid=0x0:0xad69d177e27ae3a4";""
"perumahan";"Komplek perumahan";"Rumah Asrama Blg";"W5GX+QPQ, Jl. Ahmad Yani, Piru, Kec. Seram Bar., Kabupaten Seram Bagian Barat, Maluku";"Kabupaten Seram Bagian Barat, Maluku";"MALUKU";"";"Indonesia";"";"";"";"-3.0730466";"128.1993604";"https://maps.google.com/?cid=0x0:0xb5774ad22156dac1";""
"perumahan";"Komplek perumahan";"RUMAH KELUARGA SALENUSSA";"W5QW+3WX, Piru, Kec. Seram Bar., Kabupaten Seram Bagian Barat, Maluku";"Kabupaten Seram Bagian Barat, Maluku";"MALUKU";"";"Indonesia";"";"";"";"-3.0624536";"128.1971481";"https://maps.google.com/?cid=0x0:0xe64f9893cf45b959";""
"perumahan";"Komplek perumahan";"Keluarga Huwae";"W5QW+C8G, Piru, Kec. Seram Bar., Kabupaten Seram Bagian Barat, Maluku";"Kabupaten Seram Bagian Barat, Maluku";"MALUKU";"";"Indonesia";"";"";"";"-3.061429";"128.1958206";"https://maps.google.com/?cid=0x0:0x5c63ad562bd25212";""
"perumahan";"Pembangunan Perumahan";"Rmh.Glen.Sorsery";"W5MX+8GH, Piru, Kec. Seram Bar., Kabupaten Seram Bagian Barat, Maluku";"Kabupaten Seram Bagian Barat, Maluku";"MALUKU";"";"Indonesia";"";"";"";"-3.0666793";"128.1988736";"https://maps.google.com/?cid=0x0:0x2fdecac3d7c93de0";""
"perumahan";"Komplek perumahan";"Edgar home";"W696+HX3, Neniari, Kec. Seram Bar., Kabupaten Seram Bagian Barat, Maluku";"Kabupaten Seram Bagian Barat, Maluku";"MALUKU";"";"Indonesia";"";"";"";"-3.0811033";"128.2124089";"https://maps.google.com/?cid=0x0:0x7cc94239d9779368";""
"perumahan";"Komplek perumahan";"Piru, SBB";"W5JX+49R, Piru, Kec. Seram Bar., Kabupaten Seram Bagian Barat, Maluku";"Kabupaten Seram Bagian Barat, Maluku";"MALUKU";"";"Indonesia";"";"";"";"-3.0696429";"128.1983838";"https://maps.google.com/?cid=0x0:0x5a690fba4b86d6ac";""
"perumahan";"Kantor Keselamatan Publik";"Pelita Jaya";"X4V9+H35, Dusun Pelita Jaya, Desa Eti, Kec. Seram Bar., Kabupaten Seram Bagian Barat, Maluku";"Kabupaten Seram Bagian Barat, Maluku";"MALUKU";"";"Indonesia";"";"";"";"-3.0061161";"128.1177349";"https://maps.google.com/?cid=0x0:0xf5bd115f0d748a24";""
"perumahan";"Komplek perumahan";"Keluarga Kainama";"W658+H96, Jl. Trans Seram, Piru, Kec. Seram Bar., Kabupaten Seram Bagian Barat, Maluku";"Kabupaten Seram Bagian Barat, Maluku";"MALUKU";"";"Indonesia";"";"";"";"-3.0910918";"128.2159062";"https://maps.google.com/?cid=0x0:0x5da5ea5f9267f2ec";""
"perumahan";"Komplek perumahan";"Rumah";"W5MV+7W7, Jl. Lamboyane, Piru, Kec. Seram Bar., Kabupaten Seram Bagian Barat, Maluku";"Kabupaten Seram Bagian Barat, Maluku";"MALUKU";"";"Indonesia";"";"";"";"-3.0668448";"128.1947845";"https://maps.google.com/?cid=0x0:0x2c4fba665ceb1cae";""
"perumahan";"perumahan";"Taniwel";"Taniwel, Kec. Taniwel, Kabupaten Seram Bagian Barat, Maluku";"Kabupaten Seram Bagian Barat, Maluku";"MALUKU";"";"Indonesia";"";"";"";"-2.875471";"128.4478";"https://maps.google.com/?cid=0x0:0x8714c1fa90eff15e";""
"perumahan";"Komplek perumahan";"UCOK";"4CFX+R47, Taniwel, Kec. Taniwel, Kabupaten Seram Bagian Barat, Maluku";"Kabupaten Seram Bagian Barat, Maluku";"MALUKU";"";"Indonesia";"";"";"";"-2.875471";"128.4478";"https://maps.google.com/?cid=0x0:0xf6655ee8eb049a8a";""
"perumahan";"perumahan";"Bapa Feri Home";"4CFX+R47, Taniwel, Kec. Taniwel, Kabupaten Seram Bagian Barat, Maluku";"Kabupaten Seram Bagian Barat, Maluku";"MALUKU";"";"Indonesia";"";"";"";"-2.875471";"128.4478";"https://maps.google.com/?cid=0x0:0x4b25fff05c35fefb";""
"perumahan";"perumahan";"Waesala";"Kec. Huamual Belakang, Kabupaten Seram Bagian Barat, Maluku";"Kabupaten Seram Bagian Barat, Maluku";"MALUKU";"";"Indonesia";"";"";"";"-3.1946096";"127.9572703";"https://maps.google.com/?cid=0x0:0xe960ac9124dc066f";""
"perumahan";"Komplek perumahan";"Kompleks perumahan";"MWWG+M88, Dusun Temi, Luhu, Kec. Huamual Belakang, Kabupaten Seram Bagian Barat, Maluku";"Kabupaten Seram Bagian Barat, Maluku";"MALUKU";"";"Indonesia";"";"";"";"-3.3033426";"127.9258159";"https://maps.google.com/?cid=0x0:0xf219e2d4133bab99";""
"perumahan";"Komplek perumahan";"Rumah rafli pamana";"QVVF+GXX, Waesala, Kec. Huamual Belakang, Kabupaten Seram Bagian Barat, Maluku";"Kabupaten Seram Bagian Barat, Maluku";"MALUKU";"";"Indonesia";"";"";"";"-3.2061241";"127.8747446";"https://maps.google.com/?cid=0x0:0x16cb74a9e1155897";""
"perumahan";"Komplek perumahan";"Jamni home";"RV8C+636, Waesala, Kec. Huamual Belakang, Kabupaten Seram Bagian Barat, Maluku";"Kabupaten Seram Bagian Barat, Maluku";"MALUKU";"";"Indonesia";"";"";"";"-3.184473";"127.8701377";"https://maps.google.com/?cid=0x0:0x4072a18d4e716dcf";""
"perumahan";"Komplek perumahan";"SARNO.A.UMASUGI";"W29F+2F, Waesala, Kec. Huamual Belakang, Kabupaten Seram Bagian Barat, Maluku";"Kabupaten Seram Bagian Barat, Maluku";"MALUKU";"";"Indonesia";"";"";"";"-3.0824116";"128.0237247";"https://maps.google.com/?cid=0x0:0x6fead662c5cd258c";""
"perumahan";"Kantor Pemerintah";"Rumah Rahman";"VW39+6VJ, Waesala, Kec. Huamual Belakang, Kabupaten Seram Bagian Barat, Maluku";"Kabupaten Seram Bagian Barat, Maluku";"MALUKU";"";"Indonesia";"";"";"";"-3.1468534";"127.919616";"https://maps.google.com/?cid=0x0:0x78dff2786566680";""
"perumahan";"Komplek perumahan";"Rumah Al Fajar Tms";"PW84+QGG, Waesala, Kec. Huamual Belakang, Kabupaten Seram Bagian Barat, Maluku";"Kabupaten Seram Bagian Barat, Maluku";"MALUKU";"";"Indonesia";"";"";"";"-3.2828378";"127.9065308";"https://maps.google.com/?cid=0x0:0x8802a2da9187dd99";""
"perumahan";"Komplek perumahan";"DUSUN TEMI,DESA LUHU,KEC HUAMUAL, KAB SBB";"MWWG+M8, Luhu, Kec. Huamual Belakang, Kabupaten Seram Bagian Barat, Maluku";"Kabupaten Seram Bagian Barat, Maluku";"MALUKU";"";"Indonesia";"";"";"";"-3.3033426";"127.9258159";"https://maps.google.com/?cid=0x0:0x2a9577c70669346b";""
"perumahan";"Gedung Apartemen";"Rumah mama dui";"PVQQ+FGH Ulatu, Luhu, Kec. Huamual Belakang, Kabupaten Seram Bagian Barat, Maluku";"Kabupaten Seram Bagian Barat, Maluku";"MALUKU";"";"Indonesia";"";"";"";"-3.2613113";"127.8888461";"https://maps.google.com/?cid=0x0:0x74b18fed5b5ff4fc";""
"perumahan";"perumahan";"Tempat rumah";"VW2F+47, Waesala, Kec. Huamual Belakang, Kabupaten Seram Bagian Barat, Maluku";"Kabupaten Seram Bagian Barat, Maluku";"MALUKU";"";"Indonesia";"";"";"";"-3.1497059";"127.9232205";"https://maps.google.com/?cid=0x0:0x62ebb008ca56b877";""
"perumahan";"Perumahan";"Rumah Mariyati";"RVVF+25, Waesala, Kec. Huamual Belakang, Kabupaten Seram Bagian Barat, Maluku";"Kabupaten Seram Bagian Barat, Maluku";"MALUKU";"";"Indonesia";"";"";"";"-3.1573959";"127.8729452";"https://maps.google.com/?cid=0x0:0x9b1db44ef25f0eaf";""
"perumahan";"perumahan";"Dusun Ulatu";"PVQQ+5Q3, Waesala, Kec. Huamual Belakang, Kabupaten Seram Bagian Barat, Maluku";"Kabupaten Seram Bagian Barat, Maluku";"MALUKU";"";"Indonesia";"";"";"";"-3.26211";"127.8894088";"https://maps.google.com/?cid=0x0:0x732709d62d0b95d9";""
"perumahan";"perumahan";"Rumah gio";"VW4F+GX, Waesala, Kec. Huamual Belakang, Kabupaten Seram Bagian Barat, Maluku";"Kabupaten Seram Bagian Barat, Maluku";"MALUKU";"";"Indonesia";"";"";"";"-3.143998";"127.924357";"https://maps.google.com/?cid=0x0:0xb25c77bba2fdf48f";""
"perumahan";"Komplek perumahan";"Mukaila";"MWWF+VJ9, Dusun TeMi, Luhu, Kec. Huamual Belakang, Kabupaten Seram Bagian Barat, Maluku";"Kabupaten Seram Bagian Barat, Maluku";"MALUKU";"";"Indonesia";"";"";"";"-3.3028286";"127.9241457";"https://maps.google.com/?cid=0x0:0xf8b61b844ff0a698";""
"perumahan";"Komplek perumahan";"rumah cano";"QVVF+RRC, Waesala, Kec. Huamual Belakang, Kabupaten Seram Bagian Barat, Maluku";"Kabupaten Seram Bagian Barat, Maluku";"MALUKU";"";"Indonesia";"";"";"";"-3.2054462";"127.8743091";"https://maps.google.com/?cid=0x0:0xf4b3e791ef85ce11";""
"perumahan";"Komplek perumahan";"AMKEY";"VW3C+GGH, Waesala, Kec. Huamual Belakang, Kabupaten Seram Bagian Barat, Maluku";"Kabupaten Seram Bagian Barat, Maluku";"MALUKU";"";"Indonesia";"";"";"";"-3.1464858";"127.9211938";"https://maps.google.com/?cid=0x0:0xb4e5cfbdeb59a0b";""
"perumahan";"Komplek perumahan";"Mimin karmina";"VW6H+9XX, Waesala, Kec. Huamual Belakang, Kabupaten Seram Bagian Barat, Maluku";"Kabupaten Seram Bagian Barat, Maluku";"MALUKU";"";"Indonesia";"";"";"";"-3.1390157";"127.9299706";"https://maps.google.com/?cid=0x0:0x7fc07320c8be204f";""
"perumahan";"Pembangunan Perumahan";"MigueL SiwaLette";"VX8F+J7F, Alang Asaude, Kec. Huamual Belakang, Kabupaten Seram Bagian Barat, Maluku";"Kabupaten Seram Bagian Barat, Maluku";"MALUKU";"";"Indonesia";"";"";"";"-3.1334477";"127.973162";"https://maps.google.com/?cid=0x0:0x59c61550eb497c0d";""
"perumahan";"Komplek perumahan";"Kompleks gayang";"PVPR+V3P, Luhu, Kec. Huamual Belakang, Kabupaten Seram Bagian Barat, Maluku";"Kabupaten Seram Bagian Barat, Maluku";"MALUKU";"";"Indonesia";"";"";"";"-3.2627802";"127.890191";"https://maps.google.com/?cid=0x0:0xd3696e74a555bd22";""
"perumahan";"Komplek perumahan";"ZAYAN";"VW39+CRQ, Waesala, Kec. Huamual Belakang, Kabupaten Seram Bagian Barat, Maluku";"Kabupaten Seram Bagian Barat, Maluku";"MALUKU";"";"Indonesia";"";"";"";"-3.1464039";"127.9196139";"https://maps.google.com/?cid=0x0:0xcacb3c1077c9d243";""
"perumahan";"Komplek perumahan";"Durian patah";"QVJG+36W, Waesala, Kec. Huamual Belakang, Kabupaten Seram Bagian Barat, Maluku";"Kabupaten Seram Bagian Barat, Maluku";"MALUKU";"";"Indonesia";"";"";"";"-3.2197708";"127.8755922";"https://maps.google.com/?cid=0x0:0x8f6db38e6708dec0";""
"perumahan";"Kantor Pemerintah";"Desa Waesala, Kec.Huamual Belakang, Kab.SBB";"VW2C+XJ4, Waesala, Kec. Huamual Belakang, Kabupaten Seram Bagian Barat, Maluku";"Kabupaten Seram Bagian Barat, Maluku";"MALUKU";"";"Indonesia";"";"";"";"-3.1474777";"127.9216581";"https://maps.google.com/?cid=0x0:0xe003fcda6ae6c170";""
"perumahan";"Komplek perumahan";"Rumah";"VW2C+XJ4, Waesala, Kec. Huamual Belakang, Kabupaten Seram Bagian Barat, Maluku";"Kabupaten Seram Bagian Barat, Maluku";"MALUKU";"";"Indonesia";"";"";"";"-3.1476521";"127.921568";"https://maps.google.com/?cid=0x0:0x28169fd04c02cca5";""
"perumahan";"perumahan";"Kec. Amalatu";"Kabupaten Seram Bagian Barat, Maluku";"Kabupaten Seram Bagian Barat, Maluku";"MALUKU";"";"Indonesia";"";"";"";"-3.4079418";"128.6921861";"https://maps.google.com/?cid=0x0:0xb6a4667e86dc46e1";""
"perumahan";"Pembangunan Perumahan";"Perumahan Masa Depan";"JMQH+VCQ, Seriholo, Kec. Amalatu, Kabupaten Seram Bagian Barat, Maluku";"Kabupaten Seram Bagian Barat, Maluku";"MALUKU";"";"Indonesia";"";"";"";"-3.3602939";"128.6786232";"https://maps.google.com/?cid=0x0:0xd68c40d5866dc993";""
"perumahan";"Komplek perumahan";"Kompleks lonte";"MM4V+48G, Tala, Kec. Amalatu, Kabupaten Seram Bagian Barat, Maluku";"Kabupaten Seram Bagian Barat, Maluku";"MALUKU";"";"Indonesia";"";"";"";"-3.3447435";"128.6932508";"https://maps.google.com/?cid=0x0:0xdc2426bb34e4a424";""
"perumahan";"Komplek perumahan";"Lorong dewi";"HMHP+R7R, Jl. Trans Seram, Latu, Kec. Amalatu, Kabupaten Seram Bagian Barat, Maluku";"Kabupaten Seram Bagian Barat, Maluku";"MALUKU";"";"Indonesia";"";"";"";"-3.4204381";"128.6861482";"https://maps.google.com/?cid=0x0:0xfe2a7f6633d02807";""
"perumahan";"Komplek perumahan";"Rumah Kel.N.Salawanej";"GGV9+322, Tihulale, Kec. Amalatu, Kabupaten Seram Bagian Barat, Maluku";"Kabupaten Seram Bagian Barat, Maluku";"MALUKU";"";"Indonesia";"";"";"";"-3.4572865";"128.5168178";"https://maps.google.com/?cid=0x0:0x469b297b4a962ef5";""
"perumahan";"Perhimpunan Pengembang Perumahan";"Dusun Namatotur";"HJM2+V6M, Latu, Kec. Amalatu, Kabupaten Seram Bagian Barat, Maluku";"Kabupaten Seram Bagian Barat, Maluku";"MALUKU";"";"Indonesia";"";"";"";"-3.4152835";"128.6005328";"https://maps.google.com/?cid=0x0:0xe79d8704dd43423a";""
"perumahan";"Komplek perumahan";"Senyap ikim(Zidan pung rumah)";"HMVV+823, Hualoy, Kec. Amalatu, Kabupaten Seram Bagian Barat, Maluku";"Kabupaten Seram Bagian Barat, Maluku";"MALUKU";"";"Indonesia";"";"";"";"-3.4067289";"128.6925324";"https://maps.google.com/?cid=0x0:0x7cd8c71656aad576";""
"perumahan";"Komplek perumahan";"AyraSul Home Nonaini";"HM9G+J9R, Latu, Kec. Amalatu, Kabupaten Seram Bagian Barat, Maluku";"Kabupaten Seram Bagian Barat, Maluku";"MALUKU";"";"Indonesia";"";"";"";"-3.4308944";"128.6758859";"https://maps.google.com/?cid=0x0:0x986913dbd6aa73e9";""
"perumahan";"Komplek perumahan";"Kompleks Jalur Gaza";"HMMV+G48, Latu, Kec. Amalatu, Kabupaten Seram Bagian Barat, Maluku";"Kabupaten Seram Bagian Barat, Maluku";"MALUKU";"";"Indonesia";"";"";"";"-3.4162163";"128.6928253";"https://maps.google.com/?cid=0x0:0x691d92773c5172a0";""
"perumahan";"Komplek perumahan";"Yan Velix";"HG3Q+67G, Rumahkay, Kec. Amalatu, Kabupaten Seram Bagian Barat, Maluku";"Kabupaten Seram Bagian Barat, Maluku";"MALUKU";"";"Indonesia";"";"";"";"-3.4469382";"128.5381962";"https://maps.google.com/?cid=0x0:0x6e018d867f99a257";""
"perumahan";"Pembangunan Perumahan";"Rumah Fillonzo Corputty";"HG5R+59, Rumahkay, Kec. Amalatu, Kabupaten Seram Bagian Barat, Maluku";"Kabupaten Seram Bagian Barat, Maluku";"MALUKU";"";"Indonesia";"";"";"";"-3.4410842";"128.5413738";"https://maps.google.com/?cid=0x0:0x5f1947cad58a08ec";""
"perumahan";"Komplek perumahan";"Kel Haulussy";"MPC5+77M, Huse- Nari, Sanahu, Kec. Amalatu, Kabupaten Seram Bagian Barat, Maluku";"Kabupaten Seram Bagian Barat, Maluku";"MALUKU";"";"Indonesia";"";"";"";"-3.3292818";"128.7081596";"https://maps.google.com/?cid=0x0:0xd9f4b8ce22e81a65";""
"perumahan";"Komplek perumahan";"Alghazali ukratalo";"HMJP+4F, Latu, Kec. Amalatu, Kabupaten Seram Bagian Barat, Maluku";"Kabupaten Seram Bagian Barat, Maluku";"MALUKU";"";"Indonesia";"";"";"";"-3.419715";"128.6861592";"https://maps.google.com/?cid=0x0:0x2bc3f1c99ad35967";""
"perumahan";"Komplek perumahan";"Rmh LUSSY";"HMVR+9VW, Hualoy, Kec. Amalatu, Kabupaten Seram Bagian Barat, Maluku";"Kabupaten Seram Bagian Barat, Maluku";"MALUKU";"";"Indonesia";"";"";"";"-3.4065207";"128.6921991";"https://maps.google.com/?cid=0x0:0x169ae6db39ea6660";""
"perumahan";"Komplek perumahan";"Keluarga Maakewe";"MM4V+2F8, Tala, Kec. Amalatu, Kabupaten Seram Bagian Barat, Maluku";"Kabupaten Seram Bagian Barat, Maluku";"MALUKU";"";"Indonesia";"";"";"";"-3.3436625";"128.6922344";"https://maps.google.com/?cid=0x0:0x12248459e179d5b0";""
"perumahan";"Komplek perumahan";"Alif";"Latu, Kec. Amalatu, Kabupaten Seram Bagian Barat, Maluku";"Kabupaten Seram Bagian Barat, Maluku";"MALUKU";"";"Indonesia";"";"";"";"-3.4205512";"128.6882107";"https://maps.google.com/?cid=0x0:0x48fb78d411120df9";""
"perumahan";"Komplek perumahan";"NLT";"HMRR+MCP, Hualoy, Kec. Amalatu, Kabupaten Seram Bagian Barat, Maluku";"Kabupaten Seram Bagian Barat, Maluku";"MALUKU";"";"Indonesia";"";"";"";"-3.4082838";"128.6910709";"https://maps.google.com/?cid=0x0:0xb33bda87992c85e9";""
"perumahan";"Komplek perumahan";"Negeri Tomalehu";"HMRV+MCG, Tomalehu, Kec. Amalatu, Kabupaten Seram Bagian Barat, Maluku";"Kabupaten Seram Bagian Barat, Maluku";"MALUKU";"";"Indonesia";"";"";"";"-3.4083195";"128.6935658";"https://maps.google.com/?cid=0x0:0xdd897b6de3a7a733";""
"perumahan";"Komplek perumahan";"R Tanuwele";"JMRJ+Q6C, Seriholo, Kec. Amalatu, Kabupaten Seram Bagian Barat, Maluku";"Kabupaten Seram Bagian Barat, Maluku";"MALUKU";"";"Indonesia";"";"";"";"-3.358072";"128.6805117";"https://maps.google.com/?cid=0x0:0x6b26b8f697a2740c";""
"perumahan";"Komplek perumahan";"Kompleks Lorma";"MM3V+83R, Tala, Kec. Amalatu, Kabupaten Seram Bagian Barat, Maluku";"Kabupaten Seram Bagian Barat, Maluku";"MALUKU";"";"Indonesia";"";"";"";"-3.3466437";"128.6926547";"https://maps.google.com/?cid=0x0:0xc5696dadbfca087f";""
"perumahan";"Komplek perumahan";"Kompleks Posaq Hualoy";"HMRR+RGP, Hualoy, Kec. Amalatu, Kabupaten Seram Bagian Barat, Maluku";"Kabupaten Seram Bagian Barat, Maluku";"MALUKU";"";"Indonesia";"";"";"";"-3.4079121";"128.6913296";"https://maps.google.com/?cid=0x0:0xd145e554bf901127";""
"perumahan";"Komplek perumahan";"Rumah Singgah Zona Leka";"HMJR+RFP, Wairikenno comunitty, Latu, Kec. Amalatu, Kabupaten Seram Bagian Barat, Maluku";"Kabupaten Seram Bagian Barat, Maluku";"MALUKU";"";"Indonesia";"";"";"";"-3.4178085";"128.6914209";"https://maps.google.com/?cid=0x0:0x4e8e3a19bbf621f7";""
"perumahan";"perumahan";"Kec. Inamosol";"Kabupaten Seram Bagian Barat, Maluku";"Kabupaten Seram Bagian Barat, Maluku";"MALUKU";"";"Indonesia";"";"";"";"-3.2334031";"128.4500616";"https://maps.google.com/?cid=0x0:0x5bec28e34f3cb18d";""
"perumahan";"Komplek perumahan";"Rumahtita";"QCMV+4J, Rumberu, Kec. Inamosol, Kabupaten Seram Bagian Barat, Maluku";"Kabupaten Seram Bagian Barat, Maluku";"MALUKU";"";"Indonesia";"";"";"";"-3.217248";"128.4440504";"https://maps.google.com/?cid=0x0:0x8bef34251e03a299";""
"perumahan";"Pembangunan Perumahan";"Kompleks Tanjakan Eden";"RGH4+PCR, Rambatu, Kec. Inamosol, Kabupaten Seram Bagian Barat, Maluku";"Kabupaten Seram Bagian Barat, Maluku";"MALUKU";"";"Indonesia";"";"";"";"-3.1706451";"128.5060147";"https://maps.google.com/?cid=0x0:0xefc3315ef278da9f";""
"perumahan";"Pembangunan Perumahan";"Perumahan supri";"VCF2+48P, Dusun pilar kabupaten sbb, provinsi Ambon, Rumberu";"Kabupaten Seram Bagian Barat, Maluku";"MALUKU";"";"Indonesia";"";"";"";"-3.1271575";"128.4008357";"https://maps.google.com/?cid=0x0:0x754d6b95d2bda44a";""
"perumahan";"Komplek perumahan";"Kios tasya S";"VCF2+48P, RT.4/RW.dusun laala, Rumberu, Kec. Inamosol, Kabupaten Seram Bagian Barat, Maluku";"Kabupaten Seram Bagian Barat, Maluku";"MALUKU";"";"Indonesia";"";"";"";"-3.1271575";"128.4008357";"https://maps.google.com/?cid=0x0:0x8c6119d81bb2f51c";""
"perumahan";"Komplek perumahan";"Sitrah";"VCF2+48P, Rumberu, Kec. Inamosol, Kabupaten Seram Bagian Barat, Maluku";"Kabupaten Seram Bagian Barat, Maluku";"MALUKU";"";"Indonesia";"";"";"";"-3.1271575";"128.4008357";"https://maps.google.com/?cid=0x0:0x76f32845b57e3835";""
"perumahan";"Komplek perumahan";"Nus Kapitan";"QGRQ+72F, Hukuanakota, Kec. Inamosol, Kabupaten Seram Bagian Barat, Maluku";"Kabupaten Seram Bagian Barat, Maluku";"MALUKU";"";"Indonesia";"";"";"";"-3.2093159";"128.5375358";"https://maps.google.com/?cid=0x0:0xfdf72d17f606b061";""
"perumahan";"Komplek perumahan";"Desa Rambatu";"RGH4+PCR, Rambatu, Kec. Inamosol, Kabupaten Seram Bagian Barat, Maluku";"Kabupaten Seram Bagian Barat, Maluku";"MALUKU";"";"Indonesia";"";"";"";"-3.1706451";"128.5060147";"https://maps.google.com/?cid=0x0:0x594bfcf065de46d3";""
"perumahan";"Komplek perumahan";"Kl, bpa tenes taniwel";"RC8J+CCV, Rambatu, Kec. Inamosol, Kabupaten Seram Bagian Barat, Maluku";"Kabupaten Seram Bagian Barat, Maluku";"MALUKU";"";"Indonesia";"";"";"";"-3.1838882";"128.4310527";"https://maps.google.com/?cid=0x0:0xc2b5f2c34858098e";""
"perumahan";"Komplek perumahan";"Tian bendera village";"VCF2+48P, Rumberu, Kec. Inamosol, Kabupaten Seram Bagian Barat, Maluku";"Kabupaten Seram Bagian Barat, Maluku";"MALUKU";"";"Indonesia";"";"";"";"-3.1271575";"128.4008357";"https://maps.google.com/?cid=0x0:0xab370714182004c5";""
"perumahan";"Komplek perumahan";"Noke Ririne";"QFRQ+JQ, Rambatu, Kec. Inamosol, Kabupaten Seram Bagian Barat, Maluku";"Kabupaten Seram Bagian Barat, Maluku";"MALUKU";"";"Indonesia";"";"";"";"-3.2084736";"128.4894414";"https://maps.google.com/?cid=0x0:0xc78f40200b2e0c46";""
"perumahan";"Komplek perumahan";"Rumah apiyo";"P95Q+QV, Waimital, Kec. Kairatu, Kabupaten Seram Bagian Barat, Maluku";"Kabupaten Seram Bagian Barat, Maluku";"MALUKU";"";"Indonesia";"";"";"";"-3.290262";"128.3898706";"https://maps.google.com/?cid=0x0:0x948c86bd3c7d79ff";""
"perumahan";"Pembangunan Perumahan";"Perumahan Rastra  SiKembar";"M966+QGX, Gemba, Waimital, Kec. Kairatu, Kabupaten Seram Bagian Barat, Maluku";"Kabupaten Seram Bagian Barat, Maluku";"MALUKU";"";"Indonesia";"";"";"";"-3.3379191";"128.3614221";"https://maps.google.com/?cid=0x0:0xfe6bfcd37858f78f";""
"perumahan";"Kantor Hubungan Masyarakat";"Sokowati";"M975+2G7, Jl. Trans Seram, Waimital, Kec. Kairatu, Kabupaten Seram Bagian Barat, Maluku";"Kabupaten Seram Bagian Barat, Maluku";"MALUKU";"";"Indonesia";"";"";"";"-3.2758072";"128.4107526";"https://maps.google.com/?cid=0x0:0xb5408483be9153a5";""
"perumahan";"Studio Fotografi";"Foto copy/WiFi Devano";"VCF2+48P, Rumberu, Kec. Inamosol, Kabupaten Seram Bagian Barat, Maluku";"Kabupaten Seram Bagian Barat, Maluku";"MALUKU";"";"Indonesia";"";"";"";"-3.1271575";"128.4008357";"https://maps.google.com/?cid=0x0:0x2696145fdbf401ed";""
"perumahan";"Komplek perumahan";"Amo n Luis Home";"M9JV+J7G, Uraur, Kec. Kairatu, Kabupaten Seram Bagian Barat, Maluku";"Kabupaten Seram Bagian Barat, Maluku";"MALUKU";"";"Indonesia";"";"";"";"-3.318032";"128.3932163";"https://maps.google.com/?cid=0x0:0xf88484e5e6372214";""
"perumahan";"Komplek perumahan";"Mon Hattu";"VCF2+48P, Rumberu, Kec. Inamosol, Kabupaten Seram Bagian Barat, Maluku";"Kabupaten Seram Bagian Barat, Maluku";"MALUKU";"";"Indonesia";"";"";"";"-3.1271575";"128.4008357";"https://maps.google.com/?cid=0x0:0x9161e29be42529c";""
"perumahan";"Komplek perumahan";"Rumah Kita";"P96Q+XGW Kilo Sembilan, Dusun Kawatu Baru Desa, Rumberu, Kec. Inamosol, Kabupaten Seram Bagian Barat, Maluku";"Kabupaten Seram Bagian Barat, Maluku";"MALUKU";"";"Indonesia";" 082349040520";"";"";"-3.2875042";"128.3888369";"https://maps.google.com/?cid=0x0:0x42da636e64f819f5";""
"perumahan";"Komplek perumahan";"Tanah Milik Keluarga izak Latumahina";"M9FR+7FQ, Uraur, Kec. Kairatu, Kabupaten Seram Bagian Barat, Maluku";"Kabupaten Seram Bagian Barat, Maluku";"MALUKU";"";"Indonesia";"";"";"";"-3.3267964";"128.3912371";"https://maps.google.com/?cid=0x0:0xefeeb68d9a0d74b2";""
"perumahan";"Komplek perumahan";"Bapak Fery Taniwel";"RC9J+R4H, Rumberu, Kec. Inamosol, Kabupaten Seram Bagian Barat, Maluku";"Kabupaten Seram Bagian Barat, Maluku";"MALUKU";"";"Indonesia";"";"";"";"-3.1806241";"128.4304236";"https://maps.google.com/?cid=0x0:0x205c09fcd66c9b3";""
"perumahan";"Kantor Pemerintah";"Puskesmas Inamosol";"M9RW+4R4, Waimital, Kec. Kairatu, Kabupaten Seram Bagian Barat, Maluku";"Kabupaten Seram Bagian Barat, Maluku";"MALUKU";"";"Indonesia";"";"";"";"-3.3097441";"128.3970877";"https://maps.google.com/?cid=0x0:0xdd61e73d11770679";""
"perumahan";"Komplek perumahan";"Rumahnya Rindu";"M993+RPR, Waimital, Kec. Kairatu, Kabupaten Seram Bagian Barat, Maluku";"Kabupaten Seram Bagian Barat, Maluku";"MALUKU";"";"Indonesia";"";"";"";"-3.3303831";"128.3542811";"https://maps.google.com/?cid=0x0:0x18f8a15f249464d1";""
"perumahan";"Komplek perumahan";"TikaHome";"M947+HVQ, Kairatu, Kec. Kairatu, Kabupaten Seram Bagian Barat, Maluku";"Kabupaten Seram Bagian Barat, Maluku";"MALUKU";"";"Indonesia";"";"";"";"-3.3435389";"128.3647436";"https://maps.google.com/?cid=0x0:0x41cac9ceebd67cea";""
"perumahan";"Pembangunan Perumahan";"Perumahan Rastra  SiKembar";"M966+QGX, Gemba, Waimital, Kec. Kairatu, Kabupaten Seram Bagian Barat, Maluku";"Kabupaten Seram Bagian Barat, Maluku";"MALUKU";"";"Indonesia";"";"";"";"-3.3379191";"128.3614221";"https://maps.google.com/?cid=0x0:0xfe6bfcd37858f78f";""
"perumahan";"Komplek perumahan";"KEL. E. SALELATU";"M959+2X2, Jl. Trans Seram, Kairatu, Kec. Kairatu, Kabupaten Seram Bagian Barat, Maluku";"Kabupaten Seram Bagian Barat, Maluku";"MALUKU";"";"Indonesia";"";"";"";"-3.342837";"128.3693989";"https://maps.google.com/?cid=0x0:0x663f7810e0d6dc0a";""
"perumahan";"Komplek perumahan";"Kairatu";"M94C+W6G, Kairatu, Kec. Kairatu, Kabupaten Seram Bagian Barat, Maluku";"Kabupaten Seram Bagian Barat, Maluku";"MALUKU";"";"Indonesia";"";"";"";"-3.3426909";"128.3705907";"https://maps.google.com/?cid=0x0:0xf304c26437146fbd";""
"perumahan";"Komplek perumahan";"Rumahnya Rindu";"M993+RPR, Waimital, Kec. Kairatu, Kabupaten Seram Bagian Barat, Maluku";"Kabupaten Seram Bagian Barat, Maluku";"MALUKU";"";"Indonesia";"";"";"";"-3.3303831";"128.3542811";"https://maps.google.com/?cid=0x0:0x18f8a15f249464d1";""
"perumahan";"Pembangunan Perumahan";"Rumah penduduk";"M953+84M, dusun waitasi, Kairatu, Kec. Kairatu, Kabupaten Seram Bagian Barat, Maluku";"Kabupaten Seram Bagian Barat, Maluku";"MALUKU";"";"Indonesia";"";"";"";"-3.341675";"128.352798";"https://maps.google.com/?cid=0x0:0x45320d42fdf62486";""
"perumahan";"Komplek perumahan";"RUMAH SINGGAH";"Q7MF+CQQ, Jl. Aru, Kamal, Kec. Kairatu Bar., Kabupaten Seram Bagian Barat, Maluku";"Kabupaten Seram Bagian Barat, Maluku";"MALUKU";"";"Indonesia";"";"";"";"-3.2164396";"128.2746432";"https://maps.google.com/?cid=0x0:0xd66694cf35855370";""
"perumahan";"Perhimpunan Pengembang Perumahan";"J,Surilatu";"M8RJ+79M, Hatusua, Kec. Kairatu, Kabupaten Seram Bagian Barat, Maluku";"Kabupaten Seram Bagian Barat, Maluku";"MALUKU";"";"Indonesia";"";"";"";"-3.3092988";"128.3309187";"https://maps.google.com/?cid=0x0:0x2e4f2a81df1f696d";""
"perumahan";"Komplek perumahan";"Abdul rumah";"J9MG+PFG, Kairatu, Kec. Kairatu, Kabupaten Seram Bagian Barat, Maluku";"Kabupaten Seram Bagian Barat, Maluku";"MALUKU";"";"Indonesia";"";"";"";"-3.366493";"128.3759372";"https://maps.google.com/?cid=0x0:0xb49ffd2bf0659f88";""
"perumahan";"Perhimpunan Pengembang Perumahan";"Rumah onana";"M932+RGW, Kairatu, Kec. Kairatu, Kabupaten Seram Bagian Barat, Maluku";"Kabupaten Seram Bagian Barat, Maluku";"MALUKU";"";"Indonesia";"";"";"";"-3.3453667";"128.3514262";"https://maps.google.com/?cid=0x0:0x512980f397ad9bba";""
"perumahan";"Komplek perumahan";"Enka home";"M953+84M, Jln gemba lama, Kairatu, Kec. Kairatu, Kabupaten Seram Bagian Barat, Maluku";"Kabupaten Seram Bagian Barat, Maluku";"MALUKU";"";"Indonesia";"";"";"";"-3.341675";"128.352798";"https://maps.google.com/?cid=0x0:0xf24a44a0b6cbeb5d";""
"perumahan";"Pembangunan Perumahan";"Rumah Kita";"M86X+CQ9, Unnamed Road, Waipirit, Kec. Kairatu, Kabupaten Seram Bagian Barat, Maluku";"Kabupaten Seram Bagian Barat, Maluku";"MALUKU";"";"Indonesia";"";"";"";"-3.3389636";"128.3494795";"https://maps.google.com/?cid=0x0:0x8afb14f6b3a4341e";""
"perumahan";"Komplek perumahan";"Rumah Zaky";"M963+J37, Waimital, Kec. Kairatu, Kabupaten Seram Bagian Barat, Maluku";"Kabupaten Seram Bagian Barat, Maluku";"MALUKU";"";"Indonesia";"";"";"";"-3.3384707";"128.3526631";"https://maps.google.com/?cid=0x0:0xb2be257d7740d2e0";""
"perumahan";"Komplek perumahan";"Rumahku";"M963+J37, Waimital, Kec. Kairatu, Kabupaten Seram Bagian Barat, Maluku";"Kabupaten Seram Bagian Barat, Maluku";"MALUKU";"";"Indonesia";"";"";"";"-3.3380992";"128.3532128";"https://maps.google.com/?cid=0x0:0x180724a4af58bf11";""
"perumahan";"Komplek perumahan";"Hp ilang";"Q7JJ+G4, Kamal, Kec. Kairatu Bar., Kabupaten Seram Bagian Barat, Maluku";"Kabupaten Seram Bagian Barat, Maluku";"MALUKU";"";"Indonesia";"";"";"";"-3.2182369";"128.2811352";"https://maps.google.com/?cid=0x0:0xfeadfbcb61974825";""
"perumahan";"Pemakaman";"Dusun Talaga Ratu";"M932+PMJ, Kairatu, Kec. Kairatu, Kabupaten Seram Bagian Barat, Maluku";"Kabupaten Seram Bagian Barat, Maluku";"MALUKU";"";"Indonesia";"";"";"";"-3.3456647";"128.3516283";"https://maps.google.com/?cid=0x0:0x4921ba90fe15241a";""
"perumahan";"Komplek perumahan";"Ursana";"M922+WWW, Kairatu, Kec. Kairatu, Kabupaten Seram Bagian Barat, Maluku";"Kabupaten Seram Bagian Barat, Maluku";"MALUKU";"";"Indonesia";"";"";"";"-3.34764";"128.3523243";"https://maps.google.com/?cid=0x0:0x2bd82bcab7510652";""
"perumahan";"Komplek perumahan";"Pakang";"J9W7+VRC, Kairatu, Kec. Kairatu, Kabupaten Seram Bagian Barat, Maluku";"Kabupaten Seram Bagian Barat, Maluku";"MALUKU";"";"Indonesia";"";"";"";"-3.352802";"128.3645081";"https://maps.google.com/?cid=0x0:0xfbbe593ac1d73b0e";""
"perumahan";"Komplek perumahan";"MATOKE BERSAUDARA (MABES)";"M949+V3H, Kairatu, Kec. Kairatu, Kabupaten Seram Bagian Barat, Maluku";"Kabupaten Seram Bagian Barat, Maluku";"MALUKU";"";"Indonesia";"";"";"";"-3.3428008";"128.3677411";"https://maps.google.com/?cid=0x0:0x96d561ab6ce8a1d5";""
"perumahan";"Hotel";"Rumah leke kaimudin";"Dusun air buaya Piru, Kairatu, Kec. Kairatu, Kabupaten Seram Bagian Barat, Maluku 97566";"Kairatu, Kec. Kairatu, Kabupaten Seram Bagian Barat";"MALUKU";"97566";"Indonesia";" 082198334580";"";"";"-3.3711066";"128.3750432";"https://maps.google.com/?cid=0x0:0xdfe88c51e2c8a2eb";""
"perumahan";"Komplek perumahan";"House";"J9JF+CH7, Kairatu, Kec. Kairatu, Kabupaten Seram Bagian Barat, Maluku";"Kabupaten Seram Bagian Barat, Maluku";"MALUKU";"";"Indonesia";"";"";"";"-3.3682887";"128.3737453";"https://maps.google.com/?cid=0x0:0x31401bdf5f645065";""
"perumahan";"Perhimpunan Pengembang Perumahan";"RUMAH LEHWURNITUA";"M99M+VM9, Uraur, Kec. Kairatu, Kabupaten Seram Bagian Barat, Maluku";"Kabupaten Seram Bagian Barat, Maluku";"MALUKU";"";"Indonesia";"";"";"";"-3.3311555";"128.3845594";"https://maps.google.com/?cid=0x0:0x867cf6c8d7d8c6fc";""
"perumahan";"Komplek perumahan";"Rumah Kakek  Nenek";"M8QJ+277, Hatusua, Kec. Kairatu, Kabupaten Seram Bagian Barat, Maluku";"Kabupaten Seram Bagian Barat, Maluku";"MALUKU";"";"Indonesia";"";"";"";"-3.3124629";"128.3306763";"https://maps.google.com/?cid=0x0:0xed768ccff6873e2b";""
"perumahan";"Komplek perumahan";"Keluarga Bapak Semuel Silahoy";"M959+C3G, Jl. Trans Seram, Kairatu, Kec. Kairatu, Kabupaten Seram Bagian Barat, Maluku";"Kabupaten Seram Bagian Barat, Maluku";"MALUKU";"";"Indonesia";"";"";"";"-3.341436";"128.3677003";"https://maps.google.com/?cid=0x0:0x6549655e52eb6bc8";""
"perumahan";"Komplek perumahan";"Hj. Sulastri House";"M972+X8F, Waimital, Kec. Kairatu, Kabupaten Seram Bagian Barat, Maluku";"Kabupaten Seram Bagian Barat, Maluku";"MALUKU";"";"Indonesia";"";"";"";"-3.3352291";"128.351003";"https://maps.google.com/?cid=0x0:0xdc1ce5a901c1ea3e";""
"perumahan";"Komplek perumahan";"Kel ulate";"J9X7+6RW, Kairatu, Kec. Kairatu, Kabupaten Seram Bagian Barat, Maluku";"Kabupaten Seram Bagian Barat, Maluku";"MALUKU";"";"Indonesia";"";"";"";"-3.3520151";"128.3645103";"https://maps.google.com/?cid=0x0:0x93b57fdf298f02e5";""
"perumahan";"perumahan";"Kec. Huamual Belakang";"Kabupaten Seram Bagian Barat, Maluku";"Kabupaten Seram Bagian Barat, Maluku";"MALUKU";"";"Indonesia";"";"";"";"-3.2255814";"128.0662787";"https://maps.google.com/?cid=0x0:0x234bd4efeec3b38";""
"perumahan";"Komplek perumahan";"Kompleks perumahan";"MWWG+M88, Dusun Temi, Luhu, Kec. Huamual Belakang, Kabupaten Seram Bagian Barat, Maluku";"Kabupaten Seram Bagian Barat, Maluku";"MALUKU";"";"Indonesia";"";"";"";"-3.3033426";"127.9258159";"https://maps.google.com/?cid=0x0:0xf219e2d4133bab99";""
"perumahan";"Pembangunan Perumahan";"SAHRUL";"P3Q6+QMP, Lokki, Kec. Huamual Belakang, Kabupaten Seram Bagian Barat, Maluku";"Kabupaten Seram Bagian Barat, Maluku";"MALUKU";"";"Indonesia";"";"";"";"-3.260671";"128.0624704";"https://maps.google.com/?cid=0x0:0x3ded6b67a8319104";""
"perumahan";"Komplek perumahan";"immz";"P3R6+5VP, Lokki, Kec. Huamual Belakang, Kabupaten Seram Bagian Barat, Maluku";"Kabupaten Seram Bagian Barat, Maluku";"MALUKU";"";"Indonesia";"";"";"";"-3.2594991";"128.0619732";"https://maps.google.com/?cid=0x0:0xb6569255b7ab9a71";""
"perumahan";"Pembangunan Perumahan";"Hamka Sidubun";"Lokki, Kec. Huamual Belakang, Kabupaten Seram Bagian Barat, Maluku";"Kabupaten Seram Bagian Barat, Maluku";"MALUKU";"";"Indonesia";"";"";"";"-3.3069";"128.0592773";"https://maps.google.com/?cid=0x0:0x7094743349f46df0";""
"perumahan";"Komplek perumahan";"Rumah Mesi ramulu";"JXFQ+363, Luhu, Kec. Huamual Belakang, Kabupaten Seram Bagian Barat, Maluku";"Kabupaten Seram Bagian Barat, Maluku";"MALUKU";"";"Indonesia";"";"";"";"-3.377374";"127.9880485";"https://maps.google.com/?cid=0x0:0xa123e38968f094b1";""
"perumahan";"Komplek perumahan";"Julaiha";"P3P5+J4W, Lokki, Kec. Huamual Belakang, Kabupaten Seram Bagian Barat, Maluku";"Kabupaten Seram Bagian Barat, Maluku";"MALUKU";"";"Indonesia";"";"";"";"-3.2636853";"128.0578097";"https://maps.google.com/?cid=0x0:0xeac8ba5d49529aaa";""
"perumahan";"Pembangunan Perumahan";"Dusun lirang";"MWCM+W4G, Luhu, Kec. Huamual Belakang, Kabupaten Seram Bagian Barat, Maluku";"Kabupaten Seram Bagian Barat, Maluku";"MALUKU";"";"Indonesia";"";"";"";"-3.3276805";"127.9328285";"https://maps.google.com/?cid=0x0:0xc1910a94231979bd";""
"perumahan";"Komplek perumahan";"RUMAH JUJAN";"JWRV+CG4, Kambelo, Kec. Huamual Belakang, Kabupaten Seram Bagian Barat, Maluku";"Kabupaten Seram Bagian Barat, Maluku";"MALUKU";"";"Indonesia";"";"";"";"-3.3583356";"127.9436071";"https://maps.google.com/?cid=0x0:0x864e095624ed378a";""
"perumahan";"Komplek perumahan";"Rumah Edmon mailuhu";"P356+JF5, Lokki, Kec. Huamual Belakang, Kabupaten Seram Bagian Barat, Maluku";"Kabupaten Seram Bagian Barat, Maluku";"MALUKU";"";"Indonesia";"";"";"";"-3.2909822";"128.0612454";"https://maps.google.com/?cid=0x0:0xc6d8dfc3f15587dc";""
"perumahan";"perumahan";"Rumah INNAYAH";"Q2GR+PQH, Lokki, Kec. Huamual Belakang, Kabupaten Seram Bagian Barat, Maluku";"Kabupaten Seram Bagian Barat, Maluku";"MALUKU";"";"Indonesia";"";"";"";"-3.223189";"128.0419836";"https://maps.google.com/?cid=0x0:0x8bd1a489b19c91e6";""
"perumahan";"Komplek perumahan";"HOME Ferdinandus_Andi s";"P375+XXQ, Lokki, Kec. Huamual Belakang, Kabupaten Seram Bagian Barat, Maluku";"Kabupaten Seram Bagian Barat, Maluku";"MALUKU";"";"Indonesia";"";"";"";"-3.2850427";"128.0599957";"https://maps.google.com/?cid=0x0:0x47a049a7638dab2e";""
"perumahan";"Komplek perumahan";"Rumah Jihan";"JX8F+V3G, Luhu, Kec. Huamual Belakang, Kabupaten Seram Bagian Barat, Maluku";"Kabupaten Seram Bagian Barat, Maluku";"MALUKU";"";"Indonesia";"";"";"";"-3.382816";"127.972702";"https://maps.google.com/?cid=0x0:0x9cd7f3a80ff51be3";""
"perumahan";"Komplek perumahan";"RUMAH GATHANTANVAN";"JXGQ+965, Luhu, Kec. Huamual Belakang, Kabupaten Seram Bagian Barat, Maluku";"Kabupaten Seram Bagian Barat, Maluku";"MALUKU";"";"Indonesia";"";"";"";"-3.3741037";"127.9881038";"https://maps.google.com/?cid=0x0:0x3111ca3da9bcdd84";""
"perumahan";"Komplek perumahan";"Rmh😈😈";"P3Q6+F25, Lokki, Kec. Huamual Belakang, Kabupaten Seram Bagian Barat, Maluku";"Kabupaten Seram Bagian Barat, Maluku";"MALUKU";"";"Indonesia";"";"";"";"-3.2617";"128.059821";"https://maps.google.com/?cid=0x0:0xc696efb75766b089";""
"perumahan";"Komplek perumahan";"La endok";"P3P4+PRJ, Unnamed Road, Lokki, Kec. Huamual Belakang, Kabupaten Seram Bagian Barat, Maluku";"Kabupaten Seram Bagian Barat, Maluku";"MALUKU";"";"Indonesia";"";"";"";"-3.2631616";"128.0570091";"https://maps.google.com/?cid=0x0:0x4f78b379f57f65d9";""
"perumahan";"Komplek perumahan";"T I H U A";"J2V2+67, Luhu, Kec. Huamual Belakang, Kabupaten Seram Bagian Barat, Maluku";"Kabupaten Seram Bagian Barat, Maluku";"MALUKU";"";"Indonesia";"";"";"";"-3.3568758";"128.0007102";"https://maps.google.com/?cid=0x0:0xff08305113b4081b";""
"perumahan";"Komplek perumahan";"Nasrul";"P3R6+5VP, Lokki, Kec. Huamual Belakang, Kabupaten Seram Bagian Barat, Maluku";"Kabupaten Seram Bagian Barat, Maluku";"MALUKU";"";"Indonesia";"";"";"";"-3.2590259";"128.0614171";"https://maps.google.com/?cid=0x0:0xfe1d125fd170aaa9";""
"perumahan";"Komplek perumahan";"Sulayman kasim";"P3W5+7V2, Lokki, Kec. Huamual Belakang, Kabupaten Seram Bagian Barat, Maluku";"Kabupaten Seram Bagian Barat, Maluku";"MALUKU";"";"Indonesia";"";"";"";"-3.2545718";"128.0598834";"https://maps.google.com/?cid=0x0:0xab820e3e75696e80";""
"perumahan";"Komplek perumahan";"Rumah mano";"P385+MC7, Lokki, Kec. Huamual Belakang, Kabupaten Seram Bagian Barat, Maluku";"Kabupaten Seram Bagian Barat, Maluku";"MALUKU";"";"Indonesia";"";"";"";"-3.2833115";"128.0587331";"https://maps.google.com/?cid=0x0:0xbb02f248509b213a";""
"perumahan";"Komplek perumahan";"IHA ULUPIA";"JX6H+23, Iha, Kec. Huamual Belakang, Kabupaten Seram Bagian Barat, Maluku";"Kabupaten Seram Bagian Barat, Maluku";"MALUKU";"";"Indonesia";"";"";"";"-3.3899099";"127.9776529";"https://maps.google.com/?cid=0x0:0xb0db612a17685ecc";""
"perumahan";"Komplek perumahan";"Dusun Ani, Desa lokki kec. Huamual Kab Seram Bagian Barat Prov Maluku";"Q347+459, Lokki, Kec. Huamual Belakang, Kabupaten Seram Bagian Barat, Maluku";"Kabupaten Seram Bagian Barat, Maluku";"MALUKU";"";"Indonesia";"";"";"";"-3.2447071";"128.0629695";"https://maps.google.com/?cid=0x0:0x87821a4f987a22cf";""
"perumahan";"Komplek perumahan";"TPQ Nurul jannah";"Q3C8+797, Lokki, Kec. Huamual Belakang, Kabupaten Seram Bagian Barat, Maluku";"Kabupaten Seram Bagian Barat, Maluku";"MALUKU";"";"Indonesia";"";"";"";"-3.2294075";"128.0659773";"https://maps.google.com/?cid=0x0:0x5a73447343de94bb";""
"perumahan";"Komplek perumahan";"SARNO.A.UMASUGI";"W29F+2F, Waesala, Kec. Huamual Belakang, Kabupaten Seram Bagian Barat, Maluku";"Kabupaten Seram Bagian Barat, Maluku";"MALUKU";"";"Indonesia";"";"";"";"-3.0824116";"128.0237247";"https://maps.google.com/?cid=0x0:0x6fead662c5cd258c";""
"perumahan";"Komplek perumahan";"S Arsyad Home";"P3P6+XFF, Dusun Olas, Lokki, Kec. Huamual Belakang, Kabupaten Seram Bagian Barat, Maluku";"Kabupaten Seram Bagian Barat, Maluku";"MALUKU";"";"Indonesia";"";"";"";"-3.2630938";"128.0612483";"https://maps.google.com/?cid=0x0:0x35fe0a9dcc3aa020";""
"perumahan";"Pembangunan Perumahan";"MigueL SiwaLette";"VX8F+J7F, Alang Asaude, Kec. Huamual Belakang, Kabupaten Seram Bagian Barat, Maluku";"Kabupaten Seram Bagian Barat, Maluku";"MALUKU";"";"Indonesia";"";"";"";"-3.1334477";"127.973162";"https://maps.google.com/?cid=0x0:0x59c61550eb497c0d";""
"perumahan";"perumahan";"Kec. Kepulauan Manipa";"Kabupaten Seram Bagian Barat, Maluku";"Kabupaten Seram Bagian Barat, Maluku";"MALUKU";"";"Indonesia";"";"";"";"-3.3368083";"127.5516442";"https://maps.google.com/?cid=0x0:0x44a0c6a82a329841";""
"perumahan";"Komplek perumahan";"Rina";"PG67+8FJ, Kupele Jaya, Tuniwara, Kec. Kepulauan Manipa, Kabupaten Seram Bagian Barat, Maluku";"Kabupaten Seram Bagian Barat, Maluku";"MALUKU";"";"Indonesia";"";"";"";"-3.2891595";"127.5136475";"https://maps.google.com/?cid=0x0:0x242aaeb8ac2af914";""
"perumahan";"Pembangunan Perumahan";"Manipa";"MH72+8H5, Tumalehu Tim., Kec. Kepulauan Manipa, Kabupaten Seram Bagian Barat, Maluku";"Kabupaten Seram Bagian Barat, Maluku";"MALUKU";"";"Indonesia";"";"";"";"-3.3367476";"127.5514964";"https://maps.google.com/?cid=0x0:0xbe5d17d17f5b4fe3";""
"perumahan";"Sekolah menengah";"Perumahan SMA 16 SBB";"MH65+RPM, Kelang Asaude, Kec. Kepulauan Manipa, Kabupaten Seram Bagian Barat, Maluku";"Kabupaten Seram Bagian Barat, Maluku";"MALUKU";"";"Indonesia";"";"";"";"-3.3378937";"127.5590506";"https://maps.google.com/?cid=0x0:0xf96cfc4f2e80b70b";""
"perumahan";"Komplek perumahan";"Irfan palahu";"MH72+8H5, Tumalehu Tim., Kec. Kepulauan Manipa, Kabupaten Seram Bagian Barat, Maluku";"Kabupaten Seram Bagian Barat, Maluku";"MALUKU";"";"Indonesia";"";"";"";"-3.3367476";"127.5514964";"https://maps.google.com/?cid=0x0:0xfe62edd4766b9063";""
"perumahan";"Komplek perumahan";"Tukan, family";"MH83+333, Tumalehu Tim., Kec. Kepulauan Manipa, Kabupaten Seram Bagian Barat, Maluku";"Kabupaten Seram Bagian Barat, Maluku";"MALUKU";"";"Indonesia";"";"";"";"-3.3352298";"127.5518512";"https://maps.google.com/?cid=0x0:0x2de73f2389dd9d";""
"perumahan";"Komplek perumahan";"Kupeleja";"MH72+8H5, Tumalehu Tim., Kec. Kepulauan Manipa, Kabupaten Seram Bagian Barat, Maluku";"Kabupaten Seram Bagian Barat, Maluku";"MALUKU";"";"Indonesia";"";"";"";"-3.3367476";"127.5514964";"https://maps.google.com/?cid=0x0:0xa4ff06558ae7389c";""
"perumahan";"Komplek perumahan";"Rumah Pak Moe";"MG6W+XM8, Tumalehu Tim., Kec. Kepulauan Manipa, Kabupaten Seram Bagian Barat, Maluku";"Kabupaten Seram Bagian Barat, Maluku";"MALUKU";"";"Indonesia";"";"";"";"-3.3373816";"127.5470685";"https://maps.google.com/?cid=0x0:0x6889d1a0028b6647";""
"perumahan";"Pembangunan Perumahan";"Tisya kotalima";"MGVX+P69, Tumalehu Bar., Kec. Kepulauan Manipa, Kabupaten Seram Bagian Barat, Maluku";"Kabupaten Seram Bagian Barat, Maluku";"MALUKU";"";"Indonesia";"";"";"";"-3.3057239";"127.5481236";"https://maps.google.com/?cid=0x0:0xf8dd102660d0bbba";""
"perumahan";"Komplek perumahan";"Ruma sita";"PHM4+VMQ, Masawoi, Kec. Kepulauan Manipa, Kabupaten Seram Bagian Barat, Maluku";"Kabupaten Seram Bagian Barat, Maluku";"MALUKU";"";"Indonesia";"";"";"";"-3.2655083";"127.5571456";"https://maps.google.com/?cid=0x0:0xe1db0b522a2cc0c6";""
"perumahan";"Komplek perumahan";"Desa Masawoy";"Masawoy, Desa, Kec. Kepulauan Manipa, Kabupaten Seram Bagian Barat, Maluku";"Kabupaten Seram Bagian Barat, Maluku";"MALUKU";"";"Indonesia";"";"";"";"-3.3367476";"127.5514964";"https://maps.google.com/?cid=0x0:0x159bca32e1247e2d";""
"perumahan";"Kantor Pemerintahan Daerah";"Desa Kelang Asaude";"Kelang Asaude, Kec. Kepulauan Manipa, Kabupaten Seram Bagian Barat, Maluku";"Kabupaten Seram Bagian Barat, Maluku";"MALUKU";"";"Indonesia";"";"";"";"-3.3374378";"127.5578338";"https://maps.google.com/?cid=0x0:0x94316e29f3965d09";""
"perumahan";"Pembangunan Perumahan";"JEMBATAN PIKARAJA";"MH62+X8C, Jl. Haka putra pikaraja, Tumalehu Bar, Kec. Kepulauan Manipa, Kabupaten Seram Bagian Barat, Maluku";"Kabupaten Seram Bagian Barat, Maluku";"MALUKU";"";"Indonesia";"";"";"";"-3.3375899";"127.5507595";"https://maps.google.com/?cid=0x0:0x1f26a85e1f7ca925";""
"perumahan";"Komplek perumahan";"Akbar.attamimi";"MH83+333, Tumalehu Tim., Kec. Kepulauan Manipa, Kabupaten Seram Bagian Barat, Maluku";"Kabupaten Seram Bagian Barat, Maluku";"MALUKU";"";"Indonesia";"";"";"";"-3.3348174";"127.5521945";"https://maps.google.com/?cid=0x0:0x7e2cd45beb560ec0";""
"perumahan";"Pembangunan Perumahan";"Ebrakz";"MH65+H3J, Kelang Asaude, Kec. Kepulauan Manipa, Kabupaten Seram Bagian Barat, Maluku";"Kabupaten Seram Bagian Barat, Maluku";"MALUKU";"";"Indonesia";"";"";"";"-3.3385206";"127.5576437";"https://maps.google.com/?cid=0x0:0xad3e9b816b8aeb9d";""
"perumahan";"Komplek perumahan";"Nadifa ishak";"MHG2+C8M, Tumalehu Tim., Kec. Kepulauan Manipa, Kabupaten Seram Bagian Barat, Maluku";"Kabupaten Seram Bagian Barat, Maluku";"MALUKU";"";"Indonesia";"";"";"";"-3.3239124";"127.5507882";"https://maps.google.com/?cid=0x0:0x31b16c683eb456c3";""
"perumahan";"perumahan";"Rumah BPK manaf asaule";"MH65+H3J, Kelang Asaude, Kec. Kepulauan Manipa, Kabupaten Seram Bagian Barat, Maluku";"Kabupaten Seram Bagian Barat, Maluku";"MALUKU";"";"Indonesia";"";"";"";"-3.3381769";"127.5575543";"https://maps.google.com/?cid=0x0:0xfb78bac30ac168c5";""
"perumahan";"Komplek perumahan";"Rumah Raja Desa Kelang";"MH65+G5M, Kelang Asaude, Kec. Kepulauan Manipa, Kabupaten Seram Bagian Barat, Maluku";"Kabupaten Seram Bagian Barat, Maluku";"MALUKU";"";"Indonesia";"";"";"";"-3.3387492";"127.5584169";"https://maps.google.com/?cid=0x0:0x18cb1fc56aa9a52a";""
"perumahan";"Komplek perumahan";"Kompleks Rajawali";"MH65+G5M, Kelang Asaude, Kec. Kepulauan Manipa, Kabupaten Seram Bagian Barat, Maluku";"Kabupaten Seram Bagian Barat, Maluku";"MALUKU";"";"Indonesia";"";"";"";"-3.3386751";"127.558054";"https://maps.google.com/?cid=0x0:0x1bdec46019a5522e";""
"perumahan";"Pembangunan Perumahan";"Nur haku";"MH65+RPM, Kelang Asaude, Kec. Kepulauan Manipa, Kabupaten Seram Bagian Barat, Maluku";"Kabupaten Seram Bagian Barat, Maluku";"MALUKU";"";"Indonesia";"";"";"";"-3.3379069";"127.5593331";"https://maps.google.com/?cid=0x0:0xf296c24c71cf5f58";""
"perumahan";"perumahan";"Kec. Taniwel Tim.";"Kabupaten Seram Bagian Barat, Maluku";"Kabupaten Seram Bagian Barat, Maluku";"MALUKU";"";"Indonesia";"";"";"";"-2.8451525";"128.6555679";"https://maps.google.com/?cid=0x0:0x51e7fe5228d3a153";""
"perumahan";"Komplek perumahan";"Atap Gello";"4PVQ+C8, Walakone, Kec. Taniwel Tim., Kabupaten Seram Bagian Barat, Maluku";"Kabupaten Seram Bagian Barat, Maluku";"MALUKU";"";"Indonesia";"";"";"";"-2.8564813";"128.7386027";"https://maps.google.com/?cid=0x0:0x8b48f9502e8dd5d4";""
"perumahan";"Komplek perumahan";"Rumah azzam izzi Taniwel Timur";"3PHF+WF9, Sukaraja, Kec. Taniwel Tim., Kabupaten Seram Bagian Barat, Maluku";"Kabupaten Seram Bagian Barat, Maluku";"MALUKU";"";"Indonesia";"";"";"";"-2.9202211";"128.7237267";"https://maps.google.com/?cid=0x0:0x893186eecc41de0e";""
"perumahan";"Komplek perumahan";"Rumah bapa Ongen.Ltswle";"4PP4+FCV, Matapa, Kec. Taniwel Tim., Kabupaten Seram Bagian Barat, Maluku";"Kabupaten Seram Bagian Barat, Maluku";"MALUKU";"";"Indonesia";"";"";"";"-2.863751";"128.7060474";"https://maps.google.com/?cid=0x0:0x2c4b0f1d72e467d8";""
"perumahan";"Komplek perumahan";"Rumah Tiwy Maimina";"4PP4+6P, Matapa, Kec. Taniwel Tim., Kabupaten Seram Bagian Barat, Maluku";"Kabupaten Seram Bagian Barat, Maluku";"MALUKU";"";"Indonesia";"";"";"";"-2.864573";"128.706201";"https://maps.google.com/?cid=0x0:0x659efb6be86ad378";""
"perumahan";"Pembangunan Perumahan";"Seite Home";"5M44+VFJ, Lumahlatal, Kec. Taniwel Tim., Kabupaten Seram Bagian Barat, Maluku";"Kabupaten Seram Bagian Barat, Maluku";"MALUKU";"";"Indonesia";"";"";"";"-2.8427962";"128.6561462";"https://maps.google.com/?cid=0x0:0xe709f559fab396b6";""
"perumahan";"perumahan";"TAUFIK SITANIA";"4PP7+X5V, Seakasale, Kec. Taniwel Tim., Kabupaten Seram Bagian Barat, Maluku";"Kabupaten Seram Bagian Barat, Maluku";"MALUKU";"";"Indonesia";"";"";"";"-2.8625121";"128.7129233";"https://maps.google.com/?cid=0x0:0xe05723ee3b445988";""
"perumahan";"Komplek perumahan";"Keluarga Katayane";"4PJV+VV7, Walakone, Kec. Taniwel Tim., Kabupaten Seram Bagian Barat, Maluku";"Kabupaten Seram Bagian Barat, Maluku";"MALUKU";"";"Indonesia";"";"";"";"-2.8678296";"128.7446727";"https://maps.google.com/?cid=0x0:0xc8e47a841481b65d";""
"perumahan";"Komplek perumahan";"Rumah Jello";"4PPF+MMG, Tounussa, Kec. Taniwel Tim., Kabupaten Seram Bagian Barat, Maluku";"Kabupaten Seram Bagian Barat, Maluku";"MALUKU";"";"Indonesia";"";"";"";"-2.863149";"128.724208";"https://maps.google.com/?cid=0x0:0x8eb0f94c0f7eca19";""
"perumahan";"Pembangunan Perumahan";"KIOS RIKY ANAKOTTA";"4PCP+428, Musihuwey, Kec. Taniwel Tim., Kabupaten Seram Bagian Barat, Maluku";"Kabupaten Seram Bagian Barat, Maluku";"MALUKU";"";"Indonesia";" 082199436681";"";"";"-2.8797127";"128.735093";"https://maps.google.com/?cid=0x0:0x21dcfafe687fd23f";""
"perumahan";"Komplek perumahan";"Ahiyate Family";"5M54+6P8, Lumahlatal, Kec. Taniwel Tim., Kabupaten Seram Bagian Barat, Maluku";"Kabupaten Seram Bagian Barat, Maluku";"MALUKU";"";"Indonesia";"";"";"";"-2.8419704";"128.6568164";"https://maps.google.com/?cid=0x0:0x6fee7de0a196626b";""
"perumahan";"Pembangunan Perumahan";"Nesya homestay";"4JWM+3X6, Souhuwe, Kec. Taniwel Tim., Kabupaten Seram Bagian Barat, Maluku";"Kabupaten Seram Bagian Barat, Maluku";"MALUKU";"";"Indonesia";"";"";"";"-2.8548378";"128.6348947";"https://maps.google.com/?cid=0x0:0x56ad2ef7bf3d8dc9";""
"perumahan";"Komplek perumahan";"Negeri Liuone Tounussa";"4PQF+375, Musihuwey, Kec. Taniwel Tim., Kabupaten Seram Bagian Barat, Maluku";"Kabupaten Seram Bagian Barat, Maluku";"MALUKU";"";"Indonesia";"";"";"";"-2.8623507";"128.7232279";"https://maps.google.com/?cid=0x0:0x2ac717f1e497c0e";""
"perumahan";"Komplek perumahan";"Lodwic sanahu";"4JVP+GG9, Souhuwe, Kec. Taniwel Tim., Kabupaten Seram Bagian Barat, Maluku";"Kabupaten Seram Bagian Barat, Maluku";"MALUKU";"";"Indonesia";"";"";"";"-2.8562158";"128.6363525";"https://maps.google.com/?cid=0x0:0x3b07b38c629aa389";""
"perumahan";"Pembangunan Perumahan";"Waraloin. Sapulau latale";"4PRH+2P, Waraloin, Kec. Taniwel Tim., Kabupaten Seram Bagian Barat, Maluku";"Kabupaten Seram Bagian Barat, Maluku";"MALUKU";"";"Indonesia";"";"";"";"-2.8599391";"128.729282";"https://maps.google.com/?cid=0x0:0xc248bcaae370c55c";""
"perumahan";"Perhimpunan Pengembang Perumahan";"Kel. H.Matapuly";"4PVR+PCH, Walakone, Kec. Taniwel Tim., Kabupaten Seram Bagian Barat, Maluku";"Kabupaten Seram Bagian Barat, Maluku";"MALUKU";"";"Indonesia";"";"";"";"-2.8556184";"128.7410022";"https://maps.google.com/?cid=0x0:0xceb194d3f42bdf0a";""
"perumahan";"Komplek perumahan";"Rumah Dinasku";"4PQ6+5VR, Piru, Kec. Taniwel Tim., Kabupaten Seram Bagian Barat, Maluku 97129";"Piru, Kec. Taniwel Tim., Kabupaten Seram Bagian Barat";"MALUKU";"97129";"Indonesia";"";"";"";"-2.8620149";"128.7117779";"https://maps.google.com/?cid=0x0:0xe560415047868ac0";""
"perumahan";"Pembangunan Perumahan";"Vina tanasi";"4JVP+V96, Souhuwe, Kec. Taniwel Tim., Kabupaten Seram Bagian Barat, Maluku";"Kabupaten Seram Bagian Barat, Maluku";"MALUKU";"";"Indonesia";"";"";"";"-2.855131";"128.635402";"https://maps.google.com/?cid=0x0:0x8dc288d8a34c6d0e";""
"perumahan";"Komplek perumahan";"Minda Home";"4PVR+J5Q, Walakone, Kec. Taniwel Tim., Kabupaten Seram Bagian Barat, Maluku";"Kabupaten Seram Bagian Barat, Maluku";"MALUKU";"";"Indonesia";"";"";"";"-2.8559204";"128.7404926";"https://maps.google.com/?cid=0x0:0x109d382f79f1bfbe";""
"perumahan";"Komplek perumahan";"Fridom elake family home";"5M44+48R, Lumahlatal, Kec. Taniwel Tim., Kabupaten Seram Bagian Barat, Maluku";"Kabupaten Seram Bagian Barat, Maluku";"MALUKU";"";"Indonesia";"";"";"";"-2.8445234";"128.6568905";"https://maps.google.com/?cid=0x0:0x2fea87722b585201";""
"perumahan";"Komplek perumahan";"Pastori Sohuwe";"4JWP+2MQ, Souhuwe, Kec. Taniwel Tim., Kabupaten Seram Bagian Barat, Maluku";"Kabupaten Seram Bagian Barat, Maluku";"MALUKU";"";"Indonesia";"";"";"";"-2.855377";"128.6368718";"https://maps.google.com/?cid=0x0:0x77bd2119fc923aaf";""
"perumahan";"Perhimpunan Pengembang Perumahan";"Ichal Aly home";"4PVR+86, Walakone, Kec. Taniwel Tim., Kabupaten Seram Bagian Barat, Maluku";"Kabupaten Seram Bagian Barat, Maluku";"MALUKU";"";"Indonesia";"";"";"";"-2.856315";"128.74005";"https://maps.google.com/?cid=0x0:0x426ceddc7377029f";""
"perumahan";"perumahan";"Elpaputih";"Kabupaten Maluku Tengah, Maluku";"Kabupaten Maluku Tengah, Maluku";"MALUKU";"";"Indonesia";"";"";"";"-3.2102958";"128.6949149";"https://maps.google.com/?cid=0x0:0x5c490d6e0c7c3235";""
"perumahan";"Balai masyarakat";"NEGERI ELPAPUTIH";"PQQG+9P, Sanahu, Elpaputih, Kabupaten Seram Bagian Barat, Maluku";"Kabupaten Seram Bagian Barat, Maluku";"MALUKU";"";"Indonesia";"";"";"";"-3.2615625";"128.7768125";"https://maps.google.com/?cid=0x0:0xc5ceb386c7f6257f";""
"perumahan";"perumahan";"Komplek sapurata";"PQPH+7JW, Jl. Trans Seram, Sanahu, Kec. Tlk. Elpaputih, Kabupaten Maluku Tengah, Maluku";"Kabupaten Maluku Tengah, Maluku";"MALUKU";"";"Indonesia";"";"";"";"-3.2632525";"128.7790698";"https://maps.google.com/?cid=0x0:0xa2784bcb02922a5c";""
"perumahan";"Komplek perumahan";"Keluarga Latekay";"PJ8R+3XX, Sumeith Pasinaro, Elpaputih, Kabupaten Maluku Tengah, Maluku";"Kabupaten Maluku Tengah, Maluku";"MALUKU";"";"Indonesia";"";"";"";"-3.2847572";"128.6424972";"https://maps.google.com/?cid=0x0:0x4071d62d79f14e9e";""
"perumahan";"Komplek perumahan";"Wil";"PQPH+7JW, Jl. Trans Seram, Sanahu, Kec. Tlk. Elpaputih, Kabupaten Maluku Tengah, Maluku";"Kabupaten Maluku Tengah, Maluku";"MALUKU";"";"Indonesia";"";"";"";"-3.2641928";"128.779062";"https://maps.google.com/?cid=0x0:0x80107aacc96a9231";""
"perumahan";"Komplek perumahan";"Kampung pule";"MPPC+24F, Sanahu, Kec. Tlk. Elpaputih, Kabupaten Maluku Tengah, Maluku";"Kabupaten Maluku Tengah, Maluku";"MALUKU";"";"Indonesia";"";"";"";"-3.3149498";"128.7203094";"https://maps.google.com/?cid=0x0:0x704e54bc09d15685";""
"perumahan";"Komplek perumahan";"Rumah pribadi";"PQPG+4PX Ferdinandus, Jl. Trans Seram, Sanahu, Elpaputih, Kabupaten Maluku Tengah, Maluku";"Kabupaten Maluku Tengah, Maluku";"MALUKU";"";"Indonesia";"";"";"";"-3.2646366";"128.7768701";"https://maps.google.com/?cid=0x0:0x19a7c27d0301ed25";""
"perumahan";"Komplek perumahan";"MANBERS HOUSE";"PQQJ+2CX, Jl. Trans Seram, Samasuru, Kec. Tlk. Elpaputih, Kabupaten Maluku Tengah, Maluku";"Kabupaten Maluku Tengah, Maluku";"MALUKU";"";"Indonesia";"";"";"";"-3.2617154";"128.7810258";"https://maps.google.com/?cid=0x0:0x4016b43185ef8852";""
"perumahan";"Pembangunan Perumahan";"Kel.M.S.Tiparissa";"PJ8R+3XX, Sumeith Pasinaro, Elpaputih, Kabupaten Maluku Tengah, Maluku";"Kabupaten Maluku Tengah, Maluku";"MALUKU";"";"Indonesia";"";"";"";"-3.2847572";"128.6424972";"https://maps.google.com/?cid=0x0:0xda015a08c27e1a8d";""
"perumahan";"Komplek perumahan";"Elsa sahulata";"PP3V+PJW, Jl. Trans Seram, waipo, Elpaputih, Kabupaten Maluku Tengah, Maluku";"Kabupaten Maluku Tengah, Maluku";"MALUKU";"";"Indonesia";"";"";"";"-3.2956435";"128.7440805";"https://maps.google.com/?cid=0x0:0xb65961a7674016bc";""
"perumahan";"Komplek perumahan";"NEGERI WASIA";"MPRG+VGH, Jl. Trans Seram, Sanahu, Elpaputih, Kabupaten Seram Bagian Barat, Maluku";"Kabupaten Seram Bagian Barat, Maluku";"MALUKU";"";"Indonesia";"";"";"";"-3.3078204";"128.7263621";"https://maps.google.com/?cid=0x0:0xaa42822f125febe1";""
"perumahan";"Komplek perumahan";"Kel. Lepertery";"MPPC+PCG, Sanahu, Elpaputih, Kabupaten Seram Bagian Barat, Maluku";"Kabupaten Seram Bagian Barat, Maluku";"MALUKU";"";"Indonesia";"";"";"";"-3.3131207";"128.7217661";"https://maps.google.com/?cid=0x0:0xab0a13bf7378d";""
"perumahan";"Komplek perumahan";"Govind Sharma";"RM7M+7QV Sharma house, Sanahu, Elpaputih, Central Maluku Regency, Maluku";"Kabupaten Maluku Tengah, Maluku";"MALUKU";"";"Indonesia";"";"";"";"-3.1867703";"128.6844347";"https://maps.google.com/?cid=0x0:0x76184d406a5a822a";""
"perumahan";"Komplek perumahan";"Kastil Taruhana City";"PQWR+MH9, Jl. Trans Seram, Samasuru, Kec. Tlk. Elpaputih, Kabupaten Maluku Tengah, Maluku";"Kabupaten Maluku Tengah, Maluku";"MALUKU";"";"Indonesia";"";"";"";"-3.2533368";"128.791498";"https://maps.google.com/?cid=0x0:0xc12fe4303e7f0059";""
"perumahan";"Perhimpunan Pengembang Perumahan";"Wisata smasuru";"PQ64+327, Jl. Trans Seram, Sanahu, Kec. Tlk. Elpaputih, Kabupaten Maluku Tengah, Maluku";"Kabupaten Maluku Tengah, Maluku";"MALUKU";"";"Indonesia";"";"";"";"-3.2898292";"128.7550624";"https://maps.google.com/?cid=0x0:0x2387aa1b7402554c";""
"perumahan";"Komplek perumahan";"Kompleks lonte";"MM4V+48G, Tala, Kec. Amalatu, Kabupaten Seram Bagian Barat, Maluku";"Kabupaten Seram Bagian Barat, Maluku";"MALUKU";"";"Indonesia";"";"";"";"-3.3447435";"128.6932508";"https://maps.google.com/?cid=0x0:0xdc2426bb34e4a424";""
"perumahan";"Perhimpunan Pengembang Perumahan";"Negeri Samasuru";"PQPJ+V86, Samasuru, Kec. Tlk. Elpaputih, Kabupaten Maluku Tengah, Maluku";"Kabupaten Maluku Tengah, Maluku";"MALUKU";"";"Indonesia";"";"";"";"-3.2628322";"128.7807752";"https://maps.google.com/?cid=0x0:0x84d48f00299e2f8d";""
"perumahan";"Perhimpunan Pengembang Perumahan";"SAHAKAY HOME";"VP2R+MRV, Samasuru, Kec. Tlk. Elpaputih, Kabupaten Seram Bagian Barat, Maluku";"Kabupaten Seram Bagian Barat, Maluku";"MALUKU";"";"Indonesia";"";"";"";"-3.1482723";"128.7420548";"https://maps.google.com/?cid=0x0:0x56d477fbce83f0fa";""
"perumahan";"Komplek perumahan";"A.Maruanaya";"PQMG+59X, Jl. Trans Seram, Sanahu, Elpaputih, Kabupaten Seram Bagian Barat, Maluku";"Kabupaten Seram Bagian Barat, Maluku";"MALUKU";"";"Indonesia";"";"";"";"-3.2670661";"128.7763038";"https://maps.google.com/?cid=0x0:0xf7e424e4ae06aa36";""
"perumahan";"Komplek perumahan";"Kel Haulussy";"MPC5+77M, Huse- Nari, Sanahu, Kec. Amalatu, Kabupaten Seram Bagian Barat, Maluku";"Kabupaten Seram Bagian Barat, Maluku";"MALUKU";"";"Indonesia";"";"";"";"-3.3292818";"128.7081596";"https://maps.google.com/?cid=0x0:0xd9f4b8ce22e81a65";""
"perumahan";"Komplek perumahan";"NEGRI KALAPUTIH";"QR92+RHM, KALAPUTIH, Kec. Tlk. Elpaputih, Kabupaten Maluku Tengah, Maluku";"Kabupaten Maluku Tengah, Maluku";"MALUKU";"";"Indonesia";"";"";"";"-3.2304001";"128.8014119";"https://maps.google.com/?cid=0x0:0xd652d7ca4277c3b8";""
"perumahan";"Pembangunan Perumahan";"Perumahan Masa Depan";"JMQH+VCQ, Seriholo, Kec. Amalatu, Kabupaten Seram Bagian Barat, Maluku";"Kabupaten Seram Bagian Barat, Maluku";"MALUKU";"";"Indonesia";"";"";"";"-3.3602939";"128.6786232";"https://maps.google.com/?cid=0x0:0xd68c40d5866dc993";""
