Category;Real Category;Business Name;Address;City;State;Postal Code;Country;Phone;Email;Website;Latitude;Longitude;Map Link;Details Link
building materials;Pemasok Bahan Bangunan;Toko Bangunan Mirai;"Marbun Toruan, Kec. Bakti Raja, Kabupaten Humbang Hasundutan, Sumatera Utara 22457";"Kec. Bakti Raja, Kabupaten Humbang Hasundutan";SUMATERA UTARA;22457;Indonesia;082165419100;;;23.219.795;988.202.127;https://maps.google.com/?cid=0x0:0xb4039255f52f2bc9;
building materials;Toko Bahan Bangunan;UD.Lasro;"Jl. Ring Road, Gonting Bulu, Kec. Dolok sanggul, Kabupaten Humbang Hasundutan, Sumatera Utara 22457";"Gonting Bulu, Kec. Dolok sanggul, Kabupaten Humbang Hasundutan";SUMATERA UTARA;22457;Indonesia;083869524668;;;22.713.517;987.741.757;https://maps.google.com/?cid=0x0:0x63d37a898bcbcfe6;
building materials;building materials;Kec. Bakti Raja;"Kabupaten Humbang Hasundutan, Sumatera Utara";"Kabupaten Humbang Hasundutan, Sumatera Utara";SUMATERA UTARA;;Indonesia;;;;23.235.404;988.207.391;https://maps.google.com/?cid=0x0:0x475a50a12c00c787;
building materials;building materials;Dolok Sanggul;"Lumban Tobing, Kec. Dolok sanggul, Kabupaten Humbang Hasundutan, Sumatera Utara";"Kabupaten Humbang Hasundutan, Sumatera Utara";SUMATERA UTARA;;Indonesia;;;;2.251.991;987.485.729;https://maps.google.com/?cid=0x0:0x7f53fc623c00d824;
building materials;Toko bahan makanan;UD.MILLENIUM;"Jl. Siliwangi No.30, Ps. Dolok Sanggul, Kec. Dolok sanggul, Kabupaten Humbang Hasundutan, Sumatera Utara 22457";"Ps. Dolok Sanggul, Kec. Dolok sanggul, Kabupaten Humbang Hasundutan";SUMATERA UTARA;22457;Indonesia;083869524613;;;22.599.754;987.475.219;https://maps.google.com/?cid=0x0:0x2cac129cf14d3522;
building materials;Toko Bahan Bangunan;Toko Bangunan B. Purba;"7P5X+66V, Jl. Letkol. G.A. Manullang, Lumban Tobing, Kec. Dolok sanggul, Kabupaten Humbang Hasundutan, Sumatera Utara 22457";"Jl. Letkol. G.A. Manullang, Lumban Tobing, Kec. Dolok sanggul, Kabupaten Humbang Hasundutan";SUMATERA UTARA;22457;Indonesia;081260844118;;;22.581.033;987.480.382;https://maps.google.com/?cid=0x0:0x3d0454a287d8c0ca;
building materials;Toko Bahan Bangunan;UD YOSHIMASHA;"6P9C+7VR, Unnamed Road, Purba Dolok, Kec. Dolok sanggul, Kabupaten Humbang Hasundutan, Sumatera Utara 22457";"Unnamed Road, Purba Dolok, Kec. Dolok sanggul, Kabupaten Humbang Hasundutan";SUMATERA UTARA;22457;Indonesia;081362395517;;;2.218.239;987.221.354;https://maps.google.com/?cid=0x0:0x385a4377409b4b14;
building materials;Sekolah Menengah Umum;SMA Negeri 1 Dolok Sanggul;"Jl. Tahiraja No.Km. 3, Purba Dolok, Kec. Dolok sanggul, Kabupaten Humbang Hasundutan, Sumatera Utara 22457";"Purba Dolok, Kec. Dolok sanggul, Kabupaten Humbang Hasundutan";SUMATERA UTARA;22457;Indonesia;;;;22.436.035;98.741.865;https://maps.google.com/?cid=0x0:0xd43d4a50a3f0b87d;
building materials;Rumah Kayu;Doloksanggul;"6PHF+82J, Purba Dolok, Kec. Dolok sanggul, Kabupaten Humbang Hasundutan, Sumatera Utara 22457";"Purba Dolok, Kec. Dolok sanggul, Kabupaten Humbang Hasundutan";SUMATERA UTARA;22457;Indonesia;;;;2.228.349;987.225.115;https://maps.google.com/?cid=0x0:0xb291a114fe80d5a1;
building materials;building materials;Sumatera Utara 22475;Sumatera Utara;Sumatera Utara;SUMATERA UTARA;;Indonesia;;;;22.166.172;988.583.309;https://maps.google.com/?cid=0x0:0x3a0c9f067ea87dcb;
building materials;Toko Bahan Bangunan;Toko ROPATINA;"Jl. Paranginan, Desa, Sigumpar, Kec. Lintong Nihuta, Kabupaten Humbang Hasundutan, Sumatera Utara 22475";"Desa, Sigumpar, Kec. Lintong Nihuta, Kabupaten Humbang Hasundutan";SUMATERA UTARA;22475;Indonesia;081396325758;;;22.873.708;988.732.938;https://maps.google.com/?cid=0x0:0xfec2d00b5b90a2d0;
building materials;Toko Bahan Bangunan;Toko Rona;"7V83+32X, Jl. Sekolah, Tapian Nauli, Kec. Lintong Nihuta, Kabupaten Humbang Hasundutan, Sumatera Utara 22475";"Jl. Sekolah, Tapian Nauli, Kec. Lintong Nihuta, Kabupaten Humbang Hasundutan";SUMATERA UTARA;22475;Indonesia;;;;22.652.461;988.526.156;https://maps.google.com/?cid=0x0:0xdd895782a2d61120;
building materials;Toko Bahan Bangunan;Toko Besi Lintong Baja;"7V5F+H24, Jl. Dolok Sanggul - Siborong - Borong, Pargaulan, Kec. Lintong Nihuta, Kabupaten Humbang Hasundutan, Sumatera Utara 22475";"Jl. Dolok Sanggul - Siborong - Borong, Pargaulan, Kec. Lintong Nihuta, Kabupaten Humbang Hasundutan";SUMATERA UTARA;22475;Indonesia;081370075651;;;22.588.775;988.725.878;https://maps.google.com/?cid=0x0:0x664fdaece2f7c721;
building materials;Toko Bahan Bangunan;UD Jambang CS;"Jln lintas siborong-borong doloksanggul desa pargaulan Desa pargaulan, simpang desa, lobutua, kecamatan lintongnihuta, Kabupaten Humbang Hasundutan, Sumatera Utara 22475";"simpang desa, lobutua, kecamatan lintongnihuta, Kabupaten Humbang Hasundutan";SUMATERA UTARA;22475;Indonesia;082267296880;;;22.627.134;988.610.684;https://maps.google.com/?cid=0x0:0xfcbcc3fc1873c37e;
building materials;Toko Bahan Bangunan;UD. Lintong Mandiri (LML);"8PRQ+9JJ, Jl. Huta Paung - Pollung, Parsingguran I, Kec. Pollung, Kabupaten Humbang Hasundutan, Sumatera Utara 22391";"Jl. Huta Paung - Pollung, Parsingguran I, Kec. Pollung, Kabupaten Humbang Hasundutan";SUMATERA UTARA;22391;Indonesia;085277781011;;;23.409.735;987.390.222;https://maps.google.com/?cid=0x0:0x1745ea9f80ebb92b;
building materials;Toko Bahan Bangunan;TOKO LEMBAH JAYA;"Jln.Sileang, Desa Sosor Gonting, Jln, Sileang, Kec. Dolok sanggul, Kabupaten Humbang Hasundutan, Sumatera Utara 22475";"Desa Sosor Gonting, Jln, Sileang, Kec. Dolok sanggul, Kabupaten Humbang Hasundutan";SUMATERA UTARA;22475;Indonesia;082285079242;;;22.685.368;987.875.854;https://maps.google.com/?cid=0x0:0xa02d983adf3c7c72;
building materials;Toko Bahan Bangunan;Tolong Kita Trading Business;"Jl. Sisingamangaraja No.190, Ps. Siborong-Borong, Kec. Siborongborong, Kabupaten Tapanuli Utara, Sumatera Utara 22474";"Ps. Siborong-Borong, Kec. Siborongborong, Kabupaten Tapanuli Utara";SUMATERA UTARA;22474;Indonesia;082277636455;;;22.123.344;98.972.192;https://maps.google.com/?cid=0x0:0xeb4a19be7d7bd10f;
building materials;building materials;Kec. Lintong Nihuta;"Kabupaten Humbang Hasundutan, Sumatera Utara";"Kabupaten Humbang Hasundutan, Sumatera Utara";SUMATERA UTARA;;Indonesia;;;;22.725.575;988.627.702;https://maps.google.com/?cid=0x0:0x4039d80b2211060;
building materials;building materials;Onan Ganjang;"Kec. Onan Ganjang, Kabupaten Humbang Hasundutan, Sumatera Utara";"Kabupaten Humbang Hasundutan, Sumatera Utara";SUMATERA UTARA;;Indonesia;;;;21.523.331;986.298.119;https://maps.google.com/?cid=0x0:0x5b19fc0bdff0c0f3;
building materials;Toko Bahan Bangunan;CV.RISKY JAYA;"5M62+VQM, Unnamed Road, Sihikkit, Kec. Onan Ganjang, Kabupaten Humbang Hasundutan, Sumatera Utara 22454";"Unnamed Road, Sihikkit, Kec. Onan Ganjang, Kabupaten Humbang Hasundutan";SUMATERA UTARA;22454;Indonesia;;;;2.162.222;986.519.074;https://maps.google.com/?cid=0x0:0xe6fcfbdc4d97a836;
building materials;building materials;Cv.RISKY JAYA;"5J7P+6FM, Onan Ganjang, Kec. Onan Ganjang, Kabupaten Humbang Hasundutan, Sumatera Utara 22454";"Onan Ganjang, Kec. Onan Ganjang, Kabupaten Humbang Hasundutan";SUMATERA UTARA;22454;Indonesia;;;;21.630.785;986.361.695;https://maps.google.com/?cid=0x0:0x507c9c01c6bbe499;
building materials;Toko;UD. SANTA NAVA;"4HQX+FV7, Jl. Pakkat - Dolok Sanggul, Parbotihan, Kec. Onan Ganjang, Kabupaten Humbang Hasundutan, Sumatera Utara 22454";"Jl. Pakkat - Dolok Sanggul, Parbotihan, Kec. Onan Ganjang, Kabupaten Humbang Hasundutan";SUMATERA UTARA;22454;Indonesia;;;;21.386.695;985.996.622;https://maps.google.com/?cid=0x0:0x7d22250512bd257;
building materials;Toko bahan makanan;UD.MILLENIUM;"Jl. Siliwangi No.30, Ps. Dolok Sanggul, Kec. Dolok sanggul, Kabupaten Humbang Hasundutan, Sumatera Utara 22457";"Ps. Dolok Sanggul, Kec. Dolok sanggul, Kabupaten Humbang Hasundutan";SUMATERA UTARA;22457;Indonesia;083869524613;;;22.599.754;987.475.219;https://maps.google.com/?cid=0x0:0x2cac129cf14d3522;
building materials;Toko Bahan Bangunan;Toko K Hutahaean - Jl Siliwangi No 88;"Jl. Siliwangi No.88, Ps. Dolok Sanggul, Kec. Dolok sanggul, Kabupaten Humbang Hasundutan, Sumatera Utara 22457";"Ps. Dolok Sanggul, Kec. Dolok sanggul, Kabupaten Humbang Hasundutan";SUMATERA UTARA;22457;Indonesia;083869524668;;;22.582.707;987.473.281;https://maps.google.com/?cid=0x0:0x5415ebfceab1fa69;
building materials;Toko Bahan Bangunan;Toko Bangunan B. Purba;"7P5X+66V, Jl. Letkol. G.A. Manullang, Lumban Tobing, Kec. Dolok sanggul, Kabupaten Humbang Hasundutan, Sumatera Utara 22457";"Jl. Letkol. G.A. Manullang, Lumban Tobing, Kec. Dolok sanggul, Kabupaten Humbang Hasundutan";SUMATERA UTARA;22457;Indonesia;081260844118;;;22.581.033;987.480.382;https://maps.google.com/?cid=0x0:0x3d0454a287d8c0ca;
building materials;Toko Bahan Bangunan;UD YOSHIMASHA;"6P9C+7VR, Unnamed Road, Purba Dolok, Kec. Dolok sanggul, Kabupaten Humbang Hasundutan, Sumatera Utara 22457";"Unnamed Road, Purba Dolok, Kec. Dolok sanggul, Kabupaten Humbang Hasundutan";SUMATERA UTARA;22457;Indonesia;081362395517;;;2.218.239;987.221.354;https://maps.google.com/?cid=0x0:0x385a4377409b4b14;
building materials;building materials;Pakkat;"Pakkat Hauagong, Kec. Pakkat, Kabupaten Humbang Hasundutan, Sumatera Utara";"Kabupaten Humbang Hasundutan, Sumatera Utara";SUMATERA UTARA;;Indonesia;;;;2.145.129;98.473.518;https://maps.google.com/?cid=0x0:0xd970ca7c81a5c728;
building materials;Toko Perlengkapan Rumah;UD. ABADI;"4FXJ+JXV, Pakkat Hauagong, Kec. Pakkat, Kabupaten Humbang Hasundutan, Sumatera Utara 22455";"Pakkat Hauagong, Kec. Pakkat, Kabupaten Humbang Hasundutan";SUMATERA UTARA;22455;Indonesia;085359377700;;;21.491.077;984.824.155;https://maps.google.com/?cid=0x0:0x9c76d0ea3b858216;
building materials;Toko Bahan Bangunan;PUd.maruli pakkat panglong;"4F75+35H, Jl. Barus - Pakkat, Ambobi Paranginan, Hauagong, Kabupaten Humbang Hasundutan, Sumatera Utara";"Kabupaten Humbang Hasundutan, Sumatera Utara";SUMATERA UTARA;;Indonesia;;;;21.126.961;984.579.913;https://maps.google.com/?cid=0x0:0xb1c62d80d78b4a34;
building materials;building materials;Kec. Paranginan;"Kabupaten Humbang Hasundutan, Sumatera Utara";"Kabupaten Humbang Hasundutan, Sumatera Utara";SUMATERA UTARA;;Indonesia;;;;23.016.854;989.270.035;https://maps.google.com/?cid=0x0:0x690416ecba08580d;
building materials;Pemasok Bahan Bangunan;SUMBER AGUNG;"72C3+GV6, Tangga Batu Bar., Kec. Tampahan, Toba, Sumatera Utara 22312";"Tangga Batu Bar., Kec. Tampahan, Toba";SUMATERA UTARA;22312;Indonesia;082187094010;;;22.712.833;990.046.493;https://maps.google.com/?cid=0x0:0x4c51e9505a92798;
building materials;Toko Bahan Bangunan;Toko Bangunan B. Purba;"7P5X+66V, Jl. Letkol. G.A. Manullang, Lumban Tobing, Kec. Dolok sanggul, Kabupaten Humbang Hasundutan, Sumatera Utara 22457";"Jl. Letkol. G.A. Manullang, Lumban Tobing, Kec. Dolok sanggul, Kabupaten Humbang Hasundutan";SUMATERA UTARA;22457;Indonesia;081260844118;;;22.581.033;987.480.382;https://maps.google.com/?cid=0x0:0x3d0454a287d8c0ca;
building materials;Taman;Kebun andaliman pak gabryel lumbantoruan;"7W95+CPX, Nagasaribu IV, Kec. Lintong Nihuta, Kabupaten Humbang Hasundutan, Sumatera Utara 22475";"Nagasaribu IV, Kec. Lintong Nihuta, Kabupaten Humbang Hasundutan";SUMATERA UTARA;22475;Indonesia;;;;22.686.099;989.093.578;https://maps.google.com/?cid=0x0:0x1fff015519d8d409;
building materials;Toko Bahan Bangunan;UD Muara 1;"Unte Mungkur, Kec. Muara, Kabupaten Tapanuli Utara, Sumatera Utara 22476";"Kec. Muara, Kabupaten Tapanuli Utara";SUMATERA UTARA;22476;Indonesia;;;;23.395.035;989.081.989;https://maps.google.com/?cid=0x0:0xc37121a59d80709d;
building materials;Toko Perlengkapan Rumah;Mitra Keluarga;"Jl. Sisingamangaraja No.Desa, Parik Sabungan, Kec. Siborongborong, Kabupaten Tapanuli Utara, Sumatera Utara 22312";"Parik Sabungan, Kec. Siborongborong, Kabupaten Tapanuli Utara";SUMATERA UTARA;22312;Indonesia;081382247868;;;22.577;990.012.643;https://maps.google.com/?cid=0x0:0x76b0f1329fbffca1;
building materials;Pembangunan Perumahan;Cv. Pasaribu Parluasan;"8G83+X76, Sihotang Hasugian Habinsaran, Kec. Parlilitan, Kabupaten Humbang Hasundutan, Sumatera Utara 22456";"Sihotang Hasugian Habinsaran, Kec. Parlilitan, Kabupaten Humbang Hasundutan";SUMATERA UTARA;22456;Indonesia;081260111121;;;23.174.124;985.031.528;https://maps.google.com/?cid=0x0:0x3417117ca4ad1535;
building materials;Toko Bahan Bangunan;UD. Michelle;"Jalan Simpang Muara Silangit No.Desa, Parik Sabungan, Kec. Siborongborong, Kabupaten Tapanuli Utara, Sumatera Utara 22474";"Parik Sabungan, Kec. Siborongborong, Kabupaten Tapanuli Utara";SUMATERA UTARA;22474;Indonesia;081375369881;;;22.632.162;990.020.468;https://maps.google.com/?cid=0x0:0xa67a9cd447dae4c9;
building materials;Rumah Pondokan;Wisma Tondong;"Jalan Tarutung - Balige, Simpang Sianjur, Desa, Parik Sabungan, Kec. Siborongborong, Kabupaten Tapanuli Utara, Sumatera Utara 22474";"Simpang Sianjur, Desa, Parik Sabungan, Kec. Siborongborong, Kabupaten Tapanuli Utara";SUMATERA UTARA;22474;Indonesia;082272769816;;;22.507.702;989.988.114;https://maps.google.com/?cid=0x0:0x285172a0bf3a7e93;
building materials;Toko;Toko Bangunan Sitampurung Nauli;"6WFR+H5W, Sitampurung, Kec. Siborongborong, Kabupaten Tapanuli Utara, Sumatera Utara 22475";"Sitampurung, Kec. Siborongborong, Kabupaten Tapanuli Utara";SUMATERA UTARA;22475;Indonesia;;;;22.239.964;989.404.377;https://maps.google.com/?cid=0x0:0x974ee3b6d753f050;
building materials;Produsen;PT.BERLIAN BARU STEEL SILANGIT;"Jl. Balige-Siborongborong No.79 Silangit Siborongborong SIBORONGBORONG, Silando, Kec. Muara, Kabupaten Tapanuli Utara, Sumatera Utara 22474";"Silando, Kec. Muara, Kabupaten Tapanuli Utara";SUMATERA UTARA;22474;Indonesia;082160654343;;;22.681.285;990.020.474;https://maps.google.com/?cid=0x0:0xee478f1dc845ace3;
building materials;Toko Bahan Bangunan;UD. Robin;"6XVV+FV, Pohan Tonga, Kec. Siborongborong, Kabupaten Tapanuli Utara, Sumatera Utara 22476";"Pohan Tonga, Kec. Siborongborong, Kabupaten Tapanuli Utara";SUMATERA UTARA;22476;Indonesia;081396309168;;;22.436.431;989.947.426;https://maps.google.com/?cid=0x0:0x5639436b2ffa8f42;
building materials;Toko Cat;Mar Pabrik;"Jl. Balige KM.1 No.7, Pohan Tonga, Kec. Siborongborong, Kabupaten Tapanuli Utara, Sumatera Utara 22476";"Pohan Tonga, Kec. Siborongborong, Kabupaten Tapanuli Utara";SUMATERA UTARA;22476;Indonesia;063343208;;;223.618;98.984.041;https://maps.google.com/?cid=0x0:0xea08f545ca040aab;
building materials;Toko Bahan Bangunan;UD Jambang CS;"Jln lintas siborong-borong doloksanggul desa pargaulan Desa pargaulan, simpang desa, lobutua, kecamatan lintongnihuta, Kabupaten Humbang Hasundutan, Sumatera Utara 22475";"simpang desa, lobutua, kecamatan lintongnihuta, Kabupaten Humbang Hasundutan";SUMATERA UTARA;22475;Indonesia;082267296880;;;22.627.134;988.610.684;https://maps.google.com/?cid=0x0:0xfcbcc3fc1873c37e;
building materials;Toko Bahan Bangunan;Toko Rona;"7V83+32X, Jl. Sekolah, Tapian Nauli, Kec. Lintong Nihuta, Kabupaten Humbang Hasundutan, Sumatera Utara 22475";"Jl. Sekolah, Tapian Nauli, Kec. Lintong Nihuta, Kabupaten Humbang Hasundutan";SUMATERA UTARA;22475;Indonesia;;;;22.652.461;988.526.156;https://maps.google.com/?cid=0x0:0xdd895782a2d61120;
building materials;Pembangunan Perumahan;Cv. Pasaribu Parluasan;"8G83+X76, Sihotang Hasugian Habinsaran, Kec. Parlilitan, Kabupaten Humbang Hasundutan, Sumatera Utara 22456";"Sihotang Hasugian Habinsaran, Kec. Parlilitan, Kabupaten Humbang Hasundutan";SUMATERA UTARA;22456;Indonesia;081260111121;;;23.174.124;985.031.528;https://maps.google.com/?cid=0x0:0x3417117ca4ad1535;
building materials;Pasar;Pasar Belakang Parluasan;"8G83+M4C, Sihotang Hasugian Dolok I, Kec. Parlilitan, Kabupaten Humbang Hasundutan, Sumatera Utara 22456";"Sihotang Hasugian Dolok I, Kec. Parlilitan, Kabupaten Humbang Hasundutan";SUMATERA UTARA;22456;Indonesia;;;;23.166.833;985.027.523;https://maps.google.com/?cid=0x0:0x9eab4c7d8726aea7;
building materials;building materials;Kec. Parlilitan;"Kabupaten Humbang Hasundutan, Sumatera Utara";"Kabupaten Humbang Hasundutan, Sumatera Utara";SUMATERA UTARA;;Indonesia;;;;23.249.677;984.571.176;https://maps.google.com/?cid=0x0:0x6a172b321b3cc7da;
building materials;Pembangunan Perumahan;CV.DOLI KASEA;"79Q6+5HR, Jl. Pembangunan, Sitanduk, Kec. Tara bintang, Kabupaten Humbang Hasundutan, Sumatera Utara 22456";"Jl. Pembangunan, Sitanduk, Kec. Tara bintang, Kabupaten Humbang Hasundutan";SUMATERA UTARA;22456;Indonesia;;;;22.875.647;983.601.032;https://maps.google.com/?cid=0x0:0xac26f403385bb470;
building materials;building materials;Sumatera Utara 22457;"Kabupaten Humbang Hasundutan, Sumatera Utara";"Kabupaten Humbang Hasundutan, Sumatera Utara";SUMATERA UTARA;;Indonesia;;;;22.174.078;987.260.927;https://maps.google.com/?cid=0x0:0xfc492d8c933a9bef;
building materials;Toko Bahan Bangunan;UD. Lintong Mandiri (LML);"8PRQ+9JJ, Jl. Huta Paung - Pollung, Parsingguran I, Kec. Pollung, Kabupaten Humbang Hasundutan, Sumatera Utara 22391";"Jl. Huta Paung - Pollung, Parsingguran I, Kec. Pollung, Kabupaten Humbang Hasundutan";SUMATERA UTARA;22391;Indonesia;085277781011;;;23.409.735;987.390.222;https://maps.google.com/?cid=0x0:0x1745ea9f80ebb92b;
building materials;Toko Bahan Bangunan;UD.Lasro;"Jl. Ring Road, Gonting Bulu, Kec. Dolok sanggul, Kabupaten Humbang Hasundutan, Sumatera Utara 22457";"Gonting Bulu, Kec. Dolok sanggul, Kabupaten Humbang Hasundutan";SUMATERA UTARA;22457;Indonesia;083869524668;;;22.713.517;987.741.757;https://maps.google.com/?cid=0x0:0x63d37a898bcbcfe6;
building materials;Toko bahan makanan;UD.MILLENIUM;"Jl. Siliwangi No.30, Ps. Dolok Sanggul, Kec. Dolok sanggul, Kabupaten Humbang Hasundutan, Sumatera Utara 22457";"Ps. Dolok Sanggul, Kec. Dolok sanggul, Kabupaten Humbang Hasundutan";SUMATERA UTARA;22457;Indonesia;083869524613;;;22.599.754;987.475.219;https://maps.google.com/?cid=0x0:0x2cac129cf14d3522;
building materials;Pemasok Bahan Bangunan;Toko Bangunan Mirai;"Marbun Toruan, Kec. Bakti Raja, Kabupaten Humbang Hasundutan, Sumatera Utara 22457";"Kec. Bakti Raja, Kabupaten Humbang Hasundutan";SUMATERA UTARA;22457;Indonesia;082165419100;;;23.219.795;988.202.127;https://maps.google.com/?cid=0x0:0xb4039255f52f2bc9;
building materials;Toko Bahan Bangunan;Toko Bangunan B. Purba;"7P5X+66V, Jl. Letkol. G.A. Manullang, Lumban Tobing, Kec. Dolok sanggul, Kabupaten Humbang Hasundutan, Sumatera Utara 22457";"Jl. Letkol. G.A. Manullang, Lumban Tobing, Kec. Dolok sanggul, Kabupaten Humbang Hasundutan";SUMATERA UTARA;22457;Indonesia;081260844118;;;22.581.033;987.480.382;https://maps.google.com/?cid=0x0:0x3d0454a287d8c0ca;
building materials;;Toko Mitra Theresia Ceramik;"Jl. Pakkat - Dolok Sanggul No.57, Sihite I, Kec. Dolok sanggul, Kabupaten Humbang Hasundutan, Sumatera Utara 22457";"Sihite I, Kec. Dolok sanggul, Kabupaten Humbang Hasundutan";SUMATERA UTARA;22457;Indonesia;083869524668;;;22.583.884;98.739.481;https://maps.google.com/?cid=0x0:0x519b6e367396e727;
building materials;Kantor Perusahaan;NAGA PERABOT;"8PMF+988, Jl. Huta Paung - Pollung, Huta Paung, Kec. Pollung, Kabupaten Humbang Hasundutan, Sumatera Utara 22457";"Jl. Huta Paung - Pollung, Huta Paung, Kec. Pollung, Kabupaten Humbang Hasundutan";SUMATERA UTARA;22457;Indonesia;082261306728;;;23.334.204;987.233.401;https://maps.google.com/?cid=0x0:0x2b6b2ae45cdaa72c;
building materials;Toko Bahan Bangunan;PASUMINGGA JAYA;"8PGH+QQW, Pollung, Kec. Pollung, Kabupaten Humbang Hasundutan, Sumatera Utara";"Kabupaten Humbang Hasundutan, Sumatera Utara";SUMATERA UTARA;;Indonesia;;;;23.269.884;987.294.531;https://maps.google.com/?cid=0x0:0x268c0fa10daa59d8;
building materials;building materials;Scaffolding Lift Passenger Lift Material - CV Mulya Perkasa;"7Q53+WRV, Pasaribu, Kec. Dolok sanggul, Kabupaten Humbang Hasundutan, Sumatera Utara 22457";"Pasaribu, Kec. Dolok sanggul, Kabupaten Humbang Hasundutan";SUMATERA UTARA;22457;Indonesia;;;;2.259.858;98.754.551;https://maps.google.com/?cid=0x0:0x83b7aaf960172128;
building materials;Toko Bahan Bangunan;CV PASUMINGGA JAYA;"Huta Paung, Kec. Pollung, Kabupaten Humbang Hasundutan, Sumatera Utara 22391";"Kec. Pollung, Kabupaten Humbang Hasundutan";SUMATERA UTARA;22391;Indonesia;081260659897;;;23.460.992;987.166.553;https://maps.google.com/?cid=0x0:0x978ee3141139e694;
building materials;Toko Bahan Bangunan;UD. ARION ANUGERAH;"Jl. Borsak Junjungan Gg. Arion, Siponjot, Kec. Lintong Nihuta, Kabupaten Humbang Hasundutan, Sumatera Utara 22475";"Siponjot, Kec. Lintong Nihuta, Kabupaten Humbang Hasundutan";SUMATERA UTARA;22475;Indonesia;085362233473;;;22.599.393;98.821.825;https://maps.google.com/?cid=0x0:0x242397695abfcd38;
building materials;Pemasok Bahan Bangunan;CV. Soala gogo;"Jl. Veteran No.20, Ps. Dolok Sanggul, Kec. Dolok sanggul, Kabupaten Humbang Hasundutan, Sumatera Utara 22457";"Ps. Dolok Sanggul, Kec. Dolok sanggul, Kabupaten Humbang Hasundutan";SUMATERA UTARA;22457;Indonesia;082168966663;;;22.554.508;98.749.574;https://maps.google.com/?cid=0x0:0x70163f4c86dd29ab;
building materials;Toko Bahan Bangunan;Toko Asima Jaya;"7P5X+R33, Ps. Dolok Sanggul, Kec. Dolok sanggul, Kabupaten Humbang Hasundutan, Sumatera Utara 22457";"Ps. Dolok Sanggul, Kec. Dolok sanggul, Kabupaten Humbang Hasundutan";SUMATERA UTARA;22457;Indonesia;083869524668;;;22.595.235;987.476.703;https://maps.google.com/?cid=0x0:0x288b5efcdb7a5c8a;
building materials;Toko Bahan Bangunan;CV.RISKY JAYA;"5M62+VQM, Unnamed Road, Sihikkit, Kec. Onan Ganjang, Kabupaten Humbang Hasundutan, Sumatera Utara 22454";"Unnamed Road, Sihikkit, Kec. Onan Ganjang, Kabupaten Humbang Hasundutan";SUMATERA UTARA;22454;Indonesia;;;;2.162.222;986.519.074;https://maps.google.com/?cid=0x0:0xe6fcfbdc4d97a836;
building materials;Toko Bahan Bangunan;Toko Andre;"Jl. Melanthon Siregar No.11a, Ps. Dolok Sanggul, Kec. Dolok sanggul, Kabupaten Humbang Hasundutan, Sumatera Utara 22457";"Ps. Dolok Sanggul, Kec. Dolok sanggul, Kabupaten Humbang Hasundutan";SUMATERA UTARA;22457;Indonesia;083869524613;;;22.598.411;987.489.149;https://maps.google.com/?cid=0x0:0x4aa2ee894cd3e0d6;
building materials;Toko Bahan Bangunan;Mora Naga. PT;"JL. Sidikalang, Km. 14, Pollung, Humbang, Hasundutan, Hutapaung Utara, Kec. Dolok sanggul, Kabupaten Humbang Hasundutan, Sumatera Utara 22395";"Km. 14, Pollung, Humbang, Hasundutan, Hutapaung Utara, Kec. Dolok sanggul, Kabupaten Humbang Hasundutan";SUMATERA UTARA;22395;Indonesia;063331044;;;2.373.827;98.682.289;https://maps.google.com/?cid=0x0:0x74a958d3775dfdaa;
building materials;Toko Bahan Bangunan;Toko Darwis;"Jl. Sisingamangaraja No.8, Ps. Dolok Sanggul, Kec. Dolok sanggul, Kabupaten Humbang Hasundutan, Sumatera Utara 22457";"Ps. Dolok Sanggul, Kec. Dolok sanggul, Kabupaten Humbang Hasundutan";SUMATERA UTARA;22457;Indonesia;083869524668;;;22.585.148;987.478.038;https://maps.google.com/?cid=0x0:0x191a663f3a6e6087;
building materials;Toko Bahan Bangunan;UD.Habaksa Jaya;"Jl. Bakara, Sosor Gonting, Kec. Dolok sanggul, Kabupaten Humbang Hasundutan, Sumatera Utara 22457";"Sosor Gonting, Kec. Dolok sanggul, Kabupaten Humbang Hasundutan";SUMATERA UTARA;22457;Indonesia;;;;22.692.396;987.641.484;https://maps.google.com/?cid=0x0:0xc0a06e469c0b4664;
building materials;Toko Bahan Bangunan;Toko ROPATINA;"Jl. Paranginan, Desa, Sigumpar, Kec. Lintong Nihuta, Kabupaten Humbang Hasundutan, Sumatera Utara 22475";"Desa, Sigumpar, Kec. Lintong Nihuta, Kabupaten Humbang Hasundutan";SUMATERA UTARA;22475;Indonesia;081396325758;;;22.873.708;988.732.938;https://maps.google.com/?cid=0x0:0xfec2d00b5b90a2d0;
building materials;building materials;Kec. Pollung;"Kabupaten Humbang Hasundutan, Sumatera Utara";"Kabupaten Humbang Hasundutan, Sumatera Utara";SUMATERA UTARA;;Indonesia;;;;23.338.904;987.230.903;https://maps.google.com/?cid=0x0:0xcd960aea45dc1312;
building materials;Toko;Toko BERKAT WIDYA (UD. WIDYA);"Jl. Pakkat - Dolok Sanggul dekat sma 2 No.1, Matiti I, Kec. Dolok sanggul, Kabupaten Humbang Hasundutan, Sumatera Utara";"Kabupaten Humbang Hasundutan, Sumatera Utara";SUMATERA UTARA;;Indonesia;085276900800;;;22.592.435;9.869.754;https://maps.google.com/?cid=0x0:0x6dd9501be2a0d175;
building materials;Toko Bahan Bangunan;UD. WIDYA CV. DOLI PANDUMAAN;"8M7W+7GC, Pandumaan, Kec. Pollung, Kabupaten Humbang Hasundutan, Sumatera Utara 22457";"Pandumaan, Kec. Pollung, Kabupaten Humbang Hasundutan";SUMATERA UTARA;22457;Indonesia;082168594443;;;23.127.592;986.960.361;https://maps.google.com/?cid=0x0:0x3ea7accf8bdb042;
building materials;Toko Perlengkapan Rumah;Toko Sinar Jaya;"Jl. Dolok Sanggul - Siborong - Borong No.Km.3.2, Sosor Gonting, Kec. Dolok sanggul, Kabupaten Humbang Hasundutan, Sumatera Utara 22457";"Sosor Gonting, Kec. Dolok sanggul, Kabupaten Humbang Hasundutan";SUMATERA UTARA;22457;Indonesia;083869524668;;;22.700.232;987.727.114;https://maps.google.com/?cid=0x0:0xf145fc9b66d0f16;
building materials;building materials;Kec. Sijama Polang;"Kabupaten Humbang Hasundutan, Sumatera Utara";"Kabupaten Humbang Hasundutan, Sumatera Utara";SUMATERA UTARA;;Indonesia;;;;22.108.811;98.721.307;https://maps.google.com/?cid=0x0:0xd50f2722ee3ef986;
building materials;Toko Bahan Bangunan;UD YOSHIMASHA;"6P9C+7VR, Unnamed Road, Purba Dolok, Kec. Dolok sanggul, Kabupaten Humbang Hasundutan, Sumatera Utara 22457";"Unnamed Road, Purba Dolok, Kec. Dolok sanggul, Kabupaten Humbang Hasundutan";SUMATERA UTARA;22457;Indonesia;081362395517;;;2.218.239;987.221.354;https://maps.google.com/?cid=0x0:0x385a4377409b4b14;
building materials;Toko bahan makanan;UD.MILLENIUM;"Jl. Siliwangi No.30, Ps. Dolok Sanggul, Kec. Dolok sanggul, Kabupaten Humbang Hasundutan, Sumatera Utara 22457";"Ps. Dolok Sanggul, Kec. Dolok sanggul, Kabupaten Humbang Hasundutan";SUMATERA UTARA;22457;Indonesia;083869524613;;;22.599.754;987.475.219;https://maps.google.com/?cid=0x0:0x2cac129cf14d3522;
building materials;Toko Bahan Bangunan;Toko K Hutahaean - Jl Siliwangi No 88;"Jl. Siliwangi No.88, Ps. Dolok Sanggul, Kec. Dolok sanggul, Kabupaten Humbang Hasundutan, Sumatera Utara 22457";"Ps. Dolok Sanggul, Kec. Dolok sanggul, Kabupaten Humbang Hasundutan";SUMATERA UTARA;22457;Indonesia;083869524668;;;22.582.707;987.473.281;https://maps.google.com/?cid=0x0:0x5415ebfceab1fa69;
building materials;Toko Bahan Bangunan;CV.RISKY JAYA;"5M62+VQM, Unnamed Road, Sihikkit, Kec. Onan Ganjang, Kabupaten Humbang Hasundutan, Sumatera Utara 22454";"Unnamed Road, Sihikkit, Kec. Onan Ganjang, Kabupaten Humbang Hasundutan";SUMATERA UTARA;22454;Indonesia;;;;2.162.222;986.519.074;https://maps.google.com/?cid=0x0:0xe6fcfbdc4d97a836;
building materials;Toko Bahan Bangunan;Toko Bangunan B. Purba;"7P5X+66V, Jl. Letkol. G.A. Manullang, Lumban Tobing, Kec. Dolok sanggul, Kabupaten Humbang Hasundutan, Sumatera Utara 22457";"Jl. Letkol. G.A. Manullang, Lumban Tobing, Kec. Dolok sanggul, Kabupaten Humbang Hasundutan";SUMATERA UTARA;22457;Indonesia;081260844118;;;22.581.033;987.480.382;https://maps.google.com/?cid=0x0:0x3d0454a287d8c0ca;
building materials;building materials;Scaffolding Lift Passenger Lift Material - CV Mulya Perkasa;"7Q53+WRV, Pasaribu, Kec. Dolok sanggul, Kabupaten Humbang Hasundutan, Sumatera Utara 22457";"Pasaribu, Kec. Dolok sanggul, Kabupaten Humbang Hasundutan";SUMATERA UTARA;22457;Indonesia;;;;2.259.858;98.754.551;https://maps.google.com/?cid=0x0:0x83b7aaf960172128;
building materials;;Toko Mitra Theresia Ceramik;"Jl. Pakkat - Dolok Sanggul No.57, Sihite I, Kec. Dolok sanggul, Kabupaten Humbang Hasundutan, Sumatera Utara 22457";"Sihite I, Kec. Dolok sanggul, Kabupaten Humbang Hasundutan";SUMATERA UTARA;22457;Indonesia;083869524668;;;22.583.884;98.739.481;https://maps.google.com/?cid=0x0:0x519b6e367396e727;
building materials;Toko Bahan Bangunan;Toko Asima Jaya;"7P5X+R33, Ps. Dolok Sanggul, Kec. Dolok sanggul, Kabupaten Humbang Hasundutan, Sumatera Utara 22457";"Ps. Dolok Sanggul, Kec. Dolok sanggul, Kabupaten Humbang Hasundutan";SUMATERA UTARA;22457;Indonesia;083869524668;;;22.595.235;987.476.703;https://maps.google.com/?cid=0x0:0x288b5efcdb7a5c8a;
building materials;Pemasok Bahan Bangunan;CV. Soala gogo;"Jl. Veteran No.20, Ps. Dolok Sanggul, Kec. Dolok sanggul, Kabupaten Humbang Hasundutan, Sumatera Utara 22457";"Ps. Dolok Sanggul, Kec. Dolok sanggul, Kabupaten Humbang Hasundutan";SUMATERA UTARA;22457;Indonesia;082168966663;;;22.554.508;98.749.574;https://maps.google.com/?cid=0x0:0x70163f4c86dd29ab;
building materials;Toko Bahan Bangunan;UD.Habaksa Jaya;"Jl. Bakara, Sosor Gonting, Kec. Dolok sanggul, Kabupaten Humbang Hasundutan, Sumatera Utara 22457";"Sosor Gonting, Kec. Dolok sanggul, Kabupaten Humbang Hasundutan";SUMATERA UTARA;22457;Indonesia;;;;22.692.396;987.641.484;https://maps.google.com/?cid=0x0:0xc0a06e469c0b4664;
building materials;Toko Bahan Bangunan;Toko Darwis;"Jl. Sisingamangaraja No.8, Ps. Dolok Sanggul, Kec. Dolok sanggul, Kabupaten Humbang Hasundutan, Sumatera Utara 22457";"Ps. Dolok Sanggul, Kec. Dolok sanggul, Kabupaten Humbang Hasundutan";SUMATERA UTARA;22457;Indonesia;083869524668;;;22.585.148;987.478.038;https://maps.google.com/?cid=0x0:0x191a663f3a6e6087;
building materials;Pusat Perbelanjaan;TOKO PUTRA MANORSA;"Jl. Siliwangi No.UJUNG, Bonani Onan, Kec. Dolok sanggul, Kabupaten Humbang Hasundutan, Sumatera Utara 22457";"Bonani Onan, Kec. Dolok sanggul, Kabupaten Humbang Hasundutan";SUMATERA UTARA;22457;Indonesia;08116066617;;;22.679.257;987.463.144;https://maps.google.com/?cid=0x0:0xb2a85e8412b6fd78;
building materials;Toko Bahan Bangunan;Toko Andre;"Jl. Melanthon Siregar No.11a, Ps. Dolok Sanggul, Kec. Dolok sanggul, Kabupaten Humbang Hasundutan, Sumatera Utara 22457";"Ps. Dolok Sanggul, Kec. Dolok sanggul, Kabupaten Humbang Hasundutan";SUMATERA UTARA;22457;Indonesia;083869524613;;;22.598.411;987.489.149;https://maps.google.com/?cid=0x0:0x4aa2ee894cd3e0d6;
building materials;Toko Perlengkapan Rumah;Toko Sinar Jaya;"Jl. Dolok Sanggul - Siborong - Borong No.Km.3.2, Sosor Gonting, Kec. Dolok sanggul, Kabupaten Humbang Hasundutan, Sumatera Utara 22457";"Sosor Gonting, Kec. Dolok sanggul, Kabupaten Humbang Hasundutan";SUMATERA UTARA;22457;Indonesia;083869524668;;;22.700.232;987.727.114;https://maps.google.com/?cid=0x0:0xf145fc9b66d0f16;
building materials;Toko Bahan Bangunan;UD. ARION ANUGERAH;"Jl. Borsak Junjungan Gg. Arion, Siponjot, Kec. Lintong Nihuta, Kabupaten Humbang Hasundutan, Sumatera Utara 22475";"Siponjot, Kec. Lintong Nihuta, Kabupaten Humbang Hasundutan";SUMATERA UTARA;22475;Indonesia;085362233473;;;22.599.393;98.821.825;https://maps.google.com/?cid=0x0:0x242397695abfcd38;
building materials;Toko Bahan Bangunan;TOKO LEMBAH JAYA;"Jln.Sileang, Desa Sosor Gonting, Jln, Sileang, Kec. Dolok sanggul, Kabupaten Humbang Hasundutan, Sumatera Utara 22475";"Desa Sosor Gonting, Jln, Sileang, Kec. Dolok sanggul, Kabupaten Humbang Hasundutan";SUMATERA UTARA;22475;Indonesia;082285079242;;;22.685.368;987.875.854;https://maps.google.com/?cid=0x0:0xa02d983adf3c7c72;
building materials;Bengkel Mobil;TOKO CAT CORAMIL SERVICE;"7Q87+JX4, Pasaribu, Kec. Dolok sanggul, Kabupaten Humbang Hasundutan, Sumatera Utara 22457";"Pasaribu, Kec. Dolok sanggul, Kabupaten Humbang Hasundutan";SUMATERA UTARA;22457;Indonesia;083869524668;;;2.266.516;987.649.669;https://maps.google.com/?cid=0x0:0x66a4d11d8874a3ff;
building materials;Toko;Toko BERKAT WIDYA (UD. WIDYA);"Jl. Pakkat - Dolok Sanggul dekat sma 2 No.1, Matiti I, Kec. Dolok sanggul, Kabupaten Humbang Hasundutan, Sumatera Utara";"Kabupaten Humbang Hasundutan, Sumatera Utara";SUMATERA UTARA;;Indonesia;085276900800;;;22.592.435;9.869.754;https://maps.google.com/?cid=0x0:0x6dd9501be2a0d175;
building materials;Taman;TAMBOK GORAT;"7P73+97Q, Silaga Laga, Kec. Dolok sanggul, Kabupaten Humbang Hasundutan, Sumatera Utara 22457";"Silaga Laga, Kec. Dolok sanggul, Kabupaten Humbang Hasundutan";SUMATERA UTARA;22457;Indonesia;;;;2.264.267;987.040.348;https://maps.google.com/?cid=0x0:0x4719747408f742e2;
building materials;Toko Bahan Bangunan;UD Jambang CS;"Jln lintas siborong-borong doloksanggul desa pargaulan Desa pargaulan, simpang desa, lobutua, kecamatan lintongnihuta, Kabupaten Humbang Hasundutan, Sumatera Utara 22475";"simpang desa, lobutua, kecamatan lintongnihuta, Kabupaten Humbang Hasundutan";SUMATERA UTARA;22475;Indonesia;082267296880;;;22.627.134;988.610.684;https://maps.google.com/?cid=0x0:0xfcbcc3fc1873c37e;
building materials;building materials;Sumatera Utara 22456;"Kabupaten Humbang Hasundutan, Sumatera Utara";"Kabupaten Humbang Hasundutan, Sumatera Utara";SUMATERA UTARA;;Indonesia;;;;23.170.731;98.352.656;https://maps.google.com/?cid=0x0:0x160bd0ac62a1698;
building materials;Toko Bahan Bangunan;Cv.Bintang Terang;"C4J8+GG3, Partoruan Janji Matogu, Kec. Uluan, Toba, Sumatera Utara 22384";"Partoruan Janji Matogu, Kec. Uluan, Toba";SUMATERA UTARA;22384;Indonesia;;;;24.312.742;991.162.813;https://maps.google.com/?cid=0x0:0x46760b72c87a2bd7;
building materials;building materials;Kec. Tara bintang;"Kabupaten Humbang Hasundutan, Sumatera Utara";"Kabupaten Humbang Hasundutan, Sumatera Utara";SUMATERA UTARA;;Indonesia;;;;2.256.467;984.100.744;https://maps.google.com/?cid=0x0:0xbae2136378964571;
building materials;Toko;UD Mungkur;"7C96+JJR, Sihotang Hasugian Toruan, Kec. Tara bintang, Kabupaten Humbang Hasundutan, Sumatera Utara";"Kabupaten Humbang Hasundutan, Sumatera Utara";SUMATERA UTARA;;Indonesia;;;;22.691.003;98.411.506;https://maps.google.com/?cid=0x0:0x10d840e7b44460fa;
building materials;Pemasok marmer;BMBJTrading.Center;"Alam Sutera, Ruko Sutera Niaga II, Jl. Raya Serpong Kilometer 7 Kecamaatan No.Kel No. 52, Pakulonan, Serpong Utara, South Tangerang City, Banten 15325";"Ruko Sutera Niaga II, Jl. Raya Serpong Kilometer 7 Kecamaatan No.Kel No. 52, Pakulonan, Serpong Utara, South Tangerang City";SUMATERA UTARA;15325;Indonesia;02122352645;;;-62.472.705;1.066.502.136;https://maps.google.com/?cid=0x0:0xbedb64c77fdc0512;
building materials;Pembangunan Perumahan;CV.DOLI KASEA;"79Q6+5HR, Jl. Pembangunan, Sitanduk, Kec. Tara bintang, Kabupaten Humbang Hasundutan, Sumatera Utara 22456";"Jl. Pembangunan, Sitanduk, Kec. Tara bintang, Kabupaten Humbang Hasundutan";SUMATERA UTARA;22456;Indonesia;;;;22.875.647;983.601.032;https://maps.google.com/?cid=0x0:0xac26f403385bb470;
toko bangunan;toko bangunan;Dolok Sanggul;"Lumban Tobing, Kec. Dolok sanggul, Kabupaten Humbang Hasundutan, Sumatera Utara";"Kabupaten Humbang Hasundutan, Sumatera Utara";SUMATERA UTARA;;Indonesia;;;;2.251.991;987.485.729;https://maps.google.com/?cid=0x0:0x7f53fc623c00d824;
toko bangunan;Toko Bahan Bangunan;Toko K Hutahaean - Jl Siliwangi No 88;"Jl. Siliwangi No.88, Ps. Dolok Sanggul, Kec. Dolok sanggul, Kabupaten Humbang Hasundutan, Sumatera Utara 22457";"Ps. Dolok Sanggul, Kec. Dolok sanggul, Kabupaten Humbang Hasundutan";SUMATERA UTARA;22457;Indonesia;083869524668;;;22.582.707;987.473.281;https://maps.google.com/?cid=0x0:0x5415ebfceab1fa69;
toko bangunan;Toko Bahan Bangunan;Toko Bangunan B. Purba;"7P5X+66V, Jl. Letkol. G.A. Manullang, Lumban Tobing, Kec. Dolok sanggul, Kabupaten Humbang Hasundutan, Sumatera Utara 22457";"Jl. Letkol. G.A. Manullang, Lumban Tobing, Kec. Dolok sanggul, Kabupaten Humbang Hasundutan";SUMATERA UTARA;22457;Indonesia;081260844118;;;22.581.033;987.480.382;https://maps.google.com/?cid=0x0:0x3d0454a287d8c0ca;
toko bangunan;Toko Perlengkapan Rumah;Toko Sinar Jaya;"Jl. Dolok Sanggul - Siborong - Borong No.Km.3.2, Sosor Gonting, Kec. Dolok sanggul, Kabupaten Humbang Hasundutan, Sumatera Utara 22457";"Sosor Gonting, Kec. Dolok sanggul, Kabupaten Humbang Hasundutan";SUMATERA UTARA;22457;Indonesia;083869524668;;;22.700.232;987.727.114;https://maps.google.com/?cid=0x0:0xf145fc9b66d0f16;
toko bangunan;;Toko Mitra Theresia Ceramik;"Jl. Pakkat - Dolok Sanggul No.57, Sihite I, Kec. Dolok sanggul, Kabupaten Humbang Hasundutan, Sumatera Utara 22457";"Sihite I, Kec. Dolok sanggul, Kabupaten Humbang Hasundutan";SUMATERA UTARA;22457;Indonesia;083869524668;;;22.583.884;98.739.481;https://maps.google.com/?cid=0x0:0x519b6e367396e727;
toko bangunan;Pemasok Bahan Bangunan;Toko Bangunan Mirai;"Marbun Toruan, Kec. Bakti Raja, Kabupaten Humbang Hasundutan, Sumatera Utara 22457";"Kec. Bakti Raja, Kabupaten Humbang Hasundutan";SUMATERA UTARA;22457;Indonesia;082165419100;;;23.219.795;988.202.127;https://maps.google.com/?cid=0x0:0xb4039255f52f2bc9;
toko bangunan;Toko Bahan Bangunan;TOKO LEMBAH JAYA;"Jln.Sileang, Desa Sosor Gonting, Jln, Sileang, Kec. Dolok sanggul, Kabupaten Humbang Hasundutan, Sumatera Utara 22475";"Desa Sosor Gonting, Jln, Sileang, Kec. Dolok sanggul, Kabupaten Humbang Hasundutan";SUMATERA UTARA;22475;Indonesia;082285079242;;;22.685.368;987.875.854;https://maps.google.com/?cid=0x0:0xa02d983adf3c7c72;
toko bangunan;Toko Bahan Bangunan;UD YOSHIMASHA;"6P9C+7VR, Unnamed Road, Purba Dolok, Kec. Dolok sanggul, Kabupaten Humbang Hasundutan, Sumatera Utara 22457";"Unnamed Road, Purba Dolok, Kec. Dolok sanggul, Kabupaten Humbang Hasundutan";SUMATERA UTARA;22457;Indonesia;081362395517;;;2.218.239;987.221.354;https://maps.google.com/?cid=0x0:0x385a4377409b4b14;
toko bangunan;Toko Bahan Bangunan;Toko Andre;"Jl. Melanthon Siregar No.11a, Ps. Dolok Sanggul, Kec. Dolok sanggul, Kabupaten Humbang Hasundutan, Sumatera Utara 22457";"Ps. Dolok Sanggul, Kec. Dolok sanggul, Kabupaten Humbang Hasundutan";SUMATERA UTARA;22457;Indonesia;083869524613;;;22.598.411;987.489.149;https://maps.google.com/?cid=0x0:0x4aa2ee894cd3e0d6;
toko bangunan;Toko Bahan Bangunan;Toko Darwis;"Jl. Sisingamangaraja No.8, Ps. Dolok Sanggul, Kec. Dolok sanggul, Kabupaten Humbang Hasundutan, Sumatera Utara 22457";"Ps. Dolok Sanggul, Kec. Dolok sanggul, Kabupaten Humbang Hasundutan";SUMATERA UTARA;22457;Indonesia;083869524668;;;22.585.148;987.478.038;https://maps.google.com/?cid=0x0:0x191a663f3a6e6087;
toko bangunan;toko bangunan;Sumatera Utara 22475;Sumatera Utara;Sumatera Utara;SUMATERA UTARA;;Indonesia;;;;22.166.172;988.583.309;https://maps.google.com/?cid=0x0:0x3a0c9f067ea87dcb;
toko bangunan;Toko Bahan Bangunan;Toko ROPATINA;"Jl. Paranginan, Desa, Sigumpar, Kec. Lintong Nihuta, Kabupaten Humbang Hasundutan, Sumatera Utara 22475";"Desa, Sigumpar, Kec. Lintong Nihuta, Kabupaten Humbang Hasundutan";SUMATERA UTARA;22475;Indonesia;081396325758;;;22.873.708;988.732.938;https://maps.google.com/?cid=0x0:0xfec2d00b5b90a2d0;
toko bangunan;Toko Bahan Bangunan;Toko Besi Lintong Baja;"7V5F+H24, Jl. Dolok Sanggul - Siborong - Borong, Pargaulan, Kec. Lintong Nihuta, Kabupaten Humbang Hasundutan, Sumatera Utara 22475";"Jl. Dolok Sanggul - Siborong - Borong, Pargaulan, Kec. Lintong Nihuta, Kabupaten Humbang Hasundutan";SUMATERA UTARA;22475;Indonesia;081370075651;;;22.588.775;988.725.878;https://maps.google.com/?cid=0x0:0x664fdaece2f7c721;
toko bangunan;Toko Bahan Bangunan;UD. ARION ANUGERAH;"Jl. Borsak Junjungan Gg. Arion, Siponjot, Kec. Lintong Nihuta, Kabupaten Humbang Hasundutan, Sumatera Utara 22475";"Siponjot, Kec. Lintong Nihuta, Kabupaten Humbang Hasundutan";SUMATERA UTARA;22475;Indonesia;085362233473;;;22.599.393;98.821.825;https://maps.google.com/?cid=0x0:0x242397695abfcd38;
toko bangunan;Toko Bahan Bangunan;UD Jambang CS;"Jln lintas siborong-borong doloksanggul desa pargaulan Desa pargaulan, simpang desa, lobutua, kecamatan lintongnihuta, Kabupaten Humbang Hasundutan, Sumatera Utara 22475";"simpang desa, lobutua, kecamatan lintongnihuta, Kabupaten Humbang Hasundutan";SUMATERA UTARA;22475;Indonesia;082267296880;;;22.627.134;988.610.684;https://maps.google.com/?cid=0x0:0xfcbcc3fc1873c37e;
toko bangunan;Toko Mebel;"UD. HASUDUNGAN TOLU ONOM, TOKO MEBEL DAN BAHAN BANGUNAN";"7VG9+C4F, Jl. Melanthon Siregar, Sitolu Bahal, Kec. Lintong Nihuta, Kabupaten Humbang Hasundutan, Sumatera Utara 22475";"Jl. Melanthon Siregar, Sitolu Bahal, Kec. Lintong Nihuta, Kabupaten Humbang Hasundutan";SUMATERA UTARA;22475;Indonesia;;;;22.695.153;988.622.127;https://maps.google.com/?cid=0x0:0xb79cba4dcd632ef2;
toko bangunan;Toko Bahan Bangunan;UD. RICCATD SIBORONGBORONG;"Jl. H. Sanif No.12, Ps. Siborong-Borong, Kec. Siborongborong, Kabupaten Tapanuli Utara, Sumatera Utara 22474";"Ps. Siborong-Borong, Kec. Siborongborong, Kabupaten Tapanuli Utara";SUMATERA UTARA;22474;Indonesia;082277681064;;;22.124.951;989.755.214;https://maps.google.com/?cid=0x0:0xc192fd93562652e7;
toko bangunan;Toko;Toko Bangunan Sitampurung Nauli;"6WFR+H5W, Sitampurung, Kec. Siborongborong, Kabupaten Tapanuli Utara, Sumatera Utara 22475";"Sitampurung, Kec. Siborongborong, Kabupaten Tapanuli Utara";SUMATERA UTARA;22475;Indonesia;;;;22.239.964;989.404.377;https://maps.google.com/?cid=0x0:0x974ee3b6d753f050;
toko bangunan;Toko Bahan Bangunan;Toko K Hutahaean - Jl Siliwangi No 88;"Jl. Siliwangi No.88, Ps. Dolok Sanggul, Kec. Dolok sanggul, Kabupaten Humbang Hasundutan, Sumatera Utara 22457";"Ps. Dolok Sanggul, Kec. Dolok sanggul, Kabupaten Humbang Hasundutan";SUMATERA UTARA;22457;Indonesia;083869524668;;;22.582.707;987.473.281;https://maps.google.com/?cid=0x0:0x5415ebfceab1fa69;
toko bangunan;Toko Bahan Bangunan;Toko Sipahutar;"Jalan Sisingamangaraja No. 2-3 Kelurahan, Ps. Siborong-Borong, Kec. Siborongborong, Kabupaten Tapanuli Utara, Sumatera Utara 22474";"Ps. Siborong-Borong, Kec. Siborongborong, Kabupaten Tapanuli Utara";SUMATERA UTARA;22474;Indonesia;081260553474;;;22.145.523;989.748.996;https://maps.google.com/?cid=0x0:0xb6b9e31aff719488;
toko bangunan;Toko Bahan Bangunan;Toko Bangunan Leorisa;"Jalan Sisingamangaraja, Kelurahan No.mor 79, Ps. Siborong-Borong, Kec. Siborongborong, Kabupaten Tapanuli Utara, Sumatera Utara 22474";"Kelurahan No.mor 79, Ps. Siborong-Borong, Kec. Siborongborong, Kabupaten Tapanuli Utara";SUMATERA UTARA;22474;Indonesia;085276758762;;;22.121.017;989.726.466;https://maps.google.com/?cid=0x0:0xccc6442b7be9351e;
toko bangunan;Pemasok Bahan Bangunan;Toko Bangunan Mirai;"Marbun Toruan, Kec. Bakti Raja, Kabupaten Humbang Hasundutan, Sumatera Utara 22457";"Kec. Bakti Raja, Kabupaten Humbang Hasundutan";SUMATERA UTARA;22457;Indonesia;082165419100;;;23.219.795;988.202.127;https://maps.google.com/?cid=0x0:0xb4039255f52f2bc9;
toko bangunan;Toko Bahan Bangunan;TOKO LEMBAH JAYA;"Jln.Sileang, Desa Sosor Gonting, Jln, Sileang, Kec. Dolok sanggul, Kabupaten Humbang Hasundutan, Sumatera Utara 22475";"Desa Sosor Gonting, Jln, Sileang, Kec. Dolok sanggul, Kabupaten Humbang Hasundutan";SUMATERA UTARA;22475;Indonesia;082285079242;;;22.685.368;987.875.854;https://maps.google.com/?cid=0x0:0xa02d983adf3c7c72;
toko bangunan;Toko Bahan Bangunan;Tolong Kita Trading Business;"Jl. Sisingamangaraja No.190, Ps. Siborong-Borong, Kec. Siborongborong, Kabupaten Tapanuli Utara, Sumatera Utara 22474";"Ps. Siborong-Borong, Kec. Siborongborong, Kabupaten Tapanuli Utara";SUMATERA UTARA;22474;Indonesia;082277636455;;;22.123.344;98.972.192;https://maps.google.com/?cid=0x0:0xeb4a19be7d7bd10f;
toko bangunan;Toko Bahan Bangunan;Samurai Paint - Panglong Romaida Bs;"Jl. Sisingamangaraja No.145, Ps. Siborong-Borong, Kec. Siborongborong, Kabupaten Tapanuli Utara, Sumatera Utara 22474";"Ps. Siborong-Borong, Kec. Siborongborong, Kabupaten Tapanuli Utara";SUMATERA UTARA;22474;Indonesia;082164940420;;;22.119.995;989.724.564;https://maps.google.com/?cid=0x0:0x542f5e37df4e9a4d;
toko bangunan;Toko Bahan Bangunan;Toko Paris Bangunan;"Jl. Sisingamangaraja No.101, Siborong Borong I, Kec. Siborongborong, Kabupaten Tapanuli Utara, Sumatera Utara 22474";"Siborong Borong I, Kec. Siborongborong, Kabupaten Tapanuli Utara";SUMATERA UTARA;22474;Indonesia;;;;22.139.997;989.737.996;https://maps.google.com/?cid=0x0:0x4bbcab204f12e268;
toko bangunan;Toko Bahan Bangunan;Toko Besi Patih Murah;"Jalan Sisingamangaraja, Kelurahan No.37, Ps. Siborong-Borong, Kec. Siborongborong, Kabupaten Tapanuli Utara, Sumatera Utara 22474";"Kelurahan No.37, Ps. Siborong-Borong, Kec. Siborongborong, Kabupaten Tapanuli Utara";SUMATERA UTARA;22474;Indonesia;081361555519;;;22.073.047;989.719.304;https://maps.google.com/?cid=0x0:0xf02e113c65b14e49;
toko bangunan;Rumah Makan;UD.PARRONA;"Jl. Sisingamangaraja No.254, Siborong Borong I, Kec. Siborongborong, Kabupaten Tapanuli Utara, Sumatera Utara 22474";"Siborong Borong I, Kec. Siborongborong, Kabupaten Tapanuli Utara";SUMATERA UTARA;22474;Indonesia;082277548566;;;22.094.022;989.707.022;https://maps.google.com/?cid=0x0:0x2f5a1745399cb41e;
toko bangunan;Toko Bahan Bangunan;TB. Timor Jaya;"Jl. Sisingamangaraja No.44, Siborong Borong I, Kec. Siborongborong, Kabupaten Tapanuli Utara, Sumatera Utara 22474";"Siborong Borong I, Kec. Siborongborong, Kabupaten Tapanuli Utara";SUMATERA UTARA;22474;Indonesia;;;;22.032.188;989.725.869;https://maps.google.com/?cid=0x0:0x8dd20019156e1853;
toko bangunan;Toko Bahan Bangunan;TB SIN SIN;"Block A No. 1, Jl. Raya Klp. Gading Permai, Klp. Gading Tim., Jakarta, Jkt Utara, Daerah Khusus Ibukota Jakarta 14240";"Jl. Raya Klp. Gading Permai, Klp. Gading Tim., Jakarta, Jkt Utara";SUMATERA UTARA;14240;Indonesia;0214525987;;;-6.176.909;1.068.974.986;https://maps.google.com/?cid=0x0:0x5b968794a071420b;
toko bangunan;Toko Bahan Bangunan;Toko Besi Sin-Sin III;"Jl. Boulevard Raya PD 1 No.4, RT.3/RW.14, Pegangsaan Dua, Kec. Klp. Gading, Jkt Utara, Daerah Khusus Ibukota Jakarta 14250";"RT.3/RW.14, Pegangsaan Dua, Kec. Klp. Gading, Jkt Utara";SUMATERA UTARA;14250;Indonesia;0214504416;;;-61.501.078;1.069.096.416;https://maps.google.com/?cid=0x0:0x659406ffee699150;
toko bangunan;Pemasok Bahan Bangunan;Toko Bangunan Mirai;"Marbun Toruan, Kec. Bakti Raja, Kabupaten Humbang Hasundutan, Sumatera Utara 22457";"Kec. Bakti Raja, Kabupaten Humbang Hasundutan";SUMATERA UTARA;22457;Indonesia;082165419100;;;23.219.795;988.202.127;https://maps.google.com/?cid=0x0:0xb4039255f52f2bc9;
toko bangunan;Toko Bahan Bangunan;Toko Bangunan B. Purba;"7P5X+66V, Jl. Letkol. G.A. Manullang, Lumban Tobing, Kec. Dolok sanggul, Kabupaten Humbang Hasundutan, Sumatera Utara 22457";"Jl. Letkol. G.A. Manullang, Lumban Tobing, Kec. Dolok sanggul, Kabupaten Humbang Hasundutan";SUMATERA UTARA;22457;Indonesia;081260844118;;;22.581.033;987.480.382;https://maps.google.com/?cid=0x0:0x3d0454a287d8c0ca;
toko bangunan;Toko;UD. SANTA NAVA;"4HQX+FV7, Jl. Pakkat - Dolok Sanggul, Parbotihan, Kec. Onan Ganjang, Kabupaten Humbang Hasundutan, Sumatera Utara 22454";"Jl. Pakkat - Dolok Sanggul, Parbotihan, Kec. Onan Ganjang, Kabupaten Humbang Hasundutan";SUMATERA UTARA;22454;Indonesia;;;;21.386.695;985.996.622;https://maps.google.com/?cid=0x0:0x7d22250512bd257;
toko bangunan;toko bangunan;Cv.RISKY JAYA;"5J7P+6FM, Onan Ganjang, Kec. Onan Ganjang, Kabupaten Humbang Hasundutan, Sumatera Utara 22454";"Onan Ganjang, Kec. Onan Ganjang, Kabupaten Humbang Hasundutan";SUMATERA UTARA;22454;Indonesia;;;;21.630.785;986.361.695;https://maps.google.com/?cid=0x0:0x507c9c01c6bbe499;
toko bangunan;toko bangunan;Pakkat;"Pakkat Hauagong, Kec. Pakkat, Kabupaten Humbang Hasundutan, Sumatera Utara";"Kabupaten Humbang Hasundutan, Sumatera Utara";SUMATERA UTARA;;Indonesia;;;;2.145.129;98.473.518;https://maps.google.com/?cid=0x0:0xd970ca7c81a5c728;
toko bangunan;Pemasok Bahan Bangunan;Toko Bangunan Mirai;"Marbun Toruan, Kec. Bakti Raja, Kabupaten Humbang Hasundutan, Sumatera Utara 22457";"Kec. Bakti Raja, Kabupaten Humbang Hasundutan";SUMATERA UTARA;22457;Indonesia;082165419100;;;23.219.795;988.202.127;https://maps.google.com/?cid=0x0:0xb4039255f52f2bc9;
toko bangunan;Toko Bahan Bangunan;Toko Bangunan B. Purba;"7P5X+66V, Jl. Letkol. G.A. Manullang, Lumban Tobing, Kec. Dolok sanggul, Kabupaten Humbang Hasundutan, Sumatera Utara 22457";"Jl. Letkol. G.A. Manullang, Lumban Tobing, Kec. Dolok sanggul, Kabupaten Humbang Hasundutan";SUMATERA UTARA;22457;Indonesia;081260844118;;;22.581.033;987.480.382;https://maps.google.com/?cid=0x0:0x3d0454a287d8c0ca;
toko bangunan;Toko Bahan Bangunan;Toko Bangunan Semangat;"Jl. Sisingamangaraja No.268, Kota Sidikalang, Kec. Sidikalang, Kabupaten Dairi, Sumatera Utara 22219";"Kota Sidikalang, Kec. Sidikalang, Kabupaten Dairi";SUMATERA UTARA;22219;Indonesia;082297952223;;;27.530.175;983.094.409;https://maps.google.com/?cid=0x0:0x439881f410e4b147;
toko bangunan;Toko Bahan Bangunan;TOKO LEMBAH JAYA;"Jln.Sileang, Desa Sosor Gonting, Jln, Sileang, Kec. Dolok sanggul, Kabupaten Humbang Hasundutan, Sumatera Utara 22475";"Desa Sosor Gonting, Jln, Sileang, Kec. Dolok sanggul, Kabupaten Humbang Hasundutan";SUMATERA UTARA;22475;Indonesia;082285079242;;;22.685.368;987.875.854;https://maps.google.com/?cid=0x0:0xa02d983adf3c7c72;
toko bangunan;Museum;Tugu Rambe;"5F2F+WR2, Pakkat Hauagong, Kec. Pakkat, Kabupaten Humbang Hasundutan, Sumatera Utara 22455";"Pakkat Hauagong, Kec. Pakkat, Kabupaten Humbang Hasundutan";SUMATERA UTARA;22455;Indonesia;;;;21.522.606;984.745.046;https://maps.google.com/?cid=0x0:0x3ff5250538b8af09;
toko bangunan;Sekolah Menengah Kejuruan;SMK Negeri 1 Pakkat;"5F2F+886, Jl. PU Pakkat-Doloksanggul, Pakkat Hauagong, Kec. Pakkat, Kabupaten Humbang Hasundutan, Sumatera Utara 22455";"Jl. PU Pakkat-Doloksanggul, Pakkat Hauagong, Kec. Pakkat, Kabupaten Humbang Hasundutan";SUMATERA UTARA;22455;Indonesia;;;;21.500.528;984.801.987;https://maps.google.com/?cid=0x0:0xf0fb009f9f346363;
toko bangunan;Toko Bahan Bangunan;UD GOPAS JAYA;"MC6V+9J7, Parbuluan IV, Kec. Parbuluan, Kabupaten Dairi, Sumatera Utara 22282";"Parbuluan IV, Kec. Parbuluan, Kabupaten Dairi";SUMATERA UTARA;22282;Indonesia;085296618928;;;26.609.037;984.440.585;https://maps.google.com/?cid=0x0:0xb5f2d29e765ab0c7;
toko bangunan;Pemasok Bahan Bangunan;Toko Subur Baru (PUSAT) grosir bahan bangunan keramik besi cat gipsum aspal;"Jl. Sisingamangaraja No.11 h, Harjosari II, Kec. Medan Amplas, Kota Medan, Sumatera Utara 20217";"Harjosari II, Kec. Medan Amplas, Kota Medan";SUMATERA UTARA;20217;Indonesia;0818405644;;;3.542.409;986.985.145;https://maps.google.com/?cid=0x0:0xee6258b67e806258;
toko bangunan;Toko Bahan Bangunan;UD YOSHIMASHA;"6P9C+7VR, Unnamed Road, Purba Dolok, Kec. Dolok sanggul, Kabupaten Humbang Hasundutan, Sumatera Utara 22457";"Unnamed Road, Purba Dolok, Kec. Dolok sanggul, Kabupaten Humbang Hasundutan";SUMATERA UTARA;22457;Indonesia;081362395517;;;2.218.239;987.221.354;https://maps.google.com/?cid=0x0:0x385a4377409b4b14;
toko bangunan;Toko bahan makanan;UD. RENO;"7CC6+2F2, Simpang III, Kec. Tara bintang, Kabupaten Humbang Hasundutan, Sumatera Utara 22456";"Simpang III, Kec. Tara bintang, Kabupaten Humbang Hasundutan";SUMATERA UTARA;22456;Indonesia;;;;22.700.221;984.111.404;https://maps.google.com/?cid=0x0:0x26af525b092bc810;
toko bangunan;Pemasok Bahan Bangunan;Toko Bangunan A76;"Jl. Pusaka Ps. No.11, Bandar Klippa, Kec. Percut Sei Tuan, Kabupaten Deli Serdang, Sumatera Utara 20371";"Bandar Klippa, Kec. Percut Sei Tuan, Kabupaten Deli Serdang";SUMATERA UTARA;20371;Indonesia;083177680118;;;36.112.326;98.760.566;https://maps.google.com/?cid=0x0:0x9595ccac7fbab82a;
toko bangunan;Aksesori Mebel;Cahaya Logam;"Jl. Gunung Krakatau No.46 E-F No.46 E-F, Glugur Darat I, Kec. Medan Tim., Kota Medan, Sumatera Utara 20239";"Glugur Darat I, Kec. Medan Tim., Kota Medan";SUMATERA UTARA;20239;Indonesia;087745319967;;;36.177.655;986.805.709;https://maps.google.com/?cid=0x0:0xe656cbe232397000;
toko bangunan;toko bangunan;Toko Bangunan;"Ps. Dolok Sanggul, Kec. Dolok sanggul, Kabupaten Humbang Hasundutan, Sumatera Utara";"Kabupaten Humbang Hasundutan, Sumatera Utara";SUMATERA UTARA;;Indonesia;;;;2.259.758;9.874.759;https://maps.google.com/?cid=0x0:0x71bf7cd0a47bc025;
toko bangunan;toko bangunan;Pakkat;"4FWF+3C2, Pakkat Hauagong, Kec. Pakkat, Kabupaten Humbang Hasundutan, Sumatera Utara";"Kabupaten Humbang Hasundutan, Sumatera Utara";SUMATERA UTARA;;Indonesia;;;;2.145.129;98.473.518;https://maps.google.com/?cid=0x0:0x6a512f0b3c59c9b3;
toko bangunan;toko bangunan;Hauagong;"4FWF+3C2, Pakkat Hauagong, Kec. Pakkat, Kabupaten Humbang Hasundutan, Sumatera Utara";"Kabupaten Humbang Hasundutan, Sumatera Utara";SUMATERA UTARA;;Indonesia;;;;2.145.129;98.473.518;https://maps.google.com/?cid=0x0:0xc7575c1cee546fe5;
toko bangunan;Toko Bahan Bangunan;PUd.maruli pakkat panglong;"4F75+35H, Jl. Barus - Pakkat, Ambobi Paranginan, Hauagong, Kabupaten Humbang Hasundutan, Sumatera Utara";"Kabupaten Humbang Hasundutan, Sumatera Utara";SUMATERA UTARA;;Indonesia;;;;21.126.961;984.579.913;https://maps.google.com/?cid=0x0:0xb1c62d80d78b4a34;
toko bangunan;Toko Perlengkapan Rumah;UD. ABADI;"4FXJ+JXV, Pakkat Hauagong, Kec. Pakkat, Kabupaten Humbang Hasundutan, Sumatera Utara 22455";"Pakkat Hauagong, Kec. Pakkat, Kabupaten Humbang Hasundutan";SUMATERA UTARA;22455;Indonesia;085359377700;;;21.491.077;984.824.155;https://maps.google.com/?cid=0x0:0x9c76d0ea3b858216;
toko bangunan;Toko Bahan Bangunan;Toko ROPATINA;"Jl. Paranginan, Desa, Sigumpar, Kec. Lintong Nihuta, Kabupaten Humbang Hasundutan, Sumatera Utara 22475";"Desa, Sigumpar, Kec. Lintong Nihuta, Kabupaten Humbang Hasundutan";SUMATERA UTARA;22475;Indonesia;081396325758;;;22.873.708;988.732.938;https://maps.google.com/?cid=0x0:0xfec2d00b5b90a2d0;
toko bangunan;toko bangunan;Kec. Paranginan;"Kabupaten Humbang Hasundutan, Sumatera Utara";"Kabupaten Humbang Hasundutan, Sumatera Utara";SUMATERA UTARA;;Indonesia;;;;23.016.854;989.270.035;https://maps.google.com/?cid=0x0:0x690416ecba08580d;
toko bangunan;Toko Perlengkapan Rumah;TOKO BANGUNAN CHARISMA;"7WVW+J7M, Jl. Sisingamangaraja, Lumban Bar., Kec. Paranginan, Kabupaten Humbang Hasundutan, Sumatera Utara 22476";"Jl. Sisingamangaraja, Lumban Bar., Kec. Paranginan, Kabupaten Humbang Hasundutan";SUMATERA UTARA;22476;Indonesia;;;;22.940.793;989.456.637;https://maps.google.com/?cid=0x0:0x7940c12fe20c69e3;
toko bangunan;Toko Bahan Bangunan;Toko Bangunan B. Purba;"7P5X+66V, Jl. Letkol. G.A. Manullang, Lumban Tobing, Kec. Dolok sanggul, Kabupaten Humbang Hasundutan, Sumatera Utara 22457";"Jl. Letkol. G.A. Manullang, Lumban Tobing, Kec. Dolok sanggul, Kabupaten Humbang Hasundutan";SUMATERA UTARA;22457;Indonesia;081260844118;;;22.581.033;987.480.382;https://maps.google.com/?cid=0x0:0x3d0454a287d8c0ca;
toko bangunan;;UD. CHARISMA;"7WCW+6CC, Siborutorup, Kec. Paranginan, Kabupaten Humbang Hasundutan, Sumatera Utara 22476";"Siborutorup, Kec. Paranginan, Kabupaten Humbang Hasundutan";SUMATERA UTARA;22476;Indonesia;082260252827;;;22.705.556;989.460.304;https://maps.google.com/?cid=0x0:0xd17e3ac17a70afba;
toko bangunan;Toko Bahan Bangunan;Toko Rona;"7V83+32X, Jl. Sekolah, Tapian Nauli, Kec. Lintong Nihuta, Kabupaten Humbang Hasundutan, Sumatera Utara 22475";"Jl. Sekolah, Tapian Nauli, Kec. Lintong Nihuta, Kabupaten Humbang Hasundutan";SUMATERA UTARA;22475;Indonesia;;;;22.652.461;988.526.156;https://maps.google.com/?cid=0x0:0xdd895782a2d61120;
toko bangunan;Toko;Toko Bangunan Sitampurung Nauli;"6WFR+H5W, Sitampurung, Kec. Siborongborong, Kabupaten Tapanuli Utara, Sumatera Utara 22475";"Sitampurung, Kec. Siborongborong, Kabupaten Tapanuli Utara";SUMATERA UTARA;22475;Indonesia;;;;22.239.964;989.404.377;https://maps.google.com/?cid=0x0:0x974ee3b6d753f050;
toko bangunan;Toko Bahan Bangunan;TOKO LEMBAH JAYA;"Jln.Sileang, Desa Sosor Gonting, Jln, Sileang, Kec. Dolok sanggul, Kabupaten Humbang Hasundutan, Sumatera Utara 22475";"Desa Sosor Gonting, Jln, Sileang, Kec. Dolok sanggul, Kabupaten Humbang Hasundutan";SUMATERA UTARA;22475;Indonesia;082285079242;;;22.685.368;987.875.854;https://maps.google.com/?cid=0x0:0xa02d983adf3c7c72;
toko bangunan;Toko Bahan Bangunan;Toko Besi Lintong Baja;"7V5F+H24, Jl. Dolok Sanggul - Siborong - Borong, Pargaulan, Kec. Lintong Nihuta, Kabupaten Humbang Hasundutan, Sumatera Utara 22475";"Jl. Dolok Sanggul - Siborong - Borong, Pargaulan, Kec. Lintong Nihuta, Kabupaten Humbang Hasundutan";SUMATERA UTARA;22475;Indonesia;081370075651;;;22.588.775;988.725.878;https://maps.google.com/?cid=0x0:0x664fdaece2f7c721;
toko bangunan;toko bangunan;Parlilitan;"Sihotang Hasugian Tonga, Kec. Parlilitan, Kabupaten Humbang Hasundutan, Sumatera Utara";"Kabupaten Humbang Hasundutan, Sumatera Utara";SUMATERA UTARA;;Indonesia;;;;23.179.599;98.457.001;https://maps.google.com/?cid=0x0:0xb3282a468af9977;
toko bangunan;Pemasok Bahan Bangunan;Toko Bangunan Mirai;"Marbun Toruan, Kec. Bakti Raja, Kabupaten Humbang Hasundutan, Sumatera Utara 22457";"Kec. Bakti Raja, Kabupaten Humbang Hasundutan";SUMATERA UTARA;22457;Indonesia;082165419100;;;23.219.795;988.202.127;https://maps.google.com/?cid=0x0:0xb4039255f52f2bc9;
toko bangunan;;Toko Mitra Theresia Ceramik;"Jl. Pakkat - Dolok Sanggul No.57, Sihite I, Kec. Dolok sanggul, Kabupaten Humbang Hasundutan, Sumatera Utara 22457";"Sihite I, Kec. Dolok sanggul, Kabupaten Humbang Hasundutan";SUMATERA UTARA;22457;Indonesia;083869524668;;;22.583.884;98.739.481;https://maps.google.com/?cid=0x0:0x519b6e367396e727;
toko bangunan;Toko Bahan Bangunan;Toko ROPATINA;"Jl. Paranginan, Desa, Sigumpar, Kec. Lintong Nihuta, Kabupaten Humbang Hasundutan, Sumatera Utara 22475";"Desa, Sigumpar, Kec. Lintong Nihuta, Kabupaten Humbang Hasundutan";SUMATERA UTARA;22475;Indonesia;081396325758;;;22.873.708;988.732.938;https://maps.google.com/?cid=0x0:0xfec2d00b5b90a2d0;
toko bangunan;Toko bahan makanan;UD. RENO;"7CC6+2F2, Simpang III, Kec. Tara bintang, Kabupaten Humbang Hasundutan, Sumatera Utara 22456";"Simpang III, Kec. Tara bintang, Kabupaten Humbang Hasundutan";SUMATERA UTARA;22456;Indonesia;;;;22.700.221;984.111.404;https://maps.google.com/?cid=0x0:0x26af525b092bc810;
toko bangunan;Toko Bahan Bangunan;Toko Paris Bangunan;"Jl. Sisingamangaraja No.101, Siborong Borong I, Kec. Siborongborong, Kabupaten Tapanuli Utara, Sumatera Utara 22474";"Siborong Borong I, Kec. Siborongborong, Kabupaten Tapanuli Utara";SUMATERA UTARA;22474;Indonesia;;;;22.139.997;989.737.996;https://maps.google.com/?cid=0x0:0x4bbcab204f12e268;
toko bangunan;Toko Bahan Bangunan;TOKO LEMBAH JAYA;"Jln.Sileang, Desa Sosor Gonting, Jln, Sileang, Kec. Dolok sanggul, Kabupaten Humbang Hasundutan, Sumatera Utara 22475";"Desa Sosor Gonting, Jln, Sileang, Kec. Dolok sanggul, Kabupaten Humbang Hasundutan";SUMATERA UTARA;22475;Indonesia;082285079242;;;22.685.368;987.875.854;https://maps.google.com/?cid=0x0:0xa02d983adf3c7c72;
toko bangunan;Pembangunan Perumahan;Cv. Pasaribu Parluasan;"8G83+X76, Sihotang Hasugian Habinsaran, Kec. Parlilitan, Kabupaten Humbang Hasundutan, Sumatera Utara 22456";"Sihotang Hasugian Habinsaran, Kec. Parlilitan, Kabupaten Humbang Hasundutan";SUMATERA UTARA;22456;Indonesia;081260111121;;;23.174.124;985.031.528;https://maps.google.com/?cid=0x0:0x3417117ca4ad1535;
toko bangunan;toko bangunan;Sumatera Utara 22457;"Kabupaten Humbang Hasundutan, Sumatera Utara";"Kabupaten Humbang Hasundutan, Sumatera Utara";SUMATERA UTARA;;Indonesia;;;;22.174.078;987.260.927;https://maps.google.com/?cid=0x0:0xfc492d8c933a9bef;
toko bangunan;Pemasok Bahan Bangunan;Toko Bangunan Mirai;"Marbun Toruan, Kec. Bakti Raja, Kabupaten Humbang Hasundutan, Sumatera Utara 22457";"Kec. Bakti Raja, Kabupaten Humbang Hasundutan";SUMATERA UTARA;22457;Indonesia;082165419100;;;23.219.795;988.202.127;https://maps.google.com/?cid=0x0:0xb4039255f52f2bc9;
toko bangunan;Toko Bahan Bangunan;UD. Lintong Mandiri (LML);"8PRQ+9JJ, Jl. Huta Paung - Pollung, Parsingguran I, Kec. Pollung, Kabupaten Humbang Hasundutan, Sumatera Utara 22391";"Jl. Huta Paung - Pollung, Parsingguran I, Kec. Pollung, Kabupaten Humbang Hasundutan";SUMATERA UTARA;22391;Indonesia;085277781011;;;23.409.735;987.390.222;https://maps.google.com/?cid=0x0:0x1745ea9f80ebb92b;
toko bangunan;Toko Bahan Bangunan;Toko Bangunan B. Purba;"7P5X+66V, Jl. Letkol. G.A. Manullang, Lumban Tobing, Kec. Dolok sanggul, Kabupaten Humbang Hasundutan, Sumatera Utara 22457";"Jl. Letkol. G.A. Manullang, Lumban Tobing, Kec. Dolok sanggul, Kabupaten Humbang Hasundutan";SUMATERA UTARA;22457;Indonesia;081260844118;;;22.581.033;987.480.382;https://maps.google.com/?cid=0x0:0x3d0454a287d8c0ca;
toko bangunan;Toko bahan makanan;UD.MILLENIUM;"Jl. Siliwangi No.30, Ps. Dolok Sanggul, Kec. Dolok sanggul, Kabupaten Humbang Hasundutan, Sumatera Utara 22457";"Ps. Dolok Sanggul, Kec. Dolok sanggul, Kabupaten Humbang Hasundutan";SUMATERA UTARA;22457;Indonesia;083869524613;;;22.599.754;987.475.219;https://maps.google.com/?cid=0x0:0x2cac129cf14d3522;
toko bangunan;Toko Perlengkapan Rumah;Toko Sinar Jaya;"Jl. Dolok Sanggul - Siborong - Borong No.Km.3.2, Sosor Gonting, Kec. Dolok sanggul, Kabupaten Humbang Hasundutan, Sumatera Utara 22457";"Sosor Gonting, Kec. Dolok sanggul, Kabupaten Humbang Hasundutan";SUMATERA UTARA;22457;Indonesia;083869524668;;;22.700.232;987.727.114;https://maps.google.com/?cid=0x0:0xf145fc9b66d0f16;
toko bangunan;;Toko Mitra Theresia Ceramik;"Jl. Pakkat - Dolok Sanggul No.57, Sihite I, Kec. Dolok sanggul, Kabupaten Humbang Hasundutan, Sumatera Utara 22457";"Sihite I, Kec. Dolok sanggul, Kabupaten Humbang Hasundutan";SUMATERA UTARA;22457;Indonesia;083869524668;;;22.583.884;98.739.481;https://maps.google.com/?cid=0x0:0x519b6e367396e727;
toko bangunan;Toko Bahan Bangunan;Toko Andre;"Jl. Melanthon Siregar No.11a, Ps. Dolok Sanggul, Kec. Dolok sanggul, Kabupaten Humbang Hasundutan, Sumatera Utara 22457";"Ps. Dolok Sanggul, Kec. Dolok sanggul, Kabupaten Humbang Hasundutan";SUMATERA UTARA;22457;Indonesia;083869524613;;;22.598.411;987.489.149;https://maps.google.com/?cid=0x0:0x4aa2ee894cd3e0d6;
toko bangunan;Toko Bahan Bangunan;UD. ARION ANUGERAH;"Jl. Borsak Junjungan Gg. Arion, Siponjot, Kec. Lintong Nihuta, Kabupaten Humbang Hasundutan, Sumatera Utara 22475";"Siponjot, Kec. Lintong Nihuta, Kabupaten Humbang Hasundutan";SUMATERA UTARA;22475;Indonesia;085362233473;;;22.599.393;98.821.825;https://maps.google.com/?cid=0x0:0x242397695abfcd38;
toko bangunan;Toko Bahan Bangunan;Toko ROPATINA;"Jl. Paranginan, Desa, Sigumpar, Kec. Lintong Nihuta, Kabupaten Humbang Hasundutan, Sumatera Utara 22475";"Desa, Sigumpar, Kec. Lintong Nihuta, Kabupaten Humbang Hasundutan";SUMATERA UTARA;22475;Indonesia;081396325758;;;22.873.708;988.732.938;https://maps.google.com/?cid=0x0:0xfec2d00b5b90a2d0;
toko bangunan;Toko Bahan Bangunan;UD.Lasro;"Jl. Ring Road, Gonting Bulu, Kec. Dolok sanggul, Kabupaten Humbang Hasundutan, Sumatera Utara 22457";"Gonting Bulu, Kec. Dolok sanggul, Kabupaten Humbang Hasundutan";SUMATERA UTARA;22457;Indonesia;083869524668;;;22.713.517;987.741.757;https://maps.google.com/?cid=0x0:0x63d37a898bcbcfe6;
toko bangunan;Toko Bahan Bangunan;Toko Asima Jaya;"7P5X+R33, Ps. Dolok Sanggul, Kec. Dolok sanggul, Kabupaten Humbang Hasundutan, Sumatera Utara 22457";"Ps. Dolok Sanggul, Kec. Dolok sanggul, Kabupaten Humbang Hasundutan";SUMATERA UTARA;22457;Indonesia;083869524668;;;22.595.235;987.476.703;https://maps.google.com/?cid=0x0:0x288b5efcdb7a5c8a;
toko bangunan;Pemasok Bahan Bangunan;CV. Soala gogo;"Jl. Veteran No.20, Ps. Dolok Sanggul, Kec. Dolok sanggul, Kabupaten Humbang Hasundutan, Sumatera Utara 22457";"Ps. Dolok Sanggul, Kec. Dolok sanggul, Kabupaten Humbang Hasundutan";SUMATERA UTARA;22457;Indonesia;082168966663;;;22.554.508;98.749.574;https://maps.google.com/?cid=0x0:0x70163f4c86dd29ab;
toko bangunan;Toko Bahan Bangunan;CV PASUMINGGA JAYA;"Huta Paung, Kec. Pollung, Kabupaten Humbang Hasundutan, Sumatera Utara 22391";"Kec. Pollung, Kabupaten Humbang Hasundutan";SUMATERA UTARA;22391;Indonesia;081260659897;;;23.460.992;987.166.553;https://maps.google.com/?cid=0x0:0x978ee3141139e694;
toko bangunan;Toko Bahan Bangunan;TOKO LEMBAH JAYA;"Jln.Sileang, Desa Sosor Gonting, Jln, Sileang, Kec. Dolok sanggul, Kabupaten Humbang Hasundutan, Sumatera Utara 22475";"Desa Sosor Gonting, Jln, Sileang, Kec. Dolok sanggul, Kabupaten Humbang Hasundutan";SUMATERA UTARA;22475;Indonesia;082285079242;;;22.685.368;987.875.854;https://maps.google.com/?cid=0x0:0xa02d983adf3c7c72;
toko bangunan;Toko Bahan Bangunan;PASUMINGGA JAYA;"8PGH+QQW, Pollung, Kec. Pollung, Kabupaten Humbang Hasundutan, Sumatera Utara";"Kabupaten Humbang Hasundutan, Sumatera Utara";SUMATERA UTARA;;Indonesia;;;;23.269.884;987.294.531;https://maps.google.com/?cid=0x0:0x268c0fa10daa59d8;
toko bangunan;Toko Bahan Bangunan;CV.RISKY JAYA;"5M62+VQM, Unnamed Road, Sihikkit, Kec. Onan Ganjang, Kabupaten Humbang Hasundutan, Sumatera Utara 22454";"Unnamed Road, Sihikkit, Kec. Onan Ganjang, Kabupaten Humbang Hasundutan";SUMATERA UTARA;22454;Indonesia;;;;2.162.222;986.519.074;https://maps.google.com/?cid=0x0:0xe6fcfbdc4d97a836;
toko bangunan;Toko;Toko BERKAT WIDYA (UD. WIDYA);"Jl. Pakkat - Dolok Sanggul dekat sma 2 No.1, Matiti I, Kec. Dolok sanggul, Kabupaten Humbang Hasundutan, Sumatera Utara";"Kabupaten Humbang Hasundutan, Sumatera Utara";SUMATERA UTARA;;Indonesia;085276900800;;;22.592.435;9.869.754;https://maps.google.com/?cid=0x0:0x6dd9501be2a0d175;
toko bangunan;Toko Bahan Bangunan;UD.Habaksa Jaya;"Jl. Bakara, Sosor Gonting, Kec. Dolok sanggul, Kabupaten Humbang Hasundutan, Sumatera Utara 22457";"Sosor Gonting, Kec. Dolok sanggul, Kabupaten Humbang Hasundutan";SUMATERA UTARA;22457;Indonesia;;;;22.692.396;987.641.484;https://maps.google.com/?cid=0x0:0xc0a06e469c0b4664;
toko bangunan;Toko Bahan Bangunan;Toko Darwis;"Jl. Sisingamangaraja No.8, Ps. Dolok Sanggul, Kec. Dolok sanggul, Kabupaten Humbang Hasundutan, Sumatera Utara 22457";"Ps. Dolok Sanggul, Kec. Dolok sanggul, Kabupaten Humbang Hasundutan";SUMATERA UTARA;22457;Indonesia;083869524668;;;22.585.148;987.478.038;https://maps.google.com/?cid=0x0:0x191a663f3a6e6087;
toko bangunan;toko bangunan;Kec. Sijama Polang;"Kabupaten Humbang Hasundutan, Sumatera Utara";"Kabupaten Humbang Hasundutan, Sumatera Utara";SUMATERA UTARA;;Indonesia;;;;22.108.811;98.721.307;https://maps.google.com/?cid=0x0:0xd50f2722ee3ef986;
toko bangunan;Toko Bahan Bangunan;Toko K Hutahaean - Jl Siliwangi No 88;"Jl. Siliwangi No.88, Ps. Dolok Sanggul, Kec. Dolok sanggul, Kabupaten Humbang Hasundutan, Sumatera Utara 22457";"Ps. Dolok Sanggul, Kec. Dolok sanggul, Kabupaten Humbang Hasundutan";SUMATERA UTARA;22457;Indonesia;083869524668;;;22.582.707;987.473.281;https://maps.google.com/?cid=0x0:0x5415ebfceab1fa69;
toko bangunan;Pemasok Bahan Bangunan;Toko Bangunan Mirai;"Marbun Toruan, Kec. Bakti Raja, Kabupaten Humbang Hasundutan, Sumatera Utara 22457";"Kec. Bakti Raja, Kabupaten Humbang Hasundutan";SUMATERA UTARA;22457;Indonesia;082165419100;;;23.219.795;988.202.127;https://maps.google.com/?cid=0x0:0xb4039255f52f2bc9;
toko bangunan;Toko bahan makanan;UD.MILLENIUM;"Jl. Siliwangi No.30, Ps. Dolok Sanggul, Kec. Dolok sanggul, Kabupaten Humbang Hasundutan, Sumatera Utara 22457";"Ps. Dolok Sanggul, Kec. Dolok sanggul, Kabupaten Humbang Hasundutan";SUMATERA UTARA;22457;Indonesia;083869524613;;;22.599.754;987.475.219;https://maps.google.com/?cid=0x0:0x2cac129cf14d3522;
toko bangunan;Toko Bahan Bangunan;UD YOSHIMASHA;"6P9C+7VR, Unnamed Road, Purba Dolok, Kec. Dolok sanggul, Kabupaten Humbang Hasundutan, Sumatera Utara 22457";"Unnamed Road, Purba Dolok, Kec. Dolok sanggul, Kabupaten Humbang Hasundutan";SUMATERA UTARA;22457;Indonesia;081362395517;;;2.218.239;987.221.354;https://maps.google.com/?cid=0x0:0x385a4377409b4b14;
toko bangunan;;Toko Mitra Theresia Ceramik;"Jl. Pakkat - Dolok Sanggul No.57, Sihite I, Kec. Dolok sanggul, Kabupaten Humbang Hasundutan, Sumatera Utara 22457";"Sihite I, Kec. Dolok sanggul, Kabupaten Humbang Hasundutan";SUMATERA UTARA;22457;Indonesia;083869524668;;;22.583.884;98.739.481;https://maps.google.com/?cid=0x0:0x519b6e367396e727;
toko bangunan;Toko Bahan Bangunan;CV.RISKY JAYA;"5M62+VQM, Unnamed Road, Sihikkit, Kec. Onan Ganjang, Kabupaten Humbang Hasundutan, Sumatera Utara 22454";"Unnamed Road, Sihikkit, Kec. Onan Ganjang, Kabupaten Humbang Hasundutan";SUMATERA UTARA;22454;Indonesia;;;;2.162.222;986.519.074;https://maps.google.com/?cid=0x0:0xe6fcfbdc4d97a836;
toko bangunan;Toko Bahan Bangunan;Toko Asima Jaya;"7P5X+R33, Ps. Dolok Sanggul, Kec. Dolok sanggul, Kabupaten Humbang Hasundutan, Sumatera Utara 22457";"Ps. Dolok Sanggul, Kec. Dolok sanggul, Kabupaten Humbang Hasundutan";SUMATERA UTARA;22457;Indonesia;083869524668;;;22.595.235;987.476.703;https://maps.google.com/?cid=0x0:0x288b5efcdb7a5c8a;
toko bangunan;Toko Bahan Bangunan;Toko Andre;"Jl. Melanthon Siregar No.11a, Ps. Dolok Sanggul, Kec. Dolok sanggul, Kabupaten Humbang Hasundutan, Sumatera Utara 22457";"Ps. Dolok Sanggul, Kec. Dolok sanggul, Kabupaten Humbang Hasundutan";SUMATERA UTARA;22457;Indonesia;083869524613;;;22.598.411;987.489.149;https://maps.google.com/?cid=0x0:0x4aa2ee894cd3e0d6;
toko bangunan;Toko Perlengkapan Rumah;Toko Sinar Jaya;"Jl. Dolok Sanggul - Siborong - Borong No.Km.3.2, Sosor Gonting, Kec. Dolok sanggul, Kabupaten Humbang Hasundutan, Sumatera Utara 22457";"Sosor Gonting, Kec. Dolok sanggul, Kabupaten Humbang Hasundutan";SUMATERA UTARA;22457;Indonesia;083869524668;;;22.700.232;987.727.114;https://maps.google.com/?cid=0x0:0xf145fc9b66d0f16;
toko bangunan;Toko Bahan Bangunan;UD.Lasro;"Jl. Ring Road, Gonting Bulu, Kec. Dolok sanggul, Kabupaten Humbang Hasundutan, Sumatera Utara 22457";"Gonting Bulu, Kec. Dolok sanggul, Kabupaten Humbang Hasundutan";SUMATERA UTARA;22457;Indonesia;083869524668;;;22.713.517;987.741.757;https://maps.google.com/?cid=0x0:0x63d37a898bcbcfe6;
toko bangunan;Pemasok Bahan Bangunan;CV. Soala gogo;"Jl. Veteran No.20, Ps. Dolok Sanggul, Kec. Dolok sanggul, Kabupaten Humbang Hasundutan, Sumatera Utara 22457";"Ps. Dolok Sanggul, Kec. Dolok sanggul, Kabupaten Humbang Hasundutan";SUMATERA UTARA;22457;Indonesia;082168966663;;;22.554.508;98.749.574;https://maps.google.com/?cid=0x0:0x70163f4c86dd29ab;
toko bangunan;Toko Bahan Bangunan;UD. ARION ANUGERAH;"Jl. Borsak Junjungan Gg. Arion, Siponjot, Kec. Lintong Nihuta, Kabupaten Humbang Hasundutan, Sumatera Utara 22475";"Siponjot, Kec. Lintong Nihuta, Kabupaten Humbang Hasundutan";SUMATERA UTARA;22475;Indonesia;085362233473;;;22.599.393;98.821.825;https://maps.google.com/?cid=0x0:0x242397695abfcd38;
toko bangunan;Toko Bahan Bangunan;TOKO LEMBAH JAYA;"Jln.Sileang, Desa Sosor Gonting, Jln, Sileang, Kec. Dolok sanggul, Kabupaten Humbang Hasundutan, Sumatera Utara 22475";"Desa Sosor Gonting, Jln, Sileang, Kec. Dolok sanggul, Kabupaten Humbang Hasundutan";SUMATERA UTARA;22475;Indonesia;082285079242;;;22.685.368;987.875.854;https://maps.google.com/?cid=0x0:0xa02d983adf3c7c72;
toko bangunan;Toko Bahan Bangunan;UD.Habaksa Jaya;"Jl. Bakara, Sosor Gonting, Kec. Dolok sanggul, Kabupaten Humbang Hasundutan, Sumatera Utara 22457";"Sosor Gonting, Kec. Dolok sanggul, Kabupaten Humbang Hasundutan";SUMATERA UTARA;22457;Indonesia;;;;22.692.396;987.641.484;https://maps.google.com/?cid=0x0:0xc0a06e469c0b4664;
toko bangunan;Toko Bahan Bangunan;Toko Darwis;"Jl. Sisingamangaraja No.8, Ps. Dolok Sanggul, Kec. Dolok sanggul, Kabupaten Humbang Hasundutan, Sumatera Utara 22457";"Ps. Dolok Sanggul, Kec. Dolok sanggul, Kabupaten Humbang Hasundutan";SUMATERA UTARA;22457;Indonesia;083869524668;;;22.585.148;987.478.038;https://maps.google.com/?cid=0x0:0x191a663f3a6e6087;
toko bangunan;Toko;Toko BERKAT WIDYA (UD. WIDYA);"Jl. Pakkat - Dolok Sanggul dekat sma 2 No.1, Matiti I, Kec. Dolok sanggul, Kabupaten Humbang Hasundutan, Sumatera Utara";"Kabupaten Humbang Hasundutan, Sumatera Utara";SUMATERA UTARA;;Indonesia;085276900800;;;22.592.435;9.869.754;https://maps.google.com/?cid=0x0:0x6dd9501be2a0d175;
toko bangunan;Toko bahan makanan;UD. RENO;"7CC6+2F2, Simpang III, Kec. Tara bintang, Kabupaten Humbang Hasundutan, Sumatera Utara 22456";"Simpang III, Kec. Tara bintang, Kabupaten Humbang Hasundutan";SUMATERA UTARA;22456;Indonesia;;;;22.700.221;984.111.404;https://maps.google.com/?cid=0x0:0x26af525b092bc810;
toko bangunan;Toko;UD Mungkur;"7C96+JJR, Sihotang Hasugian Toruan, Kec. Tara bintang, Kabupaten Humbang Hasundutan, Sumatera Utara";"Kabupaten Humbang Hasundutan, Sumatera Utara";SUMATERA UTARA;;Indonesia;;;;22.691.003;98.411.506;https://maps.google.com/?cid=0x0:0x10d840e7b44460fa;
toko bangunan;toko bangunan;Sumatera Utara 22456;"Kabupaten Humbang Hasundutan, Sumatera Utara";"Kabupaten Humbang Hasundutan, Sumatera Utara";SUMATERA UTARA;;Indonesia;;;;23.170.731;98.352.656;https://maps.google.com/?cid=0x0:0x160bd0ac62a1698;
toko bangunan;Pembangunan Perumahan;CV.DOLI KASEA;"79Q6+5HR, Jl. Pembangunan, Sitanduk, Kec. Tara bintang, Kabupaten Humbang Hasundutan, Sumatera Utara 22456";"Jl. Pembangunan, Sitanduk, Kec. Tara bintang, Kabupaten Humbang Hasundutan";SUMATERA UTARA;22456;Indonesia;;;;22.875.647;983.601.032;https://maps.google.com/?cid=0x0:0xac26f403385bb470;
hardware store;Pemasok Bahan Bangunan;Toko Bangunan Mirai;"Marbun Toruan, Kec. Bakti Raja, Kabupaten Humbang Hasundutan, Sumatera Utara 22457";"Kec. Bakti Raja, Kabupaten Humbang Hasundutan";SUMATERA UTARA;22457;Indonesia;082165419100;;;23.219.795;988.202.127;https://maps.google.com/?cid=0x0:0xb4039255f52f2bc9;
hardware store;Toko Bahan Bangunan;UD.Lasro;"Jl. Ring Road, Gonting Bulu, Kec. Dolok sanggul, Kabupaten Humbang Hasundutan, Sumatera Utara 22457";"Gonting Bulu, Kec. Dolok sanggul, Kabupaten Humbang Hasundutan";SUMATERA UTARA;22457;Indonesia;083869524668;;;22.713.517;987.741.757;https://maps.google.com/?cid=0x0:0x63d37a898bcbcfe6;
hardware store;hardware store;Dolok Sanggul;"Lumban Tobing, Kec. Dolok sanggul, Kabupaten Humbang Hasundutan, Sumatera Utara";"Kabupaten Humbang Hasundutan, Sumatera Utara";SUMATERA UTARA;;Indonesia;;;;2.251.991;987.485.729;https://maps.google.com/?cid=0x0:0x7f53fc623c00d824;
hardware store;Toko Bahan Bangunan;Toko Andre;"Jl. Melanthon Siregar No.11a, Ps. Dolok Sanggul, Kec. Dolok sanggul, Kabupaten Humbang Hasundutan, Sumatera Utara 22457";"Ps. Dolok Sanggul, Kec. Dolok sanggul, Kabupaten Humbang Hasundutan";SUMATERA UTARA;22457;Indonesia;083869524613;;;22.598.411;987.489.149;https://maps.google.com/?cid=0x0:0x4aa2ee894cd3e0d6;
hardware store;Toko Ponsel;Master Ponsel;"Jl. Merdeka No.31, Ps. Dolok Sanggul, Kec. Dolok sanggul, Kabupaten Humbang Hasundutan, Sumatera Utara 22457";"Ps. Dolok Sanggul, Kec. Dolok sanggul, Kabupaten Humbang Hasundutan";SUMATERA UTARA;22457;Indonesia;081375330063;;;2.258.651;987.493.195;https://maps.google.com/?cid=0x0:0x295dfe8caba57240;
hardware store;Toko Bahan Bangunan;Toko K Hutahaean - Jl Siliwangi No 88;"Jl. Siliwangi No.88, Ps. Dolok Sanggul, Kec. Dolok sanggul, Kabupaten Humbang Hasundutan, Sumatera Utara 22457";"Ps. Dolok Sanggul, Kec. Dolok sanggul, Kabupaten Humbang Hasundutan";SUMATERA UTARA;22457;Indonesia;083869524668;;;22.582.707;987.473.281;https://maps.google.com/?cid=0x0:0x5415ebfceab1fa69;
hardware store;hardware store;Kec. Menteng;"Kota Jakarta Pusat, Daerah Khusus Ibukota Jakarta";"Kota Jakarta Pusat, Daerah Khusus Ibukota Jakarta";SUMATERA UTARA;;Indonesia;;;;-61.937.297;1.068.392.111;https://maps.google.com/?cid=0x0:0x3e389ed39c2f9bb4;
hardware store;hardware store;Sumatera Utara 22475;Sumatera Utara;Sumatera Utara;SUMATERA UTARA;;Indonesia;;;;22.166.172;988.583.309;https://maps.google.com/?cid=0x0:0x3a0c9f067ea87dcb;
hardware store;Toko Bahan Bangunan;UD. ARION ANUGERAH;"Jl. Borsak Junjungan Gg. Arion, Siponjot, Kec. Lintong Nihuta, Kabupaten Humbang Hasundutan, Sumatera Utara 22475";"Siponjot, Kec. Lintong Nihuta, Kabupaten Humbang Hasundutan";SUMATERA UTARA;22475;Indonesia;085362233473;;;22.599.393;98.821.825;https://maps.google.com/?cid=0x0:0x242397695abfcd38;
hardware store;Toko Bahan Bangunan;Toko ROPATINA;"Jl. Paranginan, Desa, Sigumpar, Kec. Lintong Nihuta, Kabupaten Humbang Hasundutan, Sumatera Utara 22475";"Desa, Sigumpar, Kec. Lintong Nihuta, Kabupaten Humbang Hasundutan";SUMATERA UTARA;22475;Indonesia;081396325758;;;22.873.708;988.732.938;https://maps.google.com/?cid=0x0:0xfec2d00b5b90a2d0;
hardware store;Toko Bahan Bangunan;UD Jambang CS;"Jln lintas siborong-borong doloksanggul desa pargaulan Desa pargaulan, simpang desa, lobutua, kecamatan lintongnihuta, Kabupaten Humbang Hasundutan, Sumatera Utara 22475";"simpang desa, lobutua, kecamatan lintongnihuta, Kabupaten Humbang Hasundutan";SUMATERA UTARA;22475;Indonesia;082267296880;;;22.627.134;988.610.684;https://maps.google.com/?cid=0x0:0xfcbcc3fc1873c37e;
hardware store;Toko Elektronik;MULTI ELEKTRONIKA LINTONGNIHUTA;"Jl. Sisingamangaraja, Pargaulan, Kec. Lintong Nihuta, Kabupaten Humbang Hasundutan, Sumatera Utara 22475";"Pargaulan, Kec. Lintong Nihuta, Kabupaten Humbang Hasundutan";SUMATERA UTARA;22475;Indonesia;081264163386;;;22.641.197;988.617.217;https://maps.google.com/?cid=0x0:0xdee882aebebdfd10;
hardware store;Toko Bahan Bangunan;Toko Besi Lintong Baja;"7V5F+H24, Jl. Dolok Sanggul - Siborong - Borong, Pargaulan, Kec. Lintong Nihuta, Kabupaten Humbang Hasundutan, Sumatera Utara 22475";"Jl. Dolok Sanggul - Siborong - Borong, Pargaulan, Kec. Lintong Nihuta, Kabupaten Humbang Hasundutan";SUMATERA UTARA;22475;Indonesia;081370075651;;;22.588.775;988.725.878;https://maps.google.com/?cid=0x0:0x664fdaece2f7c721;
hardware store;Toko Alat Tulis;UD. Gunung Hijau;"Jl. Sisingamangaraja No.56, Sitolu Bahal, Kec. Lintong Nihuta, Kabupaten Humbang Hasundutan, Sumatera Utara 22475";"Sitolu Bahal, Kec. Lintong Nihuta, Kabupaten Humbang Hasundutan";SUMATERA UTARA;22475;Indonesia;081361035665;;;22.773.505;988.680.498;https://maps.google.com/?cid=0x0:0x50f3b0b6e62a232a;
hardware store;hardware store;Sumatera Utara 22454;"Kec. Onan Ganjang, Kabupaten Humbang Hasundutan, Sumatera Utara";"Kabupaten Humbang Hasundutan, Sumatera Utara";SUMATERA UTARA;;Indonesia;;;;21.012.986;986.380.598;https://maps.google.com/?cid=0x0:0xdafd4c9542e995db;
hardware store;hardware store;Coffee Hotel Ayola Dolok Sanggul;"Jl. Dolok Sanggul - Siborong - Borong, Pakkat, Kec. Dolok sanggul, Kabupaten Humbang Hasundutan, Sumatera Utara 22457";"Pakkat, Kec. Dolok sanggul, Kabupaten Humbang Hasundutan";SUMATERA UTARA;22457;Indonesia;06333211396;;;22.608.434;987.903.237;https://maps.google.com/?cid=0x0:0xbc95c1f2fbec6208;
hardware store;Pom bensin/SPBU;Pertashop Onan Ganjang;"5J3H+CQR, Onan Ganjang, Kec. Onan Ganjang, Kabupaten Humbang Hasundutan, Sumatera Utara 22454";"Onan Ganjang, Kec. Onan Ganjang, Kabupaten Humbang Hasundutan";SUMATERA UTARA;22454;Indonesia;;;;2.153.622;986.293.936;https://maps.google.com/?cid=0x0:0x6ca52ce6aefda47a;
hardware store;hardware store;Kec. Onan Ganjang;"Kabupaten Humbang Hasundutan, Sumatera Utara";"Kabupaten Humbang Hasundutan, Sumatera Utara";SUMATERA UTARA;;Indonesia;;;;21.547.734;986.295.724;https://maps.google.com/?cid=0x0:0xdce7ed5f2d2ccaa1;
hardware store;Toko;UD. SANTA NAVA;"4HQX+FV7, Jl. Pakkat - Dolok Sanggul, Parbotihan, Kec. Onan Ganjang, Kabupaten Humbang Hasundutan, Sumatera Utara 22454";"Jl. Pakkat - Dolok Sanggul, Parbotihan, Kec. Onan Ganjang, Kabupaten Humbang Hasundutan";SUMATERA UTARA;22454;Indonesia;;;;21.386.695;985.996.622;https://maps.google.com/?cid=0x0:0x7d22250512bd257;
hardware store;Toko Mebel;Spring bed;"7P53+PM6, Matiti I, Kec. Dolok sanggul, Kabupaten Humbang Hasundutan, Sumatera Utara 22457";"Matiti I, Kec. Dolok sanggul, Kabupaten Humbang Hasundutan";SUMATERA UTARA;22457;Indonesia;;;;22.592.897;987.041.334;https://maps.google.com/?cid=0x0:0xa021a34520b20ee8;
hardware store;Toko;Toko BERKAT WIDYA (UD. WIDYA);"Jl. Pakkat - Dolok Sanggul dekat sma 2 No.1, Matiti I, Kec. Dolok sanggul, Kabupaten Humbang Hasundutan, Sumatera Utara";"Kabupaten Humbang Hasundutan, Sumatera Utara";SUMATERA UTARA;;Indonesia;085276900800;;;22.592.435;9.869.754;https://maps.google.com/?cid=0x0:0x6dd9501be2a0d175;
hardware store;Servis Komputer;LCS Computer;"Pakkat Hauagong, Kec. Pakkat, Kabupaten Humbang Hasundutan, Sumatera Utara 22455";"Kec. Pakkat, Kabupaten Humbang Hasundutan";SUMATERA UTARA;22455;Indonesia;085215888987;;;21.524.491;984.743.535;https://maps.google.com/?cid=0x0:0xd77fb2bedc51b154;
hardware store;Toko Percetakan;JT.Comp;"Jl. Sisingamangaraja No.Desa, Pakkat Hauagong, Kec. Pakkat, Kabupaten Humbang Hasundutan, Sumatera Utara 22455";"Pakkat Hauagong, Kec. Pakkat, Kabupaten Humbang Hasundutan";SUMATERA UTARA;22455;Indonesia;082248421338;;;21.534.893;984.740.411;https://maps.google.com/?cid=0x0:0xf346abac89949a7d;
hardware store;Pasar Loak;Pasar Loak Barang Bekas Astana Anyar;"Jl. Astana Anyar No.328, Pelindung Hewan, Kec. Astanaanyar, Kota Bandung, Jawa Barat 40254";"Pelindung Hewan, Kec. Astanaanyar, Kota Bandung";SUMATERA UTARA;40254;Indonesia;;;;-69.347.883;1.076.024.585;https://maps.google.com/?cid=0x0:0xef85c232debf52f3;
hardware store;hardware store;Kec. Paranginan;"Kabupaten Humbang Hasundutan, Sumatera Utara";"Kabupaten Humbang Hasundutan, Sumatera Utara";SUMATERA UTARA;;Indonesia;;;;23.016.854;989.270.035;https://maps.google.com/?cid=0x0:0x690416ecba08580d;
hardware store;Toko Bahan Bangunan;Toko Rona;"7V83+32X, Jl. Sekolah, Tapian Nauli, Kec. Lintong Nihuta, Kabupaten Humbang Hasundutan, Sumatera Utara 22475";"Jl. Sekolah, Tapian Nauli, Kec. Lintong Nihuta, Kabupaten Humbang Hasundutan";SUMATERA UTARA;22475;Indonesia;;;;22.652.461;988.526.156;https://maps.google.com/?cid=0x0:0xdd895782a2d61120;
hardware store;Rumah Pondokan;Wisma Tondong;"Jalan Tarutung - Balige, Simpang Sianjur, Desa, Parik Sabungan, Kec. Siborongborong, Kabupaten Tapanuli Utara, Sumatera Utara 22474";"Simpang Sianjur, Desa, Parik Sabungan, Kec. Siborongborong, Kabupaten Tapanuli Utara";SUMATERA UTARA;22474;Indonesia;082272769816;;;22.507.702;989.988.114;https://maps.google.com/?cid=0x0:0x285172a0bf3a7e93;
hardware store;hardware store;Parlilitan;"Sihotang Hasugian Tonga, Kec. Parlilitan, Kabupaten Humbang Hasundutan, Sumatera Utara";"Kabupaten Humbang Hasundutan, Sumatera Utara";SUMATERA UTARA;;Indonesia;;;;23.179.599;98.457.001;https://maps.google.com/?cid=0x0:0xb3282a468af9977;
hardware store;hardware store;Kec. Menteng;"Kota Jakarta Pusat, Daerah Khusus Ibukota Jakarta";"Kota Jakarta Pusat, Daerah Khusus Ibukota Jakarta";SUMATERA UTARA;;Indonesia;;;;-61.937.297;1.068.392.111;https://maps.google.com/?cid=0x0:0x3e389ed39c2f9bb4;
hardware store;hardware store;Sumatera Utara 22457;"Kabupaten Humbang Hasundutan, Sumatera Utara";"Kabupaten Humbang Hasundutan, Sumatera Utara";SUMATERA UTARA;;Indonesia;;;;22.174.078;987.260.927;https://maps.google.com/?cid=0x0:0xfc492d8c933a9bef;
hardware store;Toko Perlengkapan Rumah;Toko Sinar Jaya;"Jl. Dolok Sanggul - Siborong - Borong No.Km.3.2, Sosor Gonting, Kec. Dolok sanggul, Kabupaten Humbang Hasundutan, Sumatera Utara 22457";"Sosor Gonting, Kec. Dolok sanggul, Kabupaten Humbang Hasundutan";SUMATERA UTARA;22457;Indonesia;083869524668;;;22.700.232;987.727.114;https://maps.google.com/?cid=0x0:0xf145fc9b66d0f16;
hardware store;Toko Bahan Bangunan;UD. ARION ANUGERAH;"Jl. Borsak Junjungan Gg. Arion, Siponjot, Kec. Lintong Nihuta, Kabupaten Humbang Hasundutan, Sumatera Utara 22475";"Siponjot, Kec. Lintong Nihuta, Kabupaten Humbang Hasundutan";SUMATERA UTARA;22475;Indonesia;085362233473;;;22.599.393;98.821.825;https://maps.google.com/?cid=0x0:0x242397695abfcd38;
hardware store;Toko Bahan Bangunan;UD Jambang CS;"Jln lintas siborong-borong doloksanggul desa pargaulan Desa pargaulan, simpang desa, lobutua, kecamatan lintongnihuta, Kabupaten Humbang Hasundutan, Sumatera Utara 22475";"simpang desa, lobutua, kecamatan lintongnihuta, Kabupaten Humbang Hasundutan";SUMATERA UTARA;22475;Indonesia;082267296880;;;22.627.134;988.610.684;https://maps.google.com/?cid=0x0:0xfcbcc3fc1873c37e;
hardware store;Toko Bahan Bangunan;Toko ROPATINA;"Jl. Paranginan, Desa, Sigumpar, Kec. Lintong Nihuta, Kabupaten Humbang Hasundutan, Sumatera Utara 22475";"Desa, Sigumpar, Kec. Lintong Nihuta, Kabupaten Humbang Hasundutan";SUMATERA UTARA;22475;Indonesia;081396325758;;;22.873.708;988.732.938;https://maps.google.com/?cid=0x0:0xfec2d00b5b90a2d0;
hardware store;Toko Perlengkapan Rumah;MR. DIY;"Jalan Merdeka, Pasaribu, Kec. Dolok sanggul, Kabupaten Humbang Hasundutan, Sumatera Utara 22457";"Pasaribu, Kec. Dolok sanggul, Kabupaten Humbang Hasundutan";SUMATERA UTARA;22457;Indonesia;;;;22.617.373;987.568.643;https://maps.google.com/?cid=0x0:0x752193db43e25851;
hardware store;Pemasok Bahan Bangunan;Toko Bangunan Mirai;"Marbun Toruan, Kec. Bakti Raja, Kabupaten Humbang Hasundutan, Sumatera Utara 22457";"Kec. Bakti Raja, Kabupaten Humbang Hasundutan";SUMATERA UTARA;22457;Indonesia;082165419100;;;23.219.795;988.202.127;https://maps.google.com/?cid=0x0:0xb4039255f52f2bc9;
hardware store;Toko Bahan Bangunan;Toko Bangunan B. Purba;"7P5X+66V, Jl. Letkol. G.A. Manullang, Lumban Tobing, Kec. Dolok sanggul, Kabupaten Humbang Hasundutan, Sumatera Utara 22457";"Jl. Letkol. G.A. Manullang, Lumban Tobing, Kec. Dolok sanggul, Kabupaten Humbang Hasundutan";SUMATERA UTARA;22457;Indonesia;081260844118;;;22.581.033;987.480.382;https://maps.google.com/?cid=0x0:0x3d0454a287d8c0ca;
hardware store;Toko Bahan Bangunan;Toko Andre;"Jl. Melanthon Siregar No.11a, Ps. Dolok Sanggul, Kec. Dolok sanggul, Kabupaten Humbang Hasundutan, Sumatera Utara 22457";"Ps. Dolok Sanggul, Kec. Dolok sanggul, Kabupaten Humbang Hasundutan";SUMATERA UTARA;22457;Indonesia;083869524613;;;22.598.411;987.489.149;https://maps.google.com/?cid=0x0:0x4aa2ee894cd3e0d6;
hardware store;Toko Bahan Bangunan;Toko Rona;"7V83+32X, Jl. Sekolah, Tapian Nauli, Kec. Lintong Nihuta, Kabupaten Humbang Hasundutan, Sumatera Utara 22475";"Jl. Sekolah, Tapian Nauli, Kec. Lintong Nihuta, Kabupaten Humbang Hasundutan";SUMATERA UTARA;22475;Indonesia;;;;22.652.461;988.526.156;https://maps.google.com/?cid=0x0:0xdd895782a2d61120;
hardware store;Toko;Toko Nagar Jaya;"Jl. Richardo Siahaan, Bonani Onan, Kec. Dolok sanggul, Kabupaten Humbang Hasundutan, Sumatera Utara 22457";"Bonani Onan, Kec. Dolok sanggul, Kabupaten Humbang Hasundutan";SUMATERA UTARA;22457;Indonesia;081377036142;;;22.610.706;987.504.424;https://maps.google.com/?cid=0x0:0xba56a3bcbc1a562e;
hardware store;hardware store;Kec. Sijama Polang;"Kabupaten Humbang Hasundutan, Sumatera Utara";"Kabupaten Humbang Hasundutan, Sumatera Utara";SUMATERA UTARA;;Indonesia;;;;22.108.811;98.721.307;https://maps.google.com/?cid=0x0:0xd50f2722ee3ef986;
hardware store;Toko Perlengkapan Rumah;Toko Sinar Jaya;"Jl. Dolok Sanggul - Siborong - Borong No.Km.3.2, Sosor Gonting, Kec. Dolok sanggul, Kabupaten Humbang Hasundutan, Sumatera Utara 22457";"Sosor Gonting, Kec. Dolok sanggul, Kabupaten Humbang Hasundutan";SUMATERA UTARA;22457;Indonesia;083869524668;;;22.700.232;987.727.114;https://maps.google.com/?cid=0x0:0xf145fc9b66d0f16;
hardware store;Toko;Toko BERKAT WIDYA (UD. WIDYA);"Jl. Pakkat - Dolok Sanggul dekat sma 2 No.1, Matiti I, Kec. Dolok sanggul, Kabupaten Humbang Hasundutan, Sumatera Utara";"Kabupaten Humbang Hasundutan, Sumatera Utara";SUMATERA UTARA;;Indonesia;085276900800;;;22.592.435;9.869.754;https://maps.google.com/?cid=0x0:0x6dd9501be2a0d175;
hardware store;Toko Bahan Bangunan;UD. ARION ANUGERAH;"Jl. Borsak Junjungan Gg. Arion, Siponjot, Kec. Lintong Nihuta, Kabupaten Humbang Hasundutan, Sumatera Utara 22475";"Siponjot, Kec. Lintong Nihuta, Kabupaten Humbang Hasundutan";SUMATERA UTARA;22475;Indonesia;085362233473;;;22.599.393;98.821.825;https://maps.google.com/?cid=0x0:0x242397695abfcd38;
hardware store;Toko Bahan Bangunan;Toko Bangunan B. Purba;"7P5X+66V, Jl. Letkol. G.A. Manullang, Lumban Tobing, Kec. Dolok sanggul, Kabupaten Humbang Hasundutan, Sumatera Utara 22457";"Jl. Letkol. G.A. Manullang, Lumban Tobing, Kec. Dolok sanggul, Kabupaten Humbang Hasundutan";SUMATERA UTARA;22457;Indonesia;081260844118;;;22.581.033;987.480.382;https://maps.google.com/?cid=0x0:0x3d0454a287d8c0ca;
hardware store;hardware store;Tara Bintang;"Kec. Tara bintang, Kabupaten Humbang Hasundutan, Sumatera Utara";"Kabupaten Humbang Hasundutan, Sumatera Utara";SUMATERA UTARA;;Indonesia;;;;22.292.543;983.636.131;https://maps.google.com/?cid=0x0:0x47d6ec08a613eb6;
hardware store;hardware store;Kec. Tara bintang;"Kabupaten Humbang Hasundutan, Sumatera Utara";"Kabupaten Humbang Hasundutan, Sumatera Utara";SUMATERA UTARA;;Indonesia;;;;2.256.467;984.100.744;https://maps.google.com/?cid=0x0:0xbae2136378964571;
hardware store;Toko Alat-Alat;Bintang Hardware;"Jl. Irigasi No.94, RT.6/RW.1, Ujung Menteng, Kec. Cakung, Kota Jakarta Timur, Daerah Khusus Ibukota Jakarta 13960";"RT.6/RW.1, Ujung Menteng, Kec. Cakung, Kota Jakarta Timur";SUMATERA UTARA;13960;Indonesia;;;;-61.837.078;1.069.607.271;https://maps.google.com/?cid=0x0:0xbb97b0eb56dee3fe;
home improvement;home improvement;Kec. Bakti Raja;"Kabupaten Humbang Hasundutan, Sumatera Utara";"Kabupaten Humbang Hasundutan, Sumatera Utara";SUMATERA UTARA;;Indonesia;;;;23.235.404;988.207.391;https://maps.google.com/?cid=0x0:0x475a50a12c00c787;
home improvement;Kontraktor Umum;Hona. CV;"Desa Sinambela, Bakti Raja, 22457, Sinambela, Kec. Bakti Raja, Kabupaten Humbang Hasundutan, Sumatera Utara 22457";"Bakti Raja,";SUMATERA UTARA;22457;Indonesia;082168554203;;;23.204.957;988.224.894;https://maps.google.com/?cid=0x0:0xa6ac96789d76cf5;
home improvement;Kontraktor Umum;Santo. CV;"8R55+QF8, Simamora, Kec. Bakti Raja, Kabupaten Humbang Hasundutan, Sumatera Utara 22457";"Simamora, Kec. Bakti Raja, Kabupaten Humbang Hasundutan";SUMATERA UTARA;22457;Indonesia;085371960956;;;23.094.209;988.087.151;https://maps.google.com/?cid=0x0:0x78a4dffb7676c02d;
home improvement;Bengkel AC;TUKANG AC HAMIZAN TEKNIK;"Jl. Pisangan Lama III, RT.7/RW.3, Pisangan Tim., Kec. Pulo Gadung, Kota Jakarta Timur, Daerah Khusus Ibukota Jakarta 13230";"RT.7/RW.3, Pisangan Tim., Kec. Pulo Gadung, Kota Jakarta Timur";SUMATERA UTARA;13230;Indonesia;089664472378;;;-62.099.433;106.878.659;https://maps.google.com/?cid=0x0:0xaa7986415de3c2bb;
home improvement;Bengkel AC;Jasa perbaikan ac jakarta timur (palu jaya teknik);"Jl. Pisangan bulak No.81, RT.1/RW.5, Penggilingan, Kec. Cakung, Kota Jakarta Timur, Daerah Khusus Ibukota Jakarta 13940";"RT.1/RW.5, Penggilingan, Kec. Cakung, Kota Jakarta Timur";SUMATERA UTARA;13940;Indonesia;081219184058;;;-62.086.531;1.069.393.932;https://maps.google.com/?cid=0x0:0xe6a3070d2cbbef74;
home improvement;home improvement;Sumatera Utara 22475;Sumatera Utara;Sumatera Utara;SUMATERA UTARA;;Indonesia;;;;22.166.172;988.583.309;https://maps.google.com/?cid=0x0:0x3a0c9f067ea87dcb;
home improvement;Toko Mebel;"UD. HASUDUNGAN TOLU ONOM, TOKO MEBEL DAN BAHAN BANGUNAN";"7VG9+C4F, Jl. Melanthon Siregar, Sitolu Bahal, Kec. Lintong Nihuta, Kabupaten Humbang Hasundutan, Sumatera Utara 22475";"Jl. Melanthon Siregar, Sitolu Bahal, Kec. Lintong Nihuta, Kabupaten Humbang Hasundutan";SUMATERA UTARA;22475;Indonesia;;;;22.695.153;988.622.127;https://maps.google.com/?cid=0x0:0xb79cba4dcd632ef2;
home improvement;Perusahaan Konstruksi;Bukit Tjahaya Abadi. PT;"7R7R+CC7, JL. SMP Negeri IV, Siponjot, Kec. Lintong Nihuta, Kabupaten Humbang Hasundutan, Sumatera Utara 22475";"JL. SMP Negeri IV, Siponjot, Kec. Lintong Nihuta, Kabupaten Humbang Hasundutan";SUMATERA UTARA;22475;Indonesia;081362078270;;;2.263.539;98.841.062;https://maps.google.com/?cid=0x0:0xd192dacdbd296f5d;
home improvement;Toko Bahan Bangunan;Toko Rona;"7V83+32X, Jl. Sekolah, Tapian Nauli, Kec. Lintong Nihuta, Kabupaten Humbang Hasundutan, Sumatera Utara 22475";"Jl. Sekolah, Tapian Nauli, Kec. Lintong Nihuta, Kabupaten Humbang Hasundutan";SUMATERA UTARA;22475;Indonesia;;;;22.652.461;988.526.156;https://maps.google.com/?cid=0x0:0xdd895782a2d61120;
home improvement;Toko Mebel;Elvano perabot;"7VJ4+FHR, Sitolu Bahal, Kec. Lintong Nihuta, Kabupaten Humbang Hasundutan, Sumatera Utara 22475";"Sitolu Bahal, Kec. Lintong Nihuta, Kabupaten Humbang Hasundutan";SUMATERA UTARA;22475;Indonesia;082274259741;;;22.811.707;988.563.724;https://maps.google.com/?cid=0x0:0xd1015fc108261633;
home improvement;Toko Elektronik;MULTI ELEKTRONIKA LINTONGNIHUTA;"Jl. Sisingamangaraja, Pargaulan, Kec. Lintong Nihuta, Kabupaten Humbang Hasundutan, Sumatera Utara 22475";"Pargaulan, Kec. Lintong Nihuta, Kabupaten Humbang Hasundutan";SUMATERA UTARA;22475;Indonesia;081264163386;;;22.641.197;988.617.217;https://maps.google.com/?cid=0x0:0xdee882aebebdfd10;
home improvement;Kontraktor Umum;Maju Jaya. CV;"Sosor Sinambela, Desa Habeahan Lintongnihuta, 22475, Habeahan, Kec. Lintong Nihuta, Kabupaten Humbang Hasundutan, Sumatera Utara 22475";"Desa Habeahan Lintongnihuta,";SUMATERA UTARA;22475;Indonesia;081370691321;;;23.036.757;98.844.202;https://maps.google.com/?cid=0x0:0xa2d731378425c8ea;
home improvement;Perusahaan Konstruksi;Guna Tama. CV;"7V55+PCG, Pargaulan, Kec. Lintong Nihuta, Kabupaten Humbang Hasundutan, Sumatera Utara 22475";"Pargaulan, Kec. Lintong Nihuta, Kabupaten Humbang Hasundutan";SUMATERA UTARA;22475;Indonesia;081396678901;;;2.259.312;988.585.884;https://maps.google.com/?cid=0x0:0xa9598640bd8a63d7;
home improvement;Komplek perumahan;Rumah Asperasi Labuan Sihombing;"Jl. Sisingamangaraja No.94, Sibuntuon Parpea, Kec. Lintong Nihuta, Kabupaten Humbang Hasundutan, Sumatera Utara 22475";"Sibuntuon Parpea, Kec. Lintong Nihuta, Kabupaten Humbang Hasundutan";SUMATERA UTARA;22475;Indonesia;;;;22.788.855;988.691.938;https://maps.google.com/?cid=0x0:0xeb3785b803804381;
home improvement;Toko Percetakan;Atha Teknik (Silutor Projector HID  Computer Equipment);"Jl. Sisingamangaraja No.31, Pargaulan, Kec. Lintong Nihuta, Kabupaten Humbang Hasundutan, Sumatera Utara 22475";"Pargaulan, Kec. Lintong Nihuta, Kabupaten Humbang Hasundutan";SUMATERA UTARA;22475;Indonesia;081370852770;;;22.644.654;988.615.799;https://maps.google.com/?cid=0x0:0x629002667bd02f1;
home improvement;Komplek perumahan;Pasar Tradisional Lintong Ni Huta;"7VG9+Q3V, Jl. Sisingamangaraja, Sitolu Bahal, Kec. Lintong Nihuta, Kabupaten Humbang Hasundutan, Sumatera Utara 22475";"Jl. Sisingamangaraja, Sitolu Bahal, Kec. Lintong Nihuta, Kabupaten Humbang Hasundutan";SUMATERA UTARA;22475;Indonesia;;;;22.769.938;988.676.721;https://maps.google.com/?cid=0x0:0xa5eb0e80af40df29;
home improvement;Gereja Lutheran;Depan Gereja HKI Simpang III Paranginan Sel;"7XV3+PP8, Paranginan Sel., Kec. Paranginan, Kabupaten Humbang Hasundutan, Sumatera Utara 22476";"Paranginan Sel., Kec. Paranginan, Kabupaten Humbang Hasundutan";SUMATERA UTARA;22476;Indonesia;081263955808;;;22.942.815;989.543.405;https://maps.google.com/?cid=0x0:0x3544802beb3560e;
home improvement;Perusahaan Konstruksi;Sinar Inti Sejahtera. CV;"8V95+PCM, Parulohan, Kec. Lintong Nihuta, Kabupaten Humbang Hasundutan, Sumatera Utara 22476";"Parulohan, Kec. Lintong Nihuta, Kabupaten Humbang Hasundutan";SUMATERA UTARA;22476;Indonesia;081396027469;;;23.193.267;988.585.362;https://maps.google.com/?cid=0x0:0x8b23829e07d024bb;
home improvement;Pemasok Semen Ready-mix;PT.TORPINDO GALANG BETON;"6WW7+224, Jl. Dolok Sanggul - Siborong - Borong, Nagasaribu I, Kec. Lintong Nihuta, Kabupaten Humbang Hasundutan, Sumatera Utara 22475";"Jl. Dolok Sanggul - Siborong - Borong, Nagasaribu I, Kec. Lintong Nihuta, Kabupaten Humbang Hasundutan";SUMATERA UTARA;22475;Indonesia;;;;22.450.086;989.125.641;https://maps.google.com/?cid=0x0:0xfbae5389608fe7e0;
home improvement;Kontraktor Umum;CV. BUKIT TJAHAYA;"6VWV+QC7, Nagasaribu I, Kec. Lintong Nihuta, Kabupaten Humbang Hasundutan, Sumatera Utara 22475";"Nagasaribu I, Kec. Lintong Nihuta, Kabupaten Humbang Hasundutan";SUMATERA UTARA;22475;Indonesia;081264978260;;;22.468.647;988.938.831;https://maps.google.com/?cid=0x0:0x6f8085475905dc22;
home improvement;Kantor Perusahaan;Bangun Prima Jaya. CV;"7WR6+QG8, Lobu Tolong, Kec. Paranginan, Kabupaten Humbang Hasundutan, Sumatera Utara 22475";"Lobu Tolong, Kec. Paranginan, Kabupaten Humbang Hasundutan";SUMATERA UTARA;22475;Indonesia;08126341131;;;2.291.902;989.113.381;https://maps.google.com/?cid=0x0:0x48ef0e74902b41a3;
home improvement;Inspektur Tempat Tinggal;"Pearung silali , simata - mata laeptina sitegar";"8W72+74, Pearung, Kec. Paranginan, Kabupaten Humbang Hasundutan, Sumatera Utara";"Kabupaten Humbang Hasundutan, Sumatera Utara";SUMATERA UTARA;;Indonesia;;;;23.131.464;989.002.589;https://maps.google.com/?cid=0x0:0x11ba6f36352c5221;
home improvement;Kontraktor Umum;Damos Jaya. CV;"7VQP+JQG, Sigumpar, Kec. Lintong Nihuta, Kabupaten Humbang Hasundutan, Sumatera Utara 22475";"Sigumpar, Kec. Lintong Nihuta, Kabupaten Humbang Hasundutan";SUMATERA UTARA;22475;Indonesia;082168844455;;;22.890.563;988.869.506;https://maps.google.com/?cid=0x0:0x4c29d7216f736203;
home improvement;Toko Bahan Bangunan;Toko Sipahutar;"Jalan Sisingamangaraja No. 2-3 Kelurahan, Ps. Siborong-Borong, Kec. Siborongborong, Kabupaten Tapanuli Utara, Sumatera Utara 22474";"Ps. Siborong-Borong, Kec. Siborongborong, Kabupaten Tapanuli Utara";SUMATERA UTARA;22474;Indonesia;081260553474;;;22.145.523;989.748.996;https://maps.google.com/?cid=0x0:0xb6b9e31aff719488;
home improvement;home improvement;PT Jhoseva Bintang Mahajaya;;;SUMATERA UTARA;;Indonesia;082161513599;;;-244.565;1.178.888;https://maps.google.com/?cid=0x0:0x6675270a680eb6;
home improvement;home improvement;Kec. Lintong Nihuta;"Kabupaten Humbang Hasundutan, Sumatera Utara";"Kabupaten Humbang Hasundutan, Sumatera Utara";SUMATERA UTARA;;Indonesia;;;;22.725.575;988.627.702;https://maps.google.com/?cid=0x0:0x4039d80b2211060;
home improvement;home improvement;Sumatera Utara 22454;"Kec. Onan Ganjang, Kabupaten Humbang Hasundutan, Sumatera Utara";"Kabupaten Humbang Hasundutan, Sumatera Utara";SUMATERA UTARA;;Indonesia;;;;21.012.986;986.380.598;https://maps.google.com/?cid=0x0:0xdafd4c9542e995db;
home improvement;home improvement;Coffee Hotel Ayola Dolok Sanggul;"Jl. Dolok Sanggul - Siborong - Borong, Pakkat, Kec. Dolok sanggul, Kabupaten Humbang Hasundutan, Sumatera Utara 22457";"Pakkat, Kec. Dolok sanggul, Kabupaten Humbang Hasundutan";SUMATERA UTARA;22457;Indonesia;06333211396;;;22.608.434;987.903.237;https://maps.google.com/?cid=0x0:0xbc95c1f2fbec6208;
home improvement;home improvement;Kec. Onan Ganjang;"Kabupaten Humbang Hasundutan, Sumatera Utara";"Kabupaten Humbang Hasundutan, Sumatera Utara";SUMATERA UTARA;;Indonesia;;;;21.547.734;986.295.724;https://maps.google.com/?cid=0x0:0xdce7ed5f2d2ccaa1;
home improvement;home improvement;Pakkat;"Pakkat Hauagong, Kec. Pakkat, Kabupaten Humbang Hasundutan, Sumatera Utara";"Kabupaten Humbang Hasundutan, Sumatera Utara";SUMATERA UTARA;;Indonesia;;;;2.145.129;98.473.518;https://maps.google.com/?cid=0x0:0xd970ca7c81a5c728;
home improvement;home improvement;Tangga tangga;"Jalan Banuarea Dolok Desa No.18B, Banuarea, Kec. Pakkat, Kabupaten Humbang Hasundutan, Sumatera Utara 22455";"Banuarea, Kec. Pakkat, Kabupaten Humbang Hasundutan";SUMATERA UTARA;22455;Indonesia;;;;22.015.218;985.686.567;https://maps.google.com/?cid=0x0:0xb9fe59b299310a35;
home improvement;home improvement;Kec. Menteng;"Kota Jakarta Pusat, Daerah Khusus Ibukota Jakarta";"Kota Jakarta Pusat, Daerah Khusus Ibukota Jakarta";SUMATERA UTARA;;Indonesia;;;;-61.937.297;1.068.392.111;https://maps.google.com/?cid=0x0:0x3e389ed39c2f9bb4;
home improvement;Gereja;HKI Simpang Tiga;"7XV3+VMH, Paranginan Sel., Kec. Paranginan, Kabupaten Humbang Hasundutan, Sumatera Utara 22476";"Paranginan Sel., Kec. Paranginan, Kabupaten Humbang Hasundutan";SUMATERA UTARA;22476;Indonesia;;;;22.946.877;989.542.245;https://maps.google.com/?cid=0x0:0x468e28155a17af70;
home improvement;Gereja Lutheran;Depan Gereja HKI Simpang III Paranginan Sel;"7XV3+PP8, Paranginan Sel., Kec. Paranginan, Kabupaten Humbang Hasundutan, Sumatera Utara 22476";"Paranginan Sel., Kec. Paranginan, Kabupaten Humbang Hasundutan";SUMATERA UTARA;22476;Indonesia;081263955808;;;22.942.815;989.543.405;https://maps.google.com/?cid=0x0:0x3544802beb3560e;
home improvement;home improvement;Kec. Paranginan;"Kabupaten Humbang Hasundutan, Sumatera Utara";"Kabupaten Humbang Hasundutan, Sumatera Utara";SUMATERA UTARA;;Indonesia;;;;23.016.854;989.270.035;https://maps.google.com/?cid=0x0:0x690416ecba08580d;
home improvement;home improvement;Kec. Menteng;"Kota Jakarta Pusat, Daerah Khusus Ibukota Jakarta";"Kota Jakarta Pusat, Daerah Khusus Ibukota Jakarta";SUMATERA UTARA;;Indonesia;;;;-61.937.297;1.068.392.111;https://maps.google.com/?cid=0x0:0x3e389ed39c2f9bb4;
home improvement;home improvement;Parlilitan;"Sihotang Hasugian Tonga, Kec. Parlilitan, Kabupaten Humbang Hasundutan, Sumatera Utara";"Kabupaten Humbang Hasundutan, Sumatera Utara";SUMATERA UTARA;;Indonesia;;;;23.179.599;98.457.001;https://maps.google.com/?cid=0x0:0xb3282a468af9977;
home improvement;home improvement;Kec. Tebet;"Kota Jakarta Selatan, Daerah Khusus Ibukota Jakarta";"Kota Jakarta Selatan, Daerah Khusus Ibukota Jakarta";SUMATERA UTARA;;Indonesia;;;;-62.251.223;1.068.549.881;https://maps.google.com/?cid=0x0:0xd575e31c807295f9;
home improvement;home improvement;Sumatera Utara 22457;"Kabupaten Humbang Hasundutan, Sumatera Utara";"Kabupaten Humbang Hasundutan, Sumatera Utara";SUMATERA UTARA;;Indonesia;;;;22.174.078;987.260.927;https://maps.google.com/?cid=0x0:0xfc492d8c933a9bef;
home improvement;Toko Perlengkapan Rumah;MR. DIY;"Jalan Merdeka, Pasaribu, Kec. Dolok sanggul, Kabupaten Humbang Hasundutan, Sumatera Utara 22457";"Pasaribu, Kec. Dolok sanggul, Kabupaten Humbang Hasundutan";SUMATERA UTARA;22457;Indonesia;;;;22.617.373;987.568.643;https://maps.google.com/?cid=0x0:0x752193db43e25851;
home improvement;Toko bahan makanan;UD.MILLENIUM;"Jl. Siliwangi No.30, Ps. Dolok Sanggul, Kec. Dolok sanggul, Kabupaten Humbang Hasundutan, Sumatera Utara 22457";"Ps. Dolok Sanggul, Kec. Dolok sanggul, Kabupaten Humbang Hasundutan";SUMATERA UTARA;22457;Indonesia;083869524613;;;22.599.754;987.475.219;https://maps.google.com/?cid=0x0:0x2cac129cf14d3522;
home improvement;Toko Perabot Supermarket;Pabrik dan Workshop Holong Perabot;"Marade, Desa Jl. Dolok Sanggul - Sidikalang, Sipitu Huta, Kec. Pollung, Kabupaten Humbang Hasundutan, Sumatera Utara 22457";"Desa Jl. Dolok Sanggul - Sidikalang, Sipitu Huta, Kec. Pollung, Kabupaten Humbang Hasundutan";SUMATERA UTARA;22457;Indonesia;082274293016;;;23.138.567;987.309.059;https://maps.google.com/?cid=0x0:0x5556faf3e8d9cc5a;
home improvement;Toko Mebel;"UD. HASUDUNGAN TOLU ONOM, TOKO MEBEL DAN BAHAN BANGUNAN";"7VG9+C4F, Jl. Melanthon Siregar, Sitolu Bahal, Kec. Lintong Nihuta, Kabupaten Humbang Hasundutan, Sumatera Utara 22475";"Jl. Melanthon Siregar, Sitolu Bahal, Kec. Lintong Nihuta, Kabupaten Humbang Hasundutan";SUMATERA UTARA;22475;Indonesia;;;;22.695.153;988.622.127;https://maps.google.com/?cid=0x0:0xb79cba4dcd632ef2;
home improvement;Toko Perabot Supermarket;Toko Holong Meubel;"7P5W+82J, Jl. Pakkat - Dolok Sanggul, Lumban Tobing, Kec. Dolok sanggul, Kabupaten Humbang Hasundutan, Sumatera Utara 22457";"Jl. Pakkat - Dolok Sanggul, Lumban Tobing, Kec. Dolok sanggul, Kabupaten Humbang Hasundutan";SUMATERA UTARA;22457;Indonesia;;;;22.583.393;98.745.019;https://maps.google.com/?cid=0x0:0x14525027d2d8fa2d;
home improvement;Toko Perlengkapan Rumah;Toko Sinar Jaya;"Jl. Dolok Sanggul - Siborong - Borong No.Km.3.2, Sosor Gonting, Kec. Dolok sanggul, Kabupaten Humbang Hasundutan, Sumatera Utara 22457";"Sosor Gonting, Kec. Dolok sanggul, Kabupaten Humbang Hasundutan";SUMATERA UTARA;22457;Indonesia;083869524668;;;22.700.232;987.727.114;https://maps.google.com/?cid=0x0:0xf145fc9b66d0f16;
home improvement;Toko Perabot Supermarket;Daniel Perabot;"Jl. Sisingamangaraja No.15, Ps. Dolok Sanggul, Kec. Dolok sanggul, Kabupaten Humbang Hasundutan, Sumatera Utara 22457";"Ps. Dolok Sanggul, Kec. Dolok sanggul, Kabupaten Humbang Hasundutan";SUMATERA UTARA;22457;Indonesia;081397335218;;;225.829;987.478.455;https://maps.google.com/?cid=0x0:0xef2637224cd1a2b8;
home improvement;Kantor Perusahaan;Sergio Las;"Jl. Bakara, Pasaribu, Kec. Dolok sanggul, Kabupaten Humbang Hasundutan, Sumatera Utara 22457";"Pasaribu, Kec. Dolok sanggul, Kabupaten Humbang Hasundutan";SUMATERA UTARA;22457;Indonesia;085276143935;;;22.731.471;987.664.596;https://maps.google.com/?cid=0x0:0x60033587da7fe8ad;
home improvement;Toko Mebel;Brik.H.S;"Jl. Lintas Dolok Sanggul No.131, Bonani Onan, Kec. Dolok sanggul, Kabupaten Humbang Hasundutan, Sumatera Utara 22457";"Bonani Onan, Kec. Dolok sanggul, Kabupaten Humbang Hasundutan";SUMATERA UTARA;22457;Indonesia;;;;22.632.694;987.471.311;https://maps.google.com/?cid=0x0:0xf65c4cc40f10f47f;
home improvement;Kebun Raya;Hasang(sosorono);"7Q9J+74J, Unnamed Road, Pakkat, Kec. Dolok sanggul, Kabupaten Humbang Hasundutan, Sumatera Utara 22457";"Unnamed Road, Pakkat, Kec. Dolok sanggul, Kabupaten Humbang Hasundutan";SUMATERA UTARA;22457;Indonesia;082272635232;;;22.682.078;987.802.618;https://maps.google.com/?cid=0x0:0x5a0adc3b8d3de14d;
home improvement;Toko Mebel;Toko NORAMA Perabot  Pecah Belah;"Jl. Melanthon Siregar No.59, Ps. Dolok Sanggul, Kec. Dolok sanggul, Kabupaten Humbang Hasundutan, Sumatera Utara 22457";"Ps. Dolok Sanggul, Kec. Dolok sanggul, Kabupaten Humbang Hasundutan";SUMATERA UTARA;22457;Indonesia;;;;22.591.741;987.499.307;https://maps.google.com/?cid=0x0:0xb32d3c490b819f4a;
home improvement;Toko Mebel;Holong Perabot 2;"Jl. Sisingamangaraja No.105, Lumban Tobing, Kec. Dolok sanggul, Kabupaten Humbang Hasundutan, Sumatera Utara 22457";"Lumban Tobing, Kec. Dolok sanggul, Kabupaten Humbang Hasundutan";SUMATERA UTARA;22457;Indonesia;082274293016;;;22.580.841;987.437.326;https://maps.google.com/?cid=0x0:0x3d2959a149fa6101;
home improvement;home improvement;Kec. Pollung;"Kabupaten Humbang Hasundutan, Sumatera Utara";"Kabupaten Humbang Hasundutan, Sumatera Utara";SUMATERA UTARA;;Indonesia;;;;23.338.904;987.230.903;https://maps.google.com/?cid=0x0:0xcd960aea45dc1312;
home improvement;Toko Bahan Bangunan;PASUMINGGA JAYA;"8PGH+QQW, Pollung, Kec. Pollung, Kabupaten Humbang Hasundutan, Sumatera Utara";"Kabupaten Humbang Hasundutan, Sumatera Utara";SUMATERA UTARA;;Indonesia;;;;23.269.884;987.294.531;https://maps.google.com/?cid=0x0:0x268c0fa10daa59d8;
home improvement;Kontraktor;Pahlevi pemborong;"QQRH+Q23, Jl. Hud, RT.10/RW.5, Sukabumi Utara, Kec. Kb. Jeruk, Kota Jakarta Barat, Daerah Khusus Ibukota Jakarta 11540";"Jl. Hud, RT.10/RW.5, Sukabumi Utara, Kec. Kb. Jeruk, Kota Jakarta Barat";SUMATERA UTARA;11540;Indonesia;;;;-62.081.234;106.777.553;https://maps.google.com/?cid=0x0:0xae392d1afeeb15e4;
home improvement;Jasa Konstruksi dan Bangunan;HAS PRIMA KONTRAKTOR BANGUNAN;"Jl Pasar Pengampuan no.7, RT.2/RW.1, Srengseng, Kec. Kembangan, Kota Jakarta Barat, Daerah Khusus Ibukota Jakarta 11630";"RT.2/RW.1, Srengseng, Kec. Kembangan, Kota Jakarta Barat";SUMATERA UTARA;11630;Indonesia;02122547137;;;-61.991.068;1.067.605.105;https://maps.google.com/?cid=0x0:0xb4a9370c6df84860;
home improvement;home improvement;Kec. Sijama Polang;"Kabupaten Humbang Hasundutan, Sumatera Utara";"Kabupaten Humbang Hasundutan, Sumatera Utara";SUMATERA UTARA;;Indonesia;;;;22.108.811;98.721.307;https://maps.google.com/?cid=0x0:0xd50f2722ee3ef986;
home improvement;Toko Perlengkapan Rumah;MR. DIY;"Jalan Merdeka, Pasaribu, Kec. Dolok sanggul, Kabupaten Humbang Hasundutan, Sumatera Utara 22457";"Pasaribu, Kec. Dolok sanggul, Kabupaten Humbang Hasundutan";SUMATERA UTARA;22457;Indonesia;;;;22.617.373;987.568.643;https://maps.google.com/?cid=0x0:0x752193db43e25851;
home improvement;Toko bahan makanan;UD.MILLENIUM;"Jl. Siliwangi No.30, Ps. Dolok Sanggul, Kec. Dolok sanggul, Kabupaten Humbang Hasundutan, Sumatera Utara 22457";"Ps. Dolok Sanggul, Kec. Dolok sanggul, Kabupaten Humbang Hasundutan";SUMATERA UTARA;22457;Indonesia;083869524613;;;22.599.754;987.475.219;https://maps.google.com/?cid=0x0:0x2cac129cf14d3522;
home improvement;Toko Mebel;Toko NORAMA Perabot  Pecah Belah;"Jl. Melanthon Siregar No.59, Ps. Dolok Sanggul, Kec. Dolok sanggul, Kabupaten Humbang Hasundutan, Sumatera Utara 22457";"Ps. Dolok Sanggul, Kec. Dolok sanggul, Kabupaten Humbang Hasundutan";SUMATERA UTARA;22457;Indonesia;;;;22.591.741;987.499.307;https://maps.google.com/?cid=0x0:0xb32d3c490b819f4a;
home improvement;Toko Perabot Supermarket;Daniel Perabot;"Jl. Sisingamangaraja No.15, Ps. Dolok Sanggul, Kec. Dolok sanggul, Kabupaten Humbang Hasundutan, Sumatera Utara 22457";"Ps. Dolok Sanggul, Kec. Dolok sanggul, Kabupaten Humbang Hasundutan";SUMATERA UTARA;22457;Indonesia;081397335218;;;225.829;987.478.455;https://maps.google.com/?cid=0x0:0xef2637224cd1a2b8;
home improvement;Kebun Raya;Hasang(sosorono);"7Q9J+74J, Unnamed Road, Pakkat, Kec. Dolok sanggul, Kabupaten Humbang Hasundutan, Sumatera Utara 22457";"Unnamed Road, Pakkat, Kec. Dolok sanggul, Kabupaten Humbang Hasundutan";SUMATERA UTARA;22457;Indonesia;082272635232;;;22.682.078;987.802.618;https://maps.google.com/?cid=0x0:0x5a0adc3b8d3de14d;
home improvement;Toko Perlengkapan Rumah;Toko Sinar Jaya;"Jl. Dolok Sanggul - Siborong - Borong No.Km.3.2, Sosor Gonting, Kec. Dolok sanggul, Kabupaten Humbang Hasundutan, Sumatera Utara 22457";"Sosor Gonting, Kec. Dolok sanggul, Kabupaten Humbang Hasundutan";SUMATERA UTARA;22457;Indonesia;083869524668;;;22.700.232;987.727.114;https://maps.google.com/?cid=0x0:0xf145fc9b66d0f16;
home improvement;Toko Perabot Supermarket;Toko Holong Meubel;"7P5W+82J, Jl. Pakkat - Dolok Sanggul, Lumban Tobing, Kec. Dolok sanggul, Kabupaten Humbang Hasundutan, Sumatera Utara 22457";"Jl. Pakkat - Dolok Sanggul, Lumban Tobing, Kec. Dolok sanggul, Kabupaten Humbang Hasundutan";SUMATERA UTARA;22457;Indonesia;;;;22.583.393;98.745.019;https://maps.google.com/?cid=0x0:0x14525027d2d8fa2d;
home improvement;Toko Mebel;Brik.H.S;"Jl. Lintas Dolok Sanggul No.131, Bonani Onan, Kec. Dolok sanggul, Kabupaten Humbang Hasundutan, Sumatera Utara 22457";"Bonani Onan, Kec. Dolok sanggul, Kabupaten Humbang Hasundutan";SUMATERA UTARA;22457;Indonesia;;;;22.632.694;987.471.311;https://maps.google.com/?cid=0x0:0xf65c4cc40f10f47f;
home improvement;Toko Mebel;Holong Perabot 2;"Jl. Sisingamangaraja No.105, Lumban Tobing, Kec. Dolok sanggul, Kabupaten Humbang Hasundutan, Sumatera Utara 22457";"Lumban Tobing, Kec. Dolok sanggul, Kabupaten Humbang Hasundutan";SUMATERA UTARA;22457;Indonesia;082274293016;;;22.580.841;987.437.326;https://maps.google.com/?cid=0x0:0x3d2959a149fa6101;
home improvement;Toko Mebel;Michael Pahala Munthe;"Jl. Melanthon Siregar No.59, Ps. Dolok Sanggul, Kec. Dolok sanggul, Kabupaten Humbang Hasundutan, Sumatera Utara 22457";"Ps. Dolok Sanggul, Kec. Dolok sanggul, Kabupaten Humbang Hasundutan";SUMATERA UTARA;22457;Indonesia;;;;22.592.361;987.499.542;https://maps.google.com/?cid=0x0:0x23c98fee704a1735;
home improvement;home improvement;Tara Bintang;"Kec. Tara bintang, Kabupaten Humbang Hasundutan, Sumatera Utara";"Kabupaten Humbang Hasundutan, Sumatera Utara";SUMATERA UTARA;;Indonesia;;;;22.292.543;983.636.131;https://maps.google.com/?cid=0x0:0x47d6ec08a613eb6;
home improvement;home improvement;Kec. Tara bintang;"Kabupaten Humbang Hasundutan, Sumatera Utara";"Kabupaten Humbang Hasundutan, Sumatera Utara";SUMATERA UTARA;;Indonesia;;;;2.256.467;984.100.744;https://maps.google.com/?cid=0x0:0xbae2136378964571;
