Category;Real Category;Business Name;Address;City;State;Postal Code;Country;Phone;Email;Website;Latitude;Longitude;Map Link;Details Link
"mall";"mall";"Kec. Bakti Raja";"Kabupaten Humbang Hasundutan, Sumatera Utara";"Kabupaten Humbang Hasundutan, Sumatera Utara";"SUMATERA UTARA";"";"Indonesia";"";"";"";"2.3235404";"98.8207391";"https://maps.google.com/?cid=0x0:0x475a50a12c00c787";""
"mall";"Toko";"UD.AYU PERMATA";"7QJ6+Q53, Unnamed Road, Sirisirisi, Kec. Dolok sanggul, Kabupaten Humbang Hasundutan, Sumatera Utara 22457";"Unnamed Road, Sirisirisi, Kec. Dolok sanggul, Kabupaten Humbang Hasundutan";"SUMATERA UTARA";"22457";"Indonesia";"";"";"";"2.2818997";"98.7604154";"https://maps.google.com/?cid=0x0:0x66e4e0398abd47c6";""
"mall";"mall";"UD.Duem";"8QXC+MQ3, Parsingguran II, Kec. Pollung, Kabupaten Humbang Hasundutan, Sumatera Utara 22457";"Parsingguran II, Kec. Pollung, Kabupaten Humbang Hasundutan";"SUMATERA UTARA";"22457";"Indonesia";"";"";"";"2.349137";"98.7719329";"https://maps.google.com/?cid=0x0:0xcf7c9ff200103996";""
"mall";"mall";"Tipang";"Kec. Bakti Raja, Kabupaten Humbang Hasundutan, Sumatera Utara";"Kabupaten Humbang Hasundutan, Sumatera Utara";"SUMATERA UTARA";"";"Indonesia";"";"";"";"2.3605715";"98.8169822";"https://maps.google.com/?cid=0x0:0x481f69164237449a";""
"mall";"Tujuan Wisata";"Wisata";"Hutaraja, Kec. Bakti Raja, Kabupaten Humbang Hasundutan, Sumatera Utara 22457";"Kec. Bakti Raja, Kabupaten Humbang Hasundutan";"SUMATERA UTARA";"22457";"Indonesia";" 081265625578";"";"";"2.3357585";"98.8080239";"https://maps.google.com/?cid=0x0:0x7445ab4442880420";""
"mall";"Pembangunan Perumahan";"Marbun toruan";"8RG8+HQH, Marbun Toruan, Kec. Bakti Raja, Kabupaten Humbang Hasundutan, Sumatera Utara 22457";"Marbun Toruan, Kec. Bakti Raja, Kabupaten Humbang Hasundutan";"SUMATERA UTARA";"22457";"Indonesia";"";"";"";"2.3264302";"98.8169822";"https://maps.google.com/?cid=0x0:0xf16b92ac03a7ce9d";""
"mall";"mall";"Dolok Sanggul";"Lumban Tobing, Kec. Dolok sanggul, Kabupaten Humbang Hasundutan, Sumatera Utara";"Kabupaten Humbang Hasundutan, Sumatera Utara";"SUMATERA UTARA";"";"Indonesia";"";"";"";"2.251991";"98.7485729";"https://maps.google.com/?cid=0x0:0x7f53fc623c00d824";""
"mall";"Kantor Pemerintah";"Mal Pelayanan Publik Kabupaten Humbang Hasundutan";"Jl. Dolok Sanggul - Siborong - Borong No.112, Pasaribu, Kec. Dolok sanggul, Kabupaten Humbang Hasundutan, Sumatera Utara 22457";"Pasaribu, Kec. Dolok sanggul, Kabupaten Humbang Hasundutan";"SUMATERA UTARA";"22457";"Indonesia";"";"";"";"2.2584057";"98.7498102";"https://maps.google.com/?cid=0x0:0xd2faa9e9da138487";""
"mall";"Pusat Perbelanjaan";"Dolok Sanggul";"Jl. Merdeka No.20, Ps. Dolok Sanggul, Kec. Dolok sanggul, Kabupaten Humbang Hasundutan, Sumatera Utara 22457";"Ps. Dolok Sanggul, Kec. Dolok sanggul, Kabupaten Humbang Hasundutan";"SUMATERA UTARA";"22457";"Indonesia";" 082273097059";"";"";"2.2584778";"98.7500816";"https://maps.google.com/?cid=0x0:0xe38c442b3d7d0ed2";""
"mall";"Kantor Perusahaan";"PT PLN (Persero) ULP Dolok Sanggul";"7PGV+QVJ, Jl. Dolok Sanggul - Sidikalang, Lumban Tobing, Kec. Dolok sanggul, Kabupaten Humbang Hasundutan, Sumatera Utara 22457";"Jl. Dolok Sanggul - Sidikalang, Lumban Tobing, Kec. Dolok sanggul, Kabupaten Humbang Hasundutan";"SUMATERA UTARA";"22457";"Indonesia";" 063331471";"";"";"2.2769503";"98.7446367";"https://maps.google.com/?cid=0x0:0x975517fcc48a4971";""
"mall";"Pasar";"Toko Tamaro";"Jl. Dolok Sanggul - Sidikalang No.41, Ps. Dolok Sanggul, Kec. Dolok sanggul, Kabupaten Humbang Hasundutan, Sumatera Utara 22457";"Ps. Dolok Sanggul, Kec. Dolok sanggul, Kabupaten Humbang Hasundutan";"SUMATERA UTARA";"22457";"Indonesia";" 081370385283";"";"";"2.2599902";"98.7474695";"https://maps.google.com/?cid=0x0:0x7592ed24445a01ff";""
"mall";"Kantor Pemerintah";"Kantor Imigrasi Kelas II Non TPI Doloksanggul";"7P5X+GV5, Ps. Dolok Sanggul, Kec. Dolok sanggul, Kabupaten Humbang Hasundutan, Sumatera Utara 22457";"Ps. Dolok Sanggul, Kec. Dolok sanggul, Kabupaten Humbang Hasundutan";"SUMATERA UTARA";"22457";"Indonesia";"";"";"";"2.2587654";"98.7497199";"https://maps.google.com/?cid=0x0:0xfd7a439f2ee41928";""
"mall";"Polisi Negara Bagian";"Kantor Polsek Doloksanggul";"7Q53+R4P, Jl. Dolok Sanggul - Siborong - Borong, Pasaribu, Kec. Dolok sanggul, Kabupaten Humbang Hasundutan, Sumatera Utara 22457";"Jl. Dolok Sanggul - Siborong - Borong, Pasaribu, Kec. Dolok sanggul, Kabupaten Humbang Hasundutan";"SUMATERA UTARA";"22457";"Indonesia";" 082360651428";"";"";"2.2595951";"98.7528381";"https://maps.google.com/?cid=0x0:0xbe5a488fb1ca7e06";""
"mall";"Pangkalan Militer";"Koramil Dolok Sanggul";"7Q52+92W, Ps. Dolok Sanggul, Kec. Dolok sanggul, Kabupaten Humbang Hasundutan, Sumatera Utara 22457";"Ps. Dolok Sanggul, Kec. Dolok sanggul, Kabupaten Humbang Hasundutan";"SUMATERA UTARA";"22457";"Indonesia";"";"";"";"2.2584786";"98.7500652";"https://maps.google.com/?cid=0x0:0xfbd803c1599e0fd7";""
"mall";"Kantor Pemerintah";"UKK IMIGRASI HUMBAHAS";"Jl. Sisingamangaraja No.35, Ps. Dolok Sanggul, Kec. Dolok sanggul, Kabupaten Humbang Hasundutan, Sumatera Utara 22457";"Ps. Dolok Sanggul, Kec. Dolok sanggul, Kabupaten Humbang Hasundutan";"SUMATERA UTARA";"22457";"Indonesia";"";"";"";"2.2587801";"98.7497024";"https://maps.google.com/?cid=0x0:0x8193497a0190a4ac";""
"mall";"Kantor Pemda";"Kantor Bupati Humbang Hasundutan";"7Q2R+454, Pakkat, Kec. Dolok sanggul, Kabupaten Humbang Hasundutan, Sumatera Utara 22457";"Pakkat, Kec. Dolok sanggul, Kabupaten Humbang Hasundutan";"SUMATERA UTARA";"22457";"Indonesia";"";"";"";"2.250267";"98.7904565";"https://maps.google.com/?cid=0x0:0xb826a5615a2a6321";""
"mall";"Kantor Pemerintah";"Badan Pusat Statistik Kabupaten Humbang Hasundutan";"6PRQ+R5H, Kompleks Perkantoran, Purba Dolok, Kec. Dolok sanggul, Kabupaten Humbang Hasundutan, Sumatera Utara 22457";"Kompleks Perkantoran, Purba Dolok, Kec. Dolok sanggul, Kabupaten Humbang Hasundutan";"SUMATERA UTARA";"22457";"Indonesia";" 063331554";"";"";"2.2420594";"98.7379725";"https://maps.google.com/?cid=0x0:0x9f609fdb9f43f74b";""
"mall";"Balai Kota";"Bukit Inspirasi";"Aek Lung, Kec. Dolok sanggul, Kabupaten Humbang Hasundutan, Sumatera Utara 22457";"Kec. Dolok sanggul, Kabupaten Humbang Hasundutan";"SUMATERA UTARA";"22457";"Indonesia";" 081267859826";"";"";"2.2425154";"98.7944742";"https://maps.google.com/?cid=0x0:0x9a0ca3034752a13";""
"mall";"Sekolah Menengah Umum";"MAN HUMBANG HASUNDUTAN";"6PXJ+6RG, Sihite II, Kec. Dolok sanggul, Kabupaten Humbang Hasundutan, Sumatera Utara 22457";"Sihite II, Kec. Dolok sanggul, Kabupaten Humbang Hasundutan";"SUMATERA UTARA";"22457";"Indonesia";"";"";"";"2.2480737";"98.7320632";"https://maps.google.com/?cid=0x0:0xaa469a6ce08842a1";""
"mall";"Bank";"BTPN PP Dolok Sanggul";"Jl. Merdeka 42-A, Dolok Sanggul, Lumban Tobing, Nias, Humbang Hasundutan Regency, North Sumatra 22457";"Dolok Sanggul, Lumban Tobing, Nias, Humbang Hasundutan Regency";"SUMATERA UTARA";"22457";"Indonesia";" 063331263";"";"";"2.251991";"98.7485729";"https://maps.google.com/?cid=0x0:0x26435e16e63da26e";""
"mall";"mall";"Tulus Shop";"7P5Q+32Q, Jl. Rura Simanampang, Sihite II, Kec. Dolok sanggul, Kabupaten Humbang Hasundutan, Sumatera Utara 22457";"Jl. Rura Simanampang, Sihite II, Kec. Dolok sanggul, Kabupaten Humbang Hasundutan";"SUMATERA UTARA";"22457";"Indonesia";" 085297735664";"";"";"2.2577228";"98.7376228";"https://maps.google.com/?cid=0x0:0x17b2bd9b98d3905f";""
"mall";"Pasar";"Onan Doloksanggul";"Ps. Dolok Sanggul, Kec. Dolok sanggul, Kabupaten Humbang Hasundutan, Sumatera Utara 22457";"Kec. Dolok sanggul, Kabupaten Humbang Hasundutan";"SUMATERA UTARA";"22457";"Indonesia";" 082160335243";"";"";"2.2622003";"98.7494147";"https://maps.google.com/?cid=0x0:0x9d372f8786c7ca00";""
"mall";"Pusat Perbelanjaan";"Vstore Laundry Parfum Doloksanggul";"6PWP+GQ8, Purba Dolok, Kec. Dolok sanggul, Kabupaten Humbang Hasundutan, Sumatera Utara 22457";"Purba Dolok, Kec. Dolok sanggul, Kabupaten Humbang Hasundutan";"SUMATERA UTARA";"22457";"Indonesia";" 082163477755";"";"";"2.2462864";"98.7369559";"https://maps.google.com/?cid=0x0:0x9e73cc92957dd70b";""
"mall";"Toko";"Toko Tulus Jaya";"Jl. Melanthon Siregar No.52, Ps. Dolok Sanggul, Kec. Dolok sanggul, Kabupaten Humbang Hasundutan, Sumatera Utara 22457";"Ps. Dolok Sanggul, Kec. Dolok sanggul, Kabupaten Humbang Hasundutan";"SUMATERA UTARA";"22457";"Indonesia";"";"";"";"2.2593107";"98.7497481";"https://maps.google.com/?cid=0x0:0xa39d6fbbddec5d98";""
"mall";"Toko";"King f";"Jl. Merdeka No.29, Ps. Dolok Sanggul, Kec. Dolok sanggul, Kabupaten Humbang Hasundutan, Sumatera Utara 22457";"Ps. Dolok Sanggul, Kec. Dolok sanggul, Kabupaten Humbang Hasundutan";"SUMATERA UTARA";"22457";"Indonesia";" 082167117719";"";"";"2.258624";"98.7493075";"https://maps.google.com/?cid=0x0:0x8a355c849856d498";""
"mall";"Toko Swalayan";"Toko Manorsa";"7P6X+832, Ps. Dolok Sanggul, Kec. Dolok sanggul, Kabupaten Humbang Hasundutan, Sumatera Utara 22457";"Ps. Dolok Sanggul, Kec. Dolok sanggul, Kabupaten Humbang Hasundutan";"SUMATERA UTARA";"22457";"Indonesia";" 081350060038";"";"";"2.260766";"98.7476351";"https://maps.google.com/?cid=0x0:0x239c4e9307b1afe1";""
"mall";"Minimarket";"BNS 1";"Jl. Maduma II, Ps. Dolok Sanggul, Kec. Dolok sanggul, Kabupaten Humbang Hasundutan, Sumatera Utara 22457";"Ps. Dolok Sanggul, Kec. Dolok sanggul, Kabupaten Humbang Hasundutan";"SUMATERA UTARA";"22457";"Indonesia";"";"";"";"2.2622025";"98.7501178";"https://maps.google.com/?cid=0x0:0xc4ccb3b511519f5d";""
"mall";"Toko";"Toko Pelita";"7P5X+485, Jl. Letkol. G.A. Manullang, Lumban Tobing, Kec. Dolok sanggul, Kabupaten Humbang Hasundutan, Sumatera Utara 22457";"Jl. Letkol. G.A. Manullang, Lumban Tobing, Kec. Dolok sanggul, Kabupaten Humbang Hasundutan";"SUMATERA UTARA";"22457";"Indonesia";" 081263668498";"";"";"2.2577705";"98.7483539";"https://maps.google.com/?cid=0x0:0x58e7cc3e8dd08b43";""
"mall";"Toko Perlengkapan Rumah";"Toko Farel";"Jl. Parsaoran, Ps. Dolok Sanggul, Kec. Dolok sanggul, Kabupaten Humbang Hasundutan, Sumatera Utara 22457";"Ps. Dolok Sanggul, Kec. Dolok sanggul, Kabupaten Humbang Hasundutan";"SUMATERA UTARA";"22457";"Indonesia";"";"";"";"2.2572803";"98.7502949";"https://maps.google.com/?cid=0x0:0xb713aa2943602c40";""
"mall";"Toko Roti";"Oleh oleh khas Dolok sanggul";"Sebelah RM Bukit Tinggi Jl. Siliwangi No.114, Bonani Onan, Kec. Dolok sanggul, Kabupaten Humbang Hasundutan, Sumatera Utara 22457";"Bonani Onan, Kec. Dolok sanggul, Kabupaten Humbang Hasundutan";"SUMATERA UTARA";"22457";"Indonesia";" 085297492099";"";"";"2.2624814";"98.7460716";"https://maps.google.com/?cid=0x0:0xe4ddf73636491651";""
"mall";"Toko Perlengkapan Rumah";"Toko Rafael";"Jl. Melanthon Siregar No.35-39, Ps. Dolok Sanggul, Kec. Dolok sanggul, Kabupaten Humbang Hasundutan, Sumatera Utara 22457";"Ps. Dolok Sanggul, Kec. Dolok sanggul, Kabupaten Humbang Hasundutan";"SUMATERA UTARA";"22457";"Indonesia";"";"";"";"2.2599058";"98.7496858";"https://maps.google.com/?cid=0x0:0xb8c0752b1560dc75";""
"mall";"Salon Kecantikan";"LKP ROTUA SALON";"Jl. Melanthon Siregar No.29, Ps. Dolok Sanggul, Kec. Dolok sanggul, Doloksanggul, Sumatera Utara 22457";"Ps. Dolok Sanggul, Kec. Dolok sanggul, Doloksanggul";"SUMATERA UTARA";"22457";"Indonesia";" 081361478340";"";"";"2.2599781";"98.7492116";"https://maps.google.com/?cid=0x0:0x738b0a552d261457";""
"mall";"mall";"Sumatera Utara 22475";"Sumatera Utara";"Sumatera Utara";"SUMATERA UTARA";"";"Indonesia";"";"";"";"2.2166172";"98.8583309";"https://maps.google.com/?cid=0x0:0x3a0c9f067ea87dcb";""
"mall";"Sekolah";"INDOMARET LINTONGNIHUTA";"7VF7+HVG, Jl. Sisingamangaraja, Pargaulan, Kec. Lintong Nihuta, Kabupaten Humbang Hasundutan, Sumatera Utara 22475";"Jl. Sisingamangaraja, Pargaulan, Kec. Lintong Nihuta, Kabupaten Humbang Hasundutan";"SUMATERA UTARA";"22475";"Indonesia";"";"";"";"2.2735804";"98.8640896";"https://maps.google.com/?cid=0x0:0x85c808ce9d2b36b4";""
"mall";"Toko Suvenir";"SIHOLTA";"6WV8+8R2, Jl. Dolok Sanggul - Siborong - Borong, Nagasaribu II, Kec. Lintong Nihuta, Kabupaten Humbang Hasundutan, Sumatera Utara 22475";"Jl. Dolok Sanggul - Siborong - Borong, Nagasaribu II, Kec. Lintong Nihuta, Kabupaten Humbang Hasundutan";"SUMATERA UTARA";"22475";"Indonesia";" 081377342497";"";"";"2.2432747";"98.9170293";"https://maps.google.com/?cid=0x0:0x1d0791225a6196a7";""
"mall";"Komplek perumahan";"Pasar Baru Lintongnihuta";"7VJC+6GR, Sibuntuon Parpea, Kec. Lintong Nihuta, Kabupaten Humbang Hasundutan, Sumatera Utara 22475";"Sibuntuon Parpea, Kec. Lintong Nihuta, Kabupaten Humbang Hasundutan";"SUMATERA UTARA";"22475";"Indonesia";"";"";"";"2.2806126";"98.8712799";"https://maps.google.com/?cid=0x0:0xca9d5183463bb49d";""
"mall";"Komplek perumahan";"Pasar Tradisional Lintong Ni Huta";"7VG9+Q3V, Jl. Sisingamangaraja, Sitolu Bahal, Kec. Lintong Nihuta, Kabupaten Humbang Hasundutan, Sumatera Utara 22475";"Jl. Sisingamangaraja, Sitolu Bahal, Kec. Lintong Nihuta, Kabupaten Humbang Hasundutan";"SUMATERA UTARA";"22475";"Indonesia";"";"";"";"2.2769938";"98.8676721";"https://maps.google.com/?cid=0x0:0xa5eb0e80af40df29";""
"mall";"Toko";"Blessing Mart";"7WM6+43R, Lobutolong Habinsaran, Kec. Paranginan, Kabupaten Humbang Hasundutan, Sumatera Utara 22475";"Lobutolong Habinsaran, Kec. Paranginan, Kabupaten Humbang Hasundutan";"SUMATERA UTARA";"22475";"Indonesia";"";"";"";"2.2828669";"98.9101535";"https://maps.google.com/?cid=0x0:0xed40f75a231a41aa";""
"mall";"Komplek perumahan";"Pasar lama";"7VF7+654, Sitolu Bahal, Kec. Lintong Nihuta, Kabupaten Humbang Hasundutan, Sumatera Utara 22475";"Sitolu Bahal, Kec. Lintong Nihuta, Kabupaten Humbang Hasundutan";"SUMATERA UTARA";"22475";"Indonesia";"";"";"";"2.2730071";"98.8629499";"https://maps.google.com/?cid=0x0:0x31f1fb88d5a14d80";""
"mall";"Toko Elektronik";"Bersama ponsel2";"Jl. Dolok Sanggul - Siborong - Borong, Siponjot, Kec. Lintong Nihuta, Kabupaten Humbang Hasundutan, Sumatera Utara 22475";"Siponjot, Kec. Lintong Nihuta, Kabupaten Humbang Hasundutan";"SUMATERA UTARA";"22475";"Indonesia";" 082231949955";"";"";"2.262076";"98.821344";"https://maps.google.com/?cid=0x0:0x5f49d909493a068";""
"mall";"Toko";"Warung Kopral";"Nagasaribu V, Kec. Lintong Nihuta, Kabupaten Humbang Hasundutan, Sumatera Utara 22475";"Kec. Lintong Nihuta, Kabupaten Humbang Hasundutan";"SUMATERA UTARA";"22475";"Indonesia";"";"";"";"2.2551827";"98.9099173";"https://maps.google.com/?cid=0x0:0x316e035646db52f3";""
"mall";"Pusat Perbelanjaan";"WARUNG ESRA PARDEDE";"7V4X+X6C, RT.silambas/RW.lambas, Nagasaribu I, Lintong Nihuta, Humbang Hasundutan Regency, North Sumatra 22475";"RT.silambas/RW.lambas, Nagasaribu I, Lintong Nihuta, Humbang Hasundutan Regency";"SUMATERA UTARA";"22475";"Indonesia";" 088266109599";"";"";"2.2574418";"98.8980282";"https://maps.google.com/?cid=0x0:0xccee6cd7535fc1f4";""
"mall";"Kantor Perusahaan";"Lintong shop";"Pargaulan, Kec. Lintong Nihuta, Kabupaten Humbang Hasundutan, Sumatera Utara 22475";"Kec. Lintong Nihuta, Kabupaten Humbang Hasundutan";"SUMATERA UTARA";"22475";"Indonesia";" 081321910404";"";"";"2.277745";"98.86966";"https://maps.google.com/?cid=0x0:0xc16253121c37e812";""
"mall";"mall";"Kec. Lintong Nihuta";"Kabupaten Humbang Hasundutan, Sumatera Utara";"Kabupaten Humbang Hasundutan, Sumatera Utara";"SUMATERA UTARA";"";"Indonesia";"";"";"";"2.2725575";"98.8627702";"https://maps.google.com/?cid=0x0:0x4039d80b2211060";""
"mall";"Toko bahan makanan";"UD.RESTORIA";"7R67+689, Jl. Dolok Sanggul - Siborong - Borong, Dolok Margu, Kec. Lintong Nihuta, Kabupaten Humbang Hasundutan, Sumatera Utara 22457";"Jl. Dolok Sanggul - Siborong - Borong, Dolok Margu, Kec. Lintong Nihuta, Kabupaten Humbang Hasundutan";"SUMATERA UTARA";"22457";"Indonesia";"";"";"";"2.2605293";"98.8133653";"https://maps.google.com/?cid=0x0:0xd2b9a413ca9682b";""
"mall";"Pusat Perbelanjaan";"Toko Siburian 02";"Jl. Sisingamangaraja No.desa, RW.Sigordang, Paranginan Utara, Kec. Paranginan, Kabupaten Humbang Hasundutan, Sumatera Utara 22477";"RW.Sigordang, Paranginan Utara, Kec. Paranginan, Kabupaten Humbang Hasundutan";"SUMATERA UTARA";"22477";"Indonesia";" 081248778435";"";"";"2.2917377";"98.9200263";"https://maps.google.com/?cid=0x0:0xbcfd21ee01ccc49d";""
"mall";"Pusat Perbelanjaan";"UD.Dormauli";"5VX9+4XJ, Dolok Saribu, Kec. Pagaran, Kabupaten Tapanuli Utara, Sumatera Utara 22475";"Dolok Saribu, Kec. Pagaran, Kabupaten Tapanuli Utara";"SUMATERA UTARA";"22475";"Indonesia";"";"";"";"2.1978308";"98.8698841";"https://maps.google.com/?cid=0x0:0xf1d8ded86c9bcf7c";""
"mall";"Pusat Perbelanjaan";"Toko Putry Siburian";"7WRH+28W, Lumban Bar., Kec. Paranginan, Kabupaten Humbang Hasundutan, Sumatera Utara 22476";"Lumban Bar., Kec. Paranginan, Kabupaten Humbang Hasundutan";"SUMATERA UTARA";"22476";"Indonesia";"";"";"";"2.2901155";"98.9283168";"https://maps.google.com/?cid=0x0:0x60501cbd2db6309";""
"mall";"Pusat Perbelanjaan";"Toko Radot";"5VXC+95W, Dolok Saribu, Kec. Pagaran, Kabupaten Tapanuli Utara, Sumatera Utara 22475";"Dolok Saribu, Kec. Pagaran, Kabupaten Tapanuli Utara";"SUMATERA UTARA";"22475";"Indonesia";" 082272798481";"";"";"2.1984875";"98.8704417";"https://maps.google.com/?cid=0x0:0x7a0086dfef6fcbc4";""
"mall";"Pusat Perbelanjaan";"Toko Siburian";"jln, Dolok Saribu, Kec. Pagaran, Kabupaten Tapanuli Utara, Sumatera Utara 22475";"Dolok Saribu, Kec. Pagaran, Kabupaten Tapanuli Utara";"SUMATERA UTARA";"22475";"Indonesia";" 082273398078";"";"";"2.1973479";"98.8641215";"https://maps.google.com/?cid=0x0:0xb4f5856198ed66ac";""
"mall";"Toko Swalayan";"UD YUNI NUNUT";"8W2G+4W6, Jl. Melanthon Siregar, Sihonongan, Kec. Paranginan, Kabupaten Humbang Hasundutan, Sumatera Utara 22476";"Jl. Melanthon Siregar, Sihonongan, Kec. Paranginan, Kabupaten Humbang Hasundutan";"SUMATERA UTARA";"22476";"Indonesia";" 081269919436";"";"";"2.3002903";"98.9272754";"https://maps.google.com/?cid=0x0:0xb6ec503d295f1edf";""
"mall";"Pusat Perbelanjaan";"Lapo Dolly Sigalingging";"6WMJ+8G9, Sigumbang, Kec. Siborongborong, Kabupaten Tapanuli Utara, Sumatera Utara 22475";"Sigumbang, Kec. Siborongborong, Kabupaten Tapanuli Utara";"SUMATERA UTARA";"22475";"Indonesia";"";"";"";"2.2332761";"98.9313577";"https://maps.google.com/?cid=0x0:0xcbf1f981aec3a057";""
"mall";"Pusat Perbelanjaan";"Pudanmart";"5WR4+X23, Parhorboan, Kec. Pagaran, Kabupaten Tapanuli Utara, Sumatera Utara 22475";"Parhorboan, Kec. Pagaran, Kabupaten Tapanuli Utara";"SUMATERA UTARA";"22475";"Indonesia";" 081265283326";"";"";"2.192396";"98.9050576";"https://maps.google.com/?cid=0x0:0x9dabd4a9c7ae3156";""
"mall";"Toko";"Jabu ni A.Daniel tampubolon";"5WM5+MM9, Sipultak, Kec. Pagaran, Kabupaten Tapanuli Utara, Sumatera Utara 22475";"Sipultak, Kec. Pagaran, Kabupaten Tapanuli Utara";"SUMATERA UTARA";"22475";"Indonesia";"";"";"";"2.1841592";"98.9092188";"https://maps.google.com/?cid=0x0:0xb61d2c029a271c56";""
"mall";"mall";"SINAGA";"7VMC+7FQ, Sibuntuon Parpea, Kec. Lintong Nihuta, Kabupaten Humbang Hasundutan, Sumatera Utara";"Kabupaten Humbang Hasundutan, Sumatera Utara";"SUMATERA UTARA";"";"Indonesia";"";"";"";"2.2832212";"98.871235";"https://maps.google.com/?cid=0x0:0xd102d3d61c46d615";""
"mall";"mall";"UD. Photo Copy";"7VRJ+PX9, Jl. Sisingamangaraja, Sigumpar, Kec. Lintong Nihuta, Kabupaten Humbang Hasundutan, Sumatera Utara 22475";"Jl. Sisingamangaraja, Sigumpar, Kec. Lintong Nihuta, Kabupaten Humbang Hasundutan";"SUMATERA UTARA";"22475";"Indonesia";" 082149906089";"";"";"2.2917767";"98.8824914";"https://maps.google.com/?cid=0x0:0x6842b12b11dfa202";""
"mall";"Kantor Pemerintah";"Kota Onan Ganjang";"5J3H+WR8, Unnamed Road, Onan Ganjang, Kec. Onan Ganjang, Kabupaten Humbang Hasundutan, Sumatera Utara 22454";"Unnamed Road, Onan Ganjang, Kec. Onan Ganjang, Kabupaten Humbang Hasundutan";"SUMATERA UTARA";"22454";"Indonesia";" 08126348904";"";"";"2.1547779";"98.6295911";"https://maps.google.com/?cid=0x0:0x21cf93fa46735bf1";""
"mall";"";"Pasar Onan Ganjang";"5J4H+6VW, Onan Ganjang, Kec. Onan Ganjang, Kabupaten Humbang Hasundutan, Sumatera Utara 22454";"Onan Ganjang, Kec. Onan Ganjang, Kabupaten Humbang Hasundutan";"SUMATERA UTARA";"22454";"Indonesia";"";"";"";"2.1556196";"98.6297116";"https://maps.google.com/?cid=0x0:0x6240c3a9085edcae";""
"mall";"mall";"Onan Ganjang";"Kec. Onan Ganjang, Kabupaten Humbang Hasundutan, Sumatera Utara";"Kabupaten Humbang Hasundutan, Sumatera Utara";"SUMATERA UTARA";"";"Indonesia";"";"";"";"2.1523331";"98.6298119";"https://maps.google.com/?cid=0x0:0x5b19fc0bdff0c0f3";""
"mall";"mall";"Kec. Onan Ganjang";"Kabupaten Humbang Hasundutan, Sumatera Utara";"Kabupaten Humbang Hasundutan, Sumatera Utara";"SUMATERA UTARA";"";"Indonesia";"";"";"";"2.1547734";"98.6295724";"https://maps.google.com/?cid=0x0:0xdce7ed5f2d2ccaa1";""
"mall";"Komplek perumahan";"Parbotihan City";"4HWQ+4C8, Parbotihan, Kec. Onan Ganjang, Kabupaten Humbang Hasundutan, Sumatera Utara 22454";"Parbotihan, Kec. Onan Ganjang, Kabupaten Humbang Hasundutan";"SUMATERA UTARA";"22454";"Indonesia";"";"";"";"2.1452789";"98.5885858";"https://maps.google.com/?cid=0x0:0x6b7423e8d21e2304";""
"mall";"Pasar";"Onan Doloksanggul";"Ps. Dolok Sanggul, Kec. Dolok sanggul, Kabupaten Humbang Hasundutan, Sumatera Utara 22457";"Kec. Dolok sanggul, Kabupaten Humbang Hasundutan";"SUMATERA UTARA";"22457";"Indonesia";" 082160335243";"";"";"2.2622003";"98.7494147";"https://maps.google.com/?cid=0x0:0x9d372f8786c7ca00";""
"mall";"Pusat Perbelanjaan";"ONAN TUNGGAR";"5G9P+MFG, Purba Sianjur, Kec. Pakkat, Kabupaten Humbang Hasundutan, Sumatera Utara 22455";"Purba Sianjur, Kec. Pakkat, Kabupaten Humbang Hasundutan";"SUMATERA UTARA";"22455";"Indonesia";"";"";"";"2.1691795";"98.5362119";"https://maps.google.com/?cid=0x0:0x50840656be705524";""
"mall";"Tujuan Wisata";"Pulogodang";"5HCG+XX8, Pulo Godang, Kec. Pakkat, Kabupaten Humbang Hasundutan, Sumatera Utara 22456";"Pulo Godang, Kec. Pakkat, Kabupaten Humbang Hasundutan";"SUMATERA UTARA";"22456";"Indonesia";" 085227821925";"";"";"2.1724164";"98.5774463";"https://maps.google.com/?cid=0x0:0x5ee931e412864b9a";""
"mall";"mall";"Pakkat";"Pakkat Hauagong, Kec. Pakkat, Kabupaten Humbang Hasundutan, Sumatera Utara";"Kabupaten Humbang Hasundutan, Sumatera Utara";"SUMATERA UTARA";"";"Indonesia";"";"";"";"2.145129";"98.473518";"https://maps.google.com/?cid=0x0:0xd970ca7c81a5c728";""
"mall";"Museum";"Tugu Rambe";"5F2F+WR2, Pakkat Hauagong, Kec. Pakkat, Kabupaten Humbang Hasundutan, Sumatera Utara 22455";"Pakkat Hauagong, Kec. Pakkat, Kabupaten Humbang Hasundutan";"SUMATERA UTARA";"22455";"Indonesia";"";"";"";"2.1522606";"98.4745046";"https://maps.google.com/?cid=0x0:0x3ff5250538b8af09";""
"mall";"Sekolah Menengah Kejuruan";"SMK NEGERI 2 PAKKAT";"4FWF+R87, Pakkat Hauagong, Kec. Pakkat, Kabupaten Humbang Hasundutan, Sumatera Utara 22455";"Pakkat Hauagong, Kec. Pakkat, Kabupaten Humbang Hasundutan";"SUMATERA UTARA";"22455";"Indonesia";" 085275118074";"";"";"2.1470303";"98.4733014";"https://maps.google.com/?cid=0x0:0xec69d2e4e7b32632";""
"mall";"mall";"Hauagong";"4FWF+3C2, Pakkat Hauagong, Kec. Pakkat, Kabupaten Humbang Hasundutan, Sumatera Utara";"Kabupaten Humbang Hasundutan, Sumatera Utara";"SUMATERA UTARA";"";"Indonesia";"";"";"";"2.145129";"98.473518";"https://maps.google.com/?cid=0x0:0xc7575c1cee546fe5";""
"mall";"mall";"Kec. Tebet";"Kota Jakarta Selatan, Daerah Khusus Ibukota Jakarta";"Kota Jakarta Selatan, Daerah Khusus Ibukota Jakarta";"SUMATERA UTARA";"";"Indonesia";"";"";"";"-6.2251223";"106.8549881";"https://maps.google.com/?cid=0x0:0xd575e31c807295f9";""
"mall";"mall";"Kec. Paranginan";"Kabupaten Humbang Hasundutan, Sumatera Utara";"Kabupaten Humbang Hasundutan, Sumatera Utara";"SUMATERA UTARA";"";"Indonesia";"";"";"";"2.3016854";"98.9270035";"https://maps.google.com/?cid=0x0:0x690416ecba08580d";""
"mall";"Toko";"Blessing Mart";"7WM6+43R, Lobutolong Habinsaran, Kec. Paranginan, Kabupaten Humbang Hasundutan, Sumatera Utara 22475";"Lobutolong Habinsaran, Kec. Paranginan, Kabupaten Humbang Hasundutan";"SUMATERA UTARA";"22475";"Indonesia";"";"";"";"2.2828669";"98.9101535";"https://maps.google.com/?cid=0x0:0xed40f75a231a41aa";""
"mall";"Pusat Perbelanjaan";"Toko Siburian 02";"Jl. Sisingamangaraja No.desa, RW.Sigordang, Paranginan Utara, Kec. Paranginan, Kabupaten Humbang Hasundutan, Sumatera Utara 22477";"RW.Sigordang, Paranginan Utara, Kec. Paranginan, Kabupaten Humbang Hasundutan";"SUMATERA UTARA";"22477";"Indonesia";" 081248778435";"";"";"2.2917377";"98.9200263";"https://maps.google.com/?cid=0x0:0xbcfd21ee01ccc49d";""
"mall";"Pusat Perbelanjaan";"Toko Putry Siburian";"7WRH+28W, Lumban Bar., Kec. Paranginan, Kabupaten Humbang Hasundutan, Sumatera Utara 22476";"Lumban Bar., Kec. Paranginan, Kabupaten Humbang Hasundutan";"SUMATERA UTARA";"22476";"Indonesia";"";"";"";"2.2901155";"98.9283168";"https://maps.google.com/?cid=0x0:0x60501cbd2db6309";""
"mall";"Toko Swalayan";"UD YUNI NUNUT";"8W2G+4W6, Jl. Melanthon Siregar, Sihonongan, Kec. Paranginan, Kabupaten Humbang Hasundutan, Sumatera Utara 22476";"Jl. Melanthon Siregar, Sihonongan, Kec. Paranginan, Kabupaten Humbang Hasundutan";"SUMATERA UTARA";"22476";"Indonesia";" 081269919436";"";"";"2.3002903";"98.9272754";"https://maps.google.com/?cid=0x0:0xb6ec503d295f1edf";""
"mall";"Toko Swalayan";"UD. Murni Tomi Sianturi";"8X42+HWF, Unnamed Road, Paranginan Sel., Kec. Paranginan, Kabupaten Humbang Hasundutan, Sumatera Utara 22476";"Unnamed Road, Paranginan Sel., Kec. Paranginan, Kabupaten Humbang Hasundutan";"SUMATERA UTARA";"22476";"Indonesia";"";"";"";"2.30644";"98.952309";"https://maps.google.com/?cid=0x0:0x146f60a1ee994f41";""
"mall";"Toko Suvenir";"SIHOLTA";"6WV8+8R2, Jl. Dolok Sanggul - Siborong - Borong, Nagasaribu II, Kec. Lintong Nihuta, Kabupaten Humbang Hasundutan, Sumatera Utara 22475";"Jl. Dolok Sanggul - Siborong - Borong, Nagasaribu II, Kec. Lintong Nihuta, Kabupaten Humbang Hasundutan";"SUMATERA UTARA";"22475";"Indonesia";" 081377342497";"";"";"2.2432747";"98.9170293";"https://maps.google.com/?cid=0x0:0x1d0791225a6196a7";""
"mall";"Kantor Pemerintah";"Mal Pelayanan Publik Kabupaten Humbang Hasundutan";"Jl. Dolok Sanggul - Siborong - Borong No.112, Pasaribu, Kec. Dolok sanggul, Kabupaten Humbang Hasundutan, Sumatera Utara 22457";"Pasaribu, Kec. Dolok sanggul, Kabupaten Humbang Hasundutan";"SUMATERA UTARA";"22457";"Indonesia";"";"";"";"2.2584057";"98.7498102";"https://maps.google.com/?cid=0x0:0xd2faa9e9da138487";""
"mall";"Toko";"Warung Kopral";"Nagasaribu V, Kec. Lintong Nihuta, Kabupaten Humbang Hasundutan, Sumatera Utara 22475";"Kec. Lintong Nihuta, Kabupaten Humbang Hasundutan";"SUMATERA UTARA";"22475";"Indonesia";"";"";"";"2.2551827";"98.9099173";"https://maps.google.com/?cid=0x0:0x316e035646db52f3";""
"mall";"Pusat Perbelanjaan";"WARUNG ESRA PARDEDE";"7V4X+X6C, RT.silambas/RW.lambas, Nagasaribu I, Lintong Nihuta, Humbang Hasundutan Regency, North Sumatra 22475";"RT.silambas/RW.lambas, Nagasaribu I, Lintong Nihuta, Humbang Hasundutan Regency";"SUMATERA UTARA";"22475";"Indonesia";" 088266109599";"";"";"2.2574418";"98.8980282";"https://maps.google.com/?cid=0x0:0xccee6cd7535fc1f4";""
"mall";"Pasar";"Onan Doloksanggul";"Ps. Dolok Sanggul, Kec. Dolok sanggul, Kabupaten Humbang Hasundutan, Sumatera Utara 22457";"Kec. Dolok sanggul, Kabupaten Humbang Hasundutan";"SUMATERA UTARA";"22457";"Indonesia";" 082160335243";"";"";"2.2622003";"98.7494147";"https://maps.google.com/?cid=0x0:0x9d372f8786c7ca00";""
"mall";"Pembangunan Perumahan";"Pasar Parlilitan";"Sihotang Hasugian Tonga, Kec. Parlilitan, Medan, Sumatera Utara 22456";"Kec. Parlilitan, Medan";"SUMATERA UTARA";"22456";"Indonesia";"";"";"";"2.3246043";"98.4567234";"https://maps.google.com/?cid=0x0:0x9f8a3952275426b4";""
"mall";"Kantor Pemerintah";"Parlilitan";"8F94+5RJ, Sihotang Hasugian Tonga, Kec. Parlilitan, Kabupaten Humbang Hasundutan, Sumatera Utara 22456";"Sihotang Hasugian Tonga, Kec. Parlilitan, Kabupaten Humbang Hasundutan";"SUMATERA UTARA";"22456";"Indonesia";"";"";"";"2.3179599";"98.457001";"https://maps.google.com/?cid=0x0:0xd9cb5a854a0ad4d4";""
"mall";"Kantor Pemerintah";"Mal Pelayanan Publik Kabupaten Humbang Hasundutan";"Jl. Dolok Sanggul - Siborong - Borong No.112, Pasaribu, Kec. Dolok sanggul, Kabupaten Humbang Hasundutan, Sumatera Utara 22457";"Pasaribu, Kec. Dolok sanggul, Kabupaten Humbang Hasundutan";"SUMATERA UTARA";"22457";"Indonesia";"";"";"";"2.2584057";"98.7498102";"https://maps.google.com/?cid=0x0:0xd2faa9e9da138487";""
"mall";"Perhentian bus";"Plaza Slipi Jaya";"Jl. Letjen S. Parman, RT.14/RW.1, Kemanggisan, Kec. Palmerah, Kota Jakarta Barat, Daerah Khusus Ibukota Jakarta 11480";"RT.14/RW.1, Kemanggisan, Kec. Palmerah, Kota Jakarta Barat";"SUMATERA UTARA";"11480";"Indonesia";" 0215304023";"";"";"-6.1892704";"106.7965048";"https://maps.google.com/?cid=0x0:0x4901356a543de45c";""
"mall";"Pasar";"Pasar Slipi";"Jl. Anggrek Nelimurni II No.9 Blok C, RT.11/RW.1, Kemanggisan, Palmerah, West Jakarta City, Jakarta 11480";"RT.11/RW.1, Kemanggisan, Palmerah, West Jakarta City";"SUMATERA UTARA";"11480";"Indonesia";"";"";"";"-6.1902291";"106.7961954";"https://maps.google.com/?cid=0x0:0x1eccf1fc3c049a5c";""
"mall";"Mal outlet";"POI Slipi Jaya (LM Slipi)";"Jl. Letjen S. Parman Blok J No.14, RT.12/RW.1, Kemanggisan, Kec. Palmerah, Kota Jakarta Barat, Daerah Khusus Ibukota Jakarta 11480";"RT.12/RW.1, Kemanggisan, Kec. Palmerah, Kota Jakarta Barat";"SUMATERA UTARA";"11480";"Indonesia";"";"";"";"-6.1889786";"106.7964281";"https://maps.google.com/?cid=0x0:0xaadfad9c50b79491";""
"mall";"Perhentian bus";"Slipi Jaya";"Kemanggisan, Kec. Palmerah, Kota Jakarta Barat, Daerah Khusus Ibukota Jakarta";"Kota Jakarta Barat, Daerah Khusus Ibukota Jakarta";"SUMATERA UTARA";"";"Indonesia";"";"";"";"-6.1894709";"106.7963758";"https://maps.google.com/?cid=0x0:0x6d80d015cd2fbfb1";""
"mall";"Pasar";"Onan Doloksanggul";"Ps. Dolok Sanggul, Kec. Dolok sanggul, Kabupaten Humbang Hasundutan, Sumatera Utara 22457";"Kec. Dolok sanggul, Kabupaten Humbang Hasundutan";"SUMATERA UTARA";"22457";"Indonesia";" 082160335243";"";"";"2.2622003";"98.7494147";"https://maps.google.com/?cid=0x0:0x9d372f8786c7ca00";""
"mall";"mall";"Sumatera Utara 22457";"Kabupaten Humbang Hasundutan, Sumatera Utara";"Kabupaten Humbang Hasundutan, Sumatera Utara";"SUMATERA UTARA";"";"Indonesia";"";"";"";"2.2174078";"98.7260927";"https://maps.google.com/?cid=0x0:0xfc492d8c933a9bef";""
"mall";"Kantor Pemerintah";"Mal Pelayanan Publik Kabupaten Humbang Hasundutan";"Jl. Dolok Sanggul - Siborong - Borong No.112, Pasaribu, Kec. Dolok sanggul, Kabupaten Humbang Hasundutan, Sumatera Utara 22457";"Pasaribu, Kec. Dolok sanggul, Kabupaten Humbang Hasundutan";"SUMATERA UTARA";"22457";"Indonesia";"";"";"";"2.2584057";"98.7498102";"https://maps.google.com/?cid=0x0:0xd2faa9e9da138487";""
"mall";"Pusat Perbelanjaan";"Vstore Laundry Parfum Doloksanggul";"6PWP+GQ8, Purba Dolok, Kec. Dolok sanggul, Kabupaten Humbang Hasundutan, Sumatera Utara 22457";"Purba Dolok, Kec. Dolok sanggul, Kabupaten Humbang Hasundutan";"SUMATERA UTARA";"22457";"Indonesia";" 082163477755";"";"";"2.2462864";"98.7369559";"https://maps.google.com/?cid=0x0:0x9e73cc92957dd70b";""
"mall";"Pusat Perbelanjaan";"UD.Saut Martupa";"9Q37+R72, Jl. Pollung - Parsingguran, Parsingguran II, Kec. Pollung, Kabupaten Humbang Hasundutan, Sumatera Utara 22457";"Jl. Pollung - Parsingguran, Parsingguran II, Kec. Pollung, Kabupaten Humbang Hasundutan";"SUMATERA UTARA";"22457";"Indonesia";"";"";"";"2.3545043";"98.7631333";"https://maps.google.com/?cid=0x0:0xb860e7af3ae430a7";""
"mall";"Toko";"ONDO PONSEL";"7Q62+VMJ, Bonani Onan, Ps. Dolok Sanggul, Kec. Dolok sanggul, Kabupaten Humbang Hasundutan, Sumatera Utara 22457";"Bonani Onan, Ps. Dolok Sanggul, Kec. Dolok sanggul, Kabupaten Humbang Hasundutan";"SUMATERA UTARA";"22457";"Indonesia";"";"";"";"2.2622094";"98.7516406";"https://maps.google.com/?cid=0x0:0x9d2c111141dbc70";""
"mall";"Toko Ponsel";"Central Doloksanggul";"Jl. Dolok Sanggul - Siborong - Borong No.31, Pasaribu, Kec. Dolok sanggul, Kabupaten Humbang Hasundutan, Sumatera Utara 22457";"Pasaribu, Kec. Dolok sanggul, Kabupaten Humbang Hasundutan";"SUMATERA UTARA";"22457";"Indonesia";" 081264018511";"";"";"2.2586865";"98.7493327";"https://maps.google.com/?cid=0x0:0xc96c25da03ee9b2c";""
"mall";"Toko";"Toko Tulus Jaya";"Jl. Melanthon Siregar No.52, Ps. Dolok Sanggul, Kec. Dolok sanggul, Kabupaten Humbang Hasundutan, Sumatera Utara 22457";"Ps. Dolok Sanggul, Kec. Dolok sanggul, Kabupaten Humbang Hasundutan";"SUMATERA UTARA";"22457";"Indonesia";"";"";"";"2.2593107";"98.7497481";"https://maps.google.com/?cid=0x0:0xa39d6fbbddec5d98";""
"mall";"Toko";"King f";"Jl. Merdeka No.29, Ps. Dolok Sanggul, Kec. Dolok sanggul, Kabupaten Humbang Hasundutan, Sumatera Utara 22457";"Ps. Dolok Sanggul, Kec. Dolok sanggul, Kabupaten Humbang Hasundutan";"SUMATERA UTARA";"22457";"Indonesia";" 082167117719";"";"";"2.258624";"98.7493075";"https://maps.google.com/?cid=0x0:0x8a355c849856d498";""
"mall";"Minimarket";"TOKO SIGIRING- GIRING BENGETDO";"7P5W+8P5, Jl sisingamangaraja kel pasar Dolok sanggul, Bonani Onan, Kec. Dolok sanggul, Kabupaten Humbang Hasundutan, Sumatera Utara 22457";"Jl sisingamangaraja kel pasar Dolok sanggul, Bonani Onan, Kec. Dolok sanggul, Kabupaten Humbang Hasundutan";"SUMATERA UTARA";"22457";"Indonesia";"";"";"";"2.2582617";"98.7468559";"https://maps.google.com/?cid=0x0:0xbf12eccf614d58d9";""
"mall";"";"Mora Ponsel";"7Q63+4RW, jln.merdeka, Pasaribu, Kec. Dolok sanggul, Kabupaten Humbang Hasundutan, Sumatera Utara 22457";"jln.merdeka, Pasaribu, Kec. Dolok sanggul, Kabupaten Humbang Hasundutan";"SUMATERA UTARA";"22457";"Indonesia";" 082160000488";"";"";"2.260357";"98.7545806";"https://maps.google.com/?cid=0x0:0x8fd68ad783831a10";""
"mall";"Toko Swalayan";"Toko Rejeki";"Jl. Sentosa No.69, Bonani Onan, Kec. Dolok sanggul, Kabupaten Humbang Hasundutan, Sumatera Utara 22457";"Bonani Onan, Kec. Dolok sanggul, Kabupaten Humbang Hasundutan";"SUMATERA UTARA";"22457";"Indonesia";"";"";"";"2.2607725";"98.7490845";"https://maps.google.com/?cid=0x0:0xd9beb5355b83fbb1";""
"mall";"Toko";"Pandiangan E Shop";"7P5Q+33V, Jl. Rura Simanampang, Sihite II, Kec. Dolok sanggul, Kabupaten Humbang Hasundutan, Sumatera Utara 22457";"Jl. Rura Simanampang, Sihite II, Kec. Dolok sanggul, Kabupaten Humbang Hasundutan";"SUMATERA UTARA";"22457";"Indonesia";"";"";"";"2.2577329";"98.737665";"https://maps.google.com/?cid=0x0:0xb9ea6b7c093d2273";""
"mall";"Pusat Perbelanjaan";"Pasar bonandolok 1 Jl.B.W Simamora";"5M6Q+C54, Bonan Dolok I, Kec. Sijama Polang, Kabupaten Humbang Hasundutan, Sumatera Utara 22457";"Bonan Dolok I, Kec. Sijama Polang, Kabupaten Humbang Hasundutan";"SUMATERA UTARA";"22457";"Indonesia";"";"";"";"2.1610086";"98.687962";"https://maps.google.com/?cid=0x0:0xb11f045120a13c91";""
"mall";"";"UD.ADIAN LIMUT";"Jl. Letkol. G.A. Manullang No.75, Lumban Tobing, Kec. Dolok sanggul, Kabupaten Humbang Hasundutan, Sumatera Utara 22457";"Lumban Tobing, Kec. Dolok sanggul, Kabupaten Humbang Hasundutan";"SUMATERA UTARA";"22457";"Indonesia";"";"";"";"2.256667";"98.748576";"https://maps.google.com/?cid=0x0:0x489d9e9c01a97901";""
"mall";"Minimarket";"BNS 1";"Jl. Maduma II, Ps. Dolok Sanggul, Kec. Dolok sanggul, Kabupaten Humbang Hasundutan, Sumatera Utara 22457";"Ps. Dolok Sanggul, Kec. Dolok sanggul, Kabupaten Humbang Hasundutan";"SUMATERA UTARA";"22457";"Indonesia";"";"";"";"2.2622025";"98.7501178";"https://maps.google.com/?cid=0x0:0xc4ccb3b511519f5d";""
"mall";"Toko";"UD.AYU PERMATA";"7QJ6+Q53, Unnamed Road, Sirisirisi, Kec. Dolok sanggul, Kabupaten Humbang Hasundutan, Sumatera Utara 22457";"Unnamed Road, Sirisirisi, Kec. Dolok sanggul, Kabupaten Humbang Hasundutan";"SUMATERA UTARA";"22457";"Indonesia";"";"";"";"2.2818997";"98.7604154";"https://maps.google.com/?cid=0x0:0x66e4e0398abd47c6";""
"mall";"Toko";"Toko Pelita";"7P5X+485, Jl. Letkol. G.A. Manullang, Lumban Tobing, Kec. Dolok sanggul, Kabupaten Humbang Hasundutan, Sumatera Utara 22457";"Jl. Letkol. G.A. Manullang, Lumban Tobing, Kec. Dolok sanggul, Kabupaten Humbang Hasundutan";"SUMATERA UTARA";"22457";"Indonesia";" 081263668498";"";"";"2.2577705";"98.7483539";"https://maps.google.com/?cid=0x0:0x58e7cc3e8dd08b43";""
"mall";"Pusat Perbelanjaan";"VSTORE LAUNDRY AND DRY CLEANING  PUSAT PARFUM ORI AND REFILL BERKUALITAS DOLOKSANGGUL";"Jl. Letkol, Lumban Tobing, Kec. Dolok sanggul, Kabupaten Humbang Hasundutan, Sumatera Utara 22457";"Lumban Tobing, Kec. Dolok sanggul, Kabupaten Humbang Hasundutan";"SUMATERA UTARA";"22457";"Indonesia";" 082165656627";"";"";"2.2538469";"98.7504674";"https://maps.google.com/?cid=0x0:0x72e76a9cf044bec4";""
"mall";"Toko bahan makanan";"UD. ARDUMAS";"Unnamed Road, Siborboron, Kec. Sijama Polang, Kabupaten Humbang Hasundutan, Sumatera Utara 22457";"Siborboron, Kec. Sijama Polang, Kabupaten Humbang Hasundutan";"SUMATERA UTARA";"22457";"Indonesia";"";"";"";"2.208842";"98.719601";"https://maps.google.com/?cid=0x0:0x5b548353ed77af7b";""
"mall";"Toko Suku Cadang Mobil";"Mora Motor";"Jl. Dolok Sanggul - Siborong - Borong No.8, Ps. Dolok Sanggul, Kec. Dolok sanggul, Kabupaten Humbang Hasundutan, Sumatera Utara 22457";"Ps. Dolok Sanggul, Kec. Dolok sanggul, Kabupaten Humbang Hasundutan";"SUMATERA UTARA";"22457";"Indonesia";" 082373559947";"";"";"2.2579518";"98.7480936";"https://maps.google.com/?cid=0x0:0x5e9787105ce9afdf";""
"mall";"Toko Swalayan";"Toko Manorsa";"7P6X+832, Ps. Dolok Sanggul, Kec. Dolok sanggul, Kabupaten Humbang Hasundutan, Sumatera Utara 22457";"Ps. Dolok Sanggul, Kec. Dolok sanggul, Kabupaten Humbang Hasundutan";"SUMATERA UTARA";"22457";"Indonesia";" 081350060038";"";"";"2.260766";"98.7476351";"https://maps.google.com/?cid=0x0:0x239c4e9307b1afe1";""
"mall";"Pengembang Realestat";"Pollux Mall Cikarang";"Jl. Raya Cikarang - Cibarusah, Pasirsari, Cikarang Sel., Kabupaten Bekasi, Jawa Barat 17530";"Pasirsari, Cikarang Sel., Kabupaten Bekasi";"SUMATERA UTARA";"17530";"Indonesia";" 02189328777";"";"";"-6.3124464";"107.1416496";"https://maps.google.com/?cid=0x0:0x3d4c9b861474f9b";""
"mall";"Pusat Perbelanjaan";"Kalibata city square";"Jl. Raya Kalibata No.1, Rawajati, Kec. Pancoran, Kota Jakarta Selatan, Daerah Khusus Ibukota Jakarta 12750";"Rawajati, Kec. Pancoran, Kota Jakarta Selatan";"SUMATERA UTARA";"12750";"Indonesia";"";"";"";"-6.2562715";"106.8521776";"https://maps.google.com/?cid=0x0:0x59db28d93506d0e6";""
"mall";"mall";"Kec. Sijama Polang";"Kabupaten Humbang Hasundutan, Sumatera Utara";"Kabupaten Humbang Hasundutan, Sumatera Utara";"SUMATERA UTARA";"";"Indonesia";"";"";"";"2.2108811";"98.721307";"https://maps.google.com/?cid=0x0:0xd50f2722ee3ef986";""
"mall";"Pusat Perbelanjaan";"Pasar bonandolok 1 Jl.B.W Simamora";"5M6Q+C54, Bonan Dolok I, Kec. Sijama Polang, Kabupaten Humbang Hasundutan, Sumatera Utara 22457";"Bonan Dolok I, Kec. Sijama Polang, Kabupaten Humbang Hasundutan";"SUMATERA UTARA";"22457";"Indonesia";"";"";"";"2.1610086";"98.687962";"https://maps.google.com/?cid=0x0:0xb11f045120a13c91";""
"mall";"Toko bahan makanan";"UD. ARDUMAS";"Unnamed Road, Siborboron, Kec. Sijama Polang, Kabupaten Humbang Hasundutan, Sumatera Utara 22457";"Siborboron, Kec. Sijama Polang, Kabupaten Humbang Hasundutan";"SUMATERA UTARA";"22457";"Indonesia";"";"";"";"2.208842";"98.719601";"https://maps.google.com/?cid=0x0:0x5b548353ed77af7b";""
"mall";"Pusat Perbelanjaan";"Vstore Laundry Parfum Doloksanggul";"6PWP+GQ8, Purba Dolok, Kec. Dolok sanggul, Kabupaten Humbang Hasundutan, Sumatera Utara 22457";"Purba Dolok, Kec. Dolok sanggul, Kabupaten Humbang Hasundutan";"SUMATERA UTARA";"22457";"Indonesia";" 082163477755";"";"";"2.2462864";"98.7369559";"https://maps.google.com/?cid=0x0:0x9e73cc92957dd70b";""
"mall";"Kantor Pemerintah";"Mal Pelayanan Publik Kabupaten Humbang Hasundutan";"Jl. Dolok Sanggul - Siborong - Borong No.112, Pasaribu, Kec. Dolok sanggul, Kabupaten Humbang Hasundutan, Sumatera Utara 22457";"Pasaribu, Kec. Dolok sanggul, Kabupaten Humbang Hasundutan";"SUMATERA UTARA";"22457";"Indonesia";"";"";"";"2.2584057";"98.7498102";"https://maps.google.com/?cid=0x0:0xd2faa9e9da138487";""
"mall";"";"Pasar Onan Ganjang";"5J4H+6VW, Onan Ganjang, Kec. Onan Ganjang, Kabupaten Humbang Hasundutan, Sumatera Utara 22454";"Onan Ganjang, Kec. Onan Ganjang, Kabupaten Humbang Hasundutan";"SUMATERA UTARA";"22454";"Indonesia";"";"";"";"2.1556196";"98.6297116";"https://maps.google.com/?cid=0x0:0x6240c3a9085edcae";""
"mall";"Minimarket";"TOKO SIGIRING- GIRING BENGETDO";"7P5W+8P5, Jl sisingamangaraja kel pasar Dolok sanggul, Bonani Onan, Kec. Dolok sanggul, Kabupaten Humbang Hasundutan, Sumatera Utara 22457";"Jl sisingamangaraja kel pasar Dolok sanggul, Bonani Onan, Kec. Dolok sanggul, Kabupaten Humbang Hasundutan";"SUMATERA UTARA";"22457";"Indonesia";"";"";"";"2.2582617";"98.7468559";"https://maps.google.com/?cid=0x0:0xbf12eccf614d58d9";""
"mall";"Toko";"King f";"Jl. Merdeka No.29, Ps. Dolok Sanggul, Kec. Dolok sanggul, Kabupaten Humbang Hasundutan, Sumatera Utara 22457";"Ps. Dolok Sanggul, Kec. Dolok sanggul, Kabupaten Humbang Hasundutan";"SUMATERA UTARA";"22457";"Indonesia";" 082167117719";"";"";"2.258624";"98.7493075";"https://maps.google.com/?cid=0x0:0x8a355c849856d498";""
"mall";"Toko";"Pandiangan E Shop";"7P5Q+33V, Jl. Rura Simanampang, Sihite II, Kec. Dolok sanggul, Kabupaten Humbang Hasundutan, Sumatera Utara 22457";"Jl. Rura Simanampang, Sihite II, Kec. Dolok sanggul, Kabupaten Humbang Hasundutan";"SUMATERA UTARA";"22457";"Indonesia";"";"";"";"2.2577329";"98.737665";"https://maps.google.com/?cid=0x0:0xb9ea6b7c093d2273";""
"mall";"Toko";"Toko Tulus Jaya";"Jl. Melanthon Siregar No.52, Ps. Dolok Sanggul, Kec. Dolok sanggul, Kabupaten Humbang Hasundutan, Sumatera Utara 22457";"Ps. Dolok Sanggul, Kec. Dolok sanggul, Kabupaten Humbang Hasundutan";"SUMATERA UTARA";"22457";"Indonesia";"";"";"";"2.2593107";"98.7497481";"https://maps.google.com/?cid=0x0:0xa39d6fbbddec5d98";""
"mall";"Minimarket";"BNS 1";"Jl. Maduma II, Ps. Dolok Sanggul, Kec. Dolok sanggul, Kabupaten Humbang Hasundutan, Sumatera Utara 22457";"Ps. Dolok Sanggul, Kec. Dolok sanggul, Kabupaten Humbang Hasundutan";"SUMATERA UTARA";"22457";"Indonesia";"";"";"";"2.2622025";"98.7501178";"https://maps.google.com/?cid=0x0:0xc4ccb3b511519f5d";""
"mall";"Pusat Perbelanjaan";"Intan Zefanya ACC  TOY'S (Munte)";"7P53+R9G, Sosorjulu-Matiti, Jl. Pakkat - Dolok Sanggul, Matiti II, Kec. Dolok sanggul, Kabupaten Humbang Hasundutan, Sumatera Utara 22457";"Sosorjulu-Matiti, Jl. Pakkat - Dolok Sanggul, Matiti II, Kec. Dolok sanggul, Kabupaten Humbang Hasundutan";"SUMATERA UTARA";"22457";"Indonesia";"";"";"";"2.2595693";"98.7034527";"https://maps.google.com/?cid=0x0:0x6ab580749329ce8d";""
"mall";"Toko Ponsel";"Central Doloksanggul";"Jl. Dolok Sanggul - Siborong - Borong No.31, Pasaribu, Kec. Dolok sanggul, Kabupaten Humbang Hasundutan, Sumatera Utara 22457";"Pasaribu, Kec. Dolok sanggul, Kabupaten Humbang Hasundutan";"SUMATERA UTARA";"22457";"Indonesia";" 081264018511";"";"";"2.2586865";"98.7493327";"https://maps.google.com/?cid=0x0:0xc96c25da03ee9b2c";""
"mall";"Pusat Perbelanjaan";"VSTORE LAUNDRY AND DRY CLEANING  PUSAT PARFUM ORI AND REFILL BERKUALITAS DOLOKSANGGUL";"Jl. Letkol, Lumban Tobing, Kec. Dolok sanggul, Kabupaten Humbang Hasundutan, Sumatera Utara 22457";"Lumban Tobing, Kec. Dolok sanggul, Kabupaten Humbang Hasundutan";"SUMATERA UTARA";"22457";"Indonesia";" 082165656627";"";"";"2.2538469";"98.7504674";"https://maps.google.com/?cid=0x0:0x72e76a9cf044bec4";""
"mall";"Toko Swalayan";"Toko Manorsa";"7P6X+832, Ps. Dolok Sanggul, Kec. Dolok sanggul, Kabupaten Humbang Hasundutan, Sumatera Utara 22457";"Ps. Dolok Sanggul, Kec. Dolok sanggul, Kabupaten Humbang Hasundutan";"SUMATERA UTARA";"22457";"Indonesia";" 081350060038";"";"";"2.260766";"98.7476351";"https://maps.google.com/?cid=0x0:0x239c4e9307b1afe1";""
"mall";"";"Mora Ponsel";"7Q63+4RW, jln.merdeka, Pasaribu, Kec. Dolok sanggul, Kabupaten Humbang Hasundutan, Sumatera Utara 22457";"jln.merdeka, Pasaribu, Kec. Dolok sanggul, Kabupaten Humbang Hasundutan";"SUMATERA UTARA";"22457";"Indonesia";" 082160000488";"";"";"2.260357";"98.7545806";"https://maps.google.com/?cid=0x0:0x8fd68ad783831a10";""
"mall";"Toko bahan makanan";"GOHANNA CELL (PPOB)";"Jl. Pakkat - Dolok Sanggul No.59, Matiti I, Kec. Dolok sanggul, Kabupaten Humbang Hasundutan, Sumatera Utara 22457";"Matiti I, Kec. Dolok sanggul, Kabupaten Humbang Hasundutan";"SUMATERA UTARA";"22457";"Indonesia";" 083191593539";"";"";"2.2585829";"98.7089837";"https://maps.google.com/?cid=0x0:0xc89a8aee6e6bcf70";""
"mall";"Toko";"Toko Pelita";"7P5X+485, Jl. Letkol. G.A. Manullang, Lumban Tobing, Kec. Dolok sanggul, Kabupaten Humbang Hasundutan, Sumatera Utara 22457";"Jl. Letkol. G.A. Manullang, Lumban Tobing, Kec. Dolok sanggul, Kabupaten Humbang Hasundutan";"SUMATERA UTARA";"22457";"Indonesia";" 081263668498";"";"";"2.2577705";"98.7483539";"https://maps.google.com/?cid=0x0:0x58e7cc3e8dd08b43";""
"mall";"";"UD.ADIAN LIMUT";"Jl. Letkol. G.A. Manullang No.75, Lumban Tobing, Kec. Dolok sanggul, Kabupaten Humbang Hasundutan, Sumatera Utara 22457";"Lumban Tobing, Kec. Dolok sanggul, Kabupaten Humbang Hasundutan";"SUMATERA UTARA";"22457";"Indonesia";"";"";"";"2.256667";"98.748576";"https://maps.google.com/?cid=0x0:0x489d9e9c01a97901";""
"mall";"Toko Swalayan";"Toko Rejeki";"Jl. Sentosa No.69, Bonani Onan, Kec. Dolok sanggul, Kabupaten Humbang Hasundutan, Sumatera Utara 22457";"Bonani Onan, Kec. Dolok sanggul, Kabupaten Humbang Hasundutan";"SUMATERA UTARA";"22457";"Indonesia";"";"";"";"2.2607725";"98.7490845";"https://maps.google.com/?cid=0x0:0xd9beb5355b83fbb1";""
"mall";"mall";"Lbn sitinggirtinggir";"7M8C+4WX, Huta Gurgur, Kec. Dolok sanggul, Kabupaten Humbang Hasundutan, Sumatera Utara";"Kabupaten Humbang Hasundutan, Sumatera Utara";"SUMATERA UTARA";"";"Indonesia";"";"";"";"2.2653602";"98.6723596";"https://maps.google.com/?cid=0x0:0x9f781767d0e4cb63";""
"mall";"Toko Suku Cadang Mobil";"Mora Motor";"Jl. Dolok Sanggul - Siborong - Borong No.8, Ps. Dolok Sanggul, Kec. Dolok sanggul, Kabupaten Humbang Hasundutan, Sumatera Utara 22457";"Ps. Dolok Sanggul, Kec. Dolok sanggul, Kabupaten Humbang Hasundutan";"SUMATERA UTARA";"22457";"Indonesia";" 082373559947";"";"";"2.2579518";"98.7480936";"https://maps.google.com/?cid=0x0:0x5e9787105ce9afdf";""
"mall";"Kantor Perusahaan";"UD. Tamora Tani";"Onan Ganjang, Kec. Onan Ganjang, Kabupaten Humbang Hasundutan, Sumatera Utara 22454";"Kec. Onan Ganjang, Kabupaten Humbang Hasundutan";"SUMATERA UTARA";"22454";"Indonesia";" 081361505777";"";"";"2.1572414";"98.6299749";"https://maps.google.com/?cid=0x0:0x212389eedc7f5214";""
"mall";"mall";"Kec. Tara bintang";"Kabupaten Humbang Hasundutan, Sumatera Utara";"Kabupaten Humbang Hasundutan, Sumatera Utara";"SUMATERA UTARA";"";"Indonesia";"";"";"";"2.256467";"98.4100744";"https://maps.google.com/?cid=0x0:0xbae2136378964571";""
"mall";"mall";"Sumatera Utara 22456";"Kabupaten Humbang Hasundutan, Sumatera Utara";"Kabupaten Humbang Hasundutan, Sumatera Utara";"SUMATERA UTARA";"";"Indonesia";"";"";"";"2.3170731";"98.352656";"https://maps.google.com/?cid=0x0:0x160bd0ac62a1698";""
"mall";"mall";"Lapo Manalu Sibokkik";"6FM6+V9J, Sihombu, Kec. Tara bintang, Kabupaten Humbang Hasundutan, Sumatera Utara 22456";"Sihombu, Kec. Tara bintang, Kabupaten Humbang Hasundutan";"SUMATERA UTARA";"22456";"Indonesia";"";"";"";"2.2347205";"98.4608761";"https://maps.google.com/?cid=0x0:0x60ebf55441d59db4";""
"mall";"Pusat Perbelanjaan";"Kuningan City";"Jl. Prof. DR. Satrio No.Kav. 18, Kuningan, Karet Kuningan, Kecamatan Setiabudi, Kota Jakarta Selatan, Daerah Khusus Ibukota Jakarta 12940";"Kuningan, Karet Kuningan, Kecamatan Setiabudi, Kota Jakarta Selatan";"SUMATERA UTARA";"12940";"Indonesia";" 02157905555";"";"";"-6.2250136";"106.829553";"https://maps.google.com/?cid=0x0:0x420d8f1dfd4d9452";""
"mall";"Pusat Perbelanjaan";"Mall k";"Mall Kota Kasablanka, Menteng Dalam, Kec. Tebet, Kota Jakarta Selatan, Daerah Khusus Ibukota Jakarta 12960";"Menteng Dalam, Kec. Tebet, Kota Jakarta Selatan";"SUMATERA UTARA";"12960";"Indonesia";"";"";"";"-6.2240353";"106.8425979";"https://maps.google.com/?cid=0x0:0xa3a16fc4381476fb";""
"mall";"Pusat Perbelanjaan";"Pacific Place Mall";"Jl. Jend. Sudirman kav 52-53, Senayan, Kec. Kby. Baru, Kota Jakarta Selatan, Daerah Khusus Ibukota Jakarta 12190";"Senayan, Kec. Kby. Baru, Kota Jakarta Selatan";"SUMATERA UTARA";"12190";"Indonesia";" 02151402828";"";"";"-6.2240197";"106.8101858";"https://maps.google.com/?cid=0x0:0xc4a608b34b5f03cc";""
"mall";"Toko Alat Kecantikan";"SOGO";"Jl. Raya Casablanca No.88, RT.2/RW.14, Menteng Dalam, Kec. Tebet, Kota Jakarta Selatan, Daerah Khusus Ibukota Jakarta 12870";"RT.2/RW.14, Menteng Dalam, Kec. Tebet, Kota Jakarta Selatan";"SUMATERA UTARA";"12870";"Indonesia";" 08111252807";"";"";"-6.2229772";"106.843111";"https://maps.google.com/?cid=0x0:0xa96f0bcb4777740e";""
"mall";"Hot Pot";"Shaburi Kota Kasablanka";"Mal Kota Kasablanka, Jl. Raya Casablanca No.Kav. 88 Lt. 1, RT.14/RW.5, Menteng Dalam, Kec. Tebet, Kota Jakarta Selatan, Daerah Khusus Ibukota Jakarta 12870";"Jl. Raya Casablanca No.Kav. 88 Lt. 1, RT.14/RW.5, Menteng Dalam, Kec. Tebet, Kota Jakarta Selatan";"SUMATERA UTARA";"12870";"Indonesia";" 081294378786";"";"";"-6.2239885";"106.8431041";"https://maps.google.com/?cid=0x0:0x2df3ec83a703a23f";""
"mall";"Steak";"Steak Hotel by Holycow Kota Kasablanka";"Kota Kasablanka Mall UG Floor, Jl. Raya Casablanca Raya No.Kav. 88, Jakarta 12870";"Jl. Raya Casablanca Raya No.Kav. 88";"SUMATERA UTARA";"12870";"Indonesia";" 085841032642";"";"";"-6.2234305";"106.8424161";"https://maps.google.com/?cid=0x0:0x8644c3d7788e0feb";""
"mall";"Pusat Perbelanjaan";"The Kasablanka";"Kota Kasablanka Lt. 3, Jl. Casablanca Raya kav. 88, RT.3/RW.14, Menteng Dalam, Kec. Tebet, Kota Jakarta Selatan, Daerah Khusus Ibukota Jakarta 12870";"Jl. Casablanca Raya kav. 88, RT.3/RW.14, Menteng Dalam, Kec. Tebet, Kota Jakarta Selatan";"SUMATERA UTARA";"12870";"Indonesia";" 02129488633";"";"";"-6.2242538";"106.8435205";"https://maps.google.com/?cid=0x0:0x3225ec9b7b7adc0c";""
"supermarket";"Sekolah";"Taman Sains Teknologi Herbal dan Hortikultura (TSTH2)";"7JQG+F4H, Aek Nauli I, Kec. Pollung, Kabupaten Humbang Hasundutan, Sumatera Utara 22456";"Aek Nauli I, Kec. Pollung, Kabupaten Humbang Hasundutan";"SUMATERA UTARA";"22456";"Indonesia";"";"";"";"2.2886796";"98.62537";"https://maps.google.com/?cid=0x0:0xea3a545b8706c26b";""
"supermarket";"Asrama Sekolah";"STT GKLI SIHABONGHABONG";"Sihas Dolok 2, Sihotang Hasugian Dolok I, Kec. Parlilitan, Kabupaten Humbang Hasundutan, Sumatera Utara 22456";"Sihotang Hasugian Dolok I, Kec. Parlilitan, Kabupaten Humbang Hasundutan";"SUMATERA UTARA";"22456";"Indonesia";"";"";"";"2.3161206";"98.5033703";"https://maps.google.com/?cid=0x0:0x636671203a5fcee5";""
"supermarket";"Minimarket";"Indomaret Raya Jatibarang - Kr. Ampel ( TPFN )";"G8FH+FC2, Sleman Lor, Kec. Sliyeg, Kabupaten Indramayu, Jawa Barat 45281";"Sleman Lor, Kec. Sliyeg, Kabupaten Indramayu";"SUMATERA UTARA";"45281";"Indonesia";"";"";"";"-6.4763681";"108.3285031";"https://maps.google.com/?cid=0x0:0x9deb81ce5a746854";""
"supermarket";"ATM";"ATM Bersama/Prima/ALTO";"G8FH+FC2, G8FH+FC2Sleman LorKec, Kec. Sliyeg, Kabupaten Indramayu, Jawa Barat 45281";"G8FH+FC2Sleman LorKec, Kec. Sliyeg, Kabupaten Indramayu";"SUMATERA UTARA";"45281";"Indonesia";"";"";"";"-6.4763616";"108.3285206";"https://maps.google.com/?cid=0x0:0x5a9e2945fdda56c5";""
"supermarket";"supermarket";"Kec. Bakti Raja";"Kabupaten Humbang Hasundutan, Sumatera Utara";"Kabupaten Humbang Hasundutan, Sumatera Utara";"SUMATERA UTARA";"";"Indonesia";"";"";"";"2.3235404";"98.8207391";"https://maps.google.com/?cid=0x0:0x475a50a12c00c787";""
"supermarket";"Kantor Perusahaan";"Kilang Padi Op.mastiur Sinambela";"8R9G+W4M, Simangulampe, Kec. Bakti Raja, Kabupaten Humbang Hasundutan, Sumatera Utara 22457";"Simangulampe, Kec. Bakti Raja, Kabupaten Humbang Hasundutan";"SUMATERA UTARA";"22457";"Indonesia";"";"";"";"2.3198375";"98.8252851";"https://maps.google.com/?cid=0x0:0xa7f1479d90f0d1a8";""
"supermarket";"";"Toko Christian";"7QVG+3PG, Jl. Sisingamangaraja, Sosor Gonting, Kec. Dolok sanggul, Kabupaten Humbang Hasundutan, Sumatera Utara 22457";"Jl. Sisingamangaraja, Sosor Gonting, Kec. Dolok sanggul, Kabupaten Humbang Hasundutan";"SUMATERA UTARA";"22457";"Indonesia";"";"";"";"2.2926932";"98.7768345";"https://maps.google.com/?cid=0x0:0xad6c1717c49154be";""
"supermarket";"Toko bahan makanan";"TOKO WARUNG FRENDY";"7QH9+FFM, Jl. Bakara, Sosor Gonting, Kec. Dolok sanggul, Kabupaten Humbang Hasundutan, Sumatera Utara 22457";"Jl. Bakara, Sosor Gonting, Kec. Dolok sanggul, Kabupaten Humbang Hasundutan";"SUMATERA UTARA";"22457";"Indonesia";"";"";"";"2.2787033";"98.7686665";"https://maps.google.com/?cid=0x0:0x3233b4daaedd4963";""
"supermarket";"supermarket";"UD. SAUTMA";"8RFC+C9G, Sinambela, Kec. Bakti Raja, Kabupaten Humbang Hasundutan, Sumatera Utara 22457";"Sinambela, Kec. Bakti Raja, Kabupaten Humbang Hasundutan";"SUMATERA UTARA";"22457";"Indonesia";" 081267571603";"";"";"2.3235724";"98.820939";"https://maps.google.com/?cid=0x0:0xe431c4fb4673f928";""
"supermarket";"supermarket";"Kedai Warung Penilik";"9R47+VHP, Jl. Bilal, Tipang, Kec. Bakti Raja, Kabupaten Humbang Hasundutan, Sumatera Utara 22457";"Jl. Bilal, Tipang, Kec. Bakti Raja, Kabupaten Humbang Hasundutan";"SUMATERA UTARA";"22457";"Indonesia";"";"";"";"2.357219";"98.8139551";"https://maps.google.com/?cid=0x0:0x93d5bf378dcc9618";""
"supermarket";"supermarket";"Dolok Sanggul";"Lumban Tobing, Kec. Dolok sanggul, Kabupaten Humbang Hasundutan, Sumatera Utara";"Kabupaten Humbang Hasundutan, Sumatera Utara";"SUMATERA UTARA";"";"Indonesia";"";"";"";"2.251991";"98.7485729";"https://maps.google.com/?cid=0x0:0x7f53fc623c00d824";""
"supermarket";"Toko Swalayan";"Toko Aktest";"Jl. Melanthon Siregar No.41-65, Ps. Dolok Sanggul, Kec. Dolok sanggul, Kabupaten Humbang Hasundutan, Sumatera Utara 22457";"Ps. Dolok Sanggul, Kec. Dolok sanggul, Kabupaten Humbang Hasundutan";"SUMATERA UTARA";"22457";"Indonesia";"";"";"";"2.2595371";"98.7498431";"https://maps.google.com/?cid=0x0:0xd7ef71eeefd73c16";""
"supermarket";"Toko";"Toko Marnata";"Jl. Siliwangi No.3, Ps. Dolok Sanggul, Kec. Dolok sanggul, Kabupaten Humbang Hasundutan, Sumatera Utara 22457";"Ps. Dolok Sanggul, Kec. Dolok sanggul, Kabupaten Humbang Hasundutan";"SUMATERA UTARA";"22457";"Indonesia";" 081260234659";"";"";"2.2587039";"98.7479042";"https://maps.google.com/?cid=0x0:0x6d7db10e7bbe1120";""
"supermarket";"Pusat Perbelanjaan";"Dolok Sanggul";"Jl. Merdeka No.20, Ps. Dolok Sanggul, Kec. Dolok sanggul, Kabupaten Humbang Hasundutan, Sumatera Utara 22457";"Ps. Dolok Sanggul, Kec. Dolok sanggul, Kabupaten Humbang Hasundutan";"SUMATERA UTARA";"22457";"Indonesia";" 082273097059";"";"";"2.2584778";"98.7500816";"https://maps.google.com/?cid=0x0:0xe38c442b3d7d0ed2";""
"supermarket";"Minimarket";"INDOMARET MERDEKA DOLOK SANGGUL";"Jl. Dolok Sanggul - Siborong - Borong, Ps. Dolok Sanggul, Kec. Dolok sanggul, Kabupaten Humbang Hasundutan, Sumatera Utara 22457";"Ps. Dolok Sanggul, Kec. Dolok sanggul, Kabupaten Humbang Hasundutan";"SUMATERA UTARA";"22457";"Indonesia";"";"";"";"2.258612";"98.7482989";"https://maps.google.com/?cid=0x0:0xb2aa9bfd005327ce";""
"supermarket";"Toko";"Toko Gemilang";"7P5X+XWV, Ps. Dolok Sanggul, Kec. Dolok sanggul, Kabupaten Humbang Hasundutan, Sumatera Utara 22457";"Ps. Dolok Sanggul, Kec. Dolok sanggul, Kabupaten Humbang Hasundutan";"SUMATERA UTARA";"22457";"Indonesia";"";"";"";"2.2599883";"98.7498063";"https://maps.google.com/?cid=0x0:0x539b5b249100266c";""
"supermarket";"Toko bahan makanan";"TOKO TOGAP";"Jl. Melanthon Siregar No.67A, Ps. Dolok Sanggul, Kec. Dolok sanggul, Kabupaten Humbang Hasundutan, Sumatera Utara 22457";"Ps. Dolok Sanggul, Kec. Dolok sanggul, Kabupaten Humbang Hasundutan";"SUMATERA UTARA";"22457";"Indonesia";" 082169918765";"";"";"2.2590825";"98.7499464";"https://maps.google.com/?cid=0x0:0x8ba8e72578e62138";""
"supermarket";"supermarket";"Sumatera Utara 22475";"Sumatera Utara";"Sumatera Utara";"SUMATERA UTARA";"";"Indonesia";"";"";"";"2.2166172";"98.8583309";"https://maps.google.com/?cid=0x0:0x3a0c9f067ea87dcb";""
"supermarket";"Pemasok Pupuk";"UD.Inggrid";"Jl. Sisingamangaraja No.46, Pargaulan, Kec. Lintong Nihuta, Kabupaten Humbang Hasundutan, Sumatera Utara 22475";"Pargaulan, Kec. Lintong Nihuta, Kabupaten Humbang Hasundutan";"SUMATERA UTARA";"22475";"Indonesia";"";"";"";"2.2660878";"98.8612515";"https://maps.google.com/?cid=0x0:0x3614ac77cb5f77e2";""
"supermarket";"Toko bahan makanan";"UD. TABO";"7VC7+G38, Tapian Nauli, Kec. Lintong Nihuta, Kabupaten Humbang Hasundutan, Sumatera Utara 22475";"Tapian Nauli, Kec. Lintong Nihuta, Kabupaten Humbang Hasundutan";"SUMATERA UTARA";"22475";"Indonesia";"";"";"";"2.2712972";"98.8626904";"https://maps.google.com/?cid=0x0:0x5ba21ff9e6f4d85b";""
"supermarket";"Toko Ponsel";"KIEL PONSEL, Toko, Dan Brilink";"7V96+6MX, Jl. Sisingamangaraja, Tapian Nauli, Kec. Lintong Nihuta, Kabupaten Humbang Hasundutan, Sumatera Utara 22475";"Jl. Sisingamangaraja, Tapian Nauli, Kec. Lintong Nihuta, Kabupaten Humbang Hasundutan";"SUMATERA UTARA";"22475";"Indonesia";"";"";"";"2.2681079";"98.8617333";"https://maps.google.com/?cid=0x0:0x468079075972a342";""
"supermarket";"Toko Swalayan";"TOKO GIBRAN";"7VRH+443, Jl. Sisingamangaraja, Sigumpar, Kec. Lintong Nihuta, Kabupaten Humbang Hasundutan, Sumatera Utara 22475";"Jl. Sisingamangaraja, Sigumpar, Kec. Lintong Nihuta, Kabupaten Humbang Hasundutan";"SUMATERA UTARA";"22475";"Indonesia";" 082167748500";"";"";"2.2902508";"98.8777889";"https://maps.google.com/?cid=0x0:0xe6f539738d9ef45e";""
"supermarket";"Toko";"Warung Baru";"6WV9+72J, Jl. Dolok Sanggul - Siborong - Borong, Nagasaribu II, Kec. Lintong Nihuta, Kabupaten Humbang Hasundutan, Sumatera Utara 22475";"Jl. Dolok Sanggul - Siborong - Borong, Nagasaribu II, Kec. Lintong Nihuta, Kabupaten Humbang Hasundutan";"SUMATERA UTARA";"22475";"Indonesia";"";"";"";"2.2432129";"98.9175081";"https://maps.google.com/?cid=0x0:0x419713e4ccbc29af";""
"supermarket";"Sekolah";"INDOMARET LINTONGNIHUTA";"7VF7+HVG, Jl. Sisingamangaraja, Pargaulan, Kec. Lintong Nihuta, Kabupaten Humbang Hasundutan, Sumatera Utara 22475";"Jl. Sisingamangaraja, Pargaulan, Kec. Lintong Nihuta, Kabupaten Humbang Hasundutan";"SUMATERA UTARA";"22475";"Indonesia";"";"";"";"2.2735804";"98.8640896";"https://maps.google.com/?cid=0x0:0x85c808ce9d2b36b4";""
"supermarket";"Komplek perumahan";"Pasar Baru Lintongnihuta";"7VJC+6GR, Sibuntuon Parpea, Kec. Lintong Nihuta, Kabupaten Humbang Hasundutan, Sumatera Utara 22475";"Sibuntuon Parpea, Kec. Lintong Nihuta, Kabupaten Humbang Hasundutan";"SUMATERA UTARA";"22475";"Indonesia";"";"";"";"2.2806126";"98.8712799";"https://maps.google.com/?cid=0x0:0xca9d5183463bb49d";""
"supermarket";"Komplek perumahan";"Pasar Tradisional Lintong Ni Huta";"7VG9+Q3V, Jl. Sisingamangaraja, Sitolu Bahal, Kec. Lintong Nihuta, Kabupaten Humbang Hasundutan, Sumatera Utara 22475";"Jl. Sisingamangaraja, Sitolu Bahal, Kec. Lintong Nihuta, Kabupaten Humbang Hasundutan";"SUMATERA UTARA";"22475";"Indonesia";"";"";"";"2.2769938";"98.8676721";"https://maps.google.com/?cid=0x0:0xa5eb0e80af40df29";""
"supermarket";"supermarket";"N/A";"";"";"SUMATERA UTARA";"";"Indonesia";" 082164777801";"";"";"2.261948";"98.8633949";"https://maps.google.com/?cid=0x0:0x3f00774e4763c70e";""
"supermarket";"Toko Daging";"Warung Opung Ruben Silaban";"jalan dolok sanggul km.5, kampung pamunuhan babiat, Sitampurung, Kec. Siborongborong, Kabupaten Tapanuli Utara, Sumatera Utara 22475";"kampung pamunuhan babiat, Sitampurung, Kec. Siborongborong, Kabupaten Tapanuli Utara";"SUMATERA UTARA";"22475";"Indonesia";" 082210036465";"";"";"2.2256777";"98.9385996";"https://maps.google.com/?cid=0x0:0x343b6f49d806d20c";""
"supermarket";"Kantor Perusahaan";"Lintong nihuta";"7VF7+58X, Jl. Sisingamangaraja, Pargaulan, Kec. Lintong Nihuta, Kabupaten Humbang Hasundutan, Sumatera Utara 22475";"Jl. Sisingamangaraja, Pargaulan, Kec. Lintong Nihuta, Kabupaten Humbang Hasundutan";"SUMATERA UTARA";"22475";"Indonesia";"";"";"";"2.2725347";"98.8628447";"https://maps.google.com/?cid=0x0:0x96b7fec809b245d2";""
"supermarket";"Toko Swalayan";"UD.Wilda";"7WCV+PJW, Siborutorup, Kec. Paranginan, Kabupaten Humbang Hasundutan, Sumatera Utara 22476";"Siborutorup, Kec. Paranginan, Kabupaten Humbang Hasundutan";"SUMATERA UTARA";"22476";"Indonesia";" 085370635497";"";"";"2.2718738";"98.9440801";"https://maps.google.com/?cid=0x0:0x9298be52ddb17604";""
"supermarket";"Pusat Perbelanjaan";"ALFAMIDI SIMPANG SIPAHUTAR";"Jl. Sisingamangaraja, Ps. Siborong-Borong, Kec. Siborongborong, Kabupaten Tapanuli Utara, Sumatera Utara 22474";"Ps. Siborong-Borong, Kec. Siborongborong, Kabupaten Tapanuli Utara";"SUMATERA UTARA";"22474";"Indonesia";" 081269247610";"";"";"2.2157494";"98.977087";"https://maps.google.com/?cid=0x0:0x9264105375d07f2";""
"supermarket";"Pusat Perbelanjaan";"UD TIO";"8W2G+QVJ, Jl. Guru Henneri Siburian, Paranginan Utara, Kec. Paranginan, Kabupaten Humbang Hasundutan, Sumatera Utara 22476";"Jl. Guru Henneri Siburian, Paranginan Utara, Kec. Paranginan, Kabupaten Humbang Hasundutan";"SUMATERA UTARA";"22476";"Indonesia";" 081262697890";"";"";"2.3019661";"98.9271533";"https://maps.google.com/?cid=0x0:0xac3e2ce2054514c3";""
"supermarket";"supermarket";"UD.RAHEL";"7VC7+W2G, Ps. Lama, Banjarmasin Tengah, Kota Banjarmasin, kelurahan";"Kota Banjarmasin, kelurahan";"SUMATERA UTARA";"";"Indonesia";" 081263425955";"";"";"2.2723142";"98.8625914";"https://maps.google.com/?cid=0x0:0x1269a1521bc7b8a7";""
"supermarket";"Toko Perlengkapan Rumah";"MR.DIY Siborongborong";"Jl. Sisingamangaraja No.270, Siborong Borong I, Kec. Siborongborong, Kabupaten Tapanuli Utara, Sumatera Utara 22474";"Siborong Borong I, Kec. Siborongborong, Kabupaten Tapanuli Utara";"SUMATERA UTARA";"22474";"Indonesia";"";"";"";"2.2077544";"98.9716877";"https://maps.google.com/?cid=0x0:0xf2492de7cb7afe01";""
"supermarket";"Toko Swalayan";"UD. Musim Baru";"6X93+MHX, Jalan Dolok Sanggul, Siborong - Borong, aek simasasar, Kabupaten Humbang Hasundutan, Sumatera Utara 22474";"Jalan Dolok Sanggul, Siborong - Borong, aek simasasar, Kabupaten Humbang Hasundutan";"SUMATERA UTARA";"22474";"Indonesia";" 085276705053";"";"";"2.2192381";"98.9539842";"https://maps.google.com/?cid=0x0:0xbf084aa4f0a2bba9";""
"supermarket";"Grosir Barang Kelontong";"TOKO KELONTONG/SEMBAKO UD.CHEYPHOI br.PURBA";"LUMBAN HOLBUNG, ULAMAN, Kabupaten Tapanuli Utara, Sumatera Utara 22385";"ULAMAN, Kabupaten Tapanuli Utara";"SUMATERA UTARA";"22385";"Indonesia";" 081366117965";"";"";"2.189093";"98.8694489";"https://maps.google.com/?cid=0x0:0x76ea4dc8fa8cce21";""
"supermarket";"Toko Swalayan";"Toko Girpan";"7WQ2+RG, Lobu Tolong, Kec. Paranginan, Kabupaten Humbang Hasundutan, Sumatera Utara";"Kabupaten Humbang Hasundutan, Sumatera Utara";"SUMATERA UTARA";"";"Indonesia";"";"";"";"2.2959375";"98.9093125";"https://maps.google.com/?cid=0x0:0x86775699eca275ce";""
"supermarket";"Kantor Perusahaan";"Lintong nihuta";"dekat indomaret, Pasar baru, Kec. Lintong Nihuta, Kabupaten Humbang Hasundutan, Sumatera Utara 22312";"Pasar baru, Kec. Lintong Nihuta, Kabupaten Humbang Hasundutan";"SUMATERA UTARA";"22312";"Indonesia";"";"";"";"2.2686099";"98.9093578";"https://maps.google.com/?cid=0x0:0x58d762524d9bc17";""
"supermarket";"Kantor Pemerintah";"Kota Onan Ganjang";"5J3H+WR8, Unnamed Road, Onan Ganjang, Kec. Onan Ganjang, Kabupaten Humbang Hasundutan, Sumatera Utara 22454";"Unnamed Road, Onan Ganjang, Kec. Onan Ganjang, Kabupaten Humbang Hasundutan";"SUMATERA UTARA";"22454";"Indonesia";" 08126348904";"";"";"2.1547779";"98.6295911";"https://maps.google.com/?cid=0x0:0x21cf93fa46735bf1";""
"supermarket";"";"Pasar Onan Ganjang";"5J4H+6VW, Onan Ganjang, Kec. Onan Ganjang, Kabupaten Humbang Hasundutan, Sumatera Utara 22454";"Onan Ganjang, Kec. Onan Ganjang, Kabupaten Humbang Hasundutan";"SUMATERA UTARA";"22454";"Indonesia";"";"";"";"2.1556196";"98.6297116";"https://maps.google.com/?cid=0x0:0x6240c3a9085edcae";""
"supermarket";"supermarket";"Kec. Onan Ganjang";"Kabupaten Humbang Hasundutan, Sumatera Utara";"Kabupaten Humbang Hasundutan, Sumatera Utara";"SUMATERA UTARA";"";"Indonesia";"";"";"";"2.1547734";"98.6295724";"https://maps.google.com/?cid=0x0:0xdce7ed5f2d2ccaa1";""
"supermarket";"Kedai Kopi";"Hutamaringan.pulogodang.pakkat";"5H8J+WH2, Karya, Kec. Pakkat, Kabupaten Humbang Hasundutan, Sumatera Utara 22455";"Karya, Kec. Pakkat, Kabupaten Humbang Hasundutan";"SUMATERA UTARA";"22455";"Indonesia";"";"";"";"2.1672675";"98.5813998";"https://maps.google.com/?cid=0x0:0x62ab758f37903cc9";""
"supermarket";"Kedai Kopi";"WARUNG KOPI RUBEN MARBUN1";"4GJF+2W8, Jl. Sirandorung, Purba Baringin, Kec. Pakkat, Kabupaten Humbang Hasundutan, Sumatera Utara 22455";"Jl. Sirandorung, Purba Baringin, Kec. Pakkat, Kabupaten Humbang Hasundutan";"SUMATERA UTARA";"22455";"Indonesia";" 082274476513";"";"";"2.1300301";"98.524818";"https://maps.google.com/?cid=0x0:0x5beafc76ef394ff5";""
"supermarket";"Toko";"Lapo Linggom";"3MH2+4J9, Sanggaran I, Kec. Sijama Polang, Kabupaten Humbang Hasundutan, Sumatera Utara 22454";"Sanggaran I, Kec. Sijama Polang, Kabupaten Humbang Hasundutan";"SUMATERA UTARA";"22454";"Indonesia";" 082157589188";"";"";"2.0777845";"98.6516138";"https://maps.google.com/?cid=0x0:0x82b896e302f65e99";""
"supermarket";"Toko bahan makanan";"Onan pusuk";"7GCW+XMW, Unnamed Road, Pusuk I, Kec. Parlilitan, Kabupaten Humbang Hasundutan, Sumatera Utara 22456";"Unnamed Road, Pusuk I, Kec. Parlilitan, Kabupaten Humbang Hasundutan";"SUMATERA UTARA";"22456";"Indonesia";" 085280612177";"";"";"2.2724859";"98.546705";"https://maps.google.com/?cid=0x0:0x8eae8b91ae4aa590";""
"supermarket";"Toko bahan makanan";"UD.NIA PURBA";"5M6P+9PG, Unnamed Road, Bonan Dolok I, Kec. Sijama Polang, Kabupaten Humbang Hasundutan, Sumatera Utara 22457";"Unnamed Road, Bonan Dolok I, Kec. Sijama Polang, Kabupaten Humbang Hasundutan";"SUMATERA UTARA";"22457";"Indonesia";"";"";"";"2.1609259";"98.6868375";"https://maps.google.com/?cid=0x0:0xf9848bee561c1c2f";""
"supermarket";"Toko";"Toko Marnata";"Jl. Siliwangi No.3, Ps. Dolok Sanggul, Kec. Dolok sanggul, Kabupaten Humbang Hasundutan, Sumatera Utara 22457";"Ps. Dolok Sanggul, Kec. Dolok sanggul, Kabupaten Humbang Hasundutan";"SUMATERA UTARA";"22457";"Indonesia";" 081260234659";"";"";"2.2587039";"98.7479042";"https://maps.google.com/?cid=0x0:0x6d7db10e7bbe1120";""
"supermarket";"Pusat Perbelanjaan";"Tanjung Brothers";"Sirisirisi, Kec. Dolok sanggul, Kabupaten Humbang Hasundutan, Sumatera Utara 22457";"Kec. Dolok sanggul, Kabupaten Humbang Hasundutan";"SUMATERA UTARA";"22457";"Indonesia";"";"";"";"2.270692";"98.7455733";"https://maps.google.com/?cid=0x0:0xa0c77ce9275b9f17";""
"supermarket";"Toko Swalayan";"UD Miduk Munte";"7P55+5RP, Matiti I, Kec. Dolok sanggul, Kabupaten Humbang Hasundutan, Sumatera Utara 22457";"Matiti I, Kec. Dolok sanggul, Kabupaten Humbang Hasundutan";"SUMATERA UTARA";"22457";"Indonesia";" 081397798585";"";"";"2.2579588";"98.7095815";"https://maps.google.com/?cid=0x0:0xbfccf81f1d0c2251";""
"supermarket";"Pembangunan Perumahan";"Rumah";"5GCG+4WC, Purba Sianjur, Kec. Pakkat, Kabupaten Humbang Hasundutan, Sumatera Utara 22455";"Purba Sianjur, Kec. Pakkat, Kabupaten Humbang Hasundutan";"SUMATERA UTARA";"22455";"Indonesia";"";"";"";"2.1699273";"98.5274978";"https://maps.google.com/?cid=0x0:0x63629664c873bbe7";""
"supermarket";"Pasar";"Warung Kelontongan Oppung Masdiana";"6F2Q+5QM, Rura Tj., Kec. Pakkat, Kabupaten Humbang Hasundutan, Sumatera Utara 22456";"Rura Tj., Kec. Pakkat, Kabupaten Humbang Hasundutan";"SUMATERA UTARA";"22456";"Indonesia";" 082312158536";"";"";"2.2004714";"98.4894308";"https://maps.google.com/?cid=0x0:0xaf16853fe204aed";""
"supermarket";"Sekolah Menengah Kejuruan";"SMK NEGERI 2 PAKKAT";"4FWF+R87, Pakkat Hauagong, Kec. Pakkat, Kabupaten Humbang Hasundutan, Sumatera Utara 22455";"Pakkat Hauagong, Kec. Pakkat, Kabupaten Humbang Hasundutan";"SUMATERA UTARA";"22455";"Indonesia";" 085275118074";"";"";"2.1470303";"98.4733014";"https://maps.google.com/?cid=0x0:0xec69d2e4e7b32632";""
"supermarket";"supermarket";"Pakkat";"Pakkat Hauagong, Kec. Pakkat, Kabupaten Humbang Hasundutan, Sumatera Utara";"Kabupaten Humbang Hasundutan, Sumatera Utara";"SUMATERA UTARA";"";"Indonesia";"";"";"";"2.145129";"98.473518";"https://maps.google.com/?cid=0x0:0xd970ca7c81a5c728";""
"supermarket";"supermarket";"Pakkat";"4FWF+3C2, Pakkat Hauagong, Kec. Pakkat, Kabupaten Humbang Hasundutan, Sumatera Utara";"Kabupaten Humbang Hasundutan, Sumatera Utara";"SUMATERA UTARA";"";"Indonesia";"";"";"";"2.145129";"98.473518";"https://maps.google.com/?cid=0x0:0x6a512f0b3c59c9b3";""
"supermarket";"Toko bahan makanan";"Menjual kebutuhan sehari hari";"Jl. Imam Bonjol No.4, Pakkat Hauagong, Kec. Pakkat, Kabupaten Humbang Hasundutan, Sumatera Utara 22455";"Pakkat Hauagong, Kec. Pakkat, Kabupaten Humbang Hasundutan";"SUMATERA UTARA";"22455";"Indonesia";" 081260111317";"";"";"2.1536829";"98.4729328";"https://maps.google.com/?cid=0x0:0x654bba3c470cb252";""
"supermarket";"Toko";"Kirana Grosir  Stockist Nasa";"Jalan karangsinom rt 011/004 desa, RT.011/RW.004, Karangsinom, Kec. Tirtamulya, Karawang, Jawa Barat 41372";"RT.011/RW.004, Karangsinom, Kec. Tirtamulya, Karawang";"SUMATERA UTARA";"41372";"Indonesia";" 085886289338";"";"";"-6.3737178";"107.441781";"https://maps.google.com/?cid=0x0:0xe285c91b3d2c5f74";""
"supermarket";"Toko";"Toko KIRANA";"J9QW+P32, Cengkong, Kec. Purwasari, Karawang, Jawa Barat 41373";"Cengkong, Kec. Purwasari, Karawang";"SUMATERA UTARA";"41373";"Indonesia";" 087722025626";"";"";"-6.3607084";"107.3950807";"https://maps.google.com/?cid=0x0:0xa442722a2f001f05";""
"supermarket";"supermarket";"Kec. Paranginan";"Kabupaten Humbang Hasundutan, Sumatera Utara";"Kabupaten Humbang Hasundutan, Sumatera Utara";"SUMATERA UTARA";"";"Indonesia";"";"";"";"2.3016854";"98.9270035";"https://maps.google.com/?cid=0x0:0x690416ecba08580d";""
"supermarket";"Pusat Perbelanjaan";"UD TIO";"8W2G+QVJ, Jl. Guru Henneri Siburian, Paranginan Utara, Kec. Paranginan, Kabupaten Humbang Hasundutan, Sumatera Utara 22476";"Jl. Guru Henneri Siburian, Paranginan Utara, Kec. Paranginan, Kabupaten Humbang Hasundutan";"SUMATERA UTARA";"22476";"Indonesia";" 081262697890";"";"";"2.3019661";"98.9271533";"https://maps.google.com/?cid=0x0:0xac3e2ce2054514c3";""
"supermarket";"Gereja Lutheran";"Depan Gereja HKI Simpang III Paranginan Sel";"7XV3+PP8, Paranginan Sel., Kec. Paranginan, Kabupaten Humbang Hasundutan, Sumatera Utara 22476";"Paranginan Sel., Kec. Paranginan, Kabupaten Humbang Hasundutan";"SUMATERA UTARA";"22476";"Indonesia";" 081263955808";"";"";"2.2942815";"98.9543405";"https://maps.google.com/?cid=0x0:0x3544802beb3560e";""
"supermarket";"Toko Swalayan";"Toko Girpan";"7WQ2+RG, Lobu Tolong, Kec. Paranginan, Kabupaten Humbang Hasundutan, Sumatera Utara";"Kabupaten Humbang Hasundutan, Sumatera Utara";"SUMATERA UTARA";"";"Indonesia";"";"";"";"2.2959375";"98.9093125";"https://maps.google.com/?cid=0x0:0x86775699eca275ce";""
"supermarket";"supermarket";"N/A";"";"";"SUMATERA UTARA";"";"Indonesia";" 082164777801";"";"";"2.261948";"98.8633949";"https://maps.google.com/?cid=0x0:0x3f00774e4763c70e";""
"supermarket";"Pondok pedesaan";"Sumatera Utara";"8W4G+C8M, Jl. Mayor Kostan Siburan, Paranginan Utara, Kec. Paranginan, Kabupaten Humbang Hasundutan, Sumatera Utara 22476";"Jl. Mayor Kostan Siburan, Paranginan Utara, Kec. Paranginan, Kabupaten Humbang Hasundutan";"SUMATERA UTARA";"22476";"Indonesia";"";"";"";"2.3060849";"98.9257858";"https://maps.google.com/?cid=0x0:0x5300a00ccc1bbd5f";""
"supermarket";"Toko";"Warung Baru";"6WV9+72J, Jl. Dolok Sanggul - Siborong - Borong, Nagasaribu II, Kec. Lintong Nihuta, Kabupaten Humbang Hasundutan, Sumatera Utara 22475";"Jl. Dolok Sanggul - Siborong - Borong, Nagasaribu II, Kec. Lintong Nihuta, Kabupaten Humbang Hasundutan";"SUMATERA UTARA";"22475";"Indonesia";"";"";"";"2.2432129";"98.9175081";"https://maps.google.com/?cid=0x0:0x419713e4ccbc29af";""
"supermarket";"Pusat Perbelanjaan";"Toko Siburian Sembako";"7WVQ+38J, Bahalimbalo, Kec. Paranginan, Kabupaten Humbang Hasundutan, Sumatera Utara 22474";"Bahalimbalo, Kec. Paranginan, Kabupaten Humbang Hasundutan";"SUMATERA UTARA";"22474";"Indonesia";"";"";"";"2.292715";"98.9382713";"https://maps.google.com/?cid=0x0:0xb2a27916f3ed32cd";""
"supermarket";"Toko Swalayan";"TOKO GIBRAN";"7VRH+443, Jl. Sisingamangaraja, Sigumpar, Kec. Lintong Nihuta, Kabupaten Humbang Hasundutan, Sumatera Utara 22475";"Jl. Sisingamangaraja, Sigumpar, Kec. Lintong Nihuta, Kabupaten Humbang Hasundutan";"SUMATERA UTARA";"22475";"Indonesia";" 082167748500";"";"";"2.2902508";"98.8777889";"https://maps.google.com/?cid=0x0:0xe6f539738d9ef45e";""
"supermarket";"Minimarket";"Doly Store Muara";"Jl. Sisingamangaraja No.4, Hutana Godang, Kec. Muara, Kabupaten Tapanuli Utara, Sumatera Utara 22476";"Hutana Godang, Kec. Muara, Kabupaten Tapanuli Utara";"SUMATERA UTARA";"22476";"Indonesia";" 081264121412";"";"";"2.339853";"98.9087293";"https://maps.google.com/?cid=0x0:0x1a0e72a9f333a9";""
"supermarket";"Toko Daging";"Warung Opung Ruben Silaban";"jalan dolok sanggul km.5, kampung pamunuhan babiat, Sitampurung, Kec. Siborongborong, Kabupaten Tapanuli Utara, Sumatera Utara 22475";"kampung pamunuhan babiat, Sitampurung, Kec. Siborongborong, Kabupaten Tapanuli Utara";"SUMATERA UTARA";"22475";"Indonesia";" 082210036465";"";"";"2.2256777";"98.9385996";"https://maps.google.com/?cid=0x0:0x343b6f49d806d20c";""
"supermarket";"Toko Makanan";"MCB FOOD Keripik Tempe PARANGINAN";"Jl. Parsaoran, Lumban Sianturi, Siborutorop Paranginan, Kabupaten Humbang Hasundutan, Sumatera Utara 22475";"Lumban Sianturi, Siborutorop Paranginan, Kabupaten Humbang Hasundutan";"SUMATERA UTARA";"22475";"Indonesia";" 082274793339";"";"";"2.2631995";"98.9396158";"https://maps.google.com/?cid=0x0:0x441908d52571535";""
"supermarket";"Toserba";"frans POOL AND BAR";"7WQ4+RGW, Lobu Tolong, Kec. Paranginan, Kabupaten Humbang Hasundutan, Sumatera Utara 22475";"Lobu Tolong, Kec. Paranginan, Kabupaten Humbang Hasundutan";"SUMATERA UTARA";"22475";"Indonesia";"";"";"";"2.2896237";"98.906326";"https://maps.google.com/?cid=0x0:0xd26072ccf4b47510";""
"supermarket";"Toko";"LARIS DAY";"7WVV+787, Jl. Sisingamangaraja, Lumban Bar., Kec. Paranginan, Kabupaten Humbang Hasundutan, Sumatera Utara 22476";"Jl. Sisingamangaraja, Lumban Bar., Kec. Paranginan, Kabupaten Humbang Hasundutan";"SUMATERA UTARA";"22476";"Indonesia";"";"";"";"2.2931735";"98.9432955";"https://maps.google.com/?cid=0x0:0x48aa496d6f656a89";""
"supermarket";"Toko Swalayan";"Putra Paranginan";"7WR7+88X, Lobu Tolong, Kec. Paranginan, Kabupaten Humbang Hasundutan, Sumatera Utara";"Kabupaten Humbang Hasundutan, Sumatera Utara";"SUMATERA UTARA";"";"Indonesia";"";"";"";"2.2908726";"98.913347";"https://maps.google.com/?cid=0x0:0x2b5118d1683f37ad";""
"supermarket";"Toko";"Lapo Simpang Opat";"7WRH+QCR, Bar., Lumban Bar., Kec. Paranginan, Kabupaten Humbang Hasundutan, Sumatera Utara 22476";"Bar., Lumban Bar., Kec. Paranginan, Kabupaten Humbang Hasundutan";"SUMATERA UTARA";"22476";"Indonesia";" 081263784150";"";"";"2.2919952";"98.9285308";"https://maps.google.com/?cid=0x0:0xf2b22a2e0e48fa28";""
"supermarket";"Kafe";"Warung Kopi Mak Andre Naibaho";"8X26+998, Paranginan Sel., Kec. Paranginan, Kabupaten Humbang Hasundutan, Sumatera Utara 22476";"Paranginan Sel., Kec. Paranginan, Kabupaten Humbang Hasundutan";"SUMATERA UTARA";"22476";"Indonesia";"";"";"";"2.3009073";"98.960967";"https://maps.google.com/?cid=0x0:0xfa7180d99e6db538";""
"supermarket";"Toko Perlengkapan Rumah";"Warung Oppung Ayunda";"7XG5+WPV, Paranginan Sel., Kec. Paranginan, Kabupaten Humbang Hasundutan, Sumatera Utara 22476";"Paranginan Sel., Kec. Paranginan, Kabupaten Humbang Hasundutan";"SUMATERA UTARA";"22476";"Indonesia";" 085275583082";"";"";"2.2773737";"98.9593003";"https://maps.google.com/?cid=0x0:0x771311b41e0240fa";""
"supermarket";"Pusat Perbelanjaan";"TOKO BORU MARPAUNG";"7WRF+WXR, Jl. Sisingamangaraja, Lumban Bar., Kec. Paranginan, Kabupaten Humbang Hasundutan, Sumatera Utara 22476";"Jl. Sisingamangaraja, Lumban Bar., Kec. Paranginan, Kabupaten Humbang Hasundutan";"SUMATERA UTARA";"22476";"Indonesia";"";"";"";"2.2923618";"98.9249009";"https://maps.google.com/?cid=0x0:0x658516ff0c5b6dde";""
"supermarket";"Toko";"OP. ADRIEL NABABAN";"Jl. Saudara, Nagasaribu II, Kec. Lintong Nihuta, Kabupaten Humbang Hasundutan, Sumatera Utara 22475";"Nagasaribu II, Kec. Lintong Nihuta, Kabupaten Humbang Hasundutan";"SUMATERA UTARA";"22475";"Indonesia";" 081266295404";"";"";"2.2437379";"98.9153228";"https://maps.google.com/?cid=0x0:0xe03067ffb51db9bf";""
"supermarket";"Toko Swalayan";"UD. MARINTAN";"Jalan Mangga No. 17, Pasar Muara, Hutana Godang, Kec. Muara, Kabupaten Tapanuli Utara, Sumatera Utara 14260";"Pasar Muara, Hutana Godang, Kec. Muara, Kabupaten Tapanuli Utara";"SUMATERA UTARA";"14260";"Indonesia";" 081260931099";"";"";"2.3369474";"98.904765";"https://maps.google.com/?cid=0x0:0x8ac12ee660c0b6";""
"supermarket";"Minimarket";"Warung YOSAFAT";"Unnamed Road, Silali Toruan, Kec. Muara, Kabupaten Tapanuli Utara, Sumatera Utara 22476";"Silali Toruan, Kec. Muara, Kabupaten Tapanuli Utara";"SUMATERA UTARA";"22476";"Indonesia";" 08116252017";"";"";"2.3319507";"98.9000788";"https://maps.google.com/?cid=0x0:0xc311a8e31fc3f02a";""
"supermarket";"Toko Elektronik";"UD Parulian";"Jl. Sisingamangaraja No.21, Hutana Godang, Kec. Muara, Kabupaten Tapanuli Utara, Sumatera Utara 22476";"Hutana Godang, Kec. Muara, Kabupaten Tapanuli Utara";"SUMATERA UTARA";"22476";"Indonesia";" 063342836";"";"";"2.3370243";"98.9056514";"https://maps.google.com/?cid=0x0:0x1dbc3979a59b2855";""
"supermarket";"Minimarket";"Warung Tasya Sianturi";"7VMX+96P, Lobu Tolong, Kec. Paranginan, Kabupaten Humbang Hasundutan, Sumatera Utara";"Kabupaten Humbang Hasundutan, Sumatera Utara";"SUMATERA UTARA";"";"Indonesia";"";"";"";"2.2834712";"98.8980924";"https://maps.google.com/?cid=0x0:0x75c5114afea5f106";""
"supermarket";"Pembangunan Perumahan";"Pasar Parlilitan";"Sihotang Hasugian Tonga, Kec. Parlilitan, Medan, Sumatera Utara 22456";"Kec. Parlilitan, Medan";"SUMATERA UTARA";"22456";"Indonesia";"";"";"";"2.3246043";"98.4567234";"https://maps.google.com/?cid=0x0:0x9f8a3952275426b4";""
"supermarket";"supermarket";"Parlilitan";"Sihotang Hasugian Tonga, Kec. Parlilitan, Kabupaten Humbang Hasundutan, Sumatera Utara";"Kabupaten Humbang Hasundutan, Sumatera Utara";"SUMATERA UTARA";"";"Indonesia";"";"";"";"2.3179599";"98.457001";"https://maps.google.com/?cid=0x0:0xb3282a468af9977";""
"supermarket";"Toko";"SINAGA MARKET";"8FF4+VGH, Pasar, Sihotang Hasugian Tonga, Kec. Parlilitan, Kabupaten Humbang Hasundutan, Sumatera Utara 22456";"Pasar, Sihotang Hasugian Tonga, Kec. Parlilitan, Kabupaten Humbang Hasundutan";"SUMATERA UTARA";"22456";"Indonesia";" 085362055551";"";"";"2.3246835";"98.4563538";"https://maps.google.com/?cid=0x0:0x1cc696e379eebaba";""
"supermarket";"supermarket";"Kec. Menteng";"Kota Jakarta Pusat, Daerah Khusus Ibukota Jakarta";"Kota Jakarta Pusat, Daerah Khusus Ibukota Jakarta";"SUMATERA UTARA";"";"Indonesia";"";"";"";"-6.1937297";"106.8392111";"https://maps.google.com/?cid=0x0:0x3e389ed39c2f9bb4";""
"supermarket";"supermarket";"Sumatera Utara 22457";"Kabupaten Humbang Hasundutan, Sumatera Utara";"Kabupaten Humbang Hasundutan, Sumatera Utara";"SUMATERA UTARA";"";"Indonesia";"";"";"";"2.2174078";"98.7260927";"https://maps.google.com/?cid=0x0:0xfc492d8c933a9bef";""
"supermarket";"Toko";"Toko Marnata";"Jl. Siliwangi No.3, Ps. Dolok Sanggul, Kec. Dolok sanggul, Kabupaten Humbang Hasundutan, Sumatera Utara 22457";"Ps. Dolok Sanggul, Kec. Dolok sanggul, Kabupaten Humbang Hasundutan";"SUMATERA UTARA";"22457";"Indonesia";" 081260234659";"";"";"2.2587039";"98.7479042";"https://maps.google.com/?cid=0x0:0x6d7db10e7bbe1120";""
"supermarket";"Toko Swalayan";"Toko Aktest";"Jl. Melanthon Siregar No.41-65, Ps. Dolok Sanggul, Kec. Dolok sanggul, Kabupaten Humbang Hasundutan, Sumatera Utara 22457";"Ps. Dolok Sanggul, Kec. Dolok sanggul, Kabupaten Humbang Hasundutan";"SUMATERA UTARA";"22457";"Indonesia";"";"";"";"2.2595371";"98.7498431";"https://maps.google.com/?cid=0x0:0xd7ef71eeefd73c16";""
"supermarket";"Pusat Perbelanjaan";"Tanjung Brothers";"Sirisirisi, Kec. Dolok sanggul, Kabupaten Humbang Hasundutan, Sumatera Utara 22457";"Kec. Dolok sanggul, Kabupaten Humbang Hasundutan";"SUMATERA UTARA";"22457";"Indonesia";"";"";"";"2.270692";"98.7455733";"https://maps.google.com/?cid=0x0:0xa0c77ce9275b9f17";""
"supermarket";"Toko Swalayan";"Toko AKTO";"7P5X+M4C, Jl. Lintas Barat Sumatera, Ps. Dolok Sanggul, Kec. Dolok sanggul, Kabupaten Humbang Hasundutan, Sumatera Utara 22457";"Jl. Lintas Barat Sumatera, Ps. Dolok Sanggul, Kec. Dolok sanggul, Kabupaten Humbang Hasundutan";"SUMATERA UTARA";"22457";"Indonesia";"";"";"";"2.2591804";"98.7477654";"https://maps.google.com/?cid=0x0:0xab80dff36290ba8a";""
"supermarket";"Toko Swalayan";"UD Miduk Munte";"7P55+5RP, Matiti I, Kec. Dolok sanggul, Kabupaten Humbang Hasundutan, Sumatera Utara 22457";"Matiti I, Kec. Dolok sanggul, Kabupaten Humbang Hasundutan";"SUMATERA UTARA";"22457";"Indonesia";" 081397798585";"";"";"2.2579588";"98.7095815";"https://maps.google.com/?cid=0x0:0xbfccf81f1d0c2251";""
"supermarket";"Toko bahan makanan";"Alfamidi siliwangi";"7P7W+WPP, Jl. Dolok Sanggul - Sidikalang, Bonani Onan, Kec. Dolok sanggul, Kabupaten Humbang Hasundutan, Sumatera Utara 22457";"Jl. Dolok Sanggul - Sidikalang, Bonani Onan, Kec. Dolok sanggul, Kabupaten Humbang Hasundutan";"SUMATERA UTARA";"22457";"Indonesia";" 082177050208";"";"";"2.2648419";"98.7468255";"https://maps.google.com/?cid=0x0:0x1257e8078915c0cd";""
"supermarket";"Minimarket";"Doly Store Muara";"Jl. Sisingamangaraja No.4, Hutana Godang, Kec. Muara, Kabupaten Tapanuli Utara, Sumatera Utara 22476";"Hutana Godang, Kec. Muara, Kabupaten Tapanuli Utara";"SUMATERA UTARA";"22476";"Indonesia";" 081264121412";"";"";"2.339853";"98.9087293";"https://maps.google.com/?cid=0x0:0x1a0e72a9f333a9";""
"supermarket";"Toko bahan makanan";"UD. MUTIARA TANI";"7P5W+XVQ, Ps. Dolok Sanggul, Kec. Dolok sanggul, Kabupaten Humbang Hasundutan, Sumatera Utara 22457";"Ps. Dolok Sanggul, Kec. Dolok sanggul, Kabupaten Humbang Hasundutan";"SUMATERA UTARA";"22457";"Indonesia";"";"";"";"2.2599729";"98.7472439";"https://maps.google.com/?cid=0x0:0x8669a5c6ce2e0b8a";""
"supermarket";"Toko bahan makanan";"TOKO TOGAP";"Jl. Melanthon Siregar No.67A, Ps. Dolok Sanggul, Kec. Dolok sanggul, Kabupaten Humbang Hasundutan, Sumatera Utara 22457";"Ps. Dolok Sanggul, Kec. Dolok sanggul, Kabupaten Humbang Hasundutan";"SUMATERA UTARA";"22457";"Indonesia";" 082169918765";"";"";"2.2590825";"98.7499464";"https://maps.google.com/?cid=0x0:0x8ba8e72578e62138";""
"supermarket";"Kantor Perusahaan";"UD.KOSTINK";"7P6X+8X7, Jl. Richardo Siahaan, Bonani Onan, Kec. Dolok sanggul, Kabupaten Humbang Hasundutan, Sumatera Utara 22457";"Jl. Richardo Siahaan, Bonani Onan, Kec. Dolok sanggul, Kabupaten Humbang Hasundutan";"SUMATERA UTARA";"22457";"Indonesia";"";"";"";"2.2607807";"98.7499111";"https://maps.google.com/?cid=0x0:0x240760b34e543fef";""
"supermarket";"Toko";"Toko Gemilang";"7P5X+XWV, Ps. Dolok Sanggul, Kec. Dolok sanggul, Kabupaten Humbang Hasundutan, Sumatera Utara 22457";"Ps. Dolok Sanggul, Kec. Dolok sanggul, Kabupaten Humbang Hasundutan";"SUMATERA UTARA";"22457";"Indonesia";"";"";"";"2.2599883";"98.7498063";"https://maps.google.com/?cid=0x0:0x539b5b249100266c";""
"supermarket";"Toko Swalayan";"TOKO GIBRAN";"7VRH+443, Jl. Sisingamangaraja, Sigumpar, Kec. Lintong Nihuta, Kabupaten Humbang Hasundutan, Sumatera Utara 22475";"Jl. Sisingamangaraja, Sigumpar, Kec. Lintong Nihuta, Kabupaten Humbang Hasundutan";"SUMATERA UTARA";"22475";"Indonesia";" 082167748500";"";"";"2.2902508";"98.8777889";"https://maps.google.com/?cid=0x0:0xe6f539738d9ef45e";""
"supermarket";"Toko bahan makanan";"UD. TABO";"7VC7+G38, Tapian Nauli, Kec. Lintong Nihuta, Kabupaten Humbang Hasundutan, Sumatera Utara 22475";"Tapian Nauli, Kec. Lintong Nihuta, Kabupaten Humbang Hasundutan";"SUMATERA UTARA";"22475";"Indonesia";"";"";"";"2.2712972";"98.8626904";"https://maps.google.com/?cid=0x0:0x5ba21ff9e6f4d85b";""
"supermarket";"Toko Swalayan";"UD.BIMA";"7VRH+GHV, Jl. Sisingamangaraja, Sibuntuon Parpea, Kec. Lintong Nihuta, Kabupaten Humbang Hasundutan, Sumatera Utara 22475";"Jl. Sisingamangaraja, Sibuntuon Parpea, Kec. Lintong Nihuta, Kabupaten Humbang Hasundutan";"SUMATERA UTARA";"22475";"Indonesia";" 081370229311";"";"";"2.2913694";"98.8789224";"https://maps.google.com/?cid=0x0:0xa97987935854d41b";""
"supermarket";"Kedai Kopi";"Opung Daffa Marbun Lumban Gaol";"9PH4+J8X, Jl. Huta Julu, Hutapaung Utara, Kec. Pollung, Kabupaten Humbang Hasundutan, Sumatera Utara 22395";"Jl. Huta Julu, Hutapaung Utara, Kec. Pollung, Kabupaten Humbang Hasundutan";"SUMATERA UTARA";"22395";"Indonesia";"";"";"";"2.3791082";"98.7058477";"https://maps.google.com/?cid=0x0:0xee58f220fe7d86ae";""
"supermarket";"Pemasok Pupuk";"UD.Inggrid";"Jl. Sisingamangaraja No.46, Pargaulan, Kec. Lintong Nihuta, Kabupaten Humbang Hasundutan, Sumatera Utara 22475";"Pargaulan, Kec. Lintong Nihuta, Kabupaten Humbang Hasundutan";"SUMATERA UTARA";"22475";"Indonesia";"";"";"";"2.2660878";"98.8612515";"https://maps.google.com/?cid=0x0:0x3614ac77cb5f77e2";""
"supermarket";"Toko Perabot Supermarket";"Pabrik dan Workshop Holong Perabot";"Marade, Desa Jl. Dolok Sanggul - Sidikalang, Sipitu Huta, Kec. Pollung, Kabupaten Humbang Hasundutan, Sumatera Utara 22457";"Desa Jl. Dolok Sanggul - Sidikalang, Sipitu Huta, Kec. Pollung, Kabupaten Humbang Hasundutan";"SUMATERA UTARA";"22457";"Indonesia";" 082274293016";"";"";"2.3138567";"98.7309059";"https://maps.google.com/?cid=0x0:0x5556faf3e8d9cc5a";""
"supermarket";"supermarket";"N/A";"";"";"SUMATERA UTARA";"";"Indonesia";" 082164777801";"";"";"2.261948";"98.8633949";"https://maps.google.com/?cid=0x0:0x3f00774e4763c70e";""
"supermarket";"Toko Ponsel";"KIEL PONSEL, Toko, Dan Brilink";"7V96+6MX, Jl. Sisingamangaraja, Tapian Nauli, Kec. Lintong Nihuta, Kabupaten Humbang Hasundutan, Sumatera Utara 22475";"Jl. Sisingamangaraja, Tapian Nauli, Kec. Lintong Nihuta, Kabupaten Humbang Hasundutan";"SUMATERA UTARA";"22475";"Indonesia";"";"";"";"2.2681079";"98.8617333";"https://maps.google.com/?cid=0x0:0x468079075972a342";""
"supermarket";"Toko Mebel";"Toko NORAMA Perabot  Pecah Belah";"Jl. Melanthon Siregar No.59, Ps. Dolok Sanggul, Kec. Dolok sanggul, Kabupaten Humbang Hasundutan, Sumatera Utara 22457";"Ps. Dolok Sanggul, Kec. Dolok sanggul, Kabupaten Humbang Hasundutan";"SUMATERA UTARA";"22457";"Indonesia";"";"";"";"2.2591741";"98.7499307";"https://maps.google.com/?cid=0x0:0xb32d3c490b819f4a";""
"supermarket";"Pangsit";"Frozen Food 99 Poltangan";"2, Jl. Poltangan Raya No.48, RT.2/RW.4, Tj. Bar., Kec. Jagakarsa, Kota Jakarta Selatan, Daerah Khusus Ibukota Jakarta 12530";"Jl. Poltangan Raya No.48, RT.2/RW.4, Tj. Bar., Kec. Jagakarsa, Kota Jakarta Selatan";"SUMATERA UTARA";"12530";"Indonesia";" 081293059565";"";"";"-6.2963907";"106.8443669";"https://maps.google.com/?cid=0x0:0x6fd4c0a7474e8dbe";""
"supermarket";"Toko Daging";"Gudang. PT. Multi Sinergy Prima (MSP)";"Jl. Ps. Lelang Ikan Muara Baru No.90, RT.21/RW.17, Penjaringan, Kec. Penjaringan, Jkt Utara, Daerah Khusus Ibukota Jakarta 14440";"RT.21/RW.17, Penjaringan, Kec. Penjaringan, Jkt Utara";"SUMATERA UTARA";"14440";"Indonesia";" 085211340885";"";"";"-6.108911";"106.8013724";"https://maps.google.com/?cid=0x0:0xc3baa1a4f81b8173";""
"supermarket";"Toko Daging";"PT. Multi Sinergy Prima";"Jl. Untung Suropati No.90, RT.02/RW.03, Cimone Jaya, Kec. Karawaci, Kota Tangerang, Banten 15114";"RT.02/RW.03, Cimone Jaya, Kec. Karawaci, Kota Tangerang";"SUMATERA UTARA";"15114";"Indonesia";" 087791242854";"";"";"-6.1940965";"106.6148352";"https://maps.google.com/?cid=0x0:0xa0b36f3a1eb65ae6";""
"supermarket";"Toko Bahan Bangunan";"Millenium Grand Market";"7Q64+97R, Pasaribu, Kec. Dolok sanggul, Kabupaten Humbang Hasundutan, Sumatera Utara 22457";"Pasaribu, Kec. Dolok sanggul, Kabupaten Humbang Hasundutan";"SUMATERA UTARA";"22457";"Indonesia";" 082164686545";"";"";"2.260982";"98.7556351";"https://maps.google.com/?cid=0x0:0xc953c50a91ba3926";""
"supermarket";"Minimarket";"Warung risma";"8P79+472, Aek Nauli II, Kec. Pollung, Kabupaten Humbang Hasundutan, Sumatera Utara 22457";"Aek Nauli II, Kec. Pollung, Kabupaten Humbang Hasundutan";"SUMATERA UTARA";"22457";"Indonesia";"";"";"";"2.3127581";"98.71712";"https://maps.google.com/?cid=0x0:0x7c3a3bb8c5e7375d";""
"supermarket";"Minimarket";"Kios Unggas";"G2RQ+88H, Jl. Citra Indah Festival, Singajaya, Kec. Jonggol, Kabupaten Bogor, Jawa Barat 16830";"Jl. Citra Indah Festival, Singajaya, Kec. Jonggol, Kabupaten Bogor";"SUMATERA UTARA";"16830";"Indonesia";" 088299541545";"";"";"-6.4591968";"107.038369";"https://maps.google.com/?cid=0x0:0x9945fe66856bd2a2";""
"supermarket";"Toko Swalayan";"Sembako Tobados";"7Q76+QW4, Jl. Merdeka, Ujung, Kec. Dolok sanggul, Kabupaten Humbang Hasundutan, Sumatera Utara 22457";"Jl. Merdeka, Ujung, Kec. Dolok sanggul, Kabupaten Humbang Hasundutan";"SUMATERA UTARA";"22457";"Indonesia";" 082125648799";"";"";"2.264386";"98.7623314";"https://maps.google.com/?cid=0x0:0x645ee44751cbf39";""
"supermarket";"Minimarket";"Warung nisa";"Jl. Lintas Dolok Sanggul, Aek Nauli II, Kec. Pollung, Kabupaten Humbang Hasundutan, Sumatera Utara 22457";"Aek Nauli II, Kec. Pollung, Kabupaten Humbang Hasundutan";"SUMATERA UTARA";"22457";"Indonesia";" 081362183547";"";"";"2.3067552";"98.7338707";"https://maps.google.com/?cid=0x0:0x3368fa7fface8740";""
"supermarket";"Toko Swalayan";"Toko Aktest";"Jl. Melanthon Siregar No.41-65, Ps. Dolok Sanggul, Kec. Dolok sanggul, Kabupaten Humbang Hasundutan, Sumatera Utara 22457";"Ps. Dolok Sanggul, Kec. Dolok sanggul, Kabupaten Humbang Hasundutan";"SUMATERA UTARA";"22457";"Indonesia";"";"";"";"2.2595371";"98.7498431";"https://maps.google.com/?cid=0x0:0xd7ef71eeefd73c16";""
"supermarket";"supermarket";"Kec. Sijama Polang";"Kabupaten Humbang Hasundutan, Sumatera Utara";"Kabupaten Humbang Hasundutan, Sumatera Utara";"SUMATERA UTARA";"";"Indonesia";"";"";"";"2.2108811";"98.721307";"https://maps.google.com/?cid=0x0:0xd50f2722ee3ef986";""
"supermarket";"Toko";"Toko Marnata";"Jl. Siliwangi No.3, Ps. Dolok Sanggul, Kec. Dolok sanggul, Kabupaten Humbang Hasundutan, Sumatera Utara 22457";"Ps. Dolok Sanggul, Kec. Dolok sanggul, Kabupaten Humbang Hasundutan";"SUMATERA UTARA";"22457";"Indonesia";" 081260234659";"";"";"2.2587039";"98.7479042";"https://maps.google.com/?cid=0x0:0x6d7db10e7bbe1120";""
"supermarket";"Pusat Perbelanjaan";"Tanjung Brothers";"Sirisirisi, Kec. Dolok sanggul, Kabupaten Humbang Hasundutan, Sumatera Utara 22457";"Kec. Dolok sanggul, Kabupaten Humbang Hasundutan";"SUMATERA UTARA";"22457";"Indonesia";"";"";"";"2.270692";"98.7455733";"https://maps.google.com/?cid=0x0:0xa0c77ce9275b9f17";""
"supermarket";"Toko Swalayan";"UD Miduk Munte";"7P55+5RP, Matiti I, Kec. Dolok sanggul, Kabupaten Humbang Hasundutan, Sumatera Utara 22457";"Matiti I, Kec. Dolok sanggul, Kabupaten Humbang Hasundutan";"SUMATERA UTARA";"22457";"Indonesia";" 081397798585";"";"";"2.2579588";"98.7095815";"https://maps.google.com/?cid=0x0:0xbfccf81f1d0c2251";""
"supermarket";"Toko Swalayan";"Toko AKTO";"7P5X+M4C, Jl. Lintas Barat Sumatera, Ps. Dolok Sanggul, Kec. Dolok sanggul, Kabupaten Humbang Hasundutan, Sumatera Utara 22457";"Jl. Lintas Barat Sumatera, Ps. Dolok Sanggul, Kec. Dolok sanggul, Kabupaten Humbang Hasundutan";"SUMATERA UTARA";"22457";"Indonesia";"";"";"";"2.2591804";"98.7477654";"https://maps.google.com/?cid=0x0:0xab80dff36290ba8a";""
"supermarket";"Toko bahan makanan";"UD. MUTIARA TANI";"7P5W+XVQ, Ps. Dolok Sanggul, Kec. Dolok sanggul, Kabupaten Humbang Hasundutan, Sumatera Utara 22457";"Ps. Dolok Sanggul, Kec. Dolok sanggul, Kabupaten Humbang Hasundutan";"SUMATERA UTARA";"22457";"Indonesia";"";"";"";"2.2599729";"98.7472439";"https://maps.google.com/?cid=0x0:0x8669a5c6ce2e0b8a";""
"supermarket";"Toko bahan makanan";"TOKO TOGAP";"Jl. Melanthon Siregar No.67A, Ps. Dolok Sanggul, Kec. Dolok sanggul, Kabupaten Humbang Hasundutan, Sumatera Utara 22457";"Ps. Dolok Sanggul, Kec. Dolok sanggul, Kabupaten Humbang Hasundutan";"SUMATERA UTARA";"22457";"Indonesia";" 082169918765";"";"";"2.2590825";"98.7499464";"https://maps.google.com/?cid=0x0:0x8ba8e72578e62138";""
"supermarket";"Toko";"Toko Gemilang";"7P5X+XWV, Ps. Dolok Sanggul, Kec. Dolok sanggul, Kabupaten Humbang Hasundutan, Sumatera Utara 22457";"Ps. Dolok Sanggul, Kec. Dolok sanggul, Kabupaten Humbang Hasundutan";"SUMATERA UTARA";"22457";"Indonesia";"";"";"";"2.2599883";"98.7498063";"https://maps.google.com/?cid=0x0:0x539b5b249100266c";""
"supermarket";"Kantor Perusahaan";"UD.KOSTINK";"7P6X+8X7, Jl. Richardo Siahaan, Bonani Onan, Kec. Dolok sanggul, Kabupaten Humbang Hasundutan, Sumatera Utara 22457";"Jl. Richardo Siahaan, Bonani Onan, Kec. Dolok sanggul, Kabupaten Humbang Hasundutan";"SUMATERA UTARA";"22457";"Indonesia";"";"";"";"2.2607807";"98.7499111";"https://maps.google.com/?cid=0x0:0x240760b34e543fef";""
"supermarket";"Toko Mebel";"Toko NORAMA Perabot  Pecah Belah";"Jl. Melanthon Siregar No.59, Ps. Dolok Sanggul, Kec. Dolok sanggul, Kabupaten Humbang Hasundutan, Sumatera Utara 22457";"Ps. Dolok Sanggul, Kec. Dolok sanggul, Kabupaten Humbang Hasundutan";"SUMATERA UTARA";"22457";"Indonesia";"";"";"";"2.2591741";"98.7499307";"https://maps.google.com/?cid=0x0:0xb32d3c490b819f4a";""
"supermarket";"Toko Mebel";"Holong Perabot 2";"Jl. Sisingamangaraja No.105, Lumban Tobing, Kec. Dolok sanggul, Kabupaten Humbang Hasundutan, Sumatera Utara 22457";"Lumban Tobing, Kec. Dolok sanggul, Kabupaten Humbang Hasundutan";"SUMATERA UTARA";"22457";"Indonesia";" 082274293016";"";"";"2.2580841";"98.7437326";"https://maps.google.com/?cid=0x0:0x3d2959a149fa6101";""
"supermarket";"supermarket";"Toko Opung Sondang";"5MVJ+M86, Unnamed Road, Hutaginjang, Kec. Sijama Polang, Kabupaten Humbang Hasundutan, Sumatera Utara 22457";"Unnamed Road, Hutaginjang, Kec. Sijama Polang, Kabupaten Humbang Hasundutan";"SUMATERA UTARA";"22457";"Indonesia";"";"";"";"2.1941526";"98.6807548";"https://maps.google.com/?cid=0x0:0x8fd521757038202f";""
"supermarket";"supermarket";"Toko Op. Sondang";"5MV8+96F, Hutaginjang, Kec. Sijama Polang, Kabupaten Humbang Hasundutan, Sumatera Utara 22457";"Hutaginjang, Kec. Sijama Polang, Kabupaten Humbang Hasundutan";"SUMATERA UTARA";"22457";"Indonesia";"";"";"";"2.1934446";"98.6655592";"https://maps.google.com/?cid=0x0:0x40752fccc7bcf862";""
"supermarket";"Toko Swalayan";"Toko Rejeki";"Jl. Sentosa No.69, Bonani Onan, Kec. Dolok sanggul, Kabupaten Humbang Hasundutan, Sumatera Utara 22457";"Bonani Onan, Kec. Dolok sanggul, Kabupaten Humbang Hasundutan";"SUMATERA UTARA";"22457";"Indonesia";"";"";"";"2.2607725";"98.7490845";"https://maps.google.com/?cid=0x0:0xd9beb5355b83fbb1";""
"supermarket";"Toko bahan makanan";"UD.NIA PURBA";"5M6P+9PG, Unnamed Road, Bonan Dolok I, Kec. Sijama Polang, Kabupaten Humbang Hasundutan, Sumatera Utara 22457";"Unnamed Road, Bonan Dolok I, Kec. Sijama Polang, Kabupaten Humbang Hasundutan";"SUMATERA UTARA";"22457";"Indonesia";"";"";"";"2.1609259";"98.6868375";"https://maps.google.com/?cid=0x0:0xf9848bee561c1c2f";""
"supermarket";"Toko";"Lapo Linggom";"3MH2+4J9, Sanggaran I, Kec. Sijama Polang, Kabupaten Humbang Hasundutan, Sumatera Utara 22454";"Sanggaran I, Kec. Sijama Polang, Kabupaten Humbang Hasundutan";"SUMATERA UTARA";"22454";"Indonesia";" 082157589188";"";"";"2.0777845";"98.6516138";"https://maps.google.com/?cid=0x0:0x82b896e302f65e99";""
"supermarket";"Kafe";"TEKONGAN";"5P75+JR4, Bonan Dolok II, Kec. Sijama Polang, Kabupaten Humbang Hasundutan, Sumatera Utara 22457";"Bonan Dolok II, Kec. Sijama Polang, Kabupaten Humbang Hasundutan";"SUMATERA UTARA";"22457";"Indonesia";"";"";"";"2.1640229";"98.7095789";"https://maps.google.com/?cid=0x0:0xd22bca9783b3c8a4";""
"supermarket";"Toko Bahan Bangunan";"Millenium Grand Market";"7Q64+97R, Pasaribu, Kec. Dolok sanggul, Kabupaten Humbang Hasundutan, Sumatera Utara 22457";"Pasaribu, Kec. Dolok sanggul, Kabupaten Humbang Hasundutan";"SUMATERA UTARA";"22457";"Indonesia";" 082164686545";"";"";"2.260982";"98.7556351";"https://maps.google.com/?cid=0x0:0xc953c50a91ba3926";""
"supermarket";"Toko";"Toko Simamora";"7Q42+2GR, Jl. Veteran, Ps. Dolok Sanggul, Kec. Dolok sanggul, Kabupaten Humbang Hasundutan, Sumatera Utara 22457";"Jl. Veteran, Ps. Dolok Sanggul, Kec. Dolok sanggul, Kabupaten Humbang Hasundutan";"SUMATERA UTARA";"22457";"Indonesia";"";"";"";"2.255103";"98.7512607";"https://maps.google.com/?cid=0x0:0xe08d22dea752abdf";""
"supermarket";"Grosir Kopi";"toba.market";"Jl. Sisingamangaraja No.54, Lumban Tobing, Kec. Dolok sanggul, Kabupaten Humbang Hasundutan, Sumatera Utara 22457";"Lumban Tobing, Kec. Dolok sanggul, Kabupaten Humbang Hasundutan";"SUMATERA UTARA";"22457";"Indonesia";" 085333553335";"";"";"2.2584473";"98.7467698";"https://maps.google.com/?cid=0x0:0xfd05da24b9401f40";""
"supermarket";"Gereja Protestan";"HKBP Bonan Dolok";"5M6P+GXR, Jl. B.W Simamora, Bonan Dolok I, Kec. Sijama Polang, Kabupaten Humbang Hasundutan, Sumatera Utara 22457";"Jl. B.W Simamora, Bonan Dolok I, Kec. Sijama Polang, Kabupaten Humbang Hasundutan";"SUMATERA UTARA";"22457";"Indonesia";"";"";"";"2.1613504";"98.6873764";"https://maps.google.com/?cid=0x0:0x80eb89217e99b941";""
"supermarket";"";"Toko Imelda";"7P55+9H2, Matiti I, Kec. Dolok sanggul, Kabupaten Humbang Hasundutan, Sumatera Utara 22457";"Matiti I, Kec. Dolok sanggul, Kabupaten Humbang Hasundutan";"SUMATERA UTARA";"22457";"Indonesia";"";"";"";"2.2583847";"98.7088869";"https://maps.google.com/?cid=0x0:0x54ac986afd5844b6";""
"supermarket";"Toko bahan makanan";"Toko Aldo Simra";"Pasaribu, Kec. Dolok sanggul, Kabupaten Humbang Hasundutan, Sumatera Utara 22457";"Kec. Dolok sanggul, Kabupaten Humbang Hasundutan";"SUMATERA UTARA";"22457";"Indonesia";" 082297370907";"";"";"2.2583984";"98.7554809";"https://maps.google.com/?cid=0x0:0xaac278eeef0a60ec";""
"supermarket";"Toko Swalayan";"Alfamidi SM Raja Dolok Sanggul";"Jl. Sisingamangaraja No.76, Lumban Tobing, Kec. Dolok sanggul, Kabupaten Humbang Hasundutan, Sumatera Utara 22457";"Lumban Tobing, Kec. Dolok sanggul, Kabupaten Humbang Hasundutan";"SUMATERA UTARA";"22457";"Indonesia";"";"";"";"2.2584609";"98.7461143";"https://maps.google.com/?cid=0x0:0x690060a154c13998";""
"supermarket";"Toko Swalayan";"Sembako Tobados";"7Q76+QW4, Jl. Merdeka, Ujung, Kec. Dolok sanggul, Kabupaten Humbang Hasundutan, Sumatera Utara 22457";"Jl. Merdeka, Ujung, Kec. Dolok sanggul, Kabupaten Humbang Hasundutan";"SUMATERA UTARA";"22457";"Indonesia";" 082125648799";"";"";"2.264386";"98.7623314";"https://maps.google.com/?cid=0x0:0x645ee44751cbf39";""
"supermarket";"Kafe";"Toko Lia";"7Q64+73R, Jl. Merdaka, Pasaribu, Kec. Dolok sanggul, Kabupaten Humbang Hasundutan, Sumatera Utara 22457";"Jl. Merdaka, Pasaribu, Kec. Dolok sanggul, Kabupaten Humbang Hasundutan";"SUMATERA UTARA";"22457";"Indonesia";" 085361364612";"";"";"2.2607374";"98.7551389";"https://maps.google.com/?cid=0x0:0x52e87df1993ade63";""
"supermarket";"supermarket";"Pasar Tarabintang";"6CWC+225, Tara Bintang, Kec. Tara bintang, Kabupaten Humbang Hasundutan, Sumatera Utara 22456";"Tara Bintang, Kec. Tara bintang, Kabupaten Humbang Hasundutan";"SUMATERA UTARA";"22456";"Indonesia";"";"";"";"2.2450046";"98.4201183";"https://maps.google.com/?cid=0x0:0x972d1f4a8748c5c5";""
"supermarket";"Toko";"UD Mungkur";"7C96+JJR, Sihotang Hasugian Toruan, Kec. Tara bintang, Kabupaten Humbang Hasundutan, Sumatera Utara";"Kabupaten Humbang Hasundutan, Sumatera Utara";"SUMATERA UTARA";"";"Indonesia";"";"";"";"2.2691003";"98.411506";"https://maps.google.com/?cid=0x0:0x10d840e7b44460fa";""
"supermarket";"Toko bahan makanan";"UD.TUMANGGOR MAJU";"C94W+942, Sionom Hudon Tonga, Kec. Parlilitan, Kabupaten Humbang Hasundutan, Sumatera Utara 22456";"Sionom Hudon Tonga, Kec. Parlilitan, Kabupaten Humbang Hasundutan";"SUMATERA UTARA";"22456";"Indonesia";" 081396456024";"";"";"2.4058896";"98.3952674";"https://maps.google.com/?cid=0x0:0x613859b08c99ee91";""
"supermarket";"Supermarket Industri";"Bintang Supermarket Seminyak";"Jl. Raya Seminyak No.17, Seminyak, Kec. Kuta Utara, Kabupaten Badung, Bali 80361";"Seminyak, Kec. Kuta Utara, Kabupaten Badung";"SUMATERA UTARA";"80361";"Indonesia";" 0361730552";"";"";"-8.6941736";"115.1678886";"https://maps.google.com/?cid=0x0:0x3582fbdbb0c18258";""
"supermarket";"Toko Internet";"Warung Marlina";"Jl. Gereja, Sitanduk, Kec. Tara bintang, Kabupaten Humbang Hasundutan, Sumatera Utara 22456";"Sitanduk, Kec. Tara bintang, Kabupaten Humbang Hasundutan";"SUMATERA UTARA";"22456";"Indonesia";"";"";"";"2.2869988";"98.3623936";"https://maps.google.com/?cid=0x0:0x814251bea8e23914";""
