Category;Real Category;Business Name;Address;City;State;Postal Code;Country;Phone;Email;Website;Latitude;Longitude;Map Link;Details Link
"perumahan";"Komplek perumahan";"Rumah Aljer";"79HW+JH6, Tara Bintang, Kec. Tara bintang, Kabupaten Humbang Hasundutan, Sumatera Utara 22456";"Tara Bintang, Kec. Tara bintang, Kabupaten Humbang Hasundutan";"SUMATERA UTARA";"22456";"Indonesia";"";"";"";"2.2790357";"98.3963898";"https://maps.google.com/?cid=0x0:0xa725a233921998c8";""
"komplek housing";"komplek housing";"Kec. Bakti Raja";"Kabupaten Humbang Hasundutan, Sumatera Utara";"Kabupaten Humbang Hasundutan, Sumatera Utara";"SUMATERA UTARA";"";"Indonesia";"";"";"";"2.3235404";"98.8207391";"https://maps.google.com/?cid=0x0:0x475a50a12c00c787";""
"komplek housing";"Komplek perumahan";"Sinambela kec baktiraj";"8R9G+W4M, Simangulampe, Kec. Bakti Raja, Kabupaten Humbang Hasundutan, Sumatera Utara 22457";"Simangulampe, Kec. Bakti Raja, Kabupaten Humbang Hasundutan";"SUMATERA UTARA";"22457";"Indonesia";"";"";"";"2.3198719";"98.8252718";"https://maps.google.com/?cid=0x0:0x4aae29ebc1991398";""
"komplek housing";"Komplek perumahan";"Rumah OP. Elvano Sinambela";"8R9R+944, Kec. Bakti Raja, Kabupaten Humbang Hasundutan, Sumatera Utara 22457";"Kec. Bakti Raja, Kabupaten Humbang Hasundutan";"SUMATERA UTARA";"22457";"Indonesia";"";"";"";"2.318397";"98.8403182";"https://maps.google.com/?cid=0x0:0x6712c1c6ae723143";""
"komplek housing";"Komplek perumahan";"Huta Rajagukguk";"9R3J+7XH, Tipang, Kec. Bakti Raja, Kabupaten Humbang Hasundutan, Sumatera Utara 22457";"Tipang, Kec. Bakti Raja, Kabupaten Humbang Hasundutan";"SUMATERA UTARA";"22457";"Indonesia";"";"";"";"2.3535687";"98.8331067";"https://maps.google.com/?cid=0x0:0x31259218d9675deb";""
"komplek housing";"Komplek perumahan";"Rumah Panjaitan";"8RFF+5C7 Sma negeri 1, Sinambela, Kec. Bakti Raja, Kabupaten Humbang Hasundutan, Sumatera Utara 22457";"Sinambela, Kec. Bakti Raja, Kabupaten Humbang Hasundutan";"SUMATERA UTARA";"22457";"Indonesia";"";"";"";"2.3229124";"98.8235446";"https://maps.google.com/?cid=0x0:0x8de887d4ff4b876f";""
"komplek housing";"Komplek perumahan";"Huta Kobun";"9RC7+8Q2, Tipang, Kec. Bakti Raja, Kabupaten Humbang Hasundutan, Sumatera Utara 22457";"Tipang, Kec. Bakti Raja, Kabupaten Humbang Hasundutan";"SUMATERA UTARA";"22457";"Indonesia";"";"";"";"2.3707735";"98.8144007";"https://maps.google.com/?cid=0x0:0x2dd8588a57eb47ce";""
"komplek housing";"Komplek perumahan";"Janji Nahata";"9R29+HGW, Tipang, Kec. Bakti Raja, Kabupaten Humbang Hasundutan, Sumatera Utara 22457";"Tipang, Kec. Bakti Raja, Kabupaten Humbang Hasundutan";"SUMATERA UTARA";"22457";"Indonesia";"";"";"";"2.351489";"98.818819";"https://maps.google.com/?cid=0x0:0xbd22f012d6bbd74a";""
"komplek housing";"Komplek perumahan";"Rumah Pak HM";"8R8F+XF, Sinambela, Kec. Bakti Raja, Kabupaten Humbang Hasundutan, Sumatera Utara";"Kabupaten Humbang Hasundutan, Sumatera Utara";"SUMATERA UTARA";"";"Indonesia";"";"";"";"2.3174958";"98.8237411";"https://maps.google.com/?cid=0x0:0x79fded606f92cab5";""
"komplek housing";"Komplek perumahan";"Huta Pagardari";"9R86+2QG, Tipang, Kec. Bakti Raja, Kabupaten Humbang Hasundutan, Sumatera Utara 22457";"Tipang, Kec. Bakti Raja, Kabupaten Humbang Hasundutan";"SUMATERA UTARA";"22457";"Indonesia";"";"";"";"2.3650559";"98.8119596";"https://maps.google.com/?cid=0x0:0x3241187d24760762";""
"komplek housing";"Komplek perumahan";"Irma sipahutar";"9R68+6QH, Tipang, Kec. Bakti Raja, Kabupaten Humbang Hasundutan, Sumatera Utara 22457";"Tipang, Kec. Bakti Raja, Kabupaten Humbang Hasundutan";"SUMATERA UTARA";"22457";"Indonesia";"";"";"";"2.3605715";"98.8169822";"https://maps.google.com/?cid=0x0:0x14c88de474dd3209";""
"komplek housing";"Komplek perumahan";"Rumah Rikky Lumban Gaol";"8R52+6H8, Marbun Tonga Marbun Dolok, Kec. Bakti Raja, Kabupaten Humbang Hasundutan, Sumatera Utara 22457";"Marbun Tonga Marbun Dolok, Kec. Bakti Raja, Kabupaten Humbang Hasundutan";"SUMATERA UTARA";"22457";"Indonesia";"";"";"";"2.3080368";"98.8014683";"https://maps.google.com/?cid=0x0:0x5a12a5f5a4a07d1";""
"komplek housing";"Komplek perumahan";"Rajin Sihite";"7QMV+7QH, Sosor Gonting, Kec. Dolok sanggul, Kabupaten Humbang Hasundutan, Sumatera Utara";"Kabupaten Humbang Hasundutan, Sumatera Utara";"SUMATERA UTARA";"";"Indonesia";"";"";"";"2.2831972";"98.7945028";"https://maps.google.com/?cid=0x0:0x8cc940bcafc85004";""
"komplek housing";"Komplek perumahan";"Rumah Inang Tipang";"9R87+MJP, Tipang, Kec. Bakti Raja, Kabupaten Humbang Hasundutan, Sumatera Utara 22457";"Tipang, Kec. Bakti Raja, Kabupaten Humbang Hasundutan";"SUMATERA UTARA";"22457";"Indonesia";"";"";"";"2.3674343";"98.8138917";"https://maps.google.com/?cid=0x0:0xf80223b71ce0c7e7";""
"komplek housing";"Komplek perumahan";"Parsambilan";"8R35+W2P, Siunong Unong Julu, Kec. Bakti Raja, Kabupaten Humbang Hasundutan, Sumatera Utara 22457";"Siunong Unong Julu, Kec. Bakti Raja, Kabupaten Humbang Hasundutan";"SUMATERA UTARA";"22457";"Indonesia";"";"";"";"2.3048486";"98.8075763";"https://maps.google.com/?cid=0x0:0x6c71dafac9fe1267";""
"komplek housing";"Pembangunan Perumahan";"Rumah Wakneng Losung aek";"8R86+JMW, Marbun Tonga Marbun Dolok, Kec. Bakti Raja, Kabupaten Humbang Hasundutan, Sumatera Utara 22457";"Marbun Tonga Marbun Dolok, Kec. Bakti Raja, Kabupaten Humbang Hasundutan";"SUMATERA UTARA";"22457";"Indonesia";"";"";"";"2.317271";"98.8127104";"https://maps.google.com/?cid=0x0:0xeca7c30e23a4e481";""
"komplek housing";"Komplek perumahan";"RUMAH TULANG INON";"8R34+2JR, Siunong Unong Julu, Kec. Bakti Raja, Kabupaten Humbang Hasundutan, Sumatera Utara 22457";"Siunong Unong Julu, Kec. Bakti Raja, Kabupaten Humbang Hasundutan";"SUMATERA UTARA";"22457";"Indonesia";"";"";"";"2.3027708";"98.8066264";"https://maps.google.com/?cid=0x0:0xfc4f1ccf3b6d9ff8";""
"komplek housing";"Pembangunan Perumahan";"Huta Bagasan";"Huta Bagasan, Simangulampe, Kec. Bakti Raja, Kabupaten Humbang Hasundutan, Sumatera Utara 22457";"Simangulampe, Kec. Bakti Raja, Kabupaten Humbang Hasundutan";"SUMATERA UTARA";"22457";"Indonesia";" 081361467356";"";"";"2.3188392";"98.8382604";"https://maps.google.com/?cid=0x0:0xb3423304ae58eeda";""
"komplek housing";"Komplek perumahan";"Huta parsambilan";"8R34+PCG, Siunong Unong Julu, Kec. Bakti Raja, Kabupaten Humbang Hasundutan, Sumatera Utara 22457";"Siunong Unong Julu, Kec. Bakti Raja, Kabupaten Humbang Hasundutan";"SUMATERA UTARA";"22457";"Indonesia";"";"";"";"2.3043245";"98.8060791";"https://maps.google.com/?cid=0x0:0xb9736a2b87952364";""
"komplek housing";"Komplek perumahan";"Rumah Ompung Parkadil Manalu";"9R4F+47, Tipang, Kec. Bakti Raja, Kabupaten Humbang Hasundutan, Sumatera Utara 22457";"Tipang, Kec. Bakti Raja, Kabupaten Humbang Hasundutan";"SUMATERA UTARA";"22457";"Indonesia";"";"";"";"2.3553674";"98.8230992";"https://maps.google.com/?cid=0x0:0xc26d62ac008acaf";""
"komplek housing";"Komplek perumahan";"Sosortolong";"8R23+XQJ, Siunong Unong Julu, Kec. Bakti Raja, Kabupaten Humbang Hasundutan, Sumatera Utara 22457";"Siunong Unong Julu, Kec. Bakti Raja, Kabupaten Humbang Hasundutan";"SUMATERA UTARA";"22457";"Indonesia";"";"";"";"2.3024516";"98.8043766";"https://maps.google.com/?cid=0x0:0xb9a5d2e0e9836677";""
"komplek housing";"Komplek perumahan";"Tipang Nauli";"8RX7+RC6, Tipang, Kec. Bakti Raja, Kabupaten Humbang Hasundutan, Sumatera Utara 22457";"Tipang, Kec. Bakti Raja, Kabupaten Humbang Hasundutan";"SUMATERA UTARA";"22457";"Indonesia";"";"";"";"2.3495327";"98.8135253";"https://maps.google.com/?cid=0x0:0x51950de102eb70b0";""
"komplek housing";"Komplek perumahan";"Rumah ku";"7RP7+5W, Siponjot, Kec. Lintong Nihuta, Kabupaten Humbang Hasundutan, Sumatera Utara 22457";"Siponjot, Kec. Lintong Nihuta, Kabupaten Humbang Hasundutan";"SUMATERA UTARA";"22457";"Indonesia";"";"";"";"2.2854074";"98.8148793";"https://maps.google.com/?cid=0x0:0xa1736d2f5360dc80";""
"komplek housing";"Perumahan";"Londut";"8R52+6H8, Marbun Tonga Marbun Dolok, Kec. Bakti Raja, Kabupaten Humbang Hasundutan, Sumatera Utara 22457";"Marbun Tonga Marbun Dolok, Kec. Bakti Raja, Kabupaten Humbang Hasundutan";"SUMATERA UTARA";"22457";"Indonesia";"";"";"";"2.3080333";"98.8014593";"https://maps.google.com/?cid=0x0:0x8a616affa8a37486";""
"komplek housing";"Komplek perumahan";"Rumah Kayu Lumban Gaol";"8R55+M4, Simamora, Kec. Bakti Raja, Kabupaten Humbang Hasundutan, Sumatera Utara 22457";"Simamora, Kec. Bakti Raja, Kabupaten Humbang Hasundutan";"SUMATERA UTARA";"22457";"Indonesia";"";"";"";"2.3093459";"98.8068146";"https://maps.google.com/?cid=0x0:0x3c332eb3a45b56ab";""
"komplek housing";"";"Rumah Anita";"7P2X+QCW, Lumban Tobing, Kec. Dolok sanggul, Kabupaten Humbang Hasundutan, Sumatera Utara";"Kabupaten Humbang Hasundutan, Sumatera Utara";"SUMATERA UTARA";"";"Indonesia";"";"";"";"2.251991";"98.7485729";"https://maps.google.com/?cid=0x0:0xc1d6a8a7afdb2623";""
"komplek housing";"komplek housing";"Dolok Sanggul";"Lumban Tobing, Kec. Dolok sanggul, Kabupaten Humbang Hasundutan, Sumatera Utara";"Kabupaten Humbang Hasundutan, Sumatera Utara";"SUMATERA UTARA";"";"Indonesia";"";"";"";"2.251991";"98.7485729";"https://maps.google.com/?cid=0x0:0x7f53fc623c00d824";""
"komplek housing";"Perhimpunan Pengembang Perumahan";"Basecamp";"7P2X+QCW, Lumban Tobing, Kec. Dolok sanggul, Kabupaten Humbang Hasundutan, Sumatera Utara";"Kabupaten Humbang Hasundutan, Sumatera Utara";"SUMATERA UTARA";"";"Indonesia";"";"";"";"2.251991";"98.7485729";"https://maps.google.com/?cid=0x0:0x28b7137b4c7c5616";""
"komplek housing";"Komplek perumahan";"LINTONGNIHUTA";"7VG8+JMF, Sitolu Bahal, Kec. Lintong Nihuta, Kabupaten Humbang Hasundutan, Sumatera Utara 22475";"Sitolu Bahal, Kec. Lintong Nihuta, Kabupaten Humbang Hasundutan";"SUMATERA UTARA";"22475";"Indonesia";"";"";"";"2.2765626";"98.8666821";"https://maps.google.com/?cid=0x0:0x4b6a2072a5afe24a";""
"komplek housing";"komplek housing";"Sumatera Utara 22475";"Sumatera Utara";"Sumatera Utara";"SUMATERA UTARA";"";"Indonesia";"";"";"";"2.2166172";"98.8583309";"https://maps.google.com/?cid=0x0:0x3a0c9f067ea87dcb";""
"komplek housing";"Komplek perumahan";"Sihombing House";"7V9W+6J9, Siharjulu, Kec. Lintong Nihuta, Kabupaten Humbang Hasundutan, Sumatera Utara 22475";"Siharjulu, Kec. Lintong Nihuta, Kabupaten Humbang Hasundutan";"SUMATERA UTARA";"22475";"Indonesia";"";"";"";"2.2680252";"98.896606";"https://maps.google.com/?cid=0x0:0xc193c998f17cbe13";""
"komplek housing";"Komplek perumahan";"Rumah Radi";"6V93+2M9, Lobutua, Kec. Lintong Nihuta, Kabupaten Humbang Hasundutan, Sumatera Utara 22475";"Lobutua, Kec. Lintong Nihuta, Kabupaten Humbang Hasundutan";"SUMATERA UTARA";"22475";"Indonesia";"";"";"";"2.2175398";"98.8542455";"https://maps.google.com/?cid=0x0:0x9ccf00797309ba9b";""
"komplek housing";"Komplek perumahan";"Pasar lama";"7VF7+654, Sitolu Bahal, Kec. Lintong Nihuta, Kabupaten Humbang Hasundutan, Sumatera Utara 22475";"Sitolu Bahal, Kec. Lintong Nihuta, Kabupaten Humbang Hasundutan";"SUMATERA UTARA";"22475";"Indonesia";"";"";"";"2.2730071";"98.8629499";"https://maps.google.com/?cid=0x0:0x31f1fb88d5a14d80";""
"komplek housing";"Komplek perumahan";"Rumah Githa n cla";"7VCH+PG, Pargaulan, Kec. Lintong Nihuta, Kabupaten Humbang Hasundutan, Sumatera Utara";"Kabupaten Humbang Hasundutan, Sumatera Utara";"SUMATERA UTARA";"";"Indonesia";"";"";"";"2.272179";"98.879018";"https://maps.google.com/?cid=0x0:0x2726918d01f2489";""
"komplek housing";"Komplek perumahan";"HomeStay A.Samuel Nababan";"7W47+5JG, Nagasaribu V, Kec. Lintong Nihuta, Kabupaten Humbang Hasundutan, Sumatera Utara 22475";"Nagasaribu V, Kec. Lintong Nihuta, Kabupaten Humbang Hasundutan";"SUMATERA UTARA";"22475";"Indonesia";"";"";"";"2.255432";"98.9140846";"https://maps.google.com/?cid=0x0:0xa639898c3d1e20c3";""
"komplek housing";"Komplek perumahan";"Rumah Putry";"7W43+VX6, Jl. Damai, Nagasaribu I, Kec. Lintong Nihuta, Kabupaten Humbang Hasundutan, Sumatera Utara 22475";"Jl. Damai, Nagasaribu I, Kec. Lintong Nihuta, Kabupaten Humbang Hasundutan";"SUMATERA UTARA";"22475";"Indonesia";" 082211820872";"";"";"2.2571593";"98.9048954";"https://maps.google.com/?cid=0x0:0x2e8e33fd735fc538";""
"komplek housing";"Komplek perumahan";"Huta Lumban Lobu";"7W3C+RJQ, Nagasaribu V, Kec. Lintong Nihuta, Kabupaten Humbang Hasundutan, Sumatera Utara 22475";"Nagasaribu V, Kec. Lintong Nihuta, Kabupaten Humbang Hasundutan";"SUMATERA UTARA";"22475";"Indonesia";"";"";"";"2.2545752";"98.921613";"https://maps.google.com/?cid=0x0:0xbcb7cd84a2769366";""
"komplek housing";"Komplek perumahan";"Kamp. Sibatu-Batu";"7W24+W6J, Sibatu-Batu, Kec. Lintong Nihuta, Kabupaten Humbang Hasundutan, Sumatera Utara 22475";"Sibatu-Batu, Kec. Lintong Nihuta, Kabupaten Humbang Hasundutan";"SUMATERA UTARA";"22475";"Indonesia";"";"";"";"2.2523447";"98.9055208";"https://maps.google.com/?cid=0x0:0x18ea71183764dd3c";""
"komplek housing";"Komplek perumahan";"Selamat Datang di Lintong Nihuta";"Jl. Sisingamangaraja No.16-10, Pargaulan, Kec. Lintong Nihuta, Kabupaten Humbang Hasundutan, Sumatera Utara 22475";"Pargaulan, Kec. Lintong Nihuta, Kabupaten Humbang Hasundutan";"SUMATERA UTARA";"22475";"Indonesia";"";"";"";"2.2626155";"98.8620752";"https://maps.google.com/?cid=0x0:0x6c1a1eeb55f2ee6d";""
"komplek housing";"Pembangunan Perumahan";"Tambunan's fam";"6V6H+2HM, Bonan Dolok, Kec. Lintong Nihuta, Kabupaten Humbang Hasundutan, Sumatera Utara 22475";"Bonan Dolok, Kec. Lintong Nihuta, Kabupaten Humbang Hasundutan";"SUMATERA UTARA";"22475";"Indonesia";"";"";"";"2.2100948";"98.8789202";"https://maps.google.com/?cid=0x0:0xe8595e3bdba28cbe";""
"komplek housing";"Pembangunan Perumahan";"Lumbanpea";"7VGG+65G, Pargaulan, Kec. Lintong Nihuta, Kabupaten Humbang Hasundutan, Sumatera Utara 22475";"Pargaulan, Kec. Lintong Nihuta, Kabupaten Humbang Hasundutan";"SUMATERA UTARA";"22475";"Indonesia";"";"";"";"2.2755211";"98.8755137";"https://maps.google.com/?cid=0x0:0x93d504d2f5ab543e";""
"komplek housing";"Perhimpunan Pengembang Perumahan";"Rumah Op.Tasya";"7R7W+HFP, Tapian Nauli, Kec. Lintong Nihuta, Kabupaten Humbang Hasundutan, Sumatera Utara 22475";"Tapian Nauli, Kec. Lintong Nihuta, Kabupaten Humbang Hasundutan";"SUMATERA UTARA";"22475";"Indonesia";"";"";"";"2.2641702";"98.8459186";"https://maps.google.com/?cid=0x0:0x61c957fa1cf0606e";""
"komplek housing";"Komplek perumahan";"Rumah Daud Lumbantoruan";"6VG3+P2H, Lobutua, Kec. Lintong Nihuta, Kabupaten Humbang Hasundutan, Sumatera Utara 22475";"Lobutua, Kec. Lintong Nihuta, Kabupaten Humbang Hasundutan";"SUMATERA UTARA";"22475";"Indonesia";"";"";"";"2.2268176";"98.8526225";"https://maps.google.com/?cid=0x0:0xc6949bfd8f1ca6d";""
"komplek housing";"Komplek perumahan";"Lumban Sianturi";"6RJR+XVV, Hutasoit I, Kec. Lintong Nihuta, Kabupaten Humbang Hasundutan, Sumatera Utara 22475";"Hutasoit I, Kec. Lintong Nihuta, Kabupaten Humbang Hasundutan";"SUMATERA UTARA";"22475";"Indonesia";"";"";"";"2.2324939";"98.8421659";"https://maps.google.com/?cid=0x0:0xddc719ff4de2bf16";""
"komplek housing";"Pembangunan Perumahan";"Sihotang";"Jl. Sekolah No.12, Tapian Nauli, Kec. Lintong Nihuta, Kabupaten Humbang Hasundutan, Sumatera Utara 22475";"Tapian Nauli, Kec. Lintong Nihuta, Kabupaten Humbang Hasundutan";"SUMATERA UTARA";"22475";"Indonesia";"";"";"";"2.2667168";"98.859248";"https://maps.google.com/?cid=0x0:0xd1bbce7da20cd006";""
"komplek housing";"Perhimpunan Pengembang Perumahan";"Rumah Tempat Tinggal A.Monang Sinaga";"7VGG+PW2, Siharjulu, Kec. Lintong Nihuta, Kabupaten Humbang Hasundutan, Sumatera Utara";"Kabupaten Humbang Hasundutan, Sumatera Utara";"SUMATERA UTARA";"";"Indonesia";"";"";"";"2.2767712";"98.8772586";"https://maps.google.com/?cid=0x0:0xa1400aa664e052";""
"komplek housing";"Pembangunan Perumahan";"Huta Lumban Julu Hariara Desa Pargaulan";"7V4G+4VG, Huta Lumhan Julu Hariara, Desa, Pargaulan, Kec. Lintong Nihuta, Kabupaten Humbang Hasundutan, Sumatera Utara 22475";"Huta Lumhan Julu Hariara, Desa, Pargaulan, Kec. Lintong Nihuta, Kabupaten Humbang Hasundutan";"SUMATERA UTARA";"22475";"Indonesia";"";"";"";"2.2553216";"98.8771898";"https://maps.google.com/?cid=0x0:0xa16a0c0da03e6f2e";""
"komplek housing";"Pembangunan Perumahan";"LUMBAN PARSAORAN";"6WV7+MH3, Jl. Lintas Barat Sumatera, Nagasaribu II, Kec. Lintong Nihuta, Kabupaten Humbang Hasundutan, Sumatera Utara 22475";"Jl. Lintas Barat Sumatera, Nagasaribu II, Kec. Lintong Nihuta, Kabupaten Humbang Hasundutan";"SUMATERA UTARA";"22475";"Indonesia";"";"";"";"2.2441409";"98.9139069";"https://maps.google.com/?cid=0x0:0x88ddc577c4566876";""
"komplek housing";"komplek housing";"Kec. Lintong Nihuta";"Kabupaten Humbang Hasundutan, Sumatera Utara";"Kabupaten Humbang Hasundutan, Sumatera Utara";"SUMATERA UTARA";"";"Indonesia";"";"";"";"2.2725575";"98.8627702";"https://maps.google.com/?cid=0x0:0x4039d80b2211060";""
"komplek housing";"Komplek perumahan";"Op. Hans Home";"7VRH+JVX, Sigumpar, Kec. Lintong Nihuta, Kabupaten Humbang Hasundutan, Sumatera Utara 22475";"Sigumpar, Kec. Lintong Nihuta, Kabupaten Humbang Hasundutan";"SUMATERA UTARA";"22475";"Indonesia";"";"";"";"2.291615";"98.8797272";"https://maps.google.com/?cid=0x0:0x9b4a4b8171fd6353";""
"komplek housing";"Komplek perumahan";"LUMBAN SITIOMA";"7VQ9+97G, Jl. Siswa, Parulohan, Kec. Lintong Nihuta, Kabupaten Humbang Hasundutan, Sumatera Utara 22475";"Jl. Siswa, Parulohan, Kec. Lintong Nihuta, Kabupaten Humbang Hasundutan";"SUMATERA UTARA";"22475";"Indonesia";"";"";"";"2.2871832";"98.867947";"https://maps.google.com/?cid=0x0:0xf316b5bc94325bcc";""
"komplek housing";"Komplek perumahan";"Mauli Lumbantoruan";"6VH2+6F2, Lobutua, Kec. Lintong Nihuta, Kabupaten Humbang Hasundutan, Sumatera Utara 22475";"Lobutua, Kec. Lintong Nihuta, Kabupaten Humbang Hasundutan";"SUMATERA UTARA";"22475";"Indonesia";"";"";"";"2.228017";"98.8511323";"https://maps.google.com/?cid=0x0:0x936fb2b5c02c7fe5";""
"komplek housing";"Komplek perumahan";"Lumban Hasiholan";"7R26+QJV Lumban Hasiholan, Dolok Margu, Kec. Lintong Nihuta, Kabupaten Humbang Hasundutan, Sumatera Utara 22475";"Dolok Margu, Kec. Lintong Nihuta, Kabupaten Humbang Hasundutan";"SUMATERA UTARA";"22475";"Indonesia";"";"";"";"2.2519989";"98.8115436";"https://maps.google.com/?cid=0x0:0x82fdbb7be94cab4c";""
"komplek housing";"komplek housing";"Sumatera Utara 22454";"Kec. Onan Ganjang, Kabupaten Humbang Hasundutan, Sumatera Utara";"Kabupaten Humbang Hasundutan, Sumatera Utara";"SUMATERA UTARA";"";"Indonesia";"";"";"";"2.1012986";"98.6380598";"https://maps.google.com/?cid=0x0:0xdafd4c9542e995db";""
"komplek housing";"komplek housing";"Coffee Hotel Ayola Dolok Sanggul";"Jl. Dolok Sanggul - Siborong - Borong, Pakkat, Kec. Dolok sanggul, Kabupaten Humbang Hasundutan, Sumatera Utara 22457";"Pakkat, Kec. Dolok sanggul, Kabupaten Humbang Hasundutan";"SUMATERA UTARA";"22457";"Indonesia";" 06333211396";"";"";"2.2608434";"98.7903237";"https://maps.google.com/?cid=0x0:0xbc95c1f2fbec6208";""
"komplek housing";"Pembangunan Perumahan";"Op. Jenitha Banjar Nahor/Br. Silaban";"5J5W+X8H, Sihikkit, Kec. Onan Ganjang, Kabupaten Humbang Hasundutan, Sumatera Utara 22454";"Sihikkit, Kec. Onan Ganjang, Kabupaten Humbang Hasundutan";"SUMATERA UTARA";"22454";"Indonesia";" 085372616324";"";"";"2.1599279";"98.6458646";"https://maps.google.com/?cid=0x0:0x5b8ec243df7a6d9c";""
"komplek housing";"Komplek perumahan";"Rumah sam";"Jl. Pakkat - Dolok Sanggul No.35, Onan Ganjang, Kec. Onan Ganjang, Kabupaten Humbang Hasundutan, Sumatera Utara 22454";"Onan Ganjang, Kec. Onan Ganjang, Kabupaten Humbang Hasundutan";"SUMATERA UTARA";"22454";"Indonesia";"";"";"";"2.159636";"98.630281";"https://maps.google.com/?cid=0x0:0x571426fc80715a44";""
"komplek housing";"komplek housing";"Hutajulu";"4MX3+35, Hutajulu, Kec. Onan Ganjang, Kabupaten Humbang Hasundutan, Sumatera Utara 22454";"Hutajulu, Kec. Onan Ganjang, Kabupaten Humbang Hasundutan";"SUMATERA UTARA";"22454";"Indonesia";"";"";"";"2.147657";"98.6528844";"https://maps.google.com/?cid=0x0:0x6fc3369ab41300ff";""
"komplek housing";"komplek housing";"Kec. Onan Ganjang";"Kabupaten Humbang Hasundutan, Sumatera Utara";"Kabupaten Humbang Hasundutan, Sumatera Utara";"SUMATERA UTARA";"";"Indonesia";"";"";"";"2.1547734";"98.6295724";"https://maps.google.com/?cid=0x0:0xdce7ed5f2d2ccaa1";""
"komplek housing";"Komplek perumahan";"Rolensius Sitorus Pane";"4JP2+RX8, Jl. Pakkat - Dolok Sanggul, Parbotihan, Kec. Onan Ganjang, Kabupaten Humbang Hasundutan, Sumatera Utara 22454";"Jl. Pakkat - Dolok Sanggul, Parbotihan, Kec. Onan Ganjang, Kabupaten Humbang Hasundutan";"SUMATERA UTARA";"22454";"Indonesia";"";"";"";"2.137072";"98.602477";"https://maps.google.com/?cid=0x0:0xf4020fc64ec16e17";""
"komplek housing";"Pusat Perbelanjaan";"Simpang Tiga Parbotihan";"4HQX+CXX, Parbotihan, Kec. Onan Ganjang, Kabupaten Humbang Hasundutan, Sumatera Utara 22454";"Parbotihan, Kec. Onan Ganjang, Kabupaten Humbang Hasundutan";"SUMATERA UTARA";"22454";"Indonesia";"";"";"";"2.1386149";"98.5999888";"https://maps.google.com/?cid=0x0:0xf7ddb6e51ba5014d";""
"komplek housing";"komplek housing";"Tio Linar Sihotang";"4FWF+3C2, Pakkat Hauagong, Kec. Pakkat, Kabupaten Humbang Hasundutan, Sumatera Utara";"Kabupaten Humbang Hasundutan, Sumatera Utara";"SUMATERA UTARA";"";"Indonesia";"";"";"";"2.145129";"98.473518";"https://maps.google.com/?cid=0x0:0x99eb02253d9347a7";""
"komplek housing";"komplek housing";"Pakkat";"Pakkat Hauagong, Kec. Pakkat, Kabupaten Humbang Hasundutan, Sumatera Utara";"Kabupaten Humbang Hasundutan, Sumatera Utara";"SUMATERA UTARA";"";"Indonesia";"";"";"";"2.145129";"98.473518";"https://maps.google.com/?cid=0x0:0xd970ca7c81a5c728";""
"komplek housing";"Komplek perumahan";"Rumah yohan";"4FVF+WW9, Gang Sehat, Pakkat Hauagong, Kec. Pakkat, Kabupaten Humbang Hasundutan, Sumatera Utara";"Kabupaten Humbang Hasundutan, Sumatera Utara";"SUMATERA UTARA";"";"Indonesia";"";"";"";"2.144785";"98.4748567";"https://maps.google.com/?cid=0x0:0xaa7c2d2536f33713";""
"komplek housing";"Pembangunan Perumahan";"Rumah carolina";"4FVF+RR7, Pakkat Hauagong, Kec. Pakkat, Kabupaten Humbang Hasundutan, Sumatera Utara 22455";"Pakkat Hauagong, Kec. Pakkat, Kabupaten Humbang Hasundutan";"SUMATERA UTARA";"22455";"Indonesia";"";"";"";"2.1445398";"98.4745433";"https://maps.google.com/?cid=0x0:0xce6558ee6423746e";""
"komplek housing";"komplek housing";"Kec. Menteng";"Kota Jakarta Pusat, Daerah Khusus Ibukota Jakarta";"Kota Jakarta Pusat, Daerah Khusus Ibukota Jakarta";"SUMATERA UTARA";"";"Indonesia";"";"";"";"-6.1937297";"106.8392111";"https://maps.google.com/?cid=0x0:0x3e389ed39c2f9bb4";""
"komplek housing";"Pembangunan Perumahan";"LOBUTOLONG PUSAT";"7WP5+F8W, Lobu Tolong, Kec. Paranginan, Kabupaten Humbang Hasundutan, Sumatera Utara 22475";"Lobu Tolong, Kec. Paranginan, Kabupaten Humbang Hasundutan";"SUMATERA UTARA";"22475";"Indonesia";"";"";"";"2.2862408";"98.9083232";"https://maps.google.com/?cid=0x0:0x252ad037ffa2bad3";""
"komplek housing";"komplek housing";"Kec. Paranginan";"Kabupaten Humbang Hasundutan, Sumatera Utara";"Kabupaten Humbang Hasundutan, Sumatera Utara";"SUMATERA UTARA";"";"Indonesia";"";"";"";"2.3016854";"98.9270035";"https://maps.google.com/?cid=0x0:0x690416ecba08580d";""
"komplek housing";"Pembangunan Perumahan";"Dolok Nagodang";"7XG6+J9P, Paranginan Sel., Kec. Paranginan, Kabupaten Humbang Hasundutan, Sumatera Utara 22476";"Paranginan Sel., Kec. Paranginan, Kabupaten Humbang Hasundutan";"SUMATERA UTARA";"22476";"Indonesia";"";"";"";"2.2765948";"98.9609421";"https://maps.google.com/?cid=0x0:0x23e2c051cce325d7";""
"komplek housing";"Pembangunan Perumahan";"Lumban Pinasu";"7XX6+853, Jl. Huta Ginjang, Paranginan Sel., Kec. Paranginan, Kabupaten Humbang Hasundutan, Sumatera Utara 22476";"Jl. Huta Ginjang, Paranginan Sel., Kec. Paranginan, Kabupaten Humbang Hasundutan";"SUMATERA UTARA";"22476";"Indonesia";"";"";"";"2.2983454";"98.9610562";"https://maps.google.com/?cid=0x0:0x37f29e6f039dbf5b";""
"komplek housing";"komplek housing";"Rumah huni";"7WVR+9M, Lumban Bar., Kec. Paranginan, Kabupaten Humbang Hasundutan, Sumatera Utara";"Kabupaten Humbang Hasundutan, Sumatera Utara";"SUMATERA UTARA";"";"Indonesia";"";"";"";"2.293383";"98.941683";"https://maps.google.com/?cid=0x0:0x41edd117d7ea1047";""
"komplek housing";"Komplek perumahan";"DIAN SIBURIAN HOUSE";"7WRF+P7V, Lobutolong Habinsaran, Kec. Paranginan, Kabupaten Humbang Hasundutan, Sumatera Utara";"Kabupaten Humbang Hasundutan, Sumatera Utara";"SUMATERA UTARA";"";"Indonesia";"";"";"";"2.2918668";"98.9231669";"https://maps.google.com/?cid=0x0:0x370443beb36bdd8d";""
"komplek housing";"Komplek perumahan";"Op Winda's home";"7WRM+RJX, Jl. Sisingamangaraja, Lumban Bar., Kec. Paranginan, Kabupaten Humbang Hasundutan, Sumatera Utara 22476";"Jl. Sisingamangaraja, Lumban Bar., Kec. Paranginan, Kabupaten Humbang Hasundutan";"SUMATERA UTARA";"22476";"Indonesia";"";"";"";"2.292125";"98.9341009";"https://maps.google.com/?cid=0x0:0x92af3d5705a80cc2";""
"komplek housing";"Komplek perumahan";"Op. Immanuel";"7XP5+CFM, Jl. Raya Muara, Siborutorup, Kec. Paranginan, Kabupaten Humbang Hasundutan, Sumatera Utara 22476";"Jl. Raya Muara, Siborutorup, Kec. Paranginan, Kabupaten Humbang Hasundutan";"SUMATERA UTARA";"22476";"Indonesia";"";"";"";"2.286087";"98.9586767";"https://maps.google.com/?cid=0x0:0x57d154603eec40be";""
"komplek housing";"Komplek perumahan";"Huta Hariara";"8W4M+57, Sihonongan, Kec. Paranginan, Kabupaten Humbang Hasundutan, Sumatera Utara";"Kabupaten Humbang Hasundutan, Sumatera Utara";"SUMATERA UTARA";"";"Indonesia";"";"";"";"2.3054515";"98.9332058";"https://maps.google.com/?cid=0x0:0x194c47665026112a";""
"komplek housing";"Komplek perumahan";"Rumah Pak TG";"7WP5+HCG, Jl. Simataniari, Lobu Tolong, Kec. Paranginan, Kabupaten Humbang Hasundutan, Sumatera Utara 22475";"Jl. Simataniari, Lobu Tolong, Kec. Paranginan, Kabupaten Humbang Hasundutan";"SUMATERA UTARA";"22475";"Indonesia";"";"";"";"2.2864281";"98.9085713";"https://maps.google.com/?cid=0x0:0xb81ab0cdbae1bd91";""
"komplek housing";"Komplek perumahan";"Lumban sihonongan";"7W8J+FGV, Lumban Sialaman, Kec. Paranginan, Kabupaten Humbang Hasundutan, Sumatera Utara";"Kabupaten Humbang Hasundutan, Sumatera Utara";"SUMATERA UTARA";"";"Indonesia";"";"";"";"2.2662338";"98.9313053";"https://maps.google.com/?cid=0x0:0x675c7d5b4211b311";""
"komplek housing";"Komplek perumahan";"Perkampungan Op.Taruli Siburian";"7WVF+J83, Lumban Bar., Kec. Paranginan, Kabupaten Humbang Hasundutan, Sumatera Utara";"Kabupaten Humbang Hasundutan, Sumatera Utara";"SUMATERA UTARA";"";"Indonesia";"";"";"";"2.2940133";"98.9232846";"https://maps.google.com/?cid=0x0:0xa2171907666165d8";""
"komplek housing";"Komplek perumahan";"Fransen Home";"8V4X+874, Janjimatogu, Pearung Silali, Kabupaten Humbang Hasundutan, Sumatera Utara";"Kabupaten Humbang Hasundutan, Sumatera Utara";"SUMATERA UTARA";"";"Indonesia";"";"";"";"2.3057513";"98.8981905";"https://maps.google.com/?cid=0x0:0x976751f840d58dda";""
"komplek housing";"Komplek perumahan";"R. Siburian / Br Sidabutar";"8W2J+6M3, Sihonongan, Kec. Paranginan, Kabupaten Humbang Hasundutan, Sumatera Utara 22476";"Sihonongan, Kec. Paranginan, Kabupaten Humbang Hasundutan";"SUMATERA UTARA";"22476";"Indonesia";"";"";"";"2.3005215";"98.9316712";"https://maps.google.com/?cid=0x0:0x4ecfea89817b53c2";""
"komplek housing";"Komplek perumahan";"Huta pomparan OP soalopoan";"8W6C+FP2, Dusun 4, Paranginan Utara, Kec. Paranginan, Kabupaten Humbang Hasundutan, Sumatera Utara 22476";"Dusun 4, Paranginan Utara, Kec. Paranginan, Kabupaten Humbang Hasundutan";"SUMATERA UTARA";"22476";"Indonesia";"";"";"";"2.3111471";"98.9217747";"https://maps.google.com/?cid=0x0:0x1e2b161d0f440198";""
"komplek housing";"Komplek perumahan";"HomeStay A.Samuel Nababan";"7W47+5JG, Nagasaribu V, Kec. Lintong Nihuta, Kabupaten Humbang Hasundutan, Sumatera Utara 22475";"Nagasaribu V, Kec. Lintong Nihuta, Kabupaten Humbang Hasundutan";"SUMATERA UTARA";"22475";"Indonesia";"";"";"";"2.255432";"98.9140846";"https://maps.google.com/?cid=0x0:0xa639898c3d1e20c3";""
"komplek housing";"Pembangunan Perumahan";"Parhutaan St. Williater Siantur";"7XV4+FJ5, Jl. Raya Muara, Paranginan Sel., Kec. Paranginan, Kabupaten Humbang Hasundutan, Sumatera Utara 22476";"Jl. Raya Muara, Paranginan Sel., Kec. Paranginan, Kabupaten Humbang Hasundutan";"SUMATERA UTARA";"22476";"Indonesia";"";"";"";"2.2936414";"98.9566243";"https://maps.google.com/?cid=0x0:0x25a890ae16f6338a";""
"komplek housing";"Komplek perumahan";"Lumban Silo - Tempat Temanku Yang Berharga";"8V7R+Q9H, Unnamed Road, Pearung, Paranginan, Humbang Hasundutan Regency, North Sumatra 22476";"Unnamed Road, Pearung, Paranginan, Humbang Hasundutan Regency";"SUMATERA UTARA";"22476";"Indonesia";"";"";"";"2.3144343";"98.8909819";"https://maps.google.com/?cid=0x0:0x43b8c3b7b8b19581";""
"komplek housing";"Perumahan";"Dippu";"7WQ3+XM2, Jl. Sisingamangaraja, Lobu Tolong, Kec. Paranginan, Kabupaten Humbang Hasundutan, Sumatera Utara 22475";"Jl. Sisingamangaraja, Lobu Tolong, Kec. Paranginan, Kabupaten Humbang Hasundutan";"SUMATERA UTARA";"22475";"Indonesia";"";"";"";"2.2898987";"98.9041524";"https://maps.google.com/?cid=0x0:0x9241867a60e57a0d";""
"komplek housing";"Petugas Perbatasan";"Batas Tugu Humbang Hasundutan Tapanuli Utara";"7XM6+QF, Siborutorup, Kec. Paranginan, Kabupaten Humbang Hasundutan, Sumatera Utara 22476";"Siborutorup, Kec. Paranginan, Kabupaten Humbang Hasundutan";"SUMATERA UTARA";"22476";"Indonesia";"";"";"";"2.2844029";"98.9615363";"https://maps.google.com/?cid=0x0:0x13249b2e7c7b3cbf";""
"komplek housing";"Komplek perumahan";"Rohadin Sianturi";"8V6W+885, Pearung Silali, Kec. Paranginan, Kabupaten Humbang Hasundutan, Sumatera Utara 22476";"Pearung Silali, Kec. Paranginan, Kabupaten Humbang Hasundutan";"SUMATERA UTARA";"22476";"Indonesia";"";"";"";"2.3101764";"98.8968302";"https://maps.google.com/?cid=0x0:0x27a62e4e4f08c441";""
"komplek housing";"Komplek perumahan";"Rumah Putry";"7W43+VX6, Jl. Damai, Nagasaribu I, Kec. Lintong Nihuta, Kabupaten Humbang Hasundutan, Sumatera Utara 22475";"Jl. Damai, Nagasaribu I, Kec. Lintong Nihuta, Kabupaten Humbang Hasundutan";"SUMATERA UTARA";"22475";"Indonesia";" 082211820872";"";"";"2.2571593";"98.9048954";"https://maps.google.com/?cid=0x0:0x2e8e33fd735fc538";""
"komplek housing";"Komplek perumahan";"Sihombing House";"7V9W+6J9, Siharjulu, Kec. Lintong Nihuta, Kabupaten Humbang Hasundutan, Sumatera Utara 22475";"Siharjulu, Kec. Lintong Nihuta, Kabupaten Humbang Hasundutan";"SUMATERA UTARA";"22475";"Indonesia";"";"";"";"2.2680252";"98.896606";"https://maps.google.com/?cid=0x0:0xc193c998f17cbe13";""
"komplek housing";"Komplek perumahan";"Rumah Sianturi/Br.Sinaga";"Jl. Sisingamangaraja No.100, Lobu Tolong, Kec. Paranginan, Kabupaten Humbang Hasundutan, Sumatera Utara 22475";"Lobu Tolong, Kec. Paranginan, Kabupaten Humbang Hasundutan";"SUMATERA UTARA";"22475";"Indonesia";"";"";"";"2.2908468";"98.9161268";"https://maps.google.com/?cid=0x0:0x4ae463d8a9343b8";""
"komplek housing";"Komplek perumahan";"SIANIPAR FAMILY'S";"7WGG+62X, Lumban Bar., Kec. Paranginan, Kabupaten Humbang Hasundutan, Sumatera Utara 22475";"Lumban Bar., Kec. Paranginan, Kabupaten Humbang Hasundutan";"SUMATERA UTARA";"22475";"Indonesia";"";"";"";"2.2756141";"98.9251019";"https://maps.google.com/?cid=0x0:0xad00e61a0b961c83";""
"komplek housing";"Perumahan";"Sibuntuon 1";"7WG6+XP6, Lobutolong Habinsaran, Kec. Paranginan, Kabupaten Humbang Hasundutan, Sumatera Utara 22475";"Lobutolong Habinsaran, Kec. Paranginan, Kabupaten Humbang Hasundutan";"SUMATERA UTARA";"22475";"Indonesia";"";"";"";"2.2774112";"98.9117672";"https://maps.google.com/?cid=0x0:0xc943abec33136123";""
"komplek housing";"Kompleks Apartemen";"Hutagur gur dolok";"7W46+X77, Nagasaribu V, Kec. Lintong Nihuta, Kabupaten Humbang Hasundutan, Sumatera Utara 22475";"Nagasaribu V, Kec. Lintong Nihuta, Kabupaten Humbang Hasundutan";"SUMATERA UTARA";"22475";"Indonesia";"";"";"";"2.2574073";"98.9106565";"https://maps.google.com/?cid=0x0:0xe4c6234752da2da5";""
"komplek housing";"Komplek perumahan";"AW. Gopas Sianturi";"7W6P+V85, Lumban Sianturi, Kec. Paranginan, Kabupaten Humbang Hasundutan, Sumatera Utara 22475";"Lumban Sianturi, Kec. Paranginan, Kabupaten Humbang Hasundutan";"SUMATERA UTARA";"22475";"Indonesia";" 081260576150";"";"";"2.262142";"98.9358722";"https://maps.google.com/?cid=0x0:0x29dca6d5f006cf9f";""
"komplek housing";"Pembangunan Perumahan";"Op. Rachel Siburian";"7W9H+3PV, Lumban Sialaman, Kec. Paranginan, Kabupaten Humbang Hasundutan, Sumatera Utara 22475";"Lumban Sialaman, Kec. Paranginan, Kabupaten Humbang Hasundutan";"SUMATERA UTARA";"22475";"Indonesia";"";"";"";"2.2677358";"98.9293112";"https://maps.google.com/?cid=0x0:0x6d178a8d28cef743";""
"komplek housing";"Kantor Pemerintah";"Parlilitan";"8F94+5RJ, Sihotang Hasugian Tonga, Kec. Parlilitan, Kabupaten Humbang Hasundutan, Sumatera Utara 22456";"Sihotang Hasugian Tonga, Kec. Parlilitan, Kabupaten Humbang Hasundutan";"SUMATERA UTARA";"22456";"Indonesia";"";"";"";"2.3179599";"98.457001";"https://maps.google.com/?cid=0x0:0xd9cb5a854a0ad4d4";""
"komplek housing";"Kantor Polisi Lalu Lintas";"Polsek Parlilitan";"8FF4+9P7, Sihotang Hasugian Tonga, Kec. Parlilitan, Kabupaten Humbang Hasundutan, Sumatera Utara 22456";"Sihotang Hasugian Tonga, Kec. Parlilitan, Kabupaten Humbang Hasundutan";"SUMATERA UTARA";"22456";"Indonesia";"";"";"";"2.3234056";"98.4568112";"https://maps.google.com/?cid=0x0:0x48eae2c2e7b370ba";""
"komplek housing";"komplek housing";"Parlilitan";"Sihotang Hasugian Tonga, Kec. Parlilitan, Kabupaten Humbang Hasundutan, Sumatera Utara";"Kabupaten Humbang Hasundutan, Sumatera Utara";"SUMATERA UTARA";"";"Indonesia";"";"";"";"2.3179599";"98.457001";"https://maps.google.com/?cid=0x0:0xb3282a468af9977";""
"komplek housing";"komplek housing";"Sumatera Utara 22457";"Kabupaten Humbang Hasundutan, Sumatera Utara";"Kabupaten Humbang Hasundutan, Sumatera Utara";"SUMATERA UTARA";"";"Indonesia";"";"";"";"2.2174078";"98.7260927";"https://maps.google.com/?cid=0x0:0xfc492d8c933a9bef";""
"komplek housing";"Komplek perumahan";"Huta Bolon Pollung";"8PPM+MXG, Parsingguran I, Kec. Pollung, Kabupaten Humbang Hasundutan, Sumatera Utara 22457";"Parsingguran I, Kec. Pollung, Kabupaten Humbang Hasundutan";"SUMATERA UTARA";"22457";"Indonesia";"";"";"";"2.3366756";"98.7349662";"https://maps.google.com/?cid=0x0:0x4b37127f2bdb519c";""
"komplek housing";"Pembangunan Perumahan";"Oppung Pasuo LG";"8P86+FG8, Aek Nauli II, Kec. Pollung, Kabupaten Humbang Hasundutan, Sumatera Utara 22457";"Aek Nauli II, Kec. Pollung, Kabupaten Humbang Hasundutan";"SUMATERA UTARA";"22457";"Indonesia";"";"";"";"2.3164908";"98.7116439";"https://maps.google.com/?cid=0x0:0x6e1e1b0408597bfc";""
"komplek housing";"Perumahan";"Rumah op kalep";"8M5P+G73, Jl,pandumaan, Aek Nauli II, Kec. Pollung, Kabupaten Humbang Hasundutan, Sumatera Utara 22457";"Jl,pandumaan, Aek Nauli II, Kec. Pollung, Kabupaten Humbang Hasundutan";"SUMATERA UTARA";"22457";"Indonesia";"";"";"";"2.3087616";"98.6856617";"https://maps.google.com/?cid=0x0:0xbc948325b95b82b9";""
"komplek housing";"Komplek perumahan";"Nagatimbul";"7MVV+FQ7, Jl. Dolok Sanggul-Pollung, Aek Nauli II, Kec. Pollung, Kabupaten Humbang Hasundutan, Sumatera Utara 22457";"Jl. Dolok Sanggul-Pollung, Aek Nauli II, Kec. Pollung, Kabupaten Humbang Hasundutan";"SUMATERA UTARA";"22457";"Indonesia";"";"";"";"2.2936552";"98.6944305";"https://maps.google.com/?cid=0x0:0x20d0d96443055230";""
"komplek housing";"Komplek perumahan";"Kompleks Pasar Habinsaran Op.Barita Oloan Sihite";"Jl. Pakkat - Dolok Sanggul No.6, Lumban Tobing, Kec. Dolok sanggul, Kabupaten Humbang Hasundutan, Sumatera Utara 22457";"Lumban Tobing, Kec. Dolok sanggul, Kabupaten Humbang Hasundutan";"SUMATERA UTARA";"22457";"Indonesia";"";"";"";"2.2582592";"98.7408853";"https://maps.google.com/?cid=0x0:0x31115e638f3caf13";""
"komplek housing";"Komplek perumahan";"Kompleks Gonting Permai Doloksanggul";"Jl. Lintas Barat Sumatera, Sosor Gonting, Kec. Dolok sanggul, Kabupaten Humbang Hasundutan, Sumatera Utara 22457";"Sosor Gonting, Kec. Dolok sanggul, Kabupaten Humbang Hasundutan";"SUMATERA UTARA";"22457";"Indonesia";"";"";"";"2.2688578";"98.7782537";"https://maps.google.com/?cid=0x0:0x786146d53ad849bb";""
"komplek housing";"Komplek perumahan";"Gem Silaban Home";"7Q53+CG5, Pasaribu, Kec. Dolok sanggul, Kabupaten Humbang Hasundutan, Sumatera Utara 22457";"Pasaribu, Kec. Dolok sanggul, Kabupaten Humbang Hasundutan";"SUMATERA UTARA";"22457";"Indonesia";"";"";"";"2.2587567";"98.7542243";"https://maps.google.com/?cid=0x0:0x4c23cddff3b7940b";""
"komplek housing";"Gedung Apartemen";"Rumah Rifaldi Marbun";"Jl. Dolok Sanggul-Pollung No.14, Pandumaan, Kec. Pollung, Kabupaten Humbang Hasundutan, Sumatera Utara 22457";"Pandumaan, Kec. Pollung, Kabupaten Humbang Hasundutan";"SUMATERA UTARA";"22457";"Indonesia";"";"";"";"2.3066481";"98.6953793";"https://maps.google.com/?cid=0x0:0x54b21fba4a2d3da4";""
"komplek housing";"Komplek perumahan";"Kompleks Gonting Bulu";"7QCF+WVV, Pasaribu, Kec. Dolok sanggul, Kabupaten Humbang Hasundutan, Sumatera Utara 22457";"Pasaribu, Kec. Dolok sanggul, Kabupaten Humbang Hasundutan";"SUMATERA UTARA";"22457";"Indonesia";"";"";"";"2.272368";"98.7746592";"https://maps.google.com/?cid=0x0:0x3373f5e40436995d";""
"komplek housing";"Komplek perumahan";"Rmh Rayhan";"8P25+4R8, lagoboti, Aek Nauli II, Kec. Pollung, Kabupaten Humbang Hasundutan, Sumatera Utara 22457";"lagoboti, Aek Nauli II, Kec. Pollung, Kabupaten Humbang Hasundutan";"SUMATERA UTARA";"22457";"Indonesia";"";"";"";"2.3002869";"98.7095789";"https://maps.google.com/?cid=0x0:0x11197f996612e359";""
"komplek housing";"Komplek perumahan";"Keluarga YR";"8P4G+8CW, Aek Nauli II, Kec. Pollung, Kabupaten Humbang Hasundutan, Sumatera Utara 22457";"Aek Nauli II, Kec. Pollung, Kabupaten Humbang Hasundutan";"SUMATERA UTARA";"22457";"Indonesia";"";"";"";"2.3058627";"98.7260715";"https://maps.google.com/?cid=0x0:0xaf66ae4141bb6e9a";""
"komplek housing";"Komplek perumahan";"Rumah Op.Grace Situmorang";"8P86+4X2, Sipitu Huta, Kec. Pollung, Kabupaten Humbang Hasundutan, Sumatera Utara 22457";"Sipitu Huta, Kec. Pollung, Kabupaten Humbang Hasundutan";"SUMATERA UTARA";"22457";"Indonesia";"";"";"";"2.3152592";"98.7123846";"https://maps.google.com/?cid=0x0:0x30e5160a4b35efaa";""
"komplek housing";"Perhimpunan Pengembang Perumahan";"Kompleks Pondok Indah";"7Q8P+XQ9, Simpang Sileang, Pakkat, Kec. Dolok sanggul, Kabupaten Humbang Hasundutan, Sumatera Utara";"Kabupaten Humbang Hasundutan, Sumatera Utara";"SUMATERA UTARA";"";"Indonesia";"";"";"";"2.2674198";"98.7869705";"https://maps.google.com/?cid=0x0:0x728be2f1198f8480";""
"komplek housing";"Gereja Protestan";"Hkbp";"8PC8+9HP, Sipitu Huta, Kec. Pollung, Kabupaten Humbang Hasundutan, Sumatera Utara 22457";"Sipitu Huta, Kec. Pollung, Kabupaten Humbang Hasundutan";"SUMATERA UTARA";"22457";"Indonesia";"";"";"";"2.3209635";"98.7164592";"https://maps.google.com/?cid=0x0:0xb80bb3b43e2205c7";""
"komplek housing";"Pembangunan Perumahan";"partungkoan 2";"6QJ7+P75, Aek Lung, Kec. Dolok sanggul, Kabupaten Humbang Hasundutan, Sumatera Utara 22457";"Aek Lung, Kec. Dolok sanggul, Kabupaten Humbang Hasundutan";"SUMATERA UTARA";"22457";"Indonesia";"";"";"";"2.2312632";"98.7628487";"https://maps.google.com/?cid=0x0:0xe3110d9b430d153d";""
"komplek housing";"Komplek perumahan";"Rumah kaa felii";"8P4G+9GH, Aek Nauli II, Kec. Pollung, Kabupaten Humbang Hasundutan, Sumatera Utara 22457";"Aek Nauli II, Kec. Pollung, Kabupaten Humbang Hasundutan";"SUMATERA UTARA";"22457";"Indonesia";"";"";"";"2.3054167";"98.7268333";"https://maps.google.com/?cid=0x0:0x4bf353e4beb5554d";""
"komplek housing";"Komplek perumahan";"Rumah Hiskia Silaban";"7Q42+5PM, Jl. Veteran, Ps. Dolok Sanggul, Kec. Dolok sanggul, Kabupaten Humbang Hasundutan, Sumatera Utara 22457";"Jl. Veteran, Ps. Dolok Sanggul, Kec. Dolok sanggul, Kabupaten Humbang Hasundutan";"SUMATERA UTARA";"22457";"Indonesia";"";"";"";"2.2554587";"98.7517911";"https://maps.google.com/?cid=0x0:0xfad62ee3a94f3661";""
"komplek housing";"Pondok";"Rumah Happy Silitonga";"7Q43+P9Q, Pasaribu, Kec. Dolok sanggul, Kabupaten Humbang Hasundutan, Sumatera Utara 22457";"Pasaribu, Kec. Dolok sanggul, Kabupaten Humbang Hasundutan";"SUMATERA UTARA";"22457";"Indonesia";"";"";"";"2.2568463";"98.7534771";"https://maps.google.com/?cid=0x0:0xeacf07848e254af5";""
"komplek housing";"Komplek perumahan";"Lumban Sinaga";"7MVV+GV4, Aek Nauli II, Kec. Pollung, Kabupaten Humbang Hasundutan, Sumatera Utara 22457";"Aek Nauli II, Kec. Pollung, Kabupaten Humbang Hasundutan";"SUMATERA UTARA";"22457";"Indonesia";"";"";"";"2.293751";"98.6947068";"https://maps.google.com/?cid=0x0:0x2a8488f8bb2194c";""
"komplek housing";"komplek housing";"Kec. Pollung";"Kabupaten Humbang Hasundutan, Sumatera Utara";"Kabupaten Humbang Hasundutan, Sumatera Utara";"SUMATERA UTARA";"";"Indonesia";"";"";"";"2.3338904";"98.7230903";"https://maps.google.com/?cid=0x0:0xcd960aea45dc1312";""
"komplek housing";"Komplek perumahan";"RUMAH ANISA PURBA";"7PQ7+79Q, Aek Nauli II, Kec. Pollung, Kabupaten Humbang Hasundutan, Sumatera Utara 22457";"Aek Nauli II, Kec. Pollung, Kabupaten Humbang Hasundutan";"SUMATERA UTARA";"22457";"Indonesia";"";"";"";"2.2879842";"98.7143669";"https://maps.google.com/?cid=0x0:0xe6e252ea12aecac3";""
"komplek housing";"Komplek perumahan";"Huta Bagasan";"Parsingguran II, Kec. Pollung, Kabupaten Humbang Hasundutan, Sumatera Utara 22457";"Kec. Pollung, Kabupaten Humbang Hasundutan";"SUMATERA UTARA";"22457";"Indonesia";"";"";"";"2.3525769";"98.7667083";"https://maps.google.com/?cid=0x0:0x80307b8204d17a82";""
"komplek housing";"Komplek perumahan";"Op.Lasti Simanullang";"7PJ8+4XV Huta Godang, Jl. Patuan Anggi, Parik Sinomba, Kec. Dolok sanggul, Kabupaten Humbang Hasundutan, Sumatera Utara 22457";"Jl. Patuan Anggi, Parik Sinomba, Kec. Dolok sanggul, Kabupaten Humbang Hasundutan";"SUMATERA UTARA";"22457";"Indonesia";"";"";"";"2.2803522";"98.7174069";"https://maps.google.com/?cid=0x0:0x8c22dd24783338d2";""
"komplek housing";"Kompleks Kondominium";"Alvaro lumban batu";"9Q2C+MCM, Jl. Pollung - Parsingguran, Parsingguran II, Kec. Pollung, Kabupaten Humbang Hasundutan, Sumatera Utara 22457";"Jl. Pollung - Parsingguran, Parsingguran II, Kec. Pollung, Kabupaten Humbang Hasundutan";"SUMATERA UTARA";"22457";"Indonesia";"";"";"";"2.3524484";"98.7719609";"https://maps.google.com/?cid=0x0:0xcb0ae8e0dc873a59";""
"komplek housing";"Komplek perumahan";"Danzz home";"Jl. Dolok Sanggul-Pollung No.110, Pandumaan, Kec. Pollung, Kabupaten Humbang Hasundutan, Sumatera Utara 22457";"Pandumaan, Kec. Pollung, Kabupaten Humbang Hasundutan";"SUMATERA UTARA";"22457";"Indonesia";"";"";"";"2.3144404";"98.7031269";"https://maps.google.com/?cid=0x0:0xfa4396b857eeb23f";""
"komplek housing";"Komplek perumahan";"A. Hokkp";"8P74+46H, Sipitu Huta, Kec. Pollung, Kabupaten Humbang Hasundutan, Sumatera Utara 22457";"Sipitu Huta, Kec. Pollung, Kabupaten Humbang Hasundutan";"SUMATERA UTARA";"22457";"Indonesia";"";"";"";"2.3128161";"98.7055948";"https://maps.google.com/?cid=0x0:0xf85460c6aed5b3a8";""
"komplek housing";"Komplek perumahan";"Lumban Pohan";"7MPX+P25, Aek Nauli II, Kec. Pollung, Kabupaten Humbang Hasundutan, Sumatera Utara 22457";"Aek Nauli II, Kec. Pollung, Kabupaten Humbang Hasundutan";"SUMATERA UTARA";"22457";"Indonesia";"";"";"";"2.286758";"98.6976204";"https://maps.google.com/?cid=0x0:0x994b8a2e16c768cb";""
"komplek housing";"Gedung Apartemen";"Rumah Opung Jenny";"7MGX+449, Jl. Dolok Sanggul-Pollung, Aek Nauli II, Kec. Pollung, Kabupaten Humbang Hasundutan, Sumatera Utara 22457";"Jl. Dolok Sanggul-Pollung, Aek Nauli II, Kec. Pollung, Kabupaten Humbang Hasundutan";"SUMATERA UTARA";"22457";"Indonesia";"";"";"";"2.274473";"98.697925";"https://maps.google.com/?cid=0x0:0x6a7a03c0470c2fb5";""
"komplek housing";"komplek housing";"Kec. Sijama Polang";"Kabupaten Humbang Hasundutan, Sumatera Utara";"Kabupaten Humbang Hasundutan, Sumatera Utara";"SUMATERA UTARA";"";"Indonesia";"";"";"";"2.2108811";"98.721307";"https://maps.google.com/?cid=0x0:0xd50f2722ee3ef986";""
"komplek housing";"Komplek perumahan";"Winda siahaan";"4P78+23G, Nagurguran, Kec. Sijama Polang, Kabupaten Humbang Hasundutan, Sumatera Utara 22457";"Nagurguran, Kec. Sijama Polang, Kabupaten Humbang Hasundutan";"SUMATERA UTARA";"22457";"Indonesia";"";"";"";"2.1125561";"98.7151985";"https://maps.google.com/?cid=0x0:0xf3bbfc3c47e8a5d2";""
"komplek housing";"Pembangunan Perumahan";"H.F.P";"6P6C+9PP, Siborboron, Kec. Sijama Polang, Kabupaten Humbang Hasundutan, Sumatera Utara";"Kabupaten Humbang Hasundutan, Sumatera Utara";"SUMATERA UTARA";"";"Indonesia";"";"";"";"2.2100542";"98.7224716";"https://maps.google.com/?cid=0x0:0xccc2c7d845eb6736";""
"komplek housing";"Komplek perumahan";"Op. Marisha Silaban";"5M5P+244, Bonan Dolok I, Kec. Sijama Polang, Kabupaten Humbang Hasundutan, Sumatera Utara 22457";"Bonan Dolok I, Kec. Sijama Polang, Kabupaten Humbang Hasundutan";"SUMATERA UTARA";"22457";"Indonesia";"";"";"";"2.1578941";"98.6854065";"https://maps.google.com/?cid=0x0:0xf2e803f6e9718528";""
"komplek housing";"Komplek perumahan";"Sampang nauli";"5MFX+2V5, Bonan Dolok II, Kec. Sijama Polang, Kabupaten Humbang Hasundutan, Sumatera Utara 22457";"Bonan Dolok II, Kec. Sijama Polang, Kabupaten Humbang Hasundutan";"SUMATERA UTARA";"22457";"Indonesia";"";"";"";"2.1725019";"98.6997312";"https://maps.google.com/?cid=0x0:0xe57c0fdce180bd8a";""
"komplek housing";"Komplek perumahan";"Huta Lumban Silaban";"5M5P+M6G, Bonan Dolok I, Kec. Sijama Polang, Kabupaten Humbang Hasundutan, Sumatera Utara 22457";"Bonan Dolok I, Kec. Sijama Polang, Kabupaten Humbang Hasundutan";"SUMATERA UTARA";"22457";"Indonesia";"";"";"";"2.1596584";"98.6857019";"https://maps.google.com/?cid=0x0:0x381998e6834ac5fe";""
"komplek housing";"Komplek perumahan";"Rumah op. Yobela sianturi";"4P88+VQH, Nagurguran, Kec. Sijama Polang, Kabupaten Humbang Hasundutan, Sumatera Utara 22457";"Nagurguran, Kec. Sijama Polang, Kabupaten Humbang Hasundutan";"SUMATERA UTARA";"22457";"Indonesia";"";"";"";"2.1171861";"98.7169993";"https://maps.google.com/?cid=0x0:0x27895285a1ab8b6c";""
"komplek housing";"Komplek perumahan";"huta doloktua,batunajagar,sijamapolang,humbang hasundutan";"5PGW+HCH, Huta doloktua, Batunajagar, Kec. Sijama Polang, Kabupaten Humbang Hasundutan, Sumatera Utara 22457";"Huta doloktua, Batunajagar, Kec. Sijama Polang, Kabupaten Humbang Hasundutan";"SUMATERA UTARA";"22457";"Indonesia";"";"";"";"2.1764313";"98.7461059";"https://maps.google.com/?cid=0x0:0xbe76db41cc23d7cc";""
"komplek housing";"Komplek perumahan";"Cindi silaban";"4P67+VW2, Nagurguran, Kec. Sijama Polang, Kabupaten Humbang Hasundutan, Sumatera Utara 22457";"Nagurguran, Kec. Sijama Polang, Kabupaten Humbang Hasundutan";"SUMATERA UTARA";"22457";"Indonesia";"";"";"";"2.1112135";"98.7145477";"https://maps.google.com/?cid=0x0:0x809f15ead72522b4";""
"komplek housing";"Komplek perumahan";"Sepen";"4PR6+8R, Sibuntuon, Kec. Sijama Polang, Kabupaten Humbang Hasundutan, Sumatera Utara";"Kabupaten Humbang Hasundutan, Sumatera Utara";"SUMATERA UTARA";"";"Indonesia";"";"";"";"2.1408523";"98.7120277";"https://maps.google.com/?cid=0x0:0x2a4f37123aa4e10e";""
"komplek housing";"Komplek perumahan";"Rumah Dinda Silaban";"No 2, Bonan Dolok I, Kec. Sijama Polang, Kabupaten Humbang Hasundutan, Sumatera Utara";"Kabupaten Humbang Hasundutan, Sumatera Utara";"SUMATERA UTARA";"";"Indonesia";"";"";"";"2.1544322";"98.6875659";"https://maps.google.com/?cid=0x0:0xf9c8e8a134c773ca";""
"komplek housing";"Komplek perumahan";"Huta Lumban Sihombing";"5MHF+PH, Hutaginjang, Kec. Sijama Polang, Kabupaten Humbang Hasundutan, Sumatera Utara";"Kabupaten Humbang Hasundutan, Sumatera Utara";"SUMATERA UTARA";"";"Indonesia";"";"";"";"2.1793125";"98.6739375";"https://maps.google.com/?cid=0x0:0xcc61b3246c659205";""
"komplek housing";"Komplek perumahan";"Sahata purba";"4P67+XWX, Nagurguran, Kec. Sijama Polang, Kabupaten Humbang Hasundutan, Sumatera Utara 22457";"Nagurguran, Kec. Sijama Polang, Kabupaten Humbang Hasundutan";"SUMATERA UTARA";"22457";"Indonesia";"";"";"";"2.1122049";"98.7152237";"https://maps.google.com/?cid=0x0:0xff6cfa520cc7ad49";""
"komplek housing";"Komplek perumahan";"OPPUNG JUDIKA SILABAN";"5MV8+86C, Hutaginjang, Kec. Sijama Polang, Kabupaten Humbang Hasundutan, Sumatera Utara";"Kabupaten Humbang Hasundutan, Sumatera Utara";"SUMATERA UTARA";"";"Indonesia";"";"";"";"2.193316";"98.6655163";"https://maps.google.com/?cid=0x0:0xcc958ff89816c338";""
"komplek housing";"Komplek perumahan";"Yuni Simamora";"4P67+VW2, Nagurguran, Kec. Sijama Polang, Kabupaten Humbang Hasundutan, Sumatera Utara 22457";"Nagurguran, Kec. Sijama Polang, Kabupaten Humbang Hasundutan";"SUMATERA UTARA";"22457";"Indonesia";"";"";"";"2.1121362";"98.714777";"https://maps.google.com/?cid=0x0:0x3b19ef0dfa39ba95";""
"komplek housing";"Komplek perumahan";"Bohos Mora";"Bonan Dolok II, Kec. Sijama Polang, Kabupaten Humbang Hasundutan, Sumatera Utara 22457";"Kec. Sijama Polang, Kabupaten Humbang Hasundutan";"SUMATERA UTARA";"22457";"Indonesia";"";"";"";"2.1719142";"98.6890194";"https://maps.google.com/?cid=0x0:0xe14e1828ed954620";""
"komplek housing";"Komplek perumahan";"Sanata purba";"4PF9+34G, Nagurguran, Kec. Sijama Polang, Kabupaten Humbang Hasundutan, Sumatera Utara 22457";"Nagurguran, Kec. Sijama Polang, Kabupaten Humbang Hasundutan";"SUMATERA UTARA";"22457";"Indonesia";"";"";"";"2.1226925";"98.7178353";"https://maps.google.com/?cid=0x0:0xc36f166f3cc1c690";""
"komplek housing";"Komplek perumahan";"Lumban sianturi";"4PF9+34G, Nagurguran, Kec. Sijama Polang, Kabupaten Humbang Hasundutan, Sumatera Utara 22457";"Nagurguran, Kec. Sijama Polang, Kabupaten Humbang Hasundutan";"SUMATERA UTARA";"22457";"Indonesia";"";"";"";"2.1226925";"98.7178353";"https://maps.google.com/?cid=0x0:0x3cde715055e7dfc3";""
"komplek housing";"Perhimpunan Pengembang Perumahan";"Soulungan simamora";"4PF9+34G, Nagurguran, Kec. Sijama Polang, Kabupaten Humbang Hasundutan, Sumatera Utara 22457";"Nagurguran, Kec. Sijama Polang, Kabupaten Humbang Hasundutan";"SUMATERA UTARA";"22457";"Indonesia";" 081264847517";"";"";"2.1226925";"98.7178353";"https://maps.google.com/?cid=0x0:0x58bd13b882402234";""
"komplek housing";"Komplek perumahan";"BANJAR TONGA, LUMBAN JULU";"5MFX+6G, Bonan Dolok II, Kec. Sijama Polang, Kabupaten Humbang Hasundutan, Sumatera Utara";"Kabupaten Humbang Hasundutan, Sumatera Utara";"SUMATERA UTARA";"";"Indonesia";"";"";"";"2.1730943";"98.698828";"https://maps.google.com/?cid=0x0:0x4d3f5e0cfbc80e16";""
"komplek housing";"komplek housing";"Huta Pearaja";"3MH5+7JQ, Sanggaran I, Kec. Sijama Polang, Kabupaten Humbang Hasundutan, Sumatera Utara";"Kabupaten Humbang Hasundutan, Sumatera Utara";"SUMATERA UTARA";"";"Indonesia";"";"";"";"2.0782133";"98.6591098";"https://maps.google.com/?cid=0x0:0x105ac81d12945da7";""
"komplek housing";"Komplek perumahan";"Manalu P";"3MH2+PCG, Sanggaran I, Kec. Sijama Polang, Kabupaten Humbang Hasundutan, Sumatera Utara 22454";"Sanggaran I, Kec. Sijama Polang, Kabupaten Humbang Hasundutan";"SUMATERA UTARA";"22454";"Indonesia";"";"";"";"2.0793008";"98.6510628";"https://maps.google.com/?cid=0x0:0x4706cee904dbed47";""
"komplek housing";"Komplek perumahan";"Gem Silaban Home";"7Q53+CG5, Pasaribu, Kec. Dolok sanggul, Kabupaten Humbang Hasundutan, Sumatera Utara 22457";"Pasaribu, Kec. Dolok sanggul, Kabupaten Humbang Hasundutan";"SUMATERA UTARA";"22457";"Indonesia";"";"";"";"2.2587567";"98.7542243";"https://maps.google.com/?cid=0x0:0x4c23cddff3b7940b";""
"komplek housing";"Pembangunan Perumahan";"Posko lumbanjulu";"5M8W+J84, Bonan Dolok II, Kec. Sijama Polang, Kabupaten Humbang Hasundutan, Sumatera Utara 22457";"Bonan Dolok II, Kec. Sijama Polang, Kabupaten Humbang Hasundutan";"SUMATERA UTARA";"22457";"Indonesia";"";"";"";"2.1673311";"98.6947621";"https://maps.google.com/?cid=0x0:0x5b994b0ebbd5de31";""
"komplek housing";"Komplek perumahan";"O.lumban gaol";"4P67+2VF, Nagurguran, Kec. Sijama Polang, Kabupaten Humbang Hasundutan, Sumatera Utara 22457";"Nagurguran, Kec. Sijama Polang, Kabupaten Humbang Hasundutan";"SUMATERA UTARA";"22457";"Indonesia";"";"";"";"2.109922";"98.7147723";"https://maps.google.com/?cid=0x0:0xbd516daa1a374e5";""
"komplek housing";"Pemakaman";"Pasti sinirat";"4P67+XWX, Nagurguran, Kec. Sijama Polang, Kabupaten Humbang Hasundutan, Sumatera Utara 22457";"Nagurguran, Kec. Sijama Polang, Kabupaten Humbang Hasundutan";"SUMATERA UTARA";"22457";"Indonesia";"";"";"";"2.112083";"98.715255";"https://maps.google.com/?cid=0x0:0x57504f82150fc685";""
"komplek housing";"Komplek perumahan";"Kompleks Pasar Habinsaran Op.Barita Oloan Sihite";"Jl. Pakkat - Dolok Sanggul No.6, Lumban Tobing, Kec. Dolok sanggul, Kabupaten Humbang Hasundutan, Sumatera Utara 22457";"Lumban Tobing, Kec. Dolok sanggul, Kabupaten Humbang Hasundutan";"SUMATERA UTARA";"22457";"Indonesia";"";"";"";"2.2582592";"98.7408853";"https://maps.google.com/?cid=0x0:0x31115e638f3caf13";""
"komplek housing";"Komplek perumahan";"CV Rajai Jolma";"6Q6V+CCP, Jl. Saitnihuta, Saitnihuta, Kec. Dolok sanggul, Kabupaten Humbang Hasundutan, Sumatera Utara 22457";"Jl. Saitnihuta, Saitnihuta, Kec. Dolok sanggul, Kabupaten Humbang Hasundutan";"SUMATERA UTARA";"22457";"Indonesia";"";"";"";"2.2110948";"98.7935812";"https://maps.google.com/?cid=0x0:0xf62e1f917ac1b462";""
"komplek housing";"komplek housing";"Kec. Tara bintang";"Kabupaten Humbang Hasundutan, Sumatera Utara";"Kabupaten Humbang Hasundutan, Sumatera Utara";"SUMATERA UTARA";"";"Indonesia";"";"";"";"2.256467";"98.4100744";"https://maps.google.com/?cid=0x0:0xbae2136378964571";""
"komplek housing";"Pembangunan Perumahan";"Situmeang";"6CWX+2VG, Sihombu, Kec. Tara bintang, Kabupaten Humbang Hasundutan, Sumatera Utara 22456";"Sihombu, Kec. Tara bintang, Kabupaten Humbang Hasundutan";"SUMATERA UTARA";"22456";"Indonesia";"";"";"";"2.2450735";"98.4497061";"https://maps.google.com/?cid=0x0:0xef568a543402f46b";""
"komplek housing";"Komplek perumahan";"Tinambunan house";"79JQ+538, Sitanduk, Kec. Tara bintang, Kabupaten Humbang Hasundutan, Sumatera Utara 22456";"Sitanduk, Kec. Tara bintang, Kabupaten Humbang Hasundutan";"SUMATERA UTARA";"22456";"Indonesia";"";"";"";"2.2804019";"98.3876975";"https://maps.google.com/?cid=0x0:0x6ffe64f070b8e9b";""
"komplek housing";"Komplek perumahan";"Home Gaja family";"7C46+8F4, Tara Bintang, Kec. Tara bintang, Kabupaten Humbang Hasundutan, Sumatera Utara 22456";"Tara Bintang, Kec. Tara bintang, Kabupaten Humbang Hasundutan";"SUMATERA UTARA";"22456";"Indonesia";"";"";"";"2.2557658";"98.4111048";"https://maps.google.com/?cid=0x0:0xf4729bb024bf5dd";""
"komplek housing";"Komplek perumahan";"Otas home";"6FW6+52, Sihombu, Kec. Tara bintang, Kabupaten Humbang Hasundutan, Sumatera Utara";"Kabupaten Humbang Hasundutan, Sumatera Utara";"SUMATERA UTARA";"";"Indonesia";"";"";"";"2.245485";"98.460111";"https://maps.google.com/?cid=0x0:0x5c8a4ec12e3a5db5";""
"komplek housing";"Komplek perumahan";"Rumah Indra Tinambunan";"79HW+MMR, Tara Bintang, Kec. Tara bintang, Kabupaten Humbang Hasundutan, Sumatera Utara 22456";"Tara Bintang, Kec. Tara bintang, Kabupaten Humbang Hasundutan";"SUMATERA UTARA";"22456";"Indonesia";" 082339341191";"";"";"2.2792451";"98.3966426";"https://maps.google.com/?cid=0x0:0x48ccc98ca415eb66";""
"komplek housing";"Komplek perumahan";"Rumah Aljer";"79HW+JH6, Tara Bintang, Kec. Tara bintang, Kabupaten Humbang Hasundutan, Sumatera Utara 22456";"Tara Bintang, Kec. Tara bintang, Kabupaten Humbang Hasundutan";"SUMATERA UTARA";"22456";"Indonesia";"";"";"";"2.2790357";"98.3963898";"https://maps.google.com/?cid=0x0:0xa725a233921998c8";""
"komplek housing";"Perhimpunan Pengembang Perumahan";"Rumah D. Hasugian";"79Q6+5V3, Jl. Pendidikan, Sitanduk, Kec. Tara bintang, Kabupaten Humbang Hasundutan, Sumatera Utara 22456";"Jl. Pendidikan, Sitanduk, Kec. Tara bintang, Kabupaten Humbang Hasundutan";"SUMATERA UTARA";"22456";"Indonesia";"";"";"";"2.2878796";"98.3621842";"https://maps.google.com/?cid=0x0:0xc764427ffda32ecb";""
"komplek housing";"Pembangunan Perumahan";"DUSUN RUMBIA";"7879+JWF, Sitanduk, Kec. Tara bintang, Kabupaten Humbang Hasundutan, Sumatera Utara 22456";"Sitanduk, Kec. Tara bintang, Kabupaten Humbang Hasundutan";"SUMATERA UTARA";"22456";"Indonesia";"";"";"";"2.264065";"98.3197852";"https://maps.google.com/?cid=0x0:0x8e80b62236b39183";""
"komplek housing";"komplek housing";"Rumah Arnold Malau";"6FV5+F9M, Sihombu, Kec. Tara bintang, Kabupaten Humbang Hasundutan, Sumatera Utara 22456";"Sihombu, Kec. Tara bintang, Kabupaten Humbang Hasundutan";"SUMATERA UTARA";"22456";"Indonesia";"";"";"";"2.2437603";"98.4584293";"https://maps.google.com/?cid=0x0:0x2eaf357b6113cf67";""
"komplek housing";"Komplek perumahan";"mpung oloan";"69MW+36W, Unnamed Road, Tara Bintang, Tara bintang, Humbang Hasundutan Regency, North Sumatra 22456";"Unnamed Road, Tara Bintang, Tara bintang, Humbang Hasundutan Regency";"SUMATERA UTARA";"22456";"Indonesia";"";"";"";"2.2327274";"98.3955853";"https://maps.google.com/?cid=0x0:0x7d1834aef9e5c7ff";""
"komplek housing";"Komplek perumahan";"Rumah K.Tinambunan";"7C96+2VX, Sihotang Hasugian Toruan, Kec. Tara bintang, Kabupaten Humbang Hasundutan, Sumatera Utara 22456";"Sihotang Hasugian Toruan, Kec. Tara bintang, Kabupaten Humbang Hasundutan";"SUMATERA UTARA";"22456";"Indonesia";"";"";"";"2.2670111";"98.4122738";"https://maps.google.com/?cid=0x0:0x1368e6a378c20287";""
"komplek housing";"Komplek perumahan";"MUARA";"787X+PV, Simbara, Kec. Tara bintang, Kabupaten Humbang Hasundutan, Sumatera Utara";"Kabupaten Humbang Hasundutan, Sumatera Utara";"SUMATERA UTARA";"";"Indonesia";"";"";"";"2.2643223";"98.3496684";"https://maps.google.com/?cid=0x0:0xa577f491f57ad7ef";""
"komplek housing";"Komplek perumahan";"ongool";"7CC8+45G, Sihotang Hasugian Toruan, Kec. Tara bintang, Kabupaten Humbang Hasundutan, Sumatera Utara 22456";"Sihotang Hasugian Toruan, Kec. Tara bintang, Kabupaten Humbang Hasundutan";"SUMATERA UTARA";"22456";"Indonesia";"";"";"";"2.2703217";"98.4154474";"https://maps.google.com/?cid=0x0:0xfdfc1af0a05bb587";""
"komplek housing";"komplek housing";"Rumah op Winda Hasugian";"7C86+6R6, Sihotang Hasugian Toruan, Kec. Tara bintang, Kabupaten Humbang Hasundutan, Sumatera Utara";"Kabupaten Humbang Hasundutan, Sumatera Utara";"SUMATERA UTARA";"";"Indonesia";"";"";"";"2.2655264";"98.4120156";"https://maps.google.com/?cid=0x0:0x37d87dad47fad234";""
"komplek housing";"Komplek perumahan";"Napasingkam Residence";"7926+WPC, RT.004/003, Tara Bintang, Kec. Tara bintang, Kabupaten Humbang Hasundutan, Sumatera Utara 22456";"RT.004/003, Tara Bintang, Kec. Tara bintang, Kabupaten Humbang Hasundutan";"SUMATERA UTARA";"22456";"Indonesia";" 0817745024";"";"";"2.2523125";"98.3617656";"https://maps.google.com/?cid=0x0:0x840602548381b739";""
"komplek housing";"komplek housing";"Rumah Pak Moses Tinambunan";"69H7+PC5, Dusun Simpang Tiga, Tara Bintang, Kec. Tara bintang, Kabupaten Humbang Hasundutan, Sumatera Utara";"Kabupaten Humbang Hasundutan, Sumatera Utara";"SUMATERA UTARA";"";"Indonesia";"";"";"";"2.2292543";"98.3636131";"https://maps.google.com/?cid=0x0:0xe6bdf8127d1f42f";""
"komplek housing";"Perhimpunan Pengembang Perumahan";"Home Stay HKBP Pakkat";"5F3F+V4X, Pakkat Hauagong, Kec. Pakkat, Kabupaten Humbang Hasundutan, Sumatera Utara 22455";"Pakkat Hauagong, Kec. Pakkat, Kabupaten Humbang Hasundutan";"SUMATERA UTARA";"22455";"Indonesia";" 082278235607";"";"";"2.1547267";"98.4728721";"https://maps.google.com/?cid=0x0:0x7dfcb4b7f71ac7c9";""
"komplek housing";"Komplek perumahan";"Uruk bonggal";"7C96+JJR, Dusun anggonci, desa Mungkur, Kec. Tara bintang, Kabupaten Humbang Hasundutan, Sumatera Utara";"Kabupaten Humbang Hasundutan, Sumatera Utara";"SUMATERA UTARA";"";"Indonesia";"";"";"";"2.2691003";"98.411506";"https://maps.google.com/?cid=0x0:0x9cbf68bf0a111834";""
"komplek housing";"komplek housing";"Rambung Op Riang";"79MG+4J6, Desa Mungkur, Kec. Tara bintang, Kabupaten Humbang Hasundutan, Sumatera Utara 22456";"Desa Mungkur, Kec. Tara bintang, Kabupaten Humbang Hasundutan";"SUMATERA UTARA";"22456";"Indonesia";"";"";"";"2.282619";"98.376492";"https://maps.google.com/?cid=0x0:0x9c022f899cfa6e6f";""
"komplek housing";"Pembangunan Perumahan";"Huta dalan";"7GMC+WRM, Baringin, Kec. Parlilitan, Kabupaten Humbang Hasundutan, Sumatera Utara 22456";"Baringin, Kec. Parlilitan, Kabupaten Humbang Hasundutan";"SUMATERA UTARA";"22456";"Indonesia";"";"";"";"2.2848324";"98.5220316";"https://maps.google.com/?cid=0x0:0x213d3b0e12bca36f";""
"komplek housing";"Komplek perumahan";"TAMAN KERTAMUKTI RESIDENCE";"taman kertaMukti residence, Jl. Raya Kali CBL, cibitung, Kec. Cibitung, Kabupaten Bekasi, Jawa Barat 17520";"Jl. Raya Kali CBL, cibitung, Kec. Cibitung, Kabupaten Bekasi";"SUMATERA UTARA";"17520";"Indonesia";"";"";"";"-6.2331013";"107.1219252";"https://maps.google.com/?cid=0x0:0xd9ba8986afaf5f72";""
"komplek housing";"Komplek perumahan";"TAMAN KERTAMUKTI RESIDENCE";"Blok B42.06, Sukajaya, Kec. Cibitung, Kabupaten Bekasi, Jawa Barat 17520";"Sukajaya, Kec. Cibitung, Kabupaten Bekasi";"SUMATERA UTARA";"17520";"Indonesia";"";"";"";"-6.2303907";"107.120694";"https://maps.google.com/?cid=0x0:0x9f92cadec3cedee0";""
"komplek housing";"Restoran";"Kadafi street food";"Taman Kertamukti Residence No.E11/9, Kertamukti, Kec. Cibitung, Kabupaten Bekasi, Jawa Barat";"Kabupaten Bekasi, Jawa Barat";"SUMATERA UTARA";"";"Indonesia";" 081386641881";"";"";"-6.2286042";"107.1159274";"https://maps.google.com/?cid=0x0:0xdf8e566afa927915";""
"perumahan";"perumahan";"Kec. Bakti Raja";"Kabupaten Humbang Hasundutan, Sumatera Utara";"Kabupaten Humbang Hasundutan, Sumatera Utara";"SUMATERA UTARA";"";"Indonesia";"";"";"";"2.3235404";"98.8207391";"https://maps.google.com/?cid=0x0:0x475a50a12c00c787";""
"perumahan";"Komplek perumahan";"Sinambela kec baktiraj";"8R9G+W4M, Simangulampe, Kec. Bakti Raja, Kabupaten Humbang Hasundutan, Sumatera Utara 22457";"Simangulampe, Kec. Bakti Raja, Kabupaten Humbang Hasundutan";"SUMATERA UTARA";"22457";"Indonesia";"";"";"";"2.3198719";"98.8252718";"https://maps.google.com/?cid=0x0:0x4aae29ebc1991398";""
"perumahan";"Komplek perumahan";"Rumah OP. Elvano Sinambela";"8R9R+944, Kec. Bakti Raja, Kabupaten Humbang Hasundutan, Sumatera Utara 22457";"Kec. Bakti Raja, Kabupaten Humbang Hasundutan";"SUMATERA UTARA";"22457";"Indonesia";"";"";"";"2.318397";"98.8403182";"https://maps.google.com/?cid=0x0:0x6712c1c6ae723143";""
"perumahan";"Rumah wisata";"Rumah Vernando sitinjak";"8RG8+HQH, Marbun Toruan, Kec. Bakti Raja, Kabupaten Humbang Hasundutan, Sumatera Utara 22457";"Marbun Toruan, Kec. Bakti Raja, Kabupaten Humbang Hasundutan";"SUMATERA UTARA";"22457";"Indonesia";"";"";"";"2.3264302";"98.8169822";"https://maps.google.com/?cid=0x0:0x76133d46716b0da4";""
"perumahan";"Komplek perumahan";"rumah Mak Bakti";"8RG9+PMP, Marbun Toruan, Kec. Bakti Raja, Kabupaten Humbang Hasundutan, Sumatera Utara 22457";"Marbun Toruan, Kec. Bakti Raja, Kabupaten Humbang Hasundutan";"SUMATERA UTARA";"22457";"Indonesia";"";"";"";"2.3268366";"98.8191981";"https://maps.google.com/?cid=0x0:0x78a5f9ffa3916ff4";""
"perumahan";"Inspektur Tempat Tinggal";"Silaban";"8RP5+J7F, Hutaraja, Kec. Dolok sanggul, Kabupaten Humbang Hasundutan, Sumatera Utara 22457";"Hutaraja, Kec. Dolok sanggul, Kabupaten Humbang Hasundutan";"SUMATERA UTARA";"22457";"Indonesia";"";"";"";"2.3365586";"98.8081585";"https://maps.google.com/?cid=0x0:0x6d983ba213fbb5ba";""
"perumahan";"Komplek perumahan";"Rumah Panjaitan";"8RFF+5C7 Sma negeri 1, Sinambela, Kec. Bakti Raja, Kabupaten Humbang Hasundutan, Sumatera Utara 22457";"Sinambela, Kec. Bakti Raja, Kabupaten Humbang Hasundutan";"SUMATERA UTARA";"22457";"Indonesia";"";"";"";"2.3229124";"98.8235446";"https://maps.google.com/?cid=0x0:0x8de887d4ff4b876f";""
"perumahan";"Komplek perumahan";"Sionggang, Pangambatan";"8R58+RWC, Sionggang, Kec. Bakti Raja, Kabupaten Humbang Hasundutan, Sumatera Utara 22457";"Sionggang, Kec. Bakti Raja, Kabupaten Humbang Hasundutan";"SUMATERA UTARA";"22457";"Indonesia";"";"";"";"2.3095571";"98.8172558";"https://maps.google.com/?cid=0x0:0x228ff653bf1fe6c7";""
"perumahan";"Komplek perumahan";"Rumah Rikky Lumban Gaol";"8R52+6H8, Marbun Tonga Marbun Dolok, Kec. Bakti Raja, Kabupaten Humbang Hasundutan, Sumatera Utara 22457";"Marbun Tonga Marbun Dolok, Kec. Bakti Raja, Kabupaten Humbang Hasundutan";"SUMATERA UTARA";"22457";"Indonesia";"";"";"";"2.3080368";"98.8014683";"https://maps.google.com/?cid=0x0:0x5a12a5f5a4a07d1";""
"perumahan";"Komplek perumahan";"Villa Op.Sion Manalu";"9R28+2G, Tipang, Kec. Bakti Raja, Kabupaten Humbang Hasundutan, Sumatera Utara 22457";"Tipang, Kec. Bakti Raja, Kabupaten Humbang Hasundutan";"SUMATERA UTARA";"22457";"Indonesia";"";"";"";"2.3501031";"98.8162797";"https://maps.google.com/?cid=0x0:0xd7e51cd94375e531";""
"perumahan";"Komplek perumahan";"Bayi raja";"8R33+5VM Sitio-Tio, Siunong Unong Julu, Kec. Bakti Raja, Kabupaten Humbang Hasundutan, Sumatera Utara 22457";"Siunong Unong Julu, Kec. Bakti Raja, Kabupaten Humbang Hasundutan";"SUMATERA UTARA";"22457";"Indonesia";"";"";"";"2.3029741";"98.8046683";"https://maps.google.com/?cid=0x0:0x4f072c07ad4276c";""
"perumahan";"Komplek perumahan";"Janji Nahata";"9R29+HGW, Tipang, Kec. Bakti Raja, Kabupaten Humbang Hasundutan, Sumatera Utara 22457";"Tipang, Kec. Bakti Raja, Kabupaten Humbang Hasundutan";"SUMATERA UTARA";"22457";"Indonesia";"";"";"";"2.351489";"98.818819";"https://maps.google.com/?cid=0x0:0xbd22f012d6bbd74a";""
"perumahan";"Perhimpunan Pengembang Perumahan";"Op. Cathrine Sinambela";"8R9G+J65, Simangulampe, Kec. Bakti Raja, Kabupaten Humbang Hasundutan, Sumatera Utara 22457";"Simangulampe, Kec. Bakti Raja, Kabupaten Humbang Hasundutan";"SUMATERA UTARA";"22457";"Indonesia";"";"";"";"2.3190093";"98.8256016";"https://maps.google.com/?cid=0x0:0x1625c16a8c8b7cec";""
"perumahan";"Komplek perumahan";"Rumah Inang Tipang";"9R87+MJP, Tipang, Kec. Bakti Raja, Kabupaten Humbang Hasundutan, Sumatera Utara 22457";"Tipang, Kec. Bakti Raja, Kabupaten Humbang Hasundutan";"SUMATERA UTARA";"22457";"Indonesia";"";"";"";"2.3674343";"98.8138917";"https://maps.google.com/?cid=0x0:0xf80223b71ce0c7e7";""
"perumahan";"Komplek perumahan";"Parsambilan";"8R35+W2P, Siunong Unong Julu, Kec. Bakti Raja, Kabupaten Humbang Hasundutan, Sumatera Utara 22457";"Siunong Unong Julu, Kec. Bakti Raja, Kabupaten Humbang Hasundutan";"SUMATERA UTARA";"22457";"Indonesia";"";"";"";"2.3048486";"98.8075763";"https://maps.google.com/?cid=0x0:0x6c71dafac9fe1267";""
"perumahan";"Pembangunan Perumahan";"Huta simanullang pangaloan";"8R6C+P57, Sinambela, Kec. Bakti Raja, Kabupaten Humbang Hasundutan, Sumatera Utara";"Kabupaten Humbang Hasundutan, Sumatera Utara";"SUMATERA UTARA";"";"Indonesia";"";"";"";"2.3117796";"98.8204132";"https://maps.google.com/?cid=0x0:0xda53a53381c31179";""
"perumahan";"Pembangunan Perumahan";"Rumah Wakneng Losung aek";"8R86+JMW, Marbun Tonga Marbun Dolok, Kec. Bakti Raja, Kabupaten Humbang Hasundutan, Sumatera Utara 22457";"Marbun Tonga Marbun Dolok, Kec. Bakti Raja, Kabupaten Humbang Hasundutan";"SUMATERA UTARA";"22457";"Indonesia";"";"";"";"2.317271";"98.8127104";"https://maps.google.com/?cid=0x0:0xeca7c30e23a4e481";""
"perumahan";"Komplek perumahan";"Tipang Nauli";"8RX7+RC6, Tipang, Kec. Bakti Raja, Kabupaten Humbang Hasundutan, Sumatera Utara 22457";"Tipang, Kec. Bakti Raja, Kabupaten Humbang Hasundutan";"SUMATERA UTARA";"22457";"Indonesia";"";"";"";"2.3495327";"98.8135253";"https://maps.google.com/?cid=0x0:0x51950de102eb70b0";""
"perumahan";"Otoritas Perumahan";"Simargalung";"8R46+QHQ, Simamora, Kec. Bakti Raja, Kabupaten Humbang Hasundutan, Sumatera Utara 22457";"Simamora, Kec. Bakti Raja, Kabupaten Humbang Hasundutan";"SUMATERA UTARA";"22457";"Indonesia";"";"";"";"2.3069669";"98.8114707";"https://maps.google.com/?cid=0x0:0x9a89a07633ebe603";""
"perumahan";"Perhimpunan Pengembang Perumahan";"Wiselly Hz Manalu";"8R57+5W8, Jl. Sisingamangaraja, Simamora, Kec. Bakti Raja, Kabupaten Humbang Hasundutan, Sumatera Utara 22457";"Jl. Sisingamangaraja, Simamora, Kec. Bakti Raja, Kabupaten Humbang Hasundutan";"SUMATERA UTARA";"22457";"Indonesia";"";"";"";"2.307235";"98.814983";"https://maps.google.com/?cid=0x0:0xfe9c40c061482c7";""
"perumahan";"Komplek perumahan";"Huta Pagardari";"9R86+2QG, Tipang, Kec. Bakti Raja, Kabupaten Humbang Hasundutan, Sumatera Utara 22457";"Tipang, Kec. Bakti Raja, Kabupaten Humbang Hasundutan";"SUMATERA UTARA";"22457";"Indonesia";"";"";"";"2.3650559";"98.8119596";"https://maps.google.com/?cid=0x0:0x3241187d24760762";""
"perumahan";"Komplek perumahan";"Rumah Ompung Parkadil Manalu";"9R4F+47, Tipang, Kec. Bakti Raja, Kabupaten Humbang Hasundutan, Sumatera Utara 22457";"Tipang, Kec. Bakti Raja, Kabupaten Humbang Hasundutan";"SUMATERA UTARA";"22457";"Indonesia";"";"";"";"2.3553674";"98.8230992";"https://maps.google.com/?cid=0x0:0xc26d62ac008acaf";""
"perumahan";"Komplek perumahan";"Huta Rajagukguk";"9R3J+7XH, Tipang, Kec. Bakti Raja, Kabupaten Humbang Hasundutan, Sumatera Utara 22457";"Tipang, Kec. Bakti Raja, Kabupaten Humbang Hasundutan";"SUMATERA UTARA";"22457";"Indonesia";"";"";"";"2.3535687";"98.8331067";"https://maps.google.com/?cid=0x0:0x31259218d9675deb";""
"perumahan";"perumahan";"Dolok Sanggul";"Lumban Tobing, Kec. Dolok sanggul, Kabupaten Humbang Hasundutan, Sumatera Utara";"Kabupaten Humbang Hasundutan, Sumatera Utara";"SUMATERA UTARA";"";"Indonesia";"";"";"";"2.251991";"98.7485729";"https://maps.google.com/?cid=0x0:0x7f53fc623c00d824";""
"perumahan";"";"Rumah Anita";"7P2X+QCW, Lumban Tobing, Kec. Dolok sanggul, Kabupaten Humbang Hasundutan, Sumatera Utara";"Kabupaten Humbang Hasundutan, Sumatera Utara";"SUMATERA UTARA";"";"Indonesia";"";"";"";"2.251991";"98.7485729";"https://maps.google.com/?cid=0x0:0xc1d6a8a7afdb2623";""
"perumahan";"Komplek perumahan";"Pangasean";"7P2X+QCW, Lumban Tobing, Kec. Dolok sanggul, Kabupaten Humbang Hasundutan, Sumatera Utara";"Kabupaten Humbang Hasundutan, Sumatera Utara";"SUMATERA UTARA";"";"Indonesia";"";"";"";"2.251991";"98.7485729";"https://maps.google.com/?cid=0x0:0x4c5b19b09392f927";""
"perumahan";"Klinik Medis";"Klinik Bersalin Katolik";"Jl. Merdeka No.47, Lumban Tobing, Kec. Dolok sanggul, Kabupaten Humbang Hasundutan, Sumatera Utara 22457";"Lumban Tobing, Kec. Dolok sanggul, Kabupaten Humbang Hasundutan";"SUMATERA UTARA";"22457";"Indonesia";" 063231068";"";"";"2.251991";"98.7485729";"https://maps.google.com/?cid=0x0:0xc720fb2e54420942";""
"perumahan";"perumahan";"Sumatera Utara 22475";"Sumatera Utara";"Sumatera Utara";"SUMATERA UTARA";"";"Indonesia";"";"";"";"2.2166172";"98.8583309";"https://maps.google.com/?cid=0x0:0x3a0c9f067ea87dcb";""
"perumahan";"Komplek perumahan";"LINTONGNIHUTA";"7VG8+JMF, Sitolu Bahal, Kec. Lintong Nihuta, Kabupaten Humbang Hasundutan, Sumatera Utara 22475";"Sitolu Bahal, Kec. Lintong Nihuta, Kabupaten Humbang Hasundutan";"SUMATERA UTARA";"22475";"Indonesia";"";"";"";"2.2765626";"98.8666821";"https://maps.google.com/?cid=0x0:0x4b6a2072a5afe24a";""
"perumahan";"Perhimpunan Pengembang Perumahan";"PARGAULAN";"Jl. Dolok Sanggul - Siborong - Borong No.65, Pargaulan, Kec. Lintong Nihuta, Kabupaten Humbang Hasundutan, Sumatera Utara 22475";"Pargaulan, Kec. Lintong Nihuta, Kabupaten Humbang Hasundutan";"SUMATERA UTARA";"22475";"Indonesia";"";"";"";"2.2623943";"98.8620703";"https://maps.google.com/?cid=0x0:0x68d79421c03d6379";""
"perumahan";"Komplek perumahan";"Rumah Putry";"7W43+VX6, Jl. Damai, Nagasaribu I, Kec. Lintong Nihuta, Kabupaten Humbang Hasundutan, Sumatera Utara 22475";"Jl. Damai, Nagasaribu I, Kec. Lintong Nihuta, Kabupaten Humbang Hasundutan";"SUMATERA UTARA";"22475";"Indonesia";" 082211820872";"";"";"2.2571593";"98.9048954";"https://maps.google.com/?cid=0x0:0x2e8e33fd735fc538";""
"perumahan";"Komplek perumahan";"Rumah Bpk. Pera Aritonang";"Lobutua, Kec. Lintong Nihuta, Kabupaten Humbang Hasundutan, Sumatera Utara 22475";"Kec. Lintong Nihuta, Kabupaten Humbang Hasundutan";"SUMATERA UTARA";"22475";"Indonesia";" 082259252038";"";"";"2.2207259";"98.8532988";"https://maps.google.com/?cid=0x0:0xfe82877e7381550";""
"perumahan";"Pembangunan Perumahan";"Lumbanpea";"7VGG+65G, Pargaulan, Kec. Lintong Nihuta, Kabupaten Humbang Hasundutan, Sumatera Utara 22475";"Pargaulan, Kec. Lintong Nihuta, Kabupaten Humbang Hasundutan";"SUMATERA UTARA";"22475";"Indonesia";"";"";"";"2.2755211";"98.8755137";"https://maps.google.com/?cid=0x0:0x93d504d2f5ab543e";""
"perumahan";"Komplek perumahan";"Pasar lama";"7VF7+654, Sitolu Bahal, Kec. Lintong Nihuta, Kabupaten Humbang Hasundutan, Sumatera Utara 22475";"Sitolu Bahal, Kec. Lintong Nihuta, Kabupaten Humbang Hasundutan";"SUMATERA UTARA";"22475";"Indonesia";"";"";"";"2.2730071";"98.8629499";"https://maps.google.com/?cid=0x0:0x31f1fb88d5a14d80";""
"perumahan";"Perhimpunan Pengembang Perumahan";"Rumah Op.Tasya";"7R7W+HFP, Tapian Nauli, Kec. Lintong Nihuta, Kabupaten Humbang Hasundutan, Sumatera Utara 22475";"Tapian Nauli, Kec. Lintong Nihuta, Kabupaten Humbang Hasundutan";"SUMATERA UTARA";"22475";"Indonesia";"";"";"";"2.2641702";"98.8459186";"https://maps.google.com/?cid=0x0:0x61c957fa1cf0606e";""
"perumahan";"Komplek perumahan";"Lumban Sianturi";"6RJR+XVV, Hutasoit I, Kec. Lintong Nihuta, Kabupaten Humbang Hasundutan, Sumatera Utara 22475";"Hutasoit I, Kec. Lintong Nihuta, Kabupaten Humbang Hasundutan";"SUMATERA UTARA";"22475";"Indonesia";"";"";"";"2.2324939";"98.8421659";"https://maps.google.com/?cid=0x0:0xddc719ff4de2bf16";""
"perumahan";"Komplek perumahan";"Rumah Daud Lumbantoruan";"6VG3+P2H, Lobutua, Kec. Lintong Nihuta, Kabupaten Humbang Hasundutan, Sumatera Utara 22475";"Lobutua, Kec. Lintong Nihuta, Kabupaten Humbang Hasundutan";"SUMATERA UTARA";"22475";"Indonesia";"";"";"";"2.2268176";"98.8526225";"https://maps.google.com/?cid=0x0:0xc6949bfd8f1ca6d";""
"perumahan";"Komplek perumahan";"Mauli Lumbantoruan";"6VH2+6F2, Lobutua, Kec. Lintong Nihuta, Kabupaten Humbang Hasundutan, Sumatera Utara 22475";"Lobutua, Kec. Lintong Nihuta, Kabupaten Humbang Hasundutan";"SUMATERA UTARA";"22475";"Indonesia";"";"";"";"2.228017";"98.8511323";"https://maps.google.com/?cid=0x0:0x936fb2b5c02c7fe5";""
"perumahan";"Komplek perumahan";"Selamat Datang di Lintong Nihuta";"Jl. Sisingamangaraja No.16-10, Pargaulan, Kec. Lintong Nihuta, Kabupaten Humbang Hasundutan, Sumatera Utara 22475";"Pargaulan, Kec. Lintong Nihuta, Kabupaten Humbang Hasundutan";"SUMATERA UTARA";"22475";"Indonesia";"";"";"";"2.2626155";"98.8620752";"https://maps.google.com/?cid=0x0:0x6c1a1eeb55f2ee6d";""
"perumahan";"Pembangunan Perumahan";"Tambunan's fam";"6V6H+2HM, Bonan Dolok, Kec. Lintong Nihuta, Kabupaten Humbang Hasundutan, Sumatera Utara 22475";"Bonan Dolok, Kec. Lintong Nihuta, Kabupaten Humbang Hasundutan";"SUMATERA UTARA";"22475";"Indonesia";"";"";"";"2.2100948";"98.8789202";"https://maps.google.com/?cid=0x0:0xe8595e3bdba28cbe";""
"perumahan";"Pembangunan Perumahan";"Lumban Sinaga";"7VFH+XF6, Sibuntuon Parpea, Kec. Lintong Nihuta, Kabupaten Humbang Hasundutan, Sumatera Utara 22475";"Sibuntuon Parpea, Kec. Lintong Nihuta, Kabupaten Humbang Hasundutan";"SUMATERA UTARA";"22475";"Indonesia";"";"";"";"2.2749171";"98.8786383";"https://maps.google.com/?cid=0x0:0x33bfef6f9c09b6dd";""
"perumahan";"Komplek perumahan";"Rumah S Manihuruk";"7V6C+3RJ, Jl. Raung Nabolon, SIGOMPUL, Kec. Lintong Nihuta, Kabupaten Humbang Hasundutan, Sumatera Utara 22475";"Jl. Raung Nabolon, SIGOMPUL, Kec. Lintong Nihuta, Kabupaten Humbang Hasundutan";"SUMATERA UTARA";"22475";"Indonesia";"";"";"";"2.2602133";"98.8720235";"https://maps.google.com/?cid=0x0:0x8f2906e84be5e07f";""
"perumahan";"Komplek perumahan";"HUTA BULU DOLOK SARIBU Kec PAGARAN";"6V62+Q9F, Lobutua, Kec. Lintong Nihuta, Kabupaten Humbang Hasundutan, Sumatera Utara 22475";"Lobutua, Kec. Lintong Nihuta, Kabupaten Humbang Hasundutan";"SUMATERA UTARA";"22475";"Indonesia";"";"";"";"2.2119295";"98.8509155";"https://maps.google.com/?cid=0x0:0xca9184c4642a6350";""
"perumahan";"Komplek perumahan";"LUMBAN SITIOMA";"7VQ9+97G, Jl. Siswa, Parulohan, Kec. Lintong Nihuta, Kabupaten Humbang Hasundutan, Sumatera Utara 22475";"Jl. Siswa, Parulohan, Kec. Lintong Nihuta, Kabupaten Humbang Hasundutan";"SUMATERA UTARA";"22475";"Indonesia";"";"";"";"2.2871832";"98.867947";"https://maps.google.com/?cid=0x0:0xf316b5bc94325bcc";""
"perumahan";"Pembangunan Perumahan";"Huta Lumban Julu Hariara Desa Pargaulan";"7V4G+4VG, Huta Lumhan Julu Hariara, Desa, Pargaulan, Kec. Lintong Nihuta, Kabupaten Humbang Hasundutan, Sumatera Utara 22475";"Huta Lumhan Julu Hariara, Desa, Pargaulan, Kec. Lintong Nihuta, Kabupaten Humbang Hasundutan";"SUMATERA UTARA";"22475";"Indonesia";"";"";"";"2.2553216";"98.8771898";"https://maps.google.com/?cid=0x0:0xa16a0c0da03e6f2e";""
"perumahan";"Perhimpunan Pengembang Perumahan";"Rumah Marsiurupan Lamhot Sinaga";"7VGJ+3X, Sibuntuon Parpea, Kec. Lintong Nihuta, Kabupaten Humbang Hasundutan, Sumatera Utara 22475";"Sibuntuon Parpea, Kec. Lintong Nihuta, Kabupaten Humbang Hasundutan";"SUMATERA UTARA";"22475";"Indonesia";"";"";"";"2.2739335";"98.881757";"https://maps.google.com/?cid=0x0:0x259cd3a6ea7bf06a";""
"perumahan";"Komplek perumahan";"Lumban Hasiholan";"7R26+QJV Lumban Hasiholan, Dolok Margu, Kec. Lintong Nihuta, Kabupaten Humbang Hasundutan, Sumatera Utara 22475";"Dolok Margu, Kec. Lintong Nihuta, Kabupaten Humbang Hasundutan";"SUMATERA UTARA";"22475";"Indonesia";"";"";"";"2.2519989";"98.8115436";"https://maps.google.com/?cid=0x0:0x82fdbb7be94cab4c";""
"perumahan";"Perhimpunan Pengembang Perumahan";"Rumah ANABEL";"Jl. Sisingamangaraja No.112, Sigumpar, Kec. Lintong Nihuta, Kabupaten Humbang Hasundutan, Sumatera Utara 22475";"Sigumpar, Kec. Lintong Nihuta, Kabupaten Humbang Hasundutan";"SUMATERA UTARA";"22475";"Indonesia";"";"";"";"2.2938679";"98.8794806";"https://maps.google.com/?cid=0x0:0x177ca848ee987b89";""
"perumahan";"Komplek perumahan";"Sihombing House";"7V9W+6J9, Siharjulu, Kec. Lintong Nihuta, Kabupaten Humbang Hasundutan, Sumatera Utara 22475";"Siharjulu, Kec. Lintong Nihuta, Kabupaten Humbang Hasundutan";"SUMATERA UTARA";"22475";"Indonesia";"";"";"";"2.2680252";"98.896606";"https://maps.google.com/?cid=0x0:0xc193c998f17cbe13";""
"perumahan";"Komplek perumahan";"Huta Lumban Lobu";"7W3C+RJQ, Nagasaribu V, Kec. Lintong Nihuta, Kabupaten Humbang Hasundutan, Sumatera Utara 22475";"Nagasaribu V, Kec. Lintong Nihuta, Kabupaten Humbang Hasundutan";"SUMATERA UTARA";"22475";"Indonesia";"";"";"";"2.2545752";"98.921613";"https://maps.google.com/?cid=0x0:0xbcb7cd84a2769366";""
"perumahan";"perumahan";"Rumah Dinas Camat Onan Ganjang";"5J4H+8XC, Onan Ganjang, Kec. Onan Ganjang, Kabupaten Humbang Hasundutan, Sumatera Utara 22454";"Onan Ganjang, Kec. Onan Ganjang, Kabupaten Humbang Hasundutan";"SUMATERA UTARA";"22454";"Indonesia";"";"";"";"2.1558102";"98.6298848";"https://maps.google.com/?cid=0x0:0xcc4827586309908e";""
"perumahan";"perumahan";"Onan Ganjang";"Kec. Onan Ganjang, Kabupaten Humbang Hasundutan, Sumatera Utara";"Kabupaten Humbang Hasundutan, Sumatera Utara";"SUMATERA UTARA";"";"Indonesia";"";"";"";"2.1523331";"98.6298119";"https://maps.google.com/?cid=0x0:0x5b19fc0bdff0c0f3";""
"perumahan";"Pembangunan Perumahan";"Poparan Oppu simon";"4JQ5+6CH, Parbotihan, Kec. Onan Ganjang, Kabupaten Humbang Hasundutan, Sumatera Utara 22454";"Parbotihan, Kec. Onan Ganjang, Kabupaten Humbang Hasundutan";"SUMATERA UTARA";"22454";"Indonesia";"";"";"";"2.1389506";"98.6091604";"https://maps.google.com/?cid=0x0:0x90d80dfbd72f9457";""
"perumahan";"Pembangunan Perumahan";"Op. Jenitha Banjar Nahor/Br. Silaban";"5J5W+X8H, Sihikkit, Kec. Onan Ganjang, Kabupaten Humbang Hasundutan, Sumatera Utara 22454";"Sihikkit, Kec. Onan Ganjang, Kabupaten Humbang Hasundutan";"SUMATERA UTARA";"22454";"Indonesia";" 085372616324";"";"";"2.1599279";"98.6458646";"https://maps.google.com/?cid=0x0:0x5b8ec243df7a6d9c";""
"perumahan";"Komplek perumahan";"Rumah sam";"Jl. Pakkat - Dolok Sanggul No.35, Onan Ganjang, Kec. Onan Ganjang, Kabupaten Humbang Hasundutan, Sumatera Utara 22454";"Onan Ganjang, Kec. Onan Ganjang, Kabupaten Humbang Hasundutan";"SUMATERA UTARA";"22454";"Indonesia";"";"";"";"2.159636";"98.630281";"https://maps.google.com/?cid=0x0:0x571426fc80715a44";""
"perumahan";"Kantor Perusahaan";"A Rivaldo L Gaol";"4JXJ+36P, Onan Ganjang, Kec. Onan Ganjang, Kabupaten Humbang Hasundutan, Sumatera Utara 22454";"Onan Ganjang, Kec. Onan Ganjang, Kabupaten Humbang Hasundutan";"SUMATERA UTARA";"22454";"Indonesia";" 081260405388";"";"";"2.1477019";"98.6305681";"https://maps.google.com/?cid=0x0:0xe64c6377e0e63a11";""
"perumahan";"Komplek perumahan";"Op.Christa Bella Olivia L. Batu";"4JWJ+96V, Onan Ganjang, Kec. Onan Ganjang, Kabupaten Humbang Hasundutan, Sumatera Utara 22454";"Onan Ganjang, Kec. Onan Ganjang, Kabupaten Humbang Hasundutan";"SUMATERA UTARA";"22454";"Indonesia";" 085363617949";"";"";"2.1459781";"98.6305587";"https://maps.google.com/?cid=0x0:0x10e0b7a396de257f";""
"perumahan";"Pembangunan Perumahan";"Rumah oppung josep";"5J5W+X8H, Sihikkit, Kec. Onan Ganjang, Kabupaten Humbang Hasundutan, Sumatera Utara 22454";"Sihikkit, Kec. Onan Ganjang, Kabupaten Humbang Hasundutan";"SUMATERA UTARA";"22454";"Indonesia";"";"";"";"2.1598471";"98.6458839";"https://maps.google.com/?cid=0x0:0x7c36907f80269ec1";""
"perumahan";"Vila";"Rumah Jufrian/Friskila";"4JXF+WG6, Jl. Pakkat - Dolok Sanggul, Onan Ganjang, Kec. Onan Ganjang, Kabupaten Humbang Hasundutan, Sumatera Utara 22454";"Jl. Pakkat - Dolok Sanggul, Onan Ganjang, Kec. Onan Ganjang, Kabupaten Humbang Hasundutan";"SUMATERA UTARA";"22454";"Indonesia";"";"";"";"2.1497805";"98.6237774";"https://maps.google.com/?cid=0x0:0x52057af96676737f";""
"perumahan";"Pusat Kesehatan Masyarakat";"Puskesmas Onan Ganjang";"4JV9+P25, Jl. Pakkat - Dolok Sanggul, Onan Ganjang, Kec. Onan Ganjang, Kabupaten Humbang Hasundutan, Sumatera Utara 22454";"Jl. Pakkat - Dolok Sanggul, Onan Ganjang, Kec. Onan Ganjang, Kabupaten Humbang Hasundutan";"SUMATERA UTARA";"22454";"Indonesia";" 085262896062";"";"";"2.1442574";"98.617594";"https://maps.google.com/?cid=0x0:0x6356b14983b0abcd";""
"perumahan";"Perumahan";"Santi Sitorus";"5JHP+57G, Turidataran, Parnapa, Kec. Onan Ganjang, Kabupaten Humbang Hasundutan, Sumatera Utara";"Kabupaten Humbang Hasundutan, Sumatera Utara";"SUMATERA UTARA";"";"Indonesia";"";"";"";"2.1779271";"98.6357097";"https://maps.google.com/?cid=0x0:0x3ad7a6ff9756486e";""
"perumahan";"perumahan";"Huta Lumban Pandiangan";"5JF4+VH8, Batu Nagodang Siatas, Kec. Onan Ganjang, Kabupaten Humbang Hasundutan, Sumatera Utara 22455";"Batu Nagodang Siatas, Kec. Onan Ganjang, Kabupaten Humbang Hasundutan";"SUMATERA UTARA";"22455";"Indonesia";"";"";"";"2.1746693";"98.6064538";"https://maps.google.com/?cid=0x0:0xb23cc3d1e8516c4b";""
"perumahan";"Pembangunan Perumahan";"Jabu";"5JC3+XQC, Batu Nagodang Siatas, Kec. Onan Ganjang, Kabupaten Humbang Hasundutan, Sumatera Utara 22455";"Batu Nagodang Siatas, Kec. Onan Ganjang, Kabupaten Humbang Hasundutan";"SUMATERA UTARA";"22455";"Indonesia";"";"";"";"2.1723489";"98.604667";"https://maps.google.com/?cid=0x0:0x247ef090a514c2e5";""
"perumahan";"Komplek perumahan";"Jabu ni pak gembira sihombing";"5J4M+HV, Sihikkit, Kec. Onan Ganjang, Kabupaten Humbang Hasundutan, Sumatera Utara 22454";"Sihikkit, Kec. Onan Ganjang, Kabupaten Humbang Hasundutan";"SUMATERA UTARA";"22454";"Indonesia";"";"";"";"2.1564384";"98.6346977";"https://maps.google.com/?cid=0x0:0x183b369714d7d727";""
"perumahan";"Komplek perumahan";"rumah p reflandi Simbolon";"5JF4+VH8, Batu Nagodang Siatas, Kec. Onan Ganjang, Kabupaten Humbang Hasundutan, Sumatera Utara 22455";"Batu Nagodang Siatas, Kec. Onan Ganjang, Kabupaten Humbang Hasundutan";"SUMATERA UTARA";"22455";"Indonesia";"";"";"";"2.1753921";"98.6073311";"https://maps.google.com/?cid=0x0:0xf0cef54295d1549a";""
"perumahan";"Komplek perumahan";"Tapian Nauli naso marhasohan";"5JC3+2RJ, Batu Nagodang Siatas, Kec. Onan Ganjang, Kabupaten Humbang Hasundutan, Sumatera Utara 22455";"Batu Nagodang Siatas, Kec. Onan Ganjang, Kabupaten Humbang Hasundutan";"SUMATERA UTARA";"22455";"Indonesia";"";"";"";"2.1700968";"98.6045155";"https://maps.google.com/?cid=0x0:0x4de4e9cc3dd234c7";""
"perumahan";"Pembangunan Perumahan";"Rumah op Ben Nainggolan";"5M43+62H, Hutajulu, Kec. Onan Ganjang, Kabupaten Humbang Hasundutan, Sumatera Utara 22454";"Hutajulu, Kec. Onan Ganjang, Kabupaten Humbang Hasundutan";"SUMATERA UTARA";"22454";"Indonesia";"";"";"";"2.155646";"98.6521361";"https://maps.google.com/?cid=0x0:0xe6c0b82c41b01d32";""
"perumahan";"Komplek perumahan";"Huta sorga( sosor gadong)";"5M73+6PC, Sihikkit, Kec. Onan Ganjang, Kabupaten Humbang Hasundutan, Sumatera Utara";"Kabupaten Humbang Hasundutan, Sumatera Utara";"SUMATERA UTARA";"";"Indonesia";"";"";"";"2.1630534";"98.6542802";"https://maps.google.com/?cid=0x0:0x1b10a4d2e04af9a0";""
"perumahan";"Komplek perumahan";"Rumah Op. Mordecai";"5JMP+5V3, Jl. Pakkat - Dolok Sanggul, Parnapa, Kec. Onan Ganjang, Kabupaten Humbang Hasundutan, Sumatera Utara";"Kabupaten Humbang Hasundutan, Sumatera Utara";"SUMATERA UTARA";"";"Indonesia";"";"";"";"2.1828752";"98.6371745";"https://maps.google.com/?cid=0x0:0x5f7ee14fcb001c1c";""
"perumahan";"Pemakaman";"Tambak Op Manesep Aritonang";"4JV9+HG, Onan Ganjang, Kec. Onan Ganjang, Kabupaten Humbang Hasundutan, Sumatera Utara 22454";"Onan Ganjang, Kec. Onan Ganjang, Kabupaten Humbang Hasundutan";"SUMATERA UTARA";"22454";"Indonesia";"";"";"";"2.14395";"98.618838";"https://maps.google.com/?cid=0x0:0x942da7df0b305212";""
"perumahan";"perumahan";"Pakkat";"Pakkat Hauagong, Kec. Pakkat, Kabupaten Humbang Hasundutan, Sumatera Utara";"Kabupaten Humbang Hasundutan, Sumatera Utara";"SUMATERA UTARA";"";"Indonesia";"";"";"";"2.145129";"98.473518";"https://maps.google.com/?cid=0x0:0xd970ca7c81a5c728";""
"perumahan";"Komplek perumahan";"Rumah yohan";"4FVF+WW9, Gang Sehat, Pakkat Hauagong, Kec. Pakkat, Kabupaten Humbang Hasundutan, Sumatera Utara";"Kabupaten Humbang Hasundutan, Sumatera Utara";"SUMATERA UTARA";"";"Indonesia";"";"";"";"2.144785";"98.4748567";"https://maps.google.com/?cid=0x0:0xaa7c2d2536f33713";""
"perumahan";"Komplek perumahan";"ALVINO TAMPUBOLON";"4FWF+3C2, Pakkat Hauagong, Kec. Pakkat, Kabupaten Humbang Hasundutan, Sumatera Utara";"Kabupaten Humbang Hasundutan, Sumatera Utara";"SUMATERA UTARA";"";"Indonesia";"";"";"";"2.145129";"98.473518";"https://maps.google.com/?cid=0x0:0x3f942b2b84bc5ad9";""
"perumahan";"Pembangunan Perumahan";"Rumah carolina";"4FVF+RR7, Pakkat Hauagong, Kec. Pakkat, Kabupaten Humbang Hasundutan, Sumatera Utara 22455";"Pakkat Hauagong, Kec. Pakkat, Kabupaten Humbang Hasundutan";"SUMATERA UTARA";"22455";"Indonesia";"";"";"";"2.1445398";"98.4745433";"https://maps.google.com/?cid=0x0:0xce6558ee6423746e";""
"perumahan";"perumahan";"Kampung";"4FWF+3C2, Pakkat Hauagong, Kec. Pakkat, Kabupaten Humbang Hasundutan, Sumatera Utara";"Kabupaten Humbang Hasundutan, Sumatera Utara";"SUMATERA UTARA";"";"Indonesia";"";"";"";"2.145129";"98.473518";"https://maps.google.com/?cid=0x0:0xb9192ff260548f76";""
"perumahan";"perumahan";"Kec. Paranginan";"Kabupaten Humbang Hasundutan, Sumatera Utara";"Kabupaten Humbang Hasundutan, Sumatera Utara";"SUMATERA UTARA";"";"Indonesia";"";"";"";"2.3016854";"98.9270035";"https://maps.google.com/?cid=0x0:0x690416ecba08580d";""
"perumahan";"Perhimpunan Pengembang Perumahan";"Paranginan";"7XM4+4M, Siborutorup, Kec. Paranginan, Kabupaten Humbang Hasundutan, Sumatera Utara";"Kabupaten Humbang Hasundutan, Sumatera Utara";"SUMATERA UTARA";"";"Indonesia";"";"";"";"2.28278";"98.956692";"https://maps.google.com/?cid=0x0:0x990c9b22f4c49494";""
"perumahan";"Pembangunan Perumahan";"Simpang Tiga";"7XW6+G57, Paranginan Sel., Kec. Paranginan, Kabupaten Humbang Hasundutan, Sumatera Utara 22476";"Paranginan Sel., Kec. Paranginan, Kabupaten Humbang Hasundutan";"SUMATERA UTARA";"22476";"Indonesia";"";"";"";"2.2962886";"98.9604179";"https://maps.google.com/?cid=0x0:0xa67a8f4d8065e55f";""
"perumahan";"Komplek perumahan";"Lumban sialaman";"7WFF+W8W, Lumban Sialaman, Kec. Paranginan, Kabupaten Humbang Hasundutan, Sumatera Utara 22475";"Lumban Sialaman, Kec. Paranginan, Kabupaten Humbang Hasundutan";"SUMATERA UTARA";"22475";"Indonesia";"";"";"";"2.2748625";"98.9233281";"https://maps.google.com/?cid=0x0:0x1026c330f4751999";""
"perumahan";"Pembangunan Perumahan";"Dolok Nagodang";"7XG6+J9P, Paranginan Sel., Kec. Paranginan, Kabupaten Humbang Hasundutan, Sumatera Utara 22476";"Paranginan Sel., Kec. Paranginan, Kabupaten Humbang Hasundutan";"SUMATERA UTARA";"22476";"Indonesia";"";"";"";"2.2765948";"98.9609421";"https://maps.google.com/?cid=0x0:0x23e2c051cce325d7";""
"perumahan";"Pembangunan Perumahan";"LOBUTOLONG PUSAT";"7WP5+F8W, Lobu Tolong, Kec. Paranginan, Kabupaten Humbang Hasundutan, Sumatera Utara 22475";"Lobu Tolong, Kec. Paranginan, Kabupaten Humbang Hasundutan";"SUMATERA UTARA";"22475";"Indonesia";"";"";"";"2.2862408";"98.9083232";"https://maps.google.com/?cid=0x0:0x252ad037ffa2bad3";""
"perumahan";"Komplek perumahan";"Markas na si GaeS";"7XR4+HVQ, Jl. Raya Muara, Paranginan Sel., Kec. Paranginan, Kabupaten Humbang Hasundutan, Sumatera Utara 22476";"Jl. Raya Muara, Paranginan Sel., Kec. Paranginan, Kabupaten Humbang Hasundutan";"SUMATERA UTARA";"22476";"Indonesia";"";"";"";"2.2914564";"98.9572477";"https://maps.google.com/?cid=0x0:0x3ca432a056b274c4";""
"perumahan";"Komplek perumahan";"Perkampungan Op.Taruli Siburian";"7WVF+J83, Lumban Bar., Kec. Paranginan, Kabupaten Humbang Hasundutan, Sumatera Utara";"Kabupaten Humbang Hasundutan, Sumatera Utara";"SUMATERA UTARA";"";"Indonesia";"";"";"";"2.2940133";"98.9232846";"https://maps.google.com/?cid=0x0:0xa2171907666165d8";""
"perumahan";"Komplek perumahan";"Lumban Pangipaipaan";"8V7Q+C54, Jl. Melanthon Siregar, Pearung, Kec. Paranginan, Kabupaten Humbang Hasundutan, Sumatera Utara 22476";"Jl. Melanthon Siregar, Pearung, Kec. Paranginan, Kabupaten Humbang Hasundutan";"SUMATERA UTARA";"22476";"Indonesia";"";"";"";"2.3135156";"98.887942";"https://maps.google.com/?cid=0x0:0x43af948d69ba515c";""
"perumahan";"Komplek perumahan";"R. Siburian / Br Sidabutar";"8W2J+6M3, Sihonongan, Kec. Paranginan, Kabupaten Humbang Hasundutan, Sumatera Utara 22476";"Sihonongan, Kec. Paranginan, Kabupaten Humbang Hasundutan";"SUMATERA UTARA";"22476";"Indonesia";"";"";"";"2.3005215";"98.9316712";"https://maps.google.com/?cid=0x0:0x4ecfea89817b53c2";""
"perumahan";"Toko bahan makanan";"Lapo";"7WJM+P4W, Lumban Bar., Kec. Paranginan, Kabupaten Humbang Hasundutan, Sumatera Utara";"Kabupaten Humbang Hasundutan, Sumatera Utara";"SUMATERA UTARA";"";"Indonesia";"";"";"";"2.280728";"98.933352";"https://maps.google.com/?cid=0x0:0xd76471a7909d02b8";""
"perumahan";"perumahan";"Rumah huni";"7WVR+9M, Lumban Bar., Kec. Paranginan, Kabupaten Humbang Hasundutan, Sumatera Utara";"Kabupaten Humbang Hasundutan, Sumatera Utara";"SUMATERA UTARA";"";"Indonesia";"";"";"";"2.293383";"98.941683";"https://maps.google.com/?cid=0x0:0x41edd117d7ea1047";""
"perumahan";"Komplek perumahan";"Lumban sihonongan";"7W8J+FGV, Lumban Sialaman, Kec. Paranginan, Kabupaten Humbang Hasundutan, Sumatera Utara";"Kabupaten Humbang Hasundutan, Sumatera Utara";"SUMATERA UTARA";"";"Indonesia";"";"";"";"2.2662338";"98.9313053";"https://maps.google.com/?cid=0x0:0x675c7d5b4211b311";""
"perumahan";"Komplek perumahan";"Rumah Sianturi/Br.Sinaga";"Jl. Sisingamangaraja No.100, Lobu Tolong, Kec. Paranginan, Kabupaten Humbang Hasundutan, Sumatera Utara 22475";"Lobu Tolong, Kec. Paranginan, Kabupaten Humbang Hasundutan";"SUMATERA UTARA";"22475";"Indonesia";"";"";"";"2.2908468";"98.9161268";"https://maps.google.com/?cid=0x0:0x4ae463d8a9343b8";""
"perumahan";"Komplek perumahan";"Op. Immanuel";"7XP5+CFM, Jl. Raya Muara, Siborutorup, Kec. Paranginan, Kabupaten Humbang Hasundutan, Sumatera Utara 22476";"Jl. Raya Muara, Siborutorup, Kec. Paranginan, Kabupaten Humbang Hasundutan";"SUMATERA UTARA";"22476";"Indonesia";"";"";"";"2.286087";"98.9586767";"https://maps.google.com/?cid=0x0:0x57d154603eec40be";""
"perumahan";"Komplek perumahan";"Mom's Place";"7WJG+5JC, Lumban Bar., Kec. Paranginan, Kabupaten Humbang Hasundutan, Sumatera Utara 22475";"Lumban Bar., Kec. Paranginan, Kabupaten Humbang Hasundutan";"SUMATERA UTARA";"22475";"Indonesia";"";"";"";"2.2804264";"98.9265089";"https://maps.google.com/?cid=0x0:0xd68abe74fe75956e";""
"perumahan";"Komplek perumahan";"Rohadin Sianturi";"8V6W+885, Pearung Silali, Kec. Paranginan, Kabupaten Humbang Hasundutan, Sumatera Utara 22476";"Pearung Silali, Kec. Paranginan, Kabupaten Humbang Hasundutan";"SUMATERA UTARA";"22476";"Indonesia";"";"";"";"2.3101764";"98.8968302";"https://maps.google.com/?cid=0x0:0x27a62e4e4f08c441";""
"perumahan";"Pembangunan Perumahan";"Parhutaan St. Williater Siantur";"7XV4+FJ5, Jl. Raya Muara, Paranginan Sel., Kec. Paranginan, Kabupaten Humbang Hasundutan, Sumatera Utara 22476";"Jl. Raya Muara, Paranginan Sel., Kec. Paranginan, Kabupaten Humbang Hasundutan";"SUMATERA UTARA";"22476";"Indonesia";"";"";"";"2.2936414";"98.9566243";"https://maps.google.com/?cid=0x0:0x25a890ae16f6338a";""
"perumahan";"Komplek perumahan";"SIANIPAR FAMILY'S";"7WGG+62X, Lumban Bar., Kec. Paranginan, Kabupaten Humbang Hasundutan, Sumatera Utara 22475";"Lumban Bar., Kec. Paranginan, Kabupaten Humbang Hasundutan";"SUMATERA UTARA";"22475";"Indonesia";"";"";"";"2.2756141";"98.9251019";"https://maps.google.com/?cid=0x0:0xad00e61a0b961c83";""
"perumahan";"Komplek perumahan";"Lumban Silo - Tempat Temanku Yang Berharga";"8V7R+Q9H, Unnamed Road, Pearung, Paranginan, Humbang Hasundutan Regency, North Sumatra 22476";"Unnamed Road, Pearung, Paranginan, Humbang Hasundutan Regency";"SUMATERA UTARA";"22476";"Indonesia";"";"";"";"2.3144343";"98.8909819";"https://maps.google.com/?cid=0x0:0x43b8c3b7b8b19581";""
"perumahan";"Perumahan";"Dippu";"7WQ3+XM2, Jl. Sisingamangaraja, Lobu Tolong, Kec. Paranginan, Kabupaten Humbang Hasundutan, Sumatera Utara 22475";"Jl. Sisingamangaraja, Lobu Tolong, Kec. Paranginan, Kabupaten Humbang Hasundutan";"SUMATERA UTARA";"22475";"Indonesia";"";"";"";"2.2898987";"98.9041524";"https://maps.google.com/?cid=0x0:0x9241867a60e57a0d";""
"perumahan";"Perhimpunan Pengembang Perumahan";"Unduk sanggar";"7XC4+HM7, Siborutorup, Kec. Paranginan, Kabupaten Humbang Hasundutan, Sumatera Utara 22476";"Siborutorup, Kec. Paranginan, Kabupaten Humbang Hasundutan";"SUMATERA UTARA";"22476";"Indonesia";" 081264065861";"";"";"2.271415";"98.9566865";"https://maps.google.com/?cid=0x0:0x88025f0c3425c133";""
"perumahan";"Komplek perumahan";"Rumah Putry";"7W43+VX6, Jl. Damai, Nagasaribu I, Kec. Lintong Nihuta, Kabupaten Humbang Hasundutan, Sumatera Utara 22475";"Jl. Damai, Nagasaribu I, Kec. Lintong Nihuta, Kabupaten Humbang Hasundutan";"SUMATERA UTARA";"22475";"Indonesia";" 082211820872";"";"";"2.2571593";"98.9048954";"https://maps.google.com/?cid=0x0:0x2e8e33fd735fc538";""
"perumahan";"Komplek perumahan";"Huta Hariara";"8W4M+57, Sihonongan, Kec. Paranginan, Kabupaten Humbang Hasundutan, Sumatera Utara";"Kabupaten Humbang Hasundutan, Sumatera Utara";"SUMATERA UTARA";"";"Indonesia";"";"";"";"2.3054515";"98.9332058";"https://maps.google.com/?cid=0x0:0x194c47665026112a";""
"perumahan";"Praktisi perawat";"Rumah Freddy Togatorop";"7WFR+RG3, Siborutorup, Kec. Paranginan, Kabupaten Humbang Hasundutan, Sumatera Utara 22476";"Siborutorup, Kec. Paranginan, Kabupaten Humbang Hasundutan";"SUMATERA UTARA";"22476";"Indonesia";"";"";"";"2.274516";"98.9413014";"https://maps.google.com/?cid=0x0:0x36c102499dd79df";""
"perumahan";"Kantor Pemerintah";"Parlilitan";"8F94+5RJ, Sihotang Hasugian Tonga, Kec. Parlilitan, Kabupaten Humbang Hasundutan, Sumatera Utara 22456";"Sihotang Hasugian Tonga, Kec. Parlilitan, Kabupaten Humbang Hasundutan";"SUMATERA UTARA";"22456";"Indonesia";"";"";"";"2.3179599";"98.457001";"https://maps.google.com/?cid=0x0:0xd9cb5a854a0ad4d4";""
"perumahan";"Kantor Polisi Lalu Lintas";"Polsek Parlilitan";"8FF4+9P7, Sihotang Hasugian Tonga, Kec. Parlilitan, Kabupaten Humbang Hasundutan, Sumatera Utara 22456";"Sihotang Hasugian Tonga, Kec. Parlilitan, Kabupaten Humbang Hasundutan";"SUMATERA UTARA";"22456";"Indonesia";"";"";"";"2.3234056";"98.4568112";"https://maps.google.com/?cid=0x0:0x48eae2c2e7b370ba";""
"perumahan";"perumahan";"Sumatera Utara 22457";"Kabupaten Humbang Hasundutan, Sumatera Utara";"Kabupaten Humbang Hasundutan, Sumatera Utara";"SUMATERA UTARA";"";"Indonesia";"";"";"";"2.2174078";"98.7260927";"https://maps.google.com/?cid=0x0:0xfc492d8c933a9bef";""
"perumahan";"Komplek perumahan";"Nagatimbul";"7MVV+FQ7, Jl. Dolok Sanggul-Pollung, Aek Nauli II, Kec. Pollung, Kabupaten Humbang Hasundutan, Sumatera Utara 22457";"Jl. Dolok Sanggul-Pollung, Aek Nauli II, Kec. Pollung, Kabupaten Humbang Hasundutan";"SUMATERA UTARA";"22457";"Indonesia";"";"";"";"2.2936552";"98.6944305";"https://maps.google.com/?cid=0x0:0x20d0d96443055230";""
"perumahan";"perumahan";"Jelita Simamora";"7Q63+FHJ Huta Banjarnahor, Pasaribu, Kec. Dolok sanggul, Kabupaten Humbang Hasundutan, Sumatera Utara 22457";"Pasaribu, Kec. Dolok sanggul, Kabupaten Humbang Hasundutan";"SUMATERA UTARA";"22457";"Indonesia";"";"";"";"2.2612043";"98.7539011";"https://maps.google.com/?cid=0x0:0x47681a81e7d894f0";""
"perumahan";"Komplek perumahan";"Lumban Sinaga";"7MVV+GV4, Aek Nauli II, Kec. Pollung, Kabupaten Humbang Hasundutan, Sumatera Utara 22457";"Aek Nauli II, Kec. Pollung, Kabupaten Humbang Hasundutan";"SUMATERA UTARA";"22457";"Indonesia";"";"";"";"2.293751";"98.6947068";"https://maps.google.com/?cid=0x0:0x2a8488f8bb2194c";""
"perumahan";"Komplek perumahan";"Rumah Op.Grace Situmorang";"8P86+4X2, Sipitu Huta, Kec. Pollung, Kabupaten Humbang Hasundutan, Sumatera Utara 22457";"Sipitu Huta, Kec. Pollung, Kabupaten Humbang Hasundutan";"SUMATERA UTARA";"22457";"Indonesia";"";"";"";"2.3152592";"98.7123846";"https://maps.google.com/?cid=0x0:0x30e5160a4b35efaa";""
"perumahan";"Pondok";"Rumah Happy Silitonga";"7Q43+P9Q, Pasaribu, Kec. Dolok sanggul, Kabupaten Humbang Hasundutan, Sumatera Utara 22457";"Pasaribu, Kec. Dolok sanggul, Kabupaten Humbang Hasundutan";"SUMATERA UTARA";"22457";"Indonesia";"";"";"";"2.2568463";"98.7534771";"https://maps.google.com/?cid=0x0:0xeacf07848e254af5";""
"perumahan";"Komplek perumahan";"Kompleks Pasar Habinsaran Op.Barita Oloan Sihite";"Jl. Pakkat - Dolok Sanggul No.6, Lumban Tobing, Kec. Dolok sanggul, Kabupaten Humbang Hasundutan, Sumatera Utara 22457";"Lumban Tobing, Kec. Dolok sanggul, Kabupaten Humbang Hasundutan";"SUMATERA UTARA";"22457";"Indonesia";"";"";"";"2.2582592";"98.7408853";"https://maps.google.com/?cid=0x0:0x31115e638f3caf13";""
"perumahan";"Pembangunan Perumahan";"partungkoan 2";"6QJ7+P75, Aek Lung, Kec. Dolok sanggul, Kabupaten Humbang Hasundutan, Sumatera Utara 22457";"Aek Lung, Kec. Dolok sanggul, Kabupaten Humbang Hasundutan";"SUMATERA UTARA";"22457";"Indonesia";"";"";"";"2.2312632";"98.7628487";"https://maps.google.com/?cid=0x0:0xe3110d9b430d153d";""
"perumahan";"Komplek perumahan";"Rumah Elvano Siregar";"7PFW+4X2, Sirisirisi, Kec. Dolok sanggul, Kabupaten Humbang Hasundutan, Sumatera Utara 22457";"Sirisirisi, Kec. Dolok sanggul, Kabupaten Humbang Hasundutan";"SUMATERA UTARA";"22457";"Indonesia";"";"";"";"2.2727566";"98.7473753";"https://maps.google.com/?cid=0x0:0xc116acb4d312d3d6";""
"perumahan";"Komplek perumahan";"Rumah kaa felii";"8P4G+9GH, Aek Nauli II, Kec. Pollung, Kabupaten Humbang Hasundutan, Sumatera Utara 22457";"Aek Nauli II, Kec. Pollung, Kabupaten Humbang Hasundutan";"SUMATERA UTARA";"22457";"Indonesia";"";"";"";"2.3054167";"98.7268333";"https://maps.google.com/?cid=0x0:0x4bf353e4beb5554d";""
"perumahan";"Komplek perumahan";"Perumnas Doloksanggul";"7M6H+J96, Unnamed Road, Matiti I, Kec. Dolok sanggul, Kabupaten Humbang Hasundutan, Sumatera Utara 22457";"Unnamed Road, Matiti I, Kec. Dolok sanggul, Kabupaten Humbang Hasundutan";"SUMATERA UTARA";"22457";"Indonesia";"";"";"";"2.2615484";"98.6783918";"https://maps.google.com/?cid=0x0:0x3f3b3a3dc0d65466";""
"perumahan";"Komplek perumahan";"Keluarga YR";"8P4G+8CW, Aek Nauli II, Kec. Pollung, Kabupaten Humbang Hasundutan, Sumatera Utara 22457";"Aek Nauli II, Kec. Pollung, Kabupaten Humbang Hasundutan";"SUMATERA UTARA";"22457";"Indonesia";"";"";"";"2.3058627";"98.7260715";"https://maps.google.com/?cid=0x0:0xaf66ae4141bb6e9a";""
"perumahan";"Komplek perumahan";"Pak Laung";"7PR5+5FM, Aek Nauli II, Kec. Pollung, Kabupaten Humbang Hasundutan, Sumatera Utara 22457";"Aek Nauli II, Kec. Pollung, Kabupaten Humbang Hasundutan";"SUMATERA UTARA";"22457";"Indonesia";"";"";"";"2.2904669";"98.7086626";"https://maps.google.com/?cid=0x0:0xc2b0c4f8a17e92c6";""
"perumahan";"Perhimpunan Pengembang Perumahan";"Asima Sianturi";"7MPX+R23, Aek Nauli II, Kec. Pollung, Kabupaten Humbang Hasundutan, Sumatera Utara 22457";"Aek Nauli II, Kec. Pollung, Kabupaten Humbang Hasundutan";"SUMATERA UTARA";"22457";"Indonesia";"";"";"";"2.2870068";"98.6975517";"https://maps.google.com/?cid=0x0:0x826d78543967ecf1";""
"perumahan";"Komplek perumahan";"Op.Lasti Simanullang";"7PJ8+4XV Huta Godang, Jl. Patuan Anggi, Parik Sinomba, Kec. Dolok sanggul, Kabupaten Humbang Hasundutan, Sumatera Utara 22457";"Jl. Patuan Anggi, Parik Sinomba, Kec. Dolok sanggul, Kabupaten Humbang Hasundutan";"SUMATERA UTARA";"22457";"Indonesia";"";"";"";"2.2803522";"98.7174069";"https://maps.google.com/?cid=0x0:0x8c22dd24783338d2";""
"perumahan";"Pembangunan Perumahan";"Rumah A. Ezra Simanullang";"Jl. Pakkat - Dolok Sanggul No.43, Matiti I, Kec. Dolok sanggul, Kabupaten Humbang Hasundutan, Sumatera Utara 22457";"Matiti I, Kec. Dolok sanggul, Kabupaten Humbang Hasundutan";"SUMATERA UTARA";"22457";"Indonesia";"";"";"";"2.2575907";"98.7092201";"https://maps.google.com/?cid=0x0:0xbdc4e15eeec198d8";""
"perumahan";"Gedung Apartemen";"Rumah Opung Jenny";"7MGX+449, Jl. Dolok Sanggul-Pollung, Aek Nauli II, Kec. Pollung, Kabupaten Humbang Hasundutan, Sumatera Utara 22457";"Jl. Dolok Sanggul-Pollung, Aek Nauli II, Kec. Pollung, Kabupaten Humbang Hasundutan";"SUMATERA UTARA";"22457";"Indonesia";"";"";"";"2.274473";"98.697925";"https://maps.google.com/?cid=0x0:0x6a7a03c0470c2fb5";""
"perumahan";"perumahan";"Rumah Opung Maria Simamora";"7QJ9+CHC, Sosor Gonting, Kec. Dolok sanggul, Kabupaten Humbang Hasundutan, Sumatera Utara 22457";"Sosor Gonting, Kec. Dolok sanggul, Kabupaten Humbang Hasundutan";"SUMATERA UTARA";"22457";"Indonesia";"";"";"";"2.2810686";"98.7689013";"https://maps.google.com/?cid=0x0:0x3caeea173ef07166";""
"perumahan";"Komplek perumahan";"Kompleks Gonting Bulu";"7QCF+WVV, Pasaribu, Kec. Dolok sanggul, Kabupaten Humbang Hasundutan, Sumatera Utara 22457";"Pasaribu, Kec. Dolok sanggul, Kabupaten Humbang Hasundutan";"SUMATERA UTARA";"22457";"Indonesia";"";"";"";"2.272368";"98.7746592";"https://maps.google.com/?cid=0x0:0x3373f5e40436995d";""
"perumahan";"Komplek perumahan";"Pangaloan";"7P6R+CJ, Bonani Onan, Kec. Dolok sanggul, Kabupaten Humbang Hasundutan, Sumatera Utara";"Kabupaten Humbang Hasundutan, Sumatera Utara";"SUMATERA UTARA";"";"Indonesia";"";"";"";"2.2611208";"98.741538";"https://maps.google.com/?cid=0x0:0x194025c427493ecb";""
"perumahan";"Komplek perumahan";"Huta Bolon Pollung";"8PPM+MXG, Parsingguran I, Kec. Pollung, Kabupaten Humbang Hasundutan, Sumatera Utara 22457";"Parsingguran I, Kec. Pollung, Kabupaten Humbang Hasundutan";"SUMATERA UTARA";"22457";"Indonesia";"";"";"";"2.3366756";"98.7349662";"https://maps.google.com/?cid=0x0:0x4b37127f2bdb519c";""
"perumahan";"Komplek perumahan";"RUMAH ANISA PURBA";"7PQ7+79Q, Aek Nauli II, Kec. Pollung, Kabupaten Humbang Hasundutan, Sumatera Utara 22457";"Aek Nauli II, Kec. Pollung, Kabupaten Humbang Hasundutan";"SUMATERA UTARA";"22457";"Indonesia";"";"";"";"2.2879842";"98.7143669";"https://maps.google.com/?cid=0x0:0xe6e252ea12aecac3";""
"perumahan";"Perumahan";"Rumah op kalep";"8M5P+G73, Jl,pandumaan, Aek Nauli II, Kec. Pollung, Kabupaten Humbang Hasundutan, Sumatera Utara 22457";"Jl,pandumaan, Aek Nauli II, Kec. Pollung, Kabupaten Humbang Hasundutan";"SUMATERA UTARA";"22457";"Indonesia";"";"";"";"2.3087616";"98.6856617";"https://maps.google.com/?cid=0x0:0xbc948325b95b82b9";""
"perumahan";"Komplek perumahan";"Rumah Op.Gendut";"7MPX+P25, Aek Nauli II, Kec. Pollung, Kabupaten Humbang Hasundutan, Sumatera Utara 22457";"Aek Nauli II, Kec. Pollung, Kabupaten Humbang Hasundutan";"SUMATERA UTARA";"22457";"Indonesia";"";"";"";"2.2868361";"98.6978949";"https://maps.google.com/?cid=0x0:0xe3d3b43b96662cc";""
"perumahan";"Komplek perumahan";"Rumah B Sitohang ( Op Gabriella )";"7MPX+M2X, Aek Nauli II, Kec. Pollung, Kabupaten Humbang Hasundutan, Sumatera Utara 22457";"Aek Nauli II, Kec. Pollung, Kabupaten Humbang Hasundutan";"SUMATERA UTARA";"22457";"Indonesia";"";"";"";"2.2869513";"98.6977373";"https://maps.google.com/?cid=0x0:0x64a967b9eb2fdc0b";""
"perumahan";"Pembangunan Perumahan";"Oppung Pasuo LG";"8P86+FG8, Aek Nauli II, Kec. Pollung, Kabupaten Humbang Hasundutan, Sumatera Utara 22457";"Aek Nauli II, Kec. Pollung, Kabupaten Humbang Hasundutan";"SUMATERA UTARA";"22457";"Indonesia";"";"";"";"2.3164908";"98.7116439";"https://maps.google.com/?cid=0x0:0x6e1e1b0408597bfc";""
"perumahan";"Komplek perumahan";"Op.HALOMOAN SIANTURI";"Lbn.Sopang Desa:Parik Sinomba Kec:Dolok Sanggul, Aek Nauli II, Kec. Pollung, Kabupaten Humbang Hasundutan, Sumatera Utara 22457";"Aek Nauli II, Kec. Pollung, Kabupaten Humbang Hasundutan";"SUMATERA UTARA";"22457";"Indonesia";"";"";"";"2.282422";"98.7094237";"https://maps.google.com/?cid=0x0:0x2513129ccfff89bc";""
"perumahan";"Pembangunan Perumahan";"Leluhur oppungi raja bius hutaimbaru Wiratno Sihite (bapak Clara)";"7P5J+25G, Jl. Pakkat - Dolok Sanggul, Huta Bagasan, Kec. Dolok sanggul, Kabupaten Humbang Hasundutan, Sumatera Utara 22457";"Jl. Pakkat - Dolok Sanggul, Huta Bagasan, Kec. Dolok sanggul, Kabupaten Humbang Hasundutan";"SUMATERA UTARA";"22457";"Indonesia";"";"";"";"2.2575677";"98.730467";"https://maps.google.com/?cid=0x0:0xfffd6144aad50f49";""
"perumahan";"perumahan";"Kec. Sijama Polang";"Kabupaten Humbang Hasundutan, Sumatera Utara";"Kabupaten Humbang Hasundutan, Sumatera Utara";"SUMATERA UTARA";"";"Indonesia";"";"";"";"2.2108811";"98.721307";"https://maps.google.com/?cid=0x0:0xd50f2722ee3ef986";""
"perumahan";"Komplek perumahan";"Istanah OP RUMANTI hutasoit";"4QQ2+PGQ Hutasoit, Sigulok, Kec. Sijama Polang, Kabupaten Humbang Hasundutan, Sumatera Utara 22457";"Sigulok, Kec. Sijama Polang, Kabupaten Humbang Hasundutan";"SUMATERA UTARA";"22457";"Indonesia";"";"";"";"2.1393419";"98.7513499";"https://maps.google.com/?cid=0x0:0xaf119af65310d15";""
"perumahan";"Komplek perumahan";"MONICA HOUSE";"6P58+CHC, Siborboron, Kec. Sijama Polang, Kabupaten Humbang Hasundutan, Sumatera Utara 22457";"Siborboron, Kec. Sijama Polang, Kabupaten Humbang Hasundutan";"SUMATERA UTARA";"22457";"Indonesia";"";"";"";"2.2085698";"98.7163991";"https://maps.google.com/?cid=0x0:0x7a463c87e829efb9";""
"perumahan";"Pembangunan Perumahan";"H.F.P";"6P6C+9PP, Siborboron, Kec. Sijama Polang, Kabupaten Humbang Hasundutan, Sumatera Utara";"Kabupaten Humbang Hasundutan, Sumatera Utara";"SUMATERA UTARA";"";"Indonesia";"";"";"";"2.2100542";"98.7224716";"https://maps.google.com/?cid=0x0:0xccc2c7d845eb6736";""
"perumahan";"Komplek perumahan";"Huta Lumban Silaban";"5M5P+M6G, Bonan Dolok I, Kec. Sijama Polang, Kabupaten Humbang Hasundutan, Sumatera Utara 22457";"Bonan Dolok I, Kec. Sijama Polang, Kabupaten Humbang Hasundutan";"SUMATERA UTARA";"22457";"Indonesia";"";"";"";"2.1596584";"98.6857019";"https://maps.google.com/?cid=0x0:0x381998e6834ac5fe";""
"perumahan";"Kantor Pemerintah Distrik";"Rumah Dinas Camat Sijamapolang";"5M6Q+922, Unnamed Road, Bonan Dolok I, Kec. Sijama Polang, Kabupaten Humbang Hasundutan, Sumatera Utara 22457";"Unnamed Road, Bonan Dolok I, Kec. Sijama Polang, Kabupaten Humbang Hasundutan";"SUMATERA UTARA";"22457";"Indonesia";"";"";"";"2.1608816";"98.6875268";"https://maps.google.com/?cid=0x0:0x7faeeabb5c6b1aad";""
"perumahan";"Komplek perumahan";"fransiskus";"5MGJ+J4, Bonan Dolok I, Kec. Sijama Polang, Kabupaten Humbang Hasundutan, Sumatera Utara";"Kabupaten Humbang Hasundutan, Sumatera Utara";"SUMATERA UTARA";"";"Indonesia";"";"";"";"2.1765754";"98.6803442";"https://maps.google.com/?cid=0x0:0x6c9b3a722baf27cf";""
"perumahan";"Komplek perumahan";"Yuni Simamora";"4P67+VW2, Nagurguran, Kec. Sijama Polang, Kabupaten Humbang Hasundutan, Sumatera Utara 22457";"Nagurguran, Kec. Sijama Polang, Kabupaten Humbang Hasundutan";"SUMATERA UTARA";"22457";"Indonesia";"";"";"";"2.1121362";"98.714777";"https://maps.google.com/?cid=0x0:0x3b19ef0dfa39ba95";""
"perumahan";"Komplek perumahan";"Rumah op. Yobela sianturi";"4P88+VQH, Nagurguran, Kec. Sijama Polang, Kabupaten Humbang Hasundutan, Sumatera Utara 22457";"Nagurguran, Kec. Sijama Polang, Kabupaten Humbang Hasundutan";"SUMATERA UTARA";"22457";"Indonesia";"";"";"";"2.1171861";"98.7169993";"https://maps.google.com/?cid=0x0:0x27895285a1ab8b6c";""
"perumahan";"Komplek perumahan";"Op. Marisha Silaban";"5M5P+244, Bonan Dolok I, Kec. Sijama Polang, Kabupaten Humbang Hasundutan, Sumatera Utara 22457";"Bonan Dolok I, Kec. Sijama Polang, Kabupaten Humbang Hasundutan";"SUMATERA UTARA";"22457";"Indonesia";"";"";"";"2.1578941";"98.6854065";"https://maps.google.com/?cid=0x0:0xf2e803f6e9718528";""
"perumahan";"Komplek perumahan";"Cindi silaban";"4P67+VW2, Nagurguran, Kec. Sijama Polang, Kabupaten Humbang Hasundutan, Sumatera Utara 22457";"Nagurguran, Kec. Sijama Polang, Kabupaten Humbang Hasundutan";"SUMATERA UTARA";"22457";"Indonesia";"";"";"";"2.1112135";"98.7145477";"https://maps.google.com/?cid=0x0:0x809f15ead72522b4";""
"perumahan";"Komplek perumahan";"Lumban sianturi";"4PF9+34G, Nagurguran, Kec. Sijama Polang, Kabupaten Humbang Hasundutan, Sumatera Utara 22457";"Nagurguran, Kec. Sijama Polang, Kabupaten Humbang Hasundutan";"SUMATERA UTARA";"22457";"Indonesia";"";"";"";"2.1226925";"98.7178353";"https://maps.google.com/?cid=0x0:0x3cde715055e7dfc3";""
"perumahan";"Komplek perumahan";"BANJAR TONGA, LUMBAN JULU";"5MFX+6G, Bonan Dolok II, Kec. Sijama Polang, Kabupaten Humbang Hasundutan, Sumatera Utara";"Kabupaten Humbang Hasundutan, Sumatera Utara";"SUMATERA UTARA";"";"Indonesia";"";"";"";"2.1730943";"98.698828";"https://maps.google.com/?cid=0x0:0x4d3f5e0cfbc80e16";""
"perumahan";"Perhimpunan Pengembang Perumahan";"Soulungan simamora";"4PF9+34G, Nagurguran, Kec. Sijama Polang, Kabupaten Humbang Hasundutan, Sumatera Utara 22457";"Nagurguran, Kec. Sijama Polang, Kabupaten Humbang Hasundutan";"SUMATERA UTARA";"22457";"Indonesia";" 081264847517";"";"";"2.1226925";"98.7178353";"https://maps.google.com/?cid=0x0:0x58bd13b882402234";""
"perumahan";"Komplek perumahan";"huta doloktua,batunajagar,sijamapolang,humbang hasundutan";"5PGW+HCH, Huta doloktua, Batunajagar, Kec. Sijama Polang, Kabupaten Humbang Hasundutan, Sumatera Utara 22457";"Huta doloktua, Batunajagar, Kec. Sijama Polang, Kabupaten Humbang Hasundutan";"SUMATERA UTARA";"22457";"Indonesia";"";"";"";"2.1764313";"98.7461059";"https://maps.google.com/?cid=0x0:0xbe76db41cc23d7cc";""
"perumahan";"Komplek perumahan";"SITONONG";"5JQG+C8, Parnapa, Kec. Onan Ganjang, Kabupaten Humbang Hasundutan, Sumatera Utara 22457";"Parnapa, Kec. Onan Ganjang, Kabupaten Humbang Hasundutan";"SUMATERA UTARA";"22457";"Indonesia";"";"";"";"2.1885579";"98.6258635";"https://maps.google.com/?cid=0x0:0xb3b85ac8c87395fb";""
"perumahan";"Komplek perumahan";"Lumban harianja";"6P6R+37W, Purba Dolok, Kec. Dolok sanggul, Kabupaten Humbang Hasundutan, Sumatera Utara 22457";"Purba Dolok, Kec. Dolok sanggul, Kabupaten Humbang Hasundutan";"SUMATERA UTARA";"22457";"Indonesia";"";"";"";"2.2102285";"98.740705";"https://maps.google.com/?cid=0x0:0x536aa9959cef3f1f";""
"perumahan";"Komplek perumahan";"Kasih simamora";"4PF9+34G, Nagurguran, Kec. Sijama Polang, Kabupaten Humbang Hasundutan, Sumatera Utara 22457";"Nagurguran, Kec. Sijama Polang, Kabupaten Humbang Hasundutan";"SUMATERA UTARA";"22457";"Indonesia";"";"";"";"2.1226925";"98.7178353";"https://maps.google.com/?cid=0x0:0xbf19315339a1f0a8";""
"perumahan";"Komplek perumahan";"ignatius";"5MJG+96Q, Hutaginjang, Kec. Sijama Polang, Kabupaten Humbang Hasundutan, Sumatera Utara";"Kabupaten Humbang Hasundutan, Sumatera Utara";"SUMATERA UTARA";"";"Indonesia";"";"";"";"2.1809536";"98.6756168";"https://maps.google.com/?cid=0x0:0x2fb9e360c27902f3";""
"perumahan";"Pembangunan Perumahan";"Posko lumbanjulu";"5M8W+J84, Bonan Dolok II, Kec. Sijama Polang, Kabupaten Humbang Hasundutan, Sumatera Utara 22457";"Bonan Dolok II, Kec. Sijama Polang, Kabupaten Humbang Hasundutan";"SUMATERA UTARA";"22457";"Indonesia";"";"";"";"2.1673311";"98.6947621";"https://maps.google.com/?cid=0x0:0x5b994b0ebbd5de31";""
"perumahan";"Komplek perumahan";"Winda siahaan";"4P78+23G, Nagurguran, Kec. Sijama Polang, Kabupaten Humbang Hasundutan, Sumatera Utara 22457";"Nagurguran, Kec. Sijama Polang, Kabupaten Humbang Hasundutan";"SUMATERA UTARA";"22457";"Indonesia";"";"";"";"2.1125561";"98.7151985";"https://maps.google.com/?cid=0x0:0xf3bbfc3c47e8a5d2";""
"perumahan";"Pemakaman";"Pasti sinirat";"4P67+XWX, Nagurguran, Kec. Sijama Polang, Kabupaten Humbang Hasundutan, Sumatera Utara 22457";"Nagurguran, Kec. Sijama Polang, Kabupaten Humbang Hasundutan";"SUMATERA UTARA";"22457";"Indonesia";"";"";"";"2.112083";"98.715255";"https://maps.google.com/?cid=0x0:0x57504f82150fc685";""
"perumahan";"Komplek perumahan";"Rumah Dinda Silaban";"No 2, Bonan Dolok I, Kec. Sijama Polang, Kabupaten Humbang Hasundutan, Sumatera Utara";"Kabupaten Humbang Hasundutan, Sumatera Utara";"SUMATERA UTARA";"";"Indonesia";"";"";"";"2.1544322";"98.6875659";"https://maps.google.com/?cid=0x0:0xf9c8e8a134c773ca";""
"perumahan";"Komplek perumahan";"Sanata purba";"4PF9+34G, Nagurguran, Kec. Sijama Polang, Kabupaten Humbang Hasundutan, Sumatera Utara 22457";"Nagurguran, Kec. Sijama Polang, Kabupaten Humbang Hasundutan";"SUMATERA UTARA";"22457";"Indonesia";"";"";"";"2.1226925";"98.7178353";"https://maps.google.com/?cid=0x0:0xc36f166f3cc1c690";""
"perumahan";"perumahan";"Kec. Tara bintang";"Kabupaten Humbang Hasundutan, Sumatera Utara";"Kabupaten Humbang Hasundutan, Sumatera Utara";"SUMATERA UTARA";"";"Indonesia";"";"";"";"2.256467";"98.4100744";"https://maps.google.com/?cid=0x0:0xbae2136378964571";""
"perumahan";"Pembangunan Perumahan";"Perumahan Sekolah";"7FJ3+PRM, Sihotang Hasugian Toruan, Kec. Tara bintang, Kabupaten Humbang Hasundutan, Sumatera Utara 22456";"Sihotang Hasugian Toruan, Kec. Tara bintang, Kabupaten Humbang Hasundutan";"SUMATERA UTARA";"22456";"Indonesia";"";"";"";"2.2818431";"98.4545609";"https://maps.google.com/?cid=0x0:0x87932c8523d9af04";""
"perumahan";"Pembangunan Perumahan";"Situmeang";"6CWX+2VG, Sihombu, Kec. Tara bintang, Kabupaten Humbang Hasundutan, Sumatera Utara 22456";"Sihombu, Kec. Tara bintang, Kabupaten Humbang Hasundutan";"SUMATERA UTARA";"22456";"Indonesia";"";"";"";"2.2450735";"98.4497061";"https://maps.google.com/?cid=0x0:0xef568a543402f46b";""
"perumahan";"perumahan";"Rumah Arnold Malau";"6FV5+F9M, Sihombu, Kec. Tara bintang, Kabupaten Humbang Hasundutan, Sumatera Utara 22456";"Sihombu, Kec. Tara bintang, Kabupaten Humbang Hasundutan";"SUMATERA UTARA";"22456";"Indonesia";"";"";"";"2.2437603";"98.4584293";"https://maps.google.com/?cid=0x0:0x2eaf357b6113cf67";""
"perumahan";"Komplek perumahan";"Rumah Indra Tinambunan";"79HW+MMR, Tara Bintang, Kec. Tara bintang, Kabupaten Humbang Hasundutan, Sumatera Utara 22456";"Tara Bintang, Kec. Tara bintang, Kabupaten Humbang Hasundutan";"SUMATERA UTARA";"22456";"Indonesia";" 082339341191";"";"";"2.2792451";"98.3966426";"https://maps.google.com/?cid=0x0:0x48ccc98ca415eb66";""
"perumahan";"Komplek perumahan";"Sirpang tiga";"7C46+H26, Tara Bintang, Kec. Tara bintang, Kabupaten Humbang Hasundutan, Sumatera Utara";"Kabupaten Humbang Hasundutan, Sumatera Utara";"SUMATERA UTARA";"";"Indonesia";"";"";"";"2.2564184";"98.4100168";"https://maps.google.com/?cid=0x0:0xd9fff1d174bff2a8";""
"perumahan";"Komplek perumahan";"Mr.salim";"7926+WPC, RT.004/003, Tara Bintang, Kec. Tara bintang, Kabupaten Humbang Hasundutan, Sumatera Utara 22456";"RT.004/003, Tara Bintang, Kec. Tara bintang, Kabupaten Humbang Hasundutan";"SUMATERA UTARA";"22456";"Indonesia";"";"";"";"2.2524852";"98.3618483";"https://maps.google.com/?cid=0x0:0x8d5f4f148e42d256";""
"perumahan";"Toko Internet";"TARABINTANG";"7C96+VF3, Sihotang Hasugian Toruan, Kec. Tara bintang, Kabupaten Humbang Hasundutan, Sumatera Utara 22456";"Sihotang Hasugian Toruan, Kec. Tara bintang, Kabupaten Humbang Hasundutan";"SUMATERA UTARA";"22456";"Indonesia";"";"";"";"2.2696251";"98.4111764";"https://maps.google.com/?cid=0x0:0x949cc2f82f1f35e1";""
"perumahan";"Komplek perumahan";"MUARA";"787X+PV, Simbara, Kec. Tara bintang, Kabupaten Humbang Hasundutan, Sumatera Utara";"Kabupaten Humbang Hasundutan, Sumatera Utara";"SUMATERA UTARA";"";"Indonesia";"";"";"";"2.2643223";"98.3496684";"https://maps.google.com/?cid=0x0:0xa577f491f57ad7ef";""
"perumahan";"Pembangunan Perumahan";"DUSUN RUMBIA";"7879+JWF, Sitanduk, Kec. Tara bintang, Kabupaten Humbang Hasundutan, Sumatera Utara 22456";"Sitanduk, Kec. Tara bintang, Kabupaten Humbang Hasundutan";"SUMATERA UTARA";"22456";"Indonesia";"";"";"";"2.264065";"98.3197852";"https://maps.google.com/?cid=0x0:0x8e80b62236b39183";""
"perumahan";"Komplek perumahan";"Rumah Erijon Bancin/Rachel Lona Sirait";"6CVC+W77, Tara Bintang, Kec. Tara bintang, Kabupaten Humbang Hasundutan, Sumatera Utara 22456";"Tara Bintang, Kec. Tara bintang, Kabupaten Humbang Hasundutan";"SUMATERA UTARA";"22456";"Indonesia";"";"";"";"2.2447942";"98.4206819";"https://maps.google.com/?cid=0x0:0xff5ff23416889972";""
"perumahan";"Komplek perumahan";"mpung oloan";"69MW+36W, Unnamed Road, Tara Bintang, Tara bintang, Humbang Hasundutan Regency, North Sumatra 22456";"Unnamed Road, Tara Bintang, Tara bintang, Humbang Hasundutan Regency";"SUMATERA UTARA";"22456";"Indonesia";"";"";"";"2.2327274";"98.3955853";"https://maps.google.com/?cid=0x0:0x7d1834aef9e5c7ff";""
"perumahan";"Komplek perumahan";"Tinambunan house";"79JQ+538, Sitanduk, Kec. Tara bintang, Kabupaten Humbang Hasundutan, Sumatera Utara 22456";"Sitanduk, Kec. Tara bintang, Kabupaten Humbang Hasundutan";"SUMATERA UTARA";"22456";"Indonesia";"";"";"";"2.2804019";"98.3876975";"https://maps.google.com/?cid=0x0:0x6ffe64f070b8e9b";""
"perumahan";"Komplek perumahan";"Selamat Barutu";"6FX4+WH, Sihombu, Kec. Tara bintang, Kabupaten Humbang Hasundutan, Sumatera Utara";"Kabupaten Humbang Hasundutan, Sumatera Utara";"SUMATERA UTARA";"";"Indonesia";"";"";"";"2.2498664";"98.4564466";"https://maps.google.com/?cid=0x0:0xa1d588e9ddcd7484";""
"perumahan";"Perhimpunan Pengembang Perumahan";"Rumah D. Hasugian";"79Q6+5V3, Jl. Pendidikan, Sitanduk, Kec. Tara bintang, Kabupaten Humbang Hasundutan, Sumatera Utara 22456";"Jl. Pendidikan, Sitanduk, Kec. Tara bintang, Kabupaten Humbang Hasundutan";"SUMATERA UTARA";"22456";"Indonesia";"";"";"";"2.2878796";"98.3621842";"https://maps.google.com/?cid=0x0:0xc764427ffda32ecb";""
"perumahan";"perumahan";"Hasugian House";"7926+6RR, RW.Napasingkam, Tara Bintang, Kec. Tara bintang, Kabupaten Humbang Hasundutan, Sumatera Utara";"Kabupaten Humbang Hasundutan, Sumatera Utara";"SUMATERA UTARA";"";"Indonesia";"";"";"";"2.2523125";"98.3617656";"https://maps.google.com/?cid=0x0:0x23d5f8e04042d41b";""
"perumahan";"Komplek perumahan";"Otas home";"6FW6+52, Sihombu, Kec. Tara bintang, Kabupaten Humbang Hasundutan, Sumatera Utara";"Kabupaten Humbang Hasundutan, Sumatera Utara";"SUMATERA UTARA";"";"Indonesia";"";"";"";"2.245485";"98.460111";"https://maps.google.com/?cid=0x0:0x5c8a4ec12e3a5db5";""
"perumahan";"Komplek perumahan";"Rumah K.Tinambunan";"7C96+2VX, Sihotang Hasugian Toruan, Kec. Tara bintang, Kabupaten Humbang Hasundutan, Sumatera Utara 22456";"Sihotang Hasugian Toruan, Kec. Tara bintang, Kabupaten Humbang Hasundutan";"SUMATERA UTARA";"22456";"Indonesia";"";"";"";"2.2670111";"98.4122738";"https://maps.google.com/?cid=0x0:0x1368e6a378c20287";""
"perumahan";"perumahan";"Tara Bintang";"Kec. Tara bintang, Kabupaten Humbang Hasundutan, Sumatera Utara";"Kabupaten Humbang Hasundutan, Sumatera Utara";"SUMATERA UTARA";"";"Indonesia";"";"";"";"2.2292543";"98.3636131";"https://maps.google.com/?cid=0x0:0x47d6ec08a613eb6";""
"perumahan";"Perumahan";"ALMA RESIDENCE TIGA";"Alma Residence 3, RT.:005/RW:005, Taman Sari, Kec. Setu, Kabupaten Bekasi, Jawa Barat 17320";"RT.:005/RW:005, Taman Sari, Kec. Setu, Kabupaten Bekasi";"SUMATERA UTARA";"17320";"Indonesia";"";"";"";"-6.3559684";"107.0359587";"https://maps.google.com/?cid=0x0:0x5e306f292969f2b3";""
"perumahan";"Komplek perumahan";"Home Gaja family";"7C46+8F4, Tara Bintang, Kec. Tara bintang, Kabupaten Humbang Hasundutan, Sumatera Utara 22456";"Tara Bintang, Kec. Tara bintang, Kabupaten Humbang Hasundutan";"SUMATERA UTARA";"22456";"Indonesia";"";"";"";"2.2557658";"98.4111048";"https://maps.google.com/?cid=0x0:0xf4729bb024bf5dd";""
"perumahan";"Komplek perumahan";"Rumah op.REYFALDI MUNGKUR";"79HP+Q2, Sitanduk, Kec. Tara bintang, Kabupaten Humbang Hasundutan, Sumatera Utara";"Kabupaten Humbang Hasundutan, Sumatera Utara";"SUMATERA UTARA";"";"Indonesia";"";"";"";"2.2794836";"98.3851198";"https://maps.google.com/?cid=0x0:0xc3632ed70564b689";""
"perumahan";"Pembangunan Perumahan";"Permata Puri Harmoni 2 - Situsari (Cileungsi)";"Jl. Permata Puri Harmoni, Setu Sari, Kec. Cileungsi, Kabupaten Bogor, Jawa Barat 16820";"Setu Sari, Kec. Cileungsi, Kabupaten Bogor";"SUMATERA UTARA";"16820";"Indonesia";"";"";"";"-6.4281118";"107.0243501";"https://maps.google.com/?cid=0x0:0xf91e05750c56a149";""
