Category,Real Category,Business Name,Address,City,State,Postal Code,Country,Phone,Email,Website,Latitude,Longitude,Map Link,Details Link
perumahan,perumahan,Kec. Miomaffo Tim.,"Kabupaten Timor Tengah Utara, Nusa Tenggara Tim.","Kabupaten Timor Tengah Utara, Nusa Tenggara Tim.",NUSA TENGGARA TIMUR,,Indonesia,,,,-93.567.336,1.245.215.507,https://maps.google.com/?cid=0x0:0x36f1063e1ccfabd9,
perumahan,Kantor Pemerintah,Polsek Miomaffo Timur,"HFP9+FQ8 Tobe Puna, jln, Oesena, Miomafo Timur, North Central Timor Regency, East Nusa Tenggara","Kabupaten Timor Tengah Utara, Nusa Tenggara Tim.",NUSA TENGGARA TIMUR,,Indonesia,,,,-94.138.299,12.446.944,https://maps.google.com/?cid=0x0:0xc265d266a0cb0349,
perumahan,Komplek perumahan,Biinmaffo Residence Kefamenanu,"GGP8+MVH, Tubuhue, Kec. Kota Kefamenanu, Kabupaten Timor Tengah Utara, Nusa Tenggara Tim.","Kabupaten Timor Tengah Utara, Nusa Tenggara Tim.",NUSA TENGGARA TIMUR,,Indonesia,82144789744,,,-94.633.129,1.245.172.305,https://maps.google.com/?cid=0x0:0x31a47e0667d0a3f9,
perumahan,Pembangunan Perumahan,Perumahan Sasi Permai,"FFWP+GJJ, Sasi, Kec. Kota Kefamenanu, Kabupaten Timor Tengah Utara, Nusa Tenggara Tim.","Kabupaten Timor Tengah Utara, Nusa Tenggara Tim.",NUSA TENGGARA TIMUR,,Indonesia,81298678478,,,-95.036.688,1.244.865.251,https://maps.google.com/?cid=0x0:0x780eb6c2719f7370,
perumahan,Pembangunan Perumahan,Beba,"GF3J+G22, Oelami, Kec. Kota Kefamenanu, Kabupaten Timor Tengah Utara, Nusa Tenggara Tim.","Kabupaten Timor Tengah Utara, Nusa Tenggara Tim.",NUSA TENGGARA TIMUR,,Indonesia,,,,-9.496.127,124.481.372,https://maps.google.com/?cid=0x0:0xb1839c5c539a3579,
perumahan,Komplek perumahan,Rumah Glen Manek,"HFGH+JM9, Oesena, Kec. Miomaffo Tim., Kabupaten Timor Tengah Utara, Nusa Tenggara Tim.","Kabupaten Timor Tengah Utara, Nusa Tenggara Tim.",NUSA TENGGARA TIMUR,,Indonesia,,,,-94.234.904,1.244.792.337,https://maps.google.com/?cid=0x0:0x6f20ea5271a7ce4c,
perumahan,perumahan,RUMAH GU,"JGQ8+2Q8, Jak, Kec. Miomaffo Tim., Kabupaten Timor Tengah Utara, Nusa Tenggara Tim.","Kabupaten Timor Tengah Utara, Nusa Tenggara Tim.",NUSA TENGGARA TIMUR,,Indonesia,,,,-93.624.561,1.245.169.449,https://maps.google.com/?cid=0x0:0xc0237eba0edee781,
perumahan,perumahan,ILA,"JGR9+7G8, Jak, Kec. Miomaffo Tim., Kabupaten Timor Tengah Utara, Nusa Tenggara Tim.","Kabupaten Timor Tengah Utara, Nusa Tenggara Tim.",NUSA TENGGARA TIMUR,,Indonesia,,,,-93.593.328,1.245.188.281,https://maps.google.com/?cid=0x0:0x801b1906be035b33,
perumahan,Komplek perumahan,Oesena,"HFM9+6F, Oesena, Kec. Miomaffo Tim., Kabupaten Timor Tengah Utara, Nusa Tenggara Tim.","Kabupaten Timor Tengah Utara, Nusa Tenggara Tim.",NUSA TENGGARA TIMUR,,Indonesia,,,,-94.169.538,1.244.686.895,https://maps.google.com/?cid=0x0:0xb5e3c3d66981c50a,
perumahan,Komplek perumahan,Jak,"JGQ9+CX, Jak, Kec. Miomaffo Tim., Kabupaten Timor Tengah Utara, Nusa Tenggara Tim.","Kabupaten Timor Tengah Utara, Nusa Tenggara Tim.",NUSA TENGGARA TIMUR,,Indonesia,,,,-93.626.087,1.245.199.939,https://maps.google.com/?cid=0x0:0x8e141776bfa32c56,
perumahan,perumahan,Rumah Makono,"JGP8+M33, Jak, Kec. Miomaffo Tim., Kabupaten Timor Tengah Utara, Nusa Tenggara Tim.","Kabupaten Timor Tengah Utara, Nusa Tenggara Tim.",NUSA TENGGARA TIMUR,,Indonesia,,,,-93.633.569,1.245.151.626,https://maps.google.com/?cid=0x0:0x5e0785f3ccd54c11,
perumahan,perumahan,Kios geral,"JF35+8FW, Amol, Kec. Miomaffo Tim., Kabupaten Timor Tengah Utara, Nusa Tenggara Tim.","Kabupaten Timor Tengah Utara, Nusa Tenggara Tim.",NUSA TENGGARA TIMUR,,Indonesia,,,,-93.966.365,1.244.587.176,https://maps.google.com/?cid=0x0:0x139dc24299b37fe5,
perumahan,perumahan,Via Ole,"HFQH+6MR, Taekas, Kec. Miomaffo Tim., Kabupaten Timor Tengah Utara, Nusa Tenggara Tim.","Kabupaten Timor Tengah Utara, Nusa Tenggara Tim.",NUSA TENGGARA TIMUR,,Indonesia,,,,-9.412.838,12.447.879,https://maps.google.com/?cid=0x0:0x7c1291fd4d715b9f,
perumahan,Bangunan Bersejarah,RUMAH ADAT USI UNA MNANU,"JF38+C8, Amol, Kec. Miomaffo Tim., Kabupaten Timor Tengah Utara, Nusa Tenggara Tim.","Kabupaten Timor Tengah Utara, Nusa Tenggara Tim.",NUSA TENGGARA TIMUR,,Indonesia,,,,-9.396.413,1.244.658.645,https://maps.google.com/?cid=0x0:0x188f5d0df1fb9ee0,
perumahan,perumahan,IrfannUkatt_BKT,"HFMJ+48F, Taekas, Kec. Miomaffo Tim., Kabupaten Timor Tengah Utara, Nusa Tenggara Tim.","Kabupaten Timor Tengah Utara, Nusa Tenggara Tim.",NUSA TENGGARA TIMUR,,Indonesia,,,,-9.417.552,1.244.806.867,https://maps.google.com/?cid=0x0:0xf71b9bdb4f71bdb3,
perumahan,perumahan,Rumah naef Leo,"JF5W+2MR, Femnasi, Kec. Miomaffo Tim., Kabupaten Timor Tengah Utara, Nusa Tenggara Tim.","Kabupaten Timor Tengah Utara, Nusa Tenggara Tim.",NUSA TENGGARA TIMUR,,Indonesia,,,,-93.923.861,1.244.966.526,https://maps.google.com/?cid=0x0:0xf3f9e67b9c182a89,
perumahan,Komplek perumahan,Amanda Nino,"JGRH+HX, Tunoe, Kec. Miomaffo Tim., Kabupaten Timor Tengah Utara, Nusa Tenggara Tim.","Kabupaten Timor Tengah Utara, Nusa Tenggara Tim.",NUSA TENGGARA TIMUR,,Indonesia,,,,-935.856,1.245.299.877,https://maps.google.com/?cid=0x0:0x42eed78ffa3bab1c,
perumahan,Komplek perumahan,Rumah bp.Alexander Sakunab,"HFPC+96R, Oesena, Kec. Miomaffo Tim., Kabupaten Timor Tengah Utara, Nusa Tenggara Tim.","Kabupaten Timor Tengah Utara, Nusa Tenggara Tim.",NUSA TENGGARA TIMUR,,Indonesia,,,,-94.140.013,1.244.705.218,https://maps.google.com/?cid=0x0:0x8bbe5c4e67017a76,
perumahan,Komplek perumahan,sainoni,"JF55+QX, Amol, Kec. Miomaffo Tim., Kabupaten Timor Tengah Utara, Nusa Tenggara Tim.","Kabupaten Timor Tengah Utara, Nusa Tenggara Tim.",NUSA TENGGARA TIMUR,,Indonesia,,,,-93.905.039,1.244.599.859,https://maps.google.com/?cid=0x0:0x55721ec765070bea,
perumahan,Komplek perumahan,RUMAH AGUS TALAN,"HFQ7+4W9, Oesena, Kec. Miomaffo Tim., Kabupaten Timor Tengah Utara, Nusa Tenggara Tim.","Kabupaten Timor Tengah Utara, Nusa Tenggara Tim.",NUSA TENGGARA TIMUR,,Indonesia,,,,-94.114.189,1.244.642.792,https://maps.google.com/?cid=0x0:0xb931a5e622cfb683,
perumahan,Komplek perumahan,Rumah RichardN,"HFW8+HFM, Oesena, Kec. Miomaffo Tim., Kabupaten Timor Tengah Utara, Nusa Tenggara Tim.","Kabupaten Timor Tengah Utara, Nusa Tenggara Tim.",NUSA TENGGARA TIMUR,,Indonesia,,,,-94.035.495,1.244.661.773,https://maps.google.com/?cid=0x0:0xce016cda4cafe7b0,
perumahan,Taman,Rumah pertama dari taekas,"HFQR+6QR, Taekas, Kec. Miomaffo Tim., Kabupaten Timor Tengah Utara, Nusa Tenggara Tim.","Kabupaten Timor Tengah Utara, Nusa Tenggara Tim.",NUSA TENGGARA TIMUR,,Indonesia,,,,-94.118.909,1.244.918.988,https://maps.google.com/?cid=0x0:0xe236dbc466cc9012,
perumahan,Komplek perumahan,Rumah Kosmas,"HFPC+4WR, Jl.kapela Faenono, Oesena, Kec. Miomaffo Tim., Kabupaten Timor Tengah Utara, Nusa Tenggara Tim.","Kabupaten Timor Tengah Utara, Nusa Tenggara Tim.",NUSA TENGGARA TIMUR,,Indonesia,,,,-94.146.467,1.244.722.549,https://maps.google.com/?cid=0x0:0x54fd1cb607568310,
perumahan,Komplek perumahan,Rumah Bpk Dami Siki,"HFCH+8XG, Kefamenanu Utara, Kec. Kota Kefamenanu, Kabupaten Timor Tengah Utara, Nusa Tenggara Tim.","Kabupaten Timor Tengah Utara, Nusa Tenggara Tim.",NUSA TENGGARA TIMUR,,Indonesia,,,,-9.429.292,1.244.796.212,https://maps.google.com/?cid=0x0:0x11b119657078b09e,
perumahan,Pembangunan Perumahan,Oeaniut,"MG36+MG7, Jak, Kec. Miomaffo Tim., Kabupaten Timor Tengah Utara, Nusa Tenggara Tim.","Kabupaten Timor Tengah Utara, Nusa Tenggara Tim.",NUSA TENGGARA TIMUR,,Indonesia,,,,-93.458.473,1.245.112.934,https://maps.google.com/?cid=0x0:0xf29d2b415e27c0d8,
perumahan,perumahan,Kec. Miomaffo Bar.,"Kabupaten Timor Tengah Utara, Nusa Tenggara Tim.","Kabupaten Timor Tengah Utara, Nusa Tenggara Tim.",NUSA TENGGARA TIMUR,,Indonesia,,,,-9.567.835,1.243.269.538,https://maps.google.com/?cid=0x0:0xa36ef13480b20324,
perumahan,Komplek perumahan,Suanae,"C8PQ+9P5, Suanae, Kec. Miomaffo Bar., Kabupaten Timor Tengah Utara, Nusa Tenggara Tim.","Kabupaten Timor Tengah Utara, Nusa Tenggara Tim.",NUSA TENGGARA TIMUR,,Indonesia,,,,-95.641.091,124.339.364,https://maps.google.com/?cid=0x0:0xa2704e49b38175ca,
perumahan,perumahan,Desa sallu,"C8WP+XJJ, Sallu, Kec. Miomaffo Bar., Kabupaten Timor Tengah Utara, Nusa Tenggara Tim.","Kabupaten Timor Tengah Utara, Nusa Tenggara Tim.",NUSA TENGGARA TIMUR,,Indonesia,,,,-95.525.345,1.243.365.216,https://maps.google.com/?cid=0x0:0xf33c7080f1d264e1,
perumahan,Komplek perumahan,Rumah Le Naben,"Tolam, Eban, Kec. Miomaffo Bar., Kabupaten Timor Tengah Utara, Nusa Tenggara Tim.","Kabupaten Timor Tengah Utara, Nusa Tenggara Tim.",NUSA TENGGARA TIMUR,,Indonesia,,,,-95.623.132,1.243.172.996,https://maps.google.com/?cid=0x0:0x9b8ba46356fe5fdc,
perumahan,perumahan,Rumah,"C8X9+433, Eban, Kec. Miomaffo Bar., Kabupaten Timor Tengah Utara, Nusa Tenggara Tim.","Kabupaten Timor Tengah Utara, Nusa Tenggara Tim.",NUSA TENGGARA TIMUR,,Indonesia,,,,-95.522.431,1.243.176.745,https://maps.google.com/?cid=0x0:0xca6105583f279059,
perumahan,perumahan,Neten,"C8V9+78Q, Eban, Kec. Miomaffo Bar., Kabupaten Timor Tengah Utara, Nusa Tenggara Tim.","Kabupaten Timor Tengah Utara, Nusa Tenggara Tim.",NUSA TENGGARA TIMUR,,Indonesia,,,,-95.567.969,1.243.183.631,https://maps.google.com/?cid=0x0:0x6f0d5ebd1a0c141,
perumahan,Komplek perumahan,Marselus Natun,"C8M5+MP5, Satab-binoke, Kec. Miomaffo Bar., Kabupaten Timor Tengah Utara, Nusa Tenggara Tim.","Kabupaten Timor Tengah Utara, Nusa Tenggara Tim.",NUSA TENGGARA TIMUR,,Indonesia,,,,-95.658.514,124.309.375,https://maps.google.com/?cid=0x0:0x1d6d65f99f54e784,
perumahan,Komplek perumahan,Robby home,"F862+HC, Saenam, Kec. Miomaffo Bar., Kabupaten Timor Tengah Utara, Nusa Tenggara Tim.","Kabupaten Timor Tengah Utara, Nusa Tenggara Tim.",NUSA TENGGARA TIMUR,,Indonesia,,,,-95.385.802,1.243.011.181,https://maps.google.com/?cid=0x0:0x56e3257fe79c9f29,
perumahan,Perhimpunan Pengembang Perumahan,Fatunisuan,"C8JG+RQM, Jln suan, sabu, Kec. Miomaffo Bar., Kabupaten Timor Tengah Utara, Nusa Tenggara Tim.","Kabupaten Timor Tengah Utara, Nusa Tenggara Tim.",NUSA TENGGARA TIMUR,,Indonesia,,,,-95.679.129,1.243.269.227,https://maps.google.com/?cid=0x0:0x3699e8bdc20f78dd,
perumahan,Komplek perumahan,Agustinus K. Naif,"C8Q3+4W2, Satab, Kec. Miomaffo Bar., Kabupaten Timor Tengah Utara, Nusa Tenggara Tim.","Kabupaten Timor Tengah Utara, Nusa Tenggara Tim.",NUSA TENGGARA TIMUR,,Indonesia,,,,-95.630.415,1.243.040.596,https://maps.google.com/?cid=0x0:0x9747eb898460af8,
perumahan,Komplek perumahan,Kampung lama Leo'nai,"F7MX+MQ4, Saenam, Kec. Miomaffo Bar., Kabupaten Timor Tengah Utara, Nusa Tenggara Tim.","Kabupaten Timor Tengah Utara, Nusa Tenggara Tim.",NUSA TENGGARA TIMUR,,Indonesia,,,,-95.158.658,1.242.994.384,https://maps.google.com/?cid=0x0:0x2b4f4d82e2766664,
perumahan,Perhimpunan Pengembang Perumahan,EMI SABU,"C8WM+9C8, Sallu, Kec. Miomaffo Bar., Kabupaten Timor Tengah Utara, Nusa Tenggara Tim.","Kabupaten Timor Tengah Utara, Nusa Tenggara Tim.",NUSA TENGGARA TIMUR,,Indonesia,,,,-95.540.771,1.243.335.887,https://maps.google.com/?cid=0x0:0x87103c6bc1b8b192,
perumahan,Komplek perumahan,Rumah Anjelina Mamo,"C7JQ+R9P, Noepesu, Kec. Miomaffo Bar., Kabupaten Timor Tengah Utara, Nusa Tenggara Tim.","Kabupaten Timor Tengah Utara, Nusa Tenggara Tim.",NUSA TENGGARA TIMUR,,Indonesia,,,,-95.679.085,124.288.551,https://maps.google.com/?cid=0x0:0xf18c99d1629aeb0e,
perumahan,Komplek perumahan,Rumah Adat Suku Kuat'Nana,"C7RQ+PG, Noepesu, Kec. Miomaffo Bar., Kabupaten Timor Tengah Utara, Nusa Tenggara Tim.","Kabupaten Timor Tengah Utara, Nusa Tenggara Tim.",NUSA TENGGARA TIMUR,,Indonesia,,,,-95.581.636,1.242.888.692,https://maps.google.com/?cid=0x0:0x9ac385787e5f98ac,
perumahan,Komplek perumahan,Rumah Melan anin,"C7QR+G9R, Noepesu, Kec. Miomaffo Bar., Kabupaten Timor Tengah Utara, Nusa Tenggara Tim.","Kabupaten Timor Tengah Utara, Nusa Tenggara Tim.",NUSA TENGGARA TIMUR,,Indonesia,,,,-95.611.429,1.242.908.977,https://maps.google.com/?cid=0x0:0x4979eeecbd1cccb0,
perumahan,Komplek perumahan,Perumahan di bawah rumah sakit Eban,"F837+QQR, Eban, Kec. Miomaffo Bar., Kabupaten Timor Tengah Utara, Nusa Tenggara Tim.","Kabupaten Timor Tengah Utara, Nusa Tenggara Tim.",NUSA TENGGARA TIMUR,,Indonesia,,,,-95.455.111,1.243.143.787,https://maps.google.com/?cid=0x0:0x3052d8c935352cf6,
perumahan,Komplek perumahan,Rumah Zakarias Lim,"C7XW+RX, Fatuneno, Kec. Miomaffo Bar., Kabupaten Timor Tengah Utara, Nusa Tenggara Tim.","Kabupaten Timor Tengah Utara, Nusa Tenggara Tim.",NUSA TENGGARA TIMUR,,Indonesia,,,,-95.504.599,1.242.974.684,https://maps.google.com/?cid=0x0:0x97e49b4463724335,
perumahan,Komplek perumahan,Rumah Erwin,"C7VR+G37, Noepesu, Kec. Miomaffo Bar., Kabupaten Timor Tengah Utara, Nusa Tenggara Tim.","Kabupaten Timor Tengah Utara, Nusa Tenggara Tim.",NUSA TENGGARA TIMUR,,Indonesia,,,,-95.562.099,1.242.901.637,https://maps.google.com/?cid=0x0:0xad9747ea0d77c007,
perumahan,Komplek perumahan,EBAN huebuni,"F837+QQR, Eban, Kec. Miomaffo Bar., Kabupaten Timor Tengah Utara, Nusa Tenggara Tim.","Kabupaten Timor Tengah Utara, Nusa Tenggara Tim.",NUSA TENGGARA TIMUR,,Indonesia,,,,-95.455.111,1.243.143.787,https://maps.google.com/?cid=0x0:0xde8c74103262b28f,
perumahan,Komplek perumahan,Kornelis feka(manusasi),"F7RR+FJR, Manusasi, Kec. Miomaffo Bar., Kabupaten Timor Tengah Utara, Nusa Tenggara Tim.","Kabupaten Timor Tengah Utara, Nusa Tenggara Tim.",NUSA TENGGARA TIMUR,,Indonesia,,,,-95.087.749,1.242.915.303,https://maps.google.com/?cid=0x0:0xa1c57ffc0b23f3ee,
perumahan,perumahan,Niufmeto,"F984+7H, Noeltoko, Kec. Miomaffo Bar., Kabupaten Timor Tengah Utara, Nusa Tenggara Tim.","Kabupaten Timor Tengah Utara, Nusa Tenggara Tim.",NUSA TENGGARA TIMUR,,Indonesia,,,,-95.342.741,1.243.563.572,https://maps.google.com/?cid=0x0:0x9b5c9edcae44a316,
perumahan,Komplek perumahan,Redem Tefa,"C7XX+8F, Fatuneno, Kec. Miomaffo Bar., Kabupaten Timor Tengah Utara, Nusa Tenggara Tim.","Kabupaten Timor Tengah Utara, Nusa Tenggara Tim.",NUSA TENGGARA TIMUR,,Indonesia,,,,-95.516.982,124.298.761,https://maps.google.com/?cid=0x0:0xa6561e95dc3960c6,
perumahan,perumahan,Kec. Biboki Sel.,"Kabupaten Timor Tengah Utara, Nusa Tenggara Tim.","Kabupaten Timor Tengah Utara, Nusa Tenggara Tim.",NUSA TENGGARA TIMUR,,Indonesia,,,,-93.722.291,1.246.990.823,https://maps.google.com/?cid=0x0:0xfb21dcef6a7d03bc,
perumahan,perumahan,Noemuti,"Banfanu, Kec. Noemuti, Kabupaten Timor Tengah Utara, Nusa Tenggara Tim.","Kabupaten Timor Tengah Utara, Nusa Tenggara Tim.",NUSA TENGGARA TIMUR,,Indonesia,,,,-9.569.413,124.472.099,https://maps.google.com/?cid=0x0:0x5f21c9bab28c0e03,
perumahan,perumahan,Kec. Tebet,"Kota Jakarta Selatan, Daerah Khusus Ibukota Jakarta","Kota Jakarta Selatan, Daerah Khusus Ibukota Jakarta",NUSA TENGGARA TIMUR,,Indonesia,,,,-62.251.223,1.068.549.881,https://maps.google.com/?cid=0x0:0xd575e31c807295f9,
perumahan,Pembangunan Perumahan,Noemuti,"GF9R+QJQ, Maubeli, Kec. Kota Kefamenanu, Kabupaten Timor Tengah Utara, Nusa Tenggara Tim.","Kabupaten Timor Tengah Utara, Nusa Tenggara Tim.",NUSA TENGGARA TIMUR,,Indonesia,,,,-94.814.441,1.244.920.086,https://maps.google.com/?cid=0x0:0x66b52a72957fbe76,
perumahan,Perusahaan Media,Sukamanah Residence,"Jalan Sukamanah, Sukamanah, Kec. Sukatani, Kabupaten Bekasi, Jawa Barat 17630","Sukamanah, Kec. Sukatani, Kabupaten Bekasi",NUSA TENGGARA TIMUR,17630.0,Indonesia,,,,-61.880.961,1.071.659.131,https://maps.google.com/?cid=0x0:0x101a15a49d09cb73,
perumahan,Pembangunan Perumahan,Oemeu,"CFJC+6RQ, oemeu, Kec. Noemuti, Kabupaten Timor Tengah Utara, Nusa Tenggara Tim.","Kabupaten Timor Tengah Utara, Nusa Tenggara Tim.",NUSA TENGGARA TIMUR,,Indonesia,,,,-9.569.413,124.472.099,https://maps.google.com/?cid=0x0:0xbc750717e1469496,
perumahan,perumahan,Kec. Kota Kefamenanu,"Kabupaten Timor Tengah Utara, Nusa Tenggara Tim.","Kabupaten Timor Tengah Utara, Nusa Tenggara Tim.",NUSA TENGGARA TIMUR,,Indonesia,,,,-94.532.558,1.244.777.104,https://maps.google.com/?cid=0x0:0xd369c007c411c81d,
perumahan,Komplek perumahan,"Kefamenanu,Jln Kartini","HF2H+35V, Jl. Kartini, Kefamenanu Tengah, Kec. Kota Kefamenanu, Kabupaten Timor Tengah Utara, Nusa Tenggara Tim.","Kabupaten Timor Tengah Utara, Nusa Tenggara Tim.",NUSA TENGGARA TIMUR,,Indonesia,,,,-94.497.564,1.244.779.183,https://maps.google.com/?cid=0x0:0xd0ecb2acedbb99b2,
perumahan,Komplek perumahan,Rumah,"HF2M+C87, Tunbakun, Kefamenanu Tengah, Kec. Kota Kefamenanu, Kabupaten Timor Tengah Utara, Nusa Tenggara Tim.","Kabupaten Timor Tengah Utara, Nusa Tenggara Tim.",NUSA TENGGARA TIMUR,,Indonesia,,,,-9.448.971,124.483.288,https://maps.google.com/?cid=0x0:0xdf5f9adc773f7aa0,
perumahan,Inspektur Tempat Tinggal,Rumah Keluarga Surak,"HF2J+4V5, Kefamenanu Tengah, Kec. Kota Kefamenanu, Kabupaten Timor Tengah Utara, Nusa Tenggara Tim.","Kabupaten Timor Tengah Utara, Nusa Tenggara Tim.",NUSA TENGGARA TIMUR,,Indonesia,,,,-94.495.004,124.481.881,https://maps.google.com/?cid=0x0:0xc82212a52a38a588,
perumahan,Komplek perumahan,Rumah Yudha,"GFRP+2W, Kefamenanu Sel., Kec. Kota Kefamenanu, Kabupaten Timor Tengah Utara, Nusa Tenggara Tim.","Kabupaten Timor Tengah Utara, Nusa Tenggara Tim.",NUSA TENGGARA TIMUR,,Indonesia,,,,-94.599.158,1.244.872.719,https://maps.google.com/?cid=0x0:0x1d3c01e272d64837,
perumahan,Komplek perumahan,Kost putih Isak,"GFWH+M3M, Kefamenanu Sel., Kec. Kota Kefamenanu, Kabupaten Timor Tengah Utara, Nusa Tenggara Tim.","Kabupaten Timor Tengah Utara, Nusa Tenggara Tim.",NUSA TENGGARA TIMUR,,Indonesia,,,,-94.532.962,1.244.776.684,https://maps.google.com/?cid=0x0:0x28ebd72c9fec2045,
perumahan,Pembangunan Perumahan,AKAMSI SMANSA KEFA,"GFVM+57M, Jl. Sonbay, Kefamenanu Sel., Kec. Kota Kefamenanu, Kabupaten Timor Tengah Utara, Nusa Tenggara Tim.","Kabupaten Timor Tengah Utara, Nusa Tenggara Tim.",NUSA TENGGARA TIMUR,,Indonesia,,,,-94.570.338,1.244.831.736,https://maps.google.com/?cid=0x0:0x5dd201e93e75b6bd,
perumahan,Komplek perumahan,Rumah Al Moensaku,"GFVM+29P, Kefamenanu Sel., Kec. Kota Kefamenanu, Kabupaten Timor Tengah Utara, Nusa Tenggara Tim.","Kabupaten Timor Tengah Utara, Nusa Tenggara Tim.",NUSA TENGGARA TIMUR,,Indonesia,,,,-9.457.408,1.244.834.583,https://maps.google.com/?cid=0x0:0xa8c77a65c4628266,
perumahan,Pembangunan Perumahan,Rumah Tua Meko,"GFWH+28Q, Jl. Eltari, Kefamenanu Sel., Kec. Kota Kefamenanu, Kabupaten Timor Tengah Utara, Nusa Tenggara Tim.","Kabupaten Timor Tengah Utara, Nusa Tenggara Tim.",NUSA TENGGARA TIMUR,,Indonesia,,,,-94.549.183,1.244.783.646,https://maps.google.com/?cid=0x0:0xfc9bdce83d5b4b54,
perumahan,Komplek perumahan,RUMAH DINAS BANK NTT KEFAMENANU,"GFVG+X6, Benpasi, Kec. Kota Kefamenanu, Kabupaten Timor Tengah Utara, Nusa Tenggara Tim.","Kabupaten Timor Tengah Utara, Nusa Tenggara Tim.",NUSA TENGGARA TIMUR,,Indonesia,,,,-94.550.914,1.244.756.175,https://maps.google.com/?cid=0x0:0x575ec385119dbcfb,
perumahan,Pembangunan Perumahan,Manufui,"HF4H+867, Kefamenanu Tengah, Kec. Kota Kefamenanu, Kabupaten Timor Tengah Utara, Nusa Tenggara Tim.","Kabupaten Timor Tengah Utara, Nusa Tenggara Tim.",NUSA TENGGARA TIMUR,,Indonesia,,,,-94.442.228,1.244.780.429,https://maps.google.com/?cid=0x0:0x403b62261040885d,
perumahan,Komplek perumahan,Rumah Alm.Marthin Tahoni,"HF4M+9G4, Kefamenanu Tengah, Kec. Kota Kefamenanu, Kabupaten Timor Tengah Utara, Nusa Tenggara Tim.","Kabupaten Timor Tengah Utara, Nusa Tenggara Tim.",NUSA TENGGARA TIMUR,,Indonesia,,,,-94.441.076,1.244.838.131,https://maps.google.com/?cid=0x0:0x7bf73150fd01fcc3,
perumahan,Komplek perumahan,Gua aplasi,"Jalan jati gua aplasi, Kefamenanu Tengah, Kec. Kota Kefamenanu, Kabupaten Timor Tengah Utara, Nusa Tenggara Tim.","Kabupaten Timor Tengah Utara, Nusa Tenggara Tim.",NUSA TENGGARA TIMUR,,Indonesia,,,,-94.442.228,1.244.780.429,https://maps.google.com/?cid=0x0:0x327abb02e84fac6a,
perumahan,Komplek perumahan,Bpk. Yohanes Oni,"GFWM+856, RT./RW/RW.015/002, Kefamenanu Sel., Kec. Kota Kefamenanu, Kabupaten Timor Tengah Utara, Nusa Tenggara Tim.","Kabupaten Timor Tengah Utara, Nusa Tenggara Tim.",NUSA TENGGARA TIMUR,,Indonesia,,,,-94.542.231,1.244.829.032,https://maps.google.com/?cid=0x0:0xf55001de05b334b9,
perumahan,Komplek perumahan,Rumah Kefa,"GFQG+XMW, Benpasi, Kec. Kota Kefamenanu, Kabupaten Timor Tengah Utara, Nusa Tenggara Tim.","Kabupaten Timor Tengah Utara, Nusa Tenggara Tim.",NUSA TENGGARA TIMUR,,Indonesia,,,,-94.604.776,1.244.774.411,https://maps.google.com/?cid=0x0:0x4e7bbe4b0ba71165,
perumahan,Pembangunan Perumahan,Bpkk. Lorens Nosat,"GFRF+X74, Benpasi, Kec. Kota Kefamenanu, Kabupaten Timor Tengah Utara, Nusa Tenggara Tim.","Kabupaten Timor Tengah Utara, Nusa Tenggara Tim.",NUSA TENGGARA TIMUR,,Indonesia,85738644018,,,-94.582.271,1.244.735.862,https://maps.google.com/?cid=0x0:0x4b04449731b99145,
perumahan,Rumah Kayu,Rumah,"GFQH+V49, Jl. Basuki Rahmat, RT.:012/RW:003, Benpasi, Kec. Kota Kefamenanu, Kabupaten Timor Tengah Utara, Nusa Tenggara Tim.","Kabupaten Timor Tengah Utara, Nusa Tenggara Tim.",NUSA TENGGARA TIMUR,,Indonesia,,,,-94.603.407,1.244.778.474,https://maps.google.com/?cid=0x0:0xb151b8c25f012854,
perumahan,Komplek perumahan,Rumah Bpk Yoke Salassa,"GFRG+9CC, Jl. Basuki Rahmat, Benpasi, Kec. Kota Kefamenanu, Kabupaten Timor Tengah Utara, Nusa Tenggara Tim.","Kabupaten Timor Tengah Utara, Nusa Tenggara Tim.",NUSA TENGGARA TIMUR,,Indonesia,,,,-94.590.574,1.244.760.301,https://maps.google.com/?cid=0x0:0xa8714baa1b4b5c9,
perumahan,Komplek perumahan,Benpasi KLP,"GFPH+GG4, Jl. Sisingamangaraja, Benpasi, Kec. Kota Kefamenanu, Kabupaten Timor Tengah Utara, Nusa Tenggara Tim.","Kabupaten Timor Tengah Utara, Nusa Tenggara Tim.",NUSA TENGGARA TIMUR,,Indonesia,,,,-94.637.341,1.244.788.307,https://maps.google.com/?cid=0x0:0x2689a18eece3d7ca,
perumahan,Pembangunan Perumahan,Km. 4 Kefa - Atambua,"GFVJ+69G, Jl. Ahmad Yani, RT.037/RW.007, Kefamenanu Sel., Kec. Kota Kefamenanu, Kabupaten Timor Tengah Utara, Nusa Tenggara Tim.","Kabupaten Timor Tengah Utara, Nusa Tenggara Tim.",NUSA TENGGARA TIMUR,,Indonesia,,,,-94.569.302,1.244.809.624,https://maps.google.com/?cid=0x0:0xce5ee455499fec12,
perumahan,perumahan,Kec. Kota Kefamenanu,"Kabupaten Timor Tengah Utara, Nusa Tenggara Tim.","Kabupaten Timor Tengah Utara, Nusa Tenggara Tim.",NUSA TENGGARA TIMUR,,Indonesia,,,,-94.532.558,1.244.777.104,https://maps.google.com/?cid=0x0:0xd369c007c411c81d,
perumahan,Komplek perumahan,Biinmaffo Residence Kefamenanu,"GGP8+MVH, Tubuhue, Kec. Kota Kefamenanu, Kabupaten Timor Tengah Utara, Nusa Tenggara Tim.","Kabupaten Timor Tengah Utara, Nusa Tenggara Tim.",NUSA TENGGARA TIMUR,,Indonesia,82144789744,,,-94.633.129,1.245.172.305,https://maps.google.com/?cid=0x0:0x31a47e0667d0a3f9,
perumahan,Komplek perumahan,Rumah,"HF2M+C87, Tunbakun, Kefamenanu Tengah, Kec. Kota Kefamenanu, Kabupaten Timor Tengah Utara, Nusa Tenggara Tim.","Kabupaten Timor Tengah Utara, Nusa Tenggara Tim.",NUSA TENGGARA TIMUR,,Indonesia,,,,-9.448.971,124.483.288,https://maps.google.com/?cid=0x0:0xdf5f9adc773f7aa0,
perumahan,Komplek perumahan,Perumahan Biinmafo,"GGH9+VGJ, Jl. Kefamenanu - Maubesi, Tubuhue, Kec. Kota Kefamenanu, Kabupaten Timor Tengah Utara, Nusa Tenggara Tim.","Kabupaten Timor Tengah Utara, Nusa Tenggara Tim.",NUSA TENGGARA TIMUR,,Indonesia,,,,-94.696.106,1.245.190.272,https://maps.google.com/?cid=0x0:0x415f9414d082c55,
perumahan,Pusat Perbelanjaan,Jabalmart Swalayan Kefamenanu,"Kefamenanu Tengah, Kec. Kota Kefamenanu, Kabupaten Timor Tengah Utara, Nusa Tenggara Tim.","Kabupaten Timor Tengah Utara, Nusa Tenggara Tim.",NUSA TENGGARA TIMUR,,Indonesia,82237696671,,,-9.446.718,1.244.789.765,https://maps.google.com/?cid=0x0:0x9d3a6fd6174e0a9d,
perumahan,Pembangunan Perumahan,Beba,"GF3J+G22, Oelami, Kec. Kota Kefamenanu, Kabupaten Timor Tengah Utara, Nusa Tenggara Tim.","Kabupaten Timor Tengah Utara, Nusa Tenggara Tim.",NUSA TENGGARA TIMUR,,Indonesia,,,,-9.496.127,124.481.372,https://maps.google.com/?cid=0x0:0xb1839c5c539a3579,
perumahan,perumahan,Kefamenanu,"Kefamenanu Tengah, Kec. Kota Kefamenanu, Kabupaten Timor Tengah Utara, Nusa Tenggara Tim.","Kabupaten Timor Tengah Utara, Nusa Tenggara Tim.",NUSA TENGGARA TIMUR,,Indonesia,,,,-94.442.228,1.244.780.429,https://maps.google.com/?cid=0x0:0x267f8255a94e0e7c,
perumahan,Restoran,Rumah Makan Roda Baru,"Jl. Eltari, Kefamenanu Sel., Kec. Kota Kefamenanu, Kabupaten Timor Tengah Utara, Nusa Tenggara Tim.","Kabupaten Timor Tengah Utara, Nusa Tenggara Tim.",NUSA TENGGARA TIMUR,,Indonesia,81340368232,,,-94.691.066,1.244.813.203,https://maps.google.com/?cid=0x0:0xc728be3ab8254490,
perumahan,Restoran,Rumah makan SMS,"No.km. 5, Jl. Eltari No.88, Kefamenanu Tengah, Kota Kefamenanu, North Central Timor Regency, East Nusa Tenggara 85613","Jl. Eltari No.88, Kefamenanu Tengah, Kota Kefamenanu, North Central Timor Regency",NUSA TENGGARA TIMUR,85613.0,Indonesia,,,,-94.854.465,124.489.488,https://maps.google.com/?cid=0x0:0x3d9f4489720f4d47,
perumahan,Komplek perumahan,Yayasan Pijar Timur Indonesia Km.10 Oelnitep,"GGWJ+6P3, Jl. Kefamenanu - Maubesi, Subun, Kec. Insana Bar., Kabupaten Timor Tengah Utara, Nusa Tenggara Tim.","Kabupaten Timor Tengah Utara, Nusa Tenggara Tim.",NUSA TENGGARA TIMUR,,Indonesia,81138000421,,,-9.454.489,1.245.317.922,https://maps.google.com/?cid=0x0:0x10cdf5db0d0a5a96,
perumahan,perumahan,Kefamenanu Tengah,"Kec. Kota Kefamenanu, Kabupaten Timor Tengah Utara, Nusa Tenggara Tim.","Kabupaten Timor Tengah Utara, Nusa Tenggara Tim.",NUSA TENGGARA TIMUR,,Indonesia,,,,-94.483.455,1.244.835.855,https://maps.google.com/?cid=0x0:0x158ef1c3ba686566,
perumahan,Kantor Pemerintah,Kantor Bupati Timor Tengah Utara,"GFVG+62G, JL. Basuki Rahmat, Benpasi, Kefamenau, Kabupaten Timor Tengah Utara, Nusa Tenggara Tim.","Kabupaten Timor Tengah Utara, Nusa Tenggara Tim.",NUSA TENGGARA TIMUR,,Indonesia,38831003,,,-94.569.473,1.244.750.909,https://maps.google.com/?cid=0x0:0x8c1dacbde6882142,
perumahan,Rumah Makan,Pondok Makan Ratu Sari,"Jl. Sonbay, Kefamenanu Sel., Kec. Kota Kefamenanu, Kabupaten Timor Tengah Utara, Nusa Tenggara Tim.","Kabupaten Timor Tengah Utara, Nusa Tenggara Tim.",NUSA TENGGARA TIMUR,,Indonesia,,,,-94.590.125,1.244.801.602,https://maps.google.com/?cid=0x0:0xb8e94754900f4556,
perumahan,Restoran,"Rumah Makan Jawa di Timor Dua Putri""""","Jl. Eltari No.km 9, Naiola, Kec. Kota Kefamenanu, Kabupaten Timor Tengah Utara, Nusa Tenggara Tim.","Kabupaten Timor Tengah Utara, Nusa Tenggara Tim.",NUSA TENGGARA TIMUR,,Indonesia,,,,-951.597,1.244.919.382,https://maps.google.com/?cid=0x0:0xa45b8bb9bae96338,
perumahan,Perguruan Tinggi,Kota kefa,"FGP4+CJ3, Sasi, Kec. Kota Kefamenanu, Kabupaten Timor Tengah Utara, Nusa Tenggara Tim.","Kabupaten Timor Tengah Utara, Nusa Tenggara Tim.",NUSA TENGGARA TIMUR,,Indonesia,,,,-95.139.888,1.245.065.469,https://maps.google.com/?cid=0x0:0x8e3588ad9d9feb13,
perumahan,Bakso,Bakso 99 Mas Jejen,"GFQH+XX7, Kefamenanu Sel., Kec. Kota Kefamenanu, Kabupaten Timor Tengah Utara, Nusa Tenggara Tim.","Kabupaten Timor Tengah Utara, Nusa Tenggara Tim.",NUSA TENGGARA TIMUR,,Indonesia,,,,-94.600.943,1.244.799.101,https://maps.google.com/?cid=0x0:0xdd5a273f8d0fa807,
perumahan,Padang,Rumah makan enggal jaya,"GFJH+6XW, Jl. Sisingamangaraja, Kefamenanu Sel., Kec. Kota Kefamenanu, Kabupaten Timor Tengah Utara, Nusa Tenggara Tim.","Kabupaten Timor Tengah Utara, Nusa Tenggara Tim.",NUSA TENGGARA TIMUR,,Indonesia,,,,-94.693.953,1.244.799.606,https://maps.google.com/?cid=0x0:0xc5826dc580bd4a0f,
perumahan,Sekolah,Km 7,"GF2Q+997, Sasi, Kec. Kota Kefamenanu, Kabupaten Timor Tengah Utara, Nusa Tenggara Tim.","Kabupaten Timor Tengah Utara, Nusa Tenggara Tim.",NUSA TENGGARA TIMUR,,Indonesia,,,,-94.992.556,124.488.328,https://maps.google.com/?cid=0x0:0xd779f155fe75b21e,
perumahan,Rumah Makan,Rumah Makan Padang Duta Minang,"Jl. Eltari No.Km, RW.3, Benpasi, Kec. Kota Kefamenanu, Kabupaten Timor Tengah Utara, Nusa Tenggara Tim. 85613","RW.3, Benpasi, Kec. Kota Kefamenanu, Kabupaten Timor Tengah Utara",NUSA TENGGARA TIMUR,85613.0,Indonesia,,,,-94.633.948,1.244.805.248,https://maps.google.com/?cid=0x0:0x237dd5c82ba614d5,
perumahan,Komplek perumahan,"Kefamenanu,Jln Kartini","HF2H+35V, Jl. Kartini, Kefamenanu Tengah, Kec. Kota Kefamenanu, Kabupaten Timor Tengah Utara, Nusa Tenggara Tim.","Kabupaten Timor Tengah Utara, Nusa Tenggara Tim.",NUSA TENGGARA TIMUR,,Indonesia,,,,-94.497.564,1.244.779.183,https://maps.google.com/?cid=0x0:0xd0ecb2acedbb99b2,
perumahan,Komplek perumahan,Kost putih Isak,"GFWH+M3M, Kefamenanu Sel., Kec. Kota Kefamenanu, Kabupaten Timor Tengah Utara, Nusa Tenggara Tim.","Kabupaten Timor Tengah Utara, Nusa Tenggara Tim.",NUSA TENGGARA TIMUR,,Indonesia,,,,-94.532.962,1.244.776.684,https://maps.google.com/?cid=0x0:0x28ebd72c9fec2045,
perumahan,Komplek perumahan,Rumah Al Moensaku,"GFVM+29P, Kefamenanu Sel., Kec. Kota Kefamenanu, Kabupaten Timor Tengah Utara, Nusa Tenggara Tim.","Kabupaten Timor Tengah Utara, Nusa Tenggara Tim.",NUSA TENGGARA TIMUR,,Indonesia,,,,-9.457.408,1.244.834.583,https://maps.google.com/?cid=0x0:0xa8c77a65c4628266,
perumahan,Inspektur Tempat Tinggal,Rumah Keluarga Surak,"HF2J+4V5, Kefamenanu Tengah, Kec. Kota Kefamenanu, Kabupaten Timor Tengah Utara, Nusa Tenggara Tim.","Kabupaten Timor Tengah Utara, Nusa Tenggara Tim.",NUSA TENGGARA TIMUR,,Indonesia,,,,-94.495.004,124.481.881,https://maps.google.com/?cid=0x0:0xc82212a52a38a588,
perumahan,Komplek perumahan,Rumah Yudha,"GFRP+2W, Kefamenanu Sel., Kec. Kota Kefamenanu, Kabupaten Timor Tengah Utara, Nusa Tenggara Tim.","Kabupaten Timor Tengah Utara, Nusa Tenggara Tim.",NUSA TENGGARA TIMUR,,Indonesia,,,,-94.599.158,1.244.872.719,https://maps.google.com/?cid=0x0:0x1d3c01e272d64837,
perumahan,Komplek perumahan,RUMAH DINAS BANK NTT KEFAMENANU,"GFVG+X6, Benpasi, Kec. Kota Kefamenanu, Kabupaten Timor Tengah Utara, Nusa Tenggara Tim.","Kabupaten Timor Tengah Utara, Nusa Tenggara Tim.",NUSA TENGGARA TIMUR,,Indonesia,,,,-94.550.914,1.244.756.175,https://maps.google.com/?cid=0x0:0x575ec385119dbcfb,
perumahan,Pembangunan Perumahan,Kampung Bima,"Jl. Kefamenanu No.210c, Kefamenanu Sel., Kec. Kota Kefamenanu, Kabupaten Timor Tengah Utara, Nusa Tenggara Tim. 85613","Kefamenanu Sel., Kec. Kota Kefamenanu, Kabupaten Timor Tengah Utara",NUSA TENGGARA TIMUR,85613.0,Indonesia,,,,-94.614.481,1.244.815.865,https://maps.google.com/?cid=0x0:0xf0020d42b74091ca,
perumahan,Pembangunan Perumahan,Manufui,"HF4H+867, Kefamenanu Tengah, Kec. Kota Kefamenanu, Kabupaten Timor Tengah Utara, Nusa Tenggara Tim.","Kabupaten Timor Tengah Utara, Nusa Tenggara Tim.",NUSA TENGGARA TIMUR,,Indonesia,,,,-94.442.228,1.244.780.429,https://maps.google.com/?cid=0x0:0x403b62261040885d,
perumahan,Toko Kostum Tradisional,KRISNA BEZEREV HOUSE/Sewa Aksesoris Adat NTT - Kefamenanu,"GFGM+QQP, RT.054/RW.007, Kefamenanu Sel., Kec. Kota Kefamenanu, Kabupaten Timor Tengah Utara, Nusa Tenggara Tim.","Kabupaten Timor Tengah Utara, Nusa Tenggara Tim.",NUSA TENGGARA TIMUR,,Indonesia,,,,-94.730.281,1.244.844.441,https://maps.google.com/?cid=0x0:0x66bf124f7a9af487,
perumahan,Pembangunan Perumahan,Km. 4 Kefa - Atambua,"GFVJ+69G, Jl. Ahmad Yani, RT.037/RW.007, Kefamenanu Sel., Kec. Kota Kefamenanu, Kabupaten Timor Tengah Utara, Nusa Tenggara Tim.","Kabupaten Timor Tengah Utara, Nusa Tenggara Tim.",NUSA TENGGARA TIMUR,,Indonesia,,,,-94.569.302,1.244.809.624,https://maps.google.com/?cid=0x0:0xce5ee455499fec12,
perumahan,perumahan,Kec. Kota Kefamenanu,"Kabupaten Timor Tengah Utara, Nusa Tenggara Tim.","Kabupaten Timor Tengah Utara, Nusa Tenggara Tim.",NUSA TENGGARA TIMUR,,Indonesia,,,,-94.532.558,1.244.777.104,https://maps.google.com/?cid=0x0:0xd369c007c411c81d,
perumahan,Komplek perumahan,"Kefamenanu,Jln Kartini","HF2H+35V, Jl. Kartini, Kefamenanu Tengah, Kec. Kota Kefamenanu, Kabupaten Timor Tengah Utara, Nusa Tenggara Tim.","Kabupaten Timor Tengah Utara, Nusa Tenggara Tim.",NUSA TENGGARA TIMUR,,Indonesia,,,,-94.497.564,1.244.779.183,https://maps.google.com/?cid=0x0:0xd0ecb2acedbb99b2,
perumahan,Pembangunan Perumahan,Kampung Bima,"Jl. Kefamenanu No.210c, Kefamenanu Sel., Kec. Kota Kefamenanu, Kabupaten Timor Tengah Utara, Nusa Tenggara Tim. 85613","Kefamenanu Sel., Kec. Kota Kefamenanu, Kabupaten Timor Tengah Utara",NUSA TENGGARA TIMUR,85613.0,Indonesia,,,,-94.614.481,1.244.815.865,https://maps.google.com/?cid=0x0:0xf0020d42b74091ca,
perumahan,Komplek perumahan,Rumah Al Moensaku,"GFVM+29P, Kefamenanu Sel., Kec. Kota Kefamenanu, Kabupaten Timor Tengah Utara, Nusa Tenggara Tim.","Kabupaten Timor Tengah Utara, Nusa Tenggara Tim.",NUSA TENGGARA TIMUR,,Indonesia,,,,-9.457.408,1.244.834.583,https://maps.google.com/?cid=0x0:0xa8c77a65c4628266,
perumahan,Komplek perumahan,Rumah Yudha,"GFRP+2W, Kefamenanu Sel., Kec. Kota Kefamenanu, Kabupaten Timor Tengah Utara, Nusa Tenggara Tim.","Kabupaten Timor Tengah Utara, Nusa Tenggara Tim.",NUSA TENGGARA TIMUR,,Indonesia,,,,-94.599.158,1.244.872.719,https://maps.google.com/?cid=0x0:0x1d3c01e272d64837,
perumahan,Komplek perumahan,"Oekolo,kelurahan kefamenanu Selatan Nusa Tenggara Timur","Jl. Eltari No.221, Kefamenanu Sel., Kec. Kota Kefamenanu, Kabupaten Timor Tengah Utara, Nusa Tenggara Tim.","Kabupaten Timor Tengah Utara, Nusa Tenggara Tim.",NUSA TENGGARA TIMUR,,Indonesia,,,,-94.747.324,124.484.088,https://maps.google.com/?cid=0x0:0x702f7f4e236382fe,
perumahan,Komplek perumahan,Biinmaffo Residence Kefamenanu,"GGP8+MVH, Tubuhue, Kec. Kota Kefamenanu, Kabupaten Timor Tengah Utara, Nusa Tenggara Tim.","Kabupaten Timor Tengah Utara, Nusa Tenggara Tim.",NUSA TENGGARA TIMUR,,Indonesia,82144789744,,,-94.633.129,1.245.172.305,https://maps.google.com/?cid=0x0:0x31a47e0667d0a3f9,
perumahan,Pembangunan Perumahan,Rumah Tua Meko,"GFWH+28Q, Jl. Eltari, Kefamenanu Sel., Kec. Kota Kefamenanu, Kabupaten Timor Tengah Utara, Nusa Tenggara Tim.","Kabupaten Timor Tengah Utara, Nusa Tenggara Tim.",NUSA TENGGARA TIMUR,,Indonesia,,,,-94.549.183,1.244.783.646,https://maps.google.com/?cid=0x0:0xfc9bdce83d5b4b54,
perumahan,Pembangunan Perumahan,Manufui,"HF4H+867, Kefamenanu Tengah, Kec. Kota Kefamenanu, Kabupaten Timor Tengah Utara, Nusa Tenggara Tim.","Kabupaten Timor Tengah Utara, Nusa Tenggara Tim.",NUSA TENGGARA TIMUR,,Indonesia,,,,-94.442.228,1.244.780.429,https://maps.google.com/?cid=0x0:0x403b62261040885d,
perumahan,Komplek perumahan,RUMAH DINAS BANK NTT KEFAMENANU,"GFVG+X6, Benpasi, Kec. Kota Kefamenanu, Kabupaten Timor Tengah Utara, Nusa Tenggara Tim.","Kabupaten Timor Tengah Utara, Nusa Tenggara Tim.",NUSA TENGGARA TIMUR,,Indonesia,,,,-94.550.914,1.244.756.175,https://maps.google.com/?cid=0x0:0x575ec385119dbcfb,
perumahan,Komplek perumahan,Gua aplasi,"Jalan jati gua aplasi, Kefamenanu Tengah, Kec. Kota Kefamenanu, Kabupaten Timor Tengah Utara, Nusa Tenggara Tim.","Kabupaten Timor Tengah Utara, Nusa Tenggara Tim.",NUSA TENGGARA TIMUR,,Indonesia,,,,-94.442.228,1.244.780.429,https://maps.google.com/?cid=0x0:0x327abb02e84fac6a,
perumahan,Komplek perumahan,Kost putih Isak,"GFWH+M3M, Kefamenanu Sel., Kec. Kota Kefamenanu, Kabupaten Timor Tengah Utara, Nusa Tenggara Tim.","Kabupaten Timor Tengah Utara, Nusa Tenggara Tim.",NUSA TENGGARA TIMUR,,Indonesia,,,,-94.532.962,1.244.776.684,https://maps.google.com/?cid=0x0:0x28ebd72c9fec2045,
perumahan,Pembangunan Perumahan,Km. 4 Kefa - Atambua,"GFVJ+69G, Jl. Ahmad Yani, RT.037/RW.007, Kefamenanu Sel., Kec. Kota Kefamenanu, Kabupaten Timor Tengah Utara, Nusa Tenggara Tim.","Kabupaten Timor Tengah Utara, Nusa Tenggara Tim.",NUSA TENGGARA TIMUR,,Indonesia,,,,-94.569.302,1.244.809.624,https://maps.google.com/?cid=0x0:0xce5ee455499fec12,
perumahan,Toko Kostum Tradisional,KRISNA BEZEREV HOUSE/Sewa Aksesoris Adat NTT - Kefamenanu,"GFGM+QQP, RT.054/RW.007, Kefamenanu Sel., Kec. Kota Kefamenanu, Kabupaten Timor Tengah Utara, Nusa Tenggara Tim.","Kabupaten Timor Tengah Utara, Nusa Tenggara Tim.",NUSA TENGGARA TIMUR,,Indonesia,,,,-94.730.281,1.244.844.441,https://maps.google.com/?cid=0x0:0x66bf124f7a9af487,
perumahan,Pembangunan Perumahan,CRM,"GFQJ+QR7, Kefamenanu Sel., Kec. Kota Kefamenanu, Kabupaten Timor Tengah Utara, Nusa Tenggara Tim.","Kabupaten Timor Tengah Utara, Nusa Tenggara Tim.",NUSA TENGGARA TIMUR,,Indonesia,,,,-946.059,1.244.820.483,https://maps.google.com/?cid=0x0:0xa7bf9dbe6a9fc4d,
perumahan,Komplek perumahan,Jln Semangka I Kefamenanu,"GFJM+VQH, Kefamenanu Sel., Kec. Kota Kefamenanu, Kabupaten Timor Tengah Utara, Nusa Tenggara Tim.","Kabupaten Timor Tengah Utara, Nusa Tenggara Tim.",NUSA TENGGARA TIMUR,,Indonesia,,,,-94.678.247,1.244.844.713,https://maps.google.com/?cid=0x0:0xf0a905db77caa2c1,
perumahan,Komplek perumahan,Perumahan Biinmafo,"GGH9+VGJ, Jl. Kefamenanu - Maubesi, Tubuhue, Kec. Kota Kefamenanu, Kabupaten Timor Tengah Utara, Nusa Tenggara Tim.","Kabupaten Timor Tengah Utara, Nusa Tenggara Tim.",NUSA TENGGARA TIMUR,,Indonesia,,,,-94.696.106,1.245.190.272,https://maps.google.com/?cid=0x0:0x415f9414d082c55,
perumahan,Komplek perumahan,Rumah Alm.Marthin Tahoni,"HF4M+9G4, Kefamenanu Tengah, Kec. Kota Kefamenanu, Kabupaten Timor Tengah Utara, Nusa Tenggara Tim.","Kabupaten Timor Tengah Utara, Nusa Tenggara Tim.",NUSA TENGGARA TIMUR,,Indonesia,,,,-94.441.076,1.244.838.131,https://maps.google.com/?cid=0x0:0x7bf73150fd01fcc3,
perumahan,perumahan,Rumah gasar kobesi,"GFWH+M3M, Kefamenanu Sel., Kec. Kota Kefamenanu, Kabupaten Timor Tengah Utara, Nusa Tenggara Tim.","Kabupaten Timor Tengah Utara, Nusa Tenggara Tim.",NUSA TENGGARA TIMUR,,Indonesia,,,,-94.532.962,1.244.776.684,https://maps.google.com/?cid=0x0:0xa7970a71ebd74a35,
perumahan,perumahan,Kec. Kota Kefamenanu,"Kabupaten Timor Tengah Utara, Nusa Tenggara Tim.","Kabupaten Timor Tengah Utara, Nusa Tenggara Tim.",NUSA TENGGARA TIMUR,,Indonesia,,,,-94.532.558,1.244.777.104,https://maps.google.com/?cid=0x0:0xd369c007c411c81d,
perumahan,Pembangunan Perumahan,Perumahan Sasi Permai,"FFWP+GJJ, Sasi, Kec. Kota Kefamenanu, Kabupaten Timor Tengah Utara, Nusa Tenggara Tim.","Kabupaten Timor Tengah Utara, Nusa Tenggara Tim.",NUSA TENGGARA TIMUR,,Indonesia,81298678478,,,-95.036.688,1.244.865.251,https://maps.google.com/?cid=0x0:0x780eb6c2719f7370,
perumahan,Pembangunan Perumahan,AKAMSI SMANSA KEFA,"GFVM+57M, Jl. Sonbay, Kefamenanu Sel., Kec. Kota Kefamenanu, Kabupaten Timor Tengah Utara, Nusa Tenggara Tim.","Kabupaten Timor Tengah Utara, Nusa Tenggara Tim.",NUSA TENGGARA TIMUR,,Indonesia,,,,-94.570.338,1.244.831.736,https://maps.google.com/?cid=0x0:0x5dd201e93e75b6bd,
perumahan,Komplek perumahan,"Kefamenanu,Jln Kartini","HF2H+35V, Jl. Kartini, Kefamenanu Tengah, Kec. Kota Kefamenanu, Kabupaten Timor Tengah Utara, Nusa Tenggara Tim.","Kabupaten Timor Tengah Utara, Nusa Tenggara Tim.",NUSA TENGGARA TIMUR,,Indonesia,,,,-94.497.564,1.244.779.183,https://maps.google.com/?cid=0x0:0xd0ecb2acedbb99b2,
perumahan,Inspektur Tempat Tinggal,Rumah Keluarga Surak,"HF2J+4V5, Kefamenanu Tengah, Kec. Kota Kefamenanu, Kabupaten Timor Tengah Utara, Nusa Tenggara Tim.","Kabupaten Timor Tengah Utara, Nusa Tenggara Tim.",NUSA TENGGARA TIMUR,,Indonesia,,,,-94.495.004,124.481.881,https://maps.google.com/?cid=0x0:0xc82212a52a38a588,
perumahan,Pembangunan Perumahan,Kampung Bima,"Jl. Kefamenanu No.210c, Kefamenanu Sel., Kec. Kota Kefamenanu, Kabupaten Timor Tengah Utara, Nusa Tenggara Tim. 85613","Kefamenanu Sel., Kec. Kota Kefamenanu, Kabupaten Timor Tengah Utara",NUSA TENGGARA TIMUR,85613.0,Indonesia,,,,-94.614.481,1.244.815.865,https://maps.google.com/?cid=0x0:0xf0020d42b74091ca,
perumahan,Komplek perumahan,Rumah Alm.Marthin Tahoni,"HF4M+9G4, Kefamenanu Tengah, Kec. Kota Kefamenanu, Kabupaten Timor Tengah Utara, Nusa Tenggara Tim.","Kabupaten Timor Tengah Utara, Nusa Tenggara Tim.",NUSA TENGGARA TIMUR,,Indonesia,,,,-94.441.076,1.244.838.131,https://maps.google.com/?cid=0x0:0x7bf73150fd01fcc3,
perumahan,Komplek perumahan,Rumah Al Moensaku,"GFVM+29P, Kefamenanu Sel., Kec. Kota Kefamenanu, Kabupaten Timor Tengah Utara, Nusa Tenggara Tim.","Kabupaten Timor Tengah Utara, Nusa Tenggara Tim.",NUSA TENGGARA TIMUR,,Indonesia,,,,-9.457.408,1.244.834.583,https://maps.google.com/?cid=0x0:0xa8c77a65c4628266,
perumahan,Komplek perumahan,Kost putih Isak,"GFWH+M3M, Kefamenanu Sel., Kec. Kota Kefamenanu, Kabupaten Timor Tengah Utara, Nusa Tenggara Tim.","Kabupaten Timor Tengah Utara, Nusa Tenggara Tim.",NUSA TENGGARA TIMUR,,Indonesia,,,,-94.532.962,1.244.776.684,https://maps.google.com/?cid=0x0:0x28ebd72c9fec2045,
perumahan,Komplek perumahan,Rumah Yudha,"GFRP+2W, Kefamenanu Sel., Kec. Kota Kefamenanu, Kabupaten Timor Tengah Utara, Nusa Tenggara Tim.","Kabupaten Timor Tengah Utara, Nusa Tenggara Tim.",NUSA TENGGARA TIMUR,,Indonesia,,,,-94.599.158,1.244.872.719,https://maps.google.com/?cid=0x0:0x1d3c01e272d64837,
perumahan,Komplek perumahan,Gua aplasi,"Jalan jati gua aplasi, Kefamenanu Tengah, Kec. Kota Kefamenanu, Kabupaten Timor Tengah Utara, Nusa Tenggara Tim.","Kabupaten Timor Tengah Utara, Nusa Tenggara Tim.",NUSA TENGGARA TIMUR,,Indonesia,,,,-94.442.228,1.244.780.429,https://maps.google.com/?cid=0x0:0x327abb02e84fac6a,
perumahan,Pembangunan Perumahan,Km. 4 Kefa - Atambua,"GFVJ+69G, Jl. Ahmad Yani, RT.037/RW.007, Kefamenanu Sel., Kec. Kota Kefamenanu, Kabupaten Timor Tengah Utara, Nusa Tenggara Tim.","Kabupaten Timor Tengah Utara, Nusa Tenggara Tim.",NUSA TENGGARA TIMUR,,Indonesia,,,,-94.569.302,1.244.809.624,https://maps.google.com/?cid=0x0:0xce5ee455499fec12,
perumahan,Komplek perumahan,RUMAH DINAS BANK NTT KEFAMENANU,"GFVG+X6, Benpasi, Kec. Kota Kefamenanu, Kabupaten Timor Tengah Utara, Nusa Tenggara Tim.","Kabupaten Timor Tengah Utara, Nusa Tenggara Tim.",NUSA TENGGARA TIMUR,,Indonesia,,,,-94.550.914,1.244.756.175,https://maps.google.com/?cid=0x0:0x575ec385119dbcfb,
perumahan,Pembangunan Perumahan,Rumah Tua Meko,"GFWH+28Q, Jl. Eltari, Kefamenanu Sel., Kec. Kota Kefamenanu, Kabupaten Timor Tengah Utara, Nusa Tenggara Tim.","Kabupaten Timor Tengah Utara, Nusa Tenggara Tim.",NUSA TENGGARA TIMUR,,Indonesia,,,,-94.549.183,1.244.783.646,https://maps.google.com/?cid=0x0:0xfc9bdce83d5b4b54,
perumahan,Komplek perumahan,Biinmaffo Residence Kefamenanu,"GGP8+MVH, Tubuhue, Kec. Kota Kefamenanu, Kabupaten Timor Tengah Utara, Nusa Tenggara Tim.","Kabupaten Timor Tengah Utara, Nusa Tenggara Tim.",NUSA TENGGARA TIMUR,,Indonesia,82144789744,,,-94.633.129,1.245.172.305,https://maps.google.com/?cid=0x0:0x31a47e0667d0a3f9,
perumahan,Komplek perumahan,SERVICE ELEKTRONIK,"HF3C+WC7, Bansone, Kec. Kota Kefamenanu, Kabupaten Timor Tengah Utara, Nusa Tenggara Tim.","Kabupaten Timor Tengah Utara, Nusa Tenggara Tim.",NUSA TENGGARA TIMUR,,Indonesia,,,,-94.449.662,1.244.719.888,https://maps.google.com/?cid=0x0:0x992ec700026f35cb,
perumahan,Pembangunan Perumahan,Manufui,"HF4H+867, Kefamenanu Tengah, Kec. Kota Kefamenanu, Kabupaten Timor Tengah Utara, Nusa Tenggara Tim.","Kabupaten Timor Tengah Utara, Nusa Tenggara Tim.",NUSA TENGGARA TIMUR,,Indonesia,,,,-94.442.228,1.244.780.429,https://maps.google.com/?cid=0x0:0x403b62261040885d,
perumahan,Komplek perumahan,Frans Tanik,"GFMV+MWR, Tubuhue, Jl. Ahmad Yani, Kec. Kota Kefamenanu, Kabupaten Timor Tengah Utara, Nusa Tenggara Tim.","Kabupaten Timor Tengah Utara, Nusa Tenggara Tim.",NUSA TENGGARA TIMUR,,Indonesia,,,,-94.568.888,124.480.937,https://maps.google.com/?cid=0x0:0x9bde76820271bff2,
perumahan,Perumahan,Rumah Mario Carceres,"GFWP+G4Q, Kefamenanu Sel., Kec. Kota Kefamenanu, Kabupaten Timor Tengah Utara, Nusa Tenggara Tim.","Kabupaten Timor Tengah Utara, Nusa Tenggara Tim.",NUSA TENGGARA TIMUR,,Indonesia,,,,-94.536.714,1.244.853.535,https://maps.google.com/?cid=0x0:0xb09a0c3ab49df7dd,
perumahan,Komplek perumahan,Kampung Ata Solor,"HF4M+6J3, Kefamenanu Tengah, Kec. Kota Kefamenanu, Kabupaten Timor Tengah Utara, Nusa Tenggara Tim.","Kabupaten Timor Tengah Utara, Nusa Tenggara Tim.",NUSA TENGGARA TIMUR,,Indonesia,,,,-94.444.922,1.244.840.381,https://maps.google.com/?cid=0x0:0x76e02f740a04795d,
perumahan,perumahan,Kec. Kota Kefamenanu,"Kabupaten Timor Tengah Utara, Nusa Tenggara Tim.","Kabupaten Timor Tengah Utara, Nusa Tenggara Tim.",NUSA TENGGARA TIMUR,,Indonesia,,,,-94.532.558,1.244.777.104,https://maps.google.com/?cid=0x0:0xd369c007c411c81d,
perumahan,Komplek perumahan,Gua aplasi,"Jalan jati gua aplasi, Kefamenanu Tengah, Kec. Kota Kefamenanu, Kabupaten Timor Tengah Utara, Nusa Tenggara Tim.","Kabupaten Timor Tengah Utara, Nusa Tenggara Tim.",NUSA TENGGARA TIMUR,,Indonesia,,,,-94.442.228,1.244.780.429,https://maps.google.com/?cid=0x0:0x327abb02e84fac6a,
perumahan,Komplek perumahan,Kost putih Isak,"GFWH+M3M, Kefamenanu Sel., Kec. Kota Kefamenanu, Kabupaten Timor Tengah Utara, Nusa Tenggara Tim.","Kabupaten Timor Tengah Utara, Nusa Tenggara Tim.",NUSA TENGGARA TIMUR,,Indonesia,,,,-94.532.962,1.244.776.684,https://maps.google.com/?cid=0x0:0x28ebd72c9fec2045,
perumahan,Komplek perumahan,Lamek Pisdon,"GFQG+6X9, Benpasi, Kec. Kota Kefamenanu, Kabupaten Timor Tengah Utara, Nusa Tenggara Tim.","Kabupaten Timor Tengah Utara, Nusa Tenggara Tim.",NUSA TENGGARA TIMUR,,Indonesia,,,,-94.619.268,1.244.775.016,https://maps.google.com/?cid=0x0:0xf48d919cb0c475fd,
perumahan,Komplek perumahan,Rumah Al Moensaku,"GFVM+29P, Kefamenanu Sel., Kec. Kota Kefamenanu, Kabupaten Timor Tengah Utara, Nusa Tenggara Tim.","Kabupaten Timor Tengah Utara, Nusa Tenggara Tim.",NUSA TENGGARA TIMUR,,Indonesia,,,,-9.457.408,1.244.834.583,https://maps.google.com/?cid=0x0:0xa8c77a65c4628266,
perumahan,Pembangunan Perumahan,Rumah Tua Meko,"GFWH+28Q, Jl. Eltari, Kefamenanu Sel., Kec. Kota Kefamenanu, Kabupaten Timor Tengah Utara, Nusa Tenggara Tim.","Kabupaten Timor Tengah Utara, Nusa Tenggara Tim.",NUSA TENGGARA TIMUR,,Indonesia,,,,-94.549.183,1.244.783.646,https://maps.google.com/?cid=0x0:0xfc9bdce83d5b4b54,
perumahan,Inspektur Tempat Tinggal,Rumah Keluarga Surak,"HF2J+4V5, Kefamenanu Tengah, Kec. Kota Kefamenanu, Kabupaten Timor Tengah Utara, Nusa Tenggara Tim.","Kabupaten Timor Tengah Utara, Nusa Tenggara Tim.",NUSA TENGGARA TIMUR,,Indonesia,,,,-94.495.004,124.481.881,https://maps.google.com/?cid=0x0:0xc82212a52a38a588,
perumahan,Komplek perumahan,Frans Tanik,"GFMV+MWR, Tubuhue, Jl. Ahmad Yani, Kec. Kota Kefamenanu, Kabupaten Timor Tengah Utara, Nusa Tenggara Tim.","Kabupaten Timor Tengah Utara, Nusa Tenggara Tim.",NUSA TENGGARA TIMUR,,Indonesia,,,,-94.568.888,124.480.937,https://maps.google.com/?cid=0x0:0x9bde76820271bff2,
perumahan,Komplek perumahan,"Kefamenanu,Jln Kartini","HF2H+35V, Jl. Kartini, Kefamenanu Tengah, Kec. Kota Kefamenanu, Kabupaten Timor Tengah Utara, Nusa Tenggara Tim.","Kabupaten Timor Tengah Utara, Nusa Tenggara Tim.",NUSA TENGGARA TIMUR,,Indonesia,,,,-94.497.564,1.244.779.183,https://maps.google.com/?cid=0x0:0xd0ecb2acedbb99b2,
perumahan,Pembangunan Perumahan,Bpkk. Lorens Nosat,"GFRF+X74, Benpasi, Kec. Kota Kefamenanu, Kabupaten Timor Tengah Utara, Nusa Tenggara Tim.","Kabupaten Timor Tengah Utara, Nusa Tenggara Tim.",NUSA TENGGARA TIMUR,,Indonesia,85738644018,,,-94.582.271,1.244.735.862,https://maps.google.com/?cid=0x0:0x4b04449731b99145,
perumahan,Komplek perumahan,Rumah Yudha,"GFRP+2W, Kefamenanu Sel., Kec. Kota Kefamenanu, Kabupaten Timor Tengah Utara, Nusa Tenggara Tim.","Kabupaten Timor Tengah Utara, Nusa Tenggara Tim.",NUSA TENGGARA TIMUR,,Indonesia,,,,-94.599.158,1.244.872.719,https://maps.google.com/?cid=0x0:0x1d3c01e272d64837,
perumahan,Komplek perumahan,Rumah,"HF2M+C87, Tunbakun, Kefamenanu Tengah, Kec. Kota Kefamenanu, Kabupaten Timor Tengah Utara, Nusa Tenggara Tim.","Kabupaten Timor Tengah Utara, Nusa Tenggara Tim.",NUSA TENGGARA TIMUR,,Indonesia,,,,-9.448.971,124.483.288,https://maps.google.com/?cid=0x0:0xdf5f9adc773f7aa0,
perumahan,Komplek perumahan,Rumah Alm.Marthin Tahoni,"HF4M+9G4, Kefamenanu Tengah, Kec. Kota Kefamenanu, Kabupaten Timor Tengah Utara, Nusa Tenggara Tim.","Kabupaten Timor Tengah Utara, Nusa Tenggara Tim.",NUSA TENGGARA TIMUR,,Indonesia,,,,-94.441.076,1.244.838.131,https://maps.google.com/?cid=0x0:0x7bf73150fd01fcc3,
perumahan,Rumah Kayu,Rumah,"GFQH+V49, Jl. Basuki Rahmat, RT.:012/RW:003, Benpasi, Kec. Kota Kefamenanu, Kabupaten Timor Tengah Utara, Nusa Tenggara Tim.","Kabupaten Timor Tengah Utara, Nusa Tenggara Tim.",NUSA TENGGARA TIMUR,,Indonesia,,,,-94.603.407,1.244.778.474,https://maps.google.com/?cid=0x0:0xb151b8c25f012854,
perumahan,Komplek perumahan,Rumah Lalox,"GFX9+P38, Jl.Pene, RT.011/RW004, Bansone, Kec. Kota Kefamenanu, Kabupaten Timor Tengah Utara, Nusa Tenggara Tim.","Kabupaten Timor Tengah Utara, Nusa Tenggara Tim.",NUSA TENGGARA TIMUR,,Indonesia,,,,-94.507.047,124.467.709,https://maps.google.com/?cid=0x0:0xdeb01783ce4a5154,
perumahan,Pembangunan Perumahan,Perumahan Sasi Permai,"FFWP+GJJ, Sasi, Kec. Kota Kefamenanu, Kabupaten Timor Tengah Utara, Nusa Tenggara Tim.","Kabupaten Timor Tengah Utara, Nusa Tenggara Tim.",NUSA TENGGARA TIMUR,,Indonesia,81298678478,,,-95.036.688,1.244.865.251,https://maps.google.com/?cid=0x0:0x780eb6c2719f7370,
perumahan,Komplek perumahan,Ibu Lusi Fallo,"HF2J+62G, Jl. Sonbay, Kefamenanu Tengah, Kec. Kota Kefamenanu, Kabupaten Timor Tengah Utara, Nusa Tenggara Tim.","Kabupaten Timor Tengah Utara, Nusa Tenggara Tim.",NUSA TENGGARA TIMUR,,Indonesia,,,,-94.493.029,1.244.798.012,https://maps.google.com/?cid=0x0:0xc5ce3fe710abfb6e,
perumahan,Pembangunan Perumahan,Rumah Yance Afeanpah,"GFXG+546, Kefamenanu Tengah, Kec. Kota Kefamenanu, Kabupaten Timor Tengah Utara, Nusa Tenggara Tim.","Kabupaten Timor Tengah Utara, Nusa Tenggara Tim.",NUSA TENGGARA TIMUR,,Indonesia,,,,-94.520.759,1.244.752.569,https://maps.google.com/?cid=0x0:0xd87a1243dd20ca0d,
perumahan,Komplek perumahan,Andre home,"GFRF+65R, A, RT.6/RW.3, Benpasi, Kec. Kota Kefamenanu, Kabupaten Timor Tengah Utara, Nusa Tenggara Tim.","Kabupaten Timor Tengah Utara, Nusa Tenggara Tim.",NUSA TENGGARA TIMUR,,Indonesia,,,,-94.593.999,1.244.728.895,https://maps.google.com/?cid=0x0:0x6a5ee178b90d70b0,
perumahan,Komplek perumahan,RUMAH DINAS BANK NTT KEFAMENANU,"GFVG+X6, Benpasi, Kec. Kota Kefamenanu, Kabupaten Timor Tengah Utara, Nusa Tenggara Tim.","Kabupaten Timor Tengah Utara, Nusa Tenggara Tim.",NUSA TENGGARA TIMUR,,Indonesia,,,,-94.550.914,1.244.756.175,https://maps.google.com/?cid=0x0:0x575ec385119dbcfb,
perumahan,perumahan,Kec. Kota Kefamenanu,"Kabupaten Timor Tengah Utara, Nusa Tenggara Tim.","Kabupaten Timor Tengah Utara, Nusa Tenggara Tim.",NUSA TENGGARA TIMUR,,Indonesia,,,,-94.532.558,1.244.777.104,https://maps.google.com/?cid=0x0:0xd369c007c411c81d,
perumahan,Komplek perumahan,"Kefamenanu,Jln Kartini","HF2H+35V, Jl. Kartini, Kefamenanu Tengah, Kec. Kota Kefamenanu, Kabupaten Timor Tengah Utara, Nusa Tenggara Tim.","Kabupaten Timor Tengah Utara, Nusa Tenggara Tim.",NUSA TENGGARA TIMUR,,Indonesia,,,,-94.497.564,1.244.779.183,https://maps.google.com/?cid=0x0:0xd0ecb2acedbb99b2,
perumahan,Pembangunan Perumahan,Perumahan Sasi Permai,"FFWP+GJJ, Sasi, Kec. Kota Kefamenanu, Kabupaten Timor Tengah Utara, Nusa Tenggara Tim.","Kabupaten Timor Tengah Utara, Nusa Tenggara Tim.",NUSA TENGGARA TIMUR,,Indonesia,81298678478,,,-95.036.688,1.244.865.251,https://maps.google.com/?cid=0x0:0x780eb6c2719f7370,
perumahan,Komplek perumahan,Rumah Yudha,"GFRP+2W, Kefamenanu Sel., Kec. Kota Kefamenanu, Kabupaten Timor Tengah Utara, Nusa Tenggara Tim.","Kabupaten Timor Tengah Utara, Nusa Tenggara Tim.",NUSA TENGGARA TIMUR,,Indonesia,,,,-94.599.158,1.244.872.719,https://maps.google.com/?cid=0x0:0x1d3c01e272d64837,
perumahan,Komplek perumahan,Biinmaffo Residence Kefamenanu,"GGP8+MVH, Tubuhue, Kec. Kota Kefamenanu, Kabupaten Timor Tengah Utara, Nusa Tenggara Tim.","Kabupaten Timor Tengah Utara, Nusa Tenggara Tim.",NUSA TENGGARA TIMUR,,Indonesia,82144789744,,,-94.633.129,1.245.172.305,https://maps.google.com/?cid=0x0:0x31a47e0667d0a3f9,
perumahan,Komplek perumahan,Rumah Al Moensaku,"GFVM+29P, Kefamenanu Sel., Kec. Kota Kefamenanu, Kabupaten Timor Tengah Utara, Nusa Tenggara Tim.","Kabupaten Timor Tengah Utara, Nusa Tenggara Tim.",NUSA TENGGARA TIMUR,,Indonesia,,,,-9.457.408,1.244.834.583,https://maps.google.com/?cid=0x0:0xa8c77a65c4628266,
perumahan,Komplek perumahan,Kost putih Isak,"GFWH+M3M, Kefamenanu Sel., Kec. Kota Kefamenanu, Kabupaten Timor Tengah Utara, Nusa Tenggara Tim.","Kabupaten Timor Tengah Utara, Nusa Tenggara Tim.",NUSA TENGGARA TIMUR,,Indonesia,,,,-94.532.962,1.244.776.684,https://maps.google.com/?cid=0x0:0x28ebd72c9fec2045,
perumahan,Komplek perumahan,RUMAH DINAS BANK NTT KEFAMENANU,"GFVG+X6, Benpasi, Kec. Kota Kefamenanu, Kabupaten Timor Tengah Utara, Nusa Tenggara Tim.","Kabupaten Timor Tengah Utara, Nusa Tenggara Tim.",NUSA TENGGARA TIMUR,,Indonesia,,,,-94.550.914,1.244.756.175,https://maps.google.com/?cid=0x0:0x575ec385119dbcfb,
perumahan,Komplek perumahan,Frans Benu,"HF5J+673, Jl. Kartini, Kefamenanu Tengah, Kec. Kota Kefamenanu, Kabupaten Timor Tengah Utara, Nusa Tenggara Tim.","Kabupaten Timor Tengah Utara, Nusa Tenggara Tim.",NUSA TENGGARA TIMUR,,Indonesia,,,,-94.419.835,1.244.806.807,https://maps.google.com/?cid=0x0:0x8226e090bc27a232,
perumahan,Pembangunan Perumahan,Km. 4 Kefa - Atambua,"GFVJ+69G, Jl. Ahmad Yani, RT.037/RW.007, Kefamenanu Sel., Kec. Kota Kefamenanu, Kabupaten Timor Tengah Utara, Nusa Tenggara Tim.","Kabupaten Timor Tengah Utara, Nusa Tenggara Tim.",NUSA TENGGARA TIMUR,,Indonesia,,,,-94.569.302,1.244.809.624,https://maps.google.com/?cid=0x0:0xce5ee455499fec12,
perumahan,Pembangunan Perumahan,Rumah Tua Meko,"GFWH+28Q, Jl. Eltari, Kefamenanu Sel., Kec. Kota Kefamenanu, Kabupaten Timor Tengah Utara, Nusa Tenggara Tim.","Kabupaten Timor Tengah Utara, Nusa Tenggara Tim.",NUSA TENGGARA TIMUR,,Indonesia,,,,-94.549.183,1.244.783.646,https://maps.google.com/?cid=0x0:0xfc9bdce83d5b4b54,
perumahan,Komplek perumahan,Rumah Alm.Marthin Tahoni,"HF4M+9G4, Kefamenanu Tengah, Kec. Kota Kefamenanu, Kabupaten Timor Tengah Utara, Nusa Tenggara Tim.","Kabupaten Timor Tengah Utara, Nusa Tenggara Tim.",NUSA TENGGARA TIMUR,,Indonesia,,,,-94.441.076,1.244.838.131,https://maps.google.com/?cid=0x0:0x7bf73150fd01fcc3,
perumahan,Komplek perumahan,Benpasi KLP,"GFPH+GG4, Jl. Sisingamangaraja, Benpasi, Kec. Kota Kefamenanu, Kabupaten Timor Tengah Utara, Nusa Tenggara Tim.","Kabupaten Timor Tengah Utara, Nusa Tenggara Tim.",NUSA TENGGARA TIMUR,,Indonesia,,,,-94.637.341,1.244.788.307,https://maps.google.com/?cid=0x0:0x2689a18eece3d7ca,
perumahan,perumahan,Rumah gasar kobesi,"GFWH+M3M, Kefamenanu Sel., Kec. Kota Kefamenanu, Kabupaten Timor Tengah Utara, Nusa Tenggara Tim.","Kabupaten Timor Tengah Utara, Nusa Tenggara Tim.",NUSA TENGGARA TIMUR,,Indonesia,,,,-94.532.962,1.244.776.684,https://maps.google.com/?cid=0x0:0xa7970a71ebd74a35,
perumahan,Pembangunan Perumahan,Manufui,"HF4H+867, Kefamenanu Tengah, Kec. Kota Kefamenanu, Kabupaten Timor Tengah Utara, Nusa Tenggara Tim.","Kabupaten Timor Tengah Utara, Nusa Tenggara Tim.",NUSA TENGGARA TIMUR,,Indonesia,,,,-94.442.228,1.244.780.429,https://maps.google.com/?cid=0x0:0x403b62261040885d,
perumahan,Komplek perumahan,Perumahan Biinmafo,"GGH9+VGJ, Jl. Kefamenanu - Maubesi, Tubuhue, Kec. Kota Kefamenanu, Kabupaten Timor Tengah Utara, Nusa Tenggara Tim.","Kabupaten Timor Tengah Utara, Nusa Tenggara Tim.",NUSA TENGGARA TIMUR,,Indonesia,,,,-94.696.106,1.245.190.272,https://maps.google.com/?cid=0x0:0x415f9414d082c55,
perumahan,Komplek perumahan,Lamek Pisdon,"GFQG+6X9, Benpasi, Kec. Kota Kefamenanu, Kabupaten Timor Tengah Utara, Nusa Tenggara Tim.","Kabupaten Timor Tengah Utara, Nusa Tenggara Tim.",NUSA TENGGARA TIMUR,,Indonesia,,,,-94.619.268,1.244.775.016,https://maps.google.com/?cid=0x0:0xf48d919cb0c475fd,
perumahan,Komplek perumahan,Rumah Bpk Yoke Salassa,"GFRG+9CC, Jl. Basuki Rahmat, Benpasi, Kec. Kota Kefamenanu, Kabupaten Timor Tengah Utara, Nusa Tenggara Tim.","Kabupaten Timor Tengah Utara, Nusa Tenggara Tim.",NUSA TENGGARA TIMUR,,Indonesia,,,,-94.590.574,1.244.760.301,https://maps.google.com/?cid=0x0:0xa8714baa1b4b5c9,
perumahan,Rumah Kayu,Rumah,"GFQH+V49, Jl. Basuki Rahmat, RT.:012/RW:003, Benpasi, Kec. Kota Kefamenanu, Kabupaten Timor Tengah Utara, Nusa Tenggara Tim.","Kabupaten Timor Tengah Utara, Nusa Tenggara Tim.",NUSA TENGGARA TIMUR,,Indonesia,,,,-94.603.407,1.244.778.474,https://maps.google.com/?cid=0x0:0xb151b8c25f012854,
perumahan,Pembangunan Perumahan,CRM,"GFQJ+QR7, Kefamenanu Sel., Kec. Kota Kefamenanu, Kabupaten Timor Tengah Utara, Nusa Tenggara Tim.","Kabupaten Timor Tengah Utara, Nusa Tenggara Tim.",NUSA TENGGARA TIMUR,,Indonesia,,,,-946.059,1.244.820.483,https://maps.google.com/?cid=0x0:0xa7bf9dbe6a9fc4d,
perumahan,perumahan,Kec. Kota Kefamenanu,"Kabupaten Timor Tengah Utara, Nusa Tenggara Tim.","Kabupaten Timor Tengah Utara, Nusa Tenggara Tim.",NUSA TENGGARA TIMUR,,Indonesia,,,,-94.532.558,1.244.777.104,https://maps.google.com/?cid=0x0:0xd369c007c411c81d,
perumahan,Komplek perumahan,RUMAH DINAS BANK NTT KEFAMENANU,"GFVG+X6, Benpasi, Kec. Kota Kefamenanu, Kabupaten Timor Tengah Utara, Nusa Tenggara Tim.","Kabupaten Timor Tengah Utara, Nusa Tenggara Tim.",NUSA TENGGARA TIMUR,,Indonesia,,,,-94.550.914,1.244.756.175,https://maps.google.com/?cid=0x0:0x575ec385119dbcfb,
perumahan,Komplek perumahan,Rumah,"HF2M+C87, Tunbakun, Kefamenanu Tengah, Kec. Kota Kefamenanu, Kabupaten Timor Tengah Utara, Nusa Tenggara Tim.","Kabupaten Timor Tengah Utara, Nusa Tenggara Tim.",NUSA TENGGARA TIMUR,,Indonesia,,,,-9.448.971,124.483.288,https://maps.google.com/?cid=0x0:0xdf5f9adc773f7aa0,
perumahan,Komplek perumahan,"Kefamenanu,Jln Kartini","HF2H+35V, Jl. Kartini, Kefamenanu Tengah, Kec. Kota Kefamenanu, Kabupaten Timor Tengah Utara, Nusa Tenggara Tim.","Kabupaten Timor Tengah Utara, Nusa Tenggara Tim.",NUSA TENGGARA TIMUR,,Indonesia,,,,-94.497.564,1.244.779.183,https://maps.google.com/?cid=0x0:0xd0ecb2acedbb99b2,
perumahan,Komplek perumahan,SERVICE ELEKTRONIK,"HF3C+WC7, Bansone, Kec. Kota Kefamenanu, Kabupaten Timor Tengah Utara, Nusa Tenggara Tim.","Kabupaten Timor Tengah Utara, Nusa Tenggara Tim.",NUSA TENGGARA TIMUR,,Indonesia,,,,-94.449.662,1.244.719.888,https://maps.google.com/?cid=0x0:0x992ec700026f35cb,
perumahan,Komplek perumahan,Rumah Alm.Marthin Tahoni,"HF4M+9G4, Kefamenanu Tengah, Kec. Kota Kefamenanu, Kabupaten Timor Tengah Utara, Nusa Tenggara Tim.","Kabupaten Timor Tengah Utara, Nusa Tenggara Tim.",NUSA TENGGARA TIMUR,,Indonesia,,,,-94.441.076,1.244.838.131,https://maps.google.com/?cid=0x0:0x7bf73150fd01fcc3,
perumahan,Komplek perumahan,Andre home,"GFRF+65R, A, RT.6/RW.3, Benpasi, Kec. Kota Kefamenanu, Kabupaten Timor Tengah Utara, Nusa Tenggara Tim.","Kabupaten Timor Tengah Utara, Nusa Tenggara Tim.",NUSA TENGGARA TIMUR,,Indonesia,,,,-94.593.999,1.244.728.895,https://maps.google.com/?cid=0x0:0x6a5ee178b90d70b0,
perumahan,Komplek perumahan,Rumah Al Moensaku,"GFVM+29P, Kefamenanu Sel., Kec. Kota Kefamenanu, Kabupaten Timor Tengah Utara, Nusa Tenggara Tim.","Kabupaten Timor Tengah Utara, Nusa Tenggara Tim.",NUSA TENGGARA TIMUR,,Indonesia,,,,-9.457.408,1.244.834.583,https://maps.google.com/?cid=0x0:0xa8c77a65c4628266,
perumahan,Pembangunan Perumahan,Kampung Bima,"Jl. Kefamenanu No.210c, Kefamenanu Sel., Kec. Kota Kefamenanu, Kabupaten Timor Tengah Utara, Nusa Tenggara Tim. 85613","Kefamenanu Sel., Kec. Kota Kefamenanu, Kabupaten Timor Tengah Utara",NUSA TENGGARA TIMUR,85613.0,Indonesia,,,,-94.614.481,1.244.815.865,https://maps.google.com/?cid=0x0:0xf0020d42b74091ca,
perumahan,Komplek perumahan,Kost putih Isak,"GFWH+M3M, Kefamenanu Sel., Kec. Kota Kefamenanu, Kabupaten Timor Tengah Utara, Nusa Tenggara Tim.","Kabupaten Timor Tengah Utara, Nusa Tenggara Tim.",NUSA TENGGARA TIMUR,,Indonesia,,,,-94.532.962,1.244.776.684,https://maps.google.com/?cid=0x0:0x28ebd72c9fec2045,
perumahan,Pembangunan Perumahan,AKAMSI SMANSA KEFA,"GFVM+57M, Jl. Sonbay, Kefamenanu Sel., Kec. Kota Kefamenanu, Kabupaten Timor Tengah Utara, Nusa Tenggara Tim.","Kabupaten Timor Tengah Utara, Nusa Tenggara Tim.",NUSA TENGGARA TIMUR,,Indonesia,,,,-94.570.338,1.244.831.736,https://maps.google.com/?cid=0x0:0x5dd201e93e75b6bd,
perumahan,Rumah Kayu,Rumah,"GFQH+V49, Jl. Basuki Rahmat, RT.:012/RW:003, Benpasi, Kec. Kota Kefamenanu, Kabupaten Timor Tengah Utara, Nusa Tenggara Tim.","Kabupaten Timor Tengah Utara, Nusa Tenggara Tim.",NUSA TENGGARA TIMUR,,Indonesia,,,,-94.603.407,1.244.778.474,https://maps.google.com/?cid=0x0:0xb151b8c25f012854,
perumahan,Komplek perumahan,Rumah RN,"GFX9+3F8 Koko, RT.011/RW.004, Bansone, Kec. Kota Kefamenanu, Kabupaten Timor Tengah Utara, Nusa Tenggara Tim.","Kabupaten Timor Tengah Utara, Nusa Tenggara Tim.",NUSA TENGGARA TIMUR,,Indonesia,,,,-94.523.688,1.244.686.526,https://maps.google.com/?cid=0x0:0xfb5f07c540506f57,
perumahan,Komplek perumahan,Rumah Yudha,"GFRP+2W, Kefamenanu Sel., Kec. Kota Kefamenanu, Kabupaten Timor Tengah Utara, Nusa Tenggara Tim.","Kabupaten Timor Tengah Utara, Nusa Tenggara Tim.",NUSA TENGGARA TIMUR,,Indonesia,,,,-94.599.158,1.244.872.719,https://maps.google.com/?cid=0x0:0x1d3c01e272d64837,
perumahan,perumahan,Rumah even bana,"GFR9+4V, Benpasi, Kec. Kota Kefamenanu, Kabupaten Timor Tengah Utara, Nusa Tenggara Tim.","Kabupaten Timor Tengah Utara, Nusa Tenggara Tim.",NUSA TENGGARA TIMUR,,Indonesia,,,,-94.596.484,1.244.697.027,https://maps.google.com/?cid=0x0:0xb4666f4a3a2ea774,
perumahan,Pembangunan Perumahan,Manufui,"HF4H+867, Kefamenanu Tengah, Kec. Kota Kefamenanu, Kabupaten Timor Tengah Utara, Nusa Tenggara Tim.","Kabupaten Timor Tengah Utara, Nusa Tenggara Tim.",NUSA TENGGARA TIMUR,,Indonesia,,,,-94.442.228,1.244.780.429,https://maps.google.com/?cid=0x0:0x403b62261040885d,
perumahan,Komplek perumahan,Stevano RB,"HF4H+QJW, Jl. Prof. Dr. W.Z Yohanes, Kefamenanu Tengah, Kec. Kota Kefamenanu, Kabupaten Timor Tengah Utara, Nusa Tenggara Tim.","Kabupaten Timor Tengah Utara, Nusa Tenggara Tim.",NUSA TENGGARA TIMUR,,Indonesia,82237851501,,,-9.443.021,1.244.790.926,https://maps.google.com/?cid=0x0:0xfedd56703216f100,
perumahan,Komplek perumahan,Tunbakun Family,"HF2J+3JF, Kefamenanu Tengah, Kec. Kota Kefamenanu, Kabupaten Timor Tengah Utara, Nusa Tenggara Tim.","Kabupaten Timor Tengah Utara, Nusa Tenggara Tim.",NUSA TENGGARA TIMUR,,Indonesia,,,,-94.498.018,1.244.815.379,https://maps.google.com/?cid=0x0:0x991960e060509530,
perumahan,Pembangunan Perumahan,Rumah Yance Afeanpah,"GFXG+546, Kefamenanu Tengah, Kec. Kota Kefamenanu, Kabupaten Timor Tengah Utara, Nusa Tenggara Tim.","Kabupaten Timor Tengah Utara, Nusa Tenggara Tim.",NUSA TENGGARA TIMUR,,Indonesia,,,,-94.520.759,1.244.752.569,https://maps.google.com/?cid=0x0:0xd87a1243dd20ca0d,
perumahan,Komplek perumahan,Gua aplasi,"Jalan jati gua aplasi, Kefamenanu Tengah, Kec. Kota Kefamenanu, Kabupaten Timor Tengah Utara, Nusa Tenggara Tim.","Kabupaten Timor Tengah Utara, Nusa Tenggara Tim.",NUSA TENGGARA TIMUR,,Indonesia,,,,-94.442.228,1.244.780.429,https://maps.google.com/?cid=0x0:0x327abb02e84fac6a,
perumahan,perumahan,Kec. Biboki Utara,"Kabupaten Timor Tengah Utara, Nusa Tenggara Tim.","Kabupaten Timor Tengah Utara, Nusa Tenggara Tim.",NUSA TENGGARA TIMUR,,Indonesia,,,,-92.877.632,1.248.367.762,https://maps.google.com/?cid=0x0:0xf1b831dc5a48d996,
perumahan,perumahan,Kec. Biboki Anleu,"Kabupaten Timor Tengah Utara, Nusa Tenggara Tim.","Kabupaten Timor Tengah Utara, Nusa Tenggara Tim.",NUSA TENGGARA TIMUR,,Indonesia,,,,-91.042.343,1.247.340.776,https://maps.google.com/?cid=0x0:0x56ee537868a5cd61,
perumahan,perumahan,Kec. Insana,"Kabupaten Timor Tengah Utara, Nusa Tenggara Tim.","Kabupaten Timor Tengah Utara, Nusa Tenggara Tim.",NUSA TENGGARA TIMUR,,Indonesia,,,,-94.413.004,124.702.849,https://maps.google.com/?cid=0x0:0xc1c379242f7e17d6,
perumahan,Komplek perumahan,Perumahan Mahoni Residence,"JR96+53H, Mahoni, RT.1/RW.6, Beji, Kecamatan Beji, Kota Depok, Jawa Barat 16421","Mahoni, RT.1/RW.6, Beji, Kecamatan Beji, Kota Depok",NUSA TENGGARA TIMUR,16421.0,Indonesia,,,,-63.820.612,1.068.102.362,https://maps.google.com/?cid=0x0:0x4d723859c5c6d6a8,
perumahan,Komplek perumahan,PERUMAHAN NOVA RESIDENCE 1,"H3Q8+X7V, Jayamulya, Kec. Serang Baru, Kabupaten Bekasi, Jawa Barat 17330","Jayamulya, Kec. Serang Baru, Kabupaten Bekasi",NUSA TENGGARA TIMUR,17330.0,Indonesia,2122178231,,,-64.100.184,1.070.656.741,https://maps.google.com/?cid=0x0:0x979eeb64155b8925,
perumahan,perumahan,Kec. Insana Utara,"Kabupaten Timor Tengah Utara, Nusa Tenggara Tim.","Kabupaten Timor Tengah Utara, Nusa Tenggara Tim.",NUSA TENGGARA TIMUR,,Indonesia,,,,-91.836.226,1.244.915.379,https://maps.google.com/?cid=0x0:0xa191d5026c4223dc,
perumahan,Pembangunan Perumahan,RM,"QGV9+QRQ, Humusu C, Kec. Insana Utara, Kabupaten Timor Tengah Utara, Nusa Tenggara Tim.","Kabupaten Timor Tengah Utara, Nusa Tenggara Tim.",NUSA TENGGARA TIMUR,,Indonesia,,,,-92.055.345,124.519.604,https://maps.google.com/?cid=0x0:0x8c46e7d9c58b6688,
perumahan,Perhimpunan Pengembang Perumahan,Lan,"PH62+HQ, Humusu A, Kec. Insana Utara, Kabupaten Timor Tengah Utara, Nusa Tenggara Tim.","Kabupaten Timor Tengah Utara, Nusa Tenggara Tim.",NUSA TENGGARA TIMUR,,Indonesia,,,,-92.886.115,1.245.518.609,https://maps.google.com/?cid=0x0:0x569967c7baa37942,
perumahan,Komplek perumahan,Jak,"JGQ9+CX, Jak, Kec. Miomaffo Tim., Kabupaten Timor Tengah Utara, Nusa Tenggara Tim.","Kabupaten Timor Tengah Utara, Nusa Tenggara Tim.",NUSA TENGGARA TIMUR,,Indonesia,,,,-93.626.087,1.245.199.939,https://maps.google.com/?cid=0x0:0x8e141776bfa32c56,
perumahan,Komplek perumahan,Rumah Fatima Naimuni,"MH2C+PV4, Fafinesu B, Kec. Insana Fafinesu, Kabupaten Timor Tengah Utara, Nusa Tenggara Tim.","Kabupaten Timor Tengah Utara, Nusa Tenggara Tim.",NUSA TENGGARA TIMUR,,Indonesia,,,,-93.482.309,124.572.193,https://maps.google.com/?cid=0x0:0x12591d49bd345935,
perumahan,Gedung Apartemen,Nino,"RHJF+WC9, Oesoko, Kec. Insana Utara, Kabupaten Timor Tengah Utara, Nusa Tenggara Tim.","Kabupaten Timor Tengah Utara, Nusa Tenggara Tim.",NUSA TENGGARA TIMUR,,Indonesia,,,,-9.167.718,124.573.601,https://maps.google.com/?cid=0x0:0x306a8e2ac1c449fa,
perumahan,Pembangunan Perumahan,Bijae Apun,"RF5X+3R6, Humusu C, Kec. Insana Utara, Kabupaten Timor Tengah Utara, Nusa Tenggara Tim.","Kabupaten Timor Tengah Utara, Nusa Tenggara Tim.",NUSA TENGGARA TIMUR,,Indonesia,,,,-91.923.301,1.244.995.182,https://maps.google.com/?cid=0x0:0xb2b3eed2508e389,
perumahan,Pembangunan Perumahan,SASI HOUSE.,"Jl. Amol - Manamas No.69, Sunsea, Kec. Naibenu, Kabupaten Timor Tengah Utara, Nusa Tenggara Tim.","Kabupaten Timor Tengah Utara, Nusa Tenggara Tim.",NUSA TENGGARA TIMUR,,Indonesia,81339551944,,,-93.214.709,1.244.837.096,https://maps.google.com/?cid=0x0:0xa7b849098ea115a,
perumahan,Pembangunan Perumahan,Tualeu-Lanaus,"RT/RW:008/003Lanaus, Humusu C, Kec. Insana Tengah, Kabupaten Timor Tengah Utara, Nusa Tenggara Tim.","Kabupaten Timor Tengah Utara, Nusa Tenggara Tim.",NUSA TENGGARA TIMUR,,Indonesia,,,,-91.828.701,1.245.183.738,https://maps.google.com/?cid=0x0:0x3aa53754a198bcc1,
perumahan,Pembangunan Perumahan,Iku dakosta,"RG95+365, Jl. Wini, Humusu C, Kec. Insana Utara, Kabupaten Timor Tengah Utara, Nusa Tenggara Tim.","Kabupaten Timor Tengah Utara, Nusa Tenggara Tim.",NUSA TENGGARA TIMUR,,Indonesia,,,,-91.823.732,1.245.081.213,https://maps.google.com/?cid=0x0:0x5b0cf7414cbab7b2,
perumahan,Pembangunan Perumahan,Wilaen,"RGCQ+JV, Humusu C, Kec. Insana Utara, Kabupaten Timor Tengah Utara, Nusa Tenggara Tim.","Kabupaten Timor Tengah Utara, Nusa Tenggara Tim.",NUSA TENGGARA TIMUR,,Indonesia,,,,-9.178.391,124.539.718,https://maps.google.com/?cid=0x0:0xb58d5320e49aaf95,
perumahan,Perhimpunan Pengembang Perumahan,Rumah Yan Laemfaun,"QJ52+FQ, Tainsala, Kec. Insana Tengah, Kabupaten Timor Tengah Utara, Nusa Tenggara Tim.","Kabupaten Timor Tengah Utara, Nusa Tenggara Tim.",NUSA TENGGARA TIMUR,,Indonesia,,,,-9.241.349,1.246.019.426,https://maps.google.com/?cid=0x0:0x43912acc804d8000,
perumahan,Komplek perumahan,Republik Smile Cost,"QHQR+5J, Humusu B, Kec. Insana Utara, Kabupaten Timor Tengah Utara, Nusa Tenggara Tim.","Kabupaten Timor Tengah Utara, Nusa Tenggara Tim.",NUSA TENGGARA TIMUR,,Indonesia,,,,-92.120.432,1.245.915.529,https://maps.google.com/?cid=0x0:0x8d876019b35edb0a,
perumahan,Komplek perumahan,BOENMES,"JHQM+98M, Fafinesu C, Kec. Insana Fafinesu, Kabupaten Timor Tengah Utara, Nusa Tenggara Tim.","Kabupaten Timor Tengah Utara, Nusa Tenggara Tim.",NUSA TENGGARA TIMUR,,Indonesia,,,,-93.615.452,1.245.832.928,https://maps.google.com/?cid=0x0:0x33f48f0e52703601,
perumahan,Perumahan,Sunbaki,"Jl. Amol - Manamas No.69, Sunsea, Kec. Naibenu, Kabupaten Timor Tengah Utara, Nusa Tenggara Tim.","Kabupaten Timor Tengah Utara, Nusa Tenggara Tim.",NUSA TENGGARA TIMUR,,Indonesia,,,,-93.221.085,12.448.315,https://maps.google.com/?cid=0x0:0xdf6a1ec486cea9,
perumahan,Pembangunan Perumahan,Wilifridus Nailai,"RH76+VCR, Oesoko, Kec. Insana Utara, Kabupaten Timor Tengah Utara, Nusa Tenggara Tim.","Kabupaten Timor Tengah Utara, Nusa Tenggara Tim.",NUSA TENGGARA TIMUR,,Indonesia,,,,-91.852.503,1.245.610.051,https://maps.google.com/?cid=0x0:0x76574dffa2dad1b8,
perumahan,Perhimpunan Pengembang Perumahan,Rumah Adat Naibesi,"JHW7+WM, Fafinesu B, Kec. Insana Fafinesu, Kabupaten Timor Tengah Utara, Nusa Tenggara Tim.","Kabupaten Timor Tengah Utara, Nusa Tenggara Tim.",NUSA TENGGARA TIMUR,,Indonesia,,,,-93.526.861,1.245.642.013,https://maps.google.com/?cid=0x0:0xb6689ad5781c0129,
perumahan,Pembangunan Perumahan,Tua Kaba,"PGQ2+7C, Manamas, Kec. Naibenu, Kabupaten Timor Tengah Utara, Nusa Tenggara Tim.","Kabupaten Timor Tengah Utara, Nusa Tenggara Tim.",NUSA TENGGARA TIMUR,,Indonesia,,,,-92.617.618,1.245.010.118,https://maps.google.com/?cid=0x0:0xaaa98baf77c82dfc,
perumahan,Pembangunan Perumahan,OEKOLO,"QHHM+576, Humusu B, Kec. Insana Utara, Kabupaten Timor Tengah Utara, Nusa Tenggara Tim.","Kabupaten Timor Tengah Utara, Nusa Tenggara Tim.",NUSA TENGGARA TIMUR,,Indonesia,,,,-92.220.877,124.583.135,https://maps.google.com/?cid=0x0:0xd061ee6d458354ca,
perumahan,Komplek perumahan,Rumah Gute,"PGM3+QV9, Manamas, Kec. Naibenu, Kabupaten Timor Tengah Utara, Nusa Tenggara Tim.","Kabupaten Timor Tengah Utara, Nusa Tenggara Tim.",NUSA TENGGARA TIMUR,,Indonesia,,,,-92.655.893,1.245.047.379,https://maps.google.com/?cid=0x0:0xd235b4de21ebae,
perumahan,perumahan,Kec. Noemuti Tim.,"Kabupaten Timor Tengah Utara, Nusa Tenggara Tim.","Kabupaten Timor Tengah Utara, Nusa Tenggara Tim.",NUSA TENGGARA TIMUR,,Indonesia,,,,-95.790.204,1.246.152.522,https://maps.google.com/?cid=0x0:0xb29860d26e200094,
perumahan,Pembangunan Perumahan,Noemuti,"GF9R+QJQ, Maubeli, Kec. Kota Kefamenanu, Kabupaten Timor Tengah Utara, Nusa Tenggara Tim.","Kabupaten Timor Tengah Utara, Nusa Tenggara Tim.",NUSA TENGGARA TIMUR,,Indonesia,,,,-94.814.441,1.244.920.086,https://maps.google.com/?cid=0x0:0x66b52a72957fbe76,
perumahan,Komplek perumahan,Noemuti oebeo,"GHXW+3VR, Oebeo, Kec. Insana Bar., Kabupaten Timor Tengah Utara, Nusa Tenggara Tim.","Kabupaten Timor Tengah Utara, Nusa Tenggara Tim.",NUSA TENGGARA TIMUR,,Indonesia,,,,-94.522.647,124.597.132,https://maps.google.com/?cid=0x0:0x564232de353426bd,
perumahan,Komplek perumahan,Rumah Ruddi BR,"CJFG+GX, Haekto, Kec. Noemuti Tim., Kabupaten Timor Tengah Utara, Nusa Tenggara Tim.","Kabupaten Timor Tengah Utara, Nusa Tenggara Tim.",NUSA TENGGARA TIMUR,,Indonesia,,,,-95.759.886,1.246.274.546,https://maps.google.com/?cid=0x0:0x45af1a9d2ced219c,
perumahan,Pembangunan Perumahan,Oeluan,"CGH7+QJ4, Oenak, Kec. Noemuti, Kabupaten Timor Tengah Utara, Nusa Tenggara Tim.","Kabupaten Timor Tengah Utara, Nusa Tenggara Tim.",NUSA TENGGARA TIMUR,,Indonesia,,,,-9.570.608,1.245.140.637,https://maps.google.com/?cid=0x0:0xdb555804993f0902,
perumahan,Komplek perumahan,Yohanes Ninu,"CJC7+M5R, Manikin, Kec. Noemuti Tim., Kabupaten Timor Tengah Utara, Nusa Tenggara Tim.","Kabupaten Timor Tengah Utara, Nusa Tenggara Tim.",NUSA TENGGARA TIMUR,,Indonesia,,,,-95.782.589,1.246.128.888,https://maps.google.com/?cid=0x0:0x885f62fb24b7d924,
perumahan,Pembangunan Perumahan,DK,"9HR7+8G2, Naob, Kec. Noemuti Tim., Kabupaten Timor Tengah Utara, Nusa Tenggara Tim.","Kabupaten Timor Tengah Utara, Nusa Tenggara Tim.",NUSA TENGGARA TIMUR,,Indonesia,,,,-96.092.298,1.245.637.627,https://maps.google.com/?cid=0x0:0xa48d1372f5a85a1d,
perumahan,Pembangunan Perumahan,Pemancar_Maubam_Noemuti Timur,"9HQJ+Q6J, Jalan Naob,Pemancar, Manikin, Kec. Noemuti Tim.","Kabupaten Timor Tengah Utara, Nusa Tenggara Tim.",NUSA TENGGARA TIMUR,,Indonesia,,,,-96.105.486,1.245.805.247,https://maps.google.com/?cid=0x0:0x9dc3a6911f6d4807,
perumahan,Komplek perumahan,Herimias Silab,"CJ95+7C, Manikin, Kec. Noemuti Tim., Kabupaten Timor Tengah Utara, Nusa Tenggara Tim.","Kabupaten Timor Tengah Utara, Nusa Tenggara Tim.",NUSA TENGGARA TIMUR,,Indonesia,,,,-95.817.886,1.246.085.402,https://maps.google.com/?cid=0x0:0x199ee158f5e528ea,
perumahan,Komplek perumahan,Rumah Bp Dominikus Insantuan,"CJFF+5WF, Jalan Manikin, Haekto, Kec. Noemuti Tim., Kabupaten Timor Tengah Utara, Nusa Tenggara Tim.","Kabupaten Timor Tengah Utara, Nusa Tenggara Tim.",NUSA TENGGARA TIMUR,,Indonesia,,,,-95.770.678,1.246.248.039,https://maps.google.com/?cid=0x0:0x83fd68119342da6a,
perumahan,Komplek perumahan,RUMAH DINO,"CGH7+QJ4, Oenak, Kec. Noemuti, Kabupaten Timor Tengah Utara, Nusa Tenggara Tim.","Kabupaten Timor Tengah Utara, Nusa Tenggara Tim.",NUSA TENGGARA TIMUR,,Indonesia,,,,-9.570.608,1.245.140.637,https://maps.google.com/?cid=0x0:0xf8e3b9431bb0cb22,
perumahan,Komplek perumahan,BERINGIN KUAKEN,"CHFF+83, Kuaken, Kec. Noemuti Tim., Kabupaten Timor Tengah Utara, Nusa Tenggara Tim.","Kabupaten Timor Tengah Utara, Nusa Tenggara Tim.",NUSA TENGGARA TIMUR,,Indonesia,,,,-9.576.702,1.245.726.714,https://maps.google.com/?cid=0x0:0x6e5ba0332c308fd5,
perumahan,Komplek perumahan,Rumah sodara JQ Loin,"CHH3+F9, Kuaken, Kec. Noemuti Tim., Kabupaten Timor Tengah Utara, Nusa Tenggara Tim.","Kabupaten Timor Tengah Utara, Nusa Tenggara Tim.",NUSA TENGGARA TIMUR,,Indonesia,,,,-95.712.723,124.553.429,https://maps.google.com/?cid=0x0:0x6b020fa10270f87a,
perumahan,Komplek perumahan,Tonce Ninu,"CJC7+M5R, Manikin, Kec. Noemuti Tim., Kabupaten Timor Tengah Utara, Nusa Tenggara Tim.","Kabupaten Timor Tengah Utara, Nusa Tenggara Tim.",NUSA TENGGARA TIMUR,,Indonesia,,,,-9.578.395,124.612.915,https://maps.google.com/?cid=0x0:0x5e1aeb5e967bd090,
perumahan,Komplek perumahan,Rony Lopis,"CJ66+P32, Haekto, Kec. Noemuti Tim., Kabupaten Timor Tengah Utara, Nusa Tenggara Tim.","Kabupaten Timor Tengah Utara, Nusa Tenggara Tim.",NUSA TENGGARA TIMUR,,Indonesia,,,,-95.882.468,1.246.101.305,https://maps.google.com/?cid=0x0:0x60764269e86289d8,
perumahan,Pembangunan Perumahan,Oepope,"9HPG+5MW, Naob, Kec. Noemuti Tim., Kabupaten Timor Tengah Utara, Nusa Tenggara Tim.","Kabupaten Timor Tengah Utara, Nusa Tenggara Tim.",NUSA TENGGARA TIMUR,,Indonesia,,,,-96.145.186,1.245.766.964,https://maps.google.com/?cid=0x0:0x6d21a7a494669e65,
perumahan,Komplek perumahan,Filiberta Sidjao Koa,"CJF8+46, Manikin, Kec. Noemuti Tim., Kabupaten Timor Tengah Utara, Nusa Tenggara Tim.","Kabupaten Timor Tengah Utara, Nusa Tenggara Tim.",NUSA TENGGARA TIMUR,,Indonesia,,,,-95.771.642,1.246.155.358,https://maps.google.com/?cid=0x0:0xe09e212b9c8cc90f,
perumahan,Komplek perumahan,Ruddi Bria,"CJFG+HXV, Haekto, Kec. Noemuti Tim., Kabupaten Timor Tengah Utara, Nusa Tenggara Tim.","Kabupaten Timor Tengah Utara, Nusa Tenggara Tim.",NUSA TENGGARA TIMUR,,Indonesia,,,,-95.760.236,1.246.274.249,https://maps.google.com/?cid=0x0:0x4ed11114c130f84b,
perumahan,Pembangunan Perumahan,Mada Take,"CGH7+QJ4, Oenak, Kec. Noemuti, Kabupaten Timor Tengah Utara, Nusa Tenggara Tim.","Kabupaten Timor Tengah Utara, Nusa Tenggara Tim.",NUSA TENGGARA TIMUR,,Indonesia,,,,-9.570.608,1.245.140.637,https://maps.google.com/?cid=0x0:0x951b62b572876374,
perumahan,Pembangunan Perumahan,Agustinus naben,"CGH7+QJ4, Oenak, Kec. Noemuti, Kabupaten Timor Tengah Utara, Nusa Tenggara Tim.","Kabupaten Timor Tengah Utara, Nusa Tenggara Tim.",NUSA TENGGARA TIMUR,,Indonesia,,,,-9.570.847,124.514.409,https://maps.google.com/?cid=0x0:0xf4c3e74ccb118d0c,
perumahan,Komplek perumahan,Marianus Silab,"CJC6+MV9, Manikin, Kec. Noemuti Tim., Kabupaten Timor Tengah Utara, Nusa Tenggara Tim.","Kabupaten Timor Tengah Utara, Nusa Tenggara Tim.",NUSA TENGGARA TIMUR,,Indonesia,,,,-95.783.362,1.246.122.346,https://maps.google.com/?cid=0x0:0x54792ac3acb93b66,
perumahan,perumahan,Miomaffo Tengah,"Kabupaten Timor Tengah Utara, Nusa Tenggara Tim.","Kabupaten Timor Tengah Utara, Nusa Tenggara Tim.",NUSA TENGGARA TIMUR,,Indonesia,,,,-95.391.251,1.244.149.628,https://maps.google.com/?cid=0x0:0xd89944a015e2b9bc,
perumahan,Komplek perumahan,Nian,"FFM2+GC4, Nian, Miomaffo Tengah, Kabupaten Timor Tengah Utara, Nusa Tenggara Tim.","Kabupaten Timor Tengah Utara, Nusa Tenggara Tim.",NUSA TENGGARA TIMUR,,Indonesia,,,,-95.162.425,1.244.510.741,https://maps.google.com/?cid=0x0:0xc10cde5adc4f01e4,
perumahan,Pembangunan Perumahan,Bijaepasu,"FCCG+6P7, Bijaepasu, Miomaffo Tengah, Kabupaten Timor Tengah Utara, Nusa Tenggara Tim.","Kabupaten Timor Tengah Utara, Nusa Tenggara Tim.",NUSA TENGGARA TIMUR,,Indonesia,,,,-95.294.632,1.244.268.096,https://maps.google.com/?cid=0x0:0x345a2046f55a171c,
perumahan,perumahan,Rumah Golfy kono,"GC4Q+3H, Nian, Miomaffo Tengah, Kabupaten Timor Tengah Utara, Nusa Tenggara Tim.","Kabupaten Timor Tengah Utara, Nusa Tenggara Tim.",NUSA TENGGARA TIMUR,,Indonesia,,,,-94.948.282,1.244.389.431,https://maps.google.com/?cid=0x0:0xe78f56eacf02c695,
perumahan,perumahan,Mena Orpua,"FCXC+Q53, Nian, Miomaffo Tengah, Kabupaten Timor Tengah Utara, Nusa Tenggara Tim.","Kabupaten Timor Tengah Utara, Nusa Tenggara Tim.",NUSA TENGGARA TIMUR,,Indonesia,,,,-95.006.105,1.244.204.365,https://maps.google.com/?cid=0x0:0x3b1a5fd8f38cbe5b,
perumahan,Komplek perumahan,Neofmuti,"F9F5+GP3, Noeltoko, Kec. Miomaffo Bar., Kabupaten Timor Tengah Utara, Nusa Tenggara Tim.","Kabupaten Timor Tengah Utara, Nusa Tenggara Tim.",NUSA TENGGARA TIMUR,,Indonesia,,,,-95.262.389,124.359.302,https://maps.google.com/?cid=0x0:0x892a46eda40533f8,
perumahan,Komplek perumahan,RIFA,"FFM2+4F3, Nian, Miomaffo Tengah, Kabupaten Timor Tengah Utara, Nusa Tenggara Tim.","Kabupaten Timor Tengah Utara, Nusa Tenggara Tim.",NUSA TENGGARA TIMUR,,Indonesia,,,,-95.172.295,1.244.511.573,https://maps.google.com/?cid=0x0:0x3dcd390ebe715c2,
perumahan,Komplek perumahan,Gudang Ridwan,"Nian, Miomaffo Tengah, Kabupaten Timor Tengah Utara, Nusa Tenggara Tim.","Kabupaten Timor Tengah Utara, Nusa Tenggara Tim.",NUSA TENGGARA TIMUR,,Indonesia,,,,-95.025.326,1.244.557.834,https://maps.google.com/?cid=0x0:0x5f5d2f39b3f96182,
perumahan,perumahan,Cabang oeolo,"FFV2+473, Nian, Miomaffo Tengah, Kabupaten Timor Tengah Utara, Nusa Tenggara Tim.","Kabupaten Timor Tengah Utara, Nusa Tenggara Tim.",NUSA TENGGARA TIMUR,,Indonesia,,,,-9.507.249,1.244.506.768,https://maps.google.com/?cid=0x0:0x998f0226e334fa59,
perumahan,Komplek perumahan,Kios Wilda,"FCQX+82V, Nian, Miomaffo Tengah, Kabupaten Timor Tengah Utara, Nusa Tenggara Tim.","Kabupaten Timor Tengah Utara, Nusa Tenggara Tim.",NUSA TENGGARA TIMUR,,Indonesia,,,,-95.116.383,1.244.475.522,https://maps.google.com/?cid=0x0:0x7782d5fa7710cc7d,
perumahan,Komplek perumahan,Rumah Sius Nabu,"GC4Q+3H, Nian, Miomaffo Tengah, Kabupaten Timor Tengah Utara, Nusa Tenggara Tim.","Kabupaten Timor Tengah Utara, Nusa Tenggara Tim.",NUSA TENGGARA TIMUR,,Indonesia,,,,-94.948.562,1.244.389.911,https://maps.google.com/?cid=0x0:0x80773cda7e52793e,
perumahan,Komplek perumahan,Rumah Yohanes Loin,"FCCV+X83, Nian, Miomaffo Tengah, Kabupaten Timor Tengah Utara, Nusa Tenggara Tim.","Kabupaten Timor Tengah Utara, Nusa Tenggara Tim.",NUSA TENGGARA TIMUR,,Indonesia,,,,-95.276.058,1.244.432.957,https://maps.google.com/?cid=0x0:0xed6cbcad1e92a34a,
perumahan,Komplek perumahan,Sirilus Kune,"FFM2+247, Nian, Miomaffo Tengah, Kabupaten Timor Tengah Utara, Nusa Tenggara Tim.","Kabupaten Timor Tengah Utara, Nusa Tenggara Tim.",NUSA TENGGARA TIMUR,,Indonesia,,,,-95.174.676,1.244.503.026,https://maps.google.com/?cid=0x0:0x5f7a1a60a841beda,
perumahan,Pembangunan Perumahan,Perumahan Sasi Permai,"FFWP+GJJ, Sasi, Kec. Kota Kefamenanu, Kabupaten Timor Tengah Utara, Nusa Tenggara Tim.","Kabupaten Timor Tengah Utara, Nusa Tenggara Tim.",NUSA TENGGARA TIMUR,,Indonesia,81298678478,,,-95.036.688,1.244.865.251,https://maps.google.com/?cid=0x0:0x780eb6c2719f7370,
perumahan,perumahan,Melyyy House,"FC53+5PR, Tuabatan, Miomaffo Tengah, Kabupaten Timor Tengah Utara, Nusa Tenggara Tim.","Kabupaten Timor Tengah Utara, Nusa Tenggara Tim.",NUSA TENGGARA TIMUR,,Indonesia,,,,-9.542.873,1.244.039.283,https://maps.google.com/?cid=0x0:0xfe8f75c493a25f1f,
perumahan,perumahan,Irenius Elu,"FCCC+FRJ, Bijaepasu, Miomaffo Tengah, Kabupaten Timor Tengah Utara, Nusa Tenggara Tim.","Kabupaten Timor Tengah Utara, Nusa Tenggara Tim.",NUSA TENGGARA TIMUR,,Indonesia,82235551773,,,-95.290.293,1.244.207.155,https://maps.google.com/?cid=0x0:0x7cc1d2dad0441201,
perumahan,Perumahan,Selmy's house,"FC53+5PR, Tuabatan, Miomaffo Tengah, Kabupaten Timor Tengah Utara, Nusa Tenggara Tim.","Kabupaten Timor Tengah Utara, Nusa Tenggara Tim.",NUSA TENGGARA TIMUR,,Indonesia,,,,-9.541.778,124.404.718,https://maps.google.com/?cid=0x0:0x89e8185264b6541c,
perumahan,Perguruan Tinggi,Melkianus A. Usat T. Eba,"FCPX+2RQ, Nian, Miomaffo Tengah, Kabupaten Timor Tengah Utara, Nusa Tenggara Tim.","Kabupaten Timor Tengah Utara, Nusa Tenggara Tim.",NUSA TENGGARA TIMUR,,Indonesia,82146470506,,,-95.149.038,1.244.496.048,https://maps.google.com/?cid=0x0:0xbc73aa9824e90069,
perumahan,Komplek perumahan,Biinmaffo Residence Kefamenanu,"GGP8+MVH, Tubuhue, Kec. Kota Kefamenanu, Kabupaten Timor Tengah Utara, Nusa Tenggara Tim.","Kabupaten Timor Tengah Utara, Nusa Tenggara Tim.",NUSA TENGGARA TIMUR,,Indonesia,82144789744,,,-94.633.129,1.245.172.305,https://maps.google.com/?cid=0x0:0x31a47e0667d0a3f9,
perumahan,Pembangunan Perumahan,Yoris Nono home,"FFM2+85C, Keniti, RT.001/RW.001, Nian, Miomaffo Tengah, Kabupaten Timor Tengah Utara","Kabupaten Timor Tengah Utara, Nusa Tenggara Tim.",NUSA TENGGARA TIMUR,,Indonesia,,,,-95.166.914,1.244.503.767,https://maps.google.com/?cid=0x0:0xaa49e9d3cb74312,
perumahan,perumahan,Sherly Ocky,"FC33+X77, Tuabatan, Miomaffo Tengah, Kabupaten Timor Tengah Utara, Nusa Tenggara Tim.","Kabupaten Timor Tengah Utara, Nusa Tenggara Tim.",NUSA TENGGARA TIMUR,,Indonesia,,,,-95.450.855,1.244.031.833,https://maps.google.com/?cid=0x0:0xdec3a4cc38a52b0,
perumahan,perumahan,Kios roinaldi,"FFV3+8H, Nian, Miomaffo Tengah, Kabupaten Timor Tengah Utara, Nusa Tenggara Tim.","Kabupaten Timor Tengah Utara, Nusa Tenggara Tim.",NUSA TENGGARA TIMUR,,Indonesia,,,,-9.505.894,124.454.351,https://maps.google.com/?cid=0x0:0x29f0537b4430b770,
perumahan,,Rumah VaJol,"FFVP+R3, Sasi, Kec. Kota Kefamenanu, Kabupaten Timor Tengah Utara, Nusa Tenggara Tim.","Kabupaten Timor Tengah Utara, Nusa Tenggara Tim.",NUSA TENGGARA TIMUR,,Indonesia,,,,-9.505.425,1.244.851.566,https://maps.google.com/?cid=0x0:0x56a09757b78bd23d,
perumahan,perumahan,Kec. Musi,"Kabupaten Timor Tengah Utara, Nusa Tenggara Tim.","Kabupaten Timor Tengah Utara, Nusa Tenggara Tim.",NUSA TENGGARA TIMUR,,Indonesia,,,,-94.807.879,1.243.724.649,https://maps.google.com/?cid=0x0:0xbdc24697aed8b89,
perumahan,Komplek perumahan,legi,"GC92+QQ, Oelneke, Kec. Musi, Kabupaten Timor Tengah Utara, Nusa Tenggara Tim.","Kabupaten Timor Tengah Utara, Nusa Tenggara Tim.",NUSA TENGGARA TIMUR,,Indonesia,,,,-9.480.662,1.244.019.521,https://maps.google.com/?cid=0x0:0xe33f7ba93e2c6814,
perumahan,Perhimpunan Pengembang Perumahan,Rumah Joe,"Jln.Laka-Anunut, Unnamed Road, Oetulu, Kec. Musi, Kabupaten Timor Tengah Utara, Nusa Tenggara Tim.","Kabupaten Timor Tengah Utara, Nusa Tenggara Tim.",NUSA TENGGARA TIMUR,,Indonesia,82145185490,,,-9.501.534,124.371.268,https://maps.google.com/?cid=0x0:0x6b6bd448b1ef912,
perumahan,Komplek perumahan,Kuntu ajii,"G99C+RH, Batnes, Kec. Musi, Kabupaten Timor Tengah Utara, Nusa Tenggara Tim.","Kabupaten Timor Tengah Utara, Nusa Tenggara Tim.",NUSA TENGGARA TIMUR,,Indonesia,,,,-9.480.424,1.243.714.555,https://maps.google.com/?cid=0x0:0x21e01d5938be0393,
perumahan,Komplek perumahan,Barnes kecamatan musi Timur Tengah utara,"G9CC+9MV, Batnes, Kec. Musi, Kabupaten Timor Tengah Utara, Nusa Tenggara Tim.","Kabupaten Timor Tengah Utara, Nusa Tenggara Tim.",NUSA TENGGARA TIMUR,,Indonesia,,,,-94.790.247,1.243.716.774,https://maps.google.com/?cid=0x0:0x5de44a7b08a98228,
perumahan,Perhimpunan Pengembang Perumahan,Rumah Bapa Ande Elu,"GCF5+9C3, RT.004/RW.OO2, Kuanek, Kec. Musi, Kabupaten Timor Tengah Utara, Nusa Tenggara Tim.","Kabupaten Timor Tengah Utara, Nusa Tenggara Tim.",NUSA TENGGARA TIMUR,,Indonesia,,,,-94.766.067,1.244.085.507,https://maps.google.com/?cid=0x0:0x5f37d0f5cfcf731a,
perumahan,Komplek perumahan,Vhyrus,"Haumeni 'ana, G975+RV7, Bikomi Nilulat, Oetulu, Kec. Musi, Kabupaten Timor Tengah Utara, Nusa Tenggara Tim.","Kabupaten Timor Tengah Utara, Nusa Tenggara Tim.",NUSA TENGGARA TIMUR,,Indonesia,,,,-948.607,124.359.003,https://maps.google.com/?cid=0x0:0xb75c6ac17fd89465,
perumahan,Komplek perumahan,Rumah Ade,"G9CC+2PJ, Batnes, Kec. Musi, Kabupaten Timor Tengah Utara, Nusa Tenggara Tim.","Kabupaten Timor Tengah Utara, Nusa Tenggara Tim.",NUSA TENGGARA TIMUR,,Indonesia,,,,-94.799.212,1.243.717.656,https://maps.google.com/?cid=0x0:0x587d03abafd461fd,
perumahan,Komplek perumahan,Rumah efen kono,"G99C+RH, Batnes, Kec. Musi, Kabupaten Timor Tengah Utara, Nusa Tenggara Tim.","Kabupaten Timor Tengah Utara, Nusa Tenggara Tim.",NUSA TENGGARA TIMUR,,Indonesia,,,,-94.802.811,1.243.721.479,https://maps.google.com/?cid=0x0:0xcd44106573f9ad47,
perumahan,Perhimpunan Pengembang Perumahan,Nikolas baki feka,"GC75+HJ7, Oelneke, Kec. Musi, Kabupaten Timor Tengah Utara, Nusa Tenggara Tim.","Kabupaten Timor Tengah Utara, Nusa Tenggara Tim.",NUSA TENGGARA TIMUR,,Indonesia,,,,-94.860.888,1.244.090.397,https://maps.google.com/?cid=0x0:0xf61a32cecec5e94,
perumahan,Komplek perumahan,Bisafe,"G9RW+22, Bisafe, Kec. Musi, Kabupaten Timor Tengah Utara, Nusa Tenggara Tim.","Kabupaten Timor Tengah Utara, Nusa Tenggara Tim.",NUSA TENGGARA TIMUR,,Indonesia,,,,-9.459.885,124.395.012,https://maps.google.com/?cid=0x0:0x5dc41fb31ffb65ea,
perumahan,Komplek perumahan,Fatu Raymundus,"Ainan, Kec. Musi, Kabupaten Timor Tengah Utara, Nusa Tenggara Tim.","Kabupaten Timor Tengah Utara, Nusa Tenggara Tim.",NUSA TENGGARA TIMUR,,Indonesia,,,,-94.838.952,1.244.220.952,https://maps.google.com/?cid=0x0:0x5d1de78f66cf736e,
perumahan,Pembangunan Perumahan,Maxi kefi home,"GC96+V3P, Oelneke, Kec. Musi, Kabupaten Timor Tengah Utara, Nusa Tenggara Tim.","Kabupaten Timor Tengah Utara, Nusa Tenggara Tim.",NUSA TENGGARA TIMUR,,Indonesia,81238986339,,,-94.810.999,124.410.846,https://maps.google.com/?cid=0x0:0x8ce205bd034174ed,
perumahan,Komplek perumahan,Oelneke,"G99X+GJ, Oelneke, Kec. Musi, Kabupaten Timor Tengah Utara, Nusa Tenggara Tim.","Kabupaten Timor Tengah Utara, Nusa Tenggara Tim.",NUSA TENGGARA TIMUR,,Indonesia,,,,-94.811.866,1.243.990.009,https://maps.google.com/?cid=0x0:0x791f9637414f0a96,
perumahan,Komplek perumahan,Rumah Gregorius soni,"GCC5+RC7, Oelneke, Kec. Musi, Kabupaten Timor Tengah Utara, Nusa Tenggara Tim.","Kabupaten Timor Tengah Utara, Nusa Tenggara Tim.",NUSA TENGGARA TIMUR,,Indonesia,,,,-94.779.635,1.244.085.313,https://maps.google.com/?cid=0x0:0x67eb3e9253e011a9,
perumahan,Komplek perumahan,Rumah Tarsisius Lake,"H97R+37X, Inbate, Kec. Bikomi Nilulat, Kabupaten Timor Tengah Utara, Nusa Tenggara Tim.","Kabupaten Timor Tengah Utara, Nusa Tenggara Tim.",NUSA TENGGARA TIMUR,,Indonesia,,,,-94.372.527,1.243.907.418,https://maps.google.com/?cid=0x0:0x17cba90702204517,
perumahan,Pembangunan Perumahan,ruma mrfin,"G9CC+J24, Batnes, Kec. Musi, Kabupaten Timor Tengah Utara, Nusa Tenggara Tim.","Kabupaten Timor Tengah Utara, Nusa Tenggara Tim.",NUSA TENGGARA TIMUR,,Indonesia,,,,-94.782.949,1.243.697.609,https://maps.google.com/?cid=0x0:0x7c84ad5ef980078c,
perumahan,perumahan,Mygel Elu,"G9HJ+995, Oeolo, Kec. Musi, Kabupaten Timor Tengah Utara, Nusa Tenggara Tim.","Kabupaten Timor Tengah Utara, Nusa Tenggara Tim.",NUSA TENGGARA TIMUR,,Indonesia,,,,-94.716.035,1.243.809.905,https://maps.google.com/?cid=0x0:0xfe10c3c0b218f6ca,
perumahan,Komplek perumahan,Dida Bifel,"G99X+GJ, Oelneke, Kec. Musi, Kabupaten Timor Tengah Utara, Nusa Tenggara Tim.","Kabupaten Timor Tengah Utara, Nusa Tenggara Tim.",NUSA TENGGARA TIMUR,,Indonesia,,,,-94.812.099,1.243.990.352,https://maps.google.com/?cid=0x0:0xf6915cae23444b2a,
perumahan,Tujuan Wisata,Nu nu'a,"GC96+V3P, Oelneke, Kec. Musi, Kabupaten Timor Tengah Utara, Nusa Tenggara Tim.","Kabupaten Timor Tengah Utara, Nusa Tenggara Tim.",NUSA TENGGARA TIMUR,,Indonesia,,,,-94.802.921,1.244.102.154,https://maps.google.com/?cid=0x0:0x72964f478056b526,
perumahan,Komplek perumahan,Perumahan Mahoni Residence,"JR96+53H, Mahoni, RT.1/RW.6, Beji, Kecamatan Beji, Kota Depok, Jawa Barat 16421","Mahoni, RT.1/RW.6, Beji, Kecamatan Beji, Kota Depok",NUSA TENGGARA TIMUR,16421.0,Indonesia,,,,-63.820.612,1.068.102.362,https://maps.google.com/?cid=0x0:0x4d723859c5c6d6a8,
perumahan,Otoritas Perumahan,Perum Cluster Rajeg City Mansion (RCM),"Rajeg Mulya, Kec. Rajeg, Kabupaten Tangerang, Banten","Kabupaten Tangerang, Banten",NUSA TENGGARA TIMUR,,Indonesia,,,,-61.114.733,106.539.408,https://maps.google.com/?cid=0x0:0x6f1d4ed9b22ba5d8,
perumahan,perumahan,Nusa Tenggara Tim.,,Nusa Tenggara Tim.,NUSA TENGGARA TIMUR,,Indonesia,,,,-86.573.819,1.210.793.705,https://maps.google.com/?cid=0x0:0x1030bfbcaf71ae0,
perumahan,Komplek perumahan,Samhous,"jalan nis noni, RT./rw:12/RW.06, Haulasi, Kec. Kota Kefamenanu, Kabupaten Timor Tengah Utara, Nusa Tenggara Tim. 85661","RT./rw:12/RW.06, Haulasi, Kec. Kota Kefamenanu, Kabupaten Timor Tengah Utara",NUSA TENGGARA TIMUR,85661.0,Indonesia,81353015166,,,-95.570.716,1.243.809.905,https://maps.google.com/?cid=0x0:0x410583f08617c865,
perumahan,Pembangunan Perumahan,Perumahan Pondok Indah Matani,"Penfui Tim, Kec. Kupang Tengah, Kabupaten Kupang, Nusa Tenggara Tim. 85000","Kec. Kupang Tengah, Kabupaten Kupang",NUSA TENGGARA TIMUR,85000.0,Indonesia,82145034333,,,-101.591.497,1.236.881.077,https://maps.google.com/?cid=0x0:0xb9cedc3f8f7c758d,
perumahan,perumahan,Kec. Mutis,"Kabupaten Timor Tengah Utara, Nusa Tenggara Tim.","Kabupaten Timor Tengah Utara, Nusa Tenggara Tim.",NUSA TENGGARA TIMUR,,Indonesia,,,,-94.263.193,12.421.095,https://maps.google.com/?cid=0x0:0xdbe40d04f6a6b25f,
perumahan,Pembangunan Perumahan,Kasam,"H5RQ+XC, Naekake A, Kec. Mutis, Kabupaten Timor Tengah Utara, Nusa Tenggara Tim.","Kabupaten Timor Tengah Utara, Nusa Tenggara Tim.",NUSA TENGGARA TIMUR,,Indonesia,,,,-94.075.865,1.241.886.193,https://maps.google.com/?cid=0x0:0x2ec0f003ff19de09,
perumahan,Komplek perumahan,Aloysius Konanin,"H6G4+HC, Naekake A, Kec. Mutis, Kabupaten Timor Tengah Utara, Nusa Tenggara Tim.","Kabupaten Timor Tengah Utara, Nusa Tenggara Tim.",NUSA TENGGARA TIMUR,,Indonesia,,,,-94.230.045,124.206.522,https://maps.google.com/?cid=0x0:0xe4ed92c642fa0a6c,
perumahan,Komplek perumahan,Leob,"001, RT./RW:001, Dusun 1, Naekake B","Kabupaten Timor Tengah Utara, Nusa Tenggara Tim.",NUSA TENGGARA TIMUR,,Indonesia,,,,-94.286.501,1.241.976.103,https://maps.google.com/?cid=0x0:0x5bafd9153a6e9961,
perumahan,Tempat acara,Naekake A,"H6M3+V7X, Naekake A, Kec. Mutis, Kabupaten Timor Tengah Utara, Nusa Tenggara Tim.","Kabupaten Timor Tengah Utara, Nusa Tenggara Tim.",NUSA TENGGARA TIMUR,,Indonesia,,,,-94.152.626,1.242.032.483,https://maps.google.com/?cid=0x0:0x63d38cc3150e7746,
perumahan,Perhimpunan Pengembang Perumahan,PHILIPUS TEFA,"H6H6+H27, Naekake A, Kec. Mutis, Kabupaten Timor Tengah Utara, Nusa Tenggara Tim.","Kabupaten Timor Tengah Utara, Nusa Tenggara Tim.",NUSA TENGGARA TIMUR,,Indonesia,,,,-94.219.011,124.209.973,https://maps.google.com/?cid=0x0:0x675a7fd8a1fcf689,
perumahan,Perhimpunan Pengembang Perumahan,Rumah  Lope,"H6HW+XCM, Tasinifu, Kec. Mutis, Kabupaten Timor Tengah Utara, Nusa Tenggara Tim.","Kabupaten Timor Tengah Utara, Nusa Tenggara Tim.",NUSA TENGGARA TIMUR,,Indonesia,,,,-94.195.789,1.242.457.302,https://maps.google.com/?cid=0x0:0x454f7459a6d9c764,
perumahan,Pembangunan Perumahan,Mandus Aby,"H6M3+V7X, Naekake A, Kec. Mutis, Kabupaten Timor Tengah Utara, Nusa Tenggara Tim.","Kabupaten Timor Tengah Utara, Nusa Tenggara Tim.",NUSA TENGGARA TIMUR,,Indonesia,,,,-94.152.626,1.242.032.483,https://maps.google.com/?cid=0x0:0x517e036f2e3f27a9,
perumahan,Komplek perumahan,SERVASIUS TANINAS,"H6J4+PQ2, Oenaek - Saenam, Naekake A, Kec. Mutis, Kabupaten Timor Tengah Utara, Nusa Tenggara Tim.","Kabupaten Timor Tengah Utara, Nusa Tenggara Tim.",NUSA TENGGARA TIMUR,,Indonesia,,,,-9.418.237,1.242.068.888,https://maps.google.com/?cid=0x0:0x2760cfc38bc3f68,
perumahan,Pembangunan Perumahan,Oela Meko,"J654+89Q, Naekake A, Kec. Mutis, Kabupaten Timor Tengah Utara, Nusa Tenggara Tim.","Kabupaten Timor Tengah Utara, Nusa Tenggara Tim.",NUSA TENGGARA TIMUR,,Indonesia,,,,-9.391.667,1.242.059.839,https://maps.google.com/?cid=0x0:0xf8e899989b599509,
perumahan,Pembangunan Perumahan,Mika kebo,"H6G9+2Q, Naekake A, Kec. Mutis, Kabupaten Timor Tengah Utara, Nusa Tenggara Tim.","Kabupaten Timor Tengah Utara, Nusa Tenggara Tim.",NUSA TENGGARA TIMUR,,Indonesia,,,,-94.248.825,1.242.188.944,https://maps.google.com/?cid=0x0:0x493df8a2d002ecc7,
perumahan,Komplek perumahan,Rumah mama berta,"H5FX+HW, Naekake A, Kec. Mutis, Kabupaten Timor Tengah Utara, Nusa Tenggara Tim.","Kabupaten Timor Tengah Utara, Nusa Tenggara Tim.",NUSA TENGGARA TIMUR,,Indonesia,,,,-94.263.735,1.241.996.418,https://maps.google.com/?cid=0x0:0x1a7214c0cbc26e4c,
perumahan,Komplek perumahan,Stella Kehi Home,"H5CX+6CJ, Naekake B, Kec. Mutis, Kabupaten Timor Tengah Utara, Nusa Tenggara Tim.","Kabupaten Timor Tengah Utara, Nusa Tenggara Tim.",NUSA TENGGARA TIMUR,,Indonesia,,,,-94.294.111,1.241.985.247,https://maps.google.com/?cid=0x0:0x9f8634d23bdce79b,
perumahan,Komplek perumahan,Kanisius Meol,"H7F3+W34, Tasinifu, Kec. Mutis, Kabupaten Timor Tengah Utara, Nusa Tenggara Tim.","Kabupaten Timor Tengah Utara, Nusa Tenggara Tim.",NUSA TENGGARA TIMUR,,Indonesia,,,,-94.252.457,1.242.527.137,https://maps.google.com/?cid=0x0:0x56dc1fec996d47cc,
perumahan,Perhimpunan Pengembang Perumahan,Yohanes elu,"H6H4+8V6, Naekake A, Kec. Mutis, Kabupaten Timor Tengah Utara, Nusa Tenggara Tim.","Kabupaten Timor Tengah Utara, Nusa Tenggara Tim.",NUSA TENGGARA TIMUR,,Indonesia,,,,-9.422.085,1.242.062.991,https://maps.google.com/?cid=0x0:0xd9682cc96f5f4581,
perumahan,Perhimpunan Pengembang Perumahan,Alfonsus Elu,"H6M3+V7X, Naekake A, Kec. Mutis, Kabupaten Timor Tengah Utara, Nusa Tenggara Tim.","Kabupaten Timor Tengah Utara, Nusa Tenggara Tim.",NUSA TENGGARA TIMUR,,Indonesia,,,,-94.152.626,1.242.032.483,https://maps.google.com/?cid=0x0:0x5a49cf0adbfce11c,
perumahan,Perhimpunan Pengembang Perumahan,Vero Elu Home,"H6H4+8V6, Naekake A, Kec. Mutis, Kabupaten Timor Tengah Utara, Nusa Tenggara Tim.","Kabupaten Timor Tengah Utara, Nusa Tenggara Tim.",NUSA TENGGARA TIMUR,,Indonesia,,,,-9.422.085,124.206.299,https://maps.google.com/?cid=0x0:0x696d56dcc2b79e01,
perumahan,Komplek perumahan,Nilulat,"F8WH+H86, Nilulat, Kec. Bikomi Nilulat, Kabupaten Timor Tengah Utara, Nusa Tenggara Tim.","Kabupaten Timor Tengah Utara, Nusa Tenggara Tim.",NUSA TENGGARA TIMUR,,Indonesia,,,,-95.035.753,1.243.282.603,https://maps.google.com/?cid=0x0:0x555ffbcfd34f9b82,
perumahan,Komplek perumahan,Rumah Ryan,"F7H9+6XG, Fatuneno, Kec. Miomaffo Bar., Kabupaten Timor Tengah Utara, Nusa Tenggara Tim.","Kabupaten Timor Tengah Utara, Nusa Tenggara Tim.",NUSA TENGGARA TIMUR,,Indonesia,,,,-95.219.389,1.242.699.432,https://maps.google.com/?cid=0x0:0xe88e92c09afacc16,
perumahan,Kantor Pemerintah,Pos manusasi,"F7VQ+HP, Manusasi, Kec. Miomaffo Bar., Kabupaten Timor Tengah Utara, Nusa Tenggara Tim.","Kabupaten Timor Tengah Utara, Nusa Tenggara Tim.",NUSA TENGGARA TIMUR,,Indonesia,,,,-95.059.048,1.242.893.339,https://maps.google.com/?cid=0x0:0x38807b65c67cdf1e,
perumahan,Komplek perumahan,DUSUN KUAFENU,"G55X+CJW, JL. JEFRY NOKAS, Nuapin, Kec. Fatumnasi, Kabupaten Timor Tengah Selatan, Nusa Tenggara Tim.","Kabupaten Timor Tengah Selatan, Nusa Tenggara Tim.",NUSA TENGGARA TIMUR,,Indonesia,82339461190,,,-94.913.891,1.241.990.641,https://maps.google.com/?cid=0x0:0xd3475abcaca99b63,
perumahan,Komplek perumahan,Muty elu,"H6G4+HC, Naekake A, Kec. Mutis, Kabupaten Timor Tengah Utara, Nusa Tenggara Tim.","Kabupaten Timor Tengah Utara, Nusa Tenggara Tim.",NUSA TENGGARA TIMUR,,Indonesia,,,,-94.235.307,124.206.116,https://maps.google.com/?cid=0x0:0x6b8e47085db1cf43,
perumahan,perumahan,Kec. Bikomi Sel.,"Kabupaten Timor Tengah Utara, Nusa Tenggara Tim.","Kabupaten Timor Tengah Utara, Nusa Tenggara Tim.",NUSA TENGGARA TIMUR,,Indonesia,,,,-95.149.684,1.245.058.205,https://maps.google.com/?cid=0x0:0xc6ae961bfa7aad65,
perumahan,Pembangunan Perumahan,Perumahan Sasi Permai,"FFWP+GJJ, Sasi, Kec. Kota Kefamenanu, Kabupaten Timor Tengah Utara, Nusa Tenggara Tim.","Kabupaten Timor Tengah Utara, Nusa Tenggara Tim.",NUSA TENGGARA TIMUR,,Indonesia,81298678478,,,-95.036.688,1.244.865.251,https://maps.google.com/?cid=0x0:0x780eb6c2719f7370,
perumahan,Komplek perumahan,Biinmaffo Residence Kefamenanu,"GGP8+MVH, Tubuhue, Kec. Kota Kefamenanu, Kabupaten Timor Tengah Utara, Nusa Tenggara Tim.","Kabupaten Timor Tengah Utara, Nusa Tenggara Tim.",NUSA TENGGARA TIMUR,,Indonesia,82144789744,,,-94.633.129,1.245.172.305,https://maps.google.com/?cid=0x0:0x31a47e0667d0a3f9,
perumahan,Pembangunan Perumahan,Beba,"GF3J+G22, Oelami, Kec. Kota Kefamenanu, Kabupaten Timor Tengah Utara, Nusa Tenggara Tim.","Kabupaten Timor Tengah Utara, Nusa Tenggara Tim.",NUSA TENGGARA TIMUR,,Indonesia,,,,-9.496.127,124.481.372,https://maps.google.com/?cid=0x0:0xb1839c5c539a3579,
perumahan,Gereja Katolik,KOTE,"CFHJ+G8F, Noemuti, Kec. Noemuti, Kabupaten Timor Tengah Utara, Nusa Tenggara Tim.","Kabupaten Timor Tengah Utara, Nusa Tenggara Tim.",NUSA TENGGARA TIMUR,,Indonesia,,,,-95.711.906,1.244.807.896,https://maps.google.com/?cid=0x0:0x521cb19ae26cfd08,
perumahan,Pembangunan Perumahan,hoen,"HCCP+XHW, Indonesia, RT.//rw/RW.11/02, Oenenu Utara, Kec. Bikomi Tengah, Kabupaten Timor Tengah Utara, Nusa Tenggara Tim.","Kabupaten Timor Tengah Utara, Nusa Tenggara Tim.",NUSA TENGGARA TIMUR,,Indonesia,,,,-94.275.101,1.244.364.621,https://maps.google.com/?cid=0x0:0x60f1137b23a024fa,
perumahan,Restoran,"Rumah Makan Jawa di Timor Dua Putri""""","Jl. Eltari No.km 9, Naiola, Kec. Kota Kefamenanu, Kabupaten Timor Tengah Utara, Nusa Tenggara Tim.","Kabupaten Timor Tengah Utara, Nusa Tenggara Tim.",NUSA TENGGARA TIMUR,,Indonesia,,,,-951.597,1.244.919.382,https://maps.google.com/?cid=0x0:0xa45b8bb9bae96338,
perumahan,Sekolah,Km 7,"GF2Q+997, Sasi, Kec. Kota Kefamenanu, Kabupaten Timor Tengah Utara, Nusa Tenggara Tim.","Kabupaten Timor Tengah Utara, Nusa Tenggara Tim.",NUSA TENGGARA TIMUR,,Indonesia,,,,-94.992.556,124.488.328,https://maps.google.com/?cid=0x0:0xd779f155fe75b21e,
perumahan,perumahan,Kefamenanu,"Kefamenanu Tengah, Kec. Kota Kefamenanu, Kabupaten Timor Tengah Utara, Nusa Tenggara Tim.","Kabupaten Timor Tengah Utara, Nusa Tenggara Tim.",NUSA TENGGARA TIMUR,,Indonesia,,,,-94.442.228,1.244.780.429,https://maps.google.com/?cid=0x0:0x267f8255a94e0e7c,
perumahan,Restoran,Rumah makan SMS,"No.km. 5, Jl. Eltari No.88, Kefamenanu Tengah, Kota Kefamenanu, North Central Timor Regency, East Nusa Tenggara 85613","Jl. Eltari No.88, Kefamenanu Tengah, Kota Kefamenanu, North Central Timor Regency",NUSA TENGGARA TIMUR,85613.0,Indonesia,,,,-94.854.465,124.489.488,https://maps.google.com/?cid=0x0:0x3d9f4489720f4d47,
perumahan,Komplek perumahan,Yayasan Pijar Timur Indonesia Km.10 Oelnitep,"GGWJ+6P3, Jl. Kefamenanu - Maubesi, Subun, Kec. Insana Bar., Kabupaten Timor Tengah Utara, Nusa Tenggara Tim.","Kabupaten Timor Tengah Utara, Nusa Tenggara Tim.",NUSA TENGGARA TIMUR,,Indonesia,81138000421,,,-9.454.489,1.245.317.922,https://maps.google.com/?cid=0x0:0x10cdf5db0d0a5a96,
perumahan,Restoran,Rumah Makan Roda Baru,"Jl. Eltari, Kefamenanu Sel., Kec. Kota Kefamenanu, Kabupaten Timor Tengah Utara, Nusa Tenggara Tim.","Kabupaten Timor Tengah Utara, Nusa Tenggara Tim.",NUSA TENGGARA TIMUR,,Indonesia,81340368232,,,-94.691.066,1.244.813.203,https://maps.google.com/?cid=0x0:0xc728be3ab8254490,
perumahan,perumahan,Sasi,"Kec. Kota Kefamenanu, Kabupaten Timor Tengah Utara, Nusa Tenggara Tim.","Kabupaten Timor Tengah Utara, Nusa Tenggara Tim.",NUSA TENGGARA TIMUR,,Indonesia,,,,-95.054.372,1.245.029.819,https://maps.google.com/?cid=0x0:0x807253ececf791e5,
perumahan,Pusat Perbelanjaan,Jabalmart Swalayan Kefamenanu,"Kefamenanu Tengah, Kec. Kota Kefamenanu, Kabupaten Timor Tengah Utara, Nusa Tenggara Tim.","Kabupaten Timor Tengah Utara, Nusa Tenggara Tim.",NUSA TENGGARA TIMUR,,Indonesia,82237696671,,,-9.446.718,1.244.789.765,https://maps.google.com/?cid=0x0:0x9d3a6fd6174e0a9d,
perumahan,Bakso,Bakso 99 Mas Jejen,"GFQH+XX7, Kefamenanu Sel., Kec. Kota Kefamenanu, Kabupaten Timor Tengah Utara, Nusa Tenggara Tim.","Kabupaten Timor Tengah Utara, Nusa Tenggara Tim.",NUSA TENGGARA TIMUR,,Indonesia,,,,-94.600.943,1.244.799.101,https://maps.google.com/?cid=0x0:0xdd5a273f8d0fa807,
perumahan,perumahan,Kabupaten Timor Tengah Utara,Nusa Tenggara Tim.,"Kabupaten Timor Tengah Utara, Nusa Tenggara Tim.",NUSA TENGGARA TIMUR,,Indonesia,,,,-94.522.647,124.597.132,https://maps.google.com/?cid=0x0:0xc746b65a44d702a,
perumahan,Restoran,RM.Coto Makassar,"Kefamenanu Sel., Kec. Kota Kefamenanu, Kabupaten Timor Tengah Utara, Nusa Tenggara Tim.","Kabupaten Timor Tengah Utara, Nusa Tenggara Tim.",NUSA TENGGARA TIMUR,,Indonesia,8236217104,,,-94.705.467,1.244.816.941,https://maps.google.com/?cid=0x0:0x3e9df03cd39a7f26,
perumahan,Kantor Pemerintah,Kantor Bupati Timor Tengah Utara,"GFVG+62G, JL. Basuki Rahmat, Benpasi, Kefamenau, Kabupaten Timor Tengah Utara, Nusa Tenggara Tim.","Kabupaten Timor Tengah Utara, Nusa Tenggara Tim.",NUSA TENGGARA TIMUR,,Indonesia,38831003,,,-94.569.473,1.244.750.909,https://maps.google.com/?cid=0x0:0x8c1dacbde6882142,
perumahan,perumahan,Maubesi,"Kec. Insana Tengah, Kabupaten Timor Tengah Utara, Nusa Tenggara Tim.","Kabupaten Timor Tengah Utara, Nusa Tenggara Tim.",NUSA TENGGARA TIMUR,,Indonesia,,,,-94.127.504,1.245.694.514,https://maps.google.com/?cid=0x0:0x900c254de7a6da77,
perumahan,Komplek perumahan,Rumah idho Manek,"Naiola, Kec. Bikomi Sel., Kabupaten Timor Tengah Utara, Nusa Tenggara Tim.","Kabupaten Timor Tengah Utara, Nusa Tenggara Tim.",NUSA TENGGARA TIMUR,,Indonesia,,,,-95.149.413,1.245.039.254,https://maps.google.com/?cid=0x0:0x9e33c82de119c343,
perumahan,Apartemen sewa liburan,Cevric kost,"FGP4+39F, Naiola, Kec. Bikomi Sel., Kabupaten Timor Tengah Utara, Nusa Tenggara Tim.","Kabupaten Timor Tengah Utara, Nusa Tenggara Tim.",NUSA TENGGARA TIMUR,,Indonesia,85239293326,,,-95.148.013,1.245.059.254,https://maps.google.com/?cid=0x0:0x95aecb4ffe901643,
perumahan,Perhimpunan Pengembang Perumahan,KOS LIANI,"FGM4+JP3, Naiola, Kec. Bikomi Sel., Kabupaten Timor Tengah Utara, Nusa Tenggara Tim.","Kabupaten Timor Tengah Utara, Nusa Tenggara Tim.",NUSA TENGGARA TIMUR,,Indonesia,,,,-95.160.088,1.245.068.075,https://maps.google.com/?cid=0x0:0x23e69d7e900a4bed,
perumahan,Hostel,Kost Restu Timor 1,"FGP4+F9M, Jl. Cendana, Naiola, Kec. Bikomi Sel., Kabupaten Timor Tengah Utara, Nusa Tenggara Tim.","Kabupaten Timor Tengah Utara, Nusa Tenggara Tim.",NUSA TENGGARA TIMUR,,Indonesia,,,,-951.378,1.245.059.253,https://maps.google.com/?cid=0x0:0x24077f32db652526,
perumahan,perumahan,Kos flamboyan,"FGM4+MJC, Naiola, Kec. Bikomi Sel., Kabupaten Timor Tengah Utara, Nusa Tenggara Tim.","Kabupaten Timor Tengah Utara, Nusa Tenggara Tim.",NUSA TENGGARA TIMUR,,Indonesia,,,,-9.515.513,124.506.964,https://maps.google.com/?cid=0x0:0xed981f7a42c90819,
perumahan,Perhimpunan Pengembang Perumahan,Kos Marungga,"FGP2+5Q4, Naiola, Kec. Bikomi Sel., Kabupaten Timor Tengah Utara, Nusa Tenggara Tim.","Kabupaten Timor Tengah Utara, Nusa Tenggara Tim.",NUSA TENGGARA TIMUR,,Indonesia,,,,-95.146.275,1.245.021.159,https://maps.google.com/?cid=0x0:0xf74693228fb916f4,
perumahan,Pembangunan Perumahan,Kost boy,"FFMW+PJ, Naiola, Kec. Bikomi Sel., Kabupaten Timor Tengah Utara, Nusa Tenggara Tim.","Kabupaten Timor Tengah Utara, Nusa Tenggara Tim.",NUSA TENGGARA TIMUR,,Indonesia,,,,-95.156.553,1.244.965.174,https://maps.google.com/?cid=0x0:0xdf6f636d6e6f1f87,
perumahan,Komplek perumahan,Elang Cafe,"FFJP+MV9, Jln Nefo Fatubena, Oetalus, Kabupaten Timor Tengah Utara","Kabupaten Timor Tengah Utara, Nusa Tenggara Tim.",NUSA TENGGARA TIMUR,,Indonesia,,,,-95.183.333,1.244.872.222,https://maps.google.com/?cid=0x0:0xfa2e1b879c203f44,
perumahan,Komplek perumahan,Lokasi Tanah,"FFPQ+F6V, Naiola, Kec. Bikomi Sel., Kabupaten Timor Tengah Utara, Nusa Tenggara Tim.","Kabupaten Timor Tengah Utara, Nusa Tenggara Tim.",NUSA TENGGARA TIMUR,,Indonesia,,,,-95.137.257,1.244.880.165,https://maps.google.com/?cid=0x0:0x87435bf2e4d28723,
perumahan,Perhimpunan Pengembang Perumahan,RT,"FFMW+M3C, Naiola, Kec. Bikomi Sel., Kabupaten Timor Tengah Utara, Nusa Tenggara Tim.","Kabupaten Timor Tengah Utara, Nusa Tenggara Tim.",NUSA TENGGARA TIMUR,,Indonesia,,,,-95.158.103,1.244.951.729,https://maps.google.com/?cid=0x0:0x81690ece78af2fce,
perumahan,perumahan,Kec. Bikomi Sel.,"Kabupaten Timor Tengah Utara, Nusa Tenggara Tim.","Kabupaten Timor Tengah Utara, Nusa Tenggara Tim.",NUSA TENGGARA TIMUR,,Indonesia,,,,-95.149.684,1.245.058.205,https://maps.google.com/?cid=0x0:0xc6ae961bfa7aad65,
perumahan,Komplek perumahan,Rumah idho Manek,"Naiola, Kec. Bikomi Sel., Kabupaten Timor Tengah Utara, Nusa Tenggara Tim.","Kabupaten Timor Tengah Utara, Nusa Tenggara Tim.",NUSA TENGGARA TIMUR,,Indonesia,,,,-95.149.413,1.245.039.254,https://maps.google.com/?cid=0x0:0x9e33c82de119c343,
perumahan,Apartemen sewa liburan,Cevric kost,"FGP4+39F, Naiola, Kec. Bikomi Sel., Kabupaten Timor Tengah Utara, Nusa Tenggara Tim.","Kabupaten Timor Tengah Utara, Nusa Tenggara Tim.",NUSA TENGGARA TIMUR,,Indonesia,85239293326,,,-95.148.013,1.245.059.254,https://maps.google.com/?cid=0x0:0x95aecb4ffe901643,
perumahan,Hostel,Kost Restu Timor 1,"FGP4+F9M, Jl. Cendana, Naiola, Kec. Bikomi Sel., Kabupaten Timor Tengah Utara, Nusa Tenggara Tim.","Kabupaten Timor Tengah Utara, Nusa Tenggara Tim.",NUSA TENGGARA TIMUR,,Indonesia,,,,-951.378,1.245.059.253,https://maps.google.com/?cid=0x0:0x24077f32db652526,
perumahan,Pembangunan Perumahan,Kost boy,"FFMW+PJ, Naiola, Kec. Bikomi Sel., Kabupaten Timor Tengah Utara, Nusa Tenggara Tim.","Kabupaten Timor Tengah Utara, Nusa Tenggara Tim.",NUSA TENGGARA TIMUR,,Indonesia,,,,-95.156.553,1.244.965.174,https://maps.google.com/?cid=0x0:0xdf6f636d6e6f1f87,
perumahan,Perhimpunan Pengembang Perumahan,KOS LIANI,"FGM4+JP3, Naiola, Kec. Bikomi Sel., Kabupaten Timor Tengah Utara, Nusa Tenggara Tim.","Kabupaten Timor Tengah Utara, Nusa Tenggara Tim.",NUSA TENGGARA TIMUR,,Indonesia,,,,-95.160.088,1.245.068.075,https://maps.google.com/?cid=0x0:0x23e69d7e900a4bed,
perumahan,perumahan,Kos flamboyan,"FGM4+MJC, Naiola, Kec. Bikomi Sel., Kabupaten Timor Tengah Utara, Nusa Tenggara Tim.","Kabupaten Timor Tengah Utara, Nusa Tenggara Tim.",NUSA TENGGARA TIMUR,,Indonesia,,,,-9.515.513,124.506.964,https://maps.google.com/?cid=0x0:0xed981f7a42c90819,
perumahan,Komplek perumahan,Alicya Kost,"Jln.kilo Blok C BTN no.9, Naiola, Kec. Bikomi Sel.","Kabupaten Timor Tengah Utara, Nusa Tenggara Tim.",NUSA TENGGARA TIMUR,,Indonesia,,,,-95.297.732,1.244.974.405,https://maps.google.com/?cid=0x0:0x401ad45d77e07492,
perumahan,Pembangunan Perumahan,Kos lite,"FFMW+M3F, Naiola, Kec. Bikomi Sel., Kabupaten Timor Tengah Utara, Nusa Tenggara Tim.","Kabupaten Timor Tengah Utara, Nusa Tenggara Tim.",NUSA TENGGARA TIMUR,,Indonesia,,,,-95.159.766,1.244.949.782,https://maps.google.com/?cid=0x0:0x6a83e223e3a6a7b,
perumahan,Perhimpunan Pengembang Perumahan,Kos Marungga,"FGP2+5Q4, Naiola, Kec. Bikomi Sel., Kabupaten Timor Tengah Utara, Nusa Tenggara Tim.","Kabupaten Timor Tengah Utara, Nusa Tenggara Tim.",NUSA TENGGARA TIMUR,,Indonesia,,,,-95.146.275,1.245.021.159,https://maps.google.com/?cid=0x0:0xf74693228fb916f4,
perumahan,Perhimpunan Pengembang Perumahan,RT,"FFMW+M3C, Naiola, Kec. Bikomi Sel., Kabupaten Timor Tengah Utara, Nusa Tenggara Tim.","Kabupaten Timor Tengah Utara, Nusa Tenggara Tim.",NUSA TENGGARA TIMUR,,Indonesia,,,,-95.158.103,1.244.951.729,https://maps.google.com/?cid=0x0:0x81690ece78af2fce,
perumahan,Komplek perumahan,Kost MEYSI,"FFCW+3XW, Naiola, Kec. Bikomi Sel., Kabupaten Timor Tengah Utara, Nusa Tenggara Tim.","Kabupaten Timor Tengah Utara, Nusa Tenggara Tim.",NUSA TENGGARA TIMUR,,Indonesia,,,,-95.297.732,1.244.974.405,https://maps.google.com/?cid=0x0:0x3a9a61a62d8f6767,
perumahan,Pembangunan Perumahan,Jojo kost,"FGJ2+F72, Naiola, Kec. Bikomi Sel., Kabupaten Timor Tengah Utara, Nusa Tenggara Tim.","Kabupaten Timor Tengah Utara, Nusa Tenggara Tim.",NUSA TENGGARA TIMUR,,Indonesia,,,,-95.188.577,1.245.006.407,https://maps.google.com/?cid=0x0:0x41bf3e380d683fc,
perumahan,Pembangunan Perumahan,Kos glorya,"Perumahan BTN Blok F 09, Naiola, Kec. Bikomi Sel., Kabupaten Timor Tengah Utara, Nusa Tenggara Tim.","Kabupaten Timor Tengah Utara, Nusa Tenggara Tim.",NUSA TENGGARA TIMUR,,Indonesia,,,,-95.153.331,1.245.052.093,https://maps.google.com/?cid=0x0:0xb0e4d7da5f6083f,
perumahan,perumahan,Kos Widya Putri,"FGP3+8R4, Naiola, Kec. Bikomi Sel., Kabupaten Timor Tengah Utara, Nusa Tenggara Tim.","Kabupaten Timor Tengah Utara, Nusa Tenggara Tim.",NUSA TENGGARA TIMUR,,Indonesia,,,,-95.142.446,1.245.045.674,https://maps.google.com/?cid=0x0:0x96e7319022ba3234,
perumahan,Pembangunan Perumahan,Perumahan Sasi Permai,"FFWP+GJJ, Sasi, Kec. Kota Kefamenanu, Kabupaten Timor Tengah Utara, Nusa Tenggara Tim.","Kabupaten Timor Tengah Utara, Nusa Tenggara Tim.",NUSA TENGGARA TIMUR,,Indonesia,81298678478,,,-95.036.688,1.244.865.251,https://maps.google.com/?cid=0x0:0x780eb6c2719f7370,
perumahan,Komplek perumahan,Kos Pelita,"Perumahan BTN Blok No.F 23, Naiola, Kec. Bikomi Sel., Kabupaten Timor Tengah Utara, Nusa Tenggara Tim.","Kabupaten Timor Tengah Utara, Nusa Tenggara Tim.",NUSA TENGGARA TIMUR,,Indonesia,,,,-9.514.878,124.504.075,https://maps.google.com/?cid=0x0:0x74f9513bc9725d78,
perumahan,perumahan,Jeliana Oetpah,"FF5X+QXW, Naiola, Kec. Bikomi Sel., Kabupaten Timor Tengah Utara, Nusa Tenggara Tim.","Kabupaten Timor Tengah Utara, Nusa Tenggara Tim.",NUSA TENGGARA TIMUR,,Indonesia,,,,-95.405.796,124.499.913,https://maps.google.com/?cid=0x0:0xe65ed596da59a031,
perumahan,,Rumah VaJol,"FFVP+R3, Sasi, Kec. Kota Kefamenanu, Kabupaten Timor Tengah Utara, Nusa Tenggara Tim.","Kabupaten Timor Tengah Utara, Nusa Tenggara Tim.",NUSA TENGGARA TIMUR,,Indonesia,,,,-9.505.425,1.244.851.566,https://maps.google.com/?cid=0x0:0x56a09757b78bd23d,
perumahan,Pembangunan Perumahan,Kost Maluku,"Perumahan BTN Blok No.F 23, Naiola, Kec. Bikomi Sel., Kabupaten Timor Tengah Utara, Nusa Tenggara Tim.","Kabupaten Timor Tengah Utara, Nusa Tenggara Tim.",NUSA TENGGARA TIMUR,,Indonesia,,,,-95.163.261,124.503.691,https://maps.google.com/?cid=0x0:0xbebc8ee1a99ae5bb,
perumahan,Komplek perumahan,Rumah Anabella Oki,"GF67+PM9, Oelami, Kec. Bikomi Sel., Kabupaten Timor Tengah Utara, Nusa Tenggara Tim.","Kabupaten Timor Tengah Utara, Nusa Tenggara Tim.",NUSA TENGGARA TIMUR,,Indonesia,,,,-94.882.068,124.464.231,https://maps.google.com/?cid=0x0:0x4e1e03f097805e7a,
perumahan,perumahan,BTN blok H kos flamboyan,"FGM4+MJC, Naiola, Kec. Bikomi Sel., Kabupaten Timor Tengah Utara, Nusa Tenggara Tim.","Kabupaten Timor Tengah Utara, Nusa Tenggara Tim.",NUSA TENGGARA TIMUR,,Indonesia,,,,-95.158.125,1.245.065.156,https://maps.google.com/?cid=0x0:0xcc2c89b5e74d01d9,
perumahan,Komplek perumahan,Rumah Thomas Naben,"GF46+XQ8, Oelami, Kec. Bikomi Sel., Kabupaten Timor Tengah Utara, Nusa Tenggara Tim.","Kabupaten Timor Tengah Utara, Nusa Tenggara Tim.",NUSA TENGGARA TIMUR,,Indonesia,,,,-94.914.888,1.244.619.283,https://maps.google.com/?cid=0x0:0x509a825e3855c548,
perumahan,perumahan,Kec. Bikomi Tengah,"Kabupaten Timor Tengah Utara, Nusa Tenggara Tim.","Kabupaten Timor Tengah Utara, Nusa Tenggara Tim.",NUSA TENGGARA TIMUR,,Indonesia,,,,-94.310.087,1.244.478.811,https://maps.google.com/?cid=0x0:0x73aedd42a0e2dfd,
perumahan,Komplek perumahan,Napan Bikomi Utara,"J9PV+6QC, Napan, Kec. Kota Kefamenanu, Kabupaten Timor Tengah Utara, Nusa Tenggara Tim.","Kabupaten Timor Tengah Utara, Nusa Tenggara Tim.",NUSA TENGGARA TIMUR,,Indonesia,,,,-93.644.279,1.243.943.761,https://maps.google.com/?cid=0x0:0x649d08a9f7c7c226,
perumahan,Komplek perumahan,Biinmaffo Residence Kefamenanu,"GGP8+MVH, Tubuhue, Kec. Kota Kefamenanu, Kabupaten Timor Tengah Utara, Nusa Tenggara Tim.","Kabupaten Timor Tengah Utara, Nusa Tenggara Tim.",NUSA TENGGARA TIMUR,,Indonesia,82144789744,,,-94.633.129,1.245.172.305,https://maps.google.com/?cid=0x0:0x31a47e0667d0a3f9,
perumahan,Pembangunan Perumahan,hoen,"HCCP+XHW, Indonesia, RT.//rw/RW.11/02, Oenenu Utara, Kec. Bikomi Tengah, Kabupaten Timor Tengah Utara, Nusa Tenggara Tim.","Kabupaten Timor Tengah Utara, Nusa Tenggara Tim.",NUSA TENGGARA TIMUR,,Indonesia,,,,-94.275.101,1.244.364.621,https://maps.google.com/?cid=0x0:0x60f1137b23a024fa,
perumahan,Pembangunan Perumahan,Perumahan Sasi Permai,"FFWP+GJJ, Sasi, Kec. Kota Kefamenanu, Kabupaten Timor Tengah Utara, Nusa Tenggara Tim.","Kabupaten Timor Tengah Utara, Nusa Tenggara Tim.",NUSA TENGGARA TIMUR,,Indonesia,81298678478,,,-95.036.688,1.244.865.251,https://maps.google.com/?cid=0x0:0x780eb6c2719f7370,
perumahan,Pembangunan Perumahan,Beba,"GF3J+G22, Oelami, Kec. Kota Kefamenanu, Kabupaten Timor Tengah Utara, Nusa Tenggara Tim.","Kabupaten Timor Tengah Utara, Nusa Tenggara Tim.",NUSA TENGGARA TIMUR,,Indonesia,,,,-9.496.127,124.481.372,https://maps.google.com/?cid=0x0:0xb1839c5c539a3579,
perumahan,perumahan,Kefamenanu,"Kefamenanu Tengah, Kec. Kota Kefamenanu, Kabupaten Timor Tengah Utara, Nusa Tenggara Tim.","Kabupaten Timor Tengah Utara, Nusa Tenggara Tim.",NUSA TENGGARA TIMUR,,Indonesia,,,,-94.442.228,1.244.780.429,https://maps.google.com/?cid=0x0:0x267f8255a94e0e7c,
perumahan,Pusat Perbelanjaan,Jabalmart Swalayan Kefamenanu,"Kefamenanu Tengah, Kec. Kota Kefamenanu, Kabupaten Timor Tengah Utara, Nusa Tenggara Tim.","Kabupaten Timor Tengah Utara, Nusa Tenggara Tim.",NUSA TENGGARA TIMUR,,Indonesia,82237696671,,,-9.446.718,1.244.789.765,https://maps.google.com/?cid=0x0:0x9d3a6fd6174e0a9d,
perumahan,Restoran,Rumah Makan Roda Baru,"Jl. Eltari, Kefamenanu Sel., Kec. Kota Kefamenanu, Kabupaten Timor Tengah Utara, Nusa Tenggara Tim.","Kabupaten Timor Tengah Utara, Nusa Tenggara Tim.",NUSA TENGGARA TIMUR,,Indonesia,81340368232,,,-94.691.066,1.244.813.203,https://maps.google.com/?cid=0x0:0xc728be3ab8254490,
perumahan,Restoran,Nusantara Rumah Makan,"HF4G+4QJ, JL Eltari, Kefamenanu Tengah, Kec. Kota Kefamenanu, Kabupaten Timor Tengah Utara, Nusa Tenggara Tim.","Kabupaten Timor Tengah Utara, Nusa Tenggara Tim.",NUSA TENGGARA TIMUR,,Indonesia,38831245,,,-94.446.592,1.244.769.001,https://maps.google.com/?cid=0x0:0xd05e0e2da12706bb,
perumahan,Perumahan,ARSK OENENU,"HC8W+WJ7, Oenenu, Kec. Bikomi Tengah, Kabupaten Timor Tengah Utara, Nusa Tenggara Tim.","Kabupaten Timor Tengah Utara, Nusa Tenggara Tim.",NUSA TENGGARA TIMUR,,Indonesia,,,,-94.327.106,1.244.465.529,https://maps.google.com/?cid=0x0:0x2f8fb6da85c1d7a3,
perumahan,Pembangunan Perumahan,Oenenu Selatan,"GCVV+Q6, Takin, Kec. Bikomi Tengah, Kabupaten Timor Tengah Utara, Nusa Tenggara Tim.","Kabupaten Timor Tengah Utara, Nusa Tenggara Tim.",NUSA TENGGARA TIMUR,,Indonesia,,,,-94.523.155,1.244.448.547,https://maps.google.com/?cid=0x0:0xd2d22d65551ec9ce,
perumahan,Perhimpunan Pengembang Perumahan,Rumah Bapa Anton Metan,"HCQ4+MHC, Buk, Kec. Bikomi Tengah, Kabupaten Timor Tengah Utara, Nusa Tenggara Tim.","Kabupaten Timor Tengah Utara, Nusa Tenggara Tim.",NUSA TENGGARA TIMUR,,Indonesia,,,,-94.109.183,1.244.075.747,https://maps.google.com/?cid=0x0:0xb14d76b09fd7dd84,
perumahan,Komplek perumahan,Takin,"HF43+W5F, Oenenu Sel., Kec. Bikomi Tengah, Kabupaten Timor Tengah Utara, Nusa Tenggara Tim.","Kabupaten Timor Tengah Utara, Nusa Tenggara Tim.",NUSA TENGGARA TIMUR,,Indonesia,,,,-94.426.778,124.452.934,https://maps.google.com/?cid=0x0:0x89ea79699aae0f3c,
perumahan,Komplek perumahan,ano,"HC9V+7X, Oenenu Utara, Kec. Bikomi Tengah, Kabupaten Timor Tengah Utara, Nusa Tenggara Tim.","Kabupaten Timor Tengah Utara, Nusa Tenggara Tim.",NUSA TENGGARA TIMUR,,Indonesia,,,,-94.317.974,1.244.448.785,https://maps.google.com/?cid=0x0:0x809c7469194d779b,
perumahan,Komplek perumahan,Rumah safitri,"HC8W+QJ5, Oenenu, Kec. Bikomi Tengah, Kabupaten Timor Tengah Utara, Nusa Tenggara Tim.","Kabupaten Timor Tengah Utara, Nusa Tenggara Tim.",NUSA TENGGARA TIMUR,,Indonesia,,,,-94.331.016,1.244.466.126,https://maps.google.com/?cid=0x0:0x3691f76b25bc2ac3,
perumahan,Komplek perumahan,Rumah Oskar,"GFF3+Q4, Oelami, Kec. Bikomi Sel., Kabupaten Timor Tengah Utara, Nusa Tenggara Tim.","Kabupaten Timor Tengah Utara, Nusa Tenggara Tim.",NUSA TENGGARA TIMUR,,Indonesia,,,,-94.755.542,124.452.806,https://maps.google.com/?cid=0x0:0x48d9a23107947620,
perumahan,Pembangunan Perumahan,Lopingkot,"HF94+289, Oenenu, Kec. Bikomi Tengah, Kabupaten Timor Tengah Utara, Nusa Tenggara Tim.","Kabupaten Timor Tengah Utara, Nusa Tenggara Tim.",NUSA TENGGARA TIMUR,,Indonesia,,,,-94.324.678,1.244.558.689,https://maps.google.com/?cid=0x0:0x19facd8fb168d430,
perumahan,Komplek perumahan,Rumah Bapa Yosef Nino,"HCR2+3P, Buk, Kec. Bikomi Tengah, Kabupaten Timor Tengah Utara, Nusa Tenggara Tim.","Kabupaten Timor Tengah Utara, Nusa Tenggara Tim.",NUSA TENGGARA TIMUR,,Indonesia,,,,-94.098.659,1.244.018.545,https://maps.google.com/?cid=0x0:0x809da991b8609958,
perumahan,Komplek perumahan,Oenenu,"HC8W+H9C, Oenenu, Kec. Bikomi Tengah, Kabupaten Timor Tengah Utara, Nusa Tenggara Tim.","Kabupaten Timor Tengah Utara, Nusa Tenggara Tim.",NUSA TENGGARA TIMUR,,Indonesia,,,,-94.336.369,1.244.458.717,https://maps.google.com/?cid=0x0:0xcce43b01472a8073,
perumahan,Perumahan,Rumah Andrean,"HC9W+W73, Oenenu Utara, Kec. Bikomi Tengah, Kabupaten Timor Tengah Utara, Nusa Tenggara Tim.","Kabupaten Timor Tengah Utara, Nusa Tenggara Tim.",NUSA TENGGARA TIMUR,,Indonesia,,,,-94.302.459,1.244.456.799,https://maps.google.com/?cid=0x0:0xfff68566664279cb,
perumahan,Komplek perumahan,Rumah Feren,"RT.010/RW.001, Oenenu, Kec. Bikomi Tengah, Kabupaten Timor Tengah Utara, Nusa Tenggara Tim.","Kabupaten Timor Tengah Utara, Nusa Tenggara Tim.",NUSA TENGGARA TIMUR,,Indonesia,,,,-94.395.093,1.244.454.026,https://maps.google.com/?cid=0x0:0x3a99c565f87a85e5,
perumahan,Perhimpunan Pengembang Perumahan,Buk,"HCQ4+MHC, Buk, Kec. Bikomi Tengah, Kabupaten Timor Tengah Utara, Nusa Tenggara Tim.","Kabupaten Timor Tengah Utara, Nusa Tenggara Tim.",NUSA TENGGARA TIMUR,,Indonesia,,,,-94.107.997,1.244.063.905,https://maps.google.com/?cid=0x0:0xc3ee686a880ba3bf,
perumahan,perumahan,Rmh Ang,"HCFH+RRR, Oenenu Utara, Kec. Bikomi Tengah, Kabupaten Timor Tengah Utara, Nusa Tenggara Tim.","Kabupaten Timor Tengah Utara, Nusa Tenggara Tim.",NUSA TENGGARA TIMUR,,Indonesia,,,,-94.253.848,1.244.295.185,https://maps.google.com/?cid=0x0:0xc354b199e53bee97,
perumahan,Komplek perumahan,Mikhael,"HC5M+RQ, Nimasi, Kec. Bikomi Tengah, Kabupaten Timor Tengah Utara, Nusa Tenggara Tim.","Kabupaten Timor Tengah Utara, Nusa Tenggara Tim.",NUSA TENGGARA TIMUR,,Indonesia,,,,-94.405.203,1.244.343.929,https://maps.google.com/?cid=0x0:0x79a8b484a0081e65,
perumahan,Komplek perumahan,Rumah Glen Manek,"HFGH+JM9, Oesena, Kec. Miomaffo Tim., Kabupaten Timor Tengah Utara, Nusa Tenggara Tim.","Kabupaten Timor Tengah Utara, Nusa Tenggara Tim.",NUSA TENGGARA TIMUR,,Indonesia,,,,-94.234.904,1.244.792.337,https://maps.google.com/?cid=0x0:0x6f20ea5271a7ce4c,
perumahan,Komplek perumahan,Dius kubu boki,"HCCP+XHW, Oenenu Utara, Kec. Bikomi Tengah, Kabupaten Timor Tengah Utara, Nusa Tenggara Tim.","Kabupaten Timor Tengah Utara, Nusa Tenggara Tim.",NUSA TENGGARA TIMUR,,Indonesia,,,,-94.275.101,1.244.364.621,https://maps.google.com/?cid=0x0:0x4b84fc07923ee8cd,
perumahan,Perumahan,AnLil,"HCCP+XHW, Oenenu Utara, Kec. Bikomi Tengah, Kabupaten Timor Tengah Utara, Nusa Tenggara Tim.","Kabupaten Timor Tengah Utara, Nusa Tenggara Tim.",NUSA TENGGARA TIMUR,,Indonesia,,,,-94.275.101,1.244.364.621,https://maps.google.com/?cid=0x0:0x69ec5233699249da,
perumahan,Komplek perumahan,Rumah Bpk Dami Siki,"HFCH+8XG, Kefamenanu Utara, Kec. Kota Kefamenanu, Kabupaten Timor Tengah Utara, Nusa Tenggara Tim.","Kabupaten Timor Tengah Utara, Nusa Tenggara Tim.",NUSA TENGGARA TIMUR,,Indonesia,,,,-9.429.292,1.244.796.212,https://maps.google.com/?cid=0x0:0x11b119657078b09e,
perumahan,perumahan,Kec. Bikomi Nilulat,"Kabupaten Timor Tengah Utara, Nusa Tenggara Tim.","Kabupaten Timor Tengah Utara, Nusa Tenggara Tim.",NUSA TENGGARA TIMUR,,Indonesia,,,,-94.404.803,1.243.776.274,https://maps.google.com/?cid=0x0:0x162456f0cbb11df1,
perumahan,perumahan,Nilulat,"Kec. Bikomi Nilulat, Kabupaten Timor Tengah Utara, Nusa Tenggara Tim.","Kabupaten Timor Tengah Utara, Nusa Tenggara Tim.",NUSA TENGGARA TIMUR,,Indonesia,,,,-95.035.753,1.243.282.603,https://maps.google.com/?cid=0x0:0x725ad4b7131ba094,
perumahan,Komplek perumahan,Napan Bikomi Utara,"J9PV+6QC, Napan, Kec. Kota Kefamenanu, Kabupaten Timor Tengah Utara, Nusa Tenggara Tim.","Kabupaten Timor Tengah Utara, Nusa Tenggara Tim.",NUSA TENGGARA TIMUR,,Indonesia,,,,-93.644.279,1.243.943.761,https://maps.google.com/?cid=0x0:0x649d08a9f7c7c226,
perumahan,Komplek perumahan,Perumahan Biinmafo,"GGH9+VGJ, Jl. Kefamenanu - Maubesi, Tubuhue, Kec. Kota Kefamenanu, Kabupaten Timor Tengah Utara, Nusa Tenggara Tim.","Kabupaten Timor Tengah Utara, Nusa Tenggara Tim.",NUSA TENGGARA TIMUR,,Indonesia,,,,-94.696.106,1.245.190.272,https://maps.google.com/?cid=0x0:0x415f9414d082c55,
perumahan,Komplek perumahan,Biinmaffo Residence Kefamenanu,"GGP8+MVH, Tubuhue, Kec. Kota Kefamenanu, Kabupaten Timor Tengah Utara, Nusa Tenggara Tim.","Kabupaten Timor Tengah Utara, Nusa Tenggara Tim.",NUSA TENGGARA TIMUR,,Indonesia,82144789744,,,-94.633.129,1.245.172.305,https://maps.google.com/?cid=0x0:0x31a47e0667d0a3f9,
perumahan,perumahan,Kec. Bikomi Sel.,"Kabupaten Timor Tengah Utara, Nusa Tenggara Tim.","Kabupaten Timor Tengah Utara, Nusa Tenggara Tim.",NUSA TENGGARA TIMUR,,Indonesia,,,,-95.149.684,1.245.058.205,https://maps.google.com/?cid=0x0:0xc6ae961bfa7aad65,
perumahan,Pembangunan Perumahan,Perumahan Sasi Permai,"FFWP+GJJ, Sasi, Kec. Kota Kefamenanu, Kabupaten Timor Tengah Utara, Nusa Tenggara Tim.","Kabupaten Timor Tengah Utara, Nusa Tenggara Tim.",NUSA TENGGARA TIMUR,,Indonesia,81298678478,,,-95.036.688,1.244.865.251,https://maps.google.com/?cid=0x0:0x780eb6c2719f7370,
perumahan,Pembangunan Perumahan,hoen,"HCCP+XHW, Indonesia, RT.//rw/RW.11/02, Oenenu Utara, Kec. Bikomi Tengah, Kabupaten Timor Tengah Utara, Nusa Tenggara Tim.","Kabupaten Timor Tengah Utara, Nusa Tenggara Tim.",NUSA TENGGARA TIMUR,,Indonesia,,,,-94.275.101,1.244.364.621,https://maps.google.com/?cid=0x0:0x60f1137b23a024fa,
perumahan,Pembangunan Perumahan,Home AK,"F8X7+J77, Tubu, Kec. Bikomi Nilulat, Kabupaten Timor Tengah Utara, Nusa Tenggara Tim.","Kabupaten Timor Tengah Utara, Nusa Tenggara Tim.",NUSA TENGGARA TIMUR,,Indonesia,,,,-9.500.924,1.243.129.386,https://maps.google.com/?cid=0x0:0x899d49a2a19e109e,
perumahan,Komplek perumahan,Nilulat,"F8WH+H86, Nilulat, Kec. Bikomi Nilulat, Kabupaten Timor Tengah Utara, Nusa Tenggara Tim.","Kabupaten Timor Tengah Utara, Nusa Tenggara Tim.",NUSA TENGGARA TIMUR,,Indonesia,,,,-95.035.753,1.243.282.603,https://maps.google.com/?cid=0x0:0x555ffbcfd34f9b82,
perumahan,Komplek perumahan,Alfa dan omega,"F8W9+MG, Tubu, Kec. Bikomi Nilulat, Kabupaten Timor Tengah Utara, Nusa Tenggara Tim.","Kabupaten Timor Tengah Utara, Nusa Tenggara Tim.",NUSA TENGGARA TIMUR,,Indonesia,,,,-95.033.712,1.243.188.187,https://maps.google.com/?cid=0x0:0x4efc996cd3ae17cb,
perumahan,Inspektur Tempat Tinggal,Rumah tangga,"G9P8+VH5, Sunkaen, Kec. Bikomi Nilulat, Kabupaten Timor Tengah Utara, Nusa Tenggara Tim.","Kabupaten Timor Tengah Utara, Nusa Tenggara Tim.",NUSA TENGGARA TIMUR,,Indonesia,,,,-94.637.498,1.243.670.382,https://maps.google.com/?cid=0x0:0x4550d6a8d24a6bc8,
perumahan,Pembangunan Perumahan,Van,"G86M+5G, Haumeni 'ana, Kec. Bikomi Nilulat, Kabupaten Timor Tengah Utara, Nusa Tenggara Tim.","Kabupaten Timor Tengah Utara, Nusa Tenggara Tim.",NUSA TENGGARA TIMUR,,Indonesia,,,,-94.895.884,1.243.337.986,https://maps.google.com/?cid=0x0:0x298916f71ae0d14f,
perumahan,Pembangunan Perumahan,Rumah tlyovita,"F8X6+QM7, Tubu, Kec. Bikomi Nilulat, Kabupaten Timor Tengah Utara, Nusa Tenggara Tim.","Kabupaten Timor Tengah Utara, Nusa Tenggara Tim.",NUSA TENGGARA TIMUR,,Indonesia,,,,-95.005.998,1.243.116.633,https://maps.google.com/?cid=0x0:0x2b6c8e9dfdde7329,
perumahan,Pembangunan Perumahan,"Betmanu, Inbate kecamatan bikomi nilulat","H9MM+9PV, Inbate, Kec. Bikomi Nilulat, Kabupaten Timor Tengah Utara, Nusa Tenggara Tim.","Kabupaten Timor Tengah Utara, Nusa Tenggara Tim.",NUSA TENGGARA TIMUR,,Indonesia,,,,-94.165.115,1.243.843.009,https://maps.google.com/?cid=0x0:0x82dc8658b38b5fc6,
perumahan,Komplek perumahan,Elvy muki,"G942+W7, Haumeni 'ana, Kec. Bikomi Nilulat, Kabupaten Timor Tengah Utara, Nusa Tenggara Tim.","Kabupaten Timor Tengah Utara, Nusa Tenggara Tim.",NUSA TENGGARA TIMUR,,Indonesia,,,,-94.919.001,1.243.505.955,https://maps.google.com/?cid=0x0:0xf94c0f76a32cdae8,
perumahan,Komplek perumahan,Rumah Tarsisius Lake,"H97R+37X, Inbate, Kec. Bikomi Nilulat, Kabupaten Timor Tengah Utara, Nusa Tenggara Tim.","Kabupaten Timor Tengah Utara, Nusa Tenggara Tim.",NUSA TENGGARA TIMUR,,Indonesia,,,,-94.372.527,1.243.907.418,https://maps.google.com/?cid=0x0:0x17cba90702204517,
perumahan,Komplek perumahan,zt home,"F8W8+PHC, Tubu, Kec. Bikomi Nilulat, Kabupaten Timor Tengah Utara, Nusa Tenggara Tim.","Kabupaten Timor Tengah Utara, Nusa Tenggara Tim.",NUSA TENGGARA TIMUR,,Indonesia,,,,-9.502.742,1.243.172.981,https://maps.google.com/?cid=0x0:0xdd6911bd2cd524f3,
perumahan,Komplek perumahan, ,"G9M8+HRQ, Sunkaen, Kec. Bikomi Nilulat, Kabupaten Timor Tengah Utara, Nusa Tenggara Tim.","Kabupaten Timor Tengah Utara, Nusa Tenggara Tim.",NUSA TENGGARA TIMUR,,Indonesia,,,,-94.660.253,1.243.671.172,https://maps.google.com/?cid=0x0:0xabe8f68f6523ace5,
perumahan,Komplek perumahan,Khefyn home,"F8X6+QM7, Tubu, Kec. Bikomi Nilulat, Kabupaten Timor Tengah Utara, Nusa Tenggara Tim.","Kabupaten Timor Tengah Utara, Nusa Tenggara Tim.",NUSA TENGGARA TIMUR,,Indonesia,,,,-95.005.998,1.243.116.633,https://maps.google.com/?cid=0x0:0xb924d74c05738f95,
perumahan,Perhimpunan Pengembang Perumahan,"Aesmetan,inbate, Bikomi Nilulat","H9FJ+R46, Inbate, Kec. Bikomi Nilulat, Kabupaten Timor Tengah Utara, Nusa Tenggara Tim.","Kabupaten Timor Tengah Utara, Nusa Tenggara Tim.",NUSA TENGGARA TIMUR,,Indonesia,,,,-94.254.666,1.243.802.802,https://maps.google.com/?cid=0x0:0xe24ac7a433bd38dc,
perumahan,Pembangunan Perumahan,Nainaban lapa,"H95G+5C5, Nainaban, Kec. Bikomi Nilulat, Kabupaten Timor Tengah Utara, Nusa Tenggara Tim.","Kabupaten Timor Tengah Utara, Nusa Tenggara Tim.",NUSA TENGGARA TIMUR,,Indonesia,,,,-94.421.049,1.243.761.007,https://maps.google.com/?cid=0x0:0x1db32d3d1c386115,
perumahan,Komplek perumahan,Kios Fasya,"H97P+7V, Inbate, Kec. Bikomi Nilulat, Kabupaten Timor Tengah Utara, Nusa Tenggara Tim.","Kabupaten Timor Tengah Utara, Nusa Tenggara Tim.",NUSA TENGGARA TIMUR,,Indonesia,,,,-94.367.741,1.243.871.628,https://maps.google.com/?cid=0x0:0xe063f310c25538a5,
perumahan,Pembangunan Perumahan,Dattuz Amlupu,"G84H+9P7, Nilulat, Kec. Bikomi Nilulat, Kabupaten Timor Tengah Utara, Nusa Tenggara Tim.","Kabupaten Timor Tengah Utara, Nusa Tenggara Tim.",NUSA TENGGARA TIMUR,,Indonesia,,,,-94.937.263,12.432.864,https://maps.google.com/?cid=0x0:0x988ad6c06a38d61a,
perumahan,Komplek perumahan,Bp. Paulus Palbeno,"G9P8+FQW, Sunkaen, Kec. Bikomi Nilulat, Kabupaten Timor Tengah Utara, Nusa Tenggara Tim.","Kabupaten Timor Tengah Utara, Nusa Tenggara Tim.",NUSA TENGGARA TIMUR,,Indonesia,,,,-94.637.731,1.243.669.625,https://maps.google.com/?cid=0x0:0x34e9b3242e57c39e,
perumahan,Pembangunan Perumahan,Haumeni ana,"G974+QR, Haumeni 'ana, Kec. Bikomi Nilulat, Kabupaten Timor Tengah Utara, Nusa Tenggara Tim.","Kabupaten Timor Tengah Utara, Nusa Tenggara Tim.",NUSA TENGGARA TIMUR,,Indonesia,82136504315,,,-94.855.477,1.243.570.865,https://maps.google.com/?cid=0x0:0x285200c387e7d469,
perumahan,Komplek perumahan,Istana/sonaf,"H949+7X2, Nainaban, Kec. Bikomi Nilulat, Kabupaten Timor Tengah Utara, Nusa Tenggara Tim.","Kabupaten Timor Tengah Utara, Nusa Tenggara Tim.",NUSA TENGGARA TIMUR,,Indonesia,,,,-94.443.664,124.369.892,https://maps.google.com/?cid=0x0:0x1eaf955a0c811fcb,
perumahan,Pembangunan Perumahan,Kampung lama,"JC63+C84, Desa Tes, Kampung, Oenaek, Kec. Bikomi Utara, Kabupaten Timor Tengah Utara, Nusa Tenggara Tim.","Kabupaten Timor Tengah Utara, Nusa Tenggara Tim.",NUSA TENGGARA TIMUR,,Indonesia,,,,-93.889.978,1.244.033.131,https://maps.google.com/?cid=0x0:0x1260a1cb3cabeb49,
perumahan,Kompleks Apartemen,Jhosinto,"G963+9GC, Haumeni 'ana, Kec. Bikomi Nilulat, Kabupaten Timor Tengah Utara, Nusa Tenggara Tim.","Kabupaten Timor Tengah Utara, Nusa Tenggara Tim.",NUSA TENGGARA TIMUR,,Indonesia,,,,-94.890.606,1.243.537.636,https://maps.google.com/?cid=0x0:0x9359d3545ccba5d8,
perumahan,Komplek perumahan,Benus Nusa Tenggara Timur Indonesia,"PFCR+6QJ, Benus, Kec. Naibenu, Kabupaten Timor Tengah Utara, Nusa Tenggara Tim.","Kabupaten Timor Tengah Utara, Nusa Tenggara Tim.",NUSA TENGGARA TIMUR,,Indonesia,,,,-92.794.089,1.244.918.988,https://maps.google.com/?cid=0x0:0xf05df7c44e24f291,
perumahan,Komplek perumahan,Wens Benu,"HHGG+PW, Maubesi, Kec. Insana Tengah, Kabupaten Timor Tengah Utara, Nusa Tenggara Tim.","Kabupaten Timor Tengah Utara, Nusa Tenggara Tim.",NUSA TENGGARA TIMUR,,Indonesia,,,,-94.235.389,1.245.776.919,https://maps.google.com/?cid=0x0:0x4957af7107367585,
perumahan,perumahan,Kec. Naibenu,"Kabupaten Timor Tengah Utara, Nusa Tenggara Tim.","Kabupaten Timor Tengah Utara, Nusa Tenggara Tim.",NUSA TENGGARA TIMUR,,Indonesia,,,,-92.655.778,1.245.027.433,https://maps.google.com/?cid=0x0:0x113da2b06f9b8fda,
perumahan,perumahan,Neofmuti benus naibenu TTU,"PGM3+Q39, Benus, Kec. Naibenu, Kabupaten Timor Tengah Utara, Nusa Tenggara Tim.","Kabupaten Timor Tengah Utara, Nusa Tenggara Tim.",NUSA TENGGARA TIMUR,,Indonesia,81225260416,,,-92.655.778,1.245.027.433,https://maps.google.com/?cid=0x0:0x39891b80ea7bb73c,
perumahan,Perumahan,Sunbaki,"Jl. Amol - Manamas No.69, Sunsea, Kec. Naibenu, Kabupaten Timor Tengah Utara, Nusa Tenggara Tim.","Kabupaten Timor Tengah Utara, Nusa Tenggara Tim.",NUSA TENGGARA TIMUR,,Indonesia,,,,-93.221.085,12.448.315,https://maps.google.com/?cid=0x0:0xdf6a1ec486cea9,
perumahan,Komplek perumahan,Rumah Gute,"PGM3+QV9, Manamas, Kec. Naibenu, Kabupaten Timor Tengah Utara, Nusa Tenggara Tim.","Kabupaten Timor Tengah Utara, Nusa Tenggara Tim.",NUSA TENGGARA TIMUR,,Indonesia,,,,-92.655.893,1.245.047.379,https://maps.google.com/?cid=0x0:0xd235b4de21ebae,
perumahan,Pembangunan Perumahan,SASI HOUSE.,"Jl. Amol - Manamas No.69, Sunsea, Kec. Naibenu, Kabupaten Timor Tengah Utara, Nusa Tenggara Tim.","Kabupaten Timor Tengah Utara, Nusa Tenggara Tim.",NUSA TENGGARA TIMUR,,Indonesia,81339551944,,,-93.214.709,1.244.837.096,https://maps.google.com/?cid=0x0:0xa7b849098ea115a,
perumahan,Pembangunan Perumahan,Kiunaek,"PF2J+58P, Dusun 5, Bakitolas, Kec. Naibenu, Kabupaten Timor Tengah Utara, Nusa Tenggara Tim.","Kabupaten Timor Tengah Utara, Nusa Tenggara Tim.",NUSA TENGGARA TIMUR,,Indonesia,,,,-92.995.334,1.244.808.143,https://maps.google.com/?cid=0x0:0x60f3a645b0d44394,
perumahan,Komplek perumahan,Desi home,"QFXM+X8W, Manamas, Kec. Naibenu, Kabupaten Timor Tengah Utara, Nusa Tenggara Tim.","Kabupaten Timor Tengah Utara, Nusa Tenggara Tim.",NUSA TENGGARA TIMUR,,Indonesia,,,,-9.2,124.483.333,https://maps.google.com/?cid=0x0:0xe3fc908e7f4f6aa0,
perumahan,Komplek perumahan,Rumah Nguru Mone,"PGM3+Q39, Jalan, kampung sabu, Naibenu, North Central Timor Regency, East Nusa Tenggara","Kabupaten Timor Tengah Utara, Nusa Tenggara Tim.",NUSA TENGGARA TIMUR,,Indonesia,,,,-92.655.778,1.245.027.433,https://maps.google.com/?cid=0x0:0x21f1b7dbb7397dce,
perumahan,perumahan,Rumah Florentia Teme,"PGM3+PCJ, Benus, Kec. Naibenu, Kabupaten Timor Tengah Utara, Nusa Tenggara Tim.","Kabupaten Timor Tengah Utara, Nusa Tenggara Tim.",NUSA TENGGARA TIMUR,,Indonesia,,,,-92.656.585,1.245.035.207,https://maps.google.com/?cid=0x0:0x6f5848c284ced7c8,
perumahan,Pembangunan Perumahan,Bijae Apun,"RF5X+3R6, Humusu C, Kec. Insana Utara, Kabupaten Timor Tengah Utara, Nusa Tenggara Tim.","Kabupaten Timor Tengah Utara, Nusa Tenggara Tim.",NUSA TENGGARA TIMUR,,Indonesia,,,,-91.923.301,1.244.995.182,https://maps.google.com/?cid=0x0:0xb2b3eed2508e389,
perumahan,Pusat Kesehatan Masyarakat,Posnyandu manamas,"QF8J+M84, Manamas, Kec. Naibenu, Kabupaten Timor Tengah Utara, Nusa Tenggara Tim.","Kabupaten Timor Tengah Utara, Nusa Tenggara Tim.",NUSA TENGGARA TIMUR,,Indonesia,,,,-92.333.623,1.244.808.143,https://maps.google.com/?cid=0x0:0x63161810e3e3449d,
perumahan,Perumahan,Simpi Salu,"MFFH+VV9, Jl. Amol - Manamas, SUNBAKI, Kec. Naibenu, Kabupaten Timor Tengah Utara, Nusa Tenggara Tim.","Kabupaten Timor Tengah Utara, Nusa Tenggara Tim.",NUSA TENGGARA TIMUR,,Indonesia,,,,-9.325.277,1.244.787.984,https://maps.google.com/?cid=0x0:0xdb332116358c1833,
perumahan,Komplek perumahan,Chateme,"PFRW+35, Manamas, Kec. Naibenu, Kabupaten Timor Tengah Utara, Nusa Tenggara Tim.","Kabupaten Timor Tengah Utara, Nusa Tenggara Tim.",NUSA TENGGARA TIMUR,,Indonesia,,,,-92.597.629,1.244.954.064,https://maps.google.com/?cid=0x0:0xf491f22888fff895,
perumahan,Perumahan,Sonaf Naimeko,"QF8J+M84, Manamas, Kec. Naibenu, Kabupaten Timor Tengah Utara, Nusa Tenggara Tim.","Kabupaten Timor Tengah Utara, Nusa Tenggara Tim.",NUSA TENGGARA TIMUR,,Indonesia,,,,-92.333.623,1.244.808.143,https://maps.google.com/?cid=0x0:0xebbcad5ef0a2be89,
perumahan,Highway patrol,Banain A,"JCJF+RV, Banain, Kec. Bikomi Utara, Kabupaten Timor Tengah Utara, Nusa Tenggara Tim.","Kabupaten Timor Tengah Utara, Nusa Tenggara Tim.",NUSA TENGGARA TIMUR,,Indonesia,,,,-93.679.001,1.244.246.319,https://maps.google.com/?cid=0x0:0xac78500de7301c54,
perumahan,Komplek perumahan,Maesmolo,"QFXM+X8W, Manamas, Kec. Naibenu, Kabupaten Timor Tengah Utara, Nusa Tenggara Tim.","Kabupaten Timor Tengah Utara, Nusa Tenggara Tim.",NUSA TENGGARA TIMUR,,Indonesia,,,,-9.2,124.483.333,https://maps.google.com/?cid=0x0:0xe18406eb85197dad,
perumahan,perumahan,ILA,"JGR9+7G8, Jak, Kec. Miomaffo Tim., Kabupaten Timor Tengah Utara, Nusa Tenggara Tim.","Kabupaten Timor Tengah Utara, Nusa Tenggara Tim.",NUSA TENGGARA TIMUR,,Indonesia,,,,-93.593.328,1.245.188.281,https://maps.google.com/?cid=0x0:0x801b1906be035b33,
perumahan,Layanan Transportasi,Rumah Falent Kebo Families,"RFCR+44J, Humusu C, Kec. Insana Utara, Kabupaten Timor Tengah Utara, Nusa Tenggara Tim.","Kabupaten Timor Tengah Utara, Nusa Tenggara Tim.",NUSA TENGGARA TIMUR,,Indonesia,,,,-91.794.814,1.244.909.557,https://maps.google.com/?cid=0x0:0xfb6d7aa30089e71a,
perumahan,Pembangunan Perumahan,Oeaniut,"MG36+MG7, Jak, Kec. Miomaffo Tim., Kabupaten Timor Tengah Utara, Nusa Tenggara Tim.","Kabupaten Timor Tengah Utara, Nusa Tenggara Tim.",NUSA TENGGARA TIMUR,,Indonesia,,,,-93.458.473,1.245.112.934,https://maps.google.com/?cid=0x0:0xf29d2b415e27c0d8,
perumahan,Komplek perumahan,Rumah Quenera Tonbesi,"JGRW+VJ9, Oenain, Kec. Insana Fafinesu, Kabupaten Timor Tengah Utara, Nusa Tenggara Tim.","Kabupaten Timor Tengah Utara, Nusa Tenggara Tim.",NUSA TENGGARA TIMUR,,Indonesia,,,,-93.588.663,1.245.461.405,https://maps.google.com/?cid=0x0:0x332b089b4544719f,
perumahan,Komplek perumahan,Fatutusi Insana Fafinesu,"JH2J+CV, Fafinesu A, Kec. Insana Fafinesu, Kabupaten Timor Tengah Utara, Nusa Tenggara Tim.","Kabupaten Timor Tengah Utara, Nusa Tenggara Tim.",NUSA TENGGARA TIMUR,,Indonesia,81338465008,,,-93.989.375,1.245.821.875,https://maps.google.com/?cid=0x0:0x98dd96498140066,
perumahan,Perhimpunan Pengembang Perumahan,Fafinesu,"HHXM+JGP, Fafinesu, Kec. Insana Fafinesu, Kabupaten Timor Tengah Utara, Nusa Tenggara Tim.","Kabupaten Timor Tengah Utara, Nusa Tenggara Tim.",NUSA TENGGARA TIMUR,,Indonesia,,,,-94.009.221,1.245.838.371,https://maps.google.com/?cid=0x0:0x38b98ce4d385bd0e,
perumahan,perumahan,Kec. Insana Fafinesu,"Kabupaten Timor Tengah Utara, Nusa Tenggara Tim.","Kabupaten Timor Tengah Utara, Nusa Tenggara Tim.",NUSA TENGGARA TIMUR,,Indonesia,,,,-93.484.437,1.245.709.284,https://maps.google.com/?cid=0x0:0x392304c612a5bf8a,
perumahan,Komplek perumahan,RUMAH LUCYANA,"HHMV+P87, Fafinesu A, Kec. Insana Fafinesu, Kabupaten Timor Tengah Utara, Nusa Tenggara Tim.","Kabupaten Timor Tengah Utara, Nusa Tenggara Tim.",NUSA TENGGARA TIMUR,,Indonesia,,,,-94.157.125,1.245.932.969,https://maps.google.com/?cid=0x0:0xa65991b562a1bc0d,
perumahan,Perhimpunan Pengembang Perumahan,Rumah Adat Naibesi,"JHW7+WM, Fafinesu B, Kec. Insana Fafinesu, Kabupaten Timor Tengah Utara, Nusa Tenggara Tim.","Kabupaten Timor Tengah Utara, Nusa Tenggara Tim.",NUSA TENGGARA TIMUR,,Indonesia,,,,-93.526.861,1.245.642.013,https://maps.google.com/?cid=0x0:0xb6689ad5781c0129,
perumahan,Perhimpunan Pengembang Perumahan,Fatuhao,"MH2F+CRR, Fafinesu B, Kec. Insana Fafinesu, Kabupaten Timor Tengah Utara, Nusa Tenggara Tim.","Kabupaten Timor Tengah Utara, Nusa Tenggara Tim.",NUSA TENGGARA TIMUR,,Indonesia,,,,-93.488.236,1.245.736.379,https://maps.google.com/?cid=0x0:0xebb2626df42a7b35,
perumahan,Komplek perumahan,Rumah zidan,"HHPR+5WG, Fafinesu A, Kec. Insana Fafinesu, Kabupaten Timor Tengah Utara, Nusa Tenggara Tim.","Kabupaten Timor Tengah Utara, Nusa Tenggara Tim.",NUSA TENGGARA TIMUR,,Indonesia,,,,-9.414.557,1.245.923.129,https://maps.google.com/?cid=0x0:0x6191423f9e541e86,
perumahan,Komplek perumahan,BOENMES,"JHQM+98M, Fafinesu C, Kec. Insana Fafinesu, Kabupaten Timor Tengah Utara, Nusa Tenggara Tim.","Kabupaten Timor Tengah Utara, Nusa Tenggara Tim.",NUSA TENGGARA TIMUR,,Indonesia,,,,-93.615.452,1.245.832.928,https://maps.google.com/?cid=0x0:0x33f48f0e52703601,
perumahan,Komplek perumahan,Rumah eman,"JH8F+HRG, Fafinesu, Kec. Insana Fafinesu, Kabupaten Timor Tengah Utara, Nusa Tenggara Tim.","Kabupaten Timor Tengah Utara, Nusa Tenggara Tim.",NUSA TENGGARA TIMUR,,Indonesia,,,,-93.830.443,1.245.741.801,https://maps.google.com/?cid=0x0:0xe293d858275c44fa,
perumahan,Komplek perumahan,Rumah Siapa,"HHQV+G7, Fafinesu A, Kec. Insana Fafinesu, Kabupaten Timor Tengah Utara, Nusa Tenggara Tim.","Kabupaten Timor Tengah Utara, Nusa Tenggara Tim.",NUSA TENGGARA TIMUR,,Indonesia,,,,-9.411.211,1.245.931.658,https://maps.google.com/?cid=0x0:0x38de41934a6b67c7,
perumahan,Komplek perumahan,Rian sanan,"MH2C+CFW, Fafinesu B, Kec. Insana Fafinesu, Kabupaten Timor Tengah Utara, Nusa Tenggara Tim.","Kabupaten Timor Tengah Utara, Nusa Tenggara Tim.",NUSA TENGGARA TIMUR,,Indonesia,,,,-93.488.823,1.245.712.062,https://maps.google.com/?cid=0x0:0xcc945af2a4cb2ff0,
perumahan,perumahan,Rumah soffy,"MH3H+RRP, Fafinesu C, Kec. Insana Fafinesu, Kabupaten Timor Tengah Utara, Nusa Tenggara Tim.","Kabupaten Timor Tengah Utara, Nusa Tenggara Tim.",NUSA TENGGARA TIMUR,,Indonesia,,,,-93.454.012,1.245.795.731,https://maps.google.com/?cid=0x0:0xaa4384331c41f4e1,
perumahan,Komplek perumahan,Rumah Bpk Fransiskus Babu,"MH5F+9FH, Fafinesu C, Kec. Insana Fafinesu, Kabupaten Timor Tengah Utara, Nusa Tenggara Tim.","Kabupaten Timor Tengah Utara, Nusa Tenggara Tim.",NUSA TENGGARA TIMUR,,Indonesia,,,,-93.410.295,1.245.731.619,https://maps.google.com/?cid=0x0:0x78a86505fb0e4c24,
perumahan,perumahan,Santi Naimuni,"MH2C+J9F, Fafinesu B, Kec. Insana Fafinesu, Kabupaten Timor Tengah Utara, Nusa Tenggara Tim.","Kabupaten Timor Tengah Utara, Nusa Tenggara Tim.",NUSA TENGGARA TIMUR,,Indonesia,,,,-93.482.905,1.245.711.928,https://maps.google.com/?cid=0x0:0x2ce4e81ddfb83ab2,
perumahan,Komplek perumahan,Naibesi,"JHV5+496, Fafinesu B, Kec. Insana Fafinesu, Kabupaten Timor Tengah Utara, Nusa Tenggara Tim.","Kabupaten Timor Tengah Utara, Nusa Tenggara Tim.",NUSA TENGGARA TIMUR,,Indonesia,,,,-9.357.207,1.245.583.766,https://maps.google.com/?cid=0x0:0xe4e094259dec85f3,
perumahan,Komplek perumahan,Rumah Quenera Tonbesi,"JGRW+VJ9, Oenain, Kec. Insana Fafinesu, Kabupaten Timor Tengah Utara, Nusa Tenggara Tim.","Kabupaten Timor Tengah Utara, Nusa Tenggara Tim.",NUSA TENGGARA TIMUR,,Indonesia,,,,-93.588.663,1.245.461.405,https://maps.google.com/?cid=0x0:0x332b089b4544719f,
perumahan,perumahan,Rumah Kanis Mataufina,"HJC8+FJC, Letmafo, Kec. Insana Tengah, Kabupaten Timor Tengah Utara, Nusa Tenggara Tim.","Kabupaten Timor Tengah Utara, Nusa Tenggara Tim.",NUSA TENGGARA TIMUR,,Indonesia,,,,-94.288.096,1.246.165.267,https://maps.google.com/?cid=0x0:0x521a24bd36162a01,
perumahan,perumahan,Rumah Lando uspupu,"MH3H+RRV, Fafinesu C, Kec. Insana Fafinesu, Kabupaten Timor Tengah Utara, Nusa Tenggara Tim.","Kabupaten Timor Tengah Utara, Nusa Tenggara Tim.",NUSA TENGGARA TIMUR,,Indonesia,,,,-93.456.306,1.245.798.503,https://maps.google.com/?cid=0x0:0xb6ec24b443bcff18,
perumahan,Komplek perumahan,Luisnabunaimnule,"HHMR+QWC, Fafinesu A, Kec. Insana Fafinesu, Kabupaten Timor Tengah Utara, Nusa Tenggara Tim.","Kabupaten Timor Tengah Utara, Nusa Tenggara Tim.",NUSA TENGGARA TIMUR,,Indonesia,,,,-94.155.854,1.245.922.844,https://maps.google.com/?cid=0x0:0xc30706862bea1995,
perumahan,Pembangunan Perumahan,LM,"MH29+3XR, Timur, Fafinesu B, Kec. Insana Fafinesu, Kabupaten Timor Tengah Utara, Nusa Tenggara Tim.","Kabupaten Timor Tengah Utara, Nusa Tenggara Tim.",NUSA TENGGARA TIMUR,,Indonesia,,,,-93.496.812,1.245.696.589,https://maps.google.com/?cid=0x0:0x5f8c28fc0a3a3bca,
perumahan,Komplek perumahan,Gerard Rafael,"MH2F+62V, Fafinesu B, Kec. Insana Fafinesu, Kabupaten Timor Tengah Utara, Nusa Tenggara Tim.","Kabupaten Timor Tengah Utara, Nusa Tenggara Tim.",NUSA TENGGARA TIMUR,,Indonesia,,,,-9.349.386,1.245.725.377,https://maps.google.com/?cid=0x0:0xa1a92aa0a80472fe,
perumahan,Pembangunan Perumahan,Cabang nefosene,"MH3R+Q4V, Fafinesu C, Kec. Insana Fafinesu, Kabupaten Timor Tengah Utara, Nusa Tenggara Tim.","Kabupaten Timor Tengah Utara, Nusa Tenggara Tim.",NUSA TENGGARA TIMUR,,Indonesia,,,,-93.454.938,1.245.902.942,https://maps.google.com/?cid=0x0:0xf322bce18c71f211,
perumahan,perumahan,Kec. Insana Bar.,"Kabupaten Timor Tengah Utara, Nusa Tenggara Tim.","Kabupaten Timor Tengah Utara, Nusa Tenggara Tim.",NUSA TENGGARA TIMUR,,Indonesia,,,,-94.880.816,1.245.609.838,https://maps.google.com/?cid=0x0:0x2a593f4838c63633,
perumahan,Komplek perumahan,Yayasan Pijar Timur Indonesia Km.10 Oelnitep,"GGWJ+6P3, Jl. Kefamenanu - Maubesi, Subun, Kec. Insana Bar., Kabupaten Timor Tengah Utara, Nusa Tenggara Tim.","Kabupaten Timor Tengah Utara, Nusa Tenggara Tim.",NUSA TENGGARA TIMUR,,Indonesia,81138000421,,,-9.454.489,1.245.317.922,https://maps.google.com/?cid=0x0:0x10cdf5db0d0a5a96,
perumahan,perumahan,Maubesi,"Kec. Insana Tengah, Kabupaten Timor Tengah Utara, Nusa Tenggara Tim.","Kabupaten Timor Tengah Utara, Nusa Tenggara Tim.",NUSA TENGGARA TIMUR,,Indonesia,,,,-94.127.504,1.245.694.514,https://maps.google.com/?cid=0x0:0x900c254de7a6da77,
perumahan,Perumahan,Perumahan MBR Petuk,"Perumahan MBR Petuk, Blk. E, Kolhua, Kec. Maulafa, Kota Kupang, Nusa Tenggara Tim.","Kota Kupang, Nusa Tenggara Tim.",NUSA TENGGARA TIMUR,,Indonesia,85847009539,,,-101.985.144,1.236.246.492,https://maps.google.com/?cid=0x0:0x257c7254e0e5cdee,
perumahan,Padang,Padang Rumah Makan,"HGC6+G64, Aplasi, Kec. Kota Kefamenanu, Kabupaten Timor Tengah Utara, Nusa Tenggara Tim.","Kabupaten Timor Tengah Utara, Nusa Tenggara Tim.",NUSA TENGGARA TIMUR,,Indonesia,38831326,,,-9.428.741,124.510.574,https://maps.google.com/?cid=0x0:0x6b83ea1d684840ea,
perumahan,Perhimpunan Pengembang Perumahan,Perumahan Petuk Indah Kupang (PIK),"QJXV+RM2, Kolhua, Kec. Maulafa, Kota Kupang, Nusa Tenggara Tim.","Kota Kupang, Nusa Tenggara Tim.",NUSA TENGGARA TIMUR,,Indonesia,,,,-102.004.395,1.236.441.054,https://maps.google.com/?cid=0x0:0x20141f61738dc237,
perumahan,Padang,Minang Jaya Rumah Makan,"Jl. L. Lake No.8, Aplasi, Kec. Kota Kefamenanu, Kabupaten Timor Tengah Utara, Nusa Tenggara Tim.","Kabupaten Timor Tengah Utara, Nusa Tenggara Tim.",NUSA TENGGARA TIMUR,,Indonesia,38831176,,,-9.428.741,124.510.574,https://maps.google.com/?cid=0x0:0xcc4c10c970bf5087,
perumahan,Kantor Pemda,"DESA BANNAE, KEC. INSANA BARAT","Jalan Timor Raya No.Km.16, Banae, Kec. Insana Bar., Kabupaten Timor Tengah Utara, Nusa Tenggara Tim.","Kabupaten Timor Tengah Utara, Nusa Tenggara Tim.",NUSA TENGGARA TIMUR,,Indonesia,,,,-94.411.517,1.245.694.514,https://maps.google.com/?cid=0x0:0x4530949af974bd85,
perumahan,Komplek perumahan,Da Silva De Fatima Home,"Letneo, Kec. Insana Bar., Kabupaten Timor Tengah Utara, Nusa Tenggara Tim.","Kabupaten Timor Tengah Utara, Nusa Tenggara Tim.",NUSA TENGGARA TIMUR,,Indonesia,,,,-94.522.647,124.597.132,https://maps.google.com/?cid=0x0:0xf181365edbb7cd7d,
perumahan,perumahan,Rumah Bpa Yasintus Haki,"GG2Q+VWH, Lapeom, Kec. Insana Bar., Kabupaten Timor Tengah Utara, Nusa Tenggara Tim.","Kabupaten Timor Tengah Utara, Nusa Tenggara Tim.",NUSA TENGGARA TIMUR,,Indonesia,,,,-94.978.158,1.245.398.579,https://maps.google.com/?cid=0x0:0x8deea6cc63a2f132,
perumahan,Pembangunan Perumahan,Kambar,"GH3W+5FC, Jln. Nailape, Kambar, Mamsena, Atmen, Kec. Insana Bar., Kabupaten Timor Tengah Utara, Nusa Tenggara Tim.","Kabupaten Timor Tengah Utara, Nusa Tenggara Tim.",NUSA TENGGARA TIMUR,,Indonesia,,,,-94.970.531,1.245.961.399,https://maps.google.com/?cid=0x0:0x227e87154a12c8b3,
perumahan,Pembangunan Perumahan,Rumah Dimas,"HHH9+CR, Maubesi, Kec. Insana Tengah, Kabupaten Timor Tengah Utara, Nusa Tenggara Tim.","Kabupaten Timor Tengah Utara, Nusa Tenggara Tim.",NUSA TENGGARA TIMUR,,Indonesia,,,,-9.421.451,1.245.695.254,https://maps.google.com/?cid=0x0:0x8cd507fc4436ecb1,
perumahan,Komplek perumahan,Rumah Yustina Tana,"GH67+MG5, Usapinonot, Kec. Insana Bar., Kabupaten Timor Tengah Utara, Nusa Tenggara Tim.","Kabupaten Timor Tengah Utara, Nusa Tenggara Tim.",NUSA TENGGARA TIMUR,,Indonesia,,,,-94.883.502,1.245.638.481,https://maps.google.com/?cid=0x0:0xa1099a54daffe76c,
perumahan,Komplek perumahan,Oeku'un ntt,"GJR7+FG4, Sekon, Kec. Insana Bar., Kabupaten Timor Tengah Utara, Nusa Tenggara Tim.","Kabupaten Timor Tengah Utara, Nusa Tenggara Tim.",NUSA TENGGARA TIMUR,,Indonesia,,,,-94.588.696,124.613.841,https://maps.google.com/?cid=0x0:0x993bc5b0f0fd536c,
perumahan,Komplek perumahan,Rumah Dominikus besi eta,"GH66+795, Usapinonot, Kec. Insana Bar., Kabupaten Timor Tengah Utara, Nusa Tenggara Tim.","Kabupaten Timor Tengah Utara, Nusa Tenggara Tim.",NUSA TENGGARA TIMUR,,Indonesia,,,,-94.893.691,1.245.609.812,https://maps.google.com/?cid=0x0:0x7210c37fb5e8387e,
perumahan,Pembangunan Perumahan,miomaffo barat,"GHXW+3VR, Letneo, Kec. Insana Bar., Kabupaten Timor Tengah Utara, Nusa Tenggara Tim.","Kabupaten Timor Tengah Utara, Nusa Tenggara Tim.",NUSA TENGGARA TIMUR,,Indonesia,,,,-94.522.647,124.597.132,https://maps.google.com/?cid=0x0:0xe1aba40abaac9d46,
perumahan,Kantor Pemerintah,Desa unini,"GHCQ+3M8, Desa Admen, Kec. Insana Bar., Kabupaten Timor Tengah Utara, Nusa Tenggara Tim.","Kabupaten Timor Tengah Utara, Nusa Tenggara Tim.",NUSA TENGGARA TIMUR,,Indonesia,,,,-94.798.485,1.245.892.099,https://maps.google.com/?cid=0x0:0x8b88da19c045b31,
perumahan,Komplek perumahan,Rumah Fridolina,"GH68+HG, Usapinonot, Kec. Insana Bar., Kabupaten Timor Tengah Utara, Nusa Tenggara Tim.","Kabupaten Timor Tengah Utara, Nusa Tenggara Tim.",NUSA TENGGARA TIMUR,,Indonesia,,,,-94.882.319,1.245.665.539,https://maps.google.com/?cid=0x0:0x442b9c197fc7171,
perumahan,Perhimpunan Pengembang Perumahan,"Fatualam,Gutamatris","FGXW+C4, Lapeom, Kec. Insana Bar., Kabupaten Timor Tengah Utara, Nusa Tenggara Tim.","Kabupaten Timor Tengah Utara, Nusa Tenggara Tim.",NUSA TENGGARA TIMUR,,Indonesia,,,,-95.013.239,1.245.453.166,https://maps.google.com/?cid=0x0:0x20540884fe1b7e95,
perumahan,perumahan,Desa Tublopo,"FHJ5+P9C, Tublopo, Kec. Bikomi Sel., Kabupaten Timor Tengah Utara, Nusa Tenggara Tim.","Kabupaten Timor Tengah Utara, Nusa Tenggara Tim.",NUSA TENGGARA TIMUR,,Indonesia,,,,-95.181.899,1.245.583.766,https://maps.google.com/?cid=0x0:0x33b7e1074359c612,
perumahan,Komplek perumahan,Tethun,"GJ84+FFF, Letneo, Kec. Insana Bar., Kabupaten Timor Tengah Utara, Nusa Tenggara Tim.","Kabupaten Timor Tengah Utara, Nusa Tenggara Tim.",NUSA TENGGARA TIMUR,,Indonesia,,,,-94.838.023,1.246.061.749,https://maps.google.com/?cid=0x0:0x4ecaf2f120e51d2d,
perumahan,Komplek perumahan,Marsel Komo,"GH8J+8V9, Desa Admen, Kec. Insana Bar., Kabupaten Timor Tengah Utara, Nusa Tenggara Tim.","Kabupaten Timor Tengah Utara, Nusa Tenggara Tim.",NUSA TENGGARA TIMUR,,Indonesia,,,,-9.484.209,1.245.822.231,https://maps.google.com/?cid=0x0:0x53c3354d30069449,
perumahan,Komplek perumahan,Nifunenas,"GH53+M8, Nifunenas, Kec. Insana Bar., Kabupaten Timor Tengah Utara, Nusa Tenggara Tim.","Kabupaten Timor Tengah Utara, Nusa Tenggara Tim.",NUSA TENGGARA TIMUR,,Indonesia,,,,-94.916.945,1.245.529.616,https://maps.google.com/?cid=0x0:0xd81b91fcbe1d1f73,
perumahan,Tujuan Wisata,Kampung Seumbam,"HGRV+39Q, Maubesi, Kec. Insana Tengah, Kabupaten Timor Tengah Utara, Nusa Tenggara Tim.","Kabupaten Timor Tengah Utara, Nusa Tenggara Tim.",NUSA TENGGARA TIMUR,,Indonesia,,,,-94.097.864,1.245.434.866,https://maps.google.com/?cid=0x0:0xcaa11b0cd842c3b0,
perumahan,Komplek perumahan,Rmh Bp Nikolas Br Bria,"GG2W+2X2, RT.06, Lapeom, Kec. Insana Bar., Kabupaten Timor Tengah Utara, Nusa Tenggara Tim.","Kabupaten Timor Tengah Utara, Nusa Tenggara Tim.",NUSA TENGGARA TIMUR,,Indonesia,,,,-94.999.824,1.245.474.043,https://maps.google.com/?cid=0x0:0x65f6cb6815c838c,
perumahan,perumahan,Rmh Bpa Marsel Eko,"GG5W+JW3, Lapeom, Kec. Insana Bar., Kabupaten Timor Tengah Utara, Nusa Tenggara Tim.","Kabupaten Timor Tengah Utara, Nusa Tenggara Tim.",NUSA TENGGARA TIMUR,,Indonesia,,,,-94.909.942,1.245.473.005,https://maps.google.com/?cid=0x0:0x4b37a7e8574471e0,
perumahan,perumahan,Yakobus Asalnaije,"GH7X+MGW, Jl. Mamsena, Atmen, Kec. Insana Bar., Kabupaten Timor Tengah Utara, Nusa Tenggara Tim.","Kabupaten Timor Tengah Utara, Nusa Tenggara Tim.",NUSA TENGGARA TIMUR,,Indonesia,,,,-94.856.003,1.246.009.322,https://maps.google.com/?cid=0x0:0x4fa6c09b2f366ff2,
perumahan,Pembangunan Perumahan,Fatualam,"GG5W+JW3, Lapeom, Kec. Insana Bar., Kabupaten Timor Tengah Utara, Nusa Tenggara Tim.","Kabupaten Timor Tengah Utara, Nusa Tenggara Tim.",NUSA TENGGARA TIMUR,,Indonesia,,,,-94.909.942,1.245.473.005,https://maps.google.com/?cid=0x0:0xf613efba6a635283,
perumahan,Komplek perumahan,Benpasi ttu,"GHXW+3VR, Letneo, Kec. Insana Bar., Kabupaten Timor Tengah Utara, Nusa Tenggara Tim.","Kabupaten Timor Tengah Utara, Nusa Tenggara Tim.",NUSA TENGGARA TIMUR,,Indonesia,,,,-94.522.647,124.597.132,https://maps.google.com/?cid=0x0:0x4ea80ec0b6cec520,
perumahan,perumahan,Kec. Insana Utara,"Kabupaten Timor Tengah Utara, Nusa Tenggara Tim.","Kabupaten Timor Tengah Utara, Nusa Tenggara Tim.",NUSA TENGGARA TIMUR,,Indonesia,,,,-91.836.226,1.244.915.379,https://maps.google.com/?cid=0x0:0xa191d5026c4223dc,
perumahan,perumahan,Kec. Insana Tengah,"Kabupaten Timor Tengah Utara, Nusa Tenggara Tim.","Kabupaten Timor Tengah Utara, Nusa Tenggara Tim.",NUSA TENGGARA TIMUR,,Indonesia,,,,-93.465.272,1.246.068.514,https://maps.google.com/?cid=0x0:0x163f6042371d5d1e,
perumahan,Pembangunan Perumahan,Rumah Dimas,"HHH9+CR, Maubesi, Kec. Insana Tengah, Kabupaten Timor Tengah Utara, Nusa Tenggara Tim.","Kabupaten Timor Tengah Utara, Nusa Tenggara Tim.",NUSA TENGGARA TIMUR,,Indonesia,,,,-9.421.451,1.245.695.254,https://maps.google.com/?cid=0x0:0x8cd507fc4436ecb1,
perumahan,Pembangunan Perumahan,Tualeu-Lanaus,"RT/RW:008/003Lanaus, Humusu C, Kec. Insana Tengah, Kabupaten Timor Tengah Utara, Nusa Tenggara Tim.","Kabupaten Timor Tengah Utara, Nusa Tenggara Tim.",NUSA TENGGARA TIMUR,,Indonesia,,,,-91.828.701,1.245.183.738,https://maps.google.com/?cid=0x0:0x3aa53754a198bcc1,
perumahan,Perhimpunan Pengembang Perumahan,Lan,"PH62+HQ, Humusu A, Kec. Insana Utara, Kabupaten Timor Tengah Utara, Nusa Tenggara Tim.","Kabupaten Timor Tengah Utara, Nusa Tenggara Tim.",NUSA TENGGARA TIMUR,,Indonesia,,,,-92.886.115,1.245.518.609,https://maps.google.com/?cid=0x0:0x569967c7baa37942,
perumahan,Seniman,Besnaen desa Oinbit Insana TTU NTT Indonesia,"HQG7+862, Oinbit, Kec. Insana, Kabupaten Timor Tengah Utara, Nusa Tenggara Tim.","Kabupaten Timor Tengah Utara, Nusa Tenggara Tim.",NUSA TENGGARA TIMUR,,Indonesia,,,,-94.242.376,1.247.630.307,https://maps.google.com/?cid=0x0:0x96fd2729470f7770,
perumahan,perumahan,Kec. Biboki Tan Pah,"Kabupaten Timor Tengah Utara, Nusa Tenggara Tim.","Kabupaten Timor Tengah Utara, Nusa Tenggara Tim.",NUSA TENGGARA TIMUR,,Indonesia,,,,-93.389.905,1.247.890.846,https://maps.google.com/?cid=0x0:0x93ae931eb749a772,
perumahan,Komplek perumahan,Rumah Iyan Usfinit,"Biboki selatan Desa Pantae, Nias'ana, RT.005/RW.002, Kabupaten Timor Tengah Utara, Nusa Tenggara Tim. 85680","Nias'ana, RT.005/RW.002, Kabupaten Timor Tengah Utara",NUSA TENGGARA TIMUR,85680.0,Indonesia,81237717889,,,-93.682.807,1.246.479.585,https://maps.google.com/?cid=0x0:0xc10d1cadd82a3ca,
perumahan,Pembangunan Perumahan,Oenopu,"JQCQ+PHG, T'eba Tim., Kec. Biboki Tan Pah, Kabupaten Timor Tengah Utara, Nusa Tenggara Tim.","Kabupaten Timor Tengah Utara, Nusa Tenggara Tim.",NUSA TENGGARA TIMUR,,Indonesia,,,,-93.781.956,1.247.889.503,https://maps.google.com/?cid=0x0:0x1f7cb87f262c5ba1,
perumahan,perumahan,Rumah Bp. Gabriel Manek Usboko,"MQ5Q+X5, Oerinbesi, Kec. Biboki Tan Pah, Kabupaten Timor Tengah Utara, Nusa Tenggara Tim.","Kabupaten Timor Tengah Utara, Nusa Tenggara Tim.",NUSA TENGGARA TIMUR,,Indonesia,,,,-93.400.188,1.247.879.022,https://maps.google.com/?cid=0x0:0xf3f4c923fb35d3ad,
perumahan,Komplek perumahan,Usapinaek,"MQHW+82X, Oekopa, Kec. Biboki Tan Pah, Kabupaten Timor Tengah Utara, Nusa Tenggara Tim.","Kabupaten Timor Tengah Utara, Nusa Tenggara Tim.",NUSA TENGGARA TIMUR,,Indonesia,,,,-9.321.629,1.247.951.248,https://maps.google.com/?cid=0x0:0x61c46dfd348238a9,
perumahan,Komplek perumahan,Nasikbat,"MQ7J+F2J, Oekopa, Kec. Biboki Tan Pah, Kabupaten Timor Tengah Utara, Nusa Tenggara Tim.","Kabupaten Timor Tengah Utara, Nusa Tenggara Tim.",NUSA TENGGARA TIMUR,,Indonesia,,,,-9.336.291,1.247.800.102,https://maps.google.com/?cid=0x0:0xda567edaa824ac18,
perumahan,Komplek perumahan,Rumah om Eki Meni,"JQ59+58, T'eba, Kec. Biboki Tan Pah, Kabupaten Timor Tengah Utara, Nusa Tenggara Tim.","Kabupaten Timor Tengah Utara, Nusa Tenggara Tim.",NUSA TENGGARA TIMUR,,Indonesia,,,,-93.920.639,1.247.683.385,https://maps.google.com/?cid=0x0:0xb8b4c83df08095cb,
perumahan,Komplek perumahan,Rumah Pak Eki / Leo Meni Ekafalo,"JQ59+58, T'eba, Kec. Biboki Tan Pah, Kabupaten Timor Tengah Utara, Nusa Tenggara Tim.","Kabupaten Timor Tengah Utara, Nusa Tenggara Tim.",NUSA TENGGARA TIMUR,,Indonesia,,,,-93.920.785,1.247.683.737,https://maps.google.com/?cid=0x0:0x9557d8a74c79388f,
perumahan,perumahan,Biloe Fatufutu,"PR73+WQW, Biloe, Kec. Biboki Utara, Kabupaten Timor Tengah Utara, Nusa Tenggara Tim.","Kabupaten Timor Tengah Utara, Nusa Tenggara Tim.",NUSA TENGGARA TIMUR,,Indonesia,,,,-92.851.422,1.248.044.555,https://maps.google.com/?cid=0x0:0x8a924c6b1fb48235,
perumahan,Komplek perumahan,Oe ANA,"JQHV+F9V, T'eba Tim., Kec. Biboki Tan Pah, Kabupaten Timor Tengah Utara, Nusa Tenggara Tim.","Kabupaten Timor Tengah Utara, Nusa Tenggara Tim.",NUSA TENGGARA TIMUR,,Indonesia,,,,-93.712.594,1.247.934.109,https://maps.google.com/?cid=0x0:0xc5f5a1d83ca38932,
perumahan,Komplek perumahan,Oenopu Taluik A,"JQ9P+Q45, Jl. B. Amsikan Taluik A, T'eba Tim., Kec. Biboki Tan Pah, Kabupaten Timor Tengah Utara, Nusa Tenggara Tim.","Kabupaten Timor Tengah Utara, Nusa Tenggara Tim.",NUSA TENGGARA TIMUR,,Indonesia,,,,-93.806.038,1.247.853.464,https://maps.google.com/?cid=0x0:0x144c64b41bcbfb9e,
perumahan,Perhimpunan Pengembang Perumahan,Rumah HR,"JMFV+4J7, Upfaon, Kec. Biboki Sel., Kabupaten Timor Tengah Utara, Nusa Tenggara Tim.","Kabupaten Timor Tengah Utara, Nusa Tenggara Tim.",NUSA TENGGARA TIMUR,,Indonesia,,,,-93.772.026,124.694.043,https://maps.google.com/?cid=0x0:0xf9832c15534860be,
perumahan,Komplek perumahan,Rumah Laloni,"MP24+4JQ, Tokbesi, Kec. Biboki Sel., Kabupaten Timor Tengah Utara, Nusa Tenggara Tim.","Kabupaten Timor Tengah Utara, Nusa Tenggara Tim.",NUSA TENGGARA TIMUR,,Indonesia,,,,-93.496.505,1.247.066.032,https://maps.google.com/?cid=0x0:0x283f8b6bc2b77c19,
perumahan,Komplek perumahan,Perumahan Translok Oenopu,"JQHW+FF5, T'eba Tim., Kec. Biboki Tan Pah, Kabupaten Timor Tengah Utara, Nusa Tenggara Tim.","Kabupaten Timor Tengah Utara, Nusa Tenggara Tim.",NUSA TENGGARA TIMUR,,Indonesia,81238936150,,,-93.713.613,1.247.962.499,https://maps.google.com/?cid=0x0:0xebcb673cada58935,
perumahan,Komplek perumahan,Rmh MP,"MRF9+P43, Tualene, Kec. Biboki Utara, Kabupaten Timor Tengah Utara, Nusa Tenggara Tim.","Kabupaten Timor Tengah Utara, Nusa Tenggara Tim.",NUSA TENGGARA TIMUR,,Indonesia,,,,-9.325.445,1.248.172.097,https://maps.google.com/?cid=0x0:0xf019f923aed81416,
perumahan,Komplek perumahan,Gudang Kania,"MQHW+9F, Oekopa, Kec. Biboki Tan Pah, Kabupaten Timor Tengah Utara, Nusa Tenggara Tim.","Kabupaten Timor Tengah Utara, Nusa Tenggara Tim.",NUSA TENGGARA TIMUR,,Indonesia,82147042396,,,-93.213.642,1.247.968.752,https://maps.google.com/?cid=0x0:0xe31777f7c944ff10,
perumahan,Komplek perumahan,Rumah Rina Monemnasi,"MQHW+82Q Usapinaek, RT.009/RW005, Oekopa, Kec. Biboki Tan Pah, Kabupaten Timor Tengah Utara, Nusa Tenggara Tim.","Kabupaten Timor Tengah Utara, Nusa Tenggara Tim.",NUSA TENGGARA TIMUR,,Indonesia,,,,-93.216.515,1.247.951.174,https://maps.google.com/?cid=0x0:0xeac187a0b8310fed,
perumahan,Kantor Pemerintah,Kos biru,"JQ8H+9G8, T'eba, Kec. Biboki Tan Pah, Kabupaten Timor Tengah Utara, Nusa Tenggara Tim.","Kabupaten Timor Tengah Utara, Nusa Tenggara Tim.",NUSA TENGGARA TIMUR,,Indonesia,,,,-93.840.996,1.247.788.436,https://maps.google.com/?cid=0x0:0x14d28fb8ee260562,
perumahan,perumahan,Rumah emon monemnasi,"MQHW+82Q, RT.009/RW.005, Oekopa, Kec. Biboki Tan Pah, Kabupaten Timor Tengah Utara, Nusa Tenggara Tim.","Kabupaten Timor Tengah Utara, Nusa Tenggara Tim.",NUSA TENGGARA TIMUR,,Indonesia,,,,-932.197,12.479.428,https://maps.google.com/?cid=0x0:0x46352d6b723e4a17,
perumahan,Rumah Kaca,Rumah Bp. Alo Berek,"MPPR+C3J, Tautpah, Kec. Biboki Sel., Kabupaten Timor Tengah Utara, Nusa Tenggara Tim.","Kabupaten Timor Tengah Utara, Nusa Tenggara Tim.",NUSA TENGGARA TIMUR,,Indonesia,,,,-93.139.046,1.247.401.338,https://maps.google.com/?cid=0x0:0x25dbb9e3af7390a3,
perumahan,Komplek perumahan,Kecamatan biboki selatan,"MP24+FG7, Tokbesi, Kec. Biboki Sel., Kabupaten Timor Tengah Utara, Nusa Tenggara Tim.","Kabupaten Timor Tengah Utara, Nusa Tenggara Tim.",NUSA TENGGARA TIMUR,,Indonesia,,,,-93.488.396,1.247.062.878,https://maps.google.com/?cid=0x0:0xd505935f589f10fb,
perumahan,Komplek perumahan,Desa. Bikaes noef,"JQPC+FF, T'eba, Kec. Biboki Tan Pah, Kabupaten Timor Tengah Utara, Nusa Tenggara Tim.","Kabupaten Timor Tengah Utara, Nusa Tenggara Tim.",NUSA TENGGARA TIMUR,,Indonesia,,,,-93.638.572,1.247.711.972,https://maps.google.com/?cid=0x0:0x1461e5048e7ab552,
perumahan,Komplek perumahan,Rumah Gabriel Sako,"JMGW+2F, Upfaon, Kec. Biboki Sel., Kabupaten Timor Tengah Utara, Nusa Tenggara Tim.","Kabupaten Timor Tengah Utara, Nusa Tenggara Tim.",NUSA TENGGARA TIMUR,,Indonesia,,,,-93.748.979,1.246.962.133,https://maps.google.com/?cid=0x0:0x72b34b1c516e21ca,
perumahan,perumahan,bernadino pasi,"PQ4H+2R9, bernadino, Taunbaen, Kec. Biboki Utara, Kabupaten Timor Tengah Utara, Nusa Tenggara Tim.","Kabupaten Timor Tengah Utara, Nusa Tenggara Tim.",NUSA TENGGARA TIMUR,,Indonesia,,,,-92.949.639,124.779.603,https://maps.google.com/?cid=0x0:0xd29f9394d14e8383,
perumahan,perumahan,Rmh bpk octo bessie,"MRH6+CMF, Tualene, Kec. Biboki Utara, Kabupaten Timor Tengah Utara, Nusa Tenggara Tim.","Kabupaten Timor Tengah Utara, Nusa Tenggara Tim.",NUSA TENGGARA TIMUR,,Indonesia,,,,-9.321.441,124.811.615,https://maps.google.com/?cid=0x0:0x64c439404caab678,
perumahan,Pembangunan Perumahan,Lalian,"RH5R+QVH, Oepuah, Kec. Biboki Moenleu, Kabupaten Timor Tengah Utara, Nusa Tenggara Tim.","Kabupaten Timor Tengah Utara, Nusa Tenggara Tim.",NUSA TENGGARA TIMUR,,Indonesia,,,,-91.905.726,1.245.922.341,https://maps.google.com/?cid=0x0:0xc46da33e29dd610e,
perumahan,Perumahan,Nyamin Taolin,"RH2V+RPX, Oepuah, Kec. Biboki Moenleu, Kabupaten Timor Tengah Utara, Nusa Tenggara Tim.","Kabupaten Timor Tengah Utara, Nusa Tenggara Tim.",NUSA TENGGARA TIMUR,,Indonesia,,,,-91.978.885,1.245.943.513,https://maps.google.com/?cid=0x0:0x7a6cdafae2363f3c,
perumahan,perumahan,Kec. Biboki Moenleu,"Kabupaten Timor Tengah Utara, Nusa Tenggara Tim.","Kabupaten Timor Tengah Utara, Nusa Tenggara Tim.",NUSA TENGGARA TIMUR,,Indonesia,,,,-91.844.295,1.245.892.505,https://maps.google.com/?cid=0x0:0xffcdc7b928c19e19,
perumahan,Komplek perumahan,Joper,"RH4R+JV, Oepuah, Kec. Biboki Moenleu, Kabupaten Timor Tengah Utara, Nusa Tenggara Tim.","Kabupaten Timor Tengah Utara, Nusa Tenggara Tim.",NUSA TENGGARA TIMUR,,Indonesia,,,,-9.193.458,1.245.921.845,https://maps.google.com/?cid=0x0:0xd8c060422f0250af,
perumahan,Komplek perumahan,Desa Enokono,"PMF7+MCV, Luniup, Kec. Biboki Moenleu, Kabupaten Timor Tengah Utara, Nusa Tenggara Tim.","Kabupaten Timor Tengah Utara, Nusa Tenggara Tim.",NUSA TENGGARA TIMUR,,Indonesia,,,,-92.757.681,1.246.635.416,https://maps.google.com/?cid=0x0:0x2059884de1f4d116,
perumahan,Komplek perumahan,Ibu Sin Tulasi,"QHWW+248, Oepuah Sel., Kec. Biboki Moenleu, Kabupaten Timor Tengah Utara, Nusa Tenggara Tim.","Kabupaten Timor Tengah Utara, Nusa Tenggara Tim.",NUSA TENGGARA TIMUR,,Indonesia,,,,-92.049.521,1.245.953.233,https://maps.google.com/?cid=0x0:0x6513a87332444eec,
perumahan,perumahan,Nekleu,"RH4R+8V4, Oepuah, Kec. Biboki Moenleu, Kabupaten Timor Tengah Utara, Nusa Tenggara Tim.","Kabupaten Timor Tengah Utara, Nusa Tenggara Tim.",NUSA TENGGARA TIMUR,,Indonesia,,,,-91.942.351,1.245.922.052,https://maps.google.com/?cid=0x0:0x688720c027de3da2,
perumahan,Komplek perumahan,Gavi Home,"QHVX+R56, Oepuah Sel., Kec. Biboki Moenleu, Kabupaten Timor Tengah Utara, Nusa Tenggara Tim.","Kabupaten Timor Tengah Utara, Nusa Tenggara Tim.",NUSA TENGGARA TIMUR,,Indonesia,,,,-92.045.848,1.245.970.831,https://maps.google.com/?cid=0x0:0xb1a93c69f713d8b4,
perumahan,Komplek perumahan,Rumah Lando,"RHPQ+247, Oepuah Utara, Kec. Biboki Moenleu, Kabupaten Timor Tengah Utara, Nusa Tenggara Tim.","Kabupaten Timor Tengah Utara, Nusa Tenggara Tim.",NUSA TENGGARA TIMUR,,Indonesia,,,,-91.649.568,1.245.878.011,https://maps.google.com/?cid=0x0:0xef9b935cbc600a3a,
perumahan,Perumahan,Nabu,"QHXW+434, Oepuah Sel., Kec. Biboki Moenleu, Kabupaten Timor Tengah Utara, Nusa Tenggara Tim.","Kabupaten Timor Tengah Utara, Nusa Tenggara Tim.",NUSA TENGGARA TIMUR,,Indonesia,,,,-92.022.306,1.245.952.087,https://maps.google.com/?cid=0x0:0xeddc5ac05898a449,
perumahan,Perumahan,Rumah JJ,"RH2V+CW5 Naikefi, Oepuah, Kec. Biboki Moenleu, Kabupaten Timor Tengah Utara, Nusa Tenggara Tim.","Kabupaten Timor Tengah Utara, Nusa Tenggara Tim.",NUSA TENGGARA TIMUR,,Indonesia,,,,-91.989.885,1.245.948.613,https://maps.google.com/?cid=0x0:0x6ba2470bad356210,
perumahan,Pemakaman,Kuburan Naikefi,"QJMP+C89, Kaubele, Kec. Biboki Moenleu, Kabupaten Timor Tengah Utara, Nusa Tenggara Tim.","Kabupaten Timor Tengah Utara, Nusa Tenggara Tim.",NUSA TENGGARA TIMUR,,Indonesia,,,,-92.164.626,1.246.358.702,https://maps.google.com/?cid=0x0:0x82f52917aa298746,
perumahan,Perumahan,Inyosntz,"QJH9+VC, Kaubele, Kec. Biboki Moenleu, Kabupaten Timor Tengah Utara, Nusa Tenggara Tim.","Kabupaten Timor Tengah Utara, Nusa Tenggara Tim.",NUSA TENGGARA TIMUR,,Indonesia,,,,-9.220.336,1.246.186.009,https://maps.google.com/?cid=0x0:0xec4351c44cc82e8e,
perumahan,perumahan,Arildo Manewalu,"RHGR+X3, Oepuah Utara, Kec. Biboki Moenleu, Kabupaten Timor Tengah Utara, Nusa Tenggara Tim.","Kabupaten Timor Tengah Utara, Nusa Tenggara Tim.",NUSA TENGGARA TIMUR,,Indonesia,,,,-91.726.163,1.245.901.621,https://maps.google.com/?cid=0x0:0x21c51dba9275f48b,
perumahan,perumahan,Rumah Oja Fallo,"RHFQ+C8, Oepuah Utara, Kec. Biboki Moenleu, Kabupaten Timor Tengah Utara, Nusa Tenggara Tim.","Kabupaten Timor Tengah Utara, Nusa Tenggara Tim.",NUSA TENGGARA TIMUR,,Indonesia,,,,-9.176.466,1.245.882.963,https://maps.google.com/?cid=0x0:0xaaa7f44b9f549d9d,
perumahan,perumahan,Bpk. Yasintus Sanak,"RHGQ+4R, Oepuah Utara, Kec. Biboki Moenleu, Kabupaten Timor Tengah Utara, Nusa Tenggara Tim.","Kabupaten Timor Tengah Utara, Nusa Tenggara Tim.",NUSA TENGGARA TIMUR,,Indonesia,,,,-91.746.906,1.245.895.126,https://maps.google.com/?cid=0x0:0x5f80dabc066e1d67,
perumahan,Tempat Ibadah,Kuan Kaubele,"QHVW+52M, Oepuah Sel., Kec. Biboki Moenleu, Kabupaten Timor Tengah Utara, Nusa Tenggara Tim.","Kabupaten Timor Tengah Utara, Nusa Tenggara Tim.",NUSA TENGGARA TIMUR,,Indonesia,,,,-92.070.267,1.245.950.354,https://maps.google.com/?cid=0x0:0xfcb82cf283ebda6f,
perumahan,Pembangunan Perumahan,Fatbean,"QM4H+5CH, Luniup, Kec. Biboki Moenleu, Kabupaten Timor Tengah Utara, Nusa Tenggara Tim.","Kabupaten Timor Tengah Utara, Nusa Tenggara Tim.",NUSA TENGGARA TIMUR,,Indonesia,,,,-92.445.669,1.246.786.116,https://maps.google.com/?cid=0x0:0x6ee85a7f402f31b5,
perumahan,Pembangunan Perumahan,Tunbes,"RJ27+RQ2, Kaubele, Kec. Biboki Moenleu, Kabupaten Timor Tengah Utara, Nusa Tenggara Tim.","Kabupaten Timor Tengah Utara, Nusa Tenggara Tim.",NUSA TENGGARA TIMUR,,Indonesia,,,,-91.979.821,1.246.143.836,https://maps.google.com/?cid=0x0:0x6d393e30bc2f91da,
perumahan,Komplek perumahan,As'asu,"RHGR+8JX, Oepuah Utara, Kec. Biboki Moenleu, Kabupaten Timor Tengah Utara, Nusa Tenggara Tim.","Kabupaten Timor Tengah Utara, Nusa Tenggara Tim.",NUSA TENGGARA TIMUR,,Indonesia,,,,-91.741.292,1.245.915.966,https://maps.google.com/?cid=0x0:0x3579d67342aaf504,
perumahan,Komplek perumahan,Rumah Nita Usk,"VMCX+7P, Ponu, Kec. Biboki Anleu, Kabupaten Timor Tengah Utara, Nusa Tenggara Tim.","Kabupaten Timor Tengah Utara, Nusa Tenggara Tim.",NUSA TENGGARA TIMUR,,Indonesia,,,,-9.129.364,1.246.993.263,https://maps.google.com/?cid=0x0:0xf8ab7f4161d53acb,
perumahan,Pembangunan Perumahan,Taunbaen Timur,"PQ4H+2R9, Pullo, Taunbaen, timur, Kabupaten Timor Tengah Utara, Nusa Tenggara Tim.","Kabupaten Timor Tengah Utara, Nusa Tenggara Tim.",NUSA TENGGARA TIMUR,,Indonesia,,,,-92.949.639,124.779.603,https://maps.google.com/?cid=0x0:0x9170aed85478bdd7,
perumahan,Komplek perumahan,Oebiaek,"PQ4H+2R9, Taunbaen, Kec. Biboki Utara, Kabupaten Timor Tengah Utara, Nusa Tenggara Tim.","Kabupaten Timor Tengah Utara, Nusa Tenggara Tim.",NUSA TENGGARA TIMUR,,Indonesia,,,,-92.949.639,124.779.603,https://maps.google.com/?cid=0x0:0xf824a87823558eae,
perumahan,perumahan,Kec. Biboki Feotleu,"Kabupaten Timor Tengah Utara, Nusa Tenggara Tim.","Kabupaten Timor Tengah Utara, Nusa Tenggara Tim.",NUSA TENGGARA TIMUR,,Indonesia,,,,-92.547.794,1.247.394.859,https://maps.google.com/?cid=0x0:0x55a3789eb85e07b2,
perumahan,perumahan,MAKUN,"QQ3Q+F24, Makun, Kec. Biboki Feotleu, Kabupaten Timor Tengah Utara, Nusa Tenggara Tim.","Kabupaten Timor Tengah Utara, Nusa Tenggara Tim.",NUSA TENGGARA TIMUR,,Indonesia,,,,-92.463.628,124.787.586,https://maps.google.com/?cid=0x0:0x2fc4fdfec39016c9,
perumahan,perumahan,DONS HOME,"QQC9+PG, Manumean, Kec. Biboki Feotleu, Kabupaten Timor Tengah Utara, Nusa Tenggara Tim.","Kabupaten Timor Tengah Utara, Nusa Tenggara Tim.",NUSA TENGGARA TIMUR,,Indonesia,,,,-92.281.306,1.247.688.274,https://maps.google.com/?cid=0x0:0x560b06734cb165b6,
perumahan,Komplek perumahan,Herkan Atitus,"QQ8G+427, Makun, Kec. Biboki Feotleu, Kabupaten Timor Tengah Utara, Nusa Tenggara Tim.","Kabupaten Timor Tengah Utara, Nusa Tenggara Tim.",NUSA TENGGARA TIMUR,,Indonesia,,,,-92.354.595,1.247.746.301,https://maps.google.com/?cid=0x0:0xdcd8c116926cb9ef,
perumahan,Komplek perumahan,martinus bouk,"RQ5R+X72, Birunatun, Kec. Biboki Feotleu, Kabupaten Timor Tengah Utara, Nusa Tenggara Tim.","Kabupaten Timor Tengah Utara, Nusa Tenggara Tim.",NUSA TENGGARA TIMUR,,Indonesia,,,,-9.190.111,1.247.906.495,https://maps.google.com/?cid=0x0:0xbe38aacbc12011f9,
perumahan,Komplek perumahan,Ido tulas,"PPWQ+3QQ, Kuluan, Kec. Biboki Feotleu, Kabupaten Timor Tengah Utara, Nusa Tenggara Tim.","Kabupaten Timor Tengah Utara, Nusa Tenggara Tim.",NUSA TENGGARA TIMUR,,Indonesia,,,,-92.547.794,1.247.394.859,https://maps.google.com/?cid=0x0:0x93651d394c5525fd,
perumahan,perumahan,Efrem usboko Home,"QQ97+QWM, Manumean, Kec. Biboki Feotleu, Kabupaten Timor Tengah Utara, Nusa Tenggara Tim.","Kabupaten Timor Tengah Utara, Nusa Tenggara Tim.",NUSA TENGGARA TIMUR,,Indonesia,,,,-92.303.152,1.247.645.925,https://maps.google.com/?cid=0x0:0x84237bd24bebf347,
perumahan,perumahan,Lopo naek,"QQC9+RG, Manumean, Kec. Biboki Feotleu, Kabupaten Timor Tengah Utara, Nusa Tenggara Tim.","Kabupaten Timor Tengah Utara, Nusa Tenggara Tim.",NUSA TENGGARA TIMUR,,Indonesia,,,,-92.279.767,1.247.688.757,https://maps.google.com/?cid=0x0:0x812ce1ffd7224fd,
perumahan,Pembangunan Perumahan,Manenu,"MPQW+PQ, Tautpah, Kec. Biboki Sel., Kabupaten Timor Tengah Utara, Nusa Tenggara Tim.","Kabupaten Timor Tengah Utara, Nusa Tenggara Tim.",NUSA TENGGARA TIMUR,,Indonesia,,,,-93.106.692,1.247.469.033,https://maps.google.com/?cid=0x0:0x27df28f3139eebbd,
perumahan,perumahan,Desa makun,"PQXP+63C, Makun, Kec. Biboki Feotleu, Kabupaten Timor Tengah Utara, Nusa Tenggara Tim.","Kabupaten Timor Tengah Utara, Nusa Tenggara Tim.",NUSA TENGGARA TIMUR,,Indonesia,,,,-92.519.364,1.247.851.264,https://maps.google.com/?cid=0x0:0xaa30409aa1043308,
perumahan,Komplek perumahan,Yoseph Aryandi Tulasi,"PPRQ+QQM, Kuluan, Kec. Biboki Feotleu, Kabupaten Timor Tengah Utara, Nusa Tenggara Tim.","Kabupaten Timor Tengah Utara, Nusa Tenggara Tim.",NUSA TENGGARA TIMUR,,Indonesia,,,,-92.580.326,1.247.394.301,https://maps.google.com/?cid=0x0:0x9c9d2140169f6e28,
perumahan,perumahan,Rumah Elgan,"PRVQ+C63, Lokomea, Kec. Biboki Utara, Kabupaten Timor Tengah Utara, Nusa Tenggara Tim.","Kabupaten Timor Tengah Utara, Nusa Tenggara Tim.",NUSA TENGGARA TIMUR,,Indonesia,,,,-9.257.656,124.837.328,https://maps.google.com/?cid=0x0:0x12d5c536572dc1c7,
perumahan,Komplek perumahan,FORNESTO,"PR6M+RVJ, Boronubaen, Kec. Biboki Utara, Kabupaten Timor Tengah Utara, Nusa Tenggara Tim.","Kabupaten Timor Tengah Utara, Nusa Tenggara Tim.",NUSA TENGGARA TIMUR,,Indonesia,,,,-92.872.982,1.248.337.566,https://maps.google.com/?cid=0x0:0x583bdd7078162368,
perumahan,Komplek perumahan,Rumah Ibu Welly Nafanu,"PR8M+JG9, Boronubaen, Kec. Biboki Utara, Kabupaten Timor Tengah Utara, Nusa Tenggara Tim.","Kabupaten Timor Tengah Utara, Nusa Tenggara Tim.",NUSA TENGGARA TIMUR,,Indonesia,,,,-92.834.609,1.248.338.673,https://maps.google.com/?cid=0x0:0xcd026c97050928b1,
perumahan,perumahan,bernadino pasi,"PQ4H+2R9, bernadino, Taunbaen, Kec. Biboki Utara, Kabupaten Timor Tengah Utara, Nusa Tenggara Tim.","Kabupaten Timor Tengah Utara, Nusa Tenggara Tim.",NUSA TENGGARA TIMUR,,Indonesia,,,,-92.949.639,124.779.603,https://maps.google.com/?cid=0x0:0xd29f9394d14e8383,
perumahan,Komplek perumahan,Banoko,"PR8C+MCC, Hauteas, Kec. Biboki Utara, Kabupaten Timor Tengah Utara, Nusa Tenggara Tim.","Kabupaten Timor Tengah Utara, Nusa Tenggara Tim.",NUSA TENGGARA TIMUR,,Indonesia,,,,-92.833.084,1.248.210.198,https://maps.google.com/?cid=0x0:0xdcd9ea1bad7420de,
perumahan,Komplek perumahan,Rumah Marselinusmanehat,"PR68+7X2, Biloe, Kec. Biboki Utara, Kabupaten Timor Tengah Utara, Nusa Tenggara Tim.","Kabupaten Timor Tengah Utara, Nusa Tenggara Tim.",NUSA TENGGARA TIMUR,,Indonesia,81237251488,,,-92.898.787,1.248.185.447,https://maps.google.com/?cid=0x0:0x30e0a9f53b114a8a,
perumahan,Komplek perumahan,Oetfo B - Fonsega Entertainment,"QV65+JQ9, Naekasa, Kec. Tasifeto Bar., Kabupaten Belu, Nusa Tenggara Tim.","Kabupaten Belu, Nusa Tenggara Tim.",NUSA TENGGARA TIMUR,,Indonesia,,,,-92.384.659,124.859.479,https://maps.google.com/?cid=0x0:0x1cc2cc018ded390b,
perumahan,Rumah Kaca,Rumah Bp. Alo Berek,"MPPR+C3J, Tautpah, Kec. Biboki Sel., Kabupaten Timor Tengah Utara, Nusa Tenggara Tim.","Kabupaten Timor Tengah Utara, Nusa Tenggara Tim.",NUSA TENGGARA TIMUR,,Indonesia,,,,-93.139.046,1.247.401.338,https://maps.google.com/?cid=0x0:0x25dbb9e3af7390a3,
perumahan,Komplek perumahan,Neofmuti,"PQ3Q+WFQ, Taunbaen, Kec. Biboki Utara, Kabupaten Timor Tengah Utara, Nusa Tenggara Tim.","Kabupaten Timor Tengah Utara, Nusa Tenggara Tim.",NUSA TENGGARA TIMUR,,Indonesia,82124229838,,,-92.951.558,1.247.887.305,https://maps.google.com/?cid=0x0:0xe86a49f0ad583594,
perumahan,Komplek perumahan,Rumah Mundus Fahik,"PR5F+X7R, Unnamed Road, Hauteas, Kec. Biboki Utara, Kabupaten Timor Tengah Utara, Nusa Tenggara Tim.","Kabupaten Timor Tengah Utara, Nusa Tenggara Tim.",NUSA TENGGARA TIMUR,,Indonesia,,,,-9.290.017,1.248.231.292,https://maps.google.com/?cid=0x0:0x1374ba91096601d2,
perumahan,Komplek perumahan,Biinmaffo Residence Kefamenanu,"GGP8+MVH, Tubuhue, Kec. Kota Kefamenanu, Kabupaten Timor Tengah Utara, Nusa Tenggara Tim.","Kabupaten Timor Tengah Utara, Nusa Tenggara Tim.",NUSA TENGGARA TIMUR,,Indonesia,82144789744,,,-94.633.129,1.245.172.305,https://maps.google.com/?cid=0x0:0x31a47e0667d0a3f9,
perumahan,Komplek perumahan,DusTa Paebesi,"PRCP+W4V, Jl. Gang Lerok, Boronubaen, Kec. Biboki Utara, Kabupaten Timor Tengah Utara, Nusa Tenggara Tim.","Kabupaten Timor Tengah Utara, Nusa Tenggara Tim.",NUSA TENGGARA TIMUR,,Indonesia,,,,-9.277.636,1.248.353.039,https://maps.google.com/?cid=0x0:0x3be9a087e99a0bb9,
perumahan,Komplek perumahan,Adi Bukifan,"PRCP+W4V, Jl. Gang Lerok, Boronubaen, Kec. Biboki Utara, Kabupaten Timor Tengah Utara, Nusa Tenggara Tim.","Kabupaten Timor Tengah Utara, Nusa Tenggara Tim.",NUSA TENGGARA TIMUR,,Indonesia,,,,-92.776.375,1.248.352.969,https://maps.google.com/?cid=0x0:0x14abdf9861011fa7,
perumahan,Pembangunan Perumahan,TUGU TUNGGAL OEROKI,"PR4Q+59C, Boronubaen, Kec. Biboki Utara, Kabupaten Timor Tengah Utara, Nusa Tenggara Tim.","Kabupaten Timor Tengah Utara, Nusa Tenggara Tim.",NUSA TENGGARA TIMUR,,Indonesia,,,,-92.945.639,1.248.383.831,https://maps.google.com/?cid=0x0:0xd8836aa01bede4d0,
perumahan,perumahan,Kec. Bikomi Utara,"Kabupaten Timor Tengah Utara, Nusa Tenggara Tim.","Kabupaten Timor Tengah Utara, Nusa Tenggara Tim.",NUSA TENGGARA TIMUR,,Indonesia,,,,-93.626.886,1.243.937.207,https://maps.google.com/?cid=0x0:0x54133cb7a6edc11b,
perumahan,Pembangunan Perumahan,Kampung lama,"JC63+C84, Desa Tes, Kampung, Oenaek, Kec. Bikomi Utara, Kabupaten Timor Tengah Utara, Nusa Tenggara Tim.","Kabupaten Timor Tengah Utara, Nusa Tenggara Tim.",NUSA TENGGARA TIMUR,,Indonesia,,,,-93.889.978,1.244.033.131,https://maps.google.com/?cid=0x0:0x1260a1cb3cabeb49,
perumahan,Komplek perumahan,Napan Bikomi Utara,"J9PV+6QC, Napan, Kec. Kota Kefamenanu, Kabupaten Timor Tengah Utara, Nusa Tenggara Tim.","Kabupaten Timor Tengah Utara, Nusa Tenggara Tim.",NUSA TENGGARA TIMUR,,Indonesia,,,,-93.644.279,1.243.943.761,https://maps.google.com/?cid=0x0:0x649d08a9f7c7c226,
perumahan,Highway patrol,Banain A,"JCJF+RV, Banain, Kec. Bikomi Utara, Kabupaten Timor Tengah Utara, Nusa Tenggara Tim.","Kabupaten Timor Tengah Utara, Nusa Tenggara Tim.",NUSA TENGGARA TIMUR,,Indonesia,,,,-93.679.001,1.244.246.319,https://maps.google.com/?cid=0x0:0xac78500de7301c54,
perumahan,perumahan,Rumah Joi Sikiii,"J9PV+9JM, Napan, Kec. Bikomi Utara, Kabupaten Timor Tengah Utara, Nusa Tenggara Tim.","Kabupaten Timor Tengah Utara, Nusa Tenggara Tim.",NUSA TENGGARA TIMUR,,Indonesia,,,,-93.640.416,1.243.940.547,https://maps.google.com/?cid=0x0:0xee73d0037346f3b,
perumahan,Pembangunan Perumahan,Yosefina obe,"J9MR+HRG, Napan, Kec. Bikomi Utara, Kabupaten Timor Tengah Utara, Nusa Tenggara Tim.","Kabupaten Timor Tengah Utara, Nusa Tenggara Tim.",NUSA TENGGARA TIMUR,,Indonesia,,,,-93.660.663,1.243.920.876,https://maps.google.com/?cid=0x0:0xc5e5ac4bcbc17c6c,
perumahan,Komplek perumahan,Rumah Bapa Yosef Nino,"HCR2+3P, Buk, Kec. Bikomi Tengah, Kabupaten Timor Tengah Utara, Nusa Tenggara Tim.","Kabupaten Timor Tengah Utara, Nusa Tenggara Tim.",NUSA TENGGARA TIMUR,,Indonesia,,,,-94.098.659,1.244.018.545,https://maps.google.com/?cid=0x0:0x809da991b8609958,
perumahan,Komplek perumahan,Sainoni,"JCF8+WRM, Sainoni, Kec. Bikomi Utara, Kabupaten Timor Tengah Utara, Nusa Tenggara Tim.","Kabupaten Timor Tengah Utara, Nusa Tenggara Tim.",NUSA TENGGARA TIMUR,,Indonesia,,,,-93.751.631,124.417.051,https://maps.google.com/?cid=0x0:0x56dd1490bbb62b5a,
perumahan,Perhimpunan Pengembang Perumahan,Rumah Bapa Anton Metan,"HCQ4+MHC, Buk, Kec. Bikomi Tengah, Kabupaten Timor Tengah Utara, Nusa Tenggara Tim.","Kabupaten Timor Tengah Utara, Nusa Tenggara Tim.",NUSA TENGGARA TIMUR,,Indonesia,,,,-94.109.183,1.244.075.747,https://maps.google.com/?cid=0x0:0xb14d76b09fd7dd84,
perumahan,Komplek perumahan,Rumah mama Deta Siki,"JCJ2+3VH, Napan, Kec. Bikomi Utara, Kabupaten Timor Tengah Utara, Nusa Tenggara Tim.","Kabupaten Timor Tengah Utara, Nusa Tenggara Tim.",NUSA TENGGARA TIMUR,,Indonesia,,,,-93.702.806,1.244.022.472,https://maps.google.com/?cid=0x0:0xd611c412ddbf50aa,
perumahan,Komplek perumahan,Rumah yasintus eko,"JCG2+VX, Tes, Kec. Bikomi Utara, Kabupaten Timor Tengah Utara, Nusa Tenggara Tim.","Kabupaten Timor Tengah Utara, Nusa Tenggara Tim.",NUSA TENGGARA TIMUR,,Indonesia,,,,-93.720.572,1.244.016.988,https://maps.google.com/?cid=0x0:0x5187d23a185f45c9,
perumahan,Komplek perumahan,Rumah Petrus Nono,"J9MR+J2, Napan, Kec. Bikomi Utara, Kabupaten Timor Tengah Utara, Nusa Tenggara Tim.","Kabupaten Timor Tengah Utara, Nusa Tenggara Tim.",NUSA TENGGARA TIMUR,,Indonesia,,,,-93.659.465,1.243.900.864,https://maps.google.com/?cid=0x0:0x7f06309f3fab7e7e,
perumahan,Komplek perumahan,Rumah mama Lusia Meta,"JCG2+VX, Tes, Kec. Bikomi Utara, Kabupaten Timor Tengah Utara, Nusa Tenggara Tim.","Kabupaten Timor Tengah Utara, Nusa Tenggara Tim.",NUSA TENGGARA TIMUR,,Indonesia,,,,-93.726.493,1.244.018.684,https://maps.google.com/?cid=0x0:0x7b523af480bcea9d,
perumahan,Pembangunan Perumahan,BALI (BALe Isteo),"JCRC+8Q, Banain C, Kec. Bikomi Utara, Kabupaten Timor Tengah Utara, Nusa Tenggara Tim.","Kabupaten Timor Tengah Utara, Nusa Tenggara Tim.",NUSA TENGGARA TIMUR,,Indonesia,,,,-93.591.849,1.244.219.126,https://maps.google.com/?cid=0x0:0x1582b267d09bc792,
perumahan,Perhimpunan Pengembang Perumahan,Buk,"HCQ4+MHC, Buk, Kec. Bikomi Tengah, Kabupaten Timor Tengah Utara, Nusa Tenggara Tim.","Kabupaten Timor Tengah Utara, Nusa Tenggara Tim.",NUSA TENGGARA TIMUR,,Indonesia,,,,-94.107.997,1.244.063.905,https://maps.google.com/?cid=0x0:0xc3ee686a880ba3bf,
perumahan,Komplek perumahan,Toni eko kuafeu,"JCF2+MPC, Tes, Kec. Bikomi Utara, Kabupaten Timor Tengah Utara, Nusa Tenggara Tim.","Kabupaten Timor Tengah Utara, Nusa Tenggara Tim.",NUSA TENGGARA TIMUR,,Indonesia,81216201529,,,-93.758.209,1.244.017.517,https://maps.google.com/?cid=0x0:0xa680ed40514c2bae,
perumahan,Komplek perumahan,Rumahnya Paulus Afoan,"JCH3+372, Napan, Kec. Bikomi Utara, Kabupaten Timor Tengah Utara, Nusa Tenggara Tim.","Kabupaten Timor Tengah Utara, Nusa Tenggara Tim.",NUSA TENGGARA TIMUR,,Indonesia,,,,-93.723.733,124.403.136,https://maps.google.com/?cid=0x0:0x5d6f383c67006aea,
perumahan,Kantor Pos,Pos baru TNI napan,"J9QV+CF5, Napan, Kec. Bikomi Utara, Kabupaten Timor Tengah Utara, Nusa Tenggara Tim.","Kabupaten Timor Tengah Utara, Nusa Tenggara Tim.",NUSA TENGGARA TIMUR,,Indonesia,,,,-9.361.494,1.243.937.342,https://maps.google.com/?cid=0x0:0xef85a68d431f8a80,
perumahan,Komplek perumahan,Lius sila,"JCPC+FQH, Banain, Kec. Bikomi Utara, Kabupaten Timor Tengah Utara, Nusa Tenggara Tim.","Kabupaten Timor Tengah Utara, Nusa Tenggara Tim.",NUSA TENGGARA TIMUR,,Indonesia,,,,-93.640.589,1.244.225.069,https://maps.google.com/?cid=0x0:0x8589955ef9bc8e3a,
perumahan,Komplek perumahan,Rumah ipy sasi,"HCR6+6P4, Haumeni, Kec. Bikomi Utara, Kabupaten Timor Tengah Utara, Nusa Tenggara Tim.","Kabupaten Timor Tengah Utara, Nusa Tenggara Tim.",NUSA TENGGARA TIMUR,,Indonesia,,,,-94.091.001,1.244.121.657,https://maps.google.com/?cid=0x0:0x6ca035816ffc34eb,
perumahan,Komplek perumahan,Rumah Marselinus Sasi,"HCVH+6V, Faennake, Kec. Bikomi Utara, Kabupaten Timor Tengah Utara, Nusa Tenggara Tim.","Kabupaten Timor Tengah Utara, Nusa Tenggara Tim.",NUSA TENGGARA TIMUR,,Indonesia,,,,-94.069.964,1.244.297.043,https://maps.google.com/?cid=0x0:0x5f4eb3126c9e7682,
perumahan,Pembangunan Perumahan,Fatunaenu,"J9PV+WFH, Napan, Kec. Bikomi Utara, Kabupaten Timor Tengah Utara, Nusa Tenggara Tim.","Kabupaten Timor Tengah Utara, Nusa Tenggara Tim.",NUSA TENGGARA TIMUR,,Indonesia,,,,-93.626.886,1.243.937.207,https://maps.google.com/?cid=0x0:0x50804b4a01cac910,
