Category;Real Category;Business Name;Address;City;State;Postal Code;Country;Phone;Email;Website;Latitude;Longitude;Map Link;Details Link
komplek housing;komplek housing;Sumatera Utara 21256;"Kec. Air Putih, Kabupaten Batu Bara, Sumatera Utara";"Kabupaten Batu Bara, Sumatera Utara";SUMATERA UTARA;;Indonesia;;;;33.038.803;994.228.263;https://maps.google.com/?cid=0x0:0x859a198a23ab8dc8;
komplek housing;komplek housing;Perumahan Putri Indah Permai No. 38;"79GC+52W, Jl. Datuk Umar Palangki, Tanah Merah, Kec. Air Putih, Kabupaten Batu Bara, Sumatera Utara";"Kabupaten Batu Bara, Sumatera Utara";SUMATERA UTARA;;Indonesia;;;;32.754.869;99.370.093;https://maps.google.com/?cid=0x0:0x27dfac4bb4ce16fd;
komplek housing;Komplek perumahan;Perumahan;"79J7+49V, Ps. Lapan, Kec. Air Putih, Kabupaten Batu Bara, Sumatera Utara 21256";"Ps. Lapan, Kec. Air Putih, Kabupaten Batu Bara";SUMATERA UTARA;21256;Indonesia;;;;32.803.665;993.634.142;https://maps.google.com/?cid=0x0:0x7670fecaf20c4b42;
komplek housing;Pembangunan Perumahan;Perumahan Mutiara Asri;"79HG+89V, Aras, Kec. Air Putih, Kabupaten Batu Bara, Sumatera Utara 21256";"Aras, Kec. Air Putih, Kabupaten Batu Bara";SUMATERA UTARA;21256;Indonesia;;;;32.787.662;993.756.459;https://maps.google.com/?cid=0x0:0x9a0d94276fb07db1;
komplek housing;Komplek perumahan;Komplek Tanjung Gading Inalum;"886Q+FQG, Indrapura, Kec. Air Putih, Kabupaten Batu Bara, Sumatera Utara 21256";"Indrapura, Kec. Air Putih, Kabupaten Batu Bara";SUMATERA UTARA;21256;Indonesia;081262856457;;;33.111.882;993.394.411;https://maps.google.com/?cid=0x0:0xe64b073e5e911723;
komplek housing;Komplek perumahan;Perumahan Te Amo City;"79C8+MPJ, Tanah Merah, Kec. Air Putih, Kabupaten Batu Bara, Sumatera Utara 21256";"Tanah Merah, Kec. Air Putih, Kabupaten Batu Bara";SUMATERA UTARA;21256;Indonesia;;;;32.717.128;993.667.687;https://maps.google.com/?cid=0x0:0xa8fc04c9c9c30929;
komplek housing;;Perumahan Leo;"795Q+V6, Sukaraja, Kec. Air Putih, Kabupaten Batu Bara, Sumatera Utara";"Kabupaten Batu Bara, Sumatera Utara";SUMATERA UTARA;;Indonesia;;;;32.589.398;99.388.151;https://maps.google.com/?cid=0x0:0x1f5efc80f377f85f;
komplek housing;Komplek perumahan;Hilfa house;"79FF+R43, Tanah Merah, Kec. Air Putih, Kabupaten Batu Bara, Sumatera Utara 21256";"Tanah Merah, Kec. Air Putih, Kabupaten Batu Bara";SUMATERA UTARA;21256;Indonesia;;;;32.745.226;993.727.822;https://maps.google.com/?cid=0x0:0x285df923b24bdfd2;
komplek housing;Pembangunan Perumahan;PERUMAHAN VILA SEGI TIGA INDAH;"79X9+2CC, Dusun I, Desa Tanjung Mulya, Kec. Air Putih, Kabupaten Batu Bara, Sumatera Utara";"Kabupaten Batu Bara, Sumatera Utara";SUMATERA UTARA;;Indonesia;;;;32.975.704;993.685.259;https://maps.google.com/?cid=0x0:0xb1c7df991b1b53eb;
komplek housing;Komplek perumahan;PERUMAHAN INDAH PERMAI;"7997+X7F, Tanah Merah, Kec. Air Putih, Kabupaten Batu Bara, Sumatera Utara";"Kabupaten Batu Bara, Sumatera Utara";SUMATERA UTARA;;Indonesia;;;;32.699.283;993.631.683;https://maps.google.com/?cid=0x0:0xde5a9c02946dea46;
komplek housing;Komplek perumahan;Rumah;"79G9+2X5, Perum. Putri Indah Permai Jl. Datuk Umar Palangki, Tanah Merah, Kec. Air Putih, Kabupaten Batu Bara, Sumatera Utara 21256";"Perum. Putri Indah Permai Jl. Datuk Umar Palangki, Tanah Merah, Kec. Air Putih, Kabupaten Batu Bara";SUMATERA UTARA;21256;Indonesia;;;;32.750.519;993.699.567;https://maps.google.com/?cid=0x0:0x59e28e8a285911ec;
komplek housing;Komplek perumahan;ITO SINAGA;"8FG5+GP8, Suka Ramai, Kec. Air Putih, Kabupaten Batu Bara, Sumatera Utara 21256";"Suka Ramai, Kec. Air Putih, Kabupaten Batu Bara";SUMATERA UTARA;21256;Indonesia;;;;33.263.494;994.592.352;https://maps.google.com/?cid=0x0:0xeba3da2c952a78c7;
komplek housing;Komplek perumahan;Perumahan permai;"79CC+R2P, Gang kede perumahan permai, Tanah Merah, Kec. Air Putih, Kabupaten Batu Bara, Sumatera Utara 21256";"Gang kede perumahan permai, Tanah Merah, Kec. Air Putih, Kabupaten Batu Bara";SUMATERA UTARA;21256;Indonesia;;;;32.720.789;993.700.834;https://maps.google.com/?cid=0x0:0x47901d7d5739525c;
komplek housing;Komplek perumahan;Kompleks Madani;"7987+R5V, Tanah Merah, Kec. Air Putih, Kabupaten Batu Bara, Sumatera Utara 21256";"Tanah Merah, Kec. Air Putih, Kabupaten Batu Bara";SUMATERA UTARA;21256;Indonesia;;;;32.671.116;993.629.121;https://maps.google.com/?cid=0x0:0x77031f857d073222;
komplek housing;Pembangunan Perumahan;Theo Sianturi;"798H+R2, Tanah Tinggi, Kec. Air Putih, Kabupaten Batu Bara, Sumatera Utara";"Kabupaten Batu Bara, Sumatera Utara";SUMATERA UTARA;;Indonesia;;;;32.671.507;99.377.532;https://maps.google.com/?cid=0x0:0x90626ff269c9f2d9;
komplek housing;Pembangunan Perumahan;Sumatera utara;"79QC+7HQ, Indrapura, Kec. Air Putih, Kabupaten Batu Bara, Sumatera Utara";"Kabupaten Batu Bara, Sumatera Utara";SUMATERA UTARA;;Indonesia;;;;32.882.149;99.371.471;https://maps.google.com/?cid=0x0:0x39b0e7a147e8c60c;
komplek housing;Komplek perumahan;Depot isi ulang air;"Sumatera Utara, Kabupaten Batu Bara, Kec. Air Putih, Tanah Merahjalan datuk umar pelangki????: 21256";"Kabupaten Batu Bara, Kec. Air Putih";SUMATERA UTARA;21256;Indonesia;;;;32.842.122;994.006.146;https://maps.google.com/?cid=0x0:0x6cb47c2edaf79bf0;
komplek housing;Pembangunan Perumahan;Perumahan Titi Payung Permai Indah 2;"79V6+8HX, JL. T. Rahmadsyah, Sipare-Pare, Air Putih, Batu Bara Regency, North Sumatra 21257";"JL. T. Rahmadsyah, Sipare-Pare, Air Putih, Batu Bara Regency";SUMATERA UTARA;21257;Indonesia;;;;32.933.669;993.614.898;https://maps.google.com/?cid=0x0:0x10991787cec6842;
komplek housing;komplek housing;PDT.H.SARAGI.Sth;"7C65+V3J, Pematang Panjang, Kec. Air Putih, Kabupaten Batu Bara, Sumatera Utara 21255";"Pematang Panjang, Kec. Air Putih, Kabupaten Batu Bara";SUMATERA UTARA;21255;Indonesia;;;;32.622.017;994.076.546;https://maps.google.com/?cid=0x0:0xdab04fbcf71e624d;
komplek housing;Komplek perumahan;Dusun mahoni;"79QW+M2W, Aras, Kec. Air Putih, Kabupaten Batu Bara, Sumatera Utara 21256";"Aras, Kec. Air Putih, Kabupaten Batu Bara";SUMATERA UTARA;21256;Indonesia;;;;3.289.234;993.950.626;https://maps.google.com/?cid=0x0:0xa3e97f1445df9106;
komplek housing;komplek housing;Kec. Air Putih;"Kabupaten Batu Bara, Sumatera Utara";"Kabupaten Batu Bara, Sumatera Utara";SUMATERA UTARA;;Indonesia;;;;32.812.404;99.370.312;https://maps.google.com/?cid=0x0:0xd7eca3484db6e3d6;
komplek housing;Komplek perumahan;Hunian;"PWC9+39R, Jl. Bojong Tua, RT.009/RW.008, Jatimakmur, Kec. Pd. Gede, Kota Bks, Jawa Barat 17411";"Jl. Bojong Tua, RT.009/RW.008, Jatimakmur, Kec. Pd. Gede, Kota Bks";SUMATERA UTARA;17411;Indonesia;08116145185;;;-6.279.762;106.918.378;https://maps.google.com/?cid=0x0:0x677c66a269a60ad1;
komplek housing;Agen Sewa Ruangan Eksekutif;Rumah123;"Level 37 EightyEight @ Kasablanka, Jl. Raya Casablanca No.Kav.88, RT.16/RW.5, Menteng Dalam, Kec. Tebet, Kota Jakarta Selatan, Daerah Khusus Ibukota Jakarta 12870";"Jl. Raya Casablanca No.Kav.88, RT.16/RW.5, Menteng Dalam, Kec. Tebet, Kota Jakarta Selatan";SUMATERA UTARA;12870;Indonesia;02130496123;;;-62.243.351;1.068.418.884;https://maps.google.com/?cid=0x0:0xf630aa910b38c808;
komplek housing;Komplek perumahan;Grand Surya Estate;"Jl. Baru Underpass No.9, Duren Jaya, Kec. Bekasi Tim., Kota Bks, Jawa Barat 17111";"Duren Jaya, Kec. Bekasi Tim., Kota Bks";SUMATERA UTARA;17111;Indonesia;08128880910;;;-62.267.326;1.070.277.356;https://maps.google.com/?cid=0x0:0x219b7064010c0582;
komplek housing;Komplek perumahan;Artha Kencana;"PW4P+PF7, Jl. Kav. Artha Kencana, RT.9/RW.2, Cilangkap, Kec. Pd. Gede, Kota Jakarta Timur, Daerah Khusus Ibukota Jakarta";"Kota Jakarta Timur, Daerah Khusus Ibukota Jakarta";SUMATERA UTARA;;Indonesia;;;;-62.932.195;1.069.361.767;https://maps.google.com/?cid=0x0:0x7c758e5a0c03748e;
komplek housing;komplek housing;Komplek Housing;"Blok Bojong Nangka I, Jl. Ring Rudal Blok Bojong Nangka I No.68, RT.001/RW.007, Jatirahayu, Kec. Pd. Melati, Kota Bks, Jawa Barat 17414";"Jl. Ring Rudal Blok Bojong Nangka I No.68, RT.001/RW.007, Jatirahayu, Kec. Pd. Melati, Kota Bks";SUMATERA UTARA;17414;Indonesia;;;;-6.293.724;1.069.165.114;https://maps.google.com/?cid=0x0:0x9c50464976dee674;
komplek housing;komplek housing;Sumatera Utara 21255;"Kec. Lima Puluh, Kabupaten Batu Bara, Sumatera Utara";"Kabupaten Batu Bara, Sumatera Utara";SUMATERA UTARA;;Indonesia;;;;31.941.339;994.783.816;https://maps.google.com/?cid=0x0:0xe5004ab9f4e4c92d;
komplek housing;Komplek perumahan;Komplek Perumahan Socfin Limapuluh;"5CG7+947, Lima Puluh Kota, Kec. Lima Puluh, Kabupaten Batu Bara, Sumatera Utara 21255";"Lima Puluh Kota, Kec. Lima Puluh, Kabupaten Batu Bara";SUMATERA UTARA;21255;Indonesia;;;;31.759.006;994.127.921;https://maps.google.com/?cid=0x0:0x1cf36701b05466cf;
komplek housing;Komplek perumahan;Perumahan DL Sitorus 3;"6F8F+2R2, Pulau Sejuk, Kec. Lima Puluh, Kabupaten Batu Bara, Sumatera Utara 21255";"Pulau Sejuk, Kec. Lima Puluh, Kabupaten Batu Bara";SUMATERA UTARA;21255;Indonesia;;;;32.150.109;994.745.044;https://maps.google.com/?cid=0x0:0x806e485982627329;
komplek housing;Perhimpunan Pengembang Perumahan;Muhammad Hendriawansyah;"5FV8+2R7, Jl. Datuk Lima Puluh, Empat Negeri, Kec. Lima Puluh, Kabupaten Batu Bara, Sumatera Utara 21255";"Jl. Datuk Lima Puluh, Empat Negeri, Kec. Lima Puluh, Kabupaten Batu Bara";SUMATERA UTARA;21255;Indonesia;;;;3.192.526;99.467.055;https://maps.google.com/?cid=0x0:0x88bb3e736d07e43b;
komplek housing;Komplek perumahan;My Child Home;"5C8G+JVJ, Lima Puluh Kota, Kec. Lima Puluh, Kabupaten Batu Bara, Sumatera Utara 21255";"Lima Puluh Kota, Kec. Lima Puluh, Kabupaten Batu Bara";SUMATERA UTARA;21255;Indonesia;;;;31.665.772;994.271.452;https://maps.google.com/?cid=0x0:0x239c268e68af9f2;
komplek housing;Rumah wisata;S. Sitohang home;"7FG7+C7V, Unnamed Road, Bulan-Bulan, Kec. Lima Puluh, Kabupaten Batu Bara, Sumatera Utara 21255";"Unnamed Road, Bulan-Bulan, Kec. Lima Puluh, Kabupaten Batu Bara";SUMATERA UTARA;21255;Indonesia;;;;32.761.164;994.631.666;https://maps.google.com/?cid=0x0:0x3b32f07460a29e26;
komplek housing;Komplek perumahan;Perumahan Griya Megah Lima Puluh;"5C88+V4M, Lima Puluh Kota, Kec. Lima Puluh, Kabupaten Batu Bara, Sumatera Utara 21255";"Lima Puluh Kota, Kec. Lima Puluh, Kabupaten Batu Bara";SUMATERA UTARA;21255;Indonesia;;;;3.167.856;994.153.389;https://maps.google.com/?cid=0x0:0xdd05dc006cfbc994;
komplek housing;Komplek perumahan;Rumah Budi Siahaan  Desi Silitonga;"5CC8+63Q, Lima Puluh Kota, Kec. Lima Puluh, Kabupaten Batu Bara, Sumatera Utara";"Kabupaten Batu Bara, Sumatera Utara";SUMATERA UTARA;;Indonesia;;;;31.705.849;994.152.292;https://maps.google.com/?cid=0x0:0xbd7a078f02706a79;
komplek housing;Komplek perumahan;Rumah;"5C99+HWG, Jl. Rambutan, Lima Puluh Kota, Kec. Lima Puluh, Kabupaten Batu Bara, Sumatera Utara 21255";"Jl. Rambutan, Lima Puluh Kota, Kec. Lima Puluh, Kabupaten Batu Bara";SUMATERA UTARA;21255;Indonesia;;;;31.689.376;994.198.353;https://maps.google.com/?cid=0x0:0xbe820356e42e2226;
komplek housing;Pembangunan Perumahan;Nurul jaehyun house;"5FR8+4HM, Empat Negeri, Kec. Lima Puluh, Kabupaten Batu Bara, Sumatera Utara 21255";"Empat Negeri, Kec. Lima Puluh, Kabupaten Batu Bara";SUMATERA UTARA;21255;Indonesia;;;;31.903.311;994.664.131;https://maps.google.com/?cid=0x0:0xa5b7d087fb7e2627;
komplek housing;Komplek perumahan;Rumah Anan suhendi;"7FFF+VQJ, Jl. Pematang Jernang, Perupuk, Kec. Lima Puluh, Kabupaten Batu Bara, Sumatera Utara 21255";"Jl. Pematang Jernang, Perupuk, Kec. Lima Puluh, Kabupaten Batu Bara";SUMATERA UTARA;21255;Indonesia;;;;32.748.002;994.756.248;https://maps.google.com/?cid=0x0:0x2601970ce2b1557c;
komplek housing;Komplek perumahan;My home;"5C5W+678, Unnamed Road, Sumber Padi, Kec. Lima Puluh, Kabupaten Batu Bara, Sumatera Utara 21255";"Unnamed Road, Sumber Padi, Kec. Lima Puluh, Kabupaten Batu Bara";SUMATERA UTARA;21255;Indonesia;;;;31.580.463;994.456.999;https://maps.google.com/?cid=0x0:0x8aa9162e4720d5c2;
komplek housing;Komplek perumahan;anti wd;"6CXC+6G5, Simpang Gambus, Kec. Lima Puluh, Kabupaten Batu Bara, Sumatera Utara 21255";"Simpang Gambus, Kec. Lima Puluh, Kabupaten Batu Bara";SUMATERA UTARA;21255;Indonesia;;;;32.480.134;994.213.571;https://maps.google.com/?cid=0x0:0xb2262cbf9229f2d;
komplek housing;Komplek perumahan;HOME RINEFRI;"4FRP+V47, Desa gelugur makmur dusun II Kecamatan Datuk Tanah Datar, Petatal, Kec. Talawi, Kabupaten Batu Bara, Sumatera Utara 21255";"Desa gelugur makmur dusun II Kecamatan Datuk Tanah Datar, Petatal, Kec. Talawi, Kabupaten Batu Bara";SUMATERA UTARA;21255;Indonesia;;;;31.421.683;994.852.933;https://maps.google.com/?cid=0x0:0x521d11336e771019;
komplek housing;Kompleks Bangunan Perusahaan;Irwan's House;"Perumahan Sahaba Tahap 5 Blok BB No.18, Lima Puluh Kota, Kec. Lima Puluh, Kabupaten Batu Bara";"Kabupaten Batu Bara, Sumatera Utara";SUMATERA UTARA;;Indonesia;;;;31.685.894;994.236.825;https://maps.google.com/?cid=0x0:0x4f8f758509d3031e;
komplek housing;Kantor Perusahaan;Dina's home;"Perumahan Sahaba, blok bb No.3 tahap 5, Lima Puluh Kota, Lima Puluh, Batu Bara Regency, North Sumatra";"Kabupaten Batu Bara, Sumatera Utara";SUMATERA UTARA;;Indonesia;;;;31.688.828;994.234.403;https://maps.google.com/?cid=0x0:0xaab72c89d8d9c23a;
komplek housing;Komplek perumahan;dila cantik;"5C98+6R6, Lima Puluh Kota, Kec. Lima Puluh, Kabupaten Batu Bara, Sumatera Utara 21255";"Lima Puluh Kota, Kec. Lima Puluh, Kabupaten Batu Bara";SUMATERA UTARA;21255;Indonesia;;;;31.680.487;994.170.108;https://maps.google.com/?cid=0x0:0x5e31c695fd67f8d9;
komplek housing;Komplek perumahan;Rumah Pak Manurung;"Jl. Duku Perumnas No.4, Lima Puluh Kota, Kec. Lima Puluh, Kabupaten Batu Bara, Sumatera Utara 21255";"Lima Puluh Kota, Kec. Lima Puluh, Kabupaten Batu Bara";SUMATERA UTARA;21255;Indonesia;;;;31.680.458;994.194.758;https://maps.google.com/?cid=0x0:0x76b8c96fbca363f5;
komplek housing;Pembangunan Perumahan;Komplek sahara;"5C99+7GV, Lima Puluh Kota, Kec. Lima Puluh, Kabupaten Batu Bara, Sumatera Utara 21255";"Lima Puluh Kota, Kec. Lima Puluh, Kabupaten Batu Bara";SUMATERA UTARA;21255;Indonesia;;;;31.682.371;994.187.911;https://maps.google.com/?cid=0x0:0x2a24f647fb46f015;
komplek housing;Komplek perumahan;House INUNG;"Perumahan Sahaba, Blok BB No.52, Lima Puluh Kota, Kec. Lima Puluh, Kabupaten Batu Bara, Sumatera Utara 21255";"Blok BB No.52, Lima Puluh Kota, Kec. Lima Puluh, Kabupaten Batu Bara";SUMATERA UTARA;21255;Indonesia;;;;31.711.095;994.214.379;https://maps.google.com/?cid=0x0:0x7ad6427389d711f4;
komplek housing;komplek housing;Kec. Lima Puluh;"Kabupaten Batu Bara, Sumatera Utara";"Kabupaten Batu Bara, Sumatera Utara";SUMATERA UTARA;;Indonesia;;;;31.966.067;994.865.365;https://maps.google.com/?cid=0x0:0x4ccecb474df285f3;
komplek housing;komplek housing;PDT.H.SARAGI.Sth;"7C65+V3J, Pematang Panjang, Kec. Air Putih, Kabupaten Batu Bara, Sumatera Utara 21255";"Pematang Panjang, Kec. Air Putih, Kabupaten Batu Bara";SUMATERA UTARA;21255;Indonesia;;;;32.622.017;994.076.546;https://maps.google.com/?cid=0x0:0xdab04fbcf71e624d;
komplek housing;Komplek perumahan;Lingkungan 3;"lingkungan jalan perniagaan No.3, Lima Puluh Kota, Kec. Lima Puluh, Kabupaten Batu Bara, Sumatera Utara 21255";"Lima Puluh Kota, Kec. Lima Puluh, Kabupaten Batu Bara";SUMATERA UTARA;21255;Indonesia;;;;31.711.095;994.214.379;https://maps.google.com/?cid=0x0:0xb29a03c509c3cf55;
komplek housing;Komplek perumahan;Rumah FaridDzaky;"Dusun 7 Taman sari, Perkebunan Lima Puluh, Kec. Lima Puluh, Kabupaten Batu Bara, Sumatera Utara 21255";"Perkebunan Lima Puluh, Kec. Lima Puluh, Kabupaten Batu Bara";SUMATERA UTARA;21255;Indonesia;;;;3.187.881;994.148.488;https://maps.google.com/?cid=0x0:0xe259c4e2f6da43f1;
komplek housing;Komplek perumahan;Rumah resno;"Simpang Dolok, Kec. Lima Puluh, Kabupaten Batu Bara, Sumatera Utara 21255";"Kec. Lima Puluh, Kabupaten Batu Bara";SUMATERA UTARA;21255;Indonesia;082360351022;;;3.201.467;994.923.099;https://maps.google.com/?cid=0x0:0x6c2d582f81620cad;
komplek housing;Komplek perumahan;Op Chelsea Ritonga;"Jl. Perintis Kemerdekaan No.140, Lima Puluh Kota, Kec. Lima Puluh, Kabupaten Batu Bara, Sumatera Utara 21255";"Lima Puluh Kota, Kec. Lima Puluh, Kabupaten Batu Bara";SUMATERA UTARA;21255;Indonesia;;;;31.726.535;994.236.976;https://maps.google.com/?cid=0x0:0xa5260cc59e10166;
komplek housing;Komplek perumahan;Mas Heri;"5CV6+3M9, Perkebunan Tanah Gambus, Kec. Lima Puluh, Kabupaten Batu Bara, Sumatera Utara 21255";"Perkebunan Tanah Gambus, Kec. Lima Puluh, Kabupaten Batu Bara";SUMATERA UTARA;21255;Indonesia;;;;31.934.072;994.112.803;https://maps.google.com/?cid=0x0:0x33f626fd1f0819df;
komplek housing;komplek housing;Sumatera Utara 21258;"Kabupaten Batu Bara, Sumatera Utara";"Kabupaten Batu Bara, Sumatera Utara";SUMATERA UTARA;;Indonesia;;;;33.642.107;993.562.094;https://maps.google.com/?cid=0x0:0x6f79774b1617495a;
komplek housing;Kompleks Townhouse;"Perumahan Villa Permata, E10";"994H+HFG, Unnamed Road, Pematang Cengkring, Medang Deras, Batu Bara Regency, North Sumatra 21258";"Unnamed Road, Pematang Cengkring, Medang Deras, Batu Bara Regency";SUMATERA UTARA;21258;Indonesia;;;;3.356.439;993.787.069;https://maps.google.com/?cid=0x0:0xff60641fb5f42e9e;
komplek housing;Komplek perumahan;Kemeja Aja;"KOMPLEK PERUMAHAN PT INALUM, Perkebunan Sipare-Pare, Kec. Sei Suka, Kabupaten Batu Bara, Sumatera Utara 21258";"Perkebunan Sipare-Pare, Kec. Sei Suka, Kabupaten Batu Bara";SUMATERA UTARA;21258;Indonesia;081262320595;;;33.194.917;993.454.482;https://maps.google.com/?cid=0x0:0xacf8aa0c670b1732;
komplek housing;Komplek perumahan;PAKPAHAN HOME;"89V3+VP8, Dusun, Kp. Kristen, Tj. Sigoni, Kec. Medang Deras, Kabupaten Batu Bara, Sumatera Utara 21258";"Dusun, Kp. Kristen, Tj. Sigoni, Kec. Medang Deras, Kabupaten Batu Bara";SUMATERA UTARA;21258;Indonesia;;;;33.446.726;993.543.364;https://maps.google.com/?cid=0x0:0xdd7ed59b0d0b8103;
komplek housing;Pembangunan Perumahan;Perumahan Griya Medang Indah Permai;"99HW+QG, Medang, Kec. Medang Deras, Kabupaten Batu Bara, Sumatera Utara";"Kabupaten Batu Bara, Sumatera Utara";SUMATERA UTARA;;Indonesia;085384710693;;;3.379.044;9.939.648;https://maps.google.com/?cid=0x0:0x977c3c3ccb18747e;
komplek housing;Komplek perumahan;Nadira;"89WG+VR4, Pematang Cengkring, Kec. Medang Deras, Kabupaten Batu Bara, Sumatera Utara 21258";"Pematang Cengkring, Kec. Medang Deras, Kabupaten Batu Bara";SUMATERA UTARA;21258;Indonesia;;;;33.471.339;993.770.919;https://maps.google.com/?cid=0x0:0x3f3224305217ad3;
komplek housing;Perhimpunan Pengembang Perumahan;Rumah Ridwan wak uteh;"C845+QJV, Pangkalan Dodek Baru, Kec. Medang Deras, Kabupaten Batu Bara, Sumatera Utara 21258";"Pangkalan Dodek Baru, Kec. Medang Deras, Kabupaten Batu Bara";SUMATERA UTARA;21258;Indonesia;08311317122;;;34.069.997;993.090.552;https://maps.google.com/?cid=0x0:0xf71fdc286b2b3cc2;
komplek housing;Komplek perumahan;Rumah Sheva;"89W5+629, Tj. Sigoni, Kec. Medang Deras, Kabupaten Batu Bara, Sumatera Utara 21258";"Tj. Sigoni, Kec. Medang Deras, Kabupaten Batu Bara";SUMATERA UTARA;21258;Indonesia;;;;33.455.343;993.575.967;https://maps.google.com/?cid=0x0:0x5eab06f36ecd7f9;
komplek housing;Komplek perumahan;Rumah Jaka purnama;"9C63+CR8, Lalang, Kec. Medang Deras, Kabupaten Batu Bara, Sumatera Utara";"Kabupaten Batu Bara, Sumatera Utara";SUMATERA UTARA;;Indonesia;;;;33.610.435;994.045.809;https://maps.google.com/?cid=0x0:0x7258e380c021bf98;
komplek housing;komplek housing;Perumahan Putri Indah Permai No. 38;"79GC+52W, Jl. Datuk Umar Palangki, Tanah Merah, Kec. Air Putih, Kabupaten Batu Bara, Sumatera Utara";"Kabupaten Batu Bara, Sumatera Utara";SUMATERA UTARA;;Indonesia;;;;32.754.869;99.370.093;https://maps.google.com/?cid=0x0:0x27dfac4bb4ce16fd;
komplek housing;Perhimpunan Pengembang Perumahan;Rumah minggu pardede;"97VR+QF2, Sido Mulyo, Kec. Medang Deras, Kabupaten Batu Bara, Sumatera Utara";"Kabupaten Batu Bara, Sumatera Utara";SUMATERA UTARA;;Indonesia;;;;3.394.398;992.911.328;https://maps.google.com/?cid=0x0:0x9789ec4a4bb4e219;
komplek housing;;fira azahra;"99RF+H75, Medang, Kec. Medang Deras, Kabupaten Batu Bara, Sumatera Utara 21258";"Medang, Kec. Medang Deras, Kabupaten Batu Bara";SUMATERA UTARA;21258;Indonesia;;;;3.391.271;993.736.986;https://maps.google.com/?cid=0x0:0x33519ba06bfb5102;
komplek housing;Komplek perumahan;Rumah Pak Udin Rangkuti;"8CQ9+R9G, Pakam, Kec. Medang Deras, Kabupaten Batu Bara, Sumatera Utara 21258";"Pakam, Kec. Medang Deras, Kabupaten Batu Bara";SUMATERA UTARA;21258;Indonesia;;;;33.394.721;994.190.603;https://maps.google.com/?cid=0x0:0x5582727b9598581;
komplek housing;Perhimpunan Pengembang Perumahan;Hardi Pranata;"994V+P7, Pakam, Kec. Medang Deras, Kabupaten Batu Bara, Sumatera Utara 21258";"Pakam, Kec. Medang Deras, Kabupaten Batu Bara";SUMATERA UTARA;21258;Indonesia;;;;3.356.854;99.393.154;https://maps.google.com/?cid=0x0:0x4610a3732b2f5261;
komplek housing;Komplek perumahan;KTJ Basecamp;"994H+HFG, Unnamed Road, Pematang Cengkring, Medang Deras, Batu Bara Regency, North Sumatra 21258";"Unnamed Road, Pematang Cengkring, Medang Deras, Batu Bara Regency";SUMATERA UTARA;21258;Indonesia;;;;3.356.439;99.378.707;https://maps.google.com/?cid=0x0:0x6733e7af8fa81eb2;
komplek housing;Komplek perumahan;Op daut silalahi;"98MW+QMX, Sei Buah Keras, Kec. Medang Deras, Kabupaten Batu Bara, Sumatera Utara 21258";"Sei Buah Keras, Kec. Medang Deras, Kabupaten Batu Bara";SUMATERA UTARA;21258;Indonesia;;;;33.844.879;9.934.673;https://maps.google.com/?cid=0x0:0x97e25368ca5eafba;
komplek housing;Komplek perumahan;Perumahan tanjung gading;"886X+HF9, Perkebunan Sipare-Pare, Tanjung gading, Kabupaten Batu Bara, Sumatera Utara";"Kabupaten Batu Bara, Sumatera Utara";SUMATERA UTARA;;Indonesia;;;;33.114;9.934.872;https://maps.google.com/?cid=0x0:0xf6de404eaba51b4f;
komplek housing;komplek housing;PAK BAPOK;"Jl. Hangtuah No.Lk.4, Pangkalan Dodek Baru, Kec. Medang Deras, Kabupaten Batu Bara, Sumatera Utara 21258";"Pangkalan Dodek Baru, Kec. Medang Deras, Kabupaten Batu Bara";SUMATERA UTARA;21258;Indonesia;;;;34.140.072;993.189.054;https://maps.google.com/?cid=0x0:0x7791813a72ae3351;
komplek housing;Gedung Apartemen;Almalawy's House (Mhd Ardiyansyah);"JLN PUSARA LK II, Pangkalan Dodek Baru, Kec. Medang Deras, Kabupaten Batu Bara, Sumatera Utara";"Kabupaten Batu Bara, Sumatera Utara";SUMATERA UTARA;;Indonesia;;;;34.153.891;993.146.712;https://maps.google.com/?cid=0x0:0x145e4afc651e385e;
komplek housing;Komplek perumahan;Rumah riyadhi halawa;"9C7C+P77, Lalang, Kec. Medang Deras, Kabupaten Batu Bara, Sumatera Utara";"Kabupaten Batu Bara, Sumatera Utara";SUMATERA UTARA;;Indonesia;;;;336.548;9.942.086;https://maps.google.com/?cid=0x0:0xa3927ac57b8921ab;
komplek housing;komplek housing;Kec. Medang Deras;"Kabupaten Batu Bara, Sumatera Utara";"Kabupaten Batu Bara, Sumatera Utara";SUMATERA UTARA;;Indonesia;;;;34.125.987;993.181.996;https://maps.google.com/?cid=0x0:0x4039d80b2210a70;
komplek housing;Komplek perumahan;Rumah hantuuu;"C878+MRV, Pangkalan Dodek, Kec. Medang Deras, Kabupaten Batu Bara, Sumatera Utara 21258";"Pangkalan Dodek, Kec. Medang Deras, Kabupaten Batu Bara";SUMATERA UTARA;21258;Indonesia;;;;34.142.261;993.170.439;https://maps.google.com/?cid=0x0:0xe0eb3575513adc30;
komplek housing;Komplek perumahan;Rumah salwa;"993Q+VM7, Pakam, Kec. Medang Deras, Kabupaten Batu Bara, Sumatera Utara 21258";"Pakam, Kec. Medang Deras, Kabupaten Batu Bara";SUMATERA UTARA;21258;Indonesia;;;;33.552.163;993.898.612;https://maps.google.com/?cid=0x0:0x3aac1a47d06b9181;
komplek housing;Komplek perumahan;Rumah Jihan;"994P+7X8, Pematang Cengkring, Kec. Medang Deras, Kabupaten Batu Bara, Sumatera Utara 21258";"Pematang Cengkring, Kec. Medang Deras, Kabupaten Batu Bara";SUMATERA UTARA;21258;Indonesia;;;;33.556.521;993.874.533;https://maps.google.com/?cid=0x0:0x2660af753181c8bf;
komplek housing;Gedung Apartemen;rumah ibra;"C868+HF9, Gg. PKK, Pangkalan Dodek Baru, Kec. Medang Deras, Kabupaten Batu Bara, Sumatera Utara 21258";"Gg. PKK, Pangkalan Dodek Baru, Kec. Medang Deras, Kabupaten Batu Bara";SUMATERA UTARA;21258;Indonesia;;;;34.114.192;993.162.036;https://maps.google.com/?cid=0x0:0x20b6d14e3fdbe644;
komplek housing;Komplek perumahan;Umama house;"C869+X88, Jl. Ahmad Yani Pagurawan, Pangkalan Dodek Baru, Kec. Medang Deras, Kabupaten Batu Bara, Sumatera Utara 21258";"Jl. Ahmad Yani Pagurawan, Pangkalan Dodek Baru, Kec. Medang Deras, Kabupaten Batu Bara";SUMATERA UTARA;21258;Indonesia;;;;34.124.178;9.931.832;https://maps.google.com/?cid=0x0:0x6477946ef0f64241;
komplek housing;Komplek perumahan;A Dream Residence Kuala Tanjung;"Akses Road Tj. Gading-Kuala Tanjung simpang Jl. ke Pantai Perjuangan K.Tanjung, Lalang, Kec. Medang Deras, Kabupaten Batu Bara, Sumatera Utara 21258";"Lalang, Kec. Medang Deras, Kabupaten Batu Bara";SUMATERA UTARA;21258;Indonesia;085319849327;;;33.736.062;994.097.412;https://maps.google.com/?cid=0x0:0x94b1d58f32ea2026;
komplek housing;Komplek perumahan;Rumah Naufal;"996P+4Q9, Pakam, Kec. Medang Deras, Kabupaten Batu Bara, Sumatera Utara 21258";"Pakam, Kec. Medang Deras, Kabupaten Batu Bara";SUMATERA UTARA;21258;Indonesia;;;;33.602.966;993.871.102;https://maps.google.com/?cid=0x0:0x7f08efab1b8917b1;
komplek housing;Komplek perumahan;Rumah;"994G+798, Jl. Jaya, Pematang Cengkring, Kec. Medang Deras, Kabupaten Batu Bara, Sumatera Utara 21258";"Jl. Jaya, Pematang Cengkring, Kec. Medang Deras, Kabupaten Batu Bara";SUMATERA UTARA;21258;Indonesia;;;;33.556.554;993.759.497;https://maps.google.com/?cid=0x0:0x5631633114bf37c;
komplek housing;komplek housing;Sei Balai;"Kec. Sei Balai, Kabupaten Batu Bara, Sumatera Utara";"Kabupaten Batu Bara, Sumatera Utara";SUMATERA UTARA;;Indonesia;;;;31.287.476;995.840.397;https://maps.google.com/?cid=0x0:0x9e20b5fb0a6d4eba;
komplek housing;komplek housing;Kec. Sei Balai;"Kabupaten Batu Bara, Sumatera Utara";"Kabupaten Batu Bara, Sumatera Utara";SUMATERA UTARA;;Indonesia;;;;31.284.201;99.586.468;https://maps.google.com/?cid=0x0:0xad743578460454da;
komplek housing;komplek housing;Sumatera Utara 21257;"Kec. Sei Suka, Kabupaten Batu Bara, Sumatera Utara";"Kabupaten Batu Bara, Sumatera Utara";SUMATERA UTARA;;Indonesia;;;;33.149.845;993.007.367;https://maps.google.com/?cid=0x0:0xaf663609369ef5a9;
komplek housing;komplek housing;Simpang binjai;"888C+W36, Sei Suka/Deras, Kec. Sei Suka, Kabupaten Batu Bara, Sumatera Utara 21257";"Sei Suka/Deras, Kec. Sei Suka, Kabupaten Batu Bara";SUMATERA UTARA;21257;Indonesia;;;;33.172.874;993.201.479;https://maps.google.com/?cid=0x0:0xb2b97c6971d223cf;
komplek housing;Komplek perumahan;Kemeja Aja;"KOMPLEK PERUMAHAN PT INALUM, Perkebunan Sipare-Pare, Kec. Sei Suka, Kabupaten Batu Bara, Sumatera Utara 21258";"Perkebunan Sipare-Pare, Kec. Sei Suka, Kabupaten Batu Bara";SUMATERA UTARA;21258;Indonesia;081262320595;;;33.194.917;993.454.482;https://maps.google.com/?cid=0x0:0xacf8aa0c670b1732;
komplek housing;Komplek perumahan;Rumah Pak Syawal;"8725+2HW, Dusun Cendana Jl. Arjo Utomo, Laut Tador, Kec. Sei Suka, Kabupaten Batu Bara, Sumatera Utara 21257";"Dusun Cendana Jl. Arjo Utomo, Laut Tador, Kec. Sei Suka, Kabupaten Batu Bara";SUMATERA UTARA;21257;Indonesia;;;;33.001.099;99.258.958;https://maps.google.com/?cid=0x0:0x93f0032ad618cb16;
komplek housing;Komplek perumahan;"Komplek Inalum, Tanjung Gading, Blok S-25-6";"886R+M3Q, komplek, Jl. Access Road Inalum, Perkebunan Sipare-Pare, Sei Suka, Batu Bara Regency, North Sumatra 21257";"komplek, Jl. Access Road Inalum, Perkebunan Sipare-Pare, Sei Suka, Batu Bara Regency";SUMATERA UTARA;21257;Indonesia;;;;33.117.063;9.934.022;https://maps.google.com/?cid=0x0:0x520d51a782d0fcfe;
komplek housing;Komplek perumahan;Ardi Kesuma Homestay;"77XQ+XRX, Jl. Sei Langgei, Perkebunan Tj. Kasau, Kec. Sei Suka, Kabupaten Batu Bara, Sumatera Utara 21257";"Jl. Sei Langgei, Perkebunan Tj. Kasau, Kec. Sei Suka, Kabupaten Batu Bara";SUMATERA UTARA;21257;Indonesia;;;;32.997.768;992.895.573;https://maps.google.com/?cid=0x0:0x8c410b3ae31f0f;
komplek housing;Pembangunan Perumahan;Ketum ACTION;"885M+HVR, Unnamed Road, Perkebunan Sipare-Pare, Kec. Sei Suka, Kabupaten Batu Bara, Sumatera Utara 21257";"Unnamed Road, Perkebunan Sipare-Pare, Kec. Sei Suka, Kabupaten Batu Bara";SUMATERA UTARA;21257;Indonesia;081264912222;;;33.089.796;993.346.332;https://maps.google.com/?cid=0x0:0x7caf2f7642c13240;
komplek housing;Pembangunan Perumahan;Home op. Winner Sibuea;"77J2+788, Laut Tador, Kec. Sei Suka, Kabupaten Batu Bara, Sumatera Utara";"Kabupaten Batu Bara, Sumatera Utara";SUMATERA UTARA;;Indonesia;;;;32.806.623;992.508.306;https://maps.google.com/?cid=0x0:0x5f664698aaba3c28;
komplek housing;Komplek perumahan;Angel HOME;"Blok P12-05, Perkebunan Sipare-Pare, Sei Suka, Batu Bara Regency, North Sumatra 21257";"Perkebunan Sipare-Pare, Sei Suka, Batu Bara Regency";SUMATERA UTARA;21257;Indonesia;;;;33.166.098;993.403.184;https://maps.google.com/?cid=0x0:0x815dc927f154294a;
komplek housing;Pembangunan Perumahan;Sakhiy Altaf's Home;"Blok P18-04, Perkebunan Sipare-Pare, Kec. Sei Suka, Kabupaten Batu Bara, Sumatera Utara 21257";"Perkebunan Sipare-Pare, Kec. Sei Suka, Kabupaten Batu Bara";SUMATERA UTARA;21257;Indonesia;;;;3.318.859;993.385.338;https://maps.google.com/?cid=0x0:0x32f9f894888b5714;
komplek housing;Komplek perumahan;Desa Huta batu tohap;"765R+PHV, Laut Tador, Kec. Sei Suka, Kabupaten Batu Bara, Sumatera Utara";"Kabupaten Batu Bara, Sumatera Utara";SUMATERA UTARA;;Indonesia;;;;3.259.369;992.414.228;https://maps.google.com/?cid=0x0:0xd6172de35112a77d;
komplek housing;Komplek perumahan;Rumah Linggom;"Blok S No.34-08 Tanjung Gading, Perkebunan Sipare-Pare, Kec. Sei Suka, Kabupaten Batu Bara, Sumatera Utara 21257";"Perkebunan Sipare-Pare, Kec. Sei Suka, Kabupaten Batu Bara";SUMATERA UTARA;21257;Indonesia;;;;33.114.841;993.410.949;https://maps.google.com/?cid=0x0:0x5b53dfab23347ffa;
komplek housing;komplek housing;Karo karo;"885G+RGR, Sei Suka/Deras, Kec. Sei Suka, Kabupaten Batu Bara, Sumatera Utara 21257";"Sei Suka/Deras, Kec. Sei Suka, Kabupaten Batu Bara";SUMATERA UTARA;21257;Indonesia;;;;33.099;993.270.117;https://maps.google.com/?cid=0x0:0xa8037f9f0d07322b;
komplek housing;Komplek perumahan;Rumah Anggy S. Mubarok;"889W+H6H, Perkebunan Sipare-Pare, Kec. Sei Suka, Kabupaten Batu Bara, Sumatera Utara 21257";"Perkebunan Sipare-Pare, Kec. Sei Suka, Kabupaten Batu Bara";SUMATERA UTARA;21257;Indonesia;;;;3.318.926;993.456.192;https://maps.google.com/?cid=0x0:0xf0fb7766b0a5ee37;
komplek housing;komplek housing;Perumahan Putri Indah Permai No. 38;"79GC+52W, Jl. Datuk Umar Palangki, Tanah Merah, Kec. Air Putih, Kabupaten Batu Bara, Sumatera Utara";"Kabupaten Batu Bara, Sumatera Utara";SUMATERA UTARA;;Indonesia;;;;32.754.869;99.370.093;https://maps.google.com/?cid=0x0:0x27dfac4bb4ce16fd;
komplek housing;Pembangunan Perumahan;Perumahan pondok ashor;"878F+X4P, Jl. Arjo Utomo, Laut Tador, Kec. Sei Suka, Kabupaten Batu Bara, Sumatera Utara 21257";"Jl. Arjo Utomo, Laut Tador, Kec. Sei Suka, Kabupaten Batu Bara";SUMATERA UTARA;21257;Indonesia;;;;32.992.479;992.583.563;https://maps.google.com/?cid=0x0:0x34c712a2f5bd3e17;
komplek housing;Komplek perumahan;Ika's House;"79V5+GJ4, Sipare-Pare, Kec. Air Putih, Kabupaten Batu Bara, Sumatera Utara 21257";"Sipare-Pare, Kec. Air Putih, Kabupaten Batu Bara";SUMATERA UTARA;21257;Indonesia;;;;32.937.598;993.590.877;https://maps.google.com/?cid=0x0:0x7d5eb94fc1b06b2c;
komplek housing;Perhimpunan Pengembang Perumahan;Rumah Dwi Fadhilah;"8894+XG3 dusun 1, Tj. Seri, Kec. Sei Suka, Kabupaten Batu Bara, Sumatera Utara 21257";"Tj. Seri, Kec. Sei Suka, Kabupaten Batu Bara";SUMATERA UTARA;21257;Indonesia;;;;33.198.947;993.062.823;https://maps.google.com/?cid=0x0:0x330ba9997c702cec;
komplek housing;Komplek perumahan;Sei Suka Residence;"Jl. Jalinsum KM.95 Desa Tanjung Seri, Tj. Seri, Kec. Sei Suka, Batubara, Sumatera Utara 21257";"Tj. Seri, Kec. Sei Suka, Batubara";SUMATERA UTARA;21257;Indonesia;085353898989;;;33.131.064;993.134.953;https://maps.google.com/?cid=0x0:0x2b855aec49987f92;
komplek housing;komplek housing;Kec. Sei Suka;"Kabupaten Batu Bara, Sumatera Utara";"Kabupaten Batu Bara, Sumatera Utara";SUMATERA UTARA;;Indonesia;;;;33.016.908;993.380.774;https://maps.google.com/?cid=0x0:0x586782def77db8ad;
komplek housing;Komplek perumahan;Arrayan House;"88CR+9W7, Perkebunan Sipare-Pare, Kec. Sei Suka, Kabupaten Batu Bara, Sumatera Utara";"Kabupaten Batu Bara, Sumatera Utara";SUMATERA UTARA;;Indonesia;;;;33.209.217;993.422.927;https://maps.google.com/?cid=0x0:0x30308b0f65025ad;
komplek housing;Komplek perumahan;Perumahan tanjung gading;"886X+HF9, Perkebunan Sipare-Pare, Tanjung gading, Kabupaten Batu Bara, Sumatera Utara";"Kabupaten Batu Bara, Sumatera Utara";SUMATERA UTARA;;Indonesia;;;;33.114;9.934.872;https://maps.google.com/?cid=0x0:0xf6de404eaba51b4f;
komplek housing;Penginapan;Komplek PT. Inalum;"889W+R36, Jl. Access Road Inalum, Perkebunan Sipare-Pare, Kec. Sei Suka, Kabupaten Batu Bara, Sumatera Utara 21257";"Jl. Access Road Inalum, Perkebunan Sipare-Pare, Kec. Sei Suka, Kabupaten Batu Bara";SUMATERA UTARA;21257;Indonesia;;;;33.195.352;993.451.439;https://maps.google.com/?cid=0x0:0x27e1b7a3e03b8227;
komplek housing;Kompleks Bangunan Perusahaan;Blok S14 Perumahan Tanjung Gading;"886P+QP, Perkebunan Sipare-Pare, Kec. Sei Suka, Kabupaten Batu Bara, Sumatera Utara 21257";"Perkebunan Sipare-Pare, Kec. Sei Suka, Kabupaten Batu Bara";SUMATERA UTARA;21257;Indonesia;;;;33.119.258;993.368.132;https://maps.google.com/?cid=0x0:0x1182dc88e7569909;
komplek housing;Perhimpunan Pengembang Perumahan;Rumah nenek indrapura;"886H+F9G, Sei Suka/Deras, Kec. Sei Suka, Kabupaten Batu Bara, Sumatera Utara 21257";"Sei Suka/Deras, Kec. Sei Suka, Kabupaten Batu Bara";SUMATERA UTARA;21257;Indonesia;;;;33.111.897;993.284.514;https://maps.google.com/?cid=0x0:0x1ff61c51736c5eae;
komplek housing;Komplek perumahan;S-42-1  S-42-2 Tanjung Gading Inalum;"885R+WW4, Perkebunan Sipare-Pare, Kec. Sei Suka, Kabupaten Batu Bara, Sumatera Utara 21257";"Perkebunan Sipare-Pare, Kec. Sei Suka, Kabupaten Batu Bara";SUMATERA UTARA;21257;Indonesia;;;;33.097.518;993.423.308;https://maps.google.com/?cid=0x0:0x3348a6341dcc3d70;
komplek housing;Komplek perumahan;"Tanjung seri,sei suka, Sumatra Utara";"8894+XG3, Tj. Seri, Kec. Sei Suka, Kabupaten Batu Bara, Sumatera Utara 21257";"Tj. Seri, Kec. Sei Suka, Kabupaten Batu Bara";SUMATERA UTARA;21257;Indonesia;;;;33.198.947;993.062.823;https://maps.google.com/?cid=0x0:0x5697340095831c44;
komplek housing;Komplek perumahan;Rumah Keluarga Ahmad Dona Doni Pasaribu;"889W+WHR, Perkebunan Sipare-Pare, Kec. Sei Suka, Kabupaten Batu Bara, Sumatera Utara 21257";"Perkebunan Sipare-Pare, Kec. Sei Suka, Kabupaten Batu Bara";SUMATERA UTARA;21257;Indonesia;;;;33.198.679;993.463.967;https://maps.google.com/?cid=0x0:0xf2b5ece3fd81064f;
komplek housing;Rumah Pondokan;Kost Simpang Kopi;"Sei Suka/Deras, Kec. Sei Suka, Kabupaten Batu Bara, Sumatera Utara 21257";"Kec. Sei Suka, Kabupaten Batu Bara";SUMATERA UTARA;21257;Indonesia;081361077533;;;33.009.543;993.361.597;https://maps.google.com/?cid=0x0:0x80a831b9a57bfd06;
komplek housing;komplek housing;Sumatera Utara 21254;"Kec. Talawi, Kabupaten Batu Bara, Sumatera Utara";"Kabupaten Batu Bara, Sumatera Utara";SUMATERA UTARA;;Indonesia;;;;3.144.063;995.339.744;https://maps.google.com/?cid=0x0:0x24bcb7eb5e85df69;
komplek housing;Rumah wisata;Perumahan Griya Sultan Asri;"Kode Pos :, Jl. Kuala Teuku Umar Dusun VI, Pahang, Kec. Talawi, Kabupaten Batu Bara, Sumatera Utara 21254";"Jl. Kuala Teuku Umar Dusun VI, Pahang, Kec. Talawi, Kabupaten Batu Bara";SUMATERA UTARA;21254;Indonesia;082276681173;;;31.830.387;995.606.509;https://maps.google.com/?cid=0x0:0xf039364f916e1273;
komplek housing;Pembangunan Perumahan;Mulya's house;"5HX3+MCV, Unnamed Road, Padang Genting, Kec. Talawi, Kabupaten Batu Bara, Sumatera Utara 21254";"Unnamed Road, Padang Genting, Kec. Talawi, Kabupaten Batu Bara";SUMATERA UTARA;21254;Indonesia;;;;3.199.247;99.553.545;https://maps.google.com/?cid=0x0:0x27a1e8cebd9c8446;
komplek housing;Komplek perumahan;Home Fa'iz  Maura;"4G8X+XGM, Bangun Sari, Kec. Talawi, Kabupaten Batu Bara, Sumatera Utara 21254";"Bangun Sari, Kec. Talawi, Kabupaten Batu Bara";SUMATERA UTARA;21254;Indonesia;;;;31.174.502;995.488.043;https://maps.google.com/?cid=0x0:0x41c41f33fb95d92;
komplek housing;Komplek perumahan;Jauhari;"5HJ4+XWH, Pahang, Kec. Talawi, Kabupaten Batu Bara, Sumatera Utara 21254";"Pahang, Kec. Talawi, Kabupaten Batu Bara";SUMATERA UTARA;21254;Indonesia;;;;31.824.418;995.573.605;https://maps.google.com/?cid=0x0:0xd32f04f931975719;
komplek housing;Komplek perumahan;Perumahan Nasional Perkebunan Petatal;"4GH3+363, Petatal, Kec. Talawi, Kabupaten Batu Bara, Sumatera Utara 21254";"Petatal, Kec. Talawi, Kabupaten Batu Bara";SUMATERA UTARA;21254;Indonesia;;;;31.277.138;995.031.735;https://maps.google.com/?cid=0x0:0x6f6a444c73e28e7;
komplek housing;Pembangunan Perumahan;Peruma;"5HH6+9PV, Pahang, Kec. Talawi, Kabupaten Batu Bara, Sumatera Utara";"Kabupaten Batu Bara, Sumatera Utara";SUMATERA UTARA;;Indonesia;;;;31.784.858;995.617.847;https://maps.google.com/?cid=0x0:0x7fce77b4e04deae0;
komplek housing;Otoritas Perumahan;Perumahan Petatal Indah Permai 2;"4GH2+8VM, Perkebunan Petatal, Kec. Talawi, Kabupaten Batu Bara, Sumatera Utara 21254";"Perkebunan Petatal, Kec. Talawi, Kabupaten Batu Bara";SUMATERA UTARA;21254;Indonesia;;;;31.288.519;99.503.469;https://maps.google.com/?cid=0x0:0xfb14536a6066a8cd;
komplek housing;Perhimpunan Pengembang Perumahan;rumah Ds;"4GGW+FWC, Binjei Baru, Kec. Talawi, Kabupaten Batu Bara, Sumatera Utara 21254";"Binjei Baru, Kec. Talawi, Kabupaten Batu Bara";SUMATERA UTARA;21254;Indonesia;;;;31.261.838;995.472.728;https://maps.google.com/?cid=0x0:0x9f4b72a55845b5f3;
komplek housing;Pembangunan Perumahan;Town house17;"5H52+FHF, Unnamed Road, Sei Muka, Kec. Talawi, Kabupaten Batu Bara, Sumatera Utara 21254";"Unnamed Road, Sei Muka, Kec. Talawi, Kabupaten Batu Bara";SUMATERA UTARA;21254;Indonesia;;;;31.586.814;995.514.321;https://maps.google.com/?cid=0x0:0x3271c70e041695b2;
komplek housing;Komplek perumahan;Rumah Dinas Kejaksaan Batubara;"Jl. Imam Bonjal, Pahang, Kec. Talawi, Kabupaten Batu Bara, Sumatera Utara 21254";"Pahang, Kec. Talawi, Kabupaten Batu Bara";SUMATERA UTARA;21254;Indonesia;;;;32.024.264;995.646.967;https://maps.google.com/?cid=0x0:0x4a7e4723a89ef514;
komplek housing;Komplek perumahan;Alimkhai home;"6HC4+666, Mesjid Lama, Kec. Talawi, Kabupaten Batu Bara, Sumatera Utara";"Kabupaten Batu Bara, Sumatera Utara";SUMATERA UTARA;;Indonesia;;;;32.205.481;995.555.074;https://maps.google.com/?cid=0x0:0x6883689857e3e763;
komplek housing;Komplek perumahan;Pandomayu;"5GGC+MV3, Panjang, Kec. Talawi, Kabupaten Batu Bara, Sumatera Utara 21255";"Panjang, Kec. Talawi, Kabupaten Batu Bara";SUMATERA UTARA;21255;Indonesia;;;;31.766.324;995.221.599;https://maps.google.com/?cid=0x0:0x70c68481d6f3da8a;
komplek housing;Perhimpunan Pengembang Perumahan;Sri Wahyuni;"4G9W+WR, Bangun Sari, Kec. Talawi, Kabupaten Batu Bara, Sumatera Utara 21254";"Bangun Sari, Kec. Talawi, Kabupaten Batu Bara";SUMATERA UTARA;21254;Indonesia;;;;31.197.772;995.470.593;https://maps.google.com/?cid=0x0:0x72e142cdc3af6bb4;
komplek housing;Perumahan;Maysur Nasution House;"Perumahan Sirih Nazfa Indah No.Blok B, Sei Muka, Kec. Talawi, Kabupaten Batu Bara, Sumatera Utara 21254";"Sei Muka, Kec. Talawi, Kabupaten Batu Bara";SUMATERA UTARA;21254;Indonesia;;;;31.544.068;995.590.863;https://maps.google.com/?cid=0x0:0x5babd748f85ebc6a;
komplek housing;Perhimpunan Pengembang Perumahan;Putrii;"4G8R+PW4, Bangun Sari, Kec. Talawi, Kabupaten Batu Bara, Sumatera Utara 21254";"Bangun Sari, Kec. Talawi, Kabupaten Batu Bara";SUMATERA UTARA;21254;Indonesia;;;;31.167.546;995.423.165;https://maps.google.com/?cid=0x0:0x43ce4c2c889836ec;
komplek housing;komplek housing;Rumah SGM;"4GQ3+7X3, Karang Baru, Kec. Talawi, Kabupaten Batu Bara, Sumatera Utara 21254";"Karang Baru, Kec. Talawi, Kabupaten Batu Bara";SUMATERA UTARA;21254;Indonesia;;;;31.374.462;995.056.728;https://maps.google.com/?cid=0x0:0xb73da89e2c4125b1;
komplek housing;komplek housing;Kampung bacang dalam;"5HJF+64J, Pahang, Kec. Talawi, Kabupaten Batu Bara, Sumatera Utara 21253";"Pahang, Kec. Talawi, Kabupaten Batu Bara";SUMATERA UTARA;21253;Indonesia;;;;31.805.831;995.727.712;https://maps.google.com/?cid=0x0:0xc8236dc3d68dc000;
komplek housing;Komplek perumahan;Rumah Sakinah;"6GPV+G9M, Dahari Selebar, Kec. Talawi, Kabupaten Batu Bara, Sumatera Utara";"Kabupaten Batu Bara, Sumatera Utara";SUMATERA UTARA;;Indonesia;;;;32.363.302;995.434.111;https://maps.google.com/?cid=0x0:0x766bdd1aa7c78453;
komplek housing;Pembangunan Perumahan;Dimas wifi;"4GH5+5V7 blok 9, Dusun v, Perkebunan Petatal, Kec. Talawi, Kabupaten Batu Bara, Sumatera Utara";"Kabupaten Batu Bara, Sumatera Utara";SUMATERA UTARA;;Indonesia;;;;31.279.008;995.096.692;https://maps.google.com/?cid=0x0:0xba9ce0a6208db5ea;
komplek housing;komplek housing;Kec. Talawi;"Kabupaten Batu Bara, Sumatera Utara";"Kabupaten Batu Bara, Sumatera Utara";SUMATERA UTARA;;Indonesia;;;;32.027.344;995.637.574;https://maps.google.com/?cid=0x0:0x4039d80b2211910;
komplek housing;Komplek perumahan;Rumah dusun;"4GH5+7VR, DESA BINJAI BARU Jalan Lintas Sumatra Dusun III SIDODADI kecamatan datuk tanah datar, Perkebunan Petatal, Kec. Talawi, Kabupaten Batu Bara, Sumatera Utara 21254";"DESA BINJAI BARU Jalan Lintas Sumatra Dusun III SIDODADI kecamatan datuk tanah datar, Perkebunan Petatal, Kec. Talawi, Kabupaten Batu Bara";SUMATERA UTARA;21254;Indonesia;;;;31.282.409;995.096.544;https://maps.google.com/?cid=0x0:0x7947c49c9a154a46;
komplek housing;Komplek perumahan;Dusun I perkebunan tanahdatar;"4HX6+Q3W, Jl. Kuala Teuku Umar, Sei Muka, Kec. Talawi, Kabupaten Batu Bara, Sumatera Utara 21254";"Jl. Kuala Teuku Umar, Sei Muka, Kec. Talawi, Kabupaten Batu Bara";SUMATERA UTARA;21254;Indonesia;;;;31.497.952;995.599.623;https://maps.google.com/?cid=0x0:0xd06a3b8758c1af31;
komplek housing;Pembangunan Perumahan;Mawan Wi-Fi;"4GRG+2W7, Perkebunan Tanah Datar, Kec. Talawi, Kabupaten Batu Bara, Sumatera Utara 21254";"Perkebunan Tanah Datar, Kec. Talawi, Kabupaten Batu Bara";SUMATERA UTARA;21254;Indonesia;;;;31.400.341;995.273.101;https://maps.google.com/?cid=0x0:0x3584bc5a6c6b0122;
komplek housing;Komplek perumahan;Dian home 31;"Jl. Imam Bonjol No.031 dusun X, desa Indra Yaman, Kec. Talawi, Kabupaten Batu Bara, Sumatera Utara 21254";"desa Indra Yaman, Kec. Talawi, Kabupaten Batu Bara";SUMATERA UTARA;21254;Indonesia;;;;32.131.185;995.738.392;https://maps.google.com/?cid=0x0:0x8fb1a00ba0fa5eb6;
komplek housing;Komplek perumahan;Rumah sultan;"5H26+852, Jl. Kuala Teuku Umar, Sei Muka, Kec. Talawi, Kabupaten Batu Bara, Sumatera Utara 21254";"Jl. Kuala Teuku Umar, Sei Muka, Kec. Talawi, Kabupaten Batu Bara";SUMATERA UTARA;21254;Indonesia;;;;31.494.761;99.560.217;https://maps.google.com/?cid=0x0:0x28d763e7640d0663;
komplek housing;Komplek perumahan;Rumah Afni;"4F7R+PQX, Karang Baru, Kec. Talawi, Kabupaten Batu Bara, Sumatera Utara 21254";"Karang Baru, Kec. Talawi, Kabupaten Batu Bara";SUMATERA UTARA;21254;Indonesia;;;;31.143.737;994.919.957;https://maps.google.com/?cid=0x0:0xe1c3121e66ff5abf;
komplek housing;Komplek perumahan;Rumah Pak Dalianto;"4GGW+MHW, Binjei Baru, Kec. Talawi, Kabupaten Batu Bara, Sumatera Utara 21254";"Binjei Baru, Kec. Talawi, Kabupaten Batu Bara";SUMATERA UTARA;21254;Indonesia;;;;31.267.384;995.464.426;https://maps.google.com/?cid=0x0:0xe8ed4c23dddd6514;
komplek housing;Komplek perumahan;Villa Mahkota Pesona;"Jl. Mahkota Raya IJ/1 No.4, Bojong Kulur, Kec. Gn. Putri, Kabupaten Bogor, Jawa Barat 16969";"Bojong Kulur, Kec. Gn. Putri, Kabupaten Bogor";SUMATERA UTARA;16969;Indonesia;;;;-63.227.142;1.069.637.068;https://maps.google.com/?cid=0x0:0xeb05b4ca686e7730;
komplek housing;Komplek perumahan;Rumah Baru;"Jl. Raya Pabuaran No.RT.004/003, Jatiranggon, Kec. Jatisampurna, Kota Bks, Jawa Barat 17431";"Jatiranggon, Kec. Jatisampurna, Kota Bks";SUMATERA UTARA;17431;Indonesia;;;;-63.371.539;1.069.380.752;https://maps.google.com/?cid=0x0:0xdefc2cd8085bbc19;
komplek housing;Komplek perumahan;Rumah;"Jl. Raya Pabuaran No.94, RT.001/RW.003, Jatiranggon, Kec. Jatisampurna, Kota Bks, Jawa Barat 17432";"RT.001/RW.003, Jatiranggon, Kec. Jatisampurna, Kota Bks";SUMATERA UTARA;17432;Indonesia;;;;-63.347.842;1.069.338.973;https://maps.google.com/?cid=0x0:0xefeae743c9deb0ba;
komplek housing;komplek housing;Kec. Talawi;"Kota Sawahlunto, Sumatera Barat";"Kota Sawahlunto, Sumatera Barat";SUMATERA UTARA;;Indonesia;;;;-0.6150584;1.007.610.255;https://maps.google.com/?cid=0x0:0x8b2705bb7a1a24f2;
komplek housing;komplek housing;Sumatera Barat 27442;"Kec. Koto VII, Kabupaten Sijunjung, Sumatera Barat";"Kabupaten Sijunjung, Sumatera Barat";SUMATERA UTARA;;Indonesia;;;;-0.5954142;1.008.282.161;https://maps.google.com/?cid=0x0:0xea6846de3c08649b;
komplek housing;komplek housing;Kec. Talawi;"Kabupaten Batu Bara, Sumatera Utara";"Kabupaten Batu Bara, Sumatera Utara";SUMATERA UTARA;;Indonesia;;;;32.027.344;995.637.574;https://maps.google.com/?cid=0x0:0x4039d80b2211910;
komplek housing;komplek housing;Kec. Talawi;"Kota Sawahlunto, Sumatera Barat";"Kota Sawahlunto, Sumatera Barat";SUMATERA UTARA;;Indonesia;;;;-0.6150584;1.007.610.255;https://maps.google.com/?cid=0x0:0x8b2705bb7a1a24f2;
komplek housing;komplek housing;Sumatera Barat 27443;"Kec. Talawi, Kota Sawahlunto, Sumatera Barat";"Kota Sawahlunto, Sumatera Barat";SUMATERA UTARA;;Indonesia;;;;-0.5815828;100.766.163;https://maps.google.com/?cid=0x0:0xf63b753d30b84c77;
komplek housing;komplek housing;Kec. Talawi;"Kabupaten Batu Bara, Sumatera Utara";"Kabupaten Batu Bara, Sumatera Utara";SUMATERA UTARA;;Indonesia;;;;32.027.344;995.637.574;https://maps.google.com/?cid=0x0:0x4039d80b2211910;
komplek housing;komplek housing;Kec. Talawi;"Kota Sawahlunto, Sumatera Barat";"Kota Sawahlunto, Sumatera Barat";SUMATERA UTARA;;Indonesia;;;;-0.6150584;1.007.610.255;https://maps.google.com/?cid=0x0:0x8b2705bb7a1a24f2;
komplek housing;Kantor Perusahaan;Kompleks Atas PLN UPK Ombilin;"9QX3+H9G, Batu Tj., Kec. Talawi, Kota Sawahlunto, Sumatera Barat 27443";"Batu Tj., Kec. Talawi, Kota Sawahlunto";SUMATERA UTARA;27443;Indonesia;;;;-0.6010556;1.007.534.623;https://maps.google.com/?cid=0x0:0x88efb0f02477a161;
komplek housing;Komplek perumahan;Tisya Bimbel;"CQJ8+R4, Tumpuak Tangah, Kec. Talawi, Kota Sawahlunto, Sumatera Barat 27443";"Tumpuak Tangah, Kec. Talawi, Kota Sawahlunto";SUMATERA UTARA;27443;Indonesia;;;;-0.5679642;1.007.652.811;https://maps.google.com/?cid=0x0:0xf060094aea36b8d2;
komplek housing;Komplek perumahan;Rumah D;"9PXP+QQV, Talawi Hilir, Kec. Talawi, Kota Sawahlunto, Sumatera Barat 27443";"Talawi Hilir, Kec. Talawi, Kota Sawahlunto";SUMATERA UTARA;27443;Indonesia;;;;-0.6004923;1.007.369.445;https://maps.google.com/?cid=0x0:0xf5449f9c72138504;
komplek housing;Komplek perumahan;Mardanil home;"CP4P+P26, Talawi Mudik, Kec. Talawi, Kota Sawahlunto, Sumatera Barat 27443";"Talawi Mudik, Kec. Talawi, Kota Sawahlunto";SUMATERA UTARA;27443;Indonesia;;;;-0.59335;1.007.348.626;https://maps.google.com/?cid=0x0:0xa6d84d4a8afe9762;
komplek housing;Komplek perumahan;Titin DapoerShanum;"9PXQ+RC3, Jl. Luak Batu, Talawi Hilir, Kec. Talawi, Kota Sawahlunto, Sumatera Barat 27443";"Jl. Luak Batu, Talawi Hilir, Kec. Talawi, Kota Sawahlunto";SUMATERA UTARA;27443;Indonesia;;;;-0.6004795;1.007.385.618;https://maps.google.com/?cid=0x0:0x6581a64a85f36565;
komplek housing;Komplek perumahan;Rumah iyan ( nenek );"CP5M+7CP, Talawi Mudik, Kec. Talawi, Kota Sawahlunto, Sumatera Barat 27443";"Talawi Mudik, Kec. Talawi, Kota Sawahlunto";SUMATERA UTARA;27443;Indonesia;;;;-0.5915291;1.007.335.819;https://maps.google.com/?cid=0x0:0xfcd68ed3cb4dcd6c;
komplek housing;Komplek perumahan;Rumah Pak Yuherman;"9PXP+R5G, Talawi Hilir, Kec. Talawi, Kota Sawahlunto, Sumatera Barat 27443";"Talawi Hilir, Kec. Talawi, Kota Sawahlunto";SUMATERA UTARA;27443;Indonesia;;;;-0.6004393;1.007.354.513;https://maps.google.com/?cid=0x0:0xb53725b764784c6b;
komplek housing;Pembangunan Perumahan;Dahlius's House;"CQ99+7MG, Datar Mansiang, Kec. Talawi, Kota Sawahlunto, Sumatera Barat 27443";"Datar Mansiang, Kec. Talawi, Kota Sawahlunto";SUMATERA UTARA;27443;Indonesia;;;;-0.5805884;1.007.691.996;https://maps.google.com/?cid=0x0:0x96eaa019405006dc;
komplek housing;Komplek perumahan;Rumah Ronny;"CPCW+7HM, Perumahan Green View, Bukit Gadang, Kec. Talawi, Kota Sawahlunto, Sumatera Barat 27443";"Perumahan Green View, Bukit Gadang, Kec. Talawi, Kota Sawahlunto";SUMATERA UTARA;27443;Indonesia;;;;-0.5792954;1.007.464.275;https://maps.google.com/?cid=0x0:0x5ad41d587a2b9fe9;
komplek housing;Komplek perumahan;Ibuk mirsyam kamir;"CP3M+3F8, Jl. Anas R., Talawi Hilir, Kec. Talawi, Kota Sawahlunto, Sumatera Barat 27443";"Jl. Anas R., Talawi Hilir, Kec. Talawi, Kota Sawahlunto";SUMATERA UTARA;27443;Indonesia;;;;-0.5973425;1.007.336.956;https://maps.google.com/?cid=0x0:0x880bb36f1b139f27;
komplek housing;Komplek perumahan;Rumah tangah;"CQHF+92X, Tumpuak Tangah, Kec. Talawi, Kota Sawahlunto, Sumatera Barat 27443";"Tumpuak Tangah, Kec. Talawi, Kota Sawahlunto";SUMATERA UTARA;27443;Indonesia;;;;-0.5735309;1.007.721.393;https://maps.google.com/?cid=0x0:0xe22dabe6e46ec2cc;
komplek housing;Pembangunan Perumahan;Nyiak MANJUANG;"CPCW+7HM, Green View, Bukit Gadang, Kec. Talawi, Kota Sawahlunto, Sumatera Barat 27443";"Green View, Bukit Gadang, Kec. Talawi, Kota Sawahlunto";SUMATERA UTARA;27443;Indonesia;;;;-0.5792954;1.007.464.275;https://maps.google.com/?cid=0x0:0xd5ec447e57d2e34;
komplek housing;Komplek perumahan;Tanjung mulia;"CQGG+73J, Dusun Tanjung Mulia, Tumpuak Tangah, Kec. Talawi, Kota Sawahlunto, Sumatera Barat 27443";"Dusun Tanjung Mulia, Tumpuak Tangah, Kec. Talawi, Kota Sawahlunto";SUMATERA UTARA;27443;Indonesia;;;;-0.5742994;1.007.751.418;https://maps.google.com/?cid=0x0:0xa8640ad8c13d6ba5;
komplek housing;Komplek perumahan;Rumah Anggie Amaliyah Arrauva;"CP3P+7C2, Simpang GobahJl. Prof.M, YaminTalawi Hilir, Kec. Talawi, Kota Sawahlunto, Sumatera Barat 27443";"Simpang GobahJl. Prof.M, YaminTalawi Hilir, Kec. Talawi, Kota Sawahlunto";SUMATERA UTARA;27443;Indonesia;;;;-0.5968508;1.007.359.282;https://maps.google.com/?cid=0x0:0xe3afe8bdffd0f9d;
komplek housing;Komplek perumahan;Warung cintaa;"CQC4+HMF, Jl. Raya Kumbayau, Tumpuak Tangah, Kec. Talawi, Kota Sawahlunto, Sumatera Barat 27443";"Jl. Raya Kumbayau, Tumpuak Tangah, Kec. Talawi, Kota Sawahlunto";SUMATERA UTARA;27443;Indonesia;;;;-0.5785716;100.756.674;https://maps.google.com/?cid=0x0:0x52263bfdcfb90f0b;
komplek housing;komplek housing;Sumatera Barat 27444;Sumatera Barat;Sumatera Barat;SUMATERA UTARA;;Indonesia;;;;-0.5770508;1.007.041.509;https://maps.google.com/?cid=0x0:0x71411700fc3f3b1c;
komplek housing;komplek housing;Kec. Talawi;"Kabupaten Batu Bara, Sumatera Utara";"Kabupaten Batu Bara, Sumatera Utara";SUMATERA UTARA;;Indonesia;;;;32.027.344;995.637.574;https://maps.google.com/?cid=0x0:0x4039d80b2211910;
komplek housing;komplek housing;Kec. Talawi;"Kota Sawahlunto, Sumatera Barat";"Kota Sawahlunto, Sumatera Barat";SUMATERA UTARA;;Indonesia;;;;-0.6150584;1.007.610.255;https://maps.google.com/?cid=0x0:0x8b2705bb7a1a24f2;
komplek housing;komplek housing;Kec. Talawi;"Kabupaten Batu Bara, Sumatera Utara";"Kabupaten Batu Bara, Sumatera Utara";SUMATERA UTARA;;Indonesia;;;;32.027.344;995.637.574;https://maps.google.com/?cid=0x0:0x4039d80b2211910;
komplek housing;Komplek perumahan;Kantor Pemasaran Wahana Pondok Ungu;"Jl. Pulo Timaha, Babelan Kota, Kec. Babelan, Kabupaten Bekasi, Jawa Barat 17610";"Babelan Kota, Kec. Babelan, Kabupaten Bekasi";SUMATERA UTARA;17610;Indonesia;081285511195;;;-61.604.121;1.070.165.734;https://maps.google.com/?cid=0x0:0xa604dbf48251fa41;
komplek housing;Komplek perumahan;Pesona Kahuripan 8;"Muktijaya, Kec. Setu, Kabupaten Bekasi, Jawa Barat 17320";"Kec. Setu, Kabupaten Bekasi";SUMATERA UTARA;17320;Indonesia;081314278348;;;-64.053.735;1.070.321.282;https://maps.google.com/?cid=0x0:0x202ccbf8dda3ff99;
komplek housing;komplek housing;Kec. Talawi;"Kabupaten Batu Bara, Sumatera Utara";"Kabupaten Batu Bara, Sumatera Utara";SUMATERA UTARA;;Indonesia;;;;32.027.344;995.637.574;https://maps.google.com/?cid=0x0:0x4039d80b2211910;
komplek housing;komplek housing;Kec. Talawi;"Kota Sawahlunto, Sumatera Barat";"Kota Sawahlunto, Sumatera Barat";SUMATERA UTARA;;Indonesia;;;;-0.6150584;1.007.610.255;https://maps.google.com/?cid=0x0:0x8b2705bb7a1a24f2;
komplek housing;komplek housing;Sumatera Utara;;Sumatera Utara;SUMATERA UTARA;;Indonesia;;;;21.153.547;995.450.974;https://maps.google.com/?cid=0x0:0xaca73e8109d7cb0b;
komplek housing;Komplek perumahan;Hom Residence;"9QWV+3PQ, Batu Tj., Kec. Talawi, Kota Sawahlunto, Sumatera Barat";"Kota Sawahlunto, Sumatera Barat";SUMATERA UTARA;;Indonesia;;;;-0.6047862;1.007.943.639;https://maps.google.com/?cid=0x0:0x8e0abadb78128cea;
komplek housing;komplek housing;Kec. Talawi;"Kabupaten Batu Bara, Sumatera Utara";"Kabupaten Batu Bara, Sumatera Utara";SUMATERA UTARA;;Indonesia;;;;32.027.344;995.637.574;https://maps.google.com/?cid=0x0:0x4039d80b2211910;
komplek housing;komplek housing;Sumatera Barat 27447;"Limo Koto, Kec. Koto VII, Kabupaten Sijunjung, Sumatera Barat";"Kabupaten Sijunjung, Sumatera Barat";SUMATERA UTARA;;Indonesia;;;;-0.6268262;1.008.268.053;https://maps.google.com/?cid=0x0:0x4460907b90fb2e5b;
komplek housing;komplek housing;Kec. Talawi;"Kota Sawahlunto, Sumatera Barat";"Kota Sawahlunto, Sumatera Barat";SUMATERA UTARA;;Indonesia;;;;-0.6150584;1.007.610.255;https://maps.google.com/?cid=0x0:0x8b2705bb7a1a24f2;
komplek housing;komplek housing;Kec. Talawi;"Kabupaten Batu Bara, Sumatera Utara";"Kabupaten Batu Bara, Sumatera Utara";SUMATERA UTARA;;Indonesia;;;;32.027.344;995.637.574;https://maps.google.com/?cid=0x0:0x4039d80b2211910;
komplek housing;Komplek perumahan;Hom Residence;"9QWV+3PQ, Batu Tj., Kec. Talawi, Kota Sawahlunto, Sumatera Barat";"Kota Sawahlunto, Sumatera Barat";SUMATERA UTARA;;Indonesia;;;;-0.6047862;1.007.943.639;https://maps.google.com/?cid=0x0:0x8e0abadb78128cea;
komplek housing;Komplek perumahan;My home;"8QX6+CX, Rantih, Kec. Talawi, Kota Sawahlunto, Sumatera Barat";"Kota Sawahlunto, Sumatera Barat";SUMATERA UTARA;;Indonesia;;;;-0.651451;1.007.624.633;https://maps.google.com/?cid=0x0:0x4e63167b1b47d8cc;
komplek housing;komplek housing;Kec. Talawi;"Kabupaten Batu Bara, Sumatera Utara";"Kabupaten Batu Bara, Sumatera Utara";SUMATERA UTARA;;Indonesia;;;;32.027.344;995.637.574;https://maps.google.com/?cid=0x0:0x4039d80b2211910;
komplek housing;Komplek perumahan;Hom Residence;"9QWV+3PQ, Batu Tj., Kec. Talawi, Kota Sawahlunto, Sumatera Barat";"Kota Sawahlunto, Sumatera Barat";SUMATERA UTARA;;Indonesia;;;;-0.6047862;1.007.943.639;https://maps.google.com/?cid=0x0:0x8e0abadb78128cea;
komplek housing;Komplek perumahan;My home;"8QX6+CX, Rantih, Kec. Talawi, Kota Sawahlunto, Sumatera Barat";"Kota Sawahlunto, Sumatera Barat";SUMATERA UTARA;;Indonesia;;;;-0.651451;1.007.624.633;https://maps.google.com/?cid=0x0:0x4e63167b1b47d8cc;
komplek housing;komplek housing;Sumatera Utara 21253;"Tj. Tiram, Kec. Tj. Tiram, Kabupaten Batu Bara, Sumatera Utara";"Kabupaten Batu Bara, Sumatera Utara";SUMATERA UTARA;;Indonesia;;;;31.825.721;996.357.656;https://maps.google.com/?cid=0x0:0x71928f965e9439a7;
komplek housing;Pembangunan Perumahan;Dusun 3;"6HGJ+WVJ, Bogak, Kec. Tj. Tiram, Kabupaten Batu Bara, Sumatera Utara";"Kabupaten Batu Bara, Sumatera Utara";SUMATERA UTARA;;Indonesia;;;;32.273.485;995.821.411;https://maps.google.com/?cid=0x0:0x40c218b949743676;
komplek housing;Pembangunan Perumahan;Gang sidin prog;"6HFH+XJF, Bogak, Kec. Tj. Tiram, Kabupaten Batu Bara, Sumatera Utara";"Kabupaten Batu Bara, Sumatera Utara";SUMATERA UTARA;;Indonesia;;;;32.248.867;995.790.619;https://maps.google.com/?cid=0x0:0x1efdf91935e9a5cd;
komplek housing;Komplek perumahan;Home Rikky Jait;"4JRX+MJ9, Sungai Mentaram, Kec. Tj. Tiram, Kabupaten Batu Bara, Sumatera Utara 21253";"Sungai Mentaram, Kec. Tj. Tiram, Kabupaten Batu Bara";SUMATERA UTARA;21253;Indonesia;;;;31.419.694;996.494.387;https://maps.google.com/?cid=0x0:0x646374fa6567662;
komplek housing;Pembangunan Perumahan;Kokoandrean;"4PH2+4HX, Pematang Rambai, Kec. Tj. Tiram, Kabupaten Batu Bara, Sumatera Utara 21253";"Pematang Rambai, Kec. Tj. Tiram, Kabupaten Batu Bara";SUMATERA UTARA;21253;Indonesia;;;;31.278.723;997.014.749;https://maps.google.com/?cid=0x0:0x76aaf14dced81819;
komplek housing;Komplek perumahan;Fahrunnisa;"6H9M+RH5, Jl. Solo, Suka Maju, Kec. Tj. Tiram, Kabupaten Batu Bara, Sumatera Utara";"Kabupaten Batu Bara, Sumatera Utara";SUMATERA UTARA;;Indonesia;;;;321.952;995.839.967;https://maps.google.com/?cid=0x0:0x3225851a605daeae;
komplek housing;;Rumah OK Tarimizie bin OK Mudjahidin;"5JMM+P2H, Jl. Ujung Kubu, Ujung Kubu, Kec. Tj. Tiram, Kabupaten Batu Bara, Sumatera Utara 21253";"Jl. Ujung Kubu, Ujung Kubu, Kec. Tj. Tiram, Kabupaten Batu Bara";SUMATERA UTARA;21253;Indonesia;;;;31.843.208;996.325.952;https://maps.google.com/?cid=0x0:0xa1e55d5c9acd6f81;
komplek housing;Komplek perumahan;Rumah nurainun hasibuan;"6H8R+JCR, Jl. Laksana Dusun VII, Bagan Dalam, Tanjung Tiram, Batu Bara Regency, North Sumatra";"Kabupaten Batu Bara, Sumatera Utara";SUMATERA UTARA;;Indonesia;;;;3.216.622;995.910.071;https://maps.google.com/?cid=0x0:0xfe558f46fb1a6c92;
komplek housing;Pusat Kegiatan Warga;Simpang;"5JFR+R8R, Ujung Kubu, Kec. Tj. Tiram, Kabupaten Batu Bara, Sumatera Utara 21253";"Ujung Kubu, Kec. Tj. Tiram, Kabupaten Batu Bara";SUMATERA UTARA;21253;Indonesia;;;;31.745.952;996.407.715;https://maps.google.com/?cid=0x0:0xd27a8167f4a97213;
komplek housing;komplek housing;GG selamat;"6HCM+63W, Gg. Selamat, Suka Maju, Kec. Tj. Tiram, Kabupaten Batu Bara, Sumatera Utara";"Kabupaten Batu Bara, Sumatera Utara";SUMATERA UTARA;;Indonesia;;;;32.206.061;995.826.898;https://maps.google.com/?cid=0x0:0xfbb4a72d3f1b5941;
komplek housing;Pembangunan Perumahan;Familly House Mardiah;"6H8H+PGP, Suka Maju, Kec. Tj. Tiram, Kabupaten Batu Bara, Sumatera Utara";"Kabupaten Batu Bara, Sumatera Utara";SUMATERA UTARA;;Indonesia;;;;3.217.257;99.579.037;https://maps.google.com/?cid=0x0:0x183a037919a7f68c;
komplek housing;Pembangunan Perumahan;Krisna siahaan;"5P66+VRQ gang mutiara, Bagan Baru, Kec. Tj. Tiram, Kabupaten Batu Bara, Sumatera Utara";"Kabupaten Batu Bara, Sumatera Utara";SUMATERA UTARA;;Indonesia;;;;3.162.214;997.121.206;https://maps.google.com/?cid=0x0:0x8ea011b893efc4ee;
komplek housing;Pembangunan Perumahan;Rumah Kisay;"5J7X+PCX, Pematang Rambai, Kec. Tj. Tiram, Kabupaten Batu Bara, Sumatera Utara 21253";"Pematang Rambai, Kec. Tj. Tiram, Kabupaten Batu Bara";SUMATERA UTARA;21253;Indonesia;085348933316;;;31.643.544;99.648.616;https://maps.google.com/?cid=0x0:0x8b24da31806418f;
komplek housing;Komplek perumahan;Rumah Ayat Pertamina;"6H6G+V84, Perumahan jalan Terminal, Labuhan Ruku, Kec. Tj. Tiram, Kabupaten Batu Bara, Sumatera Utara";"Kabupaten Batu Bara, Sumatera Utara";SUMATERA UTARA;;Indonesia;;;;32.121.406;995.758.305;https://maps.google.com/?cid=0x0:0x295c5b910b8e95e9;
komplek housing;Komplek perumahan;Fat Zainal asri;"6HFM+9CQ, Jl. Nelayan, Tj. Tiram, Kec. Tj. Tiram, Kabupaten Batu Bara, Sumatera Utara";"Kabupaten Batu Bara, Sumatera Utara";SUMATERA UTARA;;Indonesia;;;;32.234.864;995.835.273;https://maps.google.com/?cid=0x0:0x2890c986700b4d74;
komplek housing;komplek housing;Kp koda;"6H8J+M8R, Suka Maju, Kec. Tj. Tiram, Kabupaten Batu Bara, Sumatera Utara";"Kabupaten Batu Bara, Sumatera Utara";SUMATERA UTARA;;Indonesia;;;;32.167.405;995.807.584;https://maps.google.com/?cid=0x0:0x4c74ffb49be8abc9;
komplek housing;Komplek perumahan;Rumah guru ngaji;"5M65+MV8, Pematang Rambai, Kec. Tj. Tiram, Kabupaten Batu Bara, Sumatera Utara 21253";"Pematang Rambai, Kec. Tj. Tiram, Kabupaten Batu Bara";SUMATERA UTARA;21253;Indonesia;;;;31.616.668;996.597.029;https://maps.google.com/?cid=0x0:0x166ead543632f0f0;
komplek housing;Rumah Kayu;Kanal indah;"4PP6+7XP, Bagan Baru, Kec. Tj. Tiram, Kabupaten Batu Bara, Sumatera Utara 21253";"Bagan Baru, Kec. Tj. Tiram, Kabupaten Batu Bara";SUMATERA UTARA;21253;Indonesia;;;;31.357.037;997.124.515;https://maps.google.com/?cid=0x0:0x4bbdbf972a89fe6b;
komplek housing;Komplek perumahan;Kak inap;"6H8R+JCR, Bagan Dalam, Kec. Tj. Tiram, Kabupaten Batu Bara, Sumatera Utara";"Kabupaten Batu Bara, Sumatera Utara";SUMATERA UTARA;;Indonesia;;;;3.216.622;995.910.071;https://maps.google.com/?cid=0x0:0xa17590d00acd8ab;
komplek housing;Perhimpunan Pengembang Perumahan;Rumah Syahrul;"5J7G+G4, Tj. Mulia, Kec. Tj. Tiram, Kabupaten Batu Bara, Sumatera Utara";"Kabupaten Batu Bara, Sumatera Utara";SUMATERA UTARA;;Indonesia;;;;31.632.874;996.246.755;https://maps.google.com/?cid=0x0:0xd8e01f7b6bf0b9fc;
komplek housing;komplek housing;Kec. Tj. Tiram;"Kabupaten Batu Bara, Sumatera Utara";"Kabupaten Batu Bara, Sumatera Utara";SUMATERA UTARA;;Indonesia;;;;32.233.279;99.582.014;https://maps.google.com/?cid=0x0:0x8a363145f8b924fe;
komplek housing;Pembangunan Perumahan;Iyan ikan gabus;"5JJQ+V6H, Ujung Kubu, Kec. Tj. Tiram, Kabupaten Batu Bara, Sumatera Utara 21253";"Ujung Kubu, Kec. Tj. Tiram, Kabupaten Batu Bara";SUMATERA UTARA;21253;Indonesia;;;;3.182.562;996.374.925;https://maps.google.com/?cid=0x0:0x9d9c336c14c95688;
komplek housing;Komplek perumahan;Rumah op ni sianto;"4JRX+MJ9, Sungai Mentaram, Kec. Tj. Tiram, Kabupaten Batu Bara, Sumatera Utara 21253";"Sungai Mentaram, Kec. Tj. Tiram, Kabupaten Batu Bara";SUMATERA UTARA;21253;Indonesia;;;;31.422.462;996.496.851;https://maps.google.com/?cid=0x0:0xd94bc0f6643263c;
komplek housing;komplek housing;Kampung bacang dalam;"5HJF+64J, Pahang, Kec. Talawi, Kabupaten Batu Bara, Sumatera Utara 21253";"Pahang, Kec. Talawi, Kabupaten Batu Bara";SUMATERA UTARA;21253;Indonesia;;;;31.805.831;995.727.712;https://maps.google.com/?cid=0x0:0xc8236dc3d68dc000;
komplek housing;Komplek perumahan;Rumah Opung Dewan Siagian;"4JRM+9JM, Sei Mentaram, Dusun II, Kec. Nibung Hangus, Kab. Batubara, Prov. Sumatera Utara, Kode Pos:, Sungai Mentaram, Tanjung Tiram, Batu Bara Regency, North Sumatra 21253";"Sei Mentaram, Dusun II, Kec. Nibung Hangus, Kab. Batubara, Prov. Sumatera Utara, Kode Pos:, Sungai Mentaram, Tanjung Tiram, Batu Bara Regency";SUMATERA UTARA;21253;Indonesia;;;;31.409.533;996.340.605;https://maps.google.com/?cid=0x0:0x3b5a3667f39f2de9;
komplek housing;Perhimpunan Pengembang Perumahan;Pematang Nibung;"4JRX+MJ9, Sungai Mentaram, Kec. Tj. Tiram, Kabupaten Batu Bara, Sumatera Utara 21253";"Sungai Mentaram, Kec. Tj. Tiram, Kabupaten Batu Bara";SUMATERA UTARA;21253;Indonesia;;;;31.415.251;996.495.701;https://maps.google.com/?cid=0x0:0x90ad3aad2fb9916f;
komplek housing;Perumahan;Block 2;"5HWC+PGC, Perumahan Sirih Nazfa Indah Jl. H. Maulana, Labuhan Ruku, Kec. Talawi, Kabupaten Batu Bara, Sumatera Utara 21253";"Perumahan Sirih Nazfa Indah Jl. H. Maulana, Labuhan Ruku, Kec. Talawi, Kabupaten Batu Bara";SUMATERA UTARA;21253;Indonesia;;;;31.968.001;995.712.646;https://maps.google.com/?cid=0x0:0xf49b88afb83c06c7;
komplek housing;Apotek;Klinik Deliana;"5M34+4HM, Jalan Tengar Desa Pahlawan, Pematang Rambai, Kec. Tj. Tiram, Kabupaten Batu Bara, Sumatera Utara 21253";"Jalan Tengar Desa Pahlawan, Pematang Rambai, Kec. Tj. Tiram, Kabupaten Batu Bara";SUMATERA UTARA;21253;Indonesia;;;;31.528.327;996.564.092;https://maps.google.com/?cid=0x0:0xd28cfcb1dc700a51;
komplek housing;Pembangunan Perumahan;Gang Rozali;"5JGQ+PMR, Jl. Ujung Kubu, Ujung Kubu, Kec. Tj. Tiram, Kabupaten Batu Bara, Sumatera Utara 21253";"Jl. Ujung Kubu, Ujung Kubu, Kec. Tj. Tiram, Kabupaten Batu Bara";SUMATERA UTARA;21253;Indonesia;;;;31.768.723;996.391.616;https://maps.google.com/?cid=0x0:0x59daa3ab8a823c2c;
perumahan;perumahan;Sumatera Utara 21256;"Kec. Air Putih, Kabupaten Batu Bara, Sumatera Utara";"Kabupaten Batu Bara, Sumatera Utara";SUMATERA UTARA;;Indonesia;;;;33.038.803;994.228.263;https://maps.google.com/?cid=0x0:0x859a198a23ab8dc8;
perumahan;Perumahan;Perumahan Air Putih Indah Indrapura;"79J9+GJ4, Gg. Kadhi, Indrapura, Kec. Air Putih, Kabupaten Batu Bara, Sumatera Utara 21256";"Gg. Kadhi, Indrapura, Kec. Air Putih, Kabupaten Batu Bara";SUMATERA UTARA;21256;Indonesia;;;;32.812.559;993.690.721;https://maps.google.com/?cid=0x0:0x9819016b9289900f;
perumahan;Komplek perumahan;GREEN CITY INDRAPURA;"796Q+335, Sukaraja, Kec. Air Putih, Kabupaten Batu Bara, Sumatera Utara 21256";"Sukaraja, Kec. Air Putih, Kabupaten Batu Bara";SUMATERA UTARA;21256;Indonesia;08126551092;;;32.601.423;99.387.729;https://maps.google.com/?cid=0x0:0x895d57e08cbdb00c;
perumahan;Pembangunan Perumahan;"Perum. Putri Indah Permai, Indrapura";"79G9+2X5, Perum. Putri Indah Permai Jl. Datuk Umar Palangki, Tanah Merah, Kec. Air Putih, Kabupaten Batu Bara, Sumatera Utara 21256";"Perum. Putri Indah Permai Jl. Datuk Umar Palangki, Tanah Merah, Kec. Air Putih, Kabupaten Batu Bara";SUMATERA UTARA;21256;Indonesia;085261563798;;;32.750.032;99.369.982;https://maps.google.com/?cid=0x0:0x7b5a77ffc2470ea6;
perumahan;Pembangunan Perumahan;PERUMAHAN DE NIBUNG;"798C+R57, Tanah Merah, Kec. Air Putih, Kabupaten Batu Bara, Sumatera Utara 21256";"Tanah Merah, Kec. Air Putih, Kabupaten Batu Bara";SUMATERA UTARA;21256;Indonesia;081396453030;;;32.670.291;993.704.361;https://maps.google.com/?cid=0x0:0xb5d92a61fe4333cc;
perumahan;Komplek perumahan;medan;"79QC+7HQ, Indrapura, Kec. Air Putih, Kabupaten Batu Bara, Sumatera Utara";"Kabupaten Batu Bara, Sumatera Utara";SUMATERA UTARA;;Indonesia;;;;32.882.149;99.371.471;https://maps.google.com/?cid=0x0:0x62c81cf529a6cc93;
perumahan;Komplek perumahan;Komplek Tanjung Gading Inalum;"886Q+FQG, Indrapura, Kec. Air Putih, Kabupaten Batu Bara, Sumatera Utara 21256";"Indrapura, Kec. Air Putih, Kabupaten Batu Bara";SUMATERA UTARA;21256;Indonesia;081262856457;;;33.111.882;993.394.411;https://maps.google.com/?cid=0x0:0xe64b073e5e911723;
perumahan;perumahan;Perumahan Putri Indah Permai No. 38;"79GC+52W, Jl. Datuk Umar Palangki, Tanah Merah, Kec. Air Putih, Kabupaten Batu Bara, Sumatera Utara";"Kabupaten Batu Bara, Sumatera Utara";SUMATERA UTARA;;Indonesia;;;;32.754.869;99.370.093;https://maps.google.com/?cid=0x0:0x27dfac4bb4ce16fd;
perumahan;Komplek perumahan;Perumahan;"79J7+49V, Ps. Lapan, Kec. Air Putih, Kabupaten Batu Bara, Sumatera Utara 21256";"Ps. Lapan, Kec. Air Putih, Kabupaten Batu Bara";SUMATERA UTARA;21256;Indonesia;;;;32.803.665;993.634.142;https://maps.google.com/?cid=0x0:0x7670fecaf20c4b42;
perumahan;Kantor Pemerintah;"Dusun V Desa Titi Payung, Kecamatan Air Putih, kabupaten Batu Bara";"79Q5+CVH, Dusun V, Desa, Titi Payung, Kec. Air Putih, Kabupaten Batu Bara, Sumatera Utara 21257";"Dusun V, Desa, Titi Payung, Kec. Air Putih, Kabupaten Batu Bara";SUMATERA UTARA;21257;Indonesia;;;;32.885.556;99.359.738;https://maps.google.com/?cid=0x0:0x89891e310e315a1e;
perumahan;Pembangunan Perumahan;Sumatera utara;"79QC+7HQ, Indrapura, Kec. Air Putih, Kabupaten Batu Bara, Sumatera Utara";"Kabupaten Batu Bara, Sumatera Utara";SUMATERA UTARA;;Indonesia;;;;32.882.149;99.371.471;https://maps.google.com/?cid=0x0:0x39b0e7a147e8c60c;
perumahan;Pembangunan Perumahan;"Perumahan Green City Desa Aras, Kec. Air Putih";"79HG+89V, Aras, Kec. Air Putih, Kabupaten Batu Bara, Sumatera Utara 21256";"Aras, Kec. Air Putih, Kabupaten Batu Bara";SUMATERA UTARA;21256;Indonesia;;;;32.783.686;993.759.178;https://maps.google.com/?cid=0x0:0xbc3a7c3f4308234;
perumahan;Otoritas Perumahan;Perumahan Griya Tanah Merah Permai;"79QC+7HQ, Jl. Tanah Merah, Indrapura, Kec. Air Putih, Kabupaten Batu Bara, Sumatera Utara 21256";"Jl. Tanah Merah, Indrapura, Kec. Air Putih, Kabupaten Batu Bara";SUMATERA UTARA;21256;Indonesia;082364545553;;;32.882.149;99.371.471;https://maps.google.com/?cid=0x0:0x6156b6bc0e097998;
perumahan;Komplek perumahan;MENTARI CITY PERMAI;"Jl. Datuk Umar Palangki, Tanah Merah, Kec. Air Putih, Kabupaten Batu Bara, Sumatera Utara 21256";"Tanah Merah, Kec. Air Putih, Kabupaten Batu Bara";SUMATERA UTARA;21256;Indonesia;;;;32.704.998;993.662.115;https://maps.google.com/?cid=0x0:0xb423cc02258afd8d;
perumahan;Komplek perumahan;Rumah;"79G9+2X5, Perum. Putri Indah Permai Jl. Datuk Umar Palangki, Tanah Merah, Kec. Air Putih, Kabupaten Batu Bara, Sumatera Utara 21256";"Perum. Putri Indah Permai Jl. Datuk Umar Palangki, Tanah Merah, Kec. Air Putih, Kabupaten Batu Bara";SUMATERA UTARA;21256;Indonesia;;;;32.750.519;993.699.567;https://maps.google.com/?cid=0x0:0x59e28e8a285911ec;
perumahan;Pembangunan Perumahan;Perumahan Mutiara Asri;"79HG+89V, Aras, Kec. Air Putih, Kabupaten Batu Bara, Sumatera Utara 21256";"Aras, Kec. Air Putih, Kabupaten Batu Bara";SUMATERA UTARA;21256;Indonesia;;;;32.787.662;993.756.459;https://maps.google.com/?cid=0x0:0x9a0d94276fb07db1;
perumahan;Perumahan;Komplek Perumahan pandawa 3;"79R9+WPP, Jl. Turi, Indrapura, Kec. Air Putih, Kabupaten Batu Bara, Sumatera Utara 21257";"Jl. Turi, Indrapura, Kec. Air Putih, Kabupaten Batu Bara";SUMATERA UTARA;21257;Indonesia;;;;3.292.344;99.369.321;https://maps.google.com/?cid=0x0:0xad36d43d76eed7bd;
perumahan;Komplek perumahan;Perumahan Te Amo City;"79C8+MPJ, Tanah Merah, Kec. Air Putih, Kabupaten Batu Bara, Sumatera Utara 21256";"Tanah Merah, Kec. Air Putih, Kabupaten Batu Bara";SUMATERA UTARA;21256;Indonesia;;;;32.717.128;993.667.687;https://maps.google.com/?cid=0x0:0xa8fc04c9c9c30929;
perumahan;Pembangunan Perumahan;PERUMAHAN VILA SEGI TIGA INDAH;"79X9+2CC, Dusun I, Desa Tanjung Mulya, Kec. Air Putih, Kabupaten Batu Bara, Sumatera Utara";"Kabupaten Batu Bara, Sumatera Utara";SUMATERA UTARA;;Indonesia;;;;32.975.704;993.685.259;https://maps.google.com/?cid=0x0:0xb1c7df991b1b53eb;
perumahan;Pembangunan Perumahan;Rumah adili;"79QC+7HQ, Indrapura, Kec. Air Putih, Kabupaten Batu Bara, Sumatera Utara";"Kabupaten Batu Bara, Sumatera Utara";SUMATERA UTARA;;Indonesia;;;;32.882.149;99.371.471;https://maps.google.com/?cid=0x0:0x686dc737f0bc06fb;
perumahan;Perumahan;Aras Residence;"79JG+5MR, Jl. K.H. Ahmad Dahlan, Indrapura, Kec. Air Putih, Kabupaten Batu Bara, Sumatera Utara 21256";"Jl. K.H. Ahmad Dahlan, Indrapura, Kec. Air Putih, Kabupaten Batu Bara";SUMATERA UTARA;21256;Indonesia;081264234352;;;32.804.948;993.766.326;https://maps.google.com/?cid=0x0:0xdd397ce9277d7d44;
perumahan;Area Wi-Fi;Voucher wi fi;"Gg sabar No. 70, dusun ladang lawas, Ps. Lapan, Kec. Air Putih, Kabupaten Batu Bara, Sumatera Utara 21256";"dusun ladang lawas, Ps. Lapan, Kec. Air Putih, Kabupaten Batu Bara";SUMATERA UTARA;21256;Indonesia;;;;32.834.258;993.641.277;https://maps.google.com/?cid=0x0:0x107fedd9dbfe9849;
perumahan;Agen Sewa Ruangan Eksekutif;Rumah123;"Level 37 EightyEight @ Kasablanka, Jl. Raya Casablanca No.Kav.88, RT.16/RW.5, Menteng Dalam, Kec. Tebet, Kota Jakarta Selatan, Daerah Khusus Ibukota Jakarta 12870";"Jl. Raya Casablanca No.Kav.88, RT.16/RW.5, Menteng Dalam, Kec. Tebet, Kota Jakarta Selatan";SUMATERA UTARA;12870;Indonesia;02130496123;;;-62.243.351;1.068.418.884;https://maps.google.com/?cid=0x0:0xf630aa910b38c808;
perumahan;Kompleks Townhouse;Pantai Indah Kapuk 2;"Perumahan PIK 2 , Cluster Scarlet 2, Kec. Penjaringan";"Kabupaten Tangerang, Banten";SUMATERA UTARA;;Indonesia;;;;-60.575.109;1.066.786.874;https://maps.google.com/?cid=0x0:0x5df7ef83831bfe20;
perumahan;Komplek perumahan;Pantai Bukit Villa;"WPG5+X9, Kosambi Tim., Kec. Kosambi, Kabupaten Tangerang, Banten 15213";"Kosambi Tim., Kec. Kosambi, Kabupaten Tangerang";SUMATERA UTARA;15213;Indonesia;;;;-60.726.189;1.067.084.984;https://maps.google.com/?cid=0x0:0x84e29f24482fd5b9;
perumahan;Komplek perumahan;Boss PIK 2;"Jl. Pantai Indah Kapuk No.2, Kamal Muara, Kec. Penjaringan, Jkt Utara, Daerah Khusus Ibukota Jakarta 14470";"Kamal Muara, Kec. Penjaringan, Jkt Utara";SUMATERA UTARA;14470;Indonesia;;;;-61.114.429;1.067.369.747;https://maps.google.com/?cid=0x0:0x41003cb3bb21faaa;
perumahan;Komplek perumahan;"Pasir putih, air molek 1";"J7PV+2GR, Tj. Gading, Kec. Pasir Penyu, Kabupaten Indragiri Hulu, Riau";"Kabupaten Indragiri Hulu, Riau";SUMATERA UTARA;;Indonesia;;;;-0.3648953;1.022.937.543;https://maps.google.com/?cid=0x0:0xcbc16b4fc0e3e81b;
perumahan;Pembangunan Perumahan;Bhawani singh kanawat;"79QC+7HQ, Indrapura, Kec. Air Putih, Kabupaten Batu Bara, Sumatera Utara 21256";"Indrapura, Kec. Air Putih, Kabupaten Batu Bara";SUMATERA UTARA;21256;Indonesia;;;;32.882.149;99.371.471;https://maps.google.com/?cid=0x0:0x194c680917e6b9ca;
perumahan;Pembangunan Perumahan;Perumahan PURI Tanah Merah;"7986+2HH, Tanah Merah, Kec. Air Putih, Kabupaten Batu Bara, Sumatera Utara 21256";"Tanah Merah, Kec. Air Putih, Kabupaten Batu Bara";SUMATERA UTARA;21256;Indonesia;;;;32.650.621;993.614.777;https://maps.google.com/?cid=0x0:0xb2bb2acbe4baf0c;
perumahan;perumahan;Sumatera Utara 21255;"Kec. Lima Puluh, Kabupaten Batu Bara, Sumatera Utara";"Kabupaten Batu Bara, Sumatera Utara";SUMATERA UTARA;;Indonesia;;;;31.941.339;994.783.816;https://maps.google.com/?cid=0x0:0xe5004ab9f4e4c92d;
perumahan;Komplek perumahan;Perumahan DL Sitorus 3;"6F8F+2R2, Pulau Sejuk, Kec. Lima Puluh, Kabupaten Batu Bara, Sumatera Utara 21255";"Pulau Sejuk, Kec. Lima Puluh, Kabupaten Batu Bara";SUMATERA UTARA;21255;Indonesia;;;;32.150.109;994.745.044;https://maps.google.com/?cid=0x0:0x806e485982627329;
perumahan;Pembangunan Perumahan;Batubara;"5CWF+P56, Jl. Lintas Sumatra, Kota, Kec. Lima Puluh, Kabupaten Batu Bara, Sumatera Utara 21255";"Jl. Lintas Sumatra, Kota, Kec. Lima Puluh, Kabupaten Batu Bara";SUMATERA UTARA;21255;Indonesia;0895605351400;;;31.967.929;994.228.977;https://maps.google.com/?cid=0x0:0xdf8bbbf7b8389d5c;
perumahan;Komplek perumahan;Rumah kakankemenag batu bara;"5C9C+9G5, Jl. Pendidikan, Lima Puluh Kota, Kec. Lima Puluh, Kabupaten Batu Bara, Sumatera Utara 21255";"Jl. Pendidikan, Lima Puluh Kota, Kec. Lima Puluh, Kabupaten Batu Bara";SUMATERA UTARA;21255;Indonesia;;;;3.168.398;99.421.352;https://maps.google.com/?cid=0x0:0x2784b2f9143d0544;
perumahan;Komplek perumahan;Rumah;"5C99+HWG, Jl. Rambutan, Lima Puluh Kota, Kec. Lima Puluh, Kabupaten Batu Bara, Sumatera Utara 21255";"Jl. Rambutan, Lima Puluh Kota, Kec. Lima Puluh, Kabupaten Batu Bara";SUMATERA UTARA;21255;Indonesia;;;;31.689.376;994.198.353;https://maps.google.com/?cid=0x0:0xbe820356e42e2226;
perumahan;Pembangunan Perumahan;Perumahan Limapuluh (DL.Sitorus);"5CFG+269, Lima Puluh Kota, Kec. Lima Puluh, Kabupaten Batu Bara, Sumatera Utara";"Kabupaten Batu Bara, Sumatera Utara";SUMATERA UTARA;;Indonesia;;;;31.725.137;994.255.634;https://maps.google.com/?cid=0x0:0xe645e2a77c65e95a;
perumahan;Komplek perumahan;Rumah Pak Manurung;"Jl. Duku Perumnas No.4, Lima Puluh Kota, Kec. Lima Puluh, Kabupaten Batu Bara, Sumatera Utara 21255";"Lima Puluh Kota, Kec. Lima Puluh, Kabupaten Batu Bara";SUMATERA UTARA;21255;Indonesia;;;;31.680.458;994.194.758;https://maps.google.com/?cid=0x0:0x76b8c96fbca363f5;
perumahan;Kompleks Bangunan Perusahaan;Komplek Sahaba Residence;"5C9F+RR9, Lima Puluh Kota, Kec. Lima Puluh, Kabupaten Batu Bara, Sumatera Utara 21255";"Lima Puluh Kota, Kec. Lima Puluh, Kabupaten Batu Bara";SUMATERA UTARA;21255;Indonesia;082165609436;;;31.695.331;994.246.223;https://maps.google.com/?cid=0x0:0x9e1c15b5b62808b1;
perumahan;Komplek perumahan;Komplek Perumahan Socfin Limapuluh;"5CG7+947, Lima Puluh Kota, Kec. Lima Puluh, Kabupaten Batu Bara, Sumatera Utara 21255";"Lima Puluh Kota, Kec. Lima Puluh, Kabupaten Batu Bara";SUMATERA UTARA;21255;Indonesia;;;;31.759.006;994.127.921;https://maps.google.com/?cid=0x0:0x1cf36701b05466cf;
perumahan;Perhimpunan Pengembang Perumahan;Muhammad Hendriawansyah;"5FV8+2R7, Jl. Datuk Lima Puluh, Empat Negeri, Kec. Lima Puluh, Kabupaten Batu Bara, Sumatera Utara 21255";"Jl. Datuk Lima Puluh, Empat Negeri, Kec. Lima Puluh, Kabupaten Batu Bara";SUMATERA UTARA;21255;Indonesia;;;;3.192.526;99.467.055;https://maps.google.com/?cid=0x0:0x88bb3e736d07e43b;
perumahan;Pembangunan Perumahan;Batu bara;"5GF2+J6Q, Cahaya Pardomuan, Kec. Lima Puluh, Kabupaten Batu Bara, Sumatera Utara 21255";"Cahaya Pardomuan, Kec. Lima Puluh, Kabupaten Batu Bara";SUMATERA UTARA;21255;Indonesia;;;;31.740.979;995.006.143;https://maps.google.com/?cid=0x0:0x867a2ff1e363ff2;
perumahan;Komplek perumahan;Rumah Budi Siahaan  Desi Silitonga;"5CC8+63Q, Lima Puluh Kota, Kec. Lima Puluh, Kabupaten Batu Bara, Sumatera Utara";"Kabupaten Batu Bara, Sumatera Utara";SUMATERA UTARA;;Indonesia;;;;31.705.849;994.152.292;https://maps.google.com/?cid=0x0:0xbd7a078f02706a79;
perumahan;Komplek perumahan;Rumah Rahayu;"6F4G+CF6, Pulau Sejuk, Kec. Lima Puluh, Kabupaten Batu Bara, Sumatera Utara 21255";"Pulau Sejuk, Kec. Lima Puluh, Kabupaten Batu Bara";SUMATERA UTARA;21255;Indonesia;;;;32.061.404;994.762.002;https://maps.google.com/?cid=0x0:0x34bbcc0efee4f8fd;
perumahan;Pembangunan Perumahan;Eko Harianto;"6F49+C49, Lubuk Besar, Kec. Lima Puluh, Kabupaten Batu Bara, Sumatera Utara 21255";"Lubuk Besar, Kec. Lima Puluh, Kabupaten Batu Bara";SUMATERA UTARA;21255;Indonesia;085372426777;;;32.060.481;994.678.444;https://maps.google.com/?cid=0x0:0x9bf207601742e338;
perumahan;Komplek perumahan;Batubara;"5FPJ+4F, Simpang Dolok, Kec. Lima Puluh, Kabupaten Batu Bara, Sumatera Utara";"Kabupaten Batu Bara, Sumatera Utara";SUMATERA UTARA;;Indonesia;;;;31.853.428;994.811.486;https://maps.google.com/?cid=0x0:0x3bf1ad7911e66640;
perumahan;Perhimpunan Pengembang Perumahan;Rumah Lia Purba;"5C63+5F4, Mangkai Lama, Kec. Lima Puluh, Kabupaten Batu Bara, Sumatera Utara 21255";"Mangkai Lama, Kec. Lima Puluh, Kabupaten Batu Bara";SUMATERA UTARA;21255;Indonesia;;;;31.603.827;994.037.075;https://maps.google.com/?cid=0x0:0x5c3847db5dfc35c7;
perumahan;Komplek perumahan;Perumahan Griya Megah Lima Puluh;"5C88+V4M, Lima Puluh Kota, Kec. Lima Puluh, Kabupaten Batu Bara, Sumatera Utara 21255";"Lima Puluh Kota, Kec. Lima Puluh, Kabupaten Batu Bara";SUMATERA UTARA;21255;Indonesia;;;;3.167.856;994.153.389;https://maps.google.com/?cid=0x0:0xdd05dc006cfbc994;
perumahan;Komplek perumahan;Rumah resno;"Simpang Dolok, Kec. Lima Puluh, Kabupaten Batu Bara, Sumatera Utara 21255";"Kec. Lima Puluh, Kabupaten Batu Bara";SUMATERA UTARA;21255;Indonesia;082360351022;;;3.201.467;994.923.099;https://maps.google.com/?cid=0x0:0x6c2d582f81620cad;
perumahan;Komplek perumahan;Rumah Nurul Fadila;"5C98+6R7, Lima Puluh Kota, Kec. Lima Puluh, Kabupaten Batu Bara, Sumatera Utara 21255";"Lima Puluh Kota, Kec. Lima Puluh, Kabupaten Batu Bara";SUMATERA UTARA;21255;Indonesia;081264116045;;;31.680.488;994.170.606;https://maps.google.com/?cid=0x0:0xa06b44481307ff20;
perumahan;Komplek perumahan;Rumah FaridDzaky;"Dusun 7 Taman sari, Perkebunan Lima Puluh, Kec. Lima Puluh, Kabupaten Batu Bara, Sumatera Utara 21255";"Perkebunan Lima Puluh, Kec. Lima Puluh, Kabupaten Batu Bara";SUMATERA UTARA;21255;Indonesia;;;;3.187.881;994.148.488;https://maps.google.com/?cid=0x0:0xe259c4e2f6da43f1;
perumahan;Rumah wisata;S. Sitohang home;"7FG7+C7V, Unnamed Road, Bulan-Bulan, Kec. Lima Puluh, Kabupaten Batu Bara, Sumatera Utara 21255";"Unnamed Road, Bulan-Bulan, Kec. Lima Puluh, Kabupaten Batu Bara";SUMATERA UTARA;21255;Indonesia;;;;32.761.164;994.631.666;https://maps.google.com/?cid=0x0:0x3b32f07460a29e26;
perumahan;Komplek perumahan;dila cantik;"5C98+6R6, Lima Puluh Kota, Kec. Lima Puluh, Kabupaten Batu Bara, Sumatera Utara 21255";"Lima Puluh Kota, Kec. Lima Puluh, Kabupaten Batu Bara";SUMATERA UTARA;21255;Indonesia;;;;31.680.487;994.170.108;https://maps.google.com/?cid=0x0:0x5e31c695fd67f8d9;
perumahan;Komplek perumahan;Rumah Anan suhendi;"7FFF+VQJ, Jl. Pematang Jernang, Perupuk, Kec. Lima Puluh, Kabupaten Batu Bara, Sumatera Utara 21255";"Jl. Pematang Jernang, Perupuk, Kec. Lima Puluh, Kabupaten Batu Bara";SUMATERA UTARA;21255;Indonesia;;;;32.748.002;994.756.248;https://maps.google.com/?cid=0x0:0x2601970ce2b1557c;
perumahan;Komplek perumahan;Lingkungan 3;"lingkungan jalan perniagaan No.3, Lima Puluh Kota, Kec. Lima Puluh, Kabupaten Batu Bara, Sumatera Utara 21255";"Lima Puluh Kota, Kec. Lima Puluh, Kabupaten Batu Bara";SUMATERA UTARA;21255;Indonesia;;;;31.711.095;994.214.379;https://maps.google.com/?cid=0x0:0xb29a03c509c3cf55;
perumahan;perumahan;Sumatera Utara 21258;"Kabupaten Batu Bara, Sumatera Utara";"Kabupaten Batu Bara, Sumatera Utara";SUMATERA UTARA;;Indonesia;;;;33.642.107;993.562.094;https://maps.google.com/?cid=0x0:0x6f79774b1617495a;
perumahan;Komplek perumahan;Komplek Perumahan Villa Permata;"Unnamed Road, Pematang Cengkring, Kec. Medang Deras, Kabupaten Batu Bara, Sumatera Utara 21258";"Pematang Cengkring, Kec. Medang Deras, Kabupaten Batu Bara";SUMATERA UTARA;21258;Indonesia;0813700341006;;;33.566.143;993.802.963;https://maps.google.com/?cid=0x0:0x82e3b25ff52df85b;
perumahan;Kompleks Townhouse;"Perumahan Villa Permata, E10";"994H+HFG, Unnamed Road, Pematang Cengkring, Medang Deras, Batu Bara Regency, North Sumatra 21258";"Unnamed Road, Pematang Cengkring, Medang Deras, Batu Bara Regency";SUMATERA UTARA;21258;Indonesia;;;;3.356.439;993.787.069;https://maps.google.com/?cid=0x0:0xff60641fb5f42e9e;
perumahan;Komplek perumahan;Perumahan King Residence;"9C4F+4W9, Jl. Dusun VI, Lalang, Kec. Medang Deras, Kabupaten Batu Bara, Sumatera Utara 21258";"Jl. Dusun VI, Lalang, Kec. Medang Deras, Kabupaten Batu Bara";SUMATERA UTARA;21258;Indonesia;081264055558;;;33.552.757;99.424.858;https://maps.google.com/?cid=0x0:0x7bab80c6c824c7a7;
perumahan;Pembangunan Perumahan;Perumahan Griya Medang Indah Permai;"99HW+QG, Medang, Kec. Medang Deras, Kabupaten Batu Bara, Sumatera Utara";"Kabupaten Batu Bara, Sumatera Utara";SUMATERA UTARA;;Indonesia;085384710693;;;3.379.044;9.939.648;https://maps.google.com/?cid=0x0:0x977c3c3ccb18747e;
perumahan;Pembangunan Perumahan;Rumah Agus Rizki;"Rumah Agus Rizki, Jln atletik lk 2, Kel pagurawan, Pangkalan Dodek Baru, Kec. Medang Deras, Kabupaten Batu Bara, Sumatera Utara 21258";"Jln atletik lk 2, Kel pagurawan, Pangkalan Dodek Baru, Kec. Medang Deras, Kabupaten Batu Bara";SUMATERA UTARA;21258;Indonesia;;;;34.100.525;993.150.106;https://maps.google.com/?cid=0x0:0x8f025af47f4ace09;
perumahan;Pembangunan Perumahan;RM khodijah;"99FF+M26, Unnamed Road, Medang, Kec. Medang Deras, Kabupaten Batu Bara, Sumatera Utara 21258";"Unnamed Road, Medang, Kec. Medang Deras, Kabupaten Batu Bara";SUMATERA UTARA;21258;Indonesia;;;;33.741.624;993.725.051;https://maps.google.com/?cid=0x0:0x724257d3db46b394;
perumahan;Komplek perumahan;PERUMAHAN PESONA KARYA 3;"996V+VHJ, Pakam, Kec. Medang Deras, Kabupaten Batu Bara, Sumatera Utara 21258";"Pakam, Kec. Medang Deras, Kabupaten Batu Bara";SUMATERA UTARA;21258;Indonesia;;;;3.362.503;99.394.395;https://maps.google.com/?cid=0x0:0xcdf3f35262cb58f2;
perumahan;Komplek perumahan;Rumah rafa;"9CG4+5HJ, Jl. Access Road Inalum, Lalang, Kec. Medang Deras, Kabupaten Batu Bara, Sumatera Utara 21258";"Jl. Access Road Inalum, Lalang, Kec. Medang Deras, Kabupaten Batu Bara";SUMATERA UTARA;21258;Indonesia;;;;33.754.735;994.064.048;https://maps.google.com/?cid=0x0:0x117fc125c22048ab;
perumahan;Komplek perumahan;Rumah Jaka purnama;"9C63+CR8, Lalang, Kec. Medang Deras, Kabupaten Batu Bara, Sumatera Utara";"Kabupaten Batu Bara, Sumatera Utara";SUMATERA UTARA;;Indonesia;;;;33.610.435;994.045.809;https://maps.google.com/?cid=0x0:0x7258e380c021bf98;
perumahan;Perhimpunan Pengembang Perumahan;Rumah minggu pardede;"97VR+QF2, Sido Mulyo, Kec. Medang Deras, Kabupaten Batu Bara, Sumatera Utara";"Kabupaten Batu Bara, Sumatera Utara";SUMATERA UTARA;;Indonesia;;;;3.394.398;992.911.328;https://maps.google.com/?cid=0x0:0x9789ec4a4bb4e219;
perumahan;Komplek perumahan;Nadira;"89WG+VR4, Pematang Cengkring, Kec. Medang Deras, Kabupaten Batu Bara, Sumatera Utara 21258";"Pematang Cengkring, Kec. Medang Deras, Kabupaten Batu Bara";SUMATERA UTARA;21258;Indonesia;;;;33.471.339;993.770.919;https://maps.google.com/?cid=0x0:0x3f3224305217ad3;
perumahan;Perumahan;Perumahan Grand Asia City 2;"99HX+4Q9, Dusun Teluk Baru, Medang, Kec. Medang Deras, Kabupaten Batu Bara, Sumatera Utara 21258";"Dusun Teluk Baru, Medang, Kec. Medang Deras, Kabupaten Batu Bara";SUMATERA UTARA;21258;Indonesia;081260628161;;;33.777.807;993.994.944;https://maps.google.com/?cid=0x0:0x14dec98a99b492e2;
perumahan;Komplek perumahan;Rumah Pak Udin Rangkuti;"8CQ9+R9G, Pakam, Kec. Medang Deras, Kabupaten Batu Bara, Sumatera Utara 21258";"Pakam, Kec. Medang Deras, Kabupaten Batu Bara";SUMATERA UTARA;21258;Indonesia;;;;33.394.721;994.190.603;https://maps.google.com/?cid=0x0:0x5582727b9598581;
perumahan;Komplek perumahan;Perumahan multi kapas;"9C7G+CRX, Lalang, Kec. Medang Deras, Kabupaten Batu Bara, Sumatera Utara";"Kabupaten Batu Bara, Sumatera Utara";SUMATERA UTARA;;Indonesia;082168298844;;;33.636.224;994.271.102;https://maps.google.com/?cid=0x0:0x31066832f8410803;
perumahan;Komplek perumahan;Pajak sore;"994M+WM2, Jl. Access Road Inalum, Pakam Raya, Kec. Medang Deras, Kabupaten Batu Bara, Sumatera Utara";"Kabupaten Batu Bara, Sumatera Utara";SUMATERA UTARA;;Indonesia;;;;3.357.253;993.841.317;https://maps.google.com/?cid=0x0:0x3acc47c23b56ab5f;
perumahan;Perhimpunan Pengembang Perumahan;Perumahan Pakam Raya Lestari;"994P+8MJ, Desa, Pakam Raya, Kec. Medang Deras, Kabupaten Batu Bara, Sumatera Utara 21258";"Desa, Pakam Raya, Kec. Medang Deras, Kabupaten Batu Bara";SUMATERA UTARA;21258;Indonesia;;;;33.554.255;993.871.586;https://maps.google.com/?cid=0x0:0xf27cf6e3080de86d;
perumahan;Perhimpunan Pengembang Perumahan;Rumah saya;"99W5+37Q, Durian, Kec. Medang Deras, Kabupaten Batu Bara, Sumatera Utara 21258";"Durian, Kec. Medang Deras, Kabupaten Batu Bara";SUMATERA UTARA;21258;Indonesia;;;;33.952.091;993.582.304;https://maps.google.com/?cid=0x0:0x71801fb03f1970f1;
perumahan;Komplek perumahan;Rumah Harefa;"89M9+GQG, Pakam Raya, Kec. Medang Deras, Kabupaten Batu Bara, Sumatera Utara 21258";"Pakam Raya, Kec. Medang Deras, Kabupaten Batu Bara";SUMATERA UTARA;21258;Indonesia;;;;33.329.819;993.694.295;https://maps.google.com/?cid=0x0:0x7e317acb16624d0;
perumahan;Kantor Perusahaan;Desa durian;"99G5+GCX, Durian, Kec. Medang Deras, Kabupaten Batu Bara, Sumatera Utara";"Kabupaten Batu Bara, Sumatera Utara";SUMATERA UTARA;;Indonesia;;;;3.376.364;99.358.612;https://maps.google.com/?cid=0x0:0x29ace5da4e3d1ee6;
perumahan;Kantor Pemerintah;Desa medang;"99FF+7G, Medang, Kec. Medang Deras, Kabupaten Batu Bara, Sumatera Utara 21258";"Medang, Kec. Medang Deras, Kabupaten Batu Bara";SUMATERA UTARA;21258;Indonesia;;;;33.732.465;993.738.564;https://maps.google.com/?cid=0x0:0xbad4b7a106d03f89;
perumahan;;fira azahra;"99RF+H75, Medang, Kec. Medang Deras, Kabupaten Batu Bara, Sumatera Utara 21258";"Medang, Kec. Medang Deras, Kabupaten Batu Bara";SUMATERA UTARA;21258;Indonesia;;;;3.391.271;993.736.986;https://maps.google.com/?cid=0x0:0x33519ba06bfb5102;
perumahan;Komplek perumahan;Op daut silalahi;"98MW+QMX, Sei Buah Keras, Kec. Medang Deras, Kabupaten Batu Bara, Sumatera Utara 21258";"Sei Buah Keras, Kec. Medang Deras, Kabupaten Batu Bara";SUMATERA UTARA;21258;Indonesia;;;;33.844.879;9.934.673;https://maps.google.com/?cid=0x0:0x97e25368ca5eafba;
perumahan;Pembangunan Perumahan;GG saoh;"C877+FX2, Pangkalan Dodek Baru, Kec. Medang Deras, Kabupaten Batu Bara, Sumatera Utara 21258";"Pangkalan Dodek Baru, Kec. Medang Deras, Kabupaten Batu Bara";SUMATERA UTARA;21258;Indonesia;;;;34.136.305;993.148.954;https://maps.google.com/?cid=0x0:0x5a3ccb670a9546ce;
perumahan;perumahan;Kec. Sei Balai;"Kabupaten Batu Bara, Sumatera Utara";"Kabupaten Batu Bara, Sumatera Utara";SUMATERA UTARA;;Indonesia;;;;31.284.201;99.586.468;https://maps.google.com/?cid=0x0:0xad743578460454da;
perumahan;perumahan;Sumatera Utara 21252;Sumatera Utara;Sumatera Utara;SUMATERA UTARA;;Indonesia;;;;30.952.546;995.658.088;https://maps.google.com/?cid=0x0:0xce2da5eb0b0c259f;
perumahan;Pembangunan Perumahan;Perumahan Mauli Storki Sei Balai;"3JP2+4J3, Durian, Kec. Sei Balai, Kabupaten Batu Bara, Sumatera Utara 21252";"Durian, Kec. Sei Balai, Kabupaten Batu Bara";SUMATERA UTARA;21252;Indonesia;085370225338;;;30.852.501;996.015.472;https://maps.google.com/?cid=0x0:0xce24483fa2e75921;
perumahan;Balai Pertemuan Desa;Sei balai;"4HHQ+968, Sei Balai, Kec. Sei Balai, Kabupaten Batu Bara, Sumatera Utara";"Kabupaten Batu Bara, Sumatera Utara";SUMATERA UTARA;;Indonesia;;;;31.284.001;995.880.642;https://maps.google.com/?cid=0x0:0x95071eafc7c84651;
perumahan;Pembangunan Perumahan;SEI balai;"4H6Q+98F, Gg. Perjuangan 1, Sumber Rejo Tim, Kec. Percut Sei Tuan, Kabupaten Deli Serdang, Sumatera Utara";"Kabupaten Deli Serdang, Sumatera Utara";SUMATERA UTARA;;Indonesia;;;;31.109.483;995.882.815;https://maps.google.com/?cid=0x0:0x6ab2a5b4b62a32e7;
perumahan;Lapangan Sepak Bola;Lapangan Perkb. BSP Sei Balai Perumahan Blok K1;"2HVG+X4P, Perkebunan Sei Balai, Kec. Sei Balai, Kabupaten Batu Bara, Sumatera Utara 21252";"Perkebunan Sei Balai, Kec. Sei Balai, Kabupaten Batu Bara";SUMATERA UTARA;21252;Indonesia;;;;30.449.749;995.753.189;https://maps.google.com/?cid=0x0:0x86cf3beae1d2f21c;
perumahan;Komplek perumahan;Perumahan SENTOSA PALACE;"3JH2+H9H, Perkebunan Sei Balai, Kec. Sei Balai, Kabupaten Batu Bara, Sumatera Utara 21252";"Perkebunan Sei Balai, Kec. Sei Balai, Kabupaten Batu Bara";SUMATERA UTARA;21252;Indonesia;085261008585;;;30.789.376;996.009.769;https://maps.google.com/?cid=0x0:0xf40bd1e439a16437;
perumahan;Pembangunan Perumahan;Rmh PK Sei Balai;"4G5W+32V Rmh PK, Perkebunan Sei Bejangkar, Kec. Sei Balai, Kabupaten Batu Bara, Sumatera Utara 21254";"Perkebunan Sei Bejangkar, Kec. Sei Balai, Kabupaten Batu Bara";SUMATERA UTARA;21254;Indonesia;;;;31.077.393;995.450.465;https://maps.google.com/?cid=0x0:0xfe143e073b71cc67;
perumahan;perumahan;Perumahan Bichar Tumio;"3JQ2+4H8, Durian, Kec. Sei Balai, Kabupaten Batu Bara, Sumatera Utara 21252";"Durian, Kec. Sei Balai, Kabupaten Batu Bara";SUMATERA UTARA;21252;Indonesia;081260555576;;;30.886.343;996.018.056;https://maps.google.com/?cid=0x0:0xfd9191acfaf3b988;
perumahan;Pom bensin/SPBU;MARPAUNG/HASIBUAN;"Jl. Lintas Sumatra No.184, Perkebunan Sei Balai, Kec. Sei Balai, Kabupaten Batu Bara, Sumatera Utara 21252";"Perkebunan Sei Balai, Kec. Sei Balai, Kabupaten Batu Bara";SUMATERA UTARA;21252;Indonesia;;;;30.770.577;996.027.639;https://maps.google.com/?cid=0x0:0xe970e9423929335;
perumahan;Komplek perumahan;BTN Desa Perjuangan;"Jl. Lintas Sumatra No.169, Desa Perjuangan, Kec. Sei Balai, Kabupaten Batu Bara, Sumatera Utara 21252";"Desa Perjuangan, Kec. Sei Balai, Kabupaten Batu Bara";SUMATERA UTARA;21252;Indonesia;;;;30.811.588;996.010.745;https://maps.google.com/?cid=0x0:0x6d8d4c25d64ad921;
perumahan;Pembangunan Perumahan;Rumah ibnu;"Pondok PKS Kisaran POM Blok A. 07, Perkebunan Sei Balai, Kec. Sei Balai, Kabupaten Batu Bara, Sumatera Utara 21252";"Perkebunan Sei Balai, Kec. Sei Balai, Kabupaten Batu Bara";SUMATERA UTARA;21252;Indonesia;;;;30.429.538;995.750.051;https://maps.google.com/?cid=0x0:0x72e40c158e16c245;
perumahan;Pembangunan Perumahan;Rumah KATON;"3HP7+CM6, Si Ajam, Kec. Sei Balai, Kabupaten Batu Bara, Sumatera Utara 21252";"Si Ajam, Kec. Sei Balai, Kabupaten Batu Bara";SUMATERA UTARA;21252;Indonesia;0895418295845;;;3.085.791;99.563.774;https://maps.google.com/?cid=0x0:0x74dcd2658640c542;
perumahan;Komplek perumahan;Perumahan Guru Taman Sari;"Jl. Lintas Sumatra No.184, Perkebunan Sei Balai, Kec. Sei Balai, Kabupaten Batu Bara, Sumatera Utara 21252";"Perkebunan Sei Balai, Kec. Sei Balai, Kabupaten Batu Bara";SUMATERA UTARA;21252;Indonesia;;;;30.767.915;996.023.827;https://maps.google.com/?cid=0x0:0x4ae8664419d75d6d;
perumahan;Yayasan;Rumah Tahfizh Sahabat Qur'an Sei Bejangkar;"3HW4+9MM, Jl. Perintis Kemerdekaan, Si Ajam, Kec. Sei Balai, Kabupaten Batu Bara, Sumatera Utara 21252";"Jl. Perintis Kemerdekaan, Si Ajam, Kec. Sei Balai, Kabupaten Batu Bara";SUMATERA UTARA;21252;Indonesia;;;;30.959.646;995.566.638;https://maps.google.com/?cid=0x0:0x3de827da777d89b6;
perumahan;perumahan;Desa Durian;"4HHP+9H8, Sei Balai, Kec. Sei Balai, Kabupaten Batu Bara, Sumatera Utara";"Kabupaten Batu Bara, Sumatera Utara";SUMATERA UTARA;;Indonesia;;;;31.284.201;99.586.468;https://maps.google.com/?cid=0x0:0xf135ffa5b3c57be1;
perumahan;Komplek perumahan;Iwan sentang;"4H5H+RV, Sei Balai, Kec. Sei Balai, Kabupaten Batu Bara, Sumatera Utara";"Kabupaten Batu Bara, Sumatera Utara";SUMATERA UTARA;;Indonesia;;;;31.092.117;995.794.528;https://maps.google.com/?cid=0x0:0x80b3868aa04f8921;
perumahan;Perhimpunan Pengembang Perumahan;Kopdar ..;"2HVG+93, Perkebunan Sei Balai, Kec. Sei Balai, Kabupaten Batu Bara, Sumatera Utara";"Kabupaten Batu Bara, Sumatera Utara";SUMATERA UTARA;;Indonesia;;;;30.434.286;995.752.186;https://maps.google.com/?cid=0x0:0x16306be55ee0d7d0;
perumahan;Komplek perumahan;Dimas Arya Sukaramai;"3HR7+WVV, Suka Ramai, Kec. Sei Balai, Kabupaten Batu Bara, Sumatera Utara 21252";"Suka Ramai, Kec. Sei Balai, Kabupaten Batu Bara";SUMATERA UTARA;21252;Indonesia;085330328867;;;3.092.057;995.643.359;https://maps.google.com/?cid=0x0:0x23df8a4e95e4c3fd;
perumahan;Kantor Pemerintahan Daerah;Tanah Timbul;"4HHQ+968, Sei Balai, Kec. Sei Balai, Kabupaten Batu Bara, Sumatera Utara";"Kabupaten Batu Bara, Sumatera Utara";SUMATERA UTARA;;Indonesia;;;;31.344.292;995.858.375;https://maps.google.com/?cid=0x0:0x7ef3d8c4381f21e7;
perumahan;Perhimpunan Pengembang Perumahan;MARLIN SUSANTO PETANI MAJU;"4HVQ+3XC, Mekar Mulio, Kec. Sei Balai, Kabupaten Batu Bara, Sumatera Utara 21252";"Mekar Mulio, Kec. Sei Balai, Kabupaten Batu Bara";SUMATERA UTARA;21252;Indonesia;;;;31.426.987;995.898.821;https://maps.google.com/?cid=0x0:0x974536007c530ad2;
perumahan;Komplek perumahan;nazwi shopi;"3HHM+PJ3, Suka Ramai, Kec. Sei Balai, Kabupaten Batu Bara, Sumatera Utara 21252";"Suka Ramai, Kec. Sei Balai, Kabupaten Batu Bara";SUMATERA UTARA;21252;Indonesia;085225106399;;;30.792.684;995.840.397;https://maps.google.com/?cid=0x0:0xa9abc416385ee27b;
perumahan;Komplek perumahan;RUMAH ERWISNU FADLAN LUBIS;"4H94+X6F, Perkebunan Sei Bejangkar, Kec. Sei Balai, Kabupaten Batu Bara, Sumatera Utara";"Kabupaten Batu Bara, Sumatera Utara";SUMATERA UTARA;;Indonesia;;;;31.199.431;99.555.558;https://maps.google.com/?cid=0x0:0xcd52196aea1c2505;
perumahan;Pembangunan Perumahan;Warsho's;"3HWJ+RWM, Perkebunan Sei Balai, Kec. Sei Balai, Kabupaten Batu Bara, Sumatera Utara 21252";"Perkebunan Sei Balai, Kec. Sei Balai, Kabupaten Batu Bara";SUMATERA UTARA;21252;Indonesia;;;;30.970.836;995.822.851;https://maps.google.com/?cid=0x0:0xb1e5bb02e80e9275;
perumahan;Pembangunan Perumahan;Dusun 5 sukorejo;"3HHM+PJ3, Suka Ramai, Kec. Sei Balai, Kabupaten Batu Bara, Sumatera Utara 21252";"Suka Ramai, Kec. Sei Balai, Kabupaten Batu Bara";SUMATERA UTARA;21252;Indonesia;;;;30.792.684;995.840.397;https://maps.google.com/?cid=0x0:0xb7ff126cd84f93b2;
perumahan;Komplek perumahan;Wando;"3HP7+CM6, Si Ajam, Kec. Sei Balai, Kabupaten Batu Bara, Sumatera Utara 21252";"Si Ajam, Kec. Sei Balai, Kabupaten Batu Bara";SUMATERA UTARA;21252;Indonesia;;;;30.861.137;995.641.371;https://maps.google.com/?cid=0x0:0x777ce91abe2daef5;
perumahan;perumahan;Sumatera Utara 21257;"Kec. Sei Suka, Kabupaten Batu Bara, Sumatera Utara";"Kabupaten Batu Bara, Sumatera Utara";SUMATERA UTARA;;Indonesia;;;;33.149.845;993.007.367;https://maps.google.com/?cid=0x0:0xaf663609369ef5a9;
perumahan;perumahan;Simpang binjai;"888C+W36, Sei Suka/Deras, Kec. Sei Suka, Kabupaten Batu Bara, Sumatera Utara 21257";"Sei Suka/Deras, Kec. Sei Suka, Kabupaten Batu Bara";SUMATERA UTARA;21257;Indonesia;;;;33.172.874;993.201.479;https://maps.google.com/?cid=0x0:0xb2b97c6971d223cf;
perumahan;Komplek perumahan;Sei Suka Residence;"Jl. Jalinsum KM.95 Desa Tanjung Seri, Tj. Seri, Kec. Sei Suka, Batubara, Sumatera Utara 21257";"Tj. Seri, Kec. Sei Suka, Batubara";SUMATERA UTARA;21257;Indonesia;085353898989;;;33.131.064;993.134.953;https://maps.google.com/?cid=0x0:0x2b855aec49987f92;
perumahan;Kantor Perusahaan;Dormitory E3 PT.INALUM PERSERO;"888W+MC6, Perkebunan Sipare-Pare, Kec. Sei Suka, Kabupaten Batu Bara, Sumatera Utara 21257";"Perkebunan Sipare-Pare, Kec. Sei Suka, Kabupaten Batu Bara";SUMATERA UTARA;21257;Indonesia;;;;33.166.623;993.460.199;https://maps.google.com/?cid=0x0:0x6d1266cc1e3a166a;
perumahan;Komplek perumahan;rumah aku;"879W+WC, Tj. Seri, Kec. Sei Suka, Kabupaten Batu Bara, Sumatera Utara";"Kabupaten Batu Bara, Sumatera Utara";SUMATERA UTARA;;Indonesia;;;;33.193.799;99.296.784;https://maps.google.com/?cid=0x0:0xe2a01a46bf689f6b;
perumahan;Pembangunan Perumahan;Perumahan pt.bim;"77PR+552, Perkebunan Tj. Kasau, Kec. Sei Suka, Kabupaten Batu Bara, Sumatera Utara 21257";"Perkebunan Tj. Kasau, Kec. Sei Suka, Kabupaten Batu Bara";SUMATERA UTARA;21257;Indonesia;;;;32.853.764;992.903.784;https://maps.google.com/?cid=0x0:0x2e7a2b4edf4b923d;
perumahan;Komplek perumahan;Perumahan tanjung gading;"886X+HF9, Perkebunan Sipare-Pare, Tanjung gading, Kabupaten Batu Bara, Sumatera Utara";"Kabupaten Batu Bara, Sumatera Utara";SUMATERA UTARA;;Indonesia;;;;33.114;9.934.872;https://maps.google.com/?cid=0x0:0xf6de404eaba51b4f;
perumahan;Perumahan;Perumahan PT.BIM 2;"77MR+847, Jl. Sei Langgei, Tj. Kasau, Kec. Sei Suka, Kabupaten Batu Bara, Sumatera Utara 21257";"Jl. Sei Langgei, Tj. Kasau, Kec. Sei Suka, Kabupaten Batu Bara";SUMATERA UTARA;21257;Indonesia;;;;32.832.907;992.902.976;https://maps.google.com/?cid=0x0:0x92c00f77558ecbde;
perumahan;Taman;Simpang Kopi.;"882M+M5J, Sei Suka/Deras, Kec. Sei Suka, Kabupaten Batu Bara, Sumatera Utara";"Kabupaten Batu Bara, Sumatera Utara";SUMATERA UTARA;;Indonesia;;;;33.017.581;993.329.151;https://maps.google.com/?cid=0x0:0xbacd16abf1f7f234;
perumahan;Kantor Perusahaan;Perumahan NUANSA GADING MAS;"78VW+H3C, Desa, Sei Suka/Deras, Tanjung Gading, Kabupaten Batu Bara, Sumatera Utara";"Kabupaten Batu Bara, Sumatera Utara";SUMATERA UTARA;;Indonesia;085360437975;;;32.939.453;993.451.498;https://maps.google.com/?cid=0x0:0x9daddc63fb2a3c98;
perumahan;Komplek perumahan;Rumah Pak Syawal;"8725+2HW, Dusun Cendana Jl. Arjo Utomo, Laut Tador, Kec. Sei Suka, Kabupaten Batu Bara, Sumatera Utara 21257";"Dusun Cendana Jl. Arjo Utomo, Laut Tador, Kec. Sei Suka, Kabupaten Batu Bara";SUMATERA UTARA;21257;Indonesia;;;;33.001.099;99.258.958;https://maps.google.com/?cid=0x0:0x93f0032ad618cb16;
perumahan;Tujuan Wisata;Simpang tg kasau;"77HR+4X7, Tj. Kasau, Kec. Sei Suka, Kabupaten Batu Bara, Sumatera Utara 21257";"Tj. Kasau, Kec. Sei Suka, Kabupaten Batu Bara";SUMATERA UTARA;21257;Indonesia;;;;32.777.757;992.924.191;https://maps.google.com/?cid=0x0:0x66c9954ec5e83dc6;
perumahan;Komplek perumahan;"Komplek Inalum, Tanjung Gading, Blok S-25-6";"886R+M3Q, komplek, Jl. Access Road Inalum, Perkebunan Sipare-Pare, Sei Suka, Batu Bara Regency, North Sumatra 21257";"komplek, Jl. Access Road Inalum, Perkebunan Sipare-Pare, Sei Suka, Batu Bara Regency";SUMATERA UTARA;21257;Indonesia;;;;33.117.063;9.934.022;https://maps.google.com/?cid=0x0:0x520d51a782d0fcfe;
perumahan;Komplek perumahan;Rumah Linggom;"Blok S No.34-08 Tanjung Gading, Perkebunan Sipare-Pare, Kec. Sei Suka, Kabupaten Batu Bara, Sumatera Utara 21257";"Perkebunan Sipare-Pare, Kec. Sei Suka, Kabupaten Batu Bara";SUMATERA UTARA;21257;Indonesia;;;;33.114.841;993.410.949;https://maps.google.com/?cid=0x0:0x5b53dfab23347ffa;
perumahan;Pembangunan Perumahan;Ketum ACTION;"885M+HVR, Unnamed Road, Perkebunan Sipare-Pare, Kec. Sei Suka, Kabupaten Batu Bara, Sumatera Utara 21257";"Unnamed Road, Perkebunan Sipare-Pare, Kec. Sei Suka, Kabupaten Batu Bara";SUMATERA UTARA;21257;Indonesia;081264912222;;;33.089.796;993.346.332;https://maps.google.com/?cid=0x0:0x7caf2f7642c13240;
perumahan;Komplek perumahan;Kael official;"8883+JX8, Jl. Lintas Sumatra, Tj. Seri, Kec. Sei Suka, Kabupaten Batu Bara, Sumatera Utara 21257";"Jl. Lintas Sumatra, Tj. Seri, Kec. Sei Suka, Kabupaten Batu Bara";SUMATERA UTARA;21257;Indonesia;;;;33.165.388;993.049.576;https://maps.google.com/?cid=0x0:0x32545d5247be05ff;
perumahan;Komplek perumahan;S-42-1  S-42-2 Tanjung Gading Inalum;"885R+WW4, Perkebunan Sipare-Pare, Kec. Sei Suka, Kabupaten Batu Bara, Sumatera Utara 21257";"Perkebunan Sipare-Pare, Kec. Sei Suka, Kabupaten Batu Bara";SUMATERA UTARA;21257;Indonesia;;;;33.097.518;993.423.308;https://maps.google.com/?cid=0x0:0x3348a6341dcc3d70;
perumahan;Pembangunan Perumahan;Vina Morales Sihombing;"888C+W36, Sei Suka/Deras, Kec. Sei Suka, Kabupaten Batu Bara, Sumatera Utara 21257";"Sei Suka/Deras, Kec. Sei Suka, Kabupaten Batu Bara";SUMATERA UTARA;21257;Indonesia;;;;33.172.874;993.201.479;https://maps.google.com/?cid=0x0:0xb478f539af91718b;
perumahan;Perhimpunan Pengembang Perumahan;Rumah nenek indrapura;"886H+F9G, Sei Suka/Deras, Kec. Sei Suka, Kabupaten Batu Bara, Sumatera Utara 21257";"Sei Suka/Deras, Kec. Sei Suka, Kabupaten Batu Bara";SUMATERA UTARA;21257;Indonesia;;;;33.111.897;993.284.514;https://maps.google.com/?cid=0x0:0x1ff61c51736c5eae;
perumahan;Komplek perumahan;Rumah ujung pinggir jalan tol mr marno;"876V+8Q6, Perkebunan Tj. Kasau, Kec. Sei Suka, Kabupaten Batu Bara, Sumatera Utara";"Kabupaten Batu Bara, Sumatera Utara";SUMATERA UTARA;;Indonesia;;;;33.107.794;99.294.395;https://maps.google.com/?cid=0x0:0x33bc18d406cb82ef;
perumahan;Pembangunan Perumahan;Sakhiy Altaf's Home;"Blok P18-04, Perkebunan Sipare-Pare, Kec. Sei Suka, Kabupaten Batu Bara, Sumatera Utara 21257";"Perkebunan Sipare-Pare, Kec. Sei Suka, Kabupaten Batu Bara";SUMATERA UTARA;21257;Indonesia;;;;3.318.859;993.385.338;https://maps.google.com/?cid=0x0:0x32f9f894888b5714;
perumahan;Komplek perumahan;Ardi Kesuma Homestay;"77XQ+XRX, Jl. Sei Langgei, Perkebunan Tj. Kasau, Kec. Sei Suka, Kabupaten Batu Bara, Sumatera Utara 21257";"Jl. Sei Langgei, Perkebunan Tj. Kasau, Kec. Sei Suka, Kabupaten Batu Bara";SUMATERA UTARA;21257;Indonesia;;;;32.997.768;992.895.573;https://maps.google.com/?cid=0x0:0x8c410b3ae31f0f;
perumahan;perumahan;Sumatera Utara 21254;"Kec. Talawi, Kabupaten Batu Bara, Sumatera Utara";"Kabupaten Batu Bara, Sumatera Utara";SUMATERA UTARA;;Indonesia;;;;3.144.063;995.339.744;https://maps.google.com/?cid=0x0:0x24bcb7eb5e85df69;
perumahan;Otoritas Perumahan;Talawi Indah Permai;"Unnamed Road, Pahang, Kec. Talawi, Kabupaten Batu Bara, Sumatera Utara 21254";"Pahang, Kec. Talawi, Kabupaten Batu Bara";SUMATERA UTARA;21254;Indonesia;081263633403;;;31.759.667;995.640.507;https://maps.google.com/?cid=0x0:0xc485cf7696f61caf;
perumahan;Pembangunan Perumahan;Perumahan Genting Batubara Residence;"5GXV+VV2, Padang Genting, Kec. Talawi, Kabupaten Batu Bara, Sumatera Utara 21254";"Padang Genting, Kec. Talawi, Kabupaten Batu Bara";SUMATERA UTARA;21254;Indonesia;082360555652;;;31.996.333;995.446.378;https://maps.google.com/?cid=0x0:0xc22e3a82deb8bd08;
perumahan;perumahan;Rumah Ritonga;"4GHX+5RV, Binjei Baru, Kec. Talawi, Kabupaten Batu Bara, Sumatera Utara 21254";"Binjei Baru, Kec. Talawi, Kabupaten Batu Bara";SUMATERA UTARA;21254;Indonesia;;;;31.279.929;995.495.479;https://maps.google.com/?cid=0x0:0x60220f7a2edbe94;
perumahan;Pembangunan Perumahan;Peruma;"5HH6+9PV, Pahang, Kec. Talawi, Kabupaten Batu Bara, Sumatera Utara";"Kabupaten Batu Bara, Sumatera Utara";SUMATERA UTARA;;Indonesia;;;;31.784.858;995.617.847;https://maps.google.com/?cid=0x0:0x7fce77b4e04deae0;
perumahan;Komplek perumahan;Rumah;"5HM5+6X9, Pahang, Kec. Talawi, Kabupaten Batu Bara, Sumatera Utara 21254";"Pahang, Kec. Talawi, Kabupaten Batu Bara";SUMATERA UTARA;21254;Indonesia;;;;31.829.907;995.600.264;https://maps.google.com/?cid=0x0:0xf4521eb66dbc1757;
perumahan;Perhimpunan Pengembang Perumahan;Asian;"Dusun Salam 1 Desa Perk. Sei bejangkar, Perkebunan Tanah Datar, Kec. Talawi, Kabupaten Batu Bara, Sumatera Utara 21254";"Perkebunan Tanah Datar, Kec. Talawi, Kabupaten Batu Bara";SUMATERA UTARA;21254;Indonesia;;;;31.084.003;995.186.485;https://maps.google.com/?cid=0x0:0xc89ca7873f4f7775;
perumahan;Komplek perumahan;Rumah dusun;"4GH5+7VR, DESA BINJAI BARU Jalan Lintas Sumatra Dusun III SIDODADI kecamatan datuk tanah datar, Perkebunan Petatal, Kec. Talawi, Kabupaten Batu Bara, Sumatera Utara 21254";"DESA BINJAI BARU Jalan Lintas Sumatra Dusun III SIDODADI kecamatan datuk tanah datar, Perkebunan Petatal, Kec. Talawi, Kabupaten Batu Bara";SUMATERA UTARA;21254;Indonesia;;;;31.282.409;995.096.544;https://maps.google.com/?cid=0x0:0x7947c49c9a154a46;
perumahan;Perhimpunan Pengembang Perumahan;rumah Ds;"4GGW+FWC, Binjei Baru, Kec. Talawi, Kabupaten Batu Bara, Sumatera Utara 21254";"Binjei Baru, Kec. Talawi, Kabupaten Batu Bara";SUMATERA UTARA;21254;Indonesia;;;;31.261.838;995.472.728;https://maps.google.com/?cid=0x0:0x9f4b72a55845b5f3;
perumahan;Komplek perumahan;Perumahan Mertua Indah;"4GM3+RPX, Perkebunan Petatal, Kec. Talawi, Kabupaten Batu Bara, Sumatera Utara 21254";"Perkebunan Petatal, Kec. Talawi, Kabupaten Batu Bara";SUMATERA UTARA;21254;Indonesia;;;;31.346.132;995.043.614;https://maps.google.com/?cid=0x0:0x9c5b8e07d8ec1132;
perumahan;Pembangunan Perumahan;Mulya's house;"5HX3+MCV, Unnamed Road, Padang Genting, Kec. Talawi, Kabupaten Batu Bara, Sumatera Utara 21254";"Unnamed Road, Padang Genting, Kec. Talawi, Kabupaten Batu Bara";SUMATERA UTARA;21254;Indonesia;;;;3.199.247;99.553.545;https://maps.google.com/?cid=0x0:0x27a1e8cebd9c8446;
perumahan;Komplek perumahan;Rumah Dinas Kejaksaan Batubara;"Jl. Imam Bonjal, Pahang, Kec. Talawi, Kabupaten Batu Bara, Sumatera Utara 21254";"Pahang, Kec. Talawi, Kabupaten Batu Bara";SUMATERA UTARA;21254;Indonesia;;;;32.024.264;995.646.967;https://maps.google.com/?cid=0x0:0x4a7e4723a89ef514;
perumahan;Otoritas Perumahan;Perumahan Sirih Nazfa Indah Desa Sei Muka;"5H35+JJM, Sei Muka, Kec. Talawi, Kabupaten Batu Bara, Sumatera Utara 21254";"Sei Muka, Kec. Talawi, Kabupaten Batu Bara";SUMATERA UTARA;21254;Indonesia;085276451899;;;31.540.821;995.590.368;https://maps.google.com/?cid=0x0:0xaefede64cede7de0;
perumahan;Komplek perumahan;Perumahaan Karya Dhika Residence;"5HP6+8HM, Jl. Kuala Teuku Umar, Pahang, Kec. Talawi, Kabupaten Batu Bara, Sumatera Utara 21254";"Jl. Kuala Teuku Umar, Pahang, Kec. Talawi, Kabupaten Batu Bara";SUMATERA UTARA;21254;Indonesia;;;;31.858.329;99.561.415;https://maps.google.com/?cid=0x0:0x2b266fe24640bae4;
perumahan;Komplek perumahan;Pandomayu;"5GGC+MV3, Panjang, Kec. Talawi, Kabupaten Batu Bara, Sumatera Utara 21255";"Panjang, Kec. Talawi, Kabupaten Batu Bara";SUMATERA UTARA;21255;Indonesia;;;;31.766.324;995.221.599;https://maps.google.com/?cid=0x0:0x70c68481d6f3da8a;
perumahan;Perumahan;Perumahan GRAND ASIA CITY;"6H6G+3W9, Labuhan Ruku, Kec. Talawi, Kabupaten Batu Bara, Sumatera Utara 21253";"Labuhan Ruku, Kec. Talawi, Kabupaten Batu Bara";SUMATERA UTARA;21253;Indonesia;;;;32.101.686;99.577.354;https://maps.google.com/?cid=0x0:0x8df3e3e155d4cc86;
perumahan;Komplek perumahan;Jauhari;"5HJ4+XWH, Pahang, Kec. Talawi, Kabupaten Batu Bara, Sumatera Utara 21254";"Pahang, Kec. Talawi, Kabupaten Batu Bara";SUMATERA UTARA;21254;Indonesia;;;;31.824.418;995.573.605;https://maps.google.com/?cid=0x0:0xd32f04f931975719;
perumahan;Perhimpunan Pengembang Perumahan;Sri Wahyuni;"4G9W+WR, Bangun Sari, Kec. Talawi, Kabupaten Batu Bara, Sumatera Utara 21254";"Bangun Sari, Kec. Talawi, Kabupaten Batu Bara";SUMATERA UTARA;21254;Indonesia;;;;31.197.772;995.470.593;https://maps.google.com/?cid=0x0:0x72e142cdc3af6bb4;
perumahan;Komplek perumahan;Home Fa'iz  Maura;"4G8X+XGM, Bangun Sari, Kec. Talawi, Kabupaten Batu Bara, Sumatera Utara 21254";"Bangun Sari, Kec. Talawi, Kabupaten Batu Bara";SUMATERA UTARA;21254;Indonesia;;;;31.174.502;995.488.043;https://maps.google.com/?cid=0x0:0x41c41f33fb95d92;
perumahan;Komplek perumahan;Rumah sultan;"5H26+852, Jl. Kuala Teuku Umar, Sei Muka, Kec. Talawi, Kabupaten Batu Bara, Sumatera Utara 21254";"Jl. Kuala Teuku Umar, Sei Muka, Kec. Talawi, Kabupaten Batu Bara";SUMATERA UTARA;21254;Indonesia;;;;31.494.761;99.560.217;https://maps.google.com/?cid=0x0:0x28d763e7640d0663;
perumahan;Pembangunan Perumahan;Perumahan Bunga Tanjung Lestari;"6H86+W92, Jl. Sungai Udang, Mesjid Lama, Kec. Talawi, Kabupaten Batu Bara, Sumatera Utara 21254";"Jl. Sungai Udang, Mesjid Lama, Kec. Talawi, Kabupaten Batu Bara";SUMATERA UTARA;21254;Indonesia;08116591001;;;32.172.622;995.608.775;https://maps.google.com/?cid=0x0:0x93ec00558a896daa;
perumahan;Komplek perumahan;NVL pns;"4HH3+CR6, Unnamed Road, Binjei Baru, Kec. Talawi, Kabupaten Batu Bara, Sumatera Utara 21254";"Unnamed Road, Binjei Baru, Kec. Talawi, Kabupaten Batu Bara";SUMATERA UTARA;21254;Indonesia;;;;31.285.489;995.545.247;https://maps.google.com/?cid=0x0:0xd6677227a9d9c191;
perumahan;perumahan;Kec. Talawi;"Kota Sawahlunto, Sumatera Barat";"Kota Sawahlunto, Sumatera Barat";SUMATERA UTARA;;Indonesia;;;;-0.6150584;1.007.610.255;https://maps.google.com/?cid=0x0:0x8b2705bb7a1a24f2;
perumahan;Pembangunan Perumahan;Rumah mak Yas;"Dusun Sago No.136, Talawi Mudik, Talawi, Sawahlunto, West Sumatra";"Kota Sawahlunto, Sumatera Barat";SUMATERA UTARA;;Indonesia;081275674765;;;-0.5925213;1.007.342.253;https://maps.google.com/?cid=0x0:0x53727d88f4455062;
perumahan;Komplek perumahan;Sawah lunto;"Jln gunung timbago No.20, Talawi Hilir, Kec. Talawi, Kota Sawahlunto, Sumatera Barat 27443";"Talawi Hilir, Kec. Talawi, Kota Sawahlunto";SUMATERA UTARA;27443;Indonesia;;;;-0.5966276;1.007.361.121;https://maps.google.com/?cid=0x0:0x8a929cb79f0389e8;
perumahan;Pembangunan Perumahan;talawi;"9QP6+298, Salak, Kec. Talawi, Kota Sawahlunto, Sumatera Barat";"Kota Sawahlunto, Sumatera Barat";SUMATERA UTARA;;Indonesia;;;;-0.6149652;1.007.609.458;https://maps.google.com/?cid=0x0:0x23c2e54d2ca68a66;
perumahan;Komplek perumahan;Bedeng proyek;"CP5W+348, Bukit Gadang, Kec. Talawi, Kota Sawahlunto, Sumatera Barat";"Kota Sawahlunto, Sumatera Barat";SUMATERA UTARA;;Indonesia;;;;-0.5923322;1.007.453.263;https://maps.google.com/?cid=0x0:0x19fd1cc6ce3468b;
perumahan;Komplek perumahan;Rumah Asnil;"CQFF+WRJ, dusun tanjung mulia, Tumpuak Tangah, Kec. Talawi, Kota Sawahlunto, Sumatera Barat";"Kota Sawahlunto, Sumatera Barat";SUMATERA UTARA;;Indonesia;;;;-0.5751743;1.007.745.149;https://maps.google.com/?cid=0x0:0x3a2a2362ff12574;
perumahan;Komplek perumahan;Rumah D;"9PXP+QQV, Talawi Hilir, Kec. Talawi, Kota Sawahlunto, Sumatera Barat 27443";"Talawi Hilir, Kec. Talawi, Kota Sawahlunto";SUMATERA UTARA;27443;Indonesia;;;;-0.6004923;1.007.369.445;https://maps.google.com/?cid=0x0:0xf5449f9c72138504;
perumahan;Otoritas Perumahan;Talawi Indah Permai;"Unnamed Road, Pahang, Kec. Talawi, Kabupaten Batu Bara, Sumatera Utara 21254";"Pahang, Kec. Talawi, Kabupaten Batu Bara";SUMATERA UTARA;21254;Indonesia;081263633403;;;31.759.667;995.640.507;https://maps.google.com/?cid=0x0:0xc485cf7696f61caf;
perumahan;Komplek perumahan;PETATAL INDAH PERMAI;"4FPH+XMV, Petatal, Kec. Talawi, Kabupaten Batu Bara, Sumatera Utara 21255";"Petatal, Kec. Talawi, Kabupaten Batu Bara";SUMATERA UTARA;21255;Indonesia;082277744724;;;31.374.922;99.479.174;https://maps.google.com/?cid=0x0:0x91eb044d0edd85db;
perumahan;perumahan;Sumatera Barat 27441;Sumatera Barat;Sumatera Barat;SUMATERA UTARA;;Indonesia;;;;-0.6024315;1.008.084.675;https://maps.google.com/?cid=0x0:0x4ce4be472473ebf5;
perumahan;Komplek perumahan;Hom Residence;"9QWV+3PQ, Batu Tj., Kec. Talawi, Kota Sawahlunto, Sumatera Barat";"Kota Sawahlunto, Sumatera Barat";SUMATERA UTARA;;Indonesia;;;;-0.6047862;1.007.943.639;https://maps.google.com/?cid=0x0:0x8e0abadb78128cea;
perumahan;Rumah Kayu;Rumah Dian;"9QWV+3PQ, Batu Tj., Kec. Talawi, Kota Sawahlunto, Sumatera Barat 27441";"Batu Tj., Kec. Talawi, Kota Sawahlunto";SUMATERA UTARA;27441;Indonesia;;;;-0.6047862;1.007.943.639;https://maps.google.com/?cid=0x0:0x9bbda57c18ab6bc6;
perumahan;perumahan;Sumatera Barat 27442;"Kec. Koto VII, Kabupaten Sijunjung, Sumatera Barat";"Kabupaten Sijunjung, Sumatera Barat";SUMATERA UTARA;;Indonesia;;;;-0.5954142;1.008.282.161;https://maps.google.com/?cid=0x0:0xea6846de3c08649b;
perumahan;Perumahan;Perumahan GRAND ASIA CITY;"6H6G+3W9, Labuhan Ruku, Kec. Talawi, Kabupaten Batu Bara, Sumatera Utara 21253";"Labuhan Ruku, Kec. Talawi, Kabupaten Batu Bara";SUMATERA UTARA;21253;Indonesia;;;;32.101.686;99.577.354;https://maps.google.com/?cid=0x0:0x8df3e3e155d4cc86;
perumahan;Otoritas Perumahan;Talawi Indah Permai;"Unnamed Road, Pahang, Kec. Talawi, Kabupaten Batu Bara, Sumatera Utara 21254";"Pahang, Kec. Talawi, Kabupaten Batu Bara";SUMATERA UTARA;21254;Indonesia;081263633403;;;31.759.667;995.640.507;https://maps.google.com/?cid=0x0:0xc485cf7696f61caf;
perumahan;Pembangunan Perumahan;Perumahan Genting Batubara Residence;"5GXV+VV2, Padang Genting, Kec. Talawi, Kabupaten Batu Bara, Sumatera Utara 21254";"Padang Genting, Kec. Talawi, Kabupaten Batu Bara";SUMATERA UTARA;21254;Indonesia;082360555652;;;31.996.333;995.446.378;https://maps.google.com/?cid=0x0:0xc22e3a82deb8bd08;
perumahan;Otoritas Perumahan;Perumahan Sirih Nazfa Indah II;"6H3C+X2R, Jl. Imam Bonjol, Labuhan Ruku, Kec. Talawi, Kabupaten Batu Bara, Sumatera Utara 21253";"Jl. Imam Bonjol, Labuhan Ruku, Kec. Talawi, Kabupaten Batu Bara";SUMATERA UTARA;21253;Indonesia;;;;32.049.849;995.700.165;https://maps.google.com/?cid=0x0:0x29b0b1a95035b0ef;
perumahan;Pembangunan Perumahan;Perumahan Bunga Tanjung Lestari;"6H86+W92, Jl. Sungai Udang, Mesjid Lama, Kec. Talawi, Kabupaten Batu Bara, Sumatera Utara 21254";"Jl. Sungai Udang, Mesjid Lama, Kec. Talawi, Kabupaten Batu Bara";SUMATERA UTARA;21254;Indonesia;08116591001;;;32.172.622;995.608.775;https://maps.google.com/?cid=0x0:0x93ec00558a896daa;
perumahan;Pembangunan Perumahan;Rumah;"6H4G+M3, Labuhan Ruku, Kec. Talawi, Kabupaten Batu Bara, Sumatera Utara 21253";"Labuhan Ruku, Kec. Talawi, Kabupaten Batu Bara";SUMATERA UTARA;21253;Indonesia;;;;32.067.186;995.752.052;https://maps.google.com/?cid=0x0:0x2186439c33bd221e;
perumahan;Pembangunan Perumahan;PERUM. QANITA;"6H4H+3CV, Labuhan Ruku, Kec. Talawi, Kabupaten Batu Bara, Sumatera Utara 21253";"Labuhan Ruku, Kec. Talawi, Kabupaten Batu Bara";SUMATERA UTARA;21253;Indonesia;;;;320.523;99.578.559;https://maps.google.com/?cid=0x0:0x1c54d17df432a590;
perumahan;Rumah wisata;Perumahan Griya Sultan Asri;"Kode Pos :, Jl. Kuala Teuku Umar Dusun VI, Pahang, Kec. Talawi, Kabupaten Batu Bara, Sumatera Utara 21254";"Jl. Kuala Teuku Umar Dusun VI, Pahang, Kec. Talawi, Kabupaten Batu Bara";SUMATERA UTARA;21254;Indonesia;082276681173;;;31.830.387;995.606.509;https://maps.google.com/?cid=0x0:0xf039364f916e1273;
perumahan;;kavlingan afif;"6G2V+42X, Padang Genting, Kec. Talawi, Kabupaten Batu Bara, Sumatera Utara";"Kabupaten Batu Bara, Sumatera Utara";SUMATERA UTARA;;Indonesia;;;;32.000.186;995.420.836;https://maps.google.com/?cid=0x0:0x48dc2fc5b7e2a2b2;
perumahan;Kantor Perusahaan;Perumahan Batu Bara Great Land II;"6H5H+X6R, Labuhan Ruku, Kec. Talawi, Kabupaten Batu Bara, Sumatera Utara";"Kabupaten Batu Bara, Sumatera Utara";SUMATERA UTARA;;Indonesia;082172897679;;;32.099.761;995.780.031;https://maps.google.com/?cid=0x0:0x31c4d246a061d102;
perumahan;Pembangunan Perumahan;Pontianak;"Jl. Imam Bonjol, Labuhan Ruku, Kec. Talawi, Kabupaten Batu Bara, Sumatera Utara";"Kabupaten Batu Bara, Sumatera Utara";SUMATERA UTARA;;Indonesia;;;;32.092.732;995.711.555;https://maps.google.com/?cid=0x0:0x388101527c1b9164;
perumahan;Toko Pakaian;Toko Odan online;"6H4G+X2P, Unnamed Road, Labuhan Ruku, Kec. Talawi, Kabupaten Batu Bara, Sumatera Utara 21253";"Unnamed Road, Labuhan Ruku, Kec. Talawi, Kabupaten Batu Bara";SUMATERA UTARA;21253;Indonesia;085262728772;;;32.074.621;99.575.079;https://maps.google.com/?cid=0x0:0xb81f3dd19049ae4e;
perumahan;Komplek perumahan;Rumah NAGEN;"5HWC+VFG, Jl. H. Maulana, Labuhan Ruku, Kec. Talawi, Kabupaten Batu Bara, Sumatera Utara 21253";"Jl. H. Maulana, Labuhan Ruku, Kec. Talawi, Kabupaten Batu Bara";SUMATERA UTARA;21253;Indonesia;;;;3.197.168;99.570.904;https://maps.google.com/?cid=0x0:0xbde9dd5cfea4e5c7;
perumahan;Pembangunan Perumahan;PERUM. PINANG BARIS MANDIRI;"Jl. Pinang Baris Jl. Indra Yaman No.Desa, Mesjid Lama, Kec. Talawi, Kabupaten Batu Bara, Sumatera Utara 21254";"Mesjid Lama, Kec. Talawi, Kabupaten Batu Bara";SUMATERA UTARA;21254;Indonesia;;;;32.142.933;995.724.184;https://maps.google.com/?cid=0x0:0x84c179a834527ff1;
perumahan;Komplek perumahan;Rumah nabil;"9QR4+7MM, Jl. Ma'ansyah, Sijantang Koto, Kec. Talawi, Kota Sawahlunto, Sumatera Barat 27446";"Jl. Ma'ansyah, Sijantang Koto, Kec. Talawi, Kota Sawahlunto";SUMATERA UTARA;27446;Indonesia;;;;-0.6091296;100.756.844;https://maps.google.com/?cid=0x0:0xe5049dc211dec69d;
perumahan;perumahan;Koppas bhakti blok Q no1;"GHJM+QPW, Limo Kaum, Kec. Lima Kaum, Kabupaten Tanah Datar, Sumatera Barat 27213";"Limo Kaum, Kec. Lima Kaum, Kabupaten Tanah Datar";SUMATERA UTARA;27213;Indonesia;;;;-0.4680125;1.005.843.281;https://maps.google.com/?cid=0x0:0x720d34968d4f81d7;
perumahan;Perhimpunan Pengembang Perumahan;"Batutanjung,Talawi,Sawahlunto,sumbar";"9QWV+3PQ, Batu Tj., Kec. Talawi, Kota Sawahlunto, Sumatera Barat 27441";"Batu Tj., Kec. Talawi, Kota Sawahlunto";SUMATERA UTARA;27441;Indonesia;;;;-0.6047862;1.007.943.639;https://maps.google.com/?cid=0x0:0xc649b59f550eb0dd;
perumahan;Komplek perumahan;Hom Residence;"9QWV+3PQ, Batu Tj., Kec. Talawi, Kota Sawahlunto, Sumatera Barat";"Kota Sawahlunto, Sumatera Barat";SUMATERA UTARA;;Indonesia;;;;-0.6047862;1.007.943.639;https://maps.google.com/?cid=0x0:0x8e0abadb78128cea;
perumahan;Rumah Kayu;Rumah Dian;"9QWV+3PQ, Batu Tj., Kec. Talawi, Kota Sawahlunto, Sumatera Barat 27441";"Batu Tj., Kec. Talawi, Kota Sawahlunto";SUMATERA UTARA;27441;Indonesia;;;;-0.6047862;1.007.943.639;https://maps.google.com/?cid=0x0:0x9bbda57c18ab6bc6;
perumahan;Komplek perumahan;RUMAH BIRU ARUMI;"CQHQ+H2Q, Tumpuak Tangah, Kec. Talawi, Kota Sawahlunto, Sumatera Barat";"Kota Sawahlunto, Sumatera Barat";SUMATERA UTARA;;Indonesia;;;;-0.5710375;1.007.876.123;https://maps.google.com/?cid=0x0:0xb3b6a9653cf3a83c;
perumahan;Komplek perumahan;Rumah Putri;"CQHJ+WF, Tumpuak Tangah, Kec. Talawi, Kota Sawahlunto, Sumatera Barat";"Kota Sawahlunto, Sumatera Barat";SUMATERA UTARA;;Indonesia;;;;-0.570204;100.781.155;https://maps.google.com/?cid=0x0:0x7a793a576083509c;
perumahan;Perhimpunan Pengembang Perumahan;Batu Guring;"9QFC+H9, Rantih, Kec. Talawi, Kota Sawahlunto, Sumatera Barat";"Kota Sawahlunto, Sumatera Barat";SUMATERA UTARA;;Indonesia;;;;-0.6260144;1.007.709.044;https://maps.google.com/?cid=0x0:0xd4b24ae8902c02cf;
perumahan;perumahan;Rumah Vuji Anita;"9RMF+H24, Limo Koto, Kec. Koto VII, Kabupaten Sijunjung, Sumatera Barat 27443";"Limo Koto, Kec. Koto VII, Kabupaten Sijunjung";SUMATERA UTARA;27443;Indonesia;;;;-0.6161081;1.008.225.874;https://maps.google.com/?cid=0x0:0x560233846c33f2a0;
perumahan;Komplek perumahan;Rumah Aulia;"CQHJ+WF, Tumpuak Tangah, Kec. Talawi, Kota Sawahlunto, Sumatera Barat";"Kota Sawahlunto, Sumatera Barat";SUMATERA UTARA;;Indonesia;;;;-0.570255;1.007.812.491;https://maps.google.com/?cid=0x0:0x93cfb54649e944d9;
perumahan;Komplek perumahan;Rumah koto palaluar;"9VF3+898, Padang Laweh, Kec. Koto VII, Kabupaten Sijunjung, Sumatera Barat";"Kabupaten Sijunjung, Sumatera Barat";SUMATERA UTARA;;Indonesia;;;;-0.6267155;1.008.534.461;https://maps.google.com/?cid=0x0:0x15a6450b2506282d;
perumahan;perumahan;Rumah mina;"CRW7+6V6, Jl. Lintas Sumatera, Manggis Ganting, Kec. Koto VII, Kota Bukittinggi, Sumatera Barat";"Kota Bukittinggi, Sumatera Barat";SUMATERA UTARA;;Indonesia;;;;-0.5544556;1.008.146.547;https://maps.google.com/?cid=0x0:0x68e8c119a3b9fbec;
perumahan;Komplek perumahan;Pesta Bayu dan Tania;"9VF3+9FR, Padang Laweh, Kec. Koto VII, Kabupaten Sijunjung, Sumatera Barat 27443";"Padang Laweh, Kec. Koto VII, Kabupaten Sijunjung";SUMATERA UTARA;27443;Indonesia;;;;-0.6265021;1.008.536.417;https://maps.google.com/?cid=0x0:0xcab05c821f5d3535;
perumahan;Komplek perumahan;Yusnain;"CQJM+X64, Suyuk, Tumpuak Tangah, Kec. Talawi, Kota Sawahlunto, Sumatera Barat";"Kota Sawahlunto, Sumatera Barat";SUMATERA UTARA;;Indonesia;;;;-0.5676014;1.007.830.826;https://maps.google.com/?cid=0x0:0x58737e6ae7c350da;
perumahan;perumahan;Indonesia;;;SUMATERA UTARA;;Indonesia;;;;-0.789275;113.921.327;https://maps.google.com/?cid=0x0:0xe37b4de71badf485;
perumahan;Komplek perumahan;Perumahan Permata Balaraja;"Jl. Mutiara No.08, Saga, Kec. Balaraja, Kabupaten Tangerang, Banten 15610";"Saga, Kec. Balaraja, Kabupaten Tangerang";SUMATERA UTARA;15610;Indonesia;;;;-61.798.185;1.064.632.548;https://maps.google.com/?cid=0x0:0xcc6bcd0af6064573;
perumahan;Toko;Perum BWI 2;"Waringinjaya, Kec. Kedungwaringin, Kabupaten Bekasi, Jawa Barat 17540";"Kec. Kedungwaringin, Kabupaten Bekasi";SUMATERA UTARA;17540;Indonesia;;;;-62.609.582;1.072.362.955;https://maps.google.com/?cid=0x0:0x506f6aafe056a15a;
perumahan;Komplek perumahan;Sawah lunto;"Jln gunung timbago No.20, Talawi Hilir, Kec. Talawi, Kota Sawahlunto, Sumatera Barat 27443";"Talawi Hilir, Kec. Talawi, Kota Sawahlunto";SUMATERA UTARA;27443;Indonesia;;;;-0.5966276;1.007.361.121;https://maps.google.com/?cid=0x0:0x8a929cb79f0389e8;
perumahan;Pembangunan Perumahan;Tanah Nyaring;"CP8M+HQ, Talawi Mudik, Kec. Talawi, Kota Sawahlunto, Sumatera Barat 27443";"Talawi Mudik, Kec. Talawi, Kota Sawahlunto";SUMATERA UTARA;27443;Indonesia;081371583506;;;-0.583536;1.007.344.306;https://maps.google.com/?cid=0x0:0xef3b675f6e44d472;
perumahan;Pembangunan Perumahan;Rumah mak Yas;"Dusun Sago No.136, Talawi Mudik, Talawi, Sawahlunto, West Sumatra";"Kota Sawahlunto, Sumatera Barat";SUMATERA UTARA;;Indonesia;081275674765;;;-0.5925213;1.007.342.253;https://maps.google.com/?cid=0x0:0x53727d88f4455062;
perumahan;Musala;Abdul Aziz Musyaffa Home;"9PXQ+FHW, Jl. Luak Batu, Talawi Hilir, Kec. Talawi, Kota Sawahlunto, Sumatera Barat 27443";"Jl. Luak Batu, Talawi Hilir, Kec. Talawi, Kota Sawahlunto";SUMATERA UTARA;27443;Indonesia;;;;-0.601274;1.007.389.574;https://maps.google.com/?cid=0x0:0xdf2215893c3f4bcb;
perumahan;Kantor Perusahaan;Kompleks Atas PLN UPK Ombilin;"9QX3+H9G, Batu Tj., Kec. Talawi, Kota Sawahlunto, Sumatera Barat 27443";"Batu Tj., Kec. Talawi, Kota Sawahlunto";SUMATERA UTARA;27443;Indonesia;;;;-0.6010556;1.007.534.623;https://maps.google.com/?cid=0x0:0x88efb0f02477a161;
perumahan;Pembangunan Perumahan;talawi;"9QP6+298, Salak, Kec. Talawi, Kota Sawahlunto, Sumatera Barat";"Kota Sawahlunto, Sumatera Barat";SUMATERA UTARA;;Indonesia;;;;-0.6149652;1.007.609.458;https://maps.google.com/?cid=0x0:0x23c2e54d2ca68a66;
perumahan;Perhimpunan Pengembang Perumahan;Rumah Kepala Desa Batu Tanjung;"CQ77+QHQ, Dusun Ujung Karang, Batu Tj., Kec. Talawi, Kota Sawahlunto, Sumatera Barat";"Kota Sawahlunto, Sumatera Barat";SUMATERA UTARA;;Indonesia;;;;-0.5855328;1.007.639.971;https://maps.google.com/?cid=0x0:0x98d64c1be2570af8;
perumahan;Pembangunan Perumahan;PTP 1;"Talawi Hilir, Kec. Talawi, Kota Sawahlunto, Sumatera Barat 27443";"Kec. Talawi, Kota Sawahlunto";SUMATERA UTARA;27443;Indonesia;;;;-0.5940943;1.007.325.945;https://maps.google.com/?cid=0x0:0x8a09bd0bb5502008;
perumahan;Komplek perumahan;Rumah D;"9PXP+QQV, Talawi Hilir, Kec. Talawi, Kota Sawahlunto, Sumatera Barat 27443";"Talawi Hilir, Kec. Talawi, Kota Sawahlunto";SUMATERA UTARA;27443;Indonesia;;;;-0.6004923;1.007.369.445;https://maps.google.com/?cid=0x0:0xf5449f9c72138504;
perumahan;Pembangunan Perumahan;Perumahan Cengking Indah;"CQ72+3FC, Jl. Anas Malik, Bukit Gadang, Kec. Talawi, Kota Sawahlunto, Sumatera Barat 27443";"Jl. Anas Malik, Bukit Gadang, Kec. Talawi, Kota Sawahlunto";SUMATERA UTARA;27443;Indonesia;081284448071;;;-0.587308;100.751.153;https://maps.google.com/?cid=0x0:0x954bcc5e23333f9f;
perumahan;Komplek perumahan;Rumah Asnil;"CQFF+WRJ, dusun tanjung mulia, Tumpuak Tangah, Kec. Talawi, Kota Sawahlunto, Sumatera Barat";"Kota Sawahlunto, Sumatera Barat";SUMATERA UTARA;;Indonesia;;;;-0.5751743;1.007.745.149;https://maps.google.com/?cid=0x0:0x3a2a2362ff12574;
perumahan;Komplek perumahan;Bedeng proyek;"CP5W+348, Bukit Gadang, Kec. Talawi, Kota Sawahlunto, Sumatera Barat";"Kota Sawahlunto, Sumatera Barat";SUMATERA UTARA;;Indonesia;;;;-0.5923322;1.007.453.263;https://maps.google.com/?cid=0x0:0x19fd1cc6ce3468b;
perumahan;Komplek perumahan;Tisya Bimbel;"CQJ8+R4, Tumpuak Tangah, Kec. Talawi, Kota Sawahlunto, Sumatera Barat 27443";"Tumpuak Tangah, Kec. Talawi, Kota Sawahlunto";SUMATERA UTARA;27443;Indonesia;;;;-0.5679642;1.007.652.811;https://maps.google.com/?cid=0x0:0xf060094aea36b8d2;
perumahan;Perhimpunan Pengembang Perumahan;"Batutanjung,Talawi,Sawahlunto,sumbar";"9QWV+3PQ, Batu Tj., Kec. Talawi, Kota Sawahlunto, Sumatera Barat 27441";"Batu Tj., Kec. Talawi, Kota Sawahlunto";SUMATERA UTARA;27441;Indonesia;;;;-0.6047862;1.007.943.639;https://maps.google.com/?cid=0x0:0xc649b59f550eb0dd;
perumahan;Komplek perumahan;Rumah iyan ( nenek );"CP5M+7CP, Talawi Mudik, Kec. Talawi, Kota Sawahlunto, Sumatera Barat 27443";"Talawi Mudik, Kec. Talawi, Kota Sawahlunto";SUMATERA UTARA;27443;Indonesia;;;;-0.5915291;1.007.335.819;https://maps.google.com/?cid=0x0:0xfcd68ed3cb4dcd6c;
perumahan;Komplek perumahan;Rumah Sri Melda Yulianis  Putra Nofirta;"CQ9F+8CC, Tumpuak Tangah, Kec. Talawi, Kota Sawahlunto, Sumatera Barat";"Kota Sawahlunto, Sumatera Barat";SUMATERA UTARA;;Indonesia;085263372549;;;-0.5816887;1.007.735.129;https://maps.google.com/?cid=0x0:0xf4c2be081c8ded88;
perumahan;Komplek perumahan;Rumah Anggie Amaliyah Arrauva;"CP3P+7C2, Simpang GobahJl. Prof.M, YaminTalawi Hilir, Kec. Talawi, Kota Sawahlunto, Sumatera Barat 27443";"Simpang GobahJl. Prof.M, YaminTalawi Hilir, Kec. Talawi, Kota Sawahlunto";SUMATERA UTARA;27443;Indonesia;;;;-0.5968508;1.007.359.282;https://maps.google.com/?cid=0x0:0xe3afe8bdffd0f9d;
perumahan;Perhimpunan Pengembang Perumahan;Rumah azizah;"CQ78+MJW, Batu Tj., Kec. Talawi, Kota Sawahlunto, Sumatera Barat 27443";"Batu Tj., Kec. Talawi, Kota Sawahlunto";SUMATERA UTARA;27443;Indonesia;;;;-0.5853549;1.007.661.003;https://maps.google.com/?cid=0x0:0x6f87aead38792e73;
perumahan;Rumah Kayu;Rumah fadilah;"CP6V+77C, Bukit Gadang, Kec. Talawi, Kota Sawahlunto, Sumatera Barat 27443";"Bukit Gadang, Kec. Talawi, Kota Sawahlunto";SUMATERA UTARA;27443;Indonesia;;;;-0.5893079;1.007.431.421;https://maps.google.com/?cid=0x0:0xe74cbb97644aec08;
perumahan;Komplek perumahan;Tanah datar Talawi hilir;"9PWR+X8F, Talawi Hilir, Kec. Talawi, Kota Sawahlunto, Sumatera Barat";"Kota Sawahlunto, Sumatera Barat";SUMATERA UTARA;;Indonesia;;;;-0.6025669;1.007.407.895;https://maps.google.com/?cid=0x0:0x3355fdd230f8e1de;
perumahan;Komplek perumahan;Rumah Ronny;"CPCW+7HM, Perumahan Green View, Bukit Gadang, Kec. Talawi, Kota Sawahlunto, Sumatera Barat 27443";"Perumahan Green View, Bukit Gadang, Kec. Talawi, Kota Sawahlunto";SUMATERA UTARA;27443;Indonesia;;;;-0.5792954;1.007.464.275;https://maps.google.com/?cid=0x0:0x5ad41d587a2b9fe9;
perumahan;Komplek perumahan;Mardanil home;"CP4P+P26, Talawi Mudik, Kec. Talawi, Kota Sawahlunto, Sumatera Barat 27443";"Talawi Mudik, Kec. Talawi, Kota Sawahlunto";SUMATERA UTARA;27443;Indonesia;;;;-0.59335;1.007.348.626;https://maps.google.com/?cid=0x0:0xa6d84d4a8afe9762;
perumahan;Perhimpunan Pengembang Perumahan;Amel Home;"9PXR+M5G, Talawi Hilir, Kec. Talawi, Kota Sawahlunto, Sumatera Barat";"Kota Sawahlunto, Sumatera Barat";SUMATERA UTARA;;Indonesia;;;;-0.60081;10.074.045;https://maps.google.com/?cid=0x0:0x7993753754e8aece;
perumahan;Komplek perumahan;Rumah Pak Yuherman;"9PXP+R5G, Talawi Hilir, Kec. Talawi, Kota Sawahlunto, Sumatera Barat 27443";"Talawi Hilir, Kec. Talawi, Kota Sawahlunto";SUMATERA UTARA;27443;Indonesia;;;;-0.6004393;1.007.354.513;https://maps.google.com/?cid=0x0:0xb53725b764784c6b;
perumahan;Komplek perumahan;Titin DapoerShanum;"9PXQ+RC3, Jl. Luak Batu, Talawi Hilir, Kec. Talawi, Kota Sawahlunto, Sumatera Barat 27443";"Jl. Luak Batu, Talawi Hilir, Kec. Talawi, Kota Sawahlunto";SUMATERA UTARA;27443;Indonesia;;;;-0.6004795;1.007.385.618;https://maps.google.com/?cid=0x0:0x6581a64a85f36565;
perumahan;perumahan;Sumatera Barat 27444;Sumatera Barat;Sumatera Barat;SUMATERA UTARA;;Indonesia;;;;-0.5770508;1.007.041.509;https://maps.google.com/?cid=0x0:0x71411700fc3f3b1c;
perumahan;perumahan;Kec. Talawi;"Kabupaten Batu Bara, Sumatera Utara";"Kabupaten Batu Bara, Sumatera Utara";SUMATERA UTARA;;Indonesia;;;;32.027.344;995.637.574;https://maps.google.com/?cid=0x0:0x4039d80b2211910;
perumahan;perumahan;Rumah MakSun;"GH26+22G, Padang Magek, Kec. Rambatan, Kabupaten Tanah Datar, Sumatera Barat";"Kabupaten Tanah Datar, Sumatera Barat";SUMATERA UTARA;;Indonesia;;;;-0.4999309;1.005.600.812;https://maps.google.com/?cid=0x0:0x83748713e2d40fff;
perumahan;Perumahan;Ladang Afif qila;"CP5G+78X, Unnamed Road, Kolok Nan Tuo, Kec. Barangin, Kota Sawahlunto, Sumatera Barat 27443";"Unnamed Road, Kolok Nan Tuo, Kec. Barangin, Kota Sawahlunto";SUMATERA UTARA;27443;Indonesia;082381100559;;;-0.5917683;1.007.258.451;https://maps.google.com/?cid=0x0:0x19334835b6391bc6;
perumahan;Komplek perumahan;Rumah Nenek;"CM2V+C6P, Jl. Kolok, Sulit Air, Kec. X Koto Diatas, Kabupaten Solok, Sumatera Barat";"Kabupaten Solok, Sumatera Barat";SUMATERA UTARA;;Indonesia;;;;-0.5989016;1.006.930.708;https://maps.google.com/?cid=0x0:0x8b344faa9fd59d22;
perumahan;perumahan;Talawi Mudik;"Kec. Talawi, Kota Sawahlunto, Sumatera Barat";"Kota Sawahlunto, Sumatera Barat";SUMATERA UTARA;;Indonesia;;;;-0.5770078;100.726.696;https://maps.google.com/?cid=0x0:0xbc711a94f37f2bd6;
perumahan;Komplek perumahan;Perumahan Taman Rizano;"GHPX+R44, Baringin, Kec. Lima Kaum, Kabupaten Tanah Datar, Sumatera Barat 27213";"Baringin, Kec. Lima Kaum, Kabupaten Tanah Datar";SUMATERA UTARA;27213;Indonesia;;;;-0.4629915;1.005.978.373;https://maps.google.com/?cid=0x0:0x663c16e96a5ffe16;
perumahan;Komplek perumahan;Rumah widya cantik;"CH4F+WMP, Simawang, Kec. Rambatan, Kabupaten Tanah Datar, Sumatera Barat";"Kabupaten Tanah Datar, Sumatera Barat";SUMATERA UTARA;;Indonesia;;;;-0.5926584;100.574.194;https://maps.google.com/?cid=0x0:0x11a0f1c04d45de25;
perumahan;Komplek perumahan;Rumah Fila;"CHR9+GHH, Jalan Lareh, Simawang, Kec. Rambatan, Kabupaten Tanah Datar, Sumatera Barat 27271";"Jalan Lareh, Simawang, Kec. Rambatan, Kabupaten Tanah Datar";SUMATERA UTARA;27271;Indonesia;;;;-0.5586985;1.005.689.948;https://maps.google.com/?cid=0x0:0x2359a03156a6d4a5;
perumahan;Komplek perumahan;Rumah Tiwi Novita;"HH6W+JXF, Koto Panjang, Kec. Sungai Tarab, Kabupaten Tanah Datar, Sumatera Barat";"Kabupaten Tanah Datar, Sumatera Barat";SUMATERA UTARA;;Indonesia;;;;-0.4383803;100.597.784;https://maps.google.com/?cid=0x0:0x51533d8e08a1f1c;
perumahan;perumahan;Perumahan permata rizano blok v4;"Komplek Perumahan permata rizano, blok v4, Cubadak, Kec. Lima Kaum, Kabupaten Tanah Datar, Sumatera Barat";"Kabupaten Tanah Datar, Sumatera Barat";SUMATERA UTARA;;Indonesia;;;;-0.468141;1.005.493.011;https://maps.google.com/?cid=0x0:0xce4bb695dd176e58;
perumahan;Perhimpunan Pengembang Perumahan;Rumah mera;"FJC9+FH3, Saruaso, Kec. Tj. Emas, Kabupaten Tanah Datar, Sumatera Barat 27281";"Saruaso, Kec. Tj. Emas, Kabupaten Tanah Datar";SUMATERA UTARA;27281;Indonesia;;;;-0.528855;1.006.189.154;https://maps.google.com/?cid=0x0:0x47e8f2353c06f8b7;
perumahan;Komplek perumahan;Syafiiqa;"8QP7+M49, Durian I, Kec. Barangin, Kota Sawahlunto, Sumatera Barat";"Kota Sawahlunto, Sumatera Barat";SUMATERA UTARA;;Indonesia;;;;-0.6633285;1.007.628.548;https://maps.google.com/?cid=0x0:0xf8ba56f12c64d1a0;
perumahan;perumahan;Kec. Talawi;"Kabupaten Batu Bara, Sumatera Utara";"Kabupaten Batu Bara, Sumatera Utara";SUMATERA UTARA;;Indonesia;;;;32.027.344;995.637.574;https://maps.google.com/?cid=0x0:0x4039d80b2211910;
perumahan;Pembangunan Perumahan;Peruma;"5HH6+9PV, Pahang, Kec. Talawi, Kabupaten Batu Bara, Sumatera Utara";"Kabupaten Batu Bara, Sumatera Utara";SUMATERA UTARA;;Indonesia;;;;31.784.858;995.617.847;https://maps.google.com/?cid=0x0:0x7fce77b4e04deae0;
perumahan;Otoritas Perumahan;Talawi Indah Permai;"Unnamed Road, Pahang, Kec. Talawi, Kabupaten Batu Bara, Sumatera Utara 21254";"Pahang, Kec. Talawi, Kabupaten Batu Bara";SUMATERA UTARA;21254;Indonesia;081263633403;;;31.759.667;995.640.507;https://maps.google.com/?cid=0x0:0xc485cf7696f61caf;
perumahan;Pembangunan Perumahan;Perumahan Bunga Tanjung Lestari;"6H86+W92, Jl. Sungai Udang, Mesjid Lama, Kec. Talawi, Kabupaten Batu Bara, Sumatera Utara 21254";"Jl. Sungai Udang, Mesjid Lama, Kec. Talawi, Kabupaten Batu Bara";SUMATERA UTARA;21254;Indonesia;08116591001;;;32.172.622;995.608.775;https://maps.google.com/?cid=0x0:0x93ec00558a896daa;
perumahan;Layanan administrasi properti;Perumahan Halimah Indah;"6H29+HGX, Labuhan Ruku, Kec. Talawi, Kabupaten Batu Bara, Sumatera Utara 21253";"Labuhan Ruku, Kec. Talawi, Kabupaten Batu Bara";SUMATERA UTARA;21253;Indonesia;;;;32.015.565;995.688.764;https://maps.google.com/?cid=0x0:0x2f67e020994ec936;
perumahan;Perumahan;Perumahan GRAND ASIA CITY;"6H6G+3W9, Labuhan Ruku, Kec. Talawi, Kabupaten Batu Bara, Sumatera Utara 21253";"Labuhan Ruku, Kec. Talawi, Kabupaten Batu Bara";SUMATERA UTARA;21253;Indonesia;;;;32.101.686;99.577.354;https://maps.google.com/?cid=0x0:0x8df3e3e155d4cc86;
perumahan;Kantor Perusahaan;Perumahan Batu Bara Great Land II;"6H5H+X6R, Labuhan Ruku, Kec. Talawi, Kabupaten Batu Bara, Sumatera Utara";"Kabupaten Batu Bara, Sumatera Utara";SUMATERA UTARA;;Indonesia;082172897679;;;32.099.761;995.780.031;https://maps.google.com/?cid=0x0:0x31c4d246a061d102;
perumahan;Pembangunan Perumahan;Perumahan Genting Batubara Residence;"5GXV+VV2, Padang Genting, Kec. Talawi, Kabupaten Batu Bara, Sumatera Utara 21254";"Padang Genting, Kec. Talawi, Kabupaten Batu Bara";SUMATERA UTARA;21254;Indonesia;082360555652;;;31.996.333;995.446.378;https://maps.google.com/?cid=0x0:0xc22e3a82deb8bd08;
perumahan;Rumah wisata;Perumahan Griya Sultan Asri;"Kode Pos :, Jl. Kuala Teuku Umar Dusun VI, Pahang, Kec. Talawi, Kabupaten Batu Bara, Sumatera Utara 21254";"Jl. Kuala Teuku Umar Dusun VI, Pahang, Kec. Talawi, Kabupaten Batu Bara";SUMATERA UTARA;21254;Indonesia;082276681173;;;31.830.387;995.606.509;https://maps.google.com/?cid=0x0:0xf039364f916e1273;
perumahan;perumahan;RUMAH SALIM RAHMAN;"Jl. Imam Bonjol, Labuhan Ruku, Kec. Talawi, Kabupaten Batu Bara, Sumatera Utara";"Kabupaten Batu Bara, Sumatera Utara";SUMATERA UTARA;;Indonesia;;;;32.092.732;995.711.555;https://maps.google.com/?cid=0x0:0xa07f0103414e5da;
perumahan;Pembangunan Perumahan;Pontianak;"Jl. Imam Bonjol, Labuhan Ruku, Kec. Talawi, Kabupaten Batu Bara, Sumatera Utara";"Kabupaten Batu Bara, Sumatera Utara";SUMATERA UTARA;;Indonesia;;;;32.092.732;995.711.555;https://maps.google.com/?cid=0x0:0x388101527c1b9164;
perumahan;Komplek perumahan;Rumah;"5HM5+6X9, Pahang, Kec. Talawi, Kabupaten Batu Bara, Sumatera Utara 21254";"Pahang, Kec. Talawi, Kabupaten Batu Bara";SUMATERA UTARA;21254;Indonesia;;;;31.829.907;995.600.264;https://maps.google.com/?cid=0x0:0xf4521eb66dbc1757;
perumahan;Komplek perumahan;Rumah;"Labuhan Ruku, Kec. Talawi, Kabupaten Batu Bara, Sumatera Utara";"Kabupaten Batu Bara, Sumatera Utara";SUMATERA UTARA;;Indonesia;;;;32.086.244;995.712.356;https://maps.google.com/?cid=0x0:0x7873d5cd4ad16d1;
perumahan;Komplek perumahan;Yusuf;"Jl. Perintis Kemerdekaan No.71, Dahari Selebar, Kec. Talawi, Kabupaten Batu Bara, Sumatera Utara 21255";"Dahari Selebar, Kec. Talawi, Kabupaten Batu Bara";SUMATERA UTARA;21255;Indonesia;;;;32.442.694;995.269.171;https://maps.google.com/?cid=0x0:0xd2383394c0b2b9d8;
perumahan;Pembangunan Perumahan;PERUM. QANITA;"6H4H+3CV, Labuhan Ruku, Kec. Talawi, Kabupaten Batu Bara, Sumatera Utara 21253";"Labuhan Ruku, Kec. Talawi, Kabupaten Batu Bara";SUMATERA UTARA;21253;Indonesia;;;;320.523;99.578.559;https://maps.google.com/?cid=0x0:0x1c54d17df432a590;
perumahan;Komplek perumahan;Rumah Sakinah;"6GPV+G9M, Dahari Selebar, Kec. Talawi, Kabupaten Batu Bara, Sumatera Utara";"Kabupaten Batu Bara, Sumatera Utara";SUMATERA UTARA;;Indonesia;;;;32.363.302;995.434.111;https://maps.google.com/?cid=0x0:0x766bdd1aa7c78453;
perumahan;perumahan;Kampung bacang dalam;"5HJF+64J, Pahang, Kec. Talawi, Kabupaten Batu Bara, Sumatera Utara 21253";"Pahang, Kec. Talawi, Kabupaten Batu Bara";SUMATERA UTARA;21253;Indonesia;;;;31.805.831;995.727.712;https://maps.google.com/?cid=0x0:0xc8236dc3d68dc000;
perumahan;Toko Pakaian;Toko Odan online;"6H4G+X2P, Unnamed Road, Labuhan Ruku, Kec. Talawi, Kabupaten Batu Bara, Sumatera Utara 21253";"Unnamed Road, Labuhan Ruku, Kec. Talawi, Kabupaten Batu Bara";SUMATERA UTARA;21253;Indonesia;085262728772;;;32.074.621;99.575.079;https://maps.google.com/?cid=0x0:0xb81f3dd19049ae4e;
perumahan;Pembangunan Perumahan;RUMAH UYUNG;"6H37+P4F, Padang Genting, Kec. Talawi, Kabupaten Batu Bara, Sumatera Utara 21254";"Padang Genting, Kec. Talawi, Kabupaten Batu Bara";SUMATERA UTARA;21254;Indonesia;;;;32.043.017;995.627.864;https://maps.google.com/?cid=0x0:0xa45759c89eab0c52;
perumahan;Pembangunan Perumahan;Kampung travel;"Jl. Imam Bonjol, Labuhan Ruku, Kec. Talawi, Kabupaten Batu Bara, Sumatera Utara";"Kabupaten Batu Bara, Sumatera Utara";SUMATERA UTARA;;Indonesia;08126389950;;;32.017.054;995.665.776;https://maps.google.com/?cid=0x0:0x99fbf970b4eed791;
perumahan;Komplek perumahan;Pandomayu;"5GGC+MV3, Panjang, Kec. Talawi, Kabupaten Batu Bara, Sumatera Utara 21255";"Panjang, Kec. Talawi, Kabupaten Batu Bara";SUMATERA UTARA;21255;Indonesia;;;;31.766.324;995.221.599;https://maps.google.com/?cid=0x0:0x70c68481d6f3da8a;
perumahan;perumahan;Kec. Talawi;"Kota Sawahlunto, Sumatera Barat";"Kota Sawahlunto, Sumatera Barat";SUMATERA UTARA;;Indonesia;;;;-0.6150584;1.007.610.255;https://maps.google.com/?cid=0x0:0x8b2705bb7a1a24f2;
perumahan;Komplek perumahan;Sawah lunto;"Jln gunung timbago No.20, Talawi Hilir, Kec. Talawi, Kota Sawahlunto, Sumatera Barat 27443";"Talawi Hilir, Kec. Talawi, Kota Sawahlunto";SUMATERA UTARA;27443;Indonesia;;;;-0.5966276;1.007.361.121;https://maps.google.com/?cid=0x0:0x8a929cb79f0389e8;
perumahan;Pembangunan Perumahan;Rumah mak Yas;"Dusun Sago No.136, Talawi Mudik, Talawi, Sawahlunto, West Sumatra";"Kota Sawahlunto, Sumatera Barat";SUMATERA UTARA;;Indonesia;081275674765;;;-0.5925213;1.007.342.253;https://maps.google.com/?cid=0x0:0x53727d88f4455062;
perumahan;Pembangunan Perumahan;Tanah Nyaring;"CP8M+HQ, Talawi Mudik, Kec. Talawi, Kota Sawahlunto, Sumatera Barat 27443";"Talawi Mudik, Kec. Talawi, Kota Sawahlunto";SUMATERA UTARA;27443;Indonesia;081371583506;;;-0.583536;1.007.344.306;https://maps.google.com/?cid=0x0:0xef3b675f6e44d472;
perumahan;Pembangunan Perumahan;talawi;"9QP6+298, Salak, Kec. Talawi, Kota Sawahlunto, Sumatera Barat";"Kota Sawahlunto, Sumatera Barat";SUMATERA UTARA;;Indonesia;;;;-0.6149652;1.007.609.458;https://maps.google.com/?cid=0x0:0x23c2e54d2ca68a66;
perumahan;Komplek perumahan;Rumah Sri Melda Yulianis  Putra Nofirta;"CQ9F+8CC, Tumpuak Tangah, Kec. Talawi, Kota Sawahlunto, Sumatera Barat";"Kota Sawahlunto, Sumatera Barat";SUMATERA UTARA;;Indonesia;085263372549;;;-0.5816887;1.007.735.129;https://maps.google.com/?cid=0x0:0xf4c2be081c8ded88;
perumahan;Komplek perumahan;Bedeng proyek;"CP5W+348, Bukit Gadang, Kec. Talawi, Kota Sawahlunto, Sumatera Barat";"Kota Sawahlunto, Sumatera Barat";SUMATERA UTARA;;Indonesia;;;;-0.5923322;1.007.453.263;https://maps.google.com/?cid=0x0:0x19fd1cc6ce3468b;
perumahan;Kantor Perusahaan;Kompleks Atas PLN UPK Ombilin;"9QX3+H9G, Batu Tj., Kec. Talawi, Kota Sawahlunto, Sumatera Barat 27443";"Batu Tj., Kec. Talawi, Kota Sawahlunto";SUMATERA UTARA;27443;Indonesia;;;;-0.6010556;1.007.534.623;https://maps.google.com/?cid=0x0:0x88efb0f02477a161;
perumahan;Otoritas Perumahan;Talawi Indah Permai;"Unnamed Road, Pahang, Kec. Talawi, Kabupaten Batu Bara, Sumatera Utara 21254";"Pahang, Kec. Talawi, Kabupaten Batu Bara";SUMATERA UTARA;21254;Indonesia;081263633403;;;31.759.667;995.640.507;https://maps.google.com/?cid=0x0:0xc485cf7696f61caf;
perumahan;Pembangunan Perumahan;Peruma;"5HH6+9PV, Pahang, Kec. Talawi, Kabupaten Batu Bara, Sumatera Utara";"Kabupaten Batu Bara, Sumatera Utara";SUMATERA UTARA;;Indonesia;;;;31.784.858;995.617.847;https://maps.google.com/?cid=0x0:0x7fce77b4e04deae0;
perumahan;Pembangunan Perumahan;Rumah;"6H4G+M3, Labuhan Ruku, Kec. Talawi, Kabupaten Batu Bara, Sumatera Utara 21253";"Labuhan Ruku, Kec. Talawi, Kabupaten Batu Bara";SUMATERA UTARA;21253;Indonesia;;;;32.067.186;995.752.052;https://maps.google.com/?cid=0x0:0x2186439c33bd221e;
perumahan;Pembangunan Perumahan;Perumahan Bunga Tanjung Lestari;"6H86+W92, Jl. Sungai Udang, Mesjid Lama, Kec. Talawi, Kabupaten Batu Bara, Sumatera Utara 21254";"Jl. Sungai Udang, Mesjid Lama, Kec. Talawi, Kabupaten Batu Bara";SUMATERA UTARA;21254;Indonesia;08116591001;;;32.172.622;995.608.775;https://maps.google.com/?cid=0x0:0x93ec00558a896daa;
perumahan;Komplek perumahan;Rumah Sakinah;"6GPV+G9M, Dahari Selebar, Kec. Talawi, Kabupaten Batu Bara, Sumatera Utara";"Kabupaten Batu Bara, Sumatera Utara";SUMATERA UTARA;;Indonesia;;;;32.363.302;995.434.111;https://maps.google.com/?cid=0x0:0x766bdd1aa7c78453;
perumahan;Komplek perumahan;Yusuf;"Jl. Perintis Kemerdekaan No.71, Dahari Selebar, Kec. Talawi, Kabupaten Batu Bara, Sumatera Utara 21255";"Dahari Selebar, Kec. Talawi, Kabupaten Batu Bara";SUMATERA UTARA;21255;Indonesia;;;;32.442.694;995.269.171;https://maps.google.com/?cid=0x0:0xd2383394c0b2b9d8;
perumahan;Toko Pakaian;Toko Odan online;"6H4G+X2P, Unnamed Road, Labuhan Ruku, Kec. Talawi, Kabupaten Batu Bara, Sumatera Utara 21253";"Unnamed Road, Labuhan Ruku, Kec. Talawi, Kabupaten Batu Bara";SUMATERA UTARA;21253;Indonesia;085262728772;;;32.074.621;99.575.079;https://maps.google.com/?cid=0x0:0xb81f3dd19049ae4e;
perumahan;Perumahan;Perumahan GRAND ASIA CITY;"6H6G+3W9, Labuhan Ruku, Kec. Talawi, Kabupaten Batu Bara, Sumatera Utara 21253";"Labuhan Ruku, Kec. Talawi, Kabupaten Batu Bara";SUMATERA UTARA;21253;Indonesia;;;;32.101.686;99.577.354;https://maps.google.com/?cid=0x0:0x8df3e3e155d4cc86;
perumahan;Pembangunan Perumahan;PERUM. QANITA;"6H4H+3CV, Labuhan Ruku, Kec. Talawi, Kabupaten Batu Bara, Sumatera Utara 21253";"Labuhan Ruku, Kec. Talawi, Kabupaten Batu Bara";SUMATERA UTARA;21253;Indonesia;;;;320.523;99.578.559;https://maps.google.com/?cid=0x0:0x1c54d17df432a590;
perumahan;Komplek perumahan;Rumah;"Labuhan Ruku, Kec. Talawi, Kabupaten Batu Bara, Sumatera Utara";"Kabupaten Batu Bara, Sumatera Utara";SUMATERA UTARA;;Indonesia;;;;32.086.244;995.712.356;https://maps.google.com/?cid=0x0:0x7873d5cd4ad16d1;
perumahan;Rumah wisata;Perumahan Griya Sultan Asri;"Kode Pos :, Jl. Kuala Teuku Umar Dusun VI, Pahang, Kec. Talawi, Kabupaten Batu Bara, Sumatera Utara 21254";"Jl. Kuala Teuku Umar Dusun VI, Pahang, Kec. Talawi, Kabupaten Batu Bara";SUMATERA UTARA;21254;Indonesia;082276681173;;;31.830.387;995.606.509;https://maps.google.com/?cid=0x0:0xf039364f916e1273;
perumahan;Pembangunan Perumahan;Kampung travel;"Jl. Imam Bonjol, Labuhan Ruku, Kec. Talawi, Kabupaten Batu Bara, Sumatera Utara";"Kabupaten Batu Bara, Sumatera Utara";SUMATERA UTARA;;Indonesia;08126389950;;;32.017.054;995.665.776;https://maps.google.com/?cid=0x0:0x99fbf970b4eed791;
perumahan;Komplek perumahan;Rumah;"5HM5+6X9, Pahang, Kec. Talawi, Kabupaten Batu Bara, Sumatera Utara 21254";"Pahang, Kec. Talawi, Kabupaten Batu Bara";SUMATERA UTARA;21254;Indonesia;;;;31.829.907;995.600.264;https://maps.google.com/?cid=0x0:0xf4521eb66dbc1757;
perumahan;Pembangunan Perumahan;batu bara;"6H37+3GR, benteng sungai, Kec. Talawi, Kabupaten Batu Bara, Sumatera Utara";"Kabupaten Batu Bara, Sumatera Utara";SUMATERA UTARA;;Indonesia;;;;32.027.344;995.637.574;https://maps.google.com/?cid=0x0:0x9e082867e33fd121;
perumahan;Kantor Perusahaan;Perumahan Batu Bara Great Land II;"6H5H+X6R, Labuhan Ruku, Kec. Talawi, Kabupaten Batu Bara, Sumatera Utara";"Kabupaten Batu Bara, Sumatera Utara";SUMATERA UTARA;;Indonesia;082172897679;;;32.099.761;995.780.031;https://maps.google.com/?cid=0x0:0x31c4d246a061d102;
perumahan;Pembangunan Perumahan;Pontianak;"Jl. Imam Bonjol, Labuhan Ruku, Kec. Talawi, Kabupaten Batu Bara, Sumatera Utara";"Kabupaten Batu Bara, Sumatera Utara";SUMATERA UTARA;;Indonesia;;;;32.092.732;995.711.555;https://maps.google.com/?cid=0x0:0x388101527c1b9164;
perumahan;Komplek perumahan;Pandomayu;"5GGC+MV3, Panjang, Kec. Talawi, Kabupaten Batu Bara, Sumatera Utara 21255";"Panjang, Kec. Talawi, Kabupaten Batu Bara";SUMATERA UTARA;21255;Indonesia;;;;31.766.324;995.221.599;https://maps.google.com/?cid=0x0:0x70c68481d6f3da8a;
perumahan;Layanan administrasi properti;Perumahan Halimah Indah;"6H29+HGX, Labuhan Ruku, Kec. Talawi, Kabupaten Batu Bara, Sumatera Utara 21253";"Labuhan Ruku, Kec. Talawi, Kabupaten Batu Bara";SUMATERA UTARA;21253;Indonesia;;;;32.015.565;995.688.764;https://maps.google.com/?cid=0x0:0x2f67e020994ec936;
perumahan;Pembangunan Perumahan;RUMAH UYUNG;"6H37+P4F, Padang Genting, Kec. Talawi, Kabupaten Batu Bara, Sumatera Utara 21254";"Padang Genting, Kec. Talawi, Kabupaten Batu Bara";SUMATERA UTARA;21254;Indonesia;;;;32.043.017;995.627.864;https://maps.google.com/?cid=0x0:0xa45759c89eab0c52;
perumahan;perumahan;Sumatera Barat 27447;"Limo Koto, Kec. Koto VII, Kabupaten Sijunjung, Sumatera Barat";"Kabupaten Sijunjung, Sumatera Barat";SUMATERA UTARA;;Indonesia;;;;-0.6268262;1.008.268.053;https://maps.google.com/?cid=0x0:0x4460907b90fb2e5b;
perumahan;perumahan;Rumah MakSun;"GH26+22G, Padang Magek, Kec. Rambatan, Kabupaten Tanah Datar, Sumatera Barat";"Kabupaten Tanah Datar, Sumatera Barat";SUMATERA UTARA;;Indonesia;;;;-0.4999309;1.005.600.812;https://maps.google.com/?cid=0x0:0x83748713e2d40fff;
perumahan;perumahan;"Simpang tigo tanjung ampalu, kec. Koto VII, Kab. Sijunjung";"Jl. Lintas Sumatera No.10, Limo Koto, Kec. Koto VII, Kabupaten Sijunjung, Sumatera Barat 27447";"Limo Koto, Kec. Koto VII, Kabupaten Sijunjung";SUMATERA UTARA;27447;Indonesia;;;;-0.6321491;1.008.490.142;https://maps.google.com/?cid=0x0:0x477a880bd94dbb1d;
perumahan;perumahan;Koppas bhakti blok Q no1;"GHJM+QPW, Limo Kaum, Kec. Lima Kaum, Kabupaten Tanah Datar, Sumatera Barat 27213";"Limo Kaum, Kec. Lima Kaum, Kabupaten Tanah Datar";SUMATERA UTARA;27213;Indonesia;;;;-0.4680125;1.005.843.281;https://maps.google.com/?cid=0x0:0x720d34968d4f81d7;
perumahan;Komplek perumahan;Rumah koto palaluar;"9VF3+898, Padang Laweh, Kec. Koto VII, Kabupaten Sijunjung, Sumatera Barat";"Kabupaten Sijunjung, Sumatera Barat";SUMATERA UTARA;;Indonesia;;;;-0.6267155;1.008.534.461;https://maps.google.com/?cid=0x0:0x15a6450b2506282d;
perumahan;Komplek perumahan;Rumah;"9VC4+87M, Padang Laweh, Kec. Koto VII, Kabupaten Sijunjung, Sumatera Barat 27447";"Padang Laweh, Kec. Koto VII, Kabupaten Sijunjung";SUMATERA UTARA;27447;Indonesia;;;;-0.6284275;1.008.562.541;https://maps.google.com/?cid=0x0:0x92085e544c86c8f6;
perumahan;Komplek perumahan;Pesta Bayu dan Tania;"9VF3+9FR, Padang Laweh, Kec. Koto VII, Kabupaten Sijunjung, Sumatera Barat 27443";"Padang Laweh, Kec. Koto VII, Kabupaten Sijunjung";SUMATERA UTARA;27443;Indonesia;;;;-0.6265021;1.008.536.417;https://maps.google.com/?cid=0x0:0xcab05c821f5d3535;
perumahan;Komplek perumahan;Lokasi pesta;"9RJ9+22, Limo Koto, Kec. Koto VII, Kabupaten Sijunjung, Sumatera Barat";"Kabupaten Sijunjung, Sumatera Barat";SUMATERA UTARA;;Indonesia;;;;-0.6199849;1.008.176.276;https://maps.google.com/?cid=0x0:0x4dac9894d6f18ea2;
perumahan;Komplek perumahan;Rumah Femi Dwi Aulia;"9R8X+WW2, Jl. Lintas Sumatera, Padang Laweh, Kec. Koto VII, Kabupaten Sijunjung, Sumatera Barat 27449";"Jl. Lintas Sumatera, Padang Laweh, Kec. Koto VII, Kabupaten Sijunjung";SUMATERA UTARA;27449;Indonesia;;;;-0.6327263;1.008.497.561;https://maps.google.com/?cid=0x0:0x71e7a2f3b4322115;
perumahan;Komplek perumahan;Rumah firman;"9R5W+R8, Limo Koto, Kec. Koto VII, Kabupaten Sijunjung, Sumatera Barat";"Kabupaten Sijunjung, Sumatera Barat";SUMATERA UTARA;;Indonesia;;;;-0.6403911;1.008.457.577;https://maps.google.com/?cid=0x0:0xec11c5d0e1d6d85b;
perumahan;perumahan;Kec. Talawi;"Kabupaten Batu Bara, Sumatera Utara";"Kabupaten Batu Bara, Sumatera Utara";SUMATERA UTARA;;Indonesia;;;;32.027.344;995.637.574;https://maps.google.com/?cid=0x0:0x4039d80b2211910;
perumahan;Otoritas Perumahan;Talawi Indah Permai;"Unnamed Road, Pahang, Kec. Talawi, Kabupaten Batu Bara, Sumatera Utara 21254";"Pahang, Kec. Talawi, Kabupaten Batu Bara";SUMATERA UTARA;21254;Indonesia;081263633403;;;31.759.667;995.640.507;https://maps.google.com/?cid=0x0:0xc485cf7696f61caf;
perumahan;Perumahan;Perumahan GRAND ASIA CITY;"6H6G+3W9, Labuhan Ruku, Kec. Talawi, Kabupaten Batu Bara, Sumatera Utara 21253";"Labuhan Ruku, Kec. Talawi, Kabupaten Batu Bara";SUMATERA UTARA;21253;Indonesia;;;;32.101.686;99.577.354;https://maps.google.com/?cid=0x0:0x8df3e3e155d4cc86;
perumahan;Kantor Perusahaan;Perumahan Batu Bara Great Land II;"6H5H+X6R, Labuhan Ruku, Kec. Talawi, Kabupaten Batu Bara, Sumatera Utara";"Kabupaten Batu Bara, Sumatera Utara";SUMATERA UTARA;;Indonesia;082172897679;;;32.099.761;995.780.031;https://maps.google.com/?cid=0x0:0x31c4d246a061d102;
perumahan;Pembangunan Perumahan;Perumahan Genting Batubara Residence;"5GXV+VV2, Padang Genting, Kec. Talawi, Kabupaten Batu Bara, Sumatera Utara 21254";"Padang Genting, Kec. Talawi, Kabupaten Batu Bara";SUMATERA UTARA;21254;Indonesia;082360555652;;;31.996.333;995.446.378;https://maps.google.com/?cid=0x0:0xc22e3a82deb8bd08;
perumahan;Pembangunan Perumahan;Peruma;"5HH6+9PV, Pahang, Kec. Talawi, Kabupaten Batu Bara, Sumatera Utara";"Kabupaten Batu Bara, Sumatera Utara";SUMATERA UTARA;;Indonesia;;;;31.784.858;995.617.847;https://maps.google.com/?cid=0x0:0x7fce77b4e04deae0;
perumahan;Pembangunan Perumahan;Rumah;"6H4G+M3, Labuhan Ruku, Kec. Talawi, Kabupaten Batu Bara, Sumatera Utara 21253";"Labuhan Ruku, Kec. Talawi, Kabupaten Batu Bara";SUMATERA UTARA;21253;Indonesia;;;;32.067.186;995.752.052;https://maps.google.com/?cid=0x0:0x2186439c33bd221e;
perumahan;Pembangunan Perumahan;Perumahan Bunga Tanjung Lestari;"6H86+W92, Jl. Sungai Udang, Mesjid Lama, Kec. Talawi, Kabupaten Batu Bara, Sumatera Utara 21254";"Jl. Sungai Udang, Mesjid Lama, Kec. Talawi, Kabupaten Batu Bara";SUMATERA UTARA;21254;Indonesia;08116591001;;;32.172.622;995.608.775;https://maps.google.com/?cid=0x0:0x93ec00558a896daa;
perumahan;Layanan administrasi properti;Perumahan Halimah Indah;"6H29+HGX, Labuhan Ruku, Kec. Talawi, Kabupaten Batu Bara, Sumatera Utara 21253";"Labuhan Ruku, Kec. Talawi, Kabupaten Batu Bara";SUMATERA UTARA;21253;Indonesia;;;;32.015.565;995.688.764;https://maps.google.com/?cid=0x0:0x2f67e020994ec936;
perumahan;Pembangunan Perumahan;PERUM. QANITA;"6H4H+3CV, Labuhan Ruku, Kec. Talawi, Kabupaten Batu Bara, Sumatera Utara 21253";"Labuhan Ruku, Kec. Talawi, Kabupaten Batu Bara";SUMATERA UTARA;21253;Indonesia;;;;320.523;99.578.559;https://maps.google.com/?cid=0x0:0x1c54d17df432a590;
perumahan;Komplek perumahan;Rumah yatii;"Jl. Imam Bonjol, Labuhan Ruku, Kec. Talawi, Kabupaten Batu Bara, Sumatera Utara";"Kabupaten Batu Bara, Sumatera Utara";SUMATERA UTARA;;Indonesia;;;;32.092.732;995.711.555;https://maps.google.com/?cid=0x0:0x44f590356c495950;
perumahan;Toko Pakaian;Toko Odan online;"6H4G+X2P, Unnamed Road, Labuhan Ruku, Kec. Talawi, Kabupaten Batu Bara, Sumatera Utara 21253";"Unnamed Road, Labuhan Ruku, Kec. Talawi, Kabupaten Batu Bara";SUMATERA UTARA;21253;Indonesia;085262728772;;;32.074.621;99.575.079;https://maps.google.com/?cid=0x0:0xb81f3dd19049ae4e;
perumahan;Komplek perumahan;Rumah;"Labuhan Ruku, Kec. Talawi, Kabupaten Batu Bara, Sumatera Utara";"Kabupaten Batu Bara, Sumatera Utara";SUMATERA UTARA;;Indonesia;;;;32.086.244;995.712.356;https://maps.google.com/?cid=0x0:0x7873d5cd4ad16d1;
perumahan;Pembangunan Perumahan;Pontianak;"Jl. Imam Bonjol, Labuhan Ruku, Kec. Talawi, Kabupaten Batu Bara, Sumatera Utara";"Kabupaten Batu Bara, Sumatera Utara";SUMATERA UTARA;;Indonesia;;;;32.092.732;995.711.555;https://maps.google.com/?cid=0x0:0x388101527c1b9164;
perumahan;Otoritas Perumahan;Perumahan Sirih Nazfa Indah II;"6H3C+X2R, Jl. Imam Bonjol, Labuhan Ruku, Kec. Talawi, Kabupaten Batu Bara, Sumatera Utara 21253";"Jl. Imam Bonjol, Labuhan Ruku, Kec. Talawi, Kabupaten Batu Bara";SUMATERA UTARA;21253;Indonesia;;;;32.049.849;995.700.165;https://maps.google.com/?cid=0x0:0x29b0b1a95035b0ef;
perumahan;Komplek perumahan;Rumah Sakinah;"6GPV+G9M, Dahari Selebar, Kec. Talawi, Kabupaten Batu Bara, Sumatera Utara";"Kabupaten Batu Bara, Sumatera Utara";SUMATERA UTARA;;Indonesia;;;;32.363.302;995.434.111;https://maps.google.com/?cid=0x0:0x766bdd1aa7c78453;
perumahan;Pembangunan Perumahan;RUMAH UYUNG;"6H37+P4F, Padang Genting, Kec. Talawi, Kabupaten Batu Bara, Sumatera Utara 21254";"Padang Genting, Kec. Talawi, Kabupaten Batu Bara";SUMATERA UTARA;21254;Indonesia;;;;32.043.017;995.627.864;https://maps.google.com/?cid=0x0:0xa45759c89eab0c52;
perumahan;Komplek perumahan;Jauhari;"5HJ4+XWH, Pahang, Kec. Talawi, Kabupaten Batu Bara, Sumatera Utara 21254";"Pahang, Kec. Talawi, Kabupaten Batu Bara";SUMATERA UTARA;21254;Indonesia;;;;31.824.418;995.573.605;https://maps.google.com/?cid=0x0:0xd32f04f931975719;
perumahan;perumahan;RUMAH SALIM RAHMAN;"Jl. Imam Bonjol, Labuhan Ruku, Kec. Talawi, Kabupaten Batu Bara, Sumatera Utara";"Kabupaten Batu Bara, Sumatera Utara";SUMATERA UTARA;;Indonesia;;;;32.092.732;995.711.555;https://maps.google.com/?cid=0x0:0xa07f0103414e5da;
perumahan;Pembangunan Perumahan;PERUM. PINANG BARIS MANDIRI;"Jl. Pinang Baris Jl. Indra Yaman No.Desa, Mesjid Lama, Kec. Talawi, Kabupaten Batu Bara, Sumatera Utara 21254";"Mesjid Lama, Kec. Talawi, Kabupaten Batu Bara";SUMATERA UTARA;21254;Indonesia;;;;32.142.933;995.724.184;https://maps.google.com/?cid=0x0:0x84c179a834527ff1;
perumahan;Komplek perumahan;Alimkhai home;"6HC4+666, Mesjid Lama, Kec. Talawi, Kabupaten Batu Bara, Sumatera Utara";"Kabupaten Batu Bara, Sumatera Utara";SUMATERA UTARA;;Indonesia;;;;32.205.481;995.555.074;https://maps.google.com/?cid=0x0:0x6883689857e3e763;
perumahan;Komplek perumahan;Rumah;"5HM5+6X9, Pahang, Kec. Talawi, Kabupaten Batu Bara, Sumatera Utara 21254";"Pahang, Kec. Talawi, Kabupaten Batu Bara";SUMATERA UTARA;21254;Indonesia;;;;31.829.907;995.600.264;https://maps.google.com/?cid=0x0:0xf4521eb66dbc1757;
perumahan;perumahan;Sumatera Barat 27448;"Limo Koto, Kec. Koto VII, Kabupaten Sijunjung, Sumatera Barat";"Kabupaten Sijunjung, Sumatera Barat";SUMATERA UTARA;;Indonesia;;;;-0.6419551;1.008.282.161;https://maps.google.com/?cid=0x0:0xdef8ed9791ae21a5;
perumahan;Komplek perumahan;Hom Residence;"9QWV+3PQ, Batu Tj., Kec. Talawi, Kota Sawahlunto, Sumatera Barat";"Kota Sawahlunto, Sumatera Barat";SUMATERA UTARA;;Indonesia;;;;-0.6047862;1.007.943.639;https://maps.google.com/?cid=0x0:0x8e0abadb78128cea;
perumahan;Komplek perumahan;Sijunjunv;"9RCH+785, Jl. Jorong Koto Mudik, Limo Koto, Kec. Koto VII, Kabupaten Sijunjung, Sumatera Barat 27448";"Jl. Jorong Koto Mudik, Limo Koto, Kec. Koto VII, Kabupaten Sijunjung";SUMATERA UTARA;27448;Indonesia;;;;-0.6286204;1.008.289.375;https://maps.google.com/?cid=0x0:0xcceff3a52d80850;
perumahan;Komplek perumahan;Lokasi pesta;"9RJ9+22, Limo Koto, Kec. Koto VII, Kabupaten Sijunjung, Sumatera Barat";"Kabupaten Sijunjung, Sumatera Barat";SUMATERA UTARA;;Indonesia;;;;-0.6199849;1.008.176.276;https://maps.google.com/?cid=0x0:0x4dac9894d6f18ea2;
perumahan;perumahan;Rumah Rara;"8RVJ+QPW Jr. Taratak Malintang, Pamuatan, Kec. Koto VII, Kabupaten Sijunjung, Sumatera Barat";"Kabupaten Sijunjung, Sumatera Barat";SUMATERA UTARA;;Indonesia;;;;-0.655902;10.083.099;https://maps.google.com/?cid=0x0:0x35c87035b51463db;
perumahan;Pembangunan Perumahan;Miraoktavia;"9R9H+VH2, Jl. Jorong Koto Mudik, Limo Koto, Kec. Koto VII, Kabupaten Sijunjung, Sumatera Barat";"Kabupaten Sijunjung, Sumatera Barat";SUMATERA UTARA;;Indonesia;;;;-0.6303501;1.008.288.933;https://maps.google.com/?cid=0x0:0x9ed6d31fb551a3;
perumahan;Perhimpunan Pengembang Perumahan;Rumah fatih faiqah;"8RWM+F78, Taratak malintang,jorong koto panjang, Limo Koto, kecamatan koto VIIKabupaten, Kabupaten Sijunjung, Sumatera Barat";"Kabupaten Sijunjung, Sumatera Barat";SUMATERA UTARA;;Indonesia;;;;-0.6538457;1.008.332.176;https://maps.google.com/?cid=0x0:0xd6369f555bdbcbc8;
perumahan;perumahan;Kec. Talawi;"Kabupaten Batu Bara, Sumatera Utara";"Kabupaten Batu Bara, Sumatera Utara";SUMATERA UTARA;;Indonesia;;;;32.027.344;995.637.574;https://maps.google.com/?cid=0x0:0x4039d80b2211910;
perumahan;Otoritas Perumahan;Talawi Indah Permai;"Unnamed Road, Pahang, Kec. Talawi, Kabupaten Batu Bara, Sumatera Utara 21254";"Pahang, Kec. Talawi, Kabupaten Batu Bara";SUMATERA UTARA;21254;Indonesia;081263633403;;;31.759.667;995.640.507;https://maps.google.com/?cid=0x0:0xc485cf7696f61caf;
perumahan;Perumahan;Perumahan GRAND ASIA CITY;"6H6G+3W9, Labuhan Ruku, Kec. Talawi, Kabupaten Batu Bara, Sumatera Utara 21253";"Labuhan Ruku, Kec. Talawi, Kabupaten Batu Bara";SUMATERA UTARA;21253;Indonesia;;;;32.101.686;99.577.354;https://maps.google.com/?cid=0x0:0x8df3e3e155d4cc86;
perumahan;Pembangunan Perumahan;Perumahan Bunga Tanjung Lestari;"6H86+W92, Jl. Sungai Udang, Mesjid Lama, Kec. Talawi, Kabupaten Batu Bara, Sumatera Utara 21254";"Jl. Sungai Udang, Mesjid Lama, Kec. Talawi, Kabupaten Batu Bara";SUMATERA UTARA;21254;Indonesia;08116591001;;;32.172.622;995.608.775;https://maps.google.com/?cid=0x0:0x93ec00558a896daa;
perumahan;Kantor Perusahaan;Perumahan Batu Bara Great Land II;"6H5H+X6R, Labuhan Ruku, Kec. Talawi, Kabupaten Batu Bara, Sumatera Utara";"Kabupaten Batu Bara, Sumatera Utara";SUMATERA UTARA;;Indonesia;082172897679;;;32.099.761;995.780.031;https://maps.google.com/?cid=0x0:0x31c4d246a061d102;
perumahan;Pembangunan Perumahan;Rumah;"6H4G+M3, Labuhan Ruku, Kec. Talawi, Kabupaten Batu Bara, Sumatera Utara 21253";"Labuhan Ruku, Kec. Talawi, Kabupaten Batu Bara";SUMATERA UTARA;21253;Indonesia;;;;32.067.186;995.752.052;https://maps.google.com/?cid=0x0:0x2186439c33bd221e;
perumahan;Layanan administrasi properti;Perumahan Halimah Indah;"6H29+HGX, Labuhan Ruku, Kec. Talawi, Kabupaten Batu Bara, Sumatera Utara 21253";"Labuhan Ruku, Kec. Talawi, Kabupaten Batu Bara";SUMATERA UTARA;21253;Indonesia;;;;32.015.565;995.688.764;https://maps.google.com/?cid=0x0:0x2f67e020994ec936;
perumahan;Pembangunan Perumahan;Perumahan Genting Batubara Residence;"5GXV+VV2, Padang Genting, Kec. Talawi, Kabupaten Batu Bara, Sumatera Utara 21254";"Padang Genting, Kec. Talawi, Kabupaten Batu Bara";SUMATERA UTARA;21254;Indonesia;082360555652;;;31.996.333;995.446.378;https://maps.google.com/?cid=0x0:0xc22e3a82deb8bd08;
perumahan;Rumah wisata;Perumahan Griya Sultan Asri;"Kode Pos :, Jl. Kuala Teuku Umar Dusun VI, Pahang, Kec. Talawi, Kabupaten Batu Bara, Sumatera Utara 21254";"Jl. Kuala Teuku Umar Dusun VI, Pahang, Kec. Talawi, Kabupaten Batu Bara";SUMATERA UTARA;21254;Indonesia;082276681173;;;31.830.387;995.606.509;https://maps.google.com/?cid=0x0:0xf039364f916e1273;
perumahan;Pembangunan Perumahan;PERUM. QANITA;"6H4H+3CV, Labuhan Ruku, Kec. Talawi, Kabupaten Batu Bara, Sumatera Utara 21253";"Labuhan Ruku, Kec. Talawi, Kabupaten Batu Bara";SUMATERA UTARA;21253;Indonesia;;;;320.523;99.578.559;https://maps.google.com/?cid=0x0:0x1c54d17df432a590;
perumahan;Otoritas Perumahan;Perumahan Sirih Nazfa Indah II;"6H3C+X2R, Jl. Imam Bonjol, Labuhan Ruku, Kec. Talawi, Kabupaten Batu Bara, Sumatera Utara 21253";"Jl. Imam Bonjol, Labuhan Ruku, Kec. Talawi, Kabupaten Batu Bara";SUMATERA UTARA;21253;Indonesia;;;;32.049.849;995.700.165;https://maps.google.com/?cid=0x0:0x29b0b1a95035b0ef;
perumahan;Komplek perumahan;Rumah Sakinah;"6GPV+G9M, Dahari Selebar, Kec. Talawi, Kabupaten Batu Bara, Sumatera Utara";"Kabupaten Batu Bara, Sumatera Utara";SUMATERA UTARA;;Indonesia;;;;32.363.302;995.434.111;https://maps.google.com/?cid=0x0:0x766bdd1aa7c78453;
perumahan;Komplek perumahan;Nurlela safitri;"6H6C+4VP Dekat coffe@19, Jl. Imam Bonjol, Labuhan Ruku, Kec. Talawi, Kabupaten Batu Bara, Sumatera Utara 21253";"Jl. Imam Bonjol, Labuhan Ruku, Kec. Talawi, Kabupaten Batu Bara";SUMATERA UTARA;21253;Indonesia;;;;32.103.266;995.722.095;https://maps.google.com/?cid=0x0:0x77939edb7185012a;
perumahan;Pembangunan Perumahan;Pontianak;"Jl. Imam Bonjol, Labuhan Ruku, Kec. Talawi, Kabupaten Batu Bara, Sumatera Utara";"Kabupaten Batu Bara, Sumatera Utara";SUMATERA UTARA;;Indonesia;;;;32.092.732;995.711.555;https://maps.google.com/?cid=0x0:0x388101527c1b9164;
perumahan;Komplek perumahan;Rumah;"5HM5+6X9, Pahang, Kec. Talawi, Kabupaten Batu Bara, Sumatera Utara 21254";"Pahang, Kec. Talawi, Kabupaten Batu Bara";SUMATERA UTARA;21254;Indonesia;;;;31.829.907;995.600.264;https://maps.google.com/?cid=0x0:0xf4521eb66dbc1757;
perumahan;perumahan;RUMAH SALIM RAHMAN;"Jl. Imam Bonjol, Labuhan Ruku, Kec. Talawi, Kabupaten Batu Bara, Sumatera Utara";"Kabupaten Batu Bara, Sumatera Utara";SUMATERA UTARA;;Indonesia;;;;32.092.732;995.711.555;https://maps.google.com/?cid=0x0:0xa07f0103414e5da;
perumahan;Perhimpunan Pengembang Perumahan;Rumah Fitri;"5G62+24Q, Petatal, Kec. Talawi, Kabupaten Batu Bara, Sumatera Utara";"Kabupaten Batu Bara, Sumatera Utara";SUMATERA UTARA;;Indonesia;;;;31.600.904;995.003.595;https://maps.google.com/?cid=0x0:0xd4abe59f86222675;
perumahan;Komplek perumahan;Rumah;"Labuhan Ruku, Kec. Talawi, Kabupaten Batu Bara, Sumatera Utara";"Kabupaten Batu Bara, Sumatera Utara";SUMATERA UTARA;;Indonesia;;;;32.086.244;995.712.356;https://maps.google.com/?cid=0x0:0x7873d5cd4ad16d1;
perumahan;;kavlingan afif;"6G2V+42X, Padang Genting, Kec. Talawi, Kabupaten Batu Bara, Sumatera Utara";"Kabupaten Batu Bara, Sumatera Utara";SUMATERA UTARA;;Indonesia;;;;32.000.186;995.420.836;https://maps.google.com/?cid=0x0:0x48dc2fc5b7e2a2b2;
perumahan;Pembangunan Perumahan;Rumah Selamat Ariyadi;"6GRJ+GM6, Dahari Selebar, Kec. Talawi, Kabupaten Batu Bara, Sumatera Utara 21255";"Dahari Selebar, Kec. Talawi, Kabupaten Batu Bara";SUMATERA UTARA;21255;Indonesia;;;;32.412.875;995.316.406;https://maps.google.com/?cid=0x0:0x18e698dd8c4ad69c;
perumahan;Pembangunan Perumahan;Perumahan Gufran Habib 9;"4G9W+WR, Bangun Sari, Kec. Talawi, Kabupaten Batu Bara, Sumatera Utara 21254";"Bangun Sari, Kec. Talawi, Kabupaten Batu Bara";SUMATERA UTARA;21254;Indonesia;;;;311.979;995.470.083;https://maps.google.com/?cid=0x0:0xe3cb93c24e8031c5;
perumahan;perumahan;Rumah Ritonga;"4GHX+5RV, Binjei Baru, Kec. Talawi, Kabupaten Batu Bara, Sumatera Utara 21254";"Binjei Baru, Kec. Talawi, Kabupaten Batu Bara";SUMATERA UTARA;21254;Indonesia;;;;31.279.929;995.495.479;https://maps.google.com/?cid=0x0:0x60220f7a2edbe94;
perumahan;Pembangunan Perumahan;Ade Ariansyah;"6H26+3FC, Jl. Besar Simpang Tiga, Pahang, Kec. Talawi, Kabupaten Batu Bara, Sumatera Utara 21254";"Jl. Besar Simpang Tiga, Pahang, Kec. Talawi, Kabupaten Batu Bara";SUMATERA UTARA;21254;Indonesia;;;;32.001.849;995.611.263;https://maps.google.com/?cid=0x0:0x6f35b0c404e1d0b3;
perumahan;Pembangunan Perumahan;Kampung travel;"Jl. Imam Bonjol, Labuhan Ruku, Kec. Talawi, Kabupaten Batu Bara, Sumatera Utara";"Kabupaten Batu Bara, Sumatera Utara";SUMATERA UTARA;;Indonesia;08126389950;;;32.017.054;995.665.776;https://maps.google.com/?cid=0x0:0x99fbf970b4eed791;
perumahan;Komplek perumahan;Pandomayu;"5GGC+MV3, Panjang, Kec. Talawi, Kabupaten Batu Bara, Sumatera Utara 21255";"Panjang, Kec. Talawi, Kabupaten Batu Bara";SUMATERA UTARA;21255;Indonesia;;;;31.766.324;995.221.599;https://maps.google.com/?cid=0x0:0x70c68481d6f3da8a;
perumahan;perumahan;Sumatera Barat 27449;"Kabupaten Sijunjung, Sumatera Barat";"Kabupaten Sijunjung, Sumatera Barat";SUMATERA UTARA;;Indonesia;;;;-0.6419067;100.850.791;https://maps.google.com/?cid=0x0:0x3a04d1b03c932050;
perumahan;Komplek perumahan;Rumah KEVIN;"8VX4+X56, Muaro Bodi, Kec. IV Nagari, Kabupaten Sijunjung, Sumatera Barat 27449";"Muaro Bodi, Kec. IV Nagari, Kabupaten Sijunjung";SUMATERA UTARA;27449;Indonesia;;;;-0.6501736;1.008.555.714;https://maps.google.com/?cid=0x0:0x40a55a02cb16818f;
perumahan;Komplek perumahan;Lokuok city (rumah Saipul Ilham);"9V42+8G9, Jl. Padang Galomo Batu Gandang, Muaro Bodi, Kec. IV Nagari, Kabupaten Sijunjung, Sumatera Barat 27449";"Jl. Padang Galomo Batu Gandang, Muaro Bodi, Kec. IV Nagari, Kabupaten Sijunjung";SUMATERA UTARA;27449;Indonesia;;;;-0.6442155;1.008.513.521;https://maps.google.com/?cid=0x0:0x1f7aa61f8ee66a05;
perumahan;Komplek perumahan;Rumah koto palaluar;"9VF3+898, Padang Laweh, Kec. Koto VII, Kabupaten Sijunjung, Sumatera Barat";"Kabupaten Sijunjung, Sumatera Barat";SUMATERA UTARA;;Indonesia;;;;-0.6267155;1.008.534.461;https://maps.google.com/?cid=0x0:0x15a6450b2506282d;
perumahan;perumahan;Sumatera Utara 21253;"Tj. Tiram, Kec. Tj. Tiram, Kabupaten Batu Bara, Sumatera Utara";"Kabupaten Batu Bara, Sumatera Utara";SUMATERA UTARA;;Indonesia;;;;31.825.721;996.357.656;https://maps.google.com/?cid=0x0:0x71928f965e9439a7;
perumahan;Kantor Pemerintahan Kota;tanjung tiram kab. batu bara;"6J32+MH6, jl. istana desa, Lima Laras, Kec. Tj. Tiram, Kabupaten Batu Bara, Sumatera Utara 21253";"jl. istana desa, Lima Laras, Kec. Tj. Tiram, Kabupaten Batu Bara";SUMATERA UTARA;21253;Indonesia;;;;32.041.589;996.013.898;https://maps.google.com/?cid=0x0:0xca54a42ce6790d3a;
perumahan;;Rumah OK Tarimizie bin OK Mudjahidin;"5JMM+P2H, Jl. Ujung Kubu, Ujung Kubu, Kec. Tj. Tiram, Kabupaten Batu Bara, Sumatera Utara 21253";"Jl. Ujung Kubu, Ujung Kubu, Kec. Tj. Tiram, Kabupaten Batu Bara";SUMATERA UTARA;21253;Indonesia;;;;31.843.208;996.325.952;https://maps.google.com/?cid=0x0:0xa1e55d5c9acd6f81;
perumahan;Komplek perumahan;Kecamatan Nibung angus;"4MQM+3PJ, Pematang Rambai, Kec. Tj. Tiram, Kabupaten Batu Bara, Sumatera Utara 21253";"Pematang Rambai, Kec. Tj. Tiram, Kabupaten Batu Bara";SUMATERA UTARA;21253;Indonesia;;;;31.377.196;996.842.603;https://maps.google.com/?cid=0x0:0x73d0b7c4e9efa188;
perumahan;Komplek perumahan;Kambar City;"5JMM+H5V, Jl. Ujung Kubu, Ujung Kubu, Kec. Tj. Tiram, Kabupaten Batu Bara, Sumatera Utara 21253";"Jl. Ujung Kubu, Ujung Kubu, Kec. Tj. Tiram, Kabupaten Batu Bara";SUMATERA UTARA;21253;Indonesia;;;;31.839.784;996.329.344;https://maps.google.com/?cid=0x0:0x5d24635a7c9ed2ba;
perumahan;Perhimpunan Pengembang Perumahan;Aminah 1;"6J42+2CF, Lima Laras, Kec. Tj. Tiram, Kabupaten Batu Bara, Sumatera Utara 21253";"Lima Laras, Kec. Tj. Tiram, Kabupaten Batu Bara";SUMATERA UTARA;21253;Indonesia;;;;32.049.424;996.011.442;https://maps.google.com/?cid=0x0:0xfca95af13b40a32a;
perumahan;Pembangunan Perumahan;Kokoandrean;"4PH2+4HX, Pematang Rambai, Kec. Tj. Tiram, Kabupaten Batu Bara, Sumatera Utara 21253";"Pematang Rambai, Kec. Tj. Tiram, Kabupaten Batu Bara";SUMATERA UTARA;21253;Indonesia;;;;31.278.723;997.014.749;https://maps.google.com/?cid=0x0:0x76aaf14dced81819;
perumahan;Komplek perumahan;Muhammad Syafe'i;"5J8G+PP6, Tj. Mulia, Kec. Tj. Tiram, Kabupaten Batu Bara, Sumatera Utara 21253";"Tj. Mulia, Kec. Tj. Tiram, Kabupaten Batu Bara";SUMATERA UTARA;21253;Indonesia;081251862404;;;31.657.135;996.267.097;https://maps.google.com/?cid=0x0:0xc133f205e4323eb3;
perumahan;Komplek perumahan;Home Rikky Jait;"4JRX+MJ9, Sungai Mentaram, Kec. Tj. Tiram, Kabupaten Batu Bara, Sumatera Utara 21253";"Sungai Mentaram, Kec. Tj. Tiram, Kabupaten Batu Bara";SUMATERA UTARA;21253;Indonesia;;;;31.419.694;996.494.387;https://maps.google.com/?cid=0x0:0x646374fa6567662;
perumahan;Toko Suvenir;Rumah Kreatif GM Batu Bara;"5JHM+P92, Ujung Kubu, Kec. Tj. Tiram, Kabupaten Batu Bara, Sumatera Utara 21253";"Ujung Kubu, Kec. Tj. Tiram, Kabupaten Batu Bara";SUMATERA UTARA;21253;Indonesia;085270486711;;;31.792.502;996.333.974;https://maps.google.com/?cid=0x0:0xce8206ee80627495;
perumahan;Kantor Perusahaan;Perumahan Batu Bara Great Land II;"6H5H+X6R, Labuhan Ruku, Kec. Talawi, Kabupaten Batu Bara, Sumatera Utara";"Kabupaten Batu Bara, Sumatera Utara";SUMATERA UTARA;;Indonesia;082172897679;;;32.099.761;995.780.031;https://maps.google.com/?cid=0x0:0x31c4d246a061d102;
perumahan;Pembangunan Perumahan;Rumah keluarga H.Anas Tanjung;"Jl. Pasar rabok No.20, desa pahlawan, Kec. Tj. Tiram, Kabupaten Batu Bara, Sumatera Utara";"Kabupaten Batu Bara, Sumatera Utara";SUMATERA UTARA;;Indonesia;;;;32.237.533;9.957.783;https://maps.google.com/?cid=0x0:0xa04d4a3ad502a1d7;
perumahan;Pembangunan Perumahan;Gg. Selamat desa suka jaya;"6H9Q+VC7, Bagan Dalam, Kec. Tj. Tiram, Kabupaten Batu Bara, Sumatera Utara";"Kabupaten Batu Bara, Sumatera Utara";SUMATERA UTARA;;Indonesia;;;;321.965;995.885.333;https://maps.google.com/?cid=0x0:0xfbe5dad07a26b302;
perumahan;Pembangunan Perumahan;Gang sidin prog;"6HFH+XJF, Bogak, Kec. Tj. Tiram, Kabupaten Batu Bara, Sumatera Utara";"Kabupaten Batu Bara, Sumatera Utara";SUMATERA UTARA;;Indonesia;;;;32.248.867;995.790.619;https://maps.google.com/?cid=0x0:0x1efdf91935e9a5cd;
perumahan;Pembangunan Perumahan;Rumah iwanda Saputra;"5MHF+MC5, Bagan Baru, Kec. Tj. Tiram, Kabupaten Batu Bara, Sumatera Utara";"Kabupaten Batu Bara, Sumatera Utara";SUMATERA UTARA;;Indonesia;;;;31.791.254;996.736.104;https://maps.google.com/?cid=0x0:0xdb2424c5e47a9d4b;
perumahan;Rumah Pondokan;Yamin hazman;"5JJP+9WG, Ujung Kubu, Kec. Tj. Tiram, Kabupaten Batu Bara, Sumatera Utara 21253";"Ujung Kubu, Kec. Tj. Tiram, Kabupaten Batu Bara";SUMATERA UTARA;21253;Indonesia;081386911115;;;31.809.317;996.373.165;https://maps.google.com/?cid=0x0:0x7c8d4d356046394d;
perumahan;Pusat Bisnis;Rumah Roti Fatimah Az Zahra;"5JPJ+CRX, Ujung Kubu, Kec. Tj. Tiram, Kabupaten Batu Bara, Sumatera Utara 21253";"Ujung Kubu, Kec. Tj. Tiram, Kabupaten Batu Bara";SUMATERA UTARA;21253;Indonesia;;;;31.861.162;996.321.218;https://maps.google.com/?cid=0x0:0xe6cf3693e1ceafda;
perumahan;Komplek perumahan;Sect Flower (Soul Hall);"6HCP+32P, Tj. Tiram, Kec. Tj. Tiram, Kabupaten Batu Bara, Sumatera Utara";"Kabupaten Batu Bara, Sumatera Utara";SUMATERA UTARA;;Indonesia;;;;32.202.059;995.850.661;https://maps.google.com/?cid=0x0:0xabe52a2440897410;
perumahan;Pembangunan Perumahan;Gang sakinah;"6H9J+6X5, Jl. Jogja, Suka Maju, Kec. Tj. Tiram, Kabupaten Batu Bara, Sumatera Utara";"Kabupaten Batu Bara, Sumatera Utara";SUMATERA UTARA;;Indonesia;;;;32.179.323;995.825.109;https://maps.google.com/?cid=0x0:0x817b6de70f34b3ca;
perumahan;Pembangunan Perumahan;Dusun 3;"6HGJ+WVJ, Bogak, Kec. Tj. Tiram, Kabupaten Batu Bara, Sumatera Utara";"Kabupaten Batu Bara, Sumatera Utara";SUMATERA UTARA;;Indonesia;;;;32.273.485;995.821.411;https://maps.google.com/?cid=0x0:0x40c218b949743676;
perumahan;Pusat Kegiatan Warga;Simpang;"5JFR+R8R, Ujung Kubu, Kec. Tj. Tiram, Kabupaten Batu Bara, Sumatera Utara 21253";"Ujung Kubu, Kec. Tj. Tiram, Kabupaten Batu Bara";SUMATERA UTARA;21253;Indonesia;;;;31.745.952;996.407.715;https://maps.google.com/?cid=0x0:0xd27a8167f4a97213;
perumahan;Perhimpunan Pengembang Perumahan;Deaauliarahmi;"5H8X+QP, Tj. Mulia, Kec. Tj. Tiram, Kabupaten Batu Bara, Sumatera Utara";"Kabupaten Batu Bara, Sumatera Utara";SUMATERA UTARA;;Indonesia;;;;3.166.914;99.599.316;https://maps.google.com/?cid=0x0:0xa34165664d821933;
perumahan;Komplek perumahan;Fahrunnisa;"6H9M+RH5, Jl. Solo, Suka Maju, Kec. Tj. Tiram, Kabupaten Batu Bara, Sumatera Utara";"Kabupaten Batu Bara, Sumatera Utara";SUMATERA UTARA;;Indonesia;;;;321.952;995.839.967;https://maps.google.com/?cid=0x0:0x3225851a605daeae;
perumahan;Pembangunan Perumahan;Iyan ikan gabus;"5JJQ+V6H, Ujung Kubu, Kec. Tj. Tiram, Kabupaten Batu Bara, Sumatera Utara 21253";"Ujung Kubu, Kec. Tj. Tiram, Kabupaten Batu Bara";SUMATERA UTARA;21253;Indonesia;;;;3.182.562;996.374.925;https://maps.google.com/?cid=0x0:0x9d9c336c14c95688;
perumahan;Perhimpunan Pengembang Perumahan;Ujung kubu pajak onan;"5JMQ+V7F, Ujung Kubu, Kec. Tj. Tiram, Kabupaten Batu Bara, Sumatera Utara";"Kabupaten Batu Bara, Sumatera Utara";SUMATERA UTARA;;Indonesia;085276112005;;;31.846.953;99.638.172;https://maps.google.com/?cid=0x0:0xcd77f4c80c80c2;
perumahan;Komplek perumahan;kedai kecil terminal;"6H8J+5FQ kedai kecil, Suka Maju, Kec. Tj. Tiram, Kabupaten Batu Bara, Sumatera Utara 21253";"Suka Maju, Kec. Tj. Tiram, Kabupaten Batu Bara";SUMATERA UTARA;21253;Indonesia;;;;32.154.684;995.812.295;https://maps.google.com/?cid=0x0:0x9124f32850d118be;
perumahan;Perumahan;Perumahan GRAND ASIA CITY;"6H6G+3W9, Labuhan Ruku, Kec. Talawi, Kabupaten Batu Bara, Sumatera Utara 21253";"Labuhan Ruku, Kec. Talawi, Kabupaten Batu Bara";SUMATERA UTARA;21253;Indonesia;;;;32.101.686;99.577.354;https://maps.google.com/?cid=0x0:0x8df3e3e155d4cc86;
perumahan;Komplek perumahan;Dusun IX;"6H8R+295, Suka Jaya, Kec. Tj. Tiram, Kabupaten Batu Bara, Sumatera Utara";"Kabupaten Batu Bara, Sumatera Utara";SUMATERA UTARA;;Indonesia;;;;32.150.212;99.590.985;https://maps.google.com/?cid=0x0:0xe548c6f9dcc9de19;
perumahan;Otoritas Perumahan;Perumahan Sirih Nazfa Indah II;"6H3C+X2R, Jl. Imam Bonjol, Labuhan Ruku, Kec. Talawi, Kabupaten Batu Bara, Sumatera Utara 21253";"Jl. Imam Bonjol, Labuhan Ruku, Kec. Talawi, Kabupaten Batu Bara";SUMATERA UTARA;21253;Indonesia;;;;32.049.849;995.700.165;https://maps.google.com/?cid=0x0:0x29b0b1a95035b0ef;
