Category;Real Category;Business Name;Address;City;State;Postal Code;Country;Phone;Email;Website;Latitude;Longitude;Map Link;Details Link
"hotel";"hotel";"Kec. Bakti Raja";"Kabupaten Humbang Hasundutan, Sumatera Utara";"Kabupaten Humbang Hasundutan, Sumatera Utara";"SUMATERA UTARA";"";"Indonesia";"";"";"";"2.3235404";"98.8207391";"https://maps.google.com/?cid=0x0:0x475a50a12c00c787";""
"hotel";"hotel";"Senior Bakara Hotel";"Jl. Muara, Kabupaten Humbang Hasundutan, Sumatera Utara 22457";"Kabupaten Humbang Hasundutan";"SUMATERA UTARA";"22457";"Indonesia";" 081362268286";"";"";"2.3186427";"98.8351544";"https://maps.google.com/?cid=0x0:0x998c075598393f34";""
"hotel";"hotel";"N/A";"";"";"SUMATERA UTARA";"";"Indonesia";"";"";"";"";"";"https://maps.google.com/?cid=0x0:0x998c075598393f34%7C/g/11jjqhgk78%7Cen-ID";""
"hotel";"hotel";"N/A";"";"";"SUMATERA UTARA";"";"Indonesia";"";"";"";"";"";"https://maps.google.com/?cid=0x0:0xbc95c1f2fbec6208%7C/g/11hdwqhsqk%7Cen-ID";""
"hotel";"hotel";"Martin Anugrah Hotel  Restaurant";"Jalan Raya Bakkara Sosorgonting, Pasaribu, Dolok sanggul, Humbang Hasundutan Regency, North Sumatra 22457";"Pasaribu, Dolok sanggul, Humbang Hasundutan Regency";"SUMATERA UTARA";"22457";"Indonesia";" 08116261820";"";"";"2.2727265";"98.7656981";"https://maps.google.com/?cid=0x0:0x3917ea7963e729d8";""
"hotel";"hotel";"Hotel Wisma Mangurna";"Sumatera, Utara, Bonani Onan, Kec. Dolok sanggul, Kabupaten Humbang Hasundutan, Sumatera Utara 22457";"Utara, Bonani Onan, Kec. Dolok sanggul, Kabupaten Humbang Hasundutan";"SUMATERA UTARA";"22457";"Indonesia";" 085361594583";"";"";"2.2696231";"98.7460622";"https://maps.google.com/?cid=0x0:0x227c03897cf2dfbf";""
"hotel";"hotel";"Porlak Hebron (Homestay)";"Jl. Silangit, Silando, Kec. Muara, Kabupaten Tapanuli Utara, Sumatera Utara 22312";"Silando, Kec. Muara, Kabupaten Tapanuli Utara";"SUMATERA UTARA";"22312";"Indonesia";" 085770000167";"";"";"2.2659238";"99.002192";"https://maps.google.com/?cid=0x0:0x559f1b5f92cb0c72";""
"hotel";"hotel";"LOPO Hotel  Resort";"Jl. Horas No.1, Tomok, Simanindo, Kabupaten Samosir, Sumatera Utara 22395";"Tomok, Simanindo, Kabupaten Samosir";"SUMATERA UTARA";"22395";"Indonesia";" 085186062243";"";"";"2.6490273";"98.8662984";"https://maps.google.com/?cid=0x0:0x44f525d921768032";""
"hotel";"hotel";"Abe Hotel Convention  Tonggi Coffee (Hotel 3 Star)";"Jl. Sadar No.KM 1, RW.5, Lobu Siregar II, Kec. Siborongborong, Kabupaten Tapanuli Utara, Sumatera Utara 22474";"RW.5, Lobu Siregar II, Kec. Siborongborong, Kabupaten Tapanuli Utara";"SUMATERA UTARA";"22474";"Indonesia";" 081255667797";"";"";"2.2136835";"98.9950418";"https://maps.google.com/?cid=0x0:0xb5e6d7cb0e86fc7b";""
"hotel";"hotel";"HOTEL  RESTO WATER BOOM ANUGERAH SOAMBATON";"Jl. Muara, Sumatera Utara 22457";"Sumatera Utara";"SUMATERA UTARA";"";"Indonesia";" 082211503439";"";"";"2.319319";"98.8387039";"https://maps.google.com/?cid=0x0:0xc2f685008525fbfb";""
"hotel";"hotel";"Queen Parrona Hotel by Sativa";"Jl. Sisingamangaraja No.254, Siborong Borong I, Kec. Siborongborong, Kabupaten Tapanuli Utara, Sumatera Utara 22474";"Siborong Borong I, Kec. Siborongborong, Kabupaten Tapanuli Utara";"SUMATERA UTARA";"22474";"Indonesia";" 085270087244";"";"";"2.2095547";"98.9707206";"https://maps.google.com/?cid=0x0:0x55b55f211dbb4fc2";""
"hotel";"hotel";"Noah Hotel Silangit";"Jl. Balige- Tarutung Jl. Silangit No.77, Silando, Kec. Siborongborong, Kabupaten Tapanuli Utara, Sumatera Utara 22474";"Silando, Kec. Siborongborong, Kabupaten Tapanuli Utara";"SUMATERA UTARA";"22474";"Indonesia";" 085147341477";"";"";"2.2677737";"99.0020735";"https://maps.google.com/?cid=0x0:0x46b5cd9003407cdb";""
"hotel";"hotel";"Roma anugrah hotel";"Jalan Balige No.Km.1, Ps. Siborong-Borong, Kec. Siborongborong, Kabupaten Tapanuli Utara, Sumatera Utara 22474";"Ps. Siborong-Borong, Kec. Siborongborong, Kabupaten Tapanuli Utara";"SUMATERA UTARA";"22474";"Indonesia";" 0895417300072";"";"";"2.222216";"98.9830039";"https://maps.google.com/?cid=0x0:0x6f2919c318e2df56";""
"hotel";"hotel";"Sopo Almonsari";"Jl. S.M.Simanjuntak No.Desa, Tangga Batu Bar., Kec. Tampahan, Toba, Sumatera Utara 22312";"Tangga Batu Bar., Kec. Tampahan, Toba";"SUMATERA UTARA";"22312";"Indonesia";" 081212124341";"";"";"2.2872982";"99.008317";"https://maps.google.com/?cid=0x0:0xe2938ee973b966a3";""
"hotel";"hotel";"Ditha homestay  coffee shop";"Jalan tugu No.44, Ps. Siborong-Borong, Kec. Siborongborong, Kabupaten Tapanuli Utara, Sumatera Utara 22474";"Ps. Siborong-Borong, Kec. Siborongborong, Kabupaten Tapanuli Utara";"SUMATERA UTARA";"22474";"Indonesia";" 085270090714";"";"";"2.2158773";"98.9737299";"https://maps.google.com/?cid=0x0:0xd683f2fc4e21906f";""
"hotel";"hotel";"Pea Nature";"Paniaran, Kec. Siborongborong, Kabupaten Tapanuli Utara, Sumatera Utara 22474";"Kec. Siborongborong, Kabupaten Tapanuli Utara";"SUMATERA UTARA";"22474";"Indonesia";" 081360924401";"";"";"2.1814127";"98.9833666";"https://maps.google.com/?cid=0x0:0xbd5789f899f2489d";""
"hotel";"hotel";"Grand Maju Hotel";"Jl. Merdeka Ujung, Pasaribu, Kec. Dolok sanggul, Kabupaten Humbang Hasundutan, Sumatera Utara 22457";"Pasaribu, Kec. Dolok sanggul, Kabupaten Humbang Hasundutan";"SUMATERA UTARA";"22457";"Indonesia";" 081312348857";"";"";"2.2644338";"98.761866";"https://maps.google.com/?cid=0x0:0xf4e505db7e6d03b9";""
"hotel";"hotel";"Mantha Homestay";"Jl. Sisingamangaraja Jl. Lintas Sumatera No.Depan, Pusat Kota, Kec. Siborongborong, Kabupaten Tapanuli Utara, Sumatera Utara 22474";"Pusat Kota, Kec. Siborongborong, Kabupaten Tapanuli Utara";"SUMATERA UTARA";"22474";"Indonesia";" 082312969900";"";"";"2.212091";"98.9724444";"https://maps.google.com/?cid=0x0:0x4331a18d8e79a0b7";""
"hotel";"hotel";"RedDoorz @ Aldos Villa Silangit";"Jl. Bandara Silangit, Silando, Kec. Siborongborong, Kabupaten Tapanuli Utara, Sumatera Utara 22474";"Silando, Kec. Siborongborong, Kabupaten Tapanuli Utara";"SUMATERA UTARA";"22474";"Indonesia";" 0895417300072";"";"";"2.2646527";"98.9866884";"https://maps.google.com/?cid=0x0:0x79e921bce64526aa";""
"hotel";"hotel";"OYO 540 Esther Hotel";"Jl. Siborongborong - Parapat No.75, Silando, Kec. Muara, Kabupaten Tapanuli Utara, Sumatera Utara 22312";"Silando, Kec. Muara, Kabupaten Tapanuli Utara";"SUMATERA UTARA";"22312";"Indonesia";" 02129707601";"";"";"2.2676089";"99.0021598";"https://maps.google.com/?cid=0x0:0xc65b99466de09bae";""
"hotel";"hotel";"CIKOM HOTEL CAFE  RESTO";"Jl Tarutung No.KM 1.5, SITABO-TABO, Kec. Siborongborong, Kabupaten Tapanuli Utara, Sumatera Utara 22474";"SITABO-TABO, Kec. Siborongborong, Kabupaten Tapanuli Utara";"SUMATERA UTARA";"22474";"Indonesia";" 082164768438";"";"";"2.1957346";"98.9693955";"https://maps.google.com/?cid=0x0:0x60143478a15d0546";""
"hotel";"hotel";"N/A";"";"";"SUMATERA UTARA";"";"Indonesia";"";"";"";"";"";"https://maps.google.com/?cid=0x0:0xc65b99466de09bae%7C/g/11fk00tbv2%7Cen-ID";""
"hotel";"hotel";"Esther Hotel";"Jl. Raya Balige Jl. Silangit No.75, Silando, Kec. Muara, Kabupaten Tapanuli Utara, Sumatera Utara 22312";"Silando, Kec. Muara, Kabupaten Tapanuli Utara";"SUMATERA UTARA";"22312";"Indonesia";" 081310129007";"";"";"2.2670062";"99.0017582";"https://maps.google.com/?cid=0x0:0x44f0094672617777";""
"hotel";"hotel";"Arirang27 Homestay";"Jl. Bandara Silangit No.27 Pintu 2, Parik Sabungan, Kec. Siborongborong, Kabupaten Tapanuli Utara, Sumatera Utara 22476";"Parik Sabungan, Kec. Siborongborong, Kabupaten Tapanuli Utara";"SUMATERA UTARA";"22476";"Indonesia";" 085156500885";"";"";"2.2633199";"98.9892556";"https://maps.google.com/?cid=0x0:0xc6f6c3e89459349f";""
"hotel";"hotel";"Dolok Sanggul";"Lumban Tobing, Kec. Dolok sanggul, Kabupaten Humbang Hasundutan, Sumatera Utara";"Kabupaten Humbang Hasundutan, Sumatera Utara";"SUMATERA UTARA";"";"Indonesia";"";"";"";"2.251991";"98.7485729";"https://maps.google.com/?cid=0x0:0x7f53fc623c00d824";""
"hotel";"hotel";"Coffee Hotel Ayola Dolok Sanggul";"Jl. Dolok Sanggul - Siborong - Borong, Pakkat, Kec. Dolok sanggul, Kabupaten Humbang Hasundutan, Sumatera Utara 22457";"Pakkat, Kec. Dolok sanggul, Kabupaten Humbang Hasundutan";"SUMATERA UTARA";"22457";"Indonesia";" 06333211396";"";"";"2.2608434";"98.7903237";"https://maps.google.com/?cid=0x0:0xbc95c1f2fbec6208";""
"hotel";"hotel";"N/A";"";"";"SUMATERA UTARA";"";"Indonesia";"";"";"";"";"";"https://maps.google.com/?cid=0x0:0xbc95c1f2fbec6208%7C/g/11hdwqhsqk%7Cen-ID";""
"hotel";"hotel";"Hotel Wisma Mangurna";"Sumatera, Utara, Bonani Onan, Kec. Dolok sanggul, Kabupaten Humbang Hasundutan, Sumatera Utara 22457";"Utara, Bonani Onan, Kec. Dolok sanggul, Kabupaten Humbang Hasundutan";"SUMATERA UTARA";"22457";"Indonesia";" 085361594583";"";"";"2.2696231";"98.7460622";"https://maps.google.com/?cid=0x0:0x227c03897cf2dfbf";""
"hotel";"hotel";"Senior Bakara Hotel";"Jl. Muara, Kabupaten Humbang Hasundutan, Sumatera Utara 22457";"Kabupaten Humbang Hasundutan";"SUMATERA UTARA";"22457";"Indonesia";" 081362268286";"";"";"2.3186427";"98.8351544";"https://maps.google.com/?cid=0x0:0x998c075598393f34";""
"hotel";"hotel";"N/A";"";"";"SUMATERA UTARA";"";"Indonesia";"";"";"";"";"";"https://maps.google.com/?cid=0x0:0x998c075598393f34%7C/g/11jjqhgk78%7Cen-ID";""
"hotel";"hotel";"Labersa Hotel  Convention Center Samosir";"Simarmata, Simanindo, Kabupaten Samosir, Sumatera Utara 22395";"Simanindo, Kabupaten Samosir";"SUMATERA UTARA";"22395";"Indonesia";" 08116063555";"";"";"2.7416459";"98.7095258";"https://maps.google.com/?cid=0x0:0x6fd34e6bdf43b7af";""
"hotel";"hotel";"LOPO Hotel  Resort";"Jl. Horas No.1, Tomok, Simanindo, Kabupaten Samosir, Sumatera Utara 22395";"Tomok, Simanindo, Kabupaten Samosir";"SUMATERA UTARA";"22395";"Indonesia";" 085186062243";"";"";"2.6490273";"98.8662984";"https://maps.google.com/?cid=0x0:0x44f525d921768032";""
"hotel";"hotel";"Grand Maju Hotel";"Jl. Merdeka Ujung, Pasaribu, Kec. Dolok sanggul, Kabupaten Humbang Hasundutan, Sumatera Utara 22457";"Pasaribu, Kec. Dolok sanggul, Kabupaten Humbang Hasundutan";"SUMATERA UTARA";"22457";"Indonesia";" 081312348857";"";"";"2.2644338";"98.761866";"https://maps.google.com/?cid=0x0:0xf4e505db7e6d03b9";""
"hotel";"hotel";"Kanasha Hotel Islami";"Jl. Dolok Sanggul No.8, Mesjid, Kec. Medan Kota, Kota Medan, Sumatera Utara 20213";"Mesjid, Kec. Medan Kota, Kota Medan";"SUMATERA UTARA";"20213";"Indonesia";" 0617367932";"";"";"3.5786164";"98.68543";"https://maps.google.com/?cid=0x0:0xa9aab1c08a01b6fd";""
"hotel";"hotel";"N/A";"";"";"SUMATERA UTARA";"";"Indonesia";"";"";"";"";"";"https://maps.google.com/?cid=0x0:0xa9aab1c08a01b6fd%7C/g/11bzt2hdp8%7Cen-ID";""
"hotel";"hotel";"Hotel Martabe";"Jl. Pemuda Jl. Dolok Sanggul - Sidikalang, Bonani Onan, Kec. Dolok sanggul, Kabupaten Humbang Hasundutan, Sumatera Utara 22457";"Bonani Onan, Kec. Dolok sanggul, Kabupaten Humbang Hasundutan";"SUMATERA UTARA";"22457";"Indonesia";" 081397058559";"";"";"2.258287";"98.747028";"https://maps.google.com/?cid=0x0:0xfba3690db4b336f6";""
"hotel";"hotel";"Nowly Hotel";"Pasaribu, Kec. Dolok sanggul, Kabupaten Humbang Hasundutan, Sumatera Utara 22457";"Kec. Dolok sanggul, Kabupaten Humbang Hasundutan";"SUMATERA UTARA";"22457";"Indonesia";" 085360499000";"";"";"2.2637692";"98.7605064";"https://maps.google.com/?cid=0x0:0x79b5409932026468";""
"hotel";"hotel";"Sopo Almonsari";"Jl. S.M.Simanjuntak No.Desa, Tangga Batu Bar., Kec. Tampahan, Toba, Sumatera Utara 22312";"Tangga Batu Bar., Kec. Tampahan, Toba";"SUMATERA UTARA";"22312";"Indonesia";" 081212124341";"";"";"2.2872982";"99.008317";"https://maps.google.com/?cid=0x0:0xe2938ee973b966a3";""
"hotel";"hotel";"Hotel Palapa";"Jalan Mayjen Di Panjaitan No.103, Hutatoruan V, Tarutung, Hutatoruan VI, Kec. Tarutung, Kabupaten Tapanuli Utara, Sumatera Utara 22412";"Hutatoruan V, Tarutung, Hutatoruan VI, Kec. Tarutung, Kabupaten Tapanuli Utara";"SUMATERA UTARA";"22412";"Indonesia";" 063321845";"";"";"2.021938";"98.9660655";"https://maps.google.com/?cid=0x0:0xf280b578dc9400d6";""
"hotel";"hotel";"New HORAS Hotel";"Jl. Sisingamangaraja No.17, Ps. Dolok Sanggul, Kec. Dolok sanggul, Kabupaten Humbang Hasundutan, Sumatera Utara 22457";"Ps. Dolok Sanggul, Kec. Dolok sanggul, Kabupaten Humbang Hasundutan";"SUMATERA UTARA";"22457";"Indonesia";" 08118002517";"";"";"2.2583242";"98.7477095";"https://maps.google.com/?cid=0x0:0xe085ca4e1ae1533c";""
"hotel";"hotel";"CIKOM HOTEL CAFE  RESTO";"Jl Tarutung No.KM 1.5, SITABO-TABO, Kec. Siborongborong, Kabupaten Tapanuli Utara, Sumatera Utara 22474";"SITABO-TABO, Kec. Siborongborong, Kabupaten Tapanuli Utara";"SUMATERA UTARA";"22474";"Indonesia";" 082164768438";"";"";"2.1957346";"98.9693955";"https://maps.google.com/?cid=0x0:0x60143478a15d0546";""
"hotel";"hotel";"OYO 91223 Mutiara Guest House";"Sirisiri, Jl. Lintas Dolok Sanggul No.269, Kec. Dolok sanggul, Kabupaten Tapanuli Utara, Sumatera Utara 22457";"Jl. Lintas Dolok Sanggul No.269, Kec. Dolok sanggul, Kabupaten Tapanuli Utara";"SUMATERA UTARA";"22457";"Indonesia";" 02129707601";"";"";"2.2761908";"98.7445511";"https://maps.google.com/?cid=0x0:0x88a8f4d573e5af8d";""
"hotel";"hotel";"N/A";"";"";"SUMATERA UTARA";"";"Indonesia";"";"";"";"";"";"https://maps.google.com/?cid=0x0:0xabb98d75781aff78%7C/g/11b6nrb67w%7Cen-ID";""
"hotel";"hotel";"Hotel Sere Nauli";"Jl. Sisingamangaraja No.1, Ps. Laguboti, Kec. Laguboti, Toba, Sumatera Utara 22381";"Ps. Laguboti, Kec. Laguboti, Toba";"SUMATERA UTARA";"22381";"Indonesia";" 0632331003";"";"";"2.3528556";"99.1217736";"https://maps.google.com/?cid=0x0:0xabb98d75781aff78";""
"hotel";"hotel";"Toba Sunset";"Tuktuk Siadong, Simanindo, Kabupaten Samosir, Sumatera Utara";"Kabupaten Samosir, Sumatera Utara";"SUMATERA UTARA";"";"Indonesia";" 081262304284";"";"";"2.672788";"98.8513017";"https://maps.google.com/?cid=0x0:0x21df695475a08999";""
"hotel";"hotel";"Dhaksina Hotel";"Jl. Sisingamangaraja No.20, RT.02/RW.02, Mesjid, Kec. Medan Kota, Kota Medan, Sumatera Utara 20213";"RT.02/RW.02, Mesjid, Kec. Medan Kota, Kota Medan";"SUMATERA UTARA";"20213";"Indonesia";" 0617320000";"";"";"3.5781335";"98.6864112";"https://maps.google.com/?cid=0x0:0x19d68a5c7ad5c8ea";""
"hotel";"hotel";"N/A";"";"";"SUMATERA UTARA";"";"Indonesia";"";"";"";"";"";"https://maps.google.com/?cid=0x0:0x19d68a5c7ad5c8ea%7C/g/1tf91hx5%7Cen-ID";""
"hotel";"hotel";"Hotel Dizomn";"Jl. D.I Panjaitan No.19, Napitupulu Bagasan, Kec. Balige, Toba, Sumatera Utara 22312";"Napitupulu Bagasan, Kec. Balige, Toba";"SUMATERA UTARA";"22312";"Indonesia";"";"";"";"2.3364256";"99.0640091";"https://maps.google.com/?cid=0x0:0xea5e07b166723fce";""
"hotel";"hotel";"Chantika Hotel Balige";"Sibola Hotangsas, Kec. Balige, Toba, Sumatera Utara 22312";"Kec. Balige, Toba";"SUMATERA UTARA";"22312";"Indonesia";" 081396565840";"";"";"2.3435246";"99.0788078";"https://maps.google.com/?cid=0x0:0xb026dc612f64ea18";""
"hotel";"hotel";"Hotel Sumatera Balige";"Jl. Mulia Raja No.54, Kec. Balige, Toba, Sumatera Utara 22312";"Kec. Balige, Toba";"SUMATERA UTARA";"22312";"Indonesia";" 08126456445";"";"";"2.3362856";"99.0632476";"https://maps.google.com/?cid=0x0:0x37c7c583a01e4d04";""
"hotel";"hotel";"Collection O 93707 Rooms By U";"00, Semangat Gunung, Karo Regency, North Sumatra 22156";"Semangat Gunung, Karo Regency";"SUMATERA UTARA";"22156";"Indonesia";" 0817788016";"";"";"3.224389";"98.508166";"https://maps.google.com/?cid=0x0:0x4383152bb48f87a0";""
"hotel";"hotel";"Ditha homestay  coffee shop";"Jalan tugu No.44, Ps. Siborong-Borong, Kec. Siborongborong, Kabupaten Tapanuli Utara, Sumatera Utara 22474";"Ps. Siborong-Borong, Kec. Siborongborong, Kabupaten Tapanuli Utara";"SUMATERA UTARA";"22474";"Indonesia";" 085270090714";"";"";"2.2158773";"98.9737299";"https://maps.google.com/?cid=0x0:0xd683f2fc4e21906f";""
"hotel";"hotel";"Sumatera Utara 22475";"Sumatera Utara";"Sumatera Utara";"SUMATERA UTARA";"";"Indonesia";"";"";"";"2.2166172";"98.8583309";"https://maps.google.com/?cid=0x0:0x3a0c9f067ea87dcb";""
"hotel";"hotel";"Coffee Hotel Ayola Dolok Sanggul";"Jl. Dolok Sanggul - Siborong - Borong, Pakkat, Kec. Dolok sanggul, Kabupaten Humbang Hasundutan, Sumatera Utara 22457";"Pakkat, Kec. Dolok sanggul, Kabupaten Humbang Hasundutan";"SUMATERA UTARA";"22457";"Indonesia";" 06333211396";"";"";"2.2608434";"98.7903237";"https://maps.google.com/?cid=0x0:0xbc95c1f2fbec6208";""
"hotel";"hotel";"N/A";"";"";"SUMATERA UTARA";"";"Indonesia";"";"";"";"";"";"https://maps.google.com/?cid=0x0:0xbc95c1f2fbec6208%7C/g/11hdwqhsqk%7Cen-ID";""
"hotel";"hotel";"Queen Parrona Hotel by Sativa";"Jl. Sisingamangaraja No.254, Siborong Borong I, Kec. Siborongborong, Kabupaten Tapanuli Utara, Sumatera Utara 22474";"Siborong Borong I, Kec. Siborongborong, Kabupaten Tapanuli Utara";"SUMATERA UTARA";"22474";"Indonesia";" 085270087244";"";"";"2.2095547";"98.9707206";"https://maps.google.com/?cid=0x0:0x55b55f211dbb4fc2";""
"hotel";"hotel";"N/A";"";"";"SUMATERA UTARA";"";"Indonesia";"";"";"";"";"";"https://maps.google.com/?cid=0x0:0x998c075598393f34%7C/g/11jjqhgk78%7Cen-ID";""
"hotel";"hotel";"Martin Anugrah Hotel  Restaurant";"Jalan Raya Bakkara Sosorgonting, Pasaribu, Dolok sanggul, Humbang Hasundutan Regency, North Sumatra 22457";"Pasaribu, Dolok sanggul, Humbang Hasundutan Regency";"SUMATERA UTARA";"22457";"Indonesia";" 08116261820";"";"";"2.2727265";"98.7656981";"https://maps.google.com/?cid=0x0:0x3917ea7963e729d8";""
"hotel";"hotel";"Hotel Wisma Mangurna";"Sumatera, Utara, Bonani Onan, Kec. Dolok sanggul, Kabupaten Humbang Hasundutan, Sumatera Utara 22457";"Utara, Bonani Onan, Kec. Dolok sanggul, Kabupaten Humbang Hasundutan";"SUMATERA UTARA";"22457";"Indonesia";" 085361594583";"";"";"2.2696231";"98.7460622";"https://maps.google.com/?cid=0x0:0x227c03897cf2dfbf";""
"hotel";"hotel";"Abe Hotel Convention  Tonggi Coffee (Hotel 3 Star)";"Jl. Sadar No.KM 1, RW.5, Lobu Siregar II, Kec. Siborongborong, Kabupaten Tapanuli Utara, Sumatera Utara 22474";"RW.5, Lobu Siregar II, Kec. Siborongborong, Kabupaten Tapanuli Utara";"SUMATERA UTARA";"22474";"Indonesia";" 081255667797";"";"";"2.2136835";"98.9950418";"https://maps.google.com/?cid=0x0:0xb5e6d7cb0e86fc7b";""
"hotel";"hotel";"Ditha homestay  coffee shop";"Jalan tugu No.44, Ps. Siborong-Borong, Kec. Siborongborong, Kabupaten Tapanuli Utara, Sumatera Utara 22474";"Ps. Siborong-Borong, Kec. Siborongborong, Kabupaten Tapanuli Utara";"SUMATERA UTARA";"22474";"Indonesia";" 085270090714";"";"";"2.2158773";"98.9737299";"https://maps.google.com/?cid=0x0:0xd683f2fc4e21906f";""
"hotel";"hotel";"Porlak Hebron (Homestay)";"Jl. Silangit, Silando, Kec. Muara, Kabupaten Tapanuli Utara, Sumatera Utara 22312";"Silando, Kec. Muara, Kabupaten Tapanuli Utara";"SUMATERA UTARA";"22312";"Indonesia";" 085770000167";"";"";"2.2659238";"99.002192";"https://maps.google.com/?cid=0x0:0x559f1b5f92cb0c72";""
"hotel";"hotel";"Roma anugrah hotel";"Jalan Balige No.Km.1, Ps. Siborong-Borong, Kec. Siborongborong, Kabupaten Tapanuli Utara, Sumatera Utara 22474";"Ps. Siborong-Borong, Kec. Siborongborong, Kabupaten Tapanuli Utara";"SUMATERA UTARA";"22474";"Indonesia";" 0895417300072";"";"";"2.222216";"98.9830039";"https://maps.google.com/?cid=0x0:0x6f2919c318e2df56";""
"hotel";"hotel";"Noah Hotel Silangit";"Jl. Balige- Tarutung Jl. Silangit No.77, Silando, Kec. Siborongborong, Kabupaten Tapanuli Utara, Sumatera Utara 22474";"Silando, Kec. Siborongborong, Kabupaten Tapanuli Utara";"SUMATERA UTARA";"22474";"Indonesia";" 085147341477";"";"";"2.2677737";"99.0020735";"https://maps.google.com/?cid=0x0:0x46b5cd9003407cdb";""
"hotel";"hotel";"CIKOM HOTEL CAFE  RESTO";"Jl Tarutung No.KM 1.5, SITABO-TABO, Kec. Siborongborong, Kabupaten Tapanuli Utara, Sumatera Utara 22474";"SITABO-TABO, Kec. Siborongborong, Kabupaten Tapanuli Utara";"SUMATERA UTARA";"22474";"Indonesia";" 082164768438";"";"";"2.1957346";"98.9693955";"https://maps.google.com/?cid=0x0:0x60143478a15d0546";""
"hotel";"hotel";"Tiara Bunga Hotel";"Jl. Raya TaraBunga, Tara Bunga, Kec. Tampahan, Toba, Sumatera Utara 22312";"Tara Bunga, Kec. Tampahan, Toba";"SUMATERA UTARA";"22312";"Indonesia";" 08116261297";"";"";"2.3628718";"99.0308496";"https://maps.google.com/?cid=0x0:0xf777201a92a038fb";""
"hotel";"hotel";"RedDoorz @ Aldos Villa Silangit";"Jl. Bandara Silangit, Silando, Kec. Siborongborong, Kabupaten Tapanuli Utara, Sumatera Utara 22474";"Silando, Kec. Siborongborong, Kabupaten Tapanuli Utara";"SUMATERA UTARA";"22474";"Indonesia";" 0895417300072";"";"";"2.2646527";"98.9866884";"https://maps.google.com/?cid=0x0:0x79e921bce64526aa";""
"hotel";"hotel";"LOPO Hotel  Resort";"Jl. Horas No.1, Tomok, Simanindo, Kabupaten Samosir, Sumatera Utara 22395";"Tomok, Simanindo, Kabupaten Samosir";"SUMATERA UTARA";"22395";"Indonesia";" 085186062243";"";"";"2.6490273";"98.8662984";"https://maps.google.com/?cid=0x0:0x44f525d921768032";""
"hotel";"hotel";"Mantha Homestay";"Jl. Sisingamangaraja Jl. Lintas Sumatera No.Depan, Pusat Kota, Kec. Siborongborong, Kabupaten Tapanuli Utara, Sumatera Utara 22474";"Pusat Kota, Kec. Siborongborong, Kabupaten Tapanuli Utara";"SUMATERA UTARA";"22474";"Indonesia";" 082312969900";"";"";"2.212091";"98.9724444";"https://maps.google.com/?cid=0x0:0x4331a18d8e79a0b7";""
"hotel";"hotel";"Pea Nature";"Paniaran, Kec. Siborongborong, Kabupaten Tapanuli Utara, Sumatera Utara 22474";"Kec. Siborongborong, Kabupaten Tapanuli Utara";"SUMATERA UTARA";"22474";"Indonesia";" 081360924401";"";"";"2.1814127";"98.9833666";"https://maps.google.com/?cid=0x0:0xbd5789f899f2489d";""
"hotel";"hotel";"OYO 540 Esther Hotel";"Jl. Siborongborong - Parapat No.75, Silando, Kec. Muara, Kabupaten Tapanuli Utara, Sumatera Utara 22312";"Silando, Kec. Muara, Kabupaten Tapanuli Utara";"SUMATERA UTARA";"22312";"Indonesia";" 02129707601";"";"";"2.2676089";"99.0021598";"https://maps.google.com/?cid=0x0:0xc65b99466de09bae";""
"hotel";"hotel";"N/A";"";"";"SUMATERA UTARA";"";"Indonesia";"";"";"";"";"";"https://maps.google.com/?cid=0x0:0xc65b99466de09bae%7C/g/11fk00tbv2%7Cen-ID";""
"hotel";"hotel";"Damar Toba ~ Lakeside Eatery  Stay";"Jl. Pemandian No.94, Kec. Balige, Sumatera Utara 22312";"Kec. Balige";"SUMATERA UTARA";"22312";"Indonesia";" 081360585870";"";"";"2.3404454";"99.0505864";"https://maps.google.com/?cid=0x0:0x58c5d9d42c4dcdbd";""
"hotel";"hotel";"Hotel Ompu Herti";"Jl. Pemandian No.02, Sangkar Nihuta, Kec. Balige, Toba, Sumatera Utara 22312";"Sangkar Nihuta, Kec. Balige, Toba";"SUMATERA UTARA";"22312";"Indonesia";" 082166919455";"";"";"2.3343228";"99.0556348";"https://maps.google.com/?cid=0x0:0x7408d3f98b206d06";""
"hotel";"hotel";"Arirang27 Homestay";"Jl. Bandara Silangit No.27 Pintu 2, Parik Sabungan, Kec. Siborongborong, Kabupaten Tapanuli Utara, Sumatera Utara 22476";"Parik Sabungan, Kec. Siborongborong, Kabupaten Tapanuli Utara";"SUMATERA UTARA";"22476";"Indonesia";" 085156500885";"";"";"2.2633199";"98.9892556";"https://maps.google.com/?cid=0x0:0xc6f6c3e89459349f";""
"hotel";"hotel";"Gemma Hotel Balige";"Jl. Pemandian No.1 B, Sangkar Nihuta, Kec. Balige, Toba, Sumatera Utara 22312";"Sangkar Nihuta, Kec. Balige, Toba";"SUMATERA UTARA";"22312";"Indonesia";" 085360481309";"";"";"2.3340833";"99.0564523";"https://maps.google.com/?cid=0x0:0xa0292f8f0487198d";""
"hotel";"hotel";"Damar Toba";"83V2+C8X, Danau Toba, Sumatera Utara";"Sumatera Utara";"SUMATERA UTARA";"";"Indonesia";"";"";"";"2.3436062";"99.0508678";"https://maps.google.com/?cid=0x0:0x5cefa926b817d337";""
"hotel";"hotel";"Onan Ganjang";"Kec. Onan Ganjang, Kabupaten Humbang Hasundutan, Sumatera Utara";"Kabupaten Humbang Hasundutan, Sumatera Utara";"SUMATERA UTARA";"";"Indonesia";"";"";"";"2.1523331";"98.6298119";"https://maps.google.com/?cid=0x0:0x5b19fc0bdff0c0f3";""
"hotel";"hotel";"Coffee Hotel Ayola Dolok Sanggul";"Jl. Dolok Sanggul - Siborong - Borong, Pakkat, Kec. Dolok sanggul, Kabupaten Humbang Hasundutan, Sumatera Utara 22457";"Pakkat, Kec. Dolok sanggul, Kabupaten Humbang Hasundutan";"SUMATERA UTARA";"22457";"Indonesia";" 06333211396";"";"";"2.2608434";"98.7903237";"https://maps.google.com/?cid=0x0:0xbc95c1f2fbec6208";""
"hotel";"hotel";"N/A";"";"";"SUMATERA UTARA";"";"Indonesia";"";"";"";"";"";"https://maps.google.com/?cid=0x0:0xbc95c1f2fbec6208%7C/g/11hdwqhsqk%7Cen-ID";""
"hotel";"hotel";"Hotel Wisma Mangurna";"Sumatera, Utara, Bonani Onan, Kec. Dolok sanggul, Kabupaten Humbang Hasundutan, Sumatera Utara 22457";"Utara, Bonani Onan, Kec. Dolok sanggul, Kabupaten Humbang Hasundutan";"SUMATERA UTARA";"22457";"Indonesia";" 085361594583";"";"";"2.2696231";"98.7460622";"https://maps.google.com/?cid=0x0:0x227c03897cf2dfbf";""
"hotel";"hotel";"Grand Maju Hotel";"Jl. Merdeka Ujung, Pasaribu, Kec. Dolok sanggul, Kabupaten Humbang Hasundutan, Sumatera Utara 22457";"Pasaribu, Kec. Dolok sanggul, Kabupaten Humbang Hasundutan";"SUMATERA UTARA";"22457";"Indonesia";" 081312348857";"";"";"2.2644338";"98.761866";"https://maps.google.com/?cid=0x0:0xf4e505db7e6d03b9";""
"hotel";"hotel";"Hotel Martabe";"Jl. Pemuda Jl. Dolok Sanggul - Sidikalang, Bonani Onan, Kec. Dolok sanggul, Kabupaten Humbang Hasundutan, Sumatera Utara 22457";"Bonani Onan, Kec. Dolok sanggul, Kabupaten Humbang Hasundutan";"SUMATERA UTARA";"22457";"Indonesia";" 081397058559";"";"";"2.258287";"98.747028";"https://maps.google.com/?cid=0x0:0xfba3690db4b336f6";""
"hotel";"hotel";"Nowly Hotel";"Pasaribu, Kec. Dolok sanggul, Kabupaten Humbang Hasundutan, Sumatera Utara 22457";"Kec. Dolok sanggul, Kabupaten Humbang Hasundutan";"SUMATERA UTARA";"22457";"Indonesia";" 085360499000";"";"";"2.2637692";"98.7605064";"https://maps.google.com/?cid=0x0:0x79b5409932026468";""
"hotel";"hotel";"New HORAS Hotel";"Jl. Sisingamangaraja No.17, Ps. Dolok Sanggul, Kec. Dolok sanggul, Kabupaten Humbang Hasundutan, Sumatera Utara 22457";"Ps. Dolok Sanggul, Kec. Dolok sanggul, Kabupaten Humbang Hasundutan";"SUMATERA UTARA";"22457";"Indonesia";" 08118002517";"";"";"2.2583242";"98.7477095";"https://maps.google.com/?cid=0x0:0xe085ca4e1ae1533c";""
"hotel";"hotel";"OYO 91223 Mutiara Guest House";"Sirisiri, Jl. Lintas Dolok Sanggul No.269, Kec. Dolok sanggul, Kabupaten Tapanuli Utara, Sumatera Utara 22457";"Jl. Lintas Dolok Sanggul No.269, Kec. Dolok sanggul, Kabupaten Tapanuli Utara";"SUMATERA UTARA";"22457";"Indonesia";" 02129707601";"";"";"2.2761908";"98.7445511";"https://maps.google.com/?cid=0x0:0x88a8f4d573e5af8d";""
"hotel";"hotel";"Kec. Onan Ganjang";"Kabupaten Humbang Hasundutan, Sumatera Utara";"Kabupaten Humbang Hasundutan, Sumatera Utara";"SUMATERA UTARA";"";"Indonesia";"";"";"";"2.1547734";"98.6295724";"https://maps.google.com/?cid=0x0:0xdce7ed5f2d2ccaa1";""
"hotel";"hotel";"Senior Bakara Hotel";"Jl. Muara, Kabupaten Humbang Hasundutan, Sumatera Utara 22457";"Kabupaten Humbang Hasundutan";"SUMATERA UTARA";"22457";"Indonesia";" 081362268286";"";"";"2.3186427";"98.8351544";"https://maps.google.com/?cid=0x0:0x998c075598393f34";""
"hotel";"hotel";"N/A";"";"";"SUMATERA UTARA";"";"Indonesia";"";"";"";"";"";"https://maps.google.com/?cid=0x0:0x998c075598393f34%7C/g/11jjqhgk78%7Cen-ID";""
"hotel";"hotel";"Hotel Fansuri Barus";"Jl. Jend. Ahmad Yani No.42, Kp. Solok, Kec. Barus, Kabupaten Tapanuli Tengah, Sumatera Utara 22564";"Kp. Solok, Kec. Barus, Kabupaten Tapanuli Tengah";"SUMATERA UTARA";"22564";"Indonesia";"";"";"";"2.0127328";"98.4028539";"https://maps.google.com/?cid=0x0:0xe60772b3ac774625";""
"hotel";"hotel";"HOTEL  RESTO WATER BOOM ANUGERAH SOAMBATON";"Jl. Muara, Sumatera Utara 22457";"Sumatera Utara";"SUMATERA UTARA";"";"Indonesia";" 082211503439";"";"";"2.319319";"98.8387039";"https://maps.google.com/?cid=0x0:0xc2f685008525fbfb";""
"hotel";"hotel";"Pakkat";"Pakkat Hauagong, Kec. Pakkat, Kabupaten Humbang Hasundutan, Sumatera Utara";"Kabupaten Humbang Hasundutan, Sumatera Utara";"SUMATERA UTARA";"";"Indonesia";"";"";"";"2.145129";"98.473518";"https://maps.google.com/?cid=0x0:0xd970ca7c81a5c728";""
"hotel";"hotel";"Coffee Hotel Ayola Dolok Sanggul";"Jl. Dolok Sanggul - Siborong - Borong, Pakkat, Kec. Dolok sanggul, Kabupaten Humbang Hasundutan, Sumatera Utara 22457";"Pakkat, Kec. Dolok sanggul, Kabupaten Humbang Hasundutan";"SUMATERA UTARA";"22457";"Indonesia";" 06333211396";"";"";"2.2608434";"98.7903237";"https://maps.google.com/?cid=0x0:0xbc95c1f2fbec6208";""
"hotel";"hotel";"N/A";"";"";"SUMATERA UTARA";"";"Indonesia";"";"";"";"";"";"https://maps.google.com/?cid=0x0:0xbc95c1f2fbec6208%7C/g/11hdwqhsqk%7Cen-ID";""
"hotel";"hotel";"Senior Bakara Hotel";"Jl. Muara, Kabupaten Humbang Hasundutan, Sumatera Utara 22457";"Kabupaten Humbang Hasundutan";"SUMATERA UTARA";"22457";"Indonesia";" 081362268286";"";"";"2.3186427";"98.8351544";"https://maps.google.com/?cid=0x0:0x998c075598393f34";""
"hotel";"hotel";"N/A";"";"";"SUMATERA UTARA";"";"Indonesia";"";"";"";"";"";"https://maps.google.com/?cid=0x0:0x998c075598393f34%7C/g/11jjqhgk78%7Cen-ID";""
"hotel";"hotel";"KHAS Parapat Hotel";"Jl. Marihat No.1, Danau Toba, Kec. Girsang Sipangan Bolon, Kabupaten Simalungun, Sumatera Utara 21174";"Danau Toba, Kec. Girsang Sipangan Bolon, Kabupaten Simalungun";"SUMATERA UTARA";"21174";"Indonesia";" 08116565926";"";"";"2.6653505";"98.9309113";"https://maps.google.com/?cid=0x0:0x79dc29da3b393e01";""
"hotel";"hotel";"N/A";"";"";"SUMATERA UTARA";"";"Indonesia";"";"";"";"";"";"https://maps.google.com/?cid=0x0:0x79dc29da3b393e01%7C/g/11_fbvk2s%7Cen-ID";""
"hotel";"hotel";"Hotel Palapa";"Jalan Mayjen Di Panjaitan No.103, Hutatoruan V, Tarutung, Hutatoruan VI, Kec. Tarutung, Kabupaten Tapanuli Utara, Sumatera Utara 22412";"Hutatoruan V, Tarutung, Hutatoruan VI, Kec. Tarutung, Kabupaten Tapanuli Utara";"SUMATERA UTARA";"22412";"Indonesia";" 063321845";"";"";"2.021938";"98.9660655";"https://maps.google.com/?cid=0x0:0xf280b578dc9400d6";""
"hotel";"hotel";"Purba Margana Hotel  Resto";"Bandara, Aek Godang, Gunung tua, Kabupaten Padang Lawas Utara, Sumatera Utara 22740";"Aek Godang, Gunung tua, Kabupaten Padang Lawas Utara";"SUMATERA UTARA";"22740";"Indonesia";" 081319009123";"";"";"1.4081582";"99.4218092";"https://maps.google.com/?cid=0x0:0xb9d59df1456583ba";""
"hotel";"hotel";"Hotel Fansuri Barus";"Jl. Jend. Ahmad Yani No.42, Kp. Solok, Kec. Barus, Kabupaten Tapanuli Tengah, Sumatera Utara 22564";"Kp. Solok, Kec. Barus, Kabupaten Tapanuli Tengah";"SUMATERA UTARA";"22564";"Indonesia";"";"";"";"2.0127328";"98.4028539";"https://maps.google.com/?cid=0x0:0xe60772b3ac774625";""
"hotel";"hotel";"Chantika Hotel Balige";"Sibola Hotangsas, Kec. Balige, Toba, Sumatera Utara 22312";"Kec. Balige, Toba";"SUMATERA UTARA";"22312";"Indonesia";" 081396565840";"";"";"2.3435246";"99.0788078";"https://maps.google.com/?cid=0x0:0xb026dc612f64ea18";""
"hotel";"hotel";"Hotel Martabe";"Jl. Pemuda Jl. Dolok Sanggul - Sidikalang, Bonani Onan, Kec. Dolok sanggul, Kabupaten Humbang Hasundutan, Sumatera Utara 22457";"Bonani Onan, Kec. Dolok sanggul, Kabupaten Humbang Hasundutan";"SUMATERA UTARA";"22457";"Indonesia";" 081397058559";"";"";"2.258287";"98.747028";"https://maps.google.com/?cid=0x0:0xfba3690db4b336f6";""
"hotel";"hotel";"Hotel Sumatera Balige";"Jl. Mulia Raja No.54, Kec. Balige, Toba, Sumatera Utara 22312";"Kec. Balige, Toba";"SUMATERA UTARA";"22312";"Indonesia";" 08126456445";"";"";"2.3362856";"99.0632476";"https://maps.google.com/?cid=0x0:0x37c7c583a01e4d04";""
"hotel";"hotel";"New HORAS Hotel";"Jl. Sisingamangaraja No.17, Ps. Dolok Sanggul, Kec. Dolok sanggul, Kabupaten Humbang Hasundutan, Sumatera Utara 22457";"Ps. Dolok Sanggul, Kec. Dolok sanggul, Kabupaten Humbang Hasundutan";"SUMATERA UTARA";"22457";"Indonesia";" 08118002517";"";"";"2.2583242";"98.7477095";"https://maps.google.com/?cid=0x0:0xe085ca4e1ae1533c";""
"hotel";"hotel";"Nowly Hotel";"Pasaribu, Kec. Dolok sanggul, Kabupaten Humbang Hasundutan, Sumatera Utara 22457";"Kec. Dolok sanggul, Kabupaten Humbang Hasundutan";"SUMATERA UTARA";"22457";"Indonesia";" 085360499000";"";"";"2.2637692";"98.7605064";"https://maps.google.com/?cid=0x0:0x79b5409932026468";""
"hotel";"hotel";"Martin Anugrah Hotel  Restaurant";"Jalan Raya Bakkara Sosorgonting, Pasaribu, Dolok sanggul, Humbang Hasundutan Regency, North Sumatra 22457";"Pasaribu, Dolok sanggul, Humbang Hasundutan Regency";"SUMATERA UTARA";"22457";"Indonesia";" 08116261820";"";"";"2.2727265";"98.7656981";"https://maps.google.com/?cid=0x0:0x3917ea7963e729d8";""
"hotel";"hotel";"Coffee Hotel Ayola Dolok Sanggul";"Jl. Dolok Sanggul - Siborong - Borong, Pakkat, Kec. Dolok sanggul, Kabupaten Humbang Hasundutan, Sumatera Utara 22457";"Pakkat, Kec. Dolok sanggul, Kabupaten Humbang Hasundutan";"SUMATERA UTARA";"22457";"Indonesia";" 06333211396";"";"";"2.2608434";"98.7903237";"https://maps.google.com/?cid=0x0:0xbc95c1f2fbec6208";""
"hotel";"hotel";"Kec. Paranginan";"Kabupaten Humbang Hasundutan, Sumatera Utara";"Kabupaten Humbang Hasundutan, Sumatera Utara";"SUMATERA UTARA";"";"Indonesia";"";"";"";"2.3016854";"98.9270035";"https://maps.google.com/?cid=0x0:0x690416ecba08580d";""
"hotel";"hotel";"N/A";"";"";"SUMATERA UTARA";"";"Indonesia";"";"";"";"";"";"https://maps.google.com/?cid=0x0:0xbc95c1f2fbec6208%7C/g/11hdwqhsqk%7Cen-ID";""
"hotel";"hotel";"N/A";"";"";"SUMATERA UTARA";"";"Indonesia";"";"";"";"";"";"https://maps.google.com/?cid=0x0:0x998c075598393f34%7C/g/11jjqhgk78%7Cen-ID";""
"hotel";"hotel";"Labersa Hotel  Convention Centre Toba - Sumut";"Saribu Raja Janji Maria, Kec. Balige, Toba, Sumatera Utara";"Toba, Sumatera Utara";"SUMATERA UTARA";"";"Indonesia";" 06324321555";"";"";"2.3386395";"99.0816343";"https://maps.google.com/?cid=0x0:0xd579d17cb4b7dd71";""
"hotel";"hotel";"Porlak Hebron (Homestay)";"Jl. Silangit, Silando, Kec. Muara, Kabupaten Tapanuli Utara, Sumatera Utara 22312";"Silando, Kec. Muara, Kabupaten Tapanuli Utara";"SUMATERA UTARA";"22312";"Indonesia";" 085770000167";"";"";"2.2659238";"99.002192";"https://maps.google.com/?cid=0x0:0x559f1b5f92cb0c72";""
"hotel";"hotel";"Queen Parrona Hotel by Sativa";"Jl. Sisingamangaraja No.254, Siborong Borong I, Kec. Siborongborong, Kabupaten Tapanuli Utara, Sumatera Utara 22474";"Siborong Borong I, Kec. Siborongborong, Kabupaten Tapanuli Utara";"SUMATERA UTARA";"22474";"Indonesia";" 085270087244";"";"";"2.2095547";"98.9707206";"https://maps.google.com/?cid=0x0:0x55b55f211dbb4fc2";""
"hotel";"hotel";"Abe Hotel Convention  Tonggi Coffee (Hotel 3 Star)";"Jl. Sadar No.KM 1, RW.5, Lobu Siregar II, Kec. Siborongborong, Kabupaten Tapanuli Utara, Sumatera Utara 22474";"RW.5, Lobu Siregar II, Kec. Siborongborong, Kabupaten Tapanuli Utara";"SUMATERA UTARA";"22474";"Indonesia";" 081255667797";"";"";"2.2136835";"98.9950418";"https://maps.google.com/?cid=0x0:0xb5e6d7cb0e86fc7b";""
"hotel";"hotel";"Labersa Hotel  Convention Center Samosir";"Simarmata, Simanindo, Kabupaten Samosir, Sumatera Utara 22395";"Simanindo, Kabupaten Samosir";"SUMATERA UTARA";"22395";"Indonesia";" 08116063555";"";"";"2.7416459";"98.7095258";"https://maps.google.com/?cid=0x0:0x6fd34e6bdf43b7af";""
"hotel";"hotel";"Tiara Bunga Hotel";"Jl. Raya TaraBunga, Tara Bunga, Kec. Tampahan, Toba, Sumatera Utara 22312";"Tara Bunga, Kec. Tampahan, Toba";"SUMATERA UTARA";"22312";"Indonesia";" 08116261297";"";"";"2.3628718";"99.0308496";"https://maps.google.com/?cid=0x0:0xf777201a92a038fb";""
"hotel";"hotel";"Noah Hotel Silangit";"Jl. Balige- Tarutung Jl. Silangit No.77, Silando, Kec. Siborongborong, Kabupaten Tapanuli Utara, Sumatera Utara 22474";"Silando, Kec. Siborongborong, Kabupaten Tapanuli Utara";"SUMATERA UTARA";"22474";"Indonesia";" 085147341477";"";"";"2.2677737";"99.0020735";"https://maps.google.com/?cid=0x0:0x46b5cd9003407cdb";""
"hotel";"hotel";"Damar Toba ~ Lakeside Eatery  Stay";"Jl. Pemandian No.94, Kec. Balige, Sumatera Utara 22312";"Kec. Balige";"SUMATERA UTARA";"22312";"Indonesia";" 081360585870";"";"";"2.3404454";"99.0505864";"https://maps.google.com/?cid=0x0:0x58c5d9d42c4dcdbd";""
"hotel";"hotel";"Damar Toba";"83V2+C8X, Danau Toba, Sumatera Utara";"Sumatera Utara";"SUMATERA UTARA";"";"Indonesia";"";"";"";"2.3436062";"99.0508678";"https://maps.google.com/?cid=0x0:0x5cefa926b817d337";""
"hotel";"hotel";"Martin Anugrah Hotel  Restaurant";"Jalan Raya Bakkara Sosorgonting, Pasaribu, Dolok sanggul, Humbang Hasundutan Regency, North Sumatra 22457";"Pasaribu, Dolok sanggul, Humbang Hasundutan Regency";"SUMATERA UTARA";"22457";"Indonesia";" 08116261820";"";"";"2.2727265";"98.7656981";"https://maps.google.com/?cid=0x0:0x3917ea7963e729d8";""
"hotel";"hotel";"LOPO Hotel  Resort";"Jl. Horas No.1, Tomok, Simanindo, Kabupaten Samosir, Sumatera Utara 22395";"Tomok, Simanindo, Kabupaten Samosir";"SUMATERA UTARA";"22395";"Indonesia";" 085186062243";"";"";"2.6490273";"98.8662984";"https://maps.google.com/?cid=0x0:0x44f525d921768032";""
"hotel";"hotel";"RedDoorz @ Aldos Villa Silangit";"Jl. Bandara Silangit, Silando, Kec. Siborongborong, Kabupaten Tapanuli Utara, Sumatera Utara 22474";"Silando, Kec. Siborongborong, Kabupaten Tapanuli Utara";"SUMATERA UTARA";"22474";"Indonesia";" 0895417300072";"";"";"2.2646527";"98.9866884";"https://maps.google.com/?cid=0x0:0x79e921bce64526aa";""
"hotel";"hotel";"Hotel Ompu Herti";"Jl. Pemandian No.02, Sangkar Nihuta, Kec. Balige, Toba, Sumatera Utara 22312";"Sangkar Nihuta, Kec. Balige, Toba";"SUMATERA UTARA";"22312";"Indonesia";" 082166919455";"";"";"2.3343228";"99.0556348";"https://maps.google.com/?cid=0x0:0x7408d3f98b206d06";""
"hotel";"hotel";"Ditha homestay  coffee shop";"Jalan tugu No.44, Ps. Siborong-Borong, Kec. Siborongborong, Kabupaten Tapanuli Utara, Sumatera Utara 22474";"Ps. Siborong-Borong, Kec. Siborongborong, Kabupaten Tapanuli Utara";"SUMATERA UTARA";"22474";"Indonesia";" 085270090714";"";"";"2.2158773";"98.9737299";"https://maps.google.com/?cid=0x0:0xd683f2fc4e21906f";""
"hotel";"hotel";"Mutiara Balige Hotel";"Sibola Hotangsas, Kec. Balige, Toba, Sumatera Utara";"Toba, Sumatera Utara";"SUMATERA UTARA";"";"Indonesia";" 0632322111";"";"";"2.333572";"99.058865";"https://maps.google.com/?cid=0x0:0xe9b9011f6acc9a96";""
"hotel";"hotel";"N/A";"";"";"SUMATERA UTARA";"";"Indonesia";"";"";"";"";"";"https://maps.google.com/?cid=0x0:0xe9b9011f6acc9a96%7C/g/11ckqs1nz0%7Cen-ID";""
"hotel";"hotel";"OYO 540 Esther Hotel";"Jl. Siborongborong - Parapat No.75, Silando, Kec. Muara, Kabupaten Tapanuli Utara, Sumatera Utara 22312";"Silando, Kec. Muara, Kabupaten Tapanuli Utara";"SUMATERA UTARA";"22312";"Indonesia";" 02129707601";"";"";"2.2676089";"99.0021598";"https://maps.google.com/?cid=0x0:0xc65b99466de09bae";""
"hotel";"hotel";"N/A";"";"";"SUMATERA UTARA";"";"Indonesia";"";"";"";"";"";"https://maps.google.com/?cid=0x0:0xc65b99466de09bae%7C/g/11fk00tbv2%7Cen-ID";""
"hotel";"hotel";"Hotel Wisma Mangurna";"Sumatera, Utara, Bonani Onan, Kec. Dolok sanggul, Kabupaten Humbang Hasundutan, Sumatera Utara 22457";"Utara, Bonani Onan, Kec. Dolok sanggul, Kabupaten Humbang Hasundutan";"SUMATERA UTARA";"22457";"Indonesia";" 085361594583";"";"";"2.2696231";"98.7460622";"https://maps.google.com/?cid=0x0:0x227c03897cf2dfbf";""
"hotel";"hotel";"Esther Hotel";"Jl. Raya Balige Jl. Silangit No.75, Silando, Kec. Muara, Kabupaten Tapanuli Utara, Sumatera Utara 22312";"Silando, Kec. Muara, Kabupaten Tapanuli Utara";"SUMATERA UTARA";"22312";"Indonesia";" 081310129007";"";"";"2.2670062";"99.0017582";"https://maps.google.com/?cid=0x0:0x44f0094672617777";""
"hotel";"hotel";"Arirang27 Homestay";"Jl. Bandara Silangit No.27 Pintu 2, Parik Sabungan, Kec. Siborongborong, Kabupaten Tapanuli Utara, Sumatera Utara 22476";"Parik Sabungan, Kec. Siborongborong, Kabupaten Tapanuli Utara";"SUMATERA UTARA";"22476";"Indonesia";" 085156500885";"";"";"2.2633199";"98.9892556";"https://maps.google.com/?cid=0x0:0xc6f6c3e89459349f";""
"hotel";"hotel";"Roma anugrah hotel";"Jalan Balige No.Km.1, Ps. Siborong-Borong, Kec. Siborongborong, Kabupaten Tapanuli Utara, Sumatera Utara 22474";"Ps. Siborong-Borong, Kec. Siborongborong, Kabupaten Tapanuli Utara";"SUMATERA UTARA";"22474";"Indonesia";" 0895417300072";"";"";"2.222216";"98.9830039";"https://maps.google.com/?cid=0x0:0x6f2919c318e2df56";""
"hotel";"hotel";"Sopo Almonsari";"Jl. S.M.Simanjuntak No.Desa, Tangga Batu Bar., Kec. Tampahan, Toba, Sumatera Utara 22312";"Tangga Batu Bar., Kec. Tampahan, Toba";"SUMATERA UTARA";"22312";"Indonesia";" 081212124341";"";"";"2.2872982";"99.008317";"https://maps.google.com/?cid=0x0:0xe2938ee973b966a3";""
"hotel";"hotel";"Parlilitan";"Sihotang Hasugian Tonga, Kec. Parlilitan, Kabupaten Humbang Hasundutan, Sumatera Utara";"Kabupaten Humbang Hasundutan, Sumatera Utara";"SUMATERA UTARA";"";"Indonesia";"";"";"";"2.3179599";"98.457001";"https://maps.google.com/?cid=0x0:0xb3282a468af9977";""
"hotel";"hotel";"Coffee Hotel Ayola Dolok Sanggul";"Jl. Dolok Sanggul - Siborong - Borong, Pakkat, Kec. Dolok sanggul, Kabupaten Humbang Hasundutan, Sumatera Utara 22457";"Pakkat, Kec. Dolok sanggul, Kabupaten Humbang Hasundutan";"SUMATERA UTARA";"22457";"Indonesia";" 06333211396";"";"";"2.2608434";"98.7903237";"https://maps.google.com/?cid=0x0:0xbc95c1f2fbec6208";""
"hotel";"hotel";"N/A";"";"";"SUMATERA UTARA";"";"Indonesia";"";"";"";"";"";"https://maps.google.com/?cid=0x0:0xbc95c1f2fbec6208%7C/g/11hdwqhsqk%7Cen-ID";""
"hotel";"hotel";"Sopo Almonsari";"Jl. S.M.Simanjuntak No.Desa, Tangga Batu Bar., Kec. Tampahan, Toba, Sumatera Utara 22312";"Tangga Batu Bar., Kec. Tampahan, Toba";"SUMATERA UTARA";"22312";"Indonesia";" 081212124341";"";"";"2.2872982";"99.008317";"https://maps.google.com/?cid=0x0:0xe2938ee973b966a3";""
"hotel";"hotel";"Hotel Wisma Mangurna";"Sumatera, Utara, Bonani Onan, Kec. Dolok sanggul, Kabupaten Humbang Hasundutan, Sumatera Utara 22457";"Utara, Bonani Onan, Kec. Dolok sanggul, Kabupaten Humbang Hasundutan";"SUMATERA UTARA";"22457";"Indonesia";" 085361594583";"";"";"2.2696231";"98.7460622";"https://maps.google.com/?cid=0x0:0x227c03897cf2dfbf";""
"hotel";"hotel";"Hotel Palapa";"Jalan Mayjen Di Panjaitan No.103, Hutatoruan V, Tarutung, Hutatoruan VI, Kec. Tarutung, Kabupaten Tapanuli Utara, Sumatera Utara 22412";"Hutatoruan V, Tarutung, Hutatoruan VI, Kec. Tarutung, Kabupaten Tapanuli Utara";"SUMATERA UTARA";"22412";"Indonesia";" 063321845";"";"";"2.021938";"98.9660655";"https://maps.google.com/?cid=0x0:0xf280b578dc9400d6";""
"hotel";"hotel";"Hotel Martabe";"Jl. Pemuda Jl. Dolok Sanggul - Sidikalang, Bonani Onan, Kec. Dolok sanggul, Kabupaten Humbang Hasundutan, Sumatera Utara 22457";"Bonani Onan, Kec. Dolok sanggul, Kabupaten Humbang Hasundutan";"SUMATERA UTARA";"22457";"Indonesia";" 081397058559";"";"";"2.258287";"98.747028";"https://maps.google.com/?cid=0x0:0xfba3690db4b336f6";""
"hotel";"hotel";"New HORAS Hotel";"Jl. Sisingamangaraja No.17, Ps. Dolok Sanggul, Kec. Dolok sanggul, Kabupaten Humbang Hasundutan, Sumatera Utara 22457";"Ps. Dolok Sanggul, Kec. Dolok sanggul, Kabupaten Humbang Hasundutan";"SUMATERA UTARA";"22457";"Indonesia";" 08118002517";"";"";"2.2583242";"98.7477095";"https://maps.google.com/?cid=0x0:0xe085ca4e1ae1533c";""
"hotel";"hotel";"Hineni Hotel";"Partali Toruan, Jl. Raja Yohanes No.7A, Hutatoruan X, Kec. Tarutung, Kabupaten Tapanuli Utara, Sumatera Utara 22411";"Jl. Raja Yohanes No.7A, Hutatoruan X, Kec. Tarutung, Kabupaten Tapanuli Utara";"SUMATERA UTARA";"22411";"Indonesia";" 081376714209";"";"";"2.0242479";"98.9760363";"https://maps.google.com/?cid=0x0:0x38e448bf180734e6";""
"hotel";"hotel";"Airy Balige Tarutung 77 Silangit";"Jl. Balige- Tarutung No.77, Silangit, Kec. Siborongborong, Kabupaten Tapanuli Utara, Sumatera Utara 22452";"Silangit, Kec. Siborongborong, Kabupaten Tapanuli Utara";"SUMATERA UTARA";"22452";"Indonesia";" 082165422512";"";"";"2.2678645";"99.001794";"https://maps.google.com/?cid=0x0:0xdaf4370d68a44f50";""
"hotel";"hotel";"OYO 91223 Mutiara Guest House";"Sirisiri, Jl. Lintas Dolok Sanggul No.269, Kec. Dolok sanggul, Kabupaten Tapanuli Utara, Sumatera Utara 22457";"Jl. Lintas Dolok Sanggul No.269, Kec. Dolok sanggul, Kabupaten Tapanuli Utara";"SUMATERA UTARA";"22457";"Indonesia";" 02129707601";"";"";"2.2761908";"98.7445511";"https://maps.google.com/?cid=0x0:0x88a8f4d573e5af8d";""
"hotel";"Tujuan Wisata";"Geosite Sipinsur";"Parulohan, Kec. Paranginan, Kabupaten Humbang Hasundutan, Sumatera Utara 22476";"Kec. Paranginan, Kabupaten Humbang Hasundutan";"SUMATERA UTARA";"22476";"Indonesia";"";"";"";"2.3291448";"98.8813939";"https://maps.google.com/?cid=0x0:0x47ffc29f2eb0d3e1";""
"hotel";"Rumah wisata";"Hotel Asima";"7P5X+R2H, Ps. Dolok Sanggul, Kec. Dolok sanggul, Kabupaten Humbang Hasundutan, Sumatera Utara 22457";"Ps. Dolok Sanggul, Kec. Dolok sanggul, Kabupaten Humbang Hasundutan";"SUMATERA UTARA";"22457";"Indonesia";" 082267429095";"";"";"2.2595684";"98.7476168";"https://maps.google.com/?cid=0x0:0xe44bdb3e3551e554";""
"hotel";"hotel";"Grand Maju Hotel";"Jl. Merdeka Ujung, Pasaribu, Kec. Dolok sanggul, Kabupaten Humbang Hasundutan, Sumatera Utara 22457";"Pasaribu, Kec. Dolok sanggul, Kabupaten Humbang Hasundutan";"SUMATERA UTARA";"22457";"Indonesia";" 081312348857";"";"";"2.2644338";"98.761866";"https://maps.google.com/?cid=0x0:0xf4e505db7e6d03b9";""
"hotel";"hotel";"Nowly Hotel";"Pasaribu, Kec. Dolok sanggul, Kabupaten Humbang Hasundutan, Sumatera Utara 22457";"Kec. Dolok sanggul, Kabupaten Humbang Hasundutan";"SUMATERA UTARA";"22457";"Indonesia";" 085360499000";"";"";"2.2637692";"98.7605064";"https://maps.google.com/?cid=0x0:0x79b5409932026468";""
"hotel";"hotel";"Martin Anugrah Hotel  Restaurant";"Jalan Raya Bakkara Sosorgonting, Pasaribu, Dolok sanggul, Humbang Hasundutan Regency, North Sumatra 22457";"Pasaribu, Dolok sanggul, Humbang Hasundutan Regency";"SUMATERA UTARA";"22457";"Indonesia";" 08116261820";"";"";"2.2727265";"98.7656981";"https://maps.google.com/?cid=0x0:0x3917ea7963e729d8";""
"hotel";"hotel";"Batavia Hotel";"Jl. Kali Besar Barat No.47 7, RT.6/RW.3, Roa Malaka, Kec. Tambora, Kota Jakarta Barat, Daerah Khusus Ibukota Jakarta 11230";"RT.6/RW.3, Roa Malaka, Kec. Tambora, Kota Jakarta Barat";"SUMATERA UTARA";"11230";"Indonesia";" 0216904118";"";"";"-6.1322363";"106.8100906";"https://maps.google.com/?cid=0x0:0x27d44637be75f38e";""
"hotel";"hotel";"Sumatera Utara 22457";"Kabupaten Humbang Hasundutan, Sumatera Utara";"Kabupaten Humbang Hasundutan, Sumatera Utara";"SUMATERA UTARA";"";"Indonesia";"";"";"";"2.2174078";"98.7260927";"https://maps.google.com/?cid=0x0:0xfc492d8c933a9bef";""
"hotel";"Hotel";"Coffee Hotel Ayola Dolok Sanggul";"Jl. Dolok Sanggul - Siborong - Borong, Pakkat, Kec. Dolok sanggul, Kabupaten Humbang Hasundutan, Sumatera Utara 22457";"Pakkat, Kec. Dolok sanggul, Kabupaten Humbang Hasundutan";"SUMATERA UTARA";"22457";"Indonesia";" 06333211396";"";"";"2.2608434";"98.7903237";"https://maps.google.com/?cid=0x0:0xbc95c1f2fbec6208";""
"hotel";"hotel";"N/A";"";"";"SUMATERA UTARA";"";"Indonesia";"";"";"";"";"";"https://maps.google.com/?cid=0x0:0xbc95c1f2fbec6208%7C/g/11hdwqhsqk%7Cen-ID";""
"hotel";"hotel";"Senior Bakara Hotel";"Jl. Muara, Kabupaten Humbang Hasundutan, Sumatera Utara 22457";"Kabupaten Humbang Hasundutan";"SUMATERA UTARA";"22457";"Indonesia";" 081362268286";"";"";"2.3186427";"98.8351544";"https://maps.google.com/?cid=0x0:0x998c075598393f34";""
"hotel";"hotel";"N/A";"";"";"SUMATERA UTARA";"";"Indonesia";"";"";"";"";"";"https://maps.google.com/?cid=0x0:0x998c075598393f34%7C/g/11jjqhgk78%7Cen-ID";""
"hotel";"hotel";"Martin Anugrah Hotel  Restaurant";"Jalan Raya Bakkara Sosorgonting, Pasaribu, Dolok sanggul, Humbang Hasundutan Regency, North Sumatra 22457";"Pasaribu, Dolok sanggul, Humbang Hasundutan Regency";"SUMATERA UTARA";"22457";"Indonesia";" 08116261820";"";"";"2.2727265";"98.7656981";"https://maps.google.com/?cid=0x0:0x3917ea7963e729d8";""
"hotel";"hotel";"LOPO Hotel  Resort";"Jl. Horas No.1, Tomok, Simanindo, Kabupaten Samosir, Sumatera Utara 22395";"Tomok, Simanindo, Kabupaten Samosir";"SUMATERA UTARA";"22395";"Indonesia";" 085186062243";"";"";"2.6490273";"98.8662984";"https://maps.google.com/?cid=0x0:0x44f525d921768032";""
"hotel";"hotel";"LePolonia Hotel  Convention";"Jl. Jenderal Sudirman No.14-18, Madras Hulu, Kec. Medan Polonia, Kota Medan, Sumatera Utara 20152";"Madras Hulu, Kec. Medan Polonia, Kota Medan";"SUMATERA UTARA";"20152";"Indonesia";" 0614142222";"";"";"3.5765155";"98.6751473";"https://maps.google.com/?cid=0x0:0x5ad34fdc5abd6d6";""
"hotel";"hotel";"N/A";"";"";"SUMATERA UTARA";"";"Indonesia";"";"";"";"";"";"https://maps.google.com/?cid=0x0:0x5ad34fdc5abd6d6%7C/g/11f0_cvbpj%7Cen-ID";""
"hotel";"hotel";"Grand Maju Hotel";"Jl. Merdeka Ujung, Pasaribu, Kec. Dolok sanggul, Kabupaten Humbang Hasundutan, Sumatera Utara 22457";"Pasaribu, Kec. Dolok sanggul, Kabupaten Humbang Hasundutan";"SUMATERA UTARA";"22457";"Indonesia";" 081312348857";"";"";"2.2644338";"98.761866";"https://maps.google.com/?cid=0x0:0xf4e505db7e6d03b9";""
"hotel";"hotel";"Lonari Inn Hotel";"Jl. Jamin Ginting No.Km 8, RW.9, Baru Ladang Bambu, Kec. Medan Tuntungan, Kota Medan, Sumatera Utara 20138";"RW.9, Baru Ladang Bambu, Kec. Medan Tuntungan, Kota Medan";"SUMATERA UTARA";"20138";"Indonesia";" 0618365440";"";"";"3.5304978";"98.6411937";"https://maps.google.com/?cid=0x0:0x4b04cf9aa41e9c20";""
"hotel";"hotel";"E Hotel Medan";"Jl. Ir. H. Juanda No.3C, Sukaraja, Kec. Medan Maimun, Kota Medan, Sumatera Utara 20159";"Sukaraja, Kec. Medan Maimun, Kota Medan";"SUMATERA UTARA";"20159";"Indonesia";" 081386278696";"";"";"3.5719975";"98.6831859";"https://maps.google.com/?cid=0x0:0x6931329a73cb67ba";""
"hotel";"hotel";"Kanasha Hotel Islami";"Jl. Dolok Sanggul No.8, Mesjid, Kec. Medan Kota, Kota Medan, Sumatera Utara 20213";"Mesjid, Kec. Medan Kota, Kota Medan";"SUMATERA UTARA";"20213";"Indonesia";" 0617367932";"";"";"3.5786164";"98.68543";"https://maps.google.com/?cid=0x0:0xa9aab1c08a01b6fd";""
"hotel";"hotel";"N/A";"";"";"SUMATERA UTARA";"";"Indonesia";"";"";"";"";"";"https://maps.google.com/?cid=0x0:0xa9aab1c08a01b6fd%7C/g/11bzt2hdp8%7Cen-ID";""
"hotel";"hotel";"Hotel Martabe";"Jl. Pemuda Jl. Dolok Sanggul - Sidikalang, Bonani Onan, Kec. Dolok sanggul, Kabupaten Humbang Hasundutan, Sumatera Utara 22457";"Bonani Onan, Kec. Dolok sanggul, Kabupaten Humbang Hasundutan";"SUMATERA UTARA";"22457";"Indonesia";" 081397058559";"";"";"2.258287";"98.747028";"https://maps.google.com/?cid=0x0:0xfba3690db4b336f6";""
"hotel";"hotel";"CIKOM HOTEL CAFE  RESTO";"Jl Tarutung No.KM 1.5, SITABO-TABO, Kec. Siborongborong, Kabupaten Tapanuli Utara, Sumatera Utara 22474";"SITABO-TABO, Kec. Siborongborong, Kabupaten Tapanuli Utara";"SUMATERA UTARA";"22474";"Indonesia";" 082164768438";"";"";"2.1957346";"98.9693955";"https://maps.google.com/?cid=0x0:0x60143478a15d0546";""
"hotel";"Guest house";"Pasola Guest House";"Jl. Sei Selayang No.39, Merdeka, Kec. Medan Baru, Kota Medan, Sumatera Utara 20154";"Merdeka, Kec. Medan Baru, Kota Medan";"SUMATERA UTARA";"20154";"Indonesia";" 0618213151";"";"";"3.5713613";"98.6559086";"https://maps.google.com/?cid=0x0:0xd49fd49bf81a17b5";""
"hotel";"hotel";"Nowly Hotel";"Pasaribu, Kec. Dolok sanggul, Kabupaten Humbang Hasundutan, Sumatera Utara 22457";"Kec. Dolok sanggul, Kabupaten Humbang Hasundutan";"SUMATERA UTARA";"22457";"Indonesia";" 085360499000";"";"";"2.2637692";"98.7605064";"https://maps.google.com/?cid=0x0:0x79b5409932026468";""
"hotel";"hotel";"Sopo Almonsari";"Jl. S.M.Simanjuntak No.Desa, Tangga Batu Bar., Kec. Tampahan, Toba, Sumatera Utara 22312";"Tangga Batu Bar., Kec. Tampahan, Toba";"SUMATERA UTARA";"22312";"Indonesia";" 081212124341";"";"";"2.2872982";"99.008317";"https://maps.google.com/?cid=0x0:0xe2938ee973b966a3";""
"hotel";"hotel";"HOTEL  RESTO WATER BOOM ANUGERAH SOAMBATON";"Jl. Muara, Sumatera Utara 22457";"Sumatera Utara";"SUMATERA UTARA";"";"Indonesia";" 082211503439";"";"";"2.319319";"98.8387039";"https://maps.google.com/?cid=0x0:0xc2f685008525fbfb";""
"hotel";"hotel";"New HORAS Hotel";"Jl. Sisingamangaraja No.17, Ps. Dolok Sanggul, Kec. Dolok sanggul, Kabupaten Humbang Hasundutan, Sumatera Utara 22457";"Ps. Dolok Sanggul, Kec. Dolok sanggul, Kabupaten Humbang Hasundutan";"SUMATERA UTARA";"22457";"Indonesia";" 08118002517";"";"";"2.2583242";"98.7477095";"https://maps.google.com/?cid=0x0:0xe085ca4e1ae1533c";""
"hotel";"hotel";"Hotel Sere Nauli";"Jl. Sisingamangaraja No.1, Ps. Laguboti, Kec. Laguboti, Toba, Sumatera Utara 22381";"Ps. Laguboti, Kec. Laguboti, Toba";"SUMATERA UTARA";"22381";"Indonesia";" 0632331003";"";"";"2.3528556";"99.1217736";"https://maps.google.com/?cid=0x0:0xabb98d75781aff78";""
"hotel";"hotel";"N/A";"";"";"SUMATERA UTARA";"";"Indonesia";"";"";"";"";"";"https://maps.google.com/?cid=0x0:0xabb98d75781aff78%7C/g/11b6nrb67w%7Cen-ID";""
"hotel";"hotel";"OYO 91223 Mutiara Guest House";"Sirisiri, Jl. Lintas Dolok Sanggul No.269, Kec. Dolok sanggul, Kabupaten Tapanuli Utara, Sumatera Utara 22457";"Jl. Lintas Dolok Sanggul No.269, Kec. Dolok sanggul, Kabupaten Tapanuli Utara";"SUMATERA UTARA";"22457";"Indonesia";" 02129707601";"";"";"2.2761908";"98.7445511";"https://maps.google.com/?cid=0x0:0x88a8f4d573e5af8d";""
"hotel";"hotel";"Hotel Silintong";"Tuktuk Siadong, Simanindo, Kabupaten Samosir, Sumatera Utara 22395";"Simanindo, Kabupaten Samosir";"SUMATERA UTARA";"22395";"Indonesia";" 0625451242";"";"";"2.6705399";"98.8615445";"https://maps.google.com/?cid=0x0:0xa1b95ba851f1cb96";""
"hotel";"hotel";"Hotel Palapa";"Jalan Mayjen Di Panjaitan No.103, Hutatoruan V, Tarutung, Hutatoruan VI, Kec. Tarutung, Kabupaten Tapanuli Utara, Sumatera Utara 22412";"Hutatoruan V, Tarutung, Hutatoruan VI, Kec. Tarutung, Kabupaten Tapanuli Utara";"SUMATERA UTARA";"22412";"Indonesia";" 063321845";"";"";"2.021938";"98.9660655";"https://maps.google.com/?cid=0x0:0xf280b578dc9400d6";""
"hotel";"hotel";"N/A";"";"";"SUMATERA UTARA";"";"Indonesia";"";"";"";"";"";"https://maps.google.com/?cid=0x0:0xa1b95ba851f1cb96%7C/g/11b75j7ntx%7Cen-ID";""
"hotel";"hotel";"Chantika Hotel Balige";"Sibola Hotangsas, Kec. Balige, Toba, Sumatera Utara 22312";"Kec. Balige, Toba";"SUMATERA UTARA";"22312";"Indonesia";" 081396565840";"";"";"2.3435246";"99.0788078";"https://maps.google.com/?cid=0x0:0xb026dc612f64ea18";""
"hotel";"hotel";"TR INN (Penginapan KELUARGA)";"5 menit dari Simpang 3, Aek Popo, Jalan Lintas Jl. Raya Merek-Sidikalang No.5, Kec. Merek, Kabupaten Karo, Sumatera Utara 22173";"Aek Popo, Jalan Lintas Jl. Raya Merek-Sidikalang No.5, Kec. Merek, Kabupaten Karo";"SUMATERA UTARA";"22173";"Indonesia";" 081397007796";"";"";"2.931705";"98.4985882";"https://maps.google.com/?cid=0x0:0x4fbb8ae97816eb87";""
"hotel";"hotel";"Kec. Sijama Polang";"Kabupaten Humbang Hasundutan, Sumatera Utara";"Kabupaten Humbang Hasundutan, Sumatera Utara";"SUMATERA UTARA";"";"Indonesia";"";"";"";"2.2108811";"98.721307";"https://maps.google.com/?cid=0x0:0xd50f2722ee3ef986";""
"hotel";"hotel";"Coffee Hotel Ayola Dolok Sanggul";"Jl. Dolok Sanggul - Siborong - Borong, Pakkat, Kec. Dolok sanggul, Kabupaten Humbang Hasundutan, Sumatera Utara 22457";"Pakkat, Kec. Dolok sanggul, Kabupaten Humbang Hasundutan";"SUMATERA UTARA";"22457";"Indonesia";" 06333211396";"";"";"2.2608434";"98.7903237";"https://maps.google.com/?cid=0x0:0xbc95c1f2fbec6208";""
"hotel";"hotel";"N/A";"";"";"SUMATERA UTARA";"";"Indonesia";"";"";"";"";"";"https://maps.google.com/?cid=0x0:0xbc95c1f2fbec6208%7C/g/11hdwqhsqk%7Cen-ID";""
"hotel";"hotel";"Hotel Wisma Mangurna";"Sumatera, Utara, Bonani Onan, Kec. Dolok sanggul, Kabupaten Humbang Hasundutan, Sumatera Utara 22457";"Utara, Bonani Onan, Kec. Dolok sanggul, Kabupaten Humbang Hasundutan";"SUMATERA UTARA";"22457";"Indonesia";" 085361594583";"";"";"2.2696231";"98.7460622";"https://maps.google.com/?cid=0x0:0x227c03897cf2dfbf";""
"hotel";"hotel";"N/A";"";"";"SUMATERA UTARA";"";"Indonesia";"";"";"";"";"";"https://maps.google.com/?cid=0x0:0x998c075598393f34%7C/g/11jjqhgk78%7Cen-ID";""
"hotel";"hotel";"Senior Bakara Hotel";"Jl. Muara, Kabupaten Humbang Hasundutan, Sumatera Utara 22457";"Kabupaten Humbang Hasundutan";"SUMATERA UTARA";"22457";"Indonesia";" 081362268286";"";"";"2.3186427";"98.8351544";"https://maps.google.com/?cid=0x0:0x998c075598393f34";""
"hotel";"hotel";"Grand Maju Hotel";"Jl. Merdeka Ujung, Pasaribu, Kec. Dolok sanggul, Kabupaten Humbang Hasundutan, Sumatera Utara 22457";"Pasaribu, Kec. Dolok sanggul, Kabupaten Humbang Hasundutan";"SUMATERA UTARA";"22457";"Indonesia";" 081312348857";"";"";"2.2644338";"98.761866";"https://maps.google.com/?cid=0x0:0xf4e505db7e6d03b9";""
"hotel";"hotel";"Nowly Hotel";"Pasaribu, Kec. Dolok sanggul, Kabupaten Humbang Hasundutan, Sumatera Utara 22457";"Kec. Dolok sanggul, Kabupaten Humbang Hasundutan";"SUMATERA UTARA";"22457";"Indonesia";" 085360499000";"";"";"2.2637692";"98.7605064";"https://maps.google.com/?cid=0x0:0x79b5409932026468";""
"hotel";"hotel";"Hotel Martabe";"Jl. Pemuda Jl. Dolok Sanggul - Sidikalang, Bonani Onan, Kec. Dolok sanggul, Kabupaten Humbang Hasundutan, Sumatera Utara 22457";"Bonani Onan, Kec. Dolok sanggul, Kabupaten Humbang Hasundutan";"SUMATERA UTARA";"22457";"Indonesia";" 081397058559";"";"";"2.258287";"98.747028";"https://maps.google.com/?cid=0x0:0xfba3690db4b336f6";""
"hotel";"hotel";"New HORAS Hotel";"Jl. Sisingamangaraja No.17, Ps. Dolok Sanggul, Kec. Dolok sanggul, Kabupaten Humbang Hasundutan, Sumatera Utara 22457";"Ps. Dolok Sanggul, Kec. Dolok sanggul, Kabupaten Humbang Hasundutan";"SUMATERA UTARA";"22457";"Indonesia";" 08118002517";"";"";"2.2583242";"98.7477095";"https://maps.google.com/?cid=0x0:0xe085ca4e1ae1533c";""
"hotel";"hotel";"OYO 91223 Mutiara Guest House";"Sirisiri, Jl. Lintas Dolok Sanggul No.269, Kec. Dolok sanggul, Kabupaten Tapanuli Utara, Sumatera Utara 22457";"Jl. Lintas Dolok Sanggul No.269, Kec. Dolok sanggul, Kabupaten Tapanuli Utara";"SUMATERA UTARA";"22457";"Indonesia";" 02129707601";"";"";"2.2761908";"98.7445511";"https://maps.google.com/?cid=0x0:0x88a8f4d573e5af8d";""
"hotel";"hotel";"HOTEL  RESTO WATER BOOM ANUGERAH SOAMBATON";"Jl. Muara, Sumatera Utara 22457";"Sumatera Utara";"SUMATERA UTARA";"";"Indonesia";" 082211503439";"";"";"2.319319";"98.8387039";"https://maps.google.com/?cid=0x0:0xc2f685008525fbfb";""
"hotel";"hotel";"Dhaksina Hotel";"Jl. Sisingamangaraja No.20, RT.02/RW.02, Mesjid, Kec. Medan Kota, Kota Medan, Sumatera Utara 20213";"RT.02/RW.02, Mesjid, Kec. Medan Kota, Kota Medan";"SUMATERA UTARA";"20213";"Indonesia";" 0617320000";"";"";"3.5781335";"98.6864112";"https://maps.google.com/?cid=0x0:0x19d68a5c7ad5c8ea";""
"hotel";"hotel";"N/A";"";"";"SUMATERA UTARA";"";"Indonesia";"";"";"";"";"";"https://maps.google.com/?cid=0x0:0x19d68a5c7ad5c8ea%7C/g/1tf91hx5%7Cen-ID";""
"hotel";"hotel";"Kec. Tara bintang";"Kabupaten Humbang Hasundutan, Sumatera Utara";"Kabupaten Humbang Hasundutan, Sumatera Utara";"SUMATERA UTARA";"";"Indonesia";"";"";"";"2.256467";"98.4100744";"https://maps.google.com/?cid=0x0:0xbae2136378964571";""
"hotel";"hotel";"Labersa Hotel  Convention Center Samosir";"Simarmata, Simanindo, Kabupaten Samosir, Sumatera Utara 22395";"Simanindo, Kabupaten Samosir";"SUMATERA UTARA";"22395";"Indonesia";" 08116063555";"";"";"2.7416459";"98.7095258";"https://maps.google.com/?cid=0x0:0x6fd34e6bdf43b7af";""
"hotel";"hotel";"Senior Bakara Hotel";"Jl. Muara, Kabupaten Humbang Hasundutan, Sumatera Utara 22457";"Kabupaten Humbang Hasundutan";"SUMATERA UTARA";"22457";"Indonesia";" 081362268286";"";"";"2.3186427";"98.8351544";"https://maps.google.com/?cid=0x0:0x998c075598393f34";""
"hotel";"hotel";"GRAND TOBA HOTEL";"8b, Napitupulu, Jl. Bukit Barisan No.8A 8B, Kec. Balige, Toba, Sumatera Utara 22312";"Napitupulu, Jl. Bukit Barisan No.8A 8B, Kec. Balige, Toba";"SUMATERA UTARA";"22312";"Indonesia";" 087899988207";"";"";"2.3387256";"99.0631784";"https://maps.google.com/?cid=0x0:0x2d8fb2fd72fd1707";""
"hotel";"hotel";"Toba View Homestay RedPartner";"MVF5+JCP, Jl. Lingkar Tuk, Tuktuk Siadong, Simanindo, Kabupaten Samosir, Sumatera Utara 22395";"Jl. Lingkar Tuk, Tuktuk Siadong, Simanindo, Kabupaten Samosir";"SUMATERA UTARA";"22395";"Indonesia";"";"";"";"2.6740947";"98.8585837";"https://maps.google.com/?cid=0x0:0xf3d365d95c3cbf75";""
"hotel";"Hotel";"Hotel Grand Toba";"Jl. Bukit Barisan No.8A, Tiga Raja, Kec. Girsang Sipangan Bolon, Toba, Sumatera Utara 22312";"Tiga Raja, Kec. Girsang Sipangan Bolon, Toba";"SUMATERA UTARA";"22312";"Indonesia";" 02129707601";"";"";"2.6628792";"98.9336637";"https://maps.google.com/?cid=0x0:0xcacfe3f74822e2a5";""
"hotel";"hotel";"Hotel Silintong";"Tuktuk Siadong, Simanindo, Kabupaten Samosir, Sumatera Utara 22395";"Simanindo, Kabupaten Samosir";"SUMATERA UTARA";"22395";"Indonesia";" 0625451242";"";"";"2.6705399";"98.8615445";"https://maps.google.com/?cid=0x0:0xa1b95ba851f1cb96";""
"hotel";"hotel";"N/A";"";"";"SUMATERA UTARA";"";"Indonesia";"";"";"";"";"";"https://maps.google.com/?cid=0x0:0xa1b95ba851f1cb96%7C/g/11b75j7ntx%7Cen-ID";""
"hotel";"hotel";"Toba Sunset";"Tuktuk Siadong, Simanindo, Kabupaten Samosir, Sumatera Utara";"Kabupaten Samosir, Sumatera Utara";"SUMATERA UTARA";"";"Indonesia";" 081262304284";"";"";"2.672788";"98.8513017";"https://maps.google.com/?cid=0x0:0x21df695475a08999";""
"hotel";"hotel";"Dhaksina Hotel";"Jl. Sisingamangaraja No.20, RT.02/RW.02, Mesjid, Kec. Medan Kota, Kota Medan, Sumatera Utara 20213";"RT.02/RW.02, Mesjid, Kec. Medan Kota, Kota Medan";"SUMATERA UTARA";"20213";"Indonesia";" 0617320000";"";"";"3.5781335";"98.6864112";"https://maps.google.com/?cid=0x0:0x19d68a5c7ad5c8ea";""
"hotel";"hotel";"N/A";"";"";"SUMATERA UTARA";"";"Indonesia";"";"";"";"";"";"https://maps.google.com/?cid=0x0:0x19d68a5c7ad5c8ea%7C/g/1tf91hx5%7Cen-ID";""
"hotel";"hotel";"Hotel Tiga Besar";"Desa Lumban Lintong Jln Lumban Lintong No 3, Pardomuan I, Kec. Pangururan, Kabupaten Samosir, Sumatera Utara 21174";"Pardomuan I, Kec. Pangururan, Kabupaten Samosir";"SUMATERA UTARA";"21174";"Indonesia";" 081378468987";"";"";"2.6048034";"98.7010938";"https://maps.google.com/?cid=0x0:0xf54a69cc03364b35";""
"hotel";"Guest house";"Merlyn Acc";"MVC2+GJM, Tuktuk Siadong, Simanindo, Kabupaten Samosir, Sumatera Utara";"Kabupaten Samosir, Sumatera Utara";"SUMATERA UTARA";"";"Indonesia";" 0625451052";"";"";"2.671327";"98.851547";"https://maps.google.com/?cid=0x0:0xaaff6f46f0f0c89c";""
"hotel";"hotel";"Hotel Martabe";"Jl. Pemuda Jl. Dolok Sanggul - Sidikalang, Bonani Onan, Kec. Dolok sanggul, Kabupaten Humbang Hasundutan, Sumatera Utara 22457";"Bonani Onan, Kec. Dolok sanggul, Kabupaten Humbang Hasundutan";"SUMATERA UTARA";"22457";"Indonesia";" 081397058559";"";"";"2.258287";"98.747028";"https://maps.google.com/?cid=0x0:0xfba3690db4b336f6";""
"hotel";"hotel";"Arirang27 Homestay";"Jl. Bandara Silangit No.27 Pintu 2, Parik Sabungan, Kec. Siborongborong, Kabupaten Tapanuli Utara, Sumatera Utara 22476";"Parik Sabungan, Kec. Siborongborong, Kabupaten Tapanuli Utara";"SUMATERA UTARA";"22476";"Indonesia";" 085156500885";"";"";"2.2633199";"98.9892556";"https://maps.google.com/?cid=0x0:0xc6f6c3e89459349f";""
"hotel";"hotel";"Penginapan Rapuli Sinaga";"5F2G+V8F, Pakkat Hauagong, Kec. Pakkat, Kabupaten Humbang Hasundutan, Sumatera Utara 22455";"Pakkat Hauagong, Kec. Pakkat, Kabupaten Humbang Hasundutan";"SUMATERA UTARA";"22455";"Indonesia";" 081384439804";"";"";"2.1521958";"98.4757855";"https://maps.google.com/?cid=0x0:0xd2c66ff5ddb1428b";""
"restaurant";"restaurant";"Kec. Bakti Raja";"Kabupaten Humbang Hasundutan, Sumatera Utara";"Kabupaten Humbang Hasundutan, Sumatera Utara";"SUMATERA UTARA";"";"Indonesia";"";"";"";"2.3235404";"98.8207391";"https://maps.google.com/?cid=0x0:0x475a50a12c00c787";""
"restaurant";"Ikan Bakar";"Tipang Mas Restoran";"Tipang, Kec. Bakti Raja, Kabupaten Humbang Hasundutan, Sumatera Utara 22457";"Kec. Bakti Raja, Kabupaten Humbang Hasundutan";"SUMATERA UTARA";"22457";"Indonesia";" 081265855225";"";"";"2.3518783";"98.8207876";"https://maps.google.com/?cid=0x0:0x556d65f12c33b0c6";""
"restaurant";"Ikan Bakar";"Restoran Batu Gajah Tipang";"Marbun Toruan, Kec. Bakti Raja, Kabupaten Humbang Hasundutan, Sumatera Utara 22457";"Kec. Bakti Raja, Kabupaten Humbang Hasundutan";"SUMATERA UTARA";"22457";"Indonesia";"";"";"";"2.3460467";"98.8162551";"https://maps.google.com/?cid=0x0:0xae6a3584d1f84250";""
"restaurant";"Rumah Makan";"Resto Sosor Tukkup Nauli";"8R9Q+QX5, Simangulampe, Kec. Bakti Raja, Kabupaten Humbang Hasundutan, Sumatera Utara 22457";"Simangulampe, Kec. Bakti Raja, Kabupaten Humbang Hasundutan";"SUMATERA UTARA";"22457";"Indonesia";" 081361562992";"";"";"2.3193907";"98.8399753";"https://maps.google.com/?cid=0x0:0x337f8e31c99f5df6";""
"restaurant";"Padang";"RM Cristin Valentin";"8RQ8+Q75 Depan Air Terjun Janji, Marbun Toruan, Bakti Raja, Humbang Hasundutan Regency, North Sumatra 22457";"Marbun Toruan, Bakti Raja, Humbang Hasundutan Regency";"SUMATERA UTARA";"22457";"Indonesia";"";"";"";"2.339376";"98.8157322";"https://maps.google.com/?cid=0x0:0x1a5eda26a95b3575";""
"restaurant";"Kafe";"Rosa Richvia";"Simangulampe, Kec. Bakti Raja, Kabupaten Humbang Hasundutan, Sumatera Utara 22457";"Kec. Bakti Raja, Kabupaten Humbang Hasundutan";"SUMATERA UTARA";"22457";"Indonesia";" 082179536831";"";"";"2.3194815";"98.8378336";"https://maps.google.com/?cid=0x0:0xf267dee1629537aa";""
"restaurant";"Restoran";"Desa Holbung Goting sitiotioaa";"9RF7+5V5, Janji Raja, Kec. Sitio-Tio, Kabupaten Humbang Hasundutan, Sumatera Utara 22395";"Janji Raja, Kec. Sitio-Tio, Kabupaten Humbang Hasundutan";"SUMATERA UTARA";"22395";"Indonesia";"";"";"";"2.3728908";"98.8147423";"https://maps.google.com/?cid=0x0:0xe95b21e96b6b65c3";""
"restaurant";"Ikan Bakar";"Sopo mora nauli Tipang";"Jln sipiwan, Tipang, Kec. Bakti Raja, Humbahas, Sumatera Utara 22457";"Tipang, Kec. Bakti Raja, Humbahas";"SUMATERA UTARA";"22457";"Indonesia";"";"";"";"2.3493255";"98.8160092";"https://maps.google.com/?cid=0x0:0x3c23f015675319cb";""
"restaurant";"Mi";"Bakmi Munthe";"8R47+XJG, Lumban raja, Simamora, Kec. Bakti Raja, Kabupaten Humbang Hasundutan";"Kabupaten Humbang Hasundutan, Sumatera Utara";"SUMATERA UTARA";"";"Indonesia";" 082277724871";"";"";"2.3074256";"98.8140702";"https://maps.google.com/?cid=0x0:0x4ad57675836efe43";""
"restaurant";"Restoran";"KR. SIPINSUR RESTO  HOMESTAY";"Parulohan, Kec. Lintong Nihuta, Kabupaten Humbang Hasundutan, Sumatera Utara 22476";"Kec. Lintong Nihuta, Kabupaten Humbang Hasundutan";"SUMATERA UTARA";"22476";"Indonesia";" 081378783633";"";"";"2.3270286";"98.8798922";"https://maps.google.com/?cid=0x0:0x308572c370c5bb3d";""
"restaurant";"Rumah Makan";"BPK Ginting";"8RFC+MG4, Sinambela, Kec. Bakti Raja, Kabupaten Humbang Hasundutan, Sumatera Utara 22457";"Sinambela, Kec. Bakti Raja, Kabupaten Humbang Hasundutan";"SUMATERA UTARA";"22457";"Indonesia";"";"";"";"2.3240776";"98.8213169";"https://maps.google.com/?cid=0x0:0x5e28bcae3f0b8ef6";""
"restaurant";"Toko umum";"Menjual minuman tuakaren";"8R69+87H, Jl. Sisingamangaraja, Sinambela, Kec. Bakti Raja, Kabupaten Humbang Hasundutan, Sumatera Utara 22457";"Jl. Sisingamangaraja, Sinambela, Kec. Bakti Raja, Kabupaten Humbang Hasundutan";"SUMATERA UTARA";"22457";"Indonesia";"";"";"";"2.3108179";"98.8182288";"https://maps.google.com/?cid=0x0:0xcbdd8c4886ec3d53";""
"restaurant";"Rumah berlibur";"RM Michael Marbun dan Home Stay";"8RCH+CJ6, Pulau Sumatera, Sumatera Utara 22457";"Pulau Sumatera";"SUMATERA UTARA";"22457";"Indonesia";" 082276083408";"";"";"2.3210482";"98.8290026";"https://maps.google.com/?cid=0x0:0x432867c894cb7df";""
"restaurant";"Tujuan Wisata";"Air Terjun Janji";"Tipang, Kec. Bakti Raja, Kabupaten Humbang Hasundutan, Sumatera Utara 22457";"Kec. Bakti Raja, Kabupaten Humbang Hasundutan";"SUMATERA UTARA";"22457";"Indonesia";"";"";"";"2.339422";"98.8157783";"https://maps.google.com/?cid=0x0:0x35989309af20d587";""
"restaurant";"Rumah Makan";"WARUNG WAHYU";"Jln.prof.Dr.KP No.Tarnama.66, Sinambela, Kec. Bakti Raja, Kabupaten Humbang Hasundutan, Sumatera Utara 22457";"Sinambela, Kec. Bakti Raja, Kabupaten Humbang Hasundutan";"SUMATERA UTARA";"22457";"Indonesia";"";"";"";"2.3154358";"98.8211161";"https://maps.google.com/?cid=0x0:0xa4ed9fe7831a5dea";""
"restaurant";"Kedai Kopi";"STN CAFFE";"8RCF+CC6, Sinambela, Kec. Bakti Raja, Kabupaten Humbang Hasundutan, Sumatera Utara";"Kabupaten Humbang Hasundutan, Sumatera Utara";"SUMATERA UTARA";"";"Indonesia";" 081289463330";"";"";"2.3210348";"98.8235195";"https://maps.google.com/?cid=0x0:0x1003afafbc96b226";""
"restaurant";"Tujuan Wisata";"Water fall of Janji";"8RQ8+Q2M, Unnamed Road, Marbun Toruan, Kec. Bakti Raja, Kabupaten Humbang Hasundutan, Sumatera Utara 22457";"Unnamed Road, Marbun Toruan, Kec. Bakti Raja, Kabupaten Humbang Hasundutan";"SUMATERA UTARA";"22457";"Indonesia";"";"";"";"2.3394684";"98.8150487";"https://maps.google.com/?cid=0x0:0x63c194141ca8ac6b";""
"restaurant";"Kedai Kopi";"Warung kopi silaban";"9R57+HG5, Tipang, Kec. Bakti Raja, Kabupaten Humbang Hasundutan, Sumatera Utara 22457";"Tipang, Kec. Bakti Raja, Kabupaten Humbang Hasundutan";"SUMATERA UTARA";"22457";"Indonesia";"";"";"";"2.3588981";"98.8138719";"https://maps.google.com/?cid=0x0:0x6928fa167af4ba90";""
"restaurant";"restaurant";"Senior Bakara Hotel";"Jl. Muara, Kabupaten Humbang Hasundutan, Sumatera Utara 22457";"Kabupaten Humbang Hasundutan";"SUMATERA UTARA";"22457";"Indonesia";" 081362268286";"";"";"2.3186427";"98.8351544";"https://maps.google.com/?cid=0x0:0x998c075598393f34";""
"restaurant";"restaurant";"N/A";"";"";"SUMATERA UTARA";"";"Indonesia";"";"";"";"";"";"https://maps.google.com/?cid=0x0:0x998c075598393f34%7C/g/11jjqhgk78%7Cen-ID";""
"restaurant";"restaurant";"Coffee Hotel Ayola Dolok Sanggul";"Jl. Dolok Sanggul - Siborong - Borong, Pakkat, Kec. Dolok sanggul, Kabupaten Humbang Hasundutan, Sumatera Utara 22457";"Pakkat, Kec. Dolok sanggul, Kabupaten Humbang Hasundutan";"SUMATERA UTARA";"22457";"Indonesia";" 06333211396";"";"";"2.2608434";"98.7903237";"https://maps.google.com/?cid=0x0:0xbc95c1f2fbec6208";""
"restaurant";"Tujuan Wisata";"Geosite Sipinsur";"Parulohan, Kec. Paranginan, Kabupaten Humbang Hasundutan, Sumatera Utara 22476";"Kec. Paranginan, Kabupaten Humbang Hasundutan";"SUMATERA UTARA";"22476";"Indonesia";"";"";"";"2.3291448";"98.8813939";"https://maps.google.com/?cid=0x0:0x47ffc29f2eb0d3e1";""
"restaurant";"Kedai Kopi";"Jalan patuan nagari sandarobot";"9R47+9VM, Tipang, Kec. Bakti Raja, Kabupaten Humbang Hasundutan, Sumatera Utara 22457";"Tipang, Kec. Bakti Raja, Kabupaten Humbang Hasundutan";"SUMATERA UTARA";"22457";"Indonesia";"";"";"";"2.3559672";"98.8146565";"https://maps.google.com/?cid=0x0:0x372fd706b8cd1f33";""
"restaurant";"Padang";"Rumah Makan Tapian Nadenggan";"7P5X+767, Ps. Dolok Sanggul, Kec. Dolok sanggul, Kabupaten Humbang Hasundutan, Sumatera Utara 22457";"Ps. Dolok Sanggul, Kec. Dolok sanggul, Kabupaten Humbang Hasundutan";"SUMATERA UTARA";"22457";"Indonesia";" 081275645406";"";"";"2.2581714";"98.7480511";"https://maps.google.com/?cid=0x0:0x4379f47a21ccefb8";""
"restaurant";"restaurant";"HOTEL  RESTO WATER BOOM ANUGERAH SOAMBATON";"Jl. Muara, Sumatera Utara 22457";"Sumatera Utara";"SUMATERA UTARA";"";"Indonesia";" 082211503439";"";"";"2.319319";"98.8387039";"https://maps.google.com/?cid=0x0:0xc2f685008525fbfb";""
"restaurant";"Tujuan Wisata";"Onan Bakkara";"8RGF+G5J, Sinambela, Kec. Bakti Raja, Kabupaten Humbang Hasundutan, Sumatera Utara 22457";"Sinambela, Kec. Bakti Raja, Kabupaten Humbang Hasundutan";"SUMATERA UTARA";"22457";"Indonesia";"";"";"";"2.3263482";"98.8228858";"https://maps.google.com/?cid=0x0:0xac025e5cb7df3878";""
"restaurant";"Tujuan Wisata";"Gonting Tipang";"9RC8+V57, Tipang, Kec. Bakti Raja, Kabupaten Humbang Hasundutan, Sumatera Utara 22395";"Tipang, Kec. Bakti Raja, Kabupaten Humbang Hasundutan";"SUMATERA UTARA";"22395";"Indonesia";"";"";"";"2.3721664";"98.8154127";"https://maps.google.com/?cid=0x0:0x4778487c299d1989";""
"restaurant";"Kafe";"Tondongta Cafe  Resto";"Jl. Letkol. G.A. Manullang No.89, Ps. Dolok Sanggul, Kec. Dolok sanggul, Kabupaten Humbang Hasundutan, Sumatera Utara 22457";"Ps. Dolok Sanggul, Kec. Dolok sanggul, Kabupaten Humbang Hasundutan";"SUMATERA UTARA";"22457";"Indonesia";" 082167685826";"";"";"2.2564262";"98.7486443";"https://maps.google.com/?cid=0x0:0xb2ce3dde36efec1d";""
"restaurant";"restaurant";"Dolok Sanggul";"Lumban Tobing, Kec. Dolok sanggul, Kabupaten Humbang Hasundutan, Sumatera Utara";"Kabupaten Humbang Hasundutan, Sumatera Utara";"SUMATERA UTARA";"";"Indonesia";"";"";"";"2.251991";"98.7485729";"https://maps.google.com/?cid=0x0:0x7f53fc623c00d824";""
"restaurant";"Padang";"Rumah Makan Tapian Nadenggan";"7P5X+767, Ps. Dolok Sanggul, Kec. Dolok sanggul, Kabupaten Humbang Hasundutan, Sumatera Utara 22457";"Ps. Dolok Sanggul, Kec. Dolok sanggul, Kabupaten Humbang Hasundutan";"SUMATERA UTARA";"22457";"Indonesia";" 081275645406";"";"";"2.2581714";"98.7480511";"https://maps.google.com/?cid=0x0:0x4379f47a21ccefb8";""
"restaurant";"Rumah Makan";"RM Islam Sibundong";"Jalan Lintas Dolok Sanggul Simpang 4 Jalan Lintas Dolok Sanggul Simarsasar, Jl. Lintas Dolok Sanggul, Siabaksa, Kabupaten Humbang Hasundutan, Sumatera Utara 22457";"Jl. Lintas Dolok Sanggul, Siabaksa, Kabupaten Humbang Hasundutan";"SUMATERA UTARA";"22457";"Indonesia";" 082160335243";"";"";"2.2586696";"98.7481514";"https://maps.google.com/?cid=0x0:0xcc2f3d2be30cf544";""
"restaurant";"Restoran";"RM PUTRA PRIBUMI (DAGING KUDA) / PRIMATADOS HERBAL";"Jl.Doloksanggul - Sidikalang, Bonani Onan, Doloksanggul, Bonani Onan, Kec. Dolok sanggul, Kabupaten Humbang Hasundutan, Sumatera Utara 22457";"Bonani Onan, Doloksanggul, Bonani Onan, Kec. Dolok sanggul, Kabupaten Humbang Hasundutan";"SUMATERA UTARA";"22457";"Indonesia";" 082168302819";"";"";"2.2659119";"98.7463453";"https://maps.google.com/?cid=0x0:0xffe4f91395397e09";""
"restaurant";"Rumah Makan";"RM Putri Pribumi Jagal Hoda";"7P4X+RC2, Jl. Letkol GA, Manullang, Kec. Dolok sanggul, Kabupaten Humbang Hasundutan, Sumatera Utara 22457";"Jl. Letkol GA, Manullang, Kec. Dolok sanggul, Kabupaten Humbang Hasundutan";"SUMATERA UTARA";"22457";"Indonesia";" 081381673929";"";"";"2.2570088";"98.748523";"https://maps.google.com/?cid=0x0:0x11f32c8a9b94a045";""
"restaurant";"Rumah Makan";"Rumah Makan Pagaruyuang";"7Q75+7JC, Pasaribu, Kec. Dolok sanggul, Kabupaten Humbang Hasundutan, Sumatera Utara 22457";"Pasaribu, Kec. Dolok sanggul, Kabupaten Humbang Hasundutan";"SUMATERA UTARA";"22457";"Indonesia";" 081362407428";"";"";"2.2631911";"98.7590226";"https://maps.google.com/?cid=0x0:0x31c565ffce4e3af4";""
"restaurant";"Padang";"Padang Sidempuan";"7P2X+QCW, Lumban Tobing, Kec. Dolok sanggul, Kabupaten Humbang Hasundutan, Sumatera Utara 22457";"Lumban Tobing, Kec. Dolok sanggul, Kabupaten Humbang Hasundutan";"SUMATERA UTARA";"22457";"Indonesia";" 085260188806";"";"";"2.251991";"98.7485729";"https://maps.google.com/?cid=0x0:0xffc262398cbaec64";""
"restaurant";"Restoran";"Delicious Burger";"7P5X+XVR, Jl. Melanthon Siregar, Ps. Dolok Sanggul, Kec. Dolok sanggul, Kabupaten Humbang Hasundutan, Sumatera Utara 22457";"Jl. Melanthon Siregar, Ps. Dolok Sanggul, Kec. Dolok sanggul, Kabupaten Humbang Hasundutan";"SUMATERA UTARA";"22457";"Indonesia";"";"";"";"2.2599771";"98.7496434";"https://maps.google.com/?cid=0x0:0x968ade00d59acdf4";""
"restaurant";"Ayam Goreng";"SS FRIED CHICKEN DOLOK SANGGUL";"Jl. Merdeka, Pasaribu, Kec. Dolok sanggul, Kabupaten Humbang Hasundutan, Sumatera Utara 22457";"Pasaribu, Kec. Dolok sanggul, Kabupaten Humbang Hasundutan";"SUMATERA UTARA";"22457";"Indonesia";" 081360756671";"";"";"2.2604452";"98.7551835";"https://maps.google.com/?cid=0x0:0x1c5429effbc46260";""
"restaurant";"Restoran";"SATE ABANG ADEK DOLOK SANGGUL";"Jl. Siliwangi No.49A, Ps. Dolok Sanggul, Kec. Dolok sanggul, Kabupaten Humbang Hasundutan, Sumatera Utara 22457";"Ps. Dolok Sanggul, Kec. Dolok sanggul, Kabupaten Humbang Hasundutan";"SUMATERA UTARA";"22457";"Indonesia";" 082276167263";"";"";"2.2601829";"98.7473853";"https://maps.google.com/?cid=0x0:0x6987a5a877b615f3";""
"restaurant";"Grosir Kopi";"Ondo lintong Coffee";"Nagasaribu I, Kec. Lintong Nihuta, Kabupaten Humbang Hasundutan, Sumatera Utara 22475";"Kec. Lintong Nihuta, Kabupaten Humbang Hasundutan";"SUMATERA UTARA";"22475";"Indonesia";" 082287447180";"";"";"2.248996";"98.8998766";"https://maps.google.com/?cid=0x0:0x5af9eb381a5b24e0";""
"restaurant";"restaurant";"Sumatera Utara 22475";"Sumatera Utara";"Sumatera Utara";"SUMATERA UTARA";"";"Indonesia";"";"";"";"2.2166172";"98.8583309";"https://maps.google.com/?cid=0x0:0x3a0c9f067ea87dcb";""
"restaurant";"Padang";"Rm. Nyala Warnol";"7VG8+2G4, Pasar baru, Kec. Lintong Nihuta, Kabupaten Humbang Hasundutan, Sumatera Utara 22475";"Pasar baru, Kec. Lintong Nihuta, Kabupaten Humbang Hasundutan";"SUMATERA UTARA";"22475";"Indonesia";" 081377358305";"";"";"2.27501";"98.8663383";"https://maps.google.com/?cid=0x0:0xc19180923559dee3";""
"restaurant";"Restoran";"Resto Mak Yus new";"Jl. Dolok Sanggul - Siborong - Borong No.49, Pargaulan, Kec. Lintong Nihuta, Kabupaten Humbang Hasundutan, Sumatera Utara 22475";"Pargaulan, Kec. Lintong Nihuta, Kabupaten Humbang Hasundutan";"SUMATERA UTARA";"22475";"Indonesia";"";"";"";"2.2623104";"98.8617291";"https://maps.google.com/?cid=0x0:0xdb62e4386c169305";""
"restaurant";"Padang";"Rumah Makan Gelora";"no.2 pasar baru, Jl. Sisingamangaraja, Sitolu Bahal, Kec. Lintong Nihuta, Kabupaten Humbang Hasundutan, Sumatera Utara 22475";"Jl. Sisingamangaraja, Sitolu Bahal, Kec. Lintong Nihuta, Kabupaten Humbang Hasundutan";"SUMATERA UTARA";"22475";"Indonesia";"";"";"";"2.2762054";"98.8671054";"https://maps.google.com/?cid=0x0:0x873fb78d687b00af";""
"restaurant";"Batak";"Rumah Makan Lapo Siregar Boru Hombing";"7VH9+476, Sitolu Bahal, Kec. Lintong Nihuta, Kabupaten Humbang Hasundutan, Sumatera Utara 22475";"Sitolu Bahal, Kec. Lintong Nihuta, Kabupaten Humbang Hasundutan";"SUMATERA UTARA";"22475";"Indonesia";" 085373128954";"";"";"2.2777884";"98.8681378";"https://maps.google.com/?cid=0x0:0x7c2b0fe90dbb8e1a";""
"restaurant";"Restoran";"Rumah makan silindung";"Jl. Dolok Sanggul - Siborong - Borong No.52, Pargaulan, Kec. Lintong Nihuta, Kabupaten Humbang Hasundutan, Sumatera Utara 22475";"Pargaulan, Kec. Lintong Nihuta, Kabupaten Humbang Hasundutan";"SUMATERA UTARA";"22475";"Indonesia";" 082297330719";"";"";"2.2616009";"98.8650107";"https://maps.google.com/?cid=0x0:0x28b82bc2fb0b4ef0";""
"restaurant";"Rumah Makan";"RUMAH MAKAN MUSLIM RESTU";"Sigompul, Manna, Jl. Jend. Sudirman, Pargaulan, Kec. Lintong Nihuta, Kabupaten Humbang Hasundutan, Sumatera Utara 22475";"Manna, Jl. Jend. Sudirman, Pargaulan, Kec. Lintong Nihuta, Kabupaten Humbang Hasundutan";"SUMATERA UTARA";"22475";"Indonesia";"";"";"";"2.2576598";"98.8772002";"https://maps.google.com/?cid=0x0:0x3de654a2415db7a0";""
"restaurant";"Rumah Makan";"BPK PINEM PARGAULAN";"Jl. Dolok Sanggul - Siborong - Borong No.2, Pargaulan, Kec. Lintong Nihuta, Kabupaten Humbang Hasundutan, Sumatera Utara 22475";"Pargaulan, Kec. Lintong Nihuta, Kabupaten Humbang Hasundutan";"SUMATERA UTARA";"22475";"Indonesia";"";"";"";"2.2626016";"98.8592392";"https://maps.google.com/?cid=0x0:0xb9f86e80f852b3c4";""
"restaurant";"Mi";"Warung Bakmie Kopi Tiam,chinnese Food";"Jl. Datu Lobi No.11, Sitolu Bahal, Kec. Lintong Nihuta, Kabupaten Humbang Hasundutan, Sumatera Utara 22475";"Sitolu Bahal, Kec. Lintong Nihuta, Kabupaten Humbang Hasundutan";"SUMATERA UTARA";"22475";"Indonesia";" 081260722256";"";"";"2.2762147";"98.8665318";"https://maps.google.com/?cid=0x0:0x9f720775db6bba64";""
"restaurant";"Rumah Makan";"Rm Parulian";"7R58+774, Dolok Margu, Kec. Lintong Nihuta, Kabupaten Humbang Hasundutan, Sumatera Utara 22475";"Dolok Margu, Kec. Lintong Nihuta, Kabupaten Humbang Hasundutan";"SUMATERA UTARA";"22475";"Indonesia";"";"";"";"2.258145";"98.815704";"https://maps.google.com/?cid=0x0:0xe73c463b0cd596e8";""
"restaurant";"Restoran";"RM BPK Malrm Ras";"6WV8+5XF, Nagasaribu II, Kec. Lintong Nihuta, Kabupaten Humbang Hasundutan, Sumatera Utara 22475";"Nagasaribu II, Kec. Lintong Nihuta, Kabupaten Humbang Hasundutan";"SUMATERA UTARA";"22475";"Indonesia";"";"";"";"2.242942";"98.9174155";"https://maps.google.com/?cid=0x0:0xc7cdd655b4a765aa";""
"restaurant";"Batak";"Rumah Makan Khas Batak Lastio";"7Q5W+QMQ, Dolok Margu, Kec. Lintong Nihuta, Kabupaten Humbang Hasundutan, Sumatera Utara 22457";"Dolok Margu, Kec. Lintong Nihuta, Kabupaten Humbang Hasundutan";"SUMATERA UTARA";"22457";"Indonesia";"";"";"";"2.2594612";"98.796729";"https://maps.google.com/?cid=0x0:0xae29516353bdbbf6";""
"restaurant";"Restoran";"M18 Coffee";"Nagasaribu I, Kec. Lintong Nihuta, Kabupaten Humbang Hasundutan, Sumatera Utara 22475";"Kec. Lintong Nihuta, Kabupaten Humbang Hasundutan";"SUMATERA UTARA";"22475";"Indonesia";"";"";"";"2.2382203";"98.9052192";"https://maps.google.com/?cid=0x0:0x8e192ef20ae61964";""
"restaurant";"Padang";"Ajo Naya Masakan Padang";"7VF7+692, Jl. Sisingamangaraja, Pargaulan, Kec. Lintong Nihuta, Kabupaten Humbang Hasundutan, Sumatera Utara 22475";"Jl. Sisingamangaraja, Pargaulan, Kec. Lintong Nihuta, Kabupaten Humbang Hasundutan";"SUMATERA UTARA";"22475";"Indonesia";"";"";"";"2.2730239";"98.8634048";"https://maps.google.com/?cid=0x0:0x547ba5936a47e69a";""
"restaurant";"Mi";"Borja bakmie";"Jl. Sisingamangaraja No.111, Sibuntuon Parpea, Kec. Lintong Nihuta, Kabupaten Humbang Hasundutan, Sumatera Utara 22475";"Sibuntuon Parpea, Kec. Lintong Nihuta, Kabupaten Humbang Hasundutan";"SUMATERA UTARA";"22475";"Indonesia";" 081362379240";"";"";"2.2875496";"98.8737486";"https://maps.google.com/?cid=0x0:0xbaa3010ebddc80d5";""
"restaurant";"Restoran";"Cafe Live Music";"6WV8+79C, Nagasaribu II, Kec. Lintong Nihuta, Kabupaten Humbang Hasundutan, Sumatera Utara 22475";"Nagasaribu II, Kec. Lintong Nihuta, Kabupaten Humbang Hasundutan";"SUMATERA UTARA";"22475";"Indonesia";" 081200000011";"";"";"2.2431821";"98.9159045";"https://maps.google.com/?cid=0x0:0xcba5f08537690920";""
"restaurant";"Ayam";"Ayam penyet Medan";"Jl. Sisingamangaraja No.33, ps. baru, Kec. Lintong Nihuta, Kabupaten Humbang Hasundutan, Sumatera Utara 22475";"ps. baru, Kec. Lintong Nihuta, Kabupaten Humbang Hasundutan";"SUMATERA UTARA";"22475";"Indonesia";" 085262235060";"";"";"2.264509";"98.8615315";"https://maps.google.com/?cid=0x0:0x5721eaf2fd195b07";""
"restaurant";"restaurant";"Kec. Lintong Nihuta";"Kabupaten Humbang Hasundutan, Sumatera Utara";"Kabupaten Humbang Hasundutan, Sumatera Utara";"SUMATERA UTARA";"";"Indonesia";"";"";"";"2.2725575";"98.8627702";"https://maps.google.com/?cid=0x0:0x4039d80b2211060";""
"restaurant";"Restoran";"Manna Coffee and resto";"7VG8+5JC, Jl. Sisingamangaraja, Sitolu Bahal, Kec. Lintong Nihuta, Kabupaten Humbang Hasundutan, Sumatera Utara 22475";"Jl. Sisingamangaraja, Sitolu Bahal, Kec. Lintong Nihuta, Kabupaten Humbang Hasundutan";"SUMATERA UTARA";"22475";"Indonesia";"";"";"";"2.2754845";"98.8665401";"https://maps.google.com/?cid=0x0:0x9841ccfdafb1cad";""
"restaurant";"Restoran";"JUSTYN RESTO";"7VF7+HVQ, Jl. Sisingamangaraja, Pargaulan, Kec. Lintong Nihuta, Kabupaten Humbang Hasundutan, Sumatera Utara 22475";"Jl. Sisingamangaraja, Pargaulan, Kec. Lintong Nihuta, Kabupaten Humbang Hasundutan";"SUMATERA UTARA";"22475";"Indonesia";"";"";"";"2.2739734";"98.8647267";"https://maps.google.com/?cid=0x0:0x68fcc68557a557cd";""
"restaurant";"Restoran";"Fast Food Restaurant";"Jl. Sisingamangaraja No.56 dusun II, Pargaulan, Kec. Lintong Nihuta, Kabupaten Humbang Hasundutan, Sumatera Utara 22475";"Pargaulan, Kec. Lintong Nihuta, Kabupaten Humbang Hasundutan";"SUMATERA UTARA";"22475";"Indonesia";"";"";"";"2.2757825";"98.8668062";"https://maps.google.com/?cid=0x0:0x25138ef22d6213bb";""
"restaurant";"Restoran";"Warung Haris";"7VH9+FJ7, Jl. Sisingamangaraja, Sibuntuon Parpea, Kec. Lintong Nihuta, Kabupaten Humbang Hasundutan, Sumatera Utara 22475";"Jl. Sisingamangaraja, Sibuntuon Parpea, Kec. Lintong Nihuta, Kabupaten Humbang Hasundutan";"SUMATERA UTARA";"22475";"Indonesia";"";"";"";"2.2786666";"98.8690467";"https://maps.google.com/?cid=0x0:0xeed5d09b85b7a406";""
"restaurant";"Restoran";"KR. SIPINSUR RESTO  HOMESTAY";"Parulohan, Kec. Lintong Nihuta, Kabupaten Humbang Hasundutan, Sumatera Utara 22476";"Kec. Lintong Nihuta, Kabupaten Humbang Hasundutan";"SUMATERA UTARA";"22476";"Indonesia";" 081378783633";"";"";"2.3270286";"98.8798922";"https://maps.google.com/?cid=0x0:0x308572c370c5bb3d";""
"restaurant";"Kedai Kopi";"KEDAI SERAPAN SIHITE";"Jl. Sisingamangaraja No.7, Pargaulan, Kec. Lintong Nihuta, Kabupaten Humbang Hasundutan, Sumatera Utara 22475";"Pargaulan, Kec. Lintong Nihuta, Kabupaten Humbang Hasundutan";"SUMATERA UTARA";"22475";"Indonesia";" 081383828177";"";"";"2.2631544";"98.861925";"https://maps.google.com/?cid=0x0:0xec018a70a126a58b";""
"restaurant";"Rumah Makan";"RM Hot Parlindungan";"Onan Ganjang, Kec. Onan Ganjang, Kabupaten Humbang Hasundutan, Sumatera Utara 22454";"Kec. Onan Ganjang, Kabupaten Humbang Hasundutan";"SUMATERA UTARA";"22454";"Indonesia";" 082273328573";"";"";"2.1620482";"98.6302653";"https://maps.google.com/?cid=0x0:0xd061cce5f6406e31";""
"restaurant";"Bakso";"Kedai Mie Ayam  Bakso Sunda";"Jl. Pakkat - Dolok Sanggul, Parbotihan, Kec. Onan Ganjang, Kabupaten Humbang Hasundutan, Sumatera Utara 22454";"Parbotihan, Kec. Onan Ganjang, Kabupaten Humbang Hasundutan";"SUMATERA UTARA";"22454";"Indonesia";" 085762348867";"";"";"2.1372592";"98.6066436";"https://maps.google.com/?cid=0x0:0x5ce7f43ce904e03e";""
"restaurant";"restaurant";"Onan Ganjang";"Kec. Onan Ganjang, Kabupaten Humbang Hasundutan, Sumatera Utara";"Kabupaten Humbang Hasundutan, Sumatera Utara";"SUMATERA UTARA";"";"Indonesia";"";"";"";"2.1523331";"98.6298119";"https://maps.google.com/?cid=0x0:0x5b19fc0bdff0c0f3";""
"restaurant";"Grosir Kopi";"4LUCK COFFEE Onan Ganjang";"Jl.Sisingamangaraja No.100, Onan Ganjang, Kec. Onan Ganjang, Kabupaten Humbang Hasundutan, Sumatera Utara 22454";"Onan Ganjang, Kec. Onan Ganjang, Kabupaten Humbang Hasundutan";"SUMATERA UTARA";"22454";"Indonesia";" 085376409010";"";"";"2.1555416";"98.6295105";"https://maps.google.com/?cid=0x0:0x966700935de2431e";""
"restaurant";"Rumah Makan";"warung makan FEBRINY";"5J4H+9RH, Onan Ganjang, Kec. Onan Ganjang, Kabupaten Humbang Hasundutan, Sumatera Utara 22454";"Onan Ganjang, Kec. Onan Ganjang, Kabupaten Humbang Hasundutan";"SUMATERA UTARA";"22454";"Indonesia";"";"";"";"2.1559398";"98.629625";"https://maps.google.com/?cid=0x0:0x6e920d01cbb8d55e";""
"restaurant";"Restoran";"Rumah Makan BPK NOVI";"4JQ7+F57, Parbotihan, Kec. Onan Ganjang, Kabupaten Humbang Hasundutan, Sumatera Utara 22454";"Parbotihan, Kec. Onan Ganjang, Kabupaten Humbang Hasundutan";"SUMATERA UTARA";"22454";"Indonesia";"";"";"";"2.1386531";"98.6129165";"https://maps.google.com/?cid=0x0:0x364a844075a29df9";""
"restaurant";"Kafe";"Basecamp Lapo";"Janji Bagi Sang, Jalan, Onan Ganjang, Humbang Hasundutan Regency, North Sumatra 22454";"Jalan, Onan Ganjang, Humbang Hasundutan Regency";"SUMATERA UTARA";"22454";"Indonesia";"";"";"";"2.1527734";"98.629405";"https://maps.google.com/?cid=0x0:0x7d420b3ded148867";""
"restaurant";"Penginapan";"Sampetua";"4JVC+87G, Jl. Pakkat - Dolok Sanggul, Onan Ganjang, Kec. Onan Ganjang, Kabupaten Humbang Hasundutan, Sumatera Utara 22454";"Jl. Pakkat - Dolok Sanggul, Onan Ganjang, Kec. Onan Ganjang, Kabupaten Humbang Hasundutan";"SUMATERA UTARA";"22454";"Indonesia";"";"";"";"2.1433174";"98.6207025";"https://maps.google.com/?cid=0x0:0xb70c60ab959b74fc";""
"restaurant";"Sekolah";"LAPO TIBO";"5J4M+962, Onan Ganjang, Kec. Onan Ganjang, Kabupaten Humbang Hasundutan, Sumatera Utara 22454";"Onan Ganjang, Kec. Onan Ganjang, Kabupaten Humbang Hasundutan";"SUMATERA UTARA";"22454";"Indonesia";"";"";"";"2.155897";"98.633003";"https://maps.google.com/?cid=0x0:0x39da98d1a7fd9fcb";""
"restaurant";"";"WARKOP PAK SUNARDI";"5J3H+MRM, Unnamed Road, Onan Ganjang, Kec. Onan Ganjang, Kabupaten Humbang Hasundutan, Sumatera Utara 22454";"Unnamed Road, Onan Ganjang, Kec. Onan Ganjang, Kabupaten Humbang Hasundutan";"SUMATERA UTARA";"22454";"Indonesia";" 081376533819";"";"";"2.1542063";"98.6295506";"https://maps.google.com/?cid=0x0:0xcae8449b2b342b64";""
"restaurant";"Restoran";"DADI PANGGANG";"4JQ7+P4Q, Jl. Pakkat - Dolok Sanggul, Onan Ganjang, Kec. Onan Ganjang, Kabupaten Humbang Hasundutan, Sumatera Utara 22454";"Jl. Pakkat - Dolok Sanggul, Onan Ganjang, Kec. Onan Ganjang, Kabupaten Humbang Hasundutan";"SUMATERA UTARA";"22454";"Indonesia";"";"";"";"2.139344";"98.6128641";"https://maps.google.com/?cid=0x0:0x640d1f52d9743f3";""
"restaurant";"restaurant";"Kec. Onan Ganjang";"Kabupaten Humbang Hasundutan, Sumatera Utara";"Kabupaten Humbang Hasundutan, Sumatera Utara";"SUMATERA UTARA";"";"Indonesia";"";"";"";"2.1547734";"98.6295724";"https://maps.google.com/?cid=0x0:0xdce7ed5f2d2ccaa1";""
"restaurant";"Grosir Kopi";"Parlomangan";"Jl. Pakkat - Dolok Sanggul No.5, Parbotihan, Kec. Onan Ganjang, Kabupaten Humbang Hasundutan, Sumatera Utara 22455";"Parbotihan, Kec. Onan Ganjang, Kabupaten Humbang Hasundutan";"SUMATERA UTARA";"22455";"Indonesia";"";"";"";"2.1387244";"98.5742256";"https://maps.google.com/?cid=0x0:0x6c2ed0e3abc549ec";""
"restaurant";"Restoran";"RM. PARAMAN 46";"6MJ5+235, Sosor Tambok, Kec. Dolok sanggul, Kabupaten Humbang Hasundutan, Sumatera Utara 22457";"Sosor Tambok, Kec. Dolok sanggul, Kabupaten Humbang Hasundutan";"SUMATERA UTARA";"22457";"Indonesia";" 085275320840";"";"";"2.2300127";"98.6577238";"https://maps.google.com/?cid=0x0:0x81adf5fcfdde06b9";""
"restaurant";"Rumah Makan";"D'Linggom Resto";"7P9W+C97, Bonani Onan, Kec. Dolok sanggul, Kabupaten Humbang Hasundutan, Sumatera Utara 22457";"Bonani Onan, Kec. Dolok sanggul, Kabupaten Humbang Hasundutan";"SUMATERA UTARA";"22457";"Indonesia";" 08116315567";"";"";"2.2685342";"98.7459157";"https://maps.google.com/?cid=0x0:0xd1f9f529fef99f1b";""
"restaurant";"Padang";"Rumah Makan Tapian Nadenggan";"7P5X+767, Ps. Dolok Sanggul, Kec. Dolok sanggul, Kabupaten Humbang Hasundutan, Sumatera Utara 22457";"Ps. Dolok Sanggul, Kec. Dolok sanggul, Kabupaten Humbang Hasundutan";"SUMATERA UTARA";"22457";"Indonesia";" 081275645406";"";"";"2.2581714";"98.7480511";"https://maps.google.com/?cid=0x0:0x4379f47a21ccefb8";""
"restaurant";"Toko";"Warung oppung benjamin";"2JCQ+FXG, Sanggaran II, Kec. Onan Ganjang, Kabupaten Humbang Hasundutan, Sumatera Utara 22454";"Sanggaran II, Kec. Onan Ganjang, Kabupaten Humbang Hasundutan";"SUMATERA UTARA";"22454";"Indonesia";"";"";"";"2.0211991";"98.6399672";"https://maps.google.com/?cid=0x0:0x42753a02c4d3e482";""
"restaurant";"Rumah Makan";"RM Hot Parlindungan";"Jl. Pakkat - Dolok Sanggul No.2, Parbotihan, Kec. Onan Ganjang, Kabupaten Humbang Hasundutan, Sumatera Utara 22455";"Parbotihan, Kec. Onan Ganjang, Kabupaten Humbang Hasundutan";"SUMATERA UTARA";"22455";"Indonesia";" 082273328573";"";"";"2.1416218";"98.581614";"https://maps.google.com/?cid=0x0:0x301d7177e58a8c40";""
"restaurant";"Bakso";"Pansinaran";"7M9X+8C9, Huta Gurgur, Kec. Dolok sanggul, Kabupaten Humbang Hasundutan, Sumatera Utara 22457";"Huta Gurgur, Kec. Dolok sanggul, Kabupaten Humbang Hasundutan";"SUMATERA UTARA";"22457";"Indonesia";"";"";"";"2.2682937";"98.6985959";"https://maps.google.com/?cid=0x0:0xa0e9b2bcb047a8cd";""
"restaurant";"Restoran";"Rumah makan  Resto ,DRJ";"5JGP+M3F, Jl. Diborong borong, Lumban sionang, Kec. Dolok sanggul, Kabupaten Humbang Hasundutan, Sumatera Utara 22454";"Jl. Diborong borong, Lumban sionang, Kec. Dolok sanggul, Kabupaten Humbang Hasundutan";"SUMATERA UTARA";"22454";"Indonesia";" 081385305016";"";"";"2.1766942";"98.6351743";"https://maps.google.com/?cid=0x0:0xc70f1371836aa535";""
"restaurant";"Kafe";"Op julian Lbn Batu";"5H9J+39R, Karya, Kec. Pakkat, Kabupaten Humbang Hasundutan, Sumatera Utara 22455";"Karya, Kec. Pakkat, Kabupaten Humbang Hasundutan";"SUMATERA UTARA";"22455";"Indonesia";"";"";"";"2.1677318";"98.5809053";"https://maps.google.com/?cid=0x0:0x3aa3677493d012b8";""
"restaurant";"Restoran";"Rumah Makan Riandy";"Tonga Saba, Jl. Pakkat - Dolok Sanggul, Parnapa, Kec. Dolok sanggul, Kabupaten Humbang Hasundutan, Sumatera Utara 22457";"Jl. Pakkat - Dolok Sanggul, Parnapa, Kec. Dolok sanggul, Kabupaten Humbang Hasundutan";"SUMATERA UTARA";"22457";"Indonesia";" 082163703551";"";"";"2.1828757";"98.6371682";"https://maps.google.com/?cid=0x0:0x584f64982b0c126e";""
"restaurant";"restaurant";"Pakkat";"Pakkat Hauagong, Kec. Pakkat, Kabupaten Humbang Hasundutan, Sumatera Utara";"Kabupaten Humbang Hasundutan, Sumatera Utara";"SUMATERA UTARA";"";"Indonesia";"";"";"";"2.145129";"98.473518";"https://maps.google.com/?cid=0x0:0xd970ca7c81a5c728";""
"restaurant";"Padang";"Rumah Makan Soripada";"4FR5+X73, Jl. Barus - Pakkat, Pakkat Hauagong, Kec. Pakkat, Kabupaten Humbang Hasundutan, Sumatera Utara 22455";"Jl. Barus - Pakkat, Pakkat Hauagong, Kec. Pakkat, Kabupaten Humbang Hasundutan";"SUMATERA UTARA";"22455";"Indonesia";"";"";"";"2.142393";"98.458162";"https://maps.google.com/?cid=0x0:0x18bb35431ad9fd80";""
"restaurant";"Padang";"RM. Pakkat Parlilitan";"7P5W+9VC, Jl. Pakkat - Dolok Sanggul, Bonani Onan, Kec. Dolok sanggul, Kabupaten Humbang Hasundutan, Sumatera Utara 22457";"Jl. Pakkat - Dolok Sanggul, Bonani Onan, Kec. Dolok sanggul, Kabupaten Humbang Hasundutan";"SUMATERA UTARA";"22457";"Indonesia";" 081361214887";"";"";"2.2584458";"98.7471337";"https://maps.google.com/?cid=0x0:0xaa8736520361005f";""
"restaurant";"restaurant";"Nanggumba";"4FWF+3C2, Pakkat Hauagong, Kec. Pakkat, Kabupaten Humbang Hasundutan, Sumatera Utara";"Kabupaten Humbang Hasundutan, Sumatera Utara";"SUMATERA UTARA";"";"Indonesia";"";"";"";"2.145129";"98.473518";"https://maps.google.com/?cid=0x0:0xbb40a4f1a0173548";""
"restaurant";"Kedai Kopi";"Lapo Sihotang Parlomang";"Jl. Balerong No.Pasar, Pakkat Hauagong, Kec. Pakkat, Kabupaten Humbang Hasundutan, Sumatera Utara 22455";"Pakkat Hauagong, Kec. Pakkat, Kabupaten Humbang Hasundutan";"SUMATERA UTARA";"22455";"Indonesia";" 082164728424";"";"";"2.1534849";"98.4732849";"https://maps.google.com/?cid=0x0:0xa2f49a68759ae222";""
"restaurant";"Kedai Kopi";"Lapo partukkot";"5FP7+9P4, Pakkat Hauagong, Kec. Pakkat, Kabupaten Humbang Hasundutan, Sumatera Utara 22455";"Pakkat Hauagong, Kec. Pakkat, Kabupaten Humbang Hasundutan";"SUMATERA UTARA";"22455";"Indonesia";" 081260734577";"";"";"2.1859427";"98.4643733";"https://maps.google.com/?cid=0x0:0x6c555da4582748ea";""
"restaurant";"restaurant";"Kec. Paranginan";"Kabupaten Humbang Hasundutan, Sumatera Utara";"Kabupaten Humbang Hasundutan, Sumatera Utara";"SUMATERA UTARA";"";"Indonesia";"";"";"";"2.3016854";"98.9270035";"https://maps.google.com/?cid=0x0:0x690416ecba08580d";""
"restaurant";"Rumah Makan";"RM Punia Ayam Kampung Napinadar";"7WVQ+294, Bahalimbalo, Kec. Paranginan, Kabupaten Humbang Hasundutan, Sumatera Utara 22476";"Bahalimbalo, Kec. Paranginan, Kabupaten Humbang Hasundutan";"SUMATERA UTARA";"22476";"Indonesia";" 082166940195";"";"";"2.2925073";"98.9384503";"https://maps.google.com/?cid=0x0:0x5181329be1328581";""
"restaurant";"Restoran";"WARUNG A3 Nasution";"Jl. Sisingamangaraja, simpang IV, Kec. Paranginan, Kabupaten Humbang Hasundutan, Sumatera Utara 22475";"simpang IV, Kec. Paranginan, Kabupaten Humbang Hasundutan";"SUMATERA UTARA";"22475";"Indonesia";" 082162806582";"";"";"2.2924073";"98.9292294";"https://maps.google.com/?cid=0x0:0xc69b21419552b17d";""
"restaurant";"Restoran";"BAKMIE CHIALUNG";"7WHM+6CJ, Jl. Merdeka, Lumban Bar., Kec. Paranginan, Kabupaten Humbang Hasundutan, Sumatera Utara 22475";"Jl. Merdeka, Lumban Bar., Kec. Paranginan, Kabupaten Humbang Hasundutan";"SUMATERA UTARA";"22475";"Indonesia";" 081377358213";"";"";"2.278089";"98.9335094";"https://maps.google.com/?cid=0x0:0x3a2a66063b4e6a02";""
"restaurant";"Toko Perlengkapan Rumah";"Warung Oppung Ayunda";"7XG5+WPV, Paranginan Sel., Kec. Paranginan, Kabupaten Humbang Hasundutan, Sumatera Utara 22476";"Paranginan Sel., Kec. Paranginan, Kabupaten Humbang Hasundutan";"SUMATERA UTARA";"22476";"Indonesia";" 085275583082";"";"";"2.2773737";"98.9593003";"https://maps.google.com/?cid=0x0:0x771311b41e0240fa";""
"restaurant";"Kedai Kopi";"Warung misop Boru manik";"7WQ4+R5V WARUNG BORU MANIK, Samping Gereja Gpsi, Lobu Tolong, Kec. Paranginan, Kabupaten Humbang Hasundutan, Sumatera Utara 22475";"Samping Gereja Gpsi, Lobu Tolong, Kec. Paranginan, Kabupaten Humbang Hasundutan";"SUMATERA UTARA";"22475";"Indonesia";" 081275272253";"";"";"2.2896234";"98.9054338";"https://maps.google.com/?cid=0x0:0x16071a6c39d9c1e5";""
"restaurant";"Brunch";"Fast Food Restaurant";"7WRH+WWR, Jl. Sisingamangaraja, Lumban Bar., Kec. Paranginan, Kabupaten Humbang Hasundutan, Sumatera Utara 22476";"Jl. Sisingamangaraja, Lumban Bar., Kec. Paranginan, Kabupaten Humbang Hasundutan";"SUMATERA UTARA";"22476";"Indonesia";"";"";"";"2.2923741";"98.9297539";"https://maps.google.com/?cid=0x0:0x41216d1d42560d61";""
"restaurant";"Kafe";"UD. Paranginan Coffee";"8W3H+FQQ, Jalan Guru Hennery, Sihonongan, Kec. Paranginan, Kabupaten Humbang Hasundutan, Sumatera Utara 22476";"Jalan Guru Hennery, Sihonongan, Kec. Paranginan, Kabupaten Humbang Hasundutan";"SUMATERA UTARA";"22476";"Indonesia";" 0816950355";"";"";"2.3037139";"98.9294822";"https://maps.google.com/?cid=0x0:0xc003610b556e0d00";""
"restaurant";"Restoran";"RM. BPK Onan Raja";"8W2G+MPC, Paranginan Utara, Kec. Paranginan, Kabupaten Humbang Hasundutan, Sumatera Utara 22476";"Paranginan Utara, Kec. Paranginan, Kabupaten Humbang Hasundutan";"SUMATERA UTARA";"22476";"Indonesia";"";"";"";"2.3016987";"98.926754";"https://maps.google.com/?cid=0x0:0xdb03085f442922a2";""
"restaurant";"Rumah Makan";"Rm.Johz";"7WRJ+WX5, Jl. Sisingamangaraja, Lumban Bar., Kec. Paranginan, Kabupaten Humbang Hasundutan, Sumatera Utara 22476";"Jl. Sisingamangaraja, Lumban Bar., Kec. Paranginan, Kabupaten Humbang Hasundutan";"SUMATERA UTARA";"22476";"Indonesia";"";"";"";"2.2922565";"98.9324892";"https://maps.google.com/?cid=0x0:0xcba8f75fed4014ce";""
"restaurant";"Kedai Kopi";"COFFE SHOP PARANGINAN";"7WV3+FWP, Unnamed Road, Lobu Tolong, Kec. Paranginan, Kabupaten Humbang Hasundutan, Sumatera Utara 22476";"Unnamed Road, Lobu Tolong, Kec. Paranginan, Kabupaten Humbang Hasundutan";"SUMATERA UTARA";"22476";"Indonesia";"";"";"";"2.2937198";"98.9048206";"https://maps.google.com/?cid=0x0:0xad5a23050d8726c7";""
"restaurant";"Restoran";"MONTERO Coffee and Resto Hutaginjang";"Tapian Nauli, Jl. Silangit, Muara, Kec. Muara, Kabupaten Tapanuli Utara, Sumatera Utara 22476";"Jl. Silangit, Muara, Kec. Muara, Kabupaten Tapanuli Utara";"SUMATERA UTARA";"22476";"Indonesia";" 081264776759";"";"";"2.3164904";"98.9579617";"https://maps.google.com/?cid=0x0:0xb4bccbf0cf3dd6e3";""
"restaurant";"Rumah Makan";"Bpk Cabang Onanraja";"7WVV+8J4, Lumban Bar., Kec. Paranginan, Kabupaten Humbang Hasundutan, Sumatera Utara 22476";"Lumban Bar., Kec. Paranginan, Kabupaten Humbang Hasundutan";"SUMATERA UTARA";"22476";"Indonesia";" 082389417271";"";"";"2.2932522";"98.9440771";"https://maps.google.com/?cid=0x0:0xd8e166535db071e4";""
"restaurant";"Kafe";"Tondongta Cafe  Resto";"Jl. Letkol. G.A. Manullang No.89, Ps. Dolok Sanggul, Kec. Dolok sanggul, Kabupaten Humbang Hasundutan, Sumatera Utara 22457";"Ps. Dolok Sanggul, Kec. Dolok sanggul, Kabupaten Humbang Hasundutan";"SUMATERA UTARA";"22457";"Indonesia";" 082167685826";"";"";"2.2564262";"98.7486443";"https://maps.google.com/?cid=0x0:0xb2ce3dde36efec1d";""
"restaurant";"Restoran";"RM BPK Malrm Ras";"6WV8+5XF, Nagasaribu II, Kec. Lintong Nihuta, Kabupaten Humbang Hasundutan, Sumatera Utara 22475";"Nagasaribu II, Kec. Lintong Nihuta, Kabupaten Humbang Hasundutan";"SUMATERA UTARA";"22475";"Indonesia";"";"";"";"2.242942";"98.9174155";"https://maps.google.com/?cid=0x0:0xc7cdd655b4a765aa";""
"restaurant";"Prasmanan Kue Manis dan Makanan Penutup";"Martabak Monek";"7XV4+XM8, Paranginan Sel., Kec. Paranginan, Kabupaten Humbang Hasundutan, Sumatera Utara 22476";"Paranginan Sel., Kec. Paranginan, Kabupaten Humbang Hasundutan";"SUMATERA UTARA";"22476";"Indonesia";" 085261744078";"";"";"2.2949149";"98.9566894";"https://maps.google.com/?cid=0x0:0xdb85e849219514c8";""
"restaurant";"Rumah Makan";"Rumah Makan Kita";"7XV4+7QJ, Jl. Raya Muara, Paranginan Sel., Kec. Paranginan, Kabupaten Humbang Hasundutan, Sumatera Utara 22476";"Jl. Raya Muara, Paranginan Sel., Kec. Paranginan, Kabupaten Humbang Hasundutan";"SUMATERA UTARA";"22476";"Indonesia";"";"";"";"2.2932038";"98.9568972";"https://maps.google.com/?cid=0x0:0xfe94c79445e70e1";""
"restaurant";"Salon Kecantikan";"Osty Salon";"8V4P+FJ8, Pearung, Kec. Paranginan, Kabupaten Humbang Hasundutan, Sumatera Utara 22476";"Pearung, Kec. Paranginan, Kabupaten Humbang Hasundutan";"SUMATERA UTARA";"22476";"Indonesia";" 082282555561";"";"";"2.3061526";"98.8865672";"https://maps.google.com/?cid=0x0:0x10540a49223eca63";""
"restaurant";"Grosir Kopi";"Ondo lintong Coffee";"Nagasaribu I, Kec. Lintong Nihuta, Kabupaten Humbang Hasundutan, Sumatera Utara 22475";"Kec. Lintong Nihuta, Kabupaten Humbang Hasundutan";"SUMATERA UTARA";"22475";"Indonesia";" 082287447180";"";"";"2.248996";"98.8998766";"https://maps.google.com/?cid=0x0:0x5af9eb381a5b24e0";""
"restaurant";"Rumah Makan";"Rumah makan VANIA";"8W3G+4PF, Jl. Onan, Paranginan Utara, Kec. Paranginan, Kabupaten Humbang Hasundutan, Sumatera Utara 22476";"Jl. Onan, Paranginan Utara, Kec. Paranginan, Kabupaten Humbang Hasundutan";"SUMATERA UTARA";"22476";"Indonesia";"";"";"";"2.3028149";"98.926803";"https://maps.google.com/?cid=0x0:0x7b77c8dff0f63ff3";""
"restaurant";"Kedai Kopi";"Firman Sianturi";"7WH6+257, Lobutolong Habinsaran, Kec. Paranginan, Kabupaten Humbang Hasundutan, Sumatera Utara";"Kabupaten Humbang Hasundutan, Sumatera Utara";"SUMATERA UTARA";"";"Indonesia";"";"";"";"2.2775278";"98.9104291";"https://maps.google.com/?cid=0x0:0x65f73faedec578ab";""
"restaurant";"Padang";"Warung Muslim Reza";"7XV4+9M5, Jl. Raya Muara, Paranginan Sel., Kec. Paranginan, Kabupaten Humbang Hasundutan, Sumatera Utara 22476";"Jl. Raya Muara, Paranginan Sel., Kec. Paranginan, Kabupaten Humbang Hasundutan";"SUMATERA UTARA";"22476";"Indonesia";"";"";"";"2.2933937";"98.9567499";"https://maps.google.com/?cid=0x0:0x1c5ad7a1535ece9d";""
"restaurant";"Indonesia";"WARUNG MIE SOP NA.DEVI";"Lobu Tolong, Kec. Paranginan, Kabupaten Humbang Hasundutan, Sumatera Utara 22475";"Kec. Paranginan, Kabupaten Humbang Hasundutan";"SUMATERA UTARA";"22475";"Indonesia";"";"";"";"2.2862404";"98.908286";"https://maps.google.com/?cid=0x0:0x1df231438c1a36b1";""
"restaurant";"Klub Malam";"GROSIR OP.SONDANG CREW";"7WR4+2X3, Lobu Tolong, Kec. Paranginan, Kabupaten Humbang Hasundutan, Sumatera Utara 22475";"Lobu Tolong, Kec. Paranginan, Kabupaten Humbang Hasundutan";"SUMATERA UTARA";"22475";"Indonesia";"";"";"";"2.2900232";"98.9074116";"https://maps.google.com/?cid=0x0:0x4a35032ff5ab8613";""
"restaurant";"Kafe";"Warung Tulang di paranginan";"7WG4+GV5, Jl. Simataniari, Siharjulu, Kec. Lintong Nihuta, Kabupaten Humbang Hasundutan, Sumatera Utara 22475";"Jl. Simataniari, Siharjulu, Kec. Lintong Nihuta, Kabupaten Humbang Hasundutan";"SUMATERA UTARA";"22475";"Indonesia";" 088807663267";"";"";"2.2761075";"98.9064061";"https://maps.google.com/?cid=0x0:0xc0bb7c9ac50c8605";""
"restaurant";"restaurant";"Parlilitan";"Sihotang Hasugian Tonga, Kec. Parlilitan, Kabupaten Humbang Hasundutan, Sumatera Utara";"Kabupaten Humbang Hasundutan, Sumatera Utara";"SUMATERA UTARA";"";"Indonesia";"";"";"";"2.3179599";"98.457001";"https://maps.google.com/?cid=0x0:0xb3282a468af9977";""
"restaurant";"Padang";"RM. Pakkat Parlilitan";"7P5W+9VC, Jl. Pakkat - Dolok Sanggul, Bonani Onan, Kec. Dolok sanggul, Kabupaten Humbang Hasundutan, Sumatera Utara 22457";"Jl. Pakkat - Dolok Sanggul, Bonani Onan, Kec. Dolok sanggul, Kabupaten Humbang Hasundutan";"SUMATERA UTARA";"22457";"Indonesia";" 081361214887";"";"";"2.2584458";"98.7471337";"https://maps.google.com/?cid=0x0:0xaa8736520361005f";""
"restaurant";"Rumah Makan";"Rumah Makan Pagaruyuang";"7Q75+7JC, Pasaribu, Kec. Dolok sanggul, Kabupaten Humbang Hasundutan, Sumatera Utara 22457";"Pasaribu, Kec. Dolok sanggul, Kabupaten Humbang Hasundutan";"SUMATERA UTARA";"22457";"Indonesia";" 081362407428";"";"";"2.2631911";"98.7590226";"https://maps.google.com/?cid=0x0:0x31c565ffce4e3af4";""
"restaurant";"Padang";"Padang Sidempuan";"7P2X+QCW, Lumban Tobing, Kec. Dolok sanggul, Kabupaten Humbang Hasundutan, Sumatera Utara 22457";"Lumban Tobing, Kec. Dolok sanggul, Kabupaten Humbang Hasundutan";"SUMATERA UTARA";"22457";"Indonesia";" 085260188806";"";"";"2.251991";"98.7485729";"https://maps.google.com/?cid=0x0:0xffc262398cbaec64";""
"restaurant";"Rumah Makan";"Rumah makan AGINTA";"Jl. Letkol. G.A. Manullang No.60, Lumban Tobing, Kec. Dolok sanggul, Kabupaten Humbang Hasundutan, Sumatera Utara 22457";"Lumban Tobing, Kec. Dolok sanggul, Kabupaten Humbang Hasundutan";"SUMATERA UTARA";"22457";"Indonesia";" 085371604304";"";"";"2.2555431";"98.7490584";"https://maps.google.com/?cid=0x0:0xa6186e89ab8ed9a5";""
"restaurant";"restaurant";"Sumatera Utara 22457";"Kabupaten Humbang Hasundutan, Sumatera Utara";"Kabupaten Humbang Hasundutan, Sumatera Utara";"SUMATERA UTARA";"";"Indonesia";"";"";"";"2.2174078";"98.7260927";"https://maps.google.com/?cid=0x0:0xfc492d8c933a9bef";""
"restaurant";"Padang";"Rumah Makan Tapian Nadenggan";"7P5X+767, Ps. Dolok Sanggul, Kec. Dolok sanggul, Kabupaten Humbang Hasundutan, Sumatera Utara 22457";"Ps. Dolok Sanggul, Kec. Dolok sanggul, Kabupaten Humbang Hasundutan";"SUMATERA UTARA";"22457";"Indonesia";" 081275645406";"";"";"2.2581714";"98.7480511";"https://maps.google.com/?cid=0x0:0x4379f47a21ccefb8";""
"restaurant";"Rumah Makan";"D'Linggom Resto";"7P9W+C97, Bonani Onan, Kec. Dolok sanggul, Kabupaten Humbang Hasundutan, Sumatera Utara 22457";"Bonani Onan, Kec. Dolok sanggul, Kabupaten Humbang Hasundutan";"SUMATERA UTARA";"22457";"Indonesia";" 08116315567";"";"";"2.2685342";"98.7459157";"https://maps.google.com/?cid=0x0:0xd1f9f529fef99f1b";""
"restaurant";"Kafe";"Tondongta Cafe  Resto";"Jl. Letkol. G.A. Manullang No.89, Ps. Dolok Sanggul, Kec. Dolok sanggul, Kabupaten Humbang Hasundutan, Sumatera Utara 22457";"Ps. Dolok Sanggul, Kec. Dolok sanggul, Kabupaten Humbang Hasundutan";"SUMATERA UTARA";"22457";"Indonesia";" 082167685826";"";"";"2.2564262";"98.7486443";"https://maps.google.com/?cid=0x0:0xb2ce3dde36efec1d";""
"restaurant";"Padang";"RM. Pakkat Parlilitan";"7P5W+9VC, Jl. Pakkat - Dolok Sanggul, Bonani Onan, Kec. Dolok sanggul, Kabupaten Humbang Hasundutan, Sumatera Utara 22457";"Jl. Pakkat - Dolok Sanggul, Bonani Onan, Kec. Dolok sanggul, Kabupaten Humbang Hasundutan";"SUMATERA UTARA";"22457";"Indonesia";" 081361214887";"";"";"2.2584458";"98.7471337";"https://maps.google.com/?cid=0x0:0xaa8736520361005f";""
"restaurant";"Restoran";"Jelova Coffee and Resto";"Jl. Melanthon Siregar No.42, Ps. Dolok Sanggul, Kec. Dolok sanggul, Kabupaten Humbang Hasundutan, Sumatera Utara 22457";"Ps. Dolok Sanggul, Kec. Dolok sanggul, Kabupaten Humbang Hasundutan";"SUMATERA UTARA";"22457";"Indonesia";" 08128308017";"";"";"2.2597697";"98.7492436";"https://maps.google.com/?cid=0x0:0xac720f84787e20f7";""
"restaurant";"Rumah Makan";"RM Putri Pribumi Jagal Hoda";"7P4X+RC2, Jl. Letkol GA, Manullang, Kec. Dolok sanggul, Kabupaten Humbang Hasundutan, Sumatera Utara 22457";"Jl. Letkol GA, Manullang, Kec. Dolok sanggul, Kabupaten Humbang Hasundutan";"SUMATERA UTARA";"22457";"Indonesia";" 081381673929";"";"";"2.2570088";"98.748523";"https://maps.google.com/?cid=0x0:0x11f32c8a9b94a045";""
"restaurant";"Padang";"RM Nasional Anju Munthe";"8PJG+22X, Huta Paung, Kec. Pollung, Kabupaten Humbang Hasundutan, Sumatera Utara 22457";"Huta Paung, Kec. Pollung, Kabupaten Humbang Hasundutan";"SUMATERA UTARA";"22457";"Indonesia";"";"";"";"2.3301059";"98.7251149";"https://maps.google.com/?cid=0x0:0x4346d12755cff4e6";""
"restaurant";"Hotel";"Restoran  Hotel Bukit Tinggi";"7P7W+MHG, Jl. Lintas Barat Sumatera, Bonani Onan, Kec. Dolok sanggul, Kabupaten Humbang Hasundutan, Sumatera Utara 22457";"Jl. Lintas Barat Sumatera, Bonani Onan, Kec. Dolok sanggul, Kabupaten Humbang Hasundutan";"SUMATERA UTARA";"22457";"Indonesia";" 082276464235";"";"";"2.2641843";"98.7464583";"https://maps.google.com/?cid=0x0:0x36fef9625f692096";""
"restaurant";"Rumah Makan";"Rumah Makan Koji";"Jl. Letkol. G.A. Manullang, Lumban Tobing, Kec. Dolok sanggul, Kabupaten Humbang Hasundutan, Sumatera Utara 22457";"Lumban Tobing, Kec. Dolok sanggul, Kabupaten Humbang Hasundutan";"SUMATERA UTARA";"22457";"Indonesia";" 081262055569";"";"";"2.2538609";"98.7503082";"https://maps.google.com/?cid=0x0:0x2286b999ce391d7e";""
"restaurant";"Layanan Transportasi";"RUMAH MAKAN DAN LOKET PT SAMPRI TRANSPORT";"Jl. Siliwangi No.118, Ps. Dolok Sanggul, Kec. Dolok sanggul, Kabupaten Humbang Hasundutan, Sumatera Utara 22457";"Ps. Dolok Sanggul, Kec. Dolok sanggul, Kabupaten Humbang Hasundutan";"SUMATERA UTARA";"22457";"Indonesia";"";"";"";"2.2623867";"98.7473569";"https://maps.google.com/?cid=0x0:0xa4316831ddcc2e8b";""
"restaurant";"restaurant";"Martin Anugrah Hotel  Restaurant";"Jalan Raya Bakkara Sosorgonting, Pasaribu, Dolok sanggul, Humbang Hasundutan Regency, North Sumatra 22457";"Pasaribu, Dolok sanggul, Humbang Hasundutan Regency";"SUMATERA UTARA";"22457";"Indonesia";" 08116261820";"";"";"2.2727265";"98.7656981";"https://maps.google.com/?cid=0x0:0x3917ea7963e729d8";""
"restaurant";"restaurant";"Hotel Wisma Mangurna";"Sumatera, Utara, Bonani Onan, Kec. Dolok sanggul, Kabupaten Humbang Hasundutan, Sumatera Utara 22457";"Utara, Bonani Onan, Kec. Dolok sanggul, Kabupaten Humbang Hasundutan";"SUMATERA UTARA";"22457";"Indonesia";" 085361594583";"";"";"2.2696231";"98.7460622";"https://maps.google.com/?cid=0x0:0x227c03897cf2dfbf";""
"restaurant";"restaurant";"Senior Bakara Hotel";"Jl. Muara, Kabupaten Humbang Hasundutan, Sumatera Utara 22457";"Kabupaten Humbang Hasundutan";"SUMATERA UTARA";"22457";"Indonesia";" 081362268286";"";"";"2.3186427";"98.8351544";"https://maps.google.com/?cid=0x0:0x998c075598393f34";""
"restaurant";"restaurant";"Grand Maju Hotel";"Jl. Merdeka Ujung, Pasaribu, Kec. Dolok sanggul, Kabupaten Humbang Hasundutan, Sumatera Utara 22457";"Pasaribu, Kec. Dolok sanggul, Kabupaten Humbang Hasundutan";"SUMATERA UTARA";"22457";"Indonesia";" 081312348857";"";"";"2.2644338";"98.761866";"https://maps.google.com/?cid=0x0:0xf4e505db7e6d03b9";""
"restaurant";"Tujuan Wisata";"Geosite Sipinsur";"Parulohan, Kec. Paranginan, Kabupaten Humbang Hasundutan, Sumatera Utara 22476";"Kec. Paranginan, Kabupaten Humbang Hasundutan";"SUMATERA UTARA";"22476";"Indonesia";"";"";"";"2.3291448";"98.8813939";"https://maps.google.com/?cid=0x0:0x47ffc29f2eb0d3e1";""
"restaurant";"Rumah Makan";"RM Islam Sibundong";"Jalan Lintas Dolok Sanggul Simpang 4 Jalan Lintas Dolok Sanggul Simarsasar, Jl. Lintas Dolok Sanggul, Siabaksa, Kabupaten Humbang Hasundutan, Sumatera Utara 22457";"Jl. Lintas Dolok Sanggul, Siabaksa, Kabupaten Humbang Hasundutan";"SUMATERA UTARA";"22457";"Indonesia";" 082160335243";"";"";"2.2586696";"98.7481514";"https://maps.google.com/?cid=0x0:0xcc2f3d2be30cf544";""
"restaurant";"Restoran";"Warung Medan";"Jl. Dolok Sanggul - Siborong - Borong No.78, Pasaribu, Kec. Dolok sanggul, Kabupaten Humbang Hasundutan, Sumatera Utara 22457";"Pasaribu, Kec. Dolok sanggul, Kabupaten Humbang Hasundutan";"SUMATERA UTARA";"22457";"Indonesia";" 082366628222";"";"";"2.2594914";"98.7527648";"https://maps.google.com/?cid=0x0:0x159473ffed0b13a4";""
"restaurant";"Restoran";"Rumah Makan TSK DOloksanggul T. Banjarnahor/D. Br Munthe";"Jl. Dolok Sanggul - Siborong - Borong, Ps. Dolok Sanggul, Kec. Dolok sanggul, Kabupaten Humbang Hasundutan, Sumatera Utara 22457";"Ps. Dolok Sanggul, Kec. Dolok sanggul, Kabupaten Humbang Hasundutan";"SUMATERA UTARA";"22457";"Indonesia";" 063331616";"";"";"2.2584284";"98.7488954";"https://maps.google.com/?cid=0x0:0xd77c93d3729e825d";""
"restaurant";"Restoran";"RM PUTRA PRIBUMI (DAGING KUDA) / PRIMATADOS HERBAL";"Jl.Doloksanggul - Sidikalang, Bonani Onan, Doloksanggul, Bonani Onan, Kec. Dolok sanggul, Kabupaten Humbang Hasundutan, Sumatera Utara 22457";"Bonani Onan, Doloksanggul, Bonani Onan, Kec. Dolok sanggul, Kabupaten Humbang Hasundutan";"SUMATERA UTARA";"22457";"Indonesia";" 082168302819";"";"";"2.2659119";"98.7463453";"https://maps.google.com/?cid=0x0:0xffe4f91395397e09";""
"restaurant";"Rumah Makan";"Rumah Makan Pagaruyuang";"7Q75+7JC, Pasaribu, Kec. Dolok sanggul, Kabupaten Humbang Hasundutan, Sumatera Utara 22457";"Pasaribu, Kec. Dolok sanggul, Kabupaten Humbang Hasundutan";"SUMATERA UTARA";"22457";"Indonesia";" 081362407428";"";"";"2.2631911";"98.7590226";"https://maps.google.com/?cid=0x0:0x31c565ffce4e3af4";""
"restaurant";"Padang";"Rm. Bengkalis";"Jl. Sisingamangaraja No.36, Bonani Onan, Kec. Dolok sanggul, Kabupaten Humbang Hasundutan, Sumatera Utara 22457";"Bonani Onan, Kec. Dolok sanggul, Kabupaten Humbang Hasundutan";"SUMATERA UTARA";"22457";"Indonesia";" 085218691667";"";"";"2.2584681";"98.7473238";"https://maps.google.com/?cid=0x0:0xc193a304c62cc5c5";""
"restaurant";"Padang";"Rumah Makan RIBUR";"7Q76+MGQ, Pasaribu, Kec. Dolok sanggul, Kabupaten Humbang Hasundutan, Sumatera Utara 22457";"Pasaribu, Kec. Dolok sanggul, Kabupaten Humbang Hasundutan";"SUMATERA UTARA";"22457";"Indonesia";"";"";"";"2.2642224";"98.7613464";"https://maps.google.com/?cid=0x0:0x70c02169ac39da77";""
"restaurant";"Restoran";"Rumah Makan MORALAU (Ayam Kampung Pinadar)";"7Q64+HF9, Pasaribu, Kec. Dolok sanggul, Kabupaten Humbang Hasundutan, Sumatera Utara 22457";"Pasaribu, Kec. Dolok sanggul, Kabupaten Humbang Hasundutan";"SUMATERA UTARA";"22457";"Indonesia";"";"";"";"2.2614207";"98.7562467";"https://maps.google.com/?cid=0x0:0xab6560af5e5025e2";""
"restaurant";"Padang";"RESTO DAN PENGINAPAN FITRI";"7Q62+XQ8, Bonani Onan, Ps. Dolok Sanggul, Kec. Dolok sanggul, Kabupaten Humbang Hasundutan, Sumatera Utara 22457";"Bonani Onan, Ps. Dolok Sanggul, Kec. Dolok sanggul, Kabupaten Humbang Hasundutan";"SUMATERA UTARA";"22457";"Indonesia";" 081361147556";"";"";"2.2624147";"98.751968";"https://maps.google.com/?cid=0x0:0x8623737acbf298cf";""
"restaurant";"China";"Kedai Bakmie Panjang";"7Q63+2QC, Jalan Merdeka, Pasaribu, Kec. Dolok sanggul, Kabupaten Humbang Hasundutan, Sumatera Utara 22457";"Jalan Merdeka, Pasaribu, Kec. Dolok sanggul, Kabupaten Humbang Hasundutan";"SUMATERA UTARA";"22457";"Indonesia";"";"";"";"2.260067";"98.7544004";"https://maps.google.com/?cid=0x0:0x21b26c62351a913";""
"restaurant";"";"rumah makan sehat";"8PMF+M53, Jl. Huta Paung - Pollung, Pollung, Kec. Pollung, Kabupaten Humbang Hasundutan, Sumatera Utara 22457";"Jl. Huta Paung - Pollung, Pollung, Kec. Pollung, Kabupaten Humbang Hasundutan";"SUMATERA UTARA";"22457";"Indonesia";"";"";"";"2.3341356";"98.7229323";"https://maps.google.com/?cid=0x0:0xd1d67c7a3bdc9769";""
"restaurant";"Restoran";"BPK Silaban";"7P5X+48H, Jl. Letkol. G.A. Manullang, Lumban Tobing, Kec. Dolok sanggul, Kabupaten Humbang Hasundutan, Sumatera Utara 22457";"Jl. Letkol. G.A. Manullang, Lumban Tobing, Kec. Dolok sanggul, Kabupaten Humbang Hasundutan";"SUMATERA UTARA";"22457";"Indonesia";" 081265513041";"";"";"2.2578166";"98.7483459";"https://maps.google.com/?cid=0x0:0x15dd5a55b2794fd";""
"restaurant";"Restoran";"Hanam BBQ @ Senopati";"Jalan Senayan No 63+65, South Jakarta City, Jakarta";"Kota Jakarta Selatan, Daerah Khusus Ibukota Jakarta";"SUMATERA UTARA";"";"Indonesia";" 085212170272";"";"";"-6.2365416";"106.8166998";"https://maps.google.com/?cid=0x0:0x5d80e11d0c60d0ac";""
"restaurant";"restaurant";"Kec. Sijama Polang";"Kabupaten Humbang Hasundutan, Sumatera Utara";"Kabupaten Humbang Hasundutan, Sumatera Utara";"SUMATERA UTARA";"";"Indonesia";"";"";"";"2.2108811";"98.721307";"https://maps.google.com/?cid=0x0:0xd50f2722ee3ef986";""
"restaurant";"Kafe";"Tondongta Cafe  Resto";"Jl. Letkol. G.A. Manullang No.89, Ps. Dolok Sanggul, Kec. Dolok sanggul, Kabupaten Humbang Hasundutan, Sumatera Utara 22457";"Ps. Dolok Sanggul, Kec. Dolok sanggul, Kabupaten Humbang Hasundutan";"SUMATERA UTARA";"22457";"Indonesia";" 082167685826";"";"";"2.2564262";"98.7486443";"https://maps.google.com/?cid=0x0:0xb2ce3dde36efec1d";""
"restaurant";"Rumah Makan";"D'Linggom Resto";"7P9W+C97, Bonani Onan, Kec. Dolok sanggul, Kabupaten Humbang Hasundutan, Sumatera Utara 22457";"Bonani Onan, Kec. Dolok sanggul, Kabupaten Humbang Hasundutan";"SUMATERA UTARA";"22457";"Indonesia";" 08116315567";"";"";"2.2685342";"98.7459157";"https://maps.google.com/?cid=0x0:0xd1f9f529fef99f1b";""
"restaurant";"Restoran";"Jelova Coffee and Resto";"Jl. Melanthon Siregar No.42, Ps. Dolok Sanggul, Kec. Dolok sanggul, Kabupaten Humbang Hasundutan, Sumatera Utara 22457";"Ps. Dolok Sanggul, Kec. Dolok sanggul, Kabupaten Humbang Hasundutan";"SUMATERA UTARA";"22457";"Indonesia";" 08128308017";"";"";"2.2597697";"98.7492436";"https://maps.google.com/?cid=0x0:0xac720f84787e20f7";""
"restaurant";"Batak";"Rumah Makan Khas Batak Simpang Tano Tubu";"Jl. Dolok Sanggul - Siborong - Borong No.Km.3, Tano Tubu, Kec. Dolok sanggul, Kabupaten Humbang Hasundutan, Sumatera Utara 22457";"Tano Tubu, Kec. Dolok sanggul, Kabupaten Humbang Hasundutan";"SUMATERA UTARA";"22457";"Indonesia";"";"";"";"2.269225";"98.7702733";"https://maps.google.com/?cid=0x0:0x2801461591396b06";""
"restaurant";"Rumah Makan";"RM Putri Pribumi Jagal Hoda";"7P4X+RC2, Jl. Letkol GA, Manullang, Kec. Dolok sanggul, Kabupaten Humbang Hasundutan, Sumatera Utara 22457";"Jl. Letkol GA, Manullang, Kec. Dolok sanggul, Kabupaten Humbang Hasundutan";"SUMATERA UTARA";"22457";"Indonesia";" 081381673929";"";"";"2.2570088";"98.748523";"https://maps.google.com/?cid=0x0:0x11f32c8a9b94a045";""
"restaurant";"Batak";"Lapo gantung sosorjulu";"5MCQ+P85, Unnamed Road, Bonan Dolok II, Kec. Sijama Polang, Kabupaten Humbang Hasundutan, Sumatera Utara 22457";"Unnamed Road, Bonan Dolok II, Kec. Sijama Polang, Kabupaten Humbang Hasundutan";"SUMATERA UTARA";"22457";"Indonesia";"";"";"";"2.171767";"98.6883486";"https://maps.google.com/?cid=0x0:0x8281b925829b34cd";""
"restaurant";"Kafe";"Warung Kopi Pak Yulan";"5M5P+87J, Unnamed Road, Bonan Dolok I, Kec. Sijama Polang, Kabupaten Humbang Hasundutan, Sumatera Utara 22457";"Unnamed Road, Bonan Dolok I, Kec. Sijama Polang, Kabupaten Humbang Hasundutan";"SUMATERA UTARA";"22457";"Indonesia";"";"";"";"2.1583263";"98.6856261";"https://maps.google.com/?cid=0x0:0x786301db3204e3fc";""
"restaurant";"Padang";"RM. Pakkat Parlilitan";"7P5W+9VC, Jl. Pakkat - Dolok Sanggul, Bonani Onan, Kec. Dolok sanggul, Kabupaten Humbang Hasundutan, Sumatera Utara 22457";"Jl. Pakkat - Dolok Sanggul, Bonani Onan, Kec. Dolok sanggul, Kabupaten Humbang Hasundutan";"SUMATERA UTARA";"22457";"Indonesia";" 081361214887";"";"";"2.2584458";"98.7471337";"https://maps.google.com/?cid=0x0:0xaa8736520361005f";""
"restaurant";"Rumah Makan";"Rumah Makan Koji";"Jl. Letkol. G.A. Manullang, Lumban Tobing, Kec. Dolok sanggul, Kabupaten Humbang Hasundutan, Sumatera Utara 22457";"Lumban Tobing, Kec. Dolok sanggul, Kabupaten Humbang Hasundutan";"SUMATERA UTARA";"22457";"Indonesia";" 081262055569";"";"";"2.2538609";"98.7503082";"https://maps.google.com/?cid=0x0:0x2286b999ce391d7e";""
"restaurant";"Rumah Makan";"RM Islam Sibundong";"Jalan Lintas Dolok Sanggul Simpang 4 Jalan Lintas Dolok Sanggul Simarsasar, Jl. Lintas Dolok Sanggul, Siabaksa, Kabupaten Humbang Hasundutan, Sumatera Utara 22457";"Jl. Lintas Dolok Sanggul, Siabaksa, Kabupaten Humbang Hasundutan";"SUMATERA UTARA";"22457";"Indonesia";" 082160335243";"";"";"2.2586696";"98.7481514";"https://maps.google.com/?cid=0x0:0xcc2f3d2be30cf544";""
"restaurant";"Hotel";"Restoran  Hotel Bukit Tinggi";"7P7W+MHG, Jl. Lintas Barat Sumatera, Bonani Onan, Kec. Dolok sanggul, Kabupaten Humbang Hasundutan, Sumatera Utara 22457";"Jl. Lintas Barat Sumatera, Bonani Onan, Kec. Dolok sanggul, Kabupaten Humbang Hasundutan";"SUMATERA UTARA";"22457";"Indonesia";" 082276464235";"";"";"2.2641843";"98.7464583";"https://maps.google.com/?cid=0x0:0x36fef9625f692096";""
"restaurant";"Layanan Transportasi";"RUMAH MAKAN DAN LOKET PT SAMPRI TRANSPORT";"Jl. Siliwangi No.118, Ps. Dolok Sanggul, Kec. Dolok sanggul, Kabupaten Humbang Hasundutan, Sumatera Utara 22457";"Ps. Dolok Sanggul, Kec. Dolok sanggul, Kabupaten Humbang Hasundutan";"SUMATERA UTARA";"22457";"Indonesia";"";"";"";"2.2623867";"98.7473569";"https://maps.google.com/?cid=0x0:0xa4316831ddcc2e8b";""
"restaurant";"Rumah Makan";"RM Silaban Doloksanggul";"Jl. Letkol. G.A. Manullang, Lumban Tobing, Kec. Dolok sanggul, Kabupaten Humbang Hasundutan, Sumatera Utara 22457";"Lumban Tobing, Kec. Dolok sanggul, Kabupaten Humbang Hasundutan";"SUMATERA UTARA";"22457";"Indonesia";" 081265513041";"";"";"2.2578833";"98.7481005";"https://maps.google.com/?cid=0x0:0xada227a02abe3d12";""
"restaurant";"Restoran";"Rumah Makan TSK DOloksanggul T. Banjarnahor/D. Br Munthe";"Jl. Dolok Sanggul - Siborong - Borong, Ps. Dolok Sanggul, Kec. Dolok sanggul, Kabupaten Humbang Hasundutan, Sumatera Utara 22457";"Ps. Dolok Sanggul, Kec. Dolok sanggul, Kabupaten Humbang Hasundutan";"SUMATERA UTARA";"22457";"Indonesia";" 063331616";"";"";"2.2584284";"98.7488954";"https://maps.google.com/?cid=0x0:0xd77c93d3729e825d";""
"restaurant";"Restoran";"RM PUTRA PRIBUMI (DAGING KUDA) / PRIMATADOS HERBAL";"Jl.Doloksanggul - Sidikalang, Bonani Onan, Doloksanggul, Bonani Onan, Kec. Dolok sanggul, Kabupaten Humbang Hasundutan, Sumatera Utara 22457";"Bonani Onan, Doloksanggul, Bonani Onan, Kec. Dolok sanggul, Kabupaten Humbang Hasundutan";"SUMATERA UTARA";"22457";"Indonesia";" 082168302819";"";"";"2.2659119";"98.7463453";"https://maps.google.com/?cid=0x0:0xffe4f91395397e09";""
"restaurant";"Makanan Sehat";"RM. Pribumi Jagal Hoda";"7Q8C+9FW, Pasaribu, Kec. Dolok sanggul, Kabupaten Humbang Hasundutan, Sumatera Utara 22457";"Pasaribu, Kec. Dolok sanggul, Kabupaten Humbang Hasundutan";"SUMATERA UTARA";"22457";"Indonesia";"";"";"";"2.2659836";"98.7712077";"https://maps.google.com/?cid=0x0:0xeb8ed460f5701b26";""
"restaurant";"Restoran";"BPK Silaban";"7P5X+48H, Jl. Letkol. G.A. Manullang, Lumban Tobing, Kec. Dolok sanggul, Kabupaten Humbang Hasundutan, Sumatera Utara 22457";"Jl. Letkol. G.A. Manullang, Lumban Tobing, Kec. Dolok sanggul, Kabupaten Humbang Hasundutan";"SUMATERA UTARA";"22457";"Indonesia";" 081265513041";"";"";"2.2578166";"98.7483459";"https://maps.google.com/?cid=0x0:0x15dd5a55b2794fd";""
"restaurant";"Rumah Makan";"BPK TARIGAN SILANGIT Samping alfamidi siliwangi";"Bonani Onan, Kec. Dolok sanggul, Kabupaten Humbang Hasundutan, Sumatera Utara 22457";"Kec. Dolok sanggul, Kabupaten Humbang Hasundutan";"SUMATERA UTARA";"22457";"Indonesia";" 082233643268";"";"";"2.2651632";"98.7467141";"https://maps.google.com/?cid=0x0:0x4744b0b91dcdce05";""
"restaurant";"Restoran";"Winda studio coffee";"Jl. Pakkat - Dolok Sanggul, Matiti II, Kec. Dolok sanggul, Kabupaten Humbang Hasundutan, Sumatera Utara 22457";"Matiti II, Kec. Dolok sanggul, Kabupaten Humbang Hasundutan";"SUMATERA UTARA";"22457";"Indonesia";" 081361531310";"";"";"2.2575918";"98.7182264";"https://maps.google.com/?cid=0x0:0x75ed218425661030";""
"restaurant";"Batak";"Lapo Oppu REDO";"5MJG+Q69, Unnamed Road, Hutaginjang, Kec. Sijama Polang, Kabupaten Humbang Hasundutan, Sumatera Utara 22457";"Unnamed Road, Hutaginjang, Kec. Sijama Polang, Kabupaten Humbang Hasundutan";"SUMATERA UTARA";"22457";"Indonesia";"";"";"";"2.1819133";"98.6756083";"https://maps.google.com/?cid=0x0:0xde1c50616ad925cf";""
"restaurant";"Restoran";"Rumah op joy situmorang";"5MRH+5H8, Hutaginjang, Kec. Sijama Polang, Kabupaten Humbang Hasundutan, Sumatera Utara";"Kabupaten Humbang Hasundutan, Sumatera Utara";"SUMATERA UTARA";"";"Indonesia";"";"";"";"2.1904002";"98.6789481";"https://maps.google.com/?cid=0x0:0x3ee5ab616d307ad0";""
"restaurant";"Kedai Kopi";"Waroeng Makan Nasional Seryl Marbun";"6PF8+2RF Bakara, desa, Sinambela, Bakti Raja, Humbang Hasundutan Regency, North Sumatra 22457";"desa, Sinambela, Bakti Raja, Humbang Hasundutan Regency";"SUMATERA UTARA";"22457";"Indonesia";" 081360893217";"";"";"2.222569";"98.717035";"https://maps.google.com/?cid=0x0:0x682751f345791fa2";""
"restaurant";"Kedai Kopi";"Ibrena Cafe Resto Kopi dari Hati";"Jl. Merdeka, Pasaribu, Kec. Dolok sanggul, Kabupaten Humbang Hasundutan, Sumatera Utara 22457";"Pasaribu, Kec. Dolok sanggul, Kabupaten Humbang Hasundutan";"SUMATERA UTARA";"22457";"Indonesia";" 081396538088";"";"";"2.2611843";"98.7560015";"https://maps.google.com/?cid=0x0:0xd77e0d6a75cf71ae";""
"restaurant";"Rumah Makan";"RUMAH MAKAN AIDA";"6CVC+X4X, Tara Bintang, Kec. Tara bintang, Kabupaten Humbang Hasundutan, Sumatera Utara 22456";"Tara Bintang, Kec. Tara bintang, Kabupaten Humbang Hasundutan";"SUMATERA UTARA";"22456";"Indonesia";" 082125114513";"";"";"2.2449817";"98.4203444";"https://maps.google.com/?cid=0x0:0x99494c8d6e957";""
"restaurant";"restaurant";"Kec. Tara bintang";"Kabupaten Humbang Hasundutan, Sumatera Utara";"Kabupaten Humbang Hasundutan, Sumatera Utara";"SUMATERA UTARA";"";"Indonesia";"";"";"";"2.256467";"98.4100744";"https://maps.google.com/?cid=0x0:0xbae2136378964571";""
"restaurant";"Rumah Makan";"Rumah Makan Faisal";"7FH4+93M, Sihotang Hasugian Toruan, Kec. Tara bintang, Kabupaten Humbang Hasundutan, Sumatera Utara 22456";"Sihotang Hasugian Toruan, Kec. Tara bintang, Kabupaten Humbang Hasundutan";"SUMATERA UTARA";"22456";"Indonesia";"";"";"";"2.2784542";"98.4551604";"https://maps.google.com/?cid=0x0:0xc46c2a787a03f57";""
"restaurant";"Kedai Kopi";"Lapo Kejujuran";"887H+MJC, Unnamed Road, Sitanduk, Tara bintang, Humbang Hasundutan Regency, North Sumatra 22456";"Unnamed Road, Sitanduk, Tara bintang, Humbang Hasundutan Regency";"SUMATERA UTARA";"22456";"Indonesia";"";"";"";"2.3141851";"98.3290134";"https://maps.google.com/?cid=0x0:0x55d5755c517461c6";""
"restaurant";"Kedai Kopi";"Lapo Oppung Tiur";"7FJ3+JX6, Sihotang Hasugian Toruan, Kec. Tara bintang, Kabupaten Humbang Hasundutan, Sumatera Utara 22456";"Sihotang Hasugian Toruan, Kec. Tara bintang, Kabupaten Humbang Hasundutan";"SUMATERA UTARA";"22456";"Indonesia";"";"";"";"2.2815399";"98.4548813";"https://maps.google.com/?cid=0x0:0xc4a6fb4bb99401a0";""
"restaurant";"Ikan Bakar";"Tipang Mas Restoran";"Tipang, Kec. Bakti Raja, Kabupaten Humbang Hasundutan, Sumatera Utara 22457";"Kec. Bakti Raja, Kabupaten Humbang Hasundutan";"SUMATERA UTARA";"22457";"Indonesia";" 081265855225";"";"";"2.3518783";"98.8207876";"https://maps.google.com/?cid=0x0:0x556d65f12c33b0c6";""
"restaurant";"Rumah Makan";"RM SIANG MALAM";"8FF4+VWW, Unnamed Road, Sihotang Hasugian Tonga, Kec. Parlilitan, Kabupaten Humbang Hasundutan, Sumatera Utara 22456";"Unnamed Road, Sihotang Hasugian Tonga, Kec. Parlilitan, Kabupaten Humbang Hasundutan";"SUMATERA UTARA";"22456";"Indonesia";"";"";"";"2.3247479";"98.4573242";"https://maps.google.com/?cid=0x0:0x12cd54d91d51921c";""
"restaurant";"Padang";"Rumah Makan Soripada";"4FR5+X73, Jl. Barus - Pakkat, Pakkat Hauagong, Kec. Pakkat, Kabupaten Humbang Hasundutan, Sumatera Utara 22455";"Jl. Barus - Pakkat, Pakkat Hauagong, Kec. Pakkat, Kabupaten Humbang Hasundutan";"SUMATERA UTARA";"22455";"Indonesia";"";"";"";"2.142393";"98.458162";"https://maps.google.com/?cid=0x0:0x18bb35431ad9fd80";""
"restaurant";"Nasi";"KEZIA BAKMIE";"Jl.Pendidikan No.4, Sihotang Hasugian Tonga, Kec. Parlilitan, Kabupaten Humbang Hasundutan, Sumatera Utara 22456";"Sihotang Hasugian Tonga, Kec. Parlilitan, Kabupaten Humbang Hasundutan";"SUMATERA UTARA";"22456";"Indonesia";" 085261632121";"";"";"2.3256266";"98.4575401";"https://maps.google.com/?cid=0x0:0x3c39bd8403e0666";""
"restaurant";"restaurant";"Tara Bintang";"Kec. Tara bintang, Kabupaten Humbang Hasundutan, Sumatera Utara";"Kabupaten Humbang Hasundutan, Sumatera Utara";"SUMATERA UTARA";"";"Indonesia";"";"";"";"2.2292543";"98.3636131";"https://maps.google.com/?cid=0x0:0x47d6ec08a613eb6";""
"restaurant";"Restoran";"Rumah PUTRA SIRINGO";"7C96+GQ3, Simpang III, Kec. Tara bintang, Kabupaten Humbang Hasundutan, Sumatera Utara 22456";"Simpang III, Kec. Tara bintang, Kabupaten Humbang Hasundutan";"SUMATERA UTARA";"22456";"Indonesia";"";"";"";"2.2687766";"98.4119717";"https://maps.google.com/?cid=0x0:0x4f0f917a42bec17a";""
"restaurant";"Kafe";"Lapo";"Pasar, Sihombu, Kec. Tara bintang, Kabupaten Humbang Hasundutan, Sumatera Utara 22456";"Sihombu, Kec. Tara bintang, Kabupaten Humbang Hasundutan";"SUMATERA UTARA";"22456";"Indonesia";"";"";"";"2.2425549";"98.4590414";"https://maps.google.com/?cid=0x0:0xcc6cc3c6cddec7e1";""
"restaurant";"Rumah Makan";"Rumah Makan BPK Ginting";"8FF4+QP6, Sihotang Hasugian Tonga, Kec. Parlilitan, Kabupaten Humbang Hasundutan, Sumatera Utara 22456";"Sihotang Hasugian Tonga, Kec. Parlilitan, Kabupaten Humbang Hasundutan";"SUMATERA UTARA";"22456";"Indonesia";"";"";"";"2.3244099";"98.4567619";"https://maps.google.com/?cid=0x0:0xa5569b1b915b9431";""
"restaurant";"Kedai Kopi";"Bakso Pelangi";"Pakkat Hauagong, Kec. Pakkat, Kabupaten Humbang Hasundutan, Sumatera Utara 22455";"Kec. Pakkat, Kabupaten Humbang Hasundutan";"SUMATERA UTARA";"22455";"Indonesia";" 081260610061";"";"";"2.1492271";"98.4821445";"https://maps.google.com/?cid=0x0:0xf4c05f9b47ccd835";""
"restaurant";"Toko";"Pakkat,Humbang Hasundutan";"6F52+PG8, Rura Tj., Kec. Pakkat, Kabupaten Humbang Hasundutan, Sumatera Utara";"Kabupaten Humbang Hasundutan, Sumatera Utara";"SUMATERA UTARA";"";"Indonesia";"";"";"";"2.2092773";"98.4513272";"https://maps.google.com/?cid=0x0:0xd0c2d56055272c9d";""
"restaurant";"Sarapan";"Warung mie na.taldi";"Rura Tj., Kec. Pakkat, Kabupaten Humbang Hasundutan, Sumatera Utara 22456";"Kec. Pakkat, Kabupaten Humbang Hasundutan";"SUMATERA UTARA";"22456";"Indonesia";" 081296585831";"";"";"2.2228906";"98.4628758";"https://maps.google.com/?cid=0x0:0x5d6439c960bff723";""
"restaurant";"Brunch";"RM. KURMA";"Jalan SM. RAJA No. 35. 22455, Pakkat Hauagong, Kec. Pakkat, Kabupaten Humbang Hasundutan, Sumatera Utara 22455";"Pakkat Hauagong, Kec. Pakkat, Kabupaten Humbang Hasundutan";"SUMATERA UTARA";"22455";"Indonesia";" 081375772332";"";"";"2.1534428";"98.4738607";"https://maps.google.com/?cid=0x0:0x47a46001821d85de";""
"restaurant";"Sarapan";"Loket CV. Sanggul Mas Putra";"Pasar, Jl. Sisingamangaraja No.41, Pakkat Hauagong, Pakkat, Humbang Hasundutan Regency, North Sumatra 22455";"Jl. Sisingamangaraja No.41, Pakkat Hauagong, Pakkat, Humbang Hasundutan Regency";"SUMATERA UTARA";"22455";"Indonesia";"";"";"";"2.1533527";"98.4738969";"https://maps.google.com/?cid=0x0:0x45fd80e6c6f2d3d7";""
"restaurant";"Rumah Makan";"Rumah Makan Daging Bebek Khas Pakkat";"5F7C+MRP, Pakkat Hauagong, Kec. Pakkat, Kabupaten Humbang Hasundutan, Sumatera Utara 22455";"Pakkat Hauagong, Kec. Pakkat, Kabupaten Humbang Hasundutan";"SUMATERA UTARA";"22455";"Indonesia";" 082164728435";"";"";"2.1642086";"98.4720827";"https://maps.google.com/?cid=0x0:0x5a8364b6a78eb4";""
"restaurant";"Kafe";"Lapo Mak Uli";"8FF4+GMX, Sihotang Hasugian Tonga, Kec. Parlilitan, Kabupaten Humbang Hasundutan, Sumatera Utara 22456";"Sihotang Hasugian Tonga, Kec. Parlilitan, Kabupaten Humbang Hasundutan";"SUMATERA UTARA";"22456";"Indonesia";" 085361772258";"";"";"2.3238566";"98.4567342";"https://maps.google.com/?cid=0x0:0x17392c2e723847dd";""
"restaurant";"Kafe";"Maulana Cafetaria";"8FF4+RJJ, Pasar, Sihotang Hasugian Tonga, Kec. Parlilitan, Kabupaten Humbang Hasundutan, Sumatera Utara 22456";"Pasar, Sihotang Hasugian Tonga, Kec. Parlilitan, Kabupaten Humbang Hasundutan";"SUMATERA UTARA";"22456";"Indonesia";" 082162054555";"";"";"2.3245831";"98.4565028";"https://maps.google.com/?cid=0x0:0x75179efcd17a38bb";""
"restaurant";"Kedai Kopi";"Kantin ramil Incon ps";"8FC4+CFP, Sihotang Hasugian Tonga, Kec. Parlilitan, Kabupaten Humbang Hasundutan, Sumatera Utara 22456";"Sihotang Hasugian Tonga, Kec. Parlilitan, Kabupaten Humbang Hasundutan";"SUMATERA UTARA";"22456";"Indonesia";"";"";"";"2.3210877";"98.4562071";"https://maps.google.com/?cid=0x0:0xf3806ab58e194800";""
"restaurant";"Rumah Makan";"Rumah Makan Saragih";"Pusuk 1 Kec. Parlilitan, Kec. Dolok sanggul, Sumatera Utara";"Kabupaten Humbang Hasundutan, Sumatera Utara";"SUMATERA UTARA";"";"Indonesia";" 082262289279";"";"";"2.2730374";"98.5464545";"https://maps.google.com/?cid=0x0:0xef079ad057b65bcb";""
"restaurant";"Indonesia";"Seribu Rasa";"Plaza Indonesia, L4 - 006  007F, Jl. M.H. Thamrin No.28-30, Gondangdia, Kec. Menteng, Daerah Khusus Ibukota Jakarta 10350";"L4 - 006  007F, Jl. M.H. Thamrin No.28-30, Gondangdia, Kec. Menteng";"SUMATERA UTARA";"10350";"Indonesia";" 02129922546";"";"";"-6.1939392";"106.8211915";"https://maps.google.com/?cid=0x0:0x1c70d5e2f9645d11";""
"cafe";"Kedai Kopi";"STN CAFFE";"8RCF+CC6, Sinambela, Kec. Bakti Raja, Kabupaten Humbang Hasundutan, Sumatera Utara";"Kabupaten Humbang Hasundutan, Sumatera Utara";"SUMATERA UTARA";"";"Indonesia";" 081289463330";"";"";"2.3210348";"98.8235195";"https://maps.google.com/?cid=0x0:0x1003afafbc96b226";""
"cafe";"cafe";"Kec. Bakti Raja";"Kabupaten Humbang Hasundutan, Sumatera Utara";"Kabupaten Humbang Hasundutan, Sumatera Utara";"SUMATERA UTARA";"";"Indonesia";"";"";"";"2.3235404";"98.8207391";"https://maps.google.com/?cid=0x0:0x475a50a12c00c787";""
"cafe";"Brunch";"Rumah Makan  Pemancingan Solotan";"8RHC+J4P, Marbun Toruan, Kec. Bakti Raja, Kabupaten Humbang Hasundutan, Sumatera Utara 22457";"Marbun Toruan, Kec. Bakti Raja, Kabupaten Humbang Hasundutan";"SUMATERA UTARA";"22457";"Indonesia";" 082304735523";"";"";"2.3290835";"98.8203374";"https://maps.google.com/?cid=0x0:0x4d755f5c183af93a";""
"cafe";"Tujuan Wisata";"Water fall of Janji";"8RQ8+Q2M, Unnamed Road, Marbun Toruan, Kec. Bakti Raja, Kabupaten Humbang Hasundutan, Sumatera Utara 22457";"Unnamed Road, Marbun Toruan, Kec. Bakti Raja, Kabupaten Humbang Hasundutan";"SUMATERA UTARA";"22457";"Indonesia";"";"";"";"2.3394684";"98.8150487";"https://maps.google.com/?cid=0x0:0x63c194141ca8ac6b";""
"cafe";"Kedai Kopi";"Warung kopi silaban";"9R57+HG5, Tipang, Kec. Bakti Raja, Kabupaten Humbang Hasundutan, Sumatera Utara 22457";"Tipang, Kec. Bakti Raja, Kabupaten Humbang Hasundutan";"SUMATERA UTARA";"22457";"Indonesia";"";"";"";"2.3588981";"98.8138719";"https://maps.google.com/?cid=0x0:0x6928fa167af4ba90";""
"cafe";"Ikan Bakar";"Restoran Batu Gajah Tipang";"Marbun Toruan, Kec. Bakti Raja, Kabupaten Humbang Hasundutan, Sumatera Utara 22457";"Kec. Bakti Raja, Kabupaten Humbang Hasundutan";"SUMATERA UTARA";"22457";"Indonesia";"";"";"";"2.3460467";"98.8162551";"https://maps.google.com/?cid=0x0:0xae6a3584d1f84250";""
"cafe";"Kedai Kopi";"Warung Kopi Indah";"8RGF+622, Sinambela, Kec. Bakti Raja, Kabupaten Humbang Hasundutan, Sumatera Utara 22457";"Sinambela, Kec. Bakti Raja, Kabupaten Humbang Hasundutan";"SUMATERA UTARA";"22457";"Indonesia";" 082364656661";"";"";"2.325516";"98.8225142";"https://maps.google.com/?cid=0x0:0xfcb849286479bc57";""
"cafe";"Pertanian";"YD Coffee Streetcoffee truck";"Jl. Sisingamangarajs, Parulohan, Kec. Lintong Nihuta, Kabupaten Humbang Hasundutan, Sumatera Utara 22476";"Parulohan, Kec. Lintong Nihuta, Kabupaten Humbang Hasundutan";"SUMATERA UTARA";"22476";"Indonesia";" 081396339298";"";"";"2.3268597";"98.8783824";"https://maps.google.com/?cid=0x0:0x6ee5a068ebbea381";""
"cafe";"Kedai Kopi";"Jalan patuan nagari sandarobot";"9R47+9VM, Tipang, Kec. Bakti Raja, Kabupaten Humbang Hasundutan, Sumatera Utara 22457";"Tipang, Kec. Bakti Raja, Kabupaten Humbang Hasundutan";"SUMATERA UTARA";"22457";"Indonesia";"";"";"";"2.3559672";"98.8146565";"https://maps.google.com/?cid=0x0:0x372fd706b8cd1f33";""
"cafe";"Tujuan Wisata";"Gonting Tipang";"9RC8+V57, Tipang, Kec. Bakti Raja, Kabupaten Humbang Hasundutan, Sumatera Utara 22395";"Tipang, Kec. Bakti Raja, Kabupaten Humbang Hasundutan";"SUMATERA UTARA";"22395";"Indonesia";"";"";"";"2.3721664";"98.8154127";"https://maps.google.com/?cid=0x0:0x4778487c299d1989";""
"cafe";"Kafe";"Rosa Richvia";"Simangulampe, Kec. Bakti Raja, Kabupaten Humbang Hasundutan, Sumatera Utara 22457";"Kec. Bakti Raja, Kabupaten Humbang Hasundutan";"SUMATERA UTARA";"22457";"Indonesia";" 082179536831";"";"";"2.3194815";"98.8378336";"https://maps.google.com/?cid=0x0:0xf267dee1629537aa";""
"cafe";"Toko umum";"Menjual minuman tuakaren";"8R69+87H, Jl. Sisingamangaraja, Sinambela, Kec. Bakti Raja, Kabupaten Humbang Hasundutan, Sumatera Utara 22457";"Jl. Sisingamangaraja, Sinambela, Kec. Bakti Raja, Kabupaten Humbang Hasundutan";"SUMATERA UTARA";"22457";"Indonesia";"";"";"";"2.3108179";"98.8182288";"https://maps.google.com/?cid=0x0:0xcbdd8c4886ec3d53";""
"cafe";"Kedai Kopi";"Kedai Kopi,tuak. Simanjuntak";"Tipang, Kec. Bakti Raja, Kabupaten Humbang Hasundutan, Sumatera Utara 22457";"Kec. Bakti Raja, Kabupaten Humbang Hasundutan";"SUMATERA UTARA";"22457";"Indonesia";" 085276316689";"";"";"2.3527218";"98.8158879";"https://maps.google.com/?cid=0x0:0xed39e4f7f95173d9";""
"cafe";"Restoran";"Desa Holbung Goting sitiotioaa";"9RF7+5V5, Janji Raja, Kec. Sitio-Tio, Kabupaten Humbang Hasundutan, Sumatera Utara 22395";"Janji Raja, Kec. Sitio-Tio, Kabupaten Humbang Hasundutan";"SUMATERA UTARA";"22395";"Indonesia";"";"";"";"2.3728908";"98.8147423";"https://maps.google.com/?cid=0x0:0xe95b21e96b6b65c3";""
"cafe";"Rumah Makan";"Resto Sosor Tukkup Nauli";"8R9Q+QX5, Simangulampe, Kec. Bakti Raja, Kabupaten Humbang Hasundutan, Sumatera Utara 22457";"Simangulampe, Kec. Bakti Raja, Kabupaten Humbang Hasundutan";"SUMATERA UTARA";"22457";"Indonesia";" 081361562992";"";"";"2.3193907";"98.8399753";"https://maps.google.com/?cid=0x0:0x337f8e31c99f5df6";""
"cafe";"Tujuan Wisata";"kedai kopi lokal sileme leme";"8RP6+J9M, Hutaraja, Kec. Dolok sanggul, Kabupaten Humbang Hasundutan, Sumatera Utara";"Kabupaten Humbang Hasundutan, Sumatera Utara";"SUMATERA UTARA";"";"Indonesia";"";"";"";"2.3365891";"98.8109356";"https://maps.google.com/?cid=0x0:0x6f82468596098f0e";""
"cafe";"Kedai Kopi";"Lapo tuak";"8R98+QP3, Marbun Toruan, Kec. Bakti Raja, Kabupaten Humbang Hasundutan, Sumatera Utara 22457";"Marbun Toruan, Kec. Bakti Raja, Kabupaten Humbang Hasundutan";"SUMATERA UTARA";"22457";"Indonesia";"";"";"";"2.3193917";"98.8167924";"https://maps.google.com/?cid=0x0:0xd1850dfa765a28ee";""
"cafe";"Kedai Kopi";"Warung seryl marbun";"8RCF+CJR, Sinambela, Kec. Bakti Raja, Kabupaten Humbang Hasundutan, Sumatera Utara 22457";"Sinambela, Kec. Bakti Raja, Kabupaten Humbang Hasundutan";"SUMATERA UTARA";"22457";"Indonesia";"";"";"";"2.3211969";"98.823969";"https://maps.google.com/?cid=0x0:0x7c6823fbc84c3982";""
"cafe";"Restoran";"Sitalbak Doloksanggul";"Sirisirisi, Kec. Dolok sanggul, Kabupaten Humbang Hasundutan, Sumatera Utara 22457";"Kec. Dolok sanggul, Kabupaten Humbang Hasundutan";"SUMATERA UTARA";"22457";"Indonesia";" 085270116675";"";"";"2.2756085";"98.7451006";"https://maps.google.com/?cid=0x0:0x133d9f7e77e88777";""
"cafe";"Padang";"RM Cristin Valentin";"8RQ8+Q75 Depan Air Terjun Janji, Marbun Toruan, Bakti Raja, Humbang Hasundutan Regency, North Sumatra 22457";"Marbun Toruan, Bakti Raja, Humbang Hasundutan Regency";"SUMATERA UTARA";"22457";"Indonesia";"";"";"";"2.339376";"98.8157322";"https://maps.google.com/?cid=0x0:0x1a5eda26a95b3575";""
"cafe";"Mi";"Bakmi Munthe";"8R47+XJG, Lumban raja, Simamora, Kec. Bakti Raja, Kabupaten Humbang Hasundutan";"Kabupaten Humbang Hasundutan, Sumatera Utara";"SUMATERA UTARA";"";"Indonesia";" 082277724871";"";"";"2.3074256";"98.8140702";"https://maps.google.com/?cid=0x0:0x4ad57675836efe43";""
"cafe";"Restoran";"BERLIN CAFE";"7P5W+8C4, Bonani Onan, Kec. Dolok sanggul, Kabupaten Humbang Hasundutan, Sumatera Utara 22457";"Bonani Onan, Kec. Dolok sanggul, Kabupaten Humbang Hasundutan";"SUMATERA UTARA";"22457";"Indonesia";" 082363870091";"";"";"2.2582504";"98.7460749";"https://maps.google.com/?cid=0x0:0xeb08e1735ea90021";""
"cafe";"Restoran";"Winda studio coffee";"Jl. Pakkat - Dolok Sanggul, Matiti II, Kec. Dolok sanggul, Kabupaten Humbang Hasundutan, Sumatera Utara 22457";"Matiti II, Kec. Dolok sanggul, Kabupaten Humbang Hasundutan";"SUMATERA UTARA";"22457";"Indonesia";" 081361531310";"";"";"2.2575918";"98.7182264";"https://maps.google.com/?cid=0x0:0x75ed218425661030";""
"cafe";"Restoran";"Jelova Coffee and Resto";"Jl. Melanthon Siregar No.42, Ps. Dolok Sanggul, Kec. Dolok sanggul, Kabupaten Humbang Hasundutan, Sumatera Utara 22457";"Ps. Dolok Sanggul, Kec. Dolok sanggul, Kabupaten Humbang Hasundutan";"SUMATERA UTARA";"22457";"Indonesia";" 08128308017";"";"";"2.2597697";"98.7492436";"https://maps.google.com/?cid=0x0:0xac720f84787e20f7";""
"cafe";"Kafe";"IMAJINASI KOPI";"Jalan Doloksanggul - Sidikalang (Siparbue, Bonani Onan, Kec. Dolok sanggul, Kabupaten Humbang Hasundutan, Sumatera Utara 22457";"Bonani Onan, Kec. Dolok sanggul, Kabupaten Humbang Hasundutan";"SUMATERA UTARA";"22457";"Indonesia";" 085270472490";"";"";"2.2661333";"98.7463492";"https://maps.google.com/?cid=0x0:0x5462a1c07d6b78c2";""
"cafe";"Kedai Kopi";"Ibrena Cafe Resto Kopi dari Hati";"Jl. Merdeka, Pasaribu, Kec. Dolok sanggul, Kabupaten Humbang Hasundutan, Sumatera Utara 22457";"Pasaribu, Kec. Dolok sanggul, Kabupaten Humbang Hasundutan";"SUMATERA UTARA";"22457";"Indonesia";" 081396538088";"";"";"2.2611843";"98.7560015";"https://maps.google.com/?cid=0x0:0xd77e0d6a75cf71ae";""
"cafe";"Kedai Kopi";"JALUR DUA Cafe  Resto";"7Q88+P49, Jl. Dolok Sanggul - Siborong - Borong, Pasaribu, Kec. Dolok sanggul, Kabupaten Humbang Hasundutan, Sumatera Utara";"Kabupaten Humbang Hasundutan, Sumatera Utara";"SUMATERA UTARA";"";"Indonesia";" 081260043371";"";"";"2.266786";"98.765317";"https://maps.google.com/?cid=0x0:0x2111239038297508";""
"cafe";"cafe";"Coffee Hotel Ayola Dolok Sanggul";"Jl. Dolok Sanggul - Siborong - Borong, Pakkat, Kec. Dolok sanggul, Kabupaten Humbang Hasundutan, Sumatera Utara 22457";"Pakkat, Kec. Dolok sanggul, Kabupaten Humbang Hasundutan";"SUMATERA UTARA";"22457";"Indonesia";" 06333211396";"";"";"2.2608434";"98.7903237";"https://maps.google.com/?cid=0x0:0xbc95c1f2fbec6208";""
"cafe";"cafe";"N/A";"";"";"SUMATERA UTARA";"";"Indonesia";"";"";"";"";"";"https://maps.google.com/?cid=0x0:0xbc95c1f2fbec6208%7C/g/11hdwqhsqk%7Cen-ID";""
"cafe";"cafe";"Hotel Wisma Mangurna";"Sumatera, Utara, Bonani Onan, Kec. Dolok sanggul, Kabupaten Humbang Hasundutan, Sumatera Utara 22457";"Utara, Bonani Onan, Kec. Dolok sanggul, Kabupaten Humbang Hasundutan";"SUMATERA UTARA";"22457";"Indonesia";" 085361594583";"";"";"2.2696231";"98.7460622";"https://maps.google.com/?cid=0x0:0x227c03897cf2dfbf";""
"cafe";"cafe";"Senior Bakara Hotel";"Jl. Muara, Kabupaten Humbang Hasundutan, Sumatera Utara 22457";"Kabupaten Humbang Hasundutan";"SUMATERA UTARA";"22457";"Indonesia";" 081362268286";"";"";"2.3186427";"98.8351544";"https://maps.google.com/?cid=0x0:0x998c075598393f34";""
"cafe";"cafe";"Grand Maju Hotel";"Jl. Merdeka Ujung, Pasaribu, Kec. Dolok sanggul, Kabupaten Humbang Hasundutan, Sumatera Utara 22457";"Pasaribu, Kec. Dolok sanggul, Kabupaten Humbang Hasundutan";"SUMATERA UTARA";"22457";"Indonesia";" 081312348857";"";"";"2.2644338";"98.761866";"https://maps.google.com/?cid=0x0:0xf4e505db7e6d03b9";""
"cafe";"Tujuan Wisata";"Geosite Sipinsur";"Parulohan, Kec. Paranginan, Kabupaten Humbang Hasundutan, Sumatera Utara 22476";"Kec. Paranginan, Kabupaten Humbang Hasundutan";"SUMATERA UTARA";"22476";"Indonesia";"";"";"";"2.3291448";"98.8813939";"https://maps.google.com/?cid=0x0:0x47ffc29f2eb0d3e1";""
"cafe";"Restoran";"Tabodo Coffee Doloksanggul";"Jl. Merdeka Ujung Jl. Bakara No.Simpang, Pasaribu, Dolok sanggul, Humbang Hasundutan Regency, North Sumatra 22457";"Pasaribu, Dolok sanggul, Humbang Hasundutan Regency";"SUMATERA UTARA";"22457";"Indonesia";" 0816411111";"";"";"2.2645073";"98.7623487";"https://maps.google.com/?cid=0x0:0xc9fb6d0acdd4db75";""
"cafe";"Rumah Makan";"RM Sopo Balian";"7Q64+JRV, Jl. Siliwangi Jl. Dolok Sanggul - Sidikalang, Bonani Onan, Kec. Dolok sanggul, Kabupaten Humbang Hasundutan, Sumatera Utara 22457";"Jl. Siliwangi Jl. Dolok Sanggul - Sidikalang, Bonani Onan, Kec. Dolok sanggul, Kabupaten Humbang Hasundutan";"SUMATERA UTARA";"22457";"Indonesia";" 082389007972";"";"";"2.2616159";"98.7570561";"https://maps.google.com/?cid=0x0:0x62bcc750fb61e9e8";""
"cafe";"Ayam Goreng";"SS FRIED CHICKEN DOLOK SANGGUL";"Jl. Merdeka, Pasaribu, Kec. Dolok sanggul, Kabupaten Humbang Hasundutan, Sumatera Utara 22457";"Pasaribu, Kec. Dolok sanggul, Kabupaten Humbang Hasundutan";"SUMATERA UTARA";"22457";"Indonesia";" 081360756671";"";"";"2.2604452";"98.7551835";"https://maps.google.com/?cid=0x0:0x1c5429effbc46260";""
"cafe";"Padang";"Rm. Bengkalis";"Jl. Sisingamangaraja No.36, Bonani Onan, Kec. Dolok sanggul, Kabupaten Humbang Hasundutan, Sumatera Utara 22457";"Bonani Onan, Kec. Dolok sanggul, Kabupaten Humbang Hasundutan";"SUMATERA UTARA";"22457";"Indonesia";" 085218691667";"";"";"2.2584681";"98.7473238";"https://maps.google.com/?cid=0x0:0xc193a304c62cc5c5";""
"cafe";"Ayam";"Mie Balap Siantar  Ayam Penyet";"Jl. SM. Raja, Lumban Tobing, Kec. Dolok sanggul, Kabupaten Humbang Hasundutan, Sumatera Utara 22457";"Lumban Tobing, Kec. Dolok sanggul, Kabupaten Humbang Hasundutan";"SUMATERA UTARA";"22457";"Indonesia";" 083832667000";"";"";"2.2582414";"98.7462606";"https://maps.google.com/?cid=0x0:0xd0a5d87f0f0bc4b9";""
"cafe";"Rumah Makan";"RM Putri Pribumi Jagal Hoda";"7P4X+RC2, Jl. Letkol GA, Manullang, Kec. Dolok sanggul, Kabupaten Humbang Hasundutan, Sumatera Utara 22457";"Jl. Letkol GA, Manullang, Kec. Dolok sanggul, Kabupaten Humbang Hasundutan";"SUMATERA UTARA";"22457";"Indonesia";" 081381673929";"";"";"2.2570088";"98.748523";"https://maps.google.com/?cid=0x0:0x11f32c8a9b94a045";""
"cafe";"Padang";"Rumah Makan Sederhana";"7P5W+9J9, Bonani Onan, Kec. Dolok sanggul, Kabupaten Humbang Hasundutan, Sumatera Utara 22457";"Bonani Onan, Kec. Dolok sanggul, Kabupaten Humbang Hasundutan";"SUMATERA UTARA";"22457";"Indonesia";"";"";"";"2.2584015";"98.7466196";"https://maps.google.com/?cid=0x0:0xb1d6ccd2adb9fae6";""
"cafe";"cafe";"Sumatera Utara 22457";"Kabupaten Humbang Hasundutan, Sumatera Utara";"Kabupaten Humbang Hasundutan, Sumatera Utara";"SUMATERA UTARA";"";"Indonesia";"";"";"";"2.2174078";"98.7260927";"https://maps.google.com/?cid=0x0:0xfc492d8c933a9bef";""
"cafe";"Kafe";"Batak Kopi";"Pasaribu, Kec. Dolok sanggul, Kabupaten Humbang Hasundutan, Sumatera Utara 22457";"Kec. Dolok sanggul, Kabupaten Humbang Hasundutan";"SUMATERA UTARA";"22457";"Indonesia";" 082167751444";"";"";"2.2578501";"98.7501483";"https://maps.google.com/?cid=0x0:0xe5eb28c0a0a00186";""
"cafe";"Restoran";"Sitalbak Doloksanggul";"Sirisirisi, Kec. Dolok sanggul, Kabupaten Humbang Hasundutan, Sumatera Utara 22457";"Kec. Dolok sanggul, Kabupaten Humbang Hasundutan";"SUMATERA UTARA";"22457";"Indonesia";" 085270116675";"";"";"2.2756085";"98.7451006";"https://maps.google.com/?cid=0x0:0x133d9f7e77e88777";""
"cafe";"Kedai Kopi";"Sanctuary Coffee  Tattoo";"Jl. Letkol. G.A. Manullang No.136, Ps. Dolok Sanggul, Kec. Dolok sanggul, Kabupaten Humbang Hasundutan, Sumatera Utara 22457";"Ps. Dolok Sanggul, Kec. Dolok sanggul, Kabupaten Humbang Hasundutan";"SUMATERA UTARA";"22457";"Indonesia";" 082260500040";"";"";"2.2545022";"98.750034";"https://maps.google.com/?cid=0x0:0xdb652a356bc7ac3d";""
"cafe";"Taman Kanak-kanak";"GRESIA RESTO LIVE MUSIC  KOLAM RENANG";"Jl. Pakkat - Dolok Sanggul, Matiti I, Kec. Dolok sanggul, Kabupaten Humbang Hasundutan, Sumatera Utara 22457";"Matiti I, Kec. Dolok sanggul, Kabupaten Humbang Hasundutan";"SUMATERA UTARA";"22457";"Indonesia";"";"";"";"2.2559875";"98.6854934";"https://maps.google.com/?cid=0x0:0x964c298f6ca6d8d";""
"cafe";"Kafe";"Warung Kopi Opos";"Jl. Sisingamangaraja No.140 A, Bonani Onan, Kec. Dolok sanggul, Kabupaten Humbang Hasundutan, Sumatera Utara 22457";"Bonani Onan, Kec. Dolok sanggul, Kabupaten Humbang Hasundutan";"SUMATERA UTARA";"22457";"Indonesia";" 081394355883";"";"";"2.2583962";"98.7442221";"https://maps.google.com/?cid=0x0:0x3cce7ceb9d4ad346";""
"cafe";"Kafe";"Marbona Resto  Cafe family";"Jl.Sirisirisi No.1, Sirisirisi, Kec. Dolok sanggul, Kabupaten Humbang Hasundutan, Sumatera Utara 22457";"Sirisirisi, Kec. Dolok sanggul, Kabupaten Humbang Hasundutan";"SUMATERA UTARA";"22457";"Indonesia";" 082276618164";"";"";"2.2753696";"98.7458813";"https://maps.google.com/?cid=0x0:0x80d714cb5d3b432c";""
"cafe";"Restoran";"Bandrek Nagoyamas Doloksanggul";"jalan Merdeka Doloksanggul No. 31, Dolok Sanggul, Ps. Dolok Sanggul, Kec. Dolok sanggul, Kabupaten Humbang Hasundutan, Sumatera Utara 22457";"Dolok Sanggul, Ps. Dolok Sanggul, Kec. Dolok sanggul, Kabupaten Humbang Hasundutan";"SUMATERA UTARA";"22457";"Indonesia";" 081264125926";"";"";"2.2586531";"98.749336";"https://maps.google.com/?cid=0x0:0x9eff1d90a9545765";""
"cafe";"Kedai Kopi";"Rajawali Coffee";"6P8F+JW9 GKLI Herman, Jl, Purba Dolok, Dolok sanggul, Humbang Hasundutan Regency, North Sumatra 22457";"Jl, Purba Dolok, Dolok sanggul, Humbang Hasundutan Regency";"SUMATERA UTARA";"22457";"Indonesia";" 085270211468";"";"";"2.2165321";"98.7248725";"https://maps.google.com/?cid=0x0:0x9686207f20429800";""
"cafe";"Kedai Kopi";"Kopilistiwacoffe";"7P5X+MX7, Jl. Melanthon Siregar, Ps. Dolok Sanggul, Kec. Dolok sanggul, Kabupaten Humbang Hasundutan, Sumatera Utara 22457";"Jl. Melanthon Siregar, Ps. Dolok Sanggul, Kec. Dolok sanggul, Kabupaten Humbang Hasundutan";"SUMATERA UTARA";"22457";"Indonesia";"";"";"";"2.2591501";"98.7499326";"https://maps.google.com/?cid=0x0:0x6afaf6f21ef70b1c";""
"cafe";"cafe";"Sumatera Utara 22475";"Sumatera Utara";"Sumatera Utara";"SUMATERA UTARA";"";"Indonesia";"";"";"";"2.2166172";"98.8583309";"https://maps.google.com/?cid=0x0:0x3a0c9f067ea87dcb";""
"cafe";"Grosir Kopi";"Ondo lintong Coffee";"Nagasaribu I, Kec. Lintong Nihuta, Kabupaten Humbang Hasundutan, Sumatera Utara 22475";"Kec. Lintong Nihuta, Kabupaten Humbang Hasundutan";"SUMATERA UTARA";"22475";"Indonesia";" 082287447180";"";"";"2.248996";"98.8998766";"https://maps.google.com/?cid=0x0:0x5af9eb381a5b24e0";""
"cafe";"Restoran";"M18 Coffee";"Nagasaribu I, Kec. Lintong Nihuta, Kabupaten Humbang Hasundutan, Sumatera Utara 22475";"Kec. Lintong Nihuta, Kabupaten Humbang Hasundutan";"SUMATERA UTARA";"22475";"Indonesia";"";"";"";"2.2382203";"98.9052192";"https://maps.google.com/?cid=0x0:0x8e192ef20ae61964";""
"cafe";"Kafe";"Coffee Break Lintong Cafe Billiard";"7VG8+9MX, Jl. Sisingamangaraja, Sibuntuon Parpea, Kec. Paranginan, Kabupaten Humbang Hasundutan, Sumatera Utara";"Kabupaten Humbang Hasundutan, Sumatera Utara";"SUMATERA UTARA";"";"Indonesia";"";"";"";"2.2759937";"98.8667424";"https://maps.google.com/?cid=0x0:0x3d72eebb87be6abb";""
"cafe";"Restoran";"Manna Coffee and resto";"7VG8+5JC, Jl. Sisingamangaraja, Sitolu Bahal, Kec. Lintong Nihuta, Kabupaten Humbang Hasundutan, Sumatera Utara 22475";"Jl. Sisingamangaraja, Sitolu Bahal, Kec. Lintong Nihuta, Kabupaten Humbang Hasundutan";"SUMATERA UTARA";"22475";"Indonesia";"";"";"";"2.2754845";"98.8665401";"https://maps.google.com/?cid=0x0:0x9841ccfdafb1cad";""
"cafe";"Restoran";"ONDO COFFE LINTONG";"JL OPPUNG SOSUHARON No.18, Sibuntuon Parpea, Kec. Lintong Nihuta, Kabupaten Humbang Hasundutan, Sumatera Utara 22475";"Sibuntuon Parpea, Kec. Lintong Nihuta, Kabupaten Humbang Hasundutan";"SUMATERA UTARA";"22475";"Indonesia";" 082277029054";"";"";"2.3187533";"98.8748765";"https://maps.google.com/?cid=0x0:0xc17de45ee317da50";""
"cafe";"Restoran";"Cafe Live Music";"6WV8+79C, Nagasaribu II, Kec. Lintong Nihuta, Kabupaten Humbang Hasundutan, Sumatera Utara 22475";"Nagasaribu II, Kec. Lintong Nihuta, Kabupaten Humbang Hasundutan";"SUMATERA UTARA";"22475";"Indonesia";" 081200000011";"";"";"2.2431821";"98.9159045";"https://maps.google.com/?cid=0x0:0xcba5f08537690920";""
"cafe";"Kedai Kopi";"Strawberry Lintong Coffee";"6WV8+8GW, Nagasaribu II, Kec. Lintong Nihuta, Kabupaten Humbang Hasundutan, Sumatera Utara 22475";"Nagasaribu II, Kec. Lintong Nihuta, Kabupaten Humbang Hasundutan";"SUMATERA UTARA";"22475";"Indonesia";" 082276529829";"";"";"2.2433526";"98.9163337";"https://maps.google.com/?cid=0x0:0x5f7be770533bc339";""
"cafe";"Kedai Kopi";"AR COFFEE";"Jl. Sisingamangaraja No.111, Sibuntuon Parpea, Kec. Lintong Nihuta, Kabupaten Humbang Hasundutan, Sumatera Utara 22475";"Sibuntuon Parpea, Kec. Lintong Nihuta, Kabupaten Humbang Hasundutan";"SUMATERA UTARA";"22475";"Indonesia";"";"";"";"2.2888703";"98.8749563";"https://maps.google.com/?cid=0x0:0x6a73cb0593b7345a";""
"cafe";"Kedai Kopi";"Egaokopi";"Nagasaribu 2, Nagasaribu V, Kec. Lintong Nihuta, Kabupaten Humbang Hasundutan, Sumatera Utara 22475";"Nagasaribu V, Kec. Lintong Nihuta, Kabupaten Humbang Hasundutan";"SUMATERA UTARA";"22475";"Indonesia";" 085805026239";"";"";"2.2644289";"98.9133366";"https://maps.google.com/?cid=0x0:0xa66267353d43fe1f";""
"cafe";"Kedai Kopi";"Mora Brother";"7V75+3P5, Pargaulan, Kec. Lintong Nihuta, Kabupaten Humbang Hasundutan, Sumatera Utara 22475";"Pargaulan, Kec. Lintong Nihuta, Kabupaten Humbang Hasundutan";"SUMATERA UTARA";"22475";"Indonesia";" 082298822952";"";"";"2.2626343";"98.8593453";"https://maps.google.com/?cid=0x0:0xea0d489c702e1f35";""
"cafe";"Kedai Kopi";"Warung Kopi A.Lenni Siregar";"7VRH+HVR, Sigumpar, Kec. Lintong Nihuta, Kabupaten Humbang Hasundutan, Sumatera Utara 22475";"Sigumpar, Kec. Lintong Nihuta, Kabupaten Humbang Hasundutan";"SUMATERA UTARA";"22475";"Indonesia";" 082276852007";"";"";"2.2914793";"98.8796457";"https://maps.google.com/?cid=0x0:0x1f06fc41f68922d9";""
"cafe";"Grosir Kopi";"Ondocoffee lintong";"Jalan Damai No.23, pasar baru, Kec. Lintong Nihuta, Kabupaten Humbang Hasundutan, Sumatera Utara 22475";"pasar baru, Kec. Lintong Nihuta, Kabupaten Humbang Hasundutan";"SUMATERA UTARA";"22475";"Indonesia";" 081396941347";"";"";"2.286291";"98.865028";"https://maps.google.com/?cid=0x0:0x6927dc4090ddf17f";""
"cafe";"Kedai Kopi";"Kopi Siholta";"Jl. Sisingamangaraja, Sitolu Bahal, Kec. Lintong Nihuta, Kabupaten Humbang Hasundutan, Sumatera Utara 22475";"Sitolu Bahal, Kec. Lintong Nihuta, Kabupaten Humbang Hasundutan";"SUMATERA UTARA";"22475";"Indonesia";" 081322518527";"";"";"2.27394";"98.8646577";"https://maps.google.com/?cid=0x0:0xddab3e62499da70";""
"cafe";"Kantor Perusahaan";"Kopi arabika lintong";"Sibaganding,desa ngasaribu v, kecamatan, Kec. Lintong Nihuta, Kabupaten Humbang Hasundutan, Sumatera Utara 22475";"kecamatan, Kec. Lintong Nihuta, Kabupaten Humbang Hasundutan";"SUMATERA UTARA";"22475";"Indonesia";" 081262283517";"";"";"2.2671793";"98.9192839";"https://maps.google.com/?cid=0x0:0x89c9ad477d4d1281";""
"cafe";"Mi";"Warung Bakmie Kopi Tiam,chinnese Food";"Jl. Datu Lobi No.11, Sitolu Bahal, Kec. Lintong Nihuta, Kabupaten Humbang Hasundutan, Sumatera Utara 22475";"Sitolu Bahal, Kec. Lintong Nihuta, Kabupaten Humbang Hasundutan";"SUMATERA UTARA";"22475";"Indonesia";" 081260722256";"";"";"2.2762147";"98.8665318";"https://maps.google.com/?cid=0x0:0x9f720775db6bba64";""
"cafe";"Kedai Kopi";"Lapo toyong";"Jl. Saudara, Nagasaribu II, Kec. Lintong Nihuta, Kabupaten Humbang Hasundutan, Sumatera Utara 22475";"Nagasaribu II, Kec. Lintong Nihuta, Kabupaten Humbang Hasundutan";"SUMATERA UTARA";"22475";"Indonesia";" 081314044093";"";"";"2.2420916";"98.9207824";"https://maps.google.com/?cid=0x0:0x659f49a6901aea3f";""
"cafe";"Toko bahan makanan";"UD.SEDERHANA";"7VJC+6GR, Pasar baru, Kec. Lintong Nihuta, Kabupaten Humbang Hasundutan, Sumatera Utara 22475";"Pasar baru, Kec. Lintong Nihuta, Kabupaten Humbang Hasundutan";"SUMATERA UTARA";"22475";"Indonesia";" 081282190403";"";"";"2.2806126";"98.8712799";"https://maps.google.com/?cid=0x0:0x9f3428a865e162a";""
"cafe";"Kedai Kopi";"LIORA COFFEE LINTONG";"7VC3+34G, Tapian Nauli, Kec. Lintong Nihuta, Kabupaten Humbang Hasundutan, Sumatera Utara 22475";"Tapian Nauli, Kec. Lintong Nihuta, Kabupaten Humbang Hasundutan";"SUMATERA UTARA";"22475";"Indonesia";" 082166717549";"";"";"2.2701766";"98.8528164";"https://maps.google.com/?cid=0x0:0x1abadc63dc946ff4";""
"cafe";"Rumah Makan";"RUMAH MAKAN ALE ALENTA";"7V4H+RGC, Pargaulan, Kec. Lintong Nihuta, Kabupaten Humbang Hasundutan, Sumatera Utara 22475";"Pargaulan, Kec. Lintong Nihuta, Kabupaten Humbang Hasundutan";"SUMATERA UTARA";"22475";"Indonesia";" 081376159966";"";"";"2.2570598";"98.8787572";"https://maps.google.com/?cid=0x0:0x68fc0b33b00e5f49";""
"cafe";"Grosir Kopi";"Tom Coffee";"7VRM+QPX, Sigumpar, Kec. Lintong Nihuta, Kabupaten Humbang Hasundutan, Sumatera Utara 22475";"Sigumpar, Kec. Lintong Nihuta, Kabupaten Humbang Hasundutan";"SUMATERA UTARA";"22475";"Indonesia";" 081263651148";"";"";"2.2919889";"98.8843604";"https://maps.google.com/?cid=0x0:0xde72cbdae6b7512";""
"cafe";"Kedai Kopi";"Jessica kopi";"6WX2+5V2, Nagasaribu I, Kec. Lintong Nihuta, Kabupaten Humbang Hasundutan, Sumatera Utara 22475";"Nagasaribu I, Kec. Lintong Nihuta, Kabupaten Humbang Hasundutan";"SUMATERA UTARA";"22475";"Indonesia";"";"";"";"2.2478954";"98.9021357";"https://maps.google.com/?cid=0x0:0x3c3a053ffaa2eabc";""
"cafe";"Kafe";"Eco coffee";"desa nagasaribu 4, onan sibaganding, Jl. Borsak, Pargaulan, Kec. Lintong Nihuta, Kabupaten Humbang Hasundutan, Sumatera Utara 22475";"onan sibaganding, Jl. Borsak, Pargaulan, Kec. Lintong Nihuta, Kabupaten Humbang Hasundutan";"SUMATERA UTARA";"22475";"Indonesia";" 081265276262";"";"";"2.2793392";"98.871143";"https://maps.google.com/?cid=0x0:0x72b7e72e50b3d9db";""
"cafe";"Grosir Kopi";"ENNA COFFEE";"Nagasaribu II, Kec. Lintong Nihuta, Kabupaten Humbang Hasundutan, Sumatera Utara 22457";"Kec. Lintong Nihuta, Kabupaten Humbang Hasundutan";"SUMATERA UTARA";"22457";"Indonesia";" 081263343129";"";"";"2.2430176";"98.9162558";"https://maps.google.com/?cid=0x0:0x6ccfb4b543bc54b0";""
"cafe";"Grosir Kopi";"Manggora Coffee";"Onan Ganjang, Kec. Onan Ganjang, Kabupaten Humbang Hasundutan, Sumatera Utara 22454";"Kec. Onan Ganjang, Kabupaten Humbang Hasundutan";"SUMATERA UTARA";"22454";"Indonesia";" 082292522978";"";"";"2.1526613";"98.626127";"https://maps.google.com/?cid=0x0:0x20abc4e9328b9980";""
"cafe";"cafe";"Onan Ganjang";"Kec. Onan Ganjang, Kabupaten Humbang Hasundutan, Sumatera Utara";"Kabupaten Humbang Hasundutan, Sumatera Utara";"SUMATERA UTARA";"";"Indonesia";"";"";"";"2.1523331";"98.6298119";"https://maps.google.com/?cid=0x0:0x5b19fc0bdff0c0f3";""
"cafe";"Grosir Kopi";"4LUCK COFFEE Onan Ganjang";"Jl.Sisingamangaraja No.100, Onan Ganjang, Kec. Onan Ganjang, Kabupaten Humbang Hasundutan, Sumatera Utara 22454";"Onan Ganjang, Kec. Onan Ganjang, Kabupaten Humbang Hasundutan";"SUMATERA UTARA";"22454";"Indonesia";" 085376409010";"";"";"2.1555416";"98.6295105";"https://maps.google.com/?cid=0x0:0x966700935de2431e";""
"cafe";"Grosir Kopi";"Parlomangan";"Jl. Pakkat - Dolok Sanggul No.5, Parbotihan, Kec. Onan Ganjang, Kabupaten Humbang Hasundutan, Sumatera Utara 22455";"Parbotihan, Kec. Onan Ganjang, Kabupaten Humbang Hasundutan";"SUMATERA UTARA";"22455";"Indonesia";"";"";"";"2.1387244";"98.5742256";"https://maps.google.com/?cid=0x0:0x6c2ed0e3abc549ec";""
"cafe";"Rumah Makan";"warung makan FEBRINY";"5J4H+9RH, Onan Ganjang, Kec. Onan Ganjang, Kabupaten Humbang Hasundutan, Sumatera Utara 22454";"Onan Ganjang, Kec. Onan Ganjang, Kabupaten Humbang Hasundutan";"SUMATERA UTARA";"22454";"Indonesia";"";"";"";"2.1559398";"98.629625";"https://maps.google.com/?cid=0x0:0x6e920d01cbb8d55e";""
"cafe";"Rumah Makan";"RM Hot Parlindungan";"Onan Ganjang, Kec. Onan Ganjang, Kabupaten Humbang Hasundutan, Sumatera Utara 22454";"Kec. Onan Ganjang, Kabupaten Humbang Hasundutan";"SUMATERA UTARA";"22454";"Indonesia";" 082273328573";"";"";"2.1620482";"98.6302653";"https://maps.google.com/?cid=0x0:0xd061cce5f6406e31";""
"cafe";"";"WARKOP PAK SUNARDI";"5J3H+MRM, Unnamed Road, Onan Ganjang, Kec. Onan Ganjang, Kabupaten Humbang Hasundutan, Sumatera Utara 22454";"Unnamed Road, Onan Ganjang, Kec. Onan Ganjang, Kabupaten Humbang Hasundutan";"SUMATERA UTARA";"22454";"Indonesia";" 081376533819";"";"";"2.1542063";"98.6295506";"https://maps.google.com/?cid=0x0:0xcae8449b2b342b64";""
"cafe";"Penginapan";"Sampetua";"4JVC+87G, Jl. Pakkat - Dolok Sanggul, Onan Ganjang, Kec. Onan Ganjang, Kabupaten Humbang Hasundutan, Sumatera Utara 22454";"Jl. Pakkat - Dolok Sanggul, Onan Ganjang, Kec. Onan Ganjang, Kabupaten Humbang Hasundutan";"SUMATERA UTARA";"22454";"Indonesia";"";"";"";"2.1433174";"98.6207025";"https://maps.google.com/?cid=0x0:0xb70c60ab959b74fc";""
"cafe";"Sekolah";"LAPO TIBO";"5J4M+962, Onan Ganjang, Kec. Onan Ganjang, Kabupaten Humbang Hasundutan, Sumatera Utara 22454";"Onan Ganjang, Kec. Onan Ganjang, Kabupaten Humbang Hasundutan";"SUMATERA UTARA";"22454";"Indonesia";"";"";"";"2.155897";"98.633003";"https://maps.google.com/?cid=0x0:0x39da98d1a7fd9fcb";""
"cafe";"Kedai Kopi";"Kedai Kopi Torsa";"4JP4+H5W, Parbotihan, Kec. Onan Ganjang, Kabupaten Humbang Hasundutan, Sumatera Utara 22454";"Parbotihan, Kec. Onan Ganjang, Kabupaten Humbang Hasundutan";"SUMATERA UTARA";"22454";"Indonesia";"";"";"";"2.136483";"98.6054533";"https://maps.google.com/?cid=0x0:0xe71be0ee83df5a51";""
"cafe";"Kafe";"KEDAI KOPI HANY MORA";"4JQ5+6CH, Parbotihan, Kec. Onan Ganjang, Kabupaten Humbang Hasundutan, Sumatera Utara 22454";"Parbotihan, Kec. Onan Ganjang, Kabupaten Humbang Hasundutan";"SUMATERA UTARA";"22454";"Indonesia";"";"";"";"2.137968";"98.608596";"https://maps.google.com/?cid=0x0:0xa3a6b7efc2bfb490";""
"cafe";"Restoran";"DADI PANGGANG";"4JQ7+P4Q, Jl. Pakkat - Dolok Sanggul, Onan Ganjang, Kec. Onan Ganjang, Kabupaten Humbang Hasundutan, Sumatera Utara 22454";"Jl. Pakkat - Dolok Sanggul, Onan Ganjang, Kec. Onan Ganjang, Kabupaten Humbang Hasundutan";"SUMATERA UTARA";"22454";"Indonesia";"";"";"";"2.139344";"98.6128641";"https://maps.google.com/?cid=0x0:0x640d1f52d9743f3";""
"cafe";"cafe";"Kec. Onan Ganjang";"Kabupaten Humbang Hasundutan, Sumatera Utara";"Kabupaten Humbang Hasundutan, Sumatera Utara";"SUMATERA UTARA";"";"Indonesia";"";"";"";"2.1547734";"98.6295724";"https://maps.google.com/?cid=0x0:0xdce7ed5f2d2ccaa1";""
"cafe";"Toko";"Warung oppung benjamin";"2JCQ+FXG, Sanggaran II, Kec. Onan Ganjang, Kabupaten Humbang Hasundutan, Sumatera Utara 22454";"Sanggaran II, Kec. Onan Ganjang, Kabupaten Humbang Hasundutan";"SUMATERA UTARA";"22454";"Indonesia";"";"";"";"2.0211991";"98.6399672";"https://maps.google.com/?cid=0x0:0x42753a02c4d3e482";""
"cafe";"Kedai Kopi";"Lapo Nainggolan Parnapa";"Parnapa, Kec. Onan Ganjang, Kabupaten Humbang Hasundutan, Sumatera Utara";"Kabupaten Humbang Hasundutan, Sumatera Utara";"SUMATERA UTARA";"";"Indonesia";"";"";"";"2.1977962";"98.6433522";"https://maps.google.com/?cid=0x0:0xf0a85e2a9fea0a31";""
"cafe";"Kedai Kopi";"Tempat nongkrong";"5H7P+52, Batu Nagodang Siatas, Kec. Onan Ganjang, Kabupaten Humbang Hasundutan, Sumatera Utara";"Kabupaten Humbang Hasundutan, Sumatera Utara";"SUMATERA UTARA";"";"Indonesia";"";"";"";"2.1629113";"98.5850922";"https://maps.google.com/?cid=0x0:0x38316688fec5c1c5";""
"cafe";"cafe";"Lagona cafe resto";"4FXQ+6F, Purba Bersatu, Kec. Pakkat, Kabupaten Humbang Hasundutan, Sumatera Utara";"Kabupaten Humbang Hasundutan, Sumatera Utara";"SUMATERA UTARA";"";"Indonesia";" 082112792295";"";"";"2.148011";"98.488701";"https://maps.google.com/?cid=0x0:0xe5507c8c415ffa2c";""
"cafe";"Rumah Makan";"Warungkopi Aritonang";"5M5P+M76, Bonan Dolok I, Kec. Sijama Polang, Kabupaten Humbang Hasundutan, Sumatera Utara 22457";"Bonan Dolok I, Kec. Sijama Polang, Kabupaten Humbang Hasundutan";"SUMATERA UTARA";"22457";"Indonesia";"";"";"";"2.1591589";"98.6856389";"https://maps.google.com/?cid=0x0:0x4eca35d709c31462";""
"cafe";"Kedai Kopi";"Lapo E.Sihotang";"5HGG+55, Kalapa Namardakka, Manalu, Kec. Pakkat, Kabupaten Humbang Hasundutan, Sumatera Utara 22456";"Kalapa Namardakka, Manalu, Kec. Pakkat, Kabupaten Humbang Hasundutan";"SUMATERA UTARA";"22456";"Indonesia";"";"";"";"2.1755797";"98.5752824";"https://maps.google.com/?cid=0x0:0x993c7509649fa11f";""
"cafe";"cafe";"Pakkat";"Pakkat Hauagong, Kec. Pakkat, Kabupaten Humbang Hasundutan, Sumatera Utara";"Kabupaten Humbang Hasundutan, Sumatera Utara";"SUMATERA UTARA";"";"Indonesia";"";"";"";"2.145129";"98.473518";"https://maps.google.com/?cid=0x0:0xd970ca7c81a5c728";""
"cafe";"Grosir Kopi";"Parlomangan";"Jl. Pakkat - Dolok Sanggul No.5, Parbotihan, Kec. Onan Ganjang, Kabupaten Humbang Hasundutan, Sumatera Utara 22455";"Parbotihan, Kec. Onan Ganjang, Kabupaten Humbang Hasundutan";"SUMATERA UTARA";"22455";"Indonesia";"";"";"";"2.1387244";"98.5742256";"https://maps.google.com/?cid=0x0:0x6c2ed0e3abc549ec";""
"cafe";"Kedai Kopi";"Bakso Pelangi";"Pakkat Hauagong, Kec. Pakkat, Kabupaten Humbang Hasundutan, Sumatera Utara 22455";"Kec. Pakkat, Kabupaten Humbang Hasundutan";"SUMATERA UTARA";"22455";"Indonesia";" 081260610061";"";"";"2.1492271";"98.4821445";"https://maps.google.com/?cid=0x0:0xf4c05f9b47ccd835";""
"cafe";"Kedai Kopi";"Kedai Pancuran Sitorus Pane";"4F38+MFF, Jl. Barus - Pakkat, Ambobi Paranginan, Kec. Pakkat, Kabupaten Humbang Hasundutan, Sumatera Utara 22455";"Jl. Barus - Pakkat, Ambobi Paranginan, Kec. Pakkat, Kabupaten Humbang Hasundutan";"SUMATERA UTARA";"22455";"Indonesia";" 085359081733";"";"";"2.1041946";"98.4661621";"https://maps.google.com/?cid=0x0:0x9bb072ed581ce30c";""
"cafe";"Kedai Kopi";"Lapo partukkot";"5FP7+9P4, Pakkat Hauagong, Kec. Pakkat, Kabupaten Humbang Hasundutan, Sumatera Utara 22455";"Pakkat Hauagong, Kec. Pakkat, Kabupaten Humbang Hasundutan";"SUMATERA UTARA";"22455";"Indonesia";" 081260734577";"";"";"2.1859427";"98.4643733";"https://maps.google.com/?cid=0x0:0x6c555da4582748ea";""
"cafe";"Toko";"Pakkat,Humbang Hasundutan";"6F52+PG8, Rura Tj., Kec. Pakkat, Kabupaten Humbang Hasundutan, Sumatera Utara";"Kabupaten Humbang Hasundutan, Sumatera Utara";"SUMATERA UTARA";"";"Indonesia";"";"";"";"2.2092773";"98.4513272";"https://maps.google.com/?cid=0x0:0xd0c2d56055272c9d";""
"cafe";"Kedai Kopi";"Warung Kopi Lay Pasaribu";"4GWC+FH7, Jl. Pakkat - Dolok Sanggul, Purba Baringin, Kec. Pakkat, Kabupaten Humbang Hasundutan, Sumatera Utara 22455";"Jl. Pakkat - Dolok Sanggul, Purba Baringin, Kec. Pakkat, Kabupaten Humbang Hasundutan";"SUMATERA UTARA";"22455";"Indonesia";"";"";"";"2.1461526";"98.5214096";"https://maps.google.com/?cid=0x0:0x7d475e4a4994b904";""
"cafe";"Kedai Kopi";"Lapo Sihotang Parlomang";"Jl. Balerong No.Pasar, Pakkat Hauagong, Kec. Pakkat, Kabupaten Humbang Hasundutan, Sumatera Utara 22455";"Pakkat Hauagong, Kec. Pakkat, Kabupaten Humbang Hasundutan";"SUMATERA UTARA";"22455";"Indonesia";" 082164728424";"";"";"2.1534849";"98.4732849";"https://maps.google.com/?cid=0x0:0xa2f49a68759ae222";""
"cafe";"Kafe";"Lapo Tuak Pa Masni Manalu";"Jl. Barus - Pakkat, Pakkat Hauagong, Kec. Pakkat, Kabupaten Humbang Hasundutan, Sumatera Utara";"Kabupaten Humbang Hasundutan, Sumatera Utara";"SUMATERA UTARA";"";"Indonesia";" 082277036091";"";"";"2.1368753";"98.4595652";"https://maps.google.com/?cid=0x0:0xdee2d856f26b7a4d";""
"cafe";"cafe";"Pakkat";"4FWF+3C2, Pakkat Hauagong, Kec. Pakkat, Kabupaten Humbang Hasundutan, Sumatera Utara";"Kabupaten Humbang Hasundutan, Sumatera Utara";"SUMATERA UTARA";"";"Indonesia";"";"";"";"2.145129";"98.473518";"https://maps.google.com/?cid=0x0:0x6a512f0b3c59c9b3";""
"cafe";"cafe";"Arion cafe";"4FWF+3C2, Pakkat Hauagong, Kec. Pakkat, Kabupaten Humbang Hasundutan, Sumatera Utara";"Kabupaten Humbang Hasundutan, Sumatera Utara";"SUMATERA UTARA";"";"Indonesia";"";"";"";"2.145129";"98.473518";"https://maps.google.com/?cid=0x0:0xb37912f38c836fe1";""
"cafe";"Kedai Kopi";"Manorsa Coffe";"Jln.lintas, Pakkat Hauagong, Kec. Pakkat, Kabupaten Humbang Hasundutan, Sumatera Utara 22455";"Pakkat Hauagong, Kec. Pakkat, Kabupaten Humbang Hasundutan";"SUMATERA UTARA";"22455";"Indonesia";" 081397991631";"";"";"2.1596509";"98.4705653";"https://maps.google.com/?cid=0x0:0x61cc1f7beeea15dc";""
"cafe";"cafe";"Kec. Paranginan";"Kabupaten Humbang Hasundutan, Sumatera Utara";"Kabupaten Humbang Hasundutan, Sumatera Utara";"SUMATERA UTARA";"";"Indonesia";"";"";"";"2.3016854";"98.9270035";"https://maps.google.com/?cid=0x0:0x690416ecba08580d";""
"cafe";"Kafe";"UD. Paranginan Coffee";"8W3H+FQQ, Jalan Guru Hennery, Sihonongan, Kec. Paranginan, Kabupaten Humbang Hasundutan, Sumatera Utara 22476";"Jalan Guru Hennery, Sihonongan, Kec. Paranginan, Kabupaten Humbang Hasundutan";"SUMATERA UTARA";"22476";"Indonesia";" 0816950355";"";"";"2.3037139";"98.9294822";"https://maps.google.com/?cid=0x0:0xc003610b556e0d00";""
"cafe";"Kedai Kopi";"COFFE SHOP PARANGINAN";"7WV3+FWP, Unnamed Road, Lobu Tolong, Kec. Paranginan, Kabupaten Humbang Hasundutan, Sumatera Utara 22476";"Unnamed Road, Lobu Tolong, Kec. Paranginan, Kabupaten Humbang Hasundutan";"SUMATERA UTARA";"22476";"Indonesia";"";"";"";"2.2937198";"98.9048206";"https://maps.google.com/?cid=0x0:0xad5a23050d8726c7";""
"cafe";"Kafe";"Warkop Murdani";"7WR5+24M, Lobu Tolong, Kec. Paranginan, Kabupaten Humbang Hasundutan, Sumatera Utara 22475";"Lobu Tolong, Kec. Paranginan, Kabupaten Humbang Hasundutan";"SUMATERA UTARA";"22475";"Indonesia";"";"";"";"2.2900954";"98.9077979";"https://maps.google.com/?cid=0x0:0x8ca8650596a2deb4";""
"cafe";"Rumah Makan";"RM Punia Ayam Kampung Napinadar";"7WVQ+294, Bahalimbalo, Kec. Paranginan, Kabupaten Humbang Hasundutan, Sumatera Utara 22476";"Bahalimbalo, Kec. Paranginan, Kabupaten Humbang Hasundutan";"SUMATERA UTARA";"22476";"Indonesia";" 082166940195";"";"";"2.2925073";"98.9384503";"https://maps.google.com/?cid=0x0:0x5181329be1328581";""
"cafe";"Kedai Kopi";"Kede Kopi Hotniel Marbaun";"7XV4+PJ3, Paranginan Sel., Kec. Paranginan, Kabupaten Humbang Hasundutan, Sumatera Utara 22476";"Paranginan Sel., Kec. Paranginan, Kabupaten Humbang Hasundutan";"SUMATERA UTARA";"22476";"Indonesia";"";"";"";"2.2942659";"98.9565329";"https://maps.google.com/?cid=0x0:0x5ba0c312209c2ecc";""
"cafe";"Restoran";"Winda studio coffee";"Jl. Pakkat - Dolok Sanggul, Matiti II, Kec. Dolok sanggul, Kabupaten Humbang Hasundutan, Sumatera Utara 22457";"Matiti II, Kec. Dolok sanggul, Kabupaten Humbang Hasundutan";"SUMATERA UTARA";"22457";"Indonesia";" 081361531310";"";"";"2.2575918";"98.7182264";"https://maps.google.com/?cid=0x0:0x75ed218425661030";""
"cafe";"Kafe";"Wina Panjaitan";"7WG7+QH8, Unnamed Road, Lobutolong Habinsaran, Kec. Paranginan, Kabupaten Humbang Hasundutan, Sumatera Utara 22475";"Unnamed Road, Lobutolong Habinsaran, Kec. Paranginan, Kabupaten Humbang Hasundutan";"SUMATERA UTARA";"22475";"Indonesia";" 082362287983";"";"";"2.2769148";"98.9139582";"https://maps.google.com/?cid=0x0:0x1eef9eb02fca9141";""
"cafe";"Kedai Kopi";"Firman Sianturi";"7WH6+257, Lobutolong Habinsaran, Kec. Paranginan, Kabupaten Humbang Hasundutan, Sumatera Utara";"Kabupaten Humbang Hasundutan, Sumatera Utara";"SUMATERA UTARA";"";"Indonesia";"";"";"";"2.2775278";"98.9104291";"https://maps.google.com/?cid=0x0:0x65f73faedec578ab";""
"cafe";"Kedai Kopi";"Robean Cafe and Resto";"8W3Q+J2, Sihonongan, Kec. Paranginan, Kabupaten Humbang Hasundutan, Sumatera Utara";"Kabupaten Humbang Hasundutan, Sumatera Utara";"SUMATERA UTARA";"";"Indonesia";"";"";"";"2.3040585";"98.9375231";"https://maps.google.com/?cid=0x0:0x426573f3e173916b";""
"cafe";"Restoran";"MONTERO Coffee and Resto Hutaginjang";"Tapian Nauli, Jl. Silangit, Muara, Kec. Muara, Kabupaten Tapanuli Utara, Sumatera Utara 22476";"Jl. Silangit, Muara, Kec. Muara, Kabupaten Tapanuli Utara";"SUMATERA UTARA";"22476";"Indonesia";" 081264776759";"";"";"2.3164904";"98.9579617";"https://maps.google.com/?cid=0x0:0xb4bccbf0cf3dd6e3";""
"cafe";"Grosir Kopi";"Ondo lintong Coffee";"Nagasaribu I, Kec. Lintong Nihuta, Kabupaten Humbang Hasundutan, Sumatera Utara 22475";"Kec. Lintong Nihuta, Kabupaten Humbang Hasundutan";"SUMATERA UTARA";"22475";"Indonesia";" 082287447180";"";"";"2.248996";"98.8998766";"https://maps.google.com/?cid=0x0:0x5af9eb381a5b24e0";""
"cafe";"Restoran";"Cafe Live Music";"6WV8+79C, Nagasaribu II, Kec. Lintong Nihuta, Kabupaten Humbang Hasundutan, Sumatera Utara 22475";"Nagasaribu II, Kec. Lintong Nihuta, Kabupaten Humbang Hasundutan";"SUMATERA UTARA";"22475";"Indonesia";" 081200000011";"";"";"2.2431821";"98.9159045";"https://maps.google.com/?cid=0x0:0xcba5f08537690920";""
"cafe";"Toko Perlengkapan Rumah";"Warung Oppung Ayunda";"7XG5+WPV, Paranginan Sel., Kec. Paranginan, Kabupaten Humbang Hasundutan, Sumatera Utara 22476";"Paranginan Sel., Kec. Paranginan, Kabupaten Humbang Hasundutan";"SUMATERA UTARA";"22476";"Indonesia";" 085275583082";"";"";"2.2773737";"98.9593003";"https://maps.google.com/?cid=0x0:0x771311b41e0240fa";""
"cafe";"Kafe";"Warung kopi Abet Togatorop";"7WGQ+HM2, Unnamed Road, Siborutorup, Kec. Paranginan, Kabupaten Humbang Hasundutan, Sumatera Utara 22476";"Unnamed Road, Siborutorup, Kec. Paranginan, Kabupaten Humbang Hasundutan";"SUMATERA UTARA";"22476";"Indonesia";"";"";"";"2.2763804";"98.9391252";"https://maps.google.com/?cid=0x0:0xe6a5ae415defe581";""
"cafe";"Kedai Kopi";"Kopi Workshop Gani Silaban";"7W23+FV5, Nagasaribu I, Kec. Lintong Nihuta, Kabupaten Humbang Hasundutan, Sumatera Utara 22475";"Nagasaribu I, Kec. Lintong Nihuta, Kabupaten Humbang Hasundutan";"SUMATERA UTARA";"22475";"Indonesia";"";"";"";"2.2511409";"98.9047395";"https://maps.google.com/?cid=0x0:0xb5e5de053b715c60";""
"cafe";"Restoran";"BAKMIE CHIALUNG";"7WHM+6CJ, Jl. Merdeka, Lumban Bar., Kec. Paranginan, Kabupaten Humbang Hasundutan, Sumatera Utara 22475";"Jl. Merdeka, Lumban Bar., Kec. Paranginan, Kabupaten Humbang Hasundutan";"SUMATERA UTARA";"22475";"Indonesia";" 081377358213";"";"";"2.278089";"98.9335094";"https://maps.google.com/?cid=0x0:0x3a2a66063b4e6a02";""
"cafe";"Kedai Kopi";"Warung misop Boru manik";"7WQ4+R5V WARUNG BORU MANIK, Samping Gereja Gpsi, Lobu Tolong, Kec. Paranginan, Kabupaten Humbang Hasundutan, Sumatera Utara 22475";"Samping Gereja Gpsi, Lobu Tolong, Kec. Paranginan, Kabupaten Humbang Hasundutan";"SUMATERA UTARA";"22475";"Indonesia";" 081275272253";"";"";"2.2896234";"98.9054338";"https://maps.google.com/?cid=0x0:0x16071a6c39d9c1e5";""
"cafe";"Kedai Kopi";"Ibrena Cafe Resto Kopi dari Hati";"Jl. Merdeka, Pasaribu, Kec. Dolok sanggul, Kabupaten Humbang Hasundutan, Sumatera Utara 22457";"Pasaribu, Kec. Dolok sanggul, Kabupaten Humbang Hasundutan";"SUMATERA UTARA";"22457";"Indonesia";" 081396538088";"";"";"2.2611843";"98.7560015";"https://maps.google.com/?cid=0x0:0xd77e0d6a75cf71ae";""
"cafe";"Indonesia";"WARUNG MIE SOP NA.DEVI";"Lobu Tolong, Kec. Paranginan, Kabupaten Humbang Hasundutan, Sumatera Utara 22475";"Kec. Paranginan, Kabupaten Humbang Hasundutan";"SUMATERA UTARA";"22475";"Indonesia";"";"";"";"2.2862404";"98.908286";"https://maps.google.com/?cid=0x0:0x1df231438c1a36b1";""
"cafe";"Batak";"TAOTIO Rest Area Paranginan";"7VRQ+5QW, Jl. Sisingamangaraja, Sigumpar, Kec. Lintong Nihuta, Kabupaten Humbang Hasundutan, Sumatera Utara 22475";"Jl. Sisingamangaraja, Sigumpar, Kec. Lintong Nihuta, Kabupaten Humbang Hasundutan";"SUMATERA UTARA";"22475";"Indonesia";"";"";"";"2.2904787";"98.8894584";"https://maps.google.com/?cid=0x0:0x69b5255665b95df2";""
"cafe";"Kedai Kopi";"Egaokopi";"Nagasaribu 2, Nagasaribu V, Kec. Lintong Nihuta, Kabupaten Humbang Hasundutan, Sumatera Utara 22475";"Nagasaribu V, Kec. Lintong Nihuta, Kabupaten Humbang Hasundutan";"SUMATERA UTARA";"22475";"Indonesia";" 085805026239";"";"";"2.2644289";"98.9133366";"https://maps.google.com/?cid=0x0:0xa66267353d43fe1f";""
"cafe";"Warnet";"Iwan net / ayam potong";"Simpang 4 paranginan, Lumban Bar., Kec. Paranginan, Kabupaten Humbang Hasundutan, Sumatera Utara 22475";"Lumban Bar., Kec. Paranginan, Kabupaten Humbang Hasundutan";"SUMATERA UTARA";"22475";"Indonesia";" 085360893804";"";"";"2.2919744";"98.9283814";"https://maps.google.com/?cid=0x0:0x4e2c9b8ef19eefa1";""
"cafe";"Kafe";"Warung Tulang di paranginan";"7WG4+GV5, Jl. Simataniari, Siharjulu, Kec. Lintong Nihuta, Kabupaten Humbang Hasundutan, Sumatera Utara 22475";"Jl. Simataniari, Siharjulu, Kec. Lintong Nihuta, Kabupaten Humbang Hasundutan";"SUMATERA UTARA";"22475";"Indonesia";" 088807663267";"";"";"2.2761075";"98.9064061";"https://maps.google.com/?cid=0x0:0xc0bb7c9ac50c8605";""
"cafe";"cafe";"Parlilitan";"Sihotang Hasugian Tonga, Kec. Parlilitan, Kabupaten Humbang Hasundutan, Sumatera Utara";"Kabupaten Humbang Hasundutan, Sumatera Utara";"SUMATERA UTARA";"";"Indonesia";"";"";"";"2.3179599";"98.457001";"https://maps.google.com/?cid=0x0:0xb3282a468af9977";""
"cafe";"Kedai Kopi";"Kantin ramil Incon ps";"8FC4+CFP, Sihotang Hasugian Tonga, Kec. Parlilitan, Kabupaten Humbang Hasundutan, Sumatera Utara 22456";"Sihotang Hasugian Tonga, Kec. Parlilitan, Kabupaten Humbang Hasundutan";"SUMATERA UTARA";"22456";"Indonesia";"";"";"";"2.3210877";"98.4562071";"https://maps.google.com/?cid=0x0:0xf3806ab58e194800";""
"cafe";"Kafe";"Silaban Cafe";"7GPG+X7F, Baringin, Kec. Parlilitan, Kabupaten Humbang Hasundutan, Sumatera Utara";"Kabupaten Humbang Hasundutan, Sumatera Utara";"SUMATERA UTARA";"";"Indonesia";" 081376860185";"";"";"2.2874281";"98.525679";"https://maps.google.com/?cid=0x0:0xddb292111fdc9e84";""
"cafe";"Kedai Kopi";"Ferdinan Coffee  Doorsmeer";"Sionom Hudon Tim. I, Kec. Parlilitan, Kabupaten Humbang Hasundutan, Sumatera Utara";"Kabupaten Humbang Hasundutan, Sumatera Utara";"SUMATERA UTARA";"";"Indonesia";" 082268271071";"";"";"2.3560794";"98.4712917";"https://maps.google.com/?cid=0x0:0x6b5b25567e494570";""
"cafe";"Kedai Kopi";"Silencang warkop/home";"C9GV+H5R, Sionom Hudon Tonga, Kec. Parlilitan, Kabupaten Humbang Hasundutan, Sumatera Utara 22456";"Sionom Hudon Tonga, Kec. Parlilitan, Kabupaten Humbang Hasundutan";"SUMATERA UTARA";"22456";"Indonesia";"";"";"";"2.4265481";"98.3920402";"https://maps.google.com/?cid=0x0:0xfeb8f5b384b00855";""
"cafe";"Kedai Kopi";"Warung Kopi Pak Krisno Munte";"Pusuk II Simaninggir, Kec. Parlilitan, Kabupaten Humbang Hasundutan, Sumatera Utara 22456";"Kec. Parlilitan, Kabupaten Humbang Hasundutan";"SUMATERA UTARA";"22456";"Indonesia";"";"";"";"2.2459056";"98.550597";"https://maps.google.com/?cid=0x0:0xbaa9909ee01d5f8c";""
"cafe";"Kedai Kopi";"Rumah uda jisman";"8F94+5RJ, Sihotang Hasugian Tonga, Kec. Parlilitan, Kabupaten Humbang Hasundutan, Sumatera Utara";"Kabupaten Humbang Hasundutan, Sumatera Utara";"SUMATERA UTARA";"";"Indonesia";"";"";"";"2.3179599";"98.457001";"https://maps.google.com/?cid=0x0:0xd100bde9207040f0";""
"cafe";"Kedai Kopi";"Ratno Tinambunan";"8FQ8+MF2, Sionom Hudon Sel., Kec. Parlilitan, Kabupaten Humbang Hasundutan, Sumatera Utara 22456";"Sionom Hudon Sel., Kec. Parlilitan, Kabupaten Humbang Hasundutan";"SUMATERA UTARA";"22456";"Indonesia";" 082274894490";"";"";"2.3391431";"98.4661413";"https://maps.google.com/?cid=0x0:0xa0324af80e3ada82";""
"cafe";"Kedai Kopi";"WARKOP NAINGGOLAN";"9F39+WX8, Sionom Hudon Tim. I, Kec. Parlilitan, Kabupaten Humbang Hasundutan, Sumatera Utara";"Kabupaten Humbang Hasundutan, Sumatera Utara";"SUMATERA UTARA";"";"Indonesia";"";"";"";"2.3549069";"98.4699558";"https://maps.google.com/?cid=0x0:0xc77a4ae40c0b1c0d";""
"cafe";"Kedai Kopi";"Warkop chandra";"6HV3+5C9, Pusuk II Simaninggir, Kec. Parlilitan, Kabupaten Humbang Hasundutan, Sumatera Utara 22456";"Pusuk II Simaninggir, Kec. Parlilitan, Kabupaten Humbang Hasundutan";"SUMATERA UTARA";"22456";"Indonesia";" 081265126898";"";"";"2.24291";"98.5536108";"https://maps.google.com/?cid=0x0:0x538cc900895c626b";""
"cafe";"cafe";"Herman";"C9FR+PWQ, Sionom Hudon Tonga, Kec. Parlilitan, Kabupaten Humbang Hasundutan, Sumatera Utara 22456";"Sionom Hudon Tonga, Kec. Parlilitan, Kabupaten Humbang Hasundutan";"SUMATERA UTARA";"22456";"Indonesia";"";"";"";"2.4243285";"98.3923611";"https://maps.google.com/?cid=0x0:0xb2f2c6d441c427b8";""
"cafe";"Restoran";"Winda studio coffee";"Jl. Pakkat - Dolok Sanggul, Matiti II, Kec. Dolok sanggul, Kabupaten Humbang Hasundutan, Sumatera Utara 22457";"Matiti II, Kec. Dolok sanggul, Kabupaten Humbang Hasundutan";"SUMATERA UTARA";"22457";"Indonesia";" 081361531310";"";"";"2.2575918";"98.7182264";"https://maps.google.com/?cid=0x0:0x75ed218425661030";""
"cafe";"cafe";"Sumatera Utara 22457";"Kabupaten Humbang Hasundutan, Sumatera Utara";"Kabupaten Humbang Hasundutan, Sumatera Utara";"SUMATERA UTARA";"";"Indonesia";"";"";"";"2.2174078";"98.7260927";"https://maps.google.com/?cid=0x0:0xfc492d8c933a9bef";""
"cafe";"Kafe";"Tondongta Cafe  Resto";"Jl. Letkol. G.A. Manullang No.89, Ps. Dolok Sanggul, Kec. Dolok sanggul, Kabupaten Humbang Hasundutan, Sumatera Utara 22457";"Ps. Dolok Sanggul, Kec. Dolok sanggul, Kabupaten Humbang Hasundutan";"SUMATERA UTARA";"22457";"Indonesia";" 082167685826";"";"";"2.2564262";"98.7486443";"https://maps.google.com/?cid=0x0:0xb2ce3dde36efec1d";""
"cafe";"Kafe";"Batak Kopi";"Pasaribu, Kec. Dolok sanggul, Kabupaten Humbang Hasundutan, Sumatera Utara 22457";"Kec. Dolok sanggul, Kabupaten Humbang Hasundutan";"SUMATERA UTARA";"22457";"Indonesia";" 082167751444";"";"";"2.2578501";"98.7501483";"https://maps.google.com/?cid=0x0:0xe5eb28c0a0a00186";""
"cafe";"Restoran";"BERLIN CAFE";"7P5W+8C4, Bonani Onan, Kec. Dolok sanggul, Kabupaten Humbang Hasundutan, Sumatera Utara 22457";"Bonani Onan, Kec. Dolok sanggul, Kabupaten Humbang Hasundutan";"SUMATERA UTARA";"22457";"Indonesia";" 082363870091";"";"";"2.2582504";"98.7460749";"https://maps.google.com/?cid=0x0:0xeb08e1735ea90021";""
"cafe";"Kedai Kopi";"Ibrena Cafe Resto Kopi dari Hati";"Jl. Merdeka, Pasaribu, Kec. Dolok sanggul, Kabupaten Humbang Hasundutan, Sumatera Utara 22457";"Pasaribu, Kec. Dolok sanggul, Kabupaten Humbang Hasundutan";"SUMATERA UTARA";"22457";"Indonesia";" 081396538088";"";"";"2.2611843";"98.7560015";"https://maps.google.com/?cid=0x0:0xd77e0d6a75cf71ae";""
"cafe";"Kedai Kopi";"Kopi titin aeknauli";"7MMW+PVH, Aek Nauli II, Kec. Pollung, Kabupaten Humbang Hasundutan, Sumatera Utara 22457";"Aek Nauli II, Kec. Pollung, Kabupaten Humbang Hasundutan";"SUMATERA UTARA";"22457";"Indonesia";"";"";"";"2.2843239";"98.6972307";"https://maps.google.com/?cid=0x0:0xf0171d1492c751d0";""
"cafe";"Kafe";"IMAJINASI KOPI";"Jalan Doloksanggul - Sidikalang (Siparbue, Bonani Onan, Kec. Dolok sanggul, Kabupaten Humbang Hasundutan, Sumatera Utara 22457";"Bonani Onan, Kec. Dolok sanggul, Kabupaten Humbang Hasundutan";"SUMATERA UTARA";"22457";"Indonesia";" 085270472490";"";"";"2.2661333";"98.7463492";"https://maps.google.com/?cid=0x0:0x5462a1c07d6b78c2";""
"cafe";"Kafe";"LIA GEMILANG RESTO AND POOL";"6PCC+GGG, Purba Dolok, Lumban Tobing, Kabupaten Humbang Hasundutan, Sumatera Utara";"Kabupaten Humbang Hasundutan, Sumatera Utara";"SUMATERA UTARA";"";"Indonesia";" 081361122557";"";"";"2.2218918";"98.7219087";"https://maps.google.com/?cid=0x0:0x6b0721b92cecda86";""
"cafe";"Kedai Kopi";"Rajawali Coffee";"6P8F+JW9 GKLI Herman, Jl, Purba Dolok, Dolok sanggul, Humbang Hasundutan Regency, North Sumatra 22457";"Jl, Purba Dolok, Dolok sanggul, Humbang Hasundutan Regency";"SUMATERA UTARA";"22457";"Indonesia";" 085270211468";"";"";"2.2165321";"98.7248725";"https://maps.google.com/?cid=0x0:0x9686207f20429800";""
"cafe";"Kafe";"Kenyang Oi!";"7P6X+H93, Jl. Sentosa, Ps. Dolok Sanggul, Kec. Dolok sanggul, Kabupaten Humbang Hasundutan, Sumatera Utara 22457";"Jl. Sentosa, Ps. Dolok Sanggul, Kec. Dolok sanggul, Kabupaten Humbang Hasundutan";"SUMATERA UTARA";"22457";"Indonesia";" 081381107944";"";"";"2.2613851";"98.7484331";"https://maps.google.com/?cid=0x0:0xe3de3501e8954a2f";""
"cafe";"Kafe";"Warung Kopi Opos";"Jl. Sisingamangaraja No.140 A, Bonani Onan, Kec. Dolok sanggul, Kabupaten Humbang Hasundutan, Sumatera Utara 22457";"Bonani Onan, Kec. Dolok sanggul, Kabupaten Humbang Hasundutan";"SUMATERA UTARA";"22457";"Indonesia";" 081394355883";"";"";"2.2583962";"98.7442221";"https://maps.google.com/?cid=0x0:0x3cce7ceb9d4ad346";""
"cafe";"Kedai Kopi";"Sanctuary Coffee  Tattoo";"Jl. Letkol. G.A. Manullang No.136, Ps. Dolok Sanggul, Kec. Dolok sanggul, Kabupaten Humbang Hasundutan, Sumatera Utara 22457";"Ps. Dolok Sanggul, Kec. Dolok sanggul, Kabupaten Humbang Hasundutan";"SUMATERA UTARA";"22457";"Indonesia";" 082260500040";"";"";"2.2545022";"98.750034";"https://maps.google.com/?cid=0x0:0xdb652a356bc7ac3d";""
"cafe";"Perusahaan Induk";"DAINI COFFEE";"Hutapaung Utara, Kec. Pollung, Kabupaten Humbang Hasundutan, Sumatera Utara 22391";"Kec. Pollung, Kabupaten Humbang Hasundutan";"SUMATERA UTARA";"22391";"Indonesia";" 082273139762";"";"";"2.3543167";"98.7169703";"https://maps.google.com/?cid=0x0:0x70ca39fbeb70cd27";""
"cafe";"Kedai Kopi";"Nampol coffee";"Marade desa, Sipitu Huta, Kec. Pollung, Kabupaten Humbang Hasundutan, Sumatera Utara 22457";"Sipitu Huta, Kec. Pollung, Kabupaten Humbang Hasundutan";"SUMATERA UTARA";"22457";"Indonesia";" 085384627161";"";"";"2.3054351";"98.7335301";"https://maps.google.com/?cid=0x0:0x921bef65d5d8f78e";""
"cafe";"Kafe";"Boni cafe";"7P5J+5WF, Jl. Pakkat - Dolok Sanggul, Sihite II, Kec. Dolok sanggul, Kabupaten Humbang Hasundutan, Sumatera Utara 22457";"Jl. Pakkat - Dolok Sanggul, Sihite II, Kec. Dolok sanggul, Kabupaten Humbang Hasundutan";"SUMATERA UTARA";"22457";"Indonesia";"";"";"";"2.2579381";"98.7322987";"https://maps.google.com/?cid=0x0:0x8b539149223e70dd";""
"cafe";"Kedai Kopi";"Kopilistiwacoffe";"7P5X+MX7, Jl. Melanthon Siregar, Ps. Dolok Sanggul, Kec. Dolok sanggul, Kabupaten Humbang Hasundutan, Sumatera Utara 22457";"Jl. Melanthon Siregar, Ps. Dolok Sanggul, Kec. Dolok sanggul, Kabupaten Humbang Hasundutan";"SUMATERA UTARA";"22457";"Indonesia";"";"";"";"2.2591501";"98.7499326";"https://maps.google.com/?cid=0x0:0x6afaf6f21ef70b1c";""
"cafe";"Restoran";"Warung LIZAN";"7Q52+MXG, Pasaribu, Kec. Dolok sanggul, Kabupaten Humbang Hasundutan, Sumatera Utara 22457";"Pasaribu, Kec. Dolok sanggul, Kabupaten Humbang Hasundutan";"SUMATERA UTARA";"22457";"Indonesia";"";"";"";"2.2591867";"98.7524482";"https://maps.google.com/?cid=0x0:0xdd195b5014fff2e4";""
"cafe";"Taman Kanak-kanak";"GRESIA RESTO LIVE MUSIC  KOLAM RENANG";"Jl. Pakkat - Dolok Sanggul, Matiti I, Kec. Dolok sanggul, Kabupaten Humbang Hasundutan, Sumatera Utara 22457";"Matiti I, Kec. Dolok sanggul, Kabupaten Humbang Hasundutan";"SUMATERA UTARA";"22457";"Indonesia";"";"";"";"2.2559875";"98.6854934";"https://maps.google.com/?cid=0x0:0x964c298f6ca6d8d";""
"cafe";"Grosir Kopi";"Ondo lintong Coffee";"Nagasaribu I, Kec. Lintong Nihuta, Kabupaten Humbang Hasundutan, Sumatera Utara 22475";"Kec. Lintong Nihuta, Kabupaten Humbang Hasundutan";"SUMATERA UTARA";"22475";"Indonesia";" 082287447180";"";"";"2.248996";"98.8998766";"https://maps.google.com/?cid=0x0:0x5af9eb381a5b24e0";""
"cafe";"Kafe";"Marbona Resto  Cafe family";"Jl.Sirisirisi No.1, Sirisirisi, Kec. Dolok sanggul, Kabupaten Humbang Hasundutan, Sumatera Utara 22457";"Sirisirisi, Kec. Dolok sanggul, Kabupaten Humbang Hasundutan";"SUMATERA UTARA";"22457";"Indonesia";" 082276618164";"";"";"2.2753696";"98.7458813";"https://maps.google.com/?cid=0x0:0x80d714cb5d3b432c";""
"cafe";"Rumah Makan";"Warungkopi Aritonang";"5M5P+M76, Bonan Dolok I, Kec. Sijama Polang, Kabupaten Humbang Hasundutan, Sumatera Utara 22457";"Bonan Dolok I, Kec. Sijama Polang, Kabupaten Humbang Hasundutan";"SUMATERA UTARA";"22457";"Indonesia";"";"";"";"2.1591589";"98.6856389";"https://maps.google.com/?cid=0x0:0x4eca35d709c31462";""
"cafe";"Kedai Kopi";"Warung Kopi Silaban par 55";"4PWF+H7X, Sibuntuon, Kec. Sijama Polang, Kabupaten Humbang Hasundutan, Sumatera Utara 22457";"Sibuntuon, Kec. Sijama Polang, Kabupaten Humbang Hasundutan";"SUMATERA UTARA";"22457";"Indonesia";" 081376660684";"";"";"2.1464842";"98.7232457";"https://maps.google.com/?cid=0x0:0xd2fee8194a116054";""
"cafe";"Kantor Perusahaan";"UD.BB";"8P4M+HH3, Jl. Lintas Dolok Sanggul, Aek Nauli II, Kec. Pollung, Kabupaten Humbang Hasundutan, Sumatera Utara 22457";"Jl. Lintas Dolok Sanggul, Aek Nauli II, Kec. Pollung, Kabupaten Humbang Hasundutan";"SUMATERA UTARA";"22457";"Indonesia";" 082302461191";"";"";"2.3063914";"98.733928";"https://maps.google.com/?cid=0x0:0x62d9a530ca7580f3";""
"cafe";"Kedai Kopi";"RM. Simpang Tiga";"8PMF+H7C, Jalan, Huta Paung, Pollung, Humbang Hasundutan Regency, North Sumatra 22457";"Jalan, Huta Paung, Pollung, Humbang Hasundutan Regency";"SUMATERA UTARA";"22457";"Indonesia";"";"";"";"2.3339343";"98.7231357";"https://maps.google.com/?cid=0x0:0x65c6e3367ad466aa";""
"cafe";"Kafe";"warung kopi GIVEN";"9PF4+F66, Huta Julu, Kec. Pollung, Kabupaten Humbang Hasundutan, Sumatera Utara 22395";"Huta Julu, Kec. Pollung, Kabupaten Humbang Hasundutan";"SUMATERA UTARA";"22395";"Indonesia";" 085260399633";"";"";"2.3736536";"98.705529";"https://maps.google.com/?cid=0x0:0xd0314bd6cbd9d58";""
"cafe";"Kedai Kopi";"CafekopiTekongan";"Jalan Marade, Pollung, Kec. Dolok sanggul, Kabupaten Humbang Hasundutan, Sumatera Utara";"Kabupaten Humbang Hasundutan, Sumatera Utara";"SUMATERA UTARA";"";"Indonesia";" 081396355491";"";"";"2.3170825";"98.7304381";"https://maps.google.com/?cid=0x0:0x260349cc1dc37a86";""
"cafe";"Kedai Kopi";"Bandrek Andaliman";"Jl. Sisingamangaraja desa No.km.10.5, Huta Paung, Kec. Pollung, Kabupaten Humbang Hasundutan, Sumatera Utara 22457";"Huta Paung, Kec. Pollung, Kabupaten Humbang Hasundutan";"SUMATERA UTARA";"22457";"Indonesia";" 082262505752";"";"";"2.3347048";"98.7227718";"https://maps.google.com/?cid=0x0:0xf5b5c24020b9df4c";""
"cafe";"Kedai Kopi";"Marsalaon";"Jalan, Huta Julu, Pollung, Humbang Hasundutan Regency, North Sumatra 22391";"Huta Julu, Pollung, Humbang Hasundutan Regency";"SUMATERA UTARA";"22391";"Indonesia";" 081286138667";"";"";"2.3843177";"98.6941256";"https://maps.google.com/?cid=0x0:0xbc8757a528bb9553";""
"cafe";"cafe";"Kec. Sijama Polang";"Kabupaten Humbang Hasundutan, Sumatera Utara";"Kabupaten Humbang Hasundutan, Sumatera Utara";"SUMATERA UTARA";"";"Indonesia";"";"";"";"2.2108811";"98.721307";"https://maps.google.com/?cid=0x0:0xd50f2722ee3ef986";""
"cafe";"Kedai Kopi";"Warung Kopi Silaban par 55";"4PWF+H7X, Sibuntuon, Kec. Sijama Polang, Kabupaten Humbang Hasundutan, Sumatera Utara 22457";"Sibuntuon, Kec. Sijama Polang, Kabupaten Humbang Hasundutan";"SUMATERA UTARA";"22457";"Indonesia";" 081376660684";"";"";"2.1464842";"98.7232457";"https://maps.google.com/?cid=0x0:0xd2fee8194a116054";""
"cafe";"Rumah Makan";"Warungkopi Aritonang";"5M5P+M76, Bonan Dolok I, Kec. Sijama Polang, Kabupaten Humbang Hasundutan, Sumatera Utara 22457";"Bonan Dolok I, Kec. Sijama Polang, Kabupaten Humbang Hasundutan";"SUMATERA UTARA";"22457";"Indonesia";"";"";"";"2.1591589";"98.6856389";"https://maps.google.com/?cid=0x0:0x4eca35d709c31462";""
"cafe";"Rumah Makan";"Kedai Kopi Lumban Gaol";"5M5P+F5G, Bonan Dolok I, Kec. Sijama Polang, Kabupaten Humbang Hasundutan, Sumatera Utara 22457";"Bonan Dolok I, Kec. Sijama Polang, Kabupaten Humbang Hasundutan";"SUMATERA UTARA";"22457";"Indonesia";" 081362234273";"";"";"2.1586778";"98.68544";"https://maps.google.com/?cid=0x0:0x286cdd828ce1bd98";""
"cafe";"Kafe";"Tondongta Cafe  Resto";"Jl. Letkol. G.A. Manullang No.89, Ps. Dolok Sanggul, Kec. Dolok sanggul, Kabupaten Humbang Hasundutan, Sumatera Utara 22457";"Ps. Dolok Sanggul, Kec. Dolok sanggul, Kabupaten Humbang Hasundutan";"SUMATERA UTARA";"22457";"Indonesia";" 082167685826";"";"";"2.2564262";"98.7486443";"https://maps.google.com/?cid=0x0:0xb2ce3dde36efec1d";""
"cafe";"Kafe";"IMAJINASI KOPI";"Jalan Doloksanggul - Sidikalang (Siparbue, Bonani Onan, Kec. Dolok sanggul, Kabupaten Humbang Hasundutan, Sumatera Utara 22457";"Bonani Onan, Kec. Dolok sanggul, Kabupaten Humbang Hasundutan";"SUMATERA UTARA";"22457";"Indonesia";" 085270472490";"";"";"2.2661333";"98.7463492";"https://maps.google.com/?cid=0x0:0x5462a1c07d6b78c2";""
"cafe";"Kafe";"LIA GEMILANG RESTO AND POOL";"6PCC+GGG, Purba Dolok, Lumban Tobing, Kabupaten Humbang Hasundutan, Sumatera Utara";"Kabupaten Humbang Hasundutan, Sumatera Utara";"SUMATERA UTARA";"";"Indonesia";" 081361122557";"";"";"2.2218918";"98.7219087";"https://maps.google.com/?cid=0x0:0x6b0721b92cecda86";""
"cafe";"Kafe";"PATOTA COFFEE";"Sibuntuon, Kec. Sijama Polang, Kabupaten Humbang Hasundutan, Sumatera Utara 22459";"Kec. Sijama Polang, Kabupaten Humbang Hasundutan";"SUMATERA UTARA";"22459";"Indonesia";" 082167943624";"";"";"2.1442848";"98.7316041";"https://maps.google.com/?cid=0x0:0x9a6929e2eaecc0f1";""
"cafe";"Kedai Kopi";"Ibrena Cafe Resto Kopi dari Hati";"Jl. Merdeka, Pasaribu, Kec. Dolok sanggul, Kabupaten Humbang Hasundutan, Sumatera Utara 22457";"Pasaribu, Kec. Dolok sanggul, Kabupaten Humbang Hasundutan";"SUMATERA UTARA";"22457";"Indonesia";" 081396538088";"";"";"2.2611843";"98.7560015";"https://maps.google.com/?cid=0x0:0xd77e0d6a75cf71ae";""
"cafe";"Kedai Kopi";"Rajawali Coffee";"6P8F+JW9 GKLI Herman, Jl, Purba Dolok, Dolok sanggul, Humbang Hasundutan Regency, North Sumatra 22457";"Jl, Purba Dolok, Dolok sanggul, Humbang Hasundutan Regency";"SUMATERA UTARA";"22457";"Indonesia";" 085270211468";"";"";"2.2165321";"98.7248725";"https://maps.google.com/?cid=0x0:0x9686207f20429800";""
"cafe";"Restoran";"Jelova Coffee and Resto";"Jl. Melanthon Siregar No.42, Ps. Dolok Sanggul, Kec. Dolok sanggul, Kabupaten Humbang Hasundutan, Sumatera Utara 22457";"Ps. Dolok Sanggul, Kec. Dolok sanggul, Kabupaten Humbang Hasundutan";"SUMATERA UTARA";"22457";"Indonesia";" 08128308017";"";"";"2.2597697";"98.7492436";"https://maps.google.com/?cid=0x0:0xac720f84787e20f7";""
"cafe";"Kafe";"Warung Kopi Pak Yulan";"5M5P+87J, Unnamed Road, Bonan Dolok I, Kec. Sijama Polang, Kabupaten Humbang Hasundutan, Sumatera Utara 22457";"Unnamed Road, Bonan Dolok I, Kec. Sijama Polang, Kabupaten Humbang Hasundutan";"SUMATERA UTARA";"22457";"Indonesia";"";"";"";"2.1583263";"98.6856261";"https://maps.google.com/?cid=0x0:0x786301db3204e3fc";""
"cafe";"Restoran";"BERLIN CAFE";"7P5W+8C4, Bonani Onan, Kec. Dolok sanggul, Kabupaten Humbang Hasundutan, Sumatera Utara 22457";"Bonani Onan, Kec. Dolok sanggul, Kabupaten Humbang Hasundutan";"SUMATERA UTARA";"22457";"Indonesia";" 082363870091";"";"";"2.2582504";"98.7460749";"https://maps.google.com/?cid=0x0:0xeb08e1735ea90021";""
"cafe";"Komplek perumahan";"Rumah Op. Judika Silaban";"5MPH+H7J, Hutaginjang, Kec. Sijama Polang, Kabupaten Humbang Hasundutan, Sumatera Utara";"Kabupaten Humbang Hasundutan, Sumatera Utara";"SUMATERA UTARA";"";"Indonesia";"";"";"";"2.1864625";"98.6781406";"https://maps.google.com/?cid=0x0:0x78f5ab290665a000";""
"cafe";"Kafe";"Batak Kopi";"Pasaribu, Kec. Dolok sanggul, Kabupaten Humbang Hasundutan, Sumatera Utara 22457";"Kec. Dolok sanggul, Kabupaten Humbang Hasundutan";"SUMATERA UTARA";"22457";"Indonesia";" 082167751444";"";"";"2.2578501";"98.7501483";"https://maps.google.com/?cid=0x0:0xe5eb28c0a0a00186";""
"cafe";"Taman Kanak-kanak";"GRESIA RESTO LIVE MUSIC  KOLAM RENANG";"Jl. Pakkat - Dolok Sanggul, Matiti I, Kec. Dolok sanggul, Kabupaten Humbang Hasundutan, Sumatera Utara 22457";"Matiti I, Kec. Dolok sanggul, Kabupaten Humbang Hasundutan";"SUMATERA UTARA";"22457";"Indonesia";"";"";"";"2.2559875";"98.6854934";"https://maps.google.com/?cid=0x0:0x964c298f6ca6d8d";""
"cafe";"Kafe";"Kenyang Oi!";"7P6X+H93, Jl. Sentosa, Ps. Dolok Sanggul, Kec. Dolok sanggul, Kabupaten Humbang Hasundutan, Sumatera Utara 22457";"Jl. Sentosa, Ps. Dolok Sanggul, Kec. Dolok sanggul, Kabupaten Humbang Hasundutan";"SUMATERA UTARA";"22457";"Indonesia";" 081381107944";"";"";"2.2613851";"98.7484331";"https://maps.google.com/?cid=0x0:0xe3de3501e8954a2f";""
"cafe";"Kedai Kopi";"JALUR DUA Cafe  Resto";"7Q88+P49, Jl. Dolok Sanggul - Siborong - Borong, Pasaribu, Kec. Dolok sanggul, Kabupaten Humbang Hasundutan, Sumatera Utara";"Kabupaten Humbang Hasundutan, Sumatera Utara";"SUMATERA UTARA";"";"Indonesia";" 081260043371";"";"";"2.266786";"98.765317";"https://maps.google.com/?cid=0x0:0x2111239038297508";""
"cafe";"Kedai Kopi";"Sanctuary Coffee  Tattoo";"Jl. Letkol. G.A. Manullang No.136, Ps. Dolok Sanggul, Kec. Dolok sanggul, Kabupaten Humbang Hasundutan, Sumatera Utara 22457";"Ps. Dolok Sanggul, Kec. Dolok sanggul, Kabupaten Humbang Hasundutan";"SUMATERA UTARA";"22457";"Indonesia";" 082260500040";"";"";"2.2545022";"98.750034";"https://maps.google.com/?cid=0x0:0xdb652a356bc7ac3d";""
"cafe";"Kafe";"GIO COFFEE";"7P54+MJP, Matiti I, Kec. Dolok sanggul, Kabupaten Humbang Hasundutan, Sumatera Utara 22457";"Matiti I, Kec. Dolok sanggul, Kabupaten Humbang Hasundutan";"SUMATERA UTARA";"22457";"Indonesia";"";"";"";"2.2592236";"98.7065908";"https://maps.google.com/?cid=0x0:0xafa4302c5dfc506c";""
"cafe";"Batak";"Lapo gantung sosorjulu";"5MCQ+P85, Unnamed Road, Bonan Dolok II, Kec. Sijama Polang, Kabupaten Humbang Hasundutan, Sumatera Utara 22457";"Unnamed Road, Bonan Dolok II, Kec. Sijama Polang, Kabupaten Humbang Hasundutan";"SUMATERA UTARA";"22457";"Indonesia";"";"";"";"2.171767";"98.6883486";"https://maps.google.com/?cid=0x0:0x8281b925829b34cd";""
"cafe";"Kafe";"Marbona Resto  Cafe family";"Jl.Sirisirisi No.1, Sirisirisi, Kec. Dolok sanggul, Kabupaten Humbang Hasundutan, Sumatera Utara 22457";"Sirisirisi, Kec. Dolok sanggul, Kabupaten Humbang Hasundutan";"SUMATERA UTARA";"22457";"Indonesia";" 082276618164";"";"";"2.2753696";"98.7458813";"https://maps.google.com/?cid=0x0:0x80d714cb5d3b432c";""
"cafe";"Kedai Kopi";"OP.RAFAEL SIHITE";"6P35+5R8, Siborboron, Kec. Sijama Polang, Kabupaten Humbang Hasundutan, Sumatera Utara 22457";"Siborboron, Kec. Sijama Polang, Kabupaten Humbang Hasundutan";"SUMATERA UTARA";"22457";"Indonesia";"";"";"";"2.2029131";"98.7095789";"https://maps.google.com/?cid=0x0:0x5d7fae262d1adef3";""
"cafe";"Kafe";"Lapo tambok bolon";"5M6R+P6, Bonan Dolok I, Kec. Sijama Polang, Kabupaten Humbang Hasundutan, Sumatera Utara";"Kabupaten Humbang Hasundutan, Sumatera Utara";"SUMATERA UTARA";"";"Indonesia";"";"";"";"2.1621032";"98.6904825";"https://maps.google.com/?cid=0x0:0xa5ff7923f0cd5d3d";""
"cafe";"Kedai Kopi";"Warung kopi Siska Simamora";"6P6C+9PP, Siborboron, Kec. Sijama Polang, Kabupaten Humbang Hasundutan, Sumatera Utara";"Kabupaten Humbang Hasundutan, Sumatera Utara";"SUMATERA UTARA";"";"Indonesia";"";"";"";"2.2109736";"98.7218219";"https://maps.google.com/?cid=0x0:0x1fd3d390504bfa03";""
"cafe";"Kafe";"Laetoras";"7C28+V6, Tara Bintang, Kec. Tara bintang, Kabupaten Humbang Hasundutan, Sumatera Utara";"Kabupaten Humbang Hasundutan, Sumatera Utara";"SUMATERA UTARA";"";"Indonesia";" 081223817209";"";"";"2.2522467";"98.4155096";"https://maps.google.com/?cid=0x0:0xf89551c011f4a883";""
"cafe";"Kedai Kopi";"Kedai Kopi Torsa";"4JP4+H5W, Parbotihan, Kec. Onan Ganjang, Kabupaten Humbang Hasundutan, Sumatera Utara 22454";"Parbotihan, Kec. Onan Ganjang, Kabupaten Humbang Hasundutan";"SUMATERA UTARA";"22454";"Indonesia";"";"";"";"2.136483";"98.6054533";"https://maps.google.com/?cid=0x0:0xe71be0ee83df5a51";""
"cafe";"cafe";"Sumatera Utara 22456";"Kabupaten Humbang Hasundutan, Sumatera Utara";"Kabupaten Humbang Hasundutan, Sumatera Utara";"SUMATERA UTARA";"";"Indonesia";"";"";"";"2.3170731";"98.352656";"https://maps.google.com/?cid=0x0:0x160bd0ac62a1698";""
"cafe";"Restoran";"ADIAN NALAMBOK PAKKAT SIANTAR SITANDUK KECAMATAN TARABINTANG";"79Q7+PP2, Siantar, Sitanduk, Kec. Tara bintang";"Kabupaten Humbang Hasundutan, Sumatera Utara";"SUMATERA UTARA";"";"Indonesia";"";"";"";"2.2892578";"98.3642746";"https://maps.google.com/?cid=0x0:0x21c1b92c6c4cb455";""
"cafe";"Kedai Kopi";"Lapo Oppung Tiur";"7FJ3+JX6, Sihotang Hasugian Toruan, Kec. Tara bintang, Kabupaten Humbang Hasundutan, Sumatera Utara 22456";"Sihotang Hasugian Toruan, Kec. Tara bintang, Kabupaten Humbang Hasundutan";"SUMATERA UTARA";"22456";"Indonesia";"";"";"";"2.2815399";"98.4548813";"https://maps.google.com/?cid=0x0:0xc4a6fb4bb99401a0";""
"cafe";"Toko Swalayan";"UD. Kelontong Pak Roma";"6CX9+29W, Tara Bintang, Kec. Tara bintang, Kabupaten Humbang Hasundutan, Sumatera Utara 22456";"Tara Bintang, Kec. Tara bintang, Kabupaten Humbang Hasundutan";"SUMATERA UTARA";"22456";"Indonesia";"";"";"";"2.248701";"98.418029";"https://maps.google.com/?cid=0x0:0xe16ba2fb4f2363b9";""
"cafe";"cafe";"RAMAIDO BERUTU";"Jl. Sekolah No.27, Sitanduk, Kec. Tara bintang, Kabupaten Humbang Hasundutan, Sumatera Utara 22456";"Sitanduk, Kec. Tara bintang, Kabupaten Humbang Hasundutan";"SUMATERA UTARA";"22456";"Indonesia";"";"";"";"2.286848";"98.3618308";"https://maps.google.com/?cid=0x0:0x621ac48acd8e9c7e";""
"cafe";"Kafe";"Lapo";"Pasar, Sihombu, Kec. Tara bintang, Kabupaten Humbang Hasundutan, Sumatera Utara 22456";"Sihombu, Kec. Tara bintang, Kabupaten Humbang Hasundutan";"SUMATERA UTARA";"22456";"Indonesia";"";"";"";"2.2425549";"98.4590414";"https://maps.google.com/?cid=0x0:0xcc6cc3c6cddec7e1";""
