Category,Real Category,Business Name,Address,City,State,Postal Code,Country,Phone,Email,Website,Latitude,Longitude,Map Link,Details Link
hotel,hotel,Bali 80581,"Kec. Blahbatuh, Kabupaten Gianyar, Bali","Kabupaten Gianyar, Bali",BALI,,Indonesia,,,,-8.5674014,115.3133908,https://maps.google.com/?cid=0x0:0x1c00c5eb6016bef0,
hotel,hotel,RV Hotel Gianyar Bali,"Jl. Wisma Udayana, Buruan, Kec. Blahbatuh, Kabupaten Gianyar, Bali 80581","Buruan, Kec. Blahbatuh, Kabupaten Gianyar",BALI,80581.0,Indonesia,3613206888.0,,,-8.5448575,115.3032057,https://maps.google.com/?cid=0x0:0x373f057ad128cd60,
hotel,hotel,,,,BALI,,Indonesia,,,,,,https://maps.google.com/?cid=0x0:0x373f057ad128cd60%7C/g/11p76l2xgf%7Cid-ID,
hotel,hotel,Starloka Saba Bali Hotel,"Jl. Permata Pering No.88, Gianyar, Kec. Blahbatuh, Kabupaten Gianyar, Bali 80581","Gianyar, Kec. Blahbatuh, Kabupaten Gianyar",BALI,80581.0,Indonesia,81929519988.0,,,-8.5973272,115.3197762,https://maps.google.com/?cid=0x0:0x77214a681de5c325,
hotel,Toko Bebas Bea,Bandara Internasional I Gusti Ngurah Rai (DPS),"Bandara International I Gusti Ngurah Rai, Kabupaten Badung, Bali 80362",Kabupaten Badung,BALI,80362.0,Indonesia,85166911003.0,,,-8.7469933,115.1681655,https://maps.google.com/?cid=0x0:0xdf71da6ddd7bcc1f,
hotel,Tujuan Wisata,Tegenungan Waterfall,"Kemenuh, Kec. Sukawati, Kabupaten Gianyar, Bali","Kabupaten Gianyar, Bali",BALI,,Indonesia,,,,-8.5753621,115.2889599,https://maps.google.com/?cid=0x0:0xc1ae79ddb8410c5e,
hotel,hotel,,,,BALI,,Indonesia,,,,,,https://maps.google.com/?cid=0x0:0xc0f09edf21f2dd2%7C/g/11pzs11s4v%7Cid-ID,
hotel,hotel,Swan Paradise A Pramana Experience,"Jalan Raya Bonbiyu, Banda, Blahbatuh, Kec. Gianyar, Kabupaten Gianyar, Bali 80581","Banda, Blahbatuh, Kec. Gianyar, Kabupaten Gianyar",BALI,80581.0,Indonesia,3614402828.0,,,-8.5938986,115.2950629,https://maps.google.com/?cid=0x0:0xc0f09edf21f2dd2,
hotel,hotel,OYO 190 Bsb Hotel,"Jl. Permata Pering No.88, Gianyar, Kec. Blahbatuh, Kabupaten Gianyar, Bali 80581","Gianyar, Kec. Blahbatuh, Kabupaten Gianyar",BALI,80581.0,Indonesia,2129707601.0,,,-8.5973197,115.3198096,https://maps.google.com/?cid=0x0:0x7645c46e64edf3af,
hotel,hotel,Dhiari Guest House,"Br. Sumampan, Kemenuh, Kec. Sukawati, Kabupaten Gianyar, Bali 80582","Kemenuh, Kec. Sukawati, Kabupaten Gianyar",BALI,80582.0,Indonesia,83117226567.0,,,-8.5548108,115.2898712,https://maps.google.com/?cid=0x0:0xea7b76d0e965dfba,
hotel,hotel,Sujiwa Ubud Hotel  Villa,"Jl. Subak Gunung Sari, Sumampan, Kemenuh, Kec. Sukawati, Kabupaten Gianyar, Bali 80582","Sumampan, Kemenuh, Kec. Sukawati, Kabupaten Gianyar",BALI,80582.0,Indonesia,81943621744.0,,,-8.5470125,115.286377,https://maps.google.com/?cid=0x0:0x1be6555b842e0f02,
hotel,hotel,Sua Bali,"Banjar Medahan, Kemenuh, Kec. Sukawati, Kabupaten Gianyar, Bali 80582","Kemenuh, Kec. Sukawati, Kabupaten Gianyar",BALI,80582.0,Indonesia,3619082951.0,,,-8.5553764,115.2902188,https://maps.google.com/?cid=0x0:0x2d7240807132b461,
hotel,hotel,Kubu Pering,"Jl. Permata Pering No.369AB, Pering, Kec. Blahbatuh, Kabupaten Gianyar, Bali 80581","Pering, Kec. Blahbatuh, Kabupaten Gianyar",BALI,80581.0,Indonesia,87754457876.0,,,-8.5863299,115.3145827,https://maps.google.com/?cid=0x0:0xa30b5dfe825ca926,
hotel,hotel,Airy Blahbatuh Permata Pering 88 Gianyar Bali,"Jl. Permata Pering No.88, Gianyar, Kec. Blahbatuh, Kabupaten Gianyar, Bali 80511","Gianyar, Kec. Blahbatuh, Kabupaten Gianyar",BALI,80511.0,Indonesia,8041112479.0,,,-8.597288,115.319792,https://maps.google.com/?cid=0x0:0xa39ba5ad6629b4d7,
hotel,hotel,Mupu Jana House Keramas,"Jl. Selukat, Keramas, Kec. Blahbatuh, Kabupaten Gianyar, Bali 80581","Keramas, Kec. Blahbatuh, Kabupaten Gianyar",BALI,80581.0,Indonesia,82146426141.0,,,-8.5923508,115.3312108,https://maps.google.com/?cid=0x0:0x7f14f73e813c5399,
hotel,hotel,Bali 80511,"Kec. Gianyar, Kabupaten Gianyar, Bali","Kabupaten Gianyar, Bali",BALI,,Indonesia,,,,-8.5386152,115.328206,https://maps.google.com/?cid=0x0:0x3a6ab5e6526148c8,
hotel,hotel,Hotel Gianyar,"Jl. Manik, Gianyar, Kec. Gianyar, Kabupaten Gianyar, Bali 80511","Gianyar, Kec. Gianyar, Kabupaten Gianyar",BALI,80511.0,Indonesia,361943239.0,,,-8.5397862,115.3234301,https://maps.google.com/?cid=0x0:0x4a31eca9a50ae236,
hotel,hotel,,,,BALI,,Indonesia,,,,,,https://maps.google.com/?cid=0x0:0x4a31eca9a50ae236%7C/g/1q67g9m84%7Cid-ID,
hotel,hotel,,,,BALI,,Indonesia,,,,,,https://maps.google.com/?cid=0x0:0x373f057ad128cd60%7C/g/11p76l2xgf%7Cid-ID,
hotel,hotel,OYO 612 Dante Guesthouse,"No.3, Jl. Hasanuddin No.I, Gianyar, Kec. Gianyar, Kabupaten Gianyar, Bali 80511","Jl. Hasanuddin No.I, Gianyar, Kec. Gianyar, Kabupaten Gianyar",BALI,80511.0,Indonesia,,,,-8.5448245,115.3218787,https://maps.google.com/?cid=0x0:0xdeabad5d4524aea9,
hotel,hotel,,,,BALI,,Indonesia,,,,,,https://maps.google.com/?cid=0x0:0xdeabad5d4524aea9%7C/g/11b6nw9kk6%7Cid-ID,
hotel,hotel,Sayana Bali Resto  Bar,"Jl. Gn. Lempuyang No.8, Samplangan, Kec. Gianyar, Kabupaten Gianyar, Bali 80512","Samplangan, Kec. Gianyar, Kabupaten Gianyar",BALI,80512.0,Indonesia,81999757746.0,,,-8.5355168,115.3346077,https://maps.google.com/?cid=0x0:0x19e62da0f13aa0bb,
hotel,hotel,Hotel Taman Prakerti Bhuana,"Beng, Kec. Gianyar, Kabupaten Gianyar, Bali 80511","Kec. Gianyar, Kabupaten Gianyar",BALI,80511.0,Indonesia,87865436777.0,,,-8.5257997,115.3286022,https://maps.google.com/?cid=0x0:0xdd42a2fd5500cc4c,
hotel,hotel,Tebluess Gianyar,"F8QC+PMX, Bakbakan, Kec. Gianyar, Kabupaten Gianyar, Bali 80511","Bakbakan, Kec. Gianyar, Kabupaten Gianyar",BALI,80511.0,Indonesia,89680000788.0,,,-8.5106881,115.3217006,https://maps.google.com/?cid=0x0:0xa28861fc35bdda93,
hotel,hotel,Wahyu Dewata,"Jl. Gn. Lempuyang No.9, Samplangan, Kec. Gianyar, Kabupaten Gianyar, Bali 80511","Samplangan, Kec. Gianyar, Kabupaten Gianyar",BALI,80511.0,Indonesia,8123967914.0,,,-8.5339937,115.3343429,https://maps.google.com/?cid=0x0:0x92387a95afabf7f7,
hotel,hotel,,,,BALI,,Indonesia,,,,,,https://maps.google.com/?cid=0x0:0x92387a95afabf7f7%7C/g/11b63fs9nk%7Cid-ID,
hotel,hotel,Wisata Bintang Hotel ( WBH ),"Jl. Bikes Only, Bedulu, Kec. Blahbatuh, Kabupaten Gianyar, Bali 80586","Bedulu, Kec. Blahbatuh, Kabupaten Gianyar",BALI,80586.0,Indonesia,83114372476.0,,,-8.5252859,115.2930035,https://maps.google.com/?cid=0x0:0xa798859935e1e727,
hotel,hotel,Giriya Amerta Hotel and Restaurant,"Br. Umakuta (Perbatasan Br. Umakuta  Br. Sawagunung, Jl. Kelusu, Pejeng Kangin, Kec. Tampaksiring, Kabupaten Gianyar, Bali 80512","Jl. Kelusu, Pejeng Kangin, Kec. Tampaksiring, Kabupaten Gianyar",BALI,80512.0,Indonesia,,,,-8.4981546,115.3046909,https://maps.google.com/?cid=0x0:0xd3799d66a070818e,
hotel,hotel,Tebluess Guesthouse Gianyar RedPartner,"Gg. Triwangsa, Kawan, Bakbakan, Kec. Gianyar, Kabupaten Gianyar, Bali 80511","Kawan, Bakbakan, Kec. Gianyar, Kabupaten Gianyar",BALI,80511.0,Indonesia,895417300072.0,,,-8.5109375,115.3205625,https://maps.google.com/?cid=0x0:0x466a459bd888870d,
hotel,hotel,Kori Maharani Villas Gianyar,"Jl. By Pass Jl. Prof. Dr. Ida Bagus Mantra, Tulikup, Kec. Gianyar, Kabupaten Gianyar, Bali","Kabupaten Gianyar, Bali",BALI,,Indonesia,3614791690.0,,,-8.573694,115.36348,https://maps.google.com/?cid=0x0:0x46ddbcb7d8c5ed86,
hotel,hotel,Odessa Village by Pramana Villas,"C8QC+22H, Bona, Kec. Blahbatuh, Kabupaten Gianyar, Bali 80581","Bona, Kec. Blahbatuh, Kabupaten Gianyar",BALI,80581.0,Indonesia,82147330045.0,,,-8.5624415,115.3201089,https://maps.google.com/?cid=0x0:0x82313b31b6108c63,
hotel,hotel,Kubu Selat Villa And Glamping,"jl gunung lempuyang no 17 selat, Samplangan, Kec. Gianyar, Kabupaten Gianyar, Bali 80512","Samplangan, Kec. Gianyar, Kabupaten Gianyar",BALI,80512.0,Indonesia,81236062293.0,,,-8.5309462,115.3362135,https://maps.google.com/?cid=0x0:0x5330d5e365697fe4,
hotel,hotel,,,,BALI,,Indonesia,,,,,,https://maps.google.com/?cid=0x0:0x46ddbcb7d8c5ed86%7C/g/11bzpkq2b2%7Cid-ID,
hotel,hotel,Bali Made Escape,"Jl. Gn. Lempuyang No.80X, Samplangan, Kec. Gianyar, Kabupaten Gianyar, Bali 80515","Samplangan, Kec. Gianyar, Kabupaten Gianyar",BALI,80515.0,Indonesia,85261007008.0,,,-8.5285474,115.3357345,https://maps.google.com/?cid=0x0:0x8401c348ac991ee9,
hotel,hotel,Arsuma Guest House,"Jl. Dharma Giri, Buruan, Kec. Blahbatuh, Kabupaten Gianyar, Bali 80581","Buruan, Kec. Blahbatuh, Kabupaten Gianyar",BALI,80581.0,Indonesia,85171008123.0,,,-8.5498037,115.3062973,https://maps.google.com/?cid=0x0:0xc8e6acc48b61c4b0,
hotel,hotel,Villas Dur Pekerisan Ubud,"C8X9+WPJ, Bitera, Kec. Gianyar, Kabupaten Gianyar, Bali 80515","Bitera, Kec. Gianyar, Kabupaten Gianyar",BALI,80515.0,Indonesia,,,,-8.5501836,115.3192304,https://maps.google.com/?cid=0x0:0x25b0f9bb0f5bdc85,
hotel,hotel,DD bamboo lodge,"F897+782, Bitera, Kec. Gianyar, Kabupaten Gianyar, Bali 80515","Bitera, Kec. Gianyar, Kabupaten Gianyar",BALI,80515.0,Indonesia,8174713436.0,,,-8.5318724,115.3132654,https://maps.google.com/?cid=0x0:0xe4b30af927ebb763,
hotel,hotel,Sujiwa Ubud Hotel  Villa,"Jl. Subak Gunung Sari, Sumampan, Kemenuh, Kec. Sukawati, Kabupaten Gianyar, Bali 80582","Sumampan, Kemenuh, Kec. Sukawati, Kabupaten Gianyar",BALI,80582.0,Indonesia,81943621744.0,,,-8.5470125,115.286377,https://maps.google.com/?cid=0x0:0x1be6555b842e0f02,
hotel,hotel,Winy House,"Jl. Dharma Giri, Bona, Kec. Blahbatuh, Kabupaten Gianyar, Bali","Kabupaten Gianyar, Bali",BALI,,Indonesia,895417300072.0,,,-8.5504721,115.3135384,https://maps.google.com/?cid=0x0:0xbcb5051df6d70bbe,
hotel,hotel,The Mudru Resort,"C7VQ+X88 Br. Sumampan, Jl. Ir. Sutami, Kemenuh, Sukawati, Gianyar Regency, Bali 80582","Jl. Ir. Sutami, Kemenuh, Sukawati, Gianyar Regency",BALI,80582.0,Indonesia,81338548111.0,,,-8.5550799,115.2883369,https://maps.google.com/?cid=0x0:0x46e53f11bea139aa,
hotel,hotel,Starloka Saba Bali Hotel,"Jl. Permata Pering No.88, Gianyar, Kec. Blahbatuh, Kabupaten Gianyar, Bali 80581","Gianyar, Kec. Blahbatuh, Kabupaten Gianyar",BALI,80581.0,Indonesia,81929519988.0,,,-8.5973272,115.3197762,https://maps.google.com/?cid=0x0:0x77214a681de5c325,
hotel,hotel,Sari Murni,"F76J+MVF tengkulak, Jl. Tengah, Kemenuh, Sukawati, Gianyar Regency, Bali 80582","Jl. Tengah, Kemenuh, Sukawati, Gianyar Regency",BALI,80582.0,Indonesia,82112243336.0,,,-8.5379574,115.2825834,https://maps.google.com/?cid=0x0:0x22d9672ba31ad8a,
hotel,hotel,Bona Village Inn,"C8Q9+9P3, Jl. Kresna, Bona Kelod, Blahbatuh, Bona, Kec. Gianyar, Kabupaten Gianyar, Bali 80581","Jl. Kresna, Bona Kelod, Blahbatuh, Bona, Kec. Gianyar, Kabupaten Gianyar",BALI,80581.0,Indonesia,361951422.0,,,-8.5616051,115.3192995,https://maps.google.com/?cid=0x0:0x63519884c8cf63d8,
hotel,hotel,,,,BALI,,Indonesia,,,,,,https://maps.google.com/?cid=0x0:0x63519884c8cf63d8%7C/g/12hwthd05%7Cid-ID,
hotel,hotel,Bali 80512,"Samplangan, Kec. Gianyar, Kabupaten Gianyar, Bali","Kabupaten Gianyar, Bali",BALI,,Indonesia,,,,-8.532747,115.3400575,https://maps.google.com/?cid=0x0:0x1c00c5eb6016be70,
hotel,hotel,,,,BALI,,Indonesia,,,,,,https://maps.google.com/?cid=0x0:0x4a31eca9a50ae236%7C/g/1q67g9m84%7Cid-ID,
hotel,hotel,,,,BALI,,Indonesia,,,,,,https://maps.google.com/?cid=0x0:0x373f057ad128cd60%7C/g/11p76l2xgf%7Cid-ID,
hotel,hotel,Sayana Bali Resto  Bar,"Jl. Gn. Lempuyang No.8, Samplangan, Kec. Gianyar, Kabupaten Gianyar, Bali 80512","Samplangan, Kec. Gianyar, Kabupaten Gianyar",BALI,80512.0,Indonesia,81999757746.0,,,-8.5355168,115.3346077,https://maps.google.com/?cid=0x0:0x19e62da0f13aa0bb,
hotel,hotel,Hotel Gianyar,"Jl. Manik, Gianyar, Kec. Gianyar, Kabupaten Gianyar, Bali 80511","Gianyar, Kec. Gianyar, Kabupaten Gianyar",BALI,80511.0,Indonesia,361943239.0,,,-8.5397862,115.3234301,https://maps.google.com/?cid=0x0:0x4a31eca9a50ae236,
hotel,hotel,Hotel Taman Prakerti Bhuana,"Beng, Kec. Gianyar, Kabupaten Gianyar, Bali 80511","Kec. Gianyar, Kabupaten Gianyar",BALI,80511.0,Indonesia,87865436777.0,,,-8.5257997,115.3286022,https://maps.google.com/?cid=0x0:0xdd42a2fd5500cc4c,
hotel,hotel,Giriya Amerta Hotel and Restaurant,"Br. Umakuta (Perbatasan Br. Umakuta  Br. Sawagunung, Jl. Kelusu, Pejeng Kangin, Kec. Tampaksiring, Kabupaten Gianyar, Bali 80512","Jl. Kelusu, Pejeng Kangin, Kec. Tampaksiring, Kabupaten Gianyar",BALI,80512.0,Indonesia,,,,-8.4981546,115.3046909,https://maps.google.com/?cid=0x0:0xd3799d66a070818e,
hotel,hotel,Tebluess Gianyar,"F8QC+PMX, Bakbakan, Kec. Gianyar, Kabupaten Gianyar, Bali 80511","Bakbakan, Kec. Gianyar, Kabupaten Gianyar",BALI,80511.0,Indonesia,89680000788.0,,,-8.5106881,115.3217006,https://maps.google.com/?cid=0x0:0xa28861fc35bdda93,
hotel,hotel,OYO 612 Dante Guesthouse,"No.3, Jl. Hasanuddin No.I, Gianyar, Kec. Gianyar, Kabupaten Gianyar, Bali 80511","Jl. Hasanuddin No.I, Gianyar, Kec. Gianyar, Kabupaten Gianyar",BALI,80511.0,Indonesia,,,,-8.5448245,115.3218787,https://maps.google.com/?cid=0x0:0xdeabad5d4524aea9,
hotel,hotel,,,,BALI,,Indonesia,,,,,,https://maps.google.com/?cid=0x0:0xdeabad5d4524aea9%7C/g/11b6nw9kk6%7Cid-ID,
hotel,hotel,Wyndham Tamansari Jivva Resort Bali,"Pantai Lepang, Jl. Subak Lepang No.16, Takmung, Kec. Banjarangkan, Kabupaten Klungkung, Bali 80752","Jl. Subak Lepang No.16, Takmung, Kec. Banjarangkan, Kabupaten Klungkung",BALI,80752.0,Indonesia,3665437988.0,,,-8.573117,115.3837247,https://maps.google.com/?cid=0x0:0xbcf303c67e79ef2f,
hotel,hotel,Kubu Selat Villa And Glamping,"jl gunung lempuyang no 17 selat, Samplangan, Kec. Gianyar, Kabupaten Gianyar, Bali 80512","Samplangan, Kec. Gianyar, Kabupaten Gianyar",BALI,80512.0,Indonesia,81236062293.0,,,-8.5309462,115.3362135,https://maps.google.com/?cid=0x0:0x5330d5e365697fe4,
hotel,hotel,,,,BALI,,Indonesia,,,,,,https://maps.google.com/?cid=0x0:0xbcf303c67e79ef2f%7C/g/11bwp6hbs6%7Cid-ID,
hotel,hotel,Wahyu Dewata,"Jl. Gn. Lempuyang No.9, Samplangan, Kec. Gianyar, Kabupaten Gianyar, Bali 80511","Samplangan, Kec. Gianyar, Kabupaten Gianyar",BALI,80511.0,Indonesia,8123967914.0,,,-8.5339937,115.3343429,https://maps.google.com/?cid=0x0:0x92387a95afabf7f7,
hotel,hotel,Bali Made Escape,"Jl. Gn. Lempuyang No.80X, Samplangan, Kec. Gianyar, Kabupaten Gianyar, Bali 80515","Samplangan, Kec. Gianyar, Kabupaten Gianyar",BALI,80515.0,Indonesia,85261007008.0,,,-8.5285474,115.3357345,https://maps.google.com/?cid=0x0:0x8401c348ac991ee9,
hotel,hotel,Kori Maharani Villas Gianyar,"Jl. By Pass Jl. Prof. Dr. Ida Bagus Mantra, Tulikup, Kec. Gianyar, Kabupaten Gianyar, Bali","Kabupaten Gianyar, Bali",BALI,,Indonesia,3614791690.0,,,-8.573694,115.36348,https://maps.google.com/?cid=0x0:0x46ddbcb7d8c5ed86,
hotel,hotel,,,,BALI,,Indonesia,,,,,,https://maps.google.com/?cid=0x0:0x92387a95afabf7f7%7C/g/11b63fs9nk%7Cid-ID,
hotel,hotel,,,,BALI,,Indonesia,,,,,,https://maps.google.com/?cid=0x0:0x46ddbcb7d8c5ed86%7C/g/11bzpkq2b2%7Cid-ID,
hotel,hotel,Tebluess Guesthouse Gianyar RedPartner,"Gg. Triwangsa, Kawan, Bakbakan, Kec. Gianyar, Kabupaten Gianyar, Bali 80511","Kawan, Bakbakan, Kec. Gianyar, Kabupaten Gianyar",BALI,80511.0,Indonesia,895417300072.0,,,-8.5109375,115.3205625,https://maps.google.com/?cid=0x0:0x466a459bd888870d,
hotel,hotel,Wisata Bintang Hotel ( WBH ),"Jl. Bikes Only, Bedulu, Kec. Blahbatuh, Kabupaten Gianyar, Bali 80586","Bedulu, Kec. Blahbatuh, Kabupaten Gianyar",BALI,80586.0,Indonesia,83114372476.0,,,-8.5252859,115.2930035,https://maps.google.com/?cid=0x0:0xa798859935e1e727,
hotel,hotel,Odessa Village by Pramana Villas,"C8QC+22H, Bona, Kec. Blahbatuh, Kabupaten Gianyar, Bali 80581","Bona, Kec. Blahbatuh, Kabupaten Gianyar",BALI,80581.0,Indonesia,82147330045.0,,,-8.5624415,115.3201089,https://maps.google.com/?cid=0x0:0x82313b31b6108c63,
hotel,hotel,RUMAH LUWIH BEACH RESORT,"Jl. Prof. Dr. Ida Bagus Mantra No.Km 19 9, Lebih, Gianyar, Gianyar Regency, Bali 80237","Lebih, Gianyar, Gianyar Regency",BALI,80237.0,Indonesia,3612005899.0,,,-8.5830027,115.3521708,https://maps.google.com/?cid=0x0:0xe58f4e7c9f6f4e3e,
hotel,hotel,,,,BALI,,Indonesia,,,,,,https://maps.google.com/?cid=0x0:0xe58f4e7c9f6f4e3e%7C/g/11b6_n5_fj%7Cid-ID,
hotel,hotel,Vision Villa Resort,"Jl. Pantai Masceti, Medahan, Kec. Blahbatuh, Kabupaten Gianyar, Bali 80581","Medahan, Kec. Blahbatuh, Kabupaten Gianyar",BALI,80581.0,Indonesia,361950720.0,,,-8.5762894,115.3381928,https://maps.google.com/?cid=0x0:0x1480c4053170c894,
hotel,hotel,Cucukan Beach Guest House,"pantai cucukan, Medahan, Kec. Blahbatuh, Kabupaten Gianyar, Bali","Kabupaten Gianyar, Bali",BALI,,Indonesia,82236633857.0,,,-8.5868394,115.3489995,https://maps.google.com/?cid=0x0:0xff71d241069b18ff,
hotel,hotel,Sriwedari House Keramas,"C85J+59M, Jl. Selukat, Keramas, Kec. Blahbatuh, Kabupaten Gianyar, Bali 80581","Jl. Selukat, Keramas, Kec. Blahbatuh, Kabupaten Gianyar",BALI,80581.0,Indonesia,81353998914.0,,,-8.5919967,115.3306868,https://maps.google.com/?cid=0x0:0xf340fd0278dc979f,
hotel,hotel,Villas Dur Pekerisan Ubud,"C8X9+WPJ, Bitera, Kec. Gianyar, Kabupaten Gianyar, Bali 80515","Bitera, Kec. Gianyar, Kabupaten Gianyar",BALI,80515.0,Indonesia,,,,-8.5501836,115.3192304,https://maps.google.com/?cid=0x0:0x25b0f9bb0f5bdc85,
hotel,hotel,Starloka Saba Bali Hotel,"Jl. Permata Pering No.88, Gianyar, Kec. Blahbatuh, Kabupaten Gianyar, Bali 80581","Gianyar, Kec. Blahbatuh, Kabupaten Gianyar",BALI,80581.0,Indonesia,81929519988.0,,,-8.5973272,115.3197762,https://maps.google.com/?cid=0x0:0x77214a681de5c325,
hotel,hotel,Winy House,"Jl. Dharma Giri, Bona, Kec. Blahbatuh, Kabupaten Gianyar, Bali","Kabupaten Gianyar, Bali",BALI,,Indonesia,895417300072.0,,,-8.5504721,115.3135384,https://maps.google.com/?cid=0x0:0xbcb5051df6d70bbe,
hotel,hotel,Bali 80513,"Kec. Gianyar, Kabupaten Gianyar, Bali","Kabupaten Gianyar, Bali",BALI,,Indonesia,,,,-8.5273675,115.3267245,https://maps.google.com/?cid=0x0:0x726f6b72398c7c97,
hotel,hotel,,,,BALI,,Indonesia,,,,,,https://maps.google.com/?cid=0x0:0x4a31eca9a50ae236%7C/g/1q67g9m84%7Cid-ID,
hotel,hotel,,,,BALI,,Indonesia,,,,,,https://maps.google.com/?cid=0x0:0x373f057ad128cd60%7C/g/11p76l2xgf%7Cid-ID,
hotel,hotel,Tebluess Gianyar,"F8QC+PMX, Bakbakan, Kec. Gianyar, Kabupaten Gianyar, Bali 80511","Bakbakan, Kec. Gianyar, Kabupaten Gianyar",BALI,80511.0,Indonesia,89680000788.0,,,-8.5106881,115.3217006,https://maps.google.com/?cid=0x0:0xa28861fc35bdda93,
hotel,hotel,Hotel Gianyar,"Jl. Manik, Gianyar, Kec. Gianyar, Kabupaten Gianyar, Bali 80511","Gianyar, Kec. Gianyar, Kabupaten Gianyar",BALI,80511.0,Indonesia,361943239.0,,,-8.5397862,115.3234301,https://maps.google.com/?cid=0x0:0x4a31eca9a50ae236,
hotel,hotel,Hotel Taman Prakerti Bhuana,"Beng, Kec. Gianyar, Kabupaten Gianyar, Bali 80511","Kec. Gianyar, Kabupaten Gianyar",BALI,80511.0,Indonesia,87865436777.0,,,-8.5257997,115.3286022,https://maps.google.com/?cid=0x0:0xdd42a2fd5500cc4c,
hotel,hotel,Sayana Bali Resto  Bar,"Jl. Gn. Lempuyang No.8, Samplangan, Kec. Gianyar, Kabupaten Gianyar, Bali 80512","Samplangan, Kec. Gianyar, Kabupaten Gianyar",BALI,80512.0,Indonesia,81999757746.0,,,-8.5355168,115.3346077,https://maps.google.com/?cid=0x0:0x19e62da0f13aa0bb,
hotel,hotel,,,,BALI,,Indonesia,,,,,,https://maps.google.com/?cid=0x0:0xdeabad5d4524aea9%7C/g/11b6nw9kk6%7Cid-ID,
hotel,hotel,OYO 612 Dante Guesthouse,"No.3, Jl. Hasanuddin No.I, Gianyar, Kec. Gianyar, Kabupaten Gianyar, Bali 80511","Jl. Hasanuddin No.I, Gianyar, Kec. Gianyar, Kabupaten Gianyar",BALI,80511.0,Indonesia,,,,-8.5448245,115.3218787,https://maps.google.com/?cid=0x0:0xdeabad5d4524aea9,
hotel,hotel,Wisata Bintang Hotel ( WBH ),"Jl. Bikes Only, Bedulu, Kec. Blahbatuh, Kabupaten Gianyar, Bali 80586","Bedulu, Kec. Blahbatuh, Kabupaten Gianyar",BALI,80586.0,Indonesia,83114372476.0,,,-8.5252859,115.2930035,https://maps.google.com/?cid=0x0:0xa798859935e1e727,
hotel,hotel,Giriya Amerta Hotel and Restaurant,"Br. Umakuta (Perbatasan Br. Umakuta  Br. Sawagunung, Jl. Kelusu, Pejeng Kangin, Kec. Tampaksiring, Kabupaten Gianyar, Bali 80512","Jl. Kelusu, Pejeng Kangin, Kec. Tampaksiring, Kabupaten Gianyar",BALI,80512.0,Indonesia,,,,-8.4981546,115.3046909,https://maps.google.com/?cid=0x0:0xd3799d66a070818e,
hotel,hotel,Wahyu Dewata,"Jl. Gn. Lempuyang No.9, Samplangan, Kec. Gianyar, Kabupaten Gianyar, Bali 80511","Samplangan, Kec. Gianyar, Kabupaten Gianyar",BALI,80511.0,Indonesia,8123967914.0,,,-8.5339937,115.3343429,https://maps.google.com/?cid=0x0:0x92387a95afabf7f7,
hotel,hotel,,,,BALI,,Indonesia,,,,,,https://maps.google.com/?cid=0x0:0x92387a95afabf7f7%7C/g/11b63fs9nk%7Cid-ID,
hotel,hotel,Bali Made Escape,"Jl. Gn. Lempuyang No.80X, Samplangan, Kec. Gianyar, Kabupaten Gianyar, Bali 80515","Samplangan, Kec. Gianyar, Kabupaten Gianyar",BALI,80515.0,Indonesia,85261007008.0,,,-8.5285474,115.3357345,https://maps.google.com/?cid=0x0:0x8401c348ac991ee9,
hotel,hotel,Kubu Selat Villa And Glamping,"jl gunung lempuyang no 17 selat, Samplangan, Kec. Gianyar, Kabupaten Gianyar, Bali 80512","Samplangan, Kec. Gianyar, Kabupaten Gianyar",BALI,80512.0,Indonesia,81236062293.0,,,-8.5309462,115.3362135,https://maps.google.com/?cid=0x0:0x5330d5e365697fe4,
hotel,hotel,Tebluess Guesthouse Gianyar RedPartner,"Gg. Triwangsa, Kawan, Bakbakan, Kec. Gianyar, Kabupaten Gianyar, Bali 80511","Kawan, Bakbakan, Kec. Gianyar, Kabupaten Gianyar",BALI,80511.0,Indonesia,895417300072.0,,,-8.5109375,115.3205625,https://maps.google.com/?cid=0x0:0x466a459bd888870d,
hotel,hotel,Kori Maharani Villas Gianyar,"Jl. By Pass Jl. Prof. Dr. Ida Bagus Mantra, Tulikup, Kec. Gianyar, Kabupaten Gianyar, Bali","Kabupaten Gianyar, Bali",BALI,,Indonesia,3614791690.0,,,-8.573694,115.36348,https://maps.google.com/?cid=0x0:0x46ddbcb7d8c5ed86,
hotel,hotel,,,,BALI,,Indonesia,,,,,,https://maps.google.com/?cid=0x0:0x46ddbcb7d8c5ed86%7C/g/11bzpkq2b2%7Cid-ID,
hotel,hotel,DD bamboo lodge,"F897+782, Bitera, Kec. Gianyar, Kabupaten Gianyar, Bali 80515","Bitera, Kec. Gianyar, Kabupaten Gianyar",BALI,80515.0,Indonesia,8174713436.0,,,-8.5318724,115.3132654,https://maps.google.com/?cid=0x0:0xe4b30af927ebb763,
hotel,hotel,Odessa Village by Pramana Villas,"C8QC+22H, Bona, Kec. Blahbatuh, Kabupaten Gianyar, Bali 80581","Bona, Kec. Blahbatuh, Kabupaten Gianyar",BALI,80581.0,Indonesia,82147330045.0,,,-8.5624415,115.3201089,https://maps.google.com/?cid=0x0:0x82313b31b6108c63,
hotel,hotel,Sujiwa Ubud Hotel  Villa,"Jl. Subak Gunung Sari, Sumampan, Kemenuh, Kec. Sukawati, Kabupaten Gianyar, Bali 80582","Sumampan, Kemenuh, Kec. Sukawati, Kabupaten Gianyar",BALI,80582.0,Indonesia,81943621744.0,,,-8.5470125,115.286377,https://maps.google.com/?cid=0x0:0x1be6555b842e0f02,
hotel,hotel,Villas Dur Pekerisan Ubud,"C8X9+WPJ, Bitera, Kec. Gianyar, Kabupaten Gianyar, Bali 80515","Bitera, Kec. Gianyar, Kabupaten Gianyar",BALI,80515.0,Indonesia,,,,-8.5501836,115.3192304,https://maps.google.com/?cid=0x0:0x25b0f9bb0f5bdc85,
hotel,hotel,Sari Murni,"F76J+MVF tengkulak, Jl. Tengah, Kemenuh, Sukawati, Gianyar Regency, Bali 80582","Jl. Tengah, Kemenuh, Sukawati, Gianyar Regency",BALI,80582.0,Indonesia,82112243336.0,,,-8.5379574,115.2825834,https://maps.google.com/?cid=0x0:0x22d9672ba31ad8a,
hotel,hotel,IPIAN JIWA,"Unnamed Road, Kemenuh, Sukawati, Gianyar Regency, Bali 80582","Kemenuh, Sukawati, Gianyar Regency",BALI,80582.0,Indonesia,81353040399.0,,,-8.5486544,115.2868051,https://maps.google.com/?cid=0x0:0x8c687783e5da8620,
hotel,hotel,The Mudru Resort,"C7VQ+X88 Br. Sumampan, Jl. Ir. Sutami, Kemenuh, Sukawati, Gianyar Regency, Bali 80582","Jl. Ir. Sutami, Kemenuh, Sukawati, Gianyar Regency",BALI,80582.0,Indonesia,81338548111.0,,,-8.5550799,115.2883369,https://maps.google.com/?cid=0x0:0x46e53f11bea139aa,
hotel,hotel,Nyamane Ubud Green View Villas by EPS,"G76M+MC7, Jl. Raya Pejeng Kawan, Pejeng Kaja, Kec. Tampaksiring, Kecamatan Ubud, Kabupaten Gianyar, Bali 80552","Jl. Raya Pejeng Kawan, Pejeng Kaja, Kec. Tampaksiring, Kecamatan Ubud, Kabupaten Gianyar",BALI,80552.0,Indonesia,87716995494.0,,,-8.4883248,115.283584,https://maps.google.com/?cid=0x0:0x997a39132ecbc8cd,
hotel,hotel,Gending Sari House,"Br.Intaran, Pejeng, Kec. Tampaksiring, Kabupaten Gianyar, Bali 80852","Pejeng, Kec. Tampaksiring, Kabupaten Gianyar",BALI,80852.0,Indonesia,87862226434.0,,,-8.5185035,115.2947743,https://maps.google.com/?cid=0x0:0xdaead0712324e034,
hotel,hotel,Winy House,"Jl. Dharma Giri, Bona, Kec. Blahbatuh, Kabupaten Gianyar, Bali","Kabupaten Gianyar, Bali",BALI,,Indonesia,895417300072.0,,,-8.5504721,115.3135384,https://maps.google.com/?cid=0x0:0xbcb5051df6d70bbe,
hotel,hotel,Pomelo Guesthouse,"Jl. Cemp. Jl. Raya Laplapan, Petulu, Kecamatan Ubud, Kabupaten Gianyar, Bali 80552","Petulu, Kecamatan Ubud, Kabupaten Gianyar",BALI,80552.0,Indonesia,83846981045.0,,,-8.5007009,115.2790476,https://maps.google.com/?cid=0x0:0x41b82b0e6920a60b,
hotel,hotel,Bali 80515,"Kec. Gianyar, Kabupaten Gianyar, Bali","Kabupaten Gianyar, Bali",BALI,,Indonesia,,,,-8.5169426,115.3133908,https://maps.google.com/?cid=0x0:0x1c00c5eb6016be90,
hotel,hotel,,,,BALI,,Indonesia,,,,,,https://maps.google.com/?cid=0x0:0x373f057ad128cd60%7C/g/11p76l2xgf%7Cid-ID,
hotel,hotel,RV Hotel Gianyar Bali,"Jl. Wisma Udayana, Buruan, Kec. Blahbatuh, Kabupaten Gianyar, Bali 80581","Buruan, Kec. Blahbatuh, Kabupaten Gianyar",BALI,80581.0,Indonesia,3613206888.0,,,-8.5448575,115.3032057,https://maps.google.com/?cid=0x0:0x373f057ad128cd60,
hotel,hotel,Tebluess Gianyar,"F8QC+PMX, Bakbakan, Kec. Gianyar, Kabupaten Gianyar, Bali 80511","Bakbakan, Kec. Gianyar, Kabupaten Gianyar",BALI,80511.0,Indonesia,89680000788.0,,,-8.5106881,115.3217006,https://maps.google.com/?cid=0x0:0xa28861fc35bdda93,
hotel,hotel,Giriya Amerta Hotel and Restaurant,"Br. Umakuta (Perbatasan Br. Umakuta  Br. Sawagunung, Jl. Kelusu, Pejeng Kangin, Kec. Tampaksiring, Kabupaten Gianyar, Bali 80512","Jl. Kelusu, Pejeng Kangin, Kec. Tampaksiring, Kabupaten Gianyar",BALI,80512.0,Indonesia,,,,-8.4981546,115.3046909,https://maps.google.com/?cid=0x0:0xd3799d66a070818e,
hotel,hotel,,,,BALI,,Indonesia,,,,,,https://maps.google.com/?cid=0x0:0x4a31eca9a50ae236%7C/g/1q67g9m84%7Cid-ID,
hotel,hotel,Puri Saron Hotel Madangan,"Ds Madangan Kaja, Desa Petak, Petak Kaja, Kec. Gianyar, Kabupaten Gianyar, Bali 80515","Desa Petak, Petak Kaja, Kec. Gianyar, Kabupaten Gianyar",BALI,80515.0,Indonesia,361954257.0,,,-8.4649117,115.3258662,https://maps.google.com/?cid=0x0:0xb2ab0adf0af6d817,
hotel,hotel,Kori Maharani Villas Gianyar,"Jl. By Pass Jl. Prof. Dr. Ida Bagus Mantra, Tulikup, Kec. Gianyar, Kabupaten Gianyar, Bali","Kabupaten Gianyar, Bali",BALI,,Indonesia,3614791690.0,,,-8.573694,115.36348,https://maps.google.com/?cid=0x0:0x46ddbcb7d8c5ed86,
hotel,hotel,,,,BALI,,Indonesia,,,,,,https://maps.google.com/?cid=0x0:0xb2ab0adf0af6d817%7C/g/1tcynbf_%7Cid-ID,
hotel,hotel,,,,BALI,,Indonesia,,,,,,https://maps.google.com/?cid=0x0:0x46ddbcb7d8c5ed86%7C/g/11bzpkq2b2%7Cid-ID,
hotel,hotel,OYO 612 Dante Guesthouse,"No.3, Jl. Hasanuddin No.I, Gianyar, Kec. Gianyar, Kabupaten Gianyar, Bali 80511","Jl. Hasanuddin No.I, Gianyar, Kec. Gianyar, Kabupaten Gianyar",BALI,80511.0,Indonesia,,,,-8.5448245,115.3218787,https://maps.google.com/?cid=0x0:0xdeabad5d4524aea9,
hotel,hotel,,,,BALI,,Indonesia,,,,,,https://maps.google.com/?cid=0x0:0xdeabad5d4524aea9%7C/g/11b6nw9kk6%7Cid-ID,
hotel,hotel,Hotel Taman Prakerti Bhuana,"Beng, Kec. Gianyar, Kabupaten Gianyar, Bali 80511","Kec. Gianyar, Kabupaten Gianyar",BALI,80511.0,Indonesia,87865436777.0,,,-8.5257997,115.3286022,https://maps.google.com/?cid=0x0:0xdd42a2fd5500cc4c,
hotel,hotel,Sayana Bali Resto  Bar,"Jl. Gn. Lempuyang No.8, Samplangan, Kec. Gianyar, Kabupaten Gianyar, Bali 80512","Samplangan, Kec. Gianyar, Kabupaten Gianyar",BALI,80512.0,Indonesia,81999757746.0,,,-8.5355168,115.3346077,https://maps.google.com/?cid=0x0:0x19e62da0f13aa0bb,
hotel,hotel,Tebluess Guesthouse Gianyar RedPartner,"Gg. Triwangsa, Kawan, Bakbakan, Kec. Gianyar, Kabupaten Gianyar, Bali 80511","Kawan, Bakbakan, Kec. Gianyar, Kabupaten Gianyar",BALI,80511.0,Indonesia,895417300072.0,,,-8.5109375,115.3205625,https://maps.google.com/?cid=0x0:0x466a459bd888870d,
hotel,hotel,Kubu Bali Baik Villa  Resort,"Jl. Raya Pejeng Kawan, Pejeng Kaja, Kec. Tampaksiring, Kabupaten Gianyar, Bali 80552","Pejeng Kaja, Kec. Tampaksiring, Kabupaten Gianyar",BALI,80552.0,Indonesia,3619080448.0,,,-8.4815164,115.2859019,https://maps.google.com/?cid=0x0:0x992d385a7e3190f5,
hotel,hotel,Sanga Suites,"Pejeng, Kec. Tampaksiring, Kabupaten Gianyar, Bali 80552","Kec. Tampaksiring, Kabupaten Gianyar",BALI,80552.0,Indonesia,85737463970.0,,,-8.5086145,115.2941963,https://maps.google.com/?cid=0x0:0x4dfa293022523531,
hotel,hotel,Alam Kawi Ubud Resort  Spa by Island Escape Villas,"Sanding, Kec. Tampaksiring, Kabupaten Gianyar, Bali 80552","Kec. Tampaksiring, Kabupaten Gianyar",BALI,80552.0,Indonesia,81339362407.0,,,-8.4569425,115.3045473,https://maps.google.com/?cid=0x0:0xbe57cd660cca0b18,
hotel,hotel,Emana Akatara,"Pejeng Kawan, Kec. Tampaksiring, Kabupaten Gianyar, Bali 80552","Kec. Tampaksiring, Kabupaten Gianyar",BALI,80552.0,Indonesia,81330931010.0,,,-8.5056275,115.2912594,https://maps.google.com/?cid=0x0:0xa160b279f8f3c7b7,
hotel,hotel,DD bamboo lodge,"F897+782, Bitera, Kec. Gianyar, Kabupaten Gianyar, Bali 80515","Bitera, Kec. Gianyar, Kabupaten Gianyar",BALI,80515.0,Indonesia,8174713436.0,,,-8.5318724,115.3132654,https://maps.google.com/?cid=0x0:0xe4b30af927ebb763,
hotel,hotel,Cucukan Beach Guest House,"pantai cucukan, Medahan, Kec. Blahbatuh, Kabupaten Gianyar, Bali","Kabupaten Gianyar, Bali",BALI,,Indonesia,82236633857.0,,,-8.5868394,115.3489995,https://maps.google.com/?cid=0x0:0xff71d241069b18ff,
hotel,hotel,RUMAH LUWIH BEACH RESORT,"Jl. Prof. Dr. Ida Bagus Mantra No.Km 19 9, Lebih, Gianyar, Gianyar Regency, Bali 80237","Lebih, Gianyar, Gianyar Regency",BALI,80237.0,Indonesia,3612005899.0,,,-8.5830027,115.3521708,https://maps.google.com/?cid=0x0:0xe58f4e7c9f6f4e3e,
hotel,hotel,,,,BALI,,Indonesia,,,,,,https://maps.google.com/?cid=0x0:0xe58f4e7c9f6f4e3e%7C/g/11b6_n5_fj%7Cid-ID,
hotel,hotel,Puri Darma Agung Villa,"Jl.Br Sala Pejeng Kawan, Pejeng, Kec. Tampaksiring, Kabupaten Gianyar, Bali 80571","Pejeng, Kec. Tampaksiring, Kabupaten Gianyar",BALI,80571.0,Indonesia,818347766.0,,,-8.4984189,115.2855206,https://maps.google.com/?cid=0x0:0xa9a331352c0b426b,
hotel,hotel,Odessa Village by Pramana Villas,"C8QC+22H, Bona, Kec. Blahbatuh, Kabupaten Gianyar, Bali 80581","Bona, Kec. Blahbatuh, Kabupaten Gianyar",BALI,80581.0,Indonesia,82147330045.0,,,-8.5624415,115.3201089,https://maps.google.com/?cid=0x0:0x82313b31b6108c63,
hotel,hotel,Rangkung Hill Villa Gianyar by The Lavana,"Jl. Carik Sekalangan, Br. Lebih Beten Kelod, Lebih, Kec. Gianyar, Kabupaten Gianyar, Bali 80515","Br. Lebih Beten Kelod, Lebih, Kec. Gianyar, Kabupaten Gianyar",BALI,80515.0,Indonesia,89680000788.0,,,-8.5811144,115.3490709,https://maps.google.com/?cid=0x0:0xf14deb7be9868e12,
hotel,hotel,Gending Sari House,"Br.Intaran, Pejeng, Kec. Tampaksiring, Kabupaten Gianyar, Bali 80852","Pejeng, Kec. Tampaksiring, Kabupaten Gianyar",BALI,80852.0,Indonesia,87862226434.0,,,-8.5185035,115.2947743,https://maps.google.com/?cid=0x0:0xdaead0712324e034,
hotel,hotel,casa de arya,"Jl. Raya Suwat, Suwat, Kec. Gianyar, Kabupaten Gianyar, Bali 80511","Suwat, Kec. Gianyar, Kabupaten Gianyar",BALI,80511.0,Indonesia,85737857664.0,,,-8.4789952,115.3133948,https://maps.google.com/?cid=0x0:0xebe5c7da19c1fa49,
hotel,hotel,Mupu Jana House Keramas,"Jl. Selukat, Keramas, Kec. Blahbatuh, Kabupaten Gianyar, Bali 80581","Keramas, Kec. Blahbatuh, Kabupaten Gianyar",BALI,80581.0,Indonesia,82146426141.0,,,-8.5923508,115.3312108,https://maps.google.com/?cid=0x0:0x7f14f73e813c5399,
hotel,hotel,Bali 80572,"Kec. Payangan, Kabupaten Gianyar, Bali","Kabupaten Gianyar, Bali",BALI,,Indonesia,,,,-8.3752579,115.2481959,https://maps.google.com/?cid=0x0:0x1c00c5eb6016bee0,
hotel,hotel,Bali Jungle Resort,"Br, Jl. Raya Pujung Kaja, Sebatu, Kec. Tegallalang, Bali 80561","Jl. Raya Pujung Kaja, Sebatu, Kec. Tegallalang",BALI,80561.0,Indonesia,361980972.0,,,-8.4057083,115.2844468,https://maps.google.com/?cid=0x0:0x3eeeae405245cf6b,
hotel,hotel,Senetan Villas and Spa Resort,"Banjar Panginyahan, Puhu, Kec. Payangan, Kabupaten Gianyar, Bali 80572","Puhu, Kec. Payangan, Kabupaten Gianyar",BALI,80572.0,Indonesia,3619084092.0,,,-8.3727511,115.2647491,https://maps.google.com/?cid=0x0:0x5c727d5d6ea2064a,
hotel,hotel,Triyana Resort Carangsari,"H64F+JJH, Jl. Tukad Ayung XIX, Carangsari, Kec. Petang, Kabupaten Badung, Bali 80353","Jl. Tukad Ayung XIX, Carangsari, Kec. Petang, Kabupaten Badung",BALI,80353.0,Indonesia,81339498851.0,,,-8.4434295,115.2241015,https://maps.google.com/?cid=0x0:0x16dfa149b143af29,
hotel,hotel,,,,BALI,,Indonesia,,,,,,https://maps.google.com/?cid=0x0:0xe04e192e4db83f01%7C/g/11j2427587%7Cid-ID,
hotel,hotel,The Kayon Jungle Resort,"Br, Bresela, Kec. Payangan, Kabupaten Gianyar, Bali 80572","Bresela, Kec. Payangan, Kabupaten Gianyar",BALI,80572.0,Indonesia,361978098.0,,,-8.4230371,115.2750171,https://maps.google.com/?cid=0x0:0xfbe960811a746594,
hotel,hotel,"Buahan, a Banyan Tree Escape","Buahan Kaja, Kec. Payangan, Kabupaten Gianyar, Bali 80572","Kec. Payangan, Kabupaten Gianyar",BALI,80572.0,Indonesia,3616208181.0,,,-8.365373,115.2384718,https://maps.google.com/?cid=0x0:0xe04e192e4db83f01,
hotel,hotel,Song Broek Jungle Resort,"Jl Song Broek, Br Geria, Melinggih, Kec. Payangan, Kabupaten Gianyar, Bali 80572","Br Geria, Melinggih, Kec. Payangan, Kabupaten Gianyar",BALI,80572.0,Indonesia,361980277.0,,,-8.4324798,115.2492065,https://maps.google.com/?cid=0x0:0x6c112515bbf16718,
hotel,hotel,,,,BALI,,Indonesia,,,,,,https://maps.google.com/?cid=0x0:0xfbe960811a746594%7C/g/11f_4s5stf%7Cid-ID,
hotel,hotel,,,,BALI,,Indonesia,,,,,,https://maps.google.com/?cid=0x0:0x22bb35ead68d62fe%7C/g/12hmn971v%7Cid-ID,
hotel,hotel,Ayung Resort Ubud,"Banjar Begawan, Melinggih Kelod, Kec. Payangan, Kabupaten Gianyar, Bali 80572","Melinggih Kelod, Kec. Payangan, Kabupaten Gianyar",BALI,80572.0,Indonesia,3619001333.0,,,-8.4498983,115.2347794,https://maps.google.com/?cid=0x0:0x22bb35ead68d62fe,
hotel,hotel,Nandini Bali Jungle Resort and Spa,"H6PP+G26, Br. Susut, Jl. Susut, Buahan, Kec. Payangan, Kabupaten Gianyar, Bali 80572","Br. Susut, Jl. Susut, Buahan, Kec. Payangan, Kabupaten Gianyar",BALI,80572.0,Indonesia,81236871170.0,,,-8.4153606,115.23777,https://maps.google.com/?cid=0x0:0xee57975b3ffe0a00,
hotel,hotel,,,,BALI,,Indonesia,,,,,,https://maps.google.com/?cid=0x0:0xee57975b3ffe0a00%7C/g/1tfd9w9g%7Cid-ID,
hotel,hotel,Padi Bali Retreat,"Jl. Raya Bresela, Bresela, Kec. Payangan, Kabupaten Gianyar, Bali 80572","Bresela, Kec. Payangan, Kabupaten Gianyar",BALI,80572.0,Indonesia,81806881188.0,,,-8.4318149,115.2682956,https://maps.google.com/?cid=0x0:0x2971cd585a312814,
hotel,hotel,Bakung Ubud Resort  Villa,"Jalan Sriwedari, Desa Tegallantang G799+299 Ubud, Ubud, Kec. Tegallalang, Kabupaten Gianyar, Bali 80571","Desa Tegallantang G799+299 Ubud, Ubud, Kec. Tegallalang, Kabupaten Gianyar",BALI,80571.0,Indonesia,3614792660.0,,,-8.482455,115.2684987,https://maps.google.com/?cid=0x0:0xebcb8110ca69bff6,
hotel,hotel,,,,BALI,,Indonesia,,,,,,https://maps.google.com/?cid=0x0:0xebcb8110ca69bff6%7C/g/11b7w0q46_%7Cid-ID,
hotel,hotel,The Kanjeng Resort Ubud,"Jalan Tirta Tawar Petulu Ubud, Tegallalang, Kec. Tegallalang, Kabupaten Gianyar, Bali 80571","Tegallalang, Kec. Tegallalang, Kabupaten Gianyar",BALI,80571.0,Indonesia,3616208808.0,,,-8.4676526,115.2699571,https://maps.google.com/?cid=0x0:0x1adfd0449b5593e4,
hotel,hotel,,,,BALI,,Indonesia,,,,,,https://maps.google.com/?cid=0x0:0x1adfd0449b5593e4%7C/g/11h0hp_1y%7Cid-ID,
hotel,hotel,Sukanami Villa Ubud,"Jl. Raya Payangan No.desa, meliling kelod, Kec. Payangan, Kabupaten Gianyar, Bali 80572","meliling kelod, Kec. Payangan, Kabupaten Gianyar",BALI,80572.0,Indonesia,85280073823.0,,,-8.4482886,115.242462,https://maps.google.com/?cid=0x0:0xe7eeb3999adabd7b,
hotel,hotel,"Bobocabin Ubud, Bali","Kedisan, Kec. Tegallalang, Kabupaten Gianyar, Bali","Kabupaten Gianyar, Bali",BALI,,Indonesia,81120212577.0,,,-8.4194668,115.2894303,https://maps.google.com/?cid=0x0:0xd6407a12af23392a,
hotel,hotel,Aventus Resort Ubud,"Jalan Pura Prajapati, Banjar Tangkup, Kedisan, Kec. Tegallalang, Kabupaten Gianyar, Bali 80561","Banjar Tangkup, Kedisan, Kec. Tegallalang, Kabupaten Gianyar",BALI,80561.0,Indonesia,81339547781.0,,,-8.4360674,115.2821121,https://maps.google.com/?cid=0x0:0x2de6a9b62de9697,
hotel,hotel,Pramana Giri Kusuma,"Jl. Raya Payangan, Melinggih, Kec. Payangan, Kabupaten Gianyar, Bali 80572","Melinggih, Kec. Payangan, Kabupaten Gianyar",BALI,80572.0,Indonesia,3618983267.0,,,-8.4150665,115.2439974,https://maps.google.com/?cid=0x0:0xcc70778b596d23e9,
hotel,hotel,"Capella Ubud, Bali","Jl. RY Dalem, Keliki, Kec. Tegallalang, Kabupaten Gianyar, Bali 80561","Keliki, Kec. Tegallalang, Kabupaten Gianyar",BALI,80561.0,Indonesia,3612091888.0,,,-8.4482091,115.2681117,https://maps.google.com/?cid=0x0:0x25093ef92f99017c,
hotel,hotel,,,,BALI,,Indonesia,,,,,,https://maps.google.com/?cid=0x0:0x25093ef92f99017c%7C/g/11g0h_r0wd%7Cid-ID,
hotel,hotel,,,,BALI,,Indonesia,,,,,,https://maps.google.com/?cid=0x0:0x6ce6688c8113c9b4%7C/g/11bycgcxk3%7Cid-ID,
hotel,hotel,Padma Resort Ubud,"Padma Resort Ubud Banjar Carik, Desa, Puhu, Kec. Payangan, Kabupaten Gianyar, Bali 80572","Desa, Puhu, Kec. Payangan, Kabupaten Gianyar",BALI,80572.0,Indonesia,3613011111.0,,,-8.3834684,115.2745404,https://maps.google.com/?cid=0x0:0x6ce6688c8113c9b4,
hotel,hotel,Adiwana Dara Ayu,"JL. Raya Buahan, No. 88X, Majangan, Buahan Kaja, Kec. Payangan, Kabupaten Gianyar, Bali 80572","No. 88X, Majangan, Buahan Kaja, Kec. Payangan, Kabupaten Gianyar",BALI,80572.0,Indonesia,81288722601.0,,,-8.3614706,115.2437193,https://maps.google.com/?cid=0x0:0x49a5c47e638915e2,
hotel,hotel,Anantara Ubud Bali Resort,"Jl. Raya Puhu Payangan No.88, Puhu, Kec. Payangan, Kabupaten Gianyar, Bali 80572","Puhu, Kec. Payangan, Kabupaten Gianyar",BALI,80572.0,Indonesia,3612017888.0,,,-8.3918623,115.2715584,https://maps.google.com/?cid=0x0:0x682a0b68f8971fe7,
hotel,hotel,Lawani Resort,"Sebatu, Kec. Tegallalang, Kabupaten Gianyar, Bali 80561","Kec. Tegallalang, Kabupaten Gianyar",BALI,80561.0,Indonesia,85808866373.0,,,-8.3995046,115.2945216,https://maps.google.com/?cid=0x0:0x3b791576ae0334a5,
hotel,hotel,Sukawati,"Guwang, Kec. Sukawati, Kabupaten Gianyar, Bali","Kabupaten Gianyar, Bali",BALI,,Indonesia,,,,-8.605564,115.280502,https://maps.google.com/?cid=0x0:0x3d33c5a58391e773,
hotel,hotel,The Swaha Hotel,"Jl. Pasekan Jl. Raya Banjar Tubuh No.29B, Batubulan, Kec. Sukawati, Kabupaten Gianyar, Bali 80582","Batubulan, Kec. Sukawati, Kabupaten Gianyar",BALI,80582.0,Indonesia,361290361.0,,,-8.6186382,115.2565925,https://maps.google.com/?cid=0x0:0x6ed5bea42817f928,
hotel,hotel,,,,BALI,,Indonesia,,,,,,https://maps.google.com/?cid=0x0:0x6ed5bea42817f928%7C/g/11b6dc_gsf%7Cid-ID,
hotel,hotel,Batuan Village,"Jl. Lettu Wayan Sutha II No.100, Banjar Gede, Sukawati, Kec. Sukawati, Kabupaten Gianyar, Bali 80582","Banjar Gede, Sukawati, Kec. Sukawati, Kabupaten Gianyar",BALI,80582.0,Indonesia,81225130915.0,,,-8.5862419,115.2789314,https://maps.google.com/?cid=0x0:0x38f4a361d4120396,
hotel,hotel,Puri Saren Anyar,"Jl. Raya Sukawati No.75, Sukawati, Kec. Sukawati, Kabupaten Gianyar, Bali 80582","Sukawati, Kec. Sukawati, Kabupaten Gianyar",BALI,80582.0,Indonesia,,,,-8.5948133,115.2828225,https://maps.google.com/?cid=0x0:0x4a12bb1a972e9c7a,
hotel,hotel,Tiis Garden Puri,"Jl. Batuyang No.21, Guwang, Kec. Sukawati, Kabupaten Gianyar, Bali 80582","Guwang, Kec. Sukawati, Kabupaten Gianyar",BALI,80582.0,Indonesia,,,,-8.6146329,115.2807925,https://maps.google.com/?cid=0x0:0x55059119fe44d23f,
hotel,hotel,Kirani Joglo,"Jl. Raya Celuk, Celuk, Kec. Sukawati, Kabupaten Gianyar, Bali 80582","Celuk, Kec. Sukawati, Kabupaten Gianyar",BALI,80582.0,Indonesia,811380177.0,,,-8.6037411,115.2578969,https://maps.google.com/?cid=0x0:0x380f27a3fce253b6,
hotel,hotel,Alam Puri,"Jl. Trenggana No.108, Penatih, Kec. Denpasar Tim., Kota Denpasar, Bali 80238","Penatih, Kec. Denpasar Tim., Kota Denpasar",BALI,80238.0,Indonesia,85280040108.0,,,-8.6085946,115.2379931,https://maps.google.com/?cid=0x0:0x71c50dab0d8d027c,
hotel,hotel,Royani Villa,"Jalan Raya Celuk No. 20 Sukawati, Gianyar, Celuk, Kec. Sukawati, Bali, 80582","Gianyar, Celuk, Kec. Sukawati",BALI,80582.0,Indonesia,,,,-8.6005961,115.2724391,https://maps.google.com/?cid=0x0:0xc510e77b3657ed1c,
hotel,hotel,kubu kayana batuan,"Jl. Alas Arum No.2, Batuan, Kec. Sukawati, Kabupaten Gianyar, Bali 80582","Batuan, Kec. Sukawati, Kabupaten Gianyar",BALI,80582.0,Indonesia,85738135558.0,,,-8.5878403,115.2756488,https://maps.google.com/?cid=0x0:0x42b5db946af87a9a,
hotel,hotel,Bali Masari Villas  Spa,"Jl. Bali Masari, Banjar Gelumpang, Kec. Sukawati, Kabupaten Gianyar, Bali 80582","Banjar Gelumpang, Kec. Sukawati, Kabupaten Gianyar",BALI,80582.0,Indonesia,361290029.0,,,-8.5977971,115.2961511,https://maps.google.com/?cid=0x0:0x46477ffeb5b9126d,
hotel,hotel,,,,BALI,,Indonesia,,,,,,https://maps.google.com/?cid=0x0:0x46477ffeb5b9126d%7C/g/1tl6n6pj%7Cid-ID,
hotel,hotel,Swan Paradise A Pramana Experience,"Jalan Raya Bonbiyu, Banda, Blahbatuh, Kec. Gianyar, Kabupaten Gianyar, Bali 80581","Banda, Blahbatuh, Kec. Gianyar, Kabupaten Gianyar",BALI,80581.0,Indonesia,3614402828.0,,,-8.5938986,115.2950629,https://maps.google.com/?cid=0x0:0xc0f09edf21f2dd2,
hotel,hotel,Kapten Nyoman House,"Jl. Beji, Sukawati, Kec. Sukawati, Kabupaten Gianyar, Bali 80582","Sukawati, Kec. Sukawati, Kabupaten Gianyar",BALI,80582.0,Indonesia,87861584651.0,,,-8.6030337,115.2901886,https://maps.google.com/?cid=0x0:0x450b786dc5031bb8,
hotel,hotel,The Tetamian Bali,"Jalan Carik batuan dangin, Br. Peninjoan, Jl. Carik Batuan Kangin, Batuan, Kec. Sukawati, Kabupaten Gianyar, Bali 80582","Br. Peninjoan, Jl. Carik Batuan Kangin, Batuan, Kec. Sukawati, Kabupaten Gianyar",BALI,80582.0,Indonesia,85738155675.0,,,-8.5864267,115.2848137,https://maps.google.com/?cid=0x0:0xddb05f26ad0ffa65,
hotel,hotel,,,,BALI,,Indonesia,,,,,,https://maps.google.com/?cid=0x0:0xc0f09edf21f2dd2%7C/g/11pzs11s4v%7Cid-ID,
hotel,hotel,Ubud Suites Batuan and Sangkara guest house,"Jl. Raya Batuan, Batuan, Kec. Sukawati, Kabupaten Gianyar, Bali 80582","Batuan, Kec. Sukawati, Kabupaten Gianyar",BALI,80582.0,Indonesia,81239520574.0,,,-8.5825535,115.2815205,https://maps.google.com/?cid=0x0:0xc3fe790ecfe7bb8e,
hotel,hotel,Villa Palma Pinda Saba,"C72X+FMV, Saba, Kec. Blahbatuh, Kabupaten Gianyar, Bali","Kabupaten Gianyar, Bali",BALI,,Indonesia,,,,-8.5987702,115.2991675,https://maps.google.com/?cid=0x0:0x46cd4cdbc16f3d47,
hotel,hotel,AS resort (asri sari ),"near Aron guest house, Jl. Lod Tunduh, Lodtunduh, Ubud, Gianyar Regency, Bali 80582","Jl. Lod Tunduh, Lodtunduh, Ubud, Gianyar Regency",BALI,80582.0,Indonesia,85338356945.0,,,-8.5751154,115.26584,https://maps.google.com/?cid=0x0:0x6fd59ed8c75dece,
hotel,hotel,Keris Art Shop - Villa Telaga Wana,"Jl. Subak Mungkul Gang Paron, Celuk, Kec. Sukawati, Kabupaten Gianyar, Bali 80582","Celuk, Kec. Sukawati, Kabupaten Gianyar",BALI,80582.0,Indonesia,81337911116.0,,,-8.6028579,115.265966,https://maps.google.com/?cid=0x0:0x48e5c64bee6dca24,
hotel,hotel,Agrapana Beach Villa,"Jl. Pantai Rangkan, Banjar Rangkan, Ketewel, Kec. Sukawati, Kabupaten Gianyar, Bali 80582","Banjar Rangkan, Ketewel, Kec. Sukawati, Kabupaten Gianyar",BALI,80582.0,Indonesia,81339162789.0,,,-8.6226198,115.3018468,https://maps.google.com/?cid=0x0:0xb0fe94a4aedf008d,
hotel,hotel,Ubud Chez Nyoman,"Jl. Raya Batuan No.18, Batuan, Kec. Sukawati, Kabupaten Gianyar, Bali 80582","Batuan, Kec. Sukawati, Kabupaten Gianyar",BALI,80582.0,Indonesia,8123924566.0,,,-8.5846317,115.2725176,https://maps.google.com/?cid=0x0:0x813a859ae028461b,
hotel,hotel,Kubu Beji Villa Batubulan Gianyar By The Lavana,"Jl. Pasekan Gg. Batu Beji No.2A blok II, Batubulan Kangin, Sukawati, Gianyar Regency, Bali 80582","Batubulan Kangin, Sukawati, Gianyar Regency",BALI,80582.0,Indonesia,89680000788.0,,,-8.6177364,115.2661788,https://maps.google.com/?cid=0x0:0x1cd10a402fb16f4f,
hotel,hotel,Villa Tangtu Beach Inn,"Jl. Pucuk I No.70X, Kesiman Kertalangu, Kec. Denpasar Tim., Kota Denpasar, Bali","Kota Denpasar, Bali",BALI,,Indonesia,8990319365.0,,,-8.6506635,115.2672701,https://maps.google.com/?cid=0x0:0x2d23d04c6214b5ec,
hotel,hotel,Ida Guest House,"C78H+8MW, Gg. Cakra, Batuan, Kec. Sukawati, Kabupaten Gianyar, Bali 80582","Gg. Cakra, Batuan, Kec. Sukawati, Kabupaten Gianyar",BALI,80582.0,Indonesia,85100400834.0,,,-8.5841557,115.2792172,https://maps.google.com/?cid=0x0:0x7ecab204126a145,
hotel,hotel,Royen Balinese Family Guest House - Traditional Batuan Homestay,"JL. Ds. Batuan, Br. Blahtanah, Batuan, Kec. Sukawati, Kabupaten Gianyar, Bali 80582","Br. Blahtanah, Batuan, Kec. Sukawati, Kabupaten Gianyar",BALI,80582.0,Indonesia,81239675393.0,,,-8.5805284,115.2780779,https://maps.google.com/?cid=0x0:0x35b1338b80fa5db8,
hotel,hotel,Batuan Villa,"Batuan, Kec. Sukawati, Kabupaten Gianyar, Bali 80582","Kec. Sukawati, Kabupaten Gianyar",BALI,80582.0,Indonesia,811395205.0,,,-8.5793914,115.2801768,https://maps.google.com/?cid=0x0:0x16f1e90746a08a70,
hotel,hotel,Tampaksiring,"Kec. Tampaksiring, Kabupaten Gianyar, Bali","Kabupaten Gianyar, Bali",BALI,,Indonesia,,,,-8.4390082,115.3104277,https://maps.google.com/?cid=0x0:0x1800e8dbac4d3f48,
hotel,Hotel bintang 4,Alam Kawi Ubud Resort  Spa by Island Escape Villas,"Sanding, Kec. Tampaksiring, Kabupaten Gianyar, Bali 80552","Kec. Tampaksiring, Kabupaten Gianyar",BALI,80552.0,Indonesia,81339362407.0,,,-8.4569425,115.3045473,https://maps.google.com/?cid=0x0:0xbe57cd660cca0b18,
hotel,Hostel,Bali Jungle Resort,"Br, Jl. Raya Pujung Kaja, Sebatu, Kec. Tegallalang, Bali 80561","Jl. Raya Pujung Kaja, Sebatu, Kec. Tegallalang",BALI,80561.0,Indonesia,361980972.0,,,-8.4057083,115.2844468,https://maps.google.com/?cid=0x0:0x3eeeae405245cf6b,
hotel,hotel,Bambootel Sawah View,"Banjar Maniktawang, Manukaya, Kec. Tampaksiring, Kabupaten Gianyar, Bali 80552","Manukaya, Kec. Tampaksiring, Kabupaten Gianyar",BALI,80552.0,Indonesia,85974171995.0,,,-8.4247853,115.321693,https://maps.google.com/?cid=0x0:0x2e2f06740c382279,
hotel,hotel,Kawi Resort a Spiritual Sanctuary to Escape,"Br. Bukit, Tampaksiring, Jalan Doktor Ir. Soekarno, Sanding, Kec. Tampaksiring, Kabupaten Gianyar, Bali 80552","Tampaksiring, Jalan Doktor Ir. Soekarno, Sanding, Kec. Tampaksiring, Kabupaten Gianyar",BALI,80552.0,Indonesia,3614793008.0,,,-8.4476705,115.3097781,https://maps.google.com/?cid=0x0:0x35a4f5cb614056eb,
hotel,hotel,Campuhan Sebatu Resort,"Jalan Umekelod, Sebatu, Kec. Tegallalang, Kabupaten Gianyar, Bali 80561","Sebatu, Kec. Tegallalang, Kabupaten Gianyar",BALI,80561.0,Indonesia,3619081891.0,,,-8.4102473,115.2989791,https://maps.google.com/?cid=0x0:0x63600fbe45f453a5,
hotel,hotel,Tirta sari villa,"Jl. Pakudui, Kedisan, Kec. Tegallalang, Kabupaten Gianyar, Bali 80561","Kedisan, Kec. Tegallalang, Kabupaten Gianyar",BALI,80561.0,Indonesia,87881601474.0,,,-8.4239504,115.2816367,https://maps.google.com/?cid=0x0:0x12bb86e12ac628ec,
hotel,hotel,,,,BALI,,Indonesia,,,,,,https://maps.google.com/?cid=0x0:0x35a4f5cb614056eb%7C/g/11cmqg4jp5%7Cid-ID,
hotel,hotel,Bali Jungle Taksu,"Jln Subak Jasan Jl. Br Jasan, Sebatu, Kec. Tegallalang, Kabupaten Gianyar, Bali 80561","Sebatu, Kec. Tegallalang, Kabupaten Gianyar",BALI,80561.0,Indonesia,85847579757.0,,,-8.383602,115.3022349,https://maps.google.com/?cid=0x0:0xf5f5cbd182083aa1,
hotel,hotel,Kubu Bali Baik Villa  Resort,"Jl. Raya Pejeng Kawan, Pejeng Kaja, Kec. Tampaksiring, Kabupaten Gianyar, Bali 80552","Pejeng Kaja, Kec. Tampaksiring, Kabupaten Gianyar",BALI,80552.0,Indonesia,3619080448.0,,,-8.4815164,115.2859019,https://maps.google.com/?cid=0x0:0x992d385a7e3190f5,
hotel,hotel,Paon Desa Ubud Hotel and Resort,"Jl. Raya Laplapan, Pejeng, Kec. Tampaksiring, Kabupaten Gianyar, Bali 80552","Pejeng, Kec. Tampaksiring, Kabupaten Gianyar",BALI,80552.0,Indonesia,3619086288.0,,,-8.4928056,115.2813858,https://maps.google.com/?cid=0x0:0xa3044888ab5f5eeb,
hotel,hotel,Aventus Resort Ubud,"Jalan Pura Prajapati, Banjar Tangkup, Kedisan, Kec. Tegallalang, Kabupaten Gianyar, Bali 80561","Banjar Tangkup, Kedisan, Kec. Tegallalang, Kabupaten Gianyar",BALI,80561.0,Indonesia,81339547781.0,,,-8.4360674,115.2821121,https://maps.google.com/?cid=0x0:0x2de6a9b62de9697,
hotel,hotel,Aksha Riverside Ubud,"Jl. Pertiwi Brata, Tampaksiring, Kec. Tampaksiring, Kabupaten Gianyar, Bali 80552","Tampaksiring, Kec. Tampaksiring, Kabupaten Gianyar",BALI,80552.0,Indonesia,81337155266.0,,,-8.4327476,115.3177814,https://maps.google.com/?cid=0x0:0x3200e7e5f426e00c,
hotel,hotel,Abisena Wellness and Resort Ubud,"Jl. Raya Keliki No.123, Keliki, Kec. Tegallalang, Kabupaten Gianyar, Bali 80561","Keliki, Kec. Tegallalang, Kabupaten Gianyar",BALI,80561.0,Indonesia,3616201123.0,,,-8.4600068,115.2592854,https://maps.google.com/?cid=0x0:0xdd8e485a87028f24,
hotel,hotel,Bakung Ubud Resort  Villa,"Jalan Sriwedari, Desa Tegallantang G799+299 Ubud, Ubud, Kec. Tegallalang, Kabupaten Gianyar, Bali 80571","Desa Tegallantang G799+299 Ubud, Ubud, Kec. Tegallalang, Kabupaten Gianyar",BALI,80571.0,Indonesia,3614792660.0,,,-8.482455,115.2684987,https://maps.google.com/?cid=0x0:0xebcb8110ca69bff6,
hotel,hotel,,,,BALI,,Indonesia,,,,,,https://maps.google.com/?cid=0x0:0xebcb8110ca69bff6%7C/g/11b7w0q46_%7Cid-ID,
hotel,hotel,Alvia Joglo House  Private Pool,"Pulagan, Kec. Tampaksiring, Kabupaten Gianyar, Bali 80552","Kec. Tampaksiring, Kabupaten Gianyar",BALI,80552.0,Indonesia,81916461808.0,,,-8.4330564,115.3103261,https://maps.google.com/?cid=0x0:0xd86e54680e7fd98a,
hotel,hotel,Chandi Hotel Ubud,"Jl. Sri Wedari No.14, Ubud, Kec. Tegallalang, Kabupaten Gianyar, Bali 80571","Ubud, Kec. Tegallalang, Kabupaten Gianyar",BALI,80571.0,Indonesia,87717830505.0,,,-8.4922436,115.2669879,https://maps.google.com/?cid=0x0:0x4b1ddfaa98ea2dbd,
hotel,hotel,Tjendana Kanaka Jungle Resort Ubud,"Kelusa, Kec. Payangan, Kabupaten Gianyar, Bali 80561","Kec. Payangan, Kabupaten Gianyar",BALI,80561.0,Indonesia,8113971862.0,,,-8.4444641,115.2689455,https://maps.google.com/?cid=0x0:0x58d2933783435d1,
hotel,hotel,Maru Fortuna Villa,"Jalan Raya Tampaksiring, Tegalsaat, Jl. Raya Ayodya, Pejeng Kangin, Kabupaten Gianyar, Bali 80552","Tegalsaat, Jl. Raya Ayodya, Pejeng Kangin, Kabupaten Gianyar",BALI,80552.0,Indonesia,81338272777.0,,,-8.4576243,115.3090108,https://maps.google.com/?cid=0x0:0x51a8c7d72c9ddbf2,
hotel,hotel,Padi Bali Retreat,"Jl. Raya Bresela, Bresela, Kec. Payangan, Kabupaten Gianyar, Bali 80572","Bresela, Kec. Payangan, Kabupaten Gianyar",BALI,80572.0,Indonesia,81806881188.0,,,-8.4318149,115.2682956,https://maps.google.com/?cid=0x0:0x2971cd585a312814,
hotel,hotel,Villa RABITA,"Jl. Suweta, bentuyung, Kecamatan Ubud, Kabupaten Gianyar, Bali 80571","bentuyung, Kecamatan Ubud, Kabupaten Gianyar",BALI,80571.0,Indonesia,82322534240.0,,,-8.4770179,115.2677351,https://maps.google.com/?cid=0x0:0x8d7d339427bbfae0,
hotel,hotel,Villa Bali sawah indah,"H844+484, Tampaksiring, Kec. Tampaksiring, Kabupaten Gianyar, Bali","Kabupaten Gianyar, Bali",BALI,,Indonesia,82143517801.0,,,-8.444999,115.3057502,https://maps.google.com/?cid=0x0:0x69c59129bc6ae54f,
hotel,hotel,The Paddies Villa,"H863+CXF, Jl. Raya Uma, Tampaksiring, Kec. Tampaksiring, Kabupaten Gianyar, Bali 80552","Jl. Raya Uma, Tampaksiring, Kec. Tampaksiring, Kabupaten Gianyar",BALI,80552.0,Indonesia,87862276620.0,,,-8.4389965,115.3049298,https://maps.google.com/?cid=0x0:0xb12a573375b1ac79,
hotel,hotel,Bali 80552,"Kec. Tampaksiring, Kabupaten Gianyar, Bali","Kabupaten Gianyar, Bali",BALI,,Indonesia,,,,-8.4362857,115.3133908,https://maps.google.com/?cid=0x0:0x1c00c5eb6016beb0,
hotel,hotel,RV Hotel Gianyar Bali,"Jl. Wisma Udayana, Buruan, Kec. Blahbatuh, Kabupaten Gianyar, Bali 80581","Buruan, Kec. Blahbatuh, Kabupaten Gianyar",BALI,80581.0,Indonesia,3613206888.0,,,-8.5448575,115.3032057,https://maps.google.com/?cid=0x0:0x373f057ad128cd60,
hotel,hotel,,,,BALI,,Indonesia,,,,,,https://maps.google.com/?cid=0x0:0x373f057ad128cd60%7C/g/11p76l2xgf%7Cid-ID,
hotel,hotel,Puri Padma Hotel,"G72F+945, jl Raya Andong, Banjar Nagi, Petulu, Kecamatan Ubud, Kabupaten Gianyar, Bali 80571","jl Raya Andong, Banjar Nagi, Petulu, Kecamatan Ubud, Kabupaten Gianyar",BALI,80571.0,Indonesia,361975323.0,,,-8.4991174,115.2728573,https://maps.google.com/?cid=0x0:0xfc91e6930c5ba7a1,
hotel,hotel,Bali Jungle Resort,"Br, Jl. Raya Pujung Kaja, Sebatu, Kec. Tegallalang, Bali 80561","Jl. Raya Pujung Kaja, Sebatu, Kec. Tegallalang",BALI,80561.0,Indonesia,361980972.0,,,-8.4057083,115.2844468,https://maps.google.com/?cid=0x0:0x3eeeae405245cf6b,
hotel,hotel,Uma Linggah Resort by Puri Signatures,"Jl. Raya Pujung Kaja, Sebatu, Kec. Tegallalang, Kabupaten Gianyar, Bali 80561","Sebatu, Kec. Tegallalang, Kabupaten Gianyar",BALI,80561.0,Indonesia,82266467690.0,,,-8.4033948,115.2894489,https://maps.google.com/?cid=0x0:0x823e77874798e8,
hotel,hotel,Bali 80561,"Kec. Tegallalang, Kabupaten Gianyar, Bali","Kabupaten Gianyar, Bali",BALI,,Indonesia,,,,-8.3921715,115.2956118,https://maps.google.com/?cid=0x0:0x1c00c5eb6016bec0,
hotel,Hotel bintang 4,Lawani Resort,"Sebatu, Kec. Tegallalang, Kabupaten Gianyar, Bali 80561","Kec. Tegallalang, Kabupaten Gianyar",BALI,80561.0,Indonesia,85808866373.0,,,-8.3995046,115.2945216,https://maps.google.com/?cid=0x0:0x3b791576ae0334a5,
hotel,Hotel bintang 4,Campuhan Sebatu Resort,"Jalan Umekelod, Sebatu, Kec. Tegallalang, Kabupaten Gianyar, Bali 80561","Sebatu, Kec. Tegallalang, Kabupaten Gianyar",BALI,80561.0,Indonesia,3619081891.0,,,-8.4102473,115.2989791,https://maps.google.com/?cid=0x0:0x63600fbe45f453a5,
hotel,hotel,"Ananda Suite by Djiwa Experience, Tegallalang","Jl. Raya Bonjaka, Sebatu, Kec. Tegallalang, Kabupaten Gianyar, Bali 80561","Sebatu, Kec. Tegallalang, Kabupaten Gianyar",BALI,80561.0,Indonesia,87855682551.0,,,-8.3806345,115.2947269,https://maps.google.com/?cid=0x0:0x3063847b422713ef,
hotel,Hotel Resor,Bali Bamboo Jungle Huts and Hostel,"Jl. Raya Pujung Kaja No.11, Sebatu, Kec. Tegallalang, Kabupaten Gianyar, Bali 80561","Sebatu, Kec. Tegallalang, Kabupaten Gianyar",BALI,80561.0,Indonesia,81238818150.0,,,-8.4064165,115.2861703,https://maps.google.com/?cid=0x0:0xfa0533a4d714ad77,
hotel,hotel,The Lumbung Jaya,"Jl. Raya Bilukan No.25, Sebatu, Kec. Tegallalang, Kabupaten Gianyar, Bali 80561","Sebatu, Kec. Tegallalang, Kabupaten Gianyar",BALI,80561.0,Indonesia,8151831115.0,,,-8.3884509,115.2971505,https://maps.google.com/?cid=0x0:0xefaa616591213647,
hotel,hotel,Uma sebatu villa,"Sebatu, Kec. Tegallalang, Kabupaten Gianyar, Bali 80561","Kec. Tegallalang, Kabupaten Gianyar",BALI,80561.0,Indonesia,3619087559.0,,,-8.3977605,115.2953995,https://maps.google.com/?cid=0x0:0x7c3a519000511899,
hotel,Hotel bintang 5,Aventus Resort Ubud,"Jalan Pura Prajapati, Banjar Tangkup, Kedisan, Kec. Tegallalang, Kabupaten Gianyar, Bali 80561","Banjar Tangkup, Kedisan, Kec. Tegallalang, Kabupaten Gianyar",BALI,80561.0,Indonesia,81339547781.0,,,-8.4360674,115.2821121,https://maps.google.com/?cid=0x0:0x2de6a9b62de9697,
hotel,hotel,"Cicada Resort Bali Ubud, Autograph Collection","Jl. Raya Bilukan, Sebatu, Kec. Tegallalang, Kabupaten Gianyar, Bali 80561","Sebatu, Kec. Tegallalang, Kabupaten Gianyar",BALI,80561.0,Indonesia,3618989999.0,,,-8.3895946,115.296284,https://maps.google.com/?cid=0x0:0xeaa2ef07d03d74e8,
hotel,hotel,Tirta sari villa,"Jl. Pakudui, Kedisan, Kec. Tegallalang, Kabupaten Gianyar, Bali 80561","Kedisan, Kec. Tegallalang, Kabupaten Gianyar",BALI,80561.0,Indonesia,87881601474.0,,,-8.4239504,115.2816367,https://maps.google.com/?cid=0x0:0x12bb86e12ac628ec,
hotel,hotel,Sebatu Valley Villas by Puri Signatures,"Jl. Raya Bilukan, Sebatu, Kec. Tegallalang, Kabupaten Gianyar, Bali 80561","Sebatu, Kec. Tegallalang, Kabupaten Gianyar",BALI,80561.0,Indonesia,82266467689.0,,,-8.3925345,115.2941245,https://maps.google.com/?cid=0x0:0x41ddb54b989c98b5,
hotel,hotel,"Maddu Suites, Sebatu Tegallalang","H7RW+JG5, Sebatu, Kec. Tegallalang, Kabupaten Gianyar, Bali 80561","Sebatu, Kec. Tegallalang, Kabupaten Gianyar",BALI,80561.0,Indonesia,,,,-8.408473,115.2968543,https://maps.google.com/?cid=0x0:0x707c372849912623,
hotel,hotel,Abisena Wellness and Resort Ubud,"Jl. Raya Keliki No.123, Keliki, Kec. Tegallalang, Kabupaten Gianyar, Bali 80561","Keliki, Kec. Tegallalang, Kabupaten Gianyar",BALI,80561.0,Indonesia,3616201123.0,,,-8.4600068,115.2592854,https://maps.google.com/?cid=0x0:0xdd8e485a87028f24,
hotel,hotel,Batan Nyuh Retreat,"Jl. Subak batan nyuh, Jl. Banjar Timbul-Pupuan, Pupuan, Kec. Tegallalang, Kabupaten Gianyar, Bali 80561","Jl. Banjar Timbul-Pupuan, Pupuan, Kec. Tegallalang, Kabupaten Gianyar",BALI,80561.0,Indonesia,87881601474.0,,,-8.3992886,115.3003955,https://maps.google.com/?cid=0x0:0xefcb183cb7110ab6,
hotel,hotel,Dukuh Sebatu Villa,"Sebatu, Kec. Tegallalang, Kabupaten Gianyar, Bali 80561","Kec. Tegallalang, Kabupaten Gianyar",BALI,80561.0,Indonesia,81238308083.0,,,-8.3979056,115.2914752,https://maps.google.com/?cid=0x0:0x838c46c4f50140c2,
hotel,hotel,Bakung Ubud Resort  Villa,"Jalan Sriwedari, Desa Tegallantang G799+299 Ubud, Ubud, Kec. Tegallalang, Kabupaten Gianyar, Bali 80571","Desa Tegallantang G799+299 Ubud, Ubud, Kec. Tegallalang, Kabupaten Gianyar",BALI,80571.0,Indonesia,3614792660.0,,,-8.482455,115.2684987,https://maps.google.com/?cid=0x0:0xebcb8110ca69bff6,
hotel,hotel,,,,BALI,,Indonesia,,,,,,https://maps.google.com/?cid=0x0:0xebcb8110ca69bff6%7C/g/11b7w0q46_%7Cid-ID,
hotel,hotel,,,,BALI,,Indonesia,,,,,,https://maps.google.com/?cid=0x0:0x1adfd0449b5593e4%7C/g/11h0hp_1y%7Cid-ID,
hotel,hotel,The Kanjeng Resort Ubud,"Jalan Tirta Tawar Petulu Ubud, Tegallalang, Kec. Tegallalang, Kabupaten Gianyar, Bali 80571","Tegallalang, Kec. Tegallalang, Kabupaten Gianyar",BALI,80571.0,Indonesia,3616208808.0,,,-8.4676526,115.2699571,https://maps.google.com/?cid=0x0:0x1adfd0449b5593e4,
hotel,hotel,Doni House  Villas,"G7HH+V87, Tegallalang, Kec. Tegallalang, Kabupaten Gianyar, Bali 80561","Tegallalang, Kec. Tegallalang, Kabupaten Gianyar",BALI,80561.0,Indonesia,,,,-8.470266,115.278786,https://maps.google.com/?cid=0x0:0x61e49d9ebb2a672,
hotel,hotel,Mahayana Guest House,"Jl. Raya Sapat, Tegallalang, Kecamatan Ubud, Kabupaten Gianyar, Bali 80561","Tegallalang, Kecamatan Ubud, Kabupaten Gianyar",BALI,80561.0,Indonesia,85738931630.0,,,-8.4716294,115.2772691,https://maps.google.com/?cid=0x0:0x7ff185a0c7a86226,
hotel,hotel,Nang Taro Homestay,"Br. Taro Kaja, Taro, Kec. Tegallalang, Kabupaten Gianyar, Bali 80561","Taro, Kec. Tegallalang, Kabupaten Gianyar",BALI,80561.0,Indonesia,81337374182.0,,,-8.3809963,115.2788981,https://maps.google.com/?cid=0x0:0xe25ecfede31d7da5,
hotel,hotel,SURYA UBUD VIEW,"H727+3R3, Jl. Setra, Keliki, Kec. Tegallalang, Kabupaten Gianyar, Bali 80561","Jl. Setra, Keliki, Kec. Tegallalang, Kabupaten Gianyar",BALI,80561.0,Indonesia,82138762145.0,,,-8.4498571,115.2645478,https://maps.google.com/?cid=0x0:0x91b5c66bac50c2e3,
hotel,hotel,Taksu Sebatu Villa,"Sebatu, Kec. Tegallalang, Kabupaten Gianyar, Bali 80561","Kec. Tegallalang, Kabupaten Gianyar",BALI,80561.0,Indonesia,85870707075.0,,,-8.3982335,115.2945121,https://maps.google.com/?cid=0x0:0x374b072d4b35b95b,
hotel,hotel,Ramaya Ubud View by EPS,"Jl. RY Dalem, Kelusa, Kec. Tegallalang, Kabupaten Gianyar, Bali 80561","Kelusa, Kec. Tegallalang, Kabupaten Gianyar",BALI,80561.0,Indonesia,85857506606.0,,,-8.4477714,115.2648024,https://maps.google.com/?cid=0x0:0xeac05fcffe86d0ba,
hotel,hotel,Ubud,"Ubud, Kecamatan Ubud, Kabupaten Gianyar, Bali","Kabupaten Gianyar, Bali",BALI,,Indonesia,,,,-8.5068536,115.2624778,https://maps.google.com/?cid=0x0:0x54a38afd6b773d1c,
hotel,hotel,Clan Living - The Founder Ubud,"Jl. Raya Pengosekan Ubud No.108, Mas, Kecamatan Ubud, Kabupaten Gianyar, Bali 80571","Mas, Kecamatan Ubud, Kabupaten Gianyar",BALI,80571.0,Indonesia,81280009185.0,,,-8.5226589,115.2628424,https://maps.google.com/?cid=0x0:0x13bcdc187ade5968,
hotel,hotel,Ubud Tropical,"F7XC+WX8, Jl. Raya Andong Petulu, Ubud, Gianyar, Petulu, Kecamatan Ubud, Denpasar, Bali 80571","Jl. Raya Andong Petulu, Ubud, Gianyar, Petulu, Kecamatan Ubud, Denpasar",BALI,80571.0,Indonesia,361977874.0,,,-8.5002235,115.2724596,https://maps.google.com/?cid=0x0:0x32170680aa0857b6,
hotel,hotel,,,,BALI,,Indonesia,,,,,,https://maps.google.com/?cid=0x0:0x23cb7429d12b026b%7C/g/1ptynvcdb%7Cid-ID,
hotel,hotel,Hotel Puriartha Ubud,"Jl. Made Lebah No.5, Peliatan, Kecamatan Ubud, Kabupaten Gianyar, Bali 80571","Peliatan, Kecamatan Ubud, Kabupaten Gianyar",BALI,80571.0,Indonesia,8113929168.0,,,-8.5239001,115.2667816,https://maps.google.com/?cid=0x0:0x74bd0a034be640f2,
hotel,hotel,SenS Hotel  Spa + Conference Ubud Town Centre,"Jl. Sukma Kesuma No.1, Banjar Tebesaya, Kecamatan Ubud, Kabupaten Gianyar, Bali 80571","Banjar Tebesaya, Kecamatan Ubud, Kabupaten Gianyar",BALI,80571.0,Indonesia,3618493328.0,,,-8.5096596,115.2688806,https://maps.google.com/?cid=0x0:0x23cb7429d12b026b,
hotel,hotel,Ubud Inn Cottage,"F7M6+P62, Jl. Monkey Forest, Ubud, Kecamatan Ubud, Kabupaten Gianyar, Bali 80571","Jl. Monkey Forest, Ubud, Kecamatan Ubud, Kabupaten Gianyar",BALI,80571.0,Indonesia,361975071.0,,,-8.5157318,115.2605133,https://maps.google.com/?cid=0x0:0xabf424c518ef1084,
hotel,hotel,Parthi Puri Ubud,"Br. Silungan, Lodtunduh, Kecamatan Ubud, Kabupaten Gianyar, Bali 80571","Lodtunduh, Kecamatan Ubud, Kabupaten Gianyar",BALI,80571.0,Indonesia,81999492317.0,,,-8.5547083,115.2641606,https://maps.google.com/?cid=0x0:0xef50601be07b2c0b,
hotel,hotel,Sabana Ubud,"Jl. Premasanti, Mas, Kecamatan Ubud, Kabupaten Gianyar, Bali 80571","Mas, Kecamatan Ubud, Kabupaten Gianyar",BALI,80571.0,Indonesia,82146077478.0,,,-8.52444,115.2627772,https://maps.google.com/?cid=0x0:0xa8342b9c1ec2d278,
hotel,hotel,Savanna Ubud,"Jl. Monkey Forest, Ubud, Kecamatan Ubud, Kabupaten Gianyar, Bali 80571","Ubud, Kecamatan Ubud, Kabupaten Gianyar",BALI,80571.0,Indonesia,82340425352.0,,,-8.5147226,115.2604863,https://maps.google.com/?cid=0x0:0xc6c6174f48487004,
hotel,hotel,Sri Aksata Ubud Resort,"Jl. Monkey Forest, Ubud, Kec. Gianyar, Kabupaten Gianyar, Bali 80571","Ubud, Kec. Gianyar, Kabupaten Gianyar",BALI,80571.0,Indonesia,361975394.0,,,-8.5132859,115.2608354,https://maps.google.com/?cid=0x0:0x9bc61b661a5e5fac,
hotel,hotel,Meruhdani Boutique Hotel Ubud,"Jl. Bisma No.3, Ubud, Kecamatan Ubud, Kabupaten Gianyar, Bali 80571","Ubud, Kecamatan Ubud, Kabupaten Gianyar",BALI,80571.0,Indonesia,361977978.0,,,-8.5064096,115.258789,https://maps.google.com/?cid=0x0:0x6f4214031e4c42ae,
hotel,hotel,,,,BALI,,Indonesia,,,,,,https://maps.google.com/?cid=0x0:0x9bc61b661a5e5fac%7C/g/11h1mtn8m%7Cid-ID,
hotel,hotel,Ubud Village Hotel,"Jl. Monkey Forest, Ubud, Kecamatan Ubud, Kabupaten Gianyar, Bali 80571","Ubud, Kecamatan Ubud, Kabupaten Gianyar",BALI,80571.0,Indonesia,361975571.0,,,-8.5122399,115.2609394,https://maps.google.com/?cid=0x0:0xb72cb641372874dd,
hotel,hotel,,,,BALI,,Indonesia,,,,,,https://maps.google.com/?cid=0x0:0xb72cb641372874dd%7C/g/1tf9dh62%7Cid-ID,
hotel,hotel,,,,BALI,,Indonesia,,,,,,https://maps.google.com/?cid=0x0:0x6f4214031e4c42ae%7C/g/11cmxz2nrz%7Cid-ID,
hotel,hotel,Ubud Kerta City Hotel,"Jl. Monkey Forest No.15, Ubud, Kecamatan Ubud, Kabupaten Gianyar, Bali 80571","Ubud, Kecamatan Ubud, Kabupaten Gianyar",BALI,80571.0,Indonesia,,,,-8.51085,115.2610344,https://maps.google.com/?cid=0x0:0xe1d8459e9e246175,
hotel,hotel,Luwak Estate,"Jalan Sri Wedari. 9 Br. Tegal Lantang Ubud, Ubud, Kec. Gianyar, Kabupaten Gianyar, Bali 80571","Ubud, Kec. Gianyar, Kabupaten Gianyar",BALI,80571.0,Indonesia,3619000552.0,,,-8.4928342,115.2662324,https://maps.google.com/?cid=0x0:0x6dd5a131b9f0150b,
hotel,hotel,,,,BALI,,Indonesia,,,,,,https://maps.google.com/?cid=0x0:0xe1d8459e9e246175%7C/g/11ckdh7rll%7Cid-ID,
hotel,Vila,Panorama Hotel,"F7H7+654, Jl. Raya Pengosekan, Ubud, Kecamatan Ubud, Kabupaten Gianyar, Bali 80571","Jl. Raya Pengosekan, Ubud, Kecamatan Ubud, Kabupaten Gianyar",BALI,80571.0,Indonesia,361973320.0,,,-8.5219933,115.2629636,https://maps.google.com/?cid=0x0:0x8ba0ea5e4d387007,
hotel,hotel,,,,BALI,,Indonesia,,,,,,https://maps.google.com/?cid=0x0:0x8ba0ea5e4d387007%7C/g/1tcynn8z%7Cid-ID,
hotel,hotel,,,,BALI,,Indonesia,,,,,,https://maps.google.com/?cid=0x0:0x6dd5a131b9f0150b%7C/g/11_f34862%7Cid-ID,
hotel,hotel,Ananda JJ Ubud Resort  spa,"obyek wisata kokokan, Jl. Raya Petulu, Ubud, Kecamatan Ubud, Kabupaten Gianyar, Bali 80571","Jl. Raya Petulu, Ubud, Kecamatan Ubud, Kabupaten Gianyar",BALI,80571.0,Indonesia,81916644784.0,,,-8.4702002,115.273674,https://maps.google.com/?cid=0x0:0xdfb9b40bc74ca2c6,
hotel,hotel,Belvilla Y Resort Near Central Ubud,"80571, Jl. Penestanan, Sayan, Kecamatan Ubud Hotel near Museum Blanco 400 m Kabupaten Gianyar, Bali, 80571","Jl. Penestanan, Sayan, Kecamatan Ubud Hotel near Museum Blanco 400 m Kabupaten Gianyar",BALI,80571.0,Indonesia,2129707601.0,,,-8.5059793,115.2508953,https://maps.google.com/?cid=0x0:0xd4322ebbb156e795,
hotel,hotel,,,,BALI,,Indonesia,,,,,,https://maps.google.com/?cid=0x0:0xd4322ebbb156e795%7C/g/1td82tlt%7Cid-ID,
hotel,hotel,New Mumbul Ubud,"Ubud Main Street, Ubud, Bali 80571, Indonesia, Ubud, Gianyar, Gianyar Regency, Bali 80571","Ubud, Bali",BALI,80571.0,Indonesia,85738931630.0,,,-8.5060993,115.2607622,https://maps.google.com/?cid=0x0:0xa233475bc5725f8b,
hotel,hotel,,,,BALI,,Indonesia,,,,,,https://maps.google.com/?cid=0x0:0xd28176de52f29df8%7C/g/1tf89_n9%7Cid-ID,
hotel,Hotel bintang 4,Lumbung Sari Hotel Ubud,"Jl. Monkey Forest No.15, Ubud, Kecamatan Ubud, Kabupaten Gianyar, Bali 80571","Ubud, Kecamatan Ubud, Kabupaten Gianyar",BALI,80571.0,Indonesia,361976396.0,,,-8.5127385,115.2612564,https://maps.google.com/?cid=0x0:0xd28176de52f29df8,
hotel,hotel,Tetirah Boutique Hotel Ubud,"Jl. Suweta No.56, Ubud, Kecamatan Ubud, Kabupaten Gianyar, Bali 80571","Ubud, Kecamatan Ubud, Kabupaten Gianyar",BALI,80571.0,Indonesia,81999580634.0,,,-8.4993584,115.2647311,https://maps.google.com/?cid=0x0:0x77d486aac73a4f9f,
restaurant,Indonesia,Nasi Randang - Belah Batu,"Jl. Wisma Udayana, Blahbatuh, Kec. Blahbatuh, Kabupaten Gianyar, Bali 80581","Blahbatuh, Kec. Blahbatuh, Kabupaten Gianyar",BALI,80581.0,Indonesia,81270438223.0,,,-8.5588076,115.3017589,https://maps.google.com/?cid=0x0:0xbc72777119935e0c,
restaurant,Padang,Rumah Makan Nasi Randang Masakan Padang,"C9C4+43J, Jl. Prof. Dr. Ida Bagus Mantra, Lebih, Kec. Gianyar, Kabupaten Gianyar, Bali","Kabupaten Gianyar, Bali",BALI,,Indonesia,,,,-8.5796716,115.355135,https://maps.google.com/?cid=0x0:0xbb546d73e750e096,
restaurant,Rumah Makan,Warung Uma Batuh,"Blahbatuh, Kec. Blahbatuh, Kabupaten Gianyar, Bali 80581","Kec. Blahbatuh, Kabupaten Gianyar",BALI,80581.0,Indonesia,8123972373.0,,,-8.5697248,115.3045475,https://maps.google.com/?cid=0x0:0xee69351efc3d82e6,
restaurant,Indonesia,NGERODOK RESTO,"Jl. Mulawarman No.132A, Abianbase, Kec. Gianyar, Kabupaten Gianyar, Bali 80515","Abianbase, Kec. Gianyar, Kabupaten Gianyar",BALI,80515.0,Indonesia,81913328626.0,,,-8.5527923,115.3268921,https://maps.google.com/?cid=0x0:0xedc8bb4db6aae0e3,
restaurant,restaurant,Bali 80511,"Kec. Gianyar, Kabupaten Gianyar, Bali","Kabupaten Gianyar, Bali",BALI,,Indonesia,,,,-8.5386152,115.328206,https://maps.google.com/?cid=0x0:0x3a6ab5e6526148c8,
restaurant,Indonesia,Ngaliir Resto,"Jl. Dharma Giri, Bitera, Kec. Gianyar, Kabupaten Gianyar, Bali 80511","Bitera, Kec. Gianyar, Kabupaten Gianyar",BALI,80511.0,Indonesia,81228603416.0,,,-8.5423341,115.3145924,https://maps.google.com/?cid=0x0:0xe3f35569e93d16d,
restaurant,Restoran,Kober Mie Bali - Gianyar,"Jl. Dharma Giri No.27, Gianyar, Kec. Gianyar, Kabupaten Gianyar, Bali 80511","Gianyar, Kec. Gianyar, Kabupaten Gianyar",BALI,80511.0,Indonesia,81236017942.0,,,-8.5406943,115.3179811,https://maps.google.com/?cid=0x0:0x6b1d51ea515b6c73,
restaurant,Indonesia,Warung Sendok Garpu,"Jl. Dharma Giri, Buruan, Kec. Blahbatuh, Kabupaten Gianyar, Bali 80581","Buruan, Kec. Blahbatuh, Kabupaten Gianyar",BALI,80581.0,Indonesia,82236362177.0,,,-8.5477863,115.3119325,https://maps.google.com/?cid=0x0:0x763686e382e7b4ff,
restaurant,Indonesia,Ayam Taliwang,"Jl. Astina Timur, Samplangan, Kec. Gianyar, Kabupaten Gianyar, Bali 80511","Samplangan, Kec. Gianyar, Kabupaten Gianyar",BALI,80511.0,Indonesia,361947021.0,,,-8.5410975,115.3349461,https://maps.google.com/?cid=0x0:0xfec9a0bc84da5065,
restaurant,Bubur,BUBUR BALI,"Jl. Bukit Buluh, Beng, Kec. Gianyar, Kabupaten Gianyar, Bali 80513","Beng, Kec. Gianyar, Kabupaten Gianyar",BALI,80513.0,Indonesia,81236151515.0,,,-8.5291858,115.325312,https://maps.google.com/?cid=0x0:0x31ced7008bd8632a,
restaurant,Bali,Warung Babi Guling Pande Egi,"Banjar Pande, Beng, Kec. Gianyar, Kabupaten Gianyar, Bali 80513","Beng, Kec. Gianyar, Kabupaten Gianyar",BALI,80513.0,Indonesia,87883328808.0,,,-8.526876,115.3248255,https://maps.google.com/?cid=0x0:0x9469d9bb05940a59,
restaurant,Sesuai untuk keluarga,Sumampan Restaurant,"Jl. Subak Gunungsari, Banjar Sumampan, Kemenuh, Kec. Sukawati, Kabupaten Gianyar, Bali 80582","Banjar Sumampan, Kemenuh, Kec. Sukawati, Kabupaten Gianyar",BALI,80582.0,Indonesia,81238585870.0,,,-8.5452974,115.2857429,https://maps.google.com/?cid=0x0:0xd7474552572d2da5,
restaurant,Restoran,Warung Makan Padi Kuning,"Br. Ngenjungsari, Desa, Bakbakan, Gianyar, Gianyar Regency, Bali 80515","Desa, Bakbakan, Gianyar, Gianyar Regency",BALI,80515.0,Indonesia,87703258845.0,,,-8.5075611,115.3281218,https://maps.google.com/?cid=0x0:0xa6d2978e44de1ed9,
restaurant,Rumah Makan,Warong Legong,"Jalan Professor Doktor Ida Bagus Mantra No. 300A Keramas, Medahan, Kec. Blahbatuh, Kabupaten Gianyar, Bali","Kabupaten Gianyar, Bali",BALI,,Indonesia,82145011601.0,,,-8.5946372,115.3358249,https://maps.google.com/?cid=0x0:0x8ef8fcf999c8f3b8,
restaurant,Restoran,Warung d'tukad,"Air Terjun Kantolampo Lingkungan Kelod, Beng, Kec. Gianyar, Kabupaten Gianyar, Bali 80513","Beng, Kec. Gianyar, Kabupaten Gianyar",BALI,80513.0,Indonesia,81338019440.0,,,-8.5319397,115.3320739,https://maps.google.com/?cid=0x0:0xe94e9c90e6ae5626,
restaurant,Makanan Siap Saji,PinHead Bali,"Jl. Mulawarman No.99, Abianbase, Kec. Gianyar, Kabupaten Gianyar, Bali 80515","Abianbase, Kec. Gianyar, Kabupaten Gianyar",BALI,80515.0,Indonesia,85337284137.0,,,-8.5619966,115.327288,https://maps.google.com/?cid=0x0:0x708cd1d91d69b77,
restaurant,Jawa,Warung Makan  Catering CJDW,"Jl. Raden Wijaya, Gianyar, Kec. Gianyar, Kabupaten Gianyar, Bali 80511","Gianyar, Kec. Gianyar, Kabupaten Gianyar",BALI,80511.0,Indonesia,81238955696.0,,,-8.5436579,115.3210212,https://maps.google.com/?cid=0x0:0xa1b83fd0eb135cd4,
restaurant,Restoran,Pangsit Cwiemie Ayam Malang CAK AZIS,"Candibaru, Jl. Kebo Iwa, Gianyar, Kec. Gianyar, Kabupaten Gianyar, Bali 80511","Jl. Kebo Iwa, Gianyar, Kec. Gianyar, Kabupaten Gianyar",BALI,80511.0,Indonesia,89687913099.0,,,-8.5454776,115.3228204,https://maps.google.com/?cid=0x0:0xae66d13f9171ba67,
restaurant,Rumah Makan,Depot Asri,"F85J+6CR, Jl. Astina Timur, Gianyar, Kec. Gianyar, Kabupaten Gianyar, Bali 80511","Jl. Astina Timur, Gianyar, Kec. Gianyar, Kabupaten Gianyar",BALI,80511.0,Indonesia,81936061337.0,,,-8.5418834,115.3310184,https://maps.google.com/?cid=0x0:0x864121dc2b943441,
restaurant,Restoran,Mr.Crip's,"Jl. Ciung Wanara-Gianyar No.10, Gianyar, Kec. Gianyar, Kabupaten Gianyar, Bali 80511","Gianyar, Kec. Gianyar, Kabupaten Gianyar",BALI,80511.0,Indonesia,85100233080.0,,,-8.5401331,115.3222703,https://maps.google.com/?cid=0x0:0xccbd497e617ae458,
restaurant,Restoran,Kanto Lampo Warung,"Jl. Kanto Lampo Waterfall, Beng, Kec. Gianyar, Kabupaten Gianyar, Bali 80513","Beng, Kec. Gianyar, Kabupaten Gianyar",BALI,80513.0,Indonesia,85858291601.0,,,-8.5323872,115.3323587,https://maps.google.com/?cid=0x0:0x5fec077703ca751d,
restaurant,Indonesia,Restoran Kongkow Gianyar,"Jl. Yudistira No.12X, Gianyar, Kec. Gianyar, Kabupaten Gianyar, Bali 80511","Gianyar, Kec. Gianyar, Kabupaten Gianyar",BALI,80511.0,Indonesia,81338665189.0,,,-8.5459229,115.3236932,https://maps.google.com/?cid=0x0:0xebdf758c3a987917,
restaurant,Restoran,Kunang-Kunang Restaurant,"Banjar Pinjul, Kenderan, Kec. Tegallalang, Kabupaten Gianyar, Bali 80561","Kenderan, Kec. Tegallalang, Kabupaten Gianyar",BALI,80561.0,Indonesia,81338365491.0,,,-8.4597403,115.2828573,https://maps.google.com/?cid=0x0:0x9ed6613148e9ca6,
restaurant,Makanan Kecil,Dapur Pemadam Kelaparan Gianyar,"Jl. Jata No.11x, Banjar Teges Kaja, Kec. Gianyar, Kabupaten Gianyar, Bali 80511","Banjar Teges Kaja, Kec. Gianyar, Kabupaten Gianyar",BALI,80511.0,Indonesia,8113801985.0,,,-8.5381817,115.326201,https://maps.google.com/?cid=0x0:0x4be914b022486ef6,
restaurant,Ayam,Warung Nasi Tempong Mbak Rida,"Jl. Raden Wijaya, candi baru, Kec. Gianyar, Kabupaten Gianyar, Bali 80511","candi baru, Kec. Gianyar, Kabupaten Gianyar",BALI,80511.0,Indonesia,816299666.0,,,-8.5448364,115.3211575,https://maps.google.com/?cid=0x0:0x98997464a636a958,
restaurant,Rumah Makan,Warung Makan Mami Wiwik,"Jl. Raden Wijaya, Gianyar, Kec. Gianyar, Kabupaten Gianyar, Bali 80511","Gianyar, Kec. Gianyar, Kabupaten Gianyar",BALI,80511.0,Indonesia,82301107842.0,,,-8.5474142,115.3213328,https://maps.google.com/?cid=0x0:0xd575a8a36126b3cb,
restaurant,Hidangan Laut,Warung SIGGI (Sup Ikan Goreng Gianyar),"Jl. Dharma Giri, Buruan, Kec. Blahbatuh, Kabupaten Gianyar, Bali 80581","Buruan, Kec. Blahbatuh, Kabupaten Gianyar",BALI,80581.0,Indonesia,87747169741.0,,,-8.5487699,115.3036701,https://maps.google.com/?cid=0x0:0xc9ca96de2eae6e23,
restaurant,Jawa,The Kucit,"Jl. Abimanyu No.1, Gianyar, Kec. Gianyar, Kabupaten Gianyar, Bali 80511","Gianyar, Kec. Gianyar, Kabupaten Gianyar",BALI,80511.0,Indonesia,82144075050.0,,,-8.5462252,115.3252598,https://maps.google.com/?cid=0x0:0xa42609252b13e11f,
restaurant,Restoran,Warung Nyaman,"F84H+QCJ, Jl. Pudak, Gianyar, Kec. Gianyar, Kabupaten Gianyar, Bali 80511","Jl. Pudak, Gianyar, Kec. Gianyar, Kabupaten Gianyar",BALI,80511.0,Indonesia,81238387553.0,,,-8.5430349,115.32852,https://maps.google.com/?cid=0x0:0x818d4e1c41fb19bd,
restaurant,Masakan Asia,Warung Sunda Rasa,"Jl. Kesatrian No.16, Gianyar, Kec. Gianyar, Kabupaten Gianyar, Bali 80511","Gianyar, Kec. Gianyar, Kabupaten Gianyar",BALI,80511.0,Indonesia,83829312455.0,,,-8.5471637,115.3255297,https://maps.google.com/?cid=0x0:0x7d47f479ece1ffc6,
restaurant,restaurant,Bali 80512,"Samplangan, Kec. Gianyar, Kabupaten Gianyar, Bali","Kabupaten Gianyar, Bali",BALI,,Indonesia,,,,-8.532747,115.3400575,https://maps.google.com/?cid=0x0:0x1c00c5eb6016be70,
restaurant,Indonesia,Ngaliir Resto,"Jl. Dharma Giri, Bitera, Kec. Gianyar, Kabupaten Gianyar, Bali 80511","Bitera, Kec. Gianyar, Kabupaten Gianyar",BALI,80511.0,Indonesia,81228603416.0,,,-8.5423341,115.3145924,https://maps.google.com/?cid=0x0:0xe3f35569e93d16d,
restaurant,Bali,Warung Babi Guling Pande Egi,"Banjar Pande, Beng, Kec. Gianyar, Kabupaten Gianyar, Bali 80513","Beng, Kec. Gianyar, Kabupaten Gianyar",BALI,80513.0,Indonesia,87883328808.0,,,-8.526876,115.3248255,https://maps.google.com/?cid=0x0:0x9469d9bb05940a59,
restaurant,Bubur,BUBUR BALI,"Jl. Bukit Buluh, Beng, Kec. Gianyar, Kabupaten Gianyar, Bali 80513","Beng, Kec. Gianyar, Kabupaten Gianyar",BALI,80513.0,Indonesia,81236151515.0,,,-8.5291858,115.325312,https://maps.google.com/?cid=0x0:0x31ced7008bd8632a,
restaurant,Makanan Siap Saji,PinHead Bali,"Jl. Mulawarman No.99, Abianbase, Kec. Gianyar, Kabupaten Gianyar, Bali 80515","Abianbase, Kec. Gianyar, Kabupaten Gianyar",BALI,80515.0,Indonesia,85337284137.0,,,-8.5619966,115.327288,https://maps.google.com/?cid=0x0:0x708cd1d91d69b77,
restaurant,Restoran,Warung d'tukad,"Air Terjun Kantolampo Lingkungan Kelod, Beng, Kec. Gianyar, Kabupaten Gianyar, Bali 80513","Beng, Kec. Gianyar, Kabupaten Gianyar",BALI,80513.0,Indonesia,81338019440.0,,,-8.5319397,115.3320739,https://maps.google.com/?cid=0x0:0xe94e9c90e6ae5626,
restaurant,Restoran,Warung Makan Padi Kuning,"Br. Ngenjungsari, Desa, Bakbakan, Gianyar, Gianyar Regency, Bali 80515","Desa, Bakbakan, Gianyar, Gianyar Regency",BALI,80515.0,Indonesia,87703258845.0,,,-8.5075611,115.3281218,https://maps.google.com/?cid=0x0:0xa6d2978e44de1ed9,
restaurant,Indonesia,Ayam Taliwang,"Jl. Astina Timur, Samplangan, Kec. Gianyar, Kabupaten Gianyar, Bali 80511","Samplangan, Kec. Gianyar, Kabupaten Gianyar",BALI,80511.0,Indonesia,361947021.0,,,-8.5410975,115.3349461,https://maps.google.com/?cid=0x0:0xfec9a0bc84da5065,
restaurant,Restoran,",","Jl. Astina Timur No.10x, Samplangan, Kec. Gianyar, Kabupaten Gianyar, Bali 80512","Samplangan, Kec. Gianyar, Kabupaten Gianyar",BALI,80512.0,Indonesia,8123634917.0,,,-8.5395369,115.3398902,https://maps.google.com/?cid=0x0:0x86955c401df3b8e3,
restaurant,Restoran,Tefa Cafe Green,"Jalan Gunung Lempuyang , Selat, Samplangan, Kec. Gianyar, Bali 80512","Selat, Samplangan, Kec. Gianyar",BALI,80512.0,Indonesia,,,,-8.5335421,115.3352492,https://maps.google.com/?cid=0x0:0x84903d9bd8fc21b0,
restaurant,Rumah Makan,GRAHA WANGI,"Jl. Rambutan, Gianyar, Kec. Gianyar, Kabupaten Gianyar, Bali 80511","Gianyar, Kec. Gianyar, Kabupaten Gianyar",BALI,80511.0,Indonesia,,,,-8.5393893,115.327396,https://maps.google.com/?cid=0x0:0xa83c8e43f26435be,
restaurant,Rumah Makan,Depot Asri,"F85J+6CR, Jl. Astina Timur, Gianyar, Kec. Gianyar, Kabupaten Gianyar, Bali 80511","Jl. Astina Timur, Gianyar, Kec. Gianyar, Kabupaten Gianyar",BALI,80511.0,Indonesia,81936061337.0,,,-8.5418834,115.3310184,https://maps.google.com/?cid=0x0:0x864121dc2b943441,
restaurant,Restoran,Tsavo Lion Restaurant,"Serongga, Kec. Gianyar, Kabupaten Gianyar, Bali 80515","Kec. Gianyar, Kabupaten Gianyar",BALI,80515.0,Indonesia,361950000.0,,,-8.579047,115.344758,https://maps.google.com/?cid=0x0:0xcf9dd3f437271bd0,
restaurant,Ayam,WR. Taliwang Kania,"Jl. Astina Timur, Samplangan, Kec. Gianyar, Kabupaten Gianyar, Bali 80512","Samplangan, Kec. Gianyar, Kabupaten Gianyar",BALI,80512.0,Indonesia,82144345060.0,,,-8.5405898,115.3359209,https://maps.google.com/?cid=0x0:0x6ccc7e201e340447,
restaurant,restaurant,Sayana Bali Resto  Bar,"Jl. Gn. Lempuyang No.8, Samplangan, Kec. Gianyar, Kabupaten Gianyar, Bali 80512","Samplangan, Kec. Gianyar, Kabupaten Gianyar",BALI,80512.0,Indonesia,81999757746.0,,,-8.5355168,115.3346077,https://maps.google.com/?cid=0x0:0x19e62da0f13aa0bb,
restaurant,restaurant,Hotel Gianyar,"Jl. Manik, Gianyar, Kec. Gianyar, Kabupaten Gianyar, Bali 80511","Gianyar, Kec. Gianyar, Kabupaten Gianyar",BALI,80511.0,Indonesia,361943239.0,,,-8.5397862,115.3234301,https://maps.google.com/?cid=0x0:0x4a31eca9a50ae236,
restaurant,restaurant,OYO 612 Dante Guesthouse,"No.3, Jl. Hasanuddin No.I, Gianyar, Kec. Gianyar, Kabupaten Gianyar, Bali 80511","Jl. Hasanuddin No.I, Gianyar, Kec. Gianyar, Kabupaten Gianyar",BALI,80511.0,Indonesia,,,,-8.5448245,115.3218787,https://maps.google.com/?cid=0x0:0xdeabad5d4524aea9,
restaurant,restaurant,Bali Local Family,"Samplangan, Kec. Gianyar, Kabupaten Gianyar, Bali 80512","Kec. Gianyar, Kabupaten Gianyar",BALI,80512.0,Indonesia,87862522334.0,,,-8.5374542,115.3413717,https://maps.google.com/?cid=0x0:0xa00c492c5da52244,
restaurant,restaurant,Airy Gianyar Hasanuddin Gang Dugul Sari Bali,"Jl. Hasanuddin I No.3, Gianyar, Gianyar Regency, Bali 80511","Gianyar, Gianyar Regency",BALI,80511.0,Indonesia,8041112479.0,,,-8.5452432,115.3221705,https://maps.google.com/?cid=0x0:0xc0a64faaa327b38b,
restaurant,Toko Bebas Bea,Bandara Internasional I Gusti Ngurah Rai (DPS),"Bandara International I Gusti Ngurah Rai, Kabupaten Badung, Bali 80362",Kabupaten Badung,BALI,80362.0,Indonesia,85166911003.0,,,-8.7469933,115.1681655,https://maps.google.com/?cid=0x0:0xdf71da6ddd7bcc1f,
restaurant,Sesuai untuk keluarga,Sumampan Restaurant,"Jl. Subak Gunungsari, Banjar Sumampan, Kemenuh, Kec. Sukawati, Kabupaten Gianyar, Bali 80582","Banjar Sumampan, Kemenuh, Kec. Sukawati, Kabupaten Gianyar",BALI,80582.0,Indonesia,81238585870.0,,,-8.5452974,115.2857429,https://maps.google.com/?cid=0x0:0xd7474552572d2da5,
restaurant,Establishment,Mandala Suci Wenara Wana,"Jl. Monkey Forest, Ubud, Kecamatan Ubud, Kabupaten Gianyar, Bali 80571","Ubud, Kecamatan Ubud, Kabupaten Gianyar",BALI,80571.0,Indonesia,361971304.0,,,-8.5193727,115.2606299,https://maps.google.com/?cid=0x0:0xb6ec43164befc356,
restaurant,Kafe,Genius Caf Gianyar,"Jl. Pantai Masceti, Medahan, Kec. Blahbatuh, Kabupaten Gianyar, Bali 80581","Medahan, Kec. Blahbatuh, Kabupaten Gianyar",BALI,80581.0,Indonesia,82236944873.0,,,-8.5762993,115.3381626,https://maps.google.com/?cid=0x0:0x23425b61f0a6922,
restaurant,Ikan Bakar,"Telaga Asri, Rumah Makan  Kolam Pancing","F86Q+649, Jl. Tukad Petanu, Samplangan, Kec. Gianyar, Kabupaten Gianyar, Bali 80512","Jl. Tukad Petanu, Samplangan, Kec. Gianyar, Kabupaten Gianyar",BALI,80512.0,Indonesia,81339528087.0,,,-8.5394666,115.3378488,https://maps.google.com/?cid=0x0:0x88b7708bddf4ee7c,
restaurant,Restoran,StarPizza Gianyar,"Jl. Kebo Iwa No.27, Gianyar, Kec. Gianyar, Kabupaten Gianyar, Bali 80512","Gianyar, Kec. Gianyar, Kabupaten Gianyar",BALI,80512.0,Indonesia,81818276655.0,,,-8.5457904,115.3226637,https://maps.google.com/?cid=0x0:0xb33a19f76290819e,
restaurant,Indonesia,NGERODOK RESTO,"Jl. Mulawarman No.132A, Abianbase, Kec. Gianyar, Kabupaten Gianyar, Bali 80515","Abianbase, Kec. Gianyar, Kabupaten Gianyar",BALI,80515.0,Indonesia,81913328626.0,,,-8.5527923,115.3268921,https://maps.google.com/?cid=0x0:0xedc8bb4db6aae0e3,
restaurant,Indonesia,Rumah Makan Dharma Giri,"Sebelah alfamart, Jl. Diponegoro No.3, Kabupaten Klungkung, Bali 80715","Jl. Diponegoro No.3, Kabupaten Klungkung",BALI,80715.0,Indonesia,81999101651.0,,,-8.535129,115.403945,https://maps.google.com/?cid=0x0:0x941d5332748be8c8,
restaurant,Restoran,Kanto Lampo Warung,"Jl. Kanto Lampo Waterfall, Beng, Kec. Gianyar, Kabupaten Gianyar, Bali 80513","Beng, Kec. Gianyar, Kabupaten Gianyar",BALI,80513.0,Indonesia,85858291601.0,,,-8.5323872,115.3323587,https://maps.google.com/?cid=0x0:0x5fec077703ca751d,
restaurant,Ayam Goreng,ACK Samplangan Gianyar,"Jl. Astina Timur No.10x, Samplangan, Kec. Gianyar, Kabupaten Gianyar, Bali 80512","Samplangan, Kec. Gianyar, Kabupaten Gianyar",BALI,80512.0,Indonesia,8123634917.0,,,-8.540253,115.33806,https://maps.google.com/?cid=0x0:0x48cf3bc6dcc3af6,
restaurant,restaurant,Bali 80513,"Kec. Gianyar, Kabupaten Gianyar, Bali","Kabupaten Gianyar, Bali",BALI,,Indonesia,,,,-8.5273675,115.3267245,https://maps.google.com/?cid=0x0:0x726f6b72398c7c97,
restaurant,Bali,Warung Babi Guling Pande Egi,"Banjar Pande, Beng, Kec. Gianyar, Kabupaten Gianyar, Bali 80513","Beng, Kec. Gianyar, Kabupaten Gianyar",BALI,80513.0,Indonesia,87883328808.0,,,-8.526876,115.3248255,https://maps.google.com/?cid=0x0:0x9469d9bb05940a59,
restaurant,Bubur,BUBUR BALI,"Jl. Bukit Buluh, Beng, Kec. Gianyar, Kabupaten Gianyar, Bali 80513","Beng, Kec. Gianyar, Kabupaten Gianyar",BALI,80513.0,Indonesia,81236151515.0,,,-8.5291858,115.325312,https://maps.google.com/?cid=0x0:0x31ced7008bd8632a,
restaurant,Sesuai untuk keluarga,Sumampan Restaurant,"Jl. Subak Gunungsari, Banjar Sumampan, Kemenuh, Kec. Sukawati, Kabupaten Gianyar, Bali 80582","Banjar Sumampan, Kemenuh, Kec. Sukawati, Kabupaten Gianyar",BALI,80582.0,Indonesia,81238585870.0,,,-8.5452974,115.2857429,https://maps.google.com/?cid=0x0:0xd7474552572d2da5,
restaurant,Indonesia,NGERODOK RESTO,"Jl. Mulawarman No.132A, Abianbase, Kec. Gianyar, Kabupaten Gianyar, Bali 80515","Abianbase, Kec. Gianyar, Kabupaten Gianyar",BALI,80515.0,Indonesia,81913328626.0,,,-8.5527923,115.3268921,https://maps.google.com/?cid=0x0:0xedc8bb4db6aae0e3,
restaurant,Indonesia,Warung Sendok Garpu,"Jl. Dharma Giri, Buruan, Kec. Blahbatuh, Kabupaten Gianyar, Bali 80581","Buruan, Kec. Blahbatuh, Kabupaten Gianyar",BALI,80581.0,Indonesia,82236362177.0,,,-8.5477863,115.3119325,https://maps.google.com/?cid=0x0:0x763686e382e7b4ff,
restaurant,Rumah Makan,GRAHA WANGI,"Jl. Rambutan, Gianyar, Kec. Gianyar, Kabupaten Gianyar, Bali 80511","Gianyar, Kec. Gianyar, Kabupaten Gianyar",BALI,80511.0,Indonesia,,,,-8.5393893,115.327396,https://maps.google.com/?cid=0x0:0xa83c8e43f26435be,
restaurant,Restoran,Warung d'tukad,"Air Terjun Kantolampo Lingkungan Kelod, Beng, Kec. Gianyar, Kabupaten Gianyar, Bali 80513","Beng, Kec. Gianyar, Kabupaten Gianyar",BALI,80513.0,Indonesia,81338019440.0,,,-8.5319397,115.3320739,https://maps.google.com/?cid=0x0:0xe94e9c90e6ae5626,
restaurant,Rumah Makan,Warong Legong,"Jalan Professor Doktor Ida Bagus Mantra No. 300A Keramas, Medahan, Kec. Blahbatuh, Kabupaten Gianyar, Bali","Kabupaten Gianyar, Bali",BALI,,Indonesia,82145011601.0,,,-8.5946372,115.3358249,https://maps.google.com/?cid=0x0:0x8ef8fcf999c8f3b8,
restaurant,Brunch,Warung Cucu 58,"F8GH+XR3, Bakbakan, Kec. Gianyar, Kabupaten Gianyar, Bali 80513","Bakbakan, Kec. Gianyar, Kabupaten Gianyar",BALI,80513.0,Indonesia,87889558584.0,,,-8.5234109,115.3290653,https://maps.google.com/?cid=0x0:0x847a55bf786f11d,
restaurant,Restoran,Kanto Lampo Warung,"Jl. Kanto Lampo Waterfall, Beng, Kec. Gianyar, Kabupaten Gianyar, Bali 80513","Beng, Kec. Gianyar, Kabupaten Gianyar",BALI,80513.0,Indonesia,85858291601.0,,,-8.5323872,115.3323587,https://maps.google.com/?cid=0x0:0x5fec077703ca751d,
restaurant,Restoran,Tsavo Lion Restaurant,"Serongga, Kec. Gianyar, Kabupaten Gianyar, Bali 80515","Kec. Gianyar, Kabupaten Gianyar",BALI,80515.0,Indonesia,361950000.0,,,-8.579047,115.344758,https://maps.google.com/?cid=0x0:0xcf9dd3f437271bd0,
restaurant,Restoran,Warung Makan Padi Kuning,"Br. Ngenjungsari, Desa, Bakbakan, Gianyar, Gianyar Regency, Bali 80515","Desa, Bakbakan, Gianyar, Gianyar Regency",BALI,80515.0,Indonesia,87703258845.0,,,-8.5075611,115.3281218,https://maps.google.com/?cid=0x0:0xa6d2978e44de1ed9,
restaurant,Bali,BABI GULING PANDE EGI MAIN OFFICE,"Jl. Bukit Buluh, Beng, Kec. Gianyar, Kabupaten Gianyar, Bali 80513","Beng, Kec. Gianyar, Kabupaten Gianyar",BALI,80513.0,Indonesia,361948328.0,,,-8.5284735,115.3275455,https://maps.google.com/?cid=0x0:0x70137b46e665275a,
restaurant,Kafe,Genius Caf Gianyar,"Jl. Pantai Masceti, Medahan, Kec. Blahbatuh, Kabupaten Gianyar, Bali 80581","Medahan, Kec. Blahbatuh, Kabupaten Gianyar",BALI,80581.0,Indonesia,82236944873.0,,,-8.5762993,115.3381626,https://maps.google.com/?cid=0x0:0x23425b61f0a6922,
restaurant,Rumah wisata,Yeh Pulu Cafe,"F7CV+45G Br. Batulumbang, Jl. Yeh Pulu, Bedulu, Kec. Blahbatuh, Kabupaten Gianyar, Bali 80581","Jl. Yeh Pulu, Bedulu, Kec. Blahbatuh, Kabupaten Gianyar",BALI,80581.0,Indonesia,87761257848.0,,,-8.5296983,115.2929774,https://maps.google.com/?cid=0x0:0x5afd61c7650ebf1b,
restaurant,Makanan Kecil,Dapur Pemadam Kelaparan Gianyar,"Jl. Jata No.11x, Banjar Teges Kaja, Kec. Gianyar, Kabupaten Gianyar, Bali 80511","Banjar Teges Kaja, Kec. Gianyar, Kabupaten Gianyar",BALI,80511.0,Indonesia,8113801985.0,,,-8.5381817,115.326201,https://maps.google.com/?cid=0x0:0x4be914b022486ef6,
restaurant,Makanan Siap Saji,PinHead Bali,"Jl. Mulawarman No.99, Abianbase, Kec. Gianyar, Kabupaten Gianyar, Bali 80515","Abianbase, Kec. Gianyar, Kabupaten Gianyar",BALI,80515.0,Indonesia,85337284137.0,,,-8.5619966,115.327288,https://maps.google.com/?cid=0x0:0x708cd1d91d69b77,
restaurant,Nasi,Boni Bali Restaurant,"Jl. Pakudui, Kedisan, Kec. Tegallalang, Kabupaten Gianyar, Bali 80561","Kedisan, Kec. Tegallalang, Kabupaten Gianyar",BALI,80561.0,Indonesia,8563777899.0,,,-8.4260853,115.2801331,https://maps.google.com/?cid=0x0:0xdf1529aee8bd7afd,
restaurant,Self service restaurant,Swan Restaurant Keramas,"Jalan Pantai Selukat, Keramas, Kec. Blahbatuh, Kabupaten Gianyar, Bali 80581","Keramas, Kec. Blahbatuh, Kabupaten Gianyar",BALI,80581.0,Indonesia,3614791008.0,,,-8.599968,115.3359976,https://maps.google.com/?cid=0x0:0x9ac110133c53f3e3,
restaurant,Masakan Asia,Sangam Bali - Asian Restaurant and Events,"Jl. Ir. Sutami, Kemenuh, Kec. Sukawati, Kabupaten Gianyar, Bali 80582","Kemenuh, Kec. Sukawati, Kabupaten Gianyar",BALI,80582.0,Indonesia,82211115562.0,,,-8.5697051,115.2860733,https://maps.google.com/?cid=0x0:0x6179bde9b9d2cb87,
restaurant,Hidangan Laut,Warung SIGGI (Sup Ikan Goreng Gianyar),"Jl. Dharma Giri, Buruan, Kec. Blahbatuh, Kabupaten Gianyar, Bali 80581","Buruan, Kec. Blahbatuh, Kabupaten Gianyar",BALI,80581.0,Indonesia,87747169741.0,,,-8.5487699,115.3036701,https://maps.google.com/?cid=0x0:0xc9ca96de2eae6e23,
restaurant,Soto Ayam,Nasi Ayam Satu Jiwa,"Banjar Pande, Beng, Kec. Gianyar, Kabupaten Gianyar, Bali 80511","Beng, Kec. Gianyar, Kabupaten Gianyar",BALI,80511.0,Indonesia,82340084718.0,,,-8.5267315,115.3248925,https://maps.google.com/?cid=0x0:0x5a766c24509f2b35,
restaurant,Restoran,Tefa Cafe Green,"Jalan Gunung Lempuyang , Selat, Samplangan, Kec. Gianyar, Bali 80512","Selat, Samplangan, Kec. Gianyar",BALI,80512.0,Indonesia,,,,-8.5335421,115.3352492,https://maps.google.com/?cid=0x0:0x84903d9bd8fc21b0,
restaurant,Sate,Buldog Resto,"Jl. Mulawarman, Abianbase, Kec. Gianyar, Kabupaten Gianyar, Bali 80515","Abianbase, Kec. Gianyar, Kabupaten Gianyar",BALI,80515.0,Indonesia,81246716848.0,,,-8.5553841,115.3271973,https://maps.google.com/?cid=0x0:0xffbe3534e71c4c77,
restaurant,Restoran,Warung Pojok Beng gianyar,"Jl. Cendrawasih, Beng, Kec. Gianyar, Kabupaten Gianyar, Bali 80582","Beng, Kec. Gianyar, Kabupaten Gianyar",BALI,80582.0,Indonesia,87779436650.0,,,-8.5338963,115.3246063,https://maps.google.com/?cid=0x0:0xe028b52f887854cf,
restaurant,restaurant,Bali 80515,"Kec. Gianyar, Kabupaten Gianyar, Bali","Kabupaten Gianyar, Bali",BALI,,Indonesia,,,,-8.5169426,115.3133908,https://maps.google.com/?cid=0x0:0x1c00c5eb6016be90,
restaurant,Indonesia,NGERODOK RESTO,"Jl. Mulawarman No.132A, Abianbase, Kec. Gianyar, Kabupaten Gianyar, Bali 80515","Abianbase, Kec. Gianyar, Kabupaten Gianyar",BALI,80515.0,Indonesia,81913328626.0,,,-8.5527923,115.3268921,https://maps.google.com/?cid=0x0:0xedc8bb4db6aae0e3,
restaurant,Restoran,Warung Makan Padi Kuning,"Br. Ngenjungsari, Desa, Bakbakan, Gianyar, Gianyar Regency, Bali 80515","Desa, Bakbakan, Gianyar, Gianyar Regency",BALI,80515.0,Indonesia,87703258845.0,,,-8.5075611,115.3281218,https://maps.google.com/?cid=0x0:0xa6d2978e44de1ed9,
restaurant,Indonesia,Warung Sendok Garpu,"Jl. Dharma Giri, Buruan, Kec. Blahbatuh, Kabupaten Gianyar, Bali 80581","Buruan, Kec. Blahbatuh, Kabupaten Gianyar",BALI,80581.0,Indonesia,82236362177.0,,,-8.5477863,115.3119325,https://maps.google.com/?cid=0x0:0x763686e382e7b4ff,
restaurant,Restoran,Tsavo Lion Restaurant,"Serongga, Kec. Gianyar, Kabupaten Gianyar, Bali 80515","Kec. Gianyar, Kabupaten Gianyar",BALI,80515.0,Indonesia,361950000.0,,,-8.579047,115.344758,https://maps.google.com/?cid=0x0:0xcf9dd3f437271bd0,
restaurant,Rumah Makan,Warong Legong,"Jalan Professor Doktor Ida Bagus Mantra No. 300A Keramas, Medahan, Kec. Blahbatuh, Kabupaten Gianyar, Bali","Kabupaten Gianyar, Bali",BALI,,Indonesia,82145011601.0,,,-8.5946372,115.3358249,https://maps.google.com/?cid=0x0:0x8ef8fcf999c8f3b8,
restaurant,Brunch,GROOS Kitchen,"Abianbase, Kec. Gianyar, Kabupaten Gianyar, Bali 80515","Kec. Gianyar, Kabupaten Gianyar",BALI,80515.0,Indonesia,81913328590.0,,,-8.554039,115.3268333,https://maps.google.com/?cid=0x0:0x5d84990fc29eb394,
restaurant,Bali,Warung Babi Guling Pande Egi,"Banjar Pande, Beng, Kec. Gianyar, Kabupaten Gianyar, Bali 80513","Beng, Kec. Gianyar, Kabupaten Gianyar",BALI,80513.0,Indonesia,87883328808.0,,,-8.526876,115.3248255,https://maps.google.com/?cid=0x0:0x9469d9bb05940a59,
restaurant,Makanan Siap Saji,PinHead Bali,"Jl. Mulawarman No.99, Abianbase, Kec. Gianyar, Kabupaten Gianyar, Bali 80515","Abianbase, Kec. Gianyar, Kabupaten Gianyar",BALI,80515.0,Indonesia,85337284137.0,,,-8.5619966,115.327288,https://maps.google.com/?cid=0x0:0x708cd1d91d69b77,
restaurant,Sesuai untuk keluarga,Sumampan Restaurant,"Jl. Subak Gunungsari, Banjar Sumampan, Kemenuh, Kec. Sukawati, Kabupaten Gianyar, Bali 80582","Banjar Sumampan, Kemenuh, Kec. Sukawati, Kabupaten Gianyar",BALI,80582.0,Indonesia,81238585870.0,,,-8.5452974,115.2857429,https://maps.google.com/?cid=0x0:0xd7474552572d2da5,
restaurant,Restoran,Talisman restaurant,"Jl. Raya Goa Gajah, Bedulu, Kec. Blahbatuh, Kabupaten Gianyar, Bali 80582","Bedulu, Kec. Blahbatuh, Kabupaten Gianyar",BALI,80582.0,Indonesia,81353392869.0,,,-8.5226418,115.2843744,https://maps.google.com/?cid=0x0:0xbcbe07e79dfd2891,
restaurant,Bubur,BUBUR BALI,"Jl. Bukit Buluh, Beng, Kec. Gianyar, Kabupaten Gianyar, Bali 80513","Beng, Kec. Gianyar, Kabupaten Gianyar",BALI,80513.0,Indonesia,81236151515.0,,,-8.5291858,115.325312,https://maps.google.com/?cid=0x0:0x31ced7008bd8632a,
restaurant,Restoran,Warung d'tukad,"Air Terjun Kantolampo Lingkungan Kelod, Beng, Kec. Gianyar, Kabupaten Gianyar, Bali 80513","Beng, Kec. Gianyar, Kabupaten Gianyar",BALI,80513.0,Indonesia,81338019440.0,,,-8.5319397,115.3320739,https://maps.google.com/?cid=0x0:0xe94e9c90e6ae5626,
restaurant,Indonesia,Rumah Makan Dharma Giri,"Sebelah alfamart, Jl. Diponegoro No.3, Kabupaten Klungkung, Bali 80715","Jl. Diponegoro No.3, Kabupaten Klungkung",BALI,80715.0,Indonesia,81999101651.0,,,-8.535129,115.403945,https://maps.google.com/?cid=0x0:0x941d5332748be8c8,
restaurant,Rumah Makan,GRAHA WANGI,"Jl. Rambutan, Gianyar, Kec. Gianyar, Kabupaten Gianyar, Bali 80511","Gianyar, Kec. Gianyar, Kabupaten Gianyar",BALI,80511.0,Indonesia,,,,-8.5393893,115.327396,https://maps.google.com/?cid=0x0:0xa83c8e43f26435be,
restaurant,Kafe,Genius Caf Gianyar,"Jl. Pantai Masceti, Medahan, Kec. Blahbatuh, Kabupaten Gianyar, Bali 80581","Medahan, Kec. Blahbatuh, Kabupaten Gianyar",BALI,80581.0,Indonesia,82236944873.0,,,-8.5762993,115.3381626,https://maps.google.com/?cid=0x0:0x23425b61f0a6922,
restaurant,Sate,Buldog Resto,"Jl. Mulawarman, Abianbase, Kec. Gianyar, Kabupaten Gianyar, Bali 80515","Abianbase, Kec. Gianyar, Kabupaten Gianyar",BALI,80515.0,Indonesia,81246716848.0,,,-8.5553841,115.3271973,https://maps.google.com/?cid=0x0:0xffbe3534e71c4c77,
restaurant,Indonesia,Warung Ting Ting,"Jl. Dharma Giri No.100X, Bitera, Kec. Gianyar, Kabupaten Gianyar, Bali 80515","Bitera, Kec. Gianyar, Kabupaten Gianyar",BALI,80515.0,Indonesia,85237229393.0,,,-8.5456591,115.3146162,https://maps.google.com/?cid=0x0:0xe1b8bff3452e6299,
restaurant,Indonesia,Hura Restaurant,"Jl. Kelusu, Pejeng Kelod, Kec. Tampaksiring, Kabupaten Gianyar, Bali 80552","Pejeng Kelod, Kec. Tampaksiring, Kabupaten Gianyar",BALI,80552.0,Indonesia,81138805108.0,,,-8.5100441,115.3024151,https://maps.google.com/?cid=0x0:0x2d0ccf4f46e1111f,
restaurant,Tujuan Wisata,Uma Ceking Resto and Swing,"Tegallalang, Kec. Tegallalang, Kabupaten Gianyar, Bali 80561","Kec. Tegallalang, Kabupaten Gianyar",BALI,80561.0,Indonesia,83166409336.0,,,-8.4355621,115.2793731,https://maps.google.com/?cid=0x0:0xee28be3c9536d599,
restaurant,Masakan Asia,Sangam Bali - Asian Restaurant and Events,"Jl. Ir. Sutami, Kemenuh, Kec. Sukawati, Kabupaten Gianyar, Bali 80582","Kemenuh, Kec. Sukawati, Kabupaten Gianyar",BALI,80582.0,Indonesia,82211115562.0,,,-8.5697051,115.2860733,https://maps.google.com/?cid=0x0:0x6179bde9b9d2cb87,
restaurant,Rumah Makan,Depot Asri,"F85J+6CR, Jl. Astina Timur, Gianyar, Kec. Gianyar, Kabupaten Gianyar, Bali 80511","Jl. Astina Timur, Gianyar, Kec. Gianyar, Kabupaten Gianyar",BALI,80511.0,Indonesia,81936061337.0,,,-8.5418834,115.3310184,https://maps.google.com/?cid=0x0:0x864121dc2b943441,
restaurant,Makanan Kecil,Dapur Pemadam Kelaparan Gianyar,"Jl. Jata No.11x, Banjar Teges Kaja, Kec. Gianyar, Kabupaten Gianyar, Bali 80511","Banjar Teges Kaja, Kec. Gianyar, Kabupaten Gianyar",BALI,80511.0,Indonesia,8113801985.0,,,-8.5381817,115.326201,https://maps.google.com/?cid=0x0:0x4be914b022486ef6,
restaurant,Restoran,Warung kubu Gianyar,"Jl. Sinta No.58, Bitera, Kec. Gianyar, Kabupaten Gianyar, Bali 80515","Bitera, Kec. Gianyar, Kabupaten Gianyar",BALI,80515.0,Indonesia,81939181334.0,,,-8.5478181,115.316711,https://maps.google.com/?cid=0x0:0xe9b57af3e95f05e,
restaurant,Restoran,Tomato Wood Fired Pizza And Pasta Gianyar,"Jl. Kenarok No.6, Gianyar, Kec. Gianyar, Kabupaten Gianyar, Bali 80515","Gianyar, Kec. Gianyar, Kabupaten Gianyar",BALI,80515.0,Indonesia,82145818567.0,,,-8.5415048,115.3175857,https://maps.google.com/?cid=0x0:0x325e076fcc6facaf,
restaurant,Vegetarian,Warung Vegetarian Suparna Hari,"F879+RJM, Bitera, Kec. Gianyar, Kabupaten Gianyar, Bali 80515","Bitera, Kec. Gianyar, Kabupaten Gianyar",BALI,80515.0,Indonesia,3665551594.0,,,-8.5354195,115.3190604,https://maps.google.com/?cid=0x0:0x5b6ce7ed670d39f8,
restaurant,restaurant,Bali 80572,"Kec. Payangan, Kabupaten Gianyar, Bali","Kabupaten Gianyar, Bali",BALI,,Indonesia,,,,-8.3752579,115.2481959,https://maps.google.com/?cid=0x0:0x1c00c5eb6016bee0,
restaurant,Restoran,Paoman Restaurant,"Jl. Raya Bresela Jl. Raya Taro, Taro, Kec. Payangan, Kabupaten Gianyar, Bali 80572","Taro, Kec. Payangan, Kabupaten Gianyar",BALI,80572.0,Indonesia,3616208199.0,,,-8.4228623,115.2683152,https://maps.google.com/?cid=0x0:0xa4346421d208408c,
restaurant,Restoran,Kepitu Restaurant,"Banjar Bresela Desa Bresela, Payangan, Kecamatan Ubud, Bali 80572","Payangan, Kecamatan Ubud",BALI,80572.0,Indonesia,361978098.0,,,-8.4231078,115.275087,https://maps.google.com/?cid=0x0:0x848377758da7fc2b,
restaurant,Brunch,Jack fruit restaurant,"H6MW+VJ, Melinggih, Kec. Payangan, Kabupaten Gianyar, Bali","Kabupaten Gianyar, Bali",BALI,,Indonesia,81237893970.0,,,-8.4153505,115.2465827,https://maps.google.com/?cid=0x0:0xe087833b37d3f6f5,
restaurant,Restoran,The Puhu Restaurant  Lounge,"Banjar Ambengan, Jalan Glogor Carik, Puhu, Kec. Payangan, Kabupaten Gianyar, Bali 80572","Jalan Glogor Carik, Puhu, Kec. Payangan, Kabupaten Gianyar",BALI,80572.0,Indonesia,3613011111.0,,,-8.383936,115.2747092,https://maps.google.com/?cid=0x0:0x6a9552ef94ad0e67,
restaurant,Restoran,Pawana Resto,"Br, Beresela, Payangan, Gianyar Regency, Bali","Kabupaten Gianyar, Bali",BALI,,Indonesia,83125859696.0,,,-8.4237113,115.2704205,https://maps.google.com/?cid=0x0:0x429f7c9974313276,
restaurant,Restoran,Cretya Sunset,"Jl. Raya Bresela No.8, Bresela, Kec. Payangan, Kabupaten Gianyar, Bali 80572","Bresela, Kec. Payangan, Kabupaten Gianyar",BALI,80572.0,Indonesia,85337230775.0,,,-8.4304538,115.2691663,https://maps.google.com/?cid=0x0:0x35afc9522739018b,
restaurant,Restoran,Bali Jegeg WMKK,"Jl. Raya Payangan, Kerta, Kec. Payangan, Kabupaten Gianyar, Bali 80572","Kerta, Kec. Payangan, Kabupaten Gianyar",BALI,80572.0,Indonesia,87860471911.0,,,-8.3424019,115.2809454,https://maps.google.com/?cid=0x0:0x37832bb7f05108ba,
restaurant,Bali,Wijaya Kusuma Restaurant,"JL. Begawan Giri , Melinggih Kelod, Payangan, Kec. Gianyar, Kabupaten Gianyar, Bali 80572","Melinggih Kelod, Payangan, Kec. Gianyar, Kabupaten Gianyar",BALI,80572.0,Indonesia,3619001333.0,,,-8.449922,115.2347836,https://maps.google.com/?cid=0x0:0x43c939b7a4777486,
restaurant,Restoran,Babi Guling Men Gareng,"H6RW+957, Puhu, Kec. Payangan, Kabupaten Gianyar, Bali 80572","Puhu, Kec. Payangan, Kabupaten Gianyar",BALI,80572.0,Indonesia,,,,-8.4090784,115.2454086,https://maps.google.com/?cid=0x0:0xe8ea69fa96ae2243,
restaurant,Dapur Umum,Teras Restaurant Adiwana Dara Ayu,"JL. Raya Buahan, No. 88X, Majangan, Buahan Kaja, Payangan, Gianyar Regency, Bali 80572","No. 88X, Majangan, Buahan Kaja, Payangan, Gianyar Regency",BALI,80572.0,Indonesia,89665221182.0,,,-8.3614241,115.2429895,https://maps.google.com/?cid=0x0:0xb8aab46383aaebaf,
restaurant,Bali,Babi Guling Payangan Buk Ari,"Jl. Raya Payangan No.45, Melinggih, Kec. Payangan, Kabupaten Gianyar, Bali 80572","Melinggih, Kec. Payangan, Kabupaten Gianyar",BALI,80572.0,Indonesia,81337000074.0,,,-8.4332955,115.2449776,https://maps.google.com/?cid=0x0:0x109eab0a4f39b310,
restaurant,Bali,Maukar Wooden House,"Kerta, Kec. Payangan, Kabupaten Gianyar, Bali 80572","Kec. Payangan, Kabupaten Gianyar",BALI,80572.0,Indonesia,81385726220.0,,,-8.3603271,115.2744535,https://maps.google.com/?cid=0x0:0x4f823903de44c6da,
restaurant,Hotel,Sanggraloka Farm,"Jl. Raya Bresela, Bresela, Kec. Payangan, Kabupaten Gianyar, Bali 80361","Bresela, Kec. Payangan, Kabupaten Gianyar",BALI,80361.0,Indonesia,,,,-8.4228433,115.2653445,https://maps.google.com/?cid=0x0:0x75f7d2f2c4261d29,
restaurant,Toko Perlengkapan Rumah,Dewata Kuliner,"Jl. Raya Payangan No.91, Melinggih, Kec. Payangan, Kabupaten Gianyar, Bali 80572","Melinggih, Kec. Payangan, Kabupaten Gianyar",BALI,80572.0,Indonesia,83117320697.0,,,-8.4342321,115.2451784,https://maps.google.com/?cid=0x0:0x2395dbb6a7bb895a,
restaurant,Restoran,Hati Padi Restaurant,"Jl. Raya Kelusa No.18, Keliki, Kec. Payangan, Kabupaten Gianyar, Bali 80572","Keliki, Kec. Payangan, Kabupaten Gianyar",BALI,80572.0,Indonesia,81384494216.0,,,-8.4502965,115.252372,https://maps.google.com/?cid=0x0:0xd3485703d068a5be,
restaurant,Masakan Asia,Wild Ginger Restaurant,"Br, Jl. Susut, Buahan, Kec. Payangan, Kabupaten Gianyar, Bali 80572","Jl. Susut, Buahan, Kec. Payangan, Kabupaten Gianyar",BALI,80572.0,Indonesia,3618983111.0,,,-8.4153716,115.2378025,https://maps.google.com/?cid=0x0:0xd75cf8de35578c2c,
restaurant,Rumah Makan,The Cepaka Bistro Bali,"Desa No.777, Buahan, Kec. Payangan, Kabupaten Gianyar, Bali 80571","Buahan, Kec. Payangan, Kabupaten Gianyar",BALI,80571.0,Indonesia,8567775757.0,,,-8.4165476,115.2328836,https://maps.google.com/?cid=0x0:0xca2b1e6298e195a2,
restaurant,Restoran,Warung Babi Guling Bu Ari,"Jl. Raya Payangan No.26, Puhu, Kec. Payangan, Kabupaten Gianyar, Bali 80572","Puhu, Kec. Payangan, Kabupaten Gianyar",BALI,80572.0,Indonesia,81337000074.0,,,-8.3780042,115.2669769,https://maps.google.com/?cid=0x0:0xd96bbf9e39db06e1,
restaurant,Kedai Kopi,Edery Cafe,"Br, Jl. Bayad Jl. Raya Payangan, Melinggih Kelod, Payangan, Gianyar Regency, Bali 80572","Jl. Bayad Jl. Raya Payangan, Melinggih Kelod, Payangan, Gianyar Regency",BALI,80572.0,Indonesia,,,,-8.4550749,115.2433304,https://maps.google.com/?cid=0x0:0x272e01a3a7f26bc4,
restaurant,Sesuai untuk keluarga,DRANIK CAFE AND RESTO,"Jl. Bangkiang Sidem, Ubud, Kec. Payangan, Kabupaten Gianyar, Bali","Kabupaten Gianyar, Bali",BALI,,Indonesia,,,,-8.4870106,115.2585598,https://maps.google.com/?cid=0x0:0x2e3c53ae257d2ed0,
restaurant,Rumah Makan,Semara Grill,"Jl. Raya Bresela, Bresela, Kec. Payangan, Kabupaten Gianyar, Bali 80361","Bresela, Kec. Payangan, Kabupaten Gianyar",BALI,80361.0,Indonesia,81353998427.0,,,-8.4221064,115.2663839,https://maps.google.com/?cid=0x0:0x75d522c388a65739,
restaurant,Restoran,Warung Bu Manis payangan,"br.penyabangan, Jl. Raya Payangan, Kerta, Kec. Payangan, Kabupaten Gianyar, Bali 80572","Jl. Raya Payangan, Kerta, Kec. Payangan, Kabupaten Gianyar",BALI,80572.0,Indonesia,85829719120.0,,,-8.3529735,115.277355,https://maps.google.com/?cid=0x0:0x473e6d87ebed6e2b,
restaurant,Makanan Kecil,WB Waroeng,"Buahan, Kec. Payangan, Kabupaten Gianyar, Bali 80572","Kec. Payangan, Kabupaten Gianyar",BALI,80572.0,Indonesia,82236764783.0,,,-8.4000547,115.2374769,https://maps.google.com/?cid=0x0:0xb8fbb74fef222d71,
restaurant,Brunch,Sukka Resto,"Jl. Raya Sukawati, Sukawati, Kec. Sukawati, Kabupaten Gianyar, Bali 80582","Sukawati, Kec. Sukawati, Kabupaten Gianyar",BALI,80582.0,Indonesia,81238385097.0,,,-8.5955637,115.2829143,https://maps.google.com/?cid=0x0:0x5ac2cb5eca612909,
restaurant,restaurant,Sukawati,"Guwang, Kec. Sukawati, Kabupaten Gianyar, Bali","Kabupaten Gianyar, Bali",BALI,,Indonesia,,,,-8.605564,115.280502,https://maps.google.com/?cid=0x0:0x3d33c5a58391e773,
restaurant,Restoran,Warung Dewa Malen,"F76J+CRX, Kemenuh, Kec. Sukawati, Kabupaten Gianyar, Bali 80582","Kemenuh, Kec. Sukawati, Kabupaten Gianyar",BALI,80582.0,Indonesia,361972730.0,,,-8.5388764,115.2820974,https://maps.google.com/?cid=0x0:0x3278d74f84b91b16,
restaurant,Masakan Asia,Sangam Bali - Asian Restaurant and Events,"Jl. Ir. Sutami, Kemenuh, Kec. Sukawati, Kabupaten Gianyar, Bali 80582","Kemenuh, Kec. Sukawati, Kabupaten Gianyar",BALI,80582.0,Indonesia,82211115562.0,,,-8.5697051,115.2860733,https://maps.google.com/?cid=0x0:0x6179bde9b9d2cb87,
restaurant,Masakan Asia,Meeting point sukawati,"Jl. Lettu Nengah Duaji No.4, Sukawati, Kec. Sukawati, Kabupaten Gianyar, Bali 80582","Sukawati, Kec. Sukawati, Kabupaten Gianyar",BALI,80582.0,Indonesia,81239617846.0,,,-8.593871,115.2815073,https://maps.google.com/?cid=0x0:0x8910342660a1dc71,
restaurant,Bali,Kalamansi Bali,"Jl. Raya Batubulan No.99, Batubulan, Kec. Sukawati, Kabupaten Gianyar, Bali 80237","Batubulan, Kec. Sukawati, Kabupaten Gianyar",BALI,80237.0,Indonesia,3618402013.0,,,-8.6150456,115.2536782,https://maps.google.com/?cid=0x0:0x1a5b3e76d09dca4e,
restaurant,Restoran,Central Food Village,"C758+X66, Jl. Raya Singapadu, Singapadu, Kec. Sukawati, Kabupaten Gianyar, Bali 80582","Jl. Raya Singapadu, Singapadu, Kec. Sukawati, Kabupaten Gianyar",BALI,80582.0,Indonesia,61294357.0,,,-8.5900283,115.2653969,https://maps.google.com/?cid=0x0:0xbb45ed1eb5d95904,
restaurant,Nasi,Agas Bistro,"Jl. Raya Celuk No.35x, Batubulan, Kec. Sukawati, Kabupaten Gianyar, Bali 80582","Batubulan, Kec. Sukawati, Kabupaten Gianyar",BALI,80582.0,Indonesia,85951740088.0,,,-8.604315,115.2547269,https://maps.google.com/?cid=0x0:0x91e0bb198357a59a,
restaurant,Nasi Uduk,Bumbu Asli International Warung,"Jl. Ir. Sutami, Tempat Wisata Air Terjun Tegenungan, Kemenuh, Kec. Sukawati, Kabupaten Gianyar, Bali 80581","Tempat Wisata Air Terjun Tegenungan, Kemenuh, Kec. Sukawati, Kabupaten Gianyar",BALI,80581.0,Indonesia,85738973391.0,,,-8.5762081,115.2890334,https://maps.google.com/?cid=0x0:0x60dddc531ffa2253,
restaurant,Restoran,Warung Tepi Tebing,"Jl. Raya Singapadu, Singapadu Kaler, Kec. Sukawati, Kabupaten Gianyar, Bali 80571","Singapadu Kaler, Kec. Sukawati, Kabupaten Gianyar",BALI,80571.0,Indonesia,3618988178.0,,,-8.5671351,115.255007,https://maps.google.com/?cid=0x0:0x98d1d9d86ea7f660,
restaurant,Kedai Kopi,Tlaga Singha,"Jl. Raya Singapadu, Singapadu, Kec. Sukawati, Kabupaten Gianyar, Bali 80582","Singapadu, Kec. Sukawati, Kabupaten Gianyar",BALI,80582.0,Indonesia,82260070072.0,,,-8.591638,115.2677,https://maps.google.com/?cid=0x0:0x85775d4103757d72,
restaurant,Bali,Bebek Uma Menuh Restaurant,"Jl. Ir. Sutami, Kemenuh, Kec. Sukawati, Kabupaten Gianyar, Bali 80582","Kemenuh, Kec. Sukawati, Kabupaten Gianyar",BALI,80582.0,Indonesia,85142915029.0,,,-8.5706866,115.2865136,https://maps.google.com/?cid=0x0:0x7f5912a86bf5adf3,
restaurant,Nasi,Jero Kajanan,"Jl. Lettu Wayan Sutha II, Batuan, Kec. Sukawati, Kabupaten Gianyar, Bali 80582","Batuan, Kec. Sukawati, Kabupaten Gianyar",BALI,80582.0,Indonesia,88987084555.0,,,-8.5828399,115.2785181,https://maps.google.com/?cid=0x0:0xe8e3b4affa5c94e3,
restaurant,Klub pantai,Standing Stone Restaurant,"Jl. Pantai Purnama, Sukawati, Kec. Sukawati, Kabupaten Gianyar, Bali","Kabupaten Gianyar, Bali",BALI,,Indonesia,87800132000.0,,,-8.6193375,115.3087412,https://maps.google.com/?cid=0x0:0x3da981af9f755ce4,
restaurant,Bali,Warung koboi Sukawati,"C76Q+W2M, Jl. Ir. Sutami, Kemenuh, Kec. Sukawati, Kabupaten Gianyar, Bali","Kabupaten Gianyar, Bali",BALI,,Indonesia,87863460236.0,,,-8.5876536,115.2875488,https://maps.google.com/?cid=0x0:0xf2c1588a0b7dc789,
restaurant,Pusat Perbelanjaan,Gaharu Garden Restaurant,"C7RP+MPQ, Kemenuh, Kec. Sukawati, Kabupaten Gianyar, Bali 80582","Kemenuh, Kec. Sukawati, Kabupaten Gianyar",BALI,80582.0,Indonesia,82145200180.0,,,-8.5582973,115.2868666,https://maps.google.com/?cid=0x0:0x142344f49b5202d0,
restaurant,Sate,VANABI Warung Sate Bali,"Singapadu Kaler, Kec. Sukawati, Kabupaten Gianyar, Bali 80582","Kec. Sukawati, Kabupaten Gianyar",BALI,80582.0,Indonesia,82146459288.0,,,-8.5481968,115.2466004,https://maps.google.com/?cid=0x0:0x16fdd31695ca4791,
restaurant,Rumah Makan,Warung Lalapan Sukawati,"C74M+94M, Jalan Raya, Sukawati, Gianyar Regency, Bali 80582","Jalan Raya, Sukawati, Gianyar Regency",BALI,80582.0,Indonesia,87862065396.0,,,-8.5940475,115.2828102,https://maps.google.com/?cid=0x0:0x9bb95db9213fcee5,
restaurant,Kafe seni,Juice Time Batubulan,"Jl. Raya Batubulan, Batubulan, Kec. Sukawati, Kabupaten Gianyar, Bali 80582","Batubulan, Kec. Sukawati, Kabupaten Gianyar",BALI,80582.0,Indonesia,81246194974.0,,,-8.6249912,115.2573679,https://maps.google.com/?cid=0x0:0xe879f2af1a1e3fc1,
restaurant,Sesuai untuk keluarga,Sumampan Restaurant,"Jl. Subak Gunungsari, Banjar Sumampan, Kemenuh, Kec. Sukawati, Kabupaten Gianyar, Bali 80582","Banjar Sumampan, Kemenuh, Kec. Sukawati, Kabupaten Gianyar",BALI,80582.0,Indonesia,81238585870.0,,,-8.5452974,115.2857429,https://maps.google.com/?cid=0x0:0xd7474552572d2da5,
restaurant,Restoran,Warung lawar Arsana Sukawati,"Sukawati, Kec. Sukawati, Kabupaten Gianyar, Bali","Kabupaten Gianyar, Bali",BALI,,Indonesia,,,,-8.6033914,115.2980177,https://maps.google.com/?cid=0x0:0x78f2876d7072bae2,
restaurant,Sarapan,Nasi Tahu Ni Sarti Sukawati,"C73J+X6R, Br. Gelulung Sukawati, Gianyar, Sukawati, Kec. Sukawati, Kabupaten Gianyar, Bali 80582","Br. Gelulung Sukawati, Gianyar, Sukawati, Kec. Sukawati, Kabupaten Gianyar",BALI,80582.0,Indonesia,,,,-8.595011,115.280509,https://maps.google.com/?cid=0x0:0x107606378368c031,
restaurant,Masakan Asia,Warung 2M,"Br. Sengguan, Jl. Raya Singapadu, Singapadu, Kec. Sukawati, Kabupaten Gianyar, Bali 80582","Jl. Raya Singapadu, Singapadu, Kec. Sukawati, Kabupaten Gianyar",BALI,80582.0,Indonesia,81999989979.0,,,-8.5976699,115.2532287,https://maps.google.com/?cid=0x0:0xf1049ab122d194f0,
restaurant,Masakan Asia,The Cassowary Restaurant,"Jalan Ulun Suwi II, Singapadu, Singapadu, Kec. Sukawati, Kabupaten Gianyar, Bali 80582","Singapadu, Singapadu, Kec. Sukawati, Kabupaten Gianyar",BALI,80582.0,Indonesia,3614711222.0,,,-8.5892649,115.2647017,https://maps.google.com/?cid=0x0:0xed8c76adbf3a3a50,
restaurant,Restoran,Depot Ayu Shela,"98H2+X58, Jl. Prof. Dr. Ida Bagus Mantra, Ketewel, Kec. Sukawati, Kabupaten Gianyar, Bali 80582","Jl. Prof. Dr. Ida Bagus Mantra, Ketewel, Kec. Sukawati, Kabupaten Gianyar",BALI,80582.0,Indonesia,85237361276.0,,,-8.6200986,115.3004575,https://maps.google.com/?cid=0x0:0xa908804703e206af,
restaurant,restaurant,Tampaksiring,"Kec. Tampaksiring, Kabupaten Gianyar, Bali","Kabupaten Gianyar, Bali",BALI,,Indonesia,,,,-8.4390082,115.3104277,https://maps.google.com/?cid=0x0:0x1800e8dbac4d3f48,
restaurant,Bali,Pangkon Bali Resto  Agrotourism,"Jl. Tirta Jl. Tampaksiring No..25M, Manukaya, Kec. Tampaksiring, Kabupaten Gianyar, Bali 80552","Manukaya, Kec. Tampaksiring, Kabupaten Gianyar",BALI,80552.0,Indonesia,81239852425.0,,,-8.4176831,115.3174296,https://maps.google.com/?cid=0x0:0x9a85fcc812adb1e1,
restaurant,Restoran,Nukad Tampaksiring,"Jl. Pertiwi Brata, Selat, Kec. Tampaksiring, Kabupaten Gianyar, Bali 80552","Selat, Kec. Tampaksiring, Kabupaten Gianyar",BALI,80552.0,Indonesia,87790652875.0,,,-8.4348068,115.3179094,https://maps.google.com/?cid=0x0:0x7920231f794e8bac,
restaurant,Restoran,Warung Pondok Bali,"Jl. Sentanu No.4, Tampaksiring, Kecamatan Ubud, Kabupaten Gianyar, Bali 80552","Tampaksiring, Kecamatan Ubud, Kabupaten Gianyar",BALI,80552.0,Indonesia,87864412215.0,,,-8.4176484,115.306024,https://maps.google.com/?cid=0x0:0x2840761c659e0351,
restaurant,Restoran,Warung D'Kumba,"Jl. Raya Uma, Tampaksiring, bali, Kabupaten Gianyar, Bali 80552","Tampaksiring, bali, Kabupaten Gianyar",BALI,80552.0,Indonesia,81936240155.0,,,-8.4367732,115.3040584,https://maps.google.com/?cid=0x0:0xaf0e52d020953805,
restaurant,Restoran,Warung Tepi Sari,"Jl. Raya Pejeng Kawan, Pejeng Kawan, Kec. Tampaksiring, Kabupaten Gianyar, Bali 80552","Pejeng Kawan, Kec. Tampaksiring, Kabupaten Gianyar",BALI,80552.0,Indonesia,,,,-8.4903119,115.2823015,https://maps.google.com/?cid=0x0:0xcfabe70605765306,
restaurant,Bali,Warung Sripadi,"Jl. Tirta Empul, Manukaya, Kec. Tampaksiring, Kabupaten Gianyar, Bali 80552","Manukaya, Kec. Tampaksiring, Kabupaten Gianyar",BALI,80552.0,Indonesia,81775087019.0,,,-8.4176015,115.3133824,https://maps.google.com/?cid=0x0:0x8f0b966996df852c,
restaurant,Indonesia,Warung Gula Bali,"Jl. Tirta Empul, Manukaya, Kec. Tampaksiring, Kabupaten Gianyar, Bali 80552","Manukaya, Kec. Tampaksiring, Kabupaten Gianyar",BALI,80552.0,Indonesia,85737687775.0,,,-8.4175282,115.318072,https://maps.google.com/?cid=0x0:0xa8f12d99d8800c29,
restaurant,Restoran,Waroeng Bali Gk,"Jl. Bayu Brata, Tampaksiring, Kec. Tampaksiring, Kabupaten Gianyar, Bali 80552","Tampaksiring, Kec. Tampaksiring, Kabupaten Gianyar",BALI,80552.0,Indonesia,83115915702.0,,,-8.4236005,115.3088334,https://maps.google.com/?cid=0x0:0xe48806296bad5e0f,
restaurant,Restoran,Warung Makan Ulam Carik,"H8C5+92W, Jl. Dr. Ir. Soekarno, Tampaksiring, Kec. Tampaksiring, Kabupaten Gianyar, Bali 80552","Jl. Dr. Ir. Soekarno, Tampaksiring, Kec. Tampaksiring, Kabupaten Gianyar",BALI,80552.0,Indonesia,8123954000.0,,,-8.4290176,115.3075931,https://maps.google.com/?cid=0x0:0xb9c8504f7013759,
restaurant,Ayam Goreng,ACK TAMPAKSIRING,"Jl. Dr. Ir. Soekarno No.103, Tampaksiring, Kec. Tampaksiring, Kabupaten Gianyar, Bali 80552","Tampaksiring, Kec. Tampaksiring, Kabupaten Gianyar",BALI,80552.0,Indonesia,81999191993.0,,,-8.4266876,115.3079483,https://maps.google.com/?cid=0x0:0x461fe5cc8eabfbbf,
restaurant,Jawa,Warung Sambal Locok,"Br. Eha, Tampaksiring, Kec. Tampaksiring, Kabupaten Gianyar, Bali 80552","Tampaksiring, Kec. Tampaksiring, Kabupaten Gianyar",BALI,80552.0,Indonesia,81999113457.0,,,-8.4371766,115.305567,https://maps.google.com/?cid=0x0:0xd76943562594f015,
restaurant,Restoran,Warung Makan Sari Merta,"Tampaksiring, Kec. Tampaksiring, Kabupaten Gianyar, Bali 80552","Kec. Tampaksiring, Kabupaten Gianyar",BALI,80552.0,Indonesia,81999197270.0,,,-8.4268498,115.3079433,https://maps.google.com/?cid=0x0:0xe7b737bde52522a4,
restaurant,Restoran,"Warung Bambu,local food.","Jl. Sentanu, Tampaksiring, Kec. Tampaksiring, Kabupaten Gianyar, Bali 80552","Tampaksiring, Kec. Tampaksiring, Kabupaten Gianyar",BALI,80552.0,Indonesia,81933070404.0,,,-8.4199196,115.306674,https://maps.google.com/?cid=0x0:0x34082b6f9de857e5,
restaurant,Restoran,Warung Joglo,"H8J5+RM8, Jl. Dr. Ir. Soekarno, Tampaksiring, Kec. Tampaksiring, Kabupaten Gianyar, Bali 80552","Jl. Dr. Ir. Soekarno, Tampaksiring, Kec. Tampaksiring, Kabupaten Gianyar",BALI,80552.0,Indonesia,82340604300.0,,,-8.417972,115.3092002,https://maps.google.com/?cid=0x0:0x196171c2689545a8,
restaurant,Indonesia,Collina Kawi Restaurant,"Tampaksiring, Kec. Tampaksiring, Kabupaten Gianyar, Bali 80552","Kec. Tampaksiring, Kabupaten Gianyar",BALI,80552.0,Indonesia,3614793008.0,,,-8.4477478,115.3094798,https://maps.google.com/?cid=0x0:0xe22b005f95078811,
restaurant,Sarapan,Waroeng Pegasus,"Jl. Dr. Ir. Soekarno, Tampaksiring, Kec. Tampaksiring, Kabupaten Gianyar, Bali 80552","Tampaksiring, Kec. Tampaksiring, Kabupaten Gianyar",BALI,80552.0,Indonesia,361902194.0,,,-8.4467181,115.3095181,https://maps.google.com/?cid=0x0:0xcff6c6607fb4b5ac,
restaurant,Restoran,Waroeng De Koi,"Jl. Tirta Empul, Manukaya, Kec. Tampaksiring, Kabupaten Gianyar, Bali 80552","Manukaya, Kec. Tampaksiring, Kabupaten Gianyar",BALI,80552.0,Indonesia,8123870284.0,,,-8.4175826,115.3176032,https://maps.google.com/?cid=0x0:0xbe3252d3ccb862a7,
restaurant,Padang,RM Salero Bagindo,"H8M7+5VX, Manukaya, Kec. Tampaksiring, Kabupaten Gianyar, Bali 80552","Manukaya, Kec. Tampaksiring, Kabupaten Gianyar",BALI,80552.0,Indonesia,82236901697.0,,,-8.4170159,115.3147209,https://maps.google.com/?cid=0x0:0x4c4b993a00e2fa7a,
restaurant,Padang,RUMAH Makan Resturant,"H8P8+37J, Unnamed Road, Manukaya, Tampaksiring, Gianyar Regency, Bali 80552","Unnamed Road, Manukaya, Tampaksiring, Gianyar Regency",BALI,80552.0,Indonesia,,,,-8.4147993,115.3156328,https://maps.google.com/?cid=0x0:0x4593d3be4fe5714e,
restaurant,Ayam,BETUTU KEREN PAK RIZAL(local resto),"Pure songlayung, Tampaksiring, Kec. Tampaksiring, Kabupaten Gianyar, Bali 80552","Tampaksiring, Kec. Tampaksiring, Kabupaten Gianyar",BALI,80552.0,Indonesia,81337846192.0,,,-8.4553187,115.3080855,https://maps.google.com/?cid=0x0:0x86f8629502666f8d,
restaurant,restaurant,Bali 80552,"Kec. Tampaksiring, Kabupaten Gianyar, Bali","Kabupaten Gianyar, Bali",BALI,,Indonesia,,,,-8.4362857,115.3133908,https://maps.google.com/?cid=0x0:0x1c00c5eb6016beb0,
restaurant,Bali,Waroeng Podjok GK,"Jl. Bayu Suta No.73, Tampaksiring, Kec. Tampaksiring, Kabupaten Gianyar, Bali 80552","Tampaksiring, Kec. Tampaksiring, Kabupaten Gianyar",BALI,80552.0,Indonesia,,,,-8.4236108,115.3094952,https://maps.google.com/?cid=0x0:0x9c78a3584f544b31,
restaurant,Masakan Asia,Mango Cafe,"Jl. Raya Laplapan, Pejeng Kawan, Kec. Tampaksiring, Kabupaten Gianyar, Bali 80552","Pejeng Kawan, Kec. Tampaksiring, Kabupaten Gianyar",BALI,80552.0,Indonesia,8157904880.0,,,-8.4930188,115.2813477,https://maps.google.com/?cid=0x0:0x20e85add245ea1cf,
restaurant,Restoran,Ancut Petanu,"Jl. Sentanu, Tampaksiring, Kec. Tampaksiring, Kabupaten Gianyar, Bali 80552","Tampaksiring, Kec. Tampaksiring, Kabupaten Gianyar",BALI,80552.0,Indonesia,83147816734.0,,,-8.4195792,115.3030849,https://maps.google.com/?cid=0x0:0xbf9f5856fd5522a9,
restaurant,restaurant,Bali 80561,"Kec. Tegallalang, Kabupaten Gianyar, Bali","Kabupaten Gianyar, Bali",BALI,,Indonesia,,,,-8.3921715,115.2956118,https://maps.google.com/?cid=0x0:0x1c00c5eb6016bec0,
restaurant,Restoran,"Tebasari Resto, Bar  Lounge","Jl. Raya Tegallalang, Tegallalang, Kec. Tegallalang, Kabupaten Gianyar, Bali 80561","Tegallalang, Kec. Tegallalang, Kabupaten Gianyar",BALI,80561.0,Indonesia,3619085851.0,,,-8.4416165,115.2802618,https://maps.google.com/?cid=0x0:0xde95d6567688bd58,
restaurant,Restoran,d'Alas warung,"Jl. Raya Pujung Kaja, Sebatu, Kec. Tegallalang, Kabupaten Gianyar, Bali 80561","Sebatu, Kec. Tegallalang, Kabupaten Gianyar",BALI,80561.0,Indonesia,361902110.0,,,-8.4223646,115.2789232,https://maps.google.com/?cid=0x0:0x15673a5c8afddf3d,
restaurant,Rumah Makan,Tis Cafe,"Jl. Raya Tegallalang, Tegallalang, Kec. Tegallalang, Kabupaten Gianyar, Bali 80561","Tegallalang, Kec. Tegallalang, Kabupaten Gianyar",BALI,80561.0,Indonesia,81215985899.0,,,-8.4307634,115.2786171,https://maps.google.com/?cid=0x0:0xa0c73a52235a7df8,
restaurant,Restoran,THE KAWI RESTO POOL AND BAR,"Jl. Raya Tegallalang No.5758, Tegallalang, Kec. Tegallalang, Kabupaten Gianyar, Bali 80561","Tegallalang, Kec. Tegallalang, Kabupaten Gianyar",BALI,80561.0,Indonesia,81246585199.0,,,-8.4343451,115.2782958,https://maps.google.com/?cid=0x0:0x88fe45684732b83c,
restaurant,Tujuan Wisata,Uma Ceking Resto and Swing,"Tegallalang, Kec. Tegallalang, Kabupaten Gianyar, Bali 80561","Kec. Tegallalang, Kabupaten Gianyar",BALI,80561.0,Indonesia,83166409336.0,,,-8.4355621,115.2793731,https://maps.google.com/?cid=0x0:0xee28be3c9536d599,
restaurant,Masakan Barat,Cretya Ubud,"Jl. Raya Tegallalang, Tegallalang, Kec. Tegallalang, Kabupaten Gianyar, Bali 80561","Tegallalang, Kec. Tegallalang, Kabupaten Gianyar",BALI,80561.0,Indonesia,3619585999.0,,,-8.439962,115.280982,https://maps.google.com/?cid=0x0:0x9fc75242a6f92fa7,
restaurant,Restoran,Mimpi Manis Restaurant,"Jalan Umakelod, Sebatu, Tegallalang, Gianyar Regency, Bali 80561","Sebatu, Tegallalang, Gianyar Regency",BALI,80561.0,Indonesia,3618983475.0,,,-8.4081731,115.2959263,https://maps.google.com/?cid=0x0:0xb030f1c763403b40,
restaurant,Restoran,KUBUBALI Resto  Jungle Pool Bar,"Jl. Raya Bayad, Kedisan, Kec. Tegallalang, Kabupaten Gianyar, Bali 80561","Kedisan, Kec. Tegallalang, Kabupaten Gianyar",BALI,80561.0,Indonesia,,,,-8.4115906,115.2932982,https://maps.google.com/?cid=0x0:0x498ac30aa63167c8,
restaurant,Restoran,Greenkubu Restaurant and Swing,"Jalan Cinta, Br, Jl. Pejengaji, Tegallalang, Gianyar Regency, Bali 80561","Br, Jl. Pejengaji, Tegallalang, Gianyar Regency",BALI,80561.0,Indonesia,85211054605.0,,,-8.4520774,115.2742628,https://maps.google.com/?cid=0x0:0x7a8c99e9dbdc880f,
restaurant,Restoran,D'Pondok Warung,"Uma kaje, depan Pura EE No.desa, banjar, Sebatu, Tegallalang, Gianyar Regency, Bali 80561","depan Pura EE No.desa, banjar, Sebatu, Tegallalang, Gianyar Regency",BALI,80561.0,Indonesia,81547134989.0,,,-8.3994507,115.2943703,https://maps.google.com/?cid=0x0:0x383566aaa08833cb,
restaurant,Rumah Makan,Carik Terrace Warung,"Tegallalang, Kec. Tegallalang, Kabupaten Gianyar, Bali 80561","Kec. Tegallalang, Kabupaten Gianyar",BALI,80561.0,Indonesia,81338507796.0,,,-8.4301871,115.2786743,https://maps.google.com/?cid=0x0:0x240590d460dbdf4b,
restaurant,Restoran,Cretya Lite,"Jl. Raya Tegallalang, Tegallalang, Kec. Tegallalang, Kabupaten Gianyar, Bali 80561","Tegallalang, Kec. Tegallalang, Kabupaten Gianyar",BALI,80561.0,Indonesia,3619585999.0,,,-8.4403764,115.2806591,https://maps.google.com/?cid=0x0:0xb41f1f0d7ae06606,
restaurant,Restoran,Ceking Sari Restaurant  Coffee Corner,"Jl. Raya Tegallalang, Tegallalang, Kec. Tegallalang, Kabupaten Gianyar, Bali 80561","Tegallalang, Kec. Tegallalang, Kabupaten Gianyar",BALI,80561.0,Indonesia,81239186852.0,,,-8.4413002,115.2803759,https://maps.google.com/?cid=0x0:0xd6248d41988715d3,
restaurant,Restoran,Rice terrace cafe,"Jl. Raya Tegallalang, Tegallalang, Kec. Tegallalang, Kabupaten Gianyar, Bali 80561","Tegallalang, Kec. Tegallalang, Kabupaten Gianyar",BALI,80561.0,Indonesia,81236186003.0,,,-8.4335918,115.2786445,https://maps.google.com/?cid=0x0:0x5c85b37e13034186,
restaurant,restaurant,Jinengbali Agro,"JinengBali Agro, Banjar, Jl. Dlod Blungbang Jl. Raya Desa Kenderan, Kenderan, Tegallalang, Gianyar Regency, Bali 80561","Banjar, Jl. Dlod Blungbang Jl. Raya Desa Kenderan, Kenderan, Tegallalang, Gianyar Regency",BALI,80561.0,Indonesia,87861673837.0,,,-8.4358648,115.2933423,https://maps.google.com/?cid=0x0:0xc1e6ba6429ad6c0,
restaurant,Rumah Makan,Warung D Uma Sari,"H7MW+HRX, Kedisan, Kec. Tegallalang, Kabupaten Gianyar, Bali 80561","Kedisan, Kec. Tegallalang, Kabupaten Gianyar",BALI,80561.0,Indonesia,83119888319.0,,,-8.4160124,115.296943,https://maps.google.com/?cid=0x0:0x854d6656bd08d7a,
restaurant,Kafe,Uma Pakel Agro Tourism  swing,"H75J+C64, Jl. Raya Tegallalang, Tegallalang, Kec. Tegallalang, Kabupaten Gianyar, Bali 80561","Jl. Raya Tegallalang, Tegallalang, Kec. Tegallalang, Kabupaten Gianyar",BALI,80561.0,Indonesia,8123838702.0,,,-8.4417654,115.2805841,https://maps.google.com/?cid=0x0:0x67d944b916cf0de3,
restaurant,Kedai Kopi,"DUKUH SARI Restaurant, Luwak Coffee","Br. Penusuan, Tegallalang, Kec. Tegallalang, Kabupaten Gianyar, Bali 80561","Tegallalang, Kec. Tegallalang, Kabupaten Gianyar",BALI,80561.0,Indonesia,87761741684.0,,,-8.4586992,115.2786737,https://maps.google.com/?cid=0x0:0x8ff07e61af5509b6,
restaurant,Restoran,by Cafe,"Jl. Raya Tegallalang No.57-58, Tegallalang, Kec. Tegallalang, Kabupaten Gianyar, Bali 80561","Tegallalang, Kec. Tegallalang, Kabupaten Gianyar",BALI,80561.0,Indonesia,3619084718.0,,,-8.4322426,115.2783256,https://maps.google.com/?cid=0x0:0xdabe57e073e0a4e1,
restaurant,Restoran,Draniki Ubud,"G76C+33G, Jl. Tirta Tawar, Petulu, Kecamatan Ubud, Kabupaten Gianyar, Bali 80571","Jl. Tirta Tawar, Petulu, Kecamatan Ubud, Kabupaten Gianyar",BALI,80571.0,Indonesia,82340762660.0,,,-8.489655,115.2701112,https://maps.google.com/?cid=0x0:0x2dd78c2dfdc2ae6b,
restaurant,Restoran,Tangelo Bali,"Jl. Raya Bilukan, Sebatu, Kec. Tegallalang, Kabupaten Gianyar, Bali 80561","Sebatu, Kec. Tegallalang, Kabupaten Gianyar",BALI,80561.0,Indonesia,82341805895.0,,,-8.3897293,115.2963637,https://maps.google.com/?cid=0x0:0x338d4153fbfc640e,
restaurant,Restoran,NEUN at Bali Nguni Ubud,"Jl. Raya Keliki, Keliki, Kec. Tegallalang, Kabupaten Gianyar, Bali 80561","Keliki, Kec. Tegallalang, Kabupaten Gianyar",BALI,80561.0,Indonesia,82340243402.0,,,-8.4639597,115.2600843,https://maps.google.com/?cid=0x0:0xed868911c3804eda,
restaurant,Indonesia,Tibuan Parung Restaurant,"Jl. Uma Klod, Sebatu, Kec. Tegallalang, Kabupaten Gianyar, Bali 80561","Sebatu, Kec. Tegallalang, Kabupaten Gianyar",BALI,80561.0,Indonesia,83115562220.0,,,-8.4066932,115.295122,https://maps.google.com/?cid=0x0:0xb2529d6f6f154c69,
restaurant,Rumah Makan,Teras Padi Cafe,"Jl. Raya Tegallalang, Tegallalang, Kec. Tegallalang, Kabupaten Gianyar, Bali 80561","Tegallalang, Kec. Tegallalang, Kabupaten Gianyar",BALI,80561.0,Indonesia,81919191456.0,,,-8.4333992,115.2785658,https://maps.google.com/?cid=0x0:0xfc6f5fb2d63c33bf,
restaurant,restaurant,Ubud,"Ubud, Kecamatan Ubud, Kabupaten Gianyar, Bali","Kabupaten Gianyar, Bali",BALI,,Indonesia,,,,-8.5068536,115.2624778,https://maps.google.com/?cid=0x0:0x54a38afd6b773d1c,
restaurant,Restoran,Melali Ubud,"Jl. Sri Wedari No.58, Ubud, Kecamatan Ubud, Kabupaten Gianyar, Bali 80571","Ubud, Kecamatan Ubud, Kabupaten Gianyar",BALI,80571.0,Indonesia,82210005091.0,,,-8.4848109,115.2669997,https://maps.google.com/?cid=0x0:0xf91dc47ae6aa0266,
restaurant,Kafe,Amsterdam Restaurant Ubud,"Jl. Sri Wedari No.60, Ubud, Kecamatan Ubud, Kabupaten Gianyar, Bali 80571","Ubud, Kecamatan Ubud, Kabupaten Gianyar",BALI,80571.0,Indonesia,81246306606.0,,,-8.4998389,115.2666823,https://maps.google.com/?cid=0x0:0x498ae959d5114437,
restaurant,Restoran,Watercress Cafe Ubud,"Jl. Monkey Forest, Ubud, Bali, Kabupaten Gianyar, Bali 80571","Ubud, Bali, Kabupaten Gianyar",BALI,80571.0,Indonesia,81338685599.0,,,-8.5131112,115.2608741,https://maps.google.com/?cid=0x0:0x75599808bcc0b6da,
restaurant,Panggang,Arcadia Restaurant Ubud,"Jl. Raya Campuhan, Sayan, Kecamatan Ubud, Kabupaten Gianyar, Bali 80571","Sayan, Kecamatan Ubud, Kabupaten Gianyar",BALI,80571.0,Indonesia,81311177882.0,,,-8.5050032,115.254422,https://maps.google.com/?cid=0x0:0x897de572cb9413fe,
restaurant,Bali,Labak Sari Restaurant,"Jl. Tirta Tawar, Br. Abangan, 80571, Ubud 80571, Ubud, Tegallalang, Gianyar Regency, Bali 80571","Br. Abangan,",BALI,80571.0,Indonesia,81916321373.0,,,-8.4683069,115.2698459,https://maps.google.com/?cid=0x0:0x1e53695d4ee525d5,
restaurant,restaurant,Donna,"Jl. Monkey Forest No.67, Ubud, Kecamatan Ubud, Kabupaten Gianyar, Bali 80571","Ubud, Kecamatan Ubud, Kabupaten Gianyar",BALI,80571.0,Indonesia,81337509840.0,,,-8.513036,115.2606987,https://maps.google.com/?cid=0x0:0x24b5d5d00ac99b53,
restaurant,Bali,Sawah Indah Resto Ubud,"Jalan Raya Goa Gajah Peliatan, Ubud, Peliatan, Gianyar, Gianyar Regency, Bali 80571","Ubud, Peliatan, Gianyar, Gianyar Regency",BALI,80571.0,Indonesia,361972547.0,,,-8.5197533,115.27447,https://maps.google.com/?cid=0x0:0x18f1ddb49b83a391,
restaurant,Vegan,Herb Library,"Jl. Jembawan, Ubud, Kecamatan Ubud, Kabupaten Gianyar, Bali 80571","Ubud, Kecamatan Ubud, Kabupaten Gianyar",BALI,80571.0,Indonesia,8113893213.0,,,-8.5099766,115.2668441,https://maps.google.com/?cid=0x0:0x9de278d404870b27,
restaurant,Restoran,PASIR Ubud,"Jl. Monkey Forest No.99x, Ubud, Kecamatan Ubud, Kabupaten Gianyar, Bali 80571","Ubud, Kecamatan Ubud, Kabupaten Gianyar",BALI,80571.0,Indonesia,8112833838.0,,,-8.5122071,115.2609617,https://maps.google.com/?cid=0x0:0x90bdc95155e8aa75,
restaurant,Makanan Sehat,Tropical Bali Restaurant,"Jl. Monkey Forest No.03, Ubud, Kecamatan Ubud, Kabupaten Gianyar, Bali 80571","Ubud, Kecamatan Ubud, Kabupaten Gianyar",BALI,80571.0,Indonesia,85172115211.0,,,-8.5075441,115.2620626,https://maps.google.com/?cid=0x0:0x43eadb2600df8153,
restaurant,Restoran,This Is Bali - Balinese Food  Desserts,"Jl. Goutama No.2, Ubud, Kecamatan Ubud, Kabupaten Gianyar, Bali 80571","Ubud, Kecamatan Ubud, Kabupaten Gianyar",BALI,80571.0,Indonesia,81353766529.0,,,-8.508112,115.2641036,https://maps.google.com/?cid=0x0:0x88b3ec426fa0bb8f,
restaurant,Restoran,Tablespoon Ubud,"Jl. Suweta No.88, Ubud, Kecamatan Ubud, Kabupaten Gianyar, Bali 80571","Ubud, Kecamatan Ubud, Kabupaten Gianyar",BALI,80571.0,Indonesia,81237571449.0,,,-8.4891919,115.2651151,https://maps.google.com/?cid=0x0:0x946c0856b784eab,
restaurant,Masakan Asia,"Pundi - pundi Asian  Grill Restaurant, Ubud","Jalan Raya Pengosekan, Ubud, Kecamatan Ubud, Kabupaten Gianyar, Bali 80571","Ubud, Kecamatan Ubud, Kabupaten Gianyar",BALI,80571.0,Indonesia,81337525751.0,,,-8.5188407,115.2632208,https://maps.google.com/?cid=0x0:0x8c6f2d293ac9920f,
restaurant,Restoran,Hujan Locale,"Jl. Sri Wedari No.5, Ubud, Kecamatan Ubud, Kabupaten Gianyar, Bali 80571","Ubud, Kecamatan Ubud, Kabupaten Gianyar",BALI,80571.0,Indonesia,81353260275.0,,,-8.5073,115.265031,https://maps.google.com/?cid=0x0:0x46f26e5d7a6aee8,
restaurant,Indonesia,Casa Luna Restaurant,"Jl. Raya Ubud, Ubud, Kecamatan Ubud, Kabupaten Gianyar, Bali 80571","Ubud, Kecamatan Ubud, Kabupaten Gianyar",BALI,80571.0,Indonesia,81338239921.0,,,-8.5062395,115.2605513,https://maps.google.com/?cid=0x0:0x3704465f9bfc2f15,
restaurant,Masakan Perpaduan Asia,UMAMI BALI UBUD,"Jl. Bisma, Ubud, Kecamatan Ubud, Kabupaten Gianyar, Bali 80571","Ubud, Kecamatan Ubud, Kabupaten Gianyar",BALI,80571.0,Indonesia,82213384620.0,,,-8.5060563,115.2590996,https://maps.google.com/?cid=0x0:0x7dc0ea49fdc922ac,
restaurant,Restoran,Ada Ubud Resto,"Jl. Monkey Forest, Ubud, Kecamatan Ubud, Kabupaten Gianyar, Bali 80571","Ubud, Kecamatan Ubud, Kabupaten Gianyar",BALI,80571.0,Indonesia,85337216561.0,,,-8.511642,115.2609932,https://maps.google.com/?cid=0x0:0x9aae9471991d6877,
restaurant,Restoran,Pistachio Restaurant Ubud,"Jl. Bisma, Ubud, Kecamatan Ubud, Kabupaten Gianyar, Bali 80571","Ubud, Kecamatan Ubud, Kabupaten Gianyar",BALI,80571.0,Indonesia,85134438595.0,,,-8.5137778,115.2581204,https://maps.google.com/?cid=0x0:0xc25e11e4bbd6fdaa,
restaurant,restaurant,Bali 80571,"Kecamatan Ubud, Kabupaten Gianyar, Bali","Kabupaten Gianyar, Bali",BALI,,Indonesia,,,,-8.5164072,115.2481959,https://maps.google.com/?cid=0x0:0x1c00c5eb6016bed0,
restaurant,Bali,Laka Leke Restaurant,"Jl. Nyuh Bojog No.32, Mas, Kecamatan Ubud, Kabupaten Gianyar, Bali 80571","Mas, Kecamatan Ubud, Kabupaten Gianyar",BALI,80571.0,Indonesia,361977565.0,,,-8.5200224,115.2573454,https://maps.google.com/?cid=0x0:0x8329ad2e25eb285a,
restaurant,Indonesia,Meguna Ubud Restaurant,"Jl. Monkey Forest, Padang Tegal Kelod, Kecamatan Ubud, Kabupaten Gianyar, Bali 80571","Padang Tegal Kelod, Kecamatan Ubud, Kabupaten Gianyar",BALI,80571.0,Indonesia,85163500890.0,,,-8.5181996,115.2621656,https://maps.google.com/?cid=0x0:0xcc80f79a627be370,
restaurant,Indonesia,Bali Luwih Ubud,"Jl. Sukma Kesuma, Peliatan, Kecamatan Ubud, Kabupaten Gianyar, Bali 80571","Peliatan, Kecamatan Ubud, Kabupaten Gianyar",BALI,80571.0,Indonesia,81339593557.0,,,-8.516289,115.2668939,https://maps.google.com/?cid=0x0:0xef14fd4259ee754,
restaurant,Restoran,Ibu Rai Restaurant,"Jl. Monkey Forest No.72, Ubud, Kecamatan Ubud, Kabupaten Gianyar, Bali 80571","Ubud, Kecamatan Ubud, Kabupaten Gianyar",BALI,80571.0,Indonesia,361973472.0,,,-8.5093617,115.2615927,https://maps.google.com/?cid=0x0:0x32e07a1621feae27,
restaurant,Restoran,Lynked Restaurant Ubud,"Jalan Raya, Ubud, Gianyar Regency, Bali 80571","Ubud, Gianyar Regency",BALI,80571.0,Indonesia,81338739955.0,,,-8.507724,115.2640565,https://maps.google.com/?cid=0x0:0x121a3a696a2b6771,
restaurant,Restoran,Shrida Ubud Restaurant By Royal Kamuela Ubud,"Jl. Bisma, Ubud, Kecamatan Ubud, Kabupaten Gianyar, Bali 80571","Ubud, Kecamatan Ubud, Kabupaten Gianyar",BALI,80571.0,Indonesia,85175469700.0,,,-8.5161632,115.2580637,https://maps.google.com/?cid=0x0:0xda1fcc9d672d7df9,
restaurant,China,Omiiku Ubud (Hongalia),"Jl. Raya Mas No.165, Mas, Kecamatan Ubud, Kabupaten Gianyar, Bali 80571","Mas, Kecamatan Ubud, Kabupaten Gianyar",BALI,80571.0,Indonesia,81139608822.0,,,-8.5361572,115.272576,https://maps.google.com/?cid=0x0:0xf3ca5786a89991f6,
restaurant,Indonesia,Warung tradisi ubud,"Jl. Goutama No.20, Ubud, Kecamatan Ubud, Kabupaten Gianyar, Bali 80571","Ubud, Kecamatan Ubud, Kabupaten Gianyar",BALI,80571.0,Indonesia,81236496831.0,,,-8.5097481,115.2638474,https://maps.google.com/?cid=0x0:0xcea46514445bea43,
restaurant,Restoran,Nusa By/Suka - Ubud,"Jl. Raya Ubud, Ubud, Kecamatan Ubud, Kabupaten Gianyar, Bali 80571","Ubud, Kecamatan Ubud, Kabupaten Gianyar",BALI,80571.0,Indonesia,82266610099.0,,,-8.5062639,115.260924,https://maps.google.com/?cid=0x0:0x3f7689b8a3a80f7a,
cafe,Klub Sepak Bola,Bali United Cafe,"Jl. Tribun Tenggara, Buruan, Kec. Blahbatuh, Kabupaten Gianyar, Bali 80581","Buruan, Kec. Blahbatuh, Kabupaten Gianyar",BALI,80581.0,Indonesia,88801888888.0,,,-8.5474549,115.3059314,https://maps.google.com/?cid=0x0:0xd52ce9c7f95c3f85,
cafe,Rumah wisata,Yeh Pulu Cafe,"F7CV+45G Br. Batulumbang, Jl. Yeh Pulu, Bedulu, Kec. Blahbatuh, Kabupaten Gianyar, Bali 80581","Jl. Yeh Pulu, Bedulu, Kec. Blahbatuh, Kabupaten Gianyar",BALI,80581.0,Indonesia,87761257848.0,,,-8.5296983,115.2929774,https://maps.google.com/?cid=0x0:0x5afd61c7650ebf1b,
cafe,Rumah Makan,Warung Uma Batuh,"Blahbatuh, Kec. Blahbatuh, Kabupaten Gianyar, Bali 80581","Kec. Blahbatuh, Kabupaten Gianyar",BALI,80581.0,Indonesia,8123972373.0,,,-8.5697248,115.3045475,https://maps.google.com/?cid=0x0:0xee69351efc3d82e6,
cafe,Restoran,Warung Yeh Batu,"Jl. Raya Blangsinga, Saba, Kec. Blahbatuh, Kabupaten Gianyar, Bali 80581","Saba, Kec. Blahbatuh, Kabupaten Gianyar",BALI,80581.0,Indonesia,,,,-8.575368,115.2905736,https://maps.google.com/?cid=0x0:0x222721cb450e121b,
cafe,Kafe,High5 Cafetaria,"Jl. Raya Semebaung No.2, Bedulu, Kec. Blahbatuh, Kabupaten Gianyar, Bali 80581","Bedulu, Kec. Blahbatuh, Kabupaten Gianyar",BALI,80581.0,Indonesia,81805504666.0,,,-8.5344284,115.3048676,https://maps.google.com/?cid=0x0:0x27ab1519f69f4f4e,
cafe,Makanan Kecil,Warung Tunyaw,"Jl. Pantai Saba, Saba, Kec. Blahbatuh, Kabupaten Gianyar, Bali 80581","Saba, Kec. Blahbatuh, Kabupaten Gianyar",BALI,80581.0,Indonesia,89652113982.0,,,-8.5818687,115.2907759,https://maps.google.com/?cid=0x0:0xf063ecb93f2455a8,
cafe,Restoran,Warung Iluh,"C874+4J3, Pering, Kec. Blahbatuh, Kabupaten Gianyar, Bali 80581","Pering, Kec. Blahbatuh, Kabupaten Gianyar",BALI,80581.0,Indonesia,,,,-8.5872446,115.3065346,https://maps.google.com/?cid=0x0:0xf89a6fc9d1fd7109,
cafe,cafe,,,,BALI,,Indonesia,,,,,,https://maps.google.com/?cid=0x0:0x222721cb450e121bu0026onu0026midu003d/g/11q84n6skm,
cafe,cafe,,,,BALI,,Indonesia,,,,,,https://maps.google.com/?cid=0x0:0x222721cb450e121bu0026onu003dPizzau0026midu003d/g/11q84n6skm,
cafe,cafe,Bali 80511,"Kec. Gianyar, Kabupaten Gianyar, Bali","Kabupaten Gianyar, Bali",BALI,,Indonesia,,,,-8.5386152,115.328206,https://maps.google.com/?cid=0x0:0x3a6ab5e6526148c8,
cafe,Restoran,Lukisan Coffee,"Jl. Kesatrian, Abianbase, Kec. Gianyar, Kabupaten Gianyar, Bali 80511","Abianbase, Kec. Gianyar, Kabupaten Gianyar",BALI,80511.0,Indonesia,8174777788.0,,,-8.5483094,115.3257706,https://maps.google.com/?cid=0x0:0xf41cf82a0a51bd54,
cafe,Kedai Kopi,Ejji Coffee Dharmagiri Gianyar District 24,"Jl. Dharma Giri No.18c, Gianyar, Kec. Gianyar, Kabupaten Gianyar, Bali 80511","Gianyar, Kec. Gianyar, Kabupaten Gianyar",BALI,80511.0,Indonesia,81337313650.0,,,-8.5409317,115.3195822,https://maps.google.com/?cid=0x0:0x1195cdf6996fd4d8,
cafe,Restoran,Ning's Coffee  Eatery,"Sumampan, Jl. Ir. Sutami, Kemenuh, Kec. Sukawati, Kabupaten Gianyar, Bali","Kabupaten Gianyar, Bali",BALI,,Indonesia,83115183927.0,,,-8.5551594,115.2858907,https://maps.google.com/?cid=0x0:0x69ae74010627206c,
cafe,Kedai Kopi,Rumalogy Coffee  Kitchen,"Jl. Sinta Jl. Raya Tugu Pahlawan No.mor 52, Bitera, Kec. Gianyar, Kabupaten Gianyar, Bali 80581","Bitera, Kec. Gianyar, Kabupaten Gianyar",BALI,80581.0,Indonesia,81239528912.0,,,-8.5477611,115.3173305,https://maps.google.com/?cid=0x0:0xa7f6a0df8c2fd119,
cafe,Rumah Makan,GRAHA WANGI,"Jl. Rambutan, Gianyar, Kec. Gianyar, Kabupaten Gianyar, Bali 80511","Gianyar, Kec. Gianyar, Kabupaten Gianyar",BALI,80511.0,Indonesia,,,,-8.5393893,115.327396,https://maps.google.com/?cid=0x0:0xa83c8e43f26435be,
cafe,Restoran,Warmmeet Gianyar,"Jl. Ciung Wanara-Gianyar No.88, Gianyar, Kec. Gianyar, Kabupaten Gianyar, Bali 80361","Gianyar, Kec. Gianyar, Kabupaten Gianyar",BALI,80361.0,Indonesia,,,,-8.5386393,115.3228113,https://maps.google.com/?cid=0x0:0x42587583efa033ee,
cafe,Kedai Kopi,Hanzho Coffee,"Jl. Raya Semebaung, Bedulu, Kec. Blahbatuh, Kabupaten Gianyar, Bali 80581","Bedulu, Kec. Blahbatuh, Kabupaten Gianyar",BALI,80581.0,Indonesia,85792310224.0,,,-8.5346938,115.3070487,https://maps.google.com/?cid=0x0:0x5ac72792fc4411d,
cafe,Kedai Kopi,Yooji Cafe,"Jl. Dharma Giri, Bitera, Kec. Gianyar, Kabupaten Gianyar, Bali 80511","Bitera, Kec. Gianyar, Kabupaten Gianyar",BALI,80511.0,Indonesia,81337157843.0,,,-8.5429621,115.3143684,https://maps.google.com/?cid=0x0:0x9f0f35da567b4be,
cafe,Kedai Kopi,Kukamu Eatery Cafe,"Jl. Dharma Giri No.88, Gianyar, Kec. Gianyar, Kabupaten Gianyar, Bali 80511","Gianyar, Kec. Gianyar, Kabupaten Gianyar",BALI,80511.0,Indonesia,87735903910.0,,,-8.5409821,115.3200439,https://maps.google.com/?cid=0x0:0x2a296276206124e,
cafe,Kedai Kopi,Kopi Tepuk,"Jl. Kenumang No.18, Gianyar, Kec. Gianyar, Kabupaten Gianyar, Bali 80511","Gianyar, Kec. Gianyar, Kabupaten Gianyar",BALI,80511.0,Indonesia,85100915169.0,,,-8.5424643,115.3205519,https://maps.google.com/?cid=0x0:0x780ce440dee9019e,
cafe,Kedai Kopi,Vunja Coffee,"Jl. Raya Petemon No.Br, Pejeng Kelod, Kec. Tampaksiring, Kabupaten Gianyar, Bali 80552","Pejeng Kelod, Kec. Tampaksiring, Kabupaten Gianyar",BALI,80552.0,Indonesia,82247981420.0,,,-8.5174597,115.3039756,https://maps.google.com/?cid=0x0:0x543481fba253da57,
cafe,Restoran,WDG - Warung Dajan Gereja Gianyar,"F87F+WWV, Jl. Burung Gereja, Beng, Kec. Gianyar, Kabupaten Gianyar, Bali 80513","Jl. Burung Gereja, Beng, Kec. Gianyar, Kabupaten Gianyar",BALI,80513.0,Indonesia,81934390407.0,,,-8.5351414,115.3248018,https://maps.google.com/?cid=0x0:0x7e21a7c44ec991e2,
cafe,Kafe,Genius Caf Gianyar,"Jl. Pantai Masceti, Medahan, Kec. Blahbatuh, Kabupaten Gianyar, Bali 80581","Medahan, Kec. Blahbatuh, Kabupaten Gianyar",BALI,80581.0,Indonesia,82236944873.0,,,-8.5762993,115.3381626,https://maps.google.com/?cid=0x0:0x23425b61f0a6922,
cafe,Kedai Kopi,Laris Manis Kopi,"Jl. Manik No.3, Gianyar, Kec. Gianyar, Kabupaten Gianyar, Bali 80511","Gianyar, Kec. Gianyar, Kabupaten Gianyar",BALI,80511.0,Indonesia,,,,-8.5399128,115.3234313,https://maps.google.com/?cid=0x0:0x699e4b6ffa3ced27,
cafe,Kafe,Labrasa Kopi,"Jl. Jaya Negara Gg. X No.8, Gianyar, Kec. Gianyar, Kabupaten Gianyar, Bali 80511","Gianyar, Kec. Gianyar, Kabupaten Gianyar",BALI,80511.0,Indonesia,,,,-8.5451609,115.3234473,https://maps.google.com/?cid=0x0:0x3d011329c7b12ed,
cafe,Kedai Kopi,OTG Coffee Shop Gianyar,"Jl. Dharma Giri No.1A, Gianyar, Kec. Gianyar, Kabupaten Gianyar, Bali 80511","Gianyar, Kec. Gianyar, Kabupaten Gianyar",BALI,80511.0,Indonesia,81338379776.0,,,-8.5410067,115.3220318,https://maps.google.com/?cid=0x0:0xa3478f54cbb3a830,
cafe,Restoran,Kober Mie Bali - Gianyar,"Jl. Dharma Giri No.27, Gianyar, Kec. Gianyar, Kabupaten Gianyar, Bali 80511","Gianyar, Kec. Gianyar, Kabupaten Gianyar",BALI,80511.0,Indonesia,81236017942.0,,,-8.5406943,115.3179811,https://maps.google.com/?cid=0x0:0x6b1d51ea515b6c73,
cafe,Restoran,Living Life Coffee Eatery,"Jl. Ir. Sutami, Kemenuh, Kec. Sukawati, Kabupaten Gianyar, Bali 80582","Kemenuh, Kec. Sukawati, Kabupaten Gianyar",BALI,80582.0,Indonesia,82311917509.0,,,-8.5477866,115.2815372,https://maps.google.com/?cid=0x0:0xbfb3e07b3c288248,
cafe,Kedai Kopi,Sore coffee  Eatery,"97V2+V6J Tegal Temu Space, Jl. Pura Dalem Tegal Tamu, Tegaltamu, Batubulan, Kec. Sukawati, Kabupaten Gianyar, Bali 80582","Jl. Pura Dalem Tegal Tamu, Tegaltamu, Batubulan, Kec. Sukawati, Kabupaten Gianyar",BALI,80582.0,Indonesia,85792120163.0,,,-8.6055919,115.2505208,https://maps.google.com/?cid=0x0:0xa52d6fcd849cae60,
cafe,Kedai Kopi,satusatu kopi,"Jl. Triwanasa kawan, Bakbakan, Kec. Gianyar, Kabupaten Gianyar, Bali 80515","Bakbakan, Kec. Gianyar, Kabupaten Gianyar",BALI,80515.0,Indonesia,,,,-8.5044932,115.3210595,https://maps.google.com/?cid=0x0:0x68bc5d8ff85b014e,
cafe,Kedai Kopi,Harsa coffee,"Jl. Raya Getas Buruan No.260, Buruan, Kec. Blahbatuh, Kabupaten Gianyar, Bali 80511","Buruan, Kec. Blahbatuh, Kabupaten Gianyar",BALI,80511.0,Indonesia,81391537132.0,,,-8.5514791,115.3030875,https://maps.google.com/?cid=0x0:0x55ae41315e86e93c,
cafe,cafe,Kedai Kopi Siap,"Side of RS Sanjiwani, Gianyar, Kec. Gianyar, Kabupaten Gianyar, Bali","Kabupaten Gianyar, Bali",BALI,,Indonesia,81330932059.0,,,-8.5373253,115.3219742,https://maps.google.com/?cid=0x0:0x277bd1f772145b5,
cafe,cafe,Bali 80512,"Samplangan, Kec. Gianyar, Kabupaten Gianyar, Bali","Kabupaten Gianyar, Bali",BALI,,Indonesia,,,,-8.532747,115.3400575,https://maps.google.com/?cid=0x0:0x1c00c5eb6016be70,
cafe,Kafe,Genius Caf Gianyar,"Jl. Pantai Masceti, Medahan, Kec. Blahbatuh, Kabupaten Gianyar, Bali 80581","Medahan, Kec. Blahbatuh, Kabupaten Gianyar",BALI,80581.0,Indonesia,82236944873.0,,,-8.5762993,115.3381626,https://maps.google.com/?cid=0x0:0x23425b61f0a6922,
cafe,Restoran,Lukisan Coffee,"Jl. Kesatrian, Abianbase, Kec. Gianyar, Kabupaten Gianyar, Bali 80511","Abianbase, Kec. Gianyar, Kabupaten Gianyar",BALI,80511.0,Indonesia,8174777788.0,,,-8.5483094,115.3257706,https://maps.google.com/?cid=0x0:0xf41cf82a0a51bd54,
cafe,Restoran,",","Jl. Astina Timur No.10x, Samplangan, Kec. Gianyar, Kabupaten Gianyar, Bali 80512","Samplangan, Kec. Gianyar, Kabupaten Gianyar",BALI,80512.0,Indonesia,8123634917.0,,,-8.5395369,115.3398902,https://maps.google.com/?cid=0x0:0x86955c401df3b8e3,
cafe,Restoran,Warmmeet Gianyar,"Jl. Ciung Wanara-Gianyar No.88, Gianyar, Kec. Gianyar, Kabupaten Gianyar, Bali 80361","Gianyar, Kec. Gianyar, Kabupaten Gianyar",BALI,80361.0,Indonesia,,,,-8.5386393,115.3228113,https://maps.google.com/?cid=0x0:0x42587583efa033ee,
cafe,Restoran,Tefa Cafe Green,"Jalan Gunung Lempuyang , Selat, Samplangan, Kec. Gianyar, Bali 80512","Selat, Samplangan, Kec. Gianyar",BALI,80512.0,Indonesia,,,,-8.5335421,115.3352492,https://maps.google.com/?cid=0x0:0x84903d9bd8fc21b0,
cafe,Bubur,BUBUR BALI,"Jl. Bukit Buluh, Beng, Kec. Gianyar, Kabupaten Gianyar, Bali 80513","Beng, Kec. Gianyar, Kabupaten Gianyar",BALI,80513.0,Indonesia,81236151515.0,,,-8.5291858,115.325312,https://maps.google.com/?cid=0x0:0x31ced7008bd8632a,
cafe,Rumah Makan,Warong Legong,"Jalan Professor Doktor Ida Bagus Mantra No. 300A Keramas, Medahan, Kec. Blahbatuh, Kabupaten Gianyar, Bali","Kabupaten Gianyar, Bali",BALI,,Indonesia,82145011601.0,,,-8.5946372,115.3358249,https://maps.google.com/?cid=0x0:0x8ef8fcf999c8f3b8,
cafe,Rumah Makan,GRAHA WANGI,"Jl. Rambutan, Gianyar, Kec. Gianyar, Kabupaten Gianyar, Bali 80511","Gianyar, Kec. Gianyar, Kabupaten Gianyar",BALI,80511.0,Indonesia,,,,-8.5393893,115.327396,https://maps.google.com/?cid=0x0:0xa83c8e43f26435be,
cafe,Kedai Kopi,Laris Manis Kopi,"Jl. Manik No.3, Gianyar, Kec. Gianyar, Kabupaten Gianyar, Bali 80511","Gianyar, Kec. Gianyar, Kabupaten Gianyar",BALI,80511.0,Indonesia,,,,-8.5399128,115.3234313,https://maps.google.com/?cid=0x0:0x699e4b6ffa3ced27,
cafe,Kedai Kopi,OTG Coffee Shop Gianyar,"Jl. Dharma Giri No.1A, Gianyar, Kec. Gianyar, Kabupaten Gianyar, Bali 80511","Gianyar, Kec. Gianyar, Kabupaten Gianyar",BALI,80511.0,Indonesia,81338379776.0,,,-8.5410067,115.3220318,https://maps.google.com/?cid=0x0:0xa3478f54cbb3a830,
cafe,Kafe,Huma Cafe by Goldmine,"Jalan Cinta, Tegallalang, Kec. Tegallalang, Kabupaten Gianyar, Bali 80561","Tegallalang, Kec. Tegallalang, Kabupaten Gianyar",BALI,80561.0,Indonesia,82144363996.0,,,-8.4610161,115.2721347,https://maps.google.com/?cid=0x0:0xadf2e8a4e24cbd5c,
cafe,Kedai Kopi,cafe gianyar,"F848+J4C, Unnamed Road, Bitera, Kec. Gianyar, Kabupaten Gianyar, Bali 80515","Unnamed Road, Bitera, Kec. Gianyar, Kabupaten Gianyar",BALI,80515.0,Indonesia,,,,-8.5434277,115.3152805,https://maps.google.com/?cid=0x0:0x3070b76166e63fc6,
cafe,Brunch,KISSIDAN CAFE  RESTO,"Jl. Raya Sidan, Sidan, Kec. Gianyar, Kabupaten Gianyar, Bali 80515","Sidan, Kec. Gianyar, Kabupaten Gianyar",BALI,80515.0,Indonesia,87732185292.0,,,-8.5346392,115.347504,https://maps.google.com/?cid=0x0:0xbc34d344292148a2,
cafe,cafe,Kedai Kopi Siap,"Side of RS Sanjiwani, Gianyar, Kec. Gianyar, Kabupaten Gianyar, Bali","Kabupaten Gianyar, Bali",BALI,,Indonesia,81330932059.0,,,-8.5373253,115.3219742,https://maps.google.com/?cid=0x0:0x277bd1f772145b5,
cafe,Restoran,WDG - Warung Dajan Gereja Gianyar,"F87F+WWV, Jl. Burung Gereja, Beng, Kec. Gianyar, Kabupaten Gianyar, Bali 80513","Jl. Burung Gereja, Beng, Kec. Gianyar, Kabupaten Gianyar",BALI,80513.0,Indonesia,81934390407.0,,,-8.5351414,115.3248018,https://maps.google.com/?cid=0x0:0x7e21a7c44ec991e2,
cafe,Kafe,Caffe Happy,"Beng, Kec. Gianyar, Kabupaten Gianyar, Bali 80512","Kec. Gianyar, Kabupaten Gianyar",BALI,80512.0,Indonesia,81803192808.0,,,-8.5358361,115.3325369,https://maps.google.com/?cid=0x0:0xbe8ab38d63c97a40,
cafe,Bali,Warung Babi Guling Pande Egi,"Banjar Pande, Beng, Kec. Gianyar, Kabupaten Gianyar, Bali 80513","Beng, Kec. Gianyar, Kabupaten Gianyar",BALI,80513.0,Indonesia,87883328808.0,,,-8.526876,115.3248255,https://maps.google.com/?cid=0x0:0x9469d9bb05940a59,
cafe,Restoran,GUGELL FOOD  DRINK,"Jl. Astina Timur No.38, Samplangan, Kec. Gianyar, Kabupaten Gianyar, Bali 80512","Samplangan, Kec. Gianyar, Kabupaten Gianyar",BALI,80512.0,Indonesia,85738589429.0,,,-8.5394413,115.3409016,https://maps.google.com/?cid=0x0:0x42dfc4b7ef0a03c7,
cafe,Kedai Kopi,Vunja Coffee,"Jl. Raya Petemon No.Br, Pejeng Kelod, Kec. Tampaksiring, Kabupaten Gianyar, Bali 80552","Pejeng Kelod, Kec. Tampaksiring, Kabupaten Gianyar",BALI,80552.0,Indonesia,82247981420.0,,,-8.5174597,115.3039756,https://maps.google.com/?cid=0x0:0x543481fba253da57,
cafe,Kafe,High5 Cafetaria,"Jl. Raya Semebaung No.2, Bedulu, Kec. Blahbatuh, Kabupaten Gianyar, Bali 80581","Bedulu, Kec. Blahbatuh, Kabupaten Gianyar",BALI,80581.0,Indonesia,81805504666.0,,,-8.5344284,115.3048676,https://maps.google.com/?cid=0x0:0x27ab1519f69f4f4e,
cafe,Restoran,Simpel Kopi,"Jl. Ir. Sutami, Kemenuh, Kec. Sukawati, Kabupaten Gianyar, Bali","Kabupaten Gianyar, Bali",BALI,,Indonesia,87761543732.0,,,-8.553818,115.2852444,https://maps.google.com/?cid=0x0:0xf71f7cdda0f92991,
cafe,Restoran,StarPizza Gianyar,"Jl. Kebo Iwa No.27, Gianyar, Kec. Gianyar, Kabupaten Gianyar, Bali 80512","Gianyar, Kec. Gianyar, Kabupaten Gianyar",BALI,80512.0,Indonesia,81818276655.0,,,-8.5457904,115.3226637,https://maps.google.com/?cid=0x0:0xb33a19f76290819e,
cafe,Kedai Kopi,TOMORO COFFEE - Gianyar,"F859+J3C, Jl. Lingkungan, Candi Baru, Kec. Gianyar, Kabupaten Gianyar, Bali 80515","Jl. Lingkungan, Candi Baru, Kec. Gianyar, Kabupaten Gianyar",BALI,80515.0,Indonesia,,,,-8.54093,115.3176454,https://maps.google.com/?cid=0x0:0x2179f15036da6f70,
cafe,Kedai Kopi,Grand Sweet Coffee,"Jl. Ratna II No.07, Tegal Tugu, Kec. Gianyar, Kabupaten Gianyar, Bali 80515","Tegal Tugu, Kec. Gianyar, Kabupaten Gianyar",BALI,80515.0,Indonesia,82219726698.0,,,-8.5471724,115.3339087,https://maps.google.com/?cid=0x0:0x5d083fb6904a00fd,
cafe,Kedai Kopi,Yooji Cafe,"Jl. Dharma Giri, Bitera, Kec. Gianyar, Kabupaten Gianyar, Bali 80511","Bitera, Kec. Gianyar, Kabupaten Gianyar",BALI,80511.0,Indonesia,81337157843.0,,,-8.5429621,115.3143684,https://maps.google.com/?cid=0x0:0x9f0f35da567b4be,
cafe,Kedai Kopi,Sore coffee  Eatery,"97V2+V6J Tegal Temu Space, Jl. Pura Dalem Tegal Tamu, Tegaltamu, Batubulan, Kec. Sukawati, Kabupaten Gianyar, Bali 80582","Jl. Pura Dalem Tegal Tamu, Tegaltamu, Batubulan, Kec. Sukawati, Kabupaten Gianyar",BALI,80582.0,Indonesia,85792120163.0,,,-8.6055919,115.2505208,https://maps.google.com/?cid=0x0:0xa52d6fcd849cae60,
cafe,Kedai Kopi,Hanzho Coffee,"Jl. Raya Semebaung, Bedulu, Kec. Blahbatuh, Kabupaten Gianyar, Bali 80581","Bedulu, Kec. Blahbatuh, Kabupaten Gianyar",BALI,80581.0,Indonesia,85792310224.0,,,-8.5346938,115.3070487,https://maps.google.com/?cid=0x0:0x5ac72792fc4411d,
cafe,cafe,Bali 80513,"Kec. Gianyar, Kabupaten Gianyar, Bali","Kabupaten Gianyar, Bali",BALI,,Indonesia,,,,-8.5273675,115.3267245,https://maps.google.com/?cid=0x0:0x726f6b72398c7c97,
cafe,Kedai Kopi,Ejji Coffee Dharmagiri Gianyar District 24,"Jl. Dharma Giri No.18c, Gianyar, Kec. Gianyar, Kabupaten Gianyar, Bali 80511","Gianyar, Kec. Gianyar, Kabupaten Gianyar",BALI,80511.0,Indonesia,81337313650.0,,,-8.5409317,115.3195822,https://maps.google.com/?cid=0x0:0x1195cdf6996fd4d8,
cafe,Kafe,Genius Caf Gianyar,"Jl. Pantai Masceti, Medahan, Kec. Blahbatuh, Kabupaten Gianyar, Bali 80581","Medahan, Kec. Blahbatuh, Kabupaten Gianyar",BALI,80581.0,Indonesia,82236944873.0,,,-8.5762993,115.3381626,https://maps.google.com/?cid=0x0:0x23425b61f0a6922,
cafe,Restoran,WDG - Warung Dajan Gereja Gianyar,"F87F+WWV, Jl. Burung Gereja, Beng, Kec. Gianyar, Kabupaten Gianyar, Bali 80513","Jl. Burung Gereja, Beng, Kec. Gianyar, Kabupaten Gianyar",BALI,80513.0,Indonesia,81934390407.0,,,-8.5351414,115.3248018,https://maps.google.com/?cid=0x0:0x7e21a7c44ec991e2,
cafe,Restoran,Warmmeet Gianyar,"Jl. Ciung Wanara-Gianyar No.88, Gianyar, Kec. Gianyar, Kabupaten Gianyar, Bali 80361","Gianyar, Kec. Gianyar, Kabupaten Gianyar",BALI,80361.0,Indonesia,,,,-8.5386393,115.3228113,https://maps.google.com/?cid=0x0:0x42587583efa033ee,
cafe,Kedai Kopi,Weka Coffee  Eatery,"Jl. Sawo, Bitera, Kec. Gianyar, Kabupaten Gianyar, Bali 80511","Bitera, Kec. Gianyar, Kabupaten Gianyar",BALI,80511.0,Indonesia,81353671559.0,,,-8.5193299,115.3208659,https://maps.google.com/?cid=0x0:0x4ba0d476e241e2a1,
cafe,Bubur,BUBUR BALI,"Jl. Bukit Buluh, Beng, Kec. Gianyar, Kabupaten Gianyar, Bali 80513","Beng, Kec. Gianyar, Kabupaten Gianyar",BALI,80513.0,Indonesia,81236151515.0,,,-8.5291858,115.325312,https://maps.google.com/?cid=0x0:0x31ced7008bd8632a,
cafe,Kedai Kopi,Rumalogy Coffee  Kitchen,"Jl. Sinta Jl. Raya Tugu Pahlawan No.mor 52, Bitera, Kec. Gianyar, Kabupaten Gianyar, Bali 80581","Bitera, Kec. Gianyar, Kabupaten Gianyar",BALI,80581.0,Indonesia,81239528912.0,,,-8.5477611,115.3173305,https://maps.google.com/?cid=0x0:0xa7f6a0df8c2fd119,
cafe,Bali,Warung Babi Guling Pande Egi,"Banjar Pande, Beng, Kec. Gianyar, Kabupaten Gianyar, Bali 80513","Beng, Kec. Gianyar, Kabupaten Gianyar",BALI,80513.0,Indonesia,87883328808.0,,,-8.526876,115.3248255,https://maps.google.com/?cid=0x0:0x9469d9bb05940a59,
cafe,Kedai Kopi,Sore coffee  Eatery,"97V2+V6J Tegal Temu Space, Jl. Pura Dalem Tegal Tamu, Tegaltamu, Batubulan, Kec. Sukawati, Kabupaten Gianyar, Bali 80582","Jl. Pura Dalem Tegal Tamu, Tegaltamu, Batubulan, Kec. Sukawati, Kabupaten Gianyar",BALI,80582.0,Indonesia,85792120163.0,,,-8.6055919,115.2505208,https://maps.google.com/?cid=0x0:0xa52d6fcd849cae60,
cafe,Rumah Makan,GRAHA WANGI,"Jl. Rambutan, Gianyar, Kec. Gianyar, Kabupaten Gianyar, Bali 80511","Gianyar, Kec. Gianyar, Kabupaten Gianyar",BALI,80511.0,Indonesia,,,,-8.5393893,115.327396,https://maps.google.com/?cid=0x0:0xa83c8e43f26435be,
cafe,Restoran,Kanto Lampo Warung,"Jl. Kanto Lampo Waterfall, Beng, Kec. Gianyar, Kabupaten Gianyar, Bali 80513","Beng, Kec. Gianyar, Kabupaten Gianyar",BALI,80513.0,Indonesia,85858291601.0,,,-8.5323872,115.3323587,https://maps.google.com/?cid=0x0:0x5fec077703ca751d,
cafe,Kedai Kopi,Raditya Cafe,"Banjar Bangkiangsidem, Desa/ Kel Keliki, Kec. Tegalalang, Kec. Gianyar, Kabupaten Gianyar, Bali 80361","Desa/ Kel Keliki, Kec. Tegalalang, Kec. Gianyar, Kabupaten Gianyar",BALI,80361.0,Indonesia,87860086447.0,,,-8.4886763,115.2582505,https://maps.google.com/?cid=0x0:0x78b12422ff69ee47,
cafe,Kedai Kopi,Kukamu Eatery Cafe,"Jl. Dharma Giri No.88, Gianyar, Kec. Gianyar, Kabupaten Gianyar, Bali 80511","Gianyar, Kec. Gianyar, Kabupaten Gianyar",BALI,80511.0,Indonesia,87735903910.0,,,-8.5409821,115.3200439,https://maps.google.com/?cid=0x0:0x2a296276206124e,
cafe,Restoran,Tefa Cafe Green,"Jalan Gunung Lempuyang , Selat, Samplangan, Kec. Gianyar, Bali 80512","Selat, Samplangan, Kec. Gianyar",BALI,80512.0,Indonesia,,,,-8.5335421,115.3352492,https://maps.google.com/?cid=0x0:0x84903d9bd8fc21b0,
cafe,Kedai Kopi,Vunja Coffee,"Jl. Raya Petemon No.Br, Pejeng Kelod, Kec. Tampaksiring, Kabupaten Gianyar, Bali 80552","Pejeng Kelod, Kec. Tampaksiring, Kabupaten Gianyar",BALI,80552.0,Indonesia,82247981420.0,,,-8.5174597,115.3039756,https://maps.google.com/?cid=0x0:0x543481fba253da57,
cafe,Restoran,Living Life Coffee Eatery,"Jl. Ir. Sutami, Kemenuh, Kec. Sukawati, Kabupaten Gianyar, Bali 80582","Kemenuh, Kec. Sukawati, Kabupaten Gianyar",BALI,80582.0,Indonesia,82311917509.0,,,-8.5477866,115.2815372,https://maps.google.com/?cid=0x0:0xbfb3e07b3c288248,
cafe,Restoran,Simpel Kopi,"Jl. Ir. Sutami, Kemenuh, Kec. Sukawati, Kabupaten Gianyar, Bali","Kabupaten Gianyar, Bali",BALI,,Indonesia,87761543732.0,,,-8.553818,115.2852444,https://maps.google.com/?cid=0x0:0xf71f7cdda0f92991,
cafe,cafe,Kedai Kopi Siap,"Side of RS Sanjiwani, Gianyar, Kec. Gianyar, Kabupaten Gianyar, Bali","Kabupaten Gianyar, Bali",BALI,,Indonesia,81330932059.0,,,-8.5373253,115.3219742,https://maps.google.com/?cid=0x0:0x277bd1f772145b5,
cafe,Restoran,Lukisan Coffee,"Jl. Kesatrian, Abianbase, Kec. Gianyar, Kabupaten Gianyar, Bali 80511","Abianbase, Kec. Gianyar, Kabupaten Gianyar",BALI,80511.0,Indonesia,8174777788.0,,,-8.5483094,115.3257706,https://maps.google.com/?cid=0x0:0xf41cf82a0a51bd54,
cafe,Kafe,"Sweet Bar, Gianyar","Jl. Dharma Giri No.97A, Bitera, Kec. Gianyar, Kabupaten Gianyar, Bali 80515","Bitera, Kec. Gianyar, Kabupaten Gianyar",BALI,80515.0,Indonesia,82322667797.0,,,-8.5416076,115.3143072,https://maps.google.com/?cid=0x0:0xab9366ef19abb59d,
cafe,Restoran,Ning's Coffee  Eatery,"Sumampan, Jl. Ir. Sutami, Kemenuh, Kec. Sukawati, Kabupaten Gianyar, Bali","Kabupaten Gianyar, Bali",BALI,,Indonesia,83115183927.0,,,-8.5551594,115.2858907,https://maps.google.com/?cid=0x0:0x69ae74010627206c,
cafe,Kedai Kopi,Yooji Cafe,"Jl. Dharma Giri, Bitera, Kec. Gianyar, Kabupaten Gianyar, Bali 80511","Bitera, Kec. Gianyar, Kabupaten Gianyar",BALI,80511.0,Indonesia,81337157843.0,,,-8.5429621,115.3143684,https://maps.google.com/?cid=0x0:0x9f0f35da567b4be,
cafe,Kedai Kopi,KASATMATA_bali,"F87J+M66, Jl. Bukit Jati, Gianyar, Kec. Gianyar, Kabupaten Gianyar, Bali 80511","Jl. Bukit Jati, Gianyar, Kec. Gianyar, Kabupaten Gianyar",BALI,80511.0,Indonesia,81529834711.0,,,-8.5358322,115.3305031,https://maps.google.com/?cid=0x0:0x3bbc2c52861b2390,
cafe,cafe,Bali 80515,"Kec. Gianyar, Kabupaten Gianyar, Bali","Kabupaten Gianyar, Bali",BALI,,Indonesia,,,,-8.5169426,115.3133908,https://maps.google.com/?cid=0x0:0x1c00c5eb6016be90,
cafe,Kedai Kopi,TOMORO COFFEE - Gianyar,"F859+J3C, Jl. Lingkungan, Candi Baru, Kec. Gianyar, Kabupaten Gianyar, Bali 80515","Jl. Lingkungan, Candi Baru, Kec. Gianyar, Kabupaten Gianyar",BALI,80515.0,Indonesia,,,,-8.54093,115.3176454,https://maps.google.com/?cid=0x0:0x2179f15036da6f70,
cafe,Restoran,Lukisan Coffee,"Jl. Kesatrian, Abianbase, Kec. Gianyar, Kabupaten Gianyar, Bali 80511","Abianbase, Kec. Gianyar, Kabupaten Gianyar",BALI,80511.0,Indonesia,8174777788.0,,,-8.5483094,115.3257706,https://maps.google.com/?cid=0x0:0xf41cf82a0a51bd54,
cafe,Kedai Kopi,Ejji Coffee Dharmagiri Gianyar District 24,"Jl. Dharma Giri No.18c, Gianyar, Kec. Gianyar, Kabupaten Gianyar, Bali 80511","Gianyar, Kec. Gianyar, Kabupaten Gianyar",BALI,80511.0,Indonesia,81337313650.0,,,-8.5409317,115.3195822,https://maps.google.com/?cid=0x0:0x1195cdf6996fd4d8,
cafe,Kedai Kopi,Hanzho Coffee,"Jl. Raya Semebaung, Bedulu, Kec. Blahbatuh, Kabupaten Gianyar, Bali 80581","Bedulu, Kec. Blahbatuh, Kabupaten Gianyar",BALI,80581.0,Indonesia,85792310224.0,,,-8.5346938,115.3070487,https://maps.google.com/?cid=0x0:0x5ac72792fc4411d,
cafe,Indonesia,NGERODOK RESTO,"Jl. Mulawarman No.132A, Abianbase, Kec. Gianyar, Kabupaten Gianyar, Bali 80515","Abianbase, Kec. Gianyar, Kabupaten Gianyar",BALI,80515.0,Indonesia,81913328626.0,,,-8.5527923,115.3268921,https://maps.google.com/?cid=0x0:0xedc8bb4db6aae0e3,
cafe,Kedai Kopi,satusatu kopi,"Jl. Triwanasa kawan, Bakbakan, Kec. Gianyar, Kabupaten Gianyar, Bali 80515","Bakbakan, Kec. Gianyar, Kabupaten Gianyar",BALI,80515.0,Indonesia,,,,-8.5044932,115.3210595,https://maps.google.com/?cid=0x0:0x68bc5d8ff85b014e,
cafe,Kafe,Genius Caf Gianyar,"Jl. Pantai Masceti, Medahan, Kec. Blahbatuh, Kabupaten Gianyar, Bali 80581","Medahan, Kec. Blahbatuh, Kabupaten Gianyar",BALI,80581.0,Indonesia,82236944873.0,,,-8.5762993,115.3381626,https://maps.google.com/?cid=0x0:0x23425b61f0a6922,
cafe,Kedai Kopi,Raditya Cafe,"Banjar Bangkiangsidem, Desa/ Kel Keliki, Kec. Tegalalang, Kec. Gianyar, Kabupaten Gianyar, Bali 80361","Desa/ Kel Keliki, Kec. Tegalalang, Kec. Gianyar, Kabupaten Gianyar",BALI,80361.0,Indonesia,87860086447.0,,,-8.4886763,115.2582505,https://maps.google.com/?cid=0x0:0x78b12422ff69ee47,
cafe,Kafe,RICALLA KOPI,"tedung, Jl. Mulawarman, Abianbase, Kec. Gianyar, Kabupaten Gianyar, Bali 80515","Jl. Mulawarman, Abianbase, Kec. Gianyar, Kabupaten Gianyar",BALI,80515.0,Indonesia,,,,-8.5580152,115.3274105,https://maps.google.com/?cid=0x0:0x808507b1a2ac1810,
cafe,Klub Sepak Bola,Bali United Cafe,"Jl. Tribun Tenggara, Buruan, Kec. Blahbatuh, Kabupaten Gianyar, Bali 80581","Buruan, Kec. Blahbatuh, Kabupaten Gianyar",BALI,80581.0,Indonesia,88801888888.0,,,-8.5474549,115.3059314,https://maps.google.com/?cid=0x0:0xd52ce9c7f95c3f85,
cafe,Kedai Kopi,Vunja Coffee,"Jl. Raya Petemon No.Br, Pejeng Kelod, Kec. Tampaksiring, Kabupaten Gianyar, Bali 80552","Pejeng Kelod, Kec. Tampaksiring, Kabupaten Gianyar",BALI,80552.0,Indonesia,82247981420.0,,,-8.5174597,115.3039756,https://maps.google.com/?cid=0x0:0x543481fba253da57,
cafe,Kedai Kopi,Daily Coffee,"Jl. Sawo No.89-8, Bitera, Kec. Gianyar, Kabupaten Gianyar, Bali 80515","Bitera, Kec. Gianyar, Kabupaten Gianyar",BALI,80515.0,Indonesia,85857753885.0,,,-8.5289592,115.318821,https://maps.google.com/?cid=0x0:0x760a1aaacbc758a1,
cafe,Restoran,Warmmeet Gianyar,"Jl. Ciung Wanara-Gianyar No.88, Gianyar, Kec. Gianyar, Kabupaten Gianyar, Bali 80361","Gianyar, Kec. Gianyar, Kabupaten Gianyar",BALI,80361.0,Indonesia,,,,-8.5386393,115.3228113,https://maps.google.com/?cid=0x0:0x42587583efa033ee,
cafe,Kedai Kopi,Weka Coffee  Eatery,"Jl. Sawo, Bitera, Kec. Gianyar, Kabupaten Gianyar, Bali 80511","Bitera, Kec. Gianyar, Kabupaten Gianyar",BALI,80511.0,Indonesia,81353671559.0,,,-8.5193299,115.3208659,https://maps.google.com/?cid=0x0:0x4ba0d476e241e2a1,
cafe,Kedai Kopi,Sore coffee  Eatery,"97V2+V6J Tegal Temu Space, Jl. Pura Dalem Tegal Tamu, Tegaltamu, Batubulan, Kec. Sukawati, Kabupaten Gianyar, Bali 80582","Jl. Pura Dalem Tegal Tamu, Tegaltamu, Batubulan, Kec. Sukawati, Kabupaten Gianyar",BALI,80582.0,Indonesia,85792120163.0,,,-8.6055919,115.2505208,https://maps.google.com/?cid=0x0:0xa52d6fcd849cae60,
cafe,Kafe,"Sweet Bar, Gianyar","Jl. Dharma Giri No.97A, Bitera, Kec. Gianyar, Kabupaten Gianyar, Bali 80515","Bitera, Kec. Gianyar, Kabupaten Gianyar",BALI,80515.0,Indonesia,82322667797.0,,,-8.5416076,115.3143072,https://maps.google.com/?cid=0x0:0xab9366ef19abb59d,
cafe,Kafe,99 coffee,"Jl. Dharma Giri No.100X, Bitera, Kec. Gianyar, Kabupaten Gianyar, Bali 80515","Bitera, Kec. Gianyar, Kabupaten Gianyar",BALI,80515.0,Indonesia,,,,-8.5438075,115.3142739,https://maps.google.com/?cid=0x0:0x87df06ee20355343,
cafe,Kedai Kopi,Rumalogy Coffee  Kitchen,"Jl. Sinta Jl. Raya Tugu Pahlawan No.mor 52, Bitera, Kec. Gianyar, Kabupaten Gianyar, Bali 80581","Bitera, Kec. Gianyar, Kabupaten Gianyar",BALI,80581.0,Indonesia,81239528912.0,,,-8.5477611,115.3173305,https://maps.google.com/?cid=0x0:0xa7f6a0df8c2fd119,
cafe,Rumah wisata,Yeh Pulu Cafe,"F7CV+45G Br. Batulumbang, Jl. Yeh Pulu, Bedulu, Kec. Blahbatuh, Kabupaten Gianyar, Bali 80581","Jl. Yeh Pulu, Bedulu, Kec. Blahbatuh, Kabupaten Gianyar",BALI,80581.0,Indonesia,87761257848.0,,,-8.5296983,115.2929774,https://maps.google.com/?cid=0x0:0x5afd61c7650ebf1b,
cafe,Restoran,Kebab My kitchen  Kopi dari hati gianyar ( Halal ),"Jl. Raya Semebaung, Bedulu, Kec. Blahbatuh, Kabupaten Gianyar, Bali 80581","Bedulu, Kec. Blahbatuh, Kabupaten Gianyar",BALI,80581.0,Indonesia,82144945564.0,,,-8.534944,115.3069783,https://maps.google.com/?cid=0x0:0x9120f02e323aea3,
cafe,Kedai Kopi,Yooji Cafe,"Jl. Dharma Giri, Bitera, Kec. Gianyar, Kabupaten Gianyar, Bali 80511","Bitera, Kec. Gianyar, Kabupaten Gianyar",BALI,80511.0,Indonesia,81337157843.0,,,-8.5429621,115.3143684,https://maps.google.com/?cid=0x0:0x9f0f35da567b4be,
cafe,Kafe,MY Cantine,"Jl. Tatiapi-Puseh, Pejeng Kawan, Kec. Tampaksiring, Kabupaten Gianyar, Bali 80552","Pejeng Kawan, Kec. Tampaksiring, Kabupaten Gianyar",BALI,80552.0,Indonesia,81238294332.0,,,-8.5112057,115.2882444,https://maps.google.com/?cid=0x0:0xd3259080eb02295f,
cafe,Rumah Makan,GRAHA WANGI,"Jl. Rambutan, Gianyar, Kec. Gianyar, Kabupaten Gianyar, Bali 80511","Gianyar, Kec. Gianyar, Kabupaten Gianyar",BALI,80511.0,Indonesia,,,,-8.5393893,115.327396,https://maps.google.com/?cid=0x0:0xa83c8e43f26435be,
cafe,Kafe,Riung Cafe at Ruangriung,"Jl. Raya Pantai Lebih, Lebih, Kec. Gianyar, Kabupaten Gianyar, Bali 80515","Lebih, Kec. Gianyar, Kabupaten Gianyar",BALI,80515.0,Indonesia,87759872550.0,,,-8.5694472,115.3476505,https://maps.google.com/?cid=0x0:0x7d59d9e3ecd2f691,
cafe,Kedai Kopi,Grand Sweet Coffee,"Jl. Ratna II No.07, Tegal Tugu, Kec. Gianyar, Kabupaten Gianyar, Bali 80515","Tegal Tugu, Kec. Gianyar, Kabupaten Gianyar",BALI,80515.0,Indonesia,82219726698.0,,,-8.5471724,115.3339087,https://maps.google.com/?cid=0x0:0x5d083fb6904a00fd,
cafe,Kedai Kopi,Kopi Tepuk,"Jl. Kenumang No.18, Gianyar, Kec. Gianyar, Kabupaten Gianyar, Bali 80511","Gianyar, Kec. Gianyar, Kabupaten Gianyar",BALI,80511.0,Indonesia,85100915169.0,,,-8.5424643,115.3205519,https://maps.google.com/?cid=0x0:0x780ce440dee9019e,
cafe,cafe,Bali 80572,"Kec. Payangan, Kabupaten Gianyar, Bali","Kabupaten Gianyar, Bali",BALI,,Indonesia,,,,-8.3752579,115.2481959,https://maps.google.com/?cid=0x0:0x1c00c5eb6016bee0,
cafe,Sesuai untuk keluarga,DRANIK CAFE AND RESTO,"Jl. Bangkiang Sidem, Ubud, Kec. Payangan, Kabupaten Gianyar, Bali","Kabupaten Gianyar, Bali",BALI,,Indonesia,,,,-8.4870106,115.2585598,https://maps.google.com/?cid=0x0:0x2e3c53ae257d2ed0,
cafe,Kedai Kopi,Edery Cafe,"Br, Jl. Bayad Jl. Raya Payangan, Melinggih Kelod, Payangan, Gianyar Regency, Bali 80572","Jl. Bayad Jl. Raya Payangan, Melinggih Kelod, Payangan, Gianyar Regency",BALI,80572.0,Indonesia,,,,-8.4550749,115.2433304,https://maps.google.com/?cid=0x0:0x272e01a3a7f26bc4,
cafe,Brunch,Uma Lambha,"J749+VPX, Puhu, Kec. Payangan, Kabupaten Gianyar, Bali 80572","Puhu, Kec. Payangan, Kabupaten Gianyar",BALI,80572.0,Indonesia,,,,-8.3926459,115.2694566,https://maps.google.com/?cid=0x0:0xc668d2af8e50c24d,
cafe,Kedai Kopi,Kopi Bali Dadong Gabin,"H6CR+5W3, Melinggih, Kec. Payangan, Kabupaten Gianyar, Bali 80572","Melinggih, Kec. Payangan, Kabupaten Gianyar",BALI,80572.0,Indonesia,,,,-8.4298292,115.2421466,https://maps.google.com/?cid=0x0:0xb7ccfa09e37becd,
cafe,Prasmanan,Pool Cafe  Bar Padma Resort Ubud,"J78F+6WP, Br. Carik, Puhu, Kec. Payangan, Kabupaten Gianyar, Bali 80572","Br. Carik, Puhu, Kec. Payangan, Kabupaten Gianyar",BALI,80572.0,Indonesia,3613011111.0,,,-8.3844177,115.2748156,https://maps.google.com/?cid=0x0:0x857d7f382aaa649c,
cafe,Restoran,Cretya Sunset,"Jl. Raya Bresela No.8, Bresela, Kec. Payangan, Kabupaten Gianyar, Bali 80572","Bresela, Kec. Payangan, Kabupaten Gianyar",BALI,80572.0,Indonesia,85337230775.0,,,-8.4304538,115.2691663,https://maps.google.com/?cid=0x0:0x35afc9522739018b,
cafe,Kedai Kopi,Raditya Cafe,"Banjar Bangkiangsidem, Desa/ Kel Keliki, Kec. Tegalalang, Kec. Gianyar, Kabupaten Gianyar, Bali 80361","Desa/ Kel Keliki, Kec. Tegalalang, Kec. Gianyar, Kabupaten Gianyar",BALI,80361.0,Indonesia,87860086447.0,,,-8.4886763,115.2582505,https://maps.google.com/?cid=0x0:0x78b12422ff69ee47,
cafe,Restoran,Pawana Resto,"Br, Beresela, Payangan, Gianyar Regency, Bali","Kabupaten Gianyar, Bali",BALI,,Indonesia,83125859696.0,,,-8.4237113,115.2704205,https://maps.google.com/?cid=0x0:0x429f7c9974313276,
cafe,Restoran,The Puhu Restaurant  Lounge,"Banjar Ambengan, Jalan Glogor Carik, Puhu, Kec. Payangan, Kabupaten Gianyar, Bali 80572","Jalan Glogor Carik, Puhu, Kec. Payangan, Kabupaten Gianyar",BALI,80572.0,Indonesia,3613011111.0,,,-8.383936,115.2747092,https://maps.google.com/?cid=0x0:0x6a9552ef94ad0e67,
cafe,Kebun Buah,Bali Pulina,"Jl. Raya Pujung Kaja, Sebatu, Kec. Tegallalang, Kabupaten Gianyar, Bali 80561","Sebatu, Kec. Tegallalang, Kabupaten Gianyar",BALI,80561.0,Indonesia,811394462.0,,,-8.422796,115.2790384,https://maps.google.com/?cid=0x0:0x46117dc3c84b0af2,
cafe,Restoran,Warung Bu Manis payangan,"br.penyabangan, Jl. Raya Payangan, Kerta, Kec. Payangan, Kabupaten Gianyar, Bali 80572","Jl. Raya Payangan, Kerta, Kec. Payangan, Kabupaten Gianyar",BALI,80572.0,Indonesia,85829719120.0,,,-8.3529735,115.277355,https://maps.google.com/?cid=0x0:0x473e6d87ebed6e2b,
cafe,Rumah Pondokan,Pondok Kopi Bali Semadi,"J788+F98, Jl.Semadi, Puhu, Kec. Payangan, Kabupaten Gianyar, Bali 80572","Jl.Semadi, Puhu, Kec. Payangan, Kabupaten Gianyar",BALI,80572.0,Indonesia,85237602222.0,,,-8.3838375,115.2659592,https://maps.google.com/?cid=0x0:0xd216d4c910b6952f,
cafe,Restoran,Kepitu Restaurant,"Banjar Bresela Desa Bresela, Payangan, Kecamatan Ubud, Bali 80572","Payangan, Kecamatan Ubud",BALI,80572.0,Indonesia,361978098.0,,,-8.4231078,115.275087,https://maps.google.com/?cid=0x0:0x848377758da7fc2b,
cafe,Hotel,Sanggraloka Farm,"Jl. Raya Bresela, Bresela, Kec. Payangan, Kabupaten Gianyar, Bali 80361","Bresela, Kec. Payangan, Kabupaten Gianyar",BALI,80361.0,Indonesia,,,,-8.4228433,115.2653445,https://maps.google.com/?cid=0x0:0x75f7d2f2c4261d29,
cafe,Toko Roti,Kakiang Garden Cafe,"Jalan Raya Andong Petulu Ubud, Petulu, Kec. Gianyar, Kabupaten Gianyar, Bali 80571","Petulu, Kec. Gianyar, Kabupaten Gianyar",BALI,80571.0,Indonesia,81339512524.0,,,-8.4975494,115.2728282,https://maps.google.com/?cid=0x0:0x87e6ea4e861ff424,
cafe,Brunch,Jack fruit restaurant,"H6MW+VJ, Melinggih, Kec. Payangan, Kabupaten Gianyar, Bali","Kabupaten Gianyar, Bali",BALI,,Indonesia,81237893970.0,,,-8.4153505,115.2465827,https://maps.google.com/?cid=0x0:0xe087833b37d3f6f5,
cafe,Kafe,Warung Tuali,"H6JQ+WXV, Br. Payangan Desa, Payangan, Gianyar Regency, Bali","Kabupaten Gianyar, Bali",BALI,,Indonesia,82236640717.0,,,-8.4176267,115.2399323,https://maps.google.com/?cid=0x0:0x687ce4f64931f50,
cafe,Bali,Maukar Wooden House,"Kerta, Kec. Payangan, Kabupaten Gianyar, Bali 80572","Kec. Payangan, Kabupaten Gianyar",BALI,80572.0,Indonesia,81385726220.0,,,-8.3603271,115.2744535,https://maps.google.com/?cid=0x0:0x4f823903de44c6da,
cafe,Kedai Kopi,Makanan  Minuman,"Jl. Raya Payangan No.Br, Melinggih, Kec. Payangan, Kabupaten Gianyar, Bali 80572","Melinggih, Kec. Payangan, Kabupaten Gianyar",BALI,80572.0,Indonesia,85961518001.0,,,-8.4220668,115.2448218,https://maps.google.com/?cid=0x0:0x850bddbea71fa46b,
cafe,cafe,Potok billuk,"H6VX+WRF, Jl. Raya Pondokan Semaon, Puhu, Kec. Payangan, Kabupaten Gianyar, Bali 80572","Jl. Raya Pondokan Semaon, Puhu, Kec. Payangan, Kabupaten Gianyar",BALI,80572.0,Indonesia,,,,-8.4051754,115.2495511,https://maps.google.com/?cid=0x0:0xc34ec7fc2d713409,
cafe,Restoran,Bali Jegeg WMKK,"Jl. Raya Payangan, Kerta, Kec. Payangan, Kabupaten Gianyar, Bali 80572","Kerta, Kec. Payangan, Kabupaten Gianyar",BALI,80572.0,Indonesia,87860471911.0,,,-8.3424019,115.2809454,https://maps.google.com/?cid=0x0:0x37832bb7f05108ba,
cafe,Kafe,Tamian Cafe,"Jl. Bangkiang Sidem, Kelusa, Kec. Payangan, Kabupaten Gianyar, Bali 80561","Kelusa, Kec. Payangan, Kabupaten Gianyar",BALI,80561.0,Indonesia,81246572661.0,,,-8.4906298,115.2581453,https://maps.google.com/?cid=0x0:0xa616a391f533b16e,
cafe,Restoran,Warung /4BUKIAN,"H7V8+974, Br, Desa, Bukian, Kec. Payangan, Kabupaten Gianyar, Bali 80572","Br, Desa, Bukian, Kec. Payangan, Kabupaten Gianyar",BALI,80572.0,Indonesia,85829034604.0,,,-8.4066133,115.2657006,https://maps.google.com/?cid=0x0:0x6f41da5d1c635802,
cafe,Rumah Makan,KULINER GARBHA,"H6HV+2X9, Jl. Raya Payangan, Melinggih, Kec. Payangan, Kabupaten Gianyar, Bali 80572","Jl. Raya Payangan, Melinggih, Kec. Payangan, Kabupaten Gianyar",BALI,80572.0,Indonesia,81234564557.0,,,-8.4224693,115.2449742,https://maps.google.com/?cid=0x0:0x476a2759a7198cca,
cafe,Dapur Umum,Gerobak Ungu,"H6RW+852, Jl. Raya, Puhu, Kec. Payangan, Kabupaten Gianyar, Bali 80572","Jl. Raya, Puhu, Kec. Payangan, Kabupaten Gianyar",BALI,80572.0,Indonesia,81238466325.0,,,-8.4092302,115.2453965,https://maps.google.com/?cid=0x0:0xeca083bfa50a3ae5,
cafe,Donat,Gulali Donuts,"Jl. Raya Payangan No.27, Melinggih, Kec. Payangan, Kabupaten Gianyar, Bali 80572","Melinggih, Kec. Payangan, Kabupaten Gianyar",BALI,80572.0,Indonesia,,,,-8.4358041,115.2448705,https://maps.google.com/?cid=0x0:0xb680eec8bc8c5a97,
cafe,Makanan Kecil,Lesehan Doenk'Y,"Jl. Raya Semaon, Puhu, Kec. Payangan, Kabupaten Gianyar, Bali 80572","Puhu, Kec. Payangan, Kabupaten Gianyar",BALI,80572.0,Indonesia,85100000544.0,,,-8.4090891,115.2457407,https://maps.google.com/?cid=0x0:0x1aa4d3960a80fe88,
cafe,cafe,Sukawati,"Guwang, Kec. Sukawati, Kabupaten Gianyar, Bali","Kabupaten Gianyar, Bali",BALI,,Indonesia,,,,-8.605564,115.280502,https://maps.google.com/?cid=0x0:0x3d33c5a58391e773,
cafe,Restoran,kulidancoffee,"97PW+39W, Jl. Raya Pantai Pabean, Ketewel, Kec. Sukawati, Kabupaten Gianyar, Bali 80582","Jl. Raya Pantai Pabean, Ketewel, Kec. Sukawati, Kabupaten Gianyar",BALI,80582.0,Indonesia,82340788252.0,,,-8.614312,115.2956722,https://maps.google.com/?cid=0x0:0x13bb7853e427a13c,
cafe,Kedai Kopi,Negari Luwak Coffee,"C7G4+5VV, Jl. Raya Singapadu, Singapadu Tengah, Kec. Sukawati, Kabupaten Gianyar, Bali 80582","Jl. Raya Singapadu, Singapadu Tengah, Kec. Sukawati, Kabupaten Gianyar",BALI,80582.0,Indonesia,81238308282.0,,,-8.5745203,115.257161,https://maps.google.com/?cid=0x0:0xf76646bfaf161d96,
cafe,Kedai Kopi,Mula Rasa Coffe and Bistro,"Singapadu, Kec. Sukawati, Kabupaten Gianyar, Bali","Kabupaten Gianyar, Bali",BALI,,Indonesia,81353040858.0,,,-8.5921845,115.2645959,https://maps.google.com/?cid=0x0:0x67c05184b0be401d,
cafe,Kafe,Warlok Kopi Sukawati,"C73J+CGW, Jl. Lettu Wayan Sutha, Sukawati, Kec. Sukawati, Kabupaten Gianyar, Bali 80582","Jl. Lettu Wayan Sutha, Sukawati, Kec. Sukawati, Kabupaten Gianyar",BALI,80582.0,Indonesia,,,,-8.5963913,115.2813203,https://maps.google.com/?cid=0x0:0x2acd9c3819640e9a,
cafe,Restoran,Living Life Coffee Eatery,"Jl. Ir. Sutami, Kemenuh, Kec. Sukawati, Kabupaten Gianyar, Bali 80582","Kemenuh, Kec. Sukawati, Kabupaten Gianyar",BALI,80582.0,Indonesia,82311917509.0,,,-8.5477866,115.2815372,https://maps.google.com/?cid=0x0:0xbfb3e07b3c288248,
cafe,Kedai Kopi,"Warung Kopi Bali Celuk, Coffee shop by Bhineka Djaja","Singapadu, Kec. Sukawati, Kabupaten Gianyar, Bali 80582","Kec. Sukawati, Kabupaten Gianyar",BALI,80582.0,Indonesia,,,,-8.60408,115.2546433,https://maps.google.com/?cid=0x0:0xa67ab5b90d09de09,
cafe,Kedai Kopi,Ejji Coffee Corner Batubulan,"Jl. Raya Batubulan No.63 C, Batubulan, Kec. Sukawati, Kabupaten Gianyar, Bali 80237","Batubulan, Kec. Sukawati, Kabupaten Gianyar",BALI,80237.0,Indonesia,881037807259.0,,,-8.6274374,115.2584646,https://maps.google.com/?cid=0x0:0x9134fb54ab9a3567,
cafe,Kafe,Duduk Sucipta,"Jl. Lettu Nengah Duaji No.09, Sukawati, Kec. Sukawati, Kabupaten Gianyar, Bali 80582","Sukawati, Kec. Sukawati, Kabupaten Gianyar",BALI,80582.0,Indonesia,85737346647.0,,,-8.5944364,115.2735054,https://maps.google.com/?cid=0x0:0xa2bdee7cdee49495,
cafe,Nasi,Agas Bistro,"Jl. Raya Celuk No.35x, Batubulan, Kec. Sukawati, Kabupaten Gianyar, Bali 80582","Batubulan, Kec. Sukawati, Kabupaten Gianyar",BALI,80582.0,Indonesia,85951740088.0,,,-8.604315,115.2547269,https://maps.google.com/?cid=0x0:0x91e0bb198357a59a,
cafe,Kedai Kopi,Tlaga Singha,"Jl. Raya Singapadu, Singapadu, Kec. Sukawati, Kabupaten Gianyar, Bali 80582","Singapadu, Kec. Sukawati, Kabupaten Gianyar",BALI,80582.0,Indonesia,82260070072.0,,,-8.591638,115.2677,https://maps.google.com/?cid=0x0:0x85775d4103757d72,
cafe,Restoran,Br.Seseh,"Singapadu, Kec. Sukawati, Kabupaten Gianyar, Bali 80582","Kec. Sukawati, Kabupaten Gianyar",BALI,80582.0,Indonesia,,,,-8.592227,115.2610491,https://maps.google.com/?cid=0x0:0x2280ee5e4d968799,
cafe,Hotel,Power Place Cafe,"JL. Voronin 1 Jl. Cangi, Batuan Kaler, Kec. Sukawati, Kabupaten Gianyar, Bali 80582","Batuan Kaler, Kec. Sukawati, Kabupaten Gianyar",BALI,80582.0,Indonesia,81339789908.0,,,-8.5716633,115.2807016,https://maps.google.com/?cid=0x0:0x8781c3e904c7a20c,
cafe,Klub pantai,Standing Stone Restaurant,"Jl. Pantai Purnama, Sukawati, Kec. Sukawati, Kabupaten Gianyar, Bali","Kabupaten Gianyar, Bali",BALI,,Indonesia,87800132000.0,,,-8.6193375,115.3087412,https://maps.google.com/?cid=0x0:0x3da981af9f755ce4,
cafe,Klub Sepak Bola,Bali United Cafe,"Jl. Tribun Tenggara, Buruan, Kec. Blahbatuh, Kabupaten Gianyar, Bali 80581","Buruan, Kec. Blahbatuh, Kabupaten Gianyar",BALI,80581.0,Indonesia,88801888888.0,,,-8.5474549,115.3059314,https://maps.google.com/?cid=0x0:0xd52ce9c7f95c3f85,
cafe,Kedai Kopi,SHS POISON COFFEE,"Br Seseh, Singapadu, Kec. Sukawati, Kabupaten Gianyar, Bali 80582","Singapadu, Kec. Sukawati, Kabupaten Gianyar",BALI,80582.0,Indonesia,82144380710.0,,,-8.5938272,115.2609466,https://maps.google.com/?cid=0x0:0xf2d7f555885c159f,
cafe,Kafe,Genius Caf Gianyar,"Jl. Pantai Masceti, Medahan, Kec. Blahbatuh, Kabupaten Gianyar, Bali 80581","Medahan, Kec. Blahbatuh, Kabupaten Gianyar",BALI,80581.0,Indonesia,82236944873.0,,,-8.5762993,115.3381626,https://maps.google.com/?cid=0x0:0x23425b61f0a6922,
cafe,Bali,Bebek Uma Menuh Restaurant,"Jl. Ir. Sutami, Kemenuh, Kec. Sukawati, Kabupaten Gianyar, Bali 80582","Kemenuh, Kec. Sukawati, Kabupaten Gianyar",BALI,80582.0,Indonesia,85142915029.0,,,-8.5706866,115.2865136,https://maps.google.com/?cid=0x0:0x7f5912a86bf5adf3,
cafe,Kafe,Rurung Kopi,"Jl. Suli No.04, Sukawati, Kec. Sukawati, Kabupaten Gianyar, Bali 80582","Sukawati, Kec. Sukawati, Kabupaten Gianyar",BALI,80582.0,Indonesia,87851057445.0,,,-8.5971125,115.2821515,https://maps.google.com/?cid=0x0:0x43d4adb946975cd9,
cafe,Kafe,Warung kasih,"C74J+CV5, Jl. Lettu Nengah Duaji, Sukawati, Kec. Sukawati, Kabupaten Gianyar, Bali 80582","Jl. Lettu Nengah Duaji, Sukawati, Kec. Sukawati, Kabupaten Gianyar",BALI,80582.0,Indonesia,81238877586.0,,,-8.5939816,115.2822308,https://maps.google.com/?cid=0x0:0x3e9edbd5da0eba50,
cafe,Kedai Kopi,Kawan Kopi,"Jl. Ida Bagus Japa, Batubulan, Kec. Sukawati, Kabupaten Gianyar, Bali 80237","Batubulan, Kec. Sukawati, Kabupaten Gianyar",BALI,80237.0,Indonesia,818880333.0,,,-8.6130104,115.246582,https://maps.google.com/?cid=0x0:0xdf00f55408b805a3,
cafe,Kedai Kopi,"One Bali Agrowisata 2 Batuan, Sukawati","Jl. Raya Negara No.202, Batuan, Kec. Sukawati, Kabupaten Gianyar, Bali 80582","Batuan, Kec. Sukawati, Kabupaten Gianyar",BALI,80582.0,Indonesia,81933022090.0,,,-8.5859251,115.2680563,https://maps.google.com/?cid=0x0:0x4ad119a25bdfd12a,
cafe,Kedai Kopi,kedairare art,"C7PF+GPM, Jl. Raya Sakah, Batuan Kaler, Kec. Sukawati, Kabupaten Gianyar, Bali 80582","Jl. Raya Sakah, Batuan Kaler, Kec. Sukawati, Kabupaten Gianyar",BALI,80582.0,Indonesia,,,,-8.5636729,115.2742855,https://maps.google.com/?cid=0x0:0xaf5148b0ef5dd81a,
cafe,Kedai Kopi,SnackSnacks,"Gianyar, Singapadu, Kec. Sukawati, Kabupaten Gianyar, Bali 80582","Singapadu, Kec. Sukawati, Kabupaten Gianyar",BALI,80582.0,Indonesia,361294357.0,,,-8.5905591,115.2658768,https://maps.google.com/?cid=0x0:0x8bea9aed9f0ccbbf,
cafe,Kedai Kopi,Sesukamukapekopi,"Sesukamukapekopi, Jl. Lettu Nengah Duaji, Batuan, Kec. Sukawati, Kabupaten Gianyar, Bali 80582","Jl. Lettu Nengah Duaji, Batuan, Kec. Sukawati, Kabupaten Gianyar",BALI,80582.0,Indonesia,85739521721.0,,,-8.5943586,115.2737994,https://maps.google.com/?cid=0x0:0x760153fe8b97df40,
cafe,Kedai Kopi,Dwarkop,"Br, Jl. Raya Silakarang Singapadu Kaler, Singapadu Kaler, Kec. Sukawati, Kabupaten Gianyar, Bali 80582","Jl. Raya Silakarang Singapadu Kaler, Singapadu Kaler, Kec. Sukawati, Kabupaten Gianyar",BALI,80582.0,Indonesia,87860097516.0,,,-8.5572054,115.2523407,https://maps.google.com/?cid=0x0:0x8c78dc573b7b8a82,
cafe,Kafe,Warkop Joglo Sukawati,"Jl. Lettu Wayan Sutha II, Batuan, Kec. Sukawati, Kabupaten Gianyar, Bali 80582","Batuan, Kec. Sukawati, Kabupaten Gianyar",BALI,80582.0,Indonesia,895410969071.0,,,-8.5877221,115.2792851,https://maps.google.com/?cid=0x0:0xf4e181a9be8c2601,
cafe,Restoran,Warung Tepi Tebing,"Jl. Raya Singapadu, Singapadu Kaler, Kec. Sukawati, Kabupaten Gianyar, Bali 80571","Singapadu Kaler, Kec. Sukawati, Kabupaten Gianyar",BALI,80571.0,Indonesia,3618988178.0,,,-8.5671351,115.255007,https://maps.google.com/?cid=0x0:0x98d1d9d86ea7f660,
cafe,cafe,Tampaksiring,"Kec. Tampaksiring, Kabupaten Gianyar, Bali","Kabupaten Gianyar, Bali",BALI,,Indonesia,,,,-8.4390082,115.3104277,https://maps.google.com/?cid=0x0:0x1800e8dbac4d3f48,
cafe,Kafe,Beanary Coffee  Eatery,"Jl. Pertiwi Brata, Tampaksiring, Kec. Tampaksiring, Kabupaten Gianyar, Bali 80552","Tampaksiring, Kec. Tampaksiring, Kabupaten Gianyar",BALI,80552.0,Indonesia,81338706951.0,,,-8.4305401,115.313538,https://maps.google.com/?cid=0x0:0x9d2fd136a62a7eae,
cafe,Kedai Kopi,SOMI BALI,"Jl. Raya Uma, Tampaksiring, Kec. Tampaksiring, Kabupaten Gianyar, Bali 80552","Tampaksiring, Kec. Tampaksiring, Kabupaten Gianyar",BALI,80552.0,Indonesia,81529231556.0,,,-8.4394575,115.3044644,https://maps.google.com/?cid=0x0:0xcf211d7d54cfbc64,
cafe,Kedai Kopi,Intan sari luwak coffee  bali swing bukit,"Tampaksiring, Kec. Tampaksiring, Kabupaten Gianyar, Bali 80552","Kec. Tampaksiring, Kabupaten Gianyar",BALI,80552.0,Indonesia,8164701597.0,,,-8.4451294,115.3106114,https://maps.google.com/?cid=0x0:0x5676ee86db860142,
cafe,Kafe,Sukabali Agro,"H8M8+33R, Jl. Tirta, Manukaya, Kec. Tampaksiring, Kabupaten Gianyar, Bali 80552","Jl. Tirta, Manukaya, Kec. Tampaksiring, Kabupaten Gianyar",BALI,80552.0,Indonesia,,,,-8.4177043,115.3149851,https://maps.google.com/?cid=0x0:0x24ca9391f6055e01,
cafe,Kedai Kopi,PEGASUS COFFEE  EATERY,"H8H5+288, Jl. Dr. Ir. Soekarno, Tampaksiring, Kec. Tampaksiring, Kabupaten Gianyar, Bali 80552","Jl. Dr. Ir. Soekarno, Tampaksiring, Kec. Tampaksiring, Kabupaten Gianyar",BALI,80552.0,Indonesia,83114545957.0,,,-8.4224721,115.3083158,https://maps.google.com/?cid=0x0:0xd1a19c6e8d594bdb,
cafe,Restoran,Kafe Kawi,"Objek Pura Gunung Kawi, Jalan Werkudara, No. 1, Tampaksiring, Kec. Tampaksiring, Kabupaten Gianyar, Bali 80552","Jalan Werkudara, No. 1, Tampaksiring, Kec. Tampaksiring, Kabupaten Gianyar",BALI,80552.0,Indonesia,81239484403.0,,,-8.4236615,115.3108899,https://maps.google.com/?cid=0x0:0x2d883bd2f9cb1d70,
cafe,Bali,Pangkon Bali Resto  Agrotourism,"Jl. Tirta Jl. Tampaksiring No..25M, Manukaya, Kec. Tampaksiring, Kabupaten Gianyar, Bali 80552","Manukaya, Kec. Tampaksiring, Kabupaten Gianyar",BALI,80552.0,Indonesia,81239852425.0,,,-8.4176831,115.3174296,https://maps.google.com/?cid=0x0:0x9a85fcc812adb1e1,
cafe,cafe,Umah Bali Kuno coffee,"Jl. Raya Kintamani No.16, Manukaya, Kec. Tampaksiring, Kabupaten Gianyar, Bali 80552","Manukaya, Kec. Tampaksiring, Kabupaten Gianyar",BALI,80552.0,Indonesia,85737687775.0,,,-8.4059636,115.3205011,https://maps.google.com/?cid=0x0:0x98ea61a3a7df389c,
cafe,Kafe,Pemulan Bali Coffee Plantation(FREE TASTING),"Jl. Raya Kintamani No.16, Manukaya, Kec. Tampaksiring, Kabupaten Gianyar, Bali 80552","Manukaya, Kec. Tampaksiring, Kabupaten Gianyar",BALI,80552.0,Indonesia,87840275883.0,,,-8.4016557,115.3251248,https://maps.google.com/?cid=0x0:0xf2837f3432cd2dc4,
cafe,Kafe,Point Coffee,"Jl. Tirta, Tampaksiring, Kec. Tampaksiring, Kabupaten Gianyar, Bali 80552","Tampaksiring, Kec. Tampaksiring, Kabupaten Gianyar",BALI,80552.0,Indonesia,1500280.0,,,-8.4180788,115.311735,https://maps.google.com/?cid=0x0:0xda9c699e4b2f43b9,
cafe,Restoran,Nukad Tampaksiring,"Jl. Pertiwi Brata, Selat, Kec. Tampaksiring, Kabupaten Gianyar, Bali 80552","Selat, Kec. Tampaksiring, Kabupaten Gianyar",BALI,80552.0,Indonesia,87790652875.0,,,-8.4348068,115.3179094,https://maps.google.com/?cid=0x0:0x7920231f794e8bac,
cafe,Kedai Kopi,Lena LenteraPena,"Jl. Tirta Empul, Tampaksiring, Kec. Tampaksiring, Kabupaten Gianyar, Bali 80552","Tampaksiring, Kec. Tampaksiring, Kabupaten Gianyar",BALI,80552.0,Indonesia,83846920549.0,,,-8.4175415,115.3134945,https://maps.google.com/?cid=0x0:0x8265be366a219117,
cafe,Kedai Kopi,Istana Kopi,"Br. Kulu, Tampaksiring, Gianyar Regency, Bali 80552","Tampaksiring, Gianyar Regency",BALI,80552.0,Indonesia,85101571799.0,,,-8.4514603,115.3036907,https://maps.google.com/?cid=0x0:0x3be7688e00ec5725,
cafe,Restoran,Warung D'Kumba,"Jl. Raya Uma, Tampaksiring, bali, Kabupaten Gianyar, Bali 80552","Tampaksiring, bali, Kabupaten Gianyar",BALI,80552.0,Indonesia,81936240155.0,,,-8.4367732,115.3040584,https://maps.google.com/?cid=0x0:0xaf0e52d020953805,
cafe,Kedai Kopi,Coffee Juseyo,"Jalan Raya Tampaksiring, G8W4+QJR, Tapaksiring, Sanding, Kec. Tampaksiring, Kabupaten Gianyar, Bali 80552","G8W4+QJR, Tapaksiring, Sanding, Kec. Tampaksiring, Kabupaten Gianyar",BALI,80552.0,Indonesia,,,,-8.4529645,115.3063097,https://maps.google.com/?cid=0x0:0xb6f1700d572f6947,
cafe,Dapur Umum,Herbal Kitchen Tea Coffee Toast BaliManggis Wellness,"H867+94G, Jl. Raya Ayodya, Tampaksiring, Kec. Tampaksiring, Kabupaten Gianyar, Bali 80552","Jl. Raya Ayodya, Tampaksiring, Kec. Tampaksiring, Kabupaten Gianyar",BALI,80552.0,Indonesia,,,,-8.4390742,115.3128286,https://maps.google.com/?cid=0x0:0xb4992e7d06c73523,
cafe,Rumah Makan,Kayalan Cafe,"Tampaksiring, Kec. Tampaksiring, Kabupaten Gianyar, Bali 80552","Kec. Tampaksiring, Kabupaten Gianyar",BALI,80552.0,Indonesia,,,,-8.4168483,115.3147514,https://maps.google.com/?cid=0x0:0x4a531b0214b20b82,
cafe,Sarapan,Waroeng Pegasus,"Jl. Dr. Ir. Soekarno, Tampaksiring, Kec. Tampaksiring, Kabupaten Gianyar, Bali 80552","Tampaksiring, Kec. Tampaksiring, Kabupaten Gianyar",BALI,80552.0,Indonesia,361902194.0,,,-8.4467181,115.3095181,https://maps.google.com/?cid=0x0:0xcff6c6607fb4b5ac,
cafe,Tujuan Wisata,SW AGROTOURISM BALI,"H8G6+H69, Banjar temen,jln, Tampaksiring, Kec. Tampaksiring, Kabupaten Gianyar, Bali 80552","Banjar temen,jln, Tampaksiring, Kec. Tampaksiring, Kabupaten Gianyar",BALI,80552.0,Indonesia,811399460.0,,,-8.4235955,115.3106016,https://maps.google.com/?cid=0x0:0x987ae3bfea45c8f6,
cafe,cafe,Bali 80552,"Kec. Tampaksiring, Kabupaten Gianyar, Bali","Kabupaten Gianyar, Bali",BALI,,Indonesia,,,,-8.4362857,115.3133908,https://maps.google.com/?cid=0x0:0x1c00c5eb6016beb0,
cafe,Jawa,Warung Sambal Locok,"Br. Eha, Tampaksiring, Kec. Tampaksiring, Kabupaten Gianyar, Bali 80552","Tampaksiring, Kec. Tampaksiring, Kabupaten Gianyar",BALI,80552.0,Indonesia,81999113457.0,,,-8.4371766,115.305567,https://maps.google.com/?cid=0x0:0xd76943562594f015,
cafe,Masakan Asia,Mango Cafe,"Jl. Raya Laplapan, Pejeng Kawan, Kec. Tampaksiring, Kabupaten Gianyar, Bali 80552","Pejeng Kawan, Kec. Tampaksiring, Kabupaten Gianyar",BALI,80552.0,Indonesia,8157904880.0,,,-8.4930188,115.2813477,https://maps.google.com/?cid=0x0:0x20e85add245ea1cf,
cafe,Kedai Kopi,Heyoukopiboba,"Jl. Banjar Tatiapi No.01Pejeng, Kawan, Kec. Tampaksiring, Kabupaten Gianyar, Bali 80552","Kawan, Kec. Tampaksiring, Kabupaten Gianyar",BALI,80552.0,Indonesia,87828385454.0,,,-8.5111775,115.2869332,https://maps.google.com/?cid=0x0:0x5414ad2f256b1b5e,
cafe,Kafe,Segara Windhu Coffee Plantation LUWAK COFFEE,"banjar temen, Jl. Raya Kintamani, Manukaya, Kec. Tampaksiring, Kabupaten Gianyar, Bali 80552","Jl. Raya Kintamani, Manukaya, Kec. Tampaksiring, Kabupaten Gianyar",BALI,80552.0,Indonesia,81238273273.0,,,-8.3871139,115.3342505,https://maps.google.com/?cid=0x0:0x55fd395132f85053,
cafe,Kafe,MY Cantine,"Jl. Tatiapi-Puseh, Pejeng Kawan, Kec. Tampaksiring, Kabupaten Gianyar, Bali 80552","Pejeng Kawan, Kec. Tampaksiring, Kabupaten Gianyar",BALI,80552.0,Indonesia,81238294332.0,,,-8.5112057,115.2882444,https://maps.google.com/?cid=0x0:0xd3259080eb02295f,
cafe,Kedai Kopi,Abian Kusuma Sari Coffee Plantation,"J88M+2GF, Manukaya, Kec. Tampaksiring, Kabupaten Gianyar, Bali 80552","Manukaya, Kec. Tampaksiring, Kabupaten Gianyar",BALI,80552.0,Indonesia,81337833131.0,,,-8.3849381,115.3338008,https://maps.google.com/?cid=0x0:0x813f83f70926db06,
cafe,Sesuai untuk keluarga,Green Sala Coffeeshop  Restaurant,"F7RJ+2Q6, Banjar Sala, Pejeng Kawan, Kec. Tampaksiring, Kabupaten Gianyar, Bali 80552","Banjar Sala, Pejeng Kawan, Kec. Tampaksiring, Kabupaten Gianyar",BALI,80552.0,Indonesia,3619084228.0,,,-8.5099534,115.2819054,https://maps.google.com/?cid=0x0:0x240c3de85ffc6c2b,
cafe,Restoran,Warung Tepi Sari,"Jl. Raya Pejeng Kawan, Pejeng Kawan, Kec. Tampaksiring, Kabupaten Gianyar, Bali 80552","Pejeng Kawan, Kec. Tampaksiring, Kabupaten Gianyar",BALI,80552.0,Indonesia,,,,-8.4903119,115.2823015,https://maps.google.com/?cid=0x0:0xcfabe70605765306,
cafe,cafe,Bali 80561,"Kec. Tegallalang, Kabupaten Gianyar, Bali","Kabupaten Gianyar, Bali",BALI,,Indonesia,,,,-8.3921715,115.2956118,https://maps.google.com/?cid=0x0:0x1c00c5eb6016bec0,
cafe,Rumah Makan,Tis Cafe,"Jl. Raya Tegallalang, Tegallalang, Kec. Tegallalang, Kabupaten Gianyar, Bali 80561","Tegallalang, Kec. Tegallalang, Kabupaten Gianyar",BALI,80561.0,Indonesia,81215985899.0,,,-8.4307634,115.2786171,https://maps.google.com/?cid=0x0:0xa0c73a52235a7df8,
cafe,Kafe,Kucara Coffee and Space,"G7QC+3JG, Jalan Cinta, Tegallalang, Kec. Tegallalang, Kabupaten Gianyar, Bali 80561","Jalan Cinta, Tegallalang, Kec. Tegallalang, Kabupaten Gianyar",BALI,80561.0,Indonesia,81546022005.0,,,-8.4623172,115.2715724,https://maps.google.com/?cid=0x0:0x8b0a6166afe29940,
cafe,Kafe,Huma Cafe by Goldmine,"Jalan Cinta, Tegallalang, Kec. Tegallalang, Kabupaten Gianyar, Bali 80561","Tegallalang, Kec. Tegallalang, Kabupaten Gianyar",BALI,80561.0,Indonesia,82144363996.0,,,-8.4610161,115.2721347,https://maps.google.com/?cid=0x0:0xadf2e8a4e24cbd5c,
cafe,Kafe,Kumulilir,"Jl. Raya Pujung Kaja, Sebatu, Kec. Tegallalang, Kabupaten Gianyar, Bali 80561","Sebatu, Kec. Tegallalang, Kabupaten Gianyar",BALI,80561.0,Indonesia,81226968228.0,,,-8.4137791,115.281722,https://maps.google.com/?cid=0x0:0xbd7e0295b5806460,
cafe,Kedai Kopi,KUNO Coffee and Eatery,"Sebatu, Kec. Tegallalang, Kabupaten Gianyar, Bali 80561","Kec. Tegallalang, Kabupaten Gianyar",BALI,80561.0,Indonesia,,,,-8.407311,115.2974308,https://maps.google.com/?cid=0x0:0x189aca4636350e0c,
cafe,Restoran,THE KAWI RESTO POOL AND BAR,"Jl. Raya Tegallalang No.5758, Tegallalang, Kec. Tegallalang, Kabupaten Gianyar, Bali 80561","Tegallalang, Kec. Tegallalang, Kabupaten Gianyar",BALI,80561.0,Indonesia,81246585199.0,,,-8.4343451,115.2782958,https://maps.google.com/?cid=0x0:0x88fe45684732b83c,
cafe,Restoran,Kubon Coffee,"H79J+JVR, Kedisan, Kec. Tegallalang, Kabupaten Gianyar, Bali","Kabupaten Gianyar, Bali",BALI,,Indonesia,,,,-8.4308837,115.282128,https://maps.google.com/?cid=0x0:0x66d6a04c3b82c5dc,
cafe,Restoran,Kubera kitchen,"Jl. Tirta Tawar No.888, Tegallalang, Kec. Tegallalang, Kabupaten Gianyar, Bali 80561","Tegallalang, Kec. Tegallalang, Kabupaten Gianyar",BALI,80561.0,Indonesia,81238381199.0,,,-8.466891,115.272062,https://maps.google.com/?cid=0x0:0xa7046ea3c50d9656,
cafe,Restoran,by Cafe,"Jl. Raya Tegallalang No.57-58, Tegallalang, Kec. Tegallalang, Kabupaten Gianyar, Bali 80561","Tegallalang, Kec. Tegallalang, Kabupaten Gianyar",BALI,80561.0,Indonesia,3619084718.0,,,-8.4322426,115.2783256,https://maps.google.com/?cid=0x0:0xdabe57e073e0a4e1,
cafe,Jawa,Barong Bali Kitchen,"H75J+R6C, Tegallalang, Kec. Tegallalang, Kabupaten Gianyar, Bali 80561","Tegallalang, Kec. Tegallalang, Kabupaten Gianyar",BALI,80561.0,Indonesia,83851989000.0,,,-8.4404044,115.2804701,https://maps.google.com/?cid=0x0:0x7d90e1977c8f5ae,
cafe,Kebun Buah,Bali Pulina,"Jl. Raya Pujung Kaja, Sebatu, Kec. Tegallalang, Kabupaten Gianyar, Bali 80561","Sebatu, Kec. Tegallalang, Kabupaten Gianyar",BALI,80561.0,Indonesia,811394462.0,,,-8.422796,115.2790384,https://maps.google.com/?cid=0x0:0x46117dc3c84b0af2,
cafe,Kedai Kopi,"DUKUH SARI Restaurant, Luwak Coffee","Br. Penusuan, Tegallalang, Kec. Tegallalang, Kabupaten Gianyar, Bali 80561","Tegallalang, Kec. Tegallalang, Kabupaten Gianyar",BALI,80561.0,Indonesia,87761741684.0,,,-8.4586992,115.2786737,https://maps.google.com/?cid=0x0:0x8ff07e61af5509b6,
cafe,Restoran,"Tebasari Resto, Bar  Lounge","Jl. Raya Tegallalang, Tegallalang, Kec. Tegallalang, Kabupaten Gianyar, Bali 80561","Tegallalang, Kec. Tegallalang, Kabupaten Gianyar",BALI,80561.0,Indonesia,3619085851.0,,,-8.4416165,115.2802618,https://maps.google.com/?cid=0x0:0xde95d6567688bd58,
cafe,Kedai Kopi,Intan Sari Luwak Coffee Garden,"Tegallalang, Kec. Tegallalang, Kabupaten Gianyar, Bali","Kabupaten Gianyar, Bali",BALI,,Indonesia,,,,-8.4423418,115.2813948,https://maps.google.com/?cid=0x0:0x516b411a60360155,
cafe,Masakan Barat,Cretya Ubud,"Jl. Raya Tegallalang, Tegallalang, Kec. Tegallalang, Kabupaten Gianyar, Bali 80561","Tegallalang, Kec. Tegallalang, Kabupaten Gianyar",BALI,80561.0,Indonesia,3619585999.0,,,-8.439962,115.280982,https://maps.google.com/?cid=0x0:0x9fc75242a6f92fa7,
cafe,Restoran,Greenkubu Restaurant and Swing,"Jalan Cinta, Br, Jl. Pejengaji, Tegallalang, Gianyar Regency, Bali 80561","Br, Jl. Pejengaji, Tegallalang, Gianyar Regency",BALI,80561.0,Indonesia,85211054605.0,,,-8.4520774,115.2742628,https://maps.google.com/?cid=0x0:0x7a8c99e9dbdc880f,
cafe,Kedai Kopi,Luwak Coffee Agro Alas Harum Bali,"Jl. Raya Tegallalang No.5758, Tegallalang, Kec. Tegallalang, Kabupaten Gianyar, Bali 80561","Tegallalang, Kec. Tegallalang, Kabupaten Gianyar",BALI,80561.0,Indonesia,,,,-8.440475,115.2807648,https://maps.google.com/?cid=0x0:0x472b0abd97f0d47d,
cafe,Restoran,Rice terrace cafe,"Jl. Raya Tegallalang, Tegallalang, Kec. Tegallalang, Kabupaten Gianyar, Bali 80561","Tegallalang, Kec. Tegallalang, Kabupaten Gianyar",BALI,80561.0,Indonesia,81236186003.0,,,-8.4335918,115.2786445,https://maps.google.com/?cid=0x0:0x5c85b37e13034186,
cafe,Rumah Makan,Teras Padi Cafe,"Jl. Raya Tegallalang, Tegallalang, Kec. Tegallalang, Kabupaten Gianyar, Bali 80561","Tegallalang, Kec. Tegallalang, Kabupaten Gianyar",BALI,80561.0,Indonesia,81919191456.0,,,-8.4333992,115.2785658,https://maps.google.com/?cid=0x0:0xfc6f5fb2d63c33bf,
cafe,Pura,Alas Harum Bali,"Jl. Raya Tegallalang, Tegallalang, Kec. Tegallalang, Kabupaten Gianyar, Bali 80561","Tegallalang, Kec. Tegallalang, Kabupaten Gianyar",BALI,80561.0,Indonesia,3619585999.0,,,-8.43989,115.2806075,https://maps.google.com/?cid=0x0:0xf443506a00fa75f3,
cafe,Kedai Kopi,Intan sari luwak dan kebun kopi,"Jl. Raya Tegallalang, Tegallalang, Kec. Tegallalang, Kabupaten Gianyar, Bali 80561","Tegallalang, Kec. Tegallalang, Kabupaten Gianyar",BALI,80561.0,Indonesia,81246109766.0,,,-8.4424977,115.2808319,https://maps.google.com/?cid=0x0:0x888c7cbd3ebeac12,
cafe,Kedai Kopi,Bali Agri Park Coffee,"Jl. Raya Tegal Suci Jl raya, Sebatu, Kec. Tegallalang, Kabupaten Gianyar, Bali 80561","Sebatu, Kec. Tegallalang, Kabupaten Gianyar",BALI,80561.0,Indonesia,,,,-8.3370637,115.3196038,https://maps.google.com/?cid=0x0:0x1038a46e47332c49,
cafe,Restoran,Sundate Bali,"Jl. Raya Tegallalang, Tegallalang, Kec. Tegallalang, Kabupaten Gianyar, Bali 80561","Tegallalang, Kec. Tegallalang, Kabupaten Gianyar",BALI,80561.0,Indonesia,81239873338.0,,,-8.4342964,115.2788524,https://maps.google.com/?cid=0x0:0x9bf53a44a18d6de5,
cafe,Pondok,Warung widi coffee,"Jl. Bangkiang Sidem, Keliki, Kec. Tegallalang, Kabupaten Gianyar, Bali 80561","Keliki, Kec. Tegallalang, Kabupaten Gianyar",BALI,80561.0,Indonesia,81353229411.0,,,-8.4937151,115.2562902,https://maps.google.com/?cid=0x0:0x52dc0c436c8cd3dd,
cafe,cafe,Ubud,"Ubud, Kecamatan Ubud, Kabupaten Gianyar, Bali","Kabupaten Gianyar, Bali",BALI,,Indonesia,,,,-8.5068536,115.2624778,https://maps.google.com/?cid=0x0:0x54a38afd6b773d1c,
cafe,Kafe,Suka Espresso -Ubud-,"Jl. Raya Pengosekan Ubud No.108, Ubud, Kecamatan Ubud, Kabupaten Gianyar, Bali 80571","Ubud, Kecamatan Ubud, Kabupaten Gianyar",BALI,80571.0,Indonesia,81338692319.0,,,-8.5211086,115.2632543,https://maps.google.com/?cid=0x0:0x5778eea89f14f29c,
cafe,Restoran,Prince Coffee  Kitchen Ubud,"Jl. Gootama No.19, Ubud, Kecamatan Ubud, Denpasar, Bali 80571","Ubud, Kecamatan Ubud, Denpasar",BALI,80571.0,Indonesia,81262471635.0,,,-8.5096751,115.264234,https://maps.google.com/?cid=0x0:0xb0daab2385405e9,
cafe,Kedai Kopi,Ubud Coffee Roastery,"Jl. Goutama Sel., Ubud, Kecamatan Ubud, Kabupaten Gianyar, Bali 80571","Ubud, Kecamatan Ubud, Kabupaten Gianyar",BALI,80571.0,Indonesia,81138008001.0,,,-8.5117833,115.2638954,https://maps.google.com/?cid=0x0:0x37efc0bb2c1e35d2,
cafe,Kafe,Tucky | Specialty Coffee  Brunch,"Jl. Goutama Sel. No.15, Ubud, Kecamatan Ubud, Kabupaten Gianyar, Bali 80571","Ubud, Kecamatan Ubud, Kabupaten Gianyar",BALI,80571.0,Indonesia,81138117613.0,,,-8.5099464,115.2640876,https://maps.google.com/?cid=0x0:0x78a28b4faee95abc,
cafe,Restoran,Tropical View Ubud,"Jl. Monkey Forest, Ubud, Kecamatan Ubud, Kabupaten Gianyar, Bali 80751","Ubud, Kecamatan Ubud, Kabupaten Gianyar",BALI,80751.0,Indonesia,81338774969.0,,,-8.5183644,115.26155,https://maps.google.com/?cid=0x0:0x1179d0f4fedf9b8e,
cafe,Kafe,Seniman Coffee Studio,"Jl. Sri Wedari No.5, Banjar Taman Kelod, Kecamatan Ubud, Kabupaten Gianyar, Bali 80571","Banjar Taman Kelod, Kecamatan Ubud, Kabupaten Gianyar",BALI,80571.0,Indonesia,81283386641.0,,,-8.5068964,115.2650732,https://maps.google.com/?cid=0x0:0x6fa247aced3b9ae2,
cafe,Restoran,Watercress Cafe Ubud,"Jl. Monkey Forest, Ubud, Bali, Kabupaten Gianyar, Bali 80571","Ubud, Bali, Kabupaten Gianyar",BALI,80571.0,Indonesia,81338685599.0,,,-8.5131112,115.2608741,https://maps.google.com/?cid=0x0:0x75599808bcc0b6da,
cafe,Kedai Kopi,Titik Temu Coffee - Ubud Palace,"Jl. Suweta No.6, Ubud, Kecamatan Ubud, Kabupaten Gianyar, Bali 80571","Ubud, Kecamatan Ubud, Kabupaten Gianyar",BALI,80571.0,Indonesia,811937690.0,,,-8.5055339,115.2629522,https://maps.google.com/?cid=0x0:0x49c0f8c90c556395,
cafe,Restoran,SUKSMA KOPI UBUD,"Jl. Sukma Kesuma No.1, Peliatan, Kecamatan Ubud, Kabupaten Gianyar, Bali 80571","Peliatan, Kecamatan Ubud, Kabupaten Gianyar",BALI,80571.0,Indonesia,81805668437.0,,,-8.5100818,115.2689894,https://maps.google.com/?cid=0x0:0xfb3fbe7f3d0d5ff5,
cafe,Kedai Kopi,Aldi's Coffee  Eatery,"depan mama rai warung, Jln kajeng no 88, Jl. Kajeng, Kecamatan Ubud, Kabupaten Gianyar, Bali 80571","Jln kajeng no 88, Jl. Kajeng, Kecamatan Ubud, Kabupaten Gianyar",BALI,80571.0,Indonesia,,,,-8.5008065,115.2617831,https://maps.google.com/?cid=0x0:0xa1881d9752bf8763,
cafe,Kedai Kopi,Anomali Coffee Ubud,"Jl. Raya Ubud No.88, Petulu, Kecamatan Ubud, Kabupaten Gianyar, Bali 80571","Petulu, Kecamatan Ubud, Kabupaten Gianyar",BALI,80571.0,Indonesia,361972263.0,,,-8.5081859,115.2651952,https://maps.google.com/?cid=0x0:0x8d39add619dd5946,
cafe,Kedai Kopi,Den~O Coffee Ubud,"Jl. Raya Lungsiakan No.44, Kedewatan, Kecamatan Ubud, Kabupaten Gianyar, Bali 80571","Kedewatan, Kecamatan Ubud, Kabupaten Gianyar",BALI,80571.0,Indonesia,81210109189.0,,,-8.4855994,115.2470674,https://maps.google.com/?cid=0x0:0x6ac89929ea53c934,
cafe,Kafe,"Pison, Ubud","Jl. Hanoman No.10X, Ubud, Kecamatan Ubud, Kabupaten Gianyar, Bali 80571","Ubud, Kecamatan Ubud, Kabupaten Gianyar",BALI,80571.0,Indonesia,81337749328.0,,,-8.5182718,115.2636307,https://maps.google.com/?cid=0x0:0x85cf8a5235a336aa,
cafe,Kafe,Muse Cafe  Art | Ubud,"Jl. Sri Wedari No.6b, Ubud, Kecamatan Ubud, Kabupaten Gianyar, Bali 80571","Ubud, Kecamatan Ubud, Kabupaten Gianyar",BALI,80571.0,Indonesia,8113809394.0,,,-8.4941544,115.2664463,https://maps.google.com/?cid=0x0:0xe18173a9b73f5826,
cafe,Vegetarian,Otokafe ubud,"Jl. Raya Pengosekan Ubud, Ubud, Kecamatan Ubud, Kabupaten Gianyar, Bali 80571","Ubud, Kecamatan Ubud, Kabupaten Gianyar",BALI,80571.0,Indonesia,8123805801.0,,,-8.518382,115.263359,https://maps.google.com/?cid=0x0:0x20678f2cab610c6b,
cafe,Kafe,The Hidden Space Ubud Cafe,"Jl. Dangin Labak, Singakerta, Kecamatan Ubud, Kabupaten Gianyar, Bali 80571","Singakerta, Kecamatan Ubud, Kabupaten Gianyar",BALI,80571.0,Indonesia,81779019777.0,,,-8.5276701,115.2521568,https://maps.google.com/?cid=0x0:0xf94d57a6a9736d5f,
cafe,Kedai Kopi,Ubud Coffee Roastery - Sayan,"Jl. Cemp. Putih, Sayan, Kecamatan Ubud, Kabupaten Gianyar, Bali 80571","Sayan, Kecamatan Ubud, Kabupaten Gianyar",BALI,80571.0,Indonesia,81138008001.0,,,-8.503489,115.2477143,https://maps.google.com/?cid=0x0:0x42b176dd6ec63abc,
cafe,Kafe,The Hideout Cafe Ubud,"Jl. Kajeng No.37, Ubud, Kecamatan Ubud, Kabupaten Gianyar, Bali 80571","Ubud, Kecamatan Ubud, Kabupaten Gianyar",BALI,80571.0,Indonesia,87864115181.0,,,-8.5012982,115.2634972,https://maps.google.com/?cid=0x0:0xf6a15fdbe6c4fd23,
cafe,Kafe,Lazy Cats,"Jl. Raya Ubud No.11, Ubud, Kecamatan Ubud, Kabupaten Gianyar, Bali 80571","Ubud, Kecamatan Ubud, Kabupaten Gianyar",BALI,80571.0,Indonesia,81246524975.0,,,-8.5053108,115.2582557,https://maps.google.com/?cid=0x0:0xecf79538fde27282,
cafe,cafe,Bali 80571,"Kecamatan Ubud, Kabupaten Gianyar, Bali","Kabupaten Gianyar, Bali",BALI,,Indonesia,,,,-8.5164072,115.2481959,https://maps.google.com/?cid=0x0:0x1c00c5eb6016bed0,
cafe,Kafe,Blend Cafe Ubud,"Jalan Nyuh Bojog, Desa Jl. Nyuh Bojog No.18, Kabupaten Gianyar, Bali 80571","Desa Jl. Nyuh Bojog No.18, Kabupaten Gianyar",BALI,80571.0,Indonesia,,,,-8.5215203,115.2569675,https://maps.google.com/?cid=0x0:0x46f3da3dfc546e3f,
cafe,Kafe,Up To Date Cafe  Eatery Ubud,"Jl. Raya Goa Gajah Jl. Teges Kanginan No.55, Peliatan, Kecamatan Ubud, Kabupaten Gianyar, Bali 80571","Peliatan, Kecamatan Ubud, Kabupaten Gianyar",BALI,80571.0,Indonesia,,,,-8.5233766,115.2771676,https://maps.google.com/?cid=0x0:0xe36cb93f7913f68c,
cafe,cafe,Gangga Coffee Ubud,"Jl. Raya Andong No.11, Peliatan, Kecamatan Ubud, Kabupaten Gianyar, Bali 80571","Peliatan, Kecamatan Ubud, Kabupaten Gianyar",BALI,80571.0,Indonesia,3619082477.0,,,-8.5033972,115.2723204,https://maps.google.com/?cid=0x0:0xc4ae61849269fc77,
cafe,Kafe,Two Face / Coffee  Brunch -Ubud-,"Jl. Raya Ubud, Ubud, Kecamatan Ubud, Kabupaten Gianyar, Bali 80571","Ubud, Kecamatan Ubud, Kabupaten Gianyar",BALI,80571.0,Indonesia,81330883001.0,,,-8.506278,115.2608803,https://maps.google.com/?cid=0x0:0x3429f5a081982b9b,
cafe,Kafe,Ivy Cafe,"Jl Pengosenkan, Gianyar Regency, Bali 80571",Gianyar Regency,BALI,80571.0,Indonesia,,,,-8.5209276,115.2628996,https://maps.google.com/?cid=0x0:0x29cdc3529b21c826,
