Category,Real Category,Business Name,Address,City,State,Postal Code,Country,Phone,Email,Website,Latitude,Longitude,Map Link,Details Link
hardware store,Toko Bahan Bangunan,Putra Manila Hardware Store (0811155369) our store only number,"Jl. Wisma Udayana, Getas, Buruan, Kec. Blahbatuh, Kabupaten Gianyar, Bali 80511","Getas, Buruan, Kec. Blahbatuh, Kabupaten Gianyar",BALI,80511.0,Indonesia,811155369.0,,,-8.5527139,115.3030658,https://maps.google.com/?cid=0x0:0x51607417d4465d85,
hardware store,hardware store,Blahbatuh,"Kec. Blahbatuh, Kabupaten Gianyar, Bali","Kabupaten Gianyar, Bali",BALI,,Indonesia,,,,-8.5608613,115.298575,https://maps.google.com/?cid=0x0:0x5030bfbca830ee0,
hardware store,Toko Bahan Bangunan,Toko Lasmana,"Jl. Raya Bedulu, Bedulu, Kec. Blahbatuh, Kabupaten Gianyar, Bali 80581","Bedulu, Kec. Blahbatuh, Kabupaten Gianyar",BALI,80581.0,Indonesia,811909777.0,,,-8.5260435,115.2942941,https://maps.google.com/?cid=0x0:0x902dcbd52977f1ed,
hardware store,Toko Bahan Bangunan,CV. Manila Dewata,"Jl. Mahendradata, Bedulu, Kec. Blahbatuh, Kabupaten Gianyar, Bali 80581","Bedulu, Kec. Blahbatuh, Kabupaten Gianyar",BALI,80581.0,Indonesia,811446168.0,,,-8.5341662,115.3052899,https://maps.google.com/?cid=0x0:0x28f851006f6bab46,
hardware store,Toko Bahan Bangunan,TB. Batu Lumbang,"C89F+Q84, Jl. Kurusetra, Keramas, Kec. Blahbatuh, Kabupaten Gianyar, Bali 80581","Jl. Kurusetra, Keramas, Kec. Blahbatuh, Kabupaten Gianyar",BALI,80581.0,Indonesia,82162909047.0,,,-8.5806123,115.3233342,https://maps.google.com/?cid=0x0:0xa435aba5367e3f61,
hardware store,Toko Perlengkapan Rumah,MR.DIY,"F823+CWJ, Buruan, Kec. Blahbatuh, Kabupaten Gianyar, Bali 80581","Buruan, Kec. Blahbatuh, Kabupaten Gianyar",BALI,80581.0,Indonesia,,,,-8.5488773,115.30487,https://maps.google.com/?cid=0x0:0x33a52fc29dadf65f,
hardware store,hardware store,Toko UD Jana,"F883+P2R, Jl. Raya Wanayu, Bedulu, Kec. Blahbatuh, Kabupaten Gianyar, Bali 80581","Jl. Raya Wanayu, Bedulu, Kec. Blahbatuh, Kabupaten Gianyar",BALI,80581.0,Indonesia,81338558001.0,,,-8.5331487,115.3025193,https://maps.google.com/?cid=0x0:0x8959243fa70d38,
hardware store,hardware store,Bali 80511,"Kec. Gianyar, Kabupaten Gianyar, Bali","Kabupaten Gianyar, Bali",BALI,,Indonesia,,,,-8.5386152,115.328206,https://maps.google.com/?cid=0x0:0x3a6ab5e6526148c8,
hardware store,Toko Bahan Bangunan,Putra Manila Hardware Store (0811155369) our store only number,"Jl. Wisma Udayana, Getas, Buruan, Kec. Blahbatuh, Kabupaten Gianyar, Bali 80511","Getas, Buruan, Kec. Blahbatuh, Kabupaten Gianyar",BALI,80511.0,Indonesia,811155369.0,,,-8.5527139,115.3030658,https://maps.google.com/?cid=0x0:0x51607417d4465d85,
hardware store,Toko Bahan Bangunan,AZKO Gianyar Bali,"Jl. Ngurah Rai-Gianyar No.79, Gianyar, Kec. Gianyar, Kabupaten Gianyar, Bali 80511","Gianyar, Kec. Gianyar, Kabupaten Gianyar",BALI,80511.0,Indonesia,82236614096.0,,,-8.5413176,115.3278382,https://maps.google.com/?cid=0x0:0x8569c6f716edc50b,
hardware store,Toko Bahan Bangunan,Toko Pelita Agung,"Jl. Kesatrian No.26a, Gianyar, Kec. Gianyar, Kabupaten Gianyar, Bali 80511","Gianyar, Kec. Gianyar, Kabupaten Gianyar",BALI,80511.0,Indonesia,361943043.0,,,-8.5452279,115.3253208,https://maps.google.com/?cid=0x0:0xd4c528a3eeb7b2bd,
hardware store,Toko Bahan Bangunan,Metalindo Makmur Bali,"Jl. Bukit Jati No.8, Beng, Kec. Gianyar, Kabupaten Gianyar, Bali","Kabupaten Gianyar, Bali",BALI,,Indonesia,85737622208.0,,,-8.5361766,115.331111,https://maps.google.com/?cid=0x0:0xaef0c993f55814f9,
hardware store,Toko Bahan Bangunan,Varia Bangunan,"Jl. Raden Wijaya No.8, Gianyar, Kec. Gianyar, Kabupaten Gianyar, Bali 80511","Gianyar, Kec. Gianyar, Kabupaten Gianyar",BALI,80511.0,Indonesia,81916196586.0,,,-8.5451971,115.3211236,https://maps.google.com/?cid=0x0:0xccb23c39271003ce,
hardware store,Toko Bahan Bangunan,"Harum Jaya Bangunan, Toko","Jl. Ciung Wanara-Gianyar No.28 A, Gianyar, Kec. Gianyar, Kabupaten Gianyar, Bali 80511","Gianyar, Kec. Gianyar, Kabupaten Gianyar",BALI,80511.0,Indonesia,81918091818.0,,,-8.5404045,115.3223371,https://maps.google.com/?cid=0x0:0x63e2c8bcc0c2e836,
hardware store,Toko Bahan Bangunan,TK Miar Harum,"Jl. Erlangga No.21, Gianyar, Kec. Gianyar, Kabupaten Gianyar, Bali 80511","Gianyar, Kec. Gianyar, Kabupaten Gianyar",BALI,80511.0,Indonesia,361955408.0,,,-8.5433323,115.324275,https://maps.google.com/?cid=0x0:0x69f1ad9455626736,
hardware store,Toko Bahan Bangunan,Depo Bagoes Bangunan,"Jl. Mahendradata No.18, Bedulu, Kec. Blahbatuh, Kabupaten Gianyar, Bali 80511","Bedulu, Kec. Blahbatuh, Kabupaten Gianyar",BALI,80511.0,Indonesia,81805021818.0,,,-8.5351479,115.3080096,https://maps.google.com/?cid=0x0:0x3b473a950caea398,
hardware store,Toko Bahan Bangunan,Bintang Baru Bangunan,"Jl. Sakura, Abianbase, Kec. Gianyar, Kabupaten Gianyar, Bali 80515","Abianbase, Kec. Gianyar, Kabupaten Gianyar",BALI,80515.0,Indonesia,81228608197.0,,,-8.5535564,115.3328994,https://maps.google.com/?cid=0x0:0xc3b87739da0561e,
hardware store,Toko Bahan Bangunan,Agung Hardware,"Jalan cok gede rai peliatan ubud gianyar 80751, Peliatan, Kecamatan Ubud, Kabupaten Gianyar, Bali 80751","Peliatan, Kecamatan Ubud, Kabupaten Gianyar",BALI,80751.0,Indonesia,85253888998.0,,,-8.520831,115.2682952,https://maps.google.com/?cid=0x0:0x3bde289d17870df9,
hardware store,Toko Bahan Bangunan,GIANYAR BANGUNAN,"Jl. Mulawarman, Abianbase, Kec. Gianyar, Kabupaten Gianyar, Bali 80515","Abianbase, Kec. Gianyar, Kabupaten Gianyar",BALI,80515.0,Indonesia,81999689586.0,,,-8.557026,115.3273082,https://maps.google.com/?cid=0x0:0x563ee352e6c9e2bc,
hardware store,Toko Bahan Bangunan,UD MERUMAS,"F87G+P2W, Jl. Patih Jelantik-Gianyar, Beng, Kec. Gianyar, Kabupaten Gianyar, Bali 80517","Jl. Patih Jelantik-Gianyar, Beng, Kec. Gianyar, Kabupaten Gianyar",BALI,80517.0,Indonesia,,,,-8.5356362,115.3250788,https://maps.google.com/?cid=0x0:0x283bc2a85f240766,
hardware store,Toko Bahan Bangunan,Toko bangunan bali made 2,"Jalan Raya Jl. Bukit Jati No.80x, Samplangan, Kec. Gianyar, Kabupaten Gianyar, Bali 80511","Samplangan, Kec. Gianyar, Kabupaten Gianyar",BALI,80511.0,Indonesia,89685848180.0,,,-8.5369604,115.3332963,https://maps.google.com/?cid=0x0:0xa1db30a250c7a380,
hardware store,Toko Bahan Bangunan,UD BASUR,"Jl. Ratna No.78, Tegal Tugu, Kec. Gianyar, Kabupaten Gianyar, Bali 80515","Tegal Tugu, Kec. Gianyar, Kabupaten Gianyar",BALI,80515.0,Indonesia,82147448237.0,,,-8.5557096,115.3367314,https://maps.google.com/?cid=0x0:0xe4e6d68248d8aae3,
hardware store,Toko Perlengkapan Rumah,MR.DIY,"Jl. Astina Utara No.1A, Lingkungan Candi Baru, Gianyar, Kec. Gianyar, Kabupaten Gianyar, Bali 80511","Lingkungan Candi Baru, Gianyar, Kec. Gianyar, Kabupaten Gianyar",BALI,80511.0,Indonesia,,,,-8.5364788,115.3230488,https://maps.google.com/?cid=0x0:0x503531166f95dd1a,
hardware store,Toko Bahan Bangunan,UD. Gambuh,"F8HH+JV5, Jl. Gn. Agung, Bakbakan, Kec. Gianyar, Kabupaten Gianyar, Bali 80515","Jl. Gn. Agung, Bakbakan, Kec. Gianyar, Kabupaten Gianyar",BALI,80515.0,Indonesia,361944737.0,,,-8.5209922,115.3297215,https://maps.google.com/?cid=0x0:0xd7ced2d435eb109c,
hardware store,Toko Elektronik,Toko Sentral Elektronik,"Jl. Kebo Iwa No.28, Gianyar, Kec. Gianyar, Kabupaten Gianyar, Bali 80511","Gianyar, Kec. Gianyar, Kabupaten Gianyar",BALI,80511.0,Indonesia,81239676424.0,,,-8.5440074,115.3224323,https://maps.google.com/?cid=0x0:0x25f59f13b0ecca4b,
hardware store,Toko Bahan Bangunan,Sarana Bangunan,"Jl. Raya Bona, Bona, Kec. Blahbatuh, Kabupaten Gianyar, Bali 80581","Bona, Kec. Blahbatuh, Kabupaten Gianyar",BALI,80581.0,Indonesia,81353399370.0,,,-8.558548,115.311875,https://maps.google.com/?cid=0x0:0x63cdae8140fc3f87,
hardware store,Toko Bahan Bangunan,Miar Jaya UD,"Jl. Ngurah Rai-Gianyar No.66, Gianyar, Kec. Gianyar, Kabupaten Gianyar, Bali 80511","Gianyar, Kec. Gianyar, Kabupaten Gianyar",BALI,80511.0,Indonesia,361943103.0,,,-8.541655,115.3281811,https://maps.google.com/?cid=0x0:0x3bc79c589c7a4855,
hardware store,Toko Alat Tulis,Nadhi Mart Gianyar,"Jl. Raya Jl. Dharma Giri No.97A, Bitera, Kec. Gianyar, Kabupaten Gianyar, Bali 80515","Bitera, Kec. Gianyar, Kabupaten Gianyar",BALI,80515.0,Indonesia,89602766717.0,,,-8.5416042,115.3143113,https://maps.google.com/?cid=0x0:0xab3154da8ac77dba,
hardware store,hardware store,Bali 80512,"Samplangan, Kec. Gianyar, Kabupaten Gianyar, Bali","Kabupaten Gianyar, Bali",BALI,,Indonesia,,,,-8.532747,115.3400575,https://maps.google.com/?cid=0x0:0x1c00c5eb6016be70,
hardware store,Toko Bahan Bangunan,Putra Manila Hardware Store (0811155369) our store only number,"Jl. Wisma Udayana, Getas, Buruan, Kec. Blahbatuh, Kabupaten Gianyar, Bali 80511","Getas, Buruan, Kec. Blahbatuh, Kabupaten Gianyar",BALI,80511.0,Indonesia,811155369.0,,,-8.5527139,115.3030658,https://maps.google.com/?cid=0x0:0x51607417d4465d85,
hardware store,Toko Bahan Bangunan,Toko Harmonis,"Jl. Astina Timur No.18x, Samplangan, Kec. Gianyar, Kabupaten Gianyar, Bali 80512","Samplangan, Kec. Gianyar, Kabupaten Gianyar",BALI,80512.0,Indonesia,81338722669.0,,,-8.5403448,115.3378149,https://maps.google.com/?cid=0x0:0x78430e04b4d39d94,
hardware store,Toko Bahan Bangunan,Toko Baut Jaya Makmur,"F85W+GVH, Jl. Raya Samplangan, Samplangan, Kec. Gianyar, Kabupaten Gianyar, Bali 80512","Jl. Raya Samplangan, Samplangan, Kec. Gianyar, Kabupaten Gianyar",BALI,80512.0,Indonesia,81337755828.0,,,-8.5411932,115.34722,https://maps.google.com/?cid=0x0:0xb530ff34b5859080,
hardware store,Toko Bahan Bangunan,Metalindo Makmur Bali,"Jl. Bukit Jati No.8, Beng, Kec. Gianyar, Kabupaten Gianyar, Bali","Kabupaten Gianyar, Bali",BALI,,Indonesia,85737622208.0,,,-8.5361766,115.331111,https://maps.google.com/?cid=0x0:0xaef0c993f55814f9,
hardware store,Toko Bahan Bangunan,UD BASUR,"Jl. Ratna No.78, Tegal Tugu, Kec. Gianyar, Kabupaten Gianyar, Bali 80515","Tegal Tugu, Kec. Gianyar, Kabupaten Gianyar",BALI,80515.0,Indonesia,82147448237.0,,,-8.5557096,115.3367314,https://maps.google.com/?cid=0x0:0xe4e6d68248d8aae3,
hardware store,Toko Bahan Bangunan,Taksu Pande,"C8MW+4C2, Jalan Raya Kesian, Desa Lebih, Lebih, Kec. Gianyar, Kabupaten Gianyar, Bali 80511","Jalan Raya Kesian, Desa Lebih, Lebih, Kec. Gianyar, Kabupaten Gianyar",BALI,80511.0,Indonesia,85936101451.0,,,-8.5672277,115.3460026,https://maps.google.com/?cid=0x0:0x6476a4c4a5266de8,
hardware store,Toko Bahan Bangunan,Ud. Murni Jati,"Jl. Raya Samplangan, Samplangan, Kec. Gianyar, Kabupaten Gianyar, Bali 80512","Samplangan, Kec. Gianyar, Kabupaten Gianyar",BALI,80512.0,Indonesia,81805377433.0,,,-8.5389192,115.3432927,https://maps.google.com/?cid=0x0:0x130dddeaf07471ae,
hardware store,Toko Bahan Bangunan,Toko Pelita Agung,"Jl. Kesatrian No.26a, Gianyar, Kec. Gianyar, Kabupaten Gianyar, Bali 80511","Gianyar, Kec. Gianyar, Kabupaten Gianyar",BALI,80511.0,Indonesia,361943043.0,,,-8.5452279,115.3253208,https://maps.google.com/?cid=0x0:0xd4c528a3eeb7b2bd,
hardware store,Toko Bahan Bangunan,UD. Gambuh,"F8HH+JV5, Jl. Gn. Agung, Bakbakan, Kec. Gianyar, Kabupaten Gianyar, Bali 80515","Jl. Gn. Agung, Bakbakan, Kec. Gianyar, Kabupaten Gianyar",BALI,80515.0,Indonesia,361944737.0,,,-8.5209922,115.3297215,https://maps.google.com/?cid=0x0:0xd7ced2d435eb109c,
hardware store,Toko Bahan Bangunan,TB Villas Bangunan,"Jl. Raya Sidan No.raya, Sidan, Kec. Gianyar, Kabupaten Gianyar, Bali 80515","Sidan, Kec. Gianyar, Kabupaten Gianyar",BALI,80515.0,Indonesia,82312913158.0,,,-8.535531,115.3485469,https://maps.google.com/?cid=0x0:0xcf4ce530307eede4,
hardware store,Toko Bahan Bangunan,UD. Antungan,"F8FX+447, Jl. Raya Sidan, Sidan, Kec. Gianyar, Kabupaten Gianyar, Bali 80515","Jl. Raya Sidan, Sidan, Kec. Gianyar, Kabupaten Gianyar",BALI,80515.0,Indonesia,81337233052.0,,,-8.5272242,115.347791,https://maps.google.com/?cid=0x0:0x4e8c041f7bc9e778,
hardware store,Toko Bahan Bangunan,TB. Lima Jaya,"F85X+C6X, Jl. Raya Pegesangan, Temesi, Kec. Gianyar, Kabupaten Gianyar, Bali 80515","Jl. Raya Pegesangan, Temesi, Kec. Gianyar, Kabupaten Gianyar",BALI,80515.0,Indonesia,361943874.0,,,-8.5413843,115.3481134,https://maps.google.com/?cid=0x0:0xfcf02d724c99f12a,
hardware store,Toko Bahan Bangunan,GIANYAR BANGUNAN,"Jl. Mulawarman, Abianbase, Kec. Gianyar, Kabupaten Gianyar, Bali 80515","Abianbase, Kec. Gianyar, Kabupaten Gianyar",BALI,80515.0,Indonesia,81999689586.0,,,-8.557026,115.3273082,https://maps.google.com/?cid=0x0:0x563ee352e6c9e2bc,
hardware store,Toko Bahan Bangunan,UD MERUMAS,"F87G+P2W, Jl. Patih Jelantik-Gianyar, Beng, Kec. Gianyar, Kabupaten Gianyar, Bali 80517","Jl. Patih Jelantik-Gianyar, Beng, Kec. Gianyar, Kabupaten Gianyar",BALI,80517.0,Indonesia,,,,-8.5356362,115.3250788,https://maps.google.com/?cid=0x0:0x283bc2a85f240766,
hardware store,Toko Bahan Bangunan,Varia Bangunan,"Jl. Raden Wijaya No.8, Gianyar, Kec. Gianyar, Kabupaten Gianyar, Bali 80511","Gianyar, Kec. Gianyar, Kabupaten Gianyar",BALI,80511.0,Indonesia,81916196586.0,,,-8.5451971,115.3211236,https://maps.google.com/?cid=0x0:0xccb23c39271003ce,
hardware store,Toko Bahan Bangunan,Bintang Baru Bangunan,"Jl. Sakura, Abianbase, Kec. Gianyar, Kabupaten Gianyar, Bali 80515","Abianbase, Kec. Gianyar, Kabupaten Gianyar",BALI,80515.0,Indonesia,81228608197.0,,,-8.5535564,115.3328994,https://maps.google.com/?cid=0x0:0xc3b87739da0561e,
hardware store,Toko Bahan Bangunan,"Harum Jaya Bangunan, Toko","Jl. Ciung Wanara-Gianyar No.28 A, Gianyar, Kec. Gianyar, Kabupaten Gianyar, Bali 80511","Gianyar, Kec. Gianyar, Kabupaten Gianyar",BALI,80511.0,Indonesia,81918091818.0,,,-8.5404045,115.3223371,https://maps.google.com/?cid=0x0:0x63e2c8bcc0c2e836,
hardware store,Toko Bahan Bangunan,Amertha Nadi,"F942+WXX, Jl. Raya Tulikup, Tulikup, Kec. Gianyar, Kabupaten Gianyar, Bali 80511","Jl. Raya Tulikup, Tulikup, Kec. Gianyar, Kabupaten Gianyar",BALI,80511.0,Indonesia,81236428633.0,,,-8.5426478,115.3524696,https://maps.google.com/?cid=0x0:0x7222c6773e00cc6a,
hardware store,Toko Bahan Bangunan,UD. Dewi,"F8FW+PPR, Jl. Raya Sidan, Sidan, Kec. Gianyar, Kabupaten Gianyar, Bali 80515","Jl. Raya Sidan, Sidan, Kec. Gianyar, Kabupaten Gianyar",BALI,80515.0,Indonesia,87860035561.0,,,-8.5256389,115.3467707,https://maps.google.com/?cid=0x0:0xffaf525dd8a8cdff,
hardware store,Toko Bahan Bangunan,UD. Mira,"F8HC+P64, Jl. Sawo, Bitera, Kec. Gianyar, Kabupaten Gianyar, Bali 80515","Jl. Sawo, Bitera, Kec. Gianyar, Kabupaten Gianyar",BALI,80515.0,Indonesia,361943902.0,,,-8.520744,115.320579,https://maps.google.com/?cid=0x0:0x8926e0fdb29f9565,
hardware store,hardware store,Gianyar,"Kec. Gianyar, Kabupaten Gianyar, Bali","Kabupaten Gianyar, Bali",BALI,,Indonesia,,,,-8.5367146,115.3314412,https://maps.google.com/?cid=0x0:0x4030bfbca7d2d50,
hardware store,Pemasok Bahan Bangunan,Citra Karya Mas,"Jl. Prof. Dr. Ida Bagus Mantra, Ketewel, Kec. Sukawati, Kabupaten Gianyar, Bali 80582","Ketewel, Kec. Sukawati, Kabupaten Gianyar",BALI,80582.0,Indonesia,81339872030.0,,,-8.6364198,115.2840536,https://maps.google.com/?cid=0x0:0x76062d62e64f06fb,
hardware store,Toko bahan makanan,AZKO Batubulan,"Jl. Raya Batubulan No.45X, Banjar Tegehe, Batubulan, Kec. Sukawati, Kabupaten Gianyar, Bali 80582","Banjar Tegehe, Batubulan, Kec. Sukawati, Kabupaten Gianyar",BALI,80582.0,Indonesia,85338803533.0,,,-8.6256407,115.2578266,https://maps.google.com/?cid=0x0:0x76b37dc22ca525d3,
hardware store,Toko Bahan Bangunan,Ud. Boby Jaya Utama,"F89Q+WCX, Jl. Bukit Batu, Samplangan, Kec. Gianyar, Kabupaten Gianyar, Bali 80512","Jl. Bukit Batu, Samplangan, Kec. Gianyar, Kabupaten Gianyar",BALI,80512.0,Indonesia,8174196796.0,,,-8.5301415,115.3386172,https://maps.google.com/?cid=0x0:0x235d63e02b93e5c2,
hardware store,Toko Elektronik,Toko Sentral Elektronik,"Jl. Kebo Iwa No.28, Gianyar, Kec. Gianyar, Kabupaten Gianyar, Bali 80511","Gianyar, Kec. Gianyar, Kabupaten Gianyar",BALI,80511.0,Indonesia,81239676424.0,,,-8.5440074,115.3224323,https://maps.google.com/?cid=0x0:0x25f59f13b0ecca4b,
hardware store,Toko Elektronik,Horizon Electronic  Sports Gianyar,"Jl. Dharma Giri No.97, Bitera, Kec. Gianyar, Kabupaten Gianyar, Bali 80515","Bitera, Kec. Gianyar, Kabupaten Gianyar",BALI,80515.0,Indonesia,89524656788.0,,,-8.5412111,115.3188002,https://maps.google.com/?cid=0x0:0xce7e0cc1db00eead,
hardware store,Toko Swalayan,Clandys Gianyar,"Jl. Kesatrian No.5A, Gianyar, Kec. Gianyar, Kabupaten Gianyar, Bali 80511","Gianyar, Kec. Gianyar, Kabupaten Gianyar",BALI,80511.0,Indonesia,87863367550.0,,,-8.5441405,115.3255137,https://maps.google.com/?cid=0x0:0x9d90cd8fd95f11c6,
hardware store,Toko Perlengkapan Rumah,MR.DIY,"F823+CWJ, Buruan, Kec. Blahbatuh, Kabupaten Gianyar, Bali 80581","Buruan, Kec. Blahbatuh, Kabupaten Gianyar",BALI,80581.0,Indonesia,,,,-8.5488773,115.30487,https://maps.google.com/?cid=0x0:0x33a52fc29dadf65f,
hardware store,hardware store,Bali 80513,"Kec. Gianyar, Kabupaten Gianyar, Bali","Kabupaten Gianyar, Bali",BALI,,Indonesia,,,,-8.5273675,115.3267245,https://maps.google.com/?cid=0x0:0x726f6b72398c7c97,
hardware store,Toko Bahan Bangunan,Putra Manila Hardware Store (0811155369) our store only number,"Jl. Wisma Udayana, Getas, Buruan, Kec. Blahbatuh, Kabupaten Gianyar, Bali 80511","Getas, Buruan, Kec. Blahbatuh, Kabupaten Gianyar",BALI,80511.0,Indonesia,811155369.0,,,-8.5527139,115.3030658,https://maps.google.com/?cid=0x0:0x51607417d4465d85,
hardware store,Toko Bahan Bangunan,AZKO Gianyar Bali,"Jl. Ngurah Rai-Gianyar No.79, Gianyar, Kec. Gianyar, Kabupaten Gianyar, Bali 80511","Gianyar, Kec. Gianyar, Kabupaten Gianyar",BALI,80511.0,Indonesia,82236614096.0,,,-8.5413176,115.3278382,https://maps.google.com/?cid=0x0:0x8569c6f716edc50b,
hardware store,Toko Bahan Bangunan,UD MERUMAS,"F87G+P2W, Jl. Patih Jelantik-Gianyar, Beng, Kec. Gianyar, Kabupaten Gianyar, Bali 80517","Jl. Patih Jelantik-Gianyar, Beng, Kec. Gianyar, Kabupaten Gianyar",BALI,80517.0,Indonesia,,,,-8.5356362,115.3250788,https://maps.google.com/?cid=0x0:0x283bc2a85f240766,
hardware store,Toko Bahan Bangunan,UD. Gambuh,"F8HH+JV5, Jl. Gn. Agung, Bakbakan, Kec. Gianyar, Kabupaten Gianyar, Bali 80515","Jl. Gn. Agung, Bakbakan, Kec. Gianyar, Kabupaten Gianyar",BALI,80515.0,Indonesia,361944737.0,,,-8.5209922,115.3297215,https://maps.google.com/?cid=0x0:0xd7ced2d435eb109c,
hardware store,Toko Bahan Bangunan,UD. Mira,"F8HC+P64, Jl. Sawo, Bitera, Kec. Gianyar, Kabupaten Gianyar, Bali 80515","Jl. Sawo, Bitera, Kec. Gianyar, Kabupaten Gianyar",BALI,80515.0,Indonesia,361943902.0,,,-8.520744,115.320579,https://maps.google.com/?cid=0x0:0x8926e0fdb29f9565,
hardware store,Toko Bahan Bangunan,"Harum Jaya Bangunan, Toko","Jl. Ciung Wanara-Gianyar No.28 A, Gianyar, Kec. Gianyar, Kabupaten Gianyar, Bali 80511","Gianyar, Kec. Gianyar, Kabupaten Gianyar",BALI,80511.0,Indonesia,81918091818.0,,,-8.5404045,115.3223371,https://maps.google.com/?cid=0x0:0x63e2c8bcc0c2e836,
hardware store,Toko Bahan Bangunan,Agung Hardware,"Jalan cok gede rai peliatan ubud gianyar 80751, Peliatan, Kecamatan Ubud, Kabupaten Gianyar, Bali 80751","Peliatan, Kecamatan Ubud, Kabupaten Gianyar",BALI,80751.0,Indonesia,85253888998.0,,,-8.520831,115.2682952,https://maps.google.com/?cid=0x0:0x3bde289d17870df9,
hardware store,Toko Sepatu,Roofstore,"Jl. Kesatrian No.23, Gianyar, Kec. Gianyar, Kabupaten Gianyar, Bali 80511","Gianyar, Kec. Gianyar, Kabupaten Gianyar",BALI,80511.0,Indonesia,83877860129.0,,,-8.5447993,115.3253677,https://maps.google.com/?cid=0x0:0xe3d1bf2f7f260b39,
hardware store,Toko Bahan Bangunan,Toko bangunan bali made 2,"Jalan Raya Jl. Bukit Jati No.80x, Samplangan, Kec. Gianyar, Kabupaten Gianyar, Bali 80511","Samplangan, Kec. Gianyar, Kabupaten Gianyar",BALI,80511.0,Indonesia,89685848180.0,,,-8.5369604,115.3332963,https://maps.google.com/?cid=0x0:0xa1db30a250c7a380,
hardware store,Toko Bahan Bangunan,Bali Natural,"C8HX+F66, Jl. Raya Pantai Lebih, Lebih, Kec. Gianyar, Kabupaten Gianyar, Bali 80511","Jl. Raya Pantai Lebih, Lebih, Kec. Gianyar, Kabupaten Gianyar",BALI,80511.0,Indonesia,83119398813.0,,,-8.571331,115.3480247,https://maps.google.com/?cid=0x0:0x4e0f6d90449321b,
hardware store,Toko Perlengkapan Rumah,MR.DIY,"Jl. Astina Utara No.1A, Lingkungan Candi Baru, Gianyar, Kec. Gianyar, Kabupaten Gianyar, Bali 80511","Lingkungan Candi Baru, Gianyar, Kec. Gianyar, Kabupaten Gianyar",BALI,80511.0,Indonesia,,,,-8.5364788,115.3230488,https://maps.google.com/?cid=0x0:0x503531166f95dd1a,
hardware store,Toko Cermin,Citra Alluminium,"Jl. Patih Jelantik-Gianyar No.9x, Gianyar, Kec. Gianyar, Kabupaten Gianyar, Bali 80511","Gianyar, Kec. Gianyar, Kabupaten Gianyar",BALI,80511.0,Indonesia,361948853.0,,,-8.5356256,115.3276679,https://maps.google.com/?cid=0x0:0xec8ec51cdad56e87,
hardware store,Jasa Ukir Perhiasan,Junaidy Ukir,"F87G+MWP, Jl. Patih Jelantik-Gianyar, Beng, Kec. Gianyar, Kabupaten Gianyar, Bali 80511","Jl. Patih Jelantik-Gianyar, Beng, Kec. Gianyar, Kabupaten Gianyar",BALI,80511.0,Indonesia,85169996026.0,,,-8.535779,115.3273302,https://maps.google.com/?cid=0x0:0x272d42aa1459f841,
hardware store,Toko Bahan Bangunan,UD. Sari Buah,"Jl. Bukit Jati No.15, Beng, Kec. Gianyar, Kabupaten Gianyar, Bali 80513","Beng, Kec. Gianyar, Kabupaten Gianyar",BALI,80513.0,Indonesia,85238496410.0,,,-8.5364103,115.331665,https://maps.google.com/?cid=0x0:0x5c6a31b667530e68,
hardware store,Toko Elektronik,Toko Sentral Elektronik,"Jl. Kebo Iwa No.28, Gianyar, Kec. Gianyar, Kabupaten Gianyar, Bali 80511","Gianyar, Kec. Gianyar, Kabupaten Gianyar",BALI,80511.0,Indonesia,81239676424.0,,,-8.5440074,115.3224323,https://maps.google.com/?cid=0x0:0x25f59f13b0ecca4b,
hardware store,Toko Elektronik,Horizon Electronic  Sports Gianyar,"Jl. Dharma Giri No.97, Bitera, Kec. Gianyar, Kabupaten Gianyar, Bali 80515","Bitera, Kec. Gianyar, Kabupaten Gianyar",BALI,80515.0,Indonesia,89524656788.0,,,-8.5412111,115.3188002,https://maps.google.com/?cid=0x0:0xce7e0cc1db00eead,
hardware store,Toko Bahan Bangunan,Toko Putra Rahayu,"F85C+F7V, Jl. Dharma Giri, Gianyar, Kec. Gianyar, Kabupaten Gianyar, Bali 80511","Jl. Dharma Giri, Gianyar, Kec. Gianyar, Kabupaten Gianyar",BALI,80511.0,Indonesia,8123632179.0,,,-8.5412719,115.3206873,https://maps.google.com/?cid=0x0:0x431f6093b0bf02dd,
hardware store,Toko Swalayan,Clandys Gianyar,"Jl. Kesatrian No.5A, Gianyar, Kec. Gianyar, Kabupaten Gianyar, Bali 80511","Gianyar, Kec. Gianyar, Kabupaten Gianyar",BALI,80511.0,Indonesia,87863367550.0,,,-8.5441405,115.3255137,https://maps.google.com/?cid=0x0:0x9d90cd8fd95f11c6,
hardware store,Toko Bahan Bangunan,Depo Bagoes Bangunan,"Jl. Mahendradata No.18, Bedulu, Kec. Blahbatuh, Kabupaten Gianyar, Bali 80511","Bedulu, Kec. Blahbatuh, Kabupaten Gianyar",BALI,80511.0,Indonesia,81805021818.0,,,-8.5351479,115.3080096,https://maps.google.com/?cid=0x0:0x3b473a950caea398,
hardware store,Toko Perlengkapan Rumah,MR.DIY,"F823+CWJ, Buruan, Kec. Blahbatuh, Kabupaten Gianyar, Bali 80581","Buruan, Kec. Blahbatuh, Kabupaten Gianyar",BALI,80581.0,Indonesia,,,,-8.5488773,115.30487,https://maps.google.com/?cid=0x0:0x33a52fc29dadf65f,
hardware store,Toko bahan makanan,AZKO Batubulan,"Jl. Raya Batubulan No.45X, Banjar Tegehe, Batubulan, Kec. Sukawati, Kabupaten Gianyar, Bali 80582","Banjar Tegehe, Batubulan, Kec. Sukawati, Kabupaten Gianyar",BALI,80582.0,Indonesia,85338803533.0,,,-8.6256407,115.2578266,https://maps.google.com/?cid=0x0:0x76b37dc22ca525d3,
hardware store,Toko Bahan Bangunan,Toko Adi Jaya,"G74F+28M, Jl. Raya Andong, Petulu, Kecamatan Ubud, Kabupaten Gianyar, Bali 80571","Jl. Raya Andong, Petulu, Kecamatan Ubud, Kabupaten Gianyar",BALI,80571.0,Indonesia,361975859.0,,,-8.4949235,115.2733088,https://maps.google.com/?cid=0x0:0xf5d96d4148ff835f,
hardware store,hardware store,Bali 80515,"Kec. Gianyar, Kabupaten Gianyar, Bali","Kabupaten Gianyar, Bali",BALI,,Indonesia,,,,-8.5169426,115.3133908,https://maps.google.com/?cid=0x0:0x1c00c5eb6016be90,
hardware store,Toko Bahan Bangunan,AZKO Gianyar Bali,"Jl. Ngurah Rai-Gianyar No.79, Gianyar, Kec. Gianyar, Kabupaten Gianyar, Bali 80511","Gianyar, Kec. Gianyar, Kabupaten Gianyar",BALI,80511.0,Indonesia,82236614096.0,,,-8.5413176,115.3278382,https://maps.google.com/?cid=0x0:0x8569c6f716edc50b,
hardware store,Toko Bahan Bangunan,UD BASUR,"Jl. Ratna No.78, Tegal Tugu, Kec. Gianyar, Kabupaten Gianyar, Bali 80515","Tegal Tugu, Kec. Gianyar, Kabupaten Gianyar",BALI,80515.0,Indonesia,82147448237.0,,,-8.5557096,115.3367314,https://maps.google.com/?cid=0x0:0xe4e6d68248d8aae3,
hardware store,Toko Bahan Bangunan,Putra Manila Hardware Store (0811155369) our store only number,"Jl. Wisma Udayana, Getas, Buruan, Kec. Blahbatuh, Kabupaten Gianyar, Bali 80511","Getas, Buruan, Kec. Blahbatuh, Kabupaten Gianyar",BALI,80511.0,Indonesia,811155369.0,,,-8.5527139,115.3030658,https://maps.google.com/?cid=0x0:0x51607417d4465d85,
hardware store,Toko Bahan Bangunan,TB Villas Bangunan,"Jl. Raya Sidan No.raya, Sidan, Kec. Gianyar, Kabupaten Gianyar, Bali 80515","Sidan, Kec. Gianyar, Kabupaten Gianyar",BALI,80515.0,Indonesia,82312913158.0,,,-8.535531,115.3485469,https://maps.google.com/?cid=0x0:0xcf4ce530307eede4,
hardware store,Toko Bahan Bangunan,UD Cipta Karya Utama,"C9C3+P43, Jalan Raya Pantai, Lebih, Kec. Gianyar, Kabupaten Gianyar, Bali 80515","Jalan Raya Pantai, Lebih, Kec. Gianyar, Kabupaten Gianyar",BALI,80515.0,Indonesia,82144907576.0,,,-8.5782417,115.3527856,https://maps.google.com/?cid=0x0:0x5a2a2c276283099b,
hardware store,Toko Bahan Bangunan,Toko Harmonis,"Jl. Astina Timur No.18x, Samplangan, Kec. Gianyar, Kabupaten Gianyar, Bali 80512","Samplangan, Kec. Gianyar, Kabupaten Gianyar",BALI,80512.0,Indonesia,81338722669.0,,,-8.5403448,115.3378149,https://maps.google.com/?cid=0x0:0x78430e04b4d39d94,
hardware store,Toko Bahan Bangunan,Bintang Baru Bangunan,"Jl. Sakura, Abianbase, Kec. Gianyar, Kabupaten Gianyar, Bali 80515","Abianbase, Kec. Gianyar, Kabupaten Gianyar",BALI,80515.0,Indonesia,81228608197.0,,,-8.5535564,115.3328994,https://maps.google.com/?cid=0x0:0xc3b87739da0561e,
hardware store,Toko Bahan Bangunan,Taksu Pande,"C8MW+4C2, Jalan Raya Kesian, Desa Lebih, Lebih, Kec. Gianyar, Kabupaten Gianyar, Bali 80511","Jalan Raya Kesian, Desa Lebih, Lebih, Kec. Gianyar, Kabupaten Gianyar",BALI,80511.0,Indonesia,85936101451.0,,,-8.5672277,115.3460026,https://maps.google.com/?cid=0x0:0x6476a4c4a5266de8,
hardware store,Toko Bahan Bangunan,UD Koripan,"Jalan I Jl. Gusti Agung Made Gambar, Medahan, Kec. Blahbatuh, Denpasar, Bali 80511","Medahan, Kec. Blahbatuh, Denpasar",BALI,80511.0,Indonesia,85792366665.0,,,-8.571387,115.3286234,https://maps.google.com/?cid=0x0:0xf48f475f303fe304,
hardware store,Toko Bahan Bangunan,UD. Antungan,"F8FX+447, Jl. Raya Sidan, Sidan, Kec. Gianyar, Kabupaten Gianyar, Bali 80515","Jl. Raya Sidan, Sidan, Kec. Gianyar, Kabupaten Gianyar",BALI,80515.0,Indonesia,81337233052.0,,,-8.5272242,115.347791,https://maps.google.com/?cid=0x0:0x4e8c041f7bc9e778,
hardware store,Toko Bahan Bangunan,Metalindo Makmur Bali,"Jl. Bukit Jati No.8, Beng, Kec. Gianyar, Kabupaten Gianyar, Bali","Kabupaten Gianyar, Bali",BALI,,Indonesia,85737622208.0,,,-8.5361766,115.331111,https://maps.google.com/?cid=0x0:0xaef0c993f55814f9,
hardware store,Toko Bahan Bangunan,UD Suwarnadi,"G76R+2X3, Jl. Raya Pejeng Tampaksiring, Pejeng Kaja, Kec. Tampaksiring, Kabupaten Gianyar, Bali 80552","Jl. Raya Pejeng Tampaksiring, Pejeng Kaja, Kec. Tampaksiring, Kabupaten Gianyar",BALI,80552.0,Indonesia,361981780.0,,,-8.4899943,115.2924208,https://maps.google.com/?cid=0x0:0xe1401408a3184d36,
hardware store,Toko Bahan Bangunan,TB. Lima Jaya,"F85X+C6X, Jl. Raya Pegesangan, Temesi, Kec. Gianyar, Kabupaten Gianyar, Bali 80515","Jl. Raya Pegesangan, Temesi, Kec. Gianyar, Kabupaten Gianyar",BALI,80515.0,Indonesia,361943874.0,,,-8.5413843,115.3481134,https://maps.google.com/?cid=0x0:0xfcf02d724c99f12a,
hardware store,Toko Bahan Bangunan,UD. Dewi,"F8FW+PPR, Jl. Raya Sidan, Sidan, Kec. Gianyar, Kabupaten Gianyar, Bali 80515","Jl. Raya Sidan, Sidan, Kec. Gianyar, Kabupaten Gianyar",BALI,80515.0,Indonesia,87860035561.0,,,-8.5256389,115.3467707,https://maps.google.com/?cid=0x0:0xffaf525dd8a8cdff,
hardware store,Toko Bahan Bangunan,Depo Bagoes Bangunan,"Jl. Mahendradata No.18, Bedulu, Kec. Blahbatuh, Kabupaten Gianyar, Bali 80511","Bedulu, Kec. Blahbatuh, Kabupaten Gianyar",BALI,80511.0,Indonesia,81805021818.0,,,-8.5351479,115.3080096,https://maps.google.com/?cid=0x0:0x3b473a950caea398,
hardware store,Toko Bahan Bangunan,GIANYAR BANGUNAN,"Jl. Mulawarman, Abianbase, Kec. Gianyar, Kabupaten Gianyar, Bali 80515","Abianbase, Kec. Gianyar, Kabupaten Gianyar",BALI,80515.0,Indonesia,81999689586.0,,,-8.557026,115.3273082,https://maps.google.com/?cid=0x0:0x563ee352e6c9e2bc,
hardware store,Toko Bahan Bangunan,UD. Gambuh,"F8HH+JV5, Jl. Gn. Agung, Bakbakan, Kec. Gianyar, Kabupaten Gianyar, Bali 80515","Jl. Gn. Agung, Bakbakan, Kec. Gianyar, Kabupaten Gianyar",BALI,80515.0,Indonesia,361944737.0,,,-8.5209922,115.3297215,https://maps.google.com/?cid=0x0:0xd7ced2d435eb109c,
hardware store,Toko Bahan Bangunan,UD. Mira,"F8HC+P64, Jl. Sawo, Bitera, Kec. Gianyar, Kabupaten Gianyar, Bali 80515","Jl. Sawo, Bitera, Kec. Gianyar, Kabupaten Gianyar",BALI,80515.0,Indonesia,361943902.0,,,-8.520744,115.320579,https://maps.google.com/?cid=0x0:0x8926e0fdb29f9565,
hardware store,Toko Bahan Bangunan,Toko Baut Jaya Makmur,"F85W+GVH, Jl. Raya Samplangan, Samplangan, Kec. Gianyar, Kabupaten Gianyar, Bali 80512","Jl. Raya Samplangan, Samplangan, Kec. Gianyar, Kabupaten Gianyar",BALI,80512.0,Indonesia,81337755828.0,,,-8.5411932,115.34722,https://maps.google.com/?cid=0x0:0xb530ff34b5859080,
hardware store,Toko Elektronik,CK. Candra Karya,"C9J9+GXQ, Jalan By Pass Prof Dok Ida Bagus Mantra, Tulikup, Kec. Gianyar, Kabupaten Gianyar, Bali 80515","Jalan By Pass Prof Dok Ida Bagus Mantra, Tulikup, Kec. Gianyar, Kabupaten Gianyar",BALI,80515.0,Indonesia,87860729401.0,,,-8.5686632,115.3699689,https://maps.google.com/?cid=0x0:0x6cbdaa6f4a07f76d,
hardware store,Toko Bahan Bangunan,Toko Pelita Agung,"Jl. Kesatrian No.26a, Gianyar, Kec. Gianyar, Kabupaten Gianyar, Bali 80511","Gianyar, Kec. Gianyar, Kabupaten Gianyar",BALI,80511.0,Indonesia,361943043.0,,,-8.5452279,115.3253208,https://maps.google.com/?cid=0x0:0xd4c528a3eeb7b2bd,
hardware store,Toko Bahan Bangunan,UD MIRA 2,"Jl. Mundeh, Bitera, Kec. Gianyar, Kabupaten Gianyar, Bali 80515","Bitera, Kec. Gianyar, Kabupaten Gianyar",BALI,80515.0,Indonesia,8246912156.0,,,-8.5245668,115.3123911,https://maps.google.com/?cid=0x0:0x4c59b250bc7b4c3b,
hardware store,hardware store,Bali 80572,"Kec. Payangan, Kabupaten Gianyar, Bali","Kabupaten Gianyar, Bali",BALI,,Indonesia,,,,-8.3752579,115.2481959,https://maps.google.com/?cid=0x0:0x1c00c5eb6016bee0,
hardware store,Toko Bahan Bangunan,UD. DARSANA,"Margatengah, Kerta, Kec. Payangan, Kabupaten Gianyar, Bali 80572","Kerta, Kec. Payangan, Kabupaten Gianyar",BALI,80572.0,Indonesia,81338084707.0,,,-8.319176,115.2868303,https://maps.google.com/?cid=0x0:0x6c08b74ce9ee721,
hardware store,Toko Bahan Bangunan,Graha Listrik  Bangunan,"Jl. Raya Payangan No.26, Melinggih Kelod, Kec. Payangan, Kabupaten Gianyar, Bali 80572","Melinggih Kelod, Kec. Payangan, Kabupaten Gianyar",BALI,80572.0,Indonesia,87761312188.0,,,-8.4413387,115.2442274,https://maps.google.com/?cid=0x0:0x98de81913a9ffe5c,
hardware store,Toko Bahan Bangunan,UD. Hoshi,"H755+878 Br Roban, Jl. Raya Kelusa, Kelusa, Kec. Payangan, Kabupaten Gianyar, Bali 80572","Jl. Raya Kelusa, Kelusa, Kec. Payangan, Kabupaten Gianyar",BALI,80572.0,Indonesia,,,,-8.4417162,115.2581886,https://maps.google.com/?cid=0x0:0x1804cf77a618a8c3,
hardware store,Toko grosir,UD. Agung,"Jl. Raya Bresela, Bresela, Kec. Payangan, Kabupaten Gianyar, Bali 80572","Bresela, Kec. Payangan, Kabupaten Gianyar",BALI,80572.0,Indonesia,85829023797.0,,,-8.4262372,115.2725012,https://maps.google.com/?cid=0x0:0x9719abc02aec408,
hardware store,Toko Bahan Bangunan,Toko PARWATA,"G78H+X5M, Jalan Raya, Banjar Gentong, Tegallalang, Gianyar Regency, Bali 80561","Jalan Raya, Banjar Gentong, Tegallalang, Gianyar Regency",BALI,80561.0,Indonesia,361973052.0,,,-8.482544,115.277922,https://maps.google.com/?cid=0x0:0xaa4e719a96cd754f,
hardware store,Toko Bahan Bangunan,Agung Hardware,"Jalan cok gede rai peliatan ubud gianyar 80751, Peliatan, Kecamatan Ubud, Kabupaten Gianyar, Bali 80751","Peliatan, Kecamatan Ubud, Kabupaten Gianyar",BALI,80751.0,Indonesia,85253888998.0,,,-8.520831,115.2682952,https://maps.google.com/?cid=0x0:0x3bde289d17870df9,
hardware store,Toko Bahan Bangunan,UD. PUSPA DEWI,"H6WW+3HP, Jl. Raya, Puhu, Kec. Payangan, Kabupaten Gianyar, Bali 80572","Jl. Raya, Puhu, Kec. Payangan, Kabupaten Gianyar",BALI,80572.0,Indonesia,,,,-8.4047809,115.2464647,https://maps.google.com/?cid=0x0:0x25b826d291bba116,
hardware store,Toko Bahan Bangunan,UD Jaya Mandiri (Gudang),"Jl. Raya Payangan No.08, Melinggih Kelod, Kec. Gianyar, Kabupaten Gianyar, Bali 80511","Melinggih Kelod, Kec. Gianyar, Kabupaten Gianyar",BALI,80511.0,Indonesia,3619000962.0,,,-8.445331,115.2419344,https://maps.google.com/?cid=0x0:0xef8723854aac9d9c,
hardware store,Toko Bahan Bangunan,Toko Adi Jaya,"G74F+28M, Jl. Raya Andong, Petulu, Kecamatan Ubud, Kabupaten Gianyar, Bali 80571","Jl. Raya Andong, Petulu, Kecamatan Ubud, Kabupaten Gianyar",BALI,80571.0,Indonesia,361975859.0,,,-8.4949235,115.2733088,https://maps.google.com/?cid=0x0:0xf5d96d4148ff835f,
hardware store,Toko grosir,Toko Dwika,"J7V6+G6C, Unnamed Road, Kerta, Kec. Payangan, Kabupaten Gianyar, Bali 80572","Unnamed Road, Kerta, Kec. Payangan, Kabupaten Gianyar",BALI,80572.0,Indonesia,,,,-8.3561858,115.2605208,https://maps.google.com/?cid=0x0:0x591423aadfd1d771,
hardware store,Toko Bahan Bangunan,Ud. Merta Sari,"H7WQ+H34, Jl. Raya Pujung Kaja, Sebatu, Kec. Tegallalang, Kabupaten Gianyar, Bali 80561","Jl. Raya Pujung Kaja, Sebatu, Kec. Tegallalang, Kabupaten Gianyar",BALI,80561.0,Indonesia,361901092.0,,,-8.403616,115.2877131,https://maps.google.com/?cid=0x0:0x56802d506317da2d,
hardware store,Toko Bahan Bangunan,Puri Bali,"Jl. Raya Tebongkang, Singakerta, Kecamatan Ubud, Kabupaten Gianyar, Bali 80571","Singakerta, Kecamatan Ubud, Kabupaten Gianyar",BALI,80571.0,Indonesia,81999022115.0,,,-8.5244272,115.2426008,https://maps.google.com/?cid=0x0:0x49b90560443fb82f,
hardware store,Toko Pakaian,DR Shop Payangan,"H69W+458, Jl. Raya, Melinggih, Kec. Payangan, Kabupaten Gianyar, Bali 80572","Jl. Raya, Melinggih, Kec. Payangan, Kabupaten Gianyar",BALI,80572.0,Indonesia,85337889186.0,,,-8.4322236,115.2454679,https://maps.google.com/?cid=0x0:0xa53dbdd35bd4665e,
hardware store,Toko Bahan Bangunan,Kios Eka,"Jl. Suweta, Banjar Bentuyung, Kecamatan Ubud, Kabupaten Gianyar, Bali 80571","Banjar Bentuyung, Kecamatan Ubud, Kabupaten Gianyar",BALI,80571.0,Indonesia,85238526214.0,,,-8.4830714,115.2655661,https://maps.google.com/?cid=0x0:0x3bd116707e6ae1e9,
hardware store,Toko Alat Tulis,ARRA MART,"Jl. raya penginyahan, Puhu, Kec. Payangan, Kabupaten Gianyar, Bali 80572","Puhu, Kec. Payangan, Kabupaten Gianyar",BALI,80572.0,Indonesia,,,,-8.3796245,115.2663387,https://maps.google.com/?cid=0x0:0x26dc3a13ed68597f,
hardware store,Toko Bahan Bangunan,Ud Karya Pering,"Jl. Raya Goa Gajah Jl. Raya Teges No.Br, Peliatan, Kecamatan Ubud, Kabupaten Gianyar, Bali 80571","Peliatan, Kecamatan Ubud, Kabupaten Gianyar",BALI,80571.0,Indonesia,85101799988.0,,,-8.5234282,115.2750863,https://maps.google.com/?cid=0x0:0xa2ed0f1ca0004fc7,
hardware store,Toko Bahan Bangunan,UD. Harapan Terang,"H7JX+W93, Unnamed Road, Kedisan, Kec. Tegallalang, Kabupaten Gianyar, Bali 80561","Unnamed Road, Kedisan, Kec. Tegallalang, Kabupaten Gianyar",BALI,80561.0,Indonesia,85238526617.0,,,-8.4177308,115.298412,https://maps.google.com/?cid=0x0:0x458eb490147daf3c,
hardware store,Toko Ponsel,Lucky Cellular Shop 1 Payangan,"Jl. Raya Payangan, Melinggih, Kec. Payangan, Kabupaten Gianyar, Bali 80572","Melinggih, Kec. Payangan, Kabupaten Gianyar",BALI,80572.0,Indonesia,85205520111.0,,,-8.4207773,115.2450636,https://maps.google.com/?cid=0x0:0xf9dbd58aa37384eb,
hardware store,Toko Bahan Bangunan,Toko Urip Sejahtera,"F7W9+4W6, Jl. Jero Gadung, Petulu, Kecamatan Ubud, Kabupaten Gianyar, Bali 80571","Jl. Jero Gadung, Petulu, Kecamatan Ubud, Kabupaten Gianyar",BALI,80571.0,Indonesia,361973383.0,,,-8.5047108,115.2697727,https://maps.google.com/?cid=0x0:0x3e43bf09ccc2d876,
hardware store,Toko Alat Tulis,UD. Adhikari Mandiri Stationary,"Jl. Raya Payangan, Melinggih, Kec. Payangan, Kabupaten Gianyar, Bali 80572","Melinggih, Kec. Payangan, Kabupaten Gianyar",BALI,80572.0,Indonesia,81238583857.0,,,-8.4297439,115.2458067,https://maps.google.com/?cid=0x0:0xe244c597b1a44926,
hardware store,hardware store,Kec. Payangan,"Kabupaten Gianyar, Bali","Kabupaten Gianyar, Bali",BALI,,Indonesia,,,,-8.4276862,115.2460576,https://maps.google.com/?cid=0x0:0x4030bfbca7d2d10,
hardware store,Toko Bahan Bangunan,UD Pratama,"Jl. I.GST. NGR Rai No.184, Petang, Kec. Petang, Kabupaten Badung, Bali 80353","Petang, Kec. Petang, Kabupaten Badung",BALI,80353.0,Indonesia,85239407535.0,,,-8.3960759,115.2187662,https://maps.google.com/?cid=0x0:0x64c1b9c8cf3a22ae,
hardware store,Toko Bahan Bangunan,UD Putri Gandhi Utama,"G7FH+8CF, Jl. Raya Tegallalang ,Banjar Sapaat,Tegallalang, Tegallalang, Kec. Tegallalang, Kabupaten Gianyar, Bali 80561","Jl. Raya Tegallalang ,Banjar Sapaat,Tegallalang, Tegallalang, Kec. Tegallalang, Kabupaten Gianyar",BALI,80561.0,Indonesia,85100475485.0,,,-8.476678,115.27854,https://maps.google.com/?cid=0x0:0xd7c4daee03158427,
hardware store,hardware store,Sukawati,"Guwang, Kec. Sukawati, Kabupaten Gianyar, Bali","Kabupaten Gianyar, Bali",BALI,,Indonesia,,,,-8.605564,115.280502,https://maps.google.com/?cid=0x0:0x3d33c5a58391e773,
hardware store,Toko Ponsel,DEVSTORE GIANYAR,"Jl. Raya Sakah No.27x, Batuan, Kec. Sukawati, Kabupaten Gianyar, Bali 80582","Batuan, Kec. Sukawati, Kabupaten Gianyar",BALI,80582.0,Indonesia,85559576888.0,,,-8.5809337,115.277723,https://maps.google.com/?cid=0x0:0x5977aaa372b08c65,
hardware store,Toko Perlengkapan Rumah,MR. DIY Batubulan,"Jl. Raya Batubulan, Banjar Kapal, Batubulan, Kec. Sukawati, Kabupaten Gianyar, Bali 80237","Banjar Kapal, Batubulan, Kec. Sukawati, Kabupaten Gianyar",BALI,80237.0,Indonesia,,,,-8.6227567,115.2562719,https://maps.google.com/?cid=0x0:0x35c47ae28b8a5a9,
hardware store,Toko bahan makanan,AZKO Batubulan,"Jl. Raya Batubulan No.45X, Banjar Tegehe, Batubulan, Kec. Sukawati, Kabupaten Gianyar, Bali 80582","Banjar Tegehe, Batubulan, Kec. Sukawati, Kabupaten Gianyar",BALI,80582.0,Indonesia,85338803533.0,,,-8.6256407,115.2578266,https://maps.google.com/?cid=0x0:0x76b37dc22ca525d3,
hardware store,Produsen,Raditya Gianyar,"Jl. Raya Sakah Jl. Cangi No.Desa, Kemenuh, Kec. Sukawati, Kabupaten Gianyar, Bali 80582","Kemenuh, Kec. Sukawati, Kabupaten Gianyar",BALI,80582.0,Indonesia,82339060468.0,,,-8.5634316,115.2771875,https://maps.google.com/?cid=0x0:0xaa3f7b09807aa920,
hardware store,Toko Bahan Bangunan,Putra Manila Hardware Store (0811155369) our store only number,"Jl. Wisma Udayana, Getas, Buruan, Kec. Blahbatuh, Kabupaten Gianyar, Bali 80511","Getas, Buruan, Kec. Blahbatuh, Kabupaten Gianyar",BALI,80511.0,Indonesia,811155369.0,,,-8.5527139,115.3030658,https://maps.google.com/?cid=0x0:0x51607417d4465d85,
hardware store,Toko Bahan Bangunan,Agung Hardware,"Jalan cok gede rai peliatan ubud gianyar 80751, Peliatan, Kecamatan Ubud, Kabupaten Gianyar, Bali 80751","Peliatan, Kecamatan Ubud, Kabupaten Gianyar",BALI,80751.0,Indonesia,85253888998.0,,,-8.520831,115.2682952,https://maps.google.com/?cid=0x0:0x3bde289d17870df9,
hardware store,Komplek perumahan,Istana Kepresidenan Tampaksiring Bali,"Jl. Dr. Ir. Soekarno, Manukaya, Kec. Tampaksiring, Kabupaten Gianyar, Bali 80552","Manukaya, Kec. Tampaksiring, Kabupaten Gianyar",BALI,80552.0,Indonesia,361901400.0,,,-8.4149206,115.3109393,https://maps.google.com/?cid=0x0:0x76dd0f9d7edc504b,
hardware store,Toko Bahan Bangunan,UD. Harum Sari,"G7QX+VM6, Jl. Pejeng Kaja - Tampak Siring, Sanding, Kec. Tampaksiring, Kabupaten Gianyar, Bali 80552","Jl. Pejeng Kaja - Tampak Siring, Sanding, Kec. Tampaksiring, Kabupaten Gianyar",BALI,80552.0,Indonesia,,,,-8.4603483,115.2991323,https://maps.google.com/?cid=0x0:0x890db05d2722a861,
hardware store,hardware store,Bali 80552,"Kec. Tampaksiring, Kabupaten Gianyar, Bali","Kabupaten Gianyar, Bali",BALI,,Indonesia,,,,-8.4362857,115.3133908,https://maps.google.com/?cid=0x0:0x1c00c5eb6016beb0,
hardware store,Pasar bahan bangunan,TB. Ayu Martini,"G7QX+WRM, Jalan Raya, Pejeng, Tampaksiring, Gianyar Regency, Bali 80552","Jalan Raya, Pejeng, Tampaksiring, Gianyar Regency",BALI,80552.0,Indonesia,85100081505.0,,,-8.4601729,115.2995459,https://maps.google.com/?cid=0x0:0x81643d617e072fc1,
hardware store,Toko Bahan Bangunan,UD Suwarnadi,"G76R+2X3, Jl. Raya Pejeng Tampaksiring, Pejeng Kaja, Kec. Tampaksiring, Kabupaten Gianyar, Bali 80552","Jl. Raya Pejeng Tampaksiring, Pejeng Kaja, Kec. Tampaksiring, Kabupaten Gianyar",BALI,80552.0,Indonesia,361981780.0,,,-8.4899943,115.2924208,https://maps.google.com/?cid=0x0:0xe1401408a3184d36,
hardware store,Toko,UD.TRISNA,"Banjar Cagaan Kelod, Pejeng Kangin, Kec. Tampaksiring, Kabupaten Gianyar, Bali 80552","Pejeng Kangin, Kec. Tampaksiring, Kabupaten Gianyar",BALI,80552.0,Indonesia,85858465969.0,,,-8.4992878,115.2978624,https://maps.google.com/?cid=0x0:0x5924b8648dd3e2ea,
hardware store,Toko Bahan Bangunan,Toko Whindu Karya,"H8G5+J7H, Jl. Dr. Ir. Soekarno, Tampaksiring, Kec. Tampaksiring, Kabupaten Gianyar, Bali 80552","Jl. Dr. Ir. Soekarno, Tampaksiring, Kec. Tampaksiring, Kabupaten Gianyar",BALI,80552.0,Indonesia,81238273274.0,,,-8.4234444,115.3082498,https://maps.google.com/?cid=0x0:0x2d7213417f686836,
hardware store,Toko Bahan Bangunan,Putra Manila Hardware Store (0811155369) our store only number,"Jl. Wisma Udayana, Getas, Buruan, Kec. Blahbatuh, Kabupaten Gianyar, Bali 80511","Getas, Buruan, Kec. Blahbatuh, Kabupaten Gianyar",BALI,80511.0,Indonesia,811155369.0,,,-8.5527139,115.3030658,https://maps.google.com/?cid=0x0:0x51607417d4465d85,
hardware store,Pemasok Produk Plastik,Tirta Terpal Bali,"Jl. Pertiwi Brata, Subak Pulagan, Tampaksiring, Kec. Tampaksiring, Bali 80552","Subak Pulagan, Tampaksiring, Kec. Tampaksiring",BALI,80552.0,Indonesia,8563751716.0,,,-8.4308134,115.3142698,https://maps.google.com/?cid=0x0:0xabdb2e941b6ee6b8,
hardware store,Toko Bahan Bangunan,Toko PARWATA,"G78H+X5M, Jalan Raya, Banjar Gentong, Tegallalang, Gianyar Regency, Bali 80561","Jalan Raya, Banjar Gentong, Tegallalang, Gianyar Regency",BALI,80561.0,Indonesia,361973052.0,,,-8.482544,115.277922,https://maps.google.com/?cid=0x0:0xaa4e719a96cd754f,
hardware store,Toko Bahan Bangunan,Toko triniti,"Br.keranjangan, Manukaya, Kec. Tampaksiring, Kabupaten Gianyar, Bali 80552","Manukaya, Kec. Tampaksiring, Kabupaten Gianyar",BALI,80552.0,Indonesia,81338784641.0,,,-8.3979029,115.32228,https://maps.google.com/?cid=0x0:0xff0a1838b13a25e0,
hardware store,Toko Bahan Bangunan,Windhu Karya,"H8Q6+2HF, Jl. Dr. Ir. Soekarno, Manukaya, Kec. Tampaksiring, Kabupaten Gianyar, Bali 80552","Jl. Dr. Ir. Soekarno, Manukaya, Kec. Tampaksiring, Kabupaten Gianyar",BALI,80552.0,Indonesia,85337945995.0,,,-8.4124433,115.3114357,https://maps.google.com/?cid=0x0:0x723cc6a892539b44,
hardware store,Toko Bahan Bangunan,UD. Rimba Karya,"JL RAYA GOA GAJAH, Jl. Raya Teges KANGIN, Peliatan, Kabupaten Gianyar, Bali","Kabupaten Gianyar, Bali",BALI,,Indonesia,81999971277.0,,,-8.5227449,115.2786623,https://maps.google.com/?cid=0x0:0xeddf5095a1e25229,
hardware store,Toko Bahan Bangunan,Ud Karya Pering,"Jl. Raya Goa Gajah Jl. Raya Teges No.Br, Peliatan, Kecamatan Ubud, Kabupaten Gianyar, Bali 80571","Peliatan, Kecamatan Ubud, Kabupaten Gianyar",BALI,80571.0,Indonesia,85101799988.0,,,-8.5234282,115.2750863,https://maps.google.com/?cid=0x0:0xa2ed0f1ca0004fc7,
hardware store,Toko Bahan Bangunan,UD. BAGUS JAYA,"Pejeng Kawan, Kec. Tampaksiring, Kabupaten Gianyar, Bali 80552","Kec. Tampaksiring, Kabupaten Gianyar",BALI,80552.0,Indonesia,361982049.0,,,-8.5115449,115.2871571,https://maps.google.com/?cid=0x0:0x3695aeafa9cec2c3,
hardware store,Toko Bahan Bangunan,Toko Adi Jaya,"G74F+28M, Jl. Raya Andong, Petulu, Kecamatan Ubud, Kabupaten Gianyar, Bali 80571","Jl. Raya Andong, Petulu, Kecamatan Ubud, Kabupaten Gianyar",BALI,80571.0,Indonesia,361975859.0,,,-8.4949235,115.2733088,https://maps.google.com/?cid=0x0:0xf5d96d4148ff835f,
hardware store,Toko Bahan Bangunan,UD. Bangun Jaya,"Br. Mancawarna, Jl. Dr. Ir. Soekarno, Sanding, Kec. Tampaksiring, Kabupaten Gianyar, Bali 80552","Jl. Dr. Ir. Soekarno, Sanding, Kec. Tampaksiring, Kabupaten Gianyar",BALI,80552.0,Indonesia,82128677024.0,,,-8.4232038,115.3084497,https://maps.google.com/?cid=0x0:0xdb2829a4124ec105,
hardware store,Toko Bahan Bangunan,UD. SEDERHANA,"J82G+8GX, Jalan, Manukaya, Tampaksiring, Gianyar Regency, Bali 80552","Jalan, Manukaya, Tampaksiring, Gianyar Regency",BALI,80552.0,Indonesia,85237650556.0,,,-8.3991318,115.3263526,https://maps.google.com/?cid=0x0:0xe9a35e06f4bac67c,
hardware store,Toko Bahan Bangunan,UD. SUKMA JAYA,"Jl. Raya Petemon, Pejeng Kelod, Kec. Tampaksiring, Kabupaten Gianyar, Bali 80552","Pejeng Kelod, Kec. Tampaksiring, Kabupaten Gianyar",BALI,80552.0,Indonesia,81337785440.0,,,-8.5160947,115.3019382,https://maps.google.com/?cid=0x0:0x1bee885dbbfcef06,
hardware store,Toko,UD. Cempaka Bali,"F7QM+X49, Pejeng Kawan, Kec. Tampaksiring, Kabupaten Gianyar, Bali 80552","Pejeng Kawan, Kec. Tampaksiring, Kabupaten Gianyar",BALI,80552.0,Indonesia,3618987933.0,,,-8.5100838,115.2828536,https://maps.google.com/?cid=0x0:0x8d16bcca19983297,
hardware store,Toko Bahan Bangunan,UD Putri Wali,"Jl. Dr. Ir. Soekarno, Tampaksiring, Kec. Tampaksiring, Kabupaten Gianyar, Bali 80552","Tampaksiring, Kec. Tampaksiring, Kabupaten Gianyar",BALI,80552.0,Indonesia,82146604911.0,,,-8.4273412,115.3080682,https://maps.google.com/?cid=0x0:0xb6793782cee62f7f,
hardware store,Toko Bahan Bangunan,Toko PARWATA,"G78H+X5M, Jalan Raya, Banjar Gentong, Tegallalang, Gianyar Regency, Bali 80561","Jalan Raya, Banjar Gentong, Tegallalang, Gianyar Regency",BALI,80561.0,Indonesia,361973052.0,,,-8.482544,115.277922,https://maps.google.com/?cid=0x0:0xaa4e719a96cd754f,
hardware store,hardware store,Bali 80561,"Kec. Tegallalang, Kabupaten Gianyar, Bali","Kabupaten Gianyar, Bali",BALI,,Indonesia,,,,-8.3921715,115.2956118,https://maps.google.com/?cid=0x0:0x1c00c5eb6016bec0,
hardware store,Toko Bahan Bangunan,Putra Manila Hardware Store (0811155369) our store only number,"Jl. Wisma Udayana, Getas, Buruan, Kec. Blahbatuh, Kabupaten Gianyar, Bali 80511","Getas, Buruan, Kec. Blahbatuh, Kabupaten Gianyar",BALI,80511.0,Indonesia,811155369.0,,,-8.5527139,115.3030658,https://maps.google.com/?cid=0x0:0x51607417d4465d85,
hardware store,Toko Bahan Bangunan,Ud. Merta Sari,"H7WQ+H34, Jl. Raya Pujung Kaja, Sebatu, Kec. Tegallalang, Kabupaten Gianyar, Bali 80561","Jl. Raya Pujung Kaja, Sebatu, Kec. Tegallalang, Kabupaten Gianyar",BALI,80561.0,Indonesia,361901092.0,,,-8.403616,115.2877131,https://maps.google.com/?cid=0x0:0x56802d506317da2d,
hardware store,Toko Bahan Bangunan,UD Putri Gandhi Utama,"G7FH+8CF, Jl. Raya Tegallalang ,Banjar Sapaat,Tegallalang, Tegallalang, Kec. Tegallalang, Kabupaten Gianyar, Bali 80561","Jl. Raya Tegallalang ,Banjar Sapaat,Tegallalang, Tegallalang, Kec. Tegallalang, Kabupaten Gianyar",BALI,80561.0,Indonesia,85100475485.0,,,-8.476678,115.27854,https://maps.google.com/?cid=0x0:0xd7c4daee03158427,
hardware store,Toko,TB Sari Asih,"G7CH+5C9, Jalan Raya, Tegallalang, Gianyar Regency, Bali 80561","Jalan Raya, Tegallalang, Gianyar Regency",BALI,80561.0,Indonesia,81337959149.0,,,-8.4795834,115.2786186,https://maps.google.com/?cid=0x0:0x6260e207af08442a,
hardware store,Toko Bahan Bangunan,Toko Adi Jaya,"G74F+28M, Jl. Raya Andong, Petulu, Kecamatan Ubud, Kabupaten Gianyar, Bali 80571","Jl. Raya Andong, Petulu, Kecamatan Ubud, Kabupaten Gianyar",BALI,80571.0,Indonesia,361975859.0,,,-8.4949235,115.2733088,https://maps.google.com/?cid=0x0:0xf5d96d4148ff835f,
hardware store,Toko Bahan Bangunan,Agung Hardware,"Jalan cok gede rai peliatan ubud gianyar 80751, Peliatan, Kecamatan Ubud, Kabupaten Gianyar, Bali 80751","Peliatan, Kecamatan Ubud, Kabupaten Gianyar",BALI,80751.0,Indonesia,85253888998.0,,,-8.520831,115.2682952,https://maps.google.com/?cid=0x0:0x3bde289d17870df9,
hardware store,Toko Bahan Bangunan,Toko Pondok Ratna,"Selatan perempatan Talepud, Jl. Raya Pujung Kaja, Sebatu, Kec. Tegallalang, Kabupaten Gianyar, Bali 80561","Jl. Raya Pujung Kaja, Sebatu, Kec. Tegallalang, Kabupaten Gianyar",BALI,80561.0,Indonesia,81237159026.0,,,-8.4050893,115.2910392,https://maps.google.com/?cid=0x0:0x338a1416523a6509,
hardware store,Toko Bahan Bangunan,Swasti,"G7HG+6VX, Jl. Raya Sapat, Tegallalang, Kecamatan Ubud, Kabupaten Gianyar, Bali 80561","Jl. Raya Sapat, Tegallalang, Kecamatan Ubud, Kabupaten Gianyar",BALI,80561.0,Indonesia,81338556240.0,,,-8.471879,115.277222,https://maps.google.com/?cid=0x0:0x8e05a1782a3c67bf,
hardware store,Toko Bahan Bangunan,Kios Eka,"Jl. Suweta, Banjar Bentuyung, Kecamatan Ubud, Kabupaten Gianyar, Bali 80571","Banjar Bentuyung, Kecamatan Ubud, Kabupaten Gianyar",BALI,80571.0,Indonesia,85238526214.0,,,-8.4830714,115.2655661,https://maps.google.com/?cid=0x0:0x3bd116707e6ae1e9,
hardware store,Toko Bahan Bangunan,UD. Sari Karya Abadi,"F6WV+86H, Jl. Raya Sayan, Sayan, Kecamatan Ubud, Kabupaten Gianyar, Bali 80571","Jl. Raya Sayan, Sayan, Kecamatan Ubud, Kabupaten Gianyar",BALI,80571.0,Indonesia,361970087.0,,,-8.5041984,115.243101,https://maps.google.com/?cid=0x0:0xa2e2bd4031106b6d,
hardware store,Toko Bahan Bangunan,Ud CTR BALI Material,"Jl. Raya Keliki, Kelusa, Kec. Tegallalang, Kabupaten Gianyar, Bali 80561","Kelusa, Kec. Tegallalang, Kabupaten Gianyar",BALI,80561.0,Indonesia,87853780021.0,,,-8.4646569,115.2595884,https://maps.google.com/?cid=0x0:0xc951b52de65f4969,
hardware store,Kantor Perusahaan,Pondok Alam Taro Renovasi,"Jl. Sangetapa Jl. Br.Pakuseba, Taro, Kec. Tegallalang, Kabupaten Gianyar, Bali 80561","Taro, Kec. Tegallalang, Kabupaten Gianyar",BALI,80561.0,Indonesia,81238581221.0,,,-8.3616152,115.2848682,https://maps.google.com/?cid=0x0:0x49259bf6d6454991,
hardware store,Toko Bahan Bangunan,Toko Urip Sejahtera,"F7W9+4W6, Jl. Jero Gadung, Petulu, Kecamatan Ubud, Kabupaten Gianyar, Bali 80571","Jl. Jero Gadung, Petulu, Kecamatan Ubud, Kabupaten Gianyar",BALI,80571.0,Indonesia,361973383.0,,,-8.5047108,115.2697727,https://maps.google.com/?cid=0x0:0x3e43bf09ccc2d876,
hardware store,Toko Bahan Bangunan,Ud Karya Pering,"Jl. Raya Goa Gajah Jl. Raya Teges No.Br, Peliatan, Kecamatan Ubud, Kabupaten Gianyar, Bali 80571","Peliatan, Kecamatan Ubud, Kabupaten Gianyar",BALI,80571.0,Indonesia,85101799988.0,,,-8.5234282,115.2750863,https://maps.google.com/?cid=0x0:0xa2ed0f1ca0004fc7,
hardware store,Pasar bahan bangunan,TB. Ayu Martini,"G7QX+WRM, Jalan Raya, Pejeng, Tampaksiring, Gianyar Regency, Bali 80552","Jalan Raya, Pejeng, Tampaksiring, Gianyar Regency",BALI,80552.0,Indonesia,85100081505.0,,,-8.4601729,115.2995459,https://maps.google.com/?cid=0x0:0x81643d617e072fc1,
hardware store,Toko Bahan Bangunan,BALI JAYA TEKNIK,"F6VR+3WR, Gg. Cahaya, Sayan, Kecamatan Ubud, Kabupaten Gianyar, Bali 80571","Gg. Cahaya, Sayan, Kecamatan Ubud, Kabupaten Gianyar",BALI,80571.0,Indonesia,,,,-8.5072582,115.2422602,https://maps.google.com/?cid=0x0:0x3bd6126641e412be,
hardware store,Toko Bahan Bangunan,UD. Rimba Karya,"JL RAYA GOA GAJAH, Jl. Raya Teges KANGIN, Peliatan, Kabupaten Gianyar, Bali","Kabupaten Gianyar, Bali",BALI,,Indonesia,81999971277.0,,,-8.5227449,115.2786623,https://maps.google.com/?cid=0x0:0xeddf5095a1e25229,
hardware store,Toko Bahan Bangunan,Graha Listrik  Bangunan,"Jl. Raya Payangan No.26, Melinggih Kelod, Kec. Payangan, Kabupaten Gianyar, Bali 80572","Melinggih Kelod, Kec. Payangan, Kabupaten Gianyar",BALI,80572.0,Indonesia,87761312188.0,,,-8.4413387,115.2442274,https://maps.google.com/?cid=0x0:0x98de81913a9ffe5c,
hardware store,Toko Bahan Bangunan,UD Suwarnadi,"G76R+2X3, Jl. Raya Pejeng Tampaksiring, Pejeng Kaja, Kec. Tampaksiring, Kabupaten Gianyar, Bali 80552","Jl. Raya Pejeng Tampaksiring, Pejeng Kaja, Kec. Tampaksiring, Kabupaten Gianyar",BALI,80552.0,Indonesia,361981780.0,,,-8.4899943,115.2924208,https://maps.google.com/?cid=0x0:0xe1401408a3184d36,
hardware store,hardware store,Kec. Tegallalang,"Kabupaten Gianyar, Bali","Kabupaten Gianyar, Bali",BALI,,Indonesia,,,,-8.4027583,115.2879987,https://maps.google.com/?cid=0x0:0x4030bfbca7d2d40,
hardware store,Toko Bahan Bangunan,TB. SAMA WERDHI,"J892+XQR, Jl. Br Jasan, Sebatu, Kec. Tegallalang, Kabupaten Gianyar, Bali 80561","Jl. Br Jasan, Sebatu, Kec. Tegallalang, Kabupaten Gianyar",BALI,80561.0,Indonesia,361901003.0,,,-8.380019,115.3018809,https://maps.google.com/?cid=0x0:0xb3b72d73965d7d89,
hardware store,hardware store,Ubud,"Ubud, Kecamatan Ubud, Kabupaten Gianyar, Bali","Kabupaten Gianyar, Bali",BALI,,Indonesia,,,,-8.5068536,115.2624778,https://maps.google.com/?cid=0x0:0x54a38afd6b773d1c,
hardware store,Toko Bahan Bangunan,Agung Hardware,"Jalan cok gede rai peliatan ubud gianyar 80751, Peliatan, Kecamatan Ubud, Kabupaten Gianyar, Bali 80751","Peliatan, Kecamatan Ubud, Kabupaten Gianyar",BALI,80751.0,Indonesia,85253888998.0,,,-8.520831,115.2682952,https://maps.google.com/?cid=0x0:0x3bde289d17870df9,
hardware store,Toko Bahan Bangunan,Toko Urip Sejahtera,"F7W9+4W6, Jl. Jero Gadung, Petulu, Kecamatan Ubud, Kabupaten Gianyar, Bali 80571","Jl. Jero Gadung, Petulu, Kecamatan Ubud, Kabupaten Gianyar",BALI,80571.0,Indonesia,361973383.0,,,-8.5047108,115.2697727,https://maps.google.com/?cid=0x0:0x3e43bf09ccc2d876,
hardware store,Toko Bahan Bangunan,Toko Adi Jaya,"G74F+28M, Jl. Raya Andong, Petulu, Kecamatan Ubud, Kabupaten Gianyar, Bali 80571","Jl. Raya Andong, Petulu, Kecamatan Ubud, Kabupaten Gianyar",BALI,80571.0,Indonesia,361975859.0,,,-8.4949235,115.2733088,https://maps.google.com/?cid=0x0:0xf5d96d4148ff835f,
hardware store,Toko Bahan Bangunan,Ud Karya Pering,"Jl. Raya Goa Gajah Jl. Raya Teges No.Br, Peliatan, Kecamatan Ubud, Kabupaten Gianyar, Bali 80571","Peliatan, Kecamatan Ubud, Kabupaten Gianyar",BALI,80571.0,Indonesia,85101799988.0,,,-8.5234282,115.2750863,https://maps.google.com/?cid=0x0:0xa2ed0f1ca0004fc7,
hardware store,Toko Bahan Bangunan,Toko Sabar Ubud,"Jl. Cok Gede Rai No.2, Peliatan, Kecamatan Ubud, Kabupaten Gianyar, Bali 80571","Peliatan, Kecamatan Ubud, Kabupaten Gianyar",BALI,80571.0,Indonesia,361978459.0,,,-8.5094227,115.2711527,https://maps.google.com/?cid=0x0:0xaae947b4131deda4,
hardware store,Toko Bahan Bangunan,Puri Bali,"Jl. Raya Tebongkang, Singakerta, Kecamatan Ubud, Kabupaten Gianyar, Bali 80571","Singakerta, Kecamatan Ubud, Kabupaten Gianyar",BALI,80571.0,Indonesia,81999022115.0,,,-8.5244272,115.2426008,https://maps.google.com/?cid=0x0:0x49b90560443fb82f,
hardware store,Toko Bahan Bangunan,Kios Eka,"Jl. Suweta, Banjar Bentuyung, Kecamatan Ubud, Kabupaten Gianyar, Bali 80571","Banjar Bentuyung, Kecamatan Ubud, Kabupaten Gianyar",BALI,80571.0,Indonesia,85238526214.0,,,-8.4830714,115.2655661,https://maps.google.com/?cid=0x0:0x3bd116707e6ae1e9,
hardware store,Toko Bahan Bangunan,Adi Jaya Electrik,"F7M7+GX9, Ubud, Kecamatan Ubud, Kabupaten Gianyar, Bali 80571","Ubud, Kecamatan Ubud, Kabupaten Gianyar",BALI,80571.0,Indonesia,82342409565.0,,,-8.5162035,115.2649696,https://maps.google.com/?cid=0x0:0x7aecc4f49efbcccb,
hardware store,Toko Bahan Bangunan,UD. Sari Karya Abadi,"F6WV+86H, Jl. Raya Sayan, Sayan, Kecamatan Ubud, Kabupaten Gianyar, Bali 80571","Jl. Raya Sayan, Sayan, Kecamatan Ubud, Kabupaten Gianyar",BALI,80571.0,Indonesia,361970087.0,,,-8.5041984,115.243101,https://maps.google.com/?cid=0x0:0xa2e2bd4031106b6d,
hardware store,Toko Bahan Bangunan,UD. Rimba Karya,"JL RAYA GOA GAJAH, Jl. Raya Teges KANGIN, Peliatan, Kabupaten Gianyar, Bali","Kabupaten Gianyar, Bali",BALI,,Indonesia,81999971277.0,,,-8.5227449,115.2786623,https://maps.google.com/?cid=0x0:0xeddf5095a1e25229,
hardware store,Toko Bahan Bangunan,Cv candi bali,"No Jl. Raya Sayan No.53, Sayan, Kecamatan Ubud, Kabupaten Gianyar, Bali 80571","Sayan, Kecamatan Ubud, Kabupaten Gianyar",BALI,80571.0,Indonesia,87862427163.0,,,-8.5065631,115.2422231,https://maps.google.com/?cid=0x0:0x353fbbc9d3f83b9e,
hardware store,Toko Bahan Bangunan,Toko Bangunan Agung Jaya Mandiri,"No Jl. Tirta Tawar No.188, Ubud, Kecamatan Ubud, Kabupaten Gianyar, Bali 80571","Ubud, Kecamatan Ubud, Kabupaten Gianyar",BALI,80571.0,Indonesia,3619000394.0,,,-8.4766789,115.2713914,https://maps.google.com/?cid=0x0:0xcae5510af022f3ff,
hardware store,Toko Bahan Bangunan,Swasti,"G7HG+6VX, Jl. Raya Sapat, Tegallalang, Kecamatan Ubud, Kabupaten Gianyar, Bali 80561","Jl. Raya Sapat, Tegallalang, Kecamatan Ubud, Kabupaten Gianyar",BALI,80561.0,Indonesia,81338556240.0,,,-8.471879,115.277222,https://maps.google.com/?cid=0x0:0x8e05a1782a3c67bf,
hardware store,Toko Bahan Bangunan,Ud maha Karya ubud,"Jl. Raya Andong No.123, Petulu, Kecamatan Ubud, Kabupaten Gianyar, Bali 80552","Petulu, Kecamatan Ubud, Kabupaten Gianyar",BALI,80552.0,Indonesia,83869524613.0,,,-8.4903311,115.2748343,https://maps.google.com/?cid=0x0:0xe03ac841c7a41ffc,
hardware store,Toko Bahan Bangunan,Toko PARWATA,"G78H+X5M, Jalan Raya, Banjar Gentong, Tegallalang, Gianyar Regency, Bali 80561","Jalan Raya, Banjar Gentong, Tegallalang, Gianyar Regency",BALI,80561.0,Indonesia,361973052.0,,,-8.482544,115.277922,https://maps.google.com/?cid=0x0:0xaa4e719a96cd754f,
hardware store,Toko Bahan Bangunan,BALI JAYA TEKNIK,"F6VR+3WR, Gg. Cahaya, Sayan, Kecamatan Ubud, Kabupaten Gianyar, Bali 80571","Gg. Cahaya, Sayan, Kecamatan Ubud, Kabupaten Gianyar",BALI,80571.0,Indonesia,,,,-8.5072582,115.2422602,https://maps.google.com/?cid=0x0:0x3bd6126641e412be,
hardware store,Toko Bahan Bangunan,TB. Ratna Karya,"Jl. Cok Rai Pudak No.28, Peliatan, Kecamatan Ubud, Kabupaten Gianyar, Bali 80571","Peliatan, Kecamatan Ubud, Kabupaten Gianyar",BALI,80571.0,Indonesia,361976416.0,,,-8.52682,115.2711631,https://maps.google.com/?cid=0x0:0x4e734d7227388ad0,
hardware store,Toko Bahan Bangunan,BALI TEKNIK UBUD,"Jl. Raya Kedewatan I No.10, Kedewatan, Kecamatan Ubud, Kabupaten Gianyar, Bali 80571","Kedewatan, Kecamatan Ubud, Kabupaten Gianyar",BALI,80571.0,Indonesia,8113858857.0,,,-8.4867802,115.246365,https://maps.google.com/?cid=0x0:0x3ce3f46f3a8f9f39,
hardware store,Toko Bahan Bangunan,Senso Toko,"F7J7+8CX, JL. Ambarawati, Banjar Kawan, Ubud, Ubud, Kec. Gianyar, Kabupaten Gianyar, Bali 80571","JL. Ambarawati, Banjar Kawan, Ubud, Ubud, Kec. Gianyar, Kabupaten Gianyar",BALI,80571.0,Indonesia,361974559.0,,,-8.5191318,115.2635965,https://maps.google.com/?cid=0x0:0xfe9a4a9cc9929079,
hardware store,Toko Bahan Bangunan,Depo Bangunan Anugrah Dewata,"Jl. Raya Tebongkang, Singakerta, Kecamatan Ubud, Kabupaten Gianyar, Bali 80571","Singakerta, Kecamatan Ubud, Kabupaten Gianyar",BALI,80571.0,Indonesia,,,,-8.5321801,115.2441498,https://maps.google.com/?cid=0x0:0x72ab999e92861840,
hardware store,Toko Bahan Bangunan,UD Semar Sari,"F74C+FVJ, Jl. Raya Mas, Mas, Kecamatan Ubud, Kabupaten Gianyar, Bali 80571","Jl. Raya Mas, Mas, Kecamatan Ubud, Kabupaten Gianyar",BALI,80571.0,Indonesia,361975196.0,,,-8.5437955,115.2721398,https://maps.google.com/?cid=0x0:0x808e54677e529ccd,
hardware store,hardware store,Bali 80571,"Kecamatan Ubud, Kabupaten Gianyar, Bali","Kabupaten Gianyar, Bali",BALI,,Indonesia,,,,-8.5164072,115.2481959,https://maps.google.com/?cid=0x0:0x1c00c5eb6016bed0,
hardware store,Toko Bahan Bangunan,TB. Paras Sari,"F7GP+Q9X, Jl. Raya Goa Gajah, Peliatan, Kecamatan Ubud, Kabupaten Gianyar, Bali 80571","Jl. Raya Goa Gajah, Peliatan, Kecamatan Ubud, Kabupaten Gianyar",BALI,80571.0,Indonesia,81358042330.0,,,-8.5230091,115.2859761,https://maps.google.com/?cid=0x0:0xb72e635734ccc3fb,
hardware store,Toko Bahan Bangunan,Sari Makmur (Toko Bahan Bangunan),"Lodtunduh, Kecamatan Ubud, Kabupaten Gianyar, Bali 80571","Kecamatan Ubud, Kabupaten Gianyar",BALI,80571.0,Indonesia,83161290912.0,,,-8.5369427,115.2612041,https://maps.google.com/?cid=0x0:0x1522fedca77ff87d,
hardware store,,Bangun Jaya Rotan,"C7PG+G5V, Jl. Cok Rai Pudak, Peliatan, Kecamatan Ubud, Kabupaten Gianyar, Bali 80571","Jl. Cok Rai Pudak, Peliatan, Kecamatan Ubud, Kabupaten Gianyar",BALI,80571.0,Indonesia,89676601351.0,,,-8.5636474,115.2754071,https://maps.google.com/?cid=0x0:0x39bebf71bb150a50,
hardware store,Toko Bahan Bangunan,TB Paras Alam,"C7W6+6RW, Jl. A.A. Gede Rai, Lodtunduh, Kecamatan Ubud, Kabupaten Gianyar, Bali 80571","Jl. A.A. Gede Rai, Lodtunduh, Kecamatan Ubud, Kabupaten Gianyar",BALI,80571.0,Indonesia,361981501.0,,,-8.5543903,115.2620764,https://maps.google.com/?cid=0x0:0xb4feaed4332f1e44,
hardware store,Toko Elektronik,Agung Elektro,"Jl. Sukma Kesuma No.51, Peliatan, Kecamatan Ubud, Kabupaten Gianyar, Bali 80571","Peliatan, Kecamatan Ubud, Kabupaten Gianyar",BALI,80571.0,Indonesia,85337256262.0,,,-8.5155101,115.2673047,https://maps.google.com/?cid=0x0:0xb8e4bb6824f7c30e,
toko bangunan,Toko Bahan Bangunan,Bangunan Ekspres Gianyar,"Jl. Dharma Giri, Buruan, Kec. Blahbatuh, Kabupaten Gianyar, Bali 80581","Buruan, Kec. Blahbatuh, Kabupaten Gianyar",BALI,80581.0,Indonesia,85768097403.0,,,-8.5489656,115.3041258,https://maps.google.com/?cid=0x0:0x6e0b0dac854112d1,
toko bangunan,Toko Bahan Bangunan,Depo Bagoes Bangunan,"Jl. Mahendradata No.18, Bedulu, Kec. Blahbatuh, Kabupaten Gianyar, Bali 80511","Bedulu, Kec. Blahbatuh, Kabupaten Gianyar",BALI,80511.0,Indonesia,81805021818.0,,,-8.5351479,115.3080096,https://maps.google.com/?cid=0x0:0x3b473a950caea398,
toko bangunan,Toko,Cahaya Jaya Bangunan,"C85C+3HJ, Jl. Segara Willis, Pering, Kec. Blahbatuh, Kabupaten Gianyar, Bali 80581","Jl. Segara Willis, Pering, Kec. Blahbatuh, Kabupaten Gianyar",BALI,80581.0,Indonesia,82247034516.0,,,-8.5922865,115.3213994,https://maps.google.com/?cid=0x0:0x395307a4a8962fc2,
toko bangunan,Toko Bahan Bangunan,TB. Batu Lumbang,"C89F+Q84, Jl. Kurusetra, Keramas, Kec. Blahbatuh, Kabupaten Gianyar, Bali 80581","Jl. Kurusetra, Keramas, Kec. Blahbatuh, Kabupaten Gianyar",BALI,80581.0,Indonesia,82162909047.0,,,-8.5806123,115.3233342,https://maps.google.com/?cid=0x0:0xa435aba5367e3f61,
toko bangunan,Toko Bahan Bangunan,Permata Sari Bangunan,"Jl. Permata Pering, Pering, Kec. Blahbatuh, Kabupaten Gianyar, Bali 80581","Pering, Kec. Blahbatuh, Kabupaten Gianyar",BALI,80581.0,Indonesia,87735647579.0,,,-8.5885083,115.3168928,https://maps.google.com/?cid=0x0:0x716506b5c28f49c3,
toko bangunan,Toko,Ud. Aneka Jaya,"C7JV+WQ5, Jl. Astina Jaya, Blahbatuh, Blahbatu, Blahbatuh, Kec. Blahbatuh, Kabupaten Gianyar, Bali 80581","Jl. Astina Jaya, Blahbatuh, Blahbatu, Blahbatuh, Kec. Blahbatuh, Kabupaten Gianyar",BALI,80581.0,Indonesia,361942705.0,,,-8.5677374,115.2944952,https://maps.google.com/?cid=0x0:0x496d4d7590da93ad,
toko bangunan,Toko,Ud Putra Dewata Ayu,"C8J3+XX5, Jl. Raya Tojan, Pering, Kec. Blahbatuh, Kabupaten Gianyar, Bali 80581","Jl. Raya Tojan, Pering, Kec. Blahbatuh, Kabupaten Gianyar",BALI,80581.0,Indonesia,8113990032.0,,,-8.5676153,115.3049846,https://maps.google.com/?cid=0x0:0xa060c559cf7432a6,
toko bangunan,Toko Bahan Bangunan,UD. Mekar Bangunan,"F7FW+F89, Jl. Raya Wanayu, Bedulu, Kec. Blahbatuh, Kabupaten Gianyar, Bali 80552","Jl. Raya Wanayu, Bedulu, Kec. Blahbatuh, Kabupaten Gianyar",BALI,80552.0,Indonesia,361943961.0,,,-8.5263412,115.2958747,https://maps.google.com/?cid=0x0:0xe17cdc3aac907aba,
toko bangunan,Toko Bahan Bangunan,UD. Mandiri,"C8W3+53W, Jl. Wisma Udayana, Buruan, Kec. Blahbatuh, Kabupaten Gianyar, Bali 80581","Jl. Wisma Udayana, Buruan, Kec. Blahbatuh, Kabupaten Gianyar",BALI,80581.0,Indonesia,361942665.0,,,-8.5545237,115.3026903,https://maps.google.com/?cid=0x0:0xf52ed910d6eb199a,
toko bangunan,Toko Bahan Bangunan,Depo Bagoes Bangunan Celuk,"Jl. Raya Celuk, Batubulan, Kec. Sukawati, Kabupaten Gianyar, Bali 80582","Batubulan, Kec. Sukawati, Kabupaten Gianyar",BALI,80582.0,Indonesia,81999871818.0,,,-8.6041352,115.2555067,https://maps.google.com/?cid=0x0:0xc26747c6fb19f9f3,
toko bangunan,Toko Bahan Bangunan,UD. Jaya Mandiri,"Jl. Raya Tojan, Blahbatuh, Kec. Blahbatuh, Kabupaten Gianyar, Bali 80581","Blahbatuh, Kec. Blahbatuh, Kabupaten Gianyar",BALI,80581.0,Indonesia,89670014162.0,,,-8.5804037,115.305513,https://maps.google.com/?cid=0x0:0xddc933fa68293405,
toko bangunan,Toko Bahan Bangunan,UD. TANJUNG BALI,"C85J+P85, Jl. Selukat, Keramas, Kec. Blahbatuh, Kabupaten Gianyar, Bali 80581","Jl. Selukat, Keramas, Kec. Blahbatuh, Kabupaten Gianyar",BALI,80581.0,Indonesia,81337260632.0,,,-8.59073,115.3308691,https://maps.google.com/?cid=0x0:0xbd21ff47b03e87aa,
toko bangunan,Toko Bahan Bangunan,Varia Bangunan,"Jl. Raden Wijaya No.8, Gianyar, Kec. Gianyar, Kabupaten Gianyar, Bali 80511","Gianyar, Kec. Gianyar, Kabupaten Gianyar",BALI,80511.0,Indonesia,81916196586.0,,,-8.5451971,115.3211236,https://maps.google.com/?cid=0x0:0xccb23c39271003ce,
toko bangunan,Toko Bahan Bangunan,UD. TRI PUTRA BALI,"F825+PGV, Jl. Banteng, Buruan, Kec. Blahbatuh, Kabupaten Gianyar, Bali 80581","Jl. Banteng, Buruan, Kec. Blahbatuh, Kabupaten Gianyar",BALI,80581.0,Indonesia,8123762093.0,,,-8.5481352,115.3088012,https://maps.google.com/?cid=0x0:0xcfb82c0628e7c417,
toko bangunan,Toko Bahan Bangunan,BARRYS BANGUNAN,"C8HJ+7J7, Jl. Gusti Agung Made Gambar, Medahan, Kec. Blahbatuh, Kabupaten Gianyar, Bali 80581","Jl. Gusti Agung Made Gambar, Medahan, Kec. Blahbatuh, Kabupaten Gianyar",BALI,80581.0,Indonesia,,,,-8.5718358,115.3315458,https://maps.google.com/?cid=0x0:0x1ba4e25c5aa233b4,
toko bangunan,Toko Bahan Bangunan,Toko Bangun Jaya | BESI BAJA GYPSUM,"Jl. Raya Goa Gajah, Bedulu, Kec. Blahbatuh, Kabupaten Gianyar, Bali 80552","Bedulu, Kec. Blahbatuh, Kabupaten Gianyar",BALI,80552.0,Indonesia,81339918311.0,,,-8.5224216,115.2871287,https://maps.google.com/?cid=0x0:0xd21fdffdbd23d311,
toko bangunan,Toko Bahan Bangunan,TB. Cahaya Batu,"F94V+X64, Jl. Raya Batu Tabih, Takmung, Kec. Banjarangkan, Kabupaten Klungkung, Bali 80716","Jl. Raya Batu Tabih, Takmung, Kec. Banjarangkan, Kabupaten Klungkung",BALI,80716.0,Indonesia,85333074570.0,,,-8.5426146,115.3930782,https://maps.google.com/?cid=0x0:0x412c2fe1fc507d49,
toko bangunan,Toko Bahan Bangunan,Toko Surya Jaya,"97GW+2JQ, Jl. Raya Ketewel, Ketewel, Kec. Sukawati, Kabupaten Gianyar, Bali","Kabupaten Gianyar, Bali",BALI,,Indonesia,,,,-8.6249193,115.2966193,https://maps.google.com/?cid=0x0:0x2d91921a14709dca,
toko bangunan,Toko Bahan Bangunan,UD.Pelita Abadi Bangunan,"Jl. Prof. Dr. Ida Bagus Mantra, Ketewel, Kec. Sukawati, Kabupaten Gianyar, Bali 80582","Ketewel, Kec. Sukawati, Kabupaten Gianyar",BALI,80582.0,Indonesia,82144586669.0,,,-8.6327268,115.2904437,https://maps.google.com/?cid=0x0:0xec0f4aa0e05c8baf,
toko bangunan,Toko Bahan Bangunan,AMERTA TOKO BAHAN BANGUNAN TERMURAH,"Jl. Pasekan No.250, Batubulan Kangin, Kec. Sukawati, Kabupaten Gianyar, Bali 80582","Batubulan Kangin, Kec. Sukawati, Kabupaten Gianyar",BALI,80582.0,Indonesia,87863956660.0,,,-8.6182357,115.2649937,https://maps.google.com/?cid=0x0:0xde20486f597a7749,
toko bangunan,Toko Bahan Bangunan,TB. Jaya Utama,"C8CF+C8M, Jl. Kurusetra, Keramas, Kec. Blahbatuh, Kabupaten Gianyar, Bali 80581","Jl. Kurusetra, Keramas, Kec. Blahbatuh, Kabupaten Gianyar",BALI,80581.0,Indonesia,81338625039.0,,,-8.5789094,115.3233053,https://maps.google.com/?cid=0x0:0x675f9fef605253b3,
toko bangunan,Toko Bahan Bangunan,Toko Artha Bangunan,"G8R9+M2W, Jl. Benawah - Petak Kaja, Petak Kaja, Kec. Gianyar, Kabupaten Gianyar, Bali 80515","Jl. Benawah - Petak Kaja, Petak Kaja, Kec. Gianyar, Kabupaten Gianyar",BALI,80515.0,Indonesia,361953672.0,,,-8.458251,115.3175695,https://maps.google.com/?cid=0x0:0xa7581fbc615876f5,
toko bangunan,Toko Bahan Bangunan,MiNi DEPO Gianyar,"97GW+5Q3, Ketewel, Kec. Sukawati, Kabupaten Gianyar, Bali 80582","Ketewel, Kec. Sukawati, Kabupaten Gianyar",BALI,80582.0,Indonesia,81237074427.0,,,-8.6246155,115.2969925,https://maps.google.com/?cid=0x0:0xb5a84be377320155,
toko bangunan,Toko Bahan Bangunan,Istana Batu Alam,"Jl. Dharma Giri No.777, Buruan, Kec. Blahbatuh, Kabupaten Gianyar, Bali 80581","Buruan, Kec. Blahbatuh, Kabupaten Gianyar",BALI,80581.0,Indonesia,,,,-8.5480619,115.3045779,https://maps.google.com/?cid=0x0:0x46940567a983f279,
toko bangunan,Toko Bahan Bangunan,Toko Mulia,"F7GJ+WWP, Jl. Raya Goa Gajah, Bedulu, Kec. Blahbatuh, Kabupaten Gianyar, Bali 80581","Jl. Raya Goa Gajah, Bedulu, Kec. Blahbatuh, Kabupaten Gianyar",BALI,80581.0,Indonesia,361941213.0,,,-8.522666,115.2823138,https://maps.google.com/?cid=0x0:0xec7fa8dcc0cdd0dd,
toko bangunan,toko bangunan,Bali 80511,"Kec. Gianyar, Kabupaten Gianyar, Bali","Kabupaten Gianyar, Bali",BALI,,Indonesia,,,,-8.5386152,115.328206,https://maps.google.com/?cid=0x0:0x3a6ab5e6526148c8,
toko bangunan,Toko Bahan Bangunan,Depo Bagoes Bangunan,"Jl. Mahendradata No.18, Bedulu, Kec. Blahbatuh, Kabupaten Gianyar, Bali 80511","Bedulu, Kec. Blahbatuh, Kabupaten Gianyar",BALI,80511.0,Indonesia,81805021818.0,,,-8.5351479,115.3080096,https://maps.google.com/?cid=0x0:0x3b473a950caea398,
toko bangunan,Toko Bahan Bangunan,"Harum Jaya Bangunan, Toko","Jl. Ciung Wanara-Gianyar No.28 A, Gianyar, Kec. Gianyar, Kabupaten Gianyar, Bali 80511","Gianyar, Kec. Gianyar, Kabupaten Gianyar",BALI,80511.0,Indonesia,81918091818.0,,,-8.5404045,115.3223371,https://maps.google.com/?cid=0x0:0x63e2c8bcc0c2e836,
toko bangunan,Toko Bahan Bangunan,Toko bangunan bali made 2,"Jalan Raya Jl. Bukit Jati No.80x, Samplangan, Kec. Gianyar, Kabupaten Gianyar, Bali 80511","Samplangan, Kec. Gianyar, Kabupaten Gianyar",BALI,80511.0,Indonesia,89685848180.0,,,-8.5369604,115.3332963,https://maps.google.com/?cid=0x0:0xa1db30a250c7a380,
toko bangunan,Toko Bahan Bangunan,UD MERUMAS,"F87G+P2W, Jl. Patih Jelantik-Gianyar, Beng, Kec. Gianyar, Kabupaten Gianyar, Bali 80517","Jl. Patih Jelantik-Gianyar, Beng, Kec. Gianyar, Kabupaten Gianyar",BALI,80517.0,Indonesia,,,,-8.5356362,115.3250788,https://maps.google.com/?cid=0x0:0x283bc2a85f240766,
toko bangunan,Toko Bahan Bangunan,Sarana Bangunan,"Jl. Raya Bona, Bona, Kec. Blahbatuh, Kabupaten Gianyar, Bali 80581","Bona, Kec. Blahbatuh, Kabupaten Gianyar",BALI,80581.0,Indonesia,81353399370.0,,,-8.558548,115.311875,https://maps.google.com/?cid=0x0:0x63cdae8140fc3f87,
toko bangunan,Toko Bahan Bangunan,UD. Paris Bangunan,"Jl. Kebo Iwa No.29, Gianyar, Kec. Gianyar, Kabupaten Gianyar, Bali 80511","Gianyar, Kec. Gianyar, Kabupaten Gianyar",BALI,80511.0,Indonesia,361951250.0,,,-8.5476512,115.3230632,https://maps.google.com/?cid=0x0:0xec46c13987783d2e,
toko bangunan,Toko Bahan Bangunan,Toko Harmonis,"Jl. Astina Timur No.18x, Samplangan, Kec. Gianyar, Kabupaten Gianyar, Bali 80512","Samplangan, Kec. Gianyar, Kabupaten Gianyar",BALI,80512.0,Indonesia,81338722669.0,,,-8.5403448,115.3378149,https://maps.google.com/?cid=0x0:0x78430e04b4d39d94,
toko bangunan,Toko Bahan Bangunan,Metalindo Makmur Bali,"Jl. Bukit Jati No.8, Beng, Kec. Gianyar, Kabupaten Gianyar, Bali","Kabupaten Gianyar, Bali",BALI,,Indonesia,85737622208.0,,,-8.5361766,115.331111,https://maps.google.com/?cid=0x0:0xaef0c993f55814f9,
toko bangunan,Toko Bahan Bangunan,Toko Pelita Agung,"Jl. Kesatrian No.26a, Gianyar, Kec. Gianyar, Kabupaten Gianyar, Bali 80511","Gianyar, Kec. Gianyar, Kabupaten Gianyar",BALI,80511.0,Indonesia,361943043.0,,,-8.5452279,115.3253208,https://maps.google.com/?cid=0x0:0xd4c528a3eeb7b2bd,
toko bangunan,Toko Bahan Bangunan,Putra Manila Hardware Store (0811155369) our store only number,"Jl. Wisma Udayana, Getas, Buruan, Kec. Blahbatuh, Kabupaten Gianyar, Bali 80511","Getas, Buruan, Kec. Blahbatuh, Kabupaten Gianyar",BALI,80511.0,Indonesia,811155369.0,,,-8.5527139,115.3030658,https://maps.google.com/?cid=0x0:0x51607417d4465d85,
toko bangunan,Toko Bahan Bangunan,Central Material,"F828+QG5, Bitera, Kec. Gianyar, Kabupaten Gianyar, Bali 80515","Bitera, Kec. Gianyar, Kabupaten Gianyar",BALI,80515.0,Indonesia,361977122.0,,,-8.5481139,115.3163661,https://maps.google.com/?cid=0x0:0x73316fb0048e8254,
toko bangunan,Toko Bahan Bangunan,Bangunan Ekspres Gianyar,"Jl. Dharma Giri, Buruan, Kec. Blahbatuh, Kabupaten Gianyar, Bali 80581","Buruan, Kec. Blahbatuh, Kabupaten Gianyar",BALI,80581.0,Indonesia,85768097403.0,,,-8.5489656,115.3041258,https://maps.google.com/?cid=0x0:0x6e0b0dac854112d1,
toko bangunan,Toko Bahan Bangunan,Miar Jaya UD,"Jl. Ngurah Rai-Gianyar No.66, Gianyar, Kec. Gianyar, Kabupaten Gianyar, Bali 80511","Gianyar, Kec. Gianyar, Kabupaten Gianyar",BALI,80511.0,Indonesia,361943103.0,,,-8.541655,115.3281811,https://maps.google.com/?cid=0x0:0x3bc79c589c7a4855,
toko bangunan,Toko Bahan Bangunan,Ud. Mira,"Jl. Triwanisa-kawan No.39, Bitera, Kec. Gianyar, Kabupaten Gianyar, Bali 80515","Bitera, Kec. Gianyar, Kabupaten Gianyar",BALI,80515.0,Indonesia,,,,-8.5307298,115.3175523,https://maps.google.com/?cid=0x0:0x16e21d044e6b4087,
toko bangunan,Toko Bahan Bangunan,Toko bangunan cendanamas,"Jl. Ir. Sutami No.Br, Peninjauan, Kec. Sukawati, Kabupaten Gianyar, Bali 80582","Peninjauan, Kec. Sukawati, Kabupaten Gianyar",BALI,80582.0,Indonesia,81238526953.0,,,-8.5902905,115.2859144,https://maps.google.com/?cid=0x0:0xb1109ff2cdd6934c,
toko bangunan,Toko bahan makanan,Ud. Sari Agung,"F85P+PJ3, Jl. Astina Timur, Samplangan, Kec. Gianyar, Kabupaten Gianyar, Bali 80512","Jl. Astina Timur, Samplangan, Kec. Gianyar, Kabupaten Gianyar",BALI,80512.0,Indonesia,361943650.0,,,-8.5407372,115.3365401,https://maps.google.com/?cid=0x0:0x8fc0a4900e67ed6a,
toko bangunan,Toko Bahan Bangunan,TK Miar Harum,"Jl. Erlangga No.21, Gianyar, Kec. Gianyar, Kabupaten Gianyar, Bali 80511","Gianyar, Kec. Gianyar, Kabupaten Gianyar",BALI,80511.0,Indonesia,361955408.0,,,-8.5433323,115.324275,https://maps.google.com/?cid=0x0:0x69f1ad9455626736,
toko bangunan,Toko Bahan Bangunan,UD Yuli Indah,"Jl. Sawo No.24, Bitera, Kec. Gianyar, Kabupaten Gianyar, Bali 80515","Bitera, Kec. Gianyar, Kabupaten Gianyar",BALI,80515.0,Indonesia,85205866277.0,,,-8.5324682,115.3172945,https://maps.google.com/?cid=0x0:0x922328127ed4f1c7,
toko bangunan,Toko Bahan Bangunan,Multindo Makmur,"Jl. Gambir No.18 B, Abianbase, Kec. Gianyar, Kabupaten Gianyar, Bali 80551","Abianbase, Kec. Gianyar, Kabupaten Gianyar",BALI,80551.0,Indonesia,85738650719.0,,,-8.548713,115.3266928,https://maps.google.com/?cid=0x0:0xd090865fece43e60,
toko bangunan,Toko Bahan Bangunan,Toko Putra Rahayu,"F85C+F7V, Jl. Dharma Giri, Gianyar, Kec. Gianyar, Kabupaten Gianyar, Bali 80511","Jl. Dharma Giri, Gianyar, Kec. Gianyar, Kabupaten Gianyar",BALI,80511.0,Indonesia,8123632179.0,,,-8.5412719,115.3206873,https://maps.google.com/?cid=0x0:0x431f6093b0bf02dd,
toko bangunan,Toko Bahan Bangunan,Toko Bangunan Budiasih,"F8FX+G6J, Jl. Raya Sidan, Sidan, Kec. Gianyar, Kabupaten Gianyar, Bali 80515","Jl. Raya Sidan, Sidan, Kec. Gianyar, Kabupaten Gianyar",BALI,80515.0,Indonesia,81246672063.0,,,-8.5261642,115.3480183,https://maps.google.com/?cid=0x0:0x9dc554170892c896,
toko bangunan,Pemasok Bahan Bangunan,CV. MULTINDO UTAMA JAYA,"Jl. Bukit Jati No.8, Gianyar, Kec. Gianyar, Kabupaten Gianyar, Bali 80511","Gianyar, Kec. Gianyar, Kabupaten Gianyar",BALI,80511.0,Indonesia,85737622208.0,,,-8.536123,115.3310842,https://maps.google.com/?cid=0x0:0xd2538019d29b4173,
toko bangunan,Toko Bahan Bangunan,"Harum Jaya Bangunan, Toko","Jl. Ciung Wanara-Gianyar No.28 A, Gianyar, Kec. Gianyar, Kabupaten Gianyar, Bali 80511","Gianyar, Kec. Gianyar, Kabupaten Gianyar",BALI,80511.0,Indonesia,81918091818.0,,,-8.5404045,115.3223371,https://maps.google.com/?cid=0x0:0x63e2c8bcc0c2e836,
toko bangunan,toko bangunan,Bali 80512,"Samplangan, Kec. Gianyar, Kabupaten Gianyar, Bali","Kabupaten Gianyar, Bali",BALI,,Indonesia,,,,-8.532747,115.3400575,https://maps.google.com/?cid=0x0:0x1c00c5eb6016be70,
toko bangunan,Toko Bahan Bangunan,UD MERUMAS,"F87G+P2W, Jl. Patih Jelantik-Gianyar, Beng, Kec. Gianyar, Kabupaten Gianyar, Bali 80517","Jl. Patih Jelantik-Gianyar, Beng, Kec. Gianyar, Kabupaten Gianyar",BALI,80517.0,Indonesia,,,,-8.5356362,115.3250788,https://maps.google.com/?cid=0x0:0x283bc2a85f240766,
toko bangunan,Toko Bahan Bangunan,Varia Bangunan,"Jl. Raden Wijaya No.8, Gianyar, Kec. Gianyar, Kabupaten Gianyar, Bali 80511","Gianyar, Kec. Gianyar, Kabupaten Gianyar",BALI,80511.0,Indonesia,81916196586.0,,,-8.5451971,115.3211236,https://maps.google.com/?cid=0x0:0xccb23c39271003ce,
toko bangunan,Toko Bahan Bangunan,Toko bangunan bali made 2,"Jalan Raya Jl. Bukit Jati No.80x, Samplangan, Kec. Gianyar, Kabupaten Gianyar, Bali 80511","Samplangan, Kec. Gianyar, Kabupaten Gianyar",BALI,80511.0,Indonesia,89685848180.0,,,-8.5369604,115.3332963,https://maps.google.com/?cid=0x0:0xa1db30a250c7a380,
toko bangunan,Toko Bahan Bangunan,Toko Bangunan Budiasih,"F8FX+G6J, Jl. Raya Sidan, Sidan, Kec. Gianyar, Kabupaten Gianyar, Bali 80515","Jl. Raya Sidan, Sidan, Kec. Gianyar, Kabupaten Gianyar",BALI,80515.0,Indonesia,81246672063.0,,,-8.5261642,115.3480183,https://maps.google.com/?cid=0x0:0x9dc554170892c896,
toko bangunan,Toko Bahan Bangunan,Depo Bagoes Bangunan,"Jl. Mahendradata No.18, Bedulu, Kec. Blahbatuh, Kabupaten Gianyar, Bali 80511","Bedulu, Kec. Blahbatuh, Kabupaten Gianyar",BALI,80511.0,Indonesia,81805021818.0,,,-8.5351479,115.3080096,https://maps.google.com/?cid=0x0:0x3b473a950caea398,
toko bangunan,Toko Bahan Bangunan,Sarana Bangunan,"Jl. Raya Bona, Bona, Kec. Blahbatuh, Kabupaten Gianyar, Bali 80581","Bona, Kec. Blahbatuh, Kabupaten Gianyar",BALI,80581.0,Indonesia,81353399370.0,,,-8.558548,115.311875,https://maps.google.com/?cid=0x0:0x63cdae8140fc3f87,
toko bangunan,Toko Bahan Bangunan,TB Villas Bangunan,"Jl. Raya Sidan No.raya, Sidan, Kec. Gianyar, Kabupaten Gianyar, Bali 80515","Sidan, Kec. Gianyar, Kabupaten Gianyar",BALI,80515.0,Indonesia,82312913158.0,,,-8.535531,115.3485469,https://maps.google.com/?cid=0x0:0xcf4ce530307eede4,
toko bangunan,Toko Bahan Bangunan,Supplier Bahan Bangunan  Material Supplier,"F86X+W29, Jl. Sidan-Astina Timur, Temesi, Kec. Gianyar, Kabupaten Gianyar, Bali 80515","Jl. Sidan-Astina Timur, Temesi, Kec. Gianyar, Kabupaten Gianyar",BALI,80515.0,Indonesia,83866484759.0,,,-8.5377198,115.3475975,https://maps.google.com/?cid=0x0:0xe5bc70d7224695d6,
toko bangunan,Toko bahan makanan,Ud. Sari Agung,"F85P+PJ3, Jl. Astina Timur, Samplangan, Kec. Gianyar, Kabupaten Gianyar, Bali 80512","Jl. Astina Timur, Samplangan, Kec. Gianyar, Kabupaten Gianyar",BALI,80512.0,Indonesia,361943650.0,,,-8.5407372,115.3365401,https://maps.google.com/?cid=0x0:0x8fc0a4900e67ed6a,
toko bangunan,Toko Bahan Bangunan,Ud. Boby Jaya Utama,"F89Q+WCX, Jl. Bukit Batu, Samplangan, Kec. Gianyar, Kabupaten Gianyar, Bali 80512","Jl. Bukit Batu, Samplangan, Kec. Gianyar, Kabupaten Gianyar",BALI,80512.0,Indonesia,8174196796.0,,,-8.5301415,115.3386172,https://maps.google.com/?cid=0x0:0x235d63e02b93e5c2,
toko bangunan,Toko Bahan Bangunan,Metalindo Makmur Bali,"Jl. Bukit Jati No.8, Beng, Kec. Gianyar, Kabupaten Gianyar, Bali","Kabupaten Gianyar, Bali",BALI,,Indonesia,85737622208.0,,,-8.5361766,115.331111,https://maps.google.com/?cid=0x0:0xaef0c993f55814f9,
toko bangunan,Toko Bahan Bangunan,TB. Lima Jaya,"F85X+C6X, Jl. Raya Pegesangan, Temesi, Kec. Gianyar, Kabupaten Gianyar, Bali 80515","Jl. Raya Pegesangan, Temesi, Kec. Gianyar, Kabupaten Gianyar",BALI,80515.0,Indonesia,361943874.0,,,-8.5413843,115.3481134,https://maps.google.com/?cid=0x0:0xfcf02d724c99f12a,
toko bangunan,Toko Bahan Bangunan,Miar Jaya UD,"Jl. Ngurah Rai-Gianyar No.66, Gianyar, Kec. Gianyar, Kabupaten Gianyar, Bali 80511","Gianyar, Kec. Gianyar, Kabupaten Gianyar",BALI,80511.0,Indonesia,361943103.0,,,-8.541655,115.3281811,https://maps.google.com/?cid=0x0:0x3bc79c589c7a4855,
toko bangunan,Toko Bahan Bangunan,Toko Bangunan Raja Mas Jaya,"C8PQ+X28, Jl. Raya Pantai Lebih, Serongga, Kec. Gianyar, Kabupaten Gianyar, Bali","Kabupaten Gianyar, Bali",BALI,,Indonesia,85333866797.0,,,-8.5625881,115.3375726,https://maps.google.com/?cid=0x0:0x65b6a87e470679e1,
toko bangunan,Toko Bahan Bangunan,Toko Pelita Agung,"Jl. Kesatrian No.26a, Gianyar, Kec. Gianyar, Kabupaten Gianyar, Bali 80511","Gianyar, Kec. Gianyar, Kabupaten Gianyar",BALI,80511.0,Indonesia,361943043.0,,,-8.5452279,115.3253208,https://maps.google.com/?cid=0x0:0xd4c528a3eeb7b2bd,
toko bangunan,Toko Batu,Mitra Usaha Samplangan,"F86V+PR7, Jl. Raya Samplangan, Temesi, Kec. Gianyar, Kabupaten Gianyar, Bali","Kabupaten Gianyar, Bali",BALI,,Indonesia,81999022124.0,,,-8.5382026,115.3445484,https://maps.google.com/?cid=0x0:0x674c59b6725bd137,
toko bangunan,Toko Bahan Bangunan,Toko Baut Jaya Makmur,"F85W+GVH, Jl. Raya Samplangan, Samplangan, Kec. Gianyar, Kabupaten Gianyar, Bali 80512","Jl. Raya Samplangan, Samplangan, Kec. Gianyar, Kabupaten Gianyar",BALI,80512.0,Indonesia,81337755828.0,,,-8.5411932,115.34722,https://maps.google.com/?cid=0x0:0xb530ff34b5859080,
toko bangunan,Toko Bahan Bangunan,UD. Antungan,"F8FX+447, Jl. Raya Sidan, Sidan, Kec. Gianyar, Kabupaten Gianyar, Bali 80515","Jl. Raya Sidan, Sidan, Kec. Gianyar, Kabupaten Gianyar",BALI,80515.0,Indonesia,81337233052.0,,,-8.5272242,115.347791,https://maps.google.com/?cid=0x0:0x4e8c041f7bc9e778,
toko bangunan,Toko Bahan Bangunan,Ud. Murni Jati,"Jl. Raya Samplangan, Samplangan, Kec. Gianyar, Kabupaten Gianyar, Bali 80512","Samplangan, Kec. Gianyar, Kabupaten Gianyar",BALI,80512.0,Indonesia,81805377433.0,,,-8.5389192,115.3432927,https://maps.google.com/?cid=0x0:0x130dddeaf07471ae,
toko bangunan,toko bangunan,Bali 80513,"Kec. Gianyar, Kabupaten Gianyar, Bali","Kabupaten Gianyar, Bali",BALI,,Indonesia,,,,-8.5273675,115.3267245,https://maps.google.com/?cid=0x0:0x726f6b72398c7c97,
toko bangunan,Toko Bahan Bangunan,Toko bangunan bali made 2,"Jalan Raya Jl. Bukit Jati No.80x, Samplangan, Kec. Gianyar, Kabupaten Gianyar, Bali 80511","Samplangan, Kec. Gianyar, Kabupaten Gianyar",BALI,80511.0,Indonesia,89685848180.0,,,-8.5369604,115.3332963,https://maps.google.com/?cid=0x0:0xa1db30a250c7a380,
toko bangunan,Toko Bahan Bangunan,"Harum Jaya Bangunan, Toko","Jl. Ciung Wanara-Gianyar No.28 A, Gianyar, Kec. Gianyar, Kabupaten Gianyar, Bali 80511","Gianyar, Kec. Gianyar, Kabupaten Gianyar",BALI,80511.0,Indonesia,81918091818.0,,,-8.5404045,115.3223371,https://maps.google.com/?cid=0x0:0x63e2c8bcc0c2e836,
toko bangunan,Toko Bahan Bangunan,UD MERUMAS,"F87G+P2W, Jl. Patih Jelantik-Gianyar, Beng, Kec. Gianyar, Kabupaten Gianyar, Bali 80517","Jl. Patih Jelantik-Gianyar, Beng, Kec. Gianyar, Kabupaten Gianyar",BALI,80517.0,Indonesia,,,,-8.5356362,115.3250788,https://maps.google.com/?cid=0x0:0x283bc2a85f240766,
toko bangunan,Toko Bahan Bangunan,Varia Bangunan,"Jl. Raden Wijaya No.8, Gianyar, Kec. Gianyar, Kabupaten Gianyar, Bali 80511","Gianyar, Kec. Gianyar, Kabupaten Gianyar",BALI,80511.0,Indonesia,81916196586.0,,,-8.5451971,115.3211236,https://maps.google.com/?cid=0x0:0xccb23c39271003ce,
toko bangunan,Toko Bahan Bangunan,Sarana Bangunan,"Jl. Raya Bona, Bona, Kec. Blahbatuh, Kabupaten Gianyar, Bali 80581","Bona, Kec. Blahbatuh, Kabupaten Gianyar",BALI,80581.0,Indonesia,81353399370.0,,,-8.558548,115.311875,https://maps.google.com/?cid=0x0:0x63cdae8140fc3f87,
toko bangunan,Toko Bahan Bangunan,Metalindo Makmur Bali,"Jl. Bukit Jati No.8, Beng, Kec. Gianyar, Kabupaten Gianyar, Bali","Kabupaten Gianyar, Bali",BALI,,Indonesia,85737622208.0,,,-8.5361766,115.331111,https://maps.google.com/?cid=0x0:0xaef0c993f55814f9,
toko bangunan,Toko Bahan Bangunan,Ud. Boby Jaya Utama,"F89Q+WCX, Jl. Bukit Batu, Samplangan, Kec. Gianyar, Kabupaten Gianyar, Bali 80512","Jl. Bukit Batu, Samplangan, Kec. Gianyar, Kabupaten Gianyar",BALI,80512.0,Indonesia,8174196796.0,,,-8.5301415,115.3386172,https://maps.google.com/?cid=0x0:0x235d63e02b93e5c2,
toko bangunan,Toko Bahan Bangunan,Toko bangunan cendanamas,"Jl. Ir. Sutami No.Br, Peninjauan, Kec. Sukawati, Kabupaten Gianyar, Bali 80582","Peninjauan, Kec. Sukawati, Kabupaten Gianyar",BALI,80582.0,Indonesia,81238526953.0,,,-8.5902905,115.2859144,https://maps.google.com/?cid=0x0:0xb1109ff2cdd6934c,
toko bangunan,Toko Bahan Bangunan,Toko Bangunan Budiasih,"F8FX+G6J, Jl. Raya Sidan, Sidan, Kec. Gianyar, Kabupaten Gianyar, Bali 80515","Jl. Raya Sidan, Sidan, Kec. Gianyar, Kabupaten Gianyar",BALI,80515.0,Indonesia,81246672063.0,,,-8.5261642,115.3480183,https://maps.google.com/?cid=0x0:0x9dc554170892c896,
toko bangunan,Toko Bahan Bangunan,Bangunan Ekspres Gianyar,"Jl. Dharma Giri, Buruan, Kec. Blahbatuh, Kabupaten Gianyar, Bali 80581","Buruan, Kec. Blahbatuh, Kabupaten Gianyar",BALI,80581.0,Indonesia,85768097403.0,,,-8.5489656,115.3041258,https://maps.google.com/?cid=0x0:0x6e0b0dac854112d1,
toko bangunan,Toko Bahan Bangunan,TB Villas Bangunan,"Jl. Raya Sidan No.raya, Sidan, Kec. Gianyar, Kabupaten Gianyar, Bali 80515","Sidan, Kec. Gianyar, Kabupaten Gianyar",BALI,80515.0,Indonesia,82312913158.0,,,-8.535531,115.3485469,https://maps.google.com/?cid=0x0:0xcf4ce530307eede4,
toko bangunan,Toko Bahan Bangunan,Depo Bangunan Anugrah Dewata,"Jl. Raya Tebongkang, Singakerta, Kecamatan Ubud, Kabupaten Gianyar, Bali 80571","Singakerta, Kecamatan Ubud, Kabupaten Gianyar",BALI,80571.0,Indonesia,,,,-8.5321801,115.2441498,https://maps.google.com/?cid=0x0:0x72ab999e92861840,
toko bangunan,Toko Bahan Bangunan,UD. Mekar Bangunan,"F7FW+F89, Jl. Raya Wanayu, Bedulu, Kec. Blahbatuh, Kabupaten Gianyar, Bali 80552","Jl. Raya Wanayu, Bedulu, Kec. Blahbatuh, Kabupaten Gianyar",BALI,80552.0,Indonesia,361943961.0,,,-8.5263412,115.2958747,https://maps.google.com/?cid=0x0:0xe17cdc3aac907aba,
toko bangunan,Toko Bahan Bangunan,UD. BAGUS JAYA,"Pejeng Kawan, Kec. Tampaksiring, Kabupaten Gianyar, Bali 80552","Kec. Tampaksiring, Kabupaten Gianyar",BALI,80552.0,Indonesia,361982049.0,,,-8.5115449,115.2871571,https://maps.google.com/?cid=0x0:0x3695aeafa9cec2c3,
toko bangunan,Pemasok Bahan Bangunan,CV. MULTINDO UTAMA JAYA,"Jl. Bukit Jati No.8, Gianyar, Kec. Gianyar, Kabupaten Gianyar, Bali 80511","Gianyar, Kec. Gianyar, Kabupaten Gianyar",BALI,80511.0,Indonesia,85737622208.0,,,-8.536123,115.3310842,https://maps.google.com/?cid=0x0:0xd2538019d29b4173,
toko bangunan,Jasa Ukir Perhiasan,Junaidy Ukir,"F87G+MWP, Jl. Patih Jelantik-Gianyar, Beng, Kec. Gianyar, Kabupaten Gianyar, Bali 80511","Jl. Patih Jelantik-Gianyar, Beng, Kec. Gianyar, Kabupaten Gianyar",BALI,80511.0,Indonesia,85169996026.0,,,-8.535779,115.3273302,https://maps.google.com/?cid=0x0:0x272d42aa1459f841,
toko bangunan,Toko Bahan Bangunan,Depo Bagoes Bangunan Celuk,"Jl. Raya Celuk, Batubulan, Kec. Sukawati, Kabupaten Gianyar, Bali 80582","Batubulan, Kec. Sukawati, Kabupaten Gianyar",BALI,80582.0,Indonesia,81999871818.0,,,-8.6041352,115.2555067,https://maps.google.com/?cid=0x0:0xc26747c6fb19f9f3,
toko bangunan,Toko Bahan Bangunan,UD. Mira,"F8HC+P64, Jl. Sawo, Bitera, Kec. Gianyar, Kabupaten Gianyar, Bali 80515","Jl. Sawo, Bitera, Kec. Gianyar, Kabupaten Gianyar",BALI,80515.0,Indonesia,361943902.0,,,-8.520744,115.320579,https://maps.google.com/?cid=0x0:0x8926e0fdb29f9565,
toko bangunan,Toko Bahan Bangunan,UD. Gambuh,"F8HH+JV5, Jl. Gn. Agung, Bakbakan, Kec. Gianyar, Kabupaten Gianyar, Bali 80515","Jl. Gn. Agung, Bakbakan, Kec. Gianyar, Kabupaten Gianyar",BALI,80515.0,Indonesia,361944737.0,,,-8.5209922,115.3297215,https://maps.google.com/?cid=0x0:0xd7ced2d435eb109c,
toko bangunan,Toko Bahan Bangunan,Toko Harmonis,"Jl. Astina Timur No.18x, Samplangan, Kec. Gianyar, Kabupaten Gianyar, Bali 80512","Samplangan, Kec. Gianyar, Kabupaten Gianyar",BALI,80512.0,Indonesia,81338722669.0,,,-8.5403448,115.3378149,https://maps.google.com/?cid=0x0:0x78430e04b4d39d94,
toko bangunan,Toko Bahan Bangunan,Miar Jaya UD,"Jl. Ngurah Rai-Gianyar No.66, Gianyar, Kec. Gianyar, Kabupaten Gianyar, Bali 80511","Gianyar, Kec. Gianyar, Kabupaten Gianyar",BALI,80511.0,Indonesia,361943103.0,,,-8.541655,115.3281811,https://maps.google.com/?cid=0x0:0x3bc79c589c7a4855,
toko bangunan,Toko Bahan Bangunan,Toko Putra Rahayu,"F85C+F7V, Jl. Dharma Giri, Gianyar, Kec. Gianyar, Kabupaten Gianyar, Bali 80511","Jl. Dharma Giri, Gianyar, Kec. Gianyar, Kabupaten Gianyar",BALI,80511.0,Indonesia,8123632179.0,,,-8.5412719,115.3206873,https://maps.google.com/?cid=0x0:0x431f6093b0bf02dd,
toko bangunan,Toko Bahan Bangunan,UD. Sari Buah,"Jl. Bukit Jati No.15, Beng, Kec. Gianyar, Kabupaten Gianyar, Bali 80513","Beng, Kec. Gianyar, Kabupaten Gianyar",BALI,80513.0,Indonesia,85238496410.0,,,-8.5364103,115.331665,https://maps.google.com/?cid=0x0:0x5c6a31b667530e68,
toko bangunan,Toko bahan makanan,Ud. Sari Agung,"F85P+PJ3, Jl. Astina Timur, Samplangan, Kec. Gianyar, Kabupaten Gianyar, Bali 80512","Jl. Astina Timur, Samplangan, Kec. Gianyar, Kabupaten Gianyar",BALI,80512.0,Indonesia,361943650.0,,,-8.5407372,115.3365401,https://maps.google.com/?cid=0x0:0x8fc0a4900e67ed6a,
toko bangunan,Toko Bahan Bangunan,Depo Bagoes Bangunan,"Jl. Mahendradata No.18, Bedulu, Kec. Blahbatuh, Kabupaten Gianyar, Bali 80511","Bedulu, Kec. Blahbatuh, Kabupaten Gianyar",BALI,80511.0,Indonesia,81805021818.0,,,-8.5351479,115.3080096,https://maps.google.com/?cid=0x0:0x3b473a950caea398,
toko bangunan,toko bangunan,Bali 80515,"Kec. Gianyar, Kabupaten Gianyar, Bali","Kabupaten Gianyar, Bali",BALI,,Indonesia,,,,-8.5169426,115.3133908,https://maps.google.com/?cid=0x0:0x1c00c5eb6016be90,
toko bangunan,Toko Bahan Bangunan,"Harum Jaya Bangunan, Toko","Jl. Ciung Wanara-Gianyar No.28 A, Gianyar, Kec. Gianyar, Kabupaten Gianyar, Bali 80511","Gianyar, Kec. Gianyar, Kabupaten Gianyar",BALI,80511.0,Indonesia,81918091818.0,,,-8.5404045,115.3223371,https://maps.google.com/?cid=0x0:0x63e2c8bcc0c2e836,
toko bangunan,Toko Bahan Bangunan,Sarana Bangunan,"Jl. Raya Bona, Bona, Kec. Blahbatuh, Kabupaten Gianyar, Bali 80581","Bona, Kec. Blahbatuh, Kabupaten Gianyar",BALI,80581.0,Indonesia,81353399370.0,,,-8.558548,115.311875,https://maps.google.com/?cid=0x0:0x63cdae8140fc3f87,
toko bangunan,Toko Bahan Bangunan,Toko Bangunan Budiasih,"F8FX+G6J, Jl. Raya Sidan, Sidan, Kec. Gianyar, Kabupaten Gianyar, Bali 80515","Jl. Raya Sidan, Sidan, Kec. Gianyar, Kabupaten Gianyar",BALI,80515.0,Indonesia,81246672063.0,,,-8.5261642,115.3480183,https://maps.google.com/?cid=0x0:0x9dc554170892c896,
toko bangunan,Toko Bahan Bangunan,Varia Bangunan,"Jl. Raden Wijaya No.8, Gianyar, Kec. Gianyar, Kabupaten Gianyar, Bali 80511","Gianyar, Kec. Gianyar, Kabupaten Gianyar",BALI,80511.0,Indonesia,81916196586.0,,,-8.5451971,115.3211236,https://maps.google.com/?cid=0x0:0xccb23c39271003ce,
toko bangunan,Toko Bahan Bangunan,TB Villas Bangunan,"Jl. Raya Sidan No.raya, Sidan, Kec. Gianyar, Kabupaten Gianyar, Bali 80515","Sidan, Kec. Gianyar, Kabupaten Gianyar",BALI,80515.0,Indonesia,82312913158.0,,,-8.535531,115.3485469,https://maps.google.com/?cid=0x0:0xcf4ce530307eede4,
toko bangunan,Toko Bahan Bangunan,UD MERUMAS,"F87G+P2W, Jl. Patih Jelantik-Gianyar, Beng, Kec. Gianyar, Kabupaten Gianyar, Bali 80517","Jl. Patih Jelantik-Gianyar, Beng, Kec. Gianyar, Kabupaten Gianyar",BALI,80517.0,Indonesia,,,,-8.5356362,115.3250788,https://maps.google.com/?cid=0x0:0x283bc2a85f240766,
toko bangunan,Toko Bahan Bangunan,Toko Artha Bangunan,"G8R9+M2W, Jl. Benawah - Petak Kaja, Petak Kaja, Kec. Gianyar, Kabupaten Gianyar, Bali 80515","Jl. Benawah - Petak Kaja, Petak Kaja, Kec. Gianyar, Kabupaten Gianyar",BALI,80515.0,Indonesia,361953672.0,,,-8.458251,115.3175695,https://maps.google.com/?cid=0x0:0xa7581fbc615876f5,
toko bangunan,Toko Bahan Bangunan,Toko Harmonis,"Jl. Astina Timur No.18x, Samplangan, Kec. Gianyar, Kabupaten Gianyar, Bali 80512","Samplangan, Kec. Gianyar, Kabupaten Gianyar",BALI,80512.0,Indonesia,81338722669.0,,,-8.5403448,115.3378149,https://maps.google.com/?cid=0x0:0x78430e04b4d39d94,
toko bangunan,Toko Bahan Bangunan,Bangunan Ekspres Gianyar,"Jl. Dharma Giri, Buruan, Kec. Blahbatuh, Kabupaten Gianyar, Bali 80581","Buruan, Kec. Blahbatuh, Kabupaten Gianyar",BALI,80581.0,Indonesia,85768097403.0,,,-8.5489656,115.3041258,https://maps.google.com/?cid=0x0:0x6e0b0dac854112d1,
toko bangunan,Toko Bahan Bangunan,UD. Rinda,"F7FX+GP9 Br Mas, Bedulu, Kec. Blahbatuh, Kabupaten Gianyar, Bali 80581","Bedulu, Kec. Blahbatuh, Kabupaten Gianyar",BALI,80581.0,Indonesia,85333553102.0,,,-8.5262036,115.2993505,https://maps.google.com/?cid=0x0:0x95a7526ef9e0f5b2,
toko bangunan,Toko Bahan Bangunan,Ud. Mira,"Jl. Triwanisa-kawan No.39, Bitera, Kec. Gianyar, Kabupaten Gianyar, Bali 80515","Bitera, Kec. Gianyar, Kabupaten Gianyar",BALI,80515.0,Indonesia,,,,-8.5307298,115.3175523,https://maps.google.com/?cid=0x0:0x16e21d044e6b4087,
toko bangunan,Toko Bahan Bangunan,UD. Mekar Bangunan,"F7FW+F89, Jl. Raya Wanayu, Bedulu, Kec. Blahbatuh, Kabupaten Gianyar, Bali 80552","Jl. Raya Wanayu, Bedulu, Kec. Blahbatuh, Kabupaten Gianyar",BALI,80552.0,Indonesia,361943961.0,,,-8.5263412,115.2958747,https://maps.google.com/?cid=0x0:0xe17cdc3aac907aba,
toko bangunan,Toko Bahan Bangunan,Kamar Bangunan,"G867+HJR, Jl. Raya Suwat, Suwat, Kec. Gianyar, Kabupaten Gianyar, Bali 80515","Jl. Raya Suwat, Suwat, Kec. Gianyar, Kabupaten Gianyar",BALI,80515.0,Indonesia,81338621166.0,,,-8.4885197,115.3140049,https://maps.google.com/?cid=0x0:0x59f24e8234ce5e1f,
toko bangunan,Toko Bahan Bangunan,UD. BAGUS JAYA,"Pejeng Kawan, Kec. Tampaksiring, Kabupaten Gianyar, Bali 80552","Kec. Tampaksiring, Kabupaten Gianyar",BALI,80552.0,Indonesia,361982049.0,,,-8.5115449,115.2871571,https://maps.google.com/?cid=0x0:0x3695aeafa9cec2c3,
toko bangunan,Toko Bahan Bangunan,UD Yuli Indah,"Jl. Sawo No.24, Bitera, Kec. Gianyar, Kabupaten Gianyar, Bali 80515","Bitera, Kec. Gianyar, Kabupaten Gianyar",BALI,80515.0,Indonesia,85205866277.0,,,-8.5324682,115.3172945,https://maps.google.com/?cid=0x0:0x922328127ed4f1c7,
toko bangunan,Toko Bahan Bangunan,Central Material,"F828+QG5, Bitera, Kec. Gianyar, Kabupaten Gianyar, Bali 80515","Bitera, Kec. Gianyar, Kabupaten Gianyar",BALI,80515.0,Indonesia,361977122.0,,,-8.5481139,115.3163661,https://maps.google.com/?cid=0x0:0x73316fb0048e8254,
toko bangunan,Toko Bahan Bangunan,Toko Putra Yasa,"Jl. Raya Dr. Ir. Sukarno, Pejeng, Kec. Tampaksiring, Kabupaten Gianyar, Bali 80552","Pejeng, Kec. Tampaksiring, Kabupaten Gianyar",BALI,80552.0,Indonesia,361981838.0,,,-8.510505,115.2930568,https://maps.google.com/?cid=0x0:0xda78798b637d7738,
toko bangunan,Toko Bahan Bangunan,Supplier Bahan Bangunan  Material Supplier,"F86X+W29, Jl. Sidan-Astina Timur, Temesi, Kec. Gianyar, Kabupaten Gianyar, Bali 80515","Jl. Sidan-Astina Timur, Temesi, Kec. Gianyar, Kabupaten Gianyar",BALI,80515.0,Indonesia,83866484759.0,,,-8.5377198,115.3475975,https://maps.google.com/?cid=0x0:0xe5bc70d7224695d6,
toko bangunan,Toko Bahan Bangunan,Putra Manila Hardware Store (0811155369) our store only number,"Jl. Wisma Udayana, Getas, Buruan, Kec. Blahbatuh, Kabupaten Gianyar, Bali 80511","Getas, Buruan, Kec. Blahbatuh, Kabupaten Gianyar",BALI,80511.0,Indonesia,811155369.0,,,-8.5527139,115.3030658,https://maps.google.com/?cid=0x0:0x51607417d4465d85,
toko bangunan,Toko Bahan Bangunan,Bintang Baru Bangunan,"Jl. Sakura, Abianbase, Kec. Gianyar, Kabupaten Gianyar, Bali 80515","Abianbase, Kec. Gianyar, Kabupaten Gianyar",BALI,80515.0,Indonesia,81228608197.0,,,-8.5535564,115.3328994,https://maps.google.com/?cid=0x0:0xc3b87739da0561e,
toko bangunan,Toko Bahan Bangunan,TB. Lima Jaya,"F85X+C6X, Jl. Raya Pegesangan, Temesi, Kec. Gianyar, Kabupaten Gianyar, Bali 80515","Jl. Raya Pegesangan, Temesi, Kec. Gianyar, Kabupaten Gianyar",BALI,80515.0,Indonesia,361943874.0,,,-8.5413843,115.3481134,https://maps.google.com/?cid=0x0:0xfcf02d724c99f12a,
toko bangunan,Toko Bahan Bangunan,UD. Paris Bangunan,"Jl. Kebo Iwa No.29, Gianyar, Kec. Gianyar, Kabupaten Gianyar, Bali 80511","Gianyar, Kec. Gianyar, Kabupaten Gianyar",BALI,80511.0,Indonesia,361951250.0,,,-8.5476512,115.3230632,https://maps.google.com/?cid=0x0:0xec46c13987783d2e,
toko bangunan,toko bangunan,Bali 80572,"Kec. Payangan, Kabupaten Gianyar, Bali","Kabupaten Gianyar, Bali",BALI,,Indonesia,,,,-8.3752579,115.2481959,https://maps.google.com/?cid=0x0:0x1c00c5eb6016bee0,
toko bangunan,Toko Bahan Bangunan,Cahaya Putri Bangunan,"Jl. Raya Bresela, Bresela, Kec. Payangan, Kabupaten Gianyar, Bali 80572","Bresela, Kec. Payangan, Kabupaten Gianyar",BALI,80572.0,Indonesia,87860206244.0,,,-8.4294624,115.2698108,https://maps.google.com/?cid=0x0:0xae3f5eb1b2080c67,
toko bangunan,Toko Bahan Bangunan,UD. DARSANA,"Margatengah, Kerta, Kec. Payangan, Kabupaten Gianyar, Bali 80572","Kerta, Kec. Payangan, Kabupaten Gianyar",BALI,80572.0,Indonesia,81338084707.0,,,-8.319176,115.2868303,https://maps.google.com/?cid=0x0:0x6c08b74ce9ee721,
toko bangunan,Toko Bahan Bangunan,Graha Listrik  Bangunan,"Jl. Raya Payangan No.26, Melinggih Kelod, Kec. Payangan, Kabupaten Gianyar, Bali 80572","Melinggih Kelod, Kec. Payangan, Kabupaten Gianyar",BALI,80572.0,Indonesia,87761312188.0,,,-8.4413387,115.2442274,https://maps.google.com/?cid=0x0:0x98de81913a9ffe5c,
toko bangunan,Toko Bahan Bangunan,UD. Harapan,"J7F8+FWF, Jl. Raya Payangan, Bukian, Kec. Payangan, Kabupaten Gianyar, Bali 80572","Jl. Raya Payangan, Bukian, Kec. Payangan, Kabupaten Gianyar",BALI,80572.0,Indonesia,3619084651.0,,,-8.3763206,115.2672928,https://maps.google.com/?cid=0x0:0x8a39f342920aef23,
toko bangunan,Toko grosir,UD. Agung,"Jl. Raya Bresela, Bresela, Kec. Payangan, Kabupaten Gianyar, Bali 80572","Bresela, Kec. Payangan, Kabupaten Gianyar",BALI,80572.0,Indonesia,85829023797.0,,,-8.4262372,115.2725012,https://maps.google.com/?cid=0x0:0x9719abc02aec408,
toko bangunan,Toko Bahan Bangunan,UD Jaya Mandiri (Gudang),"Jl. Raya Payangan No.08, Melinggih Kelod, Kec. Gianyar, Kabupaten Gianyar, Bali 80511","Melinggih Kelod, Kec. Gianyar, Kabupaten Gianyar",BALI,80511.0,Indonesia,3619000962.0,,,-8.445331,115.2419344,https://maps.google.com/?cid=0x0:0xef8723854aac9d9c,
toko bangunan,Toko Bahan Bangunan,Toko Darma,"Jl. Raya Payangan, Melinggih, Kaja, Kabupaten Gianyar, Bali 80572","Melinggih, Kaja, Kabupaten Gianyar",BALI,80572.0,Indonesia,361973478.0,,,-8.4365874,115.2446352,https://maps.google.com/?cid=0x0:0xf78f0fa89ab69294,
toko bangunan,Toko Bahan Bangunan,UD. Bintang Bangunan,"H7HC+WXQ, Jl. Raya Bresela, Bresela, Kec. Payangan, Kabupaten Gianyar, Bali 80572","Jl. Raya Bresela, Bresela, Kec. Payangan, Kabupaten Gianyar",BALI,80572.0,Indonesia,85103004113.0,,,-8.4201733,115.272471,https://maps.google.com/?cid=0x0:0x7d89c1c5f0400782,
toko bangunan,Toko Bahan Bangunan,Dewi Cha Bangunan,"H7GF+24W, Jl. Raya Bresela, Bresela, Kec. Payangan, Kabupaten Gianyar, Bali 80572","Jl. Raya Bresela, Bresela, Kec. Payangan, Kabupaten Gianyar",BALI,80572.0,Indonesia,85969018098.0,,,-8.4248927,115.2728284,https://maps.google.com/?cid=0x0:0x3a68465719c139ea,
toko bangunan,Toko Bahan Bangunan,UD. TOMBLOS,"Jl. Raya Payangan, dusun ponggang, Puhu, Kec. Payangan, Kabupaten Gianyar, Bali 80572","dusun ponggang, Puhu, Kec. Payangan, Kabupaten Gianyar",BALI,80572.0,Indonesia,85238880001.0,,,-8.3848648,115.2626459,https://maps.google.com/?cid=0x0:0x171a172d343f7226,
toko bangunan,Toko Bahan Bangunan,UD. SARI ARTA,"M75J+RHP, Jalan Raya, Kerta, Payangan, Gianyar Regency, Bali 80572","Jalan Raya, Kerta, Payangan, Gianyar Regency",BALI,80572.0,Indonesia,3617424318.0,,,-8.3404166,115.2814682,https://maps.google.com/?cid=0x0:0xedc4678d80d68a5b,
toko bangunan,Toko Bahan Bangunan,UD. Pangi Karya,"Jl. Raya Payangan, Puhu, Kec. Payangan, Kabupaten Gianyar, Bali 80572","Puhu, Kec. Payangan, Kabupaten Gianyar",BALI,80572.0,Indonesia,81338441441.0,,,-8.377062,115.2672765,https://maps.google.com/?cid=0x0:0xf24965608cf72f1a,
toko bangunan,Toko Bahan Bangunan,UD. Hoshi,"H755+878 Br Roban, Jl. Raya Kelusa, Kelusa, Kec. Payangan, Kabupaten Gianyar, Bali 80572","Jl. Raya Kelusa, Kelusa, Kec. Payangan, Kabupaten Gianyar",BALI,80572.0,Indonesia,,,,-8.4417162,115.2581886,https://maps.google.com/?cid=0x0:0x1804cf77a618a8c3,
toko bangunan,Toko Bahan Bangunan,UD. PUSPA DEWI,"H6WW+3HP, Jl. Raya, Puhu, Kec. Payangan, Kabupaten Gianyar, Bali 80572","Jl. Raya, Puhu, Kec. Payangan, Kabupaten Gianyar",BALI,80572.0,Indonesia,,,,-8.4047809,115.2464647,https://maps.google.com/?cid=0x0:0x25b826d291bba116,
toko bangunan,Toko Bahan Bangunan,UD. Mawar,"J7RF+575, Jalan Raya, Kerta, Payangan, Gianyar Regency, Bali 80572","Jalan Raya, Kerta, Payangan, Gianyar Regency",BALI,80572.0,Indonesia,87861298131.0,,,-8.3596151,115.2732426,https://maps.google.com/?cid=0x0:0xf492203f059e13f5,
toko bangunan,Toko Bahan Bangunan,Cahaya Mas,"G6XR+GRW, Jl. Raya Payangan, Melinggih Kelod, Kec. Payangan, Kabupaten Gianyar, Bali 80572","Jl. Raya Payangan, Melinggih Kelod, Kec. Payangan, Kabupaten Gianyar",BALI,80572.0,Indonesia,81237807647.0,,,-8.4511345,115.2420878,https://maps.google.com/?cid=0x0:0xff78e412597af578,
toko bangunan,Toko Bahan Bangunan,UD. Uma Dewi,"H757+CXH, Jl. Raya Bresela, Kelusa, Kec. Payangan, Kabupaten Gianyar, Bali 80561","Jl. Raya Bresela, Kelusa, Kec. Payangan, Kabupaten Gianyar",BALI,80561.0,Indonesia,361981403.0,,,-8.4414367,115.264998,https://maps.google.com/?cid=0x0:0x317b782629753b25,
toko bangunan,Toko Bahan Bangunan,UD PARTA,"Br.Tangkup, Bukian, Kec. Payangan, Kabupaten Gianyar, Bali","Kabupaten Gianyar, Bali",BALI,,Indonesia,,,,-8.4276065,115.2504738,https://maps.google.com/?cid=0x0:0x6d7b28c86532d06,
toko bangunan,Toko Bahan Bangunan,Depo Bagoes Bangunan,"Jl. Mahendradata No.18, Bedulu, Kec. Blahbatuh, Kabupaten Gianyar, Bali 80511","Bedulu, Kec. Blahbatuh, Kabupaten Gianyar",BALI,80511.0,Indonesia,81805021818.0,,,-8.5351479,115.3080096,https://maps.google.com/?cid=0x0:0x3b473a950caea398,
toko bangunan,Toko Bahan Bangunan,UD. Taro Jaya,"Kaja, Jalan Raya, Taro, Kec. Tegallalang, Kabupaten Gianyar, Bali 80561","Jalan Raya, Taro, Kec. Tegallalang, Kabupaten Gianyar",BALI,80561.0,Indonesia,87860331873.0,,,-8.3821996,115.2803565,https://maps.google.com/?cid=0x0:0xabf9c53d845c744c,
toko bangunan,Toko Bahan Bangunan,UD Rama Bangunan,"Jl. Raya Kintamani No.32, Banua, Kec. Kintamani, Kabupaten Bangli, Bali 80572","Banua, Kec. Kintamani, Kabupaten Bangli",BALI,80572.0,Indonesia,85237940451.0,,,-8.3270244,115.2926174,https://maps.google.com/?cid=0x0:0xe2c9bb53a842d189,
toko bangunan,toko bangunan,Sukawati,"Guwang, Kec. Sukawati, Kabupaten Gianyar, Bali","Kabupaten Gianyar, Bali",BALI,,Indonesia,,,,-8.605564,115.280502,https://maps.google.com/?cid=0x0:0x3d33c5a58391e773,
toko bangunan,Toko Bahan Bangunan,Toko bangunan cendanamas,"Jl. Ir. Sutami No.Br, Peninjauan, Kec. Sukawati, Kabupaten Gianyar, Bali 80582","Peninjauan, Kec. Sukawati, Kabupaten Gianyar",BALI,80582.0,Indonesia,81238526953.0,,,-8.5902905,115.2859144,https://maps.google.com/?cid=0x0:0xb1109ff2cdd6934c,
toko bangunan,Toko,Toko bangunan sari mertha,"C72M+QR3, Jl. Yudistira, Sukawati, Kec. Sukawati, Kabupaten Gianyar, Bali 80582","Jl. Yudistira, Sukawati, Kec. Sukawati, Kabupaten Gianyar",BALI,80582.0,Indonesia,82145764647.0,,,-8.5981231,115.2845327,https://maps.google.com/?cid=0x0:0xf5e145eb693bec4c,
toko bangunan,Toko Bahan Bangunan,UD.Pelita Abadi Bangunan,"Jl. Prof. Dr. Ida Bagus Mantra, Ketewel, Kec. Sukawati, Kabupaten Gianyar, Bali 80582","Ketewel, Kec. Sukawati, Kabupaten Gianyar",BALI,80582.0,Indonesia,82144586669.0,,,-8.6327268,115.2904437,https://maps.google.com/?cid=0x0:0xec0f4aa0e05c8baf,
toko bangunan,Toko Bahan Bangunan,Depo Bagoes Bangunan Celuk,"Jl. Raya Celuk, Batubulan, Kec. Sukawati, Kabupaten Gianyar, Bali 80582","Batubulan, Kec. Sukawati, Kabupaten Gianyar",BALI,80582.0,Indonesia,81999871818.0,,,-8.6041352,115.2555067,https://maps.google.com/?cid=0x0:0xc26747c6fb19f9f3,
toko bangunan,Toko Bahan Bangunan,Toko Bangunan Gemilang,"Jl. Smki No.22, Batubulan, Kec. Sukawati, Kabupaten Gianyar, Bali 80582","Batubulan, Kec. Sukawati, Kabupaten Gianyar",BALI,80582.0,Indonesia,81916231350.0,,,-8.6065706,115.2589604,https://maps.google.com/?cid=0x0:0xf185422bfeb6a2c2,
toko bangunan,Toko Bahan Bangunan,TOKO BANGUNAN DAN ALAT LISTRIK CAHYA RIMEN,"97J4+7JX, Jl. Pasekan, Batubulan, Kec. Sukawati, Kabupaten Gianyar, Bali 80237","Jl. Pasekan, Batubulan, Kec. Sukawati, Kabupaten Gianyar",BALI,80237.0,Indonesia,81918074999.0,,,-8.6192611,115.2566014,https://maps.google.com/?cid=0x0:0x8bc48d801b474361,
toko bangunan,Toko Bahan Bangunan,UD.Mandiri,"97XV+FC4, Jl. Saba, Sukawati, Kec. Sukawati, Kabupaten Gianyar, Bali 80582","Jl. Saba, Sukawati, Kec. Sukawati, Kabupaten Gianyar",BALI,80582.0,Indonesia,81916315514.0,,,-8.6013544,115.2935753,https://maps.google.com/?cid=0x0:0x9e2bc8d199aee3ec,
toko bangunan,Toko Bahan Bangunan,Toko Bangunan Pak Dewe,"C79F+24G, Jl. Raya Batuan, Sukawati, Kec. Sukawati, Kabupaten Gianyar, Bali 80582","Jl. Raya Batuan, Sukawati, Kec. Sukawati, Kabupaten Gianyar",BALI,80582.0,Indonesia,82237284539.0,,,-8.5824431,115.2728218,https://maps.google.com/?cid=0x0:0x4067e675d73407e4,
toko bangunan,Toko Bahan Bangunan,Toko bangunan bali made 2,"Jalan Raya Jl. Bukit Jati No.80x, Samplangan, Kec. Gianyar, Kabupaten Gianyar, Bali 80511","Samplangan, Kec. Gianyar, Kabupaten Gianyar",BALI,80511.0,Indonesia,89685848180.0,,,-8.5369604,115.3332963,https://maps.google.com/?cid=0x0:0xa1db30a250c7a380,
toko bangunan,Toko Bahan Bangunan,MiNi DEPO Gianyar,"97GW+5Q3, Ketewel, Kec. Sukawati, Kabupaten Gianyar, Bali 80582","Ketewel, Kec. Sukawati, Kabupaten Gianyar",BALI,80582.0,Indonesia,81237074427.0,,,-8.6246155,115.2969925,https://maps.google.com/?cid=0x0:0xb5a84be377320155,
toko bangunan,Toko Bahan Bangunan,Abadi Baru,"Jl. Pratu Wayan Sadri No.32, Sukawati, Kec. Sukawati, Kabupaten Gianyar, Bali 80582","Sukawati, Kec. Sukawati, Kabupaten Gianyar",BALI,80582.0,Indonesia,3612911139.0,,,-8.5916297,115.2805936,https://maps.google.com/?cid=0x0:0xcd4468f7a3f20c00,
toko bangunan,Toko Bahan Bangunan,Toko Sinar Bangunan,"C757+573, Jl. Raya Singapadu, Singapadu, Kec. Sukawati, Kabupaten Gianyar, Bali 80582","Jl. Raya Singapadu, Singapadu, Kec. Sukawati, Kabupaten Gianyar",BALI,80582.0,Indonesia,81337979350.0,,,-8.5921129,115.2631576,https://maps.google.com/?cid=0x0:0x13e72dddc63c4739,
toko bangunan,Toko Bahan Bangunan,Depo Bagoes Bangunan,"Jl. Mahendradata No.18, Bedulu, Kec. Blahbatuh, Kabupaten Gianyar, Bali 80511","Bedulu, Kec. Blahbatuh, Kabupaten Gianyar",BALI,80511.0,Indonesia,81805021818.0,,,-8.5351479,115.3080096,https://maps.google.com/?cid=0x0:0x3b473a950caea398,
toko bangunan,Toko Bahan Bangunan,Toko Surya Jaya,"97GW+2JQ, Jl. Raya Ketewel, Ketewel, Kec. Sukawati, Kabupaten Gianyar, Bali","Kabupaten Gianyar, Bali",BALI,,Indonesia,,,,-8.6249193,115.2966193,https://maps.google.com/?cid=0x0:0x2d91921a14709dca,
toko bangunan,Toko Bahan Bangunan,Bahan Bangunan,"C7J4+G7W, Jl. Raya Kengetan, Singapadu Tengah, Kec. Sukawati, Kabupaten Gianyar, Bali 80571","Jl. Raya Kengetan, Singapadu Tengah, Kec. Sukawati, Kabupaten Gianyar",BALI,80571.0,Indonesia,81997703657.0,,,-8.5686262,115.2556897,https://maps.google.com/?cid=0x0:0x6e55b0c4700e8e9a,
toko bangunan,Toko Bahan Bangunan,"Harum Jaya Bangunan, Toko","Jl. Ciung Wanara-Gianyar No.28 A, Gianyar, Kec. Gianyar, Kabupaten Gianyar, Bali 80511","Gianyar, Kec. Gianyar, Kabupaten Gianyar",BALI,80511.0,Indonesia,81918091818.0,,,-8.5404045,115.3223371,https://maps.google.com/?cid=0x0:0x63e2c8bcc0c2e836,
toko bangunan,Toko Bahan Bangunan,Toko baja ringan dan gypsum Kencana Jaya,"Batubulan, Kec. Sukawati, Kabupaten Gianyar, Bali 80582","Kec. Sukawati, Kabupaten Gianyar",BALI,80582.0,Indonesia,811385889.0,,,-8.6320003,115.2614842,https://maps.google.com/?cid=0x0:0x5bebb666e4e7932d,
toko bangunan,Toko Bahan Bangunan,Varia Bangunan,"Jl. Raden Wijaya No.8, Gianyar, Kec. Gianyar, Kabupaten Gianyar, Bali 80511","Gianyar, Kec. Gianyar, Kabupaten Gianyar",BALI,80511.0,Indonesia,81916196586.0,,,-8.5451971,115.3211236,https://maps.google.com/?cid=0x0:0xccb23c39271003ce,
toko bangunan,Jasa Konstruksi dan Bangunan,Toko Besi Cahaya Abadi Trus,"C76M+927, Batuan, Kec. Sukawati, Kabupaten Gianyar, Bali 80582","Batuan, Kec. Sukawati, Kabupaten Gianyar",BALI,80582.0,Indonesia,,,,-8.5890998,115.2825582,https://maps.google.com/?cid=0x0:0x3d80fc64ec0e5934,
toko bangunan,Toko Bahan Bangunan,AMERTA TOKO BAHAN BANGUNAN TERMURAH,"Jl. Pasekan No.250, Batubulan Kangin, Kec. Sukawati, Kabupaten Gianyar, Bali 80582","Batubulan Kangin, Kec. Sukawati, Kabupaten Gianyar",BALI,80582.0,Indonesia,87863956660.0,,,-8.6182357,115.2649937,https://maps.google.com/?cid=0x0:0xde20486f597a7749,
toko bangunan,Toko Bahan Bangunan,Ud. Sukma Jaya Bangunan,"Jl. Raya Celuk No.18, Batubulan, Kec. Sukawati, Kabupaten Gianyar, Bali 80582","Batubulan, Kec. Sukawati, Kabupaten Gianyar",BALI,80582.0,Indonesia,81339806060.0,,,-8.604345,115.2549072,https://maps.google.com/?cid=0x0:0xfec8e249359b9c81,
toko bangunan,Toko Bahan Bangunan,Istana Dewata Bangunan,"978M+FGV, Jl. Raya Ketewel, Ketewel, Kec. Sukawati, Kabupaten Gianyar, Bali 80582","Jl. Raya Ketewel, Ketewel, Kec. Sukawati, Kabupaten Gianyar",BALI,80582.0,Indonesia,81338512777.0,,,-8.6337591,115.2838103,https://maps.google.com/?cid=0x0:0x3b1d6b04eb94f93c,
toko bangunan,Toko Bahan Bangunan,UD. Bangun Jaya,"Jl. Raya Sukawati No.35, Batuan, Kec. Sukawati, Kabupaten Gianyar, Bali 80582","Batuan, Kec. Sukawati, Kabupaten Gianyar",BALI,80582.0,Indonesia,82249067774.0,,,-8.5885779,115.2825398,https://maps.google.com/?cid=0x0:0x6db5b9089e7226ed,
toko bangunan,Toko Bahan Bangunan,Adi Karya,"Jalan Raya Pantai Pabean, Ketewel, Kec. Sukawati, Kabupaten Gianyar, Bali 80582","Ketewel, Kec. Sukawati, Kabupaten Gianyar",BALI,80582.0,Indonesia,81907227529.0,,,-8.6122381,115.2928528,https://maps.google.com/?cid=0x0:0x69ac9696657cbd59,
toko bangunan,Toko Bahan Bangunan,UD Tunas Jaya,"Jl. Raya Sukawati No.93X, Sukawati, Kec. Sukawati, Kabupaten Gianyar, Bali 80582","Sukawati, Kec. Sukawati, Kabupaten Gianyar",BALI,80582.0,Indonesia,361298331.0,,,-8.6003815,115.2828442,https://maps.google.com/?cid=0x0:0xb1cac33308d819ad,
toko bangunan,Pusat Perbelanjaan,UD. Wijaya,"Jl. Drupadi No.8, Guwang, Kec. Sukawati, Kabupaten Gianyar, Bali 80582","Guwang, Kec. Sukawati, Kabupaten Gianyar",BALI,80582.0,Indonesia,81353993281.0,,,-8.6143544,115.2828277,https://maps.google.com/?cid=0x0:0xebe4557c8e38acf5,
toko bangunan,Toko Bahan Bangunan,Ud. Bangun Karya,"Jl. Batuyang No.24, Batubulan, Kec. Sukawati, Kabupaten Gianyar, Bali 80582","Batubulan, Kec. Sukawati, Kabupaten Gianyar",BALI,80582.0,Indonesia,81236837878.0,,,-8.6280462,115.2619873,https://maps.google.com/?cid=0x0:0x83db67cdfde47872,
toko bangunan,Pemasok Bahan Bangunan,Citra Karya Mas,"Jl. Prof. Dr. Ida Bagus Mantra, Ketewel, Kec. Sukawati, Kabupaten Gianyar, Bali 80582","Ketewel, Kec. Sukawati, Kabupaten Gianyar",BALI,80582.0,Indonesia,81339872030.0,,,-8.6364198,115.2840536,https://maps.google.com/?cid=0x0:0x76062d62e64f06fb,
toko bangunan,toko bangunan,Tampaksiring,"Kec. Tampaksiring, Kabupaten Gianyar, Bali","Kabupaten Gianyar, Bali",BALI,,Indonesia,,,,-8.4390082,115.3104277,https://maps.google.com/?cid=0x0:0x1800e8dbac4d3f48,
toko bangunan,Toko Bahan Bangunan,UD. Harum Sari,"G7QX+VM6, Jl. Pejeng Kaja - Tampak Siring, Sanding, Kec. Tampaksiring, Kabupaten Gianyar, Bali 80552","Jl. Pejeng Kaja - Tampak Siring, Sanding, Kec. Tampaksiring, Kabupaten Gianyar",BALI,80552.0,Indonesia,,,,-8.4603483,115.2991323,https://maps.google.com/?cid=0x0:0x890db05d2722a861,
toko bangunan,Toko Bahan Bangunan,UD. Maharani,"H874+6VX, Jl. Dr. Ir. Soekarno, Tampaksiring, Kec. Tampaksiring, Kabupaten Gianyar, Bali 80552","Jl. Dr. Ir. Soekarno, Tampaksiring, Kec. Tampaksiring, Kabupaten Gianyar",BALI,80552.0,Indonesia,361901275.0,,,-8.4368937,115.307227,https://maps.google.com/?cid=0x0:0x82f012ac9006441,
toko bangunan,Bengkel Logam,Toko GBI - Global Besi Indonesia  Toko Bangunan,"G8X5+62W, Sanding, Kec. Tampaksiring, Kabupaten Gianyar, Bali 80552","Sanding, Kec. Tampaksiring, Kabupaten Gianyar",BALI,80552.0,Indonesia,,,,-8.4518845,115.3075789,https://maps.google.com/?cid=0x0:0x75026ee8c1ec9d9a,
toko bangunan,Toko Bahan Bangunan,Toko Whindu Karya,"H8G5+J7H, Jl. Dr. Ir. Soekarno, Tampaksiring, Kec. Tampaksiring, Kabupaten Gianyar, Bali 80552","Jl. Dr. Ir. Soekarno, Tampaksiring, Kec. Tampaksiring, Kabupaten Gianyar",BALI,80552.0,Indonesia,81238273274.0,,,-8.4234444,115.3082498,https://maps.google.com/?cid=0x0:0x2d7213417f686836,
toko bangunan,Pasar bahan bangunan,TB. Ayu Martini,"G7QX+WRM, Jalan Raya, Pejeng, Tampaksiring, Gianyar Regency, Bali 80552","Jalan Raya, Pejeng, Tampaksiring, Gianyar Regency",BALI,80552.0,Indonesia,85100081505.0,,,-8.4601729,115.2995459,https://maps.google.com/?cid=0x0:0x81643d617e072fc1,
toko bangunan,Toko Bahan Bangunan,Kas Sari Ukir,"Jl. Sumita, Sumita, Kec. Gianyar, Kabupaten Gianyar, Bali 80515","Sumita, Kec. Gianyar, Kabupaten Gianyar",BALI,80515.0,Indonesia,85847264846.0,,,-8.4616828,115.311005,https://maps.google.com/?cid=0x0:0x19135bdc54ded08a,
toko bangunan,Pemasok Produk Plastik,Tirta Terpal Bali,"Jl. Pertiwi Brata, Subak Pulagan, Tampaksiring, Kec. Tampaksiring, Bali 80552","Subak Pulagan, Tampaksiring, Kec. Tampaksiring",BALI,80552.0,Indonesia,8563751716.0,,,-8.4308134,115.3142698,https://maps.google.com/?cid=0x0:0xabdb2e941b6ee6b8,
toko bangunan,Toko Bahan Bangunan,UD. Pada Dadi,"H8G5+P98, Jl. Dr. Ir. Soekarno, Sanding, Kec. Tampaksiring, Kabupaten Gianyar, Bali 80552","Jl. Dr. Ir. Soekarno, Sanding, Kec. Tampaksiring, Kabupaten Gianyar",BALI,80552.0,Indonesia,361901991.0,,,-8.4232039,115.3084496,https://maps.google.com/?cid=0x0:0xf0a4dd0795d71266,
toko bangunan,Toko Bahan Bangunan,Toko Artha Bangunan,"G8R9+M2W, Jl. Benawah - Petak Kaja, Petak Kaja, Kec. Gianyar, Kabupaten Gianyar, Bali 80515","Jl. Benawah - Petak Kaja, Petak Kaja, Kec. Gianyar, Kabupaten Gianyar",BALI,80515.0,Indonesia,361953672.0,,,-8.458251,115.3175695,https://maps.google.com/?cid=0x0:0xa7581fbc615876f5,
toko bangunan,Toko Bahan Bangunan,UD. Taru Gumana,"H8G5+P98, Br. Mancawarna, Jl. Dr. Ir. Soekarno, Sanding, Kec. Tampaksiring, Kabupaten Gianyar, Bali 80552","Br. Mancawarna, Jl. Dr. Ir. Soekarno, Sanding, Kec. Tampaksiring, Kabupaten Gianyar",BALI,80552.0,Indonesia,81236539359.0,,,-8.4232039,115.3084496,https://maps.google.com/?cid=0x0:0x8e73f6293bae27a7,
toko bangunan,Toko Bahan Bangunan,Toko ayu martini,"Jl. Pejeng Kaja - Tampak Siring No.18, Sanding, Kec. Tampaksiring, Kabupaten Gianyar, Bali 80552","Sanding, Kec. Tampaksiring, Kabupaten Gianyar",BALI,80552.0,Indonesia,,,,-8.4547879,115.3046247,https://maps.google.com/?cid=0x0:0x7aad56c25c68e0bf,
toko bangunan,Toko Bahan Bangunan,UD.SEDERHANA,"H8RC+GJ2, Jl. Basangambu, Manukaya, Kec. Tampaksiring, Kabupaten Gianyar, Bali 80552","Jl. Basangambu, Manukaya, Kec. Tampaksiring, Kabupaten Gianyar",BALI,80552.0,Indonesia,361901325.0,,,-8.4087423,115.3215207,https://maps.google.com/?cid=0x0:0x96250678b0922023,
toko bangunan,Toko Bahan Bangunan,Toko bangunan bali made 2,"Jalan Raya Jl. Bukit Jati No.80x, Samplangan, Kec. Gianyar, Kabupaten Gianyar, Bali 80511","Samplangan, Kec. Gianyar, Kabupaten Gianyar",BALI,80511.0,Indonesia,89685848180.0,,,-8.5369604,115.3332963,https://maps.google.com/?cid=0x0:0xa1db30a250c7a380,
toko bangunan,Toko Bahan Bangunan,UD. Dego Bangunan,"H8C4+56H, Jl. Kawera Brata No.225, Tampaksiring, Kec. Tampaksiring, Kabupaten Gianyar, Bali 80552","Jl. Kawera Brata No.225, Tampaksiring, Kec. Tampaksiring, Kabupaten Gianyar",BALI,80552.0,Indonesia,81999896665.0,,,-8.4295666,115.3056851,https://maps.google.com/?cid=0x0:0x736b2ab510f180a1,
toko bangunan,Toko Bahan Bangunan,Windhu Karya,"H8Q6+2HF, Jl. Dr. Ir. Soekarno, Manukaya, Kec. Tampaksiring, Kabupaten Gianyar, Bali 80552","Jl. Dr. Ir. Soekarno, Manukaya, Kec. Tampaksiring, Kabupaten Gianyar",BALI,80552.0,Indonesia,85337945995.0,,,-8.4124433,115.3114357,https://maps.google.com/?cid=0x0:0x723cc6a892539b44,
toko bangunan,Toko Bahan Bangunan,UD. Tirta Yasa,"F7VV+Q48, Jl. Raya Dr. Ir. Sukarno, Pejeng, Kec. Tampaksiring, Kabupaten Gianyar, Bali 80552","Jl. Raya Dr. Ir. Sukarno, Pejeng, Kec. Tampaksiring, Kabupaten Gianyar",BALI,80552.0,Indonesia,81337599880.0,,,-8.5055921,115.2928226,https://maps.google.com/?cid=0x0:0x55d3f34c98e1fa3,
toko bangunan,Toko Bahan Bangunan,"Manik Putra, CV","H894+M98, Jl. Baruna Brata, Tampaksiring, Kec. Tampaksiring, Kabupaten Gianyar, Bali 80552","Jl. Baruna Brata, Tampaksiring, Kec. Tampaksiring, Kabupaten Gianyar",BALI,80552.0,Indonesia,361901207.0,,,-8.4308412,115.3059529,https://maps.google.com/?cid=0x0:0x94f57d9d611f9c7b,
toko bangunan,Toko Bahan Bangunan,Suryani Toko,"J72Q+9PW, JL. Raya Pujung, Br Pujung, Tampaksiring, Sebatu, Kec. Gianyar, Kabupaten Gianyar, Bali 80552","JL. Raya Pujung, Br Pujung, Tampaksiring, Sebatu, Kec. Gianyar, Kabupaten Gianyar",BALI,80552.0,Indonesia,361901134.0,,,-8.399001,115.2893275,https://maps.google.com/?cid=0x0:0x1ab65309c91e0b53,
toko bangunan,Toko Bahan Bangunan,Varia Bangunan,"Jl. Raden Wijaya No.8, Gianyar, Kec. Gianyar, Kabupaten Gianyar, Bali 80511","Gianyar, Kec. Gianyar, Kabupaten Gianyar",BALI,80511.0,Indonesia,81916196586.0,,,-8.5451971,115.3211236,https://maps.google.com/?cid=0x0:0xccb23c39271003ce,
toko bangunan,Toko Bahan Bangunan,Toko Putra Yasa,"Jl. Raya Dr. Ir. Sukarno, Pejeng, Kec. Tampaksiring, Kabupaten Gianyar, Bali 80552","Pejeng, Kec. Tampaksiring, Kabupaten Gianyar",BALI,80552.0,Indonesia,361981838.0,,,-8.510505,115.2930568,https://maps.google.com/?cid=0x0:0xda78798b637d7738,
toko bangunan,Tukang Kayu,Kosalo Kosali,"J829+93C, Jl. Melati, Manukaya, Kec. Tampaksiring, Kabupaten Gianyar, Bali 80552","Jl. Melati, Manukaya, Kec. Tampaksiring, Kabupaten Gianyar",BALI,80552.0,Indonesia,85903714622.0,,,-8.3990661,115.3176551,https://maps.google.com/?cid=0x0:0xcdf75b6d4cd203bd,
toko bangunan,Toko Bahan Bangunan,UD. DEWA MADE LINGGIH,"H8R7+233, Manukaya, Kec. Tampaksiring, Kabupaten Gianyar, Bali 80552","Manukaya, Kec. Tampaksiring, Kabupaten Gianyar",BALI,80552.0,Indonesia,81936567342.0,,,-8.4099992,115.3126683,https://maps.google.com/?cid=0x0:0x1f05c84026b9282f,
toko bangunan,toko bangunan,Bali 80552,"Kec. Tampaksiring, Kabupaten Gianyar, Bali","Kabupaten Gianyar, Bali",BALI,,Indonesia,,,,-8.4362857,115.3133908,https://maps.google.com/?cid=0x0:0x1c00c5eb6016beb0,
toko bangunan,Toko Bahan Bangunan,UD. BAGUS JAYA,"Pejeng Kawan, Kec. Tampaksiring, Kabupaten Gianyar, Bali 80552","Kec. Tampaksiring, Kabupaten Gianyar",BALI,80552.0,Indonesia,361982049.0,,,-8.5115449,115.2871571,https://maps.google.com/?cid=0x0:0x3695aeafa9cec2c3,
toko bangunan,Toko Bahan Bangunan,UD Suwarnadi,"G76R+2X3, Jl. Raya Pejeng Tampaksiring, Pejeng Kaja, Kec. Tampaksiring, Kabupaten Gianyar, Bali 80552","Jl. Raya Pejeng Tampaksiring, Pejeng Kaja, Kec. Tampaksiring, Kabupaten Gianyar",BALI,80552.0,Indonesia,361981780.0,,,-8.4899943,115.2924208,https://maps.google.com/?cid=0x0:0xe1401408a3184d36,
toko bangunan,Toko,UD. Cempaka Bali,"F7QM+X49, Pejeng Kawan, Kec. Tampaksiring, Kabupaten Gianyar, Bali 80552","Pejeng Kawan, Kec. Tampaksiring, Kabupaten Gianyar",BALI,80552.0,Indonesia,3618987933.0,,,-8.5100838,115.2828536,https://maps.google.com/?cid=0x0:0x8d16bcca19983297,
toko bangunan,Toko Bahan Bangunan,Depo Bagoes Bangunan,"Jl. Mahendradata No.18, Bedulu, Kec. Blahbatuh, Kabupaten Gianyar, Bali 80511","Bedulu, Kec. Blahbatuh, Kabupaten Gianyar",BALI,80511.0,Indonesia,81805021818.0,,,-8.5351479,115.3080096,https://maps.google.com/?cid=0x0:0x3b473a950caea398,
toko bangunan,Toko Bahan Bangunan,Toko Adi Jaya,"G74F+28M, Jl. Raya Andong, Petulu, Kecamatan Ubud, Kabupaten Gianyar, Bali 80571","Jl. Raya Andong, Petulu, Kecamatan Ubud, Kabupaten Gianyar",BALI,80571.0,Indonesia,361975859.0,,,-8.4949235,115.2733088,https://maps.google.com/?cid=0x0:0xf5d96d4148ff835f,
toko bangunan,toko bangunan,Bali 80561,"Kec. Tegallalang, Kabupaten Gianyar, Bali","Kabupaten Gianyar, Bali",BALI,,Indonesia,,,,-8.3921715,115.2956118,https://maps.google.com/?cid=0x0:0x1c00c5eb6016bec0,
toko bangunan,Toko Bahan Bangunan,Toko Pondok Ratna,"Selatan perempatan Talepud, Jl. Raya Pujung Kaja, Sebatu, Kec. Tegallalang, Kabupaten Gianyar, Bali 80561","Jl. Raya Pujung Kaja, Sebatu, Kec. Tegallalang, Kabupaten Gianyar",BALI,80561.0,Indonesia,81237159026.0,,,-8.4050893,115.2910392,https://maps.google.com/?cid=0x0:0x338a1416523a6509,
toko bangunan,Toko Bahan Bangunan,Toko PARWATA,"G78H+X5M, Jalan Raya, Banjar Gentong, Tegallalang, Gianyar Regency, Bali 80561","Jalan Raya, Banjar Gentong, Tegallalang, Gianyar Regency",BALI,80561.0,Indonesia,361973052.0,,,-8.482544,115.277922,https://maps.google.com/?cid=0x0:0xaa4e719a96cd754f,
toko bangunan,Toko Bahan Bangunan,Toko Tegal Sari,"Jl. Br Jasan, Sebatu, Kec. Tegallalang, Kabupaten Gianyar, Bali 80561","Sebatu, Kec. Tegallalang, Kabupaten Gianyar",BALI,80561.0,Indonesia,8161999912.0,,,-8.3732968,115.305107,https://maps.google.com/?cid=0x0:0x812f27eb06f9ff46,
toko bangunan,Toko Bahan Bangunan,Ud. Merta Sari,"H7WQ+H34, Jl. Raya Pujung Kaja, Sebatu, Kec. Tegallalang, Kabupaten Gianyar, Bali 80561","Jl. Raya Pujung Kaja, Sebatu, Kec. Tegallalang, Kabupaten Gianyar",BALI,80561.0,Indonesia,361901092.0,,,-8.403616,115.2877131,https://maps.google.com/?cid=0x0:0x56802d506317da2d,
toko bangunan,Toko Bahan Bangunan,UD.BANGKIT JAYA TEGALLALNG,"Jalan Raya, Tegallalang, Gianyar Regency, Bali 80561","Tegallalang, Gianyar Regency",BALI,80561.0,Indonesia,,,,-8.444408,115.2814652,https://maps.google.com/?cid=0x0:0x4057bb93be9649b4,
toko bangunan,Toko Bahan Bangunan,UD. Hari Indah,"H727+WRV, Jl. RY Dalem, Keliki, Kec. Tegallalang, Kabupaten Gianyar, Bali 80561","Jl. RY Dalem, Keliki, Kec. Tegallalang, Kabupaten Gianyar",BALI,80561.0,Indonesia,87760350670.0,,,-8.4476386,115.2645324,https://maps.google.com/?cid=0x0:0x71236a2541696490,
toko bangunan,Toko Bahan Bangunan,UD BINTANG MAS,"M86G+J8P, Jl. Pupuan Tegallalang, Pupuan, Kec. Tegallalang, Kabupaten Gianyar, Bali 80561","Jl. Pupuan Tegallalang, Pupuan, Kec. Tegallalang, Kabupaten Gianyar",BALI,80561.0,Indonesia,,,,-8.3384067,115.3258384,https://maps.google.com/?cid=0x0:0xea5e3df502b65d76,
toko bangunan,Toko Bahan Bangunan,UD. Cahaya Kemuning,"H7MR+HFQ, Kedisan, Kec. Tegallalang, Kabupaten Gianyar, Bali 80561","Kedisan, Kec. Tegallalang, Kabupaten Gianyar",BALI,80561.0,Indonesia,82147535884.0,,,-8.4160392,115.2912474,https://maps.google.com/?cid=0x0:0x47eb98437b270c55,
toko bangunan,Toko Bahan Bangunan,Sinar abadi,"Jl. Kedisan Kaja, Kedisan, Kec. Tegallalang, Kabupaten Gianyar, Bali 80561","Kedisan, Kec. Tegallalang, Kabupaten Gianyar",BALI,80561.0,Indonesia,,,,-8.4111363,115.2913096,https://maps.google.com/?cid=0x0:0x6202d7ae31e97709,
toko bangunan,Toko Bahan Bangunan,KIOS AYU,"Jl. Raya Tegallalang, Tegallalang, Kec. Tegallalang, Kabupaten Gianyar, Bali 80561","Tegallalang, Kec. Tegallalang, Kabupaten Gianyar",BALI,80561.0,Indonesia,87860118643.0,,,-8.4503989,115.2800807,https://maps.google.com/?cid=0x0:0x94531bc6c2632f0e,
toko bangunan,Toko Bahan Bangunan,Cahaya Putri Bangunan,"Jl. Raya Bresela, Bresela, Kec. Payangan, Kabupaten Gianyar, Bali 80572","Bresela, Kec. Payangan, Kabupaten Gianyar",BALI,80572.0,Indonesia,87860206244.0,,,-8.4294624,115.2698108,https://maps.google.com/?cid=0x0:0xae3f5eb1b2080c67,
toko bangunan,Toko Bahan Bangunan,Toko Bm Keliki,"H729+QP4, Jl. RY Dalem, Keliki, Kec. Tegallalang, Kabupaten Gianyar, Bali 80561","Jl. RY Dalem, Keliki, Kec. Tegallalang, Kabupaten Gianyar",BALI,80561.0,Indonesia,85738323911.0,,,-8.4481117,115.2693212,https://maps.google.com/?cid=0x0:0xcfded2669e95b9af,
toko bangunan,Toko Bahan Bangunan,UD.Artha Asri,"Jl. Br.Pakuseba, Taro, Kec. Tegallalang, Kabupaten Gianyar, Bali 80561","Taro, Kec. Tegallalang, Kabupaten Gianyar",BALI,80561.0,Indonesia,8123682726.0,,,-8.3674011,115.281444,https://maps.google.com/?cid=0x0:0x7436a4e39409a6b8,
toko bangunan,Toko Bahan Bangunan,UD. Harapan Terang,"H7JX+W93, Unnamed Road, Kedisan, Kec. Tegallalang, Kabupaten Gianyar, Bali 80561","Unnamed Road, Kedisan, Kec. Tegallalang, Kabupaten Gianyar",BALI,80561.0,Indonesia,85238526617.0,,,-8.4177308,115.298412,https://maps.google.com/?cid=0x0:0x458eb490147daf3c,
toko bangunan,Toko Bahan Bangunan,Sari Sasih Bangunan,"Jl. Suweta No.167, Bentuyung, Kecamatan Ubud, Kabupaten Gianyar, Bali 80571","Bentuyung, Kecamatan Ubud, Kabupaten Gianyar",BALI,80571.0,Indonesia,361977915.0,,,-8.4766849,115.2672711,https://maps.google.com/?cid=0x0:0x252634e021e25763,
toko bangunan,Toko Bahan Bangunan,Ud Milania,"M887+325, let, Jl. Banjar Belong Taro, Taro, Kec. Tegallalang, Kabupaten Gianyar, Bali 80561","let, Jl. Banjar Belong Taro, Taro, Kec. Tegallalang, Kabupaten Gianyar",BALI,80561.0,Indonesia,81338925922.0,,,-8.3348542,115.3126017,https://maps.google.com/?cid=0x0:0xb8412fc810ce14f5,
toko bangunan,Toko Bahan Bangunan,Toko Bangunan Agung Jaya Mandiri,"No Jl. Tirta Tawar No.188, Ubud, Kecamatan Ubud, Kabupaten Gianyar, Bali 80571","Ubud, Kecamatan Ubud, Kabupaten Gianyar",BALI,80571.0,Indonesia,3619000394.0,,,-8.4766789,115.2713914,https://maps.google.com/?cid=0x0:0xcae5510af022f3ff,
toko bangunan,Toko Bahan Bangunan,UD. SRIGATI,"J8H4+XPQ, Jl. Br Jasan, Sebatu, Kec. Tegallalang, Kabupaten Gianyar, Bali 80561","Jl. Br Jasan, Sebatu, Kec. Tegallalang, Kabupaten Gianyar",BALI,80561.0,Indonesia,361901045.0,,,-8.3700387,115.3068491,https://maps.google.com/?cid=0x0:0x9fdc2ac37f3c9453,
toko bangunan,Toko Bahan Bangunan,Putra candi bali,"J73H+G7R, Jl. Raya Taro, Taro, Kec. Tegallalang, Kabupaten Gianyar, Bali 80561","Jl. Raya Taro, Taro, Kec. Tegallalang, Kabupaten Gianyar",BALI,80561.0,Indonesia,81999750366.0,,,-8.3962405,115.2781157,https://maps.google.com/?cid=0x0:0x8b93392e8e6c4870,
toko bangunan,Toko Bahan Bangunan,Toko Adi Jaya,"G74F+28M, Jl. Raya Andong, Petulu, Kecamatan Ubud, Kabupaten Gianyar, Bali 80571","Jl. Raya Andong, Petulu, Kecamatan Ubud, Kabupaten Gianyar",BALI,80571.0,Indonesia,361975859.0,,,-8.4949235,115.2733088,https://maps.google.com/?cid=0x0:0xf5d96d4148ff835f,
toko bangunan,Toko Bahan Bangunan,UD TARO MAHARDIKA,"Jl. Raya Taro, Taro, Kec. Tegallalang, Kabupaten Gianyar, Bali 80561","Taro, Kec. Tegallalang, Kabupaten Gianyar",BALI,80561.0,Indonesia,81558611709.0,,,-8.3754878,115.2836128,https://maps.google.com/?cid=0x0:0x6e8bcff8b990626d,
toko bangunan,toko bangunan,Ubud,"Ubud, Kecamatan Ubud, Kabupaten Gianyar, Bali","Kabupaten Gianyar, Bali",BALI,,Indonesia,,,,-8.5068536,115.2624778,https://maps.google.com/?cid=0x0:0x54a38afd6b773d1c,
toko bangunan,Toko Bahan Bangunan,Toko Sabar Ubud,"Jl. Cok Gede Rai No.2, Peliatan, Kecamatan Ubud, Kabupaten Gianyar, Bali 80571","Peliatan, Kecamatan Ubud, Kabupaten Gianyar",BALI,80571.0,Indonesia,361978459.0,,,-8.5094227,115.2711527,https://maps.google.com/?cid=0x0:0xaae947b4131deda4,
toko bangunan,Toko Bahan Bangunan,Toko Bangunan Agung Jaya Mandiri,"No Jl. Tirta Tawar No.188, Ubud, Kecamatan Ubud, Kabupaten Gianyar, Bali 80571","Ubud, Kecamatan Ubud, Kabupaten Gianyar",BALI,80571.0,Indonesia,3619000394.0,,,-8.4766789,115.2713914,https://maps.google.com/?cid=0x0:0xcae5510af022f3ff,
toko bangunan,Toko Bahan Bangunan,Toko Adi Jaya,"G74F+28M, Jl. Raya Andong, Petulu, Kecamatan Ubud, Kabupaten Gianyar, Bali 80571","Jl. Raya Andong, Petulu, Kecamatan Ubud, Kabupaten Gianyar",BALI,80571.0,Indonesia,361975859.0,,,-8.4949235,115.2733088,https://maps.google.com/?cid=0x0:0xf5d96d4148ff835f,
toko bangunan,Toko,UD Dupa Bali,"G7GC+H7C, Jl. Suweta, Ubud, Kecamatan Ubud, Kabupaten Gianyar, Bali 80571","Jl. Suweta, Ubud, Kecamatan Ubud, Kabupaten Gianyar",BALI,80571.0,Indonesia,82144993798.0,,,-8.473564,115.2706293,https://maps.google.com/?cid=0x0:0xb52acba965f72749,
toko bangunan,Toko Bahan Bangunan,Cv candi bali,"No Jl. Raya Sayan No.53, Sayan, Kecamatan Ubud, Kabupaten Gianyar, Bali 80571","Sayan, Kecamatan Ubud, Kabupaten Gianyar",BALI,80571.0,Indonesia,87862427163.0,,,-8.5065631,115.2422231,https://maps.google.com/?cid=0x0:0x353fbbc9d3f83b9e,
toko bangunan,Toko Bahan Bangunan,Depo Bangunan Anugrah Dewata,"Jl. Raya Tebongkang, Singakerta, Kecamatan Ubud, Kabupaten Gianyar, Bali 80571","Singakerta, Kecamatan Ubud, Kabupaten Gianyar",BALI,80571.0,Indonesia,,,,-8.5321801,115.2441498,https://maps.google.com/?cid=0x0:0x72ab999e92861840,
toko bangunan,Toko Bahan Bangunan,Toko Urip Sejahtera,"F7W9+4W6, Jl. Jero Gadung, Petulu, Kecamatan Ubud, Kabupaten Gianyar, Bali 80571","Jl. Jero Gadung, Petulu, Kecamatan Ubud, Kabupaten Gianyar",BALI,80571.0,Indonesia,361973383.0,,,-8.5047108,115.2697727,https://maps.google.com/?cid=0x0:0x3e43bf09ccc2d876,
toko bangunan,Toko Bahan Bangunan,TB. Ratna Karya,"Jl. Cok Rai Pudak No.28, Peliatan, Kecamatan Ubud, Kabupaten Gianyar, Bali 80571","Peliatan, Kecamatan Ubud, Kabupaten Gianyar",BALI,80571.0,Indonesia,361976416.0,,,-8.52682,115.2711631,https://maps.google.com/?cid=0x0:0x4e734d7227388ad0,
toko bangunan,Toko Bahan Bangunan,Toko Bangunan Guna Jaya,"Jl. Raya Kengetan No.81, Singakerta, Kecamatan Ubud, Kabupaten Gianyar, Bali 80571","Singakerta, Kecamatan Ubud, Kabupaten Gianyar",BALI,80571.0,Indonesia,361978141.0,,,-8.5421263,115.2478943,https://maps.google.com/?cid=0x0:0x35482eeb4f7b63ac,
toko bangunan,Toko Bahan Bangunan,Toko Bahan Bangunan,"G6CX+957, Jl. Raya Bunutan, Kedewatan, Kecamatan Ubud, Kabupaten Gianyar, Bali 80571","Jl. Raya Bunutan, Kedewatan, Kecamatan Ubud, Kabupaten Gianyar",BALI,80571.0,Indonesia,83869524613.0,,,-8.4790961,115.247931,https://maps.google.com/?cid=0x0:0xd07e11c54ce7d5f9,
toko bangunan,Toko Bahan Bangunan,Ud maha Karya ubud,"Jl. Raya Andong No.123, Petulu, Kecamatan Ubud, Kabupaten Gianyar, Bali 80552","Petulu, Kecamatan Ubud, Kabupaten Gianyar",BALI,80552.0,Indonesia,83869524613.0,,,-8.4903311,115.2748343,https://maps.google.com/?cid=0x0:0xe03ac841c7a41ffc,
toko bangunan,Toko Bahan Bangunan,Toko Bahan Bangunan,"F7F5+293, Jl. Raya Nyuh Kuning, Mas, Kecamatan Ubud, Kabupaten Gianyar, Bali 80571","Jl. Raya Nyuh Kuning, Mas, Kecamatan Ubud, Kabupaten Gianyar",BALI,80571.0,Indonesia,,,,-8.5274987,115.2584183,https://maps.google.com/?cid=0x0:0x606b7cd29811e7a0,
toko bangunan,Toko Bahan Bangunan,Adi Jaya Electrik,"F7M7+GX9, Ubud, Kecamatan Ubud, Kabupaten Gianyar, Bali 80571","Ubud, Kecamatan Ubud, Kabupaten Gianyar",BALI,80571.0,Indonesia,82342409565.0,,,-8.5162035,115.2649696,https://maps.google.com/?cid=0x0:0x7aecc4f49efbcccb,
toko bangunan,Toko Bahan Bangunan,Puri Bali,"Jl. Raya Tebongkang, Singakerta, Kecamatan Ubud, Kabupaten Gianyar, Bali 80571","Singakerta, Kecamatan Ubud, Kabupaten Gianyar",BALI,80571.0,Indonesia,81999022115.0,,,-8.5244272,115.2426008,https://maps.google.com/?cid=0x0:0x49b90560443fb82f,
toko bangunan,Toko Bahan Bangunan,UD sederhana,"G67X+J9H, Jl. Raya Lungsiakan, Kedewatan, Kecamatan Ubud, Kabupaten Gianyar, Bali 80571","Jl. Raya Lungsiakan, Kedewatan, Kecamatan Ubud, Kabupaten Gianyar",BALI,80571.0,Indonesia,361975450.0,,,-8.4859395,115.2484827,https://maps.google.com/?cid=0x0:0xfec5eadc78605d9,
toko bangunan,Toko Bahan Bangunan,Ud Karya Pering,"Jl. Raya Goa Gajah Jl. Raya Teges No.Br, Peliatan, Kecamatan Ubud, Kabupaten Gianyar, Bali 80571","Peliatan, Kecamatan Ubud, Kabupaten Gianyar",BALI,80571.0,Indonesia,85101799988.0,,,-8.5234282,115.2750863,https://maps.google.com/?cid=0x0:0xa2ed0f1ca0004fc7,
toko bangunan,Toko Bahan Bangunan,Kios Eka,"Jl. Suweta, Banjar Bentuyung, Kecamatan Ubud, Kabupaten Gianyar, Bali 80571","Banjar Bentuyung, Kecamatan Ubud, Kabupaten Gianyar",BALI,80571.0,Indonesia,85238526214.0,,,-8.4830714,115.2655661,https://maps.google.com/?cid=0x0:0x3bd116707e6ae1e9,
toko bangunan,Toko Bahan Bangunan,Ud Bale Mandiri,"Jl. Jembawan No.11, Ubud, Kecamatan Ubud, Kabupaten Gianyar, Bali 80571","Ubud, Kecamatan Ubud, Kabupaten Gianyar",BALI,80571.0,Indonesia,81238351915.0,,,-8.5111433,115.2667162,https://maps.google.com/?cid=0x0:0x4d59572ea97a1eaa,
toko bangunan,toko bangunan,Bali 80571,"Kecamatan Ubud, Kabupaten Gianyar, Bali","Kabupaten Gianyar, Bali",BALI,,Indonesia,,,,-8.5164072,115.2481959,https://maps.google.com/?cid=0x0:0x1c00c5eb6016bed0,
toko bangunan,Toko Bahan Bangunan,TB. Remaja Indah 2,"F6JQ+QW8, Jalan Raya, Sayan, Kecamatan Ubud, Kabupaten Gianyar, Bali 80571","Jalan Raya, Sayan, Kecamatan Ubud, Kabupaten Gianyar",BALI,80571.0,Indonesia,8123869623.0,,,-8.5180836,115.2398292,https://maps.google.com/?cid=0x0:0x398114ca35d6a179,
toko bangunan,Toko Bahan Bangunan,Toko Bangunan Senso,"Jl. Ambarawati No.13, Mas, Kecamatan Ubud, Kabupaten Gianyar, Bali 80571","Mas, Kecamatan Ubud, Kabupaten Gianyar",BALI,80571.0,Indonesia,87761007601.0,,,-8.5423491,115.2707707,https://maps.google.com/?cid=0x0:0x80aab0a84f1b35a8,
toko bangunan,Toko Bahan Bangunan,UD.Suji Alam,"F759+854, Jl. Ambarawati, Mas, Kecamatan Ubud, Kabupaten Gianyar, Bali 80571","Jl. Ambarawati, Mas, Kecamatan Ubud, Kabupaten Gianyar",BALI,80571.0,Indonesia,8124673131.0,,,-8.5417409,115.2679651,https://maps.google.com/?cid=0x0:0xdcf7afecd6e86bea,
toko bangunan,Toko Bahan Bangunan,PUTRA SANGGAR,"Jl. A.A. Gede Rai No.155, Lodtunduh, Kecamatan Ubud, Kabupaten Gianyar, Bali 80571","Lodtunduh, Kecamatan Ubud, Kabupaten Gianyar",BALI,80571.0,Indonesia,361974352.0,,,-8.5361247,115.2625211,https://maps.google.com/?cid=0x0:0x2c390543c1637139,
toko bangunan,Toko Bahan Bangunan,Agung Hardware,"Jalan cok gede rai peliatan ubud gianyar 80751, Peliatan, Kecamatan Ubud, Kabupaten Gianyar, Bali 80751","Peliatan, Kecamatan Ubud, Kabupaten Gianyar",BALI,80751.0,Indonesia,85253888998.0,,,-8.520831,115.2682952,https://maps.google.com/?cid=0x0:0x3bde289d17870df9,
