Category,Real Category,Business Name,Address,City,State,Postal Code,Country,Phone,Email,Website,Latitude,Longitude,Map Link,Details Link
mall,mall,Bali 80581,"Kec. Blahbatuh, Kabupaten Gianyar, Bali","Kabupaten Gianyar, Bali",BALI,,Indonesia,,,,-8.5674014,115.3133908,https://maps.google.com/?cid=0x0:0x1c00c5eb6016bef0,
mall,Pasar Malam,PASAR YADNYA BLAHBATUHᬧᬲᬃᬬᬚ᭄ᬜᬩ᭄ᬮᬄᬩᬢᬸᬄ᭟,"Jl. Wisma Gajah Mada No.97, Blahbatuh, Kec. Blahbatuh, Kabupaten Gianyar, Bali 80581","Blahbatuh, Kec. Blahbatuh, Kabupaten Gianyar",BALI,80581.0,Indonesia,,,,-8.5667719,115.2936515,https://maps.google.com/?cid=0x0:0xd0ef299a7cfb8e5f,
mall,mall,Beautyshop.bali_,"C8FC+H87, Jl. Palak Lagi, Keramas, Kec. Blahbatuh, Kabupaten Gianyar, Bali 80581","Jl. Palak Lagi, Keramas, Kec. Blahbatuh, Kabupaten Gianyar",BALI,80581.0,Indonesia,,,,-8.5760957,115.3208058,https://maps.google.com/?cid=0x0:0x2cf2d496aa59827f,
mall,Rumah Makan,warung makan nomanjaya,"C7MV+6H8, Jl. Ps. Yadnya, Blahbatuh, Kec. Blahbatuh, Kabupaten Gianyar, Bali 80581","Jl. Ps. Yadnya, Blahbatuh, Kec. Blahbatuh, Kabupaten Gianyar",BALI,80581.0,Indonesia,,,,-8.5669582,115.2939474,https://maps.google.com/?cid=0x0:0xb125f941a07211a8,
mall,mall,Bali 80511,"Kec. Gianyar, Kabupaten Gianyar, Bali","Kabupaten Gianyar, Bali",BALI,,Indonesia,,,,-8.5386152,115.328206,https://maps.google.com/?cid=0x0:0x3a6ab5e6526148c8,
mall,Pusat Perbelanjaan,BANDUNG COLLECTION GIANYAR,"F87F+H32, Jl. Astina Utara, Gianyar, Kec. Gianyar, Kabupaten Gianyar, Bali 80511","Jl. Astina Utara, Gianyar, Kec. Gianyar, Kabupaten Gianyar",BALI,80511.0,Indonesia,85232309296.0,,,-8.5361246,115.3226537,https://maps.google.com/?cid=0x0:0xeda2c6987aeaac87,
mall,Pasar,Pasar Rakyat Gianyar,"F85G+8QX, Jl. Ngurah Rai-Gianyar, Gianyar, Kec. Gianyar, Kabupaten Gianyar, Bali 80511","Jl. Ngurah Rai-Gianyar, Gianyar, Kec. Gianyar, Kabupaten Gianyar",BALI,80511.0,Indonesia,,,,-8.5416392,115.3269772,https://maps.google.com/?cid=0x0:0x1c950dc6483ac180,
mall,Toko Suvenir,MINISO - Gianyar,"Jl. Ngurah Rai-Gianyar, Gianyar, Kec. Gianyar, Kabupaten Gianyar, Bali 80511","Gianyar, Kec. Gianyar, Kabupaten Gianyar",BALI,80511.0,Indonesia,,,,-8.5412792,115.3264634,https://maps.google.com/?cid=0x0:0x671975b9f7ad7fac,
mall,Toko Pakaian,BLINK COLLECTION KESATRIAN GIANYAR,"F83G+G54, Jl. Kesatrian, Gianyar, Kec. Gianyar, Kabupaten Gianyar, Bali 80511","Jl. Kesatrian, Gianyar, Kec. Gianyar, Kabupaten Gianyar",BALI,80511.0,Indonesia,81237924685.0,,,-8.5462255,115.3254541,https://maps.google.com/?cid=0x0:0x8973bcb62004700c,
mall,Pusat Perbelanjaan,Pasar Umum Gianyar,"Jl. Ngurah Rai-Gianyar No.75, Gianyar, Kec. Gianyar, Kabupaten Gianyar, Bali 80511","Gianyar, Kec. Gianyar, Kabupaten Gianyar",BALI,80511.0,Indonesia,,,,-8.5415664,115.3268882,https://maps.google.com/?cid=0x0:0x401299a6d4801a23,
mall,Toko Pakaian,MBM Factory Outlet,"Jl. By Pass Dharma Giri No.85 Bitera Gianyar Sub-District Gianyar Bali 80511ko, Jl. Dharma Giri No.85, Bitera, Kec. Gianyar, Kabupaten Gianyar, Bali 80515","Jl. Dharma Giri No.85, Bitera, Kec. Gianyar, Kabupaten Gianyar",BALI,80515.0,Indonesia,3618958358.0,,,-8.5425096,115.3143976,https://maps.google.com/?cid=0x0:0x32e7c3ea65801b70,
mall,Toko Aksesori Pakaian,Manjari Collection,"F82G+GVF, Jl. Gambir, Abianbase, Kec. Gianyar, Kabupaten Gianyar, Bali 80515","Jl. Gambir, Abianbase, Kec. Gianyar, Kabupaten Gianyar",BALI,80515.0,Indonesia,81916117102.0,,,-8.548675,115.3271596,https://maps.google.com/?cid=0x0:0x60348a50429a6e4e,
mall,Toko Swalayan,Popits Gianyar,"Jl. Dharma Giri No.99x, Gianyar, Kec. Gianyar, Kabupaten Gianyar, Bali 80581","Gianyar, Kec. Gianyar, Kabupaten Gianyar",BALI,80581.0,Indonesia,85338385397.0,,,-8.5413078,115.3187114,https://maps.google.com/?cid=0x0:0xca6eb098c3b02c0e,
mall,Pembangunan Perumahan,Taman Hardys Mall Gianyar,"F85H+CJ8, Gianyar, Kec. Gianyar, Kabupaten Gianyar, Bali 80511","Gianyar, Kec. Gianyar, Kabupaten Gianyar",BALI,80511.0,Indonesia,,,,-8.5414597,115.3290902,https://maps.google.com/?cid=0x0:0x99ac8590ee965591,
mall,Toko,Agen Summerspring Bali,"Ruang IBS RSU Sanjiwani, Jl. Ciung Wanara-Gianyar No.2, Gianyar, Kec. Gianyar, Kabupaten Gianyar, Bali 80511","Jl. Ciung Wanara-Gianyar No.2, Gianyar, Kec. Gianyar, Kabupaten Gianyar",BALI,80511.0,Indonesia,81338057943.0,,,-8.5372436,115.3224189,https://maps.google.com/?cid=0x0:0x8b01f7362ad5a66c,
mall,Pusat Perbelanjaan,"SENTRA SUKLA SATYAGRAHA,PUSAT EKONOMI UKM BINAAN KOPERASI SUKLA SATYAGRAHA INDONESIA","Jl. Astina Utara No.11, Beng, Kec. Gianyar, Kabupaten Gianyar, Bali 80513","Beng, Kec. Gianyar, Kabupaten Gianyar",BALI,80513.0,Indonesia,,,,-8.5356254,115.3215339,https://maps.google.com/?cid=0x0:0x2b7b2e2cd7b72878,
mall,Pusat Perbelanjaan,BHAYANGKARAMAX,"Jl. Bhayangkara Ⅲ, Gianyar, Kec. Gianyar, Kabupaten Gianyar, Bali 80511","Gianyar, Kec. Gianyar, Kabupaten Gianyar",BALI,80511.0,Indonesia,89686684070.0,,,-8.5372382,115.3244282,https://maps.google.com/?cid=0x0:0xac18e4b0684489cf,
mall,Toko Swalayan,Clandy's Satrian,"Jl. Kesatrian No.5A, Gianyar, Kec. Gianyar, Kabupaten Gianyar, Bali 80511","Gianyar, Kec. Gianyar, Kabupaten Gianyar",BALI,80511.0,Indonesia,88219075771.0,,,-8.5437853,115.3256552,https://maps.google.com/?cid=0x0:0xc17ae818a4ab4c92,
mall,Toko Pakaian dan Peralatan Luar Ruangan,EIGER Adventure Store Gianyar,"Jl. Kesatrian No.35, Gianyar, Kec. Gianyar, Kabupaten Gianyar, Bali 80511","Gianyar, Kec. Gianyar, Kabupaten Gianyar",BALI,80511.0,Indonesia,,,,-8.5472468,115.3257407,https://maps.google.com/?cid=0x0:0xc15ed2a631d8bfc2,
mall,Salon Kuku,nailladent,"F88F+CHV, Beng, Kec. Gianyar, Kabupaten Gianyar, Bali 80513","Beng, Kec. Gianyar, Kabupaten Gianyar",BALI,80513.0,Indonesia,,,,-8.5338979,115.3239135,https://maps.google.com/?cid=0x0:0xaeffb26836739d26,
mall,Pusat Perbelanjaan,UD ITA DEWI,"F86P+3M7, Jl. Gn. Cemara, Samplangan, Kec. Gianyar, Kabupaten Gianyar, Bali 80512","Jl. Gn. Cemara, Samplangan, Kec. Gianyar, Kabupaten Gianyar",BALI,80512.0,Indonesia,89608668480.0,,,-8.5398345,115.3366855,https://maps.google.com/?cid=0x0:0xb9f2d7e5ca2050,
mall,Toko Ikan,DEWA AQUATIC,"F85H+V37, Jl. Ngurah Rai-Gianyar, Gianyar, Kec. Gianyar, Kabupaten Gianyar, Bali 80511","Jl. Ngurah Rai-Gianyar, Gianyar, Kec. Gianyar, Kabupaten Gianyar",BALI,80511.0,Indonesia,89655655999.0,,,-8.5403484,115.3276731,https://maps.google.com/?cid=0x0:0x7276eb2d93c4bb5a,
mall,Pusat Perbelanjaan,NU MART GIANYAR,"C8R7+H2C, Jl. Raya Bona, Bona, Kec. Blahbatuh, Kabupaten Gianyar, Bali 80581","Jl. Raya Bona, Bona, Kec. Blahbatuh, Kabupaten Gianyar",BALI,80581.0,Indonesia,8311429164.0,,,-8.5585569,115.3125017,https://maps.google.com/?cid=0x0:0x799e9d27dfd1ad86,
mall,Toko Ikan,Win goldfish Gianyar,"Jl. Ratna No.66, Tegal Tugu, Kec. Gianyar, Kabupaten Gianyar, Bali 80515","Tegal Tugu, Kec. Gianyar, Kabupaten Gianyar",BALI,80515.0,Indonesia,82237337202.0,,,-8.5525244,115.3352622,https://maps.google.com/?cid=0x0:0xf7c9d709a5e6758f,
mall,Kantor Perusahaan,Mall Pelayanan Publik (MPP) Kabupaten Gianyar,"F833+P8W, Jl. Raya Buruan, Buruan, Kec. Blahbatuh, Kabupaten Gianyar, Bali 80581","Jl. Raya Buruan, Buruan, Kec. Blahbatuh, Kabupaten Gianyar",BALI,80581.0,Indonesia,,,,-8.5456388,115.3033117,https://maps.google.com/?cid=0x0:0x56d0fd4e0864a264,
mall,Toko Pakaian,DESFASHIONSHOP,"Jl. Mulawarman, Abianbase, Kec. Gianyar, Kabupaten Gianyar, Bali 80515","Abianbase, Kec. Gianyar, Kabupaten Gianyar",BALI,80515.0,Indonesia,81918054579.0,,,-8.5580929,115.3269582,https://maps.google.com/?cid=0x0:0x3b6a1a7c46693eee,
mall,Toko Perlengkapan Bayi,Classic Baby Shop,"Jl. Dharma Giri No.18a, Gianyar, Kec. Gianyar, Kabupaten Gianyar, Bali 80511","Gianyar, Kec. Gianyar, Kabupaten Gianyar",BALI,80511.0,Indonesia,361948986.0,,,-8.5409012,115.3198225,https://maps.google.com/?cid=0x0:0x2acebc7fc0e931fa,
mall,mall,Bali 80512,"Samplangan, Kec. Gianyar, Kabupaten Gianyar, Bali","Kabupaten Gianyar, Bali",BALI,,Indonesia,,,,-8.532747,115.3400575,https://maps.google.com/?cid=0x0:0x1c00c5eb6016be70,
mall,Pasar,Pasar Rakyat Gianyar,"F85G+8QX, Jl. Ngurah Rai-Gianyar, Gianyar, Kec. Gianyar, Kabupaten Gianyar, Bali 80511","Jl. Ngurah Rai-Gianyar, Gianyar, Kec. Gianyar, Kabupaten Gianyar",BALI,80511.0,Indonesia,,,,-8.5416392,115.3269772,https://maps.google.com/?cid=0x0:0x1c950dc6483ac180,
mall,Pusat Perbelanjaan,BANDUNG COLLECTION GIANYAR,"F87F+H32, Jl. Astina Utara, Gianyar, Kec. Gianyar, Kabupaten Gianyar, Bali 80511","Jl. Astina Utara, Gianyar, Kec. Gianyar, Kabupaten Gianyar",BALI,80511.0,Indonesia,85232309296.0,,,-8.5361246,115.3226537,https://maps.google.com/?cid=0x0:0xeda2c6987aeaac87,
mall,Toko Suvenir,MINISO - Gianyar,"Jl. Ngurah Rai-Gianyar, Gianyar, Kec. Gianyar, Kabupaten Gianyar, Bali 80511","Gianyar, Kec. Gianyar, Kabupaten Gianyar",BALI,80511.0,Indonesia,,,,-8.5412792,115.3264634,https://maps.google.com/?cid=0x0:0x671975b9f7ad7fac,
mall,Toko Pakaian,Mbm Factory Gianyar,"Jl. Dharma Giri No.8, Gianyar, Kec. Gianyar, Kabupaten Gianyar, Bali 80511","Gianyar, Kec. Gianyar, Kabupaten Gianyar",BALI,80511.0,Indonesia,,,,-8.5409661,115.321225,https://maps.google.com/?cid=0x0:0xebf6a5fad7002f65,
mall,Toko Pakaian,BLINK COLLECTION KESATRIAN GIANYAR,"F83G+G54, Jl. Kesatrian, Gianyar, Kec. Gianyar, Kabupaten Gianyar, Bali 80511","Jl. Kesatrian, Gianyar, Kec. Gianyar, Kabupaten Gianyar",BALI,80511.0,Indonesia,81237924685.0,,,-8.5462255,115.3254541,https://maps.google.com/?cid=0x0:0x8973bcb62004700c,
mall,Pusat Perbelanjaan,Parma Agung Minimarket,"Jl. Astina Timur, Samplangan, Kec. Gianyar, Kabupaten Gianyar, Bali 80512","Samplangan, Kec. Gianyar, Kabupaten Gianyar",BALI,80512.0,Indonesia,81805588350.0,,,-8.5400896,115.346539,https://maps.google.com/?cid=0x0:0xf04cd1c5292d54a1,
mall,Pusat Perbelanjaan,store,"F8JM+G35, Samplangan, Kec. Gianyar, Kabupaten Gianyar, Bali 80512","Samplangan, Kec. Gianyar, Kabupaten Gianyar",BALI,80512.0,Indonesia,89685770750.0,,,-8.518731,115.3327477,https://maps.google.com/?cid=0x0:0x4611876a4587ba23,
mall,Toko Aksesori Pakaian,Manjari Collection,"F82G+GVF, Jl. Gambir, Abianbase, Kec. Gianyar, Kabupaten Gianyar, Bali 80515","Jl. Gambir, Abianbase, Kec. Gianyar, Kabupaten Gianyar",BALI,80515.0,Indonesia,81916117102.0,,,-8.548675,115.3271596,https://maps.google.com/?cid=0x0:0x60348a50429a6e4e,
mall,Pusat Perbelanjaan,Mal Bali Galeria,"Jl. Bypass Ngurah Rai, Kuta, Kec. Kuta, Kabupaten Badung, Bali 80361","Kuta, Kec. Kuta, Kabupaten Badung",BALI,80361.0,Indonesia,361755277.0,,,-8.7232236,115.1843392,https://maps.google.com/?cid=0x0:0x165e0786352e0779,
mall,Toko,trisnashopbali,"F88X+Q7J, banjar sidan kelod, Sidan, Kec. Gianyar, Kabupaten Gianyar, Bali 80515","banjar sidan kelod, Sidan, Kec. Gianyar, Kabupaten Gianyar",BALI,80515.0,Indonesia,81916757103.0,,,-8.5330299,115.3481439,https://maps.google.com/?cid=0x0:0xa4cd3bf7d5cac5c6,
mall,Pusat Perbelanjaan,Warung ni guliang,"Jl. Bukit Batu No.Br, Samplangan, Kec. Gianyar, Kabupaten Gianyar, Bali 80512","Samplangan, Kec. Gianyar, Kabupaten Gianyar",BALI,80512.0,Indonesia,,,,-8.5304665,115.3404831,https://maps.google.com/?cid=0x0:0xc85d2502399b398f,
mall,Toko Ikan,Win goldfish Gianyar,"Jl. Ratna No.66, Tegal Tugu, Kec. Gianyar, Kabupaten Gianyar, Bali 80515","Tegal Tugu, Kec. Gianyar, Kabupaten Gianyar",BALI,80515.0,Indonesia,82237337202.0,,,-8.5525244,115.3352622,https://maps.google.com/?cid=0x0:0xf7c9d709a5e6758f,
mall,Pusat Perbelanjaan,UD ITA DEWI,"F86P+3M7, Jl. Gn. Cemara, Samplangan, Kec. Gianyar, Kabupaten Gianyar, Bali 80512","Jl. Gn. Cemara, Samplangan, Kec. Gianyar, Kabupaten Gianyar",BALI,80512.0,Indonesia,89608668480.0,,,-8.5398345,115.3366855,https://maps.google.com/?cid=0x0:0xb9f2d7e5ca2050,
mall,Pembangunan Perumahan,Taman Hardys Mall Gianyar,"F85H+CJ8, Gianyar, Kec. Gianyar, Kabupaten Gianyar, Bali 80511","Gianyar, Kec. Gianyar, Kabupaten Gianyar",BALI,80511.0,Indonesia,,,,-8.5414597,115.3290902,https://maps.google.com/?cid=0x0:0x99ac8590ee965591,
mall,Pusat Perbelanjaan,Ten ten batan wani samplangan,"F86V+946, Samplangan, Kec. Gianyar, Kabupaten Gianyar, Bali 80512","Samplangan, Kec. Gianyar, Kabupaten Gianyar",BALI,80512.0,Indonesia,81236832469.0,,,-8.5390935,115.3427768,https://maps.google.com/?cid=0x0:0x1700578233f8cef3,
mall,Toko,Toko JANTAN PLASTIK,"Samplangan, Kec. Gianyar, Kabupaten Gianyar, Bali 80512","Kec. Gianyar, Kabupaten Gianyar",BALI,80512.0,Indonesia,85792753404.0,,,-8.5378671,115.3371136,https://maps.google.com/?cid=0x0:0xfd06ca112c9f6b9e,
mall,Pusat Perbelanjaan,Mega Mendung Koi Garden,"F89X+J47, Jl. Bukit Jangkrik, Sidan, Kec. Gianyar, Kabupaten Gianyar, Bali 80515","Jl. Bukit Jangkrik, Sidan, Kec. Gianyar, Kabupaten Gianyar",BALI,80515.0,Indonesia,81339311566.0,,,-8.5309745,115.3477905,https://maps.google.com/?cid=0x0:0x9b967d8c92390285,
mall,Pusat Perbelanjaan,"SENTRA SUKLA SATYAGRAHA,PUSAT EKONOMI UKM BINAAN KOPERASI SUKLA SATYAGRAHA INDONESIA","Jl. Astina Utara No.11, Beng, Kec. Gianyar, Kabupaten Gianyar, Bali 80513","Beng, Kec. Gianyar, Kabupaten Gianyar",BALI,80513.0,Indonesia,,,,-8.5356254,115.3215339,https://maps.google.com/?cid=0x0:0x2b7b2e2cd7b72878,
mall,Salon Kuku,nailladent,"F88F+CHV, Beng, Kec. Gianyar, Kabupaten Gianyar, Bali 80513","Beng, Kec. Gianyar, Kabupaten Gianyar",BALI,80513.0,Indonesia,,,,-8.5338979,115.3239135,https://maps.google.com/?cid=0x0:0xaeffb26836739d26,
mall,Toko Swalayan,Clandy's Satrian,"Jl. Kesatrian No.5A, Gianyar, Kec. Gianyar, Kabupaten Gianyar, Bali 80511","Gianyar, Kec. Gianyar, Kabupaten Gianyar",BALI,80511.0,Indonesia,88219075771.0,,,-8.5437853,115.3256552,https://maps.google.com/?cid=0x0:0xc17ae818a4ab4c92,
mall,Pusat Perbelanjaan,Toko Dody Yadnya,"C8PP+R99, Jl. Raya Pantai Lebih, Serongga, Kec. Gianyar, Kabupaten Gianyar, Bali 80515","Jl. Raya Pantai Lebih, Serongga, Kec. Gianyar, Kabupaten Gianyar",BALI,80515.0,Indonesia,,,,-8.5629186,115.3359683,https://maps.google.com/?cid=0x0:0x4c8742b2e76959d,
mall,Pusat Perbelanjaan,BANDUNG COLLECTION GIANYAR,"F87F+H32, Jl. Astina Utara, Gianyar, Kec. Gianyar, Kabupaten Gianyar, Bali 80511","Jl. Astina Utara, Gianyar, Kec. Gianyar, Kabupaten Gianyar",BALI,80511.0,Indonesia,85232309296.0,,,-8.5361246,115.3226537,https://maps.google.com/?cid=0x0:0xeda2c6987aeaac87,
mall,Toko Pakaian,Mbm Factory Gianyar,"Jl. Dharma Giri No.8, Gianyar, Kec. Gianyar, Kabupaten Gianyar, Bali 80511","Gianyar, Kec. Gianyar, Kabupaten Gianyar",BALI,80511.0,Indonesia,,,,-8.5409661,115.321225,https://maps.google.com/?cid=0x0:0xebf6a5fad7002f65,
mall,mall,Bali 80513,"Kec. Gianyar, Kabupaten Gianyar, Bali","Kabupaten Gianyar, Bali",BALI,,Indonesia,,,,-8.5273675,115.3267245,https://maps.google.com/?cid=0x0:0x726f6b72398c7c97,
mall,Salon Kuku,nailladent,"F88F+CHV, Beng, Kec. Gianyar, Kabupaten Gianyar, Bali 80513","Beng, Kec. Gianyar, Kabupaten Gianyar",BALI,80513.0,Indonesia,,,,-8.5338979,115.3239135,https://maps.google.com/?cid=0x0:0xaeffb26836739d26,
mall,Pusat Perbelanjaan,"SENTRA SUKLA SATYAGRAHA,PUSAT EKONOMI UKM BINAAN KOPERASI SUKLA SATYAGRAHA INDONESIA","Jl. Astina Utara No.11, Beng, Kec. Gianyar, Kabupaten Gianyar, Bali 80513","Beng, Kec. Gianyar, Kabupaten Gianyar",BALI,80513.0,Indonesia,,,,-8.5356254,115.3215339,https://maps.google.com/?cid=0x0:0x2b7b2e2cd7b72878,
mall,Pusat Perbelanjaan,Mal Bali Galeria,"Jl. Bypass Ngurah Rai, Kuta, Kec. Kuta, Kabupaten Badung, Bali 80361","Kuta, Kec. Kuta, Kabupaten Badung",BALI,80361.0,Indonesia,361755277.0,,,-8.7232236,115.1843392,https://maps.google.com/?cid=0x0:0x165e0786352e0779,
mall,Pusat Perbelanjaan,store,"F8JM+G35, Samplangan, Kec. Gianyar, Kabupaten Gianyar, Bali 80512","Samplangan, Kec. Gianyar, Kabupaten Gianyar",BALI,80512.0,Indonesia,89685770750.0,,,-8.518731,115.3327477,https://maps.google.com/?cid=0x0:0x4611876a4587ba23,
mall,Pusat Perbelanjaan,Sabil tempat Gianyar,"F87J+8H4, Gianyar, Kec. Gianyar, Kabupaten Gianyar, Bali","Kabupaten Gianyar, Bali",BALI,,Indonesia,,,,-8.5367338,115.3314406,https://maps.google.com/?cid=0x0:0xa1a059dc6d720bea,
mall,Pusat Perbelanjaan,BHAYANGKARAMAX,"Jl. Bhayangkara Ⅲ, Gianyar, Kec. Gianyar, Kabupaten Gianyar, Bali 80511","Gianyar, Kec. Gianyar, Kabupaten Gianyar",BALI,80511.0,Indonesia,89686684070.0,,,-8.5372382,115.3244282,https://maps.google.com/?cid=0x0:0xac18e4b0684489cf,
mall,Kantor Perusahaan,Mall Pelayanan Publik (MPP) Kabupaten Gianyar,"F833+P8W, Jl. Raya Buruan, Buruan, Kec. Blahbatuh, Kabupaten Gianyar, Bali 80581","Jl. Raya Buruan, Buruan, Kec. Blahbatuh, Kabupaten Gianyar",BALI,80581.0,Indonesia,,,,-8.5456388,115.3033117,https://maps.google.com/?cid=0x0:0x56d0fd4e0864a264,
mall,Toko,Agen Summerspring Bali,"Ruang IBS RSU Sanjiwani, Jl. Ciung Wanara-Gianyar No.2, Gianyar, Kec. Gianyar, Kabupaten Gianyar, Bali 80511","Jl. Ciung Wanara-Gianyar No.2, Gianyar, Kec. Gianyar, Kabupaten Gianyar",BALI,80511.0,Indonesia,81338057943.0,,,-8.5372436,115.3224189,https://maps.google.com/?cid=0x0:0x8b01f7362ad5a66c,
mall,Pusat Perbelanjaan,NU MART GIANYAR,"C8R7+H2C, Jl. Raya Bona, Bona, Kec. Blahbatuh, Kabupaten Gianyar, Bali 80581","Jl. Raya Bona, Bona, Kec. Blahbatuh, Kabupaten Gianyar",BALI,80581.0,Indonesia,8311429164.0,,,-8.5585569,115.3125017,https://maps.google.com/?cid=0x0:0x799e9d27dfd1ad86,
mall,Pusat Perbelanjaan,ICON BALI,"Jl. Danau Tamblingan No.27, Sanur, Denpasar Selatan, Kota Denpasar, Bali 80228","Sanur, Denpasar Selatan, Kota Denpasar",BALI,80228.0,Indonesia,81338352021.0,,,-8.6866497,115.2627903,https://maps.google.com/?cid=0x0:0x129054577eae3c17,
mall,Toko Ikan,Win goldfish Gianyar,"Jl. Ratna No.66, Tegal Tugu, Kec. Gianyar, Kabupaten Gianyar, Bali 80515","Tegal Tugu, Kec. Gianyar, Kabupaten Gianyar",BALI,80515.0,Indonesia,82237337202.0,,,-8.5525244,115.3352622,https://maps.google.com/?cid=0x0:0xf7c9d709a5e6758f,
mall,Pusat Perbelanjaan,UD ITA DEWI,"F86P+3M7, Jl. Gn. Cemara, Samplangan, Kec. Gianyar, Kabupaten Gianyar, Bali 80512","Jl. Gn. Cemara, Samplangan, Kec. Gianyar, Kabupaten Gianyar",BALI,80512.0,Indonesia,89608668480.0,,,-8.5398345,115.3366855,https://maps.google.com/?cid=0x0:0xb9f2d7e5ca2050,
mall,Smart shop,Bonbon rawhoney gianyar,"C9G2+M33, Lebih, Kec. Gianyar, Kabupaten Gianyar, Bali 80515","Lebih, Kec. Gianyar, Kabupaten Gianyar",BALI,80515.0,Indonesia,87862021147.0,,,-8.5733659,115.350173,https://maps.google.com/?cid=0x0:0x697b4592fa032402,
mall,Toko Ikan,DEWA AQUATIC,"F85H+V37, Jl. Ngurah Rai-Gianyar, Gianyar, Kec. Gianyar, Kabupaten Gianyar, Bali 80511","Jl. Ngurah Rai-Gianyar, Gianyar, Kec. Gianyar, Kabupaten Gianyar",BALI,80511.0,Indonesia,89655655999.0,,,-8.5403484,115.3276731,https://maps.google.com/?cid=0x0:0x7276eb2d93c4bb5a,
mall,Pusat Perbelanjaan,Warung DEWAKE,"Jl. Kalantaka No.22, Gianyar, Kec. Gianyar, Kabupaten Gianyar, Bali 80511","Gianyar, Kec. Gianyar, Kabupaten Gianyar",BALI,80511.0,Indonesia,81916769516.0,,,-8.5383303,115.329718,https://maps.google.com/?cid=0x0:0xfe8c479aa480b0d9,
mall,Pusat Perbelanjaan,Rumah nova larvi,"F8JM+G35, Samplangan, Kec. Gianyar, Kabupaten Gianyar, Bali 80512","Samplangan, Kec. Gianyar, Kabupaten Gianyar",BALI,80512.0,Indonesia,,,,-8.518734,115.33251,https://maps.google.com/?cid=0x0:0xd1dacdc03074d1e7,
mall,Toko bahan makanan,gandhishop.gianyar,"Br. Cebaang No.277, Serongga, Kec. Gianyar, Kabupaten Gianyar, Bali 80515","Serongga, Kec. Gianyar, Kabupaten Gianyar",BALI,80515.0,Indonesia,85739297996.0,,,-8.5672681,115.3340324,https://maps.google.com/?cid=0x0:0xb0bacdac30ef3bfb,
mall,Toko Perlengkapan Bayi,Classic Baby Shop,"Jl. Dharma Giri No.18a, Gianyar, Kec. Gianyar, Kabupaten Gianyar, Bali 80511","Gianyar, Kec. Gianyar, Kabupaten Gianyar",BALI,80511.0,Indonesia,361948986.0,,,-8.5409012,115.3198225,https://maps.google.com/?cid=0x0:0x2acebc7fc0e931fa,
mall,Toko Ponsel,Toko Smile Selular  Computer,"Jl. Dharma Giri No.1, Gianyar, Kec. Gianyar, Kabupaten Gianyar, Bali 80511","Gianyar, Kec. Gianyar, Kabupaten Gianyar",BALI,80511.0,Indonesia,81353185959.0,,,-8.5409999,115.3220415,https://maps.google.com/?cid=0x0:0x43fa49f634433421,
mall,Toko Parfum,Toko Parfum CV. INTI WANGI BALI,"Jl. Tukad Melangit Jl. Bukit Jati, Samplangan, Kec. Gianyar, Kabupaten Gianyar, Bali 80512","Samplangan, Kec. Gianyar, Kabupaten Gianyar",BALI,80512.0,Indonesia,8155712102.0,,,-8.5374536,115.334939,https://maps.google.com/?cid=0x0:0xe2621a32c63200ad,
mall,Pusat Perbelanjaan,Warung Bu Yusuf,"F86M+JXR, Jl. Tukad Melangit, Samplangan, Kec. Gianyar, Kabupaten Gianyar, Bali 80512","Jl. Tukad Melangit, Samplangan, Kec. Gianyar, Kabupaten Gianyar",BALI,80512.0,Indonesia,81217637860.0,,,-8.5383835,115.334884,https://maps.google.com/?cid=0x0:0x339afcc2efbcc404,
mall,mall,Bali 80515,"Kec. Gianyar, Kabupaten Gianyar, Bali","Kabupaten Gianyar, Bali",BALI,,Indonesia,,,,-8.5169426,115.3133908,https://maps.google.com/?cid=0x0:0x1c00c5eb6016be90,
mall,Pusat Perbelanjaan,BANDUNG COLLECTION GIANYAR,"F87F+H32, Jl. Astina Utara, Gianyar, Kec. Gianyar, Kabupaten Gianyar, Bali 80511","Jl. Astina Utara, Gianyar, Kec. Gianyar, Kabupaten Gianyar",BALI,80511.0,Indonesia,85232309296.0,,,-8.5361246,115.3226537,https://maps.google.com/?cid=0x0:0xeda2c6987aeaac87,
mall,Toko Pakaian,Mbm Factory Gianyar,"Jl. Dharma Giri No.8, Gianyar, Kec. Gianyar, Kabupaten Gianyar, Bali 80511","Gianyar, Kec. Gianyar, Kabupaten Gianyar",BALI,80511.0,Indonesia,,,,-8.5409661,115.321225,https://maps.google.com/?cid=0x0:0xebf6a5fad7002f65,
mall,Pusat Perbelanjaan,AYUSHOPMURAHGIANYAR,"Jl. Raya Tulikup No.1, Tulikup, Kec. Gianyar, Kabupaten Gianyar, Bali 80515","Tulikup, Kec. Gianyar, Kabupaten Gianyar",BALI,80515.0,Indonesia,87854118393.0,,,-8.543531,115.356998,https://maps.google.com/?cid=0x0:0x9b5a734688a4ddb8,
mall,Toko Pakaian,MBM Factory Outlet,"Jl. By Pass Dharma Giri No.85 Bitera Gianyar Sub-District Gianyar Bali 80511ko, Jl. Dharma Giri No.85, Bitera, Kec. Gianyar, Kabupaten Gianyar, Bali 80515","Jl. Dharma Giri No.85, Bitera, Kec. Gianyar, Kabupaten Gianyar",BALI,80515.0,Indonesia,3618958358.0,,,-8.5425096,115.3143976,https://maps.google.com/?cid=0x0:0x32e7c3ea65801b70,
mall,Toko Pakaian,BLINK COLLECTION KESATRIAN GIANYAR,"F83G+G54, Jl. Kesatrian, Gianyar, Kec. Gianyar, Kabupaten Gianyar, Bali 80511","Jl. Kesatrian, Gianyar, Kec. Gianyar, Kabupaten Gianyar",BALI,80511.0,Indonesia,81237924685.0,,,-8.5462255,115.3254541,https://maps.google.com/?cid=0x0:0x8973bcb62004700c,
mall,Toko Aksesori Pakaian,Manjari Collection,"F82G+GVF, Jl. Gambir, Abianbase, Kec. Gianyar, Kabupaten Gianyar, Bali 80515","Jl. Gambir, Abianbase, Kec. Gianyar, Kabupaten Gianyar",BALI,80515.0,Indonesia,81916117102.0,,,-8.548675,115.3271596,https://maps.google.com/?cid=0x0:0x60348a50429a6e4e,
mall,Pusat Perbelanjaan,Bukit Batu Mart,"F8CQ+3VX, Samplangan, Kec. Gianyar, Kabupaten Gianyar, Bali 80512","Samplangan, Kec. Gianyar, Kabupaten Gianyar",BALI,80512.0,Indonesia,,,,-8.5297749,115.3397237,https://maps.google.com/?cid=0x0:0xbb6d258df1d88877,
mall,Toko,trisnashopbali,"F88X+Q7J, banjar sidan kelod, Sidan, Kec. Gianyar, Kabupaten Gianyar, Bali 80515","banjar sidan kelod, Sidan, Kec. Gianyar, Kabupaten Gianyar",BALI,80515.0,Indonesia,81916757103.0,,,-8.5330299,115.3481439,https://maps.google.com/?cid=0x0:0xa4cd3bf7d5cac5c6,
mall,Toko Ikan,Win goldfish Gianyar,"Jl. Ratna No.66, Tegal Tugu, Kec. Gianyar, Kabupaten Gianyar, Bali 80515","Tegal Tugu, Kec. Gianyar, Kabupaten Gianyar",BALI,80515.0,Indonesia,82237337202.0,,,-8.5525244,115.3352622,https://maps.google.com/?cid=0x0:0xf7c9d709a5e6758f,
mall,Toko Swalayan,Popits Gianyar,"Jl. Dharma Giri No.99x, Gianyar, Kec. Gianyar, Kabupaten Gianyar, Bali 80581","Gianyar, Kec. Gianyar, Kabupaten Gianyar",BALI,80581.0,Indonesia,85338385397.0,,,-8.5413078,115.3187114,https://maps.google.com/?cid=0x0:0xca6eb098c3b02c0e,
mall,Minimarket,INDIGROSIR GIANYAR,"Jl. Raya Tulikup, Tulikup, Kec. Gianyar, Kabupaten Gianyar, Bali 80515","Tulikup, Kec. Gianyar, Kabupaten Gianyar",BALI,80515.0,Indonesia,82144994000.0,,,-8.5431381,115.3554387,https://maps.google.com/?cid=0x0:0xbfe087bb9d5f1254,
mall,Pusat Perbelanjaan,Ayustore,"F944+JM4, Tulikup, Kec. Gianyar, Kabupaten Gianyar, Bali 80515","Tulikup, Kec. Gianyar, Kabupaten Gianyar",BALI,80515.0,Indonesia,85156627939.0,,,-8.54351,115.356723,https://maps.google.com/?cid=0x0:0x31b1be496ed7eb05,
mall,Pusat Perbelanjaan,NU MART GIANYAR,"C8R7+H2C, Jl. Raya Bona, Bona, Kec. Blahbatuh, Kabupaten Gianyar, Bali 80581","Jl. Raya Bona, Bona, Kec. Blahbatuh, Kabupaten Gianyar",BALI,80581.0,Indonesia,8311429164.0,,,-8.5585569,115.3125017,https://maps.google.com/?cid=0x0:0x799e9d27dfd1ad86,
mall,Smart shop,Bonbon rawhoney gianyar,"C9G2+M33, Lebih, Kec. Gianyar, Kabupaten Gianyar, Bali 80515","Lebih, Kec. Gianyar, Kabupaten Gianyar",BALI,80515.0,Indonesia,87862021147.0,,,-8.5733659,115.350173,https://maps.google.com/?cid=0x0:0x697b4592fa032402,
mall,Toko Pakaian,DESFASHIONSHOP,"Jl. Mulawarman, Abianbase, Kec. Gianyar, Kabupaten Gianyar, Bali 80515","Abianbase, Kec. Gianyar, Kabupaten Gianyar",BALI,80515.0,Indonesia,81918054579.0,,,-8.5580929,115.3269582,https://maps.google.com/?cid=0x0:0x3b6a1a7c46693eee,
mall,Pusat Perbelanjaan,Mangku pasek,"C8PP+W57, Serongga, Kec. Gianyar, Kabupaten Gianyar, Bali 80515","Serongga, Kec. Gianyar, Kabupaten Gianyar",BALI,80515.0,Indonesia,87861877768.0,,,-8.5627027,115.3354274,https://maps.google.com/?cid=0x0:0xcdebd776242266d2,
mall,Pusat Perbelanjaan,"SENTRA SUKLA SATYAGRAHA,PUSAT EKONOMI UKM BINAAN KOPERASI SUKLA SATYAGRAHA INDONESIA","Jl. Astina Utara No.11, Beng, Kec. Gianyar, Kabupaten Gianyar, Bali 80513","Beng, Kec. Gianyar, Kabupaten Gianyar",BALI,80513.0,Indonesia,,,,-8.5356254,115.3215339,https://maps.google.com/?cid=0x0:0x2b7b2e2cd7b72878,
mall,mall,Baru Muncul,"G8P5+GPM, Jl. Sumita, Sumita, Kec. Gianyar, Kabupaten Gianyar, Bali 80515","Jl. Sumita, Sumita, Kec. Gianyar, Kabupaten Gianyar",BALI,80515.0,Indonesia,,,,-8.4682479,115.3085785,https://maps.google.com/?cid=0x0:0xa9f118ea6893a824,
mall,Salon Kecantikan,KUSUMA COSMETICS,"Jl. Mulawarman Perumahan Permata Abianbase, Abianbase, Kec. Gianyar, Kabupaten Gianyar, Bali 80515","Abianbase, Kec. Gianyar, Kabupaten Gianyar",BALI,80515.0,Indonesia,81338311829.0,,,-8.5548533,115.3270043,https://maps.google.com/?cid=0x0:0xd567c137b6933ef8,
mall,Pusat Perbelanjaan,Wr Raiwira,"G8J5+VCQ, Sumita, Kec. Gianyar, Kabupaten Gianyar, Bali 80515","Sumita, Kec. Gianyar, Kabupaten Gianyar",BALI,80515.0,Indonesia,87862205508.0,,,-8.4677986,115.308605,https://maps.google.com/?cid=0x0:0xea0592d0dbbf9ec7,
mall,Pusat Perbelanjaan,Jaya sri koi gianyar,"F9F4+R6G, Sidan, Kec. Gianyar, Kabupaten Gianyar, Bali 80515","Sidan, Kec. Gianyar, Kabupaten Gianyar",BALI,80515.0,Indonesia,89687360031.0,,,-8.5254251,115.3556152,https://maps.google.com/?cid=0x0:0xd2ed8a286143ec0e,
mall,Toko umum,Gianyar,"F8PH+V6M, Bakbakan, Kec. Gianyar, Kabupaten Gianyar, Bali 80515","Bakbakan, Kec. Gianyar, Kabupaten Gianyar",BALI,80515.0,Indonesia,81916254770.0,,,-8.5127855,115.3280604,https://maps.google.com/?cid=0x0:0x592e161be6e2605e,
mall,mall,Bali 80572,"Kec. Payangan, Kabupaten Gianyar, Bali","Kabupaten Gianyar, Bali",BALI,,Indonesia,,,,-8.3752579,115.2481959,https://maps.google.com/?cid=0x0:0x1c00c5eb6016bee0,
mall,Pasar,Pasar Payangan,"Unnamed Road, Melinggih, Kec. Payangan, Kabupaten Gianyar, Bali 80572","Melinggih, Kec. Payangan, Kabupaten Gianyar",BALI,80572.0,Indonesia,,,,-8.4329974,115.2449569,https://maps.google.com/?cid=0x0:0xab35b1a2ba67836,
mall,Pusat Perbelanjaan,Nata Mart,"H6WW+6J3, Jl. Raya, Puhu, Kec. Payangan, Kabupaten Gianyar, Bali 80572","Jl. Raya, Puhu, Kec. Payangan, Kabupaten Gianyar",BALI,80572.0,Indonesia,81236160352.0,,,-8.4044853,115.2465498,https://maps.google.com/?cid=0x0:0x4e711b353f8131b0,
mall,Pusat Perbelanjaan,PANDE TANGKUP.,"H7C2+GXV, Bukian, Kec. Payangan, Kabupaten Gianyar, Bali 80572","Bukian, Kec. Payangan, Kabupaten Gianyar",BALI,80572.0,Indonesia,,,,-8.4286338,115.2524313,https://maps.google.com/?cid=0x0:0xf5751284e10467ca,
mall,Pusat Perbelanjaan,Berkah Alam Mart,"J79C+MP7, Jalan Raya, Puhu, Payangan, Gianyar Regency, Bali 80572","Jalan Raya, Puhu, Payangan, Gianyar Regency",BALI,80572.0,Indonesia,85737952560.0,,,-8.3808284,115.271792,https://maps.google.com/?cid=0x0:0xab46afd861115ed7,
mall,Toko bahan makanan,POM MIGO KAORI NATA MART,"H6WW+5JV, Jl. Raya, Puhu, Kec. Payangan, Kabupaten Gianyar, Bali 80572","Jl. Raya, Puhu, Kec. Payangan, Kabupaten Gianyar",BALI,80572.0,Indonesia,85217171825.0,,,-8.4045131,115.2465519,https://maps.google.com/?cid=0x0:0xa4828dded8a8d62a,
mall,Pusat Pameran dan Perdagangan,AYU MAS,"H7G6+32F, Br, Bresela, Kec. Payangan, Kabupaten Gianyar, Bali 80572","Br, Bresela, Kec. Payangan, Kabupaten Gianyar",BALI,80572.0,Indonesia,87761261052.0,,,-8.4248244,115.2600506,https://maps.google.com/?cid=0x0:0x5b9a15bbb76a0937,
mall,Komplek perumahan,Kelompok Tani Jati Mulya,"M76V+PFJ, Kerta, Kec. Payangan, Kabupaten Gianyar, Bali 80572","Kerta, Kec. Payangan, Kabupaten Gianyar",BALI,80572.0,Indonesia,87854994383.0,,,-8.3381568,115.2936414,https://maps.google.com/?cid=0x0:0x1fa8ddc3a1e1acba,
mall,Pusat Perbelanjaan,DIV SARI,"H6MV+4WF, Jln raya, giri Kusuma, Kec. Payangan, Kabupaten Gianyar, Bali 80572","Jln raya, giri Kusuma, Kec. Payangan, Kabupaten Gianyar",BALI,80572.0,Indonesia,81353787174.0,,,-8.4171864,115.2448041,https://maps.google.com/?cid=0x0:0xfcd50dbbff7da5fd,
mall,Pusat Perbelanjaan,Brelele,"H789+7CH, Jl. Raya Bresela, Bresela, Kec. Payangan, Kabupaten Gianyar, Bali 80572","Jl. Raya Bresela, Bresela, Kec. Payangan, Kabupaten Gianyar",BALI,80572.0,Indonesia,,,,-8.434406,115.267832,https://maps.google.com/?cid=0x0:0x70c313a93b8afd5c,
mall,Pusat Perbelanjaan,Dheol Shop,"H67W+R9G, Melinggih, Kec. Payangan, Kabupaten Gianyar, Bali 80572","Melinggih, Kec. Payangan, Kabupaten Gianyar",BALI,80572.0,Indonesia,87743184757.0,,,-8.4354257,115.2459624,https://maps.google.com/?cid=0x0:0xcb26737956df7674,
mall,Pusat Perbelanjaan,Warung yanik,"J7R2+JW8, Unnamed Road, Buahan Kaja, Kec. Payangan, Kabupaten Gianyar, Bali 80572","Unnamed Road, Buahan Kaja, Kec. Payangan, Kabupaten Gianyar",BALI,80572.0,Indonesia,,,,-8.3584564,115.2523245,https://maps.google.com/?cid=0x0:0x564397c4c024f2c6,
mall,Toko Ponsel,Wr Bu mega  Mega Cell,"Jl. Raya Payangan, Kerta, Kec. Payangan, Kabupaten Gianyar, Bali 80572","Kerta, Kec. Payangan, Kabupaten Gianyar",BALI,80572.0,Indonesia,,,,-8.3519529,115.2775569,https://maps.google.com/?cid=0x0:0x28c506249246a5ef,
mall,Minimarket,SPO Oriflame 1757 Ni Made Srikanti,"G6XV+R28, Jl. Raya Payangan, Banjar Bayad, Melinggih Klod, Payangan, Payangan, Melinggih Kelod, Kec. Payangan, Kabupaten Gianyar, Bali 80572","Jl. Raya Payangan, Banjar Bayad, Melinggih Klod, Payangan, Payangan, Melinggih Kelod, Kec. Payangan, Kabupaten Gianyar",BALI,80572.0,Indonesia,83114745544.0,,,-8.4504653,115.2425662,https://maps.google.com/?cid=0x0:0xd9e1534e2a8d442d,
mall,Layanan Transportasi,Bali Vacation Transport,"Jl. Panca Rahayu No.mor 18, Melinggih Kelod, Kec. Payangan, Kabupaten Gianyar, Bali 80572","Melinggih Kelod, Kec. Payangan, Kabupaten Gianyar",BALI,80572.0,Indonesia,81339703289.0,,,-8.4426914,115.240368,https://maps.google.com/?cid=0x0:0x1d32a32daf92597,
mall,Toko,Manik Mas Telur,"H7HC+WXG, Bresela, Kec. Payangan, Kabupaten Gianyar, Bali 80572","Bresela, Kec. Payangan, Kabupaten Gianyar",BALI,80572.0,Indonesia,85792805323.0,,,-8.4201813,115.2724679,https://maps.google.com/?cid=0x0:0x7d0e552319e06ddc,
mall,Pusat Perbelanjaan,UD ADE MAKMUR,"H7V4+JRQ, Jalan, Bukian, Payangan, Gianyar Regency, Bali 80572","Jalan, Bukian, Payangan, Gianyar Regency",BALI,80572.0,Indonesia,85737385588.0,,,-8.405905,115.257113,https://maps.google.com/?cid=0x0:0x8ef36030ef0038f8,
mall,Toko Peralatan Pesta Pernikahan,Gayor  Dekorasi,"H7X8+2H8, Unnamed Road, Bukian, Kec. Payangan, Kabupaten Gianyar, Bali 80572","Unnamed Road, Bukian, Kec. Payangan, Kabupaten Gianyar",BALI,80572.0,Indonesia,85847642172.0,,,-8.4024606,115.2664445,https://maps.google.com/?cid=0x0:0xe9f1ac2bddd3b6e4,
mall,Pusat Perbelanjaan,Warung Yuli,"H7Q5+X39, Banjar Lebah A, Bukian, Kec. Payangan, Kabupaten Gianyar, Bali 80572","Banjar Lebah A, Bukian, Kec. Payangan, Kabupaten Gianyar",BALI,80572.0,Indonesia,85847478506.0,,,-8.4100939,115.257723,https://maps.google.com/?cid=0x0:0x227b282e95ad9362,
mall,Toko,Wr Nyoman,"H746+XFX, Jl. Raya Kelusa, Kelusa, Kec. Payangan, Kabupaten Gianyar, Bali 80561","Jl. Raya Kelusa, Kelusa, Kec. Payangan, Kabupaten Gianyar",BALI,80561.0,Indonesia,81338172886.0,,,-8.4425092,115.261236,https://maps.google.com/?cid=0x0:0x923c6801da6ef49d,
mall,Toko Peralatan dan Bahan Kue,Olive Bakery Semaon,"Jl. Raya Pondokan Semaon, Puhu, Kec. Payangan, Kabupaten Gianyar, Bali 80572","Puhu, Kec. Payangan, Kabupaten Gianyar",BALI,80572.0,Indonesia,,,,-8.4052571,115.249339,https://maps.google.com/?cid=0x0:0xe388a86c6f69b2a9,
mall,Pusat Perbelanjaan,gus'e,"M7HM+GXF, Unnamed Road, Kerta, Kec. Payangan, Kabupaten Gianyar, Bali 80572","Unnamed Road, Kerta, Kec. Payangan, Kabupaten Gianyar",BALI,80572.0,Indonesia,83114353283.0,,,-8.3211829,115.2849362,https://maps.google.com/?cid=0x0:0xfd0b9ce4f580949e,
mall,Toko bahan makanan,AM MART PAYANGAN,"H6HW+G26, Jalan Raya, Melinggih, Payangan, Gianyar Regency, Bali 80572","Jalan Raya, Melinggih, Payangan, Gianyar Regency",BALI,80572.0,Indonesia,,,,-8.4212086,115.2450093,https://maps.google.com/?cid=0x0:0x3ae1b911fd947e70,
mall,mall,Sukawati,"Guwang, Kec. Sukawati, Kabupaten Gianyar, Bali","Kabupaten Gianyar, Bali",BALI,,Indonesia,,,,-8.605564,115.280502,https://maps.google.com/?cid=0x0:0x3d33c5a58391e773,
mall,Pasar,Pasar Seni Guwang,"Jl. Dasarata, Guwang, Kec. Sukawati, Kabupaten Gianyar, Bali 80582","Guwang, Kec. Sukawati, Kabupaten Gianyar",BALI,80582.0,Indonesia,,,,-8.6046614,115.2803416,https://maps.google.com/?cid=0x0:0xafbf00022a3033a9,
mall,Pasar tradisional,pasar sukawati baru,"Jl. Pantai Purnama No.49x, Br. Gelumpang, Kec. Sukawati, Kabupaten Gianyar, Bali 80582","Br. Gelumpang, Kec. Sukawati, Kabupaten Gianyar",BALI,80582.0,Indonesia,,,,-8.602575,115.2994567,https://maps.google.com/?cid=0x0:0x6c8150d49efd9e,
mall,Pasar tradisional,Pasar Seni Sukawati (Sukawati Art Market),"Jalan Raya Sukawati, Sukawati, Kec. Sukawati, Kabupaten Gianyar, Bali 80582","Sukawati, Kec. Sukawati, Kabupaten Gianyar",BALI,80582.0,Indonesia,,,,-8.5965307,115.2826055,https://maps.google.com/?cid=0x0:0x960eaffe9f543e3c,
mall,Pusat Perbelanjaan,Pasar relokasi sukawati,"97WX+WCV, Jl. Pantai Purnama, Sukawati, Kec. Sukawati, Kabupaten Gianyar, Bali","Kabupaten Gianyar, Bali",BALI,,Indonesia,,,,-8.6026342,115.2985582,https://maps.google.com/?cid=0x0:0x9280e4a14fd32405,
mall,Pasar,Pasar Seni Sukowati,"Jl. Raya Sukawati No.22X, Batuan, Kec. Sukawati, Kabupaten Gianyar, Bali 80582","Batuan, Kec. Sukawati, Kabupaten Gianyar",BALI,80582.0,Indonesia,,,,-8.5888654,115.2823574,https://maps.google.com/?cid=0x0:0xa2c7429a7b3b2399,
mall,,Raya Bali,"97WW+WQV, Sukawati, Kec. Sukawati, Kabupaten Gianyar, Bali 80581","Sukawati, Kec. Sukawati, Kabupaten Gianyar",BALI,80581.0,Indonesia,85737774055.0,,,-8.6026494,115.2969266,https://maps.google.com/?cid=0x0:0x2635915884963fc3,
mall,Pasar tradisional,Pasar sukawati,"Jl. Raya Sukawati No.88, Sukawati, Kec. Sukawati, Kabupaten Gianyar, Bali 80582","Sukawati, Kec. Sukawati, Kabupaten Gianyar",BALI,80582.0,Indonesia,,,,-8.5987209,115.2827933,https://maps.google.com/?cid=0x0:0x2cd2daefacfa02bd,
mall,Pasar,Pasar Seni Bali,"Pasar Seni Pagi Grosir, JL. Letnan satu Wayan Sutha I, No. 100x - 101x, Gianyar, Sukawati, Kec. Sukawati, Kabupaten Gianyar, Bali 80582","JL. Letnan satu Wayan Sutha I, No. 100x - 101x, Gianyar, Sukawati, Kec. Sukawati, Kabupaten Gianyar",BALI,80582.0,Indonesia,3618710976.0,,,-8.5963068,115.281346,https://maps.google.com/?cid=0x0:0xc1dd9b0d29ec419e,
mall,Toko bahan makanan,Pasar Umum Sukawati,"Jl. Raya Sukawati No.75X, Sukawati, Kec. Sukawati, Kabupaten Gianyar, Bali 80582","Sukawati, Kec. Sukawati, Kabupaten Gianyar",BALI,80582.0,Indonesia,,,,-8.5961357,115.2834171,https://maps.google.com/?cid=0x0:0xc4c7ab14f436a7fb,
mall,Pusat Perbelanjaan,Whatever shop sukawati,"C74H+V7F, Jl. Merpati, Sukawati, Kec. Sukawati, Kabupaten Gianyar, Bali 80582","Jl. Merpati, Sukawati, Kec. Sukawati, Kabupaten Gianyar",BALI,80582.0,Indonesia,81338265063.0,,,-8.5928011,115.278185,https://maps.google.com/?cid=0x0:0x513aa9b0087a4d34,
mall,mall,Pasar Seni Sukawati 2,"97WH+QQ7, Jl. Dasarata, Guwang, Kec. Sukawati, Kabupaten Gianyar, Bali 80582","Jl. Dasarata, Guwang, Kec. Sukawati, Kabupaten Gianyar",BALI,80582.0,Indonesia,,,,-8.6030834,115.2794102,https://maps.google.com/?cid=0x0:0x1561bd8b585d739e,
mall,mall,Putri Bali,"C73J+GM2, Jalan Raya, Sukawati, Gianyar Regency, Bali 80582","Jalan Raya, Sukawati, Gianyar Regency",BALI,80582.0,Indonesia,81916132849.0,,,-8.5962401,115.2816464,https://maps.google.com/?cid=0x0:0xa59b9b7829229e63,
mall,mall,Wr.okaa,"Jl. Raya Sukawati No.2, Sukawati, Kec. Sukawati, Kabupaten Gianyar, Bali 80582","Sukawati, Kec. Sukawati, Kabupaten Gianyar",BALI,80582.0,Indonesia,85739328499.0,,,-8.6017219,115.2835,https://maps.google.com/?cid=0x0:0xc51051463d599787,
mall,mall,Gudang Pasir Tampaksiring,"G7QX+PPV, Jl. Pejeng Kaja - Tampak Siring, Sanding, Kec. Tampaksiring, Kabupaten Gianyar, Bali 80552","Jl. Pejeng Kaja - Tampak Siring, Sanding, Kec. Tampaksiring, Kabupaten Gianyar",BALI,80552.0,Indonesia,,,,-8.4606484,115.299287,https://maps.google.com/?cid=0x0:0x35b02ff1150ab675,
mall,Artistic handicrafts,Balicocolamp,"H8G4+3WF, Jl. Arjuna, Tampaksiring, Kec. Tampaksiring, Kabupaten Gianyar, Bali 80552","Jl. Arjuna, Tampaksiring, Kec. Tampaksiring, Kabupaten Gianyar",BALI,80552.0,Indonesia,,,,-8.4248051,115.3073124,https://maps.google.com/?cid=0x0:0xb8550f17e7291d7c,
mall,Pusat Perbelanjaan,Booraashop Tampaksiring,"H884+WW6, Jl. Dr. Ir. Soekarno, Tampaksiring, Kec. Tampaksiring, Kabupaten Gianyar, Bali 80552","Jl. Dr. Ir. Soekarno, Tampaksiring, Kec. Tampaksiring, Kabupaten Gianyar",BALI,80552.0,Indonesia,8316640884.0,,,-8.4327198,115.307271,https://maps.google.com/?cid=0x0:0x7734b2600d7d31d3,
mall,mall,Tampaksiring,"Kec. Tampaksiring, Kabupaten Gianyar, Bali","Kabupaten Gianyar, Bali",BALI,,Indonesia,,,,-8.4390082,115.3104277,https://maps.google.com/?cid=0x0:0x1800e8dbac4d3f48,
mall,Toko Suvenir,Balisubamihandicraft,"H8V5+3MP, tatag Road, Manukaya, Kec. Tampaksiring, Kabupaten Gianyar, Bali 80552","tatag Road, Manukaya, Kec. Tampaksiring, Kabupaten Gianyar",BALI,80552.0,Indonesia,83119947556.0,,,-8.4072979,115.3091883,https://maps.google.com/?cid=0x0:0xbe53a4f8de26a359,
mall,Pusat Perbelanjaan,Suksema Bali,"Jl. Dr. Ir. Soekarno, Tampaksiring, Kec. Tampaksiring, Kabupaten Gianyar, Bali 80552","Tampaksiring, Kec. Tampaksiring, Kabupaten Gianyar",BALI,80552.0,Indonesia,81239547570.0,,,-8.4189463,115.3090166,https://maps.google.com/?cid=0x0:0x57a7eb5a6e55820a,
mall,Pusat Perbelanjaan,Vera MarheniOlshop,"G7RW+8WR, Sanding, Kec. Tampaksiring, Kabupaten Gianyar, Bali 80552","Sanding, Kec. Tampaksiring, Kabupaten Gianyar",BALI,80552.0,Indonesia,81237841279.0,,,-8.4591472,115.2972811,https://maps.google.com/?cid=0x0:0xb41663a8ef0cedd1,
mall,Toko Elektronik,Bali Vape On,"Jl. Dr. Ir. Soekarno No.18, Tampaksiring, Kec. Tampaksiring, Kabupaten Gianyar, Bali 80552","Tampaksiring, Kec. Tampaksiring, Kabupaten Gianyar",BALI,80552.0,Indonesia,81212005686.0,,,-8.4223978,115.308694,https://maps.google.com/?cid=0x0:0x32ad47e9f2660e4e,
mall,Pusat Perbelanjaan,Warung Wija Ratus,"Jl. Basangambu, Manukaya, Kec. Tampaksiring, Kabupaten Gianyar, Bali 80552","Manukaya, Kec. Tampaksiring, Kabupaten Gianyar",BALI,80552.0,Indonesia,81338427380.0,,,-8.4158955,115.3187884,https://maps.google.com/?cid=0x0:0xe133bca7b2fb6f9b,
mall,Toko,Toko Dokidhu,"H8R6+XJ5, Jl. Melati, Manukaya, Kec. Tampaksiring, Kabupaten Gianyar, Bali 80552","Jl. Melati, Manukaya, Kec. Tampaksiring, Kabupaten Gianyar",BALI,80552.0,Indonesia,85238006590.0,,,-8.4076023,115.3116233,https://maps.google.com/?cid=0x0:0xc1f725f1d7a36b5f,
mall,Pusat Perbelanjaan,Dauh puseh,"Jalan Manik, Tawang, Manukaya, Tampaksiring, Gianyar Regency, Bali 80552","Tawang, Manukaya, Tampaksiring, Gianyar Regency",BALI,80552.0,Indonesia,87752530859.0,,,-8.4203185,115.3209915,https://maps.google.com/?cid=0x0:0x567bb3259a8a004,
mall,Pusat Perbelanjaan,Warung duracell,"H8R6+2J4, Manukaya, Kec. Tampaksiring, Kabupaten Gianyar, Bali 80552","Manukaya, Kec. Tampaksiring, Kabupaten Gianyar",BALI,80552.0,Indonesia,,,,-8.4099827,115.3115914,https://maps.google.com/?cid=0x0:0xca15eee082467d63,
mall,Pusat Perbelanjaan,Warung Lauk Nengah,"G8P3+924, Sanding, Kec. Tampaksiring, Kabupaten Gianyar, Bali 80552","Sanding, Kec. Tampaksiring, Kabupaten Gianyar",BALI,80552.0,Indonesia,83119398019.0,,,-8.4641168,115.3025761,https://maps.google.com/?cid=0x0:0xd02086b9ed8a7256,
mall,Toko Ponsel,LAIZZ PHONE CELL,"Sanding, Kec. Tampaksiring, Kabupaten Gianyar, Bali 80552","Kec. Tampaksiring, Kabupaten Gianyar",BALI,80552.0,Indonesia,,,,-8.4643664,115.296817,https://maps.google.com/?cid=0x0:0x58e7382f3f163fd4,
mall,Pusat Perbelanjaan,BEE HANEY,"H8R7+WQ3, Unnamed Road, Manukaya, Kec. Tampaksiring, Kabupaten Gianyar, Bali 80552","Unnamed Road, Manukaya, Kec. Tampaksiring, Kabupaten Gianyar",BALI,80552.0,Indonesia,81936028792.0,,,-8.4077433,115.3144326,https://maps.google.com/?cid=0x0:0x43971493d3aeeacb,
mall,Pusat Perbelanjaan,Kubu inguh mepindekan,"H8Q6+QWV, Manukaya, Kec. Tampaksiring, Kabupaten Gianyar, Bali 80552","Manukaya, Kec. Tampaksiring, Kabupaten Gianyar",BALI,80552.0,Indonesia,87843808085.0,,,-8.4105213,115.3122817,https://maps.google.com/?cid=0x0:0xf0b1242382d6fdaf,
mall,Toko umum,Pondok Aris,"G7RX+F66 Br Padang Sigi, Sanding, Kec. Tampaksiring, Kabupaten Gianyar, Bali 80552","Sanding, Kec. Tampaksiring, Kabupaten Gianyar",BALI,80552.0,Indonesia,83114611848.0,,,-8.4588391,115.2980137,https://maps.google.com/?cid=0x0:0x16650fe2b0445754,
mall,Pusat Perbelanjaan,GusAji Ardana Burung Kuwalitas Tinggi,"Jl. Yudistira No.184, Tampaksiring, Kec. Tampaksiring, Kabupaten Gianyar, Bali 80552","Tampaksiring, Kec. Tampaksiring, Kabupaten Gianyar",BALI,80552.0,Indonesia,81916332207.0,,,-8.4270355,115.3095808,https://maps.google.com/?cid=0x0:0x8d9ed0dd0aa84b6,
mall,Artistic handicrafts,Bali Buffalo,"Jl. Yudistira No.184, Banjar Geriya, Kec. Tampaksiring, Kabupaten Gianyar, Bali 80552","Banjar Geriya, Kec. Tampaksiring, Kabupaten Gianyar",BALI,80552.0,Indonesia,83119521474.0,,,-8.4271128,115.3095285,https://maps.google.com/?cid=0x0:0xfad7709a1ca94125,
mall,Pusat Perbelanjaan,Gunarsa,"Jl. Pejeng Kaja - Tampak Siring No.549, Tampaksiring, Kec. Tampaksiring, Kabupaten Gianyar, Bali 80552","Tampaksiring, Kec. Tampaksiring, Kabupaten Gianyar",BALI,80552.0,Indonesia,81999595999.0,,,-8.4325016,115.3071573,https://maps.google.com/?cid=0x0:0xea247d31b42ec2c9,
mall,Pusat Perbelanjaan,Pondok Buik Manukaya,"H8W8+VQ6, Manukaya, Kec. Tampaksiring, Kabupaten Gianyar, Bali 80552","Manukaya, Kec. Tampaksiring, Kabupaten Gianyar",BALI,80552.0,Indonesia,87862423449.0,,,-8.4028433,115.31689,https://maps.google.com/?cid=0x0:0x804be764bb6a0b94,
mall,Pusat Perbelanjaan,Widya home store,"G874+PJX, Br, Jl. Cemadik, Pejeng Kangin, Kec. Tampaksiring, Kabupaten Gianyar, Bali 80552","Br, Jl. Cemadik, Pejeng Kangin, Kec. Tampaksiring, Kabupaten Gianyar",BALI,80552.0,Indonesia,81238702495.0,,,-8.485631,115.3066075,https://maps.google.com/?cid=0x0:0xe5a02d7335a89ece,
mall,mall,Bali 80552,"Kec. Tampaksiring, Kabupaten Gianyar, Bali","Kabupaten Gianyar, Bali",BALI,,Indonesia,,,,-8.4362857,115.3133908,https://maps.google.com/?cid=0x0:0x1c00c5eb6016beb0,
mall,Pusat Perbelanjaan,Nine store,"J88P+C52, Jl. Tampaksiring, Manukaya, Kec. Tampaksiring, Kabupaten Gianyar, Bali 80661","Jl. Tampaksiring, Manukaya, Kec. Tampaksiring, Kabupaten Gianyar",BALI,80661.0,Indonesia,83114684833.0,,,-8.3839924,115.3353858,https://maps.google.com/?cid=0x0:0x1593740a57d527dc,
mall,Pusat Perbelanjaan,Ayudya jamur,"G8G3+94G, Unnamed Road, Pejeng Kangin, Kec. Tampaksiring, Kabupaten Gianyar, Bali 80552","Unnamed Road, Pejeng Kangin, Kec. Tampaksiring, Kabupaten Gianyar",BALI,80552.0,Indonesia,85100986494.0,,,-8.4740692,115.3028392,https://maps.google.com/?cid=0x0:0xeb6a77c2148d59cd,
mall,Pusat Perbelanjaan,PKbettafarm,"G7FR+FWC, Pejeng Kaja, Kec. Tampaksiring, Kabupaten Gianyar, Bali 80552","Pejeng Kaja, Kec. Tampaksiring, Kabupaten Gianyar",BALI,80552.0,Indonesia,8814780714.0,,,-8.476303,115.2922744,https://maps.google.com/?cid=0x0:0x4e6a58194fec62e9,
mall,mall,Bali 80561,"Kec. Tegallalang, Kabupaten Gianyar, Bali","Kabupaten Gianyar, Bali",BALI,,Indonesia,,,,-8.3921715,115.2956118,https://maps.google.com/?cid=0x0:0x1c00c5eb6016bec0,
mall,Pengekspor kerajinan tangan,Akah Bali Gamal,"Kedisan, Kec. Tegallalang, Kabupaten Gianyar, Bali 80561","Kec. Tegallalang, Kabupaten Gianyar",BALI,80561.0,Indonesia,85104485285.0,,,-8.4185561,115.2984628,https://maps.google.com/?cid=0x0:0x99f7e89338ef83d,
mall,Pusat Perbelanjaan,Banjar Let Tegallalang,"J8X3+M29, Banjar Let, Taro, Kec. Tegallalang, Kabupaten Gianyar, Bali 80561","Banjar Let, Taro, Kec. Tegallalang, Kabupaten Gianyar",BALI,80561.0,Indonesia,81933004023.0,,,-8.3508353,115.3025943,https://maps.google.com/?cid=0x0:0xd2f026b542994b26,
mall,Toko bahan makanan,WM Grosir,"J77V+MQ9, Sebatu, Kec. Tegallalang, Kabupaten Gianyar, Bali 80561","Sebatu, Kec. Tegallalang, Kabupaten Gianyar",BALI,80561.0,Indonesia,81338578007.0,,,-8.3859269,115.2945769,https://maps.google.com/?cid=0x0:0xc202bf15e111c814,
mall,Pusat Perbelanjaan,Sanja living,"H73J+46Q, Jl. Raya Tegallalang, Tegallalang, Kec. Tegallalang, Kabupaten Gianyar, Bali 80561","Jl. Raya Tegallalang, Tegallalang, Kec. Tegallalang, Kabupaten Gianyar",BALI,80561.0,Indonesia,85847646669.0,,,-8.4471513,115.2806246,https://maps.google.com/?cid=0x0:0x6dad27f1c62c0d2a,
mall,Pusat Perbelanjaan,BALI SRI ANUGRAH HANDICRAFTS,"Jl. Raya Tegallalang, Tegallalang, Kec. Tegallalang, Kabupaten Gianyar, Bali 80561","Tegallalang, Kec. Tegallalang, Kabupaten Gianyar",BALI,80561.0,Indonesia,87760269068.0,,,-8.4274807,115.2786741,https://maps.google.com/?cid=0x0:0x2bb71d511115bfb4,
mall,Toko Kerajinan Tangan,Bali Becik Artshop,"Jl. Raya Gentong, Tegallalang, Kec. Tegallalang, Kabupaten Gianyar, Bali 80561","Tegallalang, Kec. Tegallalang, Kabupaten Gianyar",BALI,80561.0,Indonesia,81338147457.0,,,-8.4849395,115.2771276,https://maps.google.com/?cid=0x0:0xea3cac7ec7a8c17,
mall,Toko Suvenir,"Tedung sebatu, wayan lantang","H7QX+WPG, Sebatu, Kec. Tegallalang, Kabupaten Gianyar, Bali 80561","Sebatu, Kec. Tegallalang, Kabupaten Gianyar",BALI,80561.0,Indonesia,81337463937.0,,,-8.4089031,115.2991899,https://maps.google.com/?cid=0x0:0xdf57f97d923feebe,
mall,Toko,Funny Artshop Rattan Bali,"Jl. Raya Gentong, Tegallalang, Kec. Tegallalang, Kabupaten Gianyar, Bali 80561","Tegallalang, Kec. Tegallalang, Kabupaten Gianyar",BALI,80561.0,Indonesia,8123655681.0,,,-8.4825513,115.2778934,https://maps.google.com/?cid=0x0:0x5cfa797bc6df36b0,
mall,Toko Suvenir,BERLIN mozaic Shop,"G7HG+5XJ, Jl. Raya Sapat, Tegallalang, Kec. Tegallalang, Kabupaten Gianyar, Bali 80561","Jl. Raya Sapat, Tegallalang, Kec. Tegallalang, Kabupaten Gianyar",BALI,80561.0,Indonesia,87860364141.0,,,-8.472044,115.2774033,https://maps.google.com/?cid=0x0:0xe6d0e0cd302b8a15,
mall,Pusat Perbelanjaan,"UD Sari Amertha Banjar Belong, Desa Taro, Kecamatan Tegallalang","J7HV+H8R, Jl. Banjar Belong Taro, Taro, Kec. Tegallalang, Kabupaten Gianyar, Bali 80561","Jl. Banjar Belong Taro, Taro, Kec. Tegallalang, Kabupaten Gianyar",BALI,80561.0,Indonesia,817346155.0,,,-8.3710161,115.2932552,https://maps.google.com/?cid=0x0:0x3f4bc18191bd45f8,
mall,Pusat Perbelanjaan,Adila Shop Sebatu,"H7XW+F3X, Br, Sebatu, Kec. Tegallalang, Kabupaten Gianyar, Bali 80561","Br, Sebatu, Kec. Tegallalang, Kabupaten Gianyar",BALI,80561.0,Indonesia,,,,-8.4012602,115.2952495,https://maps.google.com/?cid=0x0:0xb57a9369991d0bf,
mall,Tujuan Wisata,Tegallalang Rice Terrace,"Jl. Raya Tegallalang, Tegallalang, Kec. Tegallalang, Kabupaten Gianyar, Bali 80561","Tegallalang, Kec. Tegallalang, Kabupaten Gianyar",BALI,80561.0,Indonesia,,,,-8.4317112,115.279303,https://maps.google.com/?cid=0x0:0x8d1a8969386c04ed,
mall,Toko Pakaian Remaja,Markas iwe bape,"J77R+6QF, Sebatu, Kec. Tegallalang, Kabupaten Gianyar, Bali 80561","Sebatu, Kec. Tegallalang, Kabupaten Gianyar",BALI,80561.0,Indonesia,,,,-8.3869455,115.2919193,https://maps.google.com/?cid=0x0:0x48ffdabfb4af32ee,
mall,Pusat Perbelanjaan,Patra Mas,"H7H9+RJ4, Taro, Kec. Tegallalang, Kabupaten Gianyar, Bali 80572","Taro, Kec. Tegallalang, Kabupaten Gianyar",BALI,80572.0,Indonesia,85792146399.0,,,-8.4204983,115.2690652,https://maps.google.com/?cid=0x0:0x96b1ad75c1b79477,
mall,Toko,UD. LAKsmi,"H7VR+RGG, Jl. Kedisan Kaja, Sebatu, Kec. Tegallalang, Kabupaten Gianyar, Bali 80561","Jl. Kedisan Kaja, Sebatu, Kec. Tegallalang, Kabupaten Gianyar",BALI,80561.0,Indonesia,811388193.0,,,-8.4054281,115.2913294,https://maps.google.com/?cid=0x0:0x5cde73577bd6de34,
mall,Toko Suvenir,Terina Shop,"Jl. Raya Tegallalang, Tegallalang, Kec. Tegallalang, Kabupaten Gianyar, Bali 80561","Tegallalang, Kec. Tegallalang, Kabupaten Gianyar",BALI,80561.0,Indonesia,81934374945.0,,,-8.4780075,115.2786499,https://maps.google.com/?cid=0x0:0x73a89d683a1219f4,
mall,Toko,Gos Koi,"H7VJ+X8Q, Unnamed Road Taro, Taro, Kec. Tegallalang, Kabupaten Gianyar, Bali 80561","Unnamed Road Taro, Taro, Kec. Tegallalang, Kabupaten Gianyar",BALI,80561.0,Indonesia,87860112361.0,,,-8.4050449,115.2808739,https://maps.google.com/?cid=0x0:0x728397da5b89650b,
mall,Toko Ponsel,Robot Cell,"H7VJ+W58, Unnamed Road, Taro, Kec. Tegallalang, Kabupaten Gianyar, Bali 80561","Unnamed Road, Taro, Kec. Tegallalang, Kabupaten Gianyar",BALI,80561.0,Indonesia,,,,-8.4052229,115.2804618,https://maps.google.com/?cid=0x0:0x8f809e6dc3fd2c71,
mall,mall,"Royal Kamuela Villas  Suites at Monkey Forest, Ubud","Sanctuary, Jalan Wenara Wana Sacred Monkey Forest, Ubud, Gianyar Regency, Bali 80571","Jalan Wenara Wana Sacred Monkey Forest, Ubud, Gianyar Regency",BALI,80571.0,Indonesia,361970099.0,,,-8.515977,115.2597424,https://maps.google.com/?cid=0x0:0x1bb50fbe5ecd82ea,
mall,Pusat Perbelanjaan,UD. Sarin Gumi,"J7JV+4QG, Jl. Banjar Belong Taro, Taro, Kec. Tegallalang, Kabupaten Gianyar, Bali 80561","Jl. Banjar Belong Taro, Taro, Kec. Tegallalang, Kabupaten Gianyar",BALI,80561.0,Indonesia,83119960105.0,,,-8.3696767,115.2944524,https://maps.google.com/?cid=0x0:0xe4810068fc5b336b,
mall,Kerajinan,Pande Wayan Semadi Art Shop,"H7VP+4MX, Jl. Raya Pujung Kaja, Sebatu, Kec. Tegallalang, Kabupaten Gianyar, Bali 80561","Jl. Raya Pujung Kaja, Sebatu, Kec. Tegallalang, Kabupaten Gianyar",BALI,80561.0,Indonesia,,,,-8.40714,115.2867214,https://maps.google.com/?cid=0x0:0x5c92516a50719a8f,
mall,Pusat Perbelanjaan,Ridho Artshop,"J76W+4J8, Sebatu, Kec. Tegallalang, Kabupaten Gianyar, Bali 80561","Sebatu, Kec. Tegallalang, Kabupaten Gianyar",BALI,80561.0,Indonesia,8124656350.0,,,-8.3897238,115.2965744,https://maps.google.com/?cid=0x0:0xbc8ac43f5b7a54cf,
mall,Toko,TARO PICTOGRAPHY  CELLULAR,"Unnamed Road, Taro, Kec. Tegallalang, Kabupaten Gianyar, Bali 80561","Taro, Kec. Tegallalang, Kabupaten Gianyar",BALI,80561.0,Indonesia,81916155818.0,,,-8.3813555,115.2799866,https://maps.google.com/?cid=0x0:0x89ee108388eca5f7,
mall,Toko,BuluArt Shop,"G79H+H7M, Jl. Raya Gentong, Tegallalang, Kec. Tegallalang, Kabupaten Gianyar, Bali 80561","Jl. Raya Gentong, Tegallalang, Kec. Tegallalang, Kabupaten Gianyar",BALI,80561.0,Indonesia,87761547123.0,,,-8.4810344,115.2781651,https://maps.google.com/?cid=0x0:0x98db690d42c2ec14,
mall,Toko Pakaian,Ms Collection,"Jl. Raya Kendran, Tegallalang, Kec. Tegallalang, Kabupaten Gianyar, Bali 80561","Tegallalang, Kec. Tegallalang, Kabupaten Gianyar",BALI,80561.0,Indonesia,817554688.0,,,-8.4810904,115.2798006,https://maps.google.com/?cid=0x0:0x99999512c02ef2a7,
mall,mall,Ubud,"Ubud, Kecamatan Ubud, Kabupaten Gianyar, Bali","Kabupaten Gianyar, Bali",BALI,,Indonesia,,,,-8.5068536,115.2624778,https://maps.google.com/?cid=0x0:0x54a38afd6b773d1c,
mall,Pasar tradisional,Ubud Outdoor Market,"Jl. Raya Ubud No.46, Ubud, Kecamatan Ubud, Kabupaten Gianyar, Bali 80571","Ubud, Kecamatan Ubud, Kabupaten Gianyar",BALI,80571.0,Indonesia,,,,-8.5073666,115.2638062,https://maps.google.com/?cid=0x0:0xd91c23c9b6ed9168,
mall,Toko Ponsel,BTC Cellular Ubud 2,"Jl. Cok Gede Rai No.28, Peliatan, Kecamatan Ubud, Kabupaten Gianyar, Bali 80571","Peliatan, Kecamatan Ubud, Kabupaten Gianyar",BALI,80571.0,Indonesia,81238998889.0,,,-8.511954,115.2708181,https://maps.google.com/?cid=0x0:0x1bbdb2cf4e8c422b,
mall,Pusat Perbelanjaan,Betpinoqq Indonesia,"Jl. Karna No.18-14, Ubud, Kecamatan Ubud, Kabupaten Gianyar, Bali 80571","Ubud, Kecamatan Ubud, Kabupaten Gianyar",BALI,80571.0,Indonesia,,,,-8.5085957,115.2625116,https://maps.google.com/?cid=0x0:0x71d2dabbe391312f,
mall,mall,NAM LEATHER UBUD MONKEY FOREST,"F7M6+W35, Jl. Monkey Forest, Ubud, Kecamatan Ubud, Kabupaten Gianyar, Bali 80571","Jl. Monkey Forest, Ubud, Kecamatan Ubud, Kabupaten Gianyar",BALI,80571.0,Indonesia,,,,-8.5152318,115.2601902,https://maps.google.com/?cid=0x0:0xb3917c6db0dd32f3,
mall,Toko Suvenir,Ubud Kreatif,"Jalan Sugriwa No No.14mt, Ubud, Kecamatan Ubud, Kabupaten Gianyar, Bali 80571","Ubud, Kecamatan Ubud, Kabupaten Gianyar",BALI,80571.0,Indonesia,3619081898.0,,,-8.510691,115.2656412,https://maps.google.com/?cid=0x0:0x819c9cd09903241,
mall,Toko Pakaian,RPD LYDYLY UBUD,"Jl. Cok Gede Rai No.51, Peliatan, Kecamatan Ubud, Kabupaten Gianyar, Bali 80571","Peliatan, Kecamatan Ubud, Kabupaten Gianyar",BALI,80571.0,Indonesia,87758104535.0,,,-8.521094,115.2683659,https://maps.google.com/?cid=0x0:0x83f3f7349b1ef6e,
mall,Toko Suvenir,Amertha Collection,"F79C+5P4, Jl. Cok Rai Pudak, Mas, Kecamatan Ubud, Kabupaten Gianyar, Bali 80571","Jl. Cok Rai Pudak, Mas, Kecamatan Ubud, Kabupaten Gianyar",BALI,80571.0,Indonesia,81390261929.0,,,-8.5321038,115.2718132,https://maps.google.com/?cid=0x0:0xc67efcc2ac7968bd,
mall,Pengukir,Wood carving darmadi pandil,"F7J6+P9P, Jl. Monkey Forest, Ubud, Kecamatan Ubud, Kabupaten Gianyar, Bali 80571","Jl. Monkey Forest, Ubud, Kecamatan Ubud, Kabupaten Gianyar",BALI,80571.0,Indonesia,85792839458.0,,,-8.5182464,115.2609117,https://maps.google.com/?cid=0x0:0x1f0762c717c345ce,
mall,Pusat Perbelanjaan,nugraha collection's,"Jl. Cok Gede Rai No.34, Peliatan, Kecamatan Ubud, Kabupaten Gianyar, Bali 80571","Peliatan, Kecamatan Ubud, Kabupaten Gianyar",BALI,80571.0,Indonesia,81338873087.0,,,-8.512951,115.270389,https://maps.google.com/?cid=0x0:0xd8babda91c8e3a96,
mall,Pusat Perbelanjaan,Jro Agung Pengosekan,"F7F7+995, Jl. Raya Pengosekan, Mas, Kecamatan Ubud, Kabupaten Gianyar, Bali 80571","Jl. Raya Pengosekan, Mas, Kecamatan Ubud, Kabupaten Gianyar",BALI,80571.0,Indonesia,87862077913.0,,,-8.5266028,115.2634867,https://maps.google.com/?cid=0x0:0x1e85188d0dac5a50,
mall,Pusat Perbelanjaan,Atelier JSA,"Jl. Raya Andong No.88x, Petulu, Kecamatan Ubud, Kabupaten Gianyar, Bali 80571","Petulu, Kecamatan Ubud, Kabupaten Gianyar",BALI,80571.0,Indonesia,361978906.0,,,-8.4977538,115.2731415,https://maps.google.com/?cid=0x0:0xc97a985f5b24f0d7,
mall,Pusat Perbelanjaan,Multishop,"F7M5+5RQ, Jl. Monkey Forest, Ubud, Kecamatan Ubud, Kabupaten Gianyar, Bali 80571","Jl. Monkey Forest, Ubud, Kecamatan Ubud, Kabupaten Gianyar",BALI,80571.0,Indonesia,85739200034.0,,,-8.5170465,115.2596224,https://maps.google.com/?cid=0x0:0x3ac05758131989ac,
mall,Toko,Tamba Waras Bali,"Jl. Arjuna No.17, Ubud, Kecamatan Ubud, Kabupaten Gianyar, Bali 80571","Ubud, Kecamatan Ubud, Kabupaten Gianyar",BALI,80571.0,Indonesia,,,,-8.5070152,115.2606734,https://maps.google.com/?cid=0x0:0x6b8c2518a401d5b2,
mall,Toko Aromaterapi,Jiwani Aromaterapi,"Jl. Sugriwa No.10, Ubud, Kecamatan Ubud, Kabupaten Gianyar, Bali 80571","Ubud, Kecamatan Ubud, Kabupaten Gianyar",BALI,80571.0,Indonesia,81933113938.0,,,-8.5101186,115.265596,https://maps.google.com/?cid=0x0:0xb2c2288dd127c1a5,
mall,Toko Suvenir,Lazy Geko Hammock - shop ubud,"Jl. Monkey Forest, Ubud, Kecamatan Ubud, Kabupaten Gianyar, Bali 80851","Ubud, Kecamatan Ubud, Kabupaten Gianyar",BALI,80851.0,Indonesia,8123635553.0,,,-8.5162206,115.2599344,https://maps.google.com/?cid=0x0:0x1fb9b74b455dca2d,
mall,Pusat Perbelanjaan,Beachwalk Shopping Center,"Jl. Pantai Kuta, Kuta, Kec. Kuta Sel., Kabupaten Badung, Bali 80361","Kuta, Kec. Kuta Sel., Kabupaten Badung",BALI,80361.0,Indonesia,3618464888.0,,,-8.7169483,115.168807,https://maps.google.com/?cid=0x0:0x2545b9cc094b5de6,
mall,Toko Kerajinan Tangan,Wayan's Shop,"Jl. Raya Campuhan, Ubud, Kecamatan Ubud, Kabupaten Gianyar, Bali 80571","Ubud, Kecamatan Ubud, Kabupaten Gianyar",BALI,80571.0,Indonesia,8123623160.0,,,-8.504692,115.2559178,https://maps.google.com/?cid=0x0:0x666f45deb15ae666,
mall,Pusat Perbelanjaan,A3 Art Shop,"Jl. Raya Andong No.123, Petulu, Kecamatan Ubud, Kabupaten Gianyar, Bali 80552","Petulu, Kecamatan Ubud, Kabupaten Gianyar",BALI,80552.0,Indonesia,81338763899.0,,,-8.4916321,115.2737078,https://maps.google.com/?cid=0x0:0x89e7aab75cde86e8,
mall,mall,Ubud Point Shopping Center,"Ubud Point Shopping Center, JL. Monkey Forest, Ubud, 80571 Bali, Indonesia, Ubud, Gianyar Regency, Bali 80571",Bali,BALI,80571.0,Indonesia,,,,-8.5143472,115.2606488,https://maps.google.com/?cid=0x0:0xa5a446e47b744633,
mall,Gudang,Puri kawan collection lodtunduh ubud,"Jl. A.A. Gede Rai, Lodtunduh, Kecamatan Ubud, Kabupaten Gianyar, Bali 80571","Lodtunduh, Kecamatan Ubud, Kabupaten Gianyar",BALI,80571.0,Indonesia,82146800626.0,,,-8.5411556,115.2620041,https://maps.google.com/?cid=0x0:0x331202ab9daeecb4,
mall,mall,Bali 80571,"Kecamatan Ubud, Kabupaten Gianyar, Bali","Kabupaten Gianyar, Bali",BALI,,Indonesia,,,,-8.5164072,115.2481959,https://maps.google.com/?cid=0x0:0x1c00c5eb6016bed0,
mall,Toko Pakaian,THRIFT UBUD BY ME,"Jl. Banjar Tegalbingin, Mas, Kecamatan Ubud, Kabupaten Gianyar, Bali 80571","Mas, Kecamatan Ubud, Kabupaten Gianyar",BALI,80571.0,Indonesia,81239066669.0,,,-8.5380465,115.2774863,https://maps.google.com/?cid=0x0:0x5414c18bf9932d9d,
mall,Toko Suvenir,Bead mart,"Jl. Raya Mas No.159, Mas, Kecamatan Ubud, Kabupaten Gianyar, Bali 80571","Mas, Kecamatan Ubud, Kabupaten Gianyar",BALI,80571.0,Indonesia,85103042707.0,,,-8.5367344,115.2726991,https://maps.google.com/?cid=0x0:0x1bf2705f1626e417,
mall,Pusat Perbelanjaan,Pasar Jukut Paku Singakerta,"F792+VFF, Singakerta, Kecamatan Ubud, Kabupaten Gianyar, Bali 80571","Singakerta, Kecamatan Ubud, Kabupaten Gianyar",BALI,80571.0,Indonesia,,,,-8.5303213,115.251166,https://maps.google.com/?cid=0x0:0x512e98529542f980,
mall,Galeri Seni,Sila Gallery,"Mas, Kecamatan Ubud, Kabupaten Gianyar, Bali 80582","Kecamatan Ubud, Kabupaten Gianyar",BALI,80582.0,Indonesia,81238900979.0,,,-8.5617358,115.2692094,https://maps.google.com/?cid=0x0:0xb2fa54c4b45ebf56,
mall,Pusat Perbelanjaan,Tisna Silver,"F7Q7+6P8, Jl. Hanoman, Ubud, Kecamatan Ubud, Kabupaten Gianyar, Bali 80571","Jl. Hanoman, Ubud, Kecamatan Ubud, Kabupaten Gianyar",BALI,80571.0,Indonesia,81246866884.0,,,-8.5119638,115.2643206,https://maps.google.com/?cid=0x0:0xf092e0fa3e323ace,
mall,mall,JALAN SUCI SUGRIWA PADANGTEGAL-UBUD,"Jl. Sugriwa No.10, Ubud, Kecamatan Ubud, Kabupaten Gianyar, Bali 80571","Ubud, Kecamatan Ubud, Kabupaten Gianyar",BALI,80571.0,Indonesia,81933113938.0,,,-8.5101233,115.2657195,https://maps.google.com/?cid=0x0:0x35c7c1dd2736236f,
supermarket,Toko bahan makanan,CAHAYA DEWATA LAS,"H8R7+VF8, Unnamed Road, Manukaya, Kec. Tampaksiring, Kabupaten Gianyar, Bali 80552","Unnamed Road, Manukaya, Kec. Tampaksiring, Kabupaten Gianyar",BALI,80552.0,Indonesia,,,,-8.4078471,115.3136932,https://maps.google.com/?cid=0x0:0xb8a4c0c393b7a6a1,
supermarket,Toko Perlengkapan Rumah,Toko Cahaya Dewata,"Jl. Tjampuhan Selatan I No.3, Pering, Kec. Blahbatuh, Kabupaten Gianyar, Bali 80581","Pering, Kec. Blahbatuh, Kabupaten Gianyar",BALI,80581.0,Indonesia,3618958677.0,,,-8.6046278,115.3187179,https://maps.google.com/?cid=0x0:0x77e300d4296f4344,
supermarket,supermarket,Bali 80511,"Kec. Gianyar, Kabupaten Gianyar, Bali","Kabupaten Gianyar, Bali",BALI,,Indonesia,,,,-8.5386152,115.328206,https://maps.google.com/?cid=0x0:0x3a6ab5e6526148c8,
supermarket,Toko Swalayan,Clandy's Mart Ciung wanara,"Jl. Ciung Wanara-Gianyar, Candi Baru, Kec. Gianyar, Kabupaten Gianyar, Bali 80511","Candi Baru, Kec. Gianyar, Kabupaten Gianyar",BALI,80511.0,Indonesia,87762536014.0,,,-8.5394558,115.3221996,https://maps.google.com/?cid=0x0:0x2d38dd3c0a5408a6,
supermarket,Toko Swalayan,Clandys Gianyar,"Jl. Kesatrian No.5A, Gianyar, Kec. Gianyar, Kabupaten Gianyar, Bali 80511","Gianyar, Kec. Gianyar, Kabupaten Gianyar",BALI,80511.0,Indonesia,87863367550.0,,,-8.5441405,115.3255137,https://maps.google.com/?cid=0x0:0x9d90cd8fd95f11c6,
supermarket,Toko Alat Tulis,Pradnya Mart Gianyar Majapahit,"Jl. Majapahit, Gianyar, Kec. Gianyar, Kabupaten Gianyar, Bali 80511","Gianyar, Kec. Gianyar, Kabupaten Gianyar",BALI,80511.0,Indonesia,85737883762.0,,,-8.5433238,115.3267911,https://maps.google.com/?cid=0x0:0x61d0b6308d9c91ea,
supermarket,Toko Swalayan,Jos Mart,"Jl. Mulawarman No.88, Abianbase, Kec. Gianyar, Kabupaten Gianyar, Bali 80511","Abianbase, Kec. Gianyar, Kabupaten Gianyar",BALI,80511.0,Indonesia,82144046204.0,,,-8.554527,115.3269806,https://maps.google.com/?cid=0x0:0x21b0252c833a6b52,
supermarket,Toko Suvenir,MINISO - Gianyar,"Jl. Ngurah Rai-Gianyar, Gianyar, Kec. Gianyar, Kabupaten Gianyar, Bali 80511","Gianyar, Kec. Gianyar, Kabupaten Gianyar",BALI,80511.0,Indonesia,,,,-8.5412792,115.3264634,https://maps.google.com/?cid=0x0:0x671975b9f7ad7fac,
supermarket,Toko bahan makanan,Src Diana,"Jl. Raden Wijaya No.8, Gianyar, Kec. Gianyar, Kabupaten Gianyar, Bali 80511","Gianyar, Kec. Gianyar, Kabupaten Gianyar",BALI,80511.0,Indonesia,81339671207.0,,,-8.547377,115.3214982,https://maps.google.com/?cid=0x0:0x90e9b47ef917d2af,
supermarket,Minimarket,Alfamart Dharmagiri,"Jl. By Pass Ngurah Rai Darmagiri Link.Candi Baru No.Kel, Gianyar, Kec. Gianyar, Kab. Gianyar, Bali 80511","Gianyar, Kec. Gianyar, Kab. Gianyar",BALI,80511.0,Indonesia,1500959.0,,,-8.5409754,115.3215766,https://maps.google.com/?cid=0x0:0x363298d319b97266,
supermarket,Toko Alat Tulis,Pradnya Mart Gianyar Dharma Giri,"Jl. Dharma Giri No.8, Gianyar, Kec. Gianyar, Kabupaten Gianyar, Bali 80511","Gianyar, Kec. Gianyar, Kabupaten Gianyar",BALI,80511.0,Indonesia,81239546505.0,,,-8.5413179,115.3222598,https://maps.google.com/?cid=0x0:0xf63294fa12b43ce0,
supermarket,Toko,Putra Mart,"Jl. Erlangga No.8X, Gianyar, Kec. Gianyar, Kabupaten Gianyar, Bali 80511","Gianyar, Kec. Gianyar, Kabupaten Gianyar",BALI,80511.0,Indonesia,87761657929.0,,,-8.5433201,115.3231055,https://maps.google.com/?cid=0x0:0xc83e470b9fab1162,
supermarket,Toko,Toko Sari Dana,"F84H+RCF, Jl. Pudak, Gianyar, Kec. Gianyar, Kabupaten Gianyar, Bali 80511","Jl. Pudak, Gianyar, Kec. Gianyar, Kabupaten Gianyar",BALI,80511.0,Indonesia,,,,-8.5429345,115.3285498,https://maps.google.com/?cid=0x0:0x569ccc543d334833,
supermarket,Toko Swalayan,Delta Dewata Supermarket,"Jl. Raya Andong No.14, Peliatan, Kec. Gianyar, Kabupaten Gianyar, Bali 80571","Peliatan, Kec. Gianyar, Kabupaten Gianyar",BALI,80571.0,Indonesia,361973049.0,,,-8.507746,115.2709277,https://maps.google.com/?cid=0x0:0x64e2d870df24424,
supermarket,Toko Elektronik,Toko Sentral Elektronik,"Jl. Kebo Iwa No.28, Gianyar, Kec. Gianyar, Kabupaten Gianyar, Bali 80511","Gianyar, Kec. Gianyar, Kabupaten Gianyar",BALI,80511.0,Indonesia,81239676424.0,,,-8.5440074,115.3224323,https://maps.google.com/?cid=0x0:0x25f59f13b0ecca4b,
supermarket,Toko Perlengkapan Bayi,SUPER FASHION CAB GIANYAR,"Jl. Astina Sel. pertokoan ABC No.199X, Abianbase, Kec. Gianyar, Kabupaten Gianyar, Bali 80511","Abianbase, Kec. Gianyar, Kabupaten Gianyar",BALI,80511.0,Indonesia,87766998566.0,,,-8.5491612,115.3235008,https://maps.google.com/?cid=0x0:0x29fa2f020672a7a8,
supermarket,Toko Kosmetik,Mutiara Permai,"Jl. Jata, Gianyar, Kec. Gianyar, Kabupaten Gianyar, Bali 80511","Gianyar, Kec. Gianyar, Kabupaten Gianyar",BALI,80511.0,Indonesia,87761335999.0,,,-8.5412381,115.3263506,https://maps.google.com/?cid=0x0:0x23b856fa4f98024f,
supermarket,Toko Swalayan,Jero Duur Pangkung,"F86H+H9M, Gianyar, Kec. Gianyar, Kabupaten Gianyar, Bali 80511","Gianyar, Kec. Gianyar, Kabupaten Gianyar",BALI,80511.0,Indonesia,81353333639.0,,,-8.5385388,115.3284233,https://maps.google.com/?cid=0x0:0x24a1c0001d07bb33,
supermarket,Minimarket,Alfamart PATIH JELANTIK Gianyar,"Jl. Patih Jelantik-Gianyar No.Kel, Beng, Kec. Gianyar, Kab. Gianyar, Bali 80513","Beng, Kec. Gianyar, Kab. Gianyar",BALI,80513.0,Indonesia,1500959.0,,,-8.53574,115.32475,https://maps.google.com/?cid=0x0:0xbaff79523137a37a,
supermarket,Toko Bahan Bangunan,AZKO Gianyar Bali,"Jl. Ngurah Rai-Gianyar No.79, Gianyar, Kec. Gianyar, Kabupaten Gianyar, Bali 80511","Gianyar, Kec. Gianyar, Kabupaten Gianyar",BALI,80511.0,Indonesia,82236614096.0,,,-8.5413176,115.3278382,https://maps.google.com/?cid=0x0:0x8569c6f716edc50b,
supermarket,Toko Swalayan,Pepito Market - Andong,"Jl. Raya Andong, Peliatan, Kecamatan Ubud, Kabupaten Gianyar, Bali 80571","Peliatan, Kecamatan Ubud, Kabupaten Gianyar",BALI,80571.0,Indonesia,87700027888.0,,,-8.5041497,115.2717269,https://maps.google.com/?cid=0x0:0x6466afa706413f9,
supermarket,Toko,Arj88 Gianyar,"F83G+379, Jl. Kesatrian, Abianbase, Kec. Gianyar, Kabupaten Gianyar, Bali 80511","Jl. Kesatrian, Abianbase, Kec. Gianyar, Kabupaten Gianyar",BALI,80511.0,Indonesia,,,,-8.5473278,115.3257429,https://maps.google.com/?cid=0x0:0x6f9ef4527b5a9493,
supermarket,Pusat Perbelanjaan,UD Ayu Gianyar Toko Bahan Kue Dan Cetakan Kue,"Jl. Kesatrian No.01, Gianyar, Kec. Gianyar, Kabupaten Gianyar, Bali 80511","Gianyar, Kec. Gianyar, Kabupaten Gianyar",BALI,80511.0,Indonesia,81937064443.0,,,-8.5417308,115.3250346,https://maps.google.com/?cid=0x0:0x40d787d598fb67bd,
supermarket,Toko Swalayan,Clandys Gianyar,"Jl. Kesatrian No.5A, Gianyar, Kec. Gianyar, Kabupaten Gianyar, Bali 80511","Gianyar, Kec. Gianyar, Kabupaten Gianyar",BALI,80511.0,Indonesia,87863367550.0,,,-8.5441405,115.3255137,https://maps.google.com/?cid=0x0:0x9d90cd8fd95f11c6,
supermarket,supermarket,Bali 80512,"Samplangan, Kec. Gianyar, Kabupaten Gianyar, Bali","Kabupaten Gianyar, Bali",BALI,,Indonesia,,,,-8.532747,115.3400575,https://maps.google.com/?cid=0x0:0x1c00c5eb6016be70,
supermarket,Toko bahan makanan,MM Family,"F87G+QRQ, Jl. Patih Jelantik-Gianyar, Beng, Kec. Gianyar, Kabupaten Gianyar, Bali 80511","Jl. Patih Jelantik-Gianyar, Beng, Kec. Gianyar, Kabupaten Gianyar",BALI,80511.0,Indonesia,361947985.0,,,-8.535537,115.3271033,https://maps.google.com/?cid=0x0:0xba156e30036f73c9,
supermarket,Toko,Toko Tiara,"Jl. Astina Timur No.2a, Samplangan, Kec. Gianyar, Kabupaten Gianyar, Bali 80512","Samplangan, Kec. Gianyar, Kabupaten Gianyar",BALI,80512.0,Indonesia,85299271741.0,,,-8.5410935,115.3346456,https://maps.google.com/?cid=0x0:0xa9dfaffe5af9c687,
supermarket,Toko Swalayan,Clandy's Mart Ciung wanara,"Jl. Ciung Wanara-Gianyar, Candi Baru, Kec. Gianyar, Kabupaten Gianyar, Bali 80511","Candi Baru, Kec. Gianyar, Kabupaten Gianyar",BALI,80511.0,Indonesia,87762536014.0,,,-8.5394558,115.3221996,https://maps.google.com/?cid=0x0:0x2d38dd3c0a5408a6,
supermarket,Toko Swalayan,Wr. Suparmi,"Jl. Sidan-Astina Timur, Sidan, Kec. Gianyar, Kabupaten Gianyar, Bali 80515","Sidan, Kec. Gianyar, Kabupaten Gianyar",BALI,80515.0,Indonesia,,,,-8.5340482,115.3479525,https://maps.google.com/?cid=0x0:0xcd6302802710d36e,
supermarket,Minimarket,Alfamart PATIH JELANTIK Gianyar,"Jl. Patih Jelantik-Gianyar No.Kel, Beng, Kec. Gianyar, Kab. Gianyar, Bali 80513","Beng, Kec. Gianyar, Kab. Gianyar",BALI,80513.0,Indonesia,1500959.0,,,-8.53574,115.32475,https://maps.google.com/?cid=0x0:0xbaff79523137a37a,
supermarket,Toko bahan makanan,Bagus Supermarket Singapadu,"Jl. Raya Singapadu No.22, Batubulan, Kec. Sukawati, Kabupaten Gianyar, Bali 80582","Batubulan, Kec. Sukawati, Kabupaten Gianyar",BALI,80582.0,Indonesia,,,,-8.5993065,115.2534516,https://maps.google.com/?cid=0x0:0x9a2a6762bbc6a635,
supermarket,Toko bahan makanan,Bagus market,"Jl. Raya Singapadu No.87 No. Индонезия, Singapadu, Kec. Sukawati, Kabupaten Gianyar, Bali 80582","Singapadu, Kec. Sukawati, Kabupaten Gianyar",BALI,80582.0,Indonesia,,,,-8.6003543,115.2543292,https://maps.google.com/?cid=0x0:0x3d9b3b49070d9d9d,
supermarket,Toko Swalayan,Jero Duur Pangkung,"F86H+H9M, Gianyar, Kec. Gianyar, Kabupaten Gianyar, Bali 80511","Gianyar, Kec. Gianyar, Kabupaten Gianyar",BALI,80511.0,Indonesia,81353333639.0,,,-8.5385388,115.3284233,https://maps.google.com/?cid=0x0:0x24a1c0001d07bb33,
supermarket,Toko Swalayan,Delta Dewata Supermarket,"Jl. Raya Andong No.14, Peliatan, Kec. Gianyar, Kabupaten Gianyar, Bali 80571","Peliatan, Kec. Gianyar, Kabupaten Gianyar",BALI,80571.0,Indonesia,361973049.0,,,-8.507746,115.2709277,https://maps.google.com/?cid=0x0:0x64e2d870df24424,
supermarket,Toko Swalayan,Larisna Bali,"Jl. Merak-Gianyar No.12, Beng, Kec. Gianyar, Kabupaten Gianyar, Bali 80513","Beng, Kec. Gianyar, Kabupaten Gianyar",BALI,80513.0,Indonesia,361948044.0,,,-8.53391,115.3259733,https://maps.google.com/?cid=0x0:0xbbbad8af874c8c9d,
supermarket,Toko bahan makanan,Peken Cenik,"F86V+82C, Jl. Raya Samplangan, Samplangan, Kec. Gianyar, Kabupaten Gianyar, Bali 80512","Jl. Raya Samplangan, Samplangan, Kec. Gianyar, Kabupaten Gianyar",BALI,80512.0,Indonesia,81237790793.0,,,-8.5391763,115.3425072,https://maps.google.com/?cid=0x0:0x77787794b908d481,
supermarket,Toko bahan makanan,TOKO RAMA MADURA,"Jl. Astina Timur No.38, Samplangan, Kec. Gianyar, Kabupaten Gianyar, Bali 80512","Samplangan, Kec. Gianyar, Kabupaten Gianyar",BALI,80512.0,Indonesia,87858222200.0,,,-8.5394214,115.3409525,https://maps.google.com/?cid=0x0:0xfb4ca6fbfeb351eb,
supermarket,Toko Swalayan,TOKO IBU JERO CANDRI,"F86P+4RF, Jl. Gn. Cemara, Samplangan, Kec. Gianyar, Kabupaten Gianyar, Bali 80512","Jl. Gn. Cemara, Samplangan, Kec. Gianyar, Kabupaten Gianyar",BALI,80512.0,Indonesia,,,,-8.5396822,115.3370553,https://maps.google.com/?cid=0x0:0xf415dde49575b526,
supermarket,Toko Swalayan,Bintang Supermarket Ubud,"Jl. Raya Sanggingan No.45, Sayan, Kecamatan Ubud, Kabupaten Gianyar, Bali 80515","Sayan, Kecamatan Ubud, Kabupaten Gianyar",BALI,80515.0,Indonesia,361972972.0,,,-8.4997384,115.2523733,https://maps.google.com/?cid=0x0:0xedf5038642b75298,
supermarket,Toko Kelontong Asia,Warung Pojok Tegal Tugu,"Jl. Ratna IV No.3, Tegal Tugu, Kec. Gianyar, Kabupaten Gianyar, Bali 80515","Tegal Tugu, Kec. Gianyar, Kabupaten Gianyar",BALI,80515.0,Indonesia,87862366448.0,,,-8.5482194,115.3334892,https://maps.google.com/?cid=0x0:0x939436053cd871f8,
supermarket,Minimarket,Alfamart Dharmagiri,"Jl. By Pass Ngurah Rai Darmagiri Link.Candi Baru No.Kel, Gianyar, Kec. Gianyar, Kab. Gianyar, Bali 80511","Gianyar, Kec. Gianyar, Kab. Gianyar",BALI,80511.0,Indonesia,1500959.0,,,-8.5409754,115.3215766,https://maps.google.com/?cid=0x0:0x363298d319b97266,
supermarket,Toko bahan makanan,TOKO TIRI,"F87P+CCG, Jl. Bukit Jati, Samplangan, Kec. Gianyar, Kabupaten Gianyar, Bali 80512","Jl. Bukit Jati, Samplangan, Kec. Gianyar, Kabupaten Gianyar",BALI,80512.0,Indonesia,,,,-8.53643,115.3360708,https://maps.google.com/?cid=0x0:0xec1dce663213a5ef,
supermarket,Minimarket,Indomaret Sidan,"Jl. Sidan-Astina Timur No.125-126, Sidan, Kec. Gianyar, Kabupaten Gianyar, Bali 80515","Sidan, Kec. Gianyar, Kabupaten Gianyar",BALI,80515.0,Indonesia,,,,-8.5313124,115.3485972,https://maps.google.com/?cid=0x0:0x43104cf0f5755de3,
supermarket,Pusat Perbelanjaan,Yadnya Grosir Beng Gianyar,"Jl. Gn. Agung No.168, Beng, Kec. Gianyar, Kabupaten Gianyar, Bali 80513","Beng, Kec. Gianyar, Kabupaten Gianyar",BALI,80513.0,Indonesia,361945155.0,,,-8.5256817,115.3286053,https://maps.google.com/?cid=0x0:0xcae1119a9ca32e31,
supermarket,Toko bahan makanan,DEWATA BENG,"F8CH+9G4, Jl. Gn. Agung, Beng, Kec. Gianyar, Kabupaten Gianyar, Bali 80513","Jl. Gn. Agung, Beng, Kec. Gianyar, Kabupaten Gianyar",BALI,80513.0,Indonesia,8174772543.0,,,-8.5291235,115.3288234,https://maps.google.com/?cid=0x0:0x420a788b044bd09b,
supermarket,Toko Alat Tulis,Nadhi Mart Gianyar,"Jl. Raya Jl. Dharma Giri No.97A, Bitera, Kec. Gianyar, Kabupaten Gianyar, Bali 80515","Bitera, Kec. Gianyar, Kabupaten Gianyar",BALI,80515.0,Indonesia,89602766717.0,,,-8.5416042,115.3143113,https://maps.google.com/?cid=0x0:0xab3154da8ac77dba,
supermarket,Toko Bahan Bangunan,Toko Harmonis,"Jl. Astina Timur No.18x, Samplangan, Kec. Gianyar, Kabupaten Gianyar, Bali 80512","Samplangan, Kec. Gianyar, Kabupaten Gianyar",BALI,80512.0,Indonesia,81338722669.0,,,-8.5403448,115.3378149,https://maps.google.com/?cid=0x0:0x78430e04b4d39d94,
supermarket,Toko,Toko D'N'D,"F89Q+89Q, Jl. Bukit Batu, Samplangan, Kec. Gianyar, Kabupaten Gianyar, Bali 80512","Jl. Bukit Batu, Samplangan, Kec. Gianyar, Kabupaten Gianyar",BALI,80512.0,Indonesia,8123987826.0,,,-8.5316698,115.3384711,https://maps.google.com/?cid=0x0:0xe85eb0aea94a9b56,
supermarket,Toko Kosmetik,Murni Cosmetics Gianyar,"F87P+95P, Jl. Bukit Jati No.9xx, Samplangan, Kec. Gianyar, Kabupaten Gianyar, Bali 80512","Jl. Bukit Jati No.9xx, Samplangan, Kec. Gianyar, Kabupaten Gianyar",BALI,80512.0,Indonesia,,,,-8.5365625,115.3354375,https://maps.google.com/?cid=0x0:0x3a332c98101157a3,
supermarket,Toko grosir,TOKO KONIKA,"F86P+HV4, Jl. Tukad Petanu, Samplangan, Kec. Gianyar, Kabupaten Gianyar, Bali 80512","Jl. Tukad Petanu, Samplangan, Kec. Gianyar, Kabupaten Gianyar",BALI,80512.0,Indonesia,,,,-8.5386122,115.3372169,https://maps.google.com/?cid=0x0:0x784303c8f5e19d0b,
supermarket,Toko Penyewaan Video Game,"Glory Playstation Ps3, Ps4 dan Ps5","Jl. Astina Timur, Samplangan, Kec. Gianyar, Kabupaten Gianyar, Bali 80512","Samplangan, Kec. Gianyar, Kabupaten Gianyar",BALI,80512.0,Indonesia,87889014495.0,,,-8.540676,115.3354644,https://maps.google.com/?cid=0x0:0x2c50bc848faf69ec,
supermarket,supermarket,Bali 80513,"Kec. Gianyar, Kabupaten Gianyar, Bali","Kabupaten Gianyar, Bali",BALI,,Indonesia,,,,-8.5273675,115.3267245,https://maps.google.com/?cid=0x0:0x726f6b72398c7c97,
supermarket,Toko Swalayan,Ryana,"Bitera, Kec. Gianyar, Kabupaten Gianyar, Bali 80515","Kec. Gianyar, Kabupaten Gianyar",BALI,80515.0,Indonesia,81236310753.0,,,-8.5193525,115.3208827,https://maps.google.com/?cid=0x0:0xd8790451bdb4b58b,
supermarket,Toko bahan makanan,MM Family,"F87G+QRQ, Jl. Patih Jelantik-Gianyar, Beng, Kec. Gianyar, Kabupaten Gianyar, Bali 80511","Jl. Patih Jelantik-Gianyar, Beng, Kec. Gianyar, Kabupaten Gianyar",BALI,80511.0,Indonesia,361947985.0,,,-8.535537,115.3271033,https://maps.google.com/?cid=0x0:0xba156e30036f73c9,
supermarket,Minimarket,Alfamart PATIH JELANTIK Gianyar,"Jl. Patih Jelantik-Gianyar No.Kel, Beng, Kec. Gianyar, Kab. Gianyar, Bali 80513","Beng, Kec. Gianyar, Kab. Gianyar",BALI,80513.0,Indonesia,1500959.0,,,-8.53574,115.32475,https://maps.google.com/?cid=0x0:0xbaff79523137a37a,
supermarket,Toko Swalayan,Delta Dewata Supermarket,"Jl. Raya Andong No.14, Peliatan, Kec. Gianyar, Kabupaten Gianyar, Bali 80571","Peliatan, Kec. Gianyar, Kabupaten Gianyar",BALI,80571.0,Indonesia,361973049.0,,,-8.507746,115.2709277,https://maps.google.com/?cid=0x0:0x64e2d870df24424,
supermarket,Pusat Perbelanjaan,Yadnya Grosir Beng Gianyar,"Jl. Gn. Agung No.168, Beng, Kec. Gianyar, Kabupaten Gianyar, Bali 80513","Beng, Kec. Gianyar, Kabupaten Gianyar",BALI,80513.0,Indonesia,361945155.0,,,-8.5256817,115.3286053,https://maps.google.com/?cid=0x0:0xcae1119a9ca32e31,
supermarket,Toko Swalayan,Larisna Bali,"Jl. Merak-Gianyar No.12, Beng, Kec. Gianyar, Kabupaten Gianyar, Bali 80513","Beng, Kec. Gianyar, Kabupaten Gianyar",BALI,80513.0,Indonesia,361948044.0,,,-8.53391,115.3259733,https://maps.google.com/?cid=0x0:0xbbbad8af874c8c9d,
supermarket,Toko bahan makanan,DEWATA BENG,"F8CH+9G4, Jl. Gn. Agung, Beng, Kec. Gianyar, Kabupaten Gianyar, Bali 80513","Jl. Gn. Agung, Beng, Kec. Gianyar, Kabupaten Gianyar",BALI,80513.0,Indonesia,8174772543.0,,,-8.5291235,115.3288234,https://maps.google.com/?cid=0x0:0x420a788b044bd09b,
supermarket,Minimarket,Vikenz mart,"Jl. Gn. Agung Utara No.187, Beng, Kec. Gianyar, Kabupaten Gianyar, Bali 80513","Beng, Kec. Gianyar, Kabupaten Gianyar",BALI,80513.0,Indonesia,81389919669.0,,,-8.5210193,115.3299298,https://maps.google.com/?cid=0x0:0x60be053246286ef,
supermarket,Toko bahan makanan,Gemah Ripah Market,"Jl. Gn. Agung Utara No.187, Beng, Kec. Gianyar, Kabupaten Gianyar, Bali 80513","Beng, Kec. Gianyar, Kabupaten Gianyar",BALI,80513.0,Indonesia,82298626139.0,,,-8.5210827,115.3298931,https://maps.google.com/?cid=0x0:0x8decb2e9fc31ee69,
supermarket,Toko Swalayan,Bintang Supermarket Ubud,"Jl. Raya Sanggingan No.45, Sayan, Kecamatan Ubud, Kabupaten Gianyar, Bali 80515","Sayan, Kecamatan Ubud, Kabupaten Gianyar",BALI,80515.0,Indonesia,361972972.0,,,-8.4997384,115.2523733,https://maps.google.com/?cid=0x0:0xedf5038642b75298,
supermarket,Minimarket,Alfamart Dharmagiri,"Jl. By Pass Ngurah Rai Darmagiri Link.Candi Baru No.Kel, Gianyar, Kec. Gianyar, Kab. Gianyar, Bali 80511","Gianyar, Kec. Gianyar, Kab. Gianyar",BALI,80511.0,Indonesia,1500959.0,,,-8.5409754,115.3215766,https://maps.google.com/?cid=0x0:0x363298d319b97266,
supermarket,Toko bahan makanan,Merta Mesari Mart,"Jl. Gn. Agung No.33, Beng, Kec. Gianyar, Kabupaten Gianyar, Bali 80513","Beng, Kec. Gianyar, Kabupaten Gianyar",BALI,80513.0,Indonesia,,,,-8.5304972,115.3289004,https://maps.google.com/?cid=0x0:0x11ed9ece2f4e5a5f,
supermarket,Toko bahan makanan,GALUH PITU MART,"Jl. Gn. Agung No.38, Beng, Kec. Gianyar, Kabupaten Gianyar, Bali 80513","Beng, Kec. Gianyar, Kabupaten Gianyar",BALI,80513.0,Indonesia,85755764741.0,,,-8.5279975,115.3286251,https://maps.google.com/?cid=0x0:0x1f6cb310da71772a,
supermarket,Minimarket,22 Mart,"Jl. Gn. Agung, Beng, Kec. Gianyar, Kabupaten Gianyar, Bali 80513","Beng, Kec. Gianyar, Kabupaten Gianyar",BALI,80513.0,Indonesia,85792658218.0,,,-8.5342102,115.3286421,https://maps.google.com/?cid=0x0:0x64050ca3435340fd,
supermarket,Toko Swalayan,Coco Supermarket Ubud,"Jalan Raya Pengosekan, Ubud, Kecamatan Ubud, Kabupaten Gianyar, Bali 80571","Ubud, Kecamatan Ubud, Kabupaten Gianyar",BALI,80571.0,Indonesia,8563717787.0,,,-8.5179768,115.2635727,https://maps.google.com/?cid=0x0:0x983ca314a2c63faf,
supermarket,Toko,Toko Sari Dana,"F84H+RCF, Jl. Pudak, Gianyar, Kec. Gianyar, Kabupaten Gianyar, Bali 80511","Jl. Pudak, Gianyar, Kec. Gianyar, Kabupaten Gianyar",BALI,80511.0,Indonesia,,,,-8.5429345,115.3285498,https://maps.google.com/?cid=0x0:0x569ccc543d334833,
supermarket,Toko Swalayan,Jero Duur Pangkung,"F86H+H9M, Gianyar, Kec. Gianyar, Kabupaten Gianyar, Bali 80511","Gianyar, Kec. Gianyar, Kabupaten Gianyar",BALI,80511.0,Indonesia,81353333639.0,,,-8.5385388,115.3284233,https://maps.google.com/?cid=0x0:0x24a1c0001d07bb33,
supermarket,Toko bahan makanan,Bagus market,"Jl. Raya Singapadu No.87 No. Индонезия, Singapadu, Kec. Sukawati, Kabupaten Gianyar, Bali 80582","Singapadu, Kec. Sukawati, Kabupaten Gianyar",BALI,80582.0,Indonesia,,,,-8.6003543,115.2543292,https://maps.google.com/?cid=0x0:0x3d9b3b49070d9d9d,
supermarket,Toko bahan makanan,Bagus Supermarket Singapadu,"Jl. Raya Singapadu No.22, Batubulan, Kec. Sukawati, Kabupaten Gianyar, Bali 80582","Batubulan, Kec. Sukawati, Kabupaten Gianyar",BALI,80582.0,Indonesia,,,,-8.5993065,115.2534516,https://maps.google.com/?cid=0x0:0x9a2a6762bbc6a635,
supermarket,Toko Pakaian,Fourell_shop,"F87H+F5V, Gianyar, Kec. Gianyar, Kabupaten Gianyar, Bali 80511","Gianyar, Kec. Gianyar, Kabupaten Gianyar",BALI,80511.0,Indonesia,,,,-8.5362626,115.3279328,https://maps.google.com/?cid=0x0:0x3c97b25a5cf17e68,
supermarket,Toko Perlengkapan Rumah,Toko Cahaya Dewata,"Jl. Tjampuhan Selatan I No.3, Pering, Kec. Blahbatuh, Kabupaten Gianyar, Bali 80581","Pering, Kec. Blahbatuh, Kabupaten Gianyar",BALI,80581.0,Indonesia,3618958677.0,,,-8.6046278,115.3187179,https://maps.google.com/?cid=0x0:0x77e300d4296f4344,
supermarket,Toko,D' Mart,"Jl. Erlangga Gang SLB No.26, Gianyar, Kec. Gianyar, Kabupaten Gianyar, Bali 80511","Gianyar, Kec. Gianyar, Kabupaten Gianyar",BALI,80511.0,Indonesia,,,,-8.5443639,115.3242118,https://maps.google.com/?cid=0x0:0xbb7e40652669ac98,
supermarket,Toko Alat Tulis,Nadhi Mart Gianyar,"Jl. Raya Jl. Dharma Giri No.97A, Bitera, Kec. Gianyar, Kabupaten Gianyar, Bali 80515","Bitera, Kec. Gianyar, Kabupaten Gianyar",BALI,80515.0,Indonesia,89602766717.0,,,-8.5416042,115.3143113,https://maps.google.com/?cid=0x0:0xab3154da8ac77dba,
supermarket,Toko Swalayan,Wr. Suparmi,"Jl. Sidan-Astina Timur, Sidan, Kec. Gianyar, Kabupaten Gianyar, Bali 80515","Sidan, Kec. Gianyar, Kabupaten Gianyar",BALI,80515.0,Indonesia,,,,-8.5340482,115.3479525,https://maps.google.com/?cid=0x0:0xcd6302802710d36e,
supermarket,Kantor Pemerintah,Desa Beng Gianyar,"F8CH+H7P, Beng, Kec. Gianyar, Kabupaten Gianyar, Bali 80513","Beng, Kec. Gianyar, Kabupaten Gianyar",BALI,80513.0,Indonesia,,,,-8.528541,115.3282044,https://maps.google.com/?cid=0x0:0x5059c53ad727714c,
supermarket,Toko,UD. Niaga Jaya,"Jl. Patih Jelantik-Gianyar No.90, Gianyar, Kec. Gianyar, Kabupaten Gianyar, Bali 80511","Gianyar, Kec. Gianyar, Kabupaten Gianyar",BALI,80511.0,Indonesia,83119052727.0,,,-8.5356306,115.3256498,https://maps.google.com/?cid=0x0:0xb82eec37616173dd,
supermarket,Toko,Toko Rahayu,"Jl. Sawo No.22, Bitera, Kec. Gianyar, Kabupaten Gianyar, Bali 80515","Bitera, Kec. Gianyar, Kabupaten Gianyar",BALI,80515.0,Indonesia,,,,-8.5325511,115.3171751,https://maps.google.com/?cid=0x0:0x88df003e23786620,
supermarket,Toko Swalayan,Ryana,"Bitera, Kec. Gianyar, Kabupaten Gianyar, Bali 80515","Kec. Gianyar, Kabupaten Gianyar",BALI,80515.0,Indonesia,81236310753.0,,,-8.5193525,115.3208827,https://maps.google.com/?cid=0x0:0xd8790451bdb4b58b,
supermarket,supermarket,Bali 80515,"Kec. Gianyar, Kabupaten Gianyar, Bali","Kabupaten Gianyar, Bali",BALI,,Indonesia,,,,-8.5169426,115.3133908,https://maps.google.com/?cid=0x0:0x1c00c5eb6016be90,
supermarket,Toko Swalayan,Clandys Gianyar,"Jl. Kesatrian No.5A, Gianyar, Kec. Gianyar, Kabupaten Gianyar, Bali 80511","Gianyar, Kec. Gianyar, Kabupaten Gianyar",BALI,80511.0,Indonesia,87863367550.0,,,-8.5441405,115.3255137,https://maps.google.com/?cid=0x0:0x9d90cd8fd95f11c6,
supermarket,Toko Swalayan,Delta Dewata Supermarket,"Jl. Raya Andong No.14, Peliatan, Kec. Gianyar, Kabupaten Gianyar, Bali 80571","Peliatan, Kec. Gianyar, Kabupaten Gianyar",BALI,80571.0,Indonesia,361973049.0,,,-8.507746,115.2709277,https://maps.google.com/?cid=0x0:0x64e2d870df24424,
supermarket,Toko bahan makanan,MM Family,"F87G+QRQ, Jl. Patih Jelantik-Gianyar, Beng, Kec. Gianyar, Kabupaten Gianyar, Bali 80511","Jl. Patih Jelantik-Gianyar, Beng, Kec. Gianyar, Kabupaten Gianyar",BALI,80511.0,Indonesia,361947985.0,,,-8.535537,115.3271033,https://maps.google.com/?cid=0x0:0xba156e30036f73c9,
supermarket,Toko Swalayan,Wr. Suparmi,"Jl. Sidan-Astina Timur, Sidan, Kec. Gianyar, Kabupaten Gianyar, Bali 80515","Sidan, Kec. Gianyar, Kabupaten Gianyar",BALI,80515.0,Indonesia,,,,-8.5340482,115.3479525,https://maps.google.com/?cid=0x0:0xcd6302802710d36e,
supermarket,Minimarket,Balimart Bitera,"Triwangsa, Jl. Sawo No.14, Bitera, Kec. Gianyar, Kabupaten Gianyar, Bali 80515","Jl. Sawo No.14, Bitera, Kec. Gianyar, Kabupaten Gianyar",BALI,80515.0,Indonesia,81999141712.0,,,-8.5331984,115.3169331,https://maps.google.com/?cid=0x0:0x8d87f34e74b3ee24,
supermarket,Toko Swalayan,Pepito Market - Andong,"Jl. Raya Andong, Peliatan, Kecamatan Ubud, Kabupaten Gianyar, Bali 80571","Peliatan, Kecamatan Ubud, Kabupaten Gianyar",BALI,80571.0,Indonesia,87700027888.0,,,-8.5041497,115.2717269,https://maps.google.com/?cid=0x0:0x6466afa706413f9,
supermarket,Toko,TOKO LANGGENG JAYA,"Jl. Anggur Br. Sema No.10, Bitera, Kec. Gianyar, Kabupaten Gianyar, Bali 80515","Bitera, Kec. Gianyar, Kabupaten Gianyar",BALI,80515.0,Indonesia,3614794138.0,,,-8.533975,115.3147267,https://maps.google.com/?cid=0x0:0x5350232df5f6e0ad,
supermarket,Toko Swalayan,Clandy's Mart Ciung wanara,"Jl. Ciung Wanara-Gianyar, Candi Baru, Kec. Gianyar, Kabupaten Gianyar, Bali 80511","Candi Baru, Kec. Gianyar, Kabupaten Gianyar",BALI,80511.0,Indonesia,87762536014.0,,,-8.5394558,115.3221996,https://maps.google.com/?cid=0x0:0x2d38dd3c0a5408a6,
supermarket,Toko bahan makanan,Lucky Mart,"Jl. Ukir No.2, Bitera, Kec. Gianyar, Kabupaten Gianyar, Bali 80515","Bitera, Kec. Gianyar, Kabupaten Gianyar",BALI,80515.0,Indonesia,,,,-8.5482307,115.3194228,https://maps.google.com/?cid=0x0:0x7f205e18a2d1d519,
supermarket,Toko bahan makanan,Ina Mart,"F8W7+X95, Siangan, Kec. Gianyar, Kabupaten Gianyar, Bali 80515","Siangan, Kec. Gianyar, Kabupaten Gianyar",BALI,80515.0,Indonesia,,,,-8.5026228,115.313496,https://maps.google.com/?cid=0x0:0xb2eb56b71ac9538,
supermarket,Toko bahan makanan,Kerta mart,"F8J6+4H5, Jl. Raya Siangan, Siangan, Kec. Gianyar, Kabupaten Gianyar, Bali 80515","Jl. Raya Siangan, Siangan, Kec. Gianyar, Kabupaten Gianyar",BALI,80515.0,Indonesia,,,,-8.5197349,115.3114826,https://maps.google.com/?cid=0x0:0xf2bfa69f8b2b8e50,
supermarket,Toko bahan makanan,AS Mart (Mini Market),"Link. Banjar Gubat, Pejeng Kelod, Kec. Tampaksiring, Kabupaten Gianyar, Bali 80552","Pejeng Kelod, Kec. Tampaksiring, Kabupaten Gianyar",BALI,80552.0,Indonesia,87861493353.0,,,-8.5161965,115.3020115,https://maps.google.com/?cid=0x0:0x7b8b922678ea5670,
supermarket,Minimarket,Tata mart,"F8F7+4F, Bitera, Kec. Gianyar, Kabupaten Gianyar, Bali 80515","Bitera, Kec. Gianyar, Kabupaten Gianyar",BALI,80515.0,Indonesia,,,,-8.5272433,115.3136805,https://maps.google.com/?cid=0x0:0xfaad6e2e84ac86aa,
supermarket,Toko Kelontong Asia,Warung Pojok Tegal Tugu,"Jl. Ratna IV No.3, Tegal Tugu, Kec. Gianyar, Kabupaten Gianyar, Bali 80515","Tegal Tugu, Kec. Gianyar, Kabupaten Gianyar",BALI,80515.0,Indonesia,87862366448.0,,,-8.5482194,115.3334892,https://maps.google.com/?cid=0x0:0x939436053cd871f8,
supermarket,Minimarket,Alfamart PATIH JELANTIK Gianyar,"Jl. Patih Jelantik-Gianyar No.Kel, Beng, Kec. Gianyar, Kab. Gianyar, Bali 80513","Beng, Kec. Gianyar, Kab. Gianyar",BALI,80513.0,Indonesia,1500959.0,,,-8.53574,115.32475,https://maps.google.com/?cid=0x0:0xbaff79523137a37a,
supermarket,Toko,Napura Minimart,"F8J3+74W, Pejeng Kelod, Kec. Tampaksiring, Kabupaten Gianyar, Bali 80552","Pejeng Kelod, Kec. Tampaksiring, Kabupaten Gianyar",BALI,80552.0,Indonesia,,,,-8.5192571,115.3028172,https://maps.google.com/?cid=0x0:0x50f8f1aa991b8038,
supermarket,Toko bahan makanan,WarungSurya,"F8XC+XRP, Jl. Triwanisa-kawan, Bakbakan, Kec. Gianyar, Kabupaten Gianyar, Bali 80515","Jl. Triwanisa-kawan, Bakbakan, Kec. Gianyar, Kabupaten Gianyar",BALI,80515.0,Indonesia,,,,-8.5000079,115.3222049,https://maps.google.com/?cid=0x0:0x9a722d45a38f11e2,
supermarket,Minimarket,Alfamart Dharmagiri,"Jl. By Pass Ngurah Rai Darmagiri Link.Candi Baru No.Kel, Gianyar, Kec. Gianyar, Kab. Gianyar, Bali 80511","Gianyar, Kec. Gianyar, Kab. Gianyar",BALI,80511.0,Indonesia,1500959.0,,,-8.5409754,115.3215766,https://maps.google.com/?cid=0x0:0x363298d319b97266,
supermarket,Toko,Toko Sari Dana,"F84H+RCF, Jl. Pudak, Gianyar, Kec. Gianyar, Kabupaten Gianyar, Bali 80511","Jl. Pudak, Gianyar, Kec. Gianyar, Kabupaten Gianyar",BALI,80511.0,Indonesia,,,,-8.5429345,115.3285498,https://maps.google.com/?cid=0x0:0x569ccc543d334833,
supermarket,Toko Swalayan,Toko Yadnya Puri Pekandelan,"F7QV+354, Jl. Raya Dr. Ir. Sukarno, Pejeng, Kec. Tampaksiring, Kabupaten Gianyar, Bali 80552","Jl. Raya Dr. Ir. Sukarno, Pejeng, Kec. Tampaksiring, Kabupaten Gianyar",BALI,80552.0,Indonesia,,,,-8.5123543,115.2929447,https://maps.google.com/?cid=0x0:0x7eb0b587c4140143,
supermarket,Toko bahan makanan,SRC MELATI,"Jl. Anusapati No.25, Gianyar, Kec. Gianyar, Kabupaten Gianyar, Bali 80515","Gianyar, Kec. Gianyar, Kabupaten Gianyar",BALI,80515.0,Indonesia,81999169032.0,,,-8.5431315,115.3187009,https://maps.google.com/?cid=0x0:0xa70e82ee12ea8c0a,
supermarket,Minimarket,Indomaret Sidan,"Jl. Sidan-Astina Timur No.125-126, Sidan, Kec. Gianyar, Kabupaten Gianyar, Bali 80515","Sidan, Kec. Gianyar, Kabupaten Gianyar",BALI,80515.0,Indonesia,,,,-8.5313124,115.3485972,https://maps.google.com/?cid=0x0:0x43104cf0f5755de3,
supermarket,Toko Alat Tulis,Nadhi Mart Gianyar,"Jl. Raya Jl. Dharma Giri No.97A, Bitera, Kec. Gianyar, Kabupaten Gianyar, Bali 80515","Bitera, Kec. Gianyar, Kabupaten Gianyar",BALI,80515.0,Indonesia,89602766717.0,,,-8.5416042,115.3143113,https://maps.google.com/?cid=0x0:0xab3154da8ac77dba,
supermarket,Pasar,Pasar Payangan,"Unnamed Road, Melinggih, Kec. Payangan, Kabupaten Gianyar, Bali 80572","Melinggih, Kec. Payangan, Kabupaten Gianyar",BALI,80572.0,Indonesia,,,,-8.4329974,115.2449569,https://maps.google.com/?cid=0x0:0xab35b1a2ba67836,
supermarket,supermarket,Bali 80572,"Kec. Payangan, Kabupaten Gianyar, Bali","Kabupaten Gianyar, Bali",BALI,,Indonesia,,,,-8.3752579,115.2481959,https://maps.google.com/?cid=0x0:0x1c00c5eb6016bee0,
supermarket,Toko bahan makanan,Indomaret Payangan,"Jl. Raya Payangan No.27, Melinggih, Kec. Payangan, Kabupaten Gianyar, Bali 80572","Melinggih, Kec. Payangan, Kabupaten Gianyar",BALI,80572.0,Indonesia,,,,-8.4356847,115.2449905,https://maps.google.com/?cid=0x0:0x82ca75577a4ef18b,
supermarket,Toko Swalayan,Rama Sita,"Jalan Raya, Melinggih, Payangan, Gianyar Regency, Bali 80572","Melinggih, Payangan, Gianyar Regency",BALI,80572.0,Indonesia,81999290280.0,,,-8.4304267,115.2455175,https://maps.google.com/?cid=0x0:0xd26f31a6bd480f3a,
supermarket,supermarket,Sukawati,"Guwang, Kec. Sukawati, Kabupaten Gianyar, Bali","Kabupaten Gianyar, Bali",BALI,,Indonesia,,,,-8.605564,115.280502,https://maps.google.com/?cid=0x0:0x3d33c5a58391e773,
supermarket,Pasar,Sukawati market 2,"97WJ+669, Jl. Dasarata, Guwang, Kec. Sukawati, Kabupaten Gianyar, Bali 80582","Jl. Dasarata, Guwang, Kec. Sukawati, Kabupaten Gianyar",BALI,80582.0,Indonesia,,,,-8.6044552,115.2806095,https://maps.google.com/?cid=0x0:0x7343a621298a4389,
supermarket,Pasar tradisional,Pasar sukawati,"Jl. Raya Sukawati No.88, Sukawati, Kec. Sukawati, Kabupaten Gianyar, Bali 80582","Sukawati, Kec. Sukawati, Kabupaten Gianyar",BALI,80582.0,Indonesia,,,,-8.5987209,115.2827933,https://maps.google.com/?cid=0x0:0x2cd2daefacfa02bd,
supermarket,Toko Suvenir,CENING BAGUS,"Jl. Raya Singapadu No.99x, Batubulan, Kec. Sukawati, Kabupaten Gianyar, Bali 80582","Batubulan, Kec. Sukawati, Kabupaten Gianyar",BALI,80582.0,Indonesia,87860077000.0,,,-8.6017245,115.2531114,https://maps.google.com/?cid=0x0:0x54f131844150f8ec,
supermarket,Pasar tradisional,Pasar Seni Sukawati (Sukawati Art Market),"Jalan Raya Sukawati, Sukawati, Kec. Sukawati, Kabupaten Gianyar, Bali 80582","Sukawati, Kec. Sukawati, Kabupaten Gianyar",BALI,80582.0,Indonesia,,,,-8.5965307,115.2826055,https://maps.google.com/?cid=0x0:0x960eaffe9f543e3c,
supermarket,Pasar,Pasar Seni Guwang,"Jl. Dasarata, Guwang, Kec. Sukawati, Kabupaten Gianyar, Bali 80582","Guwang, Kec. Sukawati, Kabupaten Gianyar",BALI,80582.0,Indonesia,,,,-8.6046614,115.2803416,https://maps.google.com/?cid=0x0:0xafbf00022a3033a9,
supermarket,Toko Swalayan,Gudang,"97QQ+MWV Wantilan Jabe Pure Dalem, Guwang, Kec. Sukawati, Kabupaten Gianyar, Bali 80582","Guwang, Kec. Sukawati, Kabupaten Gianyar",BALI,80582.0,Indonesia,,,,-8.6108823,115.2899835,https://maps.google.com/?cid=0x0:0x76dc3d630628ad0c,
supermarket,Toko bahan makanan,Bagus market,"Jl. Raya Singapadu No.87 No. Индонезия, Singapadu, Kec. Sukawati, Kabupaten Gianyar, Bali 80582","Singapadu, Kec. Sukawati, Kabupaten Gianyar",BALI,80582.0,Indonesia,,,,-8.6003543,115.2543292,https://maps.google.com/?cid=0x0:0x3d9b3b49070d9d9d,
supermarket,Pasar,Sukawati Street Market,"C73J+GXC Komplek Pasar Seni Sukawati, Jl. Lettu Wayan Sutha, Sukawati, Kec. Sukawati, Kabupaten Gianyar, Bali 80582","Jl. Lettu Wayan Sutha, Sukawati, Kec. Sukawati, Kabupaten Gianyar",BALI,80582.0,Indonesia,,,,-8.5962535,115.281726,https://maps.google.com/?cid=0x0:0x91a017da07a2d379,
supermarket,Toko Swalayan,Toko Wijaya jln.raya Sukawati Gianyar Bali,"Br.peninjoan, Jl. Raya Sukawati, Batuan, Kec. Sukawati, Kabupaten Gianyar, Bali 80582","Jl. Raya Sukawati, Batuan, Kec. Sukawati, Kabupaten Gianyar",BALI,80582.0,Indonesia,,,,-8.5879265,115.2818003,https://maps.google.com/?cid=0x0:0x4b6959299cf5e9a1,
supermarket,Toko bahan makanan,Pasar Umum Sukawati,"Jl. Raya Sukawati No.75X, Sukawati, Kec. Sukawati, Kabupaten Gianyar, Bali 80582","Sukawati, Kec. Sukawati, Kabupaten Gianyar",BALI,80582.0,Indonesia,,,,-8.5961357,115.2834171,https://maps.google.com/?cid=0x0:0xc4c7ab14f436a7fb,
supermarket,Toko Swalayan,Indomaret Sukawati,"C74M+G29, Jl. Raya Sukawati, Sukawati, Kec. Sukawati, Kabupaten Gianyar, Bali 80582","Jl. Raya Sukawati, Sukawati, Kec. Sukawati, Kabupaten Gianyar",BALI,80582.0,Indonesia,,,,-8.593721,115.2826048,https://maps.google.com/?cid=0x0:0x3bc0fef1f82b9a69,
supermarket,Minimarket,Daily Mart Singapadu,"Jl. Raya Singapadu, Singapadu, Kec. Sukawati, Kabupaten Gianyar, Bali 80582","Singapadu, Kec. Sukawati, Kabupaten Gianyar",BALI,80582.0,Indonesia,81337993164.0,,,-8.5923067,115.2631691,https://maps.google.com/?cid=0x0:0xb93d5985fd512d14,
supermarket,Pasar tradisional,Pasar Wisata Sukawati Bali,"No., Jl. Raya Sukawati No.75X, Sukawati, Kec. Sukawati, Kabupaten Gianyar, Bali 80582","Jl. Raya Sukawati No.75X, Sukawati, Kec. Sukawati, Kabupaten Gianyar",BALI,80582.0,Indonesia,,,,-8.5949625,115.2828701,https://maps.google.com/?cid=0x0:0x8a2627dc19a5600d,
supermarket,Toko Swalayan,Delta Dewata Supermarket,"Jl. Raya Andong No.14, Peliatan, Kec. Gianyar, Kabupaten Gianyar, Bali 80571","Peliatan, Kec. Gianyar, Kabupaten Gianyar",BALI,80571.0,Indonesia,361973049.0,,,-8.507746,115.2709277,https://maps.google.com/?cid=0x0:0x64e2d870df24424,
supermarket,Eksportir,Coconut Asia,"BR. TELABAH, RT/RW 000/000, Sukawati, Kec. Sukawati, Kabupaten Gianyar, Bali 80582","RT/RW 000/000, Sukawati, Kec. Sukawati, Kabupaten Gianyar",BALI,80582.0,Indonesia,89654630416.0,,,-8.6055636,115.2805295,https://maps.google.com/?cid=0x0:0x9ff1f6299a08fa3f,
supermarket,Toko Suvenir,Dek Nis Art,"97VJ+Q3H, banjar Silakarang, Sukawati, Guwang, Gianyar, Kabupaten Gianyar, Bali 80582","banjar Silakarang, Sukawati, Guwang, Gianyar, Kabupaten Gianyar",BALI,80582.0,Indonesia,361980575.0,,,-8.605569,115.2802491,https://maps.google.com/?cid=0x0:0xa21a33189f6489b4,
supermarket,Toko Suvenir,I Ketut Teler,"97VJ+V7W, Mangku Dalem, Br. Babakan, Sukawati, Guwang, Gianyar, Kabupaten Gianyar, Bali 80582","Mangku Dalem, Br. Babakan, Sukawati, Guwang, Gianyar, Kabupaten Gianyar",BALI,80582.0,Indonesia,361299096.0,,,-8.6052727,115.2806995,https://maps.google.com/?cid=0x0:0x6ba866e890efc738,
supermarket,Toko Swalayan,Coco Supermarket Ubud,"Jalan Raya Pengosekan, Ubud, Kecamatan Ubud, Kabupaten Gianyar, Bali 80571","Ubud, Kecamatan Ubud, Kabupaten Gianyar",BALI,80571.0,Indonesia,8563717787.0,,,-8.5179768,115.2635727,https://maps.google.com/?cid=0x0:0x983ca314a2c63faf,
supermarket,Toko Ponsel,Mia Cell,"97VJ+Q6H, Jl. Raya Guwang, Celuk, Kec. Sukawati, Kabupaten Gianyar, Bali 80582","Jl. Raya Guwang, Celuk, Kec. Sukawati, Kabupaten Gianyar",BALI,80582.0,Indonesia,87752007054.0,,,-8.6055716,115.280597,https://maps.google.com/?cid=0x0:0xe75e529c76aef06a,
supermarket,Pasar,Pasar Seni Bali,"Pasar Seni Pagi Grosir, JL. Letnan satu Wayan Sutha I, No. 100x - 101x, Gianyar, Sukawati, Kec. Sukawati, Kabupaten Gianyar, Bali 80582","JL. Letnan satu Wayan Sutha I, No. 100x - 101x, Gianyar, Sukawati, Kec. Sukawati, Kabupaten Gianyar",BALI,80582.0,Indonesia,3618710976.0,,,-8.5963068,115.281346,https://maps.google.com/?cid=0x0:0xc1dd9b0d29ec419e,
supermarket,Toko Pakaian,Dewata Store A7X,"978M+892, Gg. Belimbing Sari, Ketewel, Kec. Sukawati, Kabupaten Gianyar, Bali 80582","Gg. Belimbing Sari, Ketewel, Kec. Sukawati, Kabupaten Gianyar",BALI,80582.0,Indonesia,81238272001.0,,,-8.6342262,115.2833985,https://maps.google.com/?cid=0x0:0xbc961d793d190f7e,
supermarket,Minimarket,Alfamart Singapadu 2,"Br Kutri, Jl. Raya Singapadu, Singapadu Tengah, Kec. Sukawati, Kab. Gianyar, Bali 80582","Jl. Raya Singapadu, Singapadu Tengah, Kec. Sukawati, Kab. Gianyar",BALI,80582.0,Indonesia,1500959.0,,,-8.5826581,115.2556389,https://maps.google.com/?cid=0x0:0x21ebbe3cad45c320,
supermarket,Minimarket,KING MART,"Jl. Pasekan No.9, Batubulan, Kec. Sukawati, Kabupaten Gianyar, Bali 80582","Batubulan, Kec. Sukawati, Kabupaten Gianyar",BALI,80582.0,Indonesia,85961165906.0,,,-8.6189976,115.2587733,https://maps.google.com/?cid=0x0:0xcf5cd6725193806c,
supermarket,Pusat Perbelanjaan,Bagus Supermarket Sasih,"9769+2F4, Batubulan, Kec. Sukawati, Kabupaten Gianyar, Bali 80237","Batubulan, Kec. Sukawati, Kabupaten Gianyar",BALI,80237.0,Indonesia,,,,-8.6399827,115.2686998,https://maps.google.com/?cid=0x0:0x7cc63a6e1e5a414d,
supermarket,Toko Suvenir,Cening Bagus,"Jl. Raya Batubulan No.100X, Batubulan, Kec. Sukawati, Kabupaten Gianyar, Bali 80361","Batubulan, Kec. Sukawati, Kabupaten Gianyar",BALI,80361.0,Indonesia,361292308.0,,,-8.6260119,115.2573129,https://maps.google.com/?cid=0x0:0xd48abc907f89ecc7,
supermarket,Toko Bahan Bangunan,KAK BABE pasir koral dlll,"97VJ+Q6R, Br tegal, Guwang, Kec. Sukawati, Kabupaten Gianyar, Bali 80582","Br tegal, Guwang, Kec. Sukawati, Kabupaten Gianyar",BALI,80582.0,Indonesia,,,,-8.6055167,115.2805289,https://maps.google.com/?cid=0x0:0xf7c565f1d394349d,
supermarket,Pasar,Pasar Tampaksiring,"Jl. Pertiwi Brata No.200, Tampaksiring, Kec. Tampaksiring, Kabupaten Gianyar, Bali 80552","Tampaksiring, Kec. Tampaksiring, Kabupaten Gianyar",BALI,80552.0,Indonesia,,,,-8.4301082,115.3079087,https://maps.google.com/?cid=0x0:0xff53bb882f7bda2f,
supermarket,supermarket,Tampaksiring,"Kec. Tampaksiring, Kabupaten Gianyar, Bali","Kabupaten Gianyar, Bali",BALI,,Indonesia,,,,-8.4390082,115.3104277,https://maps.google.com/?cid=0x0:0x1800e8dbac4d3f48,
supermarket,Toko bahan makanan,Lotus Mart,"H8H5+JHM, Jl. Dr. Ir. Soekarno, Tampaksiring, Kec. Tampaksiring, Kabupaten Gianyar, Bali 80552","Jl. Dr. Ir. Soekarno, Tampaksiring, Kec. Tampaksiring, Kabupaten Gianyar",BALI,80552.0,Indonesia,,,,-8.4209128,115.3089243,https://maps.google.com/?cid=0x0:0xa30fcd87330b6a4e,
supermarket,Minimarket,Tria Mart,"jl.ir suekarno, Sanding, Kec. Tampaksiring, Kabupaten Gianyar, Bali 80552","Sanding, Kec. Tampaksiring, Kabupaten Gianyar",BALI,80552.0,Indonesia,8123926138.0,,,-8.4683088,115.2941194,https://maps.google.com/?cid=0x0:0x359bd76f44f3e1a6,
supermarket,Minimarket,Alfamart,"Jl. Raya Tampaksiring, Tampaksiring, Kec. Tampaksiring, Kab. Gianyar, Bali 80552","Tampaksiring, Kec. Tampaksiring, Kab. Gianyar",BALI,80552.0,Indonesia,1500959.0,,,-8.4382718,115.3078964,https://maps.google.com/?cid=0x0:0xf264ed5aeb40dc1c,
supermarket,Toko Kelontong Asia,Sri asih,"G7JV+CM3, Jl. Raya Pejeng Tampaksiring, Sanding, Kec. Tampaksiring, Kabupaten Gianyar, Bali 80552","Jl. Raya Pejeng Tampaksiring, Sanding, Kec. Tampaksiring, Kabupaten Gianyar",BALI,80552.0,Indonesia,,,,-8.468977,115.294177,https://maps.google.com/?cid=0x0:0x3ec25dffa9052562,
supermarket,Minimarket,Indomaret,"H8P6+RC4, Jl. Dr. Ir. Soekarno, Manukaya, Kec. Tampaksiring, Kabupaten Gianyar, Bali 80552","Jl. Dr. Ir. Soekarno, Manukaya, Kec. Tampaksiring, Kabupaten Gianyar",BALI,80552.0,Indonesia,,,,-8.4129758,115.3110934,https://maps.google.com/?cid=0x0:0xe4a16245cbb2b057,
supermarket,Toko bahan makanan,DESAK WARUNG,"H853+487, Tampaksiring, Kec. Tampaksiring, Kabupaten Gianyar, Bali 80552","Tampaksiring, Kec. Tampaksiring, Kabupaten Gianyar",BALI,80552.0,Indonesia,87861508662.0,,,-8.4422085,115.3032973,https://maps.google.com/?cid=0x0:0xe55535949791c242,
supermarket,Toko Swalayan,TRIN MART,"H873+PPF, Tampaksiring, Kec. Gianyar, Kabupaten Gianyar, Bali","Kabupaten Gianyar, Bali",BALI,,Indonesia,,,,-8.4356875,115.3042969,https://maps.google.com/?cid=0x0:0xa2ce2cd354ca7122,
supermarket,Toko bahan makanan,Warung Wirya,"H8H6+M58, Jl. Drupadi, Tampaksiring, Kec. Tampaksiring, Kabupaten Gianyar, Bali 80552","Jl. Drupadi, Tampaksiring, Kec. Tampaksiring, Kabupaten Gianyar",BALI,80552.0,Indonesia,,,,-8.4208317,115.310445,https://maps.google.com/?cid=0x0:0xf5ba4af38f379cd3,
supermarket,Toko bahan makanan,warung didik,"Jl. Pejeng Kaja - Tampak Siring No.18, Sanding, Kec. Tampaksiring, Kabupaten Gianyar, Bali 80552","Sanding, Kec. Tampaksiring, Kabupaten Gianyar",BALI,80552.0,Indonesia,81936250660.0,,,-8.4548904,115.3045864,https://maps.google.com/?cid=0x0:0x682c7a295fd4f3db,
supermarket,Kafe,Sukabali Agro,"H8M8+33R, Jl. Tirta, Manukaya, Kec. Tampaksiring, Kabupaten Gianyar, Bali 80552","Jl. Tirta, Manukaya, Kec. Tampaksiring, Kabupaten Gianyar",BALI,80552.0,Indonesia,,,,-8.4177043,115.3149851,https://maps.google.com/?cid=0x0:0x24ca9391f6055e01,
supermarket,Toko bahan makanan,Warung Bu Mar,"Jl. Pertiwi Brata, Tampaksiring, Kec. Tampaksiring, Kabupaten Gianyar, Bali 80552","Tampaksiring, Kec. Tampaksiring, Kabupaten Gianyar",BALI,80552.0,Indonesia,81936009259.0,,,-8.4270948,115.3105628,https://maps.google.com/?cid=0x0:0x3f2d9cd9bb25955e,
supermarket,Toko Suvenir,TOKO SARI NADI,"H8H5+PFH, Jl. Dr. Ir. Soekarno, Tampaksiring, Kec. Tampaksiring, Kabupaten Gianyar, Bali 80552","Jl. Dr. Ir. Soekarno, Tampaksiring, Kec. Tampaksiring, Kabupaten Gianyar",BALI,80552.0,Indonesia,361901425.0,,,-8.420686,115.308719,https://maps.google.com/?cid=0x0:0xda0db4475ee2ac66,
supermarket,Toko bahan makanan,Toko Sri Arta,"H8C5+387, Jalan Dr. Ir. Soekarno, Pasar, Tampaksiring, Kec. Tampaksiring, Kabupaten Gianyar, Bali 80552","Jalan Dr. Ir. Soekarno, Pasar, Tampaksiring, Kec. Tampaksiring, Kabupaten Gianyar",BALI,80552.0,Indonesia,87861579051.0,,,-8.4298275,115.3083012,https://maps.google.com/?cid=0x0:0x5d5e64a0a0aee661,
supermarket,Toko bahan makanan,Umamart,"H874+GQV, Jl. Astinapura Sel., Tampaksiring, Kec. Tampaksiring, Kabupaten Gianyar, Bali 80552","Jl. Astinapura Sel., Tampaksiring, Kec. Tampaksiring, Kabupaten Gianyar",BALI,80552.0,Indonesia,81353917757.0,,,-8.435897,115.3067691,https://maps.google.com/?cid=0x0:0x355c1d061d50a445,
supermarket,Toko Swalayan,Warung Peace Love 2,"G8X7+J2R, Tampaksiring, Kec. Tampaksiring, Kabupaten Gianyar, Bali 80515","Tampaksiring, Kec. Tampaksiring, Kabupaten Gianyar",BALI,80515.0,Indonesia,,,,-8.450856,115.3125567,https://maps.google.com/?cid=0x0:0x5ee8fcb6040e9f3a,
supermarket,Toko,Toko Sari Gumi,"H894+XMV, Jl. Kamera Brata, Tampaksiring, Kecamatan Ubud, Kabupaten Gianyar, Bali 80552","Jl. Kamera Brata, Tampaksiring, Kecamatan Ubud, Kabupaten Gianyar",BALI,80552.0,Indonesia,81236235523.0,,,-8.4300152,115.3066769,https://maps.google.com/?cid=0x0:0xc56b18245eeb676d,
supermarket,Minimarket,Ayu Ananta Mart,"H894+JXX, Jl. Pejeng Kaja - Tampak Siring, Tampaksiring, Kec. Tampaksiring, Kabupaten Gianyar, Bali 80552","Jl. Pejeng Kaja - Tampak Siring, Tampaksiring, Kec. Tampaksiring, Kabupaten Gianyar",BALI,80552.0,Indonesia,87861597651.0,,,-8.4308927,115.307487,https://maps.google.com/?cid=0x0:0x35116951ab24d851,
supermarket,Minimarket,Alfamart Pejeng,"Jl. Pejeng Kaja - Tampak Siring, Pejeng Kaja, Kec. Tampaksiring, Kab. Gianyar, Bali 80552","Pejeng Kaja, Kec. Tampaksiring, Kab. Gianyar",BALI,80552.0,Indonesia,1500959.0,,,-8.4757222,115.2926175,https://maps.google.com/?cid=0x0:0x6ba4e591b61026bb,
supermarket,Toko grosir,Toko Sai Sai Mai grosir,"Jl. Tampaksiring No.16, Manukaya, Kec. Tampaksiring, Kabupaten Gianyar, Bali 80552","Manukaya, Kec. Tampaksiring, Kabupaten Gianyar",BALI,80552.0,Indonesia,81236020106.0,,,-8.4060553,115.3231523,https://maps.google.com/?cid=0x0:0xe4e7eb460645129,
supermarket,supermarket,Bali 80552,"Kec. Tampaksiring, Kabupaten Gianyar, Bali","Kabupaten Gianyar, Bali",BALI,,Indonesia,,,,-8.4362857,115.3133908,https://maps.google.com/?cid=0x0:0x1c00c5eb6016beb0,
supermarket,Toko bahan makanan,Toko Buah Agung Fresh,"H894+XX7, Jl. Dr. Ir. Soekarno, Tampaksiring, Kec. Tampaksiring, Kabupaten Gianyar, Bali 80552","Jl. Dr. Ir. Soekarno, Tampaksiring, Kec. Tampaksiring, Kabupaten Gianyar",BALI,80552.0,Indonesia,85953927224.0,,,-8.4300892,115.3074318,https://maps.google.com/?cid=0x0:0x7e37c7966c583d12,
supermarket,Toko Buah dan Sayur,NC Fresh,"Jl. Dr. Ir. Soekarno, Tampaksiring, Kec. Tampaksiring, Kabupaten Gianyar, Bali 80552","Tampaksiring, Kec. Tampaksiring, Kabupaten Gianyar",BALI,80552.0,Indonesia,81918057543.0,,,-8.4297225,115.3075104,https://maps.google.com/?cid=0x0:0xcf8513764674112,
supermarket,Toko bahan makanan,Warung Buk Sarmi,"H8MC+VG7, Jalan Manik, Tawang, Manukaya, Tampaksiring, Gianyar Regency, Bali 80552","Jalan Manik, Tawang, Manukaya, Tampaksiring, Gianyar Regency",BALI,80552.0,Indonesia,,,,-8.4153309,115.3213104,https://maps.google.com/?cid=0x0:0x5da45d27f59b3620,
supermarket,supermarket,Bali 80561,"Kec. Tegallalang, Kabupaten Gianyar, Bali","Kabupaten Gianyar, Bali",BALI,,Indonesia,,,,-8.3921715,115.2956118,https://maps.google.com/?cid=0x0:0x1c00c5eb6016bec0,
supermarket,Minimarket,LONDON MART,"Jl. Raya Pujung Kaja, Sebatu, Kec. Tegallalang, Kabupaten Gianyar, Bali 80561","Sebatu, Kec. Tegallalang, Kabupaten Gianyar",BALI,80561.0,Indonesia,361901449.0,,,-8.4271945,115.2788116,https://maps.google.com/?cid=0x0:0x374a33e33168e0dc,
supermarket,,Toko Murah,"H7XQ+F84, Jl. Raya Pujung Kaja, Sebatu, Kec. Tegallalang, Kabupaten Gianyar, Bali 80561","Jl. Raya Pujung Kaja, Sebatu, Kec. Tegallalang, Kabupaten Gianyar",BALI,80561.0,Indonesia,361901180.0,,,-8.4013619,115.2883408,https://maps.google.com/?cid=0x0:0x22765ce66a04dbb3,
supermarket,Toko bahan makanan,Lumbung Asri Mart,"H7CW+5GV, Jl. Raya Desa Kenderan, Kenderan, Kec. Tegallalang, Kabupaten Gianyar, Bali 80561","Jl. Raya Desa Kenderan, Kenderan, Kec. Tegallalang, Kabupaten Gianyar",BALI,80561.0,Indonesia,83115993548.0,,,-8.429513,115.2963055,https://maps.google.com/?cid=0x0:0xc60e5523aae297af,
supermarket,Toko Kelontong Asia,Toko Raditya,"Jl. Raya Tegallalang No.184, Tegallalang, Kec. Tegallalang, Kabupaten Gianyar, Bali 80561","Tegallalang, Kec. Tegallalang, Kabupaten Gianyar",BALI,80561.0,Indonesia,361981112.0,,,-8.4493428,115.2802334,https://maps.google.com/?cid=0x0:0x5a3a77aed37bac03,
supermarket,Minimarket,Mini Mart,"G7M8+534, Tegallalang, Kec. Tegallalang, Kabupaten Gianyar, Bali 80571","Tegallalang, Kec. Tegallalang, Kabupaten Gianyar",BALI,80571.0,Indonesia,,,,-8.4671183,115.2652084,https://maps.google.com/?cid=0x0:0xabe11b115312774e,
supermarket,Minimarket,Alfamart Sapat,"Jl. Raya Tegallalang No.Br, Sapat, Kec. Tegallalang, Kab. Gianyar, Bali 80561","Sapat, Kec. Tegallalang, Kab. Gianyar",BALI,80561.0,Indonesia,211500959.0,,,-8.4657707,115.2763438,https://maps.google.com/?cid=0x0:0x2e243206bd751a5,
supermarket,Toko Kelontong India,Grocery store,"G7QF+4GG, Tegallalang, Kec. Tegallalang, Kabupaten Gianyar, Bali 80561","Tegallalang, Kec. Tegallalang, Kabupaten Gianyar",BALI,80561.0,Indonesia,,,,-8.4621824,115.2738326,https://maps.google.com/?cid=0x0:0xe592a2ea777788b4,
supermarket,Minimarket,W Mart,"H7WR+H5V, Jl. Raya Pujung Kaja, Sebatu, Kec. Tegallalang, Kabupaten Gianyar, Bali 80561","Jl. Raya Pujung Kaja, Sebatu, Kec. Tegallalang, Kabupaten Gianyar",BALI,80561.0,Indonesia,85792661524.0,,,-8.4035081,115.2904063,https://maps.google.com/?cid=0x0:0xf60ab6c640614f14,
supermarket,Toko Swalayan,BUANA SARI,"Jl. Br Jasan No.23, Sebatu, Kec. Tegallalang, Kabupaten Gianyar, Bali 80561","Sebatu, Kec. Tegallalang, Kabupaten Gianyar",BALI,80561.0,Indonesia,81337375015.0,,,-8.379391,115.302296,https://maps.google.com/?cid=0x0:0xf9fb86361772187e,
supermarket,Toko bahan makanan,TD Mart,"Sebatu, Kec. Tegallalang, Kabupaten Gianyar, Bali 80561","Kec. Tegallalang, Kabupaten Gianyar",BALI,80561.0,Indonesia,361901896.0,,,-8.4021298,115.2951999,https://maps.google.com/?cid=0x0:0xec876df58ba28ba2,
supermarket,Toko bahan makanan,SUKA AMERTA,"PUJUNG KELOD, Kec. Tegallalang, Kabupaten Gianyar, Bali 80561","Kec. Tegallalang, Kabupaten Gianyar",BALI,80561.0,Indonesia,,,,-8.4225746,115.2792793,https://maps.google.com/?cid=0x0:0xa59433b52172f98c,
supermarket,Toko Swalayan,Toko aura,"H78M+52P, Unnamed Rd, Kedisan, Kec. Tegallalang, Kabupaten Gianyar, Bali 80561","Unnamed Rd, Kedisan, Kec. Tegallalang, Kabupaten Gianyar",BALI,80561.0,Indonesia,8123677070.0,,,-8.4345402,115.282588,https://maps.google.com/?cid=0x0:0x566ddf802c55548a,
supermarket,Toko bahan makanan,Baphomet store,"H7WR+2M4, Sebatu, Kec. Tegallalang, Kabupaten Gianyar, Bali 80561","Sebatu, Kec. Tegallalang, Kabupaten Gianyar",BALI,80561.0,Indonesia,85737147022.0,,,-8.4049861,115.2917085,https://maps.google.com/?cid=0x0:0x94b98d7681897e52,
supermarket,Toko bahan makanan,Sri Wangi Shop,"G7XH+7WC, Tegallalang, Kec. Tegallalang, Kabupaten Gianyar, Bali 80561","Tegallalang, Kec. Tegallalang, Kabupaten Gianyar",BALI,80561.0,Indonesia,87861335010.0,,,-8.4518133,115.2797759,https://maps.google.com/?cid=0x0:0x8a5d5f9bf4a84add,
supermarket,Toko Swalayan,Coco Supermarket Ubud,"Jalan Raya Pengosekan, Ubud, Kecamatan Ubud, Kabupaten Gianyar, Bali 80571","Ubud, Kecamatan Ubud, Kabupaten Gianyar",BALI,80571.0,Indonesia,8563717787.0,,,-8.5179768,115.2635727,https://maps.google.com/?cid=0x0:0x983ca314a2c63faf,
supermarket,Toko bahan makanan,Coconut Bali,"J8F5+H7J Tangkup Waterfall parking, Pupuan, Kec. Tegallalang, Kabupaten Gianyar, Bali 80561","Pupuan, Kec. Tegallalang, Kabupaten Gianyar",BALI,80561.0,Indonesia,81999160991.0,,,-8.3778614,115.3080767,https://maps.google.com/?cid=0x0:0xf4a3d2e47def1ada,
supermarket,Toko bahan makanan,Capung mart,"Jl. Uma Kelod, Sebatu, Kec. Tegallalang, Kabupaten Gianyar, Bali 80561","Sebatu, Kec. Tegallalang, Kabupaten Gianyar",BALI,80561.0,Indonesia,87758187070.0,,,-8.4077151,115.2977214,https://maps.google.com/?cid=0x0:0x8badb94d937c7b86,
supermarket,Toko bahan makanan,warung dutta BR.triwangsa Tegallalang,"G7XJ+P32, Tegallalang, Kec. Tegallalang, Kabupaten Gianyar, Bali 80561","Tegallalang, Kec. Tegallalang, Kabupaten Gianyar",BALI,80561.0,Indonesia,81805603643.0,,,-8.4507461,115.2801252,https://maps.google.com/?cid=0x0:0x2899ca7d24a3e239,
supermarket,Minimarket,Alfamart Tegallalang,"Jl. Raya Tegallalang No.184, Tegallalang, Kec. Tegallalang, Kabupaten Gianyar, Bali 80561","Tegallalang, Kec. Tegallalang, Kabupaten Gianyar",BALI,80561.0,Indonesia,,,,-8.4538126,115.2794692,https://maps.google.com/?cid=0x0:0x40a349dba3c86ef0,
supermarket,Toko Swalayan,Delta Dewata Supermarket,"Jl. Raya Andong No.14, Peliatan, Kec. Gianyar, Kabupaten Gianyar, Bali 80571","Peliatan, Kec. Gianyar, Kabupaten Gianyar",BALI,80571.0,Indonesia,361973049.0,,,-8.507746,115.2709277,https://maps.google.com/?cid=0x0:0x64e2d870df24424,
supermarket,Toko bahan makanan,Inna Mart Eceran  Grosir,"J8H4+HFM, Jl. Br Jasan, Sebatu, Kec. Tegallalang, Kabupaten Gianyar, Bali 80561","Jl. Br Jasan, Sebatu, Kec. Tegallalang, Kabupaten Gianyar",BALI,80561.0,Indonesia,,,,-8.3710281,115.3061808,https://maps.google.com/?cid=0x0:0xcb38deccc912b4,
supermarket,Toko bahan makanan,WEDA MART,"G7XJ+Q23, Jalan Raya Tegalalang, Banjar Triwangsa,Tegalalang, Tegallalang, Kec. Tegallalang, Kabupaten Gianyar, Bali 80561","Jalan Raya Tegalalang, Banjar Triwangsa,Tegalalang, Tegallalang, Kec. Tegallalang, Kabupaten Gianyar",BALI,80561.0,Indonesia,81338580242.0,,,-8.4506096,115.2800449,https://maps.google.com/?cid=0x0:0xf86a1a34206e1014,
supermarket,supermarket,Ubud,"Ubud, Kecamatan Ubud, Kabupaten Gianyar, Bali","Kabupaten Gianyar, Bali",BALI,,Indonesia,,,,-8.5068536,115.2624778,https://maps.google.com/?cid=0x0:0x54a38afd6b773d1c,
supermarket,Toko Swalayan,Bintang Supermarket Ubud,"Jl. Raya Sanggingan No.45, Sayan, Kecamatan Ubud, Kabupaten Gianyar, Bali 80515","Sayan, Kecamatan Ubud, Kabupaten Gianyar",BALI,80515.0,Indonesia,361972972.0,,,-8.4997384,115.2523733,https://maps.google.com/?cid=0x0:0xedf5038642b75298,
supermarket,Toko Swalayan,Coco Supermarket Ubud,"Jalan Raya Pengosekan, Ubud, Kecamatan Ubud, Kabupaten Gianyar, Bali 80571","Ubud, Kecamatan Ubud, Kabupaten Gianyar",BALI,80571.0,Indonesia,8563717787.0,,,-8.5179768,115.2635727,https://maps.google.com/?cid=0x0:0x983ca314a2c63faf,
supermarket,Toko Swalayan,Pepito Market Peliatan,"Jl. Made Lebah No.36, Mas, Kecamatan Ubud, Kabupaten Gianyar, Bali 80571","Mas, Kecamatan Ubud, Kabupaten Gianyar",BALI,80571.0,Indonesia,87800176113.0,,,-8.5244181,115.2649381,https://maps.google.com/?cid=0x0:0xa8f4be3d912a2348,
supermarket,Minimarket,Indomaret Fresh Pengosekan,"Jalan Raya Pengosekan No. 009, Jl. Raya Pengosekan No.009, Ubud, Kecamatan Ubud, Kabupaten Gianyar, Bali 80571","Jl. Raya Pengosekan No.009, Ubud, Kecamatan Ubud, Kabupaten Gianyar",BALI,80571.0,Indonesia,8113890599.0,,,-8.5258627,115.2636965,https://maps.google.com/?cid=0x0:0xeb78afdbe08eb676,
supermarket,Toko Swalayan,Nirmala Supermarket Mas Ubud,"Jl. Raya Mas No.60, Mas, Kecamatan Ubud, Kabupaten Gianyar, Bali 80571","Mas, Kecamatan Ubud, Kabupaten Gianyar",BALI,80571.0,Indonesia,361974115.0,,,-8.5544328,115.2721666,https://maps.google.com/?cid=0x0:0x8500c9130041f1a8,
supermarket,Toko Swalayan,Delta Dewata Supermarket,"Jl. Raya Andong No.14, Peliatan, Kec. Gianyar, Kabupaten Gianyar, Bali 80571","Peliatan, Kec. Gianyar, Kabupaten Gianyar",BALI,80571.0,Indonesia,361973049.0,,,-8.507746,115.2709277,https://maps.google.com/?cid=0x0:0x64e2d870df24424,
supermarket,Toko Makanan Organik,Green Habit Store Ubud,"F7X3+55P, Jl. Raya Campuhan, Sayan, Kecamatan Ubud, Kabupaten Gianyar, Bali 80571","Jl. Raya Campuhan, Sayan, Kecamatan Ubud, Kabupaten Gianyar",BALI,80571.0,Indonesia,81918992020.0,,,-8.5018754,115.2528417,https://maps.google.com/?cid=0x0:0xef41ea16a800384f,
supermarket,Minimarket,Alfamart Raya Ubud Downtown,"Jl. Raya Ubud, Ubud, Kecamatan Ubud, Kab. Gianyar, Bali 80571","Ubud, Kecamatan Ubud, Kab. Gianyar",BALI,80571.0,Indonesia,211500959.0,,,-8.5080639,115.2654564,https://maps.google.com/?cid=0x0:0xc751ac32ee48cf21,
supermarket,Toko bahan makanan,Massa's Toserba,"F7G9+CRH, Jl. Raya Teges, Peliatan, Kecamatan Ubud, Kabupaten Gianyar, Bali 80571","Jl. Raya Teges, Peliatan, Kecamatan Ubud, Kabupaten Gianyar",BALI,80571.0,Indonesia,361973369.0,,,-8.5239446,115.2696048,https://maps.google.com/?cid=0x0:0x21957b532157f1b,
supermarket,Minimarket,Alfamart Pengosekan Ubud,"Jl. Raya Pengosekan, Ubud, Kecamatan Ubud, Kabupaten Gianyar, Bali 80571","Ubud, Kecamatan Ubud, Kabupaten Gianyar",BALI,80571.0,Indonesia,1500959.0,,,-8.5217701,115.2632499,https://maps.google.com/?cid=0x0:0x8c6faae1b9bdba72,
supermarket,Toko,ZUMA Ubud Market,"Jl. Monkey Forest No.15, Ubud, Kecamatan Ubud, Kabupaten Gianyar, Bali 80571","Ubud, Kecamatan Ubud, Kabupaten Gianyar",BALI,80571.0,Indonesia,81358623435.0,,,-8.5085908,115.2618264,https://maps.google.com/?cid=0x0:0x29ab080eded4ea59,
supermarket,Minimarket,Pandawa Mini Market  Souvenir,"Jl. Monkey Forest No.65, Ubud, Kecamatan Ubud, Kabupaten Gianyar, Bali 80571","Ubud, Kecamatan Ubud, Kabupaten Gianyar",BALI,80571.0,Indonesia,81339512217.0,,,-8.5079943,115.2620789,https://maps.google.com/?cid=0x0:0x76aae1ee8332634e,
supermarket,Minimarket,Circle K Central Ubud,"depan pura desa, Jl. Raya 80571 Ubud, Ubud, Kecamatan Ubud, Kabupaten Gianyar, Bali 80571",Ubud,BALI,80571.0,Indonesia,,,,-8.5067306,115.2619377,https://maps.google.com/?cid=0x0:0x6e0a5ff5554891a9,
supermarket,Minimarket,Mini Mart,"F7J7+P56, Jl. Monkey Forest, Ubud, Kecamatan Ubud, Kabupaten Gianyar, Bali 80571","Jl. Monkey Forest, Ubud, Kecamatan Ubud, Kabupaten Gianyar",BALI,80571.0,Indonesia,,,,-8.5182158,115.2628847,https://maps.google.com/?cid=0x0:0x337b5ff36245ab09,
supermarket,Toko bahan makanan,Mini Mart,"F7W4+562, Jalan Raya, Ubud, Gianyar Regency, Bali 80571","Jalan Raya, Ubud, Gianyar Regency",BALI,80571.0,Indonesia,,,,-8.5046199,115.2555283,https://maps.google.com/?cid=0x0:0xd39162d983b6165,
supermarket,Toko bahan makanan,Supermarket,"Jl. Tirta Tawar No.108, Petulu, Kecamatan Ubud, Kabupaten Gianyar, Bali 80571","Petulu, Kecamatan Ubud, Kabupaten Gianyar",BALI,80571.0,Indonesia,,,,-8.4997573,115.2693697,https://maps.google.com/?cid=0x0:0x1d03169a769c03c0,
supermarket,Toko bahan makanan,Mini Market,"F7XC+4V5, Jl. Raya Andong, Peliatan, Kecamatan Ubud, Kabupaten Gianyar, Bali 80571","Jl. Raya Andong, Peliatan, Kecamatan Ubud, Kabupaten Gianyar",BALI,80571.0,Indonesia,,,,-8.5022469,115.2722263,https://maps.google.com/?cid=0x0:0x402e337199f66eaa,
supermarket,Makanan Sehat,Bali Buda Ubud,"F7R6+PR8, Jalan Raya Ubud, Next To Ganesha Book Shop, Padang Tegal Kaja, Ubud, Kecamatan Ubud, Kabupaten Gianyar, Bali 80571","Jalan Raya Ubud, Next To Ganesha Book Shop, Padang Tegal Kaja, Ubud, Kecamatan Ubud, Kabupaten Gianyar",BALI,80571.0,Indonesia,81138311877.0,,,-8.5088034,115.2669792,https://maps.google.com/?cid=0x0:0x56756b0592c63373,
supermarket,Minimarket,Alfamart Andong Ubud,"Jl. Raya Andong, Ubud, Kab, Kabupaten Gianyar, Bali 80571","Ubud, Kab, Kabupaten Gianyar",BALI,80571.0,Indonesia,1500959.0,,,-8.4986616,115.2727069,https://maps.google.com/?cid=0x0:0xba07fbdb1a9c8d6a,
supermarket,supermarket,Bali 80571,"Kecamatan Ubud, Kabupaten Gianyar, Bali","Kabupaten Gianyar, Bali",BALI,,Indonesia,,,,-8.5164072,115.2481959,https://maps.google.com/?cid=0x0:0x1c00c5eb6016bed0,
supermarket,Toko Swalayan,Pepito Market Tebongkang,"Jl. Raya Tebongkang, Singakerta, Kecamatan Ubud, Kabupaten Gianyar, Bali 80571","Singakerta, Kecamatan Ubud, Kabupaten Gianyar",BALI,80571.0,Indonesia,8174871293.0,,,-8.532993,115.243843,https://maps.google.com/?cid=0x0:0xbd3802f2c0eb06e3,
supermarket,Toko Swalayan,Clandys Ubud Gianyar,"Jl. Raya Tebongkang No.99, Singakerta, Kecamatan Ubud, Kabupaten Gianyar, Bali 80571","Singakerta, Kecamatan Ubud, Kabupaten Gianyar",BALI,80571.0,Indonesia,81935103040.0,,,-8.5306688,115.2442569,https://maps.google.com/?cid=0x0:0xf0cb3d54d69bbeea,
supermarket,Toko Swalayan,FRESTIVE SUPERMARKET TEBONGKANG,"F68V+XMC, Jl. Raya Tebongkang No.88 B, Singakerta, Kecamatan Ubud, Kabupaten Gianyar, Bali 80571","Jl. Raya Tebongkang No.88 B, Singakerta, Kecamatan Ubud, Kabupaten Gianyar",BALI,80571.0,Indonesia,81882811248.0,,,-8.5325587,115.2441841,https://maps.google.com/?cid=0x0:0xdf374c7e6b22796d,
supermarket,Toko Swalayan,Artadewata Supermarket,"F6FV+79H, Singakerta, Kecamatan Ubud, Kabupaten Gianyar, Bali 80571","Singakerta, Kecamatan Ubud, Kabupaten Gianyar",BALI,80571.0,Indonesia,87761051247.0,,,-8.5268178,115.2434899,https://maps.google.com/?cid=0x0:0xab5ad879e7a2ac80,
supermarket,Minimarket,BM Mart,"40, Jl. Jembawan, Ubud, Kecamatan Ubud, Kabupaten Gianyar, Bali 80571","Jl. Jembawan, Ubud, Kecamatan Ubud, Kabupaten Gianyar",BALI,80571.0,Indonesia,8553903389.0,,,-8.5134246,115.2644995,https://maps.google.com/?cid=0x0:0x9c6164fb162a4c1c,
supermarket,Minimarket,Indomaret Raya Ubud,"Petulu, Kecamatan Ubud, Kabupaten Gianyar, Bali","Kabupaten Gianyar, Bali",BALI,,Indonesia,361972971.0,,,-8.5088491,115.268781,https://maps.google.com/?cid=0x0:0xf378897885f9e217,
supermarket,Minimarket,Alfamart Raya Peliatan Ubud,"Jl. Raya, Lingk. Kalah, Peliatan, Kec. Ubud, Kab. Gianyar, Bali 80571","Lingk. Kalah, Peliatan, Kec. Ubud, Kab. Gianyar",BALI,80571.0,Indonesia,817111234.0,,,-8.52261,115.2684588,https://maps.google.com/?cid=0x0:0x49cfb97f0a4607fb,
