Category,Real Category,Business Name,Address,City,State,Postal Code,Country,Phone,Email,Website,Latitude,Longitude,Map Link,Details Link
perumahan,perumahan,Blahbatuh,"Kec. Blahbatuh, Kabupaten Gianyar, Bali","Kabupaten Gianyar, Bali",BALI,,Indonesia,,,,-8.5608613,115.298575,https://maps.google.com/?cid=0x0:0x5030bfbca830ee0,
perumahan,perumahan,Bali 80581,"Kec. Blahbatuh, Kabupaten Gianyar, Bali","Kabupaten Gianyar, Bali",BALI,,Indonesia,,,,-8.5674014,115.3133908,https://maps.google.com/?cid=0x0:0x1c00c5eb6016bef0,
perumahan,perumahan,Bali 80511,"Kec. Gianyar, Kabupaten Gianyar, Bali","Kabupaten Gianyar, Bali",BALI,,Indonesia,,,,-8.5386152,115.328206,https://maps.google.com/?cid=0x0:0x3a6ab5e6526148c8,
perumahan,Komplek perumahan,Tugu Residence Gianyar,"Tugu Residence, Bitera, Kec. Gianyar, Kabupaten Gianyar, Bali 80511","Bitera, Kec. Gianyar, Kabupaten Gianyar",BALI,80511.0,Indonesia,3614796628.0,,,-8.5501424,115.3202298,https://maps.google.com/?cid=0x0:0xf1c82a964aa903ca,
perumahan,Perumahan,Perumahan Beng View Indah,"F88J+4Q6, Unnamed Road, Beng, Kec. Gianyar, Kabupaten Gianyar, Bali 80511","Unnamed Road, Beng, Kec. Gianyar, Kabupaten Gianyar",BALI,80511.0,Indonesia,,,,-8.5347161,115.3318867,https://maps.google.com/?cid=0x0:0x9e5f7cd8e2675d88,
perumahan,Komplek perumahan,Garasi Kebon,"Jl. Tunjung Biru, Abianbase, Kec. Gianyar, Kabupaten Gianyar, Bali 80511","Abianbase, Kec. Gianyar, Kabupaten Gianyar",BALI,80511.0,Indonesia,,,,-8.5522984,115.3220206,https://maps.google.com/?cid=0x0:0x592716dbba6fac6f,
perumahan,Komplek perumahan,Giriya Kelodan Manuaba Pasdalem Gianyar,"Jl. Dalem Rai No.17, Gianyar, Kec. Gianyar, Kabupaten Gianyar, Bali 80511","Gianyar, Kec. Gianyar, Kabupaten Gianyar",BALI,80511.0,Indonesia,,,,-8.5445148,115.331003,https://maps.google.com/?cid=0x0:0x2a7bb4b551ed12e7,
perumahan,Perumahan,Griya Kemenuh Negaroa,"Jl. Astina Sel. Gg. Kali Bersih No.2, Abianbase, Kec. Gianyar, Kabupaten Gianyar, Bali 80511","Abianbase, Kec. Gianyar, Kabupaten Gianyar",BALI,80511.0,Indonesia,,,,-8.5504977,115.3237579,https://maps.google.com/?cid=0x0:0x4f5d7c101d9fbb1b,
perumahan,Kantor Perusahaan,Beng,"F87J+R53, Beng, Kec. Gianyar, Kabupaten Gianyar, Bali 80511","Beng, Kec. Gianyar, Kabupaten Gianyar",BALI,80511.0,Indonesia,,,,-8.5354755,115.3304293,https://maps.google.com/?cid=0x0:0x46c631db4a732b05,
perumahan,Komplek perumahan,Rumah niang manik,"Jl. Gn. Muliawan No.8, Gianyar, Kec. Gianyar, Kabupaten Gianyar, Bali 80511","Gianyar, Kec. Gianyar, Kabupaten Gianyar",BALI,80511.0,Indonesia,,,,-8.5401792,115.3285655,https://maps.google.com/?cid=0x0:0x6bd6df19391d6e6f,
perumahan,Pembangunan Perumahan,Sergog family,"Jl. Pudak gg sumbawa No.36, Gianyar, Kec. Gianyar, Kabupaten Gianyar, Bali 80511","Gianyar, Kec. Gianyar, Kabupaten Gianyar",BALI,80511.0,Indonesia,,,,-8.5436587,115.3302824,https://maps.google.com/?cid=0x0:0x30655e5a41541080,
perumahan,Komplek perumahan,Rumah Gusti Mangku Mantra,"F85J+XC4, Jl. Mangku Giweng, Gianyar, Kec. Gianyar, Kabupaten Gianyar, Bali 80511","Jl. Mangku Giweng, Gianyar, Kec. Gianyar, Kabupaten Gianyar",BALI,80511.0,Indonesia,,,,-8.54011,115.3310847,https://maps.google.com/?cid=0x0:0x7eecb43df2317f12,
perumahan,Pembangunan Perumahan,griya kawan gianyar,"F85H+HHP, Jl. Gn. Muliawan, Gianyar, Kec. Gianyar, Kabupaten Gianyar, Bali 80511","Jl. Gn. Muliawan, Gianyar, Kec. Gianyar, Kabupaten Gianyar",BALI,80511.0,Indonesia,361943478.0,,,-8.5410279,115.3289543,https://maps.google.com/?cid=0x0:0x518b2ceae03e4584,
perumahan,Komplek perumahan,Griya Sedhawa Tegal Tugu Gianyar,"Jl. Ratna I No.3, Tegal Tugu, Kec. Gianyar, Kabupaten Gianyar, Bali 80511","Tegal Tugu, Kec. Gianyar, Kabupaten Gianyar",BALI,80511.0,Indonesia,,,,-8.5435822,115.3342695,https://maps.google.com/?cid=0x0:0x88a4c5e512e58abc,
perumahan,Komplek perumahan,Rumah agus dan sri,"Jl. Ciung Wanara-Gianyar No.2, Gianyar, Kec. Gianyar, Kabupaten Gianyar, Bali 80511","Gianyar, Kec. Gianyar, Kabupaten Gianyar",BALI,80511.0,Indonesia,,,,-8.5329881,115.3236707,https://maps.google.com/?cid=0x0:0x76e8f660ea2fdc4c,
perumahan,Pembangunan Perumahan,SKS GARAGE,"Jl. Manggis No.4, Gianyar, Kec. Gianyar, Kabupaten Gianyar, Bali 80511","Gianyar, Kec. Gianyar, Kabupaten Gianyar",BALI,80511.0,Indonesia,,,,-8.5383265,115.3209733,https://maps.google.com/?cid=0x0:0x9b3e45d9edc8c3f,
perumahan,Perhimpunan Pengembang Perumahan,Kost Bu Risma,"Jl. Manggis No.6, Bitera, Gianyar, Gianyar Regency, Bali 80511","Bitera, Gianyar, Gianyar Regency",BALI,80511.0,Indonesia,,,,-8.5381947,115.3210046,https://maps.google.com/?cid=0x0:0x917eb6ecd2910cb3,
perumahan,Komplek perumahan,Umah Manis Gianyar,"Jl. Jata 1 No.5, Gianyar, Kec. Gianyar, Kabupaten Gianyar, Bali 80511","Gianyar, Kec. Gianyar, Kabupaten Gianyar",BALI,80511.0,Indonesia,,,,-8.538394,115.3245959,https://maps.google.com/?cid=0x0:0x6c25982488b8b4ff,
perumahan,Komplek perumahan,Home Gianyar,"Jl. Raden Wijaya No.5A, Gianyar, Kec. Gianyar, Kabupaten Gianyar, Bali 80511","Gianyar, Kec. Gianyar, Kabupaten Gianyar",BALI,80511.0,Indonesia,,,,-8.5436421,115.3213701,https://maps.google.com/?cid=0x0:0x9c3c2b7152737d68,
perumahan,Komplek perumahan,Rumah Serly,"Jl. Bhayangkara II No.6, Gianyar, Kec. Gianyar, Kabupaten Gianyar, Bali 80511","Gianyar, Kec. Gianyar, Kabupaten Gianyar",BALI,80511.0,Indonesia,,,,-8.5370072,115.3246299,https://maps.google.com/?cid=0x0:0xa091fc0eea1a9498,
perumahan,Perhimpunan Pengembang Perumahan,Andarsyahb House,"Gg. 1A No.1, Gianyar, Kec. Gianyar, Kabupaten Gianyar, Bali 80511","Gianyar, Kec. Gianyar, Kabupaten Gianyar",BALI,80511.0,Indonesia,,,,-8.5375045,115.3271493,https://maps.google.com/?cid=0x0:0x110e39d25b63bbe5,
perumahan,Komplek perumahan,Rumah luwih,"F83C+48Q, Jl. Udayana II, Gianyar, Kec. Gianyar, Kabupaten Gianyar, Bali","Kabupaten Gianyar, Bali",BALI,,Indonesia,,,,-8.54717,115.3208605,https://maps.google.com/?cid=0x0:0x553d4cf08ead2987,
perumahan,Komplek perumahan,Tugu Pahlawan - Gianyar Properti,"C8XC+HQ3, Dekat, Jl. Tunjung Biru, Abianbase, Kec. Gianyar, Kabupaten Gianyar, Bali 80511","Dekat, Jl. Tunjung Biru, Abianbase, Kec. Gianyar, Kabupaten Gianyar",BALI,80511.0,Indonesia,81337252553.0,,,-8.5511053,115.3219163,https://maps.google.com/?cid=0x0:0x4d2b5638fab9a05b,
perumahan,Komplek perumahan,Dewa Putu Arga,"Jl. Dalem Rai No.12, Gianyar, Kec. Gianyar, Kabupaten Gianyar, Bali 80511","Gianyar, Kec. Gianyar, Kabupaten Gianyar",BALI,80511.0,Indonesia,,,,-8.5447782,115.3305605,https://maps.google.com/?cid=0x0:0xd04c1802244b1995,
perumahan,Pembangunan Perumahan,Jero Dewa Bagus,"F86G+F7J, Jl. Manik, Gianyar, Kec. Gianyar, Kabupaten Gianyar, Bali 80511","Jl. Manik, Gianyar, Kec. Gianyar, Kabupaten Gianyar",BALI,80511.0,Indonesia,,,,-8.539039,115.3255953,https://maps.google.com/?cid=0x0:0x4d13a0232021b8f6,
perumahan,Komplek perumahan,Rumah,"F86P+J5M, Jl. Tukad Yeh Ayung, Samplangan, Kec. Gianyar, Kabupaten Gianyar, Bali 80512","Jl. Tukad Yeh Ayung, Samplangan, Kec. Gianyar, Kabupaten Gianyar",BALI,80512.0,Indonesia,,,,-8.5384242,115.3354362,https://maps.google.com/?cid=0x0:0x34798eb5bb9bb8cf,
perumahan,perumahan,Bali 80512,"Samplangan, Kec. Gianyar, Kabupaten Gianyar, Bali","Kabupaten Gianyar, Bali",BALI,,Indonesia,,,,-8.532747,115.3400575,https://maps.google.com/?cid=0x0:0x1c00c5eb6016be70,
perumahan,Komplek perumahan,Rumah Kita,"F8GM+H96, Jl. Gn. Lempuyang, Samplangan, Kec. Gianyar, Kabupaten Gianyar, Bali 80512","Jl. Gn. Lempuyang, Samplangan, Kec. Gianyar, Kabupaten Gianyar",BALI,80512.0,Indonesia,,,,-8.5235865,115.3333877,https://maps.google.com/?cid=0x0:0xf34eff9dd3211636,
perumahan,Komplek perumahan,Perumahan,"F87J+MVP, Beng, Kec. Gianyar, Kabupaten Gianyar, Bali 80511","Beng, Kec. Gianyar, Kabupaten Gianyar",BALI,80511.0,Indonesia,,,,-8.5359901,115.3321385,https://maps.google.com/?cid=0x0:0xce84c5aaa30402fa,
perumahan,Komplek perumahan,Gang batu sepak,"F89R+J8M, Jl. Bukit Jangkrik, Samplangan, Kec. Gianyar, Kabupaten Gianyar, Bali 80512","Jl. Bukit Jangkrik, Samplangan, Kec. Gianyar, Kabupaten Gianyar",BALI,80512.0,Indonesia,,,,-8.5309121,115.3408083,https://maps.google.com/?cid=0x0:0x79f73aad3575667,
perumahan,Komplek perumahan,Ary_tubug,"F8FQ+PJW, Jl. Bukit Batu, Samplangan, Kec. Gianyar, Kabupaten Gianyar, Bali 80512","Jl. Bukit Batu, Samplangan, Kec. Gianyar, Kabupaten Gianyar",BALI,80512.0,Indonesia,,,,-8.5256207,115.339192,https://maps.google.com/?cid=0x0:0x2515b9e4980aae3,
perumahan,Komplek perumahan,Perumahan Wira Kumala Asri,"F82W+WP7, Temesi, Kec. Gianyar, Kabupaten Gianyar, Bali 80515","Temesi, Kec. Gianyar, Kabupaten Gianyar",BALI,80515.0,Indonesia,,,,-8.5477077,115.3467984,https://maps.google.com/?cid=0x0:0xf885f14e6acb414f,
perumahan,Perumahan,Perumahan Graha Sari,"Blok C9, Abianbase, Kec. Gianyar, Kabupaten Gianyar, Bali 80515","Abianbase, Kec. Gianyar, Kabupaten Gianyar",BALI,80515.0,Indonesia,,,,-8.549102,115.3271738,https://maps.google.com/?cid=0x0:0x370e7ebb4eac1aa,
perumahan,Komplek perumahan,Rumah Aristianti,"F8PM+VXH, Jl. Gn. Lempuyang, Samplangan, Kec. Gianyar, Kabupaten Gianyar, Bali 80512","Jl. Gn. Lempuyang, Samplangan, Kec. Gianyar, Kabupaten Gianyar",BALI,80512.0,Indonesia,,,,-8.5135314,115.3346413,https://maps.google.com/?cid=0x0:0xb7c6b026b8aa58f8,
perumahan,Komplek perumahan,R. I Ketut Rene Pande,"F8CQ+PWG, Banjar, Jl. Bukit Batu Gang Batu Kancing, Samplangan, Kec. Gianyar, Kabupaten Gianyar, Bali 80512","Banjar, Jl. Bukit Batu Gang Batu Kancing, Samplangan, Kec. Gianyar, Kabupaten Gianyar",BALI,80512.0,Indonesia,,,,-8.5281771,115.3398418,https://maps.google.com/?cid=0x0:0x46fe1b0f95d36321,
perumahan,Komplek perumahan,BUKIT JATI RESIDENT,"Samplangan, Kec. Gianyar, Kabupaten Gianyar, Bali 80512","Kec. Gianyar, Kabupaten Gianyar",BALI,80512.0,Indonesia,82229300038.0,,,-8.5358656,115.3344426,https://maps.google.com/?cid=0x0:0xc0ef62b054027c44,
perumahan,Komplek perumahan,Rumah Gusti Mangku Mantra,"F85J+XC4, Jl. Mangku Giweng, Gianyar, Kec. Gianyar, Kabupaten Gianyar, Bali 80511","Jl. Mangku Giweng, Gianyar, Kec. Gianyar, Kabupaten Gianyar",BALI,80511.0,Indonesia,,,,-8.54011,115.3310847,https://maps.google.com/?cid=0x0:0x7eecb43df2317f12,
perumahan,Komplek perumahan,RUMAH NILA,"F9C3+96C, Sidan, Kec. Gianyar, Kabupaten Gianyar, Bali","Kabupaten Gianyar, Bali",BALI,,Indonesia,,,,-8.5290689,115.3530064,https://maps.google.com/?cid=0x0:0xcfe897978a51b419,
perumahan,Komplek perumahan,Griya Kost Komang,"F87R+H65, Unnamed Road, Samplangan, Gianyar, Gianyar Regency, Bali 80512","Unnamed Road, Samplangan, Gianyar, Gianyar Regency",BALI,80512.0,Indonesia,,,,-8.5361,115.3406,https://maps.google.com/?cid=0x0:0x1d8f38d0b1d2841c,
perumahan,Perumahan,Perumahan Beng View Indah,"F88J+4Q6, Unnamed Road, Beng, Kec. Gianyar, Kabupaten Gianyar, Bali 80511","Unnamed Road, Beng, Kec. Gianyar, Kabupaten Gianyar",BALI,80511.0,Indonesia,,,,-8.5347161,115.3318867,https://maps.google.com/?cid=0x0:0x9e5f7cd8e2675d88,
perumahan,Inspektur Tempat Tinggal,Jero Dangin Samplangan,"F85R+W77, Jl. Pura Dalem Pingit, Samplangan, Kec. Gianyar, Kabupaten Gianyar, Bali 80512","Jl. Pura Dalem Pingit, Samplangan, Kec. Gianyar, Kabupaten Gianyar",BALI,80512.0,Indonesia,,,,-8.5402104,115.340672,https://maps.google.com/?cid=0x0:0xbc0dbc1cc1900b52,
perumahan,Perhimpunan Pengembang Perumahan,engkiggg,"F87J+8H4, Siangan, Kec. Gianyar, Kabupaten Gianyar, Bali","Kabupaten Gianyar, Bali",BALI,,Indonesia,,,,-8.5367338,115.3314406,https://maps.google.com/?cid=0x0:0x248d4634459a537d,
perumahan,Komplek perumahan,Rumah Bryan Mayra,"F86Q+CRR, Samplangan, Kec. Gianyar, Kabupaten Gianyar, Bali 80512","Samplangan, Kec. Gianyar, Kabupaten Gianyar",BALI,80512.0,Indonesia,,,,-8.5388722,115.3395565,https://maps.google.com/?cid=0x0:0x7ca05f4788685ad3,
perumahan,Komplek perumahan,Rumah niang manik,"Jl. Gn. Muliawan No.8, Gianyar, Kec. Gianyar, Kabupaten Gianyar, Bali 80511","Gianyar, Kec. Gianyar, Kabupaten Gianyar",BALI,80511.0,Indonesia,,,,-8.5401792,115.3285655,https://maps.google.com/?cid=0x0:0x6bd6df19391d6e6f,
perumahan,Perumahan,D'Mulia Land,"Jl. Maleo 1, Beng, Kec. Gianyar, Kabupaten Gianyar, Bali 80511","Beng, Kec. Gianyar, Kabupaten Gianyar",BALI,80511.0,Indonesia,81805510200.0,,,-8.5354215,115.3306639,https://maps.google.com/?cid=0x0:0x5455af139ae4ea5c,
perumahan,Pembangunan Perumahan,Rumah Putu Andhi,"F942+JHC, Jl. Raya Pegesangan, Temesi, Kec. Gianyar, Kabupaten Gianyar, Bali 80515","Jl. Raya Pegesangan, Temesi, Kec. Gianyar, Kabupaten Gianyar",BALI,80515.0,Indonesia,,,,-8.5434419,115.3513944,https://maps.google.com/?cid=0x0:0xb78234a1a6e03b1d,
perumahan,Komplek perumahan,Giriya Kelodan Manuaba Pasdalem Gianyar,"Jl. Dalem Rai No.17, Gianyar, Kec. Gianyar, Kabupaten Gianyar, Bali 80511","Gianyar, Kec. Gianyar, Kabupaten Gianyar",BALI,80511.0,Indonesia,,,,-8.5445148,115.331003,https://maps.google.com/?cid=0x0:0x2a7bb4b551ed12e7,
perumahan,Pembangunan Perumahan,Dewa Betet GF,"F86P+RF2, Samplangan, Kec. Gianyar, Kabupaten Gianyar, Bali 80512","Samplangan, Kec. Gianyar, Kabupaten Gianyar",BALI,80512.0,Indonesia,,,,-8.5381598,115.3362902,https://maps.google.com/?cid=0x0:0xe63fb3caa2b6ce22,
perumahan,Perumahan,Perumahan graha indah,"C8WG+9VQ, Jl. Mulawarman perum graha indah tedung, Abianbase, Kec. Gianyar, Kabupaten Gianyar, Bali 80515","Jl. Mulawarman perum graha indah tedung, Abianbase, Kec. Gianyar, Kabupaten Gianyar",BALI,80515.0,Indonesia,,,,-8.5540311,115.3272238,https://maps.google.com/?cid=0x0:0x36679947fad861f8,
perumahan,Pembangunan Perumahan,Pasti Muka Home,"Jl. Raya Temesi Gg. II No.4, Temesi, Kec. Gianyar, Kabupaten Gianyar, Bali 80515","Temesi, Kec. Gianyar, Kabupaten Gianyar",BALI,80515.0,Indonesia,8124608884.0,,,-8.543538,115.348686,https://maps.google.com/?cid=0x0:0x46a2a469189aa089,
perumahan,Tempat Ibadah,Dadia Arya Kebon Tingguh Samplangan,"Jl. Raya Samplangan No.10, Samplangan, Kec. Gianyar, Kabupaten Gianyar, Bali 80512","Samplangan, Kec. Gianyar, Kabupaten Gianyar",BALI,80512.0,Indonesia,,,,-8.539714,115.3395442,https://maps.google.com/?cid=0x0:0xccac8b631cac35da,
perumahan,Komplek perumahan,Pos besar St.ENS Br.kaja kauh,"Jl. Astina Timur No.10, Samplangan, Kec. Gianyar, Kabupaten Gianyar, Bali 80512","Samplangan, Kec. Gianyar, Kabupaten Gianyar",BALI,80512.0,Indonesia,,,,-8.5396956,115.3392597,https://maps.google.com/?cid=0x0:0xb3db5f390546e09,
perumahan,Komplek perumahan,Rumah Desak ayu,"F89X+MVW, Sidan, Kec. Gianyar, Kabupaten Gianyar, Bali 80515","Sidan, Kec. Gianyar, Kabupaten Gianyar",BALI,80515.0,Indonesia,,,,-8.5297786,115.3489395,https://maps.google.com/?cid=0x0:0xe7838cb107fbae2b,
perumahan,Pura,Rumah Bendesa Adat Selat Samplangan,"F8GM+G4C, Jl. Gn. Lempuyang, Samplangan, Kec. Gianyar, Kabupaten Gianyar, Bali 80512","Jl. Gn. Lempuyang, Samplangan, Kec. Gianyar, Kabupaten Gianyar",BALI,80512.0,Indonesia,,,,-8.5236821,115.3327571,https://maps.google.com/?cid=0x0:0xbd7fe0b2247a27db,
perumahan,perumahan,Bali 80513,"Kec. Gianyar, Kabupaten Gianyar, Bali","Kabupaten Gianyar, Bali",BALI,,Indonesia,,,,-8.5273675,115.3267245,https://maps.google.com/?cid=0x0:0x726f6b72398c7c97,
perumahan,Komplek perumahan,Rumah pribadi,"Jl. Cendrawasih II No.12, Beng, Kec. Gianyar, Kabupaten Gianyar, Bali 80513","Beng, Kec. Gianyar, Kabupaten Gianyar",BALI,80513.0,Indonesia,,,,-8.533302,115.323158,https://maps.google.com/?cid=0x0:0x38a41b9435f369aa,
perumahan,Komplek perumahan,Rumah Serly,"Jl. Bhayangkara II No.6, Gianyar, Kec. Gianyar, Kabupaten Gianyar, Bali 80511","Gianyar, Kec. Gianyar, Kabupaten Gianyar",BALI,80511.0,Indonesia,,,,-8.5370072,115.3246299,https://maps.google.com/?cid=0x0:0xa091fc0eea1a9498,
perumahan,Komplek perumahan,Pacung Garden Residence,"Br Pacung, Jl. Sawo, Bitera, Gianyar, Gianyar Regency, Bali 80515","Jl. Sawo, Bitera, Gianyar, Gianyar Regency",BALI,80515.0,Indonesia,,,,-8.5172694,115.3208542,https://maps.google.com/?cid=0x0:0xaa76532a49dc838c,
perumahan,Perhimpunan Pengembang Perumahan,Kost Bu Risma,"Jl. Manggis No.6, Bitera, Gianyar, Gianyar Regency, Bali 80511","Bitera, Gianyar, Gianyar Regency",BALI,80511.0,Indonesia,,,,-8.5381947,115.3210046,https://maps.google.com/?cid=0x0:0x917eb6ecd2910cb3,
perumahan,Otoritas Perumahan,Griya Gede Pacung,"Jl. Sawo No.83, Bitera, Kec. Gianyar, Kabupaten Gianyar, Bali 80515","Bitera, Kec. Gianyar, Kabupaten Gianyar",BALI,80515.0,Indonesia,,,,-8.5249019,115.3203914,https://maps.google.com/?cid=0x0:0xdd5495ecd4dfc6b8,
perumahan,Komplek perumahan,Rumah agus dan sri,"Jl. Ciung Wanara-Gianyar No.2, Gianyar, Kec. Gianyar, Kabupaten Gianyar, Bali 80511","Gianyar, Kec. Gianyar, Kabupaten Gianyar",BALI,80511.0,Indonesia,,,,-8.5329881,115.3236707,https://maps.google.com/?cid=0x0:0x76e8f660ea2fdc4c,
perumahan,Komplek perumahan,Rumah Wayan Ardika,"F86G+QHJ, Gianyar, Kec. Gianyar, Kabupaten Gianyar, Bali","Kabupaten Gianyar, Bali",BALI,,Indonesia,,,,-8.5380483,115.3263881,https://maps.google.com/?cid=0x0:0x842ce4561240a98f,
perumahan,Kedai Kopi,Sanjiwani Residence,"F88F+45V, Jl. Astina Utara, Beng, Kec. Gianyar, Kabupaten Gianyar, Bali 80513","Jl. Astina Utara, Beng, Kec. Gianyar, Kabupaten Gianyar",BALI,80513.0,Indonesia,81229876885.0,,,-8.534644,115.3229094,https://maps.google.com/?cid=0x0:0x24fd4190ed056800,
perumahan,Perumahan,Perumahan Beng View Indah,"F88J+4Q6, Unnamed Road, Beng, Kec. Gianyar, Kabupaten Gianyar, Bali 80511","Unnamed Road, Beng, Kec. Gianyar, Kabupaten Gianyar",BALI,80511.0,Indonesia,,,,-8.5347161,115.3318867,https://maps.google.com/?cid=0x0:0x9e5f7cd8e2675d88,
perumahan,Pembangunan Perumahan,Dita karlita House,"F89G+XJR, Jl. Gn. Batu Karu, Beng, Kec. Gianyar, Kabupaten Gianyar, Bali 80513","Jl. Gn. Batu Karu, Beng, Kec. Gianyar, Kabupaten Gianyar",BALI,80513.0,Indonesia,,,,-8.5297953,115.3264557,https://maps.google.com/?cid=0x0:0x303257f039458395,
perumahan,Komplek perumahan,Aditya,"Jl. Gn. Agung No.63, Beng, Kec. Gianyar, Kabupaten Gianyar, Bali 80513","Beng, Kec. Gianyar, Kabupaten Gianyar",BALI,80513.0,Indonesia,,,,-8.5263767,115.3290416,https://maps.google.com/?cid=0x0:0xc7df26356d78fc89,
perumahan,Perumahan,DipaDani House,"Jl. Tukad Panti No.5, Beng, Kec. Gianyar, Kabupaten Gianyar, Bali 80513","Beng, Kec. Gianyar, Kabupaten Gianyar",BALI,80513.0,Indonesia,,,,-8.526762,115.3297473,https://maps.google.com/?cid=0x0:0xc3b8104234265d9f,
perumahan,Komplek perumahan,Perumahan,"F87J+MVP, Beng, Kec. Gianyar, Kabupaten Gianyar, Bali 80511","Beng, Kec. Gianyar, Kabupaten Gianyar",BALI,80511.0,Indonesia,,,,-8.5359901,115.3321385,https://maps.google.com/?cid=0x0:0xce84c5aaa30402fa,
perumahan,Komplek perumahan,Niang Rai House,"F8CG+QXH, Jl. Bukit Buluh, Beng, Kec. Gianyar, Kabupaten Gianyar, Bali 80513","Jl. Bukit Buluh, Beng, Kec. Gianyar, Kabupaten Gianyar",BALI,80513.0,Indonesia,,,,-8.5280699,115.3274798,https://maps.google.com/?cid=0x0:0x798e2bca5863eabd,
perumahan,Pembangunan Perumahan,Rumah Batan Poh,"Jl. Merak-Gianyar No.12, Beng, Kec. Gianyar, Kabupaten Gianyar, Bali 80513","Beng, Kec. Gianyar, Kabupaten Gianyar",BALI,80513.0,Indonesia,,,,-8.5338351,115.3258272,https://maps.google.com/?cid=0x0:0xbef425e55fad26ad,
perumahan,Komplek perumahan,Yaya land,"F8CF+2CW, Beng, Kec. Gianyar, Kabupaten Gianyar, Bali 80513","Beng, Kec. Gianyar, Kabupaten Gianyar",BALI,80513.0,Indonesia,81805454882.0,,,-8.5298853,115.3235772,https://maps.google.com/?cid=0x0:0x490f2a5e32f430f4,
perumahan,Komplek perumahan,Swasti,"F8HH+3MQ, Jl. Gn. Agung, Bakbakan, Kec. Gianyar, Kabupaten Gianyar, Bali","Kabupaten Gianyar, Bali",BALI,,Indonesia,,,,-8.5222894,115.3292491,https://maps.google.com/?cid=0x0:0x45519cd6cff583dc,
perumahan,Komplek perumahan,Rumah Kita,"F8GM+H96, Jl. Gn. Lempuyang, Samplangan, Kec. Gianyar, Kabupaten Gianyar, Bali 80512","Jl. Gn. Lempuyang, Samplangan, Kec. Gianyar, Kabupaten Gianyar",BALI,80512.0,Indonesia,,,,-8.5235865,115.3333877,https://maps.google.com/?cid=0x0:0xf34eff9dd3211636,
perumahan,Perhimpunan Pengembang Perumahan,Perumahan Nuansa Uma Pacung,"F8JF+9H3, Bakbakan, Kec. Gianyar, Kabupaten Gianyar, Bali 80515","Bakbakan, Kec. Gianyar, Kabupaten Gianyar",BALI,80515.0,Indonesia,,,,-8.51912,115.3239281,https://maps.google.com/?cid=0x0:0x9762b0a5b99cb4cd,
perumahan,Komplek perumahan,WijayaHouse,"F89G+FMQ, Lingkungan kelod kauh, Beng, Kec. Gianyar, Kabupaten Gianyar, Bali","Kabupaten Gianyar, Bali",BALI,,Indonesia,,,,-8.5310935,115.3264947,https://maps.google.com/?cid=0x0:0x9df3006fab7ba977,
perumahan,Kantor Perusahaan,Beng,"F87J+R53, Beng, Kec. Gianyar, Kabupaten Gianyar, Bali 80511","Beng, Kec. Gianyar, Kabupaten Gianyar",BALI,80511.0,Indonesia,,,,-8.5354755,115.3304293,https://maps.google.com/?cid=0x0:0x46c631db4a732b05,
perumahan,Pembangunan Perumahan,NAS I WAYAN EKA BUDAYA,"Jl. Gn. Agung No.27, Beng, Kec. Gianyar, Kabupaten Gianyar, Bali 80513","Beng, Kec. Gianyar, Kabupaten Gianyar",BALI,80513.0,Indonesia,,,,-8.531319,115.3289178,https://maps.google.com/?cid=0x0:0x2ab4dc9ba62acc05,
perumahan,Pembangunan Perumahan,Pondok Van Nana,"F89G+J22, Beng, Kec. Gianyar, Kabupaten Gianyar, Bali 80513","Beng, Kec. Gianyar, Kabupaten Gianyar",BALI,80513.0,Indonesia,,,,-8.530226,115.325422,https://maps.google.com/?cid=0x0:0x2c674b34f87cd4bf,
perumahan,perumahan,Bali 80515,"Kec. Gianyar, Kabupaten Gianyar, Bali","Kabupaten Gianyar, Bali",BALI,,Indonesia,,,,-8.5169426,115.3133908,https://maps.google.com/?cid=0x0:0x1c00c5eb6016be90,
perumahan,perumahan,Griya Sisi Bitera,"F899+72X, Jl. Sawo, Bitera, Kec. Gianyar, Kabupaten Gianyar, Bali 80515","Jl. Sawo, Bitera, Kec. Gianyar, Kabupaten Gianyar",BALI,80515.0,Indonesia,,,,-8.5317709,115.3176194,https://maps.google.com/?cid=0x0:0x99e3abe86041c97d,
perumahan,Komplek perumahan,Perumahan Griya Lokaserana Asri,"Unnamed Rd No.80515, Siangan, Kec. Gianyar, Kabupaten Gianyar, Bali 80515","Siangan, Kec. Gianyar, Kabupaten Gianyar",BALI,80515.0,Indonesia,,,,-8.5171089,115.3071808,https://maps.google.com/?cid=0x0:0x82fca3e43c9bbd25,
perumahan,Komplek perumahan,Rumah kdkaditya,"Unnamed Road, Bitera, Kec. Gianyar, Kabupaten Gianyar, Bali 80515","Bitera, Kec. Gianyar, Kabupaten Gianyar",BALI,80515.0,Indonesia,361945186.0,,,-8.5368124,115.3164083,https://maps.google.com/?cid=0x0:0x910ac3417e75c1f8,
perumahan,Perusahaan investasi properti,"Budihardjo, Jl.Dewi Kunti 19 Perumahan Tedungsari Damai (Masuk dari Jl. Mulawarman) Gianyar Kode Pos 80515","C8VG+MR6, Perumahan Tedungsari Damai, Abianbase, Kec. Gianyar, Kabupaten Gianyar, Bali 80515","Perumahan Tedungsari Damai, Abianbase, Kec. Gianyar, Kabupaten Gianyar",BALI,80515.0,Indonesia,,,,-8.5558349,115.3270278,https://maps.google.com/?cid=0x0:0xdc88a2381e20f91d,
perumahan,Komplek perumahan,Perumahan Wira Kumala Asri,"F82W+WP7, Temesi, Kec. Gianyar, Kabupaten Gianyar, Bali 80515","Temesi, Kec. Gianyar, Kabupaten Gianyar",BALI,80515.0,Indonesia,,,,-8.5477077,115.3467984,https://maps.google.com/?cid=0x0:0xf885f14e6acb414f,
perumahan,Komplek perumahan,Perumahan Mega Alam Bakbakan,"F8XH+C67, Bakbakan, Kec. Gianyar, Kabupaten Gianyar, Bali 80515","Bakbakan, Kec. Gianyar, Kabupaten Gianyar",BALI,80515.0,Indonesia,3614794272.0,,,-8.5014686,115.3280461,https://maps.google.com/?cid=0x0:0x24c99a3c55698ab4,
perumahan,Perumahan,Perumahan Graha Sari,"Blok C9, Abianbase, Kec. Gianyar, Kabupaten Gianyar, Bali 80515","Abianbase, Kec. Gianyar, Kabupaten Gianyar",BALI,80515.0,Indonesia,,,,-8.549102,115.3271738,https://maps.google.com/?cid=0x0:0x370e7ebb4eac1aa,
perumahan,Perumahan,Perumahan graha indah,"C8WG+9VQ, Jl. Mulawarman perum graha indah tedung, Abianbase, Kec. Gianyar, Kabupaten Gianyar, Bali 80515","Jl. Mulawarman perum graha indah tedung, Abianbase, Kec. Gianyar, Kabupaten Gianyar",BALI,80515.0,Indonesia,,,,-8.5540311,115.3272238,https://maps.google.com/?cid=0x0:0x36679947fad861f8,
perumahan,Gedung Apartemen,Rumah Pak Made Tantra,"F8QG+5XR, Bakbakan, Kec. Gianyar, Kabupaten Gianyar, Bali 80515","Bakbakan, Kec. Gianyar, Kabupaten Gianyar",BALI,80515.0,Indonesia,87861743301.0,,,-8.5119862,115.3272371,https://maps.google.com/?cid=0x0:0x5cb1437347ba386a,
perumahan,Komplek perumahan,Rumah Gilang Warti,"F878+PC5, Bitera, Kec. Gianyar, Kabupaten Gianyar, Bali 80515","Bitera, Kec. Gianyar, Kabupaten Gianyar",BALI,80515.0,Indonesia,,,,-8.5357471,115.3160982,https://maps.google.com/?cid=0x0:0x77bf506159d89c43,
perumahan,Komplek perumahan,Rumah Joe,"no Jl. Kenarok No.10X, Gianyar, Kec. Gianyar, Kabupaten Gianyar, Bali 80515","Gianyar, Kec. Gianyar, Kabupaten Gianyar",BALI,80515.0,Indonesia,,,,-8.5417733,115.3165594,https://maps.google.com/?cid=0x0:0x6913484a768d5050,
perumahan,Otoritas Perumahan,Perum Uma Angkling,"F8HF+X2F, Bakbakan, Kec. Gianyar, Kabupaten Gianyar, Bali 80515","Bakbakan, Kec. Gianyar, Kabupaten Gianyar",BALI,80515.0,Indonesia,,,,-8.5200542,115.3225358,https://maps.google.com/?cid=0x0:0xb533bb0937f904ad,
perumahan,perumahan,Perumahan Puri Sekar Ayu,"F827+VQJ, Jl. Puri Sekar Ayu, Bitera, Kec. Gianyar, Kabupaten Gianyar, Bali 80515","Jl. Puri Sekar Ayu, Bitera, Kec. Gianyar, Kabupaten Gianyar",BALI,80515.0,Indonesia,,,,-8.5477852,115.3143755,https://maps.google.com/?cid=0x0:0x97e04421e728069d,
perumahan,Komplek perumahan,Rumah decul,"Jalan Dewi Uma No.15, Siangan, Kec. Gianyar, Kabupaten Gianyar, Bali 80515","Siangan, Kec. Gianyar, Kabupaten Gianyar",BALI,80515.0,Indonesia,85737373848.0,,,-8.5135019,115.305229,https://maps.google.com/?cid=0x0:0xb5687c2cf2e4917d,
perumahan,Komplek perumahan,Perum Carik Indah Siangan,"F8Q7+JJX, Jl. Raya Siangan, Siangan, Kec. Gianyar, Kabupaten Gianyar, Bali 80515","Jl. Raya Siangan, Siangan, Kec. Gianyar, Kabupaten Gianyar",BALI,80515.0,Indonesia,,,,-8.5108804,115.314105,https://maps.google.com/?cid=0x0:0x5df0d7f3fd691221,
perumahan,Pembangunan Perumahan,Rumah Gianyar,"F848+F67, Bitera, Kec. Gianyar, Kabupaten Gianyar, Bali 80515","Bitera, Kec. Gianyar, Kabupaten Gianyar",BALI,80515.0,Indonesia,,,,-8.5437632,115.3155631,https://maps.google.com/?cid=0x0:0xebec784303ad5aed,
perumahan,Komplek perumahan,Rumah Dekma,"F8V4+HVX, Jl. Wibisana, Siangan, Kec. Gianyar, Kabupaten Gianyar, Bali 80515","Jl. Wibisana, Siangan, Kec. Gianyar, Kabupaten Gianyar",BALI,80515.0,Indonesia,,,,-8.5049042,115.3068251,https://maps.google.com/?cid=0x0:0x5189e9618688b89a,
perumahan,Komplek perumahan,Rumah riska,"F878+9XR, Bitera, Kec. Gianyar, Kabupaten Gianyar, Bali 80515","Bitera, Kec. Gianyar, Kabupaten Gianyar",BALI,80515.0,Indonesia,,,,-8.536511,115.3174027,https://maps.google.com/?cid=0x0:0x48c4cf771c68be38,
perumahan,Komplek perumahan,Perumahan Wicaksana Laghawa,"C9X4+43X, Tulikup, Kec. Gianyar, Kabupaten Gianyar, Bali 80515","Tulikup, Kec. Gianyar, Kabupaten Gianyar",BALI,80515.0,Indonesia,,,,-8.5521412,115.3552202,https://maps.google.com/?cid=0x0:0x4184974298635b4e,
perumahan,Komplek perumahan,Bitera gianyar,"F828+CCF, Jl. Gumbreg, dharmagiri residenceBitera, Kec. Gianyar, Kabupaten Gianyar, Bali 80515","Jl. Gumbreg, dharmagiri residenceBitera, Kec. Gianyar, Kabupaten Gianyar",BALI,80515.0,Indonesia,,,,-8.5489414,115.3160339,https://maps.google.com/?cid=0x0:0x631d1796520aea65,
perumahan,Komplek perumahan,Rumah i kadek handa yana,"F8P4+525, Siangan, Kec. Gianyar, Kabupaten Gianyar, Bali 80515","Siangan, Kec. Gianyar, Kabupaten Gianyar",BALI,80515.0,Indonesia,,,,-8.51411,115.305081,https://maps.google.com/?cid=0x0:0x3004419caf549fb2,
perumahan,Komplek perumahan,RUMAH,"C8VF+9WG, Abianbase, Kec. Gianyar, Kabupaten Gianyar, Bali 80515","Abianbase, Kec. Gianyar, Kabupaten Gianyar",BALI,80515.0,Indonesia,,,,-8.5565668,115.3248221,https://maps.google.com/?cid=0x0:0x5f4d8156e1ddcd04,
perumahan,Komplek perumahan,EKADEWI Home sweet home,"Gg. Mawar No.5, Bitera, Kec. Gianyar, Kabupaten Gianyar, Bali 80515","Bitera, Kec. Gianyar, Kabupaten Gianyar",BALI,80515.0,Indonesia,,,,-8.5342748,115.3134334,https://maps.google.com/?cid=0x0:0xce96f53af8e3da2a,
perumahan,Komplek perumahan,Perumahan Santika Graha no 4A,"C8WM+63R, Jl. Sakura, Serongga, Kec. Gianyar, Kabupaten Gianyar, Bali 80515","Jl. Sakura, Serongga, Kec. Gianyar, Kabupaten Gianyar",BALI,80515.0,Indonesia,,,,-8.5543173,115.3326484,https://maps.google.com/?cid=0x0:0x2e7f59d4883b744d,
perumahan,Toko Pakaian,Araswara's House,"Perum Uma Angkling No.F/5, Bakbakan, Kec. Gianyar, Kabupaten Gianyar, Bali 80515","Bakbakan, Kec. Gianyar, Kabupaten Gianyar",BALI,80515.0,Indonesia,,,,-8.5199841,115.3240178,https://maps.google.com/?cid=0x0:0xf7d8fcab26a0e588,
perumahan,Pembangunan Perumahan,Bakbakan Residence,"F8QG+5XF, Bakbakan, Kec. Gianyar, Kabupaten Gianyar, Bali 80515","Bakbakan, Kec. Gianyar, Kabupaten Gianyar",BALI,80515.0,Indonesia,,,,-8.5120645,115.327419,https://maps.google.com/?cid=0x0:0x1a46d7663830fc99,
perumahan,perumahan,Bali 80572,"Kec. Payangan, Kabupaten Gianyar, Bali","Kabupaten Gianyar, Bali",BALI,,Indonesia,,,,-8.3752579,115.2481959,https://maps.google.com/?cid=0x0:0x1c00c5eb6016bee0,
perumahan,Balai masyarakat,Payangan Desa,"H6CV+Q4X Br. Payangandesa, Jl. Raya Payangan, Melinggih, Kec. Payangan, Kabupaten Gianyar, Bali 80572","Jl. Raya Payangan, Melinggih, Kec. Payangan, Kabupaten Gianyar",BALI,80572.0,Indonesia,,,,-8.4280134,115.2428708,https://maps.google.com/?cid=0x0:0xb191a5360b07678d,
perumahan,Pembangunan Perumahan,Banjar satung,"H6QJ+QXG, Buahan, Kec. Payangan, Kabupaten Gianyar, Bali 80572","Buahan, Kec. Payangan, Kabupaten Gianyar",BALI,80572.0,Indonesia,,,,-8.410569,115.2324677,https://maps.google.com/?cid=0x0:0xf408649b0cb204c0,
perumahan,Komplek perumahan,Banjar Gata,"J6XW+VFJ, Buahan Kaja, Kec. Payangan, Kabupaten Gianyar, Bali 80572","Buahan Kaja, Kec. Payangan, Kabupaten Gianyar",BALI,80572.0,Indonesia,,,,-8.35029,115.2461472,https://maps.google.com/?cid=0x0:0xffef5f583b23839a,
perumahan,Hotel bintang 2,rumah payangan,"J7F9+M2C Banjar Penginyahan, Jl. Raya Payangan, Puhu, Kec. Payangan, Kabupaten Gianyar, Bali 80572","Jl. Raya Payangan, Puhu, Kec. Payangan, Kabupaten Gianyar",BALI,80572.0,Indonesia,,,,-8.3758056,115.2675,https://maps.google.com/?cid=0x0:0x9a487694fd8b21ec,
perumahan,Pembangunan Perumahan,Griya bucu,"H7W5+GC8, Bukian, Kec. Payangan, Kabupaten Gianyar, Bali 80572","Bukian, Kec. Payangan, Kabupaten Gianyar",BALI,80572.0,Indonesia,,,,-8.403705,115.2585741,https://maps.google.com/?cid=0x0:0x41404ca12c7fb7b9,
perumahan,Komplek perumahan,Sugeng House,"J743+FM5, Puhu, Kec. Payangan, Kabupaten Gianyar, Bali 80572","Puhu, Kec. Payangan, Kabupaten Gianyar",BALI,80572.0,Indonesia,85935326711.0,,,-8.3938634,115.2542349,https://maps.google.com/?cid=0x0:0x1c3b0f5e708da101,
perumahan,Pembangunan Perumahan,Growplant,"J6CP+RG9, Buahan Kaja, Kec. Payangan, Kabupaten Gianyar, Bali 80572","Buahan Kaja, Kec. Payangan, Kabupaten Gianyar",BALI,80572.0,Indonesia,,,,-8.377971,115.2363584,https://maps.google.com/?cid=0x0:0x153fc85176847647,
perumahan,Komplek perumahan,Rumah Daun Sriarta,"J62R+RVC, Puhu, Kec. Payangan, Kabupaten Gianyar, Bali 80572","Puhu, Kec. Payangan, Kabupaten Gianyar",BALI,80572.0,Indonesia,,,,-8.3979303,115.2421302,https://maps.google.com/?cid=0x0:0xf3984aa99e9e8386,
perumahan,Komplek perumahan,Rumah Buble,"H7P3+82M, Jl. Payangan, Bukian, Kec. Payangan, Kabupaten Gianyar, Bali 80572","Jl. Payangan, Bukian, Kec. Payangan, Kabupaten Gianyar",BALI,80572.0,Indonesia,,,,-8.4141605,115.2525616,https://maps.google.com/?cid=0x0:0xc932c24b00ba8259,
perumahan,Kantor Perusahaan,"Br. Seming, Desa Kerta, Payangan Gianyar","M78C+HGG, Kerta, Kec. Payangan, Kabupaten Gianyar, Bali 80572","Kerta, Kec. Payangan, Kabupaten Gianyar",BALI,80572.0,Indonesia,,,,-8.3335616,115.2713099,https://maps.google.com/?cid=0x0:0x1a56d487ba2abdb4,
perumahan,Pembangunan Perumahan,Tegal beji,"J67Q+757, Br, Buahan, Kec. Payangan, Kabupaten Gianyar, Bali 80572","Br, Buahan, Kec. Payangan, Kabupaten Gianyar",BALI,80572.0,Indonesia,,,,-8.3868374,115.2379138,https://maps.google.com/?cid=0x0:0x94d4eeebdac560d8,
perumahan,Komplek perumahan,Iwayan sardana Adiputra,"Br Bada, Buahan Kaja, Kec. Payangan, Kabupaten Gianyar, Bali 80572","Buahan Kaja, Kec. Payangan, Kabupaten Gianyar",BALI,80572.0,Indonesia,81338057976.0,,,-8.3511256,115.2512546,https://maps.google.com/?cid=0x0:0xc6256ba92f4d67da,
perumahan,Komplek perumahan,Griya Tanggu Kediri,"H7R3+FQ8, Jalan, Bukian, Payangan, Gianyar Regency, Bali 80572","Jalan, Bukian, Payangan, Gianyar Regency",BALI,80572.0,Indonesia,85737515677.0,,,-8.4088415,115.2544466,https://maps.google.com/?cid=0x0:0x310180113a9eedad,
perumahan,Pembangunan Perumahan,Pondok MAKY,"J797+J4C, Puhu, Kec. Payangan, Kabupaten Gianyar, Bali 80572","Puhu, Kec. Payangan, Kabupaten Gianyar",BALI,80572.0,Indonesia,,,,-8.3809254,115.262771,https://maps.google.com/?cid=0x0:0x1de43beae20c01b7,
perumahan,Komplek perumahan,Barbarika,"J6PW+P7, Buahan Kaja, Kec. Payangan, Kabupaten Gianyar, Bali 80572","Buahan Kaja, Kec. Payangan, Kabupaten Gianyar",BALI,80572.0,Indonesia,,,,-8.3631767,115.2457551,https://maps.google.com/?cid=0x0:0xac56b38444b3e620,
perumahan,Pembangunan Perumahan,Arta PenkQ,"J779+2JV, Jl. Raya Bukiyan, Puhu, Kec. Payangan, Kabupaten Gianyar, Bali 80572","Jl. Raya Bukiyan, Puhu, Kec. Payangan, Kabupaten Gianyar",BALI,80572.0,Indonesia,,,,-8.387389,115.269041,https://maps.google.com/?cid=0x0:0xb4b827ac743ef4f4,
perumahan,Komplek perumahan,Omah Yan Arif,"J6MW+R45, Jl. Raya Buahan Kaja, Buahan Kaja, Kec. Payangan, Kabupaten Gianyar, Bali 80572","Jl. Raya Buahan Kaja, Buahan Kaja, Kec. Payangan, Kabupaten Gianyar",BALI,80572.0,Indonesia,,,,-8.3654851,115.2453714,https://maps.google.com/?cid=0x0:0xf76afd1fe197ee90,
perumahan,Komplek perumahan,Rumah Keluarga PKC,"H7V5+WRQ, Bukian, Kec. Payangan, Kabupaten Gianyar, Bali 80572","Bukian, Kec. Payangan, Kabupaten Gianyar",BALI,80572.0,Indonesia,,,,-8.4051625,115.2596094,https://maps.google.com/?cid=0x0:0x9398e5bcc2b96f90,
perumahan,Komplek perumahan,Kubu pindekan,"H6RQ+4C8, Br, Jl. Susut, Buahan, Kec. Payangan, Kabupaten Gianyar, Bali 80572","Br, Jl. Susut, Buahan, Kec. Payangan, Kabupaten Gianyar",BALI,80572.0,Indonesia,,,,-8.4097098,115.2385874,https://maps.google.com/?cid=0x0:0x16869451186018c9,
perumahan,Perhimpunan Pengembang Perumahan,Nando Hs,"H6MV+XVM, Jl. Raya, Melinggih, Kec. Payangan, Kabupaten Gianyar, Bali 80572","Jl. Raya, Melinggih, Kec. Payangan, Kabupaten Gianyar",BALI,80572.0,Indonesia,,,,-8.415027,115.2446657,https://maps.google.com/?cid=0x0:0x2eb32b876267740d,
perumahan,Pembangunan Perumahan,Puri Kaja Kauh Payangan,"H69V+JP, Melinggih, Kec. Payangan, Kabupaten Gianyar, Bali 80572","Melinggih, Kec. Payangan, Kabupaten Gianyar",BALI,80572.0,Indonesia,,,,-8.4309365,115.2443643,https://maps.google.com/?cid=0x0:0x53f37e69aaa8c949,
perumahan,Komplek perumahan,Pondokan sengkuad,"J724+GV7, Unnamed Road, Bukian, Kec. Payangan, Kabupaten Gianyar, Bali 80572","Unnamed Road, Bukian, Kec. Payangan, Kabupaten Gianyar",BALI,80572.0,Indonesia,,,,-8.3987047,115.2571863,https://maps.google.com/?cid=0x0:0xce7ec53c4d3988b6,
perumahan,perumahan,Sukawati,"Guwang, Kec. Sukawati, Kabupaten Gianyar, Bali","Kabupaten Gianyar, Bali",BALI,,Indonesia,,,,-8.605564,115.280502,https://maps.google.com/?cid=0x0:0x3d33c5a58391e773,
perumahan,Komplek perumahan,Location,"97GF+XWJ, Batubulan Kangin, Kec. Sukawati, Kabupaten Gianyar, Bali 80582","Batubulan Kangin, Kec. Sukawati, Kabupaten Gianyar",BALI,80582.0,Indonesia,85333560195.0,,,-8.6225277,115.2747771,https://maps.google.com/?cid=0x0:0x29e829b5dde23824,
perumahan,Komplek perumahan,Rumah Hanna,"97VJ+M2P, Guwang, Kec. Sukawati, Kabupaten Gianyar, Bali 80582","Guwang, Kec. Sukawati, Kabupaten Gianyar",BALI,80582.0,Indonesia,,,,-8.6058399,115.2799926,https://maps.google.com/?cid=0x0:0x7387c240b54005c9,
perumahan,Pembangunan Perumahan,Purnama Residence,"97VJ+Q6C, Sukawati, Kec. Sukawati, Kabupaten Gianyar, Bali","Kabupaten Gianyar, Bali",BALI,,Indonesia,,,,-8.6055637,115.2805295,https://maps.google.com/?cid=0x0:0x272629ac9dcf9106,
perumahan,Komplek perumahan,Kubu carik regent,"Jl. Raya Guwang gang jalak No.8, Guwang, Kec. Sukawati, Kabupaten Gianyar, Bali 80582","Guwang, Kec. Sukawati, Kabupaten Gianyar",BALI,80582.0,Indonesia,,,,-8.6072384,115.2797292,https://maps.google.com/?cid=0x0:0xb2bb4adde5347e0,
perumahan,Pembangunan Perumahan,Akbar,"97VJ+Q6C, Guwang, Kec. Sukawati, Kabupaten Gianyar, Bali","Kabupaten Gianyar, Bali",BALI,,Indonesia,,,,-8.6055636,115.2805295,https://maps.google.com/?cid=0x0:0x75e0bc1114c3b1a5,
perumahan,Pasar tradisional,Pasar Seni Sukawati (Sukawati Art Market),"Jalan Raya Sukawati, Sukawati, Kec. Sukawati, Kabupaten Gianyar, Bali 80582","Sukawati, Kec. Sukawati, Kabupaten Gianyar",BALI,80582.0,Indonesia,,,,-8.5965307,115.2826055,https://maps.google.com/?cid=0x0:0x960eaffe9f543e3c,
perumahan,Komplek perumahan,Rumah 2,"Gg. Anggur 4d No.1, Batubulan, Kec. Sukawati, Kabupaten Gianyar, Bali 80237","Batubulan, Kec. Sukawati, Kabupaten Gianyar",BALI,80237.0,Indonesia,83114125102.0,,,-8.6306281,115.2619551,https://maps.google.com/?cid=0x0:0x5ffe375966ed7747,
perumahan,perumahan,Tampaksiring,"Kec. Tampaksiring, Kabupaten Gianyar, Bali","Kabupaten Gianyar, Bali",BALI,,Indonesia,,,,-8.4390082,115.3104277,https://maps.google.com/?cid=0x0:0x1800e8dbac4d3f48,
perumahan,Komplek perumahan,Griya Cebaang Tampaksiring,"H8C5+92Q, Jl. Dr. Ir. Soekarno, Tampaksiring, Kec. Tampaksiring, Kabupaten Gianyar, Bali 80552","Jl. Dr. Ir. Soekarno, Tampaksiring, Kec. Tampaksiring, Kabupaten Gianyar",BALI,80552.0,Indonesia,83114179049.0,,,-8.4290281,115.3076234,https://maps.google.com/?cid=0x0:0x9eb43c4a77514305,
perumahan,Komplek perumahan,Jero kanginan tampaksiring,"Jl. Pertiwi Brata No.201, Tampaksiring, Kec. Tampaksiring, Kabupaten Gianyar, Bali 80552","Tampaksiring, Kec. Tampaksiring, Kabupaten Gianyar",BALI,80552.0,Indonesia,87760043122.0,,,-8.4298646,115.3089581,https://maps.google.com/?cid=0x0:0x7a3764952546d616,
perumahan,Pembangunan Perumahan,Seguk House,"H8F5+653, Jl. Dr. Ir. Soekarno, Tampaksiring, Kec. Tampaksiring, Kabupaten Gianyar, Bali 80552","Jl. Dr. Ir. Soekarno, Tampaksiring, Kec. Tampaksiring, Kabupaten Gianyar",BALI,80552.0,Indonesia,,,,-8.4269757,115.3079176,https://maps.google.com/?cid=0x0:0x146fc7ffa79fdbd3,
perumahan,Komplek perumahan,Rumah pak tu,"H893+WRP, Jl. Kresna, Tampaksiring, Kec. Tampaksiring, Kabupaten Gianyar, Bali 80552","Jl. Kresna, Tampaksiring, Kec. Tampaksiring, Kabupaten Gianyar",BALI,80552.0,Indonesia,,,,-8.4301541,115.3045684,https://maps.google.com/?cid=0x0:0x63fffa713486fe57,
perumahan,Pembangunan Perumahan,Puri kedatuan,"Jl. Raya Tampaksiring No.32, Sanding, Kec. Tampaksiring, Kabupaten Gianyar, Bali 80552","Sanding, Kec. Tampaksiring, Kabupaten Gianyar",BALI,80552.0,Indonesia,,,,-8.4645077,115.2960143,https://maps.google.com/?cid=0x0:0xca26522f3826bfd0,
perumahan,Pembangunan Perumahan,Puri Dewa Ketut Enteg,"Manukaya, Kec. Tampaksiring, Kabupaten Gianyar, Bali 80552","Kec. Tampaksiring, Kabupaten Gianyar",BALI,80552.0,Indonesia,,,,-8.4095134,115.3131836,https://maps.google.com/?cid=0x0:0xe8fa08c3df62d3eb,
perumahan,Jasa Konstruksi dan Bangunan,I Gede Arimbawa,"H894+C5M, Tampaksiring, Kec. Tampaksiring, Kabupaten Gianyar, Bali 80552","Tampaksiring, Kec. Tampaksiring, Kabupaten Gianyar",BALI,80552.0,Indonesia,,,,-8.4314081,115.3054066,https://maps.google.com/?cid=0x0:0x630a19355a3a1d9f,
perumahan,Pembangunan Perumahan,Rumah Dewa Made Rauh,"H8C5+6G9, Tampaksiring, Kec. Tampaksiring, Kabupaten Gianyar, Bali 80552","Tampaksiring, Kec. Tampaksiring, Kabupaten Gianyar",BALI,80552.0,Indonesia,,,,-8.4294553,115.3088616,https://maps.google.com/?cid=0x0:0x91a02b81d3eedc03,
perumahan,Komplek perumahan,Rumah,"H866+C52, Br, bukit, Kec. Tampaksiring, Kabupaten Gianyar, Bali","Kabupaten Gianyar, Bali",BALI,,Indonesia,,,,-8.4389881,115.3103764,https://maps.google.com/?cid=0x0:0x847d068e198a7d5a,
perumahan,Pembangunan Perumahan,Gria dauh peken,"Jl. Kawera Brata No.15, Tampaksiring, Kec. Tampaksiring, Kabupaten Gianyar, Bali 80552","Tampaksiring, Kec. Tampaksiring, Kabupaten Gianyar",BALI,80552.0,Indonesia,,,,-8.4298679,115.3072114,https://maps.google.com/?cid=0x0:0x57297fdf724cf72c,
perumahan,Komplek perumahan,fumah,"H8C6+763, Jl. Abimaniyu, Tampaksiring, Kec. Tampaksiring, Kabupaten Gianyar, Bali 80552","Jl. Abimaniyu, Tampaksiring, Kec. Tampaksiring, Kabupaten Gianyar",BALI,80552.0,Indonesia,,,,-8.4293555,115.310541,https://maps.google.com/?cid=0x0:0xe0ba93c6af2ca0ad,
perumahan,Perhimpunan Pengembang Perumahan,Kawanâ€™s House,"Jl. Widura No.31, Tampaksiring, Kec. Tampaksiring, Kabupaten Gianyar, Bali 80552","Tampaksiring, Kec. Tampaksiring, Kabupaten Gianyar",BALI,80552.0,Indonesia,,,,-8.4280013,115.3048384,https://maps.google.com/?cid=0x0:0xc20df31d61f9fbc0,
perumahan,Komplek perumahan,Rumah,"H8G7+RW3, Manukaya, Kec. Tampaksiring, Kabupaten Gianyar, Bali","Kabupaten Gianyar, Bali",BALI,,Indonesia,,,,-8.4229979,115.3148079,https://maps.google.com/?cid=0x0:0x1ec6991d3502dd3d,
perumahan,perumahan,Griya Ageng Keniten Kediri Tampaksiring,"H8C5+J38, Jl. Dr. Ir. Soekarno, Tampaksiring, Kecamatan Ubud, Kabupaten Gianyar, Bali 80552","Jl. Dr. Ir. Soekarno, Tampaksiring, Kecamatan Ubud, Kabupaten Gianyar",BALI,80552.0,Indonesia,,,,-8.4283983,115.307664,https://maps.google.com/?cid=0x0:0x3d120f7aa8f4f299,
perumahan,Komplek perumahan,Puri kelodan tampaksiring,"H895+X6C, Tampaksiring, Kec. Tampaksiring, Kabupaten Gianyar, Bali 80552","Tampaksiring, Kec. Tampaksiring, Kabupaten Gianyar",BALI,80552.0,Indonesia,,,,-8.4300587,115.3080294,https://maps.google.com/?cid=0x0:0xee906e1503aa65d5,
perumahan,Komplek perumahan,WIJES Studio,"Jl. Kresna No.9, Br. Kawan, Kec. Tampaksiring, Kabupaten Gianyar, Bali 80552","Br. Kawan, Kec. Tampaksiring, Kabupaten Gianyar",BALI,80552.0,Indonesia,,,,-8.4304297,115.3045247,https://maps.google.com/?cid=0x0:0x3c926e1b30948adf,
perumahan,Komplek perumahan,GRIYA MANUABA KUMBA,"H873+WWJ, Tampaksiring, Kec. Tampaksiring, Kabupaten Gianyar, Bali","Kabupaten Gianyar, Bali",BALI,,Indonesia,,,,-8.4351534,115.304752,https://maps.google.com/?cid=0x0:0xea3768129cadaacf,
perumahan,Komplek perumahan,Satya Koi Bali,"Sanding, Kec. Tampaksiring, Kabupaten Gianyar, Bali 80552","Kec. Tampaksiring, Kabupaten Gianyar",BALI,80552.0,Indonesia,8123989991.0,,,-8.466896,115.2966289,https://maps.google.com/?cid=0x0:0x51ae82a95eeb41f,
perumahan,Hotel,Ketut house,"H8C6+7Q5, Br Tegal suci, Tampaksiring, Kec. Tampaksiring, Kabupaten Gianyar, Bali","Kabupaten Gianyar, Bali",BALI,,Indonesia,,,,-8.4293579,115.3119774,https://maps.google.com/?cid=0x0:0x217133e60cea9170,
perumahan,Komplek perumahan,Wayan suardika( Manik family),"H894+C5M, Tampaksiring, Kec. Tampaksiring, Kabupaten Gianyar, Bali 80552","Tampaksiring, Kec. Tampaksiring, Kabupaten Gianyar",BALI,80552.0,Indonesia,,,,-8.4314125,115.3054219,https://maps.google.com/?cid=0x0:0x7f2163396963bb36,
perumahan,Komplek perumahan,nathan home,"G8Q3+JJ3, Carlo Way, Sanding, Kec. Tampaksiring, Kabupaten Gianyar, Bali 80552","Carlo Way, Sanding, Kec. Tampaksiring, Kabupaten Gianyar",BALI,80552.0,Indonesia,83114588243.0,,,-8.460552,115.303884,https://maps.google.com/?cid=0x0:0x4aae6abd7dc3aede,
perumahan,Komplek perumahan,oleg house,"H852+F6, Tampaksiring, Kec. Tampaksiring, Kabupaten Gianyar, Bali 80552","Tampaksiring, Kec. Tampaksiring, Kabupaten Gianyar",BALI,80552.0,Indonesia,,,,-8.4413306,115.3005474,https://maps.google.com/?cid=0x0:0x53ef19bc735a41cb,
perumahan,Komplek perumahan,Jero Pungakan Manukaya Anyar,"H8Q6+HWP, Manukaya, Kec. Tampaksiring, Kabupaten Gianyar, Bali 80552","Manukaya, Kec. Tampaksiring, Kabupaten Gianyar",BALI,80552.0,Indonesia,,,,-8.4110361,115.3123304,https://maps.google.com/?cid=0x0:0x3cec67b52c2787f2,
perumahan,perumahan,Bali 80552,"Kec. Tampaksiring, Kabupaten Gianyar, Bali","Kabupaten Gianyar, Bali",BALI,,Indonesia,,,,-8.4362857,115.3133908,https://maps.google.com/?cid=0x0:0x1c00c5eb6016beb0,
perumahan,Pembangunan Perumahan,Kost Pak Punia,"Jl Dewi Sri No. 6, Banjar Sanding, Serongga, Tampaksiring, Gianyar Regency, Bali 80552","Banjar Sanding, Serongga, Tampaksiring, Gianyar Regency",BALI,80552.0,Indonesia,,,,-8.4651903,115.2957135,https://maps.google.com/?cid=0x0:0xddae8bf17c588756,
perumahan,Pembangunan Perumahan,WADITYA,"J78H+FP5, Taro, Kec. Tegallalang, Kabupaten Gianyar, Bali 80561","Taro, Kec. Tegallalang, Kabupaten Gianyar",BALI,80561.0,Indonesia,,,,-8.3839467,115.2791313,https://maps.google.com/?cid=0x0:0xc3226324ea80fe85,
perumahan,Komplek perumahan,Perumahan,"J77R+GM7, Sebatu, Kec. Tegallalang, Kabupaten Gianyar, Bali 80561","Sebatu, Kec. Tegallalang, Kabupaten Gianyar",BALI,80561.0,Indonesia,,,,-8.3859342,115.2916686,https://maps.google.com/?cid=0x0:0x2410a21727e4888c,
perumahan,perumahan,Bali 80561,"Kec. Tegallalang, Kabupaten Gianyar, Bali","Kabupaten Gianyar, Bali",BALI,,Indonesia,,,,-8.3921715,115.2956118,https://maps.google.com/?cid=0x0:0x1c00c5eb6016bec0,
perumahan,Pembangunan Perumahan,Perumahan,"J78V+PW5, Jl. Raya Bonjaka, Taro, Kec. Tegallalang, Kabupaten Gianyar, Bali 80561","Jl. Raya Bonjaka, Taro, Kec. Tegallalang, Kabupaten Gianyar",BALI,80561.0,Indonesia,,,,-8.3832467,115.2948535,https://maps.google.com/?cid=0x0:0x6b68bfaef9c62314,
perumahan,Perumahan,Pondok sugita,"J844+VRM, Jl. Banjar Timbul-Pupuan, Pupuan, Kec. Tegallalang, Kabupaten Gianyar, Bali 80561","Jl. Banjar Timbul-Pupuan, Pupuan, Kec. Tegallalang, Kabupaten Gianyar",BALI,80561.0,Indonesia,83119395348.0,,,-8.3927917,115.3070533,https://maps.google.com/?cid=0x0:0x76a9b6477a84f69a,
perumahan,Komplek perumahan,PONDOK TU RIRIS kampung baru bonjaka,"J78R+MF, Sebatu, Kec. Tegallalang, Kabupaten Gianyar, Bali","Kabupaten Gianyar, Bali",BALI,,Indonesia,,,,-8.3832807,115.2911805,https://maps.google.com/?cid=0x0:0x7691f2ddf3e2903,
perumahan,Perumahan,Pondok Mas Adi Gustata,"J874+8J5, Jl. Banjar Timbul-Pupuan, Pupuan, Kec. Tegallalang, Kabupaten Gianyar, Bali 80561","Jl. Banjar Timbul-Pupuan, Pupuan, Kec. Tegallalang, Kabupaten Gianyar",BALI,80561.0,Indonesia,,,,-8.3867366,115.3065975,https://maps.google.com/?cid=0x0:0xa203c383eee84cad,
perumahan,Komplek perumahan,Rumah pak kadek,"J847+3C, Pupuan, Kec. Tegallalang, Kabupaten Gianyar, Bali 80561","Pupuan, Kec. Tegallalang, Kabupaten Gianyar",BALI,80561.0,Indonesia,,,,-8.3948072,115.3135953,https://maps.google.com/?cid=0x0:0x44b63c2b02c437e5,
perumahan,Komplek perumahan,Marbun home,"H8X4+PQ3, Pupuan, Kec. Tegallalang, Kabupaten Gianyar, Bali 80561","Pupuan, Kec. Tegallalang, Kabupaten Gianyar",BALI,80561.0,Indonesia,,,,-8.4007376,115.3069063,https://maps.google.com/?cid=0x0:0x33b1d79e5c32891f,
perumahan,Perumahan,Home,"H7WQ+C3M, Jl. Raya Pujung Kaja, Sebatu, Kec. Tegallalang, Kabupaten Gianyar, Bali 80561","Jl. Raya Pujung Kaja, Sebatu, Kec. Tegallalang, Kabupaten Gianyar",BALI,80561.0,Indonesia,,,,-8.404018,115.287575,https://maps.google.com/?cid=0x0:0xf637cad808756df,
perumahan,Komplek perumahan,GRYA AGUNG LINGGAACALA,"H8X4+2GM, Pupuan, Kec. Tegallalang, Kabupaten Gianyar, Bali 80561","Pupuan, Kec. Tegallalang, Kabupaten Gianyar",BALI,80561.0,Indonesia,,,,-8.4025436,115.3062049,https://maps.google.com/?cid=0x0:0x1182e95b93227850,
perumahan,Pembangunan Perumahan,my home,"J79H+XQH, Jl. Raya Taro Kaja, Taro, Kec. Tegallalang, Kabupaten Gianyar, Bali 80561","Jl. Raya Taro Kaja, Taro, Kec. Tegallalang, Kabupaten Gianyar",BALI,80561.0,Indonesia,,,,-8.3800506,115.2794817,https://maps.google.com/?cid=0x0:0xcaba44c22d3152aa,
perumahan,Komplek perumahan,Weda home,"J858+992, Unnamed Road, Pupuan, Kec. Tegallalang, Kabupaten Gianyar, Bali 80561","Unnamed Road, Pupuan, Kec. Tegallalang, Kabupaten Gianyar",BALI,80561.0,Indonesia,,,,-8.3916137,115.3158843,https://maps.google.com/?cid=0x0:0xac148eaf956e22e4,
perumahan,Pembangunan Perumahan,Pondok kajekangin,"J73X+Q75, Sebatu, Kec. Tegallalang, Kabupaten Gianyar, Bali 80561","Sebatu, Kec. Tegallalang, Kabupaten Gianyar",BALI,80561.0,Indonesia,,,,-8.3948009,115.2984775,https://maps.google.com/?cid=0x0:0x4b7bbae37364f718,
perumahan,Pembangunan Perumahan,Rumah tinggal,"J879+R86, Banjar Tegal payang, Kec. Tegallalang, Kabupaten Gianyar, Bali","Kabupaten Gianyar, Bali",BALI,,Indonesia,,,,-8.3854549,115.3182781,https://maps.google.com/?cid=0x0:0xe038631f0590d057,
perumahan,Komplek perumahan,I Nyoman Dartu,"J7FR+4WR, Jl. Banjar Belong Taro, Taro, Kec. Tegallalang, Kabupaten Gianyar, Bali 80561","Jl. Banjar Belong Taro, Taro, Kec. Tegallalang, Kabupaten Gianyar",BALI,80561.0,Indonesia,8179274745.0,,,-8.3771352,115.2922737,https://maps.google.com/?cid=0x0:0x4c7c5db651f97400,
perumahan,Komplek perumahan,TEDUNG PENG LEAKAN BALI,"H7VW+5HW, Sebatu, Kec. Tegallalang, Kabupaten Gianyar, Bali 80561","Sebatu, Kec. Tegallalang, Kabupaten Gianyar",BALI,80561.0,Indonesia,,,,-8.4070106,115.2964587,https://maps.google.com/?cid=0x0:0xbe3ccb94352f10d8,
perumahan,Komplek perumahan,Vande Familly,"H7JR+GQ9, Kedisan, Kec. Tegallalang, Kabupaten Gianyar, Bali 80561","Kedisan, Kec. Tegallalang, Kabupaten Gianyar",BALI,80561.0,Indonesia,,,,-8.4187203,115.2919864,https://maps.google.com/?cid=0x0:0xc53e95f39422637e,
perumahan,Komplek perumahan,Rumah Hara Graha,"H7RX+G2Q, Jln raya ume kelod, Sebatu, Tegallalang, Gianyar Regency, Bali 80561","Jln raya ume kelod, Sebatu, Tegallalang, Gianyar Regency",BALI,80561.0,Indonesia,,,,-8.4083823,115.2988265,https://maps.google.com/?cid=0x0:0x4d87de81b627c746,
perumahan,Komplek perumahan,"Rumah Ramah Sadewa, Banjar Triwangsa, Tegallalang, Gianyar, Bali","G7XH+QV, Tegallalang, Kec. Tegallalang, Kabupaten Gianyar, Bali 80561","Tegallalang, Kec. Tegallalang, Kabupaten Gianyar",BALI,80561.0,Indonesia,83119558117.0,,,-8.4510441,115.2797221,https://maps.google.com/?cid=0x0:0x7193f5d906902280,
perumahan,Komplek perumahan,Rumah pujung,"Jl. Raya Pujung Kaja No.14, Sebatu, Kec. Tegallalang, Kabupaten Gianyar, Bali 80561","Sebatu, Kec. Tegallalang, Kabupaten Gianyar",BALI,80561.0,Indonesia,,,,-8.4099654,115.2854856,https://maps.google.com/?cid=0x0:0x29530bc19949714e,
perumahan,Pembangunan Perumahan,Perumahan pondok tanah putih,"H7QW+284, Jl. Raya Bayad, Kedisan, Kec. Tegallalang, Kabupaten Gianyar, Bali 80561","Jl. Raya Bayad, Kedisan, Kec. Tegallalang, Kabupaten Gianyar",BALI,80561.0,Indonesia,,,,-8.4118852,115.295242,https://maps.google.com/?cid=0x0:0x3033dc2eccc9b420,
perumahan,Rumah wisata,Giri Swastika House,"J79V+4X9, Jl. Raya Bonjaka, Sebatu, Kec. Tegallalang, Kabupaten Gianyar, Bali 80561","Jl. Raya Bonjaka, Sebatu, Kec. Tegallalang, Kabupaten Gianyar",BALI,80561.0,Indonesia,,,,-8.3822126,115.2950391,https://maps.google.com/?cid=0x0:0x496e9dba201f639a,
perumahan,Komplek perumahan,Rumah yan lego,"H7JX+553, Jl. Raya Bayad, Kedisan, Kec. Tegallalang, Kabupaten Gianyar, Bali 80561","Jl. Raya Bayad, Kedisan, Kec. Tegallalang, Kabupaten Gianyar",BALI,80561.0,Indonesia,,,,-8.419619,115.2979125,https://maps.google.com/?cid=0x0:0xdbc2190431c1c011,
perumahan,Komplek perumahan,Arsop blongking banjar bilukan sebatu tegallalang gianyar bali,"J74V+M84, Jl. Raya Bilukan, Sebatu, Kec. Tegallalang, Kabupaten Gianyar, Bali 80561","Jl. Raya Bilukan, Sebatu, Kec. Tegallalang, Kabupaten Gianyar",BALI,80561.0,Indonesia,,,,-8.393142,115.2938848,https://maps.google.com/?cid=0x0:0x4a6157d03237aa4a,
perumahan,Komplek perumahan,Jojol Taro,"J77H+J42, Taro, Kec. Tegallalang, Kabupaten Gianyar, Bali 80561","Taro, Kec. Tegallalang, Kabupaten Gianyar",BALI,80561.0,Indonesia,85238721179.0,,,-8.3859942,115.2777743,https://maps.google.com/?cid=0x0:0x7d2ed3a568b5e27c,
perumahan,Penginapan,Bayu,"J78H+JVM, Jl. Raya Taro Kaja, Taro, Kec. Tegallalang, Kabupaten Gianyar, Bali 80561","Jl. Raya Taro Kaja, Taro, Kec. Tegallalang, Kabupaten Gianyar",BALI,80561.0,Indonesia,,,,-8.3831483,115.2798247,https://maps.google.com/?cid=0x0:0xb9af38a8384038f1,
perumahan,perumahan,Ubud,"Ubud, Kecamatan Ubud, Kabupaten Gianyar, Bali","Kabupaten Gianyar, Bali",BALI,,Indonesia,,,,-8.5068536,115.2624778,https://maps.google.com/?cid=0x0:0x54a38afd6b773d1c,
perumahan,Hotel,Ubud Village E-1 no. 21,"Jl. Ubud Village, RT.002/RW.002, Sudimara Tim., Kec. Ciledug, Kota Tangerang, Banten 15151","RT.002/RW.002, Sudimara Tim., Kec. Ciledug, Kota Tangerang",BALI,15151.0,Indonesia,89636169841.0,,,-6.2341709,106.7206476,https://maps.google.com/?cid=0x0:0x773f90525b7aac9c,
perumahan,Komplek perumahan,Puri Momoya Ubud,"Jl. Suweta No.18, Ubud, Kecamatan Ubud, Kabupaten Gianyar, Bali 80571","Ubud, Kecamatan Ubud, Kabupaten Gianyar",BALI,80571.0,Indonesia,,,,-8.503712,115.263688,https://maps.google.com/?cid=0x0:0xcaf3c54ebf93ebc1,
perumahan,perumahan,Rumah Semanggi,"Jalan Cempaka Putih Gang Ulun Desa, Jl. Banjar Penestanan Kaja, Sayan, Kecamatan Ubud, Kabupaten Gianyar, Bali 80571","Jl. Banjar Penestanan Kaja, Sayan, Kecamatan Ubud, Kabupaten Gianyar",BALI,80571.0,Indonesia,816344223.0,,,-8.4987632,115.2463881,https://maps.google.com/?cid=0x0:0x43a95de4271149d1,
perumahan,Establishment,Mandala Suci Wenara Wana,"Jl. Monkey Forest, Ubud, Kecamatan Ubud, Kabupaten Gianyar, Bali 80571","Ubud, Kecamatan Ubud, Kabupaten Gianyar",BALI,80571.0,Indonesia,361971304.0,,,-8.5193727,115.2606299,https://maps.google.com/?cid=0x0:0xb6ec43164befc356,
perumahan,Toko Bebas Bea,Bandara Internasional I Gusti Ngurah Rai (DPS),"Bandara International I Gusti Ngurah Rai, Kabupaten Badung, Bali 80362",Kabupaten Badung,BALI,80362.0,Indonesia,85166911003.0,,,-8.7469933,115.1681655,https://maps.google.com/?cid=0x0:0xdf71da6ddd7bcc1f,
perumahan,Komplek perumahan,Umah Dhyana,"Jl. Suweta No.27C, Ubud, Kecamatan Ubud, Kabupaten Gianyar, Bali 80571","Ubud, Kecamatan Ubud, Kabupaten Gianyar",BALI,80571.0,Indonesia,,,,-8.5021687,115.2636819,https://maps.google.com/?cid=0x0:0x93da65e80ee742fc,
perumahan,perumahan,Puri Kelodan Ubud,"F7V6+4R9 F7V6+4V4Jl, Jl. Monkey Forest, Ubud, Gianyar Regency, Bali 80571","Jl. Monkey Forest, Ubud, Gianyar Regency",BALI,80571.0,Indonesia,,,,-8.5072038,115.2621036,https://maps.google.com/?cid=0x0:0x43117472bf0b777c,
perumahan,Perumahan,Home,"F7V6+9W3, Ubud, Kecamatan Ubud, Kabupaten Gianyar, Bali","Kabupaten Gianyar, Bali",BALI,,Indonesia,,,,-8.5066109,115.262283,https://maps.google.com/?cid=0x0:0x990087b249b43ee3,
perumahan,Perhimpunan Pengembang Perumahan,Tamansari Puri Bali Banjar Ubud,"G727+W62, Ubud, Kecamatan Ubud, Kabupaten Gianyar, Bali 80571","Ubud, Kecamatan Ubud, Kabupaten Gianyar",BALI,80571.0,Indonesia,,,,-8.4977259,115.2630142,https://maps.google.com/?cid=0x0:0x5516c77568c22018,
perumahan,perumahan,Rumah Taman,"Jl. Sri Wedari, Ubud, Kecamatan Ubud, Kabupaten Gianyar, Bali 80571","Ubud, Kecamatan Ubud, Kabupaten Gianyar",BALI,80571.0,Indonesia,361978789.0,,,-8.5003553,115.2665408,https://maps.google.com/?cid=0x0:0xc56c166be2de4f1a,
perumahan,Agensi Persewaan Properti,Ubud Property,"Peliatan, Kecamatan Ubud, Kabupaten Gianyar, Bali 80571","Kecamatan Ubud, Kabupaten Gianyar",BALI,80571.0,Indonesia,361970888.0,,,-8.5089694,115.2711306,https://maps.google.com/?cid=0x0:0x81b1a529966b7c4c,
perumahan,Komplek perumahan,Icha's homey,"Perumahan ubud village, Ubud, Gianyar Regency, Bali","Kabupaten Gianyar, Bali",BALI,,Indonesia,,,,-8.5067668,115.2624546,https://maps.google.com/?cid=0x0:0xa1041247c6370d9b,
perumahan,perumahan,Puri Asri Villa Ubud,"F7G4+WJV, Jl. Nyuh Bulan, Nyuh Kuning Village, Kecamatan Ubud, Kabupaten Gianyar, Bali 80571","Jl. Nyuh Bulan, Nyuh Kuning Village, Kecamatan Ubud, Kabupaten Gianyar",BALI,80571.0,Indonesia,361972550.0,,,-8.522637,115.256549,https://maps.google.com/?cid=0x0:0x4623e26d70bd5c98,
perumahan,Vila,rumah rio,"F7P6+G49 rumah pertama, Gg. Jati 3, Ubud, Gianyar Regency, Bali 80571","Gg. Jati 3, Ubud, Gianyar Regency",BALI,80571.0,Indonesia,,,,-8.513702,115.2603537,https://maps.google.com/?cid=0x0:0xcde3922a83788875,
perumahan,Perumahan,PURI BELUSUNG UBUD,"Jl. Suweta No.18, Ubud, Kecamatan Ubud, Kabupaten Gianyar, Bali 80571","Ubud, Kecamatan Ubud, Kabupaten Gianyar",BALI,80571.0,Indonesia,,,,-8.5037134,115.2637188,https://maps.google.com/?cid=0x0:0x3a2cab7ecbfb7efb,
perumahan,Agen Persewaan Rumah Peristirahatan,Rumah Gung Cahaya,"Jl. Sugriwa No.41, Ubud, Kecamatan Ubud, Kabupaten Gianyar, Bali 80571","Ubud, Kecamatan Ubud, Kabupaten Gianyar",BALI,80571.0,Indonesia,,,,-8.5141037,115.2651995,https://maps.google.com/?cid=0x0:0x5f45b2d64fa8e0f2,
perumahan,Komplek perumahan,RUMAH ERNA,"G7C8+CGX, Jl. Suweta, Ubud, Kecamatan Ubud, Kabupaten Gianyar, Bali 80571","Jl. Suweta, Ubud, Kecamatan Ubud, Kabupaten Gianyar",BALI,80571.0,Indonesia,,,,-8.478847,115.266487,https://maps.google.com/?cid=0x0:0x99e2690220b4436e,
perumahan,Komplek perumahan,Laina Ubud,"Jalan bisma 50, gang elephant No.1, Ubud, Kecamatan Ubud, Bali 80751","gang elephant No.1, Ubud, Kecamatan Ubud",BALI,80751.0,Indonesia,85190005045.0,,,-8.510051,115.2585535,https://maps.google.com/?cid=0x0:0x29ae73bf23444b7f,
perumahan,perumahan,Umah Kemuning Ubud,"Jl. Penestanan Kelod, Sayan, Kecamatan Ubud, Kabupaten Gianyar, Bali 80571","Sayan, Kecamatan Ubud, Kabupaten Gianyar",BALI,80571.0,Indonesia,,,,-8.5117761,115.2492347,https://maps.google.com/?cid=0x0:0xb2b2f4b8edde8c9b,
perumahan,Hotel,Andong House,"Jalan Raya Andong Gang Manyi Br. Ambengan No.7, Peliatan, Ubud, Gianyar Regency, Bali 80571","Peliatan, Ubud, Gianyar Regency",BALI,80571.0,Indonesia,,,,-8.5047006,115.2734212,https://maps.google.com/?cid=0x0:0x300f021cea1d62cc,
perumahan,perumahan,Bali 80571,"Kecamatan Ubud, Kabupaten Gianyar, Bali","Kabupaten Gianyar, Bali",BALI,,Indonesia,,,,-8.5164072,115.2481959,https://maps.google.com/?cid=0x0:0x1c00c5eb6016bed0,
perumahan,Bangunan Bersejarah,Puri Kaleran Ubud,"Jl. Tegal Sari No.9, Ubud, Kecamatan Ubud, Kabupaten Gianyar, Bali 80571","Ubud, Kecamatan Ubud, Kabupaten Gianyar",BALI,80571.0,Indonesia,,,,-8.5053336,115.2632868,https://maps.google.com/?cid=0x0:0x8c1f64b1a344d285,
perumahan,Komplek perumahan,Kamanaya Ubud,"Jl. Sindu, Sayan, Kecamatan Ubud, Kabupaten Gianyar, Bali 80571","Sayan, Kecamatan Ubud, Kabupaten Gianyar",BALI,80571.0,Indonesia,85858810071.0,,,-8.513685,115.2347732,https://maps.google.com/?cid=0x0:0xe105fe2b21b1ca65,
perumahan,Komplek perumahan,Iwan Ubud Bali,"F74M+VW5, Jl. Ki Pasung Grigis Tengkulak, Kemenuh, Kec. Sukawati, Kabupaten Gianyar, Bali 80582","Jl. Ki Pasung Grigis Tengkulak, Kemenuh, Kec. Sukawati, Kabupaten Gianyar",BALI,80582.0,Indonesia,82177425252.0,,,-8.5428577,115.2848615,https://maps.google.com/?cid=0x0:0x29a5033026a3fe9a,
perumahan,Pembangunan Perumahan,Aldha Ubud,"Jl. Raya Pengosekan, Mas, Kecamatan Ubud, Kabupaten Gianyar, Bali 80571","Mas, Kecamatan Ubud, Kabupaten Gianyar",BALI,80571.0,Indonesia,,,,-8.5264559,115.264183,https://maps.google.com/?cid=0x0:0xfc6a3fbc34677bb7,
perumahan,Pembangunan Perumahan,Sumara House - Sanggingan - Ubud,"Jl. Raya Sanggingan No.88X, Kedewatan, Kecamatan Ubud, Kabupaten Gianyar, Bali 80571","Kedewatan, Kecamatan Ubud, Kabupaten Gianyar",BALI,80571.0,Indonesia,,,,-8.4901688,115.2521728,https://maps.google.com/?cid=0x0:0x51e3ba3fc0e9aa41,
perumahan,Pembangunan Perumahan,Ubud Art Painting Galery,"Jl.Anak Agung Gede Rai No.155, Lodtunduh, Ubud, Gianyar Regency, Bali 80571","Lodtunduh, Ubud, Gianyar Regency",BALI,80571.0,Indonesia,,,,-8.5364785,115.2625221,https://maps.google.com/?cid=0x0:0xf137d8bd071d61bf,
perumahan,Komplek perumahan,Ubud property,"F6MX+Q37, Unnamed Road, Singakerta, Ubud, Gianyar Regency, Bali 80571","Unnamed Road, Singakerta, Ubud, Gianyar Regency",BALI,80571.0,Indonesia,,,,-8.5155996,115.2476778,https://maps.google.com/?cid=0x0:0xf60d40f3b0efbafb,
