Category,Real Category,Business Name,Address,City,State,Postal Code,Country,Phone,Email,Website,Latitude,Longitude,Map Link,Details Link
hotel,hotel,Kec. Biaro,"Kabupaten Siau Tagulandang Biaro, Sulawesi Utara","Kabupaten Siau Tagulandang Biaro, Sulawesi Utara",SULAWESI UTARA,,Indonesia,,,,2.1188553,125.3626891,https://maps.google.com/?cid=0x0:0x4030bfbcaf78990,
hotel,Pondok,Sawang Ino Biaro Homestay,"4983+VR5 Sawang Ino, Lamanggo, Kec. Biaro, Kabupaten Siau Tagulandang Biaro, Sulawesi Utara","Kabupaten Siau Tagulandang Biaro, Sulawesi Utara",SULAWESI UTARA,,Indonesia,,,,2.1171302,125.354606,https://maps.google.com/?cid=0x0:0x2218f63ff8dbbd42,
hotel,Hotel Resor,Pantai Bira Lamango kepulauan Biaro,"49H5+2XV, Lamanggo, Kec. Biaro, Kabupaten Siau Tagulandang Biaro, Sulawesi Utara","Kabupaten Siau Tagulandang Biaro, Sulawesi Utara",SULAWESI UTARA,,Indonesia,,,,2.1276174,125.3599252,https://maps.google.com/?cid=0x0:0x4190fe807c2f9730,
hotel,Hotel Resor,Pulau ba hule,"38PM+R5P, Buang, Kec. Biaro, Kabupaten Siau Tagulandang Biaro, Sulawesi Utara","Kabupaten Siau Tagulandang Biaro, Sulawesi Utara",SULAWESI UTARA,,Indonesia,,,,2.0870868,125.3329506,https://maps.google.com/?cid=0x0:0xc179d4deb62f4ad,
hotel,hotel,Mokupa Villa,"CP97+5X2, Desa Mokupa, Kecamatan Tombariri, Mokupa, Tombariri, Minahasa Regency, North Sulawesi","Kabupaten Minahasa, Sulawesi Utara",SULAWESI UTARA,,Indonesia,81523854212.0,,,1.4188937,124.7136046,https://maps.google.com/?cid=0x0:0xddacbc639e7f7802,
hotel,hotel,Bahowo Lodge,"HRJ9+8XJ, Jalan Tongkeina, Tongkeina, Kec. Bunaken, Kota Manado, Sulawesi Utara 95016","Jalan Tongkeina, Tongkeina, Kec. Bunaken, Kota Manado",SULAWESI UTARA,95016.0,Indonesia,8194045261.0,,,1.5808819,124.8203309,https://maps.google.com/?cid=0x0:0x62b53abe617fa6ac,
hotel,hotel,OYO 2648 Le RÃªve Residence,"Jl. P.Sulawesi No.35, Batu Kota, Kec. Malalayang, Kota Manado, Sulawesi Utara 95115","Batu Kota, Kec. Malalayang, Kota Manado",SULAWESI UTARA,95115.0,Indonesia,2129707601.0,,,1.4493271,124.8270134,https://maps.google.com/?cid=0x0:0xcd67fe8bd81b5dda,
hotel,hotel,OYO 1545 Bs Residence,"54, Jl. Lumimuut No.54, Mahakeret Tim., Kec. Wenang, Kota Manado, Sulawesi Utara 95124","Jl. Lumimuut No.54, Mahakeret Tim., Kec. Wenang, Kota Manado",SULAWESI UTARA,95124.0,Indonesia,2129707601.0,,,1.4820201,124.8437953,https://maps.google.com/?cid=0x0:0xe623c774dcae48b5,
hotel,hotel,DAFAM Express Jaksa Jakarta,"Jl. Jaksa No.27-29, Kb. Sirih, Kec. Menteng, Kota Jakarta Pusat, Daerah Khusus Ibukota Jakarta 10340","Kb. Sirih, Kec. Menteng, Kota Jakarta Pusat",SULAWESI UTARA,10340.0,Indonesia,213102229.0,,,-6.1852974,106.8294298,https://maps.google.com/?cid=0x0:0xe440126e43165f58,
hotel,hotel,,,,SULAWESI UTARA,,Indonesia,,,,,,https://maps.google.com/?cid=0x0:0xe440126e43165f58%7C/g/11fkwbzsrb%7Cen-ID,
hotel,hotel,Istana Ratu Hotel,"Jl. Jaksa No.7 - 9, RT.1/RW.5, Kb. Sirih, Kec. Menteng, Kota Jakarta Pusat, Daerah Khusus Ibukota Jakarta 10340","RT.1/RW.5, Kb. Sirih, Kec. Menteng, Kota Jakarta Pusat",SULAWESI UTARA,10340.0,Indonesia,87875604303.0,,,-6.183776,106.829767,https://maps.google.com/?cid=0x0:0x96ef652d442d8317,
hotel,hotel,Hotel Paragon,"Jl. K.H. Wahid Hasyim No.29, RT.16/RW.6, Kb. Sirih, Kec. Menteng, Kota Jakarta Pusat, Daerah Khusus Ibukota Jakarta 10340","RT.16/RW.6, Kb. Sirih, Kec. Menteng, Kota Jakarta Pusat",SULAWESI UTARA,10340.0,Indonesia,213917070.0,,,-6.186664,106.8312229,https://maps.google.com/?cid=0x0:0xbdf55bc9ccfec4de,
hotel,hotel,Grand Cemara Hotel,"Jl. Cemara No.1 5, RT.5/RW.3, Gondangdia, Kec. Menteng, Kota Jakarta Pusat, Daerah Khusus Ibukota Jakarta 10350","RT.5/RW.3, Gondangdia, Kec. Menteng, Kota Jakarta Pusat",SULAWESI UTARA,10350.0,Indonesia,213908215.0,,,-6.1874771,106.8302541,https://maps.google.com/?cid=0x0:0xbf522b778035499c,
hotel,hotel,Cipta Hotel Wahid Hasyim,"Jl. K.H. Wahid Hasyim No.53, Gondangdia, Kec. Menteng, DKI, Daerah Khusus Ibukota Jakarta 10350","Gondangdia, Kec. Menteng, DKI",SULAWESI UTARA,10350.0,Indonesia,213904701.0,,,-6.187598,106.8286001,https://maps.google.com/?cid=0x0:0x4bb43f05511bf5bd,
hotel,hotel,Victory Hotel Laundry Cafe  Resto,"Jl. Johar No.23, RT.5/RW.6, Gondangdia, Kec. Menteng, Kota Jakarta Pusat, Daerah Khusus Ibukota Jakarta 10350","RT.5/RW.6, Gondangdia, Kec. Menteng, Kota Jakarta Pusat",SULAWESI UTARA,10350.0,Indonesia,213909356.0,,,-6.1875387,106.8305475,https://maps.google.com/?cid=0x0:0x51882fd2aefab9f3,
hotel,hotel,Stanley Wahid Hasyim Jakarta,"Jl. K.H. Wahid Hasyim No.65 1, RT.1/RW.4, Gondangdia, Kec. Menteng, Jakarta, Daerah Khusus Ibukota Jakarta 10350","RT.1/RW.4, Gondangdia, Kec. Menteng, Jakarta",SULAWESI UTARA,10350.0,Indonesia,2131925518.0,,,-6.1876087,106.8276552,https://maps.google.com/?cid=0x0:0x3987f534aaf452ad,
hotel,Museum Sejarah Lokal,Monumen Nasional,"Merdeka Square, Jalan Lapangan Monas, Gambir, Kecamatan Gambir, Kota Jakarta Pusat, Daerah Khusus Ibukota Jakarta 10110","Jalan Lapangan Monas, Gambir, Kecamatan Gambir, Kota Jakarta Pusat",SULAWESI UTARA,10110.0,Indonesia,213853040.0,,,-6.1753924,106.8271528,https://maps.google.com/?cid=0x0:0x3d2ad6e1e0e9bcc8,
hotel,Layanan Transportasi,Stasiun Gondangdia,"Kb. Sirih, Kec. Menteng, Kota Jakarta Pusat, Daerah Khusus Ibukota Jakarta 10340","Kec. Menteng, Kota Jakarta Pusat",SULAWESI UTARA,10340.0,Indonesia,21121.0,,,-6.1859859,106.8325969,https://maps.google.com/?cid=0x0:0x4fb36a1692bb2bae,
hotel,hotel,Kec. Menteng,"Kota Jakarta Pusat, Daerah Khusus Ibukota Jakarta","Kota Jakarta Pusat, Daerah Khusus Ibukota Jakarta",SULAWESI UTARA,,Indonesia,,,,-6.1937297,106.8392111,https://maps.google.com/?cid=0x0:0x3e389ed39c2f9bb4,
hotel,hotel,Siau Bar.,"Kabupaten Siau Tagulandang Biaro, Sulawesi Utara","Kabupaten Siau Tagulandang Biaro, Sulawesi Utara",SULAWESI UTARA,,Indonesia,,,,2.711198,125.3740526,https://maps.google.com/?cid=0x0:0xac02e56a08821622,
hotel,hotel,KARATU HOMESTAY,"Tarorane, MALELE, Kabupaten Siau Tagulandang Biaro, Sulawesi Utara 95861","MALELE, Kabupaten Siau Tagulandang Biaro",SULAWESI UTARA,95861.0,Indonesia,81236002788.0,,,2.732542,125.4115045,https://maps.google.com/?cid=0x0:0x89d3872ba19dad4c,
hotel,hotel,Hotel Jakarta,"PCM7+8FX, Tarorane, Kec. Siau Tim., Kabupaten Siau Tagulandang Biaro, Sulawesi Utara 95861","Tarorane, Kec. Siau Tim., Kabupaten Siau Tagulandang Biaro",SULAWESI UTARA,95861.0,Indonesia,432310310.0,,,2.7333694,125.4137216,https://maps.google.com/?cid=0x0:0xf458c72c3082aabf,
hotel,hotel,Little House,"Unnamed Road, Tarorane, Kec. Siau Tim., Kabupaten Siau Tagulandang Biaro, Sulawesi Utara 95861","Tarorane, Kec. Siau Tim., Kabupaten Siau Tagulandang Biaro",SULAWESI UTARA,95861.0,Indonesia,82187415769.0,,,2.7328651,125.4140555,https://maps.google.com/?cid=0x0:0xc7c7bf6f37c57dec,
hotel,hotel,Kec. Siau Bar. Sel.,"Kabupaten Siau Tagulandang Biaro, Sulawesi Utara","Kabupaten Siau Tagulandang Biaro, Sulawesi Utara",SULAWESI UTARA,,Indonesia,,,,2.651579,125.3799805,https://maps.google.com/?cid=0x0:0x1e513a8f3f02fcd1,
hotel,hotel,KARATU HOMESTAY,"Tarorane, MALELE, Kabupaten Siau Tagulandang Biaro, Sulawesi Utara 95861","MALELE, Kabupaten Siau Tagulandang Biaro",SULAWESI UTARA,95861.0,Indonesia,81236002788.0,,,2.732542,125.4115045,https://maps.google.com/?cid=0x0:0x89d3872ba19dad4c,
hotel,hotel,Penginapan Bahari,"Jalan Boulevard Kompleks Pelabuhan Tatahadeng, Tarorane, Kec. Siau Tim., Kabupaten Siau Tagulandang Biaro, Sulawesi Utara 95861","Tarorane, Kec. Siau Tim., Kabupaten Siau Tagulandang Biaro",SULAWESI UTARA,95861.0,Indonesia,81244159391.0,,,2.7321809,125.4147268,https://maps.google.com/?cid=0x0:0x47443b653c69e36d,
hotel,hotel,Little House,"Unnamed Road, Tarorane, Kec. Siau Tim., Kabupaten Siau Tagulandang Biaro, Sulawesi Utara 95861","Tarorane, Kec. Siau Tim., Kabupaten Siau Tagulandang Biaro",SULAWESI UTARA,95861.0,Indonesia,82187415769.0,,,2.7328651,125.4140555,https://maps.google.com/?cid=0x0:0xc7c7bf6f37c57dec,
hotel,hotel,Kec. Siau Bar. Utara,"Kabupaten Siau Tagulandang Biaro, Sulawesi Utara","Kabupaten Siau Tagulandang Biaro, Sulawesi Utara",SULAWESI UTARA,,Indonesia,,,,2.7946041,125.3748009,https://maps.google.com/?cid=0x0:0xdc5dff2e803e091d,
hotel,hotel,KARATU HOMESTAY,"Tarorane, MALELE, Kabupaten Siau Tagulandang Biaro, Sulawesi Utara 95861","MALELE, Kabupaten Siau Tagulandang Biaro",SULAWESI UTARA,95861.0,Indonesia,81236002788.0,,,2.732542,125.4115045,https://maps.google.com/?cid=0x0:0x89d3872ba19dad4c,
hotel,hotel,Hotel Jakarta,"PCM7+8FX, Tarorane, Kec. Siau Tim., Kabupaten Siau Tagulandang Biaro, Sulawesi Utara 95861","Tarorane, Kec. Siau Tim., Kabupaten Siau Tagulandang Biaro",SULAWESI UTARA,95861.0,Indonesia,432310310.0,,,2.7333694,125.4137216,https://maps.google.com/?cid=0x0:0xf458c72c3082aabf,
hotel,hotel,Little House,"Unnamed Road, Tarorane, Kec. Siau Tim., Kabupaten Siau Tagulandang Biaro, Sulawesi Utara 95861","Tarorane, Kec. Siau Tim., Kabupaten Siau Tagulandang Biaro",SULAWESI UTARA,95861.0,Indonesia,82187415769.0,,,2.7328651,125.4140555,https://maps.google.com/?cid=0x0:0xc7c7bf6f37c57dec,
hotel,hotel,Kec. Siau Tengah,"Kabupaten Siau Tagulandang Biaro, Sulawesi Utara","Kabupaten Siau Tagulandang Biaro, Sulawesi Utara",SULAWESI UTARA,,Indonesia,,,,2.7403638,125.378898,https://maps.google.com/?cid=0x0:0xcf7998cd0113e8b5,
hotel,hotel,KARATU HOMESTAY,"Tarorane, MALELE, Kabupaten Siau Tagulandang Biaro, Sulawesi Utara 95861","MALELE, Kabupaten Siau Tagulandang Biaro",SULAWESI UTARA,95861.0,Indonesia,81236002788.0,,,2.732542,125.4115045,https://maps.google.com/?cid=0x0:0x89d3872ba19dad4c,
hotel,hotel,Hotel Jakarta,"PCM7+8FX, Tarorane, Kec. Siau Tim., Kabupaten Siau Tagulandang Biaro, Sulawesi Utara 95861","Tarorane, Kec. Siau Tim., Kabupaten Siau Tagulandang Biaro",SULAWESI UTARA,95861.0,Indonesia,432310310.0,,,2.7333694,125.4137216,https://maps.google.com/?cid=0x0:0xf458c72c3082aabf,
hotel,hotel,Little House,"Unnamed Road, Tarorane, Kec. Siau Tim., Kabupaten Siau Tagulandang Biaro, Sulawesi Utara 95861","Tarorane, Kec. Siau Tim., Kabupaten Siau Tagulandang Biaro",SULAWESI UTARA,95861.0,Indonesia,82187415769.0,,,2.7328651,125.4140555,https://maps.google.com/?cid=0x0:0xc7c7bf6f37c57dec,
hotel,hotel,Sulawesi Utara 95861,"Kec. Siau Tim., Kabupaten Siau Tagulandang Biaro, Sulawesi Utara","Kabupaten Siau Tagulandang Biaro, Sulawesi Utara",SULAWESI UTARA,,Indonesia,,,,2.7629842,125.4233987,https://maps.google.com/?cid=0x0:0x412fe64cf4eae893,
hotel,hotel,KARATU HOMESTAY,"Tarorane, MALELE, Kabupaten Siau Tagulandang Biaro, Sulawesi Utara 95861","MALELE, Kabupaten Siau Tagulandang Biaro",SULAWESI UTARA,95861.0,Indonesia,81236002788.0,,,2.732542,125.4115045,https://maps.google.com/?cid=0x0:0x89d3872ba19dad4c,
hotel,hotel,Hotel Jakarta,"PCM7+8FX, Tarorane, Kec. Siau Tim., Kabupaten Siau Tagulandang Biaro, Sulawesi Utara 95861","Tarorane, Kec. Siau Tim., Kabupaten Siau Tagulandang Biaro",SULAWESI UTARA,95861.0,Indonesia,432310310.0,,,2.7333694,125.4137216,https://maps.google.com/?cid=0x0:0xf458c72c3082aabf,
hotel,hotel,Penginapan Bahari,"Jalan Boulevard Kompleks Pelabuhan Tatahadeng, Tarorane, Kec. Siau Tim., Kabupaten Siau Tagulandang Biaro, Sulawesi Utara 95861","Tarorane, Kec. Siau Tim., Kabupaten Siau Tagulandang Biaro",SULAWESI UTARA,95861.0,Indonesia,81244159391.0,,,2.7321809,125.4147268,https://maps.google.com/?cid=0x0:0x47443b653c69e36d,
hotel,hotel,Sulawesi Utara 95861,"Kec. Siau Tim., Kabupaten Siau Tagulandang Biaro, Sulawesi Utara","Kabupaten Siau Tagulandang Biaro, Sulawesi Utara",SULAWESI UTARA,,Indonesia,,,,2.7629842,125.4233987,https://maps.google.com/?cid=0x0:0x412fe64cf4eae893,
hotel,hotel,KARATU HOMESTAY,"Tarorane, MALELE, Kabupaten Siau Tagulandang Biaro, Sulawesi Utara 95861","MALELE, Kabupaten Siau Tagulandang Biaro",SULAWESI UTARA,95861.0,Indonesia,81236002788.0,,,2.732542,125.4115045,https://maps.google.com/?cid=0x0:0x89d3872ba19dad4c,
hotel,hotel,Hotel Jakarta,"PCM7+8FX, Tarorane, Kec. Siau Tim., Kabupaten Siau Tagulandang Biaro, Sulawesi Utara 95861","Tarorane, Kec. Siau Tim., Kabupaten Siau Tagulandang Biaro",SULAWESI UTARA,95861.0,Indonesia,432310310.0,,,2.7333694,125.4137216,https://maps.google.com/?cid=0x0:0xf458c72c3082aabf,
hotel,hotel,Penginapan Bahari,"Jalan Boulevard Kompleks Pelabuhan Tatahadeng, Tarorane, Kec. Siau Tim., Kabupaten Siau Tagulandang Biaro, Sulawesi Utara 95861","Tarorane, Kec. Siau Tim., Kabupaten Siau Tagulandang Biaro",SULAWESI UTARA,95861.0,Indonesia,81244159391.0,,,2.7321809,125.4147268,https://maps.google.com/?cid=0x0:0x47443b653c69e36d,
hotel,hotel,Kec. Tagulandang,"Kabupaten Siau Tagulandang Biaro, Sulawesi Utara","Kabupaten Siau Tagulandang Biaro, Sulawesi Utara",SULAWESI UTARA,,Indonesia,,,,2.3461009,125.3780692,https://maps.google.com/?cid=0x0:0x209bd6bf153ba2f,
hotel,hotel,SIRUS BASE CAMP (SBC) TAGULANDANG,"8C9P+585, Kisihang, Kec. Tagulandang Sel., Kabupaten Siau Tagulandang Biaro, Sulawesi Utara","Kabupaten Siau Tagulandang Biaro, Sulawesi Utara",SULAWESI UTARA,,Indonesia,82395833416.0,,,2.3172486,125.4364956,https://maps.google.com/?cid=0x0:0x302332cbd8402f2a,
hotel,hotel,Penginapan Bahari,"Jalan Boulevard Kompleks Pelabuhan Tatahadeng, Tarorane, Kec. Siau Tim., Kabupaten Siau Tagulandang Biaro, Sulawesi Utara 95861","Tarorane, Kec. Siau Tim., Kabupaten Siau Tagulandang Biaro",SULAWESI UTARA,95861.0,Indonesia,81244159391.0,,,2.7321809,125.4147268,https://maps.google.com/?cid=0x0:0x47443b653c69e36d,
hotel,hotel,Kec. Tagulandang Sel.,"Kabupaten Siau Tagulandang Biaro, Sulawesi Utara","Kabupaten Siau Tagulandang Biaro, Sulawesi Utara",SULAWESI UTARA,,Indonesia,,,,2.3182823,125.4355499,https://maps.google.com/?cid=0x0:0x4ac91ac814e7666a,
hotel,hotel,SIRUS BASE CAMP (SBC) TAGULANDANG,"8C9P+585, Kisihang, Kec. Tagulandang Sel., Kabupaten Siau Tagulandang Biaro, Sulawesi Utara","Kabupaten Siau Tagulandang Biaro, Sulawesi Utara",SULAWESI UTARA,,Indonesia,82395833416.0,,,2.3172486,125.4364956,https://maps.google.com/?cid=0x0:0x302332cbd8402f2a,
hotel,hotel,Hotel Jakarta,"PCM7+8FX, Tarorane, Kec. Siau Tim., Kabupaten Siau Tagulandang Biaro, Sulawesi Utara 95861","Tarorane, Kec. Siau Tim., Kabupaten Siau Tagulandang Biaro",SULAWESI UTARA,95861.0,Indonesia,432310310.0,,,2.7333694,125.4137216,https://maps.google.com/?cid=0x0:0xf458c72c3082aabf,
hotel,hotel,Kec. Tagulandang Utara,"Kabupaten Siau Tagulandang Biaro, Sulawesi Utara","Kabupaten Siau Tagulandang Biaro, Sulawesi Utara",SULAWESI UTARA,,Indonesia,,,,2.3482186,125.4232499,https://maps.google.com/?cid=0x0:0x92479453b06a48b4,
hotel,hotel,SIRUS BASE CAMP (SBC) TAGULANDANG,"8C9P+585, Kisihang, Kec. Tagulandang Sel., Kabupaten Siau Tagulandang Biaro, Sulawesi Utara","Kabupaten Siau Tagulandang Biaro, Sulawesi Utara",SULAWESI UTARA,,Indonesia,82395833416.0,,,2.3172486,125.4364956,https://maps.google.com/?cid=0x0:0x302332cbd8402f2a,
hotel,hotel,Penginapan Bahari,"Jalan Boulevard Kompleks Pelabuhan Tatahadeng, Tarorane, Kec. Siau Tim., Kabupaten Siau Tagulandang Biaro, Sulawesi Utara 95861","Tarorane, Kec. Siau Tim., Kabupaten Siau Tagulandang Biaro",SULAWESI UTARA,95861.0,Indonesia,81244159391.0,,,2.7321809,125.4147268,https://maps.google.com/?cid=0x0:0x47443b653c69e36d,
restaurant,restaurant,Kec. Biaro,"Kabupaten Siau Tagulandang Biaro, Sulawesi Utara","Kabupaten Siau Tagulandang Biaro, Sulawesi Utara",SULAWESI UTARA,,Indonesia,,,,2.1188553,125.3626891,https://maps.google.com/?cid=0x0:0x4030bfbcaf78990,
restaurant,Restoran,Rm.pelangi,"49F6+7Q7, Lamanggo, Kec. Biaro, Kabupaten Siau Tagulandang Biaro, Sulawesi Utara","Kabupaten Siau Tagulandang Biaro, Sulawesi Utara",SULAWESI UTARA,,Indonesia,,,,2.123167,125.3619101,https://maps.google.com/?cid=0x0:0x619778233d7f3ca3,
restaurant,Tegal,Pondok katu daVin,"498P+26G, Dalinsaheng, Kec. Biaro, Kabupaten Siau Tagulandang Biaro, Sulawesi Utara","Kabupaten Siau Tagulandang Biaro, Sulawesi Utara",SULAWESI UTARA,,Indonesia,85242900028.0,,,2.1150667,125.3855918,https://maps.google.com/?cid=0x0:0xae5ef05d020e3370,
restaurant,Komplek perumahan,tahulending jote,"49G6+V92, Lamanggo, Kec. Biaro, Kabupaten Siau Tagulandang Biaro, Sulawesi Utara","Kabupaten Siau Tagulandang Biaro, Sulawesi Utara",SULAWESI UTARA,,Indonesia,,,,2.1271369,125.3608844,https://maps.google.com/?cid=0x0:0x95e4e08d09b82638,
restaurant,Indonesia,RM GLORIA,"PCM7+99X, Jl HJ, Tarorane, Siau Timur, Sitaro Islands Regency, North Sulawesi 95861","Jl HJ, Tarorane, Siau Timur, Sitaro Islands Regency",SULAWESI UTARA,95861.0,Indonesia,82259061108.0,,,2.7334804,125.4134751,https://maps.google.com/?cid=0x0:0xc7fb7ab11340d7f8,
restaurant,Rumah Makan,RM.EKLESIA  Sound Rental,"89VJ+5H9, Bahoi, Kec. Tagulandang, Kabupaten Siau Tagulandang Biaro, Sulawesi Utara","Kabupaten Siau Tagulandang Biaro, Sulawesi Utara",SULAWESI UTARA,,Indonesia,,,,2.3429002,125.3814707,https://maps.google.com/?cid=0x0:0xcae7a3d8228ef065,
restaurant,Manado,"Sarang Oci, Restoran Manado - Bulungan","Jl. Bulungan No.24 9 - 16, RT.11/RW.7, Kramat Pela, Kec. Kby. Baru, Kota Jakarta Selatan, Daerah Khusus Ibukota Jakarta 12130","RT.11/RW.7, Kramat Pela, Kec. Kby. Baru, Kota Jakarta Selatan",SULAWESI UTARA,12130.0,Indonesia,217399941.0,,,-6.2431937,106.7964417,https://maps.google.com/?cid=0x0:0x60ebc8aac378bf6f,
restaurant,Manado,Restoran Beautika Khas Manado - Abdul Muis,"Jl. Abdul Muis No.70 4, RT.4/RW.3, Petojo Sel., Kecamatan Gambir, Kota Jakarta Pusat, Daerah Khusus Ibukota Jakarta 10160","RT.4/RW.3, Petojo Sel., Kecamatan Gambir, Kota Jakarta Pusat",SULAWESI UTARA,10160.0,Indonesia,213812340.0,,,-6.1792234,106.8180023,https://maps.google.com/?cid=0x0:0x540c5bdb0661ddec,
restaurant,Toko Makanan,RM.PONDOK ALAM SITARO,"Kanawong, Siau Bar., Kabupaten Siau Tagulandang Biaro, Sulawesi Utara","Kabupaten Siau Tagulandang Biaro, Sulawesi Utara",SULAWESI UTARA,,Indonesia,81356031573.0,,,2.7451315,125.3610504,https://maps.google.com/?cid=0x0:0xed6ed268b6d4856c,
restaurant,Restoran,Restoran Narwastu,"PCH5+R44, Akesimbeka, Kec. Siau Tim., Kabupaten Siau Tagulandang Biaro, Sulawesi Utara 95861","Akesimbeka, Kec. Siau Tim., Kabupaten Siau Tagulandang Biaro",SULAWESI UTARA,95861.0,Indonesia,,,,2.7295149,125.4078274,https://maps.google.com/?cid=0x0:0x52cd45d638a7d121,
restaurant,Pondok,Sawang Ino Biaro Homestay,"4983+VR5 Sawang Ino, Lamanggo, Kec. Biaro, Kabupaten Siau Tagulandang Biaro, Sulawesi Utara","Kabupaten Siau Tagulandang Biaro, Sulawesi Utara",SULAWESI UTARA,,Indonesia,,,,2.1171302,125.354606,https://maps.google.com/?cid=0x0:0x2218f63ff8dbbd42,
restaurant,Area Mendaki,Israel,"49G6+W2G, Lamanggo, Kec. Biaro, Kabupaten Siau Tagulandang Biaro, Sulawesi Utara","Kabupaten Siau Tagulandang Biaro, Sulawesi Utara",SULAWESI UTARA,,Indonesia,85399899141.0,,,2.1273062,125.3600651,https://maps.google.com/?cid=0x0:0x1924d628ba12e9f3,
restaurant,Brunch,RM. CHRISTA,"RT.lingkungan 3/RW.rt 001, Bahoi, Kec. Tagulandang, Kabupaten Siau Tagulandang Biaro, Sulawesi Utara 95863","Bahoi, Kec. Tagulandang, Kabupaten Siau Tagulandang Biaro",SULAWESI UTARA,95863.0,Indonesia,82259119394.0,,,2.3413834,125.3817631,https://maps.google.com/?cid=0x0:0xd8144c8f97b18fa3,
restaurant,Bar,CostanTein Matheos,"49G6+W2G, Lamanggo, Kec. Biaro, Kabupaten Siau Tagulandang Biaro, Sulawesi Utara","Kabupaten Siau Tagulandang Biaro, Sulawesi Utara",SULAWESI UTARA,,Indonesia,85399899141.0,,,2.1273062,125.3600651,https://maps.google.com/?cid=0x0:0x2fcf2d3755965c19,
restaurant,Toko umum,"Yansen home""""","49G7+439, Lamanggo, Kec. Biaro, Kabupaten Siau Tagulandang Biaro, Sulawesi Utara","Kabupaten Siau Tagulandang Biaro, Sulawesi Utara",SULAWESI UTARA,,Indonesia,,,,2.1252857,125.3627477,https://maps.google.com/?cid=0x0:0x6368f60724fedf09,
restaurant,Restoran,Pizza Napoletana,"Jl. Kelapa Lilin IV No.3 Blok NG 9, RT.18/RW.12, Pegangsaan Dua, Kec. Klp. Gading, Jkt Utara, Daerah Khusus Ibukota Jakarta 14250","RT.18/RW.12, Pegangsaan Dua, Kec. Klp. Gading, Jkt Utara",SULAWESI UTARA,14250.0,Indonesia,87894036298.0,,,-6.1577095,106.9110885,https://maps.google.com/?cid=0x0:0x724f5f8dbdef76b2,
restaurant,restaurant,Pulau Biaro,"Kec. Biaro, Kabupaten Siau Tagulandang Biaro, Sulawesi Utara","Kabupaten Siau Tagulandang Biaro, Sulawesi Utara",SULAWESI UTARA,,Indonesia,,,,2.0995244,125.3740526,https://maps.google.com/?cid=0x0:0xac0d3c35506630e3,
restaurant,Restoran,Biaro grill,"Biaro Gadang, Kec. Ampek Angkek, Kabupaten Agam, Sumatera Barat","Kabupaten Agam, Sumatera Barat",SULAWESI UTARA,,Indonesia,,,,-0.2890379,100.4272449,https://maps.google.com/?cid=0x0:0x83ae3e9cb4c24130,
restaurant,restaurant,Siau Bar.,"Kabupaten Siau Tagulandang Biaro, Sulawesi Utara","Kabupaten Siau Tagulandang Biaro, Sulawesi Utara",SULAWESI UTARA,,Indonesia,,,,2.711198,125.3740526,https://maps.google.com/?cid=0x0:0xac02e56a08821622,
restaurant,Toko Makanan,RM.PONDOK ALAM SITARO,"Kanawong, Siau Bar., Kabupaten Siau Tagulandang Biaro, Sulawesi Utara","Kabupaten Siau Tagulandang Biaro, Sulawesi Utara",SULAWESI UTARA,,Indonesia,81356031573.0,,,2.7451315,125.3610504,https://maps.google.com/?cid=0x0:0xed6ed268b6d4856c,
restaurant,Mi,Mie'Ba Tahuna di Siau (Ci Serly),"Dekat Lorong Polsek, Kel. Paniki, Siau Bar., Kabupaten Siau Tagulandang Biaro, Sulawesi Utara","Kabupaten Siau Tagulandang Biaro, Sulawesi Utara",SULAWESI UTARA,,Indonesia,82271121271.0,,,2.7430358,125.3605566,https://maps.google.com/?cid=0x0:0x232f552039821191,
restaurant,Kafe,The sunset cafe and resto,"P9W6+R48, Ondong, Kanawong, Siau Bar., Kabupaten Siau Tagulandang Biaro, Sulawesi Utara","Kabupaten Siau Tagulandang Biaro, Sulawesi Utara",SULAWESI UTARA,,Indonesia,81243677772.0,,,2.7470273,125.3603357,https://maps.google.com/?cid=0x0:0xd52dbf7a2979c37d,
restaurant,Sesuai untuk keluarga,Aiko's kitchen,"P9V6+M8Q, Kanawong, Siau Bar., Kabupaten Siau Tagulandang Biaro, Sulawesi Utara","Kabupaten Siau Tagulandang Biaro, Sulawesi Utara",SULAWESI UTARA,,Indonesia,,,,2.7442116,125.3608663,https://maps.google.com/?cid=0x0:0x5a623cadf832d071,
restaurant,Rumah Makan,Ceplok Plus-Plus *Ondong,"Kanawong, Siau Bar., Kabupaten Siau Tagulandang Biaro, Sulawesi Utara","Kabupaten Siau Tagulandang Biaro, Sulawesi Utara",SULAWESI UTARA,,Indonesia,82190167897.0,,,2.7443114,125.361097,https://maps.google.com/?cid=0x0:0xfee8d8e463037c47,
restaurant,Toko Makanan,RM OZZ,"P9V6+62Q, Lingk. I, Kel. Paniki, Kanawong, Siau Bar., Kabupaten Siau Tagulandang Biaro, Sulawesi Utara","Kabupaten Siau Tagulandang Biaro, Sulawesi Utara",SULAWESI UTARA,,Indonesia,,,,2.7430989,125.3601117,https://maps.google.com/?cid=0x0:0x51060451e131baab,
restaurant,Hotel,House Of Kite Tau Siau,"M9QQ+742, Sawang, Kec. Siau Tim. Sel., Kabupaten Siau Tagulandang Biaro, Sulawesi Utara 95867","Sawang, Kec. Siau Tim. Sel., Kabupaten Siau Tagulandang Biaro",SULAWESI UTARA,95867.0,Indonesia,85240535319.0,,,2.6881398,125.3877629,https://maps.google.com/?cid=0x0:0xdfd957a2b507b8fe,
restaurant,Padang,RM. FORTUNE,"P9V6+PCR, Jl.Lokong banua, Paniki, Siau Bar., Kabupaten Siau Tagulandang Biaro, Sulawesi Utara","Kabupaten Siau Tagulandang Biaro, Sulawesi Utara",SULAWESI UTARA,,Indonesia,82290675386.0,,,2.7443549,125.3610174,https://maps.google.com/?cid=0x0:0x69802a276451e94d,
restaurant,Restoran,"RM VICTORY,Depan Kantor BUPATI SITARO","P9V6+QJX, Ondong, Siau Bar., Kabupaten Siau Tagulandang Biaro, Sulawesi Utara","Kabupaten Siau Tagulandang Biaro, Sulawesi Utara",SULAWESI UTARA,,Indonesia,85340248832.0,,,2.744485,125.3616066,https://maps.google.com/?cid=0x0:0x73a5712e2c4a4b67,
restaurant,Rumah Makan,Nasi Kuning Ci Yeti,"P9W6+828, Kanawong, Siau Bar., Kabupaten Siau Tagulandang Biaro, Sulawesi Utara","Kabupaten Siau Tagulandang Biaro, Sulawesi Utara",SULAWESI UTARA,,Indonesia,81356722567.0,,,2.7457765,125.3600935,https://maps.google.com/?cid=0x0:0xd74285cd21b03b78,
restaurant,Jus,Cafe ceria,"Jl Tarorane Ling 2. Kec Siau Timur, Tarorane, Siau, Kabupaten Siau Tagulandang Biaro, Sulawesi Utara 95861","Tarorane, Siau, Kabupaten Siau Tagulandang Biaro",SULAWESI UTARA,95861.0,Indonesia,81243683078.0,,,2.7326694,125.4118114,https://maps.google.com/?cid=0x0:0xd0c747f445a52919,
restaurant,Brunch,R ED' n Sulbaks cafe,"P9V6+PCC, Jl. Lokongbanu, Kanawong, Siau Bar., Kabupaten Siau Tagulandang Biaro, Sulawesi Utara","Kabupaten Siau Tagulandang Biaro, Sulawesi Utara",SULAWESI UTARA,,Indonesia,82217640762.0,,,2.7443182,125.3610128,https://maps.google.com/?cid=0x0:0xa1deae67550d0bab,
restaurant,Rumah Makan,RM. Tibersa Ondong,"Kel, Depan Aula Kadademahe Ondong, Sulawesi Utara 95862",Depan Aula Kadademahe Ondong,SULAWESI UTARA,95862.0,Indonesia,85211776709.0,,,2.745857,125.3607337,https://maps.google.com/?cid=0x0:0xc2016b19e112de4e,
restaurant,Restoran,Restoran Narwastu,"PCH5+R44, Akesimbeka, Kec. Siau Tim., Kabupaten Siau Tagulandang Biaro, Sulawesi Utara 95861","Akesimbeka, Kec. Siau Tim., Kabupaten Siau Tagulandang Biaro",SULAWESI UTARA,95861.0,Indonesia,,,,2.7295149,125.4078274,https://maps.google.com/?cid=0x0:0x52cd45d638a7d121,
restaurant,Rumah Makan,Warung makan/ kuliner T'EM GLORY,"Lindongan 1, Talawid, Siau, Kabupaten Siau Tagulandang Biaro, Sulawesi Utara 95862","Talawid, Siau, Kabupaten Siau Tagulandang Biaro",SULAWESI UTARA,95862.0,Indonesia,82291528642.0,,,2.6603439,125.3880153,https://maps.google.com/?cid=0x0:0x31bf88c5e26131f,
restaurant,Restoran,Geral,"M9WH+WX, Bumbiha, Siau Bar., Kabupaten Siau Tagulandang Biaro, Sulawesi Utara","Kabupaten Siau Tagulandang Biaro, Sulawesi Utara",SULAWESI UTARA,,Indonesia,,,,2.6973125,125.3799375,https://maps.google.com/?cid=0x0:0xadc78e326a58e109,
restaurant,Indonesia,R.M Lovely Sawang,"M9XV+59Q, Sawang, Kec. Siau Tim. Sel., Kabupaten Siau Tagulandang Biaro, Sulawesi Utara 95867","Sawang, Kec. Siau Tim. Sel., Kabupaten Siau Tagulandang Biaro",SULAWESI UTARA,95867.0,Indonesia,82189213674.0,,,2.6979538,125.393489,https://maps.google.com/?cid=0x0:0x17e8616d61462d45,
restaurant,Restoran,"Rm Prima Masadada, Ondong","P9V6+823 Depan kantor pos, Kel. Paniki, Ondong, Siau Bar., Kabupaten Siau Tagulandang Biaro, Sulawesi Utara","Kabupaten Siau Tagulandang Biaro, Sulawesi Utara",SULAWESI UTARA,,Indonesia,81245301598.0,,,2.7432715,125.3600359,https://maps.google.com/?cid=0x0:0x18e8dfaad8babffa,
restaurant,Toko Makanan,Ba' Bakar Indri,"Unnamed Road, Kanawong, Siau Bar., Kabupaten Siau Tagulandang Biaro, Sulawesi Utara","Kabupaten Siau Tagulandang Biaro, Sulawesi Utara",SULAWESI UTARA,,Indonesia,81356144818.0,,,2.7443114,125.3605759,https://maps.google.com/?cid=0x0:0xfb7f734a3086e846,
restaurant,Rumah Makan,Jw Fruit,"P9V6+PCX, Kanawong, Siau Bar., Kabupaten Siau Tagulandang Biaro, Sulawesi Utara","Kabupaten Siau Tagulandang Biaro, Sulawesi Utara",SULAWESI UTARA,,Indonesia,,,,2.7443583,125.3611171,https://maps.google.com/?cid=0x0:0xd875a784906d41c0,
restaurant,Toko Makanan,RM Tambers,"Kompleks SMA 1 Siau Barat. Kel Paniki, Kabupaten Siau Tagulandang Biaro, Sulawesi Utara 95862",Kabupaten Siau Tagulandang Biaro,SULAWESI UTARA,95862.0,Indonesia,85298600630.0,,,2.7403416,125.3608098,https://maps.google.com/?cid=0x0:0x902359867ebc14de,
restaurant,Dapur Umum,Rumah makan kang Emmeril,"Paniki pertigaan IKM, Kanawong, Siau Bar., Kabupaten Siau Tagulandang Biaro, Sulawesi Utara","Kabupaten Siau Tagulandang Biaro, Sulawesi Utara",SULAWESI UTARA,,Indonesia,82196709968.0,,,2.741993,125.3605979,https://maps.google.com/?cid=0x0:0x78779b73f7bb3daa,
restaurant,Mi,Mie'ba Ma Rat,"P9W6+76R, pasar di dekat, Kanawong, Siau Bar., Kabupaten Siau Tagulandang Biaro, Sulawesi Utara","Kabupaten Siau Tagulandang Biaro, Sulawesi Utara",SULAWESI UTARA,,Indonesia,,,,2.7457357,125.3605016,https://maps.google.com/?cid=0x0:0x76db34d254cef511,
restaurant,Rumah Makan,Rm.Blessing,"M9WW+3HW, Unnamed Road Kompleks RSUD Lapangan, Binalu, Kec. Siau Tim. Sel., Kabupaten Siau Tagulandang Biaro, Sulawesi Utara 95867","Unnamed Road Kompleks RSUD Lapangan, Binalu, Kec. Siau Tim. Sel., Kabupaten Siau Tagulandang Biaro",SULAWESI UTARA,95867.0,Indonesia,,,,2.695236,125.396447,https://maps.google.com/?cid=0x0:0x270cc04b4efc8c1b,
restaurant,restaurant,Kec. Siau Bar. Sel.,"Kabupaten Siau Tagulandang Biaro, Sulawesi Utara","Kabupaten Siau Tagulandang Biaro, Sulawesi Utara",SULAWESI UTARA,,Indonesia,,,,2.651579,125.3799805,https://maps.google.com/?cid=0x0:0x1e513a8f3f02fcd1,
restaurant,Rumah Makan,Warung makan/ kuliner T'EM GLORY,"Lindongan 1, Talawid, Siau, Kabupaten Siau Tagulandang Biaro, Sulawesi Utara 95862","Talawid, Siau, Kabupaten Siau Tagulandang Biaro",SULAWESI UTARA,95862.0,Indonesia,82291528642.0,,,2.6603439,125.3880153,https://maps.google.com/?cid=0x0:0x31bf88c5e26131f,
restaurant,Hotel,House Of Kite Tau Siau,"M9QQ+742, Sawang, Kec. Siau Tim. Sel., Kabupaten Siau Tagulandang Biaro, Sulawesi Utara 95867","Sawang, Kec. Siau Tim. Sel., Kabupaten Siau Tagulandang Biaro",SULAWESI UTARA,95867.0,Indonesia,85240535319.0,,,2.6881398,125.3877629,https://maps.google.com/?cid=0x0:0xdfd957a2b507b8fe,
restaurant,Nasi,Nasi kuning oma lala,"M92H+H2G, Mahuneni, Kec. Siau Bar. Sel., Kabupaten Siau Tagulandang Biaro, Sulawesi Utara","Kabupaten Siau Tagulandang Biaro, Sulawesi Utara",SULAWESI UTARA,,Indonesia,,,,2.6501824,125.3775956,https://maps.google.com/?cid=0x0:0x3e73aff0fea0f616,
restaurant,Toko Makanan,RM.PONDOK ALAM SITARO,"Kanawong, Siau Bar., Kabupaten Siau Tagulandang Biaro, Sulawesi Utara","Kabupaten Siau Tagulandang Biaro, Sulawesi Utara",SULAWESI UTARA,,Indonesia,81356031573.0,,,2.7451315,125.3610504,https://maps.google.com/?cid=0x0:0xed6ed268b6d4856c,
restaurant,Tujuan Wisata,Angkringan Pantai Bahu Talawid,"Mahuneni, Kec. Siau Bar. Sel., Kabupaten Siau Tagulandang Biaro, Sulawesi Utara","Kabupaten Siau Tagulandang Biaro, Sulawesi Utara",SULAWESI UTARA,,Indonesia,,,,2.6485391,125.3820613,https://maps.google.com/?cid=0x0:0x248c3d1dadc0f724,
restaurant,Kedai Kopi,Angkringan Mahuneni,"M92H+MHG, Mahuneni, Kec. Siau Bar. Sel., Kabupaten Siau Tagulandang Biaro, Sulawesi Utara","Kabupaten Siau Tagulandang Biaro, Sulawesi Utara",SULAWESI UTARA,,Indonesia,,,,2.6516795,125.3789518,https://maps.google.com/?cid=0x0:0x5544fdacfbe54914,
restaurant,restaurant,Kec. Siau Bar. Utara,"Kabupaten Siau Tagulandang Biaro, Sulawesi Utara","Kabupaten Siau Tagulandang Biaro, Sulawesi Utara",SULAWESI UTARA,,Indonesia,,,,2.7946041,125.3748009,https://maps.google.com/?cid=0x0:0xdc5dff2e803e091d,
restaurant,Toko Makanan,RM.PONDOK ALAM SITARO,"Kanawong, Siau Bar., Kabupaten Siau Tagulandang Biaro, Sulawesi Utara","Kabupaten Siau Tagulandang Biaro, Sulawesi Utara",SULAWESI UTARA,,Indonesia,81356031573.0,,,2.7451315,125.3610504,https://maps.google.com/?cid=0x0:0xed6ed268b6d4856c,
restaurant,Restoran,Restoran Narwastu,"PCH5+R44, Akesimbeka, Kec. Siau Tim., Kabupaten Siau Tagulandang Biaro, Sulawesi Utara 95861","Akesimbeka, Kec. Siau Tim., Kabupaten Siau Tagulandang Biaro",SULAWESI UTARA,95861.0,Indonesia,,,,2.7295149,125.4078274,https://maps.google.com/?cid=0x0:0x52cd45d638a7d121,
restaurant,Tempat Ibadah,Ulu siau,"QC43+XMP, Tatahadeng, kec sitim, Kabupaten Siau Tagulandang Biaro, Sulawesi Utara 95861","Tatahadeng, kec sitim, Kabupaten Siau Tagulandang Biaro",SULAWESI UTARA,95861.0,Indonesia,,,,2.7574695,125.4042121,https://maps.google.com/?cid=0x0:0xbb42979bc05b62f3,
restaurant,Indonesia,Warung makan Eby,"Tatahadeng, lingkungan VI, Siau, Sulawesi Utara 95861","lingkungan VI, Siau",SULAWESI UTARA,95861.0,Indonesia,81241376942.0,,,2.7574695,125.4042121,https://maps.google.com/?cid=0x0:0xb9da0ba478a325d2,
restaurant,Toko Makanan,RM Tambers,"Kompleks SMA 1 Siau Barat. Kel Paniki, Kabupaten Siau Tagulandang Biaro, Sulawesi Utara 95862",Kabupaten Siau Tagulandang Biaro,SULAWESI UTARA,95862.0,Indonesia,85298600630.0,,,2.7403416,125.3608098,https://maps.google.com/?cid=0x0:0x902359867ebc14de,
restaurant,Manado,Restoran Beautika Khas Manado - Abdul Muis,"Jl. Abdul Muis No.70 4, RT.4/RW.3, Petojo Sel., Kecamatan Gambir, Kota Jakarta Pusat, Daerah Khusus Ibukota Jakarta 10160","RT.4/RW.3, Petojo Sel., Kecamatan Gambir, Kota Jakarta Pusat",SULAWESI UTARA,10160.0,Indonesia,213812340.0,,,-6.1792234,106.8180023,https://maps.google.com/?cid=0x0:0x540c5bdb0661ddec,
restaurant,Rumah Makan,Adhe vai,"Tatahadeng, Kec. Siau Tim., Sitaro, Sulawesi Utara 95861","Kec. Siau Tim., Sitaro",SULAWESI UTARA,95861.0,Indonesia,81342074093.0,,,2.7638265,125.4031525,https://maps.google.com/?cid=0x0:0x3ed36655a5b9a074,
restaurant,Kedai Kopi,Ocean view cafe,"Jalan Bouelivar Malele, Tarorane, Kec. Siau Tim., Kabupaten Siau Tagulandang Biaro, Sulawesi Utara 95861","Tarorane, Kec. Siau Tim., Kabupaten Siau Tagulandang Biaro",SULAWESI UTARA,95861.0,Indonesia,81243497159.0,,,2.7399419,125.4055827,https://maps.google.com/?cid=0x0:0xd4a4e2b231117c75,
restaurant,Padang,Rm Fortune,"P9C8+P84, Ondong, siau, Kabupaten Siau Tagulandang Biaro, Sulawesi Utara","Kabupaten Siau Tagulandang Biaro, Sulawesi Utara",SULAWESI UTARA,,Indonesia,81340068875.0,,,2.721753,125.3658254,https://maps.google.com/?cid=0x0:0x88d2031b2426a98,
restaurant,Tujuan Wisata,Permandian Air Panas Timba' Ko Kamp. Mini,"Q999+5RC, Hiung, Kec. Siau Bar. Utara, Kabupaten Siau Tagulandang Biaro, Sulawesi Utara","Kabupaten Siau Tagulandang Biaro, Sulawesi Utara",SULAWESI UTARA,,Indonesia,,,,2.7679391,125.3695077,https://maps.google.com/?cid=0x0:0x52b4e6821efcdbc4,
restaurant,Hotel,Makanan,"M9VV+6M6, Binalu, Kec. Siau Tim. Sel., Kabupaten Siau Tagulandang Biaro, Sulawesi Utara 95867","Binalu, Kec. Siau Tim. Sel., Kabupaten Siau Tagulandang Biaro",SULAWESI UTARA,95867.0,Indonesia,,,,2.692586,125.394645,https://maps.google.com/?cid=0x0:0xdbb30115cb081ab0,
restaurant,Makanan Kecil,RM. Pondok Teterusan,"GWMJ+VGX, Jl. Teterusan Mapanget, Mapanget, Kec. Talawaan, Kota Manado, Sulawesi Utara","Kota Manado, Sulawesi Utara",SULAWESI UTARA,,Indonesia,85240701777.0,,,1.5347469,124.931374,https://maps.google.com/?cid=0x0:0x3c38963916386ccd,
restaurant,Komplek perumahan,Rumah Kel. Panese-Pasikuali,"Q9VF+7X7 kampung Kiawang Kondangan II, Kawahang, Kec. Siau Bar. Utara, Kabupaten Siau Tagulandang Biaro, Sulawesi Utara","Kabupaten Siau Tagulandang Biaro, Sulawesi Utara",SULAWESI UTARA,,Indonesia,,,,2.7931672,125.3749247,https://maps.google.com/?cid=0x0:0xef366f1ecca10d5b,
restaurant,Kantor Pemerintah,Depo Diamond Sitaro,"P9XJ+94X, Beong, Kec. Siau Tengah, Kabupaten Siau Tagulandang Biaro, Sulawesi Utara","Kabupaten Siau Tagulandang Biaro, Sulawesi Utara",SULAWESI UTARA,,Indonesia,82168959338.0,,,2.7484848,125.3803656,https://maps.google.com/?cid=0x0:0xdf5113ab52a1004b,
restaurant,Warnet,Sinem Loket,"Q9WG+786, Unnamed Road, Batubulan, Kec. Siau Bar. Utara, Kabupaten Siau Tagulandang Biaro, Sulawesi Utara","Kabupaten Siau Tagulandang Biaro, Sulawesi Utara",SULAWESI UTARA,,Indonesia,81356296945.0,,,2.7956551,125.3757589,https://maps.google.com/?cid=0x0:0xe0b759c8fd3a3866,
restaurant,restaurant,Kec. Siau Tengah,"Kabupaten Siau Tagulandang Biaro, Sulawesi Utara","Kabupaten Siau Tagulandang Biaro, Sulawesi Utara",SULAWESI UTARA,,Indonesia,,,,2.7403638,125.378898,https://maps.google.com/?cid=0x0:0xcf7998cd0113e8b5,
restaurant,Jus,Cafe ceria,"Jl Tarorane Ling 2. Kec Siau Timur, Tarorane, Siau, Kabupaten Siau Tagulandang Biaro, Sulawesi Utara 95861","Tarorane, Siau, Kabupaten Siau Tagulandang Biaro",SULAWESI UTARA,95861.0,Indonesia,81243683078.0,,,2.7326694,125.4118114,https://maps.google.com/?cid=0x0:0xd0c747f445a52919,
restaurant,Mi,Mie'Ba Tahuna di Siau (Ci Serly),"Dekat Lorong Polsek, Kel. Paniki, Siau Bar., Kabupaten Siau Tagulandang Biaro, Sulawesi Utara","Kabupaten Siau Tagulandang Biaro, Sulawesi Utara",SULAWESI UTARA,,Indonesia,82271121271.0,,,2.7430358,125.3605566,https://maps.google.com/?cid=0x0:0x232f552039821191,
restaurant,Indonesia,Rumah makan Sahabat,"Tarorane, Kec. Siau Tim., Kabupaten Siau Tagulandang Biaro, Sulawesi Utara 95861","Kec. Siau Tim., Kabupaten Siau Tagulandang Biaro",SULAWESI UTARA,95861.0,Indonesia,81340672390.0,,,2.7296976,125.4081671,https://maps.google.com/?cid=0x0:0x6d34506f67095214,
restaurant,Restoran,Restoran Narwastu,"PCH5+R44, Akesimbeka, Kec. Siau Tim., Kabupaten Siau Tagulandang Biaro, Sulawesi Utara 95861","Akesimbeka, Kec. Siau Tim., Kabupaten Siau Tagulandang Biaro",SULAWESI UTARA,95861.0,Indonesia,,,,2.7295149,125.4078274,https://maps.google.com/?cid=0x0:0x52cd45d638a7d121,
restaurant,Toko Makanan,Kios Makan Jiejie Indri,"Paniki, Kabupaten Siau Tagulandang Biaro, Sulawesi Utara 95862",Kabupaten Siau Tagulandang Biaro,SULAWESI UTARA,95862.0,Indonesia,82188811456.0,,,2.744314,125.3605768,https://maps.google.com/?cid=0x0:0xb174923771e0f3b5,
restaurant,Restoran,"Warung Makan muslim DIFA""""","Jln.Boulevard Malele kompleks Bank BNI unit siau timur, Kec. Siau Tim., Sulawesi Utara 95861",Kec. Siau Tim.,SULAWESI UTARA,95861.0,Indonesia,82193000119.0,,,2.7315374,125.4112931,https://maps.google.com/?cid=0x0:0x67d594ef3cc341e8,
restaurant,Toko Makanan,RM OZZ,"P9V6+62Q, Lingk. I, Kel. Paniki, Kanawong, Siau Bar., Kabupaten Siau Tagulandang Biaro, Sulawesi Utara","Kabupaten Siau Tagulandang Biaro, Sulawesi Utara",SULAWESI UTARA,,Indonesia,,,,2.7430989,125.3601117,https://maps.google.com/?cid=0x0:0x51060451e131baab,
restaurant,Sesuai untuk keluarga,Aiko's kitchen,"P9V6+M8Q, Kanawong, Siau Bar., Kabupaten Siau Tagulandang Biaro, Sulawesi Utara","Kabupaten Siau Tagulandang Biaro, Sulawesi Utara",SULAWESI UTARA,,Indonesia,,,,2.7442116,125.3608663,https://maps.google.com/?cid=0x0:0x5a623cadf832d071,
restaurant,Rumah Makan,Ceplok Plus-Plus *Ondong,"Kanawong, Siau Bar., Kabupaten Siau Tagulandang Biaro, Sulawesi Utara","Kabupaten Siau Tagulandang Biaro, Sulawesi Utara",SULAWESI UTARA,,Indonesia,82190167897.0,,,2.7443114,125.361097,https://maps.google.com/?cid=0x0:0xfee8d8e463037c47,
restaurant,Mi,RM. Mie Ba ma ice,"Tim, Tarorane, Kec. Siau Tim., Kabupaten Siau Tagulandang Biaro, Sulawesi Utara 95861","Tarorane, Kec. Siau Tim., Kabupaten Siau Tagulandang Biaro",SULAWESI UTARA,95861.0,Indonesia,,,,2.7308534,125.4094308,https://maps.google.com/?cid=0x0:0x47a6257485253981,
restaurant,Padang,RM. FORTUNE,"P9V6+PCR, Jl.Lokong banua, Paniki, Siau Bar., Kabupaten Siau Tagulandang Biaro, Sulawesi Utara","Kabupaten Siau Tagulandang Biaro, Sulawesi Utara",SULAWESI UTARA,,Indonesia,82290675386.0,,,2.7443549,125.3610174,https://maps.google.com/?cid=0x0:0x69802a276451e94d,
restaurant,Padang,Mr. Selekta,"PCJ4+555, Unnamed Road, Tarorane, Siau Timur, Sitaro Islands Regency, North Sulawesi 95861","Unnamed Road, Tarorane, Siau Timur, Sitaro Islands Regency",SULAWESI UTARA,95861.0,Indonesia,85213285597.0,,,2.7303966,125.4054782,https://maps.google.com/?cid=0x0:0x15ce9ddf220fec9e,
restaurant,Mi,"Mie Ba Cici Mey""""","PCH4+J8P, jln, Akesimbeka, Kec. Siau Tim., Kabupaten Siau Tagulandang Biaro, Sulawesi Utara 95861","jln, Akesimbeka, Kec. Siau Tim., Kabupaten Siau Tagulandang Biaro",SULAWESI UTARA,95861.0,Indonesia,82188929386.0,,,2.7290881,125.4058409,https://maps.google.com/?cid=0x0:0x2a011506a4896cbc,
restaurant,Komplek perumahan,Kel. Lumbaghi-Maradung,"PCP3+2CV, Bebali, Kec. Siau Tim., Kabupaten Siau Tagulandang Biaro, Sulawesi Utara 95861","Bebali, Kec. Siau Tim., Kabupaten Siau Tagulandang Biaro",SULAWESI UTARA,95861.0,Indonesia,82195441999.0,,,2.7351212,125.4035504,https://maps.google.com/?cid=0x0:0x310ca9b213b6b4a6,
restaurant,Padang,Rm Fortune,"P9C8+P84, Ondong, siau, Kabupaten Siau Tagulandang Biaro, Sulawesi Utara","Kabupaten Siau Tagulandang Biaro, Sulawesi Utara",SULAWESI UTARA,,Indonesia,81340068875.0,,,2.721753,125.3658254,https://maps.google.com/?cid=0x0:0x88d2031b2426a98,
restaurant,Restoran,Rumah Makan Muslim,"PCH5+XH6, Pertokoan Pasar Ulu, Jl. Boulevard Ulusiau, Kabupaten Siau Tagulandang Biaro, Sulawesi Utara 95861","Pertokoan Pasar Ulu, Jl. Boulevard Ulusiau, Kabupaten Siau Tagulandang Biaro",SULAWESI UTARA,95861.0,Indonesia,,,,2.7299048,125.4088884,https://maps.google.com/?cid=0x0:0xf87be9e85d482ae8,
restaurant,Rumah Makan,Nasi Kuning Ci Yeti,"P9W6+828, Kanawong, Siau Bar., Kabupaten Siau Tagulandang Biaro, Sulawesi Utara","Kabupaten Siau Tagulandang Biaro, Sulawesi Utara",SULAWESI UTARA,,Indonesia,81356722567.0,,,2.7457765,125.3600935,https://maps.google.com/?cid=0x0:0xd74285cd21b03b78,
restaurant,Restoran,"RM VICTORY,Depan Kantor BUPATI SITARO","P9V6+QJX, Ondong, Siau Bar., Kabupaten Siau Tagulandang Biaro, Sulawesi Utara","Kabupaten Siau Tagulandang Biaro, Sulawesi Utara",SULAWESI UTARA,,Indonesia,85340248832.0,,,2.744485,125.3616066,https://maps.google.com/?cid=0x0:0x73a5712e2c4a4b67,
restaurant,Kafe,Ocean view cafe,"PCJ6+VQJ, Jalan boubou, Tarorane, Kec. Siau Tim., Kabupaten Siau Tagulandang Biaro, Sulawesi Utara 95861","Jalan boubou, Tarorane, Kec. Siau Tim., Kabupaten Siau Tagulandang Biaro",SULAWESI UTARA,95861.0,Indonesia,82193301880.0,,,2.7322237,125.4118913,https://maps.google.com/?cid=0x0:0x8bde2b01cf44c83,
restaurant,Restoran,Nasi Kuning Ma ELLEN,"Pasar Ampra Ulu Siau jln Lokongbanua.belakang ATM BANK SULUT ULU SIAU, Sulawesi Utara 95861","Kabupaten Siau Tagulandang Biaro, Sulawesi Utara",SULAWESI UTARA,,Indonesia,82187184402.0,,,2.7302787,125.4089579,https://maps.google.com/?cid=0x0:0x83a6a7884c6f1f8c,
restaurant,Dapur Umum,Rumah Makan Chia Kirana,"PCH4+86M, Bahu, Kec. Siau Tim., Kabupaten Siau Tagulandang Biaro, Sulawesi Utara 95861","Bahu, Kec. Siau Tim., Kabupaten Siau Tagulandang Biaro",SULAWESI UTARA,95861.0,Indonesia,82395331227.0,,,2.7283406,125.4055389,https://maps.google.com/?cid=0x0:0x485f0ac29c031c92,
restaurant,Mi,xie xie Boba Siau,"PCH4+RJ2, Unnamed Road, Akesimbeka, Kec. Siau Tim., Kabupaten Siau Tagulandang Biaro, Sulawesi Utara 95861","Unnamed Road, Akesimbeka, Kec. Siau Tim., Kabupaten Siau Tagulandang Biaro",SULAWESI UTARA,95861.0,Indonesia,82196477718.0,,,2.7295138,125.4065027,https://maps.google.com/?cid=0x0:0x9154a215145ab001,
restaurant,Mi,Mie'ba Ma Rat,"P9W6+76R, pasar di dekat, Kanawong, Siau Bar., Kabupaten Siau Tagulandang Biaro, Sulawesi Utara","Kabupaten Siau Tagulandang Biaro, Sulawesi Utara",SULAWESI UTARA,,Indonesia,,,,2.7457357,125.3605016,https://maps.google.com/?cid=0x0:0x76db34d254cef511,
restaurant,Brunch,R ED' n Sulbaks cafe,"P9V6+PCC, Jl. Lokongbanu, Kanawong, Siau Bar., Kabupaten Siau Tagulandang Biaro, Sulawesi Utara","Kabupaten Siau Tagulandang Biaro, Sulawesi Utara",SULAWESI UTARA,,Indonesia,82217640762.0,,,2.7443182,125.3610128,https://maps.google.com/?cid=0x0:0xa1deae67550d0bab,
restaurant,Rumah Makan,RM. Tibersa Ondong,"Kel, Depan Aula Kadademahe Ondong, Sulawesi Utara 95862",Depan Aula Kadademahe Ondong,SULAWESI UTARA,95862.0,Indonesia,85211776709.0,,,2.745857,125.3607337,https://maps.google.com/?cid=0x0:0xc2016b19e112de4e,
restaurant,restaurant,Sulawesi Utara 95861,"Kec. Siau Tim., Kabupaten Siau Tagulandang Biaro, Sulawesi Utara","Kabupaten Siau Tagulandang Biaro, Sulawesi Utara",SULAWESI UTARA,,Indonesia,,,,2.7629842,125.4233987,https://maps.google.com/?cid=0x0:0x412fe64cf4eae893,
restaurant,Indonesia,Ry's Kitchen,"PCM8+33J, Tarorane, Kec. Siau Tim., Kabupaten Siau Tagulandang Biaro, Sulawesi Utara 95861","Tarorane, Kec. Siau Tim., Kabupaten Siau Tagulandang Biaro",SULAWESI UTARA,95861.0,Indonesia,81245950819.0,,,2.732646,125.4151012,https://maps.google.com/?cid=0x0:0x66dc4616804518cf,
restaurant,Jus,Cafe ceria,"Jl Tarorane Ling 2. Kec Siau Timur, Tarorane, Siau, Kabupaten Siau Tagulandang Biaro, Sulawesi Utara 95861","Tarorane, Siau, Kabupaten Siau Tagulandang Biaro",SULAWESI UTARA,95861.0,Indonesia,81243683078.0,,,2.7326694,125.4118114,https://maps.google.com/?cid=0x0:0xd0c747f445a52919,
restaurant,Restoran,"Warung Makan muslim DIFA""""","Jln.Boulevard Malele kompleks Bank BNI unit siau timur, Kec. Siau Tim., Sulawesi Utara 95861",Kec. Siau Tim.,SULAWESI UTARA,95861.0,Indonesia,82193000119.0,,,2.7315374,125.4112931,https://maps.google.com/?cid=0x0:0x67d594ef3cc341e8,
restaurant,Indonesia,Rumah makan Sahabat,"Tarorane, Kec. Siau Tim., Kabupaten Siau Tagulandang Biaro, Sulawesi Utara 95861","Kec. Siau Tim., Kabupaten Siau Tagulandang Biaro",SULAWESI UTARA,95861.0,Indonesia,81340672390.0,,,2.7296976,125.4081671,https://maps.google.com/?cid=0x0:0x6d34506f67095214,
restaurant,Indonesia,RM GLORIA,"PCM7+99X, Jl HJ, Tarorane, Siau Timur, Sitaro Islands Regency, North Sulawesi 95861","Jl HJ, Tarorane, Siau Timur, Sitaro Islands Regency",SULAWESI UTARA,95861.0,Indonesia,82259061108.0,,,2.7334804,125.4134751,https://maps.google.com/?cid=0x0:0xc7fb7ab11340d7f8,
restaurant,Mi,RM. Mie Ba ma ice,"Tim, Tarorane, Kec. Siau Tim., Kabupaten Siau Tagulandang Biaro, Sulawesi Utara 95861","Tarorane, Kec. Siau Tim., Kabupaten Siau Tagulandang Biaro",SULAWESI UTARA,95861.0,Indonesia,,,,2.7308534,125.4094308,https://maps.google.com/?cid=0x0:0x47a6257485253981,
restaurant,Mi,Mie'Ba Tahuna di Siau (Ci Serly),"Dekat Lorong Polsek, Kel. Paniki, Siau Bar., Kabupaten Siau Tagulandang Biaro, Sulawesi Utara","Kabupaten Siau Tagulandang Biaro, Sulawesi Utara",SULAWESI UTARA,,Indonesia,82271121271.0,,,2.7430358,125.3605566,https://maps.google.com/?cid=0x0:0x232f552039821191,
restaurant,Kafetaria,Beach Coffee,"PCJ7+W3P, Bolevard, Tatahadeng, Kec. Siau Tim., Kabupaten Siau Tagulandang Biaro, Sulawesi Utara 95861","Bolevard, Tatahadeng, Kec. Siau Tim., Kabupaten Siau Tagulandang Biaro",SULAWESI UTARA,95861.0,Indonesia,82194764652.0,,,2.7323316,125.4127186,https://maps.google.com/?cid=0x0:0xa50b571f51c5fe29,
restaurant,Mi,"Mie Ba Cici Mey""""","PCH4+J8P, jln, Akesimbeka, Kec. Siau Tim., Kabupaten Siau Tagulandang Biaro, Sulawesi Utara 95861","jln, Akesimbeka, Kec. Siau Tim., Kabupaten Siau Tagulandang Biaro",SULAWESI UTARA,95861.0,Indonesia,82188929386.0,,,2.7290881,125.4058409,https://maps.google.com/?cid=0x0:0x2a011506a4896cbc,
restaurant,Toko Makanan,Kios Makan Jiejie Indri,"Paniki, Kabupaten Siau Tagulandang Biaro, Sulawesi Utara 95862",Kabupaten Siau Tagulandang Biaro,SULAWESI UTARA,95862.0,Indonesia,82188811456.0,,,2.744314,125.3605768,https://maps.google.com/?cid=0x0:0xb174923771e0f3b5,
restaurant,Rumah Makan,Dapur Mama'Je,"Tatahadeng, Kec. Siau Tim., Kabupaten Siau Tagulandang Biaro, Sulawesi Utara 95861","Kec. Siau Tim., Kabupaten Siau Tagulandang Biaro",SULAWESI UTARA,95861.0,Indonesia,81244573295.0,,,2.7330697,125.4124493,https://maps.google.com/?cid=0x0:0x494d9f744bb8f8a9,
restaurant,Restoran,TINUTUAN  NASKUN,"PCM6+6XH, Tarorane, Kec. Siau Tim., Kabupaten Siau Tagulandang Biaro, Sulawesi Utara 95861","Tarorane, Kec. Siau Tim., Kabupaten Siau Tagulandang Biaro",SULAWESI UTARA,95861.0,Indonesia,,,,2.7330749,125.4124805,https://maps.google.com/?cid=0x0:0x84a047a2df834d13,
restaurant,Indonesia,R.M Lovely Sawang,"M9XV+59Q, Sawang, Kec. Siau Tim. Sel., Kabupaten Siau Tagulandang Biaro, Sulawesi Utara 95867","Sawang, Kec. Siau Tim. Sel., Kabupaten Siau Tagulandang Biaro",SULAWESI UTARA,95867.0,Indonesia,82189213674.0,,,2.6979538,125.393489,https://maps.google.com/?cid=0x0:0x17e8616d61462d45,
restaurant,Komplek perumahan,Kel. Lumbaghi-Maradung,"PCP3+2CV, Bebali, Kec. Siau Tim., Kabupaten Siau Tagulandang Biaro, Sulawesi Utara 95861","Bebali, Kec. Siau Tim., Kabupaten Siau Tagulandang Biaro",SULAWESI UTARA,95861.0,Indonesia,82195441999.0,,,2.7351212,125.4035504,https://maps.google.com/?cid=0x0:0x310ca9b213b6b4a6,
restaurant,Toko Makanan,RM.PONDOK ALAM SITARO,"Kanawong, Siau Bar., Kabupaten Siau Tagulandang Biaro, Sulawesi Utara","Kabupaten Siau Tagulandang Biaro, Sulawesi Utara",SULAWESI UTARA,,Indonesia,81356031573.0,,,2.7451315,125.3610504,https://maps.google.com/?cid=0x0:0xed6ed268b6d4856c,
restaurant,Padang,Mr. Selekta,"PCJ4+555, Unnamed Road, Tarorane, Siau Timur, Sitaro Islands Regency, North Sulawesi 95861","Unnamed Road, Tarorane, Siau Timur, Sitaro Islands Regency",SULAWESI UTARA,95861.0,Indonesia,85213285597.0,,,2.7303966,125.4054782,https://maps.google.com/?cid=0x0:0x15ce9ddf220fec9e,
restaurant,Rumah Makan,warung christalvia,"Kompleks RSUD lapangan, Binalu, Kec. Siau Tim. Sel., Kabupaten Siau Tagulandang Biaro, Sulawesi Utara 95867","Binalu, Kec. Siau Tim. Sel., Kabupaten Siau Tagulandang Biaro",SULAWESI UTARA,95867.0,Indonesia,,,,2.6951429,125.396096,https://maps.google.com/?cid=0x0:0x112516e632db2797,
restaurant,Dapur Umum,Rumah Makan Chia Kirana,"PCH4+86M, Bahu, Kec. Siau Tim., Kabupaten Siau Tagulandang Biaro, Sulawesi Utara 95861","Bahu, Kec. Siau Tim., Kabupaten Siau Tagulandang Biaro",SULAWESI UTARA,95861.0,Indonesia,82395331227.0,,,2.7283406,125.4055389,https://maps.google.com/?cid=0x0:0x485f0ac29c031c92,
restaurant,Restoran,Pertigaan malele,"PCJ6+W98 Tim, Tarorane, Kec. Siau Tim., Kabupaten Siau Tagulandang Biaro, Sulawesi Utara 95861","Tarorane, Kec. Siau Tim., Kabupaten Siau Tagulandang Biaro",SULAWESI UTARA,95861.0,Indonesia,,,,2.7323197,125.4108939,https://maps.google.com/?cid=0x0:0x1fafc114fc3cece6,
restaurant,Mi,xie xie Boba Siau,"PCH4+RJ2, Unnamed Road, Akesimbeka, Kec. Siau Tim., Kabupaten Siau Tagulandang Biaro, Sulawesi Utara 95861","Unnamed Road, Akesimbeka, Kec. Siau Tim., Kabupaten Siau Tagulandang Biaro",SULAWESI UTARA,95861.0,Indonesia,82196477718.0,,,2.7295138,125.4065027,https://maps.google.com/?cid=0x0:0x9154a215145ab001,
restaurant,Restoran,Nasi Kuning Ma ELLEN,"Pasar Ampra Ulu Siau jln Lokongbanua.belakang ATM BANK SULUT ULU SIAU, Sulawesi Utara 95861","Kabupaten Siau Tagulandang Biaro, Sulawesi Utara",SULAWESI UTARA,,Indonesia,82187184402.0,,,2.7302787,125.4089579,https://maps.google.com/?cid=0x0:0x83a6a7884c6f1f8c,
restaurant,Kafe,Ocean view cafe,"PCJ6+VQJ, Jalan boubou, Tarorane, Kec. Siau Tim., Kabupaten Siau Tagulandang Biaro, Sulawesi Utara 95861","Jalan boubou, Tarorane, Kec. Siau Tim., Kabupaten Siau Tagulandang Biaro",SULAWESI UTARA,95861.0,Indonesia,82193301880.0,,,2.7322237,125.4118913,https://maps.google.com/?cid=0x0:0x8bde2b01cf44c83,
restaurant,Restoran,Rumah Makan Muslim,"PCH5+XH6, Pertokoan Pasar Ulu, Jl. Boulevard Ulusiau, Kabupaten Siau Tagulandang Biaro, Sulawesi Utara 95861","Pertokoan Pasar Ulu, Jl. Boulevard Ulusiau, Kabupaten Siau Tagulandang Biaro",SULAWESI UTARA,95861.0,Indonesia,,,,2.7299048,125.4088884,https://maps.google.com/?cid=0x0:0xf87be9e85d482ae8,
restaurant,Indonesia,Warung makan Eby,"Tatahadeng, lingkungan VI, Siau, Sulawesi Utara 95861","lingkungan VI, Siau",SULAWESI UTARA,95861.0,Indonesia,81241376942.0,,,2.7574695,125.4042121,https://maps.google.com/?cid=0x0:0xb9da0ba478a325d2,
restaurant,restaurant,Sulawesi Utara 95861,"Kec. Siau Tim., Kabupaten Siau Tagulandang Biaro, Sulawesi Utara","Kabupaten Siau Tagulandang Biaro, Sulawesi Utara",SULAWESI UTARA,,Indonesia,,,,2.7629842,125.4233987,https://maps.google.com/?cid=0x0:0x412fe64cf4eae893,
restaurant,Indonesia,Ry's Kitchen,"PCM8+33J, Tarorane, Kec. Siau Tim., Kabupaten Siau Tagulandang Biaro, Sulawesi Utara 95861","Tarorane, Kec. Siau Tim., Kabupaten Siau Tagulandang Biaro",SULAWESI UTARA,95861.0,Indonesia,81245950819.0,,,2.732646,125.4151012,https://maps.google.com/?cid=0x0:0x66dc4616804518cf,
restaurant,Jus,Cafe ceria,"Jl Tarorane Ling 2. Kec Siau Timur, Tarorane, Siau, Kabupaten Siau Tagulandang Biaro, Sulawesi Utara 95861","Tarorane, Siau, Kabupaten Siau Tagulandang Biaro",SULAWESI UTARA,95861.0,Indonesia,81243683078.0,,,2.7326694,125.4118114,https://maps.google.com/?cid=0x0:0xd0c747f445a52919,
restaurant,Indonesia,Rumah makan Sahabat,"Tarorane, Kec. Siau Tim., Kabupaten Siau Tagulandang Biaro, Sulawesi Utara 95861","Kec. Siau Tim., Kabupaten Siau Tagulandang Biaro",SULAWESI UTARA,95861.0,Indonesia,81340672390.0,,,2.7296976,125.4081671,https://maps.google.com/?cid=0x0:0x6d34506f67095214,
restaurant,Indonesia,RM GLORIA,"PCM7+99X, Jl HJ, Tarorane, Siau Timur, Sitaro Islands Regency, North Sulawesi 95861","Jl HJ, Tarorane, Siau Timur, Sitaro Islands Regency",SULAWESI UTARA,95861.0,Indonesia,82259061108.0,,,2.7334804,125.4134751,https://maps.google.com/?cid=0x0:0xc7fb7ab11340d7f8,
restaurant,Restoran,"Warung Makan muslim DIFA""""","Jln.Boulevard Malele kompleks Bank BNI unit siau timur, Kec. Siau Tim., Sulawesi Utara 95861",Kec. Siau Tim.,SULAWESI UTARA,95861.0,Indonesia,82193000119.0,,,2.7315374,125.4112931,https://maps.google.com/?cid=0x0:0x67d594ef3cc341e8,
restaurant,Indonesia,R.M Lovely Sawang,"M9XV+59Q, Sawang, Kec. Siau Tim. Sel., Kabupaten Siau Tagulandang Biaro, Sulawesi Utara 95867","Sawang, Kec. Siau Tim. Sel., Kabupaten Siau Tagulandang Biaro",SULAWESI UTARA,95867.0,Indonesia,82189213674.0,,,2.6979538,125.393489,https://maps.google.com/?cid=0x0:0x17e8616d61462d45,
restaurant,Kafetaria,Beach Coffee,"PCJ7+W3P, Bolevard, Tatahadeng, Kec. Siau Tim., Kabupaten Siau Tagulandang Biaro, Sulawesi Utara 95861","Bolevard, Tatahadeng, Kec. Siau Tim., Kabupaten Siau Tagulandang Biaro",SULAWESI UTARA,95861.0,Indonesia,82194764652.0,,,2.7323316,125.4127186,https://maps.google.com/?cid=0x0:0xa50b571f51c5fe29,
restaurant,Mi,RM. Mie Ba ma ice,"Tim, Tarorane, Kec. Siau Tim., Kabupaten Siau Tagulandang Biaro, Sulawesi Utara 95861","Tarorane, Kec. Siau Tim., Kabupaten Siau Tagulandang Biaro",SULAWESI UTARA,95861.0,Indonesia,,,,2.7308534,125.4094308,https://maps.google.com/?cid=0x0:0x47a6257485253981,
restaurant,Rumah Makan,warung christalvia,"Kompleks RSUD lapangan, Binalu, Kec. Siau Tim. Sel., Kabupaten Siau Tagulandang Biaro, Sulawesi Utara 95867","Binalu, Kec. Siau Tim. Sel., Kabupaten Siau Tagulandang Biaro",SULAWESI UTARA,95867.0,Indonesia,,,,2.6951429,125.396096,https://maps.google.com/?cid=0x0:0x112516e632db2797,
restaurant,Toko Makanan,RM.PONDOK ALAM SITARO,"Kanawong, Siau Bar., Kabupaten Siau Tagulandang Biaro, Sulawesi Utara","Kabupaten Siau Tagulandang Biaro, Sulawesi Utara",SULAWESI UTARA,,Indonesia,81356031573.0,,,2.7451315,125.3610504,https://maps.google.com/?cid=0x0:0xed6ed268b6d4856c,
restaurant,Restoran,TINUTUAN  NASKUN,"PCM6+6XH, Tarorane, Kec. Siau Tim., Kabupaten Siau Tagulandang Biaro, Sulawesi Utara 95861","Tarorane, Kec. Siau Tim., Kabupaten Siau Tagulandang Biaro",SULAWESI UTARA,95861.0,Indonesia,,,,2.7330749,125.4124805,https://maps.google.com/?cid=0x0:0x84a047a2df834d13,
restaurant,Mi,Mie'Ba Tahuna di Siau (Ci Serly),"Dekat Lorong Polsek, Kel. Paniki, Siau Bar., Kabupaten Siau Tagulandang Biaro, Sulawesi Utara","Kabupaten Siau Tagulandang Biaro, Sulawesi Utara",SULAWESI UTARA,,Indonesia,82271121271.0,,,2.7430358,125.3605566,https://maps.google.com/?cid=0x0:0x232f552039821191,
restaurant,Padang,Mr. Selekta,"PCJ4+555, Unnamed Road, Tarorane, Siau Timur, Sitaro Islands Regency, North Sulawesi 95861","Unnamed Road, Tarorane, Siau Timur, Sitaro Islands Regency",SULAWESI UTARA,95861.0,Indonesia,85213285597.0,,,2.7303966,125.4054782,https://maps.google.com/?cid=0x0:0x15ce9ddf220fec9e,
restaurant,Mi,"Mie Ba Cici Mey""""","PCH4+J8P, jln, Akesimbeka, Kec. Siau Tim., Kabupaten Siau Tagulandang Biaro, Sulawesi Utara 95861","jln, Akesimbeka, Kec. Siau Tim., Kabupaten Siau Tagulandang Biaro",SULAWESI UTARA,95861.0,Indonesia,82188929386.0,,,2.7290881,125.4058409,https://maps.google.com/?cid=0x0:0x2a011506a4896cbc,
restaurant,Rumah Makan,Dapur Mama'Je,"Tatahadeng, Kec. Siau Tim., Kabupaten Siau Tagulandang Biaro, Sulawesi Utara 95861","Kec. Siau Tim., Kabupaten Siau Tagulandang Biaro",SULAWESI UTARA,95861.0,Indonesia,81244573295.0,,,2.7330697,125.4124493,https://maps.google.com/?cid=0x0:0x494d9f744bb8f8a9,
restaurant,Kafe,Ocean view cafe,"PCJ6+VQJ, Jalan boubou, Tarorane, Kec. Siau Tim., Kabupaten Siau Tagulandang Biaro, Sulawesi Utara 95861","Jalan boubou, Tarorane, Kec. Siau Tim., Kabupaten Siau Tagulandang Biaro",SULAWESI UTARA,95861.0,Indonesia,82193301880.0,,,2.7322237,125.4118913,https://maps.google.com/?cid=0x0:0x8bde2b01cf44c83,
restaurant,Komplek perumahan,Kel. Lumbaghi-Maradung,"PCP3+2CV, Bebali, Kec. Siau Tim., Kabupaten Siau Tagulandang Biaro, Sulawesi Utara 95861","Bebali, Kec. Siau Tim., Kabupaten Siau Tagulandang Biaro",SULAWESI UTARA,95861.0,Indonesia,82195441999.0,,,2.7351212,125.4035504,https://maps.google.com/?cid=0x0:0x310ca9b213b6b4a6,
restaurant,Restoran,Pertigaan malele,"PCJ6+W98 Tim, Tarorane, Kec. Siau Tim., Kabupaten Siau Tagulandang Biaro, Sulawesi Utara 95861","Tarorane, Kec. Siau Tim., Kabupaten Siau Tagulandang Biaro",SULAWESI UTARA,95861.0,Indonesia,,,,2.7323197,125.4108939,https://maps.google.com/?cid=0x0:0x1fafc114fc3cece6,
restaurant,Toko Makanan,Kios Makan Jiejie Indri,"Paniki, Kabupaten Siau Tagulandang Biaro, Sulawesi Utara 95862",Kabupaten Siau Tagulandang Biaro,SULAWESI UTARA,95862.0,Indonesia,82188811456.0,,,2.744314,125.3605768,https://maps.google.com/?cid=0x0:0xb174923771e0f3b5,
restaurant,Dapur Umum,Rumah Makan Chia Kirana,"PCH4+86M, Bahu, Kec. Siau Tim., Kabupaten Siau Tagulandang Biaro, Sulawesi Utara 95861","Bahu, Kec. Siau Tim., Kabupaten Siau Tagulandang Biaro",SULAWESI UTARA,95861.0,Indonesia,82395331227.0,,,2.7283406,125.4055389,https://maps.google.com/?cid=0x0:0x485f0ac29c031c92,
restaurant,Restoran,Nasi Kuning Ma ELLEN,"Pasar Ampra Ulu Siau jln Lokongbanua.belakang ATM BANK SULUT ULU SIAU, Sulawesi Utara 95861","Kabupaten Siau Tagulandang Biaro, Sulawesi Utara",SULAWESI UTARA,,Indonesia,82187184402.0,,,2.7302787,125.4089579,https://maps.google.com/?cid=0x0:0x83a6a7884c6f1f8c,
restaurant,Restoran,Rumah Makan Muslim,"PCH5+XH6, Pertokoan Pasar Ulu, Jl. Boulevard Ulusiau, Kabupaten Siau Tagulandang Biaro, Sulawesi Utara 95861","Pertokoan Pasar Ulu, Jl. Boulevard Ulusiau, Kabupaten Siau Tagulandang Biaro",SULAWESI UTARA,95861.0,Indonesia,,,,2.7299048,125.4088884,https://maps.google.com/?cid=0x0:0xf87be9e85d482ae8,
restaurant,Mi,xie xie Boba Siau,"PCH4+RJ2, Unnamed Road, Akesimbeka, Kec. Siau Tim., Kabupaten Siau Tagulandang Biaro, Sulawesi Utara 95861","Unnamed Road, Akesimbeka, Kec. Siau Tim., Kabupaten Siau Tagulandang Biaro",SULAWESI UTARA,95861.0,Indonesia,82196477718.0,,,2.7295138,125.4065027,https://maps.google.com/?cid=0x0:0x9154a215145ab001,
restaurant,restaurant,Kec. Tagulandang,"Kabupaten Siau Tagulandang Biaro, Sulawesi Utara","Kabupaten Siau Tagulandang Biaro, Sulawesi Utara",SULAWESI UTARA,,Indonesia,,,,2.3461009,125.3780692,https://maps.google.com/?cid=0x0:0x209bd6bf153ba2f,
restaurant,Sarapan,Rumah Makan Sederhana Tagulandang (Barangka Pehe),"Bahoi, Kec. Tagulandang, Kabupaten Siau Tagulandang Biaro, Sulawesi Utara","Kabupaten Siau Tagulandang Biaro, Sulawesi Utara",SULAWESI UTARA,,Indonesia,82195000261.0,,,2.3325418,125.3890519,https://maps.google.com/?cid=0x0:0x503b35a4eac0a0f,
restaurant,Kedai Kopi,ChillOut Cafe,"Balehumara, Kec. Tagulandang, Kabupaten Siau Tagulandang Biaro, Sulawesi Utara","Kabupaten Siau Tagulandang Biaro, Sulawesi Utara",SULAWESI UTARA,,Indonesia,85341777670.0,,,2.3438825,125.379589,https://maps.google.com/?cid=0x0:0xde4c9682e811fffb,
restaurant,Restoran,Rumah Makan Sederhana Tagulandang (Nasional Food),"Unnamed Road, Barangka Pehe, Tagulandang, Sitaro Islands Regency, North Sulawesi","Kabupaten Siau Tagulandang Biaro, Sulawesi Utara",SULAWESI UTARA,,Indonesia,82188989281.0,,,2.3433285,125.3810477,https://maps.google.com/?cid=0x0:0x290b0d2e674518ab,
restaurant,Rumah Makan,RM.EKLESIA  Sound Rental,"89VJ+5H9, Bahoi, Kec. Tagulandang, Kabupaten Siau Tagulandang Biaro, Sulawesi Utara","Kabupaten Siau Tagulandang Biaro, Sulawesi Utara",SULAWESI UTARA,,Indonesia,,,,2.3429002,125.3814707,https://maps.google.com/?cid=0x0:0xcae7a3d8228ef065,
restaurant,Restoran,RM. FRIENDLY,"89VH+MQC, Balehumara, Kec. Tagulandang, SITARO, Sulawesi Utara","SITARO, Sulawesi Utara",SULAWESI UTARA,,Indonesia,82349659804.0,,,2.3441944,125.3793808,https://maps.google.com/?cid=0x0:0xe4796cf78b14848e,
restaurant,Kafetaria,REVISCHO cafe,"8CG7+398, Mahangiang, Kec. Tagulandang, Kabupaten Siau Tagulandang Biaro, Sulawesi Utara","Kabupaten Siau Tagulandang Biaro, Sulawesi Utara",SULAWESI UTARA,,Indonesia,82395331535.0,,,2.32516,125.4134407,https://maps.google.com/?cid=0x0:0xaa7225014a58bc13,
restaurant,Kedai Kopi,Nggon cangkrukan e Nian,"89VP+G5G, Unnamed Road, Barangka Pehe, Tagulandang, Sitaro Islands Regency, North Sulawesi","Kabupaten Siau Tagulandang Biaro, Sulawesi Utara",SULAWESI UTARA,,Indonesia,,,,2.3438078,125.3854467,https://maps.google.com/?cid=0x0:0x45cfeeb7805e9ce3,
restaurant,Nasi,R.M Bakso Nayla,"89XG+J2G, Balehumara, Kec. Tagulandang, Kabupaten Siau Tagulandang Biaro, Sulawesi Utara","Kabupaten Siau Tagulandang Biaro, Sulawesi Utara",SULAWESI UTARA,,Indonesia,85240200455.0,,,2.3490655,125.3750634,https://maps.google.com/?cid=0x0:0xdc56ad0319bd7abc,
restaurant,Brunch,RM.SELEBRITIS RESKY,"89VH+FW8, Balehumara, Kec. Tagulandang, Kabupaten Siau Tagulandang Biaro, Sulawesi Utara","Kabupaten Siau Tagulandang Biaro, Sulawesi Utara",SULAWESI UTARA,,Indonesia,85340008043.0,,,2.3436642,125.379826,https://maps.google.com/?cid=0x0:0xf99717285e3ce811,
restaurant,Rumah Makan,Rumah makan mulet,"994M+C4C, Boto, Kec. Tagulandang, Kabupaten Siau Tagulandang Biaro, Sulawesi Utara","Kabupaten Siau Tagulandang Biaro, Sulawesi Utara",SULAWESI UTARA,,Indonesia,,,,2.3560684,125.3827572,https://maps.google.com/?cid=0x0:0x7d44d3a2f916988e,
restaurant,Pertanian,Mandolokang King Spices,"Unnamed Road, Mahangiang, Kec. Tagulandang, Kabupaten Siau Tagulandang Biaro, Sulawesi Utara","Kabupaten Siau Tagulandang Biaro, Sulawesi Utara",SULAWESI UTARA,,Indonesia,82194967227.0,,,2.3284668,125.3938346,https://maps.google.com/?cid=0x0:0x6da021e72c21c673,
restaurant,Brunch,RM. CHRISTA,"RT.lingkungan 3/RW.rt 001, Bahoi, Kec. Tagulandang, Kabupaten Siau Tagulandang Biaro, Sulawesi Utara 95863","Bahoi, Kec. Tagulandang, Kabupaten Siau Tagulandang Biaro",SULAWESI UTARA,95863.0,Indonesia,82259119394.0,,,2.3413834,125.3817631,https://maps.google.com/?cid=0x0:0xd8144c8f97b18fa3,
restaurant,Rumah Makan,MIE BAKSO HAMU MAS KEVIN,"Bahoi, Kec. Tagulandang, Kabupaten Siau Tagulandang Biaro, Sulawesi Utara","Kabupaten Siau Tagulandang Biaro, Sulawesi Utara",SULAWESI UTARA,,Indonesia,81354012599.0,,,2.341679,125.3825359,https://maps.google.com/?cid=0x0:0xe5106a9d68403ca2,
restaurant,Dapur Umum,Dapur Rantau,"89RM+3GV, Barangka Pehe, Kec. Tagulandang, Kabupaten Siau Tagulandang Biaro, Sulawesi Utara","Kabupaten Siau Tagulandang Biaro, Sulawesi Utara",SULAWESI UTARA,,Indonesia,82187957383.0,,,2.3402382,125.3838029,https://maps.google.com/?cid=0x0:0x4ac6f0e6c6688f0d,
restaurant,Rumah Makan,Rumah Makan Ci OLA,"89WH+88C, Balehumara, Kec. Tagulandang, Kabupaten Siau Tagulandang Biaro, Sulawesi Utara","Kabupaten Siau Tagulandang Biaro, Sulawesi Utara",SULAWESI UTARA,,Indonesia,81244389373.0,,,2.3458051,125.3782745,https://maps.google.com/?cid=0x0:0x1016770faf48b9cb,
restaurant,Kafe,Kedaiglo Tagulandang,"996F+46, Lesah, Kec. Tagulandang, Kabupaten Siau Tagulandang Biaro, Sulawesi Utara","Kabupaten Siau Tagulandang Biaro, Sulawesi Utara",SULAWESI UTARA,,Indonesia,85247102969.0,,,2.3603765,125.3730211,https://maps.google.com/?cid=0x0:0xdf5c3e695fc0cbaa,
restaurant,Restoran,Warung Makan  Jualan Barito,"Haasi, Kec. Tagulandang, Kabupaten Siau Tagulandang Biaro, Sulawesi Utara 95863","Kec. Tagulandang, Kabupaten Siau Tagulandang Biaro",SULAWESI UTARA,95863.0,Indonesia,82267695219.0,,,2.3186683,125.4192862,https://maps.google.com/?cid=0x0:0xef4678496b3d04db,
restaurant,Dapur Umum,Bandil-Nanuru,"Lorong panoka, RT.lind 2, Kisihang, Kec. Tagulandang Sel., Kabupaten Siau Tagulandang Biaro, Sulawesi Utara 95863","RT.lind 2, Kisihang, Kec. Tagulandang Sel., Kabupaten Siau Tagulandang Biaro",SULAWESI UTARA,95863.0,Indonesia,,,,2.3308508,125.4425807,https://maps.google.com/?cid=0x0:0x2d6f028a07cc8027,
restaurant,Brunch,Rumah Makan GBU,"992H+273, Balehumara, Kec. Tagulandang, Kabupaten Siau Tagulandang Biaro, Sulawesi Utara","Kabupaten Siau Tagulandang Biaro, Sulawesi Utara",SULAWESI UTARA,,Indonesia,81342667407.0,,,2.3500139,125.378166,https://maps.google.com/?cid=0x0:0xa3df70ffb4e65727,
restaurant,Indonesia,R.M Keren,"9C3G+HGV, Bawoleu, Kec. Tagulandang Utara, Kabupaten Siau Tagulandang Biaro, Sulawesi Utara","Kabupaten Siau Tagulandang Biaro, Sulawesi Utara",SULAWESI UTARA,,Indonesia,85255600849.0,,,2.3534575,125.4259894,https://maps.google.com/?cid=0x0:0x8f1072ae50e6077,
restaurant,Toko Makanan,RM.PONDOK ALAM SITARO,"Kanawong, Siau Bar., Kabupaten Siau Tagulandang Biaro, Sulawesi Utara","Kabupaten Siau Tagulandang Biaro, Sulawesi Utara",SULAWESI UTARA,,Indonesia,81356031573.0,,,2.7451315,125.3610504,https://maps.google.com/?cid=0x0:0xed6ed268b6d4856c,
restaurant,Sarapan,Warung makan nasi kuning  mie ba,"8C99+CRP, Unnamed Road, Haasi, Kec. Tagulandang Sel., Kabupaten Siau Tagulandang Biaro, Sulawesi Utara","Kabupaten Siau Tagulandang Biaro, Sulawesi Utara",SULAWESI UTARA,,Indonesia,,,,2.318581,125.419575,https://maps.google.com/?cid=0x0:0x6304160bc4fe1196,
restaurant,restaurant,Kec. Tagulandang Sel.,"Kabupaten Siau Tagulandang Biaro, Sulawesi Utara","Kabupaten Siau Tagulandang Biaro, Sulawesi Utara",SULAWESI UTARA,,Indonesia,,,,2.3182823,125.4355499,https://maps.google.com/?cid=0x0:0x4ac91ac814e7666a,
restaurant,Sarapan,Rumah Makan Sederhana Tagulandang (Barangka Pehe),"Bahoi, Kec. Tagulandang, Kabupaten Siau Tagulandang Biaro, Sulawesi Utara","Kabupaten Siau Tagulandang Biaro, Sulawesi Utara",SULAWESI UTARA,,Indonesia,82195000261.0,,,2.3325418,125.3890519,https://maps.google.com/?cid=0x0:0x503b35a4eac0a0f,
restaurant,Kafetaria,REVISCHO cafe,"8CG7+398, Mahangiang, Kec. Tagulandang, Kabupaten Siau Tagulandang Biaro, Sulawesi Utara","Kabupaten Siau Tagulandang Biaro, Sulawesi Utara",SULAWESI UTARA,,Indonesia,82395331535.0,,,2.32516,125.4134407,https://maps.google.com/?cid=0x0:0xaa7225014a58bc13,
restaurant,Dapur Umum,Bandil-Nanuru,"Lorong panoka, RT.lind 2, Kisihang, Kec. Tagulandang Sel., Kabupaten Siau Tagulandang Biaro, Sulawesi Utara 95863","RT.lind 2, Kisihang, Kec. Tagulandang Sel., Kabupaten Siau Tagulandang Biaro",SULAWESI UTARA,95863.0,Indonesia,,,,2.3308508,125.4425807,https://maps.google.com/?cid=0x0:0x2d6f028a07cc8027,
restaurant,Rumah Makan,RM.Al-fathur  Aiska,"89WH+82P, Balehumara, Kec. Tagulandang, Kabupaten Siau Tagulandang Biaro, Sulawesi Utara","Kabupaten Siau Tagulandang Biaro, Sulawesi Utara",SULAWESI UTARA,,Indonesia,,,,2.3458263,125.3775805,https://maps.google.com/?cid=0x0:0xf66514e012811ee6,
restaurant,Toko Makanan,RM.PONDOK ALAM SITARO,"Kanawong, Siau Bar., Kabupaten Siau Tagulandang Biaro, Sulawesi Utara","Kabupaten Siau Tagulandang Biaro, Sulawesi Utara",SULAWESI UTARA,,Indonesia,81356031573.0,,,2.7451315,125.3610504,https://maps.google.com/?cid=0x0:0xed6ed268b6d4856c,
restaurant,Restoran,Warung Makan  Jualan Barito,"Haasi, Kec. Tagulandang, Kabupaten Siau Tagulandang Biaro, Sulawesi Utara 95863","Kec. Tagulandang, Kabupaten Siau Tagulandang Biaro",SULAWESI UTARA,95863.0,Indonesia,82267695219.0,,,2.3186683,125.4192862,https://maps.google.com/?cid=0x0:0xef4678496b3d04db,
restaurant,Brunch,RM.SELEBRITIS RESKY,"89VH+FW8, Balehumara, Kec. Tagulandang, Kabupaten Siau Tagulandang Biaro, Sulawesi Utara","Kabupaten Siau Tagulandang Biaro, Sulawesi Utara",SULAWESI UTARA,,Indonesia,85340008043.0,,,2.3436642,125.379826,https://maps.google.com/?cid=0x0:0xf99717285e3ce811,
restaurant,Sarapan,Warung makan nasi kuning  mie ba,"8C99+CRP, Unnamed Road, Haasi, Kec. Tagulandang Sel., Kabupaten Siau Tagulandang Biaro, Sulawesi Utara","Kabupaten Siau Tagulandang Biaro, Sulawesi Utara",SULAWESI UTARA,,Indonesia,,,,2.318581,125.419575,https://maps.google.com/?cid=0x0:0x6304160bc4fe1196,
restaurant,Brunch,RM. CHRISTA,"RT.lingkungan 3/RW.rt 001, Bahoi, Kec. Tagulandang, Kabupaten Siau Tagulandang Biaro, Sulawesi Utara 95863","Bahoi, Kec. Tagulandang, Kabupaten Siau Tagulandang Biaro",SULAWESI UTARA,95863.0,Indonesia,82259119394.0,,,2.3413834,125.3817631,https://maps.google.com/?cid=0x0:0xd8144c8f97b18fa3,
restaurant,Indonesia,R.M Keren,"9C3G+HGV, Bawoleu, Kec. Tagulandang Utara, Kabupaten Siau Tagulandang Biaro, Sulawesi Utara","Kabupaten Siau Tagulandang Biaro, Sulawesi Utara",SULAWESI UTARA,,Indonesia,85255600849.0,,,2.3534575,125.4259894,https://maps.google.com/?cid=0x0:0x8f1072ae50e6077,
restaurant,Restoran,Restoran Narwastu,"PCH5+R44, Akesimbeka, Kec. Siau Tim., Kabupaten Siau Tagulandang Biaro, Sulawesi Utara 95861","Akesimbeka, Kec. Siau Tim., Kabupaten Siau Tagulandang Biaro",SULAWESI UTARA,95861.0,Indonesia,,,,2.7295149,125.4078274,https://maps.google.com/?cid=0x0:0x52cd45d638a7d121,
restaurant,Rumah Makan,Rumah Makan Ci OLA,"89WH+88C, Balehumara, Kec. Tagulandang, Kabupaten Siau Tagulandang Biaro, Sulawesi Utara","Kabupaten Siau Tagulandang Biaro, Sulawesi Utara",SULAWESI UTARA,,Indonesia,81244389373.0,,,2.3458051,125.3782745,https://maps.google.com/?cid=0x0:0x1016770faf48b9cb,
restaurant,Dapur Umum,Kantin Mama Lidya,"Humbia, Kec. Tagulandang Sel., Kabupaten Siau Tagulandang Biaro, Sulawesi Utara","Kabupaten Siau Tagulandang Biaro, Sulawesi Utara",SULAWESI UTARA,,Indonesia,85256385226.0,,,2.3179278,125.4279522,https://maps.google.com/?cid=0x0:0x3071a719cc8c581b,
restaurant,Rumah Makan,Rumah makan mulet,"994M+C4C, Boto, Kec. Tagulandang, Kabupaten Siau Tagulandang Biaro, Sulawesi Utara","Kabupaten Siau Tagulandang Biaro, Sulawesi Utara",SULAWESI UTARA,,Indonesia,,,,2.3560684,125.3827572,https://maps.google.com/?cid=0x0:0x7d44d3a2f916988e,
restaurant,Kios,Kios Miracle,"9F25+RVH, Birakiama, Kec. Tagulandang Sel., Kabupaten Siau Tagulandang Biaro, Sulawesi Utara","Kabupaten Siau Tagulandang Biaro, Sulawesi Utara",SULAWESI UTARA,,Indonesia,,,,2.3520622,125.459743,https://maps.google.com/?cid=0x0:0x3592901ced8ae957,
restaurant,Brunch,RM.AZKIA bawoleu,"9C3G+873, Bawoleu, Kec. Tagulandang Utara, Kabupaten Siau Tagulandang Biaro, Sulawesi Utara","Kabupaten Siau Tagulandang Biaro, Sulawesi Utara",SULAWESI UTARA,,Indonesia,82196161938.0,,,2.3532538,125.4256709,https://maps.google.com/?cid=0x0:0x494c9b052266695d,
restaurant,Rumah Makan,warung christalvia,"Kompleks RSUD lapangan, Binalu, Kec. Siau Tim. Sel., Kabupaten Siau Tagulandang Biaro, Sulawesi Utara 95867","Binalu, Kec. Siau Tim. Sel., Kabupaten Siau Tagulandang Biaro",SULAWESI UTARA,95867.0,Indonesia,,,,2.6951429,125.396096,https://maps.google.com/?cid=0x0:0x112516e632db2797,
restaurant,Padang,Rm Fortune,"P9C8+P84, Ondong, siau, Kabupaten Siau Tagulandang Biaro, Sulawesi Utara","Kabupaten Siau Tagulandang Biaro, Sulawesi Utara",SULAWESI UTARA,,Indonesia,81340068875.0,,,2.721753,125.3658254,https://maps.google.com/?cid=0x0:0x88d2031b2426a98,
restaurant,Kedai Kopi,Gio Lohonauman,"8FW6+J72, Birakiama, Kec. Tagulandang Sel., Kabupaten Siau Tagulandang Biaro, Sulawesi Utara","Kabupaten Siau Tagulandang Biaro, Sulawesi Utara",SULAWESI UTARA,,Indonesia,,,,2.3465097,125.4606465,https://maps.google.com/?cid=0x0:0xb34b132193a0397e,
restaurant,Restoran,Rm.pelangi,"49F6+7Q7, Lamanggo, Kec. Biaro, Kabupaten Siau Tagulandang Biaro, Sulawesi Utara","Kabupaten Siau Tagulandang Biaro, Sulawesi Utara",SULAWESI UTARA,,Indonesia,,,,2.123167,125.3619101,https://maps.google.com/?cid=0x0:0x619778233d7f3ca3,
restaurant,Brunch,R ED' n Sulbaks cafe,"P9V6+PCC, Jl. Lokongbanu, Kanawong, Siau Bar., Kabupaten Siau Tagulandang Biaro, Sulawesi Utara","Kabupaten Siau Tagulandang Biaro, Sulawesi Utara",SULAWESI UTARA,,Indonesia,82217640762.0,,,2.7443182,125.3610128,https://maps.google.com/?cid=0x0:0xa1deae67550d0bab,
restaurant,Pertanian,Mandolokang King Spices,"Unnamed Road, Mahangiang, Kec. Tagulandang, Kabupaten Siau Tagulandang Biaro, Sulawesi Utara","Kabupaten Siau Tagulandang Biaro, Sulawesi Utara",SULAWESI UTARA,,Indonesia,82194967227.0,,,2.3284668,125.3938346,https://maps.google.com/?cid=0x0:0x6da021e72c21c673,
restaurant,Toko Makanan,RM Tambers,"Kompleks SMA 1 Siau Barat. Kel Paniki, Kabupaten Siau Tagulandang Biaro, Sulawesi Utara 95862",Kabupaten Siau Tagulandang Biaro,SULAWESI UTARA,95862.0,Indonesia,85298600630.0,,,2.7403416,125.3608098,https://maps.google.com/?cid=0x0:0x902359867ebc14de,
restaurant,restaurant,Kec. Tagulandang Utara,"Kabupaten Siau Tagulandang Biaro, Sulawesi Utara","Kabupaten Siau Tagulandang Biaro, Sulawesi Utara",SULAWESI UTARA,,Indonesia,,,,2.3482186,125.4232499,https://maps.google.com/?cid=0x0:0x92479453b06a48b4,
restaurant,Sarapan,Rumah Makan Sederhana Tagulandang (Barangka Pehe),"Bahoi, Kec. Tagulandang, Kabupaten Siau Tagulandang Biaro, Sulawesi Utara","Kabupaten Siau Tagulandang Biaro, Sulawesi Utara",SULAWESI UTARA,,Indonesia,82195000261.0,,,2.3325418,125.3890519,https://maps.google.com/?cid=0x0:0x503b35a4eac0a0f,
restaurant,Kedai Kopi,ChillOut Cafe,"Balehumara, Kec. Tagulandang, Kabupaten Siau Tagulandang Biaro, Sulawesi Utara","Kabupaten Siau Tagulandang Biaro, Sulawesi Utara",SULAWESI UTARA,,Indonesia,85341777670.0,,,2.3438825,125.379589,https://maps.google.com/?cid=0x0:0xde4c9682e811fffb,
restaurant,Rumah Makan,RM.Al-fathur  Aiska,"89WH+82P, Balehumara, Kec. Tagulandang, Kabupaten Siau Tagulandang Biaro, Sulawesi Utara","Kabupaten Siau Tagulandang Biaro, Sulawesi Utara",SULAWESI UTARA,,Indonesia,,,,2.3458263,125.3775805,https://maps.google.com/?cid=0x0:0xf66514e012811ee6,
restaurant,Kafetaria,REVISCHO cafe,"8CG7+398, Mahangiang, Kec. Tagulandang, Kabupaten Siau Tagulandang Biaro, Sulawesi Utara","Kabupaten Siau Tagulandang Biaro, Sulawesi Utara",SULAWESI UTARA,,Indonesia,82395331535.0,,,2.32516,125.4134407,https://maps.google.com/?cid=0x0:0xaa7225014a58bc13,
restaurant,Kedai Kopi,Nggon cangkrukan e Nian,"89VP+G5G, Unnamed Road, Barangka Pehe, Tagulandang, Sitaro Islands Regency, North Sulawesi","Kabupaten Siau Tagulandang Biaro, Sulawesi Utara",SULAWESI UTARA,,Indonesia,,,,2.3438078,125.3854467,https://maps.google.com/?cid=0x0:0x45cfeeb7805e9ce3,
restaurant,Restoran,Rumah Makan Sederhana Tagulandang (Nasional Food),"Unnamed Road, Barangka Pehe, Tagulandang, Sitaro Islands Regency, North Sulawesi","Kabupaten Siau Tagulandang Biaro, Sulawesi Utara",SULAWESI UTARA,,Indonesia,82188989281.0,,,2.3433285,125.3810477,https://maps.google.com/?cid=0x0:0x290b0d2e674518ab,
restaurant,Indonesia,R.M Keren,"9C3G+HGV, Bawoleu, Kec. Tagulandang Utara, Kabupaten Siau Tagulandang Biaro, Sulawesi Utara","Kabupaten Siau Tagulandang Biaro, Sulawesi Utara",SULAWESI UTARA,,Indonesia,85255600849.0,,,2.3534575,125.4259894,https://maps.google.com/?cid=0x0:0x8f1072ae50e6077,
restaurant,Brunch,RM.SELEBRITIS RESKY,"89VH+FW8, Balehumara, Kec. Tagulandang, Kabupaten Siau Tagulandang Biaro, Sulawesi Utara","Kabupaten Siau Tagulandang Biaro, Sulawesi Utara",SULAWESI UTARA,,Indonesia,85340008043.0,,,2.3436642,125.379826,https://maps.google.com/?cid=0x0:0xf99717285e3ce811,
restaurant,Rumah Makan,MIE BAKSO HAMU MAS KEVIN,"Bahoi, Kec. Tagulandang, Kabupaten Siau Tagulandang Biaro, Sulawesi Utara","Kabupaten Siau Tagulandang Biaro, Sulawesi Utara",SULAWESI UTARA,,Indonesia,81354012599.0,,,2.341679,125.3825359,https://maps.google.com/?cid=0x0:0xe5106a9d68403ca2,
restaurant,Dapur Umum,Bandil-Nanuru,"Lorong panoka, RT.lind 2, Kisihang, Kec. Tagulandang Sel., Kabupaten Siau Tagulandang Biaro, Sulawesi Utara 95863","RT.lind 2, Kisihang, Kec. Tagulandang Sel., Kabupaten Siau Tagulandang Biaro",SULAWESI UTARA,95863.0,Indonesia,,,,2.3308508,125.4425807,https://maps.google.com/?cid=0x0:0x2d6f028a07cc8027,
restaurant,Nasi,R.M Bakso Nayla,"89XG+J2G, Balehumara, Kec. Tagulandang, Kabupaten Siau Tagulandang Biaro, Sulawesi Utara","Kabupaten Siau Tagulandang Biaro, Sulawesi Utara",SULAWESI UTARA,,Indonesia,85240200455.0,,,2.3490655,125.3750634,https://maps.google.com/?cid=0x0:0xdc56ad0319bd7abc,
restaurant,Kedai Kopi,Bohoy tagulandang,"9C86+G4R, Bokep pehe, Kec. Tagulandang, Kabupaten Siau Tagulandang Biaro, Sulawesi Utara","Kabupaten Siau Tagulandang Biaro, Sulawesi Utara",SULAWESI UTARA,,Indonesia,,,,2.3663627,125.410271,https://maps.google.com/?cid=0x0:0x83564d11affc6a84,
restaurant,Rumah Makan,Rumah Makan Ci OLA,"89WH+88C, Balehumara, Kec. Tagulandang, Kabupaten Siau Tagulandang Biaro, Sulawesi Utara","Kabupaten Siau Tagulandang Biaro, Sulawesi Utara",SULAWESI UTARA,,Indonesia,81244389373.0,,,2.3458051,125.3782745,https://maps.google.com/?cid=0x0:0x1016770faf48b9cb,
restaurant,Rumah Makan,Rumah makan mulet,"994M+C4C, Boto, Kec. Tagulandang, Kabupaten Siau Tagulandang Biaro, Sulawesi Utara","Kabupaten Siau Tagulandang Biaro, Sulawesi Utara",SULAWESI UTARA,,Indonesia,,,,2.3560684,125.3827572,https://maps.google.com/?cid=0x0:0x7d44d3a2f916988e,
restaurant,Brunch,RM.AZKIA bawoleu,"9C3G+873, Bawoleu, Kec. Tagulandang Utara, Kabupaten Siau Tagulandang Biaro, Sulawesi Utara","Kabupaten Siau Tagulandang Biaro, Sulawesi Utara",SULAWESI UTARA,,Indonesia,82196161938.0,,,2.3532538,125.4256709,https://maps.google.com/?cid=0x0:0x494c9b052266695d,
restaurant,Restoran,RM. FRIENDLY,"89VH+MQC, Balehumara, Kec. Tagulandang, SITARO, Sulawesi Utara","SITARO, Sulawesi Utara",SULAWESI UTARA,,Indonesia,82349659804.0,,,2.3441944,125.3793808,https://maps.google.com/?cid=0x0:0xe4796cf78b14848e,
restaurant,Brunch,RM. CHRISTA,"RT.lingkungan 3/RW.rt 001, Bahoi, Kec. Tagulandang, Kabupaten Siau Tagulandang Biaro, Sulawesi Utara 95863","Bahoi, Kec. Tagulandang, Kabupaten Siau Tagulandang Biaro",SULAWESI UTARA,95863.0,Indonesia,82259119394.0,,,2.3413834,125.3817631,https://maps.google.com/?cid=0x0:0xd8144c8f97b18fa3,
restaurant,Rumah Makan,Batagor  sioamay Neng aira,"89VM+87W, Bahoi, Kec. Tagulandang, Kabupaten Siau Tagulandang Biaro, Sulawesi Utara","Kabupaten Siau Tagulandang Biaro, Sulawesi Utara",SULAWESI UTARA,,Indonesia,82293340033.0,,,2.3433664,125.3832076,https://maps.google.com/?cid=0x0:0x7eac8e61e3748e04,
restaurant,Restoran,Warung Makan  Jualan Barito,"Haasi, Kec. Tagulandang, Kabupaten Siau Tagulandang Biaro, Sulawesi Utara 95863","Kec. Tagulandang, Kabupaten Siau Tagulandang Biaro",SULAWESI UTARA,95863.0,Indonesia,82267695219.0,,,2.3186683,125.4192862,https://maps.google.com/?cid=0x0:0xef4678496b3d04db,
restaurant,Dapur Umum,Dapur Rantau,"89RM+3GV, Barangka Pehe, Kec. Tagulandang, Kabupaten Siau Tagulandang Biaro, Sulawesi Utara","Kabupaten Siau Tagulandang Biaro, Sulawesi Utara",SULAWESI UTARA,,Indonesia,82187957383.0,,,2.3402382,125.3838029,https://maps.google.com/?cid=0x0:0x4ac6f0e6c6688f0d,
restaurant,Pertanian,Mandolokang King Spices,"Unnamed Road, Mahangiang, Kec. Tagulandang, Kabupaten Siau Tagulandang Biaro, Sulawesi Utara","Kabupaten Siau Tagulandang Biaro, Sulawesi Utara",SULAWESI UTARA,,Indonesia,82194967227.0,,,2.3284668,125.3938346,https://maps.google.com/?cid=0x0:0x6da021e72c21c673,
cafe,cafe,Kec. Biaro,"Kabupaten Siau Tagulandang Biaro, Sulawesi Utara","Kabupaten Siau Tagulandang Biaro, Sulawesi Utara",SULAWESI UTARA,,Indonesia,,,,2.1188553,125.3626891,https://maps.google.com/?cid=0x0:0x4030bfbcaf78990,
cafe,Kedai Kopi,ChillOut Cafe,"Balehumara, Kec. Tagulandang, Kabupaten Siau Tagulandang Biaro, Sulawesi Utara","Kabupaten Siau Tagulandang Biaro, Sulawesi Utara",SULAWESI UTARA,,Indonesia,85341777670.0,,,2.3438825,125.379589,https://maps.google.com/?cid=0x0:0xde4c9682e811fffb,
cafe,Tegal,Pondok katu daVin,"498P+26G, Dalinsaheng, Kec. Biaro, Kabupaten Siau Tagulandang Biaro, Sulawesi Utara","Kabupaten Siau Tagulandang Biaro, Sulawesi Utara",SULAWESI UTARA,,Indonesia,85242900028.0,,,2.1150667,125.3855918,https://maps.google.com/?cid=0x0:0xae5ef05d020e3370,
cafe,Bar,CostanTein Matheos,"49G6+W2G, Lamanggo, Kec. Biaro, Kabupaten Siau Tagulandang Biaro, Sulawesi Utara","Kabupaten Siau Tagulandang Biaro, Sulawesi Utara",SULAWESI UTARA,,Indonesia,85399899141.0,,,2.1273062,125.3600651,https://maps.google.com/?cid=0x0:0x2fcf2d3755965c19,
cafe,Toko umum,"Yansen home""""","49G7+439, Lamanggo, Kec. Biaro, Kabupaten Siau Tagulandang Biaro, Sulawesi Utara","Kabupaten Siau Tagulandang Biaro, Sulawesi Utara",SULAWESI UTARA,,Indonesia,,,,2.1252857,125.3627477,https://maps.google.com/?cid=0x0:0x6368f60724fedf09,
cafe,Kafetaria,REVISCHO cafe,"8CG7+398, Mahangiang, Kec. Tagulandang, Kabupaten Siau Tagulandang Biaro, Sulawesi Utara","Kabupaten Siau Tagulandang Biaro, Sulawesi Utara",SULAWESI UTARA,,Indonesia,82395331535.0,,,2.32516,125.4134407,https://maps.google.com/?cid=0x0:0xaa7225014a58bc13,
cafe,Kafetaria,Beach Coffee,"PCJ7+W3P, Bolevard, Tatahadeng, Kec. Siau Tim., Kabupaten Siau Tagulandang Biaro, Sulawesi Utara 95861","Bolevard, Tatahadeng, Kec. Siau Tim., Kabupaten Siau Tagulandang Biaro",SULAWESI UTARA,95861.0,Indonesia,82194764652.0,,,2.7323316,125.4127186,https://maps.google.com/?cid=0x0:0xa50b571f51c5fe29,
cafe,Restoran,Rm.pelangi,"49F6+7Q7, Lamanggo, Kec. Biaro, Kabupaten Siau Tagulandang Biaro, Sulawesi Utara","Kabupaten Siau Tagulandang Biaro, Sulawesi Utara",SULAWESI UTARA,,Indonesia,,,,2.123167,125.3619101,https://maps.google.com/?cid=0x0:0x619778233d7f3ca3,
cafe,Komplek perumahan,Marvel home,"4C83+QMG, Karungo, Kec. Biaro, Kabupaten Siau Tagulandang Biaro, Sulawesi Utara","Kabupaten Siau Tagulandang Biaro, Sulawesi Utara",SULAWESI UTARA,,Indonesia,,,,2.1169395,125.4042121,https://maps.google.com/?cid=0x0:0xb997d1518884adbe,
cafe,cafe,Coffee Idol,"499X+3VH Village, Koro-Koro, Karungo, Biaro, Sitaro Islands Regency, North Sulawesi","Kabupaten Siau Tagulandang Biaro, Sulawesi Utara",SULAWESI UTARA,,Indonesia,,,,2.1176789,125.3997434,https://maps.google.com/?cid=0x0:0x4f9235ed2efb191,
cafe,cafe,Manjo Coffee,"49C6+FQG, Lamanggo, Kec. Biaro, Kabupaten Siau Tagulandang Biaro, Sulawesi Utara","Kabupaten Siau Tagulandang Biaro, Sulawesi Utara",SULAWESI UTARA,,Indonesia,,,,2.1206823,125.3624173,https://maps.google.com/?cid=0x0:0x2e65720c38b1c3e2,
cafe,cafe,JJ Cafe,"Lamanggo, Kec. Biaro, Kabupaten Siau Tagulandang Biaro, Sulawesi Utara 95864","Kec. Biaro, Kabupaten Siau Tagulandang Biaro",SULAWESI UTARA,95864.0,Indonesia,,,,2.1191279,125.3628733,https://maps.google.com/?cid=0x0:0xc0ec99ec328fd5f0,
cafe,cafe,NN CAFE,"49C6+FQG, Lamanggo, Kec. Biaro, Kabupaten Siau Tagulandang Biaro, Sulawesi Utara","Kabupaten Siau Tagulandang Biaro, Sulawesi Utara",SULAWESI UTARA,,Indonesia,,,,2.1211906,125.3619655,https://maps.google.com/?cid=0x0:0xcc4d32f2a2ab4d58,
cafe,cafe,Emezcaf,"Lamanggo Kec.Biaro Kab.Kepl, Kabupaten Siau Tagulandang Biaro, Sulawesi Utara 95863",Kabupaten Siau Tagulandang Biaro,SULAWESI UTARA,95863.0,Indonesia,82393371225.0,,,2.1269101,125.3592209,https://maps.google.com/?cid=0x0:0x467192761baa4a44,
cafe,cafe,Warkop Bennedict,"4987+RF5, Lamanggo, Kec. Biaro, Kabupaten Siau Tagulandang Biaro, Sulawesi Utara","Kabupaten Siau Tagulandang Biaro, Sulawesi Utara",SULAWESI UTARA,,Indonesia,,,,2.1170083,125.3637252,https://maps.google.com/?cid=0x0:0x502bd5aeb1fd3c9c,
cafe,cafe,Sabakang samudara,"498P+26G, Dalinsaheng, Kec. Biaro, Kabupaten Siau Tagulandang Biaro, Sulawesi Utara","Kabupaten Siau Tagulandang Biaro, Sulawesi Utara",SULAWESI UTARA,,Indonesia,,,,2.1147783,125.3857107,https://maps.google.com/?cid=0x0:0xb2b38fcf37d80275,
cafe,Kafe,Biaro Cafe,"PC6G+CV7, Biaro Gadang, Kec. Ampek Angkek, Kabupaten Agam, Sumatera Barat 26191","Biaro Gadang, Kec. Ampek Angkek, Kabupaten Agam",SULAWESI UTARA,26191.0,Indonesia,87769244587.0,,,-0.2889638,100.4271813,https://maps.google.com/?cid=0x0:0xfc70910bf8a3643c,
cafe,Kedai Kopi,Kaizen Heritage 3.0 / Kaizen Matraman,"Jl. Matraman Raya, RT.2/RW.3, Palmeriam, Kec. Matraman, Kota Jakarta Timur, Daerah Khusus Ibukota Jakarta 13310","RT.2/RW.3, Palmeriam, Kec. Matraman, Kota Jakarta Timur",SULAWESI UTARA,13310.0,Indonesia,85717003194.0,,,-6.2011023,106.8559888,https://maps.google.com/?cid=0x0:0xa43327b175fcee92,
cafe,Kafe,Modo Coffee House Raden Inten,"Jl. Radin Inten II ll No.3, RT.8/RW.15, Duren Sawit, Kec. Duren Sawit, Kota Jakarta Timur, Daerah Khusus Ibukota Jakarta 13440","RT.8/RW.15, Duren Sawit, Kec. Duren Sawit, Kota Jakarta Timur",SULAWESI UTARA,13440.0,Indonesia,8888556665.0,,,-6.22121,106.9237574,https://maps.google.com/?cid=0x0:0xce385c805337877f,
cafe,Kedai Kopi,Kedai Tibasuka,"Jl. Cahaya Titis No.74, Tanah Baru, Kecamatan Beji, Kota Depok, Jawa Barat 16426","Tanah Baru, Kecamatan Beji, Kota Depok",SULAWESI UTARA,16426.0,Indonesia,85158226174.0,,,-6.3829236,106.8076032,https://maps.google.com/?cid=0x0:0xa881361e686df6b7,
cafe,cafe,Siau Bar.,"Kabupaten Siau Tagulandang Biaro, Sulawesi Utara","Kabupaten Siau Tagulandang Biaro, Sulawesi Utara",SULAWESI UTARA,,Indonesia,,,,2.711198,125.3740526,https://maps.google.com/?cid=0x0:0xac02e56a08821622,
cafe,Kafetaria,Beach Coffee,"PCJ7+W3P, Bolevard, Tatahadeng, Kec. Siau Tim., Kabupaten Siau Tagulandang Biaro, Sulawesi Utara 95861","Bolevard, Tatahadeng, Kec. Siau Tim., Kabupaten Siau Tagulandang Biaro",SULAWESI UTARA,95861.0,Indonesia,82194764652.0,,,2.7323316,125.4127186,https://maps.google.com/?cid=0x0:0xa50b571f51c5fe29,
cafe,Jus,Cafe ceria,"Jl Tarorane Ling 2. Kec Siau Timur, Tarorane, Siau, Kabupaten Siau Tagulandang Biaro, Sulawesi Utara 95861","Tarorane, Siau, Kabupaten Siau Tagulandang Biaro",SULAWESI UTARA,95861.0,Indonesia,81243683078.0,,,2.7326694,125.4118114,https://maps.google.com/?cid=0x0:0xd0c747f445a52919,
cafe,Toko Makanan,Kios Makan Jiejie Indri,"Paniki, Kabupaten Siau Tagulandang Biaro, Sulawesi Utara 95862",Kabupaten Siau Tagulandang Biaro,SULAWESI UTARA,95862.0,Indonesia,82188811456.0,,,2.744314,125.3605768,https://maps.google.com/?cid=0x0:0xb174923771e0f3b5,
cafe,Kafe,Ocean view cafe,"PCJ6+VQJ, Jalan boubou, Tarorane, Kec. Siau Tim., Kabupaten Siau Tagulandang Biaro, Sulawesi Utara 95861","Jalan boubou, Tarorane, Kec. Siau Tim., Kabupaten Siau Tagulandang Biaro",SULAWESI UTARA,95861.0,Indonesia,82193301880.0,,,2.7322237,125.4118913,https://maps.google.com/?cid=0x0:0x8bde2b01cf44c83,
cafe,Dapur Umum,Sunshine Cafe,"P9X6+77V, Kanawong, Siau Bar., Kabupaten Siau Tagulandang Biaro, Sulawesi Utara","Kabupaten Siau Tagulandang Biaro, Sulawesi Utara",SULAWESI UTARA,,Indonesia,82188822288.0,,,2.7482396,125.360678,https://maps.google.com/?cid=0x0:0xad8a53f3b495d78a,
cafe,Mi,Mie'Ba Tahuna di Siau (Ci Serly),"Dekat Lorong Polsek, Kel. Paniki, Siau Bar., Kabupaten Siau Tagulandang Biaro, Sulawesi Utara","Kabupaten Siau Tagulandang Biaro, Sulawesi Utara",SULAWESI UTARA,,Indonesia,82271121271.0,,,2.7430358,125.3605566,https://maps.google.com/?cid=0x0:0x232f552039821191,
cafe,Brunch,R ED' n Sulbaks cafe,"P9V6+PCC, Jl. Lokongbanu, Kanawong, Siau Bar., Kabupaten Siau Tagulandang Biaro, Sulawesi Utara","Kabupaten Siau Tagulandang Biaro, Sulawesi Utara",SULAWESI UTARA,,Indonesia,82217640762.0,,,2.7443182,125.3610128,https://maps.google.com/?cid=0x0:0xa1deae67550d0bab,
cafe,Mi,xie xie Boba Siau,"PCH4+RJ2, Unnamed Road, Akesimbeka, Kec. Siau Tim., Kabupaten Siau Tagulandang Biaro, Sulawesi Utara 95861","Unnamed Road, Akesimbeka, Kec. Siau Tim., Kabupaten Siau Tagulandang Biaro",SULAWESI UTARA,95861.0,Indonesia,82196477718.0,,,2.7295138,125.4065027,https://maps.google.com/?cid=0x0:0x9154a215145ab001,
cafe,Kedai Kopi,ChillOut Cafe,"Balehumara, Kec. Tagulandang, Kabupaten Siau Tagulandang Biaro, Sulawesi Utara","Kabupaten Siau Tagulandang Biaro, Sulawesi Utara",SULAWESI UTARA,,Indonesia,85341777670.0,,,2.3438825,125.379589,https://maps.google.com/?cid=0x0:0xde4c9682e811fffb,
cafe,Rumah Makan,Ceplok Plus-Plus *Ondong,"Kanawong, Siau Bar., Kabupaten Siau Tagulandang Biaro, Sulawesi Utara","Kabupaten Siau Tagulandang Biaro, Sulawesi Utara",SULAWESI UTARA,,Indonesia,82190167897.0,,,2.7443114,125.361097,https://maps.google.com/?cid=0x0:0xfee8d8e463037c47,
cafe,Sesuai untuk keluarga,Aiko's kitchen,"P9V6+M8Q, Kanawong, Siau Bar., Kabupaten Siau Tagulandang Biaro, Sulawesi Utara","Kabupaten Siau Tagulandang Biaro, Sulawesi Utara",SULAWESI UTARA,,Indonesia,,,,2.7442116,125.3608663,https://maps.google.com/?cid=0x0:0x5a623cadf832d071,
cafe,Kafe,"Ripcurl coffee shop,Nature","P9G6+WF4, Paseng, Siau Bar., Kabupaten Siau Tagulandang Biaro, Sulawesi Utara","Kabupaten Siau Tagulandang Biaro, Sulawesi Utara",SULAWESI UTARA,,Indonesia,,,,2.7271501,125.3612375,https://maps.google.com/?cid=0x0:0xaa78e081f46284c1,
cafe,Kedai Kopi,Ocean view cafe,"Jalan Bouelivar Malele, Tarorane, Kec. Siau Tim., Kabupaten Siau Tagulandang Biaro, Sulawesi Utara 95861","Tarorane, Kec. Siau Tim., Kabupaten Siau Tagulandang Biaro",SULAWESI UTARA,95861.0,Indonesia,81243497159.0,,,2.7399419,125.4055827,https://maps.google.com/?cid=0x0:0xd4a4e2b231117c75,
cafe,Hotel,House Of Kite Tau Siau,"M9QQ+742, Sawang, Kec. Siau Tim. Sel., Kabupaten Siau Tagulandang Biaro, Sulawesi Utara 95867","Sawang, Kec. Siau Tim. Sel., Kabupaten Siau Tagulandang Biaro",SULAWESI UTARA,95867.0,Indonesia,85240535319.0,,,2.6881398,125.3877629,https://maps.google.com/?cid=0x0:0xdfd957a2b507b8fe,
cafe,Rumah Makan,Warung makan/ kuliner T'EM GLORY,"Lindongan 1, Talawid, Siau, Kabupaten Siau Tagulandang Biaro, Sulawesi Utara 95862","Talawid, Siau, Kabupaten Siau Tagulandang Biaro",SULAWESI UTARA,95862.0,Indonesia,82291528642.0,,,2.6603439,125.3880153,https://maps.google.com/?cid=0x0:0x31bf88c5e26131f,
cafe,Rumah Makan,Nasi Kuning Ci Yeti,"P9W6+828, Kanawong, Siau Bar., Kabupaten Siau Tagulandang Biaro, Sulawesi Utara","Kabupaten Siau Tagulandang Biaro, Sulawesi Utara",SULAWESI UTARA,,Indonesia,81356722567.0,,,2.7457765,125.3600935,https://maps.google.com/?cid=0x0:0xd74285cd21b03b78,
cafe,Toko Makanan,RM.PONDOK ALAM SITARO,"Kanawong, Siau Bar., Kabupaten Siau Tagulandang Biaro, Sulawesi Utara","Kabupaten Siau Tagulandang Biaro, Sulawesi Utara",SULAWESI UTARA,,Indonesia,81356031573.0,,,2.7451315,125.3610504,https://maps.google.com/?cid=0x0:0xed6ed268b6d4856c,
cafe,Kedai Kopi,Evencio cafe,"Jl. Bolevard Malele, Ulu Siau, Kec. Siau Tim., Kabupaten Siau Tagulandang Biaro, Sulawesi Utara 95861","Ulu Siau, Kec. Siau Tim., Kabupaten Siau Tagulandang Biaro",SULAWESI UTARA,95861.0,Indonesia,85341981404.0,,,2.7322375,125.411893,https://maps.google.com/?cid=0x0:0x80aaffb360d09698,
cafe,Restoran,Geral,"M9WH+WX, Bumbiha, Siau Bar., Kabupaten Siau Tagulandang Biaro, Sulawesi Utara","Kabupaten Siau Tagulandang Biaro, Sulawesi Utara",SULAWESI UTARA,,Indonesia,,,,2.6973125,125.3799375,https://maps.google.com/?cid=0x0:0xadc78e326a58e109,
cafe,Toko Makanan,"Kios Martabak Matahari"" Ondong""","P9R6+W4F, jl. Lokongbanua, Kanawong, Siau Bar., Kabupaten Siau Tagulandang Biaro, Sulawesi Utara","Kabupaten Siau Tagulandang Biaro, Sulawesi Utara",SULAWESI UTARA,,Indonesia,82293978196.0,,,2.7423086,125.3602979,https://maps.google.com/?cid=0x0:0xfb9886d9461deef8,
cafe,Toko Makanan,RM OZZ,"P9V6+62Q, Lingk. I, Kel. Paniki, Kanawong, Siau Bar., Kabupaten Siau Tagulandang Biaro, Sulawesi Utara","Kabupaten Siau Tagulandang Biaro, Sulawesi Utara",SULAWESI UTARA,,Indonesia,,,,2.7430989,125.3601117,https://maps.google.com/?cid=0x0:0x51060451e131baab,
cafe,Restoran,"RM VICTORY,Depan Kantor BUPATI SITARO","P9V6+QJX, Ondong, Siau Bar., Kabupaten Siau Tagulandang Biaro, Sulawesi Utara","Kabupaten Siau Tagulandang Biaro, Sulawesi Utara",SULAWESI UTARA,,Indonesia,85340248832.0,,,2.744485,125.3616066,https://maps.google.com/?cid=0x0:0x73a5712e2c4a4b67,
cafe,Rumah Makan,RM. Tibersa Ondong,"Kel, Depan Aula Kadademahe Ondong, Sulawesi Utara 95862",Depan Aula Kadademahe Ondong,SULAWESI UTARA,95862.0,Indonesia,85211776709.0,,,2.745857,125.3607337,https://maps.google.com/?cid=0x0:0xc2016b19e112de4e,
cafe,Toko Makanan,Ba' Bakar Indri,"Unnamed Road, Kanawong, Siau Bar., Kabupaten Siau Tagulandang Biaro, Sulawesi Utara","Kabupaten Siau Tagulandang Biaro, Sulawesi Utara",SULAWESI UTARA,,Indonesia,81356144818.0,,,2.7443114,125.3605759,https://maps.google.com/?cid=0x0:0xfb7f734a3086e846,
cafe,Nasi,Key's ngemil,"lingkungan 2, Paniki, Siau Bar., Siau, Sulawesi Utara 95862","Paniki, Siau Bar., Siau",SULAWESI UTARA,95862.0,Indonesia,81393950764.0,,,2.7088445,125.3701345,https://maps.google.com/?cid=0x0:0x4659b30f13835633,
cafe,Toko Makanan,RM Tambers,"Kompleks SMA 1 Siau Barat. Kel Paniki, Kabupaten Siau Tagulandang Biaro, Sulawesi Utara 95862",Kabupaten Siau Tagulandang Biaro,SULAWESI UTARA,95862.0,Indonesia,85298600630.0,,,2.7403416,125.3608098,https://maps.google.com/?cid=0x0:0x902359867ebc14de,
cafe,Mi,Mie'ba Ma Rat,"P9W6+76R, pasar di dekat, Kanawong, Siau Bar., Kabupaten Siau Tagulandang Biaro, Sulawesi Utara","Kabupaten Siau Tagulandang Biaro, Sulawesi Utara",SULAWESI UTARA,,Indonesia,,,,2.7457357,125.3605016,https://maps.google.com/?cid=0x0:0x76db34d254cef511,
cafe,cafe,Kec. Siau Bar. Sel.,"Kabupaten Siau Tagulandang Biaro, Sulawesi Utara","Kabupaten Siau Tagulandang Biaro, Sulawesi Utara",SULAWESI UTARA,,Indonesia,,,,2.651579,125.3799805,https://maps.google.com/?cid=0x0:0x1e513a8f3f02fcd1,
cafe,Rumah Makan,Warung makan/ kuliner T'EM GLORY,"Lindongan 1, Talawid, Siau, Kabupaten Siau Tagulandang Biaro, Sulawesi Utara 95862","Talawid, Siau, Kabupaten Siau Tagulandang Biaro",SULAWESI UTARA,95862.0,Indonesia,82291528642.0,,,2.6603439,125.3880153,https://maps.google.com/?cid=0x0:0x31bf88c5e26131f,
cafe,Kedai Kopi,Angkringan Mahuneni,"M92H+MHG, Mahuneni, Kec. Siau Bar. Sel., Kabupaten Siau Tagulandang Biaro, Sulawesi Utara","Kabupaten Siau Tagulandang Biaro, Sulawesi Utara",SULAWESI UTARA,,Indonesia,,,,2.6516795,125.3789518,https://maps.google.com/?cid=0x0:0x5544fdacfbe54914,
cafe,Nasi,Kuliner warung makanan Uto ICHE,"Lindongan 1, Mahuneni, Siau, Sulawesi Utara 95862","Mahuneni, Siau",SULAWESI UTARA,95862.0,Indonesia,82393371097.0,,,2.6422792,125.3839724,https://maps.google.com/?cid=0x0:0x66d394f5a7fd5277,
cafe,Nasi,Nasi kuning oma lala,"M92H+H2G, Mahuneni, Kec. Siau Bar. Sel., Kabupaten Siau Tagulandang Biaro, Sulawesi Utara","Kabupaten Siau Tagulandang Biaro, Sulawesi Utara",SULAWESI UTARA,,Indonesia,,,,2.6501824,125.3775956,https://maps.google.com/?cid=0x0:0x3e73aff0fea0f616,
cafe,Kafetaria,Beach Coffee,"PCJ7+W3P, Bolevard, Tatahadeng, Kec. Siau Tim., Kabupaten Siau Tagulandang Biaro, Sulawesi Utara 95861","Bolevard, Tatahadeng, Kec. Siau Tim., Kabupaten Siau Tagulandang Biaro",SULAWESI UTARA,95861.0,Indonesia,82194764652.0,,,2.7323316,125.4127186,https://maps.google.com/?cid=0x0:0xa50b571f51c5fe29,
cafe,Tujuan Wisata,Angkringan Pantai Bahu Talawid,"Mahuneni, Kec. Siau Bar. Sel., Kabupaten Siau Tagulandang Biaro, Sulawesi Utara","Kabupaten Siau Tagulandang Biaro, Sulawesi Utara",SULAWESI UTARA,,Indonesia,,,,2.6485391,125.3820613,https://maps.google.com/?cid=0x0:0x248c3d1dadc0f724,
cafe,Kafe,Bless Coffeeshop Ulu Siau (Kafe),"Jalan Akesimbeka Lingkungan 1 Ulu Siau, Kabupaten Kepulauan Sitaro, Siau, Sulawesi Utara 95861","Kabupaten Kepulauan Sitaro, Siau",SULAWESI UTARA,95861.0,Indonesia,85396440167.0,,,2.7285603,125.4071088,https://maps.google.com/?cid=0x0:0xdf7e680cbf341657,
cafe,cafe,Kedai Tukadebatu,"Kawasan Boulevard, Tarorane, Sulawesi Utara 95861",Tarorane,SULAWESI UTARA,95861.0,Indonesia,82189097960.0,,,2.6778125,125.4105625,https://maps.google.com/?cid=0x0:0x2947ad417aab6d85,
cafe,Kios,Kios Milani,"Balirangen, Kec. Siau Tim. Sel., SITARO, Sulawesi Utara 95867","Kec. Siau Tim. Sel., SITARO",SULAWESI UTARA,95867.0,Indonesia,,,,2.6522504,125.4179172,https://maps.google.com/?cid=0x0:0xd808c83123917162,
cafe,cafe,Kec. Siau Bar. Utara,"Kabupaten Siau Tagulandang Biaro, Sulawesi Utara","Kabupaten Siau Tagulandang Biaro, Sulawesi Utara",SULAWESI UTARA,,Indonesia,,,,2.7946041,125.3748009,https://maps.google.com/?cid=0x0:0xdc5dff2e803e091d,
cafe,Kafetaria,Beach Coffee,"PCJ7+W3P, Bolevard, Tatahadeng, Kec. Siau Tim., Kabupaten Siau Tagulandang Biaro, Sulawesi Utara 95861","Bolevard, Tatahadeng, Kec. Siau Tim., Kabupaten Siau Tagulandang Biaro",SULAWESI UTARA,95861.0,Indonesia,82194764652.0,,,2.7323316,125.4127186,https://maps.google.com/?cid=0x0:0xa50b571f51c5fe29,
cafe,Kedai Kopi,ChillOut Cafe,"Balehumara, Kec. Tagulandang, Kabupaten Siau Tagulandang Biaro, Sulawesi Utara","Kabupaten Siau Tagulandang Biaro, Sulawesi Utara",SULAWESI UTARA,,Indonesia,85341777670.0,,,2.3438825,125.379589,https://maps.google.com/?cid=0x0:0xde4c9682e811fffb,
cafe,Kedai Kopi,Evencio cafe,"Jl. Bolevard Malele, Ulu Siau, Kec. Siau Tim., Kabupaten Siau Tagulandang Biaro, Sulawesi Utara 95861","Ulu Siau, Kec. Siau Tim., Kabupaten Siau Tagulandang Biaro",SULAWESI UTARA,95861.0,Indonesia,85341981404.0,,,2.7322375,125.411893,https://maps.google.com/?cid=0x0:0x80aaffb360d09698,
cafe,Komplek perumahan,Rumah Kel. Panese-Pasikuali,"Q9VF+7X7 kampung Kiawang Kondangan II, Kawahang, Kec. Siau Bar. Utara, Kabupaten Siau Tagulandang Biaro, Sulawesi Utara","Kabupaten Siau Tagulandang Biaro, Sulawesi Utara",SULAWESI UTARA,,Indonesia,,,,2.7931672,125.3749247,https://maps.google.com/?cid=0x0:0xef366f1ecca10d5b,
cafe,Warnet,Sinem Loket,"Q9WG+786, Unnamed Road, Batubulan, Kec. Siau Bar. Utara, Kabupaten Siau Tagulandang Biaro, Sulawesi Utara","Kabupaten Siau Tagulandang Biaro, Sulawesi Utara",SULAWESI UTARA,,Indonesia,81356296945.0,,,2.7956551,125.3757589,https://maps.google.com/?cid=0x0:0xe0b759c8fd3a3866,
cafe,Indonesia,Warung makan Eby,"Tatahadeng, lingkungan VI, Siau, Sulawesi Utara 95861","lingkungan VI, Siau",SULAWESI UTARA,95861.0,Indonesia,81241376942.0,,,2.7574695,125.4042121,https://maps.google.com/?cid=0x0:0xb9da0ba478a325d2,
cafe,Rumah Makan,Adhe vai,"Tatahadeng, Kec. Siau Tim., Sitaro, Sulawesi Utara 95861","Kec. Siau Tim., Sitaro",SULAWESI UTARA,95861.0,Indonesia,81342074093.0,,,2.7638265,125.4031525,https://maps.google.com/?cid=0x0:0x3ed36655a5b9a074,
cafe,cafe,CafÃ© Mahoro,"PCJ6+CFH, Kec. Siau Tim., Kabupaten Siau Tagulandang Biaro, Sulawesi Utara","Kabupaten Siau Tagulandang Biaro, Sulawesi Utara",SULAWESI UTARA,,Indonesia,,,,2.7309164,125.4113208,https://maps.google.com/?cid=0x0:0x8c3a6e5e2e4765eb,
cafe,cafe,Marvalas Cafe,"Q979+QM, Kinali, Kec. Siau Bar. Utara, Kabupaten Siau Tagulandang Biaro, Sulawesi Utara","Kabupaten Siau Tagulandang Biaro, Sulawesi Utara",SULAWESI UTARA,,Indonesia,,,,2.7644271,125.3691527,https://maps.google.com/?cid=0x0:0x33d516e8a0ee8ad5,
cafe,Tempat Ibadah,Ulu siau,"QC43+XMP, Tatahadeng, kec sitim, Kabupaten Siau Tagulandang Biaro, Sulawesi Utara 95861","Tatahadeng, kec sitim, Kabupaten Siau Tagulandang Biaro",SULAWESI UTARA,95861.0,Indonesia,,,,2.7574695,125.4042121,https://maps.google.com/?cid=0x0:0xbb42979bc05b62f3,
cafe,Kafe,Bless Coffeeshop Ulu Siau (Kafe),"Jalan Akesimbeka Lingkungan 1 Ulu Siau, Kabupaten Kepulauan Sitaro, Siau, Sulawesi Utara 95861","Kabupaten Kepulauan Sitaro, Siau",SULAWESI UTARA,95861.0,Indonesia,85396440167.0,,,2.7285603,125.4071088,https://maps.google.com/?cid=0x0:0xdf7e680cbf341657,
cafe,Kafetaria,Beach Coffee,"PCJ7+W3P, Bolevard, Tatahadeng, Kec. Siau Tim., Kabupaten Siau Tagulandang Biaro, Sulawesi Utara 95861","Bolevard, Tatahadeng, Kec. Siau Tim., Kabupaten Siau Tagulandang Biaro",SULAWESI UTARA,95861.0,Indonesia,82194764652.0,,,2.7323316,125.4127186,https://maps.google.com/?cid=0x0:0xa50b571f51c5fe29,
cafe,Kafe,Ocean view cafe,"PCJ6+VQJ, Jalan boubou, Tarorane, Kec. Siau Tim., Kabupaten Siau Tagulandang Biaro, Sulawesi Utara 95861","Jalan boubou, Tarorane, Kec. Siau Tim., Kabupaten Siau Tagulandang Biaro",SULAWESI UTARA,95861.0,Indonesia,82193301880.0,,,2.7322237,125.4118913,https://maps.google.com/?cid=0x0:0x8bde2b01cf44c83,
cafe,cafe,,,,SULAWESI UTARA,,Indonesia,,,,,,https://maps.google.com/?cid=0x0:0xa50b571f51c5fe29u0026onu003dNasi+Goreng+Kecap+Udangu0026midu003d/g/11gv14cytb,
cafe,cafe,,,,SULAWESI UTARA,,Indonesia,,,,,,https://maps.google.com/?cid=0x0:0xa50b571f51c5fe29u0026onu003dIkan+Kuah+Asam+Goropau0026midu003d/g/11gv14cytb,
cafe,cafe,,,,SULAWESI UTARA,,Indonesia,,,,,,https://maps.google.com/?cid=0x0:0xa50b571f51c5fe29u0026onu003dCoto+Makassar+Dan+Es+Teh+Manisu0026midu003d/g/11gv14cytb,
cafe,cafe,,,,SULAWESI UTARA,,Indonesia,,,,,,https://maps.google.com/?cid=0x0:0xa50b571f51c5fe29u0026onu003dEs+Jeruku0026midu003d/g/11gv14cytb,
cafe,cafe,,,,SULAWESI UTARA,,Indonesia,,,,,,https://maps.google.com/?cid=0x0:0xa50b571f51c5fe29u0026onu0026midu003d/g/11gv14cytb,
cafe,cafe,Kec. Siau Tengah,"Kabupaten Siau Tagulandang Biaro, Sulawesi Utara","Kabupaten Siau Tagulandang Biaro, Sulawesi Utara",SULAWESI UTARA,,Indonesia,,,,2.7403638,125.378898,https://maps.google.com/?cid=0x0:0xcf7998cd0113e8b5,
cafe,Jus,Cafe ceria,"Jl Tarorane Ling 2. Kec Siau Timur, Tarorane, Siau, Kabupaten Siau Tagulandang Biaro, Sulawesi Utara 95861","Tarorane, Siau, Kabupaten Siau Tagulandang Biaro",SULAWESI UTARA,95861.0,Indonesia,81243683078.0,,,2.7326694,125.4118114,https://maps.google.com/?cid=0x0:0xd0c747f445a52919,
cafe,Mi,xie xie Boba Siau,"PCH4+RJ2, Unnamed Road, Akesimbeka, Kec. Siau Tim., Kabupaten Siau Tagulandang Biaro, Sulawesi Utara 95861","Unnamed Road, Akesimbeka, Kec. Siau Tim., Kabupaten Siau Tagulandang Biaro",SULAWESI UTARA,95861.0,Indonesia,82196477718.0,,,2.7295138,125.4065027,https://maps.google.com/?cid=0x0:0x9154a215145ab001,
cafe,Mi,Mie'Ba Tahuna di Siau (Ci Serly),"Dekat Lorong Polsek, Kel. Paniki, Siau Bar., Kabupaten Siau Tagulandang Biaro, Sulawesi Utara","Kabupaten Siau Tagulandang Biaro, Sulawesi Utara",SULAWESI UTARA,,Indonesia,82271121271.0,,,2.7430358,125.3605566,https://maps.google.com/?cid=0x0:0x232f552039821191,
cafe,Kedai Kopi,"Kedai Kopi Virgini""""","PCM8+89G, Jl . Pelabuhan, Tatahadeng, Kec. Siau Tim., Kabupaten Siau Tagulandang Biaro, Sulawesi Utara 95861","Jl . Pelabuhan, Tatahadeng, Kec. Siau Tim., Kabupaten Siau Tagulandang Biaro",SULAWESI UTARA,95861.0,Indonesia,,,,2.7333195,125.4159596,https://maps.google.com/?cid=0x0:0xd2cc212e05a09127,
cafe,Kedai Kopi,Evencio cafe,"Jl. Bolevard Malele, Ulu Siau, Kec. Siau Tim., Kabupaten Siau Tagulandang Biaro, Sulawesi Utara 95861","Ulu Siau, Kec. Siau Tim., Kabupaten Siau Tagulandang Biaro",SULAWESI UTARA,95861.0,Indonesia,85341981404.0,,,2.7322375,125.411893,https://maps.google.com/?cid=0x0:0x80aaffb360d09698,
cafe,Kafe,The sunset cafe and resto,"P9W6+R48, Ondong, Kanawong, Siau Bar., Kabupaten Siau Tagulandang Biaro, Sulawesi Utara","Kabupaten Siau Tagulandang Biaro, Sulawesi Utara",SULAWESI UTARA,,Indonesia,81243677772.0,,,2.7470273,125.3603357,https://maps.google.com/?cid=0x0:0xd52dbf7a2979c37d,
cafe,Dapur Umum,RUMAH KOPI JAROD,"PCH5+W8M, Tarorane, Kec. Siau Tim., Kabupaten Siau Tagulandang Biaro, Sulawesi Utara 95861","Tarorane, Kec. Siau Tim., Kabupaten Siau Tagulandang Biaro",SULAWESI UTARA,95861.0,Indonesia,85283512337.0,,,2.7296471,125.408319,https://maps.google.com/?cid=0x0:0x295b0a767546978e,
cafe,Toko Makanan,Kios Makan Jiejie Indri,"Paniki, Kabupaten Siau Tagulandang Biaro, Sulawesi Utara 95862",Kabupaten Siau Tagulandang Biaro,SULAWESI UTARA,95862.0,Indonesia,82188811456.0,,,2.744314,125.3605768,https://maps.google.com/?cid=0x0:0xb174923771e0f3b5,
cafe,Restoran,"Warung Makan muslim DIFA""""","Jln.Boulevard Malele kompleks Bank BNI unit siau timur, Kec. Siau Tim., Sulawesi Utara 95861",Kec. Siau Tim.,SULAWESI UTARA,95861.0,Indonesia,82193000119.0,,,2.7315374,125.4112931,https://maps.google.com/?cid=0x0:0x67d594ef3cc341e8,
cafe,Kedai Kopi,ChillOut Cafe,"Balehumara, Kec. Tagulandang, Kabupaten Siau Tagulandang Biaro, Sulawesi Utara","Kabupaten Siau Tagulandang Biaro, Sulawesi Utara",SULAWESI UTARA,,Indonesia,85341777670.0,,,2.3438825,125.379589,https://maps.google.com/?cid=0x0:0xde4c9682e811fffb,
cafe,Mi,"Mie Ba Cici Mey""""","PCH4+J8P, jln, Akesimbeka, Kec. Siau Tim., Kabupaten Siau Tagulandang Biaro, Sulawesi Utara 95861","jln, Akesimbeka, Kec. Siau Tim., Kabupaten Siau Tagulandang Biaro",SULAWESI UTARA,95861.0,Indonesia,82188929386.0,,,2.7290881,125.4058409,https://maps.google.com/?cid=0x0:0x2a011506a4896cbc,
cafe,Brunch,R ED' n Sulbaks cafe,"P9V6+PCC, Jl. Lokongbanu, Kanawong, Siau Bar., Kabupaten Siau Tagulandang Biaro, Sulawesi Utara","Kabupaten Siau Tagulandang Biaro, Sulawesi Utara",SULAWESI UTARA,,Indonesia,82217640762.0,,,2.7443182,125.3610128,https://maps.google.com/?cid=0x0:0xa1deae67550d0bab,
cafe,Toko Makanan,Kois GLORIA TERANG BULAN (MARTABAK  MALABAR),"PCJ5+7MR, Unnamed Road, Tarorane, Kec. Siau Tim., Kabupaten Siau Tagulandang Biaro, Sulawesi Utara 95861","Unnamed Road, Tarorane, Kec. Siau Tim., Kabupaten Siau Tagulandang Biaro",SULAWESI UTARA,95861.0,Indonesia,82187107231.0,,,2.7307301,125.4091384,https://maps.google.com/?cid=0x0:0x82e5ed2694d3d057,
cafe,Komplek perumahan,Kel. Lumbaghi-Maradung,"PCP3+2CV, Bebali, Kec. Siau Tim., Kabupaten Siau Tagulandang Biaro, Sulawesi Utara 95861","Bebali, Kec. Siau Tim., Kabupaten Siau Tagulandang Biaro",SULAWESI UTARA,95861.0,Indonesia,82195441999.0,,,2.7351212,125.4035504,https://maps.google.com/?cid=0x0:0x310ca9b213b6b4a6,
cafe,Padang,Mr. Selekta,"PCJ4+555, Unnamed Road, Tarorane, Siau Timur, Sitaro Islands Regency, North Sulawesi 95861","Unnamed Road, Tarorane, Siau Timur, Sitaro Islands Regency",SULAWESI UTARA,95861.0,Indonesia,85213285597.0,,,2.7303966,125.4054782,https://maps.google.com/?cid=0x0:0x15ce9ddf220fec9e,
cafe,Kafe,Bless Coffeeshop Ulu Siau (Kafe),"Jalan Akesimbeka Lingkungan 1 Ulu Siau, Kabupaten Kepulauan Sitaro, Siau, Sulawesi Utara 95861","Kabupaten Kepulauan Sitaro, Siau",SULAWESI UTARA,95861.0,Indonesia,85396440167.0,,,2.7285603,125.4071088,https://maps.google.com/?cid=0x0:0xdf7e680cbf341657,
cafe,Restoran,Restoran Narwastu,"PCH5+R44, Akesimbeka, Kec. Siau Tim., Kabupaten Siau Tagulandang Biaro, Sulawesi Utara 95861","Akesimbeka, Kec. Siau Tim., Kabupaten Siau Tagulandang Biaro",SULAWESI UTARA,95861.0,Indonesia,,,,2.7295149,125.4078274,https://maps.google.com/?cid=0x0:0x52cd45d638a7d121,
cafe,Indonesia,Rumah makan Sahabat,"Tarorane, Kec. Siau Tim., Kabupaten Siau Tagulandang Biaro, Sulawesi Utara 95861","Kec. Siau Tim., Kabupaten Siau Tagulandang Biaro",SULAWESI UTARA,95861.0,Indonesia,81340672390.0,,,2.7296976,125.4081671,https://maps.google.com/?cid=0x0:0x6d34506f67095214,
cafe,Sesuai untuk keluarga,Aiko's kitchen,"P9V6+M8Q, Kanawong, Siau Bar., Kabupaten Siau Tagulandang Biaro, Sulawesi Utara","Kabupaten Siau Tagulandang Biaro, Sulawesi Utara",SULAWESI UTARA,,Indonesia,,,,2.7442116,125.3608663,https://maps.google.com/?cid=0x0:0x5a623cadf832d071,
cafe,Kafe,"Ripcurl coffee shop,Nature","P9G6+WF4, Paseng, Siau Bar., Kabupaten Siau Tagulandang Biaro, Sulawesi Utara","Kabupaten Siau Tagulandang Biaro, Sulawesi Utara",SULAWESI UTARA,,Indonesia,,,,2.7271501,125.3612375,https://maps.google.com/?cid=0x0:0xaa78e081f46284c1,
cafe,Kantor Pemerintah,Depo Diamond Sitaro,"P9XJ+94X, Beong, Kec. Siau Tengah, Kabupaten Siau Tagulandang Biaro, Sulawesi Utara","Kabupaten Siau Tagulandang Biaro, Sulawesi Utara",SULAWESI UTARA,,Indonesia,82168959338.0,,,2.7484848,125.3803656,https://maps.google.com/?cid=0x0:0xdf5113ab52a1004b,
cafe,cafe,Sulawesi Utara 95861,"Kec. Siau Tim., Kabupaten Siau Tagulandang Biaro, Sulawesi Utara","Kabupaten Siau Tagulandang Biaro, Sulawesi Utara",SULAWESI UTARA,,Indonesia,,,,2.7629842,125.4233987,https://maps.google.com/?cid=0x0:0x412fe64cf4eae893,
cafe,Kafetaria,Beach Coffee,"PCJ7+W3P, Bolevard, Tatahadeng, Kec. Siau Tim., Kabupaten Siau Tagulandang Biaro, Sulawesi Utara 95861","Bolevard, Tatahadeng, Kec. Siau Tim., Kabupaten Siau Tagulandang Biaro",SULAWESI UTARA,95861.0,Indonesia,82194764652.0,,,2.7323316,125.4127186,https://maps.google.com/?cid=0x0:0xa50b571f51c5fe29,
cafe,Jus,Cafe ceria,"Jl Tarorane Ling 2. Kec Siau Timur, Tarorane, Siau, Kabupaten Siau Tagulandang Biaro, Sulawesi Utara 95861","Tarorane, Siau, Kabupaten Siau Tagulandang Biaro",SULAWESI UTARA,95861.0,Indonesia,81243683078.0,,,2.7326694,125.4118114,https://maps.google.com/?cid=0x0:0xd0c747f445a52919,
cafe,Indonesia,Ry's Kitchen,"PCM8+33J, Tarorane, Kec. Siau Tim., Kabupaten Siau Tagulandang Biaro, Sulawesi Utara 95861","Tarorane, Kec. Siau Tim., Kabupaten Siau Tagulandang Biaro",SULAWESI UTARA,95861.0,Indonesia,81245950819.0,,,2.732646,125.4151012,https://maps.google.com/?cid=0x0:0x66dc4616804518cf,
cafe,Mi,xie xie Boba Siau,"PCH4+RJ2, Unnamed Road, Akesimbeka, Kec. Siau Tim., Kabupaten Siau Tagulandang Biaro, Sulawesi Utara 95861","Unnamed Road, Akesimbeka, Kec. Siau Tim., Kabupaten Siau Tagulandang Biaro",SULAWESI UTARA,95861.0,Indonesia,82196477718.0,,,2.7295138,125.4065027,https://maps.google.com/?cid=0x0:0x9154a215145ab001,
cafe,Kedai Kopi,Ocean view cafe,"Jalan Bouelivar Malele, Tarorane, Kec. Siau Tim., Kabupaten Siau Tagulandang Biaro, Sulawesi Utara 95861","Tarorane, Kec. Siau Tim., Kabupaten Siau Tagulandang Biaro",SULAWESI UTARA,95861.0,Indonesia,81243497159.0,,,2.7399419,125.4055827,https://maps.google.com/?cid=0x0:0xd4a4e2b231117c75,
cafe,Kedai Kopi,Evencio cafe,"Jl. Bolevard Malele, Ulu Siau, Kec. Siau Tim., Kabupaten Siau Tagulandang Biaro, Sulawesi Utara 95861","Ulu Siau, Kec. Siau Tim., Kabupaten Siau Tagulandang Biaro",SULAWESI UTARA,95861.0,Indonesia,85341981404.0,,,2.7322375,125.411893,https://maps.google.com/?cid=0x0:0x80aaffb360d09698,
cafe,Dapur Umum,RUMAH KOPI JAROD,"PCH5+W8M, Tarorane, Kec. Siau Tim., Kabupaten Siau Tagulandang Biaro, Sulawesi Utara 95861","Tarorane, Kec. Siau Tim., Kabupaten Siau Tagulandang Biaro",SULAWESI UTARA,95861.0,Indonesia,85283512337.0,,,2.7296471,125.408319,https://maps.google.com/?cid=0x0:0x295b0a767546978e,
cafe,Kedai Kopi,"Kedai Kopi Virgini""""","PCM8+89G, Jl . Pelabuhan, Tatahadeng, Kec. Siau Tim., Kabupaten Siau Tagulandang Biaro, Sulawesi Utara 95861","Jl . Pelabuhan, Tatahadeng, Kec. Siau Tim., Kabupaten Siau Tagulandang Biaro",SULAWESI UTARA,95861.0,Indonesia,,,,2.7333195,125.4159596,https://maps.google.com/?cid=0x0:0xd2cc212e05a09127,
cafe,Restoran,"Warung Makan muslim DIFA""""","Jln.Boulevard Malele kompleks Bank BNI unit siau timur, Kec. Siau Tim., Sulawesi Utara 95861",Kec. Siau Tim.,SULAWESI UTARA,95861.0,Indonesia,82193000119.0,,,2.7315374,125.4112931,https://maps.google.com/?cid=0x0:0x67d594ef3cc341e8,
cafe,Komplek perumahan,Kel. Lumbaghi-Maradung,"PCP3+2CV, Bebali, Kec. Siau Tim., Kabupaten Siau Tagulandang Biaro, Sulawesi Utara 95861","Bebali, Kec. Siau Tim., Kabupaten Siau Tagulandang Biaro",SULAWESI UTARA,95861.0,Indonesia,82195441999.0,,,2.7351212,125.4035504,https://maps.google.com/?cid=0x0:0x310ca9b213b6b4a6,
cafe,Mi,"Mie Ba Cici Mey""""","PCH4+J8P, jln, Akesimbeka, Kec. Siau Tim., Kabupaten Siau Tagulandang Biaro, Sulawesi Utara 95861","jln, Akesimbeka, Kec. Siau Tim., Kabupaten Siau Tagulandang Biaro",SULAWESI UTARA,95861.0,Indonesia,82188929386.0,,,2.7290881,125.4058409,https://maps.google.com/?cid=0x0:0x2a011506a4896cbc,
cafe,Toko Makanan,Kois GLORIA TERANG BULAN (MARTABAK  MALABAR),"PCJ5+7MR, Unnamed Road, Tarorane, Kec. Siau Tim., Kabupaten Siau Tagulandang Biaro, Sulawesi Utara 95861","Unnamed Road, Tarorane, Kec. Siau Tim., Kabupaten Siau Tagulandang Biaro",SULAWESI UTARA,95861.0,Indonesia,82187107231.0,,,2.7307301,125.4091384,https://maps.google.com/?cid=0x0:0x82e5ed2694d3d057,
cafe,Mi,Mie'Ba Tahuna di Siau (Ci Serly),"Dekat Lorong Polsek, Kel. Paniki, Siau Bar., Kabupaten Siau Tagulandang Biaro, Sulawesi Utara","Kabupaten Siau Tagulandang Biaro, Sulawesi Utara",SULAWESI UTARA,,Indonesia,82271121271.0,,,2.7430358,125.3605566,https://maps.google.com/?cid=0x0:0x232f552039821191,
cafe,Restoran,Restoran Narwastu,"PCH5+R44, Akesimbeka, Kec. Siau Tim., Kabupaten Siau Tagulandang Biaro, Sulawesi Utara 95861","Akesimbeka, Kec. Siau Tim., Kabupaten Siau Tagulandang Biaro",SULAWESI UTARA,95861.0,Indonesia,,,,2.7295149,125.4078274,https://maps.google.com/?cid=0x0:0x52cd45d638a7d121,
cafe,Toko Makanan,Kios Makan Jiejie Indri,"Paniki, Kabupaten Siau Tagulandang Biaro, Sulawesi Utara 95862",Kabupaten Siau Tagulandang Biaro,SULAWESI UTARA,95862.0,Indonesia,82188811456.0,,,2.744314,125.3605768,https://maps.google.com/?cid=0x0:0xb174923771e0f3b5,
cafe,Kafe,Bless Coffeeshop Ulu Siau (Kafe),"Jalan Akesimbeka Lingkungan 1 Ulu Siau, Kabupaten Kepulauan Sitaro, Siau, Sulawesi Utara 95861","Kabupaten Kepulauan Sitaro, Siau",SULAWESI UTARA,95861.0,Indonesia,85396440167.0,,,2.7285603,125.4071088,https://maps.google.com/?cid=0x0:0xdf7e680cbf341657,
cafe,Kafe,The sunset cafe and resto,"P9W6+R48, Ondong, Kanawong, Siau Bar., Kabupaten Siau Tagulandang Biaro, Sulawesi Utara","Kabupaten Siau Tagulandang Biaro, Sulawesi Utara",SULAWESI UTARA,,Indonesia,81243677772.0,,,2.7470273,125.3603357,https://maps.google.com/?cid=0x0:0xd52dbf7a2979c37d,
cafe,Indonesia,Rumah makan Sahabat,"Tarorane, Kec. Siau Tim., Kabupaten Siau Tagulandang Biaro, Sulawesi Utara 95861","Kec. Siau Tim., Kabupaten Siau Tagulandang Biaro",SULAWESI UTARA,95861.0,Indonesia,81340672390.0,,,2.7296976,125.4081671,https://maps.google.com/?cid=0x0:0x6d34506f67095214,
cafe,Rumah Makan,Dapur Mama'Je,"Tatahadeng, Kec. Siau Tim., Kabupaten Siau Tagulandang Biaro, Sulawesi Utara 95861","Kec. Siau Tim., Kabupaten Siau Tagulandang Biaro",SULAWESI UTARA,95861.0,Indonesia,81244573295.0,,,2.7330697,125.4124493,https://maps.google.com/?cid=0x0:0x494d9f744bb8f8a9,
cafe,cafe,Cemilan homemade,"PCJ4+5RQ, Tarorane, Kec. Siau Tim., Kabupaten Siau Tagulandang Biaro, Sulawesi Utara 95861","Tarorane, Kec. Siau Tim., Kabupaten Siau Tagulandang Biaro",SULAWESI UTARA,95861.0,Indonesia,,,,2.7304898,125.4070694,https://maps.google.com/?cid=0x0:0xdf86aa9690f205cc,
cafe,Padang,Mr. Selekta,"PCJ4+555, Unnamed Road, Tarorane, Siau Timur, Sitaro Islands Regency, North Sulawesi 95861","Unnamed Road, Tarorane, Siau Timur, Sitaro Islands Regency",SULAWESI UTARA,95861.0,Indonesia,85213285597.0,,,2.7303966,125.4054782,https://maps.google.com/?cid=0x0:0x15ce9ddf220fec9e,
cafe,Area Mendaki,Bowongulu tempatku main lutang sokole,"Tarorane, Kec. Siau Tim., Kabupaten Siau Tagulandang Biaro, Sulawesi Utara 95861","Kec. Siau Tim., Kabupaten Siau Tagulandang Biaro",SULAWESI UTARA,95861.0,Indonesia,,,,2.7346685,125.4061537,https://maps.google.com/?cid=0x0:0xae35104ffa5ef5ff,
cafe,cafe,Akesimbeka samping apotuk kasih ulu,"P9GW+Q99, Akesimbeka, Kec. Siau Tim., Kabupaten Siau Tagulandang Biaro, Sulawesi Utara 95861","Akesimbeka, Kec. Siau Tim., Kabupaten Siau Tagulandang Biaro",SULAWESI UTARA,95861.0,Indonesia,,,,2.7269036,125.3959879,https://maps.google.com/?cid=0x0:0xe04b7387f2b9ff3f,
cafe,Restoran,Pertigaan malele,"PCJ6+W98 Tim, Tarorane, Kec. Siau Tim., Kabupaten Siau Tagulandang Biaro, Sulawesi Utara 95861","Tarorane, Kec. Siau Tim., Kabupaten Siau Tagulandang Biaro",SULAWESI UTARA,95861.0,Indonesia,,,,2.7323197,125.4108939,https://maps.google.com/?cid=0x0:0x1fafc114fc3cece6,
cafe,cafe,Sulawesi Utara 95861,"Kec. Siau Tim., Kabupaten Siau Tagulandang Biaro, Sulawesi Utara","Kabupaten Siau Tagulandang Biaro, Sulawesi Utara",SULAWESI UTARA,,Indonesia,,,,2.7629842,125.4233987,https://maps.google.com/?cid=0x0:0x412fe64cf4eae893,
cafe,Kafetaria,Beach Coffee,"PCJ7+W3P, Bolevard, Tatahadeng, Kec. Siau Tim., Kabupaten Siau Tagulandang Biaro, Sulawesi Utara 95861","Bolevard, Tatahadeng, Kec. Siau Tim., Kabupaten Siau Tagulandang Biaro",SULAWESI UTARA,95861.0,Indonesia,82194764652.0,,,2.7323316,125.4127186,https://maps.google.com/?cid=0x0:0xa50b571f51c5fe29,
cafe,Jus,Cafe ceria,"Jl Tarorane Ling 2. Kec Siau Timur, Tarorane, Siau, Kabupaten Siau Tagulandang Biaro, Sulawesi Utara 95861","Tarorane, Siau, Kabupaten Siau Tagulandang Biaro",SULAWESI UTARA,95861.0,Indonesia,81243683078.0,,,2.7326694,125.4118114,https://maps.google.com/?cid=0x0:0xd0c747f445a52919,
cafe,Indonesia,Ry's Kitchen,"PCM8+33J, Tarorane, Kec. Siau Tim., Kabupaten Siau Tagulandang Biaro, Sulawesi Utara 95861","Tarorane, Kec. Siau Tim., Kabupaten Siau Tagulandang Biaro",SULAWESI UTARA,95861.0,Indonesia,81245950819.0,,,2.732646,125.4151012,https://maps.google.com/?cid=0x0:0x66dc4616804518cf,
cafe,Mi,xie xie Boba Siau,"PCH4+RJ2, Unnamed Road, Akesimbeka, Kec. Siau Tim., Kabupaten Siau Tagulandang Biaro, Sulawesi Utara 95861","Unnamed Road, Akesimbeka, Kec. Siau Tim., Kabupaten Siau Tagulandang Biaro",SULAWESI UTARA,95861.0,Indonesia,82196477718.0,,,2.7295138,125.4065027,https://maps.google.com/?cid=0x0:0x9154a215145ab001,
cafe,Kedai Kopi,Ocean view cafe,"Jalan Bouelivar Malele, Tarorane, Kec. Siau Tim., Kabupaten Siau Tagulandang Biaro, Sulawesi Utara 95861","Tarorane, Kec. Siau Tim., Kabupaten Siau Tagulandang Biaro",SULAWESI UTARA,95861.0,Indonesia,81243497159.0,,,2.7399419,125.4055827,https://maps.google.com/?cid=0x0:0xd4a4e2b231117c75,
cafe,Kedai Kopi,Evencio cafe,"Jl. Bolevard Malele, Ulu Siau, Kec. Siau Tim., Kabupaten Siau Tagulandang Biaro, Sulawesi Utara 95861","Ulu Siau, Kec. Siau Tim., Kabupaten Siau Tagulandang Biaro",SULAWESI UTARA,95861.0,Indonesia,85341981404.0,,,2.7322375,125.411893,https://maps.google.com/?cid=0x0:0x80aaffb360d09698,
cafe,Dapur Umum,RUMAH KOPI JAROD,"PCH5+W8M, Tarorane, Kec. Siau Tim., Kabupaten Siau Tagulandang Biaro, Sulawesi Utara 95861","Tarorane, Kec. Siau Tim., Kabupaten Siau Tagulandang Biaro",SULAWESI UTARA,95861.0,Indonesia,85283512337.0,,,2.7296471,125.408319,https://maps.google.com/?cid=0x0:0x295b0a767546978e,
cafe,Kedai Kopi,"Kedai Kopi Virgini""""","PCM8+89G, Jl . Pelabuhan, Tatahadeng, Kec. Siau Tim., Kabupaten Siau Tagulandang Biaro, Sulawesi Utara 95861","Jl . Pelabuhan, Tatahadeng, Kec. Siau Tim., Kabupaten Siau Tagulandang Biaro",SULAWESI UTARA,95861.0,Indonesia,,,,2.7333195,125.4159596,https://maps.google.com/?cid=0x0:0xd2cc212e05a09127,
cafe,Restoran,"Warung Makan muslim DIFA""""","Jln.Boulevard Malele kompleks Bank BNI unit siau timur, Kec. Siau Tim., Sulawesi Utara 95861",Kec. Siau Tim.,SULAWESI UTARA,95861.0,Indonesia,82193000119.0,,,2.7315374,125.4112931,https://maps.google.com/?cid=0x0:0x67d594ef3cc341e8,
cafe,Komplek perumahan,Kel. Lumbaghi-Maradung,"PCP3+2CV, Bebali, Kec. Siau Tim., Kabupaten Siau Tagulandang Biaro, Sulawesi Utara 95861","Bebali, Kec. Siau Tim., Kabupaten Siau Tagulandang Biaro",SULAWESI UTARA,95861.0,Indonesia,82195441999.0,,,2.7351212,125.4035504,https://maps.google.com/?cid=0x0:0x310ca9b213b6b4a6,
cafe,Toko Makanan,Kois GLORIA TERANG BULAN (MARTABAK  MALABAR),"PCJ5+7MR, Unnamed Road, Tarorane, Kec. Siau Tim., Kabupaten Siau Tagulandang Biaro, Sulawesi Utara 95861","Unnamed Road, Tarorane, Kec. Siau Tim., Kabupaten Siau Tagulandang Biaro",SULAWESI UTARA,95861.0,Indonesia,82187107231.0,,,2.7307301,125.4091384,https://maps.google.com/?cid=0x0:0x82e5ed2694d3d057,
cafe,Kedai Kopi,ChillOut Cafe,"Balehumara, Kec. Tagulandang, Kabupaten Siau Tagulandang Biaro, Sulawesi Utara","Kabupaten Siau Tagulandang Biaro, Sulawesi Utara",SULAWESI UTARA,,Indonesia,85341777670.0,,,2.3438825,125.379589,https://maps.google.com/?cid=0x0:0xde4c9682e811fffb,
cafe,Mi,"Mie Ba Cici Mey""""","PCH4+J8P, jln, Akesimbeka, Kec. Siau Tim., Kabupaten Siau Tagulandang Biaro, Sulawesi Utara 95861","jln, Akesimbeka, Kec. Siau Tim., Kabupaten Siau Tagulandang Biaro",SULAWESI UTARA,95861.0,Indonesia,82188929386.0,,,2.7290881,125.4058409,https://maps.google.com/?cid=0x0:0x2a011506a4896cbc,
cafe,Kafe,The sunset cafe and resto,"P9W6+R48, Ondong, Kanawong, Siau Bar., Kabupaten Siau Tagulandang Biaro, Sulawesi Utara","Kabupaten Siau Tagulandang Biaro, Sulawesi Utara",SULAWESI UTARA,,Indonesia,81243677772.0,,,2.7470273,125.3603357,https://maps.google.com/?cid=0x0:0xd52dbf7a2979c37d,
cafe,Kafe,Bless Coffeeshop Ulu Siau (Kafe),"Jalan Akesimbeka Lingkungan 1 Ulu Siau, Kabupaten Kepulauan Sitaro, Siau, Sulawesi Utara 95861","Kabupaten Kepulauan Sitaro, Siau",SULAWESI UTARA,95861.0,Indonesia,85396440167.0,,,2.7285603,125.4071088,https://maps.google.com/?cid=0x0:0xdf7e680cbf341657,
cafe,Mi,Mie'Ba Tahuna di Siau (Ci Serly),"Dekat Lorong Polsek, Kel. Paniki, Siau Bar., Kabupaten Siau Tagulandang Biaro, Sulawesi Utara","Kabupaten Siau Tagulandang Biaro, Sulawesi Utara",SULAWESI UTARA,,Indonesia,82271121271.0,,,2.7430358,125.3605566,https://maps.google.com/?cid=0x0:0x232f552039821191,
cafe,Padang,Mr. Selekta,"PCJ4+555, Unnamed Road, Tarorane, Siau Timur, Sitaro Islands Regency, North Sulawesi 95861","Unnamed Road, Tarorane, Siau Timur, Sitaro Islands Regency",SULAWESI UTARA,95861.0,Indonesia,85213285597.0,,,2.7303966,125.4054782,https://maps.google.com/?cid=0x0:0x15ce9ddf220fec9e,
cafe,Restoran,Restoran Narwastu,"PCH5+R44, Akesimbeka, Kec. Siau Tim., Kabupaten Siau Tagulandang Biaro, Sulawesi Utara 95861","Akesimbeka, Kec. Siau Tim., Kabupaten Siau Tagulandang Biaro",SULAWESI UTARA,95861.0,Indonesia,,,,2.7295149,125.4078274,https://maps.google.com/?cid=0x0:0x52cd45d638a7d121,
cafe,Restoran,TINUTUAN  NASKUN,"PCM6+6XH, Tarorane, Kec. Siau Tim., Kabupaten Siau Tagulandang Biaro, Sulawesi Utara 95861","Tarorane, Kec. Siau Tim., Kabupaten Siau Tagulandang Biaro",SULAWESI UTARA,95861.0,Indonesia,,,,2.7330749,125.4124805,https://maps.google.com/?cid=0x0:0x84a047a2df834d13,
cafe,Indonesia,Rumah makan Sahabat,"Tarorane, Kec. Siau Tim., Kabupaten Siau Tagulandang Biaro, Sulawesi Utara 95861","Kec. Siau Tim., Kabupaten Siau Tagulandang Biaro",SULAWESI UTARA,95861.0,Indonesia,81340672390.0,,,2.7296976,125.4081671,https://maps.google.com/?cid=0x0:0x6d34506f67095214,
cafe,Rumah Makan,Dapur Mama'Je,"Tatahadeng, Kec. Siau Tim., Kabupaten Siau Tagulandang Biaro, Sulawesi Utara 95861","Kec. Siau Tim., Kabupaten Siau Tagulandang Biaro",SULAWESI UTARA,95861.0,Indonesia,81244573295.0,,,2.7330697,125.4124493,https://maps.google.com/?cid=0x0:0x494d9f744bb8f8a9,
cafe,Restoran,Pertigaan malele,"PCJ6+W98 Tim, Tarorane, Kec. Siau Tim., Kabupaten Siau Tagulandang Biaro, Sulawesi Utara 95861","Tarorane, Kec. Siau Tim., Kabupaten Siau Tagulandang Biaro",SULAWESI UTARA,95861.0,Indonesia,,,,2.7323197,125.4108939,https://maps.google.com/?cid=0x0:0x1fafc114fc3cece6,
cafe,cafe,Kec. Tagulandang,"Kabupaten Siau Tagulandang Biaro, Sulawesi Utara","Kabupaten Siau Tagulandang Biaro, Sulawesi Utara",SULAWESI UTARA,,Indonesia,,,,2.3461009,125.3780692,https://maps.google.com/?cid=0x0:0x209bd6bf153ba2f,
cafe,Kedai Kopi,ChillOut Cafe,"Balehumara, Kec. Tagulandang, Kabupaten Siau Tagulandang Biaro, Sulawesi Utara","Kabupaten Siau Tagulandang Biaro, Sulawesi Utara",SULAWESI UTARA,,Indonesia,85341777670.0,,,2.3438825,125.379589,https://maps.google.com/?cid=0x0:0xde4c9682e811fffb,
cafe,Kafetaria,REVISCHO cafe,"8CG7+398, Mahangiang, Kec. Tagulandang, Kabupaten Siau Tagulandang Biaro, Sulawesi Utara","Kabupaten Siau Tagulandang Biaro, Sulawesi Utara",SULAWESI UTARA,,Indonesia,82395331535.0,,,2.32516,125.4134407,https://maps.google.com/?cid=0x0:0xaa7225014a58bc13,
cafe,Kafe,Kedaiglo Tagulandang,"996F+46, Lesah, Kec. Tagulandang, Kabupaten Siau Tagulandang Biaro, Sulawesi Utara","Kabupaten Siau Tagulandang Biaro, Sulawesi Utara",SULAWESI UTARA,,Indonesia,85247102969.0,,,2.3603765,125.3730211,https://maps.google.com/?cid=0x0:0xdf5c3e695fc0cbaa,
cafe,Kedai Kopi,Nggon cangkrukan e Nian,"89VP+G5G, Unnamed Road, Barangka Pehe, Tagulandang, Sitaro Islands Regency, North Sulawesi","Kabupaten Siau Tagulandang Biaro, Sulawesi Utara",SULAWESI UTARA,,Indonesia,,,,2.3438078,125.3854467,https://maps.google.com/?cid=0x0:0x45cfeeb7805e9ce3,
cafe,Sarapan,Rumah Makan Sederhana Tagulandang (Barangka Pehe),"Bahoi, Kec. Tagulandang, Kabupaten Siau Tagulandang Biaro, Sulawesi Utara","Kabupaten Siau Tagulandang Biaro, Sulawesi Utara",SULAWESI UTARA,,Indonesia,82195000261.0,,,2.3325418,125.3890519,https://maps.google.com/?cid=0x0:0x503b35a4eac0a0f,
cafe,Kedai Kopi,Bohoy tagulandang,"9C86+G4R, Bokep pehe, Kec. Tagulandang, Kabupaten Siau Tagulandang Biaro, Sulawesi Utara","Kabupaten Siau Tagulandang Biaro, Sulawesi Utara",SULAWESI UTARA,,Indonesia,,,,2.3663627,125.410271,https://maps.google.com/?cid=0x0:0x83564d11affc6a84,
cafe,Warnet,Shalomtech,"Barangka Pehe, Kec. Tagulandang, Kabupaten Siau Tagulandang Biaro, Sulawesi Utara","Kabupaten Siau Tagulandang Biaro, Sulawesi Utara",SULAWESI UTARA,,Indonesia,82193062544.0,,,2.3398916,125.3845132,https://maps.google.com/?cid=0x0:0x376d36bc891942a8,
cafe,Pertanian,Mandolokang King Spices,"Unnamed Road, Mahangiang, Kec. Tagulandang, Kabupaten Siau Tagulandang Biaro, Sulawesi Utara","Kabupaten Siau Tagulandang Biaro, Sulawesi Utara",SULAWESI UTARA,,Indonesia,82194967227.0,,,2.3284668,125.3938346,https://maps.google.com/?cid=0x0:0x6da021e72c21c673,
cafe,Rumah Makan,RM.EKLESIA  Sound Rental,"89VJ+5H9, Bahoi, Kec. Tagulandang, Kabupaten Siau Tagulandang Biaro, Sulawesi Utara","Kabupaten Siau Tagulandang Biaro, Sulawesi Utara",SULAWESI UTARA,,Indonesia,,,,2.3429002,125.3814707,https://maps.google.com/?cid=0x0:0xcae7a3d8228ef065,
cafe,Rumah Makan,RM.Al-fathur  Aiska,"89WH+82P, Balehumara, Kec. Tagulandang, Kabupaten Siau Tagulandang Biaro, Sulawesi Utara","Kabupaten Siau Tagulandang Biaro, Sulawesi Utara",SULAWESI UTARA,,Indonesia,,,,2.3458263,125.3775805,https://maps.google.com/?cid=0x0:0xf66514e012811ee6,
cafe,Restoran,Rumah Makan Sederhana Tagulandang (Nasional Food),"Unnamed Road, Barangka Pehe, Tagulandang, Sitaro Islands Regency, North Sulawesi","Kabupaten Siau Tagulandang Biaro, Sulawesi Utara",SULAWESI UTARA,,Indonesia,82188989281.0,,,2.3433285,125.3810477,https://maps.google.com/?cid=0x0:0x290b0d2e674518ab,
cafe,Rumah Pondokan,Martabak WoW Tagulandang,"Lind. 1, Barangka Pehe, Kec. Tagulandang, Kabupaten Siau Tagulandang Biaro, Sulawesi Utara 95863","Barangka Pehe, Kec. Tagulandang, Kabupaten Siau Tagulandang Biaro",SULAWESI UTARA,95863.0,Indonesia,82193062544.0,,,2.3361552,125.3867104,https://maps.google.com/?cid=0x0:0xa2e942216eaf7898,
cafe,Kafe,Nataniel Anthonie,"89WH+C6W, Balehumara, Kec. Tagulandang, Kabupaten Siau Tagulandang Biaro, Sulawesi Utara","Kabupaten Siau Tagulandang Biaro, Sulawesi Utara",SULAWESI UTARA,,Indonesia,,,,2.3461213,125.3780896,https://maps.google.com/?cid=0x0:0xb7d0d72b3552cf7a,
cafe,Dapur Umum,Dapur Rantau,"89RM+3GV, Barangka Pehe, Kec. Tagulandang, Kabupaten Siau Tagulandang Biaro, Sulawesi Utara","Kabupaten Siau Tagulandang Biaro, Sulawesi Utara",SULAWESI UTARA,,Indonesia,82187957383.0,,,2.3402382,125.3838029,https://maps.google.com/?cid=0x0:0x4ac6f0e6c6688f0d,
cafe,Kafetaria,Beach Coffee,"PCJ7+W3P, Bolevard, Tatahadeng, Kec. Siau Tim., Kabupaten Siau Tagulandang Biaro, Sulawesi Utara 95861","Bolevard, Tatahadeng, Kec. Siau Tim., Kabupaten Siau Tagulandang Biaro",SULAWESI UTARA,95861.0,Indonesia,82194764652.0,,,2.7323316,125.4127186,https://maps.google.com/?cid=0x0:0xa50b571f51c5fe29,
cafe,Restoran,RM. FRIENDLY,"89VH+MQC, Balehumara, Kec. Tagulandang, SITARO, Sulawesi Utara","SITARO, Sulawesi Utara",SULAWESI UTARA,,Indonesia,82349659804.0,,,2.3441944,125.3793808,https://maps.google.com/?cid=0x0:0xe4796cf78b14848e,
cafe,Nasi,R.M Bakso Nayla,"89XG+J2G, Balehumara, Kec. Tagulandang, Kabupaten Siau Tagulandang Biaro, Sulawesi Utara","Kabupaten Siau Tagulandang Biaro, Sulawesi Utara",SULAWESI UTARA,,Indonesia,85240200455.0,,,2.3490655,125.3750634,https://maps.google.com/?cid=0x0:0xdc56ad0319bd7abc,
cafe,Toko Swalayan,WARUNG ES VIRGINIA,"89VM+2QR, Barangka Pehe, Kec. Tagulandang, Kabupaten Siau Tagulandang Biaro, Sulawesi Utara","Kabupaten Siau Tagulandang Biaro, Sulawesi Utara",SULAWESI UTARA,,Indonesia,81244265013.0,,,2.3426113,125.3843828,https://maps.google.com/?cid=0x0:0x10d101a3b918205c,
cafe,Rumah Makan,Batagor  sioamay Neng aira,"89VM+87W, Bahoi, Kec. Tagulandang, Kabupaten Siau Tagulandang Biaro, Sulawesi Utara","Kabupaten Siau Tagulandang Biaro, Sulawesi Utara",SULAWESI UTARA,,Indonesia,82293340033.0,,,2.3433664,125.3832076,https://maps.google.com/?cid=0x0:0x7eac8e61e3748e04,
cafe,Rumah Makan,MIE BAKSO HAMU MAS KEVIN,"Bahoi, Kec. Tagulandang, Kabupaten Siau Tagulandang Biaro, Sulawesi Utara","Kabupaten Siau Tagulandang Biaro, Sulawesi Utara",SULAWESI UTARA,,Indonesia,81354012599.0,,,2.341679,125.3825359,https://maps.google.com/?cid=0x0:0xe5106a9d68403ca2,
cafe,Brunch,RM.SELEBRITIS RESKY,"89VH+FW8, Balehumara, Kec. Tagulandang, Kabupaten Siau Tagulandang Biaro, Sulawesi Utara","Kabupaten Siau Tagulandang Biaro, Sulawesi Utara",SULAWESI UTARA,,Indonesia,85340008043.0,,,2.3436642,125.379826,https://maps.google.com/?cid=0x0:0xf99717285e3ce811,
cafe,Kafe,Warkop Amoura,"89VJ+G8W, Jln Lorong Polsek, Balehumara, Kec. Tagulandang, Kabupaten Siau Tagulandang Biaro, Sulawesi Utara","Kabupaten Siau Tagulandang Biaro, Sulawesi Utara",SULAWESI UTARA,,Indonesia,82315112096.0,,,2.3438692,125.380822,https://maps.google.com/?cid=0x0:0xee04876a6575c235,
cafe,Indonesia,R.M Keren,"9C3G+HGV, Bawoleu, Kec. Tagulandang Utara, Kabupaten Siau Tagulandang Biaro, Sulawesi Utara","Kabupaten Siau Tagulandang Biaro, Sulawesi Utara",SULAWESI UTARA,,Indonesia,85255600849.0,,,2.3534575,125.4259894,https://maps.google.com/?cid=0x0:0x8f1072ae50e6077,
cafe,Komplek perumahan,tahulending jote,"49G6+V92, Lamanggo, Kec. Biaro, Kabupaten Siau Tagulandang Biaro, Sulawesi Utara","Kabupaten Siau Tagulandang Biaro, Sulawesi Utara",SULAWESI UTARA,,Indonesia,,,,2.1271369,125.3608844,https://maps.google.com/?cid=0x0:0x95e4e08d09b82638,
cafe,Warnet,Swendi bawoleh,"9CCJ+PJX, Bulangan, Kec. Tagulandang Utara, Kabupaten Siau Tagulandang Biaro, Sulawesi Utara","Kabupaten Siau Tagulandang Biaro, Sulawesi Utara",SULAWESI UTARA,,Indonesia,,,,2.3718627,125.4316201,https://maps.google.com/?cid=0x0:0xf3c6deb00501c0ea,
cafe,cafe,Kec. Tagulandang Sel.,"Kabupaten Siau Tagulandang Biaro, Sulawesi Utara","Kabupaten Siau Tagulandang Biaro, Sulawesi Utara",SULAWESI UTARA,,Indonesia,,,,2.3182823,125.4355499,https://maps.google.com/?cid=0x0:0x4ac91ac814e7666a,
cafe,Kafetaria,REVISCHO cafe,"8CG7+398, Mahangiang, Kec. Tagulandang, Kabupaten Siau Tagulandang Biaro, Sulawesi Utara","Kabupaten Siau Tagulandang Biaro, Sulawesi Utara",SULAWESI UTARA,,Indonesia,82395331535.0,,,2.32516,125.4134407,https://maps.google.com/?cid=0x0:0xaa7225014a58bc13,
cafe,Kedai Kopi,ChillOut Cafe,"Balehumara, Kec. Tagulandang, Kabupaten Siau Tagulandang Biaro, Sulawesi Utara","Kabupaten Siau Tagulandang Biaro, Sulawesi Utara",SULAWESI UTARA,,Indonesia,85341777670.0,,,2.3438825,125.379589,https://maps.google.com/?cid=0x0:0xde4c9682e811fffb,
cafe,Kafe,Kedaiglo Tagulandang,"996F+46, Lesah, Kec. Tagulandang, Kabupaten Siau Tagulandang Biaro, Sulawesi Utara","Kabupaten Siau Tagulandang Biaro, Sulawesi Utara",SULAWESI UTARA,,Indonesia,85247102969.0,,,2.3603765,125.3730211,https://maps.google.com/?cid=0x0:0xdf5c3e695fc0cbaa,
cafe,Kedai Kopi,Bohoy tagulandang,"9C86+G4R, Bokep pehe, Kec. Tagulandang, Kabupaten Siau Tagulandang Biaro, Sulawesi Utara","Kabupaten Siau Tagulandang Biaro, Sulawesi Utara",SULAWESI UTARA,,Indonesia,,,,2.3663627,125.410271,https://maps.google.com/?cid=0x0:0x83564d11affc6a84,
cafe,Dapur Umum,Bandil-Nanuru,"Lorong panoka, RT.lind 2, Kisihang, Kec. Tagulandang Sel., Kabupaten Siau Tagulandang Biaro, Sulawesi Utara 95863","RT.lind 2, Kisihang, Kec. Tagulandang Sel., Kabupaten Siau Tagulandang Biaro",SULAWESI UTARA,95863.0,Indonesia,,,,2.3308508,125.4425807,https://maps.google.com/?cid=0x0:0x2d6f028a07cc8027,
cafe,Warnet,Swendi bawoleh,"9CCJ+PJX, Bulangan, Kec. Tagulandang Utara, Kabupaten Siau Tagulandang Biaro, Sulawesi Utara","Kabupaten Siau Tagulandang Biaro, Sulawesi Utara",SULAWESI UTARA,,Indonesia,,,,2.3718627,125.4316201,https://maps.google.com/?cid=0x0:0xf3c6deb00501c0ea,
cafe,Kedai Kopi,Gio Lohonauman,"8FW6+J72, Birakiama, Kec. Tagulandang Sel., Kabupaten Siau Tagulandang Biaro, Sulawesi Utara","Kabupaten Siau Tagulandang Biaro, Sulawesi Utara",SULAWESI UTARA,,Indonesia,,,,2.3465097,125.4606465,https://maps.google.com/?cid=0x0:0xb34b132193a0397e,
cafe,Pertanian,Mandolokang King Spices,"Unnamed Road, Mahangiang, Kec. Tagulandang, Kabupaten Siau Tagulandang Biaro, Sulawesi Utara","Kabupaten Siau Tagulandang Biaro, Sulawesi Utara",SULAWESI UTARA,,Indonesia,82194967227.0,,,2.3284668,125.3938346,https://maps.google.com/?cid=0x0:0x6da021e72c21c673,
cafe,Rumah Makan,RM.EKLESIA  Sound Rental,"89VJ+5H9, Bahoi, Kec. Tagulandang, Kabupaten Siau Tagulandang Biaro, Sulawesi Utara","Kabupaten Siau Tagulandang Biaro, Sulawesi Utara",SULAWESI UTARA,,Indonesia,,,,2.3429002,125.3814707,https://maps.google.com/?cid=0x0:0xcae7a3d8228ef065,
cafe,Restoran,Warung Makan  Jualan Barito,"Haasi, Kec. Tagulandang, Kabupaten Siau Tagulandang Biaro, Sulawesi Utara 95863","Kec. Tagulandang, Kabupaten Siau Tagulandang Biaro",SULAWESI UTARA,95863.0,Indonesia,82267695219.0,,,2.3186683,125.4192862,https://maps.google.com/?cid=0x0:0xef4678496b3d04db,
cafe,Dapur Umum,Kantin Mama Lidya,"Humbia, Kec. Tagulandang Sel., Kabupaten Siau Tagulandang Biaro, Sulawesi Utara","Kabupaten Siau Tagulandang Biaro, Sulawesi Utara",SULAWESI UTARA,,Indonesia,85256385226.0,,,2.3179278,125.4279522,https://maps.google.com/?cid=0x0:0x3071a719cc8c581b,
cafe,Kios,Kios Miracle,"9F25+RVH, Birakiama, Kec. Tagulandang Sel., Kabupaten Siau Tagulandang Biaro, Sulawesi Utara","Kabupaten Siau Tagulandang Biaro, Sulawesi Utara",SULAWESI UTARA,,Indonesia,,,,2.3520622,125.459743,https://maps.google.com/?cid=0x0:0x3592901ced8ae957,
cafe,Sarapan,Warung makan nasi kuning  mie ba,"8C99+CRP, Unnamed Road, Haasi, Kec. Tagulandang Sel., Kabupaten Siau Tagulandang Biaro, Sulawesi Utara","Kabupaten Siau Tagulandang Biaro, Sulawesi Utara",SULAWESI UTARA,,Indonesia,,,,2.318581,125.419575,https://maps.google.com/?cid=0x0:0x6304160bc4fe1196,
cafe,cafe,Tian home,"8C9P+582, Kisihang, Kec. Tagulandang Sel., Kabupaten Siau Tagulandang Biaro, Sulawesi Utara","Kabupaten Siau Tagulandang Biaro, Sulawesi Utara",SULAWESI UTARA,,Indonesia,,,,2.3178673,125.4359903,https://maps.google.com/?cid=0x0:0x4aa1e1ff8f2e12e2,
cafe,Brunch,R ED' n Sulbaks cafe,"P9V6+PCC, Jl. Lokongbanu, Kanawong, Siau Bar., Kabupaten Siau Tagulandang Biaro, Sulawesi Utara","Kabupaten Siau Tagulandang Biaro, Sulawesi Utara",SULAWESI UTARA,,Indonesia,82217640762.0,,,2.7443182,125.3610128,https://maps.google.com/?cid=0x0:0xa1deae67550d0bab,
cafe,Indonesia,R.M Keren,"9C3G+HGV, Bawoleu, Kec. Tagulandang Utara, Kabupaten Siau Tagulandang Biaro, Sulawesi Utara","Kabupaten Siau Tagulandang Biaro, Sulawesi Utara",SULAWESI UTARA,,Indonesia,85255600849.0,,,2.3534575,125.4259894,https://maps.google.com/?cid=0x0:0x8f1072ae50e6077,
cafe,Komplek perumahan,tahulending jote,"49G6+V92, Lamanggo, Kec. Biaro, Kabupaten Siau Tagulandang Biaro, Sulawesi Utara","Kabupaten Siau Tagulandang Biaro, Sulawesi Utara",SULAWESI UTARA,,Indonesia,,,,2.1271369,125.3608844,https://maps.google.com/?cid=0x0:0x95e4e08d09b82638,
cafe,Pelabuhan sungai,Tanjung buha,"8FX8+R82, Tonggeng Manandu, Birakiama, Kec. Tagulandang Sel., Kabupaten Siau Tagulandang Biaro, Sulawesi Utara","Kabupaten Siau Tagulandang Biaro, Sulawesi Utara",SULAWESI UTARA,,Indonesia,,,,2.3495111,125.4657577,https://maps.google.com/?cid=0x0:0xd51ca382de6aa08f,
cafe,Kafe,Warkop Amoura,"89VJ+G8W, Jln Lorong Polsek, Balehumara, Kec. Tagulandang, Kabupaten Siau Tagulandang Biaro, Sulawesi Utara","Kabupaten Siau Tagulandang Biaro, Sulawesi Utara",SULAWESI UTARA,,Indonesia,82315112096.0,,,2.3438692,125.380822,https://maps.google.com/?cid=0x0:0xee04876a6575c235,
cafe,Kedai Kopi,Nggon cangkrukan e Nian,"89VP+G5G, Unnamed Road, Barangka Pehe, Tagulandang, Sitaro Islands Regency, North Sulawesi","Kabupaten Siau Tagulandang Biaro, Sulawesi Utara",SULAWESI UTARA,,Indonesia,,,,2.3438078,125.3854467,https://maps.google.com/?cid=0x0:0x45cfeeb7805e9ce3,
cafe,cafe,Sean Kayros Cafe,"jl, Kisihang, Kec. Tagulandang Sel., Kabupaten Siau Tagulandang Biaro, Sulawesi Utara","Kabupaten Siau Tagulandang Biaro, Sulawesi Utara",SULAWESI UTARA,,Indonesia,,,,2.3188918,125.4378619,https://maps.google.com/?cid=0x0:0xe2cb5db915e1ecfe,
cafe,cafe,Kec. Tagulandang Utara,"Kabupaten Siau Tagulandang Biaro, Sulawesi Utara","Kabupaten Siau Tagulandang Biaro, Sulawesi Utara",SULAWESI UTARA,,Indonesia,,,,2.3482186,125.4232499,https://maps.google.com/?cid=0x0:0x92479453b06a48b4,
cafe,Kedai Kopi,ChillOut Cafe,"Balehumara, Kec. Tagulandang, Kabupaten Siau Tagulandang Biaro, Sulawesi Utara","Kabupaten Siau Tagulandang Biaro, Sulawesi Utara",SULAWESI UTARA,,Indonesia,85341777670.0,,,2.3438825,125.379589,https://maps.google.com/?cid=0x0:0xde4c9682e811fffb,
cafe,Kafetaria,REVISCHO cafe,"8CG7+398, Mahangiang, Kec. Tagulandang, Kabupaten Siau Tagulandang Biaro, Sulawesi Utara","Kabupaten Siau Tagulandang Biaro, Sulawesi Utara",SULAWESI UTARA,,Indonesia,82395331535.0,,,2.32516,125.4134407,https://maps.google.com/?cid=0x0:0xaa7225014a58bc13,
cafe,Kedai Kopi,Nggon cangkrukan e Nian,"89VP+G5G, Unnamed Road, Barangka Pehe, Tagulandang, Sitaro Islands Regency, North Sulawesi","Kabupaten Siau Tagulandang Biaro, Sulawesi Utara",SULAWESI UTARA,,Indonesia,,,,2.3438078,125.3854467,https://maps.google.com/?cid=0x0:0x45cfeeb7805e9ce3,
cafe,Kafe,Kedaiglo Tagulandang,"996F+46, Lesah, Kec. Tagulandang, Kabupaten Siau Tagulandang Biaro, Sulawesi Utara","Kabupaten Siau Tagulandang Biaro, Sulawesi Utara",SULAWESI UTARA,,Indonesia,85247102969.0,,,2.3603765,125.3730211,https://maps.google.com/?cid=0x0:0xdf5c3e695fc0cbaa,
cafe,Kedai Kopi,Bohoy tagulandang,"9C86+G4R, Bokep pehe, Kec. Tagulandang, Kabupaten Siau Tagulandang Biaro, Sulawesi Utara","Kabupaten Siau Tagulandang Biaro, Sulawesi Utara",SULAWESI UTARA,,Indonesia,,,,2.3663627,125.410271,https://maps.google.com/?cid=0x0:0x83564d11affc6a84,
cafe,Sarapan,Rumah Makan Sederhana Tagulandang (Barangka Pehe),"Bahoi, Kec. Tagulandang, Kabupaten Siau Tagulandang Biaro, Sulawesi Utara","Kabupaten Siau Tagulandang Biaro, Sulawesi Utara",SULAWESI UTARA,,Indonesia,82195000261.0,,,2.3325418,125.3890519,https://maps.google.com/?cid=0x0:0x503b35a4eac0a0f,
cafe,Warnet,Shalomtech,"Barangka Pehe, Kec. Tagulandang, Kabupaten Siau Tagulandang Biaro, Sulawesi Utara","Kabupaten Siau Tagulandang Biaro, Sulawesi Utara",SULAWESI UTARA,,Indonesia,82193062544.0,,,2.3398916,125.3845132,https://maps.google.com/?cid=0x0:0x376d36bc891942a8,
cafe,Warnet,Swendi bawoleh,"9CCJ+PJX, Bulangan, Kec. Tagulandang Utara, Kabupaten Siau Tagulandang Biaro, Sulawesi Utara","Kabupaten Siau Tagulandang Biaro, Sulawesi Utara",SULAWESI UTARA,,Indonesia,,,,2.3718627,125.4316201,https://maps.google.com/?cid=0x0:0xf3c6deb00501c0ea,
cafe,Pertanian,Mandolokang King Spices,"Unnamed Road, Mahangiang, Kec. Tagulandang, Kabupaten Siau Tagulandang Biaro, Sulawesi Utara","Kabupaten Siau Tagulandang Biaro, Sulawesi Utara",SULAWESI UTARA,,Indonesia,82194967227.0,,,2.3284668,125.3938346,https://maps.google.com/?cid=0x0:0x6da021e72c21c673,
cafe,Rumah Makan,RM.EKLESIA  Sound Rental,"89VJ+5H9, Bahoi, Kec. Tagulandang, Kabupaten Siau Tagulandang Biaro, Sulawesi Utara","Kabupaten Siau Tagulandang Biaro, Sulawesi Utara",SULAWESI UTARA,,Indonesia,,,,2.3429002,125.3814707,https://maps.google.com/?cid=0x0:0xcae7a3d8228ef065,
cafe,Indonesia,R.M Keren,"9C3G+HGV, Bawoleu, Kec. Tagulandang Utara, Kabupaten Siau Tagulandang Biaro, Sulawesi Utara","Kabupaten Siau Tagulandang Biaro, Sulawesi Utara",SULAWESI UTARA,,Indonesia,85255600849.0,,,2.3534575,125.4259894,https://maps.google.com/?cid=0x0:0x8f1072ae50e6077,
cafe,Dapur Umum,Bandil-Nanuru,"Lorong panoka, RT.lind 2, Kisihang, Kec. Tagulandang Sel., Kabupaten Siau Tagulandang Biaro, Sulawesi Utara 95863","RT.lind 2, Kisihang, Kec. Tagulandang Sel., Kabupaten Siau Tagulandang Biaro",SULAWESI UTARA,95863.0,Indonesia,,,,2.3308508,125.4425807,https://maps.google.com/?cid=0x0:0x2d6f028a07cc8027,
cafe,Kafetaria,Beach Coffee,"PCJ7+W3P, Bolevard, Tatahadeng, Kec. Siau Tim., Kabupaten Siau Tagulandang Biaro, Sulawesi Utara 95861","Bolevard, Tatahadeng, Kec. Siau Tim., Kabupaten Siau Tagulandang Biaro",SULAWESI UTARA,95861.0,Indonesia,82194764652.0,,,2.7323316,125.4127186,https://maps.google.com/?cid=0x0:0xa50b571f51c5fe29,
cafe,Rumah Makan,RM.Al-fathur  Aiska,"89WH+82P, Balehumara, Kec. Tagulandang, Kabupaten Siau Tagulandang Biaro, Sulawesi Utara","Kabupaten Siau Tagulandang Biaro, Sulawesi Utara",SULAWESI UTARA,,Indonesia,,,,2.3458263,125.3775805,https://maps.google.com/?cid=0x0:0xf66514e012811ee6,
cafe,Nasi,R.M Bakso Nayla,"89XG+J2G, Balehumara, Kec. Tagulandang, Kabupaten Siau Tagulandang Biaro, Sulawesi Utara","Kabupaten Siau Tagulandang Biaro, Sulawesi Utara",SULAWESI UTARA,,Indonesia,85240200455.0,,,2.3490655,125.3750634,https://maps.google.com/?cid=0x0:0xdc56ad0319bd7abc,
cafe,Rumah Pondokan,Martabak WoW Tagulandang,"Lind. 1, Barangka Pehe, Kec. Tagulandang, Kabupaten Siau Tagulandang Biaro, Sulawesi Utara 95863","Barangka Pehe, Kec. Tagulandang, Kabupaten Siau Tagulandang Biaro",SULAWESI UTARA,95863.0,Indonesia,82193062544.0,,,2.3361552,125.3867104,https://maps.google.com/?cid=0x0:0xa2e942216eaf7898,
cafe,Dapur Umum,Dapur Rantau,"89RM+3GV, Barangka Pehe, Kec. Tagulandang, Kabupaten Siau Tagulandang Biaro, Sulawesi Utara","Kabupaten Siau Tagulandang Biaro, Sulawesi Utara",SULAWESI UTARA,,Indonesia,82187957383.0,,,2.3402382,125.3838029,https://maps.google.com/?cid=0x0:0x4ac6f0e6c6688f0d,
cafe,Rumah Makan,MIE BAKSO HAMU MAS KEVIN,"Bahoi, Kec. Tagulandang, Kabupaten Siau Tagulandang Biaro, Sulawesi Utara","Kabupaten Siau Tagulandang Biaro, Sulawesi Utara",SULAWESI UTARA,,Indonesia,81354012599.0,,,2.341679,125.3825359,https://maps.google.com/?cid=0x0:0xe5106a9d68403ca2,
cafe,Kafe,Warkop Amoura,"89VJ+G8W, Jln Lorong Polsek, Balehumara, Kec. Tagulandang, Kabupaten Siau Tagulandang Biaro, Sulawesi Utara","Kabupaten Siau Tagulandang Biaro, Sulawesi Utara",SULAWESI UTARA,,Indonesia,82315112096.0,,,2.3438692,125.380822,https://maps.google.com/?cid=0x0:0xee04876a6575c235,
cafe,Restoran,Warung Makan  Jualan Barito,"Haasi, Kec. Tagulandang, Kabupaten Siau Tagulandang Biaro, Sulawesi Utara 95863","Kec. Tagulandang, Kabupaten Siau Tagulandang Biaro",SULAWESI UTARA,95863.0,Indonesia,82267695219.0,,,2.3186683,125.4192862,https://maps.google.com/?cid=0x0:0xef4678496b3d04db,
cafe,Kafe,Nataniel Anthonie,"89WH+C6W, Balehumara, Kec. Tagulandang, Kabupaten Siau Tagulandang Biaro, Sulawesi Utara","Kabupaten Siau Tagulandang Biaro, Sulawesi Utara",SULAWESI UTARA,,Indonesia,,,,2.3461213,125.3780896,https://maps.google.com/?cid=0x0:0xb7d0d72b3552cf7a,
cafe,Rumah Makan,Batagor  sioamay Neng aira,"89VM+87W, Bahoi, Kec. Tagulandang, Kabupaten Siau Tagulandang Biaro, Sulawesi Utara","Kabupaten Siau Tagulandang Biaro, Sulawesi Utara",SULAWESI UTARA,,Indonesia,82293340033.0,,,2.3433664,125.3832076,https://maps.google.com/?cid=0x0:0x7eac8e61e3748e04,
cafe,Brunch,RM.AZKIA bawoleu,"9C3G+873, Bawoleu, Kec. Tagulandang Utara, Kabupaten Siau Tagulandang Biaro, Sulawesi Utara","Kabupaten Siau Tagulandang Biaro, Sulawesi Utara",SULAWESI UTARA,,Indonesia,82196161938.0,,,2.3532538,125.4256709,https://maps.google.com/?cid=0x0:0x494c9b052266695d,
cafe,Brunch,RM. CHRISTA,"RT.lingkungan 3/RW.rt 001, Bahoi, Kec. Tagulandang, Kabupaten Siau Tagulandang Biaro, Sulawesi Utara 95863","Bahoi, Kec. Tagulandang, Kabupaten Siau Tagulandang Biaro",SULAWESI UTARA,95863.0,Indonesia,82259119394.0,,,2.3413834,125.3817631,https://maps.google.com/?cid=0x0:0xd8144c8f97b18fa3,
