Category,Real Category,Business Name,Address,City,State,Postal Code,Country,Phone,Email,Website,Latitude,Longitude,Map Link,Details Link
building materials,building materials,Kec. Biaro,"Kabupaten Siau Tagulandang Biaro, Sulawesi Utara","Kabupaten Siau Tagulandang Biaro, Sulawesi Utara",SULAWESI UTARA,,Indonesia,,,,2.1188553,125.3626891,https://maps.google.com/?cid=0x0:0x4030bfbcaf78990,
building materials,Pusat Perbelanjaan,Toko Bangunan 'Berkat Usaha' Ci Len/Ko Djemi,"PCJ5+384 Tim, Tarorane, Kec. Siau Tim., Kabupaten Siau Tagulandang Biaro, Sulawesi Utara 95861","Tarorane, Kec. Siau Tim., Kabupaten Siau Tagulandang Biaro",SULAWESI UTARA,95861.0,Indonesia,81340617322.0,,,2.7301279,125.4083233,https://maps.google.com/?cid=0x0:0x7c2df2ef3ebada34,
building materials,Pasar bahan bangunan,BAHANA JAYA BANGUNAN,"Jl. Siswa Taas, Paal IV, Kec. Tikala, Kota Manado, Sulawesi Utara","Kota Manado, Sulawesi Utara",SULAWESI UTARA,,Indonesia,82193772821.0,,,1.4705893,124.8627446,https://maps.google.com/?cid=0x0:0x461ec80b1b29991c,
building materials,Toko,"Toko Material, Pasir, Batu, Kerikil, Teras, Fullbrick, Batu Bata","CRHQ+6CC, Pineleng I, Kec. Pineleng, Kabupaten Minahasa, Sulawesi Utara","Kabupaten Minahasa, Sulawesi Utara",SULAWESI UTARA,,Indonesia,81342993174.0,,,1.428055,124.8385021,https://maps.google.com/?cid=0x0:0x6254618d7117c868,
building materials,Kafetaria,"Abang sander,biaro","4997+G3W, Jln belkang, ling 2, Lamanggo, Kec. Biaro, Kabupaten Siau Tagulandang Biaro, Sulawesi Utara","Kabupaten Siau Tagulandang Biaro, Sulawesi Utara",SULAWESI UTARA,,Indonesia,,,,2.1188553,125.3626891,https://maps.google.com/?cid=0x0:0x7857a57f1b81b0aa,
building materials,Toko Bahan Bangunan,Toko Sentosa Bersama Bangunan,"Jl. Wolter Monginsidi No.45, Bahu, Kec. Malalayang, Kota Manado, Sulawesi Utara 95115","Bahu, Kec. Malalayang, Kota Manado",SULAWESI UTARA,95115.0,Indonesia,82182357020.0,,,1.4612015,124.8246869,https://maps.google.com/?cid=0x0:0x34c03b368a711f8b,
building materials,Toko,Toko Bangunan Wk Siau.,"P9V6+X49, Bar.,, Kanawong, Siau Bar., Kabupaten Siau Tagulandang Biaro, Sulawesi Utara","Kabupaten Siau Tagulandang Biaro, Sulawesi Utara",SULAWESI UTARA,,Indonesia,82189678934.0,,,2.7449173,125.3603575,https://maps.google.com/?cid=0x0:0x17a1d06475bcbc80,
building materials,Toko Perlengkapan Rumah,UD. Kobong Paso,"6P8X+5P8, Kiawa Satu, Kec. Tareran, Kabupaten Minahasa Selatan, Sulawesi Utara","Kabupaten Minahasa Selatan, Sulawesi Utara",SULAWESI UTARA,,Indonesia,,,,1.2154045,124.7493235,https://maps.google.com/?cid=0x0:0x44e8d7ddd8ff4e0e,
building materials,Toko umum,toko berdikari lina,"PCM8+722, Tatahadeng, Kec. Siau Tim., Kabupaten Siau Tagulandang Biaro, Sulawesi Utara 95861","Tatahadeng, Kec. Siau Tim., Kabupaten Siau Tagulandang Biaro",SULAWESI UTARA,95861.0,Indonesia,,,,2.733324,125.414903,https://maps.google.com/?cid=0x0:0x8ea24606412469c3,
building materials,Toko Bahan Bangunan,Kios Bangunan BERKAT MT,"Jl. Tumpaan - Kawangkoan, Wuwuk, Kec. Tareran, Kabupaten Minahasa Selatan, Sulawesi Utara","Kabupaten Minahasa Selatan, Sulawesi Utara",SULAWESI UTARA,,Indonesia,82145762479.0,,,1.2328138,124.7065325,https://maps.google.com/?cid=0x0:0xcb73c6ec35c5a229,
building materials,Toko Bahan Bangunan,UD.Murni 2 Dimembe - Toko Material dan Bahan Bangunan,"Samping Lorong Olahraga, Jl. Sukur - Likupang, Jaga V, Kec. Dimembe, Kabupaten Minahasa Utara, Sulawesi Utara 95373","Jl. Sukur - Likupang, Jaga V, Kec. Dimembe, Kabupaten Minahasa Utara",SULAWESI UTARA,95373.0,Indonesia,,,,1.4907004,124.9758544,https://maps.google.com/?cid=0x0:0xb183ee6014b14e0b,
building materials,Toko Bahan Bangunan,Foundation Building Materials,"8600 23rd Ave B, Sacramento, CA 95826, Amerika Serikat","Sacramento, CA",SULAWESI UTARA,95826.0,Indonesia,19163799776.0,,,38.531048,-121.385679,https://maps.google.com/?cid=0x0:0x417dda5a7af20877,
building materials,building materials,BMC - Building Materials  Construction Solutions,"6050 S Watt Ave, Sacramento, CA 95829, Amerika Serikat","Sacramento, CA",SULAWESI UTARA,95829.0,Indonesia,19163831070.0,,,38.5163021,-121.3707069,https://maps.google.com/?cid=0x0:0xdddf33a302404da5,
building materials,building materials,Siau Bar.,"Kabupaten Siau Tagulandang Biaro, Sulawesi Utara","Kabupaten Siau Tagulandang Biaro, Sulawesi Utara",SULAWESI UTARA,,Indonesia,,,,2.711198,125.3740526,https://maps.google.com/?cid=0x0:0xac02e56a08821622,
building materials,Pusat Perbelanjaan,Toko Bangunan 'Berkat Usaha' Ci Len/Ko Djemi,"PCJ5+384 Tim, Tarorane, Kec. Siau Tim., Kabupaten Siau Tagulandang Biaro, Sulawesi Utara 95861","Tarorane, Kec. Siau Tim., Kabupaten Siau Tagulandang Biaro",SULAWESI UTARA,95861.0,Indonesia,81340617322.0,,,2.7301279,125.4083233,https://maps.google.com/?cid=0x0:0x7c2df2ef3ebada34,
building materials,Toko,Toko Bangunan Wk Siau.,"P9V6+X49, Bar.,, Kanawong, Siau Bar., Kabupaten Siau Tagulandang Biaro, Sulawesi Utara","Kabupaten Siau Tagulandang Biaro, Sulawesi Utara",SULAWESI UTARA,,Indonesia,82189678934.0,,,2.7449173,125.3603575,https://maps.google.com/?cid=0x0:0x17a1d06475bcbc80,
building materials,Toko,Toko Bangunan Wk Siau.,"P9V6+X49, Bar.,, Kanawong, Siau Bar., Kabupaten Siau Tagulandang Biaro, Sulawesi Utara","Kabupaten Siau Tagulandang Biaro, Sulawesi Utara",SULAWESI UTARA,,Indonesia,82189678934.0,,,2.7449173,125.3603575,https://maps.google.com/?cid=0x0:0x17a1d06475bcbc80,
building materials,Toko,Toko Bintang Berkat VK Siau Ondong,"Kanawong, Siau Bar., Kabupaten Siau Tagulandang Biaro, Sulawesi Utara","Kabupaten Siau Tagulandang Biaro, Sulawesi Utara",SULAWESI UTARA,,Indonesia,82195028579.0,,,2.7466487,125.3611049,https://maps.google.com/?cid=0x0:0xd356e204bed418f4,
building materials,Otoritas Pelabuhan,Terminal Bangunan Tagulandang,"Jln No.Pasar 66, Balehumara, Kec. Tagulandang, Kabupaten Siau Tagulandang Biaro, Sulawesi Utara 95863","Balehumara, Kec. Tagulandang, Kabupaten Siau Tagulandang Biaro",SULAWESI UTARA,95863.0,Indonesia,85214113706.0,,,2.3447097,125.3792646,https://maps.google.com/?cid=0x0:0xc9cb4f3d928fe374,
building materials,Toko Bahan Bangunan,MANDARIN BANGUNAN,"Pasar ampera ulu siau, Tarorane, Kec. Siau Tim., Kabupaten Siau Tagulandang Biaro, Sulawesi Utara","Kabupaten Siau Tagulandang Biaro, Sulawesi Utara",SULAWESI UTARA,,Indonesia,,,,2.7315143,125.4073891,https://maps.google.com/?cid=0x0:0xe9fd03f6966fbbd9,
building materials,Toko umum,toko berdikari lina,"PCM8+722, Tatahadeng, Kec. Siau Tim., Kabupaten Siau Tagulandang Biaro, Sulawesi Utara 95861","Tatahadeng, Kec. Siau Tim., Kabupaten Siau Tagulandang Biaro",SULAWESI UTARA,95861.0,Indonesia,,,,2.733324,125.414903,https://maps.google.com/?cid=0x0:0x8ea24606412469c3,
building materials,Toko,Toko Bangunan Wk Siau.,"P9V6+X49, Bar.,, Kanawong, Siau Bar., Kabupaten Siau Tagulandang Biaro, Sulawesi Utara","Kabupaten Siau Tagulandang Biaro, Sulawesi Utara",SULAWESI UTARA,,Indonesia,82189678934.0,,,2.7449173,125.3603575,https://maps.google.com/?cid=0x0:0x17a1d06475bcbc80,
building materials,building materials,Kec. Siau Tengah,"Kabupaten Siau Tagulandang Biaro, Sulawesi Utara","Kabupaten Siau Tagulandang Biaro, Sulawesi Utara",SULAWESI UTARA,,Indonesia,,,,2.7403638,125.378898,https://maps.google.com/?cid=0x0:0xcf7998cd0113e8b5,
building materials,Pusat Perbelanjaan,Toko Bangunan 'Berkat Usaha' Ci Len/Ko Djemi,"PCJ5+384 Tim, Tarorane, Kec. Siau Tim., Kabupaten Siau Tagulandang Biaro, Sulawesi Utara 95861","Tarorane, Kec. Siau Tim., Kabupaten Siau Tagulandang Biaro",SULAWESI UTARA,95861.0,Indonesia,81340617322.0,,,2.7301279,125.4083233,https://maps.google.com/?cid=0x0:0x7c2df2ef3ebada34,
building materials,Toko Bahan Bangunan,MANDARIN BANGUNAN,"Pasar ampera ulu siau, Tarorane, Kec. Siau Tim., Kabupaten Siau Tagulandang Biaro, Sulawesi Utara","Kabupaten Siau Tagulandang Biaro, Sulawesi Utara",SULAWESI UTARA,,Indonesia,,,,2.7315143,125.4073891,https://maps.google.com/?cid=0x0:0xe9fd03f6966fbbd9,
building materials,building materials,Sulawesi Utara 95861,"Kec. Siau Tim., Kabupaten Siau Tagulandang Biaro, Sulawesi Utara","Kabupaten Siau Tagulandang Biaro, Sulawesi Utara",SULAWESI UTARA,,Indonesia,,,,2.7629842,125.4233987,https://maps.google.com/?cid=0x0:0x412fe64cf4eae893,
building materials,Pusat Perbelanjaan,Toko Bangunan 'Berkat Usaha' Ci Len/Ko Djemi,"PCJ5+384 Tim, Tarorane, Kec. Siau Tim., Kabupaten Siau Tagulandang Biaro, Sulawesi Utara 95861","Tarorane, Kec. Siau Tim., Kabupaten Siau Tagulandang Biaro",SULAWESI UTARA,95861.0,Indonesia,81340617322.0,,,2.7301279,125.4083233,https://maps.google.com/?cid=0x0:0x7c2df2ef3ebada34,
building materials,Toko umum,toko berdikari lina,"PCM8+722, Tatahadeng, Kec. Siau Tim., Kabupaten Siau Tagulandang Biaro, Sulawesi Utara 95861","Tatahadeng, Kec. Siau Tim., Kabupaten Siau Tagulandang Biaro",SULAWESI UTARA,95861.0,Indonesia,,,,2.733324,125.414903,https://maps.google.com/?cid=0x0:0x8ea24606412469c3,
building materials,building materials,Sulawesi Utara 95861,"Kec. Siau Tim., Kabupaten Siau Tagulandang Biaro, Sulawesi Utara","Kabupaten Siau Tagulandang Biaro, Sulawesi Utara",SULAWESI UTARA,,Indonesia,,,,2.7629842,125.4233987,https://maps.google.com/?cid=0x0:0x412fe64cf4eae893,
building materials,Pusat Perbelanjaan,Toko Bangunan 'Berkat Usaha' Ci Len/Ko Djemi,"PCJ5+384 Tim, Tarorane, Kec. Siau Tim., Kabupaten Siau Tagulandang Biaro, Sulawesi Utara 95861","Tarorane, Kec. Siau Tim., Kabupaten Siau Tagulandang Biaro",SULAWESI UTARA,95861.0,Indonesia,81340617322.0,,,2.7301279,125.4083233,https://maps.google.com/?cid=0x0:0x7c2df2ef3ebada34,
building materials,Toko Bahan Bangunan,MANDARIN BANGUNAN,"Pasar ampera ulu siau, Tarorane, Kec. Siau Tim., Kabupaten Siau Tagulandang Biaro, Sulawesi Utara","Kabupaten Siau Tagulandang Biaro, Sulawesi Utara",SULAWESI UTARA,,Indonesia,,,,2.7315143,125.4073891,https://maps.google.com/?cid=0x0:0xe9fd03f6966fbbd9,
building materials,building materials,Kec. Siau Tim. Sel.,"Kabupaten Siau Tagulandang Biaro, Sulawesi Utara","Kabupaten Siau Tagulandang Biaro, Sulawesi Utara",SULAWESI UTARA,,Indonesia,,,,2.6918038,125.3938686,https://maps.google.com/?cid=0x0:0xf6238bdf3570e28,
building materials,Otoritas Pelabuhan,Terminal Bangunan Tagulandang,"Jln No.Pasar 66, Balehumara, Kec. Tagulandang, Kabupaten Siau Tagulandang Biaro, Sulawesi Utara 95863","Balehumara, Kec. Tagulandang, Kabupaten Siau Tagulandang Biaro",SULAWESI UTARA,95863.0,Indonesia,85214113706.0,,,2.3447097,125.3792646,https://maps.google.com/?cid=0x0:0xc9cb4f3d928fe374,
building materials,building materials,Toko Mitra Bangunan,"PCH5+J3W, Akesimbeka, Kec. Siau Tim., Kabupaten Siau Tagulandang Biaro, Sulawesi Utara 95861","Akesimbeka, Kec. Siau Tim., Kabupaten Siau Tagulandang Biaro",SULAWESI UTARA,95861.0,Indonesia,,,,2.7291213,125.4076994,https://maps.google.com/?cid=0x0:0xc046be031948b9,
building materials,Otoritas Pelabuhan,Terminal Bangunan Tagulandang,"Jln No.Pasar 66, Balehumara, Kec. Tagulandang, Kabupaten Siau Tagulandang Biaro, Sulawesi Utara 95863","Balehumara, Kec. Tagulandang, Kabupaten Siau Tagulandang Biaro",SULAWESI UTARA,95863.0,Indonesia,85214113706.0,,,2.3447097,125.3792646,https://maps.google.com/?cid=0x0:0xc9cb4f3d928fe374,
building materials,Otoritas Pelabuhan,Tagulandang Port,"89RJ+3GR, Bahoi, Kec. Tagulandang, Kabupaten Siau Tagulandang Biaro, Sulawesi Utara","Kabupaten Siau Tagulandang Biaro, Sulawesi Utara",SULAWESI UTARA,,Indonesia,,,,2.3402339,125.3812535,https://maps.google.com/?cid=0x0:0x227c987a27c20373,
building materials,Otoritas Pelabuhan,Terminal Bangunan Tagulandang,"Jln No.Pasar 66, Balehumara, Kec. Tagulandang, Kabupaten Siau Tagulandang Biaro, Sulawesi Utara 95863","Balehumara, Kec. Tagulandang, Kabupaten Siau Tagulandang Biaro",SULAWESI UTARA,95863.0,Indonesia,85214113706.0,,,2.3447097,125.3792646,https://maps.google.com/?cid=0x0:0xc9cb4f3d928fe374,
building materials,Otoritas Pelabuhan,Tagulandang Port,"89RJ+3GR, Bahoi, Kec. Tagulandang, Kabupaten Siau Tagulandang Biaro, Sulawesi Utara","Kabupaten Siau Tagulandang Biaro, Sulawesi Utara",SULAWESI UTARA,,Indonesia,,,,2.3402339,125.3812535,https://maps.google.com/?cid=0x0:0x227c987a27c20373,
building materials,Otoritas Pelabuhan,Terminal Bangunan Tagulandang,"Jln No.Pasar 66, Balehumara, Kec. Tagulandang, Kabupaten Siau Tagulandang Biaro, Sulawesi Utara 95863","Balehumara, Kec. Tagulandang, Kabupaten Siau Tagulandang Biaro",SULAWESI UTARA,95863.0,Indonesia,85214113706.0,,,2.3447097,125.3792646,https://maps.google.com/?cid=0x0:0xc9cb4f3d928fe374,
building materials,Otoritas Pelabuhan,Tagulandang Port,"89RJ+3GR, Bahoi, Kec. Tagulandang, Kabupaten Siau Tagulandang Biaro, Sulawesi Utara","Kabupaten Siau Tagulandang Biaro, Sulawesi Utara",SULAWESI UTARA,,Indonesia,,,,2.3402339,125.3812535,https://maps.google.com/?cid=0x0:0x227c987a27c20373,
toko bangunan,toko bangunan,Kec. Biaro,"Kabupaten Siau Tagulandang Biaro, Sulawesi Utara","Kabupaten Siau Tagulandang Biaro, Sulawesi Utara",SULAWESI UTARA,,Indonesia,,,,2.1188553,125.3626891,https://maps.google.com/?cid=0x0:0x4030bfbcaf78990,
toko bangunan,Toko,Toko Bangunan Wk Siau.,"P9V6+X49, Bar.,, Kanawong, Siau Bar., Kabupaten Siau Tagulandang Biaro, Sulawesi Utara","Kabupaten Siau Tagulandang Biaro, Sulawesi Utara",SULAWESI UTARA,,Indonesia,82189678934.0,,,2.7449173,125.3603575,https://maps.google.com/?cid=0x0:0x17a1d06475bcbc80,
toko bangunan,Pusat Perbelanjaan,Toko Bangunan 'Berkat Usaha' Ci Len/Ko Djemi,"PCJ5+384 Tim, Tarorane, Kec. Siau Tim., Kabupaten Siau Tagulandang Biaro, Sulawesi Utara 95861","Tarorane, Kec. Siau Tim., Kabupaten Siau Tagulandang Biaro",SULAWESI UTARA,95861.0,Indonesia,81340617322.0,,,2.7301279,125.4083233,https://maps.google.com/?cid=0x0:0x7c2df2ef3ebada34,
toko bangunan,Toko Bahan Bangunan,Toko Bangunan HARAPAN BERKAT Jl. Lenkeng C no 15 GPI,"Perum GPI, Jl. Lengkeng C No.15, Kima Atas, Kec. Mapanget, Kota Manado, Sulawesi Utara","Kota Manado, Sulawesi Utara",SULAWESI UTARA,,Indonesia,81355863161.0,,,1.5468356,124.8976381,https://maps.google.com/?cid=0x0:0xdea2f61d23f1497a,
toko bangunan,Toko Bahan Bangunan,MANDARIN BANGUNAN,"Pasar ampera ulu siau, Tarorane, Kec. Siau Tim., Kabupaten Siau Tagulandang Biaro, Sulawesi Utara","Kabupaten Siau Tagulandang Biaro, Sulawesi Utara",SULAWESI UTARA,,Indonesia,,,,2.7315143,125.4073891,https://maps.google.com/?cid=0x0:0xe9fd03f6966fbbd9,
toko bangunan,Toko Bahan Bangunan,BERDIKARI Toko Bangunan dan Batako,"HVGC+WQ9, Wori, Kabupaten Minahasa Utara, Sulawesi Utara","Kabupaten Minahasa Utara, Sulawesi Utara",SULAWESI UTARA,,Indonesia,,,,1.5772974,124.8719727,https://maps.google.com/?cid=0x0:0x1055786722e03420,
toko bangunan,Otoritas Pelabuhan,Terminal Bangunan Tagulandang,"Jln No.Pasar 66, Balehumara, Kec. Tagulandang, Kabupaten Siau Tagulandang Biaro, Sulawesi Utara 95863","Balehumara, Kec. Tagulandang, Kabupaten Siau Tagulandang Biaro",SULAWESI UTARA,95863.0,Indonesia,85214113706.0,,,2.3447097,125.3792646,https://maps.google.com/?cid=0x0:0xc9cb4f3d928fe374,
toko bangunan,Toko Bahan Bangunan,Toko Biaro Bangunan,"Jl. Raya Bukittinggi - Payakumbuh No.19, Biaro Gadang, Kec. Ampek Angkek, Kabupaten Agam, Sumatera Barat 26152","Biaro Gadang, Kec. Ampek Angkek, Kabupaten Agam",SULAWESI UTARA,26152.0,Indonesia,81268359877.0,,,-0.2887604,100.4309211,https://maps.google.com/?cid=0x0:0x8b9f12c6ae435d55,
toko bangunan,toko bangunan,Siau Bar.,"Kabupaten Siau Tagulandang Biaro, Sulawesi Utara","Kabupaten Siau Tagulandang Biaro, Sulawesi Utara",SULAWESI UTARA,,Indonesia,,,,2.711198,125.3740526,https://maps.google.com/?cid=0x0:0xac02e56a08821622,
toko bangunan,Toko,Toko Bangunan Wk Siau.,"P9V6+X49, Bar.,, Kanawong, Siau Bar., Kabupaten Siau Tagulandang Biaro, Sulawesi Utara","Kabupaten Siau Tagulandang Biaro, Sulawesi Utara",SULAWESI UTARA,,Indonesia,82189678934.0,,,2.7449173,125.3603575,https://maps.google.com/?cid=0x0:0x17a1d06475bcbc80,
toko bangunan,Pusat Perbelanjaan,Toko Bangunan 'Berkat Usaha' Ci Len/Ko Djemi,"PCJ5+384 Tim, Tarorane, Kec. Siau Tim., Kabupaten Siau Tagulandang Biaro, Sulawesi Utara 95861","Tarorane, Kec. Siau Tim., Kabupaten Siau Tagulandang Biaro",SULAWESI UTARA,95861.0,Indonesia,81340617322.0,,,2.7301279,125.4083233,https://maps.google.com/?cid=0x0:0x7c2df2ef3ebada34,
toko bangunan,Toko Bahan Bangunan,MANDARIN BANGUNAN,"Pasar ampera ulu siau, Tarorane, Kec. Siau Tim., Kabupaten Siau Tagulandang Biaro, Sulawesi Utara","Kabupaten Siau Tagulandang Biaro, Sulawesi Utara",SULAWESI UTARA,,Indonesia,,,,2.7315143,125.4073891,https://maps.google.com/?cid=0x0:0xe9fd03f6966fbbd9,
toko bangunan,toko bangunan,Kec. Siau Bar. Sel.,"Kabupaten Siau Tagulandang Biaro, Sulawesi Utara","Kabupaten Siau Tagulandang Biaro, Sulawesi Utara",SULAWESI UTARA,,Indonesia,,,,2.651579,125.3799805,https://maps.google.com/?cid=0x0:0x1e513a8f3f02fcd1,
toko bangunan,Toko,Toko Bangunan Wk Siau.,"P9V6+X49, Bar.,, Kanawong, Siau Bar., Kabupaten Siau Tagulandang Biaro, Sulawesi Utara","Kabupaten Siau Tagulandang Biaro, Sulawesi Utara",SULAWESI UTARA,,Indonesia,82189678934.0,,,2.7449173,125.3603575,https://maps.google.com/?cid=0x0:0x17a1d06475bcbc80,
toko bangunan,Toko Bahan Bangunan,MANDARIN BANGUNAN,"Pasar ampera ulu siau, Tarorane, Kec. Siau Tim., Kabupaten Siau Tagulandang Biaro, Sulawesi Utara","Kabupaten Siau Tagulandang Biaro, Sulawesi Utara",SULAWESI UTARA,,Indonesia,,,,2.7315143,125.4073891,https://maps.google.com/?cid=0x0:0xe9fd03f6966fbbd9,
toko bangunan,toko bangunan,Kec. Siau Bar. Utara,"Kabupaten Siau Tagulandang Biaro, Sulawesi Utara","Kabupaten Siau Tagulandang Biaro, Sulawesi Utara",SULAWESI UTARA,,Indonesia,,,,2.7946041,125.3748009,https://maps.google.com/?cid=0x0:0xdc5dff2e803e091d,
toko bangunan,Pusat Perbelanjaan,Toko Bangunan 'Berkat Usaha' Ci Len/Ko Djemi,"PCJ5+384 Tim, Tarorane, Kec. Siau Tim., Kabupaten Siau Tagulandang Biaro, Sulawesi Utara 95861","Tarorane, Kec. Siau Tim., Kabupaten Siau Tagulandang Biaro",SULAWESI UTARA,95861.0,Indonesia,81340617322.0,,,2.7301279,125.4083233,https://maps.google.com/?cid=0x0:0x7c2df2ef3ebada34,
toko bangunan,Toko,Toko Bangunan Wk Siau.,"P9V6+X49, Bar.,, Kanawong, Siau Bar., Kabupaten Siau Tagulandang Biaro, Sulawesi Utara","Kabupaten Siau Tagulandang Biaro, Sulawesi Utara",SULAWESI UTARA,,Indonesia,82189678934.0,,,2.7449173,125.3603575,https://maps.google.com/?cid=0x0:0x17a1d06475bcbc80,
toko bangunan,Toko Bahan Bangunan,MANDARIN BANGUNAN,"Pasar ampera ulu siau, Tarorane, Kec. Siau Tim., Kabupaten Siau Tagulandang Biaro, Sulawesi Utara","Kabupaten Siau Tagulandang Biaro, Sulawesi Utara",SULAWESI UTARA,,Indonesia,,,,2.7315143,125.4073891,https://maps.google.com/?cid=0x0:0xe9fd03f6966fbbd9,
toko bangunan,Toko umum,toko berdikari lina,"PCM8+722, Tatahadeng, Kec. Siau Tim., Kabupaten Siau Tagulandang Biaro, Sulawesi Utara 95861","Tatahadeng, Kec. Siau Tim., Kabupaten Siau Tagulandang Biaro",SULAWESI UTARA,95861.0,Indonesia,,,,2.733324,125.414903,https://maps.google.com/?cid=0x0:0x8ea24606412469c3,
toko bangunan,toko bangunan,Kec. Siau Tengah,"Kabupaten Siau Tagulandang Biaro, Sulawesi Utara","Kabupaten Siau Tagulandang Biaro, Sulawesi Utara",SULAWESI UTARA,,Indonesia,,,,2.7403638,125.378898,https://maps.google.com/?cid=0x0:0xcf7998cd0113e8b5,
toko bangunan,Pusat Perbelanjaan,Toko Bangunan 'Berkat Usaha' Ci Len/Ko Djemi,"PCJ5+384 Tim, Tarorane, Kec. Siau Tim., Kabupaten Siau Tagulandang Biaro, Sulawesi Utara 95861","Tarorane, Kec. Siau Tim., Kabupaten Siau Tagulandang Biaro",SULAWESI UTARA,95861.0,Indonesia,81340617322.0,,,2.7301279,125.4083233,https://maps.google.com/?cid=0x0:0x7c2df2ef3ebada34,
toko bangunan,Toko,Toko Bangunan Wk Siau.,"P9V6+X49, Bar.,, Kanawong, Siau Bar., Kabupaten Siau Tagulandang Biaro, Sulawesi Utara","Kabupaten Siau Tagulandang Biaro, Sulawesi Utara",SULAWESI UTARA,,Indonesia,82189678934.0,,,2.7449173,125.3603575,https://maps.google.com/?cid=0x0:0x17a1d06475bcbc80,
toko bangunan,toko bangunan,Sulawesi Utara 95861,"Kec. Siau Tim., Kabupaten Siau Tagulandang Biaro, Sulawesi Utara","Kabupaten Siau Tagulandang Biaro, Sulawesi Utara",SULAWESI UTARA,,Indonesia,,,,2.7629842,125.4233987,https://maps.google.com/?cid=0x0:0x412fe64cf4eae893,
toko bangunan,Pusat Perbelanjaan,Toko Bangunan 'Berkat Usaha' Ci Len/Ko Djemi,"PCJ5+384 Tim, Tarorane, Kec. Siau Tim., Kabupaten Siau Tagulandang Biaro, Sulawesi Utara 95861","Tarorane, Kec. Siau Tim., Kabupaten Siau Tagulandang Biaro",SULAWESI UTARA,95861.0,Indonesia,81340617322.0,,,2.7301279,125.4083233,https://maps.google.com/?cid=0x0:0x7c2df2ef3ebada34,
toko bangunan,Toko umum,toko berdikari lina,"PCM8+722, Tatahadeng, Kec. Siau Tim., Kabupaten Siau Tagulandang Biaro, Sulawesi Utara 95861","Tatahadeng, Kec. Siau Tim., Kabupaten Siau Tagulandang Biaro",SULAWESI UTARA,95861.0,Indonesia,,,,2.733324,125.414903,https://maps.google.com/?cid=0x0:0x8ea24606412469c3,
toko bangunan,Toko Perlengkapan Rumah,Toko Sinar Jaya Siau,"Jl. Dalanisang 1, Kecamatan Timur, SITARO, Tatahadeng, Kec. Siau Tim., Kabupaten Siau Tagulandang Biaro, Sulawesi Utara 95861","Kecamatan Timur, SITARO, Tatahadeng, Kec. Siau Tim., Kabupaten Siau Tagulandang Biaro",SULAWESI UTARA,95861.0,Indonesia,432310238.0,,,2.7327019,125.4128735,https://maps.google.com/?cid=0x0:0x5650bf41eece2175,
toko bangunan,Toko Bahan Bangunan,MANDARIN BANGUNAN,"Pasar ampera ulu siau, Tarorane, Kec. Siau Tim., Kabupaten Siau Tagulandang Biaro, Sulawesi Utara","Kabupaten Siau Tagulandang Biaro, Sulawesi Utara",SULAWESI UTARA,,Indonesia,,,,2.7315143,125.4073891,https://maps.google.com/?cid=0x0:0xe9fd03f6966fbbd9,
toko bangunan,toko bangunan,Toko Mitra Bangunan,"PCH5+J3W, Akesimbeka, Kec. Siau Tim., Kabupaten Siau Tagulandang Biaro, Sulawesi Utara 95861","Akesimbeka, Kec. Siau Tim., Kabupaten Siau Tagulandang Biaro",SULAWESI UTARA,95861.0,Indonesia,,,,2.7291213,125.4076994,https://maps.google.com/?cid=0x0:0xc046be031948b9,
toko bangunan,toko bangunan,Sulawesi Utara 95861,"Kec. Siau Tim., Kabupaten Siau Tagulandang Biaro, Sulawesi Utara","Kabupaten Siau Tagulandang Biaro, Sulawesi Utara",SULAWESI UTARA,,Indonesia,,,,2.7629842,125.4233987,https://maps.google.com/?cid=0x0:0x412fe64cf4eae893,
toko bangunan,Pusat Perbelanjaan,Toko Bangunan 'Berkat Usaha' Ci Len/Ko Djemi,"PCJ5+384 Tim, Tarorane, Kec. Siau Tim., Kabupaten Siau Tagulandang Biaro, Sulawesi Utara 95861","Tarorane, Kec. Siau Tim., Kabupaten Siau Tagulandang Biaro",SULAWESI UTARA,95861.0,Indonesia,81340617322.0,,,2.7301279,125.4083233,https://maps.google.com/?cid=0x0:0x7c2df2ef3ebada34,
toko bangunan,Toko umum,toko berdikari lina,"PCM8+722, Tatahadeng, Kec. Siau Tim., Kabupaten Siau Tagulandang Biaro, Sulawesi Utara 95861","Tatahadeng, Kec. Siau Tim., Kabupaten Siau Tagulandang Biaro",SULAWESI UTARA,95861.0,Indonesia,,,,2.733324,125.414903,https://maps.google.com/?cid=0x0:0x8ea24606412469c3,
toko bangunan,Toko Bahan Bangunan,MANDARIN BANGUNAN,"Pasar ampera ulu siau, Tarorane, Kec. Siau Tim., Kabupaten Siau Tagulandang Biaro, Sulawesi Utara","Kabupaten Siau Tagulandang Biaro, Sulawesi Utara",SULAWESI UTARA,,Indonesia,,,,2.7315143,125.4073891,https://maps.google.com/?cid=0x0:0xe9fd03f6966fbbd9,
toko bangunan,Toko Perlengkapan Rumah,Toko Sinar Jaya Siau,"Jl. Dalanisang 1, Kecamatan Timur, SITARO, Tatahadeng, Kec. Siau Tim., Kabupaten Siau Tagulandang Biaro, Sulawesi Utara 95861","Kecamatan Timur, SITARO, Tatahadeng, Kec. Siau Tim., Kabupaten Siau Tagulandang Biaro",SULAWESI UTARA,95861.0,Indonesia,432310238.0,,,2.7327019,125.4128735,https://maps.google.com/?cid=0x0:0x5650bf41eece2175,
toko bangunan,Otoritas Pelabuhan,Terminal Bangunan Tagulandang,"Jln No.Pasar 66, Balehumara, Kec. Tagulandang, Kabupaten Siau Tagulandang Biaro, Sulawesi Utara 95863","Balehumara, Kec. Tagulandang, Kabupaten Siau Tagulandang Biaro",SULAWESI UTARA,95863.0,Indonesia,85214113706.0,,,2.3447097,125.3792646,https://maps.google.com/?cid=0x0:0xc9cb4f3d928fe374,
toko bangunan,Otoritas Pelabuhan,Tagulandang Port,"89RJ+3GR, Bahoi, Kec. Tagulandang, Kabupaten Siau Tagulandang Biaro, Sulawesi Utara","Kabupaten Siau Tagulandang Biaro, Sulawesi Utara",SULAWESI UTARA,,Indonesia,,,,2.3402339,125.3812535,https://maps.google.com/?cid=0x0:0x227c987a27c20373,
toko bangunan,Otoritas Pelabuhan,Terminal Bangunan Tagulandang,"Jln No.Pasar 66, Balehumara, Kec. Tagulandang, Kabupaten Siau Tagulandang Biaro, Sulawesi Utara 95863","Balehumara, Kec. Tagulandang, Kabupaten Siau Tagulandang Biaro",SULAWESI UTARA,95863.0,Indonesia,85214113706.0,,,2.3447097,125.3792646,https://maps.google.com/?cid=0x0:0xc9cb4f3d928fe374,
toko bangunan,Otoritas Pelabuhan,Tagulandang Port,"89RJ+3GR, Bahoi, Kec. Tagulandang, Kabupaten Siau Tagulandang Biaro, Sulawesi Utara","Kabupaten Siau Tagulandang Biaro, Sulawesi Utara",SULAWESI UTARA,,Indonesia,,,,2.3402339,125.3812535,https://maps.google.com/?cid=0x0:0x227c987a27c20373,
toko bangunan,toko bangunan,Sulawesi Utara,,Sulawesi Utara,SULAWESI UTARA,,Indonesia,,,,0.6246932,123.9750018,https://maps.google.com/?cid=0x0:0x45891617980cb835,
toko bangunan,Toko,Toko Bangunan Wk Siau.,"P9V6+X49, Bar.,, Kanawong, Siau Bar., Kabupaten Siau Tagulandang Biaro, Sulawesi Utara","Kabupaten Siau Tagulandang Biaro, Sulawesi Utara",SULAWESI UTARA,,Indonesia,82189678934.0,,,2.7449173,125.3603575,https://maps.google.com/?cid=0x0:0x17a1d06475bcbc80,
toko bangunan,Toko umum,toko berdikari lina,"PCM8+722, Tatahadeng, Kec. Siau Tim., Kabupaten Siau Tagulandang Biaro, Sulawesi Utara 95861","Tatahadeng, Kec. Siau Tim., Kabupaten Siau Tagulandang Biaro",SULAWESI UTARA,95861.0,Indonesia,,,,2.733324,125.414903,https://maps.google.com/?cid=0x0:0x8ea24606412469c3,
toko bangunan,Toko Bahan Bangunan,MANDARIN BANGUNAN,"Pasar ampera ulu siau, Tarorane, Kec. Siau Tim., Kabupaten Siau Tagulandang Biaro, Sulawesi Utara","Kabupaten Siau Tagulandang Biaro, Sulawesi Utara",SULAWESI UTARA,,Indonesia,,,,2.7315143,125.4073891,https://maps.google.com/?cid=0x0:0xe9fd03f6966fbbd9,
toko bangunan,Otoritas Pelabuhan,Terminal Bangunan Tagulandang,"Jln No.Pasar 66, Balehumara, Kec. Tagulandang, Kabupaten Siau Tagulandang Biaro, Sulawesi Utara 95863","Balehumara, Kec. Tagulandang, Kabupaten Siau Tagulandang Biaro",SULAWESI UTARA,95863.0,Indonesia,85214113706.0,,,2.3447097,125.3792646,https://maps.google.com/?cid=0x0:0xc9cb4f3d928fe374,
toko bangunan,Otoritas Pelabuhan,Tagulandang Port,"89RJ+3GR, Bahoi, Kec. Tagulandang, Kabupaten Siau Tagulandang Biaro, Sulawesi Utara","Kabupaten Siau Tagulandang Biaro, Sulawesi Utara",SULAWESI UTARA,,Indonesia,,,,2.3402339,125.3812535,https://maps.google.com/?cid=0x0:0x227c987a27c20373,
hardware store,hardware store,Kec. Biaro,"Kabupaten Siau Tagulandang Biaro, Sulawesi Utara","Kabupaten Siau Tagulandang Biaro, Sulawesi Utara",SULAWESI UTARA,,Indonesia,,,,2.1188553,125.3626891,https://maps.google.com/?cid=0x0:0x4030bfbcaf78990,
hardware store,Toko Perlengkapan Rumah,Grand Hardware,"Komplek Marina Plaza Blok B No. 7-10, Jl. Piere Tendean Boulevard,manado, Manado, Sulawesi Utara, 95111","Jl. Piere Tendean Boulevard,manado, Manado",SULAWESI UTARA,95111.0,Indonesia,85255443510.0,,,1.4924543,124.838346,https://maps.google.com/?cid=0x0:0x513c63d19209ca5,
hardware store,Toko Bahan Bangunan,Grand Hardware,"C4PC+9FV, Jl. Raya Manado - Bitung, Girian Weru Dua, Kec. Girian, Kota Bitung, Sulawesi Utara 95864","Jl. Raya Manado - Bitung, Girian Weru Dua, Kec. Girian, Kota Bitung",SULAWESI UTARA,95864.0,Indonesia,,,,1.4359832,125.121166,https://maps.google.com/?cid=0x0:0x19a823dd6e850cfd,
hardware store,Toko,East Sac Ace Hardware,"5030 Folsom Blvd, Sacramento, CA 95819, Amerika Serikat","Sacramento, CA",SULAWESI UTARA,95819.0,Indonesia,19165180606.0,,,38.5602379,-121.44437,https://maps.google.com/?cid=0x0:0x581e3e23d64ec81c,
hardware store,Toko Bahan Bangunan,Emigh Ace Hardware,"3555 El Camino Ave, Sacramento, CA 95821, Amerika Serikat","Sacramento, CA",SULAWESI UTARA,95821.0,Indonesia,19164821900.0,,,38.6110153,-121.3801574,https://maps.google.com/?cid=0x0:0xc6569020abcd4204,
hardware store,Perhentian bus,Watt  El Camino Center,"Watt Ave , El Camino Ave, Arden-Arcade, CA, Amerika Serikat","Arden-Arcade, CA, Amerika Serikat",SULAWESI UTARA,,Indonesia,,,,38.6116803,-121.3824396,https://maps.google.com/?cid=0x0:0x515d991e161360a2,
hardware store,hardware store,Siau Bar.,"Kabupaten Siau Tagulandang Biaro, Sulawesi Utara","Kabupaten Siau Tagulandang Biaro, Sulawesi Utara",SULAWESI UTARA,,Indonesia,,,,2.711198,125.3740526,https://maps.google.com/?cid=0x0:0xac02e56a08821622,
hardware store,Toko Bahan Bangunan,MANDARIN BANGUNAN,"Pasar ampera ulu siau, Tarorane, Kec. Siau Tim., Kabupaten Siau Tagulandang Biaro, Sulawesi Utara","Kabupaten Siau Tagulandang Biaro, Sulawesi Utara",SULAWESI UTARA,,Indonesia,,,,2.7315143,125.4073891,https://maps.google.com/?cid=0x0:0xe9fd03f6966fbbd9,
hardware store,Toko Pakaian,Door to door Siau,"Jln. Lokongbanua Kelurahan Akesimbeka RT 01 RW IV, Kecamatan Siau Timur, Tarorane, Siau Timur, Tarorane, Kec. Siau Tim., Kabupaten Siau Tagulandang Biaro, Sulawesi Utara 95861","Kecamatan Siau Timur, Tarorane, Siau Timur, Tarorane, Kec. Siau Tim., Kabupaten Siau Tagulandang Biaro",SULAWESI UTARA,95861.0,Indonesia,82293110414.0,,,2.729924,125.407554,https://maps.google.com/?cid=0x0:0xe9d1ae584e5e1a8a,
hardware store,Toko,Toko Bangunan Wk Siau.,"P9V6+X49, Bar.,, Kanawong, Siau Bar., Kabupaten Siau Tagulandang Biaro, Sulawesi Utara","Kabupaten Siau Tagulandang Biaro, Sulawesi Utara",SULAWESI UTARA,,Indonesia,82189678934.0,,,2.7449173,125.3603575,https://maps.google.com/?cid=0x0:0x17a1d06475bcbc80,
hardware store,Toko,Toko GRAND HARDWARE,"CXJH+22P, Sarongsong I, Kec. Airmadidi, Kabupaten Minahasa Utara, Sulawesi Utara","Kabupaten Minahasa Utara, Sulawesi Utara",SULAWESI UTARA,,Indonesia,,,,1.4300932,124.9775741,https://maps.google.com/?cid=0x0:0xd5bea6e4e94329b1,
hardware store,Toko Swalayan,Toko Grand,"CXFH+RV4, Pasar, Airmadidi Atas, Kec. Airmadidi, Manado, Sulawesi Utara 95371","Pasar, Airmadidi Atas, Kec. Airmadidi, Manado",SULAWESI UTARA,95371.0,Indonesia,81617151289.0,,,1.4245104,124.9797052,https://maps.google.com/?cid=0x0:0x817a9599f52c4d18,
hardware store,hardware store,Kec. Siau Bar. Sel.,"Kabupaten Siau Tagulandang Biaro, Sulawesi Utara","Kabupaten Siau Tagulandang Biaro, Sulawesi Utara",SULAWESI UTARA,,Indonesia,,,,2.651579,125.3799805,https://maps.google.com/?cid=0x0:0x1e513a8f3f02fcd1,
hardware store,hardware store,Kec. Siau Bar. Utara,"Kabupaten Siau Tagulandang Biaro, Sulawesi Utara","Kabupaten Siau Tagulandang Biaro, Sulawesi Utara",SULAWESI UTARA,,Indonesia,,,,2.7946041,125.3748009,https://maps.google.com/?cid=0x0:0xdc5dff2e803e091d,
hardware store,hardware store,Toko Mitra Bangunan,"PCH5+J3W, Akesimbeka, Kec. Siau Tim., Kabupaten Siau Tagulandang Biaro, Sulawesi Utara 95861","Akesimbeka, Kec. Siau Tim., Kabupaten Siau Tagulandang Biaro",SULAWESI UTARA,95861.0,Indonesia,,,,2.7291213,125.4076994,https://maps.google.com/?cid=0x0:0xc046be031948b9,
hardware store,Toko Pakaian,Door to door Siau,"Jln. Lokongbanua Kelurahan Akesimbeka RT 01 RW IV, Kecamatan Siau Timur, Tarorane, Siau Timur, Tarorane, Kec. Siau Tim., Kabupaten Siau Tagulandang Biaro, Sulawesi Utara 95861","Kecamatan Siau Timur, Tarorane, Siau Timur, Tarorane, Kec. Siau Tim., Kabupaten Siau Tagulandang Biaro",SULAWESI UTARA,95861.0,Indonesia,82293110414.0,,,2.729924,125.407554,https://maps.google.com/?cid=0x0:0xe9d1ae584e5e1a8a,
hardware store,Toko Swalayan,Toko Grand,"CXFH+RV4, Pasar, Airmadidi Atas, Kec. Airmadidi, Manado, Sulawesi Utara 95371","Pasar, Airmadidi Atas, Kec. Airmadidi, Manado",SULAWESI UTARA,95371.0,Indonesia,81617151289.0,,,1.4245104,124.9797052,https://maps.google.com/?cid=0x0:0x817a9599f52c4d18,
hardware store,hardware store,Kec. Siau Tengah,"Kabupaten Siau Tagulandang Biaro, Sulawesi Utara","Kabupaten Siau Tagulandang Biaro, Sulawesi Utara",SULAWESI UTARA,,Indonesia,,,,2.7403638,125.378898,https://maps.google.com/?cid=0x0:0xcf7998cd0113e8b5,
hardware store,Toko Bahan Bangunan,MANDARIN BANGUNAN,"Pasar ampera ulu siau, Tarorane, Kec. Siau Tim., Kabupaten Siau Tagulandang Biaro, Sulawesi Utara","Kabupaten Siau Tagulandang Biaro, Sulawesi Utara",SULAWESI UTARA,,Indonesia,,,,2.7315143,125.4073891,https://maps.google.com/?cid=0x0:0xe9fd03f6966fbbd9,
hardware store,Toko Pakaian,Door to door Siau,"Jln. Lokongbanua Kelurahan Akesimbeka RT 01 RW IV, Kecamatan Siau Timur, Tarorane, Siau Timur, Tarorane, Kec. Siau Tim., Kabupaten Siau Tagulandang Biaro, Sulawesi Utara 95861","Kecamatan Siau Timur, Tarorane, Siau Timur, Tarorane, Kec. Siau Tim., Kabupaten Siau Tagulandang Biaro",SULAWESI UTARA,95861.0,Indonesia,82293110414.0,,,2.729924,125.407554,https://maps.google.com/?cid=0x0:0xe9d1ae584e5e1a8a,
hardware store,Toko Perlengkapan Rumah,Grand Hardware,"Komplek Marina Plaza Blok B No. 7-10, Jl. Piere Tendean Boulevard,manado, Manado, Sulawesi Utara, 95111","Jl. Piere Tendean Boulevard,manado, Manado",SULAWESI UTARA,95111.0,Indonesia,85255443510.0,,,1.4924543,124.838346,https://maps.google.com/?cid=0x0:0x513c63d19209ca5,
hardware store,Toko umum,toko berdikari lina,"PCM8+722, Tatahadeng, Kec. Siau Tim., Kabupaten Siau Tagulandang Biaro, Sulawesi Utara 95861","Tatahadeng, Kec. Siau Tim., Kabupaten Siau Tagulandang Biaro",SULAWESI UTARA,95861.0,Indonesia,,,,2.733324,125.414903,https://maps.google.com/?cid=0x0:0x8ea24606412469c3,
hardware store,hardware store,Sulawesi Utara 95861,"Kec. Siau Tim., Kabupaten Siau Tagulandang Biaro, Sulawesi Utara","Kabupaten Siau Tagulandang Biaro, Sulawesi Utara",SULAWESI UTARA,,Indonesia,,,,2.7629842,125.4233987,https://maps.google.com/?cid=0x0:0x412fe64cf4eae893,
hardware store,Toko Bahan Bangunan,MANDARIN BANGUNAN,"Pasar ampera ulu siau, Tarorane, Kec. Siau Tim., Kabupaten Siau Tagulandang Biaro, Sulawesi Utara","Kabupaten Siau Tagulandang Biaro, Sulawesi Utara",SULAWESI UTARA,,Indonesia,,,,2.7315143,125.4073891,https://maps.google.com/?cid=0x0:0xe9fd03f6966fbbd9,
hardware store,Toko Pakaian,Door to door Siau,"Jln. Lokongbanua Kelurahan Akesimbeka RT 01 RW IV, Kecamatan Siau Timur, Tarorane, Siau Timur, Tarorane, Kec. Siau Tim., Kabupaten Siau Tagulandang Biaro, Sulawesi Utara 95861","Kecamatan Siau Timur, Tarorane, Siau Timur, Tarorane, Kec. Siau Tim., Kabupaten Siau Tagulandang Biaro",SULAWESI UTARA,95861.0,Indonesia,82293110414.0,,,2.729924,125.407554,https://maps.google.com/?cid=0x0:0xe9d1ae584e5e1a8a,
hardware store,Toko umum,toko berdikari lina,"PCM8+722, Tatahadeng, Kec. Siau Tim., Kabupaten Siau Tagulandang Biaro, Sulawesi Utara 95861","Tatahadeng, Kec. Siau Tim., Kabupaten Siau Tagulandang Biaro",SULAWESI UTARA,95861.0,Indonesia,,,,2.733324,125.414903,https://maps.google.com/?cid=0x0:0x8ea24606412469c3,
hardware store,hardware store,Sulawesi Utara 95861,"Kec. Siau Tim., Kabupaten Siau Tagulandang Biaro, Sulawesi Utara","Kabupaten Siau Tagulandang Biaro, Sulawesi Utara",SULAWESI UTARA,,Indonesia,,,,2.7629842,125.4233987,https://maps.google.com/?cid=0x0:0x412fe64cf4eae893,
hardware store,Toko,Toko GRAND HARDWARE,"CXJH+22P, Sarongsong I, Kec. Airmadidi, Kabupaten Minahasa Utara, Sulawesi Utara","Kabupaten Minahasa Utara, Sulawesi Utara",SULAWESI UTARA,,Indonesia,,,,1.4300932,124.9775741,https://maps.google.com/?cid=0x0:0xd5bea6e4e94329b1,
hardware store,Toko Bahan Bangunan,MANDARIN BANGUNAN,"Pasar ampera ulu siau, Tarorane, Kec. Siau Tim., Kabupaten Siau Tagulandang Biaro, Sulawesi Utara","Kabupaten Siau Tagulandang Biaro, Sulawesi Utara",SULAWESI UTARA,,Indonesia,,,,2.7315143,125.4073891,https://maps.google.com/?cid=0x0:0xe9fd03f6966fbbd9,
hardware store,hardware store,Kec. Siau Tim. Sel.,"Kabupaten Siau Tagulandang Biaro, Sulawesi Utara","Kabupaten Siau Tagulandang Biaro, Sulawesi Utara",SULAWESI UTARA,,Indonesia,,,,2.6918038,125.3938686,https://maps.google.com/?cid=0x0:0xf6238bdf3570e28,
hardware store,Otoritas Pelabuhan,Terminal Bangunan Tagulandang,"Jln No.Pasar 66, Balehumara, Kec. Tagulandang, Kabupaten Siau Tagulandang Biaro, Sulawesi Utara 95863","Balehumara, Kec. Tagulandang, Kabupaten Siau Tagulandang Biaro",SULAWESI UTARA,95863.0,Indonesia,85214113706.0,,,2.3447097,125.3792646,https://maps.google.com/?cid=0x0:0xc9cb4f3d928fe374,
hardware store,Otoritas Pelabuhan,Tagulandang Port,"89RJ+3GR, Bahoi, Kec. Tagulandang, Kabupaten Siau Tagulandang Biaro, Sulawesi Utara","Kabupaten Siau Tagulandang Biaro, Sulawesi Utara",SULAWESI UTARA,,Indonesia,,,,2.3402339,125.3812535,https://maps.google.com/?cid=0x0:0x227c987a27c20373,
hardware store,hardware store,Kec. Tagulandang Sel.,"Kabupaten Siau Tagulandang Biaro, Sulawesi Utara","Kabupaten Siau Tagulandang Biaro, Sulawesi Utara",SULAWESI UTARA,,Indonesia,,,,2.3182823,125.4355499,https://maps.google.com/?cid=0x0:0x4ac91ac814e7666a,
hardware store,Toko,Toko GRAND HARDWARE,"CXJH+22P, Sarongsong I, Kec. Airmadidi, Kabupaten Minahasa Utara, Sulawesi Utara","Kabupaten Minahasa Utara, Sulawesi Utara",SULAWESI UTARA,,Indonesia,,,,1.4300932,124.9775741,https://maps.google.com/?cid=0x0:0xd5bea6e4e94329b1,
hardware store,Toko Perlengkapan Rumah,Grand Hardware,"Komplek Marina Plaza Blok B No. 7-10, Jl. Piere Tendean Boulevard,manado, Manado, Sulawesi Utara, 95111","Jl. Piere Tendean Boulevard,manado, Manado",SULAWESI UTARA,95111.0,Indonesia,85255443510.0,,,1.4924543,124.838346,https://maps.google.com/?cid=0x0:0x513c63d19209ca5,
hardware store,Toko Swalayan,Waroeng Kite,"89GW+HJ3, Mahangiang, Kec. Tagulandang, Kabupaten Siau Tagulandang Biaro, Sulawesi Utara","Kabupaten Siau Tagulandang Biaro, Sulawesi Utara",SULAWESI UTARA,,Indonesia,82292684925.0,,,2.3263938,125.3965472,https://maps.google.com/?cid=0x0:0xe5b309eb153e996a,
hardware store,Otoritas Pelabuhan,Terminal Bangunan Tagulandang,"Jln No.Pasar 66, Balehumara, Kec. Tagulandang, Kabupaten Siau Tagulandang Biaro, Sulawesi Utara 95863","Balehumara, Kec. Tagulandang, Kabupaten Siau Tagulandang Biaro",SULAWESI UTARA,95863.0,Indonesia,85214113706.0,,,2.3447097,125.3792646,https://maps.google.com/?cid=0x0:0xc9cb4f3d928fe374,
hardware store,Komplek perumahan,Tian  Aurel Home,"9CCV+4RR, Batumawira, Kec. Tagulandang Sel., Kabupaten Siau Tagulandang Biaro, Sulawesi Utara","Kabupaten Siau Tagulandang Biaro, Sulawesi Utara",SULAWESI UTARA,,Indonesia,,,,2.3703733,125.4445266,https://maps.google.com/?cid=0x0:0x5b1779f5ae624cd9,
hardware store,hardware store,Kec. Tagulandang Utara,"Kabupaten Siau Tagulandang Biaro, Sulawesi Utara","Kabupaten Siau Tagulandang Biaro, Sulawesi Utara",SULAWESI UTARA,,Indonesia,,,,2.3482186,125.4232499,https://maps.google.com/?cid=0x0:0x92479453b06a48b4,
hardware store,Otoritas Pelabuhan,Terminal Bangunan Tagulandang,"Jln No.Pasar 66, Balehumara, Kec. Tagulandang, Kabupaten Siau Tagulandang Biaro, Sulawesi Utara 95863","Balehumara, Kec. Tagulandang, Kabupaten Siau Tagulandang Biaro",SULAWESI UTARA,95863.0,Indonesia,85214113706.0,,,2.3447097,125.3792646,https://maps.google.com/?cid=0x0:0xc9cb4f3d928fe374,
hardware store,Toko Swalayan,Waroeng Kite,"89GW+HJ3, Mahangiang, Kec. Tagulandang, Kabupaten Siau Tagulandang Biaro, Sulawesi Utara","Kabupaten Siau Tagulandang Biaro, Sulawesi Utara",SULAWESI UTARA,,Indonesia,82292684925.0,,,2.3263938,125.3965472,https://maps.google.com/?cid=0x0:0xe5b309eb153e996a,
hardware store,Toko Perlengkapan Rumah,Grand Hardware,"Komplek Marina Plaza Blok B No. 7-10, Jl. Piere Tendean Boulevard,manado, Manado, Sulawesi Utara, 95111","Jl. Piere Tendean Boulevard,manado, Manado",SULAWESI UTARA,95111.0,Indonesia,85255443510.0,,,1.4924543,124.838346,https://maps.google.com/?cid=0x0:0x513c63d19209ca5,
hardware store,Toko Bahan Bangunan,Grand Hardware,"C4PC+9FV, Jl. Raya Manado - Bitung, Girian Weru Dua, Kec. Girian, Kota Bitung, Sulawesi Utara 95864","Jl. Raya Manado - Bitung, Girian Weru Dua, Kec. Girian, Kota Bitung",SULAWESI UTARA,95864.0,Indonesia,,,,1.4359832,125.121166,https://maps.google.com/?cid=0x0:0x19a823dd6e850cfd,
hardware store,Komplek perumahan,Tian  Aurel Home,"9CCV+4RR, Batumawira, Kec. Tagulandang Sel., Kabupaten Siau Tagulandang Biaro, Sulawesi Utara","Kabupaten Siau Tagulandang Biaro, Sulawesi Utara",SULAWESI UTARA,,Indonesia,,,,2.3703733,125.4445266,https://maps.google.com/?cid=0x0:0x5b1779f5ae624cd9,
hardware store,Otoritas Pelabuhan,Tagulandang Port,"89RJ+3GR, Bahoi, Kec. Tagulandang, Kabupaten Siau Tagulandang Biaro, Sulawesi Utara","Kabupaten Siau Tagulandang Biaro, Sulawesi Utara",SULAWESI UTARA,,Indonesia,,,,2.3402339,125.3812535,https://maps.google.com/?cid=0x0:0x227c987a27c20373,
home improvement,home improvement,Kec. Biaro,"Kabupaten Siau Tagulandang Biaro, Sulawesi Utara","Kabupaten Siau Tagulandang Biaro, Sulawesi Utara",SULAWESI UTARA,,Indonesia,,,,2.1188553,125.3626891,https://maps.google.com/?cid=0x0:0x4030bfbcaf78990,
home improvement,Komplek perumahan,Roland Home,"49G6+CJV, Unnamed Road, Lamanggo, Kec. Biaro, Kabupaten Siau Tagulandang Biaro, Sulawesi Utara","Kabupaten Siau Tagulandang Biaro, Sulawesi Utara",SULAWESI UTARA,,Indonesia,85340808006.0,,,2.1261105,125.3615398,https://maps.google.com/?cid=0x0:0x32d174ea4d8dccdf,
home improvement,Komplek perumahan,Mundiahi's,"49F6+3Q4, Lamanggo, Kec. Biaro, Kabupaten Siau Tagulandang Biaro, Sulawesi Utara","Kabupaten Siau Tagulandang Biaro, Sulawesi Utara",SULAWESI UTARA,,Indonesia,85343677889.0,,,2.1226492,125.3619585,https://maps.google.com/?cid=0x0:0xba7df77653259e9,
home improvement,home improvement,Siau Bar.,"Kabupaten Siau Tagulandang Biaro, Sulawesi Utara","Kabupaten Siau Tagulandang Biaro, Sulawesi Utara",SULAWESI UTARA,,Indonesia,,,,2.711198,125.3740526,https://maps.google.com/?cid=0x0:0xac02e56a08821622,
home improvement,Perhimpunan Pengembang Perumahan,My Home,"PCQ6+462, Tarorane, Kec. Siau Tim., Kabupaten Siau Tagulandang Biaro, Sulawesi Utara 95861","Tarorane, Kec. Siau Tim., Kabupaten Siau Tagulandang Biaro",SULAWESI UTARA,95861.0,Indonesia,,,,2.7377572,125.4105033,https://maps.google.com/?cid=0x0:0xb70877c6027d2bad,
home improvement,Bed >>u0026 Breakfast,Wil sunday home,"Sawang, Kec. Siau Tim. Sel., Kabupaten Siau Tagulandang Biaro, Sulawesi Utara 95867","Kec. Siau Tim. Sel., Kabupaten Siau Tagulandang Biaro",SULAWESI UTARA,95867.0,Indonesia,82298707387.0,,,2.6864009,125.3921342,https://maps.google.com/?cid=0x0:0xdd36d6d5f333b8de,
home improvement,Bed >>u0026 Breakfast,Eva Home,"Q979+25Q, Kinali, Kec. Siau Bar. Utara, Kabupaten Siau Tagulandang Biaro, Sulawesi Utara","Kabupaten Siau Tagulandang Biaro, Sulawesi Utara",SULAWESI UTARA,,Indonesia,,,,2.7625916,125.3679711,https://maps.google.com/?cid=0x0:0x11c46e62325a18e8,
home improvement,Penginapan,Home CintaAirin,"QC4G+MFJ, Karalung, Kec. Siau Tim., Kabupaten Siau Tagulandang Biaro, Sulawesi Utara 95861","Karalung, Kec. Siau Tim., Kabupaten Siau Tagulandang Biaro",SULAWESI UTARA,95861.0,Indonesia,,,,2.7567204,125.4261392,https://maps.google.com/?cid=0x0:0x7cce3fe12b60eb02,
home improvement,Rumah Kayu,Home SY3C,"PCJ6+W97, Tarorane, Kec. Siau Tim., Kabupaten Siau Tagulandang Biaro, Sulawesi Utara","Kabupaten Siau Tagulandang Biaro, Sulawesi Utara",SULAWESI UTARA,,Indonesia,,,,2.7322871,125.4109264,https://maps.google.com/?cid=0x0:0xb6e315a78003acdf,
home improvement,Toko Pakaian,Jefer home,"P5J9+XG, Makalehi, Kabupaten Siau Tagulandang Biaro, Sulawesi Utara","Kabupaten Siau Tagulandang Biaro, Sulawesi Utara",SULAWESI UTARA,,Indonesia,,,,2.7324375,125.1688125,https://maps.google.com/?cid=0x0:0xea2fff7b10aa86fc,
home improvement,Komplek perumahan,Home Umhy,"9C3H+VCJ, Jl. Lrng, RT.kahai RT/RW.003, Bawoleu, Kec. Tagulandang Utara, Kabupaten Siau Tagulandang Biaro, Sulawesi Utara","Kabupaten Siau Tagulandang Biaro, Sulawesi Utara",SULAWESI UTARA,,Indonesia,85223878155.0,,,2.3547168,125.4285184,https://maps.google.com/?cid=0x0:0x19ee751f5c2d4e40,
home improvement,Rumah wisata,Yunisa home,"QC4W+79, Kanang, Kec. Siau Tim., Kabupaten Siau Tagulandang Biaro, Sulawesi Utara","Kabupaten Siau Tagulandang Biaro, Sulawesi Utara",SULAWESI UTARA,,Indonesia,,,,2.7556875,125.4459375,https://maps.google.com/?cid=0x0:0x695a7a00c61c1377,
home improvement,Klub Malam,Home sangket,"M9XM+2F2, Pangirolong, Kec. Siau Tim. Sel., Kabupaten Siau Tagulandang Biaro, Sulawesi Utara 95867","Pangirolong, Kec. Siau Tim. Sel., Kabupaten Siau Tagulandang Biaro",SULAWESI UTARA,95867.0,Indonesia,,,,2.6975203,125.38365,https://maps.google.com/?cid=0x0:0xe385951aa3e3d4e3,
home improvement,Kios,Glifen Home,"P5J9+XG, Makalehi, Kabupaten Siau Tagulandang Biaro, Sulawesi Utara","Kabupaten Siau Tagulandang Biaro, Sulawesi Utara",SULAWESI UTARA,,Indonesia,,,,2.732421,125.1688004,https://maps.google.com/?cid=0x0:0x358bbb217c1ee3eb,
home improvement,Toko Pakaian,Door to door Siau,"Jln. Lokongbanua Kelurahan Akesimbeka RT 01 RW IV, Kecamatan Siau Timur, Tarorane, Siau Timur, Tarorane, Kec. Siau Tim., Kabupaten Siau Tagulandang Biaro, Sulawesi Utara 95861","Kecamatan Siau Timur, Tarorane, Siau Timur, Tarorane, Kec. Siau Tim., Kabupaten Siau Tagulandang Biaro",SULAWESI UTARA,95861.0,Indonesia,82293110414.0,,,2.729924,125.407554,https://maps.google.com/?cid=0x0:0xe9d1ae584e5e1a8a,
home improvement,home improvement,Kec. Siau Bar. Sel.,"Kabupaten Siau Tagulandang Biaro, Sulawesi Utara","Kabupaten Siau Tagulandang Biaro, Sulawesi Utara",SULAWESI UTARA,,Indonesia,,,,2.651579,125.3799805,https://maps.google.com/?cid=0x0:0x1e513a8f3f02fcd1,
home improvement,Perhimpunan Pengembang Perumahan,My Home,"PCQ6+462, Tarorane, Kec. Siau Tim., Kabupaten Siau Tagulandang Biaro, Sulawesi Utara 95861","Tarorane, Kec. Siau Tim., Kabupaten Siau Tagulandang Biaro",SULAWESI UTARA,95861.0,Indonesia,,,,2.7377572,125.4105033,https://maps.google.com/?cid=0x0:0xb70877c6027d2bad,
home improvement,Bed >>u0026 Breakfast,Wil sunday home,"Sawang, Kec. Siau Tim. Sel., Kabupaten Siau Tagulandang Biaro, Sulawesi Utara 95867","Kec. Siau Tim. Sel., Kabupaten Siau Tagulandang Biaro",SULAWESI UTARA,95867.0,Indonesia,82298707387.0,,,2.6864009,125.3921342,https://maps.google.com/?cid=0x0:0xdd36d6d5f333b8de,
home improvement,Komplek perumahan,Home Umhy,"9C3H+VCJ, Jl. Lrng, RT.kahai RT/RW.003, Bawoleu, Kec. Tagulandang Utara, Kabupaten Siau Tagulandang Biaro, Sulawesi Utara","Kabupaten Siau Tagulandang Biaro, Sulawesi Utara",SULAWESI UTARA,,Indonesia,85223878155.0,,,2.3547168,125.4285184,https://maps.google.com/?cid=0x0:0x19ee751f5c2d4e40,
home improvement,Rumah Kayu,Home SY3C,"PCJ6+W97, Tarorane, Kec. Siau Tim., Kabupaten Siau Tagulandang Biaro, Sulawesi Utara","Kabupaten Siau Tagulandang Biaro, Sulawesi Utara",SULAWESI UTARA,,Indonesia,,,,2.7322871,125.4109264,https://maps.google.com/?cid=0x0:0xb6e315a78003acdf,
home improvement,home improvement,In House,"M93H+CG2, Lorong Bonsai, Talawid, Kec. Siau Bar. Sel., Kabupaten Siau Tagulandang Biaro, Sulawesi Utara","Kabupaten Siau Tagulandang Biaro, Sulawesi Utara",SULAWESI UTARA,,Indonesia,,,,2.6531746,125.3789343,https://maps.google.com/?cid=0x0:0xa08ff10f12e87c7d,
home improvement,Klub Malam,Home sangket,"M9XM+2F2, Pangirolong, Kec. Siau Tim. Sel., Kabupaten Siau Tagulandang Biaro, Sulawesi Utara 95867","Pangirolong, Kec. Siau Tim. Sel., Kabupaten Siau Tagulandang Biaro",SULAWESI UTARA,95867.0,Indonesia,,,,2.6975203,125.38365,https://maps.google.com/?cid=0x0:0xe385951aa3e3d4e3,
home improvement,home improvement,Kec. Siau Bar. Utara,"Kabupaten Siau Tagulandang Biaro, Sulawesi Utara","Kabupaten Siau Tagulandang Biaro, Sulawesi Utara",SULAWESI UTARA,,Indonesia,,,,2.7946041,125.3748009,https://maps.google.com/?cid=0x0:0xdc5dff2e803e091d,
home improvement,home improvement,Kec. Siau Tengah,"Kabupaten Siau Tagulandang Biaro, Sulawesi Utara","Kabupaten Siau Tagulandang Biaro, Sulawesi Utara",SULAWESI UTARA,,Indonesia,,,,2.7403638,125.378898,https://maps.google.com/?cid=0x0:0xcf7998cd0113e8b5,
home improvement,Perhimpunan Pengembang Perumahan,My Home,"PCQ6+462, Tarorane, Kec. Siau Tim., Kabupaten Siau Tagulandang Biaro, Sulawesi Utara 95861","Tarorane, Kec. Siau Tim., Kabupaten Siau Tagulandang Biaro",SULAWESI UTARA,95861.0,Indonesia,,,,2.7377572,125.4105033,https://maps.google.com/?cid=0x0:0xb70877c6027d2bad,
home improvement,Perhimpunan Pengembang Perumahan,Home Aso Mefri,"PCQF+2PH, Dame, Kec. Siau Tim., Kabupaten Siau Tagulandang Biaro, Sulawesi Utara 95861","Dame, Kec. Siau Tim., Kabupaten Siau Tagulandang Biaro",SULAWESI UTARA,95861.0,Indonesia,,,,2.7375556,125.4243686,https://maps.google.com/?cid=0x0:0x3810c0b67648aa6f,
home improvement,Penginapan,Home CintaAirin,"QC4G+MFJ, Karalung, Kec. Siau Tim., Kabupaten Siau Tagulandang Biaro, Sulawesi Utara 95861","Karalung, Kec. Siau Tim., Kabupaten Siau Tagulandang Biaro",SULAWESI UTARA,95861.0,Indonesia,,,,2.7567204,125.4261392,https://maps.google.com/?cid=0x0:0x7cce3fe12b60eb02,
home improvement,Rumah Kayu,Home SY3C,"PCJ6+W97, Tarorane, Kec. Siau Tim., Kabupaten Siau Tagulandang Biaro, Sulawesi Utara","Kabupaten Siau Tagulandang Biaro, Sulawesi Utara",SULAWESI UTARA,,Indonesia,,,,2.7322871,125.4109264,https://maps.google.com/?cid=0x0:0xb6e315a78003acdf,
home improvement,Toko Pakaian,Mega Home (tailor),"Lingkungan 1, Tatahadeng, Kec. Siau Tim., Kabupaten Siau Tagulandang Biaro, Sulawesi Utara 95861","Tatahadeng, Kec. Siau Tim., Kabupaten Siau Tagulandang Biaro",SULAWESI UTARA,95861.0,Indonesia,81385068597.0,,,2.7346074,125.4127996,https://maps.google.com/?cid=0x0:0xdb6f7284f22cf242,
home improvement,Bed >>u0026 Breakfast,Eva Home,"Q979+25Q, Kinali, Kec. Siau Bar. Utara, Kabupaten Siau Tagulandang Biaro, Sulawesi Utara","Kabupaten Siau Tagulandang Biaro, Sulawesi Utara",SULAWESI UTARA,,Indonesia,,,,2.7625916,125.3679711,https://maps.google.com/?cid=0x0:0x11c46e62325a18e8,
home improvement,Rumah wisata,Yunisa home,"QC4W+79, Kanang, Kec. Siau Tim., Kabupaten Siau Tagulandang Biaro, Sulawesi Utara","Kabupaten Siau Tagulandang Biaro, Sulawesi Utara",SULAWESI UTARA,,Indonesia,,,,2.7556875,125.4459375,https://maps.google.com/?cid=0x0:0x695a7a00c61c1377,
home improvement,Toko Pakaian,Door to door Siau,"Jln. Lokongbanua Kelurahan Akesimbeka RT 01 RW IV, Kecamatan Siau Timur, Tarorane, Siau Timur, Tarorane, Kec. Siau Tim., Kabupaten Siau Tagulandang Biaro, Sulawesi Utara 95861","Kecamatan Siau Timur, Tarorane, Siau Timur, Tarorane, Kec. Siau Tim., Kabupaten Siau Tagulandang Biaro",SULAWESI UTARA,95861.0,Indonesia,82293110414.0,,,2.729924,125.407554,https://maps.google.com/?cid=0x0:0xe9d1ae584e5e1a8a,
home improvement,Klub Malam,Home sangket,"M9XM+2F2, Pangirolong, Kec. Siau Tim. Sel., Kabupaten Siau Tagulandang Biaro, Sulawesi Utara 95867","Pangirolong, Kec. Siau Tim. Sel., Kabupaten Siau Tagulandang Biaro",SULAWESI UTARA,95867.0,Indonesia,,,,2.6975203,125.38365,https://maps.google.com/?cid=0x0:0xe385951aa3e3d4e3,
home improvement,home improvement,Sulawesi Utara 95861,"Kec. Siau Tim., Kabupaten Siau Tagulandang Biaro, Sulawesi Utara","Kabupaten Siau Tagulandang Biaro, Sulawesi Utara",SULAWESI UTARA,,Indonesia,,,,2.7629842,125.4233987,https://maps.google.com/?cid=0x0:0x412fe64cf4eae893,
home improvement,Perhimpunan Pengembang Perumahan,My Home,"PCQ6+462, Tarorane, Kec. Siau Tim., Kabupaten Siau Tagulandang Biaro, Sulawesi Utara 95861","Tarorane, Kec. Siau Tim., Kabupaten Siau Tagulandang Biaro",SULAWESI UTARA,95861.0,Indonesia,,,,2.7377572,125.4105033,https://maps.google.com/?cid=0x0:0xb70877c6027d2bad,
home improvement,Komplek perumahan,Mey's Home,"MC84+6WH, Kalihiang, Kec. Siau Tim. Sel., Kabupaten Siau Tagulandang Biaro, Sulawesi Utara","Kabupaten Siau Tagulandang Biaro, Sulawesi Utara",SULAWESI UTARA,,Indonesia,,,,2.6655625,125.4073594,https://maps.google.com/?cid=0x0:0xfaf6ec43b36934c0,
home improvement,Rumah Kayu,Home SY3C,"PCJ6+W97, Tarorane, Kec. Siau Tim., Kabupaten Siau Tagulandang Biaro, Sulawesi Utara","Kabupaten Siau Tagulandang Biaro, Sulawesi Utara",SULAWESI UTARA,,Indonesia,,,,2.7322871,125.4109264,https://maps.google.com/?cid=0x0:0xb6e315a78003acdf,
home improvement,Perhimpunan Pengembang Perumahan,Home Aso Mefri,"PCQF+2PH, Dame, Kec. Siau Tim., Kabupaten Siau Tagulandang Biaro, Sulawesi Utara 95861","Dame, Kec. Siau Tim., Kabupaten Siau Tagulandang Biaro",SULAWESI UTARA,95861.0,Indonesia,,,,2.7375556,125.4243686,https://maps.google.com/?cid=0x0:0x3810c0b67648aa6f,
home improvement,Penginapan,Home CintaAirin,"QC4G+MFJ, Karalung, Kec. Siau Tim., Kabupaten Siau Tagulandang Biaro, Sulawesi Utara 95861","Karalung, Kec. Siau Tim., Kabupaten Siau Tagulandang Biaro",SULAWESI UTARA,95861.0,Indonesia,,,,2.7567204,125.4261392,https://maps.google.com/?cid=0x0:0x7cce3fe12b60eb02,
home improvement,Bed >>u0026 Breakfast,Wil sunday home,"Sawang, Kec. Siau Tim. Sel., Kabupaten Siau Tagulandang Biaro, Sulawesi Utara 95867","Kec. Siau Tim. Sel., Kabupaten Siau Tagulandang Biaro",SULAWESI UTARA,95867.0,Indonesia,82298707387.0,,,2.6864009,125.3921342,https://maps.google.com/?cid=0x0:0xdd36d6d5f333b8de,
home improvement,Toko Pakaian,Door to door Siau,"Jln. Lokongbanua Kelurahan Akesimbeka RT 01 RW IV, Kecamatan Siau Timur, Tarorane, Siau Timur, Tarorane, Kec. Siau Tim., Kabupaten Siau Tagulandang Biaro, Sulawesi Utara 95861","Kecamatan Siau Timur, Tarorane, Siau Timur, Tarorane, Kec. Siau Tim., Kabupaten Siau Tagulandang Biaro",SULAWESI UTARA,95861.0,Indonesia,82293110414.0,,,2.729924,125.407554,https://maps.google.com/?cid=0x0:0xe9d1ae584e5e1a8a,
home improvement,Klub Malam,Home sangket,"M9XM+2F2, Pangirolong, Kec. Siau Tim. Sel., Kabupaten Siau Tagulandang Biaro, Sulawesi Utara 95867","Pangirolong, Kec. Siau Tim. Sel., Kabupaten Siau Tagulandang Biaro",SULAWESI UTARA,95867.0,Indonesia,,,,2.6975203,125.38365,https://maps.google.com/?cid=0x0:0xe385951aa3e3d4e3,
home improvement,home improvement,Sulawesi Utara 95861,"Kec. Siau Tim., Kabupaten Siau Tagulandang Biaro, Sulawesi Utara","Kabupaten Siau Tagulandang Biaro, Sulawesi Utara",SULAWESI UTARA,,Indonesia,,,,2.7629842,125.4233987,https://maps.google.com/?cid=0x0:0x412fe64cf4eae893,
home improvement,Perhimpunan Pengembang Perumahan,My Home,"PCQ6+462, Tarorane, Kec. Siau Tim., Kabupaten Siau Tagulandang Biaro, Sulawesi Utara 95861","Tarorane, Kec. Siau Tim., Kabupaten Siau Tagulandang Biaro",SULAWESI UTARA,95861.0,Indonesia,,,,2.7377572,125.4105033,https://maps.google.com/?cid=0x0:0xb70877c6027d2bad,
home improvement,Perhimpunan Pengembang Perumahan,Home Aso Mefri,"PCQF+2PH, Dame, Kec. Siau Tim., Kabupaten Siau Tagulandang Biaro, Sulawesi Utara 95861","Dame, Kec. Siau Tim., Kabupaten Siau Tagulandang Biaro",SULAWESI UTARA,95861.0,Indonesia,,,,2.7375556,125.4243686,https://maps.google.com/?cid=0x0:0x3810c0b67648aa6f,
home improvement,Rumah Kayu,Home SY3C,"PCJ6+W97, Tarorane, Kec. Siau Tim., Kabupaten Siau Tagulandang Biaro, Sulawesi Utara","Kabupaten Siau Tagulandang Biaro, Sulawesi Utara",SULAWESI UTARA,,Indonesia,,,,2.7322871,125.4109264,https://maps.google.com/?cid=0x0:0xb6e315a78003acdf,
home improvement,Penginapan,Home CintaAirin,"QC4G+MFJ, Karalung, Kec. Siau Tim., Kabupaten Siau Tagulandang Biaro, Sulawesi Utara 95861","Karalung, Kec. Siau Tim., Kabupaten Siau Tagulandang Biaro",SULAWESI UTARA,95861.0,Indonesia,,,,2.7567204,125.4261392,https://maps.google.com/?cid=0x0:0x7cce3fe12b60eb02,
home improvement,Rumah wisata,Yunisa home,"QC4W+79, Kanang, Kec. Siau Tim., Kabupaten Siau Tagulandang Biaro, Sulawesi Utara","Kabupaten Siau Tagulandang Biaro, Sulawesi Utara",SULAWESI UTARA,,Indonesia,,,,2.7556875,125.4459375,https://maps.google.com/?cid=0x0:0x695a7a00c61c1377,
home improvement,Pembangunan Perumahan,Kk vix home,"PCC2+HXX, Jalan Raya Sondang, Bahu, Kec. Siau Tim., Kabupaten Siau Tagulandang Biaro, Sulawesi Utara 95861","Jalan Raya Sondang, Bahu, Kec. Siau Tim., Kabupaten Siau Tagulandang Biaro",SULAWESI UTARA,95861.0,Indonesia,,,,2.7220683,125.4027054,https://maps.google.com/?cid=0x0:0xa1bff91c0e415e01,
home improvement,Rumah wisata,JrYodaKristen Home,"Biau, Kec. Siau Tim. Sel., Kabupaten Siau Tagulandang Biaro, Sulawesi Utara","Kabupaten Siau Tagulandang Biaro, Sulawesi Utara",SULAWESI UTARA,,Indonesia,,,,2.6718795,125.3972756,https://maps.google.com/?cid=0x0:0x8407f3c620426520,
home improvement,Toko Pakaian,Door to door Siau,"Jln. Lokongbanua Kelurahan Akesimbeka RT 01 RW IV, Kecamatan Siau Timur, Tarorane, Siau Timur, Tarorane, Kec. Siau Tim., Kabupaten Siau Tagulandang Biaro, Sulawesi Utara 95861","Kecamatan Siau Timur, Tarorane, Siau Timur, Tarorane, Kec. Siau Tim., Kabupaten Siau Tagulandang Biaro",SULAWESI UTARA,95861.0,Indonesia,82293110414.0,,,2.729924,125.407554,https://maps.google.com/?cid=0x0:0xe9d1ae584e5e1a8a,
home improvement,Klub Malam,Home sangket,"M9XM+2F2, Pangirolong, Kec. Siau Tim. Sel., Kabupaten Siau Tagulandang Biaro, Sulawesi Utara 95867","Pangirolong, Kec. Siau Tim. Sel., Kabupaten Siau Tagulandang Biaro",SULAWESI UTARA,95867.0,Indonesia,,,,2.6975203,125.38365,https://maps.google.com/?cid=0x0:0xe385951aa3e3d4e3,
home improvement,home improvement,Kec. Siau Tim. Sel.,"Kabupaten Siau Tagulandang Biaro, Sulawesi Utara","Kabupaten Siau Tagulandang Biaro, Sulawesi Utara",SULAWESI UTARA,,Indonesia,,,,2.6918038,125.3938686,https://maps.google.com/?cid=0x0:0xf6238bdf3570e28,
home improvement,home improvement,Kec. Tagulandang,"Kabupaten Siau Tagulandang Biaro, Sulawesi Utara","Kabupaten Siau Tagulandang Biaro, Sulawesi Utara",SULAWESI UTARA,,Indonesia,,,,2.3461009,125.3780692,https://maps.google.com/?cid=0x0:0x209bd6bf153ba2f,
home improvement,Komplek perumahan,Home Kel.Isak-Tumeleng,"99CH+FJ, Mohonsawang, Kec. Tagulandang, Kabupaten Siau Tagulandang Biaro, Sulawesi Utara","Kabupaten Siau Tagulandang Biaro, Sulawesi Utara",SULAWESI UTARA,,Indonesia,,,,2.3713369,125.3798721,https://maps.google.com/?cid=0x0:0x767b6f684f76817a,
home improvement,Komplek perumahan,Home Umhy,"9C3H+VCJ, Jl. Lrng, RT.kahai RT/RW.003, Bawoleu, Kec. Tagulandang Utara, Kabupaten Siau Tagulandang Biaro, Sulawesi Utara","Kabupaten Siau Tagulandang Biaro, Sulawesi Utara",SULAWESI UTARA,,Indonesia,85223878155.0,,,2.3547168,125.4285184,https://maps.google.com/?cid=0x0:0x19ee751f5c2d4e40,
home improvement,Komplek perumahan,Roland Home,"49G6+CJV, Unnamed Road, Lamanggo, Kec. Biaro, Kabupaten Siau Tagulandang Biaro, Sulawesi Utara","Kabupaten Siau Tagulandang Biaro, Sulawesi Utara",SULAWESI UTARA,,Indonesia,85340808006.0,,,2.1261105,125.3615398,https://maps.google.com/?cid=0x0:0x32d174ea4d8dccdf,
home improvement,Komplek perumahan,Ega home,"9C89+VH8, Minanga, Kec. Tagulandang Utara, Kabupaten Siau Tagulandang Biaro, Sulawesi Utara","Kabupaten Siau Tagulandang Biaro, Sulawesi Utara",SULAWESI UTARA,,Indonesia,,,,2.3667717,125.4185345,https://maps.google.com/?cid=0x0:0x9435ce1c3b88c1d9,
home improvement,Komplek perumahan,Home Tili_Ponto,"8C9M+7VC, Humbia, Kec. Tagulandang Sel., Kabupaten Siau Tagulandang Biaro, Sulawesi Utara","Kabupaten Siau Tagulandang Biaro, Sulawesi Utara",SULAWESI UTARA,,Indonesia,,,,2.3176532,125.4345614,https://maps.google.com/?cid=0x0:0xce74208aa4391adf,
home improvement,Rumah wisata,Gracio Home,"9C5G+FHV, Bawoleu, Kec. Tagulandang Utara, Kabupaten Siau Tagulandang Biaro, Sulawesi Utara","Kabupaten Siau Tagulandang Biaro, Sulawesi Utara",SULAWESI UTARA,,Indonesia,,,,2.3587336,125.4264327,https://maps.google.com/?cid=0x0:0x7ae7a7067fe0042c,
home improvement,Perhimpunan Pengembang Perumahan,My Home,"PCQ6+462, Tarorane, Kec. Siau Tim., Kabupaten Siau Tagulandang Biaro, Sulawesi Utara 95861","Tarorane, Kec. Siau Tim., Kabupaten Siau Tagulandang Biaro",SULAWESI UTARA,95861.0,Indonesia,,,,2.7377572,125.4105033,https://maps.google.com/?cid=0x0:0xb70877c6027d2bad,
home improvement,Komplek perumahan,Vin home,"9C3G+3GC, Bawoleu, Kec. Tagulandang Utara, Kabupaten Siau Tagulandang Biaro, Sulawesi Utara","Kabupaten Siau Tagulandang Biaro, Sulawesi Utara",SULAWESI UTARA,,Indonesia,,,,2.3520113,125.4271243,https://maps.google.com/?cid=0x0:0xb315026ab7888a64,
home improvement,Komplek perumahan,Gama-tristan home,"89WG+WR2, Balehumara, Kec. Tagulandang, Kabupaten Siau Tagulandang Biaro, Sulawesi Utara","Kabupaten Siau Tagulandang Biaro, Sulawesi Utara",SULAWESI UTARA,,Indonesia,,,,2.3471476,125.3769987,https://maps.google.com/?cid=0x0:0x2081278e0f711a3a,
home improvement,Bed >>u0026 Breakfast,Wil sunday home,"Sawang, Kec. Siau Tim. Sel., Kabupaten Siau Tagulandang Biaro, Sulawesi Utara 95867","Kec. Siau Tim. Sel., Kabupaten Siau Tagulandang Biaro",SULAWESI UTARA,95867.0,Indonesia,82298707387.0,,,2.6864009,125.3921342,https://maps.google.com/?cid=0x0:0xdd36d6d5f333b8de,
home improvement,Pembangunan Perumahan,@Home_Feli  Nindy,"89VM+GM6, Bahoi, Kec. Tagulandang, Kabupaten Siau Tagulandang Biaro, Sulawesi Utara","Kabupaten Siau Tagulandang Biaro, Sulawesi Utara",SULAWESI UTARA,,Indonesia,,,,2.3437879,125.3841403,https://maps.google.com/?cid=0x0:0xcc825a8e64e28e50,
home improvement,Komplek perumahan,Vindi Home,"9C3H+M48, Bawoleu, Kec. Tagulandang Utara, Kabupaten Siau Tagulandang Biaro, Sulawesi Utara","Kabupaten Siau Tagulandang Biaro, Sulawesi Utara",SULAWESI UTARA,,Indonesia,,,,2.3533922,125.428126,https://maps.google.com/?cid=0x0:0xe991a419339b4bd8,
home improvement,Komplek perumahan,Home Ngovangari -Tariwoba,"9C78+M3M, Bawo, Kec. Tagulandang Utara, Kabupaten Siau Tagulandang Biaro, Sulawesi Utara","Kabupaten Siau Tagulandang Biaro, Sulawesi Utara",SULAWESI UTARA,,Indonesia,,,,2.3642022,125.4151764,https://maps.google.com/?cid=0x0:0xac3bc0faaddd5f2b,
home improvement,Aksesori Mebel,Desa Apengsala,"99HR+VFW, Apengsala, Kec. Tagulandang, Kabupaten Siau Tagulandang Biaro, Sulawesi Utara","Kabupaten Siau Tagulandang Biaro, Sulawesi Utara",SULAWESI UTARA,,Indonesia,,,,2.3797469,125.3912016,https://maps.google.com/?cid=0x0:0x444ad1580fe45b99,
home improvement,Komplek perumahan,Tataung Home,"Q92J+45C, Beong, Kec. Siau Tengah, Kabupaten Siau Tagulandang Biaro, Sulawesi Utara","Kabupaten Siau Tagulandang Biaro, Sulawesi Utara",SULAWESI UTARA,,Indonesia,,,,2.7503163,125.3803975,https://maps.google.com/?cid=0x0:0xce93d3b71392bd0e,
home improvement,Pembangunan Perumahan,Tian's Home,"Q9PF+3R, Hiung, Bowone, Kabupaten Siau Tagulandang Biaro, Sulawesi Utara","Kabupaten Siau Tagulandang Biaro, Sulawesi Utara",SULAWESI UTARA,,Indonesia,,,,2.7851875,125.3745625,https://maps.google.com/?cid=0x0:0x7a35aa91520175e9,
home improvement,Rumah wisata,Andre Takakobi Home,"8FR4+3QW, Birakiama, Kec. Tagulandang Sel., Kabupaten Siau Tagulandang Biaro, Sulawesi Utara","Kabupaten Siau Tagulandang Biaro, Sulawesi Utara",SULAWESI UTARA,,Indonesia,,,,2.3402372,125.4569544,https://maps.google.com/?cid=0x0:0x4f2b6fd934e3a044,
home improvement,Perhimpunan Pengembang Perumahan,Home Aso Mefri,"PCQF+2PH, Dame, Kec. Siau Tim., Kabupaten Siau Tagulandang Biaro, Sulawesi Utara 95861","Dame, Kec. Siau Tim., Kabupaten Siau Tagulandang Biaro",SULAWESI UTARA,95861.0,Indonesia,,,,2.7375556,125.4243686,https://maps.google.com/?cid=0x0:0x3810c0b67648aa6f,
home improvement,Rumah Kayu,Home Muto Sospin,"PCQF+2Q5, Dame, Kec. Siau Tim., Kabupaten Siau Tagulandang Biaro, Sulawesi Utara 95861","Dame, Kec. Siau Tim., Kabupaten Siau Tagulandang Biaro",SULAWESI UTARA,95861.0,Indonesia,,,,2.737495,125.4244877,https://maps.google.com/?cid=0x0:0x6faa9bbc926fde43,
home improvement,Komplek perumahan,Thiara Home,"J9RW+JW6, Kapeta, Kec. Siau Bar. Sel., Kabupaten Siau Tagulandang Biaro, Sulawesi Utara","Kabupaten Siau Tagulandang Biaro, Sulawesi Utara",SULAWESI UTARA,,Indonesia,,,,2.6416808,125.3971828,https://maps.google.com/?cid=0x0:0x9d5498b323dba5b2,
home improvement,Komplek perumahan,Tian  Aurel Home,"9CCV+4RR, Batumawira, Kec. Tagulandang Sel., Kabupaten Siau Tagulandang Biaro, Sulawesi Utara","Kabupaten Siau Tagulandang Biaro, Sulawesi Utara",SULAWESI UTARA,,Indonesia,,,,2.3703733,125.4445266,https://maps.google.com/?cid=0x0:0x5b1779f5ae624cd9,
home improvement,Pembangunan Perumahan,Arya home,"9C3G+GR6, Bawoleu, Kec. Tagulandang Utara, Kabupaten Siau Tagulandang Biaro, Sulawesi Utara","Kabupaten Siau Tagulandang Biaro, Sulawesi Utara",SULAWESI UTARA,,Indonesia,,,,2.3541351,125.427513,https://maps.google.com/?cid=0x0:0x67e2ab0fe57c8a1c,
home improvement,Komplek perumahan,Mundiahi's,"49F6+3Q4, Lamanggo, Kec. Biaro, Kabupaten Siau Tagulandang Biaro, Sulawesi Utara","Kabupaten Siau Tagulandang Biaro, Sulawesi Utara",SULAWESI UTARA,,Indonesia,85343677889.0,,,2.1226492,125.3619585,https://maps.google.com/?cid=0x0:0xba7df77653259e9,
home improvement,Penginapan,Home CintaAirin,"QC4G+MFJ, Karalung, Kec. Siau Tim., Kabupaten Siau Tagulandang Biaro, Sulawesi Utara 95861","Karalung, Kec. Siau Tim., Kabupaten Siau Tagulandang Biaro",SULAWESI UTARA,95861.0,Indonesia,,,,2.7567204,125.4261392,https://maps.google.com/?cid=0x0:0x7cce3fe12b60eb02,
home improvement,Komplek perumahan,Faldy Stirman Home,"89HX+952, Mahangiang, Kec. Tagulandang, Kabupaten Siau Tagulandang Biaro, Sulawesi Utara","Kabupaten Siau Tagulandang Biaro, Sulawesi Utara",SULAWESI UTARA,,Indonesia,,,,2.3283768,125.3978862,https://maps.google.com/?cid=0x0:0xf0d040452f122f47,
home improvement,Toko Pakaian,Jefer home,"P5J9+XG, Makalehi, Kabupaten Siau Tagulandang Biaro, Sulawesi Utara","Kabupaten Siau Tagulandang Biaro, Sulawesi Utara",SULAWESI UTARA,,Indonesia,,,,2.7324375,125.1688125,https://maps.google.com/?cid=0x0:0xea2fff7b10aa86fc,
home improvement,Komplek perumahan,Zoan Lohonauman home,"8FW6+R7F, Buha, Kec. Tagulandang Sel., Kabupaten Siau Tagulandang Biaro, Sulawesi Utara","Kabupaten Siau Tagulandang Biaro, Sulawesi Utara",SULAWESI UTARA,,Indonesia,,,,2.3471509,125.460494,https://maps.google.com/?cid=0x0:0x9b5d6f845f311abb,
home improvement,Desainer interior,Yoshiya Homes Indonesia,"Jl. RS. Fatmawati Raya No.8, RT.1/RW.5, Gandaria Utara, Kec. Kby. Baru, Kota Jakarta Selatan, Daerah Khusus Ibukota Jakarta 12140","RT.1/RW.5, Gandaria Utara, Kec. Kby. Baru, Kota Jakarta Selatan",SULAWESI UTARA,12140.0,Indonesia,81933658888.0,,,-6.257342,106.7967782,https://maps.google.com/?cid=0x0:0xd99502a199e53992,
home improvement,home improvement,Kec. Tagulandang Sel.,"Kabupaten Siau Tagulandang Biaro, Sulawesi Utara","Kabupaten Siau Tagulandang Biaro, Sulawesi Utara",SULAWESI UTARA,,Indonesia,,,,2.3182823,125.4355499,https://maps.google.com/?cid=0x0:0x4ac91ac814e7666a,
home improvement,Komplek perumahan,Home Kel.Isak-Tumeleng,"99CH+FJ, Mohonsawang, Kec. Tagulandang, Kabupaten Siau Tagulandang Biaro, Sulawesi Utara","Kabupaten Siau Tagulandang Biaro, Sulawesi Utara",SULAWESI UTARA,,Indonesia,,,,2.3713369,125.3798721,https://maps.google.com/?cid=0x0:0x767b6f684f76817a,
home improvement,Komplek perumahan,Home Umhy,"9C3H+VCJ, Jl. Lrng, RT.kahai RT/RW.003, Bawoleu, Kec. Tagulandang Utara, Kabupaten Siau Tagulandang Biaro, Sulawesi Utara","Kabupaten Siau Tagulandang Biaro, Sulawesi Utara",SULAWESI UTARA,,Indonesia,85223878155.0,,,2.3547168,125.4285184,https://maps.google.com/?cid=0x0:0x19ee751f5c2d4e40,
home improvement,Komplek perumahan,Vin home,"9C3G+3GC, Bawoleu, Kec. Tagulandang Utara, Kabupaten Siau Tagulandang Biaro, Sulawesi Utara","Kabupaten Siau Tagulandang Biaro, Sulawesi Utara",SULAWESI UTARA,,Indonesia,,,,2.3520113,125.4271243,https://maps.google.com/?cid=0x0:0xb315026ab7888a64,
home improvement,Komplek perumahan,Shintia Home,"8FV3+3CV, Birakiama, Kec. Tagulandang Sel., Kabupaten Siau Tagulandang Biaro, Sulawesi Utara","Kabupaten Siau Tagulandang Biaro, Sulawesi Utara",SULAWESI UTARA,,Indonesia,,,,2.3427343,125.4535399,https://maps.google.com/?cid=0x0:0xc5668a3ebe64e0a4,
home improvement,Rumah wisata,Gracio Home,"9C5G+FHV, Bawoleu, Kec. Tagulandang Utara, Kabupaten Siau Tagulandang Biaro, Sulawesi Utara","Kabupaten Siau Tagulandang Biaro, Sulawesi Utara",SULAWESI UTARA,,Indonesia,,,,2.3587336,125.4264327,https://maps.google.com/?cid=0x0:0x7ae7a7067fe0042c,
home improvement,Rumah wisata,@Home_Grandma Feli  Nindy,"89WP+4MR, Bahoi, Kec. Tagulandang, Kabupaten Siau Tagulandang Biaro, Sulawesi Utara","Kabupaten Siau Tagulandang Biaro, Sulawesi Utara",SULAWESI UTARA,,Indonesia,,,,2.3453577,125.3866333,https://maps.google.com/?cid=0x0:0xa56d2aa79dcbd640,
home improvement,Komplek perumahan,Vindi Home,"9C3H+M48, Bawoleu, Kec. Tagulandang Utara, Kabupaten Siau Tagulandang Biaro, Sulawesi Utara","Kabupaten Siau Tagulandang Biaro, Sulawesi Utara",SULAWESI UTARA,,Indonesia,,,,2.3533922,125.428126,https://maps.google.com/?cid=0x0:0xe991a419339b4bd8,
home improvement,Komplek perumahan,Roland Home,"49G6+CJV, Unnamed Road, Lamanggo, Kec. Biaro, Kabupaten Siau Tagulandang Biaro, Sulawesi Utara","Kabupaten Siau Tagulandang Biaro, Sulawesi Utara",SULAWESI UTARA,,Indonesia,85340808006.0,,,2.1261105,125.3615398,https://maps.google.com/?cid=0x0:0x32d174ea4d8dccdf,
home improvement,Komplek perumahan,Tian  Aurel Home,"9CCV+4RR, Batumawira, Kec. Tagulandang Sel., Kabupaten Siau Tagulandang Biaro, Sulawesi Utara","Kabupaten Siau Tagulandang Biaro, Sulawesi Utara",SULAWESI UTARA,,Indonesia,,,,2.3703733,125.4445266,https://maps.google.com/?cid=0x0:0x5b1779f5ae624cd9,
home improvement,Perhimpunan Pengembang Perumahan,My Home,"PCQ6+462, Tarorane, Kec. Siau Tim., Kabupaten Siau Tagulandang Biaro, Sulawesi Utara 95861","Tarorane, Kec. Siau Tim., Kabupaten Siau Tagulandang Biaro",SULAWESI UTARA,95861.0,Indonesia,,,,2.7377572,125.4105033,https://maps.google.com/?cid=0x0:0xb70877c6027d2bad,
home improvement,Pembangunan Perumahan,Tian's Home,"Q9PF+3R, Hiung, Bowone, Kabupaten Siau Tagulandang Biaro, Sulawesi Utara","Kabupaten Siau Tagulandang Biaro, Sulawesi Utara",SULAWESI UTARA,,Indonesia,,,,2.7851875,125.3745625,https://maps.google.com/?cid=0x0:0x7a35aa91520175e9,
home improvement,Pembangunan Perumahan,@Home_Feli  Nindy,"89VM+GM6, Bahoi, Kec. Tagulandang, Kabupaten Siau Tagulandang Biaro, Sulawesi Utara","Kabupaten Siau Tagulandang Biaro, Sulawesi Utara",SULAWESI UTARA,,Indonesia,,,,2.3437879,125.3841403,https://maps.google.com/?cid=0x0:0xcc825a8e64e28e50,
home improvement,Komplek perumahan,Ivana'K home,"9C8C+H32, Minanga, Kec. Tagulandang Utara, Kabupaten Siau Tagulandang Biaro, Sulawesi Utara","Kabupaten Siau Tagulandang Biaro, Sulawesi Utara",SULAWESI UTARA,,Indonesia,,,,2.3654699,125.4205482,https://maps.google.com/?cid=0x0:0x9eac417c29863bab,
home improvement,Komplek perumahan,Thiara Home,"J9RW+JW6, Kapeta, Kec. Siau Bar. Sel., Kabupaten Siau Tagulandang Biaro, Sulawesi Utara","Kabupaten Siau Tagulandang Biaro, Sulawesi Utara",SULAWESI UTARA,,Indonesia,,,,2.6416808,125.3971828,https://maps.google.com/?cid=0x0:0x9d5498b323dba5b2,
home improvement,Aksesori Mebel,Desa Apengsala,"99HR+VFW, Apengsala, Kec. Tagulandang, Kabupaten Siau Tagulandang Biaro, Sulawesi Utara","Kabupaten Siau Tagulandang Biaro, Sulawesi Utara",SULAWESI UTARA,,Indonesia,,,,2.3797469,125.3912016,https://maps.google.com/?cid=0x0:0x444ad1580fe45b99,
home improvement,Bar,Meisya Manoppo home,"8CV7+CQJ, Lumbo, Kec. Tagulandang Utara, Kabupaten Siau Tagulandang Biaro, Sulawesi Utara","Kabupaten Siau Tagulandang Biaro, Sulawesi Utara",SULAWESI UTARA,,Indonesia,,,,2.3435825,125.4143938,https://maps.google.com/?cid=0x0:0x10c619cd545b3d3e,
home improvement,Pembangunan Perumahan,Arya home,"9C3G+GR6, Bawoleu, Kec. Tagulandang Utara, Kabupaten Siau Tagulandang Biaro, Sulawesi Utara","Kabupaten Siau Tagulandang Biaro, Sulawesi Utara",SULAWESI UTARA,,Indonesia,,,,2.3541351,125.427513,https://maps.google.com/?cid=0x0:0x67e2ab0fe57c8a1c,
home improvement,Komplek perumahan,Zoan Lohonauman home,"8FW6+R7F, Buha, Kec. Tagulandang Sel., Kabupaten Siau Tagulandang Biaro, Sulawesi Utara","Kabupaten Siau Tagulandang Biaro, Sulawesi Utara",SULAWESI UTARA,,Indonesia,,,,2.3471509,125.460494,https://maps.google.com/?cid=0x0:0x9b5d6f845f311abb,
home improvement,home improvement,Twin's home,"8C9P+FW9, Kisihang, Kec. Tagulandang Sel., Kabupaten Siau Tagulandang Biaro, Sulawesi Utara","Kabupaten Siau Tagulandang Biaro, Sulawesi Utara",SULAWESI UTARA,,Indonesia,,,,2.3186589,125.4373448,https://maps.google.com/?cid=0x0:0xbbb4066e1e963d86,
home improvement,Komplek perumahan,Clay Home,"89QM+HW8, Barangka Pehe, Kec. Tagulandang, Kabupaten Siau Tagulandang Biaro, Sulawesi Utara","Kabupaten Siau Tagulandang Biaro, Sulawesi Utara",SULAWESI UTARA,,Indonesia,,,,2.3390081,125.384627,https://maps.google.com/?cid=0x0:0x5c8d7ded30052734,
home improvement,Komplek perumahan,Ega home,"9C89+VH8, Minanga, Kec. Tagulandang Utara, Kabupaten Siau Tagulandang Biaro, Sulawesi Utara","Kabupaten Siau Tagulandang Biaro, Sulawesi Utara",SULAWESI UTARA,,Indonesia,,,,2.3667717,125.4185345,https://maps.google.com/?cid=0x0:0x9435ce1c3b88c1d9,
home improvement,Aksesori Mebel,VAT MEBEL,"99JR+5G3, Apengsala, Kec. Tagulandang, Kabupaten Siau Tagulandang Biaro, Sulawesi Utara","Kabupaten Siau Tagulandang Biaro, Sulawesi Utara",SULAWESI UTARA,,Indonesia,,,,2.3797478,125.3912023,https://maps.google.com/?cid=0x0:0x57d34ae25f1cf7a0,
home improvement,Komplek perumahan,Shinta Home,"8FR4+3QW, Birakiama, Kec. Tagulandang Sel., Kabupaten Siau Tagulandang Biaro, Sulawesi Utara","Kabupaten Siau Tagulandang Biaro, Sulawesi Utara",SULAWESI UTARA,,Indonesia,,,,2.341214,125.4554922,https://maps.google.com/?cid=0x0:0x40713a00f83d6190,
home improvement,Otoritas Pelabuhan,Terminal Bangunan Tagulandang,"Jln No.Pasar 66, Balehumara, Kec. Tagulandang, Kabupaten Siau Tagulandang Biaro, Sulawesi Utara 95863","Balehumara, Kec. Tagulandang, Kabupaten Siau Tagulandang Biaro",SULAWESI UTARA,95863.0,Indonesia,85214113706.0,,,2.3447097,125.3792646,https://maps.google.com/?cid=0x0:0xc9cb4f3d928fe374,
home improvement,Komplek perumahan,Home Ngovangari -Tariwoba,"9C78+M3M, Bawo, Kec. Tagulandang Utara, Kabupaten Siau Tagulandang Biaro, Sulawesi Utara","Kabupaten Siau Tagulandang Biaro, Sulawesi Utara",SULAWESI UTARA,,Indonesia,,,,2.3642022,125.4151764,https://maps.google.com/?cid=0x0:0xac3bc0faaddd5f2b,
home improvement,Komplek perumahan,Home Clau,"39XF+RJ3, pulau, Kec. Biaro, Kabupaten Siau Tagulandang Biaro, Sulawesi Utara","Kabupaten Siau Tagulandang Biaro, Sulawesi Utara",SULAWESI UTARA,,Indonesia,,,,2.0995244,125.3740526,https://maps.google.com/?cid=0x0:0xf119fb10a1bc7b38,
home improvement,Komplek perumahan,Palingu linggar home,"9C95+6Q, Mulengen, Kec. Tagulandang, Kabupaten Siau Tagulandang Biaro, Sulawesi Utara","Kabupaten Siau Tagulandang Biaro, Sulawesi Utara",SULAWESI UTARA,,Indonesia,,,,2.3680733,125.4094326,https://maps.google.com/?cid=0x0:0xebf0ac77632978cb,
home improvement,Komplek perumahan,Gama-tristan home,"89WG+WR2, Balehumara, Kec. Tagulandang, Kabupaten Siau Tagulandang Biaro, Sulawesi Utara","Kabupaten Siau Tagulandang Biaro, Sulawesi Utara",SULAWESI UTARA,,Indonesia,,,,2.3471476,125.3769987,https://maps.google.com/?cid=0x0:0x2081278e0f711a3a,
home improvement,home improvement,Kec. Tagulandang Utara,"Kabupaten Siau Tagulandang Biaro, Sulawesi Utara","Kabupaten Siau Tagulandang Biaro, Sulawesi Utara",SULAWESI UTARA,,Indonesia,,,,2.3482186,125.4232499,https://maps.google.com/?cid=0x0:0x92479453b06a48b4,
home improvement,Komplek perumahan,Home Umhy,"9C3H+VCJ, Jl. Lrng, RT.kahai RT/RW.003, Bawoleu, Kec. Tagulandang Utara, Kabupaten Siau Tagulandang Biaro, Sulawesi Utara","Kabupaten Siau Tagulandang Biaro, Sulawesi Utara",SULAWESI UTARA,,Indonesia,85223878155.0,,,2.3547168,125.4285184,https://maps.google.com/?cid=0x0:0x19ee751f5c2d4e40,
home improvement,Komplek perumahan,Home Kel.Isak-Tumeleng,"99CH+FJ, Mohonsawang, Kec. Tagulandang, Kabupaten Siau Tagulandang Biaro, Sulawesi Utara","Kabupaten Siau Tagulandang Biaro, Sulawesi Utara",SULAWESI UTARA,,Indonesia,,,,2.3713369,125.3798721,https://maps.google.com/?cid=0x0:0x767b6f684f76817a,
home improvement,Komplek perumahan,Nincy home,"9C3H+W37, Bawoleu, Kec. Tagulandang Utara, Kabupaten Siau Tagulandang Biaro, Sulawesi Utara","Kabupaten Siau Tagulandang Biaro, Sulawesi Utara",SULAWESI UTARA,,Indonesia,,,,2.354784,125.427658,https://maps.google.com/?cid=0x0:0x7461fdddffa4cd74,
home improvement,Komplek perumahan,Roland Home,"49G6+CJV, Unnamed Road, Lamanggo, Kec. Biaro, Kabupaten Siau Tagulandang Biaro, Sulawesi Utara","Kabupaten Siau Tagulandang Biaro, Sulawesi Utara",SULAWESI UTARA,,Indonesia,85340808006.0,,,2.1261105,125.3615398,https://maps.google.com/?cid=0x0:0x32d174ea4d8dccdf,
home improvement,Rumah wisata,@Home_Grandma Feli  Nindy,"89WP+4MR, Bahoi, Kec. Tagulandang, Kabupaten Siau Tagulandang Biaro, Sulawesi Utara","Kabupaten Siau Tagulandang Biaro, Sulawesi Utara",SULAWESI UTARA,,Indonesia,,,,2.3453577,125.3866333,https://maps.google.com/?cid=0x0:0xa56d2aa79dcbd640,
home improvement,Komplek perumahan,Home Tili_Ponto,"8C9M+7VC, Humbia, Kec. Tagulandang Sel., Kabupaten Siau Tagulandang Biaro, Sulawesi Utara","Kabupaten Siau Tagulandang Biaro, Sulawesi Utara",SULAWESI UTARA,,Indonesia,,,,2.3176532,125.4345614,https://maps.google.com/?cid=0x0:0xce74208aa4391adf,
home improvement,Pembangunan Perumahan,Rea home,"9C4G+3GG, Bawoleu, Kec. Tagulandang Utara, Kabupaten Siau Tagulandang Biaro, Sulawesi Utara","Kabupaten Siau Tagulandang Biaro, Sulawesi Utara",SULAWESI UTARA,,Indonesia,,,,2.355182,125.4263394,https://maps.google.com/?cid=0x0:0xa787e5638bae1990,
home improvement,Rumah wisata,Gracio Home,"9C5G+FHV, Bawoleu, Kec. Tagulandang Utara, Kabupaten Siau Tagulandang Biaro, Sulawesi Utara","Kabupaten Siau Tagulandang Biaro, Sulawesi Utara",SULAWESI UTARA,,Indonesia,,,,2.3587336,125.4264327,https://maps.google.com/?cid=0x0:0x7ae7a7067fe0042c,
home improvement,Komplek perumahan,Ega home,"9C89+VH8, Minanga, Kec. Tagulandang Utara, Kabupaten Siau Tagulandang Biaro, Sulawesi Utara","Kabupaten Siau Tagulandang Biaro, Sulawesi Utara",SULAWESI UTARA,,Indonesia,,,,2.3667717,125.4185345,https://maps.google.com/?cid=0x0:0x9435ce1c3b88c1d9,
home improvement,Komplek perumahan,Vin home,"9C3G+3GC, Bawoleu, Kec. Tagulandang Utara, Kabupaten Siau Tagulandang Biaro, Sulawesi Utara","Kabupaten Siau Tagulandang Biaro, Sulawesi Utara",SULAWESI UTARA,,Indonesia,,,,2.3520113,125.4271243,https://maps.google.com/?cid=0x0:0xb315026ab7888a64,
home improvement,Rumah Kayu,Home Noviyanti,"999J+MWR, Mohonsawang, Kec. Tagulandang, Kabupaten Siau Tagulandang Biaro, Sulawesi Utara","Kabupaten Siau Tagulandang Biaro, Sulawesi Utara",SULAWESI UTARA,,Indonesia,,,,2.3692394,125.382279,https://maps.google.com/?cid=0x0:0x9754d9e582b751af,
home improvement,Aksesori Mebel,VAT MEBEL,"99JR+5G3, Apengsala, Kec. Tagulandang, Kabupaten Siau Tagulandang Biaro, Sulawesi Utara","Kabupaten Siau Tagulandang Biaro, Sulawesi Utara",SULAWESI UTARA,,Indonesia,,,,2.3797478,125.3912023,https://maps.google.com/?cid=0x0:0x57d34ae25f1cf7a0,
home improvement,Komplek perumahan,BANUz HOME,"8C9M+G89 lindongan 1, Kisihang, Kec. Tagulandang Sel., Kabupaten Siau Tagulandang Biaro, Sulawesi Utara","Kabupaten Siau Tagulandang Biaro, Sulawesi Utara",SULAWESI UTARA,,Indonesia,,,,2.3187834,125.4333497,https://maps.google.com/?cid=0x0:0x97602c1b3a640070,
home improvement,Komplek perumahan,Icha Home,"8CH5+3VW, Hamu, Tulusan, Kec. Tagulandang, Kabupaten Siau Tagulandang Biaro, Sulawesi Utara","Kabupaten Siau Tagulandang Biaro, Sulawesi Utara",SULAWESI UTARA,,Indonesia,,,,2.3277335,125.4096944,https://maps.google.com/?cid=0x0:0xf7fcfb3c1c8bdf94,
home improvement,Pembangunan Perumahan,@Home_Feli  Nindy,"89VM+GM6, Bahoi, Kec. Tagulandang, Kabupaten Siau Tagulandang Biaro, Sulawesi Utara","Kabupaten Siau Tagulandang Biaro, Sulawesi Utara",SULAWESI UTARA,,Indonesia,,,,2.3437879,125.3841403,https://maps.google.com/?cid=0x0:0xcc825a8e64e28e50,
home improvement,Perhimpunan Pengembang Perumahan,My Home,"PCQ6+462, Tarorane, Kec. Siau Tim., Kabupaten Siau Tagulandang Biaro, Sulawesi Utara 95861","Tarorane, Kec. Siau Tim., Kabupaten Siau Tagulandang Biaro",SULAWESI UTARA,95861.0,Indonesia,,,,2.7377572,125.4105033,https://maps.google.com/?cid=0x0:0xb70877c6027d2bad,
home improvement,Komplek perumahan,Vindi Home,"9C3H+M48, Bawoleu, Kec. Tagulandang Utara, Kabupaten Siau Tagulandang Biaro, Sulawesi Utara","Kabupaten Siau Tagulandang Biaro, Sulawesi Utara",SULAWESI UTARA,,Indonesia,,,,2.3533922,125.428126,https://maps.google.com/?cid=0x0:0xe991a419339b4bd8,
home improvement,Perhimpunan Pengembang Perumahan,Home Aso Mefri,"PCQF+2PH, Dame, Kec. Siau Tim., Kabupaten Siau Tagulandang Biaro, Sulawesi Utara 95861","Dame, Kec. Siau Tim., Kabupaten Siau Tagulandang Biaro",SULAWESI UTARA,95861.0,Indonesia,,,,2.7375556,125.4243686,https://maps.google.com/?cid=0x0:0x3810c0b67648aa6f,
home improvement,Komplek perumahan,YOSEPH Home,"8FP3+4WR, Birakiama, Kec. Tagulandang Sel., Kabupaten Siau Tagulandang Biaro, Sulawesi Utara","Kabupaten Siau Tagulandang Biaro, Sulawesi Utara",SULAWESI UTARA,,Indonesia,,,,2.335358,125.4547735,https://maps.google.com/?cid=0x0:0x635d064c159cd0a5,
home improvement,Otoritas Pelabuhan,Terminal Bangunan Tagulandang,"Jln No.Pasar 66, Balehumara, Kec. Tagulandang, Kabupaten Siau Tagulandang Biaro, Sulawesi Utara 95863","Balehumara, Kec. Tagulandang, Kabupaten Siau Tagulandang Biaro",SULAWESI UTARA,95863.0,Indonesia,85214113706.0,,,2.3447097,125.3792646,https://maps.google.com/?cid=0x0:0xc9cb4f3d928fe374,
home improvement,Komplek perumahan,Shintia Home,"8FV3+3CV, Birakiama, Kec. Tagulandang Sel., Kabupaten Siau Tagulandang Biaro, Sulawesi Utara","Kabupaten Siau Tagulandang Biaro, Sulawesi Utara",SULAWESI UTARA,,Indonesia,,,,2.3427343,125.4535399,https://maps.google.com/?cid=0x0:0xc5668a3ebe64e0a4,
home improvement,Komplek perumahan,Home Clau,"39XF+RJ3, pulau, Kec. Biaro, Kabupaten Siau Tagulandang Biaro, Sulawesi Utara","Kabupaten Siau Tagulandang Biaro, Sulawesi Utara",SULAWESI UTARA,,Indonesia,,,,2.0995244,125.3740526,https://maps.google.com/?cid=0x0:0xf119fb10a1bc7b38,
home improvement,Komplek perumahan,Gama-tristan home,"89WG+WR2, Balehumara, Kec. Tagulandang, Kabupaten Siau Tagulandang Biaro, Sulawesi Utara","Kabupaten Siau Tagulandang Biaro, Sulawesi Utara",SULAWESI UTARA,,Indonesia,,,,2.3471476,125.3769987,https://maps.google.com/?cid=0x0:0x2081278e0f711a3a,
home improvement,Pembangunan Perumahan,Tian's Home,"Q9PF+3R, Hiung, Bowone, Kabupaten Siau Tagulandang Biaro, Sulawesi Utara","Kabupaten Siau Tagulandang Biaro, Sulawesi Utara",SULAWESI UTARA,,Indonesia,,,,2.7851875,125.3745625,https://maps.google.com/?cid=0x0:0x7a35aa91520175e9,
home improvement,Komplek perumahan,Ivana'K home,"9C8C+H32, Minanga, Kec. Tagulandang Utara, Kabupaten Siau Tagulandang Biaro, Sulawesi Utara","Kabupaten Siau Tagulandang Biaro, Sulawesi Utara",SULAWESI UTARA,,Indonesia,,,,2.3654699,125.4205482,https://maps.google.com/?cid=0x0:0x9eac417c29863bab,
home improvement,Aksesori Mebel,Desa Apengsala,"99HR+VFW, Apengsala, Kec. Tagulandang, Kabupaten Siau Tagulandang Biaro, Sulawesi Utara","Kabupaten Siau Tagulandang Biaro, Sulawesi Utara",SULAWESI UTARA,,Indonesia,,,,2.3797469,125.3912016,https://maps.google.com/?cid=0x0:0x444ad1580fe45b99,
home improvement,Komplek perumahan,Tian  Aurel Home,"9CCV+4RR, Batumawira, Kec. Tagulandang Sel., Kabupaten Siau Tagulandang Biaro, Sulawesi Utara","Kabupaten Siau Tagulandang Biaro, Sulawesi Utara",SULAWESI UTARA,,Indonesia,,,,2.3703733,125.4445266,https://maps.google.com/?cid=0x0:0x5b1779f5ae624cd9,
home improvement,Rumah wisata,HOME JHUN 27,"8FQ4+83G, Birakiama, Kec. Tagulandang Sel., Kabupaten Siau Tagulandang Biaro, Sulawesi Utara","Kabupaten Siau Tagulandang Biaro, Sulawesi Utara",SULAWESI UTARA,,Indonesia,,,,2.3383117,125.4552124,https://maps.google.com/?cid=0x0:0xb19c157906f80bba,
