Category,Real Category,Business Name,Address,City,State,Postal Code,Country,Phone,Email,Website,Latitude,Longitude,Map Link,Details Link
komplek housing,Komplek perumahan,Rumah Afris Mitusala,"PCV8+HR4, Tatahadeng, Kec. Siau Tim., Kabupaten Siau Tagulandang Biaro, Sulawesi Utara 95861","Tatahadeng, Kec. Siau Tim., Kabupaten Siau Tagulandang Biaro",SULAWESI UTARA,95861.0,Indonesia,,,,2.7430696,125.4172705,https://maps.google.com/?cid=0x0:0x837013a478da0d5c,
komplek housing,Komplek perumahan,Rumah Uto Nersjia Kansil,"QC39+GPV, Dame, Kec. Siau Tim., Kabupaten Siau Tagulandang Biaro, Sulawesi Utara 95861","Dame, Kec. Siau Tim., Kabupaten Siau Tagulandang Biaro",SULAWESI UTARA,95861.0,Indonesia,,,,2.7538696,125.4192876,https://maps.google.com/?cid=0x0:0xb6006a5ebb970f50,
komplek housing,komplek housing,Kec. Biaro,"Kabupaten Siau Tagulandang Biaro, Sulawesi Utara","Kabupaten Siau Tagulandang Biaro, Sulawesi Utara",SULAWESI UTARA,,Indonesia,,,,2.1188553,125.3626891,https://maps.google.com/?cid=0x0:0x4030bfbcaf78990,
komplek housing,Dapur Umum,Mutiara Pratidina,"Jl. Pratidina No.63 58, RW.5, Harjamukti, Cimanggis, Depok City, West Java 16454","RW.5, Harjamukti, Cimanggis, Depok City",SULAWESI UTARA,16454.0,Indonesia,81282287210.0,,,-6.3724266,106.8892583,https://maps.google.com/?cid=0x0:0x32126dcca738f5ef,
komplek housing,Komplek perumahan,Sunrise River Muktijaya,"H2WP+3JH, Jl. Muktijaya - Cigelam, Muktijaya, Kec. Setu, Kabupaten Bekasi, Jawa Barat 17320","Jl. Muktijaya - Cigelam, Muktijaya, Kec. Setu, Kabupaten Bekasi",SULAWESI UTARA,17320.0,Indonesia,81290277288.0,,,-6.4048186,107.0366116,https://maps.google.com/?cid=0x0:0x4531fe10b04fec4c,
komplek housing,Komplek perumahan,SIAU BAKUSEDU home base,"Beong, Kec. Siau Tengah, Kabupaten Siau Tagulandang Biaro, Sulawesi Utara 95862","Kec. Siau Tengah, Kabupaten Siau Tagulandang Biaro",SULAWESI UTARA,95862.0,Indonesia,,,,2.7482157,125.3793374,https://maps.google.com/?cid=0x0:0xfee292559992ad3,
komplek housing,Pembangunan Perumahan,Komplek bako,"P9PQ+Q9H, Bebali, Kec. Siau Tim., Kabupaten Siau Tagulandang Biaro, Sulawesi Utara 95861","Bebali, Kec. Siau Tim., Kabupaten Siau Tagulandang Biaro",SULAWESI UTARA,95861.0,Indonesia,,,,2.7361537,125.3894606,https://maps.google.com/?cid=0x0:0xd9257b3b3a9605d,
komplek housing,komplek housing,Kec. Siau Bar. Sel.,"Kabupaten Siau Tagulandang Biaro, Sulawesi Utara","Kabupaten Siau Tagulandang Biaro, Sulawesi Utara",SULAWESI UTARA,,Indonesia,,,,2.651579,125.3799805,https://maps.google.com/?cid=0x0:0x1e513a8f3f02fcd1,
komplek housing,Komplek perumahan,SIAU BAKUSEDU home base,"Beong, Kec. Siau Tengah, Kabupaten Siau Tagulandang Biaro, Sulawesi Utara 95862","Kec. Siau Tengah, Kabupaten Siau Tagulandang Biaro",SULAWESI UTARA,95862.0,Indonesia,,,,2.7482157,125.3793374,https://maps.google.com/?cid=0x0:0xfee292559992ad3,
komplek housing,Pembangunan Perumahan,Komplek bako,"P9PQ+Q9H, Bebali, Kec. Siau Tim., Kabupaten Siau Tagulandang Biaro, Sulawesi Utara 95861","Bebali, Kec. Siau Tim., Kabupaten Siau Tagulandang Biaro",SULAWESI UTARA,95861.0,Indonesia,,,,2.7361537,125.3894606,https://maps.google.com/?cid=0x0:0xd9257b3b3a9605d,
komplek housing,komplek housing,Kec. Siau Tengah,"Kabupaten Siau Tagulandang Biaro, Sulawesi Utara","Kabupaten Siau Tagulandang Biaro, Sulawesi Utara",SULAWESI UTARA,,Indonesia,,,,2.7403638,125.378898,https://maps.google.com/?cid=0x0:0xcf7998cd0113e8b5,
komplek housing,Komplek perumahan,SIAU BAKUSEDU home base,"Beong, Kec. Siau Tengah, Kabupaten Siau Tagulandang Biaro, Sulawesi Utara 95862","Kec. Siau Tengah, Kabupaten Siau Tagulandang Biaro",SULAWESI UTARA,95862.0,Indonesia,,,,2.7482157,125.3793374,https://maps.google.com/?cid=0x0:0xfee292559992ad3,
komplek housing,Komplek perumahan,Tataung Home,"Q92J+45C, Beong, Kec. Siau Tengah, Kabupaten Siau Tagulandang Biaro, Sulawesi Utara","Kabupaten Siau Tagulandang Biaro, Sulawesi Utara",SULAWESI UTARA,,Indonesia,,,,2.7503163,125.3803975,https://maps.google.com/?cid=0x0:0xce93d3b71392bd0e,
komplek housing,Pembangunan Perumahan,Rumah Olan,"P9R6+MJW, Paniki, Siau Bar., Kabupaten Siau Tagulandang Biaro, Sulawesi Utara","Kabupaten Siau Tagulandang Biaro, Sulawesi Utara",SULAWESI UTARA,,Indonesia,,,,2.741749,125.3615841,https://maps.google.com/?cid=0x0:0x697935c54a2053a3,
komplek housing,Komplek perumahan,Rumah pintar,"PCH4+HJJ, Akesimbeka, Kec. Siau Tim., Kabupaten Siau Tagulandang Biaro, Sulawesi Utara 95861","Akesimbeka, Kec. Siau Tim., Kabupaten Siau Tagulandang Biaro",SULAWESI UTARA,95861.0,Indonesia,,,,2.7288671,125.4065641,https://maps.google.com/?cid=0x0:0x76b604089fa8b89,
komplek housing,Komplek perumahan,Komplek Pusat lehi,"P9MW+C7, Akesimbeka, Kec. Siau Tim., Kabupaten Siau Tagulandang Biaro, Sulawesi Utara","Kabupaten Siau Tagulandang Biaro, Sulawesi Utara",SULAWESI UTARA,,Indonesia,,,,2.7334992,125.395636,https://maps.google.com/?cid=0x0:0x2a9723f1ed977451,
komplek housing,Komplek perumahan,Rumah Vhany,"PCJ6+978, Jl. Boulevard Ulusiau, Tarorane, Kabupaten Siau Tagulandang Biaro, Sulawesi Utara 95861","Jl. Boulevard Ulusiau, Tarorane, Kabupaten Siau Tagulandang Biaro",SULAWESI UTARA,95861.0,Indonesia,,,,2.7309193,125.4106957,https://maps.google.com/?cid=0x0:0x3bc73412159d647d,
komplek housing,Komplek perumahan,Defri Tumandung,"P9MR+XH8, Akesimbeka, Kec. Siau Tim., Kabupaten Siau Tagulandang Biaro, Sulawesi Utara 95861","Akesimbeka, Kec. Siau Tim., Kabupaten Siau Tagulandang Biaro",SULAWESI UTARA,95861.0,Indonesia,,,,2.7349096,125.3914452,https://maps.google.com/?cid=0x0:0xec2240ba5c55eb8d,
komplek housing,Komplek perumahan,Aksa  Azel,"Q94J+FXX, Dompase, Kec. Siau Tengah, Kabupaten Siau Tagulandang Biaro, Sulawesi Utara","Kabupaten Siau Tagulandang Biaro, Sulawesi Utara",SULAWESI UTARA,,Indonesia,,,,2.7562271,125.3824833,https://maps.google.com/?cid=0x0:0xe411128ef621ce73,
komplek housing,Perhimpunan Pengembang Perumahan,Perumahan ASN paseng Siau,"P9J6+2WR, Pehe, Siau Bar., Kabupaten Siau Tagulandang Biaro, Sulawesi Utara","Kabupaten Siau Tagulandang Biaro, Sulawesi Utara",SULAWESI UTARA,,Indonesia,,,,2.7301049,125.3622668,https://maps.google.com/?cid=0x0:0x36e98556fd14b1aa,
komplek housing,Komplek perumahan,Keluarga Pasumah-Bawekes,"P9F5+PVX, Jl. Raja Winsulangi, Ondong, Siau Bar., Kabupaten Siau Tagulandang Biaro, Sulawesi Utara","Kabupaten Siau Tagulandang Biaro, Sulawesi Utara",SULAWESI UTARA,,Indonesia,,,,2.724375,125.3597304,https://maps.google.com/?cid=0x0:0x7aa6d8715dac7b3f,
komplek housing,Komplek perumahan,Siau,"P9VQ+RMR, Salili, Kec. Siau Tengah, Kabupaten Siau Tagulandang Biaro, Sulawesi Utara","Kabupaten Siau Tagulandang Biaro, Sulawesi Utara",SULAWESI UTARA,,Indonesia,,,,2.7446133,125.3891338,https://maps.google.com/?cid=0x0:0xec2caa3bfe602ae9,
komplek housing,Pembangunan Perumahan,Komplek bako,"P9PQ+Q9H, Bebali, Kec. Siau Tim., Kabupaten Siau Tagulandang Biaro, Sulawesi Utara 95861","Bebali, Kec. Siau Tim., Kabupaten Siau Tagulandang Biaro",SULAWESI UTARA,95861.0,Indonesia,,,,2.7361537,125.3894606,https://maps.google.com/?cid=0x0:0xd9257b3b3a9605d,
komplek housing,Komplek perumahan,Rumah kel. Ontoge Tahulending,"P9RH+HJV, Lai, Kec. Siau Tengah, Kabupaten Siau Tagulandang Biaro, Sulawesi Utara","Kabupaten Siau Tagulandang Biaro, Sulawesi Utara",SULAWESI UTARA,,Indonesia,,,,2.7418111,125.3794785,https://maps.google.com/?cid=0x0:0x6249c89ab41a1969,
komplek housing,Komplek perumahan,Rumah chache paniki,"P9Q6+67J, Paniki, Siau Bar., Kabupaten Siau Tagulandang Biaro, Sulawesi Utara","Kabupaten Siau Tagulandang Biaro, Sulawesi Utara",SULAWESI UTARA,,Indonesia,,,,2.7381038,125.3606804,https://maps.google.com/?cid=0x0:0x97ac8adfe3910257,
komplek housing,Gedung Apartemen,My Home,"PCG3+2QQ, Lingkungan VII, Bahu, Kec. Siau Tim., Kabupaten Siau Tagulandang Biaro, Sulawesi Utara 95861","Lingkungan VII, Bahu, Kec. Siau Tim., Kabupaten Siau Tagulandang Biaro",SULAWESI UTARA,95861.0,Indonesia,,,,2.7250879,125.404471,https://maps.google.com/?cid=0x0:0x51e63e9c3c24e12a,
komplek housing,Pembangunan Perumahan,Bowongake paniki siau,"P9QC+GQW, Pehe, Siau Bar., Kabupaten Siau Tagulandang Biaro, Sulawesi Utara","Kabupaten Siau Tagulandang Biaro, Sulawesi Utara",SULAWESI UTARA,,Indonesia,,,,2.7388607,125.3719532,https://maps.google.com/?cid=0x0:0x72f02e1838e685c0,
komplek housing,Komplek perumahan,Christian Home,"PC92+367, Bahu, Kec. Siau Tim., Kabupaten Siau Tagulandang Biaro, Sulawesi Utara 95861","Bahu, Kec. Siau Tim., Kabupaten Siau Tagulandang Biaro",SULAWESI UTARA,95861.0,Indonesia,,,,2.7176645,125.4005484,https://maps.google.com/?cid=0x0:0xbfbcc1e6400fc814,
komplek housing,Komplek perumahan,Rumah Lanvia chintia Limpah,"P9JG+4JG, Lai, Kec. Siau Tengah, Kabupaten Siau Tagulandang Biaro, Sulawesi Utara","Kabupaten Siau Tagulandang Biaro, Sulawesi Utara",SULAWESI UTARA,,Indonesia,,,,2.7303001,125.3765837,https://maps.google.com/?cid=0x0:0x2f72fd677f7ea1bd,
komplek housing,Komplek perumahan,Rumah Kel. Tampilang - Sagune,"P9XJ+6F8, Beong, Kec. Siau Tengah, Kabupaten Siau Tagulandang Biaro, Sulawesi Utara","Kabupaten Siau Tagulandang Biaro, Sulawesi Utara",SULAWESI UTARA,,Indonesia,,,,2.7480291,125.3812154,https://maps.google.com/?cid=0x0:0xa7df523e6b8ad606,
komplek housing,Komplek perumahan,Rumah Oma Lartje,"P9QQ+GG3, Bebali, Kec. Siau Tim., Kabupaten Siau Tagulandang Biaro, Sulawesi Utara 95861","Bebali, Kec. Siau Tim., Kabupaten Siau Tagulandang Biaro",SULAWESI UTARA,95861.0,Indonesia,,,,2.7387314,125.388818,https://maps.google.com/?cid=0x0:0x4629064d9336f9e9,
komplek housing,Pembangunan Perumahan,Miralin home batutuide,"PCM3+625, Bebali, Kec. Siau Tim., Kabupaten Siau Tagulandang Biaro, Sulawesi Utara 95861","Bebali, Kec. Siau Tim., Kabupaten Siau Tagulandang Biaro",SULAWESI UTARA,95861.0,Indonesia,,,,2.7330164,125.4026055,https://maps.google.com/?cid=0x0:0xf25207f87b7e6e43,
komplek housing,Komplek perumahan,angelaa home's,"P9RR+M7, Bebali, Kec. Siau Tim., Kabupaten Siau Tagulandang Biaro, Sulawesi Utara 95861","Bebali, Kec. Siau Tim., Kabupaten Siau Tagulandang Biaro",SULAWESI UTARA,95861.0,Indonesia,,,,2.7418171,125.3898103,https://maps.google.com/?cid=0x0:0x62bed07f3b7e00e2,
komplek housing,Komplek perumahan,Kuera Lukas,"P9PV+R3R, Bebali, Kec. Siau Tim., Kabupaten Siau Tagulandang Biaro, Sulawesi Utara 95861","Bebali, Kec. Siau Tim., Kabupaten Siau Tagulandang Biaro",SULAWESI UTARA,95861.0,Indonesia,,,,2.7371055,125.3926448,https://maps.google.com/?cid=0x0:0x3cb5782852765671,
komplek housing,Komplek perumahan,Kadiyerikuerabawole,"PCM6+7MX, Tarorane, Kec. Siau Tim., Kabupaten Siau Tagulandang Biaro, Sulawesi Utara 95861","Tarorane, Kec. Siau Tim., Kabupaten Siau Tagulandang Biaro",SULAWESI UTARA,95861.0,Indonesia,,,,2.7332331,125.4117401,https://maps.google.com/?cid=0x0:0x4382088c338eddbb,
komplek housing,Sekolah,Perum bebali,"P9RX+FFQ, Bebali, Kec. Siau Tim., Kabupaten Siau Tagulandang Biaro, Sulawesi Utara 95861","Bebali, Kec. Siau Tim., Kabupaten Siau Tagulandang Biaro",SULAWESI UTARA,95861.0,Indonesia,,,,2.7412026,125.3987294,https://maps.google.com/?cid=0x0:0x8d235188aec08248,
komplek housing,Komplek perumahan,SUWUH FAMILY,"PCJ6+W5V, Tarorane, Kec. Siau Tim., Kabupaten Siau Tagulandang Biaro, Sulawesi Utara 95861","Tarorane, Kec. Siau Tim., Kabupaten Siau Tagulandang Biaro",SULAWESI UTARA,95861.0,Indonesia,,,,2.7323614,125.4104289,https://maps.google.com/?cid=0x0:0xeafd476bf22c61b6,
komplek housing,Komplek perumahan,Lukas Gensa,"P9PR+PP5, Bebali, Kec. Siau Tim., Kabupaten Siau Tagulandang Biaro, Sulawesi Utara 95861","Bebali, Kec. Siau Tim., Kabupaten Siau Tagulandang Biaro",SULAWESI UTARA,95861.0,Indonesia,,,,2.7367649,125.3918713,https://maps.google.com/?cid=0x0:0x88cfe68f6cce7d8f,
komplek housing,Komplek perumahan,Alexander Home,"P9GW+Q99, Akesimbeka, Kec. Siau Tim., Kabupaten Siau Tagulandang Biaro, Sulawesi Utara 95861","Akesimbeka, Kec. Siau Tim., Kabupaten Siau Tagulandang Biaro",SULAWESI UTARA,95861.0,Indonesia,,,,2.7269036,125.3959879,https://maps.google.com/?cid=0x0:0xa54c74ce2d21d7b2,
komplek housing,komplek housing,Sulawesi Utara 95861,"Kec. Siau Tim., Kabupaten Siau Tagulandang Biaro, Sulawesi Utara","Kabupaten Siau Tagulandang Biaro, Sulawesi Utara",SULAWESI UTARA,,Indonesia,,,,2.7629842,125.4233987,https://maps.google.com/?cid=0x0:0x412fe64cf4eae893,
komplek housing,Komplek perumahan,ALIKA HOME,"PCM7+M5Q, Tatahadeng, Tarorane, Kec. Siau Tim., Kabupaten Siau Tagulandang Biaro, Sulawesi Utara 95861","Tatahadeng, Tarorane, Kec. Siau Tim., Kabupaten Siau Tagulandang Biaro",SULAWESI UTARA,95861.0,Indonesia,,,,2.7344461,125.4129994,https://maps.google.com/?cid=0x0:0x3d1a7712ffa98c05,
komplek housing,Komplek perumahan,Rumah wardi,"QC2V+5QM, Buise, Kec. Siau Tim., Kabupaten Siau Tagulandang Biaro, Sulawesi Utara 95861","Buise, Kec. Siau Tim., Kabupaten Siau Tagulandang Biaro",SULAWESI UTARA,95861.0,Indonesia,,,,2.7512845,125.4454062,https://maps.google.com/?cid=0x0:0xf7f330893025e303,
komplek housing,Komplek perumahan,Komplek Pusat lehi,"P9MW+C7, Akesimbeka, Kec. Siau Tim., Kabupaten Siau Tagulandang Biaro, Sulawesi Utara","Kabupaten Siau Tagulandang Biaro, Sulawesi Utara",SULAWESI UTARA,,Indonesia,,,,2.7334992,125.395636,https://maps.google.com/?cid=0x0:0x2a9723f1ed977451,
komplek housing,Komplek perumahan,Rumah Vhany,"PCJ6+978, Jl. Boulevard Ulusiau, Tarorane, Kabupaten Siau Tagulandang Biaro, Sulawesi Utara 95861","Jl. Boulevard Ulusiau, Tarorane, Kabupaten Siau Tagulandang Biaro",SULAWESI UTARA,95861.0,Indonesia,,,,2.7309193,125.4106957,https://maps.google.com/?cid=0x0:0x3bc73412159d647d,
komplek housing,Gedung Apartemen,KAMPUNG APELAWO,"QCRQ+FM, Deahe, Kec. Siau Tim., Kabupaten Siau Tagulandang Biaro, Sulawesi Utara 95861","Deahe, Kec. Siau Tim., Kabupaten Siau Tagulandang Biaro",SULAWESI UTARA,95861.0,Indonesia,,,,2.7915784,125.4382836,https://maps.google.com/?cid=0x0:0x25a42b17b6b03205,
komplek housing,Komplek perumahan,Keluarga Wagunu Bowontari,"QCPW+CMP, Deahe, Kec. Siau Tim., Kabupaten Siau Tagulandang Biaro, Sulawesi Utara 95861","Deahe, Kec. Siau Tim., Kabupaten Siau Tagulandang Biaro",SULAWESI UTARA,95861.0,Indonesia,,,,2.7860911,125.446694,https://maps.google.com/?cid=0x0:0x5bbdd51b3d34e20b,
komplek housing,Komplek perumahan,Kadiyerikuerabawole,"PCM6+7MX, Tarorane, Kec. Siau Tim., Kabupaten Siau Tagulandang Biaro, Sulawesi Utara 95861","Tarorane, Kec. Siau Tim., Kabupaten Siau Tagulandang Biaro",SULAWESI UTARA,95861.0,Indonesia,,,,2.7332331,125.4117401,https://maps.google.com/?cid=0x0:0x4382088c338eddbb,
komplek housing,Komplek perumahan,Pentoe,"PCV4+8H5, Tarorane, Kec. Siau Tim., Kabupaten Siau Tagulandang Biaro, Sulawesi Utara 95861","Tarorane, Kec. Siau Tim., Kabupaten Siau Tagulandang Biaro",SULAWESI UTARA,95861.0,Indonesia,,,,2.7432671,125.4064884,https://maps.google.com/?cid=0x0:0x3597ebd4dd3e834b,
komplek housing,Komplek perumahan,Tampuna,"PCW4+4Q9, Lingkungan IV, Tarorane, Kec. Siau Tim., Kabupaten Siau Tagulandang Biaro, Sulawesi Utara 95861","Lingkungan IV, Tarorane, Kec. Siau Tim., Kabupaten Siau Tagulandang Biaro",SULAWESI UTARA,95861.0,Indonesia,,,,2.745279,125.4069978,https://maps.google.com/?cid=0x0:0xe6caf722a8d604fb,
komplek housing,Pembangunan Perumahan,Miralin home batutuide,"PCM3+625, Bebali, Kec. Siau Tim., Kabupaten Siau Tagulandang Biaro, Sulawesi Utara 95861","Bebali, Kec. Siau Tim., Kabupaten Siau Tagulandang Biaro",SULAWESI UTARA,95861.0,Indonesia,,,,2.7330164,125.4026055,https://maps.google.com/?cid=0x0:0xf25207f87b7e6e43,
komplek housing,Gedung Apartemen,My Home,"PCG3+2QQ, Lingkungan VII, Bahu, Kec. Siau Tim., Kabupaten Siau Tagulandang Biaro, Sulawesi Utara 95861","Lingkungan VII, Bahu, Kec. Siau Tim., Kabupaten Siau Tagulandang Biaro",SULAWESI UTARA,95861.0,Indonesia,,,,2.7250879,125.404471,https://maps.google.com/?cid=0x0:0x51e63e9c3c24e12a,
komplek housing,Pembangunan Perumahan,Akesimbeka ATAS,"Akesimbeka, Kec. Siau Tim., Kabupaten Siau Tagulandang Biaro, Sulawesi Utara 95861","Kec. Siau Tim., Kabupaten Siau Tagulandang Biaro",SULAWESI UTARA,95861.0,Indonesia,,,,2.7308275,125.4050125,https://maps.google.com/?cid=0x0:0x5565675ca8cc00eb,
komplek housing,Komplek perumahan,Andjas Home,"PCWM+P3P, Karalung, Kec. Siau Tim., Kabupaten Siau Tagulandang Biaro, Sulawesi Utara","Kabupaten Siau Tagulandang Biaro, Sulawesi Utara",SULAWESI UTARA,,Indonesia,,,,2.7468266,125.4327124,https://maps.google.com/?cid=0x0:0x95ac93b97fe51773,
komplek housing,Komplek perumahan,SUWUH FAMILY,"PCJ6+W5V, Tarorane, Kec. Siau Tim., Kabupaten Siau Tagulandang Biaro, Sulawesi Utara 95861","Tarorane, Kec. Siau Tim., Kabupaten Siau Tagulandang Biaro",SULAWESI UTARA,95861.0,Indonesia,,,,2.7323614,125.4104289,https://maps.google.com/?cid=0x0:0xeafd476bf22c61b6,
komplek housing,Komplek perumahan,Indiraâs house,"PCC3+VCH, Akesimbeka, Kec. Siau Tim., Kabupaten Siau Tagulandang Biaro, Sulawesi Utara 95861","Akesimbeka, Kec. Siau Tim., Kabupaten Siau Tagulandang Biaro",SULAWESI UTARA,95861.0,Indonesia,,,,2.7222961,125.4030317,https://maps.google.com/?cid=0x0:0x8f3ee1e69001a659,
komplek housing,Komplek perumahan,Home ma yuyu,"PCQ4+X6G, Tarorane, Kec. Siau Tim., Kabupaten Siau Tagulandang Biaro, Sulawesi Utara 95861","Tarorane, Kec. Siau Tim., Kabupaten Siau Tagulandang Biaro",SULAWESI UTARA,95861.0,Indonesia,,,,2.7399419,125.4055827,https://maps.google.com/?cid=0x0:0xff94175bea843abf,
komplek housing,Komplek perumahan,Kel. Bawole Wilhelmus,"PCW4+JXV, Lingkungan IV, Tarorane, Kec. Siau Tim., Kabupaten Siau Tagulandang Biaro, Sulawesi Utara 95861","Lingkungan IV, Tarorane, Kec. Siau Tim., Kabupaten Siau Tagulandang Biaro",SULAWESI UTARA,95861.0,Indonesia,,,,2.7466057,125.4074369,https://maps.google.com/?cid=0x0:0xe8a557ef5850fb42,
komplek housing,Perhimpunan Pengembang Perumahan,Home keyy,"PCC2+CH4, Akesimbeka, Kec. Siau Tim., Kabupaten Siau Tagulandang Biaro, Sulawesi Utara 95861","Akesimbeka, Kec. Siau Tim., Kabupaten Siau Tagulandang Biaro",SULAWESI UTARA,95861.0,Indonesia,,,,2.7210057,125.4014636,https://maps.google.com/?cid=0x0:0x200dd616659dc4be,
komplek housing,Komplek perumahan,Pand's Home,"PCP8+G7W, Tatahadeng, Kec. Siau Tim., Kabupaten Siau Tagulandang Biaro, Sulawesi Utara 95861","Tatahadeng, Kec. Siau Tim., Kabupaten Siau Tagulandang Biaro",SULAWESI UTARA,95861.0,Indonesia,,,,2.736204,125.41581,https://maps.google.com/?cid=0x0:0x2b334411937ee509,
komplek housing,komplek housing,Kec. Siau Tim.,"Kabupaten Siau Tagulandang Biaro, Sulawesi Utara","Kabupaten Siau Tagulandang Biaro, Sulawesi Utara",SULAWESI UTARA,,Indonesia,,,,2.7298328,125.4081734,https://maps.google.com/?cid=0x0:0xfc79e60374a67ec8,
komplek housing,Komplek perumahan,Defri Tumandung,"P9MR+XH8, Akesimbeka, Kec. Siau Tim., Kabupaten Siau Tagulandang Biaro, Sulawesi Utara 95861","Akesimbeka, Kec. Siau Tim., Kabupaten Siau Tagulandang Biaro",SULAWESI UTARA,95861.0,Indonesia,,,,2.7349096,125.3914452,https://maps.google.com/?cid=0x0:0xec2240ba5c55eb8d,
komplek housing,Komplek perumahan,Christian Home,"PC92+367, Bahu, Kec. Siau Tim., Kabupaten Siau Tagulandang Biaro, Sulawesi Utara 95861","Bahu, Kec. Siau Tim., Kabupaten Siau Tagulandang Biaro",SULAWESI UTARA,95861.0,Indonesia,,,,2.7176645,125.4005484,https://maps.google.com/?cid=0x0:0xbfbcc1e6400fc814,
komplek housing,Komplek perumahan,Fangky,"PCP2+2R6, Unnamed Road, Bebali, Kec. Siau Tim., Kabupaten Siau Tagulandang Biaro, Sulawesi Utara 95861","Unnamed Road, Bebali, Kec. Siau Tim., Kabupaten Siau Tagulandang Biaro",SULAWESI UTARA,95861.0,Indonesia,,,,2.7350483,125.4020103,https://maps.google.com/?cid=0x0:0xa830b1282a7a1bb5,
komplek housing,Komplek perumahan,Citralia Home,"QC4W+579, Kanang, Kec. Siau Tim., Kabupaten Siau Tagulandang Biaro, Sulawesi Utara 95861","Kanang, Kec. Siau Tim., Kabupaten Siau Tagulandang Biaro",SULAWESI UTARA,95861.0,Indonesia,,,,2.7554003,125.4458515,https://maps.google.com/?cid=0x0:0xc768c3cc2a2405e4,
komplek housing,Komplek perumahan,Rumah Chezter,"PCX8+XJQ, Tatahadeng, Kec. Siau Tim., Kabupaten Siau Tagulandang Biaro, Sulawesi Utara 95861","Tatahadeng, Kec. Siau Tim., Kabupaten Siau Tagulandang Biaro",SULAWESI UTARA,95861.0,Indonesia,,,,2.7499574,125.4166008,https://maps.google.com/?cid=0x0:0x200dbba39ad14d0f,
komplek housing,Komplek perumahan,Rumah Kel Bukanaung-opi,"QC4G+MFJ lindongan 2, Karalung, Kec. Siau Tim., Kabupaten Siau Tagulandang Biaro, Sulawesi Utara 95861","Karalung, Kec. Siau Tim., Kabupaten Siau Tagulandang Biaro",SULAWESI UTARA,95861.0,Indonesia,,,,2.7567204,125.4261392,https://maps.google.com/?cid=0x0:0x1c1e527e18f798e9,
komplek housing,Komplek perumahan,Bahu sondang,"PCC3+G36 Sondang, Bahu, Kec. Siau Tim., Kabupaten Siau Tagulandang Biaro, Sulawesi Utara 95861","Bahu, Kec. Siau Tim., Kabupaten Siau Tagulandang Biaro",SULAWESI UTARA,95861.0,Indonesia,,,,2.7212833,125.40264,https://maps.google.com/?cid=0x0:0x7d0b12a2ed283c19,
komplek housing,Komplek perumahan,Komp Kapenta Ulu Siau,"PCJ5+9G6, Tarorane, Kec. Siau Tim., Kabupaten Siau Tagulandang Biaro, Sulawesi Utara 95861","Tarorane, Kec. Siau Tim., Kabupaten Siau Tagulandang Biaro",SULAWESI UTARA,95861.0,Indonesia,,,,2.7308864,125.4087593,https://maps.google.com/?cid=0x0:0x1af942f23e4312c7,
komplek housing,komplek housing,Sulawesi Utara 95861,"Kec. Siau Tim., Kabupaten Siau Tagulandang Biaro, Sulawesi Utara","Kabupaten Siau Tagulandang Biaro, Sulawesi Utara",SULAWESI UTARA,,Indonesia,,,,2.7629842,125.4233987,https://maps.google.com/?cid=0x0:0x412fe64cf4eae893,
komplek housing,Komplek perumahan,Rumah wardi,"QC2V+5QM, Buise, Kec. Siau Tim., Kabupaten Siau Tagulandang Biaro, Sulawesi Utara 95861","Buise, Kec. Siau Tim., Kabupaten Siau Tagulandang Biaro",SULAWESI UTARA,95861.0,Indonesia,,,,2.7512845,125.4454062,https://maps.google.com/?cid=0x0:0xf7f330893025e303,
komplek housing,Komplek perumahan,Rumah pintar,"PCH4+HJJ, Akesimbeka, Kec. Siau Tim., Kabupaten Siau Tagulandang Biaro, Sulawesi Utara 95861","Akesimbeka, Kec. Siau Tim., Kabupaten Siau Tagulandang Biaro",SULAWESI UTARA,95861.0,Indonesia,,,,2.7288671,125.4065641,https://maps.google.com/?cid=0x0:0x76b604089fa8b89,
komplek housing,Komplek perumahan,Rumah Vhany,"PCJ6+978, Jl. Boulevard Ulusiau, Tarorane, Kabupaten Siau Tagulandang Biaro, Sulawesi Utara 95861","Jl. Boulevard Ulusiau, Tarorane, Kabupaten Siau Tagulandang Biaro",SULAWESI UTARA,95861.0,Indonesia,,,,2.7309193,125.4106957,https://maps.google.com/?cid=0x0:0x3bc73412159d647d,
komplek housing,Komplek perumahan,Komplek Pusat lehi,"P9MW+C7, Akesimbeka, Kec. Siau Tim., Kabupaten Siau Tagulandang Biaro, Sulawesi Utara","Kabupaten Siau Tagulandang Biaro, Sulawesi Utara",SULAWESI UTARA,,Indonesia,,,,2.7334992,125.395636,https://maps.google.com/?cid=0x0:0x2a9723f1ed977451,
komplek housing,Komplek perumahan,Kadiyerikuerabawole,"PCM6+7MX, Tarorane, Kec. Siau Tim., Kabupaten Siau Tagulandang Biaro, Sulawesi Utara 95861","Tarorane, Kec. Siau Tim., Kabupaten Siau Tagulandang Biaro",SULAWESI UTARA,95861.0,Indonesia,,,,2.7332331,125.4117401,https://maps.google.com/?cid=0x0:0x4382088c338eddbb,
komplek housing,Komplek perumahan,Keluarga Wagunu Bowontari,"QCPW+CMP, Deahe, Kec. Siau Tim., Kabupaten Siau Tagulandang Biaro, Sulawesi Utara 95861","Deahe, Kec. Siau Tim., Kabupaten Siau Tagulandang Biaro",SULAWESI UTARA,95861.0,Indonesia,,,,2.7860911,125.446694,https://maps.google.com/?cid=0x0:0x5bbdd51b3d34e20b,
komplek housing,Pembangunan Perumahan,Miralin home batutuide,"PCM3+625, Bebali, Kec. Siau Tim., Kabupaten Siau Tagulandang Biaro, Sulawesi Utara 95861","Bebali, Kec. Siau Tim., Kabupaten Siau Tagulandang Biaro",SULAWESI UTARA,95861.0,Indonesia,,,,2.7330164,125.4026055,https://maps.google.com/?cid=0x0:0xf25207f87b7e6e43,
komplek housing,Gedung Apartemen,KAMPUNG APELAWO,"QCRQ+FM, Deahe, Kec. Siau Tim., Kabupaten Siau Tagulandang Biaro, Sulawesi Utara 95861","Deahe, Kec. Siau Tim., Kabupaten Siau Tagulandang Biaro",SULAWESI UTARA,95861.0,Indonesia,,,,2.7915784,125.4382836,https://maps.google.com/?cid=0x0:0x25a42b17b6b03205,
komplek housing,Komplek perumahan,SUWUH FAMILY,"PCJ6+W5V, Tarorane, Kec. Siau Tim., Kabupaten Siau Tagulandang Biaro, Sulawesi Utara 95861","Tarorane, Kec. Siau Tim., Kabupaten Siau Tagulandang Biaro",SULAWESI UTARA,95861.0,Indonesia,,,,2.7323614,125.4104289,https://maps.google.com/?cid=0x0:0xeafd476bf22c61b6,
komplek housing,Komplek perumahan,Indiraâs house,"PCC3+VCH, Akesimbeka, Kec. Siau Tim., Kabupaten Siau Tagulandang Biaro, Sulawesi Utara 95861","Akesimbeka, Kec. Siau Tim., Kabupaten Siau Tagulandang Biaro",SULAWESI UTARA,95861.0,Indonesia,,,,2.7222961,125.4030317,https://maps.google.com/?cid=0x0:0x8f3ee1e69001a659,
komplek housing,Perhimpunan Pengembang Perumahan,Home keyy,"PCC2+CH4, Akesimbeka, Kec. Siau Tim., Kabupaten Siau Tagulandang Biaro, Sulawesi Utara 95861","Akesimbeka, Kec. Siau Tim., Kabupaten Siau Tagulandang Biaro",SULAWESI UTARA,95861.0,Indonesia,,,,2.7210057,125.4014636,https://maps.google.com/?cid=0x0:0x200dd616659dc4be,
komplek housing,Gedung Apartemen,My Home,"PCG3+2QQ, Lingkungan VII, Bahu, Kec. Siau Tim., Kabupaten Siau Tagulandang Biaro, Sulawesi Utara 95861","Lingkungan VII, Bahu, Kec. Siau Tim., Kabupaten Siau Tagulandang Biaro",SULAWESI UTARA,95861.0,Indonesia,,,,2.7250879,125.404471,https://maps.google.com/?cid=0x0:0x51e63e9c3c24e12a,
komplek housing,Komplek perumahan,Kel. Bawole Wilhelmus,"PCW4+JXV, Lingkungan IV, Tarorane, Kec. Siau Tim., Kabupaten Siau Tagulandang Biaro, Sulawesi Utara 95861","Lingkungan IV, Tarorane, Kec. Siau Tim., Kabupaten Siau Tagulandang Biaro",SULAWESI UTARA,95861.0,Indonesia,,,,2.7466057,125.4074369,https://maps.google.com/?cid=0x0:0xe8a557ef5850fb42,
komplek housing,Komplek perumahan,Pand's Home,"PCP8+G7W, Tatahadeng, Kec. Siau Tim., Kabupaten Siau Tagulandang Biaro, Sulawesi Utara 95861","Tatahadeng, Kec. Siau Tim., Kabupaten Siau Tagulandang Biaro",SULAWESI UTARA,95861.0,Indonesia,,,,2.736204,125.41581,https://maps.google.com/?cid=0x0:0x2b334411937ee509,
komplek housing,Komplek perumahan,Christian Home,"PC92+367, Bahu, Kec. Siau Tim., Kabupaten Siau Tagulandang Biaro, Sulawesi Utara 95861","Bahu, Kec. Siau Tim., Kabupaten Siau Tagulandang Biaro",SULAWESI UTARA,95861.0,Indonesia,,,,2.7176645,125.4005484,https://maps.google.com/?cid=0x0:0xbfbcc1e6400fc814,
komplek housing,Komplek perumahan,Pentoe,"PCV4+8H5, Tarorane, Kec. Siau Tim., Kabupaten Siau Tagulandang Biaro, Sulawesi Utara 95861","Tarorane, Kec. Siau Tim., Kabupaten Siau Tagulandang Biaro",SULAWESI UTARA,95861.0,Indonesia,,,,2.7432671,125.4064884,https://maps.google.com/?cid=0x0:0x3597ebd4dd3e834b,
komplek housing,Komplek perumahan,Citralia Home,"QC4W+579, Kanang, Kec. Siau Tim., Kabupaten Siau Tagulandang Biaro, Sulawesi Utara 95861","Kanang, Kec. Siau Tim., Kabupaten Siau Tagulandang Biaro",SULAWESI UTARA,95861.0,Indonesia,,,,2.7554003,125.4458515,https://maps.google.com/?cid=0x0:0xc768c3cc2a2405e4,
komplek housing,Komplek perumahan,Andjas Home,"PCWM+P3P, Karalung, Kec. Siau Tim., Kabupaten Siau Tagulandang Biaro, Sulawesi Utara","Kabupaten Siau Tagulandang Biaro, Sulawesi Utara",SULAWESI UTARA,,Indonesia,,,,2.7468266,125.4327124,https://maps.google.com/?cid=0x0:0x95ac93b97fe51773,
komplek housing,Komplek perumahan,Komp Kapenta Ulu Siau,"PCJ5+9G6, Tarorane, Kec. Siau Tim., Kabupaten Siau Tagulandang Biaro, Sulawesi Utara 95861","Tarorane, Kec. Siau Tim., Kabupaten Siau Tagulandang Biaro",SULAWESI UTARA,95861.0,Indonesia,,,,2.7308864,125.4087593,https://maps.google.com/?cid=0x0:0x1af942f23e4312c7,
komplek housing,komplek housing,Kec. Siau Tim. Sel.,"Kabupaten Siau Tagulandang Biaro, Sulawesi Utara","Kabupaten Siau Tagulandang Biaro, Sulawesi Utara",SULAWESI UTARA,,Indonesia,,,,2.6918038,125.3938686,https://maps.google.com/?cid=0x0:0xf6238bdf3570e28,
komplek housing,Pembangunan Perumahan,Bahu Tehu,"P97V+27X, Bahu, Kec. Siau Tim., Kabupaten Siau Tagulandang Biaro, Sulawesi Utara 95861","Bahu, Kec. Siau Tim., Kabupaten Siau Tagulandang Biaro",SULAWESI UTARA,95861.0,Indonesia,,,,2.7126089,125.3932463,https://maps.google.com/?cid=0x0:0xe84dd1ad182d4fca,
komplek housing,Pembangunan Perumahan,Rumah Afelia Tatumpe,"PC92+367, Bahu, Kec. Siau Tim., Kabupaten Siau Tagulandang Biaro, Sulawesi Utara 95861","Bahu, Kec. Siau Tim., Kabupaten Siau Tagulandang Biaro",SULAWESI UTARA,95861.0,Indonesia,,,,2.7176686,125.4005492,https://maps.google.com/?cid=0x0:0xab7cfc4735aefde5,
komplek housing,Komplek perumahan,Rumah kel.salindeho-bawone,"P95X+8Q8, Lahopang, kec sitimsel, Kabupaten Siau Tagulandang Biaro, Sulawesi Utara 95861","Lahopang, kec sitimsel, Kabupaten Siau Tagulandang Biaro",SULAWESI UTARA,95861.0,Indonesia,,,,2.7083,125.3994544,https://maps.google.com/?cid=0x0:0xc5b8c299b92d41b9,
komplek housing,Komplek perumahan,Bahu sondang,"PCC3+G36 Sondang, Bahu, Kec. Siau Tim., Kabupaten Siau Tagulandang Biaro, Sulawesi Utara 95861","Bahu, Kec. Siau Tim., Kabupaten Siau Tagulandang Biaro",SULAWESI UTARA,95861.0,Indonesia,,,,2.7212833,125.40264,https://maps.google.com/?cid=0x0:0x7d0b12a2ed283c19,
komplek housing,Komplek perumahan,Lorong Rompong Lahopang,"P95X+XHJ, Bahu, Kec. Siau Tim., Kabupaten Siau Tagulandang Biaro, Sulawesi Utara 95861","Bahu, Kec. Siau Tim., Kabupaten Siau Tagulandang Biaro",SULAWESI UTARA,95861.0,Indonesia,,,,2.7100011,125.3988208,https://maps.google.com/?cid=0x0:0x523ba59c582eb08c,
komplek housing,Komplek perumahan,Valentino Diamanti Home,"PC62+W3J, Bahu, Kec. Siau Tim., Kabupaten Siau Tagulandang Biaro, Sulawesi Utara 95861","Bahu, Kec. Siau Tim., Kabupaten Siau Tagulandang Biaro",SULAWESI UTARA,95861.0,Indonesia,,,,2.7123303,125.4001282,https://maps.google.com/?cid=0x0:0x6020602754d6b4ab,
komplek housing,Pembangunan Perumahan,Jorfan unsong,"PCC2+GFC, Akesimbeka, Kec. Siau Tim., Kabupaten Siau Tagulandang Biaro, Sulawesi Utara 95861","Akesimbeka, Kec. Siau Tim., Kabupaten Siau Tagulandang Biaro",SULAWESI UTARA,95861.0,Indonesia,,,,2.7213101,125.4011283,https://maps.google.com/?cid=0x0:0x2dcb6dd234f76502,
komplek housing,komplek housing,Kec. Tagulandang,"Kabupaten Siau Tagulandang Biaro, Sulawesi Utara","Kabupaten Siau Tagulandang Biaro, Sulawesi Utara",SULAWESI UTARA,,Indonesia,,,,2.3461009,125.3780692,https://maps.google.com/?cid=0x0:0x209bd6bf153ba2f,
komplek housing,Pembangunan Perumahan,Perumahan Wahana Srimukti,"Srimukti, Kec. Tambun Utara, Kabupaten Bekasi, Jawa Barat 17510","Kec. Tambun Utara, Kabupaten Bekasi",SULAWESI UTARA,17510.0,Indonesia,89655979719.0,,,-6.1643577,107.0601001,https://maps.google.com/?cid=0x0:0x52b4bad9cf43dc4d,
komplek housing,Pembangunan Perumahan,Perumahan Kota Serang Baru,"Jl. Apel VI No.9, Sukaragam, Kec. Serang Baru, Kabupaten Bekasi, Jawa Barat 17330","Sukaragam, Kec. Serang Baru, Kabupaten Bekasi",SULAWESI UTARA,17330.0,Indonesia,,,,-6.3966303,107.1144077,https://maps.google.com/?cid=0x0:0x95158fcc56ffcc00,
komplek housing,komplek housing,Kec. Tagulandang Sel.,"Kabupaten Siau Tagulandang Biaro, Sulawesi Utara","Kabupaten Siau Tagulandang Biaro, Sulawesi Utara",SULAWESI UTARA,,Indonesia,,,,2.3182823,125.4355499,https://maps.google.com/?cid=0x0:0x4ac91ac814e7666a,
komplek housing,Komplek perumahan,Perumahan Tiga Berlian,"8VF3+7V5, Paslaten Satu, Tatapaan, Kabupaten Minahasa Selatan, Sulawesi Utara","Kabupaten Minahasa Selatan, Sulawesi Utara",SULAWESI UTARA,,Indonesia,85298797832.0,,,1.3231343,124.8547331,https://maps.google.com/?cid=0x0:0xb424d39313e96126,
komplek housing,Komplek perumahan,Ekel home,"8CF3+294, Tulusan, Kec. Tagulandang, Kabupaten Siau Tagulandang Biaro, Sulawesi Utara","Kabupaten Siau Tagulandang Biaro, Sulawesi Utara",SULAWESI UTARA,,Indonesia,,,,2.3225205,125.4034591,https://maps.google.com/?cid=0x0:0x277bab813387919c,
komplek housing,komplek housing,Kec. Tagulandang Utara,"Kabupaten Siau Tagulandang Biaro, Sulawesi Utara","Kabupaten Siau Tagulandang Biaro, Sulawesi Utara",SULAWESI UTARA,,Indonesia,,,,2.3482186,125.4232499,https://maps.google.com/?cid=0x0:0x92479453b06a48b4,
komplek housing,Komplek perumahan,Ekel home,"8CF3+294, Tulusan, Kec. Tagulandang, Kabupaten Siau Tagulandang Biaro, Sulawesi Utara","Kabupaten Siau Tagulandang Biaro, Sulawesi Utara",SULAWESI UTARA,,Indonesia,,,,2.3225205,125.4034591,https://maps.google.com/?cid=0x0:0x277bab813387919c,
komplek housing,Komplek perumahan,Sulawesi utara,"89WH+C6W, Balehumara, Kec. Tagulandang, Kabupaten Siau Tagulandang Biaro, Sulawesi Utara","Kabupaten Siau Tagulandang Biaro, Sulawesi Utara",SULAWESI UTARA,,Indonesia,,,,2.3461213,125.3780896,https://maps.google.com/?cid=0x0:0x153a951948a1db75,
perumahan,perumahan,Kec. Biaro,"Kabupaten Siau Tagulandang Biaro, Sulawesi Utara","Kabupaten Siau Tagulandang Biaro, Sulawesi Utara",SULAWESI UTARA,,Indonesia,,,,2.1188553,125.3626891,https://maps.google.com/?cid=0x0:0x4030bfbcaf78990,
perumahan,Pembangunan Perumahan,Perum mbuhanga,"499G+Q92, Lamanggo, Kec. Biaro, Kabupaten Siau Tagulandang Biaro, Sulawesi Utara","Kabupaten Siau Tagulandang Biaro, Sulawesi Utara",SULAWESI UTARA,,Indonesia,,,,2.1193786,125.3758874,https://maps.google.com/?cid=0x0:0x3d47fc7d8d25d152,
perumahan,Komplek perumahan,Totty p rumah,"38JR+3MV, Buang, Kec. Biaro, Kabupaten Siau Tagulandang Biaro, Sulawesi Utara","Kabupaten Siau Tagulandang Biaro, Sulawesi Utara",SULAWESI UTARA,,Indonesia,,,,2.0802336,125.3416869,https://maps.google.com/?cid=0x0:0x75dcbf5321a9c7df,
perumahan,Komplek perumahan,Rumah Nariska ^^,"38JR+3HF, Buang, Kec. Biaro, Kabupaten Siau Tagulandang Biaro, Sulawesi Utara","Kabupaten Siau Tagulandang Biaro, Sulawesi Utara",SULAWESI UTARA,,Indonesia,,,,2.0801847,125.3413704,https://maps.google.com/?cid=0x0:0x6bf652abd9e27c78,
perumahan,Komplek perumahan,Firly home,"38HR+MRV, Buang, Kec. Biaro, Kabupaten Siau Tagulandang Biaro, Sulawesi Utara","Kabupaten Siau Tagulandang Biaro, Sulawesi Utara",SULAWESI UTARA,,Indonesia,,,,2.0792278,125.3420604,https://maps.google.com/?cid=0x0:0x8d22ddaa08eec25f,
perumahan,Komplek perumahan,Rumah tio,"498X+JRH, Karungo, Kec. Biaro, Kabupaten Siau Tagulandang Biaro, Sulawesi Utara","Kabupaten Siau Tagulandang Biaro, Sulawesi Utara",SULAWESI UTARA,,Indonesia,,,,2.1165568,125.3995967,https://maps.google.com/?cid=0x0:0x81ec256dbb8fec77,
perumahan,Komplek perumahan,Family M and A,"4C92+WHH, Karungo, Kec. Biaro, Kabupaten Siau Tagulandang Biaro, Sulawesi Utara","Kabupaten Siau Tagulandang Biaro, Sulawesi Utara",SULAWESI UTARA,,Indonesia,,,,2.1198226,125.4014988,https://maps.google.com/?cid=0x0:0x5f29ccad47e12687,
perumahan,Komplek perumahan,Rumah nando,"38JR+R96, Buang, Kec. Biaro, Kabupaten Siau Tagulandang Biaro, Sulawesi Utara","Kabupaten Siau Tagulandang Biaro, Sulawesi Utara",SULAWESI UTARA,,Indonesia,,,,2.0819693,125.3408836,https://maps.google.com/?cid=0x0:0xa6fde3b2b169ab2,
perumahan,Perumahan,Rumah Anthon tulak,"38JX+QPQ dusun rantebone, Buang, Kec. Biaro, Kabupaten Siau Tagulandang Biaro, Sulawesi Utara","Kabupaten Siau Tagulandang Biaro, Sulawesi Utara",SULAWESI UTARA,,Indonesia,,,,2.0819631,125.3493685,https://maps.google.com/?cid=0x0:0x1183dee4baa04370,
perumahan,Komplek perumahan,Feryanto Home,"49H7+558, Lamanggo, Kec. Biaro, Kabupaten Siau Tagulandang Biaro, Sulawesi Utara","Kabupaten Siau Tagulandang Biaro, Sulawesi Utara",SULAWESI UTARA,,Indonesia,,,,2.1279199,125.362938,https://maps.google.com/?cid=0x0:0xde26bb712531a9f8,
perumahan,Komplek perumahan,Missholy's home,"Kampung Buang,kecamatan Biaro,Lindongan 2, Kabupaten Siau Tagulandang Biaro, Sulawesi Utara 95863",Kabupaten Siau Tagulandang Biaro,SULAWESI UTARA,95863.0,Indonesia,81340670442.0,,,2.0786554,125.3419891,https://maps.google.com/?cid=0x0:0xc5956458fb651d2,
perumahan,Komplek perumahan,Rumah Keluarga-Tahulending Lontoh,"497P+CC2, Dalinsaheng, Kec. Biaro, Kabupaten Siau Tagulandang Biaro, Sulawesi Utara","Kabupaten Siau Tagulandang Biaro, Sulawesi Utara",SULAWESI UTARA,,Indonesia,,,,2.1135153,125.38601,https://maps.google.com/?cid=0x0:0xe02ce1d1eaf9d1e9,
perumahan,Perhimpunan Pengembang Perumahan,Rendy Home,"38JR+F98, Buang, Kec. Biaro, Kabupaten Siau Tagulandang Biaro, Sulawesi Utara","Kabupaten Siau Tagulandang Biaro, Sulawesi Utara",SULAWESI UTARA,,Indonesia,,,,2.0811673,125.3410039,https://maps.google.com/?cid=0x0:0x1886d5ce41117cb6,
perumahan,Perumahan,Aditya Thomas,"38VW+9VR, Tope, Kec. Biaro, Kabupaten Siau Tagulandang Biaro, Sulawesi Utara","Kabupaten Siau Tagulandang Biaro, Sulawesi Utara",SULAWESI UTARA,,Indonesia,,,,2.093946,125.3466661,https://maps.google.com/?cid=0x0:0x671dac108e8308fb,
perumahan,Komplek perumahan,Virginia home,"498X+MXH, Karungo, Kec. Biaro, Kabupaten Siau Tagulandang Biaro, Sulawesi Utara","Kabupaten Siau Tagulandang Biaro, Sulawesi Utara",SULAWESI UTARA,,Indonesia,,,,2.1166889,125.3999897,https://maps.google.com/?cid=0x0:0xb89e1f99a18d47e0,
perumahan,Komplek perumahan,Marcella S,"49G7+53R, Lamanggo, Kec. Biaro, Kabupaten Siau Tagulandang Biaro, Sulawesi Utara","Kabupaten Siau Tagulandang Biaro, Sulawesi Utara",SULAWESI UTARA,,Indonesia,,,,2.1252512,125.3619255,https://maps.google.com/?cid=0x0:0x33809b5f1226c0f2,
perumahan,Komplek perumahan,Rumah Keluarga Katimpali Tompoh,"498P+85M, Dalinsaheng, Kec. Biaro, Kabupaten Siau Tagulandang Biaro, Sulawesi Utara","Kabupaten Siau Tagulandang Biaro, Sulawesi Utara",SULAWESI UTARA,,Indonesia,,,,2.1162381,125.3848527,https://maps.google.com/?cid=0x0:0x13c4379246c79b43,
perumahan,Komplek perumahan,Emiana home,"38JR+PHC, Buang, Kec. Biaro, Kabupaten Siau Tagulandang Biaro, Sulawesi Utara","Kabupaten Siau Tagulandang Biaro, Sulawesi Utara",SULAWESI UTARA,,Indonesia,,,,2.0818107,125.3413793,https://maps.google.com/?cid=0x0:0xa8119512523fc158,
perumahan,Komplek perumahan,Adebrenda's house,"38JR+3X6, Buang, Kec. Biaro, Kabupaten Siau Tagulandang Biaro, Sulawesi Utara","Kabupaten Siau Tagulandang Biaro, Sulawesi Utara",SULAWESI UTARA,,Indonesia,,,,2.0801127,125.3426934,https://maps.google.com/?cid=0x0:0x2513db37b2ff3cca,
perumahan,Komplek perumahan,Home Clau,"39XF+RJ3, pulau, Kec. Biaro, Kabupaten Siau Tagulandang Biaro, Sulawesi Utara","Kabupaten Siau Tagulandang Biaro, Sulawesi Utara",SULAWESI UTARA,,Indonesia,,,,2.0995244,125.3740526,https://maps.google.com/?cid=0x0:0xf119fb10a1bc7b38,
perumahan,Pembangunan Perumahan,JACOBS - MAITUM,"4996+JHP, Lamanggo, Kec. Biaro, Kabupaten Siau Tagulandang Biaro, Sulawesi Utara","Kabupaten Siau Tagulandang Biaro, Sulawesi Utara",SULAWESI UTARA,,Indonesia,,,,2.119917,125.3612975,https://maps.google.com/?cid=0x0:0xfc79943ad3c0c989,
perumahan,Otoritas Perumahan,Bekasi Green City,"R3J3+F86, Sriamur, Kec. Tambun Utara, Kabupaten Bekasi, Jawa Barat 17510","Sriamur, Kec. Tambun Utara, Kabupaten Bekasi",SULAWESI UTARA,17510.0,Indonesia,,,,-6.1688317,107.0532703,https://maps.google.com/?cid=0x0:0xf6c2db8f67f85249,
perumahan,Kafe,Perumahan Alam Raya,"VM5C+7XR, Unnamed Road, RT.003/RW.010, Belendung, Benda, Tangerang City, Banten 15123","Unnamed Road, RT.003/RW.010, Belendung, Benda, Tangerang City",SULAWESI UTARA,15123.0,Indonesia,,,,-6.1417739,106.672394,https://maps.google.com/?cid=0x0:0x1d31de23feb5e950,
perumahan,Komplek perumahan,Kompleks perumahan bebali 1,"PCM2+XJ6, Unnamed Road, Bebali, Kec. Siau Tim., Kabupaten Siau Tagulandang Biaro, Sulawesi Utara 95861","Unnamed Road, Bebali, Kec. Siau Tim., Kabupaten Siau Tagulandang Biaro",SULAWESI UTARA,95861.0,Indonesia,85240043712.0,,,2.7349214,125.4015104,https://maps.google.com/?cid=0x0:0x24cad4c399ae060f,
perumahan,Komplek perumahan,GREEN NINE VILLAGE,"Jl Raya Babakan Tenjo Kp Boja, Babakan, Kec. Tenjo, Kabupaten Bogor, Jawa Barat","Kabupaten Bogor, Jawa Barat",SULAWESI UTARA,,Indonesia,81286676749.0,,,-6.3568125,106.4886875,https://maps.google.com/?cid=0x0:0x8cc4e01d9f55e679,
perumahan,perumahan,Siau Bar.,"Kabupaten Siau Tagulandang Biaro, Sulawesi Utara","Kabupaten Siau Tagulandang Biaro, Sulawesi Utara",SULAWESI UTARA,,Indonesia,,,,2.711198,125.3740526,https://maps.google.com/?cid=0x0:0xac02e56a08821622,
perumahan,Komplek perumahan,HK HOME,"M9W9+46, Paseng, Siau Bar., Kabupaten Siau Tagulandang Biaro, Sulawesi Utara","Kabupaten Siau Tagulandang Biaro, Sulawesi Utara",SULAWESI UTARA,,Indonesia,,,,2.6956081,125.3670233,https://maps.google.com/?cid=0x0:0xfafded432060a4c6,
perumahan,Perhimpunan Pengembang Perumahan,Perumahan ASN paseng Siau,"P9J6+2WR, Pehe, Siau Bar., Kabupaten Siau Tagulandang Biaro, Sulawesi Utara","Kabupaten Siau Tagulandang Biaro, Sulawesi Utara",SULAWESI UTARA,,Indonesia,,,,2.7301049,125.3622668,https://maps.google.com/?cid=0x0:0x36e98556fd14b1aa,
perumahan,Komplek perumahan,Paniki Lorong Svngkt,"P9R5+PX9, Kanawong, Siau Bar., Kabupaten Siau Tagulandang Biaro, Sulawesi Utara","Kabupaten Siau Tagulandang Biaro, Sulawesi Utara",SULAWESI UTARA,,Indonesia,,,,2.7418447,125.3600659,https://maps.google.com/?cid=0x0:0xce6c9904247f1c73,
perumahan,Rumah Berhantu,Peliang city,"P9RQ+894, Bebali, Kec. Siau Tim., Kabupaten Siau Tagulandang Biaro, Sulawesi Utara","Kabupaten Siau Tagulandang Biaro, Sulawesi Utara",SULAWESI UTARA,,Indonesia,,,,2.7407625,125.3884531,https://maps.google.com/?cid=0x0:0xaa7e7068a761f923,
perumahan,Pembangunan Perumahan,Rumah Olan,"P9R6+MJW, Paniki, Siau Bar., Kabupaten Siau Tagulandang Biaro, Sulawesi Utara","Kabupaten Siau Tagulandang Biaro, Sulawesi Utara",SULAWESI UTARA,,Indonesia,,,,2.741749,125.3615841,https://maps.google.com/?cid=0x0:0x697935c54a2053a3,
perumahan,Komplek perumahan,Rumah chache paniki,"P9Q6+67J, Paniki, Siau Bar., Kabupaten Siau Tagulandang Biaro, Sulawesi Utara","Kabupaten Siau Tagulandang Biaro, Sulawesi Utara",SULAWESI UTARA,,Indonesia,,,,2.7381038,125.3606804,https://maps.google.com/?cid=0x0:0x97ac8adfe3910257,
perumahan,Perhimpunan Pengembang Perumahan,Gevariel,"M9VV+W6J, Binalu, Kec. Siau Tim. Sel., Kabupaten Siau Tagulandang Biaro, Sulawesi Utara 95867","Binalu, Kec. Siau Tim. Sel., Kabupaten Siau Tagulandang Biaro",SULAWESI UTARA,95867.0,Indonesia,,,,2.6948351,125.3930106,https://maps.google.com/?cid=0x0:0xf91e82c4d3d78207,
perumahan,perumahan,Home sifra,"M96H+69R, Batusenggo, Kec. Siau Bar. Sel., Kabupaten Siau Tagulandang Biaro, Sulawesi Utara","Kabupaten Siau Tagulandang Biaro, Sulawesi Utara",SULAWESI UTARA,,Indonesia,,,,2.6606188,125.3783312,https://maps.google.com/?cid=0x0:0x32b2010ddb467df8,
perumahan,Komplek perumahan,Rumah Luchen,"P9R5+VQG, Kanawong, Siau Bar., Kabupaten Siau Tagulandang Biaro, Sulawesi Utara","Kabupaten Siau Tagulandang Biaro, Sulawesi Utara",SULAWESI UTARA,,Indonesia,,,,2.7421865,125.3594679,https://maps.google.com/?cid=0x0:0xa953796aab9e3f0,
perumahan,Perhimpunan Pengembang Perumahan,Gillbriano Tumandung,"P957+V8, Paniki, Siau Bar., Kabupaten Siau Tagulandang Biaro, Sulawesi Utara","Kabupaten Siau Tagulandang Biaro, Sulawesi Utara",SULAWESI UTARA,,Indonesia,,,,2.7088103,125.3642043,https://maps.google.com/?cid=0x0:0xe2062559ec183cbf,
perumahan,Komplek perumahan,Rumah. Fiones kareho,"P947+PFX, Peling, Siau Bar., Kabupaten Siau Tagulandang Biaro, Sulawesi Utara","Kabupaten Siau Tagulandang Biaro, Sulawesi Utara",SULAWESI UTARA,,Indonesia,,,,2.7072768,125.3630487,https://maps.google.com/?cid=0x0:0x213aa4f7e61e99b1,
perumahan,Komplek perumahan,QueeN BeNgKeL,"P9QH+9HQ, Lai, Kec. Siau Tengah, Kabupaten Siau Tagulandang Biaro, Sulawesi Utara","Kabupaten Siau Tagulandang Biaro, Sulawesi Utara",SULAWESI UTARA,,Indonesia,,,,2.7384113,125.3789479,https://maps.google.com/?cid=0x0:0xd3118aadb5798278,
perumahan,Perumahan,Wesly home,"M9PC+4QW, Laghaeng, Kec. Siau Bar. Sel., Kabupaten Siau Tagulandang Biaro, Sulawesi Utara","Kabupaten Siau Tagulandang Biaro, Sulawesi Utara",SULAWESI UTARA,,Indonesia,,,,2.6853686,125.3719607,https://maps.google.com/?cid=0x0:0xbfc2a3a65a17462,
perumahan,Perumahan,Glend Tamasengge,"P947+PJ8, Peling, Siau Bar., Kabupaten Siau Tagulandang Biaro, Sulawesi Utara","Kabupaten Siau Tagulandang Biaro, Sulawesi Utara",SULAWESI UTARA,,Indonesia,,,,2.7068317,125.3641782,https://maps.google.com/?cid=0x0:0x9cf6ce127e354d23,
perumahan,Komplek perumahan,Home Yolice Umbur,"P947+PJ8, Peling, Siau Bar., Kabupaten Siau Tagulandang Biaro, Sulawesi Utara","Kabupaten Siau Tagulandang Biaro, Sulawesi Utara",SULAWESI UTARA,,Indonesia,,,,2.7062701,125.364403,https://maps.google.com/?cid=0x0:0x7b3500f07858d3b2,
perumahan,Gedung Apartemen,Kampung pehe,"P9M8+J8P, Pehe, Siau Bar., Kabupaten Siau Tagulandang Biaro, Sulawesi Utara","Kabupaten Siau Tagulandang Biaro, Sulawesi Utara",SULAWESI UTARA,,Indonesia,,,,2.7340914,125.3658254,https://maps.google.com/?cid=0x0:0x96cf41e4107665d7,
perumahan,Komplek perumahan,Rumah pintar,"PCH4+HJJ, Akesimbeka, Kec. Siau Tim., Kabupaten Siau Tagulandang Biaro, Sulawesi Utara 95861","Akesimbeka, Kec. Siau Tim., Kabupaten Siau Tagulandang Biaro",SULAWESI UTARA,95861.0,Indonesia,,,,2.7288671,125.4065641,https://maps.google.com/?cid=0x0:0x76b604089fa8b89,
perumahan,Komplek perumahan,Pangulimang-Sambuaga,"P9F6+F2H, Paseng, Siau Bar., Kabupaten Siau Tagulandang Biaro, Sulawesi Utara","Kabupaten Siau Tagulandang Biaro, Sulawesi Utara",SULAWESI UTARA,,Indonesia,,,,2.7236825,125.3601093,https://maps.google.com/?cid=0x0:0xf4d5a509d531294a,
perumahan,Pembangunan Perumahan,Bowongake paniki siau,"P9QC+GQW, Pehe, Siau Bar., Kabupaten Siau Tagulandang Biaro, Sulawesi Utara","Kabupaten Siau Tagulandang Biaro, Sulawesi Utara",SULAWESI UTARA,,Indonesia,,,,2.7388607,125.3719532,https://maps.google.com/?cid=0x0:0x72f02e1838e685c0,
perumahan,Komplek perumahan,Baru,"Q958+F9, Lehi, Siau Bar., Kabupaten Siau Tagulandang Biaro, Sulawesi Utara","Kabupaten Siau Tagulandang Biaro, Sulawesi Utara",SULAWESI UTARA,,Indonesia,,,,2.7586533,125.365971,https://maps.google.com/?cid=0x0:0xe90c860c05022866,
perumahan,Komplek perumahan,Keluarga Pasumah-Bawekes,"P9F5+PVX, Jl. Raja Winsulangi, Ondong, Siau Bar., Kabupaten Siau Tagulandang Biaro, Sulawesi Utara","Kabupaten Siau Tagulandang Biaro, Sulawesi Utara",SULAWESI UTARA,,Indonesia,,,,2.724375,125.3597304,https://maps.google.com/?cid=0x0:0x7aa6d8715dac7b3f,
perumahan,perumahan,Kec. Siau Bar. Sel.,"Kabupaten Siau Tagulandang Biaro, Sulawesi Utara","Kabupaten Siau Tagulandang Biaro, Sulawesi Utara",SULAWESI UTARA,,Indonesia,,,,2.651579,125.3799805,https://maps.google.com/?cid=0x0:0x1e513a8f3f02fcd1,
perumahan,perumahan,Home sifra,"M96H+69R, Batusenggo, Kec. Siau Bar. Sel., Kabupaten Siau Tagulandang Biaro, Sulawesi Utara","Kabupaten Siau Tagulandang Biaro, Sulawesi Utara",SULAWESI UTARA,,Indonesia,,,,2.6606188,125.3783312,https://maps.google.com/?cid=0x0:0x32b2010ddb467df8,
perumahan,Pembangunan Perumahan,WawoTahupiah home,"M9CF+2H9, Batusenggo, Kec. Siau Bar. Sel., Kabupaten Siau Tagulandang Biaro, Sulawesi Utara","Kabupaten Siau Tagulandang Biaro, Sulawesi Utara",SULAWESI UTARA,,Indonesia,,,,2.6700673,125.37346,https://maps.google.com/?cid=0x0:0x7ba17d5ac0a77e02,
perumahan,Komplek perumahan,Rumah Cici xia,"M92P+H37, Mahuneni, Kec. Siau Bar. Sel., Kabupaten Siau Tagulandang Biaro, Sulawesi Utara","Kabupaten Siau Tagulandang Biaro, Sulawesi Utara",SULAWESI UTARA,,Indonesia,,,,2.651416,125.385173,https://maps.google.com/?cid=0x0:0x6a7a523f72221c62,
perumahan,Komplek perumahan,Gistara House,"M95H+6M2, Talawid, Kec. Siau Bar. Sel., Kabupaten Siau Tagulandang Biaro, Sulawesi Utara","Kabupaten Siau Tagulandang Biaro, Sulawesi Utara",SULAWESI UTARA,,Indonesia,,,,2.6583319,125.379265,https://maps.google.com/?cid=0x0:0xcc89a05aba495c88,
perumahan,perumahan,Home Kandoli,"M96G+WX2, Batusenggo, Kec. Siau Bar. Sel., Kabupaten Siau Tagulandang Biaro, Sulawesi Utara","Kabupaten Siau Tagulandang Biaro, Sulawesi Utara",SULAWESI UTARA,,Indonesia,,,,2.6622739,125.3773752,https://maps.google.com/?cid=0x0:0xb2ee22805fef3ccb,
perumahan,Komplek perumahan,Laghaeng Siau Barat Selatan,"M9HF+XPJ, Laghaeng, Kec. Siau Bar. Sel., Kabupaten Siau Tagulandang Biaro, Sulawesi Utara","Kabupaten Siau Tagulandang Biaro, Sulawesi Utara",SULAWESI UTARA,,Indonesia,,,,2.6799529,125.3742603,https://maps.google.com/?cid=0x0:0xca70c1fdabc7f55c,
perumahan,Perumahan,Hegi project,"M93J+9V5, Talawid, Kec. Siau Bar. Sel., Kabupaten Siau Tagulandang Biaro, Sulawesi Utara","Kabupaten Siau Tagulandang Biaro, Sulawesi Utara",SULAWESI UTARA,,Indonesia,,,,2.6533842,125.3822271,https://maps.google.com/?cid=0x0:0xffd6e92b8780e030,
perumahan,Komplek perumahan,Lorong Filadelfia,"J9RW+JW6, Kapeta, Kec. Siau Bar. Sel., Kabupaten Siau Tagulandang Biaro, Sulawesi Utara","Kabupaten Siau Tagulandang Biaro, Sulawesi Utara",SULAWESI UTARA,,Indonesia,,,,2.6415407,125.3972714,https://maps.google.com/?cid=0x0:0x394c0d8672e7e87c,
perumahan,Komplek perumahan,Inke's Home,"J9RV+9VP, Kapeta, Kec. Siau Bar. Sel., Kabupaten Siau Tagulandang Biaro, Sulawesi Utara","Kabupaten Siau Tagulandang Biaro, Sulawesi Utara",SULAWESI UTARA,,Indonesia,,,,2.6409695,125.3947138,https://maps.google.com/?cid=0x0:0xbb7529e9a5d7f4db,
perumahan,Perumahan,Wesly home,"M9PC+4QW, Laghaeng, Kec. Siau Bar. Sel., Kabupaten Siau Tagulandang Biaro, Sulawesi Utara","Kabupaten Siau Tagulandang Biaro, Sulawesi Utara",SULAWESI UTARA,,Indonesia,,,,2.6853686,125.3719607,https://maps.google.com/?cid=0x0:0xbfc2a3a65a17462,
perumahan,Komplek perumahan,Rumah EURA,"J9RR+JHM, Kapeta, Kec. Siau Bar. Sel., Kabupaten Siau Tagulandang Biaro, Sulawesi Utara","Kabupaten Siau Tagulandang Biaro, Sulawesi Utara",SULAWESI UTARA,,Indonesia,,,,2.6415978,125.3914204,https://maps.google.com/?cid=0x0:0x8fdd15867ea3514f,
perumahan,Komplek perumahan,Talawid Tua Siau,"M95H+6M2, Talawid, Kec. Siau Bar. Sel., Kabupaten Siau Tagulandang Biaro, Sulawesi Utara","Kabupaten Siau Tagulandang Biaro, Sulawesi Utara",SULAWESI UTARA,,Indonesia,,,,2.6580083,125.3791335,https://maps.google.com/?cid=0x0:0x740f1ed1a167777a,
perumahan,Komplek perumahan,keleluarga Togas Tatengkeng Lahope,"M99F+J9C, Batusenggo, Kec. Siau Bar. Sel., Kabupaten Siau Tagulandang Biaro, Sulawesi Utara","Kabupaten Siau Tagulandang Biaro, Sulawesi Utara",SULAWESI UTARA,,Indonesia,,,,2.6681505,125.373521,https://maps.google.com/?cid=0x0:0xe1b4d3903b53640d,
perumahan,Komplek perumahan,Rumah Ko Ta  Ci Tel (Bawole Kantor),"M93J+73R, Unnamed Road, Mahuneni, Kec. Siau Bar. Sel., Kabupaten Siau Tagulandang Biaro, Sulawesi Utara","Kabupaten Siau Tagulandang Biaro, Sulawesi Utara",SULAWESI UTARA,,Indonesia,,,,2.6531865,125.3801583,https://maps.google.com/?cid=0x0:0xe962a5e0dad70c8f,
perumahan,Perhimpunan Pengembang Perumahan,Rumah setan,"J9XM+72, Mahuneni, Kec. Siau Bar. Sel., Kabupaten Siau Tagulandang Biaro, Sulawesi Utara","Kabupaten Siau Tagulandang Biaro, Sulawesi Utara",SULAWESI UTARA,,Indonesia,,,,2.6486334,125.3825912,https://maps.google.com/?cid=0x0:0xac108d85fba111ea,
perumahan,Komplek perumahan,Rumah Oma Garuda,"M92J+J27, Talawid, Kec. Siau Bar. Sel., Kabupaten Siau Tagulandang Biaro, Sulawesi Utara","Kabupaten Siau Tagulandang Biaro, Sulawesi Utara",SULAWESI UTARA,,Indonesia,,,,2.6515418,125.380037,https://maps.google.com/?cid=0x0:0xe12071a1f638b094,
perumahan,Komplek perumahan,Kampung mahuneni,"M93J+F3M, Mahuneni, Kec. Siau Bar. Sel., Kabupaten Siau Tagulandang Biaro, Sulawesi Utara","Kabupaten Siau Tagulandang Biaro, Sulawesi Utara",SULAWESI UTARA,,Indonesia,,,,2.6537081,125.3801829,https://maps.google.com/?cid=0x0:0x5f4f6d2fe455bc9d,
perumahan,Komplek perumahan,Rumah eirene,"M9JR+7J7, Bandil, Kec. Siau Tim. Sel., Kabupaten Siau Tagulandang Biaro, Sulawesi Utara 95867","Bandil, Kec. Siau Tim. Sel., Kabupaten Siau Tagulandang Biaro",SULAWESI UTARA,95867.0,Indonesia,,,,2.68028,125.391291,https://maps.google.com/?cid=0x0:0xd1749e376e218ed,
perumahan,Gedung Apartemen,Rumah Ungke Mitro (GEGANA),"M93J+F3M, Mahuneni, Kec. Siau Bar. Sel., Kabupaten Siau Tagulandang Biaro, Sulawesi Utara","Kabupaten Siau Tagulandang Biaro, Sulawesi Utara",SULAWESI UTARA,,Indonesia,,,,2.6536681,125.380176,https://maps.google.com/?cid=0x0:0xdfa4cfb1ccdd82a9,
perumahan,Komplek perumahan,Charles kaumbur home,"JCP3+85F, Tanaki, Kec. Siau Bar. Sel., Kabupaten Siau Tagulandang Biaro, Sulawesi Utara","Kabupaten Siau Tagulandang Biaro, Sulawesi Utara",SULAWESI UTARA,,Indonesia,,,,2.635946,125.403546,https://maps.google.com/?cid=0x0:0x42c71a4fab75da72,
perumahan,Komplek perumahan,Thiara Home,"J9RW+JW6, Kapeta, Kec. Siau Bar. Sel., Kabupaten Siau Tagulandang Biaro, Sulawesi Utara","Kabupaten Siau Tagulandang Biaro, Sulawesi Utara",SULAWESI UTARA,,Indonesia,,,,2.6416808,125.3971828,https://maps.google.com/?cid=0x0:0x9d5498b323dba5b2,
perumahan,perumahan,Kec. Siau Bar. Utara,"Kabupaten Siau Tagulandang Biaro, Sulawesi Utara","Kabupaten Siau Tagulandang Biaro, Sulawesi Utara",SULAWESI UTARA,,Indonesia,,,,2.7946041,125.3748009,https://maps.google.com/?cid=0x0:0xdc5dff2e803e091d,
perumahan,Pembangunan Perumahan,Adhitya Pangumpia Home,"Q9FC+9XR, Kiawang, Kec. Siau Bar. Utara, Kabupaten Siau Tagulandang Biaro, Sulawesi Utara","Kabupaten Siau Tagulandang Biaro, Sulawesi Utara",SULAWESI UTARA,,Indonesia,,,,2.7734868,125.3723811,https://maps.google.com/?cid=0x0:0xb76d31b1a63bfbb6,
perumahan,Komplek perumahan,SIAU BAKUSEDU home base,"Beong, Kec. Siau Tengah, Kabupaten Siau Tagulandang Biaro, Sulawesi Utara 95862","Kec. Siau Tengah, Kabupaten Siau Tagulandang Biaro",SULAWESI UTARA,95862.0,Indonesia,,,,2.7482157,125.3793374,https://maps.google.com/?cid=0x0:0xfee292559992ad3,
perumahan,Komplek perumahan,Aksa  Azel,"Q94J+FXX, Dompase, Kec. Siau Tengah, Kabupaten Siau Tagulandang Biaro, Sulawesi Utara","Kabupaten Siau Tagulandang Biaro, Sulawesi Utara",SULAWESI UTARA,,Indonesia,,,,2.7562271,125.3824833,https://maps.google.com/?cid=0x0:0xe411128ef621ce73,
perumahan,Rumah Berhantu,Peliang city,"P9RQ+894, Bebali, Kec. Siau Tim., Kabupaten Siau Tagulandang Biaro, Sulawesi Utara","Kabupaten Siau Tagulandang Biaro, Sulawesi Utara",SULAWESI UTARA,,Indonesia,,,,2.7407625,125.3884531,https://maps.google.com/?cid=0x0:0xaa7e7068a761f923,
perumahan,Komplek perumahan,Bahu,"Q9FH+VJ7, Kiawang, Kec. Siau Bar. Utara, Kabupaten Siau Tagulandang Biaro, Sulawesi Utara","Kabupaten Siau Tagulandang Biaro, Sulawesi Utara",SULAWESI UTARA,,Indonesia,,,,2.7746646,125.3790564,https://maps.google.com/?cid=0x0:0xdc3c239a99e5c46d,
perumahan,Komplek perumahan,Ibu S Salikode,"Q928+WH3, Pehe, Siau Bar., Kabupaten Siau Tagulandang Biaro, Sulawesi Utara","Kabupaten Siau Tagulandang Biaro, Sulawesi Utara",SULAWESI UTARA,,Indonesia,,,,2.752268,125.3664091,https://maps.google.com/?cid=0x0:0xab417d6994c91511,
perumahan,Komplek perumahan,Baru,"Q958+F9, Lehi, Siau Bar., Kabupaten Siau Tagulandang Biaro, Sulawesi Utara","Kabupaten Siau Tagulandang Biaro, Sulawesi Utara",SULAWESI UTARA,,Indonesia,,,,2.7586533,125.365971,https://maps.google.com/?cid=0x0:0xe90c860c05022866,
perumahan,Pembangunan Perumahan,Pasa,"Q949+CQ, Lehi, Siau Bar., Kabupaten Siau Tagulandang Biaro, Sulawesi Utara","Kabupaten Siau Tagulandang Biaro, Sulawesi Utara",SULAWESI UTARA,,Indonesia,,,,2.756129,125.3694051,https://maps.google.com/?cid=0x0:0x55a259f7e9dd19dc,
perumahan,Komplek perumahan,Diang,"Q95G+H89, Lehi, Siau Bar., Kabupaten Siau Tagulandang Biaro, Sulawesi Utara","Kabupaten Siau Tagulandang Biaro, Sulawesi Utara",SULAWESI UTARA,,Indonesia,,,,2.7589145,125.3758439,https://maps.google.com/?cid=0x0:0xa288b8114e0bd0ba,
perumahan,Komplek perumahan,Sasaghapu Tetenaung,"Q9GF+XV, Kiawang, Kec. Siau Bar. Utara, Kabupaten Siau Tagulandang Biaro, Sulawesi Utara","Kabupaten Siau Tagulandang Biaro, Sulawesi Utara",SULAWESI UTARA,,Indonesia,,,,2.7774561,125.3746479,https://maps.google.com/?cid=0x0:0xce807baf78680eb0,
perumahan,Komplek perumahan,Lino tumalingkas,"RC3F+HJ, Bukide, Kec. Siau Tim., Kabupaten Siau Tagulandang Biaro, Sulawesi Utara","Kabupaten Siau Tagulandang Biaro, Sulawesi Utara",SULAWESI UTARA,,Indonesia,,,,2.8039326,125.42403,https://maps.google.com/?cid=0x0:0xe07f7026342eb34,
perumahan,Komplek perumahan,Lingkawa,"Q948+WH, Kanawong, Siau Bar., Kabupaten Siau Tagulandang Biaro, Sulawesi Utara","Kabupaten Siau Tagulandang Biaro, Sulawesi Utara",SULAWESI UTARA,,Indonesia,,,,2.7573125,125.3664375,https://maps.google.com/?cid=0x0:0x200a3a69ce7d7048,
perumahan,Tujuan Wisata,Kampung MINI - Sibarut,"Q9CC+5RV, Hiung, Kec. Siau Bar. Utara, Kabupaten Siau Tagulandang Biaro, Sulawesi Utara","Kabupaten Siau Tagulandang Biaro, Sulawesi Utara",SULAWESI UTARA,,Indonesia,81341998885.0,,,2.7704879,125.3720497,https://maps.google.com/?cid=0x0:0xc9543965db2769fe,
perumahan,Komplek perumahan,Rumah pinkan,"Q949+J3, Lehi, Siau Bar., Kabupaten Siau Tagulandang Biaro, Sulawesi Utara","Kabupaten Siau Tagulandang Biaro, Sulawesi Utara",SULAWESI UTARA,,Indonesia,,,,2.7554327,125.3668668,https://maps.google.com/?cid=0x0:0x53aef47b5d236337,
perumahan,Komplek perumahan,Biwai,"RC4G+JP, Mini, Kec. Siau Bar. Utara, Kabupaten Siau Tagulandang Biaro, Sulawesi Utara","Kabupaten Siau Tagulandang Biaro, Sulawesi Utara",SULAWESI UTARA,,Indonesia,,,,2.8065771,125.4268438,https://maps.google.com/?cid=0x0:0x1cca29795a5b2c09,
perumahan,Komplek perumahan,Kampung ðKiawang,"Q9VF+7W4, Kiawang, Kec. Siau Bar. Utara, Kabupaten Siau Tagulandang Biaro, Sulawesi Utara","Kabupaten Siau Tagulandang Biaro, Sulawesi Utara",SULAWESI UTARA,,Indonesia,,,,2.7931672,125.3749247,https://maps.google.com/?cid=0x0:0x1218d8b52ea60d8f,
perumahan,Pembangunan Perumahan,BEHA,"Q999+HVX, Hiung, Kec. Siau Bar. Utara, Kabupaten Siau Tagulandang Biaro, Sulawesi Utara","Kabupaten Siau Tagulandang Biaro, Sulawesi Utara",SULAWESI UTARA,,Indonesia,,,,2.7689769,125.3700371,https://maps.google.com/?cid=0x0:0xa346e343b881fc1a,
perumahan,perumahan,Kel Kaongan Tatampil,"Q9WG+2H, Batubulan, Kec. Siau Bar. Utara, Kabupaten Siau Tagulandang Biaro, Sulawesi Utara","Kabupaten Siau Tagulandang Biaro, Sulawesi Utara",SULAWESI UTARA,,Indonesia,,,,2.7950986,125.3764758,https://maps.google.com/?cid=0x0:0xbe22ed38f6f1ba7f,
perumahan,Komplek perumahan,Burude,"Q949+J3, Lehi, Siau Bar., Kabupaten Siau Tagulandang Biaro, Sulawesi Utara","Kabupaten Siau Tagulandang Biaro, Sulawesi Utara",SULAWESI UTARA,,Indonesia,,,,2.7554368,125.3669613,https://maps.google.com/?cid=0x0:0x5ff7d5cce55c4fd3,
perumahan,Perhimpunan Pengembang Perumahan,Pith Nameng,"RC4G+JP, Mini, Kec. Siau Bar. Utara, Kabupaten Siau Tagulandang Biaro, Sulawesi Utara","Kabupaten Siau Tagulandang Biaro, Sulawesi Utara",SULAWESI UTARA,,Indonesia,,,,2.8065853,125.4268359,https://maps.google.com/?cid=0x0:0x8334ffc50835ae97,
perumahan,Komplek perumahan,Areros,"Q96F+RCJ, Lehi, Siau Bar., Kabupaten Siau Tagulandang Biaro, Sulawesi Utara","Kabupaten Siau Tagulandang Biaro, Sulawesi Utara",SULAWESI UTARA,,Indonesia,,,,2.7619852,125.373637,https://maps.google.com/?cid=0x0:0x42fb764151af1a93,
perumahan,Pembangunan Perumahan,Hembo Anda Kampong,"Q9WG+MRX Nato, Kiawang, Kec. Siau Bar. Utara, Kabupaten Siau Tagulandang Biaro, Sulawesi Utara","Kabupaten Siau Tagulandang Biaro, Sulawesi Utara",SULAWESI UTARA,,Indonesia,,,,2.7967251,125.3771085,https://maps.google.com/?cid=0x0:0x93181a4415ba7733,
perumahan,perumahan,Tirza Bakar,"Q99C+JFV Mini, Hiung, Kec. Siau Bar. Utara, Kabupaten Siau Tagulandang Biaro, Sulawesi Utara","Kabupaten Siau Tagulandang Biaro, Sulawesi Utara",SULAWESI UTARA,,Indonesia,,,,2.7693352,125.3719958,https://maps.google.com/?cid=0x0:0x7bd61451358e46e3,
perumahan,Komplek perumahan,Jeanet jesica,"Q9FJ+VWC, Kiawang, Kec. Siau Bar. Utara, Kabupaten Siau Tagulandang Biaro, Sulawesi Utara","Kabupaten Siau Tagulandang Biaro, Sulawesi Utara",SULAWESI UTARA,,Indonesia,,,,2.7746828,125.382279,https://maps.google.com/?cid=0x0:0xd4ef9ea04dcaf9a3,
perumahan,perumahan,Kec. Siau Tengah,"Kabupaten Siau Tagulandang Biaro, Sulawesi Utara","Kabupaten Siau Tagulandang Biaro, Sulawesi Utara",SULAWESI UTARA,,Indonesia,,,,2.7403638,125.378898,https://maps.google.com/?cid=0x0:0xcf7998cd0113e8b5,
perumahan,Komplek perumahan,Rumah pintar,"PCH4+HJJ, Akesimbeka, Kec. Siau Tim., Kabupaten Siau Tagulandang Biaro, Sulawesi Utara 95861","Akesimbeka, Kec. Siau Tim., Kabupaten Siau Tagulandang Biaro",SULAWESI UTARA,95861.0,Indonesia,,,,2.7288671,125.4065641,https://maps.google.com/?cid=0x0:0x76b604089fa8b89,
perumahan,Komplek perumahan,SIAU BAKUSEDU home base,"Beong, Kec. Siau Tengah, Kabupaten Siau Tagulandang Biaro, Sulawesi Utara 95862","Kec. Siau Tengah, Kabupaten Siau Tagulandang Biaro",SULAWESI UTARA,95862.0,Indonesia,,,,2.7482157,125.3793374,https://maps.google.com/?cid=0x0:0xfee292559992ad3,
perumahan,Komplek perumahan,Rumah Vhany,"PCJ6+978, Jl. Boulevard Ulusiau, Tarorane, Kabupaten Siau Tagulandang Biaro, Sulawesi Utara 95861","Jl. Boulevard Ulusiau, Tarorane, Kabupaten Siau Tagulandang Biaro",SULAWESI UTARA,95861.0,Indonesia,,,,2.7309193,125.4106957,https://maps.google.com/?cid=0x0:0x3bc73412159d647d,
perumahan,Pembangunan Perumahan,Rumah Olan,"P9R6+MJW, Paniki, Siau Bar., Kabupaten Siau Tagulandang Biaro, Sulawesi Utara","Kabupaten Siau Tagulandang Biaro, Sulawesi Utara",SULAWESI UTARA,,Indonesia,,,,2.741749,125.3615841,https://maps.google.com/?cid=0x0:0x697935c54a2053a3,
perumahan,Perhimpunan Pengembang Perumahan,Perumahan ASN paseng Siau,"P9J6+2WR, Pehe, Siau Bar., Kabupaten Siau Tagulandang Biaro, Sulawesi Utara","Kabupaten Siau Tagulandang Biaro, Sulawesi Utara",SULAWESI UTARA,,Indonesia,,,,2.7301049,125.3622668,https://maps.google.com/?cid=0x0:0x36e98556fd14b1aa,
perumahan,Rumah Berhantu,Peliang city,"P9RQ+894, Bebali, Kec. Siau Tim., Kabupaten Siau Tagulandang Biaro, Sulawesi Utara","Kabupaten Siau Tagulandang Biaro, Sulawesi Utara",SULAWESI UTARA,,Indonesia,,,,2.7407625,125.3884531,https://maps.google.com/?cid=0x0:0xaa7e7068a761f923,
perumahan,Komplek perumahan,Defri Tumandung,"P9MR+XH8, Akesimbeka, Kec. Siau Tim., Kabupaten Siau Tagulandang Biaro, Sulawesi Utara 95861","Akesimbeka, Kec. Siau Tim., Kabupaten Siau Tagulandang Biaro",SULAWESI UTARA,95861.0,Indonesia,,,,2.7349096,125.3914452,https://maps.google.com/?cid=0x0:0xec2240ba5c55eb8d,
perumahan,Perhimpunan Pengembang Perumahan,"Kampung Beong, Kec. Siau Tengah","P9XH+7QJ, Beong, Kec. Siau Tengah, Kabupaten Siau Tagulandang Biaro, Sulawesi Utara","Kabupaten Siau Tagulandang Biaro, Sulawesi Utara",SULAWESI UTARA,,Indonesia,,,,2.7482092,125.3793763,https://maps.google.com/?cid=0x0:0x85be3470dee8c738,
perumahan,Komplek perumahan,Aksa  Azel,"Q94J+FXX, Dompase, Kec. Siau Tengah, Kabupaten Siau Tagulandang Biaro, Sulawesi Utara","Kabupaten Siau Tagulandang Biaro, Sulawesi Utara",SULAWESI UTARA,,Indonesia,,,,2.7562271,125.3824833,https://maps.google.com/?cid=0x0:0xe411128ef621ce73,
perumahan,Komplek perumahan,Kadiyerikuerabawole,"PCM6+7MX, Tarorane, Kec. Siau Tim., Kabupaten Siau Tagulandang Biaro, Sulawesi Utara 95861","Tarorane, Kec. Siau Tim., Kabupaten Siau Tagulandang Biaro",SULAWESI UTARA,95861.0,Indonesia,,,,2.7332331,125.4117401,https://maps.google.com/?cid=0x0:0x4382088c338eddbb,
perumahan,Komplek perumahan,QueeN BeNgKeL,"P9QH+9HQ, Lai, Kec. Siau Tengah, Kabupaten Siau Tagulandang Biaro, Sulawesi Utara","Kabupaten Siau Tagulandang Biaro, Sulawesi Utara",SULAWESI UTARA,,Indonesia,,,,2.7384113,125.3789479,https://maps.google.com/?cid=0x0:0xd3118aadb5798278,
perumahan,Komplek perumahan,Rumah kel. Ontoge Tahulending,"P9RH+HJV, Lai, Kec. Siau Tengah, Kabupaten Siau Tagulandang Biaro, Sulawesi Utara","Kabupaten Siau Tagulandang Biaro, Sulawesi Utara",SULAWESI UTARA,,Indonesia,,,,2.7418111,125.3794785,https://maps.google.com/?cid=0x0:0x6249c89ab41a1969,
perumahan,Komplek perumahan,Rumah Lanvia chintia Limpah,"P9JG+4JG, Lai, Kec. Siau Tengah, Kabupaten Siau Tagulandang Biaro, Sulawesi Utara","Kabupaten Siau Tagulandang Biaro, Sulawesi Utara",SULAWESI UTARA,,Indonesia,,,,2.7303001,125.3765837,https://maps.google.com/?cid=0x0:0x2f72fd677f7ea1bd,
perumahan,Sekolah,Perum bebali,"P9RX+FFQ, Bebali, Kec. Siau Tim., Kabupaten Siau Tagulandang Biaro, Sulawesi Utara 95861","Bebali, Kec. Siau Tim., Kabupaten Siau Tagulandang Biaro",SULAWESI UTARA,95861.0,Indonesia,,,,2.7412026,125.3987294,https://maps.google.com/?cid=0x0:0x8d235188aec08248,
perumahan,Pembangunan Perumahan,Bowongake paniki siau,"P9QC+GQW, Pehe, Siau Bar., Kabupaten Siau Tagulandang Biaro, Sulawesi Utara","Kabupaten Siau Tagulandang Biaro, Sulawesi Utara",SULAWESI UTARA,,Indonesia,,,,2.7388607,125.3719532,https://maps.google.com/?cid=0x0:0x72f02e1838e685c0,
perumahan,Komplek perumahan,Rumah Kel. Tampilang - Sagune,"P9XJ+6F8, Beong, Kec. Siau Tengah, Kabupaten Siau Tagulandang Biaro, Sulawesi Utara","Kabupaten Siau Tagulandang Biaro, Sulawesi Utara",SULAWESI UTARA,,Indonesia,,,,2.7480291,125.3812154,https://maps.google.com/?cid=0x0:0xa7df523e6b8ad606,
perumahan,Komplek perumahan,Rumah Oma Lartje,"P9QQ+GG3, Bebali, Kec. Siau Tim., Kabupaten Siau Tagulandang Biaro, Sulawesi Utara 95861","Bebali, Kec. Siau Tim., Kabupaten Siau Tagulandang Biaro",SULAWESI UTARA,95861.0,Indonesia,,,,2.7387314,125.388818,https://maps.google.com/?cid=0x0:0x4629064d9336f9e9,
perumahan,Komplek perumahan,Rumah Kita,"PCP4+53J, Bebali, Kec. Siau Tim., Kabupaten Siau Tagulandang Biaro, Sulawesi Utara 95861","Bebali, Kec. Siau Tim., Kabupaten Siau Tagulandang Biaro",SULAWESI UTARA,95861.0,Indonesia,,,,2.7347022,125.4055379,https://maps.google.com/?cid=0x0:0x2151911e7f30df54,
perumahan,Pembangunan Perumahan,Rumah Afelia Tatumpe,"PC92+367, Bahu, Kec. Siau Tim., Kabupaten Siau Tagulandang Biaro, Sulawesi Utara 95861","Bahu, Kec. Siau Tim., Kabupaten Siau Tagulandang Biaro",SULAWESI UTARA,95861.0,Indonesia,,,,2.7176686,125.4005492,https://maps.google.com/?cid=0x0:0xab7cfc4735aefde5,
perumahan,Komplek perumahan,Kuera Lukas,"P9PV+R3R, Bebali, Kec. Siau Tim., Kabupaten Siau Tagulandang Biaro, Sulawesi Utara 95861","Bebali, Kec. Siau Tim., Kabupaten Siau Tagulandang Biaro",SULAWESI UTARA,95861.0,Indonesia,,,,2.7371055,125.3926448,https://maps.google.com/?cid=0x0:0x3cb5782852765671,
perumahan,Komplek perumahan,Fangky,"PCP2+2R6, Unnamed Road, Bebali, Kec. Siau Tim., Kabupaten Siau Tagulandang Biaro, Sulawesi Utara 95861","Unnamed Road, Bebali, Kec. Siau Tim., Kabupaten Siau Tagulandang Biaro",SULAWESI UTARA,95861.0,Indonesia,,,,2.7350483,125.4020103,https://maps.google.com/?cid=0x0:0xa830b1282a7a1bb5,
perumahan,Komplek perumahan,Batusiau,"P9XH+MVC, Beong, Kec. Siau Tengah, Kabupaten Siau Tagulandang Biaro, Sulawesi Utara","Kabupaten Siau Tagulandang Biaro, Sulawesi Utara",SULAWESI UTARA,,Indonesia,,,,2.7491875,125.3796406,https://maps.google.com/?cid=0x0:0xfe343c9b7bf1e3bd,
perumahan,Pembangunan Perumahan,Rumah Diana Dauhan,"P9XV+X52, Londe, Salili, Kec. Siau Tengah, Kabupaten Siau Tagulandang Biaro, Sulawesi Utara","Kabupaten Siau Tagulandang Biaro, Sulawesi Utara",SULAWESI UTARA,,Indonesia,,,,2.7498902,125.3928981,https://maps.google.com/?cid=0x0:0x1cd3318c23649ef7,
perumahan,Komplek perumahan,Lukas Gensa,"P9PR+PP5, Bebali, Kec. Siau Tim., Kabupaten Siau Tagulandang Biaro, Sulawesi Utara 95861","Bebali, Kec. Siau Tim., Kabupaten Siau Tagulandang Biaro",SULAWESI UTARA,95861.0,Indonesia,,,,2.7367649,125.3918713,https://maps.google.com/?cid=0x0:0x88cfe68f6cce7d8f,
perumahan,Komplek perumahan,Tataung Home,"Q92J+45C, Beong, Kec. Siau Tengah, Kabupaten Siau Tagulandang Biaro, Sulawesi Utara","Kabupaten Siau Tagulandang Biaro, Sulawesi Utara",SULAWESI UTARA,,Indonesia,,,,2.7503163,125.3803975,https://maps.google.com/?cid=0x0:0xce93d3b71392bd0e,
perumahan,perumahan,Sulawesi Utara 95861,"Kec. Siau Tim., Kabupaten Siau Tagulandang Biaro, Sulawesi Utara","Kabupaten Siau Tagulandang Biaro, Sulawesi Utara",SULAWESI UTARA,,Indonesia,,,,2.7629842,125.4233987,https://maps.google.com/?cid=0x0:0x412fe64cf4eae893,
perumahan,Komplek perumahan,Rumah wardi,"QC2V+5QM, Buise, Kec. Siau Tim., Kabupaten Siau Tagulandang Biaro, Sulawesi Utara 95861","Buise, Kec. Siau Tim., Kabupaten Siau Tagulandang Biaro",SULAWESI UTARA,95861.0,Indonesia,,,,2.7512845,125.4454062,https://maps.google.com/?cid=0x0:0xf7f330893025e303,
perumahan,Komplek perumahan,Rumah pintar,"PCH4+HJJ, Akesimbeka, Kec. Siau Tim., Kabupaten Siau Tagulandang Biaro, Sulawesi Utara 95861","Akesimbeka, Kec. Siau Tim., Kabupaten Siau Tagulandang Biaro",SULAWESI UTARA,95861.0,Indonesia,,,,2.7288671,125.4065641,https://maps.google.com/?cid=0x0:0x76b604089fa8b89,
perumahan,Komplek perumahan,Kadiyerikuerabawole,"PCM6+7MX, Tarorane, Kec. Siau Tim., Kabupaten Siau Tagulandang Biaro, Sulawesi Utara 95861","Tarorane, Kec. Siau Tim., Kabupaten Siau Tagulandang Biaro",SULAWESI UTARA,95861.0,Indonesia,,,,2.7332331,125.4117401,https://maps.google.com/?cid=0x0:0x4382088c338eddbb,
perumahan,Komplek perumahan,Kompleks perumahan bebali 1,"PCM2+XJ6, Unnamed Road, Bebali, Kec. Siau Tim., Kabupaten Siau Tagulandang Biaro, Sulawesi Utara 95861","Unnamed Road, Bebali, Kec. Siau Tim., Kabupaten Siau Tagulandang Biaro",SULAWESI UTARA,95861.0,Indonesia,85240043712.0,,,2.7349214,125.4015104,https://maps.google.com/?cid=0x0:0x24cad4c399ae060f,
perumahan,Komplek perumahan,Rumah Vhany,"PCJ6+978, Jl. Boulevard Ulusiau, Tarorane, Kabupaten Siau Tagulandang Biaro, Sulawesi Utara 95861","Jl. Boulevard Ulusiau, Tarorane, Kabupaten Siau Tagulandang Biaro",SULAWESI UTARA,95861.0,Indonesia,,,,2.7309193,125.4106957,https://maps.google.com/?cid=0x0:0x3bc73412159d647d,
perumahan,Komplek perumahan,Pentoe,"PCV4+8H5, Tarorane, Kec. Siau Tim., Kabupaten Siau Tagulandang Biaro, Sulawesi Utara 95861","Tarorane, Kec. Siau Tim., Kabupaten Siau Tagulandang Biaro",SULAWESI UTARA,95861.0,Indonesia,,,,2.7432671,125.4064884,https://maps.google.com/?cid=0x0:0x3597ebd4dd3e834b,
perumahan,Komplek perumahan,Keluarga Wagunu Bowontari,"QCPW+CMP, Deahe, Kec. Siau Tim., Kabupaten Siau Tagulandang Biaro, Sulawesi Utara 95861","Deahe, Kec. Siau Tim., Kabupaten Siau Tagulandang Biaro",SULAWESI UTARA,95861.0,Indonesia,,,,2.7860911,125.446694,https://maps.google.com/?cid=0x0:0x5bbdd51b3d34e20b,
perumahan,Komplek perumahan,Rumah W.Lumiu Takasasadeng,"PCVH+632, Dame, Kec. Siau Tim., Kabupaten Siau Tagulandang Biaro, Sulawesi Utara 95861","Dame, Kec. Siau Tim., Kabupaten Siau Tagulandang Biaro",SULAWESI UTARA,95861.0,Indonesia,,,,2.743012,125.4276329,https://maps.google.com/?cid=0x0:0x4bae55f27a4929bb,
perumahan,Komplek perumahan,Tampuna,"PCW4+4Q9, Lingkungan IV, Tarorane, Kec. Siau Tim., Kabupaten Siau Tagulandang Biaro, Sulawesi Utara 95861","Lingkungan IV, Tarorane, Kec. Siau Tim., Kabupaten Siau Tagulandang Biaro",SULAWESI UTARA,95861.0,Indonesia,,,,2.745279,125.4069978,https://maps.google.com/?cid=0x0:0xe6caf722a8d604fb,
perumahan,Komplek perumahan,ALIKA HOME,"PCM7+M5Q, Tatahadeng, Tarorane, Kec. Siau Tim., Kabupaten Siau Tagulandang Biaro, Sulawesi Utara 95861","Tatahadeng, Tarorane, Kec. Siau Tim., Kabupaten Siau Tagulandang Biaro",SULAWESI UTARA,95861.0,Indonesia,,,,2.7344461,125.4129994,https://maps.google.com/?cid=0x0:0x3d1a7712ffa98c05,
perumahan,Pembangunan Perumahan,Akesimbeka ATAS,"Akesimbeka, Kec. Siau Tim., Kabupaten Siau Tagulandang Biaro, Sulawesi Utara 95861","Kec. Siau Tim., Kabupaten Siau Tagulandang Biaro",SULAWESI UTARA,95861.0,Indonesia,,,,2.7308275,125.4050125,https://maps.google.com/?cid=0x0:0x5565675ca8cc00eb,
perumahan,Pembangunan Perumahan,Rumah Afelia Tatumpe,"PC92+367, Bahu, Kec. Siau Tim., Kabupaten Siau Tagulandang Biaro, Sulawesi Utara 95861","Bahu, Kec. Siau Tim., Kabupaten Siau Tagulandang Biaro",SULAWESI UTARA,95861.0,Indonesia,,,,2.7176686,125.4005492,https://maps.google.com/?cid=0x0:0xab7cfc4735aefde5,
perumahan,Komplek perumahan,Defri Tumandung,"P9MR+XH8, Akesimbeka, Kec. Siau Tim., Kabupaten Siau Tagulandang Biaro, Sulawesi Utara 95861","Akesimbeka, Kec. Siau Tim., Kabupaten Siau Tagulandang Biaro",SULAWESI UTARA,95861.0,Indonesia,,,,2.7349096,125.3914452,https://maps.google.com/?cid=0x0:0xec2240ba5c55eb8d,
perumahan,Komplek perumahan,Kel. Bawole Wilhelmus,"PCW4+JXV, Lingkungan IV, Tarorane, Kec. Siau Tim., Kabupaten Siau Tagulandang Biaro, Sulawesi Utara 95861","Lingkungan IV, Tarorane, Kec. Siau Tim., Kabupaten Siau Tagulandang Biaro",SULAWESI UTARA,95861.0,Indonesia,,,,2.7466057,125.4074369,https://maps.google.com/?cid=0x0:0xe8a557ef5850fb42,
perumahan,Komplek perumahan,Fangky,"PCP2+2R6, Unnamed Road, Bebali, Kec. Siau Tim., Kabupaten Siau Tagulandang Biaro, Sulawesi Utara 95861","Unnamed Road, Bebali, Kec. Siau Tim., Kabupaten Siau Tagulandang Biaro",SULAWESI UTARA,95861.0,Indonesia,,,,2.7350483,125.4020103,https://maps.google.com/?cid=0x0:0xa830b1282a7a1bb5,
perumahan,Komplek perumahan,Rumah Kel Bukanaung-opi,"QC4G+MFJ lindongan 2, Karalung, Kec. Siau Tim., Kabupaten Siau Tagulandang Biaro, Sulawesi Utara 95861","Karalung, Kec. Siau Tim., Kabupaten Siau Tagulandang Biaro",SULAWESI UTARA,95861.0,Indonesia,,,,2.7567204,125.4261392,https://maps.google.com/?cid=0x0:0x1c1e527e18f798e9,
perumahan,Komplek perumahan,LEWAE LKC,"P95X+XHJ, Bahu, Kec. Siau Tim., Kabupaten Siau Tagulandang Biaro, Sulawesi Utara 95861","Bahu, Kec. Siau Tim., Kabupaten Siau Tagulandang Biaro",SULAWESI UTARA,95861.0,Indonesia,,,,2.7111101,125.3987351,https://maps.google.com/?cid=0x0:0x8b73db988cccf4cb,
perumahan,Lapangan Bulutangkis,LAPANGAN GBD,"PCM9+FPM, Tatahadeng, Kec. Siau Tim., Kabupaten Siau Tagulandang Biaro, Sulawesi Utara 95861","Tatahadeng, Kec. Siau Tim., Kabupaten Siau Tagulandang Biaro",SULAWESI UTARA,95861.0,Indonesia,,,,2.733725,125.4192845,https://maps.google.com/?cid=0x0:0x68c08264fb3060bf,
perumahan,Komplek perumahan,Bahu sondang,"PCC3+G36 Sondang, Bahu, Kec. Siau Tim., Kabupaten Siau Tagulandang Biaro, Sulawesi Utara 95861","Bahu, Kec. Siau Tim., Kabupaten Siau Tagulandang Biaro",SULAWESI UTARA,95861.0,Indonesia,,,,2.7212833,125.40264,https://maps.google.com/?cid=0x0:0x7d0b12a2ed283c19,
perumahan,Bed >>u0026 Breakfast,Rumah Wulan Sandala,"PCWJ+JMX, Karalung, Kec. Siau Tim., Kabupaten Siau Tagulandang Biaro, Sulawesi Utara 95861","Karalung, Kec. Siau Tim., Kabupaten Siau Tagulandang Biaro",SULAWESI UTARA,95861.0,Indonesia,,,,2.746393,125.431878,https://maps.google.com/?cid=0x0:0x5f0751346aea37c2,
perumahan,Komplek perumahan,Rm. Kel kantor- makikama,"PCWJ+MP2, Karalung, Kec. Siau Tim., Kabupaten Siau Tagulandang Biaro, Sulawesi Utara 95861","Karalung, Kec. Siau Tim., Kabupaten Siau Tagulandang Biaro",SULAWESI UTARA,95861.0,Indonesia,,,,2.7466311,125.4317767,https://maps.google.com/?cid=0x0:0x13cb0467e03f08e9,
perumahan,Komplek perumahan,RM .OLIVIA KAHUSADI,"PCQG+RFM, Dame, Kec. Siau Tim., Kabupaten Siau Tagulandang Biaro, Sulawesi Utara 95861","Dame, Kec. Siau Tim., Kabupaten Siau Tagulandang Biaro",SULAWESI UTARA,95861.0,Indonesia,,,,2.7397979,125.4267405,https://maps.google.com/?cid=0x0:0x572e4e6ed4cbab5b,
perumahan,perumahan,Piyana moyð,"P9RX+FFQ, Bebali, Kec. Siau Tim., Kabupaten Siau Tagulandang Biaro, Sulawesi Utara 95861","Bebali, Kec. Siau Tim., Kabupaten Siau Tagulandang Biaro",SULAWESI UTARA,95861.0,Indonesia,,,,2.7412026,125.3987294,https://maps.google.com/?cid=0x0:0x34f9456fa5a057a0,
perumahan,Komplek perumahan,Rumah Afris Mitusala,"PCV8+HR4, Tatahadeng, Kec. Siau Tim., Kabupaten Siau Tagulandang Biaro, Sulawesi Utara 95861","Tatahadeng, Kec. Siau Tim., Kabupaten Siau Tagulandang Biaro",SULAWESI UTARA,95861.0,Indonesia,,,,2.7430696,125.4172705,https://maps.google.com/?cid=0x0:0x837013a478da0d5c,
perumahan,Komplek perumahan,Keluarga Hengkeng - Sabar,"QCRV+5MP, Deahe, Kec. Siau Tim., Kabupaten Siau Tagulandang Biaro, Sulawesi Utara 95861","Deahe, Kec. Siau Tim., Kabupaten Siau Tagulandang Biaro",SULAWESI UTARA,95861.0,Indonesia,,,,2.7904562,125.4441979,https://maps.google.com/?cid=0x0:0x180a45b1626d9487,
perumahan,perumahan,Sulawesi Utara 95861,"Kec. Siau Tim., Kabupaten Siau Tagulandang Biaro, Sulawesi Utara","Kabupaten Siau Tagulandang Biaro, Sulawesi Utara",SULAWESI UTARA,,Indonesia,,,,2.7629842,125.4233987,https://maps.google.com/?cid=0x0:0x412fe64cf4eae893,
perumahan,Komplek perumahan,Kompleks perumahan bebali 1,"PCM2+XJ6, Unnamed Road, Bebali, Kec. Siau Tim., Kabupaten Siau Tagulandang Biaro, Sulawesi Utara 95861","Unnamed Road, Bebali, Kec. Siau Tim., Kabupaten Siau Tagulandang Biaro",SULAWESI UTARA,95861.0,Indonesia,85240043712.0,,,2.7349214,125.4015104,https://maps.google.com/?cid=0x0:0x24cad4c399ae060f,
perumahan,Komplek perumahan,Rumah wardi,"QC2V+5QM, Buise, Kec. Siau Tim., Kabupaten Siau Tagulandang Biaro, Sulawesi Utara 95861","Buise, Kec. Siau Tim., Kabupaten Siau Tagulandang Biaro",SULAWESI UTARA,95861.0,Indonesia,,,,2.7512845,125.4454062,https://maps.google.com/?cid=0x0:0xf7f330893025e303,
perumahan,Komplek perumahan,Kadiyerikuerabawole,"PCM6+7MX, Tarorane, Kec. Siau Tim., Kabupaten Siau Tagulandang Biaro, Sulawesi Utara 95861","Tarorane, Kec. Siau Tim., Kabupaten Siau Tagulandang Biaro",SULAWESI UTARA,95861.0,Indonesia,,,,2.7332331,125.4117401,https://maps.google.com/?cid=0x0:0x4382088c338eddbb,
perumahan,Komplek perumahan,Rumah Vhany,"PCJ6+978, Jl. Boulevard Ulusiau, Tarorane, Kabupaten Siau Tagulandang Biaro, Sulawesi Utara 95861","Jl. Boulevard Ulusiau, Tarorane, Kabupaten Siau Tagulandang Biaro",SULAWESI UTARA,95861.0,Indonesia,,,,2.7309193,125.4106957,https://maps.google.com/?cid=0x0:0x3bc73412159d647d,
perumahan,Gedung Apartemen,KAMPUNG APELAWO,"QCRQ+FM, Deahe, Kec. Siau Tim., Kabupaten Siau Tagulandang Biaro, Sulawesi Utara 95861","Deahe, Kec. Siau Tim., Kabupaten Siau Tagulandang Biaro",SULAWESI UTARA,95861.0,Indonesia,,,,2.7915784,125.4382836,https://maps.google.com/?cid=0x0:0x25a42b17b6b03205,
perumahan,Komplek perumahan,Pentoe,"PCV4+8H5, Tarorane, Kec. Siau Tim., Kabupaten Siau Tagulandang Biaro, Sulawesi Utara 95861","Tarorane, Kec. Siau Tim., Kabupaten Siau Tagulandang Biaro",SULAWESI UTARA,95861.0,Indonesia,,,,2.7432671,125.4064884,https://maps.google.com/?cid=0x0:0x3597ebd4dd3e834b,
perumahan,Komplek perumahan,Rumah W.Lumiu Takasasadeng,"PCVH+632, Dame, Kec. Siau Tim., Kabupaten Siau Tagulandang Biaro, Sulawesi Utara 95861","Dame, Kec. Siau Tim., Kabupaten Siau Tagulandang Biaro",SULAWESI UTARA,95861.0,Indonesia,,,,2.743012,125.4276329,https://maps.google.com/?cid=0x0:0x4bae55f27a4929bb,
perumahan,Komplek perumahan,ALIKA HOME,"PCM7+M5Q, Tatahadeng, Tarorane, Kec. Siau Tim., Kabupaten Siau Tagulandang Biaro, Sulawesi Utara 95861","Tatahadeng, Tarorane, Kec. Siau Tim., Kabupaten Siau Tagulandang Biaro",SULAWESI UTARA,95861.0,Indonesia,,,,2.7344461,125.4129994,https://maps.google.com/?cid=0x0:0x3d1a7712ffa98c05,
perumahan,Pembangunan Perumahan,Rumah Afelia Tatumpe,"PC92+367, Bahu, Kec. Siau Tim., Kabupaten Siau Tagulandang Biaro, Sulawesi Utara 95861","Bahu, Kec. Siau Tim., Kabupaten Siau Tagulandang Biaro",SULAWESI UTARA,95861.0,Indonesia,,,,2.7176686,125.4005492,https://maps.google.com/?cid=0x0:0xab7cfc4735aefde5,
perumahan,Komplek perumahan,Kel. Bawole Wilhelmus,"PCW4+JXV, Lingkungan IV, Tarorane, Kec. Siau Tim., Kabupaten Siau Tagulandang Biaro, Sulawesi Utara 95861","Lingkungan IV, Tarorane, Kec. Siau Tim., Kabupaten Siau Tagulandang Biaro",SULAWESI UTARA,95861.0,Indonesia,,,,2.7466057,125.4074369,https://maps.google.com/?cid=0x0:0xe8a557ef5850fb42,
perumahan,Komplek perumahan,Keluarga Wagunu Bowontari,"QCPW+CMP, Deahe, Kec. Siau Tim., Kabupaten Siau Tagulandang Biaro, Sulawesi Utara 95861","Deahe, Kec. Siau Tim., Kabupaten Siau Tagulandang Biaro",SULAWESI UTARA,95861.0,Indonesia,,,,2.7860911,125.446694,https://maps.google.com/?cid=0x0:0x5bbdd51b3d34e20b,
perumahan,Pembangunan Perumahan,Akesimbeka ATAS,"Akesimbeka, Kec. Siau Tim., Kabupaten Siau Tagulandang Biaro, Sulawesi Utara 95861","Kec. Siau Tim., Kabupaten Siau Tagulandang Biaro",SULAWESI UTARA,95861.0,Indonesia,,,,2.7308275,125.4050125,https://maps.google.com/?cid=0x0:0x5565675ca8cc00eb,
perumahan,Komplek perumahan,Fangky,"PCP2+2R6, Unnamed Road, Bebali, Kec. Siau Tim., Kabupaten Siau Tagulandang Biaro, Sulawesi Utara 95861","Unnamed Road, Bebali, Kec. Siau Tim., Kabupaten Siau Tagulandang Biaro",SULAWESI UTARA,95861.0,Indonesia,,,,2.7350483,125.4020103,https://maps.google.com/?cid=0x0:0xa830b1282a7a1bb5,
perumahan,Komplek perumahan,Tampuna,"PCW4+4Q9, Lingkungan IV, Tarorane, Kec. Siau Tim., Kabupaten Siau Tagulandang Biaro, Sulawesi Utara 95861","Lingkungan IV, Tarorane, Kec. Siau Tim., Kabupaten Siau Tagulandang Biaro",SULAWESI UTARA,95861.0,Indonesia,,,,2.745279,125.4069978,https://maps.google.com/?cid=0x0:0xe6caf722a8d604fb,
perumahan,Komplek perumahan,Defri Tumandung,"P9MR+XH8, Akesimbeka, Kec. Siau Tim., Kabupaten Siau Tagulandang Biaro, Sulawesi Utara 95861","Akesimbeka, Kec. Siau Tim., Kabupaten Siau Tagulandang Biaro",SULAWESI UTARA,95861.0,Indonesia,,,,2.7349096,125.3914452,https://maps.google.com/?cid=0x0:0xec2240ba5c55eb8d,
perumahan,Komplek perumahan,RM .OLIVIA KAHUSADI,"PCQG+RFM, Dame, Kec. Siau Tim., Kabupaten Siau Tagulandang Biaro, Sulawesi Utara 95861","Dame, Kec. Siau Tim., Kabupaten Siau Tagulandang Biaro",SULAWESI UTARA,95861.0,Indonesia,,,,2.7397979,125.4267405,https://maps.google.com/?cid=0x0:0x572e4e6ed4cbab5b,
perumahan,Komplek perumahan,Rumah Kel Bukanaung-opi,"QC4G+MFJ lindongan 2, Karalung, Kec. Siau Tim., Kabupaten Siau Tagulandang Biaro, Sulawesi Utara 95861","Karalung, Kec. Siau Tim., Kabupaten Siau Tagulandang Biaro",SULAWESI UTARA,95861.0,Indonesia,,,,2.7567204,125.4261392,https://maps.google.com/?cid=0x0:0x1c1e527e18f798e9,
perumahan,Komplek perumahan,Rumah Velia,"PCG3+VR6, Akesimbeka, Kec. Siau Tim., Kabupaten Siau Tagulandang Biaro, Sulawesi Utara 95861","Akesimbeka, Kec. Siau Tim., Kabupaten Siau Tagulandang Biaro",SULAWESI UTARA,95861.0,Indonesia,,,,2.7270506,125.4047211,https://maps.google.com/?cid=0x0:0x5925c102eb4878d4,
perumahan,Komplek perumahan,LEWAE LKC,"P95X+XHJ, Bahu, Kec. Siau Tim., Kabupaten Siau Tagulandang Biaro, Sulawesi Utara 95861","Bahu, Kec. Siau Tim., Kabupaten Siau Tagulandang Biaro",SULAWESI UTARA,95861.0,Indonesia,,,,2.7111101,125.3987351,https://maps.google.com/?cid=0x0:0x8b73db988cccf4cb,
perumahan,Komplek perumahan,Keluarga Hengkeng - Sabar,"QCRV+5MP, Deahe, Kec. Siau Tim., Kabupaten Siau Tagulandang Biaro, Sulawesi Utara 95861","Deahe, Kec. Siau Tim., Kabupaten Siau Tagulandang Biaro",SULAWESI UTARA,95861.0,Indonesia,,,,2.7904562,125.4441979,https://maps.google.com/?cid=0x0:0x180a45b1626d9487,
perumahan,Lapangan Bulutangkis,LAPANGAN GBD,"PCM9+FPM, Tatahadeng, Kec. Siau Tim., Kabupaten Siau Tagulandang Biaro, Sulawesi Utara 95861","Tatahadeng, Kec. Siau Tim., Kabupaten Siau Tagulandang Biaro",SULAWESI UTARA,95861.0,Indonesia,,,,2.733725,125.4192845,https://maps.google.com/?cid=0x0:0x68c08264fb3060bf,
perumahan,Sekolah,Perum bebali,"P9RX+FFQ, Bebali, Kec. Siau Tim., Kabupaten Siau Tagulandang Biaro, Sulawesi Utara 95861","Bebali, Kec. Siau Tim., Kabupaten Siau Tagulandang Biaro",SULAWESI UTARA,95861.0,Indonesia,,,,2.7412026,125.3987294,https://maps.google.com/?cid=0x0:0x8d235188aec08248,
perumahan,perumahan,Kec. Tagulandang,"Kabupaten Siau Tagulandang Biaro, Sulawesi Utara","Kabupaten Siau Tagulandang Biaro, Sulawesi Utara",SULAWESI UTARA,,Indonesia,,,,2.3461009,125.3780692,https://maps.google.com/?cid=0x0:0x209bd6bf153ba2f,
perumahan,Komplek perumahan,Lorong Jerman,"992H+273, Balehumara, Kec. Tagulandang, Kabupaten Siau Tagulandang Biaro, Sulawesi Utara","Kabupaten Siau Tagulandang Biaro, Sulawesi Utara",SULAWESI UTARA,,Indonesia,,,,2.3500139,125.378166,https://maps.google.com/?cid=0x0:0x55a151adb0b27f28,
perumahan,Komplek perumahan,Franchisco Mananeke,"89MQ+3P8, Barangka Pehe, Kec. Tagulandang, Kabupaten Siau Tagulandang Biaro, Sulawesi Utara","Kabupaten Siau Tagulandang Biaro, Sulawesi Utara",SULAWESI UTARA,,Indonesia,,,,2.3326669,125.3893149,https://maps.google.com/?cid=0x0:0x82cc633f62cb6e29,
perumahan,Komplek perumahan,Kelurahan Bahoi Kec.Tagulandang,"89VM+8R6, Barangka Pehe, Kec. Tagulandang, Kabupaten Siau Tagulandang Biaro, Sulawesi Utara","Kabupaten Siau Tagulandang Biaro, Sulawesi Utara",SULAWESI UTARA,,Indonesia,,,,2.3411045,125.3838063,https://maps.google.com/?cid=0x0:0x3ed5503ed9943558,
perumahan,Pembangunan Perumahan,Kawasan Green Kupa,"999J+MWR, Mohonsawang, Kec. Tagulandang, Kabupaten Siau Tagulandang Biaro, Sulawesi Utara","Kabupaten Siau Tagulandang Biaro, Sulawesi Utara",SULAWESI UTARA,,Indonesia,,,,2.3692394,125.382279,https://maps.google.com/?cid=0x0:0x58b4657f71c7d368,
perumahan,Komplek perumahan,Rumah Estefanus Puasa,"89GW+JMQ, Mahangiang, Kec. Tagulandang, Kabupaten Siau Tagulandang Biaro, Sulawesi Utara","Kabupaten Siau Tagulandang Biaro, Sulawesi Utara",SULAWESI UTARA,,Indonesia,,,,2.3265917,125.3967452,https://maps.google.com/?cid=0x0:0x203f477f42d36325,
perumahan,Komplek perumahan,Rumah Niko,"9C88+XX4, Minanga, Kec. Tagulandang Utara, Kabupaten Siau Tagulandang Biaro, Sulawesi Utara","Kabupaten Siau Tagulandang Biaro, Sulawesi Utara",SULAWESI UTARA,,Indonesia,,,,2.3673922,125.41751,https://maps.google.com/?cid=0x0:0x47b5edd6accc435a,
perumahan,Komplek perumahan,Home M_T,"8CFJ+6J9, Humbia, Kec. Tagulandang Sel., Kabupaten Siau Tagulandang Biaro, Sulawesi Utara","Kabupaten Siau Tagulandang Biaro, Sulawesi Utara",SULAWESI UTARA,,Indonesia,,,,2.3230341,125.4316201,https://maps.google.com/?cid=0x0:0x83072be000e7ae59,
perumahan,Pembangunan Perumahan,Home M Tahulending,"9C74+W43, Mulengen, Kec. Tagulandang, Kabupaten Siau Tagulandang Biaro, Sulawesi Utara","Kabupaten Siau Tagulandang Biaro, Sulawesi Utara",SULAWESI UTARA,,Indonesia,,,,2.3640456,125.4053219,https://maps.google.com/?cid=0x0:0x2bcb0f2ec9704e38,
perumahan,Perumahan,Linda zachawerus,"994F+HWW, Lesah Rende, Kec. Tagulandang, Kabupaten Siau Tagulandang Biaro, Sulawesi Utara","Kabupaten Siau Tagulandang Biaro, Sulawesi Utara",SULAWESI UTARA,,Indonesia,,,,2.3564818,125.3748147,https://maps.google.com/?cid=0x0:0x282c48b32d75a4a9,
perumahan,Komplek perumahan,tagulandang siau,"89RJ+V8C, Barangka Pehe, Kec. Tagulandang, Kabupaten Siau Tagulandang Biaro, Sulawesi Utara","Kabupaten Siau Tagulandang Biaro, Sulawesi Utara",SULAWESI UTARA,,Indonesia,,,,2.3422297,125.3808039,https://maps.google.com/?cid=0x0:0x1d7a8f34f5044fcb,
perumahan,Komplek perumahan,Clay Home,"89QM+HW8, Barangka Pehe, Kec. Tagulandang, Kabupaten Siau Tagulandang Biaro, Sulawesi Utara","Kabupaten Siau Tagulandang Biaro, Sulawesi Utara",SULAWESI UTARA,,Indonesia,,,,2.3390081,125.384627,https://maps.google.com/?cid=0x0:0x5c8d7ded30052734,
perumahan,Komplek perumahan,Lesah Rende,"994F+HWW, Lesah Rende, Kec. Tagulandang, Kabupaten Siau Tagulandang Biaro, Sulawesi Utara","Kabupaten Siau Tagulandang Biaro, Sulawesi Utara",SULAWESI UTARA,,Indonesia,,,,2.3558728,125.3737088,https://maps.google.com/?cid=0x0:0x843a6dc2076b9974,
perumahan,Komplek perumahan,Ulung Mol 'okay',"89VM+7M4, Barangka Pehe, Kec. Tagulandang, Kabupaten Siau Tagulandang Biaro, Sulawesi Utara","Kabupaten Siau Tagulandang Biaro, Sulawesi Utara",SULAWESI UTARA,,Indonesia,,,,2.3431309,125.3841808,https://maps.google.com/?cid=0x0:0x358993c7e2e29dda,
perumahan,Pembangunan Perumahan,Kangiras-Lumiu house,"89PV+G7Q, Unnamed Road, Barangka Pehe, Kec. Tagulandang, Kabupaten Siau Tagulandang Biaro, Sulawesi Utara","Kabupaten Siau Tagulandang Biaro, Sulawesi Utara",SULAWESI UTARA,,Indonesia,85341663139.0,,,2.3363464,125.3932463,https://maps.google.com/?cid=0x0:0x291be67f2f2d7229,
perumahan,Pembangunan Perumahan,Amelia Jacobs,"8C99+GQ6, Haasi, Kec. Tagulandang, Kabupaten Siau Tagulandang Biaro, Sulawesi Utara","Kabupaten Siau Tagulandang Biaro, Sulawesi Utara",SULAWESI UTARA,,Indonesia,,,,2.3187762,125.4193968,https://maps.google.com/?cid=0x0:0xca38b0bec24fcef4,
perumahan,Komplek perumahan,Home Kel.Isak-Tumeleng,"99CH+FJ, Mohonsawang, Kec. Tagulandang, Kabupaten Siau Tagulandang Biaro, Sulawesi Utara","Kabupaten Siau Tagulandang Biaro, Sulawesi Utara",SULAWESI UTARA,,Indonesia,,,,2.3713369,125.3798721,https://maps.google.com/?cid=0x0:0x767b6f684f76817a,
perumahan,Komplek perumahan,Kecamatan Tagulandang,"89RM+H3V, Bahoi, Kec. Tagulandang, Kabupaten Siau Tagulandang Biaro, Sulawesi Utara","Kabupaten Siau Tagulandang Biaro, Sulawesi Utara",SULAWESI UTARA,,Indonesia,,,,2.3414604,125.3826823,https://maps.google.com/?cid=0x0:0x735f6010c8496563,
perumahan,Komplek perumahan,Tatontos-Siri,"8CV8+HP2, Lumbo, Kec. Tagulandang Utara, Kabupaten Siau Tagulandang Biaro, Sulawesi Utara","Kabupaten Siau Tagulandang Biaro, Sulawesi Utara",SULAWESI UTARA,,Indonesia,81243919766.0,,,2.3438927,125.4167589,https://maps.google.com/?cid=0x0:0xbe0d0b3cb595ff75,
perumahan,Rumah wisata,@Home_Grandma Feli  Nindy,"89WP+4MR, Bahoi, Kec. Tagulandang, Kabupaten Siau Tagulandang Biaro, Sulawesi Utara","Kabupaten Siau Tagulandang Biaro, Sulawesi Utara",SULAWESI UTARA,,Indonesia,,,,2.3453577,125.3866333,https://maps.google.com/?cid=0x0:0xa56d2aa79dcbd640,
perumahan,Komplek perumahan,pontoh family sweet home,"8CC7+2CF, Tulusan, Kec. Tagulandang, Kabupaten Siau Tagulandang Biaro, Sulawesi Utara","Kabupaten Siau Tagulandang Biaro, Sulawesi Utara",SULAWESI UTARA,,Indonesia,,,,2.3200549,125.4135486,https://maps.google.com/?cid=0x0:0x62db8ff619800bdb,
perumahan,Komplek perumahan,Kel Nanuru kulas,"8CV9+R9J, Lumbo, Kec. Tagulandang Utara, Kabupaten Siau Tagulandang Biaro, Sulawesi Utara","Kabupaten Siau Tagulandang Biaro, Sulawesi Utara",SULAWESI UTARA,,Indonesia,,,,2.344599,125.4184025,https://maps.google.com/?cid=0x0:0x1e47d46d410c8c6,
perumahan,Komplek perumahan,ATEN TOGELANG,"9C99+4Q2, Bawo, Kec. Tagulandang Utara, Kabupaten Siau Tagulandang Biaro, Sulawesi Utara","Kabupaten Siau Tagulandang Biaro, Sulawesi Utara",SULAWESI UTARA,,Indonesia,,,,2.3677566,125.4193939,https://maps.google.com/?cid=0x0:0xb577e0cea63cc1de,
perumahan,Gereja,Pastori GMIST Jemaat PETRA Lesah Rende,"89WH+C6W, Balehumara, Kec. Tagulandang, Kabupaten Siau Tagulandang Biaro, Sulawesi Utara","Kabupaten Siau Tagulandang Biaro, Sulawesi Utara",SULAWESI UTARA,,Indonesia,,,,2.3461213,125.3780896,https://maps.google.com/?cid=0x0:0x9377ea4b54cd9ed1,
perumahan,Pembangunan Perumahan,Home stay Papehaseng Hamel,"9C99+FFM, Minanga, Kec. Tagulandang Utara, Kabupaten Siau Tagulandang Biaro, Sulawesi Utara","Kabupaten Siau Tagulandang Biaro, Sulawesi Utara",SULAWESI UTARA,,Indonesia,,,,2.3687023,125.4186579,https://maps.google.com/?cid=0x0:0xf679b031eb3ef1a6,
perumahan,Pembangunan Perumahan,"Bawoleu, Kec. Tagulandang Utara","9C3G+GR6, Bawoleu, Kec. Tagulandang Utara, Kabupaten Siau Tagulandang Biaro, Sulawesi Utara","Kabupaten Siau Tagulandang Biaro, Sulawesi Utara",SULAWESI UTARA,,Indonesia,,,,2.3537683,125.427064,https://maps.google.com/?cid=0x0:0xdb5a96d2929eb39a,
perumahan,perumahan,Kec. Tagulandang Sel.,"Kabupaten Siau Tagulandang Biaro, Sulawesi Utara","Kabupaten Siau Tagulandang Biaro, Sulawesi Utara",SULAWESI UTARA,,Indonesia,,,,2.3182823,125.4355499,https://maps.google.com/?cid=0x0:0x4ac91ac814e7666a,
perumahan,perumahan,MEIFLI HOME,"8FW6+W22, Buha, Kec. Tagulandang Sel., Kabupaten Siau Tagulandang Biaro, Sulawesi Utara","Kabupaten Siau Tagulandang Biaro, Sulawesi Utara",SULAWESI UTARA,,Indonesia,,,,2.3471056,125.4601158,https://maps.google.com/?cid=0x0:0x3e8fd1040472eeb3,
perumahan,Komplek perumahan,Home M_T,"8CFJ+6J9, Humbia, Kec. Tagulandang Sel., Kabupaten Siau Tagulandang Biaro, Sulawesi Utara","Kabupaten Siau Tagulandang Biaro, Sulawesi Utara",SULAWESI UTARA,,Indonesia,,,,2.3230341,125.4316201,https://maps.google.com/?cid=0x0:0x83072be000e7ae59,
perumahan,Pembangunan Perumahan,Perempatan Buha,"8FW6+R7F, Buha, Kec. Tagulandang Sel., Kabupaten Siau Tagulandang Biaro, Sulawesi Utara","Kabupaten Siau Tagulandang Biaro, Sulawesi Utara",SULAWESI UTARA,,Indonesia,,,,2.34704,125.4606783,https://maps.google.com/?cid=0x0:0xf33afe11ed814bae,
perumahan,Pembangunan Perumahan,Buce Bongso,"8C9P+F9M, Humbia, Kec. Tagulandang Sel., Kabupaten Siau Tagulandang Biaro, Sulawesi Utara","Kabupaten Siau Tagulandang Biaro, Sulawesi Utara",SULAWESI UTARA,,Indonesia,,,,2.3187243,125.4359266,https://maps.google.com/?cid=0x0:0x5108b2be912304c3,
perumahan,Komplek perumahan,J.Tadete,"8FX5+7XH Buha,Lind II, Kec. Tagulandang Sel., Kabupaten Siau Tagulandang Biaro, Sulawesi Utara 95862","Kec. Tagulandang Sel., Kabupaten Siau Tagulandang Biaro",SULAWESI UTARA,95862.0,Indonesia,,,,2.3481875,125.4599375,https://maps.google.com/?cid=0x0:0x913f46393c380992,
perumahan,Komplek perumahan,Lorong Muntiamanu,"8CJV+82W, Kisihang, Kec. Tagulandang Sel., Kabupaten Siau Tagulandang Biaro, Sulawesi Utara","Kabupaten Siau Tagulandang Biaro, Sulawesi Utara",SULAWESI UTARA,,Indonesia,,,,2.3308508,125.4425807,https://maps.google.com/?cid=0x0:0x8cb1e4b489496107,
perumahan,Pembangunan Perumahan,Rumah Kesya,"8FW6+Q9R, Buha, Kec. Tagulandang Sel., Kabupaten Siau Tagulandang Biaro, Sulawesi Utara","Kabupaten Siau Tagulandang Biaro, Sulawesi Utara",SULAWESI UTARA,,Indonesia,,,,2.3470259,125.4616212,https://maps.google.com/?cid=0x0:0xa80ae5d07731967f,
perumahan,Pembangunan Perumahan,Home Gumunggilung-ambalao,"8C9Q+J4H, Kisihang, Kec. Tagulandang Sel., Kabupaten Siau Tagulandang Biaro, Sulawesi Utara","Kabupaten Siau Tagulandang Biaro, Sulawesi Utara",SULAWESI UTARA,,Indonesia,,,,2.3190619,125.4378716,https://maps.google.com/?cid=0x0:0x1ba974a39da28e3d,
perumahan,Pembangunan Perumahan,Fernanda Panguleng,"8C9G+9PV, Humbia, Kec. Tagulandang Sel., Kabupaten Siau Tagulandang Biaro, Sulawesi Utara","Kabupaten Siau Tagulandang Biaro, Sulawesi Utara",SULAWESI UTARA,,Indonesia,,,,2.3184979,125.426808,https://maps.google.com/?cid=0x0:0xbca8c4e3ad582dcb,
perumahan,Pembangunan Perumahan,Rumah Ithin,"8C9G+69P, Humbia, Kec. Tagulandang Sel., Kabupaten Siau Tagulandang Biaro, Sulawesi Utara","Kabupaten Siau Tagulandang Biaro, Sulawesi Utara",SULAWESI UTARA,,Indonesia,,,,2.3179547,125.4259738,https://maps.google.com/?cid=0x0:0xe16c59ff4efad02b,
perumahan,Komplek perumahan,Bohang - Dalope oma candy,"8FJ2+FGP, Kisihang, Kec. Tagulandang Sel., Kabupaten Siau Tagulandang Biaro, Sulawesi Utara","Kabupaten Siau Tagulandang Biaro, Sulawesi Utara",SULAWESI UTARA,,Indonesia,,,,2.3312125,125.4513281,https://maps.google.com/?cid=0x0:0xbf96debc5a0c5820,
perumahan,Komplek perumahan,Mr.Carles Bohang,"8FJ2+H5Q, Londongan I, kampung Birarikei, Kec. Tagulandang Sel., Kabupaten Siau Tagulandang Biaro, Sulawesi Utara","Kabupaten Siau Tagulandang Biaro, Sulawesi Utara",SULAWESI UTARA,,Indonesia,,,,2.3306774,125.4514938,https://maps.google.com/?cid=0x0:0xbf81959b52264728,
perumahan,Komplek perumahan,Rumah Kel Takainginang- Lentemona,"8C9P+GVF, Kisihang, Kec. Tagulandang Sel., Kabupaten Siau Tagulandang Biaro, Sulawesi Utara","Kabupaten Siau Tagulandang Biaro, Sulawesi Utara",SULAWESI UTARA,,Indonesia,,,,2.3198742,125.4374689,https://maps.google.com/?cid=0x0:0xb714219c20f2a3b8,
perumahan,Komplek perumahan,Rumah Kel Gantare karimang,"8C9P+865, Humbia, Kec. Tagulandang Sel., Kabupaten Siau Tagulandang Biaro, Sulawesi Utara","Kabupaten Siau Tagulandang Biaro, Sulawesi Utara",SULAWESI UTARA,,Indonesia,,,,2.3182664,125.4356122,https://maps.google.com/?cid=0x0:0x2ea21346ccd04ab3,
perumahan,Komplek perumahan,"Tawara ( Desa Kisihang, Kab. Sitaro)","8CGW+F84, Tawara, Kisihang, Kec. Tagulandang Sel., Kabupaten Siau Tagulandang Biaro, Sulawesi Utara","Kabupaten Siau Tagulandang Biaro, Sulawesi Utara",SULAWESI UTARA,,Indonesia,,,,2.3261391,125.4458201,https://maps.google.com/?cid=0x0:0x6e5be32f0920216,
perumahan,Komplek perumahan,Arthur mamisala,"8C9H+254, Humbia, Kec. Tagulandang Sel., Kabupaten Siau Tagulandang Biaro, Sulawesi Utara","Kabupaten Siau Tagulandang Biaro, Sulawesi Utara",SULAWESI UTARA,,Indonesia,,,,2.3183316,125.4282834,https://maps.google.com/?cid=0x0:0xb5f6459db78520e6,
perumahan,Komplek perumahan,JUNIVTO HOME,"8CCP+6Q7, Humbia, Kec. Tagulandang Sel., Kabupaten Siau Tagulandang Biaro, Sulawesi Utara","Kabupaten Siau Tagulandang Biaro, Sulawesi Utara",SULAWESI UTARA,,Indonesia,,,,2.3205342,125.4369144,https://maps.google.com/?cid=0x0:0x64f29e03fee01dbd,
perumahan,Komplek perumahan,Aso sanger,"Kampung kisihang, lindungan 1, Kec. Tagulandang Sel., Kabupaten Siau Tagulandang Biaro","Kabupaten Siau Tagulandang Biaro, Sulawesi Utara",SULAWESI UTARA,,Indonesia,,,,2.3308508,125.4425807,https://maps.google.com/?cid=0x0:0xce4faf139dc36a4c,
perumahan,Komplek perumahan,IRA MANAPING,"8C9F+6HC, Humbia, Kec. Tagulandang Sel., Kabupaten Siau Tagulandang Biaro, Sulawesi Utara","Kabupaten Siau Tagulandang Biaro, Sulawesi Utara",SULAWESI UTARA,,Indonesia,,,,2.3180673,125.4239036,https://maps.google.com/?cid=0x0:0x87b92c6449a64130,
perumahan,Komplek perumahan,Buha,"9F25+2RX, Birakiama, Kec. Tagulandang Sel., Kabupaten Siau Tagulandang Biaro, Sulawesi Utara","Kabupaten Siau Tagulandang Biaro, Sulawesi Utara",SULAWESI UTARA,,Indonesia,,,,2.3501032,125.4596088,https://maps.google.com/?cid=0x0:0xb2cd1d8790b9048b,
perumahan,perumahan,Kec. Tagulandang Utara,"Kabupaten Siau Tagulandang Biaro, Sulawesi Utara","Kabupaten Siau Tagulandang Biaro, Sulawesi Utara",SULAWESI UTARA,,Indonesia,,,,2.3482186,125.4232499,https://maps.google.com/?cid=0x0:0x92479453b06a48b4,
perumahan,Komplek perumahan,Rumah Niko,"9C88+XX4, Minanga, Kec. Tagulandang Utara, Kabupaten Siau Tagulandang Biaro, Sulawesi Utara","Kabupaten Siau Tagulandang Biaro, Sulawesi Utara",SULAWESI UTARA,,Indonesia,,,,2.3673922,125.41751,https://maps.google.com/?cid=0x0:0x47b5edd6accc435a,
perumahan,Pembangunan Perumahan,Home stay Papehaseng Hamel,"9C99+FFM, Minanga, Kec. Tagulandang Utara, Kabupaten Siau Tagulandang Biaro, Sulawesi Utara","Kabupaten Siau Tagulandang Biaro, Sulawesi Utara",SULAWESI UTARA,,Indonesia,,,,2.3687023,125.4186579,https://maps.google.com/?cid=0x0:0xf679b031eb3ef1a6,
perumahan,Komplek perumahan,ATEN TOGELANG,"9C99+4Q2, Bawo, Kec. Tagulandang Utara, Kabupaten Siau Tagulandang Biaro, Sulawesi Utara","Kabupaten Siau Tagulandang Biaro, Sulawesi Utara",SULAWESI UTARA,,Indonesia,,,,2.3677566,125.4193939,https://maps.google.com/?cid=0x0:0xb577e0cea63cc1de,
perumahan,Komplek perumahan,Tatontos-Siri,"8CV8+HP2, Lumbo, Kec. Tagulandang Utara, Kabupaten Siau Tagulandang Biaro, Sulawesi Utara","Kabupaten Siau Tagulandang Biaro, Sulawesi Utara",SULAWESI UTARA,,Indonesia,81243919766.0,,,2.3438927,125.4167589,https://maps.google.com/?cid=0x0:0xbe0d0b3cb595ff75,
perumahan,Komplek perumahan,Kel Nanuru kulas,"8CV9+R9J, Lumbo, Kec. Tagulandang Utara, Kabupaten Siau Tagulandang Biaro, Sulawesi Utara","Kabupaten Siau Tagulandang Biaro, Sulawesi Utara",SULAWESI UTARA,,Indonesia,,,,2.344599,125.4184025,https://maps.google.com/?cid=0x0:0x1e47d46d410c8c6,
perumahan,Pembangunan Perumahan,"Bawoleu, Kec. Tagulandang Utara","9C3G+GR6, Bawoleu, Kec. Tagulandang Utara, Kabupaten Siau Tagulandang Biaro, Sulawesi Utara","Kabupaten Siau Tagulandang Biaro, Sulawesi Utara",SULAWESI UTARA,,Indonesia,,,,2.3537683,125.427064,https://maps.google.com/?cid=0x0:0xdb5a96d2929eb39a,
perumahan,Komplek perumahan,Twins Double V,"8CXG+2FR, Bawoleu, Kec. Tagulandang Utara, Kabupaten Siau Tagulandang Biaro, Sulawesi Utara","Kabupaten Siau Tagulandang Biaro, Sulawesi Utara",SULAWESI UTARA,,Indonesia,,,,2.3476001,125.4261392,https://maps.google.com/?cid=0x0:0x1ac9ab6f1fa3249,
perumahan,Pembangunan Perumahan,Home M Tahulending,"9C74+W43, Mulengen, Kec. Tagulandang, Kabupaten Siau Tagulandang Biaro, Sulawesi Utara","Kabupaten Siau Tagulandang Biaro, Sulawesi Utara",SULAWESI UTARA,,Indonesia,,,,2.3640456,125.4053219,https://maps.google.com/?cid=0x0:0x2bcb0f2ec9704e38,
perumahan,Komplek perumahan,Lorong Paniki Meba,"8CWC+FG3, Bawoleu, Kec. Tagulandang Utara, Kabupaten Siau Tagulandang Biaro, Sulawesi Utara","Kabupaten Siau Tagulandang Biaro, Sulawesi Utara",SULAWESI UTARA,,Indonesia,,,,2.3461339,125.4212945,https://maps.google.com/?cid=0x0:0x8ba0356c7130e0d6,
perumahan,Komplek perumahan,Kelurahan Bahoi Kec.Tagulandang,"89VM+8R6, Barangka Pehe, Kec. Tagulandang, Kabupaten Siau Tagulandang Biaro, Sulawesi Utara","Kabupaten Siau Tagulandang Biaro, Sulawesi Utara",SULAWESI UTARA,,Indonesia,,,,2.3411045,125.3838063,https://maps.google.com/?cid=0x0:0x3ed5503ed9943558,
perumahan,Pembangunan Perumahan,Home stay Takaliuang Hamel,"9C6G+Q9X, Bawo, Kec. Tagulandang Utara, Kabupaten Siau Tagulandang Biaro, Sulawesi Utara","Kabupaten Siau Tagulandang Biaro, Sulawesi Utara",SULAWESI UTARA,,Indonesia,,,,2.3619874,125.4259754,https://maps.google.com/?cid=0x0:0xa2289c07bf6ad7c0,
perumahan,Pembangunan Perumahan,Home Takaliuang Hamel,"9C78+M3M, Bawo, Kec. Tagulandang Utara, Kabupaten Siau Tagulandang Biaro, Sulawesi Utara","Kabupaten Siau Tagulandang Biaro, Sulawesi Utara",SULAWESI UTARA,,Indonesia,,,,2.3642022,125.4151764,https://maps.google.com/?cid=0x0:0x970a5213188ee4d4,
perumahan,Pembangunan Perumahan,Rea home,"9C4G+3GG, Bawoleu, Kec. Tagulandang Utara, Kabupaten Siau Tagulandang Biaro, Sulawesi Utara","Kabupaten Siau Tagulandang Biaro, Sulawesi Utara",SULAWESI UTARA,,Indonesia,,,,2.355182,125.4263394,https://maps.google.com/?cid=0x0:0xa787e5638bae1990,
perumahan,Perhimpunan Pengembang Perumahan,Birarikei,"8CW6+9XM, Pulau Thulandang, Kec. Tagulandang Utara, Kabupaten Siau Tagulandang Biaro, Sulawesi Utara","Kabupaten Siau Tagulandang Biaro, Sulawesi Utara",SULAWESI UTARA,,Indonesia,,,,2.345964,125.4124355,https://maps.google.com/?cid=0x0:0xfc19be078044182f,
perumahan,Komplek perumahan,Ega home,"9C89+VH8, Minanga, Kec. Tagulandang Utara, Kabupaten Siau Tagulandang Biaro, Sulawesi Utara","Kabupaten Siau Tagulandang Biaro, Sulawesi Utara",SULAWESI UTARA,,Indonesia,,,,2.3667717,125.4185345,https://maps.google.com/?cid=0x0:0x9435ce1c3b88c1d9,
perumahan,Rumah wisata,ððªð¢ðð,"8CWC+37P, lind II, Lumbo, Kec. Tagulandang Utara, Kabupaten Siau Tagulandang Biaro, Sulawesi Utara","Kabupaten Siau Tagulandang Biaro, Sulawesi Utara",SULAWESI UTARA,,Indonesia,82350371631.0,,,2.3450692,125.4207175,https://maps.google.com/?cid=0x0:0x6263312cf3c6c875,
perumahan,Komplek perumahan,Rumah Veliani,"9C8F+4MR, Bawo, Kec. Tagulandang Utara, Kabupaten Siau Tagulandang Biaro, Sulawesi Utara","Kabupaten Siau Tagulandang Biaro, Sulawesi Utara",SULAWESI UTARA,,Indonesia,,,,2.3653549,125.4241332,https://maps.google.com/?cid=0x0:0xa0963d1dcce197c5,
perumahan,Pembangunan Perumahan,Brian lohonauman,"9C99+4G8, Minanga, Kec. Tagulandang Utara, Kabupaten Siau Tagulandang Biaro, Sulawesi Utara","Kabupaten Siau Tagulandang Biaro, Sulawesi Utara",SULAWESI UTARA,,Indonesia,,,,2.3677794,125.4188289,https://maps.google.com/?cid=0x0:0x542281010cd5eda0,
perumahan,Komplek perumahan,Nincy home,"9C3H+W37, Bawoleu, Kec. Tagulandang Utara, Kabupaten Siau Tagulandang Biaro, Sulawesi Utara","Kabupaten Siau Tagulandang Biaro, Sulawesi Utara",SULAWESI UTARA,,Indonesia,,,,2.354784,125.427658,https://maps.google.com/?cid=0x0:0x7461fdddffa4cd74,
perumahan,Komplek perumahan,Franchisco Mananeke,"89MQ+3P8, Barangka Pehe, Kec. Tagulandang, Kabupaten Siau Tagulandang Biaro, Sulawesi Utara","Kabupaten Siau Tagulandang Biaro, Sulawesi Utara",SULAWESI UTARA,,Indonesia,,,,2.3326669,125.3893149,https://maps.google.com/?cid=0x0:0x82cc633f62cb6e29,
perumahan,Komplek perumahan,Rumah fendy,"8CW6+9XM, Lantang, Kec. Tagulandang Utara, Kabupaten Siau Tagulandang Biaro, Sulawesi Utara","Kabupaten Siau Tagulandang Biaro, Sulawesi Utara",SULAWESI UTARA,,Indonesia,,,,2.345964,125.4124355,https://maps.google.com/?cid=0x0:0x5abdf70da346df87,
perumahan,Pembangunan Perumahan,Rumah Meba,"9C2H+F72, Bawoleu, Kec. Tagulandang Utara, Kabupaten Siau Tagulandang Biaro, Sulawesi Utara","Kabupaten Siau Tagulandang Biaro, Sulawesi Utara",SULAWESI UTARA,,Indonesia,,,,2.3507169,125.4279548,https://maps.google.com/?cid=0x0:0x16fc7e1b2e46428a,
perumahan,Komplek perumahan,kel. Lahonta pongoh,"9C4G+CX9, Bawoleu, Kec. Tagulandang Utara, Kabupaten Siau Tagulandang Biaro, Sulawesi Utara","Kabupaten Siau Tagulandang Biaro, Sulawesi Utara",SULAWESI UTARA,,Indonesia,,,,2.3556771,125.4280677,https://maps.google.com/?cid=0x0:0x70866f144e8ebafc,
perumahan,Komplek perumahan,Home M_T,"8CFJ+6J9, Humbia, Kec. Tagulandang Sel., Kabupaten Siau Tagulandang Biaro, Sulawesi Utara","Kabupaten Siau Tagulandang Biaro, Sulawesi Utara",SULAWESI UTARA,,Indonesia,,,,2.3230341,125.4316201,https://maps.google.com/?cid=0x0:0x83072be000e7ae59,
perumahan,Kantor Perusahaan,BULANGAN,"9CFQ+C59, Bulangan, Kec. Tagulandang Utara, Kabupaten Siau Tagulandang Biaro, Sulawesi Utara","Kabupaten Siau Tagulandang Biaro, Sulawesi Utara",SULAWESI UTARA,,Indonesia,,,,2.3728361,125.4374118,https://maps.google.com/?cid=0x0:0x97195c97bf42b383,
