Category,Real Category,Business Name,Address,City,State,Postal Code,Country,Phone,Latitude,Longitude,Map Link
cafe,Kafe,Wilchof Cafe,"Manokwari Tim., Kec. Manokwari Bar., Kabupaten Manokwari, Papua Bar. 98312","Kec. Manokwari Bar., Kabupaten Manokwari",PAPUA BARAT,98312.0,Indonesia,8124801913.0,-0.8418764,134.0699628,https://maps.google.com/?cid=0x0:0xdf7fa1241fcb9fab
cafe,Kafe,Bukit Coffee  Resto Manokwari,"Jl. Gn. Salju, Amban, Kec. Manokwari Bar., Kabupaten Manokwari, Papua Bar. 98311","Amban, Kec. Manokwari Bar., Kabupaten Manokwari",PAPUA BARAT,98311.0,Indonesia,,-0.8452551,134.0664679,https://maps.google.com/?cid=0x0:0x2babb9104b5505f
cafe,cafe,,,,PAPUA BARAT,,Indonesia,,,,https://maps.google.com/?cid=0x0:0xdf7fa1241fcb9fabu0026onu003dPapua+Wamena+V60u0026midu003d/g/11gns8qpcz
cafe,cafe,,,,PAPUA BARAT,,Indonesia,,,,https://maps.google.com/?cid=0x0:0xdf7fa1241fcb9fabu0026onu003dManual+Brewu0026midu003d/g/11gns8qpcz
cafe,cafe,,,,PAPUA BARAT,,Indonesia,,,,https://maps.google.com/?cid=0x0:0xdf7fa1241fcb9fabu0026onu0026midu003d/g/11gns8qpcz
cafe,cafe,Papua Bar. 98456,Papua Bar.,Papua Bar.,PAPUA BARAT,,Indonesia,,-1.2191286,131.8799408,https://maps.google.com/?cid=0x0:0x1193e0fa67947a8b
cafe,Kedai Kopi,Kopi Ceplok,"Kp. Baru, Distrik Sorong, Kota Sorong, Papua Bar. 98411","Distrik Sorong, Kota Sorong",PAPUA BARAT,98411.0,Indonesia,81248716139.0,-0.8691274,131.2512787,https://maps.google.com/?cid=0x0:0xec02e409b92d8477
cafe,Kafe,Cafe Oofsrit,"G2WF+989, Wernas, Kec. Teminabuan, Kabupaten Sorong Selatan, Papua Bar. 98454","Wernas, Kec. Teminabuan, Kabupaten Sorong Selatan",PAPUA BARAT,98454.0,Indonesia,8124848277.0,-1.4540803,132.0233629,https://maps.google.com/?cid=0x0:0x6bf6657d93dbb773
cafe,Kedai Kopi,Sorong Cafe,"Sawagumu, Kec. Sorong Utara, Kota Sorong, Papua Bar.","Kota Sorong, Papua Bar.",PAPUA BARAT,,Indonesia,81248201730.0,-0.8893784,131.3128926,https://maps.google.com/?cid=0x0:0x7962c1d0ce1b0528
cafe,Kafe,fm_coffee,"477W+HQQ, Jl. Frans Kaisiepo, Malaingkedi, Kecamatan Sorong Manoi, Kota Sorong, Papua Bar. 98412","Jl. Frans Kaisiepo, Malaingkedi, Kecamatan Sorong Manoi, Kota Sorong",PAPUA BARAT,98412.0,Indonesia,81343004747.0,-0.8860257,131.2969774,https://maps.google.com/?cid=0x0:0x7e51e9d3ca47f90e
cafe,Kedai Kopi,Do.pyocoffee,"Jl. Sungai Maruni masuk No.km 10, Klawuyuk, Distrik Sorong Timur, Kota Sorong, Papua Bar. 98416","Klawuyuk, Distrik Sorong Timur, Kota Sorong",PAPUA BARAT,98416.0,Indonesia,,-0.8880443,131.3199144,https://maps.google.com/?cid=0x0:0xe98eb1eac6ada00d
cafe,cafe,The Coffee Gota Km 10,"4869+MMH, Jl. Sungai Maruni, Sawagumu, Kec. Sorong Utara, Kota Sorong, Papua Bar. 98416","Jl. Sungai Maruni, Sawagumu, Kec. Sorong Utara, Kota Sorong",PAPUA BARAT,98416.0,Indonesia,,-0.8883211,131.3192388,https://maps.google.com/?cid=0x0:0xd8dc1a7ff264a2db
cafe,Kedai Kopi,Lituretu Cafe,"Jl. Raja Ampat No.6, Kp. Baru, Distrik Sorong, Kota Sorong, Papua Bar. 98413","Kp. Baru, Distrik Sorong, Kota Sorong",PAPUA BARAT,98413.0,Indonesia,,-0.8693478,131.2513118,https://maps.google.com/?cid=0x0:0x9b07fe26707f42b1
cafe,Kedai Kopi,Coffeepod,"Ruko Harco Jl. Km.10, Sawagumu, Kec. Sorong Utara, Kota Sorong, Papua Bar. 98412","Sawagumu, Kec. Sorong Utara, Kota Sorong",PAPUA BARAT,98412.0,Indonesia,81240144401.0,-0.8902507,131.3143193,https://maps.google.com/?cid=0x0:0x3837d2354e647291
cafe,Layanan Transportasi,Bandara Inanwatan,"V5C7+W64, Mate, Distrik Inanwatan, Kabupaten Sorong Selatan, Papua Bar. 98455","Mate, Distrik Inanwatan, Kabupaten Sorong Selatan",PAPUA BARAT,98455.0,Indonesia,82196826597.0,-2.1277487,132.1630745,https://maps.google.com/?cid=0x0:0xd0b9c5c7d40453cc
cafe,Pelabuhan sungai,Pelabuhan Inanwatan,"V5F9+CFX, Mate, Distrik Inanwatan, Kabupaten Sorong Selatan, Papua Bar. 98455","Mate, Distrik Inanwatan, Kabupaten Sorong Selatan",PAPUA BARAT,98455.0,Indonesia,,-2.1263931,132.1687373,https://maps.google.com/?cid=0x0:0xf5cc6ee00e3f7391
cafe,cafe,Distrik Inanwatan,"Kabupaten Sorong Selatan, Papua Bar.","Kabupaten Sorong Selatan, Papua Bar.",PAPUA BARAT,,Indonesia,,-2.1273304,132.1663024,https://maps.google.com/?cid=0x0:0x871fec0706e82bc5
cafe,cafe,Kais,"Kabupaten Sorong Selatan, Papua Bar.","Kabupaten Sorong Selatan, Papua Bar.",PAPUA BARAT,,Indonesia,,-1.7657744,132.1572702,https://maps.google.com/?cid=0x0:0x9cffca2dcef5956
cafe,Kedai Kopi,Cafe NongâQ,"4857+WPX, Jl. Kilang Blk. B, Sawagumu, Kec. Sorong Utara, Kota Sorong, Papua Bar. 98412","Jl. Kilang Blk. B, Sawagumu, Kec. Sorong Utara, Kota Sorong",PAPUA BARAT,98412.0,Indonesia,81332413232.0,-0.8901424,131.3143502,https://maps.google.com/?cid=0x0:0xfa9c4c2bc1a74a40
cafe,Kafe,QIU-QIU CAFFE,"Harco square, Jl. Kilang No.5 km.9, Sawagumu, Kec. Sorong Utara, Kota Sorong, Papua Bar. 98412","Jl. Kilang No.5 km.9, Sawagumu, Kec. Sorong Utara, Kota Sorong",PAPUA BARAT,98412.0,Indonesia,82248868079.0,-0.8899456,131.3147394,https://maps.google.com/?cid=0x0:0xe291a1907a856fcd
cafe,cafe,Distrik Kokoda,"Kabupaten Sorong Selatan, Papua Bar.","Kabupaten Sorong Selatan, Papua Bar.",PAPUA BARAT,,Indonesia,,-2.1274352,132.4263464,https://maps.google.com/?cid=0x0:0xa783056c2a04f79f
cafe,Toko kopi,Kofuse Coffee  Dine,"1, Jl. Cikajang No.39, RT.1/RW.5, Kec. Kby. Baru, Daerah Khusus Ibukota Jakarta 12170","Jl. Cikajang No.39, RT.1/RW.5, Kec. Kby. Baru",PAPUA BARAT,12170.0,Indonesia,217203393.0,-6.2417693,106.8103682,https://maps.google.com/?cid=0x0:0xf19111a56ce0fd68
cafe,Kedai Kopi,KOKONAT Cafe,"WP5R+F7R Pantai maju, Rukan beach view, Pantai Indah Kapuk St No.1 Blok.A31, Kamal Muara, Jakarta 14450","Rukan beach view, Pantai Indah Kapuk St No.1 Blok.A31, Kamal Muara",PAPUA BARAT,14450.0,Indonesia,81574808836.0,-6.0912778,106.7406423,https://maps.google.com/?cid=0x0:0x764e7f8cf3e429e4
cafe,Kedai Kopi,Coffee spot Tebet,"Jl. Prof. DR. Soepomo No.13, Tebet Bar., Kec. Tebet, Jakarta, Daerah Khusus, Jakarta, Daerah Khusus Ibukota Jakarta 12810","Tebet Bar., Kec. Tebet, Jakarta, Daerah Khusus, Jakarta",PAPUA BARAT,12810.0,Indonesia,85716124357.0,-6.2407804,106.8452193,https://maps.google.com/?cid=0x0:0xd5d9006306b07a77
cafe,Pusat Perbelanjaan,East Coast PIK Golf Island,"Jl. Pulau Maju Bersama, Jakarta, Daerah Khusus Ibukota Jakarta 14460",Jakarta,PAPUA BARAT,14460.0,Indonesia,,-6.0925213,106.7487173,https://maps.google.com/?cid=0x0:0x7705f1926ee1fd83
cafe,cafe,Hong Tang East Coast,"EAST COAST, Jl. Pulau Maju Bersama Jl. Pantai Indah Kapuk, Daerah Khusus Ibukota Jakarta 14460",Jl. Pulau Maju Bersama Jl. Pantai Indah Kapuk,PAPUA BARAT,14460.0,Indonesia,,-6.0920735,106.7470948,https://maps.google.com/?cid=0x0:0xdfe27e22ed24f6b5
cafe,Kedai Kopi,Kokoda Cafe Rhodes,"Rhodes Park, Killoola St, Concord West NSW 2138, Australia","Concord West NSW, Australia",PAPUA BARAT,,Indonesia,61287651797.0,-33.8342764,151.0904056,https://maps.google.com/?cid=0x0:0x6d4c0f572ee1053d
cafe,cafe,Signal Hunter,"49G8+M46, Atori / Kambur, Kec. Kokoda Utara, Kabupaten Sorong Selatan, Papua Bar. 98455","Atori / Kambur, Kec. Kokoda Utara, Kabupaten Sorong Selatan",PAPUA BARAT,98455.0,Indonesia,81254015471.0,-1.873335,132.3652767,https://maps.google.com/?cid=0x0:0x62b81f42be64ac35
cafe,cafe,Papua Bar.,,Papua Bar.,PAPUA BARAT,,Indonesia,,-1.3361154,133.1747162,https://maps.google.com/?cid=0x0:0x5349c1f8c5c7cb62
cafe,Toko kopi,ENGINEERING COFFEE SORONG,"Jl. Basuki Rahmat, Remu Sel., Kecamatan Sorong Manoi, Kota Sorong, Papua Bar. 98415","Remu Sel., Kecamatan Sorong Manoi, Kota Sorong",PAPUA BARAT,98415.0,Indonesia,85239860284.0,-0.8836482,131.2857925,https://maps.google.com/?cid=0x0:0x6ffb2e2af5ed06c1
cafe,Kedai Kopi,ENGINEERING COFFEE AIMAS,"Jalur D samping kantor PDAM, Kec. Aimas, Kabupaten Sorong, Papua Bar. 98444","Kec. Aimas, Kabupaten Sorong",PAPUA BARAT,98444.0,Indonesia,81344646139.0,-0.9556394,131.3309762,https://maps.google.com/?cid=0x0:0xc9393d225085004e
cafe,Kedai Kopi,Sorong Cafe,"Sawagumu, Kec. Sorong Utara, Kota Sorong, Papua Bar.","Kota Sorong, Papua Bar.",PAPUA BARAT,,Indonesia,81248201730.0,-0.8893784,131.3128926,https://maps.google.com/?cid=0x0:0x7962c1d0ce1b0528
cafe,Kedai Kopi,wabisabicoffee,"Kp. Baru, Distrik Sorong, Kota Sorong, Papua Bar. 98411","Distrik Sorong, Kota Sorong",PAPUA BARAT,98411.0,Indonesia,82137563208.0,-0.8704999,131.253128,https://maps.google.com/?cid=0x0:0xd4029d1b24ccb3b3
cafe,Pujasera,Hangout Avenue Sorong,"Jl Sungai Maruni KM 10, Masuk No.23, Kota Sorong, Papua Bar. 98416","Masuk No.23, Kota Sorong",PAPUA BARAT,98416.0,Indonesia,82197698090.0,-0.8868107,131.3216004,https://maps.google.com/?cid=0x0:0x29c3ed1d6d1ac389
cafe,Kedai Kopi,Brown Hill Cafe,"48G3+7XV, Jl. F Kalasuat, Malanu, Kec. Sorong Utara, Kota Sorong, Papua Bar. 98412","Jl. F Kalasuat, Malanu, Kec. Sorong Utara, Kota Sorong",PAPUA BARAT,98412.0,Indonesia,82114721193.0,-0.8742653,131.3049307,https://maps.google.com/?cid=0x0:0xa60cb6d736dfcb14
cafe,Kedai Kopi,Do.pyocoffee,"Jl. Sungai Maruni masuk No.km 10, Klawuyuk, Distrik Sorong Timur, Kota Sorong, Papua Bar. 98416","Klawuyuk, Distrik Sorong Timur, Kota Sorong",PAPUA BARAT,98416.0,Indonesia,,-0.8880443,131.3199144,https://maps.google.com/?cid=0x0:0xe98eb1eac6ada00d
cafe,Kedai Kopi,Z COFFEE,"42HX+V6C, Jl. Trikora Rendani, Wosi, Kec. Manokwari Bar., Kabupaten Manokwari, Papua Bar. 98312","Jl. Trikora Rendani, Wosi, Kec. Manokwari Bar., Kabupaten Manokwari",PAPUA BARAT,98312.0,Indonesia,81247192526.0,-0.8703133,134.0480103,https://maps.google.com/?cid=0x0:0x52fc52684fc7839c
cafe,Kedai Kopi,Kandera Cafe,"Jalan Reremi Permai No.50, Manokwari Bar., Kec. Manokwari Bar., Kabupaten Manokwari, Papua Bar. 98312","Manokwari Bar., Kec. Manokwari Bar., Kabupaten Manokwari",PAPUA BARAT,98312.0,Indonesia,85244067676.0,-0.8614531,134.0620421,https://maps.google.com/?cid=0x0:0x3df0d0628479781f
cafe,Kedai Kopi,Garasi Ipok (Kopi),"Wosi, Kec. Manokwari Bar., Kabupaten Manokwari, Papua Bar. 98312","Kec. Manokwari Bar., Kabupaten Manokwari",PAPUA BARAT,98312.0,Indonesia,,-0.8752236,134.0501855,https://maps.google.com/?cid=0x0:0x12e09be1a67f324f
cafe,Kafe,Warkop The Joint,"bambu kuning No.4, Sowi, Distrik Manokwari, Kabupaten Manokwari, Papua Bar. 98313","Sowi, Distrik Manokwari, Kabupaten Manokwari",PAPUA BARAT,98313.0,Indonesia,82397008155.0,-0.9171291,134.0381344,https://maps.google.com/?cid=0x0:0x3a7d647af2873292
cafe,Kafe,Coffee Brothers,"Maniwak, Manggurai PEMDA, Iriati, Distrik Wasior, Kabupaten Teluk Wondama, Papua Bar. 98362","Manggurai PEMDA, Iriati, Distrik Wasior, Kabupaten Teluk Wondama",PAPUA BARAT,98362.0,Indonesia,85244343890.0,-2.761305,134.5119245,https://maps.google.com/?cid=0x0:0x40dcc2c8a660e005
cafe,Kafe,Tempat Nongkrong,"47X3+493, Jl. Trikora, Klawasi, Distrik Sorong Barat, Kota Sorong, Papua Bar. 98411","Jl. Trikora, Klawasi, Distrik Sorong Barat, Kota Sorong",PAPUA BARAT,98411.0,Indonesia,,-0.8520973,131.2534797,https://maps.google.com/?cid=0x0:0xf16a4b736192783b
cafe,cafe,Papua Bar. 98454,"Kabupaten Sorong Selatan, Papua Bar.","Kabupaten Sorong Selatan, Papua Bar.",PAPUA BARAT,,Indonesia,,-1.4196083,131.9989718,https://maps.google.com/?cid=0x0:0x85355e3327b207ba
cafe,Kedai Kopi,ENGINEERING COFFEE AIMAS,"Jalur D samping kantor PDAM, Kec. Aimas, Kabupaten Sorong, Papua Bar. 98444","Kec. Aimas, Kabupaten Sorong",PAPUA BARAT,98444.0,Indonesia,81344646139.0,-0.9556394,131.3309762,https://maps.google.com/?cid=0x0:0xc9393d225085004e
cafe,Toko kopi,ENGINEERING COFFEE SORONG,"Jl. Basuki Rahmat, Remu Sel., Kecamatan Sorong Manoi, Kota Sorong, Papua Bar. 98415","Remu Sel., Kecamatan Sorong Manoi, Kota Sorong",PAPUA BARAT,98415.0,Indonesia,85239860284.0,-0.8836482,131.2857925,https://maps.google.com/?cid=0x0:0x6ffb2e2af5ed06c1
cafe,Kedai Kopi,Serupa Cafe and Eatery,"Jl. Nangka, Malawili, Kec. Aimas, Kabupaten Sorong, Papua Bar. 98444","Malawili, Kec. Aimas, Kabupaten Sorong",PAPUA BARAT,98444.0,Indonesia,,-0.9574859,131.3226217,https://maps.google.com/?cid=0x0:0xc58cb63de2e28003
cafe,Kafe,CU@CAFE Kemang Pratama,"Jl. Kemang Pratama Raya Jl. Niaga Raya No.3 Blok C, RT.001/RW.011, Sepanjang Jaya, Kec. Rawalumbu, Kota Bks, Jawa Barat 17114","RT.001/RW.011, Sepanjang Jaya, Kec. Rawalumbu, Kota Bks",PAPUA BARAT,17114.0,Indonesia,82246112511.0,-6.2699071,106.9880746,https://maps.google.com/?cid=0x0:0x8f9e02c238c9579a
cafe,Toko kopi,Kofuse Coffee  Dine,"1, Jl. Cikajang No.39, RT.1/RW.5, Kec. Kby. Baru, Daerah Khusus Ibukota Jakarta 12170","Jl. Cikajang No.39, RT.1/RW.5, Kec. Kby. Baru",PAPUA BARAT,12170.0,Indonesia,217203393.0,-6.2417693,106.8103682,https://maps.google.com/?cid=0x0:0xf19111a56ce0fd68
cafe,cafe,CU@CAFE Grand Wisata,"Jl. Grand Wisata No.Kavling 6B, Lambangsari, Kec. Tambun Sel., Kabupaten Bekasi, Jawa Barat 17510","Lambangsari, Kec. Tambun Sel., Kabupaten Bekasi",PAPUA BARAT,17510.0,Indonesia,81298980203.0,-6.2788601,107.0469005,https://maps.google.com/?cid=0x0:0xc75734c42755450a
cafe,Kafe,Kawisari Cafe  Eatery,"Jl. Kebon Sirih No.77A, RT.1/RW.1, Kb. Sirih, Kec. Menteng, Kota Jakarta Pusat, Daerah Khusus Ibukota Jakarta 10340","RT.1/RW.1, Kb. Sirih, Kec. Menteng, Kota Jakarta Pusat",PAPUA BARAT,10340.0,Indonesia,87883195051.0,-6.1834199,106.825158,https://maps.google.com/?cid=0x0:0x4beb90a3196d57e5
cafe,Kafe,CU@CAFE Kota Wisata,"Jl. Wisata Utama No.30 Blok I1, Ciangsana, Gunung Putri, Bogor Regency, West Java 16968","Ciangsana, Gunung Putri, Bogor Regency",PAPUA BARAT,16968.0,Indonesia,8111113446.0,-6.3670958,106.955498,https://maps.google.com/?cid=0x0:0x8648e83f086cb936
cafe,Kedai Kopi,FOUR CORNERS - Coffee Shop Bogor,"Jl. DR. Sumeru No.44, Kota, Kec. Bogor Bar., Kota Bogor, Jawa Barat 16111","Kota, Kec. Bogor Bar., Kota Bogor",PAPUA BARAT,16111.0,Indonesia,81316674844.0,-6.5892521,106.7853718,https://maps.google.com/?cid=0x0:0x2b7130985b1e0ce5
cafe,Kedai Kopi,Kopi Cikajang,"Jl. Cikajang No.59a, RT.5/RW.5, Petogogan, Kec. Kby. Baru, Kota Jakarta Selatan, Daerah Khusus Ibukota Jakarta 12170","RT.5/RW.5, Petogogan, Kec. Kby. Baru, Kota Jakarta Selatan",PAPUA BARAT,12170.0,Indonesia,8179200946.0,-6.2431471,106.8093826,https://maps.google.com/?cid=0x0:0xed543bab202f4a57
cafe,Kedai Kopi,Coffee spot Tebet,"Jl. Prof. DR. Soepomo No.13, Tebet Bar., Kec. Tebet, Jakarta, Daerah Khusus, Jakarta, Daerah Khusus Ibukota Jakarta 12810","Tebet Bar., Kec. Tebet, Jakarta, Daerah Khusus, Jakarta",PAPUA BARAT,12810.0,Indonesia,85716124357.0,-6.2407804,106.8452193,https://maps.google.com/?cid=0x0:0xd5d9006306b07a77
cafe,Kedai Kopi,Tsuin Bogor Raya at Padi Space,"Jl. Kp. Sawah No.2, Tanah Baru, Kec. Bogor Utara, Kota Bogor, Jawa Barat 16154","Tanah Baru, Kec. Bogor Utara, Kota Bogor",PAPUA BARAT,16154.0,Indonesia,81295112051.0,-6.5976351,106.8189419,https://maps.google.com/?cid=0x0:0x4986dff7cbbf2445
cafe,cafe,Kafein Corner,"Jl. Taman Wisma Asri II No.7A Blok AA 39, Tlk. Pucung, Kec. Bekasi Utara, Kota Bks, Jawa Barat 17121","Tlk. Pucung, Kec. Bekasi Utara, Kota Bks",PAPUA BARAT,17121.0,Indonesia,81381153939.0,-6.1991276,107.0283332,https://maps.google.com/?cid=0x0:0x29471b9dbd9b1254
cafe,cafe,Phonam cafe,"3867+366, Tawanggire, Kec. Matemani, Kabupaten Sorong Selatan, Papua Bar. 98455","Tawanggire, Kec. Matemani, Kabupaten Sorong Selatan",PAPUA BARAT,98455.0,Indonesia,,-1.9398334,132.3130187,https://maps.google.com/?cid=0x0:0xdd2c6f9d1b7541f7
cafe,cafe,Distrik Moswaren,"Kabupaten Sorong Selatan, Papua Bar.","Kabupaten Sorong Selatan, Papua Bar.",PAPUA BARAT,,Indonesia,,-1.4917637,132.2410573,https://maps.google.com/?cid=0x0:0xc435d4289dbbc461
cafe,cafe,Kisah manis,"Bumi Ajo (Sp I), Distrik Moswaren, Kabupaten Sorong Selatan, Papua Bar. 98212","Distrik Moswaren, Kabupaten Sorong Selatan",PAPUA BARAT,98212.0,Indonesia,82233914379.0,-1.4975234,132.2411755,https://maps.google.com/?cid=0x0:0xf84bf09a3310764e
cafe,Rumah Makan,RM. TRENGGALEK,"jalur6, Bumi Ajo (Sp I), Distrik Moswaren, Kabupaten Sorong Selatan, Papua Bar. 98462","Bumi Ajo (Sp I), Distrik Moswaren, Kabupaten Sorong Selatan",PAPUA BARAT,98462.0,Indonesia,82199412713.0,-1.4919244,132.2411117,https://maps.google.com/?cid=0x0:0x4943db263fbfbd7e
cafe,Restoran,RM Mama Dede,"G636+34, Hasik Jaya (Sp II), Distrik Moswaren, Kabupaten Sorong Selatan, Papua Bar.","Kabupaten Sorong Selatan, Papua Bar.",PAPUA BARAT,,Indonesia,81248247374.0,-1.4973733,132.2103083,https://maps.google.com/?cid=0x0:0xe546b8ea57f74bf1
cafe,Padang,RM Ratu Nona Restoe,"G64V+M6Q, Unnamed Road, Bumi Ajo (Sp I), Distrik Moswaren, Kabupaten Sorong Selatan, Papua Bar. 98462","Unnamed Road, Bumi Ajo (Sp I), Distrik Moswaren, Kabupaten Sorong Selatan",PAPUA BARAT,98462.0,Indonesia,82238959994.0,-1.4932775,132.2430975,https://maps.google.com/?cid=0x0:0x8c03a7da9fe093a5
cafe,Rumah Makan,Rumah Makan Khumairoh,"G65R+G4J, Unnamed Road, Bumi Ajo (Sp I), Distrik Moswaren, Kabupaten Sorong Selatan, Papua Bar. 98462","Unnamed Road, Bumi Ajo (Sp I), Distrik Moswaren, Kabupaten Sorong Selatan",PAPUA BARAT,98462.0,Indonesia,81247584278.0,-1.4911533,132.2402583,https://maps.google.com/?cid=0x0:0x492f1b5d68e43ba9
cafe,Rumah Makan,RUMAH MAKAN BERKAT,"G629+V3W, Hasik Jaya (Sp II), Distrik Moswaren, Kabupaten Sorong Selatan, Papua Bar. 98462","Hasik Jaya (Sp II), Distrik Moswaren, Kabupaten Sorong Selatan",PAPUA BARAT,98462.0,Indonesia,82238287271.0,-1.4973621,132.2178368,https://maps.google.com/?cid=0x0:0x74b8d814bba96486
cafe,cafe,Bakso Barokah Lestari,"G63R+Q2X, jalur 7, Bumi Ajo (Sp I), Distrik Moswaren, Kabupaten Sorong Selatan, Papua Bar. 98462","jalur 7, Bumi Ajo (Sp I), Distrik Moswaren, Kabupaten Sorong Selatan",PAPUA BARAT,98462.0,Indonesia,,-1.4955047,132.2401179,https://maps.google.com/?cid=0x0:0x6407666ebd7193dc
cafe,cafe,Warkop Intan,"G66P+MF8, Bumi Ajo (Sp I), Distrik Moswaren, Kabupaten Sorong Selatan, Papua Bar. 98462","Bumi Ajo (Sp I), Distrik Moswaren, Kabupaten Sorong Selatan",PAPUA BARAT,98462.0,Indonesia,,-1.4883257,132.2362177,https://maps.google.com/?cid=0x0:0x9c2626d4ab0fdc67
cafe,cafe,Distrik Saifi,"Kabupaten Sorong Selatan, Papua Bar.","Kabupaten Sorong Selatan, Papua Bar.",PAPUA BARAT,,Indonesia,,-1.409921,131.9086673,https://maps.google.com/?cid=0x0:0x17f34f6f11d7ef
cafe,Kedai Kopi,wabisabicoffee,"Kp. Baru, Distrik Sorong, Kota Sorong, Papua Bar. 98411","Distrik Sorong, Kota Sorong",PAPUA BARAT,98411.0,Indonesia,82137563208.0,-0.8704999,131.253128,https://maps.google.com/?cid=0x0:0xd4029d1b24ccb3b3
cafe,Toko Roti,Billycoffee,"47C7+C65, Jl. Ahmad Yani, Klakublik, Distrik Sorong, Kota Sorong, Papua Bar. 98412","Jl. Ahmad Yani, Klakublik, Distrik Sorong, Kota Sorong",PAPUA BARAT,98412.0,Indonesia,,-0.8788942,131.2631541,https://maps.google.com/?cid=0x0:0x721fba8bd1d4a255
cafe,cafe,,,,PAPUA BARAT,,Indonesia,,,,https://maps.google.com/?cid=0x0:0xd4029d1b24ccb3b3u0026onu003dClassic+Mojitou0026midu003d/g/11w4xmnf6p
cafe,cafe,,,,PAPUA BARAT,,Indonesia,,,,https://maps.google.com/?cid=0x0:0xd4029d1b24ccb3b3u0026onu003dSignature+Ramen+WSu0026midu003d/g/11w4xmnf6p
cafe,cafe,,,,PAPUA BARAT,,Indonesia,,,,https://maps.google.com/?cid=0x0:0xd4029d1b24ccb3b3u0026onu003dGarlic+Breadu0026midu003d/g/11w4xmnf6p
cafe,cafe,,,,PAPUA BARAT,,Indonesia,,,,https://maps.google.com/?cid=0x0:0xd4029d1b24ccb3b3u0026onu0026midu003d/g/11w4xmnf6p
cafe,Kafe,Loffee Coffee  Eatery,"13, Jl. Tebet Timur Dalam Raya No.44b, RW.9, Tebet Tim., Kota Jakarta Selatan, Daerah Khusus Ibukota Jakarta 12820","Jl. Tebet Timur Dalam Raya No.44b, RW.9, Tebet Tim., Kota Jakarta Selatan",PAPUA BARAT,12820.0,Indonesia,87879459331.0,-6.2396851,106.8563903,https://maps.google.com/?cid=0x0:0x3687dfc5c814ee6d
cafe,Kafe,Sejenak Cafe,"Jl. Raya Inkopad, Kalisuren, Kec. Tajur Halang, Kabupaten Bogor, Jawa Barat 16320","Kalisuren, Kec. Tajur Halang, Kabupaten Bogor",PAPUA BARAT,16320.0,Indonesia,81315460117.0,-6.4593114,106.7406217,https://maps.google.com/?cid=0x0:0xf323a8beff311455
cafe,Kedai Kopi,Smoking Barrels Atelier,"Jl. Cilandak Tengah Raya No.8, Cilandak Bar., Kec. Cilandak, Kota Jakarta Selatan, Daerah Khusus Ibukota Jakarta 12430","Cilandak Bar., Kec. Cilandak, Kota Jakarta Selatan",PAPUA BARAT,12430.0,Indonesia,85280072545.0,-6.2870389,106.80215,https://maps.google.com/?cid=0x0:0x7102363fff0acaeb
cafe,Kedai Kopi,Sinilagi Panglima Polim - Food  Coffee,"Jl. Panglima Polim IX No.2, RT.2/RW.6, Melawai, Kec. Kby. Baru, Kota Jakarta Selatan, Daerah Khusus Ibukota Jakarta 12160","RT.2/RW.6, Melawai, Kec. Kby. Baru, Kota Jakarta Selatan",PAPUA BARAT,12160.0,Indonesia,81380370000.0,-6.2499027,106.7982218,https://maps.google.com/?cid=0x0:0x8f6167df471724df
cafe,Kafe,Serayat,"Jl. Rawa Selatan IV Jl. Mardani Raya No.16, RW.3, Johar Baru, Kec. Johar Baru, Kota Jakarta Pusat, Daerah Khusus Ibukota Jakarta 10560","RW.3, Johar Baru, Kec. Johar Baru, Kota Jakarta Pusat",PAPUA BARAT,10560.0,Indonesia,81288160840.0,-6.1812429,106.8579619,https://maps.google.com/?cid=0x0:0x7dceffe4b6e8f7a6
cafe,Kedai Kopi,Sinilagi - Food and Coffee,"Ruko Puri Kencana. Jalan Puri Kencana Blok K7/3U, RT.11/RW.7, Kembangan Sel., Kec. Kembangan, Kota Jakarta Barat, Daerah Khusus Ibukota Jakarta 11610","RT.11/RW.7, Kembangan Sel., Kec. Kembangan, Kota Jakarta Barat",PAPUA BARAT,11610.0,Indonesia,,-6.1907131,106.7477643,https://maps.google.com/?cid=0x0:0x542750392acff889
cafe,Indonesia,SAJENAK,"Jl. Rawa Domba No.47A, RT.2/RW.16, Duren Sawit, Kec. Duren Sawit, Kota Jakarta Timur, Daerah Khusus Ibukota Jakarta 13440","RT.2/RW.16, Duren Sawit, Kec. Duren Sawit, Kota Jakarta Timur",PAPUA BARAT,13440.0,Indonesia,85693172926.0,-6.2460602,106.9144355,https://maps.google.com/?cid=0x0:0x196d193ba18e8007
cafe,cafe,Papua Bar. 98456,Papua Bar.,Papua Bar.,PAPUA BARAT,,Indonesia,,-1.2191286,131.8799408,https://maps.google.com/?cid=0x0:0x1193e0fa67947a8b
cafe,cafe,Cafe Saralta,"28P4+M2W, Jl. Wortel, Malawele, Kec. Aimas, Kabupaten Sorong, Papua Bar.","Kabupaten Sorong, Papua Bar.",PAPUA BARAT,,Indonesia,,-0.9632579,131.3050764,https://maps.google.com/?cid=0x0:0x2396ec5544d25e8a
cafe,cafe,Senja Cafe,"28RH+9QV, Jl. Sawo, Malawili, Kec. Aimas, Kabupaten Sorong, Papua Bar. 98414","Jl. Sawo, Malawili, Kec. Aimas, Kabupaten Sorong",PAPUA BARAT,98414.0,Indonesia,,-0.9590185,131.3294117,https://maps.google.com/?cid=0x0:0x1e32faa575a7dcc1
cafe,cafe,UNIMUDA CAFE,"2893+G7W, Jl. Mariat Pantai, Mariat Pantai, Kec. Aimas, Kabupaten Sorong, Papua Bar. 98414","Jl. Mariat Pantai, Mariat Pantai, Kec. Aimas, Kabupaten Sorong",PAPUA BARAT,98414.0,Indonesia,,-0.9811467,131.3032109,https://maps.google.com/?cid=0x0:0x3ae6892ff8aab2de
cafe,Kedai Kopi,SEDANU,"28VC+3V9, Malawili, Kec. Aimas, Kabupaten Sorong, Papua Bar. 98414","Malawili, Kec. Aimas, Kabupaten Sorong",PAPUA BARAT,98414.0,Indonesia,81330248758.0,-0.9573347,131.3222483,https://maps.google.com/?cid=0x0:0x7b3cc3a84eb65692
cafe,Restoran,SayStory Aimas,"Malawele, Kec. Aimas, Kabupaten Sorong, Papua Bar. 98414","Kec. Aimas, Kabupaten Sorong",PAPUA BARAT,98414.0,Indonesia,,-0.9576154,131.3297136,https://maps.google.com/?cid=0x0:0x4c40c22ddedffea9
cafe,Kafe,Cafe Oofsrit,"G2WF+989, Wernas, Kec. Teminabuan, Kabupaten Sorong Selatan, Papua Bar. 98454","Wernas, Kec. Teminabuan, Kabupaten Sorong Selatan",PAPUA BARAT,98454.0,Indonesia,8124848277.0,-1.4540803,132.0233629,https://maps.google.com/?cid=0x0:0x6bf6657d93dbb773
cafe,Kedai Kopi,Halli Galli Cafe  Resto,"Jl. Tomat No.Unit 2, Malawele, Distrik Sorong, Kabupaten Sorong, Papua Bar. 98414","Malawele, Distrik Sorong, Kabupaten Sorong",PAPUA BARAT,98414.0,Indonesia,82119768794.0,-0.9620366,131.3135301,https://maps.google.com/?cid=0x0:0x29c7a583360bbdc8
cafe,Kafe,Cafe Wemith,"H22G+445, Jl. Mesjid Raya, Wermit, Kec. Teminabuan, Kabupaten Sorong Selatan, Papua Bar. 98454","Jl. Mesjid Raya, Wermit, Kec. Teminabuan, Kabupaten Sorong Selatan",PAPUA BARAT,98454.0,Indonesia,,-1.4497422,132.025372,https://maps.google.com/?cid=0x0:0x796c2e8c310c5ce2
cafe,Kedai Kopi,ENGINEERING COFFEE AIMAS,"Jalur D samping kantor PDAM, Kec. Aimas, Kabupaten Sorong, Papua Bar. 98444","Kec. Aimas, Kabupaten Sorong",PAPUA BARAT,98444.0,Indonesia,81344646139.0,-0.9556394,131.3309762,https://maps.google.com/?cid=0x0:0xc9393d225085004e
cafe,Toko kopi,Nthree Point Cafe,"28VH+478, Jl. Nangka, Malawili, Kec. Aimas, Kabupaten Sorong, Papua Bar. 98414","Jl. Nangka, Malawili, Kec. Aimas, Kabupaten Sorong",PAPUA BARAT,98414.0,Indonesia,82118328860.0,-0.957217,131.3281964,https://maps.google.com/?cid=0x0:0x6d6630dff9b0c07b
cafe,Padang,Rest Area Sederhana,"WPW5+5CW, Sayosa, Kec. Sayosa, Kabupaten Sorong, Papua Bar. 98471","Sayosa, Kec. Sayosa, Kabupaten Sorong",PAPUA BARAT,98471.0,Indonesia,,-1.0545087,131.7085809,https://maps.google.com/?cid=0x0:0x39af320198873dda
cafe,Toko Kue Pernikahan,DEPOT LEZAAT-AIMAS SORONG,"Jl. Walet, Malawele, Kec. Aimas, Kabupaten Sorong, Papua Bar. 98414","Malawele, Kec. Aimas, Kabupaten Sorong",PAPUA BARAT,98414.0,Indonesia,81231431927.0,-0.9804582,131.310424,https://maps.google.com/?cid=0x0:0xb6afa9bc85a5b54c
cafe,Kafe,Cafe Clan,"28XP+276, Bar., Malawili, Kec. Aimas, Kabupaten Sorong, Papua Bar. 98414","Bar., Malawili, Kec. Aimas, Kabupaten Sorong",PAPUA BARAT,98414.0,Indonesia,,-0.9524611,131.3356532,https://maps.google.com/?cid=0x0:0xf5fb8065f3049deb
cafe,cafe,Distrik Seremuk,"Kabupaten Sorong Selatan, Papua Bar.","Kabupaten Sorong Selatan, Papua Bar.",PAPUA BARAT,,Indonesia,,-1.3800751,131.971713,https://maps.google.com/?cid=0x0:0xe12c32b535c8440a
cafe,Kedai Kopi,Kave,"G2WF+98G, Unnamed Road, Wermit, Kec. Teminabuan, Kabupaten Sorong Selatan, Papua Bar. 98454","Unnamed Road, Wermit, Kec. Teminabuan, Kabupaten Sorong Selatan",PAPUA BARAT,98454.0,Indonesia,,-1.4540675,132.0233327,https://maps.google.com/?cid=0x0:0xe26962da167b03d9
cafe,Kafe,Cafe Oofsrit,"G2WF+989, Wernas, Kec. Teminabuan, Kabupaten Sorong Selatan, Papua Bar. 98454","Wernas, Kec. Teminabuan, Kabupaten Sorong Selatan",PAPUA BARAT,98454.0,Indonesia,8124848277.0,-1.4540803,132.0233629,https://maps.google.com/?cid=0x0:0x6bf6657d93dbb773
cafe,Kafe,Cafe Wemith,"H22G+445, Jl. Mesjid Raya, Wermit, Kec. Teminabuan, Kabupaten Sorong Selatan, Papua Bar. 98454","Jl. Mesjid Raya, Wermit, Kec. Teminabuan, Kabupaten Sorong Selatan",PAPUA BARAT,98454.0,Indonesia,,-1.4497422,132.025372,https://maps.google.com/?cid=0x0:0x796c2e8c310c5ce2
cafe,Kafe,Kafe' Baru Buka,"G2VG+C6C, Jl. Sengget, Wermit, Kec. Teminabuan, Kabupaten Sorong Selatan, Papua Bar. 98454","Jl. Sengget, Wermit, Kec. Teminabuan, Kabupaten Sorong Selatan",PAPUA BARAT,98454.0,Indonesia,81248510710.0,-1.4564405,132.0255147,https://maps.google.com/?cid=0x0:0xb20f6f642f2aac57
cafe,Kafe,kedai d,"G2VG+F7V, Jl. Sengget, Sayolo, Kec. Teminabuan, Kabupaten Sorong Selatan, Papua Bar. 98454","Jl. Sengget, Sayolo, Kec. Teminabuan, Kabupaten Sorong Selatan",PAPUA BARAT,98454.0,Indonesia,811485800.0,-1.4562656,132.0256823,https://maps.google.com/?cid=0x0:0xed4401e9a68e59e0
cafe,Nasi,BLACK WARKOP,"G2WF+4M, Wermit, Kec. Teminabuan, Kabupaten Sorong Selatan, Papua Bar. 98454","Wermit, Kec. Teminabuan, Kabupaten Sorong Selatan",PAPUA BARAT,98454.0,Indonesia,,-1.4557089,132.023836,https://maps.google.com/?cid=0x0:0xefeb9b00fb2aa4cb
cafe,Kafe,WARUNG MAKAN SUCARI,"Pangkalan Trek, Jl. Sengget, Sayolo, Kec. Teminabuan, Kabupaten Sorong Selatan, Papua Bar. 98454","Jl. Sengget, Sayolo, Kec. Teminabuan, Kabupaten Sorong Selatan",PAPUA BARAT,98454.0,Indonesia,81247796606.0,-1.4416238,132.0161865,https://maps.google.com/?cid=0x0:0xf65d9141dc997374
cafe,Restoran,Warung Mbak Rika,"H247+3VM, Sayolo, Kec. Teminabuan, Kabupaten Sorong Selatan, Papua Bar. 98454","Sayolo, Kec. Teminabuan, Kabupaten Sorong Selatan",PAPUA BARAT,98454.0,Indonesia,,-1.4447934,132.014668,https://maps.google.com/?cid=0x0:0x3e3427b3b818adf1
cafe,Kedai Kopi,WARKOP MABES TFC SORSEL,"H238+W49, Jl. Sengget, Sayolo, Kec. Teminabuan, Kabupaten Sorong Selatan, Papua Bar. 98454","Jl. Sengget, Sayolo, Kec. Teminabuan, Kabupaten Sorong Selatan",PAPUA BARAT,98454.0,Indonesia,85197399777.0,-1.445202,132.0153662,https://maps.google.com/?cid=0x0:0x53cc49c512ddf64d
cafe,Kafe,Momma'S Kitchen,"H248+3C3, Sayolo, Kec. Teminabuan, Kabupaten Sorong Selatan, Papua Bar. 98454","Sayolo, Kec. Teminabuan, Kabupaten Sorong Selatan",PAPUA BARAT,98454.0,Indonesia,81248510710.0,-1.4448732,132.0160368,https://maps.google.com/?cid=0x0:0x2c580e80e881e790
cafe,cafe,KEDAI PINK KALIAT,"G2MP+M4C, Kaliat, Wernas, Kec. Teminabuan, Kabupaten Sorong Selatan, Papua Bar. 98454","Kaliat, Wernas, Kec. Teminabuan, Kabupaten Sorong Selatan",PAPUA BARAT,98454.0,Indonesia,,-1.4658165,132.0352704,https://maps.google.com/?cid=0x0:0x72f94949d240b433
cafe,Kafe,KEDAI Q'TA TEMINABUAN,"G2VG+C6J TOKO TEMI, Wermit, Kec. Teminabuan, Kabupaten Sorong Selatan, Papua Bar. 98454","Wermit, Kec. Teminabuan, Kabupaten Sorong Selatan",PAPUA BARAT,98454.0,Indonesia,82239991700.0,-1.4564214,132.0255157,https://maps.google.com/?cid=0x0:0x2e637fed4d4b82a
cafe,Toko Roti,Sasukun Cafe / Kue Maniso,"Jl. KPR Klasaman Permai, Klamana, Distrik Sorong Timur, Kota Sorong, Papua Bar. 98417","Klamana, Distrik Sorong Timur, Kota Sorong",PAPUA BARAT,98417.0,Indonesia,81343186117.0,-0.9088288,131.3272156,https://maps.google.com/?cid=0x0:0x3a6b69777a1af5da
cafe,cafe,Kec. Teminabuan,"Kabupaten Sorong Selatan, Papua Bar.","Kabupaten Sorong Selatan, Papua Bar.",PAPUA BARAT,,Indonesia,,-1.4418184,132.0109997,https://maps.google.com/?cid=0x0:0x26fd6623ef786a25
cafe,Kedai Kopi,Kave,"G2WF+98G, Unnamed Road, Wermit, Kec. Teminabuan, Kabupaten Sorong Selatan, Papua Bar. 98454","Unnamed Road, Wermit, Kec. Teminabuan, Kabupaten Sorong Selatan",PAPUA BARAT,98454.0,Indonesia,,-1.4540675,132.0233327,https://maps.google.com/?cid=0x0:0xe26962da167b03d9
cafe,Kafe,Cafe Wemith,"H22G+445, Jl. Mesjid Raya, Wermit, Kec. Teminabuan, Kabupaten Sorong Selatan, Papua Bar. 98454","Jl. Mesjid Raya, Wermit, Kec. Teminabuan, Kabupaten Sorong Selatan",PAPUA BARAT,98454.0,Indonesia,,-1.4497422,132.025372,https://maps.google.com/?cid=0x0:0x796c2e8c310c5ce2
cafe,Kafe,KEDAI Q'TA TEMINABUAN,"G2VG+C6J TOKO TEMI, Wermit, Kec. Teminabuan, Kabupaten Sorong Selatan, Papua Bar. 98454","Wermit, Kec. Teminabuan, Kabupaten Sorong Selatan",PAPUA BARAT,98454.0,Indonesia,82239991700.0,-1.4564214,132.0255157,https://maps.google.com/?cid=0x0:0x2e637fed4d4b82a
cafe,Kafe,Kopi Ngopi Coffee Shop,"G2MM+QGF, Unnamed Road, Kaliat, Wernas, Kec. Teminabuan, Kabupaten Sorong Selatan, Papua Bar. 98454","Unnamed Road, Kaliat, Wernas, Kec. Teminabuan, Kabupaten Sorong Selatan",PAPUA BARAT,98454.0,Indonesia,82199607919.0,-1.4655622,132.0337832,https://maps.google.com/?cid=0x0:0x5457bf8c33b49594
cafe,Nasi,BLACK WARKOP,"G2WF+4M, Wermit, Kec. Teminabuan, Kabupaten Sorong Selatan, Papua Bar. 98454","Wermit, Kec. Teminabuan, Kabupaten Sorong Selatan",PAPUA BARAT,98454.0,Indonesia,,-1.4557089,132.023836,https://maps.google.com/?cid=0x0:0xefeb9b00fb2aa4cb
cafe,Kafe,Kafe' Baru Buka,"G2VG+C6C, Jl. Sengget, Wermit, Kec. Teminabuan, Kabupaten Sorong Selatan, Papua Bar. 98454","Jl. Sengget, Wermit, Kec. Teminabuan, Kabupaten Sorong Selatan",PAPUA BARAT,98454.0,Indonesia,81248510710.0,-1.4564405,132.0255147,https://maps.google.com/?cid=0x0:0xb20f6f642f2aac57
cafe,Kafe,Cafe Oofsrit,"G2WF+989, Wernas, Kec. Teminabuan, Kabupaten Sorong Selatan, Papua Bar. 98454","Wernas, Kec. Teminabuan, Kabupaten Sorong Selatan",PAPUA BARAT,98454.0,Indonesia,8124848277.0,-1.4540803,132.0233629,https://maps.google.com/?cid=0x0:0x6bf6657d93dbb773
cafe,Kafe,kedai d,"G2VG+F7V, Jl. Sengget, Sayolo, Kec. Teminabuan, Kabupaten Sorong Selatan, Papua Bar. 98454","Jl. Sengget, Sayolo, Kec. Teminabuan, Kabupaten Sorong Selatan",PAPUA BARAT,98454.0,Indonesia,811485800.0,-1.4562656,132.0256823,https://maps.google.com/?cid=0x0:0xed4401e9a68e59e0
cafe,Kafe,Momma'S Kitchen,"H248+3C3, Sayolo, Kec. Teminabuan, Kabupaten Sorong Selatan, Papua Bar. 98454","Sayolo, Kec. Teminabuan, Kabupaten Sorong Selatan",PAPUA BARAT,98454.0,Indonesia,81248510710.0,-1.4448732,132.0160368,https://maps.google.com/?cid=0x0:0x2c580e80e881e790
cafe,Kafe,Kedai Kopi KRIKOLO,"H22F+R83, Jl. Sengget, Wermit, Kec. Teminabuan, Kabupaten Sorong Selatan, Papua Bar. 98454","Jl. Sengget, Wermit, Kec. Teminabuan, Kabupaten Sorong Selatan",PAPUA BARAT,98454.0,Indonesia,85254123567.0,-1.447992,132.0232847,https://maps.google.com/?cid=0x0:0xd632238928f7e5a
cafe,Kafe,Linting Legit  Bro Coffee,"G2VF+3PG, Wermit, Kec. Teminabuan, Kabupaten Sorong Selatan, Papua Bar. 98454","Wermit, Kec. Teminabuan, Kabupaten Sorong Selatan",PAPUA BARAT,98454.0,Indonesia,8114647234.0,-1.4572714,132.0239979,https://maps.google.com/?cid=0x0:0xb4d0889d3d97747e
cafe,cafe,KEDAI PINK KALIAT,"G2MP+M4C, Kaliat, Wernas, Kec. Teminabuan, Kabupaten Sorong Selatan, Papua Bar. 98454","Kaliat, Wernas, Kec. Teminabuan, Kabupaten Sorong Selatan",PAPUA BARAT,98454.0,Indonesia,,-1.4658165,132.0352704,https://maps.google.com/?cid=0x0:0x72f94949d240b433
cafe,Sup,Warung Bang Ibed,"H256+42X, Unnamed Road, Kohoin, Kec. Teminabuan, Kabupaten Sorong Selatan, Papua Bar. 98454","Unnamed Road, Kohoin, Kec. Teminabuan, Kabupaten Sorong Selatan",PAPUA BARAT,98454.0,Indonesia,81248595934.0,-1.4421362,132.0101242,https://maps.google.com/?cid=0x0:0xd9b69789882bc578
cafe,cafe,Distrik Wayer,"Kabupaten Sorong Selatan, Papua Bar.","Kabupaten Sorong Selatan, Papua Bar.",PAPUA BARAT,,Indonesia,,-1.4981267,132.1276575,https://maps.google.com/?cid=0x0:0xa31b66c806bf6157
cafe,Kedai Kopi,Kave,"G2WF+98G, Unnamed Road, Wermit, Kec. Teminabuan, Kabupaten Sorong Selatan, Papua Bar. 98454","Unnamed Road, Wermit, Kec. Teminabuan, Kabupaten Sorong Selatan",PAPUA BARAT,98454.0,Indonesia,,-1.4540675,132.0233327,https://maps.google.com/?cid=0x0:0xe26962da167b03d9
cafe,Kafe,Cafe Oofsrit,"G2WF+989, Wernas, Kec. Teminabuan, Kabupaten Sorong Selatan, Papua Bar. 98454","Wernas, Kec. Teminabuan, Kabupaten Sorong Selatan",PAPUA BARAT,98454.0,Indonesia,8124848277.0,-1.4540803,132.0233629,https://maps.google.com/?cid=0x0:0x6bf6657d93dbb773
cafe,Kafe,Wilchof Cafe,"Manokwari Tim., Kec. Manokwari Bar., Kabupaten Manokwari, Papua Bar. 98312","Kec. Manokwari Bar., Kabupaten Manokwari",PAPUA BARAT,98312.0,Indonesia,8124801913.0,-0.8418764,134.0699628,https://maps.google.com/?cid=0x0:0xdf7fa1241fcb9fab
cafe,Kafe,RESISTANCE CAFE (24 JAM),"Ruko, Jl. Pacific Permai, belakang kantor, KADIN, Papua",Papua,PAPUA BARAT,,Indonesia,,-2.5376957,140.7086088,https://maps.google.com/?cid=0x0:0x633297421a426da1
cafe,Kafe,Coffee Brothers,"Maniwak, Manggurai PEMDA, Iriati, Distrik Wasior, Kabupaten Teluk Wondama, Papua Bar. 98362","Manggurai PEMDA, Iriati, Distrik Wasior, Kabupaten Teluk Wondama",PAPUA BARAT,98362.0,Indonesia,85244343890.0,-2.761305,134.5119245,https://maps.google.com/?cid=0x0:0x40dcc2c8a660e005
cafe,Nasi,BLACK WARKOP,"G2WF+4M, Wermit, Kec. Teminabuan, Kabupaten Sorong Selatan, Papua Bar. 98454","Wermit, Kec. Teminabuan, Kabupaten Sorong Selatan",PAPUA BARAT,98454.0,Indonesia,,-1.4557089,132.023836,https://maps.google.com/?cid=0x0:0xefeb9b00fb2aa4cb
cafe,Kafe,Waanal Coffee And Resto,"Jl. Cendrawasih, Karang Senang, Kec. Kuala Kencana, Kabupaten Mimika, Papua 99910","Karang Senang, Kec. Kuala Kencana, Kabupaten Mimika",PAPUA BARAT,99910.0,Indonesia,81248677897.0,-4.4916566,136.8474106,https://maps.google.com/?cid=0x0:0xe6f6936c8a14d771
cafe,Padang,CAYA DEPOT,"Keyen, Kec. Teminabuan, Kabupaten Sorong Selatan, Papua Bar. 98454","Kec. Teminabuan, Kabupaten Sorong Selatan",PAPUA BARAT,98454.0,Indonesia,81236842872.0,-1.4768784,132.0718281,https://maps.google.com/?cid=0x0:0xc50d9180525a84d7
cafe,Kafe,Panenka Labanana and Coffee,"G2VG+RM2 Kajase (depan penjahit an-nur, Wermit, Kec. Teminabuan, Kabupaten Sorong Selatan, Papua Bar. 98454","Wermit, Kec. Teminabuan, Kabupaten Sorong Selatan",PAPUA BARAT,98454.0,Indonesia,82311891189.0,-1.4554908,132.0266379,https://maps.google.com/?cid=0x0:0x61d6c3c037a6c10d
cafe,cafe,KEDAI PINK KALIAT,"G2MP+M4C, Kaliat, Wernas, Kec. Teminabuan, Kabupaten Sorong Selatan, Papua Bar. 98454","Kaliat, Wernas, Kec. Teminabuan, Kabupaten Sorong Selatan",PAPUA BARAT,98454.0,Indonesia,,-1.4658165,132.0352704,https://maps.google.com/?cid=0x0:0x72f94949d240b433
cafe,Kafe,KEDAI Q'TA TEMINABUAN,"G2VG+C6J TOKO TEMI, Wermit, Kec. Teminabuan, Kabupaten Sorong Selatan, Papua Bar. 98454","Wermit, Kec. Teminabuan, Kabupaten Sorong Selatan",PAPUA BARAT,98454.0,Indonesia,82239991700.0,-1.4564214,132.0255157,https://maps.google.com/?cid=0x0:0x2e637fed4d4b82a
cafe,Kedai Kopi,WARKOP MABES TFC SORSEL,"H238+W49, Jl. Sengget, Sayolo, Kec. Teminabuan, Kabupaten Sorong Selatan, Papua Bar. 98454","Jl. Sengget, Sayolo, Kec. Teminabuan, Kabupaten Sorong Selatan",PAPUA BARAT,98454.0,Indonesia,85197399777.0,-1.445202,132.0153662,https://maps.google.com/?cid=0x0:0x53cc49c512ddf64d
cafe,Kedai Kopi,Kandera Cafe,"Jalan Reremi Permai No.50, Manokwari Bar., Kec. Manokwari Bar., Kabupaten Manokwari, Papua Bar. 98312","Manokwari Bar., Kec. Manokwari Bar., Kabupaten Manokwari",PAPUA BARAT,98312.0,Indonesia,85244067676.0,-0.8614531,134.0620421,https://maps.google.com/?cid=0x0:0x3df0d0628479781f
hotel,hotel,Distrik Fokour,"Kabupaten Sorong Selatan, Papua Bar.","Kabupaten Sorong Selatan, Papua Bar.",PAPUA BARAT,,Indonesia,,-1.1621937,132.0207079,https://maps.google.com/?cid=0x0:0xca5b0bfb905adc24
hotel,hotel,The Luxio Hotel,"Jl. Basuki Rahmat KM.12 Sorong, Malaingkedi, Kec. Sorong Utara, West Papua, Papua Bar. 98412","Malaingkedi, Kec. Sorong Utara, West Papua",PAPUA BARAT,98412.0,Indonesia,81344807777.0,-0.9040377,131.3236469,https://maps.google.com/?cid=0x0:0x4a37ba927853645b
hotel,hotel,Aimas Hotel And Convention Center,"Klamasen, Distrik Mariat, Kabupaten Sorong, Papua Bar. 98416","Distrik Mariat, Kabupaten Sorong",PAPUA BARAT,98416.0,Indonesia,8114887778.0,-0.9780957,131.3535192,https://maps.google.com/?cid=0x0:0x622ceae2f7c756cf
hotel,hotel,Aston Sorong Hotel  Conference Center,"476V+J9X, Jl. Basuki Rahmat, Malaingkedi, Kec. Sorong Utara, Kota Sorong, Papua Bar. 98412","Jl. Basuki Rahmat, Malaingkedi, Kec. Sorong Utara, Kota Sorong",PAPUA BARAT,98412.0,Indonesia,81148500888.0,-0.8887467,131.2931592,https://maps.google.com/?cid=0x0:0x110a6a5f0a67a7f7
hotel,hotel,The ignislo sorong hotel,"Basuki Rahmat Street KM 7 Sorong, Malaingkedi, Sorong Utara, Sorong City, West Papua 98412","Malaingkedi, Sorong Utara, Sorong City",PAPUA BARAT,98412.0,Indonesia,,-0.8885403,131.2925628,https://maps.google.com/?cid=0x0:0x9992b24f2542a546
hotel,hotel,InnBox Hostel,"Jl. Sam Ratulangi No.91, Klasuur, Distrik Sorong, Kota Sorong, Papua Bar. 98413","Klasuur, Distrik Sorong, Kota Sorong",PAPUA BARAT,98413.0,Indonesia,81268888355.0,-0.8669219,131.2528048,https://maps.google.com/?cid=0x0:0x3be781e9731e888a
hotel,hotel,M Hotel Sorong,"Jl. Sungai Maruni, Klawuyuk, Kec. Sorong Utara, Kota Sorong, Papua Bar. 98416","Klawuyuk, Kec. Sorong Utara, Kota Sorong",PAPUA BARAT,98416.0,Indonesia,8114863111.0,-0.8858638,131.3227746,https://maps.google.com/?cid=0x0:0x9b9160ef43d35fd5
hotel,hotel,,,,PAPUA BARAT,,Indonesia,,,,https://maps.google.com/?cid=0x0:0x9b9160ef43d35fd5%7C/g/11clwlw14h%7Cid-ID
hotel,hotel,,,,PAPUA BARAT,,Indonesia,,,,https://maps.google.com/?cid=0x0:0x56f2eb1c250a17fa%7C/g/11g8bwyjxb%7Cid-ID
hotel,hotel,favehotel Sorong,"Klabulu, Jl. Basuki Rahmat Malaimsimsa, RT.001/RW.005, Kecamatan Malaimsimsa, Kota Sorong, Papua Bar. 98419","Jl. Basuki Rahmat Malaimsimsa, RT.001/RW.005, Kecamatan Malaimsimsa, Kota Sorong",PAPUA BARAT,98419.0,Indonesia,9513173888.0,-0.8892152,131.2985379,https://maps.google.com/?cid=0x0:0x56f2eb1c250a17fa
hotel,hotel,Penginapan Kofiyau,"46MX+QV7, Unnamed Road, Klasuur, Distrik Sorong, Kota Sorong, Papua Bar. 98411","Unnamed Road, Klasuur, Distrik Sorong, Kota Sorong",PAPUA BARAT,98411.0,Indonesia,82398017326.0,-0.86559,131.2496721,https://maps.google.com/?cid=0x0:0xfc32a1234a9c5c47
hotel,hotel,tempat penginapan,"46GX+7Q4, Kp. Baru, Distrik Sorong, Kota Sorong, Papua Bar.","Kota Sorong, Papua Bar.",PAPUA BARAT,,Indonesia,,-0.8743674,131.249452,https://maps.google.com/?cid=0x0:0x5a527f95bc78be48
hotel,hotel,35 Inn,"476C+RFX, Jl. Ferry, Malawei, Distrik Sorong, Kota Sorong, Papua Bar. 98412","Jl. Ferry, Malawei, Distrik Sorong, Kota Sorong",PAPUA BARAT,98412.0,Indonesia,,-0.8878893,131.271243,https://maps.google.com/?cid=0x0:0xb276478752dcd2b2
hotel,hotel,Darefan Hotel Sorong,"Jl. Selat Morotai, Remu Sel., Kecamatan Sorong Manoi, Kota Sorong, Papua Bar. 98412","Remu Sel., Kecamatan Sorong Manoi, Kota Sorong",PAPUA BARAT,98412.0,Indonesia,8114868887.0,-0.8877595,131.2893739,https://maps.google.com/?cid=0x0:0x5709bb2ac9cbd24
hotel,hotel,Distrik Inanwatan,"Kabupaten Sorong Selatan, Papua Bar.","Kabupaten Sorong Selatan, Papua Bar.",PAPUA BARAT,,Indonesia,,-2.1273304,132.1663024,https://maps.google.com/?cid=0x0:0x871fec0706e82bc5
hotel,hotel,Aimas Hotel And Convention Center,"Klamasen, Distrik Mariat, Kabupaten Sorong, Papua Bar. 98416","Distrik Mariat, Kabupaten Sorong",PAPUA BARAT,98416.0,Indonesia,8114887778.0,-0.9780957,131.3535192,https://maps.google.com/?cid=0x0:0x622ceae2f7c756cf
hotel,hotel,Mahanaim Hotel dan Homestay Manokwari,"jln trikora kalidingin no 109, Wosi, Kec. Manokwari Bar., Kabupaten Manokwari, Papua Bar. 98312","Wosi, Kec. Manokwari Bar., Kabupaten Manokwari",PAPUA BARAT,98312.0,Indonesia,8124830147.0,-0.8699305,134.0471193,https://maps.google.com/?cid=0x0:0xeec6727952b4f3e6
hotel,hotel,Hotel Batanta,"46GW+RMC, Kp. Baru, Distrik Sorong, Kota Sorong, Papua Bar. 98411","Kp. Baru, Distrik Sorong, Kota Sorong",PAPUA BARAT,98411.0,Indonesia,,-0.8729338,131.246629,https://maps.google.com/?cid=0x0:0xd18e7775760a134a
hotel,hotel,Penginapan Andi Riona,"sebelum jembatan, Jl. Lukas Dailon, Waisai, Distrik Kota Waisai, Kabupaten Raja Ampat, Papua Bar. 98482","Jl. Lukas Dailon, Waisai, Distrik Kota Waisai, Kabupaten Raja Ampat",PAPUA BARAT,98482.0,Indonesia,82343625890.0,-0.4166334,130.8223743,https://maps.google.com/?cid=0x0:0x22162f9d5c4740b1
hotel,Layanan Transportasi,Bandara Inanwatan,"V5C7+W64, Mate, Distrik Inanwatan, Kabupaten Sorong Selatan, Papua Bar. 98455","Mate, Distrik Inanwatan, Kabupaten Sorong Selatan",PAPUA BARAT,98455.0,Indonesia,82196826597.0,-2.1277487,132.1630745,https://maps.google.com/?cid=0x0:0xd0b9c5c7d40453cc
hotel,Pelabuhan sungai,Pelabuhan Inanwatan,"V5F9+CFX, Mate, Distrik Inanwatan, Kabupaten Sorong Selatan, Papua Bar. 98455","Mate, Distrik Inanwatan, Kabupaten Sorong Selatan",PAPUA BARAT,98455.0,Indonesia,,-2.1263931,132.1687373,https://maps.google.com/?cid=0x0:0xf5cc6ee00e3f7391
hotel,hotel,Aimas Hotel And Convention Center,"Klamasen, Distrik Mariat, Kabupaten Sorong, Papua Bar. 98416","Distrik Mariat, Kabupaten Sorong",PAPUA BARAT,98416.0,Indonesia,8114887778.0,-0.9780957,131.3535192,https://maps.google.com/?cid=0x0:0x622ceae2f7c756cf
hotel,Taman Hiburan,Taman Wisata Alam Sorong,"38JP+H65, Bar., Klasaman, Distrik Sorong Timur, Kota Sorong, Papua Bar. 98416","Bar., Klasaman, Distrik Sorong Timur, Kota Sorong",PAPUA BARAT,98416.0,Indonesia,,-0.9186169,131.3355955,https://maps.google.com/?cid=0x0:0x34d77911969e750d
hotel,hotel,Kais,"Kabupaten Sorong Selatan, Papua Bar.","Kabupaten Sorong Selatan, Papua Bar.",PAPUA BARAT,,Indonesia,,-1.7657744,132.1572702,https://maps.google.com/?cid=0x0:0x9cffca2dcef5956
hotel,hotel,Distrik Kokoda,"Kabupaten Sorong Selatan, Papua Bar.","Kabupaten Sorong Selatan, Papua Bar.",PAPUA BARAT,,Indonesia,,-2.1274352,132.4263464,https://maps.google.com/?cid=0x0:0xa783056c2a04f79f
hotel,hotel,Penginapan Kofiyau,"46MX+QV7, Unnamed Road, Klasuur, Distrik Sorong, Kota Sorong, Papua Bar. 98411","Unnamed Road, Klasuur, Distrik Sorong, Kota Sorong",PAPUA BARAT,98411.0,Indonesia,82398017326.0,-0.86559,131.2496721,https://maps.google.com/?cid=0x0:0xfc32a1234a9c5c47
hotel,hotel,JESONE Hotel  Resto,"Jl. Basuki Rahmat No.KM 7, South Remu, Sorong Manoi, Sorong City, West Papua 98412","South Remu, Sorong Manoi, Sorong City",PAPUA BARAT,98412.0,Indonesia,82198134499.0,-0.8859307,131.2879742,https://maps.google.com/?cid=0x0:0xf06b0978fb75d6f1
hotel,hotel,Royal Mamberamo Hotel,"Jl. Dr. Sam Ratulangi No.35, Kp. Baru, Distrik Sorong, Kota Sorong, Papua Bar. 98413","Kp. Baru, Distrik Sorong, Kota Sorong",PAPUA BARAT,98413.0,Indonesia,951325666.0,-0.871573,131.250864,https://maps.google.com/?cid=0x0:0xb5e32e36111d42eb
hotel,hotel,Kokoda Trail Motel,"Sogeri Road, Port Moresby Central Province, Papua Nugini","Port Moresby, Papua Nugini",PAPUA BARAT,,Indonesia,6753236724.0,-9.4228838,147.4034546,https://maps.google.com/?cid=0x0:0xb59d5388256f8986
hotel,hotel,Bluff Inn Motel,"H8W7+4WR, Riverview Central Province, Papua Nugini","Riverview, Papua Nugini",PAPUA BARAT,,Indonesia,6753281223.0,-9.4046289,147.3147773,https://maps.google.com/?cid=0x0:0x4e0f0909a8cdcfe4
hotel,Taman,Varirata National Park,"G9HC+J83, Sogeri Central Province, Papua Nugini","Sogeri, Papua Nugini",PAPUA BARAT,,Indonesia,,-9.4709903,147.3708083,https://maps.google.com/?cid=0x0:0x4adc4cf0a4d5a0c1
hotel,Penginapan,Kokoda Track Lodging,"4P9M+W87, Kokoda Northern Province, Papua Nugini","Kokoda, Papua Nugini",PAPUA BARAT,,Indonesia,,-8.8802242,147.7333119,https://maps.google.com/?cid=0x0:0xa7938b304530898f
hotel,hotel,Kec. Kokoda Utara,"Kabupaten Sorong Selatan, Papua Bar.","Kabupaten Sorong Selatan, Papua Bar.",PAPUA BARAT,,Indonesia,,-1.8762266,132.3641297,https://maps.google.com/?cid=0x0:0xa4294849d564b6d1
hotel,hotel,Aston Sorong Hotel  Conference Center,"476V+J9X, Jl. Basuki Rahmat, Malaingkedi, Kec. Sorong Utara, Kota Sorong, Papua Bar. 98412","Jl. Basuki Rahmat, Malaingkedi, Kec. Sorong Utara, Kota Sorong",PAPUA BARAT,98412.0,Indonesia,81148500888.0,-0.8887467,131.2931592,https://maps.google.com/?cid=0x0:0x110a6a5f0a67a7f7
hotel,hotel,Penginapan Kofiyau,"46MX+QV7, Unnamed Road, Klasuur, Distrik Sorong, Kota Sorong, Papua Bar. 98411","Unnamed Road, Klasuur, Distrik Sorong, Kota Sorong",PAPUA BARAT,98411.0,Indonesia,82398017326.0,-0.86559,131.2496721,https://maps.google.com/?cid=0x0:0xfc32a1234a9c5c47
hotel,Hostel,Malanu,"49J8+MV, Sumano, Kais, Kabupaten Sorong Selatan, Papua Bar.","Kabupaten Sorong Selatan, Papua Bar.",PAPUA BARAT,,Indonesia,,-1.8683363,132.367215,https://maps.google.com/?cid=0x0:0x797b89fdd1f3c9dd
hotel,Penginapan,Penginapan Kaliat,"G2VG+6P3, Unnamed Road, Wermit, Teminabuan, South Sorong Regency, West Papua 98454","Unnamed Road, Wermit, Teminabuan, South Sorong Regency",PAPUA BARAT,98454.0,Indonesia,,-1.4569941,132.0267982,https://maps.google.com/?cid=0x0:0x71dd9b579a9ee368
hotel,hotel,Papua Bar.,,Papua Bar.,PAPUA BARAT,,Indonesia,,-1.3361154,133.1747162,https://maps.google.com/?cid=0x0:0x5349c1f8c5c7cb62
hotel,hotel,Swiss Belhotel Manokwari,"Jl. Yos Sudarso Manokwari No.8, Manokwari Bar., Kec. Manokwari Bar., Kabupaten Manokwari, Papua Bar. 98312","Manokwari Bar., Kec. Manokwari Bar., Kabupaten Manokwari",PAPUA BARAT,98312.0,Indonesia,8114854000.0,-0.8572937,134.0672125,https://maps.google.com/?cid=0x0:0x92c98d5e96ee2a8f
hotel,hotel,,,,PAPUA BARAT,,Indonesia,,,,https://maps.google.com/?cid=0x0:0x92c98d5e96ee2a8f%7C/g/1yl475f47%7Cid-ID
hotel,hotel,,,,PAPUA BARAT,,Indonesia,,,,https://maps.google.com/?cid=0x0:0x4d32c5e468c00628%7C/g/11btmq5mpb%7Cid-ID
hotel,hotel,Raja Ampat Biodiversity Nature Resort,"Pantai Yenanas, Yenbeser, Kec. Waigeo Sel., Kabupaten Raja Ampat, Papua Bar. 98482","Yenbeser, Kec. Waigeo Sel., Kabupaten Raja Ampat",PAPUA BARAT,98482.0,Indonesia,81248813677.0,-0.4504898,130.6921427,https://maps.google.com/?cid=0x0:0xcbf275f407edce9c
hotel,hotel,Aston Sorong Hotel  Conference Center,"476V+J9X, Jl. Basuki Rahmat, Malaingkedi, Kec. Sorong Utara, Kota Sorong, Papua Bar. 98412","Jl. Basuki Rahmat, Malaingkedi, Kec. Sorong Utara, Kota Sorong",PAPUA BARAT,98412.0,Indonesia,81148500888.0,-0.8887467,131.2931592,https://maps.google.com/?cid=0x0:0x110a6a5f0a67a7f7
hotel,hotel,Hotel Triton,"Jl. Gn. Salju No.6, Manokwari Bar., Kec. Manokwari Bar., Kabupaten Manokwari, Papua Bar. 98311","Manokwari Bar., Kec. Manokwari Bar., Kabupaten Manokwari",PAPUA BARAT,98311.0,Indonesia,986212666.0,-0.8532727,134.068781,https://maps.google.com/?cid=0x0:0x6021b02b4fb20af
hotel,hotel,RYLICH PANORAMA HOTEL,"Jl. Sam Ratulangi No.55, Klasuur, Distrik Sorong, Kota Sorong, Papua Bar. 98411","Klasuur, Distrik Sorong, Kota Sorong",PAPUA BARAT,98411.0,Indonesia,81240607603.0,-0.8690863,131.2526553,https://maps.google.com/?cid=0x0:0x994aef0f06a4c9a4
hotel,hotel,Hotel Grand Papua Kaimana,"Lingkar tanjung simora, Kroy, Kec. Kaimana, Kabupaten Kaimana, Papua Bar. 98654","Kroy, Kec. Kaimana, Kabupaten Kaimana",PAPUA BARAT,98654.0,Indonesia,82248850669.0,-3.6691103,133.7028408,https://maps.google.com/?cid=0x0:0x964de24b7e359ec2
hotel,hotel,Vitta Hotel Manokwari,"32PP+MFR, Jl. Trikora Taman Ria, Sowi, Distrik Manokwari, Kabupaten Manokwari, Papua Bar. 98315","Jl. Trikora Taman Ria, Sowi, Distrik Manokwari, Kabupaten Manokwari",PAPUA BARAT,98315.0,Indonesia,81367287972.0,-0.9131667,134.0359179,https://maps.google.com/?cid=0x0:0x4ec173a9ed9776eb
hotel,hotel,Aimas Hotel And Convention Center,"Klamasen, Distrik Mariat, Kabupaten Sorong, Papua Bar. 98416","Distrik Mariat, Kabupaten Sorong",PAPUA BARAT,98416.0,Indonesia,8114887778.0,-0.9780957,131.3535192,https://maps.google.com/?cid=0x0:0x622ceae2f7c756cf
hotel,hotel,Aston Niu Manokwari,"Sogun Hill, Jl. Drs Esau Sesa No.3 Blok B, Sowi, Distrik Manokwari, Kabupaten Manokwari, Papua Bar. 98315","Jl. Drs Esau Sesa No.3 Blok B, Sowi, Distrik Manokwari, Kabupaten Manokwari",PAPUA BARAT,98315.0,Indonesia,81369878787.0,-0.8978109,134.0416499,https://maps.google.com/?cid=0x0:0xe96b706fef94b3a2
hotel,hotel,,,,PAPUA BARAT,,Indonesia,,,,https://maps.google.com/?cid=0x0:0xe96b706fef94b3a2%7C/g/120jr49w%7Cid-ID
hotel,hotel,Hotel Grand Papua Fakfak,"38C3+WJ8, Fak Fak Utara, Distrik Fakfak, Kabupaten Fakfak, Papua Bar. 98651","Fak Fak Utara, Distrik Fakfak, Kabupaten Fakfak",PAPUA BARAT,98651.0,Indonesia,8114852349.0,-2.9273756,132.3046214,https://maps.google.com/?cid=0x0:0x9ff2b85d6b66a2ca
hotel,hotel,Papua Bar. 98454,"Kabupaten Sorong Selatan, Papua Bar.","Kabupaten Sorong Selatan, Papua Bar.",PAPUA BARAT,,Indonesia,,-1.4196083,131.9989718,https://maps.google.com/?cid=0x0:0x85355e3327b207ba
hotel,hotel,Hotel Mratuwa Sesna,"G39P+JXC, Keyen, Kec. Teminabuan, Kabupaten Sorong Selatan, Papua Bar. 98454","Keyen, Kec. Teminabuan, Kabupaten Sorong Selatan",PAPUA BARAT,98454.0,Indonesia,81344070037.0,-1.4809318,132.0873892,https://maps.google.com/?cid=0x0:0xa5b0539434328bee
hotel,hotel,Aimas Hotel And Convention Center,"Klamasen, Distrik Mariat, Kabupaten Sorong, Papua Bar. 98416","Distrik Mariat, Kabupaten Sorong",PAPUA BARAT,98416.0,Indonesia,8114887778.0,-0.9780957,131.3535192,https://maps.google.com/?cid=0x0:0x622ceae2f7c756cf
hotel,hotel,The ignislo sorong hotel,"Basuki Rahmat Street KM 7 Sorong, Malaingkedi, Sorong Utara, Sorong City, West Papua 98412","Malaingkedi, Sorong Utara, Sorong City",PAPUA BARAT,98412.0,Indonesia,,-0.8885403,131.2925628,https://maps.google.com/?cid=0x0:0x9992b24f2542a546
hotel,hotel,Aston Sorong Hotel  Conference Center,"476V+J9X, Jl. Basuki Rahmat, Malaingkedi, Kec. Sorong Utara, Kota Sorong, Papua Bar. 98412","Jl. Basuki Rahmat, Malaingkedi, Kec. Sorong Utara, Kota Sorong",PAPUA BARAT,98412.0,Indonesia,81148500888.0,-0.8887467,131.2931592,https://maps.google.com/?cid=0x0:0x110a6a5f0a67a7f7
hotel,hotel,M Hotel Sorong,"Jl. Sungai Maruni, Klawuyuk, Kec. Sorong Utara, Kota Sorong, Papua Bar. 98416","Klawuyuk, Kec. Sorong Utara, Kota Sorong",PAPUA BARAT,98416.0,Indonesia,8114863111.0,-0.8858638,131.3227746,https://maps.google.com/?cid=0x0:0x9b9160ef43d35fd5
hotel,hotel,,,,PAPUA BARAT,,Indonesia,,,,https://maps.google.com/?cid=0x0:0x9b9160ef43d35fd5%7C/g/11clwlw14h%7Cid-ID
hotel,hotel,Mahanaim Hotel dan Homestay Manokwari,"jln trikora kalidingin no 109, Wosi, Kec. Manokwari Bar., Kabupaten Manokwari, Papua Bar. 98312","Wosi, Kec. Manokwari Bar., Kabupaten Manokwari",PAPUA BARAT,98312.0,Indonesia,8124830147.0,-0.8699305,134.0471193,https://maps.google.com/?cid=0x0:0xeec6727952b4f3e6
hotel,hotel,Penginapan Kofiyau,"46MX+QV7, Unnamed Road, Klasuur, Distrik Sorong, Kota Sorong, Papua Bar. 98411","Unnamed Road, Klasuur, Distrik Sorong, Kota Sorong",PAPUA BARAT,98411.0,Indonesia,82398017326.0,-0.86559,131.2496721,https://maps.google.com/?cid=0x0:0xfc32a1234a9c5c47
hotel,hotel,tempat penginapan,"46GX+7Q4, Kp. Baru, Distrik Sorong, Kota Sorong, Papua Bar.","Kota Sorong, Papua Bar.",PAPUA BARAT,,Indonesia,,-0.8743674,131.249452,https://maps.google.com/?cid=0x0:0x5a527f95bc78be48
hotel,hotel,Darefan Hotel Sorong,"Jl. Selat Morotai, Remu Sel., Kecamatan Sorong Manoi, Kota Sorong, Papua Bar. 98412","Remu Sel., Kecamatan Sorong Manoi, Kota Sorong",PAPUA BARAT,98412.0,Indonesia,8114868887.0,-0.8877595,131.2893739,https://maps.google.com/?cid=0x0:0x5709bb2ac9cbd24
hotel,hotel,35 Inn,"476C+RFX, Jl. Ferry, Malawei, Distrik Sorong, Kota Sorong, Papua Bar. 98412","Jl. Ferry, Malawei, Distrik Sorong, Kota Sorong",PAPUA BARAT,98412.0,Indonesia,,-0.8878893,131.271243,https://maps.google.com/?cid=0x0:0xb276478752dcd2b2
hotel,hotel,JESONE Hotel  Resto,"Jl. Basuki Rahmat No.KM 7, South Remu, Sorong Manoi, Sorong City, West Papua 98412","South Remu, Sorong Manoi, Sorong City",PAPUA BARAT,98412.0,Indonesia,82198134499.0,-0.8859307,131.2879742,https://maps.google.com/?cid=0x0:0xf06b0978fb75d6f1
hotel,hotel,Hotel Indah,"Bar, Kp. Baru, Distrik Sorong, Kota Sorong, Papua Bar. 98411","Kp. Baru, Distrik Sorong, Kota Sorong",PAPUA BARAT,98411.0,Indonesia,8124836738.0,-0.8754986,131.2441245,https://maps.google.com/?cid=0x0:0xfdd1fb50f773e5d1
hotel,hotel,Kec. Matemani,"Kabupaten Sorong Selatan, Papua Bar.","Kabupaten Sorong Selatan, Papua Bar.",PAPUA BARAT,,Indonesia,,-1.9496392,132.2312838,https://maps.google.com/?cid=0x0:0xced62b996f227502
hotel,hotel,Aimas Hotel And Convention Center,"Klamasen, Distrik Mariat, Kabupaten Sorong, Papua Bar. 98416","Distrik Mariat, Kabupaten Sorong",PAPUA BARAT,98416.0,Indonesia,8114887778.0,-0.9780957,131.3535192,https://maps.google.com/?cid=0x0:0x622ceae2f7c756cf
hotel,hotel,Mahanaim Hotel dan Homestay Manokwari,"jln trikora kalidingin no 109, Wosi, Kec. Manokwari Bar., Kabupaten Manokwari, Papua Bar. 98312","Wosi, Kec. Manokwari Bar., Kabupaten Manokwari",PAPUA BARAT,98312.0,Indonesia,8124830147.0,-0.8699305,134.0471193,https://maps.google.com/?cid=0x0:0xeec6727952b4f3e6
hotel,hotel,Royal Mamberamo Hotel,"Jl. Dr. Sam Ratulangi No.35, Kp. Baru, Distrik Sorong, Kota Sorong, Papua Bar. 98413","Kp. Baru, Distrik Sorong, Kota Sorong",PAPUA BARAT,98413.0,Indonesia,951325666.0,-0.871573,131.250864,https://maps.google.com/?cid=0x0:0xb5e32e36111d42eb
hotel,hotel,Hotel Mratuwa Sesna,"G39P+JXC, Keyen, Kec. Teminabuan, Kabupaten Sorong Selatan, Papua Bar. 98454","Keyen, Kec. Teminabuan, Kabupaten Sorong Selatan",PAPUA BARAT,98454.0,Indonesia,81344070037.0,-1.4809318,132.0873892,https://maps.google.com/?cid=0x0:0xa5b0539434328bee
hotel,hotel,Hotel Batanta,"46GW+RMC, Kp. Baru, Distrik Sorong, Kota Sorong, Papua Bar. 98411","Kp. Baru, Distrik Sorong, Kota Sorong",PAPUA BARAT,98411.0,Indonesia,,-0.8729338,131.246629,https://maps.google.com/?cid=0x0:0xd18e7775760a134a
hotel,hotel,RAMA TRANSITO HOTEL,"42RV+276, Unnamed Road, Wosi, Kec. Manokwari Bar., Kabupaten Manokwari, Papua Bar. 98312","Unnamed Road, Wosi, Kec. Manokwari Bar., Kabupaten Manokwari",PAPUA BARAT,98312.0,Indonesia,82198250318.0,-0.8599684,134.0431297,https://maps.google.com/?cid=0x0:0x61e002737b3747f1
hotel,,Panta Kapal,"H278+HMC, Unnamed Road, Namro, Kec. Teminabuan, Kabupaten Sorong Selatan, Papua Bar. 98454","Unnamed Road, Namro, Kec. Teminabuan, Kabupaten Sorong Selatan",PAPUA BARAT,98454.0,Indonesia,,-1.4360733,132.016648,https://maps.google.com/?cid=0x0:0x794003f531510bf1
hotel,hotel,Distrik Moswaren,"Kabupaten Sorong Selatan, Papua Bar.","Kabupaten Sorong Selatan, Papua Bar.",PAPUA BARAT,,Indonesia,,-1.4917637,132.2410573,https://maps.google.com/?cid=0x0:0xc435d4289dbbc461
hotel,hotel,Mahanaim Hotel dan Homestay Manokwari,"jln trikora kalidingin no 109, Wosi, Kec. Manokwari Bar., Kabupaten Manokwari, Papua Bar. 98312","Wosi, Kec. Manokwari Bar., Kabupaten Manokwari",PAPUA BARAT,98312.0,Indonesia,8124830147.0,-0.8699305,134.0471193,https://maps.google.com/?cid=0x0:0xeec6727952b4f3e6
hotel,hotel,M Hotel Sorong,"Jl. Sungai Maruni, Klawuyuk, Kec. Sorong Utara, Kota Sorong, Papua Bar. 98416","Klawuyuk, Kec. Sorong Utara, Kota Sorong",PAPUA BARAT,98416.0,Indonesia,8114863111.0,-0.8858638,131.3227746,https://maps.google.com/?cid=0x0:0x9b9160ef43d35fd5
hotel,hotel,Hotel Mratuwa Sesna,"G39P+JXC, Keyen, Kec. Teminabuan, Kabupaten Sorong Selatan, Papua Bar. 98454","Keyen, Kec. Teminabuan, Kabupaten Sorong Selatan",PAPUA BARAT,98454.0,Indonesia,81344070037.0,-1.4809318,132.0873892,https://maps.google.com/?cid=0x0:0xa5b0539434328bee
hotel,hotel,tempat penginapan,"46GX+7Q4, Kp. Baru, Distrik Sorong, Kota Sorong, Papua Bar.","Kota Sorong, Papua Bar.",PAPUA BARAT,,Indonesia,,-0.8743674,131.249452,https://maps.google.com/?cid=0x0:0x5a527f95bc78be48
hotel,hotel,Hotel Nusa Indah,"H267+2GH, Kohoin, Kec. Teminabuan, Kabupaten Sorong Selatan, Papua Bar. 98454","Kohoin, Kec. Teminabuan, Kabupaten Sorong Selatan",PAPUA BARAT,98454.0,Indonesia,,-1.439935,132.0138655,https://maps.google.com/?cid=0x0:0x3e6833d129546707
hotel,hotel,JESONE Hotel  Resto,"Jl. Basuki Rahmat No.KM 7, South Remu, Sorong Manoi, Sorong City, West Papua 98412","South Remu, Sorong Manoi, Sorong City",PAPUA BARAT,98412.0,Indonesia,82198134499.0,-0.8859307,131.2879742,https://maps.google.com/?cid=0x0:0xf06b0978fb75d6f1
hotel,hotel,Fajar Roon Hotel,"Jl. Trikora Wosi, Wosi, Kec. Manokwari Bar., Kabupaten Manokwari, Papua Bar. 98312","Wosi, Kec. Manokwari Bar., Kabupaten Manokwari",PAPUA BARAT,98312.0,Indonesia,85333112338.0,-0.8680273,134.0564644,https://maps.google.com/?cid=0x0:0xec6cf3d20bba5444
hotel,hotel,Hotel Batanta,"46GW+RMC, Kp. Baru, Distrik Sorong, Kota Sorong, Papua Bar. 98411","Kp. Baru, Distrik Sorong, Kota Sorong",PAPUA BARAT,98411.0,Indonesia,,-0.8729338,131.246629,https://maps.google.com/?cid=0x0:0xd18e7775760a134a
hotel,hotel,O,"Jl. Jend. A. Yani No.27, Malabutor, Kecamatan Sorong Manoi, Kota Sorong, Papua Bar. 98412","Malabutor, Kecamatan Sorong Manoi, Kota Sorong",PAPUA BARAT,98412.0,Indonesia,,-0.8827427,131.2828186,https://maps.google.com/?cid=0x0:0x9aebba5ddda67893
hotel,hotel,Belagri Hotel and Restaurant,"Jl. Raja Ampat No.1, Kp. Baru, Distrik Sorong, Kota Sorong, Papua Bar. 98413","Kp. Baru, Distrik Sorong, Kota Sorong",PAPUA BARAT,98413.0,Indonesia,,-0.8704329,131.2517604,https://maps.google.com/?cid=0x0:0xb0064be8b2a3c2c8
hotel,hotel,Penginapan Kofiyau,"46MX+QV7, Unnamed Road, Klasuur, Distrik Sorong, Kota Sorong, Papua Bar. 98411","Unnamed Road, Klasuur, Distrik Sorong, Kota Sorong",PAPUA BARAT,98411.0,Indonesia,82398017326.0,-0.86559,131.2496721,https://maps.google.com/?cid=0x0:0xfc32a1234a9c5c47
hotel,hotel,Papua Bar. 98454,"Kabupaten Sorong Selatan, Papua Bar.","Kabupaten Sorong Selatan, Papua Bar.",PAPUA BARAT,,Indonesia,,-1.4196083,131.9989718,https://maps.google.com/?cid=0x0:0x85355e3327b207ba
hotel,hotel,Hotel Mratuwa Sesna,"G39P+JXC, Keyen, Kec. Teminabuan, Kabupaten Sorong Selatan, Papua Bar. 98454","Keyen, Kec. Teminabuan, Kabupaten Sorong Selatan",PAPUA BARAT,98454.0,Indonesia,81344070037.0,-1.4809318,132.0873892,https://maps.google.com/?cid=0x0:0xa5b0539434328bee
hotel,hotel,The ignislo sorong hotel,"Basuki Rahmat Street KM 7 Sorong, Malaingkedi, Sorong Utara, Sorong City, West Papua 98412","Malaingkedi, Sorong Utara, Sorong City",PAPUA BARAT,98412.0,Indonesia,,-0.8885403,131.2925628,https://maps.google.com/?cid=0x0:0x9992b24f2542a546
hotel,hotel,M Hotel Sorong,"Jl. Sungai Maruni, Klawuyuk, Kec. Sorong Utara, Kota Sorong, Papua Bar. 98416","Klawuyuk, Kec. Sorong Utara, Kota Sorong",PAPUA BARAT,98416.0,Indonesia,8114863111.0,-0.8858638,131.3227746,https://maps.google.com/?cid=0x0:0x9b9160ef43d35fd5
hotel,hotel,,,,PAPUA BARAT,,Indonesia,,,,https://maps.google.com/?cid=0x0:0x9b9160ef43d35fd5%7C/g/11clwlw14h%7Cid-ID
hotel,hotel,Hotel Nusa Indah,"H267+2GH, Kohoin, Kec. Teminabuan, Kabupaten Sorong Selatan, Papua Bar. 98454","Kohoin, Kec. Teminabuan, Kabupaten Sorong Selatan",PAPUA BARAT,98454.0,Indonesia,,-1.439935,132.0138655,https://maps.google.com/?cid=0x0:0x3e6833d129546707
hotel,hotel,,,,PAPUA BARAT,,Indonesia,,,,https://maps.google.com/?cid=0x0:0x56f2eb1c250a17fa%7C/g/11g8bwyjxb%7Cid-ID
hotel,hotel,favehotel Sorong,"Klabulu, Jl. Basuki Rahmat Malaimsimsa, RT.001/RW.005, Kecamatan Malaimsimsa, Kota Sorong, Papua Bar. 98419","Jl. Basuki Rahmat Malaimsimsa, RT.001/RW.005, Kecamatan Malaimsimsa, Kota Sorong",PAPUA BARAT,98419.0,Indonesia,9513173888.0,-0.8892152,131.2985379,https://maps.google.com/?cid=0x0:0x56f2eb1c250a17fa
hotel,hotel,Penginapan Kofiyau,"46MX+QV7, Unnamed Road, Klasuur, Distrik Sorong, Kota Sorong, Papua Bar. 98411","Unnamed Road, Klasuur, Distrik Sorong, Kota Sorong",PAPUA BARAT,98411.0,Indonesia,82398017326.0,-0.86559,131.2496721,https://maps.google.com/?cid=0x0:0xfc32a1234a9c5c47
hotel,hotel,tempat penginapan,"46GX+7Q4, Kp. Baru, Distrik Sorong, Kota Sorong, Papua Bar.","Kota Sorong, Papua Bar.",PAPUA BARAT,,Indonesia,,-0.8743674,131.249452,https://maps.google.com/?cid=0x0:0x5a527f95bc78be48
hotel,hotel,Darefan Hotel Sorong,"Jl. Selat Morotai, Remu Sel., Kecamatan Sorong Manoi, Kota Sorong, Papua Bar. 98412","Remu Sel., Kecamatan Sorong Manoi, Kota Sorong",PAPUA BARAT,98412.0,Indonesia,8114868887.0,-0.8877595,131.2893739,https://maps.google.com/?cid=0x0:0x5709bb2ac9cbd24
hotel,hotel,JESONE Hotel  Resto,"Jl. Basuki Rahmat No.KM 7, South Remu, Sorong Manoi, Sorong City, West Papua 98412","South Remu, Sorong Manoi, Sorong City",PAPUA BARAT,98412.0,Indonesia,82198134499.0,-0.8859307,131.2879742,https://maps.google.com/?cid=0x0:0xf06b0978fb75d6f1
hotel,hotel,Hotel Batanta,"46GW+RMC, Kp. Baru, Distrik Sorong, Kota Sorong, Papua Bar. 98411","Kp. Baru, Distrik Sorong, Kota Sorong",PAPUA BARAT,98411.0,Indonesia,,-0.8729338,131.246629,https://maps.google.com/?cid=0x0:0xd18e7775760a134a
hotel,hotel,O,"Jl. Jend. A. Yani No.27, Malabutor, Kecamatan Sorong Manoi, Kota Sorong, Papua Bar. 98412","Malabutor, Kecamatan Sorong Manoi, Kota Sorong",PAPUA BARAT,98412.0,Indonesia,,-0.8827427,131.2828186,https://maps.google.com/?cid=0x0:0x9aebba5ddda67893
hotel,hotel,Papua Bar. 98456,Papua Bar.,Papua Bar.,PAPUA BARAT,,Indonesia,,-1.2191286,131.8799408,https://maps.google.com/?cid=0x0:0x1193e0fa67947a8b
hotel,hotel,Aimas Hotel And Convention Center,"Klamasen, Distrik Mariat, Kabupaten Sorong, Papua Bar. 98416","Distrik Mariat, Kabupaten Sorong",PAPUA BARAT,98416.0,Indonesia,8114887778.0,-0.9780957,131.3535192,https://maps.google.com/?cid=0x0:0x622ceae2f7c756cf
hotel,hotel,Aston Sorong Hotel  Conference Center,"476V+J9X, Jl. Basuki Rahmat, Malaingkedi, Kec. Sorong Utara, Kota Sorong, Papua Bar. 98412","Jl. Basuki Rahmat, Malaingkedi, Kec. Sorong Utara, Kota Sorong",PAPUA BARAT,98412.0,Indonesia,81148500888.0,-0.8887467,131.2931592,https://maps.google.com/?cid=0x0:0x110a6a5f0a67a7f7
hotel,hotel,,,,PAPUA BARAT,,Indonesia,,,,https://maps.google.com/?cid=0x0:0x4d32c5e468c00628%7C/g/11btmq5mpb%7Cid-ID
hotel,hotel,The ignislo sorong hotel,"Basuki Rahmat Street KM 7 Sorong, Malaingkedi, Sorong Utara, Sorong City, West Papua 98412","Malaingkedi, Sorong Utara, Sorong City",PAPUA BARAT,98412.0,Indonesia,,-0.8885403,131.2925628,https://maps.google.com/?cid=0x0:0x9992b24f2542a546
hotel,hotel,M Hotel Sorong,"Jl. Sungai Maruni, Klawuyuk, Kec. Sorong Utara, Kota Sorong, Papua Bar. 98416","Klawuyuk, Kec. Sorong Utara, Kota Sorong",PAPUA BARAT,98416.0,Indonesia,8114863111.0,-0.8858638,131.3227746,https://maps.google.com/?cid=0x0:0x9b9160ef43d35fd5
hotel,hotel,,,,PAPUA BARAT,,Indonesia,,,,https://maps.google.com/?cid=0x0:0x9b9160ef43d35fd5%7C/g/11clwlw14h%7Cid-ID
hotel,hotel,The Luxio Hotel,"Jl. Basuki Rahmat KM.12 Sorong, Malaingkedi, Kec. Sorong Utara, West Papua, Papua Bar. 98412","Malaingkedi, Kec. Sorong Utara, West Papua",PAPUA BARAT,98412.0,Indonesia,81344807777.0,-0.9040377,131.3236469,https://maps.google.com/?cid=0x0:0x4a37ba927853645b
hotel,hotel,,,,PAPUA BARAT,,Indonesia,,,,https://maps.google.com/?cid=0x0:0x4a37ba927853645b%7C/g/11y0l8mjv%7Cid-ID
hotel,hotel,Agung Homestay  Foodie,"Jl. Sungai Maruni Km. 10, Jl. Kilang No.17 18, HOP, Kota Sorong, Papua Bar. 98413","Jl. Kilang No.17 18, HOP, Kota Sorong",PAPUA BARAT,98413.0,Indonesia,8124840920.0,-0.8855187,131.3226186,https://maps.google.com/?cid=0x0:0xc70ccd11d0299b38
hotel,hotel,Hotel Mratuwa Sesna,"G39P+JXC, Keyen, Kec. Teminabuan, Kabupaten Sorong Selatan, Papua Bar. 98454","Keyen, Kec. Teminabuan, Kabupaten Sorong Selatan",PAPUA BARAT,98454.0,Indonesia,81344070037.0,-1.4809318,132.0873892,https://maps.google.com/?cid=0x0:0xa5b0539434328bee
hotel,hotel,Penginapan Kofiyau,"46MX+QV7, Unnamed Road, Klasuur, Distrik Sorong, Kota Sorong, Papua Bar. 98411","Unnamed Road, Klasuur, Distrik Sorong, Kota Sorong",PAPUA BARAT,98411.0,Indonesia,82398017326.0,-0.86559,131.2496721,https://maps.google.com/?cid=0x0:0xfc32a1234a9c5c47
hotel,hotel,tempat penginapan,"46GX+7Q4, Kp. Baru, Distrik Sorong, Kota Sorong, Papua Bar.","Kota Sorong, Papua Bar.",PAPUA BARAT,,Indonesia,,-0.8743674,131.249452,https://maps.google.com/?cid=0x0:0x5a527f95bc78be48
hotel,hotel,Waigo Splash Hotel,"Jl. Yos. Sudarso, Kp. Baru, Distrik Sorong, Kota Sorong, Papua Bar. 98411","Kp. Baru, Distrik Sorong, Kota Sorong",PAPUA BARAT,98411.0,Indonesia,951333500.0,-0.8687594,131.2467849,https://maps.google.com/?cid=0x0:0x73c16b8e6e9a0c21
hotel,hotel,Distrik Seremuk,"Kabupaten Sorong Selatan, Papua Bar.","Kabupaten Sorong Selatan, Papua Bar.",PAPUA BARAT,,Indonesia,,-1.3800751,131.971713,https://maps.google.com/?cid=0x0:0xe12c32b535c8440a
hotel,hotel,Aston Sorong Hotel  Conference Center,"476V+J9X, Jl. Basuki Rahmat, Malaingkedi, Kec. Sorong Utara, Kota Sorong, Papua Bar. 98412","Jl. Basuki Rahmat, Malaingkedi, Kec. Sorong Utara, Kota Sorong",PAPUA BARAT,98412.0,Indonesia,81148500888.0,-0.8887467,131.2931592,https://maps.google.com/?cid=0x0:0x110a6a5f0a67a7f7
hotel,hotel,Belagri Hotel and Restaurant,"Jl. Raja Ampat No.1, Kp. Baru, Distrik Sorong, Kota Sorong, Papua Bar. 98413","Kp. Baru, Distrik Sorong, Kota Sorong",PAPUA BARAT,98413.0,Indonesia,,-0.8704329,131.2517604,https://maps.google.com/?cid=0x0:0xb0064be8b2a3c2c8
hotel,hotel,M Hotel Sorong,"Jl. Sungai Maruni, Klawuyuk, Kec. Sorong Utara, Kota Sorong, Papua Bar. 98416","Klawuyuk, Kec. Sorong Utara, Kota Sorong",PAPUA BARAT,98416.0,Indonesia,8114863111.0,-0.8858638,131.3227746,https://maps.google.com/?cid=0x0:0x9b9160ef43d35fd5
hotel,hotel,,,,PAPUA BARAT,,Indonesia,,,,https://maps.google.com/?cid=0x0:0x9b9160ef43d35fd5%7C/g/11clwlw14h%7Cid-ID
hotel,hotel,Hotel Mratuwa Sesna,"G39P+JXC, Keyen, Kec. Teminabuan, Kabupaten Sorong Selatan, Papua Bar. 98454","Keyen, Kec. Teminabuan, Kabupaten Sorong Selatan",PAPUA BARAT,98454.0,Indonesia,81344070037.0,-1.4809318,132.0873892,https://maps.google.com/?cid=0x0:0xa5b0539434328bee
hotel,hotel,Hotel Nusa Indah,"H267+2GH, Kohoin, Kec. Teminabuan, Kabupaten Sorong Selatan, Papua Bar. 98454","Kohoin, Kec. Teminabuan, Kabupaten Sorong Selatan",PAPUA BARAT,98454.0,Indonesia,,-1.439935,132.0138655,https://maps.google.com/?cid=0x0:0x3e6833d129546707
hotel,hotel,tempat penginapan,"46GX+7Q4, Kp. Baru, Distrik Sorong, Kota Sorong, Papua Bar.","Kota Sorong, Papua Bar.",PAPUA BARAT,,Indonesia,,-0.8743674,131.249452,https://maps.google.com/?cid=0x0:0x5a527f95bc78be48
hotel,hotel,Hotel Batanta,"46GW+RMC, Kp. Baru, Distrik Sorong, Kota Sorong, Papua Bar. 98411","Kp. Baru, Distrik Sorong, Kota Sorong",PAPUA BARAT,98411.0,Indonesia,,-0.8729338,131.246629,https://maps.google.com/?cid=0x0:0xd18e7775760a134a
hotel,hotel,O,"Jl. Jend. A. Yani No.27, Malabutor, Kecamatan Sorong Manoi, Kota Sorong, Papua Bar. 98412","Malabutor, Kecamatan Sorong Manoi, Kota Sorong",PAPUA BARAT,98412.0,Indonesia,,-0.8827427,131.2828186,https://maps.google.com/?cid=0x0:0x9aebba5ddda67893
hotel,hotel,Kec. Teminabuan,"Kabupaten Sorong Selatan, Papua Bar.","Kabupaten Sorong Selatan, Papua Bar.",PAPUA BARAT,,Indonesia,,-1.4418184,132.0109997,https://maps.google.com/?cid=0x0:0x26fd6623ef786a25
hotel,hotel,Hotel Nusa Indah,"H267+2GH, Kohoin, Kec. Teminabuan, Kabupaten Sorong Selatan, Papua Bar. 98454","Kohoin, Kec. Teminabuan, Kabupaten Sorong Selatan",PAPUA BARAT,98454.0,Indonesia,,-1.439935,132.0138655,https://maps.google.com/?cid=0x0:0x3e6833d129546707
hotel,hotel,Hotel Mratuwa Sesna,"G39P+JXC, Keyen, Kec. Teminabuan, Kabupaten Sorong Selatan, Papua Bar. 98454","Keyen, Kec. Teminabuan, Kabupaten Sorong Selatan",PAPUA BARAT,98454.0,Indonesia,81344070037.0,-1.4809318,132.0873892,https://maps.google.com/?cid=0x0:0xa5b0539434328bee
hotel,hotel,Aston Sorong Hotel  Conference Center,"476V+J9X, Jl. Basuki Rahmat, Malaingkedi, Kec. Sorong Utara, Kota Sorong, Papua Bar. 98412","Jl. Basuki Rahmat, Malaingkedi, Kec. Sorong Utara, Kota Sorong",PAPUA BARAT,98412.0,Indonesia,81148500888.0,-0.8887467,131.2931592,https://maps.google.com/?cid=0x0:0x110a6a5f0a67a7f7
hotel,hotel,Penginapan Kofiyau,"46MX+QV7, Unnamed Road, Klasuur, Distrik Sorong, Kota Sorong, Papua Bar. 98411","Unnamed Road, Klasuur, Distrik Sorong, Kota Sorong",PAPUA BARAT,98411.0,Indonesia,82398017326.0,-0.86559,131.2496721,https://maps.google.com/?cid=0x0:0xfc32a1234a9c5c47
hotel,hotel,tempat penginapan,"46GX+7Q4, Kp. Baru, Distrik Sorong, Kota Sorong, Papua Bar.","Kota Sorong, Papua Bar.",PAPUA BARAT,,Indonesia,,-0.8743674,131.249452,https://maps.google.com/?cid=0x0:0x5a527f95bc78be48
hotel,hotel,Hotel Rumberpon,"Jl. Selat Rumberpon No.10a, Remu Sel., Kecamatan Sorong Manoi, Kota Sorong, Papua Bar. 98412","Remu Sel., Kecamatan Sorong Manoi, Kota Sorong",PAPUA BARAT,98412.0,Indonesia,82238504121.0,-0.885408,131.2865376,https://maps.google.com/?cid=0x0:0xceee6e69b9e3daac
hotel,hotel,Hotel Batanta,"46GW+RMC, Kp. Baru, Distrik Sorong, Kota Sorong, Papua Bar. 98411","Kp. Baru, Distrik Sorong, Kota Sorong",PAPUA BARAT,98411.0,Indonesia,,-0.8729338,131.246629,https://maps.google.com/?cid=0x0:0xd18e7775760a134a
hotel,hotel,O,"Jl. Jend. A. Yani No.27, Malabutor, Kecamatan Sorong Manoi, Kota Sorong, Papua Bar. 98412","Malabutor, Kecamatan Sorong Manoi, Kota Sorong",PAPUA BARAT,98412.0,Indonesia,,-0.8827427,131.2828186,https://maps.google.com/?cid=0x0:0x9aebba5ddda67893
hotel,hotel,Mahanaim Hotel dan Homestay Manokwari,"jln trikora kalidingin no 109, Wosi, Kec. Manokwari Bar., Kabupaten Manokwari, Papua Bar. 98312","Wosi, Kec. Manokwari Bar., Kabupaten Manokwari",PAPUA BARAT,98312.0,Indonesia,8124830147.0,-0.8699305,134.0471193,https://maps.google.com/?cid=0x0:0xeec6727952b4f3e6
hotel,hotel,Belagri Hotel and Restaurant,"Jl. Raja Ampat No.1, Kp. Baru, Distrik Sorong, Kota Sorong, Papua Bar. 98413","Kp. Baru, Distrik Sorong, Kota Sorong",PAPUA BARAT,98413.0,Indonesia,,-0.8704329,131.2517604,https://maps.google.com/?cid=0x0:0xb0064be8b2a3c2c8
hotel,hotel,35 Inn,"476C+RFX, Jl. Ferry, Malawei, Distrik Sorong, Kota Sorong, Papua Bar. 98412","Jl. Ferry, Malawei, Distrik Sorong, Kota Sorong",PAPUA BARAT,98412.0,Indonesia,,-0.8878893,131.271243,https://maps.google.com/?cid=0x0:0xb276478752dcd2b2
hotel,hotel,Distrik Wayer,"Kabupaten Sorong Selatan, Papua Bar.","Kabupaten Sorong Selatan, Papua Bar.",PAPUA BARAT,,Indonesia,,-1.4981267,132.1276575,https://maps.google.com/?cid=0x0:0xa31b66c806bf6157
hotel,hotel,Hotel Mratuwa Sesna,"G39P+JXC, Keyen, Kec. Teminabuan, Kabupaten Sorong Selatan, Papua Bar. 98454","Keyen, Kec. Teminabuan, Kabupaten Sorong Selatan",PAPUA BARAT,98454.0,Indonesia,81344070037.0,-1.4809318,132.0873892,https://maps.google.com/?cid=0x0:0xa5b0539434328bee
hotel,hotel,Aimas Hotel And Convention Center,"Klamasen, Distrik Mariat, Kabupaten Sorong, Papua Bar. 98416","Distrik Mariat, Kabupaten Sorong",PAPUA BARAT,98416.0,Indonesia,8114887778.0,-0.9780957,131.3535192,https://maps.google.com/?cid=0x0:0x622ceae2f7c756cf
hotel,hotel,Aston Sorong Hotel  Conference Center,"476V+J9X, Jl. Basuki Rahmat, Malaingkedi, Kec. Sorong Utara, Kota Sorong, Papua Bar. 98412","Jl. Basuki Rahmat, Malaingkedi, Kec. Sorong Utara, Kota Sorong",PAPUA BARAT,98412.0,Indonesia,81148500888.0,-0.8887467,131.2931592,https://maps.google.com/?cid=0x0:0x110a6a5f0a67a7f7
hotel,hotel,The ignislo sorong hotel,"Basuki Rahmat Street KM 7 Sorong, Malaingkedi, Sorong Utara, Sorong City, West Papua 98412","Malaingkedi, Sorong Utara, Sorong City",PAPUA BARAT,98412.0,Indonesia,,-0.8885403,131.2925628,https://maps.google.com/?cid=0x0:0x9992b24f2542a546
hotel,hotel,Hotel Belagri Sorong,"Jl. Merapi No.8, Klabala, Distrik Sorong Barat, Kota Sorong, Papua Bar. 98411","Klabala, Distrik Sorong Barat, Kota Sorong",PAPUA BARAT,98411.0,Indonesia,951323888.0,-0.8730356,131.2547729,https://maps.google.com/?cid=0x0:0x84dae6f8c4b2e8ad
hotel,hotel,Penginapan Kofiyau,"46MX+QV7, Unnamed Road, Klasuur, Distrik Sorong, Kota Sorong, Papua Bar. 98411","Unnamed Road, Klasuur, Distrik Sorong, Kota Sorong",PAPUA BARAT,98411.0,Indonesia,82398017326.0,-0.86559,131.2496721,https://maps.google.com/?cid=0x0:0xfc32a1234a9c5c47
hotel,hotel,tempat penginapan,"46GX+7Q4, Kp. Baru, Distrik Sorong, Kota Sorong, Papua Bar.","Kota Sorong, Papua Bar.",PAPUA BARAT,,Indonesia,,-0.8743674,131.249452,https://maps.google.com/?cid=0x0:0x5a527f95bc78be48
hotel,hotel,Hotel Nusa Indah,"H267+2GH, Kohoin, Kec. Teminabuan, Kabupaten Sorong Selatan, Papua Bar. 98454","Kohoin, Kec. Teminabuan, Kabupaten Sorong Selatan",PAPUA BARAT,98454.0,Indonesia,,-1.439935,132.0138655,https://maps.google.com/?cid=0x0:0x3e6833d129546707
hotel,hotel,35 Inn,"476C+RFX, Jl. Ferry, Malawei, Distrik Sorong, Kota Sorong, Papua Bar. 98412","Jl. Ferry, Malawei, Distrik Sorong, Kota Sorong",PAPUA BARAT,98412.0,Indonesia,,-0.8878893,131.271243,https://maps.google.com/?cid=0x0:0xb276478752dcd2b2
hotel,hotel,Darefan Hotel Sorong,"Jl. Selat Morotai, Remu Sel., Kecamatan Sorong Manoi, Kota Sorong, Papua Bar. 98412","Remu Sel., Kecamatan Sorong Manoi, Kota Sorong",PAPUA BARAT,98412.0,Indonesia,8114868887.0,-0.8877595,131.2893739,https://maps.google.com/?cid=0x0:0x5709bb2ac9cbd24
hotel,hotel,Waigo Splash Hotel,"Jl. Yos. Sudarso, Kp. Baru, Distrik Sorong, Kota Sorong, Papua Bar. 98411","Kp. Baru, Distrik Sorong, Kota Sorong",PAPUA BARAT,98411.0,Indonesia,951333500.0,-0.8687594,131.2467849,https://maps.google.com/?cid=0x0:0x73c16b8e6e9a0c21
hotel,hotel,Hotel Batanta,"46GW+RMC, Kp. Baru, Distrik Sorong, Kota Sorong, Papua Bar. 98411","Kp. Baru, Distrik Sorong, Kota Sorong",PAPUA BARAT,98411.0,Indonesia,,-0.8729338,131.246629,https://maps.google.com/?cid=0x0:0xd18e7775760a134a
hotel,hotel,O,"Jl. Jend. A. Yani No.27, Malabutor, Kecamatan Sorong Manoi, Kota Sorong, Papua Bar. 98412","Malabutor, Kecamatan Sorong Manoi, Kota Sorong",PAPUA BARAT,98412.0,Indonesia,,-0.8827427,131.2828186,https://maps.google.com/?cid=0x0:0x9aebba5ddda67893
restaurant,restaurant,Distrik Fokour,"Kabupaten Sorong Selatan, Papua Bar.","Kabupaten Sorong Selatan, Papua Bar.",PAPUA BARAT,,Indonesia,,-1.1621937,132.0207079,https://maps.google.com/?cid=0x0:0xca5b0bfb905adc24
restaurant,restaurant,Lido Kuring,"Klasuur, Distrik Sorong, Kota Sorong, Papua Bar. 98411","Distrik Sorong, Kota Sorong",PAPUA BARAT,98411.0,Indonesia,951322971.0,-0.866166,131.2460602,https://maps.google.com/?cid=0x0:0x14f7343227419def
restaurant,Padang,RUMAH MAKAN PADANG RR,"dan TVRI, Alamat. Jl. Brigjen Marinir (Purn) Abraham O. Atururi, Arfai, Manokwari Bersebelahan dengan jalan naik ke KPU, Kabupaten Manokwari, Papua Bar. 98315","Alamat. Jl. Brigjen Marinir (Purn) Abraham O. Atururi, Arfai, Manokwari Bersebelahan dengan jalan naik ke KPU, Kabupaten Manokwari",PAPUA BARAT,98315.0,Indonesia,81374835447.0,-0.9250156,134.0272695,https://maps.google.com/?cid=0x0:0xca806fa734f903bd
restaurant,restaurant,,,,PAPUA BARAT,,Indonesia,,,,https://maps.google.com/?cid=0x0:0xca806fa734f903bdu0026onu003dSayur+Daun+Singkongu0026midu003d/g/11t3hxlnmm
restaurant,restaurant,,,,PAPUA BARAT,,Indonesia,,,,https://maps.google.com/?cid=0x0:0xca806fa734f903bdu0026onu003dRendangu0026midu003d/g/11t3hxlnmm
restaurant,restaurant,,,,PAPUA BARAT,,Indonesia,,,,https://maps.google.com/?cid=0x0:0xca806fa734f903bdu0026onu003dAyam+Gulaiu0026midu003d/g/11t3hxlnmm
restaurant,restaurant,,,,PAPUA BARAT,,Indonesia,,,,https://maps.google.com/?cid=0x0:0xca806fa734f903bdu0026onu003dAyam+Baladou0026midu003d/g/11t3hxlnmm
restaurant,restaurant,,,,PAPUA BARAT,,Indonesia,,,,https://maps.google.com/?cid=0x0:0xca806fa734f903bdu0026onu003dTelur+Baladou0026midu003d/g/11t3hxlnmm
restaurant,restaurant,,,,PAPUA BARAT,,Indonesia,,,,https://maps.google.com/?cid=0x0:0xca806fa734f903bdu0026onu0026midu003d/g/11t3hxlnmm
restaurant,Masakan Barat,FORK,"Jl. Lembong No.8, Braga, Kec. Sumur Bandung, Kota Bandung, Jawa Barat 40111","Braga, Kec. Sumur Bandung, Kota Bandung",PAPUA BARAT,40111.0,Indonesia,81382715274.0,-6.9164231,107.6094403,https://maps.google.com/?cid=0x0:0x4518b33576402f4d
restaurant,Indonesia,Foo Foo Modern Thai Restaurant  Cocktail Bar,"Retail Building, Jalan H R Rasuna Said Kav C22, Trinity Tower, Block IIB 2nd Floor, Kota Jakarta Selatan, Daerah Khusus Ibukota Jakarta 12940","Jalan H R Rasuna Said Kav C22, Trinity Tower, Block IIB 2nd Floor, Kota Jakarta Selatan",PAPUA BARAT,12940.0,Indonesia,8121366366.0,-6.2251326,106.8334996,https://maps.google.com/?cid=0x0:0xed3bee13deb76777
restaurant,Restoran,PA.SO.LA Restaurant,"Sudirman Central Business District (SCBD, Jl. Jend. Sudirman kav 52-53, RT.5/RW.3, Senayan, Kec. Kby. Baru, Kota Jakarta Selatan, Daerah Khusus Ibukota Jakarta 12190","Jl. Jend. Sudirman kav 52-53, RT.5/RW.3, Senayan, Kec. Kby. Baru, Kota Jakarta Selatan",PAPUA BARAT,12190.0,Indonesia,2125501993.0,-6.2235233,106.8097302,https://maps.google.com/?cid=0x0:0x6f8a97dabcb7d15f
restaurant,Restoran,ORASA'S Ashta District 8,"Jl Jend. Sudirman kav52-53 RT.8/RW.3 Ground Floor- unit 11-12, RT.8/RW.3, Senayan, Kec. Kby. Baru, Kota Jakarta Selatan, Daerah Khusus Ibukota Jakarta 12190","RT.8/RW.3, Senayan, Kec. Kby. Baru, Kota Jakarta Selatan",PAPUA BARAT,12190.0,Indonesia,87888303125.0,-6.2299787,106.8071966,https://maps.google.com/?cid=0x0:0xb15a460d894498f7
restaurant,China,Sugar  Spice,"InterContinental Jakarta Pondok Indah, Level 1 Jalan Metro Pondok Indah Kav. IV, 1, RT.1/RW.16, TA, Kec. Kby. Lama, Kota Jakarta Selatan, Daerah Khusus Ibukota Jakarta 12310","Level 1 Jalan Metro Pondok Indah Kav. IV, 1, RT.1/RW.16, TA, Kec. Kby. Lama, Kota Jakarta Selatan",PAPUA BARAT,12310.0,Indonesia,2139507355.0,-6.2645466,106.7824862,https://maps.google.com/?cid=0x0:0x9af012019d2158b4
restaurant,Layanan Transportasi,Bandara Inanwatan,"V5C7+W64, Mate, Distrik Inanwatan, Kabupaten Sorong Selatan, Papua Bar. 98455","Mate, Distrik Inanwatan, Kabupaten Sorong Selatan",PAPUA BARAT,98455.0,Indonesia,82196826597.0,-2.1277487,132.1630745,https://maps.google.com/?cid=0x0:0xd0b9c5c7d40453cc
restaurant,Pelabuhan sungai,Pelabuhan Inanwatan,"V5F9+CFX, Mate, Distrik Inanwatan, Kabupaten Sorong Selatan, Papua Bar. 98455","Mate, Distrik Inanwatan, Kabupaten Sorong Selatan",PAPUA BARAT,98455.0,Indonesia,,-2.1263931,132.1687373,https://maps.google.com/?cid=0x0:0xf5cc6ee00e3f7391
restaurant,restaurant,,,,PAPUA BARAT,,Indonesia,,,,https://maps.google.com/?cid=0x0:0x62f61b03c2c8bda6u0026onu003dIce+Creamu0026midu003d/g/11ggdy8tz2
restaurant,Korea,Mansae Hore Korean Grill Sorong cabang KAMPUNG BARU,"Jl. Sam Ratulangi Ruko Alfa Mega No.2B, Kp. Baru, Distrik Sorong, Kota Sorong, Papua Bar. 98411","Kp. Baru, Distrik Sorong, Kota Sorong",PAPUA BARAT,98411.0,Indonesia,81212285585.0,-0.870754,131.2519071,https://maps.google.com/?cid=0x0:0x62f61b03c2c8bda6
restaurant,restaurant,,,,PAPUA BARAT,,Indonesia,,,,https://maps.google.com/?cid=0x0:0x62f61b03c2c8bda6u0026onu003dShabuu0026midu003d/g/11ggdy8tz2
restaurant,Korea,Mansae Hore Korean Grill Sorong cabang KILO,"Jl. Basuki Rahmat No.Km.9 5, Sawagumu, Kec. Sorong Utara, Kota Sorong, Papua Bar. 98410","Sawagumu, Kec. Sorong Utara, Kota Sorong",PAPUA BARAT,98410.0,Indonesia,81212888885.0,-0.8893567,131.3119808,https://maps.google.com/?cid=0x0:0x7421ada9c8690ba9
restaurant,restaurant,,,,PAPUA BARAT,,Indonesia,,,,https://maps.google.com/?cid=0x0:0x62f61b03c2c8bda6u0026onu003dKorean+geill5u0026midu003d/g/11ggdy8tz2
restaurant,restaurant,,,,PAPUA BARAT,,Indonesia,,,,https://maps.google.com/?cid=0x0:0x62f61b03c2c8bda6u0026onu003dManse+Beef+and+Chickenu0026midu003d/g/11ggdy8tz2
restaurant,restaurant,,,,PAPUA BARAT,,Indonesia,,,,https://maps.google.com/?cid=0x0:0x62f61b03c2c8bda6u0026onu0026midu003d/g/11ggdy8tz2
restaurant,restaurant,,,,PAPUA BARAT,,Indonesia,,,,https://maps.google.com/?cid=0x0:0x62f61b03c2c8bda6u0026onu003dKorean+Grill+Beefu0026midu003d/g/11ggdy8tz2
restaurant,restaurant,Kais,"Kabupaten Sorong Selatan, Papua Bar.","Kabupaten Sorong Selatan, Papua Bar.",PAPUA BARAT,,Indonesia,,-1.7657744,132.1572702,https://maps.google.com/?cid=0x0:0x9cffca2dcef5956
restaurant,restaurant,Kokoda Trail Motel,"Sogeri Road, Port Moresby Central Province, Papua Nugini","Port Moresby, Papua Nugini",PAPUA BARAT,,Indonesia,6753236724.0,-9.4228838,147.4034546,https://maps.google.com/?cid=0x0:0xb59d5388256f8986
restaurant,restaurant,Distrik Kokoda,"Kabupaten Sorong Selatan, Papua Bar.","Kabupaten Sorong Selatan, Papua Bar.",PAPUA BARAT,,Indonesia,,-2.1274352,132.4263464,https://maps.google.com/?cid=0x0:0xa783056c2a04f79f
restaurant,restaurant,Bluff Inn Motel,"H8W7+4WR, Riverview Central Province, Papua Nugini","Riverview, Papua Nugini",PAPUA BARAT,,Indonesia,6753281223.0,-9.4046289,147.3147773,https://maps.google.com/?cid=0x0:0x4e0f0909a8cdcfe4
restaurant,restaurant,Signal Hunter,"49G8+M46, Atori / Kambur, Kec. Kokoda Utara, Kabupaten Sorong Selatan, Papua Bar. 98455","Atori / Kambur, Kec. Kokoda Utara, Kabupaten Sorong Selatan",PAPUA BARAT,98455.0,Indonesia,81254015471.0,-1.873335,132.3652767,https://maps.google.com/?cid=0x0:0x62b81f42be64ac35
restaurant,restaurant,Papua Bar.,,Papua Bar.,PAPUA BARAT,,Indonesia,,-1.3361154,133.1747162,https://maps.google.com/?cid=0x0:0x5349c1f8c5c7cb62
restaurant,Pizza,Pizzeria Terrazza di Sorong,"Behind SKKMIGAS, dibelakang SKKMIGAS, Jl. Arfak, Kp. Baru, Kota Sorong, Papua Bar. 98414","dibelakang SKKMIGAS, Jl. Arfak, Kp. Baru, Kota Sorong",PAPUA BARAT,98414.0,Indonesia,81356867669.0,-0.8737438,131.25222,https://maps.google.com/?cid=0x0:0xf46c05068677dc1
restaurant,Hidangan Laut,Republik Seafood,"Sawagumu, Kec. Sorong Utara, Kota Sorong, Papua Bar. 98412","Kec. Sorong Utara, Kota Sorong",PAPUA BARAT,98412.0,Indonesia,81344615005.0,-0.8883945,131.3109228,https://maps.google.com/?cid=0x0:0xec5acb934a352d67
restaurant,Hidangan Laut,Marina Star Restaurant Seafood,"Kompleks, Jl. Bubara Jl. Pelabuhan Perikanan, Distrik Sorong, Kota Sorong, Papua Bar. 98414","Jl. Bubara Jl. Pelabuhan Perikanan, Distrik Sorong, Kota Sorong",PAPUA BARAT,98414.0,Indonesia,81240250548.0,-0.8790069,131.2552456,https://maps.google.com/?cid=0x0:0x6d780e763a272c1a
restaurant,Pujasera,Hangout Avenue Sorong,"Jl Sungai Maruni KM 10, Masuk No.23, Kota Sorong, Papua Bar. 98416","Masuk No.23, Kota Sorong",PAPUA BARAT,98416.0,Indonesia,82197698090.0,-0.8868107,131.3216004,https://maps.google.com/?cid=0x0:0x29c3ed1d6d1ac389
restaurant,Rumah Makan,Rumah Makan Mini (Miniresto.sorong),"Klademak, Distrik Sorong, Kota Sorong, Papua Bar. 98412","Distrik Sorong, Kota Sorong",PAPUA BARAT,98412.0,Indonesia,85354611115.0,-0.8820389,131.2740136,https://maps.google.com/?cid=0x0:0x1b2e4c712665ee5b
restaurant,Hidangan Laut,RM. NEW RATU SAYANG,"Lido, Jl. Yos. Sudarso No.31, Klasuur, Distrik Sorong, Kota Sorong, Papua Bar. 98413","Jl. Yos. Sudarso No.31, Klasuur, Distrik Sorong, Kota Sorong",PAPUA BARAT,98413.0,Indonesia,85244007744.0,-0.8652896,131.2461583,https://maps.google.com/?cid=0x0:0xb387f5135fa5f5d6
restaurant,Kedai Kopi,Sorong Cafe,"Sawagumu, Kec. Sorong Utara, Kota Sorong, Papua Bar.","Kota Sorong, Papua Bar.",PAPUA BARAT,,Indonesia,81248201730.0,-0.8893784,131.3128926,https://maps.google.com/?cid=0x0:0x7962c1d0ce1b0528
restaurant,Restoran,Inggandi Beach Restaurant,"43GV+7Q3, Jl. Pasir Putih No.33, Pasir Putih, Kec. Manokwari Tim., Kabupaten Manokwari, Papua Bar. 98313","Jl. Pasir Putih No.33, Pasir Putih, Kec. Manokwari Tim., Kabupaten Manokwari",PAPUA BARAT,98313.0,Indonesia,81240372255.0,-0.8780927,134.0933631,https://maps.google.com/?cid=0x0:0xba66c7a3124731e6
restaurant,Toko Roti,Sasukun Cafe / Kue Maniso,"Jl. KPR Klasaman Permai, Klamana, Distrik Sorong Timur, Kota Sorong, Papua Bar. 98417","Klamana, Distrik Sorong Timur, Kota Sorong",PAPUA BARAT,98417.0,Indonesia,81343186117.0,-0.9088288,131.3272156,https://maps.google.com/?cid=0x0:0x3a6b69777a1af5da
restaurant,Kedai Kopi,wabisabicoffee,"Kp. Baru, Distrik Sorong, Kota Sorong, Papua Bar. 98411","Distrik Sorong, Kota Sorong",PAPUA BARAT,98411.0,Indonesia,82137563208.0,-0.8704999,131.253128,https://maps.google.com/?cid=0x0:0xd4029d1b24ccb3b3
restaurant,Indonesia,Aghina Cafe and Restaurant,"478F+G45, Malabutor, Kecamatan Sorong Manoi, Kota Sorong, Papua Bar. 98412","Malabutor, Kecamatan Sorong Manoi, Kota Sorong",PAPUA BARAT,98412.0,Indonesia,81344840839.0,-0.8837374,131.2728509,https://maps.google.com/?cid=0x0:0x57d56fb0e9f3b322
restaurant,Kafe,Cafenation,"Matamalagi, Jl. Sungai Maruni, Kec. Sorong Utara, Kota Sorong, Papua Bar. 98412","Jl. Sungai Maruni, Kec. Sorong Utara, Kota Sorong",PAPUA BARAT,98412.0,Indonesia,81245807789.0,-0.8869143,131.3214705,https://maps.google.com/?cid=0x0:0xb970c60a44273f0f
restaurant,restaurant,Lido Kuring,"Klasuur, Distrik Sorong, Kota Sorong, Papua Bar. 98411","Distrik Sorong, Kota Sorong",PAPUA BARAT,98411.0,Indonesia,951322971.0,-0.866166,131.2460602,https://maps.google.com/?cid=0x0:0x14f7343227419def
restaurant,restaurant,Papua Bar. 98454,"Kabupaten Sorong Selatan, Papua Bar.","Kabupaten Sorong Selatan, Papua Bar.",PAPUA BARAT,,Indonesia,,-1.4196083,131.9989718,https://maps.google.com/?cid=0x0:0x85355e3327b207ba
restaurant,Hidangan Laut,WR. Marinda Seafood,"46FV+R9P, Kp. Baru, Distrik Sorong, Kota Sorong, Papua Bar. 98411","Kp. Baru, Distrik Sorong, Kota Sorong",PAPUA BARAT,98411.0,Indonesia,85244547308.0,-0.8754085,131.2434382,https://maps.google.com/?cid=0x0:0x3954b465e868b0a3
restaurant,Hidangan Laut,Republik Seafood,"Sawagumu, Kec. Sorong Utara, Kota Sorong, Papua Bar. 98412","Kec. Sorong Utara, Kota Sorong",PAPUA BARAT,98412.0,Indonesia,81344615005.0,-0.8883945,131.3109228,https://maps.google.com/?cid=0x0:0xec5acb934a352d67
restaurant,Hidangan Laut,RM. NEW RATU SAYANG,"Lido, Jl. Yos. Sudarso No.31, Klasuur, Distrik Sorong, Kota Sorong, Papua Bar. 98413","Jl. Yos. Sudarso No.31, Klasuur, Distrik Sorong, Kota Sorong",PAPUA BARAT,98413.0,Indonesia,85244007744.0,-0.8652896,131.2461583,https://maps.google.com/?cid=0x0:0xb387f5135fa5f5d6
restaurant,Hidangan Laut,Marina Star Restaurant Seafood,"Kompleks, Jl. Bubara Jl. Pelabuhan Perikanan, Distrik Sorong, Kota Sorong, Papua Bar. 98414","Jl. Bubara Jl. Pelabuhan Perikanan, Distrik Sorong, Kota Sorong",PAPUA BARAT,98414.0,Indonesia,81240250548.0,-0.8790069,131.2552456,https://maps.google.com/?cid=0x0:0x6d780e763a272c1a
restaurant,restaurant,Kitong Papua Resto,"47C7+8FG Bar, Klakublik, Distrik Sorong, Kota Sorong, Papua Bar. 98412","Klakublik, Distrik Sorong, Kota Sorong",PAPUA BARAT,98412.0,Indonesia,81229333688.0,-0.8791926,131.2637156,https://maps.google.com/?cid=0x0:0x280e5815d7f49038
restaurant,restaurant,M.grill resto  cafe sorong,"47J3+86H, Jl. Kalimantan, Klabala, Distrik Sorong Barat, Kota Sorong, Papua Bar. 98411","Jl. Kalimantan, Klabala, Distrik Sorong Barat, Kota Sorong",PAPUA BARAT,98411.0,Indonesia,,-0.8691953,131.2531238,https://maps.google.com/?cid=0x0:0x59bd64a2b1a05066
restaurant,restaurant,Lido Kuring,"Klasuur, Distrik Sorong, Kota Sorong, Papua Bar. 98411","Distrik Sorong, Kota Sorong",PAPUA BARAT,98411.0,Indonesia,951322971.0,-0.866166,131.2460602,https://maps.google.com/?cid=0x0:0x14f7343227419def
restaurant,Indonesia,Aghina Cafe and Restaurant,"478F+G45, Malabutor, Kecamatan Sorong Manoi, Kota Sorong, Papua Bar. 98412","Malabutor, Kecamatan Sorong Manoi, Kota Sorong",PAPUA BARAT,98412.0,Indonesia,81344840839.0,-0.8837374,131.2728509,https://maps.google.com/?cid=0x0:0x57d56fb0e9f3b322
restaurant,Indonesia,Nur Corner,"Jl. Jenggala II No.9, RT.5/RW.1, Selong, Kec. Kby. Baru, Kota Jakarta Selatan, Daerah Khusus Ibukota Jakarta 12110","RT.5/RW.1, Selong, Kec. Kby. Baru, Kota Jakarta Selatan",PAPUA BARAT,12110.0,Indonesia,,-6.2297165,106.8022477,https://maps.google.com/?cid=0x0:0xedf64c6d5da48a5b
restaurant,China,Fun  Mean (Hongkong Styled Diner),"Ruko, South Jl. Goldfinch Raya, SGE20, Tangerang Regency, Banten 15332","South Jl. Goldfinch Raya, SGE20, Tangerang Regency",PAPUA BARAT,15332.0,Indonesia,82382808999.0,-6.2738285,106.6349508,https://maps.google.com/?cid=0x0:0x81364df72c670184
restaurant,Sesuai untuk keluarga,Corner 28,"Jl. Cibitung II No.34, Petogogan, Kec. Kby. Baru, Kota Jakarta Selatan, Daerah Khusus Ibukota Jakarta 12170","Petogogan, Kec. Kby. Baru, Kota Jakarta Selatan",PAPUA BARAT,12170.0,Indonesia,87713516086.0,-6.24234,106.8121343,https://maps.google.com/?cid=0x0:0xed8c023fad1c3930
restaurant,Restoran,KONA - Restaurant,"Jl. Panjang No.128, Kedoya Sel., Kec. Kb. Jeruk, Kota Jakarta Barat, Daerah Khusus Ibukota Jakarta 11520","Kedoya Sel., Kec. Kb. Jeruk, Kota Jakarta Barat",PAPUA BARAT,11520.0,Indonesia,81280000962.0,-6.1798384,106.7662912,https://maps.google.com/?cid=0x0:0xb08630549d89f208
restaurant,Indonesia,Handi Restaurant,"Le meridien jakarta, Karet Tengsin, Tanah Abang, Central Jakarta City, Jakarta","Kota Jakarta Pusat, Daerah Khusus Ibukota Jakarta",PAPUA BARAT,,Indonesia,212513131.0,-6.2133687,106.8186985,https://maps.google.com/?cid=0x0:0xd8827988ed1e0435
restaurant,restaurant,Phonam cafe,"3867+366, Tawanggire, Kec. Matemani, Kabupaten Sorong Selatan, Papua Bar. 98455","Tawanggire, Kec. Matemani, Kabupaten Sorong Selatan",PAPUA BARAT,98455.0,Indonesia,,-1.9398334,132.3130187,https://maps.google.com/?cid=0x0:0xdd2c6f9d1b7541f7
restaurant,restaurant,Distrik Moswaren,"Kabupaten Sorong Selatan, Papua Bar.","Kabupaten Sorong Selatan, Papua Bar.",PAPUA BARAT,,Indonesia,,-1.4917637,132.2410573,https://maps.google.com/?cid=0x0:0xc435d4289dbbc461
restaurant,Restoran,RM Mama Dede,"G636+34, Hasik Jaya (Sp II), Distrik Moswaren, Kabupaten Sorong Selatan, Papua Bar.","Kabupaten Sorong Selatan, Papua Bar.",PAPUA BARAT,,Indonesia,81248247374.0,-1.4973733,132.2103083,https://maps.google.com/?cid=0x0:0xe546b8ea57f74bf1
restaurant,Rumah Makan,RM. TRENGGALEK,"jalur6, Bumi Ajo (Sp I), Distrik Moswaren, Kabupaten Sorong Selatan, Papua Bar. 98462","Bumi Ajo (Sp I), Distrik Moswaren, Kabupaten Sorong Selatan",PAPUA BARAT,98462.0,Indonesia,82199412713.0,-1.4919244,132.2411117,https://maps.google.com/?cid=0x0:0x4943db263fbfbd7e
restaurant,restaurant,Kisah manis,"Bumi Ajo (Sp I), Distrik Moswaren, Kabupaten Sorong Selatan, Papua Bar. 98212","Distrik Moswaren, Kabupaten Sorong Selatan",PAPUA BARAT,98212.0,Indonesia,82233914379.0,-1.4975234,132.2411755,https://maps.google.com/?cid=0x0:0xf84bf09a3310764e
restaurant,Bakso,Camp Mie Ayam ragiel,"G64V+R9G, Bumi Ajo (Sp I), Distrik Moswaren, Kabupaten Sorong Selatan, Papua Bar. 98462","Bumi Ajo (Sp I), Distrik Moswaren, Kabupaten Sorong Selatan",PAPUA BARAT,98462.0,Indonesia,82239270018.0,-1.4929377,132.2434559,https://maps.google.com/?cid=0x0:0xf35fc83cfe2eb5b1
restaurant,Rumah Makan,Rumah Makan Khumairoh,"G65R+G4J, Unnamed Road, Bumi Ajo (Sp I), Distrik Moswaren, Kabupaten Sorong Selatan, Papua Bar. 98462","Unnamed Road, Bumi Ajo (Sp I), Distrik Moswaren, Kabupaten Sorong Selatan",PAPUA BARAT,98462.0,Indonesia,81247584278.0,-1.4911533,132.2402583,https://maps.google.com/?cid=0x0:0x492f1b5d68e43ba9
restaurant,Rumah Makan,RUMAH MAKAN BERKAT,"G629+V3W, Hasik Jaya (Sp II), Distrik Moswaren, Kabupaten Sorong Selatan, Papua Bar. 98462","Hasik Jaya (Sp II), Distrik Moswaren, Kabupaten Sorong Selatan",PAPUA BARAT,98462.0,Indonesia,82238287271.0,-1.4973621,132.2178368,https://maps.google.com/?cid=0x0:0x74b8d814bba96486
restaurant,restaurant,Bakso Barokah Lestari,"G63R+Q2X, jalur 7, Bumi Ajo (Sp I), Distrik Moswaren, Kabupaten Sorong Selatan, Papua Bar. 98462","jalur 7, Bumi Ajo (Sp I), Distrik Moswaren, Kabupaten Sorong Selatan",PAPUA BARAT,98462.0,Indonesia,,-1.4955047,132.2401179,https://maps.google.com/?cid=0x0:0x6407666ebd7193dc
restaurant,Pizza,Pizzeria Terrazza di Sorong,"Behind SKKMIGAS, dibelakang SKKMIGAS, Jl. Arfak, Kp. Baru, Kota Sorong, Papua Bar. 98414","dibelakang SKKMIGAS, Jl. Arfak, Kp. Baru, Kota Sorong",PAPUA BARAT,98414.0,Indonesia,81356867669.0,-0.8737438,131.25222,https://maps.google.com/?cid=0x0:0xf46c05068677dc1
restaurant,restaurant,,,,PAPUA BARAT,,Indonesia,,,,https://maps.google.com/?cid=0x0:0xf46c05068677dc1u0026onu003dMenuu0026midu003d/g/11tp9rf8y1
restaurant,restaurant,,,,PAPUA BARAT,,Indonesia,,,,https://maps.google.com/?cid=0x0:0xf46c05068677dc1u0026onu003dMeat+Lovers+Pizzau0026midu003d/g/11tp9rf8y1
restaurant,Restoran,Pizza Hut Restoran - Mega Mall Sorong,"Mega Mall Sorong, Jl. Basuki Rahmat Lantai Dasar, Malaingkedi, Distrik Sorong Timur, Kota Sorong, Papua Bar.","Kota Sorong, Papua Bar.",PAPUA BARAT,,Indonesia,1500600.0,-0.8874193,131.3013508,https://maps.google.com/?cid=0x0:0x68b3007d4e2acab8
restaurant,restaurant,,,,PAPUA BARAT,,Indonesia,,,,https://maps.google.com/?cid=0x0:0xf46c05068677dc1u0026onu003dPizza+Margheritau0026midu003d/g/11tp9rf8y1
restaurant,restaurant,,,,PAPUA BARAT,,Indonesia,,,,https://maps.google.com/?cid=0x0:0xf46c05068677dc1u0026onu003dCreamy+Cheesecake+-+Homemadeu0026midu003d/g/11tp9rf8y1
restaurant,restaurant,,,,PAPUA BARAT,,Indonesia,,,,https://maps.google.com/?cid=0x0:0xf46c05068677dc1u0026onu003dSate+Ayam+Jumbou0026midu003d/g/11tp9rf8y1
restaurant,restaurant,,,,PAPUA BARAT,,Indonesia,,,,https://maps.google.com/?cid=0x0:0xf46c05068677dc1u0026onu003dVegetarian+Pizzau0026midu003d/g/11tp9rf8y1
restaurant,restaurant,,,,PAPUA BARAT,,Indonesia,,,,https://maps.google.com/?cid=0x0:0xf46c05068677dc1u0026onu003dFrench+Friesu0026midu003d/g/11tp9rf8y1
restaurant,restaurant,,,,PAPUA BARAT,,Indonesia,,,,https://maps.google.com/?cid=0x0:0xf46c05068677dc1u0026onu003dChicken+Sandwichu0026midu003d/g/11tp9rf8y1
restaurant,restaurant,,,,PAPUA BARAT,,Indonesia,,,,https://maps.google.com/?cid=0x0:0xf46c05068677dc1u0026onu003dTuna+Pastau0026midu003d/g/11tp9rf8y1
restaurant,restaurant,,,,PAPUA BARAT,,Indonesia,,,,https://maps.google.com/?cid=0x0:0xf46c05068677dc1u0026onu003dQuarter+Pounder+Smash+Burgeru0026midu003d/g/11tp9rf8y1
restaurant,restaurant,,,,PAPUA BARAT,,Indonesia,,,,https://maps.google.com/?cid=0x0:0xf46c05068677dc1u0026onu003dGarden+Salad+with+Mozzarella+Chunks+and+Croutonsu0026midu003d/g/11tp9rf8y1
restaurant,restaurant,,,,PAPUA BARAT,,Indonesia,,,,https://maps.google.com/?cid=0x0:0xf46c05068677dc1u0026onu003dPizza+Funghiu0026midu003d/g/11tp9rf8y1
restaurant,Padang,Rest Area Sederhana,"WPW5+5CW, Sayosa, Kec. Sayosa, Kabupaten Sorong, Papua Bar. 98471","Sayosa, Kec. Sayosa, Kabupaten Sorong",PAPUA BARAT,98471.0,Indonesia,,-1.0545087,131.7085809,https://maps.google.com/?cid=0x0:0x39af320198873dda
restaurant,restaurant,Papua Bar. 98456,Papua Bar.,Papua Bar.,PAPUA BARAT,,Indonesia,,-1.2191286,131.8799408,https://maps.google.com/?cid=0x0:0x1193e0fa67947a8b
restaurant,Indonesia,Warung Surabaya,"VFHQ+664, Klawana, Distrik Klamono, Kabupaten Sorong, Papua Bar. 98457","Klawana, Distrik Klamono, Kabupaten Sorong",PAPUA BARAT,98457.0,Indonesia,82378293476.0,-1.1219855,131.4880718,https://maps.google.com/?cid=0x0:0x8b9c323ce05e6ab9
restaurant,Kedai Kopi,Serupa Cafe and Eatery,"Jl. Nangka, Malawili, Kec. Aimas, Kabupaten Sorong, Papua Bar. 98444","Malawili, Kec. Aimas, Kabupaten Sorong",PAPUA BARAT,98444.0,Indonesia,,-0.9574859,131.3226217,https://maps.google.com/?cid=0x0:0xc58cb63de2e28003
restaurant,Rumah Makan,RM. EFATA PAPUA,"Jl kontener, Malawili, Kec. Aimas, Kota Sorong, Papua Bar. 98311","Malawili, Kec. Aimas, Kota Sorong",PAPUA BARAT,98311.0,Indonesia,,-0.951455,131.334464,https://maps.google.com/?cid=0x0:0xef3f8014989ac5ed
restaurant,restaurant,Warung Makan Sakhia,"G2WG+2R5, Wermit, Kec. Teminabuan, Kabupaten Sorong Selatan, Papua Bar. 98454","Wermit, Kec. Teminabuan, Kabupaten Sorong Selatan",PAPUA BARAT,98454.0,Indonesia,,-1.4549932,132.0271144,https://maps.google.com/?cid=0x0:0xe13d79291a0102f1
restaurant,Nasi,Warung Makan  Cafe Sabila,"2893+4VW depan kampus UNIMUDA, Jl. Wortel, Malawele, Kec. Aimas, Kabupaten Sorong, Papua Bar.","Kabupaten Sorong, Papua Bar.",PAPUA BARAT,,Indonesia,,-0.9821273,131.3047058,https://maps.google.com/?cid=0x0:0x89a1b8004cd00222
restaurant,Kafe,WARUNG MAKAN SUCARI,"Pangkalan Trek, Jl. Sengget, Sayolo, Kec. Teminabuan, Kabupaten Sorong Selatan, Papua Bar. 98454","Jl. Sengget, Sayolo, Kec. Teminabuan, Kabupaten Sorong Selatan",PAPUA BARAT,98454.0,Indonesia,81247796606.0,-1.4416238,132.0161865,https://maps.google.com/?cid=0x0:0xf65d9141dc997374
restaurant,Restoran,Jaso Mande,"G2WH+G45, Wermit, Kec. Teminabuan, Kabupaten Sorong Selatan, Papua Bar. 98454","Wermit, Kec. Teminabuan, Kabupaten Sorong Selatan",PAPUA BARAT,98454.0,Indonesia,,-1.453747,132.0278702,https://maps.google.com/?cid=0x0:0xeabd0c73efd4e25a
restaurant,Rumah Makan,RM. Selera Rasa,"2972+R95, Jl. Tuturuga, Klamasen, Distrik Mariat, Kabupaten Sorong, Papua Bar. 98416","Jl. Tuturuga, Klamasen, Distrik Mariat, Kabupaten Sorong",PAPUA BARAT,98416.0,Indonesia,85244594260.0,-0.9854905,131.3509826,https://maps.google.com/?cid=0x0:0x26448cb304f13163
restaurant,Restoran,Rumah makan Cepat Saji,"G2WG+CRX, Wernas, Kec. Teminabuan, Kabupaten Sorong Selatan, Papua Bar. 98454","Wernas, Kec. Teminabuan, Kabupaten Sorong Selatan",PAPUA BARAT,98454.0,Indonesia,8124839585.0,-1.4538755,132.0271197,https://maps.google.com/?cid=0x0:0xa276d2ec3eec551c
restaurant,Rumah Makan,RM Lesehan K'WADUK bendungan,"Jl cianjur sp1, bendungan, Klamalu, Distrik Mariat, Kabupaten Sorong, Papua Bar.","Kabupaten Sorong, Papua Bar.",PAPUA BARAT,,Indonesia,81248220999.0,-1.0021343,131.3563553,https://maps.google.com/?cid=0x0:0x8fe3c1fbf461145a
restaurant,Jawa,Warung Makan Blitar Sidomoro,"VFHQ+2H7, Klamono, Distrik Klamono, Kabupaten Sorong, Papua Bar. 98457","Klamono, Distrik Klamono, Kabupaten Sorong",PAPUA BARAT,98457.0,Indonesia,85344089631.0,-1.1224588,131.4889136,https://maps.google.com/?cid=0x0:0x90eb0479c1165ad1
restaurant,Restoran,RM AROMA SUNDA,"G2VG+9FP, Jl. Wernas. Arah pasar jajase, Wermit, Kec. Teminabuan, Kabupaten Sorong Selatan, Papua Bar. 98454","Jl. Wernas. Arah pasar jajase, Wermit, Kec. Teminabuan, Kabupaten Sorong Selatan",PAPUA BARAT,98454.0,Indonesia,82239816820.0,-1.4565296,132.0261885,https://maps.google.com/?cid=0x0:0x5980f22c98c9f601
restaurant,restaurant,Distrik Seremuk,"Kabupaten Sorong Selatan, Papua Bar.","Kabupaten Sorong Selatan, Papua Bar.",PAPUA BARAT,,Indonesia,,-1.3800751,131.971713,https://maps.google.com/?cid=0x0:0xe12c32b535c8440a
restaurant,Rumah Makan,Warung Lima Ok,"H23C+9GV, Jl. Sengget, Kaibus, Kec. Teminabuan, Kabupaten Sorong Selatan, Papua Bar. 98454","Jl. Sengget, Kaibus, Kec. Teminabuan, Kabupaten Sorong Selatan",PAPUA BARAT,98454.0,Indonesia,82238888245.0,-1.4465002,132.0213025,https://maps.google.com/?cid=0x0:0x497b4b10263a8094
restaurant,restaurant,Coto Makassar Sop Saudara,"G2WH+M2G, Wernas, Kec. Teminabuan, Kabupaten Sorong Selatan, Papua Bar. 98454","Wernas, Kec. Teminabuan, Kabupaten Sorong Selatan",PAPUA BARAT,98454.0,Indonesia,81247508877.0,-1.4533124,132.0275732,https://maps.google.com/?cid=0x0:0x71321c482fd2db1e
restaurant,Kafe,WARUNG MAKAN SUCARI,"Pangkalan Trek, Jl. Sengget, Sayolo, Kec. Teminabuan, Kabupaten Sorong Selatan, Papua Bar. 98454","Jl. Sengget, Sayolo, Kec. Teminabuan, Kabupaten Sorong Selatan",PAPUA BARAT,98454.0,Indonesia,81247796606.0,-1.4416238,132.0161865,https://maps.google.com/?cid=0x0:0xf65d9141dc997374
restaurant,Padang,CAYA DEPOT,"Keyen, Kec. Teminabuan, Kabupaten Sorong Selatan, Papua Bar. 98454","Kec. Teminabuan, Kabupaten Sorong Selatan",PAPUA BARAT,98454.0,Indonesia,81236842872.0,-1.4768784,132.0718281,https://maps.google.com/?cid=0x0:0xc50d9180525a84d7
restaurant,Restoran,Rumah makan Cepat Saji,"G2WG+CRX, Wernas, Kec. Teminabuan, Kabupaten Sorong Selatan, Papua Bar. 98454","Wernas, Kec. Teminabuan, Kabupaten Sorong Selatan",PAPUA BARAT,98454.0,Indonesia,8124839585.0,-1.4538755,132.0271197,https://maps.google.com/?cid=0x0:0xa276d2ec3eec551c
restaurant,Bakso,WR Bang Ibed (SOP JANDA),"G2VH+X25, Unnamed Road, Wernas, Kec. Teminabuan, Kabupaten Sorong Selatan, Papua Bar. 98454","Unnamed Road, Wernas, Kec. Teminabuan, Kabupaten Sorong Selatan",PAPUA BARAT,98454.0,Indonesia,81248595934.0,-1.4551169,132.0276242,https://maps.google.com/?cid=0x0:0x79a2f8dc50d3baad
restaurant,Rumah Makan,Rm. Gado Gado Surya,"G3FC+2WX, Keyen, Kec. Teminabuan, Kabupaten Sorong Selatan, Papua Bar. 98454","Keyen, Kec. Teminabuan, Kabupaten Sorong Selatan",PAPUA BARAT,98454.0,Indonesia,82399474266.0,-1.4773908,132.0723518,https://maps.google.com/?cid=0x0:0x65c7b24e76c19607
restaurant,Restoran,Jaso Mande,"G2WH+G45, Wermit, Kec. Teminabuan, Kabupaten Sorong Selatan, Papua Bar. 98454","Wermit, Kec. Teminabuan, Kabupaten Sorong Selatan",PAPUA BARAT,98454.0,Indonesia,,-1.453747,132.0278702,https://maps.google.com/?cid=0x0:0xeabd0c73efd4e25a
restaurant,Sup,Warung Bang Ibed,"H256+42X, Unnamed Road, Kohoin, Kec. Teminabuan, Kabupaten Sorong Selatan, Papua Bar. 98454","Unnamed Road, Kohoin, Kec. Teminabuan, Kabupaten Sorong Selatan",PAPUA BARAT,98454.0,Indonesia,81248595934.0,-1.4421362,132.0101242,https://maps.google.com/?cid=0x0:0xd9b69789882bc578
restaurant,restaurant,Warung Makan Sakhia,"G2WG+2R5, Wermit, Kec. Teminabuan, Kabupaten Sorong Selatan, Papua Bar. 98454","Wermit, Kec. Teminabuan, Kabupaten Sorong Selatan",PAPUA BARAT,98454.0,Indonesia,,-1.4549932,132.0271144,https://maps.google.com/?cid=0x0:0xe13d79291a0102f1
restaurant,Dapur Umum,Pawon Azka,"Kaliat Depan SPBU, Kec. Teminabuan, Kabupaten Sorong Selatan, Papua Bar. 98454","Kec. Teminabuan, Kabupaten Sorong Selatan",PAPUA BARAT,98454.0,Indonesia,82238080471.0,-1.4656227,132.0335798,https://maps.google.com/?cid=0x0:0xb1e57a03d57621ff
restaurant,Rumah Makan,Warung Makan TulungAgung,"G2VG+FF4, Wermit, Kec. Teminabuan, Kabupaten Sorong Selatan, Papua Bar. 98454","Wermit, Kec. Teminabuan, Kabupaten Sorong Selatan",PAPUA BARAT,98454.0,Indonesia,,-1.4563545,132.0262108,https://maps.google.com/?cid=0x0:0x4367e057d92beb6e
restaurant,Kedai Kopi,Kave,"G2WF+98G, Unnamed Road, Wermit, Kec. Teminabuan, Kabupaten Sorong Selatan, Papua Bar. 98454","Unnamed Road, Wermit, Kec. Teminabuan, Kabupaten Sorong Selatan",PAPUA BARAT,98454.0,Indonesia,,-1.4540675,132.0233327,https://maps.google.com/?cid=0x0:0xe26962da167b03d9
restaurant,Padang,CAYA DEPOT,"Keyen, Kec. Teminabuan, Kabupaten Sorong Selatan, Papua Bar. 98454","Kec. Teminabuan, Kabupaten Sorong Selatan",PAPUA BARAT,98454.0,Indonesia,81236842872.0,-1.4768784,132.0718281,https://maps.google.com/?cid=0x0:0xc50d9180525a84d7
restaurant,restaurant,Kec. Teminabuan,"Kabupaten Sorong Selatan, Papua Bar.","Kabupaten Sorong Selatan, Papua Bar.",PAPUA BARAT,,Indonesia,,-1.4418184,132.0109997,https://maps.google.com/?cid=0x0:0x26fd6623ef786a25
restaurant,Sup,Warung Bang Ibed,"H256+42X, Unnamed Road, Kohoin, Kec. Teminabuan, Kabupaten Sorong Selatan, Papua Bar. 98454","Unnamed Road, Kohoin, Kec. Teminabuan, Kabupaten Sorong Selatan",PAPUA BARAT,98454.0,Indonesia,81248595934.0,-1.4421362,132.0101242,https://maps.google.com/?cid=0x0:0xd9b69789882bc578
restaurant,Restoran,Pondok Sari Rasa,"H23C+M57, Kaibus, Kec. Teminabuan, Kabupaten Sorong Selatan, Papua Bar. 98454","Kaibus, Kec. Teminabuan, Kabupaten Sorong Selatan",PAPUA BARAT,98454.0,Indonesia,,-1.4458254,132.0204101,https://maps.google.com/?cid=0x0:0x5be1cdb3b41a1c5e
restaurant,Rumah Makan,Warung Makan TulungAgung,"G2VG+FF4, Wermit, Kec. Teminabuan, Kabupaten Sorong Selatan, Papua Bar. 98454","Wermit, Kec. Teminabuan, Kabupaten Sorong Selatan",PAPUA BARAT,98454.0,Indonesia,,-1.4563545,132.0262108,https://maps.google.com/?cid=0x0:0x4367e057d92beb6e
restaurant,Restoran,Warung Surabaya,"G2XG+8HX, Wermit, Kec. Teminabuan, Kabupaten Sorong Selatan, Papua Bar. 98454","Wermit, Kec. Teminabuan, Kabupaten Sorong Selatan",PAPUA BARAT,98454.0,Indonesia,,-1.4516381,132.0264775,https://maps.google.com/?cid=0x0:0x69f30941cda0719c
restaurant,Rumah Makan,Warung Lima Ok,"H23C+9GV, Jl. Sengget, Kaibus, Kec. Teminabuan, Kabupaten Sorong Selatan, Papua Bar. 98454","Jl. Sengget, Kaibus, Kec. Teminabuan, Kabupaten Sorong Selatan",PAPUA BARAT,98454.0,Indonesia,82238888245.0,-1.4465002,132.0213025,https://maps.google.com/?cid=0x0:0x497b4b10263a8094
restaurant,Kedai Kopi,Kave,"G2WF+98G, Unnamed Road, Wermit, Kec. Teminabuan, Kabupaten Sorong Selatan, Papua Bar. 98454","Unnamed Road, Wermit, Kec. Teminabuan, Kabupaten Sorong Selatan",PAPUA BARAT,98454.0,Indonesia,,-1.4540675,132.0233327,https://maps.google.com/?cid=0x0:0xe26962da167b03d9
restaurant,Kafe,KEDAI Q'TA TEMINABUAN,"G2VG+C6J TOKO TEMI, Wermit, Kec. Teminabuan, Kabupaten Sorong Selatan, Papua Bar. 98454","Wermit, Kec. Teminabuan, Kabupaten Sorong Selatan",PAPUA BARAT,98454.0,Indonesia,82239991700.0,-1.4564214,132.0255157,https://maps.google.com/?cid=0x0:0x2e637fed4d4b82a
restaurant,Bakso,WR Bang Ibed (SOP JANDA),"G2VH+X25, Unnamed Road, Wernas, Kec. Teminabuan, Kabupaten Sorong Selatan, Papua Bar. 98454","Unnamed Road, Wernas, Kec. Teminabuan, Kabupaten Sorong Selatan",PAPUA BARAT,98454.0,Indonesia,81248595934.0,-1.4551169,132.0276242,https://maps.google.com/?cid=0x0:0x79a2f8dc50d3baad
restaurant,Restoran,Jaso Mande,"G2WH+G45, Wermit, Kec. Teminabuan, Kabupaten Sorong Selatan, Papua Bar. 98454","Wermit, Kec. Teminabuan, Kabupaten Sorong Selatan",PAPUA BARAT,98454.0,Indonesia,,-1.453747,132.0278702,https://maps.google.com/?cid=0x0:0xeabd0c73efd4e25a
restaurant,Rumah Makan,R.M. WARRA,"G3CC+XXH, jln.Teminabuan - Ayamaru, Keyen, Kec. Teminabuan, Kabupaten Sorong Selatan, Papua Bar. 98454","jln.Teminabuan - Ayamaru, Keyen, Kec. Teminabuan, Kabupaten Sorong Selatan",PAPUA BARAT,98454.0,Indonesia,81333433365.0,-1.4775714,132.0724855,https://maps.google.com/?cid=0x0:0xfbd1e8a910c73265
restaurant,Dapur Umum,Pawon Azka,"Kaliat Depan SPBU, Kec. Teminabuan, Kabupaten Sorong Selatan, Papua Bar. 98454","Kec. Teminabuan, Kabupaten Sorong Selatan",PAPUA BARAT,98454.0,Indonesia,82238080471.0,-1.4656227,132.0335798,https://maps.google.com/?cid=0x0:0xb1e57a03d57621ff
restaurant,Restoran,Kedai Raja,"G2VG+F5R, G2VG+G62WermitKec, Kec. Teminabuan, Kabupaten Sorong Selatan, Papua Bar. 98454","G2VG+G62WermitKec, Kec. Teminabuan, Kabupaten Sorong Selatan",PAPUA BARAT,98454.0,Indonesia,82335050370.0,-1.4562699,132.0253933,https://maps.google.com/?cid=0x0:0xafa5d220f7bdb32
restaurant,restaurant,Distrik Wayer,"Kabupaten Sorong Selatan, Papua Bar.","Kabupaten Sorong Selatan, Papua Bar.",PAPUA BARAT,,Indonesia,,-1.4981267,132.1276575,https://maps.google.com/?cid=0x0:0xa31b66c806bf6157
restaurant,Padang,CAYA DEPOT,"Keyen, Kec. Teminabuan, Kabupaten Sorong Selatan, Papua Bar. 98454","Kec. Teminabuan, Kabupaten Sorong Selatan",PAPUA BARAT,98454.0,Indonesia,81236842872.0,-1.4768784,132.0718281,https://maps.google.com/?cid=0x0:0xc50d9180525a84d7
restaurant,Rumah Makan,R.M. WARRA,"G3CC+XXH, jln.Teminabuan - Ayamaru, Keyen, Kec. Teminabuan, Kabupaten Sorong Selatan, Papua Bar. 98454","jln.Teminabuan - Ayamaru, Keyen, Kec. Teminabuan, Kabupaten Sorong Selatan",PAPUA BARAT,98454.0,Indonesia,81333433365.0,-1.4775714,132.0724855,https://maps.google.com/?cid=0x0:0xfbd1e8a910c73265
restaurant,Rumah Makan,Rm. Gado Gado Surya,"G3FC+2WX, Keyen, Kec. Teminabuan, Kabupaten Sorong Selatan, Papua Bar. 98454","Keyen, Kec. Teminabuan, Kabupaten Sorong Selatan",PAPUA BARAT,98454.0,Indonesia,82399474266.0,-1.4773908,132.0723518,https://maps.google.com/?cid=0x0:0x65c7b24e76c19607
restaurant,Rumah Makan,RUMAH MAKAN DEVY,"G3FC+783, Keyen, Kec. Teminabuan, Kabupaten Sorong Selatan, Papua Bar. 98454","Keyen, Kec. Teminabuan, Kabupaten Sorong Selatan",PAPUA BARAT,98454.0,Indonesia,81343420685.0,-1.4768716,132.0708108,https://maps.google.com/?cid=0x0:0x5774d5f597d91b37
restaurant,Rumah Makan,Warung Lima Ok,"H23C+9GV, Jl. Sengget, Kaibus, Kec. Teminabuan, Kabupaten Sorong Selatan, Papua Bar. 98454","Jl. Sengget, Kaibus, Kec. Teminabuan, Kabupaten Sorong Selatan",PAPUA BARAT,98454.0,Indonesia,82238888245.0,-1.4465002,132.0213025,https://maps.google.com/?cid=0x0:0x497b4b10263a8094
restaurant,Kafe,WARUNG MAKAN SUCARI,"Pangkalan Trek, Jl. Sengget, Sayolo, Kec. Teminabuan, Kabupaten Sorong Selatan, Papua Bar. 98454","Jl. Sengget, Sayolo, Kec. Teminabuan, Kabupaten Sorong Selatan",PAPUA BARAT,98454.0,Indonesia,81247796606.0,-1.4416238,132.0161865,https://maps.google.com/?cid=0x0:0xf65d9141dc997374
restaurant,Bakso,WR Bang Ibed (SOP JANDA),"G2VH+X25, Unnamed Road, Wernas, Kec. Teminabuan, Kabupaten Sorong Selatan, Papua Bar. 98454","Unnamed Road, Wernas, Kec. Teminabuan, Kabupaten Sorong Selatan",PAPUA BARAT,98454.0,Indonesia,81248595934.0,-1.4551169,132.0276242,https://maps.google.com/?cid=0x0:0x79a2f8dc50d3baad
restaurant,Restoran,RM AROMA SUNDA,"G2VG+9FP, Jl. Wernas. Arah pasar jajase, Wermit, Kec. Teminabuan, Kabupaten Sorong Selatan, Papua Bar. 98454","Jl. Wernas. Arah pasar jajase, Wermit, Kec. Teminabuan, Kabupaten Sorong Selatan",PAPUA BARAT,98454.0,Indonesia,82239816820.0,-1.4565296,132.0261885,https://maps.google.com/?cid=0x0:0x5980f22c98c9f601
restaurant,Kafe,Cafe Oofsrit,"G2WF+989, Wernas, Kec. Teminabuan, Kabupaten Sorong Selatan, Papua Bar. 98454","Wernas, Kec. Teminabuan, Kabupaten Sorong Selatan",PAPUA BARAT,98454.0,Indonesia,8124848277.0,-1.4540803,132.0233629,https://maps.google.com/?cid=0x0:0x6bf6657d93dbb773
restaurant,Rumah Makan,Kedai Duk-Der,"G3CG+93, Keyen, Kec. Teminabuan, Kabupaten Sorong Selatan, Papua Bar.","Kabupaten Sorong Selatan, Papua Bar.",PAPUA BARAT,,Indonesia,,-1.4791058,132.0751791,https://maps.google.com/?cid=0x0:0x1311e6fe122150e7
restaurant,Kafe,Cafe Wemith,"H22G+445, Jl. Mesjid Raya, Wermit, Kec. Teminabuan, Kabupaten Sorong Selatan, Papua Bar. 98454","Jl. Mesjid Raya, Wermit, Kec. Teminabuan, Kabupaten Sorong Selatan",PAPUA BARAT,98454.0,Indonesia,,-1.4497422,132.025372,https://maps.google.com/?cid=0x0:0x796c2e8c310c5ce2
restaurant,Restoran,Jaso Mande,"G2WH+G45, Wermit, Kec. Teminabuan, Kabupaten Sorong Selatan, Papua Bar. 98454","Wermit, Kec. Teminabuan, Kabupaten Sorong Selatan",PAPUA BARAT,98454.0,Indonesia,,-1.453747,132.0278702,https://maps.google.com/?cid=0x0:0xeabd0c73efd4e25a
restaurant,Restoran,RM Mama Dede,"G636+34, Hasik Jaya (Sp II), Distrik Moswaren, Kabupaten Sorong Selatan, Papua Bar.","Kabupaten Sorong Selatan, Papua Bar.",PAPUA BARAT,,Indonesia,81248247374.0,-1.4973733,132.2103083,https://maps.google.com/?cid=0x0:0xe546b8ea57f74bf1
