Category,Real Category,Business Name,Address,City,State,Postal Code,Country,Phone,Latitude,Longitude,Map Link
toko bangunan,toko bangunan,Distrik Fokour,"Kabupaten Sorong Selatan, Papua Bar.","Kabupaten Sorong Selatan, Papua Bar.",PAPUA BARAT,,Indonesia,,-1.1621937,132.0207079,https://maps.google.com/?cid=0x0:0xca5b0bfb905adc24
toko bangunan,Toko Bahan Bangunan,Fajar Bangunan,"Sowi, Distrik Manokwari, Kabupaten Manokwari, Papua Bar. 98315","Distrik Manokwari, Kabupaten Manokwari",PAPUA BARAT,98315.0,Indonesia,,-0.9062643,134.0359839,https://maps.google.com/?cid=0x0:0x9d0563299ba4e3f6
toko bangunan,Toko Bahan Bangunan,"Papua Bangunan, CV PAPUA ABADI","Jl. Basuki Rahmat No.780, Klawuyuk, Distrik Sorong Timur, Kota Sorong, Papua Bar. 98416","Klawuyuk, Distrik Sorong Timur, Kota Sorong",PAPUA BARAT,98416.0,Indonesia,81332017550.0,-0.8954087,131.3186922,https://maps.google.com/?cid=0x0:0x851804bc3aa7f033
toko bangunan,Kantor Perusahaan,Kios Kayu Karya-Baru,"V222+59X, Kampung Wandum, Distrik Fokour, Kabupaten Sorong Selatan, Papua Bar.","Kabupaten Sorong Selatan, Papua Bar.",PAPUA BARAT,,Indonesia,85240295205.0,-1.1495167,132.0009738,https://maps.google.com/?cid=0x0:0xe1faf3d7b2cb1983
toko bangunan,Toko Bahan Bangunan,Toko Bangunan Depo Makmur,"38XF+C65, Jl. Basuki Rahmat, Klawuyuk, Distrik Sorong Timur, Kota Sorong, Papua Bar. 98416","Jl. Basuki Rahmat, Klawuyuk, Distrik Sorong Timur, Kota Sorong",PAPUA BARAT,98416.0,Indonesia,,-0.9013289,131.3229895,https://maps.google.com/?cid=0x0:0x371e6c734b67edcc
toko bangunan,Pemasok Bahan Bangunan,Toko bangunan Sumber Makmur,"32CM+75G, Jl. Manokwari - Maruni, Anday, Distrik Manokwari, Kabupaten Manokwari, Papua Bar. 98315","Jl. Manokwari - Maruni, Anday, Distrik Manokwari, Kabupaten Manokwari",PAPUA BARAT,98315.0,Indonesia,8114846060.0,-0.9293075,134.0329487,https://maps.google.com/?cid=0x0:0xa0a85c7270dde255
toko bangunan,Pemasok Bahan Bangunan,Depo Makmur Manokwari,"43P2+QWR, Jl. Trikora Wosi, Wosi, Kec. Manokwari Bar., Kabupaten Manokwari, Papua Bar. 98312","Jl. Trikora Wosi, Wosi, Kec. Manokwari Bar., Kabupaten Manokwari",PAPUA BARAT,98312.0,Indonesia,81248426402.0,-0.8630402,134.0521741,https://maps.google.com/?cid=0x0:0x387befda163fc63b
toko bangunan,Toko Bahan Bangunan,ANEKA BANGUNAN,"Wosi, Kec. Manokwari Bar., Kabupaten Manokwari, Papua Bar. 98312","Kec. Manokwari Bar., Kabupaten Manokwari",PAPUA BARAT,98312.0,Indonesia,81344843001.0,-0.8631883,134.0498559,https://maps.google.com/?cid=0x0:0x3598159af16f30ea
toko bangunan,Toko Bahan Bangunan,PAPUA BANGUNAN,"42GX+945, Wosi, Kec. Manokwari Bar., Kabupaten Manokwari, Papua Bar. 98312","Wosi, Kec. Manokwari Bar., Kabupaten Manokwari",PAPUA BARAT,98312.0,Indonesia,82198055550.0,-0.874101,134.0478473,https://maps.google.com/?cid=0x0:0x2c3683b193d9430f
toko bangunan,Toko Bahan Bangunan,Toko Karya Abadi,"WJ4X+24P, Tuasai, Distrik Bintuni, Kabupaten Teluk Bintuni, Papua Bar. 98364","Tuasai, Distrik Bintuni, Kabupaten Teluk Bintuni",PAPUA BARAT,98364.0,Indonesia,82244443838.0,-2.094909,133.6478193,https://maps.google.com/?cid=0x0:0x860a78b44fea4433
toko bangunan,Toko Perlengkapan Rumah,ARFAI JAYA BANGUNAN,"Jalan trikora arfai salak, Anday, Distrik Manokwari, Kabupaten Manokwari, Papua Bar. 98315","Anday, Distrik Manokwari, Kabupaten Manokwari",PAPUA BARAT,98315.0,Indonesia,81241751835.0,-0.9306827,134.0172536,https://maps.google.com/?cid=0x0:0x50b3c85320438418
toko bangunan,Toko Bahan Bangunan,Toko Utama Manokwari,"43V9+Q94, Jl. Yos Sudarso Manokwari, Padarni, Kec. Manokwari Bar., Kabupaten Manokwari, Papua Bar. 98312","Jl. Yos Sudarso Manokwari, Padarni, Kec. Manokwari Bar., Kabupaten Manokwari",PAPUA BARAT,98312.0,Indonesia,,-0.8556009,134.068443,https://maps.google.com/?cid=0x0:0x5b4f00e9eaecdd39
toko bangunan,Toko Bahan Bangunan,Toko Sumber Makmur,"42GX+258, Wosi, Kec. Manokwari Bar., Kabupaten Manokwari, Papua Bar. 98312","Wosi, Kec. Manokwari Bar., Kabupaten Manokwari",PAPUA BARAT,98312.0,Indonesia,8124825561.0,-0.8749549,134.0479559,https://maps.google.com/?cid=0x0:0x533cede6c4b2437d
toko bangunan,Toko Bahan Bangunan,Supermarket Multi Bangunan,"Jl Baru No.98, Wai Mhorock, Abepura, Jayapura City, Papua 99225","Wai Mhorock, Abepura, Jayapura City",PAPUA BARAT,99225.0,Indonesia,967588677.0,-2.6077336,140.6742812,https://maps.google.com/?cid=0x0:0x3b19f301c68f1d6f
toko bangunan,Layanan Transportasi,Bandara Inanwatan,"V5C7+W64, Mate, Distrik Inanwatan, Kabupaten Sorong Selatan, Papua Bar. 98455","Mate, Distrik Inanwatan, Kabupaten Sorong Selatan",PAPUA BARAT,98455.0,Indonesia,82196826597.0,-2.1277487,132.1630745,https://maps.google.com/?cid=0x0:0xd0b9c5c7d40453cc
toko bangunan,Pelabuhan sungai,Pelabuhan Inanwatan,"V5F9+CFX, Mate, Distrik Inanwatan, Kabupaten Sorong Selatan, Papua Bar. 98455","Mate, Distrik Inanwatan, Kabupaten Sorong Selatan",PAPUA BARAT,98455.0,Indonesia,,-2.1263931,132.1687373,https://maps.google.com/?cid=0x0:0xf5cc6ee00e3f7391
toko bangunan,toko bangunan,Distrik Inanwatan,"Kabupaten Sorong Selatan, Papua Bar.","Kabupaten Sorong Selatan, Papua Bar.",PAPUA BARAT,,Indonesia,,-2.1273304,132.1663024,https://maps.google.com/?cid=0x0:0x871fec0706e82bc5
toko bangunan,toko bangunan,Kec. Matemani,"Kabupaten Sorong Selatan, Papua Bar.","Kabupaten Sorong Selatan, Papua Bar.",PAPUA BARAT,,Indonesia,,-1.9496392,132.2312838,https://maps.google.com/?cid=0x0:0xced62b996f227502
toko bangunan,toko bangunan,Kai Bangunan,"Jl. Bukit Mas Residence No.22 blok 3j, Panancangan, Kec. Cipocok Jaya, Kota Serang, Banten 42121","Panancangan, Kec. Cipocok Jaya, Kota Serang",PAPUA BARAT,42121.0,Indonesia,89660933555.0,-6.1056817,106.2101896,https://maps.google.com/?cid=0x0:0x657cffcb27061ca0
toko bangunan,Toko,Toko Bangunan Kai Jaya,"Jl. Candipuro - Way Panji Raya, Balinuraga, Kec. Way Panji, Kabupaten Lampung Selatan, Lampung 35353","Balinuraga, Kec. Way Panji, Kabupaten Lampung Selatan",PAPUA BARAT,35353.0,Indonesia,8995740266.0,-5.5841954,105.5936807,https://maps.google.com/?cid=0x0:0xf46ae135cf7f0c9a
toko bangunan,Toko Bahan Bangunan,MINIMART BANGUNAN,"Jln, Susukan, Kecamatan Bojonggede, Kabupaten Bogor, Jawa Barat 11720","Susukan, Kecamatan Bojonggede, Kabupaten Bogor",PAPUA BARAT,11720.0,Indonesia,82233855999.0,-6.4753497,106.7875045,https://maps.google.com/?cid=0x0:0x84bfc53cf99acd4b
toko bangunan,Toko Bahan Bangunan,Toko Maju,"Jl. Panglima Polim No.192 2, RT.2/RW.5, Pulo, Kec. Kby. Baru, Kota Jakarta Selatan, Daerah Khusus Ibukota Jakarta 12160","RT.2/RW.5, Pulo, Kec. Kby. Baru, Kota Jakarta Selatan",PAPUA BARAT,12160.0,Indonesia,217251723.0,-6.252678,106.7970528,https://maps.google.com/?cid=0x0:0x2837bea9a4be5a70
toko bangunan,Pemasok Bahan Bangunan,Toko Bangunan MAJU,"Jl. Kramat Sentiong No.36B, RT.8/RW.7, Kramat, Kec. Senen, Kota Jakarta Pusat, Daerah Khusus Ibukota Jakarta 10450","RT.8/RW.7, Kramat, Kec. Senen, Kota Jakarta Pusat",PAPUA BARAT,10450.0,Indonesia,213102036.0,-6.1870479,106.8493513,https://maps.google.com/?cid=0x0:0xfa9d586c07d67bff
toko bangunan,Toko Cat,TOKO CAT MITRA PAINTS,"Jl. Kincan Raya No.45, Jatibening, Kec. Pd. Gede, Kota Bks, Jawa Barat 17412","Jatibening, Kec. Pd. Gede, Kota Bks",PAPUA BARAT,17412.0,Indonesia,81388993362.0,-6.2511426,106.9438382,https://maps.google.com/?cid=0x0:0x3906a3f74e063844
toko bangunan,Toko Bahan Bangunan,"Papua Bangunan, CV PAPUA ABADI","Jl. Basuki Rahmat No.780, Klawuyuk, Distrik Sorong Timur, Kota Sorong, Papua Bar. 98416","Klawuyuk, Distrik Sorong Timur, Kota Sorong",PAPUA BARAT,98416.0,Indonesia,81332017550.0,-0.8954087,131.3186922,https://maps.google.com/?cid=0x0:0x851804bc3aa7f033
toko bangunan,Toko Bahan Bangunan,Toko Bangunan Abadi,"4862+H2G, Malaingkedi, Kec. Sorong Utara, Kota Sorong, Papua Bar. 98412","Malaingkedi, Kec. Sorong Utara, Kota Sorong",PAPUA BARAT,98412.0,Indonesia,81248762864.0,-0.8885625,131.3000781,https://maps.google.com/?cid=0x0:0xa4c5e3d6e0f0bf2b
toko bangunan,Toko Bahan Bangunan,Toko Karya Abadi,"WJ4X+24P, Tuasai, Distrik Bintuni, Kabupaten Teluk Bintuni, Papua Bar. 98364","Tuasai, Distrik Bintuni, Kabupaten Teluk Bintuni",PAPUA BARAT,98364.0,Indonesia,82244443838.0,-2.094909,133.6478193,https://maps.google.com/?cid=0x0:0x860a78b44fea4433
toko bangunan,toko bangunan,Kec. Kokoda Utara,"Kabupaten Sorong Selatan, Papua Bar.","Kabupaten Sorong Selatan, Papua Bar.",PAPUA BARAT,,Indonesia,,-1.8762266,132.3641297,https://maps.google.com/?cid=0x0:0xa4294849d564b6d1
toko bangunan,Toko Bahan Bangunan,Toko Bangunan Depo Makmur,"38XF+C65, Jl. Basuki Rahmat, Klawuyuk, Distrik Sorong Timur, Kota Sorong, Papua Bar. 98416","Jl. Basuki Rahmat, Klawuyuk, Distrik Sorong Timur, Kota Sorong",PAPUA BARAT,98416.0,Indonesia,,-0.9013289,131.3229895,https://maps.google.com/?cid=0x0:0x371e6c734b67edcc
toko bangunan,Toko Bahan Bangunan,"Papua Bangunan, CV PAPUA ABADI","Jl. Basuki Rahmat No.780, Klawuyuk, Distrik Sorong Timur, Kota Sorong, Papua Bar. 98416","Klawuyuk, Distrik Sorong Timur, Kota Sorong",PAPUA BARAT,98416.0,Indonesia,81332017550.0,-0.8954087,131.3186922,https://maps.google.com/?cid=0x0:0x851804bc3aa7f033
toko bangunan,Toko Bahan Bangunan,Toko Anugrah's,"Jl. Basuki Rahmat No.km 10, Klawalu, Distrik Sorong Timur, Kota Sorong, Papua Bar. 98416","Klawalu, Distrik Sorong Timur, Kota Sorong",PAPUA BARAT,98416.0,Indonesia,,-0.8910833,131.3148228,https://maps.google.com/?cid=0x0:0x97e76f0f16be3cfa
toko bangunan,Toko Bahan Bangunan,"Toko Bangunan, Toko Linda","38PF+GPM, Klamana, Distrik Sorong Timur, Kota Sorong, Papua Bar. 98416","Klamana, Distrik Sorong Timur, Kota Sorong",PAPUA BARAT,98416.0,Indonesia,81935935177.0,-0.9136625,131.3242969,https://maps.google.com/?cid=0x0:0xf74d7b929b542cb5
toko bangunan,toko bangunan,Papua Bar.,,Papua Bar.,PAPUA BARAT,,Indonesia,,-1.3361154,133.1747162,https://maps.google.com/?cid=0x0:0x5349c1f8c5c7cb62
toko bangunan,Toko Bahan Bangunan,"Toko Bangunan, Toko Linda","38PF+GPM, Klamana, Distrik Sorong Timur, Kota Sorong, Papua Bar. 98416","Klamana, Distrik Sorong Timur, Kota Sorong",PAPUA BARAT,98416.0,Indonesia,81935935177.0,-0.9136625,131.3242969,https://maps.google.com/?cid=0x0:0xf74d7b929b542cb5
toko bangunan,Toko Bahan Bangunan,TOKO BERKAT BANGUNAN,"484H+F8H, Klawuyuk, Distrik Sorong Timur, Kota Sorong, Papua Bar. 98416","Klawuyuk, Distrik Sorong Timur, Kota Sorong",PAPUA BARAT,98416.0,Indonesia,,-0.8938166,131.3283644,https://maps.google.com/?cid=0x0:0x1396daf0695dfa01
toko bangunan,Toko Bahan Bangunan,"Papua Bangunan, CV PAPUA ABADI","Jl. Basuki Rahmat No.780, Klawuyuk, Distrik Sorong Timur, Kota Sorong, Papua Bar. 98416","Klawuyuk, Distrik Sorong Timur, Kota Sorong",PAPUA BARAT,98416.0,Indonesia,81332017550.0,-0.8954087,131.3186922,https://maps.google.com/?cid=0x0:0x851804bc3aa7f033
toko bangunan,Toko Bahan Bangunan,Toko Bangunan Ria-Utama,"Unnamed Road, Malaingkedi, Papua Bar. 98412, Malaingkedi, Kecamatan Sorong Manoi, Kota Sorong, Papua Bar. 98412","Malaingkedi, Papua Bar.",PAPUA BARAT,98412.0,Indonesia,82199656081.0,-0.8774608,131.2993409,https://maps.google.com/?cid=0x0:0x6fa2bf791344f50d
toko bangunan,Toko Bahan Bangunan,Toko Bangunan Raja Ampat,"4788+FHP, Jl. Pemuda, Klaligi, Kecamatan Sorong Manoi, Kota Sorong, Papua Bar. 98412","Jl. Pemuda, Klaligi, Kecamatan Sorong Manoi, Kota Sorong",PAPUA BARAT,98412.0,Indonesia,,-0.8837846,131.2664406,https://maps.google.com/?cid=0x0:0x72017cd7a097fc32
toko bangunan,Toko Bahan Bangunan,Toko bangunan,"27PW+VPW Jln container kilo 24, Malawele, Kec. Aimas, Kabupaten Sorong, Papua Bar.","Kabupaten Sorong, Papua Bar.",PAPUA BARAT,,Indonesia,85172079023.0,-0.9627652,131.2968432,https://maps.google.com/?cid=0x0:0x8dbb8d4821ff5585
toko bangunan,Toko Bahan Bangunan,Sumber Bangunan Toko,"JL. R.A. Kartini, No. 6, Rufey, Sorong Barat, Rufei, Distrik Sorong, Kota Sorong, Papua Bar. 98412","No. 6, Rufey, Sorong Barat, Rufei, Distrik Sorong, Kota Sorong",PAPUA BARAT,98412.0,Indonesia,951332543.0,-0.86248,131.249499,https://maps.google.com/?cid=0x0:0x7fe0b52c002a4cd7
toko bangunan,Toko Bahan Bangunan,Toko Bangunan AURORA ABADI Distributor Lampu LED VDR,"Jl. Tuturuga, Klamalu, Distrik Mariat, Kabupaten Sorong, Papua Bar. 98416","Klamalu, Distrik Mariat, Kabupaten Sorong",PAPUA BARAT,98416.0,Indonesia,82239496309.0,-1.0002603,131.3432543,https://maps.google.com/?cid=0x0:0x8d8d01a10734bfdc
toko bangunan,Toko Bahan Bangunan,TB Tunas Sumber Rejeki,"4788+6R8, Klaligi, Kecamatan Sorong Manoi, Kota Sorong, Papua Bar. 98412","Klaligi, Kecamatan Sorong Manoi, Kota Sorong",PAPUA BARAT,98412.0,Indonesia,8114852687.0,-0.8844705,131.2670664,https://maps.google.com/?cid=0x0:0x923b382621dce280
toko bangunan,Toko Bahan Bangunan,Toko Bangunan Sumber Rezeki,"4827+2MQ, Klawalu, Distrik Sorong Timur, Kota Sorong, Papua Bar. 98413","Klawalu, Distrik Sorong Timur, Kota Sorong",PAPUA BARAT,98413.0,Indonesia,,-0.8999044,131.3142258,https://maps.google.com/?cid=0x0:0x62947d7dfaefcf8a
toko bangunan,Toko Bahan Bangunan,TB.Cipta Jaya (Nippon Paint),"Jalan Sangaji Gonof No.Km.12, RW.4, Klasaman, Distrik Sorong Timur, Kota Sorong, Papua Bar. 98416","RW.4, Klasaman, Distrik Sorong Timur, Kota Sorong",PAPUA BARAT,98416.0,Indonesia,82227278879.0,-0.9008683,131.3261884,https://maps.google.com/?cid=0x0:0x71f4c72be39fae3f
toko bangunan,Toko Bahan Bangunan,Toko Gading Bangunan,"Jl. Basuki Rahmat No.9, Sawagumu, Kec. Sorong Utara, Kota Sorong, Papua Bar. 98412","Sawagumu, Kec. Sorong Utara, Kota Sorong",PAPUA BARAT,98412.0,Indonesia,,-0.8881564,131.3079149,https://maps.google.com/?cid=0x0:0x54eefec823c77a10
toko bangunan,Toko Bahan Bangunan,Toko bangunan Wahyu,"Jalan poros sp3, Makbusun, Mayamuk, Kabupaten Sorong, Papua Bar.","Kabupaten Sorong, Papua Bar.",PAPUA BARAT,,Indonesia,,-1.0336478,131.2906018,https://maps.google.com/?cid=0x0:0x751eb97fd9838c44
toko bangunan,toko bangunan,Papua Bar. 98454,"Kabupaten Sorong Selatan, Papua Bar.","Kabupaten Sorong Selatan, Papua Bar.",PAPUA BARAT,,Indonesia,,-1.4196083,131.9989718,https://maps.google.com/?cid=0x0:0x85355e3327b207ba
toko bangunan,Toko Bahan Bangunan,"Toko Bangunan, Toko Linda","38PF+GPM, Klamana, Distrik Sorong Timur, Kota Sorong, Papua Bar. 98416","Klamana, Distrik Sorong Timur, Kota Sorong",PAPUA BARAT,98416.0,Indonesia,81935935177.0,-0.9136625,131.3242969,https://maps.google.com/?cid=0x0:0xf74d7b929b542cb5
toko bangunan,Toko Bahan Bangunan,Toko Anugrah's,"Jl. Basuki Rahmat No.km 10, Klawalu, Distrik Sorong Timur, Kota Sorong, Papua Bar. 98416","Klawalu, Distrik Sorong Timur, Kota Sorong",PAPUA BARAT,98416.0,Indonesia,,-0.8910833,131.3148228,https://maps.google.com/?cid=0x0:0x97e76f0f16be3cfa
toko bangunan,Toko Bahan Bangunan,Toko Bangunan Depo Makmur,"38XF+C65, Jl. Basuki Rahmat, Klawuyuk, Distrik Sorong Timur, Kota Sorong, Papua Bar. 98416","Jl. Basuki Rahmat, Klawuyuk, Distrik Sorong Timur, Kota Sorong",PAPUA BARAT,98416.0,Indonesia,,-0.9013289,131.3229895,https://maps.google.com/?cid=0x0:0x371e6c734b67edcc
toko bangunan,Toko Bahan Bangunan,Tb. Duta Bangunan,"Jl. Raya Muchtar, RT.01/RW.01, Sawangan Baru, Kec. Sawangan, Kota Depok, Jawa Barat 16511","RT.01/RW.01, Sawangan Baru, Kec. Sawangan, Kota Depok",PAPUA BARAT,16511.0,Indonesia,81382770082.0,-6.406,106.760804,https://maps.google.com/?cid=0x0:0xcfacef4eb0ae2dea
toko bangunan,Toko Bahan Bangunan,TB. Duta Bangunan,"Jl. Duta Putra Mahkota No.4, Bakti Jaya, Kec. Sukmajaya, Kota Depok, Jawa Barat 16418","Bakti Jaya, Kec. Sukmajaya, Kota Depok",PAPUA BARAT,16418.0,Indonesia,218700379.0,-6.3723313,106.8500238,https://maps.google.com/?cid=0x0:0xc9094d1db4014db5
toko bangunan,Toko Bahan Bangunan,KEMENANGAN JAYA SAWANGAN,"Jl. Raya Bojongsari No.1, Bojongsari Lama, Kec. Bojongsari, Kota Depok, Jawa Barat 16516","Bojongsari Lama, Kec. Bojongsari, Kota Depok",PAPUA BARAT,16516.0,Indonesia,82111525216.0,-6.3983313,106.7430876,https://maps.google.com/?cid=0x0:0xa748ebc5815e9fc0
toko bangunan,Pasar bahan bangunan,Toko Bangunan Jakarta Pusat Terlengkap - Mitra10 Percetakan Negara,"Blok 36C, Jl. Percetakan Negara, Rawasari, Kec. Cemp. Putih, Kota Jakarta Pusat, Daerah Khusus Ibukota Jakarta 10570","Jl. Percetakan Negara, Rawasari, Kec. Cemp. Putih, Kota Jakarta Pusat",PAPUA BARAT,10570.0,Indonesia,214200859.0,-6.1892838,106.8621887,https://maps.google.com/?cid=0x0:0xd7a22e764307420f
toko bangunan,Toko Bahan Bangunan,Depo Bangunan Kalimalang,"Jl. Raya Kalimalang No.46, Duren Sawit, Kec. Duren Sawit, Kota Jakarta Timur, Daerah Khusus Ibukota Jakarta 13440","Duren Sawit, Kec. Duren Sawit, Kota Jakarta Timur",PAPUA BARAT,13440.0,Indonesia,81316750191.0,-6.2474768,106.920699,https://maps.google.com/?cid=0x0:0x1bfbb5bc29f32006
toko bangunan,Toko Bahan Bangunan,Toko Bangunan Jakarta Timur TerIengkap-Mitra10 Pondok Bambu,"Jl. Pahlawan Revolusi No.10, Pd. Bambu, Kec. Duren Sawit, Kota Jakarta Timur, Daerah Khusus Ibukota Jakarta 13430","Pd. Bambu, Kec. Duren Sawit, Kota Jakarta Timur",PAPUA BARAT,13430.0,Indonesia,87800021010.0,-6.2320962,106.8963952,https://maps.google.com/?cid=0x0:0x3035fc4050ee2d8e
toko bangunan,Toko Bahan Bangunan,"Toko bangunan Dua putra,bancei","Jl. Babakan Madang No.15, Babakan Madang, Kec. Babakan Madang, Kabupaten Bogor, Jawa Barat 16810","Babakan Madang, Kec. Babakan Madang, Kabupaten Bogor",PAPUA BARAT,16810.0,Indonesia,82114261067.0,-6.566984,106.8640769,https://maps.google.com/?cid=0x0:0xe012b53786d14e9c
toko bangunan,Pemasok Bahan Bangunan,Pasar Bangunan Bekasi,"Jl. Parpostel No.99, RT.001/RW.008, Jatiasih, Kec. Jatiasih, Kota Bks, Jawa Barat 17423","RT.001/RW.008, Jatiasih, Kec. Jatiasih, Kota Bks",PAPUA BARAT,17423.0,Indonesia,81380064196.0,-6.3136193,106.9555786,https://maps.google.com/?cid=0x0:0xe940e617696ffc44
toko bangunan,Toko Bahan Bangunan,Toko Bangunan Jakarta Selatan Terlengkap - Mitra10 Fatmawati,"Jl. RS. Fatmawati Raya No.15 H, RT.1/RW.7, Gandaria Utara, Kec. Kby. Baru, Kota Jakarta Selatan, Daerah Khusus Ibukota Jakarta 12140","RT.1/RW.7, Gandaria Utara, Kec. Kby. Baru, Kota Jakarta Selatan",PAPUA BARAT,12140.0,Indonesia,87800021010.0,-6.2617416,106.7963721,https://maps.google.com/?cid=0x0:0xbf5d4c6ab3e444bc
toko bangunan,Toko Bahan Bangunan,"Dunia Bangunan BSD, Pusat Bahan Bangunan","BSD City, Blok CBD II, Sunburst, Jl. Raya Serpong Kavling No.12, Lengkong Gudang, Kec. Serpong Utara, Kota Tangerang Selatan, Banten 15322","Blok CBD II, Sunburst, Jl. Raya Serpong Kavling No.12, Lengkong Gudang, Kec. Serpong Utara, Kota Tangerang Selatan",PAPUA BARAT,15322.0,Indonesia,81904009388.0,-6.2966599,106.6643916,https://maps.google.com/?cid=0x0:0x8aa35403c7d4a82e
toko bangunan,Toko Bahan Bangunan,ANEKA BANGUNAN,"Wosi, Kec. Manokwari Bar., Kabupaten Manokwari, Papua Bar. 98312","Kec. Manokwari Bar., Kabupaten Manokwari",PAPUA BARAT,98312.0,Indonesia,81344843001.0,-0.8631883,134.0498559,https://maps.google.com/?cid=0x0:0x3598159af16f30ea
toko bangunan,Toko Bahan Bangunan,PAPUA BANGUNAN,"42GX+945, Wosi, Kec. Manokwari Bar., Kabupaten Manokwari, Papua Bar. 98312","Wosi, Kec. Manokwari Bar., Kabupaten Manokwari",PAPUA BARAT,98312.0,Indonesia,82198055550.0,-0.874101,134.0478473,https://maps.google.com/?cid=0x0:0x2c3683b193d9430f
toko bangunan,Toko Bahan Bangunan,Toko Bangunan Abadi,"4862+H2G, Malaingkedi, Kec. Sorong Utara, Kota Sorong, Papua Bar. 98412","Malaingkedi, Kec. Sorong Utara, Kota Sorong",PAPUA BARAT,98412.0,Indonesia,81248762864.0,-0.8885625,131.3000781,https://maps.google.com/?cid=0x0:0xa4c5e3d6e0f0bf2b
toko bangunan,toko bangunan,Distrik Moswaren,"Kabupaten Sorong Selatan, Papua Bar.","Kabupaten Sorong Selatan, Papua Bar.",PAPUA BARAT,,Indonesia,,-1.4917637,132.2410573,https://maps.google.com/?cid=0x0:0xc435d4289dbbc461
toko bangunan,Toko Bahan Bangunan,Fajar Bangunan,"Sowi, Distrik Manokwari, Kabupaten Manokwari, Papua Bar. 98315","Distrik Manokwari, Kabupaten Manokwari",PAPUA BARAT,98315.0,Indonesia,,-0.9062643,134.0359839,https://maps.google.com/?cid=0x0:0x9d0563299ba4e3f6
toko bangunan,Toko Bahan Bangunan,ANEKA BANGUNAN,"Wosi, Kec. Manokwari Bar., Kabupaten Manokwari, Papua Bar. 98312","Kec. Manokwari Bar., Kabupaten Manokwari",PAPUA BARAT,98312.0,Indonesia,81344843001.0,-0.8631883,134.0498559,https://maps.google.com/?cid=0x0:0x3598159af16f30ea
toko bangunan,Toko Bahan Bangunan,Toko bangunan,"27PW+VPW Jln container kilo 24, Malawele, Kec. Aimas, Kabupaten Sorong, Papua Bar.","Kabupaten Sorong, Papua Bar.",PAPUA BARAT,,Indonesia,85172079023.0,-0.9627652,131.2968432,https://maps.google.com/?cid=0x0:0x8dbb8d4821ff5585
toko bangunan,Pemasok Bahan Bangunan,Toko bangunan Sumber Makmur,"32CM+75G, Jl. Manokwari - Maruni, Anday, Distrik Manokwari, Kabupaten Manokwari, Papua Bar. 98315","Jl. Manokwari - Maruni, Anday, Distrik Manokwari, Kabupaten Manokwari",PAPUA BARAT,98315.0,Indonesia,8114846060.0,-0.9293075,134.0329487,https://maps.google.com/?cid=0x0:0xa0a85c7270dde255
toko bangunan,Toko Bahan Bangunan,"Toko Bangunan, Toko Linda","38PF+GPM, Klamana, Distrik Sorong Timur, Kota Sorong, Papua Bar. 98416","Klamana, Distrik Sorong Timur, Kota Sorong",PAPUA BARAT,98416.0,Indonesia,81935935177.0,-0.9136625,131.3242969,https://maps.google.com/?cid=0x0:0xf74d7b929b542cb5
toko bangunan,Toko Bahan Bangunan,Toko Bangunan AURORA ABADI Distributor Lampu LED VDR,"Jl. Tuturuga, Klamalu, Distrik Mariat, Kabupaten Sorong, Papua Bar. 98416","Klamalu, Distrik Mariat, Kabupaten Sorong",PAPUA BARAT,98416.0,Indonesia,82239496309.0,-1.0002603,131.3432543,https://maps.google.com/?cid=0x0:0x8d8d01a10734bfdc
toko bangunan,Toko Bahan Bangunan,Toko Bangunan Abadi,"4862+H2G, Malaingkedi, Kec. Sorong Utara, Kota Sorong, Papua Bar. 98412","Malaingkedi, Kec. Sorong Utara, Kota Sorong",PAPUA BARAT,98412.0,Indonesia,81248762864.0,-0.8885625,131.3000781,https://maps.google.com/?cid=0x0:0xa4c5e3d6e0f0bf2b
toko bangunan,Toko Bahan Bangunan,"Papua Bangunan, CV PAPUA ABADI","Jl. Basuki Rahmat No.780, Klawuyuk, Distrik Sorong Timur, Kota Sorong, Papua Bar. 98416","Klawuyuk, Distrik Sorong Timur, Kota Sorong",PAPUA BARAT,98416.0,Indonesia,81332017550.0,-0.8954087,131.3186922,https://maps.google.com/?cid=0x0:0x851804bc3aa7f033
toko bangunan,Toko Elektronik,Toko Bangunan Sumber Baru,"SP3, Aimasi, Jl. Poros, Distrik Prafi, Kabupaten Manokwari, Papua Bar. 98356","Aimasi, Jl. Poros, Distrik Prafi, Kabupaten Manokwari",PAPUA BARAT,98356.0,Indonesia,81234807007.0,-0.883667,133.820223,https://maps.google.com/?cid=0x0:0x7475be84d164c6b6
toko bangunan,Toko Bahan Bangunan,"TOKO BANGUNAN , TOKO HARA II","Jl. Kakatua No.1, Klamasen, Distrik Mariat, Kabupaten Sorong, Papua Bar. 98416","Klamasen, Distrik Mariat, Kabupaten Sorong",PAPUA BARAT,98416.0,Indonesia,81259105399.0,-0.9953545,131.3468536,https://maps.google.com/?cid=0x0:0x51bb1160638e98ed
toko bangunan,Toko Bahan Bangunan,TOKO BERKAT BANGUNAN,"484H+F8H, Klawuyuk, Distrik Sorong Timur, Kota Sorong, Papua Bar. 98416","Klawuyuk, Distrik Sorong Timur, Kota Sorong",PAPUA BARAT,98416.0,Indonesia,,-0.8938166,131.3283644,https://maps.google.com/?cid=0x0:0x1396daf0695dfa01
toko bangunan,Toko,Toko Fratafen Jaya Bangunan,"Jl. Fratafen, Fiane, Kec. Ayamaru, Kabupaten Maybrat, Papua Bar.","Kabupaten Maybrat, Papua Bar.",PAPUA BARAT,,Indonesia,81344891455.0,-1.2930171,132.2477662,https://maps.google.com/?cid=0x0:0x637ec3d664ebdaa3
toko bangunan,toko bangunan,Papua Bar. 98454,"Kabupaten Sorong Selatan, Papua Bar.","Kabupaten Sorong Selatan, Papua Bar.",PAPUA BARAT,,Indonesia,,-1.4196083,131.9989718,https://maps.google.com/?cid=0x0:0x85355e3327b207ba
toko bangunan,Toko Bahan Bangunan,Toko Bangunan Mitra Kita (kapuk),"13, Jl. Kapuk Kayu Besar No.35 A, RT.13/RW.11, Cengkareng Tim., Kecamatan Cengkareng, Kota Jakarta Barat, Daerah Khusus Ibukota Jakarta 11730","Jl. Kapuk Kayu Besar No.35 A, RT.13/RW.11, Cengkareng Tim., Kecamatan Cengkareng, Kota Jakarta Barat",PAPUA BARAT,11730.0,Indonesia,81803878788.0,-6.1229512,106.7329576,https://maps.google.com/?cid=0x0:0x6dd4da837c3adf4d
toko bangunan,Toko,Toko FITAFEN JAYA,"P668+JWJ, Jl. Fratafen, Kampung Isme, Fiane, Distrik Ayamaru Tengah, Kabupaten Maybrat, Papua Bar.","Kabupaten Maybrat, Papua Bar.",PAPUA BARAT,,Indonesia,82129111112.0,-1.2884148,132.2172648,https://maps.google.com/?cid=0x0:0x9803b7caed3f9da8
toko bangunan,Toko Bahan Bangunan,Indo Bangunan Toko,"Jl. Kedoya Pesing No.12 A, RT.7/RW.4, Kedoya Sel., Kec. Kb. Jeruk, Kota Jakarta Barat, Daerah Khusus Ibukota Jakarta 11520","RT.7/RW.4, Kedoya Sel., Kec. Kb. Jeruk, Kota Jakarta Barat",PAPUA BARAT,11520.0,Indonesia,81905174611.0,-6.1865607,106.7615068,https://maps.google.com/?cid=0x0:0x1a7a4c9f430955c7
toko bangunan,Toko Bahan Bangunan,Toko Bangunan Kurnia Jaya,"Jl. K.H.M. Usman, Kukusan, Kecamatan Beji, Kota Depok, Jawa Barat 16425","Kukusan, Kecamatan Beji, Kota Depok",PAPUA BARAT,16425.0,Indonesia,82221166963.0,-6.3650619,106.8150665,https://maps.google.com/?cid=0x0:0xdffbba2543bef624
toko bangunan,Toko Bahan Bangunan,Aneka Sarana Bangunan,"Jl. Meruya Ilir Raya No.5, RT.5/RW.8, Srengseng, Kec. Kembangan, Kota Jakarta Barat, Daerah Khusus Ibukota Jakarta 11630","RT.5/RW.8, Srengseng, Kec. Kembangan, Kota Jakarta Barat",PAPUA BARAT,11630.0,Indonesia,215846937.0,-6.1973627,106.7489981,https://maps.google.com/?cid=0x0:0x72a7b7b86ad90b84
toko bangunan,Toko Bahan Bangunan,Toko Material  Bangunan Toko 88,"Jl. Perdana Kusuma No.8, RT.8/RW.4, Wijaya Kusuma, Kec. Grogol petamburan, Kota Jakarta Barat, Daerah Khusus Ibukota Jakarta 11460","RT.8/RW.4, Wijaya Kusuma, Kec. Grogol petamburan, Kota Jakarta Barat",PAPUA BARAT,11460.0,Indonesia,,-6.15536,106.7713246,https://maps.google.com/?cid=0x0:0x82fe803db987c619
toko bangunan,Pemasok Bahan Bangunan,TOKO CAHAYA BANGUNAN - GENTENG KANMURI - GRC BOARD - GYPSUM - CAT SEMPROT PILOX DITON - BAUT,"Jl. Kembangan Utara Jl. Mesjid At-Taqwa No.6 - 8, RT.2/RW.8, Kembangan Utara, Kec. Kembangan, Kota Jakarta Barat, Daerah Khusus Ibukota Jakarta 11610","RT.2/RW.8, Kembangan Utara, Kec. Kembangan, Kota Jakarta Barat",PAPUA BARAT,11610.0,Indonesia,85172351511.0,-6.1748873,106.7338229,https://maps.google.com/?cid=0x0:0x5dccf051d3063b48
toko bangunan,Toko Bahan Bangunan,SM BANGUNAN (SUPERMARKET BANGUNAN),"Sukatani, Kec. Cisoka, Kabupaten Tangerang, Banten 15730","Kec. Cisoka, Kabupaten Tangerang",PAPUA BARAT,15730.0,Indonesia,81319503545.0,-6.269409,106.4222065,https://maps.google.com/?cid=0x0:0xf1979a6eb99dc96
toko bangunan,toko bangunan,Papua Bar. 98456,Papua Bar.,Papua Bar.,PAPUA BARAT,,Indonesia,,-1.2191286,131.8799408,https://maps.google.com/?cid=0x0:0x1193e0fa67947a8b
toko bangunan,Toko Bahan Bangunan,Toko Bangunan Mega Jaya,"28H4+322, Malawele, Kec. Aimas, Kabupaten Sorong, Papua Bar. 98414","Malawele, Kec. Aimas, Kabupaten Sorong",PAPUA BARAT,98414.0,Indonesia,81343430377.0,-0.9723522,131.3050034,https://maps.google.com/?cid=0x0:0x49ed1caab0fa6e0c
toko bangunan,Toko Bahan Bangunan,"Papua Bangunan, CV PAPUA ABADI","Jl. Basuki Rahmat No.780, Klawuyuk, Distrik Sorong Timur, Kota Sorong, Papua Bar. 98416","Klawuyuk, Distrik Sorong Timur, Kota Sorong",PAPUA BARAT,98416.0,Indonesia,81332017550.0,-0.8954087,131.3186922,https://maps.google.com/?cid=0x0:0x851804bc3aa7f033
toko bangunan,Toko Swalayan,Toko Rahayu,"H22F+3X8, Jalan poros wermit, ayamaru, Kec. Teminabuan, Kabupaten Sorong Selatan, Papua Bar. 98454","Jalan poros wermit, ayamaru, Kec. Teminabuan, Kabupaten Sorong Selatan",PAPUA BARAT,98454.0,Indonesia,,-1.4498365,132.0249672,https://maps.google.com/?cid=0x0:0xae940753bebf4207
toko bangunan,Toko Bahan Bangunan,TOKO BANGUNAN SENTOSA SEJAHTERA,"Jl. Buncis, Malawele, Kec. Aimas, Kabupaten Sorong, Papua Bar. 98414","Malawele, Kec. Aimas, Kabupaten Sorong",PAPUA BARAT,98414.0,Indonesia,82230303070.0,-0.9569579,131.3083493,https://maps.google.com/?cid=0x0:0x2605c4b574a6037e
toko bangunan,Toko Bahan Bangunan,Toko Sayosa,"28VH+47H, Malawili, Kec. Aimas, Kabupaten Sorong, Papua Bar. 98414","Malawili, Kec. Aimas, Kabupaten Sorong",PAPUA BARAT,98414.0,Indonesia,,-0.9571789,131.3282234,https://maps.google.com/?cid=0x0:0x4b8fef486cb26f51
toko bangunan,Toko Bahan Bangunan,Toko Bangunan Abadi,"4862+H2G, Malaingkedi, Kec. Sorong Utara, Kota Sorong, Papua Bar. 98412","Malaingkedi, Kec. Sorong Utara, Kota Sorong",PAPUA BARAT,98412.0,Indonesia,81248762864.0,-0.8885625,131.3000781,https://maps.google.com/?cid=0x0:0xa4c5e3d6e0f0bf2b
toko bangunan,Toko Bahan Bangunan,TOKO TIWI BANGUNAN,"47CX+XPP, Jl. F Kalasuat, Klagete, Kec. Sorong Utara, Kota Sorong, Papua Bar. 98412","Jl. F Kalasuat, Klagete, Kec. Sorong Utara, Kota Sorong",PAPUA BARAT,98412.0,Indonesia,,-0.8775392,131.2993294,https://maps.google.com/?cid=0x0:0x9526392261261f32
toko bangunan,Toko Bahan Bangunan,Toko Bangunan Depo Makmur,"38XF+C65, Jl. Basuki Rahmat, Klawuyuk, Distrik Sorong Timur, Kota Sorong, Papua Bar. 98416","Jl. Basuki Rahmat, Klawuyuk, Distrik Sorong Timur, Kota Sorong",PAPUA BARAT,98416.0,Indonesia,,-0.9013289,131.3229895,https://maps.google.com/?cid=0x0:0x371e6c734b67edcc
toko bangunan,Toko Bahan Bangunan,Toko Surya Baru,"28V4+4XX, Malawele, Kec. Aimas, Kabupaten Sorong, Papua Bar.","Kabupaten Sorong, Papua Bar.",PAPUA BARAT,,Indonesia,82197537889.0,-0.9571468,131.3074747,https://maps.google.com/?cid=0x0:0x8ee74a1fb3709729
toko bangunan,Toko Bahan Bangunan,Toko Sumber Lancar,"Malasom, Jl. Wortel, Kec. Aimas, Papua Bar. 98414","Jl. Wortel, Kec. Aimas",PAPUA BARAT,98414.0,Indonesia,,-0.9728255,131.3045326,https://maps.google.com/?cid=0x0:0x71e804bedc23186a
toko bangunan,Toko Bahan Bangunan,Toko Bangunan Raja Ampat,"4788+FHP, Jl. Pemuda, Klaligi, Kecamatan Sorong Manoi, Kota Sorong, Papua Bar. 98412","Jl. Pemuda, Klaligi, Kecamatan Sorong Manoi, Kota Sorong",PAPUA BARAT,98412.0,Indonesia,,-0.8837846,131.2664406,https://maps.google.com/?cid=0x0:0x72017cd7a097fc32
toko bangunan,Toko Bahan Bangunan,Toko Rumah Bangunan,"28H3+5Q3, Jl. Wortel, Unit II, Malawele, Kec. Aimas, Kabupaten Sorong, Papua Bar. 98414","Jl. Wortel, Unit II, Malawele, Kec. Aimas, Kabupaten Sorong",PAPUA BARAT,98414.0,Indonesia,,-0.9721065,131.304426,https://maps.google.com/?cid=0x0:0xce43b106e3cc4b71
toko bangunan,Toko Bahan Bangunan,Toko bangunan,"27PW+VPW Jln container kilo 24, Malawele, Kec. Aimas, Kabupaten Sorong, Papua Bar.","Kabupaten Sorong, Papua Bar.",PAPUA BARAT,,Indonesia,85172079023.0,-0.9627652,131.2968432,https://maps.google.com/?cid=0x0:0x8dbb8d4821ff5585
toko bangunan,Toko Swalayan,Toko Rahayu,"H22F+3X8, Jalan poros wermit, ayamaru, Kec. Teminabuan, Kabupaten Sorong Selatan, Papua Bar. 98454","Jalan poros wermit, ayamaru, Kec. Teminabuan, Kabupaten Sorong Selatan",PAPUA BARAT,98454.0,Indonesia,,-1.4498365,132.0249672,https://maps.google.com/?cid=0x0:0xae940753bebf4207
toko bangunan,Pusat Perbelanjaan,Toko Anugrha,"Jl. Teminabuan Ayamaru, Wermit, Kec. Teminabuan, Kabupaten Sorong Selatan, Papua Bar. 98454","Wermit, Kec. Teminabuan, Kabupaten Sorong Selatan",PAPUA BARAT,98454.0,Indonesia,85395564530.0,-1.4507306,132.0254178,https://maps.google.com/?cid=0x0:0x5022914d97504e53
toko bangunan,toko bangunan,Kec. Teminabuan,"Kabupaten Sorong Selatan, Papua Bar.","Kabupaten Sorong Selatan, Papua Bar.",PAPUA BARAT,,Indonesia,,-1.4418184,132.0109997,https://maps.google.com/?cid=0x0:0x26fd6623ef786a25
toko bangunan,Toko Swalayan,Toko Rahayu,"H22F+3X8, Jalan poros wermit, ayamaru, Kec. Teminabuan, Kabupaten Sorong Selatan, Papua Bar. 98454","Jalan poros wermit, ayamaru, Kec. Teminabuan, Kabupaten Sorong Selatan",PAPUA BARAT,98454.0,Indonesia,,-1.4498365,132.0249672,https://maps.google.com/?cid=0x0:0xae940753bebf4207
toko bangunan,Toko bahan makanan,Toko TE-MI (Tehit Mitra,"G2VG+F7C, Wermit, Kec. Teminabuan, Kabupaten Sorong Selatan, Papua Bar. 98454","Wermit, Kec. Teminabuan, Kabupaten Sorong Selatan",PAPUA BARAT,98454.0,Indonesia,8114871178.0,-1.4563088,132.0256542,https://maps.google.com/?cid=0x0:0xa9f60ad72f60ea8d
toko bangunan,Toko Swalayan,Toko Rahayu,"H22F+3X8, Jalan poros wermit, ayamaru, Kec. Teminabuan, Kabupaten Sorong Selatan, Papua Bar. 98454","Jalan poros wermit, ayamaru, Kec. Teminabuan, Kabupaten Sorong Selatan",PAPUA BARAT,98454.0,Indonesia,,-1.4498365,132.0249672,https://maps.google.com/?cid=0x0:0xae940753bebf4207
toko bangunan,Pusat Perbelanjaan,Toko Anugrha,"Jl. Teminabuan Ayamaru, Wermit, Kec. Teminabuan, Kabupaten Sorong Selatan, Papua Bar. 98454","Wermit, Kec. Teminabuan, Kabupaten Sorong Selatan",PAPUA BARAT,98454.0,Indonesia,85395564530.0,-1.4507306,132.0254178,https://maps.google.com/?cid=0x0:0x5022914d97504e53
toko bangunan,Toko Bahan Bangunan,Wr.Bangunan Jaya,"No., Jl. Raya Parung No.22, Jabon Mekar, Kec. Parung, Kabupaten Bogor, Jawa Barat 16330","Jl. Raya Parung No.22, Jabon Mekar, Kec. Parung, Kabupaten Bogor",PAPUA BARAT,16330.0,Indonesia,82297745308.0,-6.4601562,106.7303689,https://maps.google.com/?cid=0x0:0x6a9e175ef4eac80
toko bangunan,Toko Bahan Bangunan,Karya Jaya,"Jl. Ampera Raya No.4, RT.2/RW.2, Cilandak Tim., Ps. Minggu, Kota Jakarta Selatan, Daerah Khusus Ibukota Jakarta 12560","RT.2/RW.2, Cilandak Tim., Ps. Minggu, Kota Jakarta Selatan",PAPUA BARAT,12560.0,Indonesia,818149060.0,-6.2911443,106.8167795,https://maps.google.com/?cid=0x0:0xb01d1ebc58c8c47f
toko bangunan,Toko Bahan Bangunan,Toko Bangunan Ivan Jaya,"Jl. Raya Inkopad Blok B J. 2 No.22, Sasak Panjang, Kec. Tajur Halang, Kabupaten Bogor, Jawa Barat 16320","Sasak Panjang, Kec. Tajur Halang, Kabupaten Bogor",PAPUA BARAT,16320.0,Indonesia,81317898086.0,-6.4573045,106.7502627,https://maps.google.com/?cid=0x0:0xe0c1f349e5c5dd4a
toko bangunan,Toko Bahan Bangunan,Supplier bahan bangunan MWA,"Perum. Bojong Depok Baru 1 Blok HB 9, Bojonggede, Kecamatan Bojonggede, Kabupaten Bogor, Jawa Barat 16922","Bojonggede, Kecamatan Bojonggede, Kabupaten Bogor",PAPUA BARAT,16922.0,Indonesia,85102770478.0,-6.4908367,106.8064333,https://maps.google.com/?cid=0x0:0xd5f52082e452a968
toko bangunan,Toko Bahan Bangunan,Toko Bahan Bangunan Mekar Jaya,"Jl. Batu Tulis No.73, RT.03/RW.05, Batutulis, Kec. Bogor Sel., Kota Bogor, Jawa Barat 16133","RT.03/RW.05, Batutulis, Kec. Bogor Sel., Kota Bogor",PAPUA BARAT,16133.0,Indonesia,87872228410.0,-6.6194864,106.8073172,https://maps.google.com/?cid=0x0:0xe4b777d3648d7eb3
toko bangunan,Toko Bahan Bangunan,Toko Bangunan Setia Jaya,"Unnamed Road, Kabasiran no.48, RT.004/RW.001, Kabasiran, Kec. Parung Panjang, Kabupaten Bogor, Jawa Barat 16360","Kabasiran no.48, RT.004/RW.001, Kabasiran, Kec. Parung Panjang, Kabupaten Bogor",PAPUA BARAT,16360.0,Indonesia,81219384011.0,-6.35668,106.5803948,https://maps.google.com/?cid=0x0:0x1cefa7e9a4636a3e
toko bangunan,Toko Bahan Bangunan,Toko Bangunan RR Jaya,"Jl. Cemp. Raya No.15a, Rengas, Kec. Ciputat Tim., Kota Tangerang Selatan, Banten 15412","Rengas, Kec. Ciputat Tim., Kota Tangerang Selatan",PAPUA BARAT,15412.0,Indonesia,217497695.0,-6.2860045,106.7521133,https://maps.google.com/?cid=0x0:0x32948596614166b3
toko bangunan,Toko Bahan Bangunan,Toko Bangunan Rivan Jaya,"Jl. Talas II No.16A, Pd. Cabe Ilir, Kec. Pamulang, Kota Tangerang Selatan, Banten 15418","Pd. Cabe Ilir, Kec. Pamulang, Kota Tangerang Selatan",PAPUA BARAT,15418.0,Indonesia,81310180834.0,-6.3297262,106.7606984,https://maps.google.com/?cid=0x0:0x41dca6570b128578
toko bangunan,Toko Perlengkapan Rumah,Toko Bangunan Mekar Jaya,"FVRX+M35, Pasir Mukti, Kec. Citeureup, Kabupaten Bogor, Jawa Barat 16810","Pasir Mukti, Kec. Citeureup, Kabupaten Bogor",PAPUA BARAT,16810.0,Indonesia,,-6.5083633,106.897739,https://maps.google.com/?cid=0x0:0xcf86c9bb6248d188
toko bangunan,Toko Bahan Bangunan,Toko Bangunan Mekar Jaya,"Jl. Ciputat Raya No.16 1, RT.1/RW.2, Pd. Pinang, Kec. Kby. Lama, Kota Jakarta Selatan, Daerah Khusus Ibukota Jakarta 12310","RT.1/RW.2, Pd. Pinang, Kec. Kby. Lama, Kota Jakarta Selatan",PAPUA BARAT,12310.0,Indonesia,217650780.0,-6.2619263,106.7752255,https://maps.google.com/?cid=0x0:0x5609b7bf4c3a5a0c
toko bangunan,Toko Bahan Bangunan,Toko Bangunan Rawabelong Jaya,"Jl. Palmerah Barat No.54, Palmerah, Kec. Palmerah, Kota Jakarta Barat, Daerah Khusus Ibukota Jakarta 11480","Palmerah, Kec. Palmerah, Kota Jakarta Barat",PAPUA BARAT,11480.0,Indonesia,215482123.0,-6.2066697,106.7846203,https://maps.google.com/?cid=0x0:0x28f4b7a8a4a85cbd
toko bangunan,Toko Bahan Bangunan,Toko Bangunan Cahaya Fajar (bedahan),"Jl. H. Sulaiman, Bedahan, Kec. Sawangan, Kota Depok, Jawa Barat 16519","Bedahan, Kec. Sawangan, Kota Depok",PAPUA BARAT,16519.0,Indonesia,81369979925.0,-6.4112409,106.7700306,https://maps.google.com/?cid=0x0:0xc7dba3ba5af8467a
building materials,Kantor Perusahaan,Kios Kayu Karya-Baru,"V222+59X, Kampung Wandum, Distrik Fokour, Kabupaten Sorong Selatan, Papua Bar.","Kabupaten Sorong Selatan, Papua Bar.",PAPUA BARAT,,Indonesia,85240295205.0,-1.1495167,132.0009738,https://maps.google.com/?cid=0x0:0xe1faf3d7b2cb1983
building materials,Toko Bahan Bangunan,Toko Bangunan Bekasi Terlengkap - Mitra10 Jatimakmur,"Jl. Raya Jati Makmur No.115, RT.001/RW.013, Jatimakmur, Kec. Pd. Gede, Kota Bks, Jawa Barat 17413","RT.001/RW.013, Jatimakmur, Kec. Pd. Gede, Kota Bks",PAPUA BARAT,17413.0,Indonesia,87800021010.0,-6.2877854,106.9379937,https://maps.google.com/?cid=0x0:0x29ed2283e5355e75
building materials,Toko Kayu,CV.KARYA BARU PAPUA/KIOS KAYU BOMBANA,"G3CP+5MV, Unnamed Road, Keyen, Kec. Teminabuan, Kabupaten Sorong Selatan, Papua Bar. 98454","Unnamed Road, Keyen, Kec. Teminabuan, Kabupaten Sorong Selatan",PAPUA BARAT,98454.0,Indonesia,,-1.4795135,132.086671,https://maps.google.com/?cid=0x0:0xf3486f0de3941d90
building materials,Pusat Perbelanjaan,Milan dan Habitat keramik,"Jl. H. Nawi Haji Awi No.27, RT.001/RW.013, Jatimakmur, Kec. Pd. Gede, Kota Bks, Jawa Barat 17413","RT.001/RW.013, Jatimakmur, Kec. Pd. Gede, Kota Bks",PAPUA BARAT,17413.0,Indonesia,,-6.2882904,106.9382524,https://maps.google.com/?cid=0x0:0x583522236935b5c4
building materials,Layanan Transportasi,Bandara Inanwatan,"V5C7+W64, Mate, Distrik Inanwatan, Kabupaten Sorong Selatan, Papua Bar. 98455","Mate, Distrik Inanwatan, Kabupaten Sorong Selatan",PAPUA BARAT,98455.0,Indonesia,82196826597.0,-2.1277487,132.1630745,https://maps.google.com/?cid=0x0:0xd0b9c5c7d40453cc
building materials,Pelabuhan sungai,Pelabuhan Inanwatan,"V5F9+CFX, Mate, Distrik Inanwatan, Kabupaten Sorong Selatan, Papua Bar. 98455","Mate, Distrik Inanwatan, Kabupaten Sorong Selatan",PAPUA BARAT,98455.0,Indonesia,,-2.1263931,132.1687373,https://maps.google.com/?cid=0x0:0xf5cc6ee00e3f7391
building materials,Toko Bahan Bangunan,NASYA BANGUNAN,"X8M9+469, Jl. Nusa Indah, Mariyai, Distrik Mariat, Kabupaten Sorong, Papua Bar. 98415","Jl. Nusa Indah, Mariyai, Distrik Mariat, Kabupaten Sorong",PAPUA BARAT,98415.0,Indonesia,,-1.0172176,131.3181156,https://maps.google.com/?cid=0x0:0x19e47aadec85996d
building materials,Toko Bahan Bangunan,Toko Sayosa,"28VH+47H, Malawili, Kec. Aimas, Kabupaten Sorong, Papua Bar. 98414","Malawili, Kec. Aimas, Kabupaten Sorong",PAPUA BARAT,98414.0,Indonesia,,-0.9571789,131.3282234,https://maps.google.com/?cid=0x0:0x4b8fef486cb26f51
building materials,building materials,Kec. Matemani,"Kabupaten Sorong Selatan, Papua Bar.","Kabupaten Sorong Selatan, Papua Bar.",PAPUA BARAT,,Indonesia,,-1.9496392,132.2312838,https://maps.google.com/?cid=0x0:0xced62b996f227502
building materials,Toko Bahan Bangunan,Toko Bangunan Abadi,"4862+H2G, Malaingkedi, Kec. Sorong Utara, Kota Sorong, Papua Bar. 98412","Malaingkedi, Kec. Sorong Utara, Kota Sorong",PAPUA BARAT,98412.0,Indonesia,81248762864.0,-0.8885625,131.3000781,https://maps.google.com/?cid=0x0:0xa4c5e3d6e0f0bf2b
building materials,Toko Bahan Bangunan,"Papua Bangunan, CV PAPUA ABADI","Jl. Basuki Rahmat No.780, Klawuyuk, Distrik Sorong Timur, Kota Sorong, Papua Bar. 98416","Klawuyuk, Distrik Sorong Timur, Kota Sorong",PAPUA BARAT,98416.0,Indonesia,81332017550.0,-0.8954087,131.3186922,https://maps.google.com/?cid=0x0:0x851804bc3aa7f033
building materials,building materials,Kec. Kokoda Utara,"Kabupaten Sorong Selatan, Papua Bar.","Kabupaten Sorong Selatan, Papua Bar.",PAPUA BARAT,,Indonesia,,-1.8762266,132.3641297,https://maps.google.com/?cid=0x0:0xa4294849d564b6d1
building materials,Toko Bahan Bangunan,"Papua Bangunan, CV PAPUA ABADI","Jl. Basuki Rahmat No.780, Klawuyuk, Distrik Sorong Timur, Kota Sorong, Papua Bar. 98416","Klawuyuk, Distrik Sorong Timur, Kota Sorong",PAPUA BARAT,98416.0,Indonesia,81332017550.0,-0.8954087,131.3186922,https://maps.google.com/?cid=0x0:0x851804bc3aa7f033
building materials,Toko Bahan Bangunan,Toko Bangunan Depo Makmur,"38XF+C65, Jl. Basuki Rahmat, Klawuyuk, Distrik Sorong Timur, Kota Sorong, Papua Bar. 98416","Jl. Basuki Rahmat, Klawuyuk, Distrik Sorong Timur, Kota Sorong",PAPUA BARAT,98416.0,Indonesia,,-0.9013289,131.3229895,https://maps.google.com/?cid=0x0:0x371e6c734b67edcc
building materials,Toko Bahan Bangunan,Toko Bangunan Depo Makmur,"38XF+C65, Jl. Basuki Rahmat, Klawuyuk, Distrik Sorong Timur, Kota Sorong, Papua Bar. 98416","Jl. Basuki Rahmat, Klawuyuk, Distrik Sorong Timur, Kota Sorong",PAPUA BARAT,98416.0,Indonesia,,-0.9013289,131.3229895,https://maps.google.com/?cid=0x0:0x371e6c734b67edcc
building materials,building materials,Papua Bar.,,Papua Bar.,PAPUA BARAT,,Indonesia,,-1.3361154,133.1747162,https://maps.google.com/?cid=0x0:0x5349c1f8c5c7cb62
building materials,Kantor Perusahaan,PT. Intimpura Timber Co,"46MX+7GG, JL Camp Jl. Intimpura, Klasuur, Sorong, Sorong City, West Papua 98411","JL Camp Jl. Intimpura, Klasuur, Sorong, Sorong City",PAPUA BARAT,98411.0,Indonesia,951324901.0,-0.8668179,131.2488374,https://maps.google.com/?cid=0x0:0x12e414b67ecaf3ae
building materials,Toko Bahan Bangunan,"Papua Bangunan, CV PAPUA ABADI","Jl. Basuki Rahmat No.780, Klawuyuk, Distrik Sorong Timur, Kota Sorong, Papua Bar. 98416","Klawuyuk, Distrik Sorong Timur, Kota Sorong",PAPUA BARAT,98416.0,Indonesia,81332017550.0,-0.8954087,131.3186922,https://maps.google.com/?cid=0x0:0x851804bc3aa7f033
building materials,Toko Bahan Bangunan,PT INDOMATERIAL MANDIRI PROPERTINDO,"Jl frans kaisepo No.2, Malaingkedi, Kec. Sorong Utara, Kota Sorong, Papua Bar. 98419","Malaingkedi, Kec. Sorong Utara, Kota Sorong",PAPUA BARAT,98419.0,Indonesia,9513123062.0,-0.8808767,131.3016144,https://maps.google.com/?cid=0x0:0x4cc23e56d221dde0
building materials,Toko Bahan Bangunan,Toko Bangunan Raja Ampat,"4788+FHP, Jl. Pemuda, Klaligi, Kecamatan Sorong Manoi, Kota Sorong, Papua Bar. 98412","Jl. Pemuda, Klaligi, Kecamatan Sorong Manoi, Kota Sorong",PAPUA BARAT,98412.0,Indonesia,,-0.8837846,131.2664406,https://maps.google.com/?cid=0x0:0x72017cd7a097fc32
building materials,Toko Bahan Bangunan,Toko Bangunan Ria-Utama,"Unnamed Road, Malaingkedi, Papua Bar. 98412, Malaingkedi, Kecamatan Sorong Manoi, Kota Sorong, Papua Bar. 98412","Malaingkedi, Papua Bar.",PAPUA BARAT,98412.0,Indonesia,82199656081.0,-0.8774608,131.2993409,https://maps.google.com/?cid=0x0:0x6fa2bf791344f50d
building materials,building materials,Penjualan Bahan Material Alam,,,PAPUA BARAT,,Indonesia,82238315446.0,-1.624239,132.27898,https://maps.google.com/?cid=0x0:0x5181383959b47fc1
building materials,Toko Bahan Bangunan,"Toko Bangunan, Toko Linda","38PF+GPM, Klamana, Distrik Sorong Timur, Kota Sorong, Papua Bar. 98416","Klamana, Distrik Sorong Timur, Kota Sorong",PAPUA BARAT,98416.0,Indonesia,81935935177.0,-0.9136625,131.3242969,https://maps.google.com/?cid=0x0:0xf74d7b929b542cb5
building materials,Toko Bahan Bangunan,Toko Bangunan Abadi,"4862+H2G, Malaingkedi, Kec. Sorong Utara, Kota Sorong, Papua Bar. 98412","Malaingkedi, Kec. Sorong Utara, Kota Sorong",PAPUA BARAT,98412.0,Indonesia,81248762864.0,-0.8885625,131.3000781,https://maps.google.com/?cid=0x0:0xa4c5e3d6e0f0bf2b
building materials,Pemasok Bahan Bangunan,Multi Bangunan. UD,"JL. Jend. A. Yani, No. 25, Kampung Baru, Sorong Barat, Klakublik, Distrik Sorong, Kota Sorong, Papua Bar. 98413","No. 25, Kampung Baru, Sorong Barat, Klakublik, Distrik Sorong, Kota Sorong",PAPUA BARAT,98413.0,Indonesia,951324335.0,-0.872693,131.259041,https://maps.google.com/?cid=0x0:0xe75bf9fbb4335518
building materials,Toko Bahan Bangunan,Sumber Bangunan Toko,"JL. R.A. Kartini, No. 6, Rufey, Sorong Barat, Rufei, Distrik Sorong, Kota Sorong, Papua Bar. 98412","No. 6, Rufey, Sorong Barat, Rufei, Distrik Sorong, Kota Sorong",PAPUA BARAT,98412.0,Indonesia,951332543.0,-0.86248,131.249499,https://maps.google.com/?cid=0x0:0x7fe0b52c002a4cd7
building materials,Toko Bahan Bangunan,TB Tunas Sumber Rejeki,"4788+6R8, Klaligi, Kecamatan Sorong Manoi, Kota Sorong, Papua Bar. 98412","Klaligi, Kecamatan Sorong Manoi, Kota Sorong",PAPUA BARAT,98412.0,Indonesia,8114852687.0,-0.8844705,131.2670664,https://maps.google.com/?cid=0x0:0x923b382621dce280
building materials,Toko Bahan Bangunan,Depo APA,"4858+C3H, Jl. Basuki Rahmat, Remu Sel, Distrik Sorong Timur, Kota Sorong, Papua Bar. 98416","Jl. Basuki Rahmat, Remu Sel, Distrik Sorong Timur, Kota Sorong",PAPUA BARAT,98416.0,Indonesia,,-0.8914384,131.3152376,https://maps.google.com/?cid=0x0:0x1a5d0b39362b1c03
building materials,Toko Bahan Bangunan,Toko Bangunan Depo Makmur,"38XF+C65, Jl. Basuki Rahmat, Klawuyuk, Distrik Sorong Timur, Kota Sorong, Papua Bar. 98416","Jl. Basuki Rahmat, Klawuyuk, Distrik Sorong Timur, Kota Sorong",PAPUA BARAT,98416.0,Indonesia,,-0.9013289,131.3229895,https://maps.google.com/?cid=0x0:0x371e6c734b67edcc
building materials,building materials,Papua Bar. 98454,"Kabupaten Sorong Selatan, Papua Bar.","Kabupaten Sorong Selatan, Papua Bar.",PAPUA BARAT,,Indonesia,,-1.4196083,131.9989718,https://maps.google.com/?cid=0x0:0x85355e3327b207ba
building materials,Toko Bahan Bangunan,"Papua Bangunan, CV PAPUA ABADI","Jl. Basuki Rahmat No.780, Klawuyuk, Distrik Sorong Timur, Kota Sorong, Papua Bar. 98416","Klawuyuk, Distrik Sorong Timur, Kota Sorong",PAPUA BARAT,98416.0,Indonesia,81332017550.0,-0.8954087,131.3186922,https://maps.google.com/?cid=0x0:0x851804bc3aa7f033
building materials,building materials,Penjualan Bahan Material Alam,,,PAPUA BARAT,,Indonesia,82238315446.0,-1.624239,132.27898,https://maps.google.com/?cid=0x0:0x5181383959b47fc1
building materials,Pemasok Bahan Bangunan,Depo Makmur Manokwari,"43P2+QWR, Jl. Trikora Wosi, Wosi, Kec. Manokwari Bar., Kabupaten Manokwari, Papua Bar. 98312","Jl. Trikora Wosi, Wosi, Kec. Manokwari Bar., Kabupaten Manokwari",PAPUA BARAT,98312.0,Indonesia,81248426402.0,-0.8630402,134.0521741,https://maps.google.com/?cid=0x0:0x387befda163fc63b
building materials,Toko Bahan Bangunan,Depo Bangunan Mbanyu Mili,"3VQM+2GP depan balai kampung sp 2, Prafi Mulia, Distrik Prafi, Kabupaten Manokwari, Papua Bar. 98356","Prafi Mulia, Distrik Prafi, Kabupaten Manokwari",PAPUA BARAT,98356.0,Indonesia,85254126242.0,-0.9124191,133.8838245,https://maps.google.com/?cid=0x0:0x72bb281db456c91a
building materials,building materials,Kec. Matemani,"Kabupaten Sorong Selatan, Papua Bar.","Kabupaten Sorong Selatan, Papua Bar.",PAPUA BARAT,,Indonesia,,-1.9496392,132.2312838,https://maps.google.com/?cid=0x0:0xced62b996f227502
building materials,Toko Bahan Bangunan,PT. Bintuni Utama Murni Wood Industries,"Jl. Jend. Sudirman No.40, Padarni, Kec. Manokwari Bar., Kabupaten Manokwari, Papua Bar. 98312","Padarni, Kec. Manokwari Bar., Kabupaten Manokwari",PAPUA BARAT,98312.0,Indonesia,986211170.0,-0.8600523,134.0722125,https://maps.google.com/?cid=0x0:0xf2f8ff6d20bb8f63
building materials,Toko Bahan Bangunan,Wapoga Mutiara Timber. PT,"43MJ+WXW, Manokwari Tim., Kec. Manokwari Bar., Kabupaten Manokwari, Papua Bar. 98312","Manokwari Tim., Kec. Manokwari Bar., Kabupaten Manokwari",PAPUA BARAT,98312.0,Indonesia,962211770.0,-0.86514,134.082441,https://maps.google.com/?cid=0x0:0x23cc3c5246cb2c52
building materials,Toko Bahan Bangunan,PAPUA BANGUNAN,"42GX+945, Wosi, Kec. Manokwari Bar., Kabupaten Manokwari, Papua Bar. 98312","Wosi, Kec. Manokwari Bar., Kabupaten Manokwari",PAPUA BARAT,98312.0,Indonesia,82198055550.0,-0.874101,134.0478473,https://maps.google.com/?cid=0x0:0x2c3683b193d9430f
building materials,Toko Bahan Bangunan,"Papua Bangunan, CV PAPUA ABADI","Jl. Basuki Rahmat No.780, Klawuyuk, Distrik Sorong Timur, Kota Sorong, Papua Bar. 98416","Klawuyuk, Distrik Sorong Timur, Kota Sorong",PAPUA BARAT,98416.0,Indonesia,81332017550.0,-0.8954087,131.3186922,https://maps.google.com/?cid=0x0:0x851804bc3aa7f033
building materials,Toko Bahan Bangunan,Toko Multibangunan,"4858+M3H, Bar, Sawagumu, Kec. Sorong Utara, Kota Sorong, Papua Bar. 98416","Bar, Sawagumu, Kec. Sorong Utara, Kota Sorong",PAPUA BARAT,98416.0,Indonesia,87896387564.0,-0.8908047,131.3152343,https://maps.google.com/?cid=0x0:0x71e3ca6ad4eb69f9
building materials,Pemasok Bahan Bangunan,Multi Bangunan. UD,"JL. Jend. A. Yani, No. 25, Kampung Baru, Sorong Barat, Klakublik, Distrik Sorong, Kota Sorong, Papua Bar. 98413","No. 25, Kampung Baru, Sorong Barat, Klakublik, Distrik Sorong, Kota Sorong",PAPUA BARAT,98413.0,Indonesia,951324335.0,-0.872693,131.259041,https://maps.google.com/?cid=0x0:0xe75bf9fbb4335518
building materials,building materials,CV. ALCO TIMBER IRIAN,"Bumi Ajo (Sp I), Distrik Moswaren, Kabupaten Sorong Selatan, Papua Bar. 98462","Distrik Moswaren, Kabupaten Sorong Selatan",PAPUA BARAT,98462.0,Indonesia,,-1.4888792,132.2317921,https://maps.google.com/?cid=0x0:0x473d79963835002b
building materials,building materials,Distrik Moswaren,"Kabupaten Sorong Selatan, Papua Bar.","Kabupaten Sorong Selatan, Papua Bar.",PAPUA BARAT,,Indonesia,,-1.4917637,132.2410573,https://maps.google.com/?cid=0x0:0xc435d4289dbbc461
building materials,Toko Bahan Bangunan,Toko Bangunan Depo Makmur,"38XF+C65, Jl. Basuki Rahmat, Klawuyuk, Distrik Sorong Timur, Kota Sorong, Papua Bar. 98416","Jl. Basuki Rahmat, Klawuyuk, Distrik Sorong Timur, Kota Sorong",PAPUA BARAT,98416.0,Indonesia,,-0.9013289,131.3229895,https://maps.google.com/?cid=0x0:0x371e6c734b67edcc
building materials,Kantor Pemerintahan Daerah,Bumi ajo,"G64R+WX9, Bumi Ajo (Sp I), Distrik Moswaren, Kabupaten Sorong Selatan, Papua Bar. 98462","Bumi Ajo (Sp I), Distrik Moswaren, Kabupaten Sorong Selatan",PAPUA BARAT,98462.0,Indonesia,,-1.4927248,132.2424768,https://maps.google.com/?cid=0x0:0x59f649c576891df0
building materials,Toko Bahan Bangunan,Toko Bangunan Abadi,"4862+H2G, Malaingkedi, Kec. Sorong Utara, Kota Sorong, Papua Bar. 98412","Malaingkedi, Kec. Sorong Utara, Kota Sorong",PAPUA BARAT,98412.0,Indonesia,81248762864.0,-0.8885625,131.3000781,https://maps.google.com/?cid=0x0:0xa4c5e3d6e0f0bf2b
building materials,Toko Bahan Bangunan,"Papua Bangunan, CV PAPUA ABADI","Jl. Basuki Rahmat No.780, Klawuyuk, Distrik Sorong Timur, Kota Sorong, Papua Bar. 98416","Klawuyuk, Distrik Sorong Timur, Kota Sorong",PAPUA BARAT,98416.0,Indonesia,81332017550.0,-0.8954087,131.3186922,https://maps.google.com/?cid=0x0:0x851804bc3aa7f033
building materials,building materials,Saifi Building material,"Saurabh Vihar, Jaitpur, New Delhi, Delhi 110044, India","Jaitpur, New Delhi, Delhi",PAPUA BARAT,110044.0,Indonesia,,28.5077541,77.3232108,https://maps.google.com/?cid=0x0:0xdd677f643b5b6b3f
building materials,building materials,Papua Bar. 98456,Papua Bar.,Papua Bar.,PAPUA BARAT,,Indonesia,,-1.2191286,131.8799408,https://maps.google.com/?cid=0x0:0x1193e0fa67947a8b
building materials,Toko Bahan Bangunan,NASYA BANGUNAN,"X8M9+469, Jl. Nusa Indah, Mariyai, Distrik Mariat, Kabupaten Sorong, Papua Bar. 98415","Jl. Nusa Indah, Mariyai, Distrik Mariat, Kabupaten Sorong",PAPUA BARAT,98415.0,Indonesia,,-1.0172176,131.3181156,https://maps.google.com/?cid=0x0:0x19e47aadec85996d
building materials,Kantor Perusahaan,Kios Kayu Karya-Baru,"V222+59X, Kampung Wandum, Distrik Fokour, Kabupaten Sorong Selatan, Papua Bar.","Kabupaten Sorong Selatan, Papua Bar.",PAPUA BARAT,,Indonesia,85240295205.0,-1.1495167,132.0009738,https://maps.google.com/?cid=0x0:0xe1faf3d7b2cb1983
building materials,Toko Bahan Bangunan,Toko Bangunan Mega Jaya,"28H4+322, Malawele, Kec. Aimas, Kabupaten Sorong, Papua Bar. 98414","Malawele, Kec. Aimas, Kabupaten Sorong",PAPUA BARAT,98414.0,Indonesia,81343430377.0,-0.9723522,131.3050034,https://maps.google.com/?cid=0x0:0x49ed1caab0fa6e0c
building materials,Jasa penyewaan perancah,SEWA JUAL SCAFFOLDING SORONG,"Jl. Cempedak, RT.09/RW.03, Kel.MALAGUSA, Kec. Aimas, Kabupaten Sorong, Papua Bar. 98414","RT.09/RW.03, Kel.MALAGUSA, Kec. Aimas, Kabupaten Sorong",PAPUA BARAT,98414.0,Indonesia,82399466601.0,-0.9553825,131.3275222,https://maps.google.com/?cid=0x0:0xad6ac9f16a6d0663
building materials,Toko Swalayan,Toko Rahayu,"H22F+3X8, Jalan poros wermit, ayamaru, Kec. Teminabuan, Kabupaten Sorong Selatan, Papua Bar. 98454","Jalan poros wermit, ayamaru, Kec. Teminabuan, Kabupaten Sorong Selatan",PAPUA BARAT,98454.0,Indonesia,,-1.4498365,132.0249672,https://maps.google.com/?cid=0x0:0xae940753bebf4207
building materials,Toko Kayu,"TPK , FERDINAND ALAM PAPUA","282V+3F4, Jl. Rajawali, Klamalu, Aimas, Sorong Regency, West Papua 98416","Jl. Rajawali, Klamalu, Aimas, Sorong Regency",PAPUA BARAT,98416.0,Indonesia,,-0.999856,131.3436981,https://maps.google.com/?cid=0x0:0xedf6d8b0e1c9f9f2
building materials,Toko Bahan Bangunan,Toko Sumber Lancar,"Malasom, Jl. Wortel, Kec. Aimas, Papua Bar. 98414","Jl. Wortel, Kec. Aimas",PAPUA BARAT,98414.0,Indonesia,,-0.9728255,131.3045326,https://maps.google.com/?cid=0x0:0x71e804bedc23186a
building materials,Toko Bahan Bangunan,TB. Sinar Pagi,"28V6+6XJ, Malawele, Kec. Aimas, Kabupaten Sorong, Papua Bar. 98414","Malawele, Kec. Aimas, Kabupaten Sorong",PAPUA BARAT,98414.0,Indonesia,,-0.9569211,131.3123911,https://maps.google.com/?cid=0x0:0x320087d9973ade5b
building materials,Toko Bahan Bangunan,Toko Sayosa,"28VH+47H, Malawili, Kec. Aimas, Kabupaten Sorong, Papua Bar. 98414","Malawili, Kec. Aimas, Kabupaten Sorong",PAPUA BARAT,98414.0,Indonesia,,-0.9571789,131.3282234,https://maps.google.com/?cid=0x0:0x4b8fef486cb26f51
building materials,Toko Bahan Bangunan,Sinar berkah,"Jalan container kilo No.24, Malawele, Kec. Aimas, Kabupaten Sorong, Papua Bar.","Kabupaten Sorong, Papua Bar.",PAPUA BARAT,,Indonesia,82393186541.0,-0.9627652,131.2969317,https://maps.google.com/?cid=0x0:0x246ad4574f4db95c
building materials,Toko Bahan Bangunan,Toko Surya Baru,"28V4+4XX, Malawele, Kec. Aimas, Kabupaten Sorong, Papua Bar.","Kabupaten Sorong, Papua Bar.",PAPUA BARAT,,Indonesia,82197537889.0,-0.9571468,131.3074747,https://maps.google.com/?cid=0x0:0x8ee74a1fb3709729
building materials,Toko Bahan Bangunan,NIPPON PAINT (TB.Cipta Jaya),"28V5+4R9, Jl. Buncis, Malawele, Kec. Aimas, Kabupaten Sorong, Papua Bar. 98414","Jl. Buncis, Malawele, Kec. Aimas, Kabupaten Sorong",PAPUA BARAT,98414.0,Indonesia,,-0.9572105,131.3095994,https://maps.google.com/?cid=0x0:0xa0e2db901b750f9c
building materials,Produsen batu bata,PRODUKSI BATA RINGAN/BATU HEBEL,"Aimas, Kec. Aimas, Kabupaten Sorong, Papua Bar. 98414","Kec. Aimas, Kabupaten Sorong",PAPUA BARAT,98414.0,Indonesia,85243022123.0,-0.9471576,131.3416383,https://maps.google.com/?cid=0x0:0x18f9ab9e7ebd019b
building materials,Toko Swalayan,Toko Rahayu,"H22F+3X8, Jalan poros wermit, ayamaru, Kec. Teminabuan, Kabupaten Sorong Selatan, Papua Bar. 98454","Jalan poros wermit, ayamaru, Kec. Teminabuan, Kabupaten Sorong Selatan",PAPUA BARAT,98454.0,Indonesia,,-1.4498365,132.0249672,https://maps.google.com/?cid=0x0:0xae940753bebf4207
building materials,building materials,Distrik Seremuk,"Kabupaten Sorong Selatan, Papua Bar.","Kabupaten Sorong Selatan, Papua Bar.",PAPUA BARAT,,Indonesia,,-1.3800751,131.971713,https://maps.google.com/?cid=0x0:0xe12c32b535c8440a
building materials,Toko bahan makanan,Toko TE-MI (Tehit Mitra,"G2VG+F7C, Wermit, Kec. Teminabuan, Kabupaten Sorong Selatan, Papua Bar. 98454","Wermit, Kec. Teminabuan, Kabupaten Sorong Selatan",PAPUA BARAT,98454.0,Indonesia,8114871178.0,-1.4563088,132.0256542,https://maps.google.com/?cid=0x0:0xa9f60ad72f60ea8d
building materials,Toko,Toko SINAR MAROS,"H22F+7W4, Jl. Sengget, Wermit, Kec. Teminabuan, Kabupaten Sorong Selatan, Papua Bar. 98454","Jl. Sengget, Wermit, Kec. Teminabuan, Kabupaten Sorong Selatan",PAPUA BARAT,98454.0,Indonesia,95231155.0,-1.4493728,132.0248223,https://maps.google.com/?cid=0x0:0x36b89cd638908602
building materials,Toko bahan makanan,Toko TE-MI (Tehit Mitra,"G2VG+F7C, Wermit, Kec. Teminabuan, Kabupaten Sorong Selatan, Papua Bar. 98454","Wermit, Kec. Teminabuan, Kabupaten Sorong Selatan",PAPUA BARAT,98454.0,Indonesia,8114871178.0,-1.4563088,132.0256542,https://maps.google.com/?cid=0x0:0xa9f60ad72f60ea8d
building materials,Toko Swalayan,Toko Rahayu,"H22F+3X8, Jalan poros wermit, ayamaru, Kec. Teminabuan, Kabupaten Sorong Selatan, Papua Bar. 98454","Jalan poros wermit, ayamaru, Kec. Teminabuan, Kabupaten Sorong Selatan",PAPUA BARAT,98454.0,Indonesia,,-1.4498365,132.0249672,https://maps.google.com/?cid=0x0:0xae940753bebf4207
building materials,building materials,Kec. Teminabuan,"Kabupaten Sorong Selatan, Papua Bar.","Kabupaten Sorong Selatan, Papua Bar.",PAPUA BARAT,,Indonesia,,-1.4418184,132.0109997,https://maps.google.com/?cid=0x0:0x26fd6623ef786a25
building materials,building materials,Distrik Wayer,"Kabupaten Sorong Selatan, Papua Bar.","Kabupaten Sorong Selatan, Papua Bar.",PAPUA BARAT,,Indonesia,,-1.4981267,132.1276575,https://maps.google.com/?cid=0x0:0xa31b66c806bf6157
building materials,Toko Swalayan,Toko Rahayu,"H22F+3X8, Jalan poros wermit, ayamaru, Kec. Teminabuan, Kabupaten Sorong Selatan, Papua Bar. 98454","Jalan poros wermit, ayamaru, Kec. Teminabuan, Kabupaten Sorong Selatan",PAPUA BARAT,98454.0,Indonesia,,-1.4498365,132.0249672,https://maps.google.com/?cid=0x0:0xae940753bebf4207
building materials,Toko Bahan Bangunan,"Papua Bangunan, CV PAPUA ABADI","Jl. Basuki Rahmat No.780, Klawuyuk, Distrik Sorong Timur, Kota Sorong, Papua Bar. 98416","Klawuyuk, Distrik Sorong Timur, Kota Sorong",PAPUA BARAT,98416.0,Indonesia,81332017550.0,-0.8954087,131.3186922,https://maps.google.com/?cid=0x0:0x851804bc3aa7f033
building materials,Toko Bahan Bangunan,Wapoga Mutiara Timber. PT,"43MJ+WXW, Manokwari Tim., Kec. Manokwari Bar., Kabupaten Manokwari, Papua Bar. 98312","Manokwari Tim., Kec. Manokwari Bar., Kabupaten Manokwari",PAPUA BARAT,98312.0,Indonesia,962211770.0,-0.86514,134.082441,https://maps.google.com/?cid=0x0:0x23cc3c5246cb2c52
building materials,Toko,Jaya Bangun Utama,"6GH9+VPV, Unnamed Road, Iriati, Distrik Wasior, Kabupaten Teluk Wondama, Papua Bar. 98362","Unnamed Road, Iriati, Distrik Wasior, Kabupaten Teluk Wondama",PAPUA BARAT,98362.0,Indonesia,85298357980.0,-2.7702528,134.5193086,https://maps.google.com/?cid=0x0:0x7b7706dc36edb6d8
building materials,Toko Bahan Bangunan,PAPUA BANGUNAN,"42GX+945, Wosi, Kec. Manokwari Bar., Kabupaten Manokwari, Papua Bar. 98312","Wosi, Kec. Manokwari Bar., Kabupaten Manokwari",PAPUA BARAT,98312.0,Indonesia,82198055550.0,-0.874101,134.0478473,https://maps.google.com/?cid=0x0:0x2c3683b193d9430f
building materials,Tukang Kayu,PT. Wapoga Mutiara Industries,"JL Sorido Yendidori Raya, Km. 12, 98116, Sorido, Kec. Biak Kota, Kabupaten Biak Numfor, Papua 98113","Km. 12, 98116, Sorido, Kec. Biak Kota, Kabupaten Biak Numfor",PAPUA BARAT,98113.0,Indonesia,98122017.0,-1.145826,136.0379864,https://maps.google.com/?cid=0x0:0xa55bd00b75e18e59
building materials,Toko Bahan Bangunan,Depo Bangunan Mbanyu Mili,"3VQM+2GP depan balai kampung sp 2, Prafi Mulia, Distrik Prafi, Kabupaten Manokwari, Papua Bar. 98356","Prafi Mulia, Distrik Prafi, Kabupaten Manokwari",PAPUA BARAT,98356.0,Indonesia,85254126242.0,-0.9124191,133.8838245,https://maps.google.com/?cid=0x0:0x72bb281db456c91a
building materials,Toko Bahan Bangunan,MEKAR UTAMA,"42PX+G48, Wosi, Kec. Manokwari Bar., Kabupaten Manokwari, Papua Bar. 98312","Wosi, Kec. Manokwari Bar., Kabupaten Manokwari",PAPUA BARAT,98312.0,Indonesia,,-0.8637053,134.0478389,https://maps.google.com/?cid=0x0:0x77a6f53c3f6b970c
building materials,Toko Bahan Bangunan,Royal Bangunan (PT. Papua Jaya Bangunan),"43P8+87R, Jl. Percetakan Negara, Sanggeng, Kec. Manokwari Bar., Kabupaten Manokwari, Papua Bar. 98312","Jl. Percetakan Negara, Sanggeng, Kec. Manokwari Bar., Kabupaten Manokwari",PAPUA BARAT,98312.0,Indonesia,87784554955.0,-0.8641385,134.0656252,https://maps.google.com/?cid=0x0:0x99b3b4ac0bad58a
building materials,Toko Bahan Bangunan,Tiptore Building Material,"Jl. Poros Kuda Mati, Klp. Lima, Kec. Merauke, Kabupaten Merauke, Papua 99616","Klp. Lima, Kec. Merauke, Kabupaten Merauke",PAPUA BARAT,99616.0,Indonesia,82293657714.0,-8.5061763,140.4257632,https://maps.google.com/?cid=0x0:0xbf132c61e5517b30
building materials,building materials,Waropen,"QC54+M74, Nonomi, Kec. Waropen Bawah, Kabupaten Waropen, Papua 98261","Nonomi, Kec. Waropen Bawah, Kabupaten Waropen",PAPUA BARAT,98261.0,Indonesia,,-2.2408669,136.4057026,https://maps.google.com/?cid=0x0:0x939ec7ca3f88c5d2
building materials,Toko Bahan Bangunan,Supermarket Multi Bangunan,"Jl Baru No.98, Wai Mhorock, Abepura, Jayapura City, Papua 99225","Wai Mhorock, Abepura, Jayapura City",PAPUA BARAT,99225.0,Indonesia,967588677.0,-2.6077336,140.6742812,https://maps.google.com/?cid=0x0:0x3b19f301c68f1d6f
building materials,Toko bahan makanan,DEPO MESIN N28  DEPO BANGUNAN,"Bunyom, Distrik Nimbokrang, Kabupaten Jayapura, Papua 99361","Distrik Nimbokrang, Kabupaten Jayapura",PAPUA BARAT,99361.0,Indonesia,85247266989.0,-2.5571645,140.1086582,https://maps.google.com/?cid=0x0:0xf97268af26927065
hardware store,hardware store,Distrik Fokour,"Kabupaten Sorong Selatan, Papua Bar.","Kabupaten Sorong Selatan, Papua Bar.",PAPUA BARAT,,Indonesia,,-1.1621937,132.0207079,https://maps.google.com/?cid=0x0:0xca5b0bfb905adc24
hardware store,Layanan Transportasi,Bandara Inanwatan,"V5C7+W64, Mate, Distrik Inanwatan, Kabupaten Sorong Selatan, Papua Bar. 98455","Mate, Distrik Inanwatan, Kabupaten Sorong Selatan",PAPUA BARAT,98455.0,Indonesia,82196826597.0,-2.1277487,132.1630745,https://maps.google.com/?cid=0x0:0xd0b9c5c7d40453cc
hardware store,Pelabuhan sungai,Pelabuhan Inanwatan,"V5F9+CFX, Mate, Distrik Inanwatan, Kabupaten Sorong Selatan, Papua Bar. 98455","Mate, Distrik Inanwatan, Kabupaten Sorong Selatan",PAPUA BARAT,98455.0,Indonesia,,-2.1263931,132.1687373,https://maps.google.com/?cid=0x0:0xf5cc6ee00e3f7391
hardware store,Toko Perlengkapan Rumah,AZKO Kalibata City,"Jl. Raya Kalibata No.1 Unit AN.Q2, RT.9/RW.4, Rawajati, Kec. Pancoran, Kota Jakarta Selatan, Daerah Khusus Ibukota Jakarta 12750","RT.9/RW.4, Rawajati, Kec. Pancoran, Kota Jakarta Selatan",PAPUA BARAT,12750.0,Indonesia,895365442106.0,-6.2570137,106.8533033,https://maps.google.com/?cid=0x0:0xc74d49c8ad649013
hardware store,hardware store,Kec. Matemani,"Kabupaten Sorong Selatan, Papua Bar.","Kabupaten Sorong Selatan, Papua Bar.",PAPUA BARAT,,Indonesia,,-1.9496392,132.2312838,https://maps.google.com/?cid=0x0:0xced62b996f227502
hardware store,Toko Perlengkapan Rumah,Azko Panglima Polim,"PQXX+M28, Jl. Panglima Polim No.73 1, Melawai, Kec. Kby. Baru, Kota Jakarta Selatan, Daerah Khusus Ibukota Jakarta 12160","Jl. Panglima Polim No.73 1, Melawai, Kec. Kby. Baru, Kota Jakarta Selatan",PAPUA BARAT,12160.0,Indonesia,85215450928.0,-6.2507589,106.7976592,https://maps.google.com/?cid=0x0:0x58721b3df20e0768
hardware store,hardware store,Distrik Kokoda,"Kabupaten Sorong Selatan, Papua Bar.","Kabupaten Sorong Selatan, Papua Bar.",PAPUA BARAT,,Indonesia,,-2.1274352,132.4263464,https://maps.google.com/?cid=0x0:0xa783056c2a04f79f
hardware store,Toko Komputer,Ace Computindo Computer,"JL Raya Regency 1 Blok EF No. 12-14, RT.003/RW.002, Periuk, Kota Tangerang, Banten 15131","RT.003/RW.002, Periuk, Kota Tangerang",PAPUA BARAT,15131.0,Indonesia,81386631738.0,-6.1702893,106.596953,https://maps.google.com/?cid=0x0:0xf7d5d29b60a78c1a
hardware store,Toko Komputer,HS COMPUTER,"HS COMPUTER, Jl. Makmur, RT.005/RW.001, Gebang Raya, Kec. Periuk, Kota Tangerang, Banten 15131","Jl. Makmur, RT.005/RW.001, Gebang Raya, Kec. Periuk, Kota Tangerang",PAPUA BARAT,15131.0,Indonesia,83874147774.0,-6.1838086,106.5921177,https://maps.google.com/?cid=0x0:0x5130b008926486f1
hardware store,hardware store,Kec. Kokoda Utara,"Kabupaten Sorong Selatan, Papua Bar.","Kabupaten Sorong Selatan, Papua Bar.",PAPUA BARAT,,Indonesia,,-1.8762266,132.3641297,https://maps.google.com/?cid=0x0:0xa4294849d564b6d1
hardware store,Toko Bahan Bangunan,Syarikat Setiabumi Bersaudara (Hardware Tools Supplier),"Jln Beringin Indah, Taman Beringin, 08000 Sungai Petani, Kedah, Malaysia",Sungai Petani,PAPUA BARAT,8000.0,Indonesia,6044221644.0,5.6297473,100.5004429,https://maps.google.com/?cid=0x0:0x19622086679821af
hardware store,Toko Bahan Bangunan,TENAGA BERKAT HARDWARE,"no 11, Petani, Kedah, Sungai, 12,13, Jalan Berangan 2/1, Taman Berangan, 08000 Sungai Petani, Kedah, Malaysia",Sungai Petani,PAPUA BARAT,8000.0,Indonesia,6044213381.0,5.6280164,100.5096588,https://maps.google.com/?cid=0x0:0x8c403f9fa59f2eaf
hardware store,Vegetarian cafe and deli,Jual beli online,"Jln.Raya Kawasan KEK Sp3, Arar, Kabupaten Sorong, Papua Bar. 98421","Arar, Kabupaten Sorong",PAPUA BARAT,98421.0,Indonesia,81343354490.0,-1.0032538,131.2471362,https://maps.google.com/?cid=0x0:0x807f7d822b0148db
hardware store,Toko Pakaian,baju online,"Jl. Pendidikan No.km 8, Malaingkedi, Kec. Sorong Utara, Kota Sorong, Papua Bar. 98412","Malaingkedi, Kec. Sorong Utara, Kota Sorong",PAPUA BARAT,98412.0,Indonesia,,-0.8886646,131.2952697,https://maps.google.com/?cid=0x0:0xdc27aca8d3c3660f
hardware store,Toko Elektronik,TOKO GUDANG ELECTRONIC,"Jl. Raya Aimas - Klamono, Aimas, Kec. Aimas, Kabupaten Sorong, Papua Bar. 98444","Aimas, Kec. Aimas, Kabupaten Sorong",PAPUA BARAT,98444.0,Indonesia,81355147014.0,-0.956506,131.3362936,https://maps.google.com/?cid=0x0:0x311f6c698a81bf53
hardware store,hardware store,Papua Bar. 98454,"Kabupaten Sorong Selatan, Papua Bar.","Kabupaten Sorong Selatan, Papua Bar.",PAPUA BARAT,,Indonesia,,-1.4196083,131.9989718,https://maps.google.com/?cid=0x0:0x85355e3327b207ba
hardware store,Toko Ponsel,ILDHA ACCESSORIES,"H22G+358, Wermit, Kec. Teminabuan, Kabupaten Sorong Selatan, Papua Bar. 98454","Wermit, Kec. Teminabuan, Kabupaten Sorong Selatan",PAPUA BARAT,98454.0,Indonesia,,-1.4498437,132.0254411,https://maps.google.com/?cid=0x0:0x36fe027922cb366d
hardware store,Pusat Perbelanjaan,Pasar Kajase,"Wermit, Kec. Teminabuan, Kabupaten Sorong Selatan, Papua Bar. 98454","Kec. Teminabuan, Kabupaten Sorong Selatan",PAPUA BARAT,98454.0,Indonesia,,-1.4573227,132.0243258,https://maps.google.com/?cid=0x0:0x388eefbcd072c19c
hardware store,Toko Ponsel,Nayla cell,"H256+79H, Kohoin, Kec. Teminabuan, Kabupaten Sorong Selatan, Papua Bar.","Kabupaten Sorong Selatan, Papua Bar.",PAPUA BARAT,,Indonesia,81347632234.0,-1.4417893,132.0109297,https://maps.google.com/?cid=0x0:0xd1f4c54c217e5b3e
hardware store,hardware store,KUDATINI AGENCIES,"Q54R+7PV Kokila Circle, Kushtagi, Karnataka 583277, India","Kushtagi, Karnataka",PAPUA BARAT,583277.0,Indonesia,919448694006.0,15.7557431,76.1917936,https://maps.google.com/?cid=0x0:0x8e1e6153be2dc4c7
hardware store,Kantor Perusahaan,PT Kawan Lama Sejahtera,"Jl. Puri Kencana No.1, Kembangan Sel., Kec. Kembangan, Kota Jakarta Barat, Daerah Khusus Ibukota Jakarta 11610","Kembangan Sel., Kec. Kembangan, Kota Jakarta Barat",PAPUA BARAT,11610.0,Indonesia,81510009997.0,-6.190666,106.7435619,https://maps.google.com/?cid=0x0:0x26e6e27ab6082c99
hardware store,hardware store,Kec. Matemani,"Kabupaten Sorong Selatan, Papua Bar.","Kabupaten Sorong Selatan, Papua Bar.",PAPUA BARAT,,Indonesia,,-1.9496392,132.2312838,https://maps.google.com/?cid=0x0:0xced62b996f227502
hardware store,hardware store,CV. ALCO TIMBER IRIAN,"Bumi Ajo (Sp I), Distrik Moswaren, Kabupaten Sorong Selatan, Papua Bar. 98462","Distrik Moswaren, Kabupaten Sorong Selatan",PAPUA BARAT,98462.0,Indonesia,,-1.4888792,132.2317921,https://maps.google.com/?cid=0x0:0x473d79963835002b
hardware store,hardware store,Distrik Moswaren,"Kabupaten Sorong Selatan, Papua Bar.","Kabupaten Sorong Selatan, Papua Bar.",PAPUA BARAT,,Indonesia,,-1.4917637,132.2410573,https://maps.google.com/?cid=0x0:0xc435d4289dbbc461
hardware store,Gereja,GKI SYALOM - MOSWAREN,"G6PR+475, Moswaren, Distrik Moswaren, Kabupaten Sorong Selatan, Papua Bar. 98462","Moswaren, Distrik Moswaren, Kabupaten Sorong Selatan",PAPUA BARAT,98462.0,Indonesia,,-1.4643421,132.2409651,https://maps.google.com/?cid=0x0:0x8af74fc759ae647
hardware store,hardware store,Papua Bar. 98454,"Kabupaten Sorong Selatan, Papua Bar.","Kabupaten Sorong Selatan, Papua Bar.",PAPUA BARAT,,Indonesia,,-1.4196083,131.9989718,https://maps.google.com/?cid=0x0:0x85355e3327b207ba
hardware store,hardware store,SAIFI HARDWARE STORE,"Dhantiya, Uttar Pradesh 243501, India",Uttar Pradesh,PAPUA BARAT,243501.0,Indonesia,919536233726.0,28.4453145,79.3391057,https://maps.google.com/?cid=0x0:0x9db62ccc9fa845b5
hardware store,hardware store,SAIFI HARDWARE,"Baroda, Madhya Pradesh 476339, India",Madhya Pradesh,PAPUA BARAT,476339.0,Indonesia,,25.4903544,76.6553266,https://maps.google.com/?cid=0x0:0xa90a8e7b287b8709
hardware store,Toko Swalayan,Toko Rahayu,"H22F+3X8, Jalan poros wermit, ayamaru, Kec. Teminabuan, Kabupaten Sorong Selatan, Papua Bar. 98454","Jalan poros wermit, ayamaru, Kec. Teminabuan, Kabupaten Sorong Selatan",PAPUA BARAT,98454.0,Indonesia,,-1.4498365,132.0249672,https://maps.google.com/?cid=0x0:0xae940753bebf4207
hardware store,Toko Bahan Bangunan,Toko Sayosa,"28VH+47H, Malawili, Kec. Aimas, Kabupaten Sorong, Papua Bar. 98414","Malawili, Kec. Aimas, Kabupaten Sorong",PAPUA BARAT,98414.0,Indonesia,,-0.9571789,131.3282234,https://maps.google.com/?cid=0x0:0x4b8fef486cb26f51
hardware store,hardware store,Papua Bar. 98456,Papua Bar.,Papua Bar.,PAPUA BARAT,,Indonesia,,-1.2191286,131.8799408,https://maps.google.com/?cid=0x0:0x1193e0fa67947a8b
hardware store,Toko Perlengkapan Rumah,MR.DIY Aimas,"Jl. Klamono No.KM 19, Aimas, Kec. Aimas, Kabupaten Sorong, Papua Bar. 98414","Aimas, Kec. Aimas, Kabupaten Sorong",PAPUA BARAT,98414.0,Indonesia,,-0.9549962,131.3361475,https://maps.google.com/?cid=0x0:0xe4b3d9b2ee19c74f
hardware store,Toko Bahan Bangunan,Toko Bangunan Mega Jaya,"28H4+322, Malawele, Kec. Aimas, Kabupaten Sorong, Papua Bar. 98414","Malawele, Kec. Aimas, Kabupaten Sorong",PAPUA BARAT,98414.0,Indonesia,81343430377.0,-0.9723522,131.3050034,https://maps.google.com/?cid=0x0:0x49ed1caab0fa6e0c
hardware store,Toko Bahan Bangunan,TB. Sinar Pagi,"28V6+6XJ, Malawele, Kec. Aimas, Kabupaten Sorong, Papua Bar. 98414","Malawele, Kec. Aimas, Kabupaten Sorong",PAPUA BARAT,98414.0,Indonesia,,-0.9569211,131.3123911,https://maps.google.com/?cid=0x0:0x320087d9973ade5b
hardware store,Toko Bahan Bangunan,Sinar berkah,"Jalan container kilo No.24, Malawele, Kec. Aimas, Kabupaten Sorong, Papua Bar.","Kabupaten Sorong, Papua Bar.",PAPUA BARAT,,Indonesia,82393186541.0,-0.9627652,131.2969317,https://maps.google.com/?cid=0x0:0x246ad4574f4db95c
hardware store,Pemasok Pengikat,CV. AZHUMA,"blkng United Tractor, Jl. Warmasen No.Km 13, Klamana, Distrik Sorong Timur, Kota Sorong, Papua Bar. 98418","Jl. Warmasen No.Km 13, Klamana, Distrik Sorong Timur, Kota Sorong",PAPUA BARAT,98418.0,Indonesia,82398697727.0,-0.916198,131.3270032,https://maps.google.com/?cid=0x0:0xab85690eff366ce1
hardware store,Toko Batu,Sinar Berkah Bata Merah Group,"Jl. Poros No.SP 4, Makbalim, Mayamuk, Kabupaten Sorong, Papua Bar. 98451","Makbalim, Mayamuk, Kabupaten Sorong",PAPUA BARAT,98451.0,Indonesia,82336170727.0,-1.0734892,131.2867027,https://maps.google.com/?cid=0x0:0x7ec035d900a1b4ed
hardware store,Toko Bahan Bangunan,ADI JAYA,"Jl. Wortel No.Unit 2, Malawele, Kec. Aimas, Kabupaten Sorong, Papua Bar.","Kabupaten Sorong, Papua Bar.",PAPUA BARAT,,Indonesia,,-0.9638091,131.304786,https://maps.google.com/?cid=0x0:0xd14b782f36b9bee8
hardware store,Toko Kayu,TPK AISA,"Jl. Intimpura, Klasuluk, Distrik Mariat, Kabupaten Sorong, Papua Bar.","Kabupaten Sorong, Papua Bar.",PAPUA BARAT,,Indonesia,81240255265.0,-0.993222,131.319806,https://maps.google.com/?cid=0x0:0x7c8cb552507210a2
hardware store,Distributor Baja,Toko Besi Sinar Kencana SP1,"X8RH+R99, Klamalu, Distrik Mariat, Kabupaten Sorong, Papua Bar. 98415","Klamalu, Distrik Mariat, Kabupaten Sorong",PAPUA BARAT,98415.0,Indonesia,81241432588.0,-1.0079714,131.3284937,https://maps.google.com/?cid=0x0:0xa593e01804366c16
hardware store,Toko Bahan Bangunan,Toko Malaka Rai,"28GQ+RXF, Jl. Raya Aimas - Klamono, Malawili, Kec. Aimas, Kabupaten Sorong, Papua Bar. 98416","Jl. Raya Aimas - Klamono, Malawili, Kec. Aimas, Kabupaten Sorong",PAPUA BARAT,98416.0,Indonesia,81344595945.0,-0.972941,131.3399199,https://maps.google.com/?cid=0x0:0xa2751bfafd951024
hardware store,hardware store,TB. Salsabilla,"2879+87M, Mariat Pantai, Kec. Aimas, Kabupaten Sorong, Papua Bar. 98414","Mariat Pantai, Kec. Aimas, Kabupaten Sorong",PAPUA BARAT,98414.0,Indonesia,,-0.9866511,131.318184,https://maps.google.com/?cid=0x0:0x7c07ecee79a8625a
hardware store,Toko Swalayan,Toko Rahayu,"H22F+3X8, Jalan poros wermit, ayamaru, Kec. Teminabuan, Kabupaten Sorong Selatan, Papua Bar. 98454","Jalan poros wermit, ayamaru, Kec. Teminabuan, Kabupaten Sorong Selatan",PAPUA BARAT,98454.0,Indonesia,,-1.4498365,132.0249672,https://maps.google.com/?cid=0x0:0xae940753bebf4207
hardware store,Pusat Perbelanjaan,Toko Anugrha,"Jl. Teminabuan Ayamaru, Wermit, Kec. Teminabuan, Kabupaten Sorong Selatan, Papua Bar. 98454","Wermit, Kec. Teminabuan, Kabupaten Sorong Selatan",PAPUA BARAT,98454.0,Indonesia,85395564530.0,-1.4507306,132.0254178,https://maps.google.com/?cid=0x0:0x5022914d97504e53
hardware store,Toko Swalayan,Toko Rahayu,"H22F+3X8, Jalan poros wermit, ayamaru, Kec. Teminabuan, Kabupaten Sorong Selatan, Papua Bar. 98454","Jalan poros wermit, ayamaru, Kec. Teminabuan, Kabupaten Sorong Selatan",PAPUA BARAT,98454.0,Indonesia,,-1.4498365,132.0249672,https://maps.google.com/?cid=0x0:0xae940753bebf4207
hardware store,hardware store,Kec. Teminabuan,"Kabupaten Sorong Selatan, Papua Bar.","Kabupaten Sorong Selatan, Papua Bar.",PAPUA BARAT,,Indonesia,,-1.4418184,132.0109997,https://maps.google.com/?cid=0x0:0x26fd6623ef786a25
hardware store,Toko Elektronik,Vivan Robot,"G3CF+R37, jln.Teminabuan - Ayamaru, Keyen, Kec. Teminabuan, Kabupaten Sorong Selatan, Papua Bar. 98454","jln.Teminabuan - Ayamaru, Keyen, Kec. Teminabuan, Kabupaten Sorong Selatan",PAPUA BARAT,98454.0,Indonesia,81240348370.0,-1.4779587,132.0726677,https://maps.google.com/?cid=0x0:0x3f3ee404619c24d4
hardware store,Toko Ponsel,ILDHA ACCESSORIES,"H22G+358, Wermit, Kec. Teminabuan, Kabupaten Sorong Selatan, Papua Bar. 98454","Wermit, Kec. Teminabuan, Kabupaten Sorong Selatan",PAPUA BARAT,98454.0,Indonesia,,-1.4498437,132.0254411,https://maps.google.com/?cid=0x0:0x36fe027922cb366d
hardware store,Toko Elektronik,Paha Cell,"H256+62G, Kohoin, Kec. Teminabuan, Kabupaten Sorong Selatan, Papua Bar. 98454","Kohoin, Kec. Teminabuan, Kabupaten Sorong Selatan",PAPUA BARAT,98454.0,Indonesia,8134426716.0,-1.4419465,132.0100937,https://maps.google.com/?cid=0x0:0xec07b0320747d89d
hardware store,Toko Elektronik,Kaka Cell,"Wermit, Kec. Teminabuan, Kabupaten Sorong Selatan, Papua Bar. 98454","Kec. Teminabuan, Kabupaten Sorong Selatan",PAPUA BARAT,98454.0,Indonesia,82144444969.0,-1.4572374,132.0248322,https://maps.google.com/?cid=0x0:0x3e8f0d364e3341c4
hardware store,Pusat Perbelanjaan,Toko Anugrha,"Jl. Teminabuan Ayamaru, Wermit, Kec. Teminabuan, Kabupaten Sorong Selatan, Papua Bar. 98454","Wermit, Kec. Teminabuan, Kabupaten Sorong Selatan",PAPUA BARAT,98454.0,Indonesia,85395564530.0,-1.4507306,132.0254178,https://maps.google.com/?cid=0x0:0x5022914d97504e53
hardware store,Toko Swalayan,Toko Rahayu,"H22F+3X8, Jalan poros wermit, ayamaru, Kec. Teminabuan, Kabupaten Sorong Selatan, Papua Bar. 98454","Jalan poros wermit, ayamaru, Kec. Teminabuan, Kabupaten Sorong Selatan",PAPUA BARAT,98454.0,Indonesia,,-1.4498365,132.0249672,https://maps.google.com/?cid=0x0:0xae940753bebf4207
hardware store,Toko Perlengkapan Rumah,Toko Hardware,"Mangga Dua Mall Blok A/29 4th Floor, JL. Mangga Dua Raya, Mangga Dua Selatan, Sawah Besar, Jakarta, 10730, RT.11/RW.5, South Mangga Dua, Sawah Besar, Central Jakarta City, Jakarta 10730","JL. Mangga Dua Raya, Mangga Dua Selatan, Sawah Besar, Jakarta,",PAPUA BARAT,10730.0,Indonesia,216005107.0,-6.1362898,106.8253581,https://maps.google.com/?cid=0x0:0x74e79d6d61549694
hardware store,Toko umum,Toko Mini Palugada ToANa,"GG.JAMBU No.17, RT./RW/RW.03/02, Karang Asem Tim., Kec. Citeureup, Kabupaten Bogor, Jawa Barat 16810","RT./RW/RW.03/02, Karang Asem Tim., Kec. Citeureup, Kabupaten Bogor",PAPUA BARAT,16810.0,Indonesia,82246104011.0,-6.4921923,106.8800875,https://maps.google.com/?cid=0x0:0xa9ded79b269adee6
supermarket bangunan,Kantor Perusahaan,Kios Kayu Karya-Baru,"V222+59X, Kampung Wandum, Distrik Fokour, Kabupaten Sorong Selatan, Papua Bar.","Kabupaten Sorong Selatan, Papua Bar.",PAPUA BARAT,,Indonesia,85240295205.0,-1.1495167,132.0009738,https://maps.google.com/?cid=0x0:0xe1faf3d7b2cb1983
supermarket bangunan,Toko Kayu,CV.KARYA BARU PAPUA/KIOS KAYU BOMBANA,"G3CP+5MV, Unnamed Road, Keyen, Kec. Teminabuan, Kabupaten Sorong Selatan, Papua Bar. 98454","Unnamed Road, Keyen, Kec. Teminabuan, Kabupaten Sorong Selatan",PAPUA BARAT,98454.0,Indonesia,,-1.4795135,132.086671,https://maps.google.com/?cid=0x0:0xf3486f0de3941d90
supermarket bangunan,Layanan Transportasi,Bandara Inanwatan,"V5C7+W64, Mate, Distrik Inanwatan, Kabupaten Sorong Selatan, Papua Bar. 98455","Mate, Distrik Inanwatan, Kabupaten Sorong Selatan",PAPUA BARAT,98455.0,Indonesia,82196826597.0,-2.1277487,132.1630745,https://maps.google.com/?cid=0x0:0xd0b9c5c7d40453cc
supermarket bangunan,Pelabuhan sungai,Pelabuhan Inanwatan,"V5F9+CFX, Mate, Distrik Inanwatan, Kabupaten Sorong Selatan, Papua Bar. 98455","Mate, Distrik Inanwatan, Kabupaten Sorong Selatan",PAPUA BARAT,98455.0,Indonesia,,-2.1263931,132.1687373,https://maps.google.com/?cid=0x0:0xf5cc6ee00e3f7391
supermarket bangunan,supermarket bangunan,Kec. Matemani,"Kabupaten Sorong Selatan, Papua Bar.","Kabupaten Sorong Selatan, Papua Bar.",PAPUA BARAT,,Indonesia,,-1.9496392,132.2312838,https://maps.google.com/?cid=0x0:0xced62b996f227502
supermarket bangunan,Toko Bahan Bangunan,Toko Bangunan Abadi,"4862+H2G, Malaingkedi, Kec. Sorong Utara, Kota Sorong, Papua Bar. 98412","Malaingkedi, Kec. Sorong Utara, Kota Sorong",PAPUA BARAT,98412.0,Indonesia,81248762864.0,-0.8885625,131.3000781,https://maps.google.com/?cid=0x0:0xa4c5e3d6e0f0bf2b
supermarket bangunan,Toko Bahan Bangunan,Supermarket Multi Bangunan,"Jl Baru No.98, Wai Mhorock, Abepura, Jayapura City, Papua 99225","Wai Mhorock, Abepura, Jayapura City",PAPUA BARAT,99225.0,Indonesia,967588677.0,-2.6077336,140.6742812,https://maps.google.com/?cid=0x0:0x3b19f301c68f1d6f
supermarket bangunan,Toko Bahan Bangunan,NASYA BANGUNAN,"X8M9+469, Jl. Nusa Indah, Mariyai, Distrik Mariat, Kabupaten Sorong, Papua Bar. 98415","Jl. Nusa Indah, Mariyai, Distrik Mariat, Kabupaten Sorong",PAPUA BARAT,98415.0,Indonesia,,-1.0172176,131.3181156,https://maps.google.com/?cid=0x0:0x19e47aadec85996d
supermarket bangunan,supermarket bangunan,Papua Bar. 98455,"Kabupaten Sorong Selatan, Papua Bar.","Kabupaten Sorong Selatan, Papua Bar.",PAPUA BARAT,,Indonesia,,-1.9960008,132.3150993,https://maps.google.com/?cid=0x0:0x62c6b90297c3f1dd
supermarket bangunan,Toko Bahan Bangunan,Supermarket Multi Bangunan,"Jl Baru No.98, Wai Mhorock, Abepura, Jayapura City, Papua 99225","Wai Mhorock, Abepura, Jayapura City",PAPUA BARAT,99225.0,Indonesia,967588677.0,-2.6077336,140.6742812,https://maps.google.com/?cid=0x0:0x3b19f301c68f1d6f
supermarket bangunan,Toko Bahan Bangunan,"Papua Bangunan, CV PAPUA ABADI","Jl. Basuki Rahmat No.780, Klawuyuk, Distrik Sorong Timur, Kota Sorong, Papua Bar. 98416","Klawuyuk, Distrik Sorong Timur, Kota Sorong",PAPUA BARAT,98416.0,Indonesia,81332017550.0,-0.8954087,131.3186922,https://maps.google.com/?cid=0x0:0x851804bc3aa7f033
supermarket bangunan,Toko Swalayan,Toko Depo Bangunan,"379V+Q4W, Fak Fak Selatan, Distrik Fakfak, Kabupaten Fakfak, Papua Bar. 98611","Fak Fak Selatan, Distrik Fakfak, Kabupaten Fakfak",PAPUA BARAT,98611.0,Indonesia,81332930235.0,-2.9305033,132.292834,https://maps.google.com/?cid=0x0:0x8845a3bfe8af225c
supermarket bangunan,supermarket bangunan,Distrik Kokoda,"Kabupaten Sorong Selatan, Papua Bar.","Kabupaten Sorong Selatan, Papua Bar.",PAPUA BARAT,,Indonesia,,-2.1274352,132.4263464,https://maps.google.com/?cid=0x0:0xa783056c2a04f79f
supermarket bangunan,Toko Bahan Bangunan,Gudang Toko Depo Bangunan,"37FJ+7G5, Jl. Fakfak - Torea, Tanama, Distrik Fakfak, Kabupaten Fakfak, Papua Bar. 98614","Jl. Fakfak - Torea, Tanama, Distrik Fakfak, Kabupaten Fakfak",PAPUA BARAT,98614.0,Indonesia,,-2.9268666,132.2813702,https://maps.google.com/?cid=0x0:0x605ba6cbab94e804
supermarket bangunan,Toko Bahan Bangunan,TOKO BANGUNAN,"38G3+5PF, Fak Fak Utara, Distrik Fakfak, Kabupaten Fakfak, Papua Bar. 98651","Fak Fak Utara, Distrik Fakfak, Kabupaten Fakfak",PAPUA BARAT,98651.0,Indonesia,83121529512.0,-2.9245593,132.3042975,https://maps.google.com/?cid=0x0:0x3e3de1be5a573a7
supermarket bangunan,Pusat Perbelanjaan,Papua Supermarket  Dept. Store,"4869+F77 Bar, Sawagumu, Kec. Sorong Utara, Kota Sorong, Papua Bar. 98416","Sawagumu, Kec. Sorong Utara, Kota Sorong",PAPUA BARAT,98416.0,Indonesia,9513160123.0,-0.888831,131.3181847,https://maps.google.com/?cid=0x0:0x7b5f0926a74ad213
supermarket bangunan,Kantor Perusahaan,Supermarket GOTA,"4868+2X3, Jl. Sungai Maruni, Sawagumu, Distrik Sorong Timur, Kota Sorong, Papua Bar. 98416","Jl. Sungai Maruni, Sawagumu, Distrik Sorong Timur, Kota Sorong",PAPUA BARAT,98416.0,Indonesia,,-0.8900646,131.3173945,https://maps.google.com/?cid=0x0:0xe80a2989cd86300
supermarket bangunan,Toko Bahan Bangunan,"TOKO BANGUNAN , TOKO HARA II","Jl. Kakatua No.1, Klamasen, Distrik Mariat, Kabupaten Sorong, Papua Bar. 98416","Klamasen, Distrik Mariat, Kabupaten Sorong",PAPUA BARAT,98416.0,Indonesia,81259105399.0,-0.9953545,131.3468536,https://maps.google.com/?cid=0x0:0x51bb1160638e98ed
supermarket bangunan,Toko kopi,Super Depo Bangunan Cileungsi,"Jl. Raya Cikuda Wanaherang No.8B, Cileungsi, Kec. Cileungsi, Kabupaten Bogor, Jawa Barat 16820","Cileungsi, Kec. Cileungsi, Kabupaten Bogor",PAPUA BARAT,16820.0,Indonesia,,-6.4035654,106.956755,https://maps.google.com/?cid=0x0:0x7e309fd1ef6a0b3
supermarket bangunan,Pemasok Bahan Bangunan,Supermarket Bangunan Abadi ( Bangunan Abadi ) Meruya,"Jl. Meruya Ilir Raya No.13 3, RT.3/RW.2, Meruya Utara, Kec. Kembangan, Kota Jakarta Barat, Daerah Khusus Ibukota Jakarta 11610","RT.3/RW.2, Meruya Utara, Kec. Kembangan, Kota Jakarta Barat",PAPUA BARAT,11610.0,Indonesia,215856801.0,-6.1976477,106.7425118,https://maps.google.com/?cid=0x0:0x13872e6ebcfc2cac
supermarket bangunan,Toko bahan makanan,SBA (Supermarket Bangunan Abadi),"Jl. Pd. Kacang No.88B, Pd. Kacang Bar., Kec. Pd. Aren, Kota Tangerang Selatan, Banten 15226","Pd. Kacang Bar., Kec. Pd. Aren, Kota Tangerang Selatan",PAPUA BARAT,15226.0,Indonesia,2173460185.0,-6.254577,106.688324,https://maps.google.com/?cid=0x0:0x370ec3ee4dda53b
supermarket bangunan,Pemasok Bahan Bangunan,Depo Bangunan Tangerang Selatan,"Jl. Raya Serpong No.KM.2, Pakulonan, Kec. Serpong Utara, Kota Tangerang Selatan, Banten 15325","Pakulonan, Kec. Serpong Utara, Kota Tangerang Selatan",PAPUA BARAT,15325.0,Indonesia,2153120808.0,-6.2407101,106.6492227,https://maps.google.com/?cid=0x0:0x9a4b22c9292d3f53
supermarket bangunan,Toko Bahan Bangunan,Supermarket Multi Bangunan,"Jl Baru No.98, Wai Mhorock, Abepura, Jayapura City, Papua 99225","Wai Mhorock, Abepura, Jayapura City",PAPUA BARAT,99225.0,Indonesia,967588677.0,-2.6077336,140.6742812,https://maps.google.com/?cid=0x0:0x3b19f301c68f1d6f
supermarket bangunan,supermarket bangunan,Kec. Kokoda Utara,"Kabupaten Sorong Selatan, Papua Bar.","Kabupaten Sorong Selatan, Papua Bar.",PAPUA BARAT,,Indonesia,,-1.8762266,132.3641297,https://maps.google.com/?cid=0x0:0xa4294849d564b6d1
supermarket bangunan,Toko Bahan Bangunan,Toko Bangunan Depo Makmur,"38XF+C65, Jl. Basuki Rahmat, Klawuyuk, Distrik Sorong Timur, Kota Sorong, Papua Bar. 98416","Jl. Basuki Rahmat, Klawuyuk, Distrik Sorong Timur, Kota Sorong",PAPUA BARAT,98416.0,Indonesia,,-0.9013289,131.3229895,https://maps.google.com/?cid=0x0:0x371e6c734b67edcc
supermarket bangunan,Toko Bahan Bangunan,Toko Bangunan Abadi,"4862+H2G, Malaingkedi, Kec. Sorong Utara, Kota Sorong, Papua Bar. 98412","Malaingkedi, Kec. Sorong Utara, Kota Sorong",PAPUA BARAT,98412.0,Indonesia,81248762864.0,-0.8885625,131.3000781,https://maps.google.com/?cid=0x0:0xa4c5e3d6e0f0bf2b
supermarket bangunan,Pusat Perbelanjaan,Papua Supermarket  Dept. Store,"4869+F77 Bar, Sawagumu, Kec. Sorong Utara, Kota Sorong, Papua Bar. 98416","Sawagumu, Kec. Sorong Utara, Kota Sorong",PAPUA BARAT,98416.0,Indonesia,9513160123.0,-0.888831,131.3181847,https://maps.google.com/?cid=0x0:0x7b5f0926a74ad213
supermarket bangunan,Kantor Perusahaan,Supermarket GOTA,"4868+2X3, Jl. Sungai Maruni, Sawagumu, Distrik Sorong Timur, Kota Sorong, Papua Bar. 98416","Jl. Sungai Maruni, Sawagumu, Distrik Sorong Timur, Kota Sorong",PAPUA BARAT,98416.0,Indonesia,,-0.8900646,131.3173945,https://maps.google.com/?cid=0x0:0xe80a2989cd86300
supermarket bangunan,Toko bahan makanan,Multi Mart,"4788+P94, Klaligi, Kecamatan Sorong Manoi, Kota Sorong, Papua Bar. 98412","Klaligi, Kecamatan Sorong Manoi, Kota Sorong",PAPUA BARAT,98412.0,Indonesia,,-0.8832273,131.2659438,https://maps.google.com/?cid=0x0:0x10d83d9da3d8a49d
supermarket bangunan,Toko Bahan Bangunan,"TOKO BANGUNAN , TOKO HARA II","Jl. Kakatua No.1, Klamasen, Distrik Mariat, Kabupaten Sorong, Papua Bar. 98416","Klamasen, Distrik Mariat, Kabupaten Sorong",PAPUA BARAT,98416.0,Indonesia,81259105399.0,-0.9953545,131.3468536,https://maps.google.com/?cid=0x0:0x51bb1160638e98ed
supermarket bangunan,Toko Batu,Sinar Berkah Bata Merah Group,"Jl. Poros No.SP 4, Makbalim, Mayamuk, Kabupaten Sorong, Papua Bar. 98451","Makbalim, Mayamuk, Kabupaten Sorong",PAPUA BARAT,98451.0,Indonesia,82336170727.0,-1.0734892,131.2867027,https://maps.google.com/?cid=0x0:0x7ec035d900a1b4ed
supermarket bangunan,Toko Cat,Toko Bangunan Abid Sejahtera - Waisai,"Jl. Jend. Sudirman No.30, Waisai, Distrik Kota Waisai, Kabupaten Raja Ampat, Papua Bar. 98482","Waisai, Distrik Kota Waisai, Kabupaten Raja Ampat",PAPUA BARAT,98482.0,Indonesia,82248014806.0,-0.4206038,130.8216501,https://maps.google.com/?cid=0x0:0x635cf5cb88ebe389
supermarket bangunan,supermarket bangunan,Papua Bar.,,Papua Bar.,PAPUA BARAT,,Indonesia,,-1.3361154,133.1747162,https://maps.google.com/?cid=0x0:0x5349c1f8c5c7cb62
supermarket bangunan,Toko Bahan Bangunan,"Toko Bangunan, Toko Linda","38PF+GPM, Klamana, Distrik Sorong Timur, Kota Sorong, Papua Bar. 98416","Klamana, Distrik Sorong Timur, Kota Sorong",PAPUA BARAT,98416.0,Indonesia,81935935177.0,-0.9136625,131.3242969,https://maps.google.com/?cid=0x0:0xf74d7b929b542cb5
supermarket bangunan,Toko Bahan Bangunan,"Papua Bangunan, CV PAPUA ABADI","Jl. Basuki Rahmat No.780, Klawuyuk, Distrik Sorong Timur, Kota Sorong, Papua Bar. 98416","Klawuyuk, Distrik Sorong Timur, Kota Sorong",PAPUA BARAT,98416.0,Indonesia,81332017550.0,-0.8954087,131.3186922,https://maps.google.com/?cid=0x0:0x851804bc3aa7f033
supermarket bangunan,Toko Bahan Bangunan,Supermarket Multi Bangunan,"Jl Baru No.98, Wai Mhorock, Abepura, Jayapura City, Papua 99225","Wai Mhorock, Abepura, Jayapura City",PAPUA BARAT,99225.0,Indonesia,967588677.0,-2.6077336,140.6742812,https://maps.google.com/?cid=0x0:0x3b19f301c68f1d6f
supermarket bangunan,Toko Bahan Bangunan,Toko bangunan,"27PW+VPW Jln container kilo 24, Malawele, Kec. Aimas, Kabupaten Sorong, Papua Bar.","Kabupaten Sorong, Papua Bar.",PAPUA BARAT,,Indonesia,85172079023.0,-0.9627652,131.2968432,https://maps.google.com/?cid=0x0:0x8dbb8d4821ff5585
supermarket bangunan,Toko Bahan Bangunan,Toko Bangunan Depo Makmur,"38XF+C65, Jl. Basuki Rahmat, Klawuyuk, Distrik Sorong Timur, Kota Sorong, Papua Bar. 98416","Jl. Basuki Rahmat, Klawuyuk, Distrik Sorong Timur, Kota Sorong",PAPUA BARAT,98416.0,Indonesia,,-0.9013289,131.3229895,https://maps.google.com/?cid=0x0:0x371e6c734b67edcc
supermarket bangunan,Toko Bahan Bangunan,"TOKO BANGUNAN , TOKO HARA II","Jl. Kakatua No.1, Klamasen, Distrik Mariat, Kabupaten Sorong, Papua Bar. 98416","Klamasen, Distrik Mariat, Kabupaten Sorong",PAPUA BARAT,98416.0,Indonesia,81259105399.0,-0.9953545,131.3468536,https://maps.google.com/?cid=0x0:0x51bb1160638e98ed
supermarket bangunan,Toko Bahan Bangunan,DEPO BANGUNAN SINAR MATAHARI,"379X+243, Jl. Fakfak - Torea, Wagom Sel., Distrik Fakfak, Kabupaten Fakfak, Papua Bar. 98651","Jl. Fakfak - Torea, Wagom Sel., Distrik Fakfak, Kabupaten Fakfak",PAPUA BARAT,98651.0,Indonesia,81232387999.0,-2.9324935,132.2978043,https://maps.google.com/?cid=0x0:0x35e53a9d40e95e48
supermarket bangunan,Toko bahan makanan,Multi Mart,"4788+P94, Klaligi, Kecamatan Sorong Manoi, Kota Sorong, Papua Bar. 98412","Klaligi, Kecamatan Sorong Manoi, Kota Sorong",PAPUA BARAT,98412.0,Indonesia,,-0.8832273,131.2659438,https://maps.google.com/?cid=0x0:0x10d83d9da3d8a49d
supermarket bangunan,Toko,Hidayat Kios,"Jl. Kalimantan No.56, Klabala, Distrik Sorong Barat, Kota Sorong, Papua Bar. 98411","Klabala, Distrik Sorong Barat, Kota Sorong",PAPUA BARAT,98411.0,Indonesia,85398930505.0,-0.8678398,131.2533224,https://maps.google.com/?cid=0x0:0x5ee206d74ffb57e0
supermarket bangunan,supermarket bangunan,Toko bangunan hendra,"X7CX+MHG, Jl. Nusa Indah, Makbusun, Mayamuk, Kabupaten Sorong, Papua Bar. 98451","Jl. Nusa Indah, Makbusun, Mayamuk, Kabupaten Sorong",PAPUA BARAT,98451.0,Indonesia,,-1.0283027,131.2989432,https://maps.google.com/?cid=0x0:0x134d9dadde629578
supermarket bangunan,Toko Bahan Bangunan,Supermarket Acc Bangunan,"Jl. Raya Sawangan No.18, Depok I, Kec. Pancoran Mas, Kota Depok, Jawa Barat 16436","Depok I, Kec. Pancoran Mas, Kota Depok",PAPUA BARAT,16436.0,Indonesia,87781340350.0,-6.398724,106.81099,https://maps.google.com/?cid=0x0:0xa5cc5981158e131e
supermarket bangunan,Toko Bahan Bangunan,TOKO BERKAT BANGUNAN,"484H+F8H, Klawuyuk, Distrik Sorong Timur, Kota Sorong, Papua Bar. 98416","Klawuyuk, Distrik Sorong Timur, Kota Sorong",PAPUA BARAT,98416.0,Indonesia,,-0.8938166,131.3283644,https://maps.google.com/?cid=0x0:0x1396daf0695dfa01
supermarket bangunan,Toko Bahan Bangunan,Mitra Bangunan Supermarket Bekasi,"Jl. Ir H Juanda No.99 E-G, RT.007/RW.001, Duren Jaya, Kec. Bekasi Tim., Kota Bks, Jawa Barat 17111","RT.007/RW.001, Duren Jaya, Kec. Bekasi Tim., Kota Bks",PAPUA BARAT,17111.0,Indonesia,,-6.2478223,107.0194033,https://maps.google.com/?cid=0x0:0x93b3c40f87f5e136
supermarket bangunan,supermarket bangunan,Papua Bar. 98454,"Kabupaten Sorong Selatan, Papua Bar.","Kabupaten Sorong Selatan, Papua Bar.",PAPUA BARAT,,Indonesia,,-1.4196083,131.9989718,https://maps.google.com/?cid=0x0:0x85355e3327b207ba
supermarket bangunan,Toko Bahan Bangunan,Toko Bangunan Depo Makmur,"38XF+C65, Jl. Basuki Rahmat, Klawuyuk, Distrik Sorong Timur, Kota Sorong, Papua Bar. 98416","Jl. Basuki Rahmat, Klawuyuk, Distrik Sorong Timur, Kota Sorong",PAPUA BARAT,98416.0,Indonesia,,-0.9013289,131.3229895,https://maps.google.com/?cid=0x0:0x371e6c734b67edcc
supermarket bangunan,Toko Bahan Bangunan,Supermarket Multi Bangunan,"Jl Baru No.98, Wai Mhorock, Abepura, Jayapura City, Papua 99225","Wai Mhorock, Abepura, Jayapura City",PAPUA BARAT,99225.0,Indonesia,967588677.0,-2.6077336,140.6742812,https://maps.google.com/?cid=0x0:0x3b19f301c68f1d6f
supermarket bangunan,Toko Bahan Bangunan,Toko Bangunan Abadi,"4862+H2G, Malaingkedi, Kec. Sorong Utara, Kota Sorong, Papua Bar. 98412","Malaingkedi, Kec. Sorong Utara, Kota Sorong",PAPUA BARAT,98412.0,Indonesia,81248762864.0,-0.8885625,131.3000781,https://maps.google.com/?cid=0x0:0xa4c5e3d6e0f0bf2b
supermarket bangunan,Toko Bahan Bangunan,TOKO BERKAT BANGUNAN,"484H+F8H, Klawuyuk, Distrik Sorong Timur, Kota Sorong, Papua Bar. 98416","Klawuyuk, Distrik Sorong Timur, Kota Sorong",PAPUA BARAT,98416.0,Indonesia,,-0.8938166,131.3283644,https://maps.google.com/?cid=0x0:0x1396daf0695dfa01
supermarket bangunan,Toko Bahan Bangunan,"Papua Bangunan, CV PAPUA ABADI","Jl. Basuki Rahmat No.780, Klawuyuk, Distrik Sorong Timur, Kota Sorong, Papua Bar. 98416","Klawuyuk, Distrik Sorong Timur, Kota Sorong",PAPUA BARAT,98416.0,Indonesia,81332017550.0,-0.8954087,131.3186922,https://maps.google.com/?cid=0x0:0x851804bc3aa7f033
supermarket bangunan,Toko Bahan Bangunan,Toko bangunan,"27PW+VPW Jln container kilo 24, Malawele, Kec. Aimas, Kabupaten Sorong, Papua Bar.","Kabupaten Sorong, Papua Bar.",PAPUA BARAT,,Indonesia,85172079023.0,-0.9627652,131.2968432,https://maps.google.com/?cid=0x0:0x8dbb8d4821ff5585
supermarket bangunan,Toko Bahan Bangunan,Supermarket Acc Bangunan,"Jl. Raya Sawangan No.18, Depok I, Kec. Pancoran Mas, Kota Depok, Jawa Barat 16436","Depok I, Kec. Pancoran Mas, Kota Depok",PAPUA BARAT,16436.0,Indonesia,87781340350.0,-6.398724,106.81099,https://maps.google.com/?cid=0x0:0xa5cc5981158e131e
supermarket bangunan,Toko Bahan Bangunan,Tirta Bangunan Supermarket,"4, Jl. Tole Iskandar Ruko Griya Depok B11 No.1, Mekar Jaya, Kec. Sukmajaya, Kota Depok, Jawa Barat 16412","Jl. Tole Iskandar Ruko Griya Depok B11 No.1, Mekar Jaya, Kec. Sukmajaya, Kota Depok",PAPUA BARAT,16412.0,Indonesia,2177821139.0,-6.4038263,106.8401994,https://maps.google.com/?cid=0x0:0x88c18c4cc1dd79fa
supermarket bangunan,Pemasok Bahan Bangunan,DUNIA BANGUNAN (SUPERMARKET BAHAN BANGUNAN),"Jl. Canadian Broadway, Limus Nunggal, Kec. Cileungsi, Kabupaten Bogor, Jawa Barat 16820","Limus Nunggal, Kec. Cileungsi, Kabupaten Bogor",PAPUA BARAT,16820.0,Indonesia,81388321160.0,-6.3679437,106.971234,https://maps.google.com/?cid=0x0:0xcb7767d95296f809
supermarket bangunan,Toko Bahan Bangunan,Tirta Bangunan Supermarket,"Jl. Raya Sawangan No.88, Pancoran MAS, Kec. Pancoran Mas, Kota Depok, Jawa Barat 16436","Pancoran MAS, Kec. Pancoran Mas, Kota Depok",PAPUA BARAT,16436.0,Indonesia,2177216007.0,-6.3956644,106.8033311,https://maps.google.com/?cid=0x0:0xb2a503adeb35329d
supermarket bangunan,Toko Bahan Bangunan,Super Bangunan Supermarket Bahan Bangun No #1,"Jl. Raya Cikaret No.8, Harapan Jaya, Kec. Cibinong, Kabupaten Bogor, Jawa Barat 16914","Harapan Jaya, Kec. Cibinong, Kabupaten Bogor",PAPUA BARAT,16914.0,Indonesia,85710923235.0,-6.4669858,106.8393338,https://maps.google.com/?cid=0x0:0x53373791abd65da6
supermarket bangunan,Toko Bahan Bangunan,Tirta Bangunan Supermarket,"Jl. Siliwangi No.1, Depok, Kec. Pancoran Mas, Kota Depok, Jawa Barat 16431","Depok, Kec. Pancoran Mas, Kota Depok",PAPUA BARAT,16431.0,Indonesia,2177211585.0,-6.3994435,106.820465,https://maps.google.com/?cid=0x0:0x6c5691b15a29e9f8
supermarket bangunan,Toko Bahan Bangunan,Supermarket Bahan Bangunan Tirta Bangunan,"Jl. Raya Babakan Madang, Sentul, Kec. Babakan Madang, Kabupaten Bogor, Jawa Barat 16810","Sentul, Kec. Babakan Madang, Kabupaten Bogor",PAPUA BARAT,16810.0,Indonesia,8881300271.0,-6.5601203,106.8537161,https://maps.google.com/?cid=0x0:0xc9e77a7f8f9d2f66
supermarket bangunan,supermarket bangunan,Kec. Matemani,"Kabupaten Sorong Selatan, Papua Bar.","Kabupaten Sorong Selatan, Papua Bar.",PAPUA BARAT,,Indonesia,,-1.9496392,132.2312838,https://maps.google.com/?cid=0x0:0xced62b996f227502
supermarket bangunan,Toko Bahan Bangunan,Toko Bangunan Depo Makmur,"38XF+C65, Jl. Basuki Rahmat, Klawuyuk, Distrik Sorong Timur, Kota Sorong, Papua Bar. 98416","Jl. Basuki Rahmat, Klawuyuk, Distrik Sorong Timur, Kota Sorong",PAPUA BARAT,98416.0,Indonesia,,-0.9013289,131.3229895,https://maps.google.com/?cid=0x0:0x371e6c734b67edcc
supermarket bangunan,Toko Bahan Bangunan,Supermarket Multi Bangunan,"Jl Baru No.98, Wai Mhorock, Abepura, Jayapura City, Papua 99225","Wai Mhorock, Abepura, Jayapura City",PAPUA BARAT,99225.0,Indonesia,967588677.0,-2.6077336,140.6742812,https://maps.google.com/?cid=0x0:0x3b19f301c68f1d6f
supermarket bangunan,Toko bahan makanan,Multi Mart,"4788+P94, Klaligi, Kecamatan Sorong Manoi, Kota Sorong, Papua Bar. 98412","Klaligi, Kecamatan Sorong Manoi, Kota Sorong",PAPUA BARAT,98412.0,Indonesia,,-0.8832273,131.2659438,https://maps.google.com/?cid=0x0:0x10d83d9da3d8a49d
supermarket bangunan,Toko Bahan Bangunan,"Papua Bangunan, CV PAPUA ABADI","Jl. Basuki Rahmat No.780, Klawuyuk, Distrik Sorong Timur, Kota Sorong, Papua Bar. 98416","Klawuyuk, Distrik Sorong Timur, Kota Sorong",PAPUA BARAT,98416.0,Indonesia,81332017550.0,-0.8954087,131.3186922,https://maps.google.com/?cid=0x0:0x851804bc3aa7f033
supermarket bangunan,Minimarket,Minimarket Mandala,"47J3+X3M, Jl. Sam Ratulangi, Klasuur, Distrik Sorong, Kota Sorong, Papua Bar. 98411","Jl. Sam Ratulangi, Klasuur, Distrik Sorong, Kota Sorong",PAPUA BARAT,98411.0,Indonesia,,-0.8675297,131.2526752,https://maps.google.com/?cid=0x0:0x7b3f61517b7f189d
supermarket bangunan,Toko Bahan Bangunan,Toko Rahayu Babo,"FF52+F2R, Unnamed Road, Nusei, Babo, Kabupaten Teluk Bintuni, Papua Bar. 98363","Unnamed Road, Nusei, Babo, Kabupaten Teluk Bintuni",PAPUA BARAT,98363.0,Indonesia,85244200777.0,-2.5412733,133.45003,https://maps.google.com/?cid=0x0:0x2d6ca9cad594f391
supermarket bangunan,Pusat Perbelanjaan,Papua Supermarket  Dept. Store,"4869+F77 Bar, Sawagumu, Kec. Sorong Utara, Kota Sorong, Papua Bar. 98416","Sawagumu, Kec. Sorong Utara, Kota Sorong",PAPUA BARAT,98416.0,Indonesia,9513160123.0,-0.888831,131.3181847,https://maps.google.com/?cid=0x0:0x7b5f0926a74ad213
supermarket bangunan,Toko Bahan Bangunan,Toko Karya Abadi,"WJ4X+24P, Tuasai, Distrik Bintuni, Kabupaten Teluk Bintuni, Papua Bar. 98364","Tuasai, Distrik Bintuni, Kabupaten Teluk Bintuni",PAPUA BARAT,98364.0,Indonesia,82244443838.0,-2.094909,133.6478193,https://maps.google.com/?cid=0x0:0x860a78b44fea4433
supermarket bangunan,Toko Bahan Bangunan,Tokoh bagunan fajriani h.m,"WJ3W+GJ5, Tuasai, Distrik Bintuni, Kabupaten Teluk Bintuni, Papua Bar. 98364","Tuasai, Distrik Bintuni, Kabupaten Teluk Bintuni",PAPUA BARAT,98364.0,Indonesia,,-2.0953093,133.6466562,https://maps.google.com/?cid=0x0:0x107c1e110f767af6
supermarket bangunan,Toko Batu,Sinar Berkah Bata Merah Group,"Jl. Poros No.SP 4, Makbalim, Mayamuk, Kabupaten Sorong, Papua Bar. 98451","Makbalim, Mayamuk, Kabupaten Sorong",PAPUA BARAT,98451.0,Indonesia,82336170727.0,-1.0734892,131.2867027,https://maps.google.com/?cid=0x0:0x7ec035d900a1b4ed
supermarket bangunan,supermarket bangunan,Toko Multi Depo Bangunan,"489C+P37, Jl. Sapta Taruna, Matalamagi, Kec. Sorong Utara, Kota Sorong, Papua Bar. 98412","Jl. Sapta Taruna, Matalamagi, Kec. Sorong Utara, Kota Sorong",PAPUA BARAT,98412.0,Indonesia,,-0.8807119,131.3201752,https://maps.google.com/?cid=0x0:0x3f44e9ea7f2af59f
supermarket bangunan,Pemasok Bahan Bangunan,Multi Bangunan. UD,"JL. Jend. A. Yani, No. 25, Kampung Baru, Sorong Barat, Klakublik, Distrik Sorong, Kota Sorong, Papua Bar. 98413","No. 25, Kampung Baru, Sorong Barat, Klakublik, Distrik Sorong, Kota Sorong",PAPUA BARAT,98413.0,Indonesia,951324335.0,-0.872693,131.259041,https://maps.google.com/?cid=0x0:0xe75bf9fbb4335518
supermarket bangunan,supermarket bangunan,Distrik Moswaren,"Kabupaten Sorong Selatan, Papua Bar.","Kabupaten Sorong Selatan, Papua Bar.",PAPUA BARAT,,Indonesia,,-1.4917637,132.2410573,https://maps.google.com/?cid=0x0:0xc435d4289dbbc461
supermarket bangunan,Toko Bahan Bangunan,Supermarket Multi Bangunan,"Jl Baru No.98, Wai Mhorock, Abepura, Jayapura City, Papua 99225","Wai Mhorock, Abepura, Jayapura City",PAPUA BARAT,99225.0,Indonesia,967588677.0,-2.6077336,140.6742812,https://maps.google.com/?cid=0x0:0x3b19f301c68f1d6f
supermarket bangunan,Toko Bahan Bangunan,Toko Bangunan Abadi,"4862+H2G, Malaingkedi, Kec. Sorong Utara, Kota Sorong, Papua Bar. 98412","Malaingkedi, Kec. Sorong Utara, Kota Sorong",PAPUA BARAT,98412.0,Indonesia,81248762864.0,-0.8885625,131.3000781,https://maps.google.com/?cid=0x0:0xa4c5e3d6e0f0bf2b
supermarket bangunan,Toko Bahan Bangunan,Toko Bangunan Depo Makmur,"38XF+C65, Jl. Basuki Rahmat, Klawuyuk, Distrik Sorong Timur, Kota Sorong, Papua Bar. 98416","Jl. Basuki Rahmat, Klawuyuk, Distrik Sorong Timur, Kota Sorong",PAPUA BARAT,98416.0,Indonesia,,-0.9013289,131.3229895,https://maps.google.com/?cid=0x0:0x371e6c734b67edcc
supermarket bangunan,Toko Bahan Bangunan,Toko Multibangunan,"4858+M3H, Bar, Sawagumu, Kec. Sorong Utara, Kota Sorong, Papua Bar. 98416","Bar, Sawagumu, Kec. Sorong Utara, Kota Sorong",PAPUA BARAT,98416.0,Indonesia,87896387564.0,-0.8908047,131.3152343,https://maps.google.com/?cid=0x0:0x71e3ca6ad4eb69f9
supermarket bangunan,Pemasok Bahan Bangunan,Toko bangunan Sumber Makmur,"32CM+75G, Jl. Manokwari - Maruni, Anday, Distrik Manokwari, Kabupaten Manokwari, Papua Bar. 98315","Jl. Manokwari - Maruni, Anday, Distrik Manokwari, Kabupaten Manokwari",PAPUA BARAT,98315.0,Indonesia,8114846060.0,-0.9293075,134.0329487,https://maps.google.com/?cid=0x0:0xa0a85c7270dde255
supermarket bangunan,Toko Bahan Bangunan,Toko Multi Bangunan,"Q97H+9V2, Sarafambai, Kec. Waropen Bawah, Kabupaten Waropen, Papua 98261","Sarafambai, Kec. Waropen Bawah, Kabupaten Waropen",PAPUA BARAT,98261.0,Indonesia,,-2.2366153,136.3796343,https://maps.google.com/?cid=0x0:0x8fe10ca526096f47
supermarket bangunan,Toko Bahan Bangunan,TOKO BERKAT BANGUNAN,"484H+F8H, Klawuyuk, Distrik Sorong Timur, Kota Sorong, Papua Bar. 98416","Klawuyuk, Distrik Sorong Timur, Kota Sorong",PAPUA BARAT,98416.0,Indonesia,,-0.8938166,131.3283644,https://maps.google.com/?cid=0x0:0x1396daf0695dfa01
supermarket bangunan,Toko Bahan Bangunan,"Papua Bangunan, CV PAPUA ABADI","Jl. Basuki Rahmat No.780, Klawuyuk, Distrik Sorong Timur, Kota Sorong, Papua Bar. 98416","Klawuyuk, Distrik Sorong Timur, Kota Sorong",PAPUA BARAT,98416.0,Indonesia,81332017550.0,-0.8954087,131.3186922,https://maps.google.com/?cid=0x0:0x851804bc3aa7f033
supermarket bangunan,Toko Bahan Bangunan,Fajar Bangunan,"Sowi, Distrik Manokwari, Kabupaten Manokwari, Papua Bar. 98315","Distrik Manokwari, Kabupaten Manokwari",PAPUA BARAT,98315.0,Indonesia,,-0.9062643,134.0359839,https://maps.google.com/?cid=0x0:0x9d0563299ba4e3f6
supermarket bangunan,Toko Elektronik,Toko Bangunan Sumber Baru,"SP3, Aimasi, Jl. Poros, Distrik Prafi, Kabupaten Manokwari, Papua Bar. 98356","Aimasi, Jl. Poros, Distrik Prafi, Kabupaten Manokwari",PAPUA BARAT,98356.0,Indonesia,81234807007.0,-0.883667,133.820223,https://maps.google.com/?cid=0x0:0x7475be84d164c6b6
supermarket bangunan,Toko Bahan Bangunan,Toko bangunan,"27PW+VPW Jln container kilo 24, Malawele, Kec. Aimas, Kabupaten Sorong, Papua Bar.","Kabupaten Sorong, Papua Bar.",PAPUA BARAT,,Indonesia,85172079023.0,-0.9627652,131.2968432,https://maps.google.com/?cid=0x0:0x8dbb8d4821ff5585
supermarket bangunan,Toko Bahan Bangunan,Toko Bangunan AURORA ABADI Distributor Lampu LED VDR,"Jl. Tuturuga, Klamalu, Distrik Mariat, Kabupaten Sorong, Papua Bar. 98416","Klamalu, Distrik Mariat, Kabupaten Sorong",PAPUA BARAT,98416.0,Indonesia,82239496309.0,-1.0002603,131.3432543,https://maps.google.com/?cid=0x0:0x8d8d01a10734bfdc
supermarket bangunan,Toko Bahan Bangunan,"Toko Bangunan, Toko Linda","38PF+GPM, Klamana, Distrik Sorong Timur, Kota Sorong, Papua Bar. 98416","Klamana, Distrik Sorong Timur, Kota Sorong",PAPUA BARAT,98416.0,Indonesia,81935935177.0,-0.9136625,131.3242969,https://maps.google.com/?cid=0x0:0xf74d7b929b542cb5
supermarket bangunan,supermarket bangunan,Papua Bar. 98454,"Kabupaten Sorong Selatan, Papua Bar.","Kabupaten Sorong Selatan, Papua Bar.",PAPUA BARAT,,Indonesia,,-1.4196083,131.9989718,https://maps.google.com/?cid=0x0:0x85355e3327b207ba
supermarket bangunan,Toko Bahan Bangunan,Supermarket Multi Bangunan,"Jl Baru No.98, Wai Mhorock, Abepura, Jayapura City, Papua 99225","Wai Mhorock, Abepura, Jayapura City",PAPUA BARAT,99225.0,Indonesia,967588677.0,-2.6077336,140.6742812,https://maps.google.com/?cid=0x0:0x3b19f301c68f1d6f
supermarket bangunan,Toko Bahan Bangunan,"Papua Bangunan, CV PAPUA ABADI","Jl. Basuki Rahmat No.780, Klawuyuk, Distrik Sorong Timur, Kota Sorong, Papua Bar. 98416","Klawuyuk, Distrik Sorong Timur, Kota Sorong",PAPUA BARAT,98416.0,Indonesia,81332017550.0,-0.8954087,131.3186922,https://maps.google.com/?cid=0x0:0x851804bc3aa7f033
supermarket bangunan,Toko Bahan Bangunan,Toko Bangunan Abadi,"4862+H2G, Malaingkedi, Kec. Sorong Utara, Kota Sorong, Papua Bar. 98412","Malaingkedi, Kec. Sorong Utara, Kota Sorong",PAPUA BARAT,98412.0,Indonesia,81248762864.0,-0.8885625,131.3000781,https://maps.google.com/?cid=0x0:0xa4c5e3d6e0f0bf2b
supermarket bangunan,Toko Bahan Bangunan,Toko Multibangunan,"4858+M3H, Bar, Sawagumu, Kec. Sorong Utara, Kota Sorong, Papua Bar. 98416","Bar, Sawagumu, Kec. Sorong Utara, Kota Sorong",PAPUA BARAT,98416.0,Indonesia,87896387564.0,-0.8908047,131.3152343,https://maps.google.com/?cid=0x0:0x71e3ca6ad4eb69f9
supermarket bangunan,Toko Bahan Bangunan,Toko bangunan abadi 2,"HRGF+HG5, Waisai, Kec. Waigeo Sel., Kabupaten Raja Ampat, Papua Bar. 98482","Waisai, Kec. Waigeo Sel., Kabupaten Raja Ampat",PAPUA BARAT,98482.0,Indonesia,82175242539.0,-0.4236212,130.8238502,https://maps.google.com/?cid=0x0:0xb39b3321d3629975
supermarket bangunan,supermarket bangunan,Papua Bar. 98456,Papua Bar.,Papua Bar.,PAPUA BARAT,,Indonesia,,-1.2191286,131.8799408,https://maps.google.com/?cid=0x0:0x1193e0fa67947a8b
supermarket bangunan,Toko Bahan Bangunan,Toko Bangunan Depo Makmur,"38XF+C65, Jl. Basuki Rahmat, Klawuyuk, Distrik Sorong Timur, Kota Sorong, Papua Bar. 98416","Jl. Basuki Rahmat, Klawuyuk, Distrik Sorong Timur, Kota Sorong",PAPUA BARAT,98416.0,Indonesia,,-0.9013289,131.3229895,https://maps.google.com/?cid=0x0:0x371e6c734b67edcc
supermarket bangunan,Toko Bahan Bangunan,TOKO BANGUNAN SENTOSA SEJAHTERA,"Jl. Buncis, Malawele, Kec. Aimas, Kabupaten Sorong, Papua Bar. 98414","Malawele, Kec. Aimas, Kabupaten Sorong",PAPUA BARAT,98414.0,Indonesia,82230303070.0,-0.9569579,131.3083493,https://maps.google.com/?cid=0x0:0x2605c4b574a6037e
supermarket bangunan,Toko Bahan Bangunan,TOKO TIWI BANGUNAN,"47CX+XPP, Jl. F Kalasuat, Klagete, Kec. Sorong Utara, Kota Sorong, Papua Bar. 98412","Jl. F Kalasuat, Klagete, Kec. Sorong Utara, Kota Sorong",PAPUA BARAT,98412.0,Indonesia,,-0.8775392,131.2993294,https://maps.google.com/?cid=0x0:0x9526392261261f32
supermarket bangunan,Toko Bahan Bangunan,"Papua Bangunan, CV PAPUA ABADI","Jl. Basuki Rahmat No.780, Klawuyuk, Distrik Sorong Timur, Kota Sorong, Papua Bar. 98416","Klawuyuk, Distrik Sorong Timur, Kota Sorong",PAPUA BARAT,98416.0,Indonesia,81332017550.0,-0.8954087,131.3186922,https://maps.google.com/?cid=0x0:0x851804bc3aa7f033
supermarket bangunan,Toko Bahan Bangunan,Sumber Bangunan Toko,"JL. R.A. Kartini, No. 6, Rufey, Sorong Barat, Rufei, Distrik Sorong, Kota Sorong, Papua Bar. 98412","No. 6, Rufey, Sorong Barat, Rufei, Distrik Sorong, Kota Sorong",PAPUA BARAT,98412.0,Indonesia,951332543.0,-0.86248,131.249499,https://maps.google.com/?cid=0x0:0x7fe0b52c002a4cd7
supermarket bangunan,Toko Bahan Bangunan,Toko Rumah Bangunan,"28H3+5Q3, Jl. Wortel, Unit II, Malawele, Kec. Aimas, Kabupaten Sorong, Papua Bar. 98414","Jl. Wortel, Unit II, Malawele, Kec. Aimas, Kabupaten Sorong",PAPUA BARAT,98414.0,Indonesia,,-0.9721065,131.304426,https://maps.google.com/?cid=0x0:0xce43b106e3cc4b71
supermarket bangunan,Toko Bahan Bangunan,NASYA BANGUNAN,"X8M9+469, Jl. Nusa Indah, Mariyai, Distrik Mariat, Kabupaten Sorong, Papua Bar. 98415","Jl. Nusa Indah, Mariyai, Distrik Mariat, Kabupaten Sorong",PAPUA BARAT,98415.0,Indonesia,,-1.0172176,131.3181156,https://maps.google.com/?cid=0x0:0x19e47aadec85996d
supermarket bangunan,Toko Bahan Bangunan,Supermarket Multi Bangunan,"Jl Baru No.98, Wai Mhorock, Abepura, Jayapura City, Papua 99225","Wai Mhorock, Abepura, Jayapura City",PAPUA BARAT,99225.0,Indonesia,967588677.0,-2.6077336,140.6742812,https://maps.google.com/?cid=0x0:0x3b19f301c68f1d6f
supermarket bangunan,Kantor Perusahaan,Kios Kayu Karya-Baru,"V222+59X, Kampung Wandum, Distrik Fokour, Kabupaten Sorong Selatan, Papua Bar.","Kabupaten Sorong Selatan, Papua Bar.",PAPUA BARAT,,Indonesia,85240295205.0,-1.1495167,132.0009738,https://maps.google.com/?cid=0x0:0xe1faf3d7b2cb1983
supermarket bangunan,Toko Bahan Bangunan,Toko Bangunan Mega Jaya,"28H4+322, Malawele, Kec. Aimas, Kabupaten Sorong, Papua Bar. 98414","Malawele, Kec. Aimas, Kabupaten Sorong",PAPUA BARAT,98414.0,Indonesia,81343430377.0,-0.9723522,131.3050034,https://maps.google.com/?cid=0x0:0x49ed1caab0fa6e0c
supermarket bangunan,Toko Bahan Bangunan,Toko Sumber Lancar,"Malasom, Jl. Wortel, Kec. Aimas, Papua Bar. 98414","Jl. Wortel, Kec. Aimas",PAPUA BARAT,98414.0,Indonesia,,-0.9728255,131.3045326,https://maps.google.com/?cid=0x0:0x71e804bedc23186a
supermarket bangunan,Toko Swalayan,Toko Rahayu,"H22F+3X8, Jalan poros wermit, ayamaru, Kec. Teminabuan, Kabupaten Sorong Selatan, Papua Bar. 98454","Jalan poros wermit, ayamaru, Kec. Teminabuan, Kabupaten Sorong Selatan",PAPUA BARAT,98454.0,Indonesia,,-1.4498365,132.0249672,https://maps.google.com/?cid=0x0:0xae940753bebf4207
supermarket bangunan,Toko Bahan Bangunan,Toko Multibangunan,"4858+M3H, Bar, Sawagumu, Kec. Sorong Utara, Kota Sorong, Papua Bar. 98416","Bar, Sawagumu, Kec. Sorong Utara, Kota Sorong",PAPUA BARAT,98416.0,Indonesia,87896387564.0,-0.8908047,131.3152343,https://maps.google.com/?cid=0x0:0x71e3ca6ad4eb69f9
supermarket bangunan,supermarket bangunan,Distrik Seremuk,"Kabupaten Sorong Selatan, Papua Bar.","Kabupaten Sorong Selatan, Papua Bar.",PAPUA BARAT,,Indonesia,,-1.3800751,131.971713,https://maps.google.com/?cid=0x0:0xe12c32b535c8440a
supermarket bangunan,Toko Swalayan,Toko Rahayu,"H22F+3X8, Jalan poros wermit, ayamaru, Kec. Teminabuan, Kabupaten Sorong Selatan, Papua Bar. 98454","Jalan poros wermit, ayamaru, Kec. Teminabuan, Kabupaten Sorong Selatan",PAPUA BARAT,98454.0,Indonesia,,-1.4498365,132.0249672,https://maps.google.com/?cid=0x0:0xae940753bebf4207
supermarket bangunan,Toko Bahan Bangunan,Toko Bangunan Depo Makmur,"38XF+C65, Jl. Basuki Rahmat, Klawuyuk, Distrik Sorong Timur, Kota Sorong, Papua Bar. 98416","Jl. Basuki Rahmat, Klawuyuk, Distrik Sorong Timur, Kota Sorong",PAPUA BARAT,98416.0,Indonesia,,-0.9013289,131.3229895,https://maps.google.com/?cid=0x0:0x371e6c734b67edcc
supermarket bangunan,Pusat Perbelanjaan,Toko Anugrha,"Jl. Teminabuan Ayamaru, Wermit, Kec. Teminabuan, Kabupaten Sorong Selatan, Papua Bar. 98454","Wermit, Kec. Teminabuan, Kabupaten Sorong Selatan",PAPUA BARAT,98454.0,Indonesia,85395564530.0,-1.4507306,132.0254178,https://maps.google.com/?cid=0x0:0x5022914d97504e53
supermarket bangunan,supermarket bangunan,Kec. Teminabuan,"Kabupaten Sorong Selatan, Papua Bar.","Kabupaten Sorong Selatan, Papua Bar.",PAPUA BARAT,,Indonesia,,-1.4418184,132.0109997,https://maps.google.com/?cid=0x0:0x26fd6623ef786a25
supermarket bangunan,Toko bahan makanan,Toko TE-MI (Tehit Mitra,"G2VG+F7C, Wermit, Kec. Teminabuan, Kabupaten Sorong Selatan, Papua Bar. 98454","Wermit, Kec. Teminabuan, Kabupaten Sorong Selatan",PAPUA BARAT,98454.0,Indonesia,8114871178.0,-1.4563088,132.0256542,https://maps.google.com/?cid=0x0:0xa9f60ad72f60ea8d
supermarket bangunan,Toko,Toko SINAR MAROS,"H22F+7W4, Jl. Sengget, Wermit, Kec. Teminabuan, Kabupaten Sorong Selatan, Papua Bar. 98454","Jl. Sengget, Wermit, Kec. Teminabuan, Kabupaten Sorong Selatan",PAPUA BARAT,98454.0,Indonesia,95231155.0,-1.4493728,132.0248223,https://maps.google.com/?cid=0x0:0x36b89cd638908602
supermarket bangunan,Toko Swalayan,Toko Rahayu,"H22F+3X8, Jalan poros wermit, ayamaru, Kec. Teminabuan, Kabupaten Sorong Selatan, Papua Bar. 98454","Jalan poros wermit, ayamaru, Kec. Teminabuan, Kabupaten Sorong Selatan",PAPUA BARAT,98454.0,Indonesia,,-1.4498365,132.0249672,https://maps.google.com/?cid=0x0:0xae940753bebf4207
supermarket bangunan,supermarket bangunan,Distrik Wayer,"Kabupaten Sorong Selatan, Papua Bar.","Kabupaten Sorong Selatan, Papua Bar.",PAPUA BARAT,,Indonesia,,-1.4981267,132.1276575,https://maps.google.com/?cid=0x0:0xa31b66c806bf6157
supermarket bangunan,Toko Swalayan,Toko Rahayu,"H22F+3X8, Jalan poros wermit, ayamaru, Kec. Teminabuan, Kabupaten Sorong Selatan, Papua Bar. 98454","Jalan poros wermit, ayamaru, Kec. Teminabuan, Kabupaten Sorong Selatan",PAPUA BARAT,98454.0,Indonesia,,-1.4498365,132.0249672,https://maps.google.com/?cid=0x0:0xae940753bebf4207
supermarket bangunan,Toko bahan makanan,Toko TE-MI (Tehit Mitra,"G2VG+F7C, Wermit, Kec. Teminabuan, Kabupaten Sorong Selatan, Papua Bar. 98454","Wermit, Kec. Teminabuan, Kabupaten Sorong Selatan",PAPUA BARAT,98454.0,Indonesia,8114871178.0,-1.4563088,132.0256542,https://maps.google.com/?cid=0x0:0xa9f60ad72f60ea8d
