Category,Real Category,Business Name,Address,City,State,Postal Code,Country,Phone,Latitude,Longitude,Map Link
mall,mall,Distrik Fokour,"Kabupaten Sorong Selatan, Papua Bar.","Kabupaten Sorong Selatan, Papua Bar.",PAPUA BARAT,,Indonesia,,-1.1621937,132.0207079,https://maps.google.com/?cid=0x0:0xca5b0bfb905adc24
mall,Pusat Perbelanjaan,Manokwari City Mall (MCM),"Jl. Yos Sudarso Manokwari, Manokwari Bar., Kec. Manokwari Bar., Kabupaten Manokwari, Papua Bar. 98312","Manokwari Bar., Kec. Manokwari Bar., Kabupaten Manokwari",PAPUA BARAT,98312.0,Indonesia,8114918899.0,-0.85693,134.0678051,https://maps.google.com/?cid=0x0:0x7e7b90df1d787501
mall,mall,Fi' shope,"2992+H9M, Jl. Gabus, Klamasen, Distrik Mariat, Kabupaten Sorong, Papua Bar. 98416","Jl. Gabus, Klamasen, Distrik Mariat, Kabupaten Sorong",PAPUA BARAT,98416.0,Indonesia,,-0.981035,131.3509293,https://maps.google.com/?cid=0x0:0x9cbeb975669ee200
mall,Pusat Perbelanjaan,PARAGON SQUARE Mall  Hotel Sorong,"4874+4RH Paragon Square Mall, Jl. Basuki Rahmat Lt. 2, Sawagumu, Kec. Sorong Utara, Kota Sorong, Papua Bar. 98412","Jl. Basuki Rahmat Lt. 2, Sawagumu, Kec. Sorong Utara, Kota Sorong",PAPUA BARAT,98412.0,Indonesia,81247232214.0,-0.8871443,131.3071264,https://maps.google.com/?cid=0x0:0xd02481be48cb6e05
mall,Toko,Toko fitri,"G649+FH7, Unnamed Road, Hasik Jaya (Sp II), Distrik Moswaren, Kabupaten Sorong Selatan, Papua Bar. 98462","Unnamed Road, Hasik Jaya (Sp II), Distrik Moswaren, Kabupaten Sorong Selatan",PAPUA BARAT,98462.0,Indonesia,,-1.4938419,132.218912,https://maps.google.com/?cid=0x0:0x7a5c1534c6270bf
mall,Pusat Perbelanjaan,Pondok Indah Mall 1,"Jl. Metro Pondok Indah No.Kav. 4, RT.1/RW.16, Pd. Pinang, Kec. Kby. Lama, Kota Jakarta Selatan, Daerah Khusus Ibukota Jakarta 12310","RT.1/RW.16, Pd. Pinang, Kec. Kby. Lama, Kota Jakarta Selatan",PAPUA BARAT,12310.0,Indonesia,217506750.0,-6.2652166,106.7843165,https://maps.google.com/?cid=0x0:0x682837113c4ea854
mall,Pusat Perbelanjaan,Pondok Indah Mall 2,"Jl. Metro Pondok Indah, Pd. Pinang, Kec. Kby. Lama, Kota Jakarta Selatan, Daerah Khusus Ibukota Jakarta 12310","Pd. Pinang, Kec. Kby. Lama, Kota Jakarta Selatan",PAPUA BARAT,12310.0,Indonesia,217506750.0,-6.2655241,106.7827928,https://maps.google.com/?cid=0x0:0x203a5d09556daf5f
mall,Toserba,METRO pondok Indah Mall 1,"Jalan Metro Pondok Indah Kav. IV, Jl. Metro Pondok Indah, RT.1/RW.16, Pd. Pinang, Kec. Kby. Lama, Kota Jakarta Selatan, Daerah Khusus Ibukota Jakarta 12310","Jl. Metro Pondok Indah, RT.1/RW.16, Pd. Pinang, Kec. Kby. Lama, Kota Jakarta Selatan",PAPUA BARAT,12310.0,Indonesia,2175998000.0,-6.2642881,106.7845448,https://maps.google.com/?cid=0x0:0x236f055dabee73bc
mall,Restoran,Bakmi GM Pondok Indah,"Jl. Metro Pondok Indah No.1, RT.1/RW.16, Pd. Pinang, Kec. Kby. Lama, Kota Jakarta Selatan, Daerah Khusus Ibukota Jakarta 12310","RT.1/RW.16, Pd. Pinang, Kec. Kby. Lama, Kota Jakarta Selatan",PAPUA BARAT,12310.0,Indonesia,217506881.0,-6.2651233,106.7843685,https://maps.google.com/?cid=0x0:0xa3703a5a2828cf59
mall,Layanan Penukaran Mata Uang,PT. Sejahtera Valasindo,"Samping Bank Mandiri, Pondok Indah Mall 1 PIM1, lantai dasar, Pd. Pinang, Kec. Kby. Lama, Kota Jakarta Selatan, Daerah Khusus Ibukota Jakarta 12310","Pondok Indah Mall 1 PIM1, lantai dasar, Pd. Pinang, Kec. Kby. Lama, Kota Jakarta Selatan",PAPUA BARAT,12310.0,Indonesia,81775001122.0,-6.265288,106.7842184,https://maps.google.com/?cid=0x0:0xc3f0cd17ca6000d2
mall,Bioskop,Pondok Indah 1 XXI,"Pondok Indah Mall 2, Jl. Metro Pondok Indah No.1, RT.1/RW.16, Pd. Pinang, Kec. Kby. Lama, Kota Jakarta Selatan, Daerah Khusus Ibukota Jakarta 12310","Jl. Metro Pondok Indah No.1, RT.1/RW.16, Pd. Pinang, Kec. Kby. Lama, Kota Jakarta Selatan",PAPUA BARAT,12310.0,Indonesia,2175920781.0,-6.264667,106.7843784,https://maps.google.com/?cid=0x0:0x408a6681ca59df1f
mall,Pusat Perbelanjaan,Pondok Indah Water Park,"Pondok Indah Mall, Jl. Metro Pondok Indah, RT.1/RW.16, Pd. Pinang, Kec. Kby. Lama, Kota Jakarta Selatan, Daerah Khusus Ibukota Jakarta 12310","Jl. Metro Pondok Indah, RT.1/RW.16, Pd. Pinang, Kec. Kby. Lama, Kota Jakarta Selatan",PAPUA BARAT,12310.0,Indonesia,217506750.0,-6.2677295,106.7843933,https://maps.google.com/?cid=0x0:0x30e93edf55c03f10
mall,mall,Distrik Inanwatan,"Kabupaten Sorong Selatan, Papua Bar.","Kabupaten Sorong Selatan, Papua Bar.",PAPUA BARAT,,Indonesia,,-2.1273304,132.1663024,https://maps.google.com/?cid=0x0:0x871fec0706e82bc5
mall,Layanan Transportasi,Bandara Inanwatan,"V5C7+W64, Mate, Distrik Inanwatan, Kabupaten Sorong Selatan, Papua Bar. 98455","Mate, Distrik Inanwatan, Kabupaten Sorong Selatan",PAPUA BARAT,98455.0,Indonesia,82196826597.0,-2.1277487,132.1630745,https://maps.google.com/?cid=0x0:0xd0b9c5c7d40453cc
mall,mall,Kios wahyu,"R6WG+CHJ, Serkos, Distrik Inanwatan, Kabupaten Sorong Selatan, Papua Bar.","Kabupaten Sorong Selatan, Papua Bar.",PAPUA BARAT,,Indonesia,,-2.153906,132.2263783,https://maps.google.com/?cid=0x0:0x526ea2bbf3d35752
mall,Pusat Perbelanjaan,Mal Sorong,"479G+369, Klademak, Distrik Sorong, Kota Sorong, Papua Bar. 98412","Klademak, Distrik Sorong, Kota Sorong",PAPUA BARAT,98412.0,Indonesia,,-0.8823414,131.2755957,https://maps.google.com/?cid=0x0:0x4efad982776d0ca5
mall,Pusat Perbelanjaan,Mega Mall Sorong,"Jalan Basuki Rahmat Klabulu, Malaimsimsa, Malaingkedi, Kec. Sorong Utara, Kota Sorong, Papua Bar. 98412","Malaimsimsa, Malaingkedi, Kec. Sorong Utara, Kota Sorong",PAPUA BARAT,98412.0,Indonesia,,-0.8873097,131.3012842,https://maps.google.com/?cid=0x0:0x364e52ce8985aa7
mall,Pusat Perbelanjaan,Sorong XXI,"479G+669, Klademak, Distrik Sorong, Kota Sorong, Papua Bar. 98412","Klademak, Distrik Sorong, Kota Sorong",PAPUA BARAT,98412.0,Indonesia,85243436545.0,-0.8819731,131.2756053,https://maps.google.com/?cid=0x0:0x837be603a14de23a
mall,mall,Kais,"Kabupaten Sorong Selatan, Papua Bar.","Kabupaten Sorong Selatan, Papua Bar.",PAPUA BARAT,,Indonesia,,-1.7657744,132.1572702,https://maps.google.com/?cid=0x0:0x9cffca2dcef5956
mall,mall,Distrik Kokoda,"Kabupaten Sorong Selatan, Papua Bar.","Kabupaten Sorong Selatan, Papua Bar.",PAPUA BARAT,,Indonesia,,-2.1274352,132.4263464,https://maps.google.com/?cid=0x0:0xa783056c2a04f79f
mall,mall,Kios zahra,"QCJX+V3P, Tarof, Distrik Kokoda, Kabupaten Sorong Selatan, Papua Bar. 98455","Tarof, Distrik Kokoda, Kabupaten Sorong Selatan",PAPUA BARAT,98455.0,Indonesia,,-2.2177904,132.4477041,https://maps.google.com/?cid=0x0:0xfdf03fa84a83f5d5
mall,Balai Pertemuan Desa,Dermaga Kampung Tarof,"QCJX+M98, Tarof, Distrik Kokoda, Kabupaten Sorong Selatan, Papua Bar. 98455","Tarof, Distrik Kokoda, Kabupaten Sorong Selatan",PAPUA BARAT,98455.0,Indonesia,,-2.218326,132.4484551,https://maps.google.com/?cid=0x0:0x27d5e297ef92852
mall,Kedai Kopi,SORTIR di ONE BELL PARK,"Jl. RS. Fatmawati Raya No.1 K, RW.4, Pondok Labu, Cilandak, South Jakarta City, Jakarta 12450","RW.4, Pondok Labu, Cilandak, South Jakarta City",PAPUA BARAT,12450.0,Indonesia,,-6.3034669,106.7946752,https://maps.google.com/?cid=0x0:0xfbc6fe77b70ca9a5
mall,Kedai Kopi,Re-Juve,"Jl. RS. Fatmawati Raya No.1 Lantai GF, RT.1/RW.1, Pd. Labu, Kec. Cilandak, Kota Jakarta Selatan, Daerah Khusus Ibukota Jakarta 12450","RT.1/RW.1, Pd. Labu, Kec. Cilandak, Kota Jakarta Selatan",PAPUA BARAT,12450.0,Indonesia,8111562382.0,-6.3046381,106.795089,https://maps.google.com/?cid=0x0:0xb196aa777ae99129
mall,Pusat Perbelanjaan,Mega Mall Sorong,"Jalan Basuki Rahmat Klabulu, Malaimsimsa, Malaingkedi, Kec. Sorong Utara, Kota Sorong, Papua Bar. 98412","Malaimsimsa, Malaingkedi, Kec. Sorong Utara, Kota Sorong",PAPUA BARAT,98412.0,Indonesia,,-0.8873097,131.3012842,https://maps.google.com/?cid=0x0:0x364e52ce8985aa7
mall,mall,Kec. Kokoda Utara,"Kabupaten Sorong Selatan, Papua Bar.","Kabupaten Sorong Selatan, Papua Bar.",PAPUA BARAT,,Indonesia,,-1.8762266,132.3641297,https://maps.google.com/?cid=0x0:0xa4294849d564b6d1
mall,Pusat Perbelanjaan,Mal Sorong,"479G+369, Klademak, Distrik Sorong, Kota Sorong, Papua Bar. 98412","Klademak, Distrik Sorong, Kota Sorong",PAPUA BARAT,98412.0,Indonesia,,-0.8823414,131.2755957,https://maps.google.com/?cid=0x0:0x4efad982776d0ca5
mall,mall,Papua Bar.,,Papua Bar.,PAPUA BARAT,,Indonesia,,-1.3361154,133.1747162,https://maps.google.com/?cid=0x0:0x5349c1f8c5c7cb62
mall,Pusat Perbelanjaan,Mega Mall Sorong,"Jalan Basuki Rahmat Klabulu, Malaimsimsa, Malaingkedi, Kec. Sorong Utara, Kota Sorong, Papua Bar. 98412","Malaimsimsa, Malaingkedi, Kec. Sorong Utara, Kota Sorong",PAPUA BARAT,98412.0,Indonesia,,-0.8873097,131.3012842,https://maps.google.com/?cid=0x0:0x364e52ce8985aa7
mall,Pusat Perbelanjaan,PARAGON SQUARE Mall  Hotel Sorong,"4874+4RH Paragon Square Mall, Jl. Basuki Rahmat Lt. 2, Sawagumu, Kec. Sorong Utara, Kota Sorong, Papua Bar. 98412","Jl. Basuki Rahmat Lt. 2, Sawagumu, Kec. Sorong Utara, Kota Sorong",PAPUA BARAT,98412.0,Indonesia,81247232214.0,-0.8871443,131.3071264,https://maps.google.com/?cid=0x0:0xd02481be48cb6e05
mall,Perusahaan Konstruksi,MALL SORONG MODERN CITY,"46HV+8RX, Jl. Yos. Sudarso, Kp. Baru, Distrik Sorong, Kota Sorong, Papua Bar. 98411","Jl. Yos. Sudarso, Kp. Baru, Distrik Sorong, Kota Sorong",PAPUA BARAT,98411.0,Indonesia,,-0.8716413,131.2446118,https://maps.google.com/?cid=0x0:0x40151c61e7d35d7a
mall,Pusat Perbelanjaan,Mal Sorong,"479G+369, Klademak, Distrik Sorong, Kota Sorong, Papua Bar. 98412","Klademak, Distrik Sorong, Kota Sorong",PAPUA BARAT,98412.0,Indonesia,,-0.8823414,131.2755957,https://maps.google.com/?cid=0x0:0x4efad982776d0ca5
mall,Pusat Perbelanjaan,Manokwari City Mall (MCM),"Jl. Yos Sudarso Manokwari, Manokwari Bar., Kec. Manokwari Bar., Kabupaten Manokwari, Papua Bar. 98312","Manokwari Bar., Kec. Manokwari Bar., Kabupaten Manokwari",PAPUA BARAT,98312.0,Indonesia,8114918899.0,-0.85693,134.0678051,https://maps.google.com/?cid=0x0:0x7e7b90df1d787501
mall,Grosir,AZKO PARAGON SORONG,"4874+GWG, Jl. Basuki Rahmat, Sawagumu, Kec. Sorong Utara, Kota Sorong, Papua Bar.","Kota Sorong, Papua Bar.",PAPUA BARAT,,Indonesia,,-0.886185,131.3073385,https://maps.google.com/?cid=0x0:0x34d596cc826d6f95
mall,Pusat Perbelanjaan,Pasar Kajase,"Wermit, Kec. Teminabuan, Kabupaten Sorong Selatan, Papua Bar. 98454","Kec. Teminabuan, Kabupaten Sorong Selatan",PAPUA BARAT,98454.0,Indonesia,,-1.4573227,132.0243258,https://maps.google.com/?cid=0x0:0x388eefbcd072c19c
mall,Pusat Perbelanjaan,Mal Ciputra Cibubur,"Jl. Alternatif Cibubur No.KM, RT.005/RW.04, Jatikarya, Kec. Jatisampurna, Kota Bks, Jawa Barat 17435","RT.005/RW.04, Jatikarya, Kec. Jatisampurna, Kota Bks",PAPUA BARAT,17435.0,Indonesia,2184593193.0,-6.3832534,106.9257361,https://maps.google.com/?cid=0x0:0x17fe2652752ef425
mall,Pusat Perbelanjaan,Summarecon Mall Kelapa Gading,"Jl. Boulevard Raya, Klp. Gading Tim., Kec. Klp. Gading, Jkt Utara, Daerah Khusus Ibukota Jakarta 14240","Klp. Gading Tim., Kec. Klp. Gading, Jkt Utara",PAPUA BARAT,14240.0,Indonesia,214531101.0,-6.1572666,106.9084263,https://maps.google.com/?cid=0x0:0x1c1a278e20ff1c47
mall,Pusat Perbelanjaan,Mall Kelapa Gading,"Jl. Boulevard Raya, RT.13/RW.18, Klp. Gading Tim., Kec. Klp. Gading, Jkt Utara, Daerah Khusus Ibukota Jakarta 14240","RT.13/RW.18, Klp. Gading Tim., Kec. Klp. Gading, Jkt Utara",PAPUA BARAT,14240.0,Indonesia,214531101.0,-6.1577957,106.9084998,https://maps.google.com/?cid=0x0:0xf81b02e78061a7af
mall,Pusat Perbelanjaan,MargoCity,"Jl. Margonda Raya No.358, Kemiri Muka, Kecamatan Beji, Kota Depok, Jawa Barat 16423","Kemiri Muka, Kecamatan Beji, Kota Depok",PAPUA BARAT,16423.0,Indonesia,2178870888.0,-6.372967,106.8344235,https://maps.google.com/?cid=0x0:0xd3365350a2ebe2f
mall,Pusat Perbelanjaan,Grand Indonesia Shopping Town,"Jl. M.H. Thamrin No.1, Menteng, Kec. Menteng, Kota Jakarta Pusat, Daerah Khusus Ibukota Jakarta 10310","Menteng, Kec. Menteng, Kota Jakarta Pusat",PAPUA BARAT,10310.0,Indonesia,2123580001.0,-6.1965848,106.8224882,https://maps.google.com/?cid=0x0:0xccfcc89b95aaf1ae
mall,Pusat Perbelanjaan,Mall Of Indonesia,"Jl. Boulevard Bar. Raya No.12, RT.18/RW.19, Klp. Gading Bar., Kec. Klp. Gading, Jkt Utara, Daerah Khusus Ibukota Jakarta 14240","RT.18/RW.19, Klp. Gading Bar., Kec. Klp. Gading, Jkt Utara",PAPUA BARAT,14240.0,Indonesia,2145867888.0,-6.1514549,106.8918949,https://maps.google.com/?cid=0x0:0x3431c7aaadd1f1b6
mall,mall,Papua Bar. 98454,"Kabupaten Sorong Selatan, Papua Bar.","Kabupaten Sorong Selatan, Papua Bar.",PAPUA BARAT,,Indonesia,,-1.4196083,131.9989718,https://maps.google.com/?cid=0x0:0x85355e3327b207ba
mall,Pusat Perbelanjaan,Mega Mall Sorong,"Jalan Basuki Rahmat Klabulu, Malaimsimsa, Malaingkedi, Kec. Sorong Utara, Kota Sorong, Papua Bar. 98412","Malaimsimsa, Malaingkedi, Kec. Sorong Utara, Kota Sorong",PAPUA BARAT,98412.0,Indonesia,,-0.8873097,131.3012842,https://maps.google.com/?cid=0x0:0x364e52ce8985aa7
mall,Pusat Perbelanjaan,Pasar Kajase,"Wermit, Kec. Teminabuan, Kabupaten Sorong Selatan, Papua Bar. 98454","Kec. Teminabuan, Kabupaten Sorong Selatan",PAPUA BARAT,98454.0,Indonesia,,-1.4573227,132.0243258,https://maps.google.com/?cid=0x0:0x388eefbcd072c19c
mall,Pusat Perbelanjaan,Mal Sorong,"479G+369, Klademak, Distrik Sorong, Kota Sorong, Papua Bar. 98412","Klademak, Distrik Sorong, Kota Sorong",PAPUA BARAT,98412.0,Indonesia,,-0.8823414,131.2755957,https://maps.google.com/?cid=0x0:0x4efad982776d0ca5
mall,Pusat Perbelanjaan,INDOMARET KAJASE,"G2VG+74R, Wermit, Kec. Teminabuan, Kabupaten Sorong Selatan, Papua Bar.","Kabupaten Sorong Selatan, Papua Bar.",PAPUA BARAT,,Indonesia,,-1.4568692,132.02524,https://maps.google.com/?cid=0x0:0xce55e99fc5f4a5
mall,Toko umum,KIOS RAFFA,"G2VF+4QQ, Wermit, Kec. Teminabuan, Kabupaten Sorong Selatan, Papua Bar. 98454","Wermit, Kec. Teminabuan, Kabupaten Sorong Selatan",PAPUA BARAT,98454.0,Indonesia,,-1.4571312,132.0243846,https://maps.google.com/?cid=0x0:0x20a934d7eee76214
mall,Pusat Perbelanjaan,Blok M Plaza,"Jl. Bulungan No.76, RT.6/RW.6, Kramat Pela, Kec. Kby. Baru, Kota Jakarta Selatan, Daerah Khusus Ibukota Jakarta 12130","RT.6/RW.6, Kramat Pela, Kec. Kby. Baru, Kota Jakarta Selatan",PAPUA BARAT,12130.0,Indonesia,217209288.0,-6.2441189,106.7976404,https://maps.google.com/?cid=0x0:0x3e110f817acb352d
mall,Pusat Perbelanjaan,Mall Of Indonesia,"Jl. Boulevard Bar. Raya No.12, RT.18/RW.19, Klp. Gading Bar., Kec. Klp. Gading, Jkt Utara, Daerah Khusus Ibukota Jakarta 14240","RT.18/RW.19, Klp. Gading Bar., Kec. Klp. Gading, Jkt Utara",PAPUA BARAT,14240.0,Indonesia,2145867888.0,-6.1514549,106.8918949,https://maps.google.com/?cid=0x0:0x3431c7aaadd1f1b6
mall,Kantor Perusahaan,GRAND WIJAYA,"Wijaya Grand Centre, RT.6/RW.1, Pulo, Kec. Kby. Baru, Kota Jakarta Selatan, Daerah Khusus Ibukota Jakarta 12160","RT.6/RW.1, Pulo, Kec. Kby. Baru, Kota Jakarta Selatan",PAPUA BARAT,12160.0,Indonesia,,-6.2531973,106.7992666,https://maps.google.com/?cid=0x0:0xec6754c3ff3a934
mall,Restoran,MEGA BEKASI HYPERMALL,"Jl. Ahmad Yani No.1, RT.004/RW.001, Marga Jaya, Kec. Bekasi Sel., Kota Bks, Jawa Barat 17141","RT.004/RW.001, Marga Jaya, Kec. Bekasi Sel., Kota Bks",PAPUA BARAT,17141.0,Indonesia,,-6.2494935,106.9931124,https://maps.google.com/?cid=0x0:0xf8dd1536debbcbd1
mall,Pusat Perbelanjaan,Mangga 2 Square,"Jl. Gn. Sahari No.1, Ancol, Kec. Pademangan, Jkt Utara, Daerah Khusus Ibukota Jakarta 14420","Ancol, Kec. Pademangan, Jkt Utara",PAPUA BARAT,14420.0,Indonesia,2162313000.0,-6.1387841,106.8316377,https://maps.google.com/?cid=0x0:0xcc24e8c546bb46a1
mall,Perhentian bus,Poins Mall,"Jl. R.A. Kartini No.1, RT.9/RW.7, Lb. Bulus, Kec. Cilandak, Kota Jakarta Selatan, Daerah Khusus Ibukota Jakarta 12440","RT.9/RW.7, Lb. Bulus, Kec. Cilandak, Kota Jakarta Selatan",PAPUA BARAT,12440.0,Indonesia,2175921122.0,-6.2899462,106.7781514,https://maps.google.com/?cid=0x0:0xf56df5d4319c363a
mall,Pusat Perbelanjaan,Belakang Manokwari city mall,"43W7+F3H, Manokwari Bar., Kec. Manokwari Bar., Kabupaten Manokwari, Papua Bar. 98312","Manokwari Bar., Kec. Manokwari Bar., Kabupaten Manokwari",PAPUA BARAT,98312.0,Indonesia,,-0.8538079,134.0627452,https://maps.google.com/?cid=0x0:0x59f633fd28048da4
mall,Pusat Perbelanjaan,Manokwari City Mall (MCM),"Jl. Yos Sudarso Manokwari, Manokwari Bar., Kec. Manokwari Bar., Kabupaten Manokwari, Papua Bar. 98312","Manokwari Bar., Kec. Manokwari Bar., Kabupaten Manokwari",PAPUA BARAT,98312.0,Indonesia,8114918899.0,-0.85693,134.0678051,https://maps.google.com/?cid=0x0:0x7e7b90df1d787501
mall,Komplek perumahan,Fanindi Pantai,"43R9+J9P Bar, Padarni, Kec. Manokwari Bar., Kabupaten Manokwari, Papua Bar. 98312","Padarni, Kec. Manokwari Bar., Kabupaten Manokwari",PAPUA BARAT,98312.0,Indonesia,81344477231.0,-0.8584193,134.0684588,https://maps.google.com/?cid=0x0:0xfea55ca67440bcde
mall,Pusat Perbelanjaan,Mega Mall Sorong,"Jalan Basuki Rahmat Klabulu, Malaimsimsa, Malaingkedi, Kec. Sorong Utara, Kota Sorong, Papua Bar. 98412","Malaimsimsa, Malaingkedi, Kec. Sorong Utara, Kota Sorong",PAPUA BARAT,98412.0,Indonesia,,-0.8873097,131.3012842,https://maps.google.com/?cid=0x0:0x364e52ce8985aa7
mall,Pusat Perbelanjaan,Mal Sorong,"479G+369, Klademak, Distrik Sorong, Kota Sorong, Papua Bar. 98412","Klademak, Distrik Sorong, Kota Sorong",PAPUA BARAT,98412.0,Indonesia,,-0.8823414,131.2755957,https://maps.google.com/?cid=0x0:0x4efad982776d0ca5
mall,Makanan Siap Saji,KFC MEGA,"Jalan BASUKI RAHMAT NO. 1 KM. 8.5, Malaingkedi, Kec. Sorong Utara, Kota Sorong, Papua Bar. 98412","Malaingkedi, Kec. Sorong Utara, Kota Sorong",PAPUA BARAT,98412.0,Indonesia,2114022.0,-0.88741,131.3014311,https://maps.google.com/?cid=0x0:0x3b28231f1cfe08ef
mall,mall,Distrik Moswaren,"Kabupaten Sorong Selatan, Papua Bar.","Kabupaten Sorong Selatan, Papua Bar.",PAPUA BARAT,,Indonesia,,-1.4917637,132.2410573,https://maps.google.com/?cid=0x0:0xc435d4289dbbc461
mall,Toko,Toko fitri,"G649+FH7, Unnamed Road, Hasik Jaya (Sp II), Distrik Moswaren, Kabupaten Sorong Selatan, Papua Bar. 98462","Unnamed Road, Hasik Jaya (Sp II), Distrik Moswaren, Kabupaten Sorong Selatan",PAPUA BARAT,98462.0,Indonesia,,-1.4938419,132.218912,https://maps.google.com/?cid=0x0:0x7a5c1534c6270bf
mall,mall,Papua Bar. 98454,"Kabupaten Sorong Selatan, Papua Bar.","Kabupaten Sorong Selatan, Papua Bar.",PAPUA BARAT,,Indonesia,,-1.4196083,131.9989718,https://maps.google.com/?cid=0x0:0x85355e3327b207ba
mall,Pusat Perbelanjaan,Mega Mall Sorong,"Jalan Basuki Rahmat Klabulu, Malaimsimsa, Malaingkedi, Kec. Sorong Utara, Kota Sorong, Papua Bar. 98412","Malaimsimsa, Malaingkedi, Kec. Sorong Utara, Kota Sorong",PAPUA BARAT,98412.0,Indonesia,,-0.8873097,131.3012842,https://maps.google.com/?cid=0x0:0x364e52ce8985aa7
mall,mall,"Iam Shopping Sorong, Papua Barat","48CC+88P, Matalamagi, Kec. Sorong Utara, Kota Sorong, Papua Bar. 98412","Matalamagi, Kec. Sorong Utara, Kota Sorong",PAPUA BARAT,98412.0,Indonesia,,-0.8791692,131.3208235,https://maps.google.com/?cid=0x0:0x3c97a36422713753
mall,Pusat Perbelanjaan,MargoCity,"Jl. Margonda Raya No.358, Kemiri Muka, Kecamatan Beji, Kota Depok, Jawa Barat 16423","Kemiri Muka, Kecamatan Beji, Kota Depok",PAPUA BARAT,16423.0,Indonesia,2178870888.0,-6.372967,106.8344235,https://maps.google.com/?cid=0x0:0xd3365350a2ebe2f
mall,Pusat Perbelanjaan,Pondok Indah Mall 1,"Jl. Metro Pondok Indah No.Kav. 4, RT.1/RW.16, Pd. Pinang, Kec. Kby. Lama, Kota Jakarta Selatan, Daerah Khusus Ibukota Jakarta 12310","RT.1/RW.16, Pd. Pinang, Kec. Kby. Lama, Kota Jakarta Selatan",PAPUA BARAT,12310.0,Indonesia,217506750.0,-6.2652166,106.7843165,https://maps.google.com/?cid=0x0:0x682837113c4ea854
mall,Pusat Perbelanjaan,Mall Grand Metropolitan Bekasi,"Jl. KH. Noer Ali, RT.007/RW.003, Pekayon Jaya, Kec. Bekasi Sel., Kota Bks, Jawa Barat 17148","RT.007/RW.003, Pekayon Jaya, Kec. Bekasi Sel., Kota Bks",PAPUA BARAT,17148.0,Indonesia,2129464646.0,-6.2491162,106.9845353,https://maps.google.com/?cid=0x0:0x553935395094b20e
mall,Toko Pakaian Olahraga,Living World Alam Sutera,"Jl. Alam Sutera Boulevard No.Kav. 21, Pakulonan, Kec. Serpong Utara, Kota Tangerang Selatan, Banten 15325","Pakulonan, Kec. Serpong Utara, Kota Tangerang Selatan",PAPUA BARAT,15325.0,Indonesia,2153128580.0,-6.2443767,106.653103,https://maps.google.com/?cid=0x0:0x12783cb2371fb070
mall,Pengembang Realestat,Pakuwon Mall Bekasi,"Jl. Raya Pekayon No.002, Pekayon Jaya, Kec. Bekasi Sel., Kota Bks, Jawa Barat 17148","Pekayon Jaya, Kec. Bekasi Sel., Kota Bks",PAPUA BARAT,17148.0,Indonesia,2180609888.0,-6.2558744,106.9896919,https://maps.google.com/?cid=0x0:0xc61ce0e879f4e86b
mall,Pusat Perbelanjaan,BSD Plaza,"Jl. Pahlawan Seribu Sektor 4, Lengkong Wetan, Serpong Sub-District, South Tangerang City, Banten 15322","Lengkong Wetan, Serpong Sub-District, South Tangerang City",PAPUA BARAT,15322.0,Indonesia,215371171.0,-6.2794797,106.6625764,https://maps.google.com/?cid=0x0:0xfa4e7a509dd69041
mall,Toko Mebel,INFORMA - KOTA KASABLANKA,"Kota Kasablanka Lt.2, Jl. Raya Casablanca Raya No.kav 88, Kota Jakarta Selatan, Daerah Khusus Ibukota Jakarta","Kota Jakarta Selatan, Daerah Khusus Ibukota Jakarta",PAPUA BARAT,,Indonesia,81511002000.0,-6.222827,106.8428202,https://maps.google.com/?cid=0x0:0xb6dbe2786c5db483
mall,mall,Papua Bar. 98456,Papua Bar.,Papua Bar.,PAPUA BARAT,,Indonesia,,-1.2191286,131.8799408,https://maps.google.com/?cid=0x0:0x1193e0fa67947a8b
mall,Pusat Perbelanjaan,Mega Mall Sorong,"Jalan Basuki Rahmat Klabulu, Malaimsimsa, Malaingkedi, Kec. Sorong Utara, Kota Sorong, Papua Bar. 98412","Malaimsimsa, Malaingkedi, Kec. Sorong Utara, Kota Sorong",PAPUA BARAT,98412.0,Indonesia,,-0.8873097,131.3012842,https://maps.google.com/?cid=0x0:0x364e52ce8985aa7
mall,Pusat Perbelanjaan,Saga Aimas,"28VG+26V, Jl. Nangka, Malawili, Kec. Aimas, Kabupaten Sorong, Papua Bar. 98414","Jl. Nangka, Malawili, Kec. Aimas, Kabupaten Sorong",PAPUA BARAT,98414.0,Indonesia,81351816880.0,-0.9574598,131.3257559,https://maps.google.com/?cid=0x0:0x2ba45ddc0e9b2391
mall,Tempat Fitness,Tangguh Mart Plaza,"Jl. Klamono No.19 Km 19, Aimas, Kec. Aimas, Kabupaten Sorong, Papua Bar. 98414","Aimas, Kec. Aimas, Kabupaten Sorong",PAPUA BARAT,98414.0,Indonesia,8114819966.0,-0.9533569,131.3363244,https://maps.google.com/?cid=0x0:0x2846cd02a39b335c
mall,Toko,Toserba Nurul,"Makbalim, Mayamuk, Kabupaten Sorong, Papua Bar. 98451","Mayamuk, Kabupaten Sorong",PAPUA BARAT,98451.0,Indonesia,,-1.0642917,131.2852025,https://maps.google.com/?cid=0x0:0xc6bbf8fbc4a7c86b
mall,Minimarket,INDOMARET MALASOM,"28C3+3PX, Jl. Perkutut, Malawele, Kec. Aimas, Kabupaten Sorong, Papua Bar. 98414","Jl. Perkutut, Malawele, Kec. Aimas, Kabupaten Sorong",PAPUA BARAT,98414.0,Indonesia,,-0.979768,131.3043703,https://maps.google.com/?cid=0x0:0xc12974e3510bd031
mall,Pusat Perbelanjaan,Pasar Kajase,"Wermit, Kec. Teminabuan, Kabupaten Sorong Selatan, Papua Bar. 98454","Kec. Teminabuan, Kabupaten Sorong Selatan",PAPUA BARAT,98454.0,Indonesia,,-1.4573227,132.0243258,https://maps.google.com/?cid=0x0:0x388eefbcd072c19c
mall,Pusat Perbelanjaan,Mal Sorong,"479G+369, Klademak, Distrik Sorong, Kota Sorong, Papua Bar. 98412","Klademak, Distrik Sorong, Kota Sorong",PAPUA BARAT,98412.0,Indonesia,,-0.8823414,131.2755957,https://maps.google.com/?cid=0x0:0x4efad982776d0ca5
mall,Pusat Perbelanjaan,RAMAYANA Mall Sorong,"Jl. Wahid Hasyim 220 A-B, Jakarta, Papua Bar. 10250",Jakarta,PAPUA BARAT,10250.0,Indonesia,951332505.0,-0.8820615,131.2755023,https://maps.google.com/?cid=0x0:0x595b97e0cac05b45
mall,Indonesia,Kios Cepu,"Jl. Tutwuri, Klamono, Distrik Klamono, Kabupaten Sorong, Papua Bar. 98457","Klamono, Distrik Klamono, Kabupaten Sorong",PAPUA BARAT,98457.0,Indonesia,81390643693.0,-1.1258374,131.4867773,https://maps.google.com/?cid=0x0:0x31a8119c936f96e2
mall,Toko,Toko Selayar Pasar Pagi,"28R7+R8W, Jl. Buncis, Malawele, Kec. Aimas, Kabupaten Sorong, Papua Bar. 98414","Jl. Buncis, Malawele, Kec. Aimas, Kabupaten Sorong",PAPUA BARAT,98414.0,Indonesia,,-0.9578772,131.3133255,https://maps.google.com/?cid=0x0:0x973797a7f478274d
mall,Pusat Perbelanjaan,Manokwari City Mall (MCM),"Jl. Yos Sudarso Manokwari, Manokwari Bar., Kec. Manokwari Bar., Kabupaten Manokwari, Papua Bar. 98312","Manokwari Bar., Kec. Manokwari Bar., Kabupaten Manokwari",PAPUA BARAT,98312.0,Indonesia,8114918899.0,-0.85693,134.0678051,https://maps.google.com/?cid=0x0:0x7e7b90df1d787501
mall,Minimarket,INDOMARET KLAMASEN,"2993+5GH, Klamasen, Distrik Mariat, Kabupaten Sorong, Papua Bar. 98416","Klamasen, Distrik Mariat, Kabupaten Sorong",PAPUA BARAT,98416.0,Indonesia,,-0.9820598,131.3537109,https://maps.google.com/?cid=0x0:0x73fbcb4854378be4
mall,Pusat Perbelanjaan,INDOMARET BUNCIS,"28V4+6R7, Malawele, Kec. Aimas, Kabupaten Sorong, Papua Bar.","Kabupaten Sorong, Papua Bar.",PAPUA BARAT,,Indonesia,,-0.9567484,131.3072402,https://maps.google.com/?cid=0x0:0xeabe4c418778c4c9
mall,mall,Distrik Seremuk,"Kabupaten Sorong Selatan, Papua Bar.","Kabupaten Sorong Selatan, Papua Bar.",PAPUA BARAT,,Indonesia,,-1.3800751,131.971713,https://maps.google.com/?cid=0x0:0xe12c32b535c8440a
mall,Pusat Perbelanjaan,Pasar Kajase,"Wermit, Kec. Teminabuan, Kabupaten Sorong Selatan, Papua Bar. 98454","Kec. Teminabuan, Kabupaten Sorong Selatan",PAPUA BARAT,98454.0,Indonesia,,-1.4573227,132.0243258,https://maps.google.com/?cid=0x0:0x388eefbcd072c19c
mall,Toko,TOKO ZHUZHI,"bundaran kajase, Wermit, Kec. Teminabuan, Kabupaten Sorong Selatan, Papua Bar. 98454","Wermit, Kec. Teminabuan, Kabupaten Sorong Selatan",PAPUA BARAT,98454.0,Indonesia,82162880633.0,-1.4552239,132.0269155,https://maps.google.com/?cid=0x0:0xc5ac6152d7807e17
mall,Pusat Perbelanjaan,Faris cell,"H256+56X, Kohoin, Kec. Teminabuan, Kabupaten Sorong Selatan, Papua Bar. 98454","Kohoin, Kec. Teminabuan, Kabupaten Sorong Selatan",PAPUA BARAT,98454.0,Indonesia,,-1.4420058,132.0106053,https://maps.google.com/?cid=0x0:0xde7cdd8422431494
mall,Toko,Raisa Cell,"Pasar Ampera, Kohoin, Kec. Teminabuan, Kabupaten Sorong Selatan, Papua Bar. 98454","Kohoin, Kec. Teminabuan, Kabupaten Sorong Selatan",PAPUA BARAT,98454.0,Indonesia,8124877073.0,-1.4419224,132.0103847,https://maps.google.com/?cid=0x0:0x92d01390dab9e785
mall,Toko Swalayan,Toko anggi,"G2VG+79C, Wermit, Kec. Teminabuan, Kabupaten Sorong Selatan, Papua Bar. 98454","Wermit, Kec. Teminabuan, Kabupaten Sorong Selatan",PAPUA BARAT,98454.0,Indonesia,,-1.4568121,132.0258942,https://maps.google.com/?cid=0x0:0xa68e564fb120c69c
mall,mall,INDOMARET BRAWIJAYA,"H258+6M7, Jalan Brawijaya, Namro, Teminabuan, South Sorong Regency, West Papua 98454","Jalan Brawijaya, Namro, Teminabuan, South Sorong Regency",PAPUA BARAT,98454.0,Indonesia,,-1.44195,132.0166735,https://maps.google.com/?cid=0x0:0x4c6878b1bc1b26ca
mall,Pusat Perbelanjaan,INDOMARET WERMIT,"H22F+Q89, Jl. Sengget, Wermit, Kec. Teminabuan, Kabupaten Sorong Selatan, Papua Bar. 98454","Jl. Sengget, Wermit, Kec. Teminabuan, Kabupaten Sorong Selatan",PAPUA BARAT,98454.0,Indonesia,,-1.4480968,132.0234402,https://maps.google.com/?cid=0x0:0x6d2ee479e0252368
mall,Pusat Perbelanjaan,Mal Sorong,"479G+369, Klademak, Distrik Sorong, Kota Sorong, Papua Bar. 98412","Klademak, Distrik Sorong, Kota Sorong",PAPUA BARAT,98412.0,Indonesia,,-0.8823414,131.2755957,https://maps.google.com/?cid=0x0:0x4efad982776d0ca5
mall,Pusat Perbelanjaan,RAMAYANA Mall Sorong,"Jl. Wahid Hasyim 220 A-B, Jakarta, Papua Bar. 10250",Jakarta,PAPUA BARAT,10250.0,Indonesia,951332505.0,-0.8820615,131.2755023,https://maps.google.com/?cid=0x0:0x595b97e0cac05b45
mall,mall,BOGANI SHOP TEMINABUAN,"G2VG+7CP, Wermit, Kec. Teminabuan, Kabupaten Sorong Selatan, Papua Bar.","Kabupaten Sorong Selatan, Papua Bar.",PAPUA BARAT,,Indonesia,,-1.4567635,132.0260522,https://maps.google.com/?cid=0x0:0xc35ccb2273259db0
mall,Toko bahan makanan,Toko TE-MI (Tehit Mitra,"G2VG+F7C, Wermit, Kec. Teminabuan, Kabupaten Sorong Selatan, Papua Bar. 98454","Wermit, Kec. Teminabuan, Kabupaten Sorong Selatan",PAPUA BARAT,98454.0,Indonesia,8114871178.0,-1.4563088,132.0256542,https://maps.google.com/?cid=0x0:0xa9f60ad72f60ea8d
mall,Komplek perumahan,TOKO WERNAS,"G2WG+2MX, Wernas, Kec. Teminabuan, Kabupaten Sorong Selatan, Papua Bar. 98454","Wernas, Kec. Teminabuan, Kabupaten Sorong Selatan",PAPUA BARAT,98454.0,Indonesia,,-1.4548811,132.0267428,https://maps.google.com/?cid=0x0:0xcc780e6b7e31f615
mall,Pusat Perbelanjaan,PARAGON SQUARE Mall  Hotel Sorong,"4874+4RH Paragon Square Mall, Jl. Basuki Rahmat Lt. 2, Sawagumu, Kec. Sorong Utara, Kota Sorong, Papua Bar. 98412","Jl. Basuki Rahmat Lt. 2, Sawagumu, Kec. Sorong Utara, Kota Sorong",PAPUA BARAT,98412.0,Indonesia,81247232214.0,-0.8871443,131.3071264,https://maps.google.com/?cid=0x0:0xd02481be48cb6e05
mall,mall,Kec. Teminabuan,"Kabupaten Sorong Selatan, Papua Bar.","Kabupaten Sorong Selatan, Papua Bar.",PAPUA BARAT,,Indonesia,,-1.4418184,132.0109997,https://maps.google.com/?cid=0x0:0x26fd6623ef786a25
mall,Pusat Perbelanjaan,Pasar Kajase,"Wermit, Kec. Teminabuan, Kabupaten Sorong Selatan, Papua Bar. 98454","Kec. Teminabuan, Kabupaten Sorong Selatan",PAPUA BARAT,98454.0,Indonesia,,-1.4573227,132.0243258,https://maps.google.com/?cid=0x0:0x388eefbcd072c19c
mall,mall,BOGANI SHOP TEMINABUAN,"G2VG+7CP, Wermit, Kec. Teminabuan, Kabupaten Sorong Selatan, Papua Bar.","Kabupaten Sorong Selatan, Papua Bar.",PAPUA BARAT,,Indonesia,,-1.4567635,132.0260522,https://maps.google.com/?cid=0x0:0xc35ccb2273259db0
mall,Pusat Perbelanjaan,Faris cell,"H256+56X, Kohoin, Kec. Teminabuan, Kabupaten Sorong Selatan, Papua Bar. 98454","Kohoin, Kec. Teminabuan, Kabupaten Sorong Selatan",PAPUA BARAT,98454.0,Indonesia,,-1.4420058,132.0106053,https://maps.google.com/?cid=0x0:0xde7cdd8422431494
mall,Toko Swalayan,Toko anggi,"G2VG+79C, Wermit, Kec. Teminabuan, Kabupaten Sorong Selatan, Papua Bar. 98454","Wermit, Kec. Teminabuan, Kabupaten Sorong Selatan",PAPUA BARAT,98454.0,Indonesia,,-1.4568121,132.0258942,https://maps.google.com/?cid=0x0:0xa68e564fb120c69c
mall,Pusat Perbelanjaan,INDOMARET WERMIT,"H22F+Q89, Jl. Sengget, Wermit, Kec. Teminabuan, Kabupaten Sorong Selatan, Papua Bar. 98454","Jl. Sengget, Wermit, Kec. Teminabuan, Kabupaten Sorong Selatan",PAPUA BARAT,98454.0,Indonesia,,-1.4480968,132.0234402,https://maps.google.com/?cid=0x0:0x6d2ee479e0252368
mall,Toko bahan makanan,Toko TE-MI (Tehit Mitra,"G2VG+F7C, Wermit, Kec. Teminabuan, Kabupaten Sorong Selatan, Papua Bar. 98454","Wermit, Kec. Teminabuan, Kabupaten Sorong Selatan",PAPUA BARAT,98454.0,Indonesia,8114871178.0,-1.4563088,132.0256542,https://maps.google.com/?cid=0x0:0xa9f60ad72f60ea8d
mall,mall,INDOMARET BRAWIJAYA,"H258+6M7, Jalan Brawijaya, Namro, Teminabuan, South Sorong Regency, West Papua 98454","Jalan Brawijaya, Namro, Teminabuan, South Sorong Regency",PAPUA BARAT,98454.0,Indonesia,,-1.44195,132.0166735,https://maps.google.com/?cid=0x0:0x4c6878b1bc1b26ca
mall,Toko,Raisa Cell,"Pasar Ampera, Kohoin, Kec. Teminabuan, Kabupaten Sorong Selatan, Papua Bar. 98454","Kohoin, Kec. Teminabuan, Kabupaten Sorong Selatan",PAPUA BARAT,98454.0,Indonesia,8124877073.0,-1.4419224,132.0103847,https://maps.google.com/?cid=0x0:0x92d01390dab9e785
mall,Komplek perumahan,TOKO WERNAS,"G2WG+2MX, Wernas, Kec. Teminabuan, Kabupaten Sorong Selatan, Papua Bar. 98454","Wernas, Kec. Teminabuan, Kabupaten Sorong Selatan",PAPUA BARAT,98454.0,Indonesia,,-1.4548811,132.0267428,https://maps.google.com/?cid=0x0:0xcc780e6b7e31f615
mall,Pusat Perbelanjaan,INDOMARET KAJASE,"G2VG+74R, Wermit, Kec. Teminabuan, Kabupaten Sorong Selatan, Papua Bar.","Kabupaten Sorong Selatan, Papua Bar.",PAPUA BARAT,,Indonesia,,-1.4568692,132.02524,https://maps.google.com/?cid=0x0:0xce55e99fc5f4a5
mall,mall,Toko werna teminabuan,"G2QC+JGR, Wermit, Kec. Teminabuan, Kabupaten Sorong Selatan, Papua Bar. 98454","Wermit, Kec. Teminabuan, Kabupaten Sorong Selatan",PAPUA BARAT,98454.0,Indonesia,,-1.4608931,132.0212609,https://maps.google.com/?cid=0x0:0x22c98358bc830ef1
mall,Toko Swalayan,Alan Pu Rumah,"G2XG+FV6, Wermit, Kec. Teminabuan, Kabupaten Sorong Selatan, Papua Bar. 98454","Wermit, Kec. Teminabuan, Kabupaten Sorong Selatan",PAPUA BARAT,98454.0,Indonesia,81343133978.0,-1.4513472,132.0271385,https://maps.google.com/?cid=0x0:0x473281a5b1f0e79c
mall,mall,Distrik Wayer,"Kabupaten Sorong Selatan, Papua Bar.","Kabupaten Sorong Selatan, Papua Bar.",PAPUA BARAT,,Indonesia,,-1.4981267,132.1276575,https://maps.google.com/?cid=0x0:0xa31b66c806bf6157
mall,Pusat Perbelanjaan,Pasar Kajase,"Wermit, Kec. Teminabuan, Kabupaten Sorong Selatan, Papua Bar. 98454","Kec. Teminabuan, Kabupaten Sorong Selatan",PAPUA BARAT,98454.0,Indonesia,,-1.4573227,132.0243258,https://maps.google.com/?cid=0x0:0x388eefbcd072c19c
mall,Toko,TOKO ZHUZHI,"bundaran kajase, Wermit, Kec. Teminabuan, Kabupaten Sorong Selatan, Papua Bar. 98454","Wermit, Kec. Teminabuan, Kabupaten Sorong Selatan",PAPUA BARAT,98454.0,Indonesia,82162880633.0,-1.4552239,132.0269155,https://maps.google.com/?cid=0x0:0xc5ac6152d7807e17
mall,Pusat Perbelanjaan,Manokwari City Mall (MCM),"Jl. Yos Sudarso Manokwari, Manokwari Bar., Kec. Manokwari Bar., Kabupaten Manokwari, Papua Bar. 98312","Manokwari Bar., Kec. Manokwari Bar., Kabupaten Manokwari",PAPUA BARAT,98312.0,Indonesia,8114918899.0,-0.85693,134.0678051,https://maps.google.com/?cid=0x0:0x7e7b90df1d787501
mall,Toko,Toko fitri,"G649+FH7, Unnamed Road, Hasik Jaya (Sp II), Distrik Moswaren, Kabupaten Sorong Selatan, Papua Bar. 98462","Unnamed Road, Hasik Jaya (Sp II), Distrik Moswaren, Kabupaten Sorong Selatan",PAPUA BARAT,98462.0,Indonesia,,-1.4938419,132.218912,https://maps.google.com/?cid=0x0:0x7a5c1534c6270bf
mall,Toko bahan makanan,Kalawai Mart,"42GW+JX7, Jl. Drs Esau Sesa, Wosi, Kec. Manokwari Bar., Kabupaten Manokwari, Papua Bar. 98312","Jl. Drs Esau Sesa, Wosi, Kec. Manokwari Bar., Kabupaten Manokwari",PAPUA BARAT,98312.0,Indonesia,82239404628.0,-0.8734685,134.0474365,https://maps.google.com/?cid=0x0:0xa03f46416c062468
mall,mall,KIOS RISKI ABADI,"G67M+2WP, Jalur 2 Poros, Bumi Ajo (Sp I), Distrik Moswaren, Kabupaten Sorong Selatan, Papua Bar. 98462","Jalur 2 Poros, Bumi Ajo (Sp I), Distrik Moswaren, Kabupaten Sorong Selatan",PAPUA BARAT,98462.0,Indonesia,82291801188.0,-1.4873833,132.2348618,https://maps.google.com/?cid=0x0:0xb453838534cc7da6
mall,Pusat Perbelanjaan,INDOMARET WERMIT,"H22F+Q89, Jl. Sengget, Wermit, Kec. Teminabuan, Kabupaten Sorong Selatan, Papua Bar. 98454","Jl. Sengget, Wermit, Kec. Teminabuan, Kabupaten Sorong Selatan",PAPUA BARAT,98454.0,Indonesia,,-1.4480968,132.0234402,https://maps.google.com/?cid=0x0:0x6d2ee479e0252368
mall,Komplek perumahan,TOKO WERNAS,"G2WG+2MX, Wernas, Kec. Teminabuan, Kabupaten Sorong Selatan, Papua Bar. 98454","Wernas, Kec. Teminabuan, Kabupaten Sorong Selatan",PAPUA BARAT,98454.0,Indonesia,,-1.4548811,132.0267428,https://maps.google.com/?cid=0x0:0xcc780e6b7e31f615
mall,Pusat Perbelanjaan,Wamena Mall,"WW4W+JH7, Wamena Kota, Distrik Wamena, Kabupaten Jayawijaya, Papua 99511","Wamena Kota, Distrik Wamena, Kabupaten Jayawijaya",PAPUA BARAT,99511.0,Indonesia,81356954606.0,-4.0934521,138.9464176,https://maps.google.com/?cid=0x0:0x99f90a37cc207474
mall,Pusat Perbelanjaan,Faris cell,"H256+56X, Kohoin, Kec. Teminabuan, Kabupaten Sorong Selatan, Papua Bar. 98454","Kohoin, Kec. Teminabuan, Kabupaten Sorong Selatan",PAPUA BARAT,98454.0,Indonesia,,-1.4420058,132.0106053,https://maps.google.com/?cid=0x0:0xde7cdd8422431494
mall,mall,INDOMARET BRAWIJAYA,"H258+6M7, Jalan Brawijaya, Namro, Teminabuan, South Sorong Regency, West Papua 98454","Jalan Brawijaya, Namro, Teminabuan, South Sorong Regency",PAPUA BARAT,98454.0,Indonesia,,-1.44195,132.0166735,https://maps.google.com/?cid=0x0:0x4c6878b1bc1b26ca
mall,Toko Swalayan,Toko anggi,"G2VG+79C, Wermit, Kec. Teminabuan, Kabupaten Sorong Selatan, Papua Bar. 98454","Wermit, Kec. Teminabuan, Kabupaten Sorong Selatan",PAPUA BARAT,98454.0,Indonesia,,-1.4568121,132.0258942,https://maps.google.com/?cid=0x0:0xa68e564fb120c69c
mall,Kantor Perusahaan,Apawer,"59R5+4HV, Kamenawari, Distrik Pantai Barat, Kabupaten Sarmi, Papua 99374","Kamenawari, Distrik Pantai Barat, Kabupaten Sarmi",PAPUA BARAT,99374.0,Indonesia,81248221487.0,-1.8096451,138.3589086,https://maps.google.com/?cid=0x0:0x2abeeed9cafae89f
supermarket,Toko Swalayan,Orchid Swalayan,"43RF+C74, Jl. Merdeka, Padarni, Kec. Manokwari Bar., Kabupaten Manokwari, Papua Bar. 98312","Jl. Merdeka, Padarni, Kec. Manokwari Bar., Kabupaten Manokwari",PAPUA BARAT,98312.0,Indonesia,986211094.0,-0.8589972,134.0731963,https://maps.google.com/?cid=0x0:0xa0da1efaf3ec9af4
supermarket,Toko bahan makanan,ORCHID SWALAYAN WOSI,"Jl. Trikora Wosi, Wosi, Kec. Manokwari Bar., Kabupaten Manokwari, Papua Bar. 98312","Wosi, Kec. Manokwari Bar., Kabupaten Manokwari",PAPUA BARAT,98312.0,Indonesia,8114863377.0,-0.8625968,134.0521198,https://maps.google.com/?cid=0x0:0xefc90cd267cb5423
supermarket,Kedai Kopi,CINNAMON FAMILY CAFE,"Orchid Swalayan, Lt. Dasar d/a, Jl. Merdeka, Padarni, Kec. Manokwari Bar., Kabupaten Manokwari, Papua Bar. 98300","Lt. Dasar d/a, Jl. Merdeka, Padarni, Kec. Manokwari Bar., Kabupaten Manokwari",PAPUA BARAT,98300.0,Indonesia,82288884899.0,-0.8591013,134.0730948,https://maps.google.com/?cid=0x0:0xfb9269dc72fddc6b
supermarket,Komplek perumahan,Rumah Bpk Gustaf. L,"4859+784, Klawuyuk, Distrik Sorong Timur, Kota Sorong, Papua Bar. 98416","Klawuyuk, Distrik Sorong Timur, Kota Sorong",PAPUA BARAT,98416.0,Indonesia,,-0.8918739,131.3183248,https://maps.google.com/?cid=0x0:0x30559e7e5eb96ee4
supermarket,Minimarket,SAGA Supermarket  Dept. Store,"Jalan A. Yani, Ruko Kuda Laut, Klademak, Kecamatan Sorong Manoi, Kota Sorong, Papua Bar. 98414","Ruko Kuda Laut, Klademak, Kecamatan Sorong Manoi, Kota Sorong",PAPUA BARAT,98414.0,Indonesia,951322784.0,-0.8765248,131.2576755,https://maps.google.com/?cid=0x0:0x963043ed646a7e1e
supermarket,Toko Swalayan,Swalayan Fifor Toko,"Jl. Raya Kompas No.38 1, RT.1/RW.8, Cemp. Putih, Kec. Ciputat Tim., Kota Tangerang Selatan, Banten 15412","RT.1/RW.8, Cemp. Putih, Kec. Ciputat Tim., Kota Tangerang Selatan",PAPUA BARAT,15412.0,Indonesia,217427730.0,-6.2919264,106.7442944,https://maps.google.com/?cid=0x0:0x16daef03e74993b6
supermarket,Pusat Perbelanjaan,Lulu Hypermarket  Department Store - Plaza Taman,"Plaza Taman Modern, Jl. Raya Bekasi No.24, Ujung Menteng, Kec. Cakung, Kota Jakarta Timur, Daerah Khusus Ibukota Jakarta 13960","Jl. Raya Bekasi No.24, Ujung Menteng, Kec. Cakung, Kota Jakarta Timur",PAPUA BARAT,13960.0,Indonesia,2129844000.0,-6.1866528,106.949145,https://maps.google.com/?cid=0x0:0x417a62ca795ee0b8
supermarket,supermarket,Distrik Inanwatan,"Kabupaten Sorong Selatan, Papua Bar.","Kabupaten Sorong Selatan, Papua Bar.",PAPUA BARAT,,Indonesia,,-2.1273304,132.1663024,https://maps.google.com/?cid=0x0:0x871fec0706e82bc5
supermarket,Layanan Transportasi,Bandara Inanwatan,"V5C7+W64, Mate, Distrik Inanwatan, Kabupaten Sorong Selatan, Papua Bar. 98455","Mate, Distrik Inanwatan, Kabupaten Sorong Selatan",PAPUA BARAT,98455.0,Indonesia,82196826597.0,-2.1277487,132.1630745,https://maps.google.com/?cid=0x0:0xd0b9c5c7d40453cc
supermarket,supermarket,Kios Ketapang,"V5F8+2QM, Mate, Distrik Inanwatan, Kabupaten Sorong Selatan, Papua Bar. 98455","Mate, Distrik Inanwatan, Kabupaten Sorong Selatan",PAPUA BARAT,98455.0,Indonesia,,-2.1274003,132.1669107,https://maps.google.com/?cid=0x0:0xef01db1cb771f6e9
supermarket,Minimarket,Kios Sesean,"489C+2G6, Matalamagi, Kec. Sorong Utara, Kota Sorong, Papua Bar.","Kota Sorong, Papua Bar.",PAPUA BARAT,,Indonesia,,-0.8824542,131.3212794,https://maps.google.com/?cid=0x0:0x32dd8e51a1bc728
supermarket,Toko umum,Kios Keenan,"Jl. Bandeng 10 perumnas No.27, Klawuyuk, Distrik Sorong Timur, Kota Sorong, Papua Bar. 98417","Klawuyuk, Distrik Sorong Timur, Kota Sorong",PAPUA BARAT,98417.0,Indonesia,,-0.893569,131.3196706,https://maps.google.com/?cid=0x0:0xc11712363000fdd8
supermarket,Kios,Kios Kasma,"46VX+92Q, Rufei, Distrik Sorong Barat, Kota Sorong, Papua Bar. 98411","Rufei, Distrik Sorong Barat, Kota Sorong",PAPUA BARAT,98411.0,Indonesia,,-0.8565476,131.2476214,https://maps.google.com/?cid=0x0:0x721563bf0d7cc5e2
supermarket,supermarket,Kec. Matemani,"Kabupaten Sorong Selatan, Papua Bar.","Kabupaten Sorong Selatan, Papua Bar.",PAPUA BARAT,,Indonesia,,-1.9496392,132.2312838,https://maps.google.com/?cid=0x0:0xced62b996f227502
supermarket,supermarket,Papua Bar. 98455,"Kabupaten Sorong Selatan, Papua Bar.","Kabupaten Sorong Selatan, Papua Bar.",PAPUA BARAT,,Indonesia,,-1.9960008,132.3150993,https://maps.google.com/?cid=0x0:0x62c6b90297c3f1dd
supermarket,supermarket,Distrik Kokoda,"Kabupaten Sorong Selatan, Papua Bar.","Kabupaten Sorong Selatan, Papua Bar.",PAPUA BARAT,,Indonesia,,-2.1274352,132.4263464,https://maps.google.com/?cid=0x0:0xa783056c2a04f79f
supermarket,Pusat Perbelanjaan,Papua Supermarket  Dept. Store,"4869+F77 Bar, Sawagumu, Kec. Sorong Utara, Kota Sorong, Papua Bar. 98416","Sawagumu, Kec. Sorong Utara, Kota Sorong",PAPUA BARAT,98416.0,Indonesia,9513160123.0,-0.888831,131.3181847,https://maps.google.com/?cid=0x0:0x7b5f0926a74ad213
supermarket,Kantor Perusahaan,Supermarket GOTA,"4868+2X3, Jl. Sungai Maruni, Sawagumu, Distrik Sorong Timur, Kota Sorong, Papua Bar. 98416","Jl. Sungai Maruni, Sawagumu, Distrik Sorong Timur, Kota Sorong",PAPUA BARAT,98416.0,Indonesia,,-0.8900646,131.3173945,https://maps.google.com/?cid=0x0:0xe80a2989cd86300
supermarket,Toko Swalayan,Coco Supermarket Jimbaran,"Jl. Uluwatu I No.80, Jimbaran, Kec. Kuta Sel., Kabupaten Badung, Bali 80361","Jimbaran, Kec. Kuta Sel., Kabupaten Badung",PAPUA BARAT,80361.0,Indonesia,8563717787.0,-8.7778518,115.1698744,https://maps.google.com/?cid=0x0:0x70063d505a0d150f
supermarket,Toko Swalayan,Nirmala Supermarket Jimbaran,"Jl. Uluwatu II No.10, Jimbaran, Kec. Kuta Sel., Kabupaten Badung, Bali 80361","Jimbaran, Kec. Kuta Sel., Kabupaten Badung",PAPUA BARAT,80361.0,Indonesia,3618471908.0,-8.7817503,115.1744618,https://maps.google.com/?cid=0x0:0x47be765812fbe9d3
supermarket,Pusat Perbelanjaan,Papua Supermarket  Dept. Store,"4869+F77 Bar, Sawagumu, Kec. Sorong Utara, Kota Sorong, Papua Bar. 98416","Sawagumu, Kec. Sorong Utara, Kota Sorong",PAPUA BARAT,98416.0,Indonesia,9513160123.0,-0.888831,131.3181847,https://maps.google.com/?cid=0x0:0x7b5f0926a74ad213
supermarket,Minimarket,SAGA Supermarket  Dept. Store,"Jalan A. Yani, Ruko Kuda Laut, Klademak, Kecamatan Sorong Manoi, Kota Sorong, Papua Bar. 98414","Ruko Kuda Laut, Klademak, Kecamatan Sorong Manoi, Kota Sorong",PAPUA BARAT,98414.0,Indonesia,951322784.0,-0.8765248,131.2576755,https://maps.google.com/?cid=0x0:0x963043ed646a7e1e
supermarket,Komplek perumahan,Rumah Bpk Gustaf. L,"4859+784, Klawuyuk, Distrik Sorong Timur, Kota Sorong, Papua Bar. 98416","Klawuyuk, Distrik Sorong Timur, Kota Sorong",PAPUA BARAT,98416.0,Indonesia,,-0.8918739,131.3183248,https://maps.google.com/?cid=0x0:0x30559e7e5eb96ee4
supermarket,supermarket,Papua Bar.,,Papua Bar.,PAPUA BARAT,,Indonesia,,-1.3361154,133.1747162,https://maps.google.com/?cid=0x0:0x5349c1f8c5c7cb62
supermarket,Pusat Perbelanjaan,Papua Supermarket  Dept. Store,"4869+F77 Bar, Sawagumu, Kec. Sorong Utara, Kota Sorong, Papua Bar. 98416","Sawagumu, Kec. Sorong Utara, Kota Sorong",PAPUA BARAT,98416.0,Indonesia,9513160123.0,-0.888831,131.3181847,https://maps.google.com/?cid=0x0:0x7b5f0926a74ad213
supermarket,Minimarket,SAGA Supermarket  Dept. Store,"Jalan A. Yani, Ruko Kuda Laut, Klademak, Kecamatan Sorong Manoi, Kota Sorong, Papua Bar. 98414","Ruko Kuda Laut, Klademak, Kecamatan Sorong Manoi, Kota Sorong",PAPUA BARAT,98414.0,Indonesia,951322784.0,-0.8765248,131.2576755,https://maps.google.com/?cid=0x0:0x963043ed646a7e1e
supermarket,Pusat Perbelanjaan,Saga Aimas,"28VG+26V, Jl. Nangka, Malawili, Kec. Aimas, Kabupaten Sorong, Papua Bar. 98414","Jl. Nangka, Malawili, Kec. Aimas, Kabupaten Sorong",PAPUA BARAT,98414.0,Indonesia,81351816880.0,-0.9574598,131.3257559,https://maps.google.com/?cid=0x0:0x2ba45ddc0e9b2391
supermarket,Pusat Perbelanjaan,Saga Mart Remu,"samping intense fitness, Jl. Mambruk No.10, Remu Utara, Distrik Sorong, Kota Sorong, Papua Bar. 98416","Jl. Mambruk No.10, Remu Utara, Distrik Sorong, Kota Sorong",PAPUA BARAT,98416.0,Indonesia,,-0.8834556,131.2874923,https://maps.google.com/?cid=0x0:0x92c646f7dc2c33ee
supermarket,Pusat Perbelanjaan,SAGA BOSWESEN,"Jl. RA Kartini Jl. Boswesen No.33, Klasuur, Distrik Sorong Barat, Kota Sorong, Papua Bar. 98413","Klasuur, Distrik Sorong Barat, Kota Sorong",PAPUA BARAT,98413.0,Indonesia,82198859889.0,-0.8637467,131.2494116,https://maps.google.com/?cid=0x0:0xb095b8268ccda3e3
supermarket,Toko,DelliMart,"Jl. Basuki Rahmat No.Km 9 5, Sawagumu, Kec. Sorong Utara, Kota Sorong, Papua Bar.","Kota Sorong, Papua Bar.",PAPUA BARAT,,Indonesia,,-0.8869909,131.307032,https://maps.google.com/?cid=0x0:0x971b2767ce3be933
supermarket,Toko Swalayan,Hadi Supermarket  Dept. Store,"Jl. Imam Bonjol No.56, Fandoi, Kec. Biak Kota, Kabupaten Biak Numfor, Papua 98111","Fandoi, Kec. Biak Kota, Kabupaten Biak Numfor",PAPUA BARAT,98111.0,Indonesia,,-1.1800003,136.0824788,https://maps.google.com/?cid=0x0:0xdcad74b4384219ee
supermarket,Pusat Perbelanjaan,PARAGON SQUARE Mall  Hotel Sorong,"4874+4RH Paragon Square Mall, Jl. Basuki Rahmat Lt. 2, Sawagumu, Kec. Sorong Utara, Kota Sorong, Papua Bar. 98412","Jl. Basuki Rahmat Lt. 2, Sawagumu, Kec. Sorong Utara, Kota Sorong",PAPUA BARAT,98412.0,Indonesia,81247232214.0,-0.8871443,131.3071264,https://maps.google.com/?cid=0x0:0xd02481be48cb6e05
supermarket,Makanan Siap Saji,Kedai eraas,"4867+44W, Jl. Basuki Rahmat, Remu Sel, Kec. Sorong Utara, Kota Sorong, Papua Bar. 98412","Jl. Basuki Rahmat, Remu Sel, Kec. Sorong Utara, Kota Sorong",PAPUA BARAT,98412.0,Indonesia,82187505107.0,-0.8896664,131.3125242,https://maps.google.com/?cid=0x0:0xfdca1170469240b
supermarket,Toko,HADI Supermarket  Dept Store,"JFQX+RQC, Jl. Yos Sudarso, Oyehe, Distrik Nabire, Kabupaten Nabire, Papua 98811","Jl. Yos Sudarso, Oyehe, Distrik Nabire, Kabupaten Nabire",PAPUA BARAT,98811.0,Indonesia,98421367.0,-3.360447,135.4994055,https://maps.google.com/?cid=0x0:0x60bc70181b8864df
supermarket,Toko bahan makanan,HS Swalayan II,"478Q+X9Q, Bar, Remu Utara, Distrik Sorong, Kota Sorong, Papua Bar. 98412","Bar, Remu Utara, Distrik Sorong, Kota Sorong",PAPUA BARAT,98412.0,Indonesia,,-0.8825386,131.2884986,https://maps.google.com/?cid=0x0:0xef2ad6eba7dce152
supermarket,Kafe,Infinity Social House,"46MW+H87, Lido, Distrik Sorong, Kota Sorong, Papua Bar. 98411","Lido, Distrik Sorong, Kota Sorong",PAPUA BARAT,98411.0,Indonesia,82360700899.0,-0.86582,131.2452795,https://maps.google.com/?cid=0x0:0xde8c57d5950c604a
supermarket,Toko,Hidayat Kios,"Jl. Kalimantan No.56, Klabala, Distrik Sorong Barat, Kota Sorong, Papua Bar. 98411","Klabala, Distrik Sorong Barat, Kota Sorong",PAPUA BARAT,98411.0,Indonesia,85398930505.0,-0.8678398,131.2533224,https://maps.google.com/?cid=0x0:0x5ee206d74ffb57e0
supermarket,supermarket,Papua Bar. 98454,"Kabupaten Sorong Selatan, Papua Bar.","Kabupaten Sorong Selatan, Papua Bar.",PAPUA BARAT,,Indonesia,,-1.4196083,131.9989718,https://maps.google.com/?cid=0x0:0x85355e3327b207ba
supermarket,Pusat Perbelanjaan,Papua Supermarket  Dept. Store,"4869+F77 Bar, Sawagumu, Kec. Sorong Utara, Kota Sorong, Papua Bar. 98416","Sawagumu, Kec. Sorong Utara, Kota Sorong",PAPUA BARAT,98416.0,Indonesia,9513160123.0,-0.888831,131.3181847,https://maps.google.com/?cid=0x0:0x7b5f0926a74ad213
supermarket,Minimarket,SAGA Supermarket  Dept. Store,"Jalan A. Yani, Ruko Kuda Laut, Klademak, Kecamatan Sorong Manoi, Kota Sorong, Papua Bar. 98414","Ruko Kuda Laut, Klademak, Kecamatan Sorong Manoi, Kota Sorong",PAPUA BARAT,98414.0,Indonesia,951322784.0,-0.8765248,131.2576755,https://maps.google.com/?cid=0x0:0x963043ed646a7e1e
supermarket,Kantor Perusahaan,Supermarket GOTA,"4868+2X3, Jl. Sungai Maruni, Sawagumu, Distrik Sorong Timur, Kota Sorong, Papua Bar. 98416","Jl. Sungai Maruni, Sawagumu, Distrik Sorong Timur, Kota Sorong",PAPUA BARAT,98416.0,Indonesia,,-0.8900646,131.3173945,https://maps.google.com/?cid=0x0:0xe80a2989cd86300
supermarket,Balai masyarakat,Kampung Konda Distrik Konda,"CXG5+RM, Konda, Distrik Konda, Kabupaten Sorong Selatan, Papua Bar.","Kabupaten Sorong Selatan, Papua Bar.",PAPUA BARAT,,Indonesia,,-1.5729527,131.9591697,https://maps.google.com/?cid=0x0:0xbabb7a613b03d562
supermarket,Toko Makanan Sehat,Primo Supermarket Citos,"Town Square, Jl. TB Simatupang No.KAV.17 Lantai Dasar, West Cilandak, Cilandak, South Jakarta City, Jakarta 12430","Jl. TB Simatupang No.KAV.17 Lantai Dasar, West Cilandak, Cilandak, South Jakarta City",PAPUA BARAT,12430.0,Indonesia,2175920390.0,-6.2914315,106.7992178,https://maps.google.com/?cid=0x0:0x110a936a8d153b27
supermarket,Toko Kelontong Korea,Mu Gung Hwa Supermarket - Senopati,"Jl. Senayan No.43, RT.8/RW.5, Rw. Bar., Kec. Kby. Baru, Kota Jakarta Selatan, Daerah Khusus Ibukota Jakarta 12180","RT.8/RW.5, Rw. Bar., Kec. Kby. Baru, Kota Jakarta Selatan",PAPUA BARAT,12180.0,Indonesia,217222214.0,-6.2353938,106.8158782,https://maps.google.com/?cid=0x0:0x9ffba79e59c537d5
supermarket,Toko bahan makanan,Sagar indian supermarket,"Jl. Danau Sunter Utara Block R no 67, RT.1/RW.19, Sunter Agung, Tanjung Priok, North Jakarta City, Jakarta 14350","RT.1/RW.19, Sunter Agung, Tanjung Priok, North Jakarta City",PAPUA BARAT,14350.0,Indonesia,8164844875.0,-6.1380243,106.8668598,https://maps.google.com/?cid=0x0:0x93bf3a16f16ce723
supermarket,Cookie,Khong Guan Mart Mayestik,"Jl. Kyai Maja No.77E, RT.12/RW.3, Gunung, Kec. Kby. Baru, Kota Jakarta Selatan, Daerah Khusus Ibukota Jakarta 12120","RT.12/RW.3, Gunung, Kec. Kby. Baru, Kota Jakarta Selatan",PAPUA BARAT,12120.0,Indonesia,85924595156.0,-6.2417409,106.7912077,https://maps.google.com/?cid=0x0:0xeb2d3a15a4f266c3
supermarket,Cookie,Khong Guan Mart Sabang,"Jl. H. Agus Salim No.53, RT.1/RW.3, Kb. Sirih, Kec. Menteng, Kota Jakarta Pusat, Daerah Khusus Ibukota Jakarta 10340","RT.1/RW.3, Kb. Sirih, Kec. Menteng, Kota Jakarta Pusat",PAPUA BARAT,10340.0,Indonesia,85668782519.0,-6.1860795,106.8252335,https://maps.google.com/?cid=0x0:0x2c6a015090267471
supermarket,Minimarket,Khong Guan Mart,"GVC6+6F4, Jl. Kayu Manis, Cirimekar, Kec. Cibinong, Kabupaten Bogor, Jawa Barat","Kabupaten Bogor, Jawa Barat",PAPUA BARAT,,Indonesia,,-6.479494,106.8612024,https://maps.google.com/?cid=0x0:0xfe7a23639ce76993
supermarket,Toko umum,Koperasi Khong Guan,"GVC6+6FQ, Jl. Kayu Manis, Cirimekar, Kec. Cibinong, Kabupaten Bogor, Jawa Barat 16911","Jl. Kayu Manis, Cirimekar, Kec. Cibinong, Kabupaten Bogor",PAPUA BARAT,16911.0,Indonesia,,-6.4794088,106.8612393,https://maps.google.com/?cid=0x0:0xcde61e377d3d55dd
supermarket,supermarket,Kios Ketapang,"V5F8+2QM, Mate, Distrik Inanwatan, Kabupaten Sorong Selatan, Papua Bar. 98455","Mate, Distrik Inanwatan, Kabupaten Sorong Selatan",PAPUA BARAT,98455.0,Indonesia,,-2.1274003,132.1669107,https://maps.google.com/?cid=0x0:0xef01db1cb771f6e9
supermarket,supermarket,Distrik Moswaren,"Kabupaten Sorong Selatan, Papua Bar.","Kabupaten Sorong Selatan, Papua Bar.",PAPUA BARAT,,Indonesia,,-1.4917637,132.2410573,https://maps.google.com/?cid=0x0:0xc435d4289dbbc461
supermarket,Toko bahan makanan,Toko Sinar Utama A3,"G65Q+QV8, Bumi Ajo (Sp I), Distrik Moswaren, Kabupaten Sorong Selatan, Papua Bar. 98462","Bumi Ajo (Sp I), Distrik Moswaren, Kabupaten Sorong Selatan",PAPUA BARAT,98462.0,Indonesia,,-1.4905895,132.2397065,https://maps.google.com/?cid=0x0:0xa5c861ebcb39da12
supermarket,Toko Perlengkapan Rumah,Toko Dian,"G65R+3MM, Unnamed Road, Bumi Ajo (Sp I), Distrik Moswaren, Kabupaten Sorong Selatan, Papua Bar. 98462","Unnamed Road, Bumi Ajo (Sp I), Distrik Moswaren, Kabupaten Sorong Selatan",PAPUA BARAT,98462.0,Indonesia,,-1.492288,132.2416592,https://maps.google.com/?cid=0x0:0x494f8754fd815413
supermarket,Minimarket,SAGA Supermarket  Dept. Store,"Jalan A. Yani, Ruko Kuda Laut, Klademak, Kecamatan Sorong Manoi, Kota Sorong, Papua Bar. 98414","Ruko Kuda Laut, Klademak, Kecamatan Sorong Manoi, Kota Sorong",PAPUA BARAT,98414.0,Indonesia,951322784.0,-0.8765248,131.2576755,https://maps.google.com/?cid=0x0:0x963043ed646a7e1e
supermarket,Toko,Kios ADIVA,"F6RF+Q22, Hasik Jaya (Sp II), Distrik Moswaren, Kabupaten Sorong Selatan, Papua Bar. 98462","Hasik Jaya (Sp II), Distrik Moswaren, Kabupaten Sorong Selatan",PAPUA BARAT,98462.0,Indonesia,82238200736.0,-1.5084054,132.2219074,https://maps.google.com/?cid=0x0:0x1ab6c6d3d980af7e
supermarket,Pusat Perbelanjaan,Saga Aimas,"28VG+26V, Jl. Nangka, Malawili, Kec. Aimas, Kabupaten Sorong, Papua Bar. 98414","Jl. Nangka, Malawili, Kec. Aimas, Kabupaten Sorong",PAPUA BARAT,98414.0,Indonesia,81351816880.0,-0.9574598,131.3257559,https://maps.google.com/?cid=0x0:0x2ba45ddc0e9b2391
supermarket,Pusat Perbelanjaan,Papua Supermarket  Dept. Store,"4869+F77 Bar, Sawagumu, Kec. Sorong Utara, Kota Sorong, Papua Bar. 98416","Sawagumu, Kec. Sorong Utara, Kota Sorong",PAPUA BARAT,98416.0,Indonesia,9513160123.0,-0.888831,131.3181847,https://maps.google.com/?cid=0x0:0x7b5f0926a74ad213
supermarket,Pusat Perbelanjaan,Saga Mart Remu,"samping intense fitness, Jl. Mambruk No.10, Remu Utara, Distrik Sorong, Kota Sorong, Papua Bar. 98416","Jl. Mambruk No.10, Remu Utara, Distrik Sorong, Kota Sorong",PAPUA BARAT,98416.0,Indonesia,,-0.8834556,131.2874923,https://maps.google.com/?cid=0x0:0x92c646f7dc2c33ee
supermarket,Kantor Perusahaan,Supermarket GOTA,"4868+2X3, Jl. Sungai Maruni, Sawagumu, Distrik Sorong Timur, Kota Sorong, Papua Bar. 98416","Jl. Sungai Maruni, Sawagumu, Distrik Sorong Timur, Kota Sorong",PAPUA BARAT,98416.0,Indonesia,,-0.8900646,131.3173945,https://maps.google.com/?cid=0x0:0xe80a2989cd86300
supermarket,Toko,KIOS ANGGUN,"Keyen, Kec. Teminabuan, Kabupaten Sorong Selatan, Papua Bar. 98454","Kec. Teminabuan, Kabupaten Sorong Selatan",PAPUA BARAT,98454.0,Indonesia,82239111103.0,-1.4725076,132.0810821,https://maps.google.com/?cid=0x0:0x5accf3dcd29b5f12
supermarket,Kompleks Apartemen,Itigah_Negeri senja_Jln_Tapak Injil,"F8F6+4X, Kamro, Distrik Aitinyo, Kabupaten Maybrat, Papua Bar.","Kabupaten Maybrat, Papua Bar.",PAPUA BARAT,,Indonesia,,-1.5271736,132.3124584,https://maps.google.com/?cid=0x0:0xe24aac9c7c983f67
supermarket,Minimarket,SAGA Supermarket  Dept. Store,"Jalan A. Yani, Ruko Kuda Laut, Klademak, Kecamatan Sorong Manoi, Kota Sorong, Papua Bar. 98414","Ruko Kuda Laut, Klademak, Kecamatan Sorong Manoi, Kota Sorong",PAPUA BARAT,98414.0,Indonesia,951322784.0,-0.8765248,131.2576755,https://maps.google.com/?cid=0x0:0x963043ed646a7e1e
supermarket,Pusat Perbelanjaan,Papua Supermarket  Dept. Store,"4869+F77 Bar, Sawagumu, Kec. Sorong Utara, Kota Sorong, Papua Bar. 98416","Sawagumu, Kec. Sorong Utara, Kota Sorong",PAPUA BARAT,98416.0,Indonesia,9513160123.0,-0.888831,131.3181847,https://maps.google.com/?cid=0x0:0x7b5f0926a74ad213
supermarket,Komplek perumahan,Rumah Bpk Gustaf. L,"4859+784, Klawuyuk, Distrik Sorong Timur, Kota Sorong, Papua Bar. 98416","Klawuyuk, Distrik Sorong Timur, Kota Sorong",PAPUA BARAT,98416.0,Indonesia,,-0.8918739,131.3183248,https://maps.google.com/?cid=0x0:0x30559e7e5eb96ee4
supermarket,Toko Swalayan,Alfamidi Super Ciracas,"Jl. Tanjung No.6 5, RT.5/RW.5, Ciracas, Kec. Ciracas, Kota Jakarta Timur, Daerah Khusus Ibukota Jakarta 13740","RT.5/RW.5, Ciracas, Kec. Ciracas, Kota Jakarta Timur",PAPUA BARAT,13740.0,Indonesia,2187721636.0,-6.3294144,106.8753592,https://maps.google.com/?cid=0x0:0x8c315c5f3e221825
supermarket,Toko Swalayan,Gs supermarket,"Jl. KH. Hasyim Ashari No.93, RT.002/RW.003, Poris Plawad Utara, Kec. Cipondoh, Kota Tangerang, Banten 15148","RT.002/RW.003, Poris Plawad Utara, Kec. Cipondoh, Kota Tangerang",PAPUA BARAT,15148.0,Indonesia,2155712070.0,-6.1879187,106.661738,https://maps.google.com/?cid=0x0:0x86a83e6d17a220b2
supermarket,Toko Swalayan,GS The Fresh Supermarket Kemang Pratama,"Linc Square Kemang Pratama, Jl. Kemang Pratama Raya, RT.004/RW.001, Bojong Rawalumbu, Kec. Rawalumbu, Kota Bks, Jawa Barat 17116","Jl. Kemang Pratama Raya, RT.004/RW.001, Bojong Rawalumbu, Kec. Rawalumbu, Kota Bks",PAPUA BARAT,17116.0,Indonesia,2182416910.0,-6.2779418,106.9910558,https://maps.google.com/?cid=0x0:0x4ce692f4b9ef21ee
supermarket,Minimarket,Cumengs,"Gg. Kingkit IV No.8, RT.8/RW.4, Kb. Klp., Kecamatan Gambir, Kota Jakarta Pusat, Daerah Khusus Ibukota Jakarta 10120","RT.8/RW.4, Kb. Klp., Kecamatan Gambir, Kota Jakarta Pusat",PAPUA BARAT,10120.0,Indonesia,85161285582.0,-6.1649611,106.8275818,https://maps.google.com/?cid=0x0:0x1a209758cc121ddd
supermarket,Toko Swalayan,Mel Mart,"PVRC+425, Jl. Mayjen Sutoyo, RT.6/RW.8, Cililitan, Kec. Kramat jati, Kota Jakarta Timur, Daerah Khusus Ibukota Jakarta 12021","Jl. Mayjen Sutoyo, RT.6/RW.8, Cililitan, Kec. Kramat jati, Kota Jakarta Timur",PAPUA BARAT,12021.0,Indonesia,895803430090.0,-6.259735,106.8701147,https://maps.google.com/?cid=0x0:0x233887119b1ff8e8
supermarket,Toko Perlengkapan Hewan Peliharaan,SWEET OFFICIAL SHOP WAREHOUSE,"SWEET OFFICIAL SHOP (WAREHOUSE, Jl. Ralind II No.109, Cilangkap, Kec. Cipayung, Kota Jakarta Timur, Daerah Khusus Ibukota Jakarta 13870","Jl. Ralind II No.109, Cilangkap, Kec. Cipayung, Kota Jakarta Timur",PAPUA BARAT,13870.0,Indonesia,82124987852.0,-6.3260085,106.9056205,https://maps.google.com/?cid=0x0:0x447a23d675e6dcca
supermarket,Toko Swalayan,Ssayo Mart  Yukiguni,"Blok I No. 20, Karawaci Office Park, Jl. Imam Bonjol, Panunggangan Bar., Kec. Cibodas, Kota Tangerang, Banten 15139","Karawaci Office Park, Jl. Imam Bonjol, Panunggangan Bar., Kec. Cibodas, Kota Tangerang",PAPUA BARAT,15139.0,Indonesia,2135290000.0,-6.2240331,106.6188381,https://maps.google.com/?cid=0x0:0x7a215719bcf3a770
supermarket,Pusat Perbelanjaan,Center Rakitan,"Sebrang barak kerja, Jl. Pik Penggilingan, Penggilingan, Kec. Cakung, Kota Jakarta Timur, Daerah Khusus Ibukota Jakarta 13470","Jl. Pik Penggilingan, Penggilingan, Kec. Cakung, Kota Jakarta Timur",PAPUA BARAT,13470.0,Indonesia,87788999226.0,-6.2031867,106.9279703,https://maps.google.com/?cid=0x0:0xa6da2e849b4a00c
supermarket,Pemasok Peralatan Industri,PT. ADI RAYA MANDIRI,"Jl. Pinang Raya No.,70, RT.2/RW.2, Pd. Labu, Kec. Cilandak, Kota Jakarta Selatan, Daerah Khusus Ibukota Jakarta 12450","RT.2/RW.2, Pd. Labu, Kec. Cilandak, Kota Jakarta Selatan",PAPUA BARAT,12450.0,Indonesia,81310878688.0,-6.3083047,106.7971782,https://maps.google.com/?cid=0x0:0x5b82f57f017d5d84
supermarket,Kantor Perusahaan,AFC Life Science Indonesia,"Lippo Puri Tower, lantai 19th, ruang 1905. Jalan Puri Indah Raya Boulevard blok U1-3. St. Moritz, CBD, Kembangan Sel., Kec. Kembangan, Kota Jakarta Barat, Daerah Khusus Ibukota Jakarta 11610","lantai 19th, ruang 1905. Jalan Puri Indah Raya Boulevard blok U1-3. St. Moritz, CBD, Kembangan Sel., Kec. Kembangan, Kota Jakarta Barat",PAPUA BARAT,11610.0,Indonesia,816838232.0,-6.1885443,106.7385853,https://maps.google.com/?cid=0x0:0xd46aea47a5714474
supermarket,supermarket,Papua Bar. 98456,Papua Bar.,Papua Bar.,PAPUA BARAT,,Indonesia,,-1.2191286,131.8799408,https://maps.google.com/?cid=0x0:0x1193e0fa67947a8b
supermarket,Pusat Perbelanjaan,pasar pisang klamit,"RWXV+QX7, Unnamed Road, Klamit, Sawiat, South Sorong Regency, West Papua 98461","Unnamed Road, Klamit, Sawiat, South Sorong Regency",PAPUA BARAT,98461.0,Indonesia,,-1.1505898,131.9449361,https://maps.google.com/?cid=0x0:0x4f39880a3884f87e
supermarket,Toko,Kios Bawah Gunung,"VFHQ+827, Klamono, Distrik Klamono, Kabupaten Sorong, Papua Bar. 98457","Klamono, Distrik Klamono, Kabupaten Sorong",PAPUA BARAT,98457.0,Indonesia,,-1.1217,131.4875623,https://maps.google.com/?cid=0x0:0x9b157a6e9a4ff9a5
supermarket,Minimarket,SAGA Supermarket  Dept. Store,"Jalan A. Yani, Ruko Kuda Laut, Klademak, Kecamatan Sorong Manoi, Kota Sorong, Papua Bar. 98414","Ruko Kuda Laut, Klademak, Kecamatan Sorong Manoi, Kota Sorong",PAPUA BARAT,98414.0,Indonesia,951322784.0,-0.8765248,131.2576755,https://maps.google.com/?cid=0x0:0x963043ed646a7e1e
supermarket,Toko bahan makanan,Toko Sabila / Src Sabila,"sp 3 Makbusun, Mayamuk, Papua Bar., Makbusun, Mayamuk, Kabupaten Sorong, Papua Bar. 98451","Mayamuk, Papua Bar., Makbusun, Mayamuk, Kabupaten Sorong",PAPUA BARAT,98451.0,Indonesia,,-1.0315998,131.2901767,https://maps.google.com/?cid=0x0:0x6a106109b24ef992
supermarket,Pusat Perbelanjaan,Saga Aimas,"28VG+26V, Jl. Nangka, Malawili, Kec. Aimas, Kabupaten Sorong, Papua Bar. 98414","Jl. Nangka, Malawili, Kec. Aimas, Kabupaten Sorong",PAPUA BARAT,98414.0,Indonesia,81351816880.0,-0.9574598,131.3257559,https://maps.google.com/?cid=0x0:0x2ba45ddc0e9b2391
supermarket,Pusat Perbelanjaan,Papua Supermarket  Dept. Store,"4869+F77 Bar, Sawagumu, Kec. Sorong Utara, Kota Sorong, Papua Bar. 98416","Sawagumu, Kec. Sorong Utara, Kota Sorong",PAPUA BARAT,98416.0,Indonesia,9513160123.0,-0.888831,131.3181847,https://maps.google.com/?cid=0x0:0x7b5f0926a74ad213
supermarket,Toko Swalayan,TOKO PUTRA PLASTIK,"VFHQ+38Q, Jalan nusa indah sp2, Klamono, Distrik Klamono, Kabupaten Sorong, Papua Bar.","Kabupaten Sorong, Papua Bar.",PAPUA BARAT,,Indonesia,,-1.1222877,131.488359,https://maps.google.com/?cid=0x0:0x473e6c1c24d35617
supermarket,Nasi,Campus Mart Unimuda,"Bar, Mariat Pantai, Kec. Aimas, Kabupaten Sorong, Papua Bar. 98414","Mariat Pantai, Kec. Aimas, Kabupaten Sorong",PAPUA BARAT,98414.0,Indonesia,,-0.982762,131.3043289,https://maps.google.com/?cid=0x0:0x69e576f55583f09d
supermarket,supermarket,Kios Nur Fadilah,"RFV3+JV5, Malasigit, Distrik Malabotom, Kabupaten Sorong, Papua Barat Daya, 98451","Malasigit, Distrik Malabotom, Kabupaten Sorong",PAPUA BARAT,98451.0,Indonesia,,-1.1559875,131.4547344,https://maps.google.com/?cid=0x0:0x290fe5d830534c7d
supermarket,Pusat Perbelanjaan,Toko Anugrha,"Jl. Teminabuan Ayamaru, Wermit, Kec. Teminabuan, Kabupaten Sorong Selatan, Papua Bar. 98454","Wermit, Kec. Teminabuan, Kabupaten Sorong Selatan",PAPUA BARAT,98454.0,Indonesia,85395564530.0,-1.4507306,132.0254178,https://maps.google.com/?cid=0x0:0x5022914d97504e53
supermarket,supermarket,Distrik Seremuk,"Kabupaten Sorong Selatan, Papua Bar.","Kabupaten Sorong Selatan, Papua Bar.",PAPUA BARAT,,Indonesia,,-1.3800751,131.971713,https://maps.google.com/?cid=0x0:0xe12c32b535c8440a
supermarket,Toko bahan makanan,Toko TE-MI (Tehit Mitra,"G2VG+F7C, Wermit, Kec. Teminabuan, Kabupaten Sorong Selatan, Papua Bar. 98454","Wermit, Kec. Teminabuan, Kabupaten Sorong Selatan",PAPUA BARAT,98454.0,Indonesia,8114871178.0,-1.4563088,132.0256542,https://maps.google.com/?cid=0x0:0xa9f60ad72f60ea8d
supermarket,Minimarket,TOKO RINI JAYA,"G3F9+8XQ, Jl. Poros Teminabuan-ayanmaru, depan RSUD, Keyen, Kec. Teminabuan, Kabupaten Sorong Selatan, Papua Bar. 98454","Jl. Poros Teminabuan-ayanmaru, depan RSUD, Keyen, Kec. Teminabuan, Kabupaten Sorong Selatan",PAPUA BARAT,98454.0,Indonesia,81248712033.0,-1.4766617,132.0699779,https://maps.google.com/?cid=0x0:0x8a9b092ff180067
supermarket,Toko,TOKO MULIA Fotocopy Center,"H249+W3Q, Jl. Sengget, Sayolo, Kec. Teminabuan, Kabupaten Sorong Selatan, Papua Bar. 98454","Jl. Sengget, Sayolo, Kec. Teminabuan, Kabupaten Sorong Selatan",PAPUA BARAT,98454.0,Indonesia,85244751144.0,-1.4426616,132.0177473,https://maps.google.com/?cid=0x0:0x772a50f9f847fb73
supermarket,Minimarket,SAGA Supermarket  Dept. Store,"Jalan A. Yani, Ruko Kuda Laut, Klademak, Kecamatan Sorong Manoi, Kota Sorong, Papua Bar. 98414","Ruko Kuda Laut, Klademak, Kecamatan Sorong Manoi, Kota Sorong",PAPUA BARAT,98414.0,Indonesia,951322784.0,-0.8765248,131.2576755,https://maps.google.com/?cid=0x0:0x963043ed646a7e1e
supermarket,Kios,Kios Solata Paebang,"H239+XXP, Kaibus, Kec. Teminabuan, Kabupaten Sorong Selatan, Papua Bar. 98454","Kaibus, Kec. Teminabuan, Kabupaten Sorong Selatan",PAPUA BARAT,98454.0,Indonesia,85243273321.0,-1.4450437,132.0199493,https://maps.google.com/?cid=0x0:0x375bf430f7b33998
supermarket,Pusat Perbelanjaan,Papua Supermarket  Dept. Store,"4869+F77 Bar, Sawagumu, Kec. Sorong Utara, Kota Sorong, Papua Bar. 98416","Sawagumu, Kec. Sorong Utara, Kota Sorong",PAPUA BARAT,98416.0,Indonesia,9513160123.0,-0.888831,131.3181847,https://maps.google.com/?cid=0x0:0x7b5f0926a74ad213
supermarket,Toko bahan makanan,Toko Budi Bhakti,"H22F+R7H, Jl. Poros, RT.01/RW.03, Wermit, Teminabuan, South Sorong Regency, West Papua 98454","Jl. Poros, RT.01/RW.03, Wermit, Teminabuan, South Sorong Regency",PAPUA BARAT,98454.0,Indonesia,,-1.4479312,132.0232434,https://maps.google.com/?cid=0x0:0xcd8309a780cfd712
supermarket,Toko,Andika Pratama,"H256+CC, Kohoin, Kec. Teminabuan, Kabupaten Sorong Selatan, Papua Bar. 98454","Kohoin, Kec. Teminabuan, Kabupaten Sorong Selatan",PAPUA BARAT,98454.0,Indonesia,,-1.4414375,132.0110625,https://maps.google.com/?cid=0x0:0xb5ecc2f8939a74a3
supermarket,Toko bahan makanan,TOKO BINTANG BUANA BARU,"G2WH+R3R, Wermit, Kec. Teminabuan, Kabupaten Sorong Selatan, Papua Bar. 98454","Wermit, Kec. Teminabuan, Kabupaten Sorong Selatan",PAPUA BARAT,98454.0,Indonesia,,-1.4528833,132.027655,https://maps.google.com/?cid=0x0:0x8970edd9d06599c2
supermarket,Pusat Perbelanjaan,Saga Mart Remu,"samping intense fitness, Jl. Mambruk No.10, Remu Utara, Distrik Sorong, Kota Sorong, Papua Bar. 98416","Jl. Mambruk No.10, Remu Utara, Distrik Sorong, Kota Sorong",PAPUA BARAT,98416.0,Indonesia,,-0.8834556,131.2874923,https://maps.google.com/?cid=0x0:0x92c646f7dc2c33ee
supermarket,Toko Perlengkapan Rumah,Kios Hendrik (yandexsquad),"G2VF+3G3, Wermit, Kec. Teminabuan, Kabupaten Sorong Selatan, Papua Bar. 98454","Wermit, Kec. Teminabuan, Kabupaten Sorong Selatan",PAPUA BARAT,98454.0,Indonesia,,-1.4573519,132.0237974,https://maps.google.com/?cid=0x0:0xb475fffeaca43229
supermarket,Kantor Perusahaan,Supermarket GOTA,"4868+2X3, Jl. Sungai Maruni, Sawagumu, Distrik Sorong Timur, Kota Sorong, Papua Bar. 98416","Jl. Sungai Maruni, Sawagumu, Distrik Sorong Timur, Kota Sorong",PAPUA BARAT,98416.0,Indonesia,,-0.8900646,131.3173945,https://maps.google.com/?cid=0x0:0xe80a2989cd86300
supermarket,Pusat Perbelanjaan,Toko Anugrha,"Jl. Teminabuan Ayamaru, Wermit, Kec. Teminabuan, Kabupaten Sorong Selatan, Papua Bar. 98454","Wermit, Kec. Teminabuan, Kabupaten Sorong Selatan",PAPUA BARAT,98454.0,Indonesia,85395564530.0,-1.4507306,132.0254178,https://maps.google.com/?cid=0x0:0x5022914d97504e53
supermarket,supermarket,Kec. Teminabuan,"Kabupaten Sorong Selatan, Papua Bar.","Kabupaten Sorong Selatan, Papua Bar.",PAPUA BARAT,,Indonesia,,-1.4418184,132.0109997,https://maps.google.com/?cid=0x0:0x26fd6623ef786a25
supermarket,Toko bahan makanan,Toko TE-MI (Tehit Mitra,"G2VG+F7C, Wermit, Kec. Teminabuan, Kabupaten Sorong Selatan, Papua Bar. 98454","Wermit, Kec. Teminabuan, Kabupaten Sorong Selatan",PAPUA BARAT,98454.0,Indonesia,8114871178.0,-1.4563088,132.0256542,https://maps.google.com/?cid=0x0:0xa9f60ad72f60ea8d
supermarket,Minimarket,TOKO RINI JAYA,"G3F9+8XQ, Jl. Poros Teminabuan-ayanmaru, depan RSUD, Keyen, Kec. Teminabuan, Kabupaten Sorong Selatan, Papua Bar. 98454","Jl. Poros Teminabuan-ayanmaru, depan RSUD, Keyen, Kec. Teminabuan, Kabupaten Sorong Selatan",PAPUA BARAT,98454.0,Indonesia,81248712033.0,-1.4766617,132.0699779,https://maps.google.com/?cid=0x0:0x8a9b092ff180067
supermarket,Toko,TOKO MULIA Fotocopy Center,"H249+W3Q, Jl. Sengget, Sayolo, Kec. Teminabuan, Kabupaten Sorong Selatan, Papua Bar. 98454","Jl. Sengget, Sayolo, Kec. Teminabuan, Kabupaten Sorong Selatan",PAPUA BARAT,98454.0,Indonesia,85244751144.0,-1.4426616,132.0177473,https://maps.google.com/?cid=0x0:0x772a50f9f847fb73
supermarket,Toko bahan makanan,Toko irman,"Jl. poros teminabuan-ayamaru, Keyen, Kec. Teminabuan, Kabupaten Sorong Selatan, Papua Bar. 98454","Keyen, Kec. Teminabuan, Kabupaten Sorong Selatan",PAPUA BARAT,98454.0,Indonesia,,-1.4825085,132.0902355,https://maps.google.com/?cid=0x0:0xc7675e08cabd48b5
supermarket,Toko umum,KIOS RAFFA,"G2VF+4QQ, Wermit, Kec. Teminabuan, Kabupaten Sorong Selatan, Papua Bar. 98454","Wermit, Kec. Teminabuan, Kabupaten Sorong Selatan",PAPUA BARAT,98454.0,Indonesia,,-1.4571312,132.0243846,https://maps.google.com/?cid=0x0:0x20a934d7eee76214
supermarket,Toko,KIOS ANGGUN,"Keyen, Kec. Teminabuan, Kabupaten Sorong Selatan, Papua Bar. 98454","Kec. Teminabuan, Kabupaten Sorong Selatan",PAPUA BARAT,98454.0,Indonesia,82239111103.0,-1.4725076,132.0810821,https://maps.google.com/?cid=0x0:0x5accf3dcd29b5f12
supermarket,Pusat Perbelanjaan,Pasar Kajase,"Wermit, Kec. Teminabuan, Kabupaten Sorong Selatan, Papua Bar. 98454","Kec. Teminabuan, Kabupaten Sorong Selatan",PAPUA BARAT,98454.0,Indonesia,,-1.4573227,132.0243258,https://maps.google.com/?cid=0x0:0x388eefbcd072c19c
supermarket,Toko umum,Kios razan,"G2VF+3WP, Wermit, Kec. Teminabuan, Kabupaten Sorong Selatan, Papua Bar. 98454","Wermit, Kec. Teminabuan, Kabupaten Sorong Selatan",PAPUA BARAT,98454.0,Indonesia,,-1.4572587,132.0246986,https://maps.google.com/?cid=0x0:0xf5b4ee2e5c7736b8
supermarket,Toko bahan makanan,FOTOCOPY DIANA,"H22F+Q8W, Wermit, Kec. Teminabuan, Kabupaten Sorong Selatan, Papua Bar. 98454","Wermit, Kec. Teminabuan, Kabupaten Sorong Selatan",PAPUA BARAT,98454.0,Indonesia,,-1.4480051,132.0233401,https://maps.google.com/?cid=0x0:0x469460062207a908
supermarket,Toko bahan makanan,TOKO BINTANG BUANA BARU,"G2WH+R3R, Wermit, Kec. Teminabuan, Kabupaten Sorong Selatan, Papua Bar. 98454","Wermit, Kec. Teminabuan, Kabupaten Sorong Selatan",PAPUA BARAT,98454.0,Indonesia,,-1.4528833,132.027655,https://maps.google.com/?cid=0x0:0x8970edd9d06599c2
supermarket,Toko bahan makanan,Toko Niko,"G3FC+9J, Keyen, Kec. Teminabuan, Kabupaten Sorong Selatan, Papua Bar. 98454","Keyen, Kec. Teminabuan, Kabupaten Sorong Selatan",PAPUA BARAT,98454.0,Indonesia,,-1.4767176,132.07167,https://maps.google.com/?cid=0x0:0x391fefd5c8855631
supermarket,Toko,Awan Foto Copy,"Jl. Poros, RT.01/RW.03, Wermit, Kec. Teminabuan, Kabupaten Sorong Selatan, Papua Bar. 98454","RT.01/RW.03, Wermit, Kec. Teminabuan, Kabupaten Sorong Selatan",PAPUA BARAT,98454.0,Indonesia,85244786677.0,-1.4479093,132.023216,https://maps.google.com/?cid=0x0:0x287c6aa6ba919f6b
supermarket,supermarket,Distrik Wayer,"Kabupaten Sorong Selatan, Papua Bar.","Kabupaten Sorong Selatan, Papua Bar.",PAPUA BARAT,,Indonesia,,-1.4981267,132.1276575,https://maps.google.com/?cid=0x0:0xa31b66c806bf6157
supermarket,Minimarket,TOKO RINI JAYA,"G3F9+8XQ, Jl. Poros Teminabuan-ayanmaru, depan RSUD, Keyen, Kec. Teminabuan, Kabupaten Sorong Selatan, Papua Bar. 98454","Jl. Poros Teminabuan-ayanmaru, depan RSUD, Keyen, Kec. Teminabuan, Kabupaten Sorong Selatan",PAPUA BARAT,98454.0,Indonesia,81248712033.0,-1.4766617,132.0699779,https://maps.google.com/?cid=0x0:0x8a9b092ff180067
supermarket,Pusat Perbelanjaan,Toko Anugrha,"Jl. Teminabuan Ayamaru, Wermit, Kec. Teminabuan, Kabupaten Sorong Selatan, Papua Bar. 98454","Wermit, Kec. Teminabuan, Kabupaten Sorong Selatan",PAPUA BARAT,98454.0,Indonesia,85395564530.0,-1.4507306,132.0254178,https://maps.google.com/?cid=0x0:0x5022914d97504e53
supermarket,Minimarket,Win Mart,"Jl. Drs Esau Sesa, Wosi, Kec. Manokwari Bar., Kabupaten Manokwari, Papua Bar. 98312","Wosi, Kec. Manokwari Bar., Kabupaten Manokwari",PAPUA BARAT,98312.0,Indonesia,,-0.8713031,134.0464301,https://maps.google.com/?cid=0x0:0xf38b5c7878a43c12
supermarket,Toko,KIOS ANGGUN,"Keyen, Kec. Teminabuan, Kabupaten Sorong Selatan, Papua Bar. 98454","Kec. Teminabuan, Kabupaten Sorong Selatan",PAPUA BARAT,98454.0,Indonesia,82239111103.0,-1.4725076,132.0810821,https://maps.google.com/?cid=0x0:0x5accf3dcd29b5f12
supermarket,Toko bahan makanan,Kalawai Mart,"42GW+JX7, Jl. Drs Esau Sesa, Wosi, Kec. Manokwari Bar., Kabupaten Manokwari, Papua Bar. 98312","Jl. Drs Esau Sesa, Wosi, Kec. Manokwari Bar., Kabupaten Manokwari",PAPUA BARAT,98312.0,Indonesia,82239404628.0,-0.8734685,134.0474365,https://maps.google.com/?cid=0x0:0xa03f46416c062468
supermarket,Kantor Perusahaan,Supermarket GOTA,"4868+2X3, Jl. Sungai Maruni, Sawagumu, Distrik Sorong Timur, Kota Sorong, Papua Bar. 98416","Jl. Sungai Maruni, Sawagumu, Distrik Sorong Timur, Kota Sorong",PAPUA BARAT,98416.0,Indonesia,,-0.8900646,131.3173945,https://maps.google.com/?cid=0x0:0xe80a2989cd86300
supermarket,Toko Swalayan,Surya Mart,"C8V2+G83, Jl. Irian Kepi, Kepi, Kec. Obaa, Kabupaten Mappi, Papua 99881","Jl. Irian Kepi, Kepi, Kec. Obaa, Kabupaten Mappi",PAPUA BARAT,99881.0,Indonesia,85254867242.0,-6.5562444,139.3007867,https://maps.google.com/?cid=0x0:0x160bad2921fdf723
supermarket,Toko bahan makanan,Toko TE-MI (Tehit Mitra,"G2VG+F7C, Wermit, Kec. Teminabuan, Kabupaten Sorong Selatan, Papua Bar. 98454","Wermit, Kec. Teminabuan, Kabupaten Sorong Selatan",PAPUA BARAT,98454.0,Indonesia,8114871178.0,-1.4563088,132.0256542,https://maps.google.com/?cid=0x0:0xa9f60ad72f60ea8d
supermarket,Toko bahan makanan,Toko Bone Indah Teminabuan,"G2WH+V3C, Wermit, Kec. Teminabuan, Kabupaten Sorong Selatan, Papua Bar. 98454","Wermit, Kec. Teminabuan, Kabupaten Sorong Selatan",PAPUA BARAT,98454.0,Indonesia,,-1.4529289,132.0278053,https://maps.google.com/?cid=0x0:0xf4e0f4c81bb47bbb
supermarket,Toko bahan makanan,Toko Budi Bhakti,"H22F+R7H, Jl. Poros, RT.01/RW.03, Wermit, Teminabuan, South Sorong Regency, West Papua 98454","Jl. Poros, RT.01/RW.03, Wermit, Teminabuan, South Sorong Regency",PAPUA BARAT,98454.0,Indonesia,,-1.4479312,132.0232434,https://maps.google.com/?cid=0x0:0xcd8309a780cfd712
supermarket,Toko bahan makanan,TOKO BINTANG BUANA BARU,"G2WH+R3R, Wermit, Kec. Teminabuan, Kabupaten Sorong Selatan, Papua Bar. 98454","Wermit, Kec. Teminabuan, Kabupaten Sorong Selatan",PAPUA BARAT,98454.0,Indonesia,,-1.4528833,132.027655,https://maps.google.com/?cid=0x0:0x8970edd9d06599c2
supermarket,Toko,Kios ADIVA,"F6RF+Q22, Hasik Jaya (Sp II), Distrik Moswaren, Kabupaten Sorong Selatan, Papua Bar. 98462","Hasik Jaya (Sp II), Distrik Moswaren, Kabupaten Sorong Selatan",PAPUA BARAT,98462.0,Indonesia,82238200736.0,-1.5084054,132.2219074,https://maps.google.com/?cid=0x0:0x1ab6c6d3d980af7e
supermarket,Pusat Perbelanjaan,Pasar soyar,"7GC5+FQM, Masabuay, selatan pasar ikan, Wasior I, Distrik Wasior, Kabupaten Teluk Wondama, Papua Bar. 98362","Masabuay, selatan pasar ikan, Wasior I, Distrik Wasior, Kabupaten Teluk Wondama",PAPUA BARAT,98362.0,Indonesia,822715566.0,-2.7287807,134.5094141,https://maps.google.com/?cid=0x0:0x29ab54816e33ac1d
