Category,Real Category,Business Name,Address,City,State,Postal Code,Country,Phone,Latitude,Longitude,Map Link
perumahan,perumahan,Distrik Fokour,"Kabupaten Sorong Selatan, Papua Bar.","Kabupaten Sorong Selatan, Papua Bar.",PAPUA BARAT,,Indonesia,,-1.1621937,132.0207079,https://maps.google.com/?cid=0x0:0xca5b0bfb905adc24
perumahan,Pembangunan Perumahan,"Kampung pasir putih, Distrik fkour, kab.sorong selatan","RXWP+RC, Pasir Putih, Distrik Fokour, Kabupaten Sorong Selatan, Papua Bar.","Kabupaten Sorong Selatan, Papua Bar.",PAPUA BARAT,,Indonesia,,-1.1529656,131.9860607,https://maps.google.com/?cid=0x0:0xbb12c2fc60eefa3a
perumahan,Pembangunan Perumahan,Pasir Putih,"R2PC+WQ, Bemus, Distrik Fokour, Kabupaten Sorong Selatan, Papua Bar.","Kabupaten Sorong Selatan, Papua Bar.",PAPUA BARAT,,Indonesia,,-1.162701,132.021956,https://maps.google.com/?cid=0x0:0x51df979d8a5bb255
perumahan,Komplek perumahan,Kampung garma,"RXX6+7M, Klamit, Distrik Sawiat, Kabupaten Sorong Selatan, Papua Bar. 98461","Klamit, Distrik Sawiat, Kabupaten Sorong Selatan",PAPUA BARAT,98461.0,Indonesia,,-1.150763,131.962113,https://maps.google.com/?cid=0x0:0x638a663d24624a9e
perumahan,Pembangunan Perumahan,"Pasir putih,kab.sorong selalu, Indonesia","RXWM+JG6, Pasir Putih, Distrik Fokour, Kabupaten Sorong Selatan, Papua Bar. 98461","Pasir Putih, Distrik Fokour, Kabupaten Sorong Selatan",PAPUA BARAT,98461.0,Indonesia,,-1.153455,131.9837685,https://maps.google.com/?cid=0x0:0xf27eef78192770b
perumahan,Komplek perumahan,Kampung Wen,"QX99+VPP, Wen, Distrik Sawiat, Kabupaten Sorong Selatan, Papua Bar.","Kabupaten Sorong Selatan, Papua Bar.",PAPUA BARAT,,Indonesia,,-1.2302998,131.9693385,https://maps.google.com/?cid=0x0:0xe02f6b078a3bb28f
perumahan,Pembangunan Perumahan,Kampung siri siri Distrik Inanwatan,"V48G+44F, Mugim, Kec. Matemani, Kabupaten Sorong Selatan, Papua Bar.","Kabupaten Sorong Selatan, Papua Bar.",PAPUA BARAT,,Indonesia,,-2.1346821,132.1252945,https://maps.google.com/?cid=0x0:0xcfe5ae37311baf33
perumahan,perumahan,Distrik Inanwatan,"Kabupaten Sorong Selatan, Papua Bar.","Kabupaten Sorong Selatan, Papua Bar.",PAPUA BARAT,,Indonesia,,-2.1273304,132.1663024,https://maps.google.com/?cid=0x0:0x871fec0706e82bc5
perumahan,Layanan Transportasi,Bandara Inanwatan,"V5C7+W64, Mate, Distrik Inanwatan, Kabupaten Sorong Selatan, Papua Bar. 98455","Mate, Distrik Inanwatan, Kabupaten Sorong Selatan",PAPUA BARAT,98455.0,Indonesia,82196826597.0,-2.1277487,132.1630745,https://maps.google.com/?cid=0x0:0xd0b9c5c7d40453cc
perumahan,perumahan,Anak Bsm,"V5F8+C9H, Mate, Distrik Inanwatan, Kabupaten Sorong Selatan, Papua Bar. 98455","Mate, Distrik Inanwatan, Kabupaten Sorong Selatan",PAPUA BARAT,98455.0,Indonesia,,-2.1261053,132.1667035,https://maps.google.com/?cid=0x0:0x9b2ca39ae5d93410
perumahan,perumahan,Kompleks bidaru,"V5H9+22V, Mate, Distrik Inanwatan, Kabupaten Sorong Selatan, Papua Bar. 98455","Mate, Distrik Inanwatan, Kabupaten Sorong Selatan",PAPUA BARAT,98455.0,Indonesia,,-2.1223756,132.1675403,https://maps.google.com/?cid=0x0:0x810535d31569916c
perumahan,perumahan,Kec. Matemani,"Kabupaten Sorong Selatan, Papua Bar.","Kabupaten Sorong Selatan, Papua Bar.",PAPUA BARAT,,Indonesia,,-1.9496392,132.2312838,https://maps.google.com/?cid=0x0:0xced62b996f227502
perumahan,Komplek perumahan,Kampung Korewatara,"Q9Q7+92, Totona, Distrik Kokoda, Kabupaten Sorong Selatan, Papua Bar.","Kabupaten Sorong Selatan, Papua Bar.",PAPUA BARAT,,Indonesia,,-2.2115472,132.3625007,https://maps.google.com/?cid=0x0:0xdf8c89e2578d760
perumahan,perumahan,Distrik Kokoda,"Kabupaten Sorong Selatan, Papua Bar.","Kabupaten Sorong Selatan, Papua Bar.",PAPUA BARAT,,Indonesia,,-2.1274352,132.4263464,https://maps.google.com/?cid=0x0:0xa783056c2a04f79f
perumahan,Komplek perumahan,Kampung Birawaku,"V92J+M5, Negeri Besar, Distrik Kokoda, Kabupaten Sorong Selatan, Papua Bar.","Kabupaten Sorong Selatan, Papua Bar.",PAPUA BARAT,,Indonesia,,-2.1483545,132.3804675,https://maps.google.com/?cid=0x0:0xc67e15e9b9957e55
perumahan,perumahan,Kampung Migori,"Q86F+7X8, Migori, Distrik Kokoda, Kabupaten Sorong Selatan, Papua Bar. Daya","Kabupaten Sorong Selatan, Papua Bar.",PAPUA BARAT,,Indonesia,,-2.2393498,132.324948,https://maps.google.com/?cid=0x0:0xb55c7824574c1e72
perumahan,Komplek perumahan,Kampung Migori,"Q9Q7+W5, Totona, Distrik Kokoda, Kabupaten Sorong Selatan, Papua Bar.","Kabupaten Sorong Selatan, Papua Bar.",PAPUA BARAT,,Indonesia,,-2.2101716,132.3629111,https://maps.google.com/?cid=0x0:0x3f545aa2d313c66a
perumahan,Komplek perumahan,Kampung Arbasina,"V92J+M5, Negeri Besar, Distrik Kokoda, Kabupaten Sorong Selatan, Papua Bar.","Kabupaten Sorong Selatan, Papua Bar.",PAPUA BARAT,,Indonesia,,-2.1495205,132.3788565,https://maps.google.com/?cid=0x0:0x3a54349c7a030099
perumahan,Kantor Pemerintah,Kampung Nebes,"VCCG+V2P, Nayakore, Distrik Kokoda, Kabupaten Sorong Selatan, Papua Bar.","Kabupaten Sorong Selatan, Papua Bar.",PAPUA BARAT,,Indonesia,,-2.1285525,132.4250616,https://maps.google.com/?cid=0x0:0x741c945bd2e7abbc
perumahan,Sekolah menengah,Asrama Siswa SMP Negeri 1 Kokoda/Tarof,"QCJV+4J5, Jalan tergerai, kampung Trof, Distrik Kokoda, Kabupaten Sorong Selatan, Papua Bar.","Kabupaten Sorong Selatan, Papua Bar.",PAPUA BARAT,,Indonesia,,-2.2197336,132.4440949,https://maps.google.com/?cid=0x0:0xe1e021925153cdf9
perumahan,perumahan,Tanite tan,"P9RP+43, Korewatara, Distrik Kokoda, Kabupaten Sorong Selatan, Papua Bar.","Kabupaten Sorong Selatan, Papua Bar.",PAPUA BARAT,,Indonesia,,-2.2596807,132.3852495,https://maps.google.com/?cid=0x0:0x35ab6cc658e801fc
perumahan,Komplek perumahan,Kampung Kasuweri,"V92J+M5, Negeri Besar, Distrik Kokoda, Kabupaten Sorong Selatan, Papua Bar.","Kabupaten Sorong Selatan, Papua Bar.",PAPUA BARAT,,Indonesia,,-2.148576,132.3793373,https://maps.google.com/?cid=0x0:0xeb1cd6f8e75f3985
perumahan,perumahan,Kec. Kokoda Utara,"Kabupaten Sorong Selatan, Papua Bar.","Kabupaten Sorong Selatan, Papua Bar.",PAPUA BARAT,,Indonesia,,-1.8762266,132.3641297,https://maps.google.com/?cid=0x0:0xa4294849d564b6d1
perumahan,Komplek perumahan,Kampung nayakore,"VC7C+RXF, Nayakore, Distrik Kokoda, Kabupaten Sorong Selatan, Papua Bar. 98455","Nayakore, Distrik Kokoda, Kabupaten Sorong Selatan",PAPUA BARAT,98455.0,Indonesia,,-2.1354464,132.4224095,https://maps.google.com/?cid=0x0:0x6ce289d9819fde00
perumahan,Kantor Pemerintah,Kampung kamundan dua,"3CXH+P79, Kamundan, Kec. Kokoda Utara, Kabupaten Sorong Selatan, Papua Bar. 98455","Kamundan, Kec. Kokoda Utara, Kabupaten Sorong Selatan",PAPUA BARAT,98455.0,Indonesia,,-1.9007247,132.4282484,https://maps.google.com/?cid=0x0:0xd2af8eae637702ed
perumahan,Pembangunan Perumahan,Kampung mukere,"49JP+9Q, Sumano, Kais, Kabupaten Sorong Selatan, Papua Bar.","Kabupaten Sorong Selatan, Papua Bar.",PAPUA BARAT,,Indonesia,,-1.8691101,132.3869118,https://maps.google.com/?cid=0x0:0xca241f68a2a34bbe
perumahan,Pembangunan Perumahan,Kampung benawa 1,"49MQ+M5, Sumano, Kais, Kabupaten Sorong Selatan, Papua Bar.","Kabupaten Sorong Selatan, Papua Bar.",PAPUA BARAT,,Indonesia,,-1.8658187,132.3878939,https://maps.google.com/?cid=0x0:0xf7f12820ba9a0af6
perumahan,Perhimpunan Pengembang Perumahan,Pelabuhan kampung KAURI,"49QQ+24, Sumano, Kais, Kabupaten Sorong Selatan, Papua Bar.","Kabupaten Sorong Selatan, Papua Bar.",PAPUA BARAT,,Indonesia,,-1.8624905,132.3878684,https://maps.google.com/?cid=0x0:0xcd86fa82918e5757
perumahan,Kantor Pemerintah,Kampung Nebes,"VCCG+V2P, Nayakore, Distrik Kokoda, Kabupaten Sorong Selatan, Papua Bar.","Kabupaten Sorong Selatan, Papua Bar.",PAPUA BARAT,,Indonesia,,-2.1285525,132.4250616,https://maps.google.com/?cid=0x0:0x741c945bd2e7abbc
perumahan,Komplek perumahan,Kampung Birawaku,"V92J+M5, Negeri Besar, Distrik Kokoda, Kabupaten Sorong Selatan, Papua Bar.","Kabupaten Sorong Selatan, Papua Bar.",PAPUA BARAT,,Indonesia,,-2.1483545,132.3804675,https://maps.google.com/?cid=0x0:0xc67e15e9b9957e55
perumahan,perumahan,Papua Bar.,,Papua Bar.,PAPUA BARAT,,Indonesia,,-1.3361154,133.1747162,https://maps.google.com/?cid=0x0:0x5349c1f8c5c7cb62
perumahan,Perhimpunan Pengembang Perumahan,Rumah,"Blok F No 10, Pasir Putih, Kec. Sawangan, Kota Depok, Jawa Barat 16519","Pasir Putih, Kec. Sawangan, Kota Depok",PAPUA BARAT,16519.0,Indonesia,,-6.4260468,106.7794935,https://maps.google.com/?cid=0x0:0x8d2cdc3e6e8b3fc8
perumahan,Komplek perumahan,Rumah Konda,"Jl. Griya Sawangan Asri No.A1 No.9, Pasir Putih, Kec. Sawangan, Kota Depok, Jawa Barat 16519","Pasir Putih, Kec. Sawangan, Kota Depok",PAPUA BARAT,16519.0,Indonesia,,-6.4255403,106.7841888,https://maps.google.com/?cid=0x0:0x10fed7b87c190957
perumahan,Pembangunan Perumahan,Dermaga kampung warmagege,"CXP4+53, Nakna, Distrik Konda, Kabupaten Sorong Selatan, Papua Bar.","Kabupaten Sorong Selatan, Papua Bar.",PAPUA BARAT,,Indonesia,,-1.564538,131.955216,https://maps.google.com/?cid=0x0:0xd4dbb219a857e33c
perumahan,Perhimpunan Pengembang Perumahan,UKHA,"G2GX+65Q, Unnamed Road, Manelek, Distrik Konda, Kabupaten Sorong Selatan, Papua Bar. 98454","Unnamed Road, Manelek, Distrik Konda, Kabupaten Sorong Selatan",PAPUA BARAT,98454.0,Indonesia,,-1.474407,132.047973,https://maps.google.com/?cid=0x0:0xe93dd70536fb2471
perumahan,perumahan,Papua Bar. 98454,"Kabupaten Sorong Selatan, Papua Bar.","Kabupaten Sorong Selatan, Papua Bar.",PAPUA BARAT,,Indonesia,,-1.4196083,131.9989718,https://maps.google.com/?cid=0x0:0x85355e3327b207ba
perumahan,Pembangunan Perumahan,Wamargege,"8WJQ+9Q, Wamargege, Distrik Konda, Kabupaten Sorong Selatan, Papua Bar.","Kabupaten Sorong Selatan, Papua Bar.",PAPUA BARAT,,Indonesia,,-1.6690983,131.9394892,https://maps.google.com/?cid=0x0:0x8b1bf21e997cf293
perumahan,Komplek perumahan,Rumah Konda,"Jl. Griya Sawangan Asri No.A1 No.9, Pasir Putih, Kec. Sawangan, Kota Depok, Jawa Barat 16519","Pasir Putih, Kec. Sawangan, Kota Depok",PAPUA BARAT,16519.0,Indonesia,,-6.4255403,106.7841888,https://maps.google.com/?cid=0x0:0x10fed7b87c190957
perumahan,Jasa Konstruksi dan Bangunan,Paemba Tenda,"G2HR+8GF, Manelek, Distrik Konda, Kabupaten Sorong Selatan, Papua Bar. 98454","Manelek, Distrik Konda, Kabupaten Sorong Selatan",PAPUA BARAT,98454.0,Indonesia,,-1.4708583,132.041485,https://maps.google.com/?cid=0x0:0x19c6a571c6a3fe02
perumahan,Perhimpunan Pengembang Perumahan,Rumah,"Blok F No 10, Pasir Putih, Kec. Sawangan, Kota Depok, Jawa Barat 16519","Pasir Putih, Kec. Sawangan, Kota Depok",PAPUA BARAT,16519.0,Indonesia,,-6.4260468,106.7794935,https://maps.google.com/?cid=0x0:0x8d2cdc3e6e8b3fc8
perumahan,perumahan,Kec. Matemani,"Kabupaten Sorong Selatan, Papua Bar.","Kabupaten Sorong Selatan, Papua Bar.",PAPUA BARAT,,Indonesia,,-1.9496392,132.2312838,https://maps.google.com/?cid=0x0:0xced62b996f227502
perumahan,Perhimpunan Pengembang Perumahan,Desa siri siri,"V48G+44F, Mugim, Kec. Matemani, Kabupaten Sorong Selatan, Papua Bar.","Kabupaten Sorong Selatan, Papua Bar.",PAPUA BARAT,,Indonesia,,-2.1351413,132.1246785,https://maps.google.com/?cid=0x0:0x222c3dead9960664
perumahan,Pembangunan Perumahan,Kampung siri siri Distrik Inanwatan,"V48G+44F, Mugim, Kec. Matemani, Kabupaten Sorong Selatan, Papua Bar.","Kabupaten Sorong Selatan, Papua Bar.",PAPUA BARAT,,Indonesia,,-2.1346821,132.1252945,https://maps.google.com/?cid=0x0:0xcfe5ae37311baf33
perumahan,Perhimpunan Pengembang Perumahan,Kampung yahadian,"3339+2Q, Saga, Kec. Matemani, Kabupaten Sorong Selatan, Papua Bar.","Kabupaten Sorong Selatan, Papua Bar.",PAPUA BARAT,,Indonesia,,-1.9473606,132.0694301,https://maps.google.com/?cid=0x0:0xdf67767efba53445
perumahan,perumahan,Anak Bsm,"V5F8+C9H, Mate, Distrik Inanwatan, Kabupaten Sorong Selatan, Papua Bar. 98455","Mate, Distrik Inanwatan, Kabupaten Sorong Selatan",PAPUA BARAT,98455.0,Indonesia,,-2.1261053,132.1667035,https://maps.google.com/?cid=0x0:0x9b2ca39ae5d93410
perumahan,Pembangunan Perumahan,Kampung Sedai,"329J+X9, Yahadian, Kais, Kabupaten Sorong Selatan, Papua Bar.","Kabupaten Sorong Selatan, Papua Bar.",PAPUA BARAT,,Indonesia,,-1.9300614,132.0308773,https://maps.google.com/?cid=0x0:0xb6e6dbf096477376
perumahan,Pembangunan Perumahan,Kampung wadoy,"V5F9+M3P, Mate, Distrik Inanwatan, Kabupaten Sorong Selatan, Papua Bar.","Kabupaten Sorong Selatan, Papua Bar.",PAPUA BARAT,,Indonesia,,-2.1257768,132.1676956,https://maps.google.com/?cid=0x0:0x3755803b017b070a
perumahan,perumahan,poragi,"27JQ+RW, Bedare, Kec. Matemani, Kabupaten Sorong Selatan, Papua Bar.","Kabupaten Sorong Selatan, Papua Bar.",PAPUA BARAT,,Indonesia,,-1.967911,132.289783,https://maps.google.com/?cid=0x0:0xdb650145a1657b58
perumahan,Perhimpunan Pengembang Perumahan,Kampung benawa kabupaten Sorong selatan,"49JQ+XHP, Benawa I, Kais, Kabupaten Sorong Selatan, Papua Bar.","Kabupaten Sorong Selatan, Papua Bar.",PAPUA BARAT,,Indonesia,,-1.8675405,132.3875207,https://maps.google.com/?cid=0x0:0x5a487df7c926ba3f
perumahan,perumahan,Pustu Kampung Bedare,"X76J+V45, Bedare, Distrik Inanwatan, Kabupaten Sorong Selatan, Papua Bar. 98455","Bedare, Distrik Inanwatan, Kabupaten Sorong Selatan",PAPUA BARAT,98455.0,Indonesia,,-2.0378579,132.280353,https://maps.google.com/?cid=0x0:0x27136d433171cd40
perumahan,Pembangunan Perumahan,Kampung mukere,"49JP+9Q, Sumano, Kais, Kabupaten Sorong Selatan, Papua Bar.","Kabupaten Sorong Selatan, Papua Bar.",PAPUA BARAT,,Indonesia,,-1.8691101,132.3869118,https://maps.google.com/?cid=0x0:0xca241f68a2a34bbe
perumahan,Pembangunan Perumahan,Kampung benawa 1,"49MQ+M5, Sumano, Kais, Kabupaten Sorong Selatan, Papua Bar.","Kabupaten Sorong Selatan, Papua Bar.",PAPUA BARAT,,Indonesia,,-1.8658187,132.3878939,https://maps.google.com/?cid=0x0:0xf7f12820ba9a0af6
perumahan,Komplek perumahan,NOGOY PU TEMPAT,"47X3+RJ, Kais, Kabupaten Sorong Selatan, Papua Bar.","Kabupaten Sorong Selatan, Papua Bar.",PAPUA BARAT,,Indonesia,,-1.850476,132.254048,https://maps.google.com/?cid=0x0:0xc4cd620061cde71d
perumahan,Pembangunan Perumahan,Kampung Kami Sabe/Distrik Moswaren,"H649+FHM, Kamisabe, Distrik Moswaren, Kabupaten Sorong Selatan, Papua Bar.","Kabupaten Sorong Selatan, Papua Bar.",PAPUA BARAT,,Indonesia,,-1.4437946,132.2189113,https://maps.google.com/?cid=0x0:0x27ac54a7cbb71894
perumahan,perumahan,Distrik Moswaren,"Kabupaten Sorong Selatan, Papua Bar.","Kabupaten Sorong Selatan, Papua Bar.",PAPUA BARAT,,Indonesia,,-1.4917637,132.2410573,https://maps.google.com/?cid=0x0:0xc435d4289dbbc461
perumahan,Kantor Pemerintah Distrik,"Kampung Moswaren, Distrik Moswaren","G6HP+FV, Moswaren, Distrik Moswaren, Kabupaten Sorong Selatan, Papua Bar.","Kabupaten Sorong Selatan, Papua Bar.",PAPUA BARAT,,Indonesia,,-1.4712607,132.2370653,https://maps.google.com/?cid=0x0:0x4c000e107d299ac3
perumahan,Komplek perumahan,Kompleks rawa indah,"Lorong samping mushola al hidayah No.Rt 12, Bumi Ajo (Sp I), Distrik Moswaren, Kabupaten Sorong Selatan, Papua Bar. 98462","Bumi Ajo (Sp I), Distrik Moswaren, Kabupaten Sorong Selatan",PAPUA BARAT,98462.0,Indonesia,,-1.4950455,132.2406433,https://maps.google.com/?cid=0x0:0x31c9810b00016d7
perumahan,Komplek perumahan,Hb,"G65P+CQV, Bumi Ajo (Sp I), Distrik Moswaren, Kabupaten Sorong Selatan, Papua Bar.","Kabupaten Sorong Selatan, Papua Bar.",PAPUA BARAT,,Indonesia,,-1.4913875,132.2369219,https://maps.google.com/?cid=0x0:0xd4e88f744001d127
perumahan,Komplek perumahan,Kompleks Hehh,"G67J+WM, Bumi Ajo (Sp I), Distrik Moswaren, Kabupaten Sorong Selatan, Papua Bar.","Kabupaten Sorong Selatan, Papua Bar.",PAPUA BARAT,,Indonesia,,-1.4852294,132.2316294,https://maps.google.com/?cid=0x0:0xa3ae5abe531cf303
perumahan,Komplek perumahan,Komplek rawa indah,"G62R+XFV, Jalur 7 kanan, Bumi Ajo (Sp I), Distrik Moswaren, Kabupaten Sorong Selatan, Papua Bar. 98462","Jalur 7 kanan, Bumi Ajo (Sp I), Distrik Moswaren, Kabupaten Sorong Selatan",PAPUA BARAT,98462.0,Indonesia,,-1.4975234,132.2411755,https://maps.google.com/?cid=0x0:0x29fbe8c46f3d2cf9
perumahan,Komplek perumahan,INTAN HOMER,"G6HP+FV, Moswaren, Distrik Moswaren, Kabupaten Sorong Selatan, Papua Bar.","Kabupaten Sorong Selatan, Papua Bar.",PAPUA BARAT,,Indonesia,,-1.4712428,132.2369767,https://maps.google.com/?cid=0x0:0x58cc9ab3096982f0
perumahan,Pembangunan Perumahan,Nauw Family,"Depan SMP No.N 1, Moswaren, Distrik Moswaren, Kabupaten Sorong Selatan, Papua Bar. 98462","Moswaren, Distrik Moswaren, Kabupaten Sorong Selatan",PAPUA BARAT,98462.0,Indonesia,,-1.4690968,132.2388542,https://maps.google.com/?cid=0x0:0x748bdf99fb4d4b9a
perumahan,Perhimpunan Pengembang Perumahan,Camp geng kapak,"G65V+87H, Bumi Ajo (Sp I), Distrik Moswaren, Kabupaten Sorong Selatan, Papua Bar. 98462","Bumi Ajo (Sp I), Distrik Moswaren, Kabupaten Sorong Selatan",PAPUA BARAT,98462.0,Indonesia,,-1.4916922,132.243236,https://maps.google.com/?cid=0x0:0x13a5a90923d71e0e
perumahan,Komplek perumahan,Abdul Ridho,"G66R+H9J, Bumi Ajo (Sp I), Distrik Moswaren, Kabupaten Sorong Selatan, Papua Bar. 98462","Bumi Ajo (Sp I), Distrik Moswaren, Kabupaten Sorong Selatan",PAPUA BARAT,98462.0,Indonesia,,-1.4885444,132.2408932,https://maps.google.com/?cid=0x0:0xcd2b90d1e5f103c
perumahan,Komplek perumahan,Siko homer,"G66Q+854, Bumi Ajo (Sp I), Distrik Moswaren, Kabupaten Sorong Selatan, Papua Bar. 98462","Bumi Ajo (Sp I), Distrik Moswaren, Kabupaten Sorong Selatan",PAPUA BARAT,98462.0,Indonesia,,-1.4890625,132.2381803,https://maps.google.com/?cid=0x0:0xc6499ff0f9011b8d
perumahan,Komplek perumahan,Negara Puyar,"G65R+7CV, Bumi Ajo (Sp I), Distrik Moswaren, Kabupaten Sorong Selatan, Papua Bar.","Kabupaten Sorong Selatan, Papua Bar.",PAPUA BARAT,,Indonesia,,-1.4917637,132.2410573,https://maps.google.com/?cid=0x0:0xebfefe058820bd34
perumahan,perumahan,Firda yustika,"G64R+CJQ, Bumi Ajo (Sp I), Distrik Moswaren, Kabupaten Sorong Selatan, Papua Bar. 98462","Bumi Ajo (Sp I), Distrik Moswaren, Kabupaten Sorong Selatan",PAPUA BARAT,98462.0,Indonesia,,-1.4939187,132.2416095,https://maps.google.com/?cid=0x0:0xb4a71205ccdde649
perumahan,perumahan,Papua Bar. 98454,"Kabupaten Sorong Selatan, Papua Bar.","Kabupaten Sorong Selatan, Papua Bar.",PAPUA BARAT,,Indonesia,,-1.4196083,131.9989718,https://maps.google.com/?cid=0x0:0x85355e3327b207ba
perumahan,Pembangunan Perumahan,Kampung TOwato,"FR3J+24J, Manggroholo, Distrik Saifi, Kabupaten Sorong Selatan, Papua Bar.","Kabupaten Sorong Selatan, Papua Bar.",PAPUA BARAT,,Indonesia,,-1.5474207,131.830267,https://maps.google.com/?cid=0x0:0x86c45c5b0086543
perumahan,Komplek perumahan,Kampung Kotolo ( Sagaret Family ),"HWR5+2F3, Kampung Kotolo, Distrik Saifi, Kabupaten Sorong Selatan, Papua Bar.","Kabupaten Sorong Selatan, Papua Bar.",PAPUA BARAT,,Indonesia,,-1.4099955,131.9086686,https://maps.google.com/?cid=0x0:0xb910045d270546dc
perumahan,Gereja,Gereja GKI Menosimons Kwowok,"JV2R+4M9, Kwowok, Distrik Saifi, Kabupaten Sorong Selatan, Papua Bar. 98454","Kwowok, Distrik Saifi, Kabupaten Sorong Selatan",PAPUA BARAT,98454.0,Indonesia,,-1.3997237,131.8917422,https://maps.google.com/?cid=0x0:0x480588a271cf5204
perumahan,perumahan,Papua Bar. 98456,Papua Bar.,Papua Bar.,PAPUA BARAT,,Indonesia,,-1.2191286,131.8799408,https://maps.google.com/?cid=0x0:0x1193e0fa67947a8b
perumahan,Perhimpunan Pengembang Perumahan,"Kampung Sasder, Distrik Sawiat - Sorong Selatan","PWPJ+9J, Wen, Distrik Sawiat, Kabupaten Sorong Selatan, Papua Bar. 98456","Wen, Distrik Sawiat, Kabupaten Sorong Selatan",PAPUA BARAT,98456.0,Indonesia,,-1.2640511,131.9315955,https://maps.google.com/?cid=0x0:0x192da4bcc93b32e5
perumahan,Komplek perumahan,Kampung Mlabolo,"VV4F+HQX, Mlabolo, Distrik Sawiat, Kabupaten Sorong Selatan, Papua Bar. 98456","Mlabolo, Distrik Sawiat, Kabupaten Sorong Selatan",PAPUA BARAT,98456.0,Indonesia,,-1.143506,131.8744778,https://maps.google.com/?cid=0x0:0x6bea1fa14304682
perumahan,Komplek perumahan,Kampung Wenslolo,"QWVX+FV3, Unnamed Road, Wenslolo, Distrik Sawiat, Kabupaten Sorong Selatan, Papua Bar. 98456","Unnamed Road, Wenslolo, Distrik Sawiat, Kabupaten Sorong Selatan",PAPUA BARAT,98456.0,Indonesia,,-1.2063534,131.9496635,https://maps.google.com/?cid=0x0:0x92d045cabe501d12
perumahan,Komplek perumahan,Kampung Wen,"QX99+VPP, Wen, Distrik Sawiat, Kabupaten Sorong Selatan, Papua Bar.","Kabupaten Sorong Selatan, Papua Bar.",PAPUA BARAT,,Indonesia,,-1.2302998,131.9693385,https://maps.google.com/?cid=0x0:0xe02f6b078a3bb28f
perumahan,Komplek perumahan,Kampung Kamlin,"VV53+QM9, Mlabolo, Distrik Sawiat, Kabupaten Sorong Selatan, Papua Bar. 98456","Mlabolo, Distrik Sawiat, Kabupaten Sorong Selatan",PAPUA BARAT,98456.0,Indonesia,,-1.1405773,131.8542335,https://maps.google.com/?cid=0x0:0x1c389744a2116ebb
perumahan,Komplek perumahan,Kampung Persiapan Bololo,"QXP4+23P, Wenslolo, Distrik Sawiat, Kabupaten Sorong Selatan, Papua Bar.","Kabupaten Sorong Selatan, Papua Bar.",PAPUA BARAT,,Indonesia,,-1.2149201,131.95521,https://maps.google.com/?cid=0x0:0x29ee38240952d7c7
perumahan,Pembangunan Perumahan,Kampung b wendi,"RW9H+5RG, Wendi, Distrik Sawiat, Kabupaten Sorong Selatan, Papua Bar. 98456","Wendi, Distrik Sawiat, Kabupaten Sorong Selatan",PAPUA BARAT,98456.0,Indonesia,,-1.1820728,131.929569,https://maps.google.com/?cid=0x0:0x1589d3d838f2aa4f
perumahan,perumahan,Wendi,"PWXP+CV, Wen, Distrik Sawiat, Kabupaten Sorong Selatan, Papua Bar.","Kabupaten Sorong Selatan, Papua Bar.",PAPUA BARAT,,Indonesia,,-1.251379,131.937243,https://maps.google.com/?cid=0x0:0x521bf3dcb191a8dd
perumahan,Komplek perumahan,Kampung Klalin Mos,"VRFM+6M8, Mlabolo, Distrik Sawiat, Kabupaten Sorong Selatan, Papua Bar. 98456","Mlabolo, Distrik Sawiat, Kabupaten Sorong Selatan",PAPUA BARAT,98456.0,Indonesia,,-1.1269681,131.8342085,https://maps.google.com/?cid=0x0:0x47a1129e2b6a475
perumahan,Komplek perumahan,Lorong kanan,"PXRQ+5R9, Sudrofoyo, Distrik Sawiat, Kabupaten Sorong Selatan, Papua Bar.","Kabupaten Sorong Selatan, Papua Bar.",PAPUA BARAT,,Indonesia,,-1.2595816,131.9895982,https://maps.google.com/?cid=0x0:0x580b7732613c8397
perumahan,Pembangunan Perumahan,Wendi,"PW9W+38, Sawiat, Distrik Sawiat, Kabupaten Sorong Selatan, Papua Bar.","Kabupaten Sorong Selatan, Papua Bar.",PAPUA BARAT,,Indonesia,,-1.282359,131.945819,https://maps.google.com/?cid=0x0:0x1f099a26d7eb6856
perumahan,Komplek perumahan,Kampung Persiapan Klafri,"VV7V+9GJ, Klamit, Distrik Sawiat, Kabupaten Sorong Selatan, Papua Bar. 98456","Klamit, Distrik Sawiat, Kabupaten Sorong Selatan",PAPUA BARAT,98456.0,Indonesia,,-1.13654,131.8937562,https://maps.google.com/?cid=0x0:0x8779a2bdfc54355b
perumahan,Komplek perumahan,Perumahan Divisi I Klasafet,"WG7X+6X, Maladuk, Distrik Klamono, Kabupaten Sorong, Papua Bar.","Kabupaten Sorong, Papua Bar.",PAPUA BARAT,,Indonesia,,-1.0868925,131.5500456,https://maps.google.com/?cid=0x0:0xe83fe1f3e920a026
perumahan,Komplek perumahan,Kampung Persiapan Kragitolo,"JXF8+WPW, Tofot, Distrik Seremuk, Kabupaten Sorong Selatan, Papua Bar. 98454","Tofot, Distrik Seremuk, Kabupaten Sorong Selatan",PAPUA BARAT,98454.0,Indonesia,,-1.3751425,131.9668239,https://maps.google.com/?cid=0x0:0x8746675d1cb42119
perumahan,perumahan,Distrik Seremuk,"Kabupaten Sorong Selatan, Papua Bar.","Kabupaten Sorong Selatan, Papua Bar.",PAPUA BARAT,,Indonesia,,-1.3800751,131.971713,https://maps.google.com/?cid=0x0:0xe12c32b535c8440a
perumahan,Komplek perumahan,Tofot,"JXCC+XFW, Tofot, Distrik Seremuk, Kabupaten Sorong Selatan, Papua Bar. 98454","Tofot, Distrik Seremuk, Kabupaten Sorong Selatan",PAPUA BARAT,98454.0,Indonesia,,-1.3775078,131.9712087,https://maps.google.com/?cid=0x0:0xaea6720410e1b18f
perumahan,Pembangunan Perumahan,Kampung wendi,"MW68+QH, Haha, Distrik Seremuk, Kabupaten Sorong Selatan, Papua Bar.","Kabupaten Sorong Selatan, Papua Bar.",PAPUA BARAT,,Indonesia,,-1.33809,131.916443,https://maps.google.com/?cid=0x0:0x5705081b03cc405e
perumahan,Kantor Pemerintah,Kantor Kampung Seribauw,"HXHQ+2RJ, Jl. Sengget, Seribauw, Kec. Teminabuan, Kabupaten Sorong Selatan, Papua Bar. 98454","Jl. Sengget, Seribauw, Kec. Teminabuan, Kabupaten Sorong Selatan",PAPUA BARAT,98454.0,Indonesia,,-1.4224181,131.9895191,https://maps.google.com/?cid=0x0:0xd772556695df9d91
perumahan,Pembangunan Perumahan,Dermaga kampung warmagege,"CXP4+53, Nakna, Distrik Konda, Kabupaten Sorong Selatan, Papua Bar.","Kabupaten Sorong Selatan, Papua Bar.",PAPUA BARAT,,Indonesia,,-1.564538,131.955216,https://maps.google.com/?cid=0x0:0xd4dbb219a857e33c
perumahan,Komplek perumahan,Keluarga N.Raturoma,"H237+452, Sayolo, Kec. Teminabuan, Kabupaten Sorong Selatan, Papua Bar. 98454","Sayolo, Kec. Teminabuan, Kabupaten Sorong Selatan",PAPUA BARAT,98454.0,Indonesia,,-1.4472322,132.0128985,https://maps.google.com/?cid=0x0:0xc4dc1f54302a3aa8
perumahan,perumahan,Wahyu Nare,"H255+4QJ, Kohoin, Kec. Teminabuan, Kabupaten Sorong Selatan, Papua Bar. 98454","Kohoin, Kec. Teminabuan, Kabupaten Sorong Selatan",PAPUA BARAT,98454.0,Indonesia,,-1.4421568,132.0093756,https://maps.google.com/?cid=0x0:0xe1f83859750c97ef
perumahan,Komplek perumahan,Kikiso,"H276+25V, Kohoin, Teminabuan, South Sorong Regency, West Papua 98454","Kohoin, Teminabuan, South Sorong Regency",PAPUA BARAT,98454.0,Indonesia,,-1.4373834,132.0104083,https://maps.google.com/?cid=0x0:0xfb23c81371449b02
perumahan,perumahan,Rumah durian,"G2W4+CH6, Sayolo, Kec. Teminabuan, Kabupaten Sorong Selatan, Papua Bar. 98454","Sayolo, Kec. Teminabuan, Kabupaten Sorong Selatan",PAPUA BARAT,98454.0,Indonesia,,-1.454523,132.007431,https://maps.google.com/?cid=0x0:0xb5062c8c63334a34
perumahan,Komplek perumahan,Sefai kampung Tegirolo Sorong Selatan,"H2R3+HH3, Tegirolo, Kec. Teminabuan, Kabupaten Sorong Selatan, Papua Bar.","Kabupaten Sorong Selatan, Papua Bar.",PAPUA BARAT,,Indonesia,,-1.4086042,132.0039257,https://maps.google.com/?cid=0x0:0x9282c616ebe144b8
perumahan,Komplek perumahan,Kampung A,"H256+WX8, Jl. Sengget, Kohoin, Kec. Teminabuan, Kabupaten Sorong Selatan, Papua Bar. 98454","Jl. Sengget, Kohoin, Kec. Teminabuan, Kabupaten Sorong Selatan",PAPUA BARAT,98454.0,Indonesia,,-1.4402207,132.0124607,https://maps.google.com/?cid=0x0:0xb89bb9d623348ff4
perumahan,Komplek perumahan,ALLZET,"H297+94R, Kohoin, Kec. Teminabuan, Kabupaten Sorong Selatan, Papua Bar. 98454","Kohoin, Kec. Teminabuan, Kabupaten Sorong Selatan",PAPUA BARAT,98454.0,Indonesia,,-1.4315166,132.0127581,https://maps.google.com/?cid=0x0:0x1888a9d9de8bdbba
perumahan,Komplek perumahan,Komplek Brawijaya,"H248+QR8, Jalan Brawijaya, Sayolo, Kec. Teminabuan, Kabupaten Sorong Selatan, Papua Bar. 98454","Jalan Brawijaya, Sayolo, Kec. Teminabuan, Kabupaten Sorong Selatan",PAPUA BARAT,98454.0,Indonesia,,-1.4430815,132.0170778,https://maps.google.com/?cid=0x0:0xfee00fefef4b01b1
perumahan,perumahan,Kec. Teminabuan,"Kabupaten Sorong Selatan, Papua Bar.","Kabupaten Sorong Selatan, Papua Bar.",PAPUA BARAT,,Indonesia,,-1.4418184,132.0109997,https://maps.google.com/?cid=0x0:0x26fd6623ef786a25
perumahan,Komplek perumahan,Kampung A,"H256+WX8, Jl. Sengget, Kohoin, Kec. Teminabuan, Kabupaten Sorong Selatan, Papua Bar. 98454","Jl. Sengget, Kohoin, Kec. Teminabuan, Kabupaten Sorong Selatan",PAPUA BARAT,98454.0,Indonesia,,-1.4402207,132.0124607,https://maps.google.com/?cid=0x0:0xb89bb9d623348ff4
perumahan,Komplek perumahan,Rumah Adi Saosini,"G39G+53, Keyen, Kec. Teminabuan, Kabupaten Sorong Selatan, Papua Bar. 98454","Keyen, Kec. Teminabuan, Kabupaten Sorong Selatan",PAPUA BARAT,98454.0,Indonesia,,-1.4820625,132.0751875,https://maps.google.com/?cid=0x0:0x933046f037adb51a
perumahan,Balai masyarakat,Dusun Romboa kampung Tapiri distrik Teminabuan Kabupaten Sorong Selatan Papua,"Jl. Perikanan No. 1, Wersar, Seribauw, Kec. Teminabuan, Kabupaten Sorong Selatan, Papua Bar. 98454","Wersar, Seribauw, Kec. Teminabuan, Kabupaten Sorong Selatan",PAPUA BARAT,98454.0,Indonesia,,-1.4689456,131.9911786,https://maps.google.com/?cid=0x0:0xeba3e2b2fc5ad77c
perumahan,Pembangunan Perumahan,Ampera teminabuan,"H256+79H, Ampera, Kec. Teminabuan, Kabupaten Sorong Selatan, Papua Bar. 98454","Ampera, Kec. Teminabuan, Kabupaten Sorong Selatan",PAPUA BARAT,98454.0,Indonesia,,-1.4418184,132.0109997,https://maps.google.com/?cid=0x0:0x3b42598e45c5cd44
perumahan,Komplek perumahan,Komplek Brawijaya,"H248+QR8, Jalan Brawijaya, Sayolo, Kec. Teminabuan, Kabupaten Sorong Selatan, Papua Bar. 98454","Jalan Brawijaya, Sayolo, Kec. Teminabuan, Kabupaten Sorong Selatan",PAPUA BARAT,98454.0,Indonesia,,-1.4430815,132.0170778,https://maps.google.com/?cid=0x0:0xfee00fefef4b01b1
perumahan,Komplek perumahan,Tmlt Ghil Reane,"G3JF+XW6, Keyen, Kec. Teminabuan, Kabupaten Sorong Selatan, Papua Bar. 98454","Keyen, Kec. Teminabuan, Kabupaten Sorong Selatan",PAPUA BARAT,98454.0,Indonesia,,-1.4695838,132.0758644,https://maps.google.com/?cid=0x0:0x2c5f511f8f475ed7
perumahan,Komplek perumahan,Kel. Somnaikubun,"H256+WGV, Kohoin, Kec. Teminabuan, Kabupaten Sorong Selatan, Papua Bar. 98454","Kohoin, Kec. Teminabuan, Kabupaten Sorong Selatan",PAPUA BARAT,98454.0,Indonesia,81248736222.0,-1.4401362,132.011297,https://maps.google.com/?cid=0x0:0xb08b7bc29b2e7a14
perumahan,Komplek perumahan,RUMAH PAK KEPALA SEKOLAH,"G38P+CRP, Keyen, Kec. Teminabuan, Kabupaten Sorong Selatan, Papua Bar. 98454","Keyen, Kec. Teminabuan, Kabupaten Sorong Selatan",PAPUA BARAT,98454.0,Indonesia,,-1.4834097,132.0870107,https://maps.google.com/?cid=0x0:0xc6db516a92f79795
perumahan,Komplek perumahan,Kikiso,"H276+25V, Kohoin, Teminabuan, South Sorong Regency, West Papua 98454","Kohoin, Teminabuan, South Sorong Regency",PAPUA BARAT,98454.0,Indonesia,,-1.4373834,132.0104083,https://maps.google.com/?cid=0x0:0xfb23c81371449b02
perumahan,Komplek perumahan,ALLZET,"H297+94R, Kohoin, Kec. Teminabuan, Kabupaten Sorong Selatan, Papua Bar. 98454","Kohoin, Kec. Teminabuan, Kabupaten Sorong Selatan",PAPUA BARAT,98454.0,Indonesia,,-1.4315166,132.0127581,https://maps.google.com/?cid=0x0:0x1888a9d9de8bdbba
perumahan,Pembangunan Perumahan,Sanbers gawat,"H267+CMV, Kohoin, Kec. Teminabuan, Kabupaten Sorong Selatan, Papua Bar. 98454","Kohoin, Kec. Teminabuan, Kabupaten Sorong Selatan",PAPUA BARAT,98454.0,Indonesia,,-1.4380344,132.0144435,https://maps.google.com/?cid=0x0:0x3ace7a0b503f35aa
perumahan,Komplek perumahan,Krisna Residence,"G2MP+XVQ, Unnamed Road, Wernas, Teminabuan, South Sorong Regency, West Papua 98454","Unnamed Road, Wernas, Teminabuan, South Sorong Regency",PAPUA BARAT,98454.0,Indonesia,,-1.46504,132.0372333,https://maps.google.com/?cid=0x0:0x5fc2fd87d8bef82
perumahan,Taman,REMZY BOYZ,"H27G+PVF, Namro, Kec. Teminabuan, Kabupaten Sorong Selatan, Papua Bar. 98454","Namro, Kec. Teminabuan, Kabupaten Sorong Selatan",PAPUA BARAT,98454.0,Indonesia,,-1.4356899,132.0271589,https://maps.google.com/?cid=0x0:0x48aacb462d7a2f5c
perumahan,perumahan,Distrik Wayer,"Kabupaten Sorong Selatan, Papua Bar.","Kabupaten Sorong Selatan, Papua Bar.",PAPUA BARAT,,Indonesia,,-1.4981267,132.1276575,https://maps.google.com/?cid=0x0:0xa31b66c806bf6157
perumahan,Pembangunan Perumahan,Kampung Wayer,"G42H+VWQ, Sungguer, Distrik Wayer, Kabupaten Sorong Selatan, Papua Bar.","Kabupaten Sorong Selatan, Papua Bar.",PAPUA BARAT,,Indonesia,,-1.4977875,132.1298594,https://maps.google.com/?cid=0x0:0x93e8cf7f413320d8
perumahan,Pembangunan Perumahan,Seputaran wayer,"G42H+VWQ, Sungguer, Distrik Wayer, Kabupaten Sorong Selatan, Papua Bar. 98462","Sungguer, Distrik Wayer, Kabupaten Sorong Selatan",PAPUA BARAT,98462.0,Indonesia,,-1.4973865,132.1302691,https://maps.google.com/?cid=0x0:0x9ea69fbfd615a57b
perumahan,Komplek perumahan,Rumah Arnoldus,"F4WR+XPV, Wayer, Distrik Wayer, Kabupaten Sorong Selatan, Papua Bar.","Kabupaten Sorong Selatan, Papua Bar.",PAPUA BARAT,,Indonesia,,-1.5032519,132.1416946,https://maps.google.com/?cid=0x0:0xf0393982c9d66aea
perumahan,Komplek perumahan,Rumah Adi Saosini,"G39G+53, Keyen, Kec. Teminabuan, Kabupaten Sorong Selatan, Papua Bar. 98454","Keyen, Kec. Teminabuan, Kabupaten Sorong Selatan",PAPUA BARAT,98454.0,Indonesia,,-1.4820625,132.0751875,https://maps.google.com/?cid=0x0:0x933046f037adb51a
perumahan,Komplek perumahan,RUMAH PAK KEPALA SEKOLAH,"G38P+CRP, Keyen, Kec. Teminabuan, Kabupaten Sorong Selatan, Papua Bar. 98454","Keyen, Kec. Teminabuan, Kabupaten Sorong Selatan",PAPUA BARAT,98454.0,Indonesia,,-1.4834097,132.0870107,https://maps.google.com/?cid=0x0:0xc6db516a92f79795
perumahan,Komplek perumahan,Rumah Ernest,"F5X8+Q33, Jalan Worot, Waigo, Distrik Wayer, Kabupaten Sorong Selatan, Papua Bar. 98462","Jalan Worot, Waigo, Distrik Wayer, Kabupaten Sorong Selatan",PAPUA BARAT,98462.0,Indonesia,,-1.5006243,132.16518,https://maps.google.com/?cid=0x0:0x3e622d912519350
perumahan,Komplek perumahan,PERUMAHAN KPR JURIKO PERMAI,"G3HJ+MP2, Keyen, Kec. Teminabuan, Kabupaten Sorong Selatan, Papua Bar.","Kabupaten Sorong Selatan, Papua Bar.",PAPUA BARAT,,Indonesia,,-1.470855,132.0817567,https://maps.google.com/?cid=0x0:0xfa4c2fe425b68939
perumahan,Perhimpunan Pengembang Perumahan,Kampung hasu nusantara,"F4X7+QRQ, Sungguer, Distrik Wayer, Kabupaten Sorong Selatan, Papua Bar. 98462","Sungguer, Distrik Wayer, Kabupaten Sorong Selatan",PAPUA BARAT,98462.0,Indonesia,,-1.5005472,132.1146093,https://maps.google.com/?cid=0x0:0x1ea744159341b0b3
perumahan,Komplek perumahan,Sekretariat Ikatan Keluarga Timor Cendana (FLOBAMORA),"G3MG+37V, Keyen, Kec. Teminabuan, Kabupaten Sorong Selatan, Papua Bar. 98454","Keyen, Kec. Teminabuan, Kabupaten Sorong Selatan",PAPUA BARAT,98454.0,Indonesia,,-1.46597,132.0763459,https://maps.google.com/?cid=0x0:0x197d5ccb6aa37933
perumahan,Perhimpunan Pengembang Perumahan,Kampung Boldon,"H476+CV3, Boldon, Distrik Wayer, Kabupaten Sorong Selatan, Papua Bar. 98454","Boldon, Distrik Wayer, Kabupaten Sorong Selatan",PAPUA BARAT,98454.0,Indonesia,,-1.4364812,132.1121846,https://maps.google.com/?cid=0x0:0x4b37309803a42ba9
perumahan,Komplek perumahan,KPR Tunggal Keyen,"G3GJ+XCW, KPR TUNGGAL, Keyen, Kec. Teminabuan, Kabupaten Sorong Selatan, Papua Bar. 98454","KPR TUNGGAL, Keyen, Kec. Teminabuan, Kabupaten Sorong Selatan",PAPUA BARAT,98454.0,Indonesia,,-1.4725014,132.0810925,https://maps.google.com/?cid=0x0:0x451931d1e435e370
perumahan,Pembangunan Perumahan,Metalmety Home,"G3JH+9RV, Keyen, Kec. Teminabuan, Kabupaten Sorong Selatan, Papua Bar.","Kabupaten Sorong Selatan, Papua Bar.",PAPUA BARAT,,Indonesia,,-1.4691179,132.0793624,https://maps.google.com/?cid=0x0:0x6de164d7116b5efe
perumahan,Pembangunan Perumahan,Dusun Rabinte,"F5W8+R5G, Waigo, Distrik Wayer, Kabupaten Sorong Selatan, Papua Bar. 98462","Waigo, Distrik Wayer, Kabupaten Sorong Selatan",PAPUA BARAT,98462.0,Indonesia,,-1.5029265,132.1654529,https://maps.google.com/?cid=0x0:0x7ab9d3766bde8003
housing complex,housing complex,Distrik Fokour,"Kabupaten Sorong Selatan, Papua Bar.","Kabupaten Sorong Selatan, Papua Bar.",PAPUA BARAT,,Indonesia,,-1.1621937,132.0207079,https://maps.google.com/?cid=0x0:0xca5b0bfb905adc24
housing complex,Komplek perumahan,Pasir putih mahato,"RXHM+WJ5 simp KUD, Pasir Putih, Distrik Fokour, Kabupaten Sorong Selatan, Papua Bar. 98461","Pasir Putih, Distrik Fokour, Kabupaten Sorong Selatan",PAPUA BARAT,98461.0,Indonesia,,-1.1702465,131.9841073,https://maps.google.com/?cid=0x0:0x5e0272f4ffe86aa2
housing complex,Pembangunan Perumahan,Pasir Putih,"R2PC+WQ, Bemus, Distrik Fokour, Kabupaten Sorong Selatan, Papua Bar.","Kabupaten Sorong Selatan, Papua Bar.",PAPUA BARAT,,Indonesia,,-1.162701,132.021956,https://maps.google.com/?cid=0x0:0x51df979d8a5bb255
housing complex,Pembangunan Perumahan,"Kampung pasir putih, Distrik fkour, kab.sorong selatan","RXWP+RC, Pasir Putih, Distrik Fokour, Kabupaten Sorong Selatan, Papua Bar.","Kabupaten Sorong Selatan, Papua Bar.",PAPUA BARAT,,Indonesia,,-1.1529656,131.9860607,https://maps.google.com/?cid=0x0:0xbb12c2fc60eefa3a
housing complex,Komplek perumahan,Kampung Wen,"QX99+VPP, Wen, Distrik Sawiat, Kabupaten Sorong Selatan, Papua Bar.","Kabupaten Sorong Selatan, Papua Bar.",PAPUA BARAT,,Indonesia,,-1.2302998,131.9693385,https://maps.google.com/?cid=0x0:0xe02f6b078a3bb28f
housing complex,Pembangunan Perumahan,Fortunia Residence 2,"Jl. Raya Southcity Timur No.24 Blok A5, RT.2, Pd. Cabe Udik, Kec. Pamulang, Kota Tangerang Selatan, Banten 15418","RT.2, Pd. Cabe Udik, Kec. Pamulang, Kota Tangerang Selatan",PAPUA BARAT,15418.0,Indonesia,,-6.3401875,106.7697656,https://maps.google.com/?cid=0x0:0x366448383a5ebdb4
housing complex,Kampus Asrama,Cluster FleekHauz,"PJGG+767, Lengkong Kulon, Kec. Pagedangan, Kabupaten Tangerang, Banten 15331","Lengkong Kulon, Kec. Pagedangan, Kabupaten Tangerang",PAPUA BARAT,15331.0,Indonesia,8816888000.0,-6.2743319,106.6255585,https://maps.google.com/?cid=0x0:0xf2b80e266091bf4b
housing complex,housing complex,FORESTA BSD CITY,"PJ2X+62C, Simpang Jl. Foresta Raya, Sampora, Cisauk, Tangerang Regency, Banten","Kabupaten Tangerang, Banten",PAPUA BARAT,,Indonesia,2150368368.0,-6.299435,106.6475202,https://maps.google.com/?cid=0x0:0xc77828e4bff2bad0
housing complex,Pengembang Realestat,Cluster Fortunia South City Tangerang Selatan,"Jl. Raya Southcity Timur No.02 Blok A3, RT.2, Pondok Cabe Udik, Pamulang, South Tangerang City, Banten 15418","RT.2, Pondok Cabe Udik, Pamulang, South Tangerang City",PAPUA BARAT,15418.0,Indonesia,,-6.3420346,106.7687312,https://maps.google.com/?cid=0x0:0x84790756e4e10507
housing complex,Pengembang Realestat,SouthCity,"Jl. Raya Southcity Utara No.12 Lot 5, Pd. Cabe Udik, Kec. Pamulang, Kota Tangerang Selatan, Banten 15418","Pd. Cabe Udik, Kec. Pamulang, Kota Tangerang Selatan",PAPUA BARAT,15418.0,Indonesia,217498999.0,-6.3421154,106.770345,https://maps.google.com/?cid=0x0:0xab2f0ee0d032b916
housing complex,Komplek perumahan,Kireina Park,"Jl. Batam, Rw. Mekar Jaya, Kec. Serpong, Kota Tangerang Selatan, Banten 15310","Rw. Mekar Jaya, Kec. Serpong, Kota Tangerang Selatan",PAPUA BARAT,15310.0,Indonesia,,-6.3018384,106.6922292,https://maps.google.com/?cid=0x0:0x5699b9a63f27919f
housing complex,Komplek perumahan,FORESTA BSD - Cluster Fiore,"PJ3V+289, Pagedangan, Kec. Pagedangan, Kabupaten Tangerang, Banten 15339","Pagedangan, Kec. Pagedangan, Kabupaten Tangerang",PAPUA BARAT,15339.0,Indonesia,,-6.296955,106.6438626,https://maps.google.com/?cid=0x0:0x6f304221cbe7f9fd
housing complex,Komplek perumahan,Amalfi Village - Gading Serpong,"Jl. Telaga Nirwana XV No.19, Cihuni, Kec. Pagedangan, Kabupaten Tangerang, Banten 15332","Cihuni, Kec. Pagedangan, Kabupaten Tangerang",PAPUA BARAT,15332.0,Indonesia,,-6.264086,106.6324052,https://maps.google.com/?cid=0x0:0x7a1f2368723857e9
housing complex,Komplek perumahan,Cluster FleekHauz R,"Jl. Fleekhauz R No.17 Blok i6, Lengkong Kulon, Kec. Pagedangan, Kabupaten Tangerang, Banten 15331","Lengkong Kulon, Kec. Pagedangan, Kabupaten Tangerang",PAPUA BARAT,15331.0,Indonesia,,-6.2740519,106.6296567,https://maps.google.com/?cid=0x0:0xd1272bfc8a7fa341
housing complex,housing complex,Distrik Inanwatan,"Kabupaten Sorong Selatan, Papua Bar.","Kabupaten Sorong Selatan, Papua Bar.",PAPUA BARAT,,Indonesia,,-2.1273304,132.1663024,https://maps.google.com/?cid=0x0:0x871fec0706e82bc5
housing complex,Layanan Transportasi,Bandara Inanwatan,"V5C7+W64, Mate, Distrik Inanwatan, Kabupaten Sorong Selatan, Papua Bar. 98455","Mate, Distrik Inanwatan, Kabupaten Sorong Selatan",PAPUA BARAT,98455.0,Indonesia,82196826597.0,-2.1277487,132.1630745,https://maps.google.com/?cid=0x0:0xd0b9c5c7d40453cc
housing complex,Pembangunan Perumahan,Kampung siri siri Distrik Inanwatan,"V48G+44F, Mugim, Kec. Matemani, Kabupaten Sorong Selatan, Papua Bar.","Kabupaten Sorong Selatan, Papua Bar.",PAPUA BARAT,,Indonesia,,-2.1346821,132.1252945,https://maps.google.com/?cid=0x0:0xcfe5ae37311baf33
housing complex,housing complex,Anak Bsm,"V5F8+C9H, Mate, Distrik Inanwatan, Kabupaten Sorong Selatan, Papua Bar. 98455","Mate, Distrik Inanwatan, Kabupaten Sorong Selatan",PAPUA BARAT,98455.0,Indonesia,,-2.1261053,132.1667035,https://maps.google.com/?cid=0x0:0x9b2ca39ae5d93410
housing complex,Perhimpunan Pengembang Perumahan,Desa siri siri,"V48G+44F, Mugim, Kec. Matemani, Kabupaten Sorong Selatan, Papua Bar.","Kabupaten Sorong Selatan, Papua Bar.",PAPUA BARAT,,Indonesia,,-2.1351413,132.1246785,https://maps.google.com/?cid=0x0:0x222c3dead9960664
housing complex,Komplek perumahan,Note PU wilayah,"246C+CH, Saga, Kec. Matemani, Kabupaten Sorong Selatan, Papua Bar. 98455","Saga, Kec. Matemani, Kabupaten Sorong Selatan",PAPUA BARAT,98455.0,Indonesia,,-1.9895221,132.1225117,https://maps.google.com/?cid=0x0:0x47dfb1e20c3034bc
housing complex,housing complex,Kompleks bidaru,"V5H9+22V, Mate, Distrik Inanwatan, Kabupaten Sorong Selatan, Papua Bar. 98455","Mate, Distrik Inanwatan, Kabupaten Sorong Selatan",PAPUA BARAT,98455.0,Indonesia,,-2.1223756,132.1675403,https://maps.google.com/?cid=0x0:0x810535d31569916c
housing complex,Komplek perumahan,Republik Sheranggo,"66GV+6X7, Sheranggo, Kais, Kabupaten Sorong Selatan, Papua Bar. 98455","Sheranggo, Kais, Kabupaten Sorong Selatan",PAPUA BARAT,98455.0,Indonesia,,-1.7744729,132.2449301,https://maps.google.com/?cid=0x0:0xfeedaf4a25ea26b3
housing complex,Gedung Apartemen,{RK},"H247+J7J, Jl. Sengget, Sayolo, Kec. Teminabuan, Kabupaten Sorong Selatan, Papua Bar. 98454","Jl. Sengget, Sayolo, Kec. Teminabuan, Kabupaten Sorong Selatan",PAPUA BARAT,98454.0,Indonesia,,-1.4434216,132.0131379,https://maps.google.com/?cid=0x0:0xdabb5a02a337095c
housing complex,housing complex,Kec. Matemani,"Kabupaten Sorong Selatan, Papua Bar.","Kabupaten Sorong Selatan, Papua Bar.",PAPUA BARAT,,Indonesia,,-1.9496392,132.2312838,https://maps.google.com/?cid=0x0:0xced62b996f227502
housing complex,housing complex,Distrik Kokoda,"Kabupaten Sorong Selatan, Papua Bar.","Kabupaten Sorong Selatan, Papua Bar.",PAPUA BARAT,,Indonesia,,-2.1274352,132.4263464,https://maps.google.com/?cid=0x0:0xa783056c2a04f79f
housing complex,Komplek perumahan,Kampung Korewatara,"Q9Q7+92, Totona, Distrik Kokoda, Kabupaten Sorong Selatan, Papua Bar.","Kabupaten Sorong Selatan, Papua Bar.",PAPUA BARAT,,Indonesia,,-2.2115472,132.3625007,https://maps.google.com/?cid=0x0:0xdf8c89e2578d760
housing complex,Sekolah menengah,Asrama Siswa SMP Negeri 1 Kokoda/Tarof,"QCJV+4J5, Jalan tergerai, kampung Trof, Distrik Kokoda, Kabupaten Sorong Selatan, Papua Bar.","Kabupaten Sorong Selatan, Papua Bar.",PAPUA BARAT,,Indonesia,,-2.2197336,132.4440949,https://maps.google.com/?cid=0x0:0xe1e021925153cdf9
housing complex,Komplek perumahan,Kampung Birawaku,"V92J+M5, Negeri Besar, Distrik Kokoda, Kabupaten Sorong Selatan, Papua Bar.","Kabupaten Sorong Selatan, Papua Bar.",PAPUA BARAT,,Indonesia,,-2.1483545,132.3804675,https://maps.google.com/?cid=0x0:0xc67e15e9b9957e55
housing complex,housing complex,Kampung Migori,"Q86F+7X8, Migori, Distrik Kokoda, Kabupaten Sorong Selatan, Papua Bar. Daya","Kabupaten Sorong Selatan, Papua Bar.",PAPUA BARAT,,Indonesia,,-2.2393498,132.324948,https://maps.google.com/?cid=0x0:0xb55c7824574c1e72
housing complex,Komplek perumahan,Kampung nayakore,"VC7C+RXF, Nayakore, Distrik Kokoda, Kabupaten Sorong Selatan, Papua Bar. 98455","Nayakore, Distrik Kokoda, Kabupaten Sorong Selatan",PAPUA BARAT,98455.0,Indonesia,,-2.1354464,132.4224095,https://maps.google.com/?cid=0x0:0x6ce289d9819fde00
housing complex,Kantor Pemerintah,Kampung Nebes,"VCCG+V2P, Nayakore, Distrik Kokoda, Kabupaten Sorong Selatan, Papua Bar.","Kabupaten Sorong Selatan, Papua Bar.",PAPUA BARAT,,Indonesia,,-2.1285525,132.4250616,https://maps.google.com/?cid=0x0:0x741c945bd2e7abbc
housing complex,Komplek perumahan,Kampung Arbasina,"V92J+M5, Negeri Besar, Distrik Kokoda, Kabupaten Sorong Selatan, Papua Bar.","Kabupaten Sorong Selatan, Papua Bar.",PAPUA BARAT,,Indonesia,,-2.1495205,132.3788565,https://maps.google.com/?cid=0x0:0x3a54349c7a030099
housing complex,Komplek perumahan,Kampung Kasuweri,"V92J+M5, Negeri Besar, Distrik Kokoda, Kabupaten Sorong Selatan, Papua Bar.","Kabupaten Sorong Selatan, Papua Bar.",PAPUA BARAT,,Indonesia,,-2.148576,132.3793373,https://maps.google.com/?cid=0x0:0xeb1cd6f8e75f3985
housing complex,housing complex,Kec. Kokoda Utara,"Kabupaten Sorong Selatan, Papua Bar.","Kabupaten Sorong Selatan, Papua Bar.",PAPUA BARAT,,Indonesia,,-1.8762266,132.3641297,https://maps.google.com/?cid=0x0:0xa4294849d564b6d1
housing complex,Kantor Pemerintah,Kampung kamundan dua,"3CXH+P79, Kamundan, Kec. Kokoda Utara, Kabupaten Sorong Selatan, Papua Bar. 98455","Kamundan, Kec. Kokoda Utara, Kabupaten Sorong Selatan",PAPUA BARAT,98455.0,Indonesia,,-1.9007247,132.4282484,https://maps.google.com/?cid=0x0:0xd2af8eae637702ed
housing complex,Komplek perumahan,Kampung nayakore,"VC7C+RXF, Nayakore, Distrik Kokoda, Kabupaten Sorong Selatan, Papua Bar. 98455","Nayakore, Distrik Kokoda, Kabupaten Sorong Selatan",PAPUA BARAT,98455.0,Indonesia,,-2.1354464,132.4224095,https://maps.google.com/?cid=0x0:0x6ce289d9819fde00
housing complex,Pembangunan Perumahan,Kampung benawa 1,"49MQ+M5, Sumano, Kais, Kabupaten Sorong Selatan, Papua Bar.","Kabupaten Sorong Selatan, Papua Bar.",PAPUA BARAT,,Indonesia,,-1.8658187,132.3878939,https://maps.google.com/?cid=0x0:0xf7f12820ba9a0af6
housing complex,Perhimpunan Pengembang Perumahan,Pelabuhan kampung KAURI,"49QQ+24, Sumano, Kais, Kabupaten Sorong Selatan, Papua Bar.","Kabupaten Sorong Selatan, Papua Bar.",PAPUA BARAT,,Indonesia,,-1.8624905,132.3878684,https://maps.google.com/?cid=0x0:0xcd86fa82918e5757
housing complex,Pembangunan Perumahan,Kampung mukere,"49JP+9Q, Sumano, Kais, Kabupaten Sorong Selatan, Papua Bar.","Kabupaten Sorong Selatan, Papua Bar.",PAPUA BARAT,,Indonesia,,-1.8691101,132.3869118,https://maps.google.com/?cid=0x0:0xca241f68a2a34bbe
housing complex,Kantor Pemerintah,Kampung Nebes,"VCCG+V2P, Nayakore, Distrik Kokoda, Kabupaten Sorong Selatan, Papua Bar.","Kabupaten Sorong Selatan, Papua Bar.",PAPUA BARAT,,Indonesia,,-2.1285525,132.4250616,https://maps.google.com/?cid=0x0:0x741c945bd2e7abbc
housing complex,Komplek perumahan,Kampung Birawaku,"V92J+M5, Negeri Besar, Distrik Kokoda, Kabupaten Sorong Selatan, Papua Bar.","Kabupaten Sorong Selatan, Papua Bar.",PAPUA BARAT,,Indonesia,,-2.1483545,132.3804675,https://maps.google.com/?cid=0x0:0xc67e15e9b9957e55
housing complex,Komplek perumahan,Kampung Kasuweri,"V92J+M5, Negeri Besar, Distrik Kokoda, Kabupaten Sorong Selatan, Papua Bar.","Kabupaten Sorong Selatan, Papua Bar.",PAPUA BARAT,,Indonesia,,-2.148576,132.3793373,https://maps.google.com/?cid=0x0:0xeb1cd6f8e75f3985
housing complex,Komplek perumahan,Kampung Arbasina,"V92J+M5, Negeri Besar, Distrik Kokoda, Kabupaten Sorong Selatan, Papua Bar.","Kabupaten Sorong Selatan, Papua Bar.",PAPUA BARAT,,Indonesia,,-2.1495205,132.3788565,https://maps.google.com/?cid=0x0:0x3a54349c7a030099
housing complex,Komplek perumahan,NOGOY PU TEMPAT,"47X3+RJ, Kais, Kabupaten Sorong Selatan, Papua Bar.","Kabupaten Sorong Selatan, Papua Bar.",PAPUA BARAT,,Indonesia,,-1.850476,132.254048,https://maps.google.com/?cid=0x0:0xc4cd620061cde71d
housing complex,housing complex,poragi,"27JQ+RW, Bedare, Kec. Matemani, Kabupaten Sorong Selatan, Papua Bar.","Kabupaten Sorong Selatan, Papua Bar.",PAPUA BARAT,,Indonesia,,-1.967911,132.289783,https://maps.google.com/?cid=0x0:0xdb650145a1657b58
housing complex,housing complex,Papua Bar.,,Papua Bar.,PAPUA BARAT,,Indonesia,,-1.3361154,133.1747162,https://maps.google.com/?cid=0x0:0x5349c1f8c5c7cb62
housing complex,Pembangunan Perumahan,Kadar Malibela Residence,"Klawalu, Distrik Sorong Timur, Kota Sorong, Papua Bar.","Kota Sorong, Papua Bar.",PAPUA BARAT,,Indonesia,85279735292.0,-0.9054871,131.3096366,https://maps.google.com/?cid=0x0:0x81cdbed7e8767cf
housing complex,Komplek perumahan,KPR CENRAWASIH GREEN PARK 1,"28PH+XP3, Malawili, Kec. Aimas, Kabupaten Sorong, Papua Bar. 98414","Malawili, Kec. Aimas, Kabupaten Sorong",PAPUA BARAT,98414.0,Indonesia,,-0.9626208,131.329288,https://maps.google.com/?cid=0x0:0x32bc2269675a6936
housing complex,Komplek perumahan,Di Jual Tanah,"477W+RG3, Malaingkedi, Kec. Sorong Utara, Kota Sorong, Papua Bar. 98412","Malaingkedi, Kec. Sorong Utara, Kota Sorong",PAPUA BARAT,98412.0,Indonesia,,-0.8853473,131.2963326,https://maps.google.com/?cid=0x0:0xada3a82897943219
housing complex,Pembangunan Perumahan,Cendrawasih Green Park,"28QH+H4G, Malawili, Kec. Aimas, Kabupaten Sorong, Papua Bar. 98414","Malawili, Kec. Aimas, Kabupaten Sorong",PAPUA BARAT,98414.0,Indonesia,,-0.9612374,131.3273486,https://maps.google.com/?cid=0x0:0x3227501370480a18
housing complex,Pembangunan Perumahan,KPR Intimpura,"272W+6GM, Jl. Intimpura, Klamalu, Distrik Mariat, Kabupaten Sorong, Papua Bar.","Kabupaten Sorong, Papua Bar.",PAPUA BARAT,,Indonesia,,-0.9994068,131.2962861,https://maps.google.com/?cid=0x0:0xd47f980bcbba7e22
housing complex,housing complex,Bata merah Anggie,"Jl. Tren, Warmon, Kec. Aimas, Kabupaten Sorong, Papua Bar.","Kabupaten Sorong, Papua Bar.",PAPUA BARAT,,Indonesia,81292357033.0,-0.9566374,131.2889218,https://maps.google.com/?cid=0x0:0x51696ece77c03bcc
housing complex,Pembangunan Perumahan,KPR Green House Regency,"28W5+CXP, Malawele, Kec. Aimas, Kabupaten Sorong, Papua Bar. 98414","Malawele, Kec. Aimas, Kabupaten Sorong",PAPUA BARAT,98414.0,Indonesia,,-0.9528742,131.3097112,https://maps.google.com/?cid=0x0:0xa598c78f49413727
housing complex,housing complex,Kota sorong papua,"X8X9+VP4, Jl. Flamboyan, Klasuluk, Distrik Mariat, Kabupaten Sorong, Papua Bar.","Kabupaten Sorong, Papua Bar.",PAPUA BARAT,,Indonesia,,-1.0003527,131.3193428,https://maps.google.com/?cid=0x0:0xd204ccaaf7a951a1
housing complex,Pembangunan Perumahan,Blok c,"42VR+FMM, Perumahan, Inggramui, Kec. Manokwari Bar., Kabupaten Manokwari, Papua Bar. 98312","Perumahan, Inggramui, Kec. Manokwari Bar., Kabupaten Manokwari",PAPUA BARAT,98312.0,Indonesia,,-0.8563352,134.0416471,https://maps.google.com/?cid=0x0:0xedfba8e15fd06ca8
housing complex,housing complex,Sulawesi Tenggara 93874,"Kabupaten Konawe Selatan, Sulawesi Tenggara","Kabupaten Konawe Selatan, Sulawesi Tenggara",PAPUA BARAT,,Indonesia,,-4.1490395,122.4693688,https://maps.google.com/?cid=0x0:0x58d40eab275f0e1a
housing complex,housing complex,Sahid Azizah Syariah Hotel  Convention Kendari,"Depan RS. Hermina, Jl. DI Panjaitan No.100, Wundudopi, Kec. Baruga, Kota Kendari, Sulawesi Tenggara 93117","Jl. DI Panjaitan No.100, Wundudopi, Kec. Baruga, Kota Kendari",PAPUA BARAT,93117.0,Indonesia,4013198888.0,-4.0180847,122.4993826,https://maps.google.com/?cid=0x0:0xde807c63851e67fb
housing complex,housing complex,Papua Bar. 98454,"Kabupaten Sorong Selatan, Papua Bar.","Kabupaten Sorong Selatan, Papua Bar.",PAPUA BARAT,,Indonesia,,-1.4196083,131.9989718,https://maps.google.com/?cid=0x0:0x85355e3327b207ba
housing complex,Perhimpunan Pengembang Perumahan,UKHA,"G2GX+65Q, Unnamed Road, Manelek, Distrik Konda, Kabupaten Sorong Selatan, Papua Bar. 98454","Unnamed Road, Manelek, Distrik Konda, Kabupaten Sorong Selatan",PAPUA BARAT,98454.0,Indonesia,,-1.474407,132.047973,https://maps.google.com/?cid=0x0:0xe93dd70536fb2471
housing complex,Pembangunan Perumahan,Dermaga kampung warmagege,"CXP4+53, Nakna, Distrik Konda, Kabupaten Sorong Selatan, Papua Bar.","Kabupaten Sorong Selatan, Papua Bar.",PAPUA BARAT,,Indonesia,,-1.564538,131.955216,https://maps.google.com/?cid=0x0:0xd4dbb219a857e33c
housing complex,Komplek perumahan,Keluarga Marthen Tinjaru,"CXP5+PRF, Nakna, Distrik Konda, Kabupaten Sorong Selatan, Papua Bar.","Kabupaten Sorong Selatan, Papua Bar.",PAPUA BARAT,,Indonesia,,-1.5631976,131.9595521,https://maps.google.com/?cid=0x0:0xd50386cd0cf9675c
housing complex,Pembangunan Perumahan,Wamargege,"8WJQ+9Q, Wamargege, Distrik Konda, Kabupaten Sorong Selatan, Papua Bar.","Kabupaten Sorong Selatan, Papua Bar.",PAPUA BARAT,,Indonesia,,-1.6690983,131.9394892,https://maps.google.com/?cid=0x0:0x8b1bf21e997cf293
housing complex,Komplek perumahan,Residence BSD,"Jl. Bukit Golf X No.2 Blok L, Lengkong Wetan, Serpong Sub-District, South Tangerang City, Banten 15310","Lengkong Wetan, Serpong Sub-District, South Tangerang City",PAPUA BARAT,15310.0,Indonesia,,-6.2850981,106.659132,https://maps.google.com/?cid=0x0:0x9f179ab623bf35dc
housing complex,housing complex,Konda complex,"D.No 3-5-165, near Sbh Main Branch, beside Andhra Main Branch, Azmath Pura, Sai Nagar, Karimnagar, Telangana 505001, India","near Sbh Main Branch, beside Andhra Main Branch, Azmath Pura, Sai Nagar, Karimnagar, Telangana",PAPUA BARAT,505001.0,Indonesia,,18.4356613,79.1338727,https://maps.google.com/?cid=0x0:0x69f18d3e75f4d630
housing complex,Pembangunan Perumahan,Cendana Parc Lippo Karawaci,"Kadu, Kec. Curug, Kabupaten Tangerang, Banten","Kabupaten Tangerang, Banten",PAPUA BARAT,,Indonesia,82111823698.0,-6.2373958,106.5775786,https://maps.google.com/?cid=0x0:0xc08afa6f076fafa9
housing complex,Komplek perumahan,Cendana Icon Lippo Karawaci Utara,"Jl. Kalimantan, RT.002/RW.009, Lippo, Kec. Karawaci, Kota Tangerang, Banten 15138","RT.002/RW.009, Lippo, Kec. Karawaci, Kota Tangerang",PAPUA BARAT,15138.0,Indonesia,,-6.2228305,106.6283966,https://maps.google.com/?cid=0x0:0x5b44e2aa3174aa28
housing complex,Komplek perumahan,Cendana Icon Plaza,"Jl. Cendana Icon Plaza, RT.001/RW.008, West Panunggangan, Cibodas, Tangerang City, Banten 15138","RT.001/RW.008, West Panunggangan, Cibodas, Tangerang City",PAPUA BARAT,15138.0,Indonesia,,-6.2214004,106.6280251,https://maps.google.com/?cid=0x0:0x952ba9b513d7b0dd
housing complex,Gedung Apartemen,Pondok Indah Residences,"Jl. Kartika Utama No.47, RT.6/RW.3, Pd. Pinang, Kec. Kby. Lama, Kota Jakarta Selatan, Daerah Khusus Ibukota Jakarta 12310","RT.6/RW.3, Pd. Pinang, Kec. Kby. Lama, Kota Jakarta Selatan",PAPUA BARAT,12310.0,Indonesia,2175811111.0,-6.2652829,106.7805903,https://maps.google.com/?cid=0x0:0x46154edf072c6e37
housing complex,Kompleks Townhouse,Rusunawa Depok,"Cilangkap, Kec. Tapos, Kota Depok, Jawa Barat 16451","Kec. Tapos, Kota Depok",PAPUA BARAT,16451.0,Indonesia,,-6.4281687,106.864652,https://maps.google.com/?cid=0x0:0x71cc871467f2e45c
housing complex,Komplek perumahan,Cendana Cove Karawaci,"Jl. Taman Elok Sel., Binong, Kec. Curug, Kabupaten Tangerang, Banten 15810","Binong, Kec. Curug, Kabupaten Tangerang",PAPUA BARAT,15810.0,Indonesia,,-6.2429161,106.5861167,https://maps.google.com/?cid=0x0:0xb02238b8fa2c0ca6
housing complex,Gedung Apartemen,Avania,"6, Jl. Gatot Subroto No.Kav 18, RT.6/RW.1, Kuningan Bar., Kec. Mampang Prpt., Kota Jakarta Selatan, Daerah Khusus Ibukota Jakarta 12710","Jl. Gatot Subroto No.Kav 18, RT.6/RW.1, Kuningan Bar., Kec. Mampang Prpt., Kota Jakarta Selatan",PAPUA BARAT,12710.0,Indonesia,,-6.2325247,106.8199829,https://maps.google.com/?cid=0x0:0x1d6871b001fa5333
housing complex,housing complex,Kec. Matemani,"Kabupaten Sorong Selatan, Papua Bar.","Kabupaten Sorong Selatan, Papua Bar.",PAPUA BARAT,,Indonesia,,-1.9496392,132.2312838,https://maps.google.com/?cid=0x0:0xced62b996f227502
housing complex,Komplek perumahan,Note PU wilayah,"246C+CH, Saga, Kec. Matemani, Kabupaten Sorong Selatan, Papua Bar. 98455","Saga, Kec. Matemani, Kabupaten Sorong Selatan",PAPUA BARAT,98455.0,Indonesia,,-1.9895221,132.1225117,https://maps.google.com/?cid=0x0:0x47dfb1e20c3034bc
housing complex,Perhimpunan Pengembang Perumahan,Desa siri siri,"V48G+44F, Mugim, Kec. Matemani, Kabupaten Sorong Selatan, Papua Bar.","Kabupaten Sorong Selatan, Papua Bar.",PAPUA BARAT,,Indonesia,,-2.1351413,132.1246785,https://maps.google.com/?cid=0x0:0x222c3dead9960664
housing complex,housing complex,Anak Bsm,"V5F8+C9H, Mate, Distrik Inanwatan, Kabupaten Sorong Selatan, Papua Bar. 98455","Mate, Distrik Inanwatan, Kabupaten Sorong Selatan",PAPUA BARAT,98455.0,Indonesia,,-2.1261053,132.1667035,https://maps.google.com/?cid=0x0:0x9b2ca39ae5d93410
housing complex,housing complex,poragi,"27JQ+RW, Bedare, Kec. Matemani, Kabupaten Sorong Selatan, Papua Bar.","Kabupaten Sorong Selatan, Papua Bar.",PAPUA BARAT,,Indonesia,,-1.967911,132.289783,https://maps.google.com/?cid=0x0:0xdb650145a1657b58
housing complex,Pembangunan Perumahan,Kampung siri siri Distrik Inanwatan,"V48G+44F, Mugim, Kec. Matemani, Kabupaten Sorong Selatan, Papua Bar.","Kabupaten Sorong Selatan, Papua Bar.",PAPUA BARAT,,Indonesia,,-2.1346821,132.1252945,https://maps.google.com/?cid=0x0:0xcfe5ae37311baf33
housing complex,housing complex,Distrik Moswaren,"Kabupaten Sorong Selatan, Papua Bar.","Kabupaten Sorong Selatan, Papua Bar.",PAPUA BARAT,,Indonesia,,-1.4917637,132.2410573,https://maps.google.com/?cid=0x0:0xc435d4289dbbc461
housing complex,Komplek perumahan,Kompleks Hehh,"G67J+WM, Bumi Ajo (Sp I), Distrik Moswaren, Kabupaten Sorong Selatan, Papua Bar.","Kabupaten Sorong Selatan, Papua Bar.",PAPUA BARAT,,Indonesia,,-1.4852294,132.2316294,https://maps.google.com/?cid=0x0:0xa3ae5abe531cf303
housing complex,Pembangunan Perumahan,Kampung Kami Sabe/Distrik Moswaren,"H649+FHM, Kamisabe, Distrik Moswaren, Kabupaten Sorong Selatan, Papua Bar.","Kabupaten Sorong Selatan, Papua Bar.",PAPUA BARAT,,Indonesia,,-1.4437946,132.2189113,https://maps.google.com/?cid=0x0:0x27ac54a7cbb71894
housing complex,Kantor Pemerintah Distrik,"Kampung Moswaren, Distrik Moswaren","G6HP+FV, Moswaren, Distrik Moswaren, Kabupaten Sorong Selatan, Papua Bar.","Kabupaten Sorong Selatan, Papua Bar.",PAPUA BARAT,,Indonesia,,-1.4712607,132.2370653,https://maps.google.com/?cid=0x0:0x4c000e107d299ac3
housing complex,Pembangunan Perumahan,Nauw Family,"Depan SMP No.N 1, Moswaren, Distrik Moswaren, Kabupaten Sorong Selatan, Papua Bar. 98462","Moswaren, Distrik Moswaren, Kabupaten Sorong Selatan",PAPUA BARAT,98462.0,Indonesia,,-1.4690968,132.2388542,https://maps.google.com/?cid=0x0:0x748bdf99fb4d4b9a
housing complex,Komplek perumahan,Kompleks rawa indah,"Lorong samping mushola al hidayah No.Rt 12, Bumi Ajo (Sp I), Distrik Moswaren, Kabupaten Sorong Selatan, Papua Bar. 98462","Bumi Ajo (Sp I), Distrik Moswaren, Kabupaten Sorong Selatan",PAPUA BARAT,98462.0,Indonesia,,-1.4950455,132.2406433,https://maps.google.com/?cid=0x0:0x31c9810b00016d7
housing complex,Komplek perumahan,INTAN HOMER,"G6HP+FV, Moswaren, Distrik Moswaren, Kabupaten Sorong Selatan, Papua Bar.","Kabupaten Sorong Selatan, Papua Bar.",PAPUA BARAT,,Indonesia,,-1.4712428,132.2369767,https://maps.google.com/?cid=0x0:0x58cc9ab3096982f0
housing complex,Pusat Kesehatan Masyarakat,"Kopel Dokter,NS Puskesmas Moswaren","G6FP+P3, Moswaren, Distrik Moswaren, Kabupaten Sorong Selatan, Papua Bar. 98462","Moswaren, Distrik Moswaren, Kabupaten Sorong Selatan",PAPUA BARAT,98462.0,Indonesia,,-1.4757267,132.2351592,https://maps.google.com/?cid=0x0:0xd77ed25d838cc547
housing complex,Perhimpunan Pengembang Perumahan,Camp geng kapak,"G65V+87H, Bumi Ajo (Sp I), Distrik Moswaren, Kabupaten Sorong Selatan, Papua Bar. 98462","Bumi Ajo (Sp I), Distrik Moswaren, Kabupaten Sorong Selatan",PAPUA BARAT,98462.0,Indonesia,,-1.4916922,132.243236,https://maps.google.com/?cid=0x0:0x13a5a90923d71e0e
housing complex,Komplek perumahan,Abdul Ridho,"G66R+H9J, Bumi Ajo (Sp I), Distrik Moswaren, Kabupaten Sorong Selatan, Papua Bar. 98462","Bumi Ajo (Sp I), Distrik Moswaren, Kabupaten Sorong Selatan",PAPUA BARAT,98462.0,Indonesia,,-1.4885444,132.2408932,https://maps.google.com/?cid=0x0:0xcd2b90d1e5f103c
housing complex,Komplek perumahan,Komplek rawa indah,"G62R+XFV, Jalur 7 kanan, Bumi Ajo (Sp I), Distrik Moswaren, Kabupaten Sorong Selatan, Papua Bar. 98462","Jalur 7 kanan, Bumi Ajo (Sp I), Distrik Moswaren, Kabupaten Sorong Selatan",PAPUA BARAT,98462.0,Indonesia,,-1.4975234,132.2411755,https://maps.google.com/?cid=0x0:0x29fbe8c46f3d2cf9
housing complex,Komplek perumahan,Negara Puyar,"G65R+7CV, Bumi Ajo (Sp I), Distrik Moswaren, Kabupaten Sorong Selatan, Papua Bar.","Kabupaten Sorong Selatan, Papua Bar.",PAPUA BARAT,,Indonesia,,-1.4917637,132.2410573,https://maps.google.com/?cid=0x0:0xebfefe058820bd34
housing complex,housing complex,Firda yustika,"G64R+CJQ, Bumi Ajo (Sp I), Distrik Moswaren, Kabupaten Sorong Selatan, Papua Bar. 98462","Bumi Ajo (Sp I), Distrik Moswaren, Kabupaten Sorong Selatan",PAPUA BARAT,98462.0,Indonesia,,-1.4939187,132.2416095,https://maps.google.com/?cid=0x0:0xb4a71205ccdde649
housing complex,housing complex,Papua Bar. 98454,"Kabupaten Sorong Selatan, Papua Bar.","Kabupaten Sorong Selatan, Papua Bar.",PAPUA BARAT,,Indonesia,,-1.4196083,131.9989718,https://maps.google.com/?cid=0x0:0x85355e3327b207ba
housing complex,Pembangunan Perumahan,Kampung TOwato,"FR3J+24J, Manggroholo, Distrik Saifi, Kabupaten Sorong Selatan, Papua Bar.","Kabupaten Sorong Selatan, Papua Bar.",PAPUA BARAT,,Indonesia,,-1.5474207,131.830267,https://maps.google.com/?cid=0x0:0x86c45c5b0086543
housing complex,Komplek perumahan,Kampung Kotolo ( Sagaret Family ),"HWR5+2F3, Kampung Kotolo, Distrik Saifi, Kabupaten Sorong Selatan, Papua Bar.","Kabupaten Sorong Selatan, Papua Bar.",PAPUA BARAT,,Indonesia,,-1.4099955,131.9086686,https://maps.google.com/?cid=0x0:0xb910045d270546dc
housing complex,housing complex,Papua Bar. 98456,Papua Bar.,Papua Bar.,PAPUA BARAT,,Indonesia,,-1.2191286,131.8799408,https://maps.google.com/?cid=0x0:0x1193e0fa67947a8b
housing complex,housing complex,Wendi,"PWXP+CV, Wen, Distrik Sawiat, Kabupaten Sorong Selatan, Papua Bar.","Kabupaten Sorong Selatan, Papua Bar.",PAPUA BARAT,,Indonesia,,-1.251379,131.937243,https://maps.google.com/?cid=0x0:0x521bf3dcb191a8dd
housing complex,Perhimpunan Pengembang Perumahan,"Kampung Sasder, Distrik Sawiat - Sorong Selatan","PWPJ+9J, Wen, Distrik Sawiat, Kabupaten Sorong Selatan, Papua Bar. 98456","Wen, Distrik Sawiat, Kabupaten Sorong Selatan",PAPUA BARAT,98456.0,Indonesia,,-1.2640511,131.9315955,https://maps.google.com/?cid=0x0:0x192da4bcc93b32e5
housing complex,Komplek perumahan,Kampung Persiapan Bololo,"QXP4+23P, Wenslolo, Distrik Sawiat, Kabupaten Sorong Selatan, Papua Bar.","Kabupaten Sorong Selatan, Papua Bar.",PAPUA BARAT,,Indonesia,,-1.2149201,131.95521,https://maps.google.com/?cid=0x0:0x29ee38240952d7c7
housing complex,Komplek perumahan,Mlabolo Kabupaten Sorong Selatan,"VV4F+3H, Mlabolo, Distrik Sawiat, Kabupaten Sorong Selatan, Papua Bar.","Kabupaten Sorong Selatan, Papua Bar.",PAPUA BARAT,,Indonesia,,-1.144761,131.8736437,https://maps.google.com/?cid=0x0:0x1186dc393c25efbd
housing complex,Komplek perumahan,Kampung Wen,"QX99+VPP, Wen, Distrik Sawiat, Kabupaten Sorong Selatan, Papua Bar.","Kabupaten Sorong Selatan, Papua Bar.",PAPUA BARAT,,Indonesia,,-1.2302998,131.9693385,https://maps.google.com/?cid=0x0:0xe02f6b078a3bb28f
housing complex,Komplek perumahan,Kampung Wenslolo,"QWVX+FV3, Unnamed Road, Wenslolo, Distrik Sawiat, Kabupaten Sorong Selatan, Papua Bar. 98456","Unnamed Road, Wenslolo, Distrik Sawiat, Kabupaten Sorong Selatan",PAPUA BARAT,98456.0,Indonesia,,-1.2063534,131.9496635,https://maps.google.com/?cid=0x0:0x92d045cabe501d12
housing complex,Komplek perumahan,Lorong kanan,"PXRQ+5R9, Sudrofoyo, Distrik Sawiat, Kabupaten Sorong Selatan, Papua Bar.","Kabupaten Sorong Selatan, Papua Bar.",PAPUA BARAT,,Indonesia,,-1.2595816,131.9895982,https://maps.google.com/?cid=0x0:0x580b7732613c8397
housing complex,Komplek perumahan,Kampung Kamlin,"VV53+QM9, Mlabolo, Distrik Sawiat, Kabupaten Sorong Selatan, Papua Bar. 98456","Mlabolo, Distrik Sawiat, Kabupaten Sorong Selatan",PAPUA BARAT,98456.0,Indonesia,,-1.1405773,131.8542335,https://maps.google.com/?cid=0x0:0x1c389744a2116ebb
housing complex,Komplek perumahan,Kampung Klalin Mos,"VRFM+6M8, Mlabolo, Distrik Sawiat, Kabupaten Sorong Selatan, Papua Bar. 98456","Mlabolo, Distrik Sawiat, Kabupaten Sorong Selatan",PAPUA BARAT,98456.0,Indonesia,,-1.1269681,131.8342085,https://maps.google.com/?cid=0x0:0x47a1129e2b6a475
housing complex,Komplek perumahan,Perumahan Divisi I Klasafet,"WG7X+6X, Maladuk, Distrik Klamono, Kabupaten Sorong, Papua Bar.","Kabupaten Sorong, Papua Bar.",PAPUA BARAT,,Indonesia,,-1.0868925,131.5500456,https://maps.google.com/?cid=0x0:0xe83fe1f3e920a026
housing complex,Pembangunan Perumahan,Komplex Distrik Klamono (S.P.D) _ Rumah Dewika Klamono,"VF8G+VX, Klawana, Distrik Klamono, Kabupaten Sorong, Papua Bar. 98457","Klawana, Distrik Klamono, Kabupaten Sorong",PAPUA BARAT,98457.0,Indonesia,,-1.1328447,131.4774787,https://maps.google.com/?cid=0x0:0xf53f824735e052cc
housing complex,Komplek perumahan,Kampung Persiapan Klafri,"VV7V+9GJ, Klamit, Distrik Sawiat, Kabupaten Sorong Selatan, Papua Bar. 98456","Klamit, Distrik Sawiat, Kabupaten Sorong Selatan",PAPUA BARAT,98456.0,Indonesia,,-1.13654,131.8937562,https://maps.google.com/?cid=0x0:0x8779a2bdfc54355b
housing complex,Komplek perumahan,Pasir putih mahato,"RXHM+WJ5 simp KUD, Pasir Putih, Distrik Fokour, Kabupaten Sorong Selatan, Papua Bar. 98461","Pasir Putih, Distrik Fokour, Kabupaten Sorong Selatan",PAPUA BARAT,98461.0,Indonesia,,-1.1702465,131.9841073,https://maps.google.com/?cid=0x0:0x5e0272f4ffe86aa2
housing complex,Komplek perumahan,Kampung Persiapan Kragitolo,"JXF8+WPW, Tofot, Distrik Seremuk, Kabupaten Sorong Selatan, Papua Bar. 98454","Tofot, Distrik Seremuk, Kabupaten Sorong Selatan",PAPUA BARAT,98454.0,Indonesia,,-1.3751425,131.9668239,https://maps.google.com/?cid=0x0:0x8746675d1cb42119
housing complex,housing complex,Distrik Seremuk,"Kabupaten Sorong Selatan, Papua Bar.","Kabupaten Sorong Selatan, Papua Bar.",PAPUA BARAT,,Indonesia,,-1.3800751,131.971713,https://maps.google.com/?cid=0x0:0xe12c32b535c8440a
housing complex,Komplek perumahan,Tofot,"JXCC+XFW, Tofot, Distrik Seremuk, Kabupaten Sorong Selatan, Papua Bar. 98454","Tofot, Distrik Seremuk, Kabupaten Sorong Selatan",PAPUA BARAT,98454.0,Indonesia,,-1.3775078,131.9712087,https://maps.google.com/?cid=0x0:0xaea6720410e1b18f
housing complex,Balai masyarakat,Dusun Romboa kampung Tapiri distrik Teminabuan Kabupaten Sorong Selatan Papua,"Jl. Perikanan No. 1, Wersar, Seribauw, Kec. Teminabuan, Kabupaten Sorong Selatan, Papua Bar. 98454","Wersar, Seribauw, Kec. Teminabuan, Kabupaten Sorong Selatan",PAPUA BARAT,98454.0,Indonesia,,-1.4689456,131.9911786,https://maps.google.com/?cid=0x0:0xeba3e2b2fc5ad77c
housing complex,Komplek perumahan,Keluarga N.Raturoma,"H237+452, Sayolo, Kec. Teminabuan, Kabupaten Sorong Selatan, Papua Bar. 98454","Sayolo, Kec. Teminabuan, Kabupaten Sorong Selatan",PAPUA BARAT,98454.0,Indonesia,,-1.4472322,132.0128985,https://maps.google.com/?cid=0x0:0xc4dc1f54302a3aa8
housing complex,Komplek perumahan,ALLZET,"H297+94R, Kohoin, Kec. Teminabuan, Kabupaten Sorong Selatan, Papua Bar. 98454","Kohoin, Kec. Teminabuan, Kabupaten Sorong Selatan",PAPUA BARAT,98454.0,Indonesia,,-1.4315166,132.0127581,https://maps.google.com/?cid=0x0:0x1888a9d9de8bdbba
housing complex,Komplek perumahan,Kel. Somnaikubun,"H256+WGV, Kohoin, Kec. Teminabuan, Kabupaten Sorong Selatan, Papua Bar. 98454","Kohoin, Kec. Teminabuan, Kabupaten Sorong Selatan",PAPUA BARAT,98454.0,Indonesia,81248736222.0,-1.4401362,132.011297,https://maps.google.com/?cid=0x0:0xb08b7bc29b2e7a14
housing complex,Komplek perumahan,Kampung A,"H256+WX8, Jl. Sengget, Kohoin, Kec. Teminabuan, Kabupaten Sorong Selatan, Papua Bar. 98454","Jl. Sengget, Kohoin, Kec. Teminabuan, Kabupaten Sorong Selatan",PAPUA BARAT,98454.0,Indonesia,,-1.4402207,132.0124607,https://maps.google.com/?cid=0x0:0xb89bb9d623348ff4
housing complex,Kantor Pemerintah,Kantor Kampung Seribauw,"HXHQ+2RJ, Jl. Sengget, Seribauw, Kec. Teminabuan, Kabupaten Sorong Selatan, Papua Bar. 98454","Jl. Sengget, Seribauw, Kec. Teminabuan, Kabupaten Sorong Selatan",PAPUA BARAT,98454.0,Indonesia,,-1.4224181,131.9895191,https://maps.google.com/?cid=0x0:0xd772556695df9d91
housing complex,Pembangunan Perumahan,Kampung wendi,"MW68+QH, Haha, Distrik Seremuk, Kabupaten Sorong Selatan, Papua Bar.","Kabupaten Sorong Selatan, Papua Bar.",PAPUA BARAT,,Indonesia,,-1.33809,131.916443,https://maps.google.com/?cid=0x0:0x5705081b03cc405e
housing complex,Komplek perumahan,Komplekx AJ,"GVGG+R9Q, Sayal, Distrik Seremuk, Kabupaten Sorong Selatan, Papua Bar. 98454","Sayal, Distrik Seremuk, Kabupaten Sorong Selatan",PAPUA BARAT,98454.0,Indonesia,81572822814.0,-1.4729133,131.8759782,https://maps.google.com/?cid=0x0:0x14d918a0add0d22f
housing complex,Perhimpunan Pengembang Perumahan,Kompleks Fasamolo,"GX7Q+VJP, Wersar, Kec. Teminabuan, Kabupaten Sorong Selatan, Papua Bar. 98454","Wersar, Kec. Teminabuan, Kabupaten Sorong Selatan",PAPUA BARAT,98454.0,Indonesia,,-1.4852841,131.9890626,https://maps.google.com/?cid=0x0:0x7298be51cf9ba37e
housing complex,Gedung Apartemen,{RK},"H247+J7J, Jl. Sengget, Sayolo, Kec. Teminabuan, Kabupaten Sorong Selatan, Papua Bar. 98454","Jl. Sengget, Sayolo, Kec. Teminabuan, Kabupaten Sorong Selatan",PAPUA BARAT,98454.0,Indonesia,,-1.4434216,132.0131379,https://maps.google.com/?cid=0x0:0xdabb5a02a337095c
housing complex,Komplek perumahan,KOMPLEKS KAMPUNG B RT/ RW,"H256+JFC, Unnamed Road, Kohoin, Kec. Teminabuan, Kabupaten Sorong Selatan, Papua Bar. 98454","Unnamed Road, Kohoin, Kec. Teminabuan, Kabupaten Sorong Selatan",PAPUA BARAT,98454.0,Indonesia,,-1.4409339,132.011131,https://maps.google.com/?cid=0x0:0xf2d1de9999f4c3c0
housing complex,housing complex,Kec. Teminabuan,"Kabupaten Sorong Selatan, Papua Bar.","Kabupaten Sorong Selatan, Papua Bar.",PAPUA BARAT,,Indonesia,,-1.4418184,132.0109997,https://maps.google.com/?cid=0x0:0x26fd6623ef786a25
housing complex,Komplek perumahan,Rumah Adi Saosini,"G39G+53, Keyen, Kec. Teminabuan, Kabupaten Sorong Selatan, Papua Bar. 98454","Keyen, Kec. Teminabuan, Kabupaten Sorong Selatan",PAPUA BARAT,98454.0,Indonesia,,-1.4820625,132.0751875,https://maps.google.com/?cid=0x0:0x933046f037adb51a
housing complex,Komplek perumahan,Keluarga N.Raturoma,"H237+452, Sayolo, Kec. Teminabuan, Kabupaten Sorong Selatan, Papua Bar. 98454","Sayolo, Kec. Teminabuan, Kabupaten Sorong Selatan",PAPUA BARAT,98454.0,Indonesia,,-1.4472322,132.0128985,https://maps.google.com/?cid=0x0:0xc4dc1f54302a3aa8
housing complex,Komplek perumahan,Kampung A,"H256+WX8, Jl. Sengget, Kohoin, Kec. Teminabuan, Kabupaten Sorong Selatan, Papua Bar. 98454","Jl. Sengget, Kohoin, Kec. Teminabuan, Kabupaten Sorong Selatan",PAPUA BARAT,98454.0,Indonesia,,-1.4402207,132.0124607,https://maps.google.com/?cid=0x0:0xb89bb9d623348ff4
housing complex,Komplek perumahan,Komplek Brawijaya,"H248+QR8, Jalan Brawijaya, Sayolo, Kec. Teminabuan, Kabupaten Sorong Selatan, Papua Bar. 98454","Jalan Brawijaya, Sayolo, Kec. Teminabuan, Kabupaten Sorong Selatan",PAPUA BARAT,98454.0,Indonesia,,-1.4430815,132.0170778,https://maps.google.com/?cid=0x0:0xfee00fefef4b01b1
housing complex,Balai masyarakat,Dusun Romboa kampung Tapiri distrik Teminabuan Kabupaten Sorong Selatan Papua,"Jl. Perikanan No. 1, Wersar, Seribauw, Kec. Teminabuan, Kabupaten Sorong Selatan, Papua Bar. 98454","Wersar, Seribauw, Kec. Teminabuan, Kabupaten Sorong Selatan",PAPUA BARAT,98454.0,Indonesia,,-1.4689456,131.9911786,https://maps.google.com/?cid=0x0:0xeba3e2b2fc5ad77c
housing complex,Komplek perumahan,Kel. Somnaikubun,"H256+WGV, Kohoin, Kec. Teminabuan, Kabupaten Sorong Selatan, Papua Bar. 98454","Kohoin, Kec. Teminabuan, Kabupaten Sorong Selatan",PAPUA BARAT,98454.0,Indonesia,81248736222.0,-1.4401362,132.011297,https://maps.google.com/?cid=0x0:0xb08b7bc29b2e7a14
housing complex,Komplek perumahan,Krisna Residence,"G2MP+XVQ, Unnamed Road, Wernas, Teminabuan, South Sorong Regency, West Papua 98454","Unnamed Road, Wernas, Teminabuan, South Sorong Regency",PAPUA BARAT,98454.0,Indonesia,,-1.46504,132.0372333,https://maps.google.com/?cid=0x0:0x5fc2fd87d8bef82
housing complex,Komplek perumahan,ALLZET,"H297+94R, Kohoin, Kec. Teminabuan, Kabupaten Sorong Selatan, Papua Bar. 98454","Kohoin, Kec. Teminabuan, Kabupaten Sorong Selatan",PAPUA BARAT,98454.0,Indonesia,,-1.4315166,132.0127581,https://maps.google.com/?cid=0x0:0x1888a9d9de8bdbba
housing complex,Pembangunan Perumahan,Sanbers gawat,"H267+CMV, Kohoin, Kec. Teminabuan, Kabupaten Sorong Selatan, Papua Bar. 98454","Kohoin, Kec. Teminabuan, Kabupaten Sorong Selatan",PAPUA BARAT,98454.0,Indonesia,,-1.4380344,132.0144435,https://maps.google.com/?cid=0x0:0x3ace7a0b503f35aa
housing complex,Komplek perumahan,Tmlt Ghil Reane,"G3JF+XW6, Keyen, Kec. Teminabuan, Kabupaten Sorong Selatan, Papua Bar. 98454","Keyen, Kec. Teminabuan, Kabupaten Sorong Selatan",PAPUA BARAT,98454.0,Indonesia,,-1.4695838,132.0758644,https://maps.google.com/?cid=0x0:0x2c5f511f8f475ed7
housing complex,Pembangunan Perumahan,KPJ Home,"G39G+53 KPJ HOME, Keyen, Teminabuan, South Sorong Regency, West Papua 98454","Keyen, Teminabuan, South Sorong Regency",PAPUA BARAT,98454.0,Indonesia,,-1.4826382,132.075463,https://maps.google.com/?cid=0x0:0xccfc1b2978d82eda
housing complex,Komplek perumahan,Sekretariat Ikatan Keluarga Timor Cendana (FLOBAMORA),"G3MG+37V, Keyen, Kec. Teminabuan, Kabupaten Sorong Selatan, Papua Bar. 98454","Keyen, Kec. Teminabuan, Kabupaten Sorong Selatan",PAPUA BARAT,98454.0,Indonesia,,-1.46597,132.0763459,https://maps.google.com/?cid=0x0:0x197d5ccb6aa37933
housing complex,Komplek perumahan,"Basecamp Keyen, Teminabuan","G3FC+5V7, Keyen, Kec. Teminabuan, Kabupaten Sorong Selatan, Papua Bar.","Kabupaten Sorong Selatan, Papua Bar.",PAPUA BARAT,,Indonesia,,-1.477479,132.071786,https://maps.google.com/?cid=0x0:0x402271b35367db50
housing complex,housing complex,Distrik Wayer,"Kabupaten Sorong Selatan, Papua Bar.","Kabupaten Sorong Selatan, Papua Bar.",PAPUA BARAT,,Indonesia,,-1.4981267,132.1276575,https://maps.google.com/?cid=0x0:0xa31b66c806bf6157
housing complex,Komplek perumahan,Rumah Arnoldus,"F4WR+XPV, Wayer, Distrik Wayer, Kabupaten Sorong Selatan, Papua Bar.","Kabupaten Sorong Selatan, Papua Bar.",PAPUA BARAT,,Indonesia,,-1.5032519,132.1416946,https://maps.google.com/?cid=0x0:0xf0393982c9d66aea
housing complex,housing complex,Bung Morris Siwalette,"G439+RHW, Sungguer, Distrik Wayer, Kabupaten Sorong Selatan, Papua Bar. 98454","Sungguer, Distrik Wayer, Kabupaten Sorong Selatan",PAPUA BARAT,98454.0,Indonesia,,-1.4953783,132.1189402,https://maps.google.com/?cid=0x0:0x9d76f65fe173ab76
housing complex,Komplek perumahan,RUMAH PAK KEPALA SEKOLAH,"G38P+CRP, Keyen, Kec. Teminabuan, Kabupaten Sorong Selatan, Papua Bar. 98454","Keyen, Kec. Teminabuan, Kabupaten Sorong Selatan",PAPUA BARAT,98454.0,Indonesia,,-1.4834097,132.0870107,https://maps.google.com/?cid=0x0:0xc6db516a92f79795
housing complex,Pembangunan Perumahan,Seputaran wayer,"G42H+VWQ, Sungguer, Distrik Wayer, Kabupaten Sorong Selatan, Papua Bar. 98462","Sungguer, Distrik Wayer, Kabupaten Sorong Selatan",PAPUA BARAT,98462.0,Indonesia,,-1.4973865,132.1302691,https://maps.google.com/?cid=0x0:0x9ea69fbfd615a57b
housing complex,Komplek perumahan,Rumah Adi Saosini,"G39G+53, Keyen, Kec. Teminabuan, Kabupaten Sorong Selatan, Papua Bar. 98454","Keyen, Kec. Teminabuan, Kabupaten Sorong Selatan",PAPUA BARAT,98454.0,Indonesia,,-1.4820625,132.0751875,https://maps.google.com/?cid=0x0:0x933046f037adb51a
housing complex,Perhimpunan Pengembang Perumahan,Perumahan Pemda Eselon III Sungguer,"G429+VVC, Sungguer, Distrik Wayer, Kabupaten Sorong Selatan, Papua Bar. 98462","Sungguer, Distrik Wayer, Kabupaten Sorong Selatan",PAPUA BARAT,98462.0,Indonesia,,-1.4978108,132.1196419,https://maps.google.com/?cid=0x0:0x4efef5cd5305c7d6
housing complex,Komplek perumahan,Rumah Ernest,"F5X8+Q33, Jalan Worot, Waigo, Distrik Wayer, Kabupaten Sorong Selatan, Papua Bar. 98462","Jalan Worot, Waigo, Distrik Wayer, Kabupaten Sorong Selatan",PAPUA BARAT,98462.0,Indonesia,,-1.5006243,132.16518,https://maps.google.com/?cid=0x0:0x3e622d912519350
housing complex,Komplek perumahan,Kompleks Hehh,"G67J+WM, Bumi Ajo (Sp I), Distrik Moswaren, Kabupaten Sorong Selatan, Papua Bar.","Kabupaten Sorong Selatan, Papua Bar.",PAPUA BARAT,,Indonesia,,-1.4852294,132.2316294,https://maps.google.com/?cid=0x0:0xa3ae5abe531cf303
housing complex,Komplek perumahan,Krisna Residence,"G2MP+XVQ, Unnamed Road, Wernas, Teminabuan, South Sorong Regency, West Papua 98454","Unnamed Road, Wernas, Teminabuan, South Sorong Regency",PAPUA BARAT,98454.0,Indonesia,,-1.46504,132.0372333,https://maps.google.com/?cid=0x0:0x5fc2fd87d8bef82
housing complex,Komplek perumahan,Sekretariat Ikatan Keluarga Timor Cendana (FLOBAMORA),"G3MG+37V, Keyen, Kec. Teminabuan, Kabupaten Sorong Selatan, Papua Bar. 98454","Keyen, Kec. Teminabuan, Kabupaten Sorong Selatan",PAPUA BARAT,98454.0,Indonesia,,-1.46597,132.0763459,https://maps.google.com/?cid=0x0:0x197d5ccb6aa37933
housing complex,Pembangunan Perumahan,Takur Home,"G3GJ+XCW, Keyen, Kec. Teminabuan, Kabupaten Sorong Selatan, Papua Bar. 98454","Keyen, Kec. Teminabuan, Kabupaten Sorong Selatan",PAPUA BARAT,98454.0,Indonesia,,-1.472683,132.0808399,https://maps.google.com/?cid=0x0:0x32b7b3ca471a7031
housing complex,Komplek perumahan,Tmlt Ghil Reane,"G3JF+XW6, Keyen, Kec. Teminabuan, Kabupaten Sorong Selatan, Papua Bar. 98454","Keyen, Kec. Teminabuan, Kabupaten Sorong Selatan",PAPUA BARAT,98454.0,Indonesia,,-1.4695838,132.0758644,https://maps.google.com/?cid=0x0:0x2c5f511f8f475ed7
housing complex,Pembangunan Perumahan,KPJ Home,"G39G+53 KPJ HOME, Keyen, Teminabuan, South Sorong Regency, West Papua 98454","Keyen, Teminabuan, South Sorong Regency",PAPUA BARAT,98454.0,Indonesia,,-1.4826382,132.075463,https://maps.google.com/?cid=0x0:0xccfc1b2978d82eda
