Category;Real Category;Business Name;Address;City;State;Postal Code;Country;Phone;Email;Website;Latitude;Longitude;Map Link;Details Link
"supermarket";"Toko bahan makanan";"Toko Tina";"VR3G+HCX, Unnamed Road, Terusan Jawa, Kec. Jejawi, Kabupaten Ogan Komering Ilir, Sumatera Selatan 30652";"Unnamed Road, Terusan Jawa, Kec. Jejawi, Kabupaten Ogan Komering Ilir";"SUMATERA SELATAN";"30652";"Indonesia";" 085368889081";"";"";"-3.1460154";"104.8261162";"https://maps.google.com/?cid=0x0:0x615fb9d89212a421";""
"supermarket";"Toko Swalayan";"Toko Ibu Rodiah";"RVHF+27W, Unnamed Road, Lingkis, Kec. Jejawi, Kabupaten Ogan Komering Ilir, Sumatera Selatan 30652";"Unnamed Road, Lingkis, Kec. Jejawi, Kabupaten Ogan Komering Ilir";"SUMATERA SELATAN";"30652";"Indonesia";"";"";"";"-3.1723977";"104.8731885";"https://maps.google.com/?cid=0x0:0x6718401d73fa7307";""
"supermarket";"Minimarket";"Indomaret Jejawi";"QVG4+RR, Jejawi, Kec. Jejawi, Kabupaten Ogan Komering Ilir, Sumatera Selatan 30652";"Jejawi, Kec. Jejawi, Kabupaten Ogan Komering Ilir";"SUMATERA SELATAN";"30652";"Indonesia";"";"";"";"-3.222977";"104.8570471";"https://maps.google.com/?cid=0x0:0x8521badf5b7e6b50";""
"supermarket";"Toko Swalayan";"Toko mashadi";"RVHF+47Q, Lingkis, Kec. Jejawi, Kabupaten Ogan Komering Ilir, Sumatera Selatan 30652";"Lingkis, Kec. Jejawi, Kabupaten Ogan Komering Ilir";"SUMATERA SELATAN";"30652";"Indonesia";"";"";"";"-3.1721526";"104.8732372";"https://maps.google.com/?cid=0x0:0x1e6d26d060c1eba0";""
"supermarket";"Toko bahan makanan";"Warung LELA";"VVJ6+998, Unnamed Road, Sukadarma, Kec. Jejawi, Kabupaten Ogan Komering Ilir, Sumatera Selatan 30652";"Unnamed Road, Sukadarma, Kec. Jejawi, Kabupaten Ogan Komering Ilir";"SUMATERA SELATAN";"30652";"Indonesia";" 082178774221";"";"";"-3.1190847";"104.860943";"https://maps.google.com/?cid=0x0:0xd6a018addd32fb00";""
"supermarket";"Toko Swalayan";"Warung Marsya";"RRCW+R7J, Muara Batun, Kec. Jejawi, Kabupaten Ogan Komering Ilir, Sumatera Selatan 30652";"Muara Batun, Kec. Jejawi, Kabupaten Ogan Komering Ilir";"SUMATERA SELATAN";"30652";"Indonesia";" 085382841500";"";"";"-3.1779022";"104.8456293";"https://maps.google.com/?cid=0x0:0xbd9d01f35c0d6b43";""
"supermarket";"Minimarket";"Toko Jok Mul";"RRFW+V2Q, Muara Batun, Kec. Jejawi, Kabupaten Ogan Komering Ilir, Sumatera Selatan 30652";"Muara Batun, Kec. Jejawi, Kabupaten Ogan Komering Ilir";"SUMATERA SELATAN";"30652";"Indonesia";" 085268263291";"";"";"-3.175295";"104.8451096";"https://maps.google.com/?cid=0x0:0x54d5f287401486e9";""
"supermarket";"Toko Swalayan";"Warung bu! Erlina";"RVFX+R34, Unnamed Road, Tj. Aur, Kec. Jejawi, Kabupaten Ogan Komering Ilir, Sumatera Selatan 30652";"Unnamed Road, Tj. Aur, Kec. Jejawi, Kabupaten Ogan Komering Ilir";"SUMATERA SELATAN";"30652";"Indonesia";" 085374114989";"";"";"-3.1754822";"104.8976885";"https://maps.google.com/?cid=0x0:0xf853ec16af0592df";""
"supermarket";"Toko bahan makanan";"Warung Anggi";"VVJ5+38P, Unnamed Road, Tj. Alai, Kec. Jejawi, Kabupaten Ogan Komering Ilir, Sumatera Selatan 30652";"Unnamed Road, Tj. Alai, Kec. Jejawi, Kabupaten Ogan Komering Ilir";"SUMATERA SELATAN";"30652";"Indonesia";" 082280029661";"";"";"-3.1197977";"104.8583419";"https://maps.google.com/?cid=0x0:0xc5e09845249e5347";""
"supermarket";"Toko bahan makanan";"Warung Sembako Jon";"VVP6+89X, Tj. Alai, Kec. Jejawi, Kabupaten Ogan Komering Ilir, Sumatera Selatan 30652";"Tj. Alai, Kec. Jejawi, Kabupaten Ogan Komering Ilir";"SUMATERA SELATAN";"30652";"Indonesia";"";"";"";"-3.1141317";"104.86099";"https://maps.google.com/?cid=0x0:0x49c398d691c17f0f";""
"supermarket";"Toko Swalayan";"Warung pur dan gani";"VVJ5+8FR, Unnamed Road, Tj. Alai, Kec. Jejawi, Kabupaten Ogan Komering Ilir, Sumatera Selatan 30652";"Unnamed Road, Tj. Alai, Kec. Jejawi, Kabupaten Ogan Komering Ilir";"SUMATERA SELATAN";"30652";"Indonesia";" 081232586262";"";"";"-3.119131";"104.858638";"https://maps.google.com/?cid=0x0:0x2dd8c7d4ff2142f4";""
"supermarket";"Bengkel Sepeda Motor";"Bengkel kusim";"RWJ2+CR2, Unnamed Road, Tj. Aur, Kec. Jejawi, Kabupaten Ogan Komering Ilir, Sumatera Selatan 30652";"Unnamed Road, Tj. Aur, Kec. Jejawi, Kabupaten Ogan Komering Ilir";"SUMATERA SELATAN";"30652";"Indonesia";"";"";"";"-3.1689781";"104.9020095";"https://maps.google.com/?cid=0x0:0xc94cf017e8aa6ac";""
"supermarket";"supermarket";"Jejawi";"Kangar, Perlis, Malaysia";"Kangar, Perlis, Malaysia";"SUMATERA SELATAN";"";"Indonesia";"";"";"";"6.446532";"100.2290929";"https://maps.google.com/?cid=0x0:0xff30b0e2b6390594";""
"supermarket";"Minimarket";"MCM Jejawi";"Persiaran Jubli Emas, Kampung Jejawi, 02600 Kangar, Perlis, Malaysia";"Kangar";"SUMATERA SELATAN";"02600";"Indonesia";"";"";"";"6.4454537";"100.2372262";"https://maps.google.com/?cid=0x0:0x6fd87a28945f98bf";""
"supermarket";"Toko Kelontong Asia";"Kedai Runcit Ah Hock";"Kangar, Perlis, No.40-A, Jejawi Dalam, Arau, 02600 jejawi, Perlis, Malaysia";"jejawi";"SUMATERA SELATAN";"02600";"Indonesia";" +6049760675";"";"";"6.4515569";"100.2328839";"https://maps.google.com/?cid=0x0:0x6a7582aa2b2f4e7b";""
"supermarket";"Toko bahan makanan";"Ishah Bintong Enterprise";"Kampung Behor Pisang, 01000 Kangar, Perlis, Malaysia";"Kangar";"SUMATERA SELATAN";"01000";"Indonesia";"";"";"";"6.4412818";"100.2343843";"https://maps.google.com/?cid=0x0:0x5ee73db858bb565d";""
"supermarket";"Pujasera";"Botak Burger Jejawi";"Jejawi, 02600 Kangar, Perlis, Malaysia";"Kangar";"SUMATERA SELATAN";"02600";"Indonesia";" +60174320564";"";"";"6.4453366";"100.2369206";"https://maps.google.com/?cid=0x0:0x585593a4c25a782f";""
"supermarket";"Perusahaan pengolahan makanan";"RADIX HALLMART KOWAHIDA JEJAWI";"173, Jalan Umno, Kampung Bakong, 01000 Kangar, Perlis, Malaysia";"Kangar";"SUMATERA SELATAN";"01000";"Indonesia";" +6049764944";"";"";"6.4440679";"100.2345472";"https://maps.google.com/?cid=0x0:0xc53801f9c6008be";""
"supermarket";"Distributor minuman";"Nestle Products Sdn. Bhd.";"PT1523, Permatang, Kawasan Industri Jejawi,02600, Jalan Jejawi-Tok Kayaman, 01000 Arau, Perlis, Malaysia";"Arau";"SUMATERA SELATAN";"01000";"Indonesia";" +6049775300";"";"";"6.4386178";"100.2323126";"https://maps.google.com/?cid=0x0:0x4375eac0ddeb4854";""
"supermarket";"Toko bahan makanan";"Kedai Runcit Lang Sapi";"Jejawi, 01000 Kangar, Perlis, Malaysia";"Kangar";"SUMATERA SELATAN";"01000";"Indonesia";"";"";"";"6.4481784";"100.2360373";"https://maps.google.com/?cid=0x0:0x4b9c99dc57e48fb8";""
"supermarket";"Kantor Perusahaan";"Koperasi Wahida HPA Berhad";"No 26, Tingkat Bawah, Taman Utara Jejawi, Jalan Jejawi Sematang,, 02600 Arau, Perlis, Malaysia";"Arau";"SUMATERA SELATAN";"02600";"Indonesia";" +60175672477";"";"";"6.4439743";"100.2346338";"https://maps.google.com/?cid=0x0:0x8d3caef15c934db2";""
"supermarket";"Kantor Perusahaan";"LEAN ENG TRADING";"Lot 161, 162,  163, Taman Utara, Jejawi Permatang, 02600 Arau, Perlis, Malaysia";"Arau";"SUMATERA SELATAN";"02600";"Indonesia";"";"";"";"6.4415718";"100.2342295";"https://maps.google.com/?cid=0x0:0x8c56d3627df2ede1";""
"supermarket";"Toko bahan makanan";"Eco-Shop @ Kangar";"No.1  91, B14  B15 Jalan Arau, Jejawi, 02600 Kangar, Perlis, Malaysia";"Kangar";"SUMATERA SELATAN";"02600";"Indonesia";" +6072830123";"";"";"6.4447069";"100.2375886";"https://maps.google.com/?cid=0x0:0x865a33a1ec245a01";""
"supermarket";"Toko bahan makanan";"Kedai Runcit QQ Utara Jejawi";"No 6, Kampung Jejawi Permatang, Kampung Jejawi, 02600 Arau, Perlis, Malaysia";"Arau";"SUMATERA SELATAN";"02600";"Indonesia";" +60182005846";"";"";"6.4344412";"100.2326432";"https://maps.google.com/?cid=0x0:0x46a8287102eafa5a";""
"supermarket";"Toko bahan makanan";"Pasaraya Seri Utama Medan Pulai";"No. 5  7, Jalan Padang Behor, Kampung Padang Behor, 01000 Kangar, Perlis, Malaysia";"Kangar";"SUMATERA SELATAN";"01000";"Indonesia";" +60183702234";"";"";"6.4285225";"100.2156829";"https://maps.google.com/?cid=0x0:0x95cae57cc5d46da2";""
"supermarket";"Toko Kelontong Asia";"PASARAYA HALEEMA";"No.105 BWN JLN JEJAWI SEMATANG TAMAN MUHIBBAH, FASA 2, JEJAWI, 02600 Arau, Perlis, Malaysia";"Arau";"SUMATERA SELATAN";"02600";"Indonesia";"";"";"";"6.4333008";"100.2329473";"https://maps.google.com/?cid=0x0:0x71e93447fe84e327";""
"supermarket";"Toko";"Pasaraya Hafifah";"Jalan Raja Syed Alwi, Plaza Mara, 01000 Kangar, Perlis, Malaysia";"Kangar";"SUMATERA SELATAN";"01000";"Indonesia";" +60198816241";"";"";"6.4317459";"100.19609";"https://maps.google.com/?cid=0x0:0xf21df96673a47d76";""
"supermarket";"Toko";"Giant Kangar";"PT 4819 Taman Putra Utama, Jalan Raja Syed Alwi, 01000 Kangar, Perlis, Malaysia";"Kangar";"SUMATERA SELATAN";"01000";"Indonesia";" +6049704628";"";"";"6.4194207";"100.1962992";"https://maps.google.com/?cid=0x0:0x97a3bfe497bf7749";""
"supermarket";"Toko Kelontong Asia";"HA SHOPPE";"NO.15, Lorong Satu, Taman Perlis, 01000 Kangar, Perlis, Malaysia";"Kangar";"SUMATERA SELATAN";"01000";"Indonesia";" +60104082899";"";"";"6.4273953";"100.1996704";"https://maps.google.com/?cid=0x0:0x6a48573eb1075565";""
"supermarket";"supermarket";"Sumatera Selatan 30611";"Kec. Kayu Agung, Kabupaten Ogan Komering Ilir, Sumatera Selatan";"Kabupaten Ogan Komering Ilir, Sumatera Selatan";"SUMATERA SELATAN";"";"Indonesia";"";"";"";"-3.3592664";"104.8512993";"https://maps.google.com/?cid=0x0:0xb9c9d8d264e26935";""
"supermarket";"Toko umum";"Warung Fahrul";"Kutaraya, Kec. Kayu Agung, Kabupaten Ogan Komering Ilir, Sumatera Selatan 30615";"Kec. Kayu Agung, Kabupaten Ogan Komering Ilir";"SUMATERA SELATAN";"30615";"Indonesia";"";"";"";"-3.3913688";"104.847653";"https://maps.google.com/?cid=0x0:0xd9b9848a66388c25";""
"supermarket";"Toko";"Toko Adeng";"MV2C+W56, Serigeni Baru, Kec. Kayu Agung, Kabupaten Ogan Komering Ilir, Sumatera Selatan 30618";"Serigeni Baru, Kec. Kayu Agung, Kabupaten Ogan Komering Ilir";"SUMATERA SELATAN";"30618";"Indonesia";"";"";"";"-3.347707";"104.870394";"https://maps.google.com/?cid=0x0:0x813e8b676752b364";""
"supermarket";"Toko";"Waroeng pakdi";"JR3W+632, Lorong cendana 1, Kedaton, Kec. Kayu Agung, Kabupaten Ogan Komering Ilir, Sumatera Selatan";"Kabupaten Ogan Komering Ilir, Sumatera Selatan";"SUMATERA SELATAN";"";"Indonesia";"";"";"";"-3.3969927";"104.8451463";"https://maps.google.com/?cid=0x0:0x7ff3285831e2630d";""
"supermarket";"Gudang";"Pabrik Penggilingan Padi Mustopa";"JRQQ+H68, Jl. Letnan Muchtar Saleh, Arisan Buntal, Kec. Kayu Agung, Kabupaten Ogan Komering Ilir, Sumatera Selatan 30611";"Jl. Letnan Muchtar Saleh, Arisan Buntal, Kec. Kayu Agung, Kabupaten Ogan Komering Ilir";"SUMATERA SELATAN";"30611";"Indonesia";"";"";"";"-3.3610761";"104.8380812";"https://maps.google.com/?cid=0x0:0x1f2df32589af917d";""
"supermarket";"Toko bahan makanan";"Toko Airaffi";"JV42+38R, Jl. Letnan Sayuti, Kutaraya, Kec. Kayu Agung, Kabupaten Ogan Komering Ilir, Sumatera Selatan 30615";"Jl. Letnan Sayuti, Kutaraya, Kec. Kayu Agung, Kabupaten Ogan Komering Ilir";"SUMATERA SELATAN";"30615";"Indonesia";" 081278188742";"";"";"-3.3947579";"104.8507734";"https://maps.google.com/?cid=0x0:0xcbc3062e5255e26d";""
"supermarket";"Toko bahan makanan";"Hidroponik Kayuagung";"JRCJ+JHF, Paku, Kec. Kayu Agung, Kabupaten Ogan Komering Ilir, Sumatera Selatan 30867";"Paku, Kec. Kayu Agung, Kabupaten Ogan Komering Ilir";"SUMATERA SELATAN";"30867";"Indonesia";"";"";"";"-3.3784333";"104.8314193";"https://maps.google.com/?cid=0x0:0x58b2c0126fa6b0e6";""
"supermarket";"Toko Makanan Sehat";"Halal Mart";"HRP8+X5V, Unnamed Road, Tj. Rancing, Kec. Kayu Agung, Kabupaten Ogan Komering Ilir, Sumatera Selatan 30867";"Unnamed Road, Tj. Rancing, Kec. Kayu Agung, Kabupaten Ogan Komering Ilir";"SUMATERA SELATAN";"30867";"Indonesia";"";"";"";"-3.4125155";"104.8154095";"https://maps.google.com/?cid=0x0:0x6b79dd2ad7ef6b9d";""
"supermarket";"Minimarket";"Alfamart Celikah";"Jl. Letnan Mukhtar Saleh, RT.06/RW.Lk.Iii, Celikah, Kec. Kayu Agung, Kabupaten Ogan Komering Ilir, Sumatera Selatan 30611";"RT.06/RW.Lk.Iii, Celikah, Kec. Kayu Agung, Kabupaten Ogan Komering Ilir";"SUMATERA SELATAN";"30611";"Indonesia";" 1500959";"";"";"-3.3768762";"104.8259343";"https://maps.google.com/?cid=0x0:0xa2532576e294630e";""
"supermarket";"Toko bahan makanan";"Minimarket 212 Mart Kayuagung Gerai-1";"Jl. Jenderal Sudirman No.921, Paku, Kec. Kayu Agung, Kabupaten Ogan Komering Ilir, Sumatera Selatan 30867";"Paku, Kec. Kayu Agung, Kabupaten Ogan Komering Ilir";"SUMATERA SELATAN";"30867";"Indonesia";"";"";"";"-3.381166";"104.8272803";"https://maps.google.com/?cid=0x0:0xc18c565e64753d64";""
"supermarket";"Pasar";"Pasar Kayu Agung";"JR6H+V54, Jl. Jenderal Sudirman, Cintaraja, Kec. Kayu Agung, Kabupaten Ogan Komering Ilir, Sumatera Selatan 30867";"Jl. Jenderal Sudirman, Cintaraja, Kec. Kayu Agung, Kabupaten Ogan Komering Ilir";"SUMATERA SELATAN";"30867";"Indonesia";"";"";"";"-3.3878549";"104.8279619";"https://maps.google.com/?cid=0x0:0xd86479f4b4f9b2bf";""
"supermarket";"Minimarket";"Alfamart Muchtar Saleh";"Jl. Letnan Muchtar Saleh Ba No.Kel, Mangun Jaya, Kec. Kayu Agung, Kabupaten Ogan Komering Ilir, Sumatera Selatan 30613";"Mangun Jaya, Kec. Kayu Agung, Kabupaten Ogan Komering Ilir";"SUMATERA SELATAN";"30613";"Indonesia";" 0211500959";"";"";"-3.3856557";"104.8275206";"https://maps.google.com/?cid=0x0:0xa555f928a1aa9432";""
"supermarket";"Toko bahan makanan";"Alfamart Darna Jambi";"Jl. Let. Darna Jambi, RT.04/RW.Lk. I, Sukadana, Kec. Kayu Agung, Kabupaten Ogan Komering Ilir, Sumatera Selatan 30611";"RT.04/RW.Lk. I, Sukadana, Kec. Kayu Agung, Kabupaten Ogan Komering Ilir";"SUMATERA SELATAN";"30611";"Indonesia";" 1500959";"";"";"-3.3778548";"104.8325062";"https://maps.google.com/?cid=0x0:0x8f71192835f7d58";""
"supermarket";"Toko";"Warung Ani";"HRR8+9JR, Tj. Rancing, Kec. Kayu Agung, Kabupaten Ogan Komering Ilir, Sumatera Selatan 30867";"Tj. Rancing, Kec. Kayu Agung, Kabupaten Ogan Komering Ilir";"SUMATERA SELATAN";"30867";"Indonesia";"";"";"";"-3.4090162";"104.8165069";"https://maps.google.com/?cid=0x0:0x2ccd7376fb790383";""
"supermarket";"Minimarket";"Alfamart";"Spbu Pertamina, Jl. Lintas Sumatra, Celikah, Kec. Kayu Agung, Kabupaten Ogan Komering Ilir, Sumatera Selatan 30611";"Jl. Lintas Sumatra, Celikah, Kec. Kayu Agung, Kabupaten Ogan Komering Ilir";"SUMATERA SELATAN";"30611";"Indonesia";" 1500959";"";"";"-3.3799453";"104.8237705";"https://maps.google.com/?cid=0x0:0xf2f43b6f3d5caa4e";""
"supermarket";"Minimarket";"Alfamart Sidakersa";"Jl. Sersan Jufri, RT.02/RW.02, Sidakersa, Kec. Kayu Agung, Kabupaten Ogan Komering Ilir, Sumatera Selatan 30615";"RT.02/RW.02, Sidakersa, Kec. Kayu Agung, Kabupaten Ogan Komering Ilir";"SUMATERA SELATAN";"30615";"Indonesia";" 1500959";"";"";"-3.3937658";"104.8298533";"https://maps.google.com/?cid=0x0:0xd8a586b9213bf79b";""
"supermarket";"Toko Alat Pancing";"Toko Abu (Terminal Pancing)";"JR6G+MFG, Unnamed Road, Cintaraja, Kec. Kayu Agung, Kabupaten Ogan Komering Ilir, Sumatera Selatan 30867";"Unnamed Road, Cintaraja, Kec. Kayu Agung, Kabupaten Ogan Komering Ilir";"SUMATERA SELATAN";"30867";"Indonesia";" 08127347617";"";"";"-3.3883073";"104.826207";"https://maps.google.com/?cid=0x0:0x3a444c095c17430b";""
"supermarket";"Minimarket";"Alfamart Kedaton";"Jl. Talang Sepucuk Rt. 01 Rw, Kedaton, Kec. Kayu Agung, Kabupaten Ogan Komering Ilir, Sumatera Selatan 30617";"Kedaton, Kec. Kayu Agung, Kabupaten Ogan Komering Ilir";"SUMATERA SELATAN";"30617";"Indonesia";" 1500959";"";"";"-3.3945722";"104.8422301";"https://maps.google.com/?cid=0x0:0xd44305baa46ec03b";""
"supermarket";"Toko";"Toko arahab";"HRPF+58Q, Muara Baru, Kec. Kayu Agung, Kabupaten Ogan Komering Ilir, Sumatera Selatan 30867";"Muara Baru, Kec. Kayu Agung, Kabupaten Ogan Komering Ilir";"SUMATERA SELATAN";"30867";"Indonesia";"";"";"";"-3.4145429";"104.8233444";"https://maps.google.com/?cid=0x0:0x21fc2bf2324a0b3b";""
"supermarket";"Toko Perlengkapan Rumah";"Toko perabot kirana";"komplek palem agung, Jl. Bagus Keraton lrg cahaya, Kutaraya, Kec. Kayu Agung, Kabupaten Ogan Komering Ilir, Sumatera Selatan 30611";"Jl. Bagus Keraton lrg cahaya, Kutaraya, Kec. Kayu Agung, Kabupaten Ogan Komering Ilir";"SUMATERA SELATAN";"30611";"Indonesia";" 085769103690";"";"";"-3.3920996";"104.8465935";"https://maps.google.com/?cid=0x0:0x216cfe09b7ba956b";""
"supermarket";"Bengkel Sepeda Motor";"Toko  Bengkel Las Dan Motor ALVIN";"MV3H+CC2, Jl. Letnan Muchtar Saleh, Tj. Serang, Kec. Kayu Agung, Kabupaten Ogan Komering Ilir, Sumatera Selatan 30618";"Jl. Letnan Muchtar Saleh, Tj. Serang, Kec. Kayu Agung, Kabupaten Ogan Komering Ilir";"SUMATERA SELATAN";"30618";"Indonesia";" 081373008004";"";"";"-3.3464953";"104.8785068";"https://maps.google.com/?cid=0x0:0xc8e62d2ea1778991";""
"supermarket";"supermarket";"Sumatera Selatan 30612";"Kec. Kayu Agung, Kabupaten Ogan Komering Ilir, Sumatera Selatan";"Kabupaten Ogan Komering Ilir, Sumatera Selatan";"SUMATERA SELATAN";"";"Indonesia";"";"";"";"-3.3714313";"104.854218";"https://maps.google.com/?cid=0x0:0xdd01a3c85ae6a38e";""
"supermarket";"Toko";"Waroeng pakdi";"JR3W+632, Lorong cendana 1, Kedaton, Kec. Kayu Agung, Kabupaten Ogan Komering Ilir, Sumatera Selatan";"Kabupaten Ogan Komering Ilir, Sumatera Selatan";"SUMATERA SELATAN";"";"Indonesia";"";"";"";"-3.3969927";"104.8451463";"https://maps.google.com/?cid=0x0:0x7ff3285831e2630d";""
"supermarket";"Toko bahan makanan";"Toko Airaffi";"JV42+38R, Jl. Letnan Sayuti, Kutaraya, Kec. Kayu Agung, Kabupaten Ogan Komering Ilir, Sumatera Selatan 30615";"Jl. Letnan Sayuti, Kutaraya, Kec. Kayu Agung, Kabupaten Ogan Komering Ilir";"SUMATERA SELATAN";"30615";"Indonesia";" 081278188742";"";"";"-3.3947579";"104.8507734";"https://maps.google.com/?cid=0x0:0xcbc3062e5255e26d";""
"supermarket";"Pasar";"Pasar Kayu Agung";"JR6H+V54, Jl. Jenderal Sudirman, Cintaraja, Kec. Kayu Agung, Kabupaten Ogan Komering Ilir, Sumatera Selatan 30867";"Jl. Jenderal Sudirman, Cintaraja, Kec. Kayu Agung, Kabupaten Ogan Komering Ilir";"SUMATERA SELATAN";"30867";"Indonesia";"";"";"";"-3.3878549";"104.8279619";"https://maps.google.com/?cid=0x0:0xd86479f4b4f9b2bf";""
"supermarket";"Toko bahan makanan";"Minimarket 212 Mart Kayuagung Gerai-1";"Jl. Jenderal Sudirman No.921, Paku, Kec. Kayu Agung, Kabupaten Ogan Komering Ilir, Sumatera Selatan 30867";"Paku, Kec. Kayu Agung, Kabupaten Ogan Komering Ilir";"SUMATERA SELATAN";"30867";"Indonesia";"";"";"";"-3.381166";"104.8272803";"https://maps.google.com/?cid=0x0:0xc18c565e64753d64";""
"supermarket";"Minimarket";"Alfamart Sidakersa";"Jl. Sersan Jufri, RT.02/RW.02, Sidakersa, Kec. Kayu Agung, Kabupaten Ogan Komering Ilir, Sumatera Selatan 30615";"RT.02/RW.02, Sidakersa, Kec. Kayu Agung, Kabupaten Ogan Komering Ilir";"SUMATERA SELATAN";"30615";"Indonesia";" 1500959";"";"";"-3.3937658";"104.8298533";"https://maps.google.com/?cid=0x0:0xd8a586b9213bf79b";""
"supermarket";"Toko bahan makanan";"Toko";"JR9R+P74, Kayu Agung, Kec. Kayu Agung, Kabupaten Ogan Komering Ilir, Sumatera Selatan 30614";"Kayu Agung, Kec. Kayu Agung, Kabupaten Ogan Komering Ilir";"SUMATERA SELATAN";"30614";"Indonesia";"";"";"";"-3.3807297";"104.8407024";"https://maps.google.com/?cid=0x0:0x57bde93f018ba6dc";""
"supermarket";"Minimarket";"Indomaret Sriguna Kayu Agung";"FR62+J7P, Seriguna, Kec. Tlk. Gelam, Kabupaten Ogan Komering Ilir, Sumatera Selatan 30673";"Seriguna, Kec. Tlk. Gelam, Kabupaten Ogan Komering Ilir";"SUMATERA SELATAN";"30673";"Indonesia";"";"";"";"-3.538655";"104.8006999";"https://maps.google.com/?cid=0x0:0xc17a0e3edde6d630";""
"supermarket";"Pom bensin/SPBU";"-TOKO•$AIMAH- × -MARYANI•CELL-";"H M YUSUF SINGENEKANE, Kec. Kayu Agung, Sumatera Selatan 30867";"Kec. Kayu Agung";"SUMATERA SELATAN";"30867";"Indonesia";"";"";"";"-3.3985732";"104.8280409";"https://maps.google.com/?cid=0x0:0xa345f3963adf5edc";""
"supermarket";"Minimarket";"Alfamart Celikah";"Jl. Letnan Mukhtar Saleh, RT.06/RW.Lk.Iii, Celikah, Kec. Kayu Agung, Kabupaten Ogan Komering Ilir, Sumatera Selatan 30611";"RT.06/RW.Lk.Iii, Celikah, Kec. Kayu Agung, Kabupaten Ogan Komering Ilir";"SUMATERA SELATAN";"30611";"Indonesia";" 1500959";"";"";"-3.3768762";"104.8259343";"https://maps.google.com/?cid=0x0:0xa2532576e294630e";""
"supermarket";"Toko Kosmetik";"999 Shop";"Jl. Letnan Mukhtar Saleh, Cinta Raja, Kec. Kayu Agung, Kabupaten Ogan Komering Ilir, Sumatera Selatan 30867";"Cinta Raja, Kec. Kayu Agung, Kabupaten Ogan Komering Ilir";"SUMATERA SELATAN";"30867";"Indonesia";" 085213324725";"";"";"-3.3905519";"104.8293401";"https://maps.google.com/?cid=0x0:0x55b5df7491aef3d3";""
"supermarket";"Agen Gas Elpiji";"Agen gas terdekat";"JRCM+FQ9, Paku, Kec. Kayu Agung, Kabupaten Ogan Komering Ilir, Sumatera Selatan 30614";"Paku, Kec. Kayu Agung, Kabupaten Ogan Komering Ilir";"SUMATERA SELATAN";"30614";"Indonesia";"";"";"";"-3.378849";"104.8344813";"https://maps.google.com/?cid=0x0:0x2e0d547dd22a0698";""
"supermarket";"Minimarket";"Alfamart Muchtar Saleh";"Jl. Letnan Muchtar Saleh Ba No.Kel, Mangun Jaya, Kec. Kayu Agung, Kabupaten Ogan Komering Ilir, Sumatera Selatan 30613";"Mangun Jaya, Kec. Kayu Agung, Kabupaten Ogan Komering Ilir";"SUMATERA SELATAN";"30613";"Indonesia";" 0211500959";"";"";"-3.3856557";"104.8275206";"https://maps.google.com/?cid=0x0:0xa555f928a1aa9432";""
"supermarket";"supermarket";"Sumatera Selatan 30613";"Kayu Agung, Kec. Kayu Agung, Kabupaten Ogan Komering Ilir, Sumatera Selatan";"Kabupaten Ogan Komering Ilir, Sumatera Selatan";"SUMATERA SELATAN";"";"Indonesia";"";"";"";"-3.3811105";"104.8600557";"https://maps.google.com/?cid=0x0:0x923c23fea39c04e3";""
"supermarket";"Toko umum";"Warung Fahrul";"Kutaraya, Kec. Kayu Agung, Kabupaten Ogan Komering Ilir, Sumatera Selatan 30615";"Kec. Kayu Agung, Kabupaten Ogan Komering Ilir";"SUMATERA SELATAN";"30615";"Indonesia";"";"";"";"-3.3913688";"104.847653";"https://maps.google.com/?cid=0x0:0xd9b9848a66388c25";""
"supermarket";"Pasar";"Pasar Kayu Agung";"JR6H+V54, Jl. Jenderal Sudirman, Cintaraja, Kec. Kayu Agung, Kabupaten Ogan Komering Ilir, Sumatera Selatan 30867";"Jl. Jenderal Sudirman, Cintaraja, Kec. Kayu Agung, Kabupaten Ogan Komering Ilir";"SUMATERA SELATAN";"30867";"Indonesia";"";"";"";"-3.3878549";"104.8279619";"https://maps.google.com/?cid=0x0:0xd86479f4b4f9b2bf";""
"supermarket";"Toko Perlengkapan Rumah";"Toko perabot kirana";"komplek palem agung, Jl. Bagus Keraton lrg cahaya, Kutaraya, Kec. Kayu Agung, Kabupaten Ogan Komering Ilir, Sumatera Selatan 30611";"Jl. Bagus Keraton lrg cahaya, Kutaraya, Kec. Kayu Agung, Kabupaten Ogan Komering Ilir";"SUMATERA SELATAN";"30611";"Indonesia";" 085769103690";"";"";"-3.3920996";"104.8465935";"https://maps.google.com/?cid=0x0:0x216cfe09b7ba956b";""
"supermarket";"Toko Kosmetik";"999 Shop";"Jl. Letnan Mukhtar Saleh, Cinta Raja, Kec. Kayu Agung, Kabupaten Ogan Komering Ilir, Sumatera Selatan 30867";"Cinta Raja, Kec. Kayu Agung, Kabupaten Ogan Komering Ilir";"SUMATERA SELATAN";"30867";"Indonesia";" 085213324725";"";"";"-3.3905519";"104.8293401";"https://maps.google.com/?cid=0x0:0x55b5df7491aef3d3";""
"supermarket";"Toko Mainan";"Toko Sayang Anak Kayuagung";"JR8G+MVV, Jl. Letnan Mukhtar Saleh, Cintaraja, Kec. Kayu Agung, Kabupaten Ogan Komering Ilir, Sumatera Selatan 30867";"Jl. Letnan Mukhtar Saleh, Cintaraja, Kec. Kayu Agung, Kabupaten Ogan Komering Ilir";"SUMATERA SELATAN";"30867";"Indonesia";"";"";"";"-3.3832645";"104.8271631";"https://maps.google.com/?cid=0x0:0x44403cdc8e318e08";""
"supermarket";"Toko Mainan";"Toko Mainan Anak STMJ Group";"JR6G+98C, Cintaraja, Kec. Kayu Agung, Kabupaten Ogan Komering Ilir, Sumatera Selatan 30867";"Cintaraja, Kec. Kayu Agung, Kabupaten Ogan Komering Ilir";"SUMATERA SELATAN";"30867";"Indonesia";" 085267030459";"";"";"-3.3890746";"104.8257525";"https://maps.google.com/?cid=0x0:0x7ceba178aaeb2a77";""
"supermarket";"Toko Kosmetik";"Mitawin shop kosmetik";"Jua Jua Kota Kayu Agung Lr pengacara herman perum grya barokah 2 blok C20-21, Kabupaten Ogan Komering Ilir, Sumatera Selatan 30616";"Kabupaten Ogan Komering Ilir";"SUMATERA SELATAN";"30616";"Indonesia";" 081366007093";"";"";"-3.4093837";"104.8275799";"https://maps.google.com/?cid=0x0:0xdbfa2ba38eeca636";""
"supermarket";"Agen Gas Elpiji";"Agen gas terdekat";"JRCM+FQ9, Paku, Kec. Kayu Agung, Kabupaten Ogan Komering Ilir, Sumatera Selatan 30614";"Paku, Kec. Kayu Agung, Kabupaten Ogan Komering Ilir";"SUMATERA SELATAN";"30614";"Indonesia";"";"";"";"-3.378849";"104.8344813";"https://maps.google.com/?cid=0x0:0x2e0d547dd22a0698";""
"supermarket";"Toko";"Waroeng pakdi";"JR3W+632, Lorong cendana 1, Kedaton, Kec. Kayu Agung, Kabupaten Ogan Komering Ilir, Sumatera Selatan";"Kabupaten Ogan Komering Ilir, Sumatera Selatan";"SUMATERA SELATAN";"";"Indonesia";"";"";"";"-3.3969927";"104.8451463";"https://maps.google.com/?cid=0x0:0x7ff3285831e2630d";""
"supermarket";"Toko bahan makanan";"Toko Airaffi";"JV42+38R, Jl. Letnan Sayuti, Kutaraya, Kec. Kayu Agung, Kabupaten Ogan Komering Ilir, Sumatera Selatan 30615";"Jl. Letnan Sayuti, Kutaraya, Kec. Kayu Agung, Kabupaten Ogan Komering Ilir";"SUMATERA SELATAN";"30615";"Indonesia";" 081278188742";"";"";"-3.3947579";"104.8507734";"https://maps.google.com/?cid=0x0:0xcbc3062e5255e26d";""
"supermarket";"Minimarket";"Alfamart Muchtar Saleh";"Jl. Letnan Muchtar Saleh Ba No.Kel, Mangun Jaya, Kec. Kayu Agung, Kabupaten Ogan Komering Ilir, Sumatera Selatan 30613";"Mangun Jaya, Kec. Kayu Agung, Kabupaten Ogan Komering Ilir";"SUMATERA SELATAN";"30613";"Indonesia";" 0211500959";"";"";"-3.3856557";"104.8275206";"https://maps.google.com/?cid=0x0:0xa555f928a1aa9432";""
"supermarket";"Minimarket";"Alfamart Kedaton";"Jl. Talang Sepucuk Rt. 01 Rw, Kedaton, Kec. Kayu Agung, Kabupaten Ogan Komering Ilir, Sumatera Selatan 30617";"Kedaton, Kec. Kayu Agung, Kabupaten Ogan Komering Ilir";"SUMATERA SELATAN";"30617";"Indonesia";" 1500959";"";"";"-3.3945722";"104.8422301";"https://maps.google.com/?cid=0x0:0xd44305baa46ec03b";""
"supermarket";"Minimarket";"Alfamart Sidakersa";"Jl. Sersan Jufri, RT.02/RW.02, Sidakersa, Kec. Kayu Agung, Kabupaten Ogan Komering Ilir, Sumatera Selatan 30615";"RT.02/RW.02, Sidakersa, Kec. Kayu Agung, Kabupaten Ogan Komering Ilir";"SUMATERA SELATAN";"30615";"Indonesia";" 1500959";"";"";"-3.3937658";"104.8298533";"https://maps.google.com/?cid=0x0:0xd8a586b9213bf79b";""
"supermarket";"Toko Swalayan";"Toko Buah Safar Pegawai Andi";"Jl. Merdeka No.917, Mangun Jaya, Kec. Kayu Agung, Kabupaten Ogan Komering Ilir, Sumatera Selatan 30611";"Mangun Jaya, Kec. Kayu Agung, Kabupaten Ogan Komering Ilir";"SUMATERA SELATAN";"30611";"Indonesia";" 082371038558";"";"";"-3.3865094";"104.827748";"https://maps.google.com/?cid=0x0:0xfb76b37f5d81b6fb";""
"supermarket";"Toko";"Toko Adeng";"MV2C+W56, Serigeni Baru, Kec. Kayu Agung, Kabupaten Ogan Komering Ilir, Sumatera Selatan 30618";"Serigeni Baru, Kec. Kayu Agung, Kabupaten Ogan Komering Ilir";"SUMATERA SELATAN";"30618";"Indonesia";"";"";"";"-3.347707";"104.870394";"https://maps.google.com/?cid=0x0:0x813e8b676752b364";""
"supermarket";"Toko Makanan Sehat";"Halal Mart";"HRP8+X5V, Unnamed Road, Tj. Rancing, Kec. Kayu Agung, Kabupaten Ogan Komering Ilir, Sumatera Selatan 30867";"Unnamed Road, Tj. Rancing, Kec. Kayu Agung, Kabupaten Ogan Komering Ilir";"SUMATERA SELATAN";"30867";"Indonesia";"";"";"";"-3.4125155";"104.8154095";"https://maps.google.com/?cid=0x0:0x6b79dd2ad7ef6b9d";""
"supermarket";"Toko";"Warung Ani";"HRR8+9JR, Tj. Rancing, Kec. Kayu Agung, Kabupaten Ogan Komering Ilir, Sumatera Selatan 30867";"Tj. Rancing, Kec. Kayu Agung, Kabupaten Ogan Komering Ilir";"SUMATERA SELATAN";"30867";"Indonesia";"";"";"";"-3.4090162";"104.8165069";"https://maps.google.com/?cid=0x0:0x2ccd7376fb790383";""
"supermarket";"Toko bahan makanan";"Hidroponik Kayuagung";"JRCJ+JHF, Paku, Kec. Kayu Agung, Kabupaten Ogan Komering Ilir, Sumatera Selatan 30867";"Paku, Kec. Kayu Agung, Kabupaten Ogan Komering Ilir";"SUMATERA SELATAN";"30867";"Indonesia";"";"";"";"-3.3784333";"104.8314193";"https://maps.google.com/?cid=0x0:0x58b2c0126fa6b0e6";""
"supermarket";"Toko";"Toko arahab";"HRPF+58Q, Muara Baru, Kec. Kayu Agung, Kabupaten Ogan Komering Ilir, Sumatera Selatan 30867";"Muara Baru, Kec. Kayu Agung, Kabupaten Ogan Komering Ilir";"SUMATERA SELATAN";"30867";"Indonesia";"";"";"";"-3.4145429";"104.8233444";"https://maps.google.com/?cid=0x0:0x21fc2bf2324a0b3b";""
"supermarket";"Toko Alat Pancing";"Toko Abu (Terminal Pancing)";"JR6G+MFG, Unnamed Road, Cintaraja, Kec. Kayu Agung, Kabupaten Ogan Komering Ilir, Sumatera Selatan 30867";"Unnamed Road, Cintaraja, Kec. Kayu Agung, Kabupaten Ogan Komering Ilir";"SUMATERA SELATAN";"30867";"Indonesia";" 08127347617";"";"";"-3.3883073";"104.826207";"https://maps.google.com/?cid=0x0:0x3a444c095c17430b";""
"supermarket";"Toko bahan makanan";"Minimarket 212 Mart Kayuagung Gerai-1";"Jl. Jenderal Sudirman No.921, Paku, Kec. Kayu Agung, Kabupaten Ogan Komering Ilir, Sumatera Selatan 30867";"Paku, Kec. Kayu Agung, Kabupaten Ogan Komering Ilir";"SUMATERA SELATAN";"30867";"Indonesia";"";"";"";"-3.381166";"104.8272803";"https://maps.google.com/?cid=0x0:0xc18c565e64753d64";""
"supermarket";"Toko bahan makanan";"Toko Nilah S";"HR4P+QGW, Unnamed Road, Lubuk Dalam, Kec. Kayu Agung, Kabupaten Ogan Komering Ilir, Sumatera Selatan 30618";"Unnamed Road, Lubuk Dalam, Kec. Kayu Agung, Kabupaten Ogan Komering Ilir";"SUMATERA SELATAN";"30618";"Indonesia";" 081278605164";"";"";"-3.4430199";"104.8363134";"https://maps.google.com/?cid=0x0:0x1bfba8e35364a776";""
"supermarket";"Minimarket";"Alfamart Celikah";"Jl. Letnan Mukhtar Saleh, RT.06/RW.Lk.Iii, Celikah, Kec. Kayu Agung, Kabupaten Ogan Komering Ilir, Sumatera Selatan 30611";"RT.06/RW.Lk.Iii, Celikah, Kec. Kayu Agung, Kabupaten Ogan Komering Ilir";"SUMATERA SELATAN";"30611";"Indonesia";" 1500959";"";"";"-3.3768762";"104.8259343";"https://maps.google.com/?cid=0x0:0xa2532576e294630e";""
"supermarket";"Toko";"Toko Drp ISMAIL ABDULLAH";"Jl. Cokro Aminoto rt/rw 003/003, Cintaraja, Kec. Kayu Agung, Kabupaten Ogan Komering Ilir, Sumatera Selatan 30867";"Cintaraja, Kec. Kayu Agung, Kabupaten Ogan Komering Ilir";"SUMATERA SELATAN";"30867";"Indonesia";"";"";"";"-3.3901014";"104.8273761";"https://maps.google.com/?cid=0x0:0xcf16c9bbf9be3457";""
"supermarket";"Toko Kue";"Yera cake";"JRGC+8CC, Celikah, Kec. Kayu Agung, Kabupaten Ogan Komering Ilir, Sumatera Selatan 30867";"Celikah, Kec. Kayu Agung, Kabupaten Ogan Komering Ilir";"SUMATERA SELATAN";"30867";"Indonesia";" 082180998402";"";"";"-3.3741847";"104.8210156";"https://maps.google.com/?cid=0x0:0x3ae04bd30df190e3";""
"supermarket";"Minimarket";"Alfamart";"Spbu Pertamina, Jl. Lintas Sumatra, Celikah, Kec. Kayu Agung, Kabupaten Ogan Komering Ilir, Sumatera Selatan 30611";"Jl. Lintas Sumatra, Celikah, Kec. Kayu Agung, Kabupaten Ogan Komering Ilir";"SUMATERA SELATAN";"30611";"Indonesia";" 1500959";"";"";"-3.3799453";"104.8237705";"https://maps.google.com/?cid=0x0:0xf2f43b6f3d5caa4e";""
"supermarket";"Toko bahan makanan";"Alfamart Darna Jambi";"Jl. Let. Darna Jambi, RT.04/RW.Lk. I, Sukadana, Kec. Kayu Agung, Kabupaten Ogan Komering Ilir, Sumatera Selatan 30611";"RT.04/RW.Lk. I, Sukadana, Kec. Kayu Agung, Kabupaten Ogan Komering Ilir";"SUMATERA SELATAN";"30611";"Indonesia";" 1500959";"";"";"-3.3778548";"104.8325062";"https://maps.google.com/?cid=0x0:0x8f71192835f7d58";""
"supermarket";"Minimarket";"Indomaret Sriguna Kayu Agung";"FR62+J7P, Seriguna, Kec. Tlk. Gelam, Kabupaten Ogan Komering Ilir, Sumatera Selatan 30673";"Seriguna, Kec. Tlk. Gelam, Kabupaten Ogan Komering Ilir";"SUMATERA SELATAN";"30673";"Indonesia";"";"";"";"-3.538655";"104.8006999";"https://maps.google.com/?cid=0x0:0xc17a0e3edde6d630";""
"supermarket";"supermarket";"Sumatera Selatan 30614";"Kec. Kayu Agung, Kabupaten Ogan Komering Ilir, Sumatera Selatan";"Kabupaten Ogan Komering Ilir, Sumatera Selatan";"SUMATERA SELATAN";"";"Indonesia";"";"";"";"-3.3813839";"104.8425433";"https://maps.google.com/?cid=0x0:0xa16fae67e2cf1f1e";""
"supermarket";"Toko umum";"Warung Fahrul";"Kutaraya, Kec. Kayu Agung, Kabupaten Ogan Komering Ilir, Sumatera Selatan 30615";"Kec. Kayu Agung, Kabupaten Ogan Komering Ilir";"SUMATERA SELATAN";"30615";"Indonesia";"";"";"";"-3.3913688";"104.847653";"https://maps.google.com/?cid=0x0:0xd9b9848a66388c25";""
"supermarket";"Toko";"Waroeng pakdi";"JR3W+632, Lorong cendana 1, Kedaton, Kec. Kayu Agung, Kabupaten Ogan Komering Ilir, Sumatera Selatan";"Kabupaten Ogan Komering Ilir, Sumatera Selatan";"SUMATERA SELATAN";"";"Indonesia";"";"";"";"-3.3969927";"104.8451463";"https://maps.google.com/?cid=0x0:0x7ff3285831e2630d";""
"supermarket";"Toko bahan makanan";"Toko Airaffi";"JV42+38R, Jl. Letnan Sayuti, Kutaraya, Kec. Kayu Agung, Kabupaten Ogan Komering Ilir, Sumatera Selatan 30615";"Jl. Letnan Sayuti, Kutaraya, Kec. Kayu Agung, Kabupaten Ogan Komering Ilir";"SUMATERA SELATAN";"30615";"Indonesia";" 081278188742";"";"";"-3.3947579";"104.8507734";"https://maps.google.com/?cid=0x0:0xcbc3062e5255e26d";""
"supermarket";"Minimarket";"Alfamart Kedaton";"Jl. Talang Sepucuk Rt. 01 Rw, Kedaton, Kec. Kayu Agung, Kabupaten Ogan Komering Ilir, Sumatera Selatan 30617";"Kedaton, Kec. Kayu Agung, Kabupaten Ogan Komering Ilir";"SUMATERA SELATAN";"30617";"Indonesia";" 1500959";"";"";"-3.3945722";"104.8422301";"https://maps.google.com/?cid=0x0:0xd44305baa46ec03b";""
"supermarket";"Minimarket";"Alfamart Muchtar Saleh";"Jl. Letnan Muchtar Saleh Ba No.Kel, Mangun Jaya, Kec. Kayu Agung, Kabupaten Ogan Komering Ilir, Sumatera Selatan 30613";"Mangun Jaya, Kec. Kayu Agung, Kabupaten Ogan Komering Ilir";"SUMATERA SELATAN";"30613";"Indonesia";" 0211500959";"";"";"-3.3856557";"104.8275206";"https://maps.google.com/?cid=0x0:0xa555f928a1aa9432";""
"supermarket";"Pasar";"Pasar Kayu Agung";"JR6H+V54, Jl. Jenderal Sudirman, Cintaraja, Kec. Kayu Agung, Kabupaten Ogan Komering Ilir, Sumatera Selatan 30867";"Jl. Jenderal Sudirman, Cintaraja, Kec. Kayu Agung, Kabupaten Ogan Komering Ilir";"SUMATERA SELATAN";"30867";"Indonesia";"";"";"";"-3.3878549";"104.8279619";"https://maps.google.com/?cid=0x0:0xd86479f4b4f9b2bf";""
"supermarket";"Toko bahan makanan";"Minimarket 212 Mart Kayuagung Gerai-1";"Jl. Jenderal Sudirman No.921, Paku, Kec. Kayu Agung, Kabupaten Ogan Komering Ilir, Sumatera Selatan 30867";"Paku, Kec. Kayu Agung, Kabupaten Ogan Komering Ilir";"SUMATERA SELATAN";"30867";"Indonesia";"";"";"";"-3.381166";"104.8272803";"https://maps.google.com/?cid=0x0:0xc18c565e64753d64";""
"supermarket";"Toko bahan makanan";"Hidroponik Kayuagung";"JRCJ+JHF, Paku, Kec. Kayu Agung, Kabupaten Ogan Komering Ilir, Sumatera Selatan 30867";"Paku, Kec. Kayu Agung, Kabupaten Ogan Komering Ilir";"SUMATERA SELATAN";"30867";"Indonesia";"";"";"";"-3.3784333";"104.8314193";"https://maps.google.com/?cid=0x0:0x58b2c0126fa6b0e6";""
"supermarket";"Toko Alat Pancing";"Toko Abu (Terminal Pancing)";"JR6G+MFG, Unnamed Road, Cintaraja, Kec. Kayu Agung, Kabupaten Ogan Komering Ilir, Sumatera Selatan 30867";"Unnamed Road, Cintaraja, Kec. Kayu Agung, Kabupaten Ogan Komering Ilir";"SUMATERA SELATAN";"30867";"Indonesia";" 08127347617";"";"";"-3.3883073";"104.826207";"https://maps.google.com/?cid=0x0:0x3a444c095c17430b";""
"supermarket";"Minimarket";"Alfamart Sidakersa";"Jl. Sersan Jufri, RT.02/RW.02, Sidakersa, Kec. Kayu Agung, Kabupaten Ogan Komering Ilir, Sumatera Selatan 30615";"RT.02/RW.02, Sidakersa, Kec. Kayu Agung, Kabupaten Ogan Komering Ilir";"SUMATERA SELATAN";"30615";"Indonesia";" 1500959";"";"";"-3.3937658";"104.8298533";"https://maps.google.com/?cid=0x0:0xd8a586b9213bf79b";""
"supermarket";"Toko";"Kerupuk Kemplang tini Bosa";"JR9J+VWG, Paku, Kec. Kayu Agung, Kabupaten Ogan Komering Ilir, Sumatera Selatan 30614";"Paku, Kec. Kayu Agung, Kabupaten Ogan Komering Ilir";"SUMATERA SELATAN";"30614";"Indonesia";"";"";"";"-3.3803217";"104.8323287";"https://maps.google.com/?cid=0x0:0x62b43f23788c71b1";""
"supermarket";"Toko Makanan Sehat";"Halal Mart";"HRP8+X5V, Unnamed Road, Tj. Rancing, Kec. Kayu Agung, Kabupaten Ogan Komering Ilir, Sumatera Selatan 30867";"Unnamed Road, Tj. Rancing, Kec. Kayu Agung, Kabupaten Ogan Komering Ilir";"SUMATERA SELATAN";"30867";"Indonesia";"";"";"";"-3.4125155";"104.8154095";"https://maps.google.com/?cid=0x0:0x6b79dd2ad7ef6b9d";""
"supermarket";"Toko";"Toko Drp ISMAIL ABDULLAH";"Jl. Cokro Aminoto rt/rw 003/003, Cintaraja, Kec. Kayu Agung, Kabupaten Ogan Komering Ilir, Sumatera Selatan 30867";"Cintaraja, Kec. Kayu Agung, Kabupaten Ogan Komering Ilir";"SUMATERA SELATAN";"30867";"Indonesia";"";"";"";"-3.3901014";"104.8273761";"https://maps.google.com/?cid=0x0:0xcf16c9bbf9be3457";""
"supermarket";"Toko Perlengkapan Rumah";"Toko perabot kirana";"komplek palem agung, Jl. Bagus Keraton lrg cahaya, Kutaraya, Kec. Kayu Agung, Kabupaten Ogan Komering Ilir, Sumatera Selatan 30611";"Jl. Bagus Keraton lrg cahaya, Kutaraya, Kec. Kayu Agung, Kabupaten Ogan Komering Ilir";"SUMATERA SELATAN";"30611";"Indonesia";" 085769103690";"";"";"-3.3920996";"104.8465935";"https://maps.google.com/?cid=0x0:0x216cfe09b7ba956b";""
"supermarket";"Minimarket";"Alfamart Celikah";"Jl. Letnan Mukhtar Saleh, RT.06/RW.Lk.Iii, Celikah, Kec. Kayu Agung, Kabupaten Ogan Komering Ilir, Sumatera Selatan 30611";"RT.06/RW.Lk.Iii, Celikah, Kec. Kayu Agung, Kabupaten Ogan Komering Ilir";"SUMATERA SELATAN";"30611";"Indonesia";" 1500959";"";"";"-3.3768762";"104.8259343";"https://maps.google.com/?cid=0x0:0xa2532576e294630e";""
"supermarket";"Toko";"Warung Ani";"HRR8+9JR, Tj. Rancing, Kec. Kayu Agung, Kabupaten Ogan Komering Ilir, Sumatera Selatan 30867";"Tj. Rancing, Kec. Kayu Agung, Kabupaten Ogan Komering Ilir";"SUMATERA SELATAN";"30867";"Indonesia";"";"";"";"-3.4090162";"104.8165069";"https://maps.google.com/?cid=0x0:0x2ccd7376fb790383";""
"supermarket";"Toko bahan makanan";"Alfamart Darna Jambi";"Jl. Let. Darna Jambi, RT.04/RW.Lk. I, Sukadana, Kec. Kayu Agung, Kabupaten Ogan Komering Ilir, Sumatera Selatan 30611";"RT.04/RW.Lk. I, Sukadana, Kec. Kayu Agung, Kabupaten Ogan Komering Ilir";"SUMATERA SELATAN";"30611";"Indonesia";" 1500959";"";"";"-3.3778548";"104.8325062";"https://maps.google.com/?cid=0x0:0x8f71192835f7d58";""
"supermarket";"Toko";"Toko Adeng";"MV2C+W56, Serigeni Baru, Kec. Kayu Agung, Kabupaten Ogan Komering Ilir, Sumatera Selatan 30618";"Serigeni Baru, Kec. Kayu Agung, Kabupaten Ogan Komering Ilir";"SUMATERA SELATAN";"30618";"Indonesia";"";"";"";"-3.347707";"104.870394";"https://maps.google.com/?cid=0x0:0x813e8b676752b364";""
"supermarket";"Toko bahan makanan";"Toko";"JR9R+P74, Kayu Agung, Kec. Kayu Agung, Kabupaten Ogan Komering Ilir, Sumatera Selatan 30614";"Kayu Agung, Kec. Kayu Agung, Kabupaten Ogan Komering Ilir";"SUMATERA SELATAN";"30614";"Indonesia";"";"";"";"-3.3807297";"104.8407024";"https://maps.google.com/?cid=0x0:0x57bde93f018ba6dc";""
"supermarket";"Agen Gas Elpiji";"Agen gas terdekat";"JRCM+FQ9, Paku, Kec. Kayu Agung, Kabupaten Ogan Komering Ilir, Sumatera Selatan 30614";"Paku, Kec. Kayu Agung, Kabupaten Ogan Komering Ilir";"SUMATERA SELATAN";"30614";"Indonesia";"";"";"";"-3.378849";"104.8344813";"https://maps.google.com/?cid=0x0:0x2e0d547dd22a0698";""
"supermarket";"Pom bensin/SPBU";"-TOKO•$AIMAH- × -MARYANI•CELL-";"H M YUSUF SINGENEKANE, Kec. Kayu Agung, Sumatera Selatan 30867";"Kec. Kayu Agung";"SUMATERA SELATAN";"30867";"Indonesia";"";"";"";"-3.3985732";"104.8280409";"https://maps.google.com/?cid=0x0:0xa345f3963adf5edc";""
"supermarket";"Toko Kosmetik";"999 Shop";"Jl. Letnan Mukhtar Saleh, Cinta Raja, Kec. Kayu Agung, Kabupaten Ogan Komering Ilir, Sumatera Selatan 30867";"Cinta Raja, Kec. Kayu Agung, Kabupaten Ogan Komering Ilir";"SUMATERA SELATAN";"30867";"Indonesia";" 085213324725";"";"";"-3.3905519";"104.8293401";"https://maps.google.com/?cid=0x0:0x55b5df7491aef3d3";""
"supermarket";"supermarket";"Sumatera Selatan 30615";"Kutaraya, Kec. Kayu Agung, Kabupaten Ogan Komering Ilir, Sumatera Selatan";"Kabupaten Ogan Komering Ilir, Sumatera Selatan";"SUMATERA SELATAN";"";"Indonesia";"";"";"";"-3.3958611";"104.854218";"https://maps.google.com/?cid=0x0:0xfd34688542130859";""
"supermarket";"Toko umum";"Warung Fahrul";"Kutaraya, Kec. Kayu Agung, Kabupaten Ogan Komering Ilir, Sumatera Selatan 30615";"Kec. Kayu Agung, Kabupaten Ogan Komering Ilir";"SUMATERA SELATAN";"30615";"Indonesia";"";"";"";"-3.3913688";"104.847653";"https://maps.google.com/?cid=0x0:0xd9b9848a66388c25";""
"supermarket";"Toko";"Waroeng pakdi";"JR3W+632, Lorong cendana 1, Kedaton, Kec. Kayu Agung, Kabupaten Ogan Komering Ilir, Sumatera Selatan";"Kabupaten Ogan Komering Ilir, Sumatera Selatan";"SUMATERA SELATAN";"";"Indonesia";"";"";"";"-3.3969927";"104.8451463";"https://maps.google.com/?cid=0x0:0x7ff3285831e2630d";""
"supermarket";"Minimarket";"Alfamart Sidakersa";"Jl. Sersan Jufri, RT.02/RW.02, Sidakersa, Kec. Kayu Agung, Kabupaten Ogan Komering Ilir, Sumatera Selatan 30615";"RT.02/RW.02, Sidakersa, Kec. Kayu Agung, Kabupaten Ogan Komering Ilir";"SUMATERA SELATAN";"30615";"Indonesia";" 1500959";"";"";"-3.3937658";"104.8298533";"https://maps.google.com/?cid=0x0:0xd8a586b9213bf79b";""
"supermarket";"Toko Swalayan";"Toko Buah Safar Pegawai Andi";"Jl. Merdeka No.917, Mangun Jaya, Kec. Kayu Agung, Kabupaten Ogan Komering Ilir, Sumatera Selatan 30611";"Mangun Jaya, Kec. Kayu Agung, Kabupaten Ogan Komering Ilir";"SUMATERA SELATAN";"30611";"Indonesia";" 082371038558";"";"";"-3.3865094";"104.827748";"https://maps.google.com/?cid=0x0:0xfb76b37f5d81b6fb";""
"supermarket";"Minimarket";"Alfamart Kedaton";"Jl. Talang Sepucuk Rt. 01 Rw, Kedaton, Kec. Kayu Agung, Kabupaten Ogan Komering Ilir, Sumatera Selatan 30617";"Kedaton, Kec. Kayu Agung, Kabupaten Ogan Komering Ilir";"SUMATERA SELATAN";"30617";"Indonesia";" 1500959";"";"";"-3.3945722";"104.8422301";"https://maps.google.com/?cid=0x0:0xd44305baa46ec03b";""
"supermarket";"Toko Alat Pancing";"Toko Abu (Terminal Pancing)";"JR6G+MFG, Unnamed Road, Cintaraja, Kec. Kayu Agung, Kabupaten Ogan Komering Ilir, Sumatera Selatan 30867";"Unnamed Road, Cintaraja, Kec. Kayu Agung, Kabupaten Ogan Komering Ilir";"SUMATERA SELATAN";"30867";"Indonesia";" 08127347617";"";"";"-3.3883073";"104.826207";"https://maps.google.com/?cid=0x0:0x3a444c095c17430b";""
"supermarket";"Pasar";"Pasar Kayu Agung";"JR6H+V54, Jl. Jenderal Sudirman, Cintaraja, Kec. Kayu Agung, Kabupaten Ogan Komering Ilir, Sumatera Selatan 30867";"Jl. Jenderal Sudirman, Cintaraja, Kec. Kayu Agung, Kabupaten Ogan Komering Ilir";"SUMATERA SELATAN";"30867";"Indonesia";"";"";"";"-3.3878549";"104.8279619";"https://maps.google.com/?cid=0x0:0xd86479f4b4f9b2bf";""
"supermarket";"Toko";"Toko Drp ISMAIL ABDULLAH";"Jl. Cokro Aminoto rt/rw 003/003, Cintaraja, Kec. Kayu Agung, Kabupaten Ogan Komering Ilir, Sumatera Selatan 30867";"Cintaraja, Kec. Kayu Agung, Kabupaten Ogan Komering Ilir";"SUMATERA SELATAN";"30867";"Indonesia";"";"";"";"-3.3901014";"104.8273761";"https://maps.google.com/?cid=0x0:0xcf16c9bbf9be3457";""
"supermarket";"Minimarket";"Alfamart Muchtar Saleh";"Jl. Letnan Muchtar Saleh Ba No.Kel, Mangun Jaya, Kec. Kayu Agung, Kabupaten Ogan Komering Ilir, Sumatera Selatan 30613";"Mangun Jaya, Kec. Kayu Agung, Kabupaten Ogan Komering Ilir";"SUMATERA SELATAN";"30613";"Indonesia";" 0211500959";"";"";"-3.3856557";"104.8275206";"https://maps.google.com/?cid=0x0:0xa555f928a1aa9432";""
"supermarket";"Toko Makanan Sehat";"Halal Mart";"HRP8+X5V, Unnamed Road, Tj. Rancing, Kec. Kayu Agung, Kabupaten Ogan Komering Ilir, Sumatera Selatan 30867";"Unnamed Road, Tj. Rancing, Kec. Kayu Agung, Kabupaten Ogan Komering Ilir";"SUMATERA SELATAN";"30867";"Indonesia";"";"";"";"-3.4125155";"104.8154095";"https://maps.google.com/?cid=0x0:0x6b79dd2ad7ef6b9d";""
"supermarket";"Pom bensin/SPBU";"-TOKO•$AIMAH- × -MARYANI•CELL-";"H M YUSUF SINGENEKANE, Kec. Kayu Agung, Sumatera Selatan 30867";"Kec. Kayu Agung";"SUMATERA SELATAN";"30867";"Indonesia";"";"";"";"-3.3985732";"104.8280409";"https://maps.google.com/?cid=0x0:0xa345f3963adf5edc";""
"supermarket";"Toko Perlengkapan Rumah";"Toko perabot kirana";"komplek palem agung, Jl. Bagus Keraton lrg cahaya, Kutaraya, Kec. Kayu Agung, Kabupaten Ogan Komering Ilir, Sumatera Selatan 30611";"Jl. Bagus Keraton lrg cahaya, Kutaraya, Kec. Kayu Agung, Kabupaten Ogan Komering Ilir";"SUMATERA SELATAN";"30611";"Indonesia";" 085769103690";"";"";"-3.3920996";"104.8465935";"https://maps.google.com/?cid=0x0:0x216cfe09b7ba956b";""
"supermarket";"Toko";"Warung Ani";"HRR8+9JR, Tj. Rancing, Kec. Kayu Agung, Kabupaten Ogan Komering Ilir, Sumatera Selatan 30867";"Tj. Rancing, Kec. Kayu Agung, Kabupaten Ogan Komering Ilir";"SUMATERA SELATAN";"30867";"Indonesia";"";"";"";"-3.4090162";"104.8165069";"https://maps.google.com/?cid=0x0:0x2ccd7376fb790383";""
"supermarket";"Toko";"Toko arahab";"HRPF+58Q, Muara Baru, Kec. Kayu Agung, Kabupaten Ogan Komering Ilir, Sumatera Selatan 30867";"Muara Baru, Kec. Kayu Agung, Kabupaten Ogan Komering Ilir";"SUMATERA SELATAN";"30867";"Indonesia";"";"";"";"-3.4145429";"104.8233444";"https://maps.google.com/?cid=0x0:0x21fc2bf2324a0b3b";""
"supermarket";"Toko bahan makanan";"Minimarket 212 Mart Kayuagung Gerai-1";"Jl. Jenderal Sudirman No.921, Paku, Kec. Kayu Agung, Kabupaten Ogan Komering Ilir, Sumatera Selatan 30867";"Paku, Kec. Kayu Agung, Kabupaten Ogan Komering Ilir";"SUMATERA SELATAN";"30867";"Indonesia";"";"";"";"-3.381166";"104.8272803";"https://maps.google.com/?cid=0x0:0xc18c565e64753d64";""
"supermarket";"Toko";"Toko Adeng";"MV2C+W56, Serigeni Baru, Kec. Kayu Agung, Kabupaten Ogan Komering Ilir, Sumatera Selatan 30618";"Serigeni Baru, Kec. Kayu Agung, Kabupaten Ogan Komering Ilir";"SUMATERA SELATAN";"30618";"Indonesia";"";"";"";"-3.347707";"104.870394";"https://maps.google.com/?cid=0x0:0x813e8b676752b364";""
"supermarket";"Toko bahan makanan";"Hidroponik Kayuagung";"JRCJ+JHF, Paku, Kec. Kayu Agung, Kabupaten Ogan Komering Ilir, Sumatera Selatan 30867";"Paku, Kec. Kayu Agung, Kabupaten Ogan Komering Ilir";"SUMATERA SELATAN";"30867";"Indonesia";"";"";"";"-3.3784333";"104.8314193";"https://maps.google.com/?cid=0x0:0x58b2c0126fa6b0e6";""
"supermarket";"Toko bahan makanan";"Toko";"JR9R+P74, Kayu Agung, Kec. Kayu Agung, Kabupaten Ogan Komering Ilir, Sumatera Selatan 30614";"Kayu Agung, Kec. Kayu Agung, Kabupaten Ogan Komering Ilir";"SUMATERA SELATAN";"30614";"Indonesia";"";"";"";"-3.3807297";"104.8407024";"https://maps.google.com/?cid=0x0:0x57bde93f018ba6dc";""
"supermarket";"Toko bahan makanan";"Toko Nilah S";"HR4P+QGW, Unnamed Road, Lubuk Dalam, Kec. Kayu Agung, Kabupaten Ogan Komering Ilir, Sumatera Selatan 30618";"Unnamed Road, Lubuk Dalam, Kec. Kayu Agung, Kabupaten Ogan Komering Ilir";"SUMATERA SELATAN";"30618";"Indonesia";" 081278605164";"";"";"-3.4430199";"104.8363134";"https://maps.google.com/?cid=0x0:0x1bfba8e35364a776";""
"supermarket";"supermarket";"Sumatera Selatan 30616";"Kedaton, Kec. Kayu Agung, Kabupaten Ogan Komering Ilir, Sumatera Selatan";"Kabupaten Ogan Komering Ilir, Sumatera Selatan";"SUMATERA SELATAN";"";"Indonesia";"";"";"";"-3.4079428";"104.8629746";"https://maps.google.com/?cid=0x0:0x3649cbf51a8fb30c";""
"supermarket";"Toko umum";"Warung Fahrul";"Kutaraya, Kec. Kayu Agung, Kabupaten Ogan Komering Ilir, Sumatera Selatan 30615";"Kec. Kayu Agung, Kabupaten Ogan Komering Ilir";"SUMATERA SELATAN";"30615";"Indonesia";"";"";"";"-3.3913688";"104.847653";"https://maps.google.com/?cid=0x0:0xd9b9848a66388c25";""
"supermarket";"Toko";"Waroeng pakdi";"JR3W+632, Lorong cendana 1, Kedaton, Kec. Kayu Agung, Kabupaten Ogan Komering Ilir, Sumatera Selatan";"Kabupaten Ogan Komering Ilir, Sumatera Selatan";"SUMATERA SELATAN";"";"Indonesia";"";"";"";"-3.3969927";"104.8451463";"https://maps.google.com/?cid=0x0:0x7ff3285831e2630d";""
"supermarket";"Minimarket";"Alfamart Kedaton";"Jl. Talang Sepucuk Rt. 01 Rw, Kedaton, Kec. Kayu Agung, Kabupaten Ogan Komering Ilir, Sumatera Selatan 30617";"Kedaton, Kec. Kayu Agung, Kabupaten Ogan Komering Ilir";"SUMATERA SELATAN";"30617";"Indonesia";" 1500959";"";"";"-3.3945722";"104.8422301";"https://maps.google.com/?cid=0x0:0xd44305baa46ec03b";""
"supermarket";"Minimarket";"Alfamart Sidakersa";"Jl. Sersan Jufri, RT.02/RW.02, Sidakersa, Kec. Kayu Agung, Kabupaten Ogan Komering Ilir, Sumatera Selatan 30615";"RT.02/RW.02, Sidakersa, Kec. Kayu Agung, Kabupaten Ogan Komering Ilir";"SUMATERA SELATAN";"30615";"Indonesia";" 1500959";"";"";"-3.3937658";"104.8298533";"https://maps.google.com/?cid=0x0:0xd8a586b9213bf79b";""
"supermarket";"Toko Makanan Sehat";"Halal Mart";"HRP8+X5V, Unnamed Road, Tj. Rancing, Kec. Kayu Agung, Kabupaten Ogan Komering Ilir, Sumatera Selatan 30867";"Unnamed Road, Tj. Rancing, Kec. Kayu Agung, Kabupaten Ogan Komering Ilir";"SUMATERA SELATAN";"30867";"Indonesia";"";"";"";"-3.4125155";"104.8154095";"https://maps.google.com/?cid=0x0:0x6b79dd2ad7ef6b9d";""
"supermarket";"Toko Swalayan";"Toko Buah Safar Pegawai Andi";"Jl. Merdeka No.917, Mangun Jaya, Kec. Kayu Agung, Kabupaten Ogan Komering Ilir, Sumatera Selatan 30611";"Mangun Jaya, Kec. Kayu Agung, Kabupaten Ogan Komering Ilir";"SUMATERA SELATAN";"30611";"Indonesia";" 082371038558";"";"";"-3.3865094";"104.827748";"https://maps.google.com/?cid=0x0:0xfb76b37f5d81b6fb";""
"supermarket";"Pasar";"Pasar Kayu Agung";"JR6H+V54, Jl. Jenderal Sudirman, Cintaraja, Kec. Kayu Agung, Kabupaten Ogan Komering Ilir, Sumatera Selatan 30867";"Jl. Jenderal Sudirman, Cintaraja, Kec. Kayu Agung, Kabupaten Ogan Komering Ilir";"SUMATERA SELATAN";"30867";"Indonesia";"";"";"";"-3.3878549";"104.8279619";"https://maps.google.com/?cid=0x0:0xd86479f4b4f9b2bf";""
"supermarket";"Toko";"Warung Ani";"HRR8+9JR, Tj. Rancing, Kec. Kayu Agung, Kabupaten Ogan Komering Ilir, Sumatera Selatan 30867";"Tj. Rancing, Kec. Kayu Agung, Kabupaten Ogan Komering Ilir";"SUMATERA SELATAN";"30867";"Indonesia";"";"";"";"-3.4090162";"104.8165069";"https://maps.google.com/?cid=0x0:0x2ccd7376fb790383";""
"supermarket";"Pom bensin/SPBU";"-TOKO•$AIMAH- × -MARYANI•CELL-";"H M YUSUF SINGENEKANE, Kec. Kayu Agung, Sumatera Selatan 30867";"Kec. Kayu Agung";"SUMATERA SELATAN";"30867";"Indonesia";"";"";"";"-3.3985732";"104.8280409";"https://maps.google.com/?cid=0x0:0xa345f3963adf5edc";""
"supermarket";"Toko";"Toko arahab";"HRPF+58Q, Muara Baru, Kec. Kayu Agung, Kabupaten Ogan Komering Ilir, Sumatera Selatan 30867";"Muara Baru, Kec. Kayu Agung, Kabupaten Ogan Komering Ilir";"SUMATERA SELATAN";"30867";"Indonesia";"";"";"";"-3.4145429";"104.8233444";"https://maps.google.com/?cid=0x0:0x21fc2bf2324a0b3b";""
"supermarket";"Toko Alat Pancing";"Toko Abu (Terminal Pancing)";"JR6G+MFG, Unnamed Road, Cintaraja, Kec. Kayu Agung, Kabupaten Ogan Komering Ilir, Sumatera Selatan 30867";"Unnamed Road, Cintaraja, Kec. Kayu Agung, Kabupaten Ogan Komering Ilir";"SUMATERA SELATAN";"30867";"Indonesia";" 08127347617";"";"";"-3.3883073";"104.826207";"https://maps.google.com/?cid=0x0:0x3a444c095c17430b";""
"supermarket";"Minimarket";"Alfamart Muchtar Saleh";"Jl. Letnan Muchtar Saleh Ba No.Kel, Mangun Jaya, Kec. Kayu Agung, Kabupaten Ogan Komering Ilir, Sumatera Selatan 30613";"Mangun Jaya, Kec. Kayu Agung, Kabupaten Ogan Komering Ilir";"SUMATERA SELATAN";"30613";"Indonesia";" 0211500959";"";"";"-3.3856557";"104.8275206";"https://maps.google.com/?cid=0x0:0xa555f928a1aa9432";""
"supermarket";"Toko";"Toko Adeng";"MV2C+W56, Serigeni Baru, Kec. Kayu Agung, Kabupaten Ogan Komering Ilir, Sumatera Selatan 30618";"Serigeni Baru, Kec. Kayu Agung, Kabupaten Ogan Komering Ilir";"SUMATERA SELATAN";"30618";"Indonesia";"";"";"";"-3.347707";"104.870394";"https://maps.google.com/?cid=0x0:0x813e8b676752b364";""
"supermarket";"Toko Perlengkapan Rumah";"Toko perabot kirana";"komplek palem agung, Jl. Bagus Keraton lrg cahaya, Kutaraya, Kec. Kayu Agung, Kabupaten Ogan Komering Ilir, Sumatera Selatan 30611";"Jl. Bagus Keraton lrg cahaya, Kutaraya, Kec. Kayu Agung, Kabupaten Ogan Komering Ilir";"SUMATERA SELATAN";"30611";"Indonesia";" 085769103690";"";"";"-3.3920996";"104.8465935";"https://maps.google.com/?cid=0x0:0x216cfe09b7ba956b";""
"supermarket";"Toko bahan makanan";"Minimarket 212 Mart Kayuagung Gerai-1";"Jl. Jenderal Sudirman No.921, Paku, Kec. Kayu Agung, Kabupaten Ogan Komering Ilir, Sumatera Selatan 30867";"Paku, Kec. Kayu Agung, Kabupaten Ogan Komering Ilir";"SUMATERA SELATAN";"30867";"Indonesia";"";"";"";"-3.381166";"104.8272803";"https://maps.google.com/?cid=0x0:0xc18c565e64753d64";""
"supermarket";"Toko";"Toko Drp ISMAIL ABDULLAH";"Jl. Cokro Aminoto rt/rw 003/003, Cintaraja, Kec. Kayu Agung, Kabupaten Ogan Komering Ilir, Sumatera Selatan 30867";"Cintaraja, Kec. Kayu Agung, Kabupaten Ogan Komering Ilir";"SUMATERA SELATAN";"30867";"Indonesia";"";"";"";"-3.3901014";"104.8273761";"https://maps.google.com/?cid=0x0:0xcf16c9bbf9be3457";""
"supermarket";"Toko bahan makanan";"Hidroponik Kayuagung";"JRCJ+JHF, Paku, Kec. Kayu Agung, Kabupaten Ogan Komering Ilir, Sumatera Selatan 30867";"Paku, Kec. Kayu Agung, Kabupaten Ogan Komering Ilir";"SUMATERA SELATAN";"30867";"Indonesia";"";"";"";"-3.3784333";"104.8314193";"https://maps.google.com/?cid=0x0:0x58b2c0126fa6b0e6";""
"supermarket";"Toko bahan makanan";"Toko Nilah S";"HR4P+QGW, Unnamed Road, Lubuk Dalam, Kec. Kayu Agung, Kabupaten Ogan Komering Ilir, Sumatera Selatan 30618";"Unnamed Road, Lubuk Dalam, Kec. Kayu Agung, Kabupaten Ogan Komering Ilir";"SUMATERA SELATAN";"30618";"Indonesia";" 081278605164";"";"";"-3.4430199";"104.8363134";"https://maps.google.com/?cid=0x0:0x1bfba8e35364a776";""
"supermarket";"Minimarket";"Indomaret Sriguna Kayu Agung";"FR62+J7P, Seriguna, Kec. Tlk. Gelam, Kabupaten Ogan Komering Ilir, Sumatera Selatan 30673";"Seriguna, Kec. Tlk. Gelam, Kabupaten Ogan Komering Ilir";"SUMATERA SELATAN";"30673";"Indonesia";"";"";"";"-3.538655";"104.8006999";"https://maps.google.com/?cid=0x0:0xc17a0e3edde6d630";""
"supermarket";"supermarket";"Sumatera Selatan 30617";"Kabupaten Ogan Komering Ilir, Sumatera Selatan";"Kabupaten Ogan Komering Ilir, Sumatera Selatan";"SUMATERA SELATAN";"";"Indonesia";"";"";"";"-3.4171664";"104.8980058";"https://maps.google.com/?cid=0x0:0x9af33a43c4d3fc18";""
"supermarket";"Toko umum";"Warung Fahrul";"Kutaraya, Kec. Kayu Agung, Kabupaten Ogan Komering Ilir, Sumatera Selatan 30615";"Kec. Kayu Agung, Kabupaten Ogan Komering Ilir";"SUMATERA SELATAN";"30615";"Indonesia";"";"";"";"-3.3913688";"104.847653";"https://maps.google.com/?cid=0x0:0xd9b9848a66388c25";""
"supermarket";"Toko";"Waroeng pakdi";"JR3W+632, Lorong cendana 1, Kedaton, Kec. Kayu Agung, Kabupaten Ogan Komering Ilir, Sumatera Selatan";"Kabupaten Ogan Komering Ilir, Sumatera Selatan";"SUMATERA SELATAN";"";"Indonesia";"";"";"";"-3.3969927";"104.8451463";"https://maps.google.com/?cid=0x0:0x7ff3285831e2630d";""
"supermarket";"Toko";"Warung Ani";"HRR8+9JR, Tj. Rancing, Kec. Kayu Agung, Kabupaten Ogan Komering Ilir, Sumatera Selatan 30867";"Tj. Rancing, Kec. Kayu Agung, Kabupaten Ogan Komering Ilir";"SUMATERA SELATAN";"30867";"Indonesia";"";"";"";"-3.4090162";"104.8165069";"https://maps.google.com/?cid=0x0:0x2ccd7376fb790383";""
"supermarket";"Toko bahan makanan";"Minimarket 212 Mart Kayuagung Gerai-1";"Jl. Jenderal Sudirman No.921, Paku, Kec. Kayu Agung, Kabupaten Ogan Komering Ilir, Sumatera Selatan 30867";"Paku, Kec. Kayu Agung, Kabupaten Ogan Komering Ilir";"SUMATERA SELATAN";"30867";"Indonesia";"";"";"";"-3.381166";"104.8272803";"https://maps.google.com/?cid=0x0:0xc18c565e64753d64";""
"supermarket";"Pasar";"Pasar Kayu Agung";"JR6H+V54, Jl. Jenderal Sudirman, Cintaraja, Kec. Kayu Agung, Kabupaten Ogan Komering Ilir, Sumatera Selatan 30867";"Jl. Jenderal Sudirman, Cintaraja, Kec. Kayu Agung, Kabupaten Ogan Komering Ilir";"SUMATERA SELATAN";"30867";"Indonesia";"";"";"";"-3.3878549";"104.8279619";"https://maps.google.com/?cid=0x0:0xd86479f4b4f9b2bf";""
"supermarket";"Minimarket";"Alfamart Sidakersa";"Jl. Sersan Jufri, RT.02/RW.02, Sidakersa, Kec. Kayu Agung, Kabupaten Ogan Komering Ilir, Sumatera Selatan 30615";"RT.02/RW.02, Sidakersa, Kec. Kayu Agung, Kabupaten Ogan Komering Ilir";"SUMATERA SELATAN";"30615";"Indonesia";" 1500959";"";"";"-3.3937658";"104.8298533";"https://maps.google.com/?cid=0x0:0xd8a586b9213bf79b";""
"supermarket";"Minimarket";"Alfamart Muchtar Saleh";"Jl. Letnan Muchtar Saleh Ba No.Kel, Mangun Jaya, Kec. Kayu Agung, Kabupaten Ogan Komering Ilir, Sumatera Selatan 30613";"Mangun Jaya, Kec. Kayu Agung, Kabupaten Ogan Komering Ilir";"SUMATERA SELATAN";"30613";"Indonesia";" 0211500959";"";"";"-3.3856557";"104.8275206";"https://maps.google.com/?cid=0x0:0xa555f928a1aa9432";""
"supermarket";"Pom bensin/SPBU";"-TOKO•$AIMAH- × -MARYANI•CELL-";"H M YUSUF SINGENEKANE, Kec. Kayu Agung, Sumatera Selatan 30867";"Kec. Kayu Agung";"SUMATERA SELATAN";"30867";"Indonesia";"";"";"";"-3.3985732";"104.8280409";"https://maps.google.com/?cid=0x0:0xa345f3963adf5edc";""
"supermarket";"Minimarket";"Indomaret Sriguna Kayu Agung";"FR62+J7P, Seriguna, Kec. Tlk. Gelam, Kabupaten Ogan Komering Ilir, Sumatera Selatan 30673";"Seriguna, Kec. Tlk. Gelam, Kabupaten Ogan Komering Ilir";"SUMATERA SELATAN";"30673";"Indonesia";"";"";"";"-3.538655";"104.8006999";"https://maps.google.com/?cid=0x0:0xc17a0e3edde6d630";""
"supermarket";"Toko Perlengkapan Rumah";"Toko perabot kirana";"komplek palem agung, Jl. Bagus Keraton lrg cahaya, Kutaraya, Kec. Kayu Agung, Kabupaten Ogan Komering Ilir, Sumatera Selatan 30611";"Jl. Bagus Keraton lrg cahaya, Kutaraya, Kec. Kayu Agung, Kabupaten Ogan Komering Ilir";"SUMATERA SELATAN";"30611";"Indonesia";" 085769103690";"";"";"-3.3920996";"104.8465935";"https://maps.google.com/?cid=0x0:0x216cfe09b7ba956b";""
"supermarket";"Toko bahan makanan";"Toko";"JR9R+P74, Kayu Agung, Kec. Kayu Agung, Kabupaten Ogan Komering Ilir, Sumatera Selatan 30614";"Kayu Agung, Kec. Kayu Agung, Kabupaten Ogan Komering Ilir";"SUMATERA SELATAN";"30614";"Indonesia";"";"";"";"-3.3807297";"104.8407024";"https://maps.google.com/?cid=0x0:0x57bde93f018ba6dc";""
"supermarket";"Minimarket";"Alfamart Celikah";"Jl. Letnan Mukhtar Saleh, RT.06/RW.Lk.Iii, Celikah, Kec. Kayu Agung, Kabupaten Ogan Komering Ilir, Sumatera Selatan 30611";"RT.06/RW.Lk.Iii, Celikah, Kec. Kayu Agung, Kabupaten Ogan Komering Ilir";"SUMATERA SELATAN";"30611";"Indonesia";" 1500959";"";"";"-3.3768762";"104.8259343";"https://maps.google.com/?cid=0x0:0xa2532576e294630e";""
"supermarket";"Minimarket";"Indomaret";"JR5P+CGH, Jl. Sertu Pol. Abunawar M. Soleh, Kutaraya, Kec. Kayu Agung, Kabupaten Ogan Komering Ilir, Sumatera Selatan 30615";"Jl. Sertu Pol. Abunawar M. Soleh, Kutaraya, Kec. Kayu Agung, Kabupaten Ogan Komering Ilir";"SUMATERA SELATAN";"30615";"Indonesia";"";"";"";"-3.3914485";"104.8363475";"https://maps.google.com/?cid=0x0:0x324ac656bdb5de08";""
"supermarket";"Minimarket";"Alfamart Kedaton";"Jl. Talang Sepucuk Rt. 01 Rw, Kedaton, Kec. Kayu Agung, Kabupaten Ogan Komering Ilir, Sumatera Selatan 30617";"Kedaton, Kec. Kayu Agung, Kabupaten Ogan Komering Ilir";"SUMATERA SELATAN";"30617";"Indonesia";" 1500959";"";"";"-3.3945722";"104.8422301";"https://maps.google.com/?cid=0x0:0xd44305baa46ec03b";""
"supermarket";"Toko Swalayan";"Toko Buah Safar Pegawai Andi";"Jl. Merdeka No.917, Mangun Jaya, Kec. Kayu Agung, Kabupaten Ogan Komering Ilir, Sumatera Selatan 30611";"Mangun Jaya, Kec. Kayu Agung, Kabupaten Ogan Komering Ilir";"SUMATERA SELATAN";"30611";"Indonesia";" 082371038558";"";"";"-3.3865094";"104.827748";"https://maps.google.com/?cid=0x0:0xfb76b37f5d81b6fb";""
"supermarket";"Toko Makanan Sehat";"Halal Mart";"HRP8+X5V, Unnamed Road, Tj. Rancing, Kec. Kayu Agung, Kabupaten Ogan Komering Ilir, Sumatera Selatan 30867";"Unnamed Road, Tj. Rancing, Kec. Kayu Agung, Kabupaten Ogan Komering Ilir";"SUMATERA SELATAN";"30867";"Indonesia";"";"";"";"-3.4125155";"104.8154095";"https://maps.google.com/?cid=0x0:0x6b79dd2ad7ef6b9d";""
"supermarket";"Toko";"Toko Adeng";"MV2C+W56, Serigeni Baru, Kec. Kayu Agung, Kabupaten Ogan Komering Ilir, Sumatera Selatan 30618";"Serigeni Baru, Kec. Kayu Agung, Kabupaten Ogan Komering Ilir";"SUMATERA SELATAN";"30618";"Indonesia";"";"";"";"-3.347707";"104.870394";"https://maps.google.com/?cid=0x0:0x813e8b676752b364";""
"supermarket";"Toko";"Toko arahab";"HRPF+58Q, Muara Baru, Kec. Kayu Agung, Kabupaten Ogan Komering Ilir, Sumatera Selatan 30867";"Muara Baru, Kec. Kayu Agung, Kabupaten Ogan Komering Ilir";"SUMATERA SELATAN";"30867";"Indonesia";"";"";"";"-3.4145429";"104.8233444";"https://maps.google.com/?cid=0x0:0x21fc2bf2324a0b3b";""
"supermarket";"Toko Alat Pancing";"Toko Abu (Terminal Pancing)";"JR6G+MFG, Unnamed Road, Cintaraja, Kec. Kayu Agung, Kabupaten Ogan Komering Ilir, Sumatera Selatan 30867";"Unnamed Road, Cintaraja, Kec. Kayu Agung, Kabupaten Ogan Komering Ilir";"SUMATERA SELATAN";"30867";"Indonesia";" 08127347617";"";"";"-3.3883073";"104.826207";"https://maps.google.com/?cid=0x0:0x3a444c095c17430b";""
"supermarket";"Toko bahan makanan";"Hidroponik Kayuagung";"JRCJ+JHF, Paku, Kec. Kayu Agung, Kabupaten Ogan Komering Ilir, Sumatera Selatan 30867";"Paku, Kec. Kayu Agung, Kabupaten Ogan Komering Ilir";"SUMATERA SELATAN";"30867";"Indonesia";"";"";"";"-3.3784333";"104.8314193";"https://maps.google.com/?cid=0x0:0x58b2c0126fa6b0e6";""
"supermarket";"Toko bahan makanan";"Toko Nilah S";"HR4P+QGW, Unnamed Road, Lubuk Dalam, Kec. Kayu Agung, Kabupaten Ogan Komering Ilir, Sumatera Selatan 30618";"Unnamed Road, Lubuk Dalam, Kec. Kayu Agung, Kabupaten Ogan Komering Ilir";"SUMATERA SELATAN";"30618";"Indonesia";" 081278605164";"";"";"-3.4430199";"104.8363134";"https://maps.google.com/?cid=0x0:0x1bfba8e35364a776";""
"supermarket";"Toko";"Toko Drp ISMAIL ABDULLAH";"Jl. Cokro Aminoto rt/rw 003/003, Cintaraja, Kec. Kayu Agung, Kabupaten Ogan Komering Ilir, Sumatera Selatan 30867";"Cintaraja, Kec. Kayu Agung, Kabupaten Ogan Komering Ilir";"SUMATERA SELATAN";"30867";"Indonesia";"";"";"";"-3.3901014";"104.8273761";"https://maps.google.com/?cid=0x0:0xcf16c9bbf9be3457";""
"supermarket";"supermarket";"Sumatera Selatan 30618";"Kabupaten Ogan Komering Ilir, Sumatera Selatan";"Kabupaten Ogan Komering Ilir, Sumatera Selatan";"SUMATERA SELATAN";"";"Indonesia";"";"";"";"-3.3631504";"104.9155243";"https://maps.google.com/?cid=0x0:0xa5b66a77a7858c93";""
"supermarket";"Toko umum";"Warung Fahrul";"Kutaraya, Kec. Kayu Agung, Kabupaten Ogan Komering Ilir, Sumatera Selatan 30615";"Kec. Kayu Agung, Kabupaten Ogan Komering Ilir";"SUMATERA SELATAN";"30615";"Indonesia";"";"";"";"-3.3913688";"104.847653";"https://maps.google.com/?cid=0x0:0xd9b9848a66388c25";""
"supermarket";"Toko";"Waroeng pakdi";"JR3W+632, Lorong cendana 1, Kedaton, Kec. Kayu Agung, Kabupaten Ogan Komering Ilir, Sumatera Selatan";"Kabupaten Ogan Komering Ilir, Sumatera Selatan";"SUMATERA SELATAN";"";"Indonesia";"";"";"";"-3.3969927";"104.8451463";"https://maps.google.com/?cid=0x0:0x7ff3285831e2630d";""
"supermarket";"Toko bahan makanan";"Toko Airaffi";"JV42+38R, Jl. Letnan Sayuti, Kutaraya, Kec. Kayu Agung, Kabupaten Ogan Komering Ilir, Sumatera Selatan 30615";"Jl. Letnan Sayuti, Kutaraya, Kec. Kayu Agung, Kabupaten Ogan Komering Ilir";"SUMATERA SELATAN";"30615";"Indonesia";" 081278188742";"";"";"-3.3947579";"104.8507734";"https://maps.google.com/?cid=0x0:0xcbc3062e5255e26d";""
"supermarket";"Toko bahan makanan";"Toko Nilah S";"HR4P+QGW, Unnamed Road, Lubuk Dalam, Kec. Kayu Agung, Kabupaten Ogan Komering Ilir, Sumatera Selatan 30618";"Unnamed Road, Lubuk Dalam, Kec. Kayu Agung, Kabupaten Ogan Komering Ilir";"SUMATERA SELATAN";"30618";"Indonesia";" 081278605164";"";"";"-3.4430199";"104.8363134";"https://maps.google.com/?cid=0x0:0x1bfba8e35364a776";""
"supermarket";"Toko";"Toko arahab";"HRPF+58Q, Muara Baru, Kec. Kayu Agung, Kabupaten Ogan Komering Ilir, Sumatera Selatan 30867";"Muara Baru, Kec. Kayu Agung, Kabupaten Ogan Komering Ilir";"SUMATERA SELATAN";"30867";"Indonesia";"";"";"";"-3.4145429";"104.8233444";"https://maps.google.com/?cid=0x0:0x21fc2bf2324a0b3b";""
"supermarket";"Toko Makanan Sehat";"Halal Mart";"HRP8+X5V, Unnamed Road, Tj. Rancing, Kec. Kayu Agung, Kabupaten Ogan Komering Ilir, Sumatera Selatan 30867";"Unnamed Road, Tj. Rancing, Kec. Kayu Agung, Kabupaten Ogan Komering Ilir";"SUMATERA SELATAN";"30867";"Indonesia";"";"";"";"-3.4125155";"104.8154095";"https://maps.google.com/?cid=0x0:0x6b79dd2ad7ef6b9d";""
"supermarket";"Toko";"Warung Ani";"HRR8+9JR, Tj. Rancing, Kec. Kayu Agung, Kabupaten Ogan Komering Ilir, Sumatera Selatan 30867";"Tj. Rancing, Kec. Kayu Agung, Kabupaten Ogan Komering Ilir";"SUMATERA SELATAN";"30867";"Indonesia";"";"";"";"-3.4090162";"104.8165069";"https://maps.google.com/?cid=0x0:0x2ccd7376fb790383";""
"supermarket";"Minimarket";"Alfamart Kedaton";"Jl. Talang Sepucuk Rt. 01 Rw, Kedaton, Kec. Kayu Agung, Kabupaten Ogan Komering Ilir, Sumatera Selatan 30617";"Kedaton, Kec. Kayu Agung, Kabupaten Ogan Komering Ilir";"SUMATERA SELATAN";"30617";"Indonesia";" 1500959";"";"";"-3.3945722";"104.8422301";"https://maps.google.com/?cid=0x0:0xd44305baa46ec03b";""
"supermarket";"Toko Swalayan";"Toko Buah Safar Pegawai Andi";"Jl. Merdeka No.917, Mangun Jaya, Kec. Kayu Agung, Kabupaten Ogan Komering Ilir, Sumatera Selatan 30611";"Mangun Jaya, Kec. Kayu Agung, Kabupaten Ogan Komering Ilir";"SUMATERA SELATAN";"30611";"Indonesia";" 082371038558";"";"";"-3.3865094";"104.827748";"https://maps.google.com/?cid=0x0:0xfb76b37f5d81b6fb";""
"supermarket";"Toko Perlengkapan Rumah";"Toko perabot kirana";"komplek palem agung, Jl. Bagus Keraton lrg cahaya, Kutaraya, Kec. Kayu Agung, Kabupaten Ogan Komering Ilir, Sumatera Selatan 30611";"Jl. Bagus Keraton lrg cahaya, Kutaraya, Kec. Kayu Agung, Kabupaten Ogan Komering Ilir";"SUMATERA SELATAN";"30611";"Indonesia";" 085769103690";"";"";"-3.3920996";"104.8465935";"https://maps.google.com/?cid=0x0:0x216cfe09b7ba956b";""
"supermarket";"Toko Swalayan";"Toko Pak Raja";"jl.laut, Dusun.1, Serinanti, Kec. Pedamaran, Kabupaten Ogan Komering Ilir, Sumatera Selatan 30672";"Dusun.1, Serinanti, Kec. Pedamaran, Kabupaten Ogan Komering Ilir";"SUMATERA SELATAN";"30672";"Indonesia";" 082182308833";"";"";"-3.4621113";"104.8305411";"https://maps.google.com/?cid=0x0:0x928ba2b3d9161eff";""
"supermarket";"Pasar";"Pasar Kayu Agung";"JR6H+V54, Jl. Jenderal Sudirman, Cintaraja, Kec. Kayu Agung, Kabupaten Ogan Komering Ilir, Sumatera Selatan 30867";"Jl. Jenderal Sudirman, Cintaraja, Kec. Kayu Agung, Kabupaten Ogan Komering Ilir";"SUMATERA SELATAN";"30867";"Indonesia";"";"";"";"-3.3878549";"104.8279619";"https://maps.google.com/?cid=0x0:0xd86479f4b4f9b2bf";""
"supermarket";"Toko Alat Pancing";"Toko Abu (Terminal Pancing)";"JR6G+MFG, Unnamed Road, Cintaraja, Kec. Kayu Agung, Kabupaten Ogan Komering Ilir, Sumatera Selatan 30867";"Unnamed Road, Cintaraja, Kec. Kayu Agung, Kabupaten Ogan Komering Ilir";"SUMATERA SELATAN";"30867";"Indonesia";" 08127347617";"";"";"-3.3883073";"104.826207";"https://maps.google.com/?cid=0x0:0x3a444c095c17430b";""
"supermarket";"Minimarket";"Alfamart Sidakersa";"Jl. Sersan Jufri, RT.02/RW.02, Sidakersa, Kec. Kayu Agung, Kabupaten Ogan Komering Ilir, Sumatera Selatan 30615";"RT.02/RW.02, Sidakersa, Kec. Kayu Agung, Kabupaten Ogan Komering Ilir";"SUMATERA SELATAN";"30615";"Indonesia";" 1500959";"";"";"-3.3937658";"104.8298533";"https://maps.google.com/?cid=0x0:0xd8a586b9213bf79b";""
"supermarket";"Bengkel Sepeda Motor";"Toko  Bengkel Las Dan Motor ALVIN";"MV3H+CC2, Jl. Letnan Muchtar Saleh, Tj. Serang, Kec. Kayu Agung, Kabupaten Ogan Komering Ilir, Sumatera Selatan 30618";"Jl. Letnan Muchtar Saleh, Tj. Serang, Kec. Kayu Agung, Kabupaten Ogan Komering Ilir";"SUMATERA SELATAN";"30618";"Indonesia";" 081373008004";"";"";"-3.3464953";"104.8785068";"https://maps.google.com/?cid=0x0:0xc8e62d2ea1778991";""
"supermarket";"Toko bahan makanan";"Minimarket 212 Mart Kayuagung Gerai-1";"Jl. Jenderal Sudirman No.921, Paku, Kec. Kayu Agung, Kabupaten Ogan Komering Ilir, Sumatera Selatan 30867";"Paku, Kec. Kayu Agung, Kabupaten Ogan Komering Ilir";"SUMATERA SELATAN";"30867";"Indonesia";"";"";"";"-3.381166";"104.8272803";"https://maps.google.com/?cid=0x0:0xc18c565e64753d64";""
"supermarket";"Toko Swalayan";"Toko Sejati";"GRPG+M69, Serinanti, Kec. Pedamaran, Kabupaten Ogan Komering Ilir, Sumatera Selatan 30618";"Serinanti, Kec. Pedamaran, Kabupaten Ogan Komering Ilir";"SUMATERA SELATAN";"30618";"Indonesia";" 085267094145";"";"";"-3.4633279";"104.8256197";"https://maps.google.com/?cid=0x0:0xa2f96321585c05e0";""
"supermarket";"Minimarket";"Alfamart Muchtar Saleh";"Jl. Letnan Muchtar Saleh Ba No.Kel, Mangun Jaya, Kec. Kayu Agung, Kabupaten Ogan Komering Ilir, Sumatera Selatan 30613";"Mangun Jaya, Kec. Kayu Agung, Kabupaten Ogan Komering Ilir";"SUMATERA SELATAN";"30613";"Indonesia";" 0211500959";"";"";"-3.3856557";"104.8275206";"https://maps.google.com/?cid=0x0:0xa555f928a1aa9432";""
"supermarket";"Toko bahan makanan";"Toko";"JR9R+P74, Kayu Agung, Kec. Kayu Agung, Kabupaten Ogan Komering Ilir, Sumatera Selatan 30614";"Kayu Agung, Kec. Kayu Agung, Kabupaten Ogan Komering Ilir";"SUMATERA SELATAN";"30614";"Indonesia";"";"";"";"-3.3807297";"104.8407024";"https://maps.google.com/?cid=0x0:0x57bde93f018ba6dc";""
"supermarket";"Toko bahan makanan";"Hidroponik Kayuagung";"JRCJ+JHF, Paku, Kec. Kayu Agung, Kabupaten Ogan Komering Ilir, Sumatera Selatan 30867";"Paku, Kec. Kayu Agung, Kabupaten Ogan Komering Ilir";"SUMATERA SELATAN";"30867";"Indonesia";"";"";"";"-3.3784333";"104.8314193";"https://maps.google.com/?cid=0x0:0x58b2c0126fa6b0e6";""
"supermarket";"Pom bensin/SPBU";"-TOKO•$AIMAH- × -MARYANI•CELL-";"H M YUSUF SINGENEKANE, Kec. Kayu Agung, Sumatera Selatan 30867";"Kec. Kayu Agung";"SUMATERA SELATAN";"30867";"Indonesia";"";"";"";"-3.3985732";"104.8280409";"https://maps.google.com/?cid=0x0:0xa345f3963adf5edc";""
"supermarket";"supermarket";"Kec. Lempuing";"Kabupaten Ogan Komering Ilir, Sumatera Selatan";"Kabupaten Ogan Komering Ilir, Sumatera Selatan";"SUMATERA SELATAN";"";"Indonesia";"";"";"";"-3.9115027";"104.8893424";"https://maps.google.com/?cid=0x0:0xd010a74d222578e2";""
"supermarket";"Toko Swalayan";"Cv Yolanda";"4VCM+XJH, Tugumulyo, Kec. Lempuing, Kabupaten Ogan Komering Ilir, Sumatera Selatan 30657";"Tugumulyo, Kec. Lempuing, Kabupaten Ogan Komering Ilir";"SUMATERA SELATAN";"30657";"Indonesia";" 082178835280";"";"";"-3.8775606";"104.8841212";"https://maps.google.com/?cid=0x0:0x7ed6933489098d32";""
"supermarket";"Toko bahan makanan";"Toko Limin";"4V4R+HMP, Bumiagung, Kec. Lempuing, Kabupaten Ogan Komering Ilir, Sumatera Selatan 30657";"Bumiagung, Kec. Lempuing, Kabupaten Ogan Komering Ilir";"SUMATERA SELATAN";"30657";"Indonesia";"";"";"";"-3.8935411";"104.8917163";"https://maps.google.com/?cid=0x0:0x323eeb8a360860";""
"supermarket";"Toko Swalayan";"Toko Petrok Jaya";"4VQP+JMH, Tugumulyo, Kec. Lempuing, Kabupaten Ogan Komering Ilir, Sumatera Selatan 30657";"Tugumulyo, Kec. Lempuing, Kabupaten Ogan Komering Ilir";"SUMATERA SELATAN";"30657";"Indonesia";" 081222489271";"";"";"-3.8609349";"104.8867208";"https://maps.google.com/?cid=0x0:0xe0b3ef10d532f0f2";""
"supermarket";"Komplek perumahan";"Desa Sumber Makmur";"Masjid Nurul iman Pasundan Desa, sumber makmur, Kec. Lempuing Jaya, Kabupaten Ogan Komering Ilir, Sumatera Selatan 30657";"sumber makmur, Kec. Lempuing Jaya, Kabupaten Ogan Komering Ilir";"SUMATERA SELATAN";"30657";"Indonesia";" 081368778819";"";"";"-3.7850413";"104.9031415";"https://maps.google.com/?cid=0x0:0x1f317f891ad11a62";""
"supermarket";"Toko";"Toko Edi putra jaya";"2VWC+FCF, Jl. Tulung Agung, Cahya Tani, Kec. Lempuing, Kabupaten Ogan Komering Ilir, Sumatera Selatan 32383";"Jl. Tulung Agung, Cahya Tani, Kec. Lempuing, Kabupaten Ogan Komering Ilir";"SUMATERA SELATAN";"32383";"Indonesia";" 082178509469";"";"";"-3.9538103";"104.8710524";"https://maps.google.com/?cid=0x0:0xff78c657eea5e151";""
"supermarket";"Toko bahan makanan";"Toko Bu Ema";"6W74+RPV, Lubuk Seberuk, Kec. Lempuing Jaya, Kabupaten Ogan Komering Ilir, Sumatera Selatan 30657";"Lubuk Seberuk, Kec. Lempuing Jaya, Kabupaten Ogan Komering Ilir";"SUMATERA SELATAN";"30657";"Indonesia";" 085859989181";"";"";"-3.7853792";"104.906791";"https://maps.google.com/?cid=0x0:0x339c5975cd60cb51";""
"supermarket";"Toko bahan makanan";"Toko sumber baru tani";"6V9X+V58, Lubuk Seberuk, Kec. Lempuing Jaya, Kabupaten Ogan Komering Ilir, Sumatera Selatan 30657";"Lubuk Seberuk, Kec. Lempuing Jaya, Kabupaten Ogan Komering Ilir";"SUMATERA SELATAN";"30657";"Indonesia";" 081373620063";"";"";"-3.7803269";"104.8979474";"https://maps.google.com/?cid=0x0:0x756121ec47e51ae1";""
"supermarket";"Minimarket";"Toko Agus";"5VRW+55G, Tugu Jaya, Kec. Lempuing, Kabupaten Ogan Komering Ilir, Sumatera Selatan 30657";"Tugu Jaya, Kec. Lempuing, Kabupaten Ogan Komering Ilir";"SUMATERA SELATAN";"30657";"Indonesia";" 082281148578";"";"";"-3.8095749";"104.8954595";"https://maps.google.com/?cid=0x0:0xa68f9f0a4dc3a528";""
"supermarket";"Toko Swalayan";"Toko Cahaya Seafood";"Kp.3 Jl. Lintas Sumatra, Tebing Suluh, Kec. Lempuing, Kabupaten Ogan Komering Ilir, Sumatera Selatan 30657";"Tebing Suluh, Kec. Lempuing, Kabupaten Ogan Komering Ilir";"SUMATERA SELATAN";"30657";"Indonesia";" 082280688970";"";"";"-3.9106566";"104.9193316";"https://maps.google.com/?cid=0x0:0x9c826916a89ec7de";""
"supermarket";"Toko sembako pemerintah";"warung ibuk sum";"4W69+GC3, dusun 3, Sumberagung, Kec. Lempuing, Kabupaten Ogan Komering Ilir, Sumatera Selatan 30657";"dusun 3, Sumberagung, Kec. Lempuing, Kabupaten Ogan Komering Ilir";"SUMATERA SELATAN";"30657";"Indonesia";"";"";"";"-3.8891739";"104.9189696";"https://maps.google.com/?cid=0x0:0xad4d0d12f8868210";""
"supermarket";"Minimarket";"Alfamart";"Jl. Lintas Timur-Tugu Mulyo Rt. 04 Dusun I Ds, Tugumulyo, Kec. Lempuing, Kabupaten Ogan Komering Ilir, Sumatera Selatan 30657";"Tugumulyo, Kec. Lempuing, Kabupaten Ogan Komering Ilir";"SUMATERA SELATAN";"30657";"Indonesia";" 1500959";"";"";"-3.88242";"104.88006";"https://maps.google.com/?cid=0x0:0xbd5b8e95da142a1c";""
"supermarket";"Toko";"Warung Manisan Ibu Nurul Hidayah";"4WM7+H8P, Sindang Sari, Kec. Lempuing, Kabupaten Ogan Komering Ilir, Sumatera Selatan 30657";"Sindang Sari, Kec. Lempuing, Kabupaten Ogan Komering Ilir";"SUMATERA SELATAN";"30657";"Indonesia";" 081271713582";"";"";"-3.8660473";"104.9133218";"https://maps.google.com/?cid=0x0:0xdf92469d996147b6";""
"supermarket";"Toko";"Toko DRP YADI";"Jl. Lintas Sumatra No.DS, Lubuk Seberuk, Kec. Lempuing Jaya, Kabupaten Ogan Komering Ilir, Sumatera Selatan 30657";"Lubuk Seberuk, Kec. Lempuing Jaya, Kabupaten Ogan Komering Ilir";"SUMATERA SELATAN";"30657";"Indonesia";" 085664807225";"";"";"-3.7740202";"104.8741144";"https://maps.google.com/?cid=0x0:0x81b0272048249aef";""
"supermarket";"Toko";"Toko Naufal";"5W76+9CP, Mekar Jaya, Kec. Lempuing, Kabupaten Ogan Komering Ilir, Sumatera Selatan 30657";"Mekar Jaya, Kec. Lempuing, Kabupaten Ogan Komering Ilir";"SUMATERA SELATAN";"30657";"Indonesia";"";"";"";"-3.8365372";"104.9110832";"https://maps.google.com/?cid=0x0:0xf4439b825bf10418";""
"supermarket";"Toko";"Toko Asih";"Jl. Lintas Sumatra No.16, Tebing Suluh, Kec. Lempuing, Kabupaten Ogan Komering Ilir, Sumatera Selatan 30657";"Tebing Suluh, Kec. Lempuing, Kabupaten Ogan Komering Ilir";"SUMATERA SELATAN";"30657";"Indonesia";" 085268301213";"";"";"-3.9108083";"104.9288455";"https://maps.google.com/?cid=0x0:0xc87cdc731412827c";""
"supermarket";"Toko";"Toko Sembako Erfan";"6V9X+RGQ, Lubuk Seberuk, Kec. Lempuing Jaya, Kabupaten Ogan Komering Ilir, Sumatera Selatan 30657";"Lubuk Seberuk, Kec. Lempuing Jaya, Kabupaten Ogan Komering Ilir";"SUMATERA SELATAN";"30657";"Indonesia";" 081367428370";"";"";"-3.7804195";"104.8988671";"https://maps.google.com/?cid=0x0:0x3679a5cb692687d6";""
"supermarket";"Toko bahan makanan";"Toko Abel";"5WWG+CV2, Sungai Belida, Kec. Lempuing Jaya, Kabupaten Ogan Komering Ilir, Sumatera Selatan 30657";"Sungai Belida, Kec. Lempuing Jaya, Kabupaten Ogan Komering Ilir";"SUMATERA SELATAN";"30657";"Indonesia";" 085750956721";"";"";"-3.8039949";"104.9271433";"https://maps.google.com/?cid=0x0:0xa2ecb3704c2e9be";""
"supermarket";"Minimarket";"Alfamart Dabuk Rejo 2";"Jl. Lintas Timur Dusun V Blok. M, Muara Burnai I, Lempuing Jaya, Kabupaten Ogan Komering Ilir, Sumatera Selatan 30657";"Muara Burnai I, Lempuing Jaya, Kabupaten Ogan Komering Ilir";"SUMATERA SELATAN";"30657";"Indonesia";" 1500959";"";"";"-3.9323883";"104.9948878";"https://maps.google.com/?cid=0x0:0x147603b9b43f99b0";""
"supermarket";"ATM";"Agen air murni A-m@n";"Sumberagung, Kec. Lempuing, Kabupaten Ogan Komering Ilir, Sumatera Selatan 30657";"Kec. Lempuing, Kabupaten Ogan Komering Ilir";"SUMATERA SELATAN";"30657";"Indonesia";" 085336058271";"";"";"-3.8845474";"104.9188937";"https://maps.google.com/?cid=0x0:0xa78f3f1f52ce0316";""
"supermarket";"Minimarket";"Alfamart";"Jl. Lintas Sumatra Dsn. Vi No.Rt. 03, Lubuk Seberuk, Kec. Lempuing Jaya, Kabupaten Ogan Komering Ilir, Sumatera Selatan 30657";"Lubuk Seberuk, Kec. Lempuing Jaya, Kabupaten Ogan Komering Ilir";"SUMATERA SELATAN";"30657";"Indonesia";" 1500959";"";"";"-3.7826603";"104.9015924";"https://maps.google.com/?cid=0x0:0x2583b078ecf3d541";""
"supermarket";"supermarket";"Sumatera Selatan 30657";"Kabupaten Ogan Komering Ilir, Sumatera Selatan";"Kabupaten Ogan Komering Ilir, Sumatera Selatan";"SUMATERA SELATAN";"";"Indonesia";"";"";"";"-3.7360659";"104.8921668";"https://maps.google.com/?cid=0x0:0x37eb0108f40fce79";""
"supermarket";"Toko bahan makanan";"Toko Sinar Baru";"7R7F+QC7, Muara Burnai II, Kec. Lempuing Jaya, Kabupaten Ogan Komering Ilir, Sumatera Selatan 30657";"Muara Burnai II, Kec. Lempuing Jaya, Kabupaten Ogan Komering Ilir";"SUMATERA SELATAN";"30657";"Indonesia";"";"";"";"-3.7355811";"104.8235506";"https://maps.google.com/?cid=0x0:0x331e30ab568a1e47";""
"supermarket";"Toko Swalayan";"Cv Yolanda";"4VCM+XJH, Tugumulyo, Kec. Lempuing, Kabupaten Ogan Komering Ilir, Sumatera Selatan 30657";"Tugumulyo, Kec. Lempuing, Kabupaten Ogan Komering Ilir";"SUMATERA SELATAN";"30657";"Indonesia";" 082178835280";"";"";"-3.8775606";"104.8841212";"https://maps.google.com/?cid=0x0:0x7ed6933489098d32";""
"supermarket";"Toko bahan makanan";"Toko Bu Ema";"6W74+RPV, Lubuk Seberuk, Kec. Lempuing Jaya, Kabupaten Ogan Komering Ilir, Sumatera Selatan 30657";"Lubuk Seberuk, Kec. Lempuing Jaya, Kabupaten Ogan Komering Ilir";"SUMATERA SELATAN";"30657";"Indonesia";" 085859989181";"";"";"-3.7853792";"104.906791";"https://maps.google.com/?cid=0x0:0x339c5975cd60cb51";""
"supermarket";"Toko Swalayan";"Toko Petrok Jaya";"4VQP+JMH, Tugumulyo, Kec. Lempuing, Kabupaten Ogan Komering Ilir, Sumatera Selatan 30657";"Tugumulyo, Kec. Lempuing, Kabupaten Ogan Komering Ilir";"SUMATERA SELATAN";"30657";"Indonesia";" 081222489271";"";"";"-3.8609349";"104.8867208";"https://maps.google.com/?cid=0x0:0xe0b3ef10d532f0f2";""
"supermarket";"Toko";"Toko DRP YADI";"Jl. Lintas Sumatra No.DS, Lubuk Seberuk, Kec. Lempuing Jaya, Kabupaten Ogan Komering Ilir, Sumatera Selatan 30657";"Lubuk Seberuk, Kec. Lempuing Jaya, Kabupaten Ogan Komering Ilir";"SUMATERA SELATAN";"30657";"Indonesia";" 085664807225";"";"";"-3.7740202";"104.8741144";"https://maps.google.com/?cid=0x0:0x81b0272048249aef";""
"supermarket";"Toko bahan makanan";"Toko sumber baru tani";"6V9X+V58, Lubuk Seberuk, Kec. Lempuing Jaya, Kabupaten Ogan Komering Ilir, Sumatera Selatan 30657";"Lubuk Seberuk, Kec. Lempuing Jaya, Kabupaten Ogan Komering Ilir";"SUMATERA SELATAN";"30657";"Indonesia";" 081373620063";"";"";"-3.7803269";"104.8979474";"https://maps.google.com/?cid=0x0:0x756121ec47e51ae1";""
"supermarket";"Pusat Perbelanjaan";"Sahabat Inda Sejati";"6W74+W2Q, Lubuk Seberuk, Kec. Lempuing Jaya, Kabupaten Ogan Komering Ilir, Sumatera Selatan 30657";"Lubuk Seberuk, Kec. Lempuing Jaya, Kabupaten Ogan Komering Ilir";"SUMATERA SELATAN";"30657";"Indonesia";" 0811789675";"";"";"-3.7851561";"104.9051052";"https://maps.google.com/?cid=0x0:0x7953d56f31693fa0";""
"supermarket";"Minimarket";"Alfamart Pasar Jahe";"Pasar Jahe,, Muara Burnai II, Kec. Lempuing Jaya, Kabupaten Ogan Komering Ilir, Sumatera Selatan 30657";"Muara Burnai II, Kec. Lempuing Jaya, Kabupaten Ogan Komering Ilir";"SUMATERA SELATAN";"30657";"Indonesia";"";"";"";"-3.7418809";"104.8289259";"https://maps.google.com/?cid=0x0:0x2773b39443f290d5";""
"supermarket";"Minimarket";"Toko Agus";"5VRW+55G, Tugu Jaya, Kec. Lempuing, Kabupaten Ogan Komering Ilir, Sumatera Selatan 30657";"Tugu Jaya, Kec. Lempuing, Kabupaten Ogan Komering Ilir";"SUMATERA SELATAN";"30657";"Indonesia";" 082281148578";"";"";"-3.8095749";"104.8954595";"https://maps.google.com/?cid=0x0:0xa68f9f0a4dc3a528";""
"supermarket";"Toserba";"Duta foto"DMK"";"7RP9+H2W, Jl. Lintas Sumatra, Muara Burnai I, Kec. Lempuing Jaya, Kabupaten Ogan Komering Ilir, Sumatera Selatan 30657";"Jl. Lintas Sumatra, Muara Burnai I, Kec. Lempuing Jaya, Kabupaten Ogan Komering Ilir";"SUMATERA SELATAN";"30657";"Indonesia";" 08117107939";"";"";"-3.7135037";"104.8175649";"https://maps.google.com/?cid=0x0:0xa1e7e57f42ea7e86";""
"supermarket";"Toko bahan makanan";"Toko Abel";"5WWG+CV2, Sungai Belida, Kec. Lempuing Jaya, Kabupaten Ogan Komering Ilir, Sumatera Selatan 30657";"Sungai Belida, Kec. Lempuing Jaya, Kabupaten Ogan Komering Ilir";"SUMATERA SELATAN";"30657";"Indonesia";" 085750956721";"";"";"-3.8039949";"104.9271433";"https://maps.google.com/?cid=0x0:0xa2ecb3704c2e9be";""
"supermarket";"Komplek perumahan";"Desa Sumber Makmur";"Masjid Nurul iman Pasundan Desa, sumber makmur, Kec. Lempuing Jaya, Kabupaten Ogan Komering Ilir, Sumatera Selatan 30657";"sumber makmur, Kec. Lempuing Jaya, Kabupaten Ogan Komering Ilir";"SUMATERA SELATAN";"30657";"Indonesia";" 081368778819";"";"";"-3.7850413";"104.9031415";"https://maps.google.com/?cid=0x0:0x1f317f891ad11a62";""
"supermarket";"Toko bahan makanan";"Toko Limin";"4V4R+HMP, Bumiagung, Kec. Lempuing, Kabupaten Ogan Komering Ilir, Sumatera Selatan 30657";"Bumiagung, Kec. Lempuing, Kabupaten Ogan Komering Ilir";"SUMATERA SELATAN";"30657";"Indonesia";"";"";"";"-3.8935411";"104.8917163";"https://maps.google.com/?cid=0x0:0x323eeb8a360860";""
"supermarket";"Toko";"TOKO SAHABAT";"Jl. Rantau Durian, Rantau Durian I, Kec. Lempuing Jaya, Kabupaten Ogan Komering Ilir, Sumatera Selatan 30657";"Rantau Durian I, Kec. Lempuing Jaya, Kabupaten Ogan Komering Ilir";"SUMATERA SELATAN";"30657";"Indonesia";" 082259879282";"";"";"-3.7121263";"104.9670835";"https://maps.google.com/?cid=0x0:0x4d7fa5b20c235481";""
"supermarket";"Toko";"Toko Naufal";"5W76+9CP, Mekar Jaya, Kec. Lempuing, Kabupaten Ogan Komering Ilir, Sumatera Selatan 30657";"Mekar Jaya, Kec. Lempuing, Kabupaten Ogan Komering Ilir";"SUMATERA SELATAN";"30657";"Indonesia";"";"";"";"-3.8365372";"104.9110832";"https://maps.google.com/?cid=0x0:0xf4439b825bf10418";""
"supermarket";"Toko";"Toko Sembako Erfan";"6V9X+RGQ, Lubuk Seberuk, Kec. Lempuing Jaya, Kabupaten Ogan Komering Ilir, Sumatera Selatan 30657";"Lubuk Seberuk, Kec. Lempuing Jaya, Kabupaten Ogan Komering Ilir";"SUMATERA SELATAN";"30657";"Indonesia";" 081367428370";"";"";"-3.7804195";"104.8988671";"https://maps.google.com/?cid=0x0:0x3679a5cb692687d6";""
"supermarket";"Toko bahan makanan";"Toko Rapli";"6RRV+3F9, Muara Burnai II, Kec. Lempuing Jaya, Kabupaten Ogan Komering Ilir, Sumatera Selatan 30657";"Muara Burnai II, Kec. Lempuing Jaya, Kabupaten Ogan Komering Ilir";"SUMATERA SELATAN";"30657";"Indonesia";" 085256253974";"";"";"-3.7598432";"104.843735";"https://maps.google.com/?cid=0x0:0x1b06f6d1c8d55d58";""
"supermarket";"Minimarket";"Alfamart";"Jl. Lintas Sumatra Dsn. Vi No.Rt. 03, Lubuk Seberuk, Kec. Lempuing Jaya, Kabupaten Ogan Komering Ilir, Sumatera Selatan 30657";"Lubuk Seberuk, Kec. Lempuing Jaya, Kabupaten Ogan Komering Ilir";"SUMATERA SELATAN";"30657";"Indonesia";" 1500959";"";"";"-3.7826603";"104.9015924";"https://maps.google.com/?cid=0x0:0x2583b078ecf3d541";""
"supermarket";"Minimarket";"Alfamart Dabuk Rejo 2";"Jl. Lintas Timur Dusun V Blok. M, Muara Burnai I, Lempuing Jaya, Kabupaten Ogan Komering Ilir, Sumatera Selatan 30657";"Muara Burnai I, Lempuing Jaya, Kabupaten Ogan Komering Ilir";"SUMATERA SELATAN";"30657";"Indonesia";" 1500959";"";"";"-3.9323883";"104.9948878";"https://maps.google.com/?cid=0x0:0x147603b9b43f99b0";""
"supermarket";"Toko Swalayan";"Toko Cahaya Seafood";"Kp.3 Jl. Lintas Sumatra, Tebing Suluh, Kec. Lempuing, Kabupaten Ogan Komering Ilir, Sumatera Selatan 30657";"Tebing Suluh, Kec. Lempuing, Kabupaten Ogan Komering Ilir";"SUMATERA SELATAN";"30657";"Indonesia";" 082280688970";"";"";"-3.9106566";"104.9193316";"https://maps.google.com/?cid=0x0:0x9c826916a89ec7de";""
"supermarket";"Minimarket";"Haisamart";"Tugu Jaya, Kec. Lempuing, Kabupaten Ogan Komering Ilir, Sumatera Selatan 30657";"Kec. Lempuing, Kabupaten Ogan Komering Ilir";"SUMATERA SELATAN";"30657";"Indonesia";" 085237915721";"";"";"-3.8038863";"104.8972222";"https://maps.google.com/?cid=0x0:0x7dd1f1849f1beda5";""
"supermarket";"Minimarket";"Alfamart SP 6. CV Abimayu Jaya";"8272+858, Suka Maju, Kec. Lempuing Jaya, Kabupaten Ogan Komering Ilir, Sumatera Selatan 30657";"Suka Maju, Kec. Lempuing Jaya, Kabupaten Ogan Komering Ilir";"SUMATERA SELATAN";"30657";"Indonesia";"";"";"";"-3.6867111";"105.0004504";"https://maps.google.com/?cid=0x0:0x8332c7a80ff2efff";""
"supermarket";"Minimarket";"UPK mart";"6V4X+MXR, Jl. Lintas Sumatra, Lubuk Seberuk, Kec. Lempuing Jaya, Kabupaten Ogan Komering Ilir, Sumatera Selatan 30657";"Jl. Lintas Sumatra, Lubuk Seberuk, Kec. Lempuing Jaya, Kabupaten Ogan Komering Ilir";"SUMATERA SELATAN";"30657";"Indonesia";"";"";"";"-3.7932615";"104.8998754";"https://maps.google.com/?cid=0x0:0x22014a4446d74643";""
"supermarket";"Toko";"Toko Sabila";"5VRX+FMW, Tugu Jaya, Kec. Lempuing, Kabupaten Ogan Komering Ilir, Sumatera Selatan 30657";"Tugu Jaya, Kec. Lempuing, Kabupaten Ogan Komering Ilir";"SUMATERA SELATAN";"30657";"Indonesia";" 085235287066";"";"";"-3.8087726";"104.8992092";"https://maps.google.com/?cid=0x0:0x4350b1ac55bf9ed3";""
"supermarket";"Minimarket";"Toko Pak Lasito";"7RX7+J9H, Muara Burnai I, Kec. Lempuing Jaya, Kabupaten Ogan Komering Ilir, Sumatera Selatan 30657";"Muara Burnai I, Kec. Lempuing Jaya, Kabupaten Ogan Komering Ilir";"SUMATERA SELATAN";"30657";"Indonesia";" 085268167056";"";"";"-3.70094";"104.8134925";"https://maps.google.com/?cid=0x0:0xd06425a8f5d0ed8e";""
"supermarket";"Toko";"EcoMart";"8W7V+Q69, Rantau Durian II, Kec. Lempuing Jaya, Kabupaten Ogan Komering Ilir, Sumatera Selatan 30657";"Rantau Durian II, Kec. Lempuing Jaya, Kabupaten Ogan Komering Ilir";"SUMATERA SELATAN";"30657";"Indonesia";"";"";"";"-3.6855839";"104.9431168";"https://maps.google.com/?cid=0x0:0x157afd67356ee097";""
"supermarket";"supermarket";"Sumatera Selatan 30681";"Kabupaten Ogan Komering Ilir, Sumatera Selatan";"Kabupaten Ogan Komering Ilir, Sumatera Selatan";"SUMATERA SELATAN";"";"Indonesia";"";"";"";"-3.7261778";"105.4536718";"https://maps.google.com/?cid=0x0:0x23a0d630a69c1443";""
"supermarket";"Toko umum";"SURYA Niaga";"Jl. Lintas Sumatra Blok F, Surya Adi, Kec. Mesuji, Kabupaten Ogan Komering Ilir, Sumatera Selatan 30681";"Surya Adi, Kec. Mesuji, Kabupaten Ogan Komering Ilir";"SUMATERA SELATAN";"30681";"Indonesia";"";"";"";"-3.984517";"105.0241472";"https://maps.google.com/?cid=0x0:0xe92ab22a5b37c76c";""
"supermarket";"Toko Swalayan";"Toko Khusna";"RQ8J+39J, Kp. Baru, Kec. Mesuji Makmur, Kabupaten Ogan Komering Ilir, Sumatera Selatan 30681";"Kp. Baru, Kec. Mesuji Makmur, Kabupaten Ogan Komering Ilir";"SUMATERA SELATAN";"30681";"Indonesia";"";"";"";"-4.1847803";"104.7808777";"https://maps.google.com/?cid=0x0:0x29311064f26ba8a8";""
"supermarket";"Toko Perlengkapan Rumah";"Toko Delia Unit 3 Makarti Mulya";"Makarti Mulya, Kec. Mesuji, Kabupaten Ogan Komering Ilir, Sumatera Selatan 30681";"Kec. Mesuji, Kabupaten Ogan Komering Ilir";"SUMATERA SELATAN";"30681";"Indonesia";"";"";"";"-3.891987";"105.1124517";"https://maps.google.com/?cid=0x0:0x233d2b07bfcf6649";""
"supermarket";"Toko Swalayan";"Toko Puji";"4478+H4J, Unnamed Road, Makarti Mulya, Kec. Mesuji, Kabupaten Ogan Komering Ilir, Sumatera Selatan 30681";"Unnamed Road, Makarti Mulya, Kec. Mesuji, Kabupaten Ogan Komering Ilir";"SUMATERA SELATAN";"30681";"Indonesia";" 082343730621";"";"";"-3.8860385";"105.1152577";"https://maps.google.com/?cid=0x0:0x692f46b4706b7659";""
"supermarket";"Minimarket";"Alfamart Surya Adi";"Jl. Lintas Timur Blok. E, RT.01/RW.05, Surya Adi, Kec. Mesuji, Kabupaten Ogan Komering Ilir, Sumatera Selatan 30681";"RT.01/RW.05, Surya Adi, Kec. Mesuji, Kabupaten Ogan Komering Ilir";"SUMATERA SELATAN";"30681";"Indonesia";" 1500959";"";"";"-3.9855105";"105.0300928";"https://maps.google.com/?cid=0x0:0xc1e54bd7c985269d";""
"supermarket";"Toko Swalayan";"Toko Gapai";"42WX+396, Mulya Jaya, Kec. Mesuji Raya, Kabupaten Ogan Komering Ilir, Sumatera Selatan 30681";"Mulya Jaya, Kec. Mesuji Raya, Kabupaten Ogan Komering Ilir";"SUMATERA SELATAN";"30681";"Indonesia";" 085841282707";"";"";"-3.854844";"105.0483872";"https://maps.google.com/?cid=0x0:0x48b4d274d84303b6";""
"supermarket";"Minimarket";"Alfamart C3 Suka Mukti";"44QC+P92, Suka Mukti, Kec. Mesuji, Kabupaten Ogan Komering Ilir, Sumatera Selatan 30681";"Suka Mukti, Kec. Mesuji, Kabupaten Ogan Komering Ilir";"SUMATERA SELATAN";"30681";"Indonesia";" 082282195023";"";"";"-3.8607349";"105.1208879";"https://maps.google.com/?cid=0x0:0xb3decd4e7ec6da19";""
"supermarket";"Toko Swalayan";"TOKO RUDI";"RQ2M+M9Q, Unnamed Road, Kp. Baru, Kec. Mesuji Makmur, Kabupaten Ogan Komering Ilir, Sumatera Selatan 30681";"Unnamed Road, Kp. Baru, Kec. Mesuji Makmur, Kabupaten Ogan Komering Ilir";"SUMATERA SELATAN";"30681";"Indonesia";"";"";"";"-4.1982793";"104.7834689";"https://maps.google.com/?cid=0x0:0x1675f1aa7940d596";""
"supermarket";"Minimarket";"Alfamart";"Jl. Lintas Sumatra, Pasar Ga, Kec. Mesuji, Kabupaten Ogan Komering Ilir, Sumatera Selatan 30681";"Pasar Ga, Kec. Mesuji, Kabupaten Ogan Komering Ilir";"SUMATERA SELATAN";"30681";"Indonesia";" 1500959";"";"";"-3.9872898";"105.0336138";"https://maps.google.com/?cid=0x0:0xf00dbe44e8dd71b8";""
"supermarket";"Toko Swalayan";"Toko Mukarti";"4426+3H6, Makarti Mulya, Kec. Mesuji, Kabupaten Ogan Komering Ilir, Sumatera Selatan 30681";"Makarti Mulya, Kec. Mesuji, Kabupaten Ogan Komering Ilir";"SUMATERA SELATAN";"30681";"Indonesia";" 087897735385";"";"";"-3.8998317";"105.1114021";"https://maps.google.com/?cid=0x0:0x8bafec87ad27b78";""
"supermarket";"Toko";"TOKO SUGIANTO DUA PUTRI";"84C3+2R5, Desa, RT.02/RW.02, Bumi Makmur, Kec. Mesuji Raya, Kabupaten Ogan Komering Ilir, Sumatera Selatan 30681";"Desa, RT.02/RW.02, Bumi Makmur, Kec. Mesuji Raya, Kabupaten Ogan Komering Ilir";"SUMATERA SELATAN";"30681";"Indonesia";" 082280312661";"";"";"-3.6799982";"105.1046103";"https://maps.google.com/?cid=0x0:0xde137b95f414e98f";""
"supermarket";"Minimarket";"Indomaret Mesuji Induk";"34Q3+3G7, Makarti Mulya, Kec. Mesuji, Kabupaten Ogan Komering Ilir, Sumatera Selatan 30681";"Makarti Mulya, Kec. Mesuji, Kabupaten Ogan Komering Ilir";"SUMATERA SELATAN";"30681";"Indonesia";"";"";"";"-3.912328";"105.1037826";"https://maps.google.com/?cid=0x0:0x1ff7a0c5dec6dec0";""
"supermarket";"Toko Swalayan";"Toko KSD";"XX5M+7HV, Unnamed Road, Tegal Sari, Kec. Mesuji Makmur, Kabupaten Ogan Komering Ilir, Sumatera Selatan 30681";"Unnamed Road, Tegal Sari, Kec. Mesuji Makmur, Kabupaten Ogan Komering Ilir";"SUMATERA SELATAN";"30681";"Indonesia";" 085268692892";"";"";"-4.0417589";"104.9839176";"https://maps.google.com/?cid=0x0:0x889653eed4bf7c60";""
"supermarket";"Toko Swalayan";"Toko Aldo";"5F6Q+6FR, Wiralaga I, Mesuji Timur, Kabupaten Mesuji, Lampung 34697";"Wiralaga I, Mesuji Timur, Kabupaten Mesuji";"SUMATERA SELATAN";"34697";"Indonesia";"";"";"";"-3.839379";"105.4886471";"https://maps.google.com/?cid=0x0:0xee69541b5ea3a119";""
"supermarket";"Minimarket";"Alfamart Simpang Sampurna";"Asian Highway No.25, Surya Adi, Mesuji, Ogan Komering Ilir Regency, South Sumatra 30681";"Surya Adi, Mesuji, Ogan Komering Ilir Regency";"SUMATERA SELATAN";"30681";"Indonesia";"";"";"";"-3.9916529";"105.0453616";"https://maps.google.com/?cid=0x0:0x6d6790817519cb37";""
"supermarket";"Pasar";"Pasar 1A";"W2F7+RV7, Unnamed Road, Kali Deras, Kec. Mesuji, Kabupaten Ogan Komering Ilir, Sumatera Selatan 30681";"Unnamed Road, Kali Deras, Kec. Mesuji, Kabupaten Ogan Komering Ilir";"SUMATERA SELATAN";"30681";"Indonesia";"";"";"";"-4.0754619";"105.0146807";"https://maps.google.com/?cid=0x0:0xe165d9b67320d0aa";""
"supermarket";"Minimarket";"Indomaret Surya Adi";"2297+7RW, Jl. Lintas Sumatra, Surya Adi, Kec. Mesuji, Kabupaten Ogan Komering Ilir, Sumatera Selatan 30681";"Jl. Lintas Sumatra, Surya Adi, Kec. Mesuji, Kabupaten Ogan Komering Ilir";"SUMATERA SELATAN";"30681";"Indonesia";"";"";"";"-3.9817501";"105.014593";"https://maps.google.com/?cid=0x0:0x5fb32af912606cea";""
"supermarket";"Toko";"AstahriMart";"XX5M+FJ3, Unnamed Road, Tegal Sari, Kec. Mesuji Makmur, Kabupaten Ogan Komering Ilir, Sumatera Selatan 30681";"Unnamed Road, Tegal Sari, Kec. Mesuji Makmur, Kabupaten Ogan Komering Ilir";"SUMATERA SELATAN";"30681";"Indonesia";"";"";"";"-4.0413583";"104.9840329";"https://maps.google.com/?cid=0x0:0xe820394c8bd2aea9";""
"supermarket";"Minimarket";"Alfamart";"Jl. Poros, Tj. MAS Makmur, Kec. Mesuji Tim., Kab. Mesuji, Lampung 34697";"Tj. MAS Makmur, Kec. Mesuji Tim., Kab. Mesuji";"SUMATERA SELATAN";"34697";"Indonesia";" 1500959";"";"";"-3.9987667";"105.5631519";"https://maps.google.com/?cid=0x0:0xa403feecdccc7733";""
"supermarket";"Toko";"TOKO SAHABAT RICHE ZAELANI";"73PG+J23, Kerta Mukti, Kec. Mesuji Raya, Kabupaten Ogan Komering Ilir, Sumatera Selatan 30657";"Kerta Mukti, Kec. Mesuji Raya, Kabupaten Ogan Komering Ilir";"SUMATERA SELATAN";"30657";"Indonesia";" 081350687898";"";"";"-3.7134854";"105.0750544";"https://maps.google.com/?cid=0x0:0xf7072db69ec948ac";""
"supermarket";"Toko Swalayan";"Toko WiWiK";"4447+WGC, Makarti Mulya, Kec. Mesuji, Kabupaten Ogan Komering Ilir, Sumatera Selatan 30681";"Makarti Mulya, Kec. Mesuji, Kabupaten Ogan Komering Ilir";"SUMATERA SELATAN";"30681";"Indonesia";"";"";"";"-3.8926868";"105.1137727";"https://maps.google.com/?cid=0x0:0xf30d17dd09bfcdc2";""
"supermarket";"Minimarket";"Toko Raffael";"Rumah Bpk. Suratno (Selatan lapangan, Dusun VIII Blok H, Catur Tunggal, Kec. Mesuji Makmur, Kabupaten Ogan Komering Ilir, Sumatera Selatan 30681";"Dusun VIII Blok H, Catur Tunggal, Kec. Mesuji Makmur, Kabupaten Ogan Komering Ilir";"SUMATERA SELATAN";"30681";"Indonesia";" 085766789402";"";"";"-4.063295";"104.9290434";"https://maps.google.com/?cid=0x0:0xeb42a4862f4257d9";""
"supermarket";"Toko";"Warung Muslimin";"XWPV+HQP, Cahaya Mulya, Kec. Mesuji Makmur, Kabupaten Ogan Komering Ilir, Sumatera Selatan 30681";"Cahaya Mulya, Kec. Mesuji Makmur, Kabupaten Ogan Komering Ilir";"SUMATERA SELATAN";"30681";"Indonesia";"";"";"";"-4.0135332";"104.9444569";"https://maps.google.com/?cid=0x0:0xd1a12dd49c7b3baf";""
"supermarket";"Toko";"Warung sembako Mbak Minuk";"WX2P+VW6, Surya Karta, Kec. Mesuji Makmur, Kabupaten Ogan Komering Ilir, Sumatera Selatan 30681";"Surya Karta, Kec. Mesuji Makmur, Kabupaten Ogan Komering Ilir";"SUMATERA SELATAN";"30681";"Indonesia";"";"";"";"-4.0978279";"104.9872539";"https://maps.google.com/?cid=0x0:0xad1a5dfd97953320";""
"supermarket";"Toko Swalayan";"Toko Kenzie";"2342+C93, Unnamed Road, Surya Adi, Kec. Mesuji, Kabupaten Ogan Komering Ilir, Sumatera Selatan 30681";"Unnamed Road, Surya Adi, Kec. Mesuji, Kabupaten Ogan Komering Ilir";"SUMATERA SELATAN";"30681";"Indonesia";"";"";"";"-3.9939885";"105.0509326";"https://maps.google.com/?cid=0x0:0x7a11f99b9974d4f2";""
"supermarket";"Toko Swalayan";"ALFAMART MAKARTIMULYA";"Jl. Poros, Makarti Mulya, Kec. Mesuji, Kabupaten Ogan Komering Ilir, Sumatera Selatan 30681";"Makarti Mulya, Kec. Mesuji, Kabupaten Ogan Komering Ilir";"SUMATERA SELATAN";"30681";"Indonesia";" 1500959";"";"";"-3.9121459";"105.1039237";"https://maps.google.com/?cid=0x0:0xa262b8d98e9dea0";""
"supermarket";"Toko";"Toko Kanian";"Blok G, Makarti Mulya, Kec. Mesuji, Kabupaten Ogan Komering Ilir, Sumatera Selatan 30681";"Makarti Mulya, Kec. Mesuji, Kabupaten Ogan Komering Ilir";"SUMATERA SELATAN";"30681";"Indonesia";" 082325717074";"";"";"-3.8880198";"105.114458";"https://maps.google.com/?cid=0x0:0x855456563e3144a1";""
"supermarket";"Toko umum";"Toko Anggis gumara";"722J+MCP, Suka Sari, Kec. Mesuji Raya, Kabupaten Ogan Komering Ilir, Sumatera Selatan 31657";"Suka Sari, Kec. Mesuji Raya, Kabupaten Ogan Komering Ilir";"SUMATERA SELATAN";"31657";"Indonesia";"";"";"";"-3.7482865";"105.0310815";"https://maps.google.com/?cid=0x0:0xf0f6efabd7e377d2";""
"supermarket";"supermarket";"Lampung 34697";"Kabupaten Mesuji, Lampung";"Kabupaten Mesuji, Lampung";"SUMATERA SELATAN";"";"Indonesia";"";"";"";"-4.0394549";"105.5474373";"https://maps.google.com/?cid=0x0:0x1be488907fbbc7a6";""
"supermarket";"Minimarket";"Alfamart";"Jl. Poros, Tj. MAS Makmur, Kec. Mesuji Tim., Kab. Mesuji, Lampung 34697";"Tj. MAS Makmur, Kec. Mesuji Tim., Kab. Mesuji";"SUMATERA SELATAN";"34697";"Indonesia";" 1500959";"";"";"-3.9987667";"105.5631519";"https://maps.google.com/?cid=0x0:0xa403feecdccc7733";""
"supermarket";"Grosir";"Toko sinar palembang";"2H36+G6W, Tj. MAS Makmur, Kec. Mesuji Tim., Kabupaten Mesuji, Lampung 34697";"Tj. MAS Makmur, Kec. Mesuji Tim., Kabupaten Mesuji";"SUMATERA SELATAN";"34697";"Indonesia";"";"";"";"-3.9960013";"105.5606483";"https://maps.google.com/?cid=0x0:0xde8d69215f3889a6";""
"supermarket";"Toko bahan makanan";"Alfamart";"Jl. Poros Ktm, RT.006/RW.006, Wonosari, Kec. Simpang Pematang, Kab. Mesuji, Lampung 34698";"RT.006/RW.006, Wonosari, Kec. Simpang Pematang, Kab. Mesuji";"SUMATERA SELATAN";"34698";"Indonesia";" 1500959";"";"";"-4.0295852";"105.5188051";"https://maps.google.com/?cid=0x0:0x9acffaa553e27880";""
"supermarket";"Toko Swalayan";"Toko Aldo";"5F6Q+6FR, Wiralaga I, Mesuji Timur, Kabupaten Mesuji, Lampung 34697";"Wiralaga I, Mesuji Timur, Kabupaten Mesuji";"SUMATERA SELATAN";"34697";"Indonesia";"";"";"";"-3.839379";"105.4886471";"https://maps.google.com/?cid=0x0:0xee69541b5ea3a119";""
"supermarket";"Minimarket";"ZIA swalayan";"288R+3VR, Jl. Petamburan, Brabasan, Kec. Tj. Raya, Kabupaten Mesuji, Lampung 34698";"Jl. Petamburan, Brabasan, Kec. Tj. Raya, Kabupaten Mesuji";"SUMATERA SELATAN";"34698";"Indonesia";"";"";"";"-3.9847747";"105.3421312";"https://maps.google.com/?cid=0x0:0x8e8864b7a4b0400c";""
"supermarket";"Toko Perlengkapan Rumah";"Ida Rodiah";"2H6F+654, RT.06/RW.02, Tj. MAS Jaya, Kec. Mesuji Tim., Kabupaten Mesuji, Lampung 34697";"RT.06/RW.02, Tj. MAS Jaya, Kec. Mesuji Tim., Kabupaten Mesuji";"SUMATERA SELATAN";"34697";"Indonesia";"";"";"";"-3.9894782";"105.5729593";"https://maps.google.com/?cid=0x0:0x3142d5c1bbf838f5";""
"supermarket";"Toko Swalayan";"AL-BINO";"XHFR+FHV, Pangkal MAS Mulya, Kec. Mesuji Tim., Kabupaten Mesuji, Lampung 34697";"Pangkal MAS Mulya, Kec. Mesuji Tim., Kabupaten Mesuji";"SUMATERA SELATAN";"34697";"Indonesia";" 085268663545";"";"";"-4.026256";"105.5914071";"https://maps.google.com/?cid=0x0:0x794b21327b884ac9";""
"supermarket";"Minimarket";"Alfamart";"Zaenal Abidin, RT.008/RW.003, Sidomulyo, Kec. Mesuji, Kab. Mesuji, Dki Jakarta 34597";"RT.008/RW.003, Sidomulyo, Kec. Mesuji, Kab. Mesuji";"SUMATERA SELATAN";"34597";"Indonesia";" 1500959";"";"";"-3.881617";"105.4233932";"https://maps.google.com/?cid=0x0:0x87bcdf92b0db872f";""
"supermarket";"Toko";"Toko Pak Ji";"4C7G+X63, Sidomulyo, Kec. Mesuji, Kabupaten Mesuji, Lampung 34697";"Sidomulyo, Kec. Mesuji, Kabupaten Mesuji";"SUMATERA SELATAN";"34697";"Indonesia";"";"";"";"-3.8851009";"105.4255493";"https://maps.google.com/?cid=0x0:0x74260e45d791964d";""
"supermarket";"Toko bahan makanan";"Alfamart";"Jl. Raya No.Km 13, Gedung Ram, Kec. Tj. Raya, Kab. Mesuji, Lampung 34598";"Gedung Ram, Kec. Tj. Raya, Kab. Mesuji";"SUMATERA SELATAN";"34598";"Indonesia";" 1500959";"";"";"-4.00726";"105.43712";"https://maps.google.com/?cid=0x0:0x4b9aca6af867573d";""
"supermarket";"Minimarket";"AL FALAH MART. SWAKARSA MOJOPAHIT C1";"2CP8+HH4, Sinar Laga, Kec. Tj. Raya, Kabupaten Mesuji, Lampung 34598";"Sinar Laga, Kec. Tj. Raya, Kabupaten Mesuji";"SUMATERA SELATAN";"34598";"Indonesia";"";"";"";"-3.9636016";"105.4164524";"https://maps.google.com/?cid=0x0:0xca7695aea9d2340c";""
"supermarket";"Toserba";"Toko Aritonang";"RT/Rw 003/002, Desa Mukti jaya, Bangun Jaya, Kec. Tj. Raya, Kabupaten Mesuji, Lampung 34598";"Desa Mukti jaya, Bangun Jaya, Kec. Tj. Raya, Kabupaten Mesuji";"SUMATERA SELATAN";"34598";"Indonesia";" 081279420431";"";"";"-3.9340815";"105.4011178";"https://maps.google.com/?cid=0x0:0x37deb853638e44b3";""
"supermarket";"Toko bahan makanan";"ALFAMART GEDUNG RAM";"Desa, RT.002/RW.Rt.001, Gedung Ram, Kec. Tj. Raya, Kab. Mesuji, Lampung 34598";"RT.002/RW.Rt.001, Gedung Ram, Kec. Tj. Raya, Kab. Mesuji";"SUMATERA SELATAN";"34598";"Indonesia";" 1500959";"";"";"-3.9609542";"105.3647929";"https://maps.google.com/?cid=0x0:0x39fb4db78c0c184d";""
"supermarket";"Toko bahan makanan";"Chika Cell";"4C64+R67, Sidomulyo, Kec. Mesuji, Kabupaten Mesuji, Lampung 34697";"Sidomulyo, Kec. Mesuji, Kabupaten Mesuji";"SUMATERA SELATAN";"34697";"Indonesia";" 085267940244";"";"";"-3.88797";"105.4055367";"https://maps.google.com/?cid=0x0:0xb8b8140db3b3a431";""
"supermarket";"supermarket";"N/A";"";"";"SUMATERA SELATAN";"";"Indonesia";" 085272173121";"";"";"-4.035785";"105.5232329";"https://maps.google.com/?cid=0x0:0x69e83e9ae1940a84";""
"supermarket";"Toko umum";"TOKO NYOMAN SJ";"XCVR+437, Margo Mulyo, Kec. Mesuji Tim., Kabupaten Mesuji, Lampung 34598";"Margo Mulyo, Kec. Mesuji Tim., Kabupaten Mesuji";"SUMATERA SELATAN";"34598";"Indonesia";"";"";"";"-4.0072165";"105.4401724";"https://maps.google.com/?cid=0x0:0x251f1b0bd0b545e5";""
"supermarket";"Toko";"Erni_Shopp";"28VF+5W3, Mekar Sari, Kec. Tj. Raya, Kabupaten Mesuji, Lampung 34698";"Mekar Sari, Kec. Tj. Raya, Kabupaten Mesuji";"SUMATERA SELATAN";"34698";"Indonesia";" 081373922972";"";"";"-3.957118";"105.3248097";"https://maps.google.com/?cid=0x0:0x8ed3fb8056d7d34b";""
"supermarket";"ATM";"Agen BRILink Toko Rio Blitang";"Sidomulyo, Kec. Mesuji, Kabupaten Mesuji, Lampung 34698";"Kec. Mesuji, Kabupaten Mesuji";"SUMATERA SELATAN";"34698";"Indonesia";"";"";"";"-3.9010951";"105.4318275";"https://maps.google.com/?cid=0x0:0xeb64627c24921961";""
"supermarket";"Pengolahan Ikan";"Bakol pancing pak bekan";"XHWC+M3H, Tj. MAS Makmur, Kec. Mesuji Tim., Kabupaten Mesuji, Lampung 34697";"Tj. MAS Makmur, Kec. Mesuji Tim., Kabupaten Mesuji";"SUMATERA SELATAN";"34697";"Indonesia";"";"";"";"-4.0021476";"105.5697315";"https://maps.google.com/?cid=0x0:0xa0b1ae2b957f40ac";""
"supermarket";"Toko";"bengkel putra mandiri";"3CG9+66C, Unnamed Road, Bangun Jaya, Kec. Tj. Raya, Kabupaten Mesuji, Lampung 34697";"Unnamed Road, Bangun Jaya, Kec. Tj. Raya, Kabupaten Mesuji";"SUMATERA SELATAN";"34697";"Indonesia";" 082210105528";"";"";"-3.9244354";"105.4180162";"https://maps.google.com/?cid=0x0:0x18ff585d6103950f";""
"supermarket";"Toko sembako pemerintah";"MITRA PAYTREN.kevin Cell.";"XGC9+39F LOKET PAYTREN, Wonosari, Kec. Mesuji Tim., Kabupaten Mesuji, Lampung 34697";"Wonosari, Kec. Mesuji Tim., Kabupaten Mesuji";"SUMATERA SELATAN";"34697";"Indonesia";" 082306993010";"";"";"-4.0298167";"105.5184277";"https://maps.google.com/?cid=0x0:0x67e40d97bc618b9c";""
"supermarket";"supermarket";"Kec. Mesuji Makmur";"Kabupaten Ogan Komering Ilir, Sumatera Selatan";"Kabupaten Ogan Komering Ilir, Sumatera Selatan";"SUMATERA SELATAN";"";"Indonesia";"";"";"";"-4.1072563";"104.8737151";"https://maps.google.com/?cid=0x0:0x482c7fee673690e2";""
"supermarket";"Toko";"Warung Muslimin";"XWPV+HQP, Cahaya Mulya, Kec. Mesuji Makmur, Kabupaten Ogan Komering Ilir, Sumatera Selatan 30681";"Cahaya Mulya, Kec. Mesuji Makmur, Kabupaten Ogan Komering Ilir";"SUMATERA SELATAN";"30681";"Indonesia";"";"";"";"-4.0135332";"104.9444569";"https://maps.google.com/?cid=0x0:0xd1a12dd49c7b3baf";""
"supermarket";"Minimarket";"Toko Raffael";"Rumah Bpk. Suratno (Selatan lapangan, Dusun VIII Blok H, Catur Tunggal, Kec. Mesuji Makmur, Kabupaten Ogan Komering Ilir, Sumatera Selatan 30681";"Dusun VIII Blok H, Catur Tunggal, Kec. Mesuji Makmur, Kabupaten Ogan Komering Ilir";"SUMATERA SELATAN";"30681";"Indonesia";" 085766789402";"";"";"-4.063295";"104.9290434";"https://maps.google.com/?cid=0x0:0xeb42a4862f4257d9";""
"supermarket";"Toko";"Warung sembako Mbak Minuk";"WX2P+VW6, Surya Karta, Kec. Mesuji Makmur, Kabupaten Ogan Komering Ilir, Sumatera Selatan 30681";"Surya Karta, Kec. Mesuji Makmur, Kabupaten Ogan Komering Ilir";"SUMATERA SELATAN";"30681";"Indonesia";"";"";"";"-4.0978279";"104.9872539";"https://maps.google.com/?cid=0x0:0xad1a5dfd97953320";""
"supermarket";"Minimarket";"Alfamart Kampung Baru";"Jl. Raya Kampung Baru Rt. 01 R, Kp. Baru, Kec. Mesuji Makmur, Kabupaten Ogan Komering Ilir, Sumatera Selatan 30681";"Kp. Baru, Kec. Mesuji Makmur, Kabupaten Ogan Komering Ilir";"SUMATERA SELATAN";"30681";"Indonesia";" 1500959";"";"";"-4.2130898";"104.7744921";"https://maps.google.com/?cid=0x0:0x1c297dda3b919e44";""
"supermarket";"Toko Swalayan";"Toko SUMBER ARTHA";"VQCW+2J5, Cahaya Mas, Kec. Mesuji Makmur, Kabupaten Ogan Komering Ilir, Sumatera Selatan 30681";"Cahaya Mas, Kec. Mesuji Makmur, Kabupaten Ogan Komering Ilir";"SUMATERA SELATAN";"30681";"Indonesia";"";"";"";"-4.1299961";"104.7966048";"https://maps.google.com/?cid=0x0:0x4c53189917107186";""
"supermarket";"Minimarket";"Toko Amirudin";"VRF6+5Q9, Cahaya Mas, Kec. Mesuji Makmur, Kabupaten Ogan Komering Ilir, Sumatera Selatan 30681";"Cahaya Mas, Kec. Mesuji Makmur, Kabupaten Ogan Komering Ilir";"SUMATERA SELATAN";"30681";"Indonesia";" 085728999645";"";"";"-4.1270793";"104.8119793";"https://maps.google.com/?cid=0x0:0x6d9679ae67ff8a9e";""
"supermarket";"Toko Swalayan";"Toko Anugrah";"VRF9+28J, Unnamed Road, Cahaya Mas, Kec. Mesuji Makmur, Kabupaten Ogan Komering Ilir, Sumatera Selatan 30681";"Unnamed Road, Cahaya Mas, Kec. Mesuji Makmur, Kabupaten Ogan Komering Ilir";"SUMATERA SELATAN";"30681";"Indonesia";"";"";"";"-4.1274088";"104.8182615";"https://maps.google.com/?cid=0x0:0x4f2c3d68fefeea2";""
"supermarket";"Toko Perlengkapan Rumah";"Toko JakaUntari";"VVG3+99C, Binakarsa, Kec. Mesuji Makmur, Kabupaten Ogan Komering Ilir, Sumatera Selatan 30681";"Binakarsa, Kec. Mesuji Makmur, Kabupaten Ogan Komering Ilir";"SUMATERA SELATAN";"30681";"Indonesia";"";"";"";"-4.1240543";"104.8533892";"https://maps.google.com/?cid=0x0:0xb48e58385ed3f89";""
"supermarket";"Minimarket";"ALFAMART KALIDERAS";"W2F7+Q3H, Kali Deras, Kec. Mesuji, Kabupaten Ogan Komering Ilir, Sumatera Selatan 30681";"Kali Deras, Kec. Mesuji, Kabupaten Ogan Komering Ilir";"SUMATERA SELATAN";"30681";"Indonesia";" 082377147433";"";"";"-4.075574";"105.012736";"https://maps.google.com/?cid=0x0:0x31a2954c0677edd3";""
"supermarket";"Toko Swalayan";"TOKO RUDI";"RQ2M+M9Q, Unnamed Road, Kp. Baru, Kec. Mesuji Makmur, Kabupaten Ogan Komering Ilir, Sumatera Selatan 30681";"Unnamed Road, Kp. Baru, Kec. Mesuji Makmur, Kabupaten Ogan Komering Ilir";"SUMATERA SELATAN";"30681";"Indonesia";"";"";"";"-4.1982793";"104.7834689";"https://maps.google.com/?cid=0x0:0x1675f1aa7940d596";""
"supermarket";"Toko Swalayan";"Toko Kelontong Bu Murni dan Pak Karndi";"RW93+3FX, Mesuji Jaya, Kec. Mesuji Makmur, Kabupaten Ogan Komering Ilir, Sumatera Selatan 30681";"Mesuji Jaya, Kec. Mesuji Makmur, Kabupaten Ogan Komering Ilir";"SUMATERA SELATAN";"30681";"Indonesia";"";"";"";"-4.1822699";"104.9037402";"https://maps.google.com/?cid=0x0:0xa5e09f0b93da7196";""
"supermarket";"Toko Swalayan";"Warung Bu Sutri";"Pematang Bina Tani, Kec. Mesuji Makmur, Kabupaten Ogan Komering Ilir, Sumatera Selatan 30681";"Kec. Mesuji Makmur, Kabupaten Ogan Komering Ilir";"SUMATERA SELATAN";"30681";"Indonesia";" 082176300288";"";"";"-4.1206369";"104.8870835";"https://maps.google.com/?cid=0x0:0x5df9ec7e74696609";""
"supermarket";"Toko bahan makanan";"Warung Sembako Seti Anas";"XX8M+7CG, Tegal Sari, Kec. Mesuji Makmur, Kabupaten Ogan Komering Ilir, Sumatera Selatan 30681";"Tegal Sari, Kec. Mesuji Makmur, Kabupaten Ogan Komering Ilir";"SUMATERA SELATAN";"30681";"Indonesia";"";"";"";"-4.0343196";"104.9835857";"https://maps.google.com/?cid=0x0:0x4de64bda26a4486a";""
"supermarket";"Toko bahan makanan";"alfamart binakarsa";"Jl. Binakarsa, Jl. Blk. B, RT.01/RW.02, Binakarsa, Kec. Mesuji Makmur, Kabupaten Ogan Komering Ilir, Sumatera Selatan 30681";"Jl. Blk. B, RT.01/RW.02, Binakarsa, Kec. Mesuji Makmur, Kabupaten Ogan Komering Ilir";"SUMATERA SELATAN";"30681";"Indonesia";"";"";"";"-4.1077089";"104.8729236";"https://maps.google.com/?cid=0x0:0x88ba53ecbe413350";""
"supermarket";"Toko umum";"Toko manisan pak suyudi";"RXPH+XWQ, Unnamed Road, Karya Jaya, Kec. Mesuji Makmur, Kabupaten Ogan Komering Ilir, Sumatera Selatan 30681";"Unnamed Road, Karya Jaya, Kec. Mesuji Makmur, Kabupaten Ogan Komering Ilir";"SUMATERA SELATAN";"30681";"Indonesia";"";"";"";"-4.1625263";"104.979868";"https://maps.google.com/?cid=0x0:0xd858824ee44b5070";""
"supermarket";"Toko";"AstahriMart";"XX5M+FJ3, Unnamed Road, Tegal Sari, Kec. Mesuji Makmur, Kabupaten Ogan Komering Ilir, Sumatera Selatan 30681";"Unnamed Road, Tegal Sari, Kec. Mesuji Makmur, Kabupaten Ogan Komering Ilir";"SUMATERA SELATAN";"30681";"Indonesia";"";"";"";"-4.0413583";"104.9840329";"https://maps.google.com/?cid=0x0:0xe820394c8bd2aea9";""
"supermarket";"Toko";"Toko manisan echa makarena (pipit)";"QQQP+WXW, Kp. Baru, Kec. Mesuji Makmur, Kabupaten Ogan Komering Ilir, Sumatera Selatan 30681";"Kp. Baru, Kec. Mesuji Makmur, Kabupaten Ogan Komering Ilir";"SUMATERA SELATAN";"30681";"Indonesia";" 085709109131";"";"";"-4.2101294";"104.7874545";"https://maps.google.com/?cid=0x0:0x545610cd225b6a11";""
"supermarket";"Toko";"Warung pak pairan";"VRF8+9R2, Cahaya Mas, Kec. Mesuji Makmur, Kabupaten Ogan Komering Ilir, Sumatera Selatan 30681";"Cahaya Mas, Kec. Mesuji Makmur, Kabupaten Ogan Komering Ilir";"SUMATERA SELATAN";"30681";"Indonesia";" 085213679331";"";"";"-4.1266122";"104.8170297";"https://maps.google.com/?cid=0x0:0x95c1789d03bfacfd";""
"supermarket";"Pusat Perbelanjaan";"Warung IDA";"XWVF+WP4, Jl. Jalur 4, Cahaya Mulya, Kec. Mesuji Makmur, Kabupaten Ogan Komering Ilir, Sumatera Selatan 30681";"Jl. Jalur 4, Cahaya Mulya, Kec. Mesuji Makmur, Kabupaten Ogan Komering Ilir";"SUMATERA SELATAN";"30681";"Indonesia";"";"";"";"-4.0052481";"104.9243275";"https://maps.google.com/?cid=0x0:0x8ed3fd1b8c2f32b7";""
"supermarket";"Toko Swalayan";"Warung Bu Wasis";"WV77+XJ8, Unnamed Road, Karya Usaha, Kec. Mesuji Makmur, Kabupaten Ogan Komering Ilir, Sumatera Selatan 30681";"Unnamed Road, Karya Usaha, Kec. Mesuji Makmur, Kabupaten Ogan Komering Ilir";"SUMATERA SELATAN";"30681";"Indonesia";"";"";"";"-4.085094";"104.864087";"https://maps.google.com/?cid=0x0:0x9f4adf85dd5968e6";""
"supermarket";"Toko Swalayan";"Toko KSD";"XX5M+7HV, Unnamed Road, Tegal Sari, Kec. Mesuji Makmur, Kabupaten Ogan Komering Ilir, Sumatera Selatan 30681";"Unnamed Road, Tegal Sari, Kec. Mesuji Makmur, Kabupaten Ogan Komering Ilir";"SUMATERA SELATAN";"30681";"Indonesia";" 085268692892";"";"";"-4.0417589";"104.9839176";"https://maps.google.com/?cid=0x0:0x889653eed4bf7c60";""
"supermarket";"supermarket";"Kec. Mesuji Raya";"Kabupaten Ogan Komering Ilir, Sumatera Selatan";"Kabupaten Ogan Komering Ilir, Sumatera Selatan";"SUMATERA SELATAN";"";"Indonesia";"";"";"";"-3.7773297";"105.042624";"https://maps.google.com/?cid=0x0:0xa213c92de75fe9ec";""
"supermarket";"Toko";"TOKO SAHABAT RICHE ZAELANI";"73PG+J23, Kerta Mukti, Kec. Mesuji Raya, Kabupaten Ogan Komering Ilir, Sumatera Selatan 30657";"Kerta Mukti, Kec. Mesuji Raya, Kabupaten Ogan Komering Ilir";"SUMATERA SELATAN";"30657";"Indonesia";" 081350687898";"";"";"-3.7134854";"105.0750544";"https://maps.google.com/?cid=0x0:0xf7072db69ec948ac";""
"supermarket";"Grosir Barang Kelontong";"Kios Arif My";"Sumber Baru, Kec. Mesuji Raya, Kabupaten Ogan Komering Ilir, Sumatera Selatan 30657";"Kec. Mesuji Raya, Kabupaten Ogan Komering Ilir";"SUMATERA SELATAN";"30657";"Indonesia";"";"";"";"-3.8323394";"104.9891764";"https://maps.google.com/?cid=0x0:0xd25136345227d9b6";""
"supermarket";"Toko Swalayan";"Toko TA KASI MURA";"5X6X+RJ2, Sumber Baru, Kec. Mesuji Raya, Kabupaten Ogan Komering Ilir, Sumatera Selatan 30657";"Sumber Baru, Kec. Mesuji Raya, Kabupaten Ogan Komering Ilir";"SUMATERA SELATAN";"30657";"Indonesia";" 081367124050";"";"";"-3.8379951";"104.9990097";"https://maps.google.com/?cid=0x0:0xd55446860dcc35f0";""
"supermarket";"Toko Swalayan";"warung ibu silo";"6XWX+X9H, Unnamed Road, Cipta Sari, Kec. Mesuji Raya, Kabupaten Ogan Komering Ilir, Sumatera Selatan 31657";"Unnamed Road, Cipta Sari, Kec. Mesuji Raya, Kabupaten Ogan Komering Ilir";"SUMATERA SELATAN";"31657";"Indonesia";"";"";"";"-3.75256";"104.998475";"https://maps.google.com/?cid=0x0:0x707c6103c62fbb37";""
"supermarket";"Toko Bumbu";"Warung Mak Put";"734H+VJX, Rotan Mulya, Kec. Mesuji Raya, Kabupaten Ogan Komering Ilir, Sumatera Selatan 31657";"Rotan Mulya, Kec. Mesuji Raya, Kabupaten Ogan Komering Ilir";"SUMATERA SELATAN";"31657";"Indonesia";"";"";"";"-3.742774";"105.0791031";"https://maps.google.com/?cid=0x0:0xaab04e9bc20563e3";""
"supermarket";"Toko bahan makanan";"Alfamart";"Dusun Ii Ds. Sedyomulyo, RT.04/RW.02, Sedyo Mulyo, Mesuji, Kabupaten Ogan Komering Ilir, Sumatera Selatan 30681";"RT.04/RW.02, Sedyo Mulyo, Mesuji, Kabupaten Ogan Komering Ilir";"SUMATERA SELATAN";"30681";"Indonesia";" 1500959";"";"";"-3.655459";"105.0415806";"https://maps.google.com/?cid=0x0:0x1aedcf9f049b90c7";""
"supermarket";"Toko Swalayan";"Toko Gapai";"42WX+396, Mulya Jaya, Kec. Mesuji Raya, Kabupaten Ogan Komering Ilir, Sumatera Selatan 30681";"Mulya Jaya, Kec. Mesuji Raya, Kabupaten Ogan Komering Ilir";"SUMATERA SELATAN";"30681";"Indonesia";" 085841282707";"";"";"-3.854844";"105.0483872";"https://maps.google.com/?cid=0x0:0x48b4d274d84303b6";""
"supermarket";"Toko Swalayan";"Toko Tiga Putra";"C5, Karya Mukti, Kec. Mesuji, Kabupaten Ogan Komering Ilir, Sumatera Selatan 30681";"Karya Mukti, Kec. Mesuji, Kabupaten Ogan Komering Ilir";"SUMATERA SELATAN";"30681";"Indonesia";" 082133440346";"";"";"-3.8785436";"105.0696165";"https://maps.google.com/?cid=0x0:0x766487e55209d3c4";""
"supermarket";"Toko umum";"Toko Toserba Optimis 0.4";"8483+RVV, Bumi Makmur, Kec. Mesuji Raya, Kabupaten Ogan Komering Ilir, Sumatera Selatan 30681";"Bumi Makmur, Kec. Mesuji Raya, Kabupaten Ogan Komering Ilir";"SUMATERA SELATAN";"30681";"Indonesia";" 081369167556";"";"";"-3.6828935";"105.1046781";"https://maps.google.com/?cid=0x0:0xde6f10ac9909fe2b";""
"supermarket";"Komplek perumahan";"Rumah Syifa";"54XJ+WV, Dabuk Makmur, Kec. Mesuji Raya, Kabupaten Ogan Komering Ilir, Sumatera Selatan 30681";"Dabuk Makmur, Kec. Mesuji Raya, Kabupaten Ogan Komering Ilir";"SUMATERA SELATAN";"30681";"Indonesia";"";"";"";"-3.79583";"105.1343205";"https://maps.google.com/?cid=0x0:0x480f7531dc024a6f";""
"supermarket";"Toko umum";"Toko zamzam";"629R+7W5, Kemang Indah, Kec. Mesuji Raya, Kabupaten Ogan Komering Ilir, Sumatera Selatan 30657";"Kemang Indah, Kec. Mesuji Raya, Kabupaten Ogan Komering Ilir";"SUMATERA SELATAN";"30657";"Indonesia";" 081377765615";"";"";"-3.7818577";"105.0423672";"https://maps.google.com/?cid=0x0:0x32cbd7d042bb5225";""
"supermarket";"Minimarket";"IndoMaret Kemang Indah";"62CV+C4V, Kemang Indah, Kec. Mesuji Raya, Kabupaten Ogan Komering Ilir, Sumatera Selatan 30657";"Kemang Indah, Kec. Mesuji Raya, Kabupaten Ogan Komering Ilir";"SUMATERA SELATAN";"30657";"Indonesia";"";"";"";"-3.7788848";"105.0428102";"https://maps.google.com/?cid=0x0:0x2a28caa2c5ad0375";""
"supermarket";"Toko Swalayan";"Toko Abbas";"6295+QRM, Sumbu Sari, Kec. Mesuji Raya, Kabupaten Ogan Komering Ilir, Sumatera Selatan 30657";"Sumbu Sari, Kec. Mesuji Raya, Kabupaten Ogan Komering Ilir";"SUMATERA SELATAN";"30657";"Indonesia";" 085838092142";"";"";"-3.7805401";"105.0095491";"https://maps.google.com/?cid=0x0:0xe3b2c8de87ef07b4";""
"supermarket";"Minimarket";"TOKO TOMY CELL";"43C9+PH8, Karya Mukti, Kec. Mesuji, Kabupaten Ogan Komering Ilir, Sumatera Selatan 30681";"Karya Mukti, Kec. Mesuji, Kabupaten Ogan Komering Ilir";"SUMATERA SELATAN";"30681";"Indonesia";"";"";"";"-3.878203";"105.0689404";"https://maps.google.com/?cid=0x0:0x6907aa7cad08a4ea";""
"supermarket";"Grosir Barang Kelontong";"Warung Kelontong Ibu Ida";"73MM+32F, Kerta Mukti, Kec. Mesuji Raya, Kabupaten Ogan Komering Ilir, Sumatera Selatan 31657";"Kerta Mukti, Kec. Mesuji Raya, Kabupaten Ogan Komering Ilir";"SUMATERA SELATAN";"31657";"Indonesia";"";"";"";"-3.7173095";"105.08255";"https://maps.google.com/?cid=0x0:0x939c29f0f0754414";""
"supermarket";"Toko Swalayan";"AlfaMart Kemang Indah";"Jl. Desa, Kemang Indah, Kec. Mesuji, Kabupaten Ogan Komering Ilir, Sumatera Selatan 30681";"Kemang Indah, Kec. Mesuji, Kabupaten Ogan Komering Ilir";"SUMATERA SELATAN";"30681";"Indonesia";" 1500959";"";"";"-3.7784806";"105.0427353";"https://maps.google.com/?cid=0x0:0x5bca5d2ccb7282bb";""
"supermarket";"Toko Swalayan";"Warung manisan Pak jenggot";"62CM+4FJ, Kemang Indah, Kec. Mesuji Raya, Kabupaten Ogan Komering Ilir, Sumatera Selatan";"Kabupaten Ogan Komering Ilir, Sumatera Selatan";"SUMATERA SELATAN";"";"Indonesia";"";"";"";"-3.7796509";"105.0336451";"https://maps.google.com/?cid=0x0:0xa3e05b600e385caa";""
"supermarket";"Pusat Perbelanjaan";"Galery Andalusia";"6296+M62, Sumbu Sari, Kec. Mesuji Raya, Kabupaten Ogan Komering Ilir, Sumatera Selatan 30657";"Sumbu Sari, Kec. Mesuji Raya, Kabupaten Ogan Komering Ilir";"SUMATERA SELATAN";"30657";"Indonesia";" 081274379920";"";"";"-3.7808639";"105.0105211";"https://maps.google.com/?cid=0x0:0x37c4e957c4cdb3b3";""
"supermarket";"Toko umum";"Warung Sukir Dsn 05";"62R2+657, Cipta Sari, Kec. Mesuji Raya, Kabupaten Ogan Komering Ilir, Sumatera Selatan 31657";"Cipta Sari, Kec. Mesuji Raya, Kabupaten Ogan Komering Ilir";"SUMATERA SELATAN";"31657";"Indonesia";"";"";"";"-3.7594533";"105.0004201";"https://maps.google.com/?cid=0x0:0x5eb02459ad8eb19f";""
"supermarket";"Toko bahan makanan";"Anggi Mart";"Mataram Jaya, Kec. Mesuji Raya, Kabupaten Ogan Komering Ilir, Sumatera Selatan 30657";"Kec. Mesuji Raya, Kabupaten Ogan Komering Ilir";"SUMATERA SELATAN";"30657";"Indonesia";" 085709181687";"";"";"-3.7771223";"105.0534834";"https://maps.google.com/?cid=0x0:0x99ffddf8a1bd98b0";""
"supermarket";"Minimarket";"Alfamart Mulya Jaya/1VC4";"42VX+X72, Mulya Jaya, Kec. Mesuji Raya, Kabupaten Ogan Komering Ilir, Sumatera Selatan 30681";"Mulya Jaya, Kec. Mesuji Raya, Kabupaten Ogan Komering Ilir";"SUMATERA SELATAN";"30681";"Indonesia";" 082177799439";"";"";"-3.8551029";"105.0481407";"https://maps.google.com/?cid=0x0:0xedfa547cdb0a22f8";""
"supermarket";"Toko bahan makanan";"TOSERBA SALSABILA";"42WX+33M, Unnamed Road, Mulya Jaya, Kec. Mesuji Raya, Kabupaten Ogan Komering Ilir, Sumatera Selatan 30657";"Unnamed Road, Mulya Jaya, Kec. Mesuji Raya, Kabupaten Ogan Komering Ilir";"SUMATERA SELATAN";"30657";"Indonesia";"";"";"";"-3.8547815";"105.0476683";"https://maps.google.com/?cid=0x0:0x4fb28a405b64bfa4";""
"supermarket";"Grosir Barang Kelontong";"SRC YAN";"6429+464, Jalan Nuri, Balian Makmur, Kec. Mesuji Raya, Kabupaten Ogan Komering Ilir, Sumatera Selatan 30681";"Jalan Nuri, Balian Makmur, Kec. Mesuji Raya, Kabupaten Ogan Komering Ilir";"SUMATERA SELATAN";"30681";"Indonesia";" 08568007270";"";"";"-3.7997321";"105.1180646";"https://maps.google.com/?cid=0x0:0x77786538d740c2e3";""
"supermarket";"Pusat Perbelanjaan";"Warung Paman Rebo";"82RP+5W5, Sedyo Mulyo, Kec. Mesuji Raya, Kabupaten Ogan Komering Ilir, Sumatera Selatan 30672";"Sedyo Mulyo, Kec. Mesuji Raya, Kabupaten Ogan Komering Ilir";"SUMATERA SELATAN";"30672";"Indonesia";"";"";"";"-3.6596169";"105.0373645";"https://maps.google.com/?cid=0x0:0x657d97cee920f00a";""
"supermarket";"Minimarket";"Alfaexpress";"7333+78P, Jl. Tol Terbanggi Besar – Kayu Agung, Rotan Mulya, Kec. Mesuji Raya, Kabupaten Ogan Komering Ilir, Sumatera Selatan 30657";"Jl. Tol Terbanggi Besar – Kayu Agung, Rotan Mulya, Kec. Mesuji Raya, Kabupaten Ogan Komering Ilir";"SUMATERA SELATAN";"30657";"Indonesia";"";"";"";"-3.7467973";"105.0533373";"https://maps.google.com/?cid=0x0:0x46b9cce4b010dbf3";""
"supermarket";"Minimarket";"Toko Apip MM A.W";"Q2P4+V76, Pampangan, Kec. Pampangan, Kabupaten Ogan Komering Ilir, Sumatera Selatan 30654";"Pampangan, Kec. Pampangan, Kabupaten Ogan Komering Ilir";"SUMATERA SELATAN";"30654";"Indonesia";" 081247409707";"";"";"-3.2128375";"105.0056314";"https://maps.google.com/?cid=0x0:0x1b0b6b76413dae99";""
"supermarket";"Toko umum";"Alfamart";"Jl. Raya Pampangan, RT.12/RW.06, Pampangan, Kec. Pampangan, Kabupaten Ogan Komering Ilir, Sumatera Selatan 30654";"RT.12/RW.06, Pampangan, Kec. Pampangan, Kabupaten Ogan Komering Ilir";"SUMATERA SELATAN";"30654";"Indonesia";" 1500959";"";"";"-3.2088927";"105.0112995";"https://maps.google.com/?cid=0x0:0x161833e3d1387368";""
"supermarket";"";"Toko Tatok Afif";"QX22+2P6, Keman, Kec. Pampangan, Kabupaten Ogan Komering Ilir, Sumatera Selatan 30654";"Keman, Kec. Pampangan, Kabupaten Ogan Komering Ilir";"SUMATERA SELATAN";"30654";"Indonesia";" 081930651114";"";"";"-3.2499719";"104.9517551";"https://maps.google.com/?cid=0x0:0xeb7ea9707a9ad883";""
"supermarket";"Toko umum";"Alfamart Pampangan";"Jl. Pampangan, RT.07/RW.03, Ulak Kemang, Kec. Pampangan, Kabupaten Ogan Komering Ilir, Sumatera Selatan 30654";"RT.07/RW.03, Ulak Kemang, Kec. Pampangan, Kabupaten Ogan Komering Ilir";"SUMATERA SELATAN";"30654";"Indonesia";" 1500959";"";"";"-3.2499103";"104.9244954";"https://maps.google.com/?cid=0x0:0xd13514cd44c1da06";""
"supermarket";"Pembangunan Perumahan";"Pasar pampangan";"Q2R6+PQM, Pampangan, Kec. Pampangan, Kabupaten Ogan Komering Ilir, Sumatera Selatan 30654";"Pampangan, Kec. Pampangan, Kabupaten Ogan Komering Ilir";"SUMATERA SELATAN";"30654";"Indonesia";"";"";"";"-3.2081575";"105.0119105";"https://maps.google.com/?cid=0x0:0x9ddaa222ac7acc7b";""
"supermarket";"Minimarket";"Alfamart";"Jl. Lintas Sumatra V, Tugumulyo, Pampangan, Kabupaten Ogan Komering Ilir, Sumatera Selatan 30654";"Tugumulyo, Pampangan, Kabupaten Ogan Komering Ilir";"SUMATERA SELATAN";"30654";"Indonesia";" 1500959";"";"";"-3.8440786";"104.8980831";"https://maps.google.com/?cid=0x0:0x6e3057a406bd695e";""
"supermarket";"Toko bahan makanan";"MS MART";"Q2Q4+6R3, Pampangan, Kec. Pampangan, Kabupaten Ogan Komering Ilir, Sumatera Selatan 30654";"Pampangan, Kec. Pampangan, Kabupaten Ogan Komering Ilir";"SUMATERA SELATAN";"30654";"Indonesia";"";"";"";"-3.2119806";"105.0070583";"https://maps.google.com/?cid=0x0:0xcc5f7a20024957f7";""
"supermarket";"Kedai Kopi";"Warung Wak Cek";"Q2P5+W5Q, Pampangan, Kec. Pampangan, Kabupaten Ogan Komering Ilir, Sumatera Selatan 30654";"Pampangan, Kec. Pampangan, Kabupaten Ogan Komering Ilir";"SUMATERA SELATAN";"30654";"Indonesia";"";"";"";"-3.2126691";"105.007979";"https://maps.google.com/?cid=0x0:0x74448f1dfe9e8c93";""
"supermarket";"Toko";"Toko Haryati";"R22G+WP9, Jalan Raya Kabupaten, RT.04/RW.01, Srimulya, Kec. Pampangan, Kabupaten Ogan Komering Ilir, Sumatera Selatan 30654";"Jalan Raya Kabupaten, RT.04/RW.01, Srimulya, Kec. Pampangan, Kabupaten Ogan Komering Ilir";"SUMATERA SELATAN";"30654";"Indonesia";" 085840562192";"";"";"-3.1977111";"105.0268507";"https://maps.google.com/?cid=0x0:0x1a442e1d6b5fa6b1";""
"supermarket";"Minimarket";"TOKO VINO CEEL";"Q2W8+XXX, Serimenang, Kec. Pampangan, Kabupaten Ogan Komering Ilir, Sumatera Selatan 30654";"Serimenang, Kec. Pampangan, Kabupaten Ogan Komering Ilir";"SUMATERA SELATAN";"30654";"Indonesia";"";"";"";"-3.2025202";"105.0174767";"https://maps.google.com/?cid=0x0:0x17a191da6974193";""
"supermarket";"supermarket";"Sumatera Selatan 30654";"Kabupaten Ogan Komering Ilir, Sumatera Selatan";"Kabupaten Ogan Komering Ilir, Sumatera Selatan";"SUMATERA SELATAN";"";"Indonesia";"";"";"";"-3.127318";"105.0557415";"https://maps.google.com/?cid=0x0:0x448f38b87cee061f";""
"supermarket";"Toko Perlengkapan Rumah";"Depot Octa Air Minum Isi Ulang Ardianbr008 _YAYAN";"PXX5+P7J, Unnamed Road, Keman, Kec. Pampangan, Kabupaten Ogan Komering Ilir, Sumatera Selatan 30654";"Unnamed Road, Keman, Kec. Pampangan, Kabupaten Ogan Komering Ilir";"SUMATERA SELATAN";"30654";"Indonesia";" 081369613258";"";"";"-3.2506573";"104.958152";"https://maps.google.com/?cid=0x0:0x82073fb2a7228f9";""
"supermarket";"Toko";"Toko Pak Cen";"QX27+7GP, Keman, Kec. Pampangan, Kabupaten Ogan Komering Ilir, Sumatera Selatan 30654";"Keman, Kec. Pampangan, Kabupaten Ogan Komering Ilir";"SUMATERA SELATAN";"30654";"Indonesia";"";"";"";"-3.2492935";"104.9638422";"https://maps.google.com/?cid=0x0:0x3e90a44a10fccb8e";""
"supermarket";"Toko bahan makanan";"Toko Reyhan";"QW2V+RX6, Sepang, Kec. Pampangan, Kabupaten Ogan Komering Ilir, Sumatera Selatan 30654";"Sepang, Kec. Pampangan, Kabupaten Ogan Komering Ilir";"SUMATERA SELATAN";"30654";"Indonesia";" 081271724730";"";"";"-3.2479678";"104.9448784";"https://maps.google.com/?cid=0x0:0x2b1b4229cef597ea";""
"supermarket";"Toko Perlengkapan Rumah";"Toko Ida Bontet";"Q2Q3+CFW, Pampangan, Kec. Pampangan, Kabupaten Ogan Komering Ilir, Sumatera Selatan 30654";"Pampangan, Kec. Pampangan, Kabupaten Ogan Komering Ilir";"SUMATERA SELATAN";"30654";"Indonesia";" 082182047287";"";"";"-3.2113944";"105.0037154";"https://maps.google.com/?cid=0x0:0xb8c9b7a4d410c60b";""
"supermarket";"Toko bahan makanan";"Toko Regina Putri";"QW2W+J8V, Sepang, Kec. Pampangan, Kabupaten Ogan Komering Ilir, Sumatera Selatan 30654";"Sepang, Kec. Pampangan, Kabupaten Ogan Komering Ilir";"SUMATERA SELATAN";"30654";"Indonesia";"";"";"";"-3.2483864";"104.945792";"https://maps.google.com/?cid=0x0:0x79cf2f50992b7f0b";""
"supermarket";"Toko bahan makanan";"Toko Romsan";"QW2J+2FX, Ulak Kemang Baru, Kec. Pampangan, Kabupaten Ogan Komering Ilir, Sumatera Selatan";"Kabupaten Ogan Komering Ilir, Sumatera Selatan";"SUMATERA SELATAN";"";"Indonesia";"";"";"";"-3.2498875";"104.9312424";"https://maps.google.com/?cid=0x0:0x4fa2c010fd50e7f7";""
"supermarket";"Toko bahan makanan";"Toko Helen";"PXX3+J7R, Keman, Kec. Pampangan, Kabupaten Ogan Komering Ilir, Sumatera Selatan 30654";"Keman, Kec. Pampangan, Kabupaten Ogan Komering Ilir";"SUMATERA SELATAN";"30654";"Indonesia";"";"";"";"-3.2508847";"104.9531359";"https://maps.google.com/?cid=0x0:0xbf0520a8efeb82e9";""
"supermarket";"Pusat Perbelanjaan";"Mini Market";"Jln. Raya desa keman dusun 1 samping puskesmas keman Depan pasar Léman, Keman, Kec. Pampangan, Kabupaten Ogan Komering Ilir, Sumatera Selatan 30654";"Keman, Kec. Pampangan, Kabupaten Ogan Komering Ilir";"SUMATERA SELATAN";"30654";"Indonesia";" 081271272560";"";"";"-3.2500918";"104.9533253";"https://maps.google.com/?cid=0x0:0xe115ce0f1fa8f4a5";""
"supermarket";"Restoran";"Warung bik yus";"R22G+RM5, Secondong, Kec. Pampangan, Kabupaten Ogan Komering Ilir, Sumatera Selatan 30654";"Secondong, Kec. Pampangan, Kabupaten Ogan Komering Ilir";"SUMATERA SELATAN";"30654";"Indonesia";"";"";"";"-3.1979763";"105.026727";"https://maps.google.com/?cid=0x0:0x62f4a80af9b87782";""
"supermarket";"Toko";"Toko Chients";"Q2R2+HQV, Pulau Betung, Kec. Pampangan, Kabupaten Ogan Komering Ilir, Sumatera Selatan 30654";"Pulau Betung, Kec. Pampangan, Kabupaten Ogan Komering Ilir";"SUMATERA SELATAN";"30654";"Indonesia";" 081373945158";"";"";"-3.2085013";"105.001909";"https://maps.google.com/?cid=0x0:0x5d1b26fb6f446a91";""
"supermarket";"Toko Swalayan";"Toko mualimin";"P4PW+HJG, Sungai Bungin, Kec. Pangkalan Lampam, Kabupaten Ogan Komering Ilir, Sumatera Selatan 30654";"Sungai Bungin, Kec. Pangkalan Lampam, Kabupaten Ogan Komering Ilir";"SUMATERA SELATAN";"30654";"Indonesia";"";"";"";"-3.2635534";"105.1465815";"https://maps.google.com/?cid=0x0:0x5459da015cbf26a8";""
"supermarket";"Minimarket";"Toko Acik";"Q2Q2+GW3, ds., Pulau Betung, Kec. Pampangan, Kabupaten Ogan Komering Ilir, Sumatera Selatan 30654";"ds., Pulau Betung, Kec. Pampangan, Kabupaten Ogan Komering Ilir";"SUMATERA SELATAN";"30654";"Indonesia";" 081930689792";"";"";"-3.2112419";"105.0023111";"https://maps.google.com/?cid=0x0:0xcb25f020e249e4a1";""
"supermarket";"supermarket";"Sumatera Selatan 30659";"Kec. Pangkalan Lampam, Kabupaten Ogan Komering Ilir, Sumatera Selatan";"Kabupaten Ogan Komering Ilir, Sumatera Selatan";"SUMATERA SELATAN";"";"Indonesia";"";"";"";"-3.164785";"105.1492869";"https://maps.google.com/?cid=0x0:0xc1b7005593445659";""
"supermarket";"Toko Swalayan";"Toko mualimin";"P4PW+HJG, Sungai Bungin, Kec. Pangkalan Lampam, Kabupaten Ogan Komering Ilir, Sumatera Selatan 30654";"Sungai Bungin, Kec. Pangkalan Lampam, Kabupaten Ogan Komering Ilir";"SUMATERA SELATAN";"30654";"Indonesia";"";"";"";"-3.2635534";"105.1465815";"https://maps.google.com/?cid=0x0:0x5459da015cbf26a8";""
"supermarket";"Toko Ponsel";"Pasar Pangkalan Lampam";"Q3QV+8F3, Pangkalan Lampam, Kec. Pangkalan Lampam, Kabupaten Ogan Komering Ilir, Sumatera Selatan 30659";"Pangkalan Lampam, Kec. Pangkalan Lampam, Kabupaten Ogan Komering Ilir";"SUMATERA SELATAN";"30659";"Indonesia";" 081278661448";"";"";"-3.2117255";"105.0936828";"https://maps.google.com/?cid=0x0:0xf561e2e2419ae1cd";""
"supermarket";"Toko";"Toko Rahmi";"R33V+PHF, desa lirik, kecamatan, Pangkalan Lampam, Kec. Pangkalan Lampam, Kabupaten Ogan Komering Ilir, Sumatera Selatan 30659";"desa lirik, kecamatan, Pangkalan Lampam, Kec. Pangkalan Lampam, Kabupaten Ogan Komering Ilir";"SUMATERA SELATAN";"30659";"Indonesia";" 085783298095";"";"";"-3.1956888";"105.0939086";"https://maps.google.com/?cid=0x0:0x7230fefc1dbd3cfe";""
"supermarket";"Toko Swalayan";"Toko pa'i kasma";"P4PX+H88, Sungai Bungin, Kec. Pangkalan Lampam, Kabupaten Ogan Komering Ilir, Sumatera Selatan 30654";"Sungai Bungin, Kec. Pangkalan Lampam, Kabupaten Ogan Komering Ilir";"SUMATERA SELATAN";"30654";"Indonesia";"";"";"";"-3.2635755";"105.1483132";"https://maps.google.com/?cid=0x0:0xd81dbcbd0dd77b80";""
"supermarket";"Minimarket";"Alfamart Lebung Batang";"Jl. Raya Kabupaten Rt. 04 Rw. 02 Ds. Lebung Batang, Kec, Pangkalan Lampam, Kab, Kabupaten Ogan Komering Ilir, Sumatera Selatan 30654";"Kec, Pangkalan Lampam, Kab, Kabupaten Ogan Komering Ilir";"SUMATERA SELATAN";"30654";"Indonesia";" 1500959";"";"";"-3.2000112";"105.1161975";"https://maps.google.com/?cid=0x0:0x88e5d44a128092b1";""
"supermarket";"Minimarket";"Indomaret Lintas Pangkalan Lampam";"Q3RW+MVX, Pangkalan Lampam, Kec. Pangkalan Lampam, Kabupaten Ogan Komering Ilir, Sumatera Selatan 30659";"Pangkalan Lampam, Kec. Pangkalan Lampam, Kabupaten Ogan Komering Ilir";"SUMATERA SELATAN";"30659";"Indonesia";"";"";"";"-3.2082623";"105.0972334";"https://maps.google.com/?cid=0x0:0xb6c94050f75aeacc";""
"supermarket";"Minimarket";"Alfamart Lintas Pangkalan Lampam";"Pangkalan Lampam, Kec. Pangkalan Lampam, Kabupaten Ogan Komering Ilir, Sumatera Selatan";"Kabupaten Ogan Komering Ilir, Sumatera Selatan";"SUMATERA SELATAN";"";"Indonesia";"";"";"";"-3.2086507";"105.0958681";"https://maps.google.com/?cid=0x0:0x49223e6a4db8d8f1";""
"supermarket";"Toko Swalayan";"Toko talep";"P4PV+7W4, Sungai Bungin, Kec. Pangkalan Lampam, Kabupaten Ogan Komering Ilir, Sumatera Selatan 30654";"Sungai Bungin, Kec. Pangkalan Lampam, Kabupaten Ogan Komering Ilir";"SUMATERA SELATAN";"30654";"Indonesia";"";"";"";"-3.2643534";"105.1448187";"https://maps.google.com/?cid=0x0:0x4ff5100fbd01fe55";""
"supermarket";"Toko umum";"Toko Wartop";"V38G+5RX, Unnamed Road, Perigi, Kec. Pangkalan Lampam, Kabupaten Ogan Komering Ilir, Sumatera Selatan 30654";"Unnamed Road, Perigi, Kec. Pangkalan Lampam, Kabupaten Ogan Komering Ilir";"SUMATERA SELATAN";"30654";"Indonesia";" 082380834541";"";"";"-3.1345234";"105.0771145";"https://maps.google.com/?cid=0x0:0x64e58ab44f42e798";""
"supermarket";"Toko Swalayan";"Toko mat heni";"P4PV+359, Unnamed Road, Sungai Bungin, Kec. Pangkalan Lampam, Kabupaten Ogan Komering Ilir, Sumatera Selatan 30654";"Unnamed Road, Sungai Bungin, Kec. Pangkalan Lampam, Kabupaten Ogan Komering Ilir";"SUMATERA SELATAN";"30654";"Indonesia";"";"";"";"-3.2648389";"105.1429711";"https://maps.google.com/?cid=0x0:0x95ea70efb4b9f61a";""
"supermarket";"Toko bahan makanan";"Toko Awit Nur";"R44J+VV9, Suka Damai, Kec. Pangkalan Lampam, Kabupaten Ogan Komering Ilir, Sumatera Selatan 30659";"Suka Damai, Kec. Pangkalan Lampam, Kabupaten Ogan Komering Ilir";"SUMATERA SELATAN";"30659";"Indonesia";"";"";"";"-3.1928474";"105.1322252";"https://maps.google.com/?cid=0x0:0x3fb747dcf2de8bd1";""
"supermarket";"Toko Perlengkapan Rumah";"Toko Marwah";"Q4X8+XJR, Lebung Batang, Kec. Pangkalan Lampam, Kabupaten Ogan Komering Ilir, Sumatera Selatan 30659";"Lebung Batang, Kec. Pangkalan Lampam, Kabupaten Ogan Komering Ilir";"SUMATERA SELATAN";"30659";"Indonesia";" 081369112405";"";"";"-3.2000095";"105.1165114";"https://maps.google.com/?cid=0x0:0xd6205ef249d789f2";""
"supermarket";"Toko bahan makanan";"THE AFIFAH'S SHOP";"R4W7+RRQ, Jl. Raya Desa, Air Rumbai, Kec. Pangkalan Lampam, Kabupaten Ogan Komering Ilir, Sumatera Selatan 30659";"Jl. Raya Desa, Air Rumbai, Kec. Pangkalan Lampam, Kabupaten Ogan Komering Ilir";"SUMATERA SELATAN";"30659";"Indonesia";" 081373634236";"";"";"-3.1529069";"105.1145993";"https://maps.google.com/?cid=0x0:0xec216decf7ff81db";""
"supermarket";"Kafe";"Kedai KF";"P5P2+J47, Unnamed Road, Sungai Bungin, Kec. Pangkalan Lampam, Kabupaten Ogan Komering Ilir, Sumatera Selatan 30659";"Unnamed Road, Sungai Bungin, Kec. Pangkalan Lampam, Kabupaten Ogan Komering Ilir";"SUMATERA SELATAN";"30659";"Indonesia";"";"";"";"-3.2634533";"105.150294";"https://maps.google.com/?cid=0x0:0xc57697950f988cdd";""
"supermarket";"Toko Buku";"Percetakan Belgi Awin (Kirana Shop)";"R5GP+R7W, Riding ( Simpang, Toman, Kec. Pangkalan Lampam, Kabupaten Ogan Komering Ilir, Sumatera Selatan 30659";"Riding ( Simpang, Toman, Kec. Pangkalan Lampam, Kabupaten Ogan Komering Ilir";"SUMATERA SELATAN";"30659";"Indonesia";" 082282676951";"";"";"-3.1728781";"105.1857089";"https://maps.google.com/?cid=0x0:0x4e8b3f45a4f07d7a";""
"supermarket";"Sekolah";"DS darat";"Q4GR+J4W, Darat, Kec. Pangkalan Lampam, Kabupaten Ogan Komering Ilir, Sumatera Selatan 30659";"Darat, Kec. Pangkalan Lampam, Kabupaten Ogan Komering Ilir";"SUMATERA SELATAN";"30659";"Indonesia";"";"";"";"-3.2235237";"105.1405377";"https://maps.google.com/?cid=0x0:0x2136a15c0d76da6e";""
"supermarket";"Kantor Pos";"Online shop";"Desa sunggutan Desa sunggutan, Rt.1/Rw.1 Kec. Pangkalan Lampam, Kabupaten Ogan Komering Ilir, Palembang, Sumatera Selatan 30659";"Rt.1/Rw.1 Kec. Pangkalan Lampam, Kabupaten Ogan Komering Ilir, Palembang";"SUMATERA SELATAN";"30659";"Indonesia";" 081271861504";"";"";"-3.1631053";"105.1727688";"https://maps.google.com/?cid=0x0:0x4188daf7d9d09027";""
"supermarket";"Toko Obat-Obatan Herbal";"HALAL MART HNI HPAI";"Pos 30659, Jl. Raya Desa Darat No.Rt 14, Darat, Kec. Pangkalan Lampam, Kabupaten Ogan Komering Ilir, Sumatera Selatan 30659";"Jl. Raya Desa Darat No.Rt 14, Darat, Kec. Pangkalan Lampam, Kabupaten Ogan Komering Ilir";"SUMATERA SELATAN";"30659";"Indonesia";"";"";"";"-3.2298436";"105.1475724";"https://maps.google.com/?cid=0x0:0x3e15398ad3869462";""
"supermarket";"Toko bahan makanan";"Toko DUA PUTRA";"Pangkalan Lampam, RT003/RW002, Kabupaten Ogan Komering Ilir, Sumatera Selatan 30659";"RT003/RW002, Kabupaten Ogan Komering Ilir";"SUMATERA SELATAN";"30659";"Indonesia";" 085156135513";"";"";"-3.2150957";"105.0905924";"https://maps.google.com/?cid=0x0:0xa8fecc32442533ae";""
"supermarket";"Minimarket";"Toko Apip MM A.W";"Q2P4+V76, Pampangan, Kec. Pampangan, Kabupaten Ogan Komering Ilir, Sumatera Selatan 30654";"Pampangan, Kec. Pampangan, Kabupaten Ogan Komering Ilir";"SUMATERA SELATAN";"30654";"Indonesia";" 081247409707";"";"";"-3.2128375";"105.0056314";"https://maps.google.com/?cid=0x0:0x1b0b6b76413dae99";""
"supermarket";"Pusat Perbelanjaan";"Toko resdayani";"Jl. Raya Desa Darat, Darat, Kec. Pangkalan Lampam, Kabupaten Ogan Komering Ilir, Sumatera Selatan 30659";"Darat, Kec. Pangkalan Lampam, Kabupaten Ogan Komering Ilir";"SUMATERA SELATAN";"30659";"Indonesia";" 083840945770";"";"";"-3.2316017";"105.1499686";"https://maps.google.com/?cid=0x0:0x98c1dd7ea3109625";""
"supermarket";"supermarket";"Pedamaran";"Pedamaran II, Kec. Pedamaran, Kabupaten Ogan Komering Ilir, Sumatera Selatan";"Kabupaten Ogan Komering Ilir, Sumatera Selatan";"SUMATERA SELATAN";"";"Indonesia";"";"";"";"-3.483333";"104.833333";"https://maps.google.com/?cid=0x0:0x4039d80b220ebd0";""
"supermarket";"Toko Swalayan";"SRC";"jln talang semut 2. OKI 30672, Pedamaran II, Kec. Pedamaran, Kabupaten Ogan Komering Ilir, Sumatera Selatan 30672";"Pedamaran II, Kec. Pedamaran, Kabupaten Ogan Komering Ilir";"SUMATERA SELATAN";"30672";"Indonesia";"";"";"";"-3.4868752";"104.8357618";"https://maps.google.com/?cid=0x0:0x156336cd8f53c4b6";""
"supermarket";"Toko Swalayan";"Toko Pak Raja";"jl.laut, Dusun.1, Serinanti, Kec. Pedamaran, Kabupaten Ogan Komering Ilir, Sumatera Selatan 30672";"Dusun.1, Serinanti, Kec. Pedamaran, Kabupaten Ogan Komering Ilir";"SUMATERA SELATAN";"30672";"Indonesia";" 082182308833";"";"";"-3.4621113";"104.8305411";"https://maps.google.com/?cid=0x0:0x928ba2b3d9161eff";""
"supermarket";"Toko bahan makanan";"Rumah Febri Cilik (FC)";"FR76+PR7, Unnamed Road, Suka Pulih, Kec. Pedamaran, Kabupaten Ogan Komering Ilir, Sumatera Selatan 30672";"Unnamed Road, Suka Pulih, Kec. Pedamaran, Kabupaten Ogan Komering Ilir";"SUMATERA SELATAN";"30672";"Indonesia";" 085788575534";"";"";"-3.5357196";"104.8120393";"https://maps.google.com/?cid=0x0:0x48e06c73edc51aa0";""
"supermarket";"Toko";"Toko Kelontong Dan Mini ATM";"Pedamaran III, Kec. Pedamaran, Kabupaten Ogan Komering Ilir, Sumatera Selatan 30672";"Kec. Pedamaran, Kabupaten Ogan Komering Ilir";"SUMATERA SELATAN";"30672";"Indonesia";" 082211472490";"";"";"-3.4868739";"104.8357618";"https://maps.google.com/?cid=0x0:0x47187b8b8327267e";""
"supermarket";"Toko bahan makanan";"Indomaret Pedamaran Timur";"C3MF+XFQ, Tim.,, Sumber Hidup, Kec. Pedamaran Tim., Kabupaten Ogan Komering Ilir, Sumatera Selatan 30672";"Tim.,, Sumber Hidup, Kec. Pedamaran Tim., Kabupaten Ogan Komering Ilir";"SUMATERA SELATAN";"30672";"Indonesia";"";"";"";"-3.5650265";"105.0737345";"https://maps.google.com/?cid=0x0:0x1af54d50ff01ccd5";""
"supermarket";"Toko Swalayan";"Toko Sejati";"GRPG+M69, Serinanti, Kec. Pedamaran, Kabupaten Ogan Komering Ilir, Sumatera Selatan 30618";"Serinanti, Kec. Pedamaran, Kabupaten Ogan Komering Ilir";"SUMATERA SELATAN";"30618";"Indonesia";" 085267094145";"";"";"-3.4633279";"104.8256197";"https://maps.google.com/?cid=0x0:0xa2f96321585c05e0";""
"supermarket";"Minimarket";"Indomaret Pedamaran";"GR5J+FHH, Pedamaran VI, Kec. Pedamaran, Kabupaten Ogan Komering Ilir, Sumatera Selatan 30672";"Pedamaran VI, Kec. Pedamaran, Kabupaten Ogan Komering Ilir";"SUMATERA SELATAN";"30672";"Indonesia";"";"";"";"-3.4913155";"104.8314815";"https://maps.google.com/?cid=0x0:0x8158a615a2b30c09";""
"supermarket";"Toko bahan makanan";"Warung Kelontong Bpk Sakin";"C4G4+QM5, Tim.,, Gading Raja, Kec. Pedamaran Tim., Kabupaten Ogan Komering Ilir, Sumatera Selatan 30672";"Tim.,, Gading Raja, Kec. Pedamaran Tim., Kabupaten Ogan Komering Ilir";"SUMATERA SELATAN";"30672";"Indonesia";" 082279570736";"";"";"-3.5731167";"105.1067391";"https://maps.google.com/?cid=0x0:0x9007c9e9a9dcaed0";""
"supermarket";"Toko bahan makanan";"toko pak warto";"C5R9+2VM, Tj. Makmur, Kec. Pedamaran Tim., Kabupaten Ogan Komering Ilir, Sumatera Selatan 30672";"Tj. Makmur, Kec. Pedamaran Tim., Kabupaten Ogan Komering Ilir";"SUMATERA SELATAN";"30672";"Indonesia";" 085381888283";"";"";"-3.5599022";"105.1696726";"https://maps.google.com/?cid=0x0:0x3bb365c9c9a831a2";""
"supermarket";"Toko bahan makanan";"Zahra Group";"GR2R+79Q, Unnamed Road, Menang Raya, Kec. Pedamaran, Kabupaten Ogan Komering Ilir, Sumatera Selatan 30672";"Unnamed Road, Menang Raya, Kec. Pedamaran, Kabupaten Ogan Komering Ilir";"SUMATERA SELATAN";"30672";"Indonesia";"";"";"";"-3.4992775";"104.8409971";"https://maps.google.com/?cid=0x0:0x10f908241dfd6d4";""
"supermarket";"Toko Swalayan";"Usaha Bersama Sejahtera";"CV2C+8P8, Burnai Tim., Kec. Pedamaran, Kabupaten Ogan Komering Ilir, Sumatera Selatan 30657";"Burnai Tim., Kec. Pedamaran, Kabupaten Ogan Komering Ilir";"SUMATERA SELATAN";"30657";"Indonesia";" 081367617625";"";"";"-3.5992183";"104.8718277";"https://maps.google.com/?cid=0x0:0x2057cfe7affbeb6d";""
"supermarket";"Toko";"Toko Dewi";"Suka Pulih, Kec. Pedamaran, Kabupaten Ogan Komering Ilir, Sumatera Selatan 30673";"Kec. Pedamaran, Kabupaten Ogan Komering Ilir";"SUMATERA SELATAN";"30673";"Indonesia";" 087770028989";"";"";"-3.5394055";"104.8086651";"https://maps.google.com/?cid=0x0:0x3974830b121af44c";""
"supermarket";"Pusat Perbelanjaan";"HENDRY CELL";"Unnamed Road, 30672, Lebuh Rarak, Kec. Pedamaran, Kabupaten Ogan Komering Ilir, Sumatera Selatan 30672";"30672, Lebuh Rarak, Kec. Pedamaran, Kabupaten Ogan Komering Ilir";"SUMATERA SELATAN";"30672";"Indonesia";"";"";"";"-3.490742";"104.840979";"https://maps.google.com/?cid=0x0:0x9feb36c08462afa";""
"supermarket";"Toko bahan makanan";"RPS Henna";"F5C3+JR6, Pancawarna, Kec. Pedamaran Tim., Kabupaten Ogan Komering Ilir, Sumatera Selatan 30672";"Pancawarna, Kec. Pedamaran Tim., Kabupaten Ogan Komering Ilir";"SUMATERA SELATAN";"30672";"Indonesia";" 082180007605";"";"";"-3.5284532";"105.1545101";"https://maps.google.com/?cid=0x0:0xe24d3bc6b34beadf";""
"supermarket";"Toko bahan makanan";"TOKO SANTAI PEDAMARAN";"GR4P+24P, Menang Raya, Kec. Pedamaran, Kabupaten Ogan Komering Ilir, Sumatera Selatan 30672";"Menang Raya, Kec. Pedamaran, Kabupaten Ogan Komering Ilir";"SUMATERA SELATAN";"30672";"Indonesia";" 087867123218";"";"";"-3.494741";"104.834846";"https://maps.google.com/?cid=0x0:0x3ebcaa9667b6bd82";""
"supermarket";"Restoran";"Toko kito";"GR5F+MP5, Pedamaran III, Kec. Pedamaran, Kabupaten Ogan Komering Ilir, Sumatera Selatan 30672";"Pedamaran III, Kec. Pedamaran, Kabupaten Ogan Komering Ilir";"SUMATERA SELATAN";"30672";"Indonesia";"";"";"";"-3.489615";"104.8246819";"https://maps.google.com/?cid=0x0:0xb3f2d483540186d4";""
"supermarket";"Pusat Perbelanjaan";"Tanjung Nior";"GR4R+65M, Menang Raya, Kec. Pedamaran, Kabupaten Ogan Komering Ilir, Sumatera Selatan 30672";"Menang Raya, Kec. Pedamaran, Kabupaten Ogan Komering Ilir";"SUMATERA SELATAN";"30672";"Indonesia";" 081911276805";"";"";"-3.4944039";"104.8404104";"https://maps.google.com/?cid=0x0:0xe6747f7cd1069c05";""
"supermarket";"Toko";"Toko Barab Uga";"GR5J+HJW, Pedamaran VI, Kec. Pedamaran, Kabupaten Ogan Komering Ilir, Sumatera Selatan 30672";"Pedamaran VI, Kec. Pedamaran, Kabupaten Ogan Komering Ilir";"SUMATERA SELATAN";"30672";"Indonesia";" 08117810233";"";"";"-3.4910109";"104.8315785";"https://maps.google.com/?cid=0x0:0xf56da83ac9a27935";""
"supermarket";"Pusat Perbelanjaan";"Toko pak dika surmin 3D";"Jembatan Seriguna, Unnamed Road, Penyandingan, Kec. Tlk. Gelam, Kabupaten Ogan Komering Ilir, Sumatera Selatan 30673";"Unnamed Road, Penyandingan, Kec. Tlk. Gelam, Kabupaten Ogan Komering Ilir";"SUMATERA SELATAN";"30673";"Indonesia";"";"";"";"-3.4947529";"104.7970468";"https://maps.google.com/?cid=0x0:0xcbd9bc37aad8422c";""
"supermarket";"Pasar";"Pasar pedamaran 11 siang";"Jl.moyang rio desa Pedamaran 2, Pedamaran III, Kec. Pedamaran, Kabupaten Ogan Komering Ilir, Sumatera Selatan 30672";"Pedamaran III, Kec. Pedamaran, Kabupaten Ogan Komering Ilir";"SUMATERA SELATAN";"30672";"Indonesia";"";"";"";"-3.4862866";"104.8380681";"https://maps.google.com/?cid=0x0:0xfb0794f483faf123";""
"supermarket";"Toko bahan makanan";"TOKO SRC ANA";"Jalan Utama Gapura No.SP 4, Tj. Makmur, Kec. Pedamaran Tim., Kabupaten Ogan Komering Ilir, Sumatera Selatan 30672";"Tj. Makmur, Kec. Pedamaran Tim., Kabupaten Ogan Komering Ilir";"SUMATERA SELATAN";"30672";"Indonesia";" 081278739185";"";"";"-3.5591951";"105.1655427";"https://maps.google.com/?cid=0x0:0xebdfad3cc4f1ec7";""
"supermarket";"Toko";"Toko nada";"C4H8+Q2W, Gading Raja, Kec. Pedamaran Tim., Kabupaten Ogan Komering Ilir, Sumatera Selatan 30672";"Gading Raja, Kec. Pedamaran Tim., Kabupaten Ogan Komering Ilir";"SUMATERA SELATAN";"30672";"Indonesia";" 085709802696";"";"";"-3.5705069";"105.1150886";"https://maps.google.com/?cid=0x0:0xbe19633e0c86e182";""
"supermarket";"Toko umum";"TOKOH ERNI";"GR5H+HR7, Pedamaran VI, Kec. Pedamaran, Kabupaten Ogan Komering Ilir, Sumatera Selatan 30672";"Pedamaran VI, Kec. Pedamaran, Kabupaten Ogan Komering Ilir";"SUMATERA SELATAN";"30672";"Indonesia";"";"";"";"-3.4910874";"104.8295483";"https://maps.google.com/?cid=0x0:0xb00890631e4727f6";""
"supermarket";"Minimarket";"WinShop";"GR5R+6X5, Pedamaran V, Kec. Pedamaran, Kabupaten Ogan Komering Ilir, Sumatera Selatan 30672";"Pedamaran V, Kec. Pedamaran, Kabupaten Ogan Komering Ilir";"SUMATERA SELATAN";"30672";"Indonesia";"";"";"";"-3.4923307";"104.8424716";"https://maps.google.com/?cid=0x0:0xd3dff8a82cf4c20f";""
"supermarket";"Minimarket";"Yudamenn";"GR5P+P7Q, Pedamaran VI, Kec. Pedamaran, Kabupaten Ogan Komering Ilir, Sumatera Selatan 30672";"Pedamaran VI, Kec. Pedamaran, Kabupaten Ogan Komering Ilir";"SUMATERA SELATAN";"30672";"Indonesia";"";"";"";"-3.4906692";"104.8357379";"https://maps.google.com/?cid=0x0:0xb925607a6b87a639";""
"supermarket";"Toko Swalayan";"Toko Prapto";"FR65+RR6, Suka Pulih, Kec. Pedamaran, Kabupaten Ogan Komering Ilir, Sumatera Selatan 30673";"Suka Pulih, Kec. Pedamaran, Kabupaten Ogan Komering Ilir";"SUMATERA SELATAN";"30673";"Indonesia";"";"";"";"-3.5379975";"104.8087791";"https://maps.google.com/?cid=0x0:0x7f3db3907a5d16c5";""
"supermarket";"Toko Swalayan";"Bu sukinem";"9VW6+WQ5, Burnai Tim., Kec. Pedamaran, Kabupaten Ogan Komering Ilir, Sumatera Selatan 30657";"Burnai Tim., Kec. Pedamaran, Kabupaten Ogan Komering Ilir";"SUMATERA SELATAN";"30657";"Indonesia";"";"";"";"-3.6027403";"104.861999";"https://maps.google.com/?cid=0x0:0x69627197ebdf3105";""
"supermarket";"Toko bahan makanan";"Toko Eni";"GR5M+4CJ, Pedamaran VI, Kec. Pedamaran, Kabupaten Ogan Komering Ilir, Sumatera Selatan 30672";"Pedamaran VI, Kec. Pedamaran, Kabupaten Ogan Komering Ilir";"SUMATERA SELATAN";"30672";"Indonesia";" 085269539045";"";"";"-3.4921564";"104.8335174";"https://maps.google.com/?cid=0x0:0xc0fa697211a8c466";""
"supermarket";"supermarket";"Sumatera Selatan 30672";"Kabupaten Ogan Komering Ilir, Sumatera Selatan";"Kabupaten Ogan Komering Ilir, Sumatera Selatan";"SUMATERA SELATAN";"";"Indonesia";"";"";"";"-3.5357696";"105.1258955";"https://maps.google.com/?cid=0x0:0x5bf080e319220622";""
"supermarket";"Toko bahan makanan";"Indomaret Pedamaran Timur";"C3MF+XFQ, Tim.,, Sumber Hidup, Kec. Pedamaran Tim., Kabupaten Ogan Komering Ilir, Sumatera Selatan 30672";"Tim.,, Sumber Hidup, Kec. Pedamaran Tim., Kabupaten Ogan Komering Ilir";"SUMATERA SELATAN";"30672";"Indonesia";"";"";"";"-3.5650265";"105.0737345";"https://maps.google.com/?cid=0x0:0x1af54d50ff01ccd5";""
"supermarket";"Toko Swalayan";"SRC";"jln talang semut 2. OKI 30672, Pedamaran II, Kec. Pedamaran, Kabupaten Ogan Komering Ilir, Sumatera Selatan 30672";"Pedamaran II, Kec. Pedamaran, Kabupaten Ogan Komering Ilir";"SUMATERA SELATAN";"30672";"Indonesia";"";"";"";"-3.4868752";"104.8357618";"https://maps.google.com/?cid=0x0:0x156336cd8f53c4b6";""
"supermarket";"Toko";"Toko Dewi";"Suka Pulih, Kec. Pedamaran, Kabupaten Ogan Komering Ilir, Sumatera Selatan 30673";"Kec. Pedamaran, Kabupaten Ogan Komering Ilir";"SUMATERA SELATAN";"30673";"Indonesia";" 087770028989";"";"";"-3.5394055";"104.8086651";"https://maps.google.com/?cid=0x0:0x3974830b121af44c";""
"supermarket";"Toko bahan makanan";"Warung Kelontong Bpk Sakin";"C4G4+QM5, Tim.,, Gading Raja, Kec. Pedamaran Tim., Kabupaten Ogan Komering Ilir, Sumatera Selatan 30672";"Tim.,, Gading Raja, Kec. Pedamaran Tim., Kabupaten Ogan Komering Ilir";"SUMATERA SELATAN";"30672";"Indonesia";" 082279570736";"";"";"-3.5731167";"105.1067391";"https://maps.google.com/?cid=0x0:0x9007c9e9a9dcaed0";""
"supermarket";"Toko bahan makanan";"Rumah Febri Cilik (FC)";"FR76+PR7, Unnamed Road, Suka Pulih, Kec. Pedamaran, Kabupaten Ogan Komering Ilir, Sumatera Selatan 30672";"Unnamed Road, Suka Pulih, Kec. Pedamaran, Kabupaten Ogan Komering Ilir";"SUMATERA SELATAN";"30672";"Indonesia";" 085788575534";"";"";"-3.5357196";"104.8120393";"https://maps.google.com/?cid=0x0:0x48e06c73edc51aa0";""
"supermarket";"Toko bahan makanan";"toko pak warto";"C5R9+2VM, Tj. Makmur, Kec. Pedamaran Tim., Kabupaten Ogan Komering Ilir, Sumatera Selatan 30672";"Tj. Makmur, Kec. Pedamaran Tim., Kabupaten Ogan Komering Ilir";"SUMATERA SELATAN";"30672";"Indonesia";" 085381888283";"";"";"-3.5599022";"105.1696726";"https://maps.google.com/?cid=0x0:0x3bb365c9c9a831a2";""
"supermarket";"Toko";"Toko Kelontong Dan Mini ATM";"Pedamaran III, Kec. Pedamaran, Kabupaten Ogan Komering Ilir, Sumatera Selatan 30672";"Kec. Pedamaran, Kabupaten Ogan Komering Ilir";"SUMATERA SELATAN";"30672";"Indonesia";" 082211472490";"";"";"-3.4868739";"104.8357618";"https://maps.google.com/?cid=0x0:0x47187b8b8327267e";""
"supermarket";"Toko bahan makanan";"Alfamart";"Jl. Lintas Sumatra No, Serinanti, Kec. Pedamaran, Kabupaten Ogan Komering Ilir, Sumatera Selatan 30672";"Serinanti, Kec. Pedamaran, Kabupaten Ogan Komering Ilir";"SUMATERA SELATAN";"30672";"Indonesia";" 0211500959";"";"";"-3.4626251";"104.826479";"https://maps.google.com/?cid=0x0:0xe8218989c221cb49";""
"supermarket";"Toko Swalayan";"Toko Sejati";"GRPG+M69, Serinanti, Kec. Pedamaran, Kabupaten Ogan Komering Ilir, Sumatera Selatan 30618";"Serinanti, Kec. Pedamaran, Kabupaten Ogan Komering Ilir";"SUMATERA SELATAN";"30618";"Indonesia";" 085267094145";"";"";"-3.4633279";"104.8256197";"https://maps.google.com/?cid=0x0:0xa2f96321585c05e0";""
"supermarket";"Minimarket";"Indomaret Pedamaran";"GR5J+FHH, Pedamaran VI, Kec. Pedamaran, Kabupaten Ogan Komering Ilir, Sumatera Selatan 30672";"Pedamaran VI, Kec. Pedamaran, Kabupaten Ogan Komering Ilir";"SUMATERA SELATAN";"30672";"Indonesia";"";"";"";"-3.4913155";"104.8314815";"https://maps.google.com/?cid=0x0:0x8158a615a2b30c09";""
"supermarket";"Toko Swalayan";"Toko Manisan Ernaidi";"C65G+4WR, Jl. Raya Kayulabu, Dusun II, Kayu Labu, Kec. Pedamaran Tim., Kabupaten Ogan Komering Ilir, Sumatera Selatan 30672";"Jl. Raya Kayulabu, Dusun II, Kayu Labu, Kec. Pedamaran Tim., Kabupaten Ogan Komering Ilir";"SUMATERA SELATAN";"30672";"Indonesia";" 081368649203";"";"";"-3.5921316";"105.2272704";"https://maps.google.com/?cid=0x0:0x7af76c8afecdd1a0";""
"supermarket";"Toko bahan makanan";"RPS Henna";"F5C3+JR6, Pancawarna, Kec. Pedamaran Tim., Kabupaten Ogan Komering Ilir, Sumatera Selatan 30672";"Pancawarna, Kec. Pedamaran Tim., Kabupaten Ogan Komering Ilir";"SUMATERA SELATAN";"30672";"Indonesia";" 082180007605";"";"";"-3.5284532";"105.1545101";"https://maps.google.com/?cid=0x0:0xe24d3bc6b34beadf";""
"supermarket";"Toko";"TOKO CEPAT LARIS";"Sumber Hidup, Kec. Pedamaran Tim., Kabupaten Ogan Komering Ilir, Sumatera Selatan 30672";"Kec. Pedamaran Tim., Kabupaten Ogan Komering Ilir";"SUMATERA SELATAN";"30672";"Indonesia";" 082211221818";"";"";"-3.5642775";"105.0800714";"https://maps.google.com/?cid=0x0:0x342d928a4b4b6b9";""
"supermarket";"Toko";"Toko nada";"C4H8+Q2W, Gading Raja, Kec. Pedamaran Tim., Kabupaten Ogan Komering Ilir, Sumatera Selatan 30672";"Gading Raja, Kec. Pedamaran Tim., Kabupaten Ogan Komering Ilir";"SUMATERA SELATAN";"30672";"Indonesia";" 085709802696";"";"";"-3.5705069";"105.1150886";"https://maps.google.com/?cid=0x0:0xbe19633e0c86e182";""
"supermarket";"Toko";"Toko Sucipto";"84VJ+6RJ, Mari Baya, Tim., Mari Baya, Kec. Pedamaran Tim., Kabupaten Ogan Komering Ilir, Sumatera Selatan 30681";"Mari Baya, Tim., Mari Baya, Kec. Pedamaran Tim., Kabupaten Ogan Komering Ilir";"SUMATERA SELATAN";"30681";"Indonesia";"";"";"";"-3.656922";"105.1320144";"https://maps.google.com/?cid=0x0:0x63da67e246e1d242";""
"supermarket";"Toko bahan makanan";"Toko Nasution";"C5W9+R52, Tim, Tj. Makmur, Kec. Pedamaran Tim., Kabupaten Ogan Komering Ilir, Sumatera Selatan 30672";"Tim, Tj. Makmur, Kec. Pedamaran Tim., Kabupaten Ogan Komering Ilir";"SUMATERA SELATAN";"30672";"Indonesia";" 082372757758";"";"";"-3.5529913";"105.1679057";"https://maps.google.com/?cid=0x0:0x868b77f00497db8";""
"supermarket";"Toko";"Toko gadis manis izzah  fatimah";"Dusun ix, saladuga, Kec. Pedamaran Tim., Kabupaten Ogan Komering Ilir, Sumatera Selatan 30672";"saladuga, Kec. Pedamaran Tim., Kabupaten Ogan Komering Ilir";"SUMATERA SELATAN";"30672";"Indonesia";" 082175487615";"";"";"-3.4976602";"105.1253357";"https://maps.google.com/?cid=0x0:0x99f0bc5551d466cb";""
"supermarket";"Toko bahan makanan";"Zahra Group";"GR2R+79Q, Unnamed Road, Menang Raya, Kec. Pedamaran, Kabupaten Ogan Komering Ilir, Sumatera Selatan 30672";"Unnamed Road, Menang Raya, Kec. Pedamaran, Kabupaten Ogan Komering Ilir";"SUMATERA SELATAN";"30672";"Indonesia";"";"";"";"-3.4992775";"104.8409971";"https://maps.google.com/?cid=0x0:0x10f908241dfd6d4";""
"supermarket";"Peternak";"GHEZA MURAI BATU BF";"F5F3+4GX, Pancawarna, Kec. Pedamaran Tim., Kabupaten Ogan Komering Ilir, Sumatera Selatan 30672";"Pancawarna, Kec. Pedamaran Tim., Kabupaten Ogan Komering Ilir";"SUMATERA SELATAN";"30672";"Indonesia";" 082282506439";"";"";"-3.5271454";"105.1538471";"https://maps.google.com/?cid=0x0:0x411e672bd3aa0ea9";""
"supermarket";"Toko Swalayan";"TOKO MANISAN EDI KAYU LABU";"C659+CFJ, Jl. Raya Kayulabu, Kayu Labu, Kec. Pedamaran Tim., Kabupaten Ogan Komering Ilir, Sumatera Selatan 30672";"Jl. Raya Kayulabu, Kayu Labu, Kec. Pedamaran Tim., Kabupaten Ogan Komering Ilir";"SUMATERA SELATAN";"30672";"Indonesia";" 082175034561";"";"";"-3.5914221";"105.2186446";"https://maps.google.com/?cid=0x0:0xab7f1051f115068d";""
"supermarket";"Pusat Perbelanjaan";"HENDRY CELL";"Unnamed Road, 30672, Lebuh Rarak, Kec. Pedamaran, Kabupaten Ogan Komering Ilir, Sumatera Selatan 30672";"30672, Lebuh Rarak, Kec. Pedamaran, Kabupaten Ogan Komering Ilir";"SUMATERA SELATAN";"30672";"Indonesia";"";"";"";"-3.490742";"104.840979";"https://maps.google.com/?cid=0x0:0x9feb36c08462afa";""
"supermarket";"Toko umum";"Warung Fahrul";"Kutaraya, Kec. Kayu Agung, Kabupaten Ogan Komering Ilir, Sumatera Selatan 30615";"Kec. Kayu Agung, Kabupaten Ogan Komering Ilir";"SUMATERA SELATAN";"30615";"Indonesia";"";"";"";"-3.3913688";"104.847653";"https://maps.google.com/?cid=0x0:0xd9b9848a66388c25";""
"supermarket";"Toko bahan makanan";"TOKO SRC ANA";"Jalan Utama Gapura No.SP 4, Tj. Makmur, Kec. Pedamaran Tim., Kabupaten Ogan Komering Ilir, Sumatera Selatan 30672";"Tj. Makmur, Kec. Pedamaran Tim., Kabupaten Ogan Komering Ilir";"SUMATERA SELATAN";"30672";"Indonesia";" 081278739185";"";"";"-3.5591951";"105.1655427";"https://maps.google.com/?cid=0x0:0xebdfad3cc4f1ec7";""
"supermarket";"Toko";"Warung Yosi";"F5F2+H48, Unnamed Road, Pancawarna, Kec. Pedamaran Tim., Kabupaten Ogan Komering Ilir, Sumatera Selatan 30672";"Unnamed Road, Pancawarna, Kec. Pedamaran Tim., Kabupaten Ogan Komering Ilir";"SUMATERA SELATAN";"30672";"Indonesia";" 081223143734";"";"";"-3.5260793";"105.1503216";"https://maps.google.com/?cid=0x0:0xbf9ac709daf7b3a3";""
"supermarket";"Pasar";"Pasar Sirah Pulau Padang";"PVFJ+PXM, Terate, Kec. Sirah Pulau Padang, Kabupaten Ogan Komering Ilir, Sumatera Selatan 30652";"Terate, Kec. Sirah Pulau Padang, Kabupaten Ogan Komering Ilir";"SUMATERA SELATAN";"30652";"Indonesia";"";"";"";"-3.2756725";"104.8824084";"https://maps.google.com/?cid=0x0:0x54f7a8e25d081962";""
"supermarket";"Minimarket";"Alfamart Sirah Pulau Padang";"Jl. Serdang Menang Rt. 01 Rw, Serdang Menang, Kec. Sirah Pulau Padang, Kabupaten Ogan Komering Ilir, Sumatera Selatan 30652";"Serdang Menang, Kec. Sirah Pulau Padang, Kabupaten Ogan Komering Ilir";"SUMATERA SELATAN";"30652";"Indonesia";" 1500959";"";"";"-3.269334";"104.875619";"https://maps.google.com/?cid=0x0:0x927236b35e090a15";""
"supermarket";"Toko bahan makanan";"Indomaret Sirah Pulau Padang";"PVJG+FH8, Serdang Menang, Kec. Sirah Pulau Padang, Kabupaten Ogan Komering Ilir, Sumatera Selatan 30652";"Serdang Menang, Kec. Sirah Pulau Padang, Kabupaten Ogan Komering Ilir";"SUMATERA SELATAN";"30652";"Indonesia";"";"";"";"-3.2688321";"104.8764408";"https://maps.google.com/?cid=0x0:0xd48bd9247241a039";""
"supermarket";"Minimarket";"Indomaret SP Padang 2";"PV7G+QJ3, Terusan Menang, Kec. Sirah Pulau Padang, Kabupaten Ogan Komering Ilir, Sumatera Selatan 30652";"Terusan Menang, Kec. Sirah Pulau Padang, Kabupaten Ogan Komering Ilir";"SUMATERA SELATAN";"30652";"Indonesia";"";"";"";"-3.2856239";"104.8765437";"https://maps.google.com/?cid=0x0:0x67caa8c4df8c4519";""
"supermarket";"Toko Makanan";"Warung Ibuk Lokai";"Jl. Raya Desa Awal Terusan No.182, Awal Terusan, Kec. Sirah Pulau Padang, Kabupaten Ogan Komering Ilir, Sumatera Selatan 30652";"Awal Terusan, Kec. Sirah Pulau Padang, Kabupaten Ogan Komering Ilir";"SUMATERA SELATAN";"30652";"Indonesia";" 081219140996";"";"";"-3.2950841";"104.8394022";"https://maps.google.com/?cid=0x0:0xe7b045625d015827";""
"supermarket";"";"Toko WIWIT";"MVPJ+5PP, Jl. Letnan Muchtar Saleh, Ulak Jermun, Kec. Sirah Pulau Padang, Kabupaten Ogan Komering Ilir, Sumatera Selatan 30652";"Jl. Letnan Muchtar Saleh, Ulak Jermun, Kec. Sirah Pulau Padang, Kabupaten Ogan Komering Ilir";"SUMATERA SELATAN";"30652";"Indonesia";"";"";"";"-3.3145255";"104.8818303";"https://maps.google.com/?cid=0x0:0x3d650dcf13b93495";""
"supermarket";"Kantor Perusahaan";"JNE Sirah Pulau Padang";"PVJG+8H8, Serdang Menang, Kec. Sirah Pulau Padang, Kabupaten Ogan Komering Ilir, Sumatera Selatan 30652";"Serdang Menang, Kec. Sirah Pulau Padang, Kabupaten Ogan Komering Ilir";"SUMATERA SELATAN";"30652";"Indonesia";"";"";"";"-3.2692024";"104.8764395";"https://maps.google.com/?cid=0x0:0x867d3e0daa035420";""
"supermarket";"Toko";"Toko Along";"PVCH+QJ5, Unnamed Road, Terate, Kec. Sirah Pulau Padang, Kabupaten Ogan Komering Ilir, Sumatera Selatan 30652";"Unnamed Road, Terate, Kec. Sirah Pulau Padang, Kabupaten Ogan Komering Ilir";"SUMATERA SELATAN";"30652";"Indonesia";"";"";"";"-3.2781219";"104.8791074";"https://maps.google.com/?cid=0x0:0xb38c55d226e344b5";""
"supermarket";"Penggilingan";"Rahmat Ikan Giling";"PVHJ+CJC, Rengas Pitu, Kec. Sirah Pulau Padang, Kabupaten Ogan Komering Ilir, Sumatera Selatan 30652";"Rengas Pitu, Kec. Sirah Pulau Padang, Kabupaten Ogan Komering Ilir";"SUMATERA SELATAN";"30652";"Indonesia";" 082372122166";"";"";"-3.271428";"104.88153";"https://maps.google.com/?cid=0x0:0x40850728e269e094";""
"supermarket";"Toko Swalayan";"toko sayuran agus salim";"RT 08, Ulak Jermun, Kec. Sirah Pulau Padang, Kabupaten Ogan Komering Ilir, Sumatera Selatan 30652";"Ulak Jermun, Kec. Sirah Pulau Padang, Kabupaten Ogan Komering Ilir";"SUMATERA SELATAN";"30652";"Indonesia";"";"";"";"-3.313143";"104.8858854";"https://maps.google.com/?cid=0x0:0x20bcbd2aa36ea0c3";""
"supermarket";"Toko sembako pemerintah";"Resi";"PV5F+QV6, Terusan Menang, Kec. Sirah Pulau Padang, Kabupaten Ogan Komering Ilir, Sumatera Selatan 30652";"Terusan Menang, Kec. Sirah Pulau Padang, Kabupaten Ogan Komering Ilir";"SUMATERA SELATAN";"30652";"Indonesia";"";"";"";"-3.2905908";"104.8746508";"https://maps.google.com/?cid=0x0:0x47508b88193a1109";""
"supermarket";"Toko Swalayan";"Toko Pak Raja";"jl.laut, Dusun.1, Serinanti, Kec. Pedamaran, Kabupaten Ogan Komering Ilir, Sumatera Selatan 30672";"Dusun.1, Serinanti, Kec. Pedamaran, Kabupaten Ogan Komering Ilir";"SUMATERA SELATAN";"30672";"Indonesia";" 082182308833";"";"";"-3.4621113";"104.8305411";"https://maps.google.com/?cid=0x0:0x928ba2b3d9161eff";""
"supermarket";"Toko Swalayan";"Toko Dedek";"MVPM+Q6J, Jl. Letnan Muchtar Saleh, Ulak Jermun, Kec. Sirah Pulau Padang, Kabupaten Ogan Komering Ilir, Sumatera Selatan 30652";"Jl. Letnan Muchtar Saleh, Ulak Jermun, Kec. Sirah Pulau Padang, Kabupaten Ogan Komering Ilir";"SUMATERA SELATAN";"30652";"Indonesia";" 082375573435";"";"";"-3.3130477";"104.8830035";"https://maps.google.com/?cid=0x0:0x18b59392244bee97";""
"supermarket";"Toko Swalayan";"Toko Edijohan";"MVHM+9GR, Ulak Jermun, Kec. Sirah Pulau Padang, Kabupaten Ogan Komering Ilir, Sumatera Selatan 30652";"Ulak Jermun, Kec. Sirah Pulau Padang, Kabupaten Ogan Komering Ilir";"SUMATERA SELATAN";"30652";"Indonesia";"";"";"";"-3.3215106";"104.8837809";"https://maps.google.com/?cid=0x0:0xbdb9fd6e524a125a";""
"supermarket";"supermarket";"Sirah Pulau Padang";"Kec. Sirah Pulau Padang, Kabupaten Ogan Komering Ilir, Sumatera Selatan";"Kabupaten Ogan Komering Ilir, Sumatera Selatan";"SUMATERA SELATAN";"";"Indonesia";"";"";"";"-3.2723314";"104.8731913";"https://maps.google.com/?cid=0x0:0x3f15ec0e44ba6395";""
"supermarket";"Pasokan Pabrik Makanan";"Pabrik Aco";"PVVV+64V, Penyandingan, Kec. Sirah Pulau Padang, Kabupaten Ogan Komering Ilir, Sumatera Selatan 30652";"Penyandingan, Kec. Sirah Pulau Padang, Kabupaten Ogan Komering Ilir";"SUMATERA SELATAN";"30652";"Indonesia";"";"";"";"-3.2568979";"104.8927919";"https://maps.google.com/?cid=0x0:0xf21dc10b63a753bd";""
"supermarket";"supermarket";"Sumatera Selatan 30681";"Kabupaten Ogan Komering Ilir, Sumatera Selatan";"Kabupaten Ogan Komering Ilir, Sumatera Selatan";"SUMATERA SELATAN";"";"Indonesia";"";"";"";"-3.7261778";"105.4536718";"https://maps.google.com/?cid=0x0:0x23a0d630a69c1443";""
"supermarket";"Toko Swalayan";"Mini Market Toserba rahmat Diesel";"78GQ+385, Sungai Menang, Kec. Sungai Menang, Kabupaten Ogan Komering Ilir, Sumatera Selatan 34598";"Sungai Menang, Kec. Sungai Menang, Kabupaten Ogan Komering Ilir";"SUMATERA SELATAN";"34598";"Indonesia";" 087767517903";"";"";"-3.7248517";"105.3383742";"https://maps.google.com/?cid=0x0:0x7347960d1b2edc80";""
"supermarket";"Toko umum";"Toko Gerald";"78MP+5VP, Sungai Menang, Kec. Sungai Menang, Kabupaten Ogan Komering Ilir, Sumatera Selatan 30681";"Sungai Menang, Kec. Sungai Menang, Kabupaten Ogan Komering Ilir";"SUMATERA SELATAN";"30681";"Indonesia";" 081371138069";"";"";"-3.7170342";"105.3371903";"https://maps.google.com/?cid=0x0:0xc4fed0e33cb2f9c0";""
"supermarket";"Pusat Perbelanjaan";"Toko Manisan Prasetya";"Sidomulyo, Kec. Sungai Menang, Kabupaten Ogan Komering Ilir, Sumatera Selatan 30681";"Kec. Sungai Menang, Kabupaten Ogan Komering Ilir";"SUMATERA SELATAN";"30681";"Indonesia";" 082372252627";"";"";"-3.6129412";"105.2535063";"https://maps.google.com/?cid=0x0:0x2b564b44bb6a19fd";""
"supermarket";"Toko Perlengkapan Rumah";"Toko Delia Unit 3 Makarti Mulya";"Makarti Mulya, Kec. Mesuji, Kabupaten Ogan Komering Ilir, Sumatera Selatan 30681";"Kec. Mesuji, Kabupaten Ogan Komering Ilir";"SUMATERA SELATAN";"30681";"Indonesia";"";"";"";"-3.891987";"105.1124517";"https://maps.google.com/?cid=0x0:0x233d2b07bfcf6649";""
"supermarket";"Toko Swalayan";"Sungai menang";"78GP+8HH, Sungai Menang, Kec. Sungai Menang, Kabupaten Ogan Komering Ilir, Sumatera Selatan 34598";"Sungai Menang, Kec. Sungai Menang, Kabupaten Ogan Komering Ilir";"SUMATERA SELATAN";"34598";"Indonesia";"";"";"";"-3.7241939";"105.3364749";"https://maps.google.com/?cid=0x0:0x3566810229120a55";""
"supermarket";"Pusat Perbelanjaan";"Capah Smart";"Infra 65 Bumi Pratama Mandira Palembang, Kec. Sungai Menang, Kabupaten Ogan Komering Ilir, Sumatera Selatan";"Kabupaten Ogan Komering Ilir, Sumatera Selatan";"SUMATERA SELATAN";"";"Indonesia";" 089691828998";"";"";"-4.0492534";"105.7790432";"https://maps.google.com/?cid=0x0:0xe7c082d65067f4f1";""
"supermarket";"Toko";"TOKO SAHABAT RICHE ZAELANI";"73PG+J23, Kerta Mukti, Kec. Mesuji Raya, Kabupaten Ogan Komering Ilir, Sumatera Selatan 30657";"Kerta Mukti, Kec. Mesuji Raya, Kabupaten Ogan Komering Ilir";"SUMATERA SELATAN";"30657";"Indonesia";" 081350687898";"";"";"-3.7134854";"105.0750544";"https://maps.google.com/?cid=0x0:0xf7072db69ec948ac";""
"supermarket";"Toko bahan makanan";"Toko Bu Tinah";"9993+WR7, Harapan Jaya, Kec. Sungai Menang, Kabupaten Ogan Komering Ilir, Sumatera Selatan 30681";"Harapan Jaya, Kec. Sungai Menang, Kabupaten Ogan Komering Ilir";"SUMATERA SELATAN";"30681";"Indonesia";"";"";"";"-3.628762";"105.3550096";"https://maps.google.com/?cid=0x0:0xae7643b55bfa2ad1";""
"supermarket";"Pasar";"Pasar SP 4 Harapan Jaya Sungai Menang";"Sungai Ceper, Kec. Sungai Menang, Kabupaten Ogan Komering Ilir, Sumatera Selatan 30681";"Kec. Sungai Menang, Kabupaten Ogan Komering Ilir";"SUMATERA SELATAN";"30681";"Indonesia";"";"";"";"-3.6744817";"105.5197361";"https://maps.google.com/?cid=0x0:0x48796d88259bf96a";""
"supermarket";"Toko umum";"Toko Anggis gumara";"722J+MCP, Suka Sari, Kec. Mesuji Raya, Kabupaten Ogan Komering Ilir, Sumatera Selatan 31657";"Suka Sari, Kec. Mesuji Raya, Kabupaten Ogan Komering Ilir";"SUMATERA SELATAN";"31657";"Indonesia";"";"";"";"-3.7482865";"105.0310815";"https://maps.google.com/?cid=0x0:0xf0f6efabd7e377d2";""
"supermarket";"Minimarket";"Toko Sheza";"Sungai Jeruju, Kec. Cengal, Kabupaten Ogan Komering Ilir, Sumatera Selatan 30658";"Kec. Cengal, Kabupaten Ogan Komering Ilir";"SUMATERA SELATAN";"30658";"Indonesia";"";"";"";"-3.5465494";"105.6160499";"https://maps.google.com/?cid=0x0:0xd32bc9af4cc529c8";""
"supermarket";"Toko Swalayan";"Toko WiWiK";"4447+WGC, Makarti Mulya, Kec. Mesuji, Kabupaten Ogan Komering Ilir, Sumatera Selatan 30681";"Makarti Mulya, Kec. Mesuji, Kabupaten Ogan Komering Ilir";"SUMATERA SELATAN";"30681";"Indonesia";"";"";"";"-3.8926868";"105.1137727";"https://maps.google.com/?cid=0x0:0xf30d17dd09bfcdc2";""
"supermarket";"Minimarket";"Zahra Collection Center";"modul 2. wahyuni, mandira. infra 33, Bumi Pratama Mandira, Kec. Sungai Menang, Kabupaten Ogan Komering Ilir, Sumatera Selatan 30681";"mandira. infra 33, Bumi Pratama Mandira, Kec. Sungai Menang, Kabupaten Ogan Komering Ilir";"SUMATERA SELATAN";"30681";"Indonesia";" 089510104619";"";"";"-4.0493845";"105.8064474";"https://maps.google.com/?cid=0x0:0xf4ce89528bcc0cad";""
"supermarket";"Toko";"Toko Sembako  Agen Mandiri Sulung";"32WM+X72, Suka Mulya, Kec. Lempuing, Kabupaten Ogan Komering Ilir, Sumatera Selatan";"Kabupaten Ogan Komering Ilir, Sumatera Selatan";"SUMATERA SELATAN";"";"Indonesia";"";"";"";"-3.9026066";"105.0331292";"https://maps.google.com/?cid=0x0:0xac88e87f138f6396";""
"supermarket";"Toko Swalayan";"Warung manisan Pak jenggot";"62CM+4FJ, Kemang Indah, Kec. Mesuji Raya, Kabupaten Ogan Komering Ilir, Sumatera Selatan";"Kabupaten Ogan Komering Ilir, Sumatera Selatan";"SUMATERA SELATAN";"";"Indonesia";"";"";"";"-3.7796509";"105.0336451";"https://maps.google.com/?cid=0x0:0xa3e05b600e385caa";""
"supermarket";"Toko";"Toko Kanian";"Blok G, Makarti Mulya, Kec. Mesuji, Kabupaten Ogan Komering Ilir, Sumatera Selatan 30681";"Makarti Mulya, Kec. Mesuji, Kabupaten Ogan Komering Ilir";"SUMATERA SELATAN";"30681";"Indonesia";" 082325717074";"";"";"-3.8880198";"105.114458";"https://maps.google.com/?cid=0x0:0x855456563e3144a1";""
"supermarket";"Pusat Perbelanjaan";"Toko sembako bik mar";"Dusun 3, Talang Jaya, Kec. Kayu Agung, Kabupaten Ogan Komering Ilir, Sumatera Selatan 30681";"Talang Jaya, Kec. Kayu Agung, Kabupaten Ogan Komering Ilir";"SUMATERA SELATAN";"30681";"Indonesia";" 085273044997";"";"";"-3.6401627";"105.3248269";"https://maps.google.com/?cid=0x0:0xa8d8ec6e87364a0d";""
"supermarket";"Toko bahan makanan";"Warung Sembako Seti Anas";"XX8M+7CG, Tegal Sari, Kec. Mesuji Makmur, Kabupaten Ogan Komering Ilir, Sumatera Selatan 30681";"Tegal Sari, Kec. Mesuji Makmur, Kabupaten Ogan Komering Ilir";"SUMATERA SELATAN";"30681";"Indonesia";"";"";"";"-4.0343196";"104.9835857";"https://maps.google.com/?cid=0x0:0x4de64bda26a4486a";""
"supermarket";"Toko Swalayan";"Toko Ayam Blok B";"blok b, Makarti Mulya, Kec. Mesuji, Kabupaten Ogan Komering Ilir, Sumatera Selatan 30681";"Makarti Mulya, Kec. Mesuji, Kabupaten Ogan Komering Ilir";"SUMATERA SELATAN";"30681";"Indonesia";" 082181669926";"";"";"-3.9168635";"105.101813";"https://maps.google.com/?cid=0x0:0x177d3156c5085c65";""
"supermarket";"Toko Swalayan";"ALFAMART MAKARTIMULYA";"Jl. Poros, Makarti Mulya, Kec. Mesuji, Kabupaten Ogan Komering Ilir, Sumatera Selatan 30681";"Makarti Mulya, Kec. Mesuji, Kabupaten Ogan Komering Ilir";"SUMATERA SELATAN";"30681";"Indonesia";" 1500959";"";"";"-3.9121459";"105.1039237";"https://maps.google.com/?cid=0x0:0xa262b8d98e9dea0";""
"supermarket";"Toko Swalayan";"Toko Puji";"4478+H4J, Unnamed Road, Makarti Mulya, Kec. Mesuji, Kabupaten Ogan Komering Ilir, Sumatera Selatan 30681";"Unnamed Road, Makarti Mulya, Kec. Mesuji, Kabupaten Ogan Komering Ilir";"SUMATERA SELATAN";"30681";"Indonesia";" 082343730621";"";"";"-3.8860385";"105.1152577";"https://maps.google.com/?cid=0x0:0x692f46b4706b7659";""
"supermarket";"Toko bahan makanan";"Alfamart";"Dusun Ii Ds. Sedyomulyo, RT.04/RW.02, Sedyo Mulyo, Mesuji, Kabupaten Ogan Komering Ilir, Sumatera Selatan 30681";"RT.04/RW.02, Sedyo Mulyo, Mesuji, Kabupaten Ogan Komering Ilir";"SUMATERA SELATAN";"30681";"Indonesia";" 1500959";"";"";"-3.655459";"105.0415806";"https://maps.google.com/?cid=0x0:0x1aedcf9f049b90c7";""
"supermarket";"Toko Swalayan";"Toko Kenzie";"2342+C93, Unnamed Road, Surya Adi, Kec. Mesuji, Kabupaten Ogan Komering Ilir, Sumatera Selatan 30681";"Unnamed Road, Surya Adi, Kec. Mesuji, Kabupaten Ogan Komering Ilir";"SUMATERA SELATAN";"30681";"Indonesia";"";"";"";"-3.9939885";"105.0509326";"https://maps.google.com/?cid=0x0:0x7a11f99b9974d4f2";""
"supermarket";"Minimarket";"TOKO TOMY CELL";"43C9+PH8, Karya Mukti, Kec. Mesuji, Kabupaten Ogan Komering Ilir, Sumatera Selatan 30681";"Karya Mukti, Kec. Mesuji, Kabupaten Ogan Komering Ilir";"SUMATERA SELATAN";"30681";"Indonesia";"";"";"";"-3.878203";"105.0689404";"https://maps.google.com/?cid=0x0:0x6907aa7cad08a4ea";""
"supermarket";"Toko Swalayan";"Toko Tiga Putra";"C5, Karya Mukti, Kec. Mesuji, Kabupaten Ogan Komering Ilir, Sumatera Selatan 30681";"Karya Mukti, Kec. Mesuji, Kabupaten Ogan Komering Ilir";"SUMATERA SELATAN";"30681";"Indonesia";" 082133440346";"";"";"-3.8785436";"105.0696165";"https://maps.google.com/?cid=0x0:0x766487e55209d3c4";""
"supermarket";"Toko Bumbu";"Warung Mak Put";"734H+VJX, Rotan Mulya, Kec. Mesuji Raya, Kabupaten Ogan Komering Ilir, Sumatera Selatan 31657";"Rotan Mulya, Kec. Mesuji Raya, Kabupaten Ogan Komering Ilir";"SUMATERA SELATAN";"31657";"Indonesia";"";"";"";"-3.742774";"105.0791031";"https://maps.google.com/?cid=0x0:0xaab04e9bc20563e3";""
"supermarket";"Toko bahan makanan";"Toko Tin";"Sungai Jeruju, Kec. Cengal, Kabupaten Ogan Komering Ilir, Sumatera Selatan 30658";"Kec. Cengal, Kabupaten Ogan Komering Ilir";"SUMATERA SELATAN";"30658";"Indonesia";"";"";"";"-3.5462301";"105.6161151";"https://maps.google.com/?cid=0x0:0x3a6e07dbb792b39c";""
"supermarket";"supermarket";"Sumatera Selatan 30671";"Kec. Tj. Lubuk, Kabupaten Ogan Komering Ilir, Sumatera Selatan";"Kabupaten Ogan Komering Ilir, Sumatera Selatan";"SUMATERA SELATAN";"";"Indonesia";"";"";"";"-3.6019521";"104.6821048";"https://maps.google.com/?cid=0x0:0x9e41916af579446b";""
"supermarket";"Minimarket";"Alfamart Tanjung Lubuk";"Jl. Lintas Komering, RT.9/RW.3, Tj. Lubuk, Kec. Tj. Lubuk, Kabupaten Ogan Komering Ilir, Sumatera Selatan 30671";"RT.9/RW.3, Tj. Lubuk, Kec. Tj. Lubuk, Kabupaten Ogan Komering Ilir";"SUMATERA SELATAN";"30671";"Indonesia";" 1500959";"";"";"-3.5318906";"104.7575904";"https://maps.google.com/?cid=0x0:0xee937faf555ec189";""
"supermarket";"Toko Swalayan";"Indomaret Tanjung Lubuk";"Jl. Raya Pasar Tanjung Lubuk, Tanjung Lubuk, Tanjung Lubuk, Seritanjung, OKI, Ogan Komering Ilir Regency, South Sumatra 30671";"Tanjung Lubuk, Tanjung Lubuk, Seritanjung, OKI, Ogan Komering Ilir Regency";"SUMATERA SELATAN";"30671";"Indonesia";" 0816500580";"";"";"-3.53034";"104.7578872";"https://maps.google.com/?cid=0x0:0x328d96e65bebf289";""
"supermarket";"Minimarket";"Alfamart";"Jl. Lintas Sumatra No.Rt. 04, Kp. 04, Kec. Tj. Lubuk, Kabupaten Ogan Komering Ilir, Sumatera Selatan 30671";"Kp. 04, Kec. Tj. Lubuk, Kabupaten Ogan Komering Ilir";"SUMATERA SELATAN";"30671";"Indonesia";" 1500959";"";"";"-3.4845272";"104.8031347";"https://maps.google.com/?cid=0x0:0x8969cbaa44884f9d";""
"supermarket";"Minimarket";"Alfamart";"Jl. Lintas Sumatra, Dusun I, Seriguna, Kec. Tlk. Gelam, Kabupaten Ogan Komering Ilir, Sumatera Selatan 30671";"Dusun I, Seriguna, Kec. Tlk. Gelam, Kabupaten Ogan Komering Ilir";"SUMATERA SELATAN";"30671";"Indonesia";" 1500959";"";"";"-3.4932872";"104.8089914";"https://maps.google.com/?cid=0x0:0x951ccdbb606b2547";""
"supermarket";"Toko Bahan Bangunan";"Lope";"CQXW+G3V, Seriguna, Kec. Tlk. Gelam, Kabupaten Ogan Komering Ilir, Sumatera Selatan 30673";"Seriguna, Kec. Tlk. Gelam, Kabupaten Ogan Komering Ilir";"SUMATERA SELATAN";"30673";"Indonesia";"";"";"";"-3.5511332";"104.7951789";"https://maps.google.com/?cid=0x0:0xf8995eeacdbb8535";""
"supermarket";"Minimarket";"Indomaret Sriguna Kayu Agung";"FR62+J7P, Seriguna, Kec. Tlk. Gelam, Kabupaten Ogan Komering Ilir, Sumatera Selatan 30673";"Seriguna, Kec. Tlk. Gelam, Kabupaten Ogan Komering Ilir";"SUMATERA SELATAN";"30673";"Indonesia";"";"";"";"-3.538655";"104.8006999";"https://maps.google.com/?cid=0x0:0xc17a0e3edde6d630";""
"supermarket";"Minimarket";"Alfamart Tanjung Lubuk";"Jl. Lintas Sumatra, Tj. Lubuk, Kec. Indralaya Sel., Kabupaten Ogan Ilir, Sumatera Selatan 30862";"Tj. Lubuk, Kec. Indralaya Sel., Kabupaten Ogan Ilir";"SUMATERA SELATAN";"30862";"Indonesia";" 1500959";"";"";"-3.2951432";"104.6898173";"https://maps.google.com/?cid=0x0:0x7abbe2350d696c22";""
"supermarket";"Toko bahan makanan";"Rumah Febri Cilik (FC)";"FR76+PR7, Unnamed Road, Suka Pulih, Kec. Pedamaran, Kabupaten Ogan Komering Ilir, Sumatera Selatan 30672";"Unnamed Road, Suka Pulih, Kec. Pedamaran, Kabupaten Ogan Komering Ilir";"SUMATERA SELATAN";"30672";"Indonesia";" 085788575534";"";"";"-3.5357196";"104.8120393";"https://maps.google.com/?cid=0x0:0x48e06c73edc51aa0";""
"supermarket";"Minimarket";"Alfamart";"Jl. Raya Lubuk Keliat Rt. 09, Dusun. V, Tj. Lubuk, Indralaya Sel., Kabupaten Ogan Ilir, Sumatera Selatan 30862";"Dusun. V, Tj. Lubuk, Indralaya Sel., Kabupaten Ogan Ilir";"SUMATERA SELATAN";"30862";"Indonesia";" 1500959";"";"";"-3.4398812";"104.6734206";"https://maps.google.com/?cid=0x0:0x8ee9b5c9b0bfea78";""
"supermarket";"Toko Swalayan";"Hortinimart";"HM48+5GP, Unnamed Road, Ketiau, Kec. Lubuk Keliat, Kabupaten Ogan Ilir, Sumatera Selatan 30868";"Unnamed Road, Ketiau, Kec. Lubuk Keliat, Kabupaten Ogan Ilir";"SUMATERA SELATAN";"30868";"Indonesia";"";"";"";"-3.4445337";"104.6663286";"https://maps.google.com/?cid=0x0:0xfe53982e083b1508";""
"supermarket";"Toko Swalayan";"SRC";"jln talang semut 2. OKI 30672, Pedamaran II, Kec. Pedamaran, Kabupaten Ogan Komering Ilir, Sumatera Selatan 30672";"Pedamaran II, Kec. Pedamaran, Kabupaten Ogan Komering Ilir";"SUMATERA SELATAN";"30672";"Indonesia";"";"";"";"-3.4868752";"104.8357618";"https://maps.google.com/?cid=0x0:0x156336cd8f53c4b6";""
"supermarket";"Toko bahan makanan";"TOKO EVI RUSTAM";"CQR7+8VH, Serapek, Kec. Tlk. Gelam, Kabupaten Ogan Komering Ilir, Sumatera Selatan 30673";"Serapek, Kec. Tlk. Gelam, Kabupaten Ogan Komering Ilir";"SUMATERA SELATAN";"30673";"Indonesia";"";"";"";"-3.5591975";"104.7647422";"https://maps.google.com/?cid=0x0:0xc1fbd9639542ccf0";""
"supermarket";"Toko umum";"OMI KU.CIMA Minimarket";"HM6C+JGH, Ketiau, Kec. Lubuk Keliat, Kabupaten Ogan Ilir, Sumatera Selatan 30868";"Ketiau, Kec. Lubuk Keliat, Kabupaten Ogan Ilir";"SUMATERA SELATAN";"30868";"Indonesia";"";"";"";"-3.4384386";"104.671347";"https://maps.google.com/?cid=0x0:0x605dbcf53663feb5";""
"supermarket";"Pusat Perbelanjaan";"Toko pak dika surmin 3D";"Jembatan Seriguna, Unnamed Road, Penyandingan, Kec. Tlk. Gelam, Kabupaten Ogan Komering Ilir, Sumatera Selatan 30673";"Unnamed Road, Penyandingan, Kec. Tlk. Gelam, Kabupaten Ogan Komering Ilir";"SUMATERA SELATAN";"30673";"Indonesia";"";"";"";"-3.4947529";"104.7970468";"https://maps.google.com/?cid=0x0:0xcbd9bc37aad8422c";""
"supermarket";"Toko Swalayan";"Toko Mahiro";"MM73+PV3, Limbang Jaya II, Kec. Tj. Batu, Kabupaten Ogan Ilir, Sumatera Selatan 30664";"Limbang Jaya II, Kec. Tj. Batu, Kabupaten Ogan Ilir";"SUMATERA SELATAN";"30664";"Indonesia";" 082177766510";"";"";"-3.3357377";"104.6546632";"https://maps.google.com/?cid=0x0:0x3552bcf3f6c93e7e";""
"supermarket";"Toko Swalayan";"Toko Pak Raja";"jl.laut, Dusun.1, Serinanti, Kec. Pedamaran, Kabupaten Ogan Komering Ilir, Sumatera Selatan 30672";"Dusun.1, Serinanti, Kec. Pedamaran, Kabupaten Ogan Komering Ilir";"SUMATERA SELATAN";"30672";"Indonesia";" 082182308833";"";"";"-3.4621113";"104.8305411";"https://maps.google.com/?cid=0x0:0x928ba2b3d9161eff";""
"supermarket";"Toko Perlengkapan Rumah";"Toko Zaini";"CR35+2V8, block c, Mulya Guna, Kec. Tlk. Gelam, Kabupaten Ogan Komering Ilir, Sumatera Selatan 30673";"block c, Mulya Guna, Kec. Tlk. Gelam, Kabupaten Ogan Komering Ilir";"SUMATERA SELATAN";"30673";"Indonesia";" 081379515878";"";"";"-3.5974725";"104.8096966";"https://maps.google.com/?cid=0x0:0xdf1514a2a8471459";""
"supermarket";"supermarket";"Sumatera Selatan 30673";"Kec. Tlk. Gelam, Kabupaten Ogan Komering Ilir, Sumatera Selatan";"Kabupaten Ogan Komering Ilir, Sumatera Selatan";"SUMATERA SELATAN";"";"Indonesia";"";"";"";"-3.5707741";"104.7871004";"https://maps.google.com/?cid=0x0:0x295099472c44fef";""
"supermarket";"Minimarket";"Alfamart";"Jl. Lintas Sumatra, Dusun I, Seriguna, Kec. Tlk. Gelam, Kabupaten Ogan Komering Ilir, Sumatera Selatan 30671";"Dusun I, Seriguna, Kec. Tlk. Gelam, Kabupaten Ogan Komering Ilir";"SUMATERA SELATAN";"30671";"Indonesia";" 1500959";"";"";"-3.4932872";"104.8089914";"https://maps.google.com/?cid=0x0:0x951ccdbb606b2547";""
"supermarket";"Toko Swalayan";"Alfamart Mulya Guna";"CR25+MV4, Jl. Lintas Sumatra, RT.001/RW.003, Mulya Guna, Kec. Tlk. Gelam, Kabupaten Ogan Komering Ilir, Sumatera Selatan 30671";"Jl. Lintas Sumatra, RT.001/RW.003, Mulya Guna, Kec. Tlk. Gelam, Kabupaten Ogan Komering Ilir";"SUMATERA SELATAN";"30671";"Indonesia";" 1500959";"";"";"-3.5972116";"104.8100206";"https://maps.google.com/?cid=0x0:0x27a890b434fafa66";""
"supermarket";"Toko Bahan Bangunan";"Lope";"CQXW+G3V, Seriguna, Kec. Tlk. Gelam, Kabupaten Ogan Komering Ilir, Sumatera Selatan 30673";"Seriguna, Kec. Tlk. Gelam, Kabupaten Ogan Komering Ilir";"SUMATERA SELATAN";"30673";"Indonesia";"";"";"";"-3.5511332";"104.7951789";"https://maps.google.com/?cid=0x0:0xf8995eeacdbb8535";""
"supermarket";"Toko bahan makanan";"TOKO FAMILY";"9RQ8+H3H, Jl. Lintas Sumatra, Sukamaju, Kec. Tlk. Gelam, Kabupaten Ogan Komering Ilir, Sumatera Selatan 30657";"Jl. Lintas Sumatra, Sukamaju, Kec. Tlk. Gelam, Kabupaten Ogan Komering Ilir";"SUMATERA SELATAN";"30657";"Indonesia";" 082178059991";"";"";"-3.6110625";"104.8152387";"https://maps.google.com/?cid=0x0:0xc10121f35a59571a";""
"supermarket";"Toko bahan makanan";"Toko Manisan Amir";"GRC3+5F6, Tlk., Ulak Ketapang, Kec. Tlk. Gelam, Kabupaten Ogan Komering Ilir, Sumatera Selatan 30867";"Tlk., Ulak Ketapang, Kec. Tlk. Gelam, Kabupaten Ogan Komering Ilir";"SUMATERA SELATAN";"30867";"Indonesia";" 081273371666";"";"";"-3.4795921";"104.8036275";"https://maps.google.com/?cid=0x0:0xb83fecc140519c23";""
"supermarket";"Toko Perlengkapan Rumah";"Toko Zaini";"CR35+2V8, block c, Mulya Guna, Kec. Tlk. Gelam, Kabupaten Ogan Komering Ilir, Sumatera Selatan 30673";"block c, Mulya Guna, Kec. Tlk. Gelam, Kabupaten Ogan Komering Ilir";"SUMATERA SELATAN";"30673";"Indonesia";" 081379515878";"";"";"-3.5974725";"104.8096966";"https://maps.google.com/?cid=0x0:0xdf1514a2a8471459";""
"supermarket";"Toko bahan makanan";"TOKO EVI RUSTAM";"CQR7+8VH, Serapek, Kec. Tlk. Gelam, Kabupaten Ogan Komering Ilir, Sumatera Selatan 30673";"Serapek, Kec. Tlk. Gelam, Kabupaten Ogan Komering Ilir";"SUMATERA SELATAN";"30673";"Indonesia";"";"";"";"-3.5591975";"104.7647422";"https://maps.google.com/?cid=0x0:0xc1fbd9639542ccf0";""
"supermarket";"Toko Perlengkapan Rumah";"Warung bu yuli";"9RX9+RGG, Unnamed Road, Mulya Guna, Teluk Gelam, Ogan Komering Ilir Regency, South Sumatra 30657";"Unnamed Road, Mulya Guna, Teluk Gelam, Ogan Komering Ilir Regency";"SUMATERA SELATAN";"30657";"Indonesia";"";"";"";"-3.6004357";"104.8188274";"https://maps.google.com/?cid=0x0:0x42edcfe16ff3926d";""
"supermarket";"supermarket";"Toko mama Totalu";"9RX5+8J7, Mulya Guna, Kec. Tlk. Gelam, Kabupaten Ogan Komering Ilir, Sumatera Selatan 30673";"Mulya Guna, Kec. Tlk. Gelam, Kabupaten Ogan Komering Ilir";"SUMATERA SELATAN";"30673";"Indonesia";" 081278565371";"";"";"-3.6017065";"104.8090898";"https://maps.google.com/?cid=0x0:0xe4f5390c4a6f2cd5";""
"supermarket";"Minimarket";"Alfamart";"Jl. Lintas Sumatra No.Rt. 04, Kp. 04, Kec. Tj. Lubuk, Kabupaten Ogan Komering Ilir, Sumatera Selatan 30671";"Kp. 04, Kec. Tj. Lubuk, Kabupaten Ogan Komering Ilir";"SUMATERA SELATAN";"30671";"Indonesia";" 1500959";"";"";"-3.4845272";"104.8031347";"https://maps.google.com/?cid=0x0:0x8969cbaa44884f9d";""
"supermarket";"Pasar";"Indomaret Pasar Bunut";"Tlk., Jl. Lintas Sumatra No.16, Mulya Guna, Kec. Tlk. Gelam, Kabupaten Ogan Komering Ilir, Sumatera Selatan 30673";"Jl. Lintas Sumatra No.16, Mulya Guna, Kec. Tlk. Gelam, Kabupaten Ogan Komering Ilir";"SUMATERA SELATAN";"30673";"Indonesia";"";"";"";"-3.5960217";"104.8094845";"https://maps.google.com/?cid=0x0:0x1996c24ebdb9c99f";""
"supermarket";"Minimarket";"Indomaret Sriguna Kayu Agung";"FR62+J7P, Seriguna, Kec. Tlk. Gelam, Kabupaten Ogan Komering Ilir, Sumatera Selatan 30673";"Seriguna, Kec. Tlk. Gelam, Kabupaten Ogan Komering Ilir";"SUMATERA SELATAN";"30673";"Indonesia";"";"";"";"-3.538655";"104.8006999";"https://maps.google.com/?cid=0x0:0xc17a0e3edde6d630";""
"supermarket";"Grosir Perlengkapan Rumah Tangga";"Toko Lia";"CR25+RW3, Mulya Guna, Kec. Tlk. Gelam, Kabupaten Ogan Komering Ilir, Sumatera Selatan 30673";"Mulya Guna, Kec. Tlk. Gelam, Kabupaten Ogan Komering Ilir";"SUMATERA SELATAN";"30673";"Indonesia";"";"";"";"-3.5979858";"104.8097995";"https://maps.google.com/?cid=0x0:0xfb31e7cd8485bdd5";""
"supermarket";"Pusat Perbelanjaan";"Toko mulyani";"9RGC+X58, Unnamed Road, Rangkui Jaya, Mulya Guna, Kec. Tlk. Gelam, Kabupaten Ogan Komering Ilir, Sumatera Selatan 30657";"Unnamed Road, Rangkui Jaya, Mulya Guna, Kec. Tlk. Gelam, Kabupaten Ogan Komering Ilir";"SUMATERA SELATAN";"30657";"Indonesia";"";"";"";"-3.6225841";"104.8204467";"https://maps.google.com/?cid=0x0:0x30fe305d61cbd7d8";""
"supermarket";"Toko";"Toko Sembako Dewi";"CRM9+V3Q, Seriguna, Kec. Tlk. Gelam, Kabupaten Ogan Komering Ilir, Sumatera Selatan 30673";"Seriguna, Kec. Tlk. Gelam, Kabupaten Ogan Komering Ilir";"SUMATERA SELATAN";"30673";"Indonesia";"";"";"";"-3.5652901";"104.8177346";"https://maps.google.com/?cid=0x0:0x3572d335e464961a";""
"supermarket";"Toko bahan makanan";"TOKO DRP PUTRA TUNGGAL";"Jl. Lintas Sumatera No.ds, Panca Tunggal Benawa, Kec. Tlk. Gelam, Kabupaten Ogan Komering Ilir, Sumatera Selatan 30657";"Panca Tunggal Benawa, Kec. Tlk. Gelam, Kabupaten Ogan Komering Ilir";"SUMATERA SELATAN";"30657";"Indonesia";" 082372175051";"";"";"-3.7003359";"104.7931009";"https://maps.google.com/?cid=0x0:0x7e170dec297f1183";""
"supermarket";"Toko bahan makanan";"Toko marsya";"FQP9+RPW, Unnamed Road, Muara Telang, Kec. Tlk. Gelam, Kabupaten Ogan Komering Ilir, Sumatera Selatan 30671";"Unnamed Road, Muara Telang, Kec. Tlk. Gelam, Kabupaten Ogan Komering Ilir";"SUMATERA SELATAN";"30671";"Indonesia";"";"";"";"-3.512886";"104.769334";"https://maps.google.com/?cid=0x0:0x5001cbf91f474616";""
"supermarket";"Toko bahan makanan";"Rumah Febri Cilik (FC)";"FR76+PR7, Unnamed Road, Suka Pulih, Kec. Pedamaran, Kabupaten Ogan Komering Ilir, Sumatera Selatan 30672";"Unnamed Road, Suka Pulih, Kec. Pedamaran, Kabupaten Ogan Komering Ilir";"SUMATERA SELATAN";"30672";"Indonesia";" 085788575534";"";"";"-3.5357196";"104.8120393";"https://maps.google.com/?cid=0x0:0x48e06c73edc51aa0";""
"supermarket";"Toko Alat Tulis Kantor";"Warung pak parid";"8Q8H+P3Q, Sinar Harapan Mulya, Kec. Tlk. Gelam, Kabupaten Ogan Komering Ilir, Sumatera Selatan 30657";"Sinar Harapan Mulya, Kec. Tlk. Gelam, Kabupaten Ogan Komering Ilir";"SUMATERA SELATAN";"30657";"Indonesia";" 085273020410";"";"";"-3.6831513";"104.7777356";"https://maps.google.com/?cid=0x0:0xd102b47900a702f8";""
"supermarket";"Pasar";"PASAR TRADISIONAL TELUK GELAM";"Jl. Lintas Sumatra No.16, Mulya Guna, Kec. Tlk. Gelam, Kabupaten Ogan Komering Ilir, Sumatera Selatan 30673";"Mulya Guna, Kec. Tlk. Gelam, Kabupaten Ogan Komering Ilir";"SUMATERA SELATAN";"30673";"Indonesia";"";"";"";"-3.5962814";"104.8104162";"https://maps.google.com/?cid=0x0:0xd10489a2bec44fe5";""
"supermarket";"Minimarket";"Alfamart Tanjung Lubuk";"Jl. Lintas Komering, RT.9/RW.3, Tj. Lubuk, Kec. Tj. Lubuk, Kabupaten Ogan Komering Ilir, Sumatera Selatan 30671";"RT.9/RW.3, Tj. Lubuk, Kec. Tj. Lubuk, Kabupaten Ogan Komering Ilir";"SUMATERA SELATAN";"30671";"Indonesia";" 1500959";"";"";"-3.5318906";"104.7575904";"https://maps.google.com/?cid=0x0:0xee937faf555ec189";""
"supermarket";"supermarket";"Tulung Selapan";"Tulung Selapan Ilir, Kec. Tulung Selapan, Kabupaten Ogan Komering Ilir, Sumatera Selatan";"Kabupaten Ogan Komering Ilir, Sumatera Selatan";"SUMATERA SELATAN";"";"Indonesia";"";"";"";"-3.25";"105.316667";"https://maps.google.com/?cid=0x0:0x4039d80b220e9c0";""
"supermarket";"Toko";"Toko Zeno";"P8X6+26M, Tulung Selapan Ilir, Kec. Tulung Selapan, Kabupaten Ogan Komering Ilir, Sumatera Selatan 30655";"Tulung Selapan Ilir, Kec. Tulung Selapan, Kabupaten Ogan Komering Ilir";"SUMATERA SELATAN";"30655";"Indonesia";"";"";"";"-3.2524125";"105.3105577";"https://maps.google.com/?cid=0x0:0x965662af82954f47";""
"supermarket";"Minimarket";"Toko H.SusEdi";"Tulung Selapan Ilir, Tulung Selapan, Tulung Selapan Ilir, Kec. Tulung Selapan, Kabupaten Ogan Komering Ilir, Sumatera Selatan 30655";"Tulung Selapan, Tulung Selapan Ilir, Kec. Tulung Selapan, Kabupaten Ogan Komering Ilir";"SUMATERA SELATAN";"30655";"Indonesia";"";"";"";"-3.2546194";"105.3123796";"https://maps.google.com/?cid=0x0:0xc932956d6bcbd6af";""
"supermarket";"Toko bahan makanan";"Isi Ulang Air Najwa";"P8W7+H6J, Tulung Selapan Ilir, Kec. Tulung Selapan, Kabupaten Ogan Komering Ilir, Sumatera Selatan 30655";"Tulung Selapan Ilir, Kec. Tulung Selapan, Kabupaten Ogan Komering Ilir";"SUMATERA SELATAN";"30655";"Indonesia";" 08172885290";"";"";"-3.2535469";"105.3130169";"https://maps.google.com/?cid=0x0:0xfac9ff4d422c3d4e";""
"supermarket";"Toko Swalayan";"Hj.Sus iwan";"P8V7+V3C, Jl. Klp. Gacing, Tulung Selapan Ilir, Kec. Tulung Selapan, Kabupaten Ogan Komering Ilir, Sumatera Selatan 30655";"Jl. Klp. Gacing, Tulung Selapan Ilir, Kec. Tulung Selapan, Kabupaten Ogan Komering Ilir";"SUMATERA SELATAN";"30655";"Indonesia";" 081373176042";"";"";"-3.2553191";"105.3126558";"https://maps.google.com/?cid=0x0:0x40ea17fa6c13c943";""
"supermarket";"Pasar";"Pasar Tulung Selapan Ilir";"Tulung Selapan Ilir, Kec. Tulung Selapan, Kabupaten Ogan Komering Ilir, Sumatera Selatan 30655";"Kec. Tulung Selapan, Kabupaten Ogan Komering Ilir";"SUMATERA SELATAN";"30655";"Indonesia";"";"";"";"-3.2560176";"105.3120332";"https://maps.google.com/?cid=0x0:0xb9be181f92d41cf9";""
"supermarket";"Tempat Pencucian Mobil";"Cucian Steim H Matnata Jambul.";"Q836+WQ9, Unnamed Road, Tulung Selapan Ulu, Kec. Tulung Selapan, Kabupaten Ogan Komering Ilir, Sumatera Selatan 30655";"Unnamed Road, Tulung Selapan Ulu, Kec. Tulung Selapan, Kabupaten Ogan Komering Ilir";"SUMATERA SELATAN";"30655";"Indonesia";" 087796396330";"";"";"-3.2452052";"105.3119888";"https://maps.google.com/?cid=0x0:0xb1dc675cfadd6201";""
"supermarket";"Minimarket";"Indomaret Tulung Selapan Ulu";"Jl. Depati Baridun No.2, Tulung Selapan Ulu, Kec. Tulung Selapan, Kabupaten Ogan Komering Ilir, Sumatera Selatan 30655";"Tulung Selapan Ulu, Kec. Tulung Selapan, Kabupaten Ogan Komering Ilir";"SUMATERA SELATAN";"30655";"Indonesia";"";"";"";"-3.2442761";"105.3118009";"https://maps.google.com/?cid=0x0:0xe58a022f90179859";""
"supermarket";"Toko umum";"UB Barokah Tulung Selapan";"Q828+5F8, Jl. H. Bandarsyah, Tulung Selapan Ilir, Kec. Tulung Selapan, Kabupaten Ogan Komering Ilir, Sumatera Selatan 30655";"Jl. H. Bandarsyah, Tulung Selapan Ilir, Kec. Tulung Selapan, Kabupaten Ogan Komering Ilir";"SUMATERA SELATAN";"30655";"Indonesia";"";"";"";"-3.249585";"105.3162035";"https://maps.google.com/?cid=0x0:0xc62705ed8ed9086b";""
"supermarket";"Toko";"Toko Dian Rahman";"P8W7+744, Jl. Klp. Gacing, Tulung Selapan Ilir, Kec. Tulung Selapan, Kabupaten Ogan Komering Ilir, Sumatera Selatan 30655";"Jl. Klp. Gacing, Tulung Selapan Ilir, Kec. Tulung Selapan, Kabupaten Ogan Komering Ilir";"SUMATERA SELATAN";"30655";"Indonesia";"";"";"";"-3.254369";"105.3128228";"https://maps.google.com/?cid=0x0:0x33867216ad03d459";""
"supermarket";"Toko";"SRC indri";"Petaling, Kec. Tulung Selapan, Kabupaten Ogan Komering Ilir, Sumatera Selatan 30655";"Kec. Tulung Selapan, Kabupaten Ogan Komering Ilir";"SUMATERA SELATAN";"30655";"Indonesia";"";"";"";"-3.2473692";"105.3070257";"https://maps.google.com/?cid=0x0:0x509188fdceee938a";""
"supermarket";"Pusat Perbelanjaan";"Toko Paet";"P8W8+98H, Tulung Selapan Ilir, Kec. Tulung Selapan, Kabupaten Ogan Komering Ilir, Sumatera Selatan 30655";"Tulung Selapan Ilir, Kec. Tulung Selapan, Kabupaten Ogan Komering Ilir";"SUMATERA SELATAN";"30655";"Indonesia";"";"";"";"-3.254062";"105.3158701";"https://maps.google.com/?cid=0x0:0x2de8bd9cb2689150";""
"supermarket";"Toko bahan makanan";"Indomaret Tulung Selapan";"P8W7+MFQ, Tulung Selapan Ilir, Kec. Tulung Selapan, Kabupaten Ogan Komering Ilir, Sumatera Selatan 30655";"Tulung Selapan Ilir, Kec. Tulung Selapan, Kabupaten Ogan Komering Ilir";"SUMATERA SELATAN";"30655";"Indonesia";"";"";"";"-3.2532839";"105.3137275";"https://maps.google.com/?cid=0x0:0x2505d0b1c0473ea7";""
"supermarket";"Kantor Perusahaan";"Agen Pupuk Sawit Nasa Di Lampung Sumatera";"P948+V36, Tulung Selapan Ilir, Kec. Tulung Selapan, Kabupaten Ogan Komering Ilir, Sumatera Selatan 30655";"Tulung Selapan Ilir, Kec. Tulung Selapan, Kabupaten Ogan Komering Ilir";"SUMATERA SELATAN";"30655";"Indonesia";" 081806733108";"";"";"-3.292826";"105.3651255";"https://maps.google.com/?cid=0x0:0x8d738a73f80e0a8d";""
"supermarket";"Toko bahan makanan";"Toko pak yuger";"R7PP+7RJ, Lebung Itam, Kec. Tulung Selapan, Kabupaten Ogan Komering Ilir, Sumatera Selatan 30655";"Lebung Itam, Kec. Tulung Selapan, Kabupaten Ogan Komering Ilir";"SUMATERA SELATAN";"30655";"Indonesia";"";"";"";"-3.164294";"105.2870291";"https://maps.google.com/?cid=0x0:0x50f03cffea6c5447";""
"supermarket";"supermarket";"Sumatera Selatan 30664";"Kabupaten Ogan Ilir, Sumatera Selatan";"Kabupaten Ogan Ilir, Sumatera Selatan";"SUMATERA SELATAN";"";"Indonesia";"";"";"";"-3.3674791";"104.6354631";"https://maps.google.com/?cid=0x0:0xf90e263a72ef0def";""
"supermarket";"Toko";"Toko Zeno";"P8X6+26M, Tulung Selapan Ilir, Kec. Tulung Selapan, Kabupaten Ogan Komering Ilir, Sumatera Selatan 30655";"Tulung Selapan Ilir, Kec. Tulung Selapan, Kabupaten Ogan Komering Ilir";"SUMATERA SELATAN";"30655";"Indonesia";"";"";"";"-3.2524125";"105.3105577";"https://maps.google.com/?cid=0x0:0x965662af82954f47";""
"supermarket";"Minimarket";"Alfamart Tulung Selapan Ilir";"Jl. Raya Dusun 3, RT.12/RW.02, Tulung Selapan Ilir, Kec. Tulung Selapan, Kabupaten Ogan Komering Ilir, Sumatera Selatan 30655";"RT.12/RW.02, Tulung Selapan Ilir, Kec. Tulung Selapan, Kabupaten Ogan Komering Ilir";"SUMATERA SELATAN";"30655";"Indonesia";" 1500959";"";"";"-3.2535402";"105.3114655";"https://maps.google.com/?cid=0x0:0x55886b41c281c97c";""
"supermarket";"Toko Swalayan";"Hj.Sus iwan";"P8V7+V3C, Jl. Klp. Gacing, Tulung Selapan Ilir, Kec. Tulung Selapan, Kabupaten Ogan Komering Ilir, Sumatera Selatan 30655";"Jl. Klp. Gacing, Tulung Selapan Ilir, Kec. Tulung Selapan, Kabupaten Ogan Komering Ilir";"SUMATERA SELATAN";"30655";"Indonesia";" 081373176042";"";"";"-3.2553191";"105.3126558";"https://maps.google.com/?cid=0x0:0x40ea17fa6c13c943";""
"supermarket";"Toko bahan makanan";"Isi Ulang Air Najwa";"P8W7+H6J, Tulung Selapan Ilir, Kec. Tulung Selapan, Kabupaten Ogan Komering Ilir, Sumatera Selatan 30655";"Tulung Selapan Ilir, Kec. Tulung Selapan, Kabupaten Ogan Komering Ilir";"SUMATERA SELATAN";"30655";"Indonesia";" 08172885290";"";"";"-3.2535469";"105.3130169";"https://maps.google.com/?cid=0x0:0xfac9ff4d422c3d4e";""
"supermarket";"Pasar";"Pasar Tulung Selapan Ilir";"Tulung Selapan Ilir, Kec. Tulung Selapan, Kabupaten Ogan Komering Ilir, Sumatera Selatan 30655";"Kec. Tulung Selapan, Kabupaten Ogan Komering Ilir";"SUMATERA SELATAN";"30655";"Indonesia";"";"";"";"-3.2560176";"105.3120332";"https://maps.google.com/?cid=0x0:0xb9be181f92d41cf9";""
"supermarket";"Minimarket";"Indomaret Tulung Selapan Ulu";"Jl. Depati Baridun No.2, Tulung Selapan Ulu, Kec. Tulung Selapan, Kabupaten Ogan Komering Ilir, Sumatera Selatan 30655";"Tulung Selapan Ulu, Kec. Tulung Selapan, Kabupaten Ogan Komering Ilir";"SUMATERA SELATAN";"30655";"Indonesia";"";"";"";"-3.2442761";"105.3118009";"https://maps.google.com/?cid=0x0:0xe58a022f90179859";""
"supermarket";"Toko";"Toko Dian Rahman";"P8W7+744, Jl. Klp. Gacing, Tulung Selapan Ilir, Kec. Tulung Selapan, Kabupaten Ogan Komering Ilir, Sumatera Selatan 30655";"Jl. Klp. Gacing, Tulung Selapan Ilir, Kec. Tulung Selapan, Kabupaten Ogan Komering Ilir";"SUMATERA SELATAN";"30655";"Indonesia";"";"";"";"-3.254369";"105.3128228";"https://maps.google.com/?cid=0x0:0x33867216ad03d459";""
"supermarket";"Pusat Perbelanjaan";"Toko Paet";"P8W8+98H, Tulung Selapan Ilir, Kec. Tulung Selapan, Kabupaten Ogan Komering Ilir, Sumatera Selatan 30655";"Tulung Selapan Ilir, Kec. Tulung Selapan, Kabupaten Ogan Komering Ilir";"SUMATERA SELATAN";"30655";"Indonesia";"";"";"";"-3.254062";"105.3158701";"https://maps.google.com/?cid=0x0:0x2de8bd9cb2689150";""
"supermarket";"Toko bahan makanan";"Indomaret Tulung Selapan";"P8W7+MFQ, Tulung Selapan Ilir, Kec. Tulung Selapan, Kabupaten Ogan Komering Ilir, Sumatera Selatan 30655";"Tulung Selapan Ilir, Kec. Tulung Selapan, Kabupaten Ogan Komering Ilir";"SUMATERA SELATAN";"30655";"Indonesia";"";"";"";"-3.2532839";"105.3137275";"https://maps.google.com/?cid=0x0:0x2505d0b1c0473ea7";""
"supermarket";"Toko";"Toko Suhel Lehus";"Jl. Merdeka, Dusun I Desa No.095, Seri Kembang III, Kec. Payaraman, Kabupaten Ogan Ilir, Sumatera Selatan 30664";"Dusun I Desa No.095, Seri Kembang III, Kec. Payaraman, Kabupaten Ogan Ilir";"SUMATERA SELATAN";"30664";"Indonesia";" 085839453963";"";"";"-3.3993795";"104.5701885";"https://maps.google.com/?cid=0x0:0x257151bc187e3309";""
"supermarket";"Toko Swalayan";"Toko Mahiro";"MM73+PV3, Limbang Jaya II, Kec. Tj. Batu, Kabupaten Ogan Ilir, Sumatera Selatan 30664";"Limbang Jaya II, Kec. Tj. Batu, Kabupaten Ogan Ilir";"SUMATERA SELATAN";"30664";"Indonesia";" 082177766510";"";"";"-3.3357377";"104.6546632";"https://maps.google.com/?cid=0x0:0x3552bcf3f6c93e7e";""
"supermarket";"Toko Swalayan";"ASmart";"RT.11, Lebung Itam, Kec. Tulung Selapan, Kabupaten Ogan Komering Ilir, Sumatera Selatan 30655";"Lebung Itam, Kec. Tulung Selapan, Kabupaten Ogan Komering Ilir";"SUMATERA SELATAN";"30655";"Indonesia";" 087815508223";"";"";"-3.1619531";"105.2837331";"https://maps.google.com/?cid=0x0:0x660fb3d4cb96808";""
"supermarket";"Toko bahan makanan";"Toko Syindi";"Jl. Swadaya III Dsn. 2 No.RT. 03, Lubuk Bandung, Kec. Payaraman, Kabupaten Ogan Ilir, Sumatera Selatan 30664";"Lubuk Bandung, Kec. Payaraman, Kabupaten Ogan Ilir";"SUMATERA SELATAN";"30664";"Indonesia";"";"";"";"-3.4461294";"104.5381368";"https://maps.google.com/?cid=0x0:0x18d696b74d40bc94";""
"supermarket";"Toko bahan makanan";"Toko pak yuger";"R7PP+7RJ, Lebung Itam, Kec. Tulung Selapan, Kabupaten Ogan Komering Ilir, Sumatera Selatan 30655";"Lebung Itam, Kec. Tulung Selapan, Kabupaten Ogan Komering Ilir";"SUMATERA SELATAN";"30655";"Indonesia";"";"";"";"-3.164294";"105.2870291";"https://maps.google.com/?cid=0x0:0x50f03cffea6c5447";""
"supermarket";"Toko";"Toko Romani";"Q827+3P2, Jl. H. Bandarsyah, Tulung Selapan Ilir, Kec. Tulung Selapan, Kabupaten Ogan Komering Ilir, Sumatera Selatan 30655";"Jl. H. Bandarsyah, Tulung Selapan Ilir, Kec. Tulung Selapan, Kabupaten Ogan Komering Ilir";"SUMATERA SELATAN";"30655";"Indonesia";" 085384195409";"";"";"-3.2498554";"105.3142722";"https://maps.google.com/?cid=0x0:0xcc27673e0662ad95";""
"supermarket";"Toko bahan makanan";"Toko Nangnyu";"MMF6+3MC, Tj. Laut, Kec. Tj. Batu, Kabupaten Ogan Ilir, Sumatera Selatan 30664";"Tj. Laut, Kec. Tj. Batu, Kabupaten Ogan Ilir";"SUMATERA SELATAN";"30664";"Indonesia";"";"";"";"-3.3273197";"104.6616336";"https://maps.google.com/?cid=0x0:0x567431d2bbfd333c";""
"supermarket";"Toko Swalayan";"Rumah muji";"HH97+V4Q, Jl. Kerio Bijak, Rengas II, Kec. Payaraman, Kabupaten Ogan Ilir, Sumatera Selatan 30664";"Jl. Kerio Bijak, Rengas II, Kec. Payaraman, Kabupaten Ogan Ilir";"SUMATERA SELATAN";"30664";"Indonesia";" 081368697456";"";"";"-3.43029";"104.562854";"https://maps.google.com/?cid=0x0:0x318fedd7dab6b0b6";""
"supermarket";"Toko umum";"Toko ollen";"P8W8+F93, Tulung Selapan Ilir, Kec. Tulung Selapan, Kabupaten Ogan Komering Ilir, Sumatera Selatan 30655";"Tulung Selapan Ilir, Kec. Tulung Selapan, Kabupaten Ogan Komering Ilir";"SUMATERA SELATAN";"30655";"Indonesia";"";"";"";"-3.2535151";"105.3169852";"https://maps.google.com/?cid=0x0:0xc4d3e966eecd531a";""
"supermarket";"Minimarket";"Toko Umar";"JH8Q+6W6, Jl. Tlk. Perigi, Seri Tj., Kec. Tj. Batu, Kabupaten Ogan Ilir, Sumatera Selatan 30664";"Jl. Tlk. Perigi, Seri Tj., Kec. Tj. Batu, Kabupaten Ogan Ilir";"SUMATERA SELATAN";"30664";"Indonesia";" 085266019277";"";"";"-3.384168";"104.589913";"https://maps.google.com/?cid=0x0:0x537c51c1a02308d9";""
"supermarket";"Toko bahan makanan";"Toko Ramadn";"R932+RQC, Tulung Seluang, Kec. Tulung Selapan, Kabupaten Ogan Komering Ilir, Sumatera Selatan 30655";"Tulung Seluang, Kec. Tulung Selapan, Kabupaten Ogan Komering Ilir";"SUMATERA SELATAN";"30655";"Indonesia";"";"";"";"-3.1954384";"105.3518965";"https://maps.google.com/?cid=0x0:0x35c0ef54e1c78db0";""
"supermarket";"Toko Swalayan";"Toko Haniah Ridho";"MJ6R+JXG, Tj. Pinang I, Kec. Tj. Batu, Kabupaten Ogan Ilir, Sumatera Selatan 30664";"Tj. Pinang I, Kec. Tj. Batu, Kabupaten Ogan Ilir";"SUMATERA SELATAN";"30664";"Indonesia";" 082280386093";"";"";"-3.338441";"104.64244";"https://maps.google.com/?cid=0x0:0x20e1a3897003b1b4";""
"supermarket";"Toko";"Alfamart";"Jl. Lanang Kuaso, RT.01/RW.02, Payaraman Tim., Kec. Tj. Batu, Kabupaten Ogan Ilir, Sumatera Selatan 30664";"RT.01/RW.02, Payaraman Tim., Kec. Tj. Batu, Kabupaten Ogan Ilir";"SUMATERA SELATAN";"30664";"Indonesia";" 1500959";"";"";"-3.4144594";"104.5372215";"https://maps.google.com/?cid=0x0:0x805746514d4f6db7";""
"supermarket";"Tempat Pencucian Mobil";"Cucian Steim H Matnata Jambul.";"Q836+WQ9, Unnamed Road, Tulung Selapan Ulu, Kec. Tulung Selapan, Kabupaten Ogan Komering Ilir, Sumatera Selatan 30655";"Unnamed Road, Tulung Selapan Ulu, Kec. Tulung Selapan, Kabupaten Ogan Komering Ilir";"SUMATERA SELATAN";"30655";"Indonesia";" 087796396330";"";"";"-3.2452052";"105.3119888";"https://maps.google.com/?cid=0x0:0xb1dc675cfadd6201";""
"supermarket";"Toko";"SRC indri";"Petaling, Kec. Tulung Selapan, Kabupaten Ogan Komering Ilir, Sumatera Selatan 30655";"Kec. Tulung Selapan, Kabupaten Ogan Komering Ilir";"SUMATERA SELATAN";"30655";"Indonesia";"";"";"";"-3.2473692";"105.3070257";"https://maps.google.com/?cid=0x0:0x509188fdceee938a";""
"supermarket";"Kantor Perusahaan";"Agen Pupuk Sawit Nasa Di Lampung Sumatera";"P948+V36, Tulung Selapan Ilir, Kec. Tulung Selapan, Kabupaten Ogan Komering Ilir, Sumatera Selatan 30655";"Tulung Selapan Ilir, Kec. Tulung Selapan, Kabupaten Ogan Komering Ilir";"SUMATERA SELATAN";"30655";"Indonesia";" 081806733108";"";"";"-3.292826";"105.3651255";"https://maps.google.com/?cid=0x0:0x8d738a73f80e0a8d";""
