Category,Real Category,Business Name,Address,City,State,Postal Code,Country,Phone,Email,Website,Latitude,Longitude,Map Link,Details Link
hotel,hotel,Sulawesi Tengah 94974,"Kabupaten Morowali, Sulawesi Tengah","Kabupaten Morowali, Sulawesi Tengah",SULAWESI TENGAH,,Indonesia,,,,-2.8626226,122.1291843,https://maps.google.com/?cid=0x0:0xb267e774a37f920f,
hotel,hotel,Hotel Metro Morowali,"Kompleks Perkantoran Fonuasingko, Bente, Kec. Bungku Tengah, Kabupaten Morowali, Sulawesi Tengah 94973","Bente, Kec. Bungku Tengah, Kabupaten Morowali",SULAWESI TENGAH,94973.0,Indonesia,82393397973.0,,,-2.4846453,121.9354248,https://maps.google.com/?cid=0x0:0xdda0d498a2fff267,
hotel,hotel,HOTEL MALEO,"Bahodopi, Kec. Bahodopi, Kabupaten Morowali, Sulawesi Tengah 94974","Kec. Bahodopi, Kabupaten Morowali",SULAWESI TENGAH,94974.0,Indonesia,82230657316.0,,,-2.7992461,122.1183043,https://maps.google.com/?cid=0x0:0x2e6d2d924fc7fe00,
hotel,hotel,Soldadu Morowali Hotel,"Jl. Trans Sulawesi No.1, Bente, Kec. Bungku Tengah, Kabupaten Morowali, Sulawesi Tengah 94973","Bente, Kec. Bungku Tengah, Kabupaten Morowali",SULAWESI TENGAH,94973.0,Indonesia,85705704032.0,,,-2.4959619,121.9424131,https://maps.google.com/?cid=0x0:0x4f867af43b3f91ac,
hotel,hotel,RedDoorz @ Morowali Sulawesi Tengah,"Keurea, Kec. Bahodopi, Kabupaten Morowali, Sulawesi Tengah","Kabupaten Morowali, Sulawesi Tengah",SULAWESI TENGAH,,Indonesia,895417300072.0,,,-2.7943982,122.1445345,https://maps.google.com/?cid=0x0:0x55d4f967de8f0174,
hotel,hotel,closed prop,"644V+8R3 RedDoorz @, Keurea, Kec. Bahodopi, Kabupaten Morowali, Sulawesi Tengah 94974","Keurea, Kec. Bahodopi, Kabupaten Morowali",SULAWESI TENGAH,94974.0,Indonesia,895417300072.0,,,-2.7941875,122.1445625,https://maps.google.com/?cid=0x0:0x926d49cc60a4437,
hotel,hotel,PENGINAPAN QEYLA,"Bahodopi, Kec. Bahodopi, Kabupaten Morowali, Sulawesi Tengah 94974","Kec. Bahodopi, Kabupaten Morowali",SULAWESI TENGAH,94974.0,Indonesia,85824758237.0,,,-2.7958289,122.1134102,https://maps.google.com/?cid=0x0:0xcce64a008e0de703,
hotel,hotel,Hotel Jalin Resort Morowali,"Jl. Trans Sulawesi, Bahomotefe, Kec. Bungku Tengah, Kabupaten Morowali, Sulawesi Tengah 94973","Bahomotefe, Kec. Bungku Tengah, Kabupaten Morowali",SULAWESI TENGAH,94973.0,Indonesia,81342275454.0,,,-2.7206026,122.0130123,https://maps.google.com/?cid=0x0:0x25c8ed8fb053eb75,
hotel,hotel,SBY Resort (Hotel Morowali),"Bahomotefe, Kec. Bungku Timur, Kabupaten Morowali, Sulawesi Tengah 94973","Kec. Bungku Timur, Kabupaten Morowali",SULAWESI TENGAH,94973.0,Indonesia,81340032345.0,,,-2.7213414,122.0155348,https://maps.google.com/?cid=0x0:0x75af12bf5ad70846,
hotel,hotel,Raisa HomeStay,"644F+P2M, Bahodopi, Kec. Bahodopi, Kabupaten Morowali, Sulawesi Tengah 94974","Bahodopi, Kec. Bahodopi, Kabupaten Morowali",SULAWESI TENGAH,94974.0,Indonesia,8114666665.0,,,-2.7935307,122.1227306,https://maps.google.com/?cid=0x0:0x109050d93335739f,
hotel,hotel,Morowali Beach Hotel,"Jl. Jalur 16 No.105A, Ipi, Kec. Bungku Tengah, Kabupaten Morowali, Sulawesi Tengah 94973","Ipi, Kec. Bungku Tengah, Kabupaten Morowali",SULAWESI TENGAH,94973.0,Indonesia,82155861575.0,,,-2.5037933,121.9507906,https://maps.google.com/?cid=0x0:0x15f5942cb57606c7,
hotel,hotel,SBY RESORT,"72R4+QCQ, Jl. Trans Sulawesi, Bahomoahi, Kec. Bungku Tengah, Kabupaten Morowali, Sulawesi Tengah 94973","Jl. Trans Sulawesi, Bahomoahi, Kec. Bungku Tengah, Kabupaten Morowali",SULAWESI TENGAH,94973.0,Indonesia,82142644453.0,,,-2.7080463,122.006097,https://maps.google.com/?cid=0x0:0x18937120b78d3dff,
hotel,hotel,Kec. Bumi Raya,"Kabupaten Morowali, Sulawesi Tengah","Kabupaten Morowali, Sulawesi Tengah",SULAWESI TENGAH,,Indonesia,,,,-2.2160038,121.7239224,https://maps.google.com/?cid=0x0:0x733f460809c91197,
hotel,Pondok,Hotel,"QPMC+JMF, Jl. Trans Sulawesi, Bahonsuai, Kec. Bumi Raya, Kabupaten Morowali, Sulawesi Tengah","Kabupaten Morowali, Sulawesi Tengah",SULAWESI TENGAH,,Indonesia,,,,-2.2159445,121.7216764,https://maps.google.com/?cid=0x0:0x4294fcbc3f5147a5,
hotel,Hostel,Penginapan herny,"Ambunu, Kec. Bungku Bar., Kabupaten Morowali, Sulawesi Tengah 94976","Kec. Bungku Bar., Kabupaten Morowali",SULAWESI TENGAH,94976.0,Indonesia,82292758425.0,,,-2.255599,121.7591113,https://maps.google.com/?cid=0x0:0x83f68566d1c44b98,
hotel,Hotel,88 Hotel N Resort,"Jl. Trans Sulawesi, Parilangke, Kec. Bumi Raya, Kabupaten Morowali, Sulawesi Tengah","Kabupaten Morowali, Sulawesi Tengah",SULAWESI TENGAH,,Indonesia,82299902024.0,,,-2.220683,121.7359197,https://maps.google.com/?cid=0x0:0x61c45e46d5bcd17,
hotel,Pondok,Penginapan SRI AGUNG,"Lrg. Labaso, Ambunu, Kec. Bungku Bar., Kabupaten Morowali, Sulawesi Tengah 94977","Ambunu, Kec. Bungku Bar., Kabupaten Morowali",SULAWESI TENGAH,94977.0,Indonesia,82311674716.0,,,-2.25496,121.7580932,https://maps.google.com/?cid=0x0:0xbb5ac337ecbd2984,
hotel,Kantor Perusahaan,Desa harapan jaya,"QPMF+HHG, Bahonsuai, Kec. Bumi Raya, Kabupaten Morowali, Sulawesi Tengah","Kabupaten Morowali, Sulawesi Tengah",SULAWESI TENGAH,,Indonesia,,,,-2.2160705,121.7239639,https://maps.google.com/?cid=0x0:0x92637eb3afa5ba64,
hotel,Hostel,Khalif kos penginapan,"Samarenda, Kec. Bumi Raya, Kabupaten Morowali, Sulawesi Tengah 94953","Kec. Bumi Raya, Kabupaten Morowali",SULAWESI TENGAH,94953.0,Indonesia,82199993898.0,,,-2.2171344,121.7044442,https://maps.google.com/?cid=0x0:0xfe755dbb2b3789d2,
hotel,Hotel,HS guest house,"Umbele, Kec. Bumi Raya, Kabupaten Morowali, Sulawesi Tengah","Kabupaten Morowali, Sulawesi Tengah",SULAWESI TENGAH,,Indonesia,82292644742.0,,,-2.2062622,121.6655622,https://maps.google.com/?cid=0x0:0xd8d6e2490d19eaa9,
hotel,hotel,Kec. Bungku Bar.,"Kabupaten Morowali, Sulawesi Tengah","Kabupaten Morowali, Sulawesi Tengah",SULAWESI TENGAH,,Indonesia,,,,-2.3550315,121.8504279,https://maps.google.com/?cid=0x0:0x60891acc9bfe198d,
hotel,hotel,Hotel Metro Morowali,"Kompleks Perkantoran Fonuasingko, Bente, Kec. Bungku Tengah, Kabupaten Morowali, Sulawesi Tengah 94973","Bente, Kec. Bungku Tengah, Kabupaten Morowali",SULAWESI TENGAH,94973.0,Indonesia,82393397973.0,,,-2.4846453,121.9354248,https://maps.google.com/?cid=0x0:0xdda0d498a2fff267,
hotel,hotel,Soldadu Morowali Hotel,"Jl. Trans Sulawesi No.1, Bente, Kec. Bungku Tengah, Kabupaten Morowali, Sulawesi Tengah 94973","Bente, Kec. Bungku Tengah, Kabupaten Morowali",SULAWESI TENGAH,94973.0,Indonesia,85705704032.0,,,-2.4959619,121.9424131,https://maps.google.com/?cid=0x0:0x4f867af43b3f91ac,
hotel,hotel,Morowali Beach Hotel,"Jl. Jalur 16 No.105A, Ipi, Kec. Bungku Tengah, Kabupaten Morowali, Sulawesi Tengah 94973","Ipi, Kec. Bungku Tengah, Kabupaten Morowali",SULAWESI TENGAH,94973.0,Indonesia,82155861575.0,,,-2.5037933,121.9507906,https://maps.google.com/?cid=0x0:0x15f5942cb57606c7,
hotel,hotel,PENGINAPAN HASANAH,"GW3V+G5X, Ipi, Kec. Bungku Tengah, Kabupaten Morowali, Sulawesi Tengah 94973","Ipi, Kec. Bungku Tengah, Kabupaten Morowali",SULAWESI TENGAH,94973.0,Indonesia,,,,-2.4961086,121.942893,https://maps.google.com/?cid=0x0:0xc8ecb560908fa733,
hotel,hotel,La'Tanete Beach Hotel,"Jalan Ring Rood Pantai, Bahomohoni, Kec. Bungku Tengah, Kabupaten Morowali, Sulawesi Tengah 94973","Bahomohoni, Kec. Bungku Tengah, Kabupaten Morowali",SULAWESI TENGAH,94973.0,Indonesia,81342901170.0,,,-2.4746875,121.9328125,https://maps.google.com/?cid=0x0:0x8cf85345263bead3,
hotel,hotel,Hotel Jalin Resort Morowali,"Jl. Trans Sulawesi, Bahomotefe, Kec. Bungku Tengah, Kabupaten Morowali, Sulawesi Tengah 94973","Bahomotefe, Kec. Bungku Tengah, Kabupaten Morowali",SULAWESI TENGAH,94973.0,Indonesia,81342275454.0,,,-2.7206026,122.0130123,https://maps.google.com/?cid=0x0:0x25c8ed8fb053eb75,
hotel,hotel,SBY Resort (Hotel Morowali),"Bahomotefe, Kec. Bungku Timur, Kabupaten Morowali, Sulawesi Tengah 94973","Kec. Bungku Timur, Kabupaten Morowali",SULAWESI TENGAH,94973.0,Indonesia,81340032345.0,,,-2.7213414,122.0155348,https://maps.google.com/?cid=0x0:0x75af12bf5ad70846,
hotel,hotel,Hotel Galang,"Jl. Abdul Wahab No.7, Marsaoleh, Kec. Bungku Tengah, Kabupaten Morowali, Sulawesi Tengah 94973","Marsaoleh, Kec. Bungku Tengah, Kabupaten Morowali",SULAWESI TENGAH,94973.0,Indonesia,81354439700.0,,,-2.5431707,121.9698521,https://maps.google.com/?cid=0x0:0xbaa8ed93b4ad6fa,
hotel,hotel,SBY RESORT,"72R4+QCQ, Jl. Trans Sulawesi, Bahomoahi, Kec. Bungku Tengah, Kabupaten Morowali, Sulawesi Tengah 94973","Jl. Trans Sulawesi, Bahomoahi, Kec. Bungku Tengah, Kabupaten Morowali",SULAWESI TENGAH,94973.0,Indonesia,82142644453.0,,,-2.7080463,122.006097,https://maps.google.com/?cid=0x0:0x18937120b78d3dff,
hotel,hotel,Sulawesi Tengah 94974,"Kabupaten Morowali, Sulawesi Tengah","Kabupaten Morowali, Sulawesi Tengah",SULAWESI TENGAH,,Indonesia,,,,-2.8626226,122.1291843,https://maps.google.com/?cid=0x0:0xb267e774a37f920f,
hotel,hotel,HOTEL MALEO,"Bahodopi, Kec. Bahodopi, Kabupaten Morowali, Sulawesi Tengah 94974","Kec. Bahodopi, Kabupaten Morowali",SULAWESI TENGAH,94974.0,Indonesia,82230657316.0,,,-2.7992461,122.1183043,https://maps.google.com/?cid=0x0:0x2e6d2d924fc7fe00,
hotel,hotel,RedDoorz @ Morowali Sulawesi Tengah,"Keurea, Kec. Bahodopi, Kabupaten Morowali, Sulawesi Tengah","Kabupaten Morowali, Sulawesi Tengah",SULAWESI TENGAH,,Indonesia,895417300072.0,,,-2.7943982,122.1445345,https://maps.google.com/?cid=0x0:0x55d4f967de8f0174,
hotel,hotel,closed prop,"644V+8R3 RedDoorz @, Keurea, Kec. Bahodopi, Kabupaten Morowali, Sulawesi Tengah 94974","Keurea, Kec. Bahodopi, Kabupaten Morowali",SULAWESI TENGAH,94974.0,Indonesia,895417300072.0,,,-2.7941875,122.1445625,https://maps.google.com/?cid=0x0:0x926d49cc60a4437,
hotel,hotel,Hotel Jalin Resort Morowali,"Jl. Trans Sulawesi, Bahomotefe, Kec. Bungku Tengah, Kabupaten Morowali, Sulawesi Tengah 94973","Bahomotefe, Kec. Bungku Tengah, Kabupaten Morowali",SULAWESI TENGAH,94973.0,Indonesia,81342275454.0,,,-2.7206026,122.0130123,https://maps.google.com/?cid=0x0:0x25c8ed8fb053eb75,
hotel,hotel,SBY Resort (Hotel Morowali),"Bahomotefe, Kec. Bungku Timur, Kabupaten Morowali, Sulawesi Tengah 94973","Kec. Bungku Timur, Kabupaten Morowali",SULAWESI TENGAH,94973.0,Indonesia,81340032345.0,,,-2.7213414,122.0155348,https://maps.google.com/?cid=0x0:0x75af12bf5ad70846,
hotel,hotel,Raisa HomeStay,"644F+P2M, Bahodopi, Kec. Bahodopi, Kabupaten Morowali, Sulawesi Tengah 94974","Bahodopi, Kec. Bahodopi, Kabupaten Morowali",SULAWESI TENGAH,94974.0,Indonesia,8114666665.0,,,-2.7935307,122.1227306,https://maps.google.com/?cid=0x0:0x109050d93335739f,
hotel,hotel,PENGINAPAN QEYLA,"Bahodopi, Kec. Bahodopi, Kabupaten Morowali, Sulawesi Tengah 94974","Kec. Bahodopi, Kabupaten Morowali",SULAWESI TENGAH,94974.0,Indonesia,85824758237.0,,,-2.7958289,122.1134102,https://maps.google.com/?cid=0x0:0xcce64a008e0de703,
hotel,hotel,SBY RESORT,"72R4+QCQ, Jl. Trans Sulawesi, Bahomoahi, Kec. Bungku Tengah, Kabupaten Morowali, Sulawesi Tengah 94973","Jl. Trans Sulawesi, Bahomoahi, Kec. Bungku Tengah, Kabupaten Morowali",SULAWESI TENGAH,94973.0,Indonesia,82142644453.0,,,-2.7080463,122.006097,https://maps.google.com/?cid=0x0:0x18937120b78d3dff,
hotel,hotel,Hotel Galang,"Jl. Abdul Wahab No.7, Marsaoleh, Kec. Bungku Tengah, Kabupaten Morowali, Sulawesi Tengah 94973","Marsaoleh, Kec. Bungku Tengah, Kabupaten Morowali",SULAWESI TENGAH,94973.0,Indonesia,81354439700.0,,,-2.5431707,121.9698521,https://maps.google.com/?cid=0x0:0xbaa8ed93b4ad6fa,
hotel,hotel,Kec. Bungku Sel.,"Kabupaten Morowali, Sulawesi Tengah","Kabupaten Morowali, Sulawesi Tengah",SULAWESI TENGAH,,Indonesia,,,,-3.1416627,122.3998289,https://maps.google.com/?cid=0x0:0x8563743865c09fc9,
hotel,hotel,Hotel Metro Morowali,"Kompleks Perkantoran Fonuasingko, Bente, Kec. Bungku Tengah, Kabupaten Morowali, Sulawesi Tengah 94973","Bente, Kec. Bungku Tengah, Kabupaten Morowali",SULAWESI TENGAH,94973.0,Indonesia,82393397973.0,,,-2.4846453,121.9354248,https://maps.google.com/?cid=0x0:0xdda0d498a2fff267,
hotel,hotel,Morowali Beach Hotel,"Jl. Jalur 16 No.105A, Ipi, Kec. Bungku Tengah, Kabupaten Morowali, Sulawesi Tengah 94973","Ipi, Kec. Bungku Tengah, Kabupaten Morowali",SULAWESI TENGAH,94973.0,Indonesia,82155861575.0,,,-2.5037933,121.9507906,https://maps.google.com/?cid=0x0:0x15f5942cb57606c7,
hotel,hotel,Hotel Jalin Resort Morowali,"Jl. Trans Sulawesi, Bahomotefe, Kec. Bungku Tengah, Kabupaten Morowali, Sulawesi Tengah 94973","Bahomotefe, Kec. Bungku Tengah, Kabupaten Morowali",SULAWESI TENGAH,94973.0,Indonesia,81342275454.0,,,-2.7206026,122.0130123,https://maps.google.com/?cid=0x0:0x25c8ed8fb053eb75,
hotel,hotel,SBY Resort (Hotel Morowali),"Bahomotefe, Kec. Bungku Timur, Kabupaten Morowali, Sulawesi Tengah 94973","Kec. Bungku Timur, Kabupaten Morowali",SULAWESI TENGAH,94973.0,Indonesia,81340032345.0,,,-2.7213414,122.0155348,https://maps.google.com/?cid=0x0:0x75af12bf5ad70846,
hotel,hotel,PENGINAPAN QEYLA,"Bahodopi, Kec. Bahodopi, Kabupaten Morowali, Sulawesi Tengah 94974","Kec. Bahodopi, Kabupaten Morowali",SULAWESI TENGAH,94974.0,Indonesia,85824758237.0,,,-2.7958289,122.1134102,https://maps.google.com/?cid=0x0:0xcce64a008e0de703,
hotel,hotel,Hotel Galang,"Jl. Abdul Wahab No.7, Marsaoleh, Kec. Bungku Tengah, Kabupaten Morowali, Sulawesi Tengah 94973","Marsaoleh, Kec. Bungku Tengah, Kabupaten Morowali",SULAWESI TENGAH,94973.0,Indonesia,81354439700.0,,,-2.5431707,121.9698521,https://maps.google.com/?cid=0x0:0xbaa8ed93b4ad6fa,
hotel,hotel,La'Tanete Beach Hotel,"Jalan Ring Rood Pantai, Bahomohoni, Kec. Bungku Tengah, Kabupaten Morowali, Sulawesi Tengah 94973","Bahomohoni, Kec. Bungku Tengah, Kabupaten Morowali",SULAWESI TENGAH,94973.0,Indonesia,81342901170.0,,,-2.4746875,121.9328125,https://maps.google.com/?cid=0x0:0x8cf85345263bead3,
hotel,hotel,Sulawesi Tengah 94973,"Kec. Bungku Tengah, Kabupaten Morowali, Sulawesi Tengah","Kabupaten Morowali, Sulawesi Tengah",SULAWESI TENGAH,,Indonesia,,,,-2.6659253,121.856261,https://maps.google.com/?cid=0x0:0x20bfb697387a3fcd,
hotel,hotel,Hotel Metro Morowali,"Kompleks Perkantoran Fonuasingko, Bente, Kec. Bungku Tengah, Kabupaten Morowali, Sulawesi Tengah 94973","Bente, Kec. Bungku Tengah, Kabupaten Morowali",SULAWESI TENGAH,94973.0,Indonesia,82393397973.0,,,-2.4846453,121.9354248,https://maps.google.com/?cid=0x0:0xdda0d498a2fff267,
hotel,hotel,GRAND QAFIA HOTEL,"Bahomohoni, Kec. Bungku Tengah, Kabupaten Morowali, Sulawesi Tengah 94973","Kec. Bungku Tengah, Kabupaten Morowali",SULAWESI TENGAH,94973.0,Indonesia,82122277287.0,,,-2.4767499,121.928303,https://maps.google.com/?cid=0x0:0x2aa88e1bf9e85f19,
hotel,hotel,Morowali Beach Hotel,"Jl. Jalur 16 No.105A, Ipi, Kec. Bungku Tengah, Kabupaten Morowali, Sulawesi Tengah 94973","Ipi, Kec. Bungku Tengah, Kabupaten Morowali",SULAWESI TENGAH,94973.0,Indonesia,82155861575.0,,,-2.5037933,121.9507906,https://maps.google.com/?cid=0x0:0x15f5942cb57606c7,
hotel,hotel,PENGINAPAN HASANAH,"GW3V+G5X, Ipi, Kec. Bungku Tengah, Kabupaten Morowali, Sulawesi Tengah 94973","Ipi, Kec. Bungku Tengah, Kabupaten Morowali",SULAWESI TENGAH,94973.0,Indonesia,,,,-2.4961086,121.942893,https://maps.google.com/?cid=0x0:0xc8ecb560908fa733,
hotel,hotel,HOTEL MALEO,"Bahodopi, Kec. Bahodopi, Kabupaten Morowali, Sulawesi Tengah 94974","Kec. Bahodopi, Kabupaten Morowali",SULAWESI TENGAH,94974.0,Indonesia,82230657316.0,,,-2.7992461,122.1183043,https://maps.google.com/?cid=0x0:0x2e6d2d924fc7fe00,
hotel,hotel,La'Tanete Beach Hotel,"Jalan Ring Rood Pantai, Bahomohoni, Kec. Bungku Tengah, Kabupaten Morowali, Sulawesi Tengah 94973","Bahomohoni, Kec. Bungku Tengah, Kabupaten Morowali",SULAWESI TENGAH,94973.0,Indonesia,81342901170.0,,,-2.4746875,121.9328125,https://maps.google.com/?cid=0x0:0x8cf85345263bead3,
hotel,hotel,SBY Resort (Hotel Morowali),"Bahomotefe, Kec. Bungku Timur, Kabupaten Morowali, Sulawesi Tengah 94973","Kec. Bungku Timur, Kabupaten Morowali",SULAWESI TENGAH,94973.0,Indonesia,81340032345.0,,,-2.7213414,122.0155348,https://maps.google.com/?cid=0x0:0x75af12bf5ad70846,
hotel,hotel,Hotel Jalin Resort Morowali,"Jl. Trans Sulawesi, Bahomotefe, Kec. Bungku Tengah, Kabupaten Morowali, Sulawesi Tengah 94973","Bahomotefe, Kec. Bungku Tengah, Kabupaten Morowali",SULAWESI TENGAH,94973.0,Indonesia,81342275454.0,,,-2.7206026,122.0130123,https://maps.google.com/?cid=0x0:0x25c8ed8fb053eb75,
hotel,hotel,SBY RESORT,"72R4+QCQ, Jl. Trans Sulawesi, Bahomoahi, Kec. Bungku Tengah, Kabupaten Morowali, Sulawesi Tengah 94973","Jl. Trans Sulawesi, Bahomoahi, Kec. Bungku Tengah, Kabupaten Morowali",SULAWESI TENGAH,94973.0,Indonesia,82142644453.0,,,-2.7080463,122.006097,https://maps.google.com/?cid=0x0:0x18937120b78d3dff,
hotel,hotel,Hotel Galang,"Jl. Abdul Wahab No.7, Marsaoleh, Kec. Bungku Tengah, Kabupaten Morowali, Sulawesi Tengah 94973","Marsaoleh, Kec. Bungku Tengah, Kabupaten Morowali",SULAWESI TENGAH,94973.0,Indonesia,81354439700.0,,,-2.5431707,121.9698521,https://maps.google.com/?cid=0x0:0xbaa8ed93b4ad6fa,
hotel,hotel,Raisa HomeStay,"644F+P2M, Bahodopi, Kec. Bahodopi, Kabupaten Morowali, Sulawesi Tengah 94974","Bahodopi, Kec. Bahodopi, Kabupaten Morowali",SULAWESI TENGAH,94974.0,Indonesia,8114666665.0,,,-2.7935307,122.1227306,https://maps.google.com/?cid=0x0:0x109050d93335739f,
hotel,hotel,PENGINAPAN QEYLA,"Bahodopi, Kec. Bahodopi, Kabupaten Morowali, Sulawesi Tengah 94974","Kec. Bahodopi, Kabupaten Morowali",SULAWESI TENGAH,94974.0,Indonesia,85824758237.0,,,-2.7958289,122.1134102,https://maps.google.com/?cid=0x0:0xcce64a008e0de703,
hotel,hotel,Sulawesi Tengah 94973,"Kec. Bungku Tengah, Kabupaten Morowali, Sulawesi Tengah","Kabupaten Morowali, Sulawesi Tengah",SULAWESI TENGAH,,Indonesia,,,,-2.6659253,121.856261,https://maps.google.com/?cid=0x0:0x20bfb697387a3fcd,
hotel,hotel,Hotel Metro Morowali,"Kompleks Perkantoran Fonuasingko, Bente, Kec. Bungku Tengah, Kabupaten Morowali, Sulawesi Tengah 94973","Bente, Kec. Bungku Tengah, Kabupaten Morowali",SULAWESI TENGAH,94973.0,Indonesia,82393397973.0,,,-2.4846453,121.9354248,https://maps.google.com/?cid=0x0:0xdda0d498a2fff267,
hotel,hotel,GRAND QAFIA HOTEL,"Bahomohoni, Kec. Bungku Tengah, Kabupaten Morowali, Sulawesi Tengah 94973","Kec. Bungku Tengah, Kabupaten Morowali",SULAWESI TENGAH,94973.0,Indonesia,82122277287.0,,,-2.4767499,121.928303,https://maps.google.com/?cid=0x0:0x2aa88e1bf9e85f19,
hotel,hotel,Morowali Beach Hotel,"Jl. Jalur 16 No.105A, Ipi, Kec. Bungku Tengah, Kabupaten Morowali, Sulawesi Tengah 94973","Ipi, Kec. Bungku Tengah, Kabupaten Morowali",SULAWESI TENGAH,94973.0,Indonesia,82155861575.0,,,-2.5037933,121.9507906,https://maps.google.com/?cid=0x0:0x15f5942cb57606c7,
hotel,hotel,PENGINAPAN HASANAH,"GW3V+G5X, Ipi, Kec. Bungku Tengah, Kabupaten Morowali, Sulawesi Tengah 94973","Ipi, Kec. Bungku Tengah, Kabupaten Morowali",SULAWESI TENGAH,94973.0,Indonesia,,,,-2.4961086,121.942893,https://maps.google.com/?cid=0x0:0xc8ecb560908fa733,
hotel,hotel,HOTEL MALEO,"Bahodopi, Kec. Bahodopi, Kabupaten Morowali, Sulawesi Tengah 94974","Kec. Bahodopi, Kabupaten Morowali",SULAWESI TENGAH,94974.0,Indonesia,82230657316.0,,,-2.7992461,122.1183043,https://maps.google.com/?cid=0x0:0x2e6d2d924fc7fe00,
hotel,hotel,SBY Resort (Hotel Morowali),"Bahomotefe, Kec. Bungku Timur, Kabupaten Morowali, Sulawesi Tengah 94973","Kec. Bungku Timur, Kabupaten Morowali",SULAWESI TENGAH,94973.0,Indonesia,81340032345.0,,,-2.7213414,122.0155348,https://maps.google.com/?cid=0x0:0x75af12bf5ad70846,
hotel,hotel,La'Tanete Beach Hotel,"Jalan Ring Rood Pantai, Bahomohoni, Kec. Bungku Tengah, Kabupaten Morowali, Sulawesi Tengah 94973","Bahomohoni, Kec. Bungku Tengah, Kabupaten Morowali",SULAWESI TENGAH,94973.0,Indonesia,81342901170.0,,,-2.4746875,121.9328125,https://maps.google.com/?cid=0x0:0x8cf85345263bead3,
hotel,hotel,Hotel Jalin Resort Morowali,"Jl. Trans Sulawesi, Bahomotefe, Kec. Bungku Tengah, Kabupaten Morowali, Sulawesi Tengah 94973","Bahomotefe, Kec. Bungku Tengah, Kabupaten Morowali",SULAWESI TENGAH,94973.0,Indonesia,81342275454.0,,,-2.7206026,122.0130123,https://maps.google.com/?cid=0x0:0x25c8ed8fb053eb75,
hotel,hotel,Raisa HomeStay,"644F+P2M, Bahodopi, Kec. Bahodopi, Kabupaten Morowali, Sulawesi Tengah 94974","Bahodopi, Kec. Bahodopi, Kabupaten Morowali",SULAWESI TENGAH,94974.0,Indonesia,8114666665.0,,,-2.7935307,122.1227306,https://maps.google.com/?cid=0x0:0x109050d93335739f,
hotel,hotel,Hotel Galang,"Jl. Abdul Wahab No.7, Marsaoleh, Kec. Bungku Tengah, Kabupaten Morowali, Sulawesi Tengah 94973","Marsaoleh, Kec. Bungku Tengah, Kabupaten Morowali",SULAWESI TENGAH,94973.0,Indonesia,81354439700.0,,,-2.5431707,121.9698521,https://maps.google.com/?cid=0x0:0xbaa8ed93b4ad6fa,
hotel,hotel,SBY RESORT,"72R4+QCQ, Jl. Trans Sulawesi, Bahomoahi, Kec. Bungku Tengah, Kabupaten Morowali, Sulawesi Tengah 94973","Jl. Trans Sulawesi, Bahomoahi, Kec. Bungku Tengah, Kabupaten Morowali",SULAWESI TENGAH,94973.0,Indonesia,82142644453.0,,,-2.7080463,122.006097,https://maps.google.com/?cid=0x0:0x18937120b78d3dff,
hotel,hotel,PENGINAPAN QEYLA,"Bahodopi, Kec. Bahodopi, Kabupaten Morowali, Sulawesi Tengah 94974","Kec. Bahodopi, Kabupaten Morowali",SULAWESI TENGAH,94974.0,Indonesia,85824758237.0,,,-2.7958289,122.1134102,https://maps.google.com/?cid=0x0:0xcce64a008e0de703,
hotel,hotel,Sulawesi Tengah 94972,"Kabupaten Morowali Utara, Sulawesi Tengah","Kabupaten Morowali Utara, Sulawesi Tengah",SULAWESI TENGAH,,Indonesia,,,,-1.6248083,121.7195459,https://maps.google.com/?cid=0x0:0xe9e478f27d681886,
hotel,Penginapan Dalam Ruangan,Penginapan Hani,"Baturube, Kec. Bungku Utara, Kabupaten Morowali Utara, Sulawesi Tengah 94972","Kec. Bungku Utara, Kabupaten Morowali Utara",SULAWESI TENGAH,94972.0,Indonesia,82353006542.0,,,-1.7709375,121.7943125,https://maps.google.com/?cid=0x0:0xdaf9a369425976e2,
hotel,Hotel,Penginapan Andolia Baru,"Unnamed Road, 94972, Tana Sumpu, Kec. Mamosalato, Kabupaten Morowali Utara, Sulawesi Tengah 94972","94972, Tana Sumpu, Kec. Mamosalato, Kabupaten Morowali Utara",SULAWESI TENGAH,94972.0,Indonesia,85399707303.0,,,-1.6359214,121.9722951,https://maps.google.com/?cid=0x0:0x7b803a5357b78c1a,
hotel,Hotel,Kuda Laut Hotel,"Bahoue, Kec. Petasia, Kabupaten Morowali, Sulawesi Tengah 94971","Kec. Petasia, Kabupaten Morowali",SULAWESI TENGAH,94971.0,Indonesia,82296303141.0,,,-1.9704771,121.3410677,https://maps.google.com/?cid=0x0:0xd14db750d896bdc9,
hotel,Hotel,Penginapan Bunga Tani,"7Q85+VFM, Tanaku Raya, Kec. Bungku Utara, Kabupaten Morowali Utara, Sulawesi Tengah 94972","Tanaku Raya, Kec. Bungku Utara, Kabupaten Morowali Utara",SULAWESI TENGAH,94972.0,Indonesia,,,,-1.7327915,121.7586609,https://maps.google.com/?cid=0x0:0xe264c241317956af,
hotel,Hotel,Penginapan  Rumah Makan Anita,"6QJX+XCQ, Baturube, Kec. Bungku Utara, Kabupaten Morowali, Sulawesi Tengah 94972","Baturube, Kec. Bungku Utara, Kabupaten Morowali",SULAWESI TENGAH,94972.0,Indonesia,81355101781.0,,,-1.7675364,121.7986249,https://maps.google.com/?cid=0x0:0x336751eb5fce9870,
hotel,Hotel,Penginapan Jamor,"9X7F+GQ6, Unnamed Road, Tana Sumpu, Kec. Mamosalato, Kabupaten Morowali Utara, Sulawesi Tengah 94972","Unnamed Road, Tana Sumpu, Kec. Mamosalato, Kabupaten Morowali Utara",SULAWESI TENGAH,94972.0,Indonesia,81342110525.0,,,-1.6362111,121.9743875,https://maps.google.com/?cid=0x0:0x23ed5a157aba36f9,
hotel,Hotel,Tana Sumpu mamosalato Morowali Utara,"9X9G+2M7, Tana Sumpu, Kec. Mamosalato, Kabupaten Morowali Utara, Sulawesi Tengah 94972","Tana Sumpu, Kec. Mamosalato, Kabupaten Morowali Utara",SULAWESI TENGAH,94972.0,Indonesia,,,,-1.6321352,121.9769872,https://maps.google.com/?cid=0x0:0x657bfe8c7d9f7fd6,
hotel,Penginapan Dalam Ruangan,Morowali,"6QWH+3Q6, Kalombang, Kec. Bungku Utara, Kabupaten Morowali Utara, Sulawesi Tengah 94972","Kalombang, Kec. Bungku Utara, Kabupaten Morowali Utara",SULAWESI TENGAH,94972.0,Indonesia,,,,-1.7548388,121.7793794,https://maps.google.com/?cid=0x0:0x9e5cca49006b41b9,
hotel,Hotel,Bunta,"9993+GMF, Matube, Kec. Bungku Utara, Kabupaten Morowali Utara, Sulawesi Tengah","Kabupaten Morowali Utara, Sulawesi Tengah",SULAWESI TENGAH,,Indonesia,,,,-1.6311761,121.3541631,https://maps.google.com/?cid=0x0:0x30e4601f6e548aec,
hotel,Hotel,Penginapan Pettalolo,"9X7F+Q6C, Tana Sumpu, Kec. Mamosalato, Kabupaten Morowali, Sulawesi Tengah 94972","Tana Sumpu, Kec. Mamosalato, Kabupaten Morowali",SULAWESI TENGAH,94972.0,Indonesia,82350259298.0,,,-1.6355686,121.9728481,https://maps.google.com/?cid=0x0:0x75c01ad466e94cb9,
hotel,hotel,Sulawesi Tengah 94975,"Menui Kepulauan, Kabupaten Morowali, Sulawesi Tengah","Kabupaten Morowali, Sulawesi Tengah",SULAWESI TENGAH,,Indonesia,,,,-3.2225368,122.3900901,https://maps.google.com/?cid=0x0:0x9de28c77bab1263b,
hotel,hotel,"Labengki Nirwana Resort, Sulawesi Tenggara","GF87+4WX, Labengi, Kabupaten Konawe Utara, Sulawesi Tenggara","Kabupaten Konawe Utara, Sulawesi Tenggara",SULAWESI TENGAH,,Indonesia,85298722160.0,,,-3.4846313,122.4648571,https://maps.google.com/?cid=0x0:0x48ba271fd25b7683,
hotel,hotel,SBY RESORT,"72R4+QCQ, Jl. Trans Sulawesi, Bahomoahi, Kec. Bungku Tengah, Kabupaten Morowali, Sulawesi Tengah 94973","Jl. Trans Sulawesi, Bahomoahi, Kec. Bungku Tengah, Kabupaten Morowali",SULAWESI TENGAH,94973.0,Indonesia,82142644453.0,,,-2.7080463,122.006097,https://maps.google.com/?cid=0x0:0x18937120b78d3dff,
hotel,hotel,Morowali Beach Hotel,"Jl. Jalur 16 No.105A, Ipi, Kec. Bungku Tengah, Kabupaten Morowali, Sulawesi Tengah 94973","Ipi, Kec. Bungku Tengah, Kabupaten Morowali",SULAWESI TENGAH,94973.0,Indonesia,82155861575.0,,,-2.5037933,121.9507906,https://maps.google.com/?cid=0x0:0x15f5942cb57606c7,
hotel,Tujuan Wisata,Permandian Air Terjun POFUA 'A,"FWW4+XVP, Bente, Kec. Bungku Tengah, Kabupaten Morowali, Sulawesi Tengah","Kabupaten Morowali, Sulawesi Tengah",SULAWESI TENGAH,,Indonesia,,,,-2.5021248,121.9062183,https://maps.google.com/?cid=0x0:0xa5da0dfffb6181e2,
hotel,hotel,Kec. Wita Ponda,"Kabupaten Morowali, Sulawesi Tengah","Kabupaten Morowali, Sulawesi Tengah",SULAWESI TENGAH,,Indonesia,,,,-2.214136,121.5990103,https://maps.google.com/?cid=0x0:0xff62e010995308a1,
hotel,hotel,Soldadu Morowali Hotel,"Jl. Trans Sulawesi No.1, Bente, Kec. Bungku Tengah, Kabupaten Morowali, Sulawesi Tengah 94973","Bente, Kec. Bungku Tengah, Kabupaten Morowali",SULAWESI TENGAH,94973.0,Indonesia,85705704032.0,,,-2.4959619,121.9424131,https://maps.google.com/?cid=0x0:0x4f867af43b3f91ac,
hotel,hotel,Hotel Lusiana,"Nekkel, Kec. Nuha, Kabupaten Luwu Timur, Sulawesi Selatan 92983","Kec. Nuha, Kabupaten Luwu Timur",SULAWESI TENGAH,92983.0,Indonesia,82197308445.0,,,-2.522328,121.357749,https://maps.google.com/?cid=0x0:0x616e1a414a2b27e,
hotel,hotel,HOTEL ALEXA TOWUTI,"100M dari Kantor POLSEK, Jl. Poros Wawondula - Timampu, Wawondula, Kec. Towuti, Kabupaten Luwu Timur, Sulawesi Selatan 92982","Jl. Poros Wawondula - Timampu, Wawondula, Kec. Towuti, Kabupaten Luwu Timur",SULAWESI TENGAH,92982.0,Indonesia,8114199392.0,,,-2.6425812,121.3823365,https://maps.google.com/?cid=0x0:0x6070af28ae133bf2,
hotel,hotel,Hotel Mireya Sorowako,"Jl. Ontini No.1, Sorowako, Kec. Nuha, Kabupaten Luwu Timur, Sulawesi Selatan 92983","Sorowako, Kec. Nuha, Kabupaten Luwu Timur",SULAWESI TENGAH,92983.0,Indonesia,82195115977.0,,,-2.5268323,121.3898797,https://maps.google.com/?cid=0x0:0xf20b235d6c3ccd21,
hotel,hotel,Hotel Villa Matano Sorowako,"Vdm Sumasang, Jl. Ebony Raya No.A/9, Sorowako, Kec. Nuha, Kabupaten Luwu Timur, Sulawesi Selatan 92983","Jl. Ebony Raya No.A/9, Sorowako, Kec. Nuha, Kabupaten Luwu Timur",SULAWESI TENGAH,92983.0,Indonesia,8124236243.0,,,-2.5287103,121.3746214,https://maps.google.com/?cid=0x0:0xcead16debcecbfe2,
hotel,hotel,Hotel Jalin Resort Morowali,"Jl. Trans Sulawesi, Bahomotefe, Kec. Bungku Tengah, Kabupaten Morowali, Sulawesi Tengah 94973","Bahomotefe, Kec. Bungku Tengah, Kabupaten Morowali",SULAWESI TENGAH,94973.0,Indonesia,81342275454.0,,,-2.7206026,122.0130123,https://maps.google.com/?cid=0x0:0x25c8ed8fb053eb75,
hotel,hotel,Matano Sunrise,"F9CJ+V67, Sorowako, Kec. Nuha, Kabupaten Luwu Timur, Sulawesi Selatan 92983","Sorowako, Kec. Nuha, Kabupaten Luwu Timur",SULAWESI TENGAH,92983.0,Indonesia,811423607.0,,,-2.5278291,121.3805399,https://maps.google.com/?cid=0x0:0x93b9d5b7933d604,
hotel,hotel,Krakatau Resto,"Jl. Krakatau No.179, Magani, Kec. Nuha, Kabupaten Luwu Timur, Sulawesi Selatan 92983","Magani, Kec. Nuha, Kabupaten Luwu Timur",SULAWESI TENGAH,92983.0,Indonesia,85298814433.0,,,-2.5256378,121.3533563,https://maps.google.com/?cid=0x0:0xf5d5393fd9422e0a,
hotel,hotel,Hotel Transisco Sorowako,"Jl. Incoiro, Nekkel, Kec. Nuha, Kabupaten Luwu Timur, Sulawesi Selatan 92983","Nekkel, Kec. Nuha, Kabupaten Luwu Timur",SULAWESI TENGAH,92983.0,Indonesia,85340419197.0,,,-2.5225044,121.3596129,https://maps.google.com/?cid=0x0:0x88d3a9a64ffd9523,
hotel,hotel,Hotel Galang,"Jl. Abdul Wahab No.7, Marsaoleh, Kec. Bungku Tengah, Kabupaten Morowali, Sulawesi Tengah 94973","Marsaoleh, Kec. Bungku Tengah, Kabupaten Morowali",SULAWESI TENGAH,94973.0,Indonesia,81354439700.0,,,-2.5431707,121.9698521,https://maps.google.com/?cid=0x0:0xbaa8ed93b4ad6fa,
hotel,hotel,PENGINAPAN QEYLA,"Bahodopi, Kec. Bahodopi, Kabupaten Morowali, Sulawesi Tengah 94974","Kec. Bahodopi, Kabupaten Morowali",SULAWESI TENGAH,94974.0,Indonesia,85824758237.0,,,-2.7958289,122.1134102,https://maps.google.com/?cid=0x0:0xcce64a008e0de703,
restaurant,restaurant,Sulawesi Tengah 94974,"Kabupaten Morowali, Sulawesi Tengah","Kabupaten Morowali, Sulawesi Tengah",SULAWESI TENGAH,,Indonesia,,,,-2.8626226,122.1291843,https://maps.google.com/?cid=0x0:0xb267e774a37f920f,
restaurant,Kedai Kopi,Sari Rasa Restaurant,"646Q+34G, Keurea, Kec. Bahodopi, Kabupaten Morowali, Sulawesi Tengah 94974","Keurea, Kec. Bahodopi, Kabupaten Morowali",SULAWESI TENGAH,94974.0,Indonesia,,,,-2.7898172,122.137833,https://maps.google.com/?cid=0x0:0x3bec0cb6e97b0ff5,
restaurant,Kedai Kopi,Montana Cafe,"6456+2CR, Bahodopi, Kec. Bahodopi, Kabupaten Morowali, Sulawesi Tengah 94974","Bahodopi, Kec. Bahodopi, Kabupaten Morowali",SULAWESI TENGAH,94974.0,Indonesia,85156237830.0,,,-2.7923057,122.1110729,https://maps.google.com/?cid=0x0:0x5c9a34d051d4ea50,
restaurant,Kedai Kopi,Star-Up Cafe,"643F+G53, Lrg. Pelangi, Bahodopi, Kec. Bahodopi, Kabupaten Morowali, Sulawesi Tengah 94974","Lrg. Pelangi, Bahodopi, Kec. Bahodopi, Kabupaten Morowali",SULAWESI TENGAH,94974.0,Indonesia,,,,-2.7962298,122.1229082,https://maps.google.com/?cid=0x0:0xaa48aca11ab894bc,
restaurant,Kedai Kopi,Searah Cafe Morowali,"Bahodopi, Kec. Bahodopi, Kabupaten Morowali, Sulawesi Tengah 94974","Kec. Bahodopi, Kabupaten Morowali",SULAWESI TENGAH,94974.0,Indonesia,85342813182.0,,,-2.7896323,122.1167357,https://maps.google.com/?cid=0x0:0x8ab8446ee9482dff,
restaurant,Restoran,RM NARASA,"646H+9V9, Keurea, Kec. Bahodopi, Kabupaten Morowali, Sulawesi Tengah 94974","Keurea, Kec. Bahodopi, Kabupaten Morowali",SULAWESI TENGAH,94974.0,Indonesia,82297086789.0,,,-2.7890937,122.1297334,https://maps.google.com/?cid=0x0:0xdfa09e98cf2479ae,
restaurant,Prasmanan,PT QMB çæ´»åº,"45Q8+VJC, Labota, Kec. Bahodopi, Kabupaten Morowali, Sulawesi Tengah","Kabupaten Morowali, Sulawesi Tengah",SULAWESI TENGAH,,Indonesia,,,,-2.8603117,122.1665288,https://maps.google.com/?cid=0x0:0xfcb08547b1c03260,
restaurant,Bakso,RM. Rindu Rasa Super Bakso Solo Labota,"Rusunawa labota, Labota, Bahodopi, Morowali Regency, Central Sulawesi 94974","Labota, Bahodopi, Morowali Regency",SULAWESI TENGAH,94974.0,Indonesia,812333333333.0,,,-2.8579951,122.1829771,https://maps.google.com/?cid=0x0:0xcddf4aac5457fe0f,
restaurant,Sulawesi Selatan,COTO DAENG II,"Unnamed Road, Keurea, Kec. Bahodopi, Kabupaten Morowali, Sulawesi Tengah 94974","Keurea, Kec. Bahodopi, Kabupaten Morowali",SULAWESI TENGAH,94974.0,Indonesia,85298641632.0,,,-2.7902087,122.1406136,https://maps.google.com/?cid=0x0:0x43b9c72613419520,
restaurant,Restoran,GO!STEAK Tabo (Steak Bahodopi),"555R+989, Labota, Kec. Bahodopi, Kabupaten Morowali, Sulawesi Tengah","Kabupaten Morowali, Sulawesi Tengah",SULAWESI TENGAH,,Indonesia,82194835895.0,,,-2.8416109,122.1908272,https://maps.google.com/?cid=0x0:0x4dac3f3d076679b8,
restaurant,Rumah Makan,Sambal Bakar Sepiring Hati,"55W3+4X3, Bahodopi, Kec. Bahodopi, Kabupaten Morowali, Sulawesi Tengah 94974","Bahodopi, Kec. Bahodopi, Kabupaten Morowali",SULAWESI TENGAH,94974.0,Indonesia,82310616023.0,,,-2.8047317,122.1549084,https://maps.google.com/?cid=0x0:0x9477363c214bd8e6,
restaurant,Restoran,Minang Puncak,"55H9+4WX, Fatufia, Kec. Bahodopi, Kabupaten Morowali, Sulawesi Tengah 94974","Fatufia, Kec. Bahodopi, Kabupaten Morowali",SULAWESI TENGAH,94974.0,Indonesia,,,,-2.8221842,122.1700186,https://maps.google.com/?cid=0x0:0xad494f6e339117cb,
restaurant,Restoran,RM Goyang Lidah,"55X3+55X, Unnamed Road, Keurea, Kec. Bahodopi, Kabupaten Morowali, Sulawesi Tengah 94974","Unnamed Road, Keurea, Kec. Bahodopi, Kabupaten Morowali",SULAWESI TENGAH,94974.0,Indonesia,85325244351.0,,,-2.8020185,122.1529892,https://maps.google.com/?cid=0x0:0xd293177701d394b3,
restaurant,Komplek perumahan,PPR Place,"6423+53J, Bahodopi, Kec. Bahodopi, Kabupaten Morowali, Sulawesi Tengah 94974","Bahodopi, Kec. Bahodopi, Kabupaten Morowali",SULAWESI TENGAH,94974.0,Indonesia,,,,-2.7995468,122.1026492,https://maps.google.com/?cid=0x0:0x1c533bb6b93e58b8,
restaurant,Restoran,BIDIKIN FOOD  DRINK,"Labota, Kec. Bahodopi, Kabupaten Morowali, Sulawesi Tengah 94974","Kec. Bahodopi, Kabupaten Morowali",SULAWESI TENGAH,94974.0,Indonesia,85246794389.0,,,-2.8783994,122.1824992,https://maps.google.com/?cid=0x0:0x3733cbda5e601688,
restaurant,Restoran,Pinisi Pizza Bahodopi,"6446+M37, Bahodopi, Kec. Bahodopi, Kabupaten Morowali, Sulawesi Tengah","Kabupaten Morowali, Sulawesi Tengah",SULAWESI TENGAH,,Indonesia,85242555228.0,,,-2.7933417,122.1101614,https://maps.google.com/?cid=0x0:0x431534ee3a0d15c3,
restaurant,Restoran,AYAM GULING ENAKO FATUFIA MOROWALI 01,"55P5+W5H jl. trans fatufia morowali, bungku, bahodopi, keurea, Fatufia, Kec. Bahodopi, Kabupaten Morowali, Sulawesi Tengah 94974","bungku, bahodopi, keurea, Fatufia, Kec. Bahodopi, Kabupaten Morowali",SULAWESI TENGAH,94974.0,Indonesia,,,,-2.8128384,122.15801,https://maps.google.com/?cid=0x0:0x819ff55330fd3562,
restaurant,Restoran,Warung Makan Mas Daeng,"45VM+F98, Jl. Trans Sulawesi, Labota, Kec. Bahodopi, Kabupaten Morowali, Sulawesi Tengah 94974","Jl. Trans Sulawesi, Labota, Kec. Bahodopi, Kabupaten Morowali",SULAWESI TENGAH,94974.0,Indonesia,85342102514.0,,,-2.8563339,122.1834448,https://maps.google.com/?cid=0x0:0xa7e6a5e286285e14,
restaurant,Nasi,Rumah Makan Dua Gurih,"6522+Q3G, Keurea, Kec. Bahodopi, Kabupaten Morowali, Sulawesi Tengah","Kabupaten Morowali, Sulawesi Tengah",SULAWESI TENGAH,,Indonesia,82278804246.0,,,-2.7980827,122.1506034,https://maps.google.com/?cid=0x0:0x41cd5516f9758d82,
restaurant,Mi,KEDAI BAKMIL,"jl. lorong puskesmas, Keurea, Kec. Bahodopi, Kabupaten Morowali, Sulawesi Tengah 94974","Keurea, Kec. Bahodopi, Kabupaten Morowali",SULAWESI TENGAH,94974.0,Indonesia,85236109636.0,,,-2.7932411,122.1299414,https://maps.google.com/?cid=0x0:0x97cfeeeb7878af5,
restaurant,Indonesia,WM. Prasmanan Bulan 2,"646Q+2HJ, Unnamed Road, Keurea, Kec. Bahodopi, Kabupaten Morowali, Sulawesi Tengah 94974","Unnamed Road, Keurea, Kec. Bahodopi, Kabupaten Morowali",SULAWESI TENGAH,94974.0,Indonesia,,,,-2.7899162,122.1388813,https://maps.google.com/?cid=0x0:0x3b24c477d33f50d2,
restaurant,Martabak,Martabak luber jaya,"Bahomakmur, Kec. Bahodopi, Kabupaten Morowali, Sulawesi Tengah 94974","Kec. Bahodopi, Kabupaten Morowali",SULAWESI TENGAH,94974.0,Indonesia,,,,-2.8124583,122.1407682,https://maps.google.com/?cid=0x0:0x1471d0fa552e74df,
restaurant,Kantin sekolah,Kantin Utara,"55F7+QVW, Unnamed Road, Fatufia, Bahodopi, Morowali Regency, Central Sulawesi 94974","Unnamed Road, Fatufia, Bahodopi, Morowali Regency",SULAWESI TENGAH,94974.0,Indonesia,,,,-2.8255148,122.1646978,https://maps.google.com/?cid=0x0:0x78f9b686ba701997,
restaurant,Restoran,Rumah makan sari murni,"54QX+27R, Unnamed Road, Bahomakmur, Kec. Bahodopi, Kabupaten Morowali, Sulawesi Tengah 94974","Unnamed Road, Bahomakmur, Kec. Bahodopi, Kabupaten Morowali",SULAWESI TENGAH,94974.0,Indonesia,,,,-2.8123777,122.1481545,https://maps.google.com/?cid=0x0:0x13c50e1b7b9735e1,
restaurant,restaurant,Kec. Bumi Raya,"Kabupaten Morowali, Sulawesi Tengah","Kabupaten Morowali, Sulawesi Tengah",SULAWESI TENGAH,,Indonesia,,,,-2.2160038,121.7239224,https://maps.google.com/?cid=0x0:0x733f460809c91197,
restaurant,Indonesia,RUMAH MAKAN TIARA,"QPJM+4MP, Jl. Trans Sulawesi, Bahonsuai, Kec. Bumi Raya, Kabupaten Morowali, Sulawesi Tengah 94976","Jl. Trans Sulawesi, Bahonsuai, Kec. Bumi Raya, Kabupaten Morowali",SULAWESI TENGAH,94976.0,Indonesia,,,,-2.2196678,121.7341907,https://maps.google.com/?cid=0x0:0x2ff66b7fc0318b04,
restaurant,Sulawesi Selatan,Warung Makan Abbiyya Coto Makassar,"QPM4+3X6, Samarenda, Kec. Bumi Raya, Kabupaten Morowali, Sulawesi Tengah 94976","Samarenda, Kec. Bumi Raya, Kabupaten Morowali",SULAWESI TENGAH,94976.0,Indonesia,,,,-2.2173375,121.7073919,https://maps.google.com/?cid=0x0:0xb77fd6e46c023691,
restaurant,Restoran,Rumah Makan Jawi Wetan Ambunu,"Jl. Trans Sulawesi, Ambunu, Kec. Bungku Bar., Kabupaten Morowali, Sulawesi Tengah 94976","Ambunu, Kec. Bungku Bar., Kabupaten Morowali",SULAWESI TENGAH,94976.0,Indonesia,85255329265.0,,,-2.2602642,121.7655021,https://maps.google.com/?cid=0x0:0x36a35ae79a23e854,
restaurant,Dapur Umum,Rumah Makan Lestari,"QMC5+JVR, Lasampi, Kec. Bumi Raya, Kabupaten Morowali, Sulawesi Tengah 94976","Lasampi, Kec. Bumi Raya, Kabupaten Morowali",SULAWESI TENGAH,94976.0,Indonesia,,,,-2.2283822,121.6596553,https://maps.google.com/?cid=0x0:0x8a91e3d0794f9028,
restaurant,Brunch,Warung Makan Lesehan Ojo Lali Sukamaju,"Bahonsuai, Kec. Bumi Raya, Kabupaten Morowali, Sulawesi Tengah 94976","Kec. Bumi Raya, Kabupaten Morowali",SULAWESI TENGAH,94976.0,Indonesia,85256951698.0,,,-2.2163734,121.7270911,https://maps.google.com/?cid=0x0:0x649d4d46feeb39c,
restaurant,Dapur Umum,Warung Makan Mekar Sari Wong Solo,"QMHH+749, Jl. Trans Sulawesi, Pebatae, Kec. Bumi Raya, Kabupaten Morowali, Sulawesi Tengah 94976","Jl. Trans Sulawesi, Pebatae, Kec. Bumi Raya, Kabupaten Morowali",SULAWESI TENGAH,94976.0,Indonesia,,,,-2.2218316,121.6778555,https://maps.google.com/?cid=0x0:0xe33a3a0581dc8162,
restaurant,Indonesia,Warung Jawa Timur,"QPM9+GPP, Jl. Trans Sulawesi, Bahonsuai, Kec. Bumi Raya, Kabupaten Morowali, Sulawesi Tengah 94976","Jl. Trans Sulawesi, Bahonsuai, Kec. Bumi Raya, Kabupaten Morowali",SULAWESI TENGAH,94976.0,Indonesia,81354498574.0,,,-2.2161567,121.7193233,https://maps.google.com/?cid=0x0:0x18905f20709458e4,
restaurant,Padang,RUMAH MAKAN GOYANG LIDAH2,"Sampeantaba, Kec. Wita Ponda, Kabupaten Morowali, Sulawesi Tengah","Kabupaten Morowali, Sulawesi Tengah",SULAWESI TENGAH,,Indonesia,85704624308.0,,,-2.2252549,121.6510357,https://maps.google.com/?cid=0x0:0x71eb6bfe8d2efec8,
restaurant,Restoran,Resto Ba'a Puncak Ipi,"Ipi, Kec. Bungku Tengah, Kabupaten Morowali, Sulawesi Tengah 94973","Kec. Bungku Tengah, Kabupaten Morowali",SULAWESI TENGAH,94973.0,Indonesia,85158858838.0,,,-2.5071762,121.9421949,https://maps.google.com/?cid=0x0:0xa6a4e2b51aa8feaa,
restaurant,Brunch,Ros celluler dan rumah makan,"QPMH+864, Unnamed Road, Bahonsuai, Kec. Bumi Raya, Kabupaten Morowali, Sulawesi Tengah 94976","Unnamed Road, Bahonsuai, Kec. Bumi Raya, Kabupaten Morowali",SULAWESI TENGAH,94976.0,Indonesia,82329433009.0,,,-2.2167346,121.7280754,https://maps.google.com/?cid=0x0:0x7e3d4722af20d404,
restaurant,Indonesia,Warung Dua Putra,"QMV8+3VG, Umbele, Kec. Bumi Raya, Kabupaten Morowali, Sulawesi Tengah","Kabupaten Morowali, Sulawesi Tengah",SULAWESI TENGAH,,Indonesia,,,,-2.2073147,121.6671971,https://maps.google.com/?cid=0x0:0x9762bf6ad9d32c0a,
restaurant,restaurant,Liling resto,"PQGH+FMH, Jl. Trans Sulawesi, Tofogaro, Kec. Bungku Bar., Kabupaten Morowali, Sulawesi Tengah 94976","Jl. Trans Sulawesi, Tofogaro, Kec. Bungku Bar., Kabupaten Morowali",SULAWESI TENGAH,94976.0,Indonesia,,,,-2.2780805,121.7844209,https://maps.google.com/?cid=0x0:0x469e7700ef9b140,
restaurant,Kafe,Cafe Teruma morowali,"Jl. Trans Sulawesi, Wosu, Kec. Bungku Bar., Kabupaten Morowali, Sulawesi Tengah 94976","Wosu, Kec. Bungku Bar., Kabupaten Morowali",SULAWESI TENGAH,94976.0,Indonesia,85256938889.0,,,-2.3557512,121.8517169,https://maps.google.com/?cid=0x0:0xc7973c3fb854a063,
restaurant,Restoran,Rumah Makan Fatir Malaka,"QPGQ+QGX, Jl. Trans Sulawesi, Parilangke, Kec. Bumi Raya, Kabupaten Morowali, Sulawesi Tengah 94976","Jl. Trans Sulawesi, Parilangke, Kec. Bumi Raya, Kabupaten Morowali",SULAWESI TENGAH,94976.0,Indonesia,,,,-2.2230202,121.738869,https://maps.google.com/?cid=0x0:0x341fb62a41c3aaca,
restaurant,Rumah Makan,bungku,"RMCH+QW, Umbele, Kec. Bumi Raya, Kabupaten Morowali, Sulawesi Tengah","Kabupaten Morowali, Sulawesi Tengah",SULAWESI TENGAH,,Indonesia,,,,-2.178048,121.679779,https://maps.google.com/?cid=0x0:0x29c58fa242b75df4,
restaurant,Rumah Makan,Rumah makan helokity,"QP69+276 Wata, Harapan Jaya, Kec. Bumi Raya, Kabupaten Morowali, Sulawesi Tengah 94976","Harapan Jaya, Kec. Bumi Raya, Kabupaten Morowali",SULAWESI TENGAH,94976.0,Indonesia,,,,-2.2399607,121.7181376,https://maps.google.com/?cid=0x0:0x3c93dfbd7103206e,
restaurant,Kedai Kopi,Kedai Best Tea,"QM76+9MJ, Jl. Elang, Lasampi, Kec. Bumi Raya, Kabupaten Morowali, Sulawesi Tengah 94976","Jl. Elang, Lasampi, Kec. Bumi Raya, Kabupaten Morowali",SULAWESI TENGAH,94976.0,Indonesia,85155436587.0,,,-2.236543,121.6616558,https://maps.google.com/?cid=0x0:0xd3595863ed403680,
restaurant,Brunch,Warung Bakso Sudi Mampir Pak Yanto,"QPJM+F7X, Jl. Trans Sulawesi, Bahonsuai, Kec. Bumi Raya, Kabupaten Morowali, Sulawesi Tengah 94976","Jl. Trans Sulawesi, Bahonsuai, Kec. Bumi Raya, Kabupaten Morowali",SULAWESI TENGAH,94976.0,Indonesia,81343915398.0,,,-2.2187553,121.7332383,https://maps.google.com/?cid=0x0:0xa99ff77935cd2a30,
restaurant,Brunch,KIMSUM ( Kimbab  Dimsum),"QPMG+QWJ, Bahonsuai, Kec. Bumi Raya, Kabupaten Morowali, Sulawesi Tengah","Kabupaten Morowali, Sulawesi Tengah",SULAWESI TENGAH,,Indonesia,895359947817.0,,,-2.2159273,121.7271366,https://maps.google.com/?cid=0x0:0x19198fb4d8b100a3,
restaurant,Kafe,My Soldadu Cafe  Resto,"Jl. Trans Sulawesi No.1, Bente, Kec. Bungku Tengah, Kabupaten Morowali, Sulawesi Tengah 94976","Bente, Kec. Bungku Tengah, Kabupaten Morowali",SULAWESI TENGAH,94976.0,Indonesia,81335024922.0,,,-2.4959619,121.9424131,https://maps.google.com/?cid=0x0:0x50ccab5d36c238cd,
restaurant,Padang,Rumah Makan Bumi Minang,"Ruko Lemirage, Jl. Curugan No.11, Tanah Baru, Kecamatan Beji, Kota Depok, Jawa Barat 16424","Jl. Curugan No.11, Tanah Baru, Kecamatan Beji, Kota Depok",SULAWESI TENGAH,16424.0,Indonesia,81288764445.0,,,-6.371047,106.799893,https://maps.google.com/?cid=0x0:0x200300c55ef31788,
restaurant,Kafe,Bumi Resto Indonesia,"VJ7F+P93, RT.006/RW.004, Kedaung Wetan, Kec. Neglasari, Kota Tangerang, Banten 15128","RT.006/RW.004, Kedaung Wetan, Kec. Neglasari, Kota Tangerang",SULAWESI TENGAH,15128.0,Indonesia,,,,-6.1357435,106.6234363,https://maps.google.com/?cid=0x0:0xd71fb4d79afcbe43,
restaurant,Hidangan Laut,RASA BUMI,"Jl. Pluit Permai raya No.23, Pluit, Kec. Penjaringan, Jkt Utara, Daerah Khusus Ibukota Jakarta 14450","Pluit, Kec. Penjaringan, Jkt Utara",SULAWESI TENGAH,14450.0,Indonesia,82211776367.0,,,-6.1157032,106.7906258,https://maps.google.com/?cid=0x0:0xd9eea76fc3b6944e,
restaurant,Restoran,RESTO BUMIA,"Jl. Pulo Empang No.53, RT.01/RW.06, Paledang, Kecamatan Bogor Tengah, Kota Bogor, Jawa Barat 16122","RT.01/RW.06, Paledang, Kecamatan Bogor Tengah, Kota Bogor",SULAWESI TENGAH,16122.0,Indonesia,8111159982.0,,,-6.6057423,106.7928985,https://maps.google.com/?cid=0x0:0xc2373ba8cfcfaca9,
restaurant,Pujasera,Kv@Bumiindah,"RHP6+R27, Jl. Raya Bumi Indah, Gelam Jaya, Kec. Ps. Kemis, Kabupaten Tangerang, Banten 15560","Jl. Raya Bumi Indah, Gelam Jaya, Kec. Ps. Kemis, Kabupaten Tangerang",SULAWESI TENGAH,15560.0,Indonesia,215928555.0,,,-6.1627866,106.5605079,https://maps.google.com/?cid=0x0:0xc3157a55be6a26db,
restaurant,Brunch,Mbo'is Resto Bumi Sentosa,"ruko, Jl. Bumi Sentosa Raya, Nanggewer Mekar, Kec. Cibinong, Kabupaten Bogor, Jawa Barat 16912","Jl. Bumi Sentosa Raya, Nanggewer Mekar, Kec. Cibinong, Kabupaten Bogor",SULAWESI TENGAH,16912.0,Indonesia,87781041965.0,,,-6.5075522,106.8436407,https://maps.google.com/?cid=0x0:0xba5478fa39ec8624,
restaurant,Perumahan,Bumi Indah,"RHH4+9X8, Gelam Jaya, Kec. Ps. Kemis, Kabupaten Tangerang, Banten 15560","Gelam Jaya, Kec. Ps. Kemis, Kabupaten Tangerang",SULAWESI TENGAH,15560.0,Indonesia,,,,-6.171727,106.5575445,https://maps.google.com/?cid=0x0:0x25e4336de2cc3535,
restaurant,Indonesia,RESTO BUMI RAOS,"Jl. Raya Parung No.9, Pemagarsari, Kec. Parung, Kabupaten Bogor, Jawa Barat 16330","Pemagarsari, Kec. Parung, Kabupaten Bogor",SULAWESI TENGAH,16330.0,Indonesia,,,,-6.4514374,106.7312589,https://maps.google.com/?cid=0x0:0xae281e82ad4311fc,
restaurant,restaurant,Kec. Bungku Bar.,"Kabupaten Morowali, Sulawesi Tengah","Kabupaten Morowali, Sulawesi Tengah",SULAWESI TENGAH,,Indonesia,,,,-2.3550315,121.8504279,https://maps.google.com/?cid=0x0:0x60891acc9bfe198d,
restaurant,Restoran,Resto Bungku Beach Morowali,"Unnamed Road, Tofuti, Kec. Bungku Tengah, Kabupaten Morowali, Sulawesi Tengah 94973","Tofuti, Kec. Bungku Tengah, Kabupaten Morowali",SULAWESI TENGAH,94973.0,Indonesia,,,,-2.5531679,121.9771748,https://maps.google.com/?cid=0x0:0x28983dd9d8fdbbf8,
restaurant,Kafe,My Soldadu Cafe  Resto,"Jl. Trans Sulawesi No.1, Bente, Kec. Bungku Tengah, Kabupaten Morowali, Sulawesi Tengah 94976","Bente, Kec. Bungku Tengah, Kabupaten Morowali",SULAWESI TENGAH,94976.0,Indonesia,81335024922.0,,,-2.4959619,121.9424131,https://maps.google.com/?cid=0x0:0x50ccab5d36c238cd,
restaurant,Kafe,Cafe Teruma morowali,"Jl. Trans Sulawesi, Wosu, Kec. Bungku Bar., Kabupaten Morowali, Sulawesi Tengah 94976","Wosu, Kec. Bungku Bar., Kabupaten Morowali",SULAWESI TENGAH,94976.0,Indonesia,85256938889.0,,,-2.3557512,121.8517169,https://maps.google.com/?cid=0x0:0xc7973c3fb854a063,
restaurant,Restoran,Resto Ba'a Puncak Ipi,"Ipi, Kec. Bungku Tengah, Kabupaten Morowali, Sulawesi Tengah 94973","Kec. Bungku Tengah, Kabupaten Morowali",SULAWESI TENGAH,94973.0,Indonesia,85158858838.0,,,-2.5071762,121.9421949,https://maps.google.com/?cid=0x0:0xa6a4e2b51aa8feaa,
restaurant,Restoran,Kios AIRA,"Jalan poros Bahonsuai - Bungku, wosu, Kec. Bungku Bar., Kabupaten Morowali, Sulawesi Tengah 94976","wosu, Kec. Bungku Bar., Kabupaten Morowali",SULAWESI TENGAH,94976.0,Indonesia,82296791188.0,,,-2.3130275,121.8307538,https://maps.google.com/?cid=0x0:0x5a872ee1c4fca711,
restaurant,Indonesia,RM. DUA GURIH,"PQ8R+H3J, Jl. Trans Sulawesi, Tofogaro, Kec. Bungku Bar., Kabupaten Morowali, Sulawesi Tengah 94976","Jl. Trans Sulawesi, Tofogaro, Kec. Bungku Bar., Kabupaten Morowali",SULAWESI TENGAH,94976.0,Indonesia,81317143432.0,,,-2.2835406,121.7902255,https://maps.google.com/?cid=0x0:0x54f68e83ee93ef3d,
restaurant,restaurant,Liling resto,"PQGH+FMH, Jl. Trans Sulawesi, Tofogaro, Kec. Bungku Bar., Kabupaten Morowali, Sulawesi Tengah 94976","Jl. Trans Sulawesi, Tofogaro, Kec. Bungku Bar., Kabupaten Morowali",SULAWESI TENGAH,94976.0,Indonesia,,,,-2.2780805,121.7844209,https://maps.google.com/?cid=0x0:0x469e7700ef9b140,
restaurant,Restoran,RM.Pelangi Haji wulan,"PQ9P+PXH, Tofogaro, Kec. Bungku Bar., Kabupaten Morowali, Sulawesi Tengah","Kabupaten Morowali, Sulawesi Tengah",SULAWESI TENGAH,,Indonesia,,,,-2.280697,121.7874789,https://maps.google.com/?cid=0x0:0x4a439d0e9f513346,
restaurant,Restoran,De Terrace Cafe and Resto,"Jl Raya KTM, Bahomohoni, Kec. Bungku Tengah, Kabupaten Morowali, Sulawesi Tengah 94973","Bahomohoni, Kec. Bungku Tengah, Kabupaten Morowali",SULAWESI TENGAH,94973.0,Indonesia,81355014825.0,,,-2.4757202,121.9302827,https://maps.google.com/?cid=0x0:0xfff51cc295fef9da,
restaurant,Rumah Makan,RM Mama Saka Punya Rasa,"HVPM+7Q8, Unnamed Road, Lanona, Kec. Bungku Bar., Kabupaten Morowali, Sulawesi Tengah 94976","Unnamed Road, Lanona, Kec. Bungku Bar., Kabupaten Morowali",SULAWESI TENGAH,94976.0,Indonesia,,,,-2.414339,121.8844675,https://maps.google.com/?cid=0x0:0x73fb24f9ed6c2a41,
restaurant,Rumah Makan,Oishi go,"Wosu, Kec. Bungku Bar., Kabupaten Morowali, Sulawesi Tengah","Kabupaten Morowali, Sulawesi Tengah",SULAWESI TENGAH,,Indonesia,82298232611.0,,,-2.3520445,121.846507,https://maps.google.com/?cid=0x0:0x67921b42ca11e002,
restaurant,Restoran,Rumah Makan Jawi Wetan Ambunu,"Jl. Trans Sulawesi, Ambunu, Kec. Bungku Bar., Kabupaten Morowali, Sulawesi Tengah 94976","Ambunu, Kec. Bungku Bar., Kabupaten Morowali",SULAWESI TENGAH,94976.0,Indonesia,85255329265.0,,,-2.2602642,121.7655021,https://maps.google.com/?cid=0x0:0x36a35ae79a23e854,
restaurant,Dapur Umum,Wosuington Seafood Grill  Suki,"MR2R+3X2, Wosu, Kec. Bungku Bar., Kabupaten Morowali, Sulawesi Tengah 94976","Wosu, Kec. Bungku Bar., Kabupaten Morowali",SULAWESI TENGAH,94976.0,Indonesia,,,,-2.3499646,121.8424315,https://maps.google.com/?cid=0x0:0x7851f077a1942bfd,
restaurant,Hidangan Laut,RM Pelangi,"FX59+3VV, Matano, Kec. Bungku Tengah, Kabupaten Morowali, Sulawesi Tengah","Kabupaten Morowali, Sulawesi Tengah",SULAWESI TENGAH,,Indonesia,82395702820.0,,,-2.5422721,121.9696571,https://maps.google.com/?cid=0x0:0x21f9a211f379081f,
restaurant,Indonesia,RM Dua Putra,"Jl. Trans Sulawesi, Larobenu, Kec. Bungku Bar., Kabupaten Morowali, Sulawesi Tengah 94976","Larobenu, Kec. Bungku Bar., Kabupaten Morowali",SULAWESI TENGAH,94976.0,Indonesia,82345206161.0,,,-2.3237845,121.8342457,https://maps.google.com/?cid=0x0:0x4a06853775c368ad,
restaurant,Restoran,Warung Makan Hatoba Topogaro,"PQJF+FH2, Jl. Trans Sulawesi, Tofogaro, Kec. Bungku Bar., Kabupaten Morowali, Sulawesi Tengah 94976","Jl. Trans Sulawesi, Tofogaro, Kec. Bungku Bar., Kabupaten Morowali",SULAWESI TENGAH,94976.0,Indonesia,82152550200.0,,,-2.2688524,121.7739009,https://maps.google.com/?cid=0x0:0xfa44b6a95a099b4c,
restaurant,Indonesia,Pallubasa Onta Morowali,"Jl. Trans Sulawesi, Bente, Kec. Bungku Tengah, Kabupaten Morowali, Sulawesi Tengah","Kabupaten Morowali, Sulawesi Tengah",SULAWESI TENGAH,,Indonesia,85325737325.0,,,-2.4793753,121.9348456,https://maps.google.com/?cid=0x0:0x90d35be1bab5cb2d,
restaurant,Sushi,AICHI RAMEN,"PQ7R+8WX, Tofogaro, Kec. Bungku Bar., Kabupaten Morowali, Sulawesi Tengah","Kabupaten Morowali, Sulawesi Tengah",SULAWESI TENGAH,,Indonesia,81371024737.0,,,-2.2866384,121.7923438,https://maps.google.com/?cid=0x0:0xb5becc383cb686ea,
restaurant,Restoran,Tofogaro rm prasmanan Jawa timur,"PQ6V+H3W, Tofogaro, Kec. Bungku Bar., Kabupaten Morowali, Sulawesi Tengah 94976","Tofogaro, Kec. Bungku Bar., Kabupaten Morowali",SULAWESI TENGAH,94976.0,Indonesia,,,,-2.2885068,121.7927052,https://maps.google.com/?cid=0x0:0x3d77ee872d60608d,
restaurant,restaurant,Restourant,"MRMM+75G, Larobenu, Kec. Bungku Bar., Kabupaten Morowali, Sulawesi Tengah","Kabupaten Morowali, Sulawesi Tengah",SULAWESI TENGAH,,Indonesia,,,,-2.3168054,121.8329484,https://maps.google.com/?cid=0x0:0x4de1b933f555bfdc,
restaurant,Restoran,warung makan moroseneng,"MR7Q+559, Larobenu, Kec. Bungku Bar., Kabupaten Morowali, Sulawesi Tengah","Kabupaten Morowali, Sulawesi Tengah",SULAWESI TENGAH,,Indonesia,,,,-2.3370916,121.8379729,https://maps.google.com/?cid=0x0:0xa104d99f9e09474b,
restaurant,Restoran,WARUNG MAKAN SAYARI MURNI 06,"PR49+QVC, Jl. Trans Sulawesi, Umpanga, Kec. Bungku Bar., Kabupaten Morowali, Sulawesi Tengah 94976","Jl. Trans Sulawesi, Umpanga, Kec. Bungku Bar., Kabupaten Morowali",SULAWESI TENGAH,94976.0,Indonesia,,,,-2.2930555,121.8196445,https://maps.google.com/?cid=0x0:0x9c521710b8a08beb,
restaurant,Restoran,Warung Makan CERIA Ambunu,"PQQ8+QCH, Jl. Trans Sulawesi, Ambunu, Kec. Bungku Bar., Kabupaten Morowali, Sulawesi Tengah 94976","Jl. Trans Sulawesi, Ambunu, Kec. Bungku Bar., Kabupaten Morowali",SULAWESI TENGAH,94976.0,Indonesia,,,,-2.2608822,121.7669095,https://maps.google.com/?cid=0x0:0x7ff9ab3645e4791,
restaurant,Restoran,Morowali,"PQH4+QQ, Ambunu, Kec. Bungku Bar., Kabupaten Morowali, Sulawesi Tengah","Kabupaten Morowali, Sulawesi Tengah",SULAWESI TENGAH,,Indonesia,,,,-2.270614,121.756965,https://maps.google.com/?cid=0x0:0x35f7c4cf77d10fe1,
restaurant,Bakso,Warung makan mas Alban,"JRRX+XXM, Wosu, Kec. Bungku Bar., Kabupaten Morowali, Sulawesi Tengah 94976","Wosu, Kec. Bungku Bar., Kabupaten Morowali",SULAWESI TENGAH,94976.0,Indonesia,,,,-2.3572657,121.8504955,https://maps.google.com/?cid=0x0:0x4ef8e737b0670708,
restaurant,Dapur Umum,HISANA fried chicken,"PQHG+3RW, Tofogaro, Kec. Bungku Bar., Kabupaten Morowali, Sulawesi Tengah","Kabupaten Morowali, Sulawesi Tengah",SULAWESI TENGAH,,Indonesia,,,,-2.2721402,121.7770106,https://maps.google.com/?cid=0x0:0xffbb5486e7df0b18,
restaurant,restaurant,Sulawesi Tengah 94974,"Kabupaten Morowali, Sulawesi Tengah","Kabupaten Morowali, Sulawesi Tengah",SULAWESI TENGAH,,Indonesia,,,,-2.8626226,122.1291843,https://maps.google.com/?cid=0x0:0xb267e774a37f920f,
restaurant,Kedai Kopi,Sari Rasa Restaurant,"646Q+34G, Keurea, Kec. Bahodopi, Kabupaten Morowali, Sulawesi Tengah 94974","Keurea, Kec. Bahodopi, Kabupaten Morowali",SULAWESI TENGAH,94974.0,Indonesia,,,,-2.7898172,122.137833,https://maps.google.com/?cid=0x0:0x3bec0cb6e97b0ff5,
restaurant,Brunch,Rm.Bunaken Baru,"jln.Rambutan lorong gereja JOB, Bahomakmur, Kec. Bahodopi, Kabupaten Morowali, Sulawesi Tengah 94974","Bahomakmur, Kec. Bahodopi, Kabupaten Morowali",SULAWESI TENGAH,94974.0,Indonesia,81285545846.0,,,-2.8096905,122.1259623,https://maps.google.com/?cid=0x0:0xcacb48404ae15de8,
restaurant,Hidangan Laut,Seafood BAR! Morowali,"55Q4+3G6, Fatufia, Kec. Bahodopi, Kabupaten Morowali, Sulawesi Tengah 94974","Fatufia, Kec. Bahodopi, Kabupaten Morowali",SULAWESI TENGAH,94974.0,Indonesia,81266364049.0,,,-2.8125652,122.1564916,https://maps.google.com/?cid=0x0:0xa480a456541a7650,
restaurant,Restoran,AYAM GULING ENAKO FATUFIA MOROWALI 01,"55P5+W5H jl. trans fatufia morowali, bungku, bahodopi, keurea, Fatufia, Kec. Bahodopi, Kabupaten Morowali, Sulawesi Tengah 94974","bungku, bahodopi, keurea, Fatufia, Kec. Bahodopi, Kabupaten Morowali",SULAWESI TENGAH,94974.0,Indonesia,,,,-2.8128384,122.15801,https://maps.google.com/?cid=0x0:0x819ff55330fd3562,
restaurant,Restoran,Minang Puncak,"55H9+4WX, Fatufia, Kec. Bahodopi, Kabupaten Morowali, Sulawesi Tengah 94974","Fatufia, Kec. Bahodopi, Kabupaten Morowali",SULAWESI TENGAH,94974.0,Indonesia,,,,-2.8221842,122.1700186,https://maps.google.com/?cid=0x0:0xad494f6e339117cb,
restaurant,Hidangan Laut,LuckySeafood 888,"Unnamed Road, Fatufia, Kec. Bahodopi, Kabupaten Morowali, Sulawesi Tengah 94974","Fatufia, Kec. Bahodopi, Kabupaten Morowali",SULAWESI TENGAH,94974.0,Indonesia,8114504503.0,,,-2.7923275,122.1441002,https://maps.google.com/?cid=0x0:0x37c5ebce31efcff6,
restaurant,Kantin sekolah,Kantin Utara,"55F7+QVW, Unnamed Road, Fatufia, Bahodopi, Morowali Regency, Central Sulawesi 94974","Unnamed Road, Fatufia, Bahodopi, Morowali Regency",SULAWESI TENGAH,94974.0,Indonesia,,,,-2.8255148,122.1646978,https://maps.google.com/?cid=0x0:0x78f9b686ba701997,
restaurant,Restoran,Warung Makan Mas Daeng,"45VM+F98, Jl. Trans Sulawesi, Labota, Kec. Bahodopi, Kabupaten Morowali, Sulawesi Tengah 94974","Jl. Trans Sulawesi, Labota, Kec. Bahodopi, Kabupaten Morowali",SULAWESI TENGAH,94974.0,Indonesia,85342102514.0,,,-2.8563339,122.1834448,https://maps.google.com/?cid=0x0:0xa7e6a5e286285e14,
restaurant,Restoran,Rm. Putri Tunggal,"Bahomakmur, Kec. Bahodopi, Kabupaten Morowali, Sulawesi Tengah 94974","Kec. Bahodopi, Kabupaten Morowali",SULAWESI TENGAH,94974.0,Indonesia,,,,-2.8124344,122.1414347,https://maps.google.com/?cid=0x0:0xce825635076c65b8,
restaurant,Bakso,RM. Rindu Rasa Super Bakso Solo Labota,"Rusunawa labota, Labota, Bahodopi, Morowali Regency, Central Sulawesi 94974","Labota, Bahodopi, Morowali Regency",SULAWESI TENGAH,94974.0,Indonesia,812333333333.0,,,-2.8579951,122.1829771,https://maps.google.com/?cid=0x0:0xcddf4aac5457fe0f,
restaurant,BBQ Korea,TâGRILL grill  suki,"Jln. Pendidikan, Keurea, Kec. Bahodopi, Kabupaten Morowali, Sulawesi Tengah 94974","Keurea, Kec. Bahodopi, Kabupaten Morowali",SULAWESI TENGAH,94974.0,Indonesia,81336144511.0,,,-2.7952579,122.129111,https://maps.google.com/?cid=0x0:0x5b53e5639fa9191a,
restaurant,Kafetaria,Central kitchen PT. IMIP,"55G4+VXC, Fatufia, Kec. Bahodopi, Kabupaten Morowali, Sulawesi Tengah 94974","Fatufia, Kec. Bahodopi, Kabupaten Morowali",SULAWESI TENGAH,94974.0,Indonesia,82271228284.0,,,-2.8228057,122.1574005,https://maps.google.com/?cid=0x0:0x38a7c59052529c72,
restaurant,Toko Makanan,Warung spontan,"55W3+4WP, Jl. Trans Sulawesi, Fatufia, Kec. Bahodopi, Kabupaten Morowali, Sulawesi Tengah 94974","Jl. Trans Sulawesi, Fatufia, Kec. Bahodopi, Kabupaten Morowali",SULAWESI TENGAH,94974.0,Indonesia,82193557781.0,,,-2.8046659,122.1548401,https://maps.google.com/?cid=0x0:0x5267d0d48653eab3,
restaurant,Kedai Kopi,Searah Cafe Morowali,"Bahodopi, Kec. Bahodopi, Kabupaten Morowali, Sulawesi Tengah 94974","Kec. Bahodopi, Kabupaten Morowali",SULAWESI TENGAH,94974.0,Indonesia,85342813182.0,,,-2.7896323,122.1167357,https://maps.google.com/?cid=0x0:0x8ab8446ee9482dff,
restaurant,Restoran,RM .COTO MAKASSAR  SOP KONRO (DAENG TARANG ),"Unnamed Road, Keurea, Kec. Bahodopi, Kabupaten Morowali, Sulawesi Tengah 94974","Keurea, Kec. Bahodopi, Kabupaten Morowali",SULAWESI TENGAH,94974.0,Indonesia,,,,-2.7930068,122.1444922,https://maps.google.com/?cid=0x0:0xefa35feaabcfb259,
restaurant,Martabak,Martabak luber jaya,"Bahomakmur, Kec. Bahodopi, Kabupaten Morowali, Sulawesi Tengah 94974","Kec. Bahodopi, Kabupaten Morowali",SULAWESI TENGAH,94974.0,Indonesia,,,,-2.8124583,122.1407682,https://maps.google.com/?cid=0x0:0x1471d0fa552e74df,
restaurant,restaurant,WARUNG PANGKEP,"6445+498, Bungku - Bahodopi, Bahodopi, Kec. Bahodopi, Kabupaten Morowali, Sulawesi Tengah 94974","Bungku - Bahodopi, Bahodopi, Kec. Bahodopi, Kabupaten Morowali",SULAWESI TENGAH,94974.0,Indonesia,,,,-2.7947248,122.1084454,https://maps.google.com/?cid=0x0:0xafc822211e9e783,
restaurant,Brunch,Torete,"X6VM+7M4, Torete, Kec. Bungku Pesisir, Kabupaten Morowali, Sulawesi Tengah 94974","Torete, Kec. Bungku Pesisir, Kabupaten Morowali",SULAWESI TENGAH,94974.0,Indonesia,85399326698.0,,,-3.0068598,122.2341905,https://maps.google.com/?cid=0x0:0xf1bf88a4eca4b87a,
restaurant,Rumah Makan,RM. CAKNO,"54QH+FGF, Bahomakmur, Kec. Bahodopi, Kabupaten Morowali, Sulawesi Tengah 94974","Bahomakmur, Kec. Bahodopi, Kabupaten Morowali",SULAWESI TENGAH,94974.0,Indonesia,,,,-2.811309,122.1288083,https://maps.google.com/?cid=0x0:0x37be6d423e9b15aa,
restaurant,Makanan Kecil,Warung mama aco,"37WX+VX, Puungkeu, Kec. Bungku Pesisir, Kabupaten Morowali, Sulawesi Tengah 94974","Puungkeu, Kec. Bungku Pesisir, Kabupaten Morowali",SULAWESI TENGAH,94974.0,Indonesia,,,,-2.9017889,122.2996853,https://maps.google.com/?cid=0x0:0x824333e2992174cf,
restaurant,Prasmanan,PT QMB çæ´»åº,"45Q8+VJC, Labota, Kec. Bahodopi, Kabupaten Morowali, Sulawesi Tengah","Kabupaten Morowali, Sulawesi Tengah",SULAWESI TENGAH,,Indonesia,,,,-2.8603117,122.1665288,https://maps.google.com/?cid=0x0:0xfcb08547b1c03260,
restaurant,Restoran,Rumah makan sari murni,"54QX+27R, Unnamed Road, Bahomakmur, Kec. Bahodopi, Kabupaten Morowali, Sulawesi Tengah 94974","Unnamed Road, Bahomakmur, Kec. Bahodopi, Kabupaten Morowali",SULAWESI TENGAH,94974.0,Indonesia,,,,-2.8123777,122.1481545,https://maps.google.com/?cid=0x0:0x13c50e1b7b9735e1,
restaurant,Restoran,RM NARASA,"646H+9V9, Keurea, Kec. Bahodopi, Kabupaten Morowali, Sulawesi Tengah 94974","Keurea, Kec. Bahodopi, Kabupaten Morowali",SULAWESI TENGAH,94974.0,Indonesia,82297086789.0,,,-2.7890937,122.1297334,https://maps.google.com/?cid=0x0:0xdfa09e98cf2479ae,
restaurant,Restoran,Warung makan bakso rindu rusun,"45QJ+M94, Labota, Kec. Bahodopi, Kabupaten Morowali, Sulawesi Tengah 94974","Labota, Kec. Bahodopi, Kabupaten Morowali",SULAWESI TENGAH,94974.0,Indonesia,,,,-2.8608708,122.180951,https://maps.google.com/?cid=0x0:0x4f35d259f84c9432,
restaurant,Indonesia,South Dining Room,"5526+372, Fatufia, Kec. Bahodopi, Kabupaten Morowali, Sulawesi Tengah 94974","Fatufia, Kec. Bahodopi, Kabupaten Morowali",SULAWESI TENGAH,94974.0,Indonesia,,,,-2.8498697,122.1606499,https://maps.google.com/?cid=0x0:0xec94a6d824c50f3f,
restaurant,restaurant,Kec. Bungku Sel.,"Kabupaten Morowali, Sulawesi Tengah","Kabupaten Morowali, Sulawesi Tengah",SULAWESI TENGAH,,Indonesia,,,,-3.1416627,122.3998289,https://maps.google.com/?cid=0x0:0x8563743865c09fc9,
restaurant,Rumah Makan,RM Podho Moro,"X72G+7JQ, Laroenai, Kec. Bungku Sel., Kabupaten Morowali, Sulawesi Tengah 94974","Laroenai, Kec. Bungku Sel., Kabupaten Morowali",SULAWESI TENGAH,94974.0,Indonesia,,,,-3.049295,122.2766012,https://maps.google.com/?cid=0x0:0x1a93dd2349839f87,
restaurant,Restoran,Resto Bungku Beach Morowali,"Unnamed Road, Tofuti, Kec. Bungku Tengah, Kabupaten Morowali, Sulawesi Tengah 94973","Tofuti, Kec. Bungku Tengah, Kabupaten Morowali",SULAWESI TENGAH,94973.0,Indonesia,,,,-2.5531679,121.9771748,https://maps.google.com/?cid=0x0:0x28983dd9d8fdbbf8,
restaurant,Brunch,Warung Binte/milu siram,"XC76+2RR, Paku, Kec. Bungku Sel., Kabupaten Morowali, Sulawesi Tengah 94974","Paku, Kec. Bungku Sel., Kabupaten Morowali",SULAWESI TENGAH,94974.0,Indonesia,85254700581.0,,,-3.0373958,122.4120092,https://maps.google.com/?cid=0x0:0x8be5ca604a75d756,
restaurant,Sesuai untuk keluarga,WARBUND,"X95X+VFF, Lokombulo, Kec. Bungku Sel., Kabupaten Morowali, Sulawesi Tengah","Kabupaten Morowali, Sulawesi Tengah",SULAWESI TENGAH,,Indonesia,,,,-3.0403236,122.398685,https://maps.google.com/?cid=0x0:0xffebcdd164bcc33c,
restaurant,Restoran,BIDIKIN BEACH,"W9WX+FM, Bungingkela, Kec. Bungku Sel., Kabupaten Morowali, Sulawesi Tengah","Kabupaten Morowali, Sulawesi Tengah",SULAWESI TENGAH,,Indonesia,85246974389.0,,,-3.0537519,122.3992416,https://maps.google.com/?cid=0x0:0xdc11dae74bdedda5,
restaurant,Sesuai untuk keluarga,Warung Ramsia,"X96X+4C, Lokombulo, Kec. Bungku Sel., Kabupaten Morowali, Sulawesi Tengah","Kabupaten Morowali, Sulawesi Tengah",SULAWESI TENGAH,,Indonesia,,,,-3.0397421,122.3985935,https://maps.google.com/?cid=0x0:0x65f97c7d9d7f0f5b,
restaurant,Kafe,My Soldadu Cafe  Resto,"Jl. Trans Sulawesi No.1, Bente, Kec. Bungku Tengah, Kabupaten Morowali, Sulawesi Tengah 94976","Bente, Kec. Bungku Tengah, Kabupaten Morowali",SULAWESI TENGAH,94976.0,Indonesia,81335024922.0,,,-2.4959619,121.9424131,https://maps.google.com/?cid=0x0:0x50ccab5d36c238cd,
restaurant,Restoran,Resto Ba'a Puncak Ipi,"Ipi, Kec. Bungku Tengah, Kabupaten Morowali, Sulawesi Tengah 94973","Kec. Bungku Tengah, Kabupaten Morowali",SULAWESI TENGAH,94973.0,Indonesia,85158858838.0,,,-2.5071762,121.9421949,https://maps.google.com/?cid=0x0:0xa6a4e2b51aa8feaa,
restaurant,Restoran,De Terrace Cafe and Resto,"Jl Raya KTM, Bahomohoni, Kec. Bungku Tengah, Kabupaten Morowali, Sulawesi Tengah 94973","Bahomohoni, Kec. Bungku Tengah, Kabupaten Morowali",SULAWESI TENGAH,94973.0,Indonesia,81355014825.0,,,-2.4757202,121.9302827,https://maps.google.com/?cid=0x0:0xfff51cc295fef9da,
restaurant,Makanan Kecil,Warung Mama Alfath,"Paku, Kec. Bungku Sel., Kabupaten Morowali, Sulawesi Tengah 94979","Kec. Bungku Sel., Kabupaten Morowali",SULAWESI TENGAH,94979.0,Indonesia,85254700581.0,,,-3.0406583,122.4084994,https://maps.google.com/?cid=0x0:0x1f8e0bedc82914d0,
restaurant,Restoran,SM TORA TARI .,"27PV+8H, Tangofa, Kec. Bungku Pesisir, Kabupaten Morowali, Sulawesi Tengah","Kabupaten Morowali, Sulawesi Tengah",SULAWESI TENGAH,,Indonesia,82394658661.0,,,-2.964727,122.294203,https://maps.google.com/?cid=0x0:0xf0532099022b9488,
restaurant,Kedai Kopi,Garssi,"XC94+XX, Bakala, Kec. Bungku Sel., Kabupaten Morowali, Sulawesi Tengah","Kabupaten Morowali, Sulawesi Tengah",SULAWESI TENGAH,,Indonesia,,,,-3.0300625,122.4074375,https://maps.google.com/?cid=0x0:0x387aea2021e214d4,
restaurant,Rumah Makan,Rumah makan sari laut Sidodadi,"27HQ+JH, One Ete, Kec. Bungku Pesisir, Kabupaten Morowali, Sulawesi Tengah","Kabupaten Morowali, Sulawesi Tengah",SULAWESI TENGAH,,Indonesia,,,,-2.970919,122.288955,https://maps.google.com/?cid=0x0:0x2fa74140f358ee82,
restaurant,Restoran,Yasaka Fried Chicken Lafeu,"Lafeu, Kec. Bungku Pesisir, Kabupaten Morowali, Sulawesi Tengah","Kabupaten Morowali, Sulawesi Tengah",SULAWESI TENGAH,,Indonesia,82297373237.0,,,-2.9935344,122.2731586,https://maps.google.com/?cid=0x0:0x46e69684f633a19e,
restaurant,Rumah Makan,Sarilaut raja rasa,"Depan alfamidi, Lafeu, Kec. Bungku Pesisir, Kabupaten Morowali, Sulawesi Tengah 94981","Lafeu, Kec. Bungku Pesisir, Kabupaten Morowali",SULAWESI TENGAH,94981.0,Indonesia,85317005821.0,,,-2.9944142,122.2726484,https://maps.google.com/?cid=0x0:0xdbef06ca26846d0f,
restaurant,Kantor Administrasi Kota,Desa Tanjung tiram,"Kecamatan Sombori, Desa, Tanjung tiram, Kabupaten Morowali, Sulawesi Tengah","Kabupaten Morowali, Sulawesi Tengah",SULAWESI TENGAH,,Indonesia,,,,-3.18875,122.4541383,https://maps.google.com/?cid=0x0:0x96853e5cf00701bd,
restaurant,Brunch,Warung Bakso Bude,"P8H6+78, Matarape, Menui Kepulauan, Kabupaten Morowali, Sulawesi Tengah","Kabupaten Morowali, Sulawesi Tengah",SULAWESI TENGAH,,Indonesia,,,,-3.2720686,122.310164,https://maps.google.com/?cid=0x0:0x8d4f852c5d1946f8,
restaurant,Martabak,Martabak Queen,"Lafeu, Kec. Bungku Pesisir, Kabupaten Morowali, Sulawesi Tengah","Kabupaten Morowali, Sulawesi Tengah",SULAWESI TENGAH,,Indonesia,82231240461.0,,,-2.9914133,122.2746181,https://maps.google.com/?cid=0x0:0x153f8c3d19c6b81,
restaurant,Hidangan Laut,Seafood BAR! Morowali,"55Q4+3G6, Fatufia, Kec. Bahodopi, Kabupaten Morowali, Sulawesi Tengah 94974","Fatufia, Kec. Bahodopi, Kabupaten Morowali",SULAWESI TENGAH,94974.0,Indonesia,81266364049.0,,,-2.8125652,122.1564916,https://maps.google.com/?cid=0x0:0xa480a456541a7650,
restaurant,Restoran,AYAM GULING ENAKO FATUFIA MOROWALI 01,"55P5+W5H jl. trans fatufia morowali, bungku, bahodopi, keurea, Fatufia, Kec. Bahodopi, Kabupaten Morowali, Sulawesi Tengah 94974","bungku, bahodopi, keurea, Fatufia, Kec. Bahodopi, Kabupaten Morowali",SULAWESI TENGAH,94974.0,Indonesia,,,,-2.8128384,122.15801,https://maps.google.com/?cid=0x0:0x819ff55330fd3562,
restaurant,Kafe,Cafe Teruma morowali,"Jl. Trans Sulawesi, Wosu, Kec. Bungku Bar., Kabupaten Morowali, Sulawesi Tengah 94976","Wosu, Kec. Bungku Bar., Kabupaten Morowali",SULAWESI TENGAH,94976.0,Indonesia,85256938889.0,,,-2.3557512,121.8517169,https://maps.google.com/?cid=0x0:0xc7973c3fb854a063,
restaurant,Rumah Kayu,Yusuf arpin,"X94W+HCM, Unnamed Road, Lokombulo, Kec. Bungku Sel., Kabupaten Morowali, Sulawesi Tengah 94974","Unnamed Road, Lokombulo, Kec. Bungku Sel., Kabupaten Morowali",SULAWESI TENGAH,94974.0,Indonesia,82259461801.0,,,-3.0435448,122.3960581,https://maps.google.com/?cid=0x0:0x8a6163f350c92072,
restaurant,Stan Kopi,Kedai gorengan mom.s syifa,"27QW+CQ5, Tangofa, Kec. Bungku Pesisir, Kabupaten Morowali, Sulawesi Tengah","Kabupaten Morowali, Sulawesi Tengah",SULAWESI TENGAH,,Indonesia,82346880897.0,,,-2.9614948,122.2969921,https://maps.google.com/?cid=0x0:0x3e8e1b6a832ed9d0,
restaurant,Warnet,Alfanya CELL,"XC76+4R4, Paku, Kec. Bungku Sel., Kabupaten Morowali, Sulawesi Tengah 94974","Paku, Kec. Bungku Sel., Kabupaten Morowali",SULAWESI TENGAH,94974.0,Indonesia,82293823316.0,,,-3.037245,122.41207,https://maps.google.com/?cid=0x0:0xec911865f5588c4f,
restaurant,Hidangan Laut,LuckySeafood 888,"Unnamed Road, Fatufia, Kec. Bahodopi, Kabupaten Morowali, Sulawesi Tengah 94974","Fatufia, Kec. Bahodopi, Kabupaten Morowali",SULAWESI TENGAH,94974.0,Indonesia,8114504503.0,,,-2.7923275,122.1441002,https://maps.google.com/?cid=0x0:0x37c5ebce31efcff6,
restaurant,restaurant,Sulawesi Tengah 94973,"Kec. Bungku Tengah, Kabupaten Morowali, Sulawesi Tengah","Kabupaten Morowali, Sulawesi Tengah",SULAWESI TENGAH,,Indonesia,,,,-2.6659253,121.856261,https://maps.google.com/?cid=0x0:0x20bfb697387a3fcd,
restaurant,Restoran,Resto Bungku Beach Morowali,"Unnamed Road, Tofuti, Kec. Bungku Tengah, Kabupaten Morowali, Sulawesi Tengah 94973","Tofuti, Kec. Bungku Tengah, Kabupaten Morowali",SULAWESI TENGAH,94973.0,Indonesia,,,,-2.5531679,121.9771748,https://maps.google.com/?cid=0x0:0x28983dd9d8fdbbf8,
restaurant,Restoran,Bintang Coffee  Restaurant,"FX67+C8M, Jl. Nangka, Bungi, Kec. Bungku Tengah, Kabupaten Morowali, Sulawesi Tengah","Kabupaten Morowali, Sulawesi Tengah",SULAWESI TENGAH,,Indonesia,85716161740.0,,,-2.5389049,121.9633048,https://maps.google.com/?cid=0x0:0x9a1fd6a2e1d6928a,
restaurant,Restoran,Resto Ba'a Puncak Ipi,"Ipi, Kec. Bungku Tengah, Kabupaten Morowali, Sulawesi Tengah 94973","Kec. Bungku Tengah, Kabupaten Morowali",SULAWESI TENGAH,94973.0,Indonesia,85158858838.0,,,-2.5071762,121.9421949,https://maps.google.com/?cid=0x0:0xa6a4e2b51aa8feaa,
restaurant,Restoran,De Terrace Cafe and Resto,"Jl Raya KTM, Bahomohoni, Kec. Bungku Tengah, Kabupaten Morowali, Sulawesi Tengah 94973","Bahomohoni, Kec. Bungku Tengah, Kabupaten Morowali",SULAWESI TENGAH,94973.0,Indonesia,81355014825.0,,,-2.4757202,121.9302827,https://maps.google.com/?cid=0x0:0xfff51cc295fef9da,
restaurant,Restoran,Rayas cafe and resto,"Bahomoahi, Kec. Bungku Timur, Kabupaten Morowali, Sulawesi Tengah 94973","Kec. Bungku Timur, Kabupaten Morowali",SULAWESI TENGAH,94973.0,Indonesia,82299226917.0,,,-2.7051847,122.0061118,https://maps.google.com/?cid=0x0:0xcdda8bd8a6b17ca3,
restaurant,Kafe,My Soldadu Cafe  Resto,"Jl. Trans Sulawesi No.1, Bente, Kec. Bungku Tengah, Kabupaten Morowali, Sulawesi Tengah 94976","Bente, Kec. Bungku Tengah, Kabupaten Morowali",SULAWESI TENGAH,94976.0,Indonesia,81335024922.0,,,-2.4959619,121.9424131,https://maps.google.com/?cid=0x0:0x50ccab5d36c238cd,
restaurant,Rumah Makan,Coto Daeng Bahomoleo,"GWR9+FC6, Bahomoleo, Kec. Bungku Tengah, Kabupaten Morowali, Sulawesi Tengah 94973","Bahomoleo, Kec. Bungku Tengah, Kabupaten Morowali",SULAWESI TENGAH,94973.0,Indonesia,,,,-2.4588347,121.918515,https://maps.google.com/?cid=0x0:0x58a65af3aab44cf3,
restaurant,Restoran,Bungku,"FX39+3QG, Marsaoleh, Kec. Bungku Tengah, Kabupaten Morowali, Sulawesi Tengah 94973","Marsaoleh, Kec. Bungku Tengah, Kabupaten Morowali",SULAWESI TENGAH,94973.0,Indonesia,,,,-2.5473113,121.9694548,https://maps.google.com/?cid=0x0:0xb28dc4f4dee028a5,
restaurant,Ayam Penyet,RM. SAS,"FX69+89C, Unnamed Road, Matano, Kec. Bungku Tengah, Kabupaten Morowali, Sulawesi Tengah 94973","Unnamed Road, Matano, Kec. Bungku Tengah, Kabupaten Morowali",SULAWESI TENGAH,94973.0,Indonesia,,,,-2.5391915,121.9683842,https://maps.google.com/?cid=0x0:0x557a902e80f9930a,
restaurant,Restoran,Rumah Makan Daeng,"GWR9+CGC, Jl. Trans Sulawesi Wosu-Bungku, Bahomoleo, Kec. Bungku Tengah, Kabupaten Morowali, Sulawesi Tengah 94973","Jl. Trans Sulawesi Wosu-Bungku, Bahomoleo, Kec. Bungku Tengah, Kabupaten Morowali",SULAWESI TENGAH,94973.0,Indonesia,82111052149.0,,,-2.4589403,121.9187702,https://maps.google.com/?cid=0x0:0xeeef3b3bd2de3cd5,
restaurant,Steak,Go Steak Morowali,"FWVX+4H8, Ipi, Kec. Bungku Tengah, Kabupaten Morowali, Sulawesi Tengah 94973","Ipi, Kec. Bungku Tengah, Kabupaten Morowali",SULAWESI TENGAH,94973.0,Indonesia,,,,-2.5072125,121.9489531,https://maps.google.com/?cid=0x0:0xf87577bef947f374,
restaurant,Hidangan Laut,RM Pelangi,"FX59+3VV, Matano, Kec. Bungku Tengah, Kabupaten Morowali, Sulawesi Tengah","Kabupaten Morowali, Sulawesi Tengah",SULAWESI TENGAH,,Indonesia,82395702820.0,,,-2.5422721,121.9696571,https://maps.google.com/?cid=0x0:0x21f9a211f379081f,
restaurant,Rumah Makan,RM. SATRIA,"GWHJ+24H, Jl. Trans Sulawesi, Bahomohoni, Kec. Bungku Tengah, Kabupaten Morowali, Sulawesi Tengah 94973","Jl. Trans Sulawesi, Bahomohoni, Kec. Bungku Tengah, Kabupaten Morowali",SULAWESI TENGAH,94973.0,Indonesia,85360912325.0,,,-2.4724336,121.930361,https://maps.google.com/?cid=0x0:0x1cd5151786d9357b,
restaurant,Rumah Makan,Rumah Makan AMELIA,"Jl. Abdurrabie, Marsaoleh, Kec. Bungku Tengah, Kabupaten Morowali, Sulawesi Tengah 94973","Marsaoleh, Kec. Bungku Tengah, Kabupaten Morowali",SULAWESI TENGAH,94973.0,Indonesia,85398290800.0,,,-2.5440236,121.9718965,https://maps.google.com/?cid=0x0:0xf3ea7542d0ee478,
restaurant,Padang,Rumah Makan Raoda,"FXH2+QW7, Unnamed Road, Bahoruru, Kec. Bungku Tengah, Kabupaten Morowali, Sulawesi Tengah 94973","Unnamed Road, Bahoruru, Kec. Bungku Tengah, Kabupaten Morowali",SULAWESI TENGAH,94973.0,Indonesia,82189604534.0,,,-2.5205809,121.9522907,https://maps.google.com/?cid=0x0:0xc2e90837d26ff824,
restaurant,Restoran,Rumah Makan Agil,"72W4+C9P, Jl. Trans Sulawesi, Bahomoahi, Kec. Bungku Tengah, Kabupaten Morowali, Sulawesi Tengah 94973","Jl. Trans Sulawesi, Bahomoahi, Kec. Bungku Tengah, Kabupaten Morowali",SULAWESI TENGAH,94973.0,Indonesia,,,,-2.7039021,122.0059644,https://maps.google.com/?cid=0x0:0xd06e5e9f0b2951da,
restaurant,Indonesia,RM. FADHIL MATANO,"Jalan Kepiting No.Kelurahan, Matano, Bungku Tengah, Morowali Regency, Central Sulawesi 94973","Matano, Bungku Tengah, Morowali Regency",SULAWESI TENGAH,94973.0,Indonesia,85240392625.0,,,-2.5394797,121.9695856,https://maps.google.com/?cid=0x0:0xea86473a23cb21f9,
restaurant,Rumah Makan,Warung prasmanan SINBOPA bungku,"FXG4+X3M, Jl. Trans Sulawesi, Matansala, Kec. Bungku Tengah, Kabupaten Morowali, Sulawesi Tengah 94973","Jl. Trans Sulawesi, Matansala, Kec. Bungku Tengah, Kabupaten Morowali",SULAWESI TENGAH,94973.0,Indonesia,81245115874.0,,,-2.5225499,121.9552501,https://maps.google.com/?cid=0x0:0x340d17996db3af77,
restaurant,Restoran,RM. Dua Putri,"FX49+X8J, Matano, Kec. Bungku Tengah, Kabupaten Morowali, Sulawesi Tengah","Kabupaten Morowali, Sulawesi Tengah",SULAWESI TENGAH,,Indonesia,,,,-2.5425421,121.9682659,https://maps.google.com/?cid=0x0:0xca0e02d2a3271949,
restaurant,Rumah Makan,Warung Makan ELING ELING,"GWFM+W2M, Jl. Trans Sulawesi, Bahomohoni, Kec. Bungku Tengah, Kabupaten Morowali, Sulawesi Tengah 94973","Jl. Trans Sulawesi, Bahomohoni, Kec. Bungku Tengah, Kabupaten Morowali",SULAWESI TENGAH,94973.0,Indonesia,,,,-2.4751638,121.9325489,https://maps.google.com/?cid=0x0:0x4827bbea3d2d3c11,
restaurant,Kedai Kopi,S3 Cafe  Resto,"Bahomohoni, Kec. Bungku Tengah, Kabupaten Morowali, Sulawesi Tengah 94973","Kec. Bungku Tengah, Kabupaten Morowali",SULAWESI TENGAH,94973.0,Indonesia,82187034545.0,,,-2.4745939,121.9312143,https://maps.google.com/?cid=0x0:0x8280775ce0a948f1,
restaurant,Restoran,Warung Makan MBAK SRI LAMONGAN,"Bente, Kec. Bungku Tengah, Kabupaten Morowali, Sulawesi Tengah 94973","Kec. Bungku Tengah, Kabupaten Morowali",SULAWESI TENGAH,94973.0,Indonesia,82296869466.0,,,-2.4860344,121.9374889,https://maps.google.com/?cid=0x0:0x537c10691d2bfc1a,
restaurant,restaurant,SUSHI BOOX MOROWALI,"FX3F+X2F, Marsaoleh, Kec. Bungku Tengah, Kabupaten Morowali, Sulawesi Tengah 94973","Marsaoleh, Kec. Bungku Tengah, Kabupaten Morowali",SULAWESI TENGAH,94973.0,Indonesia,,,,-2.5449724,121.9724877,https://maps.google.com/?cid=0x0:0x6b986d11028a7949,
restaurant,Restoran,Warung Pojok Syafira,"GW8P+PFP, Bente, Kec. Bungku Tengah, Kabupaten Morowali, Sulawesi Tengah 94973","Bente, Kec. Bungku Tengah, Kabupaten Morowali",SULAWESI TENGAH,94973.0,Indonesia,82240502299.0,,,-2.4831519,121.9362184,https://maps.google.com/?cid=0x0:0xe1e2c2002f844b7d,
restaurant,Restoran,Cafe Lemo Bungku,"FX3C+8F9, Marsaoleh, Kec. Bungku Tengah, Kabupaten Morowali, Sulawesi Tengah","Kabupaten Morowali, Sulawesi Tengah",SULAWESI TENGAH,,Indonesia,,,,-2.546716,121.971236,https://maps.google.com/?cid=0x0:0xaf9ca0ca113951e1,
restaurant,Hidangan Laut,FrezTuna,"GWFJ+QWH, Jl. Trans Sulawesi, Bahomohoni, Kec. Bungku Tengah, Kabupaten Morowali, Sulawesi Tengah 94973","Jl. Trans Sulawesi, Bahomohoni, Kec. Bungku Tengah, Kabupaten Morowali",SULAWESI TENGAH,94973.0,Indonesia,82217187285.0,,,-2.4755352,121.9323683,https://maps.google.com/?cid=0x0:0x2e7b7b2a3c0d25a7,
restaurant,Rumah Makan,RM.Winda,"FX76+59J, Bungi, Kec. Bungku Tengah, Kabupaten Morowali, Sulawesi Tengah 94973","Bungi, Kec. Bungku Tengah, Kabupaten Morowali",SULAWESI TENGAH,94973.0,Indonesia,82194773633.0,,,-2.5371731,121.9609946,https://maps.google.com/?cid=0x0:0x1dd10568fea7bb70,
restaurant,Restoran,Pantai puluty,"Lahuafu, Kec. Bungku Tengah, Kabupaten Morowali, Sulawesi Tengah 94973","Kec. Bungku Tengah, Kabupaten Morowali",SULAWESI TENGAH,94973.0,Indonesia,,,,-2.6170613,121.9988763,https://maps.google.com/?cid=0x0:0xee8db136fc3da3db,
restaurant,restaurant,Sulawesi Tengah 94973,"Kec. Bungku Tengah, Kabupaten Morowali, Sulawesi Tengah","Kabupaten Morowali, Sulawesi Tengah",SULAWESI TENGAH,,Indonesia,,,,-2.6659253,121.856261,https://maps.google.com/?cid=0x0:0x20bfb697387a3fcd,
restaurant,Restoran,Resto Bungku Beach Morowali,"Unnamed Road, Tofuti, Kec. Bungku Tengah, Kabupaten Morowali, Sulawesi Tengah 94973","Tofuti, Kec. Bungku Tengah, Kabupaten Morowali",SULAWESI TENGAH,94973.0,Indonesia,,,,-2.5531679,121.9771748,https://maps.google.com/?cid=0x0:0x28983dd9d8fdbbf8,
restaurant,Restoran,Rayas cafe and resto,"Bahomoahi, Kec. Bungku Timur, Kabupaten Morowali, Sulawesi Tengah 94973","Kec. Bungku Timur, Kabupaten Morowali",SULAWESI TENGAH,94973.0,Indonesia,82299226917.0,,,-2.7051847,122.0061118,https://maps.google.com/?cid=0x0:0xcdda8bd8a6b17ca3,
restaurant,Restoran,Bintang Coffee  Restaurant,"FX67+C8M, Jl. Nangka, Bungi, Kec. Bungku Tengah, Kabupaten Morowali, Sulawesi Tengah","Kabupaten Morowali, Sulawesi Tengah",SULAWESI TENGAH,,Indonesia,85716161740.0,,,-2.5389049,121.9633048,https://maps.google.com/?cid=0x0:0x9a1fd6a2e1d6928a,
restaurant,Restoran,Resto Ba'a Puncak Ipi,"Ipi, Kec. Bungku Tengah, Kabupaten Morowali, Sulawesi Tengah 94973","Kec. Bungku Tengah, Kabupaten Morowali",SULAWESI TENGAH,94973.0,Indonesia,85158858838.0,,,-2.5071762,121.9421949,https://maps.google.com/?cid=0x0:0xa6a4e2b51aa8feaa,
restaurant,Restoran,De Terrace Cafe and Resto,"Jl Raya KTM, Bahomohoni, Kec. Bungku Tengah, Kabupaten Morowali, Sulawesi Tengah 94973","Bahomohoni, Kec. Bungku Tengah, Kabupaten Morowali",SULAWESI TENGAH,94973.0,Indonesia,81355014825.0,,,-2.4757202,121.9302827,https://maps.google.com/?cid=0x0:0xfff51cc295fef9da,
restaurant,Rumah Makan,Coto Daeng Bahomoleo,"GWR9+FC6, Bahomoleo, Kec. Bungku Tengah, Kabupaten Morowali, Sulawesi Tengah 94973","Bahomoleo, Kec. Bungku Tengah, Kabupaten Morowali",SULAWESI TENGAH,94973.0,Indonesia,,,,-2.4588347,121.918515,https://maps.google.com/?cid=0x0:0x58a65af3aab44cf3,
restaurant,Kafe,My Soldadu Cafe  Resto,"Jl. Trans Sulawesi No.1, Bente, Kec. Bungku Tengah, Kabupaten Morowali, Sulawesi Tengah 94976","Bente, Kec. Bungku Tengah, Kabupaten Morowali",SULAWESI TENGAH,94976.0,Indonesia,81335024922.0,,,-2.4959619,121.9424131,https://maps.google.com/?cid=0x0:0x50ccab5d36c238cd,
restaurant,Restoran,Rumah Makan Daeng,"GWR9+CGC, Jl. Trans Sulawesi Wosu-Bungku, Bahomoleo, Kec. Bungku Tengah, Kabupaten Morowali, Sulawesi Tengah 94973","Jl. Trans Sulawesi Wosu-Bungku, Bahomoleo, Kec. Bungku Tengah, Kabupaten Morowali",SULAWESI TENGAH,94973.0,Indonesia,82111052149.0,,,-2.4589403,121.9187702,https://maps.google.com/?cid=0x0:0xeeef3b3bd2de3cd5,
restaurant,Restoran,Bungku,"FX39+3QG, Marsaoleh, Kec. Bungku Tengah, Kabupaten Morowali, Sulawesi Tengah 94973","Marsaoleh, Kec. Bungku Tengah, Kabupaten Morowali",SULAWESI TENGAH,94973.0,Indonesia,,,,-2.5473113,121.9694548,https://maps.google.com/?cid=0x0:0xb28dc4f4dee028a5,
restaurant,Rumah Makan,Rumah Makan AMELIA,"Jl. Abdurrabie, Marsaoleh, Kec. Bungku Tengah, Kabupaten Morowali, Sulawesi Tengah 94973","Marsaoleh, Kec. Bungku Tengah, Kabupaten Morowali",SULAWESI TENGAH,94973.0,Indonesia,85398290800.0,,,-2.5440236,121.9718965,https://maps.google.com/?cid=0x0:0xf3ea7542d0ee478,
restaurant,Steak,Go Steak Morowali,"FWVX+4H8, Ipi, Kec. Bungku Tengah, Kabupaten Morowali, Sulawesi Tengah 94973","Ipi, Kec. Bungku Tengah, Kabupaten Morowali",SULAWESI TENGAH,94973.0,Indonesia,,,,-2.5072125,121.9489531,https://maps.google.com/?cid=0x0:0xf87577bef947f374,
restaurant,Ayam Penyet,RM. SAS,"FX69+89C, Unnamed Road, Matano, Kec. Bungku Tengah, Kabupaten Morowali, Sulawesi Tengah 94973","Unnamed Road, Matano, Kec. Bungku Tengah, Kabupaten Morowali",SULAWESI TENGAH,94973.0,Indonesia,,,,-2.5391915,121.9683842,https://maps.google.com/?cid=0x0:0x557a902e80f9930a,
restaurant,Produsen,Matano Food Court,"FX5C+V29, Matano, Kec. Bungku Tengah, Kabupaten Morowali, Sulawesi Tengah","Kabupaten Morowali, Sulawesi Tengah",SULAWESI TENGAH,,Indonesia,,,,-2.5403265,121.9701072,https://maps.google.com/?cid=0x0:0xaffe9f0119008663,
restaurant,Restoran,Cafe Lemo Bungku,"FX3C+8F9, Marsaoleh, Kec. Bungku Tengah, Kabupaten Morowali, Sulawesi Tengah","Kabupaten Morowali, Sulawesi Tengah",SULAWESI TENGAH,,Indonesia,,,,-2.546716,121.971236,https://maps.google.com/?cid=0x0:0xaf9ca0ca113951e1,
restaurant,Padang,Rumah Makan Raoda,"FXH2+QW7, Unnamed Road, Bahoruru, Kec. Bungku Tengah, Kabupaten Morowali, Sulawesi Tengah 94973","Unnamed Road, Bahoruru, Kec. Bungku Tengah, Kabupaten Morowali",SULAWESI TENGAH,94973.0,Indonesia,82189604534.0,,,-2.5205809,121.9522907,https://maps.google.com/?cid=0x0:0xc2e90837d26ff824,
restaurant,Hidangan Laut,RM Pelangi,"FX59+3VV, Matano, Kec. Bungku Tengah, Kabupaten Morowali, Sulawesi Tengah","Kabupaten Morowali, Sulawesi Tengah",SULAWESI TENGAH,,Indonesia,82395702820.0,,,-2.5422721,121.9696571,https://maps.google.com/?cid=0x0:0x21f9a211f379081f,
restaurant,Restoran,Rumah Makan Agil,"72W4+C9P, Jl. Trans Sulawesi, Bahomoahi, Kec. Bungku Tengah, Kabupaten Morowali, Sulawesi Tengah 94973","Jl. Trans Sulawesi, Bahomoahi, Kec. Bungku Tengah, Kabupaten Morowali",SULAWESI TENGAH,94973.0,Indonesia,,,,-2.7039021,122.0059644,https://maps.google.com/?cid=0x0:0xd06e5e9f0b2951da,
restaurant,Rumah Makan,Warung Makan ELING ELING,"GWFM+W2M, Jl. Trans Sulawesi, Bahomohoni, Kec. Bungku Tengah, Kabupaten Morowali, Sulawesi Tengah 94973","Jl. Trans Sulawesi, Bahomohoni, Kec. Bungku Tengah, Kabupaten Morowali",SULAWESI TENGAH,94973.0,Indonesia,,,,-2.4751638,121.9325489,https://maps.google.com/?cid=0x0:0x4827bbea3d2d3c11,
restaurant,Nasi,Sari Laut Bintang Timur,"Jl. Trans Sulawesi, Ipi, Bungku, Kabupaten Morowali, Sulawesi Tengah 94973","Ipi, Bungku, Kabupaten Morowali",SULAWESI TENGAH,94973.0,Indonesia,85242890220.0,,,-2.5064781,121.9489059,https://maps.google.com/?cid=0x0:0x4a9bf5e9c060403a,
restaurant,Hidangan Laut,RM. Hendra Pantai Matano,"FX69+MFJ, Matano, Kec. Bungku Tengah, Kabupaten Morowali, Sulawesi Tengah 94973","Matano, Kec. Bungku Tengah, Kabupaten Morowali",SULAWESI TENGAH,94973.0,Indonesia,82394027587.0,,,-2.538286,121.96864,https://maps.google.com/?cid=0x0:0xc599630ea9af2a0a,
restaurant,Indonesia,RM. FADHIL MATANO,"Jalan Kepiting No.Kelurahan, Matano, Bungku Tengah, Morowali Regency, Central Sulawesi 94973","Matano, Bungku Tengah, Morowali Regency",SULAWESI TENGAH,94973.0,Indonesia,85240392625.0,,,-2.5394797,121.9695856,https://maps.google.com/?cid=0x0:0xea86473a23cb21f9,
restaurant,Rumah Makan,Sari laut ardiansyah,"Bahomotefe Bungku Tengah RT.006, Bahomotefe, Kec. Bungku Timur, Kabupaten Morowali, Sulawesi Tengah 94973","Bahomotefe, Kec. Bungku Timur, Kabupaten Morowali",SULAWESI TENGAH,94973.0,Indonesia,82278575132.0,,,-2.7245724,122.0187224,https://maps.google.com/?cid=0x0:0xe9112a91bcbca24e,
restaurant,Rumah Makan,Rumah Makan Eling-Eling,"72FC+3V6, Bahomotefe, Kec. Bungku Timur, Kabupaten Morowali, Sulawesi Tengah 94973","Bahomotefe, Kec. Bungku Timur, Kabupaten Morowali",SULAWESI TENGAH,94973.0,Indonesia,82249152477.0,,,-2.727329,122.0221562,https://maps.google.com/?cid=0x0:0xfab727f076cd69d9,
restaurant,Hidangan Laut,DFC MOROWALI,"FX49+2R4, Marsaoleh, Kec. Bungku Tengah, Kabupaten Morowali, Sulawesi Tengah 94973","Marsaoleh, Kec. Bungku Tengah, Kabupaten Morowali",SULAWESI TENGAH,94973.0,Indonesia,81243618221.0,,,-2.5449817,121.9695741,https://maps.google.com/?cid=0x0:0x2f48d623bd537ffc,
restaurant,Rumah Makan,RM.Winda,"FX76+59J, Bungi, Kec. Bungku Tengah, Kabupaten Morowali, Sulawesi Tengah 94973","Bungi, Kec. Bungku Tengah, Kabupaten Morowali",SULAWESI TENGAH,94973.0,Indonesia,82194773633.0,,,-2.5371731,121.9609946,https://maps.google.com/?cid=0x0:0x1dd10568fea7bb70,
restaurant,restaurant,Sulawesi Tengah 94972,"Kabupaten Morowali Utara, Sulawesi Tengah","Kabupaten Morowali Utara, Sulawesi Tengah",SULAWESI TENGAH,,Indonesia,,,,-1.6248083,121.7195459,https://maps.google.com/?cid=0x0:0xe9e478f27d681886,
restaurant,Makanan Kecil,"Opo,kec.bungku Utara.Kab.Morowali.Sulawesi Tengah","7Q78+CXC, Opo, Kec. Bungku Utara, Kabupaten Morowali, Sulawesi Tengah","Kabupaten Morowali, Sulawesi Tengah",SULAWESI TENGAH,,Indonesia,85394367137.0,,,-1.7364326,121.7673855,https://maps.google.com/?cid=0x0:0xadccce00f03f6910,
restaurant,Brunch,Warung Makan Puncak Indah,"7RFC+998, Siliti, Kec. Bungku Utara, Kabupaten Morowali, Sulawesi Tengah","Kabupaten Morowali, Sulawesi Tengah",SULAWESI TENGAH,,Indonesia,,,,-1.7265828,121.8209599,https://maps.google.com/?cid=0x0:0x598217ecf9e46d4,
restaurant,Sarapan,RUMAH MAKAN PINGGIR PANTAI,"6RM2+X5H, Kec. Bungku Utara, Kabupaten Morowali Utara, Sulawesi Tengah","Kabupaten Morowali Utara, Sulawesi Tengah",SULAWESI TENGAH,,Indonesia,,,,-1.7650506,121.8004787,https://maps.google.com/?cid=0x0:0x2a323c6750a6123c,
restaurant,Restoran,Warung Makan Padaidi,"9X8G+C4P, Tana Sumpu, Kec. Mamosalato, Kabupaten Morowali Utara, Sulawesi Tengah 94972","Tana Sumpu, Kec. Mamosalato, Kabupaten Morowali Utara",SULAWESI TENGAH,94972.0,Indonesia,,,,-1.6339115,121.975324,https://maps.google.com/?cid=0x0:0xf8bdc59961ae8aef,
restaurant,Dapur Umum,Warung Makan Mama Erna,"Tanaku Raya, Kec. Bungku Utara, Kabupaten Morowali Utara, Sulawesi Tengah 94972","Kec. Bungku Utara, Kabupaten Morowali Utara",SULAWESI TENGAH,94972.0,Indonesia,82129613720.0,,,-1.7304062,121.7655731,https://maps.google.com/?cid=0x0:0x9909c419a6d1faa5,
restaurant,Restoran,Warung makan monggo moro,"7Q97+QG5, Tanaku Raya, Kec. Bungku Utara, Kabupaten Morowali Utara, Sulawesi Tengah 94972","Tanaku Raya, Kec. Bungku Utara, Kabupaten Morowali Utara",SULAWESI TENGAH,94972.0,Indonesia,85227936525.0,,,-1.7306053,121.763852,https://maps.google.com/?cid=0x0:0xcd1ed60c7cce5801,
restaurant,Restoran,Warung makan cendana pantai indah,"7RC5+MX, Siliti, Kec. Bungku Utara, Kabupaten Morowali, Sulawesi Tengah","Kabupaten Morowali, Sulawesi Tengah",SULAWESI TENGAH,,Indonesia,82292777903.0,,,-1.7283123,121.8099995,https://maps.google.com/?cid=0x0:0x2e5a4d1da73dc3f1,
restaurant,Restoran,Cowboy Cafe  Resto,"287R+6G7, Kolonodale, Kec. Petasia, Kabupaten Morowali Utara, Sulawesi Tengah 94671","Kolonodale, Kec. Petasia, Kabupaten Morowali Utara",SULAWESI TENGAH,94671.0,Indonesia,,,,-1.9868031,121.3411929,https://maps.google.com/?cid=0x0:0xee6399339a788ea0,
restaurant,Restoran,Resto Bungku Beach Morowali,"Unnamed Road, Tofuti, Kec. Bungku Tengah, Kabupaten Morowali, Sulawesi Tengah 94973","Tofuti, Kec. Bungku Tengah, Kabupaten Morowali",SULAWESI TENGAH,94973.0,Indonesia,,,,-2.5531679,121.9771748,https://maps.google.com/?cid=0x0:0x28983dd9d8fdbbf8,
restaurant,Rumah Makan,Cafe  Resto DAPUR KITA,"Ganda Ganda, Kec. Petasia, Kabupaten Morowali, Sulawesi Tengah 94971","Kec. Petasia, Kabupaten Morowali",SULAWESI TENGAH,94971.0,Indonesia,82151844407.0,,,-1.9610625,121.3481875,https://maps.google.com/?cid=0x0:0x6909f10e9ac9ec11,
restaurant,Makanan Kecil,WARUNG MAKAN PUTRI TUNGGAL,"7Q78+FW8, Rata - Baturube, Opo, Kec. Bungku Utara, Kabupaten Morowali Utara, Sulawesi Tengah 94972","Rata - Baturube, Opo, Kec. Bungku Utara, Kabupaten Morowali Utara",SULAWESI TENGAH,94972.0,Indonesia,,,,-1.7363472,121.7673422,https://maps.google.com/?cid=0x0:0x330c888ad0b71407,
restaurant,Mi,Mie Ayam Molen,"6PFJ+22R, Tokala Atas, Kec. Bungku Utara, Kabupaten Morowali, Sulawesi Tengah 94972","Tokala Atas, Kec. Bungku Utara, Kabupaten Morowali",SULAWESI TENGAH,94972.0,Indonesia,81254439321.0,,,-1.777396,121.730004,https://maps.google.com/?cid=0x0:0x5c5d818df401607,
restaurant,Dapur Umum,Warung makan rizky,"9XHQ+7GC, Pandauke, Kec. Mamosalato, Kabupaten Morowali Utara, Sulawesi Tengah 94972","Pandauke, Kec. Mamosalato, Kabupaten Morowali Utara",SULAWESI TENGAH,94972.0,Indonesia,,,,-1.6218089,121.9887721,https://maps.google.com/?cid=0x0:0xa1f7c518213bea5b,
restaurant,Brunch,Tanakuraya,"7Q95+59C, Tanaku Raya, Kec. Bungku Utara, Kabupaten Morowali Utara, Sulawesi Tengah 94972","Tanaku Raya, Kec. Bungku Utara, Kabupaten Morowali Utara",SULAWESI TENGAH,94972.0,Indonesia,,,,-1.7319811,121.7583257,https://maps.google.com/?cid=0x0:0xc25ea4b3278f6eb2,
restaurant,Sarapan,Warung Makan Mbak Is,"7Q96+WW2, Rata - Baturube, Tanaku Raya, Kec. Bungku Utara, Kabupaten Morowali Utara, Sulawesi Tengah 94972","Rata - Baturube, Tanaku Raya, Kec. Bungku Utara, Kabupaten Morowali Utara",SULAWESI TENGAH,94972.0,Indonesia,,,,-1.7302446,121.7622565,https://maps.google.com/?cid=0x0:0xb57fd5f4155f4d1c,
restaurant,Restoran,Bintang Coffee  Restaurant,"FX67+C8M, Jl. Nangka, Bungi, Kec. Bungku Tengah, Kabupaten Morowali, Sulawesi Tengah","Kabupaten Morowali, Sulawesi Tengah",SULAWESI TENGAH,,Indonesia,85716161740.0,,,-2.5389049,121.9633048,https://maps.google.com/?cid=0x0:0x9a1fd6a2e1d6928a,
restaurant,Restoran,Resto Ba'a Puncak Ipi,"Ipi, Kec. Bungku Tengah, Kabupaten Morowali, Sulawesi Tengah 94973","Kec. Bungku Tengah, Kabupaten Morowali",SULAWESI TENGAH,94973.0,Indonesia,85158858838.0,,,-2.5071762,121.9421949,https://maps.google.com/?cid=0x0:0xa6a4e2b51aa8feaa,
restaurant,Rumah Makan,RM.Marannu 88,"289R+FMM, Jl. Wolter Mongisidi, Kabupaten Morowali Utara, Sulawesi Tengah 94971","Jl. Wolter Mongisidi, Kabupaten Morowali Utara",SULAWESI TENGAH,94971.0,Indonesia,81356301771.0,,,-1.9812821,121.3416848,https://maps.google.com/?cid=0x0:0x4a5c044a45de13d9,
restaurant,restaurant,COTO DAENG KOLONODALE,"28CQ+V45, Jl. Bumi Nangka, Bahoue, Kec. Petasia, Kabupaten Morowali Utara, Sulawesi Tengah 94971","Jl. Bumi Nangka, Bahoue, Kec. Petasia, Kabupaten Morowali Utara",SULAWESI TENGAH,94971.0,Indonesia,,,,-1.9778713,121.3378526,https://maps.google.com/?cid=0x0:0xe4f13c410613ad2e,
restaurant,Kafe,My Soldadu Cafe  Resto,"Jl. Trans Sulawesi No.1, Bente, Kec. Bungku Tengah, Kabupaten Morowali, Sulawesi Tengah 94976","Bente, Kec. Bungku Tengah, Kabupaten Morowali",SULAWESI TENGAH,94976.0,Indonesia,81335024922.0,,,-2.4959619,121.9424131,https://maps.google.com/?cid=0x0:0x50ccab5d36c238cd,
restaurant,Kedai Kopi,Boegist coffee and eatery,"286M+Q7H, Bahontula, Kec. Petasia, Kabupaten Morowali Utara, Sulawesi Tengah 94971","Bahontula, Kec. Petasia, Kabupaten Morowali Utara",SULAWESI TENGAH,94971.0,Indonesia,,,,-1.9878334,121.3329874,https://maps.google.com/?cid=0x0:0x63804505280d3c02,
restaurant,Kafe,Cafe Teruma morowali,"Jl. Trans Sulawesi, Wosu, Kec. Bungku Bar., Kabupaten Morowali, Sulawesi Tengah 94976","Wosu, Kec. Bungku Bar., Kabupaten Morowali",SULAWESI TENGAH,94976.0,Indonesia,85256938889.0,,,-2.3557512,121.8517169,https://maps.google.com/?cid=0x0:0xc7973c3fb854a063,
restaurant,Restoran,Rumah makan sarilaut raja rasa,"Jl. Pattimura, Bahontula, Kec. Petasia, Kabupaten Morowali Utara, Sulawesi Tengah 94971","Bahontula, Kec. Petasia, Kabupaten Morowali Utara",SULAWESI TENGAH,94971.0,Indonesia,85696555107.0,,,-1.9873179,121.3388084,https://maps.google.com/?cid=0x0:0xb97f5be918f68602,
restaurant,Kedai Kopi,KEDAI BIRU,"6QHV+Q78, Baturube, Kec. Bungku Utara, Kabupaten Morowali Utara, Sulawesi Tengah 94972","Baturube, Kec. Bungku Utara, Kabupaten Morowali Utara",SULAWESI TENGAH,94972.0,Indonesia,,,,-1.7705847,121.7932101,https://maps.google.com/?cid=0x0:0x1b95ad72551a8f65,
restaurant,Restoran,Sari Laut Mas Heri,"286Q+9JC, Jln. Mangga Dua, Kolonodale, Kec. Petasia, Kabupaten Morowali Utara, Sulawesi Tengah 94971","Jln. Mangga Dua, Kolonodale, Kec. Petasia, Kabupaten Morowali Utara",SULAWESI TENGAH,94971.0,Indonesia,85241222915.0,,,-1.9890612,121.3390265,https://maps.google.com/?cid=0x0:0x2e7ec143b900b4be,
restaurant,Restoran,RM. Dua Putri,"FX49+X8J, Matano, Kec. Bungku Tengah, Kabupaten Morowali, Sulawesi Tengah","Kabupaten Morowali, Sulawesi Tengah",SULAWESI TENGAH,,Indonesia,,,,-2.5425421,121.9682659,https://maps.google.com/?cid=0x0:0xca0e02d2a3271949,
restaurant,restaurant,SEBLK PRASMANAN RICE,"Jl. Pattimura, Bahontula, Kec. Petasia, Kabupaten Morowali Utara, Sulawesi Tengah 94971","Bahontula, Kec. Petasia, Kabupaten Morowali Utara",SULAWESI TENGAH,94971.0,Indonesia,,,,-1.9841697,121.3375498,https://maps.google.com/?cid=0x0:0xd0c7824b756d918,
restaurant,Polisi Sipil,Caffe Polsek Baturube,"6QJW+FJC, Unnamed Road, Baturube, Kec. Bungku Utara, Kabupaten Morowali Utara, Sulawesi Tengah 94972","Unnamed Road, Baturube, Kec. Bungku Utara, Kabupaten Morowali Utara",SULAWESI TENGAH,94972.0,Indonesia,82189529347.0,,,-1.7688242,121.7965278,https://maps.google.com/?cid=0x0:0x537146947887fbe7,
restaurant,restaurant,Sulawesi Tengah 94975,"Menui Kepulauan, Kabupaten Morowali, Sulawesi Tengah","Kabupaten Morowali, Sulawesi Tengah",SULAWESI TENGAH,,Indonesia,,,,-3.2225368,122.3900901,https://maps.google.com/?cid=0x0:0x9de28c77bab1263b,
restaurant,restaurant,Menui Kepulauan,"Kabupaten Morowali, Sulawesi Tengah","Kabupaten Morowali, Sulawesi Tengah",SULAWESI TENGAH,,Indonesia,,,,-3.2217298,122.4127472,https://maps.google.com/?cid=0x0:0xc668a23a5b681d91,
restaurant,restaurant,KANTIN KAYANGAN,"P9FW+QMW, Matarape, Menui Kepulauan, Kabupaten Morowali, Sulawesi Tengah","Kabupaten Morowali, Sulawesi Tengah",SULAWESI TENGAH,,Indonesia,,,,-3.2755056,122.3966948,https://maps.google.com/?cid=0x0:0xdc743f5cd06c3974,
restaurant,restaurant,Rumah hayadin,"Q88G+V57, Matarape, Menui Kepulauan, Kabupaten Morowali, Sulawesi Tengah","Kabupaten Morowali, Sulawesi Tengah",SULAWESI TENGAH,,Indonesia,,,,-3.2328375,122.3254219,https://maps.google.com/?cid=0x0:0x62862cee48292f39,
restaurant,restaurant,Kec. Wita Ponda,"Kabupaten Morowali, Sulawesi Tengah","Kabupaten Morowali, Sulawesi Tengah",SULAWESI TENGAH,,Indonesia,,,,-2.214136,121.5990103,https://maps.google.com/?cid=0x0:0xff62e010995308a1,
restaurant,Rumah Makan,Waroeng Makan Eling Eling,"QHPW+8J8, Emea, Kec. Wita Ponda, Kabupaten Morowali, Sulawesi Tengah 94976","Emea, Kec. Wita Ponda, Kabupaten Morowali",SULAWESI TENGAH,94976.0,Indonesia,85341235555.0,,,-2.2142243,121.5965642,https://maps.google.com/?cid=0x0:0x414ebcfa31f4083a,
restaurant,Indonesia,RUMAH MAKAN GOYANG LIDAH,"QHPV+FHF, Emea, Kec. Wita Ponda, Kabupaten Morowali, Sulawesi Tengah 94976","Emea, Kec. Wita Ponda, Kabupaten Morowali",SULAWESI TENGAH,94976.0,Indonesia,85298638597.0,,,-2.2138074,121.5939188,https://maps.google.com/?cid=0x0:0xb9251a1508947e59,
restaurant,Padang,RUMAH MAKAN GOYANG LIDAH2,"Sampeantaba, Kec. Wita Ponda, Kabupaten Morowali, Sulawesi Tengah","Kabupaten Morowali, Sulawesi Tengah",SULAWESI TENGAH,,Indonesia,85704624308.0,,,-2.2252549,121.6510357,https://maps.google.com/?cid=0x0:0x71eb6bfe8d2efec8,
restaurant,Nasi,RM. PANGKEP,"RG4R+67H, Unnamed Road, Solonsa, Kec. Wita Ponda, Kabupaten Morowali, Sulawesi Tengah 94976","Unnamed Road, Solonsa, Kec. Wita Ponda, Kabupaten Morowali",SULAWESI TENGAH,94976.0,Indonesia,,,,-2.1944443,121.5407306,https://maps.google.com/?cid=0x0:0x2e5fd2d500b6478a,
restaurant,Sulawesi Selatan,Coto Daeng Sangkala/Tanciampe,"QJP6+85X, Emea, Kec. Wita Ponda, Kabupaten Morowali, Sulawesi Tengah","Kabupaten Morowali, Sulawesi Tengah",SULAWESI TENGAH,,Indonesia,,,,-2.214145,121.6104898,https://maps.google.com/?cid=0x0:0xdf1a85ff2fca3b31,
restaurant,Kedai Kopi,Warung Makan Cita,"QJP8+2XC, Emea, Kec. Wita Ponda, Kabupaten Morowali, Sulawesi Tengah 94976","Emea, Kec. Wita Ponda, Kabupaten Morowali",SULAWESI TENGAH,94976.0,Indonesia,,,,-2.2149278,121.6173763,https://maps.google.com/?cid=0x0:0x80510f6071ef8d86,
restaurant,Nasi,Martabak dan Terang bulan samping kantor camat Witaponda,"Jl. Trans Sulawesi, Sampeantaba, Kec. Wita Ponda, Kabupaten Morowali, Sulawesi Tengah 94976","Sampeantaba, Kec. Wita Ponda, Kabupaten Morowali",SULAWESI TENGAH,94976.0,Indonesia,85240092531.0,,,-2.2159595,121.6221619,https://maps.google.com/?cid=0x0:0x54ebc7066bcf74c6,
restaurant,Restoran,Rest area dan pusat kuliner desa emea,"QJP6+85X, Emea, Kec. Wita Ponda, Kabupaten Morowali, Sulawesi Tengah","Kabupaten Morowali, Sulawesi Tengah",SULAWESI TENGAH,,Indonesia,,,,-2.2145025,121.6096683,https://maps.google.com/?cid=0x0:0xc6b12450e4183248,
restaurant,Rumah Makan,RM Eling-eling Banyumasin,"QHPP+6JJ, Jl. Trans Sulawesi, Emea, Kec. Wita Ponda, Kabupaten Morowali, Sulawesi Tengah 94976","Jl. Trans Sulawesi, Emea, Kec. Wita Ponda, Kabupaten Morowali",SULAWESI TENGAH,94976.0,Indonesia,82345688851.0,,,-2.2144241,121.5865158,https://maps.google.com/?cid=0x0:0xe109714bf10054e0,
restaurant,Rumah Makan,PENGINAPAN DAN RUMAH MAKAN ENDANG TOILI,"Ungkaya, Kec. Wita Ponda, Kabupaten Morowali, Sulawesi Tengah 94976","Kec. Wita Ponda, Kabupaten Morowali",SULAWESI TENGAH,94976.0,Indonesia,82247194173.0,,,-2.2142132,121.5903091,https://maps.google.com/?cid=0x0:0x81c218e9b18896a8,
restaurant,Kedai Kopi,Kedai Kuyylaahh cafe dan resto,"QJP5+5VH, Emea, Kec. Wita Ponda, Kabupaten Morowali, Sulawesi Tengah 94976","Emea, Kec. Wita Ponda, Kabupaten Morowali",SULAWESI TENGAH,94976.0,Indonesia,,,,-2.2145591,121.609736,https://maps.google.com/?cid=0x0:0xafab6054d6a5833d,
restaurant,Indonesia,LESEHAN MOROSENENG EMEA,"kantor BANK BRI, Unnamed Road depan, Emea, Kec. Wita Ponda, Kabupaten Morowali, Sulawesi Tengah 94976","Unnamed Road depan, Emea, Kec. Wita Ponda, Kabupaten Morowali",SULAWESI TENGAH,94976.0,Indonesia,82230799425.0,,,-2.2148376,121.617898,https://maps.google.com/?cid=0x0:0xfab82788ec6586c1,
restaurant,Kedai Kopi,Terrace Cafe,"QJMC+PJW, Jl. Trans Sulawesi, Emea, Kec. Wita Ponda, Kabupaten Morowali, Sulawesi Tengah 94976","Jl. Trans Sulawesi, Emea, Kec. Wita Ponda, Kabupaten Morowali",SULAWESI TENGAH,94976.0,Indonesia,81341105303.0,,,-2.2156378,121.6215749,https://maps.google.com/?cid=0x0:0xd79fc0332f0e9cb3,
restaurant,Padang,Warung Makan Gelora,"QJP4+93M, Jl. Trans Sulawesi, Emea, Kec. Wita Ponda, Kabupaten Morowali, Sulawesi Tengah 94976","Jl. Trans Sulawesi, Emea, Kec. Wita Ponda, Kabupaten Morowali",SULAWESI TENGAH,94976.0,Indonesia,,,,-2.2140272,121.6051629,https://maps.google.com/?cid=0x0:0x3c2a041511399231,
restaurant,Kafe,Kafe and resto,"QJP6+85X, Emea, Kec. Wita Ponda, Kabupaten Morowali, Sulawesi Tengah","Kabupaten Morowali, Sulawesi Tengah",SULAWESI TENGAH,,Indonesia,,,,-2.2144636,121.6097585,https://maps.google.com/?cid=0x0:0x22e1664789af8098,
restaurant,Restoran,Warung Makan Sederhana,"QJJQ+28J, Jl. Trans Sulawesi, Sampeantaba, Kec. Wita Ponda, Kabupaten Morowali, Sulawesi Tengah 94976","Jl. Trans Sulawesi, Sampeantaba, Kec. Wita Ponda, Kabupaten Morowali",SULAWESI TENGAH,94976.0,Indonesia,,,,-2.2199204,121.6382801,https://maps.google.com/?cid=0x0:0x5e5abd5ae1fbb769,
restaurant,Brunch,Warung rizkys solo,"QJMH+5MF, Sampeantaba, Kec. Wita Ponda, Kabupaten Morowali, Sulawesi Tengah 94976","Sampeantaba, Kec. Wita Ponda, Kabupaten Morowali",SULAWESI TENGAH,94976.0,Indonesia,81245622486.0,,,-2.2170614,121.6291777,https://maps.google.com/?cid=0x0:0xaabcaa7ee12a31be,
restaurant,Hotel,Penginapan Ernida,"QHPQ+CQ6, Ungkaya, Kec. Wita Ponda, Kabupaten Morowali, Sulawesi Tengah 94976","Ungkaya, Kec. Wita Ponda, Kabupaten Morowali",SULAWESI TENGAH,94976.0,Indonesia,,,,-2.2139569,121.5893773,https://maps.google.com/?cid=0x0:0x22e354d0cf626103,
restaurant,Restoran,Warung bu Lis,"QJF9+6QV, Lantula Jaya, Kec. Wita Ponda, Kabupaten Morowali, Sulawesi Tengah 94976","Lantula Jaya, Kec. Wita Ponda, Kabupaten Morowali",SULAWESI TENGAH,94976.0,Indonesia,,,,-2.2269472,121.6196967,https://maps.google.com/?cid=0x0:0x86cff0552036ce41,
restaurant,Restoran,warung makan AREMA REJEKI 99,"QJMF+GJ2, Lantula Jaya, Kec. Wita Ponda, Kabupaten Morowali, Sulawesi Tengah 94976","Lantula Jaya, Kec. Wita Ponda, Kabupaten Morowali",SULAWESI TENGAH,94976.0,Indonesia,,,,-2.2162463,121.6240295,https://maps.google.com/?cid=0x0:0x4d52b6e9e02751d1,
restaurant,Dapur Umum,BFC Wita Ponda,"QJMF+J6V, Lantula Jaya, Kec. Wita Ponda, Kabupaten Morowali, Sulawesi Tengah 94976","Lantula Jaya, Kec. Wita Ponda, Kabupaten Morowali",SULAWESI TENGAH,94976.0,Indonesia,,,,-2.2158945,121.6230508,https://maps.google.com/?cid=0x0:0xc25ba8c3b96678ed,
restaurant,Dapur Umum,Warung Jawa banyuwangi 2,"Jl. Trans Sulawesi, Sampeantaba, Kec. Wita Ponda, Kabupaten Morowali, Sulawesi Tengah","Kabupaten Morowali, Sulawesi Tengah",SULAWESI TENGAH,,Indonesia,82198688889.0,,,-2.2153186,121.6213369,https://maps.google.com/?cid=0x0:0x9f3b6a6b82ef68d7,
restaurant,Kedai Kopi,Cafe Night The Bay,"QHCX+HXV, Emea, Kec. Wita Ponda, Kabupaten Morowali, Sulawesi Tengah 94976","Emea, Kec. Wita Ponda, Kabupaten Morowali",SULAWESI TENGAH,94976.0,Indonesia,,,,-2.2285039,121.5999287,https://maps.google.com/?cid=0x0:0x4aeace542f06ba74,
cafe,cafe,Sulawesi Tengah 94974,"Kabupaten Morowali, Sulawesi Tengah","Kabupaten Morowali, Sulawesi Tengah",SULAWESI TENGAH,,Indonesia,,,,-2.8626226,122.1291843,https://maps.google.com/?cid=0x0:0xb267e774a37f920f,
cafe,Kedai Kopi,Montana Cafe,"6456+2CR, Bahodopi, Kec. Bahodopi, Kabupaten Morowali, Sulawesi Tengah 94974","Bahodopi, Kec. Bahodopi, Kabupaten Morowali",SULAWESI TENGAH,94974.0,Indonesia,85156237830.0,,,-2.7923057,122.1110729,https://maps.google.com/?cid=0x0:0x5c9a34d051d4ea50,
cafe,Kedai Kopi,Coffee Ruang Langit,"643X+HM3, Keurea, Kec. Bahodopi, Kabupaten Morowali, Sulawesi Tengah","Kabupaten Morowali, Sulawesi Tengah",SULAWESI TENGAH,,Indonesia,81341677343.0,,,-2.7962111,122.1489492,https://maps.google.com/?cid=0x0:0x42d951ebbedcf400,
cafe,Kedai Kopi,Star-Up Cafe,"643F+G53, Lrg. Pelangi, Bahodopi, Kec. Bahodopi, Kabupaten Morowali, Sulawesi Tengah 94974","Lrg. Pelangi, Bahodopi, Kec. Bahodopi, Kabupaten Morowali",SULAWESI TENGAH,94974.0,Indonesia,,,,-2.7962298,122.1229082,https://maps.google.com/?cid=0x0:0xaa48aca11ab894bc,
cafe,Kedai Kopi,solata_coffee,"55W4+252, Unnamed Road, Fatufia, Kec. Bahodopi, Kabupaten Morowali, Sulawesi Tengah 94974","Unnamed Road, Fatufia, Kec. Bahodopi, Kabupaten Morowali",SULAWESI TENGAH,94974.0,Indonesia,85232225523.0,,,-2.8049951,122.155391,https://maps.google.com/?cid=0x0:0xa3c30bb93d51685a,
cafe,Kedai Kopi,Searah Cafe Morowali,"Bahodopi, Kec. Bahodopi, Kabupaten Morowali, Sulawesi Tengah 94974","Kec. Bahodopi, Kabupaten Morowali",SULAWESI TENGAH,94974.0,Indonesia,85342813182.0,,,-2.7896323,122.1167357,https://maps.google.com/?cid=0x0:0x8ab8446ee9482dff,
cafe,Kafe,Reso Cafe,"Labota, Kec. Bahodopi, Kabupaten Morowali, Sulawesi Tengah 94974","Kec. Bahodopi, Kabupaten Morowali",SULAWESI TENGAH,94974.0,Indonesia,85823083412.0,,,-2.8835279,122.1868021,https://maps.google.com/?cid=0x0:0x90fbb56d8eb6e052,
cafe,Kedai Kopi,Solusi_kopie,"645H+PXF, Keurea, Kec. Bahodopi, Kabupaten Morowali, Sulawesi Tengah 94974","Keurea, Kec. Bahodopi, Kabupaten Morowali",SULAWESI TENGAH,94974.0,Indonesia,,,,-2.7906987,122.1299193,https://maps.google.com/?cid=0x0:0xb1a26ed89136d0b3,
cafe,Kafe,Bossq Coffee  Eatery,"6432+V5, Bahodopi, Kec. Bahodopi, Kabupaten Morowali, Sulawesi Tengah","Kabupaten Morowali, Sulawesi Tengah",SULAWESI TENGAH,,Indonesia,82259121300.0,,,-2.7953188,122.1004583,https://maps.google.com/?cid=0x0:0xfb4f8cd2c5a220ed,
cafe,Kedai Kopi,Codeba,"645M+WPG, Keurea, Kec. Bahodopi, Kabupaten Morowali, Sulawesi Tengah 94974","Keurea, Kec. Bahodopi, Kabupaten Morowali",SULAWESI TENGAH,94974.0,Indonesia,,,,-2.7902188,122.1342748,https://maps.google.com/?cid=0x0:0x47e4dac948715e5a,
cafe,Kedai Kopi,Coffeeme Bahodopi,"54PM+G85, Unnamed Road, Bahomakmur, Kec. Bahodopi, Kabupaten Morowali, Sulawesi Tengah 94974","Unnamed Road, Bahomakmur, Kec. Bahodopi, Kabupaten Morowali",SULAWESI TENGAH,94974.0,Indonesia,,,,-2.8137463,122.1333529,https://maps.google.com/?cid=0x0:0xe2cd963afba67f05,
cafe,Kedai Kopi,168 Coffee Indonesia,"646M+667, Keurea, Kec. Bahodopi, Kabupaten Morowali, Sulawesi Tengah","Kabupaten Morowali, Sulawesi Tengah",SULAWESI TENGAH,,Indonesia,,,,-2.7894705,122.1330572,https://maps.google.com/?cid=0x0:0x2f3f1992f9039327,
cafe,Kedai Kopi,Coffee_Bayu,"55W4+JCW, Keurea, Kec. Bahodopi, Kabupaten Morowali, Sulawesi Tengah","Kabupaten Morowali, Sulawesi Tengah",SULAWESI TENGAH,,Indonesia,82349991740.0,,,-2.8033958,122.1560752,https://maps.google.com/?cid=0x0:0xe3fbd888f70c161e,
cafe,Komplek perumahan,PPR Place,"6423+53J, Bahodopi, Kec. Bahodopi, Kabupaten Morowali, Sulawesi Tengah 94974","Bahodopi, Kec. Bahodopi, Kabupaten Morowali",SULAWESI TENGAH,94974.0,Indonesia,,,,-2.7995468,122.1026492,https://maps.google.com/?cid=0x0:0x1c533bb6b93e58b8,
cafe,Kafe,Istilah Cafe,"457R+JJ, Labota, Kec. Bahodopi, Kabupaten Morowali, Sulawesi Tengah","Kabupaten Morowali, Sulawesi Tengah",SULAWESI TENGAH,,Indonesia,,,,-2.8859272,122.1915849,https://maps.google.com/?cid=0x0:0x8142a06deb00a5d4,
cafe,Kedai Kopi,Degarazi cafe,"552Q+44F, Labota, Kec. Bahodopi, Kabupaten Morowali, Sulawesi Tengah","Kabupaten Morowali, Sulawesi Tengah",SULAWESI TENGAH,,Indonesia,,,,-2.8496776,122.1878,https://maps.google.com/?cid=0x0:0x9713a5ba7cfe3024,
cafe,Kafe,Cafe Wajo,"55GM+GQP Jln. Trans, Labota, Kec. Bahodopi, Kabupaten Morowali, Sulawesi Tengah","Kabupaten Morowali, Sulawesi Tengah",SULAWESI TENGAH,,Indonesia,85242324232.0,,,-2.8236617,122.184446,https://maps.google.com/?cid=0x0:0x33490bed63f60b0c,
cafe,Kafe,COFFEE LAND,"54RH+W36, Bahomakmur, Kec. Bahodopi, Kabupaten Morowali, Sulawesi Tengah 94974","Bahomakmur, Kec. Bahodopi, Kabupaten Morowali",SULAWESI TENGAH,94974.0,Indonesia,82292017648.0,,,-2.8077121,122.1276368,https://maps.google.com/?cid=0x0:0x4554d171ca8b9b5b,
cafe,Kedai Kopi,The Stones Resort  Cafe,"646M+382, Keurea, Kec. Bahodopi, Kabupaten Morowali, Sulawesi Tengah 94974","Keurea, Kec. Bahodopi, Kabupaten Morowali",SULAWESI TENGAH,94974.0,Indonesia,81354861679.0,,,-2.7898541,122.1332574,https://maps.google.com/?cid=0x0:0xa88d1c68630bb28,
cafe,Kedai Kopi,MUSTI COFFEE,"Bahodopi, Kec. Bahodopi, Kabupaten Morowali, Sulawesi Tengah","Kabupaten Morowali, Sulawesi Tengah",SULAWESI TENGAH,,Indonesia,82312233150.0,,,-2.7894994,122.1214874,https://maps.google.com/?cid=0x0:0xb55b77d718df42d4,
cafe,Kedai Kopi,T2 cafe Tobacco and coffee,"455J+7H8, Makarti Jaya, Kec. Bahodopi, Kabupaten Morowali, Sulawesi Tengah","Kabupaten Morowali, Sulawesi Tengah",SULAWESI TENGAH,,Indonesia,,,,-2.8918433,122.181465,https://maps.google.com/?cid=0x0:0x1a1ea064901b5c73,
cafe,Kafe,sabhangka_coffee ( brewing coffee  tea ),"Jalan Trans Sulawesi, Bahodopi, Kec. Bahodopi, Kabupaten Morowali, Sulawesi Tengah 94974","Bahodopi, Kec. Bahodopi, Kabupaten Morowali",SULAWESI TENGAH,94974.0,Indonesia,82266128359.0,,,-2.8962606,122.1942785,https://maps.google.com/?cid=0x0:0x86fe17ce86a46964,
cafe,Kedai Kopi,Pose cafe,"62PV+MCV, Siumbatu, Kec. Bahodopi, Kabupaten Morowali, Sulawesi Tengah","Kabupaten Morowali, Sulawesi Tengah",SULAWESI TENGAH,,Indonesia,,,,-2.7632625,122.0435468,https://maps.google.com/?cid=0x0:0x4c19989d679e48ea,
cafe,cafe,Kec. Bumi Raya,"Kabupaten Morowali, Sulawesi Tengah","Kabupaten Morowali, Sulawesi Tengah",SULAWESI TENGAH,,Indonesia,,,,-2.2160038,121.7239224,https://maps.google.com/?cid=0x0:0x733f460809c91197,
cafe,Kedai Kopi,MOOD CAFE,"Pebatae, Kec. Bumi Raya, Kabupaten Morowali, Sulawesi Tengah 94976","Kec. Bumi Raya, Kabupaten Morowali",SULAWESI TENGAH,94976.0,Indonesia,82271301488.0,,,-2.2288615,121.6761879,https://maps.google.com/?cid=0x0:0xb979e728c6a16ffb,
cafe,Kedai Kopi,HALU COFFEE,"Bahonsuai, Kec. Bumi Raya, Kabupaten Morowali, Sulawesi Tengah 94976","Kec. Bumi Raya, Kabupaten Morowali",SULAWESI TENGAH,94976.0,Indonesia,82398430219.0,,,-2.2175661,121.7301047,https://maps.google.com/?cid=0x0:0x9c38534399ee5fdd,
cafe,Indonesia,RUMAH MAKAN TIARA,"QPJM+4MP, Jl. Trans Sulawesi, Bahonsuai, Kec. Bumi Raya, Kabupaten Morowali, Sulawesi Tengah 94976","Jl. Trans Sulawesi, Bahonsuai, Kec. Bumi Raya, Kabupaten Morowali",SULAWESI TENGAH,94976.0,Indonesia,,,,-2.2196678,121.7341907,https://maps.google.com/?cid=0x0:0x2ff66b7fc0318b04,
cafe,Kedai Kopi,Karaupa,"QMM9+G7H, Karaupa, Kec. Bumi Raya, Kabupaten Morowali, Sulawesi Tengah 94976","Karaupa, Kec. Bumi Raya, Kabupaten Morowali",SULAWESI TENGAH,94976.0,Indonesia,,,,-2.2161773,121.6682424,https://maps.google.com/?cid=0x0:0x313d285f6cf0204e,
cafe,Kedai Kopi,KEDAI BISNA HELLO KITTY,"QP9R+MGQ, Jl. Trans Sulawesi, Parilangke, Kec. Bumi Raya, Kabupaten Morowali, Sulawesi Tengah 94976","Jl. Trans Sulawesi, Parilangke, Kec. Bumi Raya, Kabupaten Morowali",SULAWESI TENGAH,94976.0,Indonesia,,,,-2.2307754,121.741353,https://maps.google.com/?cid=0x0:0xaa9dd89300c7b954,
cafe,Kedai Kopi,Cafe Night The Bay,"QHCX+HXV, Emea, Kec. Wita Ponda, Kabupaten Morowali, Sulawesi Tengah 94976","Emea, Kec. Wita Ponda, Kabupaten Morowali",SULAWESI TENGAH,94976.0,Indonesia,,,,-2.2285039,121.5999287,https://maps.google.com/?cid=0x0:0x4aeace542f06ba74,
cafe,Kedai Kopi,Kedai Kuyylaahh cafe dan resto,"QJP5+5VH, Emea, Kec. Wita Ponda, Kabupaten Morowali, Sulawesi Tengah 94976","Emea, Kec. Wita Ponda, Kabupaten Morowali",SULAWESI TENGAH,94976.0,Indonesia,,,,-2.2145591,121.609736,https://maps.google.com/?cid=0x0:0xafab6054d6a5833d,
cafe,Nasi,KEDAI TIGA PUTRA 02,"QMFG+VQ, Pebatae, Kec. Bumi Raya, Kabupaten Morowali, Sulawesi Tengah 94976","Pebatae, Kec. Bumi Raya, Kabupaten Morowali",SULAWESI TENGAH,94976.0,Indonesia,82194779727.0,,,-2.2253073,121.6769715,https://maps.google.com/?cid=0x0:0x88121cdf1f533e5d,
cafe,Brunch,Warung Makan Lesehan Ojo Lali Sukamaju,"Bahonsuai, Kec. Bumi Raya, Kabupaten Morowali, Sulawesi Tengah 94976","Kec. Bumi Raya, Kabupaten Morowali",SULAWESI TENGAH,94976.0,Indonesia,85256951698.0,,,-2.2163734,121.7270911,https://maps.google.com/?cid=0x0:0x649d4d46feeb39c,
cafe,Kedai Kopi,Kedai Best Tea,"QM76+9MJ, Jl. Elang, Lasampi, Kec. Bumi Raya, Kabupaten Morowali, Sulawesi Tengah 94976","Jl. Elang, Lasampi, Kec. Bumi Raya, Kabupaten Morowali",SULAWESI TENGAH,94976.0,Indonesia,85155436587.0,,,-2.236543,121.6616558,https://maps.google.com/?cid=0x0:0xd3595863ed403680,
cafe,Kedai Kopi,KOPI AROBI AMBUNU,"PQW4+P5, Uedago, Kec. Bungku Bar., Kabupaten Morowali, Sulawesi Tengah 94976","Uedago, Kec. Bungku Bar., Kabupaten Morowali",SULAWESI TENGAH,94976.0,Indonesia,,,,-2.2524722,121.7564167,https://maps.google.com/?cid=0x0:0xceddb7d315787db5,
cafe,Kedai Kopi,Terrace Cafe,"QJMC+PJW, Jl. Trans Sulawesi, Emea, Kec. Wita Ponda, Kabupaten Morowali, Sulawesi Tengah 94976","Jl. Trans Sulawesi, Emea, Kec. Wita Ponda, Kabupaten Morowali",SULAWESI TENGAH,94976.0,Indonesia,81341105303.0,,,-2.2156378,121.6215749,https://maps.google.com/?cid=0x0:0xd79fc0332f0e9cb3,
cafe,Pusat Hiburan,GAB BILLIAR POOL  GAB COFFEE SHOP,"Jl. Trans Sulawesi, Wata, Kec. Bungku Bar., Kabupaten Morowali, Sulawesi Tengah","Kabupaten Morowali, Sulawesi Tengah",SULAWESI TENGAH,,Indonesia,,,,-2.234955,121.7436165,https://maps.google.com/?cid=0x0:0x8766fa171580ce0a,
cafe,Kedai Kopi,23 Coffee,"PQPC+HCV, Jl. Trans Sulawesi, Tondo, Kec. Bungku Bar., Kabupaten Morowali, Sulawesi Tengah 94964","Jl. Trans Sulawesi, Tondo, Kec. Bungku Bar., Kabupaten Morowali",SULAWESI TENGAH,94964.0,Indonesia,82252617531.0,,,-2.2635104,121.7710401,https://maps.google.com/?cid=0x0:0x99034fe9f309dfa9,
cafe,Indonesia,Warung Jawa Timur,"QPM9+GPP, Jl. Trans Sulawesi, Bahonsuai, Kec. Bumi Raya, Kabupaten Morowali, Sulawesi Tengah 94976","Jl. Trans Sulawesi, Bahonsuai, Kec. Bumi Raya, Kabupaten Morowali",SULAWESI TENGAH,94976.0,Indonesia,81354498574.0,,,-2.2161567,121.7193233,https://maps.google.com/?cid=0x0:0x18905f20709458e4,
cafe,Bubble Tea,ðRATNA IYARAð,"QMFG+VQ, Pebatae, Kec. Bumi Raya, Kabupaten Morowali, Sulawesi Tengah 94976","Pebatae, Kec. Bumi Raya, Kabupaten Morowali",SULAWESI TENGAH,94976.0,Indonesia,,,,-2.2254906,121.6768422,https://maps.google.com/?cid=0x0:0x29f52db89ede63b2,
cafe,Padang,RUMAH MAKAN GOYANG LIDAH2,"Sampeantaba, Kec. Wita Ponda, Kabupaten Morowali, Sulawesi Tengah","Kabupaten Morowali, Sulawesi Tengah",SULAWESI TENGAH,,Indonesia,85704624308.0,,,-2.2252549,121.6510357,https://maps.google.com/?cid=0x0:0x71eb6bfe8d2efec8,
cafe,Rumah Makan,bungku,"RMCH+QW, Umbele, Kec. Bumi Raya, Kabupaten Morowali, Sulawesi Tengah","Kabupaten Morowali, Sulawesi Tengah",SULAWESI TENGAH,,Indonesia,,,,-2.178048,121.679779,https://maps.google.com/?cid=0x0:0x29c58fa242b75df4,
cafe,Sulawesi Selatan,Warung Makan Abbiyya Coto Makassar,"QPM4+3X6, Samarenda, Kec. Bumi Raya, Kabupaten Morowali, Sulawesi Tengah 94976","Samarenda, Kec. Bumi Raya, Kabupaten Morowali",SULAWESI TENGAH,94976.0,Indonesia,,,,-2.2173375,121.7073919,https://maps.google.com/?cid=0x0:0xb77fd6e46c023691,
cafe,Toko umum,Warung Mba Sulis,"PQR8+37W, Ambunu, Kec. Bungku Bar., Kabupaten Morowali, Sulawesi Tengah 94976","Ambunu, Kec. Bungku Bar., Kabupaten Morowali",SULAWESI TENGAH,94976.0,Indonesia,82291417100.0,,,-2.2597585,121.7656915,https://maps.google.com/?cid=0x0:0x751862b7abb10a12,
cafe,Dapur Umum,Rumah Makan Lestari,"QMC5+JVR, Lasampi, Kec. Bumi Raya, Kabupaten Morowali, Sulawesi Tengah 94976","Lasampi, Kec. Bumi Raya, Kabupaten Morowali",SULAWESI TENGAH,94976.0,Indonesia,,,,-2.2283822,121.6596553,https://maps.google.com/?cid=0x0:0x8a91e3d0794f9028,
cafe,China,Bahodopi,"RM5X+JRH, keurea, Kec.bahodopi Raya, Kabupaten Morowali, Sulawesi Tengah","Kabupaten Morowali, Sulawesi Tengah",SULAWESI TENGAH,,Indonesia,,,,-2.19172,121.699485,https://maps.google.com/?cid=0x0:0xc5537adae39316ad,
cafe,Kedai Kopi,bumi cafe,"Jl. Flamboyan No.2A Blok F, Cinere, Kec. Cinere, Kota Depok, Jawa Barat 16514","Cinere, Kec. Cinere, Kota Depok",SULAWESI TENGAH,16514.0,Indonesia,85175003113.0,,,-6.3418393,106.7803876,https://maps.google.com/?cid=0x0:0xa3960685fb3550c9,
cafe,Kafe,Bumipresso coffee  Eatery,"JP4V+36C Garasi Kuliner, Jl. Raya Parung - Ciputat, Bojongsari Baru, Kec. Bojongsari, Kota Depok, Jawa Barat 16516","Jl. Raya Parung - Ciputat, Bojongsari Baru, Kec. Bojongsari, Kota Depok",SULAWESI TENGAH,16516.0,Indonesia,,,,-6.3948147,106.74301,https://maps.google.com/?cid=0x0:0x88dfa36a5eda401a,
cafe,Kedai Kopi,Warkop Restu Bumi,"Jl. Raya Centex No.1b 1, RT.1/RW.10, Ciracas, Kec. Ciracas, Kota Jakarta Timur, Daerah Khusus Ibukota Jakarta 13740","RT.1/RW.10, Ciracas, Kec. Ciracas, Kota Jakarta Timur",SULAWESI TENGAH,13740.0,Indonesia,,,,-6.3252254,106.8764804,https://maps.google.com/?cid=0x0:0x981d5a28e2fb73b7,
cafe,Kedai Kopi,Kopi Bumi,"1, Jl. Langsat I No.3b, RT.1/RW.1, Kramat Pela, Kec. Kby. Baru, Kota Jakarta Selatan, Daerah Khusus Ibukota Jakarta 12160","Jl. Langsat I No.3b, RT.1/RW.1, Kramat Pela, Kec. Kby. Baru, Kota Jakarta Selatan",SULAWESI TENGAH,12160.0,Indonesia,87763524000.0,,,-6.2439724,106.7921045,https://maps.google.com/?cid=0x0:0x9273f01da15a113e,
cafe,Kedai Kopi,Barempat Bumi Indah (Cafe Mocktail),"Jl. Komp. Bumi Indah, Gelam Jaya, Kec. Ps. Kemis, Kabupaten Tangerang, Banten 15560","Gelam Jaya, Kec. Ps. Kemis, Kabupaten Tangerang",SULAWESI TENGAH,15560.0,Indonesia,82282888842.0,,,-6.1644343,106.5601774,https://maps.google.com/?cid=0x0:0x2716e60d1c27b235,
cafe,Makanan Kecil,Cafe Varaah,"Jl. Raya Bumi Indah, Sukamantri, Kec. Ps. Kemis, Kabupaten Tangerang, Banten 15560","Sukamantri, Kec. Ps. Kemis, Kabupaten Tangerang",SULAWESI TENGAH,15560.0,Indonesia,85770550477.0,,,-6.1577647,106.5564588,https://maps.google.com/?cid=0x0:0x55cc502c974a8a9,
cafe,cafe,Kec. Bungku Bar.,"Kabupaten Morowali, Sulawesi Tengah","Kabupaten Morowali, Sulawesi Tengah",SULAWESI TENGAH,,Indonesia,,,,-2.3550315,121.8504279,https://maps.google.com/?cid=0x0:0x60891acc9bfe198d,
cafe,Kafe,Cafe Teruma morowali,"Jl. Trans Sulawesi, Wosu, Kec. Bungku Bar., Kabupaten Morowali, Sulawesi Tengah 94976","Wosu, Kec. Bungku Bar., Kabupaten Morowali",SULAWESI TENGAH,94976.0,Indonesia,85256938889.0,,,-2.3557512,121.8517169,https://maps.google.com/?cid=0x0:0xc7973c3fb854a063,
cafe,Restoran,Cafe Lemo Bungku,"FX3C+8F9, Marsaoleh, Kec. Bungku Tengah, Kabupaten Morowali, Sulawesi Tengah","Kabupaten Morowali, Sulawesi Tengah",SULAWESI TENGAH,,Indonesia,,,,-2.546716,121.971236,https://maps.google.com/?cid=0x0:0xaf9ca0ca113951e1,
cafe,Restoran,De Terrace Cafe and Resto,"Jl Raya KTM, Bahomohoni, Kec. Bungku Tengah, Kabupaten Morowali, Sulawesi Tengah 94973","Bahomohoni, Kec. Bungku Tengah, Kabupaten Morowali",SULAWESI TENGAH,94973.0,Indonesia,81355014825.0,,,-2.4757202,121.9302827,https://maps.google.com/?cid=0x0:0xfff51cc295fef9da,
cafe,Kedai Kopi,23 Coffee,"PQPC+HCV, Jl. Trans Sulawesi, Tondo, Kec. Bungku Bar., Kabupaten Morowali, Sulawesi Tengah 94964","Jl. Trans Sulawesi, Tondo, Kec. Bungku Bar., Kabupaten Morowali",SULAWESI TENGAH,94964.0,Indonesia,82252617531.0,,,-2.2635104,121.7710401,https://maps.google.com/?cid=0x0:0x99034fe9f309dfa9,
cafe,Restoran,Bintang Coffee  Restaurant,"FX67+C8M, Jl. Nangka, Bungi, Kec. Bungku Tengah, Kabupaten Morowali, Sulawesi Tengah","Kabupaten Morowali, Sulawesi Tengah",SULAWESI TENGAH,,Indonesia,85716161740.0,,,-2.5389049,121.9633048,https://maps.google.com/?cid=0x0:0x9a1fd6a2e1d6928a,
cafe,Kafe,My Soldadu Cafe  Resto,"Jl. Trans Sulawesi No.1, Bente, Kec. Bungku Tengah, Kabupaten Morowali, Sulawesi Tengah 94976","Bente, Kec. Bungku Tengah, Kabupaten Morowali",SULAWESI TENGAH,94976.0,Indonesia,81335024922.0,,,-2.4959619,121.9424131,https://maps.google.com/?cid=0x0:0x50ccab5d36c238cd,
cafe,Kedai Kopi,Mubita,"PQ5C+V8G, Tofogaro, Kec. Bungku Bar., Kabupaten Morowali, Sulawesi Tengah","Kabupaten Morowali, Sulawesi Tengah",SULAWESI TENGAH,,Indonesia,82271596503.0,,,-2.2903049,121.7708337,https://maps.google.com/?cid=0x0:0xb8de5561b05d20d4,
cafe,Pusat Hiburan,GAB BILLIAR POOL  GAB COFFEE SHOP,"Jl. Trans Sulawesi, Wata, Kec. Bungku Bar., Kabupaten Morowali, Sulawesi Tengah","Kabupaten Morowali, Sulawesi Tengah",SULAWESI TENGAH,,Indonesia,,,,-2.234955,121.7436165,https://maps.google.com/?cid=0x0:0x8766fa171580ce0a,
cafe,Kedai Kopi,Cafe Box,"GWFJ+W5J, Bahomohoni, Kec. Bungku Tengah, Kabupaten Morowali, Sulawesi Tengah 94973","Bahomohoni, Kec. Bungku Tengah, Kabupaten Morowali",SULAWESI TENGAH,94973.0,Indonesia,,,,-2.4751612,121.9303877,https://maps.google.com/?cid=0x0:0x9805ede25960043c,
cafe,cafe,Kopi Arobi Wosu,"JVP4+CP7, Jl. Trans Sulawesi, Wosu, Kec. Bungku Bar., Kabupaten Morowali, Sulawesi Tengah","Kabupaten Morowali, Sulawesi Tengah",SULAWESI TENGAH,,Indonesia,,,,-2.3639678,121.8567983,https://maps.google.com/?cid=0x0:0xab608870aba8c888,
cafe,Restoran,Kios AIRA,"Jalan poros Bahonsuai - Bungku, wosu, Kec. Bungku Bar., Kabupaten Morowali, Sulawesi Tengah 94976","wosu, Kec. Bungku Bar., Kabupaten Morowali",SULAWESI TENGAH,94976.0,Indonesia,82296791188.0,,,-2.3130275,121.8307538,https://maps.google.com/?cid=0x0:0x5a872ee1c4fca711,
cafe,Restoran,WIB Eatery,"GWCP+558, Bente, Kec. Bungku Tengah, Kabupaten Morowali, Sulawesi Tengah","Kabupaten Morowali, Sulawesi Tengah",SULAWESI TENGAH,,Indonesia,,,,-2.4795766,121.9354538,https://maps.google.com/?cid=0x0:0x5bd24fe681d7253f,
cafe,Komplek perumahan,Perumahan Gunung,"MR7J+F7H Bar, Larobenu, Kec. Bungku Bar., Kabupaten Morowali, Sulawesi Tengah 94976","Larobenu, Kec. Bungku Bar., Kabupaten Morowali",SULAWESI TENGAH,94976.0,Indonesia,,,,-2.3358317,121.829625,https://maps.google.com/?cid=0x0:0x953509a89ad91038,
cafe,Kafe,Spot Sdc Morowali,"GWPG+GM2, Bahomohoni, Kec. Bungku Tengah, Kabupaten Morowali, Sulawesi Tengah","Kabupaten Morowali, Sulawesi Tengah",SULAWESI TENGAH,,Indonesia,81219491799.0,,,-2.4637326,121.9266494,https://maps.google.com/?cid=0x0:0x3f3791b27a888cc6,
cafe,Kedai Kopi,KOPI AROBI AMBUNU,"PQW4+P5, Uedago, Kec. Bungku Bar., Kabupaten Morowali, Sulawesi Tengah 94976","Uedago, Kec. Bungku Bar., Kabupaten Morowali",SULAWESI TENGAH,94976.0,Indonesia,,,,-2.2524722,121.7564167,https://maps.google.com/?cid=0x0:0xceddb7d315787db5,
cafe,Restoran,Warkop Aweng Bungku,"GWCM+FRX, Jl. Trans Sulawesi, Fonuasingko, Bente, Kec. Bungku Tengah, Kabupaten Morowali, Sulawesi Tengah 94737","Jl. Trans Sulawesi, Fonuasingko, Bente, Kec. Bungku Tengah, Kabupaten Morowali",SULAWESI TENGAH,94737.0,Indonesia,85242000288.0,,,-2.4787723,121.9346194,https://maps.google.com/?cid=0x0:0xb02deb9fa8d6c564,
cafe,,KEDAI MUFID,"PQGG+XWX, Jl. Trans Sulawesi, Tofogaro, Kec. Bungku Bar., Kabupaten Morowali, Sulawesi Tengah 94976","Jl. Trans Sulawesi, Tofogaro, Kec. Bungku Bar., Kabupaten Morowali",SULAWESI TENGAH,94976.0,Indonesia,82298230264.0,,,-2.2725137,121.7773745,https://maps.google.com/?cid=0x0:0xb52e3f8b9c6aae1f,
cafe,Kedai Kopi,S3 Cafe  Resto,"Bahomohoni, Kec. Bungku Tengah, Kabupaten Morowali, Sulawesi Tengah 94973","Kec. Bungku Tengah, Kabupaten Morowali",SULAWESI TENGAH,94973.0,Indonesia,82187034545.0,,,-2.4745939,121.9312143,https://maps.google.com/?cid=0x0:0x8280775ce0a948f1,
cafe,Kafe,COFFEE 86,"GW8P+3WP, Jl. Trans Sulawesi, Bente, Kec. Bungku Tengah, Kabupaten Morowali, Sulawesi Tengah 94973","Jl. Trans Sulawesi, Bente, Kec. Bungku Tengah, Kabupaten Morowali",SULAWESI TENGAH,94973.0,Indonesia,,,,-2.4846845,121.9372456,https://maps.google.com/?cid=0x0:0xde62f5dc09eb9f5a,
cafe,Kafe,Balla Kopi By. Daeng,"Jl. Trans Sulawesi, Bente, Kec. Bungku Tengah, Kabupaten Morowali, Sulawesi Tengah","Kabupaten Morowali, Sulawesi Tengah",SULAWESI TENGAH,,Indonesia,8124232692.0,,,-2.4856314,121.9373263,https://maps.google.com/?cid=0x0:0xaf5bd6c74a557c97,
cafe,Kedai Kopi,Caca Coffee,"PQ94+XJ8, Tondo, Kec. Bungku Bar., Kabupaten Morowali, Sulawesi Tengah","Kabupaten Morowali, Sulawesi Tengah",SULAWESI TENGAH,,Indonesia,,,,-2.2800873,121.7565894,https://maps.google.com/?cid=0x0:0x8c303edf4457869c,
cafe,Toko umum,Warung Mba Sulis,"PQR8+37W, Ambunu, Kec. Bungku Bar., Kabupaten Morowali, Sulawesi Tengah 94976","Ambunu, Kec. Bungku Bar., Kabupaten Morowali",SULAWESI TENGAH,94976.0,Indonesia,82291417100.0,,,-2.2597585,121.7656915,https://maps.google.com/?cid=0x0:0x751862b7abb10a12,
cafe,Restoran,WARUNG MAKAN SAYARI MURNI 06,"PR49+QVC, Jl. Trans Sulawesi, Umpanga, Kec. Bungku Bar., Kabupaten Morowali, Sulawesi Tengah 94976","Jl. Trans Sulawesi, Umpanga, Kec. Bungku Bar., Kabupaten Morowali",SULAWESI TENGAH,94976.0,Indonesia,,,,-2.2930555,121.8196445,https://maps.google.com/?cid=0x0:0x9c521710b8a08beb,
cafe,Restoran,warung makan moro kompo Al-za toili,"Tofogaro, Kec. Bungku Bar., Kabupaten Morowali, Sulawesi Tengah","Kabupaten Morowali, Sulawesi Tengah",SULAWESI TENGAH,,Indonesia,82290552843.0,,,-2.2684443,121.7738996,https://maps.google.com/?cid=0x0:0x5e11ef0ec75e6079,
cafe,Minimarket,AAHA FoodDrink,"JRWW+GM8, Jl. Trans Sulawesi, Wosu, Kec. Bungku Bar., Kabupaten Morowali, Sulawesi Tengah 94976","Jl. Trans Sulawesi, Wosu, Kec. Bungku Bar., Kabupaten Morowali",SULAWESI TENGAH,94976.0,Indonesia,85241722304.0,,,-2.3537159,121.8466891,https://maps.google.com/?cid=0x0:0x66b20869d22d066b,
cafe,cafe,Liling resto,"PQGH+FMH, Jl. Trans Sulawesi, Tofogaro, Kec. Bungku Bar., Kabupaten Morowali, Sulawesi Tengah 94976","Jl. Trans Sulawesi, Tofogaro, Kec. Bungku Bar., Kabupaten Morowali",SULAWESI TENGAH,94976.0,Indonesia,,,,-2.2780805,121.7844209,https://maps.google.com/?cid=0x0:0x469e7700ef9b140,
cafe,cafe,Sulawesi Tengah 94974,"Kabupaten Morowali, Sulawesi Tengah","Kabupaten Morowali, Sulawesi Tengah",SULAWESI TENGAH,,Indonesia,,,,-2.8626226,122.1291843,https://maps.google.com/?cid=0x0:0xb267e774a37f920f,
cafe,Kedai Kopi,Coffee Ruang Langit,"643X+HM3, Keurea, Kec. Bahodopi, Kabupaten Morowali, Sulawesi Tengah","Kabupaten Morowali, Sulawesi Tengah",SULAWESI TENGAH,,Indonesia,81341677343.0,,,-2.7962111,122.1489492,https://maps.google.com/?cid=0x0:0x42d951ebbedcf400,
cafe,Kafe,Coffe Puncak,"55H9+5WM, Unnamed Road, Fatufia, Kec. Bahodopi, Kabupaten Morowali, Sulawesi Tengah 94974","Unnamed Road, Fatufia, Kec. Bahodopi, Kabupaten Morowali",SULAWESI TENGAH,94974.0,Indonesia,82197648461.0,,,-2.8220452,122.1698091,https://maps.google.com/?cid=0x0:0xf36784fada3e1b5e,
cafe,Kedai Kopi,solata_coffee,"55W4+252, Unnamed Road, Fatufia, Kec. Bahodopi, Kabupaten Morowali, Sulawesi Tengah 94974","Unnamed Road, Fatufia, Kec. Bahodopi, Kabupaten Morowali",SULAWESI TENGAH,94974.0,Indonesia,85232225523.0,,,-2.8049951,122.155391,https://maps.google.com/?cid=0x0:0xa3c30bb93d51685a,
cafe,Kedai Kopi,T2 cafe Tobacco and coffee,"455J+7H8, Makarti Jaya, Kec. Bahodopi, Kabupaten Morowali, Sulawesi Tengah","Kabupaten Morowali, Sulawesi Tengah",SULAWESI TENGAH,,Indonesia,,,,-2.8918433,122.181465,https://maps.google.com/?cid=0x0:0x1a1ea064901b5c73,
cafe,Kedai Kopi,Montana Cafe,"6456+2CR, Bahodopi, Kec. Bahodopi, Kabupaten Morowali, Sulawesi Tengah 94974","Bahodopi, Kec. Bahodopi, Kabupaten Morowali",SULAWESI TENGAH,94974.0,Indonesia,85156237830.0,,,-2.7923057,122.1110729,https://maps.google.com/?cid=0x0:0x5c9a34d051d4ea50,
cafe,Kedai Kopi,Searah Cafe Morowali,"Bahodopi, Kec. Bahodopi, Kabupaten Morowali, Sulawesi Tengah 94974","Kec. Bahodopi, Kabupaten Morowali",SULAWESI TENGAH,94974.0,Indonesia,85342813182.0,,,-2.7896323,122.1167357,https://maps.google.com/?cid=0x0:0x8ab8446ee9482dff,
cafe,Kedai Kopi,168 Coffee Indonesia,"646M+667, Keurea, Kec. Bahodopi, Kabupaten Morowali, Sulawesi Tengah","Kabupaten Morowali, Sulawesi Tengah",SULAWESI TENGAH,,Indonesia,,,,-2.7894705,122.1330572,https://maps.google.com/?cid=0x0:0x2f3f1992f9039327,
cafe,Kedai Kopi,The Stones Resort  Cafe,"646M+382, Keurea, Kec. Bahodopi, Kabupaten Morowali, Sulawesi Tengah 94974","Keurea, Kec. Bahodopi, Kabupaten Morowali",SULAWESI TENGAH,94974.0,Indonesia,81354861679.0,,,-2.7898541,122.1332574,https://maps.google.com/?cid=0x0:0xa88d1c68630bb28,
cafe,Kedai Kopi,Coffee_Bayu,"55W4+JCW, Keurea, Kec. Bahodopi, Kabupaten Morowali, Sulawesi Tengah","Kabupaten Morowali, Sulawesi Tengah",SULAWESI TENGAH,,Indonesia,82349991740.0,,,-2.8033958,122.1560752,https://maps.google.com/?cid=0x0:0xe3fbd888f70c161e,
cafe,Kedai Kopi,Star-Up Cafe,"643F+G53, Lrg. Pelangi, Bahodopi, Kec. Bahodopi, Kabupaten Morowali, Sulawesi Tengah 94974","Lrg. Pelangi, Bahodopi, Kec. Bahodopi, Kabupaten Morowali",SULAWESI TENGAH,94974.0,Indonesia,,,,-2.7962298,122.1229082,https://maps.google.com/?cid=0x0:0xaa48aca11ab894bc,
cafe,Kedai Kopi,RG Caffe 38,"Dusun 1, Fatufia, Kec. Bahodopi, Kabupaten Morowali, Sulawesi Tengah","Kabupaten Morowali, Sulawesi Tengah",SULAWESI TENGAH,,Indonesia,82296302930.0,,,-2.8059681,122.1555466,https://maps.google.com/?cid=0x0:0xf710d3fdd6d5485e,
cafe,Restoran,Cafe Lemo Bungku,"FX3C+8F9, Marsaoleh, Kec. Bungku Tengah, Kabupaten Morowali, Sulawesi Tengah","Kabupaten Morowali, Sulawesi Tengah",SULAWESI TENGAH,,Indonesia,,,,-2.546716,121.971236,https://maps.google.com/?cid=0x0:0xaf9ca0ca113951e1,
cafe,Kedai Kopi,HIDDENNET (food  drink),"645P+R2, Keurea, Kec. Bahodopi, Kabupaten Morowali, Sulawesi Tengah 94974","Keurea, Kec. Bahodopi, Kabupaten Morowali",SULAWESI TENGAH,94974.0,Indonesia,82189695757.0,,,-2.7905013,122.1351692,https://maps.google.com/?cid=0x0:0x5184f2c3d3f3a40e,
cafe,Komplek perumahan,PPR Place,"6423+53J, Bahodopi, Kec. Bahodopi, Kabupaten Morowali, Sulawesi Tengah 94974","Bahodopi, Kec. Bahodopi, Kabupaten Morowali",SULAWESI TENGAH,94974.0,Indonesia,,,,-2.7995468,122.1026492,https://maps.google.com/?cid=0x0:0x1c533bb6b93e58b8,
cafe,Kedai Kopi,Coffeeme Bahodopi,"54PM+G85, Unnamed Road, Bahomakmur, Kec. Bahodopi, Kabupaten Morowali, Sulawesi Tengah 94974","Unnamed Road, Bahomakmur, Kec. Bahodopi, Kabupaten Morowali",SULAWESI TENGAH,94974.0,Indonesia,,,,-2.8137463,122.1333529,https://maps.google.com/?cid=0x0:0xe2cd963afba67f05,
cafe,Kedai Kopi,Pose cafe,"62PV+MCV, Siumbatu, Kec. Bahodopi, Kabupaten Morowali, Sulawesi Tengah","Kabupaten Morowali, Sulawesi Tengah",SULAWESI TENGAH,,Indonesia,,,,-2.7632625,122.0435468,https://maps.google.com/?cid=0x0:0x4c19989d679e48ea,
cafe,Kafe,COFFEE LAND,"54RH+W36, Bahomakmur, Kec. Bahodopi, Kabupaten Morowali, Sulawesi Tengah 94974","Bahomakmur, Kec. Bahodopi, Kabupaten Morowali",SULAWESI TENGAH,94974.0,Indonesia,82292017648.0,,,-2.8077121,122.1276368,https://maps.google.com/?cid=0x0:0x4554d171ca8b9b5b,
cafe,Kedai Kopi,REBORN Cafe,"644W+H55, Keurea, Kec. Bahodopi, Kabupaten Morowali, Sulawesi Tengah 94974","Keurea, Kec. Bahodopi, Kabupaten Morowali",SULAWESI TENGAH,94974.0,Indonesia,8114446641.0,,,-2.7936121,122.1454841,https://maps.google.com/?cid=0x0:0x35eabccff0f20971,
cafe,Kedai Kopi,27coffee,"55Q4+F47, Unnamed Road, Fatufia, Kec. Bahodopi, Kabupaten Morowali, Sulawesi Tengah 94974","Unnamed Road, Fatufia, Kec. Bahodopi, Kabupaten Morowali",SULAWESI TENGAH,94974.0,Indonesia,,,,-2.8113393,122.1553024,https://maps.google.com/?cid=0x0:0xc04afd138247db14,
cafe,Kedai Kopi,Degarazi cafe,"552Q+44F, Labota, Kec. Bahodopi, Kabupaten Morowali, Sulawesi Tengah","Kabupaten Morowali, Sulawesi Tengah",SULAWESI TENGAH,,Indonesia,,,,-2.8496776,122.1878,https://maps.google.com/?cid=0x0:0x9713a5ba7cfe3024,
cafe,Kafe,Cafe Wajo,"55GM+GQP Jln. Trans, Labota, Kec. Bahodopi, Kabupaten Morowali, Sulawesi Tengah","Kabupaten Morowali, Sulawesi Tengah",SULAWESI TENGAH,,Indonesia,85242324232.0,,,-2.8236617,122.184446,https://maps.google.com/?cid=0x0:0x33490bed63f60b0c,
cafe,Kafe,Bossq Coffee  Eatery,"6432+V5, Bahodopi, Kec. Bahodopi, Kabupaten Morowali, Sulawesi Tengah","Kabupaten Morowali, Sulawesi Tengah",SULAWESI TENGAH,,Indonesia,82259121300.0,,,-2.7953188,122.1004583,https://maps.google.com/?cid=0x0:0xfb4f8cd2c5a220ed,
cafe,Kedai Kopi,Kedai uptuyu,"645M+WPG, Keurea, Kec. Bahodopi, Kabupaten Morowali, Sulawesi Tengah 94974","Keurea, Kec. Bahodopi, Kabupaten Morowali",SULAWESI TENGAH,94974.0,Indonesia,81391637708.0,,,-2.7901917,122.134332,https://maps.google.com/?cid=0x0:0x50b38082fc369e95,
cafe,Kafe,Istilah Cafe,"457R+JJ, Labota, Kec. Bahodopi, Kabupaten Morowali, Sulawesi Tengah","Kabupaten Morowali, Sulawesi Tengah",SULAWESI TENGAH,,Indonesia,,,,-2.8859272,122.1915849,https://maps.google.com/?cid=0x0:0x8142a06deb00a5d4,
cafe,cafe,Kec. Bungku Sel.,"Kabupaten Morowali, Sulawesi Tengah","Kabupaten Morowali, Sulawesi Tengah",SULAWESI TENGAH,,Indonesia,,,,-3.1416627,122.3998289,https://maps.google.com/?cid=0x0:0x8563743865c09fc9,
cafe,Restoran,Cafe Lemo Bungku,"FX3C+8F9, Marsaoleh, Kec. Bungku Tengah, Kabupaten Morowali, Sulawesi Tengah","Kabupaten Morowali, Sulawesi Tengah",SULAWESI TENGAH,,Indonesia,,,,-2.546716,121.971236,https://maps.google.com/?cid=0x0:0xaf9ca0ca113951e1,
cafe,Restoran,Bintang Coffee  Restaurant,"FX67+C8M, Jl. Nangka, Bungi, Kec. Bungku Tengah, Kabupaten Morowali, Sulawesi Tengah","Kabupaten Morowali, Sulawesi Tengah",SULAWESI TENGAH,,Indonesia,85716161740.0,,,-2.5389049,121.9633048,https://maps.google.com/?cid=0x0:0x9a1fd6a2e1d6928a,
cafe,Restoran,BIDIKIN BEACH,"W9WX+FM, Bungingkela, Kec. Bungku Sel., Kabupaten Morowali, Sulawesi Tengah","Kabupaten Morowali, Sulawesi Tengah",SULAWESI TENGAH,,Indonesia,85246974389.0,,,-3.0537519,122.3992416,https://maps.google.com/?cid=0x0:0xdc11dae74bdedda5,
cafe,Kedai Kopi,Garssi,"XC94+XX, Bakala, Kec. Bungku Sel., Kabupaten Morowali, Sulawesi Tengah","Kabupaten Morowali, Sulawesi Tengah",SULAWESI TENGAH,,Indonesia,,,,-3.0300625,122.4074375,https://maps.google.com/?cid=0x0:0x387aea2021e214d4,
cafe,Kafe,CAFE NAFFA,"GWCM+JJX, Bente, Kec. Bungku Tengah, Kabupaten Morowali, Sulawesi Tengah 94973","Bente, Kec. Bungku Tengah, Kabupaten Morowali",SULAWESI TENGAH,94973.0,Indonesia,,,,-2.4783667,121.9340949,https://maps.google.com/?cid=0x0:0x13dc1cc8a38e0e31,
cafe,Kedai Kopi,Coffee Ruang Langit,"643X+HM3, Keurea, Kec. Bahodopi, Kabupaten Morowali, Sulawesi Tengah","Kabupaten Morowali, Sulawesi Tengah",SULAWESI TENGAH,,Indonesia,81341677343.0,,,-2.7962111,122.1489492,https://maps.google.com/?cid=0x0:0x42d951ebbedcf400,
cafe,Kedai Kopi,Kedai Chessy,"W87J+R3, Sambalagi, Kec. Bungku Pesisir, Kabupaten Morowali, Sulawesi Tengah 94974","Sambalagi, Kec. Bungku Pesisir, Kabupaten Morowali",SULAWESI TENGAH,94974.0,Indonesia,81256945952.0,,,-3.0854375,122.3301875,https://maps.google.com/?cid=0x0:0x37e4fdf159221d6b,
cafe,Kedai Kopi,Pose cafe,"62PV+MCV, Siumbatu, Kec. Bahodopi, Kabupaten Morowali, Sulawesi Tengah","Kabupaten Morowali, Sulawesi Tengah",SULAWESI TENGAH,,Indonesia,,,,-2.7632625,122.0435468,https://maps.google.com/?cid=0x0:0x4c19989d679e48ea,
cafe,Kafe,Ohara Coffee,"FX3C+94C, Marsaoleh, Kec. Bungku Tengah, Kabupaten Morowali, Sulawesi Tengah 94973","Marsaoleh, Kec. Bungku Tengah, Kabupaten Morowali",SULAWESI TENGAH,94973.0,Indonesia,81242571017.0,,,-2.5465574,121.9702637,https://maps.google.com/?cid=0x0:0x59bf384c31321b3b,
cafe,Kafe,Bossq Coffee  Eatery,"6432+V5, Bahodopi, Kec. Bahodopi, Kabupaten Morowali, Sulawesi Tengah","Kabupaten Morowali, Sulawesi Tengah",SULAWESI TENGAH,,Indonesia,82259121300.0,,,-2.7953188,122.1004583,https://maps.google.com/?cid=0x0:0xfb4f8cd2c5a220ed,
cafe,Warnet,Alfanya CELL,"XC76+4R4, Paku, Kec. Bungku Sel., Kabupaten Morowali, Sulawesi Tengah 94974","Paku, Kec. Bungku Sel., Kabupaten Morowali",SULAWESI TENGAH,94974.0,Indonesia,82293823316.0,,,-3.037245,122.41207,https://maps.google.com/?cid=0x0:0xec911865f5588c4f,
cafe,Stan Kopi,Kedai gorengan mom.s syifa,"27QW+CQ5, Tangofa, Kec. Bungku Pesisir, Kabupaten Morowali, Sulawesi Tengah","Kabupaten Morowali, Sulawesi Tengah",SULAWESI TENGAH,,Indonesia,82346880897.0,,,-2.9614948,122.2969921,https://maps.google.com/?cid=0x0:0x3e8e1b6a832ed9d0,
cafe,Kafe,Spot Sdc Morowali,"GWPG+GM2, Bahomohoni, Kec. Bungku Tengah, Kabupaten Morowali, Sulawesi Tengah","Kabupaten Morowali, Sulawesi Tengah",SULAWESI TENGAH,,Indonesia,81219491799.0,,,-2.4637326,121.9266494,https://maps.google.com/?cid=0x0:0x3f3791b27a888cc6,
cafe,Kedai Kopi,168 Coffee Indonesia,"646M+667, Keurea, Kec. Bahodopi, Kabupaten Morowali, Sulawesi Tengah","Kabupaten Morowali, Sulawesi Tengah",SULAWESI TENGAH,,Indonesia,,,,-2.7894705,122.1330572,https://maps.google.com/?cid=0x0:0x2f3f1992f9039327,
cafe,Kedai Kopi,Montana Cafe,"6456+2CR, Bahodopi, Kec. Bahodopi, Kabupaten Morowali, Sulawesi Tengah 94974","Bahodopi, Kec. Bahodopi, Kabupaten Morowali",SULAWESI TENGAH,94974.0,Indonesia,85156237830.0,,,-2.7923057,122.1110729,https://maps.google.com/?cid=0x0:0x5c9a34d051d4ea50,
cafe,Karaoke Video,APPO Cafe  Club,"FX78+67C, Matano, Kec. Bungku Tengah, Kabupaten Morowali, Sulawesi Tengah 94973","Matano, Kec. Bungku Tengah, Kabupaten Morowali",SULAWESI TENGAH,94973.0,Indonesia,,,,-2.5369442,121.9656392,https://maps.google.com/?cid=0x0:0x4b38f7d0c33e7c3b,
cafe,Kafe,Istilah Cafe,"457R+JJ, Labota, Kec. Bahodopi, Kabupaten Morowali, Sulawesi Tengah","Kabupaten Morowali, Sulawesi Tengah",SULAWESI TENGAH,,Indonesia,,,,-2.8859272,122.1915849,https://maps.google.com/?cid=0x0:0x8142a06deb00a5d4,
cafe,Kedai Kopi,ARELCOFFESHOP,"WFQ8+M2J, Pulau Dua, Kec. Bungku Sel., Kabupaten Morowali, Sulawesi Tengah","Kabupaten Morowali, Sulawesi Tengah",SULAWESI TENGAH,,Indonesia,,,,-3.060781,122.4650016,https://maps.google.com/?cid=0x0:0x1e2b88a20ef8076b,
cafe,Warnet,Tanggul desa bakala,"XCC4+286, Bakala, Kec. Bungku Sel., Kabupaten Morowali, Sulawesi Tengah 94974","Bakala, Kec. Bungku Sel., Kabupaten Morowali",SULAWESI TENGAH,94974.0,Indonesia,,,,-3.0299625,122.4057656,https://maps.google.com/?cid=0x0:0x683433762a073f26,
cafe,Rumah Makan,RM Podho Moro,"X72G+7JQ, Laroenai, Kec. Bungku Sel., Kabupaten Morowali, Sulawesi Tengah 94974","Laroenai, Kec. Bungku Sel., Kabupaten Morowali",SULAWESI TENGAH,94974.0,Indonesia,,,,-3.049295,122.2766012,https://maps.google.com/?cid=0x0:0x1a93dd2349839f87,
cafe,Kafe,Cafe Teruma morowali,"Jl. Trans Sulawesi, Wosu, Kec. Bungku Bar., Kabupaten Morowali, Sulawesi Tengah 94976","Wosu, Kec. Bungku Bar., Kabupaten Morowali",SULAWESI TENGAH,94976.0,Indonesia,85256938889.0,,,-2.3557512,121.8517169,https://maps.google.com/?cid=0x0:0xc7973c3fb854a063,
cafe,Kedai Kopi,Cafe Box,"GWFJ+W5J, Bahomohoni, Kec. Bungku Tengah, Kabupaten Morowali, Sulawesi Tengah 94973","Bahomohoni, Kec. Bungku Tengah, Kabupaten Morowali",SULAWESI TENGAH,94973.0,Indonesia,,,,-2.4751612,121.9303877,https://maps.google.com/?cid=0x0:0x9805ede25960043c,
cafe,Restoran,CAFE PELANGI,"FX3F+R33, Marsaoleh, Kec. Bungku Tengah, Kabupaten Morowali, Sulawesi Tengah 94973","Marsaoleh, Kec. Bungku Tengah, Kabupaten Morowali",SULAWESI TENGAH,94973.0,Indonesia,,,,-2.5454881,121.9726837,https://maps.google.com/?cid=0x0:0x869f93550e32ca35,
cafe,Kedai Kopi,23 Coffee,"PQPC+HCV, Jl. Trans Sulawesi, Tondo, Kec. Bungku Bar., Kabupaten Morowali, Sulawesi Tengah 94964","Jl. Trans Sulawesi, Tondo, Kec. Bungku Bar., Kabupaten Morowali",SULAWESI TENGAH,94964.0,Indonesia,82252617531.0,,,-2.2635104,121.7710401,https://maps.google.com/?cid=0x0:0x99034fe9f309dfa9,
cafe,Kafe,COFFEE 86,"GW8P+3WP, Jl. Trans Sulawesi, Bente, Kec. Bungku Tengah, Kabupaten Morowali, Sulawesi Tengah 94973","Jl. Trans Sulawesi, Bente, Kec. Bungku Tengah, Kabupaten Morowali",SULAWESI TENGAH,94973.0,Indonesia,,,,-2.4846845,121.9372456,https://maps.google.com/?cid=0x0:0xde62f5dc09eb9f5a,
cafe,Restoran,Warung SIDO MULYA,"Laroenai, Kec. Bungku Sel., Kabupaten Morowali, Sulawesi Tengah 94974","Kec. Bungku Sel., Kabupaten Morowali",SULAWESI TENGAH,94974.0,Indonesia,82138377804.0,,,-3.0499167,122.2765248,https://maps.google.com/?cid=0x0:0x92bb18f4376eb40d,
cafe,Brunch,Warung Binte/milu siram,"XC76+2RR, Paku, Kec. Bungku Sel., Kabupaten Morowali, Sulawesi Tengah 94974","Paku, Kec. Bungku Sel., Kabupaten Morowali",SULAWESI TENGAH,94974.0,Indonesia,85254700581.0,,,-3.0373958,122.4120092,https://maps.google.com/?cid=0x0:0x8be5ca604a75d756,
cafe,Makanan Kecil,Warung Mama Alfath,"Paku, Kec. Bungku Sel., Kabupaten Morowali, Sulawesi Tengah 94979","Kec. Bungku Sel., Kabupaten Morowali",SULAWESI TENGAH,94979.0,Indonesia,85254700581.0,,,-3.0406583,122.4084994,https://maps.google.com/?cid=0x0:0x1f8e0bedc82914d0,
cafe,cafe,Sulawesi Tengah 94973,"Kec. Bungku Tengah, Kabupaten Morowali, Sulawesi Tengah","Kabupaten Morowali, Sulawesi Tengah",SULAWESI TENGAH,,Indonesia,,,,-2.6659253,121.856261,https://maps.google.com/?cid=0x0:0x20bfb697387a3fcd,
cafe,Restoran,De Terrace Cafe and Resto,"Jl Raya KTM, Bahomohoni, Kec. Bungku Tengah, Kabupaten Morowali, Sulawesi Tengah 94973","Bahomohoni, Kec. Bungku Tengah, Kabupaten Morowali",SULAWESI TENGAH,94973.0,Indonesia,81355014825.0,,,-2.4757202,121.9302827,https://maps.google.com/?cid=0x0:0xfff51cc295fef9da,
cafe,Restoran,Cafe Lemo Bungku,"FX3C+8F9, Marsaoleh, Kec. Bungku Tengah, Kabupaten Morowali, Sulawesi Tengah","Kabupaten Morowali, Sulawesi Tengah",SULAWESI TENGAH,,Indonesia,,,,-2.546716,121.971236,https://maps.google.com/?cid=0x0:0xaf9ca0ca113951e1,
cafe,Restoran,Resto Bungku Beach Morowali,"Unnamed Road, Tofuti, Kec. Bungku Tengah, Kabupaten Morowali, Sulawesi Tengah 94973","Tofuti, Kec. Bungku Tengah, Kabupaten Morowali",SULAWESI TENGAH,94973.0,Indonesia,,,,-2.5531679,121.9771748,https://maps.google.com/?cid=0x0:0x28983dd9d8fdbbf8,
cafe,Restoran,Wisata Laut,"CXXF+VX4, Tofoiso, Kec. Bungku Tengah, Kabupaten Morowali, Sulawesi Tengah 94973","Tofoiso, Kec. Bungku Tengah, Kabupaten Morowali",SULAWESI TENGAH,94973.0,Indonesia,82279031230.0,,,-2.5503653,121.9749637,https://maps.google.com/?cid=0x0:0xcaac77190166fb3e,
cafe,Kafe,MILLENIUM CAFE N KARAOKE,"Bahomohoni, Kec. Bungku Tengah, Kabupaten Morowali, Sulawesi Tengah 94973","Kec. Bungku Tengah, Kabupaten Morowali",SULAWESI TENGAH,94973.0,Indonesia,81366888595.0,,,-2.4682239,121.9234774,https://maps.google.com/?cid=0x0:0x5e7c37c0f2356e61,
cafe,Kafe,Moyko coffee  Dessert,"GWFH+JX8, Bahomohoni, Kec. Bungku Tengah, Kabupaten Morowali, Sulawesi Tengah 94973","Bahomohoni, Kec. Bungku Tengah, Kabupaten Morowali",SULAWESI TENGAH,94973.0,Indonesia,82350651760.0,,,-2.4759542,121.9299415,https://maps.google.com/?cid=0x0:0x2b0ce4809b392aec,
cafe,Kedai Kopi,S3 Cafe  Resto,"Bahomohoni, Kec. Bungku Tengah, Kabupaten Morowali, Sulawesi Tengah 94973","Kec. Bungku Tengah, Kabupaten Morowali",SULAWESI TENGAH,94973.0,Indonesia,82187034545.0,,,-2.4745939,121.9312143,https://maps.google.com/?cid=0x0:0x8280775ce0a948f1,
cafe,Kafe,Ohara Coffee,"FX3C+94C, Marsaoleh, Kec. Bungku Tengah, Kabupaten Morowali, Sulawesi Tengah 94973","Marsaoleh, Kec. Bungku Tengah, Kabupaten Morowali",SULAWESI TENGAH,94973.0,Indonesia,81242571017.0,,,-2.5465574,121.9702637,https://maps.google.com/?cid=0x0:0x59bf384c31321b3b,
cafe,Restoran,CAFE PELANGI,"FX3F+R33, Marsaoleh, Kec. Bungku Tengah, Kabupaten Morowali, Sulawesi Tengah 94973","Marsaoleh, Kec. Bungku Tengah, Kabupaten Morowali",SULAWESI TENGAH,94973.0,Indonesia,,,,-2.5454881,121.9726837,https://maps.google.com/?cid=0x0:0x869f93550e32ca35,
cafe,Kedai Kopi,Cafe Box,"GWFJ+W5J, Bahomohoni, Kec. Bungku Tengah, Kabupaten Morowali, Sulawesi Tengah 94973","Bahomohoni, Kec. Bungku Tengah, Kabupaten Morowali",SULAWESI TENGAH,94973.0,Indonesia,,,,-2.4751612,121.9303877,https://maps.google.com/?cid=0x0:0x9805ede25960043c,
cafe,Restoran,Warkop Aweng Bungku,"GWCM+FRX, Jl. Trans Sulawesi, Fonuasingko, Bente, Kec. Bungku Tengah, Kabupaten Morowali, Sulawesi Tengah 94737","Jl. Trans Sulawesi, Fonuasingko, Bente, Kec. Bungku Tengah, Kabupaten Morowali",SULAWESI TENGAH,94737.0,Indonesia,85242000288.0,,,-2.4787723,121.9346194,https://maps.google.com/?cid=0x0:0xb02deb9fa8d6c564,
cafe,Kafe,Bahokopi Morowali,"Onepute Jaya, Kec. Bungku Timur, Kabupaten Morowali, Sulawesi Tengah 94973","Kec. Bungku Timur, Kabupaten Morowali",SULAWESI TENGAH,94973.0,Indonesia,82114691857.0,,,-2.7343697,122.0125371,https://maps.google.com/?cid=0x0:0x8fda4262fc4679e8,
cafe,Kafe,CAFE NAFFA,"GWCM+JJX, Bente, Kec. Bungku Tengah, Kabupaten Morowali, Sulawesi Tengah 94973","Bente, Kec. Bungku Tengah, Kabupaten Morowali",SULAWESI TENGAH,94973.0,Indonesia,,,,-2.4783667,121.9340949,https://maps.google.com/?cid=0x0:0x13dc1cc8a38e0e31,
cafe,Restoran,Warung Pangkep,"72H8+5C3, Unnamed Road, Bahomotefe, Bungku Tengah, Morowali Regency, Central Sulawesi 94973","Unnamed Road, Bahomotefe, Bungku Tengah, Morowali Regency",SULAWESI TENGAH,94973.0,Indonesia,,,,-2.7221025,122.0160391,https://maps.google.com/?cid=0x0:0x3caf81fce62b92df,
cafe,Restoran,Zhaf Cafe,"Matano, Kec. Bungku Tengah, Kabupaten Morowali, Sulawesi Tengah","Kabupaten Morowali, Sulawesi Tengah",SULAWESI TENGAH,,Indonesia,82349555504.0,,,-2.5374471,121.9693133,https://maps.google.com/?cid=0x0:0x36b0cc255004a5ee,
cafe,Restoran,Rayas cafe and resto,"Bahomoahi, Kec. Bungku Timur, Kabupaten Morowali, Sulawesi Tengah 94973","Kec. Bungku Timur, Kabupaten Morowali",SULAWESI TENGAH,94973.0,Indonesia,82299226917.0,,,-2.7051847,122.0061118,https://maps.google.com/?cid=0x0:0xcdda8bd8a6b17ca3,
cafe,Kedai Kopi,COZY CORNER (Cafeteria),"72H7+H8P, Bahomotefe, Kec. Bungku Tengah, Kabupaten Morowali, Sulawesi Tengah 94973","Bahomotefe, Kec. Bungku Tengah, Kabupaten Morowali",SULAWESI TENGAH,94973.0,Indonesia,82358111776.0,,,-2.7210487,122.0133005,https://maps.google.com/?cid=0x0:0xc2aaec63d2be9bc,
cafe,Kafe,COFFEE 86,"GW8P+3WP, Jl. Trans Sulawesi, Bente, Kec. Bungku Tengah, Kabupaten Morowali, Sulawesi Tengah 94973","Jl. Trans Sulawesi, Bente, Kec. Bungku Tengah, Kabupaten Morowali",SULAWESI TENGAH,94973.0,Indonesia,,,,-2.4846845,121.9372456,https://maps.google.com/?cid=0x0:0xde62f5dc09eb9f5a,
cafe,Kafe,Balla Kopi By. Daeng,"Jl. Trans Sulawesi, Bente, Kec. Bungku Tengah, Kabupaten Morowali, Sulawesi Tengah","Kabupaten Morowali, Sulawesi Tengah",SULAWESI TENGAH,,Indonesia,8124232692.0,,,-2.4856314,121.9373263,https://maps.google.com/?cid=0x0:0xaf5bd6c74a557c97,
cafe,Kafe,My Soldadu Cafe  Resto,"Jl. Trans Sulawesi No.1, Bente, Kec. Bungku Tengah, Kabupaten Morowali, Sulawesi Tengah 94976","Bente, Kec. Bungku Tengah, Kabupaten Morowali",SULAWESI TENGAH,94976.0,Indonesia,81335024922.0,,,-2.4959619,121.9424131,https://maps.google.com/?cid=0x0:0x50ccab5d36c238cd,
cafe,cafe,LUNGGU COFFEE,"CXXC+67X, Mendui, Kec. Bungku Tengah, Kabupaten Morowali, Sulawesi Tengah 94973","Mendui, Kec. Bungku Tengah, Kabupaten Morowali",SULAWESI TENGAH,94973.0,Indonesia,82292591945.0,,,-2.5518879,121.9707216,https://maps.google.com/?cid=0x0:0xb569372812174029,
cafe,Tujuan Wisata,Puncak Unsongi,"92G2+WXP, Jl Trans Sulawesi, Unsongi, Kec. Bungku Timur, Kabupaten Morowali, Sulawesi Tengah 94973","Jl Trans Sulawesi, Unsongi, Kec. Bungku Timur, Kabupaten Morowali",SULAWESI TENGAH,94973.0,Indonesia,,,,-2.6226546,122.0024409,https://maps.google.com/?cid=0x0:0x76a90b71ab12942d,
cafe,Restoran,WIB Eatery,"GWCP+558, Bente, Kec. Bungku Tengah, Kabupaten Morowali, Sulawesi Tengah","Kabupaten Morowali, Sulawesi Tengah",SULAWESI TENGAH,,Indonesia,,,,-2.4795766,121.9354538,https://maps.google.com/?cid=0x0:0x5bd24fe681d7253f,
cafe,Kedai Kopi,Minnie Cafe,"Jl. Cakalang Matano, Matano, Kec. Bungku Tengah, Kabupaten Morowali, Sulawesi Tengah","Kabupaten Morowali, Sulawesi Tengah",SULAWESI TENGAH,,Indonesia,82293456777.0,,,-2.5398842,121.9700361,https://maps.google.com/?cid=0x0:0xddeb50f1184ca6eb,
cafe,Karaoke Video,APPO Cafe  Club,"FX78+67C, Matano, Kec. Bungku Tengah, Kabupaten Morowali, Sulawesi Tengah 94973","Matano, Kec. Bungku Tengah, Kabupaten Morowali",SULAWESI TENGAH,94973.0,Indonesia,,,,-2.5369442,121.9656392,https://maps.google.com/?cid=0x0:0x4b38f7d0c33e7c3b,
cafe,Kedai Kopi,KOPI AROBI IPI,"Jl. Trans Sulawesi, Ipi, Kec. Bungku Tengah, Kabupaten Morowali, Sulawesi Tengah 94973","Ipi, Kec. Bungku Tengah, Kabupaten Morowali",SULAWESI TENGAH,94973.0,Indonesia,82194781381.0,,,-2.5042246,121.9471153,https://maps.google.com/?cid=0x0:0x7ce2e1bfdfcbbff6,
cafe,cafe,Sulawesi Tengah 94973,"Kec. Bungku Tengah, Kabupaten Morowali, Sulawesi Tengah","Kabupaten Morowali, Sulawesi Tengah",SULAWESI TENGAH,,Indonesia,,,,-2.6659253,121.856261,https://maps.google.com/?cid=0x0:0x20bfb697387a3fcd,
cafe,Restoran,Cafe Lemo Bungku,"FX3C+8F9, Marsaoleh, Kec. Bungku Tengah, Kabupaten Morowali, Sulawesi Tengah","Kabupaten Morowali, Sulawesi Tengah",SULAWESI TENGAH,,Indonesia,,,,-2.546716,121.971236,https://maps.google.com/?cid=0x0:0xaf9ca0ca113951e1,
cafe,Restoran,De Terrace Cafe and Resto,"Jl Raya KTM, Bahomohoni, Kec. Bungku Tengah, Kabupaten Morowali, Sulawesi Tengah 94973","Bahomohoni, Kec. Bungku Tengah, Kabupaten Morowali",SULAWESI TENGAH,94973.0,Indonesia,81355014825.0,,,-2.4757202,121.9302827,https://maps.google.com/?cid=0x0:0xfff51cc295fef9da,
cafe,Kafe,MILLENIUM CAFE N KARAOKE,"Bahomohoni, Kec. Bungku Tengah, Kabupaten Morowali, Sulawesi Tengah 94973","Kec. Bungku Tengah, Kabupaten Morowali",SULAWESI TENGAH,94973.0,Indonesia,81366888595.0,,,-2.4682239,121.9234774,https://maps.google.com/?cid=0x0:0x5e7c37c0f2356e61,
cafe,Restoran,Resto Bungku Beach Morowali,"Unnamed Road, Tofuti, Kec. Bungku Tengah, Kabupaten Morowali, Sulawesi Tengah 94973","Tofuti, Kec. Bungku Tengah, Kabupaten Morowali",SULAWESI TENGAH,94973.0,Indonesia,,,,-2.5531679,121.9771748,https://maps.google.com/?cid=0x0:0x28983dd9d8fdbbf8,
cafe,Restoran,Bintang Coffee  Restaurant,"FX67+C8M, Jl. Nangka, Bungi, Kec. Bungku Tengah, Kabupaten Morowali, Sulawesi Tengah","Kabupaten Morowali, Sulawesi Tengah",SULAWESI TENGAH,,Indonesia,85716161740.0,,,-2.5389049,121.9633048,https://maps.google.com/?cid=0x0:0x9a1fd6a2e1d6928a,
cafe,Restoran,Wisata Laut,"CXXF+VX4, Tofoiso, Kec. Bungku Tengah, Kabupaten Morowali, Sulawesi Tengah 94973","Tofoiso, Kec. Bungku Tengah, Kabupaten Morowali",SULAWESI TENGAH,94973.0,Indonesia,82279031230.0,,,-2.5503653,121.9749637,https://maps.google.com/?cid=0x0:0xcaac77190166fb3e,
cafe,Kafe,Ohara Coffee,"FX3C+94C, Marsaoleh, Kec. Bungku Tengah, Kabupaten Morowali, Sulawesi Tengah 94973","Marsaoleh, Kec. Bungku Tengah, Kabupaten Morowali",SULAWESI TENGAH,94973.0,Indonesia,81242571017.0,,,-2.5465574,121.9702637,https://maps.google.com/?cid=0x0:0x59bf384c31321b3b,
cafe,Kafe,Bahokopi Morowali,"Onepute Jaya, Kec. Bungku Timur, Kabupaten Morowali, Sulawesi Tengah 94973","Kec. Bungku Timur, Kabupaten Morowali",SULAWESI TENGAH,94973.0,Indonesia,82114691857.0,,,-2.7343697,122.0125371,https://maps.google.com/?cid=0x0:0x8fda4262fc4679e8,
cafe,Restoran,CAFE PELANGI,"FX3F+R33, Marsaoleh, Kec. Bungku Tengah, Kabupaten Morowali, Sulawesi Tengah 94973","Marsaoleh, Kec. Bungku Tengah, Kabupaten Morowali",SULAWESI TENGAH,94973.0,Indonesia,,,,-2.5454881,121.9726837,https://maps.google.com/?cid=0x0:0x869f93550e32ca35,
cafe,Kedai Kopi,Cafe Box,"GWFJ+W5J, Bahomohoni, Kec. Bungku Tengah, Kabupaten Morowali, Sulawesi Tengah 94973","Bahomohoni, Kec. Bungku Tengah, Kabupaten Morowali",SULAWESI TENGAH,94973.0,Indonesia,,,,-2.4751612,121.9303877,https://maps.google.com/?cid=0x0:0x9805ede25960043c,
cafe,Kedai Kopi,S3 Cafe  Resto,"Bahomohoni, Kec. Bungku Tengah, Kabupaten Morowali, Sulawesi Tengah 94973","Kec. Bungku Tengah, Kabupaten Morowali",SULAWESI TENGAH,94973.0,Indonesia,82187034545.0,,,-2.4745939,121.9312143,https://maps.google.com/?cid=0x0:0x8280775ce0a948f1,
cafe,Restoran,Warung Pangkep,"72H8+5C3, Unnamed Road, Bahomotefe, Bungku Tengah, Morowali Regency, Central Sulawesi 94973","Unnamed Road, Bahomotefe, Bungku Tengah, Morowali Regency",SULAWESI TENGAH,94973.0,Indonesia,,,,-2.7221025,122.0160391,https://maps.google.com/?cid=0x0:0x3caf81fce62b92df,
cafe,Kafe,COFFEE 86,"GW8P+3WP, Jl. Trans Sulawesi, Bente, Kec. Bungku Tengah, Kabupaten Morowali, Sulawesi Tengah 94973","Jl. Trans Sulawesi, Bente, Kec. Bungku Tengah, Kabupaten Morowali",SULAWESI TENGAH,94973.0,Indonesia,,,,-2.4846845,121.9372456,https://maps.google.com/?cid=0x0:0xde62f5dc09eb9f5a,
cafe,Kafe,CAFE NAFFA,"GWCM+JJX, Bente, Kec. Bungku Tengah, Kabupaten Morowali, Sulawesi Tengah 94973","Bente, Kec. Bungku Tengah, Kabupaten Morowali",SULAWESI TENGAH,94973.0,Indonesia,,,,-2.4783667,121.9340949,https://maps.google.com/?cid=0x0:0x13dc1cc8a38e0e31,
cafe,Restoran,Rayas cafe and resto,"Bahomoahi, Kec. Bungku Timur, Kabupaten Morowali, Sulawesi Tengah 94973","Kec. Bungku Timur, Kabupaten Morowali",SULAWESI TENGAH,94973.0,Indonesia,82299226917.0,,,-2.7051847,122.0061118,https://maps.google.com/?cid=0x0:0xcdda8bd8a6b17ca3,
cafe,Kedai Kopi,COZY CORNER (Cafeteria),"72H7+H8P, Bahomotefe, Kec. Bungku Tengah, Kabupaten Morowali, Sulawesi Tengah 94973","Bahomotefe, Kec. Bungku Tengah, Kabupaten Morowali",SULAWESI TENGAH,94973.0,Indonesia,82358111776.0,,,-2.7210487,122.0133005,https://maps.google.com/?cid=0x0:0xc2aaec63d2be9bc,
cafe,Restoran,Warkop Aweng Bungku,"GWCM+FRX, Jl. Trans Sulawesi, Fonuasingko, Bente, Kec. Bungku Tengah, Kabupaten Morowali, Sulawesi Tengah 94737","Jl. Trans Sulawesi, Fonuasingko, Bente, Kec. Bungku Tengah, Kabupaten Morowali",SULAWESI TENGAH,94737.0,Indonesia,85242000288.0,,,-2.4787723,121.9346194,https://maps.google.com/?cid=0x0:0xb02deb9fa8d6c564,
cafe,Tujuan Wisata,Puncak Unsongi,"92G2+WXP, Jl Trans Sulawesi, Unsongi, Kec. Bungku Timur, Kabupaten Morowali, Sulawesi Tengah 94973","Jl Trans Sulawesi, Unsongi, Kec. Bungku Timur, Kabupaten Morowali",SULAWESI TENGAH,94973.0,Indonesia,,,,-2.6226546,122.0024409,https://maps.google.com/?cid=0x0:0x76a90b71ab12942d,
cafe,Kafe,Balla Kopi By. Daeng,"Jl. Trans Sulawesi, Bente, Kec. Bungku Tengah, Kabupaten Morowali, Sulawesi Tengah","Kabupaten Morowali, Sulawesi Tengah",SULAWESI TENGAH,,Indonesia,8124232692.0,,,-2.4856314,121.9373263,https://maps.google.com/?cid=0x0:0xaf5bd6c74a557c97,
cafe,Kafe,Sio One Caffe,"FX69+CPW, Jl. Cakalang Matano, Matano, Kec. Bungku Tengah, Kabupaten Morowali, Sulawesi Tengah 94973","Jl. Cakalang Matano, Matano, Kec. Bungku Tengah, Kabupaten Morowali",SULAWESI TENGAH,94973.0,Indonesia,,,,-2.5388751,121.9693182,https://maps.google.com/?cid=0x0:0x37a828f6bdb99706,
cafe,Restoran,Zhaf Cafe,"Matano, Kec. Bungku Tengah, Kabupaten Morowali, Sulawesi Tengah","Kabupaten Morowali, Sulawesi Tengah",SULAWESI TENGAH,,Indonesia,82349555504.0,,,-2.5374471,121.9693133,https://maps.google.com/?cid=0x0:0x36b0cc255004a5ee,
cafe,cafe,Sulawesi Tengah 94972,"Kabupaten Morowali Utara, Sulawesi Tengah","Kabupaten Morowali Utara, Sulawesi Tengah",SULAWESI TENGAH,,Indonesia,,,,-1.6248083,121.7195459,https://maps.google.com/?cid=0x0:0xe9e478f27d681886,
cafe,Komplek perumahan,Cafe VIOLET,"Jalan Penggaraman No.pantai, Talise, Kec. Bungku Utara, Kabupaten Morowali Utara, Sulawesi Tengah 94118","Talise, Kec. Bungku Utara, Kabupaten Morowali Utara",SULAWESI TENGAH,94118.0,Indonesia,82296700035.0,,,-1.4300254,121.4456179,https://maps.google.com/?cid=0x0:0x37331372100d57,
cafe,Polisi Sipil,Caffe Polsek Baturube,"6QJW+FJC, Unnamed Road, Baturube, Kec. Bungku Utara, Kabupaten Morowali Utara, Sulawesi Tengah 94972","Unnamed Road, Baturube, Kec. Bungku Utara, Kabupaten Morowali Utara",SULAWESI TENGAH,94972.0,Indonesia,82189529347.0,,,-1.7688242,121.7965278,https://maps.google.com/?cid=0x0:0x537146947887fbe7,
cafe,Dapur Umum,Sae.Cafe,"9X7F+Q6C, Tana Sumpu, Kec. Mamosalato, Kabupaten Morowali, Sulawesi Tengah 94972","Tana Sumpu, Kec. Mamosalato, Kabupaten Morowali",SULAWESI TENGAH,94972.0,Indonesia,82292267939.0,,,-1.6355284,121.9730613,https://maps.google.com/?cid=0x0:0x3be340a265b54cf7,
cafe,Restoran,Cafe Lemo Bungku,"FX3C+8F9, Marsaoleh, Kec. Bungku Tengah, Kabupaten Morowali, Sulawesi Tengah","Kabupaten Morowali, Sulawesi Tengah",SULAWESI TENGAH,,Indonesia,,,,-2.546716,121.971236,https://maps.google.com/?cid=0x0:0xaf9ca0ca113951e1,
cafe,Kedai Kopi,Warkop Berkah,"6QMX+CPV, Baturube, Kec. Bungku Utara, Kabupaten Morowali Utara, Sulawesi Tengah","Kabupaten Morowali Utara, Sulawesi Tengah",SULAWESI TENGAH,,Indonesia,82310808376.0,,,-1.7663949,121.7992993,https://maps.google.com/?cid=0x0:0x547c553b868cf375,
cafe,Kedai Kopi,KEDAI BIRU,"6QHV+Q78, Baturube, Kec. Bungku Utara, Kabupaten Morowali Utara, Sulawesi Tengah 94972","Baturube, Kec. Bungku Utara, Kabupaten Morowali Utara",SULAWESI TENGAH,94972.0,Indonesia,,,,-1.7705847,121.7932101,https://maps.google.com/?cid=0x0:0x1b95ad72551a8f65,
cafe,Brunch,Warung Makan Puncak Indah,"7RFC+998, Siliti, Kec. Bungku Utara, Kabupaten Morowali, Sulawesi Tengah","Kabupaten Morowali, Sulawesi Tengah",SULAWESI TENGAH,,Indonesia,,,,-1.7265828,121.8209599,https://maps.google.com/?cid=0x0:0x598217ecf9e46d4,
cafe,Kedai Kopi,Teras Caffe,"Jl. Trans Sulawesi No.60, Tambarobone, Kec. Bungku Utara, Kabupaten Morowali Utara, Sulawesi Tengah 94927","Tambarobone, Kec. Bungku Utara, Kabupaten Morowali Utara",SULAWESI TENGAH,94927.0,Indonesia,82348810879.0,,,-1.7568179,121.7162854,https://maps.google.com/?cid=0x0:0xfc8d3bdee02246d0,
cafe,Kedai Kopi,Spot hengker,"9X6C+JQP, Tana Sumpu, Kec. Mamosalato, Kabupaten Morowali Utara, Sulawesi Tengah","Kabupaten Morowali Utara, Sulawesi Tengah",SULAWESI TENGAH,,Indonesia,,,,-1.6377833,121.9731812,https://maps.google.com/?cid=0x0:0xeadeab06523ca2e1,
cafe,Restoran,De Terrace Cafe and Resto,"Jl Raya KTM, Bahomohoni, Kec. Bungku Tengah, Kabupaten Morowali, Sulawesi Tengah 94973","Bahomohoni, Kec. Bungku Tengah, Kabupaten Morowali",SULAWESI TENGAH,94973.0,Indonesia,81355014825.0,,,-2.4757202,121.9302827,https://maps.google.com/?cid=0x0:0xfff51cc295fef9da,
cafe,Sarapan,RUMAH MAKAN PINGGIR PANTAI,"6RM2+X5H, Kec. Bungku Utara, Kabupaten Morowali Utara, Sulawesi Tengah","Kabupaten Morowali Utara, Sulawesi Tengah",SULAWESI TENGAH,,Indonesia,,,,-1.7650506,121.8004787,https://maps.google.com/?cid=0x0:0x2a323c6750a6123c,
cafe,Bar,Wanagading,"HC9W+X6Q, Taronggo, Kec. Bungku Utara, Kabupaten Morowali Utara, Sulawesi Tengah","Kabupaten Morowali Utara, Sulawesi Tengah",SULAWESI TENGAH,,Indonesia,,,,-1.4300254,121.4456179,https://maps.google.com/?cid=0x0:0xe66f69bc9250f102,
cafe,Toko Minuman Bersoda,BESTEA 2,"287P+2VP, Kolonodale, Kec. Petasia, Kabupaten Morowali Utara, Sulawesi Tengah 94971","Kolonodale, Kec. Petasia, Kabupaten Morowali Utara",SULAWESI TENGAH,94971.0,Indonesia,,,,-1.9873781,121.3371116,https://maps.google.com/?cid=0x0:0x6d60cd929dea68c1,
cafe,Restoran,Bintang Coffee  Restaurant,"FX67+C8M, Jl. Nangka, Bungi, Kec. Bungku Tengah, Kabupaten Morowali, Sulawesi Tengah","Kabupaten Morowali, Sulawesi Tengah",SULAWESI TENGAH,,Indonesia,85716161740.0,,,-2.5389049,121.9633048,https://maps.google.com/?cid=0x0:0x9a1fd6a2e1d6928a,
cafe,Kedai Kopi,Ai coffee,"Bungintimbe, Kec. Petasia Timur, Kabupaten Morowali, Sulawesi Tengah 94971","Kec. Petasia Timur, Kabupaten Morowali",SULAWESI TENGAH,94971.0,Indonesia,82187155666.0,,,-2.0736784,121.4403943,https://maps.google.com/?cid=0x0:0x715735a2126289bc,
cafe,Kedai Kopi,Cafe Box,"GWFJ+W5J, Bahomohoni, Kec. Bungku Tengah, Kabupaten Morowali, Sulawesi Tengah 94973","Bahomohoni, Kec. Bungku Tengah, Kabupaten Morowali",SULAWESI TENGAH,94973.0,Indonesia,,,,-2.4751612,121.9303877,https://maps.google.com/?cid=0x0:0x9805ede25960043c,
cafe,Kafe,Ninety Degrees Coffee,"287M+WGW, Bahontula, Kec. Petasia, Kabupaten Morowali Utara, Sulawesi Tengah 94971","Bahontula, Kec. Petasia, Kabupaten Morowali Utara",SULAWESI TENGAH,94971.0,Indonesia,,,,-1.9850969,121.3338711,https://maps.google.com/?cid=0x0:0xf16c3aabadcda5da,
cafe,Restoran,Warung makan monggo moro,"7Q97+QG5, Tanaku Raya, Kec. Bungku Utara, Kabupaten Morowali Utara, Sulawesi Tengah 94972","Tanaku Raya, Kec. Bungku Utara, Kabupaten Morowali Utara",SULAWESI TENGAH,94972.0,Indonesia,85227936525.0,,,-1.7306053,121.763852,https://maps.google.com/?cid=0x0:0xcd1ed60c7cce5801,
cafe,Toko,Angkringan tirto,"9W3J+P7V, Giri Mulya, Kec. Mamosalato, Kabupaten Morowali Utara, Sulawesi Tengah 94972","Giri Mulya, Kec. Mamosalato, Kabupaten Morowali Utara",SULAWESI TENGAH,94972.0,Indonesia,,,,-1.6456362,121.93066,https://maps.google.com/?cid=0x0:0x2cf8631c17d6212c,
cafe,Warnet,famuri com,"6QJR+6Q4, Baturube, Kec. Bungku Utara, Kabupaten Morowali Utara, Sulawesi Tengah 94972","Baturube, Kec. Bungku Utara, Kabupaten Morowali Utara",SULAWESI TENGAH,94972.0,Indonesia,,,,-1.7690578,121.7921507,https://maps.google.com/?cid=0x0:0x15d48f8c31123a1f,
cafe,Dapur Umum,Warung Makan Mama Erna,"Tanaku Raya, Kec. Bungku Utara, Kabupaten Morowali Utara, Sulawesi Tengah 94972","Kec. Bungku Utara, Kabupaten Morowali Utara",SULAWESI TENGAH,94972.0,Indonesia,82129613720.0,,,-1.7304062,121.7655731,https://maps.google.com/?cid=0x0:0x9909c419a6d1faa5,
cafe,Kedai Kopi,Warkop Mba Cenik,"7Q97+VP3, Tanaku Raya, Kec. Bungku Utara, Kabupaten Morowali Utara, Sulawesi Tengah 94972","Tanaku Raya, Kec. Bungku Utara, Kabupaten Morowali Utara",SULAWESI TENGAH,94972.0,Indonesia,,,,-1.7303674,121.7642996,https://maps.google.com/?cid=0x0:0xc361f4c5a601f04a,
cafe,Gedung Apartemen,Rumah NURHAYATI,"9XJQ+GJR, Pandauke, Kec. Mamosalato, Kabupaten Morowali Utara, Sulawesi Tengah","Kabupaten Morowali Utara, Sulawesi Tengah",SULAWESI TENGAH,,Indonesia,,,,-1.6186259,121.9890222,https://maps.google.com/?cid=0x0:0x40003914faa1901d,
cafe,Restoran,Warung Makan Padaidi,"9X8G+C4P, Tana Sumpu, Kec. Mamosalato, Kabupaten Morowali Utara, Sulawesi Tengah 94972","Tana Sumpu, Kec. Mamosalato, Kabupaten Morowali Utara",SULAWESI TENGAH,94972.0,Indonesia,,,,-1.6339115,121.975324,https://maps.google.com/?cid=0x0:0xf8bdc59961ae8aef,
cafe,Jembatan,Hiburan,"QCM9+493, Matano, Menui Kepulauan, Kabupaten Morowali, Sulawesi Tengah 94975","Matano, Menui Kepulauan, Kabupaten Morowali",SULAWESI TENGAH,94975.0,Indonesia,,,,-3.2172301,122.4184108,https://maps.google.com/?cid=0x0:0x49a5c3ac0ed903fa,
cafe,Kantor Pemerintahan Daerah,"Desa matano, kecamatan menui kepulauan","Matano, Menui Kepulauan, Kabupaten Morowali, Sulawesi Tengah 94975","Menui Kepulauan, Kabupaten Morowali",SULAWESI TENGAH,94975.0,Indonesia,,,,-3.2012335,122.4239862,https://maps.google.com/?cid=0x0:0x3cc218c5fb354d46,
cafe,cafe,Kec. Wita Ponda,"Kabupaten Morowali, Sulawesi Tengah","Kabupaten Morowali, Sulawesi Tengah",SULAWESI TENGAH,,Indonesia,,,,-2.214136,121.5990103,https://maps.google.com/?cid=0x0:0xff62e010995308a1,
cafe,Kedai Kopi,Cafe Night The Bay,"QHCX+HXV, Emea, Kec. Wita Ponda, Kabupaten Morowali, Sulawesi Tengah 94976","Emea, Kec. Wita Ponda, Kabupaten Morowali",SULAWESI TENGAH,94976.0,Indonesia,,,,-2.2285039,121.5999287,https://maps.google.com/?cid=0x0:0x4aeace542f06ba74,
cafe,Kedai Kopi,Kedai Kuyylaahh cafe dan resto,"QJP5+5VH, Emea, Kec. Wita Ponda, Kabupaten Morowali, Sulawesi Tengah 94976","Emea, Kec. Wita Ponda, Kabupaten Morowali",SULAWESI TENGAH,94976.0,Indonesia,,,,-2.2145591,121.609736,https://maps.google.com/?cid=0x0:0xafab6054d6a5833d,
cafe,Kedai Kopi,Pangkalan kopi balap,"QJG7+FFC, Emea, Kec. Wita Ponda, Kabupaten Morowali, Sulawesi Tengah 94976","Emea, Kec. Wita Ponda, Kabupaten Morowali",SULAWESI TENGAH,94976.0,Indonesia,,,,-2.2238182,121.6136316,https://maps.google.com/?cid=0x0:0x156b1d79a47d5b23,
cafe,Kafe,Kafe and resto,"QJP6+85X, Emea, Kec. Wita Ponda, Kabupaten Morowali, Sulawesi Tengah","Kabupaten Morowali, Sulawesi Tengah",SULAWESI TENGAH,,Indonesia,,,,-2.2144636,121.6097585,https://maps.google.com/?cid=0x0:0x22e1664789af8098,
cafe,Kedai Kopi,Kedai Kopi 77,"QHP8+7P, Ungkaya, Kec. Wita Ponda, Kabupaten Morowali, Sulawesi Tengah 94976","Ungkaya, Kec. Wita Ponda, Kabupaten Morowali",SULAWESI TENGAH,94976.0,Indonesia,,,,-2.2143281,121.5670401,https://maps.google.com/?cid=0x0:0x16b04d47707715ab,
cafe,Kedai Kopi,Philonk Coffee,"QJMF+HH2, Jl. Trans Sulawesi, Lantula Jaya, Kec. Wita Ponda, Kabupaten Morowali, Sulawesi Tengah 94976","Jl. Trans Sulawesi, Lantula Jaya, Kec. Wita Ponda, Kabupaten Morowali",SULAWESI TENGAH,94976.0,Indonesia,,,,-2.2161019,121.6238996,https://maps.google.com/?cid=0x0:0xd639ab3efc135064,
cafe,Nasi,Martabak dan Terang bulan samping kantor camat Witaponda,"Jl. Trans Sulawesi, Sampeantaba, Kec. Wita Ponda, Kabupaten Morowali, Sulawesi Tengah 94976","Sampeantaba, Kec. Wita Ponda, Kabupaten Morowali",SULAWESI TENGAH,94976.0,Indonesia,85240092531.0,,,-2.2159595,121.6221619,https://maps.google.com/?cid=0x0:0x54ebc7066bcf74c6,
cafe,Rumah Makan,Warung Mbaktik,"QJMF+P7G, Jl. Trans Sulawesi, Sampeantaba, Kec. Wita Ponda, Kabupaten Morowali, Sulawesi Tengah 94976","Jl. Trans Sulawesi, Sampeantaba, Kec. Wita Ponda, Kabupaten Morowali",SULAWESI TENGAH,94976.0,Indonesia,82188544933.0,,,-2.2156962,121.6232141,https://maps.google.com/?cid=0x0:0x8616f1aa8e819a62,
cafe,Brunch,Pop Ice Iyanda,"QJ93+5V2, Bumi Harapan, Kec. Wita Ponda, Kabupaten Morowali, Sulawesi Tengah 94976","Bumi Harapan, Kec. Wita Ponda, Kabupaten Morowali",SULAWESI TENGAH,94976.0,Indonesia,82214942349.0,,,-2.2321206,121.6046255,https://maps.google.com/?cid=0x0:0xec24bf053e976c45,
cafe,Kedai Kopi,Warkop Aweng,"QJP5+78G, Jl. Trans Sulawesi, Emea, Kec. Wita Ponda, Kabupaten Morowali, Sulawesi Tengah 94976","Jl. Trans Sulawesi, Emea, Kec. Wita Ponda, Kabupaten Morowali",SULAWESI TENGAH,94976.0,Indonesia,,,,-2.2143067,121.6083425,https://maps.google.com/?cid=0x0:0x7a255e62a3d5fac1,
cafe,Kedai Kopi,Warung Makan Cita,"QJP8+2XC, Emea, Kec. Wita Ponda, Kabupaten Morowali, Sulawesi Tengah 94976","Emea, Kec. Wita Ponda, Kabupaten Morowali",SULAWESI TENGAH,94976.0,Indonesia,,,,-2.2149278,121.6173763,https://maps.google.com/?cid=0x0:0x80510f6071ef8d86,
cafe,Toko Roti,Donat  Pizza Delin,"QJMF+HXX, Sampeantaba, Kec. Wita Ponda, Kabupaten Morowali, Sulawesi Tengah 94976","Sampeantaba, Kec. Wita Ponda, Kabupaten Morowali",SULAWESI TENGAH,94976.0,Indonesia,81242122665.0,,,-2.2160165,121.624971,https://maps.google.com/?cid=0x0:0x9a021ad75fb5e206,
cafe,Rumah Makan,Waroeng Makan Eling Eling,"QHPW+8J8, Emea, Kec. Wita Ponda, Kabupaten Morowali, Sulawesi Tengah 94976","Emea, Kec. Wita Ponda, Kabupaten Morowali",SULAWESI TENGAH,94976.0,Indonesia,85341235555.0,,,-2.2142243,121.5965642,https://maps.google.com/?cid=0x0:0x414ebcfa31f4083a,
cafe,Padang,RUMAH MAKAN GOYANG LIDAH2,"Sampeantaba, Kec. Wita Ponda, Kabupaten Morowali, Sulawesi Tengah","Kabupaten Morowali, Sulawesi Tengah",SULAWESI TENGAH,,Indonesia,85704624308.0,,,-2.2252549,121.6510357,https://maps.google.com/?cid=0x0:0x71eb6bfe8d2efec8,
cafe,Kedai Kopi,MOOD CAFE,"Pebatae, Kec. Bumi Raya, Kabupaten Morowali, Sulawesi Tengah 94976","Kec. Bumi Raya, Kabupaten Morowali",SULAWESI TENGAH,94976.0,Indonesia,82271301488.0,,,-2.2288615,121.6761879,https://maps.google.com/?cid=0x0:0xb979e728c6a16ffb,
cafe,Indonesia,RUMAH MAKAN GOYANG LIDAH,"QHPV+FHF, Emea, Kec. Wita Ponda, Kabupaten Morowali, Sulawesi Tengah 94976","Emea, Kec. Wita Ponda, Kabupaten Morowali",SULAWESI TENGAH,94976.0,Indonesia,85298638597.0,,,-2.2138074,121.5939188,https://maps.google.com/?cid=0x0:0xb9251a1508947e59,
cafe,Restoran,Rest area dan pusat kuliner desa emea,"QJP6+85X, Emea, Kec. Wita Ponda, Kabupaten Morowali, Sulawesi Tengah","Kabupaten Morowali, Sulawesi Tengah",SULAWESI TENGAH,,Indonesia,,,,-2.2145025,121.6096683,https://maps.google.com/?cid=0x0:0xc6b12450e4183248,
cafe,Padang,Warung Makan Gelora,"QJP4+93M, Jl. Trans Sulawesi, Emea, Kec. Wita Ponda, Kabupaten Morowali, Sulawesi Tengah 94976","Jl. Trans Sulawesi, Emea, Kec. Wita Ponda, Kabupaten Morowali",SULAWESI TENGAH,94976.0,Indonesia,,,,-2.2140272,121.6051629,https://maps.google.com/?cid=0x0:0x3c2a041511399231,
cafe,Kedai Kopi,Keday Teracce La Yusuf,"QJJF+888, Lantula Jaya, Kec. Wita Ponda, Kabupaten Morowali, Sulawesi Tengah 94976","Lantula Jaya, Kec. Wita Ponda, Kabupaten Morowali",SULAWESI TENGAH,94976.0,Indonesia,,,,-2.2192129,121.6233259,https://maps.google.com/?cid=0x0:0xad680abe2068f1f9,
cafe,Rumah Makan,PENGINAPAN DAN RUMAH MAKAN ENDANG TOILI,"Ungkaya, Kec. Wita Ponda, Kabupaten Morowali, Sulawesi Tengah 94976","Kec. Wita Ponda, Kabupaten Morowali",SULAWESI TENGAH,94976.0,Indonesia,82247194173.0,,,-2.2142132,121.5903091,https://maps.google.com/?cid=0x0:0x81c218e9b18896a8,
cafe,Indonesia,LESEHAN MOROSENENG EMEA,"kantor BANK BRI, Unnamed Road depan, Emea, Kec. Wita Ponda, Kabupaten Morowali, Sulawesi Tengah 94976","Unnamed Road depan, Emea, Kec. Wita Ponda, Kabupaten Morowali",SULAWESI TENGAH,94976.0,Indonesia,82230799425.0,,,-2.2148376,121.617898,https://maps.google.com/?cid=0x0:0xfab82788ec6586c1,
cafe,Kedai Kopi,KOPI AROBI EMEA,"QHPV+7WV, Jl. Trans Sulawesi, Emea, Kec. Wita Ponda, Kabupaten Morowali, Sulawesi Tengah 94976","Jl. Trans Sulawesi, Emea, Kec. Wita Ponda, Kabupaten Morowali",SULAWESI TENGAH,94976.0,Indonesia,,,,-2.2143262,121.5948278,https://maps.google.com/?cid=0x0:0x22cf0bdc37263d14,
