Category,Real Category,Business Name,Address,City,State,Postal Code,Country,Phone,Email,Website,Latitude,Longitude,Map Link,Details Link
mall,mall,Sulawesi Tengah 94974,"Kabupaten Morowali, Sulawesi Tengah","Kabupaten Morowali, Sulawesi Tengah",SULAWESI TENGAH,,Indonesia,,,,-2.8626226,122.1291843,https://maps.google.com/?cid=0x0:0xb267e774a37f920f,
mall,Pasar,Pasar Malam,"Keurea, Kec. Bahodopi, Kabupaten Morowali, Sulawesi Tengah 94974","Kec. Bahodopi, Kabupaten Morowali",SULAWESI TENGAH,94974.0,Indonesia,,,,-2.7893261,122.1334501,https://maps.google.com/?cid=0x0:0xdfac2c1eb7e27c8d,
mall,Pusat Perbelanjaan,Jastip Makassar morowali,"Jl pendidikan lorong KUA, Bahodopi, Kec. Bahodopi, Kabupaten Morowali, Sulawesi Tengah 94974","Bahodopi, Kec. Bahodopi, Kabupaten Morowali",SULAWESI TENGAH,94974.0,Indonesia,82348745262.0,,,-2.7952136,122.1243721,https://maps.google.com/?cid=0x0:0x5f94662afc0f6bb5,
mall,Toko Pakaian,PURNAMA SPORT BAHODOPI,"Unnamed Road, Keurea, Kec. Bahodopi, Kabupaten Morowali, Sulawesi Tengah 94974","Keurea, Kec. Bahodopi, Kabupaten Morowali",SULAWESI TENGAH,94974.0,Indonesia,85299999130.0,,,-2.7909538,122.1417965,https://maps.google.com/?cid=0x0:0xe03c4e58c033b7ff,
mall,Pusat Perbelanjaan,Alive Store Morowali,"54RQ+3P7, Jl. Trans Bahomakmur, Keurea, Kec. Bahodopi, Kabupaten Morowali, Sulawesi Tengah 94974","Jl. Trans Bahomakmur, Keurea, Kec. Bahodopi, Kabupaten Morowali",SULAWESI TENGAH,94974.0,Indonesia,,,,-2.8098279,122.1392957,https://maps.google.com/?cid=0x0:0xee2781c912ff6548,
mall,Kios,SELVI SALI,"644H+HWV, Jl. Trans Bahomakmur, Keurea, Kec. Bahodopi, Kabupaten Morowali, Sulawesi Tengah 94974","Jl. Trans Bahomakmur, Keurea, Kec. Bahodopi, Kabupaten Morowali",SULAWESI TENGAH,94974.0,Indonesia,82293165730.0,,,-2.7935074,122.1297848,https://maps.google.com/?cid=0x0:0xf94f87755e235561,
mall,Pusat Perbelanjaan,Stokist Nasa Bahodopi,"32FG+MQV Hoya, Kec. Bahodopi Desa Kuerea Sebelum Hoya, Keurea, Kec. Bahodopi, Kabupaten Morowali, Sulawesi Tengah 94974","Kec. Bahodopi Desa Kuerea Sebelum Hoya, Keurea, Kec. Bahodopi, Kabupaten Morowali",SULAWESI TENGAH,94974.0,Indonesia,85254001122.0,,,-2.9257603,122.026918,https://maps.google.com/?cid=0x0:0x91529f074668b8ef,
mall,Minimarket,TheBugice,"Ruko Alga Cell No 08, Labota, Kec. Bahodopi, Kabupaten Morowali, Sulawesi Tengah","Kabupaten Morowali, Sulawesi Tengah",SULAWESI TENGAH,,Indonesia,82325444033.0,,,-2.8574417,122.1831219,https://maps.google.com/?cid=0x0:0xa76a559cfb7245ce,
mall,Minimarket,TOKO MONAPA,"55M4+3JP, Fatufia, Kec. Bahodopi, Kabupaten Morowali, Sulawesi Tengah 94974","Fatufia, Kec. Bahodopi, Kabupaten Morowali",SULAWESI TENGAH,94974.0,Indonesia,81241169818.0,,,-2.8172777,122.156567,https://maps.google.com/?cid=0x0:0xdfdceb810467a6a0,
mall,Toko,"Toko Mufidah ,labota ,kec,bahodopi","45RJ+GXX, Unnamed Road, Labota, Kec. Bahodopi, Kabupaten Morowali, Sulawesi Tengah 94974","Unnamed Road, Labota, Kec. Bahodopi, Kabupaten Morowali",SULAWESI TENGAH,94974.0,Indonesia,,,,-2.858632,122.182499,https://maps.google.com/?cid=0x0:0xe3ab6ac8de2d1081,
mall,Toko,IINSHOP,"54MJ+MPG, Bahomakmur, Kec. Bahodopi, Kabupaten Morowali, Sulawesi Tengah 94974","Bahomakmur, Kec. Bahodopi, Kabupaten Morowali",SULAWESI TENGAH,94974.0,Indonesia,85294765530.0,,,-2.8158597,122.1326725,https://maps.google.com/?cid=0x0:0x89612f8a70bb9924,
mall,Pusat Perbelanjaan,Stokist Nasa Dian Bahodopi,"32FG+MQV hoya, Dekat hoya, Keurea, Kec. Bahodopi, Kabupaten Morowali, Sulawesi Tengah 94974","Dekat hoya, Keurea, Kec. Bahodopi, Kabupaten Morowali",SULAWESI TENGAH,94974.0,Indonesia,85241405485.0,,,-2.9257603,122.026918,https://maps.google.com/?cid=0x0:0xa837c7608c483bbc,
mall,Komplek perumahan,Kios Adila,"Lrg. Pahlawan, Bahodopi, Kec. Bahodopi, Kabupaten Morowali, Sulawesi Tengah 94974","Bahodopi, Kec. Bahodopi, Kabupaten Morowali",SULAWESI TENGAH,94974.0,Indonesia,82228444744.0,,,-2.7940886,122.119923,https://maps.google.com/?cid=0x0:0x72c68a9a96013350,
mall,mall,SWEETSHOP,"646G+9M, Keurea, Kec. Bahodopi, Kabupaten Morowali, Sulawesi Tengah","Kabupaten Morowali, Sulawesi Tengah",SULAWESI TENGAH,,Indonesia,,,,-2.7889363,122.1267297,https://maps.google.com/?cid=0x0:0xb312dc5d8e18fc18,
mall,Toko Ponsel,AFIQA CELL,"54PM+C9C, Unnamed Road, Bahomakmur, Kec. Bahodopi, Kabupaten Morowali, Sulawesi Tengah 94974","Unnamed Road, Bahomakmur, Kec. Bahodopi, Kabupaten Morowali",SULAWESI TENGAH,94974.0,Indonesia,,,,-2.8139308,122.1333891,https://maps.google.com/?cid=0x0:0x38e5ed97d67c8625,
mall,Kantor Perusahaan,Indonesia Morowali Industrial Park (PT. IMIP),"Jl. Trans Sulawesi, Fatufia, Kec. Bahodopi, Kabupaten Morowali, Sulawesi Tengah 94974","Fatufia, Kec. Bahodopi, Kabupaten Morowali",SULAWESI TENGAH,94974.0,Indonesia,,,,-2.8216584,122.1583517,https://maps.google.com/?cid=0x0:0xfbd8b7b8ad173c17,
mall,Toko Pakaian,Manukkarra' clothing (KaosToraja),"54PM+C3Q, Bahomakmur, Kec. Bahodopi, Kabupaten Morowali, Sulawesi Tengah 94974","Bahomakmur, Kec. Bahodopi, Kabupaten Morowali",SULAWESI TENGAH,94974.0,Indonesia,85345364100.0,,,-2.8139208,122.1327275,https://maps.google.com/?cid=0x0:0x645b14e13ed877b5,
mall,Toko Bahan Bangunan,TOKO BANGUNAN SINAR SULAWESI 1,"Keurea, Kec. Bahodopi, Kabupaten Morowali, Sulawesi Tengah 94974","Kec. Bahodopi, Kabupaten Morowali",SULAWESI TENGAH,94974.0,Indonesia,81245654096.0,,,-2.7891694,122.1293246,https://maps.google.com/?cid=0x0:0xe3ab6537c988ac7c,
mall,Toko Parfum,Mall Perfume,"55W3+FHW, Fatufia, Kec. Bahodopi, Kabupaten Morowali, Sulawesi Tengah","Kabupaten Morowali, Sulawesi Tengah",SULAWESI TENGAH,,Indonesia,,,,-2.8037763,122.1539636,https://maps.google.com/?cid=0x0:0xc59aa56eb82e6c,
mall,Toko umum,Kios valentino,"54QJ+WV9, Bahomakmur, Kec. Bahodopi, Kabupaten Morowali, Sulawesi Tengah 94974","Bahomakmur, Kec. Bahodopi, Kabupaten Morowali",SULAWESI TENGAH,94974.0,Indonesia,,,,-2.8102096,122.1322475,https://maps.google.com/?cid=0x0:0xe8368408c401c84a,
mall,Pasar,Shopping center,"646M+725, Keurea, Kec. Bahodopi, Kabupaten Morowali, Sulawesi Tengah 94974","Keurea, Kec. Bahodopi, Kabupaten Morowali",SULAWESI TENGAH,94974.0,Indonesia,82280669885.0,,,-2.7893427,122.1325291,https://maps.google.com/?cid=0x0:0x509c1146eb6730d9,
mall,Kantor Perusahaan,KANTOR PT INDO EPE MOROWALI,"635R+4JX, Lalampu, Kec. Bahodopi, Kabupaten Morowali, Sulawesi Tengah","Kabupaten Morowali, Sulawesi Tengah",SULAWESI TENGAH,,Indonesia,,,,-2.79207,122.0914634,https://maps.google.com/?cid=0x0:0xcb88c3b87901d448,
mall,Minimarket,Alfamidi Super,"634W+QC5, Bahodopi, Kec. Bahodopi, Kabupaten Morowali, Sulawesi Tengah 94974","Bahodopi, Kec. Bahodopi, Kabupaten Morowali",SULAWESI TENGAH,94974.0,Indonesia,,,,-2.7938438,122.0964476,https://maps.google.com/?cid=0x0:0x9c04a5d31111f96c,
mall,mall,Kec. Bumi Raya,"Kabupaten Morowali, Sulawesi Tengah","Kabupaten Morowali, Sulawesi Tengah",SULAWESI TENGAH,,Indonesia,,,,-2.2160038,121.7239224,https://maps.google.com/?cid=0x0:0x733f460809c91197,
mall,Gedung Apartemen,Pasar Bahonsuai,"QPMH+GJR, Bahonsuai, Kec. Bumi Raya, Kabupaten Morowali, Sulawesi Tengah","Kabupaten Morowali, Sulawesi Tengah",SULAWESI TENGAH,,Indonesia,,,,-2.2161327,121.7290113,https://maps.google.com/?cid=0x0:0xa8c670a0980305fa,
mall,Masjid,Mushalla Al-ikhlas,"PMWM+QR3, Limbo Makmur, Kec. Bumi Raya, Kabupaten Morowali, Sulawesi Tengah 94976","Limbo Makmur, Kec. Bumi Raya, Kabupaten Morowali",SULAWESI TENGAH,94976.0,Indonesia,85299681704.0,,,-2.2531036,121.6845386,https://maps.google.com/?cid=0x0:0xf875d59c62513aef,
mall,Toko,Khasmashop Baby  Kids import,"QP2H+8RF, Harapan Jaya, Kec. Bumi Raya, Kabupaten Morowali, Sulawesi Tengah 94976","Harapan Jaya, Kec. Bumi Raya, Kabupaten Morowali",SULAWESI TENGAH,94976.0,Indonesia,,,,-2.2491819,121.7295485,https://maps.google.com/?cid=0x0:0xade3a5c61d0ccf77,
mall,Minimarket,INDOMARET BUMI RAYA - MOROWALI,"QPMG+M96, Jl. Trans Sulawesi, Bahonsuai, Kec. Bumi Raya, Kabupaten Morowali, Sulawesi Tengah 94976","Jl. Trans Sulawesi, Bahonsuai, Kec. Bumi Raya, Kabupaten Morowali",SULAWESI TENGAH,94976.0,Indonesia,,,,-2.2158302,121.7258814,https://maps.google.com/?cid=0x0:0x65f4cdc84405b3f6,
mall,Bengkel Sepeda Motor,TOKO BELAWA MAJU 2,"QJMH+C58, Sampeantaba, Kec. Wita Ponda, Kabupaten Morowali, Sulawesi Tengah 94976","Sampeantaba, Kec. Wita Ponda, Kabupaten Morowali",SULAWESI TENGAH,94976.0,Indonesia,,,,-2.2164655,121.6279403,https://maps.google.com/?cid=0x0:0x4f53e91428c2c7e0,
mall,Gudang,Desa Parilangke,"Jl. Trans Sulawesi No.94976, Parilangke, Kec. Bumi Raya, Kabupaten Morowali, Sulawesi Tengah 94976","Parilangke, Kec. Bumi Raya, Kabupaten Morowali",SULAWESI TENGAH,94976.0,Indonesia,,,,-2.2217021,121.7367049,https://maps.google.com/?cid=0x0:0x71eca5341045026d,
mall,Toko,WaroengBonekaMorowali,"QJMJ+4V4, Jl. Trans Sulawesi, Sampeantaba, Kec. Wita Ponda, Kabupaten Morowali, Sulawesi Tengah 94976","Jl. Trans Sulawesi, Sampeantaba, Kec. Wita Ponda, Kabupaten Morowali",SULAWESI TENGAH,94976.0,Indonesia,82320957697.0,,,-2.2172317,121.6321945,https://maps.google.com/?cid=0x0:0x2ede7767f6bc4475,
mall,Pusat Perbelanjaan,TOKO RAHMAT BAHONSUAI,"Toko Rahmat, Bahonsuai, Kec. Bumi Raya, Kabupaten Morowali, Sulawesi Tengah 94976","Bahonsuai, Kec. Bumi Raya, Kabupaten Morowali",SULAWESI TENGAH,94976.0,Indonesia,82291852448.0,,,-2.2173468,121.7293981,https://maps.google.com/?cid=0x0:0xfdc72b41d99f2ee1,
mall,Pusat Perbelanjaan,Toko Agung Raya,"Bente, Kec. Bungku Tengah, Kabupaten Morowali, Sulawesi Tengah 94973","Kec. Bungku Tengah, Kabupaten Morowali",SULAWESI TENGAH,94973.0,Indonesia,85247691977.0,,,-2.4951875,121.9423125,https://maps.google.com/?cid=0x0:0x6ce6b2a4387bcbcb,
mall,Toko Swalayan,Toko Salsabila New,"QJHR+Q3W, Sampeantaba, Kec. Wita Ponda, Kabupaten Morowali, Sulawesi Tengah 94976","Sampeantaba, Kec. Wita Ponda, Kabupaten Morowali",SULAWESI TENGAH,94976.0,Indonesia,,,,-2.2205081,121.6401948,https://maps.google.com/?cid=0x0:0x99322239e67169a2,
mall,Kantor Perusahaan,Kios Cantika,"QMC2+75R, Unnamed Road, Sampeantaba, Kec. Wita Ponda, Kabupaten Morowali, Sulawesi Tengah 94976","Unnamed Road, Sampeantaba, Kec. Wita Ponda, Kabupaten Morowali",SULAWESI TENGAH,94976.0,Indonesia,,,,-2.2292578,121.6503973,https://maps.google.com/?cid=0x0:0x9a30b8d72479482a,
mall,Sekolah,TK HARAPAN TANI,"QMFG+5G5, Jl. Trans Sulawesi, Pebatae, Kec. Bumi Raya, Kabupaten Morowali, Sulawesi Tengah 94976","Jl. Trans Sulawesi, Pebatae, Kec. Bumi Raya, Kabupaten Morowali",SULAWESI TENGAH,94976.0,Indonesia,,,,-2.2271131,121.6763464,https://maps.google.com/?cid=0x0:0xa45de8f7bc683247,
mall,Minimarket,Toko Mb Gutik,"PMXQ+GHC, Limbo Makmur, Kec. Bumi Raya, Kabupaten Morowali, Sulawesi Tengah 94976","Limbo Makmur, Kec. Bumi Raya, Kabupaten Morowali",SULAWESI TENGAH,94976.0,Indonesia,81381324710.0,,,-2.2511897,121.6888875,https://maps.google.com/?cid=0x0:0xe6a3fd1e0d36d86,
mall,,ANEKA KUE,"Jl. Trans Sulawesi No.76, Bahonsuai, Kec. Bumi Raya, Kabupaten Morowali, Sulawesi Tengah 94976","Bahonsuai, Kec. Bumi Raya, Kabupaten Morowali",SULAWESI TENGAH,94976.0,Indonesia,82343457585.0,,,-2.2161411,121.7216894,https://maps.google.com/?cid=0x0:0x556e30a575f2a7cd,
mall,Bengkel Sepeda Motor,Bengkel Segar Jaya,"Jl. Trans Sulawesi, Bahonsuai, Kec. Bumi Raya, Kabupaten Morowali, Sulawesi Tengah 94976","Bahonsuai, Kec. Bumi Raya, Kabupaten Morowali",SULAWESI TENGAH,94976.0,Indonesia,,,,-2.2162795,121.7277087,https://maps.google.com/?cid=0x0:0x918addc56d0c1a38,
mall,Toko,Toko fadillah,"PPQX+4H6, Marga Mulya, Kec. Bungku Bar., Kabupaten Morowali, Sulawesi Tengah 94976","Marga Mulya, Kec. Bungku Bar., Kabupaten Morowali",SULAWESI TENGAH,94976.0,Indonesia,82296789047.0,,,-2.2622144,121.7488944,https://maps.google.com/?cid=0x0:0x466fa9720a0f704c,
mall,Toko Herbal,NASA SULTENG,"Lantula Jaya, Kec. Wita Ponda, Kabupaten Morowali, Sulawesi Tengah 94976","Kec. Wita Ponda, Kabupaten Morowali",SULAWESI TENGAH,94976.0,Indonesia,82210989674.0,,,-2.2179144,121.6213912,https://maps.google.com/?cid=0x0:0xbb1445438a47c1d,
mall,Pusat Perbelanjaan,Sragen Jaya Plasindo,"Lantula Jaya, Kec. Wita Ponda, Kabupaten Morowali, Sulawesi Tengah 94976","Kec. Wita Ponda, Kabupaten Morowali",SULAWESI TENGAH,94976.0,Indonesia,81234123241.0,,,-2.2186528,121.6212995,https://maps.google.com/?cid=0x0:0x3b49dd20074224ff,
mall,Pembangunan Perumahan,RUMAH SABDA,"QPMF+CVM, Bahonsuai, Kec. Bumi Raya, Kabupaten Morowali, Sulawesi Tengah 94976","Bahonsuai, Kec. Bumi Raya, Kabupaten Morowali",SULAWESI TENGAH,94976.0,Indonesia,81243880453.0,,,-2.2164212,121.7246753,https://maps.google.com/?cid=0x0:0x780179fa620262a1,
mall,Minimarket,Toko 2 Putry,"Sampeantaba, dusun 5 jalan masuk No.unit 4, Puntari Makmur, Kec. Wita Ponda, Kabupaten Morowali, Sulawesi Tengah 94976","dusun 5 jalan masuk No.unit 4, Puntari Makmur, Kec. Wita Ponda, Kabupaten Morowali",SULAWESI TENGAH,94976.0,Indonesia,,,,-2.2508126,121.656829,https://maps.google.com/?cid=0x0:0x7a4487c4f43c0bb7,
mall,Toko,Toko Siti,"QM47+983, Puntari Makmur, Kec. Wita Ponda, Kabupaten Morowali, Sulawesi Tengah 94976","Puntari Makmur, Kec. Wita Ponda, Kabupaten Morowali",SULAWESI TENGAH,94976.0,Indonesia,,,,-2.244101,121.663307,https://maps.google.com/?cid=0x0:0x2bfeaa499d7c5af9,
mall,Taman,Gaia Bumi Raya City,"Jl. Arteri Supadio, Sungai Raya, Kec. Sungai Raya, Kabupaten Kubu Raya, Kalimantan Barat 78121","Sungai Raya, Kec. Sungai Raya, Kabupaten Kubu Raya",SULAWESI TENGAH,78121.0,Indonesia,,,,-0.0765567,109.3692979,https://maps.google.com/?cid=0x0:0x984911f6fd373a1b,
mall,Kafe,Toko Sahabat Tani Pertanian,"PMWM+9R2, Limbo Makmur, Kec. Bumi Raya, Kabupaten Morowali, Sulawesi Tengah 94976","Limbo Makmur, Kec. Bumi Raya, Kabupaten Morowali",SULAWESI TENGAH,94976.0,Indonesia,,,,-2.2541162,121.6845123,https://maps.google.com/?cid=0x0:0x169f200791c604d7,
mall,mall,Kec. Bungku Bar.,"Kabupaten Morowali, Sulawesi Tengah","Kabupaten Morowali, Sulawesi Tengah",SULAWESI TENGAH,,Indonesia,,,,-2.3550315,121.8504279,https://maps.google.com/?cid=0x0:0x60891acc9bfe198d,
mall,Pembangunan Perumahan,pasar wosu,"JVV3+FM4, Wosu, Kec. Bungku Bar., Kabupaten Morowali, Sulawesi Tengah","Kabupaten Morowali, Sulawesi Tengah",SULAWESI TENGAH,,Indonesia,,,,-2.3563645,121.8542133,https://maps.google.com/?cid=0x0:0x83a04b8fd3280cfb,
mall,Toko,Toko fadillah,"PPQX+4H6, Marga Mulya, Kec. Bungku Bar., Kabupaten Morowali, Sulawesi Tengah 94976","Marga Mulya, Kec. Bungku Bar., Kabupaten Morowali",SULAWESI TENGAH,94976.0,Indonesia,82296789047.0,,,-2.2622144,121.7488944,https://maps.google.com/?cid=0x0:0x466fa9720a0f704c,
mall,Toko,Toko Nafisa,"JV38+W6C, Wosu, Kec. Bungku Bar., Kabupaten Morowali, Sulawesi Tengah 94976","Wosu, Kec. Bungku Bar., Kabupaten Morowali",SULAWESI TENGAH,94976.0,Indonesia,85341178855.0,,,-2.3951907,121.8655304,https://maps.google.com/?cid=0x0:0xef0e3fce0ea41e01,
mall,Pusat Perbelanjaan,Toko Redstar 42 Cabang Topogaro,"desa rompio, Jl. Trans Sulawesi, Umpanga, Kec. Bungku Bar., Kabupaten Morowali, Sulawesi Tengah","Kabupaten Morowali, Sulawesi Tengah",SULAWESI TENGAH,,Indonesia,82269094742.0,,,-2.2914384,121.8037915,https://maps.google.com/?cid=0x0:0xea07f3920c49142d,
mall,Pusat Perbelanjaan,Toko Agung Raya,"Bente, Kec. Bungku Tengah, Kabupaten Morowali, Sulawesi Tengah 94973","Kec. Bungku Tengah, Kabupaten Morowali",SULAWESI TENGAH,94973.0,Indonesia,85247691977.0,,,-2.4951875,121.9423125,https://maps.google.com/?cid=0x0:0x6ce6b2a4387bcbcb,
mall,Gudang,Desa Parilangke,"Jl. Trans Sulawesi No.94976, Parilangke, Kec. Bumi Raya, Kabupaten Morowali, Sulawesi Tengah 94976","Parilangke, Kec. Bumi Raya, Kabupaten Morowali",SULAWESI TENGAH,94976.0,Indonesia,,,,-2.2217021,121.7367049,https://maps.google.com/?cid=0x0:0x71eca5341045026d,
mall,Toko,Khasmashop Baby  Kids import,"QP2H+8RF, Harapan Jaya, Kec. Bumi Raya, Kabupaten Morowali, Sulawesi Tengah 94976","Harapan Jaya, Kec. Bumi Raya, Kabupaten Morowali",SULAWESI TENGAH,94976.0,Indonesia,,,,-2.2491819,121.7295485,https://maps.google.com/?cid=0x0:0xade3a5c61d0ccf77,
mall,Toko,Kios Naima Zita Alisbah,"PQ5C+V8G, Tofogaro, Kec. Bungku Bar., Kabupaten Morowali, Sulawesi Tengah","Kabupaten Morowali, Sulawesi Tengah",SULAWESI TENGAH,,Indonesia,,,,-2.2903049,121.7708337,https://maps.google.com/?cid=0x0:0x9ce7440d1c4a7c85,
mall,,ANEKA KUE,"Jl. Trans Sulawesi No.76, Bahonsuai, Kec. Bumi Raya, Kabupaten Morowali, Sulawesi Tengah 94976","Bahonsuai, Kec. Bumi Raya, Kabupaten Morowali",SULAWESI TENGAH,94976.0,Indonesia,82343457585.0,,,-2.2161411,121.7216894,https://maps.google.com/?cid=0x0:0x556e30a575f2a7cd,
mall,Gedung Apartemen,Pasar Bahonsuai,"QPMH+GJR, Bahonsuai, Kec. Bumi Raya, Kabupaten Morowali, Sulawesi Tengah","Kabupaten Morowali, Sulawesi Tengah",SULAWESI TENGAH,,Indonesia,,,,-2.2161327,121.7290113,https://maps.google.com/?cid=0x0:0xa8c670a0980305fa,
mall,Toko,Usaha Berdikari Abon ikan,"JRWX+QRV, Jl. Trans Sulawesi, Wosu, Kec. Bungku Bar., Kabupaten Morowali, Sulawesi Tengah 94976","Jl. Trans Sulawesi, Wosu, Kec. Bungku Bar., Kabupaten Morowali",SULAWESI TENGAH,94976.0,Indonesia,85242674960.0,,,-2.3530112,121.8495396,https://maps.google.com/?cid=0x0:0x6c2cecef70372eb5,
mall,Pusat Perbelanjaan,Toko Rahmi,"GWQ9+XRM, Bahomoleo, Kec. Bungku Tengah, Kabupaten Morowali, Sulawesi Tengah 94973","Bahomoleo, Kec. Bungku Tengah, Kabupaten Morowali",SULAWESI TENGAH,94973.0,Indonesia,85299726189.0,,,-2.4600393,121.9195577,https://maps.google.com/?cid=0x0:0xb4440e6cf8d5fd91,
mall,Masjid,Mushalla Al-ikhlas,"PMWM+QR3, Limbo Makmur, Kec. Bumi Raya, Kabupaten Morowali, Sulawesi Tengah 94976","Limbo Makmur, Kec. Bumi Raya, Kabupaten Morowali",SULAWESI TENGAH,94976.0,Indonesia,85299681704.0,,,-2.2531036,121.6845386,https://maps.google.com/?cid=0x0:0xf875d59c62513aef,
mall,Kantor Pemerintah,Polsek Bungku Barat,"MR2R+3X2, Wosu, Kec. Bungku Bar., Kabupaten Morowali, Sulawesi Tengah 94976","Wosu, Kec. Bungku Bar., Kabupaten Morowali",SULAWESI TENGAH,94976.0,Indonesia,,,,-2.3498744,121.8424009,https://maps.google.com/?cid=0x0:0xdcff8818e135b968,
mall,Minimarket,Toko 2 Putry,"Sampeantaba, dusun 5 jalan masuk No.unit 4, Puntari Makmur, Kec. Wita Ponda, Kabupaten Morowali, Sulawesi Tengah 94976","dusun 5 jalan masuk No.unit 4, Puntari Makmur, Kec. Wita Ponda, Kabupaten Morowali",SULAWESI TENGAH,94976.0,Indonesia,,,,-2.2508126,121.656829,https://maps.google.com/?cid=0x0:0x7a4487c4f43c0bb7,
mall,Toko,Kios Filasyam,"PMXV+HFJ, Limbo Makmur, Kec. Bumi Raya, Kabupaten Morowali, Sulawesi Tengah 94976","Limbo Makmur, Kec. Bumi Raya, Kabupaten Morowali",SULAWESI TENGAH,94976.0,Indonesia,82189107880.0,,,-2.2510255,121.6936452,https://maps.google.com/?cid=0x0:0x7e7d9f14761ad7eb,
mall,Bengkel Sepeda Motor,Bengkel Segar Jaya,"Jl. Trans Sulawesi, Bahonsuai, Kec. Bumi Raya, Kabupaten Morowali, Sulawesi Tengah 94976","Bahonsuai, Kec. Bumi Raya, Kabupaten Morowali",SULAWESI TENGAH,94976.0,Indonesia,,,,-2.2162795,121.7277087,https://maps.google.com/?cid=0x0:0x918addc56d0c1a38,
mall,Toko,Kios monapa,"FX66+6PH, Jl. Bandeng, Bungi, Kec. Bungku Tengah, Kabupaten Morowali, Sulawesi Tengah 94973","Jl. Bandeng, Bungi, Kec. Bungku Tengah, Kabupaten Morowali",SULAWESI TENGAH,94973.0,Indonesia,,,,-2.539439,121.961845,https://maps.google.com/?cid=0x0:0xb6fc08f50c643bb2,
mall,Toko Perlengkapan Rumah,TOKO BUNDA,"FX86+245, Jl. Trans Sulawesi, Matansala, Kec. Bungku Tengah, Kabupaten Morowali, Sulawesi Tengah 94973","Jl. Trans Sulawesi, Matansala, Kec. Bungku Tengah, Kabupaten Morowali",SULAWESI TENGAH,94973.0,Indonesia,,,,-2.5349755,121.9603527,https://maps.google.com/?cid=0x0:0xe193df6b1e0b79cc,
mall,Pasar tradisional,Pasar Bungku,"FX76+RHQ, Matansala, Kec. Bungku Tengah, Kabupaten Morowali, Sulawesi Tengah 94973","Matansala, Kec. Bungku Tengah, Kabupaten Morowali",SULAWESI TENGAH,94973.0,Indonesia,85243026706.0,,,-2.5354213,121.9614861,https://maps.google.com/?cid=0x0:0xad5fc3a29cea6a27,
mall,Minimarket,Toko Mb Gutik,"PMXQ+GHC, Limbo Makmur, Kec. Bumi Raya, Kabupaten Morowali, Sulawesi Tengah 94976","Limbo Makmur, Kec. Bumi Raya, Kabupaten Morowali",SULAWESI TENGAH,94976.0,Indonesia,81381324710.0,,,-2.2511897,121.6888875,https://maps.google.com/?cid=0x0:0xe6a3fd1e0d36d86,
mall,Pusat Perbelanjaan,Kios uswah topogaro,"PQ8V+6R, Tofogaro, Kabupaten Morowali, Sulawesi Tengah","Kabupaten Morowali, Sulawesi Tengah",SULAWESI TENGAH,,Indonesia,,,,-2.2844696,121.7945855,https://maps.google.com/?cid=0x0:0xe717193495689e7c,
mall,Pembangunan Perumahan,RUMAH SABDA,"QPMF+CVM, Bahonsuai, Kec. Bumi Raya, Kabupaten Morowali, Sulawesi Tengah 94976","Bahonsuai, Kec. Bumi Raya, Kabupaten Morowali",SULAWESI TENGAH,94976.0,Indonesia,81243880453.0,,,-2.2164212,121.7246753,https://maps.google.com/?cid=0x0:0x780179fa620262a1,
mall,mall,Gudang Lure,"PQFH+CQ6, Tofogaro, Kec. Bungku Bar., Kabupaten Morowali, Sulawesi Tengah 94976","Tofogaro, Kec. Bungku Bar., Kabupaten Morowali",SULAWESI TENGAH,94976.0,Indonesia,,,,-2.2764561,121.7793918,https://maps.google.com/?cid=0x0:0xdf0205ddb91561cb,
mall,mall,Sulawesi Tengah 94974,"Kabupaten Morowali, Sulawesi Tengah","Kabupaten Morowali, Sulawesi Tengah",SULAWESI TENGAH,,Indonesia,,,,-2.8626226,122.1291843,https://maps.google.com/?cid=0x0:0xb267e774a37f920f,
mall,Pasar,Pasar Malam,"Keurea, Kec. Bahodopi, Kabupaten Morowali, Sulawesi Tengah 94974","Kec. Bahodopi, Kabupaten Morowali",SULAWESI TENGAH,94974.0,Indonesia,,,,-2.7893261,122.1334501,https://maps.google.com/?cid=0x0:0xdfac2c1eb7e27c8d,
mall,Pusat Perbelanjaan,Alive Store Morowali,"54RQ+3P7, Jl. Trans Bahomakmur, Keurea, Kec. Bahodopi, Kabupaten Morowali, Sulawesi Tengah 94974","Jl. Trans Bahomakmur, Keurea, Kec. Bahodopi, Kabupaten Morowali",SULAWESI TENGAH,94974.0,Indonesia,,,,-2.8098279,122.1392957,https://maps.google.com/?cid=0x0:0xee2781c912ff6548,
mall,Toko Pakaian,Toko ekhy fashion,"275F+4FF, Lafeu, Kec. Bungku Pesisir, Kabupaten Morowali, Sulawesi Tengah","Kabupaten Morowali, Sulawesi Tengah",SULAWESI TENGAH,,Indonesia,,,,-2.9921968,122.2736656,https://maps.google.com/?cid=0x0:0xb9be99e5194e2f0f,
mall,Pusat Perbelanjaan,Jastip Makassar morowali,"Jl pendidikan lorong KUA, Bahodopi, Kec. Bahodopi, Kabupaten Morowali, Sulawesi Tengah 94974","Bahodopi, Kec. Bahodopi, Kabupaten Morowali",SULAWESI TENGAH,94974.0,Indonesia,82348745262.0,,,-2.7952136,122.1243721,https://maps.google.com/?cid=0x0:0x5f94662afc0f6bb5,
mall,Komplek perumahan,Pasar desa tangofa,"27PX+PR4, Tangofa, Kec. Bungku Sel., Kabupaten Morowali, Sulawesi Tengah","Kabupaten Morowali, Sulawesi Tengah",SULAWESI TENGAH,,Indonesia,,,,-2.9632463,122.299564,https://maps.google.com/?cid=0x0:0x527fc82bda1dcb89,
mall,Toko,IINSHOP,"54MJ+MPG, Bahomakmur, Kec. Bahodopi, Kabupaten Morowali, Sulawesi Tengah 94974","Bahomakmur, Kec. Bahodopi, Kabupaten Morowali",SULAWESI TENGAH,94974.0,Indonesia,85294765530.0,,,-2.8158597,122.1326725,https://maps.google.com/?cid=0x0:0x89612f8a70bb9924,
mall,Kios,SELVI SALI,"644H+HWV, Jl. Trans Bahomakmur, Keurea, Kec. Bahodopi, Kabupaten Morowali, Sulawesi Tengah 94974","Jl. Trans Bahomakmur, Keurea, Kec. Bahodopi, Kabupaten Morowali",SULAWESI TENGAH,94974.0,Indonesia,82293165730.0,,,-2.7935074,122.1297848,https://maps.google.com/?cid=0x0:0xf94f87755e235561,
mall,Pembangunan Perumahan,Pasar Labota,"45FP+CGQ, Labota, Kec. Bahodopi, Kabupaten Morowali, Sulawesi Tengah 94974","Labota, Kec. Bahodopi, Kabupaten Morowali",SULAWESI TENGAH,94974.0,Indonesia,,,,-2.876418,122.1863452,https://maps.google.com/?cid=0x0:0xd96f016b83112a87,
mall,Toko,Kios Argychell,"54QR+47P, Bahomakmur, Kec. Bahodopi, Kabupaten Morowali, Sulawesi Tengah 94974","Bahomakmur, Kec. Bahodopi, Kabupaten Morowali",SULAWESI TENGAH,94974.0,Indonesia,,,,-2.8121532,122.1406892,https://maps.google.com/?cid=0x0:0x546ed0d87d1fa12f,
mall,Toko Pakaian,PURNAMA SPORT BAHODOPI,"Unnamed Road, Keurea, Kec. Bahodopi, Kabupaten Morowali, Sulawesi Tengah 94974","Keurea, Kec. Bahodopi, Kabupaten Morowali",SULAWESI TENGAH,94974.0,Indonesia,85299999130.0,,,-2.7909538,122.1417965,https://maps.google.com/?cid=0x0:0xe03c4e58c033b7ff,
mall,Toko Bahan Bangunan,TOKO BANGUNAN SINAR SULAWESI 1,"Keurea, Kec. Bahodopi, Kabupaten Morowali, Sulawesi Tengah 94974","Kec. Bahodopi, Kabupaten Morowali",SULAWESI TENGAH,94974.0,Indonesia,81245654096.0,,,-2.7891694,122.1293246,https://maps.google.com/?cid=0x0:0xe3ab6537c988ac7c,
mall,Toko umum,Kios valentino,"54QJ+WV9, Bahomakmur, Kec. Bahodopi, Kabupaten Morowali, Sulawesi Tengah 94974","Bahomakmur, Kec. Bahodopi, Kabupaten Morowali",SULAWESI TENGAH,94974.0,Indonesia,,,,-2.8102096,122.1322475,https://maps.google.com/?cid=0x0:0xe8368408c401c84a,
mall,Kantor Perusahaan,KANTOR PT INDO EPE MOROWALI,"635R+4JX, Lalampu, Kec. Bahodopi, Kabupaten Morowali, Sulawesi Tengah","Kabupaten Morowali, Sulawesi Tengah",SULAWESI TENGAH,,Indonesia,,,,-2.79207,122.0914634,https://maps.google.com/?cid=0x0:0xcb88c3b87901d448,
mall,,Toko bone raya indah,"Unnamed Road, Keurea, Kec. Bahodopi, Kabupaten Morowali, Sulawesi Tengah 94974","Keurea, Kec. Bahodopi, Kabupaten Morowali",SULAWESI TENGAH,94974.0,Indonesia,853333756013.0,,,-2.7948183,122.1476811,https://maps.google.com/?cid=0x0:0xae3126f0a0ccb40b,
mall,Toko Pakaian,Manukkarra' clothing (KaosToraja),"54PM+C3Q, Bahomakmur, Kec. Bahodopi, Kabupaten Morowali, Sulawesi Tengah 94974","Bahomakmur, Kec. Bahodopi, Kabupaten Morowali",SULAWESI TENGAH,94974.0,Indonesia,85345364100.0,,,-2.8139208,122.1327275,https://maps.google.com/?cid=0x0:0x645b14e13ed877b5,
mall,mall,SWEETSHOP,"646G+9M, Keurea, Kec. Bahodopi, Kabupaten Morowali, Sulawesi Tengah","Kabupaten Morowali, Sulawesi Tengah",SULAWESI TENGAH,,Indonesia,,,,-2.7889363,122.1267297,https://maps.google.com/?cid=0x0:0xb312dc5d8e18fc18,
mall,Toko Perlengkapan Rumah,Toko mahwing,"X94W+69, Lokombulo, Kabupaten Morowali, Sulawesi Tengah","Kabupaten Morowali, Sulawesi Tengah",SULAWESI TENGAH,,Indonesia,,,,-3.0444633,122.3959987,https://maps.google.com/?cid=0x0:0x986fd2327fd5b16a,
mall,Kantor Perusahaan,Indonesia Morowali Industrial Park (PT. IMIP),"Jl. Trans Sulawesi, Fatufia, Kec. Bahodopi, Kabupaten Morowali, Sulawesi Tengah 94974","Fatufia, Kec. Bahodopi, Kabupaten Morowali",SULAWESI TENGAH,94974.0,Indonesia,,,,-2.8216584,122.1583517,https://maps.google.com/?cid=0x0:0xfbd8b7b8ad173c17,
mall,Minimarket,TOKO MONAPA,"55M4+3JP, Fatufia, Kec. Bahodopi, Kabupaten Morowali, Sulawesi Tengah 94974","Fatufia, Kec. Bahodopi, Kabupaten Morowali",SULAWESI TENGAH,94974.0,Indonesia,81241169818.0,,,-2.8172777,122.156567,https://maps.google.com/?cid=0x0:0xdfdceb810467a6a0,
mall,Toko Ponsel,AFIQA CELL,"54PM+C9C, Unnamed Road, Bahomakmur, Kec. Bahodopi, Kabupaten Morowali, Sulawesi Tengah 94974","Unnamed Road, Bahomakmur, Kec. Bahodopi, Kabupaten Morowali",SULAWESI TENGAH,94974.0,Indonesia,,,,-2.8139308,122.1333891,https://maps.google.com/?cid=0x0:0x38e5ed97d67c8625,
mall,mall,Kec. Bungku Sel.,"Kabupaten Morowali, Sulawesi Tengah","Kabupaten Morowali, Sulawesi Tengah",SULAWESI TENGAH,,Indonesia,,,,-3.1416627,122.3998289,https://maps.google.com/?cid=0x0:0x8563743865c09fc9,
mall,Toko Perlengkapan Rumah,Toko mahwing,"X94W+69, Lokombulo, Kabupaten Morowali, Sulawesi Tengah","Kabupaten Morowali, Sulawesi Tengah",SULAWESI TENGAH,,Indonesia,,,,-3.0444633,122.3959987,https://maps.google.com/?cid=0x0:0x986fd2327fd5b16a,
mall,Komplek perumahan,Pasar desa tangofa,"27PX+PR4, Tangofa, Kec. Bungku Sel., Kabupaten Morowali, Sulawesi Tengah","Kabupaten Morowali, Sulawesi Tengah",SULAWESI TENGAH,,Indonesia,,,,-2.9632463,122.299564,https://maps.google.com/?cid=0x0:0x527fc82bda1dcb89,
mall,Kantor Pemerintah,Kantor Camat Bungku Selatan,"W9WP+HGX, Kaleroang, Kec. Bungku Sel., Kabupaten Morowali, Sulawesi Tengah","Kabupaten Morowali, Sulawesi Tengah",SULAWESI TENGAH,,Indonesia,,,,-3.0535172,122.3863438,https://maps.google.com/?cid=0x0:0x851a0bed4f6ab167,
mall,Sekolah Menengah Umum,SMAN 1 bungku selatan,"X95X+Q9M, Unnamed Road, Lokombulo, Kec. Bungku Sel., Kabupaten Morowali, Sulawesi Tengah 94974","Unnamed Road, Lokombulo, Kec. Bungku Sel., Kabupaten Morowali",SULAWESI TENGAH,94974.0,Indonesia,,,,-3.0405366,122.398407,https://maps.google.com/?cid=0x0:0x66442e79af2647fc,
mall,mall,Sulawesi Tengah 94973,"Kec. Bungku Tengah, Kabupaten Morowali, Sulawesi Tengah","Kabupaten Morowali, Sulawesi Tengah",SULAWESI TENGAH,,Indonesia,,,,-2.6659253,121.856261,https://maps.google.com/?cid=0x0:0x20bfb697387a3fcd,
mall,Pusat Perbelanjaan,Toko Agung Raya,"Bente, Kec. Bungku Tengah, Kabupaten Morowali, Sulawesi Tengah 94973","Kec. Bungku Tengah, Kabupaten Morowali",SULAWESI TENGAH,94973.0,Indonesia,85247691977.0,,,-2.4951875,121.9423125,https://maps.google.com/?cid=0x0:0x6ce6b2a4387bcbcb,
mall,Kantor Pemerintah,"MALL PELAYANAN (BUAT SKBN, KARTU PUTIH, DAN PELAYANAN LAINNYA)","Kompleks Perkantoran Fonuasingko, Bente, Kec. Bungku Tengah, Kabupaten Morowali, Sulawesi Tengah","Kabupaten Morowali, Sulawesi Tengah",SULAWESI TENGAH,,Indonesia,,,,-2.47952,121.9372207,https://maps.google.com/?cid=0x0:0xa01ac9274bd64c47,
mall,Agen Tiket Bus,Terminal Bungku Tengah,"FX76+9C4, Matansala, Kec. Bungku Tengah, Kabupaten Morowali, Sulawesi Tengah 94973","Matansala, Kec. Bungku Tengah, Kabupaten Morowali",SULAWESI TENGAH,94973.0,Indonesia,,,,-2.5366128,121.9610631,https://maps.google.com/?cid=0x0:0xa97f204129d8cd89,
mall,Toko,Alfamidi Bente,"GWCM+QP7, Jl. Trans Sulawesi, Bente, Kec. Bungku Tengah, Kabupaten Morowali, Sulawesi Tengah 94973","Jl. Trans Sulawesi, Bente, Kec. Bungku Tengah, Kabupaten Morowali",SULAWESI TENGAH,94973.0,Indonesia,85240227783.0,,,-2.4780998,121.9343078,https://maps.google.com/?cid=0x0:0xe43664d2c0c77715,
mall,Kantor Pemerintah,Mal Pelayanan Publik - MPP Morowali,"GWCP+3XG, Kompleks Perkantoran Bumi Fonuasingko, Des, Bente, Bungku Tengah, Morowali Regency, Central Sulawesi 94973","Kompleks Perkantoran Bumi Fonuasingko, Des, Bente, Bungku Tengah, Morowali Regency",SULAWESI TENGAH,94973.0,Indonesia,,,,-2.4798048,121.9374454,https://maps.google.com/?cid=0x0:0xaff4a9fa6f34eb8,
mall,Pasar tradisional,Pasar Bungku,"FX76+RHQ, Matansala, Kec. Bungku Tengah, Kabupaten Morowali, Sulawesi Tengah 94973","Matansala, Kec. Bungku Tengah, Kabupaten Morowali",SULAWESI TENGAH,94973.0,Indonesia,85243026706.0,,,-2.5354213,121.9614861,https://maps.google.com/?cid=0x0:0xad5fc3a29cea6a27,
mall,Toko bahan makanan,TK.Cahaya Muhfli,"GW5Q+MX9, Bente, Kec. Bungku Tengah, Kabupaten Morowali, Sulawesi Tengah 94973","Bente, Kec. Bungku Tengah, Kabupaten Morowali",SULAWESI TENGAH,94973.0,Indonesia,82111052149.0,,,-2.4908474,121.939971,https://maps.google.com/?cid=0x0:0x1bd31244dde42c6f,
mall,Toko bahan makanan,Rekomendasi tempat alfamidi,"82C5+335, Jl. Trans Sulawesi, Kolono, Kec. Bungku Tengah, Kabupaten Morowali, Sulawesi Tengah 94973","Jl. Trans Sulawesi, Kolono, Kec. Bungku Tengah, Kabupaten Morowali",SULAWESI TENGAH,94973.0,Indonesia,,,,-2.6798712,122.0077493,https://maps.google.com/?cid=0x0:0x29f95d9e474c891d,
mall,Pusat Perbelanjaan,Toko Rahmi,"GWQ9+XRM, Bahomoleo, Kec. Bungku Tengah, Kabupaten Morowali, Sulawesi Tengah 94973","Bahomoleo, Kec. Bungku Tengah, Kabupaten Morowali",SULAWESI TENGAH,94973.0,Indonesia,85299726189.0,,,-2.4600393,121.9195577,https://maps.google.com/?cid=0x0:0xb4440e6cf8d5fd91,
mall,,PELANGI CEEL,"FX4C+3XC, Jl. Abdurrabie, Marsaoleh, Kec. Bungku Tengah, Kabupaten Morowali, Sulawesi Tengah 94973","Jl. Abdurrabie, Marsaoleh, Kec. Bungku Tengah, Kabupaten Morowali",SULAWESI TENGAH,94973.0,Indonesia,82192584664.0,,,-2.5448186,121.9723974,https://maps.google.com/?cid=0x0:0x1db852f15a7ed68,
mall,Toko,Kios monapa,"FX66+6PH, Jl. Bandeng, Bungi, Kec. Bungku Tengah, Kabupaten Morowali, Sulawesi Tengah 94973","Jl. Bandeng, Bungi, Kec. Bungku Tengah, Kabupaten Morowali",SULAWESI TENGAH,94973.0,Indonesia,,,,-2.539439,121.961845,https://maps.google.com/?cid=0x0:0xb6fc08f50c643bb2,
mall,Grosir Perlengkapan Rumah Tangga,RATIN TUPPERWARE,"GWJG+5WR, Bahomohoni, Kec. Bungku Tengah, Kabupaten Morowali, Sulawesi Tengah 94973","Bahomohoni, Kec. Bungku Tengah, Kabupaten Morowali",SULAWESI TENGAH,94973.0,Indonesia,,,,-2.4695064,121.927278,https://maps.google.com/?cid=0x0:0xc6f8405adb8a78f0,
mall,Toko,Takashi,"Matansala, Kec. Bungku Tengah, Kabupaten Morowali, Sulawesi Tengah 94973","Kec. Bungku Tengah, Kabupaten Morowali",SULAWESI TENGAH,94973.0,Indonesia,,,,-2.524021,121.9570627,https://maps.google.com/?cid=0x0:0x93912807d8007151,
mall,Toko bahan makanan,Kios Nur Asifah,"CXPH+2H5, Unnamed Road, Bahontobungku, Kec. Bungku Tengah, Kabupaten Morowali, Sulawesi Tengah 94973","Unnamed Road, Bahontobungku, Kec. Bungku Tengah, Kabupaten Morowali",SULAWESI TENGAH,94973.0,Indonesia,85396397245.0,,,-2.564975,121.978969,https://maps.google.com/?cid=0x0:0xcc0cde7fbc6c5df,
mall,Toko Perlengkapan Rumah,PURNAMA BANGUNAN,"Jl. Kepiting Kelurahan, Matano, Kec. Bungku Tengah, Kabupaten Morowali, Sulawesi Tengah 94973","Matano, Kec. Bungku Tengah, Kabupaten Morowali",SULAWESI TENGAH,94973.0,Indonesia,82394457777.0,,,-2.5428668,121.9693365,https://maps.google.com/?cid=0x0:0xbb642ae2b587ef7b,
mall,Toko,Toko salwa,"FX95+WV2, Unnamed Road, Matansala, Kec. Bungku Tengah, Kabupaten Morowali, Sulawesi Tengah 94973","Unnamed Road, Matansala, Kec. Bungku Tengah, Kabupaten Morowali",SULAWESI TENGAH,94973.0,Indonesia,,,,-2.5302277,121.9596454,https://maps.google.com/?cid=0x0:0x34f9054c11f74605,
mall,,Laundry Alya,"72GC+776, Bahomotefe, Kec. Bungku Tengah, Kabupaten Morowali, Sulawesi Tengah 94973","Bahomotefe, Kec. Bungku Tengah, Kabupaten Morowali",SULAWESI TENGAH,94973.0,Indonesia,85246069516.0,,,-2.7243336,122.0206309,https://maps.google.com/?cid=0x0:0xe55e96f43e8f6d19,
mall,mall,Kec. Bungku Tengah,"Kabupaten Morowali, Sulawesi Tengah","Kabupaten Morowali, Sulawesi Tengah",SULAWESI TENGAH,,Indonesia,,,,-2.5445405,121.9661071,https://maps.google.com/?cid=0x0:0x2b713d0f310ea939,
mall,Toko Perbaikan Ponsel,Kios Mysha cell,"GWFH+FC, Bahomohoni, Kec. Bungku Tengah, Kabupaten Morowali, Sulawesi Tengah","Kabupaten Morowali, Sulawesi Tengah",SULAWESI TENGAH,,Indonesia,85337540776.0,,,-2.476329,121.92856,https://maps.google.com/?cid=0x0:0xfa8d59cc685021f9,
mall,Pusat Perbelanjaan,Toko murah Pangestu 2,"Jl. Trans Sulawesi No.94973, Ipi, Kec. Bungku Tengah, Kabupaten Morowali, Sulawesi Tengah","Kabupaten Morowali, Sulawesi Tengah",SULAWESI TENGAH,,Indonesia,82210215334.0,,,-2.4985062,121.9438829,https://maps.google.com/?cid=0x0:0xf82eb93f9956a7f7,
mall,Toko Perlengkapan Rumah,TOKO BUNDA,"FX86+245, Jl. Trans Sulawesi, Matansala, Kec. Bungku Tengah, Kabupaten Morowali, Sulawesi Tengah 94973","Jl. Trans Sulawesi, Matansala, Kec. Bungku Tengah, Kabupaten Morowali",SULAWESI TENGAH,94973.0,Indonesia,,,,-2.5349755,121.9603527,https://maps.google.com/?cid=0x0:0xe193df6b1e0b79cc,
mall,mall,Sulawesi Tengah 94973,"Kec. Bungku Tengah, Kabupaten Morowali, Sulawesi Tengah","Kabupaten Morowali, Sulawesi Tengah",SULAWESI TENGAH,,Indonesia,,,,-2.6659253,121.856261,https://maps.google.com/?cid=0x0:0x20bfb697387a3fcd,
mall,Pusat Perbelanjaan,Toko Agung Raya,"Bente, Kec. Bungku Tengah, Kabupaten Morowali, Sulawesi Tengah 94973","Kec. Bungku Tengah, Kabupaten Morowali",SULAWESI TENGAH,94973.0,Indonesia,85247691977.0,,,-2.4951875,121.9423125,https://maps.google.com/?cid=0x0:0x6ce6b2a4387bcbcb,
mall,Toko,Pasar Bente,"Bente, Kec. Bungku Tengah, Kabupaten Morowali, Sulawesi Tengah 94973","Kec. Bungku Tengah, Kabupaten Morowali",SULAWESI TENGAH,94973.0,Indonesia,82393511286.0,,,-2.4917669,121.9422927,https://maps.google.com/?cid=0x0:0x2115c991fce97e27,
mall,Toko,Alfamidi Bente,"GWCM+QP7, Jl. Trans Sulawesi, Bente, Kec. Bungku Tengah, Kabupaten Morowali, Sulawesi Tengah 94973","Jl. Trans Sulawesi, Bente, Kec. Bungku Tengah, Kabupaten Morowali",SULAWESI TENGAH,94973.0,Indonesia,85240227783.0,,,-2.4780998,121.9343078,https://maps.google.com/?cid=0x0:0xe43664d2c0c77715,
mall,Agen Tiket Bus,Terminal Bungku Tengah,"FX76+9C4, Matansala, Kec. Bungku Tengah, Kabupaten Morowali, Sulawesi Tengah 94973","Matansala, Kec. Bungku Tengah, Kabupaten Morowali",SULAWESI TENGAH,94973.0,Indonesia,,,,-2.5366128,121.9610631,https://maps.google.com/?cid=0x0:0xa97f204129d8cd89,
mall,Grosir Perlengkapan Rumah Tangga,RATIN TUPPERWARE,"GWJG+5WR, Bahomohoni, Kec. Bungku Tengah, Kabupaten Morowali, Sulawesi Tengah 94973","Bahomohoni, Kec. Bungku Tengah, Kabupaten Morowali",SULAWESI TENGAH,94973.0,Indonesia,,,,-2.4695064,121.927278,https://maps.google.com/?cid=0x0:0xc6f8405adb8a78f0,
mall,Pusat Perbelanjaan,Toko Rahmi,"GWQ9+XRM, Bahomoleo, Kec. Bungku Tengah, Kabupaten Morowali, Sulawesi Tengah 94973","Bahomoleo, Kec. Bungku Tengah, Kabupaten Morowali",SULAWESI TENGAH,94973.0,Indonesia,85299726189.0,,,-2.4600393,121.9195577,https://maps.google.com/?cid=0x0:0xb4440e6cf8d5fd91,
mall,Toko bahan makanan,TK.Cahaya Muhfli,"GW5Q+MX9, Bente, Kec. Bungku Tengah, Kabupaten Morowali, Sulawesi Tengah 94973","Bente, Kec. Bungku Tengah, Kabupaten Morowali",SULAWESI TENGAH,94973.0,Indonesia,82111052149.0,,,-2.4908474,121.939971,https://maps.google.com/?cid=0x0:0x1bd31244dde42c6f,
mall,Toko,Kios monapa,"FX66+6PH, Jl. Bandeng, Bungi, Kec. Bungku Tengah, Kabupaten Morowali, Sulawesi Tengah 94973","Jl. Bandeng, Bungi, Kec. Bungku Tengah, Kabupaten Morowali",SULAWESI TENGAH,94973.0,Indonesia,,,,-2.539439,121.961845,https://maps.google.com/?cid=0x0:0xb6fc08f50c643bb2,
mall,Toko bahan makanan,Rekomendasi tempat alfamidi,"82C5+335, Jl. Trans Sulawesi, Kolono, Kec. Bungku Tengah, Kabupaten Morowali, Sulawesi Tengah 94973","Jl. Trans Sulawesi, Kolono, Kec. Bungku Tengah, Kabupaten Morowali",SULAWESI TENGAH,94973.0,Indonesia,,,,-2.6798712,122.0077493,https://maps.google.com/?cid=0x0:0x29f95d9e474c891d,
mall,Toko Perlengkapan Rumah,PURNAMA BANGUNAN,"Jl. Kepiting Kelurahan, Matano, Kec. Bungku Tengah, Kabupaten Morowali, Sulawesi Tengah 94973","Matano, Kec. Bungku Tengah, Kabupaten Morowali",SULAWESI TENGAH,94973.0,Indonesia,82394457777.0,,,-2.5428668,121.9693365,https://maps.google.com/?cid=0x0:0xbb642ae2b587ef7b,
mall,,PELANGI CEEL,"FX4C+3XC, Jl. Abdurrabie, Marsaoleh, Kec. Bungku Tengah, Kabupaten Morowali, Sulawesi Tengah 94973","Jl. Abdurrabie, Marsaoleh, Kec. Bungku Tengah, Kabupaten Morowali",SULAWESI TENGAH,94973.0,Indonesia,82192584664.0,,,-2.5448186,121.9723974,https://maps.google.com/?cid=0x0:0x1db852f15a7ed68,
mall,,Laundry Alya,"72GC+776, Bahomotefe, Kec. Bungku Tengah, Kabupaten Morowali, Sulawesi Tengah 94973","Bahomotefe, Kec. Bungku Tengah, Kabupaten Morowali",SULAWESI TENGAH,94973.0,Indonesia,85246069516.0,,,-2.7243336,122.0206309,https://maps.google.com/?cid=0x0:0xe55e96f43e8f6d19,
mall,Kantor Pemerintah,Mal Pelayanan Publik - MPP Morowali,"GWCP+3XG, Kompleks Perkantoran Bumi Fonuasingko, Des, Bente, Bungku Tengah, Morowali Regency, Central Sulawesi 94973","Kompleks Perkantoran Bumi Fonuasingko, Des, Bente, Bungku Tengah, Morowali Regency",SULAWESI TENGAH,94973.0,Indonesia,,,,-2.4798048,121.9374454,https://maps.google.com/?cid=0x0:0xaff4a9fa6f34eb8,
mall,Toko,Takashi,"Matansala, Kec. Bungku Tengah, Kabupaten Morowali, Sulawesi Tengah 94973","Kec. Bungku Tengah, Kabupaten Morowali",SULAWESI TENGAH,94973.0,Indonesia,,,,-2.524021,121.9570627,https://maps.google.com/?cid=0x0:0x93912807d8007151,
mall,Toko bahan makanan,Kios Nur Asifah,"CXPH+2H5, Unnamed Road, Bahontobungku, Kec. Bungku Tengah, Kabupaten Morowali, Sulawesi Tengah 94973","Unnamed Road, Bahontobungku, Kec. Bungku Tengah, Kabupaten Morowali",SULAWESI TENGAH,94973.0,Indonesia,85396397245.0,,,-2.564975,121.978969,https://maps.google.com/?cid=0x0:0xcc0cde7fbc6c5df,
mall,Pusat Perbelanjaan,Toko murah Pangestu 2,"Jl. Trans Sulawesi No.94973, Ipi, Kec. Bungku Tengah, Kabupaten Morowali, Sulawesi Tengah","Kabupaten Morowali, Sulawesi Tengah",SULAWESI TENGAH,,Indonesia,82210215334.0,,,-2.4985062,121.9438829,https://maps.google.com/?cid=0x0:0xf82eb93f9956a7f7,
mall,Toko,Toko salwa,"FX95+WV2, Unnamed Road, Matansala, Kec. Bungku Tengah, Kabupaten Morowali, Sulawesi Tengah 94973","Unnamed Road, Matansala, Kec. Bungku Tengah, Kabupaten Morowali",SULAWESI TENGAH,94973.0,Indonesia,,,,-2.5302277,121.9596454,https://maps.google.com/?cid=0x0:0x34f9054c11f74605,
mall,Es Krim,Ice Cream Diamond Morowali,"GWPF+8FX, Jl. Jenderal Sudirman, Bahomohoni, Kec. Bungku Tengah, Kabupaten Morowali, Sulawesi Tengah 94973","Jl. Jenderal Sudirman, Bahomohoni, Kec. Bungku Tengah, Kabupaten Morowali",SULAWESI TENGAH,94973.0,Indonesia,81340377887.0,,,-2.4641478,121.9237495,https://maps.google.com/?cid=0x0:0x50e0d99156c610bd,
mall,Pasar tradisional,Pasar Bungku,"FX76+RHQ, Matansala, Kec. Bungku Tengah, Kabupaten Morowali, Sulawesi Tengah 94973","Matansala, Kec. Bungku Tengah, Kabupaten Morowali",SULAWESI TENGAH,94973.0,Indonesia,85243026706.0,,,-2.5354213,121.9614861,https://maps.google.com/?cid=0x0:0xad5fc3a29cea6a27,
mall,Toko Perlengkapan Rumah,TOKO BUNDA,"FX86+245, Jl. Trans Sulawesi, Matansala, Kec. Bungku Tengah, Kabupaten Morowali, Sulawesi Tengah 94973","Jl. Trans Sulawesi, Matansala, Kec. Bungku Tengah, Kabupaten Morowali",SULAWESI TENGAH,94973.0,Indonesia,,,,-2.5349755,121.9603527,https://maps.google.com/?cid=0x0:0xe193df6b1e0b79cc,
mall,mall,Sulawesi Tengah 94972,"Kabupaten Morowali Utara, Sulawesi Tengah","Kabupaten Morowali Utara, Sulawesi Tengah",SULAWESI TENGAH,,Indonesia,,,,-1.6248083,121.7195459,https://maps.google.com/?cid=0x0:0xe9e478f27d681886,
mall,Kios,Ks Ramdan,"6QVH+GQR, Kalombang, Kec. Bungku Utara, Kabupaten Morowali Utara, Sulawesi Tengah 94972","Kalombang, Kec. Bungku Utara, Kabupaten Morowali Utara",SULAWESI TENGAH,94972.0,Indonesia,82259117938.0,,,-1.7561471,121.7793949,https://maps.google.com/?cid=0x0:0xcdd9eeec4a18e7a0,
mall,mall,Kios Dua Dua,"Tambarobone, Kec. Bungku Utara, Kabupaten Morowali Utara, Sulawesi Tengah 94972","Kec. Bungku Utara, Kabupaten Morowali Utara",SULAWESI TENGAH,94972.0,Indonesia,85299904120.0,,,-1.760532,121.7257133,https://maps.google.com/?cid=0x0:0x2ff51810a4586e2,
mall,Toko Pakaian,Pasar Tanasumpu,"9X7F+WGW, Tana Sumpu, Kec. Mamosalato, Kabupaten Morowali, Sulawesi Tengah 94972","Tana Sumpu, Kec. Mamosalato, Kabupaten Morowali",SULAWESI TENGAH,94972.0,Indonesia,,,,-1.6351485,121.9738383,https://maps.google.com/?cid=0x0:0xbab2c30c402e97b0,
mall,Toko Fotokopi,Toko Fitry Jaya,"7Q95+XR5, Tanaku Raya, Kec. Bungku Utara, Kabupaten Morowali Utara, Sulawesi Tengah 94972","Tanaku Raya, Kec. Bungku Utara, Kabupaten Morowali Utara",SULAWESI TENGAH,94972.0,Indonesia,,,,-1.7301064,121.759598,https://maps.google.com/?cid=0x0:0x60ecb3126a83d153,
mall,Toko umum,Js shop,"HC9W+X6Q, Taronggo, Kec. Bungku Utara, Kabupaten Morowali Utara, Sulawesi Tengah 94972","Taronggo, Kec. Bungku Utara, Kabupaten Morowali Utara",SULAWESI TENGAH,94972.0,Indonesia,81524577770.0,,,-1.4300254,121.4456179,https://maps.google.com/?cid=0x0:0xf4e6f1b52b853748,
mall,Toko Ponsel,Konter RENHA,"9X59+Q5C, Unnamed Road, Tana Sumpu, Kec. Mamosalato, Kabupaten Morowali Utara, Sulawesi Tengah 94972","Unnamed Road, Tana Sumpu, Kec. Mamosalato, Kabupaten Morowali Utara",SULAWESI TENGAH,94972.0,Indonesia,82188855502.0,,,-1.6405535,121.9679042,https://maps.google.com/?cid=0x0:0x4b37c3ce5a739304,
mall,Pusat Perbelanjaan,Pasar Sentral Wua-Wua,"X8GR+QQ6, Korololama, Kec. Petasia, Kabupaten Morowali Utara, Sulawesi Tengah 94971","Korololama, Kec. Petasia, Kabupaten Morowali Utara",SULAWESI TENGAH,94971.0,Indonesia,,,,-2.023087,121.341904,https://maps.google.com/?cid=0x0:0xedc671ecdded0cec,
mall,Toko Perlengkapan Rumah,Home Anggun_toko Razka,"9X58+MXX, Tana Sumpu, Kec. Mamosalato, Kabupaten Morowali Utara, Sulawesi Tengah 94972","Tana Sumpu, Kec. Mamosalato, Kabupaten Morowali Utara",SULAWESI TENGAH,94972.0,Indonesia,82248071141.0,,,-1.640762,121.9674759,https://maps.google.com/?cid=0x0:0xff64549ebae58275,
mall,Toko,Pasar Sabtu Bunta,"X948+M7X, Bunta, Kec. Petasia, Kabupaten Morowali Utara, Sulawesi Tengah 94971","Bunta, Kec. Petasia, Kabupaten Morowali Utara",SULAWESI TENGAH,94971.0,Indonesia,,,,-2.0432693,121.3657198,https://maps.google.com/?cid=0x0:0xf46ec77aced5aa7b,
mall,,Pasar Kolonodale,"286R+34V, Jl. Yos Sudarso, Kolonodale, Kec. Petasia, Kabupaten Morowali Utara, Sulawesi Tengah 94971","Jl. Yos Sudarso, Kolonodale, Kec. Petasia, Kabupaten Morowali Utara",SULAWESI TENGAH,94971.0,Indonesia,,,,-1.9897507,121.3402836,https://maps.google.com/?cid=0x0:0x2967383c58a005b,
mall,Pemasok air minum,Depot Air Annasya,"9XHQ+9V8, Pandauke, Kec. Mamosalato, Kabupaten Morowali Utara, Sulawesi Tengah 94972","Pandauke, Kec. Mamosalato, Kabupaten Morowali Utara",SULAWESI TENGAH,94972.0,Indonesia,82291694184.0,,,-1.6215952,121.9896919,https://maps.google.com/?cid=0x0:0x67a4eade5054eaa1,
mall,Pusat Perbelanjaan,Arfa Center,"287Q+P59, Bahontula, Kec. Petasia, Kabupaten Morowali, Sulawesi Tengah 94971","Bahontula, Kec. Petasia, Kabupaten Morowali",SULAWESI TENGAH,94971.0,Indonesia,81241352200.0,,,-1.9857161,121.3379893,https://maps.google.com/?cid=0x0:0xf3180ec360065298,
mall,Minimarket,Kios Jumarni,"WCFX+XFW, Bungintimbe, Kec. Petasia, Kabupaten Morowali, Sulawesi Tengah 94971","Bungintimbe, Kec. Petasia, Kabupaten Morowali",SULAWESI TENGAH,94971.0,Indonesia,85246552518.0,,,-2.0750245,121.4486895,https://maps.google.com/?cid=0x0:0x6645f6fa920effbd,
mall,Pusat Perbelanjaan,Toko Agung Raya,"Bente, Kec. Bungku Tengah, Kabupaten Morowali, Sulawesi Tengah 94973","Kec. Bungku Tengah, Kabupaten Morowali",SULAWESI TENGAH,94973.0,Indonesia,85247691977.0,,,-2.4951875,121.9423125,https://maps.google.com/?cid=0x0:0x6ce6b2a4387bcbcb,
mall,Toko sembako pemerintah,Adeenaolshop Morut,"288Q+QF5, Bahontula, Kec. Petasia, Kabupaten Morowali Utara, Sulawesi Tengah 94971","Bahontula, Kec. Petasia, Kabupaten Morowali Utara",SULAWESI TENGAH,94971.0,Indonesia,82266665479.0,,,-1.9831166,121.3387384,https://maps.google.com/?cid=0x0:0x1d990a99c04303c7,
mall,Pusat Perbelanjaan,Alive Store Morowali,"54RQ+3P7, Jl. Trans Bahomakmur, Keurea, Kec. Bahodopi, Kabupaten Morowali, Sulawesi Tengah 94974","Jl. Trans Bahomakmur, Keurea, Kec. Bahodopi, Kabupaten Morowali",SULAWESI TENGAH,94974.0,Indonesia,,,,-2.8098279,122.1392957,https://maps.google.com/?cid=0x0:0xee2781c912ff6548,
mall,mall,Sulawesi Tengah 94975,"Menui Kepulauan, Kabupaten Morowali, Sulawesi Tengah","Kabupaten Morowali, Sulawesi Tengah",SULAWESI TENGAH,,Indonesia,,,,-3.2225368,122.3900901,https://maps.google.com/?cid=0x0:0x9de28c77bab1263b,
mall,Toko Swalayan,Kios Mal,"C49X+VRJ, Unnamed Road, Padalaa, Menui Kepulauan, Kabupaten Morowali, Sulawesi Tengah 93352","Unnamed Road, Padalaa, Menui Kepulauan, Kabupaten Morowali",SULAWESI TENGAH,93352.0,Indonesia,,,,-3.58029,123.1495074,https://maps.google.com/?cid=0x0:0xf702be8894f38669,
mall,Minimarket,Kios Jumarni,"WCFX+XFW, Bungintimbe, Kec. Petasia, Kabupaten Morowali, Sulawesi Tengah 94971","Bungintimbe, Kec. Petasia, Kabupaten Morowali",SULAWESI TENGAH,94971.0,Indonesia,85246552518.0,,,-2.0750245,121.4486895,https://maps.google.com/?cid=0x0:0x6645f6fa920effbd,
mall,Pusat Perbelanjaan,Stokis Center Tiens Menui,"Jln Poros Ulunambo-Padalaa No 5, Kelurahan, Ulunambo, Menui Kepulauan, Kabupaten Morowali, Sulawesi Tengah 94978","Kelurahan, Ulunambo, Menui Kepulauan, Kabupaten Morowali",SULAWESI TENGAH,94978.0,Indonesia,85333379305.0,,,-3.5640534,123.1368027,https://maps.google.com/?cid=0x0:0xeeee18ae9a5ee86b,
mall,mall,Kios ija,"C48V+JRG, Kofalagadi, Menui Kepulauan, Kabupaten Morowali, Sulawesi Tengah 93352","Kofalagadi, Menui Kepulauan, Kabupaten Morowali",SULAWESI TENGAH,93352.0,Indonesia,,,,-3.5834288,123.1445643,https://maps.google.com/?cid=0x0:0xc71b33a70fe47a65,
mall,Toko,Toko Sahabat,"QJP2+7MH, Unnamed Road,, Emea, Kec. Wita Ponda, Kabupaten Morowali, Sulawesi Tengah 94976","Unnamed Road,, Emea, Kec. Wita Ponda, Kabupaten Morowali",SULAWESI TENGAH,94976.0,Indonesia,,,,-2.214323,121.60172,https://maps.google.com/?cid=0x0:0x1e567c871399fbd1,
mall,mall,Kec. Wita Ponda,"Kabupaten Morowali, Sulawesi Tengah","Kabupaten Morowali, Sulawesi Tengah",SULAWESI TENGAH,,Indonesia,,,,-2.214136,121.5990103,https://maps.google.com/?cid=0x0:0xff62e010995308a1,
mall,Pasar,Pasar Sumolo Indah,"QJM2+295, Emea, Kec. Wita Ponda, Kabupaten Morowali, Sulawesi Tengah 94976","Emea, Kec. Wita Ponda, Kabupaten Morowali",SULAWESI TENGAH,94976.0,Indonesia,,,,-2.2174886,121.6009813,https://maps.google.com/?cid=0x0:0x8c47cb4d3bf4cb6c,
mall,Toko Herbal,NASA SULTENG,"Lantula Jaya, Kec. Wita Ponda, Kabupaten Morowali, Sulawesi Tengah 94976","Kec. Wita Ponda, Kabupaten Morowali",SULAWESI TENGAH,94976.0,Indonesia,82210989674.0,,,-2.2179144,121.6213912,https://maps.google.com/?cid=0x0:0xbb1445438a47c1d,
mall,Bengkel Sepeda Motor,TOKO BELAWA MAJU 2,"QJMH+C58, Sampeantaba, Kec. Wita Ponda, Kabupaten Morowali, Sulawesi Tengah 94976","Sampeantaba, Kec. Wita Ponda, Kabupaten Morowali",SULAWESI TENGAH,94976.0,Indonesia,,,,-2.2164655,121.6279403,https://maps.google.com/?cid=0x0:0x4f53e91428c2c7e0,
mall,Kantor Perusahaan,Kios Cantika,"QMC2+75R, Unnamed Road, Sampeantaba, Kec. Wita Ponda, Kabupaten Morowali, Sulawesi Tengah 94976","Unnamed Road, Sampeantaba, Kec. Wita Ponda, Kabupaten Morowali",SULAWESI TENGAH,94976.0,Indonesia,,,,-2.2292578,121.6503973,https://maps.google.com/?cid=0x0:0x9a30b8d72479482a,
mall,Seafood,Pelelangan Ikan Desa Moahino,"RH8X+XRH, Moahino, Kec. Wita Ponda, Kabupaten Morowali, Sulawesi Tengah","Kabupaten Morowali, Sulawesi Tengah",SULAWESI TENGAH,,Indonesia,,,,-2.1825533,121.5996035,https://maps.google.com/?cid=0x0:0xf446449405b87c9f,
mall,Komplek perumahan,m@ega Aluminium  santhyfashion,"RG4Q+JXV, Solonsa Jaya, Kec. Wita Ponda, Kabupaten Morowali, Sulawesi Tengah 94976","Solonsa Jaya, Kec. Wita Ponda, Kabupaten Morowali",SULAWESI TENGAH,94976.0,Indonesia,81352345088.0,,,-2.1933858,121.5399112,https://maps.google.com/?cid=0x0:0x76459a2e77886cbe,
mall,Toko,WaroengBonekaMorowali,"QJMJ+4V4, Jl. Trans Sulawesi, Sampeantaba, Kec. Wita Ponda, Kabupaten Morowali, Sulawesi Tengah 94976","Jl. Trans Sulawesi, Sampeantaba, Kec. Wita Ponda, Kabupaten Morowali",SULAWESI TENGAH,94976.0,Indonesia,82320957697.0,,,-2.2172317,121.6321945,https://maps.google.com/?cid=0x0:0x2ede7767f6bc4475,
mall,Perhimpunan Pengembang Perumahan,WITA ponda,"QHPX+8JR, Emea, Kec. Wita Ponda, Kabupaten Morowali, Sulawesi Tengah 94976","Emea, Kec. Wita Ponda, Kabupaten Morowali",SULAWESI TENGAH,94976.0,Indonesia,,,,-2.214136,121.5990103,https://maps.google.com/?cid=0x0:0x433a911bd87a0f89,
mall,Toko Elektronik,Toko 757 smartphone,"QJP4+9C7, Emea, Kec. Wita Ponda, Kabupaten Morowali, Sulawesi Tengah 94976","Emea, Kec. Wita Ponda, Kabupaten Morowali",SULAWESI TENGAH,94976.0,Indonesia,8124277772.0,,,-2.2140858,121.6060523,https://maps.google.com/?cid=0x0:0xcdbad0453771785f,
mall,Toko umum,Kios mbak lisbeki,"QJ84+63M, Bumi Harapan, Kec. Witaponda Ponda, Kabupaten Morowali, Sulawesi Tengah 94976","Bumi Harapan, Kec. Witaponda Ponda, Kabupaten Morowali",SULAWESI TENGAH,94976.0,Indonesia,,,,-2.2343823,121.6051773,https://maps.google.com/?cid=0x0:0x293d777f210040b9,
mall,Toko,Toko Siti,"QM47+983, Puntari Makmur, Kec. Wita Ponda, Kabupaten Morowali, Sulawesi Tengah 94976","Puntari Makmur, Kec. Wita Ponda, Kabupaten Morowali",SULAWESI TENGAH,94976.0,Indonesia,,,,-2.244101,121.663307,https://maps.google.com/?cid=0x0:0x2bfeaa499d7c5af9,
mall,Pemasok mebel sesuai pesanan,PiON perabot,"QJJC+5F3, Unnamed Road, Lantula Jaya, Kec. Wita Ponda, Kabupaten Morowali, Sulawesi Tengah 94976","Unnamed Road, Lantula Jaya, Kec. Wita Ponda, Kabupaten Morowali",SULAWESI TENGAH,94976.0,Indonesia,81234123241.0,,,-2.2196147,121.6211733,https://maps.google.com/?cid=0x0:0xde36debfd03838f2,
mall,Minimarket,Toko 2 Putry,"Sampeantaba, dusun 5 jalan masuk No.unit 4, Puntari Makmur, Kec. Wita Ponda, Kabupaten Morowali, Sulawesi Tengah 94976","dusun 5 jalan masuk No.unit 4, Puntari Makmur, Kec. Wita Ponda, Kabupaten Morowali",SULAWESI TENGAH,94976.0,Indonesia,,,,-2.2508126,121.656829,https://maps.google.com/?cid=0x0:0x7a4487c4f43c0bb7,
mall,Pusat Perbelanjaan,Sragen Jaya Plasindo,"Lantula Jaya, Kec. Wita Ponda, Kabupaten Morowali, Sulawesi Tengah 94976","Kec. Wita Ponda, Kabupaten Morowali",SULAWESI TENGAH,94976.0,Indonesia,81234123241.0,,,-2.2186528,121.6212995,https://maps.google.com/?cid=0x0:0x3b49dd20074224ff,
mall,Pusat Perbelanjaan,Toko Intan Jaya,"QJ4F+P2H, Lantula Jaya, Kec. Wita Ponda, Kabupaten Morowali, Sulawesi Tengah 94976","Lantula Jaya, Kec. Wita Ponda, Kabupaten Morowali",SULAWESI TENGAH,94976.0,Indonesia,85210184536.0,,,-2.2431813,121.6226051,https://maps.google.com/?cid=0x0:0x217103759a32c365,
mall,Kafe,Pengecer Pupuk Remi Dua Putra Jaya,"QJC3+MPF, Bumi Harapan, Kec. Wita Ponda, Kabupaten Morowali, Sulawesi Tengah 94976","Bumi Harapan, Kec. Wita Ponda, Kabupaten Morowali",SULAWESI TENGAH,94976.0,Indonesia,81354307777.0,,,-2.2283172,121.6042848,https://maps.google.com/?cid=0x0:0x4ee70a7f84fd06d5,
mall,Komplek perumahan,Rumah Asmi Ara,"QHMM+QPR, Ungkaya, Kec. Wita Ponda, Kabupaten Morowali, Sulawesi Tengah 94976","Ungkaya, Kec. Wita Ponda, Kabupaten Morowali",SULAWESI TENGAH,94976.0,Indonesia,82291605185.0,,,-2.2155035,121.5842589,https://maps.google.com/?cid=0x0:0xa8aeb78273fe001c,
mall,Toko umum,Idha Shop,"RGP4+J53, Keuno, Kec. Petasia, Kabupaten Morowali, Sulawesi Tengah 94971","Keuno, Kec. Petasia, Kabupaten Morowali",SULAWESI TENGAH,94971.0,Indonesia,85242708335.0,,,-2.1634943,121.5054319,https://maps.google.com/?cid=0x0:0x643db3f2b350e68f,
mall,Pusat Perbelanjaan,Delvi olshoop,"RGQ2+75P, Molores, Kec. Petasia, Kabupaten Morowali, Sulawesi Tengah 94971","Molores, Kec. Petasia, Kabupaten Morowali",SULAWESI TENGAH,94971.0,Indonesia,85397600283.0,,,-2.1617785,121.5004456,https://maps.google.com/?cid=0x0:0x87862cf0061bf58f,
supermarket,supermarket,Sulawesi Tengah 94974,"Kabupaten Morowali, Sulawesi Tengah","Kabupaten Morowali, Sulawesi Tengah",SULAWESI TENGAH,,Indonesia,,,,-2.8626226,122.1291843,https://maps.google.com/?cid=0x0:0xb267e774a37f920f,
supermarket,Toko Perlengkapan Rumah,Listrik Mart Bahodopi,"6432+V63, Unnamed Road, Bahodopi, Kec. Bahodopi, Kabupaten Morowali, Sulawesi Tengah 94974","Unnamed Road, Bahodopi, Kec. Bahodopi, Kabupaten Morowali",SULAWESI TENGAH,94974.0,Indonesia,81342691789.0,,,-2.7953531,122.1005434,https://maps.google.com/?cid=0x0:0x6863d9d6e62ebc5c,
supermarket,Toko Swalayan,ZAELMART,"BTN AULIA, BLOK H 7, Bahodopi, Kec. Bahodopi, Kabupaten Morowali, Sulawesi Tengah","Kabupaten Morowali, Sulawesi Tengah",SULAWESI TENGAH,,Indonesia,8111111111.0,,,-2.8064643,122.0952953,https://maps.google.com/?cid=0x0:0xcfc114f36e083686,
supermarket,Toko Swalayan,Toko Syarifa Bahodopi,"6432+V2P, Unnamed Road, Bahodopi, Kec. Bahodopi, Kabupaten Morowali, Sulawesi Tengah 94974","Unnamed Road, Bahodopi, Kec. Bahodopi, Kabupaten Morowali",SULAWESI TENGAH,94974.0,Indonesia,82192627952.0,,,-2.7952985,122.1000743,https://maps.google.com/?cid=0x0:0x9c623461b5c399ff,
supermarket,Toko umum,Toko Nadia,"55P5+G5V, Fatufia, Kec. Bahodopi, Kabupaten Morowali, Sulawesi Tengah 94974","Fatufia, Kec. Bahodopi, Kabupaten Morowali",SULAWESI TENGAH,94974.0,Indonesia,81342349866.0,,,-2.8136358,122.1579361,https://maps.google.com/?cid=0x0:0xe9346e0a9be41131,
supermarket,Minimarket,Alfamidi Super Keurea 7,"645V+927, Jl. Trans Sulawesi, Keurea, Kec. Bahodopi, Kabupaten Morowali, Sulawesi Tengah 94974","Jl. Trans Sulawesi, Keurea, Kec. Bahodopi, Kabupaten Morowali",SULAWESI TENGAH,94974.0,Indonesia,,,,-2.7916349,122.1424781,https://maps.google.com/?cid=0x0:0x7aecb54e8478121b,
supermarket,Supermarket Industri,SMART,"Bahodopi, Kec. Bahodopi, Kabupaten Morowali, Sulawesi Tengah","Kabupaten Morowali, Sulawesi Tengah",SULAWESI TENGAH,,Indonesia,,,,-2.7960808,122.1036708,https://maps.google.com/?cid=0x0:0x7735b1f53b464acf,
supermarket,Toko Swalayan,Kios Putri,"54MH+V9P, Bahomakmur, Kec. Bahodopi, Kabupaten Morowali, Sulawesi Tengah 94974","Bahomakmur, Kec. Bahodopi, Kabupaten Morowali",SULAWESI TENGAH,94974.0,Indonesia,,,,-2.8152808,122.1284685,https://maps.google.com/?cid=0x0:0x1ed729c24d557557,
supermarket,Toko Swalayan,Kios Tiga Putri,"54QH+8MF, Bahomakmur, Kec. Bahodopi, Kabupaten Morowali, Sulawesi Tengah 94974","Bahomakmur, Kec. Bahodopi, Kabupaten Morowali",SULAWESI TENGAH,94974.0,Indonesia,,,,-2.8116822,122.1291641,https://maps.google.com/?cid=0x0:0x84e3c9d3e915b170,
supermarket,Toko,SAHABAT AQUA Tk. Parolang Mineral,"644W+8CP, Unnamed Road, Keurea, Kec. Bahodopi, Kabupaten Morowali, Sulawesi Tengah 94974","Unnamed Road, Keurea, Kec. Bahodopi, Kabupaten Morowali",SULAWESI TENGAH,94974.0,Indonesia,81355661468.0,,,-2.7941575,122.1460867,https://maps.google.com/?cid=0x0:0x4e81fa5312137c9f,
supermarket,Minimarket,ALFAMIDI BAHODOPI 2,"646G+46G, Bahodopi, Kec. Bahodopi, Kabupaten Morowali, Sulawesi Tengah 94974","Bahodopi, Kec. Bahodopi, Kabupaten Morowali",SULAWESI TENGAH,94974.0,Indonesia,82278128986.0,,,-2.7896887,122.1255824,https://maps.google.com/?cid=0x0:0x355ed1236ad93c67,
supermarket,Toko,ATIN MART - BAHODOPI,"642J+36H, Keurea, Kec. Bahodopi, Kabupaten Morowali, Sulawesi Tengah 94974","Keurea, Kec. Bahodopi, Kabupaten Morowali",SULAWESI TENGAH,94974.0,Indonesia,,,,-2.7998754,122.1305363,https://maps.google.com/?cid=0x0:0xde820f045025778,
supermarket,Minimarket,GOLDEN FROZEN FOOD MOROWALI,"Keurea, Kec. Bahodopi, Kabupaten Morowali, Sulawesi Tengah 94974","Kec. Bahodopi, Kabupaten Morowali",SULAWESI TENGAH,94974.0,Indonesia,82259096688.0,,,-2.7900982,122.1347783,https://maps.google.com/?cid=0x0:0xec6e143abdf0e860,
supermarket,Minimarket,Kios Ananda,"45PJ+CF6, Labota, Kec. Bahodopi, Kabupaten Morowali, Sulawesi Tengah","Kabupaten Morowali, Sulawesi Tengah",SULAWESI TENGAH,,Indonesia,,,,-2.8638982,122.181336,https://maps.google.com/?cid=0x0:0x7df64ec3c52a39ef,
supermarket,Toko bahan makanan,Toko Dwi Puteri,"646G+7CV, Bahodopi, Kec. Bahodopi, Kabupaten Morowali, Sulawesi Tengah 94974","Bahodopi, Kec. Bahodopi, Kabupaten Morowali",SULAWESI TENGAH,94974.0,Indonesia,,,,-2.7892513,122.1260565,https://maps.google.com/?cid=0x0:0x3669c6dd5b380d7a,
supermarket,Toko umum,toko isma,"646G+526, Keurea, Kec. Bahodopi, Kabupaten Morowali, Sulawesi Tengah 94974","Keurea, Kec. Bahodopi, Kabupaten Morowali",SULAWESI TENGAH,94974.0,Indonesia,82292502879.0,,,-2.7895795,122.1250172,https://maps.google.com/?cid=0x0:0x29f345f32aba3500,
supermarket,Toko bahan makanan,Kios hafis,"454H+7JG, Unnamed Road, Makarti Jaya, Kec. Bahodopi, Kabupaten Morowali, Sulawesi Tengah 94974","Unnamed Road, Makarti Jaya, Kec. Bahodopi, Kabupaten Morowali",SULAWESI TENGAH,94974.0,Indonesia,,,,-2.8943148,122.1790848,https://maps.google.com/?cid=0x0:0xf70e72174b6a05fd,
supermarket,Pasar,Pasar Malam,"Keurea, Kec. Bahodopi, Kabupaten Morowali, Sulawesi Tengah 94974","Kec. Bahodopi, Kabupaten Morowali",SULAWESI TENGAH,94974.0,Indonesia,,,,-2.7893261,122.1334501,https://maps.google.com/?cid=0x0:0xdfac2c1eb7e27c8d,
supermarket,Toko Swalayan,toko A4,"643X+3X9, Keurea, Kec. Bahodopi, Kabupaten Morowali, Sulawesi Tengah","Kabupaten Morowali, Sulawesi Tengah",SULAWESI TENGAH,,Indonesia,,,,-2.7973425,122.1499886,https://maps.google.com/?cid=0x0:0x16982802ae624838,
supermarket,Toko,Toko Alvia,"54XJ+43V, Jl. Trans Bahomakmur, Keurea, Kec. Bahodopi, Kabupaten Morowali, Sulawesi Tengah 94974","Jl. Trans Bahomakmur, Keurea, Kec. Bahodopi, Kabupaten Morowali",SULAWESI TENGAH,94974.0,Indonesia,82190454418.0,,,-2.8021466,122.1301648,https://maps.google.com/?cid=0x0:0xa7ee2b51fe4aebb8,
supermarket,Pasar,Pasar Lama Bahodopi,"644W+7Q4, Unnamed Road, Keurea, Kec. Bahodopi, Kabupaten Morowali, Sulawesi Tengah 94974","Unnamed Road, Keurea, Kec. Bahodopi, Kabupaten Morowali",SULAWESI TENGAH,94974.0,Indonesia,,,,-2.7943535,122.1469576,https://maps.google.com/?cid=0x0:0x4a58bb33cae8d83f,
supermarket,Minimarket,ALFAMIDI FATUFIA,"55Q4+GFF, Fatufia, Kec. Bahodopi, Kabupaten Morowali, Sulawesi Tengah 94974","Fatufia, Kec. Bahodopi, Kabupaten Morowali",SULAWESI TENGAH,94974.0,Indonesia,,,,-2.8111478,122.1569165,https://maps.google.com/?cid=0x0:0x8b1f6ccad2e0318,
supermarket,Minimarket,StarMart Bahomakmur,"54RH+7Q8, Bahomakmur, Kec. Bahodopi, Kabupaten Morowali, Sulawesi Tengah 94974","Bahomakmur, Kec. Bahodopi, Kabupaten Morowali",SULAWESI TENGAH,94974.0,Indonesia,8114255380.0,,,-2.8091405,122.1291988,https://maps.google.com/?cid=0x0:0xbc69e2bb0df942e,
supermarket,Toko Buah Kering,SENTRAL BUAH,"646J+6X7, Keurea, Kec. Bahodopi, Kabupaten Morowali, Sulawesi Tengah 94974","Keurea, Kec. Bahodopi, Kabupaten Morowali",SULAWESI TENGAH,94974.0,Indonesia,81248911507.0,,,-2.7894631,122.1324079,https://maps.google.com/?cid=0x0:0xdeeba0941fa26f76,
supermarket,Toko umum,BANUA AMANAD,"53VX+98X, Bahodopi, Kec. Bahodopi, Kabupaten Morowali, Sulawesi Tengah 94974","Bahodopi, Kec. Bahodopi, Kabupaten Morowali",SULAWESI TENGAH,94974.0,Indonesia,81355187882.0,,,-2.806506,122.0983513,https://maps.google.com/?cid=0x0:0x694eae4ece8164da,
supermarket,supermarket,Kec. Bumi Raya,"Kabupaten Morowali, Sulawesi Tengah","Kabupaten Morowali, Sulawesi Tengah",SULAWESI TENGAH,,Indonesia,,,,-2.2160038,121.7239224,https://maps.google.com/?cid=0x0:0x733f460809c91197,
supermarket,Toko bahan makanan,Mitra Mart,"QJMF+M57, Jl. Trans Sulawesi, Sampeantaba, Kec. Wita Ponda, Kabupaten Morowali, Sulawesi Tengah 94976","Jl. Trans Sulawesi, Sampeantaba, Kec. Wita Ponda, Kabupaten Morowali",SULAWESI TENGAH,94976.0,Indonesia,82194396847.0,,,-2.2158442,121.6229066,https://maps.google.com/?cid=0x0:0x1c80328d594a5702,
supermarket,Minimarket,INDOMARET BUMI RAYA - MOROWALI,"QPMG+M96, Jl. Trans Sulawesi, Bahonsuai, Kec. Bumi Raya, Kabupaten Morowali, Sulawesi Tengah 94976","Jl. Trans Sulawesi, Bahonsuai, Kec. Bumi Raya, Kabupaten Morowali",SULAWESI TENGAH,94976.0,Indonesia,,,,-2.2158302,121.7258814,https://maps.google.com/?cid=0x0:0x65f4cdc84405b3f6,
supermarket,Toko umum,Toko Wahyuni,"QPMH+C66, Jl. Trans Sulawesi, Bahonsuai, Kec. Bumi Raya, Kabupaten Morowali, Sulawesi Tengah 94976","Jl. Trans Sulawesi, Bahonsuai, Kec. Bumi Raya, Kabupaten Morowali",SULAWESI TENGAH,94976.0,Indonesia,81342347018.0,,,-2.21646,121.7280033,https://maps.google.com/?cid=0x0:0x837709802bfa55ee,
supermarket,Minimarket,ALFAMIDI BAHONSUAI,"Bahonsuai, Kec. Bumi Raya, Kabupaten Morowali, Sulawesi Tengah 94976","Kec. Bumi Raya, Kabupaten Morowali",SULAWESI TENGAH,94976.0,Indonesia,82199089118.0,,,-2.2178238,121.7306387,https://maps.google.com/?cid=0x0:0x76d9b3f4429d9619,
supermarket,Toko bahan makanan,KIOS MAWAR,"Jl. Trans Sulawesi, Parilangke, Kec. Bumi Raya, Kabupaten Morowali, Sulawesi Tengah 94974","Parilangke, Kec. Bumi Raya, Kabupaten Morowali",SULAWESI TENGAH,94974.0,Indonesia,85240251117.0,,,-2.2217485,121.7371176,https://maps.google.com/?cid=0x0:0x44e61c92364272aa,
supermarket,Penggilingan,Gilingan padi jalan musafir,"QMC2+HFJ, Lasampi, Kec. Bumi Raya, Kabupaten Morowali, Sulawesi Tengah 94976","Lasampi, Kec. Bumi Raya, Kabupaten Morowali",SULAWESI TENGAH,94976.0,Indonesia,,,,-2.22853,121.6511312,https://maps.google.com/?cid=0x0:0x3d7970a11b7cc0b3,
supermarket,Toko umum,Kios Nova Jaya,"QP2H+8PH, Harapan Jaya, Kec. Bumi Raya, Kabupaten Morowali, Sulawesi Tengah 94976","Harapan Jaya, Kec. Bumi Raya, Kabupaten Morowali",SULAWESI TENGAH,94976.0,Indonesia,,,,-2.248941,121.7296147,https://maps.google.com/?cid=0x0:0x54545d7f71224196,
supermarket,Toko bahan makanan,Kios Sumber Rezeki,"QJF9+6QV, Unnamed Road, Lantula Jaya, Kec. Wita Ponda, Kabupaten Morowali, Sulawesi Tengah 94976","Unnamed Road, Lantula Jaya, Kec. Wita Ponda, Kabupaten Morowali",SULAWESI TENGAH,94976.0,Indonesia,,,,-2.2268947,121.6194221,https://maps.google.com/?cid=0x0:0xb1222b50dfb6c055,
supermarket,Toko bahan makanan,Toko Risma Jaya,"PMWQ+HJV, Limbo Makmur, Kec. Bumi Raya, Kabupaten Morowali, Sulawesi Tengah 94976","Limbo Makmur, Kec. Bumi Raya, Kabupaten Morowali",SULAWESI TENGAH,94976.0,Indonesia,,,,-2.2535194,121.6890325,https://maps.google.com/?cid=0x0:0x3308770886dbf18d,
supermarket,Toko umum,Tokoh Subur,"RG5Q+5M5, Solonsa Jaya, Kec. Wita Ponda, Kabupaten Morowali, Sulawesi Tengah 94976","Solonsa Jaya, Kec. Wita Ponda, Kabupaten Morowali",SULAWESI TENGAH,94976.0,Indonesia,,,,-2.1921196,121.5392224,https://maps.google.com/?cid=0x0:0x9a741a864bec1586,
supermarket,Komplek perumahan,BAHTERA SUNNAH,"Beringin Jaya, Kec. Bumi Raya, Kabupaten Morowali, Sulawesi Tengah 94976","Kec. Bumi Raya, Kabupaten Morowali",SULAWESI TENGAH,94976.0,Indonesia,82271077371.0,,,-2.2428787,121.7011158,https://maps.google.com/?cid=0x0:0xad09a7391833984b,
supermarket,Minimarket,Toko Addifa,"Parilangke, Kec. Bumi Raya, Kabupaten Morowali, Sulawesi Tengah 94976","Kec. Bumi Raya, Kabupaten Morowali",SULAWESI TENGAH,94976.0,Indonesia,8114546522.0,,,-2.2247425,121.7400353,https://maps.google.com/?cid=0x0:0x5431118cf157c5c0,
supermarket,Toko bahan makanan,TOKO RYAN UNGKAYA,"Jl. Trans Sulawesi, Ungkaya, Kec. Wita Ponda, Kabupaten Morowali, Sulawesi Tengah 94976","Ungkaya, Kec. Wita Ponda, Kabupaten Morowali",SULAWESI TENGAH,94976.0,Indonesia,,,,-2.2143258,121.5816005,https://maps.google.com/?cid=0x0:0x9486bd2e633a08e9,
supermarket,Toko makanan beku,Raja Frozen Food,"Bahonsuai, Kec. Bumi Raya, Kabupaten Morowali, Sulawesi Tengah 94673","Kec. Bumi Raya, Kabupaten Morowali",SULAWESI TENGAH,94673.0,Indonesia,82191793421.0,,,-2.217406,121.7254438,https://maps.google.com/?cid=0x0:0x862941f2a95b793f,
supermarket,Toko Kosmetik,AL Fatih Beauty Shop Agen Resmi Maccora Skin Care,"QJGX+3GF, Sampeantaba, Kec. Wita Ponda, Kabupaten Morowali, Sulawesi Tengah 94976","Sampeantaba, Kec. Wita Ponda, Kabupaten Morowali",SULAWESI TENGAH,94976.0,Indonesia,82289988171.0,,,-2.2248197,121.6488059,https://maps.google.com/?cid=0x0:0x97601dd1d4be2500,
supermarket,Toko Makanan Laut Kering,Jual Beli Kepiting Bakau Humairah,"QMHH+58Q, Pebatae, Kec. Bumi Raya, Kabupaten Morowali, Sulawesi Tengah 94976","Pebatae, Kec. Bumi Raya, Kabupaten Morowali",SULAWESI TENGAH,94976.0,Indonesia,81241936353.0,,,-2.2220389,121.6783455,https://maps.google.com/?cid=0x0:0x46db8a6c42a0b353,
supermarket,Pasar tradisional,"Istana ikan segar pebatae,kec Bumi raya, kabupaten Morowali, Sulawesi tengah 94976","QMHH+33Q Istana ikan segar, Pebatae, Kec. Bumi Raya, Kabupaten Morowali, Sulawesi Tengah 94976","Pebatae, Kec. Bumi Raya, Kabupaten Morowali",SULAWESI TENGAH,94976.0,Indonesia,8524090307.0,,,-2.2222868,121.6777454,https://maps.google.com/?cid=0x0:0x74be08219bcd7915,
supermarket,Toko Swalayan,Kios Wulele Sanggula,"Jl. Trans Sulawesi No.94976, Parilangke, Kec. Bumi Raya, Kabupaten Morowali, Sulawesi Tengah 94976","Parilangke, Kec. Bumi Raya, Kabupaten Morowali",SULAWESI TENGAH,94976.0,Indonesia,,,,-2.2216922,121.7367042,https://maps.google.com/?cid=0x0:0x922737a0bc49591c,
supermarket,Grosir Barang Kelontong,Markets Putra Nusantara,"QMHP+4GV, Jl. Trans Sulawesi, Atananga, Kec. Bumi Raya, Kabupaten Morowali, Sulawesi Tengah 94976","Jl. Trans Sulawesi, Atananga, Kec. Bumi Raya, Kabupaten Morowali",SULAWESI TENGAH,94976.0,Indonesia,82259227723.0,,,-2.2221494,121.6863021,https://maps.google.com/?cid=0x0:0x6144b34640372bd1,
supermarket,supermarket,Kec. Bungku Bar.,"Kabupaten Morowali, Sulawesi Tengah","Kabupaten Morowali, Sulawesi Tengah",SULAWESI TENGAH,,Indonesia,,,,-2.3550315,121.8504279,https://maps.google.com/?cid=0x0:0x60891acc9bfe198d,
supermarket,Toko bahan makanan,TOKO Vina Himran,"JVV2+W9P, Wosu, Kec. Bungku Bar., Kabupaten Morowali, Sulawesi Tengah 94976","Wosu, Kec. Bungku Bar., Kabupaten Morowali",SULAWESI TENGAH,94976.0,Indonesia,,,,-2.3551573,121.8509454,https://maps.google.com/?cid=0x0:0xd49c6862f95ccbbd,
supermarket,Toko bahan makanan,Indomaret Wosu No. 31 Morowali,"JRXW+7C5, Jl. Trans Sulawesi, Wosu, Kec. Bungku Bar., Kabupaten Morowali, Sulawesi Tengah 94976","Jl. Trans Sulawesi, Wosu, Kec. Bungku Bar., Kabupaten Morowali",SULAWESI TENGAH,94976.0,Indonesia,,,,-2.3518306,121.8461439,https://maps.google.com/?cid=0x0:0xeba841a307368707,
supermarket,Toko umum,TOKO AAA,"PQHH+239, Jl. Trans Sulawesi, Tofogaro, Kec. Bungku Bar., Kabupaten Morowali, Sulawesi Tengah 94976","Jl. Trans Sulawesi, Tofogaro, Kec. Bungku Bar., Kabupaten Morowali",SULAWESI TENGAH,94976.0,Indonesia,81156500068.0,,,-2.2724621,121.7777393,https://maps.google.com/?cid=0x0:0x2d3f02a9ebe02fea,
supermarket,Toko Swalayan,Toko chun,"FX4C+8PX, Jl. Abdurrabie, Marsaoleh, Kec. Bungku Tengah, Kabupaten Morowali, Sulawesi Tengah 94973","Jl. Abdurrabie, Marsaoleh, Kec. Bungku Tengah, Kabupaten Morowali",SULAWESI TENGAH,94973.0,Indonesia,81342950000.0,,,-2.5441308,121.9718543,https://maps.google.com/?cid=0x0:0xd4778c4ec5e9e873,
supermarket,Toko Swalayan,Toko Sinar Terang,"QMHJ+35P, Pebatae, Kec. Bumi Raya, Kabupaten Morowali, Sulawesi Tengah 94976","Pebatae, Kec. Bumi Raya, Kabupaten Morowali",SULAWESI TENGAH,94976.0,Indonesia,,,,-2.2222934,121.6804493,https://maps.google.com/?cid=0x0:0x299843f9d43493f0,
supermarket,Toko umum,Toko Wahyuni,"QPMH+C66, Jl. Trans Sulawesi, Bahonsuai, Kec. Bumi Raya, Kabupaten Morowali, Sulawesi Tengah 94976","Jl. Trans Sulawesi, Bahonsuai, Kec. Bumi Raya, Kabupaten Morowali",SULAWESI TENGAH,94976.0,Indonesia,81342347018.0,,,-2.21646,121.7280033,https://maps.google.com/?cid=0x0:0x837709802bfa55ee,
supermarket,Toko bahan makanan,Mardawati,"CXW8+Q6F, Jl. Wirabuana, Lamberea, Kec. Bungku Tengah, Kabupaten Morowali, Sulawesi Tengah 94973","Jl. Wirabuana, Lamberea, Kec. Bungku Tengah, Kabupaten Morowali",SULAWESI TENGAH,94973.0,Indonesia,85349197108.0,,,-2.553071,121.9655545,https://maps.google.com/?cid=0x0:0xf69b6fa2ac4f7061,
supermarket,Toko bahan makanan,ALDI,"GWGJ+P99, Bahonsuai - Bungku, Bahomohoni, Kec. Bungku Tengah, Kabupaten Morowali, Sulawesi Tengah 94973","Bahonsuai - Bungku, Bahomohoni, Kec. Bungku Tengah, Kabupaten Morowali",SULAWESI TENGAH,94973.0,Indonesia,82189340005.0,,,-2.4732235,121.930984,https://maps.google.com/?cid=0x0:0x5569b4710305f6a,
supermarket,Minimarket,ALFAMIDI MARSAOLEH,"Marsaoleh, Kec. Bungku Tengah, Kabupaten Morowali, Sulawesi Tengah","Kabupaten Morowali, Sulawesi Tengah",SULAWESI TENGAH,,Indonesia,,,,-2.5450587,121.9701629,https://maps.google.com/?cid=0x0:0xc5c533e76042d9d6,
supermarket,Kios,Kios Bilal,"GWMG+5GC, Jl. Jenderal Sudirman, Bahomohoni, Kec. Bungku Tengah, Kabupaten Morowali, Sulawesi Tengah 94973","Jl. Jenderal Sudirman, Bahomohoni, Kec. Bungku Tengah, Kabupaten Morowali",SULAWESI TENGAH,94973.0,Indonesia,81244958029.0,,,-2.4670718,121.9262551,https://maps.google.com/?cid=0x0:0x2f052b3de8d0a059,
supermarket,Toko bahan makanan,KIOS MAWAR,"Jl. Trans Sulawesi, Parilangke, Kec. Bumi Raya, Kabupaten Morowali, Sulawesi Tengah 94974","Parilangke, Kec. Bumi Raya, Kabupaten Morowali",SULAWESI TENGAH,94974.0,Indonesia,85240251117.0,,,-2.2217485,121.7371176,https://maps.google.com/?cid=0x0:0x44e61c92364272aa,
supermarket,Toko bahan makanan,Toko Risma Jaya,"PMWQ+HJV, Limbo Makmur, Kec. Bumi Raya, Kabupaten Morowali, Sulawesi Tengah 94976","Limbo Makmur, Kec. Bumi Raya, Kabupaten Morowali",SULAWESI TENGAH,94976.0,Indonesia,,,,-2.2535194,121.6890325,https://maps.google.com/?cid=0x0:0x3308770886dbf18d,
supermarket,Pasar tradisional,Pasar Bungku,"FX76+RHQ, Matansala, Kec. Bungku Tengah, Kabupaten Morowali, Sulawesi Tengah 94973","Matansala, Kec. Bungku Tengah, Kabupaten Morowali",SULAWESI TENGAH,94973.0,Indonesia,85243026706.0,,,-2.5354213,121.9614861,https://maps.google.com/?cid=0x0:0xad5fc3a29cea6a27,
supermarket,Toko umum,Sumber Rezeki,"72C2+6W6, Onepute Jaya, Kec. Bungku Tengah, Kabupaten Morowali, Sulawesi Tengah 94973","Onepute Jaya, Kec. Bungku Tengah, Kabupaten Morowali",SULAWESI TENGAH,94973.0,Indonesia,82331250344.0,,,-2.7294607,122.0022786,https://maps.google.com/?cid=0x0:0x360e6e53ddf9186c,
supermarket,Minimarket,ALFAMIDI WOSU,"JVV2+VF8, Jl. Trans Sulawesi, Wosu, Kec. Bungku Bar., Kabupaten Morowali, Sulawesi Tengah 94976","Jl. Trans Sulawesi, Wosu, Kec. Bungku Bar., Kabupaten Morowali",SULAWESI TENGAH,94976.0,Indonesia,82233666115.0,,,-2.355348,121.851217,https://maps.google.com/?cid=0x0:0x565142c50babfca2,
supermarket,Toko umum,Kios MendooLamena,"PQMC+VWV, Tondo, Kec. Bungku Bar., Kabupaten Morowali, Sulawesi Tengah 94976","Tondo, Kec. Bungku Bar., Kabupaten Morowali",SULAWESI TENGAH,94976.0,Indonesia,,,,-2.2646,121.7718303,https://maps.google.com/?cid=0x0:0x274d55b89e54fd73,
supermarket,Kios,Kios latifah,"MRQJ+942, Jl. Trans Sulawesi, Larobenu, Kec. Bungku Bar., Kabupaten Morowali, Sulawesi Tengah 94976","Jl. Trans Sulawesi, Larobenu, Kec. Bungku Bar., Kabupaten Morowali",SULAWESI TENGAH,94976.0,Indonesia,82398060541.0,,,-2.3116075,121.8302763,https://maps.google.com/?cid=0x0:0x225766c93bbb7d37,
supermarket,Toko umum,Kios Yislam,"PQQ9+696, Jl. Trans Sulawesi, Ambunu, Kec. Bungku Bar., Kabupaten Morowali, Sulawesi Tengah 94976","Jl. Trans Sulawesi, Ambunu, Kec. Bungku Bar., Kabupaten Morowali",SULAWESI TENGAH,94976.0,Indonesia,,,,-2.2619129,121.7685962,https://maps.google.com/?cid=0x0:0x27353fbe1a1ad7cf,
supermarket,Toko,KIOS ILLAN,"PR2F+8X, Umpanga, Kec. Bungku Bar., Kabupaten Morowali, Sulawesi Tengah","Kabupaten Morowali, Sulawesi Tengah",SULAWESI TENGAH,,Indonesia,,,,-2.2996802,121.8257571,https://maps.google.com/?cid=0x0:0x1226e10c6a385b1a,
supermarket,Toko makanan beku,Athar Frozen Shop,"PQW4+3Q, Ambunu, Kec. Bungku Bar., Kabupaten Morowali, Sulawesi Tengah 94976","Ambunu, Kec. Bungku Bar., Kabupaten Morowali",SULAWESI TENGAH,94976.0,Indonesia,82396116111.0,,,-2.255334,121.7576577,https://maps.google.com/?cid=0x0:0x28cca5a226662ef5,
supermarket,Apartemen sewa liburan,KOS INDO CITRA MARGA MULYA,"PPQP+WJP, Dusun 04, Marga Mulya, Kec. Bungku Bar., Kabupaten Morowali, Sulawesi Tengah","Kabupaten Morowali, Sulawesi Tengah",SULAWESI TENGAH,,Indonesia,82215883576.0,,,-2.2601625,121.7365781,https://maps.google.com/?cid=0x0:0xa410b53260eea901,
supermarket,,TOKO SUFA JAYA,"PQ8R+7CW, Jl. Trans Sulawesi, Tofogaro, Kec. Bungku Bar., Kabupaten Morowali, Sulawesi Tengah 94976","Jl. Trans Sulawesi, Tofogaro, Kec. Bungku Bar., Kabupaten Morowali",SULAWESI TENGAH,94976.0,Indonesia,,,,-2.2842689,121.7910713,https://maps.google.com/?cid=0x0:0xcf865f7684967dc9,
supermarket,supermarket,KIOS ALIFA,"HVGV+X47, Bahonsuai - Bungku, Lanona, Kec. Bungku Bar., Kabupaten Morowali, Sulawesi Tengah 94973","Bahonsuai - Bungku, Lanona, Kec. Bungku Bar., Kabupaten Morowali",SULAWESI TENGAH,94973.0,Indonesia,,,,-2.4225991,121.8928094,https://maps.google.com/?cid=0x0:0x6826db8f4c34b963,
supermarket,,Toko 772 sidrap,"MMJX+5R9, Wata, Kec. Bungku Bar., Kabupaten Morowali, Sulawesi Tengah","Kabupaten Morowali, Sulawesi Tengah",SULAWESI TENGAH,,Indonesia,,,,-2.3195764,121.6995943,https://maps.google.com/?cid=0x0:0x6df22e7fa5bc1007,
supermarket,,KIOS MUH.ASRUL,"PQGH+W2H, Jl. Trans Sulawesi, Tofogaro, Kec. Bungku Bar., Kabupaten Morowali, Sulawesi Tengah 94976","Jl. Trans Sulawesi, Tofogaro, Kec. Bungku Bar., Kabupaten Morowali",SULAWESI TENGAH,94976.0,Indonesia,,,,-2.2726788,121.7776204,https://maps.google.com/?cid=0x0:0xc2bf1dbaa0a9e5e2,
supermarket,Toko bahan makanan,KIOS FATIH,"PPMP+MMJ, Marga Mulya, Kec. Bungku Bar., Kabupaten Morowali, Sulawesi Tengah 94976","Marga Mulya, Kec. Bungku Bar., Kabupaten Morowali",SULAWESI TENGAH,94976.0,Indonesia,,,,-2.2657847,121.736625,https://maps.google.com/?cid=0x0:0xca29df1a48c37bdb,
supermarket,Toko bahan makanan,Ranggina Kacang Veny City,"HVGV+4RC, Lanona, Kec. Bungku Bar., Kabupaten Morowali, Sulawesi Tengah 94973","Lanona, Kec. Bungku Bar., Kabupaten Morowali",SULAWESI TENGAH,94973.0,Indonesia,,,,-2.424695,121.894522,https://maps.google.com/?cid=0x0:0x7157224ef6e8bab4,
supermarket,Toko bahan makanan,Cicapiyu,"PQGH+9QC, Tofogaro, Kec. Bungku Bar., Kabupaten Morowali, Sulawesi Tengah","Kabupaten Morowali, Sulawesi Tengah",SULAWESI TENGAH,,Indonesia,,,,-2.2740625,121.7793934,https://maps.google.com/?cid=0x0:0x30aef33471ea59e5,
supermarket,supermarket,Sulawesi Tengah 94974,"Kabupaten Morowali, Sulawesi Tengah","Kabupaten Morowali, Sulawesi Tengah",SULAWESI TENGAH,,Indonesia,,,,-2.8626226,122.1291843,https://maps.google.com/?cid=0x0:0xb267e774a37f920f,
supermarket,Toko bahan makanan,Toko Inayah,"W9XQ+75G, Unnamed Road, Kaleroang, Kec. Bungku Sel., Kabupaten Morowali, Sulawesi Tengah 94974","Unnamed Road, Kaleroang, Kec. Bungku Sel., Kabupaten Morowali",SULAWESI TENGAH,94974.0,Indonesia,,,,-3.0518191,122.3879684,https://maps.google.com/?cid=0x0:0x5ec8fb8b11b53d32,
supermarket,Minimarket,Indomaret Lafeu,"275G+R35, Lafeu, Kec. Bungku Pesisir, Kabupaten Morowali, Sulawesi Tengah","Kabupaten Morowali, Sulawesi Tengah",SULAWESI TENGAH,,Indonesia,,,,-2.9904859,122.2752333,https://maps.google.com/?cid=0x0:0x77386b9aa4f72a7a,
supermarket,Toko Perlengkapan Rumah,Listrik Mart Bahodopi,"6432+V63, Unnamed Road, Bahodopi, Kec. Bahodopi, Kabupaten Morowali, Sulawesi Tengah 94974","Unnamed Road, Bahodopi, Kec. Bahodopi, Kabupaten Morowali",SULAWESI TENGAH,94974.0,Indonesia,81342691789.0,,,-2.7953531,122.1005434,https://maps.google.com/?cid=0x0:0x6863d9d6e62ebc5c,
supermarket,Minimarket,GOLDEN FROZEN FOOD MOROWALI,"Keurea, Kec. Bahodopi, Kabupaten Morowali, Sulawesi Tengah 94974","Kec. Bahodopi, Kabupaten Morowali",SULAWESI TENGAH,94974.0,Indonesia,82259096688.0,,,-2.7900982,122.1347783,https://maps.google.com/?cid=0x0:0xec6e143abdf0e860,
supermarket,Supermarket Industri,SMART,"Bahodopi, Kec. Bahodopi, Kabupaten Morowali, Sulawesi Tengah","Kabupaten Morowali, Sulawesi Tengah",SULAWESI TENGAH,,Indonesia,,,,-2.7960808,122.1036708,https://maps.google.com/?cid=0x0:0x7735b1f53b464acf,
supermarket,Toko Swalayan,PONDOK 3N,"Jalan 3 No.Blok B, Bahomakmur, Bahodopi, Morowali Regency, Central Sulawesi 94974","Bahomakmur, Bahodopi, Morowali Regency",SULAWESI TENGAH,94974.0,Indonesia,85283072510.0,,,-2.8129585,122.1383987,https://maps.google.com/?cid=0x0:0x4aaca49b42e717cb,
supermarket,Minimarket,Alfamidi Super Keurea 7,"645V+927, Jl. Trans Sulawesi, Keurea, Kec. Bahodopi, Kabupaten Morowali, Sulawesi Tengah 94974","Jl. Trans Sulawesi, Keurea, Kec. Bahodopi, Kabupaten Morowali",SULAWESI TENGAH,94974.0,Indonesia,,,,-2.7916349,122.1424781,https://maps.google.com/?cid=0x0:0x7aecb54e8478121b,
supermarket,Toko Swalayan,Toko Syarifa Bahodopi,"6432+V2P, Unnamed Road, Bahodopi, Kec. Bahodopi, Kabupaten Morowali, Sulawesi Tengah 94974","Unnamed Road, Bahodopi, Kec. Bahodopi, Kabupaten Morowali",SULAWESI TENGAH,94974.0,Indonesia,82192627952.0,,,-2.7952985,122.1000743,https://maps.google.com/?cid=0x0:0x9c623461b5c399ff,
supermarket,Toko umum,Sumber Rezeki,"72C2+6W6, Onepute Jaya, Kec. Bungku Tengah, Kabupaten Morowali, Sulawesi Tengah 94973","Onepute Jaya, Kec. Bungku Tengah, Kabupaten Morowali",SULAWESI TENGAH,94973.0,Indonesia,82331250344.0,,,-2.7294607,122.0022786,https://maps.google.com/?cid=0x0:0x360e6e53ddf9186c,
supermarket,Toko Swalayan,ZAELMART,"BTN AULIA, BLOK H 7, Bahodopi, Kec. Bahodopi, Kabupaten Morowali, Sulawesi Tengah","Kabupaten Morowali, Sulawesi Tengah",SULAWESI TENGAH,,Indonesia,8111111111.0,,,-2.8064643,122.0952953,https://maps.google.com/?cid=0x0:0xcfc114f36e083686,
supermarket,Toko Swalayan,Kios Tiga Putri,"54QH+8MF, Bahomakmur, Kec. Bahodopi, Kabupaten Morowali, Sulawesi Tengah 94974","Bahomakmur, Kec. Bahodopi, Kabupaten Morowali",SULAWESI TENGAH,94974.0,Indonesia,,,,-2.8116822,122.1291641,https://maps.google.com/?cid=0x0:0x84e3c9d3e915b170,
supermarket,,Toko Madina,"72G8+RR2, Bahomotefe, Kec. Bungku Tengah, Kabupaten Morowali, Sulawesi Tengah 94973","Bahomotefe, Kec. Bungku Tengah, Kabupaten Morowali",SULAWESI TENGAH,94973.0,Indonesia,85392016553.0,,,-2.7229824,122.0170245,https://maps.google.com/?cid=0x0:0x615b3c5d10315a50,
supermarket,Toko,SAHABAT AQUA Tk. Parolang Mineral,"644W+8CP, Unnamed Road, Keurea, Kec. Bahodopi, Kabupaten Morowali, Sulawesi Tengah 94974","Unnamed Road, Keurea, Kec. Bahodopi, Kabupaten Morowali",SULAWESI TENGAH,94974.0,Indonesia,81355661468.0,,,-2.7941575,122.1460867,https://maps.google.com/?cid=0x0:0x4e81fa5312137c9f,
supermarket,Toko Swalayan,Kios Putri,"54MH+V9P, Bahomakmur, Kec. Bahodopi, Kabupaten Morowali, Sulawesi Tengah 94974","Bahomakmur, Kec. Bahodopi, Kabupaten Morowali",SULAWESI TENGAH,94974.0,Indonesia,,,,-2.8152808,122.1284685,https://maps.google.com/?cid=0x0:0x1ed729c24d557557,
supermarket,Toko Aksesori Ponsel,Queen Cell,"54QQ+VFR, Blk. E, Bahomakmur, Kec. Bahodopi, Kabupaten Morowali, Sulawesi Tengah 94974","Blk. E, Bahomakmur, Kec. Bahodopi, Kabupaten Morowali",SULAWESI TENGAH,94974.0,Indonesia,,,,-2.8102684,122.1386522,https://maps.google.com/?cid=0x0:0xdab5fb71560eede1,
supermarket,Toko Swalayan,toko A4,"643X+3X9, Keurea, Kec. Bahodopi, Kabupaten Morowali, Sulawesi Tengah","Kabupaten Morowali, Sulawesi Tengah",SULAWESI TENGAH,,Indonesia,,,,-2.7973425,122.1499886,https://maps.google.com/?cid=0x0:0x16982802ae624838,
supermarket,Toko,Toko Royal Sembako Morowali,"54PQ+W98, Jl. Trans Bahomakmur, Keurea, Kec. Bahodopi, Kabupaten Morowali, Sulawesi Tengah 94974","Jl. Trans Bahomakmur, Keurea, Kec. Bahodopi, Kabupaten Morowali",SULAWESI TENGAH,94974.0,Indonesia,81242585176.0,,,-2.8127154,122.1384458,https://maps.google.com/?cid=0x0:0x4e1b64705f3f1e93,
supermarket,Minimarket,Indomaret Bahomotefe Morowali,"72FC+2VV, Bahomotefe, Kec. Bungku Timur, Kabupaten Morowali, Sulawesi Tengah 94973","Bahomotefe, Kec. Bungku Timur, Kabupaten Morowali",SULAWESI TENGAH,94973.0,Indonesia,,,,-2.7268202,122.022058,https://maps.google.com/?cid=0x0:0x560a4dfa8109b6c2,
supermarket,Toko umum,toko isma,"646G+526, Keurea, Kec. Bahodopi, Kabupaten Morowali, Sulawesi Tengah 94974","Keurea, Kec. Bahodopi, Kabupaten Morowali",SULAWESI TENGAH,94974.0,Indonesia,82292502879.0,,,-2.7895795,122.1250172,https://maps.google.com/?cid=0x0:0x29f345f32aba3500,
supermarket,Toko bahan makanan,Toko Dwi Puteri,"646G+7CV, Bahodopi, Kec. Bahodopi, Kabupaten Morowali, Sulawesi Tengah 94974","Bahodopi, Kec. Bahodopi, Kabupaten Morowali",SULAWESI TENGAH,94974.0,Indonesia,,,,-2.7892513,122.1260565,https://maps.google.com/?cid=0x0:0x3669c6dd5b380d7a,
supermarket,Toko bahan makanan,Kios hafis,"454H+7JG, Unnamed Road, Makarti Jaya, Kec. Bahodopi, Kabupaten Morowali, Sulawesi Tengah 94974","Unnamed Road, Makarti Jaya, Kec. Bahodopi, Kabupaten Morowali",SULAWESI TENGAH,94974.0,Indonesia,,,,-2.8943148,122.1790848,https://maps.google.com/?cid=0x0:0xf70e72174b6a05fd,
supermarket,Toko,Toko Alvia,"54XJ+43V, Jl. Trans Bahomakmur, Keurea, Kec. Bahodopi, Kabupaten Morowali, Sulawesi Tengah 94974","Jl. Trans Bahomakmur, Keurea, Kec. Bahodopi, Kabupaten Morowali",SULAWESI TENGAH,94974.0,Indonesia,82190454418.0,,,-2.8021466,122.1301648,https://maps.google.com/?cid=0x0:0xa7ee2b51fe4aebb8,
supermarket,Toko Minuman Keras,TOKO AHMAD,"643X+RF5, Unnamed Road, Keurea, Kec. Bahodopi, Kabupaten Morowali, Sulawesi Tengah 94974","Unnamed Road, Keurea, Kec. Bahodopi, Kabupaten Morowali",SULAWESI TENGAH,94974.0,Indonesia,,,,-2.7954828,122.1487436,https://maps.google.com/?cid=0x0:0x814585a251e4b244,
supermarket,Minimarket,Kios Albi makmur,"Jalan poros, Labota, Kec. Bahodopi, Kabupaten Morowali, Sulawesi Tengah","Kabupaten Morowali, Sulawesi Tengah",SULAWESI TENGAH,,Indonesia,82236216063.0,,,-2.8647065,122.1813334,https://maps.google.com/?cid=0x0:0x8b1f8d0e757edc3,
supermarket,Toko Swalayan,Salam karunia sukses,"6443+6V8, Bahodopi, Kec. Bahodopi, Kabupaten Morowali, Sulawesi Tengah","Kabupaten Morowali, Sulawesi Tengah",SULAWESI TENGAH,,Indonesia,,,,-2.7933546,122.1039005,https://maps.google.com/?cid=0x0:0xea0f3f88073350c0,
supermarket,supermarket,Kec. Bungku Sel.,"Kabupaten Morowali, Sulawesi Tengah","Kabupaten Morowali, Sulawesi Tengah",SULAWESI TENGAH,,Indonesia,,,,-3.1416627,122.3998289,https://maps.google.com/?cid=0x0:0x8563743865c09fc9,
supermarket,Toko bahan makanan,Toko Inayah,"W9XQ+75G, Unnamed Road, Kaleroang, Kec. Bungku Sel., Kabupaten Morowali, Sulawesi Tengah 94974","Unnamed Road, Kaleroang, Kec. Bungku Sel., Kabupaten Morowali",SULAWESI TENGAH,94974.0,Indonesia,,,,-3.0518191,122.3879684,https://maps.google.com/?cid=0x0:0x5ec8fb8b11b53d32,
supermarket,Minimarket,Indomaret Lafeu,"275G+R35, Lafeu, Kec. Bungku Pesisir, Kabupaten Morowali, Sulawesi Tengah","Kabupaten Morowali, Sulawesi Tengah",SULAWESI TENGAH,,Indonesia,,,,-2.9904859,122.2752333,https://maps.google.com/?cid=0x0:0x77386b9aa4f72a7a,
supermarket,supermarket,Sulawesi Tengah 94973,"Kec. Bungku Tengah, Kabupaten Morowali, Sulawesi Tengah","Kabupaten Morowali, Sulawesi Tengah",SULAWESI TENGAH,,Indonesia,,,,-2.6659253,121.856261,https://maps.google.com/?cid=0x0:0x20bfb697387a3fcd,
supermarket,Toko Swalayan,Toko chun,"FX4C+8PX, Jl. Abdurrabie, Marsaoleh, Kec. Bungku Tengah, Kabupaten Morowali, Sulawesi Tengah 94973","Jl. Abdurrabie, Marsaoleh, Kec. Bungku Tengah, Kabupaten Morowali",SULAWESI TENGAH,94973.0,Indonesia,81342950000.0,,,-2.5441308,121.9718543,https://maps.google.com/?cid=0x0:0xd4778c4ec5e9e873,
supermarket,supermarket,Kios Sinar Baru,"Jl. Abdul Wahab No.45, Marsaoleh, Kec. Bungku Tengah, Kabupaten Morowali, Sulawesi Tengah","Kabupaten Morowali, Sulawesi Tengah",SULAWESI TENGAH,,Indonesia,,,,-2.54728,121.9724165,https://maps.google.com/?cid=0x0:0xe12b366cbc6fc305,
supermarket,Komplek perumahan,Pasar Bahomante,"HW65+VFX, Bahomante, Kec. Bungku Tengah, Kabupaten Morowali, Sulawesi Tengah","Kabupaten Morowali, Sulawesi Tengah",SULAWESI TENGAH,,Indonesia,,,,-2.437773,121.9087218,https://maps.google.com/?cid=0x0:0x75a516b5a9faefe9,
supermarket,Toko umum,Sumber Rezeki,"72C2+6W6, Onepute Jaya, Kec. Bungku Tengah, Kabupaten Morowali, Sulawesi Tengah 94973","Onepute Jaya, Kec. Bungku Tengah, Kabupaten Morowali",SULAWESI TENGAH,94973.0,Indonesia,82331250344.0,,,-2.7294607,122.0022786,https://maps.google.com/?cid=0x0:0x360e6e53ddf9186c,
supermarket,Toko bahan makanan,Toko Dina Bahomohoni,"GWMG+2JH, Bahomohoni, Kec. Bungku Tengah, Kabupaten Morowali, Sulawesi Tengah 94973","Bahomohoni, Kec. Bungku Tengah, Kabupaten Morowali",SULAWESI TENGAH,94973.0,Indonesia,85394334678.0,,,-2.4674353,121.9265994,https://maps.google.com/?cid=0x0:0x9202ffa7563ba49d,
supermarket,Minimarket,Indomaret Bahomotefe Morowali,"72FC+2VV, Bahomotefe, Kec. Bungku Timur, Kabupaten Morowali, Sulawesi Tengah 94973","Bahomotefe, Kec. Bungku Timur, Kabupaten Morowali",SULAWESI TENGAH,94973.0,Indonesia,,,,-2.7268202,122.022058,https://maps.google.com/?cid=0x0:0x560a4dfa8109b6c2,
supermarket,Minimarket,ALFAMIDI MARSAOLEH,"Marsaoleh, Kec. Bungku Tengah, Kabupaten Morowali, Sulawesi Tengah","Kabupaten Morowali, Sulawesi Tengah",SULAWESI TENGAH,,Indonesia,,,,-2.5450587,121.9701629,https://maps.google.com/?cid=0x0:0xc5c533e76042d9d6,
supermarket,Toko umum,Kios Lucky,"Jalan Pura, Onepute Jaya, Kec. Bungku Timur, Kabupaten Morowali, Sulawesi Tengah 94973","Onepute Jaya, Kec. Bungku Timur, Kabupaten Morowali",SULAWESI TENGAH,94973.0,Indonesia,82195367395.0,,,-2.7338584,122.0124643,https://maps.google.com/?cid=0x0:0x632b0f69ffc395b,
supermarket,Toko bahan makanan,Mardawati,"CXW8+Q6F, Jl. Wirabuana, Lamberea, Kec. Bungku Tengah, Kabupaten Morowali, Sulawesi Tengah 94973","Jl. Wirabuana, Lamberea, Kec. Bungku Tengah, Kabupaten Morowali",SULAWESI TENGAH,94973.0,Indonesia,85349197108.0,,,-2.553071,121.9655545,https://maps.google.com/?cid=0x0:0xf69b6fa2ac4f7061,
supermarket,Pasar tradisional,Pasar Bungku,"FX76+RHQ, Matansala, Kec. Bungku Tengah, Kabupaten Morowali, Sulawesi Tengah 94973","Matansala, Kec. Bungku Tengah, Kabupaten Morowali",SULAWESI TENGAH,94973.0,Indonesia,85243026706.0,,,-2.5354213,121.9614861,https://maps.google.com/?cid=0x0:0xad5fc3a29cea6a27,
supermarket,Toko bahan makanan,Kios Syukur,"GW5R+6R9, Bente, Kec. Bungku Tengah, Kabupaten Morowali, Sulawesi Tengah","Kabupaten Morowali, Sulawesi Tengah",SULAWESI TENGAH,,Indonesia,,,,-2.4919692,121.9421016,https://maps.google.com/?cid=0x0:0x1ea9592902d48a7a,
supermarket,Toko bahan makanan,ALDI,"GWGJ+P99, Bahonsuai - Bungku, Bahomohoni, Kec. Bungku Tengah, Kabupaten Morowali, Sulawesi Tengah 94973","Bahonsuai - Bungku, Bahomohoni, Kec. Bungku Tengah, Kabupaten Morowali",SULAWESI TENGAH,94973.0,Indonesia,82189340005.0,,,-2.4732235,121.930984,https://maps.google.com/?cid=0x0:0x5569b4710305f6a,
supermarket,Kios,Kios Bilal,"GWMG+5GC, Jl. Jenderal Sudirman, Bahomohoni, Kec. Bungku Tengah, Kabupaten Morowali, Sulawesi Tengah 94973","Jl. Jenderal Sudirman, Bahomohoni, Kec. Bungku Tengah, Kabupaten Morowali",SULAWESI TENGAH,94973.0,Indonesia,81244958029.0,,,-2.4670718,121.9262551,https://maps.google.com/?cid=0x0:0x2f052b3de8d0a059,
supermarket,Pusat Perbelanjaan,Alfamidi Bente 3,"GW4R+V3J, Jl. Trans Sulawesi, Bente, Kec. Bungku Tengah, Kabupaten Morowali, Sulawesi Tengah","Kabupaten Morowali, Sulawesi Tengah",SULAWESI TENGAH,,Indonesia,,,,-2.4927999,121.9401252,https://maps.google.com/?cid=0x0:0x49c2d83b6ef8be9e,
supermarket,Toko bahan makanan,Indomaret Bungku Tengah Morowali,"FX66+6PH, Jl. Bandeng, Bungi, Kec. Bungku Tengah, Kabupaten Morowali, Sulawesi Tengah 94973","Jl. Bandeng, Bungi, Kec. Bungku Tengah, Kabupaten Morowali",SULAWESI TENGAH,94973.0,Indonesia,,,,-2.5393881,121.9620924,https://maps.google.com/?cid=0x0:0x2937cf279afb9ec0,
supermarket,Minimarket,Indomaret Marsaoleh Morowali,"Jl. Sis Al Jufri No.22, Marsaoleh, Kec. Bungku Tengah, Kabupaten Morowali, Sulawesi Tengah 94973","Marsaoleh, Kec. Bungku Tengah, Kabupaten Morowali",SULAWESI TENGAH,94973.0,Indonesia,,,,-2.5459233,121.9716245,https://maps.google.com/?cid=0x0:0xa1376b62db058229,
supermarket,Toko Perlengkapan Rumah,Listrik Mart Bahodopi,"6432+V63, Unnamed Road, Bahodopi, Kec. Bahodopi, Kabupaten Morowali, Sulawesi Tengah 94974","Unnamed Road, Bahodopi, Kec. Bahodopi, Kabupaten Morowali",SULAWESI TENGAH,94974.0,Indonesia,81342691789.0,,,-2.7953531,122.1005434,https://maps.google.com/?cid=0x0:0x6863d9d6e62ebc5c,
supermarket,Pusat Perbelanjaan,Alfamidi Bente 3,"9RMM+R9H, Bente, Kec. Bungku Tengah, Kabupaten Morowali, Sulawesi Tengah","Kabupaten Morowali, Sulawesi Tengah",SULAWESI TENGAH,,Indonesia,,,,-2.6154293,121.8334868,https://maps.google.com/?cid=0x0:0x4325f521de00d072,
supermarket,Supermarket Industri,SMART,"Bahodopi, Kec. Bahodopi, Kabupaten Morowali, Sulawesi Tengah","Kabupaten Morowali, Sulawesi Tengah",SULAWESI TENGAH,,Indonesia,,,,-2.7960808,122.1036708,https://maps.google.com/?cid=0x0:0x7735b1f53b464acf,
supermarket,Toko,Warung 24 Jam,"FX87+64F, Unnamed Road, Matansala, Kec. Bungku Tengah, Kabupaten Morowali, Sulawesi Tengah 94973","Unnamed Road, Matansala, Kec. Bungku Tengah, Kabupaten Morowali",SULAWESI TENGAH,94973.0,Indonesia,82191789886.0,,,-2.5344262,121.9627935,https://maps.google.com/?cid=0x0:0xc4aa8896415fce,
supermarket,Toko Game,Toko SYAHRIEL GAME,"FX49+HP4, Jl. P. Sambori, Marsaoleh, Kec. Bungku Tengah, Kabupaten Morowali, Sulawesi Tengah","Kabupaten Morowali, Sulawesi Tengah",SULAWESI TENGAH,,Indonesia,81355867527.0,,,-2.5436079,121.9693291,https://maps.google.com/?cid=0x0:0x7d9d3d2e5e1fe87a,
supermarket,Toko Swalayan,Toko Syarifa Bahodopi,"6432+V2P, Unnamed Road, Bahodopi, Kec. Bahodopi, Kabupaten Morowali, Sulawesi Tengah 94974","Unnamed Road, Bahodopi, Kec. Bahodopi, Kabupaten Morowali",SULAWESI TENGAH,94974.0,Indonesia,82192627952.0,,,-2.7952985,122.1000743,https://maps.google.com/?cid=0x0:0x9c623461b5c399ff,
supermarket,supermarket,Sulawesi Tengah 94973,"Kec. Bungku Tengah, Kabupaten Morowali, Sulawesi Tengah","Kabupaten Morowali, Sulawesi Tengah",SULAWESI TENGAH,,Indonesia,,,,-2.6659253,121.856261,https://maps.google.com/?cid=0x0:0x20bfb697387a3fcd,
supermarket,supermarket,Kios Sinar Baru,"Jl. Abdul Wahab No.45, Marsaoleh, Kec. Bungku Tengah, Kabupaten Morowali, Sulawesi Tengah","Kabupaten Morowali, Sulawesi Tengah",SULAWESI TENGAH,,Indonesia,,,,-2.54728,121.9724165,https://maps.google.com/?cid=0x0:0xe12b366cbc6fc305,
supermarket,Toko Swalayan,Toko chun,"FX4C+8PX, Jl. Abdurrabie, Marsaoleh, Kec. Bungku Tengah, Kabupaten Morowali, Sulawesi Tengah 94973","Jl. Abdurrabie, Marsaoleh, Kec. Bungku Tengah, Kabupaten Morowali",SULAWESI TENGAH,94973.0,Indonesia,81342950000.0,,,-2.5441308,121.9718543,https://maps.google.com/?cid=0x0:0xd4778c4ec5e9e873,
supermarket,Toko umum,Sumber Rezeki,"72C2+6W6, Onepute Jaya, Kec. Bungku Tengah, Kabupaten Morowali, Sulawesi Tengah 94973","Onepute Jaya, Kec. Bungku Tengah, Kabupaten Morowali",SULAWESI TENGAH,94973.0,Indonesia,82331250344.0,,,-2.7294607,122.0022786,https://maps.google.com/?cid=0x0:0x360e6e53ddf9186c,
supermarket,Komplek perumahan,Pasar Bahomante,"HW65+VFX, Bahomante, Kec. Bungku Tengah, Kabupaten Morowali, Sulawesi Tengah","Kabupaten Morowali, Sulawesi Tengah",SULAWESI TENGAH,,Indonesia,,,,-2.437773,121.9087218,https://maps.google.com/?cid=0x0:0x75a516b5a9faefe9,
supermarket,,Toko Madina,"72G8+RR2, Bahomotefe, Kec. Bungku Tengah, Kabupaten Morowali, Sulawesi Tengah 94973","Bahomotefe, Kec. Bungku Tengah, Kabupaten Morowali",SULAWESI TENGAH,94973.0,Indonesia,85392016553.0,,,-2.7229824,122.0170245,https://maps.google.com/?cid=0x0:0x615b3c5d10315a50,
supermarket,Minimarket,Indomaret Bahomotefe Morowali,"72FC+2VV, Bahomotefe, Kec. Bungku Timur, Kabupaten Morowali, Sulawesi Tengah 94973","Bahomotefe, Kec. Bungku Timur, Kabupaten Morowali",SULAWESI TENGAH,94973.0,Indonesia,,,,-2.7268202,122.022058,https://maps.google.com/?cid=0x0:0x560a4dfa8109b6c2,
supermarket,Toko umum,Kios Lucky,"Jalan Pura, Onepute Jaya, Kec. Bungku Timur, Kabupaten Morowali, Sulawesi Tengah 94973","Onepute Jaya, Kec. Bungku Timur, Kabupaten Morowali",SULAWESI TENGAH,94973.0,Indonesia,82195367395.0,,,-2.7338584,122.0124643,https://maps.google.com/?cid=0x0:0x632b0f69ffc395b,
supermarket,Toko bahan makanan,Mardawati,"CXW8+Q6F, Jl. Wirabuana, Lamberea, Kec. Bungku Tengah, Kabupaten Morowali, Sulawesi Tengah 94973","Jl. Wirabuana, Lamberea, Kec. Bungku Tengah, Kabupaten Morowali",SULAWESI TENGAH,94973.0,Indonesia,85349197108.0,,,-2.553071,121.9655545,https://maps.google.com/?cid=0x0:0xf69b6fa2ac4f7061,
supermarket,Toko bahan makanan,Kios Syukur,"GW5R+6R9, Bente, Kec. Bungku Tengah, Kabupaten Morowali, Sulawesi Tengah","Kabupaten Morowali, Sulawesi Tengah",SULAWESI TENGAH,,Indonesia,,,,-2.4919692,121.9421016,https://maps.google.com/?cid=0x0:0x1ea9592902d48a7a,
supermarket,Supermarket Industri,SMART,"Bahodopi, Kec. Bahodopi, Kabupaten Morowali, Sulawesi Tengah","Kabupaten Morowali, Sulawesi Tengah",SULAWESI TENGAH,,Indonesia,,,,-2.7960808,122.1036708,https://maps.google.com/?cid=0x0:0x7735b1f53b464acf,
supermarket,Kios,Kios Bilal,"GWMG+5GC, Jl. Jenderal Sudirman, Bahomohoni, Kec. Bungku Tengah, Kabupaten Morowali, Sulawesi Tengah 94973","Jl. Jenderal Sudirman, Bahomohoni, Kec. Bungku Tengah, Kabupaten Morowali",SULAWESI TENGAH,94973.0,Indonesia,81244958029.0,,,-2.4670718,121.9262551,https://maps.google.com/?cid=0x0:0x2f052b3de8d0a059,
supermarket,Pusat Perbelanjaan,Alfamidi Bente 3,"GW4R+V3J, Jl. Trans Sulawesi, Bente, Kec. Bungku Tengah, Kabupaten Morowali, Sulawesi Tengah","Kabupaten Morowali, Sulawesi Tengah",SULAWESI TENGAH,,Indonesia,,,,-2.4927999,121.9401252,https://maps.google.com/?cid=0x0:0x49c2d83b6ef8be9e,
supermarket,Toko Perlengkapan Rumah,Listrik Mart Bahodopi,"6432+V63, Unnamed Road, Bahodopi, Kec. Bahodopi, Kabupaten Morowali, Sulawesi Tengah 94974","Unnamed Road, Bahodopi, Kec. Bahodopi, Kabupaten Morowali",SULAWESI TENGAH,94974.0,Indonesia,81342691789.0,,,-2.7953531,122.1005434,https://maps.google.com/?cid=0x0:0x6863d9d6e62ebc5c,
supermarket,Toko bahan makanan,Indomaret Bungku Tengah Morowali,"FX66+6PH, Jl. Bandeng, Bungi, Kec. Bungku Tengah, Kabupaten Morowali, Sulawesi Tengah 94973","Jl. Bandeng, Bungi, Kec. Bungku Tengah, Kabupaten Morowali",SULAWESI TENGAH,94973.0,Indonesia,,,,-2.5393881,121.9620924,https://maps.google.com/?cid=0x0:0x2937cf279afb9ec0,
supermarket,Toko Swalayan,PONDOK 3N,"Jalan 3 No.Blok B, Bahomakmur, Bahodopi, Morowali Regency, Central Sulawesi 94974","Bahomakmur, Bahodopi, Morowali Regency",SULAWESI TENGAH,94974.0,Indonesia,85283072510.0,,,-2.8129585,122.1383987,https://maps.google.com/?cid=0x0:0x4aaca49b42e717cb,
supermarket,Toko Swalayan,Indomaret Bahomotefe No. 27 Morowali,"72P4+J63, Bahomotefe, Kec. Bungku Tengah, Kabupaten Morowali, Sulawesi Tengah 94973","Bahomotefe, Kec. Bungku Tengah, Kabupaten Morowali",SULAWESI TENGAH,94973.0,Indonesia,,,,-2.7130355,122.006104,https://maps.google.com/?cid=0x0:0xb001899cf2e5c7fb,
supermarket,Toko,Warung 24 Jam,"FX87+64F, Unnamed Road, Matansala, Kec. Bungku Tengah, Kabupaten Morowali, Sulawesi Tengah 94973","Unnamed Road, Matansala, Kec. Bungku Tengah, Kabupaten Morowali",SULAWESI TENGAH,94973.0,Indonesia,82191789886.0,,,-2.5344262,121.9627935,https://maps.google.com/?cid=0x0:0xc4aa8896415fce,
supermarket,Toko Swalayan,Toko Syarifa Bahodopi,"6432+V2P, Unnamed Road, Bahodopi, Kec. Bahodopi, Kabupaten Morowali, Sulawesi Tengah 94974","Unnamed Road, Bahodopi, Kec. Bahodopi, Kabupaten Morowali",SULAWESI TENGAH,94974.0,Indonesia,82192627952.0,,,-2.7952985,122.1000743,https://maps.google.com/?cid=0x0:0x9c623461b5c399ff,
supermarket,Toko Game,Toko SYAHRIEL GAME,"FX49+HP4, Jl. P. Sambori, Marsaoleh, Kec. Bungku Tengah, Kabupaten Morowali, Sulawesi Tengah","Kabupaten Morowali, Sulawesi Tengah",SULAWESI TENGAH,,Indonesia,81355867527.0,,,-2.5436079,121.9693291,https://maps.google.com/?cid=0x0:0x7d9d3d2e5e1fe87a,
supermarket,Minimarket,Indomaret Marsaoleh Morowali,"Jl. Sis Al Jufri No.22, Marsaoleh, Kec. Bungku Tengah, Kabupaten Morowali, Sulawesi Tengah 94973","Marsaoleh, Kec. Bungku Tengah, Kabupaten Morowali",SULAWESI TENGAH,94973.0,Indonesia,,,,-2.5459233,121.9716245,https://maps.google.com/?cid=0x0:0xa1376b62db058229,
supermarket,Pusat Perbelanjaan,Alfamidi Bente 3,"9RMM+R9H, Bente, Kec. Bungku Tengah, Kabupaten Morowali, Sulawesi Tengah","Kabupaten Morowali, Sulawesi Tengah",SULAWESI TENGAH,,Indonesia,,,,-2.6154293,121.8334868,https://maps.google.com/?cid=0x0:0x4325f521de00d072,
supermarket,Toko,Kios mentari celebes,"HW25+WH7, Unnamed Road, Bahomoleo, Kec. Bungku Tengah, Kabupaten Morowali, Sulawesi Tengah 94973","Unnamed Road, Bahomoleo, Kec. Bungku Tengah, Kabupaten Morowali",SULAWESI TENGAH,94973.0,Indonesia,85369685424.0,,,-2.447706,121.908917,https://maps.google.com/?cid=0x0:0xf177c097f8e957a9,
supermarket,Toko bahan makanan,ALDI,"GWGJ+P99, Bahonsuai - Bungku, Bahomohoni, Kec. Bungku Tengah, Kabupaten Morowali, Sulawesi Tengah 94973","Bahonsuai - Bungku, Bahomohoni, Kec. Bungku Tengah, Kabupaten Morowali",SULAWESI TENGAH,94973.0,Indonesia,82189340005.0,,,-2.4732235,121.930984,https://maps.google.com/?cid=0x0:0x5569b4710305f6a,
supermarket,Minimarket,ALFAMIDI MARSAOLEH,"Marsaoleh, Kec. Bungku Tengah, Kabupaten Morowali, Sulawesi Tengah","Kabupaten Morowali, Sulawesi Tengah",SULAWESI TENGAH,,Indonesia,,,,-2.5450587,121.9701629,https://maps.google.com/?cid=0x0:0xc5c533e76042d9d6,
supermarket,Masjid,A.LAMBEREA,"FX47+Q5P, Jalan Tran Sulawesi ( Fanuosingko, Lamberea, Kec. Bungku Tengah, Kabupaten Morowali, Sulawesi Tengah 94973","Jalan Tran Sulawesi ( Fanuosingko, Lamberea, Kec. Bungku Tengah, Kabupaten Morowali",SULAWESI TENGAH,94973.0,Indonesia,,,,-2.5430256,121.962966,https://maps.google.com/?cid=0x0:0x69635bf2f150ca4a,
supermarket,Komplek perumahan,Kios Play Wahyu,"72F9+VW6, Bahomotefe, Kec. Bungku Tengah, Kabupaten Morowali, Sulawesi Tengah 94973","Bahomotefe, Kec. Bungku Tengah, Kabupaten Morowali",SULAWESI TENGAH,94973.0,Indonesia,82293801122.0,,,-2.7253471,122.0197507,https://maps.google.com/?cid=0x0:0x93c0d4686c6ba114,
supermarket,Toko Swalayan,INDOMARET GERESA - MOROWALI,"82H7+8F, Geresa, Kec. Bungku Timur, Kabupaten Morowali, Sulawesi Tengah 94973","Geresa, Kec. Bungku Timur, Kabupaten Morowali",SULAWESI TENGAH,94973.0,Indonesia,,,,-2.6716907,122.0136948,https://maps.google.com/?cid=0x0:0xea6b254a2d983620,
supermarket,,TOKO DAMAI,"FX86+H3M TOKO DAMAI, Matansala, Kec. Bungku Tengah, Kabupaten Morowali, Sulawesi Tengah 94973","Matansala, Kec. Bungku Tengah, Kabupaten Morowali",SULAWESI TENGAH,94973.0,Indonesia,8114530665.0,,,-2.5335391,121.9601598,https://maps.google.com/?cid=0x0:0xc5577aee465400e5,
supermarket,supermarket,Sulawesi Tengah 94972,"Kabupaten Morowali Utara, Sulawesi Tengah","Kabupaten Morowali Utara, Sulawesi Tengah",SULAWESI TENGAH,,Indonesia,,,,-1.6248083,121.7195459,https://maps.google.com/?cid=0x0:0xe9e478f27d681886,
supermarket,Toko bahan makanan,UD.BINTANG FAJAR,"Jl. Nangka, Baturube, Kec. Bungku Utara, Kabupaten Morowali Utara, Sulawesi Tengah 94972","Baturube, Kec. Bungku Utara, Kabupaten Morowali Utara",SULAWESI TENGAH,94972.0,Indonesia,81377763262.0,,,-1.7699291,121.7926258,https://maps.google.com/?cid=0x0:0x19712942f05dd46f,
supermarket,Toko,TOKO BUNGA TANI SPC,"7Q95+59J, Tanaku Raya, Kec. Bungku Utara, Kabupaten Morowali Utara, Sulawesi Tengah 94972","Tanaku Raya, Kec. Bungku Utara, Kabupaten Morowali Utara",SULAWESI TENGAH,94972.0,Indonesia,82292962147.0,,,-1.7320357,121.7583981,https://maps.google.com/?cid=0x0:0xb3c62475c05dd8d3,
supermarket,Toko bahan makanan,Toko Ani,"9X7C+4JF, Tana Sumpu, Kec. Mamosalato, Kabupaten Morowali, Sulawesi Tengah 94972","Tana Sumpu, Kec. Mamosalato, Kabupaten Morowali",SULAWESI TENGAH,94972.0,Indonesia,85394850852.0,,,-1.6371868,121.9715341,https://maps.google.com/?cid=0x0:0x6c901bc7ee68b723,
supermarket,supermarket,Kios AGUS,"HC9W+X6Q, Taronggo, Kec. Bungku Utara, Kabupaten Morowali Utara, Sulawesi Tengah","Kabupaten Morowali Utara, Sulawesi Tengah",SULAWESI TENGAH,,Indonesia,,,,-1.4300254,121.4456179,https://maps.google.com/?cid=0x0:0xe10d401065714c61,
supermarket,Toko bahan makanan,Kios UMEGA,"Baturube, Kec. Bungku Utara, Kabupaten Morowali, Sulawesi Tengah 94972","Kec. Bungku Utara, Kabupaten Morowali",SULAWESI TENGAH,94972.0,Indonesia,,,,-1.7706912,121.794152,https://maps.google.com/?cid=0x0:0x21d1f4f2123b51ae,
supermarket,supermarket,Sulawesi Tengah 94975,"Menui Kepulauan, Kabupaten Morowali, Sulawesi Tengah","Kabupaten Morowali, Sulawesi Tengah",SULAWESI TENGAH,,Indonesia,,,,-3.2225368,122.3900901,https://maps.google.com/?cid=0x0:0x9de28c77bab1263b,
supermarket,supermarket,Kios ija,"C48V+JRG, Kofalagadi, Menui Kepulauan, Kabupaten Morowali, Sulawesi Tengah 93352","Kofalagadi, Menui Kepulauan, Kabupaten Morowali",SULAWESI TENGAH,93352.0,Indonesia,,,,-3.5834288,123.1445643,https://maps.google.com/?cid=0x0:0xc71b33a70fe47a65,
supermarket,Toko bahan makanan,Toko Inayah,"W9XQ+75G, Unnamed Road, Kaleroang, Kec. Bungku Sel., Kabupaten Morowali, Sulawesi Tengah 94974","Unnamed Road, Kaleroang, Kec. Bungku Sel., Kabupaten Morowali",SULAWESI TENGAH,94974.0,Indonesia,,,,-3.0518191,122.3879684,https://maps.google.com/?cid=0x0:0x5ec8fb8b11b53d32,
supermarket,Toko Swalayan,Toko Tomy,"X948+G8P, Unnamed Road, Bunta, Kec. Petasia, Kabupaten Morowali Utara, Sulawesi Tengah 94971","Unnamed Road, Bunta, Kec. Petasia, Kabupaten Morowali Utara",SULAWESI TENGAH,94971.0,Indonesia,85299365921.0,,,-2.0436539,121.3658186,https://maps.google.com/?cid=0x0:0x713ce963dcac7df9,
supermarket,Toko Swalayan,Toko Sehati,"284Q+MPJ, Jl. Tinumbu, Kolonodale, Kec. Petasia, Kabupaten Morowali Utara, Sulawesi Tengah 94971","Jl. Tinumbu, Kolonodale, Kec. Petasia, Kabupaten Morowali Utara",SULAWESI TENGAH,94971.0,Indonesia,82192001691.0,,,-1.993283,121.3392781,https://maps.google.com/?cid=0x0:0x25a0ab8cd8e8fc36,
supermarket,supermarket,Kec. Wita Ponda,"Kabupaten Morowali, Sulawesi Tengah","Kabupaten Morowali, Sulawesi Tengah",SULAWESI TENGAH,,Indonesia,,,,-2.214136,121.5990103,https://maps.google.com/?cid=0x0:0xff62e010995308a1,
supermarket,Toko bahan makanan,Mitra Mart,"QJMF+M57, Jl. Trans Sulawesi, Sampeantaba, Kec. Wita Ponda, Kabupaten Morowali, Sulawesi Tengah 94976","Jl. Trans Sulawesi, Sampeantaba, Kec. Wita Ponda, Kabupaten Morowali",SULAWESI TENGAH,94976.0,Indonesia,82194396847.0,,,-2.2158442,121.6229066,https://maps.google.com/?cid=0x0:0x1c80328d594a5702,
supermarket,Toko umum,Tokoh Subur,"RG5Q+5M5, Solonsa Jaya, Kec. Wita Ponda, Kabupaten Morowali, Sulawesi Tengah 94976","Solonsa Jaya, Kec. Wita Ponda, Kabupaten Morowali",SULAWESI TENGAH,94976.0,Indonesia,,,,-2.1921196,121.5392224,https://maps.google.com/?cid=0x0:0x9a741a864bec1586,
supermarket,Toko bahan makanan,Kios Sumber Rezeki,"QJF9+6QV, Unnamed Road, Lantula Jaya, Kec. Wita Ponda, Kabupaten Morowali, Sulawesi Tengah 94976","Unnamed Road, Lantula Jaya, Kec. Wita Ponda, Kabupaten Morowali",SULAWESI TENGAH,94976.0,Indonesia,,,,-2.2268947,121.6194221,https://maps.google.com/?cid=0x0:0xb1222b50dfb6c055,
supermarket,Toko umum,Kios Diana,"Jl. Trans Sulawesi, Solonsa, Kec. Wita Ponda, Kabupaten Morowali, Sulawesi Tengah 94976","Solonsa, Kec. Wita Ponda, Kabupaten Morowali",SULAWESI TENGAH,94976.0,Indonesia,,,,-2.1840466,121.5337329,https://maps.google.com/?cid=0x0:0x92f64078493ba5ac,
supermarket,Toko,Toko azifa,"Puntari Makmur, Kec. Wita Ponda, Kabupaten Morowali, Sulawesi Tengah 94976","Kec. Wita Ponda, Kabupaten Morowali",SULAWESI TENGAH,94976.0,Indonesia,,,,-2.2417314,121.6610432,https://maps.google.com/?cid=0x0:0x5d60bcd3cd6ce1e4,
supermarket,Toko bahan makanan,TOKO RYAN UNGKAYA,"Jl. Trans Sulawesi, Ungkaya, Kec. Wita Ponda, Kabupaten Morowali, Sulawesi Tengah 94976","Ungkaya, Kec. Wita Ponda, Kabupaten Morowali",SULAWESI TENGAH,94976.0,Indonesia,,,,-2.2143258,121.5816005,https://maps.google.com/?cid=0x0:0x9486bd2e633a08e9,
supermarket,Toko Swalayan,Toko Sinar Terang,"QMHJ+35P, Pebatae, Kec. Bumi Raya, Kabupaten Morowali, Sulawesi Tengah 94976","Pebatae, Kec. Bumi Raya, Kabupaten Morowali",SULAWESI TENGAH,94976.0,Indonesia,,,,-2.2222934,121.6804493,https://maps.google.com/?cid=0x0:0x299843f9d43493f0,
supermarket,Minimarket,Indomaret Solonsa Jaya Morowali,"RG2V+FHX, Jl. Trans Sulawesi, Solonsa Jaya, Kec. Wita Ponda, Kabupaten Morowali, Sulawesi Tengah 94673","Jl. Trans Sulawesi, Solonsa Jaya, Kec. Wita Ponda, Kabupaten Morowali",SULAWESI TENGAH,94673.0,Indonesia,,,,-2.1987572,121.5439793,https://maps.google.com/?cid=0x0:0x5a0f8420b0298f03,
supermarket,Toko Kosmetik,AL Fatih Beauty Shop Agen Resmi Maccora Skin Care,"QJGX+3GF, Sampeantaba, Kec. Wita Ponda, Kabupaten Morowali, Sulawesi Tengah 94976","Sampeantaba, Kec. Wita Ponda, Kabupaten Morowali",SULAWESI TENGAH,94976.0,Indonesia,82289988171.0,,,-2.2248197,121.6488059,https://maps.google.com/?cid=0x0:0x97601dd1d4be2500,
supermarket,supermarket,Pratama mart,"QM75+6Q6, Puntari Makmur, Kec. Wita Ponda, Kabupaten Morowali, Sulawesi Tengah 94976","Puntari Makmur, Kec. Wita Ponda, Kabupaten Morowali",SULAWESI TENGAH,94976.0,Indonesia,,,,-2.2369604,121.6593817,https://maps.google.com/?cid=0x0:0xf40060563e928ffa,
supermarket,Toko umum,Kios Andi,"RGH8+G4H, Solonsa, Kec. Wita Ponda, Kabupaten Morowali, Sulawesi Tengah","Kabupaten Morowali, Sulawesi Tengah",SULAWESI TENGAH,,Indonesia,,,,-2.171175,121.5153565,https://maps.google.com/?cid=0x0:0x1c1758a5358d6777,
supermarket,Toko,TOKO JAYA MART,"QJJF+QJR, DESA, Lantula Jaya, Kec. Wita Ponda, Kabupaten Morowali, Sulawesi Tengah 94976","DESA, Lantula Jaya, Kec. Wita Ponda, Kabupaten Morowali",SULAWESI TENGAH,94976.0,Indonesia,81341115079.0,,,-2.2180239,121.624009,https://maps.google.com/?cid=0x0:0x958b2975e4bad75e,
supermarket,Toko bahan makanan,Kios pk kriye,"QJG2+JG, Bumi Harapan, Kec. Wita Ponda, Kabupaten Morowali, Sulawesi Tengah 94976","Bumi Harapan, Kec. Wita Ponda, Kabupaten Morowali",SULAWESI TENGAH,94976.0,Indonesia,,,,-2.225139,121.6030217,https://maps.google.com/?cid=0x0:0xe2c2e8aed38590b9,
supermarket,Kantor Perusahaan,KOPKAR SETYA KRIDA PT.TGK UKE,"QH99+624, Ungkaya, Kec. Wita Ponda, Kabupaten Morowali, Sulawesi Tengah 94976","Ungkaya, Kec. Wita Ponda, Kabupaten Morowali",SULAWESI TENGAH,94976.0,Indonesia,,,,-2.2319984,121.5675884,https://maps.google.com/?cid=0x0:0x7692e16c5be9f3fd,
supermarket,Minimarket,Indomaret Lantula Jaya,"QJMF+HF5, Lantula Jaya, Kec. Wita Ponda, Kabupaten Morowali, Sulawesi Tengah 94976","Lantula Jaya, Kec. Wita Ponda, Kabupaten Morowali",SULAWESI TENGAH,94976.0,Indonesia,,,,-2.2160563,121.6237799,https://maps.google.com/?cid=0x0:0x21e9a77843513841,
supermarket,Toko,Toko Rama Sejahtera,"QJ8X+HCV, Unnamed Road, Puntari Makmur, Kec. Wita Ponda, Kabupaten Morowali, Sulawesi Tengah 94976","Unnamed Road, Puntari Makmur, Kec. Wita Ponda, Kabupaten Morowali",SULAWESI TENGAH,94976.0,Indonesia,,,,-2.2335031,121.6485323,https://maps.google.com/?cid=0x0:0xf6fb67dc13a88bc5,
supermarket,Minimarket,ALFAMIDI SAMPEANTABA,"QJMG+H97, Sampeantaba, Kec. Wita Ponda, Kabupaten Morowali, Sulawesi Tengah 94976","Sampeantaba, Kec. Wita Ponda, Kabupaten Morowali",SULAWESI TENGAH,94976.0,Indonesia,,,,-2.2160691,121.6258286,https://maps.google.com/?cid=0x0:0x36ac2fedd8d4cd8,
supermarket,Minimarket,INDOMARET EMEA - MOROWALI,"QHPW+74R, Emea, Kec. Wita Ponda, Kabupaten Morowali, Sulawesi Tengah 94976","Emea, Kec. Wita Ponda, Kabupaten Morowali",SULAWESI TENGAH,94976.0,Indonesia,,,,-2.214268,121.5952514,https://maps.google.com/?cid=0x0:0x990750854bae3fd8,
supermarket,Komplek perumahan, SAYA,"QGG3+23X, Solonsa, Kec. Wita Ponda, Kabupaten Morowali, Sulawesi Tengah","Kabupaten Morowali, Sulawesi Tengah",SULAWESI TENGAH,,Indonesia,,,,-2.2248964,121.5027404,https://maps.google.com/?cid=0x0:0x2c49a69d3e538b5f,
supermarket,Toko bahan makanan,KIOS NUR CELL,"QJJG+G9Q, Sampeantaba, Kec. Wita Ponda, Kabupaten Morowali, Sulawesi Tengah 94976","Sampeantaba, Kec. Wita Ponda, Kabupaten Morowali",SULAWESI TENGAH,94976.0,Indonesia,85256001987.0,,,-2.2186608,121.6259819,https://maps.google.com/?cid=0x0:0x8323da0d985e7bfd,
supermarket,Toko Swalayan,Kios Sabrina,"QJCF+65M, Lantula Jaya, Kec. Wita Ponda, Kabupaten Morowali, Sulawesi Tengah 94976","Lantula Jaya, Kec. Wita Ponda, Kabupaten Morowali",SULAWESI TENGAH,94976.0,Indonesia,81241210233.0,,,-2.2294234,121.6229277,https://maps.google.com/?cid=0x0:0xdd8199ff720e1aa5,
supermarket,Toko umum,Arif Riang,"RJ73+VCF, Moahino, Kec. Wita Ponda, Kabupaten Morowali, Sulawesi Tengah","Kabupaten Morowali, Sulawesi Tengah",SULAWESI TENGAH,,Indonesia,82289237017.0,,,-2.1853221,121.6035411,https://maps.google.com/?cid=0x0:0xbb3d48de4e080f6d,
supermarket,Warung telepon,KIOS NURI,"QHPG+8V9, Ungkaya, Kec. Wita Ponda, Kabupaten Morowali, Sulawesi Tengah 94976","Ungkaya, Kec. Wita Ponda, Kabupaten Morowali",SULAWESI TENGAH,94976.0,Indonesia,,,,-2.2142197,121.5772483,https://maps.google.com/?cid=0x0:0x14419b718de579ce,
