Category,Real Category,Business Name,Address,City,State,Postal Code,Country,Phone,Email,Website,Latitude,Longitude,Map Link,Details Link
komplek housing,Komplek perumahan,Tempatku,"54VH+X6, Keurea, Kec. Bahodopi, Kabupaten Morowali, Sulawesi Tengah 94974","Keurea, Kec. Bahodopi, Kabupaten Morowali",SULAWESI TENGAH,94974.0,Indonesia,821393814892.0,,,-2.8054784,122.1272971,https://maps.google.com/?cid=0x0:0xb22417034d47093f,
komplek housing,komplek housing,Sulawesi Tengah 94974,"Kabupaten Morowali, Sulawesi Tengah","Kabupaten Morowali, Sulawesi Tengah",SULAWESI TENGAH,,Indonesia,,,,-2.8626226,122.1291843,https://maps.google.com/?cid=0x0:0xb267e774a37f920f,
komplek housing,Pembangunan Perumahan,Perumahan PPR Bahodopi Residence,"6433+26H, Unnamed Road, Bahodopi, Kec. Bahodopi, Kabupaten Morowali, Sulawesi Tengah 94974","Unnamed Road, Bahodopi, Kec. Bahodopi, Kabupaten Morowali",SULAWESI TENGAH,94974.0,Indonesia,,,,-2.7974443,122.1031108,https://maps.google.com/?cid=0x0:0xec2078c7d6f2cd35,
komplek housing,Pembangunan Perumahan,Perumahan,"45M8+8MM, Labota, Kec. Bahodopi, Kabupaten Morowali, Sulawesi Tengah","Kabupaten Morowali, Sulawesi Tengah",SULAWESI TENGAH,,Indonesia,,,,-2.866667,122.166667,https://maps.google.com/?cid=0x0:0x16cded17fc5d7fc5,
komplek housing,Pembangunan Perumahan,bahodopi morowali sulawesi Tengah Indonesia,"6469+3GH, Bahodopi, Kec. Bahodopi, Kabupaten Morowali, Sulawesi Tengah 94974","Bahodopi, Kec. Bahodopi, Kabupaten Morowali",SULAWESI TENGAH,94974.0,Indonesia,,,,-2.7898129,122.1188585,https://maps.google.com/?cid=0x0:0x3ff5d9bfa3d97faf,
komplek housing,Komplek perumahan,Kos pusat info,"54RF+GMV, Bahomakmur, Kec. Bahodopi, Kabupaten Morowali, Sulawesi Tengah","Kabupaten Morowali, Sulawesi Tengah",SULAWESI TENGAH,,Indonesia,,,,-2.8086681,122.1242398,https://maps.google.com/?cid=0x0:0xa5a2a6a0c060084b,
komplek housing,komplek housing,Leman,"54QM+8M2, Bahomakmur, Kec. Bahodopi, Kabupaten Morowali, Sulawesi Tengah 94974","Bahomakmur, Kec. Bahodopi, Kabupaten Morowali",SULAWESI TENGAH,94974.0,Indonesia,,,,-2.8117449,122.1341401,https://maps.google.com/?cid=0x0:0x9b7b1b79fe4bc63d,
komplek housing,Hotel,Perumahan Kota Bahodopi,"4WJW+MWF, Lalampu, Kec. Bahodopi, Kabupaten Morowali, Sulawesi Tengah 94974","Lalampu, Kec. Bahodopi, Kabupaten Morowali",SULAWESI TENGAH,94974.0,Indonesia,,,,-2.8683053,121.947311,https://maps.google.com/?cid=0x0:0xbe09c3848d1f282,
komplek housing,Pembangunan Perumahan,Cahaya kos,"54RH+4RF, Bahomakmur, Kec. Bahodopi, Kabupaten Morowali, Sulawesi Tengah 94974","Bahomakmur, Kec. Bahodopi, Kabupaten Morowali",SULAWESI TENGAH,94974.0,Indonesia,82198899846.0,,,-2.8096906,122.1295532,https://maps.google.com/?cid=0x0:0x2961410ffef932f2,
komplek housing,Pembangunan Perumahan,Bahodopi,"Gang ponder Jl. Trans Bahomakmur, Bahomakmur, Kec. Bahodopi, Kabupaten Morowali, Sulawesi Tengah 94974","Bahomakmur, Kec. Bahodopi, Kabupaten Morowali",SULAWESI TENGAH,94974.0,Indonesia,,,,-2.8078683,122.1359233,https://maps.google.com/?cid=0x0:0x72fd1bc91a8d561f,
komplek housing,Komplek perumahan,Home Vania,"53QV+2Q4, Bahodopi, Kec. Bahodopi, Kabupaten Morowali, Sulawesi Tengah 94974","Bahodopi, Kec. Bahodopi, Kabupaten Morowali",SULAWESI TENGAH,94974.0,Indonesia,,,,-2.8131986,122.0941332,https://maps.google.com/?cid=0x0:0x61e94ce2babe265e,
komplek housing,Pembangunan Perumahan,Perumahan agung aulia 1,"Lalampu, Kec. Bahodopi, Kabupaten Morowali, Sulawesi Tengah","Kabupaten Morowali, Sulawesi Tengah",SULAWESI TENGAH,,Indonesia,,,,-2.8066124,122.0966707,https://maps.google.com/?cid=0x0:0x41e4285aa92866cb,
komplek housing,komplek housing,Alencio Home,"54MG+7QC, Lorong GBI, Bahomakmur, Kec. Bahodopi, Kabupaten Morowali, Sulawesi Tengah 94974","Lorong GBI, Bahomakmur, Kec. Bahodopi, Kabupaten Morowali",SULAWESI TENGAH,94974.0,Indonesia,,,,-2.8168262,122.1268413,https://maps.google.com/?cid=0x0:0xf96037337867bc52,
komplek housing,Komplek perumahan,Danish house,"54RP+XMC, Bahomakmur, Kec. Bahodopi, Kabupaten Morowali, Sulawesi Tengah 94974","Bahomakmur, Kec. Bahodopi, Kabupaten Morowali",SULAWESI TENGAH,94974.0,Indonesia,,,,-2.8075583,122.1366429,https://maps.google.com/?cid=0x0:0x67563a7adacca4fa,
komplek housing,Komplek perumahan,rumah jdin,"Jalan 3 No.Blok B, Bahomakmur, Bahodopi, Morowali Regency, Central Sulawesi 94974","Bahomakmur, Bahodopi, Morowali Regency",SULAWESI TENGAH,94974.0,Indonesia,,,,-2.8121326,122.1408292,https://maps.google.com/?cid=0x0:0xc0b8558f29c257ae,
komplek housing,Komplek perumahan,Squad morowali,"blok e, Bahomakmur, Kec. Bahodopi, Kabupaten Morowali, Sulawesi Tengah 94974","Bahomakmur, Kec. Bahodopi, Kabupaten Morowali",SULAWESI TENGAH,94974.0,Indonesia,,,,-2.8129615,122.1363267,https://maps.google.com/?cid=0x0:0xfc78b7da83aa3015,
komplek housing,Komplek perumahan,Kos Wanto/Anton,"54PQ+HWF, Bahomakmur, Kec. Bahodopi, Kabupaten Morowali, Sulawesi Tengah 94974","Bahomakmur, Kec. Bahodopi, Kabupaten Morowali",SULAWESI TENGAH,94974.0,Indonesia,82293665199.0,,,-2.8135726,122.1398102,https://maps.google.com/?cid=0x0:0xac5bbbdcefbf6ced,
komplek housing,Komplek perumahan,Home me,"lorong tower, blok B1, Bahomakmur, Kec. Bahodopi, Kabupaten Morowali, Sulawesi Tengah 94974","blok B1, Bahomakmur, Kec. Bahodopi, Kabupaten Morowali",SULAWESI TENGAH,94974.0,Indonesia,,,,-2.8076773,122.1361365,https://maps.google.com/?cid=0x0:0x32508a4f5e76f028,
komplek housing,Komplek perumahan,JESSLYN HOME,"Bahomakmur, Kec. Bahodopi, Kabupaten Morowali, Sulawesi Tengah 94974","Kec. Bahodopi, Kabupaten Morowali",SULAWESI TENGAH,94974.0,Indonesia,,,,-2.8148438,122.1359597,https://maps.google.com/?cid=0x0:0xe1d8516460ee4c9b,
komplek housing,Komplek perumahan,Sulawesih tengah,"45M8+8MM, Labota, Kec. Bahodopi, Kabupaten Morowali, Sulawesi Tengah","Kabupaten Morowali, Sulawesi Tengah",SULAWESI TENGAH,,Indonesia,,,,-2.866667,122.166667,https://maps.google.com/?cid=0x0:0xf583118fd97e3672,
komplek housing,komplek housing,Kec. Bahodopi,"Kabupaten Morowali, Sulawesi Tengah","Kabupaten Morowali, Sulawesi Tengah",SULAWESI TENGAH,,Indonesia,,,,-2.8683053,121.947311,https://maps.google.com/?cid=0x0:0x406dba4e3be0316e,
komplek housing,Pembangunan Perumahan,Home ZAKHIA,"455J+F2W, Makarti Jaya, Kec. Bahodopi, Kabupaten Morowali, Sulawesi Tengah 94974","Makarti Jaya, Kec. Bahodopi, Kabupaten Morowali",SULAWESI TENGAH,94974.0,Indonesia,,,,-2.8913779,122.1802268,https://maps.google.com/?cid=0x0:0xbe09ec9ba22222c,
komplek housing,Komplek perumahan,HOME LINGÂ² Afive,"6422+9VG, Bahodopi, Kec. Bahodopi, Kabupaten Morowali, Sulawesi Tengah 94974","Bahodopi, Kec. Bahodopi, Kabupaten Morowali",SULAWESI TENGAH,94974.0,Indonesia,,,,-2.7990502,122.1021973,https://maps.google.com/?cid=0x0:0xd7bb4a06ce4ca5ea,
komplek housing,,Komplek pasar lama keurea,"643W+Q78, Keurea, Kec. Bahodopi, Kabupaten Morowali, Sulawesi Tengah 94974","Keurea, Kec. Bahodopi, Kabupaten Morowali",SULAWESI TENGAH,94974.0,Indonesia,,,,-2.7955916,122.1457161,https://maps.google.com/?cid=0x0:0x3fb9c3aabce24b3e,
komplek housing,komplek housing,Laundry Bunda,"Blk. C lorong futsal, Bahomakmur, Kec. Bahodopi, Kabupaten Morowali, Sulawesi Tengah 94974","Bahomakmur, Kec. Bahodopi, Kabupaten Morowali",SULAWESI TENGAH,94974.0,Indonesia,,,,-2.8175905,122.1295361,https://maps.google.com/?cid=0x0:0x832b0877eca58d51,
komplek housing,Komplek perumahan,Home wiguna,"645F+9J4, Bahodopi, Kec. Bahodopi, Kabupaten Morowali, Sulawesi Tengah 94974","Bahodopi, Kec. Bahodopi, Kabupaten Morowali",SULAWESI TENGAH,94974.0,Indonesia,,,,-2.7916132,122.1240707,https://maps.google.com/?cid=0x0:0xa27bfceb0b096508,
komplek housing,Pembangunan Perumahan,Dolise,"4WJW+MWF, Lalampu, Kec. Bahodopi, Kabupaten Morowali, Sulawesi Tengah 94974","Lalampu, Kec. Bahodopi, Kabupaten Morowali",SULAWESI TENGAH,94974.0,Indonesia,,,,-2.8683053,121.947311,https://maps.google.com/?cid=0x0:0xf2217c4f3f28b680,
komplek housing,Komplek perumahan,Rumah,"4559+FH7, Dusun 4 jalan kambing, Makarti Jaya, Kec. Bahodopi, Kabupaten Morowali, Sulawesi Tengah 94974","Dusun 4 jalan kambing, Makarti Jaya, Kec. Bahodopi, Kabupaten Morowali",SULAWESI TENGAH,94974.0,Indonesia,,,,-2.8913383,122.1689246,https://maps.google.com/?cid=0x0:0x8a510fde672c94cd,
komplek housing,Komplek perumahan,Lorong Lupus 77,"54PV+4CV, Bahomakmur, Kec. Bahodopi, Kabupaten Morowali, Sulawesi Tengah 94974","Bahomakmur, Kec. Bahodopi, Kabupaten Morowali",SULAWESI TENGAH,94974.0,Indonesia,,,,-2.8146357,122.1435316,https://maps.google.com/?cid=0x0:0xf7998115fc73c4ff,
komplek housing,komplek housing,Kec. Bumi Raya,"Kabupaten Morowali, Sulawesi Tengah","Kabupaten Morowali, Sulawesi Tengah",SULAWESI TENGAH,,Indonesia,,,,-2.2160038,121.7239224,https://maps.google.com/?cid=0x0:0x733f460809c91197,
komplek housing,Komplek perumahan,Perumahan Ambunu Lestari,"PQQ4+Q7W, Ambunu, Kec. Bungku Bar., Kabupaten Morowali, Sulawesi Tengah 94976","Ambunu, Kec. Bungku Bar., Kabupaten Morowali",SULAWESI TENGAH,94976.0,Indonesia,82271077371.0,,,-2.2605118,121.7557142,https://maps.google.com/?cid=0x0:0x78041f78575f308e,
komplek housing,Komplek perumahan,Perumahan Bahtera Sunnah 3,"QP44+M4F, Beringin Jaya, Kec. Bumi Raya, Kabupaten Morowali, Sulawesi Tengah 94976","Beringin Jaya, Kec. Bumi Raya, Kabupaten Morowali",SULAWESI TENGAH,94976.0,Indonesia,82271077371.0,,,-2.2433003,121.7052951,https://maps.google.com/?cid=0x0:0x861163477cd462fd,
komplek housing,Bandara,Perumahan bandara morowali,"Bandara morowali, Umbele, Kec. Bumi Raya, Kabupaten Morowali, Sulawesi Tengah","Kabupaten Morowali, Sulawesi Tengah",SULAWESI TENGAH,,Indonesia,,,,-2.2055389,121.6641908,https://maps.google.com/?cid=0x0:0x7a81334b342bc9ac,
komplek housing,Komplek perumahan,Harapan jaya,"QP2G+W97, Harapan Jaya, Kec. Bumi Raya, Kabupaten Morowali, Sulawesi Tengah 94976","Harapan Jaya, Kec. Bumi Raya, Kabupaten Morowali",SULAWESI TENGAH,94976.0,Indonesia,,,,-2.2477524,121.725881,https://maps.google.com/?cid=0x0:0x4e23b823702febd,
komplek housing,Komplek perumahan,H. Ust. Mashun Radjab,"QPJJ+RMG, Jl. Trans Sulawesi, Bahonsuai, Kec. Bumi Raya, Kabupaten Morowali, Sulawesi Tengah 94976","Jl. Trans Sulawesi, Bahonsuai, Kec. Bumi Raya, Kabupaten Morowali",SULAWESI TENGAH,94976.0,Indonesia,,,,-2.2179455,121.7317142,https://maps.google.com/?cid=0x0:0x884dd65fa245a77b,
komplek housing,komplek housing,Rumah Alesha,"PPXC+FX6, Harapan Jaya, Kec. Bumi Raya, Kabupaten Morowali, Sulawesi Tengah 94976","Harapan Jaya, Kec. Bumi Raya, Kabupaten Morowali",SULAWESI TENGAH,94976.0,Indonesia,,,,-2.2513374,121.7223958,https://maps.google.com/?cid=0x0:0x8a233a56125ae38a,
komplek housing,Komplek perumahan,Mahjun,"Jl. Trans Sulawesi No.29, Pebatae, Kec. Bumi Raya, Kabupaten Morowali, Sulawesi Tengah 94976","Pebatae, Kec. Bumi Raya, Kabupaten Morowali",SULAWESI TENGAH,94976.0,Indonesia,,,,-2.2198337,121.6808847,https://maps.google.com/?cid=0x0:0x542e4c2e5b8ad07e,
komplek housing,Pembangunan Perumahan,Jhoen Id,"PMXM+6FG, Limbo Makmur, Kec. Bumi Raya, Kabupaten Morowali, Sulawesi Tengah 94976","Limbo Makmur, Kec. Bumi Raya, Kabupaten Morowali",SULAWESI TENGAH,94976.0,Indonesia,,,,-2.2519331,121.683718,https://maps.google.com/?cid=0x0:0xb9180a8da784f516,
komplek housing,Komplek perumahan,rumah dian,"Jl. Trans Sulawesi No.29, Pebatae, Kec. Bumi Raya, Kabupaten Morowali, Sulawesi Tengah 94976","Pebatae, Kec. Bumi Raya, Kabupaten Morowali",SULAWESI TENGAH,94976.0,Indonesia,,,,-2.2207483,121.6807202,https://maps.google.com/?cid=0x0:0x82baa4f701cb3bf1,
komplek housing,komplek housing,HaniiRyan,"Spe harapan jaya, Harapan Jaya, Kec. Bumi Raya, Kabupaten Morowali, Sulawesi Tengah 94976","Harapan Jaya, Kec. Bumi Raya, Kabupaten Morowali",SULAWESI TENGAH,94976.0,Indonesia,,,,-2.2486767,121.7263102,https://maps.google.com/?cid=0x0:0xd2a4fae01b60cedf,
komplek housing,komplek housing,Pondok Poernama 01,"Pondok Poernama 01, Lestari, Kompleks Kaplingan, Ambunu, Kec. Bungku Bar., Kabupaten Morowali, Sulawesi Tengah 94976","Lestari, Kompleks Kaplingan, Ambunu, Kec. Bungku Bar., Kabupaten Morowali",SULAWESI TENGAH,94976.0,Indonesia,82346055272.0,,,-2.2610244,121.7567529,https://maps.google.com/?cid=0x0:0xc35af614271ba7e9,
komplek housing,Komplek perumahan,Dusun 4,"QMJJ+396, Pebatae, Kec. Bumi Raya, Kabupaten Morowali, Sulawesi Tengah 94976","Pebatae, Kec. Bumi Raya, Kabupaten Morowali",SULAWESI TENGAH,94976.0,Indonesia,,,,-2.2198341,121.6808855,https://maps.google.com/?cid=0x0:0xf1559ef986a63bb7,
komplek housing,komplek housing,Rumah Aris Mahfud,"QPMH+4F2, Jl. Trans Sulawesi, Parilangke, Kec. Bumi Raya, Kabupaten Morowali, Sulawesi Tengah 94976","Jl. Trans Sulawesi, Parilangke, Kec. Bumi Raya, Kabupaten Morowali",SULAWESI TENGAH,94976.0,Indonesia,,,,-2.217615,121.72859,https://maps.google.com/?cid=0x0:0x1609a17f16b71475,
komplek housing,Komplek perumahan,Suarnaya Home,"QM7Q+V7W, Lambelu, Kec. Bumi Raya, Kabupaten Morowali, Sulawesi Tengah 94976","Lambelu, Kec. Bumi Raya, Kabupaten Morowali",SULAWESI TENGAH,94976.0,Indonesia,,,,-2.2352618,121.6881918,https://maps.google.com/?cid=0x0:0x4640c6c59e66ddf2,
komplek housing,Komplek perumahan,Anto,"PPXH+H3G, Harapan Jaya, Kec. Bumi Raya, Kabupaten Morowali, Sulawesi Tengah 94976","Harapan Jaya, Kec. Bumi Raya, Kabupaten Morowali",SULAWESI TENGAH,94976.0,Indonesia,,,,-2.2510557,121.7276962,https://maps.google.com/?cid=0x0:0xf946df7c8da629cf,
komplek housing,komplek housing,Rumah mira,"QM7X+Q2X, Lambelu, Kec. Bumi Raya, Kabupaten Morowali, Sulawesi Tengah 94976","Lambelu, Kec. Bumi Raya, Kabupaten Morowali",SULAWESI TENGAH,94976.0,Indonesia,,,,-2.2354416,121.6976526,https://maps.google.com/?cid=0x0:0x46fe0d2ba60245d1,
komplek housing,Komplek perumahan,Nursanah,"QP2H+8PH, Harapan Jaya, Kec. Bumi Raya, Kabupaten Morowali, Sulawesi Tengah 94976","Harapan Jaya, Kec. Bumi Raya, Kabupaten Morowali",SULAWESI TENGAH,94976.0,Indonesia,,,,-2.248773,121.72801,https://maps.google.com/?cid=0x0:0x1be017f8a98b3a9b,
komplek housing,Komplek perumahan,rumah mang isur,"QP53+M2C, Beringin Jaya, Kec. Bumi Raya, Kabupaten Morowali, Sulawesi Tengah 94976","Beringin Jaya, Kec. Bumi Raya, Kabupaten Morowali",SULAWESI TENGAH,94976.0,Indonesia,,,,-2.2408865,121.7011165,https://maps.google.com/?cid=0x0:0x751bcacd1b276366,
komplek housing,Pembangunan Perumahan,Lorong pasar,"QPMJ+399, Bahonsuai, Kec. Bumi Raya, Kabupaten Morowali, Sulawesi Tengah","Kabupaten Morowali, Sulawesi Tengah",SULAWESI TENGAH,,Indonesia,,,,-2.2169003,121.7306044,https://maps.google.com/?cid=0x0:0x52af151b49ffcd66,
komplek housing,Komplek perumahan,ruah pk din,"unit 6, Lambelu, Kec. Bumi Raya, Kabupaten Morowali, Sulawesi Tengah 94976","Lambelu, Kec. Bumi Raya, Kabupaten Morowali",SULAWESI TENGAH,94976.0,Indonesia,,,,-2.2352618,121.6881918,https://maps.google.com/?cid=0x0:0xac93b7e1e822ec10,
komplek housing,Komplek perumahan,wahyudi,"QP2J+GQ9, Harapan Jaya, Kec. Bumi Raya, Kabupaten Morowali, Sulawesi Tengah 94976","Harapan Jaya, Kec. Bumi Raya, Kabupaten Morowali",SULAWESI TENGAH,94976.0,Indonesia,,,,-2.2486707,121.7319758,https://maps.google.com/?cid=0x0:0xc9dce46ee30cb6c3,
komplek housing,Komplek perumahan,Rumah anang,"PMX4+MPG, Puntari Makmur, Kec. Wita Ponda, Kabupaten Morowali, Sulawesi Tengah 94976","Puntari Makmur, Kec. Wita Ponda, Kabupaten Morowali",SULAWESI TENGAH,94976.0,Indonesia,,,,-2.2508126,121.656829,https://maps.google.com/?cid=0x0:0x344fa030233cad9f,
komplek housing,Komplek perumahan,Lorong sayur,"QP2H+8PH, Harapan Jaya, Kec. Bumi Raya, Kabupaten Morowali, Sulawesi Tengah 94976","Harapan Jaya, Kec. Bumi Raya, Kabupaten Morowali",SULAWESI TENGAH,94976.0,Indonesia,,,,-2.249059,121.7280962,https://maps.google.com/?cid=0x0:0xb480a39477a91744,
komplek housing,Komplek perumahan,Mas muji,"QP2G+W97, Harapan Jaya, Kec. Bumi Raya, Kabupaten Morowali, Sulawesi Tengah 94976","Harapan Jaya, Kec. Bumi Raya, Kabupaten Morowali",SULAWESI TENGAH,94976.0,Indonesia,,,,-2.2477524,121.725881,https://maps.google.com/?cid=0x0:0xe24418249c68a40f,
komplek housing,Pembangunan Perumahan,Rumahnya Alham,"QM2R+295, Limbo Makmur, Kec. Bumi Raya, Kabupaten Morowali, Sulawesi Tengah 94976","Limbo Makmur, Kec. Bumi Raya, Kabupaten Morowali",SULAWESI TENGAH,94976.0,Indonesia,,,,-2.2499776,121.6909893,https://maps.google.com/?cid=0x0:0x9e4b897945614612,
komplek housing,Komplek perumahan,Komplek Raya Housing Blok C No.6,"Jl. Bhineka, RT.006/RW.011, Jatiwaringin, Kec. Pd. Gede, Kota Bks, Jawa Barat 17411","RT.006/RW.011, Jatiwaringin, Kec. Pd. Gede, Kota Bks",SULAWESI TENGAH,17411.0,Indonesia,,,,-6.2813572,106.9097108,https://maps.google.com/?cid=0x0:0x8658ae7bd2f9a7a2,
komplek housing,Komplek perumahan,Komplek Raya Housing Blok D no.6,"Jl. Raya Housing No.6 Blok D, RT.006/RW.011, Jatiwaringin, Pondok Gede, Bekasi, West Java 17411","RT.006/RW.011, Jatiwaringin, Pondok Gede, Bekasi",SULAWESI TENGAH,17411.0,Indonesia,218469215.0,,,-6.2812011,106.9100437,https://maps.google.com/?cid=0x0:0x1c9f453cf5cbab3a,
komplek housing,Kompleks Townhouse,Perumahan Bumi Jatiwaringin,"Jl. Bumi Jatiwaringin Jl. Raya Jatiwaringin No.10 Blok G 9, RT.003/RW.06, Jatiwaringin, Pondok Gede, Bekasi, West Java 17411","RT.003/RW.06, Jatiwaringin, Pondok Gede, Bekasi",SULAWESI TENGAH,17411.0,Indonesia,,,,-6.2723109,106.9121508,https://maps.google.com/?cid=0x0:0xb8b82d6f70b45463,
komplek housing,komplek housing,Kec. Bungku Bar.,"Kabupaten Morowali, Sulawesi Tengah","Kabupaten Morowali, Sulawesi Tengah",SULAWESI TENGAH,,Indonesia,,,,-2.3550315,121.8504279,https://maps.google.com/?cid=0x0:0x60891acc9bfe198d,
komplek housing,Komplek perumahan,Perumahan Ambunu Lestari,"PQQ4+Q7W, Ambunu, Kec. Bungku Bar., Kabupaten Morowali, Sulawesi Tengah 94976","Ambunu, Kec. Bungku Bar., Kabupaten Morowali",SULAWESI TENGAH,94976.0,Indonesia,82271077371.0,,,-2.2605118,121.7557142,https://maps.google.com/?cid=0x0:0x78041f78575f308e,
komplek housing,Komplek perumahan,Perumahan Bahtera Sunnah,"PR43+GCP, Umpanga, Kec. Bungku Bar., Kabupaten Morowali, Sulawesi Tengah","Kabupaten Morowali, Sulawesi Tengah",SULAWESI TENGAH,,Indonesia,,,,-2.2936733,121.8035669,https://maps.google.com/?cid=0x0:0x81abe88535b7394d,
komplek housing,komplek housing,Perumahan Bukit Hijau,"MRGJ+WQ5, Jl. Trans Sulawesi, Larobenu, Kec. Bungku Bar., Kabupaten Morowali, Sulawesi Tengah","Kabupaten Morowali, Sulawesi Tengah",SULAWESI TENGAH,,Indonesia,,,,-2.322749,121.8319785,https://maps.google.com/?cid=0x0:0xe6329bfd8694fa8d,
komplek housing,komplek housing,KOST MILNa,"PPPX+673, Marga Mulya, Kec. Bungku Bar., Kabupaten Morowali, Sulawesi Tengah 94976","Marga Mulya, Kec. Bungku Bar., Kabupaten Morowali",SULAWESI TENGAH,94976.0,Indonesia,,,,-2.2644834,121.7481584,https://maps.google.com/?cid=0x0:0x1a7fd5f23e18a8a8,
komplek housing,Komplek perumahan,Perumahan lanona,"FQVX+PP4, Lanona, Kec. Bungku Tengah, Kabupaten Morowali, Sulawesi Tengah","Kabupaten Morowali, Sulawesi Tengah",SULAWESI TENGAH,,Indonesia,,,,-2.5057471,121.7993168,https://maps.google.com/?cid=0x0:0x53e9d92bb5163302,
komplek housing,Komplek perumahan,Rumah pink evi,"PQQ2+M9H, Marga Mulya, Kec. Bungku Bar., Kabupaten Morowali, Sulawesi Tengah 94976","Marga Mulya, Kec. Bungku Bar., Kabupaten Morowali",SULAWESI TENGAH,94976.0,Indonesia,,,,-2.2608046,121.7509899,https://maps.google.com/?cid=0x0:0xe2c359341cf93880,
komplek housing,Komplek perumahan,Andikputri,"PPRX+3V2, Marga Mulya, Kec. Bungku Bar., Kabupaten Morowali, Sulawesi Tengah 94976","Marga Mulya, Kec. Bungku Bar., Kabupaten Morowali",SULAWESI TENGAH,94976.0,Indonesia,,,,-2.260099,121.749485,https://maps.google.com/?cid=0x0:0x20f3e60fe82551df,
komplek housing,Komplek perumahan,rumah vikran,"HR3M+M2R, Bahoea Reko Reko, Kec. Bungku Bar., Kabupaten Morowali, Sulawesi Tengah 94976","Bahoea Reko Reko, Kec. Bungku Bar., Kabupaten Morowali",SULAWESI TENGAH,94976.0,Indonesia,,,,-2.4457517,121.8325092,https://maps.google.com/?cid=0x0:0xc3d0ad83dc4ff623,
komplek housing,Komplek perumahan,kos alham,"PQQ2+VG3, Marga Mulya, Kec. Bungku Bar., Kabupaten Morowali, Sulawesi Tengah 94976","Marga Mulya, Kec. Bungku Bar., Kabupaten Morowali",SULAWESI TENGAH,94976.0,Indonesia,,,,-2.2603672,121.7512991,https://maps.google.com/?cid=0x0:0xc65e2e6696403bdc,
komplek housing,Kompleks Kondominium,AG,"MR7P+CJG, Larobenu, Kec. Bungku Bar., Kabupaten Morowali, Sulawesi Tengah 94976","Larobenu, Kec. Bungku Bar., Kabupaten Morowali",SULAWESI TENGAH,94976.0,Indonesia,,,,-2.3364407,121.8365857,https://maps.google.com/?cid=0x0:0x725c9df0b1f7001a,
komplek housing,Perusahaan investasi properti,Rumah Kos Pak Kasmin,"PPRX+597, Marga Mulya, Kec. Bungku Bar., Kabupaten Morowali, Sulawesi Tengah 94976","Marga Mulya, Kec. Bungku Bar., Kabupaten Morowali",SULAWESI TENGAH,94976.0,Indonesia,,,,-2.2588106,121.7486329,https://maps.google.com/?cid=0x0:0x97cfd0cf912b08b7,
komplek housing,Komplek perumahan,RX king,"JVV3+5C7, Wosu, Kec. Bungku Bar., Kabupaten Morowali, Sulawesi Tengah 94976","Wosu, Kec. Bungku Bar., Kabupaten Morowali",SULAWESI TENGAH,94976.0,Indonesia,,,,-2.3570805,121.8535567,https://maps.google.com/?cid=0x0:0x26008a2e9ea00a81,
komplek housing,Komplek perumahan,Dimas Denis Home stay,"JV46+929, Jln Trans, Bahoea Reko Reko, Kec. Bungku Bar., Kabupaten Morowali, Sulawesi Tengah 94976","Jln Trans, Bahoea Reko Reko, Kec. Bungku Bar., Kabupaten Morowali",SULAWESI TENGAH,94976.0,Indonesia,,,,-2.3940996,121.8601219,https://maps.google.com/?cid=0x0:0x509412c47747d963,
komplek housing,komplek housing,Pondok Poernama 01,"Pondok Poernama 01, Lestari, Kompleks Kaplingan, Ambunu, Kec. Bungku Bar., Kabupaten Morowali, Sulawesi Tengah 94976","Lestari, Kompleks Kaplingan, Ambunu, Kec. Bungku Bar., Kabupaten Morowali",SULAWESI TENGAH,94976.0,Indonesia,82346055272.0,,,-2.2610244,121.7567529,https://maps.google.com/?cid=0x0:0xc35af614271ba7e9,
komplek housing,,Kedai SAKINAH,"PR53+4VX, Jl. Trans Sulawesi, Umpanga, Kec. Bungku Bar., Kabupaten Morowali, Sulawesi Tengah 94976","Jl. Trans Sulawesi, Umpanga, Kec. Bungku Bar., Kabupaten Morowali",SULAWESI TENGAH,94976.0,Indonesia,,,,-2.2919213,121.8034677,https://maps.google.com/?cid=0x0:0xd1d64c465182e8a8,
komplek housing,Pembangunan Perumahan,Rumah suta,"PPMP+5MX, Marga Mulya, Kec. Bungku Bar., Kabupaten Morowali, Sulawesi Tengah 94976","Marga Mulya, Kec. Bungku Bar., Kabupaten Morowali",SULAWESI TENGAH,94976.0,Indonesia,,,,-2.2670231,121.736739,https://maps.google.com/?cid=0x0:0x3960d384a949fa81,
komplek housing,komplek housing,Fatiha cel,"JRXV+FHR, Wosu, Kec. Bungku Bar., Kabupaten Morowali, Sulawesi Tengah 94976","Wosu, Kec. Bungku Bar., Kabupaten Morowali",SULAWESI TENGAH,94976.0,Indonesia,,,,-2.3512678,121.8439062,https://maps.google.com/?cid=0x0:0xe049ace94ad93ba0,
komplek housing,Bed >>u0026 Breakfast,Kost 3 putra,"PPXM+MV, Jembatan polo, Uedago, Kec. Bungku Bar., Kabupaten Morowali, Sulawesi Tengah 94976","Jembatan polo, Uedago, Kec. Bungku Bar., Kabupaten Morowali",SULAWESI TENGAH,94976.0,Indonesia,82346036685.0,,,-2.2512885,121.7350813,https://maps.google.com/?cid=0x0:0x19dc80e490b4d69a,
komplek housing,Komplek perumahan,Home Abil,"HVGJ+67G, Lanona, Kec. Bungku Tengah, Kabupaten Morowali, Sulawesi Tengah","Kabupaten Morowali, Sulawesi Tengah",SULAWESI TENGAH,,Indonesia,,,,-2.424436,121.8806981,https://maps.google.com/?cid=0x0:0xc23d726dc85e342e,
komplek housing,Apartemen sewa liburan,KOST AK,"PQ9P+3Q7, Tofogaro, Kec. Bungku Bar., Kabupaten Morowali, Sulawesi Tengah","Kabupaten Morowali, Sulawesi Tengah",SULAWESI TENGAH,,Indonesia,85316874627.0,,,-2.2823366,121.7869345,https://maps.google.com/?cid=0x0:0x218faa8d4136763a,
komplek housing,Komplek perumahan,Emba Home,"Emba Home, Marga Mulya, Kec. Bungku Bar., Kabupaten Morowali, Sulawesi Tengah 94976","Marga Mulya, Kec. Bungku Bar., Kabupaten Morowali",SULAWESI TENGAH,94976.0,Indonesia,,,,-2.2580518,121.7366213,https://maps.google.com/?cid=0x0:0xb15c710fcf0d02dc,
komplek housing,Komplek perumahan,Rumah Puput,"PQV5+PP, Ambunu, Kec. Bungku Bar., Kabupaten Morowali, Sulawesi Tengah 94976","Ambunu, Kec. Bungku Bar., Kabupaten Morowali",SULAWESI TENGAH,94976.0,Indonesia,,,,-2.2562813,121.7589956,https://maps.google.com/?cid=0x0:0x8c5fdd4d9f7be754,
komplek housing,Komplek perumahan,Rmh. Pak. WAGINO.C,"PQQ2+PG, Marga Mulya, Kec. Bungku Bar., Kabupaten Morowali, Sulawesi Tengah 94976","Marga Mulya, Kec. Bungku Bar., Kabupaten Morowali",SULAWESI TENGAH,94976.0,Indonesia,,,,-2.2608649,121.7506556,https://maps.google.com/?cid=0x0:0xfdffe216acc38f1b,
komplek housing,Komplek perumahan,Harapan jaya,"QP2G+W97, Harapan Jaya, Kec. Bumi Raya, Kabupaten Morowali, Sulawesi Tengah 94976","Harapan Jaya, Kec. Bumi Raya, Kabupaten Morowali",SULAWESI TENGAH,94976.0,Indonesia,,,,-2.2477524,121.725881,https://maps.google.com/?cid=0x0:0x4e23b823702febd,
komplek housing,Komplek perumahan,Rumah Gafar,"MR9P+9FH, Jl. Trans Sulawesi, Larobenu, Kec. Bungku Bar., Kabupaten Morowali, Sulawesi Tengah 94976","Jl. Trans Sulawesi, Larobenu, Kec. Bungku Bar., Kabupaten Morowali",SULAWESI TENGAH,94976.0,Indonesia,,,,-2.3315564,121.8362197,https://maps.google.com/?cid=0x0:0xdc28d8396e97a6fd,
komplek housing,komplek housing,Sulawesi Tengah 94974,"Kabupaten Morowali, Sulawesi Tengah","Kabupaten Morowali, Sulawesi Tengah",SULAWESI TENGAH,,Indonesia,,,,-2.8626226,122.1291843,https://maps.google.com/?cid=0x0:0xb267e774a37f920f,
komplek housing,komplek housing,Leman,"54QM+8M2, Bahomakmur, Kec. Bahodopi, Kabupaten Morowali, Sulawesi Tengah 94974","Bahomakmur, Kec. Bahodopi, Kabupaten Morowali",SULAWESI TENGAH,94974.0,Indonesia,,,,-2.8117449,122.1341401,https://maps.google.com/?cid=0x0:0x9b7b1b79fe4bc63d,
komplek housing,Pembangunan Perumahan,AFIQA HOME,"36WC+82, Puungkeu, Kec. Bungku Pesisir, Kabupaten Morowali, Sulawesi Tengah 94974","Puungkeu, Kec. Bungku Pesisir, Kabupaten Morowali",SULAWESI TENGAH,94974.0,Indonesia,,,,-2.903467,122.2190334,https://maps.google.com/?cid=0x0:0x2db8cf411bc94160,
komplek housing,Komplek perumahan,Squad morowali,"blok e, Bahomakmur, Kec. Bahodopi, Kabupaten Morowali, Sulawesi Tengah 94974","Bahomakmur, Kec. Bahodopi, Kabupaten Morowali",SULAWESI TENGAH,94974.0,Indonesia,,,,-2.8129615,122.1363267,https://maps.google.com/?cid=0x0:0xfc78b7da83aa3015,
komplek housing,komplek housing,Alencio Home,"54MG+7QC, Lorong GBI, Bahomakmur, Kec. Bahodopi, Kabupaten Morowali, Sulawesi Tengah 94974","Lorong GBI, Bahomakmur, Kec. Bahodopi, Kabupaten Morowali",SULAWESI TENGAH,94974.0,Indonesia,,,,-2.8168262,122.1268413,https://maps.google.com/?cid=0x0:0xf96037337867bc52,
komplek housing,komplek housing,Laundry Bunda,"Blk. C lorong futsal, Bahomakmur, Kec. Bahodopi, Kabupaten Morowali, Sulawesi Tengah 94974","Bahomakmur, Kec. Bahodopi, Kabupaten Morowali",SULAWESI TENGAH,94974.0,Indonesia,,,,-2.8175905,122.1295361,https://maps.google.com/?cid=0x0:0x832b0877eca58d51,
komplek housing,komplek housing,Kost Kirannuan,"54RQ+589, Bahomakmur, Kec. Bahodopi, Kabupaten Morowali, Sulawesi Tengah 94974","Bahomakmur, Kec. Bahodopi, Kabupaten Morowali",SULAWESI TENGAH,94974.0,Indonesia,,,,-2.809579,122.138372,https://maps.google.com/?cid=0x0:0x6be1b0f6be9a37d1,
komplek housing,Komplek perumahan,Kos pusat info,"54RF+GMV, Bahomakmur, Kec. Bahodopi, Kabupaten Morowali, Sulawesi Tengah","Kabupaten Morowali, Sulawesi Tengah",SULAWESI TENGAH,,Indonesia,,,,-2.8086681,122.1242398,https://maps.google.com/?cid=0x0:0xa5a2a6a0c060084b,
komplek housing,Pembangunan Perumahan,Perumahan,"45M8+8MM, Labota, Kec. Bahodopi, Kabupaten Morowali, Sulawesi Tengah","Kabupaten Morowali, Sulawesi Tengah",SULAWESI TENGAH,,Indonesia,,,,-2.866667,122.166667,https://maps.google.com/?cid=0x0:0x16cded17fc5d7fc5,
komplek housing,Komplek perumahan,rumah jdin,"Jalan 3 No.Blok B, Bahomakmur, Bahodopi, Morowali Regency, Central Sulawesi 94974","Bahomakmur, Bahodopi, Morowali Regency",SULAWESI TENGAH,94974.0,Indonesia,,,,-2.8121326,122.1408292,https://maps.google.com/?cid=0x0:0xc0b8558f29c257ae,
komplek housing,,Kost Biru (Enda's Home),"Kost Biru, Lorong GBI Blok C, Bahomakmur, Kec. Bahodopi, Kabupaten Morowali, Sulawesi Tengah 94974","Lorong GBI Blok C, Bahomakmur, Kec. Bahodopi, Kabupaten Morowali",SULAWESI TENGAH,94974.0,Indonesia,,,,-2.8168035,122.1269041,https://maps.google.com/?cid=0x0:0xac6c685a0bfee644,
komplek housing,Komplek perumahan,JESSLYN HOME,"Bahomakmur, Kec. Bahodopi, Kabupaten Morowali, Sulawesi Tengah 94974","Kec. Bahodopi, Kabupaten Morowali",SULAWESI TENGAH,94974.0,Indonesia,,,,-2.8148438,122.1359597,https://maps.google.com/?cid=0x0:0xe1d8516460ee4c9b,
komplek housing,Toko umum,Yunita Olshop TERMURAH,"Depan mesjid at taqwa, Blk. E, Bahomakmur, Kec. Bahodopi, Kabupaten Morowali, Sulawesi Tengah 94974","Blk. E, Bahomakmur, Kec. Bahodopi, Kabupaten Morowali",SULAWESI TENGAH,94974.0,Indonesia,85823177103.0,,,-2.8122625,122.1412031,https://maps.google.com/?cid=0x0:0xafd4e4ed37ddba49,
komplek housing,Pembangunan Perumahan,Pondok Nay,"54PW+H5V, Bahomakmur, Kec. Bahodopi, Kabupaten Morowali, Sulawesi Tengah 94974","Bahomakmur, Kec. Bahodopi, Kabupaten Morowali",SULAWESI TENGAH,94974.0,Indonesia,82293008456.0,,,-2.8143379,122.1456519,https://maps.google.com/?cid=0x0:0x3ef3cbe9238fae69,
komplek housing,Komplek perumahan,ney_Home,"Blk. A, Bahomakmur, Kec. Bahodopi, Kabupaten Morowali, Sulawesi Tengah 94974","Bahomakmur, Kec. Bahodopi, Kabupaten Morowali",SULAWESI TENGAH,94974.0,Indonesia,,,,-2.8101191,122.1273942,https://maps.google.com/?cid=0x0:0xc8e2da48884a17ea,
komplek housing,Komplek perumahan,Lorong Lupus 77,"54PV+4CV, Bahomakmur, Kec. Bahodopi, Kabupaten Morowali, Sulawesi Tengah 94974","Bahomakmur, Kec. Bahodopi, Kabupaten Morowali",SULAWESI TENGAH,94974.0,Indonesia,,,,-2.8146357,122.1435316,https://maps.google.com/?cid=0x0:0xf7998115fc73c4ff,
komplek housing,Pembangunan Perumahan,Rumah dan koss mangku bales,"54MJ+MPG, Bahomakmur, Kec. Bahodopi, Kabupaten Morowali, Sulawesi Tengah 94974","Bahomakmur, Kec. Bahodopi, Kabupaten Morowali",SULAWESI TENGAH,94974.0,Indonesia,,,,-2.8158018,122.1318985,https://maps.google.com/?cid=0x0:0x1511f9f6e4a10abc,
komplek housing,Komplek perumahan,Kos Wanto/Anton,"54PQ+HWF, Bahomakmur, Kec. Bahodopi, Kabupaten Morowali, Sulawesi Tengah 94974","Bahomakmur, Kec. Bahodopi, Kabupaten Morowali",SULAWESI TENGAH,94974.0,Indonesia,82293665199.0,,,-2.8135726,122.1398102,https://maps.google.com/?cid=0x0:0xac5bbbdcefbf6ced,
komplek housing,komplek housing,Nagita Sabrina,"54MH+5X8, Bahomakmur, Kec. Bahodopi, Kabupaten Morowali, Sulawesi Tengah 94974","Bahomakmur, Kec. Bahodopi, Kabupaten Morowali",SULAWESI TENGAH,94974.0,Indonesia,,,,-2.8170993,122.1299428,https://maps.google.com/?cid=0x0:0xb0c570d308387695,
komplek housing,komplek housing,penginapan wisma griyacendana,"54MF+MCC lorong torpedo, Bahomakmur, Kec. Bahodopi, Kabupaten Morowali, Sulawesi Tengah 94974","Bahomakmur, Kec. Bahodopi, Kabupaten Morowali",SULAWESI TENGAH,94974.0,Indonesia,,,,-2.8158169,122.1235054,https://maps.google.com/?cid=0x0:0x127c0e3bb4ccfb8d,
komplek housing,komplek housing,Kec. Bungku Pesisir,"Kabupaten Morowali, Sulawesi Tengah","Kabupaten Morowali, Sulawesi Tengah",SULAWESI TENGAH,,Indonesia,,,,-2.9964539,122.2721923,https://maps.google.com/?cid=0x0:0xb661b616fe308ec9,
komplek housing,Balai masyarakat,Desa Puungkeu,"37WX+VX, Puungkeu, Kec. Bungku Pesisir, Kabupaten Morowali, Sulawesi Tengah 94974","Puungkeu, Kec. Bungku Pesisir, Kabupaten Morowali",SULAWESI TENGAH,94974.0,Indonesia,,,,-2.9027848,122.2999471,https://maps.google.com/?cid=0x0:0x33c2c660581c2302,
komplek housing,Perhimpunan Pengembang Perumahan,Rumah nenek,"X6VM+7M4, Torete, Kec. Bungku Pesisir, Kabupaten Morowali, Sulawesi Tengah 94974","Torete, Kec. Bungku Pesisir, Kabupaten Morowali",SULAWESI TENGAH,94974.0,Indonesia,,,,-3.0068598,122.2341905,https://maps.google.com/?cid=0x0:0x33536d6a70960ea8,
komplek housing,Komplek perumahan,Lorong Mante,"X6QW+4M8, Torete, Kec. Bungku Pesisir, Kabupaten Morowali, Sulawesi Tengah 94974","Torete, Kec. Bungku Pesisir, Kabupaten Morowali",SULAWESI TENGAH,94974.0,Indonesia,,,,-3.0122014,122.2467101,https://maps.google.com/?cid=0x0:0x89cba569c92a2723,
komplek housing,Komplek perumahan,Moh Rikal,"X6QV+XV9, Torete, Kec. Bungku Pesisir, Kabupaten Morowali, Sulawesi Tengah 94974","Torete, Kec. Bungku Pesisir, Kabupaten Morowali",SULAWESI TENGAH,94974.0,Indonesia,,,,-3.0100817,122.2447245,https://maps.google.com/?cid=0x0:0xb085206986e90dca,
komplek housing,Pembangunan Perumahan,Pemukiman,"X6QV+WVV, Torete, Kec. Bungku Pesisir, Kabupaten Morowali, Sulawesi Tengah 94974","Torete, Kec. Bungku Pesisir, Kabupaten Morowali",SULAWESI TENGAH,94974.0,Indonesia,,,,-3.0101423,122.2446783,https://maps.google.com/?cid=0x0:0x55164e55a14c11f3,
komplek housing,Motel,Rumah Manto,"X6PC+9MF, Jalan Trans Sulawesi, Buleleng, Kec. Bungku Pesisir, Kabupaten Morowali, Sulawesi Tengah 94974","Jalan Trans Sulawesi, Buleleng, Kec. Bungku Pesisir, Kabupaten Morowali",SULAWESI TENGAH,94974.0,Indonesia,,,,-3.0142226,122.2209849,https://maps.google.com/?cid=0x0:0x59ed71b514a88086,
komplek housing,Kantor Perusahaan,PT. Mutiara Morowali Abadi,"X72H+65F, Laroenai, Kec. Bungku Pesisir, Kabupaten Morowali, Sulawesi Tengah 94974","Laroenai, Kec. Bungku Pesisir, Kabupaten Morowali",SULAWESI TENGAH,94974.0,Indonesia,,,,-3.049412,122.277556,https://maps.google.com/?cid=0x0:0x53dc44e955a6cdb2,
komplek housing,Komplek perumahan,Rumah adli,"X6VM+7M4, Torete, Kec. Bungku Pesisir, Kabupaten Morowali, Sulawesi Tengah 94974","Torete, Kec. Bungku Pesisir, Kabupaten Morowali",SULAWESI TENGAH,94974.0,Indonesia,,,,-3.0068598,122.2341905,https://maps.google.com/?cid=0x0:0x14a51e8483a1a34a,
komplek housing,komplek housing,Kec. Bungku Sel.,"Kabupaten Morowali, Sulawesi Tengah","Kabupaten Morowali, Sulawesi Tengah",SULAWESI TENGAH,,Indonesia,,,,-3.1416627,122.3998289,https://maps.google.com/?cid=0x0:0x8563743865c09fc9,
komplek housing,Pembangunan Perumahan,Muhammadin,"X94X+P2, Lokombulo, Kec. Bungku Sel., Kabupaten Morowali, Sulawesi Tengah","Kabupaten Morowali, Sulawesi Tengah",SULAWESI TENGAH,,Indonesia,,,,-3.043209,122.3975736,https://maps.google.com/?cid=0x0:0x4e17b4969302ac9,
komplek housing,Perhimpunan Pengembang Perumahan,DESA TANONA,"RFX5+F2, Lalemo, Kec. Bungku Sel., Kabupaten Morowali, Sulawesi Tengah","Kabupaten Morowali, Sulawesi Tengah",SULAWESI TENGAH,,Indonesia,,,,-3.1504163,122.4560615,https://maps.google.com/?cid=0x0:0x66eff35bfbf86853,
komplek housing,Perhimpunan Pengembang Perumahan,"Desa Jawi - Jawi, Kec. Bungku Selatan, Kab. Morowali, Sulteng","WCR4+7H9, Jalan Dewi Buana, Jawi Jawi, Kec. Bungku Sel., Kabupaten Morowali, Sulawesi Tengah 94974","Jalan Dewi Buana, Jawi Jawi, Kec. Bungku Sel., Kabupaten Morowali",SULAWESI TENGAH,94974.0,Indonesia,,,,-3.0593265,122.4064964,https://maps.google.com/?cid=0x0:0xd1b4e2c10e3cb3e5,
komplek housing,Pembangunan Perumahan,Desa Buajangka,"X98R+4G, Buajangka, Kec. Bungku Sel., Kabupaten Morowali, Sulawesi Tengah","Kabupaten Morowali, Sulawesi Tengah",SULAWESI TENGAH,,Indonesia,,,,-3.0346507,122.3913378,https://maps.google.com/?cid=0x0:0xa8171f5b1b7c37f4,
komplek housing,Komplek perumahan,Heriyanto,"XC3C+GW, Koburu, Kec. Bungku Sel., Kabupaten Morowali, Sulawesi Tengah","Kabupaten Morowali, Sulawesi Tengah",SULAWESI TENGAH,,Indonesia,,,,-3.0446647,122.4217859,https://maps.google.com/?cid=0x0:0x419d0ce9b8de3edc,
komplek housing,Komplek perumahan,Rumah ilham,"VC3G+746, Lalemo, Kec. Bungku Sel., Kabupaten Morowali, Sulawesi Tengah 94974","Lalemo, Kec. Bungku Sel., Kabupaten Morowali",SULAWESI TENGAH,94974.0,Indonesia,,,,-3.1472956,122.4255554,https://maps.google.com/?cid=0x0:0xbd03cdc51694e71b,
komplek housing,Perhimpunan Pengembang Perumahan,Rumah Saira arnan,"WCRC+8P, Buton, Kec. Bungku Sel., Kabupaten Morowali, Sulawesi Tengah","Kabupaten Morowali, Sulawesi Tengah",SULAWESI TENGAH,,Indonesia,,,,-3.0591214,122.4220467,https://maps.google.com/?cid=0x0:0x7b5f163450c4f14,
komplek housing,Komplek perumahan,Rmh. Q,"WFR8+43C, Pulau Dua, Kec. Bungku Sel., Kabupaten Morowali, Sulawesi Tengah 94974","Pulau Dua, Kec. Bungku Sel., Kabupaten Morowali",SULAWESI TENGAH,94974.0,Indonesia,,,,-3.0596982,122.4651381,https://maps.google.com/?cid=0x0:0x72706f417dbaf937,
komplek housing,Perhimpunan Pengembang Perumahan,Ningsih,"XC2F+XF, Koburu, Kec. Bungku Sel., Kabupaten Morowali, Sulawesi Tengah","Kabupaten Morowali, Sulawesi Tengah",SULAWESI TENGAH,,Indonesia,,,,-3.0475788,122.4237402,https://maps.google.com/?cid=0x0:0xafa0385e606fe557,
komplek housing,Komplek perumahan,Rumah adli,"XC3C+GW, Koburu, Kec. Bungku Sel., Kabupaten Morowali, Sulawesi Tengah","Kabupaten Morowali, Sulawesi Tengah",SULAWESI TENGAH,,Indonesia,,,,-3.045178,122.421848,https://maps.google.com/?cid=0x0:0xb87c836222b565b5,
komplek housing,Pembangunan Perumahan,pado pado,"X9P2+3Q4, Pado Pado, Kec. Bungku Sel., Kabupaten Morowali, Sulawesi Tengah 94974","Pado Pado, Kec. Bungku Sel., Kabupaten Morowali",SULAWESI TENGAH,94974.0,Indonesia,,,,-3.0148655,122.3519504,https://maps.google.com/?cid=0x0:0xcc13d9907cbcc51a,
komplek housing,Komplek perumahan,Rumah Sekdes (MASHAR),"WFQ8+Q7W, Pulau Dua, Kec. Bungku Sel., Kabupaten Morowali, Sulawesi Tengah","Kabupaten Morowali, Sulawesi Tengah",SULAWESI TENGAH,,Indonesia,,,,-3.0605011,122.4657049,https://maps.google.com/?cid=0x0:0xf9611f50b9d5e563,
komplek housing,Komplek perumahan,Rumah aswan,"VC3G+WJ9, Lalemo, Kec. Bungku Sel., Kabupaten Morowali, Sulawesi Tengah 94974","Lalemo, Kec. Bungku Sel., Kabupaten Morowali",SULAWESI TENGAH,94974.0,Indonesia,,,,-3.145217,122.4266014,https://maps.google.com/?cid=0x0:0xc1677b24e808a505,
komplek housing,Komplek perumahan,Hafiz,"VC3G+92X, Lalemo, Kec. Bungku Sel., Kabupaten Morowali, Sulawesi Tengah 94974","Lalemo, Kec. Bungku Sel., Kabupaten Morowali",SULAWESI TENGAH,94974.0,Indonesia,,,,-3.1467656,122.4249592,https://maps.google.com/?cid=0x0:0xd85c7de4ffd243f5,
komplek housing,Komplek perumahan,Lorong bambong,"XC52+J2C, Lokombulo, Kec. Bungku Sel., Kabupaten Morowali, Sulawesi Tengah","Kabupaten Morowali, Sulawesi Tengah",SULAWESI TENGAH,,Indonesia,,,,-3.040944,122.4000032,https://maps.google.com/?cid=0x0:0x99aa2caa54b60585,
komplek housing,komplek housing,Rumah Pak Nasrullah,"VJC5+6FF, Sainoa, Kec. Bungku Sel., Kabupaten Morowali, Sulawesi Tengah","Kabupaten Morowali, Sulawesi Tengah",SULAWESI TENGAH,,Indonesia,,,,-3.1294374,122.6086651,https://maps.google.com/?cid=0x0:0x682aefa46a5eb7b3,
komplek housing,Komplek perumahan,Hafiz firza,"RCH7+W3H, Lalemo, Kec. Bungku Sel., Kabupaten Morowali, Sulawesi Tengah 94974","Lalemo, Kec. Bungku Sel., Kabupaten Morowali",SULAWESI TENGAH,94974.0,Indonesia,,,,-3.1701801,122.4127472,https://maps.google.com/?cid=0x0:0x3bbdbbdb3a01535c,
komplek housing,Komplek perumahan,Rumah Arsyad,"V95X+8WP, Lamontoli, Kec. Bungku Sel., Kabupaten Morowali, Sulawesi Tengah","Kabupaten Morowali, Sulawesi Tengah",SULAWESI TENGAH,,Indonesia,,,,-3.14112,122.3994035,https://maps.google.com/?cid=0x0:0xd124b878c90ca4a0,
komplek housing,Komplek perumahan,Rumah Heri,"XC4C+4PJ, Koburu, Kec. Bungku Sel., Kabupaten Morowali, Sulawesi Tengah 94974","Koburu, Kec. Bungku Sel., Kabupaten Morowali",SULAWESI TENGAH,94974.0,Indonesia,,,,-3.0446623,122.4217802,https://maps.google.com/?cid=0x0:0xe1d2d9f2f97d077,
komplek housing,Komplek perumahan,Rmh Marsa,"WFR8+4VM, Pulau Dua, Kec. Bungku Sel., Kabupaten Morowali, Sulawesi Tengah","Kabupaten Morowali, Sulawesi Tengah",SULAWESI TENGAH,,Indonesia,,,,-3.0585529,122.4665673,https://maps.google.com/?cid=0x0:0x758a96c29b0c3692,
komplek housing,Komplek perumahan,H.makmur rabani,"XC3C+GW, Koburu, Kec. Bungku Sel., Kabupaten Morowali, Sulawesi Tengah","Kabupaten Morowali, Sulawesi Tengah",SULAWESI TENGAH,,Indonesia,,,,-3.044876,122.421698,https://maps.google.com/?cid=0x0:0x6b2b95a13549bbc5,
komplek housing,Komplek perumahan,RUMAH RIFLAN,"WCRF+J2J, Buton, Kec. Bungku Sel., Kabupaten Morowali, Sulawesi Tengah 94974","Buton, Kec. Bungku Sel., Kabupaten Morowali",SULAWESI TENGAH,94974.0,Indonesia,,,,-3.0584166,122.4225235,https://maps.google.com/?cid=0x0:0x98359c890beb3f05,
komplek housing,Perhimpunan Pengembang Perumahan,Kebun pisang,"VC3F+F3, Lalemo, Kec. Bungku Sel., Kabupaten Morowali, Sulawesi Tengah 94974","Lalemo, Kec. Bungku Sel., Kabupaten Morowali",SULAWESI TENGAH,94974.0,Indonesia,,,,-3.1463639,122.4227297,https://maps.google.com/?cid=0x0:0x901fd14f1c083b15,
komplek housing,Pembangunan Perumahan,Perumahan PPR Bahodopi Residence,"6433+26H, Unnamed Road, Bahodopi, Kec. Bahodopi, Kabupaten Morowali, Sulawesi Tengah 94974","Unnamed Road, Bahodopi, Kec. Bahodopi, Kabupaten Morowali",SULAWESI TENGAH,94974.0,Indonesia,,,,-2.7974443,122.1031108,https://maps.google.com/?cid=0x0:0xec2078c7d6f2cd35,
komplek housing,komplek housing,"Ahmad madung,S.H","RFCJ+878, Tj. Harapan, Menui Kepulauan, Kabupaten Morowali, Sulawesi Tengah 94974","Tj. Harapan, Menui Kepulauan, Kabupaten Morowali",SULAWESI TENGAH,94974.0,Indonesia,,,,-3.178925,122.480968,https://maps.google.com/?cid=0x0:0x4ac1beb5d584267f,
komplek housing,komplek housing,Rumah Madung,"RFCJ+878, Tj. Harapan, Menui Kepulauan, Kabupaten Morowali, Sulawesi Tengah 94974","Tj. Harapan, Menui Kepulauan, Kabupaten Morowali",SULAWESI TENGAH,94974.0,Indonesia,,,,-3.17881,122.480854,https://maps.google.com/?cid=0x0:0x884211c45e9f80fd,
komplek housing,komplek housing,SADRI HOME,"CX2Q+9CF, Puungkoilu, Kec. Bungku Tengah, Kabupaten Morowali, Sulawesi Tengah 94973","Puungkoilu, Kec. Bungku Tengah, Kabupaten Morowali",SULAWESI TENGAH,94973.0,Indonesia,,,,-2.5983773,121.9879496,https://maps.google.com/?cid=0x0:0xba7f1c9f90ed62af,
komplek housing,komplek housing,Sulawesi Tengah 94973,"Kec. Bungku Tengah, Kabupaten Morowali, Sulawesi Tengah","Kabupaten Morowali, Sulawesi Tengah",SULAWESI TENGAH,,Indonesia,,,,-2.6659253,121.856261,https://maps.google.com/?cid=0x0:0x20bfb697387a3fcd,
komplek housing,Komplek perumahan,Kos NHN,"GW6Q+G32, Bente, Kec. Bungku Tengah, Kabupaten Morowali, Sulawesi Tengah 94973","Bente, Kec. Bungku Tengah, Kabupaten Morowali",SULAWESI TENGAH,94973.0,Indonesia,,,,-2.4887311,121.9376461,https://maps.google.com/?cid=0x0:0xb9ca675ef3dec204,
komplek housing,Komplek perumahan,Harjono Home,"CXXF+FF7, Tofoiso, Kec. Bungku Tengah, Kabupaten Morowali, Sulawesi Tengah 94973","Tofoiso, Kec. Bungku Tengah, Kabupaten Morowali",SULAWESI TENGAH,94973.0,Indonesia,,,,-2.5520052,121.9745084,https://maps.google.com/?cid=0x0:0xc9d7b69cdf3b7a78,
komplek housing,Pembangunan Perumahan,Kos 46 Rossi,"GWHF+MXC, Bahomohoni, Kec. Bungku Tengah, Kabupaten Morowali, Sulawesi Tengah 94973","Bahomohoni, Kec. Bungku Tengah, Kabupaten Morowali",SULAWESI TENGAH,94973.0,Indonesia,,,,-2.4714424,121.9263071,https://maps.google.com/?cid=0x0:0x6c4c178a34115d0b,
komplek housing,komplek housing,Rumah Anggi,"CX3P+VW4, Bungku - Bahodopi, Puungkoilu, Kec. Bungku Tengah, Kabupaten Morowali, Sulawesi Tengah 94973","Bungku - Bahodopi, Puungkoilu, Kec. Bungku Tengah, Kabupaten Morowali",SULAWESI TENGAH,94973.0,Indonesia,,,,-2.5956108,121.9873361,https://maps.google.com/?cid=0x0:0x3ecba494e1609e66,
komplek housing,Komplek perumahan,Masagena Home Stay,"HW54+G7, Bahomante, Kec. Bungku Tengah, Kabupaten Morowali, Sulawesi Tengah 94973","Bahomante, Kec. Bungku Tengah, Kabupaten Morowali",SULAWESI TENGAH,94973.0,Indonesia,,,,-2.441194,121.90573,https://maps.google.com/?cid=0x0:0x3756c696f5734be6,
komplek housing,Komplek perumahan,HAS HOME,"CX2Q+V4P, Puungkoilu, Kec. Bungku Tengah, Kabupaten Morowali, Sulawesi Tengah 94973","Puungkoilu, Kec. Bungku Tengah, Kabupaten Morowali",SULAWESI TENGAH,94973.0,Indonesia,,,,-2.5973996,121.9877733,https://maps.google.com/?cid=0x0:0x7e976e036254f3d4,
komplek housing,Komplek perumahan,Tanahku,"FX38+825, Lamberea, Kec. Bungku Tengah, Kabupaten Morowali, Sulawesi Tengah 94973","Lamberea, Kec. Bungku Tengah, Kabupaten Morowali",SULAWESI TENGAH,94973.0,Indonesia,,,,-2.5467258,121.9651046,https://maps.google.com/?cid=0x0:0xac81929ec6481dca,
komplek housing,Komplek perumahan,Kompleks Lamontoli,"FWPX+M4C, Bahoruru, Kec. Bungku Tengah, Kabupaten Morowali, Sulawesi Tengah 94973","Bahoruru, Kec. Bungku Tengah, Kabupaten Morowali",SULAWESI TENGAH,94973.0,Indonesia,,,,-2.5133022,121.9477745,https://maps.google.com/?cid=0x0:0x5065b7c8c5d03345,
komplek housing,Pertanian,Taufan Rumah,"CX2Q+9CF, Puungkoilu, Kec. Bungku Tengah, Kabupaten Morowali, Sulawesi Tengah 94973","Puungkoilu, Kec. Bungku Tengah, Kabupaten Morowali",SULAWESI TENGAH,94973.0,Indonesia,,,,-2.598463,121.9885001,https://maps.google.com/?cid=0x0:0x44806ed3f8f4e212,
komplek housing,Pembangunan Perumahan,Kos BTN H. Nunu No. 1,"GWGG+PX9 Kompleks KTM, Jln. Gajah, Bahomohoni, Kec. Bungku Tengah, Kabupaten Morowali, Sulawesi Tengah 94973","Jln. Gajah, Bahomohoni, Kec. Bungku Tengah, Kabupaten Morowali",SULAWESI TENGAH,94973.0,Indonesia,,,,-2.4732053,121.9274757,https://maps.google.com/?cid=0x0:0x267682d2d2ccaed4,
komplek housing,Komplek perumahan,Fajhy Home,"CX4Q+468, Morobhyo, Puungkoilu, Kec. Bungku Tengah, Kabupaten Morowali, Sulawesi Tengah","Kabupaten Morowali, Sulawesi Tengah",SULAWESI TENGAH,,Indonesia,,,,-2.5947011,121.988066,https://maps.google.com/?cid=0x0:0xe78af1e02aaed229,
komplek housing,Komplek perumahan,Jay,"82X9+25, Laroue, Kec. Bungku Timur, Kabupaten Morowali, Sulawesi Tengah 94973","Laroue, Kec. Bungku Timur, Kabupaten Morowali",SULAWESI TENGAH,94973.0,Indonesia,,,,-2.6524834,122.0178193,https://maps.google.com/?cid=0x0:0xd5768eff263fa4b,
komplek housing,Komplek perumahan,Perumahan lanona,"FQVX+PP4, Lanona, Kec. Bungku Tengah, Kabupaten Morowali, Sulawesi Tengah","Kabupaten Morowali, Sulawesi Tengah",SULAWESI TENGAH,,Indonesia,,,,-2.5057471,121.7993168,https://maps.google.com/?cid=0x0:0x53e9d92bb5163302,
komplek housing,Hotel,Kos AL Putih,"FWVV+9W7, Ipi, Kec. Bungku Tengah, Kabupaten Morowali, Sulawesi Tengah 94973","Ipi, Kec. Bungku Tengah, Kabupaten Morowali",SULAWESI TENGAH,94973.0,Indonesia,,,,-2.5058319,121.9441351,https://maps.google.com/?cid=0x0:0xf9c9c1288fd61b8d,
komplek housing,Komplek perumahan,Kios HD,"9X2X+99Q, Nambo, Kec. Bungku Timur, Kabupaten Morowali, Sulawesi Tengah","Kabupaten Morowali, Sulawesi Tengah",SULAWESI TENGAH,,Indonesia,,,,-2.6490391,121.9984936,https://maps.google.com/?cid=0x0:0x439f1077090d4a8d,
komplek housing,Komplek perumahan,Grandma home,"8WFJ+93H, Lahuafu, Kec. Bungku Timur, Kabupaten Morowali, Sulawesi Tengah 94973","Lahuafu, Kec. Bungku Timur, Kabupaten Morowali",SULAWESI TENGAH,94973.0,Indonesia,,,,-2.6765722,121.9302449,https://maps.google.com/?cid=0x0:0x845631dda6aee4f,
komplek housing,Komplek perumahan,Nata Home,"FWJW+CC, Bahoruru, Kec. Bungku Tengah, Kabupaten Morowali, Sulawesi Tengah 94973","Bahoruru, Kec. Bungku Tengah, Kabupaten Morowali",SULAWESI TENGAH,94973.0,Indonesia,,,,-2.520229,121.9458051,https://maps.google.com/?cid=0x0:0xa573b8102c1d510b,
komplek housing,Komplek perumahan,Nambo,"9X2X+99Q, Nambo, Kec. Bungku Timur, Kabupaten Morowali, Sulawesi Tengah","Kabupaten Morowali, Sulawesi Tengah",SULAWESI TENGAH,,Indonesia,,,,-2.6490391,121.9984936,https://maps.google.com/?cid=0x0:0x5281b7962d4b7404,
komplek housing,Kantor Perusahaan,Perumahan FAT Residence,"FWJW+CC, Bahoruru, Kec. Bungku Tengah, Kabupaten Morowali, Sulawesi Tengah 94973","Bahoruru, Kec. Bungku Tengah, Kabupaten Morowali",SULAWESI TENGAH,94973.0,Indonesia,82251185533.0,,,-2.5189,121.9460158,https://maps.google.com/?cid=0x0:0xd5ece9299b0e227a,
komplek housing,Komplek perumahan,Kompleks Kofalagadi,"FWGJ+J3Q, Ipi, Kec. Bungku Tengah, Kabupaten Morowali, Sulawesi Tengah","Kabupaten Morowali, Sulawesi Tengah",SULAWESI TENGAH,,Indonesia,,,,-2.5234196,121.9302449,https://maps.google.com/?cid=0x0:0x118c89ca0557f9d7,
komplek housing,Agen Properti,Kos 3 Putra ( Kos Hijau),"GWQF+42M depan indomaret kompkex SPBu, Jl. Trans Sulawesi, Bahomohoni, Bungku Tengah, Morowali Regency, Central Sulawesi 94973","Jl. Trans Sulawesi, Bahomohoni, Bungku Tengah, Morowali Regency",SULAWESI TENGAH,94973.0,Indonesia,,,,-2.4621635,121.92255,https://maps.google.com/?cid=0x0:0x203321213e541b07,
komplek housing,Komplek perumahan,Suhartin Home,"RT 05, Puungkoilu","Kabupaten Morowali, Sulawesi Tengah",SULAWESI TENGAH,,Indonesia,,,,-2.5995921,121.9884498,https://maps.google.com/?cid=0x0:0x8c4436799e4b1aa0,
komplek housing,komplek housing,Kec. Bungku Tengah,"Kabupaten Morowali, Sulawesi Tengah","Kabupaten Morowali, Sulawesi Tengah",SULAWESI TENGAH,,Indonesia,,,,-2.5445405,121.9661071,https://maps.google.com/?cid=0x0:0x2b713d0f310ea939,
komplek housing,Komplek perumahan,RUMAH MAMA EHA,"Sakita, Kec. Bungku Tengah, Kabupaten Morowali, Sulawesi Tengah 94973","Kec. Bungku Tengah, Kabupaten Morowali",SULAWESI TENGAH,94973.0,Indonesia,,,,-2.5593056,121.9647143,https://maps.google.com/?cid=0x0:0x1532ba3ea2dccf37,
komplek housing,Komplek perumahan,Irham,"CXXF+FF7, Tofoiso, Kec. Bungku Tengah, Kabupaten Morowali, Sulawesi Tengah 94973","Tofoiso, Kec. Bungku Tengah, Kabupaten Morowali",SULAWESI TENGAH,94973.0,Indonesia,,,,-2.5521091,121.9744029,https://maps.google.com/?cid=0x0:0x64316453d30060a1,
komplek housing,Pembangunan Perumahan,Bahomante,"HW62+6G6, Bahomante, Kec. Bungku Tengah, Kabupaten Morowali, Sulawesi Tengah 94973","Bahomante, Kec. Bungku Tengah, Kabupaten Morowali",SULAWESI TENGAH,94973.0,Indonesia,,,,-2.4394571,121.9012548,https://maps.google.com/?cid=0x0:0x5518118a41dfff3d,
komplek housing,Komplek perumahan,Rumah kayu tiang besar,"Jl.jarbo, Bahomohoni, Kec. Bungku Tengah, Kabupaten Morowali, Sulawesi Tengah 94973","Bahomohoni, Kec. Bungku Tengah, Kabupaten Morowali",SULAWESI TENGAH,94973.0,Indonesia,,,,-2.591472,121.7765309,https://maps.google.com/?cid=0x0:0xdfbf67d8c79fe54c,
komplek housing,komplek housing,Sulawesi Tengah 94973,"Kec. Bungku Tengah, Kabupaten Morowali, Sulawesi Tengah","Kabupaten Morowali, Sulawesi Tengah",SULAWESI TENGAH,,Indonesia,,,,-2.6659253,121.856261,https://maps.google.com/?cid=0x0:0x20bfb697387a3fcd,
komplek housing,Komplek perumahan,Bungku timur,"CXQH+F6, Tofuti, Kec. Bungku Tengah, Kabupaten Morowali, Sulawesi Tengah","Kabupaten Morowali, Sulawesi Tengah",SULAWESI TENGAH,,Indonesia,,,,-2.5613483,121.97811,https://maps.google.com/?cid=0x0:0x6bd43aab0b753abb,
komplek housing,Kantor Perusahaan,Perumahan FAT Residence,"FWJW+CC, Bahoruru, Kec. Bungku Tengah, Kabupaten Morowali, Sulawesi Tengah 94973","Bahoruru, Kec. Bungku Tengah, Kabupaten Morowali",SULAWESI TENGAH,94973.0,Indonesia,82251185533.0,,,-2.5189,121.9460158,https://maps.google.com/?cid=0x0:0xd5ece9299b0e227a,
komplek housing,Komplek perumahan,Perumahan BTN Bahoruru,"Fat Residence Blok B No. 8, Bahoruru, Kec. Bungku Tengah, Kabupaten Morowali, Sulawesi Tengah","Kabupaten Morowali, Sulawesi Tengah",SULAWESI TENGAH,,Indonesia,,,,-2.5215709,121.9488189,https://maps.google.com/?cid=0x0:0xfb7d8742f2f6e14d,
komplek housing,Bank,Btn Bungku Persada,"GWFJ+4W2, Jl. Trans Sulawesi, Bahomohoni, Kec. Bungku Tengah, Kabupaten Morowali, Sulawesi Tengah 94973","Jl. Trans Sulawesi, Bahomohoni, Kec. Bungku Tengah, Kabupaten Morowali",SULAWESI TENGAH,94973.0,Indonesia,,,,-2.4772407,121.9322545,https://maps.google.com/?cid=0x0:0xf891d79a5eb62f48,
komplek housing,Komplek perumahan,Ibu wahida,"82G5+79P, Kolono, Kec. Bungku Timur, Kabupaten Morowali, Sulawesi Tengah 94973","Kolono, Kec. Bungku Timur, Kabupaten Morowali",SULAWESI TENGAH,94973.0,Indonesia,,,,-2.6748274,122.0085154,https://maps.google.com/?cid=0x0:0xaff7ef33613061fc,
komplek housing,komplek housing,Rumah Jihan  Arkana,"92C2+MC4, Unsongi, Kec. Bungku Timur, Kabupaten Morowali, Sulawesi Tengah","Kabupaten Morowali, Sulawesi Tengah",SULAWESI TENGAH,,Indonesia,,,,-2.628943,122.0009298,https://maps.google.com/?cid=0x0:0x1e916ee71b283408,
komplek housing,komplek housing,SADRI HOME,"CX2Q+9CF, Puungkoilu, Kec. Bungku Tengah, Kabupaten Morowali, Sulawesi Tengah 94973","Puungkoilu, Kec. Bungku Tengah, Kabupaten Morowali",SULAWESI TENGAH,94973.0,Indonesia,,,,-2.5983773,121.9879496,https://maps.google.com/?cid=0x0:0xba7f1c9f90ed62af,
komplek housing,Komplek perumahan,Grandma home,"8WFJ+93H, Lahuafu, Kec. Bungku Timur, Kabupaten Morowali, Sulawesi Tengah 94973","Lahuafu, Kec. Bungku Timur, Kabupaten Morowali",SULAWESI TENGAH,94973.0,Indonesia,,,,-2.6765722,121.9302449,https://maps.google.com/?cid=0x0:0x845631dda6aee4f,
komplek housing,Komplek perumahan,Jay,"82X9+25, Laroue, Kec. Bungku Timur, Kabupaten Morowali, Sulawesi Tengah 94973","Laroue, Kec. Bungku Timur, Kabupaten Morowali",SULAWESI TENGAH,94973.0,Indonesia,,,,-2.6524834,122.0178193,https://maps.google.com/?cid=0x0:0xd5768eff263fa4b,
komplek housing,Pembangunan Perumahan,Kompleks menui,"GWJC+XVG, Bahomohoni, Kec. Bungku Tengah, Kabupaten Morowali, Sulawesi Tengah 94973","Bahomohoni, Kec. Bungku Tengah, Kabupaten Morowali",SULAWESI TENGAH,94973.0,Indonesia,,,,-2.4670245,121.9221369,https://maps.google.com/?cid=0x0:0xa29f6d61f0e86ccc,
komplek housing,Komplek perumahan,Harjono Home,"CXXF+FF7, Tofoiso, Kec. Bungku Tengah, Kabupaten Morowali, Sulawesi Tengah 94973","Tofoiso, Kec. Bungku Tengah, Kabupaten Morowali",SULAWESI TENGAH,94973.0,Indonesia,,,,-2.5520052,121.9745084,https://maps.google.com/?cid=0x0:0xc9d7b69cdf3b7a78,
komplek housing,komplek housing,PERCETAKAN ANUNTO PRINT,"8X99+44X, Ululere, Kec. Bungku Timur, Kabupaten Morowali, Sulawesi Tengah","Kabupaten Morowali, Sulawesi Tengah",SULAWESI TENGAH,,Indonesia,85757239811.0,,,-2.6817165,121.9677298,https://maps.google.com/?cid=0x0:0x44cd0d330fcfc002,
komplek housing,Kantor Pemerintah Distrik,Bungku,"7XVQ+V92, Bahomoahi, Kec. Bungku Timur, Kabupaten Morowali, Sulawesi Tengah","Kabupaten Morowali, Sulawesi Tengah",SULAWESI TENGAH,,Indonesia,,,,-2.705374,121.988403,https://maps.google.com/?cid=0x0:0x44374f45ae27443e,
komplek housing,Komplek perumahan,Kios ancha,"7X8X+79X, Onepute Jaya, Kec. Bungku Timur, Kabupaten Morowali, Sulawesi Tengah 94973","Onepute Jaya, Kec. Bungku Timur, Kabupaten Morowali",SULAWESI TENGAH,94973.0,Indonesia,85219003458.0,,,-2.73426,121.9984936,https://maps.google.com/?cid=0x0:0xd4d1a9a6d9ea9c4a,
komplek housing,Pembangunan Perumahan,Kos 46 Rossi,"GWHF+MXC, Bahomohoni, Kec. Bungku Tengah, Kabupaten Morowali, Sulawesi Tengah 94973","Bahomohoni, Kec. Bungku Tengah, Kabupaten Morowali",SULAWESI TENGAH,94973.0,Indonesia,,,,-2.4714424,121.9263071,https://maps.google.com/?cid=0x0:0x6c4c178a34115d0b,
komplek housing,Pembangunan Perumahan,KOSTAN OM BABU,"FXQ2+XC9, Ipi, Kec. Bungku Tengah, Kabupaten Morowali, Sulawesi Tengah 94973","Ipi, Kec. Bungku Tengah, Kabupaten Morowali",SULAWESI TENGAH,94973.0,Indonesia,,,,-2.5100773,121.9511024,https://maps.google.com/?cid=0x0:0xf11c06a2ffb8f11a,
komplek housing,komplek housing,Rumah Ean,"82W9+GWV, Laroue, Kec. Bungku Timur, Kabupaten Morowali, Sulawesi Tengah 94973","Laroue, Kec. Bungku Timur, Kabupaten Morowali",SULAWESI TENGAH,94973.0,Indonesia,,,,-2.65255,122.019615,https://maps.google.com/?cid=0x0:0xe7bfd1d75c84b78d,
komplek housing,Pembangunan Perumahan,Nenek daffa,"82G5+79P, Kolono, Kec. Bungku Timur, Kabupaten Morowali, Sulawesi Tengah 94973","Kolono, Kec. Bungku Timur, Kabupaten Morowali",SULAWESI TENGAH,94973.0,Indonesia,,,,-2.6747127,122.008556,https://maps.google.com/?cid=0x0:0x2a94cfbd8db5d87d,
komplek housing,Pembangunan Perumahan,Bahomoahi,"72Q4+VH6, Bahomoahi, Kec. Bungku Timur, Kabupaten Morowali, Sulawesi Tengah","Kabupaten Morowali, Sulawesi Tengah",SULAWESI TENGAH,,Indonesia,,,,-2.7103294,122.0063915,https://maps.google.com/?cid=0x0:0x5c2b5723a5b1378b,
komplek housing,Komplek perumahan,Kos NHN,"GW6Q+G32, Bente, Kec. Bungku Tengah, Kabupaten Morowali, Sulawesi Tengah 94973","Bente, Kec. Bungku Tengah, Kabupaten Morowali",SULAWESI TENGAH,94973.0,Indonesia,,,,-2.4887311,121.9376461,https://maps.google.com/?cid=0x0:0xb9ca675ef3dec204,
komplek housing,komplek housing,Rumah Anggi,"CX3P+VW4, Bungku - Bahodopi, Puungkoilu, Kec. Bungku Tengah, Kabupaten Morowali, Sulawesi Tengah 94973","Bungku - Bahodopi, Puungkoilu, Kec. Bungku Tengah, Kabupaten Morowali",SULAWESI TENGAH,94973.0,Indonesia,,,,-2.5956108,121.9873361,https://maps.google.com/?cid=0x0:0x3ecba494e1609e66,
komplek housing,Komplek perumahan,Kompleks Lamontoli,"FWPX+M4C, Bahoruru, Kec. Bungku Tengah, Kabupaten Morowali, Sulawesi Tengah 94973","Bahoruru, Kec. Bungku Tengah, Kabupaten Morowali",SULAWESI TENGAH,94973.0,Indonesia,,,,-2.5133022,121.9477745,https://maps.google.com/?cid=0x0:0x5065b7c8c5d03345,
komplek housing,Komplek perumahan,Nambo,"9X2X+99Q, Nambo, Kec. Bungku Timur, Kabupaten Morowali, Sulawesi Tengah","Kabupaten Morowali, Sulawesi Tengah",SULAWESI TENGAH,,Indonesia,,,,-2.6490391,121.9984936,https://maps.google.com/?cid=0x0:0x5281b7962d4b7404,
komplek housing,Komplek perumahan,Tanahku,"FX38+825, Lamberea, Kec. Bungku Tengah, Kabupaten Morowali, Sulawesi Tengah 94973","Lamberea, Kec. Bungku Tengah, Kabupaten Morowali",SULAWESI TENGAH,94973.0,Indonesia,,,,-2.5467258,121.9651046,https://maps.google.com/?cid=0x0:0xac81929ec6481dca,
komplek housing,Pertanian,Taufan Rumah,"CX2Q+9CF, Puungkoilu, Kec. Bungku Tengah, Kabupaten Morowali, Sulawesi Tengah 94973","Puungkoilu, Kec. Bungku Tengah, Kabupaten Morowali",SULAWESI TENGAH,94973.0,Indonesia,,,,-2.598463,121.9885001,https://maps.google.com/?cid=0x0:0x44806ed3f8f4e212,
komplek housing,Komplek perumahan,HAS HOME,"CX2Q+V4P, Puungkoilu, Kec. Bungku Tengah, Kabupaten Morowali, Sulawesi Tengah 94973","Puungkoilu, Kec. Bungku Tengah, Kabupaten Morowali",SULAWESI TENGAH,94973.0,Indonesia,,,,-2.5973996,121.9877733,https://maps.google.com/?cid=0x0:0x7e976e036254f3d4,
komplek housing,Komplek perumahan,Nata Home,"FWJW+CC, Bahoruru, Kec. Bungku Tengah, Kabupaten Morowali, Sulawesi Tengah 94973","Bahoruru, Kec. Bungku Tengah, Kabupaten Morowali",SULAWESI TENGAH,94973.0,Indonesia,,,,-2.520229,121.9458051,https://maps.google.com/?cid=0x0:0xa573b8102c1d510b,
komplek housing,Komplek perumahan,Kios HD,"9X2X+99Q, Nambo, Kec. Bungku Timur, Kabupaten Morowali, Sulawesi Tengah","Kabupaten Morowali, Sulawesi Tengah",SULAWESI TENGAH,,Indonesia,,,,-2.6490391,121.9984936,https://maps.google.com/?cid=0x0:0x439f1077090d4a8d,
komplek housing,komplek housing,Sulawesi Tengah 94972,"Kabupaten Morowali Utara, Sulawesi Tengah","Kabupaten Morowali Utara, Sulawesi Tengah",SULAWESI TENGAH,,Indonesia,,,,-1.6248083,121.7195459,https://maps.google.com/?cid=0x0:0xe9e478f27d681886,
komplek housing,Pembangunan Perumahan,"Sulteng, morowali utara, petasia timur poranda, bungintimbe","HC9W+59H, Taronggo, Kec. Bungku Utara, Kabupaten Morowali Utara, Sulawesi Tengah","Kabupaten Morowali Utara, Sulawesi Tengah",SULAWESI TENGAH,,Indonesia,82171124485.0,,,-1.4320653,121.4459985,https://maps.google.com/?cid=0x0:0xd66516c8e4a80915,
komplek housing,Komplek perumahan,Lemo,"8Q93+2FH, Lemo, Kec. Bungku Utara, Kabupaten Morowali, Sulawesi Tengah 94972","Lemo, Kec. Bungku Utara, Kabupaten Morowali",SULAWESI TENGAH,94972.0,Indonesia,,,,-1.6824256,121.7537404,https://maps.google.com/?cid=0x0:0x39a90714a2aa0067,
komplek housing,Komplek perumahan,Tempat ba kenduÂ²,"HC9W+X6Q, Taronggo, Kec. Bungku Utara, Kabupaten Morowali Utara, Sulawesi Tengah","Kabupaten Morowali Utara, Sulawesi Tengah",SULAWESI TENGAH,,Indonesia,,,,-1.4300254,121.4456179,https://maps.google.com/?cid=0x0:0xa8f7a8c8ae27000f,
komplek housing,Komplek perumahan,rumah anca,"7RC4+2FG, Siliti, Kec. Bungku Utara, Kabupaten Morowali Utara, Sulawesi Tengah 94972","Siliti, Kec. Bungku Utara, Kabupaten Morowali Utara",SULAWESI TENGAH,94972.0,Indonesia,,,,-1.7298263,121.8067828,https://maps.google.com/?cid=0x0:0x75aa65c8456f4282,
komplek housing,Perhimpunan Pengembang Perumahan,Home indi,"HC9W+X6Q, Taronggo, Kec. Bungku Utara, Kabupaten Morowali Utara, Sulawesi Tengah","Kabupaten Morowali Utara, Sulawesi Tengah",SULAWESI TENGAH,,Indonesia,,,,-1.4300254,121.4456179,https://maps.google.com/?cid=0x0:0x5c042c18186b74d1,
komplek housing,Komplek perumahan,Aqsa Home,"Jln Tinumbu No.Rt 02, Dusun Ini, Siliti, Kec. Bungku Utara, Kabupaten Morowali Utara, Sulawesi Tengah 94972","Dusun Ini, Siliti, Kec. Bungku Utara, Kabupaten Morowali Utara",SULAWESI TENGAH,94972.0,Indonesia,,,,-1.7285542,121.8074229,https://maps.google.com/?cid=0x0:0xe7b688dec4a4f6b6,
komplek housing,Komplek perumahan,Lorong,"7Q55+F75, Tirongan Atas, Kec. Bungku Utara, Kabupaten Morowali Utara, Sulawesi Tengah","Kabupaten Morowali Utara, Sulawesi Tengah",SULAWESI TENGAH,,Indonesia,,,,-1.7416905,121.7575755,https://maps.google.com/?cid=0x0:0x5fdef3c09719ec61,
komplek housing,Komplek perumahan,Pondok mulia jaya,"9993+GMF, Matube, Kec. Bungku Utara, Kabupaten Morowali Utara, Sulawesi Tengah","Kabupaten Morowali Utara, Sulawesi Tengah",SULAWESI TENGAH,,Indonesia,,,,-1.6311761,121.3541631,https://maps.google.com/?cid=0x0:0x3e14ffc9902ebe03,
komplek housing,Komplek perumahan,Hanga Hanga,"HC9W+X6Q, Taronggo, Kec. Bungku Utara, Kabupaten Morowali Utara, Sulawesi Tengah","Kabupaten Morowali Utara, Sulawesi Tengah",SULAWESI TENGAH,,Indonesia,,,,-1.4300254,121.4456179,https://maps.google.com/?cid=0x0:0xb98df470084a28a2,
komplek housing,Komplek perumahan,Wainci bau bau,"HC9W+X6Q, Taronggo, Kec. Bungku Utara, Kabupaten Morowali Utara, Sulawesi Tengah","Kabupaten Morowali Utara, Sulawesi Tengah",SULAWESI TENGAH,,Indonesia,,,,-1.4300254,121.4456179,https://maps.google.com/?cid=0x0:0x24b84236bf4f0965,
komplek housing,Komplek perumahan,kabinuang,"HC9W+X6Q, Taronggo, Kec. Bungku Utara, Kabupaten Morowali Utara, Sulawesi Tengah","Kabupaten Morowali Utara, Sulawesi Tengah",SULAWESI TENGAH,,Indonesia,,,,-1.4300254,121.4456179,https://maps.google.com/?cid=0x0:0x868e9a4909bf35ae,
komplek housing,komplek housing,Gendhis Kodal,"9993+GMF, Lorong Sehati, Desa Korolama, Kec. Bungku Utara, Kabupaten Morowali Utara, Sulawesi Tengah","Kabupaten Morowali Utara, Sulawesi Tengah",SULAWESI TENGAH,,Indonesia,,,,-1.6311761,121.3541631,https://maps.google.com/?cid=0x0:0xd9e69ced0e0ee558,
komplek housing,Komplek perumahan,Bunta,"HC9W+X6Q, Taronggo, Kec. Bungku Utara, Kabupaten Morowali Utara, Sulawesi Tengah","Kabupaten Morowali Utara, Sulawesi Tengah",SULAWESI TENGAH,,Indonesia,,,,-1.4300254,121.4456179,https://maps.google.com/?cid=0x0:0xd7942c665bcdfcc0,
komplek housing,Komplek perumahan,SEKDES UEWAJO (ABD. HAFID),"6Q8Q+FXV, Uewajo, Kec. Bungku Utara, Kabupaten Morowali Utara, Sulawesi Tengah 94972","Uewajo, Kec. Bungku Utara, Kabupaten Morowali Utara",SULAWESI TENGAH,94972.0,Indonesia,,,,-1.7842677,121.7904501,https://maps.google.com/?cid=0x0:0x93bd69d6bd071f6,
komplek housing,Komplek perumahan,Napu desa biau,"HC9W+X6Q, Taronggo, Kec. Bungku Utara, Kabupaten Morowali Utara, Sulawesi Tengah","Kabupaten Morowali Utara, Sulawesi Tengah",SULAWESI TENGAH,,Indonesia,,,,-1.4300254,121.4456179,https://maps.google.com/?cid=0x0:0x504affc8123d7460,
komplek housing,komplek housing,Watusongu,"HC9W+X6Q, Taronggo, Kec. Bungku Utara, Kabupaten Morowali Utara, Sulawesi Tengah","Kabupaten Morowali Utara, Sulawesi Tengah",SULAWESI TENGAH,,Indonesia,,,,-1.4300254,121.4456179,https://maps.google.com/?cid=0x0:0x8f91955b2cbe16cd,
komplek housing,komplek housing,Rumah murtia,"HC9W+X6Q, Jalan trans tirtasari, Taronggo, Kec. Bungku Utara, Kabupaten Morowali Utara, Sulawesi Tengah","Kabupaten Morowali Utara, Sulawesi Tengah",SULAWESI TENGAH,,Indonesia,,,,-1.4300254,121.4456179,https://maps.google.com/?cid=0x0:0xb2cf40a3d9cce86b,
komplek housing,,Waldi,"6Q8R+P49, Uewajo, Kec. Bungku Utara, Kabupaten Morowali Utara, Sulawesi Tengah 94972","Uewajo, Kec. Bungku Utara, Kabupaten Morowali Utara",SULAWESI TENGAH,94972.0,Indonesia,,,,-1.7832036,121.7903594,https://maps.google.com/?cid=0x0:0xf69b2e2a37212ade,
komplek housing,Perhimpunan Pengembang Perumahan,Sambulangan,"HC9W+X6Q, Taronggo, Kec. Bungku Utara, Kabupaten Morowali Utara, Sulawesi Tengah","Kabupaten Morowali Utara, Sulawesi Tengah",SULAWESI TENGAH,,Indonesia,,,,-1.4300254,121.4456179,https://maps.google.com/?cid=0x0:0x9948025d7e91c9f7,
komplek housing,komplek housing,Kec. Bungku Utara,"Kabupaten Morowali Utara, Sulawesi Tengah","Kabupaten Morowali Utara, Sulawesi Tengah",SULAWESI TENGAH,,Indonesia,,,,-1.6279979,121.5370003,https://maps.google.com/?cid=0x0:0x23a4d8f0d31b4ae7,
komplek housing,Komplek perumahan,Rumah Ece Baturube,"6QMV+MF6, Tirongan Bawah, Kec. Bungku Utara, Kabupaten Morowali Utara, Sulawesi Tengah 94972","Tirongan Bawah, Kec. Bungku Utara, Kabupaten Morowali Utara",SULAWESI TENGAH,94972.0,Indonesia,,,,-1.7658297,121.7936379,https://maps.google.com/?cid=0x0:0xf8acc6d4651f59f3,
komplek housing,Toko umum,ððªð°ð´ ððªð¬ð©ð¢,"6PQX+86F, Woomparigi, Kec. Bungku Utara, Kabupaten Morowali Utara, Sulawesi Tengah 94972","Woomparigi, Kec. Bungku Utara, Kabupaten Morowali Utara",SULAWESI TENGAH,94972.0,Indonesia,,,,-1.7616882,121.748042,https://maps.google.com/?cid=0x0:0xabf462c07dadd84e,
komplek housing,Komplek perumahan,Rumah Alim,"6QPV+6WM, Tirongan Bawah, Kec. Bungku Utara, Kabupaten Morowali Utara, Sulawesi Tengah 94972","Tirongan Bawah, Kec. Bungku Utara, Kabupaten Morowali Utara",SULAWESI TENGAH,94972.0,Indonesia,,,,-1.7644014,121.7947944,https://maps.google.com/?cid=0x0:0x408834cdf7aede50,
komplek housing,Komplek perumahan,Rumah Marta,"7QG8+54H, Opo, Kec. Bungku Utara, Kabupaten Morowali Utara, Sulawesi Tengah 94972","Opo, Kec. Bungku Utara, Kabupaten Morowali Utara",SULAWESI TENGAH,94972.0,Indonesia,,,,-1.7245659,121.7653745,https://maps.google.com/?cid=0x0:0x4f6a7cc8f2774914,
komplek housing,Gereja Kristen,Rumah Pastori GKST Petra Baturube,"6QHV+8GR, Baturube, Kec. Bungku Utara, Kabupaten Morowali Utara, Sulawesi Tengah 94972","Baturube, Kec. Bungku Utara, Kabupaten Morowali Utara",SULAWESI TENGAH,94972.0,Indonesia,,,,-1.7716535,121.7939101,https://maps.google.com/?cid=0x0:0x7bc80a24e8cf1d30,
komplek housing,Komplek perumahan,Rumah Pak Aminudin,"7Q98+R6P, Tanaku Raya, Kec. Bungku Utara, Kabupaten Morowali Utara, Sulawesi Tengah 94972","Tanaku Raya, Kec. Bungku Utara, Kabupaten Morowali Utara",SULAWESI TENGAH,94972.0,Indonesia,,,,-1.72939,121.7653625,https://maps.google.com/?cid=0x0:0x1e7949f015424af1,
komplek housing,Perhimpunan Pengembang Perumahan,Rumah Wabup Morut,"9W2H+P9X, Giri Mulya, Kec. Mamosalato, Kabupaten Morowali Utara, Sulawesi Tengah 94972","Giri Mulya, Kec. Mamosalato, Kabupaten Morowali Utara",SULAWESI TENGAH,94972.0,Indonesia,,,,-1.6478343,121.9287717,https://maps.google.com/?cid=0x0:0x9c600378c09679fa,
komplek housing,Komplek perumahan,Perumahan BTN Bahoruru,"Fat Residence Blok B No. 8, Bahoruru, Kec. Bungku Tengah, Kabupaten Morowali, Sulawesi Tengah","Kabupaten Morowali, Sulawesi Tengah",SULAWESI TENGAH,,Indonesia,,,,-2.5215709,121.9488189,https://maps.google.com/?cid=0x0:0xfb7d8742f2f6e14d,
komplek housing,komplek housing,Sulawesi Tengah 94975,"Menui Kepulauan, Kabupaten Morowali, Sulawesi Tengah","Kabupaten Morowali, Sulawesi Tengah",SULAWESI TENGAH,,Indonesia,,,,-3.2225368,122.3900901,https://maps.google.com/?cid=0x0:0x9de28c77bab1263b,
komplek housing,Kios,Rumah hidayat,"M93R+VQ, Matarape, Menui Kepulauan, Kabupaten Morowali, Sulawesi Tengah 94975","Matarape, Menui Kepulauan, Kabupaten Morowali",SULAWESI TENGAH,94975.0,Indonesia,,,,-3.34536,122.391442,https://maps.google.com/?cid=0x0:0x6cd70e67a0eb7108,
komplek housing,Pembangunan Perumahan,Kompleks menui,"GWJC+XVG, Bahomohoni, Kec. Bungku Tengah, Kabupaten Morowali, Sulawesi Tengah 94973","Bahomohoni, Kec. Bungku Tengah, Kabupaten Morowali",SULAWESI TENGAH,94973.0,Indonesia,,,,-2.4670245,121.9221369,https://maps.google.com/?cid=0x0:0xa29f6d61f0e86ccc,
komplek housing,Komplek perumahan,Rumah cahaya,"Q9GR+X2P, Matarape, M93R+VQMatarapeMenui Kepulauan, Kabupaten Morowali, Sulawesi Tengah 94975","Matarape, M93R+VQMatarapeMenui Kepulauan, Kabupaten Morowali",SULAWESI TENGAH,94975.0,Indonesia,,,,-3.2225368,122.3900901,https://maps.google.com/?cid=0x0:0x6c5f30cc1ab33331,
komplek housing,Komplek perumahan,Rumah Aldisan,"QCH7+835, Matano, Menui Kepulauan, Kabupaten Morowali, Sulawesi Tengah","Kabupaten Morowali, Sulawesi Tengah",SULAWESI TENGAH,,Indonesia,,,,-3.2217298,122.4127472,https://maps.google.com/?cid=0x0:0xb92acfcee4b033bf,
komplek housing,komplek housing,Kec. Wita Ponda,"Kabupaten Morowali, Sulawesi Tengah","Kabupaten Morowali, Sulawesi Tengah",SULAWESI TENGAH,,Indonesia,,,,-2.214136,121.5990103,https://maps.google.com/?cid=0x0:0xff62e010995308a1,
komplek housing,Komplek perumahan,Witaponda,"QJMF+H6G, Lantula Jaya, Kec. Wita Ponda, Kabupaten Morowali, Sulawesi Tengah 94976","Lantula Jaya, Kec. Wita Ponda, Kabupaten Morowali",SULAWESI TENGAH,94976.0,Indonesia,,,,-2.2160639,121.6230661,https://maps.google.com/?cid=0x0:0x278026bdea7e7ef6,
komplek housing,Perhimpunan Pengembang Perumahan,Kecamatan witaponda,"RH4X+QWV, Moahino, Kec. Wita Ponda, Kabupaten Morowali, Sulawesi Tengah","Kabupaten Morowali, Sulawesi Tengah",SULAWESI TENGAH,,Indonesia,,,,-2.1930029,121.5997835,https://maps.google.com/?cid=0x0:0x4bd8d55a3ead6c2e,
komplek housing,Komplek perumahan,"morowali salonsa, witaponda","RGGF+3JJ, Jl. Trans Sulawesi, Solonsa, Kec. Wita Ponda, Kabupaten Morowali, Sulawesi Tengah 94976","Jl. Trans Sulawesi, Solonsa, Kec. Wita Ponda, Kabupaten Morowali",SULAWESI TENGAH,94976.0,Indonesia,,,,-2.174684,121.524359,https://maps.google.com/?cid=0x0:0xcf3552cd64af3ccd,
komplek housing,Komplek perumahan,Rumah tinggal,"QJMG+9P9, Jl. Trans Sulawesi, Sampeantaba, Kec. Wita Ponda, Kabupaten Morowali, Sulawesi Tengah 94976","Jl. Trans Sulawesi, Sampeantaba, Kec. Wita Ponda, Kabupaten Morowali",SULAWESI TENGAH,94976.0,Indonesia,,,,-2.2167023,121.6272029,https://maps.google.com/?cid=0x0:0x68eaf54d23449f9,
komplek housing,komplek housing,Fikar,"QJ99+XFP, Lantula Jaya, Kec. Wita Ponda, Kabupaten Morowali, Sulawesi Tengah 94976","Lantula Jaya, Kec. Wita Ponda, Kabupaten Morowali",SULAWESI TENGAH,94976.0,Indonesia,,,,-2.2300402,121.6186892,https://maps.google.com/?cid=0x0:0xf1cb720659a06396,
komplek housing,Komplek perumahan,Unit 5,"QHPX+8J7, Emea, Kec. Wita Ponda, Kabupaten Morowali, Sulawesi Tengah 94976","Emea, Kec. Wita Ponda, Kabupaten Morowali",SULAWESI TENGAH,94976.0,Indonesia,,,,-2.2142234,121.5990532,https://maps.google.com/?cid=0x0:0xef06764a38be31fa,
komplek housing,Komplek perumahan,Agung Winoto,"QHCX+9J2, Emea, Kec. Wita Ponda, Kabupaten Morowali, Sulawesi Tengah 94976","Emea, Kec. Wita Ponda, Kabupaten Morowali",SULAWESI TENGAH,94976.0,Indonesia,,,,-2.2291195,121.5990078,https://maps.google.com/?cid=0x0:0x19dc1b5e5bf04c2,
komplek housing,Komplek perumahan,Kahfi,"QJF9+4XJ, Lantula Jaya, Kec. Wita Ponda, Kabupaten Morowali, Sulawesi Tengah 94976","Lantula Jaya, Kec. Wita Ponda, Kabupaten Morowali",SULAWESI TENGAH,94976.0,Indonesia,,,,-2.227724,121.619523,https://maps.google.com/?cid=0x0:0x5232e028a3a00fd7,
komplek housing,Komplek perumahan,Rumah Pribadi,"Bumi Harapan, Kec. Wita Ponda, Kabupaten Morowali, Sulawesi Tengah 94976","Kec. Wita Ponda, Kabupaten Morowali",SULAWESI TENGAH,94976.0,Indonesia,,,,-2.2359121,121.6071571,https://maps.google.com/?cid=0x0:0x1810b34babcee853,
komplek housing,komplek housing,Ebhy potaka,"QHJQ+HXC, Ungkaya, Kec. Wita Ponda, Kabupaten Morowali, Sulawesi Tengah 94976","Ungkaya, Kec. Wita Ponda, Kabupaten Morowali",SULAWESI TENGAH,94976.0,Indonesia,,,,-2.2185687,121.5899017,https://maps.google.com/?cid=0x0:0x8bdbd23e8fd1924f,
komplek housing,komplek housing,Wahid,"QGXW+39H, RT.08, Solonsa Jaya, Kec. Wita Ponda, Kabupaten Morowali, Sulawesi Tengah 94976","RT.08, Solonsa Jaya, Kec. Wita Ponda, Kabupaten Morowali",SULAWESI TENGAH,94976.0,Indonesia,,,,-2.2023125,121.5459844,https://maps.google.com/?cid=0x0:0x2ef22e69f2fd27e3,
komplek housing,Gedung Apartemen,My Home,"QJJF+W27, Jl. Trans Sulawesi, Sampeantaba, Kec. Wita Ponda, Kabupaten Morowali, Sulawesi Tengah 94976","Jl. Trans Sulawesi, Sampeantaba, Kec. Wita Ponda, Kabupaten Morowali",SULAWESI TENGAH,94976.0,Indonesia,,,,-2.2177115,121.6225561,https://maps.google.com/?cid=0x0:0x37d3f5538606965b,
komplek housing,komplek housing,Meubel padaidi solonsa,"RG3R+HVG, Solonsa Jaya, Kec. Wita Ponda, Kabupaten Morowali, Sulawesi Tengah","Kabupaten Morowali, Sulawesi Tengah",SULAWESI TENGAH,,Indonesia,,,,-2.1960505,121.5422057,https://maps.google.com/?cid=0x0:0x932871b32a884919,
komplek housing,Perhimpunan Pengembang Perumahan,Anggita alfiah,"QJC9+8VH, Lantula Jaya, Kec. Wita Ponda, Kabupaten Morowali, Sulawesi Tengah 94976","Lantula Jaya, Kec. Wita Ponda, Kabupaten Morowali",SULAWESI TENGAH,94976.0,Indonesia,,,,-2.2291876,121.619746,https://maps.google.com/?cid=0x0:0x9df04fe35d6f6adf,
komplek housing,komplek housing,CHC PKS UNGKAYA,"QH99+624, Ungkaya, Kec. Wita Ponda, Kabupaten Morowali, Sulawesi Tengah 94976","Ungkaya, Kec. Wita Ponda, Kabupaten Morowali",SULAWESI TENGAH,94976.0,Indonesia,,,,-2.2309314,121.5683592,https://maps.google.com/?cid=0x0:0xe3ea1febcec51033,
komplek housing,komplek housing,Rumah Lidof  Natalia,"RGH9+G6P, Jl. Trans Sulawesi, Solonsa, Kec. Wita Ponda, Kabupaten Morowali, Sulawesi Tengah 94976","Jl. Trans Sulawesi, Solonsa, Kec. Wita Ponda, Kabupaten Morowali",SULAWESI TENGAH,94976.0,Indonesia,,,,-2.1791511,121.5290635,https://maps.google.com/?cid=0x0:0x930d4030288d9fa3,
komplek housing,Komplek perumahan,Khenzo n Kaffa,"QJJG+QFJ, Jl. Ir. Soekarno, Lantula Jaya, Kec. Wita Ponda, Kabupaten Morowali, Sulawesi Tengah 94976","Jl. Ir. Soekarno, Lantula Jaya, Kec. Wita Ponda, Kabupaten Morowali",SULAWESI TENGAH,94976.0,Indonesia,,,,-2.2180289,121.6261491,https://maps.google.com/?cid=0x0:0x12aed505de58d175,
komplek housing,komplek housing,Delhome,"QJM2+P46, Emea, Kec. Wita Ponda, Kabupaten Morowali, Sulawesi Tengah 94976","Emea, Kec. Wita Ponda, Kabupaten Morowali",SULAWESI TENGAH,94976.0,Indonesia,,,,-2.2159575,121.6003201,https://maps.google.com/?cid=0x0:0x848b245804f6397b,
komplek housing,Komplek perumahan,Rumah Gita,"RH8X+PQ8, Moahino, Kec. Wita Ponda, Kabupaten Morowali, Sulawesi Tengah","Kabupaten Morowali, Sulawesi Tengah",SULAWESI TENGAH,,Indonesia,,,,-2.1838168,121.5994973,https://maps.google.com/?cid=0x0:0x889e1ffdb5d74616,
komplek housing,Komplek perumahan,PERUMAHAN STAFF,"QH88+VC, Ungkaya, Kec. Wita Ponda, Kabupaten Morowali, Sulawesi Tengah 94976","Ungkaya, Kec. Wita Ponda, Kabupaten Morowali",SULAWESI TENGAH,94976.0,Indonesia,,,,-2.2332883,121.5660127,https://maps.google.com/?cid=0x0:0xea9f7610a313c1aa,
komplek housing,Komplek perumahan,AhmadiAyu,"QHQ4+8RJ, Jl. Trans Sulawesi, Solonsa Jaya, Kec. Wita Ponda, Kabupaten Morowali, Sulawesi Tengah","Kabupaten Morowali, Sulawesi Tengah",SULAWESI TENGAH,,Indonesia,,,,-2.2116641,121.5570303,https://maps.google.com/?cid=0x0:0xefe071c865a02c3b,
komplek housing,Komplek perumahan,Rumah Agung,"QHFX+36, Emea, Kec. Wita Ponda, Kabupaten Morowali, Sulawesi Tengah","Kabupaten Morowali, Sulawesi Tengah",SULAWESI TENGAH,,Indonesia,,,,-2.2272609,121.5980352,https://maps.google.com/?cid=0x0:0x837917627a174861,
komplek housing,Komplek perumahan,Jalaluddin KeluargaRumah,"PJGF+P7, Sampeantaba, Kec. Wita Ponda, Kabupaten Morowali, Sulawesi Tengah","Kabupaten Morowali, Sulawesi Tengah",SULAWESI TENGAH,,Indonesia,,,,-2.2731875,121.6231875,https://maps.google.com/?cid=0x0:0x7b2b0c8a99187b01,
komplek housing,Perumahan,Rumah SUTRISNO/SAH,"QJFC+J35, Lantula Jaya, Kec. Wita Ponda, Kabupaten Morowali, Sulawesi Tengah 94976","Lantula Jaya, Kec. Wita Ponda, Kabupaten Morowali",SULAWESI TENGAH,94976.0,Indonesia,,,,-2.2259821,121.6202298,https://maps.google.com/?cid=0x0:0x96edfb2a28c15077,
komplek housing,Komplek perumahan,Rumah Pak Untung Widodo,"QJCH+FFW, Lantula Jaya, Kec. Wita Ponda, Kabupaten Morowali, Sulawesi Tengah 94976","Lantula Jaya, Kec. Wita Ponda, Kabupaten Morowali",SULAWESI TENGAH,94976.0,Indonesia,,,,-2.2283102,121.6289584,https://maps.google.com/?cid=0x0:0x1736ba6ae7ec0dfc,
komplek housing,Komplek perumahan,Hasman,"RG4R+F86, Solonsa Jaya, Kec. Wita Ponda, Kabupaten Morowali, Sulawesi Tengah 94976","Solonsa Jaya, Kec. Wita Ponda, Kabupaten Morowali",SULAWESI TENGAH,94976.0,Indonesia,,,,-2.193842,121.540768,https://maps.google.com/?cid=0x0:0xe95106a21861e79d,
komplek housing,Perhimpunan Pengembang Perumahan,Rumah Wiwik,"QJGC+536, Jl. Jend. Sudirman, Lantula Jaya, Kec. Wita Ponda, Kabupaten Morowali, Sulawesi Tengah 94976","Jl. Jend. Sudirman, Lantula Jaya, Kec. Wita Ponda, Kabupaten Morowali",SULAWESI TENGAH,94976.0,Indonesia,,,,-2.2246,121.6201455,https://maps.google.com/?cid=0x0:0xf1f26ed7ba62fdd0,
komplek housing,Komplek perumahan,Kadek devi house,"QJFF+JWJ, Jl. Ir. Soekarno, Sampeantaba, Kec. Wita Ponda, Kabupaten Morowali, Sulawesi Tengah 94976","Jl. Ir. Soekarno, Sampeantaba, Kec. Wita Ponda, Kabupaten Morowali",SULAWESI TENGAH,94976.0,Indonesia,,,,-2.2259046,121.62477,https://maps.google.com/?cid=0x0:0x33c0fb8f00db699,
perumahan,perumahan,Sulawesi Tengah 94974,"Kabupaten Morowali, Sulawesi Tengah","Kabupaten Morowali, Sulawesi Tengah",SULAWESI TENGAH,,Indonesia,,,,-2.8626226,122.1291843,https://maps.google.com/?cid=0x0:0xb267e774a37f920f,
perumahan,Pembangunan Perumahan,Perumahan PPR Bahodopi Residence,"6433+26H, Unnamed Road, Bahodopi, Kec. Bahodopi, Kabupaten Morowali, Sulawesi Tengah 94974","Unnamed Road, Bahodopi, Kec. Bahodopi, Kabupaten Morowali",SULAWESI TENGAH,94974.0,Indonesia,,,,-2.7974443,122.1031108,https://maps.google.com/?cid=0x0:0xec2078c7d6f2cd35,
perumahan,perumahan,HUNIAN NAYA BAHODOPI,"54XF+H6C, Keurea, Kec. Bahodopi, Kabupaten Morowali, Sulawesi Tengah 94974","Keurea, Kec. Bahodopi, Kabupaten Morowali",SULAWESI TENGAH,94974.0,Indonesia,85165473479.0,,,-2.8023721,122.1231202,https://maps.google.com/?cid=0x0:0x524831b07318ebec,
perumahan,Komplek perumahan,Perumahan PPR Bahodopi,"6422+MFF, Bahodopi, Kec. Bahodopi, Kabupaten Morowali, Sulawesi Tengah 94974","Bahodopi, Kec. Bahodopi, Kabupaten Morowali",SULAWESI TENGAH,94974.0,Indonesia,,,,-2.7983011,122.1011832,https://maps.google.com/?cid=0x0:0x2a6a73929cff2b73,
perumahan,Hotel,Perumahan Kota Bahodopi,"4WJW+MWF, Lalampu, Kec. Bahodopi, Kabupaten Morowali, Sulawesi Tengah 94974","Lalampu, Kec. Bahodopi, Kabupaten Morowali",SULAWESI TENGAH,94974.0,Indonesia,,,,-2.8683053,121.947311,https://maps.google.com/?cid=0x0:0xbe09c3848d1f282,
perumahan,perumahan,Leman,"54QM+8M2, Bahomakmur, Kec. Bahodopi, Kabupaten Morowali, Sulawesi Tengah 94974","Bahomakmur, Kec. Bahodopi, Kabupaten Morowali",SULAWESI TENGAH,94974.0,Indonesia,,,,-2.8117449,122.1341401,https://maps.google.com/?cid=0x0:0x9b7b1b79fe4bc63d,
perumahan,Pembangunan Perumahan,Perumahan,"45M8+8MM, Labota, Kec. Bahodopi, Kabupaten Morowali, Sulawesi Tengah","Kabupaten Morowali, Sulawesi Tengah",SULAWESI TENGAH,,Indonesia,,,,-2.866667,122.166667,https://maps.google.com/?cid=0x0:0x16cded17fc5d7fc5,
perumahan,Pembangunan Perumahan,Bahodopi,"Gang ponder Jl. Trans Bahomakmur, Bahomakmur, Kec. Bahodopi, Kabupaten Morowali, Sulawesi Tengah 94974","Bahomakmur, Kec. Bahodopi, Kabupaten Morowali",SULAWESI TENGAH,94974.0,Indonesia,,,,-2.8078683,122.1359233,https://maps.google.com/?cid=0x0:0x72fd1bc91a8d561f,
perumahan,Perhimpunan Pengembang Perumahan,BTN Griya Bahodopi Indah,"53VV+WXX, Bahodopi, Kec. Bahodopi, Kabupaten Morowali, Sulawesi Tengah 94974","Bahodopi, Kec. Bahodopi, Kabupaten Morowali",SULAWESI TENGAH,94974.0,Indonesia,,,,-2.8051392,122.0949852,https://maps.google.com/?cid=0x0:0xa4447f66a0e77959,
perumahan,Gudang,Perumahan Soliwu Cipta Persada,"53VV+WG5, Bahodopi, Kec. Bahodopi, Kabupaten Morowali, Sulawesi Tengah 94974","Bahodopi, Kec. Bahodopi, Kabupaten Morowali",SULAWESI TENGAH,94974.0,Indonesia,,,,-2.805244,122.0938523,https://maps.google.com/?cid=0x0:0xc8794f653eaca8b5,
perumahan,Kios,gang solata,"54PM+CFP, Bahomakmur, Kec. Bahodopi, Kabupaten Morowali, Sulawesi Tengah 94974","Bahomakmur, Kec. Bahodopi, Kabupaten Morowali",SULAWESI TENGAH,94974.0,Indonesia,,,,-2.8139133,122.1336963,https://maps.google.com/?cid=0x0:0x5bf6aedef4f95ae8,
perumahan,perumahan,Kost crem,"54JH+PX4, Blk. C, Bahomakmur, Kec. Bahodopi, Kabupaten Morowali, Sulawesi Tengah 94974","Blk. C, Bahomakmur, Kec. Bahodopi, Kabupaten Morowali",SULAWESI TENGAH,94974.0,Indonesia,,,,-2.8182448,122.1299407,https://maps.google.com/?cid=0x0:0x16a994b027195c61,
perumahan,Pembangunan Perumahan,Perumahan agung aulia 1,"Lalampu, Kec. Bahodopi, Kabupaten Morowali, Sulawesi Tengah","Kabupaten Morowali, Sulawesi Tengah",SULAWESI TENGAH,,Indonesia,,,,-2.8066124,122.0966707,https://maps.google.com/?cid=0x0:0x41e4285aa92866cb,
perumahan,Perhimpunan Pengembang Perumahan,Bahodopi,"34X6+8VR, Fatufia, Kec. Bahodopi, Kabupaten Morowali, Sulawesi Tengah 94974","Fatufia, Kec. Bahodopi, Kabupaten Morowali",SULAWESI TENGAH,94974.0,Indonesia,,,,-2.9016425,122.1121466,https://maps.google.com/?cid=0x0:0x3b5f50ebab9bf5a,
perumahan,perumahan,Laundry Bunda,"Blk. C lorong futsal, Bahomakmur, Kec. Bahodopi, Kabupaten Morowali, Sulawesi Tengah 94974","Bahomakmur, Kec. Bahodopi, Kabupaten Morowali",SULAWESI TENGAH,94974.0,Indonesia,,,,-2.8175905,122.1295361,https://maps.google.com/?cid=0x0:0x832b0877eca58d51,
perumahan,Komplek perumahan,PPR Place,"6423+53J, Bahodopi, Kec. Bahodopi, Kabupaten Morowali, Sulawesi Tengah 94974","Bahodopi, Kec. Bahodopi, Kabupaten Morowali",SULAWESI TENGAH,94974.0,Indonesia,,,,-2.7995468,122.1026492,https://maps.google.com/?cid=0x0:0x1c533bb6b93e58b8,
perumahan,Sekolah Dasar,Lalampu SD Bahodopi,"53VW+P6, Bahodopi, Kec. Bahodopi, Kabupaten Morowali, Sulawesi Tengah 94974","Bahodopi, Kec. Bahodopi, Kabupaten Morowali",SULAWESI TENGAH,94974.0,Indonesia,,,,-2.8059334,122.094995,https://maps.google.com/?cid=0x0:0xdf8eec7425f3353a,
perumahan,Pembangunan Perumahan,Kebun,"547W+V6F, Fatufia, Kec. Bahodopi, Kabupaten Morowali, Sulawesi Tengah","Kabupaten Morowali, Sulawesi Tengah",SULAWESI TENGAH,,Indonesia,,,,-2.83531,122.1455599,https://maps.google.com/?cid=0x0:0x433b62d5862e33fe,
perumahan,Komplek perumahan,Rumah,"4559+FH7, Dusun 4 jalan kambing, Makarti Jaya, Kec. Bahodopi, Kabupaten Morowali, Sulawesi Tengah 94974","Dusun 4 jalan kambing, Makarti Jaya, Kec. Bahodopi, Kabupaten Morowali",SULAWESI TENGAH,94974.0,Indonesia,,,,-2.8913383,122.1689246,https://maps.google.com/?cid=0x0:0x8a510fde672c94cd,
perumahan,Komplek perumahan,Squad morowali,"blok e, Bahomakmur, Kec. Bahodopi, Kabupaten Morowali, Sulawesi Tengah 94974","Bahomakmur, Kec. Bahodopi, Kabupaten Morowali",SULAWESI TENGAH,94974.0,Indonesia,,,,-2.8129615,122.1363267,https://maps.google.com/?cid=0x0:0xfc78b7da83aa3015,
perumahan,perumahan,Kost frengky bahodopi,"6436+WWC, Bahodopi, Kec. Bahodopi, Kabupaten Morowali, Sulawesi Tengah 94974","Bahodopi, Kec. Bahodopi, Kabupaten Morowali",SULAWESI TENGAH,94974.0,Indonesia,,,,-2.7941496,122.1122387,https://maps.google.com/?cid=0x0:0x8d27098df2bbd7b5,
perumahan,perumahan,Tanah Bahodopi,"643C+MW6, Lrg. Pelangi, Bahodopi, Kec. Bahodopi, Kabupaten Morowali, Sulawesi Tengah 94974","Lrg. Pelangi, Bahodopi, Kec. Bahodopi, Kabupaten Morowali",SULAWESI TENGAH,94974.0,Indonesia,,,,-2.7958308,122.1222804,https://maps.google.com/?cid=0x0:0xa151a475b98442a9,
perumahan,Komplek perumahan,Perumahan Agung Aulia Jaya II,"54P2+G4, Bahomakmur, Kec. Bahodopi, Kabupaten Morowali, Sulawesi Tengah","Kabupaten Morowali, Sulawesi Tengah",SULAWESI TENGAH,,Indonesia,85240992338.0,,,-2.8137424,122.1002872,https://maps.google.com/?cid=0x0:0x47ac1d037b038773,
perumahan,Komplek perumahan,Kos JAYA Bahodopi,"6436+WHP, Bahodopi, Kec. Bahodopi, Kabupaten Morowali, Sulawesi Tengah 94974","Bahodopi, Kec. Bahodopi, Kabupaten Morowali",SULAWESI TENGAH,94974.0,Indonesia,82259726346.0,,,-2.7946177,122.1114495,https://maps.google.com/?cid=0x0:0xc78d1fcdf1b086a5,
perumahan,Komplek perumahan,Kost Aditry Bahodopi,"6447+9R, Bahodopi, Kec. Bahodopi, Kabupaten Morowali, Sulawesi Tengah 94974","Bahodopi, Kec. Bahodopi, Kabupaten Morowali",SULAWESI TENGAH,94974.0,Indonesia,,,,-2.7941067,122.1145807,https://maps.google.com/?cid=0x0:0x9a8cb8597feb1ddf,
perumahan,perumahan,Kec. Bumi Raya,"Kabupaten Morowali, Sulawesi Tengah","Kabupaten Morowali, Sulawesi Tengah",SULAWESI TENGAH,,Indonesia,,,,-2.2160038,121.7239224,https://maps.google.com/?cid=0x0:0x733f460809c91197,
perumahan,Komplek perumahan,Lokasi Koramil Bumi Raya,"QPMF+CPQ, Jl. Trans Sulawesi, Bahonsuai, Kec. Bumi Raya, Kabupaten Morowali, Sulawesi Tengah 94976","Jl. Trans Sulawesi, Bahonsuai, Kec. Bumi Raya, Kabupaten Morowali",SULAWESI TENGAH,94976.0,Indonesia,,,,-2.2164151,121.7243578,https://maps.google.com/?cid=0x0:0xe73460548870b4f0,
perumahan,Bandara,Perumahan bandara morowali,"Bandara morowali, Umbele, Kec. Bumi Raya, Kabupaten Morowali, Sulawesi Tengah","Kabupaten Morowali, Sulawesi Tengah",SULAWESI TENGAH,,Indonesia,,,,-2.2055389,121.6641908,https://maps.google.com/?cid=0x0:0x7a81334b342bc9ac,
perumahan,Komplek perumahan,Bahonsuai,"QPHC+7XR, Bahonsuai, Kec. Bumi Raya, Kabupaten Morowali, Sulawesi Tengah 94976","Bahonsuai, Kec. Bumi Raya, Kabupaten Morowali",SULAWESI TENGAH,94976.0,Indonesia,,,,-2.221769,121.7223958,https://maps.google.com/?cid=0x0:0xbdff4b3ff5085b4d,
perumahan,Komplek perumahan,lorong sagu,"QPMG+8XW, Bahonsuai, Kec. Bumi Raya, Kabupaten Morowali, Sulawesi Tengah 94976","Bahonsuai, Kec. Bumi Raya, Kabupaten Morowali",SULAWESI TENGAH,94976.0,Indonesia,,,,-2.2171988,121.7275484,https://maps.google.com/?cid=0x0:0xb706419f3e59b9f,
perumahan,Pembangunan Perumahan,Lorong pasar,"QPMJ+399, Bahonsuai, Kec. Bumi Raya, Kabupaten Morowali, Sulawesi Tengah","Kabupaten Morowali, Sulawesi Tengah",SULAWESI TENGAH,,Indonesia,,,,-2.2169003,121.7306044,https://maps.google.com/?cid=0x0:0x52af151b49ffcd66,
perumahan,Komplek perumahan,H. Ust. Mashun Radjab,"QPJJ+RMG, Jl. Trans Sulawesi, Bahonsuai, Kec. Bumi Raya, Kabupaten Morowali, Sulawesi Tengah 94976","Jl. Trans Sulawesi, Bahonsuai, Kec. Bumi Raya, Kabupaten Morowali",SULAWESI TENGAH,94976.0,Indonesia,,,,-2.2179455,121.7317142,https://maps.google.com/?cid=0x0:0x884dd65fa245a77b,
perumahan,Perhimpunan Pengembang Perumahan,Kos,"QPHF+W88, Bahonsuai, Kec. Bumi Raya, Kabupaten Morowali, Sulawesi Tengah","Kabupaten Morowali, Sulawesi Tengah",SULAWESI TENGAH,,Indonesia,,,,-2.2202135,121.7233127,https://maps.google.com/?cid=0x0:0x63328d737bc6913c,
perumahan,perumahan,Rumah mira,"QM7X+Q2X, Lambelu, Kec. Bumi Raya, Kabupaten Morowali, Sulawesi Tengah 94976","Lambelu, Kec. Bumi Raya, Kabupaten Morowali",SULAWESI TENGAH,94976.0,Indonesia,,,,-2.2354416,121.6976526,https://maps.google.com/?cid=0x0:0x46fe0d2ba60245d1,
perumahan,Komplek perumahan,rumah dian,"Jl. Trans Sulawesi No.29, Pebatae, Kec. Bumi Raya, Kabupaten Morowali, Sulawesi Tengah 94976","Pebatae, Kec. Bumi Raya, Kabupaten Morowali",SULAWESI TENGAH,94976.0,Indonesia,,,,-2.2207483,121.6807202,https://maps.google.com/?cid=0x0:0x82baa4f701cb3bf1,
perumahan,Komplek perumahan,Mahjun,"Jl. Trans Sulawesi No.29, Pebatae, Kec. Bumi Raya, Kabupaten Morowali, Sulawesi Tengah 94976","Pebatae, Kec. Bumi Raya, Kabupaten Morowali",SULAWESI TENGAH,94976.0,Indonesia,,,,-2.2198337,121.6808847,https://maps.google.com/?cid=0x0:0x542e4c2e5b8ad07e,
perumahan,Perhimpunan Pengembang Perumahan,Bahodopi,"Jl. Trans Sulawesi No.94976, Parilangke, Kec. Bumi Raya, Kabupaten Morowali, Sulawesi Tengah 94976","Parilangke, Kec. Bumi Raya, Kabupaten Morowali",SULAWESI TENGAH,94976.0,Indonesia,,,,-2.221733,121.7366727,https://maps.google.com/?cid=0x0:0x994b7fce2bd0c9da,
perumahan,Komplek perumahan,Wayan Suarnaya Home,"QM7X+Q2X, Lambelu, Kec. Bumi Raya, Kabupaten Morowali, Sulawesi Tengah 94976","Lambelu, Kec. Bumi Raya, Kabupaten Morowali",SULAWESI TENGAH,94976.0,Indonesia,,,,-2.2348373,121.6978176,https://maps.google.com/?cid=0x0:0xd744c047eebd81d0,
perumahan,Komplek perumahan,Nursanah,"QP2H+8PH, Harapan Jaya, Kec. Bumi Raya, Kabupaten Morowali, Sulawesi Tengah 94976","Harapan Jaya, Kec. Bumi Raya, Kabupaten Morowali",SULAWESI TENGAH,94976.0,Indonesia,,,,-2.248773,121.72801,https://maps.google.com/?cid=0x0:0x1be017f8a98b3a9b,
perumahan,Komplek perumahan,Perumahan Bahtera Sunnah 3,"QP44+M4F, Beringin Jaya, Kec. Bumi Raya, Kabupaten Morowali, Sulawesi Tengah 94976","Beringin Jaya, Kec. Bumi Raya, Kabupaten Morowali",SULAWESI TENGAH,94976.0,Indonesia,82271077371.0,,,-2.2433003,121.7052951,https://maps.google.com/?cid=0x0:0x861163477cd462fd,
perumahan,Perhimpunan Pengembang Perumahan,Rumah Baru,"QM3V+PGW, Limbo Makmur, Kec. Bumi Raya, Kabupaten Morowali, Sulawesi Tengah 94976","Limbo Makmur, Kec. Bumi Raya, Kabupaten Morowali",SULAWESI TENGAH,94976.0,Indonesia,,,,-2.2455952,121.693956,https://maps.google.com/?cid=0x0:0x16d73f9a4db49b13,
perumahan,perumahan,Rumah Alesha,"PPXC+FX6, Harapan Jaya, Kec. Bumi Raya, Kabupaten Morowali, Sulawesi Tengah 94976","Harapan Jaya, Kec. Bumi Raya, Kabupaten Morowali",SULAWESI TENGAH,94976.0,Indonesia,,,,-2.2513374,121.7223958,https://maps.google.com/?cid=0x0:0x8a233a56125ae38a,
perumahan,Komplek perumahan,Anto,"PPXH+H3G, Harapan Jaya, Kec. Bumi Raya, Kabupaten Morowali, Sulawesi Tengah 94976","Harapan Jaya, Kec. Bumi Raya, Kabupaten Morowali",SULAWESI TENGAH,94976.0,Indonesia,,,,-2.2510557,121.7276962,https://maps.google.com/?cid=0x0:0xf946df7c8da629cf,
perumahan,Perhimpunan Pengembang Perumahan,Rumah pak nurdin,"QMJW+HHH, Atananga, Kec. Bumi Raya, Kabupaten Morowali, Sulawesi Tengah 94976","Atananga, Kec. Bumi Raya, Kabupaten Morowali",SULAWESI TENGAH,94976.0,Indonesia,,,,-2.2185523,121.6964911,https://maps.google.com/?cid=0x0:0x4a9e813126abba95,
perumahan,Komplek perumahan,Rumah Pak Sumaji,"QM7Q+56X, Lambelu, Kec. Bumi Raya, Kabupaten Morowali, Sulawesi Tengah","Kabupaten Morowali, Sulawesi Tengah",SULAWESI TENGAH,,Indonesia,,,,-2.2362368,121.6878946,https://maps.google.com/?cid=0x0:0x104c51efad60ac07,
perumahan,Komplek perumahan,Dusun 4,"QMJJ+396, Pebatae, Kec. Bumi Raya, Kabupaten Morowali, Sulawesi Tengah 94976","Pebatae, Kec. Bumi Raya, Kabupaten Morowali",SULAWESI TENGAH,94976.0,Indonesia,,,,-2.2198341,121.6808855,https://maps.google.com/?cid=0x0:0xf1559ef986a63bb7,
perumahan,Komplek perumahan,rumah mang isur,"QP53+M2C, Beringin Jaya, Kec. Bumi Raya, Kabupaten Morowali, Sulawesi Tengah 94976","Beringin Jaya, Kec. Bumi Raya, Kabupaten Morowali",SULAWESI TENGAH,94976.0,Indonesia,,,,-2.2408865,121.7011165,https://maps.google.com/?cid=0x0:0x751bcacd1b276366,
perumahan,Pembangunan Perumahan,Samarenda,"QPP6+H99, Samarenda, Kec. Bumi Raya, Kabupaten Morowali, Sulawesi Tengah","Kabupaten Morowali, Sulawesi Tengah",SULAWESI TENGAH,,Indonesia,,,,-2.2135969,121.7109957,https://maps.google.com/?cid=0x0:0x38d9b0d2edeb6f23,
perumahan,perumahan,Kec. Bungku Bar.,"Kabupaten Morowali, Sulawesi Tengah","Kabupaten Morowali, Sulawesi Tengah",SULAWESI TENGAH,,Indonesia,,,,-2.3550315,121.8504279,https://maps.google.com/?cid=0x0:0x60891acc9bfe198d,
perumahan,Komplek perumahan,Perumahan Ambunu Lestari,"PQQ4+Q7W, Ambunu, Kec. Bungku Bar., Kabupaten Morowali, Sulawesi Tengah 94976","Ambunu, Kec. Bungku Bar., Kabupaten Morowali",SULAWESI TENGAH,94976.0,Indonesia,82271077371.0,,,-2.2605118,121.7557142,https://maps.google.com/?cid=0x0:0x78041f78575f308e,
perumahan,Pembangunan Perumahan,Perumahan folili,"PQJF+4RG, Jl. Trans Sulawesi, Tofogaro, Kec. Bungku Bar., Kabupaten Morowali, Sulawesi Tengah 94976","Jl. Trans Sulawesi, Tofogaro, Kec. Bungku Bar., Kabupaten Morowali",SULAWESI TENGAH,94976.0,Indonesia,,,,-2.2709814,121.7741514,https://maps.google.com/?cid=0x0:0x361691a4e8ce6485,
perumahan,Komplek perumahan,Perumahan Umpanga Lestari,"PQ5X+2FM, Umpanga, Kec. Bungku Bar., Kabupaten Morowali, Sulawesi Tengah","Kabupaten Morowali, Sulawesi Tengah",SULAWESI TENGAH,,Indonesia,82271077371.0,,,-2.2924224,121.7986859,https://maps.google.com/?cid=0x0:0xfc58b88447ac484c,
perumahan,Komplek perumahan,rumah vikran,"HR3M+M2R, Bahoea Reko Reko, Kec. Bungku Bar., Kabupaten Morowali, Sulawesi Tengah 94976","Bahoea Reko Reko, Kec. Bungku Bar., Kabupaten Morowali",SULAWESI TENGAH,94976.0,Indonesia,,,,-2.4457517,121.8325092,https://maps.google.com/?cid=0x0:0xc3d0ad83dc4ff623,
perumahan,Komplek perumahan,RUMAH BU SITI,"Umpanga, Kec. Bungku Bar., Kabupaten Morowali, Sulawesi Tengah","Kabupaten Morowali, Sulawesi Tengah",SULAWESI TENGAH,,Indonesia,,,,-2.3160312,121.8001866,https://maps.google.com/?cid=0x0:0x571e3545b40811cd,
perumahan,Komplek perumahan,RUMAH ARIANTA,"MRM2+977, Umpanga, Kec. Bungku Bar., Kabupaten Morowali, Sulawesi Tengah","Kabupaten Morowali, Sulawesi Tengah",SULAWESI TENGAH,,Indonesia,,,,-2.3165762,121.8006768,https://maps.google.com/?cid=0x0:0x9d0b8869da690376,
perumahan,Komplek perumahan,Rumah Sarina,"PQ8Q+WVC, Jl. Trans Sulawesi, Tofogaro, Kec. Bungku Bar., Kabupaten Morowali, Sulawesi Tengah 94976","Jl. Trans Sulawesi, Tofogaro, Kec. Bungku Bar., Kabupaten Morowali",SULAWESI TENGAH,94976.0,Indonesia,,,,-2.282728,121.7900165,https://maps.google.com/?cid=0x0:0x83d4ac45e681961d,
perumahan,Komplek perumahan,RX king,"JVV3+5C7, Wosu, Kec. Bungku Bar., Kabupaten Morowali, Sulawesi Tengah 94976","Wosu, Kec. Bungku Bar., Kabupaten Morowali",SULAWESI TENGAH,94976.0,Indonesia,,,,-2.3570805,121.8535567,https://maps.google.com/?cid=0x0:0x26008a2e9ea00a81,
perumahan,Kompleks Kondominium,AG,"MR7P+CJG, Larobenu, Kec. Bungku Bar., Kabupaten Morowali, Sulawesi Tengah 94976","Larobenu, Kec. Bungku Bar., Kabupaten Morowali",SULAWESI TENGAH,94976.0,Indonesia,,,,-2.3364407,121.8365857,https://maps.google.com/?cid=0x0:0x725c9df0b1f7001a,
perumahan,perumahan,Perumahan Bukit Hijau,"MRGJ+WQ5, Jl. Trans Sulawesi, Larobenu, Kec. Bungku Bar., Kabupaten Morowali, Sulawesi Tengah","Kabupaten Morowali, Sulawesi Tengah",SULAWESI TENGAH,,Indonesia,,,,-2.322749,121.8319785,https://maps.google.com/?cid=0x0:0xe6329bfd8694fa8d,
perumahan,Komplek perumahan,Rumah,"PQ6V+CWW, Tofogaro, Kec. Bungku Bar., Kabupaten Morowali, Sulawesi Tengah","Kabupaten Morowali, Sulawesi Tengah",SULAWESI TENGAH,,Indonesia,,,,-2.2896237,121.795823,https://maps.google.com/?cid=0x0:0x64f5983743ab63c4,
perumahan,Bed >>u0026 Breakfast,Kost 3 putra,"PPXM+MV, Jembatan polo, Uedago, Kec. Bungku Bar., Kabupaten Morowali, Sulawesi Tengah 94976","Jembatan polo, Uedago, Kec. Bungku Bar., Kabupaten Morowali",SULAWESI TENGAH,94976.0,Indonesia,82346036685.0,,,-2.2512885,121.7350813,https://maps.google.com/?cid=0x0:0x19dc80e490b4d69a,
perumahan,Perusahaan investasi properti,Rumah Kos Pak Kasmin,"PPRX+597, Marga Mulya, Kec. Bungku Bar., Kabupaten Morowali, Sulawesi Tengah 94976","Marga Mulya, Kec. Bungku Bar., Kabupaten Morowali",SULAWESI TENGAH,94976.0,Indonesia,,,,-2.2588106,121.7486329,https://maps.google.com/?cid=0x0:0x97cfd0cf912b08b7,
perumahan,Komplek perumahan,Rumah Qadim,"MR9P+Q9Q, Larobenu, Kec. Bungku Bar., Kabupaten Morowali, Sulawesi Tengah","Kabupaten Morowali, Sulawesi Tengah",SULAWESI TENGAH,,Indonesia,,,,-2.33054,121.8359968,https://maps.google.com/?cid=0x0:0xb415e53e9f5e7120,
perumahan,,Kedai SAKINAH,"PR53+4VX, Jl. Trans Sulawesi, Umpanga, Kec. Bungku Bar., Kabupaten Morowali, Sulawesi Tengah 94976","Jl. Trans Sulawesi, Umpanga, Kec. Bungku Bar., Kabupaten Morowali",SULAWESI TENGAH,94976.0,Indonesia,,,,-2.2919213,121.8034677,https://maps.google.com/?cid=0x0:0xd1d64c465182e8a8,
perumahan,Komplek perumahan,Perumahan Bahtera Sunnah,"PR43+GCP, Umpanga, Kec. Bungku Bar., Kabupaten Morowali, Sulawesi Tengah","Kabupaten Morowali, Sulawesi Tengah",SULAWESI TENGAH,,Indonesia,,,,-2.2936733,121.8035669,https://maps.google.com/?cid=0x0:0x81abe88535b7394d,
perumahan,Pembangunan Perumahan,Wosu,"HQHW+9MJ, Wosu, Kec. Bungku Bar., Kabupaten Morowali, Sulawesi Tengah","Kabupaten Morowali, Sulawesi Tengah",SULAWESI TENGAH,,Indonesia,,,,-2.4215422,121.7966394,https://maps.google.com/?cid=0x0:0xf476a4c3c74374fa,
perumahan,Kantor Pemerintah,Desa wosu,"JRVX+XJW, Jl. Trans Sulawesi, Wosu, Kec. Bungku Bar., Kabupaten Morowali, Sulawesi Tengah 94976","Jl. Trans Sulawesi, Wosu, Kec. Bungku Bar., Kabupaten Morowali",SULAWESI TENGAH,94976.0,Indonesia,,,,-2.3553023,121.8493247,https://maps.google.com/?cid=0x0:0xfc19d00078599e50,
perumahan,Komplek perumahan,Rumah Puput,"PQV5+PP, Ambunu, Kec. Bungku Bar., Kabupaten Morowali, Sulawesi Tengah 94976","Ambunu, Kec. Bungku Bar., Kabupaten Morowali",SULAWESI TENGAH,94976.0,Indonesia,,,,-2.2562813,121.7589956,https://maps.google.com/?cid=0x0:0x8c5fdd4d9f7be754,
perumahan,Pembangunan Perumahan,Rumah suta,"PPMP+5MX, Marga Mulya, Kec. Bungku Bar., Kabupaten Morowali, Sulawesi Tengah 94976","Marga Mulya, Kec. Bungku Bar., Kabupaten Morowali",SULAWESI TENGAH,94976.0,Indonesia,,,,-2.2670231,121.736739,https://maps.google.com/?cid=0x0:0x3960d384a949fa81,
perumahan,Komplek perumahan,Rumah Gafar,"MR9P+9FH, Jl. Trans Sulawesi, Larobenu, Kec. Bungku Bar., Kabupaten Morowali, Sulawesi Tengah 94976","Jl. Trans Sulawesi, Larobenu, Kec. Bungku Bar., Kabupaten Morowali",SULAWESI TENGAH,94976.0,Indonesia,,,,-2.3315564,121.8362197,https://maps.google.com/?cid=0x0:0xdc28d8396e97a6fd,
perumahan,Perumahan,Desa Folili,"MQQ2+XR, Tofogaro, Kec. Bungku Bar., Kabupaten Morowali, Sulawesi Tengah 94976","Tofogaro, Kec. Bungku Bar., Kabupaten Morowali",SULAWESI TENGAH,94976.0,Indonesia,,,,-2.3095963,121.7525336,https://maps.google.com/?cid=0x0:0x9d624759aea4d52,
perumahan,Pembangunan Perumahan,Rumah Musthafa Sumaila,"JRWV+8WW, Wosu, Kec. Bungku Bar., Kabupaten Morowali, Sulawesi Tengah","Kabupaten Morowali, Sulawesi Tengah",SULAWESI TENGAH,,Indonesia,,,,-2.3541449,121.8448323,https://maps.google.com/?cid=0x0:0xdb8a1fa9a00fc4b1,
perumahan,perumahan,Pondok Poernama 01,"Pondok Poernama 01, Lestari, Kompleks Kaplingan, Ambunu, Kec. Bungku Bar., Kabupaten Morowali, Sulawesi Tengah 94976","Lestari, Kompleks Kaplingan, Ambunu, Kec. Bungku Bar., Kabupaten Morowali",SULAWESI TENGAH,94976.0,Indonesia,82346055272.0,,,-2.2610244,121.7567529,https://maps.google.com/?cid=0x0:0xc35af614271ba7e9,
perumahan,Komplek perumahan,Rumah jajan Rinahayu,"HVR8+6M, Bahoea Reko Reko, Kec. Bungku Bar., Kabupaten Morowali, Sulawesi Tengah","Kabupaten Morowali, Sulawesi Tengah",SULAWESI TENGAH,,Indonesia,85298505180.0,,,-2.4093759,121.8666782,https://maps.google.com/?cid=0x0:0x2fb22c93777ad0a0,
perumahan,Komplek perumahan,Andikputri,"PPRX+3V2, Marga Mulya, Kec. Bungku Bar., Kabupaten Morowali, Sulawesi Tengah 94976","Marga Mulya, Kec. Bungku Bar., Kabupaten Morowali",SULAWESI TENGAH,94976.0,Indonesia,,,,-2.260099,121.749485,https://maps.google.com/?cid=0x0:0x20f3e60fe82551df,
perumahan,Komplek perumahan,kos alham,"PQQ2+VG3, Marga Mulya, Kec. Bungku Bar., Kabupaten Morowali, Sulawesi Tengah 94976","Marga Mulya, Kec. Bungku Bar., Kabupaten Morowali",SULAWESI TENGAH,94976.0,Indonesia,,,,-2.2603672,121.7512991,https://maps.google.com/?cid=0x0:0xc65e2e6696403bdc,
perumahan,perumahan,Sulawesi Tengah 94974,"Kabupaten Morowali, Sulawesi Tengah","Kabupaten Morowali, Sulawesi Tengah",SULAWESI TENGAH,,Indonesia,,,,-2.8626226,122.1291843,https://maps.google.com/?cid=0x0:0xb267e774a37f920f,
perumahan,perumahan,Leman,"54QM+8M2, Bahomakmur, Kec. Bahodopi, Kabupaten Morowali, Sulawesi Tengah 94974","Bahomakmur, Kec. Bahodopi, Kabupaten Morowali",SULAWESI TENGAH,94974.0,Indonesia,,,,-2.8117449,122.1341401,https://maps.google.com/?cid=0x0:0x9b7b1b79fe4bc63d,
perumahan,perumahan,Kost crem,"54JH+PX4, Blk. C, Bahomakmur, Kec. Bahodopi, Kabupaten Morowali, Sulawesi Tengah 94974","Blk. C, Bahomakmur, Kec. Bahodopi, Kabupaten Morowali",SULAWESI TENGAH,94974.0,Indonesia,,,,-2.8182448,122.1299407,https://maps.google.com/?cid=0x0:0x16a994b027195c61,
perumahan,Komplek perumahan,Squad morowali,"blok e, Bahomakmur, Kec. Bahodopi, Kabupaten Morowali, Sulawesi Tengah 94974","Bahomakmur, Kec. Bahodopi, Kabupaten Morowali",SULAWESI TENGAH,94974.0,Indonesia,,,,-2.8129615,122.1363267,https://maps.google.com/?cid=0x0:0xfc78b7da83aa3015,
perumahan,Gudang,Perumahan Soliwu Cipta Persada,"53VV+WG5, Bahodopi, Kec. Bahodopi, Kabupaten Morowali, Sulawesi Tengah 94974","Bahodopi, Kec. Bahodopi, Kabupaten Morowali",SULAWESI TENGAH,94974.0,Indonesia,,,,-2.805244,122.0938523,https://maps.google.com/?cid=0x0:0xc8794f653eaca8b5,
perumahan,Kios,gang solata,"54PM+CFP, Bahomakmur, Kec. Bahodopi, Kabupaten Morowali, Sulawesi Tengah 94974","Bahomakmur, Kec. Bahodopi, Kabupaten Morowali",SULAWESI TENGAH,94974.0,Indonesia,,,,-2.8139133,122.1336963,https://maps.google.com/?cid=0x0:0x5bf6aedef4f95ae8,
perumahan,Pembangunan Perumahan,Perumahan,"45M8+8MM, Labota, Kec. Bahodopi, Kabupaten Morowali, Sulawesi Tengah","Kabupaten Morowali, Sulawesi Tengah",SULAWESI TENGAH,,Indonesia,,,,-2.866667,122.166667,https://maps.google.com/?cid=0x0:0x16cded17fc5d7fc5,
perumahan,Pembangunan Perumahan,kreser,"43GQ+MXC, Keurea, Kec. Bahodopi, Kabupaten Morowali, Sulawesi Tengah","Kabupaten Morowali, Sulawesi Tengah",SULAWESI TENGAH,,Indonesia,,,,-2.8733149,122.08989,https://maps.google.com/?cid=0x0:0x320725e08b42643d,
perumahan,perumahan,Nagita Sabrina,"54MH+5X8, Bahomakmur, Kec. Bahodopi, Kabupaten Morowali, Sulawesi Tengah 94974","Bahomakmur, Kec. Bahodopi, Kabupaten Morowali",SULAWESI TENGAH,94974.0,Indonesia,,,,-2.8170993,122.1299428,https://maps.google.com/?cid=0x0:0xb0c570d308387695,
perumahan,Komplek perumahan,Rumah tuan Syahril,"4559+FHM, Makarti Jaya, Kec. Bahodopi, Kabupaten Morowali, Sulawesi Tengah 94974","Makarti Jaya, Kec. Bahodopi, Kabupaten Morowali",SULAWESI TENGAH,94974.0,Indonesia,,,,-2.8912891,122.1689284,https://maps.google.com/?cid=0x0:0xafee92871d9e8a84,
perumahan,Pembangunan Perumahan,Rumah dan koss mangku bales,"54MJ+MPG, Bahomakmur, Kec. Bahodopi, Kabupaten Morowali, Sulawesi Tengah 94974","Bahomakmur, Kec. Bahodopi, Kabupaten Morowali",SULAWESI TENGAH,94974.0,Indonesia,,,,-2.8158018,122.1318985,https://maps.google.com/?cid=0x0:0x1511f9f6e4a10abc,
perumahan,Komplek perumahan,rumah jdin,"Jalan 3 No.Blok B, Bahomakmur, Bahodopi, Morowali Regency, Central Sulawesi 94974","Bahomakmur, Bahodopi, Morowali Regency",SULAWESI TENGAH,94974.0,Indonesia,,,,-2.8121326,122.1408292,https://maps.google.com/?cid=0x0:0xc0b8558f29c257ae,
perumahan,perumahan,Wulan,"4559+FHM, Makarti Jaya, Kec. Bahodopi, Kabupaten Morowali, Sulawesi Tengah 94974","Makarti Jaya, Kec. Bahodopi, Kabupaten Morowali",SULAWESI TENGAH,94974.0,Indonesia,,,,-2.8912891,122.1689284,https://maps.google.com/?cid=0x0:0x7a952a82030b87c0,
perumahan,perumahan,Kost Kirannuan,"54RQ+589, Bahomakmur, Kec. Bahodopi, Kabupaten Morowali, Sulawesi Tengah 94974","Bahomakmur, Kec. Bahodopi, Kabupaten Morowali",SULAWESI TENGAH,94974.0,Indonesia,,,,-2.809579,122.138372,https://maps.google.com/?cid=0x0:0x6be1b0f6be9a37d1,
perumahan,Pembangunan Perumahan,Kebun,"547W+V6F, Fatufia, Kec. Bahodopi, Kabupaten Morowali, Sulawesi Tengah","Kabupaten Morowali, Sulawesi Tengah",SULAWESI TENGAH,,Indonesia,,,,-2.83531,122.1455599,https://maps.google.com/?cid=0x0:0x433b62d5862e33fe,
perumahan,Pembangunan Perumahan,Pondok Nay,"54PW+H5V, Bahomakmur, Kec. Bahodopi, Kabupaten Morowali, Sulawesi Tengah 94974","Bahomakmur, Kec. Bahodopi, Kabupaten Morowali",SULAWESI TENGAH,94974.0,Indonesia,82293008456.0,,,-2.8143379,122.1456519,https://maps.google.com/?cid=0x0:0x3ef3cbe9238fae69,
perumahan,Komplek perumahan,Lorong Lupus 77,"54PV+4CV, Bahomakmur, Kec. Bahodopi, Kabupaten Morowali, Sulawesi Tengah 94974","Bahomakmur, Kec. Bahodopi, Kabupaten Morowali",SULAWESI TENGAH,94974.0,Indonesia,,,,-2.8146357,122.1435316,https://maps.google.com/?cid=0x0:0xf7998115fc73c4ff,
perumahan,Komplek perumahan,Kos Wanto/Anton,"54PQ+HWF, Bahomakmur, Kec. Bahodopi, Kabupaten Morowali, Sulawesi Tengah 94974","Bahomakmur, Kec. Bahodopi, Kabupaten Morowali",SULAWESI TENGAH,94974.0,Indonesia,82293665199.0,,,-2.8135726,122.1398102,https://maps.google.com/?cid=0x0:0xac5bbbdcefbf6ced,
perumahan,Bank,Btn Bungku Persada,"GWFJ+4W2, Jl. Trans Sulawesi, Bahomohoni, Kec. Bungku Tengah, Kabupaten Morowali, Sulawesi Tengah 94973","Jl. Trans Sulawesi, Bahomohoni, Kec. Bungku Tengah, Kabupaten Morowali",SULAWESI TENGAH,94973.0,Indonesia,,,,-2.4772407,121.9322545,https://maps.google.com/?cid=0x0:0xf891d79a5eb62f48,
perumahan,perumahan,Rumah 2,"54PM+92X depan musholla, Blk. C, Bahomakmur, Kec. Bahodopi, Kabupaten Morowali, Sulawesi Tengah 94974","Blk. C, Bahomakmur, Kec. Bahodopi, Kabupaten Morowali",SULAWESI TENGAH,94974.0,Indonesia,,,,-2.814018,122.1326142,https://maps.google.com/?cid=0x0:0xe7325a62786ff926,
perumahan,Pembangunan Perumahan,AFIQA HOME,"36WC+82, Puungkeu, Kec. Bungku Pesisir, Kabupaten Morowali, Sulawesi Tengah 94974","Puungkeu, Kec. Bungku Pesisir, Kabupaten Morowali",SULAWESI TENGAH,94974.0,Indonesia,,,,-2.903467,122.2190334,https://maps.google.com/?cid=0x0:0x2db8cf411bc94160,
perumahan,Perhimpunan Pengembang Perumahan,Rumah nenek,"X6VM+7M4, Torete, Kec. Bungku Pesisir, Kabupaten Morowali, Sulawesi Tengah 94974","Torete, Kec. Bungku Pesisir, Kabupaten Morowali",SULAWESI TENGAH,94974.0,Indonesia,,,,-3.0068598,122.2341905,https://maps.google.com/?cid=0x0:0x33536d6a70960ea8,
perumahan,Motel,Rumah Manto,"X6PC+9MF, Jalan Trans Sulawesi, Buleleng, Kec. Bungku Pesisir, Kabupaten Morowali, Sulawesi Tengah 94974","Jalan Trans Sulawesi, Buleleng, Kec. Bungku Pesisir, Kabupaten Morowali",SULAWESI TENGAH,94974.0,Indonesia,,,,-3.0142226,122.2209849,https://maps.google.com/?cid=0x0:0x59ed71b514a88086,
perumahan,Komplek perumahan,RUMAH HARMAYANI,"X6QV+PWQ, Torete, Kec. Bungku Pesisir, Kabupaten Morowali, Sulawesi Tengah 94974","Torete, Kec. Bungku Pesisir, Kabupaten Morowali",SULAWESI TENGAH,94974.0,Indonesia,,,,-3.0107259,122.2449515,https://maps.google.com/?cid=0x0:0x28c888d782edefa0,
perumahan,perumahan,Alencio Home,"54MG+7QC, Lorong GBI, Bahomakmur, Kec. Bahodopi, Kabupaten Morowali, Sulawesi Tengah 94974","Lorong GBI, Bahomakmur, Kec. Bahodopi, Kabupaten Morowali",SULAWESI TENGAH,94974.0,Indonesia,,,,-2.8168262,122.1268413,https://maps.google.com/?cid=0x0:0xf96037337867bc52,
perumahan,Komplek perumahan,Rumah,"4559+FH7, Dusun 4 jalan kambing, Makarti Jaya, Kec. Bahodopi, Kabupaten Morowali, Sulawesi Tengah 94974","Dusun 4 jalan kambing, Makarti Jaya, Kec. Bahodopi, Kabupaten Morowali",SULAWESI TENGAH,94974.0,Indonesia,,,,-2.8913383,122.1689246,https://maps.google.com/?cid=0x0:0x8a510fde672c94cd,
perumahan,Komplek perumahan,JESSLYN HOME,"Bahomakmur, Kec. Bahodopi, Kabupaten Morowali, Sulawesi Tengah 94974","Kec. Bahodopi, Kabupaten Morowali",SULAWESI TENGAH,94974.0,Indonesia,,,,-2.8148438,122.1359597,https://maps.google.com/?cid=0x0:0xe1d8516460ee4c9b,
perumahan,Pembangunan Perumahan,Kos Figo,"54MQ+98J, Unnamed Road, Bahomakmur, Kec. Bahodopi, Kabupaten Morowali, Sulawesi Tengah 94974","Unnamed Road, Bahomakmur, Kec. Bahodopi, Kabupaten Morowali",SULAWESI TENGAH,94974.0,Indonesia,,,,-2.816543,122.1382703,https://maps.google.com/?cid=0x0:0xb69e2e245b4e1d13,
perumahan,perumahan,Kec. Bungku Sel.,"Kabupaten Morowali, Sulawesi Tengah","Kabupaten Morowali, Sulawesi Tengah",SULAWESI TENGAH,,Indonesia,,,,-3.1416627,122.3998289,https://maps.google.com/?cid=0x0:0x8563743865c09fc9,
perumahan,Perhimpunan Pengembang Perumahan,DESA TANONA,"RFX5+F2, Lalemo, Kec. Bungku Sel., Kabupaten Morowali, Sulawesi Tengah","Kabupaten Morowali, Sulawesi Tengah",SULAWESI TENGAH,,Indonesia,,,,-3.1504163,122.4560615,https://maps.google.com/?cid=0x0:0x66eff35bfbf86853,
perumahan,Perhimpunan Pengembang Perumahan,"Desa Jawi - Jawi, Kec. Bungku Selatan, Kab. Morowali, Sulteng","WCR4+7H9, Jalan Dewi Buana, Jawi Jawi, Kec. Bungku Sel., Kabupaten Morowali, Sulawesi Tengah 94974","Jalan Dewi Buana, Jawi Jawi, Kec. Bungku Sel., Kabupaten Morowali",SULAWESI TENGAH,94974.0,Indonesia,,,,-3.0593265,122.4064964,https://maps.google.com/?cid=0x0:0xd1b4e2c10e3cb3e5,
perumahan,Pembangunan Perumahan,Desa Buajangka,"X98R+4G, Buajangka, Kec. Bungku Sel., Kabupaten Morowali, Sulawesi Tengah","Kabupaten Morowali, Sulawesi Tengah",SULAWESI TENGAH,,Indonesia,,,,-3.0346507,122.3913378,https://maps.google.com/?cid=0x0:0xa8171f5b1b7c37f4,
perumahan,Pembangunan Perumahan,Polewali,"WFCV+6W8, Polewali, Kec. Bungku Sel., Kabupaten Morowali, Sulawesi Tengah","Kabupaten Morowali, Sulawesi Tengah",SULAWESI TENGAH,,Indonesia,,,,-3.0794621,122.4948384,https://maps.google.com/?cid=0x0:0x7cddd5466b28194c,
perumahan,Pembangunan Perumahan,Muhammadin,"X94X+P2, Lokombulo, Kec. Bungku Sel., Kabupaten Morowali, Sulawesi Tengah","Kabupaten Morowali, Sulawesi Tengah",SULAWESI TENGAH,,Indonesia,,,,-3.043209,122.3975736,https://maps.google.com/?cid=0x0:0x4e17b4969302ac9,
perumahan,perumahan,Poaro,"X96C+3MV, Po'o, Kec. Bungku Sel., Kabupaten Morowali, Sulawesi Tengah","Kabupaten Morowali, Sulawesi Tengah",SULAWESI TENGAH,,Indonesia,,,,-3.0397552,122.3716775,https://maps.google.com/?cid=0x0:0xa8463716b4f5df51,
perumahan,Perhimpunan Pengembang Perumahan,Rumah Saira arnan,"WCRC+8P, Buton, Kec. Bungku Sel., Kabupaten Morowali, Sulawesi Tengah","Kabupaten Morowali, Sulawesi Tengah",SULAWESI TENGAH,,Indonesia,,,,-3.0591214,122.4220467,https://maps.google.com/?cid=0x0:0x7b5f163450c4f14,
perumahan,Komplek perumahan,Heriyanto,"XC3C+GW, Koburu, Kec. Bungku Sel., Kabupaten Morowali, Sulawesi Tengah","Kabupaten Morowali, Sulawesi Tengah",SULAWESI TENGAH,,Indonesia,,,,-3.0446647,122.4217859,https://maps.google.com/?cid=0x0:0x419d0ce9b8de3edc,
perumahan,Komplek perumahan,Rumah ilham,"VC3G+746, Lalemo, Kec. Bungku Sel., Kabupaten Morowali, Sulawesi Tengah 94974","Lalemo, Kec. Bungku Sel., Kabupaten Morowali",SULAWESI TENGAH,94974.0,Indonesia,,,,-3.1472956,122.4255554,https://maps.google.com/?cid=0x0:0xbd03cdc51694e71b,
perumahan,Gedung Apartemen,Rumah Tamrin,"VHMC+QRM, Sainoa, Kec. Bungku Sel., Kabupaten Morowali, Sulawesi Tengah","Kabupaten Morowali, Sulawesi Tengah",SULAWESI TENGAH,,Indonesia,,,,-3.1157329,122.5713478,https://maps.google.com/?cid=0x0:0xbcf1e8320b1397a8,
perumahan,Komplek perumahan,Rumah adli,"XC3C+GW, Koburu, Kec. Bungku Sel., Kabupaten Morowali, Sulawesi Tengah","Kabupaten Morowali, Sulawesi Tengah",SULAWESI TENGAH,,Indonesia,,,,-3.045178,122.421848,https://maps.google.com/?cid=0x0:0xb87c836222b565b5,
perumahan,Pembangunan Perumahan,pado pado,"X9P2+3Q4, Pado Pado, Kec. Bungku Sel., Kabupaten Morowali, Sulawesi Tengah 94974","Pado Pado, Kec. Bungku Sel., Kabupaten Morowali",SULAWESI TENGAH,94974.0,Indonesia,,,,-3.0148655,122.3519504,https://maps.google.com/?cid=0x0:0xcc13d9907cbcc51a,
perumahan,Komplek perumahan,Padang,"XC62+949, Lokombulo, Kec. Bungku Sel., Kabupaten Morowali, Sulawesi Tengah","Kabupaten Morowali, Sulawesi Tengah",SULAWESI TENGAH,,Indonesia,,,,-3.0390875,122.4003647,https://maps.google.com/?cid=0x0:0x8a691e7635c1f63d,
perumahan,Komplek perumahan,Rmh. Q,"WFR8+43C, Pulau Dua, Kec. Bungku Sel., Kabupaten Morowali, Sulawesi Tengah 94974","Pulau Dua, Kec. Bungku Sel., Kabupaten Morowali",SULAWESI TENGAH,94974.0,Indonesia,,,,-3.0596982,122.4651381,https://maps.google.com/?cid=0x0:0x72706f417dbaf937,
perumahan,Komplek perumahan,Rumah Sekdes (MASHAR),"WFQ8+Q7W, Pulau Dua, Kec. Bungku Sel., Kabupaten Morowali, Sulawesi Tengah","Kabupaten Morowali, Sulawesi Tengah",SULAWESI TENGAH,,Indonesia,,,,-3.0605011,122.4657049,https://maps.google.com/?cid=0x0:0xf9611f50b9d5e563,
perumahan,Perhimpunan Pengembang Perumahan,Desa Sambalagi,"W87H+X87, Sambalagi, Kec. Bungku Sel., Kabupaten Morowali, Sulawesi Tengah 94974","Sambalagi, Kec. Bungku Sel., Kabupaten Morowali",SULAWESI TENGAH,94974.0,Indonesia,,,,-3.0850789,122.3282904,https://maps.google.com/?cid=0x0:0x56424b48f9e3a47a,
perumahan,Komplek perumahan,Rumah aswan,"VC3G+WJ9, Lalemo, Kec. Bungku Sel., Kabupaten Morowali, Sulawesi Tengah 94974","Lalemo, Kec. Bungku Sel., Kabupaten Morowali",SULAWESI TENGAH,94974.0,Indonesia,,,,-3.145217,122.4266014,https://maps.google.com/?cid=0x0:0xc1677b24e808a505,
perumahan,Komplek perumahan,Lorong bambong,"XC52+J2C, Lokombulo, Kec. Bungku Sel., Kabupaten Morowali, Sulawesi Tengah","Kabupaten Morowali, Sulawesi Tengah",SULAWESI TENGAH,,Indonesia,,,,-3.040944,122.4000032,https://maps.google.com/?cid=0x0:0x99aa2caa54b60585,
perumahan,Perhimpunan Pengembang Perumahan,Ningsih,"XC2F+XF, Koburu, Kec. Bungku Sel., Kabupaten Morowali, Sulawesi Tengah","Kabupaten Morowali, Sulawesi Tengah",SULAWESI TENGAH,,Indonesia,,,,-3.0475788,122.4237402,https://maps.google.com/?cid=0x0:0xafa0385e606fe557,
perumahan,Pusat Rekreasi,Baya laut,"VC6Q+4Q, Lalemo, Kabupaten Morowali, Sulawesi Tengah 94974","Lalemo, Kabupaten Morowali",SULAWESI TENGAH,94974.0,Indonesia,,,,-3.1396494,122.4394214,https://maps.google.com/?cid=0x0:0xc663241dde573f1f,
perumahan,Pembangunan Perumahan,Laroenai Bungku pesisir,"X72H+65F, Laroenai, Kec. Bungku Pesisir, Kabupaten Morowali, Sulawesi Tengah 94974","Laroenai, Kec. Bungku Pesisir, Kabupaten Morowali",SULAWESI TENGAH,94974.0,Indonesia,,,,-3.0490183,122.2771883,https://maps.google.com/?cid=0x0:0xb22055d75d612558,
perumahan,perumahan,Rumah Sitti Rahmadani,"276H+V7R, Lafeu, Kec. Bungku Sel., Kabupaten Morowali, Sulawesi Tengah","Kabupaten Morowali, Sulawesi Tengah",SULAWESI TENGAH,,Indonesia,,,,-2.9877593,122.2781259,https://maps.google.com/?cid=0x0:0x6ae4310a88d93921,
perumahan,Komplek perumahan,RUMAH RIFLAN,"WCRF+J2J, Buton, Kec. Bungku Sel., Kabupaten Morowali, Sulawesi Tengah 94974","Buton, Kec. Bungku Sel., Kabupaten Morowali",SULAWESI TENGAH,94974.0,Indonesia,,,,-3.0584166,122.4225235,https://maps.google.com/?cid=0x0:0x98359c890beb3f05,
perumahan,Komplek perumahan,Rumah Heri,"XC4C+4PJ, Koburu, Kec. Bungku Sel., Kabupaten Morowali, Sulawesi Tengah 94974","Koburu, Kec. Bungku Sel., Kabupaten Morowali",SULAWESI TENGAH,94974.0,Indonesia,,,,-3.0446623,122.4217802,https://maps.google.com/?cid=0x0:0xe1d2d9f2f97d077,
perumahan,perumahan,Sulawesi Tengah 94973,"Kec. Bungku Tengah, Kabupaten Morowali, Sulawesi Tengah","Kabupaten Morowali, Sulawesi Tengah",SULAWESI TENGAH,,Indonesia,,,,-2.6659253,121.856261,https://maps.google.com/?cid=0x0:0x20bfb697387a3fcd,
perumahan,perumahan,Rumah Anggi,"CX3P+VW4, Bungku - Bahodopi, Puungkoilu, Kec. Bungku Tengah, Kabupaten Morowali, Sulawesi Tengah 94973","Bungku - Bahodopi, Puungkoilu, Kec. Bungku Tengah, Kabupaten Morowali",SULAWESI TENGAH,94973.0,Indonesia,,,,-2.5956108,121.9873361,https://maps.google.com/?cid=0x0:0x3ecba494e1609e66,
perumahan,Kantor Perusahaan,Perumahan FAT Residence,"FWJW+CC, Bahoruru, Kec. Bungku Tengah, Kabupaten Morowali, Sulawesi Tengah 94973","Bahoruru, Kec. Bungku Tengah, Kabupaten Morowali",SULAWESI TENGAH,94973.0,Indonesia,82251185533.0,,,-2.5189,121.9460158,https://maps.google.com/?cid=0x0:0xd5ece9299b0e227a,
perumahan,Komplek perumahan,Kos NHN,"GW6Q+G32, Bente, Kec. Bungku Tengah, Kabupaten Morowali, Sulawesi Tengah 94973","Bente, Kec. Bungku Tengah, Kabupaten Morowali",SULAWESI TENGAH,94973.0,Indonesia,,,,-2.4887311,121.9376461,https://maps.google.com/?cid=0x0:0xb9ca675ef3dec204,
perumahan,perumahan,PERCETAKAN ANUNTO PRINT,"8X99+44X, Ululere, Kec. Bungku Timur, Kabupaten Morowali, Sulawesi Tengah","Kabupaten Morowali, Sulawesi Tengah",SULAWESI TENGAH,,Indonesia,85757239811.0,,,-2.6817165,121.9677298,https://maps.google.com/?cid=0x0:0x44cd0d330fcfc002,
perumahan,Komplek perumahan,Rumah Yusril,"CX2Q+6F, Puungkoilu, Kec. Bungku Tengah, Kabupaten Morowali, Sulawesi Tengah","Kabupaten Morowali, Sulawesi Tengah",SULAWESI TENGAH,,Indonesia,,,,-2.5997713,121.9882896,https://maps.google.com/?cid=0x0:0x36fae068e882a257,
perumahan,Komplek perumahan,Nambo,"9X2X+99Q, Nambo, Kec. Bungku Timur, Kabupaten Morowali, Sulawesi Tengah","Kabupaten Morowali, Sulawesi Tengah",SULAWESI TENGAH,,Indonesia,,,,-2.6490391,121.9984936,https://maps.google.com/?cid=0x0:0x5281b7962d4b7404,
perumahan,Pembangunan Perumahan,Kos BTN H. Nunu No. 1,"GWGG+PX9 Kompleks KTM, Jln. Gajah, Bahomohoni, Kec. Bungku Tengah, Kabupaten Morowali, Sulawesi Tengah 94973","Jln. Gajah, Bahomohoni, Kec. Bungku Tengah, Kabupaten Morowali",SULAWESI TENGAH,94973.0,Indonesia,,,,-2.4732053,121.9274757,https://maps.google.com/?cid=0x0:0x267682d2d2ccaed4,
perumahan,Komplek perumahan,Rumah kayu tiang besar,"Jl.jarbo, Bahomohoni, Kec. Bungku Tengah, Kabupaten Morowali, Sulawesi Tengah 94973","Bahomohoni, Kec. Bungku Tengah, Kabupaten Morowali",SULAWESI TENGAH,94973.0,Indonesia,,,,-2.591472,121.7765309,https://maps.google.com/?cid=0x0:0xdfbf67d8c79fe54c,
perumahan,Komplek perumahan,Rumah mama Gito/aco,"GW4V+22C, Bente, Kec. Bungku Tengah, Kabupaten Morowali, Sulawesi Tengah 94973","Bente, Kec. Bungku Tengah, Kabupaten Morowali",SULAWESI TENGAH,94973.0,Indonesia,,,,-2.4949396,121.9425133,https://maps.google.com/?cid=0x0:0xeab052fbe1b04e40,
perumahan,Pembangunan Perumahan,Rumah Emil,"FXH3+P97, Bahoruru, Kec. Bungku Tengah, Kabupaten Morowali, Sulawesi Tengah 94973","Bahoruru, Kec. Bungku Tengah, Kabupaten Morowali",SULAWESI TENGAH,94973.0,Indonesia,,,,-2.5207623,121.9534578,https://maps.google.com/?cid=0x0:0xbe63085ca6b69883,
perumahan,Komplek perumahan,Tanahku,"FX38+825, Lamberea, Kec. Bungku Tengah, Kabupaten Morowali, Sulawesi Tengah 94973","Lamberea, Kec. Bungku Tengah, Kabupaten Morowali",SULAWESI TENGAH,94973.0,Indonesia,,,,-2.5467258,121.9651046,https://maps.google.com/?cid=0x0:0xac81929ec6481dca,
perumahan,Pembangunan Perumahan,Nenek daffa,"82G5+79P, Kolono, Kec. Bungku Timur, Kabupaten Morowali, Sulawesi Tengah 94973","Kolono, Kec. Bungku Timur, Kabupaten Morowali",SULAWESI TENGAH,94973.0,Indonesia,,,,-2.6747127,122.008556,https://maps.google.com/?cid=0x0:0x2a94cfbd8db5d87d,
perumahan,Komplek perumahan,Rumah nana,"CXXC+8JX, Mendui, Kec. Bungku Tengah, Kabupaten Morowali, Sulawesi Tengah 94973","Mendui, Kec. Bungku Tengah, Kabupaten Morowali",SULAWESI TENGAH,94973.0,Indonesia,,,,-2.5518933,121.9717735,https://maps.google.com/?cid=0x0:0x1dfb48df3b8261c6,
perumahan,Komplek perumahan,RUMAH MAMA EHA,"Sakita, Kec. Bungku Tengah, Kabupaten Morowali, Sulawesi Tengah 94973","Kec. Bungku Tengah, Kabupaten Morowali",SULAWESI TENGAH,94973.0,Indonesia,,,,-2.5593056,121.9647143,https://maps.google.com/?cid=0x0:0x1532ba3ea2dccf37,
perumahan,Komplek perumahan,Rumah Aqila Rafif,"FWRR+76, Ipi, Kec. Bungku Tengah, Kabupaten Morowali, Sulawesi Tengah 94973","Ipi, Kec. Bungku Tengah, Kabupaten Morowali",SULAWESI TENGAH,94973.0,Indonesia,,,,-2.5096536,121.9407038,https://maps.google.com/?cid=0x0:0x12bc8ca02d3f5b91,
perumahan,Komplek perumahan,Jay,"82X9+25, Laroue, Kec. Bungku Timur, Kabupaten Morowali, Sulawesi Tengah 94973","Laroue, Kec. Bungku Timur, Kabupaten Morowali",SULAWESI TENGAH,94973.0,Indonesia,,,,-2.6524834,122.0178193,https://maps.google.com/?cid=0x0:0xd5768eff263fa4b,
perumahan,Komplek perumahan,Harjono Home,"CXXF+FF7, Tofoiso, Kec. Bungku Tengah, Kabupaten Morowali, Sulawesi Tengah 94973","Tofoiso, Kec. Bungku Tengah, Kabupaten Morowali",SULAWESI TENGAH,94973.0,Indonesia,,,,-2.5520052,121.9745084,https://maps.google.com/?cid=0x0:0xc9d7b69cdf3b7a78,
perumahan,perumahan,Rumah Jihan  Arkana,"92C2+MC4, Unsongi, Kec. Bungku Timur, Kabupaten Morowali, Sulawesi Tengah","Kabupaten Morowali, Sulawesi Tengah",SULAWESI TENGAH,,Indonesia,,,,-2.628943,122.0009298,https://maps.google.com/?cid=0x0:0x1e916ee71b283408,
perumahan,Komplek perumahan,Kompleks Lamontoli,"FWPX+M4C, Bahoruru, Kec. Bungku Tengah, Kabupaten Morowali, Sulawesi Tengah 94973","Bahoruru, Kec. Bungku Tengah, Kabupaten Morowali",SULAWESI TENGAH,94973.0,Indonesia,,,,-2.5133022,121.9477745,https://maps.google.com/?cid=0x0:0x5065b7c8c5d03345,
perumahan,Bank,Btn Bungku Persada,"GWFJ+4W2, Jl. Trans Sulawesi, Bahomohoni, Kec. Bungku Tengah, Kabupaten Morowali, Sulawesi Tengah 94973","Jl. Trans Sulawesi, Bahomohoni, Kec. Bungku Tengah, Kabupaten Morowali",SULAWESI TENGAH,94973.0,Indonesia,,,,-2.4772407,121.9322545,https://maps.google.com/?cid=0x0:0xf891d79a5eb62f48,
perumahan,Komplek perumahan,Rumah ku,"FWRR+9G8, Perumahan Permai, Ipi, Bungku Tengah, Morowali Regency, Central Sulawesi 94973","Perumahan Permai, Ipi, Bungku Tengah, Morowali Regency",SULAWESI TENGAH,94973.0,Indonesia,,,,-2.5090809,121.9413337,https://maps.google.com/?cid=0x0:0x660be59ed6595238,
perumahan,Komplek perumahan,Er Za Fa,"FX87+9CH, Matansala, Kec. Bungku Tengah, Kabupaten Morowali, Sulawesi Tengah 94973","Matansala, Kec. Bungku Tengah, Kabupaten Morowali",SULAWESI TENGAH,94973.0,Indonesia,,,,-2.5340587,121.9636125,https://maps.google.com/?cid=0x0:0xb714afaf22d7c125,
perumahan,Pembangunan Perumahan,Mess Pt. Presisi bahomotefe proyek vale,"72GC+7C9, Bahomotefe, Kec. Bungku Tengah, Kabupaten Morowali, Sulawesi Tengah 94973","Bahomotefe, Kec. Bungku Tengah, Kabupaten Morowali",SULAWESI TENGAH,94973.0,Indonesia,,,,-2.7243408,122.0211101,https://maps.google.com/?cid=0x0:0x1d84e171c6601c2b,
perumahan,Komplek perumahan,Depan TPI,"FX78+P8Q, Unnamed Road, Matano, Kec. Bungku Tengah, Kabupaten Morowali, Sulawesi Tengah 94973","Unnamed Road, Matano, Kec. Bungku Tengah, Kabupaten Morowali",SULAWESI TENGAH,94973.0,Indonesia,,,,-2.535675,121.9658583,https://maps.google.com/?cid=0x0:0x26a09fcb68e14b30,
perumahan,perumahan,rumah restu,"CXWF+F55, Mendui, Kec. Bungku Tengah, Kabupaten Morowali, Sulawesi Tengah 94973","Mendui, Kec. Bungku Tengah, Kabupaten Morowali",SULAWESI TENGAH,94973.0,Indonesia,,,,-2.5538618,121.9729815,https://maps.google.com/?cid=0x0:0x57c9bb8881f21443,
perumahan,Perhimpunan Pengembang Perumahan,Ipi,"FWRR+PF4, Ipi, Kec. Bungku Tengah, Kabupaten Morowali, Sulawesi Tengah 94973","Ipi, Kec. Bungku Tengah, Kabupaten Morowali",SULAWESI TENGAH,94973.0,Indonesia,,,,-2.5075654,121.9413097,https://maps.google.com/?cid=0x0:0xd9889220244a2f58,
perumahan,Layanan Binatu,Laundry Karpet Morowali,"FXF5+M5Q, Lorong Pelangi, Matansala, Kec. Bungku Tengah, Kabupaten Morowali, Sulawesi Tengah 94973","Lorong Pelangi, Matansala, Kec. Bungku Tengah, Kabupaten Morowali",SULAWESI TENGAH,94973.0,Indonesia,,,,-2.5257899,121.9579744,https://maps.google.com/?cid=0x0:0x1e9fdc473860f61c,
perumahan,Komplek perumahan,Rumah supardin ramli,"FXM2+256, Bahoruru, Kec. Bungku Tengah, Kabupaten Morowali, Sulawesi Tengah 94973","Bahoruru, Kec. Bungku Tengah, Kabupaten Morowali",SULAWESI TENGAH,94973.0,Indonesia,,,,-2.517459,121.9503973,https://maps.google.com/?cid=0x0:0x8f7ea2796115565e,
perumahan,perumahan,Sulawesi Tengah 94973,"Kec. Bungku Tengah, Kabupaten Morowali, Sulawesi Tengah","Kabupaten Morowali, Sulawesi Tengah",SULAWESI TENGAH,,Indonesia,,,,-2.6659253,121.856261,https://maps.google.com/?cid=0x0:0x20bfb697387a3fcd,
perumahan,Komplek perumahan,Bungku timur,"CXQH+F6, Tofuti, Kec. Bungku Tengah, Kabupaten Morowali, Sulawesi Tengah","Kabupaten Morowali, Sulawesi Tengah",SULAWESI TENGAH,,Indonesia,,,,-2.5613483,121.97811,https://maps.google.com/?cid=0x0:0x6bd43aab0b753abb,
perumahan,perumahan,Rumah Anggi,"CX3P+VW4, Bungku - Bahodopi, Puungkoilu, Kec. Bungku Tengah, Kabupaten Morowali, Sulawesi Tengah 94973","Bungku - Bahodopi, Puungkoilu, Kec. Bungku Tengah, Kabupaten Morowali",SULAWESI TENGAH,94973.0,Indonesia,,,,-2.5956108,121.9873361,https://maps.google.com/?cid=0x0:0x3ecba494e1609e66,
perumahan,Kantor Perusahaan,Perumahan FAT Residence,"FWJW+CC, Bahoruru, Kec. Bungku Tengah, Kabupaten Morowali, Sulawesi Tengah 94973","Bahoruru, Kec. Bungku Tengah, Kabupaten Morowali",SULAWESI TENGAH,94973.0,Indonesia,82251185533.0,,,-2.5189,121.9460158,https://maps.google.com/?cid=0x0:0xd5ece9299b0e227a,
perumahan,Komplek perumahan,TEMPAT KUMPUL ANAK TAMVAN,"7288+328, Onepute Jaya, Kec. Bungku Timur, Kabupaten Morowali, Sulawesi Tengah 94973","Onepute Jaya, Kec. Bungku Timur, Kabupaten Morowali",SULAWESI TENGAH,94973.0,Indonesia,,,,-2.7348383,122.0150886,https://maps.google.com/?cid=0x0:0x2b8f551a91167eba,
perumahan,Komplek perumahan,Nambo,"9X2X+99Q, Nambo, Kec. Bungku Timur, Kabupaten Morowali, Sulawesi Tengah","Kabupaten Morowali, Sulawesi Tengah",SULAWESI TENGAH,,Indonesia,,,,-2.6490391,121.9984936,https://maps.google.com/?cid=0x0:0x5281b7962d4b7404,
perumahan,Komplek perumahan,Perumahan BTN Bahoruru,"Fat Residence Blok B No. 8, Bahoruru, Kec. Bungku Tengah, Kabupaten Morowali, Sulawesi Tengah","Kabupaten Morowali, Sulawesi Tengah",SULAWESI TENGAH,,Indonesia,,,,-2.5215709,121.9488189,https://maps.google.com/?cid=0x0:0xfb7d8742f2f6e14d,
perumahan,perumahan,PERCETAKAN ANUNTO PRINT,"8X99+44X, Ululere, Kec. Bungku Timur, Kabupaten Morowali, Sulawesi Tengah","Kabupaten Morowali, Sulawesi Tengah",SULAWESI TENGAH,,Indonesia,85757239811.0,,,-2.6817165,121.9677298,https://maps.google.com/?cid=0x0:0x44cd0d330fcfc002,
perumahan,Pertanian,Taufan Rumah,"CX2Q+9CF, Puungkoilu, Kec. Bungku Tengah, Kabupaten Morowali, Sulawesi Tengah 94973","Puungkoilu, Kec. Bungku Tengah, Kabupaten Morowali",SULAWESI TENGAH,94973.0,Indonesia,,,,-2.598463,121.9885001,https://maps.google.com/?cid=0x0:0x44806ed3f8f4e212,
perumahan,perumahan,TH,"72G3+7R, Onepute Jaya, Kec. Bungku Timur, Kabupaten Morowali, Sulawesi Tengah","Kabupaten Morowali, Sulawesi Tengah",SULAWESI TENGAH,,Indonesia,,,,-2.7243158,122.0046021,https://maps.google.com/?cid=0x0:0x78a58adea271274,
perumahan,Komplek perumahan,Jay,"82X9+25, Laroue, Kec. Bungku Timur, Kabupaten Morowali, Sulawesi Tengah 94973","Laroue, Kec. Bungku Timur, Kabupaten Morowali",SULAWESI TENGAH,94973.0,Indonesia,,,,-2.6524834,122.0178193,https://maps.google.com/?cid=0x0:0xd5768eff263fa4b,
perumahan,Komplek perumahan,Rumah Yusril,"CX2Q+6F, Puungkoilu, Kec. Bungku Tengah, Kabupaten Morowali, Sulawesi Tengah","Kabupaten Morowali, Sulawesi Tengah",SULAWESI TENGAH,,Indonesia,,,,-2.5997713,121.9882896,https://maps.google.com/?cid=0x0:0x36fae068e882a257,
perumahan,Komplek perumahan,Ibu wahida,"82G5+79P, Kolono, Kec. Bungku Timur, Kabupaten Morowali, Sulawesi Tengah 94973","Kolono, Kec. Bungku Timur, Kabupaten Morowali",SULAWESI TENGAH,94973.0,Indonesia,,,,-2.6748274,122.0085154,https://maps.google.com/?cid=0x0:0xaff7ef33613061fc,
perumahan,Komplek perumahan,Rumah Naila,"8X9W+33, Ululere, Kec. Bungku Timur, Kabupaten Morowali, Sulawesi Tengah","Kabupaten Morowali, Sulawesi Tengah",SULAWESI TENGAH,,Indonesia,,,,-2.6823016,121.9952063,https://maps.google.com/?cid=0x0:0xc1c2684f215c1edb,
perumahan,Kantor Pemerintah Distrik,Bungku,"7XVQ+V92, Bahomoahi, Kec. Bungku Timur, Kabupaten Morowali, Sulawesi Tengah","Kabupaten Morowali, Sulawesi Tengah",SULAWESI TENGAH,,Indonesia,,,,-2.705374,121.988403,https://maps.google.com/?cid=0x0:0x44374f45ae27443e,
perumahan,Pembangunan Perumahan,Nenek daffa,"82G5+79P, Kolono, Kec. Bungku Timur, Kabupaten Morowali, Sulawesi Tengah 94973","Kolono, Kec. Bungku Timur, Kabupaten Morowali",SULAWESI TENGAH,94973.0,Indonesia,,,,-2.6747127,122.008556,https://maps.google.com/?cid=0x0:0x2a94cfbd8db5d87d,
perumahan,perumahan,Rumah Jihan  Arkana,"92C2+MC4, Unsongi, Kec. Bungku Timur, Kabupaten Morowali, Sulawesi Tengah","Kabupaten Morowali, Sulawesi Tengah",SULAWESI TENGAH,,Indonesia,,,,-2.628943,122.0009298,https://maps.google.com/?cid=0x0:0x1e916ee71b283408,
perumahan,Komplek perumahan,Grandma home,"8WFJ+93H, Lahuafu, Kec. Bungku Timur, Kabupaten Morowali, Sulawesi Tengah 94973","Lahuafu, Kec. Bungku Timur, Kabupaten Morowali",SULAWESI TENGAH,94973.0,Indonesia,,,,-2.6765722,121.9302449,https://maps.google.com/?cid=0x0:0x845631dda6aee4f,
perumahan,Komplek perumahan,Rumah kayu tiang besar,"Jl.jarbo, Bahomohoni, Kec. Bungku Tengah, Kabupaten Morowali, Sulawesi Tengah 94973","Bahomohoni, Kec. Bungku Tengah, Kabupaten Morowali",SULAWESI TENGAH,94973.0,Indonesia,,,,-2.591472,121.7765309,https://maps.google.com/?cid=0x0:0xdfbf67d8c79fe54c,
perumahan,Kantor Perusahaan,Mess PT. BUMA Jobsite ACN Morowali. Sulawesi Tengah,"7XVQ+V92, Bahomoahi, Kec. Bungku Timur, Kabupaten Morowali, Sulawesi Tengah 94973","Bahomoahi, Kec. Bungku Timur, Kabupaten Morowali",SULAWESI TENGAH,94973.0,Indonesia,81241770776.0,,,-2.705374,121.988403,https://maps.google.com/?cid=0x0:0x2d18fc9996908e09,
perumahan,Komplek perumahan,Kompleks Lamontoli,"FWPX+M4C, Bahoruru, Kec. Bungku Tengah, Kabupaten Morowali, Sulawesi Tengah 94973","Bahoruru, Kec. Bungku Tengah, Kabupaten Morowali",SULAWESI TENGAH,94973.0,Indonesia,,,,-2.5133022,121.9477745,https://maps.google.com/?cid=0x0:0x5065b7c8c5d03345,
perumahan,Komplek perumahan,Rumah Aqila Rafif,"FWRR+76, Ipi, Kec. Bungku Tengah, Kabupaten Morowali, Sulawesi Tengah 94973","Ipi, Kec. Bungku Tengah, Kabupaten Morowali",SULAWESI TENGAH,94973.0,Indonesia,,,,-2.5096536,121.9407038,https://maps.google.com/?cid=0x0:0x12bc8ca02d3f5b91,
perumahan,Komplek perumahan,Harjono Home,"CXXF+FF7, Tofoiso, Kec. Bungku Tengah, Kabupaten Morowali, Sulawesi Tengah 94973","Tofoiso, Kec. Bungku Tengah, Kabupaten Morowali",SULAWESI TENGAH,94973.0,Indonesia,,,,-2.5520052,121.9745084,https://maps.google.com/?cid=0x0:0xc9d7b69cdf3b7a78,
perumahan,Pembangunan Perumahan,Kantor Pemasaran Perumahan FAT Residence,"Bahoruru, Kec. Bungku Tengah, Kabupaten Morowali, Sulawesi Tengah 94973","Kec. Bungku Tengah, Kabupaten Morowali",SULAWESI TENGAH,94973.0,Indonesia,82251185533.0,,,-2.5137644,121.9523242,https://maps.google.com/?cid=0x0:0xe3dd86521b8ceb51,
perumahan,perumahan,Rumah Ean,"82W9+GWV, Laroue, Kec. Bungku Timur, Kabupaten Morowali, Sulawesi Tengah 94973","Laroue, Kec. Bungku Timur, Kabupaten Morowali",SULAWESI TENGAH,94973.0,Indonesia,,,,-2.65255,122.019615,https://maps.google.com/?cid=0x0:0xe7bfd1d75c84b78d,
perumahan,Komplek perumahan,Bahomotefe,"7XWR+3QG, Bahomotefe, Kec. Bungku Timur, Kabupaten Morowali, Sulawesi Tengah","Kabupaten Morowali, Sulawesi Tengah",SULAWESI TENGAH,,Indonesia,,,,-2.7048032,121.9919666,https://maps.google.com/?cid=0x0:0xdf4aec0fa82fac9f,
perumahan,perumahan,rumah restu,"CXWF+F55, Mendui, Kec. Bungku Tengah, Kabupaten Morowali, Sulawesi Tengah 94973","Mendui, Kec. Bungku Tengah, Kabupaten Morowali",SULAWESI TENGAH,94973.0,Indonesia,,,,-2.5538618,121.9729815,https://maps.google.com/?cid=0x0:0x57c9bb8881f21443,
perumahan,Komplek perumahan,Ratna Home,"9XPV+9XJ, Lahuafu, Kec. Bungku Timur, Kabupaten Morowali, Sulawesi Tengah 94973","Lahuafu, Kec. Bungku Timur, Kabupaten Morowali",SULAWESI TENGAH,94973.0,Indonesia,,,,-2.6140376,121.9948835,https://maps.google.com/?cid=0x0:0xd95738b3b02d6186,
perumahan,perumahan,Sulawesi Tengah 94972,"Kabupaten Morowali Utara, Sulawesi Tengah","Kabupaten Morowali Utara, Sulawesi Tengah",SULAWESI TENGAH,,Indonesia,,,,-1.6248083,121.7195459,https://maps.google.com/?cid=0x0:0xe9e478f27d681886,
perumahan,Komplek perumahan,rumah anca,"7RC4+2FG, Siliti, Kec. Bungku Utara, Kabupaten Morowali Utara, Sulawesi Tengah 94972","Siliti, Kec. Bungku Utara, Kabupaten Morowali Utara",SULAWESI TENGAH,94972.0,Indonesia,,,,-1.7298263,121.8067828,https://maps.google.com/?cid=0x0:0x75aa65c8456f4282,
perumahan,Pembangunan Perumahan,"Sulteng, morowali utara, petasia timur poranda, bungintimbe","HC9W+59H, Taronggo, Kec. Bungku Utara, Kabupaten Morowali Utara, Sulawesi Tengah","Kabupaten Morowali Utara, Sulawesi Tengah",SULAWESI TENGAH,,Indonesia,82171124485.0,,,-1.4320653,121.4459985,https://maps.google.com/?cid=0x0:0xd66516c8e4a80915,
perumahan,Komplek perumahan,Rumah Wayan landra,"6PQ5+W7Q, Tambarobone, Kec. Bungku Utara, Kabupaten Morowali Utara, Sulawesi Tengah 94972","Tambarobone, Kec. Bungku Utara, Kabupaten Morowali Utara",SULAWESI TENGAH,94972.0,Indonesia,,,,-1.7601336,121.7076499,https://maps.google.com/?cid=0x0:0x68ad98e07bba3f56,
perumahan,Pembangunan Perumahan,Perumahan Trans,"6P7P+6MC, Tokala Atas, Kec. Bungku Utara, Kabupaten Morowali, Sulawesi Tengah","Kabupaten Morowali, Sulawesi Tengah",SULAWESI TENGAH,,Indonesia,,,,-1.7869405,121.7366444,https://maps.google.com/?cid=0x0:0x116eb913f1a5c2dd,
perumahan,perumahan,Rumah murtia,"HC9W+X6Q, Jalan trans tirtasari, Taronggo, Kec. Bungku Utara, Kabupaten Morowali Utara, Sulawesi Tengah","Kabupaten Morowali Utara, Sulawesi Tengah",SULAWESI TENGAH,,Indonesia,,,,-1.4300254,121.4456179,https://maps.google.com/?cid=0x0:0xb2cf40a3d9cce86b,
perumahan,Komplek perumahan,Lorong,"7Q55+F75, Tirongan Atas, Kec. Bungku Utara, Kabupaten Morowali Utara, Sulawesi Tengah","Kabupaten Morowali Utara, Sulawesi Tengah",SULAWESI TENGAH,,Indonesia,,,,-1.7416905,121.7575755,https://maps.google.com/?cid=0x0:0x5fdef3c09719ec61,
perumahan,Perhimpunan Pengembang Perumahan,Bungku,"HC9W+X6Q, Taronggo, Kec. Bungku Utara, Kabupaten Morowali Utara, Sulawesi Tengah","Kabupaten Morowali Utara, Sulawesi Tengah",SULAWESI TENGAH,,Indonesia,,,,-1.4300254,121.4456179,https://maps.google.com/?cid=0x0:0x35b5f7b29b2fc7f5,
perumahan,Kantor Pemerintah,DESA UERURU,"8QCV+XCQ, Ueruru, Kec. Bungku Utara, Kabupaten Morowali, Sulawesi Tengah","Kabupaten Morowali, Sulawesi Tengah",SULAWESI TENGAH,,Indonesia,,,,-1.6775413,121.7936207,https://maps.google.com/?cid=0x0:0x40e4ea7b3c0a7092,
perumahan,Komplek perumahan,kabinuang,"HC9W+X6Q, Taronggo, Kec. Bungku Utara, Kabupaten Morowali Utara, Sulawesi Tengah","Kabupaten Morowali Utara, Sulawesi Tengah",SULAWESI TENGAH,,Indonesia,,,,-1.4300254,121.4456179,https://maps.google.com/?cid=0x0:0x868e9a4909bf35ae,
perumahan,Komplek perumahan,Rumah nenek,"6P6R+GH, Tokala Atas, Kec. Bungku Utara, Kabupaten Morowali, Sulawesi Tengah 94972","Tokala Atas, Kec. Bungku Utara, Kabupaten Morowali",SULAWESI TENGAH,94972.0,Indonesia,,,,-1.7885932,121.7414036,https://maps.google.com/?cid=0x0:0xee7d906132cc89a5,
perumahan,Komplek perumahan,Bunta,"HC9W+X6Q, Taronggo, Kec. Bungku Utara, Kabupaten Morowali Utara, Sulawesi Tengah","Kabupaten Morowali Utara, Sulawesi Tengah",SULAWESI TENGAH,,Indonesia,,,,-1.4300254,121.4456179,https://maps.google.com/?cid=0x0:0xd7942c665bcdfcc0,
perumahan,Komplek perumahan,Rumah Marta,"7QG8+54H, Opo, Kec. Bungku Utara, Kabupaten Morowali Utara, Sulawesi Tengah 94972","Opo, Kec. Bungku Utara, Kabupaten Morowali Utara",SULAWESI TENGAH,94972.0,Indonesia,,,,-1.7245659,121.7653745,https://maps.google.com/?cid=0x0:0x4f6a7cc8f2774914,
perumahan,Perhimpunan Pengembang Perumahan,Sambulangan,"HC9W+X6Q, Taronggo, Kec. Bungku Utara, Kabupaten Morowali Utara, Sulawesi Tengah","Kabupaten Morowali Utara, Sulawesi Tengah",SULAWESI TENGAH,,Indonesia,,,,-1.4300254,121.4456179,https://maps.google.com/?cid=0x0:0x9948025d7e91c9f7,
perumahan,perumahan,Watusongu,"HC9W+X6Q, Taronggo, Kec. Bungku Utara, Kabupaten Morowali Utara, Sulawesi Tengah","Kabupaten Morowali Utara, Sulawesi Tengah",SULAWESI TENGAH,,Indonesia,,,,-1.4300254,121.4456179,https://maps.google.com/?cid=0x0:0x8f91955b2cbe16cd,
perumahan,,Waldi,"6Q8R+P49, Uewajo, Kec. Bungku Utara, Kabupaten Morowali Utara, Sulawesi Tengah 94972","Uewajo, Kec. Bungku Utara, Kabupaten Morowali Utara",SULAWESI TENGAH,94972.0,Indonesia,,,,-1.7832036,121.7903594,https://maps.google.com/?cid=0x0:0xf69b2e2a37212ade,
perumahan,perumahan,Rumah Andika,"7RC3+6Q, Siliti, Kec. Bungku Utara, Kabupaten Morowali Utara, Sulawesi Tengah","Kabupaten Morowali Utara, Sulawesi Tengah",SULAWESI TENGAH,,Indonesia,,,,-1.7293813,121.8044751,https://maps.google.com/?cid=0x0:0x72ad19936c232d84,
perumahan,Komplek perumahan,Rumah Ece Baturube,"6QMV+MF6, Tirongan Bawah, Kec. Bungku Utara, Kabupaten Morowali Utara, Sulawesi Tengah 94972","Tirongan Bawah, Kec. Bungku Utara, Kabupaten Morowali Utara",SULAWESI TENGAH,94972.0,Indonesia,,,,-1.7658297,121.7936379,https://maps.google.com/?cid=0x0:0xf8acc6d4651f59f3,
perumahan,Pembangunan Perumahan,Wandi kntl,"9W3J+C34, Giri Mulya, Kec. Mamosalato, Kabupaten Morowali Utara, Sulawesi Tengah","Kabupaten Morowali Utara, Sulawesi Tengah",SULAWESI TENGAH,,Indonesia,,,,-1.6463376,121.928784,https://maps.google.com/?cid=0x0:0xd8530b006dec204f,
perumahan,Komplek perumahan,Aqsa Home,"Jln Tinumbu No.Rt 02, Dusun Ini, Siliti, Kec. Bungku Utara, Kabupaten Morowali Utara, Sulawesi Tengah 94972","Dusun Ini, Siliti, Kec. Bungku Utara, Kabupaten Morowali Utara",SULAWESI TENGAH,94972.0,Indonesia,,,,-1.7285542,121.8074229,https://maps.google.com/?cid=0x0:0xe7b688dec4a4f6b6,
perumahan,Gereja Kristen,Rumah Pastori GKST Petra Baturube,"6QHV+8GR, Baturube, Kec. Bungku Utara, Kabupaten Morowali Utara, Sulawesi Tengah 94972","Baturube, Kec. Bungku Utara, Kabupaten Morowali Utara",SULAWESI TENGAH,94972.0,Indonesia,,,,-1.7716535,121.7939101,https://maps.google.com/?cid=0x0:0x7bc80a24e8cf1d30,
perumahan,,Rumah RANGGA,"6QRW+8F, Tirongan Bawah, Kec. Bungku Utara, Kabupaten Morowali Utara, Sulawesi Tengah","Kabupaten Morowali Utara, Sulawesi Tengah",SULAWESI TENGAH,,Indonesia,,,,-1.7592315,121.7961284,https://maps.google.com/?cid=0x0:0xe8049cdb648ffbbb,
perumahan,Komplek perumahan,Rumah Alim,"6QPV+6WM, Tirongan Bawah, Kec. Bungku Utara, Kabupaten Morowali Utara, Sulawesi Tengah 94972","Tirongan Bawah, Kec. Bungku Utara, Kabupaten Morowali Utara",SULAWESI TENGAH,94972.0,Indonesia,,,,-1.7644014,121.7947944,https://maps.google.com/?cid=0x0:0x408834cdf7aede50,
perumahan,perumahan,Sulawesi Tengah 94975,"Menui Kepulauan, Kabupaten Morowali, Sulawesi Tengah","Kabupaten Morowali, Sulawesi Tengah",SULAWESI TENGAH,,Indonesia,,,,-3.2225368,122.3900901,https://maps.google.com/?cid=0x0:0x9de28c77bab1263b,
perumahan,Kios,Rumah hidayat,"M93R+VQ, Matarape, Menui Kepulauan, Kabupaten Morowali, Sulawesi Tengah 94975","Matarape, Menui Kepulauan, Kabupaten Morowali",SULAWESI TENGAH,94975.0,Indonesia,,,,-3.34536,122.391442,https://maps.google.com/?cid=0x0:0x6cd70e67a0eb7108,
perumahan,Komplek perumahan,Rumah Aldisan,"QCH7+835, Matano, Menui Kepulauan, Kabupaten Morowali, Sulawesi Tengah","Kabupaten Morowali, Sulawesi Tengah",SULAWESI TENGAH,,Indonesia,,,,-3.2217298,122.4127472,https://maps.google.com/?cid=0x0:0xb92acfcee4b033bf,
perumahan,perumahan,Rumah angga,"QCH7+835, Matano, Menui Kepulauan, Kabupaten Morowali, Sulawesi Tengah","Kabupaten Morowali, Sulawesi Tengah",SULAWESI TENGAH,,Indonesia,,,,-3.2217298,122.4127472,https://maps.google.com/?cid=0x0:0x1f9da53ff12504e9,
perumahan,perumahan,Kec. Wita Ponda,"Kabupaten Morowali, Sulawesi Tengah","Kabupaten Morowali, Sulawesi Tengah",SULAWESI TENGAH,,Indonesia,,,,-2.214136,121.5990103,https://maps.google.com/?cid=0x0:0xff62e010995308a1,
perumahan,Komplek perumahan,Witaponda,"QJMF+H6G, Lantula Jaya, Kec. Wita Ponda, Kabupaten Morowali, Sulawesi Tengah 94976","Lantula Jaya, Kec. Wita Ponda, Kabupaten Morowali",SULAWESI TENGAH,94976.0,Indonesia,,,,-2.2160639,121.6230661,https://maps.google.com/?cid=0x0:0x278026bdea7e7ef6,
perumahan,Komplek perumahan,"Puntari Makmur, Kec. Wita Ponda, Kabupaten","QJ8X+F9J, Puntari Makmur, Kec. Wita Ponda, Kabupaten Morowali, Sulawesi Tengah 94976","Puntari Makmur, Kec. Wita Ponda, Kabupaten Morowali",SULAWESI TENGAH,94976.0,Indonesia,85823192957.0,,,-2.2336322,121.6475617,https://maps.google.com/?cid=0x0:0xa9a1ea2e7d5e8681,
perumahan,Perhimpunan Pengembang Perumahan,Kecamatan witaponda,"RH4X+QWV, Moahino, Kec. Wita Ponda, Kabupaten Morowali, Sulawesi Tengah","Kabupaten Morowali, Sulawesi Tengah",SULAWESI TENGAH,,Indonesia,,,,-2.1930029,121.5997835,https://maps.google.com/?cid=0x0:0x4bd8d55a3ead6c2e,
perumahan,Pembangunan Perumahan,KOS RAYA,"QHP8+XQ, Ungkaya, Kec. Wita Ponda, Kabupaten Morowali, Sulawesi Tengah","Kabupaten Morowali, Sulawesi Tengah",SULAWESI TENGAH,,Indonesia,82292055509.0,,,-2.2125024,121.566988,https://maps.google.com/?cid=0x0:0x5d86f6cf3012e8fc,
perumahan,Komplek perumahan,"morowali salonsa, witaponda","RGGF+3JJ, Jl. Trans Sulawesi, Solonsa, Kec. Wita Ponda, Kabupaten Morowali, Sulawesi Tengah 94976","Jl. Trans Sulawesi, Solonsa, Kec. Wita Ponda, Kabupaten Morowali",SULAWESI TENGAH,94976.0,Indonesia,,,,-2.174684,121.524359,https://maps.google.com/?cid=0x0:0xcf3552cd64af3ccd,
perumahan,Komplek perumahan,Rumah tinggal,"QJMG+9P9, Jl. Trans Sulawesi, Sampeantaba, Kec. Wita Ponda, Kabupaten Morowali, Sulawesi Tengah 94976","Jl. Trans Sulawesi, Sampeantaba, Kec. Wita Ponda, Kabupaten Morowali",SULAWESI TENGAH,94976.0,Indonesia,,,,-2.2167023,121.6272029,https://maps.google.com/?cid=0x0:0x68eaf54d23449f9,
perumahan,Pembangunan Perumahan,Sampeantaba,"QJGX+3GF, Sampeantaba, Kec. Wita Ponda, Kabupaten Morowali, Sulawesi Tengah 94976","Sampeantaba, Kec. Wita Ponda, Kabupaten Morowali",SULAWESI TENGAH,94976.0,Indonesia,,,,-2.2246468,121.6494946,https://maps.google.com/?cid=0x0:0xc5c1d3d226ffa37a,
perumahan,Komplek perumahan,Agung Winoto,"QHCX+9J2, Emea, Kec. Wita Ponda, Kabupaten Morowali, Sulawesi Tengah 94976","Emea, Kec. Wita Ponda, Kabupaten Morowali",SULAWESI TENGAH,94976.0,Indonesia,,,,-2.2291195,121.5990078,https://maps.google.com/?cid=0x0:0x19dc1b5e5bf04c2,
perumahan,perumahan,Suwartin Fruits dan Sarabba Syifatchim,"QJHW+23G, Sampeantaba, Kec. Wita Ponda, Kabupaten Morowali, Sulawesi Tengah 94976","Sampeantaba, Kec. Wita Ponda, Kabupaten Morowali",SULAWESI TENGAH,94976.0,Indonesia,,,,-2.2217628,121.6449196,https://maps.google.com/?cid=0x0:0x6a34caf5a4439b40,
perumahan,Komplek perumahan,Unit 5,"QHPX+8J7, Emea, Kec. Wita Ponda, Kabupaten Morowali, Sulawesi Tengah 94976","Emea, Kec. Wita Ponda, Kabupaten Morowali",SULAWESI TENGAH,94976.0,Indonesia,,,,-2.2142234,121.5990532,https://maps.google.com/?cid=0x0:0xef06764a38be31fa,
perumahan,Komplek perumahan,Rumah Pribadi,"Bumi Harapan, Kec. Wita Ponda, Kabupaten Morowali, Sulawesi Tengah 94976","Kec. Wita Ponda, Kabupaten Morowali",SULAWESI TENGAH,94976.0,Indonesia,,,,-2.2359121,121.6071571,https://maps.google.com/?cid=0x0:0x1810b34babcee853,
perumahan,Perhimpunan Pengembang Perumahan,Anggita alfiah,"QJC9+8VH, Lantula Jaya, Kec. Wita Ponda, Kabupaten Morowali, Sulawesi Tengah 94976","Lantula Jaya, Kec. Wita Ponda, Kabupaten Morowali",SULAWESI TENGAH,94976.0,Indonesia,,,,-2.2291876,121.619746,https://maps.google.com/?cid=0x0:0x9df04fe35d6f6adf,
perumahan,Komplek perumahan,Kahfi,"QJF9+4XJ, Lantula Jaya, Kec. Wita Ponda, Kabupaten Morowali, Sulawesi Tengah 94976","Lantula Jaya, Kec. Wita Ponda, Kabupaten Morowali",SULAWESI TENGAH,94976.0,Indonesia,,,,-2.227724,121.619523,https://maps.google.com/?cid=0x0:0x5232e028a3a00fd7,
perumahan,Komplek perumahan,Rumah Agung,"QHFX+36, Emea, Kec. Wita Ponda, Kabupaten Morowali, Sulawesi Tengah","Kabupaten Morowali, Sulawesi Tengah",SULAWESI TENGAH,,Indonesia,,,,-2.2272609,121.5980352,https://maps.google.com/?cid=0x0:0x837917627a174861,
perumahan,Komplek perumahan,Bumi harapan,"QJC2+MC2, PMWbumi harapan, Kec. Wita Ponda, Kabupaten Morowali, Sulawesi Tengah 94976","PMWbumi harapan, Kec. Wita Ponda, Kabupaten Morowali",SULAWESI TENGAH,94976.0,Indonesia,,,,-2.2283504,121.601002,https://maps.google.com/?cid=0x0:0x1332eaff247515c7,
perumahan,Komplek perumahan,Rumah Gita,"RH8X+PQ8, Moahino, Kec. Wita Ponda, Kabupaten Morowali, Sulawesi Tengah","Kabupaten Morowali, Sulawesi Tengah",SULAWESI TENGAH,,Indonesia,,,,-2.1838168,121.5994973,https://maps.google.com/?cid=0x0:0x889e1ffdb5d74616,
perumahan,perumahan,Wahid,"QGXW+39H, RT.08, Solonsa Jaya, Kec. Wita Ponda, Kabupaten Morowali, Sulawesi Tengah 94976","RT.08, Solonsa Jaya, Kec. Wita Ponda, Kabupaten Morowali",SULAWESI TENGAH,94976.0,Indonesia,,,,-2.2023125,121.5459844,https://maps.google.com/?cid=0x0:0x2ef22e69f2fd27e3,
perumahan,Komplek perumahan,Rumah Bp.Thenny Djangaritu S.Sos,"QHPQ+6R8, Ungkaya, Kec. Wita Ponda, Kabupaten Morowali, Sulawesi Tengah 94976","Ungkaya, Kec. Wita Ponda, Kabupaten Morowali",SULAWESI TENGAH,94976.0,Indonesia,,,,-2.2143152,121.5895323,https://maps.google.com/?cid=0x0:0xaff033c9051f5b10,
perumahan,Perhimpunan Pengembang Perumahan,Rumah Wiwik,"QJGC+536, Jl. Jend. Sudirman, Lantula Jaya, Kec. Wita Ponda, Kabupaten Morowali, Sulawesi Tengah 94976","Jl. Jend. Sudirman, Lantula Jaya, Kec. Wita Ponda, Kabupaten Morowali",SULAWESI TENGAH,94976.0,Indonesia,,,,-2.2246,121.6201455,https://maps.google.com/?cid=0x0:0xf1f26ed7ba62fdd0,
perumahan,Komplek perumahan,PERUMAHAN STAFF,"QH88+VC, Ungkaya, Kec. Wita Ponda, Kabupaten Morowali, Sulawesi Tengah 94976","Ungkaya, Kec. Wita Ponda, Kabupaten Morowali",SULAWESI TENGAH,94976.0,Indonesia,,,,-2.2332883,121.5660127,https://maps.google.com/?cid=0x0:0xea9f7610a313c1aa,
perumahan,Gedung Apartemen,My Home,"QJJF+W27, Jl. Trans Sulawesi, Sampeantaba, Kec. Wita Ponda, Kabupaten Morowali, Sulawesi Tengah 94976","Jl. Trans Sulawesi, Sampeantaba, Kec. Wita Ponda, Kabupaten Morowali",SULAWESI TENGAH,94976.0,Indonesia,,,,-2.2177115,121.6225561,https://maps.google.com/?cid=0x0:0x37d3f5538606965b,
perumahan,Komplek perumahan,Rumah Wirdan,"QH79+WR, Ungkaya, Kec. Wita Ponda, Kabupaten Morowali, Sulawesi Tengah","Kabupaten Morowali, Sulawesi Tengah",SULAWESI TENGAH,,Indonesia,,,,-2.2351359,121.5695434,https://maps.google.com/?cid=0x0:0xd85f01f375dbe19d,
perumahan,Komplek perumahan,AhmadiAyu,"QHQ4+8RJ, Jl. Trans Sulawesi, Solonsa Jaya, Kec. Wita Ponda, Kabupaten Morowali, Sulawesi Tengah","Kabupaten Morowali, Sulawesi Tengah",SULAWESI TENGAH,,Indonesia,,,,-2.2116641,121.5570303,https://maps.google.com/?cid=0x0:0xefe071c865a02c3b,
perumahan,Perumahan,Rumah SUTRISNO/SAH,"QJFC+J35, Lantula Jaya, Kec. Wita Ponda, Kabupaten Morowali, Sulawesi Tengah 94976","Lantula Jaya, Kec. Wita Ponda, Kabupaten Morowali",SULAWESI TENGAH,94976.0,Indonesia,,,,-2.2259821,121.6202298,https://maps.google.com/?cid=0x0:0x96edfb2a28c15077,
