Category,Real Category,Business Name,Address,City,State,Postal Code,Country,Phone,Email,Website,Latitude,Longitude,Map Link,Details Link
perumahan,perumahan,Kec. Kota Waingapu,"Kabupaten Sumba Timur, Nusa Tenggara Tim.","Kabupaten Sumba Timur, Nusa Tenggara Tim.",NUSA TENGGARA TIMUR,,Indonesia,,,,-9.6646545,120.2498483,https://maps.google.com/?cid=0x0:0x6761d979d61c1bb4,
perumahan,Komplek perumahan,"NTT, SUMBA TIMUR, WAINGAPU, KAMPUNG BARU TANJUNG","86XW+HQ7, Hambala, Kec. Kota Waingapu, Kabupaten Sumba Timur, Nusa Tenggara Tim.","Kabupaten Sumba Timur, Nusa Tenggara Tim.",NUSA TENGGARA TIMUR,,Indonesia,81246402330.0,,,-9.6510893,120.2469196,https://maps.google.com/?cid=0x0:0x9e2b1be2a86906c6,
perumahan,Komplek perumahan,Perumnas,"86RR+R45, Unnamed Road, Kambajawa, Kec. Kota Waingapu, Kabupaten Sumba Timur, Nusa Tenggara Tim.","Kabupaten Sumba Timur, Nusa Tenggara Tim.",NUSA TENGGARA TIMUR,,Indonesia,,,,-9.6579837,120.2403694,https://maps.google.com/?cid=0x0:0x4b642995e1e0d069,
perumahan,Komplek perumahan,Kompleks Perumahan Dokter Radamata,"87R6+GF9, Matawai, Kec. Kota Waingapu, Kabupaten Sumba Timur, Nusa Tenggara Tim.","Kabupaten Sumba Timur, Nusa Tenggara Tim.",NUSA TENGGARA TIMUR,,Indonesia,85253578435.0,,,-9.6587097,120.2612414,https://maps.google.com/?cid=0x0:0xd843d58fe2936ccb,
perumahan,Pembangunan Perumahan,Frits Namupraing (ighezt),"Jalan Pulau Salura, Kambajawa, Kec. Kota Waingapu, Kabupaten Sumba Timur, Nusa Tenggara Tim.","Kabupaten Sumba Timur, Nusa Tenggara Tim.",NUSA TENGGARA TIMUR,,Indonesia,,,,-9.6690485,120.243,https://maps.google.com/?cid=0x0:0x4539c8947e015713,
perumahan,Komplek perumahan,NTT sumba timur,"86PX+4X2, Kambajawa, Kec. Kota Waingapu, Kabupaten Sumba Timur, Nusa Tenggara Tim.","Kabupaten Sumba Timur, Nusa Tenggara Tim.",NUSA TENGGARA TIMUR,,Indonesia,,,,-9.6647423,120.2498887,https://maps.google.com/?cid=0x0:0xf26ccaa164141fd2,
perumahan,Pembangunan Perumahan,Perumahan Griya givans kambajawa regency,"86MV+V7Q, Jl. Pulau sabu, Kambajawa, Kec. Kota Waingapu, Kabupaten Sumba Timur, Nusa Tenggara Tim.","Kabupaten Sumba Timur, Nusa Tenggara Tim.",NUSA TENGGARA TIMUR,,Indonesia,,,,-9.6652876,120.2432471,https://maps.google.com/?cid=0x0:0xa7ef9edf991c1e68,
perumahan,Komplek perumahan,YD,"86RP+J4G, Temu, Kec. Kota Waingapu, Kabupaten Sumba Timur, Nusa Tenggara Tim.","Kabupaten Sumba Timur, Nusa Tenggara Tim.",NUSA TENGGARA TIMUR,,Indonesia,,,,-9.6584421,120.2353164,https://maps.google.com/?cid=0x0:0x2a6d65be6d0ae081,
perumahan,Komplek perumahan,Padadita,"86PX+4X2, Kambajawa, Kec. Kota Waingapu, Kabupaten Sumba Timur, Nusa Tenggara Tim.","Kabupaten Sumba Timur, Nusa Tenggara Tim.",NUSA TENGGARA TIMUR,,Indonesia,,,,-9.6647423,120.2498887,https://maps.google.com/?cid=0x0:0xdbdbe65ade14e461,
perumahan,Pembangunan Perumahan,Rumah Bapa Maxi Pandang,"86QW+F82, Kambajawa, Kec. Kota Waingapu, Kabupaten Sumba Timur, Nusa Tenggara Tim.","Kabupaten Sumba Timur, Nusa Tenggara Tim.",NUSA TENGGARA TIMUR,,Indonesia,,,,-9.6613602,120.2457644,https://maps.google.com/?cid=0x0:0x420546128fa328f3,
perumahan,Pembangunan Perumahan,Rumah gabriela,"86VV+5PX, Kambajawa, Kec. Kota Waingapu, Kabupaten Sumba Timur, Nusa Tenggara Tim.","Kabupaten Sumba Timur, Nusa Tenggara Tim.",NUSA TENGGARA TIMUR,,Indonesia,,,,-9.6570107,120.2443491,https://maps.google.com/?cid=0x0:0x9d2083bb3b26d8eb,
perumahan,Komplek perumahan,Rumah Shatryo,"87J4+W4Q, Wangga, Kec. Kambera, Kabupaten Sumba Timur, Nusa Tenggara Tim.","Kabupaten Sumba Timur, Nusa Tenggara Tim.",NUSA TENGGARA TIMUR,,Indonesia,,,,-9.6676504,120.2553663,https://maps.google.com/?cid=0x0:0x5e0ee7ceefb83431,
perumahan,Pembangunan Perumahan,Rumah SOLEMAN NGUNJURAWA,"Jl. H. Adam Malik No.km 03, Kambajawa, Kec. Kota Waingapu, Kabupaten Sumba Timur, Nusa Tenggara Tim.","Kabupaten Sumba Timur, Nusa Tenggara Tim.",NUSA TENGGARA TIMUR,,Indonesia,,,,-9.663576,120.252793,https://maps.google.com/?cid=0x0:0x7083d7037e233a1e,
perumahan,perumahan,Rumah UME,"87J4+XC8, Wangga, Kec. Kambera, Kabupaten Sumba Timur, Nusa Tenggara Tim.","Kabupaten Sumba Timur, Nusa Tenggara Tim.",NUSA TENGGARA TIMUR,,Indonesia,,,,-9.6675823,120.2560687,https://maps.google.com/?cid=0x0:0x660f65f45122b3f7,
perumahan,Pembangunan Perumahan,Bukit karang,"Km 6, Kambajawa, Kec. Kota Waingapu, Kabupaten Sumba Timur, Nusa Tenggara Tim.","Kabupaten Sumba Timur, Nusa Tenggara Tim.",NUSA TENGGARA TIMUR,,Indonesia,,,,-9.6647423,120.2498887,https://maps.google.com/?cid=0x0:0xbbdd7785c85869a5,
perumahan,perumahan,Jackting,"86QX+Q8M, Kambajawa, Kec. Kota Waingapu, Kabupaten Sumba Timur, Nusa Tenggara Tim.","Kabupaten Sumba Timur, Nusa Tenggara Tim.",NUSA TENGGARA TIMUR,,Indonesia,,,,-9.6608315,120.2485589,https://maps.google.com/?cid=0x0:0x16ec0312f17c8594,
perumahan,Perumahan,ARESABU,"86PR+WM4, Jl. Bhineka, Kambajawa, Kec. Kota Waingapu, Kabupaten Sumba Timur, Nusa Tenggara Tim.","Kabupaten Sumba Timur, Nusa Tenggara Tim.",NUSA TENGGARA TIMUR,,Indonesia,,,,-9.6627341,120.241715,https://maps.google.com/?cid=0x0:0x73cd29395719b9ae,
perumahan,Komplek perumahan,Rumah Vincenco,"86WR+WQ8, Unnamed Road, Kambajawa, Kec. Kota Waingapu, Kabupaten Sumba Timur, Nusa Tenggara Tim.","Kabupaten Sumba Timur, Nusa Tenggara Tim.",NUSA TENGGARA TIMUR,,Indonesia,,,,-9.6527069,120.2419589,https://maps.google.com/?cid=0x0:0x70d4921054f6d12b,
perumahan,Pembangunan Perumahan,Olive Home,"86PW+C6V, Kambajawa, Kec. Kota Waingapu, Kabupaten Sumba Timur, Nusa Tenggara Tim.","Kabupaten Sumba Timur, Nusa Tenggara Tim.",NUSA TENGGARA TIMUR,,Indonesia,,,,-9.6638796,120.245542,https://maps.google.com/?cid=0x0:0x42035e9cb123228f,
perumahan,Komplek perumahan,Kios Sementara,"Jl. LD Dapawole No.15, Matawai, Kec. Kota Waingapu, Kabupaten Sumba Timur, Nusa Tenggara Tim.","Kabupaten Sumba Timur, Nusa Tenggara Tim.",NUSA TENGGARA TIMUR,,Indonesia,,,,-9.6525314,120.2604444,https://maps.google.com/?cid=0x0:0x2962ffe20e597eeb,
perumahan,Komplek perumahan,rumah yasni amelia,"86RR+6C9, Kambajawa, Kec. Kota Waingapu, Kabupaten Sumba Timur, Nusa Tenggara Tim.","Kabupaten Sumba Timur, Nusa Tenggara Tim.",NUSA TENGGARA TIMUR,,Indonesia,,,,-9.6594741,120.2411015,https://maps.google.com/?cid=0x0:0x2591c4cd598e8770,
perumahan,Komplek perumahan,Rumah Bapak Moehamad Yunus,"86VX+Q77, Jl. Matawai Amahu, Hambala, Kec. Kota Waingapu, Kabupaten Sumba Timur, Nusa Tenggara Tim.","Kabupaten Sumba Timur, Nusa Tenggara Tim.",NUSA TENGGARA TIMUR,,Indonesia,81339097442.0,,,-9.6555835,120.2481659,https://maps.google.com/?cid=0x0:0xad0c042c6f5423ea,
perumahan,Pembangunan Perumahan,My home,"86PV+7P8, Jl. Pulau Sumba, Kambajawa, Kec. Kota Waingapu, Kabupaten Sumba Timur, Nusa Tenggara Tim.","Kabupaten Sumba Timur, Nusa Tenggara Tim.",NUSA TENGGARA TIMUR,,Indonesia,,,,-9.6643357,120.2443186,https://maps.google.com/?cid=0x0:0x4788d0038009b8b7,
perumahan,Pembangunan Perumahan,Kompleks Adam,"86VV+QQ9, Kambajawa, Kec. Kota Waingapu, Kabupaten Sumba Timur, Nusa Tenggara Tim.","Kabupaten Sumba Timur, Nusa Tenggara Tim.",NUSA TENGGARA TIMUR,,Indonesia,81270440288.0,,,-9.6560556,120.2444722,https://maps.google.com/?cid=0x0:0x48e9f606cefa7c4e,
perumahan,Pembangunan Perumahan,Pindu au,"Jl. Adam Malik.123, mbatakapidu/RT/RW/02/01, Kambajawa, Kec. Kota Waingapu, Kabupaten Sumba Timur, Nusa Tenggara Tim.","Kabupaten Sumba Timur, Nusa Tenggara Tim.",NUSA TENGGARA TIMUR,,Indonesia,,,,-9.6724944,120.2376358,https://maps.google.com/?cid=0x0:0xda89d56aee32f773,
perumahan,Komplek perumahan,Tryadi Rame Hau,"Kambajawa, Kec. Kota Waingapu, Kabupaten Sumba Timur, Nusa Tenggara Tim.","Kabupaten Sumba Timur, Nusa Tenggara Tim.",NUSA TENGGARA TIMUR,,Indonesia,,,,-9.665233,120.2450442,https://maps.google.com/?cid=0x0:0xe3f0ce41f6903fdb,
perumahan,Perumahan,Rumah Gerbang Putih Perumnas,"86RR+69G, Kambajawa, Kec. Kota Waingapu, Kabupaten Sumba Timur, Nusa Tenggara Tim.","Kabupaten Sumba Timur, Nusa Tenggara Tim.",NUSA TENGGARA TIMUR,,Indonesia,,,,-9.6594615,120.2409064,https://maps.google.com/?cid=0x0:0x8bdaf85a8cf355d2,
perumahan,Komplek perumahan,dr. Tika Samapati,"Jl. Pulau Komodo No.12, Kambajawa, Kec. Kota Waingapu, Kabupaten Sumba Timur, Nusa Tenggara Tim.","Kabupaten Sumba Timur, Nusa Tenggara Tim.",NUSA TENGGARA TIMUR,,Indonesia,,,,-9.6602229,120.2416431,https://maps.google.com/?cid=0x0:0x33092109a200ff4e,
perumahan,Komplek perumahan,"Umbu K. Andung, ST","86JR+GXC, Kambajawa, Kec. Kota Waingapu, Kabupaten Sumba Timur, Nusa Tenggara Tim.","Kabupaten Sumba Timur, Nusa Tenggara Tim.",NUSA TENGGARA TIMUR,,Indonesia,,,,-9.668677,120.2423968,https://maps.google.com/?cid=0x0:0xd1221a130031ef7c,
perumahan,perumahan,Kec. Kota Waingapu,"Kabupaten Sumba Timur, Nusa Tenggara Tim.","Kabupaten Sumba Timur, Nusa Tenggara Tim.",NUSA TENGGARA TIMUR,,Indonesia,,,,-9.6646545,120.2498483,https://maps.google.com/?cid=0x0:0x6761d979d61c1bb4,
perumahan,Komplek perumahan,"NTT, SUMBA TIMUR, WAINGAPU, KAMPUNG BARU TANJUNG","86XW+HQ7, Hambala, Kec. Kota Waingapu, Kabupaten Sumba Timur, Nusa Tenggara Tim.","Kabupaten Sumba Timur, Nusa Tenggara Tim.",NUSA TENGGARA TIMUR,,Indonesia,81246402330.0,,,-9.6510893,120.2469196,https://maps.google.com/?cid=0x0:0x9e2b1be2a86906c6,
perumahan,Komplek perumahan,NTT sumba timur,"86PX+4X2, Kambajawa, Kec. Kota Waingapu, Kabupaten Sumba Timur, Nusa Tenggara Tim.","Kabupaten Sumba Timur, Nusa Tenggara Tim.",NUSA TENGGARA TIMUR,,Indonesia,,,,-9.6647423,120.2498887,https://maps.google.com/?cid=0x0:0xf26ccaa164141fd2,
perumahan,perumahan,Baim HomeStay,"Jl. M. T. Haryono, Kamalaputi, Kec. Kota Waingapu, Kabupaten Sumba Timur, Nusa Tenggara Tim.","Kabupaten Sumba Timur, Nusa Tenggara Tim.",NUSA TENGGARA TIMUR,,Indonesia,85231080507.0,,,-9.6538783,120.2683016,https://maps.google.com/?cid=0x0:0xdfcfdbbc55e3d234,
perumahan,Indonesia,Rumah Makan Mr. Cafe,"Jl. Umbu Tipuk Marisi No.1, Matawai, Kec. Kota Waingapu, Kabupaten Sumba Timur, Nusa Tenggara Tim.","Kabupaten Sumba Timur, Nusa Tenggara Tim.",NUSA TENGGARA TIMUR,,Indonesia,38761605.0,,,-9.6542722,120.2667507,https://maps.google.com/?cid=0x0:0x53b20ddc51ae4f62,
perumahan,Taman,Taman Kota Waingapu,"Jl. Palapa, Matawai, Kec. Kota Waingapu, Kabupaten Sumba Timur, Nusa Tenggara Tim.","Kabupaten Sumba Timur, Nusa Tenggara Tim.",NUSA TENGGARA TIMUR,,Indonesia,,,,-9.6532103,120.2666671,https://maps.google.com/?cid=0x0:0x1878e8e004a51577,
perumahan,perumahan,Padadita Beach Hotel,"Jl. Airlangga Padadita, Prailiu, Waingapu City, East Sumba Regency, East Nusa Tenggara","Kabupaten Sumba Timur, Nusa Tenggara Tim.",NUSA TENGGARA TIMUR,,Indonesia,81238995246.0,,,-9.6410584,120.2711388,https://maps.google.com/?cid=0x0:0xde3625906a0594e9,
perumahan,perumahan,,,,NUSA TENGGARA TIMUR,,Indonesia,,,,,,https://maps.google.com/?cid=0x0:0xde3625906a0594e9%7C/g/11csrs2p62%7Cid-ID,
perumahan,perumahan,Pantai Walakiri,"Watumbaka, Kec. Pandawai, Kabupaten Sumba Timur, Nusa Tenggara Tim.","Kabupaten Sumba Timur, Nusa Tenggara Tim.",NUSA TENGGARA TIMUR,,Indonesia,,,,-9.6286858,120.4274558,https://maps.google.com/?cid=0x0:0x8355a515f5cd3b95,
perumahan,Restoran,LA PARANDA,"Jl. H. Adam Malik No.23, Kambajawa, Kec. Kota Waingapu, Kabupaten Sumba Timur, Nusa Tenggara Tim.","Kabupaten Sumba Timur, Nusa Tenggara Tim.",NUSA TENGGARA TIMUR,,Indonesia,,,,-9.6602309,120.2547955,https://maps.google.com/?cid=0x0:0xb5fd8b6664de2696,
perumahan,Pasar,Pasar Inpres Matawai,"87W7+HC9, Matawai, Kec. Kota Waingapu, Kabupaten Sumba Timur, Nusa Tenggara Tim.","Kabupaten Sumba Timur, Nusa Tenggara Tim.",NUSA TENGGARA TIMUR,,Indonesia,,,,-9.6535778,120.263621,https://maps.google.com/?cid=0x0:0x4ddf7105eb0eda46,
perumahan,Pondok,KOST THERESIA,"Jl. Ikan Nener No.9, Kambajawa, Kec. Kota Waingapu, Kabupaten Sumba Timur, Nusa Tenggara Tim. 87116","Kambajawa, Kec. Kota Waingapu, Kabupaten Sumba Timur",NUSA TENGGARA TIMUR,87116.0,Indonesia,81239567919.0,,,-9.6644382,120.2473722,https://maps.google.com/?cid=0x0:0x4a1ed4f4cef2ead9,
perumahan,Otoritas Pelabuhan,Kantor PT PELNI,"Kamalaputi, Kec. Kota Waingapu, Kabupaten Sumba Timur, Nusa Tenggara Tim.","Kabupaten Sumba Timur, Nusa Tenggara Tim.",NUSA TENGGARA TIMUR,,Indonesia,38761665.0,,,-9.6406065,120.2554072,https://maps.google.com/?cid=0x0:0xfe808450413607bd,
perumahan,Restoran,Rumah Makan Jawa,"Jl. DI. Panjaitan No. 57, Matawai, Kec. Kota Waingapu, Kabupaten Sumba Timur, Nusa Tenggara Tim.","Kabupaten Sumba Timur, Nusa Tenggara Tim.",NUSA TENGGARA TIMUR,,Indonesia,82247933133.0,,,-9.6543423,120.2677258,https://maps.google.com/?cid=0x0:0x1d1824583afdaa85,
perumahan,Ikan Bakar,Warung Ikan Bakar Enjoy Aja,"9753+QP9 pelabuhan ikan, Kamalaputi, Kec. Kota Waingapu, Kabupaten Sumba Timur, Nusa Tenggara Tim.","Kabupaten Sumba Timur, Nusa Tenggara Tim.",NUSA TENGGARA TIMUR,,Indonesia,,,,-9.6405888,120.254362,https://maps.google.com/?cid=0x0:0x9aed9241abb1c578,
perumahan,Restoran,PC Corner Cafe  Restaurant,"87R7+PX7, Matawai, Kec. Kota Waingapu, Kabupaten Sumba Timur, Nusa Tenggara Tim.","Kabupaten Sumba Timur, Nusa Tenggara Tim.",NUSA TENGGARA TIMUR,,Indonesia,81223171725.0,,,-9.6582224,120.264934,https://maps.google.com/?cid=0x0:0x2fa4a65173884c70,
perumahan,Restoran,Elcafe Sumba,"Matawai, Kec. Kota Waingapu, Kabupaten Sumba Timur, Nusa Tenggara Tim.","Kabupaten Sumba Timur, Nusa Tenggara Tim.",NUSA TENGGARA TIMUR,,Indonesia,81238246474.0,,,-9.6541853,120.263791,https://maps.google.com/?cid=0x0:0xf8e772e0e7ecd0d1,
perumahan,Rumah Sakit Umum,RSUD.Umbu Rara Meha Waingapu,"86MW+QJ3, Jl. Ikan Kombong, Kambajawa, Kec. Kota Waingapu, Kabupaten Sumba Timur, Nusa Tenggara Tim.","Kabupaten Sumba Timur, Nusa Tenggara Tim.",NUSA TENGGARA TIMUR,,Indonesia,,,,-9.6656005,120.2465349,https://maps.google.com/?cid=0x0:0x2d7f502be597d712,
perumahan,Padang,RM. AJO MINANG 2,"87W9+95P, Kamalaputi, Kec. Kota Waingapu, Kabupaten Sumba Timur, Nusa Tenggara Tim.","Kabupaten Sumba Timur, Nusa Tenggara Tim.",NUSA TENGGARA TIMUR,,Indonesia,82136345015.0,,,-9.6540293,120.2679395,https://maps.google.com/?cid=0x0:0xa39a5d55e1154355,
perumahan,Tujuan Wisata,Kampung Raja Prailiu,"87RG+CJ7, Prailiu, Kec. Kambera, Kabupaten Sumba Timur, Nusa Tenggara Tim.","Kabupaten Sumba Timur, Nusa Tenggara Tim.",NUSA TENGGARA TIMUR,,Indonesia,,,,-9.658966,120.2765517,https://maps.google.com/?cid=0x0:0x19274c43a94427d0,
perumahan,Perumahan,Perumahan Purimas Waingapu,"8768+WXH, jalan puri mas raya, Wangga, Kec. Kambera, Kabupaten Sumba Timur, Nusa Tenggara Tim.","Kabupaten Sumba Timur, Nusa Tenggara Tim.",NUSA TENGGARA TIMUR,,Indonesia,,,,-9.6876958,120.2674691,https://maps.google.com/?cid=0x0:0x23104af69c79a03d,
perumahan,Perumahan,Rumah Gerbang Putih Perumnas,"86RR+69G, Kambajawa, Kec. Kota Waingapu, Kabupaten Sumba Timur, Nusa Tenggara Tim.","Kabupaten Sumba Timur, Nusa Tenggara Tim.",NUSA TENGGARA TIMUR,,Indonesia,,,,-9.6594615,120.2409064,https://maps.google.com/?cid=0x0:0x8bdaf85a8cf355d2,
perumahan,Komplek perumahan,Perumnas,"86RR+R45, Unnamed Road, Kambajawa, Kec. Kota Waingapu, Kabupaten Sumba Timur, Nusa Tenggara Tim.","Kabupaten Sumba Timur, Nusa Tenggara Tim.",NUSA TENGGARA TIMUR,,Indonesia,,,,-9.6579837,120.2403694,https://maps.google.com/?cid=0x0:0x4b642995e1e0d069,
perumahan,Pembangunan Perumahan,Kompleks Adam,"86VV+QQ9, Kambajawa, Kec. Kota Waingapu, Kabupaten Sumba Timur, Nusa Tenggara Tim.","Kabupaten Sumba Timur, Nusa Tenggara Tim.",NUSA TENGGARA TIMUR,,Indonesia,81270440288.0,,,-9.6560556,120.2444722,https://maps.google.com/?cid=0x0:0x48e9f606cefa7c4e,
perumahan,Pembangunan Perumahan,Frits Namupraing (ighezt),"Jalan Pulau Salura, Kambajawa, Kec. Kota Waingapu, Kabupaten Sumba Timur, Nusa Tenggara Tim.","Kabupaten Sumba Timur, Nusa Tenggara Tim.",NUSA TENGGARA TIMUR,,Indonesia,,,,-9.6690485,120.243,https://maps.google.com/?cid=0x0:0x4539c8947e015713,
perumahan,perumahan,Rumah UME,"87J4+XC8, Wangga, Kec. Kambera, Kabupaten Sumba Timur, Nusa Tenggara Tim.","Kabupaten Sumba Timur, Nusa Tenggara Tim.",NUSA TENGGARA TIMUR,,Indonesia,,,,-9.6675823,120.2560687,https://maps.google.com/?cid=0x0:0x660f65f45122b3f7,
perumahan,Pembangunan Perumahan,Perumahan Griya givans kambajawa regency,"86MV+V7Q, Jl. Pulau sabu, Kambajawa, Kec. Kota Waingapu, Kabupaten Sumba Timur, Nusa Tenggara Tim.","Kabupaten Sumba Timur, Nusa Tenggara Tim.",NUSA TENGGARA TIMUR,,Indonesia,,,,-9.6652876,120.2432471,https://maps.google.com/?cid=0x0:0xa7ef9edf991c1e68,
perumahan,Komplek perumahan,Padadita,"86PX+4X2, Kambajawa, Kec. Kota Waingapu, Kabupaten Sumba Timur, Nusa Tenggara Tim.","Kabupaten Sumba Timur, Nusa Tenggara Tim.",NUSA TENGGARA TIMUR,,Indonesia,,,,-9.6647423,120.2498887,https://maps.google.com/?cid=0x0:0xdbdbe65ade14e461,
perumahan,perumahan,Nusa Tenggara Tim. 87116,"Kambajawa, Kec. Kota Waingapu, Kabupaten Sumba Timur, Nusa Tenggara Tim.","Kabupaten Sumba Timur, Nusa Tenggara Tim.",NUSA TENGGARA TIMUR,,Indonesia,,,,-9.6694554,120.2487539,https://maps.google.com/?cid=0x0:0xdd85bef68702a07c,
perumahan,Perumahan,Perumahan Purimas Waingapu,"8768+WXH, jalan puri mas raya, Wangga, Kec. Kambera, Kabupaten Sumba Timur, Nusa Tenggara Tim.","Kabupaten Sumba Timur, Nusa Tenggara Tim.",NUSA TENGGARA TIMUR,,Indonesia,,,,-9.6876958,120.2674691,https://maps.google.com/?cid=0x0:0x23104af69c79a03d,
perumahan,Perumahan,Perumahan BTN,"Unnamed Road, Kambajawa, Kec. Kota Waingapu, Kabupaten Sumba Timur, Nusa Tenggara Tim.","Kabupaten Sumba Timur, Nusa Tenggara Tim.",NUSA TENGGARA TIMUR,,Indonesia,,,,-9.6579086,120.2426065,https://maps.google.com/?cid=0x0:0x78699589b7e89e2a,
perumahan,Komplek perumahan,Rumah,"87H2+VP, Kambajawa, Kec. Kota Waingapu, Kabupaten Sumba Timur, Nusa Tenggara Tim.","Kabupaten Sumba Timur, Nusa Tenggara Tim.",NUSA TENGGARA TIMUR,,Indonesia,,,,-9.670392,120.2517517,https://maps.google.com/?cid=0x0:0x7274eccaa4f6f2e4,
perumahan,Inspektur Tempat Tinggal,Rumah,"86HP+JGC, Kambajawa, Kec. Kota Waingapu, Kabupaten Sumba Timur, Nusa Tenggara Tim.","Kabupaten Sumba Timur, Nusa Tenggara Tim.",NUSA TENGGARA TIMUR,,Indonesia,,,,-9.6709772,120.2362095,https://maps.google.com/?cid=0x0:0x9526c54a97a23d9b,
perumahan,Guest house,kos kosan warna warni,"86JX+5FV, Kambajawa, Kec. Kota Waingapu, Kabupaten Sumba Timur, Nusa Tenggara Tim. 87116","Kambajawa, Kec. Kota Waingapu, Kabupaten Sumba Timur",NUSA TENGGARA TIMUR,87116.0,Indonesia,,,,-9.6694991,120.2486915,https://maps.google.com/?cid=0x0:0xdb44a3aac6b5e711,
perumahan,Rumah wisata,Rumah kost IVANO,"Jl.ikan nener kelurahan kambajawa/KM4, Kec. Kota Waingapu, Nusa Tenggara Tim. 87112",Kec. Kota Waingapu,NUSA TENGGARA TIMUR,87112.0,Indonesia,85237352333.0,,,-9.6637549,120.2466201,https://maps.google.com/?cid=0x0:0x2f882727ccc14fd6,
perumahan,perumahan,Kec. Haharu,"Kabupaten Sumba Timur, Nusa Tenggara Tim.","Kabupaten Sumba Timur, Nusa Tenggara Tim.",NUSA TENGGARA TIMUR,,Indonesia,,,,-9.4501314,120.0504958,https://maps.google.com/?cid=0x0:0x33b6915526fed43,
perumahan,perumahan,Kadahang,"Kec. Haharu, Kabupaten Sumba Timur, Nusa Tenggara Tim.","Kabupaten Sumba Timur, Nusa Tenggara Tim.",NUSA TENGGARA TIMUR,,Indonesia,,,,-9.4094873,120.0087372,https://maps.google.com/?cid=0x0:0x5a5fcd305bd9b798,
perumahan,Komplek perumahan,RAMBANGARU,"G3W5+W6V, Jl, Rambangaru, Kec. Haharu, Kabupaten Sumba Timur, Nusa Tenggara Tim.","Kabupaten Sumba Timur, Nusa Tenggara Tim.",NUSA TENGGARA TIMUR,,Indonesia,,,,-9.4526469,120.0580385,https://maps.google.com/?cid=0x0:0xf03b2ec6d0d9b296,
perumahan,Komplek perumahan,Kapunduk,"H323+558, Rambangaru, Kec. Haharu, Kabupaten Sumba Timur, Nusa Tenggara Tim.","Kabupaten Sumba Timur, Nusa Tenggara Tim.",NUSA TENGGARA TIMUR,,Indonesia,,,,-9.4495682,120.0538602,https://maps.google.com/?cid=0x0:0x6ba517cf6bbc9dd5,
perumahan,Komplek perumahan,Mbatapuhu,"G3X2+W5X, Rambangaru, Kec. Haharu, Kabupaten Sumba Timur, Nusa Tenggara Tim.","Kabupaten Sumba Timur, Nusa Tenggara Tim.",NUSA TENGGARA TIMUR,,Indonesia,,,,-9.4501314,120.0504958,https://maps.google.com/?cid=0x0:0x7e8fd2bd89ec934b,
perumahan,Komplek perumahan,Arian,"H24X+5V, Rambangaru, Kec. Haharu, Kabupaten Sumba Timur, Nusa Tenggara Tim.","Kabupaten Sumba Timur, Nusa Tenggara Tim.",NUSA TENGGARA TIMUR,,Indonesia,,,,-9.4437424,120.0499047,https://maps.google.com/?cid=0x0:0xb5aea0ade918d2c2,
perumahan,Komplek perumahan,Rambagaru,"H27W+CV, Rambangaru, Kec. Haharu, Kabupaten Sumba Timur, Nusa Tenggara Tim.","Kabupaten Sumba Timur, Nusa Tenggara Tim.",NUSA TENGGARA TIMUR,,Indonesia,,,,-9.4364536,120.047186,https://maps.google.com/?cid=0x0:0x6d51cc987c64871a,
perumahan,Komplek perumahan,Rumah hendrik,"H29X+C6C, Rambangaru, Kec. Haharu, Kabupaten Sumba Timur, Nusa Tenggara Tim.","Kabupaten Sumba Timur, Nusa Tenggara Tim.",NUSA TENGGARA TIMUR,,Indonesia,,,,-9.4314257,120.0480142,https://maps.google.com/?cid=0x0:0x57c9f016f18760d2,
perumahan,Komplek perumahan,Kampung jamba,"G2XW+5X2, Rambangaru, Kec. Haharu, Kabupaten Sumba Timur, Nusa Tenggara Tim.","Kabupaten Sumba Timur, Nusa Tenggara Tim.",NUSA TENGGARA TIMUR,,Indonesia,,,,-9.4521058,120.0473996,https://maps.google.com/?cid=0x0:0xcd4913201a354f4a,
perumahan,Komplek perumahan,Rumah Andunara,"G3FR+RF7, Rambangaru, Kec. Haharu, Kabupaten Sumba Timur, Nusa Tenggara Tim.","Kabupaten Sumba Timur, Nusa Tenggara Tim.",NUSA TENGGARA TIMUR,,Indonesia,,,,-9.4754625,120.0911719,https://maps.google.com/?cid=0x0:0x1d2f8341b0331df8,
perumahan,Pembangunan Perumahan,Kadahang,"G3X2+W5X, Rambangaru, Kec. Haharu, Kabupaten Sumba Timur, Nusa Tenggara Tim.","Kabupaten Sumba Timur, Nusa Tenggara Tim.",NUSA TENGGARA TIMUR,,Indonesia,,,,-9.4501314,120.0504958,https://maps.google.com/?cid=0x0:0x435229055fc6058d,
perumahan,Perhimpunan Pengembang Perumahan,KAMPUNG PALINDI Kadahang,"H2V7+9R6, Kadahang, Kec. Haharu, Kabupaten Sumba Timur, Nusa Tenggara Tim.","Kabupaten Sumba Timur, Nusa Tenggara Tim.",NUSA TENGGARA TIMUR,,Indonesia,,,,-9.406594,120.0145156,https://maps.google.com/?cid=0x0:0xbdd512af861072e4,
perumahan,perumahan,Rumah Yapi Nggau Mbehar,"JW59+48F, Napu, Kec. Haharu, Kabupaten Sumba Timur, Nusa Tenggara Tim.","Kabupaten Sumba Timur, Nusa Tenggara Tim.",NUSA TENGGARA TIMUR,,Indonesia,,,,-9.39219,119.9183012,https://maps.google.com/?cid=0x0:0x8b75a82ea5dd038a,
perumahan,Komplek perumahan,Mehang Mata,"G27J+GP5, Prai Bakul, Kec. Haharu, Kabupaten Sumba Timur, Nusa Tenggara Tim.","Kabupaten Sumba Timur, Nusa Tenggara Tim.",NUSA TENGGARA TIMUR,,Indonesia,,,,-9.4862462,120.0318547,https://maps.google.com/?cid=0x0:0x1bb5642315a3341e,
perumahan,Komplek perumahan,Rumah Martin,"H25X+5X6, Rambangaru, Kec. Haharu, Kabupaten Sumba Timur, Nusa Tenggara Tim.","Kabupaten Sumba Timur, Nusa Tenggara Tim.",NUSA TENGGARA TIMUR,,Indonesia,,,,-9.4411329,120.0504744,https://maps.google.com/?cid=0x0:0xcbb30c2ddb0d9ec2,
perumahan,Komplek perumahan,PAKAMBALANG,"H25Q+F3C Mabolu, RT.010/RW.005, Rambangaru, Kec. Haharu, Kabupaten Sumba Timur, Nusa Tenggara Tim.","Kabupaten Sumba Timur, Nusa Tenggara Tim.",NUSA TENGGARA TIMUR,,Indonesia,,,,-9.4413063,120.0376335,https://maps.google.com/?cid=0x0:0x1cf0d74cc0ba0bfb,
perumahan,Paviliun Pantai,POS Perikanan Larawali,"MV48+RP, Napu, Kec. Haharu, Kabupaten Sumba Timur, Nusa Tenggara Tim.","Kabupaten Sumba Timur, Nusa Tenggara Tim.",NUSA TENGGARA TIMUR,,Indonesia,,,,-9.3429933,119.8668342,https://maps.google.com/?cid=0x0:0x93dd86f42ec837bf,
perumahan,Komplek perumahan,Bengkel warahe,"H362+426, Rambangaru, Kec. Haharu, Kabupaten Sumba Timur, Nusa Tenggara Tim.","Kabupaten Sumba Timur, Nusa Tenggara Tim.",NUSA TENGGARA TIMUR,,Indonesia,,,,-9.4230407,120.0428463,https://maps.google.com/?cid=0x0:0xbc9fef0eeff542d6,
perumahan,Komplek perumahan,Kades Rambangaru,"H322+239, Rambangaru, Kec. Haharu, Kabupaten Sumba Timur, Nusa Tenggara Tim.","Kabupaten Sumba Timur, Nusa Tenggara Tim.",NUSA TENGGARA TIMUR,,Indonesia,,,,-9.4499971,120.0501327,https://maps.google.com/?cid=0x0:0x5c2c7b4c7c03d6a,
perumahan,Komplek perumahan,Pakambalang,"G3CC+RM, Prai Bakul, Kec. Haharu, Kabupaten Sumba Timur, Nusa Tenggara Tim.","Kabupaten Sumba Timur, Nusa Tenggara Tim.",NUSA TENGGARA TIMUR,,Indonesia,,,,-9.4779367,120.0717124,https://maps.google.com/?cid=0x0:0xd07fa2aa169b4b90,
perumahan,Komplek perumahan,Ary Tamilan,"H323+558, RT Karoku, Rambangaru, Kec. Haharu, Kabupaten Sumba Timur, Nusa Tenggara Tim.","Kabupaten Sumba Timur, Nusa Tenggara Tim.",NUSA TENGGARA TIMUR,,Indonesia,,,,-9.4495875,120.0529531,https://maps.google.com/?cid=0x0:0x769e4a6c42578322,
perumahan,perumahan,Yugir Nippa,"G3MG+V58, Hambuang, Kec. Haharu, Kabupaten Sumba Timur, Nusa Tenggara Tim.","Kabupaten Sumba Timur, Nusa Tenggara Tim.",NUSA TENGGARA TIMUR,,Indonesia,,,,-9.4653438,120.0754638,https://maps.google.com/?cid=0x0:0x477a9ea5b0938dc5,
perumahan,perumahan,Nusa Tenggara Tim.,,Nusa Tenggara Tim.,NUSA TENGGARA TIMUR,,Indonesia,,,,-8.6573819,121.0793705,https://maps.google.com/?cid=0x0:0x1030bfbcaf71ae0,
perumahan,Tujuan Wisata,Mataiyang,"7VRR+XH6, Lewapaku, Kec. Lewa, Kabupaten Sumba Timur, Nusa Tenggara Tim.","Kabupaten Sumba Timur, Nusa Tenggara Tim.",NUSA TENGGARA TIMUR,,Indonesia,,,,-9.7075956,119.8914001,https://maps.google.com/?cid=0x0:0x10fdc8a490bbf7ad,
perumahan,Pembangunan Perumahan,Lewa,"Jl. Pulau Komodo No.15, Kambajawa, Kec. Kota Waingapu, Kabupaten Sumba Timur, Nusa Tenggara Tim.","Kabupaten Sumba Timur, Nusa Tenggara Tim.",NUSA TENGGARA TIMUR,,Indonesia,,,,-9.6632514,120.2444231,https://maps.google.com/?cid=0x0:0xad4faf7aa91715f0,
perumahan,Komplek perumahan,BTN Kolhua,"QJVH+XM3, Blk. Y2, Kolhua, Kec. Maulafa, Kota Kupang, Nusa Tenggara Tim. 85142","Blk. Y2, Kolhua, Kec. Maulafa, Kota Kupang",NUSA TENGGARA TIMUR,85142.0,Indonesia,,,,-10.2044465,123.6298256,https://maps.google.com/?cid=0x0:0x3ce7ebf84151c1d3,
perumahan,perumahan,Lewa,"Lewapaku, Kec. Lewa, Kabupaten Sumba Timur, Nusa Tenggara Tim.","Kabupaten Sumba Timur, Nusa Tenggara Tim.",NUSA TENGGARA TIMUR,,Indonesia,,,,-9.708722,119.891098,https://maps.google.com/?cid=0x0:0x5aa05b77117b0db,
perumahan,Komplek perumahan,Lewangera,"7VRR+XH6, Lewapaku, Kec. Lewa, Kabupaten Sumba Timur, Nusa Tenggara Tim. 2","Kabupaten Sumba Timur, Nusa Tenggara Tim.",NUSA TENGGARA TIMUR,,Indonesia,,,,-9.7075956,119.8914001,https://maps.google.com/?cid=0x0:0xe4c5e95bf27b3e21,
perumahan,Komplek perumahan,Waiwei lewaa,"7VRR+GC9, Lewapaku, Kec. Lewa, Kabupaten Sumba Timur, Nusa Tenggara Tim.","Kabupaten Sumba Timur, Nusa Tenggara Tim.",NUSA TENGGARA TIMUR,,Indonesia,,,,-9.708722,119.891098,https://maps.google.com/?cid=0x0:0xa1628d027bdfbb65,
perumahan,Pembangunan Perumahan,M.Cell,"7VRR+GC9, Jln, pametikarata, Lewa, East Sumba Regency, East Nusa Tenggara","Kabupaten Sumba Timur, Nusa Tenggara Tim.",NUSA TENGGARA TIMUR,,Indonesia,,,,-9.708722,119.891098,https://maps.google.com/?cid=0x0:0xcf17d72f19416eb4,
perumahan,Komplek perumahan,Mardianus Umbu Rihi S.Pd,"7VRR+XH6, Lewapaku, Kec. Lewa, Kabupaten Sumba Timur, Nusa Tenggara Tim.","Kabupaten Sumba Timur, Nusa Tenggara Tim.",NUSA TENGGARA TIMUR,,Indonesia,,,,-9.7075956,119.8914001,https://maps.google.com/?cid=0x0:0x27e699e2e7680133,
perumahan,perumahan,Nggaha Oriangu,"Kabupaten Sumba Timur, Nusa Tenggara Tim.","Kabupaten Sumba Timur, Nusa Tenggara Tim.",NUSA TENGGARA TIMUR,,Indonesia,,,,-9.7124895,120.043412,https://maps.google.com/?cid=0x0:0x50ba61a250fbf890,
perumahan,Pembangunan Perumahan,Dusun Waiwunga,"7393+WVJ, Unnamed Road, Makamenggit, Nggaha Oriangu, Kabupaten Sumba Timur, Nusa Tenggara Tim.","Kabupaten Sumba Timur, Nusa Tenggara Tim.",NUSA TENGGARA TIMUR,,Indonesia,,,,-9.730171,120.0546254,https://maps.google.com/?cid=0x0:0x7f7ff9731554d2f7,
perumahan,perumahan,Haurani,"7WGR+9X, Kahiri, Nggaha Oriangu, Kabupaten Sumba Timur, Nusa Tenggara Tim.","Kabupaten Sumba Timur, Nusa Tenggara Tim.",NUSA TENGGARA TIMUR,,Indonesia,,,,-9.7240779,119.9424725,https://maps.google.com/?cid=0x0:0xea35462e20961544,
perumahan,Komplek perumahan,Simpang Jarik,"62VP+W5P, Pulu Panjang, Nggaha Oriangu, Kabupaten Sumba Timur, Nusa Tenggara Tim.","Kabupaten Sumba Timur, Nusa Tenggara Tim.",NUSA TENGGARA TIMUR,,Indonesia,,,,-9.7551659,120.0354463,https://maps.google.com/?cid=0x0:0x3740e6d11a9d17b8,
perumahan,Pembangunan Perumahan,Dusun Wangga,"72PV+G9G, Makamenggit, Nggaha Oriangu, Kabupaten Sumba Timur, Nusa Tenggara Tim.","Kabupaten Sumba Timur, Nusa Tenggara Tim.",NUSA TENGGARA TIMUR,,Indonesia,,,,-9.7136952,120.0434594,https://maps.google.com/?cid=0x0:0x1dd5d42aec7e120a,
perumahan,Komplek perumahan,Praimutung,"72MF+6M, Tanatuku, Nggaha Oriangu, Kabupaten Sumba Timur, Nusa Tenggara Tim.","Kabupaten Sumba Timur, Nusa Tenggara Tim.",NUSA TENGGARA TIMUR,,Indonesia,,,,-9.7170134,120.0241486,https://maps.google.com/?cid=0x0:0x5b200052750743b6,
perumahan,Pembangunan Perumahan,Watukatending,"8XMR+35, Prai Paha, Nggaha Oriangu, Kabupaten Sumba Timur, Nusa Tenggara Tim.","Kabupaten Sumba Timur, Nusa Tenggara Tim.",NUSA TENGGARA TIMUR,,Indonesia,,,,-9.6673283,119.9904308,https://maps.google.com/?cid=0x0:0xfc9f580d5ba3c6ab,
perumahan,Komplek perumahan,La palindi,"7292+V5G, Tanatuku, Nggaha Oriangu, Kabupaten Sumba Timur, Nusa Tenggara Tim.","Kabupaten Sumba Timur, Nusa Tenggara Tim.",NUSA TENGGARA TIMUR,,Indonesia,,,,-9.7303102,120.0004408,https://maps.google.com/?cid=0x0:0xd51b49925e75f9e3,
perumahan,Pembangunan Perumahan,lokasi acara,"72PJ+Q8J, Makamenggit, Nggaha Oriangu, Kabupaten Sumba Timur, Nusa Tenggara Tim.","Kabupaten Sumba Timur, Nusa Tenggara Tim.",NUSA TENGGARA TIMUR,,Indonesia,,,,-9.7128469,120.0302413,https://maps.google.com/?cid=0x0:0xe08a732817bfc525,
perumahan,Komplek perumahan,BJ HOUSING,"at, Jl. Weekeou BTN BLOK a no 56 sumba bar, Prai Paha, Nggaha Oriangu, Kabupaten Sumba Timur, Nusa Tenggara Tim.","Kabupaten Sumba Timur, Nusa Tenggara Tim.",NUSA TENGGARA TIMUR,,Indonesia,,,,-9.6993439,119.9740534,https://maps.google.com/?cid=0x0:0xac95b1e4c699a31f,
perumahan,Pembangunan Perumahan,Praikarang,"822G+GG, Prai Karang, Nggaha Oriangu, Kabupaten Sumba Timur, Nusa Tenggara Tim.","Kabupaten Sumba Timur, Nusa Tenggara Tim.",NUSA TENGGARA TIMUR,,Indonesia,,,,-9.698679,120.026415,https://maps.google.com/?cid=0x0:0xda8c3f95650c021c,
perumahan,Pembangunan Perumahan,Leibanduk,"8XR6+GQ, Prai Paha, Nggaha Oriangu, Kabupaten Sumba Timur, Nusa Tenggara Tim.","Kabupaten Sumba Timur, Nusa Tenggara Tim.",NUSA TENGGARA TIMUR,,Indonesia,,,,-9.658701,119.961964,https://maps.google.com/?cid=0x0:0x9bf65625dae766ef,
perumahan,Komplek perumahan,Rumah Umbu Angki Jr,"9W2P+MG7, Matawai Pawali, Kec. Lewa, Kabupaten Sumba Timur, Nusa Tenggara Tim.","Kabupaten Sumba Timur, Nusa Tenggara Tim.",NUSA TENGGARA TIMUR,,Indonesia,,,,-9.6483432,119.9363095,https://maps.google.com/?cid=0x0:0x5184f2690a393856,
perumahan,Pembangunan Perumahan,Nangga,"9W85+9XR, Rakawatu, Kec. Lewa, Kabupaten Sumba Timur, Nusa Tenggara Tim.","Kabupaten Sumba Timur, Nusa Tenggara Tim.",NUSA TENGGARA TIMUR,,Indonesia,,,,-9.6342235,119.9084753,https://maps.google.com/?cid=0x0:0x27c803235e96177d,
perumahan,Komplek perumahan,Kalu,"829P+8H, Prai Karang, Nggaha Oriangu, Kabupaten Sumba Timur, Nusa Tenggara Tim.","Kabupaten Sumba Timur, Nusa Tenggara Tim.",NUSA TENGGARA TIMUR,,Indonesia,,,,-9.6817406,120.0364012,https://maps.google.com/?cid=0x0:0x3a8cc10e4bad19,
perumahan,Komplek perumahan,Rumah kontrakan mam Oktavianus,"72PM+89, Makamenggit, Nggaha Oriangu, Kabupaten Sumba Timur, Nusa Tenggara Tim.","Kabupaten Sumba Timur, Nusa Tenggara Tim.",NUSA TENGGARA TIMUR,,Indonesia,,,,-9.7141875,120.0334375,https://maps.google.com/?cid=0x0:0x43ba1dffa066cf8,
perumahan,Gedung Apartemen,Rumah S.k Ta'u woritta,"GKS kanjonga bakul, Jl.waingapu-lewa (praihambuli km 47) samping","Kabupaten Sumba Timur, Nusa Tenggara Tim.",NUSA TENGGARA TIMUR,,Indonesia,,,,-9.7406301,119.9652556,https://maps.google.com/?cid=0x0:0xc4cc44f1988d9385,
perumahan,Pembangunan Perumahan,Bengkel om Oleng,"72G6+3GG, Km 35 - Batas Kab. Sumba Timur, Tanatuku, Nggaha Oriangu, Kabupaten Sumba Timur, Nusa Tenggara Tim.","Kabupaten Sumba Timur, Nusa Tenggara Tim.",NUSA TENGGARA TIMUR,,Indonesia,,,,-9.7248077,120.011343,https://maps.google.com/?cid=0x0:0x3ba660bf6630c537,
perumahan,Komplek perumahan,Yulianti Lodo,"8XH6+PX5, Prai Paha, Nggaha Oriangu, Kabupaten Sumba Timur, Nusa Tenggara Tim.","Kabupaten Sumba Timur, Nusa Tenggara Tim.",NUSA TENGGARA TIMUR,,Indonesia,,,,-9.6707446,119.9624902,https://maps.google.com/?cid=0x0:0xc22b2edaf208b164,
perumahan,Pembangunan Perumahan,Jefri Ranu,"72F5+PF5, Tanatuku, Nggaha Oriangu, Kabupaten Sumba Timur, Nusa Tenggara Tim.","Kabupaten Sumba Timur, Nusa Tenggara Tim.",NUSA TENGGARA TIMUR,,Indonesia,,,,-9.7257257,120.0087372,https://maps.google.com/?cid=0x0:0x4aeb3a39dab609b8,
perumahan,Perhimpunan Pengembang Perumahan,Moes Home,"7WQ6+23V, Kambu Hapang, Kec. Lewa, Kabupaten Sumba Timur, Nusa Tenggara Tim.","Kabupaten Sumba Timur, Nusa Tenggara Tim.",NUSA TENGGARA TIMUR,,Indonesia,,,,-9.7120849,119.9109227,https://maps.google.com/?cid=0x0:0x55ffe7c022985639,
perumahan,Guru privat,Rumah Samuel Umbu Serri,"7X7J+RM, Tanatuku, Nggaha Oriangu, Kabupaten Sumba Timur, Nusa Tenggara Tim.","Kabupaten Sumba Timur, Nusa Tenggara Tim.",NUSA TENGGARA TIMUR,,Indonesia,,,,-9.7354239,119.9816888,https://maps.google.com/?cid=0x0:0x5952ce2f03e2e0f3,
perumahan,perumahan,Kec. Tabundung,"Kabupaten Sumba Timur, Nusa Tenggara Tim.","Kabupaten Sumba Timur, Nusa Tenggara Tim.",NUSA TENGGARA TIMUR,,Indonesia,,,,-9.9466839,120.0780554,https://maps.google.com/?cid=0x0:0x7117cd72af097313,
perumahan,Komplek perumahan,Laung,"34WF+5RG, Kuki Talu, Kec. Tabundung, Kabupaten Sumba Timur, Nusa Tenggara Tim.","Kabupaten Sumba Timur, Nusa Tenggara Tim.",NUSA TENGGARA TIMUR,,Indonesia,,,,-9.9045615,120.1245885,https://maps.google.com/?cid=0x0:0x71122ed02d720ee7,
perumahan,Komplek perumahan,BILBERS,"24G2+5FM, Billa, Kec. Tabundung, Kabupaten Sumba Timur, Nusa Tenggara Tim.","Kabupaten Sumba Timur, Nusa Tenggara Tim.",NUSA TENGGARA TIMUR,,Indonesia,,,,-9.9745429,120.1011836,https://maps.google.com/?cid=0x0:0xa3041314e4bb1b0f,
perumahan,Komplek perumahan,Mambu Rental,"333F+8WW, Billa, Kec. Tabundung, Kabupaten Sumba Timur, Nusa Tenggara Tim.","Kabupaten Sumba Timur, Nusa Tenggara Tim.",NUSA TENGGARA TIMUR,,Indonesia,82144037654.0,,,-9.9466275,120.074839,https://maps.google.com/?cid=0x0:0x2155ee93effb1b33,
perumahan,Komplek perumahan,Rumah Uhend,"2XV2+J97, Tarimbang, Kec. Tabundung, Kabupaten Sumba Timur, Nusa Tenggara Tim.","Kabupaten Sumba Timur, Nusa Tenggara Tim.",NUSA TENGGARA TIMUR,,Indonesia,,,,-9.9559644,119.9509079,https://maps.google.com/?cid=0x0:0xd51d7e5e51633d3,
perumahan,Perhimpunan Pengembang Perumahan,laigamma,"333H+86F, Billa, Kec. Tabundung, Kabupaten Sumba Timur, Nusa Tenggara Tim.","Kabupaten Sumba Timur, Nusa Tenggara Tim.",NUSA TENGGARA TIMUR,,Indonesia,,,,-9.9466839,120.0780554,https://maps.google.com/?cid=0x0:0x18667e5166d2795f,
perumahan,Komplek perumahan,P.P. Ndaparahing,"332C+PMC, Billa, Kec. Tabundung, Kabupaten Sumba Timur, Nusa Tenggara Tim.","Kabupaten Sumba Timur, Nusa Tenggara Tim.",NUSA TENGGARA TIMUR,,Indonesia,,,,-9.9484398,120.0719277,https://maps.google.com/?cid=0x0:0x6e3648644a117139,
perumahan,perumahan,Kampung Adat Praing Ananjara,"X2RX+XM, Praing Kareha, Kec. Tabundung, Kabupaten Sumba Timur, Nusa Tenggara Tim.","Kabupaten Sumba Timur, Nusa Tenggara Tim.",NUSA TENGGARA TIMUR,,Indonesia,,,,-10.0075223,120.0491138,https://maps.google.com/?cid=0x0:0x388c8c037a63a039,
perumahan,perumahan,Uma Batang Hautama Generation,"334G+46C, Billa, Kec. Tabundung, Kabupaten Sumba Timur, Nusa Tenggara Tim.","Kabupaten Sumba Timur, Nusa Tenggara Tim.",NUSA TENGGARA TIMUR,,Indonesia,,,,-9.9438505,120.075035,https://maps.google.com/?cid=0x0:0x5d155dee8c45e01e,
perumahan,perumahan,UMA PAUHING,"W4G4+V8, Ramuk, Kec. Pinupahar, Kabupaten Sumba Timur, Nusa Tenggara Tim.","Kabupaten Sumba Timur, Nusa Tenggara Tim.",NUSA TENGGARA TIMUR,,Indonesia,,,,-10.0727563,120.1058459,https://maps.google.com/?cid=0x0:0x8cfa3eb03e0b4f64,
perumahan,Perhimpunan Pengembang Perumahan,Rumah Ana Lo'du,"33MR+QFG, Karita, Kec. Tabundung, Kabupaten Sumba Timur, Nusa Tenggara Tim.","Kabupaten Sumba Timur, Nusa Tenggara Tim.",NUSA TENGGARA TIMUR,,Indonesia,,,,-9.9166438,120.0919447,https://maps.google.com/?cid=0x0:0xb12bf93bacb93bfe,
perumahan,Pembangunan Perumahan,Ngadu Oli,"2XJ6+753, Tarimbang, Kec. Tabundung, Kabupaten Sumba Timur, Nusa Tenggara Tim.","Kabupaten Sumba Timur, Nusa Tenggara Tim.",NUSA TENGGARA TIMUR,,Indonesia,,,,-9.9693634,119.9604236,https://maps.google.com/?cid=0x0:0x68d4d6256da8213,
perumahan,Komplek perumahan,WATU OTUR,"3X3P+36Q, Bangga Watu, Kec. Tabundung, Kabupaten Sumba Timur, Nusa Tenggara Tim.","Kabupaten Sumba Timur, Nusa Tenggara Tim.",NUSA TENGGARA TIMUR,,Indonesia,,,,-9.9472818,119.9856116,https://maps.google.com/?cid=0x0:0xa17db3e59b5c7606,
perumahan,Pembangunan Perumahan,Ut Padua,"33PQ+H7, Karita, Kec. Tabundung, Kabupaten Sumba Timur, Nusa Tenggara Tim.","Kabupaten Sumba Timur, Nusa Tenggara Tim.",NUSA TENGGARA TIMUR,,Indonesia,,,,-9.9135756,120.0881753,https://maps.google.com/?cid=0x0:0xed68f97a43703f1,
perumahan,Komplek perumahan,Kampung Maraba Lakotak,"3X32+3Q4, Tarimbang, Kec. Tabundung, Kabupaten Sumba Timur, Nusa Tenggara Tim.","Kabupaten Sumba Timur, Nusa Tenggara Tim.",NUSA TENGGARA TIMUR,,Indonesia,,,,-9.9473566,119.9519592,https://maps.google.com/?cid=0x0:0x6d2e70c856b31b95,
perumahan,Pembangunan Perumahan,Rumah besar karita Uma karambua,"32PV+G8, Karita, Kec. Tabundung, Kabupaten Sumba Timur, Nusa Tenggara Tim.","Kabupaten Sumba Timur, Nusa Tenggara Tim.",NUSA TENGGARA TIMUR,,Indonesia,,,,-9.9137947,120.0432603,https://maps.google.com/?cid=0x0:0x87d1ec1f7137a6b1,
perumahan,Komplek perumahan,Udhen,"X589+VWF, Maha Niwa, Kec. Pinupahar, Kabupaten Sumba Timur, Nusa Tenggara Tim.","Kabupaten Sumba Timur, Nusa Tenggara Tim.",NUSA TENGGARA TIMUR,,Indonesia,,,,-10.0328141,120.1697867,https://maps.google.com/?cid=0x0:0x765c6213df455c02,
perumahan,Pembangunan Perumahan,Rumah Umbu Nai Kahora Tawui,"V34F+CJ6, Dekat, Tawui, Kec. Pinupahar, Kabupaten Sumba Timur, Nusa Tenggara Tim.","Kabupaten Sumba Timur, Nusa Tenggara Tim.",NUSA TENGGARA TIMUR,,Indonesia,,,,-10.1439738,120.0740052,https://maps.google.com/?cid=0x0:0x2977f684c0c51b9e,
perumahan,Komplek perumahan,Jen Yusuf Umbu kudu,"jl.Tamma No.8, RT.08/RW.04, Tawui, Kec. Pinupahar, Kabupaten Sumba Timur, Nusa Tenggara Tim. 87112","RT.08/RW.04, Tawui, Kec. Pinupahar, Kabupaten Sumba Timur",NUSA TENGGARA TIMUR,87112.0,Indonesia,,,,-10.1541826,120.0777846,https://maps.google.com/?cid=0x0:0xde871fa3404f2be6,
perumahan,Pembangunan Perumahan,R.baru,"R3WG+WMX, Tawui, Kec. Pinupahar, Kabupaten Sumba Timur, Nusa Tenggara Tim.","Kabupaten Sumba Timur, Nusa Tenggara Tim.",NUSA TENGGARA TIMUR,,Indonesia,,,,-10.152575,120.0768407,https://maps.google.com/?cid=0x0:0xeb6d5408a861c66d,
perumahan,Komplek perumahan,"Oka Hapi Tawui,perumnas","R3WG+WMX, Tawui, Kec. Pinupahar, Kabupaten Sumba Timur, Nusa Tenggara Tim.","Kabupaten Sumba Timur, Nusa Tenggara Tim.",NUSA TENGGARA TIMUR,,Indonesia,,,,-10.1533999,120.0757974,https://maps.google.com/?cid=0x0:0x9f5d1cdfd1df3712,
perumahan,Perhimpunan Pengembang Perumahan,Rumah Umbu Mehang,"5665+FX, Maidang, Kec. Kambata Mapambuhang, Kabupaten Sumba Timur, Nusa Tenggara Tim.","Kabupaten Sumba Timur, Nusa Tenggara Tim.",NUSA TENGGARA TIMUR,,Indonesia,,,,-9.8387546,120.2099611,https://maps.google.com/?cid=0x0:0x87d13ad4b101eed2,
perumahan,perumahan,Rumah Bapa Padjaru Diwa,"52V7+HP5, Mandahu, Kec. Katala Hamu Lingu, Kabupaten Sumba Timur, Nusa Tenggara Tim.","Kabupaten Sumba Timur, Nusa Tenggara Tim.",NUSA TENGGARA TIMUR,,Indonesia,,,,-9.8061028,120.0143604,https://maps.google.com/?cid=0x0:0x65aee6a4f8bc6ca9,
perumahan,Pembangunan Perumahan,Desa Tawui,"V39C+CX3, Jl.Tamma, Tawui, Kec. Pinupahar, Kabupaten Sumba Timur, Nusa Tenggara Tim.","Kabupaten Sumba Timur, Nusa Tenggara Tim.",NUSA TENGGARA TIMUR,,Indonesia,,,,-10.1314845,120.0724087,https://maps.google.com/?cid=0x0:0x305afb126a6bf3c4,
perumahan,perumahan,Tamu Umbu Landu Paranggi,"R3RP+4R8, Tawui, Kec. Pinupahar, Kabupaten Sumba Timur, Nusa Tenggara Tim.","Kabupaten Sumba Timur, Nusa Tenggara Tim.",NUSA TENGGARA TIMUR,,Indonesia,,,,-10.159348,120.086079,https://maps.google.com/?cid=0x0:0x65002bbba5c0b4bf,
perumahan,Komplek perumahan,U.Mon Lailunggi,"R3VJ+WVC, Tawui, Kec. Pinupahar, Kabupaten Sumba Timur, Nusa Tenggara Tim.","Kabupaten Sumba Timur, Nusa Tenggara Tim.",NUSA TENGGARA TIMUR,,Indonesia,,,,-10.1551491,120.0821903,https://maps.google.com/?cid=0x0:0xe3836dcfcbc03b5,
perumahan,perumahan,Kec. Pinupahar,"Kabupaten Sumba Timur, Nusa Tenggara Tim.","Kabupaten Sumba Timur, Nusa Tenggara Tim.",NUSA TENGGARA TIMUR,,Indonesia,,,,-10.1728111,120.1167385,https://maps.google.com/?cid=0x0:0xdbe06636bbfbb8e0,
perumahan,perumahan,Kec. Pandawai,"Kabupaten Sumba Timur, Nusa Tenggara Tim.","Kabupaten Sumba Timur, Nusa Tenggara Tim.",NUSA TENGGARA TIMUR,,Indonesia,,,,-9.6759665,120.3276127,https://maps.google.com/?cid=0x0:0x7c00098e214b97e7,
perumahan,Komplek perumahan,Kawangu,"88FF+Q5, Kawangu, Kec. Pandawai, Kabupaten Sumba Timur, Nusa Tenggara Tim.","Kabupaten Sumba Timur, Nusa Tenggara Tim.",NUSA TENGGARA TIMUR,,Indonesia,,,,-9.6756219,120.3228815,https://maps.google.com/?cid=0x0:0xb5f0cc9daa74dac9,
perumahan,Komplek perumahan,KAWANGU HILLS RESIDENCE,"889Q+52, Kawangu, Kec. Pandawai, Kabupaten Sumba Timur, Nusa Tenggara Tim.","Kabupaten Sumba Timur, Nusa Tenggara Tim.",NUSA TENGGARA TIMUR,,Indonesia,,,,-9.6821343,120.3375187,https://maps.google.com/?cid=0x0:0x9931ad0538ac631f,
perumahan,Kantor Perusahaan,Kampung Ende,"89Q3+434, Watumbaka, Kec. Pandawai, Kabupaten Sumba Timur, Nusa Tenggara Tim.","Kabupaten Sumba Timur, Nusa Tenggara Tim.",NUSA TENGGARA TIMUR,,Indonesia,,,,-9.662226,120.3527037,https://maps.google.com/?cid=0x0:0x5c73db421d2a8f33,
perumahan,Komplek perumahan,Andre Gen,"88FF+Q5, Kawangu, Kec. Pandawai, Kabupaten Sumba Timur, Nusa Tenggara Tim.","Kabupaten Sumba Timur, Nusa Tenggara Tim.",NUSA TENGGARA TIMUR,,Indonesia,,,,-9.6755302,120.3218463,https://maps.google.com/?cid=0x0:0xa6d83b4890613d35,
perumahan,perumahan,Rumah Julius Lindinau,"889P+G5H, Kawangu, Kec. Pandawai, Kabupaten Sumba Timur, Nusa Tenggara Tim.","Kabupaten Sumba Timur, Nusa Tenggara Tim.",NUSA TENGGARA TIMUR,,Indonesia,,,,-9.6815175,120.3356136,https://maps.google.com/?cid=0x0:0xe3e95e2f38c264b7,
perumahan,perumahan,Tanah P.L.W,"88F9+XW7, Kawangu, Kec. Pandawai, Kabupaten Sumba Timur, Nusa Tenggara Tim.","Kabupaten Sumba Timur, Nusa Tenggara Tim.",NUSA TENGGARA TIMUR,,Indonesia,,,,-9.6750773,120.3197993,https://maps.google.com/?cid=0x0:0xf2e19dfeda655ed4,
perumahan,perumahan,Rumah Alphonsius,"889R+XR, Kawangu, Kec. Pandawai, Kabupaten Sumba Timur, Nusa Tenggara Tim.","Kabupaten Sumba Timur, Nusa Tenggara Tim.",NUSA TENGGARA TIMUR,,Indonesia,,,,-9.6800425,120.3421092,https://maps.google.com/?cid=0x0:0x9f5863a920e21945,
perumahan,Komplek perumahan,rumah mami,"88MX+WWW, Kawangu, Kec. Pandawai, Kabupaten Sumba Timur, Nusa Tenggara Tim.","Kabupaten Sumba Timur, Nusa Tenggara Tim.",NUSA TENGGARA TIMUR,,Indonesia,,,,-9.6662612,120.3495546,https://maps.google.com/?cid=0x0:0xac2e2274c02501de,
perumahan,Komplek perumahan,FR,"889P+G5H, Kawangu, Kec. Pandawai, Kabupaten Sumba Timur, Nusa Tenggara Tim.","Kabupaten Sumba Timur, Nusa Tenggara Tim.",NUSA TENGGARA TIMUR,,Indonesia,,,,-9.6811754,120.3354803,https://maps.google.com/?cid=0x0:0x2c11474280471d75,
perumahan,Komplek perumahan,Frido,"88GJ+PQW, Kawangu, Kec. Pandawai, Kabupaten Sumba Timur, Nusa Tenggara Tim.","Kabupaten Sumba Timur, Nusa Tenggara Tim.",NUSA TENGGARA TIMUR,,Indonesia,,,,-9.6731259,120.3319567,https://maps.google.com/?cid=0x0:0xb910fb208f0c143,
perumahan,Komplek perumahan,Jack Riwu Home,"88CR+WP5, Jl. Nusa Cendana, Kawangu, Kec. Pandawai, Kabupaten Sumba Timur, Nusa Tenggara Tim.","Kabupaten Sumba Timur, Nusa Tenggara Tim.",NUSA TENGGARA TIMUR,,Indonesia,,,,-9.6777333,120.3418653,https://maps.google.com/?cid=0x0:0xe6a2083fd3a0e6f,
perumahan,perumahan,Benyamin Ludji Riwu,"87HX+CC8, Mau Hau, Kec. Kambera, Kabupaten Sumba Timur, Nusa Tenggara Tim.","Kabupaten Sumba Timur, Nusa Tenggara Tim.",NUSA TENGGARA TIMUR,,Indonesia,,,,-9.6726921,120.2991386,https://maps.google.com/?cid=0x0:0xf4d664d960ea1069,
perumahan,Komplek perumahan,Frit,"78WF+25, Kambata Tana, Kec. Pandawai, Kabupaten Sumba Timur, Nusa Tenggara Tim.","Kabupaten Sumba Timur, Nusa Tenggara Tim.",NUSA TENGGARA TIMUR,,Indonesia,,,,-9.70502,120.323267,https://maps.google.com/?cid=0x0:0x9f65fda8872779dd,
perumahan,Komplek perumahan,Hendro Thalora,"78VF+XCJ Palindi, RT.010/RW.005, Kambata Tana, Kec. Pandawai, Kabupaten Sumba Timur, Nusa Tenggara Tim.","Kabupaten Sumba Timur, Nusa Tenggara Tim.",NUSA TENGGARA TIMUR,,Indonesia,81337109395.0,,,-9.7050253,120.3234555,https://maps.google.com/?cid=0x0:0xaa0ce24ed7adcc00,
perumahan,Pembangunan Perumahan,PEGATIK,"88GH+572, Kawangu, Kec. Pandawai, Kabupaten Sumba Timur, Nusa Tenggara Tim.","Kabupaten Sumba Timur, Nusa Tenggara Tim.",NUSA TENGGARA TIMUR,,Indonesia,82237265246.0,,,-9.6746142,120.328144,https://maps.google.com/?cid=0x0:0x8d1f68aaa2b7e99c,
perumahan,Komplek perumahan,BILLA,"Kandang Ayam Umbu Yosi, Billa, Kec. Pandawai, Kabupaten Sumba Timur, Nusa Tenggara Tim.","Kabupaten Sumba Timur, Nusa Tenggara Tim.",NUSA TENGGARA TIMUR,,Indonesia,,,,-9.703451,120.3265718,https://maps.google.com/?cid=0x0:0x7d2fdd756ece07b5,
perumahan,Komplek perumahan,Kawangu,"88GJ+9WF, Jl. Nusa Cendana, Kawangu, Kec. Pandawai, Kabupaten Sumba Timur, Nusa Tenggara Tim.","Kabupaten Sumba Timur, Nusa Tenggara Tim.",NUSA TENGGARA TIMUR,,Indonesia,,,,-9.674051,120.3322984,https://maps.google.com/?cid=0x0:0x2b8abfa25c829534,
perumahan,perumahan,Arvin home,"89J3+WCG, Watumbaka, Kec. Pandawai, Kabupaten Sumba Timur, Nusa Tenggara Tim.","Kabupaten Sumba Timur, Nusa Tenggara Tim.",NUSA TENGGARA TIMUR,,Indonesia,,,,-9.6681611,120.35397,https://maps.google.com/?cid=0x0:0x7b2f18da3ea5b7dd,
perumahan,Pembangunan Perumahan,Kontrakan GMGD 5 Kawangu,"88GG+FXH, Kawangu, Kec. Pandawai, Kabupaten Sumba Timur, Nusa Tenggara Tim.","Kabupaten Sumba Timur, Nusa Tenggara Tim.",NUSA TENGGARA TIMUR,,Indonesia,,,,-9.6738231,120.3274725,https://maps.google.com/?cid=0x0:0xa590b226717de9d7,
perumahan,Komplek perumahan,Yulius Kandi Praing,"8837+XH, RT.005/RW.003, Kambata Tana, Kec. Pandawai, Kabupaten Sumba Timur, Nusa Tenggara Tim.","Kabupaten Sumba Timur, Nusa Tenggara Tim.",NUSA TENGGARA TIMUR,,Indonesia,,,,-9.695051,120.3140277,https://maps.google.com/?cid=0x0:0xbe5bcb8ca623c159,
perumahan,Komplek perumahan,kampung Janggamangu,"88JX+Q3H, Jl. Nusa Cendana, Kawangu, Kec. Pandawai, Kabupaten Sumba Timur, Nusa Tenggara Tim.","Kabupaten Sumba Timur, Nusa Tenggara Tim.",NUSA TENGGARA TIMUR,,Indonesia,,,,-9.6680553,120.3477402,https://maps.google.com/?cid=0x0:0xb8252677585847f5,
perumahan,perumahan,Margaretha Tenun Ikat,"883F+XJ2, Kambata Tana, Kec. Pandawai, Kabupaten Sumba Timur, Nusa Tenggara Tim.","Kabupaten Sumba Timur, Nusa Tenggara Tim.",NUSA TENGGARA TIMUR,,Indonesia,,,,-9.695101,120.3240211,https://maps.google.com/?cid=0x0:0x2fd68500ef9e3081,
perumahan,perumahan,Nusa Tenggara Tim.,,Nusa Tenggara Tim.,NUSA TENGGARA TIMUR,,Indonesia,,,,-8.6573819,121.0793705,https://maps.google.com/?cid=0x0:0x1030bfbcaf71ae0,
perumahan,Perumahan,Nola pali,"Mutunggeding Kecamatan Umalulu, Jln, Mutunggeding, tuta lairongga, Kabupaten Sumba Timur, Nusa Tenggara Tim. 87181","Jln, Mutunggeding, tuta lairongga, Kabupaten Sumba Timur",NUSA TENGGARA TIMUR,87181.0,Indonesia,85238112370.0,,,-9.864186,120.6451025,https://maps.google.com/?cid=0x0:0x15ab82e422f9cef0,
perumahan,Komplek perumahan,Uma mbakul,"4Q7M+6WW, Mondu Lambi, Kec. Lewa Tidahu, Kabupaten Sumba Timur, Nusa Tenggara Tim.","Kabupaten Sumba Timur, Nusa Tenggara Tim.",NUSA TENGGARA TIMUR,,Indonesia,,,,-9.8868759,119.7848228,https://maps.google.com/?cid=0x0:0xb74e583e51ab523b,
perumahan,perumahan,Kec. Umalulu,"Kabupaten Sumba Timur, Nusa Tenggara Tim.","Kabupaten Sumba Timur, Nusa Tenggara Tim.",NUSA TENGGARA TIMUR,,Indonesia,,,,-9.870631,120.6502475,https://maps.google.com/?cid=0x0:0xf44468f3b0717c94,
perumahan,Komplek perumahan,GRAND,"3MW3+7X, Lumbukore, Kec. Umalulu, Kabupaten Sumba Timur, Nusa Tenggara Tim.","Kabupaten Sumba Timur, Nusa Tenggara Tim.",NUSA TENGGARA TIMUR,,Indonesia,,,,-9.904331,120.6549263,https://maps.google.com/?cid=0x0:0xa4d65934c41c4fc7,
perumahan,Komplek perumahan,Rumah Lius Retang,"4J6V+FX8, Mutunggeding, Kec. Umalulu, Kabupaten Sumba Timur, Nusa Tenggara Tim.","Kabupaten Sumba Timur, Nusa Tenggara Tim.",NUSA TENGGARA TIMUR,,Indonesia,82229094416.0,,,-9.8875902,120.6453049,https://maps.google.com/?cid=0x0:0x79fa506ca405e9,
perumahan,Komplek perumahan,Kambaru,"4J5H+32, Lairuru, Kec. Umalulu, Kabupaten Sumba Timur, Nusa Tenggara Tim.","Kabupaten Sumba Timur, Nusa Tenggara Tim.",NUSA TENGGARA TIMUR,,Indonesia,,,,-9.8922544,120.6275312,https://maps.google.com/?cid=0x0:0xdfc591f12a06480f,
perumahan,Komplek perumahan,"Rumah (AT) , jln. Waingapu melolo,kec. Umalulu","Lumbukore, Kec. Umalulu, Kabupaten Sumba Timur, Nusa Tenggara Tim.","Kabupaten Sumba Timur, Nusa Tenggara Tim.",NUSA TENGGARA TIMUR,,Indonesia,,,,-9.8962739,120.6631289,https://maps.google.com/?cid=0x0:0x9e59ecc431e0f1e,
perumahan,Pembangunan Perumahan,Muripado,"5JV5+Q9X, Patawang, Kec. Umalulu, Kabupaten Sumba Timur, Nusa Tenggara Tim.","Kabupaten Sumba Timur, Nusa Tenggara Tim.",NUSA TENGGARA TIMUR,,Indonesia,,,,-9.8055051,120.6084832,https://maps.google.com/?cid=0x0:0x35ad4ae5fd845532,
perumahan,Komplek perumahan,Kampung Mau Karaba,"4J6P+V5, Lairuru, Kec. Umalulu, Kabupaten Sumba Timur, Nusa Tenggara Tim.","Kabupaten Sumba Timur, Nusa Tenggara Tim.",NUSA TENGGARA TIMUR,,Indonesia,,,,-9.8878066,120.6354889,https://maps.google.com/?cid=0x0:0xefe21254ea0cd6f2,
perumahan,Komplek perumahan,Rumah boy hanggawali/Kong boy,"4M56+MP, Lumbukore, Kec. Umalulu, Kabupaten Sumba Timur, Nusa Tenggara Tim.","Kabupaten Sumba Timur, Nusa Tenggara Tim.",NUSA TENGGARA TIMUR,,Indonesia,,,,-9.8907612,120.6618182,https://maps.google.com/?cid=0x0:0x9cfad1eb961597bc,
perumahan,Komplek perumahan,"jln. Waingapu melolo,kec. Umalulu","4M96+J9F, Lumbukore, Kec. Umalulu, Kabupaten Sumba Timur, Nusa Tenggara Tim.","Kabupaten Sumba Timur, Nusa Tenggara Tim.",NUSA TENGGARA TIMUR,,Indonesia,,,,-9.8809375,120.6609219,https://maps.google.com/?cid=0x0:0xa4fa85976bd6fc10,
perumahan,Komplek perumahan,Rumah kuli tebu,"Wanga, Kec. Umalulu, Kabupaten Sumba Timur, Nusa Tenggara Tim.","Kabupaten Sumba Timur, Nusa Tenggara Tim.",NUSA TENGGARA TIMUR,,Indonesia,,,,-9.7567364,120.5768263,https://maps.google.com/?cid=0x0:0x4284468358a938b,
perumahan,Pembangunan Perumahan,Lairongga,"4JMP+F5, Mutunggeding, Kec. Umalulu, Kabupaten Sumba Timur, Nusa Tenggara Tim.","Kabupaten Sumba Timur, Nusa Tenggara Tim.",NUSA TENGGARA TIMUR,,Indonesia,,,,-9.866322,120.635447,https://maps.google.com/?cid=0x0:0x59e71709ff06a8d7,
perumahan,Pembangunan Perumahan,Bellavista,"5JX9+XRM, Patawang, Kec. Umalulu, Kabupaten Sumba Timur, Nusa Tenggara Tim.","Kabupaten Sumba Timur, Nusa Tenggara Tim.",NUSA TENGGARA TIMUR,,Indonesia,,,,-9.8000372,120.619543,https://maps.google.com/?cid=0x0:0xd381cfd9696fc0bc,
perumahan,Komplek perumahan,Kampung.Praiwangga Desa Umalulu,"2GHV+48, Umalulu, Kec. Umalulu, Kabupaten Sumba Timur, Nusa Tenggara Tim.","Kabupaten Sumba Timur, Nusa Tenggara Tim.",NUSA TENGGARA TIMUR,,Indonesia,,,,-9.9721471,120.5433024,https://maps.google.com/?cid=0x0:0x39b8184f33076452,
perumahan,Pembangunan Perumahan,Andhy Tamu,"4J5C+JM8, Lairuru, Kec. Umalulu, Kabupaten Sumba Timur, Nusa Tenggara Tim.","Kabupaten Sumba Timur, Nusa Tenggara Tim.",NUSA TENGGARA TIMUR,,Indonesia,,,,-9.8914302,120.621072,https://maps.google.com/?cid=0x0:0x8351bd937a1ee170,
perumahan,Komplek perumahan,Rumah Ayu,"Jl. Raya Melolo No.18, Lumbukore, Kec. Umalulu, Kabupaten Sumba Timur, Nusa Tenggara Tim.","Kabupaten Sumba Timur, Nusa Tenggara Tim.",NUSA TENGGARA TIMUR,,Indonesia,,,,-9.8804061,120.6625975,https://maps.google.com/?cid=0x0:0x67cafc7d22921282,
perumahan,Komplek perumahan,Ra nga,"4J5J+57, Lairuru, Kec. Umalulu, Kabupaten Sumba Timur, Nusa Tenggara Tim.","Kabupaten Sumba Timur, Nusa Tenggara Tim.",NUSA TENGGARA TIMUR,,Indonesia,,,,-9.8921045,120.6307354,https://maps.google.com/?cid=0x0:0x25ac60741cc1b1b3,
perumahan,Komplek perumahan,Orvien yusuf,"4MM3+VH5, Matawai Atu, Kec. Umalulu, Kabupaten Sumba Timur, Nusa Tenggara Tim.","Kabupaten Sumba Timur, Nusa Tenggara Tim.",NUSA TENGGARA TIMUR,,Indonesia,,,,-9.8653596,120.6539714,https://maps.google.com/?cid=0x0:0x4a20664e1316555b,
perumahan,Kompleks Kondominium,Charlos Radjah Home,"Jl. Raya Melolo No.18, Lumbukore, Kec. Umalulu, Kabupaten Sumba Timur, Nusa Tenggara Tim.","Kabupaten Sumba Timur, Nusa Tenggara Tim.",NUSA TENGGARA TIMUR,,Indonesia,,,,-9.8813853,120.6640112,https://maps.google.com/?cid=0x0:0x76cdc2d05687cd9,
perumahan,perumahan,Rumah,"4M97+266, Lumbukore, Kec. Umalulu, Kabupaten Sumba Timur, Nusa Tenggara Tim.","Kabupaten Sumba Timur, Nusa Tenggara Tim.",NUSA TENGGARA TIMUR,,Indonesia,,,,-9.8824625,120.6630156,https://maps.google.com/?cid=0x0:0xa68a365aca0d2943,
perumahan,perumahan,Paljarik,"6JH3+R6C, Wanga, Kec. Umalulu, Kabupaten Sumba Timur, Nusa Tenggara Tim.","Kabupaten Sumba Timur, Nusa Tenggara Tim.",NUSA TENGGARA TIMUR,,Indonesia,,,,-9.7704469,120.6030262,https://maps.google.com/?cid=0x0:0xf2ab696bcaacadcf,
perumahan,Komplek perumahan,Kampung Menggit,"3H7P+CC, Umalulu, Kec. Umalulu, Kabupaten Sumba Timur, Nusa Tenggara Tim.","Kabupaten Sumba Timur, Nusa Tenggara Tim.",NUSA TENGGARA TIMUR,,Indonesia,,,,-9.9364685,120.5860327,https://maps.google.com/?cid=0x0:0xce55feba9168b457,
perumahan,Perhimpunan Pengembang Perumahan,Umah mama sandi,"6JH2+J9R, Wanga, Kec. Umalulu, Kabupaten Sumba Timur, Nusa Tenggara Tim.","Kabupaten Sumba Timur, Nusa Tenggara Tim.",NUSA TENGGARA TIMUR,,Indonesia,,,,-9.7708893,120.6008945,https://maps.google.com/?cid=0x0:0xcb10398848b72c48,
perumahan,Komplek perumahan,Rumah Gerald Vaisson Kanawadu,"6J6C+46, Patawang, Kec. Umalulu, Kabupaten Sumba Timur, Nusa Tenggara Tim.","Kabupaten Sumba Timur, Nusa Tenggara Tim.",NUSA TENGGARA TIMUR,,Indonesia,,,,-9.7894991,120.6205398,https://maps.google.com/?cid=0x0:0x95ca727f4a50d8f9,
perumahan,Komplek perumahan,Anthon Lobo Radjah,"4M88+2VJ, Lumbukore, Kec. Umalulu, Kabupaten Sumba Timur, Nusa Tenggara Tim.","Kabupaten Sumba Timur, Nusa Tenggara Tim.",NUSA TENGGARA TIMUR,,Indonesia,82144110266.0,,,-9.8847775,120.6668933,https://maps.google.com/?cid=0x0:0x9e5e82446c150b8,
perumahan,Pembangunan Perumahan,Rumahsilvy,"4M97+266, Lumbukore, Kec. Umalulu, Kabupaten Sumba Timur, Nusa Tenggara Tim.","Kabupaten Sumba Timur, Nusa Tenggara Tim.",NUSA TENGGARA TIMUR,,Indonesia,,,,-9.8816726,120.6631967,https://maps.google.com/?cid=0x0:0xc4926b33e96df202,
perumahan,perumahan,Nusa Tenggara Tim.,,Nusa Tenggara Tim.,NUSA TENGGARA TIMUR,,Indonesia,,,,-8.6573819,121.0793705,https://maps.google.com/?cid=0x0:0x1030bfbcaf71ae0,
perumahan,Perumahan,Perumahan Cendana Residence Liliba,"RJFQ+432 Perumahan Cendana Residence, Jl. Taebenu, Liliba, Oebobo, Kupang City, East Nusa Tenggara 85111","Jl. Taebenu, Liliba, Oebobo, Kupang City",NUSA TENGGARA TIMUR,85111.0,Indonesia,,,,-10.177229,123.637648,https://maps.google.com/?cid=0x0:0x919043843404bfa2,
perumahan,perumahan,Kec. Rindi,"Kabupaten Sumba Timur, Nusa Tenggara Tim.","Kabupaten Sumba Timur, Nusa Tenggara Tim.",NUSA TENGGARA TIMUR,,Indonesia,,,,-9.9384544,120.6712914,https://maps.google.com/?cid=0x0:0xf0368108c9d04ef5,
perumahan,Rumah Sakit Pemerintah,RSU LEONA,"Jl. Soverdi No.20, Oebufu, Kec. Oebobo, Kota Kupang, Nusa Tenggara Tim. 85228","Oebufu, Kec. Oebobo, Kota Kupang",NUSA TENGGARA TIMUR,85228.0,Indonesia,8113818622.0,,,-10.1707999,123.6274983,https://maps.google.com/?cid=0x0:0xd15200964d401f1b,
perumahan,Pembangunan Perumahan,Rumah Liliba,"Jl. Lakbanu No.2, Liliba, Kec. Oebobo, Kota Kupang, Nusa Tenggara Tim. 85111","Liliba, Kec. Oebobo, Kota Kupang",NUSA TENGGARA TIMUR,85111.0,Indonesia,,,,-10.172181,123.647032,https://maps.google.com/?cid=0x0:0xa167be6a0080d296,
perumahan,Komplek perumahan,RINDI,"3M8M+42, Rindi, Kec. Rindi, Kabupaten Sumba Timur, Nusa Tenggara Tim.","Kabupaten Sumba Timur, Nusa Tenggara Tim.",NUSA TENGGARA TIMUR,,Indonesia,,,,-9.9346767,120.682585,https://maps.google.com/?cid=0x0:0x995caa5e26503bdb,
perumahan,Perhimpunan Pengembang Perumahan,Perumahan desa tanaraing,"3Q35+74, Tanaraing, Kec. Rindi, Kabupaten Sumba Timur, Nusa Tenggara Tim.","Kabupaten Sumba Timur, Nusa Tenggara Tim.",NUSA TENGGARA TIMUR,,Indonesia,,,,-9.9467526,120.7578601,https://maps.google.com/?cid=0x0:0xd776d6f882e36269,
perumahan,Komplek perumahan,Daniel Ratu,"XM76+F7J, Lai Lanjang, Kec. Rindi, Kabupaten Sumba Timur, Nusa Tenggara Tim.","Kabupaten Sumba Timur, Nusa Tenggara Tim.",NUSA TENGGARA TIMUR,,Indonesia,,,,-10.0362435,120.6606114,https://maps.google.com/?cid=0x0:0x5069a460add1ec43,
perumahan,Komplek perumahan,RETI RINDI,"3HHC+JF, Watu Puda, Kec. Umalulu, Kabupaten Sumba Timur, Nusa Tenggara Tim.","Kabupaten Sumba Timur, Nusa Tenggara Tim.",NUSA TENGGARA TIMUR,,Indonesia,,,,-9.920933,120.5711756,https://maps.google.com/?cid=0x0:0x182c06f4854f74be,
perumahan,Komplek perumahan,Kokur vilage,"3MVC+4V9, Kayuri, Kec. Rindi, Kabupaten Sumba Timur, Nusa Tenggara Tim.","Kabupaten Sumba Timur, Nusa Tenggara Tim.",NUSA TENGGARA TIMUR,,Indonesia,,,,-9.9072216,120.6722386,https://maps.google.com/?cid=0x0:0xaf28eff2a5819e08,
perumahan,Perhimpunan Pengembang Perumahan,"Kampung pandalar,Haikatapu NTT","XQJ5+FG, Heikatapu, Kec. Rindi, Kabupaten Sumba Timur, Nusa Tenggara Tim.","Kabupaten Sumba Timur, Nusa Tenggara Tim.",NUSA TENGGARA TIMUR,,Indonesia,,,,-10.0188421,120.7587671,https://maps.google.com/?cid=0x0:0x65b40cfd195d7222,
perumahan,Rumah Kayu,Tanaraing blok c,"2Q76+37C, RT.07, Tanaraing, Kec. Rindi, Kabupaten Sumba Timur, Nusa Tenggara Tim.","Kabupaten Sumba Timur, Nusa Tenggara Tim.",NUSA TENGGARA TIMUR,,Indonesia,,,,-9.9873128,120.7606521,https://maps.google.com/?cid=0x0:0xfa067b4ff34a9d21,
perumahan,Komplek perumahan,Rumah Risto,"XMQ3+V75, Hanggaroru, Kec. Rindi, Kabupaten Sumba Timur, Nusa Tenggara Tim.","Kabupaten Sumba Timur, Nusa Tenggara Tim.",NUSA TENGGARA TIMUR,,Indonesia,,,,-10.0103552,120.6532499,https://maps.google.com/?cid=0x0:0xdb625fc08e78c0c8,
perumahan,Pembangunan Perumahan,Tanaraing blok a,"2QM9+6Q5, Tanaraing, Kec. Rindi, Kabupaten Sumba Timur, Nusa Tenggara Tim.","Kabupaten Sumba Timur, Nusa Tenggara Tim.",NUSA TENGGARA TIMUR,,Indonesia,,,,-9.966993,120.769476,https://maps.google.com/?cid=0x0:0x278e79d8b6a1100d,
perumahan,Komplek perumahan,Yanto Rihi,"3MJ8+RM4, Kayuri, Kec. Rindi, Kabupaten Sumba Timur, Nusa Tenggara Tim.","Kabupaten Sumba Timur, Nusa Tenggara Tim.",NUSA TENGGARA TIMUR,,Indonesia,,,,-9.9179892,120.6667153,https://maps.google.com/?cid=0x0:0x88d89eee6c1c5ddd,
perumahan,Komplek perumahan,Pau,"3M8C+659, Rindi, Kec. Rindi, Kabupaten Sumba Timur, Nusa Tenggara Tim.","Kabupaten Sumba Timur, Nusa Tenggara Tim.",NUSA TENGGARA TIMUR,,Indonesia,,,,-9.9344625,120.6704844,https://maps.google.com/?cid=0x0:0xbeb60a36e6b66d57,
perumahan,Komplek perumahan,Rumah Bella,"2QM9+6Q5 TAPIL, RT.10/RW.005, Tanaraing, Kec. Rindi, Kabupaten Sumba Timur, Nusa Tenggara Tim.","Kabupaten Sumba Timur, Nusa Tenggara Tim.",NUSA TENGGARA TIMUR,,Indonesia,,,,-9.966993,120.769476,https://maps.google.com/?cid=0x0:0xc79d0ef5d1320186,
perumahan,Komplek perumahan,Kampung Maramba Ananggiala Pururindi,"3M6C+HGJ, Rindi, Kec. Rindi, Kabupaten Sumba Timur, Nusa Tenggara Tim.","Kabupaten Sumba Timur, Nusa Tenggara Tim.",NUSA TENGGARA TIMUR,,Indonesia,,,,-9.937986,120.6713458,https://maps.google.com/?cid=0x0:0x60113dbc80d8325c,
perumahan,Komplek perumahan,Tanalingu,"XQW2+4FP, Heikatapu, Kec. Rindi, Kabupaten Sumba Timur, Nusa Tenggara Tim.","Kabupaten Sumba Timur, Nusa Tenggara Tim.",NUSA TENGGARA TIMUR,,Indonesia,,,,-10.004656,120.7512496,https://maps.google.com/?cid=0x0:0x3841d2ced7e751e9,
perumahan,perumahan,Kec. Pahunga Lodu,"Kabupaten Sumba Timur, Nusa Tenggara Tim.","Kabupaten Sumba Timur, Nusa Tenggara Tim.",NUSA TENGGARA TIMUR,,Indonesia,,,,-10.1461993,120.7069314,https://maps.google.com/?cid=0x0:0xb519aed35c84a15,
perumahan,Perhimpunan Pengembang Perumahan,KAMPUNG WUALANDA,"VPMM+H28, Lambakara, Kec. Pahunga Lodu, Kabupaten Sumba Timur, Nusa Tenggara Tim.","Kabupaten Sumba Timur, Nusa Tenggara Tim.",NUSA TENGGARA TIMUR,,Indonesia,,,,-10.1157791,120.7312324,https://maps.google.com/?cid=0x0:0xef5b615e99b535e1,
perumahan,Perhimpunan Pengembang Perumahan,Kalamba Home,"RPP2+CHM, Kaliuda, Kec. Pahunga Lodu, Kabupaten Sumba Timur, Nusa Tenggara Tim.","Kabupaten Sumba Timur, Nusa Tenggara Tim.",NUSA TENGGARA TIMUR,,Indonesia,,,,-10.1639135,120.7013225,https://maps.google.com/?cid=0x0:0xb5c89c0cdabc45c5,
perumahan,Komplek perumahan,"Kampoeng Palaharru, Maukawini, Kec: Pahunga Lodu, Sumba Timur NTT","WQ3C+Q75 Palaharru Kampoeng, Mburukulu, Kec. Pahunga Lodu, Kabupaten Sumba Timur, Nusa Tenggara Tim.","Kabupaten Sumba Timur, Nusa Tenggara Tim.",NUSA TENGGARA TIMUR,,Indonesia,,,,-10.0956042,120.7707333,https://maps.google.com/?cid=0x0:0x48f6100c0c7de9d9,
perumahan,perumahan,Kampung Palanggai,"WQVG+4X, Palanggai, Kec. Pahunga Lodu, Kabupaten Sumba Timur, Nusa Tenggara Tim.","Kabupaten Sumba Timur, Nusa Tenggara Tim.",NUSA TENGGARA TIMUR,,Indonesia,,,,-10.0572023,120.7773875,https://maps.google.com/?cid=0x0:0xb959b812188149ff,
perumahan,Pembangunan Perumahan,"Rumah, Y. A. Burah","RMJW+GJW, Jl. Waingapu, Kaliuda, Kec. Pahunga Lodu, Kabupaten Sumba Timur, Nusa Tenggara Tim.","Kabupaten Sumba Timur, Nusa Tenggara Tim.",NUSA TENGGARA TIMUR,,Indonesia,,,,-10.168645,120.6965915,https://maps.google.com/?cid=0x0:0xff18055db39982d5,
perumahan,perumahan,Kampung pannu,"VP23+C8F, Kaliuda, Kec. Pahunga Lodu, Kabupaten Sumba Timur, Nusa Tenggara Tim.","Kabupaten Sumba Timur, Nusa Tenggara Tim.",NUSA TENGGARA TIMUR,,Indonesia,,,,-10.1489395,120.7032855,https://maps.google.com/?cid=0x0:0xa5667c2ce45e60d4,
perumahan,Pembangunan Perumahan,Mangili,"RPR3+XH2, Jl. Mangili, Kaliuda, Kec. Pahunga Lodu, Kabupaten Sumba Timur, Nusa Tenggara Tim.","Kabupaten Sumba Timur, Nusa Tenggara Tim.",NUSA TENGGARA TIMUR,,Indonesia,,,,-10.1576153,120.7038881,https://maps.google.com/?cid=0x0:0x9bb8e46770732c4f,
perumahan,Komplek perumahan,Pandengangu ihi,"WQC9+V7F, Mburukulu, Kec. Pahunga Lodu, Kabupaten Sumba Timur, Nusa Tenggara Tim.","Kabupaten Sumba Timur, Nusa Tenggara Tim.",NUSA TENGGARA TIMUR,,Indonesia,,,,-10.077807,120.7681702,https://maps.google.com/?cid=0x0:0x988305b9351c80f6,
perumahan,perumahan,KMP.hummur,"VH4P+95P, Kuruwaki, Kec. Pahunga Lodu, Kabupaten Sumba Timur, Nusa Tenggara Tim.","Kabupaten Sumba Timur, Nusa Tenggara Tim.",NUSA TENGGARA TIMUR,,Indonesia,,,,-10.1440412,120.5854674,https://maps.google.com/?cid=0x0:0xd8ba56feb0ee4c41,
perumahan,Pembangunan Perumahan,Wangga Parunu,"VQW7+94G, Lambakara, Kec. Pahunga Lodu, Kabupaten Sumba Timur, Nusa Tenggara Tim.","Kabupaten Sumba Timur, Nusa Tenggara Tim.",NUSA TENGGARA TIMUR,,Indonesia,,,,-10.104073,120.7628159,https://maps.google.com/?cid=0x0:0xfc434d63f7e144a4,
perumahan,Kantor Pemda,Rumah Kepala Desa Mburukulu,"WQ94+857, Mburukulu, Kec. Pahunga Lodu, Kabupaten Sumba Timur, Nusa Tenggara Tim.","Kabupaten Sumba Timur, Nusa Tenggara Tim.",NUSA TENGGARA TIMUR,,Indonesia,,,,-10.0822831,120.7555309,https://maps.google.com/?cid=0x0:0x61553cb49531af1,
perumahan,Kantor Pemerintah,Aspol Polsek Pahunga Lodu,"RPX4+MH2, Kaliuda, Kec. Pahunga Lodu, Kabupaten Sumba Timur, Nusa Tenggara Tim.","Kabupaten Sumba Timur, Nusa Tenggara Tim.",NUSA TENGGARA TIMUR,,Indonesia,,,,-10.1508584,120.7063854,https://maps.google.com/?cid=0x0:0x9b7843f6f7560cdc,
perumahan,Kantor Pemerintah,MES BP3K PAHUNGA LODU,"VP24+5P9, NGALLU, Kaliuda, Kec. Pahunga Lodu, Kabupaten Sumba Timur, Nusa Tenggara Tim.","Kabupaten Sumba Timur, Nusa Tenggara Tim.",NUSA TENGGARA TIMUR,,Indonesia,,,,-10.1495896,120.7068628,https://maps.google.com/?cid=0x0:0x9e14253bf1f95339,
perumahan,Komplek perumahan,Kamp.Waturara desa Kuruwaki,"VGFW+39, Kuruwaki, Kec. Pahunga Lodu, Kabupaten Sumba Timur, Nusa Tenggara Tim.","Kabupaten Sumba Timur, Nusa Tenggara Tim.",NUSA TENGGARA TIMUR,,Indonesia,,,,-10.127351,120.5459616,https://maps.google.com/?cid=0x0:0x47c30a2fce4f77aa,
perumahan,Komplek perumahan,Kampung Walakari,"WQ53+XX3, Mburukulu, Kec. Pahunga Lodu, Kabupaten Sumba Timur, Nusa Tenggara Tim.","Kabupaten Sumba Timur, Nusa Tenggara Tim.",NUSA TENGGARA TIMUR,,Indonesia,,,,-10.090108,120.7549304,https://maps.google.com/?cid=0x0:0xf5763a4c7ca9251d,
perumahan,Komplek perumahan,Kampung wudi,"WQ66+W5, Mburukulu, Kec. Pahunga Lodu, Kabupaten Sumba Timur, Nusa Tenggara Tim.","Kabupaten Sumba Timur, Nusa Tenggara Tim.",NUSA TENGGARA TIMUR,,Indonesia,,,,-10.0876696,120.760511,https://maps.google.com/?cid=0x0:0x8f4acc7790a9ea88,
perumahan,Perhimpunan Pengembang Perumahan,Marcella,"RPJJ+RC, Kaliuda, Kec. Pahunga Lodu, Kabupaten Sumba Timur, Nusa Tenggara Tim.","Kabupaten Sumba Timur, Nusa Tenggara Tim.",NUSA TENGGARA TIMUR,,Indonesia,,,,-10.1680401,120.7317059,https://maps.google.com/?cid=0x0:0x67e92ea263665a19,
perumahan,Komplek perumahan,Deo Tarapanjang,"WQ5F+5WX, Mburukulu, Kec. Pahunga Lodu, Kabupaten Sumba Timur, Nusa Tenggara Tim.","Kabupaten Sumba Timur, Nusa Tenggara Tim.",NUSA TENGGARA TIMUR,,Indonesia,,,,-10.092023,120.7748513,https://maps.google.com/?cid=0x0:0x4bacddc4b8c34372,
perumahan,Perhimpunan Pengembang Perumahan,Kampung Baru Kaliuda,"RPM8+MWF, RT.005/RW.003, Kaliuda, Kec. Pahunga Lodu, Kabupaten Sumba Timur, Nusa Tenggara Tim.","Kabupaten Sumba Timur, Nusa Tenggara Tim.",NUSA TENGGARA TIMUR,,Indonesia,,,,-10.1658126,120.717299,https://maps.google.com/?cid=0x0:0x3ae0a92c9aa0b6dc,
perumahan,Pembangunan Perumahan,Daniel Umbu Ndawa,"RPP8+F3V, Unnamed Road, Kaliuda, Kec. Pahunga Lodu, Kabupaten Sumba Timur, Nusa Tenggara Tim.","Kabupaten Sumba Timur, Nusa Tenggara Tim.",NUSA TENGGARA TIMUR,,Indonesia,82235683118.0,,,-10.163769,120.715171,https://maps.google.com/?cid=0x0:0xcc327c9ce9133d87,
perumahan,Pembangunan Perumahan,Jl.kampung baru,"RH76+HXG, Paranda, Kec. Wulla Waijelu, Kabupaten Sumba Timur, Nusa Tenggara Tim.","Kabupaten Sumba Timur, Nusa Tenggara Tim.",NUSA TENGGARA TIMUR,,Indonesia,,,,-10.1860656,120.5624474,https://maps.google.com/?cid=0x0:0xb1ade48207e6f223,
perumahan,perumahan,W U L A,"Kec. Wulla Waijelu, Kabupaten Sumba Timur, Nusa Tenggara Tim.","Kabupaten Sumba Timur, Nusa Tenggara Tim.",NUSA TENGGARA TIMUR,,Indonesia,,,,-10.2186215,120.6314948,https://maps.google.com/?cid=0x0:0xaff20cc9580775d8,
perumahan,Pembangunan Perumahan,Wulla waijelu,"QJC2+XWR, Hadakamali, Kec. Wulla Waijelu, Kabupaten Sumba Timur, Nusa Tenggara Tim.","Kabupaten Sumba Timur, Nusa Tenggara Tim.",NUSA TENGGARA TIMUR,,Indonesia,,,,-10.2275088,120.6022591,https://maps.google.com/?cid=0x0:0x9acf873e682050a,
perumahan,Pembangunan Perumahan,Agus P. Lado,"QJQJ+364, W U L A, Kec. Wulla Waijelu, Kabupaten Sumba Timur, Nusa Tenggara Tim.","Kabupaten Sumba Timur, Nusa Tenggara Tim.",NUSA TENGGARA TIMUR,,Indonesia,,,,-10.2123555,120.6305879,https://maps.google.com/?cid=0x0:0x67e57dc10186f4fb,
perumahan,Pembangunan Perumahan,Panggape,"QJ47+MR, W U L A, Kec. Wulla Waijelu, Kabupaten Sumba Timur, Nusa Tenggara Tim.","Kabupaten Sumba Timur, Nusa Tenggara Tim.",NUSA TENGGARA TIMUR,,Indonesia,,,,-10.2430167,120.6136306,https://maps.google.com/?cid=0x0:0xce6469c48e3ed766,
perumahan,Komplek perumahan,Jendrid uly,"QJC2+38, Hadakamali, Kec. Wulla Waijelu, Kabupaten Sumba Timur, Nusa Tenggara Tim.","Kabupaten Sumba Timur, Nusa Tenggara Tim.",NUSA TENGGARA TIMUR,,Indonesia,82297247550.0,,,-10.2298498,120.6007637,https://maps.google.com/?cid=0x0:0x7ea518de5fd44f10,
perumahan,Pembangunan Perumahan,Om itto,"QJFH+23Q, W U L A, Kec. Wulla Waijelu, Kabupaten Sumba Timur, Nusa Tenggara Tim.","Kabupaten Sumba Timur, Nusa Tenggara Tim.",NUSA TENGGARA TIMUR,,Indonesia,,,,-10.227421,120.6277324,https://maps.google.com/?cid=0x0:0x1a8da10e317a756,
perumahan,Tujuan Wisata,Kalala desa hadakamali,"PHXX+V8, Hadakamali, Kec. Wulla Waijelu, Kabupaten Sumba Timur, Nusa Tenggara Tim.","Kabupaten Sumba Timur, Nusa Tenggara Tim.",NUSA TENGGARA TIMUR,,Indonesia,,,,-10.2509722,120.5992621,https://maps.google.com/?cid=0x0:0x422820a8b9ea8b96,
perumahan,Pembangunan Perumahan,Luffy,"QHCH+CVG, Hadakamali, Kec. Wulla Waijelu, Kabupaten Sumba Timur, Nusa Tenggara Tim.","Kabupaten Sumba Timur, Nusa Tenggara Tim.",NUSA TENGGARA TIMUR,,Indonesia,,,,-10.2289321,120.5797128,https://maps.google.com/?cid=0x0:0xc18459be671c79a8,
perumahan,Komplek perumahan,TIAN NJRUMNA,"QJJC+GH, W U L A, Kec. Wulla Waijelu, Kabupaten Sumba Timur, Nusa Tenggara Tim.","Kabupaten Sumba Timur, Nusa Tenggara Tim.",NUSA TENGGARA TIMUR,,Indonesia,,,,-10.2187238,120.6214972,https://maps.google.com/?cid=0x0:0x3a2295c40d96cb38,
perumahan,Pembangunan Perumahan,Jl.kampung baru,"RH76+HXG, Paranda, Kec. Wulla Waijelu, Kabupaten Sumba Timur, Nusa Tenggara Tim.","Kabupaten Sumba Timur, Nusa Tenggara Tim.",NUSA TENGGARA TIMUR,,Indonesia,,,,-10.1860656,120.5624474,https://maps.google.com/?cid=0x0:0xb1ade48207e6f223,
perumahan,Rumah Kayu,Kampung pahenya,"QGQM+WR, Lai Pandak, Kec. Wulla Waijelu, Kabupaten Sumba Timur, Nusa Tenggara Tim.","Kabupaten Sumba Timur, Nusa Tenggara Tim.",NUSA TENGGARA TIMUR,,Indonesia,,,,-10.2102108,120.5345356,https://maps.google.com/?cid=0x0:0xf896d90541d9fb29,
perumahan,Pembangunan Perumahan,Apriss,"QHH5+P8R, Paranda, Kec. Wulla Waijelu, Kabupaten Sumba Timur, Nusa Tenggara Tim.","Kabupaten Sumba Timur, Nusa Tenggara Tim.",NUSA TENGGARA TIMUR,,Indonesia,81243162870.0,,,-10.2210361,120.5575037,https://maps.google.com/?cid=0x0:0xfc8d10cff2843887,
perumahan,perumahan,UD PUTRI KUDUS,"QHC5+W5F, Hadakamali, Kec. Wulla Waijelu, Kabupaten Sumba Timur, Nusa Tenggara Tim.","Kabupaten Sumba Timur, Nusa Tenggara Tim.",NUSA TENGGARA TIMUR,,Indonesia,,,,-10.2276832,120.5579171,https://maps.google.com/?cid=0x0:0x3690b35e9d2e1204,
perumahan,Komplek perumahan,Rumah Yos,"QGQH+JCX, Walakari, La Tena, Kec. Wulla Waijelu, Kabupaten Sumba Timur, Nusa Tenggara Tim.","Kabupaten Sumba Timur, Nusa Tenggara Tim.",NUSA TENGGARA TIMUR,,Indonesia,,,,-10.2108991,120.5286127,https://maps.google.com/?cid=0x0:0x6385690046d00c2b,
perumahan,Komplek perumahan,Rumah Rido,"QGQM+WR, Lai Pandak, Kec. Wulla Waijelu, Kabupaten Sumba Timur, Nusa Tenggara Tim.","Kabupaten Sumba Timur, Nusa Tenggara Tim.",NUSA TENGGARA TIMUR,,Indonesia,,,,-10.2091707,120.5347016,https://maps.google.com/?cid=0x0:0x661800fa46ea4772,
perumahan,Pembangunan Perumahan,Umbu Fery,"QH9C+7XC, Hadakamali, Kec. Wulla Waijelu, Kabupaten Sumba Timur, Nusa Tenggara Tim.","Kabupaten Sumba Timur, Nusa Tenggara Tim.",NUSA TENGGARA TIMUR,,Indonesia,,,,-10.230864,120.573387,https://maps.google.com/?cid=0x0:0x5a00d1c7a1863e16,
perumahan,Pembangunan Perumahan,Dherik,"QHF3+823, Hadakamali, Kec. Wulla Waijelu, Kabupaten Sumba Timur, Nusa Tenggara Tim.","Kabupaten Sumba Timur, Nusa Tenggara Tim.",NUSA TENGGARA TIMUR,,Indonesia,,,,-10.2267254,120.5525519,https://maps.google.com/?cid=0x0:0x9d4d530f67aece30,
perumahan,Komplek perumahan,Home resort,"QHH6+M29, Paranda, Kec. Wulla Waijelu, Kabupaten Sumba Timur, Nusa Tenggara Tim.","Kabupaten Sumba Timur, Nusa Tenggara Tim.",NUSA TENGGARA TIMUR,,Indonesia,,,,-10.219565,120.558728,https://maps.google.com/?cid=0x0:0x7dbfa2bafbca93f9,
perumahan,Pembangunan Perumahan,Kampung Kanduru,"QGFR+9GW, Lumbu Manggit, Kec. Wulla Waijelu, Kabupaten Sumba Timur, Nusa Tenggara Tim.","Kabupaten Sumba Timur, Nusa Tenggara Tim.",NUSA TENGGARA TIMUR,,Indonesia,,,,-10.2265445,120.5403092,https://maps.google.com/?cid=0x0:0x4263ede0169ec1f7,
perumahan,Pembangunan Perumahan,Mburung,"QG57+J4, Lainjanji, Kec. Wulla Waijelu, Kabupaten Sumba Timur, Nusa Tenggara Tim.","Kabupaten Sumba Timur, Nusa Tenggara Tim.",NUSA TENGGARA TIMUR,,Indonesia,,,,-10.240845,120.5128809,https://maps.google.com/?cid=0x0:0xecd5cc1db7b86c42,
perumahan,Komplek perumahan,Lakirama,"W9G8+PJW, Karera Jangga, Kec. Paberiwai, Kabupaten Sumba Timur, Nusa Tenggara Tim.","Kabupaten Sumba Timur, Nusa Tenggara Tim.",NUSA TENGGARA TIMUR,,Indonesia,,,,-10.0731392,120.3665726,https://maps.google.com/?cid=0x0:0xe7e76d1dc349df2f,
perumahan,perumahan,Kec. Paberiwai,"Kabupaten Sumba Timur, Nusa Tenggara Tim.","Kabupaten Sumba Timur, Nusa Tenggara Tim.",NUSA TENGGARA TIMUR,,Indonesia,,,,-10.0437398,120.3633192,https://maps.google.com/?cid=0x0:0x813445d85c7a5dc3,
perumahan,Pondok Pegunungan,Kampung Maumaru Desa Pabera Manera,"XFWX+M48, Pabera Manera, Kec. Paberiwai, Kabupaten Sumba Timur, Nusa Tenggara Tim.","Kabupaten Sumba Timur, Nusa Tenggara Tim.",NUSA TENGGARA TIMUR,,Indonesia,,,,-10.0033428,120.4978336,https://maps.google.com/?cid=0x0:0xc8a2580e7f1af39e,
perumahan,Komplek perumahan,"Kampung LA,AU Desa Praimbana","XFM7+GP7, Prai Mbana, Kec. Paberiwai, Kabupaten Sumba Timur, Nusa Tenggara Tim.","Kabupaten Sumba Timur, Nusa Tenggara Tim.",NUSA TENGGARA TIMUR,,Indonesia,,,,-10.0162142,120.4643112,https://maps.google.com/?cid=0x0:0xd4110fd0ec391b38,
perumahan,Komplek perumahan,Watukaramba,"X9VG+H22, RW.Watukaramba, Mehang Mata, Kec. Paberiwai, Kabupaten Sumba Timur, Nusa Tenggara Tim.","Kabupaten Sumba Timur, Nusa Tenggara Tim.",NUSA TENGGARA TIMUR,,Indonesia,85230560456.0,,,-10.0061188,120.3750139,https://maps.google.com/?cid=0x0:0x4156e0b26fb2366b,
perumahan,Komplek perumahan,Kampung kahi,"XGQ6+FF, Pabera Manera, Kec. Paberiwai, Kabupaten Sumba Timur, Nusa Tenggara Tim.","Kabupaten Sumba Timur, Nusa Tenggara Tim.",NUSA TENGGARA TIMUR,,Indonesia,,,,-10.0113185,120.5112012,https://maps.google.com/?cid=0x0:0x874dfc0c97dace4,
perumahan,Pembangunan Perumahan,Puan,"XFVV+FM7, Pabera Manera, Kec. Paberiwai, Kabupaten Sumba Timur, Nusa Tenggara Tim.","Kabupaten Sumba Timur, Nusa Tenggara Tim.",NUSA TENGGARA TIMUR,,Indonesia,,,,-10.0073662,120.4942743,https://maps.google.com/?cid=0x0:0x76d2aaeb67a9f680,
perumahan,Komplek perumahan,Kampung Parokut Desa Praimbana,"XFQG+QC5, Prai Mbana, Kec. Paberiwai, Kabupaten Sumba Timur, Nusa Tenggara Tim.","Kabupaten Sumba Timur, Nusa Tenggara Tim.",NUSA TENGGARA TIMUR,,Indonesia,,,,-10.0106692,120.4761098,https://maps.google.com/?cid=0x0:0x7013031761b36487,
perumahan,Komplek perumahan,Kawau,"XGQ5+VM, Pabera Manera, Kec. Paberiwai, Kabupaten Sumba Timur, Nusa Tenggara Tim.","Kabupaten Sumba Timur, Nusa Tenggara Tim.",NUSA TENGGARA TIMUR,,Indonesia,,,,-10.0103711,120.509231,https://maps.google.com/?cid=0x0:0xbd4afe1ca3336752,
perumahan,Komplek perumahan,Lajarik,"XGM8+F3, Pabera Manera, Kec. Paberiwai, Kabupaten Sumba Timur, Nusa Tenggara Tim.","Kabupaten Sumba Timur, Nusa Tenggara Tim.",NUSA TENGGARA TIMUR,,Indonesia,,,,-10.0161256,120.5162067,https://maps.google.com/?cid=0x0:0xf48912eaa292fc7f,
perumahan,Pembangunan Perumahan,Waingapu,"XCJW+7W7, Prai Mbana, Kec. Paberiwai, Kabupaten Sumba Timur, Nusa Tenggara Tim.","Kabupaten Sumba Timur, Nusa Tenggara Tim.",NUSA TENGGARA TIMUR,,Indonesia,,,,-10.0193477,120.447285,https://maps.google.com/?cid=0x0:0x42f048fa57e27c68,
perumahan,Komplek perumahan,Lapadang,"XGP7+F7, Pabera Manera, Kec. Paberiwai, Kabupaten Sumba Timur, Nusa Tenggara Tim.","Kabupaten Sumba Timur, Nusa Tenggara Tim.",NUSA TENGGARA TIMUR,,Indonesia,,,,-10.0137043,120.5131842,https://maps.google.com/?cid=0x0:0x6630afeed78801bf,
perumahan,Pembangunan Perumahan,Panjir (Mehang Mata),"XCF7+C8, Mehang Mata, Kec. Paberiwai, Kabupaten Sumba Timur, Nusa Tenggara Tim.","Kabupaten Sumba Timur, Nusa Tenggara Tim.",NUSA TENGGARA TIMUR,,Indonesia,,,,-10.0263952,120.4133292,https://maps.google.com/?cid=0x0:0x26cdef5384267c60,
perumahan,Pembangunan Perumahan,Umma kalihi,"X946+R63, Kananggar, Kec. Paberiwai, Kabupaten Sumba Timur, Nusa Tenggara Tim.","Kabupaten Sumba Timur, Nusa Tenggara Tim.",NUSA TENGGARA TIMUR,,Indonesia,,,,-10.0429838,120.3605568,https://maps.google.com/?cid=0x0:0x812a8e48f66a0bba,
perumahan,Komplek perumahan,Kampung lanitu,"XGP4+HH, Pabera Manera, Kec. Paberiwai, Kabupaten Sumba Timur, Nusa Tenggara Tim.","Kabupaten Sumba Timur, Nusa Tenggara Tim.",NUSA TENGGARA TIMUR,,Indonesia,,,,-10.0135427,120.5063977,https://maps.google.com/?cid=0x0:0x2c23a356036d6552,
perumahan,Komplek perumahan,Kampung.Iri Jangga Desa Patamawai,"XF49+74, Patamawai, Kec. Mahu, Kabupaten Sumba Timur, Nusa Tenggara Tim.","Kabupaten Sumba Timur, Nusa Tenggara Tim.",NUSA TENGGARA TIMUR,,Indonesia,,,,-10.0443476,120.4677671,https://maps.google.com/?cid=0x0:0xa46083717bced9a7,
perumahan,Komplek perumahan,Kampung Cendana,"XGP4+FJP, Pabera Manera, Kec. Paberiwai, Kabupaten Sumba Timur, Nusa Tenggara Tim.","Kabupaten Sumba Timur, Nusa Tenggara Tim.",NUSA TENGGARA TIMUR,,Indonesia,,,,-10.0137958,120.5065881,https://maps.google.com/?cid=0x0:0xd4e1825f50d48932,
perumahan,Pembangunan Perumahan,Home mishela,"XCC6+XG, Mehang Mata, Kec. Paberiwai, Kabupaten Sumba Timur, Nusa Tenggara Tim.","Kabupaten Sumba Timur, Nusa Tenggara Tim.",NUSA TENGGARA TIMUR,,Indonesia,,,,-10.0275293,120.4112613,https://maps.google.com/?cid=0x0:0xc93945cd4759cb32,
perumahan,Komplek perumahan,Aisuli,"X96H+WCV, Kananggar, Kec. Paberiwai, Kabupaten Sumba Timur, Nusa Tenggara Tim.","Kabupaten Sumba Timur, Nusa Tenggara Tim.",NUSA TENGGARA TIMUR,,Indonesia,,,,-10.0376479,120.3785324,https://maps.google.com/?cid=0x0:0xf561585b6c806568,
perumahan,Pembangunan Perumahan,Waimariding Desa Mehang Mata,"X9RW+45F, Mehang Mata, Kec. Paberiwai, Kabupaten Sumba Timur, Nusa Tenggara Tim.","Kabupaten Sumba Timur, Nusa Tenggara Tim.",NUSA TENGGARA TIMUR,,Indonesia,,,,-10.0096996,120.3954282,https://maps.google.com/?cid=0x0:0xc3a8264d624db103,
perumahan,Balai masyarakat,Patamawai kades,"XC4X+893, Patamawai, Kec. Mahu, Kabupaten Sumba Timur, Nusa Tenggara Tim.","Kabupaten Sumba Timur, Nusa Tenggara Tim.",NUSA TENGGARA TIMUR,,Indonesia,,,,-10.0442321,120.4484082,https://maps.google.com/?cid=0x0:0xecff849b0428b22c,
perumahan,Komplek perumahan,Dusun pahomba hiring,"X9MF+WHP, Mehang Mata, Kec. Paberiwai, Kabupaten Sumba Timur, Nusa Tenggara Tim.","Kabupaten Sumba Timur, Nusa Tenggara Tim.",NUSA TENGGARA TIMUR,,Indonesia,,,,-10.0151618,120.3739635,https://maps.google.com/?cid=0x0:0x115852694999f2ef,
perumahan,Komplek perumahan,Kampung.Laibangngi Desa Praimbana,"XF77+87J, Pindu Hurani, Kec. Tabundung, Kabupaten Sumba Timur, Nusa Tenggara Tim.","Kabupaten Sumba Timur, Nusa Tenggara Tim.",NUSA TENGGARA TIMUR,,Indonesia,,,,-10.0377295,120.462314,https://maps.google.com/?cid=0x0:0x21f936ee25beaca9,
perumahan,Sekolah Dasar,Rumah Kades Praimadita,"Q4RR+G38, Praimadita, Kec. Karera, Kabupaten Sumba Timur, Nusa Tenggara Tim.","Kabupaten Sumba Timur, Nusa Tenggara Tim.",NUSA TENGGARA TIMUR,,Indonesia,,,,-10.2085088,120.1401741,https://maps.google.com/?cid=0x0:0x69fc128dd2e311e4,
perumahan,Sekolah Dasar,SDN Praimadita,"R55Q+2PP, Praimadita, Kec. Karera, Kabupaten Sumba Timur, Nusa Tenggara Tim.","Kabupaten Sumba Timur, Nusa Tenggara Tim.",NUSA TENGGARA TIMUR,,Indonesia,,,,-10.192414,120.1893161,https://maps.google.com/?cid=0x0:0x62cdb87b8a913fe0,
perumahan,perumahan,Kec. Karera,"Kabupaten Sumba Timur, Nusa Tenggara Tim.","Kabupaten Sumba Timur, Nusa Tenggara Tim.",NUSA TENGGARA TIMUR,,Indonesia,,,,-10.1971678,120.2149863,https://maps.google.com/?cid=0x0:0x6fdd09c207988104,
perumahan,Komplek perumahan,Lakirama,"W9G8+PJW, Karera Jangga, Kec. Paberiwai, Kabupaten Sumba Timur, Nusa Tenggara Tim.","Kabupaten Sumba Timur, Nusa Tenggara Tim.",NUSA TENGGARA TIMUR,,Indonesia,,,,-10.0731392,120.3665726,https://maps.google.com/?cid=0x0:0xe7e76d1dc349df2f,
perumahan,Komplek perumahan,Umanai umbu weda,"R638+57X, Ananjaki, Kec. Karera, Kabupaten Sumba Timur, Nusa Tenggara Tim.","Kabupaten Sumba Timur, Nusa Tenggara Tim.",NUSA TENGGARA TIMUR,,Indonesia,,,,-10.1972111,120.2154832,https://maps.google.com/?cid=0x0:0xfd7e2fb17c97ae94,
perumahan,Pembangunan Perumahan,LAMADI ABDULLAH,"M5PJ+JR3, Pulau halura, Kec. Karera, Kabupaten Sumba Timur, Nusa Tenggara Tim.","Kabupaten Sumba Timur, Nusa Tenggara Tim.",NUSA TENGGARA TIMUR,,Indonesia,,,,-10.3134959,120.182036,https://maps.google.com/?cid=0x0:0xa9104ca0cf1ffe42,
perumahan,Komplek perumahan,Rumah Kepala Desa,"VCQP+5PP, Prau Raming, Kec. Ngadu Ngala, Kabupaten Sumba Timur, Nusa Tenggara Tim.","Kabupaten Sumba Timur, Nusa Tenggara Tim.",NUSA TENGGARA TIMUR,,Indonesia,,,,-10.1109479,120.4372734,https://maps.google.com/?cid=0x0:0xdb29d139b33ae9ba,
perumahan,Komplek perumahan,Umbu leksi,"R638+57X, Ananjaki, Kec. Karera, Kabupaten Sumba Timur, Nusa Tenggara Tim.","Kabupaten Sumba Timur, Nusa Tenggara Tim.",NUSA TENGGARA TIMUR,,Indonesia,,,,-10.198133,120.2156721,https://maps.google.com/?cid=0x0:0xdbeaf4291dfa2737,
perumahan,Komplek perumahan,Rumah Linda,"R4G8+VGM, Lailunggi, Kec. Pinupahar, Kabupaten Sumba Timur, Nusa Tenggara Tim.","Kabupaten Sumba Timur, Nusa Tenggara Tim.",NUSA TENGGARA TIMUR,,Indonesia,,,,-10.1733127,120.1164855,https://maps.google.com/?cid=0x0:0x92337dda07de2542,
perumahan,Bumi perkemahan,Pulau halura,"M5QV+V7G, Pulau Halura, Prai Salura, Kec. Karera, Kabupaten Sumba Timur, Nusa Tenggara Tim.","Kabupaten Sumba Timur, Nusa Tenggara Tim.",NUSA TENGGARA TIMUR,,Indonesia,,,,-10.310322,120.1932075,https://maps.google.com/?cid=0x0:0x7b07112f061d99e7,
perumahan,Komplek perumahan,Pau Langga,"R79H+CX2, Tandula Jangga, Kec. Karera, Kabupaten Sumba Timur, Nusa Tenggara Tim.","Kabupaten Sumba Timur, Nusa Tenggara Tim.",NUSA TENGGARA TIMUR,,Indonesia,,,,-10.1811341,120.2809415,https://maps.google.com/?cid=0x0:0xa6e64f239cc98f78,
perumahan,Komplek perumahan,Sekdes Kakaha,"R9G7+9HQ, Kakaha, Kec. Ngadu Ngala, Kabupaten Sumba Timur, Nusa Tenggara Tim.","Kabupaten Sumba Timur, Nusa Tenggara Tim.",NUSA TENGGARA TIMUR,,Indonesia,,,,-10.17405,120.363998,https://maps.google.com/?cid=0x0:0x98b882d6a8f55013,
perumahan,Rumah Sakit,Rumah Sakit Pratama Karera,"R65W+95W, Nggongi, Kec. Karera, Kabupaten Sumba Timur, Nusa Tenggara Tim.","Kabupaten Sumba Timur, Nusa Tenggara Tim.",NUSA TENGGARA TIMUR,,Indonesia,,,,-10.1915136,120.2454525,https://maps.google.com/?cid=0x0:0xb3594adc1368209e,
perumahan,Komplek perumahan,Kampung La Haru Desa Lahiru,"VCVQ+76, La Hiru, Kec. Mahu, Kabupaten Sumba Timur, Nusa Tenggara Tim.","Kabupaten Sumba Timur, Nusa Tenggara Tim.",NUSA TENGGARA TIMUR,,Indonesia,,,,-10.1066731,120.4380418,https://maps.google.com/?cid=0x0:0xc7028edcb58aed6a,
perumahan,Komplek perumahan,Lapawa,"R9WR+GJQ, Prau Raming, Kec. Ngadu Ngala, Kabupaten Sumba Timur, Nusa Tenggara Tim.","Kabupaten Sumba Timur, Nusa Tenggara Tim.",NUSA TENGGARA TIMUR,,Indonesia,,,,-10.1536654,120.3916175,https://maps.google.com/?cid=0x0:0xa756a0a6ffcd0fa2,
perumahan,perumahan,Kec. Kahaungu Eti,"Kabupaten Sumba Timur, Nusa Tenggara Tim.","Kabupaten Sumba Timur, Nusa Tenggara Tim.",NUSA TENGGARA TIMUR,,Indonesia,,,,-9.9019839,120.476226,https://maps.google.com/?cid=0x0:0x69c1e7c4be05d81b,
perumahan,Komplek perumahan,Kecamatan kahaung eti,"289V+WC7, Katiku Luku, Kec. Matawai La Pawu, Kabupaten Sumba Timur, Nusa Tenggara Tim.","Kabupaten Sumba Timur, Nusa Tenggara Tim.",NUSA TENGGARA TIMUR,,Indonesia,,,,-9.9802103,120.3435506,https://maps.google.com/?cid=0x0:0xfeef762b9b7af507,
perumahan,Perhimpunan Pengembang Perumahan,Yayasan peduli kasih kahaungu eti,"3FFJ+HV, Kamanggih, Kec. Kahaungu Eti, Kabupaten Sumba Timur, Nusa Tenggara Tim.","Kabupaten Sumba Timur, Nusa Tenggara Tim.",NUSA TENGGARA TIMUR,,Indonesia,,,,-9.9260814,120.482195,https://maps.google.com/?cid=0x0:0x2bfb109612e59440,
perumahan,Komplek perumahan,Lapau,"4CVF+JP Putry Bungsu, Lai Mbonga, Kec. Kahaungu Eti, Kabupaten Sumba Timur, Nusa Tenggara Tim.","Kabupaten Sumba Timur, Nusa Tenggara Tim.",NUSA TENGGARA TIMUR,,Indonesia,,,,-9.856115,120.42307,https://maps.google.com/?cid=0x0:0xa0c5c607b02aa98a,
perumahan,Pembangunan Perumahan,KOTA KAWAU,"6FXQ+P2V, Kotak Kawau, Kec. Kahaungu Eti, Kabupaten Sumba Timur, Nusa Tenggara Tim.","Kabupaten Sumba Timur, Nusa Tenggara Tim.",NUSA TENGGARA TIMUR,,Indonesia,,,,-9.7506367,120.4875403,https://maps.google.com/?cid=0x0:0xb0b6c7d40a7884f3,
perumahan,Komplek perumahan,Umbu rtang,"3FPV+QG, Kamanggih, Kec. Kahaungu Eti, Kabupaten Sumba Timur, Nusa Tenggara Tim.","Kabupaten Sumba Timur, Nusa Tenggara Tim.",NUSA TENGGARA TIMUR,,Indonesia,,,,-9.9130013,120.4938133,https://maps.google.com/?cid=0x0:0x2a99207b05101480,
perumahan,Komplek perumahan,Meurumba,"87C9+4FV, Wangga, Meo Rumba, Kabupaten Sumba Timur, Nusa Tenggara Tim.","Kabupaten Sumba Timur, Nusa Tenggara Tim.",NUSA TENGGARA TIMUR,,Indonesia,,,,-9.9657746,120.4177087,https://maps.google.com/?cid=0x0:0xb07ad9ba3fd6d6d1,
perumahan,Komplek perumahan,Kampung mauramba ,"29GR+3V3, Mau Ramba, Kec. Kahaungu Eti, Kabupaten Sumba Timur, Nusa Tenggara Tim.","Kabupaten Sumba Timur, Nusa Tenggara Tim.",NUSA TENGGARA TIMUR,,Indonesia,,,,-9.9748587,120.3921846,https://maps.google.com/?cid=0x0:0xc9c1cd629cfc327e,
perumahan,Komplek perumahan,Umbu Karsten K. Lidjang,"3FRP+G59, Kamanggih, Kec. Kahaungu Eti, Kabupaten Sumba Timur, Nusa Tenggara Tim.","Kabupaten Sumba Timur, Nusa Tenggara Tim.",NUSA TENGGARA TIMUR,,Indonesia,,,,-9.9088052,120.4868577,https://maps.google.com/?cid=0x0:0xa7d8f9aa3b9f1c74,
perumahan,Pembangunan Perumahan,Ka eldy,"6FJV+2J, Kotak Kawau, Kec. Kahaungu Eti, Kabupaten Sumba Timur, Nusa Tenggara Tim.","Kabupaten Sumba Timur, Nusa Tenggara Tim.",NUSA TENGGARA TIMUR,,Indonesia,,,,-9.7699949,120.4940132,https://maps.google.com/?cid=0x0:0x14c483053df98ebe,
perumahan,Komplek perumahan,DESA MEO RUMBA,"397R+3GG, Meo Rumba, Kec. Kahaungu Eti, Kabupaten Sumba Timur, Nusa Tenggara Tim.","Kabupaten Sumba Timur, Nusa Tenggara Tim.",NUSA TENGGARA TIMUR,,Indonesia,,,,-9.9373225,120.3913182,https://maps.google.com/?cid=0x0:0xa860b5ff00cdfa5c,
perumahan,Pembangunan Perumahan,UdHen Home,"7F6Q+C7, Kotak Kawau, Kec. Kahaungu Eti, Kabupaten Sumba Timur, Nusa Tenggara Tim.","Kabupaten Sumba Timur, Nusa Tenggara Tim.",NUSA TENGGARA TIMUR,,Indonesia,,,,-9.738909,120.488185,https://maps.google.com/?cid=0x0:0x9c105371406d8a0c,
perumahan,Komplek perumahan,Uma Kuddu,"4CRM+28, Lai Mbonga, Kec. Kahaungu Eti, Kabupaten Sumba Timur, Nusa Tenggara Tim.","Kabupaten Sumba Timur, Nusa Tenggara Tim.",NUSA TENGGARA TIMUR,,Indonesia,,,,-9.8599722,120.4333082,https://maps.google.com/?cid=0x0:0x32ef30ee49c9a241,
perumahan,Pembangunan Perumahan,Menggit,"6G95+76, Kotak Kawau, Kec. Kahaungu Eti, Kabupaten Sumba Timur, Nusa Tenggara Tim.","Kabupaten Sumba Timur, Nusa Tenggara Tim.",NUSA TENGGARA TIMUR,,Indonesia,,,,-9.7817412,120.5080715,https://maps.google.com/?cid=0x0:0x45f46939f7f03e64,
perumahan,Pembangunan Perumahan,PERUMAHAN KOTAK KAWAU,"6G59+2P5, Kotak Kawau, Kec. Kahaungu Eti, Kabupaten Sumba Timur, Nusa Tenggara Tim.","Kabupaten Sumba Timur, Nusa Tenggara Tim.",NUSA TENGGARA TIMUR,,Indonesia,,,,-9.7924867,120.5193651,https://maps.google.com/?cid=0x0:0x3b8d166c557734ef,
perumahan,Komplek perumahan,Kampung baru,"2C9P+4CC, Kambata Bundung, Kec. Kahaungu Eti, Kabupaten Sumba Timur, Nusa Tenggara Tim.","Kabupaten Sumba Timur, Nusa Tenggara Tim.",NUSA TENGGARA TIMUR,,Indonesia,,,,-9.9821926,120.4360094,https://maps.google.com/?cid=0x0:0xd077756e0c8dd7c5,
perumahan,Komplek perumahan,Kampung Kamalapau,"4F87+Q6, Lai Mbonga, Kec. Kahaungu Eti, Kabupaten Sumba Timur, Nusa Tenggara Tim.","Kabupaten Sumba Timur, Nusa Tenggara Tim.",NUSA TENGGARA TIMUR,,Indonesia,,,,-9.883023,120.4631453,https://maps.google.com/?cid=0x0:0x84b378dc28756d05,
perumahan,Komplek perumahan,Rumah Amanah,"4GWV+9P8, Matawai Maringu, Kec. Kahaungu Eti, Kabupaten Sumba Timur, Nusa Tenggara Tim.","Kabupaten Sumba Timur, Nusa Tenggara Tim.",NUSA TENGGARA TIMUR,,Indonesia,,,,-9.8540817,120.5443411,https://maps.google.com/?cid=0x0:0x176e91cfeb7c585c,
perumahan,Tempat Ibadah,Rumah Adat Aibahi,"3FHG+8P, Kamanggih, Kec. Kahaungu Eti, Kabupaten Sumba Timur, Nusa Tenggara Tim.","Kabupaten Sumba Timur, Nusa Tenggara Tim.",NUSA TENGGARA TIMUR,,Indonesia,,,,-9.9218183,120.4767295,https://maps.google.com/?cid=0x0:0xddbe66dd981d6878,
perumahan,Komplek perumahan,Here Raga Home's,"7F4P+7QF, Kotak Kawau, Kec. Kahaungu Eti, Kabupaten Sumba Timur, Nusa Tenggara Tim.","Kabupaten Sumba Timur, Nusa Tenggara Tim.",NUSA TENGGARA TIMUR,,Indonesia,,,,-9.744307,120.4869169,https://maps.google.com/?cid=0x0:0x22f89034a326bc5,
perumahan,perumahan,Kec. Matawai La Pawu,"Kabupaten Sumba Timur, Nusa Tenggara Tim.","Kabupaten Sumba Timur, Nusa Tenggara Tim.",NUSA TENGGARA TIMUR,,Indonesia,,,,-10.023595,120.289147,https://maps.google.com/?cid=0x0:0xef1e906a67c1e143,
perumahan,perumahan,Matawai,"Kec. Kota Waingapu, Kabupaten Sumba Timur, Nusa Tenggara Tim.","Kabupaten Sumba Timur, Nusa Tenggara Tim.",NUSA TENGGARA TIMUR,,Indonesia,,,,-9.655378,120.2642533,https://maps.google.com/?cid=0x0:0x13f8370e9ce6c5da,
perumahan,perumahan,Kec. Kambera,"Kabupaten Sumba Timur, Nusa Tenggara Tim.","Kabupaten Sumba Timur, Nusa Tenggara Tim.",NUSA TENGGARA TIMUR,,Indonesia,,,,-9.6583575,120.2698401,https://maps.google.com/?cid=0x0:0xfc3b7804fd35a4d1,
perumahan,Komplek perumahan,"NTT, SUMBA TIMUR, WAINGAPU, KAMPUNG BARU TANJUNG","86XW+HQ7, Hambala, Kec. Kota Waingapu, Kabupaten Sumba Timur, Nusa Tenggara Tim.","Kabupaten Sumba Timur, Nusa Tenggara Tim.",NUSA TENGGARA TIMUR,,Indonesia,81246402330.0,,,-9.6510893,120.2469196,https://maps.google.com/?cid=0x0:0x9e2b1be2a86906c6,
perumahan,Komplek perumahan,Rumah Kambera,"Depan SDK Praikundu, Jl. S. Parman, Lambanapu, Kambera, East Sumba Regency, East Nusa Tenggara 87115","Jl. S. Parman, Lambanapu, Kambera, East Sumba Regency",NUSA TENGGARA TIMUR,87115.0,Indonesia,82247716226.0,,,-9.6938665,120.281995,https://maps.google.com/?cid=0x0:0x39999b4946fe764f,
perumahan,Tujuan Wisata,Kampung Raja Prailiu,"87RG+CJ7, Prailiu, Kec. Kambera, Kabupaten Sumba Timur, Nusa Tenggara Tim.","Kabupaten Sumba Timur, Nusa Tenggara Tim.",NUSA TENGGARA TIMUR,,Indonesia,,,,-9.658966,120.2765517,https://maps.google.com/?cid=0x0:0x19274c43a94427d0,
perumahan,perumahan,Kambaniru,"Kec. Kambera, Kabupaten Sumba Timur, Nusa Tenggara Tim.","Kabupaten Sumba Timur, Nusa Tenggara Tim.",NUSA TENGGARA TIMUR,,Indonesia,,,,-9.6567136,120.2887685,https://maps.google.com/?cid=0x0:0x51eceab313e86c61,
perumahan,Indonesia,Rumah Makan Mr. Cafe,"Jl. Umbu Tipuk Marisi No.1, Matawai, Kec. Kota Waingapu, Kabupaten Sumba Timur, Nusa Tenggara Tim.","Kabupaten Sumba Timur, Nusa Tenggara Tim.",NUSA TENGGARA TIMUR,,Indonesia,38761605.0,,,-9.6542722,120.2667507,https://maps.google.com/?cid=0x0:0x53b20ddc51ae4f62,
perumahan,perumahan,Wangga,"Kec. Kambera, Kabupaten Sumba Timur, Nusa Tenggara Tim.","Kabupaten Sumba Timur, Nusa Tenggara Tim.",NUSA TENGGARA TIMUR,,Indonesia,,,,-9.675944,120.2685799,https://maps.google.com/?cid=0x0:0x8f5e9df50605b876,
perumahan,perumahan,Prailiu,"Kec. Kambera, Kabupaten Sumba Timur, Nusa Tenggara Tim.","Kabupaten Sumba Timur, Nusa Tenggara Tim.",NUSA TENGGARA TIMUR,,Indonesia,,,,-9.6479555,120.2772325,https://maps.google.com/?cid=0x0:0x9e435a372bbaf967,
perumahan,perumahan,Baim HomeStay,"Jl. M. T. Haryono, Kamalaputi, Kec. Kota Waingapu, Kabupaten Sumba Timur, Nusa Tenggara Tim.","Kabupaten Sumba Timur, Nusa Tenggara Tim.",NUSA TENGGARA TIMUR,,Indonesia,85231080507.0,,,-9.6538783,120.2683016,https://maps.google.com/?cid=0x0:0xdfcfdbbc55e3d234,
perumahan,Galeri Seni,Galeri Tenun Ikat Sumba Kampung Adat Praingu Prailiu,"87VG+2VW, Prailiu, Kec. Kambera, Kabupaten Sumba Timur, Nusa Tenggara Tim.","Kabupaten Sumba Timur, Nusa Tenggara Tim.",NUSA TENGGARA TIMUR,,Indonesia,,,,-9.6573765,120.2772097,https://maps.google.com/?cid=0x0:0xbbb52cb2d3ed688e,
perumahan,perumahan,Casa Kandara,"kp. tandairotu jl. s. parman, Prailiu, Kambera, East Sumba Regency, East Nusa Tenggara","Kabupaten Sumba Timur, Nusa Tenggara Tim.",NUSA TENGGARA TIMUR,,Indonesia,82146535150.0,,,-9.6702555,120.2733195,https://maps.google.com/?cid=0x0:0x6fd75024358e3720,
perumahan,Cagar Alam,Bukit Persaudaraan,"87FW+Q44, Mauliru, Kec. Kambera, Kabupaten Sumba Timur, Nusa Tenggara Tim.","Kabupaten Sumba Timur, Nusa Tenggara Tim.",NUSA TENGGARA TIMUR,,Indonesia,,,,-9.6756075,120.2953148,https://maps.google.com/?cid=0x0:0xbbcca739222d3544,
perumahan,Otoritas Pelabuhan,Waingapu,,,NUSA TENGGARA TIMUR,,Indonesia,,,,-9.63787,120.2505,https://maps.google.com/?cid=0x0:0xffd1103f308c139a,
perumahan,Padang,Rumah Makan Padang Mutiara Minang,"9726+FXX, Jl. Ahmad Yani, Kamalaputi, Kec. Kota Waingapu, Kabupaten Sumba Timur, Nusa Tenggara Tim.","Kabupaten Sumba Timur, Nusa Tenggara Tim.",NUSA TENGGARA TIMUR,,Indonesia,,,,-9.6487511,120.2624949,https://maps.google.com/?cid=0x0:0x8c2e6330b4ecbae9,
perumahan,Restoran,Elcafe Sumba,"Matawai, Kec. Kota Waingapu, Kabupaten Sumba Timur, Nusa Tenggara Tim.","Kabupaten Sumba Timur, Nusa Tenggara Tim.",NUSA TENGGARA TIMUR,,Indonesia,81238246474.0,,,-9.6541853,120.263791,https://maps.google.com/?cid=0x0:0xf8e772e0e7ecd0d1,
perumahan,perumahan,Kec. Kota Waingapu,"Kabupaten Sumba Timur, Nusa Tenggara Tim.","Kabupaten Sumba Timur, Nusa Tenggara Tim.",NUSA TENGGARA TIMUR,,Indonesia,,,,-9.6646545,120.2498483,https://maps.google.com/?cid=0x0:0x6761d979d61c1bb4,
perumahan,Pasar,Pasar Inpres Matawai,"87W7+HC9, Matawai, Kec. Kota Waingapu, Kabupaten Sumba Timur, Nusa Tenggara Tim.","Kabupaten Sumba Timur, Nusa Tenggara Tim.",NUSA TENGGARA TIMUR,,Indonesia,,,,-9.6535778,120.263621,https://maps.google.com/?cid=0x0:0x4ddf7105eb0eda46,
perumahan,Restoran,Rumah Makan Jawa,"Jl. DI. Panjaitan No. 57, Matawai, Kec. Kota Waingapu, Kabupaten Sumba Timur, Nusa Tenggara Tim.","Kabupaten Sumba Timur, Nusa Tenggara Tim.",NUSA TENGGARA TIMUR,,Indonesia,82247933133.0,,,-9.6543423,120.2677258,https://maps.google.com/?cid=0x0:0x1d1824583afdaa85,
perumahan,Otoritas Pelabuhan,Kantor PT PELNI,"Kamalaputi, Kec. Kota Waingapu, Kabupaten Sumba Timur, Nusa Tenggara Tim.","Kabupaten Sumba Timur, Nusa Tenggara Tim.",NUSA TENGGARA TIMUR,,Indonesia,38761665.0,,,-9.6406065,120.2554072,https://maps.google.com/?cid=0x0:0xfe808450413607bd,
perumahan,Taman,Taman Kota Waingapu,"Jl. Palapa, Matawai, Kec. Kota Waingapu, Kabupaten Sumba Timur, Nusa Tenggara Tim.","Kabupaten Sumba Timur, Nusa Tenggara Tim.",NUSA TENGGARA TIMUR,,Indonesia,,,,-9.6532103,120.2666671,https://maps.google.com/?cid=0x0:0x1878e8e004a51577,
perumahan,Brunch,Rumah makan la'teras,"87VC+CJ6, Prailiu, Kec. Kambera, Kabupaten Sumba Timur, Nusa Tenggara Tim.","Kabupaten Sumba Timur, Nusa Tenggara Tim.",NUSA TENGGARA TIMUR,,Indonesia,81338710888.0,,,-9.6564658,120.2715095,https://maps.google.com/?cid=0x0:0xae5b0486803dd89e,
perumahan,Komplek perumahan,Kambera,"Jl. Pramuka No.29, Prailiu, Kec. Kambera, Kabupaten Sumba Timur, Nusa Tenggara Tim.","Kabupaten Sumba Timur, Nusa Tenggara Tim.",NUSA TENGGARA TIMUR,,Indonesia,,,,-9.6590398,120.2757166,https://maps.google.com/?cid=0x0:0x5bddc267fcaa98da,
perumahan,Komplek perumahan,Wangga Permai,"87P9+924, Wangga, Kec. Kambera, Kabupaten Sumba Timur, Nusa Tenggara Tim.","Kabupaten Sumba Timur, Nusa Tenggara Tim.",NUSA TENGGARA TIMUR,,Indonesia,,,,-9.6641175,120.2675794,https://maps.google.com/?cid=0x0:0xaae061368eec50d,
perumahan,perumahan,Rumah UME,"87J4+XC8, Wangga, Kec. Kambera, Kabupaten Sumba Timur, Nusa Tenggara Tim.","Kabupaten Sumba Timur, Nusa Tenggara Tim.",NUSA TENGGARA TIMUR,,Indonesia,,,,-9.6675823,120.2560687,https://maps.google.com/?cid=0x0:0x660f65f45122b3f7,
perumahan,Perumahan,Kos Pohon Asam,"87RC+WMG, Prailiu, Kec. Kambera, Kabupaten Sumba Timur, Nusa Tenggara Tim.","Kabupaten Sumba Timur, Nusa Tenggara Tim.",NUSA TENGGARA TIMUR,,Indonesia,,,,-9.6576915,120.2717096,https://maps.google.com/?cid=0x0:0xea4928811af7b9ac,
perumahan,Pembangunan Perumahan,Family kondatana,"87H9+8Q3, Wangga, Kec. Kambera, Kabupaten Sumba Timur, Nusa Tenggara Tim.","Kabupaten Sumba Timur, Nusa Tenggara Tim.",NUSA TENGGARA TIMUR,,Indonesia,,,,-9.6717327,120.2694119,https://maps.google.com/?cid=0x0:0xd46dac98233e0d1f,
perumahan,Pembangunan Perumahan,Rumah Umbu Windi Kamanggih,"972G+952, Jl. Hayam Wuruk, Prailiu, Kec. Kambera, Kabupaten Sumba Timur, Nusa Tenggara Tim.","Kabupaten Sumba Timur, Nusa Tenggara Tim.",NUSA TENGGARA TIMUR,,Indonesia,,,,-9.649121,120.2753996,https://maps.google.com/?cid=0x0:0xa25e772a98079d78,
perumahan,Komplek perumahan,rumah ike,"87QF+C9F, Prailiu, Kec. Kambera, Kabupaten Sumba Timur, Nusa Tenggara Tim.","Kabupaten Sumba Timur, Nusa Tenggara Tim.",NUSA TENGGARA TIMUR,,Indonesia,,,,-9.6614455,120.2734328,https://maps.google.com/?cid=0x0:0x976121f1a587963e,
perumahan,Perhimpunan Pengembang Perumahan,"Rumah Pdt. Yunia Radja, S.Th","87HF+R27, Wangga, Kec. Kambera, Kabupaten Sumba Timur, Nusa Tenggara Tim.","Kabupaten Sumba Timur, Nusa Tenggara Tim.",NUSA TENGGARA TIMUR,,Indonesia,,,,-9.6701654,120.2726162,https://maps.google.com/?cid=0x0:0x9ae14b09231c6781,
perumahan,perumahan,Kec. Kambera,"Kabupaten Sumba Timur, Nusa Tenggara Tim.","Kabupaten Sumba Timur, Nusa Tenggara Tim.",NUSA TENGGARA TIMUR,,Indonesia,,,,-9.6583575,120.2698401,https://maps.google.com/?cid=0x0:0xfc3b7804fd35a4d1,
perumahan,Komplek perumahan,Kambera,"Jl. Pramuka No.29, Prailiu, Kec. Kambera, Kabupaten Sumba Timur, Nusa Tenggara Tim.","Kabupaten Sumba Timur, Nusa Tenggara Tim.",NUSA TENGGARA TIMUR,,Indonesia,,,,-9.6590398,120.2757166,https://maps.google.com/?cid=0x0:0x5bddc267fcaa98da,
perumahan,perumahan,Rumah UME,"87J4+XC8, Wangga, Kec. Kambera, Kabupaten Sumba Timur, Nusa Tenggara Tim.","Kabupaten Sumba Timur, Nusa Tenggara Tim.",NUSA TENGGARA TIMUR,,Indonesia,,,,-9.6675823,120.2560687,https://maps.google.com/?cid=0x0:0x660f65f45122b3f7,
perumahan,Komplek perumahan,Aldo,"87QG+RR9, Prailiu, Kec. Kambera, Kabupaten Sumba Timur, Nusa Tenggara Tim.","Kabupaten Sumba Timur, Nusa Tenggara Tim.",NUSA TENGGARA TIMUR,,Indonesia,,,,-9.6604656,120.2771051,https://maps.google.com/?cid=0x0:0xf3800ffe19430553,
perumahan,Perumahan,Kos Pohon Asam,"87RC+WMG, Prailiu, Kec. Kambera, Kabupaten Sumba Timur, Nusa Tenggara Tim.","Kabupaten Sumba Timur, Nusa Tenggara Tim.",NUSA TENGGARA TIMUR,,Indonesia,,,,-9.6576915,120.2717096,https://maps.google.com/?cid=0x0:0xea4928811af7b9ac,
perumahan,Komplek perumahan,JiLy Ata home,"Jl. S. Parman No.59, Prailiu, Kec. Kambera, Kabupaten Sumba Timur, Nusa Tenggara Tim. 87116","Prailiu, Kec. Kambera, Kabupaten Sumba Timur",NUSA TENGGARA TIMUR,87116.0,Indonesia,,,,-9.6627591,120.2730618,https://maps.google.com/?cid=0x0:0x11732a4d00435fdc,
perumahan,Pembangunan Perumahan,Rumah Umbu Windi Kamanggih,"972G+952, Jl. Hayam Wuruk, Prailiu, Kec. Kambera, Kabupaten Sumba Timur, Nusa Tenggara Tim.","Kabupaten Sumba Timur, Nusa Tenggara Tim.",NUSA TENGGARA TIMUR,,Indonesia,,,,-9.649121,120.2753996,https://maps.google.com/?cid=0x0:0xa25e772a98079d78,
perumahan,Komplek perumahan,Praiwora,"87H7+7JM, Wangga, Kec. Kambera, Kabupaten Sumba Timur, Nusa Tenggara Tim.","Kabupaten Sumba Timur, Nusa Tenggara Tim.",NUSA TENGGARA TIMUR,,Indonesia,,,,-9.6716382,120.2640153,https://maps.google.com/?cid=0x0:0x3b9a5433062adc40,
perumahan,Komplek perumahan,KAMALAPUTI,"9729+258, Kamalaputi, Kec. Kota Waingapu, Kabupaten Sumba Timur, Nusa Tenggara Tim.","Kabupaten Sumba Timur, Nusa Tenggara Tim.",NUSA TENGGARA TIMUR,,Indonesia,,,,-9.6499892,120.2679159,https://maps.google.com/?cid=0x0:0xd98295a81b74edb7,
perumahan,Komplek perumahan,Wangga Permai,"87P9+924, Wangga, Kec. Kambera, Kabupaten Sumba Timur, Nusa Tenggara Tim.","Kabupaten Sumba Timur, Nusa Tenggara Tim.",NUSA TENGGARA TIMUR,,Indonesia,,,,-9.6641175,120.2675794,https://maps.google.com/?cid=0x0:0xaae061368eec50d,
perumahan,Komplek perumahan,Hinggu Nattar,"Jl. S. Parman No.31, Prailiu, Kec. Kambera, Kabupaten Sumba Timur, Nusa Tenggara Tim.","Kabupaten Sumba Timur, Nusa Tenggara Tim.",NUSA TENGGARA TIMUR,,Indonesia,82146511248.0,,,-9.6606523,120.2722408,https://maps.google.com/?cid=0x0:0x9a1c49a46a89c9b8,
perumahan,Komplek perumahan,Ndahawali Mondy,"87XF+8H7, Prailiu, Kec. Kambera, Kabupaten Sumba Timur, Nusa Tenggara Tim.","Kabupaten Sumba Timur, Nusa Tenggara Tim.",NUSA TENGGARA TIMUR,,Indonesia,,,,-9.6517228,120.2739091,https://maps.google.com/?cid=0x0:0xd924d5ee3bd28330,
perumahan,Komplek perumahan,Gunung Mutis Padadita,"972J+628, Jl. Gn. Mutis, Prailiu, Kec. Kambera, Kabupaten Sumba Timur, Nusa Tenggara Tim.","Kabupaten Sumba Timur, Nusa Tenggara Tim.",NUSA TENGGARA TIMUR,,Indonesia,,,,-9.649472,120.2800879,https://maps.google.com/?cid=0x0:0x3dd8a4fd4dd7f72c,
perumahan,Komplek perumahan,rumah ike,"87QF+C9F, Prailiu, Kec. Kambera, Kabupaten Sumba Timur, Nusa Tenggara Tim.","Kabupaten Sumba Timur, Nusa Tenggara Tim.",NUSA TENGGARA TIMUR,,Indonesia,,,,-9.6614455,120.2734328,https://maps.google.com/?cid=0x0:0x976121f1a587963e,
perumahan,Komplek perumahan,Waingapu,"Jl. S. Parman No.51, Prailiu, Kec. Kambera, Kabupaten Sumba Timur, Nusa Tenggara Tim.","Kabupaten Sumba Timur, Nusa Tenggara Tim.",NUSA TENGGARA TIMUR,,Indonesia,,,,-9.6633684,120.2716641,https://maps.google.com/?cid=0x0:0xe5052fff055c1cd4,
perumahan,Komplek perumahan,Kalaway home,"87XF+76M, Prailiu, Kec. Kambera, Kabupaten Sumba Timur, Nusa Tenggara Tim.","Kabupaten Sumba Timur, Nusa Tenggara Tim.",NUSA TENGGARA TIMUR,,Indonesia,,,,-9.6521355,120.274123,https://maps.google.com/?cid=0x0:0x244cfdca0a87e636,
perumahan,Komplek perumahan,Rumah Shatryo,"87J4+W4Q, Wangga, Kec. Kambera, Kabupaten Sumba Timur, Nusa Tenggara Tim.","Kabupaten Sumba Timur, Nusa Tenggara Tim.",NUSA TENGGARA TIMUR,,Indonesia,,,,-9.6676504,120.2553663,https://maps.google.com/?cid=0x0:0x5e0ee7ceefb83431,
perumahan,Perhimpunan Pengembang Perumahan,Rumah Predator,"972F+QH2, Jalan hayam wuruk, RT.14/RW.05, Prailiu, Kec. Kambera, Kabupaten Sumba Timur, Nusa Tenggara Tim.","Kabupaten Sumba Timur, Nusa Tenggara Tim.",NUSA TENGGARA TIMUR,,Indonesia,,,,-9.6482225,120.2739846,https://maps.google.com/?cid=0x0:0xc85fe70360876f20,
perumahan,Pembangunan Perumahan,BUMI MARAPU,"Cv.Bumi Marapu, Jl. Prof. Yohanes, Prailiu, Kec. Kambera, Kabupaten Sumba Timur, Nusa Tenggara Tim.","Kabupaten Sumba Timur, Nusa Tenggara Tim.",NUSA TENGGARA TIMUR,,Indonesia,,,,-9.6560524,120.2685026,https://maps.google.com/?cid=0x0:0x61f3238a270cff91,
perumahan,Komplek perumahan,Bpk.DANIEL M. BORA,"87MC+CFG, Wangga, Kec. Kambera, Kabupaten Sumba Timur, Nusa Tenggara Tim.","Kabupaten Sumba Timur, Nusa Tenggara Tim.",NUSA TENGGARA TIMUR,,Indonesia,,,,-9.6664351,120.2712054,https://maps.google.com/?cid=0x0:0x8de4a6c99fd70e2d,
perumahan,Perhimpunan Pengembang Perumahan,"Rumah Pdt. Yunia Radja, S.Th","87HF+R27, Wangga, Kec. Kambera, Kabupaten Sumba Timur, Nusa Tenggara Tim.","Kabupaten Sumba Timur, Nusa Tenggara Tim.",NUSA TENGGARA TIMUR,,Indonesia,,,,-9.6701654,120.2726162,https://maps.google.com/?cid=0x0:0x9ae14b09231c6781,
perumahan,Pembangunan Perumahan,YELLOW GATE,"87X8+V7G, Kamalaputi, Kec. Kota Waingapu, Kabupaten Sumba Timur, Nusa Tenggara Tim.","Kabupaten Sumba Timur, Nusa Tenggara Tim.",NUSA TENGGARA TIMUR,,Indonesia,,,,-9.6503231,120.2656995,https://maps.google.com/?cid=0x0:0x96abdf7749f2e1ea,
perumahan,perumahan,Kec. Kambera,"Kabupaten Sumba Timur, Nusa Tenggara Tim.","Kabupaten Sumba Timur, Nusa Tenggara Tim.",NUSA TENGGARA TIMUR,,Indonesia,,,,-9.6583575,120.2698401,https://maps.google.com/?cid=0x0:0xfc3b7804fd35a4d1,
perumahan,Komplek perumahan,Rumah Kambera,"Depan SDK Praikundu, Jl. S. Parman, Lambanapu, Kambera, East Sumba Regency, East Nusa Tenggara 87115","Jl. S. Parman, Lambanapu, Kambera, East Sumba Regency",NUSA TENGGARA TIMUR,87115.0,Indonesia,82247716226.0,,,-9.6938665,120.281995,https://maps.google.com/?cid=0x0:0x39999b4946fe764f,
perumahan,Komplek perumahan,"NTT, SUMBA TIMUR, WAINGAPU, KAMPUNG BARU TANJUNG","86XW+HQ7, Hambala, Kec. Kota Waingapu, Kabupaten Sumba Timur, Nusa Tenggara Tim.","Kabupaten Sumba Timur, Nusa Tenggara Tim.",NUSA TENGGARA TIMUR,,Indonesia,81246402330.0,,,-9.6510893,120.2469196,https://maps.google.com/?cid=0x0:0x9e2b1be2a86906c6,
perumahan,Indonesia,Rumah Makan Mr. Cafe,"Jl. Umbu Tipuk Marisi No.1, Matawai, Kec. Kota Waingapu, Kabupaten Sumba Timur, Nusa Tenggara Tim.","Kabupaten Sumba Timur, Nusa Tenggara Tim.",NUSA TENGGARA TIMUR,,Indonesia,38761605.0,,,-9.6542722,120.2667507,https://maps.google.com/?cid=0x0:0x53b20ddc51ae4f62,
perumahan,perumahan,Kambaniru,"Kec. Kambera, Kabupaten Sumba Timur, Nusa Tenggara Tim.","Kabupaten Sumba Timur, Nusa Tenggara Tim.",NUSA TENGGARA TIMUR,,Indonesia,,,,-9.6567136,120.2887685,https://maps.google.com/?cid=0x0:0x51eceab313e86c61,
perumahan,Tujuan Wisata,Kampung Raja Prailiu,"87RG+CJ7, Prailiu, Kec. Kambera, Kabupaten Sumba Timur, Nusa Tenggara Tim.","Kabupaten Sumba Timur, Nusa Tenggara Tim.",NUSA TENGGARA TIMUR,,Indonesia,,,,-9.658966,120.2765517,https://maps.google.com/?cid=0x0:0x19274c43a94427d0,
perumahan,perumahan,Kec. Kota Waingapu,"Kabupaten Sumba Timur, Nusa Tenggara Tim.","Kabupaten Sumba Timur, Nusa Tenggara Tim.",NUSA TENGGARA TIMUR,,Indonesia,,,,-9.6646545,120.2498483,https://maps.google.com/?cid=0x0:0x6761d979d61c1bb4,
perumahan,perumahan,Wangga,"Kec. Kambera, Kabupaten Sumba Timur, Nusa Tenggara Tim.","Kabupaten Sumba Timur, Nusa Tenggara Tim.",NUSA TENGGARA TIMUR,,Indonesia,,,,-9.675944,120.2685799,https://maps.google.com/?cid=0x0:0x8f5e9df50605b876,
perumahan,Cagar Alam,Bukit Persaudaraan,"87FW+Q44, Mauliru, Kec. Kambera, Kabupaten Sumba Timur, Nusa Tenggara Tim.","Kabupaten Sumba Timur, Nusa Tenggara Tim.",NUSA TENGGARA TIMUR,,Indonesia,,,,-9.6756075,120.2953148,https://maps.google.com/?cid=0x0:0xbbcca739222d3544,
perumahan,perumahan,Pondok Wisata dan Restoran Elim,"Jl. Adi Sucipto No.1, Mau Hau, Kec. Kambera, Kabupaten Sumba Timur, Nusa Tenggara Tim. 87116","Mau Hau, Kec. Kambera, Kabupaten Sumba Timur",NUSA TENGGARA TIMUR,87116.0,Indonesia,81239743661.0,,,-9.6692326,120.2970633,https://maps.google.com/?cid=0x0:0xd51cca0c62dff0e6,
perumahan,perumahan,Baim HomeStay,"Jl. M. T. Haryono, Kamalaputi, Kec. Kota Waingapu, Kabupaten Sumba Timur, Nusa Tenggara Tim.","Kabupaten Sumba Timur, Nusa Tenggara Tim.",NUSA TENGGARA TIMUR,,Indonesia,85231080507.0,,,-9.6538783,120.2683016,https://maps.google.com/?cid=0x0:0xdfcfdbbc55e3d234,
perumahan,Padang,Rumah Makan Padang Mutiara Minang,"9726+FXX, Jl. Ahmad Yani, Kamalaputi, Kec. Kota Waingapu, Kabupaten Sumba Timur, Nusa Tenggara Tim.","Kabupaten Sumba Timur, Nusa Tenggara Tim.",NUSA TENGGARA TIMUR,,Indonesia,,,,-9.6487511,120.2624949,https://maps.google.com/?cid=0x0:0x8c2e6330b4ecbae9,
perumahan,Restoran,Elcafe Sumba,"Matawai, Kec. Kota Waingapu, Kabupaten Sumba Timur, Nusa Tenggara Tim.","Kabupaten Sumba Timur, Nusa Tenggara Tim.",NUSA TENGGARA TIMUR,,Indonesia,81238246474.0,,,-9.6541853,120.263791,https://maps.google.com/?cid=0x0:0xf8e772e0e7ecd0d1,
perumahan,Restoran,LA PARANDA,"Jl. H. Adam Malik No.23, Kambajawa, Kec. Kota Waingapu, Kabupaten Sumba Timur, Nusa Tenggara Tim.","Kabupaten Sumba Timur, Nusa Tenggara Tim.",NUSA TENGGARA TIMUR,,Indonesia,,,,-9.6602309,120.2547955,https://maps.google.com/?cid=0x0:0xb5fd8b6664de2696,
perumahan,Brunch,Rumah makan la'teras,"87VC+CJ6, Prailiu, Kec. Kambera, Kabupaten Sumba Timur, Nusa Tenggara Tim.","Kabupaten Sumba Timur, Nusa Tenggara Tim.",NUSA TENGGARA TIMUR,,Indonesia,81338710888.0,,,-9.6564658,120.2715095,https://maps.google.com/?cid=0x0:0xae5b0486803dd89e,
perumahan,Otoritas Pelabuhan,Kantor PT PELNI,"Kamalaputi, Kec. Kota Waingapu, Kabupaten Sumba Timur, Nusa Tenggara Tim.","Kabupaten Sumba Timur, Nusa Tenggara Tim.",NUSA TENGGARA TIMUR,,Indonesia,38761665.0,,,-9.6406065,120.2554072,https://maps.google.com/?cid=0x0:0xfe808450413607bd,
perumahan,Komplek perumahan,Kambera,"Jl. Pramuka No.29, Prailiu, Kec. Kambera, Kabupaten Sumba Timur, Nusa Tenggara Tim.","Kabupaten Sumba Timur, Nusa Tenggara Tim.",NUSA TENGGARA TIMUR,,Indonesia,,,,-9.6590398,120.2757166,https://maps.google.com/?cid=0x0:0x5bddc267fcaa98da,
perumahan,perumahan,Rumah UME,"87J4+XC8, Wangga, Kec. Kambera, Kabupaten Sumba Timur, Nusa Tenggara Tim.","Kabupaten Sumba Timur, Nusa Tenggara Tim.",NUSA TENGGARA TIMUR,,Indonesia,,,,-9.6675823,120.2560687,https://maps.google.com/?cid=0x0:0x660f65f45122b3f7,
perumahan,Komplek perumahan,Wangga Permai,"87P9+924, Wangga, Kec. Kambera, Kabupaten Sumba Timur, Nusa Tenggara Tim.","Kabupaten Sumba Timur, Nusa Tenggara Tim.",NUSA TENGGARA TIMUR,,Indonesia,,,,-9.6641175,120.2675794,https://maps.google.com/?cid=0x0:0xaae061368eec50d,
perumahan,Pembangunan Perumahan,Rumah Umbu Windi Kamanggih,"972G+952, Jl. Hayam Wuruk, Prailiu, Kec. Kambera, Kabupaten Sumba Timur, Nusa Tenggara Tim.","Kabupaten Sumba Timur, Nusa Tenggara Tim.",NUSA TENGGARA TIMUR,,Indonesia,,,,-9.649121,120.2753996,https://maps.google.com/?cid=0x0:0xa25e772a98079d78,
perumahan,Perumahan,Kos Pohon Asam,"87RC+WMG, Prailiu, Kec. Kambera, Kabupaten Sumba Timur, Nusa Tenggara Tim.","Kabupaten Sumba Timur, Nusa Tenggara Tim.",NUSA TENGGARA TIMUR,,Indonesia,,,,-9.6576915,120.2717096,https://maps.google.com/?cid=0x0:0xea4928811af7b9ac,
perumahan,Komplek perumahan,Rumah,"87GF+C6, Wangga, Kec. Kambera, Kabupaten Sumba Timur, Nusa Tenggara Tim.","Kabupaten Sumba Timur, Nusa Tenggara Tim.",NUSA TENGGARA TIMUR,,Indonesia,,,,-9.6745859,120.272794,https://maps.google.com/?cid=0x0:0x3d2ffc1b67233f5,
perumahan,Komplek perumahan,Gunung Mutis Padadita,"972J+628, Jl. Gn. Mutis, Prailiu, Kec. Kambera, Kabupaten Sumba Timur, Nusa Tenggara Tim.","Kabupaten Sumba Timur, Nusa Tenggara Tim.",NUSA TENGGARA TIMUR,,Indonesia,,,,-9.649472,120.2800879,https://maps.google.com/?cid=0x0:0x3dd8a4fd4dd7f72c,
perumahan,Komplek perumahan,Hinggu Nattar,"Jl. S. Parman No.31, Prailiu, Kec. Kambera, Kabupaten Sumba Timur, Nusa Tenggara Tim.","Kabupaten Sumba Timur, Nusa Tenggara Tim.",NUSA TENGGARA TIMUR,,Indonesia,82146511248.0,,,-9.6606523,120.2722408,https://maps.google.com/?cid=0x0:0x9a1c49a46a89c9b8,
perumahan,Komplek perumahan,rumah ike,"87QF+C9F, Prailiu, Kec. Kambera, Kabupaten Sumba Timur, Nusa Tenggara Tim.","Kabupaten Sumba Timur, Nusa Tenggara Tim.",NUSA TENGGARA TIMUR,,Indonesia,,,,-9.6614455,120.2734328,https://maps.google.com/?cid=0x0:0x976121f1a587963e,
perumahan,Komplek perumahan,Adven  fams,"87J6+RJ8, Wangga, Kec. Kambera, Kabupaten Sumba Timur, Nusa Tenggara Tim.","Kabupaten Sumba Timur, Nusa Tenggara Tim.",NUSA TENGGARA TIMUR,,Indonesia,,,,-9.6679628,120.2615914,https://maps.google.com/?cid=0x0:0x3dd1d9bb06a91fbe,
perumahan,Komplek perumahan,Lumbukokur,"87QC+WWP, JL. I .H. Doko, Prailiu, Kec. Kambera, Kabupaten Sumba Timur, Nusa Tenggara Tim.","Kabupaten Sumba Timur, Nusa Tenggara Tim.",NUSA TENGGARA TIMUR,,Indonesia,81268625454.0,,,-9.6601528,120.2723254,https://maps.google.com/?cid=0x0:0x8c96ee9a664c88a3,
perumahan,Komplek perumahan,Ndahawali Mondy,"87XF+8H7, Prailiu, Kec. Kambera, Kabupaten Sumba Timur, Nusa Tenggara Tim.","Kabupaten Sumba Timur, Nusa Tenggara Tim.",NUSA TENGGARA TIMUR,,Indonesia,,,,-9.6517228,120.2739091,https://maps.google.com/?cid=0x0:0xd924d5ee3bd28330,
perumahan,Komplek perumahan,Waingapu,"Jl. S. Parman No.51, Prailiu, Kec. Kambera, Kabupaten Sumba Timur, Nusa Tenggara Tim.","Kabupaten Sumba Timur, Nusa Tenggara Tim.",NUSA TENGGARA TIMUR,,Indonesia,,,,-9.6633684,120.2716641,https://maps.google.com/?cid=0x0:0xe5052fff055c1cd4,
perumahan,Komplek perumahan,Rumah Kreatif BUMN,"9744+WMR, Kamalaputi, Kec. Kota Waingapu, Kabupaten Sumba Timur, Nusa Tenggara Tim.","Kabupaten Sumba Timur, Nusa Tenggara Tim.",NUSA TENGGARA TIMUR,,Indonesia,3872560935.0,,,-9.6426387,120.2566448,https://maps.google.com/?cid=0x0:0x38b03bdc49be13ac,
perumahan,Pembangunan Perumahan,Rumah,"87X8+G3P, Kamalaputi, Kec. Kota Waingapu, Kabupaten Sumba Timur, Nusa Tenggara Tim.","Kabupaten Sumba Timur, Nusa Tenggara Tim.",NUSA TENGGARA TIMUR,,Indonesia,,,,-9.6511573,120.2651896,https://maps.google.com/?cid=0x0:0x748792301d5910a,
perumahan,Guest house,kos kosan warna warni,"86JX+5FV, Kambajawa, Kec. Kota Waingapu, Kabupaten Sumba Timur, Nusa Tenggara Tim. 87116","Kambajawa, Kec. Kota Waingapu, Kabupaten Sumba Timur",NUSA TENGGARA TIMUR,87116.0,Indonesia,,,,-9.6694991,120.2486915,https://maps.google.com/?cid=0x0:0xdb44a3aac6b5e711,
perumahan,perumahan,Nusa Tenggara Tim. 87116,"Kambajawa, Kec. Kota Waingapu, Kabupaten Sumba Timur, Nusa Tenggara Tim.","Kabupaten Sumba Timur, Nusa Tenggara Tim.",NUSA TENGGARA TIMUR,,Indonesia,,,,-9.6694554,120.2487539,https://maps.google.com/?cid=0x0:0xdd85bef68702a07c,
perumahan,perumahan,Kec. Kambata Mapambuhang,"Kabupaten Sumba Timur, Nusa Tenggara Tim.","Kabupaten Sumba Timur, Nusa Tenggara Tim.",NUSA TENGGARA TIMUR,,Indonesia,,,,-9.8529462,120.2281933,https://maps.google.com/?cid=0x0:0xc17627b93132ea5d,
perumahan,Guest house,kos kosan warna warni,"86JX+5FV, Kambajawa, Kec. Kota Waingapu, Kabupaten Sumba Timur, Nusa Tenggara Tim. 87116","Kambajawa, Kec. Kota Waingapu, Kabupaten Sumba Timur",NUSA TENGGARA TIMUR,87116.0,Indonesia,,,,-9.6694991,120.2486915,https://maps.google.com/?cid=0x0:0xdb44a3aac6b5e711,
perumahan,perumahan,Kec. Kambata Mapambuhang,"Kabupaten Sumba Timur, Nusa Tenggara Tim.","Kabupaten Sumba Timur, Nusa Tenggara Tim.",NUSA TENGGARA TIMUR,,Indonesia,,,,-9.8529462,120.2281933,https://maps.google.com/?cid=0x0:0xc17627b93132ea5d,
perumahan,Komplek perumahan,Rumah Kambera,"Depan SDK Praikundu, Jl. S. Parman, Lambanapu, Kambera, East Sumba Regency, East Nusa Tenggara 87115","Jl. S. Parman, Lambanapu, Kambera, East Sumba Regency",NUSA TENGGARA TIMUR,87115.0,Indonesia,82247716226.0,,,-9.6938665,120.281995,https://maps.google.com/?cid=0x0:0x39999b4946fe764f,
perumahan,Perhimpunan Pengembang Perumahan,Laimeta,"37CF+WPX, Lai Meta, Kec. Kambata Mapambuhang, Kabupaten Sumba Timur, Nusa Tenggara Tim.","Kabupaten Sumba Timur, Nusa Tenggara Tim.",NUSA TENGGARA TIMUR,,Indonesia,,,,-9.9276395,120.2743484,https://maps.google.com/?cid=0x0:0xa44ae800334e8805,
perumahan,Perhimpunan Pengembang Perumahan,Dusun mahu,"37CF+WPX, Lai Meta, Kec. Kambata Mapambuhang, Kabupaten Sumba Timur, Nusa Tenggara Tim.","Kabupaten Sumba Timur, Nusa Tenggara Tim.",NUSA TENGGARA TIMUR,,Indonesia,,,,-9.9276395,120.2743484,https://maps.google.com/?cid=0x0:0x5f04bede5a8ff846,
perumahan,Komplek perumahan,Kabunnu,"366X+4PH, Lai Meta, Kec. Kambata Mapambuhang, Kabupaten Sumba Timur, Nusa Tenggara Tim.","Kabupaten Sumba Timur, Nusa Tenggara Tim.",NUSA TENGGARA TIMUR,,Indonesia,,,,-9.9396997,120.2493729,https://maps.google.com/?cid=0x0:0x7b5a50987a5da412,
perumahan,Kantor Pemerintah,Rumah Kepala Desa Luku Wingir,"569V+FX9, Luku Wingir, Kec. Kambata Mapambuhang, Kabupaten Sumba Timur, Nusa Tenggara Tim.","Kabupaten Sumba Timur, Nusa Tenggara Tim.",NUSA TENGGARA TIMUR,,Indonesia,,,,-9.8313463,120.2449724,https://maps.google.com/?cid=0x0:0x9045d57723aaa881,
perumahan,Perkebunan Pohon,"Dusun Ngaru Kolat, Desa Maidang","554H+8F, Maidang, Kec. Kambata Mapambuhang, Kabupaten Sumba Timur, Nusa Tenggara Tim.","Kabupaten Sumba Timur, Nusa Tenggara Tim.",NUSA TENGGARA TIMUR,,Indonesia,,,,-9.8441535,120.1786756,https://maps.google.com/?cid=0x0:0x973616c00662c19e,
perumahan,Perhimpunan Pengembang Perumahan,Kebun mama tua,"46WH+R7G, Mahu Bokul, Kec. Kambata Mapambuhang, Kabupaten Sumba Timur, Nusa Tenggara Tim.","Kabupaten Sumba Timur, Nusa Tenggara Tim.",NUSA TENGGARA TIMUR,,Indonesia,,,,-9.8529462,120.2281933,https://maps.google.com/?cid=0x0:0xaee7be0308341b2a,
perumahan,perumahan,Rumah olaa,"77G9+84, Malumbi, Kec. Kambera, Kabupaten Sumba Timur, Nusa Tenggara Tim.","Kabupaten Sumba Timur, Nusa Tenggara Tim.",NUSA TENGGARA TIMUR,,Indonesia,,,,-9.725063,120.267554,https://maps.google.com/?cid=0x0:0x7eb72e56851928a6,
perumahan,perumahan,viihomee,"77JM+WHF, Malumbi, Kec. Kambera, Kabupaten Sumba Timur, Nusa Tenggara Tim.","Kabupaten Sumba Timur, Nusa Tenggara Tim.",NUSA TENGGARA TIMUR,,Indonesia,,,,-9.7177517,120.2828483,https://maps.google.com/?cid=0x0:0xa0f45b6a8fd93c07,
perumahan,perumahan,Rumah abad nego,"77QP+247, Malumbi, Kec. Kambera, Kabupaten Sumba Timur, Nusa Tenggara Tim.","Kabupaten Sumba Timur, Nusa Tenggara Tim.",NUSA TENGGARA TIMUR,,Indonesia,,,,-9.7124574,120.2853076,https://maps.google.com/?cid=0x0:0xc3abeb4186c52bb3,
perumahan,perumahan,Lairudy,"67GH+3G, Waimbidi, Kec. Kambata Mapambuhang, Kabupaten Sumba Timur, Nusa Tenggara Tim.","Kabupaten Sumba Timur, Nusa Tenggara Tim.",NUSA TENGGARA TIMUR,,Indonesia,,,,-9.7747926,120.2787309,https://maps.google.com/?cid=0x0:0x86ae156ace5b853f,
perumahan,Komplek perumahan,Frit,"78WF+25, Kambata Tana, Kec. Pandawai, Kabupaten Sumba Timur, Nusa Tenggara Tim.","Kabupaten Sumba Timur, Nusa Tenggara Tim.",NUSA TENGGARA TIMUR,,Indonesia,,,,-9.70502,120.323267,https://maps.google.com/?cid=0x0:0x9f65fda8872779dd,
perumahan,Komplek perumahan,Rumah,"87GF+C6, Wangga, Kec. Kambera, Kabupaten Sumba Timur, Nusa Tenggara Tim.","Kabupaten Sumba Timur, Nusa Tenggara Tim.",NUSA TENGGARA TIMUR,,Indonesia,,,,-9.6745859,120.272794,https://maps.google.com/?cid=0x0:0x3d2ffc1b67233f5,
perumahan,Komplek perumahan,PALINDI MANIS,"78VF+XCJ, Palindi, RT.010/RW.005, Kambata Tana, Kec. Pandawai, Kabupaten Sumba Timur, Nusa Tenggara Tim.","Kabupaten Sumba Timur, Nusa Tenggara Tim.",NUSA TENGGARA TIMUR,,Indonesia,81337109395.0,,,-9.7050477,120.3235085,https://maps.google.com/?cid=0x0:0xefd3a3535504ed82,
perumahan,Perhimpunan Pengembang Perumahan,Rumah stepanus domu konda lura,"568W+C5, Luku Wingir, Kec. Kambata Mapambuhang, Kabupaten Sumba Timur, Nusa Tenggara Tim.","Kabupaten Sumba Timur, Nusa Tenggara Tim.",NUSA TENGGARA TIMUR,,Indonesia,,,,-9.8339576,120.2454834,https://maps.google.com/?cid=0x0:0xbff001a96b8ed2f4,
perumahan,Komplek perumahan,Hendro Thalora,"78VF+XCJ Palindi, RT.010/RW.005, Kambata Tana, Kec. Pandawai, Kabupaten Sumba Timur, Nusa Tenggara Tim.","Kabupaten Sumba Timur, Nusa Tenggara Tim.",NUSA TENGGARA TIMUR,,Indonesia,81337109395.0,,,-9.7050253,120.3234555,https://maps.google.com/?cid=0x0:0xaa0ce24ed7adcc00,
perumahan,Perumahan,Perumahan Purimas Waingapu,"8768+WXH, jalan puri mas raya, Wangga, Kec. Kambera, Kabupaten Sumba Timur, Nusa Tenggara Tim.","Kabupaten Sumba Timur, Nusa Tenggara Tim.",NUSA TENGGARA TIMUR,,Indonesia,,,,-9.6876958,120.2674691,https://maps.google.com/?cid=0x0:0x23104af69c79a03d,
perumahan,Pembangunan Perumahan,Ferlando,"883C+GMF, Kambata Tana, Kec. Pandawai, Kabupaten Sumba Timur, Nusa Tenggara Tim.","Kabupaten Sumba Timur, Nusa Tenggara Tim.",NUSA TENGGARA TIMUR,,Indonesia,,,,-9.6961982,120.3216603,https://maps.google.com/?cid=0x0:0x6e11ba9559eb8547,
perumahan,Komplek perumahan,Mbatakapidu,"86CJ+VFR, Mbatakapidu, Kec. Kota Waingapu, Kabupaten Sumba Timur, Nusa Tenggara Tim.","Kabupaten Sumba Timur, Nusa Tenggara Tim.",NUSA TENGGARA TIMUR,,Indonesia,,,,-9.6777584,120.2311557,https://maps.google.com/?cid=0x0:0x76a84248ad176da2,
perumahan,Komplek perumahan,Laung,"34WF+5RG, Kuki Talu, Kec. Tabundung, Kabupaten Sumba Timur, Nusa Tenggara Tim.","Kabupaten Sumba Timur, Nusa Tenggara Tim.",NUSA TENGGARA TIMUR,,Indonesia,,,,-9.9045615,120.1245885,https://maps.google.com/?cid=0x0:0x71122ed02d720ee7,
perumahan,perumahan,Rumah Talang baja,"8739+PCG, Lambanapu, Kec. Kambera, Kabupaten Sumba Timur, Nusa Tenggara Tim.","Kabupaten Sumba Timur, Nusa Tenggara Tim.",NUSA TENGGARA TIMUR,,Indonesia,,,,-9.6956986,120.2685799,https://maps.google.com/?cid=0x0:0xa7633fc3340799c1,
perumahan,perumahan,Kec. Lewa Tidahu,"Kabupaten Sumba Timur, Nusa Tenggara Tim.","Kabupaten Sumba Timur, Nusa Tenggara Tim.",NUSA TENGGARA TIMUR,,Indonesia,,,,-9.7603425,119.8306536,https://maps.google.com/?cid=0x0:0x728654d07ffe5c10,
perumahan,Perhimpunan Pengembang Perumahan,Injung,"8Q28+68R, Kangeli, Kec. Lewa Tidahu, Kabupaten Sumba Timur, Nusa Tenggara Tim.","Kabupaten Sumba Timur, Nusa Tenggara Tim.",NUSA TENGGARA TIMUR,,Indonesia,,,,-9.699387,119.7657663,https://maps.google.com/?cid=0x0:0xb707c387aef55280,
perumahan,Komplek perumahan,UMA WORI,"5QRJ+WX6, Parengu, Kec. Lewa Tidahu, Kabupaten Sumba Timur, Nusa Tenggara Tim.","Kabupaten Sumba Timur, Nusa Tenggara Tim.",NUSA TENGGARA TIMUR,,Indonesia,,,,-9.8077125,119.7823906,https://maps.google.com/?cid=0x0:0x23a6e69e271333ea,
perumahan,Pembangunan Perumahan,Laitena,"6RR2+7P8, Kangeli, Kec. Lewa Tidahu, Kabupaten Sumba Timur, Nusa Tenggara Tim.","Kabupaten Sumba Timur, Nusa Tenggara Tim.",NUSA TENGGARA TIMUR,,Indonesia,,,,-9.7593498,119.8018423,https://maps.google.com/?cid=0x0:0xe59efca809cdef39,
perumahan,Komplek perumahan,Tanah R. NDJURUMBAJA,"6RG5+RF, Bidi Praing, Kec. Lewa Tidahu, Kabupaten Sumba Timur, Nusa Tenggara Tim.","Kabupaten Sumba Timur, Nusa Tenggara Tim.",NUSA TENGGARA TIMUR,,Indonesia,,,,-9.7729897,119.8087249,https://maps.google.com/?cid=0x0:0xe7e4c2fbce81ac7b,
perumahan,Komplek perumahan,Lewa Jalur Gaza,"8V2J+377, Jln. Jalur Gaza, Lewapaku, Kec. Lewa, Kabupaten Sumba Timur, Nusa Tenggara Tim.","Kabupaten Sumba Timur, Nusa Tenggara Tim.",NUSA TENGGARA TIMUR,,Indonesia,,,,-9.6998328,119.8806714,https://maps.google.com/?cid=0x0:0xbf3c7e097522bc83,
perumahan,Komplek perumahan,Kambumoru,"5RXW+MPM, Lai Hawu, Kec. Lewa Tidahu, Kabupaten Sumba Timur, Nusa Tenggara Tim.","Kabupaten Sumba Timur, Nusa Tenggara Tim.",NUSA TENGGARA TIMUR,,Indonesia,,,,-9.8007974,119.8468043,https://maps.google.com/?cid=0x0:0x517e704ee17a4371,
perumahan,Pembangunan Perumahan,Kampung Mallabu,"6RH7+2P, Lai Hawu, Kec. Lewa Tidahu, Kabupaten Sumba Timur, Nusa Tenggara Tim.","Kabupaten Sumba Timur, Nusa Tenggara Tim.",NUSA TENGGARA TIMUR,,Indonesia,,,,-9.7724092,119.8143236,https://maps.google.com/?cid=0x0:0x67778a85660374f8,
perumahan,Perumahan,Lewa paku nusa tenggara timur,"7VWG+F7Q, Lewapaku, Kec. Lewa, Kabupaten Sumba Timur, Nusa Tenggara Tim.","Kabupaten Sumba Timur, Nusa Tenggara Tim.",NUSA TENGGARA TIMUR,,Indonesia,,,,-9.7037906,119.8757349,https://maps.google.com/?cid=0x0:0xf774c412b1b4578f,
perumahan,Komplek perumahan,Rambu crish,"6RWQ+WRG, Lai Hawu, Kec. Lewa Tidahu, Kabupaten Sumba Timur, Nusa Tenggara Tim.","Kabupaten Sumba Timur, Nusa Tenggara Tim.",NUSA TENGGARA TIMUR,,Indonesia,,,,-9.7527838,119.8397195,https://maps.google.com/?cid=0x0:0x183301df036eb1b2,
perumahan,Komplek perumahan,Uma mbakul,"4Q7M+6WW, Mondu Lambi, Kec. Lewa Tidahu, Kabupaten Sumba Timur, Nusa Tenggara Tim.","Kabupaten Sumba Timur, Nusa Tenggara Tim.",NUSA TENGGARA TIMUR,,Indonesia,,,,-9.8868759,119.7848228,https://maps.google.com/?cid=0x0:0xb74e583e51ab523b,
perumahan,Perhimpunan Pengembang Perumahan,Lambakari,"7RRV+79C, Kambata Wundut, Kec. Lewa, Kabupaten Sumba Timur, Nusa Tenggara Tim.","Kabupaten Sumba Timur, Nusa Tenggara Tim.",NUSA TENGGARA TIMUR,,Indonesia,,,,-9.7093049,119.8433921,https://maps.google.com/?cid=0x0:0xb65604284786da7b,
perumahan,Komplek perumahan,Rumah Opang Maramba Njara,"6RG6+WJ, Lai Hawu, Kec. Lewa Tidahu, Kabupaten Sumba Timur, Nusa Tenggara Tim.","Kabupaten Sumba Timur, Nusa Tenggara Tim.",NUSA TENGGARA TIMUR,,Indonesia,,,,-9.7727089,119.8115137,https://maps.google.com/?cid=0x0:0x4fcc7c6d00b66345,
perumahan,Komplek perumahan,UMBU ROMA RUNUWALI,"5RXW+MPM, RW.Kambumoru, Lai Hawu, Kec. Lewa Tidahu, Kabupaten Sumba Timur, Nusa Tenggara Tim.","Kabupaten Sumba Timur, Nusa Tenggara Tim.",NUSA TENGGARA TIMUR,,Indonesia,,,,-9.8007974,119.8468043,https://maps.google.com/?cid=0x0:0x601d572132945969,
perumahan,Pembangunan Perumahan,Desa Lai Hau,"6RWP+9Q7, RT.Alfret/RW.Tauwali, Lai Hawu, Kec. Lewa Tidahu, Kabupaten Sumba Timur, Nusa Tenggara Tim.","Kabupaten Sumba Timur, Nusa Tenggara Tim.",NUSA TENGGARA TIMUR,,Indonesia,,,,-9.8007974,119.8468043,https://maps.google.com/?cid=0x0:0x6f41f7334f6a2727,
perumahan,Pembangunan Perumahan,LEDING,"4QMH+PV5, Mondu Lambi, Kec. Lewa Tidahu, Kabupaten Sumba Timur, Nusa Tenggara Tim.","Kabupaten Sumba Timur, Nusa Tenggara Tim.",NUSA TENGGARA TIMUR,,Indonesia,,,,-9.8657313,119.7797494,https://maps.google.com/?cid=0x0:0xf1a57ce7c2f1351,
perumahan,Gedung Apartemen,Guru Ner Praing,"4QQJ+FQX, Mondu Lambi, Kec. Lewa Tidahu, Kabupaten Sumba Timur, Nusa Tenggara Tim.","Kabupaten Sumba Timur, Nusa Tenggara Tim.",NUSA TENGGARA TIMUR,,Indonesia,82237426694.0,,,-9.8612667,119.7819762,https://maps.google.com/?cid=0x0:0x7dbcf03e9c0e9956,
perumahan,Komplek perumahan,Gredy,"4QFJ+6GV, Mondu Lambi, Kec. Lewa Tidahu, Kabupaten Sumba Timur, Nusa Tenggara Tim.","Kabupaten Sumba Timur, Nusa Tenggara Tim.",NUSA TENGGARA TIMUR,,Indonesia,,,,-9.8768879,119.7812845,https://maps.google.com/?cid=0x0:0x421c472af8ad814a,
perumahan,Komplek perumahan,Uma MATOLANG,"5QGJ+V7, Umamanu, Kec. Lewa Tidahu, Kabupaten Sumba Timur, Nusa Tenggara Tim.","Kabupaten Sumba Timur, Nusa Tenggara Tim.",NUSA TENGGARA TIMUR,,Indonesia,,,,-9.8228288,119.7807427,https://maps.google.com/?cid=0x0:0x26ecd9474ed069ab,
perumahan,Pembangunan Perumahan,Marga mandau wolai,"4QGM+W3, Mondu Lambi, Kec. Lewa Tidahu, Kabupaten Sumba Timur, Nusa Tenggara Tim.","Kabupaten Sumba Timur, Nusa Tenggara Tim.",NUSA TENGGARA TIMUR,,Indonesia,,,,-9.8726517,119.7827121,https://maps.google.com/?cid=0x0:0xc48b771f541a8d20,
perumahan,Komplek perumahan,Tumbu Karambu (TK),"4QMH+MWV, Mondu Lambi, Kec. Lewa Tidahu, Kabupaten Sumba Timur, Nusa Tenggara Tim.","Kabupaten Sumba Timur, Nusa Tenggara Tim.",NUSA TENGGARA TIMUR,,Indonesia,,,,-9.8657527,119.7797868,https://maps.google.com/?cid=0x0:0xefa288a68fb5cb4b,
perumahan,Pembangunan Perumahan,Alfret Tauwali,"5RXW+MPM, Lai Hawu, Kec. Lewa Tidahu, Kabupaten Sumba Timur, Nusa Tenggara Tim.","Kabupaten Sumba Timur, Nusa Tenggara Tim.",NUSA TENGGARA TIMUR,,Indonesia,,,,-9.8007974,119.8468043,https://maps.google.com/?cid=0x0:0x6c46bd38a353b886,
perumahan,Pembangunan Perumahan,Rmh Bpak. Welem,"7V95+7H, Tanarara, Kec. Lewa, Kabupaten Sumba Timur, Nusa Tenggara Tim.","Kabupaten Sumba Timur, Nusa Tenggara Tim.",NUSA TENGGARA TIMUR,,Indonesia,,,,-9.731821,119.858877,https://maps.google.com/?cid=0x0:0x36f93003526c0b45,
perumahan,Komplek perumahan,Lewa tanarara Rumah Medi,"7VCH+HW7, Tanarara, Kec. Lewa, Kabupaten Sumba Timur, Nusa Tenggara Tim.","Kabupaten Sumba Timur, Nusa Tenggara Tim.",NUSA TENGGARA TIMUR,,Indonesia,,,,-9.7285863,119.8798003,https://maps.google.com/?cid=0x0:0x75c5380a5306bcaa,
perumahan,Pembangunan Perumahan,"La Pau Lai Hau,","6RWQ+RWQ, Lai Hawu, Kec. Lewa Tidahu, Kabupaten Sumba Timur, Nusa Tenggara Tim.","Kabupaten Sumba Timur, Nusa Tenggara Tim.",NUSA TENGGARA TIMUR,,Indonesia,,,,-9.7529134,119.8398563,https://maps.google.com/?cid=0x0:0x9acf7a5357027dae,
perumahan,Perhimpunan Pengembang Perumahan,Bidi Praing,"5R8G+J99, Lai Hawu, Kec. Lewa Tidahu, Kabupaten Sumba Timur, Nusa Tenggara Tim.","Kabupaten Sumba Timur, Nusa Tenggara Tim.",NUSA TENGGARA TIMUR,,Indonesia,,,,-9.8334691,119.8259945,https://maps.google.com/?cid=0x0:0xcdf679f3e8da46e2,
perumahan,perumahan,Kec. Katala Hamu Lingu,"Kabupaten Sumba Timur, Nusa Tenggara Tim.","Kabupaten Sumba Timur, Nusa Tenggara Tim.",NUSA TENGGARA TIMUR,,Indonesia,,,,-9.846202,119.943223,https://maps.google.com/?cid=0x0:0x4717f412d0244797,
perumahan,perumahan,Rumah Bapa Padjaru Diwa,"52V7+HP5, Mandahu, Kec. Katala Hamu Lingu, Kabupaten Sumba Timur, Nusa Tenggara Tim.","Kabupaten Sumba Timur, Nusa Tenggara Tim.",NUSA TENGGARA TIMUR,,Indonesia,,,,-9.8061028,120.0143604,https://maps.google.com/?cid=0x0:0x65aee6a4f8bc6ca9,
perumahan,Kantor Perusahaan,Desa Praibakul- Kahali,"4V65+99C, Prai Bakul, Kec. Katala Hamu Lingu, Kabupaten Sumba Timur, Nusa Tenggara Tim.","Kabupaten Sumba Timur, Nusa Tenggara Tim.",NUSA TENGGARA TIMUR,,Indonesia,,,,-9.8890702,119.8583772,https://maps.google.com/?cid=0x0:0x891d4d636d4e012c,
perumahan,Pembangunan Perumahan,Kintal Matius Kalola Yiwa,"5XVW+F6, Mandahu, Kec. Katala Hamu Lingu, Kabupaten Sumba Timur, Nusa Tenggara Tim.","Kabupaten Sumba Timur, Nusa Tenggara Tim.",NUSA TENGGARA TIMUR,,Indonesia,,,,-9.806344,119.995594,https://maps.google.com/?cid=0x0:0xbe7a42d496a181da,
perumahan,Rumah wisata,Rumah SIMON JURUMANA,"4VJ4+69W, Prai Bakul, Kec. Katala Hamu Lingu, Kabupaten Sumba Timur, Nusa Tenggara Tim.","Kabupaten Sumba Timur, Nusa Tenggara Tim.",NUSA TENGGARA TIMUR,,Indonesia,,,,-9.8693904,119.8559633,https://maps.google.com/?cid=0x0:0xcff995d029c2e135,
perumahan,Perhimpunan Pengembang Perumahan,Katuada ukut,"4X92+X9F, Lai Lara, Kec. Katala Hamu Lingu, Kabupaten Sumba Timur, Nusa Tenggara Tim.","Kabupaten Sumba Timur, Nusa Tenggara Tim.",NUSA TENGGARA TIMUR,,Indonesia,,,,-9.8800685,119.950926,https://maps.google.com/?cid=0x0:0x6bc6b71caef840a2,
perumahan,Perhimpunan Pengembang Perumahan,Kombapari,"6W8F+H26, Matawai Amahu, Kec. Katala Hamu Lingu, Kabupaten Sumba Timur, Nusa Tenggara Tim.","Kabupaten Sumba Timur, Nusa Tenggara Tim.",NUSA TENGGARA TIMUR,,Indonesia,,,,-9.7835762,119.9225025,https://maps.google.com/?cid=0x0:0x8d47b34f701f8060,
perumahan,Pembangunan Perumahan,KWT Pangga Mandang,"6W7P+VJH, Kombapari, Kec. Katala Hamu Lingu, Kabupaten Sumba Timur, Nusa Tenggara Tim.","Kabupaten Sumba Timur, Nusa Tenggara Tim.",NUSA TENGGARA TIMUR,,Indonesia,,,,-9.7853535,119.9363936,https://maps.google.com/?cid=0x0:0xcc36835e3008d998,
perumahan,Komplek perumahan,Uma mbakul,"4Q7M+6WW, Mondu Lambi, Kec. Lewa Tidahu, Kabupaten Sumba Timur, Nusa Tenggara Tim.","Kabupaten Sumba Timur, Nusa Tenggara Tim.",NUSA TENGGARA TIMUR,,Indonesia,,,,-9.8868759,119.7848228,https://maps.google.com/?cid=0x0:0xb74e583e51ab523b,
perumahan,Komplek perumahan,Mess Putri YPPII,"5W7P+89, Lai Lara, Kec. Katala Hamu Lingu, Kabupaten Sumba Timur, Nusa Tenggara Tim.","Kabupaten Sumba Timur, Nusa Tenggara Tim.",NUSA TENGGARA TIMUR,,Indonesia,,,,-9.8366448,119.9359276,https://maps.google.com/?cid=0x0:0x80e8117e05a361e8,
perumahan,Komplek perumahan,UMBU ROMA RUNUWALI,"5RXW+MPM, RW.Kambumoru, Lai Hawu, Kec. Lewa Tidahu, Kabupaten Sumba Timur, Nusa Tenggara Tim.","Kabupaten Sumba Timur, Nusa Tenggara Tim.",NUSA TENGGARA TIMUR,,Indonesia,,,,-9.8007974,119.8468043,https://maps.google.com/?cid=0x0:0x601d572132945969,
perumahan,perumahan,Puskesmas Pembantu Desa Mandahu,"52R8+M7, Mandahu, Kec. Katala Hamu Lingu, Kabupaten Sumba Timur, Nusa Tenggara Tim.","Kabupaten Sumba Timur, Nusa Tenggara Tim.",NUSA TENGGARA TIMUR,,Indonesia,,,,-9.8083236,120.0156429,https://maps.google.com/?cid=0x0:0xad29a6e5f7634067,
perumahan,Gedung Apartemen,Rumah S.k Ta'u woritta,"GKS kanjonga bakul, Jl.waingapu-lewa (praihambuli km 47) samping","Kabupaten Sumba Timur, Nusa Tenggara Tim.",NUSA TENGGARA TIMUR,,Indonesia,,,,-9.7406301,119.9652556,https://maps.google.com/?cid=0x0:0xc4cc44f1988d9385,
perumahan,Komplek perumahan,Kambumoru,"5RXW+MPM, Lai Hawu, Kec. Lewa Tidahu, Kabupaten Sumba Timur, Nusa Tenggara Tim.","Kabupaten Sumba Timur, Nusa Tenggara Tim.",NUSA TENGGARA TIMUR,,Indonesia,,,,-9.8007974,119.8468043,https://maps.google.com/?cid=0x0:0x517e704ee17a4371,
perumahan,Komplek perumahan,Rumah prabu,"7X56+29, Kahiri, Nggaha Oriangu, Kabupaten Sumba Timur, Nusa Tenggara Tim.","Kabupaten Sumba Timur, Nusa Tenggara Tim.",NUSA TENGGARA TIMUR,,Indonesia,,,,-9.7423991,119.9608962,https://maps.google.com/?cid=0x0:0xa24e3f8acab80292,
perumahan,Pondok,Rumah Petrus Mbolu Manggal,"5RXW+MPM, Lai Hawu, Kec. Lewa Tidahu, Kabupaten Sumba Timur, Nusa Tenggara Tim.","Kabupaten Sumba Timur, Nusa Tenggara Tim.",NUSA TENGGARA TIMUR,,Indonesia,,,,-9.8007974,119.8468043,https://maps.google.com/?cid=0x0:0x8db97ebec8bce40d,
perumahan,Pembangunan Perumahan,Alfret Tauwali,"5RXW+MPM, Lai Hawu, Kec. Lewa Tidahu, Kabupaten Sumba Timur, Nusa Tenggara Tim.","Kabupaten Sumba Timur, Nusa Tenggara Tim.",NUSA TENGGARA TIMUR,,Indonesia,,,,-9.8007974,119.8468043,https://maps.google.com/?cid=0x0:0x6c46bd38a353b886,
perumahan,perumahan,Pataning Manu,"7V52+CH7, Tanarara, Kec. Lewa, Kabupaten Sumba Timur, Nusa Tenggara Tim.","Kabupaten Sumba Timur, Nusa Tenggara Tim.",NUSA TENGGARA TIMUR,,Indonesia,,,,-9.7412077,119.8529092,https://maps.google.com/?cid=0x0:0xf5f184bad063fa3d,
perumahan,Pembangunan Perumahan,Desa Lai Hau,"6RWP+9Q7, RT.Alfret/RW.Tauwali, Lai Hawu, Kec. Lewa Tidahu, Kabupaten Sumba Timur, Nusa Tenggara Tim.","Kabupaten Sumba Timur, Nusa Tenggara Tim.",NUSA TENGGARA TIMUR,,Indonesia,,,,-9.8007974,119.8468043,https://maps.google.com/?cid=0x0:0x6f41f7334f6a2727,
perumahan,Pusat Kesehatan Masyarakat,Puskesmas Kombapari,"6W7P+VJH, Kombapari, Kec. Katala Hamu Lingu, Kabupaten Sumba Timur, Nusa Tenggara Tim.","Kabupaten Sumba Timur, Nusa Tenggara Tim.",NUSA TENGGARA TIMUR,,Indonesia,,,,-9.7853116,119.9365998,https://maps.google.com/?cid=0x0:0x8c9043fae92dd393,
perumahan,perumahan,Tumbukarambu Umabakul,"4Q7P+PC, Mondu Lambi, Kec. Lewa Tidahu, Kabupaten Sumba Timur, Nusa Tenggara Tim.","Kabupaten Sumba Timur, Nusa Tenggara Tim.",NUSA TENGGARA TIMUR,,Indonesia,,,,-9.8856974,119.7860632,https://maps.google.com/?cid=0x0:0x3af088d4e39d0f22,
perumahan,perumahan,Kec. Kanatang,"Kabupaten Sumba Timur, Nusa Tenggara Tim.","Kabupaten Sumba Timur, Nusa Tenggara Tim.",NUSA TENGGARA TIMUR,,Indonesia,,,,-9.6379993,120.2386367,https://maps.google.com/?cid=0x0:0x943312a7843cb51f,
perumahan,Universitas,Gang. Nusantara Perumahan Kanatang,"Perumahan No.14 Blok J1, Temu, Kec. Kanatang, Kabupaten Sumba Timur, Nusa Tenggara Tim.","Kabupaten Sumba Timur, Nusa Tenggara Tim.",NUSA TENGGARA TIMUR,,Indonesia,,,,-9.6355586,120.2341417,https://maps.google.com/?cid=0x0:0x204437b09118d6e9,
perumahan,Komplek perumahan,Kali Kering Perumahan Kanatang,"967M+F6F, Temu, Kec. Kanatang, Kabupaten Sumba Timur, Nusa Tenggara Tim.","Kabupaten Sumba Timur, Nusa Tenggara Tim.",NUSA TENGGARA TIMUR,,Indonesia,,,,-9.6367832,120.2341289,https://maps.google.com/?cid=0x0:0x20a4a568a2084c45,
perumahan,Pembangunan Perumahan,Perumahan Graha Mandiri Permai,"Sakura Road, Kabawatu, Temu, Kec. Kanatang, Kabupaten Sumba Timur, Nusa Tenggara Tim.","Kabupaten Sumba Timur, Nusa Tenggara Tim.",NUSA TENGGARA TIMUR,,Indonesia,81337033999.0,,,-9.634475,120.235053,https://maps.google.com/?cid=0x0:0xada880e6b1cb67b1,
perumahan,Komplek perumahan,"NTT, SUMBA TIMUR, WAINGAPU, KAMPUNG BARU TANJUNG","86XW+HQ7, Hambala, Kec. Kota Waingapu, Kabupaten Sumba Timur, Nusa Tenggara Tim.","Kabupaten Sumba Timur, Nusa Tenggara Tim.",NUSA TENGGARA TIMUR,,Indonesia,81246402330.0,,,-9.6510893,120.2469196,https://maps.google.com/?cid=0x0:0x9e2b1be2a86906c6,
perumahan,Kompleks Apartemen,LKB,"Temu, Kec. Kanatang, Kabupaten Sumba Timur, Nusa Tenggara Tim.","Kabupaten Sumba Timur, Nusa Tenggara Tim.",NUSA TENGGARA TIMUR,,Indonesia,82247491284.0,,,-9.6594509,120.2344498,https://maps.google.com/?cid=0x0:0xa4c93c68e4d20c52,
perumahan,Universitas,Blok J Perumahan Kanatang,"967M+VM4, Temu, Kec. Kanatang, Kabupaten Sumba Timur, Nusa Tenggara Tim.","Kabupaten Sumba Timur, Nusa Tenggara Tim.",NUSA TENGGARA TIMUR,,Indonesia,,,,-9.6354786,120.2342431,https://maps.google.com/?cid=0x0:0x6e74ad73478a9c79,
perumahan,Universitas,Gerbang Utama Perumahan Kanatang,"968P+5VM, Temu, Kec. Kanatang, Kabupaten Sumba Timur, Nusa Tenggara Tim.","Kabupaten Sumba Timur, Nusa Tenggara Tim.",NUSA TENGGARA TIMUR,,Indonesia,,,,-9.6345293,120.2371735,https://maps.google.com/?cid=0x0:0x1a1ccaa254bd58a0,
perumahan,Komplek perumahan,Home Pay Kanatang,"96MP+4G, Temu, Kec. Kanatang, Kabupaten Sumba Timur, Nusa Tenggara Tim.","Kabupaten Sumba Timur, Nusa Tenggara Tim.",NUSA TENGGARA TIMUR,,Indonesia,,,,-9.6172359,120.2363771,https://maps.google.com/?cid=0x0:0x57a932a685d46932,
perumahan,Komplek perumahan,Jalan Sandalwood Perumahan Kanatang,"967M+VPR, Temu, Kec. Kanatang, Kabupaten Sumba Timur, Nusa Tenggara Tim.","Kabupaten Sumba Timur, Nusa Tenggara Tim.",NUSA TENGGARA TIMUR,,Indonesia,,,,-9.6352559,120.2342664,https://maps.google.com/?cid=0x0:0xdca814ce0b8b88ba,
perumahan,Komplek perumahan,KABARU,"96GQ+RFP, Temu, Kec. Kanatang, Kabupaten Sumba Timur, Nusa Tenggara Tim.","Kabupaten Sumba Timur, Nusa Tenggara Tim.",NUSA TENGGARA TIMUR,,Indonesia,,,,-9.6229206,120.2387081,https://maps.google.com/?cid=0x0:0x2e62ea4b4f173d17,
perumahan,Komplek perumahan,Kenzo,"86MM+4HX, Temu, Kec. Kanatang, Kabupaten Sumba Timur, Nusa Tenggara Tim.","Kabupaten Sumba Timur, Nusa Tenggara Tim.",NUSA TENGGARA TIMUR,,Indonesia,,,,-9.667127,120.2339911,https://maps.google.com/?cid=0x0:0x16fd9374e67e2825,
perumahan,Komplek perumahan,Rumah Dewi Sartika,"96FQ+C5X, Temu, Kec. Kanatang, Kabupaten Sumba Timur, Nusa Tenggara Tim.","Kabupaten Sumba Timur, Nusa Tenggara Tim.",NUSA TENGGARA TIMUR,,Indonesia,,,,-9.6254038,120.2397346,https://maps.google.com/?cid=0x0:0xd8b81193f5c2a0c8,
perumahan,Komplek perumahan,Rumah paulus Bulu,"86QQ+775, Temu, Kec. Kanatang, Kabupaten Sumba Timur, Nusa Tenggara Tim.","Kabupaten Sumba Timur, Nusa Tenggara Tim.",NUSA TENGGARA TIMUR,,Indonesia,,,,-9.6618666,120.2382342,https://maps.google.com/?cid=0x0:0xc17af68bf810ed9d,
perumahan,Komplek perumahan,RUMAH TALENTA Ria L Toruan,"967M+F6M, Temu, Kec. Kanatang, Kabupaten Sumba Timur, Nusa Tenggara Tim.","Kabupaten Sumba Timur, Nusa Tenggara Tim.",NUSA TENGGARA TIMUR,,Indonesia,,,,-9.6362943,120.2330505,https://maps.google.com/?cid=0x0:0x90d6b79681a3d4c9,
perumahan,Universitas,pantai karang kanatang,"96FR+GPM, Unnamed Road, Temu, Kec. Kanatang, Kabupaten Sumba Timur, Nusa Tenggara Tim.","Kabupaten Sumba Timur, Nusa Tenggara Tim.",NUSA TENGGARA TIMUR,,Indonesia,,,,-9.626165,120.2418054,https://maps.google.com/?cid=0x0:0xafc31902cb3c7ac0,
perumahan,Gereja Kristen,PDX Belakang Gereja Ke Sana Lagi,"963Q+V57, Temu, Kec. Kanatang, Kabupaten Sumba Timur, Nusa Tenggara Tim.","Kabupaten Sumba Timur, Nusa Tenggara Tim.",NUSA TENGGARA TIMUR,,Indonesia,,,,-9.6453455,120.2379295,https://maps.google.com/?cid=0x0:0x358a03cc47754e65,
perumahan,Komplek perumahan,Lapangan Mini Perumahan Kanatang,"967P+V27, Temu, Kec. Kanatang, Kabupaten Sumba Timur, Nusa Tenggara Tim.","Kabupaten Sumba Timur, Nusa Tenggara Tim.",NUSA TENGGARA TIMUR,,Indonesia,,,,-9.6349084,120.2353627,https://maps.google.com/?cid=0x0:0x9460171c3ffd6615,
perumahan,Komplek perumahan,Rumah Anak Tiles,"86WP+8P2, Temu, Kec. Kanatang, Kabupaten Sumba Timur, Nusa Tenggara Tim.","Kabupaten Sumba Timur, Nusa Tenggara Tim.",NUSA TENGGARA TIMUR,,Indonesia,,,,-9.6542333,120.2367783,https://maps.google.com/?cid=0x0:0x629049c86cdf772,
perumahan,Pembangunan Perumahan,U.N.Karipi Lailunggi,"86JM+GP, Temu, Kec. Kanatang, Kabupaten Sumba Timur, Nusa Tenggara Tim.","Kabupaten Sumba Timur, Nusa Tenggara Tim.",NUSA TENGGARA TIMUR,,Indonesia,,,,-9.668713,120.2343374,https://maps.google.com/?cid=0x0:0x768a3b8529664700,
perumahan,perumahan,Kampung nangga,"96VG+V9, Kuta, Kec. Kanatang, Kabupaten Sumba Timur, Nusa Tenggara Tim.","Kabupaten Sumba Timur, Nusa Tenggara Tim.",NUSA TENGGARA TIMUR,,Indonesia,,,,-9.6051924,120.2259899,https://maps.google.com/?cid=0x0:0xb0417d78423b40b6,
perumahan,Komplek perumahan,Rumah Bapak Agus Triyono,"968R+264, Temu, Kec. Kanatang, Kabupaten Sumba Timur, Nusa Tenggara Tim.","Kabupaten Sumba Timur, Nusa Tenggara Tim.",NUSA TENGGARA TIMUR,,Indonesia,,,,-9.6349953,120.2405914,https://maps.google.com/?cid=0x0:0x9f10996a0d41de47,
perumahan,Komplek perumahan,Albertus wila,"964M+6P, Temu, Kec. Kanatang, Kabupaten Sumba Timur, Nusa Tenggara Tim.","Kabupaten Sumba Timur, Nusa Tenggara Tim.",NUSA TENGGARA TIMUR,,Indonesia,,,,-9.644441,120.234343,https://maps.google.com/?cid=0x0:0xcc13789b07e0e15e,
perumahan,perumahan,Kec. Ngadu Ngala,"Kabupaten Sumba Timur, Nusa Tenggara Tim.","Kabupaten Sumba Timur, Nusa Tenggara Tim.",NUSA TENGGARA TIMUR,,Indonesia,,,,-10.2419299,120.3799454,https://maps.google.com/?cid=0x0:0xbe8629aa4acef0bc,
perumahan,Komplek perumahan,Rumah Kepala Desa,"VCQP+5PP, Prau Raming, Kec. Ngadu Ngala, Kabupaten Sumba Timur, Nusa Tenggara Tim.","Kabupaten Sumba Timur, Nusa Tenggara Tim.",NUSA TENGGARA TIMUR,,Indonesia,,,,-10.1109479,120.4372734,https://maps.google.com/?cid=0x0:0xdb29d139b33ae9ba,
perumahan,Tempat Ibadah,Kakaha,"Q9H3+HR, Kakaha, Kec. Ngadu Ngala, Kabupaten Sumba Timur, Nusa Tenggara Tim.","Kabupaten Sumba Timur, Nusa Tenggara Tim.",NUSA TENGGARA TIMUR,,Indonesia,,,,-10.2210892,120.3545581,https://maps.google.com/?cid=0x0:0x4bd89ca49633770,
perumahan,Perumahan rakyat,Natan,"Q95C+RHX, Kakaha, Kec. Ngadu Ngala, Kabupaten Sumba Timur, Nusa Tenggara Tim.","Kabupaten Sumba Timur, Nusa Tenggara Tim.",NUSA TENGGARA TIMUR,,Indonesia,,,,-10.2403996,120.3714912,https://maps.google.com/?cid=0x0:0x79ac0df122a708f4,
perumahan,perumahan,Perumahan traslok. Kakaha SP2. Langgay,"R9G7+9HQ, Kakaha, Kec. Ngadu Ngala, Kabupaten Sumba Timur, Nusa Tenggara Tim.","Kabupaten Sumba Timur, Nusa Tenggara Tim.",NUSA TENGGARA TIMUR,,Indonesia,,,,-10.17405,120.363998,https://maps.google.com/?cid=0x0:0x8a637483785680e9,
perumahan,Komplek perumahan,Hangawa kompleks,"Q985+6P, Kakaha, Kec. Ngadu Ngala, Kabupaten Sumba Timur, Nusa Tenggara Tim.","Kabupaten Sumba Timur, Nusa Tenggara Tim.",NUSA TENGGARA TIMUR,,Indonesia,,,,-10.2344617,120.3592714,https://maps.google.com/?cid=0x0:0x45acc09c54f243b6,
perumahan,Komplek perumahan,Sekdes Kakaha,"R9G7+9HQ, Kakaha, Kec. Ngadu Ngala, Kabupaten Sumba Timur, Nusa Tenggara Tim.","Kabupaten Sumba Timur, Nusa Tenggara Tim.",NUSA TENGGARA TIMUR,,Indonesia,,,,-10.17405,120.363998,https://maps.google.com/?cid=0x0:0x98b882d6a8f55013,
perumahan,Pembangunan Perumahan,Neysillah domu,"Q96F+2FF, Kakaha, Kec. Ngadu Ngala, Kabupaten Sumba Timur, Nusa Tenggara Tim.","Kabupaten Sumba Timur, Nusa Tenggara Tim.",NUSA TENGGARA TIMUR,,Indonesia,,,,-10.240109,120.374072,https://maps.google.com/?cid=0x0:0x2b71725c3b869f69,
perumahan,Komplek perumahan,Musa Hiwal Nggunggal,"Q96J+P9, Hamba Wutang, Kec. Ngadu Ngala, Kabupaten Sumba Timur, Nusa Tenggara Tim.","Kabupaten Sumba Timur, Nusa Tenggara Tim.",NUSA TENGGARA TIMUR,,Indonesia,,,,-10.2382079,120.3809996,https://maps.google.com/?cid=0x0:0x2bc8f9ac77297542,
perumahan,Komplek perumahan,Lok.Transmigrasi SP 2 Kakaha,"Q92J+W72, Hamba Wutang, Kec. Ngadu Ngala, Kabupaten Sumba Timur, Nusa Tenggara Tim.","Kabupaten Sumba Timur, Nusa Tenggara Tim.",NUSA TENGGARA TIMUR,,Indonesia,,,,-10.2477479,120.3806318,https://maps.google.com/?cid=0x0:0x3315167aabdc6a01,
perumahan,Komplek perumahan,Waingapu,"Q9H3+HR, Kakaha, Kec. Ngadu Ngala, Kabupaten Sumba Timur, Nusa Tenggara Tim.","Kabupaten Sumba Timur, Nusa Tenggara Tim.",NUSA TENGGARA TIMUR,,Indonesia,,,,-10.2210625,120.3545625,https://maps.google.com/?cid=0x0:0x3856ab9f79f8e8e0,
perumahan,perumahan,"Kakaha ,priang","Q9WH+276, Kakaha, Kec. Ngadu Ngala, Kabupaten Sumba Timur, Nusa Tenggara Tim.","Kabupaten Sumba Timur, Nusa Tenggara Tim.",NUSA TENGGARA TIMUR,,Indonesia,,,,-10.2049568,120.378138,https://maps.google.com/?cid=0x0:0x1a3d4c504b965751,
perumahan,Komplek perumahan,Kanimbu/ pamangahung,"P9RG+J7, Kakaha, Kec. Ngadu Ngala, Kabupaten Sumba Timur, Nusa Tenggara Tim.","Kabupaten Sumba Timur, Nusa Tenggara Tim.",NUSA TENGGARA TIMUR,,Indonesia,,,,-10.258466,120.375679,https://maps.google.com/?cid=0x0:0x8828f76a6dc69506,
perumahan,Komplek perumahan,Lapawa,"R9WR+GJQ, Prau Raming, Kec. Ngadu Ngala, Kabupaten Sumba Timur, Nusa Tenggara Tim.","Kabupaten Sumba Timur, Nusa Tenggara Tim.",NUSA TENGGARA TIMUR,,Indonesia,,,,-10.1536654,120.3916175,https://maps.google.com/?cid=0x0:0xa756a0a6ffcd0fa2,
perumahan,Komplek perumahan,Rumah domu huka pati praikayimbi,"Q96J+P9, Hamba Wutang, Kec. Ngadu Ngala, Kabupaten Sumba Timur, Nusa Tenggara Tim.","Kabupaten Sumba Timur, Nusa Tenggara Tim.",NUSA TENGGARA TIMUR,,Indonesia,,,,-10.2382083,120.3810584,https://maps.google.com/?cid=0x0:0x11d1401959ace0be,
perumahan,Komplek perumahan,kampung pahomba,"VC7V+5F, Kabanda, Kec. Ngadu Ngala, Kabupaten Sumba Timur, Nusa Tenggara Tim.","Kabupaten Sumba Timur, Nusa Tenggara Tim.",NUSA TENGGARA TIMUR,,Indonesia,,,,-10.1369765,120.4436937,https://maps.google.com/?cid=0x0:0x50f290d7fc5849b7,
perumahan,Komplek perumahan,Kampung LAINGGADA,"VFQJ+J88, Lulundilu, Kec. Mahu, Kabupaten Sumba Timur, Nusa Tenggara Tim.","Kabupaten Sumba Timur, Nusa Tenggara Tim.",NUSA TENGGARA TIMUR,,Indonesia,,,,-10.1109524,120.4808279,https://maps.google.com/?cid=0x0:0xdf9b45ea017d4dd7,
perumahan,Komplek perumahan,"Kampung Ranga desa Lahiru,Kec.Mahu","VCQP+5PP, Prau Raming, Kec. Ngadu Ngala, Kabupaten Sumba Timur, Nusa Tenggara Tim.","Kabupaten Sumba Timur, Nusa Tenggara Tim.",NUSA TENGGARA TIMUR,,Indonesia,,,,-10.1105177,120.4366848,https://maps.google.com/?cid=0x0:0x3de0b489bf66f710,
perumahan,perumahan,"Simpang Kahambi, Kakaha","Q985+6P, Kakaha, Kec. Ngadu Ngala, Kabupaten Sumba Timur, Nusa Tenggara Tim.","Kabupaten Sumba Timur, Nusa Tenggara Tim.",NUSA TENGGARA TIMUR,,Indonesia,,,,-10.2356221,120.3589388,https://maps.google.com/?cid=0x0:0x2a304587b45ce7dd,
perumahan,Komplek perumahan,Rumah okta prakayimbi,"Q96J+P9, Hamba Wutang, Kec. Ngadu Ngala, Kabupaten Sumba Timur, Nusa Tenggara Tim.","Kabupaten Sumba Timur, Nusa Tenggara Tim.",NUSA TENGGARA TIMUR,,Indonesia,,,,-10.2381686,120.3817645,https://maps.google.com/?cid=0x0:0x4fb3138f214e1ecc,
perumahan,Komplek perumahan,Lok.Transmigrasi SP 1 Kakaha,"Q93M+CP3, Hamba Wutang, Kec. Ngadu Ngala, Kabupaten Sumba Timur, Nusa Tenggara Tim.","Kabupaten Sumba Timur, Nusa Tenggara Tim.",NUSA TENGGARA TIMUR,,Indonesia,,,,-10.2464842,120.3843008,https://maps.google.com/?cid=0x0:0x303777f1f25ff576,
perumahan,perumahan,Kec. Mahu,"Kabupaten Sumba Timur, Nusa Tenggara Tim.","Kabupaten Sumba Timur, Nusa Tenggara Tim.",NUSA TENGGARA TIMUR,,Indonesia,,,,-10.1153936,120.5069216,https://maps.google.com/?cid=0x0:0xe1b93b26d3936856,
perumahan,Komplek perumahan,"Kampung.Uma Gudang, desa Patamawai","WFWM+P7P, Patamawai, Kec. Mahu, Kabupaten Sumba Timur, Nusa Tenggara Tim.","Kabupaten Sumba Timur, Nusa Tenggara Tim.",NUSA TENGGARA TIMUR,,Indonesia,,,,-10.0530697,120.4841701,https://maps.google.com/?cid=0x0:0x3fdcd2fc7b59381f,
perumahan,Komplek perumahan,Kamp.Andawai,"WC3X+RWW, La Hiru, Kec. Mahu, Kabupaten Sumba Timur, Nusa Tenggara Tim.","Kabupaten Sumba Timur, Nusa Tenggara Tim.",NUSA TENGGARA TIMUR,,Indonesia,,,,-10.0953872,120.4498365,https://maps.google.com/?cid=0x0:0xfedb2cdad48f2d28,
perumahan,Komplek perumahan,Rumah Kepala Desa Lulundilu,"VGM4+RH9, Lulundilu, Kec. Mahu, Kabupaten Sumba Timur, Nusa Tenggara Tim.","Kabupaten Sumba Timur, Nusa Tenggara Tim.",NUSA TENGGARA TIMUR,,Indonesia,,,,-10.1155388,120.5070252,https://maps.google.com/?cid=0x0:0x4e3e8d5e1fa930df,
perumahan,Komplek perumahan,Kampung.Iri Jangga Desa Patamawai,"XF49+74, Patamawai, Kec. Mahu, Kabupaten Sumba Timur, Nusa Tenggara Tim.","Kabupaten Sumba Timur, Nusa Tenggara Tim.",NUSA TENGGARA TIMUR,,Indonesia,,,,-10.0443476,120.4677671,https://maps.google.com/?cid=0x0:0xa46083717bced9a7,
perumahan,Balai masyarakat,Patamawai kades,"XC4X+893, Patamawai, Kec. Mahu, Kabupaten Sumba Timur, Nusa Tenggara Tim.","Kabupaten Sumba Timur, Nusa Tenggara Tim.",NUSA TENGGARA TIMUR,,Indonesia,,,,-10.0442321,120.4484082,https://maps.google.com/?cid=0x0:0xecff849b0428b22c,
perumahan,Perhimpunan Pengembang Perumahan,Rumah Kampung Palindi,"VF2X+F8, Haray, Kec. Mahu, Kabupaten Sumba Timur, Nusa Tenggara Tim.","Kabupaten Sumba Timur, Nusa Tenggara Tim.",NUSA TENGGARA TIMUR,,Indonesia,,,,-10.1488412,120.4983194,https://maps.google.com/?cid=0x0:0xf24552ae450e8e2c,
perumahan,Tujuan Wisata,Rumah Kepala Desa Wairara,"WGF8+69F, Wairara, Kec. Mahu, Kabupaten Sumba Timur, Nusa Tenggara Tim.","Kabupaten Sumba Timur, Nusa Tenggara Tim.",NUSA TENGGARA TIMUR,,Indonesia,,,,-10.0769473,120.5159129,https://maps.google.com/?cid=0x0:0xb788803f7b650f3b,
perumahan,Komplek perumahan,Kampung La Uri.Desa Lulundilu,"VGM5+45, Lulundilu, Kec. Mahu, Kabupaten Sumba Timur, Nusa Tenggara Tim.","Kabupaten Sumba Timur, Nusa Tenggara Tim.",NUSA TENGGARA TIMUR,,Indonesia,,,,-10.1172355,120.5079763,https://maps.google.com/?cid=0x0:0x3182548643ac1c1d,
perumahan,Komplek perumahan,Kampung.Pamati wai Desa Lulundilu,"WF2X+67, Lulundilu, Kec. Mahu, Kabupaten Sumba Timur, Nusa Tenggara Tim.","Kabupaten Sumba Timur, Nusa Tenggara Tim.",NUSA TENGGARA TIMUR,,Indonesia,,,,-10.0994693,120.4982338,https://maps.google.com/?cid=0x0:0xddf9c58c469eb215,
perumahan,Komplek perumahan,Kampung Hamarua,"WFCW+P5, Patamawai, Kec. Mahu, Kabupaten Sumba Timur, Nusa Tenggara Tim.","Kabupaten Sumba Timur, Nusa Tenggara Tim.",NUSA TENGGARA TIMUR,,Indonesia,,,,-10.0779466,120.4947162,https://maps.google.com/?cid=0x0:0x6a2c069c2569125a,
perumahan,Komplek perumahan,Rumah Kepala Desa,"VCQP+5PP, Prau Raming, Kec. Ngadu Ngala, Kabupaten Sumba Timur, Nusa Tenggara Tim.","Kabupaten Sumba Timur, Nusa Tenggara Tim.",NUSA TENGGARA TIMUR,,Indonesia,,,,-10.1109479,120.4372734,https://maps.google.com/?cid=0x0:0xdb29d139b33ae9ba,
perumahan,Pembangunan Perumahan,Pahadanjal,"WF43+Q63, La Hiru, Kec. Mahu, Kabupaten Sumba Timur, Nusa Tenggara Tim.","Kabupaten Sumba Timur, Nusa Tenggara Tim.",NUSA TENGGARA TIMUR,,Indonesia,,,,-10.0931018,120.4530456,https://maps.google.com/?cid=0x0:0xb81b15007f7e073f,
perumahan,Komplek perumahan,Kampung Lindiwari,"WFWQ+MX, Patamawai, Kec. Mahu, Kabupaten Sumba Timur, Nusa Tenggara Tim.","Kabupaten Sumba Timur, Nusa Tenggara Tim.",NUSA TENGGARA TIMUR,,Indonesia,,,,-10.0532764,120.4899999,https://maps.google.com/?cid=0x0:0x7dd8925aac8d19bd,
perumahan,Pusat Kesehatan Anak,Simpang menuju Posyandu Laranga Desa Praikalala Kec Mahu,"XFQF+7PW, Prai Mbana, Kec. Paberiwai, Kabupaten Sumba Timur, Nusa Tenggara Tim.","Kabupaten Sumba Timur, Nusa Tenggara Tim.",NUSA TENGGARA TIMUR,,Indonesia,,,,-10.0117631,120.4743211,https://maps.google.com/?cid=0x0:0x9ce361307e9fd628,
perumahan,Komplek perumahan,Kampung La Haru Desa Lahiru,"VCVQ+76, La Hiru, Kec. Mahu, Kabupaten Sumba Timur, Nusa Tenggara Tim.","Kabupaten Sumba Timur, Nusa Tenggara Tim.",NUSA TENGGARA TIMUR,,Indonesia,,,,-10.1066731,120.4380418,https://maps.google.com/?cid=0x0:0xc7028edcb58aed6a,
perumahan,Perhimpunan Pengembang Perumahan,Kampung Au Pakambu,"WGC3+J8, Patamawai, Kec. Mahu, Kabupaten Sumba Timur, Nusa Tenggara Tim.","Kabupaten Sumba Timur, Nusa Tenggara Tim.",NUSA TENGGARA TIMUR,,Indonesia,,,,-10.0784825,120.5033316,https://maps.google.com/?cid=0x0:0x4e4e939114a49a2f,
perumahan,Komplek perumahan,Kampung padamalia,"VF8V+G8X, Haray, Kec. Mahu, Kabupaten Sumba Timur, Nusa Tenggara Tim.","Kabupaten Sumba Timur, Nusa Tenggara Tim.",NUSA TENGGARA TIMUR,,Indonesia,,,,-10.1336276,120.4933624,https://maps.google.com/?cid=0x0:0xe2f6e7a4f214b4e8,
perumahan,Komplek perumahan,Kampung.Mondu Malia,"WF47+86C, La Hiru, Kec. Mahu, Kabupaten Sumba Timur, Nusa Tenggara Tim.","Kabupaten Sumba Timur, Nusa Tenggara Tim.",NUSA TENGGARA TIMUR,,Indonesia,,,,-10.0948531,120.4628627,https://maps.google.com/?cid=0x0:0xd08cda5fe580ce16,
perumahan,Komplek perumahan,"Kampung LA,AU Desa Praimbana","XFM7+GP7, Prai Mbana, Kec. Paberiwai, Kabupaten Sumba Timur, Nusa Tenggara Tim.","Kabupaten Sumba Timur, Nusa Tenggara Tim.",NUSA TENGGARA TIMUR,,Indonesia,,,,-10.0162142,120.4643112,https://maps.google.com/?cid=0x0:0xd4110fd0ec391b38,
perumahan,Perhimpunan Pengembang Perumahan,Dusun mahu,"37CF+WPX, Lai Meta, Kec. Kambata Mapambuhang, Kabupaten Sumba Timur, Nusa Tenggara Tim.","Kabupaten Sumba Timur, Nusa Tenggara Tim.",NUSA TENGGARA TIMUR,,Indonesia,,,,-9.9276395,120.2743484,https://maps.google.com/?cid=0x0:0x5f04bede5a8ff846,
perumahan,Komplek perumahan,Kabunnu,"366X+4PH, Lai Meta, Kec. Kambata Mapambuhang, Kabupaten Sumba Timur, Nusa Tenggara Tim.","Kabupaten Sumba Timur, Nusa Tenggara Tim.",NUSA TENGGARA TIMUR,,Indonesia,,,,-9.9396997,120.2493729,https://maps.google.com/?cid=0x0:0x7b5a50987a5da412,
