Category;Real Category;Business Name;Address;City;State;Postal Code;Country;Phone;Email;Website;Latitude;Longitude;Map Link;Details Link
building materials;Toko Bahan Bangunan;PAPUA BANGUNAN;"42GX+945, Wosi, Kec. Manokwari Bar., Kabupaten Manokwari, Papua Bar. 98312";"Wosi, Kec. Manokwari Bar., Kabupaten Manokwari";PAPUA;98312;Indonesia;082198055550;;;-0.874101;1.340.478.473;https://maps.google.com/?cid=0x0:0x2c3683b193d9430f;
building materials;Toko Bahan Bangunan;ANEKA BANGUNAN;"Wosi, Kec. Manokwari Bar., Kabupaten Manokwari, Papua Bar. 98312";"Kec. Manokwari Bar., Kabupaten Manokwari";PAPUA;98312;Indonesia;081344843001;;;-0.8631883;1.340.498.559;https://maps.google.com/?cid=0x0:0x3598159af16f30ea;
building materials;building materials;Oksibil;"Tarangop, Kec. Kawor, Kabupaten Pegunungan Bintang, Papua";"Kabupaten Pegunungan Bintang, Papua";PAPUA;;Indonesia;;;;-5.080.177;140.635.803;https://maps.google.com/?cid=0x0:0xf18d2b627917ee12;
building materials;Toko Bahan Bangunan;Okabe Gallery Alam Sutera;"QM66+Q46, Jalur Sutera No.32A, Pakualam, Kec. Serpong Utara, Kota Tangerang Selatan, Banten 15320";"Jalur Sutera No.32A, Pakualam, Kec. Serpong Utara, Kota Tangerang Selatan";PAPUA;15320;Indonesia;082118888519;;;-62.381.706;1.066.605.396;https://maps.google.com/?cid=0x0:0x685a953a8450fdbb;
building materials;Landasan Pacu;Bandar Udara Kiwirok;"7PPR+H3V, Oknanggul, Kec. Kiwirok, Kabupaten Pegunungan Bintang, Papua 99574";"Oknanggul, Kec. Kiwirok, Kabupaten Pegunungan Bintang";PAPUA;99574;Indonesia;;;;-47.135.108;1.407.401.754;https://maps.google.com/?cid=0x0:0x9a9ff19978c02dc1;
building materials;Bandara;Bandar Udara Kiwi;"8P2C+WWQ, Kiwi, Kec. Kiwirok, Kabupaten Pegunungan Bintang, Papua 99574";"Kiwi, Kec. Kiwirok, Kabupaten Pegunungan Bintang";PAPUA;99574;Indonesia;;;;-46.976.622;1.407.223.698;https://maps.google.com/?cid=0x0:0x1f721eabfadb232a;
building materials;building materials;Kec. Kiwirok;"Kabupaten Pegunungan Bintang, Papua";"Kabupaten Pegunungan Bintang, Papua";PAPUA;;Indonesia;;;;-47.151.742;1.407.444.135;https://maps.google.com/?cid=0x0:0xfa9674635b933b35;
building materials;Toko Bahan Bangunan;PAPUA BANGUNAN;"42GX+945, Wosi, Kec. Manokwari Bar., Kabupaten Manokwari, Papua Bar. 98312";"Wosi, Kec. Manokwari Bar., Kabupaten Manokwari";PAPUA;98312;Indonesia;082198055550;;;-0.874101;1.340.478.473;https://maps.google.com/?cid=0x0:0x2c3683b193d9430f;
building materials;Toko Bahan Bangunan;ANEKA BANGUNAN;"Wosi, Kec. Manokwari Bar., Kabupaten Manokwari, Papua Bar. 98312";"Kec. Manokwari Bar., Kabupaten Manokwari";PAPUA;98312;Indonesia;081344843001;;;-0.8631883;1.340.498.559;https://maps.google.com/?cid=0x0:0x3598159af16f30ea;
building materials;Toko Bahan Bangunan;Okabe Gallery Alam Sutera;"QM66+Q46, Jalur Sutera No.32A, Pakualam, Kec. Serpong Utara, Kota Tangerang Selatan, Banten 15320";"Jalur Sutera No.32A, Pakualam, Kec. Serpong Utara, Kota Tangerang Selatan";PAPUA;15320;Indonesia;082118888519;;;-62.381.706;1.066.605.396;https://maps.google.com/?cid=0x0:0x685a953a8450fdbb;
building materials;Toko Batu;Kulit Batu Stone Veneer;"Jl. KH. Hasyim Ashari No.888, Nerogtog, Cipondoh, Kota Tangerang, Banten 15148";"Nerogtog, Cipondoh, Kota Tangerang";PAPUA;15148;Indonesia;089623222600;;;-62.096.246;1.066.881.603;https://maps.google.com/?cid=0x0:0x4ea461a5d1d37391;
building materials;Toko Bahan Bangunan;Tiptore Building Material;"Jl. Poros Kuda Mati, Klp. Lima, Kec. Merauke, Kabupaten Merauke, Papua 99616";"Klp. Lima, Kec. Merauke, Kabupaten Merauke";PAPUA;99616;Indonesia;082293657714;;;-85.061.763;1.404.257.632;https://maps.google.com/?cid=0x0:0xbf132c61e5517b30;
building materials;Toko Bahan Bangunan;Optima;"FCR2+RPJ, Jl. Raya Mandala, Mandala, Kec. Merauke, Kabupaten Merauke, Papua 99615";"Jl. Raya Mandala, Mandala, Kec. Merauke, Kabupaten Merauke";PAPUA;99615;Indonesia;;;;-85.079.058;1.404.017.668;https://maps.google.com/?cid=0x0:0x1f6ecf2372c263ce;
building materials;Toko Bahan Bangunan;Barito Pacific Timber Group;"Jl. Koti No.80-A, Mandala, Kec. Jayapura Utara, Kota Jayapura, Papua";"Kota Jayapura, Papua";PAPUA;;Indonesia;0967531945;;;-25.325.496;140.717.552;https://maps.google.com/?cid=0x0:0xa88e0c9e5e01ef85;
building materials;Toko Bahan Bangunan;PT. Barito Pasifik Timber;"Jl. Koti No.8 A, Numbai, Distrik Jayapura Selatan, Kota Jayapura, Papua 99222";"Numbai, Distrik Jayapura Selatan, Kota Jayapura";PAPUA;99222;Indonesia;0967536672;;;-2.543.737;140.706.905;https://maps.google.com/?cid=0x0:0x3e2ccfcc476c37f1;
building materials;building materials;Borme;"Kabupaten Pegunungan Bintang, Papua";"Kabupaten Pegunungan Bintang, Papua";PAPUA;;Indonesia;;;;-43.227.031;1.403.894.858;https://maps.google.com/?cid=0x0:0x3ae0f9e7e82ab112;
building materials;building materials;Microtel Inn  Suites by Wyndham Eagle River/Anchorage Are;"13049 Old Glenn Hwy, Eagle River, AK 99577, Amerika Serikat";Old Glenn Hwy;PAPUA;13049;Indonesia;19076226000;;;613.386.741;-149.561.794;https://maps.google.com/?cid=0x0:0xe9ffb16baefc8021;
building materials;building materials;Kec. Kiwirok Tim.;"Kabupaten Pegunungan Bintang, Papua";"Kabupaten Pegunungan Bintang, Papua";PAPUA;;Indonesia;;;;-4.743.346;1.408.487.154;https://maps.google.com/?cid=0x0:0xc88801b2edd72d55;
building materials;Landasan Pacu;Bandar Udara Kiwirok;"7PPR+H3V, Oknanggul, Kec. Kiwirok, Kabupaten Pegunungan Bintang, Papua 99574";"Oknanggul, Kec. Kiwirok, Kabupaten Pegunungan Bintang";PAPUA;99574;Indonesia;;;;-47.135.108;1.407.401.754;https://maps.google.com/?cid=0x0:0x9a9ff19978c02dc1;
building materials;Bandara;Bandar Udara Kiwi;"8P2C+WWQ, Kiwi, Kec. Kiwirok, Kabupaten Pegunungan Bintang, Papua 99574";"Kiwi, Kec. Kiwirok, Kabupaten Pegunungan Bintang";PAPUA;99574;Indonesia;;;;-46.976.622;1.407.223.698;https://maps.google.com/?cid=0x0:0x1f721eabfadb232a;
building materials;building materials;Papua 99572;"Kabupaten Pegunungan Bintang, Papua";"Kabupaten Pegunungan Bintang, Papua";PAPUA;;Indonesia;;;;-43.578.129;1.404.308.159;https://maps.google.com/?cid=0x0:0x3d3d35db4afd3dc1;
building materials;Toko Bahan Bangunan;"Papua Bangunan, CV PAPUA ABADI";"Jl. Basuki Rahmat No.780, Klawuyuk, Distrik Sorong Timur, Kota Sorong, Papua Bar. 98416";"Klawuyuk, Distrik Sorong Timur, Kota Sorong";PAPUA;98416;Indonesia;081332017550;;;-0.8954087;1.313.186.922;https://maps.google.com/?cid=0x0:0x851804bc3aa7f033;
building materials;Toko;Jaya Bangun Utama;"6GH9+VPV, Unnamed Road, Iriati, Distrik Wasior, Kabupaten Teluk Wondama, Papua Bar. 98362";"Unnamed Road, Iriati, Distrik Wasior, Kabupaten Teluk Wondama";PAPUA;98362;Indonesia;085298357980;;;-27.702.528;1.345.193.086;https://maps.google.com/?cid=0x0:0x7b7706dc36edb6d8;
building materials;Toko Bahan Bangunan;Tiptore Building Material;"Jl. Poros Kuda Mati, Klp. Lima, Kec. Merauke, Kabupaten Merauke, Papua 99616";"Klp. Lima, Kec. Merauke, Kabupaten Merauke";PAPUA;99616;Indonesia;082293657714;;;-85.061.763;1.404.257.632;https://maps.google.com/?cid=0x0:0xbf132c61e5517b30;
building materials;Kantor Perusahaan;PT. BUMI PAPUA SEVENINDO;"Jl. Mesjid Raya, Remu Utara, HBM, Kota Sorong, Papua Bar. 98416";"Remu Utara, HBM, Kota Sorong";PAPUA;98416;Indonesia;082198126653;;;-0.8807928;1.312.828.486;https://maps.google.com/?cid=0x0:0xbe773b0ac3ca8612;
building materials;Toko Perlengkapan Rumah;Batu bata kilo 8;"C7J9+FHC, Jl. Irian Kepi, Kepi, Kec. Obaa, Kabupaten Mappi, Papua 99881";"Jl. Irian Kepi, Kepi, Kec. Obaa, Kabupaten Mappi";PAPUA;99881;Indonesia;;;;-65.681.291;1.392.685.456;https://maps.google.com/?cid=0x0:0x8c512660faed3c63;
building materials;Toko Bahan Bangunan;PT. Barito Pasifik Timber;"Jl. Koti No.8 A, Numbai, Distrik Jayapura Selatan, Kota Jayapura, Papua 99222";"Numbai, Distrik Jayapura Selatan, Kota Jayapura";PAPUA;99222;Indonesia;0967536672;;;-2.543.737;140.706.905;https://maps.google.com/?cid=0x0:0x3e2ccfcc476c37f1;
building materials;building materials;Aboy;"Kabupaten Pegunungan Bintang, Papua";"Kabupaten Pegunungan Bintang, Papua";PAPUA;;Indonesia;;;;-4.237.846;1.405.964.124;https://maps.google.com/?cid=0x0:0x2598c921a3c62e1e;
building materials;Toko Bahan Bangunan;Optima;"FCR2+RPJ, Jl. Raya Mandala, Mandala, Kec. Merauke, Kabupaten Merauke, Papua 99615";"Jl. Raya Mandala, Mandala, Kec. Merauke, Kabupaten Merauke";PAPUA;99615;Indonesia;;;;-85.079.058;1.404.017.668;https://maps.google.com/?cid=0x0:0x1f6ecf2372c263ce;
building materials;Toko Bahan Bangunan;Tiptore Building Material;"Jl. Poros Kuda Mati, Klp. Lima, Kec. Merauke, Kabupaten Merauke, Papua 99616";"Klp. Lima, Kec. Merauke, Kabupaten Merauke";PAPUA;99616;Indonesia;082293657714;;;-85.061.763;1.404.257.632;https://maps.google.com/?cid=0x0:0xbf132c61e5517b30;
building materials;building materials;Distrik Pepera;"Kabupaten Pegunungan Bintang, Papua";"Kabupaten Pegunungan Bintang, Papua";PAPUA;;Indonesia;;;;-48.872.459;1.407.305.111;https://maps.google.com/?cid=0x0:0x1239d5884917d2c1;
building materials;Toko Bahan Bangunan;Depo Bangunan Mbanyu Mili;"3VQM+2GP depan balai kampung sp 2, Prafi Mulia, Distrik Prafi, Kabupaten Manokwari, Papua Bar. 98356";"Prafi Mulia, Distrik Prafi, Kabupaten Manokwari";PAPUA;98356;Indonesia;085254126242;;;-0.9124191;1.338.838.245;https://maps.google.com/?cid=0x0:0x72bb281db456c91a;
building materials;building materials;Distrik Bime;"Kabupaten Pegunungan Bintang, Papua";"Kabupaten Pegunungan Bintang, Papua";PAPUA;;Indonesia;;;;-4.488.256;1.402.199.566;https://maps.google.com/?cid=0x0:0xdb4257b29554af6e;
building materials;Toko Bahan Bangunan;PT. Bintuni Utama Murni Wood Industries;"Jl. Jend. Sudirman No.40, Padarni, Kec. Manokwari Bar., Kabupaten Manokwari, Papua Bar. 98312";"Padarni, Kec. Manokwari Bar., Kabupaten Manokwari";PAPUA;98312;Indonesia;0986211170;;;-0.8600523;1.340.722.125;https://maps.google.com/?cid=0x0:0xf2f8ff6d20bb8f63;
building materials;Toko Bahan Bangunan;PT. Barito Pasifik Timber;"Jl. Koti No.8 A, Numbai, Distrik Jayapura Selatan, Kota Jayapura, Papua 99222";"Numbai, Distrik Jayapura Selatan, Kota Jayapura";PAPUA;99222;Indonesia;0967536672;;;-2.543.737;140.706.905;https://maps.google.com/?cid=0x0:0x3e2ccfcc476c37f1;
building materials;Toserba;TOKO MAJU MAKMUR;"4R8F+95V, Udapi Hilir, Distrik Prafi, Kabupaten Manokwari, Papua Bar. 98356";"Udapi Hilir, Distrik Prafi, Kabupaten Manokwari";PAPUA;98356;Indonesia;;;;-0.884108;1.338.229.369;https://maps.google.com/?cid=0x0:0x5dd0e3c69ab93bdc;
building materials;Perencana pameran;IndoBuildTech Expo;"OFFICE BUILDING) G9 Building, Jl. KH Abdullah Syafei No.9 13, RT.13/RW.5, Bukit Duri, Kec. Tebet, Kota Jakarta Selatan, Daerah Khusus Ibukota Jakarta 12840";"Jl. KH Abdullah Syafei No.9 13, RT.13/RW.5, Bukit Duri, Kec. Tebet, Kota Jakarta Selatan";PAPUA;12840;Indonesia;02183797401;;;-62.245.235;1.068.538.253;https://maps.google.com/?cid=0x0:0x4d385a1c97d92509;
building materials;Perencana pameran;PT Debindo International Trade  Exhibitions;"G9 Building, Jl. KH Abdullah Syafei No.9 13 5 13, RT.13/RW.5, Bukit Duri, Kec. Tebet, Kota Jakarta Selatan, Daerah Khusus Ibukota Jakarta 12840";"Jl. KH Abdullah Syafei No.9 13 5 13, RT.13/RW.5, Bukit Duri, Kec. Tebet, Kota Jakarta Selatan";PAPUA;12840;Indonesia;02183797401;;;-62.245.267;1.068.538.247;https://maps.google.com/?cid=0x0:0x8583bbbff929b384;
building materials;Toko Bahan Bangunan;toko bangunan Yep'Mum;"4Q38+6C4, Jl. Garuda, Arso Kota, Kec. Arso, Kabupaten Keerom, Papua 99468";"Jl. Garuda, Arso Kota, Kec. Arso, Kabupaten Keerom";PAPUA;99468;Indonesia;085244664394;;;-28.970.308;1.407.661.616;https://maps.google.com/?cid=0x0:0x9649c22840d7e67e;
building materials;Toko Bahan Bangunan;TB Makmur Jaya;"Jl. Garuda kam yuwanain, Kec. Arso, Kabupaten Keerom, Papua 99361";"Kec. Arso, Kabupaten Keerom";PAPUA;99361;Indonesia;085211831980;;;-2.897.803;140.763.938;https://maps.google.com/?cid=0x0:0xc3d55026b5b47915;
building materials;Toko Kayu;Panglong Duha;"Jl. Datuk Kabu No.14, Denai, Kec. Medan Denai, Kota Medan, Sumatera Utara 20227";"Denai, Kec. Medan Denai, Kota Medan";PAPUA;20227;Indonesia;082115020707;;;3.581.344;987.315.199;https://maps.google.com/?cid=0x0:0xa2e83a5ead2ef672;
building materials;building materials;Kec. Ok Bape;"Kabupaten Pegunungan Bintang, Papua";"Kabupaten Pegunungan Bintang, Papua";PAPUA;;Indonesia;;;;-47.079.703;140.534.262;https://maps.google.com/?cid=0x0:0xddeed733d7c1a330;
building materials;Toko Bahan Bangunan;"Papua Bangunan, CV PAPUA ABADI";"Jl. Basuki Rahmat No.780, Klawuyuk, Distrik Sorong Timur, Kota Sorong, Papua Bar. 98416";"Klawuyuk, Distrik Sorong Timur, Kota Sorong";PAPUA;98416;Indonesia;081332017550;;;-0.8954087;1.313.186.922;https://maps.google.com/?cid=0x0:0x851804bc3aa7f033;
building materials;Toko Bahan Bangunan;PAPUA BANGUNAN;"42GX+945, Wosi, Kec. Manokwari Bar., Kabupaten Manokwari, Papua Bar. 98312";"Wosi, Kec. Manokwari Bar., Kabupaten Manokwari";PAPUA;98312;Indonesia;082198055550;;;-0.874101;1.340.478.473;https://maps.google.com/?cid=0x0:0x2c3683b193d9430f;
building materials;Toko Bahan Bangunan;ANEKA BANGUNAN;"Wosi, Kec. Manokwari Bar., Kabupaten Manokwari, Papua Bar. 98312";"Kec. Manokwari Bar., Kabupaten Manokwari";PAPUA;98312;Indonesia;081344843001;;;-0.8631883;1.340.498.559;https://maps.google.com/?cid=0x0:0x3598159af16f30ea;
building materials;Toko Bahan Bangunan;toko bangunan Yep'Mum;"4Q38+6C4, Jl. Garuda, Arso Kota, Kec. Arso, Kabupaten Keerom, Papua 99468";"Jl. Garuda, Arso Kota, Kec. Arso, Kabupaten Keerom";PAPUA;99468;Indonesia;085244664394;;;-28.970.308;1.407.661.616;https://maps.google.com/?cid=0x0:0x9649c22840d7e67e;
building materials;Toko Bahan Bangunan;Tiptore Building Material;"Jl. Poros Kuda Mati, Klp. Lima, Kec. Merauke, Kabupaten Merauke, Papua 99616";"Klp. Lima, Kec. Merauke, Kabupaten Merauke";PAPUA;99616;Indonesia;082293657714;;;-85.061.763;1.404.257.632;https://maps.google.com/?cid=0x0:0xbf132c61e5517b30;
building materials;Kantor Perusahaan;PT. Intimpura Timber Co;"46MX+7GG, JL Camp Jl. Intimpura, Klasuur, Sorong, Sorong City, West Papua 98411";"JL Camp Jl. Intimpura, Klasuur, Sorong, Sorong City";PAPUA;98411;Indonesia;0951324901;;;-0.8668179;1.312.488.374;https://maps.google.com/?cid=0x0:0x12e414b67ecaf3ae;
building materials;Toko Bahan Bangunan;Toko Central Bangunan / AMK;"Jl. Perikanan No.08, Hamadi, Distrik Jayapura Selatan, Kota Jayapura, Papua 99222";"Hamadi, Distrik Jayapura Selatan, Kota Jayapura";PAPUA;99222;Indonesia;082261057928;;;-25.584.767;1.407.173.289;https://maps.google.com/?cid=0x0:0xcfdf592c00fbd20d;
building materials;Toko Bahan Bangunan;Supermarket Multi Bangunan;"Jl Baru No.98, Wai Mhorock, Abepura, Jayapura City, Papua 99225";"Wai Mhorock, Abepura, Jayapura City";PAPUA;99225;Indonesia;0967588677;;;-26.077.336;1.406.742.812;https://maps.google.com/?cid=0x0:0x3b19f301c68f1d6f;
building materials;Toko Bahan Bangunan;Horukie Toko Bangunan;"R38J+883 Wa Toko T??-89T3-T541 kami, Fandoi, Kec. Biak Kota, Kabupaten Biak Numfor, Papua 98111";"Fandoi, Kec. Biak Kota, Kabupaten Biak Numfor";PAPUA;98111;Indonesia;081344944374;;;-11.842.375;1.360.807.969;https://maps.google.com/?cid=0x0:0x9ef95c0249a63970;
building materials;Toko Perlengkapan Rumah;Toko Jarwal Bangunan;"Kamoro Jaya, Kec. Mimika Baru, Kabupaten Mimika, Papua 99971";"Kec. Mimika Baru, Kabupaten Mimika";PAPUA;99971;Indonesia;;;;-45.656.564;1.368.718.615;https://maps.google.com/?cid=0x0:0x6cdc385accf4a8b;
building materials;Toko Bahan Bangunan;Toko Bangunan Agung Papua;"CJ2P+W8F, Jl. Raya Waena, Kp. Waena, Kec. Heram, Kota Jayapura, Papua 99351";"Jl. Raya Waena, Kp. Waena, Kec. Heram, Kota Jayapura";PAPUA;99351;Indonesia;;;;-25.976.776;1.406.357.935;https://maps.google.com/?cid=0x0:0xe204736893cd26aa;
building materials;Toko Bahan Bangunan;Toko Bangunan Mutiara timur;"CJ3R+33F, Unnamed Road, Kp. Waena, Kec. Heram, Kota Jayapura, Papua 99225";"Unnamed Road, Kp. Waena, Kec. Heram, Kota Jayapura";PAPUA;99225;Indonesia;;;;-25.973.134;1.406.401.625;https://maps.google.com/?cid=0x0:0x392e56b1342d758c;
building materials;Toko Bahan Bangunan;Indo Utama;"samping bank syariah indonesia, Jl. Klp. 2, Entrop, Distrik Jayapura Selatan, Kota Jayapura, Papua 99223";"Jl. Klp. 2, Entrop, Distrik Jayapura Selatan, Kota Jayapura";PAPUA;99223;Indonesia;08124811011;;;-25.684.546;1.407.018.893;https://maps.google.com/?cid=0x0:0x9e5e00706a8412ea;
building materials;Toko Bahan Bangunan;"Arol, pembuatan batako dan paving blok";"CV9H+J6M, Wonosari Jaya, Kec. Mimika Baru, Kabupaten Mimika, Papua 99971";"Wonosari Jaya, Kec. Mimika Baru, Kabupaten Mimika";PAPUA;99971;Indonesia;;;;-45.809.128;1.368.779.917;https://maps.google.com/?cid=0x0:0xb152c5ebf2b5923;
building materials;Toko Perlengkapan Rumah;ACP SEVEN  MARKS JAYAPURA;"Jl. Argapura No.88 F - G, Argapura, Distrik Jayapura Selatan, Kota Jayapura, Papua";"Kota Jayapura, Papua";PAPUA;;Indonesia;081233620177;;;-25.508.521;1.407.136.131;https://maps.google.com/?cid=0x0:0xe8d92f3148489944;
building materials;Toko Bahan Bangunan;Depo APA;"4858+C3H, Jl. Basuki Rahmat, Remu Sel, Distrik Sorong Timur, Kota Sorong, Papua Bar. 98416";"Jl. Basuki Rahmat, Remu Sel, Distrik Sorong Timur, Kota Sorong";PAPUA;98416;Indonesia;;;;-0.8914384;1.313.152.376;https://maps.google.com/?cid=0x0:0x1a5d0b39362b1c03;
building materials;Toko Bahan Bangunan;Toko Matrial;"6M6V+94M, Upt Arso XII / Traimilyan, Kec. Skanto, Kabupaten Keerom, Papua 99468";"Upt Arso XII / Traimilyan, Kec. Skanto, Kabupaten Keerom";PAPUA;99468;Indonesia;082198629954;;;-27.890.377;1.406.928.093;https://maps.google.com/?cid=0x0:0x6b5906f3c0f111b2;
building materials;Toko Bahan Bangunan;Toko Arso Bangunan;"Jl. Garuda No.17, D, Yuwanain, Kec. Arso, Kabupaten Keerom, Papua 99468";"D, Yuwanain, Kec. Arso, Kabupaten Keerom";PAPUA;99468;Indonesia;082199906967;;;-29.009.028;1.407.566.149;https://maps.google.com/?cid=0x0:0xd6c7fd0a6c50c3ab;
building materials;Toko Perlengkapan Rumah;Batu bata kilo 8;"C7J9+FHC, Jl. Irian Kepi, Kepi, Kec. Obaa, Kabupaten Mappi, Papua 99881";"Jl. Irian Kepi, Kepi, Kec. Obaa, Kabupaten Mappi";PAPUA;99881;Indonesia;;;;-65.681.291;1.392.685.456;https://maps.google.com/?cid=0x0:0x8c512660faed3c63;
building materials;Toko Bahan Bangunan;Okabe Gallery Alam Sutera;"QM66+Q46, Jalur Sutera No.32A, Pakualam, Kec. Serpong Utara, Kota Tangerang Selatan, Banten 15320";"Jalur Sutera No.32A, Pakualam, Kec. Serpong Utara, Kota Tangerang Selatan";PAPUA;15320;Indonesia;082118888519;;;-62.381.706;1.066.605.396;https://maps.google.com/?cid=0x0:0x685a953a8450fdbb;
building materials;Perusahaan Farmasi;PT. Sinar Medika Papua;"Jl. Argapura No.88C, Argapura, Distrik Jayapura Selatan, Kota Jayapura, Papua";"Kota Jayapura, Papua";PAPUA;;Indonesia;081240302422;;;-25.509.885;1.407.135.942;https://maps.google.com/?cid=0x0:0x67b23d9361f862fe;
building materials;Toko bahan makanan;Toko Axel;"Jl. Drs Esau Sesa, Wosi, Kec. Manokwari Bar., Kabupaten Manokwari, Papua Bar. 98312";"Wosi, Kec. Manokwari Bar., Kabupaten Manokwari";PAPUA;98312;Indonesia;081330452323;;;-0.8747999;1.340.478.065;https://maps.google.com/?cid=0x0:0x97bf68176f1bfae;
building materials;Toko Bahan Bangunan;PT. Barito Pasifik Timber;"Jl. Koti No.8 A, Numbai, Distrik Jayapura Selatan, Kota Jayapura, Papua 99222";"Numbai, Distrik Jayapura Selatan, Kota Jayapura";PAPUA;99222;Indonesia;0967536672;;;-2.543.737;140.706.905;https://maps.google.com/?cid=0x0:0x3e2ccfcc476c37f1;
building materials;Gudang;PT KUS Building Supplies;"Jl. Pulau Nangka II Kav B 3-5, Komplek Pergudangan Daan Mogot Prima, Rw Buaya, RT.8/RW.2, Rw. Buaya, Kecamatan Cengkareng, Kota Jakarta Barat, Daerah Khusus Ibukota Jakarta 11740";"Komplek Pergudangan Daan Mogot Prima, Rw Buaya, RT.8/RW.2, Rw. Buaya, Kecamatan Cengkareng, Kota Jakarta Barat";PAPUA;11740;Indonesia;02129024411;;;-61.567.473;1.067.388.307;https://maps.google.com/?cid=0x0:0x75a95e54a16a4270;
building materials;building materials;Somilbatu tela vandy.ok;"Jl.1 timur, Bebon Jaya, Kec. Bonggo, Kabupaten Sarmi, Papua 99381";"Bebon Jaya, Kec. Bonggo, Kabupaten Sarmi";PAPUA;99381;Indonesia;081247263895;;;-22.736.502;1.395.464.527;https://maps.google.com/?cid=0x0:0x603d08da04103670;
building materials;building materials;Distrik Kolomdol;"Kabupaten Pegunungan Bintang, Papua";"Kabupaten Pegunungan Bintang, Papua";PAPUA;;Indonesia;;;;-49.670.754;1.405.860.497;https://maps.google.com/?cid=0x0:0x24dc4f034dc31161;
building materials;Pemasok mebel sesuai pesanan;Okabe Hardware Indonesia;"Jalur Sutera No.32A, Pakualam, Kec. Serpong Utara, Kota Tangerang Selatan, Banten 15320";"Pakualam, Kec. Serpong Utara, Kota Tangerang Selatan";PAPUA;15320;Indonesia;02122352581;;;-62.382.287;1.066.604.917;https://maps.google.com/?cid=0x0:0x4be4305755e361e8;
building materials;Toko Bahan Bangunan;Okabe Gallery Alam Sutera;"QM66+Q46, Jalur Sutera No.32A, Pakualam, Kec. Serpong Utara, Kota Tangerang Selatan, Banten 15320";"Jalur Sutera No.32A, Pakualam, Kec. Serpong Utara, Kota Tangerang Selatan";PAPUA;15320;Indonesia;082118888519;;;-62.381.706;1.066.605.396;https://maps.google.com/?cid=0x0:0x685a953a8450fdbb;
building materials;Toko Bahan Bangunan;PAPUA BANGUNAN;"42GX+945, Wosi, Kec. Manokwari Bar., Kabupaten Manokwari, Papua Bar. 98312";"Wosi, Kec. Manokwari Bar., Kabupaten Manokwari";PAPUA;98312;Indonesia;082198055550;;;-0.874101;1.340.478.473;https://maps.google.com/?cid=0x0:0x2c3683b193d9430f;
building materials;building materials;Bangunan sosial;"39X5+CC2, Modusit, Distrik Serambakon, Kabupaten Pegunungan Bintang, Papua 99573";"Modusit, Distrik Serambakon, Kabupaten Pegunungan Bintang";PAPUA;99573;Indonesia;;;;-49.014.753;1.403.585.065;https://maps.google.com/?cid=0x0:0xd5ed8972c459ad23;
building materials;building materials;Distrik Serambakon;"Kabupaten Pegunungan Bintang, Papua";"Kabupaten Pegunungan Bintang, Papua";PAPUA;;Indonesia;;;;-48.557.903;1.405.009.203;https://maps.google.com/?cid=0x0:0x171e1a77608fe958;
building materials;Toko Bahan Bangunan;"Mega Jaya Barokah ( Jual Triplek, Mdf, Hmr, Blockmin, HPL, Lem Kuning, Hardware Interior )";"Depan RSI Aminah, Ruko No.E-01, Watutulis Utara, Watutulis, Kec. Prambon, Kabupaten Sidoarjo, Jawa Timur 61264";"Ruko No.E-01, Watutulis Utara, Watutulis, Kec. Prambon, Kabupaten Sidoarjo";PAPUA;61264;Indonesia;08566661000;;;-74.405.207;1.125.722.891;https://maps.google.com/?cid=0x0:0xac40a6d9f0abf32a;
building materials;Produsen;Pabrik Wood Pellet Bogor;"Mekarsari, Kec. Cileungsi, Kabupaten Bogor, Jawa Barat 16820";"Kec. Cileungsi, Kabupaten Bogor";PAPUA;16820;Indonesia;087779183654;;;-63.976.891;1.070.058.238;https://maps.google.com/?cid=0x0:0xae6f01c67ed024fa;
building materials;Perusahaan Konstruksi;Classic best resources;"andalas, Tmn, Taman Sri Andalas, 41250 Klang, Selangor, Malaysia";Klang;PAPUA;41250;Indonesia;60143683482;;;30.151.961;1.014.423.736;https://maps.google.com/?cid=0x0:0x6a0a181129bade30;
building materials;building materials;Kec. Ok Aon;"Kabupaten Pegunungan Bintang, Papua";"Kabupaten Pegunungan Bintang, Papua";PAPUA;;Indonesia;;;;-48.531.394;1.406.404.082;https://maps.google.com/?cid=0x0:0xa9b9ad08f3a2029c;
building materials;Toko Bahan Bangunan;"Papua Bangunan, CV PAPUA ABADI";"Jl. Basuki Rahmat No.780, Klawuyuk, Distrik Sorong Timur, Kota Sorong, Papua Bar. 98416";"Klawuyuk, Distrik Sorong Timur, Kota Sorong";PAPUA;98416;Indonesia;081332017550;;;-0.8954087;1.313.186.922;https://maps.google.com/?cid=0x0:0x851804bc3aa7f033;
building materials;Toko Bahan Bangunan;toko bangunan Yep'Mum;"4Q38+6C4, Jl. Garuda, Arso Kota, Kec. Arso, Kabupaten Keerom, Papua 99468";"Jl. Garuda, Arso Kota, Kec. Arso, Kabupaten Keerom";PAPUA;99468;Indonesia;085244664394;;;-28.970.308;1.407.661.616;https://maps.google.com/?cid=0x0:0x9649c22840d7e67e;
building materials;building materials;KANTOR CABANG PT AMS;"JL khemon jaya, jalur III barat , SP 5, Nonomi, Kec. Waropen Bawah, Kabupaten Waropen, Papua 98261";"jalur III barat , SP 5, Nonomi, Kec. Waropen Bawah, Kabupaten Waropen";PAPUA;98261;Indonesia;081344735007;;;-2.233.097;1.364.168.266;https://maps.google.com/?cid=0x0:0x16061b7c8188a082;
building materials;Toko Bahan Bangunan;Toko Arso Bangunan;"Jl. Garuda No.17, D, Yuwanain, Kec. Arso, Kabupaten Keerom, Papua 99468";"D, Yuwanain, Kec. Arso, Kabupaten Keerom";PAPUA;99468;Indonesia;082199906967;;;-29.009.028;1.407.566.149;https://maps.google.com/?cid=0x0:0xd6c7fd0a6c50c3ab;
building materials;Toko Bahan Bangunan;PAPUA BANGUNAN;"42GX+945, Wosi, Kec. Manokwari Bar., Kabupaten Manokwari, Papua Bar. 98312";"Wosi, Kec. Manokwari Bar., Kabupaten Manokwari";PAPUA;98312;Indonesia;082198055550;;;-0.874101;1.340.478.473;https://maps.google.com/?cid=0x0:0x2c3683b193d9430f;
building materials;Toko Bahan Bangunan;Idemu Okabe Gallery;"Jl. Jalur Sutera Jl. Alam No.32A, Pakualam, Sutera, Kota Tangerang Selatan, Banten 15320";"Pakualam, Sutera, Kota Tangerang Selatan";PAPUA;15320;Indonesia;;;;-62.379.367;1.066.603.784;https://maps.google.com/?cid=0x0:0x45a648d0b9e4a128;
building materials;Toko Bahan Bangunan;Okabe Gallery Alam Sutera;"QM66+Q46, Jalur Sutera No.32A, Pakualam, Kec. Serpong Utara, Kota Tangerang Selatan, Banten 15320";"Jalur Sutera No.32A, Pakualam, Kec. Serpong Utara, Kota Tangerang Selatan";PAPUA;15320;Indonesia;082118888519;;;-62.381.706;1.066.605.396;https://maps.google.com/?cid=0x0:0x685a953a8450fdbb;
building materials;building materials;D'Wee Fried Chicken - Okabe Gallery;"QM66+Q46, Jalur Sutera No.32A, Pakualam, Kec. Serpong Utara, Kota Tangerang Selatan, Banten 15320";"Jalur Sutera No.32A, Pakualam, Kec. Serpong Utara, Kota Tangerang Selatan";PAPUA;15320;Indonesia;081316131873;;;-6.238.169;1.066.601.822;https://maps.google.com/?cid=0x0:0xefe64d0677f8a3d4;
building materials;Toko Bahan Bangunan;Tiptore Building Material;"Jl. Poros Kuda Mati, Klp. Lima, Kec. Merauke, Kabupaten Merauke, Papua 99616";"Klp. Lima, Kec. Merauke, Kabupaten Merauke";PAPUA;99616;Indonesia;082293657714;;;-85.061.763;1.404.257.632;https://maps.google.com/?cid=0x0:0xbf132c61e5517b30;
building materials;Toko Perlengkapan Rumah;PT Profitto Inovasi Kreatif;"Komp. Pergudangan T8, Jl. Sutera Niaga III No.3E, Pakulonan, Kec. Serpong Utara, Kota Tangerang Selatan, Banten 15325";"Jl. Sutera Niaga III No.3E, Pakulonan, Kec. Serpong Utara, Kota Tangerang Selatan";PAPUA;15325;Indonesia;087858988881;;;-62.392.855;106.649.986;https://maps.google.com/?cid=0x0:0x9f367731f119e9d;
building materials;Toko Bahan Bangunan;Optima;"FCR2+RPJ, Jl. Raya Mandala, Mandala, Kec. Merauke, Kabupaten Merauke, Papua 99615";"Jl. Raya Mandala, Mandala, Kec. Merauke, Kabupaten Merauke";PAPUA;99615;Indonesia;;;;-85.079.058;1.404.017.668;https://maps.google.com/?cid=0x0:0x1f6ecf2372c263ce;
building materials;Toko;Jaya Bangun Utama;"6GH9+VPV, Unnamed Road, Iriati, Distrik Wasior, Kabupaten Teluk Wondama, Papua Bar. 98362";"Unnamed Road, Iriati, Distrik Wasior, Kabupaten Teluk Wondama";PAPUA;98362;Indonesia;085298357980;;;-27.702.528;1.345.193.086;https://maps.google.com/?cid=0x0:0x7b7706dc36edb6d8;
building materials;Toko;Toko ajb;"Jln inpres urfas, Kemon Jaya Sp V, Kec. Urei Faisei, Kabupaten Waropen, Papua 98663";"Kemon Jaya Sp V, Kec. Urei Faisei, Kabupaten Waropen";PAPUA;98663;Indonesia;082399530919;;;-2.209.432;136.415.572;https://maps.google.com/?cid=0x0:0x9d727fa236c3e1d6;
building materials;Toko Perlengkapan Rumah;Toko Bangunan Alvi Jaya Indah;"4PFV+QH8, Asiaman, Kec. Arso, Kabupaten Keerom, Papua 99468";"Asiaman, Kec. Arso, Kabupaten Keerom";PAPUA;99468;Indonesia;081231225453;;;-2.875.585;14.074.395;https://maps.google.com/?cid=0x0:0x4b6b4fd47483a8a6;
building materials;Eksportir tekstil;Marksindo Sukses Jaya (Marks);"Jl. Jend. Sudirman No.709, Cibuntu, Kec. Bandung Kulon, Kota Bandung, Jawa Barat 40212";"Cibuntu, Kec. Bandung Kulon, Kota Bandung";PAPUA;40212;Indonesia;0895328330513;;;-69.174.477;1.075.739.615;https://maps.google.com/?cid=0x0:0x9fab38e623f6b9cb;
building materials;Produsen;Pt. Marksken;"Jl. Paralon II No.88, Cigondewah Kaler, Kec. Bandung Kulon, Kota Bandung, Jawa Barat 40214";"Cigondewah Kaler, Kec. Bandung Kulon, Kota Bandung";PAPUA;40214;Indonesia;;;;-69.297.113;1.075.659.255;https://maps.google.com/?cid=0x0:0x4db213f672d5af80;
building materials;building materials;Distrik Tarup;"Kabupaten Pegunungan Bintang, Papua";"Kabupaten Pegunungan Bintang, Papua";PAPUA;;Indonesia;;;;-51.570.425;1.409.757.647;https://maps.google.com/?cid=0x0:0xf4c8730c873f717;
building materials;Toko Bahan Bangunan;Toko Simpati;"FCR2+JJX, Mandala, Kec. Merauke, Kabupaten Merauke, Papua 99615";"Mandala, Kec. Merauke, Kabupaten Merauke";PAPUA;99615;Indonesia;082311111117;;;-85.083.866;1.404.016.142;https://maps.google.com/?cid=0x0:0xe1bd3c815a867d54;
building materials;Toko Bahan Bangunan;DEPO GRAHA SIMPATI;"Kamundu, Jl. Poros Simpati Jl. Blorep No.88, Klp. Lima, Kec. Merauke, Kabupaten Merauke, Papua 99615";"Jl. Poros Simpati Jl. Blorep No.88, Klp. Lima, Kec. Merauke, Kabupaten Merauke";PAPUA;99615;Indonesia;;;;-85.023.088;14.041.837;https://maps.google.com/?cid=0x0:0xd02bc8a1b88f33a3;
building materials;Pemasok kayu;Toko furniture Jakarta ToBe Utama;"Jl. Raya Serpong Jl. Raya Puspitek, Kademangan, Kec. Setu, Kota Tangerang Selatan, Banten 15314";"Kademangan, Kec. Setu, Kota Tangerang Selatan";PAPUA;15314;Indonesia;;;;-63.378.627;1.066.728.014;https://maps.google.com/?cid=0x0:0x7d9d23f06976bdf7;
building materials;Toko Bahan Bangunan;Horukie Toko Bangunan;"R38J+883 Wa Toko T??-89T3-T541 kami, Fandoi, Kec. Biak Kota, Kabupaten Biak Numfor, Papua 98111";"Fandoi, Kec. Biak Kota, Kabupaten Biak Numfor";PAPUA;98111;Indonesia;081344944374;;;-11.842.375;1.360.807.969;https://maps.google.com/?cid=0x0:0x9ef95c0249a63970;
building materials;Toko Bahan Bangunan;Horukie Bahan Bangunan;"R3X4+FF2, Sorido, Kec. Biak Kota, Kabupaten Biak Numfor, Papua 98113";"Sorido, Kec. Biak Kota, Kabupaten Biak Numfor";PAPUA;98113;Indonesia;082297956693;;;-11.505.193;1.360.562.465;https://maps.google.com/?cid=0x0:0xd178c83f4a8bd72;
building materials;Toko Bahan Bangunan;TOKO BANGUNAN DIKA JAYA;"Jl. Dermaga Aikai. Enarotali Distrik Paniai Timur Kabupaten Paniai. Papua, Aikai, Paniai Tim., Enarotali, Papua 98711";"Aikai, Paniai Tim., Enarotali";PAPUA;98711;Indonesia;081935935177;;;-39.309.089;1.363.727.901;https://maps.google.com/?cid=0x0:0x814ba48a8059765f;
building materials;Pemasok Peralatan Konstruksi;Kyaw Construction material;"24FV+G29, Bo Tay Za road, Yangon, Myanmar (Burma)";"Yangon, Myanmar (Burma)";PAPUA;;Indonesia;"9,5942E+11";;;170.237.821;961.426.045;https://maps.google.com/?cid=0x0:0xe82a46e334379b8b;
building materials;Toko Bahan Bangunan;Kyaw (2);"V54M+35R, Yangon, Myanmar (Burma)";"Yangon, Myanmar (Burma)";PAPUA;;Indonesia;;;;168.552.258;96.182.887;https://maps.google.com/?cid=0x0:0x73a4837ed0365eea;
building materials;Toko Bahan Bangunan;toko bangunan Yep'Mum;"4Q38+6C4, Jl. Garuda, Arso Kota, Kec. Arso, Kabupaten Keerom, Papua 99468";"Jl. Garuda, Arso Kota, Kec. Arso, Kabupaten Keerom";PAPUA;99468;Indonesia;085244664394;;;-28.970.308;1.407.661.616;https://maps.google.com/?cid=0x0:0x9649c22840d7e67e;
building materials;building materials;Papua;;Papua;PAPUA;;Indonesia;;;;-4.269.928;1.380.803.529;https://maps.google.com/?cid=0x0:0xeba94e9c5eefe673;
building materials;Toko Bahan Bangunan;TB Makmur Jaya;"Jl. Garuda kam yuwanain, Kec. Arso, Kabupaten Keerom, Papua 99361";"Kec. Arso, Kabupaten Keerom";PAPUA;99361;Indonesia;085211831980;;;-2.897.803;140.763.938;https://maps.google.com/?cid=0x0:0xc3d55026b5b47915;
building materials;Toko Bahan Bangunan;Okabe Gallery Alam Sutera;"QM66+Q46, Jalur Sutera No.32A, Pakualam, Kec. Serpong Utara, Kota Tangerang Selatan, Banten 15320";"Jalur Sutera No.32A, Pakualam, Kec. Serpong Utara, Kota Tangerang Selatan";PAPUA;15320;Indonesia;082118888519;;;-62.381.706;1.066.605.396;https://maps.google.com/?cid=0x0:0x685a953a8450fdbb;
building materials;Pemasok mebel sesuai pesanan;Okabe Hardware Indonesia;"Jalur Sutera No.32A, Pakualam, Kec. Serpong Utara, Kota Tangerang Selatan, Banten 15320";"Pakualam, Kec. Serpong Utara, Kota Tangerang Selatan";PAPUA;15320;Indonesia;02122352581;;;-62.382.287;1.066.604.917;https://maps.google.com/?cid=0x0:0x4be4305755e361e8;
building materials;Gudang;Aica-Aibon;"GF1, C21, 6 , LTC Glodok , JL. Hayam Wuruk, Mangga Besar , 127 , Taman Sari , 11180 Jakarta Barat , DKI Jakarta, RT.1/RW.6, Mangga Besar, Taman Sari, West Jakarta City, Jakarta 11180";Jakarta Barat ;PAPUA;11180;Indonesia;;;;-61.462.822;1.068.164.031;https://maps.google.com/?cid=0x0:0x860567b154d53cdc;
building materials;Toko Bahan Bangunan;PT. Golden Roof Polymer;"Jl. Raya Serang No.KM. 27, Sentul Jaya, Kec. Balaraja, Kabupaten Tangerang, Banten 15610";"Sentul Jaya, Kec. Balaraja, Kabupaten Tangerang";PAPUA;15610;Indonesia;02159574777;;;-62.174.573;1.064.415.014;https://maps.google.com/?cid=0x0:0xe6d4cb8b4b6c1e19;
building materials;Toko Bahan Bangunan;"Papua Bangunan, CV PAPUA ABADI";"Jl. Basuki Rahmat No.780, Klawuyuk, Distrik Sorong Timur, Kota Sorong, Papua Bar. 98416";"Klawuyuk, Distrik Sorong Timur, Kota Sorong";PAPUA;98416;Indonesia;081332017550;;;-0.8954087;1.313.186.922;https://maps.google.com/?cid=0x0:0x851804bc3aa7f033;
building materials;Toko Bahan Bangunan;toko bangunan Yep'Mum;"4Q38+6C4, Jl. Garuda, Arso Kota, Kec. Arso, Kabupaten Keerom, Papua 99468";"Jl. Garuda, Arso Kota, Kec. Arso, Kabupaten Keerom";PAPUA;99468;Indonesia;085244664394;;;-28.970.308;1.407.661.616;https://maps.google.com/?cid=0x0:0x9649c22840d7e67e;
building materials;Toko Perlengkapan Rumah;Batu bata kilo 8;"C7J9+FHC, Jl. Irian Kepi, Kepi, Kec. Obaa, Kabupaten Mappi, Papua 99881";"Jl. Irian Kepi, Kepi, Kec. Obaa, Kabupaten Mappi";PAPUA;99881;Indonesia;;;;-65.681.291;1.392.685.456;https://maps.google.com/?cid=0x0:0x8c512660faed3c63;
building materials;Pemasok mebel sesuai pesanan;Officescale - Okabe Gallery Alam Sutera;"Jalur Sutera No.32A, Pakualam, Kec. Serpong Utara, Kota Tangerang Selatan, Banten 15320";"Pakualam, Kec. Serpong Utara, Kota Tangerang Selatan";PAPUA;15320;Indonesia;089664169696;;;-62.381.706;1.066.605.396;https://maps.google.com/?cid=0x0:0x781b4c9b8ce112cd;
building materials;Toko Bahan Bangunan;Idemu Okabe Gallery;"Jl. Jalur Sutera Jl. Alam No.32A, Pakualam, Sutera, Kota Tangerang Selatan, Banten 15320";"Pakualam, Sutera, Kota Tangerang Selatan";PAPUA;15320;Indonesia;;;;-62.379.367;1.066.603.784;https://maps.google.com/?cid=0x0:0x45a648d0b9e4a128;
building materials;building materials;D'Wee Fried Chicken - Okabe Gallery;"QM66+Q46, Jalur Sutera No.32A, Pakualam, Kec. Serpong Utara, Kota Tangerang Selatan, Banten 15320";"Jalur Sutera No.32A, Pakualam, Kec. Serpong Utara, Kota Tangerang Selatan";PAPUA;15320;Indonesia;081316131873;;;-6.238.169;1.066.601.822;https://maps.google.com/?cid=0x0:0xefe64d0677f8a3d4;
building materials;building materials;Papua 99574;"Kabupaten Pegunungan Bintang, Papua";"Kabupaten Pegunungan Bintang, Papua";PAPUA;;Indonesia;;;;-4.640.956;1.407.624.493;https://maps.google.com/?cid=0x0:0x8501ef2800861902;
building materials;building materials;Okbemta;"Kabupaten Pegunungan Bintang, Papua";"Kabupaten Pegunungan Bintang, Papua";PAPUA;;Indonesia;;;;-44.740.931;1.407.208.989;https://maps.google.com/?cid=0x0:0x872bb79c2891d253;
building materials;Toko Bahan Bangunan;Okabe Gallery Alam Sutera;"QM66+Q46, Jalur Sutera No.32A, Pakualam, Kec. Serpong Utara, Kota Tangerang Selatan, Banten 15320";"Jalur Sutera No.32A, Pakualam, Kec. Serpong Utara, Kota Tangerang Selatan";PAPUA;15320;Indonesia;082118888519;;;-62.381.706;1.066.605.396;https://maps.google.com/?cid=0x0:0x685a953a8450fdbb;
building materials;Pemasok mebel sesuai pesanan;Okabe Hardware Indonesia;"Jalur Sutera No.32A, Pakualam, Kec. Serpong Utara, Kota Tangerang Selatan, Banten 15320";"Pakualam, Kec. Serpong Utara, Kota Tangerang Selatan";PAPUA;15320;Indonesia;02122352581;;;-62.382.287;1.066.604.917;https://maps.google.com/?cid=0x0:0x4be4305755e361e8;
building materials;Toko Bahan Bangunan;"Papua Bangunan, CV PAPUA ABADI";"Jl. Basuki Rahmat No.780, Klawuyuk, Distrik Sorong Timur, Kota Sorong, Papua Bar. 98416";"Klawuyuk, Distrik Sorong Timur, Kota Sorong";PAPUA;98416;Indonesia;081332017550;;;-0.8954087;1.313.186.922;https://maps.google.com/?cid=0x0:0x851804bc3aa7f033;
building materials;Toko Bahan Bangunan;Toko Bangunan Abadi;"4862+H2G, Malaingkedi, Kec. Sorong Utara, Kota Sorong, Papua Bar. 98412";"Malaingkedi, Kec. Sorong Utara, Kota Sorong";PAPUA;98412;Indonesia;081248762864;;;-0.8885625;1.313.000.781;https://maps.google.com/?cid=0x0:0xa4c5e3d6e0f0bf2b;
building materials;Toko Bahan Bangunan;PAPUA BANGUNAN;"42GX+945, Wosi, Kec. Manokwari Bar., Kabupaten Manokwari, Papua Bar. 98312";"Wosi, Kec. Manokwari Bar., Kabupaten Manokwari";PAPUA;98312;Indonesia;082198055550;;;-0.874101;1.340.478.473;https://maps.google.com/?cid=0x0:0x2c3683b193d9430f;
building materials;Pemasok mebel sesuai pesanan;Okabe Hardware Indonesia;"Jalur Sutera No.32A, Pakualam, Kec. Serpong Utara, Kota Tangerang Selatan, Banten 15320";"Pakualam, Kec. Serpong Utara, Kota Tangerang Selatan";PAPUA;15320;Indonesia;02122352581;;;-62.382.287;1.066.604.917;https://maps.google.com/?cid=0x0:0x4be4305755e361e8;
building materials;Toko Bahan Bangunan;Okabe Gallery Alam Sutera;"QM66+Q46, Jalur Sutera No.32A, Pakualam, Kec. Serpong Utara, Kota Tangerang Selatan, Banten 15320";"Jalur Sutera No.32A, Pakualam, Kec. Serpong Utara, Kota Tangerang Selatan";PAPUA;15320;Indonesia;082118888519;;;-62.381.706;1.066.605.396;https://maps.google.com/?cid=0x0:0x685a953a8450fdbb;
building materials;Perusahaan Pertambangan;QUARRY WSBP BOJONEGARA;"23X6+87G, Pakuncen, Kec. Bojonegara, Kabupaten Serang, Banten 42454";"Pakuncen, Kec. Bojonegara, Kabupaten Serang";PAPUA;42454;Indonesia;;;;-59.516.838;1.060.607.038;https://maps.google.com/?cid=0x0:0x87e9dffd94d17ab3;
building materials;Perusahaan Konstruksi;Head Office PT. Waskita Beton Precast Tbk;"Gedung Vasaka, MT Haryono St No.Kav. No.10A, RT.11/RW.11, Cawang, Kramat Jati, East Jakarta City, Jakarta 13630";"MT Haryono St No.Kav. No.10A, RT.11/RW.11, Cawang, Kramat Jati, East Jakarta City";PAPUA;13630;Indonesia;02122892999;;;-6.245.781;1.068.745.757;https://maps.google.com/?cid=0x0:0x770d9752994d92a6;
building materials;Kantor Perusahaan;PT Kang Bang Material Bangunan;"Jl. Raya Serang Jl. Kw. Industri Tristate km 13,8, Sukadamai, Kec. Cikupa, Kabupaten Tangerang, Banten 15710";"Sukadamai, Kec. Cikupa, Kabupaten Tangerang";PAPUA;15710;Indonesia;0215904515;;;-62.177.362;1.065.322.213;https://maps.google.com/?cid=0x0:0xaf7138a3dce75a53;
building materials;building materials;Distrik Okbab;"Kabupaten Pegunungan Bintang, Papua";"Kabupaten Pegunungan Bintang, Papua";PAPUA;;Indonesia;;;;-44.591.074;1.403.986.638;https://maps.google.com/?cid=0x0:0x230d9d286d136c26;
building materials;Toko Bahan Bangunan;PAPUA BANGUNAN;"42GX+945, Wosi, Kec. Manokwari Bar., Kabupaten Manokwari, Papua Bar. 98312";"Wosi, Kec. Manokwari Bar., Kabupaten Manokwari";PAPUA;98312;Indonesia;082198055550;;;-0.874101;1.340.478.473;https://maps.google.com/?cid=0x0:0x2c3683b193d9430f;
building materials;Kantor Perusahaan;PT. BUMI PAPUA SEVENINDO;"Jl. Mesjid Raya, Remu Utara, HBM, Kota Sorong, Papua Bar. 98416";"Remu Utara, HBM, Kota Sorong";PAPUA;98416;Indonesia;082198126653;;;-0.8807928;1.312.828.486;https://maps.google.com/?cid=0x0:0xbe773b0ac3ca8612;
building materials;Toko Perlengkapan Rumah;Batu bata kilo 8;"C7J9+FHC, Jl. Irian Kepi, Kepi, Kec. Obaa, Kabupaten Mappi, Papua 99881";"Jl. Irian Kepi, Kepi, Kec. Obaa, Kabupaten Mappi";PAPUA;99881;Indonesia;;;;-65.681.291;1.392.685.456;https://maps.google.com/?cid=0x0:0x8c512660faed3c63;
building materials;Sekolah Menengah Pertama;SMP N OKBIBAB;"8HHG+9Q, Maksum, Distrik Okbab, Kabupaten Pegunungan Bintang, Papua";"Kabupaten Pegunungan Bintang, Papua";PAPUA;;Indonesia;;;;-46.716.339;1.405.768.503;https://maps.google.com/?cid=0x0:0x95ff3d8a34ca3950;
building materials;Sekolah Menengah Pertama;SMP NEGERI OKBAB;"CG72+M5V, Borban, Distrik Okbab, Kabupaten Pegunungan Bintang, Papua 99572";"Borban, Distrik Okbab, Kabupaten Pegunungan Bintang";PAPUA;99572;Indonesia;;;;-45.857.527;140.500.409;https://maps.google.com/?cid=0x0:0x74c3e323976f4b0c;
building materials;Pemasok mebel sesuai pesanan;Okabe Hardware Indonesia;"Jalur Sutera No.32A, Pakualam, Kec. Serpong Utara, Kota Tangerang Selatan, Banten 15320";"Pakualam, Kec. Serpong Utara, Kota Tangerang Selatan";PAPUA;15320;Indonesia;02122352581;;;-62.382.287;1.066.604.917;https://maps.google.com/?cid=0x0:0x4be4305755e361e8;
building materials;Toko Batu;Kulit Batu Stone Veneer;"Jl. KH. Hasyim Ashari No.888, Nerogtog, Cipondoh, Kota Tangerang, Banten 15148";"Nerogtog, Cipondoh, Kota Tangerang";PAPUA;15148;Indonesia;089623222600;;;-62.096.246;1.066.881.603;https://maps.google.com/?cid=0x0:0x4ea461a5d1d37391;
building materials;building materials;Distrik Batani;"Kabupaten Pegunungan Bintang, Papua";"Kabupaten Pegunungan Bintang, Papua";PAPUA;;Indonesia;;;;-40.316.983;1.400.819.983;https://maps.google.com/?cid=0x0:0xe7564011ad7ca983;
building materials;Pasar bahan bangunan;Batu batako;"Jl. Poros Samabusa, Kimi, Distrik Tlk. Kimi, Kabupaten Nabire, Papua 98818";"Kimi, Distrik Tlk. Kimi, Kabupaten Nabire";PAPUA;98818;Indonesia;082324882058;;;-32.821.917;13.557.791;https://maps.google.com/?cid=0x0:0xe5fde274d3e18cd8;
building materials;Toko Bahan Bangunan;TOKO BANGUN NUSANTARA JAYA 2;"JL Yos Sudarso, Sempan, Timika (200 meter setelah SMAN 1, Papua 99971";"Sempan, Timika (200 meter setelah SMAN 1";PAPUA;99971;Indonesia;081334703021;;;-45.705.016;1.368.853.477;https://maps.google.com/?cid=0x0:0x439ec6c0e9985b9b;
building materials;Jasa Konstruksi dan Bangunan;Batu tela;"CJ7P+5WW, Kp. Waena, Kec. Heram, Kota Jayapura, Papua 99225";"Kp. Waena, Kec. Heram, Kota Jayapura";PAPUA;99225;Indonesia;;;;-25.870.117;1.406.373.435;https://maps.google.com/?cid=0x0:0x74f95b6c9d14ad14;
building materials;Toko Bahan Bangunan;"Papua Bangunan, CV PAPUA ABADI";"Jl. Basuki Rahmat No.780, Klawuyuk, Distrik Sorong Timur, Kota Sorong, Papua Bar. 98416";"Klawuyuk, Distrik Sorong Timur, Kota Sorong";PAPUA;98416;Indonesia;081332017550;;;-0.8954087;1.313.186.922;https://maps.google.com/?cid=0x0:0x851804bc3aa7f033;
building materials;Toko Bahan Bangunan;Batu bata merah dua putra;"SP1 RT.1, Waraitama, Kabupaten Teluk Bintuni, Papua Bar.";"Kabupaten Teluk Bintuni, Papua Bar.";PAPUA;;Indonesia;085244764026;;;-20.818.931;1.336.794.221;https://maps.google.com/?cid=0x0:0x4b98139f4446c4a6;
building materials;Toko Bahan Bangunan;PAPUA BANGUNAN;"42GX+945, Wosi, Kec. Manokwari Bar., Kabupaten Manokwari, Papua Bar. 98312";"Wosi, Kec. Manokwari Bar., Kabupaten Manokwari";PAPUA;98312;Indonesia;082198055550;;;-0.874101;1.340.478.473;https://maps.google.com/?cid=0x0:0x2c3683b193d9430f;
building materials;Toko Bahan Bangunan;NASYA BANGUNAN;"X8M9+469, Jl. Nusa Indah, Mariyai, Distrik Mariat, Kabupaten Sorong, Papua Bar. 98415";"Jl. Nusa Indah, Mariyai, Distrik Mariat, Kabupaten Sorong";PAPUA;98415;Indonesia;;;;-10.172.176;1.313.181.156;https://maps.google.com/?cid=0x0:0x19e47aadec85996d;
building materials;Toko Bahan Bangunan;TOKO BAHAN BANGUNAN “TRINITY HOME”;"Jalan Baru Pasar Lama, Wahno, Kec. Abepura, Kota Jayapura, Papua 99224";"Wahno, Kec. Abepura, Kota Jayapura";PAPUA;99224;Indonesia;081232337934;;;-25.958.248;1.406.809.957;https://maps.google.com/?cid=0x0:0x41c321d86b054228;
building materials;Toko Bahan Bangunan;Toko Bangunan Tetus Papua;"CVFF+528, Jl. Budi Utomo, Nawaripi, Kec. Mimika Baru, Kabupaten Mimika, Papua";"Kabupaten Mimika, Papua";PAPUA;;Indonesia;081344834492;;;-4.577.093;1.368.725.648;https://maps.google.com/?cid=0x0:0x70179859b1a22306;
building materials;Toko Perlengkapan Rumah;Batu bata kilo 8;"C7J9+FHC, Jl. Irian Kepi, Kepi, Kec. Obaa, Kabupaten Mappi, Papua 99881";"Jl. Irian Kepi, Kepi, Kec. Obaa, Kabupaten Mappi";PAPUA;99881;Indonesia;;;;-65.681.291;1.392.685.456;https://maps.google.com/?cid=0x0:0x8c512660faed3c63;
building materials;Toko Bahan Bangunan;Supermarket Multi Bangunan;"Jl Baru No.98, Wai Mhorock, Abepura, Jayapura City, Papua 99225";"Wai Mhorock, Abepura, Jayapura City";PAPUA;99225;Indonesia;0967588677;;;-26.077.336;1.406.742.812;https://maps.google.com/?cid=0x0:0x3b19f301c68f1d6f;
building materials;Toko Bahan Bangunan;Tiptore Building Material;"Jl. Poros Kuda Mati, Klp. Lima, Kec. Merauke, Kabupaten Merauke, Papua 99616";"Klp. Lima, Kec. Merauke, Kabupaten Merauke";PAPUA;99616;Indonesia;082293657714;;;-85.061.763;1.404.257.632;https://maps.google.com/?cid=0x0:0xbf132c61e5517b30;
building materials;Toko Bahan Bangunan;PT. Barito Pasifik Timber;"Jl. Koti No.8 A, Numbai, Distrik Jayapura Selatan, Kota Jayapura, Papua 99222";"Numbai, Distrik Jayapura Selatan, Kota Jayapura";PAPUA;99222;Indonesia;0967536672;;;-2.543.737;140.706.905;https://maps.google.com/?cid=0x0:0x3e2ccfcc476c37f1;
building materials;Toko Batu;"Omahbata - Toko Bata Expose , Toko Bata Tempel , Pabrik Roster Jakarta , Toko Roster";"Jl. Ciputat Raya No.59, RT.5/RW.2, Pd. Pinang, Kec. Kby. Lama, Kota Jakarta Selatan, Daerah Khusus Ibukota Jakarta 12310";"RT.5/RW.2, Pd. Pinang, Kec. Kby. Lama, Kota Jakarta Selatan";PAPUA;12310;Indonesia;081250050053;;;-62.656.927;1.067.752.628;https://maps.google.com/?cid=0x0:0x978761a979cda9cb;
building materials;Toko Bahan Bangunan;Bata Antasari 34;"34, Jl. Pangeran Antasari No.34, RT.4/RW.1, Cilandak Bar., Kec. Cilandak, Kota Jakarta Selatan, Daerah Khusus Ibukota Jakarta 12410";"Jl. Pangeran Antasari No.34, RT.4/RW.1, Cilandak Bar., Kec. Cilandak, Kota Jakarta Selatan";PAPUA;12410;Indonesia;087878732532;;;-62.876.305;1.068.068.238;https://maps.google.com/?cid=0x0:0xcce0749436190ef4;
building materials;Pemasok Bahan Bangunan;Bata Expose Kedoya;"Jl. Panjang No.35 d 9, RT.5/RW.1, Kedoya Sel., Kec. Kb. Jeruk, Kota Jakarta Barat, Daerah Khusus Ibukota Jakarta 11520";"RT.5/RW.1, Kedoya Sel., Kec. Kb. Jeruk, Kota Jakarta Barat";PAPUA;11520;Indonesia;087785682444;;;-61.805.396;1.067.665.487;https://maps.google.com/?cid=0x0:0xc4dd8d9f4b7d9497;
building materials;Pemasok Bahan Bangunan;BAKOEL BATA;"Jl. Cipinang Baru Raya No.36B, RT.1/RW.1, Cipinang, Kec. Pulo Gadung, Kota Jakarta Timur, Daerah Khusus Ibukota Jakarta 13240";"RT.1/RW.1, Cipinang, Kec. Pulo Gadung, Kota Jakarta Timur";PAPUA;13240;Indonesia;081311995503;;;-6.206.293;106.890.016;https://maps.google.com/?cid=0x0:0x8a7f53e76689e43f;
building materials;Toko Bahan Bangunan;Bata Tempel Expose;"JL. Raya Lenteng Agung, 12610, RT.13/RW.3, Lenteng Agung, Kec. Jagakarsa, Kota Jakarta Selatan, Daerah Khusus Ibukota Jakarta 12630";"12610, RT.13/RW.3, Lenteng Agung, Kec. Jagakarsa, Kota Jakarta Selatan";PAPUA;12630;Indonesia;08179921920;;;-63.263.503;1.068.403.962;https://maps.google.com/?cid=0x0:0x8a553d16443a479b;
building materials;building materials;Papua 99576;"Kabupaten Pegunungan Bintang, Papua";"Kabupaten Pegunungan Bintang, Papua";PAPUA;;Indonesia;;;;-41.176.623;1.407.624.493;https://maps.google.com/?cid=0x0:0x9e236cdcf6328593;
building materials;Toko;Jaya Bangun Utama;"6GH9+VPV, Unnamed Road, Iriati, Distrik Wasior, Kabupaten Teluk Wondama, Papua Bar. 98362";"Unnamed Road, Iriati, Distrik Wasior, Kabupaten Teluk Wondama";PAPUA;98362;Indonesia;085298357980;;;-27.702.528;1.345.193.086;https://maps.google.com/?cid=0x0:0x7b7706dc36edb6d8;
building materials;Toko Bahan Bangunan;"Papua Bangunan, CV PAPUA ABADI";"Jl. Basuki Rahmat No.780, Klawuyuk, Distrik Sorong Timur, Kota Sorong, Papua Bar. 98416";"Klawuyuk, Distrik Sorong Timur, Kota Sorong";PAPUA;98416;Indonesia;081332017550;;;-0.8954087;1.313.186.922;https://maps.google.com/?cid=0x0:0x851804bc3aa7f033;
building materials;Toko Bahan Bangunan;PAPUA BANGUNAN;"42GX+945, Wosi, Kec. Manokwari Bar., Kabupaten Manokwari, Papua Bar. 98312";"Wosi, Kec. Manokwari Bar., Kabupaten Manokwari";PAPUA;98312;Indonesia;082198055550;;;-0.874101;1.340.478.473;https://maps.google.com/?cid=0x0:0x2c3683b193d9430f;
building materials;Toko Bahan Bangunan;toko bangunan Yep'Mum;"4Q38+6C4, Jl. Garuda, Arso Kota, Kec. Arso, Kabupaten Keerom, Papua 99468";"Jl. Garuda, Arso Kota, Kec. Arso, Kabupaten Keerom";PAPUA;99468;Indonesia;085244664394;;;-28.970.308;1.407.661.616;https://maps.google.com/?cid=0x0:0x9649c22840d7e67e;
building materials;Toko Bahan Bangunan;Supermarket Multi Bangunan;"Jl Baru No.98, Wai Mhorock, Abepura, Jayapura City, Papua 99225";"Wai Mhorock, Abepura, Jayapura City";PAPUA;99225;Indonesia;0967588677;;;-26.077.336;1.406.742.812;https://maps.google.com/?cid=0x0:0x3b19f301c68f1d6f;
building materials;Toko Bahan Bangunan;Wapoga Mutiara Timber. PT;"43MJ+WXW, Manokwari Tim., Kec. Manokwari Bar., Kabupaten Manokwari, Papua Bar. 98312";"Manokwari Tim., Kec. Manokwari Bar., Kabupaten Manokwari";PAPUA;98312;Indonesia;0962211770;;;-0.86514;134.082.441;https://maps.google.com/?cid=0x0:0x23cc3c5246cb2c52;
building materials;Pusat Perbelanjaan;Toko Bangunan Tugu Lawet 2;"4PHR+M7J, Asiaman, Kec. Arso, Kabupaten Keerom, Papua 99468";"Asiaman, Kec. Arso, Kabupaten Keerom";PAPUA;99468;Indonesia;;;;-28.707.322;1.407.405.158;https://maps.google.com/?cid=0x0:0x8000d12040723a07;
building materials;Toko Bahan Bangunan;Tiptore Building Material;"Jl. Poros Kuda Mati, Klp. Lima, Kec. Merauke, Kabupaten Merauke, Papua 99616";"Klp. Lima, Kec. Merauke, Kabupaten Merauke";PAPUA;99616;Indonesia;082293657714;;;-85.061.763;1.404.257.632;https://maps.google.com/?cid=0x0:0xbf132c61e5517b30;
building materials;Toko Bahan Bangunan;Toko Bangunan Abadi;"4862+H2G, Malaingkedi, Kec. Sorong Utara, Kota Sorong, Papua Bar. 98412";"Malaingkedi, Kec. Sorong Utara, Kota Sorong";PAPUA;98412;Indonesia;081248762864;;;-0.8885625;1.313.000.781;https://maps.google.com/?cid=0x0:0xa4c5e3d6e0f0bf2b;
building materials;Toko bahan makanan;L  M Supplies;"429 2nd Ave W Suite 550, Dillingham, AK 99576, Amerika Serikat";"Dillingham, AK";PAPUA;99576;Indonesia;19078425241;;;590.403.011;-1.584.638.015;https://maps.google.com/?cid=0x0:0x466e55bfd1e28ea6;
building materials;Toko bahan makanan;Alaska Commercial Company;"295 Main St E, Dillingham, AK 99576, Amerika Serikat";"Dillingham, AK";PAPUA;99576;Indonesia;19078425444;;;590.393.663;-1.584.665.797;https://maps.google.com/?cid=0x0:0xb8d605c1fe0e27e8;
building materials;building materials;Murkim;"Kabupaten Pegunungan Bintang, Papua";"Kabupaten Pegunungan Bintang, Papua";PAPUA;;Indonesia;;;;-40.028.727;1.407.416.707;https://maps.google.com/?cid=0x0:0x9771017657678e7d;
building materials;Toko Bahan Bangunan;Supermarket Multi Bangunan;"Jl Baru No.98, Wai Mhorock, Abepura, Jayapura City, Papua 99225";"Wai Mhorock, Abepura, Jayapura City";PAPUA;99225;Indonesia;0967588677;;;-26.077.336;1.406.742.812;https://maps.google.com/?cid=0x0:0x3b19f301c68f1d6f;
building materials;Toko Bahan Bangunan;PAPUA BANGUNAN;"42GX+945, Wosi, Kec. Manokwari Bar., Kabupaten Manokwari, Papua Bar. 98312";"Wosi, Kec. Manokwari Bar., Kabupaten Manokwari";PAPUA;98312;Indonesia;082198055550;;;-0.874101;1.340.478.473;https://maps.google.com/?cid=0x0:0x2c3683b193d9430f;
building materials;Toko Bahan Bangunan;ANEKA BANGUNAN;"Wosi, Kec. Manokwari Bar., Kabupaten Manokwari, Papua Bar. 98312";"Kec. Manokwari Bar., Kabupaten Manokwari";PAPUA;98312;Indonesia;081344843001;;;-0.8631883;1.340.498.559;https://maps.google.com/?cid=0x0:0x3598159af16f30ea;
building materials;Toko Alat Listrik;PT Tricon Dos Sejahtera;"Jl. P Jayakarta Komp. No.131A No 26, Mangga Dua Sel., Kecamatan Sawah Besar, Kota Jakarta Pusat, Daerah Khusus Ibukota Jakarta 10730";"Mangga Dua Sel., Kecamatan Sawah Besar, Kota Jakarta Pusat";PAPUA;10730;Indonesia;081212038720;;;-61.424.735;10.683.052;https://maps.google.com/?cid=0x0:0x25e992fb3d3cb849;
building materials;Pemasok Pipa;PT Tricon Metalindo Perkasa;"Kompleks Ruko Glodok Plaza, Jl. Pinangsia Raya, RT.8/RW.5, Pinangsia, Taman Sari, West Jakarta City, Jakarta";"Kota Jakarta Barat, Daerah Khusus Ibukota Jakarta";PAPUA;;Indonesia;02122620528;;;-61.416.211;1.068.170.974;https://maps.google.com/?cid=0x0:0xbabe5b30b06a9c62;
building materials;Toko Bahan Bangunan;Depo Bangunan Mbanyu Mili;"3VQM+2GP depan balai kampung sp 2, Prafi Mulia, Distrik Prafi, Kabupaten Manokwari, Papua Bar. 98356";"Prafi Mulia, Distrik Prafi, Kabupaten Manokwari";PAPUA;98356;Indonesia;085254126242;;;-0.9124191;1.338.838.245;https://maps.google.com/?cid=0x0:0x72bb281db456c91a;
building materials;building materials;Distrik Mofinop;"Kabupaten Pegunungan Bintang, Papua";"Kabupaten Pegunungan Bintang, Papua";PAPUA;;Indonesia;;;;-40.924.047;1.408.872.648;https://maps.google.com/?cid=0x0:0x3a52071e7d49136a;
building materials;Toko Bahan Bangunan;PT. Bintuni Utama Murni Wood Industries;"Jl. Jend. Sudirman No.40, Padarni, Kec. Manokwari Bar., Kabupaten Manokwari, Papua Bar. 98312";"Padarni, Kec. Manokwari Bar., Kabupaten Manokwari";PAPUA;98312;Indonesia;0986211170;;;-0.8600523;1.340.722.125;https://maps.google.com/?cid=0x0:0xf2f8ff6d20bb8f63;
building materials;Toko Bahan Bangunan;Tiptore Building Material;"Jl. Poros Kuda Mati, Klp. Lima, Kec. Merauke, Kabupaten Merauke, Papua 99616";"Klp. Lima, Kec. Merauke, Kabupaten Merauke";PAPUA;99616;Indonesia;082293657714;;;-85.061.763;1.404.257.632;https://maps.google.com/?cid=0x0:0xbf132c61e5517b30;
building materials;building materials;Somilbatu tela vandy.ok;"Jl.1 timur, Bebon Jaya, Kec. Bonggo, Kabupaten Sarmi, Papua 99381";"Bebon Jaya, Kec. Bonggo, Kabupaten Sarmi";PAPUA;99381;Indonesia;081247263895;;;-22.736.502;1.395.464.527;https://maps.google.com/?cid=0x0:0x603d08da04103670;
building materials;Toko Bahan Bangunan;PT. Barito Pasifik Timber;"Jl. Koti No.8 A, Numbai, Distrik Jayapura Selatan, Kota Jayapura, Papua 99222";"Numbai, Distrik Jayapura Selatan, Kota Jayapura";PAPUA;99222;Indonesia;0967536672;;;-2.543.737;140.706.905;https://maps.google.com/?cid=0x0:0x3e2ccfcc476c37f1;
building materials;Toko Bahan Bangunan;PT. Golden Roof Polymer;"Jl. Raya Serang No.KM. 27, Sentul Jaya, Kec. Balaraja, Kabupaten Tangerang, Banten 15610";"Sentul Jaya, Kec. Balaraja, Kabupaten Tangerang";PAPUA;15610;Indonesia;02159574777;;;-62.174.573;1.064.415.014;https://maps.google.com/?cid=0x0:0xe6d4cb8b4b6c1e19;
building materials;Toko Bahan Bangunan;DISTRIBUTOR PLAFON PVC TANGERANG  BAGUS JAYA MANDIRI "";"Jl. Raya Kresek, Saga, Kec. Balaraja, Kabupaten Tangerang, Banten 15610";"Saga, Kec. Balaraja, Kabupaten Tangerang";PAPUA;15610;Indonesia;081383377232;;;-6.175.319;1.064.479.094;https://maps.google.com/?cid=0x0:0x68a3631f9d301686;
building materials;building materials;Kec. Yefta;"Kabupaten Pegunungan Bintang, Papua";"Kabupaten Pegunungan Bintang, Papua";PAPUA;;Indonesia;;;;-40.581.184;1.405.756.887;https://maps.google.com/?cid=0x0:0xf9d52738f42277c5;
building materials;Toko Bahan Bangunan;"Papua Bangunan, CV PAPUA ABADI";"Jl. Basuki Rahmat No.780, Klawuyuk, Distrik Sorong Timur, Kota Sorong, Papua Bar. 98416";"Klawuyuk, Distrik Sorong Timur, Kota Sorong";PAPUA;98416;Indonesia;081332017550;;;-0.8954087;1.313.186.922;https://maps.google.com/?cid=0x0:0x851804bc3aa7f033;
building materials;Toko Bahan Bangunan;Toko Bangunan Abadi;"4862+H2G, Malaingkedi, Kec. Sorong Utara, Kota Sorong, Papua Bar. 98412";"Malaingkedi, Kec. Sorong Utara, Kota Sorong";PAPUA;98412;Indonesia;081248762864;;;-0.8885625;1.313.000.781;https://maps.google.com/?cid=0x0:0xa4c5e3d6e0f0bf2b;
building materials;Perusahaan Konstruksi;Mesin Molen;"Jl. Kota Baru 20-D, Cideng, Gambir, Central Jakarta City, Jakarta 10150";"Cideng, Gambir, Central Jakarta City";PAPUA;10150;Indonesia;081215608000;;;-6.170.033;106.805.894;https://maps.google.com/?cid=0x0:0xda73dfd91a7c09e6;
building materials;Perusahaan Konstruksi;TOBA RAYA KONSTRUKSI;"Jl. Palang Merah No.10 C, RT.11/RW.6, Cideng, Kecamatan Gambir, Kota Jakarta Pusat, Daerah Khusus Ibukota Jakarta 10150";"RT.11/RW.6, Cideng, Kecamatan Gambir, Kota Jakarta Pusat";PAPUA;10150;Indonesia;0216320999;;;-61.692.178;1.068.079.951;https://maps.google.com/?cid=0x0:0x2048437786624a46;
building materials;Toko Perkakas;Distributor Safety Equipment;"JL. Perintis Kemerdekaan, Perkantoran Pulomas Blok 5 No. 5-6, Jakarta, 13260, RT.8/RW.8, Kayu Putih, Kec. Pulo Gadung, Daerah Khusus Ibukota Jakarta 13260";"Jakarta,";PAPUA;13260;Indonesia;081213371269;;;-61.857.305;1.068.780.382;https://maps.google.com/?cid=0x0:0xf1be1289826efa8b;
building materials;Perusahaan Konstruksi;HK Tower;"HK Tower, Jalan MT Haryono Kacamatan No.Kav.8, RT.12/RW.11, Cawang, Kecamatan Jatinegara, Kota Jakarta Timur, Daerah Khusus Ibukota Jakarta 13340";"Jalan MT Haryono Kacamatan No.Kav.8, RT.12/RW.11, Cawang, Kecamatan Jatinegara, Kota Jakarta Timur";PAPUA;13340;Indonesia;087809319864;;;-62.457.544;1.068.733.986;https://maps.google.com/?cid=0x0:0x826cb0203c78faa1;
building materials;Toko Bahan Bangunan;Tiptore Building Material;"Jl. Poros Kuda Mati, Klp. Lima, Kec. Merauke, Kabupaten Merauke, Papua 99616";"Klp. Lima, Kec. Merauke, Kabupaten Merauke";PAPUA;99616;Indonesia;082293657714;;;-85.061.763;1.404.257.632;https://maps.google.com/?cid=0x0:0xbf132c61e5517b30;
building materials;Toko Bahan Bangunan;Optima;"FCR2+RPJ, Jl. Raya Mandala, Mandala, Kec. Merauke, Kabupaten Merauke, Papua 99615";"Jl. Raya Mandala, Mandala, Kec. Merauke, Kabupaten Merauke";PAPUA;99615;Indonesia;;;;-85.079.058;1.404.017.668;https://maps.google.com/?cid=0x0:0x1f6ecf2372c263ce;
building materials;Toko Bahan Bangunan;toko bangunan Yep'Mum;"4Q38+6C4, Jl. Garuda, Arso Kota, Kec. Arso, Kabupaten Keerom, Papua 99468";"Jl. Garuda, Arso Kota, Kec. Arso, Kabupaten Keerom";PAPUA;99468;Indonesia;085244664394;;;-28.970.308;1.407.661.616;https://maps.google.com/?cid=0x0:0x9649c22840d7e67e;
building materials;Toko Bahan Bangunan;TB Makmur Jaya;"Jl. Garuda kam yuwanain, Kec. Arso, Kabupaten Keerom, Papua 99361";"Kec. Arso, Kabupaten Keerom";PAPUA;99361;Indonesia;085211831980;;;-2.897.803;140.763.938;https://maps.google.com/?cid=0x0:0xc3d55026b5b47915;
building materials;building materials;Distrik Epumek;"Kabupaten Pegunungan Bintang, Papua";"Kabupaten Pegunungan Bintang, Papua";PAPUA;;Indonesia;;;;-44.168.435;1.400.803.953;https://maps.google.com/?cid=0x0:0xfae5de68ea47222c;
building materials;Toko Kayu;"TPK , FERDINAND ALAM PAPUA";"282V+3F4, Jl. Rajawali, Klamalu, Aimas, Sorong Regency, West Papua 98416";"Jl. Rajawali, Klamalu, Aimas, Sorong Regency";PAPUA;98416;Indonesia;;;;-0.999856;1.313.436.981;https://maps.google.com/?cid=0x0:0xedf6d8b0e1c9f9f2;
building materials;Toko Kayu;TPK ANTIFULJIE;"Malasom, Jl. Makam Aimas, Kec. Aimas, Kabupaten Sorong, Papua Bar. 98444";"Jl. Makam Aimas, Kec. Aimas, Kabupaten Sorong";PAPUA;98444;Indonesia;;;;-0.963494;13.129.399;https://maps.google.com/?cid=0x0:0xb11ec130ea556cfa;
building materials;Toko Perlengkapan Rumah;ACP SEVEN  MARKS JAYAPURA;"Jl. Argapura No.88 F - G, Argapura, Distrik Jayapura Selatan, Kota Jayapura, Papua";"Kota Jayapura, Papua";PAPUA;;Indonesia;081233620177;;;-25.508.521;1.407.136.131;https://maps.google.com/?cid=0x0:0xe8d92f3148489944;
building materials;building materials;"Eagle River, Alaska 99577";"Eagle River, Alaska, Amerika Serikat";"Eagle River, Alaska, Amerika Serikat";PAPUA;;Indonesia;;;;612.673.638;-1.492.891.675;https://maps.google.com/?cid=0x0:0xf46fe750b05ad7e4;
building materials;building materials;Microtel Inn  Suites by Wyndham Eagle River/Anchorage Are;"13049 Old Glenn Hwy, Eagle River, AK 99577, Amerika Serikat";Old Glenn Hwy;PAPUA;13049;Indonesia;19076226000;;;613.386.741;-149.561.794;https://maps.google.com/?cid=0x0:0xe9ffb16baefc8021;
building materials;building materials;Papua 99576;"Kabupaten Pegunungan Bintang, Papua";"Kabupaten Pegunungan Bintang, Papua";PAPUA;;Indonesia;;;;-41.176.623;1.407.624.493;https://maps.google.com/?cid=0x0:0x9e236cdcf6328593;
building materials;Toko bahan makanan;DEPO MESIN N28  DEPO BANGUNAN;"Bunyom, Distrik Nimbokrang, Kabupaten Jayapura, Papua 99361";"Distrik Nimbokrang, Kabupaten Jayapura";PAPUA;99361;Indonesia;085247266989;;;-25.571.645;1.401.086.582;https://maps.google.com/?cid=0x0:0xf97268af26927065;
building materials;Toko Bahan Bangunan;Depo Bangunan Mbanyu Mili;"3VQM+2GP depan balai kampung sp 2, Prafi Mulia, Distrik Prafi, Kabupaten Manokwari, Papua Bar. 98356";"Prafi Mulia, Distrik Prafi, Kabupaten Manokwari";PAPUA;98356;Indonesia;085254126242;;;-0.9124191;1.338.838.245;https://maps.google.com/?cid=0x0:0x72bb281db456c91a;
building materials;Toko Bahan Bangunan;PAPUA BANGUNAN;"42GX+945, Wosi, Kec. Manokwari Bar., Kabupaten Manokwari, Papua Bar. 98312";"Wosi, Kec. Manokwari Bar., Kabupaten Manokwari";PAPUA;98312;Indonesia;082198055550;;;-0.874101;1.340.478.473;https://maps.google.com/?cid=0x0:0x2c3683b193d9430f;
building materials;Toko Bahan Bangunan;Supermarket Multi Bangunan;"Jl Baru No.98, Wai Mhorock, Abepura, Jayapura City, Papua 99225";"Wai Mhorock, Abepura, Jayapura City";PAPUA;99225;Indonesia;0967588677;;;-26.077.336;1.406.742.812;https://maps.google.com/?cid=0x0:0x3b19f301c68f1d6f;
building materials;Toko Bahan Bangunan;Toko Bangunan Agung Papua;"CJ2P+W8F, Jl. Raya Waena, Kp. Waena, Kec. Heram, Kota Jayapura, Papua 99351";"Jl. Raya Waena, Kp. Waena, Kec. Heram, Kota Jayapura";PAPUA;99351;Indonesia;;;;-25.976.776;1.406.357.935;https://maps.google.com/?cid=0x0:0xe204736893cd26aa;
building materials;Toko Bahan Bangunan;Toko Bangunan  Trio NUGRAHA" kertosari";"FCHF+H72, Unnamed Road, Sabron Sari, Distrik Sentani Barat, Kabupaten Jayapura, Papua 99358";"Unnamed Road, Sabron Sari, Distrik Sentani Barat, Kabupaten Jayapura";PAPUA;99358;Indonesia;085254232431;;;-25.211.009;140.423.142;https://maps.google.com/?cid=0x0:0x62fb937eb764d3e;
building materials;building materials;Depo Nimbokrang;"C4V5+4FM, Bunyom, Distrik Nimbokrang, Kabupaten Jayapura, Papua 99361";"Bunyom, Distrik Nimbokrang, Kabupaten Jayapura";PAPUA;99361;Indonesia;;;;-25.571.645;1.401.086.582;https://maps.google.com/?cid=0x0:0x4bf10f83fa057fb1;
building materials;building materials;Nongme;"Kabupaten Pegunungan Bintang, Papua";"Kabupaten Pegunungan Bintang, Papua";PAPUA;;Indonesia;;;;-42.374.677;140.059.845;https://maps.google.com/?cid=0x0:0x74529e9836b33803;
building materials;Toko bahan makanan;L  M Supplies;"429 2nd Ave W Suite 550, Dillingham, AK 99576, Amerika Serikat";"Dillingham, AK";PAPUA;99576;Indonesia;19078425241;;;590.403.011;-1.584.638.015;https://maps.google.com/?cid=0x0:0x466e55bfd1e28ea6;
building materials;Toko bahan makanan;Alaska Commercial Company;"295 Main St E, Dillingham, AK 99576, Amerika Serikat";"Dillingham, AK";PAPUA;99576;Indonesia;19078425444;;;590.393.663;-1.584.665.797;https://maps.google.com/?cid=0x0:0xb8d605c1fe0e27e8;
toko bangunan;toko bangunan;Oksibil;"Tarangop, Kec. Kawor, Kabupaten Pegunungan Bintang, Papua";"Kabupaten Pegunungan Bintang, Papua";PAPUA;;Indonesia;;;;-5.080.177;140.635.803;https://maps.google.com/?cid=0x0:0xf18d2b627917ee12;
toko bangunan;toko bangunan;Kec. Tebet;"Kota Jakarta Selatan, Daerah Khusus Ibukota Jakarta";"Kota Jakarta Selatan, Daerah Khusus Ibukota Jakarta";PAPUA;;Indonesia;;;;-62.251.223;1.068.549.881;https://maps.google.com/?cid=0x0:0xd575e31c807295f9;
toko bangunan;Toko Bahan Bangunan;TB. BINTANG MULIA;"Jl. Ciketing Asem jaya, Rt.003/Rw.005, No.888, Mustika Jaya, Jaya, kec. Mustika, Kota Bks, Jawa Barat 17158";"Rt.003/Rw.005, No.888, Mustika Jaya, Jaya, kec. Mustika, Kota Bks";PAPUA;17158;Indonesia;082249793383;;;-63.025.986;1.070.197.054;https://maps.google.com/?cid=0x0:0x218b3210fab92ebd;
toko bangunan;toko bangunan;Kec. Kiwirok;"Kabupaten Pegunungan Bintang, Papua";"Kabupaten Pegunungan Bintang, Papua";PAPUA;;Indonesia;;;;-47.151.742;1.407.444.135;https://maps.google.com/?cid=0x0:0xfa9674635b933b35;
toko bangunan;Landasan Pacu;Bandar Udara Kiwirok;"7PPR+H3V, Oknanggul, Kec. Kiwirok, Kabupaten Pegunungan Bintang, Papua 99574";"Oknanggul, Kec. Kiwirok, Kabupaten Pegunungan Bintang";PAPUA;99574;Indonesia;;;;-47.135.108;1.407.401.754;https://maps.google.com/?cid=0x0:0x9a9ff19978c02dc1;
toko bangunan;Bandara;Bandar Udara Kiwi;"8P2C+WWQ, Kiwi, Kec. Kiwirok, Kabupaten Pegunungan Bintang, Papua 99574";"Kiwi, Kec. Kiwirok, Kabupaten Pegunungan Bintang";PAPUA;99574;Indonesia;;;;-46.976.622;1.407.223.698;https://maps.google.com/?cid=0x0:0x1f721eabfadb232a;
toko bangunan;toko bangunan;Okbi;"Kabupaten Pegunungan Bintang, Papua";"Kabupaten Pegunungan Bintang, Papua";PAPUA;;Indonesia;;;;-46.040.293;1.404.514.913;https://maps.google.com/?cid=0x0:0x5eafc8bf76c1656f;
toko bangunan;Toko Bahan Bangunan;Toko habibi;"7GC6+82H, Jln Saberi. Masabuay, Wasior I, Distrik Wasior, Kabupaten Teluk Wondama, Papua Bar. 98362";"Jln Saberi. Masabuay, Wasior I, Distrik Wasior, Kabupaten Teluk Wondama";PAPUA;98362;Indonesia;;;;-27.291.953;1.345.101.099;https://maps.google.com/?cid=0x0:0x7307e67b2bf16401;
toko bangunan;Toko;TB Wondama Sentosa;"Wasior - Nabire, Miei, Maniwak, Distrik Wasior, Kabupaten Teluk Wondama, Papua Bar. 98362";"Miei, Maniwak, Distrik Wasior, Kabupaten Teluk Wondama";PAPUA;98362;Indonesia;08113771366;;;-27.361.124;1.345.131.112;https://maps.google.com/?cid=0x0:0xa4797422a9cf9482;
toko bangunan;toko bangunan;Distrik Batom;"Kabupaten Pegunungan Bintang, Papua";"Kabupaten Pegunungan Bintang, Papua";PAPUA;;Indonesia;;;;-44.466.638;1.408.794.807;https://maps.google.com/?cid=0x0:0x7c87b0b13ca08fe;
toko bangunan;Pusat Perbelanjaan;SW BANGUNAN;"Jln.H.M Saleh, Montong Gamang, Kec. Kopang, Kabupaten Lombok Tengah, Nusa Tenggara Bar. 83552";"Montong Gamang, Kec. Kopang, Kabupaten Lombok Tengah";PAPUA;83552;Indonesia;081997777975;;;-86.361.851;1.163.719.629;https://maps.google.com/?cid=0x0:0x756d7980ec8f7b24;
toko bangunan;Komplek perumahan;Toko Bangunan Solong;"CC64+32V, Pesanggrahan, Kec. Montong Gading, Kabupaten Lombok Timur, Nusa Tenggara Bar. 83663";"Pesanggrahan, Kec. Montong Gading, Kabupaten Lombok Timur";PAPUA;83663;Indonesia;;;;-85.897.538;116.405.032;https://maps.google.com/?cid=0x0:0x1ea9e5e898f44c96;
toko bangunan;toko bangunan;Borme;"Kabupaten Pegunungan Bintang, Papua";"Kabupaten Pegunungan Bintang, Papua";PAPUA;;Indonesia;;;;-43.227.031;1.403.894.858;https://maps.google.com/?cid=0x0:0x3ae0f9e7e82ab112;
toko bangunan;Toko Bahan Bangunan;TB. Borneo Jaya;"Jl. Raya Kp. Sawah No.101, RT.005/RW.002, Jatimurni, Kec. Pd. Melati, Kota Bks, Jawa Barat 17431";"RT.005/RW.002, Jatimurni, Kec. Pd. Melati, Kota Bks";PAPUA;17431;Indonesia;081382020567;;;-63.300.636;1.069.353.987;https://maps.google.com/?cid=0x0:0xb2a8c547421b28fa;
toko bangunan;Toko Bahan Bangunan;Cahaya Borneo 3;"VI RT 04 RW 05 Bekasi Timur, Jl. Kemuning Raya, RT.004/RW.005, Bojong Menteng, Kec. Rawalumbu, Kota Bks, Jawa Barat 17117";"Jl. Kemuning Raya, RT.004/RW.005, Bojong Menteng, Kec. Rawalumbu, Kota Bks";PAPUA;17117;Indonesia;081280346555;;;-63.042.542;1.069.908.297;https://maps.google.com/?cid=0x0:0xf03eb4218549db91;
toko bangunan;toko bangunan;Kec. Kiwirok Tim.;"Kabupaten Pegunungan Bintang, Papua";"Kabupaten Pegunungan Bintang, Papua";PAPUA;;Indonesia;;;;-4.743.346;1.408.487.154;https://maps.google.com/?cid=0x0:0xc88801b2edd72d55;
toko bangunan;toko bangunan;Papua 99572;"Kabupaten Pegunungan Bintang, Papua";"Kabupaten Pegunungan Bintang, Papua";PAPUA;;Indonesia;;;;-43.578.129;1.404.308.159;https://maps.google.com/?cid=0x0:0x3d3d35db4afd3dc1;
toko bangunan;toko bangunan;Aboy;"Kabupaten Pegunungan Bintang, Papua";"Kabupaten Pegunungan Bintang, Papua";PAPUA;;Indonesia;;;;-4.237.846;1.405.964.124;https://maps.google.com/?cid=0x0:0x2598c921a3c62e1e;
toko bangunan;Pemasok Bahan Bangunan;Toko Abadi Serui;"467V+H28, Serui Kota, Kec. Yapen Sel., Kabupaten Kepulauan Yapen, Papua 98215";"Serui Kota, Kec. Yapen Sel., Kabupaten Kepulauan Yapen";PAPUA;98215;Indonesia;;;;-1.886.075;1.362.425.871;https://maps.google.com/?cid=0x0:0x1de8d73e649eb0cd;
toko bangunan;Toko Bahan Bangunan;Toko Cahaya Abadi;"46FR+8QF, Jl. Gajah Mada, Serui Jaya, Kec. Yapen Sel., Kabupaten Kepulauan Yapen, Papua 98213";"Jl. Gajah Mada, Serui Jaya, Kec. Yapen Sel., Kabupaten Kepulauan Yapen";PAPUA;98213;Indonesia;098331116;;;-18.766.906;1.362.419.214;https://maps.google.com/?cid=0x0:0xc93cb5366c599ac5;
toko bangunan;Toko Bahan Bangunan;"Papua Bangunan, CV PAPUA ABADI";"Jl. Basuki Rahmat No.780, Klawuyuk, Distrik Sorong Timur, Kota Sorong, Papua Bar. 98416";"Klawuyuk, Distrik Sorong Timur, Kota Sorong";PAPUA;98416;Indonesia;081332017550;;;-0.8954087;1.313.186.922;https://maps.google.com/?cid=0x0:0x851804bc3aa7f033;
toko bangunan;Toko;Jaya Bangun Utama;"6GH9+VPV, Unnamed Road, Iriati, Distrik Wasior, Kabupaten Teluk Wondama, Papua Bar. 98362";"Unnamed Road, Iriati, Distrik Wasior, Kabupaten Teluk Wondama";PAPUA;98362;Indonesia;085298357980;;;-27.702.528;1.345.193.086;https://maps.google.com/?cid=0x0:0x7b7706dc36edb6d8;
toko bangunan;Toko Perlengkapan Rumah;Toko Bangunan Alvi Jaya Indah;"4PFV+QH8, Asiaman, Kec. Arso, Kabupaten Keerom, Papua 99468";"Asiaman, Kec. Arso, Kabupaten Keerom";PAPUA;99468;Indonesia;081231225453;;;-2.875.585;14.074.395;https://maps.google.com/?cid=0x0:0x4b6b4fd47483a8a6;
toko bangunan;Toko Bahan Bangunan;TB. Abadi;"Jl. Prof. DR. Satrio No.39, RT.17/RW.4, Kuningan, Karet Kuningan, Kecamatan Setiabudi, Kota Jakarta Selatan, Daerah Khusus Ibukota Jakarta 12940";"RT.17/RW.4, Kuningan, Karet Kuningan, Kecamatan Setiabudi, Kota Jakarta Selatan";PAPUA;12940;Indonesia;085101661988;;;-62.222.328;1.068.211.149;https://maps.google.com/?cid=0x0:0xe8259f790300dc35;
toko bangunan;Toko Bahan Bangunan;Toko Abu Sofyan;"Jl. Tulodong Atas No.9a 6, RT.6/RW.3, Senayan, Kec. Kby. Baru, Kota Jakarta Selatan, Daerah Khusus Ibukota Jakarta 12110";"RT.6/RW.3, Senayan, Kec. Kby. Baru, Kota Jakarta Selatan";PAPUA;12110;Indonesia;;;;-62.302.552;1.068.086.506;https://maps.google.com/?cid=0x0:0xccf6ad4ed60e494;
toko bangunan;Toko Bahan Bangunan;TB. AB Rempoa;"Jl. Pahlawan No.11, Rempoa, Kec. Ciputat Tim., Kota Tangerang Selatan, Banten 15412";"Rempoa, Kec. Ciputat Tim., Kota Tangerang Selatan";PAPUA;15412;Indonesia;0217493414;;;-62.941.183;1.067.579.564;https://maps.google.com/?cid=0x0:0x18b7e0227977a982;
toko bangunan;Toko Bahan Bangunan;TB Abu Bakar;"3, Jl. Sadar Raya No.41A, RT.3/RW.4, Ciganjur, Kec. Jagakarsa, Kota Jakarta Selatan, Daerah Khusus Ibukota Jakarta 12630";"Jl. Sadar Raya No.41A, RT.3/RW.4, Ciganjur, Kec. Jagakarsa, Kota Jakarta Selatan";PAPUA;12630;Indonesia;02178893945;;;-63.379.849;1.068.136.657;https://maps.google.com/?cid=0x0:0xd8ea693e9268f335;
toko bangunan;Toko Bahan Bangunan;Toko Material Wan Abud 104;"jalan haji saiyan rt 05 rw 06 no 25,tanjung barat jagakarsa kode pos, RT.5/RW.6, Tj. Bar., Kec. Jagakarsa, Kota Jakarta Selatan, Daerah Khusus Ibukota Jakarta 12530";"RT.5/RW.6, Tj. Bar., Kec. Jagakarsa, Kota Jakarta Selatan";PAPUA;12530;Indonesia;081380077923;;;-63.109.194;1.068.489.014;https://maps.google.com/?cid=0x0:0x8519d945a14d9db6;
toko bangunan;Toko Bahan Bangunan;Toko Bangunan Wira Utomo;"Jl. Kebayoran Baru No.83 8, RT.8/RW.1, Kby. Lama Utara, Kec. Kby. Lama, Kota Jakarta Selatan, Daerah Khusus Ibukota Jakarta 12240";"RT.8/RW.1, Kby. Lama Utara, Kec. Kby. Lama, Kota Jakarta Selatan";PAPUA;12240;Indonesia;0217394429;;;-6.238.864;1.067.837.691;https://maps.google.com/?cid=0x0:0xe0de3a197e059c50;
toko bangunan;Toko Bahan Bangunan;Toko Abadi;"Jl. Kh. Ahmad Dahlan No.8 8, RT.8/RW.9, Palmeriam, Kec. Matraman, Kota Jakarta Timur, Daerah Khusus Ibukota Jakarta 13140";"RT.8/RW.9, Palmeriam, Kec. Matraman, Kota Jakarta Timur";PAPUA;13140;Indonesia;;;;-62.087.595;1.068.614.399;https://maps.google.com/?cid=0x0:0xd7a42415f279c513;
toko bangunan;Toko Bahan Bangunan;TB Aboe Jaya;"7C7R+W7V, Unnamed Road, Ciptagumati, Kec. Cikalong Wetan, Kabupaten Bandung Barat, Jawa Barat 40556";"Unnamed Road, Ciptagumati, Kec. Cikalong Wetan, Kabupaten Bandung Barat";PAPUA;40556;Indonesia;087705382537;;;-67.351.255;1.074.406.869;https://maps.google.com/?cid=0x0:0x4d7e87a80c32faaf;
toko bangunan;Toko Bahan Bangunan;TB. ILHAM ABADI;"Blok Haji Rafi'i No.12,, Jl. Raya Bogor, RT.8/RW.1, Rambutan, Kec. Ciracas, Kota Jakarta Timur, Daerah Khusus Ibukota Jakarta 13830";"Jl. Raya Bogor, RT.8/RW.1, Rambutan, Kec. Ciracas, Kota Jakarta Timur";PAPUA;13830;Indonesia;;;;-62.966.442;1.068.718.895;https://maps.google.com/?cid=0x0:0x2c4b20ee18e11c8a;
toko bangunan;Toko Bahan Bangunan;TB. Al-Basyiah;"No Jl. H. Miing No.71, Putat Nutug, Kec. Ciseeng, Kabupaten Bogor, Jawa Barat 16120";"Putat Nutug, Kec. Ciseeng, Kabupaten Bogor";PAPUA;16120;Indonesia;089636795797;;;-64.674.764;1.066.653.113;https://maps.google.com/?cid=0x0:0xc90b565ec521bf40;
toko bangunan;Toko Bahan Bangunan;TB Octav Bangunan;"Jl. Masjid Attawabin No.21, Cilangkap, Kec. Tapos, Kota Depok, Jawa Barat 16465";"Cilangkap, Kec. Tapos, Kota Depok";PAPUA;16465;Indonesia;087890808904;;;-64.435.106;1.068.577.628;https://maps.google.com/?cid=0x0:0xfae28b08e63deb4a;
toko bangunan;Toko Bahan Bangunan;TB Banio;"Jl. H. Abu Bakar No.7, Cipambuan, Kec. Babakan Madang, Kabupaten Bogor, Jawa Barat 16810";"Cipambuan, Kec. Babakan Madang, Kabupaten Bogor";PAPUA;16810;Indonesia;081904098844;;;-6.558.156;106.849.559;https://maps.google.com/?cid=0x0:0x7b9e38cd5b55fbf2;
toko bangunan;Toko Bahan Bangunan;Toko Bangunan VIVA;"8, Jl. Pancawarga III No.1, RT.8/RW.5, Cipinang Besar Sel., Kecamatan Jatinegara, Kota Jakarta Timur, Daerah Khusus Ibukota Jakarta 13410";"Jl. Pancawarga III No.1, RT.8/RW.5, Cipinang Besar Sel., Kecamatan Jatinegara, Kota Jakarta Timur";PAPUA;13410;Indonesia;082110701820;;;-6.233.982;1.068.834.585;https://maps.google.com/?cid=0x0:0x1a3724c9799a6a81;
toko bangunan;Toko Bahan Bangunan;TB. Ilham Baru;"Jl. Ametis I No.25 8, RT.8/RW.13, Grogol Utara, Kec. Kby. Lama, Kota Jakarta Selatan, Daerah Khusus Ibukota Jakarta 12210";"RT.8/RW.13, Grogol Utara, Kec. Kby. Lama, Kota Jakarta Selatan";PAPUA;12210;Indonesia;0214410469;;;-6.217.356;1.067.862.871;https://maps.google.com/?cid=0x0:0xe0ed66dbe13ca44c;
toko bangunan;toko bangunan;Distrik Pepera;"Kabupaten Pegunungan Bintang, Papua";"Kabupaten Pegunungan Bintang, Papua";PAPUA;;Indonesia;;;;-48.872.459;1.407.305.111;https://maps.google.com/?cid=0x0:0x1239d5884917d2c1;
toko bangunan;Toko Bahan Bangunan;Persada Bangka;"Jl.bangka Raya no.1 Perapatan Bangka 7 Dan 8, Dekat Kemang, RT.8/RW.7, Pela Mampang, Kec. Mampang Prpt., Kota Jakarta Selatan, Daerah Khusus Ibukota Jakarta 12720";"Dekat Kemang, RT.8/RW.7, Pela Mampang, Kec. Mampang Prpt., Kota Jakarta Selatan";PAPUA;12720;Indonesia;08111995519;;;-6.249.422;1.068.144.831;https://maps.google.com/?cid=0x0:0x952917c64239e610;
toko bangunan;Toko Bahan Bangunan;Toko Sampurna Jaya;"Jl. Pangkalan Asem No.7A, RT.5/RW.2, Cemp. Putih Bar., Kec. Cemp. Putih, DKI Jakarta, Daerah Khusus Ibukota Jakarta 10520";"RT.5/RW.2, Cemp. Putih Bar., Kec. Cemp. Putih, DKI Jakarta";PAPUA;10520;Indonesia;0413007421;;;-61.786.429;1.068.591.021;https://maps.google.com/?cid=0x0:0x14cca34736b9bacd;
toko bangunan;toko bangunan;Distrik Bime;"Kabupaten Pegunungan Bintang, Papua";"Kabupaten Pegunungan Bintang, Papua";PAPUA;;Indonesia;;;;-4.488.256;1.402.199.566;https://maps.google.com/?cid=0x0:0xdb4257b29554af6e;
toko bangunan;Toko Bahan Bangunan;Toko Bangunan;"Jl. Martimbang Raya No.1, RT.1/RW.5, Gunung, Kec. Kby. Baru, Kota Jakarta Selatan, Daerah Khusus Ibukota Jakarta 12220";"RT.1/RW.5, Gunung, Kec. Kby. Baru, Kota Jakarta Selatan";PAPUA;12220;Indonesia;085102121495;;;-62.321.591;1.067.909.595;https://maps.google.com/?cid=0x0:0x94aa8af43244773f;
toko bangunan;Toko Bahan Bangunan;Toko Besi Berkat Bangunan;"Pesan Antar , Jl. Guru Mughni Jl. Prof. DR. Satrio RT.1/RW.3, Kuningan, RT.1/RW.3, Kuningan Tim., Kecamatan Setiabudi, Kota Jakarta Selatan, 12950";"Jl. Guru Mughni Jl. Prof. DR. Satrio RT.1/RW.3, Kuningan, RT.1/RW.3, Kuningan Tim., Kecamatan Setiabudi";PAPUA;12950;Indonesia;;;;-62.258.136;1.068.215.773;https://maps.google.com/?cid=0x0:0x17a759274b5ba612;
toko bangunan;Toko Bahan Bangunan;TB.Nirmala;"6, Jl. Nirmala Raya No.2, RT.6/RW.5, Cengkareng Bar., Kecamatan Cengkareng, Kota Jakarta Barat, Daerah Khusus Ibukota Jakarta 11730";"Jl. Nirmala Raya No.2, RT.6/RW.5, Cengkareng Bar., Kecamatan Cengkareng, Kota Jakarta Barat";PAPUA;11730;Indonesia;081287877581;;;-61.499.809;1.067.202.874;https://maps.google.com/?cid=0x0:0xefd2d0323dc5e0b4;
toko bangunan;Toko Bahan Bangunan;Toko Bangunan;"RT.9/RW.1, Bukit Duri, Kec. Tebet, Kota Jakarta Selatan, Daerah Khusus Ibukota Jakarta 12850";"Bukit Duri, Kec. Tebet, Kota Jakarta Selatan";PAPUA;12850;Indonesia;;;;-62.171.976;106.854.571;https://maps.google.com/?cid=0x0:0x98904c7c38080d5;
toko bangunan;Toko Bahan Bangunan;Toko Sinar Bangunan II;"Jl. Cilandak Tengah Raya No.16 7, RT.7/RW.1, Cilandak Bar., Kec. Cilandak, Kota Jakarta Selatan, Daerah Khusus Ibukota Jakarta 12430";"RT.7/RW.1, Cilandak Bar., Kec. Cilandak, Kota Jakarta Selatan";PAPUA;12430;Indonesia;02175904448;;;-62.872.752;1.068.022.297;https://maps.google.com/?cid=0x0:0x385df5f51babb710;
toko bangunan;Toko Bahan Bangunan;Toko Nirmala;"Jl. Sakura Raya No.8 11, RT.11/RW.5, Cengkareng Bar., Kecamatan Cengkareng, Kota Jakarta Barat, Daerah Khusus Ibukota Jakarta 11840";"RT.11/RW.5, Cengkareng Bar., Kecamatan Cengkareng, Kota Jakarta Barat";PAPUA;11840;Indonesia;081287877581;;;-6.147.992;106.719.158;https://maps.google.com/?cid=0x0:0xed1a56d36eba35eb;
toko bangunan;Toko Bahan Bangunan;Toko bangunan rizky bekasi;"Jl. Letnan Arsad Raya No.1, RT.004/RW.024, Kayuringin Jaya, Kec. Bekasi Sel., Kota Bks, Jawa Barat 17144";"RT.004/RW.024, Kayuringin Jaya, Kec. Bekasi Sel., Kota Bks";PAPUA;17144;Indonesia;083813536988;;;-62.424.679;1.069.848.746;https://maps.google.com/?cid=0x0:0x3b91f72385a5e60b;
toko bangunan;Toko Bahan Bangunan;Toko Bangunan Berkah - UD Berkah;"Jl. Rawajati Timur I No.12, RT.5/RW.1, Rawajati, Kec. Pancoran, Kota Jakarta Selatan, Daerah Khusus Ibukota Jakarta 12750";"RT.5/RW.1, Rawajati, Kec. Pancoran, Kota Jakarta Selatan";PAPUA;12750;Indonesia;0217973470;;;-62.579.532;1.068.564.111;https://maps.google.com/?cid=0x0:0xfd49c91c0902458e;
toko bangunan;Toko Bahan Bangunan;Tb.Inti Bangunan;"Jl. H. Madrais No.103, RT.007/RW.013, Jaka Mulya, Kec. Bekasi Sel., Kota Bks, Jawa Barat 17423";"RT.007/RW.013, Jaka Mulya, Kec. Bekasi Sel., Kota Bks";PAPUA;17423;Indonesia;085101212889;;;-62.792.738;1.069.650.211;https://maps.google.com/?cid=0x0:0xdaf23a218b5f7dbf;
toko bangunan;Pemasok Bahan Bangunan;Toko Indo Bangunan;"Jl. Panglima Polim No.52 A 9, RT.9/RW.7, Pulo, Kec. Kby. Baru, Kota Jakarta Selatan, Daerah Khusus Ibukota Jakarta 12160";"RT.9/RW.7, Pulo, Kec. Kby. Baru, Kota Jakarta Selatan";PAPUA;12160;Indonesia;081313365832;;;-6.251.485;10.679.727;https://maps.google.com/?cid=0x0:0x9fe04d1826dbb33b;
toko bangunan;Toko Bahan Bangunan;Toko Baru SMD;"Jalan kerinci raya No.12,Rw.02 kelurahan gunung. A12, Kota Jakarta Selatan, Daerah Khusus Ibukota Jakarta 12120";Kota Jakarta Selatan;PAPUA;12120;Indonesia;;;;-624.019;106.788.952;https://maps.google.com/?cid=0x0:0xf1b6106ded280974;
toko bangunan;Toko Bahan Bangunan;Toko Bangunan Bintang Jaya;"Jl. Nurtanio, RT.003/RW.013, Jatisari, Kec. Jatiasih, Kota Bks, Jawa Barat 17426";"RT.003/RW.013, Jatisari, Kec. Jatiasih, Kota Bks";PAPUA;17426;Indonesia;081384622973;;;-63.379.791;1.069.516.367;https://maps.google.com/?cid=0x0:0x7b56444a8fa076ec;
toko bangunan;Pemasok Bahan Bangunan;TB Indo Cipta Bangunan;"Jl. Pd. Betung Raya No.89, RT.1/RW.5, Pd. Betung, Kec. Pd. Aren, Kota Tangerang Selatan, Banten 15221";"RT.1/RW.5, Pd. Betung, Kec. Pd. Aren, Kota Tangerang Selatan";PAPUA;15221;Indonesia;0217357128;;;-62.719.572;1.067.435.386;https://maps.google.com/?cid=0x0:0xd1288c4a8753599c;
toko bangunan;Toko Bahan Bangunan;Toko Bangunan Restu Jaya;"No Jl. Buncit Raya No.3 4, RT.4/RW.2, Duren Tiga, Kec. Pancoran, Kota Jakarta Selatan, Daerah Khusus Ibukota Jakarta 12760";"RT.4/RW.2, Duren Tiga, Kec. Pancoran, Kota Jakarta Selatan";PAPUA;12760;Indonesia;0217992870;;;-62.597.956;1.068.289.476;https://maps.google.com/?cid=0x0:0xd0f8b24051be8465;
toko bangunan;Toko Bahan Bangunan;TB. TOKOSHIMURA 8;"Jl. KH. Muchtar Tabrani Kav. Tegal Perintis Raya blok A1/1, RT.006/RW.002, Marga Mulya, Kec. Bekasi Utara, Kota Bks, Jawa Barat 17142";"RT.006/RW.002, Marga Mulya, Kec. Bekasi Utara, Kota Bks";PAPUA;17142;Indonesia;;;;-62.240.085;1.070.039.198;https://maps.google.com/?cid=0x0:0x4116e6839774df5a;
toko bangunan;Toko Bahan Bangunan;Toko Bangunan;"QX64+H95, Jl. Bintara IX, RT.006/RW.002, Bintara Jaya, Kec. Bekasi Bar., Kota Bks, Jawa Barat 17136";"Jl. Bintara IX, RT.006/RW.002, Bintara Jaya, Kec. Bekasi Bar., Kota Bks";PAPUA;17136;Indonesia;081779308214;;;-62.386.097;1.069.559.786;https://maps.google.com/?cid=0x0:0x55ca80ed20987cb2;
toko bangunan;Toko Bahan Bangunan;TOKO BUMI BANGUNAN 04;"Q2CQ+F6J, Jl. Mista Raya, Karangsatria, Kec. Tambun Utara, Kabupaten Bekasi, Jawa Barat 17510";"Jl. Mista Raya, Karangsatria, Kec. Tambun Utara, Kabupaten Bekasi";PAPUA;17510;Indonesia;083876907187;;;-62.287.825;1.070.380.164;https://maps.google.com/?cid=0x0:0xf733b6eb99c87615;
toko bangunan;Toko Bahan Bangunan;Toko Bangunan;"deretan pool blue bird, danau sunter agung No.50, RT.5/RW.6, Sunter Agung, Kec. Tj. Priok, Jkt Utara, Daerah Khusus Ibukota Jakarta 14350";"danau sunter agung No.50, RT.5/RW.6, Sunter Agung, Kec. Tj. Priok, Jkt Utara";PAPUA;14350;Indonesia;;;;-61.282.886;1.068.549.877;https://maps.google.com/?cid=0x0:0x354ed802212af348;
toko bangunan;Toko Bahan Bangunan;Mitra Bangun Sakti;"Jl. Tegal Rotan Raya No.23 2, RW.1, Pd. Jaya, Kec. Pd. Aren, Kota Tangerang Selatan, Banten 15413";"RW.1, Pd. Jaya, Kec. Pd. Aren, Kota Tangerang Selatan";PAPUA;15413;Indonesia;0217450577;;;-62.826.411;1.067.251.782;https://maps.google.com/?cid=0x0:0xfbd25c2f3b35c435;
toko bangunan;toko bangunan;Distrik Alemsom;"Kabupaten Pegunungan Bintang, Papua";"Kabupaten Pegunungan Bintang, Papua";PAPUA;;Indonesia;;;;-47.239.845;1.402.862.819;https://maps.google.com/?cid=0x0:0x2d79a847a7c70a92;
toko bangunan;Toko Bahan Bangunan;Toko Bangunan Lam Jaya;"Jl. Kinbim Jl. Pyramid, Sinakma, Distrik Wamena, Kabupaten Jayawijaya, Papua 99511";"Sinakma, Distrik Wamena, Kabupaten Jayawijaya";PAPUA;99511;Indonesia;081343009130;;;-41.028.104;1.389.290.314;https://maps.google.com/?cid=0x0:0x2d4d789ff9234f2e;
toko bangunan;Toko Bahan Bangunan;Mulia Jaya Toko Bangunan;"WW9Q+9M5, Jl. Hom-Hom, Hetuma, Distrik Wamena, Kabupaten Jayawijaya, Papua 99511";"Jl. Hom-Hom, Hetuma, Distrik Wamena, Kabupaten Jayawijaya";PAPUA;99511;Indonesia;082121654001;;;-40.816.058;1.389.392.432;https://maps.google.com/?cid=0x0:0xe35085cf901d3afb;
toko bangunan;toko bangunan;Kec. Ok Bape;"Kabupaten Pegunungan Bintang, Papua";"Kabupaten Pegunungan Bintang, Papua";PAPUA;;Indonesia;;;;-47.079.703;140.534.262;https://maps.google.com/?cid=0x0:0xddeed733d7c1a330;
toko bangunan;Toko Bahan Bangunan;ANEKA BANGUNAN;"Wosi, Kec. Manokwari Bar., Kabupaten Manokwari, Papua Bar. 98312";"Kec. Manokwari Bar., Kabupaten Manokwari";PAPUA;98312;Indonesia;081344843001;;;-0.8631883;1.340.498.559;https://maps.google.com/?cid=0x0:0x3598159af16f30ea;
toko bangunan;Toko Bahan Bangunan;PAPUA BANGUNAN;"42GX+945, Wosi, Kec. Manokwari Bar., Kabupaten Manokwari, Papua Bar. 98312";"Wosi, Kec. Manokwari Bar., Kabupaten Manokwari";PAPUA;98312;Indonesia;082198055550;;;-0.874101;1.340.478.473;https://maps.google.com/?cid=0x0:0x2c3683b193d9430f;
toko bangunan;toko bangunan;Distrik Kolomdol;"Kabupaten Pegunungan Bintang, Papua";"Kabupaten Pegunungan Bintang, Papua";PAPUA;;Indonesia;;;;-49.670.754;1.405.860.497;https://maps.google.com/?cid=0x0:0x24dc4f034dc31161;
toko bangunan;toko bangunan;Oksop;"Kec. Oksop, Kabupaten Pegunungan Bintang, Papua";"Kabupaten Pegunungan Bintang, Papua";PAPUA;;Indonesia;;;;-47.889.956;1.404.566.612;https://maps.google.com/?cid=0x0:0xad34f79db6b37d84;
toko bangunan;toko bangunan;Kec. Oksop;"Kabupaten Pegunungan Bintang, Papua";"Kabupaten Pegunungan Bintang, Papua";PAPUA;;Indonesia;;;;-47.324.178;1.404.101.474;https://maps.google.com/?cid=0x0:0xdb805f296f748353;
toko bangunan;Toko Bahan Bangunan;ANEKA BANGUNAN;"Wosi, Kec. Manokwari Bar., Kabupaten Manokwari, Papua Bar. 98312";"Kec. Manokwari Bar., Kabupaten Manokwari";PAPUA;98312;Indonesia;081344843001;;;-0.8631883;1.340.498.559;https://maps.google.com/?cid=0x0:0x3598159af16f30ea;
toko bangunan;toko bangunan;Distrik Serambakon;"Kabupaten Pegunungan Bintang, Papua";"Kabupaten Pegunungan Bintang, Papua";PAPUA;;Indonesia;;;;-48.557.903;1.405.009.203;https://maps.google.com/?cid=0x0:0x171e1a77608fe958;
toko bangunan;toko bangunan;Kec. Ok Aon;"Kabupaten Pegunungan Bintang, Papua";"Kabupaten Pegunungan Bintang, Papua";PAPUA;;Indonesia;;;;-48.531.394;1.406.404.082;https://maps.google.com/?cid=0x0:0xa9b9ad08f3a2029c;
toko bangunan;Toko Bahan Bangunan;Toko bangunan Artomoro;"8RG4+X6C, Unnamed Road, Koya Bar., Kec. Muara Tami, Kota Jayapura, Papua 99351";"Unnamed Road, Koya Bar., Kec. Muara Tami, Kota Jayapura";PAPUA;99351;Indonesia;085244725735;;;-26.725.694;1.408.055.002;https://maps.google.com/?cid=0x0:0xefc17d6442f6cb7e;
toko bangunan;Toko Bahan Bangunan;Toko Bangunan Usaha Jaya Mandiri;"8RJX+H2G, Jl. Poros, Koya Tim., Kec. Muara Tami, Kota Jayapura, Papua 99351";"Jl. Poros, Koya Tim., Kec. Muara Tami, Kota Jayapura";PAPUA;99351;Indonesia;;;;-26.685.629;1.408.475.857;https://maps.google.com/?cid=0x0:0xf8acb1f9ed4c855a;
toko bangunan;toko bangunan;Kec. Kawor;"Kabupaten Pegunungan Bintang, Papua";"Kabupaten Pegunungan Bintang, Papua";PAPUA;;Indonesia;;;;-51.786.087;1.405.198.992;https://maps.google.com/?cid=0x0:0xf01e9c51aacc2971;
toko bangunan;Toko Bahan Bangunan;Toko Bangunan SUMBER JAYA;"Jl. Hasanuddin, Kamoro Jaya, Kec. Mimika Baru, Kabupaten Mimika, Papua 99971";"Kamoro Jaya, Kec. Mimika Baru, Kabupaten Mimika";PAPUA;99971;Indonesia;08114988263;;;-45.643.753;1.368.653.513;https://maps.google.com/?cid=0x0:0xf69f14940b9de223;
toko bangunan;Toko Perlengkapan Rumah;Toko Jarwal Bangunan;"Kamoro Jaya, Kec. Mimika Baru, Kabupaten Mimika, Papua 99971";"Kec. Mimika Baru, Kabupaten Mimika";PAPUA;99971;Indonesia;;;;-45.656.564;1.368.718.615;https://maps.google.com/?cid=0x0:0x6cdc385accf4a8b;
toko bangunan;toko bangunan;Awinbon;"Distrik Awinbon, Kabupaten Pegunungan Bintang, Papua";"Kabupaten Pegunungan Bintang, Papua";PAPUA;;Indonesia;;;;-50.949.847;1.402.965.945;https://maps.google.com/?cid=0x0:0xe99d57a9410afcef;
toko bangunan;Toko Bahan Bangunan;ANEKA BANGUNAN;"Wosi, Kec. Manokwari Bar., Kabupaten Manokwari, Papua Bar. 98312";"Kec. Manokwari Bar., Kabupaten Manokwari";PAPUA;98312;Indonesia;081344843001;;;-0.8631883;1.340.498.559;https://maps.google.com/?cid=0x0:0x3598159af16f30ea;
toko bangunan;Toko Bahan Bangunan;PAPUA BANGUNAN;"42GX+945, Wosi, Kec. Manokwari Bar., Kabupaten Manokwari, Papua Bar. 98312";"Wosi, Kec. Manokwari Bar., Kabupaten Manokwari";PAPUA;98312;Indonesia;082198055550;;;-0.874101;1.340.478.473;https://maps.google.com/?cid=0x0:0x2c3683b193d9430f;
toko bangunan;Toko Bahan Bangunan;Toko Bangunan Jaya Wenwin;"Jl. Bethesda, Sea II, Kec. Pineleng, Kabupaten Minahasa, Sulawesi Utara";"Kabupaten Minahasa, Sulawesi Utara";PAPUA;;Indonesia;08114311689;;;1.440.522;1.247.944.431;https://maps.google.com/?cid=0x0:0x66bf9b6ccfc8963f;
toko bangunan;toko bangunan;Distrik Tarup;"Kabupaten Pegunungan Bintang, Papua";"Kabupaten Pegunungan Bintang, Papua";PAPUA;;Indonesia;;;;-51.570.425;1.409.757.647;https://maps.google.com/?cid=0x0:0xf4c8730c873f717;
toko bangunan;Toko Bahan Bangunan;TB. Mantap;"Jl. Kemuning 3 No.33 7, RT.10/RW.4, Utan Kayu Utara, Kec. Matraman, Kota Jakarta Timur, Daerah Khusus Ibukota Jakarta 13120";"RT.10/RW.4, Utan Kayu Utara, Kec. Matraman, Kota Jakarta Timur";PAPUA;13120;Indonesia;0218500455;;;-6.199.002;106.863.995;https://maps.google.com/?cid=0x0:0xe2b0d283531bf008;
toko bangunan;Toko Bahan Bangunan;TB. Cahaya Abadi;"JRR8+5JC, Jalan KH Usman, RW.9, Kukusan, Kecamatan Beji, Kota Depok, Jawa Barat 16425";"Jalan KH Usman, RW.9, Kukusan, Kecamatan Beji, Kota Depok";PAPUA;16425;Indonesia;02178893660;;;-63.595.597;106.816.514;https://maps.google.com/?cid=0x0:0x24d5da94af618ade;
toko bangunan;Toko Bahan Bangunan;TB. Bintang Maju;"Pd. Klp., Kec. Duren Sawit, Kota Jakarta Timur, Daerah Khusus Ibukota Jakarta";"Kota Jakarta Timur, Daerah Khusus Ibukota Jakarta";PAPUA;;Indonesia;085165564040;;;-62.393.686;1.069.299.579;https://maps.google.com/?cid=0x0:0x32aff4153c631c;
toko bangunan;Pemasok Bahan Bangunan;TB Wahyu Jaya;"Jl. Perjuangan No 78, RT.11/RW.10, Kb. Jeruk, Kec. Kb. Jeruk, Kota Jakarta Barat, Daerah Khusus Ibukota Jakarta 11530";"RT.11/RW.10, Kb. Jeruk, Kec. Kb. Jeruk, Kota Jakarta Barat";PAPUA;11530;Indonesia;0215322294;;;-61.959.964;1.067.641.425;https://maps.google.com/?cid=0x0:0x281bc9aea611e6a6;
toko bangunan;Toko Bahan Bangunan;Sempurna Baru;"Jl. Raya Gading Kirana No.8 Blok O, RT.18/RW.8, Klp. Gading Bar., Kec. Klp. Gading, Jkt Utara, Daerah Khusus Ibukota Jakarta 14240";"RT.18/RW.8, Klp. Gading Bar., Kec. Klp. Gading, Jkt Utara";PAPUA;14240;Indonesia;081932390176;;;-61.476.475;1.068.999.623;https://maps.google.com/?cid=0x0:0xba114ba2b13d2017;
toko bangunan;Toko Bahan Bangunan;Sinar Cibubur;"Jl. Jambore No.48 6, RT.6/RW.13, Cibubur, Kec. Ciracas, Kota Jakarta Timur, Daerah Khusus Ibukota Jakarta 13720";"RT.6/RW.13, Cibubur, Kec. Ciracas, Kota Jakarta Timur";PAPUA;13720;Indonesia;0218733670;;;-63.652.077;1.068.873.489;https://maps.google.com/?cid=0x0:0xdf6fb542768d1664;
toko bangunan;Toko Bahan Bangunan;TB. Inti Bangunan;"Jl. Pengairan Pesing Koneng No.48A, RT.14/RW.8, Kedoya Utara, Kec. Kb. Jeruk, Kota Jakarta Barat, Daerah Khusus Ibukota Jakarta 11520";"RT.14/RW.8, Kedoya Utara, Kec. Kb. Jeruk, Kota Jakarta Barat";PAPUA;11520;Indonesia;085165564040;;;-61.624.087;1.067.661.657;https://maps.google.com/?cid=0x0:0x73ba1b73b709a19c;
toko bangunan;Toko Bahan Bangunan;Tb. Kesemek Jaya;"Jl. Kesemek No.32 2, RT.2/RW.12, Semper Bar., Kec. Cilincing, Jkt Utara, Daerah Khusus Ibukota Jakarta 14130";"RT.2/RW.12, Semper Bar., Kec. Cilincing, Jkt Utara";PAPUA;14130;Indonesia;;;;-61.133.802;1.069.187.757;https://maps.google.com/?cid=0x0:0x4a5ef22df1f0d5dd;
toko bangunan;toko bangunan;Distrik Okhika;"Kabupaten Pegunungan Bintang, Papua";"Kabupaten Pegunungan Bintang, Papua";PAPUA;;Indonesia;;;;-46.641.089;1.406.782.097;https://maps.google.com/?cid=0x0:0xa0bdbb44f3322b7e;
toko bangunan;Toko Bahan Bangunan;Okabe Gallery Alam Sutera;"QM66+Q46, Jalur Sutera No.32A, Pakualam, Kec. Serpong Utara, Kota Tangerang Selatan, Banten 15320";"Jalur Sutera No.32A, Pakualam, Kec. Serpong Utara, Kota Tangerang Selatan";PAPUA;15320;Indonesia;082118888519;;;-62.381.706;1.066.605.396;https://maps.google.com/?cid=0x0:0x685a953a8450fdbb;
toko bangunan;toko bangunan;Tb. Tokko Bangunan Indah Jaya;"Kuranji, Kec. Taktakan, Kota Serang, Banten";"Kota Serang, Banten";PAPUA;;Indonesia;;;;-61.237.989;1.061.332.479;https://maps.google.com/?cid=0x0:0xe8ad7b8cb1000814;
toko bangunan;toko bangunan;Papua 99574;"Kabupaten Pegunungan Bintang, Papua";"Kabupaten Pegunungan Bintang, Papua";PAPUA;;Indonesia;;;;-4.640.956;1.407.624.493;https://maps.google.com/?cid=0x0:0x8501ef2800861902;
toko bangunan;Toko Bahan Bangunan;Toko Arso Bangunan;"Jl. Garuda No.17, D, Yuwanain, Kec. Arso, Kabupaten Keerom, Papua 99468";"D, Yuwanain, Kec. Arso, Kabupaten Keerom";PAPUA;99468;Indonesia;082199906967;;;-29.009.028;1.407.566.149;https://maps.google.com/?cid=0x0:0xd6c7fd0a6c50c3ab;
toko bangunan;Toko Bahan Bangunan;ANEKA BANGUNAN;"Wosi, Kec. Manokwari Bar., Kabupaten Manokwari, Papua Bar. 98312";"Kec. Manokwari Bar., Kabupaten Manokwari";PAPUA;98312;Indonesia;081344843001;;;-0.8631883;1.340.498.559;https://maps.google.com/?cid=0x0:0x3598159af16f30ea;
toko bangunan;Toko Perlengkapan Rumah;Toko Bangunan Alvi Jaya Indah;"4PFV+QH8, Asiaman, Kec. Arso, Kabupaten Keerom, Papua 99468";"Asiaman, Kec. Arso, Kabupaten Keerom";PAPUA;99468;Indonesia;081231225453;;;-2.875.585;14.074.395;https://maps.google.com/?cid=0x0:0x4b6b4fd47483a8a6;
toko bangunan;toko bangunan;Papua;;Papua;PAPUA;;Indonesia;;;;-4.269.928;1.380.803.529;https://maps.google.com/?cid=0x0:0xeba94e9c5eefe673;
toko bangunan;Toko Bahan Bangunan;TOKO SUMBER NIAGA BANGUNAN;"Timika Jaya, Kec. Mimika Baru, Kabupaten Mimika, Papua 99971";"Kec. Mimika Baru, Kabupaten Mimika";PAPUA;99971;Indonesia;0856095797670;;;-4.569.129;136.878.701;https://maps.google.com/?cid=0x0:0xcd18f7af7f50af74;
toko bangunan;Toko Bahan Bangunan;Supermarket Multi Bangunan;"Jl Baru No.98, Wai Mhorock, Abepura, Jayapura City, Papua 99225";"Wai Mhorock, Abepura, Jayapura City";PAPUA;99225;Indonesia;0967588677;;;-26.077.336;1.406.742.812;https://maps.google.com/?cid=0x0:0x3b19f301c68f1d6f;
toko bangunan;Toko Bahan Bangunan;Toko Baru Mas Joko;"6J7G+5J2, Jl. Protokol Arso III, Jaifuri, Skanto, Keerom Regency, Papua 99468";"Jl. Protokol Arso III, Jaifuri, Skanto, Keerom Regency";PAPUA;99468;Indonesia;082185329185;;;-27.871.241;1.406.265.304;https://maps.google.com/?cid=0x0:0xb18b0b1958032137;
toko bangunan;;Toko Bangunan Al Istiqomah;"Banyu Resmi, Kec. Cigudeg, Kabupaten Bogor, Jawa Barat";"Kabupaten Bogor, Jawa Barat";PAPUA;;Indonesia;;;;-65.342.137;1.065.862.786;https://maps.google.com/?cid=0x0:0x361593e72ebae1fa;
toko bangunan;Toko Bahan Bangunan;Toko Matrial Sumber Bangunan;"Cimanggu 1, Kec. Cibungbulang, Kabupaten Bogor, Jawa Barat";"Kabupaten Bogor, Jawa Barat";PAPUA;;Indonesia;;;;-65.725.288;1.066.666.426;https://maps.google.com/?cid=0x0:0x47a5a224e6b085ba;
toko bangunan;Pemasok Bahan Bangunan;Toko Indo Bangunan;"Jl. Panglima Polim No.52 A 9, RT.9/RW.7, Pulo, Kec. Kby. Baru, Kota Jakarta Selatan, Daerah Khusus Ibukota Jakarta 12160";"RT.9/RW.7, Pulo, Kec. Kby. Baru, Kota Jakarta Selatan";PAPUA;12160;Indonesia;081313365832;;;-6.251.485;10.679.727;https://maps.google.com/?cid=0x0:0x9fe04d1826dbb33b;
toko bangunan;toko bangunan;Oklip;"Kabupaten Pegunungan Bintang, Papua";"Kabupaten Pegunungan Bintang, Papua";PAPUA;;Indonesia;;;;-47.704.144;1.407.884.322;https://maps.google.com/?cid=0x0:0x10a6da9b53085467;
toko bangunan;Toko Bahan Bangunan;Toko Duta Bangunan;"Jl. Panglima Polim No.42A, RT.9/RW.7, Pulo, Kec. Kby. Baru, Kota Jakarta Selatan, Daerah Khusus Ibukota Jakarta 12160";"RT.9/RW.7, Pulo, Kec. Kby. Baru, Kota Jakarta Selatan";PAPUA;12160;Indonesia;0217206242;;;-6.250.998;106.797.297;https://maps.google.com/?cid=0x0:0x23a96f96a5b9b86;
toko bangunan;Toko Bahan Bangunan;TB. Cahaya Putra Banten;"Kp. Botok jln raya carita 8km labuan, Kec. Carita, Banten 42264";Kec. Carita;PAPUA;42264;Indonesia;081287093625;;;-63.121.692;105.841.833;https://maps.google.com/?cid=0x0:0x84a2b898e1f209ee;
toko bangunan;Toko Bahan Bangunan;TB. Opik Bangun Jaya;"Jl. Raya Carita, Sukarame, Kec. Carita, Kabupaten Pandeglang, Banten 42264";"Sukarame, Kec. Carita, Kabupaten Pandeglang";PAPUA;42264;Indonesia;087711998902;;;-62.940.503;1.058.329.005;https://maps.google.com/?cid=0x0:0x35bf7fde5a73f575;
toko bangunan;toko bangunan;Okbemta;"Kabupaten Pegunungan Bintang, Papua";"Kabupaten Pegunungan Bintang, Papua";PAPUA;;Indonesia;;;;-44.740.931;1.407.208.989;https://maps.google.com/?cid=0x0:0x872bb79c2891d253;
toko bangunan;toko bangunan;Papua 99574;"Kabupaten Pegunungan Bintang, Papua";"Kabupaten Pegunungan Bintang, Papua";PAPUA;;Indonesia;;;;-4.640.956;1.407.624.493;https://maps.google.com/?cid=0x0:0x8501ef2800861902;
toko bangunan;toko bangunan;Toko Sumber Bangunan;"Biru, Kec. Tanete Riattang, Kabupaten Bone, Sulawesi Selatan";"Kabupaten Bone, Sulawesi Selatan";PAPUA;;Indonesia;;;;-45.581.979;120.332.231;https://maps.google.com/?cid=0x0:0x29e85b5dc484ef7d;
toko bangunan;Toko Bahan Bangunan;ANEKA BANGUNAN;"Wosi, Kec. Manokwari Bar., Kabupaten Manokwari, Papua Bar. 98312";"Kec. Manokwari Bar., Kabupaten Manokwari";PAPUA;98312;Indonesia;081344843001;;;-0.8631883;1.340.498.559;https://maps.google.com/?cid=0x0:0x3598159af16f30ea;
toko bangunan;toko bangunan;Distrik Oksebang;"Kabupaten Pegunungan Bintang, Papua";"Kabupaten Pegunungan Bintang, Papua";PAPUA;;Indonesia;;;;-47.586.522;1.407.364.771;https://maps.google.com/?cid=0x0:0x145e92bd2f820feb;
toko bangunan;Toko Bahan Bangunan;PAPUA BANGUNAN;"42GX+945, Wosi, Kec. Manokwari Bar., Kabupaten Manokwari, Papua Bar. 98312";"Wosi, Kec. Manokwari Bar., Kabupaten Manokwari";PAPUA;98312;Indonesia;082198055550;;;-0.874101;1.340.478.473;https://maps.google.com/?cid=0x0:0x2c3683b193d9430f;
toko bangunan;toko bangunan;Papua 99572;"Kabupaten Pegunungan Bintang, Papua";"Kabupaten Pegunungan Bintang, Papua";PAPUA;;Indonesia;;;;-43.578.129;1.404.308.159;https://maps.google.com/?cid=0x0:0x3d3d35db4afd3dc1;
toko bangunan;toko bangunan;Distrik Okbab;"Kabupaten Pegunungan Bintang, Papua";"Kabupaten Pegunungan Bintang, Papua";PAPUA;;Indonesia;;;;-44.591.074;1.403.986.638;https://maps.google.com/?cid=0x0:0x230d9d286d136c26;
toko bangunan;Toko Bahan Bangunan;Toko Bangunan Karunia Jaya Abadi;"4PCV+PQW, Asiaman, Kec. Arso, Kabupaten Keerom, Papua 99468";"Asiaman, Kec. Arso, Kabupaten Keerom";PAPUA;99468;Indonesia;082238365051;;;-28.781.414;1.407.444.425;https://maps.google.com/?cid=0x0:0xe5cd3a535bf4a26b;
toko bangunan;Toko Bahan Bangunan;TOKO BANGUN NUSANTARA JAYA 2;"JL Yos Sudarso, Sempan, Timika (200 meter setelah SMAN 1, Papua 99971";"Sempan, Timika (200 meter setelah SMAN 1";PAPUA;99971;Indonesia;081334703021;;;-45.705.016;1.368.853.477;https://maps.google.com/?cid=0x0:0x439ec6c0e9985b9b;
toko bangunan;Toko Bahan Bangunan;TOKO SUMBER NIAGA BANGUNAN;"Timika Jaya, Kec. Mimika Baru, Kabupaten Mimika, Papua 99971";"Kec. Mimika Baru, Kabupaten Mimika";PAPUA;99971;Indonesia;0856095797670;;;-4.569.129;136.878.701;https://maps.google.com/?cid=0x0:0xcd18f7af7f50af74;
toko bangunan;toko bangunan;Papua;;Papua;PAPUA;;Indonesia;;;;-4.269.928;1.380.803.529;https://maps.google.com/?cid=0x0:0xeba94e9c5eefe673;
toko bangunan;Toko Bahan Bangunan;Toko Bangunan SARINNA;"MF9W+2RW, kp bayawak pojok, RT.022/RW.07, Taban, Kec. Jambe, Kabupaten Tangerang, Banten 15720";"kp bayawak pojok, RT.022/RW.07, Taban, Kec. Jambe, Kabupaten Tangerang";PAPUA;15720;Indonesia;085697623157;;;-63.323.985;1.064.970.667;https://maps.google.com/?cid=0x0:0x9fc9e5bb13670909;
toko bangunan;Toko Bahan Bangunan;TB Tunas;"MRPJ+P8X, RT.9/RW.5, Kebagusan, Ps. Minggu, Kota Jakarta Selatan, Daerah Khusus Ibukota Jakarta 12520";"RT.9/RW.5, Kebagusan, Ps. Minggu, Kota Jakarta Selatan";PAPUA;12520;Indonesia;082211904248;;;-63.131.565;1.068.308.659;https://maps.google.com/?cid=0x0:0xb5aadc151ea1114f;
toko bangunan;Toko Bahan Bangunan;Bata Antasari 34;"34, Jl. Pangeran Antasari No.34, RT.4/RW.1, Cilandak Bar., Kec. Cilandak, Kota Jakarta Selatan, Daerah Khusus Ibukota Jakarta 12410";"Jl. Pangeran Antasari No.34, RT.4/RW.1, Cilandak Bar., Kec. Cilandak, Kota Jakarta Selatan";PAPUA;12410;Indonesia;087878732532;;;-62.876.305;1.068.068.238;https://maps.google.com/?cid=0x0:0xcce0749436190ef4;
toko bangunan;Toko Bahan Bangunan;TB. ALIYYANA;"Jl. K. H. Muchtar Tabrani No.7, RT.001/RW.012, Perwira, Kec. Bekasi Utara, Kota Bks, Jawa Barat 17124";"RT.001/RW.012, Perwira, Kec. Bekasi Utara, Kota Bks";PAPUA;17124;Indonesia;081320275853;;;-6.206.617;1.070.029.722;https://maps.google.com/?cid=0x0:0x25d55c7b679c14ce;
toko bangunan;Toko Bahan Bangunan;TB. Aneka Bangunan (Kebalen);"Jl Raya Babelan No 6 samping jalan masuk ke Trevista Residence - gedung toko warna kuning pagar biru, Kebalen, Kec. Babelan, Kabupaten Bekasi, Jawa Barat 17610";"Kebalen, Kec. Babelan, Kabupaten Bekasi";PAPUA;17610;Indonesia;02189235812;;;-62.038.749;1.070.366.637;https://maps.google.com/?cid=0x0:0x86e520296f59e45e;
toko bangunan;Pemasok Bahan Bangunan;Batara Unggul Material Indonesia;"Komplek Ruko Plaza Harmoni Blok B No. 22-24, Jl. Suryopranoto No.2, RT.3/RW.8, Petojo Utara, Kecamatan Gambir, Kota Jakarta Pusat, Daerah Khusus Ibukota Jakarta 10130";"Jl. Suryopranoto No.2, RT.3/RW.8, Petojo Utara, Kecamatan Gambir, Kota Jakarta Pusat";PAPUA;10130;Indonesia;;;;-61.685.562;1.068.195.142;https://maps.google.com/?cid=0x0:0xc996ebaf4b3deeb1;
toko bangunan;Toko Bahan Bangunan;"Toko bangunan Dua putra,bancei";"Jl. Babakan Madang No.15, Babakan Madang, Kec. Babakan Madang, Kabupaten Bogor, Jawa Barat 16810";"Babakan Madang, Kec. Babakan Madang, Kabupaten Bogor";PAPUA;16810;Indonesia;082114261067;;;-6.566.984;1.068.640.769;https://maps.google.com/?cid=0x0:0xe012b53786d14e9c;
toko bangunan;Pemasok Bahan Bangunan;BAKOEL BATA;"Jl. Cipinang Baru Raya No.36B, RT.1/RW.1, Cipinang, Kec. Pulo Gadung, Kota Jakarta Timur, Daerah Khusus Ibukota Jakarta 13240";"RT.1/RW.1, Cipinang, Kec. Pulo Gadung, Kota Jakarta Timur";PAPUA;13240;Indonesia;081311995503;;;-6.206.293;106.890.016;https://maps.google.com/?cid=0x0:0x8a7f53e76689e43f;
toko bangunan;Pusat Perbelanjaan;TB. ALBANTANI BANGUNAN;"R8RW+PJ7, Kp kibabang, Gembor Udik, Kec. Cikande, Kabupaten Serang, Banten 42186";"Kp kibabang, Gembor Udik, Kec. Cikande, Kabupaten Serang";PAPUA;42186;Indonesia;081219206900;;;-61.582.224;1.063.465.403;https://maps.google.com/?cid=0x0:0x7b295e8e82d9a25a;
toko bangunan;Toko Batu;"Omahbata - Toko Bata Expose , Toko Bata Tempel , Pabrik Roster Jakarta , Toko Roster";"Jl. Ciputat Raya No.59, RT.5/RW.2, Pd. Pinang, Kec. Kby. Lama, Kota Jakarta Selatan, Daerah Khusus Ibukota Jakarta 12310";"RT.5/RW.2, Pd. Pinang, Kec. Kby. Lama, Kota Jakarta Selatan";PAPUA;12310;Indonesia;081250050053;;;-62.656.927;1.067.752.628;https://maps.google.com/?cid=0x0:0x978761a979cda9cb;
toko bangunan;Toko Bahan Bangunan;Toko Roster BSD - Jual Lubang Angin - Jual Roster Custom - Pabrik Roster - Toko Roster Serpong - Roster Tanggerang;"Jl. Ciater Raya No.185 E, Ciater, Kec. Serpong, Kota Tangerang Selatan, Banten 15310";"Ciater, Kec. Serpong, Kota Tangerang Selatan";PAPUA;15310;Indonesia;081213481313;;;-63.149.106;1.067.003.537;https://maps.google.com/?cid=0x0:0xffbd85d76c736f5e;
toko bangunan;Toko Bahan Bangunan;Bata Tempel Expose;"JL. Raya Lenteng Agung, 12610, RT.13/RW.3, Lenteng Agung, Kec. Jagakarsa, Kota Jakarta Selatan, Daerah Khusus Ibukota Jakarta 12630";"12610, RT.13/RW.3, Lenteng Agung, Kec. Jagakarsa, Kota Jakarta Selatan";PAPUA;12630;Indonesia;08179921920;;;-63.263.503;1.068.403.962;https://maps.google.com/?cid=0x0:0x8a553d16443a479b;
toko bangunan;toko bangunan;Papua 99576;"Kabupaten Pegunungan Bintang, Papua";"Kabupaten Pegunungan Bintang, Papua";PAPUA;;Indonesia;;;;-41.176.623;1.407.624.493;https://maps.google.com/?cid=0x0:0x9e236cdcf6328593;
toko bangunan;Toko Bahan Bangunan;Supermarket Multi Bangunan;"Jl Baru No.98, Wai Mhorock, Abepura, Jayapura City, Papua 99225";"Wai Mhorock, Abepura, Jayapura City";PAPUA;99225;Indonesia;0967588677;;;-26.077.336;1.406.742.812;https://maps.google.com/?cid=0x0:0x3b19f301c68f1d6f;
toko bangunan;Toko Bahan Bangunan;Toko Bangunan Mutiara timur;"CJ3R+33F, Unnamed Road, Kp. Waena, Kec. Heram, Kota Jayapura, Papua 99225";"Unnamed Road, Kp. Waena, Kec. Heram, Kota Jayapura";PAPUA;99225;Indonesia;;;;-25.973.134;1.406.401.625;https://maps.google.com/?cid=0x0:0x392e56b1342d758c;
toko bangunan;Toko Bahan Bangunan;ANEKA BANGUNAN;"Wosi, Kec. Manokwari Bar., Kabupaten Manokwari, Papua Bar. 98312";"Kec. Manokwari Bar., Kabupaten Manokwari";PAPUA;98312;Indonesia;081344843001;;;-0.8631883;1.340.498.559;https://maps.google.com/?cid=0x0:0x3598159af16f30ea;
toko bangunan;Toko Bahan Bangunan;TOKO SEMUWA;"Jl. Raya Doyo Baru, Doyo Baru, Distrik Waibu, Kabupaten Jayapura, Papua 99352";"Doyo Baru, Distrik Waibu, Kabupaten Jayapura";PAPUA;99352;Indonesia;;;;-25.412.248;140.467.993;https://maps.google.com/?cid=0x0:0x730a161bc4f81b34;
toko bangunan;toko bangunan;Distrik Weime;"Kabupaten Pegunungan Bintang, Papua";"Kabupaten Pegunungan Bintang, Papua";PAPUA;;Indonesia;;;;-43.975.064;1.402.862.819;https://maps.google.com/?cid=0x0:0x3dfe9a068b232231;
toko bangunan;Toko Bahan Bangunan;Toko Bangunan ILHAM WIJAYA;"MQV6+JGJ, Jl. Setia Negara, Kembang Mumpo, Kec. Semidang Alas Maras, Kabupaten Seluma, Bengkulu 38875";"Jl. Setia Negara, Kembang Mumpo, Kec. Semidang Alas Maras, Kabupaten Seluma";PAPUA;38875;Indonesia;085382461974;;;-43.059.201;1.027.612.726;https://maps.google.com/?cid=0x0:0x295fce5ec398f99f;
toko bangunan;Toko Bahan Bangunan;Toko Bangunan Nata;"MQV6+QH5, Unnamed Road, Kembang Mumpo, Kec. Semidang Alas Maras, Kabupaten Seluma, Bengkulu 38875";"Unnamed Road, Kembang Mumpo, Kec. Semidang Alas Maras, Kabupaten Seluma";PAPUA;38875;Indonesia;085267765456;;;-43.056.124;102.761.493;https://maps.google.com/?cid=0x0:0x740c5f9d6de9dac6;
toko bangunan;toko bangunan;Murkim;"Kabupaten Pegunungan Bintang, Papua";"Kabupaten Pegunungan Bintang, Papua";PAPUA;;Indonesia;;;;-40.028.727;1.407.416.707;https://maps.google.com/?cid=0x0:0x9771017657678e7d;
toko bangunan;Toko Bahan Bangunan;TB. MURIA AGUNG;"7, Jl. KH. Maisin No.7, RT.7/RW.15, Klender, Kec. Duren Sawit, Kota Jakarta Timur, Daerah Khusus Ibukota Jakarta 13470";"Jl. KH. Maisin No.7, RT.7/RW.15, Klender, Kec. Duren Sawit, Kota Jakarta Timur";PAPUA;13470;Indonesia;081382351966;;;-62.163.964;1.069.065.969;https://maps.google.com/?cid=0x0:0xef3caeb9e088ca62;
toko bangunan;Toko Cat;TB. WARNA AGUNG;"Jln. Lingkar duren sawit blok L 1, No. 1, RT.1/RW.8, Duren Sawit, Kec. Duren Sawit, Kota Jakarta Timur, Daerah Khusus Ibukota Jakarta 13440";"No. 1, RT.1/RW.8, Duren Sawit, Kec. Duren Sawit, Kota Jakarta Timur";PAPUA;13440;Indonesia;;;;-62.243.113;1.069.135.721;https://maps.google.com/?cid=0x0:0xefd580664f169964;
toko bangunan;Toko Bahan Bangunan;Supermarket Multi Bangunan;"Jl Baru No.98, Wai Mhorock, Abepura, Jayapura City, Papua 99225";"Wai Mhorock, Abepura, Jayapura City";PAPUA;99225;Indonesia;0967588677;;;-26.077.336;1.406.742.812;https://maps.google.com/?cid=0x0:0x3b19f301c68f1d6f;
toko bangunan;toko bangunan;Distrik Mofinop;"Kabupaten Pegunungan Bintang, Papua";"Kabupaten Pegunungan Bintang, Papua";PAPUA;;Indonesia;;;;-40.924.047;1.408.872.648;https://maps.google.com/?cid=0x0:0x3a52071e7d49136a;
toko bangunan;Toko Bahan Bangunan;Padma Bangunan;"Wai Mhorock, Kec. Abepura, Kota Jayapura, Papua 99225";"Kec. Abepura, Kota Jayapura";PAPUA;99225;Indonesia;09675180108;;;-26.096.427;1.406.725.314;https://maps.google.com/?cid=0x0:0x908e38e219cfc28;
toko bangunan;toko bangunan;Kec. Yefta;"Kabupaten Pegunungan Bintang, Papua";"Kabupaten Pegunungan Bintang, Papua";PAPUA;;Indonesia;;;;-40.581.184;1.405.756.887;https://maps.google.com/?cid=0x0:0xf9d52738f42277c5;
toko bangunan;Toko Bahan Bangunan;toko bangunan Azzam jy;"Jl. Batu Merah II, RT.6/RW.2, Pejaten Timur, Ps. Minggu, Kota Jakarta Selatan, Daerah Khusus Ibukota Jakarta 12510";"RT.6/RW.2, Pejaten Timur, Ps. Minggu, Kota Jakarta Selatan";PAPUA;12510;Indonesia;;;;-62.633.255;106.849.173;https://maps.google.com/?cid=0x0:0xeae34dd2a6c15274;
toko bangunan;Toko Bahan Bangunan;Bangun Jaya;"Jl. KH. Guru Amin No.43, Pejaten Timur, Ps. Minggu, Kota Jakarta Selatan, Daerah Khusus Ibukota Jakarta 12510";"Pejaten Timur, Ps. Minggu, Kota Jakarta Selatan";PAPUA;12510;Indonesia;082113939263;;;-62.723.612;1.068.466.045;https://maps.google.com/?cid=0x0:0xfb0ef27324719b3c;
toko bangunan;toko bangunan;Teiraplu;"Kabupaten Pegunungan Bintang, Papua";"Kabupaten Pegunungan Bintang, Papua";PAPUA;;Indonesia;;;;-38.310.636;140.265.662;https://maps.google.com/?cid=0x0:0x7579560ea8064870;
toko bangunan;toko bangunan;Papua 99572;"Kabupaten Pegunungan Bintang, Papua";"Kabupaten Pegunungan Bintang, Papua";PAPUA;;Indonesia;;;;-43.578.129;1.404.308.159;https://maps.google.com/?cid=0x0:0x3d3d35db4afd3dc1;
toko bangunan;toko bangunan;Toko Mitra Bangunan;"8F8G+WJ5, Karubaga, Kec. Karubaga, Kabupaten Tolikara, Papua 99567";"Karubaga, Kec. Karubaga, Kabupaten Tolikara";PAPUA;99567;Indonesia;081317225643;;;-3.682.733;1.384.766.089;https://maps.google.com/?cid=0x0:0x94f019f9132886e9;
toko bangunan;toko bangunan;Distrik Epumek;"Kabupaten Pegunungan Bintang, Papua";"Kabupaten Pegunungan Bintang, Papua";PAPUA;;Indonesia;;;;-44.168.435;1.400.803.953;https://maps.google.com/?cid=0x0:0xfae5de68ea47222c;
toko bangunan;Pemasok Bahan Bangunan;Toko Immanuel;"2PFX+6H9, Towuntu, Kec. Pasan, Kabupaten Minahasa Tenggara, Sulawesi Utara";"Kabupaten Minahasa Tenggara, Sulawesi Utara";PAPUA;;Indonesia;;;;10.230.472;1.247.489.763;https://maps.google.com/?cid=0x0:0x9e0cfb47d8a9b5fd;
toko bangunan;Toko Bahan Bangunan;TB Imanuel Kanonang;"5QPJ+MMQ, Jl Raya Bukit Kasih, Kanonang Tiga, Kec. Kawangkoan, Kabupaten Minahasa, Sulawesi Utara";"Kabupaten Minahasa, Sulawesi Utara";PAPUA;;Indonesia;082118760237;;;11.867.221;124.781.744;https://maps.google.com/?cid=0x0:0xbed16064fc79a6bd;
toko bangunan;toko bangunan;Distrik Pamek;"Kabupaten Pegunungan Bintang, Papua";"Kabupaten Pegunungan Bintang, Papua";PAPUA;;Indonesia;;;;-43.791.595;139.998.236;https://maps.google.com/?cid=0x0:0xed125e3af8269928;
toko bangunan;toko bangunan;Papua 99576;"Kabupaten Pegunungan Bintang, Papua";"Kabupaten Pegunungan Bintang, Papua";PAPUA;;Indonesia;;;;-41.176.623;1.407.624.493;https://maps.google.com/?cid=0x0:0x9e236cdcf6328593;
toko bangunan;;TOKO BAHAN BANGUNAN “TRINITY HOME”;"Jalan Baru Pasar Lama, Wahno, Kec. Abepura, Kota Jayapura, Papua 99224";"Wahno, Kec. Abepura, Kota Jayapura";PAPUA;99224;Indonesia;081232337934;;;-25.958.248;1.406.809.957;https://maps.google.com/?cid=0x0:0x41c321d86b054228;
toko bangunan;Toko Bahan Bangunan;Toko Bangunan Murah;"Jln. Paniai, Koya Bar., Kec. Muara Tami, Kota Jayapura, Papua 99351";"Koya Bar., Kec. Muara Tami, Kota Jayapura";PAPUA;99351;Indonesia;081240619776;;;-26.723.927;1.408.048.351;https://maps.google.com/?cid=0x0:0xe1e0b7ba8ced921;
toko bangunan;Toko Bahan Bangunan;Supermarket Multi Bangunan;"Jl Baru No.98, Wai Mhorock, Abepura, Jayapura City, Papua 99225";"Wai Mhorock, Abepura, Jayapura City";PAPUA;99225;Indonesia;0967588677;;;-26.077.336;1.406.742.812;https://maps.google.com/?cid=0x0:0x3b19f301c68f1d6f;
toko bangunan;Toko Bahan Bangunan;Toko Bangunan Agung Papua;"CJ2P+W8F, Jl. Raya Waena, Kp. Waena, Kec. Heram, Kota Jayapura, Papua 99351";"Jl. Raya Waena, Kp. Waena, Kec. Heram, Kota Jayapura";PAPUA;99351;Indonesia;;;;-25.976.776;1.406.357.935;https://maps.google.com/?cid=0x0:0xe204736893cd26aa;
toko bangunan;Toko Bahan Bangunan;TOKO BANGUNAN NURJANNAH;"H9G2+QGW, Jalan Poros, Wanggar Sari, Kec. Wanggar, Kabupaten Nabire, Papua 98856";"Jalan Poros, Wanggar Sari, Kec. Wanggar, Kabupaten Nabire";PAPUA;98856;Indonesia;;;;-34.230.182;1.353.513.335;https://maps.google.com/?cid=0x0:0x2e9264a49044df38;
toko bangunan;Pemasok Bahan Bangunan;toko bangun nusantara;"CVJP+PHG, Nawaripi, Kec. Mimika Baru, Kabupaten Mimika, Papua 99971";"Nawaripi, Kec. Mimika Baru, Kabupaten Mimika";PAPUA;99971;Indonesia;081230986888;;;-45.681.877;136.886.467;https://maps.google.com/?cid=0x0:0xf98d3361fd0298e0;
toko bangunan;Toko bahan makanan;Toko bangunan ABADI JAYA;"Jl. Raya sarmi No.blok A, Bunyom, Distrik Nimbokrang, Kabupaten Jayapura, Papua 99361";"Bunyom, Distrik Nimbokrang, Kabupaten Jayapura";PAPUA;99361;Indonesia;085382577209;;;-2.557.175;1.401.088.301;https://maps.google.com/?cid=0x0:0x1ca51d4d8a0ae01a;
toko bangunan;Toko;TOKO BANGUNAN SUMBER ANUGERAH;"Persatuan, Kec. Mandobo, Kabupaten Boven Digoel, Papua 99663";"Kec. Mandobo, Kabupaten Boven Digoel";PAPUA;99663;Indonesia;;;;-60.903.965;1.403.331.897;https://maps.google.com/?cid=0x0:0x9b0d3e5a6263752a;
toko bangunan;Toko Bahan Bangunan;Toko Bangunan KOHOIN;"CJ3M+9P8, Jl. Raya Waena Sentani, Kp. Waena, Kec. Heram, Kota Jayapura, Papua 99351";"Jl. Raya Waena Sentani, Kp. Waena, Kec. Heram, Kota Jayapura";PAPUA;99351;Indonesia;;;;-25.965.901;1.406.343.224;https://maps.google.com/?cid=0x0:0x40a996330a565835;
toko bangunan;Toko Bahan Bangunan;Toko Central Bangunan / AMK;"Jl. Perikanan No.08, Hamadi, Distrik Jayapura Selatan, Kota Jayapura, Papua 99222";"Hamadi, Distrik Jayapura Selatan, Kota Jayapura";PAPUA;99222;Indonesia;082261057928;;;-25.584.767;1.407.173.289;https://maps.google.com/?cid=0x0:0xcfdf592c00fbd20d;
toko bangunan;toko bangunan;Nongme;"Kabupaten Pegunungan Bintang, Papua";"Kabupaten Pegunungan Bintang, Papua";PAPUA;;Indonesia;;;;-42.374.677;140.059.845;https://maps.google.com/?cid=0x0:0x74529e9836b33803;
toko bangunan;Toko Bahan Bangunan;TB. Naga Mas;"Jl. KH. Hasyim Ashari, RT.006/RW.013, Sukasari, Kec. Tangerang, Kota Tangerang, Banten 15148";"RT.006/RW.013, Sukasari, Kec. Tangerang, Kota Tangerang";PAPUA;15148;Indonesia;081310432466;;;-61.849.137;1.066.446.282;https://maps.google.com/?cid=0x0:0x8ff822a0e5ba9046;
toko bangunan;Toko Bahan Bangunan;Tb. Sumber Maju;"Jl. Kh. Soleh Ali No.2, RT.004/RW.014, Sukasari, Kec. Tangerang, Kota Tangerang, Banten 15118";"RT.004/RW.014, Sukasari, Kec. Tangerang, Kota Tangerang";PAPUA;15118;Indonesia;081380700797;;;-61.813.059;1.066.344.857;https://maps.google.com/?cid=0x0:0xc0c687c44d7ebc2d;
hardware store;Toko Bahan Bangunan;Casa Hardware;"575Q+7GR, Mount Hagen Western Highlands Province, Papua Nugini";"Mount Hagen, Papua Nugini";PAPUA;;Indonesia;;;;-58.417.722;144.288.756;https://maps.google.com/?cid=0x0:0x5572b0cd99723bb6;
hardware store;Toko Perlengkapan Rumah;Hardware Haus;"46PG+8P9, Highlands Hwy, Mount Hagen Western Highlands Province, Papua Nugini";"Mount Hagen, Papua Nugini";PAPUA;;Indonesia;67573880325;;;-58.642.066;1.442.268.657;https://maps.google.com/?cid=0x0:0x76e2d5c7034f0bfa;
hardware store;Toko Bahan Bangunan;Okay Hardware Sentul;"2062  2064, Jln Sentul Pasar, Taman Kosmo Jaya, 51000 Kuala Lumpur, Wilayah Persekutuan Kuala Lumpur, Malaysia";Kuala Lumpur;PAPUA;51000;Indonesia;60162106254;;;31.977.545;1.016.904.754;https://maps.google.com/?cid=0x0:0xf553151fdc90d184;
hardware store;Bandara;Bandar Udara Kiwi;"8P2C+WWQ, Kiwi, Kec. Kiwirok, Kabupaten Pegunungan Bintang, Papua 99574";"Kiwi, Kec. Kiwirok, Kabupaten Pegunungan Bintang";PAPUA;99574;Indonesia;;;;-46.976.622;1.407.223.698;https://maps.google.com/?cid=0x0:0x1f721eabfadb232a;
hardware store;Landasan Pacu;Bandar Udara Kiwirok;"7PPR+H3V, Oknanggul, Kec. Kiwirok, Kabupaten Pegunungan Bintang, Papua 99574";"Oknanggul, Kec. Kiwirok, Kabupaten Pegunungan Bintang";PAPUA;99574;Indonesia;;;;-47.135.108;1.407.401.754;https://maps.google.com/?cid=0x0:0x9a9ff19978c02dc1;
hardware store;Toko Bahan Bangunan;Casa Hardware;"575Q+7GR, Mount Hagen Western Highlands Province, Papua Nugini";"Mount Hagen, Papua Nugini";PAPUA;;Indonesia;;;;-58.417.722;144.288.756;https://maps.google.com/?cid=0x0:0x5572b0cd99723bb6;
hardware store;Toko Perlengkapan Rumah;Hardware Haus;"46PG+8P9, Highlands Hwy, Mount Hagen Western Highlands Province, Papua Nugini";"Mount Hagen, Papua Nugini";PAPUA;;Indonesia;67573880325;;;-58.642.066;1.442.268.657;https://maps.google.com/?cid=0x0:0x76e2d5c7034f0bfa;
hardware store;Toko Bahan Bangunan;EGB Hardware;"Mambajao, Camiguin, Filipina";"Mambajao, Camiguin, Filipina";PAPUA;;Indonesia;;;;92.379.952;1.247.380.859;https://maps.google.com/?cid=0x0:0xa62584e40fd21391;
hardware store;hardware store;Distrik Batom;"Kabupaten Pegunungan Bintang, Papua";"Kabupaten Pegunungan Bintang, Papua";PAPUA;;Indonesia;;;;-44.466.638;1.408.794.807;https://maps.google.com/?cid=0x0:0x7c87b0b13ca08fe;
hardware store;hardware store;Borme;"Kabupaten Pegunungan Bintang, Papua";"Kabupaten Pegunungan Bintang, Papua";PAPUA;;Indonesia;;;;-43.227.031;1.403.894.858;https://maps.google.com/?cid=0x0:0x3ae0f9e7e82ab112;
hardware store;Toko Bahan Bangunan;Hardware Haus;"7XCQ+H9G, Mula St, Lae Morobe Province, Papua Nugini";"Lae, Papua Nugini";PAPUA;;Indonesia;6754724100;;;-67.285.537;1.469.884.375;https://maps.google.com/?cid=0x0:0x5128e5540d909546;
hardware store;Toko Bahan Bangunan;Badili Hardware - Lae;"Sect 29, Lot 7 Macdhui St, Lae, Papua Nugini";"Lae, Papua Nugini";PAPUA;;Indonesia;6754731900;;;-67.371.068;1.469.927.215;https://maps.google.com/?cid=0x0:0x135d2e27bdc2fbcb;
hardware store;hardware store;Microtel Inn  Suites by Wyndham Eagle River/Anchorage Are;"13049 Old Glenn Hwy, Eagle River, AK 99577, Amerika Serikat";Old Glenn Hwy;PAPUA;13049;Indonesia;19076226000;;;613.386.741;-149.561.794;https://maps.google.com/?cid=0x0:0xe9ffb16baefc8021;
hardware store;hardware store;Kec. Kiwirok Tim.;"Kabupaten Pegunungan Bintang, Papua";"Kabupaten Pegunungan Bintang, Papua";PAPUA;;Indonesia;;;;-4.743.346;1.408.487.154;https://maps.google.com/?cid=0x0:0xc88801b2edd72d55;
hardware store;Toko Bahan Bangunan;Toko habibi;"7GC6+82H, Jln Saberi. Masabuay, Wasior I, Distrik Wasior, Kabupaten Teluk Wondama, Papua Bar. 98362";"Jln Saberi. Masabuay, Wasior I, Distrik Wasior, Kabupaten Teluk Wondama";PAPUA;98362;Indonesia;;;;-27.291.953;1.345.101.099;https://maps.google.com/?cid=0x0:0x7307e67b2bf16401;
hardware store;Toko;TB Wondama Sentosa;"Wasior - Nabire, Miei, Maniwak, Distrik Wasior, Kabupaten Teluk Wondama, Papua Bar. 98362";"Miei, Maniwak, Distrik Wasior, Kabupaten Teluk Wondama";PAPUA;98362;Indonesia;08113771366;;;-27.361.124;1.345.131.112;https://maps.google.com/?cid=0x0:0xa4797422a9cf9482;
hardware store;Toko Bahan Bangunan;Casa Hardware;"575Q+7GR, Mount Hagen Western Highlands Province, Papua Nugini";"Mount Hagen, Papua Nugini";PAPUA;;Indonesia;;;;-58.417.722;144.288.756;https://maps.google.com/?cid=0x0:0x5572b0cd99723bb6;
hardware store;Toko Bahan Bangunan;MR.DIY;"SAGA MALL, Jl. Raya Abepura - Sentani No.10, Kota Baru, Kec. Abepura, Kota Jayapura, Papua 99351";"Jl. Raya Abepura - Sentani No.10, Kota Baru, Kec. Abepura, Kota Jayapura";PAPUA;99351;Indonesia;02130022789;;;-26.109.281;1.406.653.911;https://maps.google.com/?cid=0x0:0x358656739b141f38;
hardware store;hardware store;Distrik Pepera;"Kabupaten Pegunungan Bintang, Papua";"Kabupaten Pegunungan Bintang, Papua";PAPUA;;Indonesia;;;;-48.872.459;1.407.305.111;https://maps.google.com/?cid=0x0:0x1239d5884917d2c1;
hardware store;Toko Bahan Bangunan;Toko POWER;"9MQ6+JQ6, Kota Baru, Kec. Abepura, Kota Jayapura, Papua 99351";"Kota Baru, Kec. Abepura, Kota Jayapura";PAPUA;99351;Indonesia;0967585293;;;-26.109.566;1.406.618.948;https://maps.google.com/?cid=0x0:0xfd7552a1cd201463;
hardware store;Toko Aki Mobil;ENG BATTREY;"QG3W+F32, jalan cukanggalih cibenter curug, Cukang Galih, Kec. Curug, Kabupaten Tangerang, Banten 15810";"jalan cukanggalih cibenter curug, Cukang Galih, Kec. Curug, Kabupaten Tangerang";PAPUA;15810;Indonesia;081318151665;;;-62.463.666;106.545.127;https://maps.google.com/?cid=0x0:0x1946bc27536a5e04;
hardware store;hardware store;Distrik Bime;"Kabupaten Pegunungan Bintang, Papua";"Kabupaten Pegunungan Bintang, Papua";PAPUA;;Indonesia;;;;-4.488.256;1.402.199.566;https://maps.google.com/?cid=0x0:0xdb4257b29554af6e;
hardware store;Toko Kayu;TrustWorthy Hardware and Lumber Supply;"17034 N Eagle River Loop Rd STE 101, Eagle River, AK 99577, Amerika Serikat";N Eagle River Loop Rd STE 101;PAPUA;17034;Indonesia;19076949384;;;613.279.107;-1.495.642.279;https://maps.google.com/?cid=0x0:0xd82757e8fb165462;
hardware store;Toko Bahan Bangunan;AIH Alaska Industrial Hardware Inc.;"12340 Old Glenn Hwy, Eagle River, AK 99577, Amerika Serikat";Old Glenn Hwy;PAPUA;12340;Indonesia;19076942988;;;613.321.664;-1.495.675.009;https://maps.google.com/?cid=0x0:0x5a2f3a5dd2f90f27;
hardware store;hardware store;Distrik Alemsom;"Kabupaten Pegunungan Bintang, Papua";"Kabupaten Pegunungan Bintang, Papua";PAPUA;;Indonesia;;;;-47.239.845;1.402.862.819;https://maps.google.com/?cid=0x0:0x2d79a847a7c70a92;
hardware store;Toko;Toko ajb;"Jln inpres urfas, Kemon Jaya Sp V, Kec. Urei Faisei, Kabupaten Waropen, Papua 98663";"Kemon Jaya Sp V, Kec. Urei Faisei, Kabupaten Waropen";PAPUA;98663;Indonesia;082399530919;;;-2.209.432;136.415.572;https://maps.google.com/?cid=0x0:0x9d727fa236c3e1d6;
hardware store;Toko;TOKO AB;"QCVQ+FXM, Ureifasei Tiga/Paradoi, Kec. Urei Faisei, Kabupaten Waropen, Papua 98261";"Ureifasei Tiga/Paradoi, Kec. Urei Faisei, Kabupaten Waropen";PAPUA;98261;Indonesia;;;;-22.063.483;1.364.399.667;https://maps.google.com/?cid=0x0:0x7fdce44636edda7c;
hardware store;Toko Bahan Bangunan;Casa Hardware;"575Q+7GR, Mount Hagen Western Highlands Province, Papua Nugini";"Mount Hagen, Papua Nugini";PAPUA;;Indonesia;;;;-58.417.722;144.288.756;https://maps.google.com/?cid=0x0:0x5572b0cd99723bb6;
hardware store;hardware store;Kec. Ok Bape;"Kabupaten Pegunungan Bintang, Papua";"Kabupaten Pegunungan Bintang, Papua";PAPUA;;Indonesia;;;;-47.079.703;140.534.262;https://maps.google.com/?cid=0x0:0xddeed733d7c1a330;
hardware store;hardware store;Distrik Kolomdol;"Kabupaten Pegunungan Bintang, Papua";"Kabupaten Pegunungan Bintang, Papua";PAPUA;;Indonesia;;;;-49.670.754;1.405.860.497;https://maps.google.com/?cid=0x0:0x24dc4f034dc31161;
hardware store;hardware store;Kec. Oksop;"Kabupaten Pegunungan Bintang, Papua";"Kabupaten Pegunungan Bintang, Papua";PAPUA;;Indonesia;;;;-47.324.178;1.404.101.474;https://maps.google.com/?cid=0x0:0xdb805f296f748353;
hardware store;hardware store;Oksop;"Kec. Oksop, Kabupaten Pegunungan Bintang, Papua";"Kabupaten Pegunungan Bintang, Papua";PAPUA;;Indonesia;;;;-47.889.956;1.404.566.612;https://maps.google.com/?cid=0x0:0xad34f79db6b37d84;
hardware store;Toko Bahan Bangunan;Okay Hardware Sentul;"2062  2064, Jln Sentul Pasar, Taman Kosmo Jaya, 51000 Kuala Lumpur, Wilayah Persekutuan Kuala Lumpur, Malaysia";Kuala Lumpur;PAPUA;51000;Indonesia;60162106254;;;31.977.545;1.016.904.754;https://maps.google.com/?cid=0x0:0xf553151fdc90d184;
hardware store;Toko Bahan Bangunan;SR HARDWARE  BUILDING MATERIALS SDN BHD;"9, N179, Seremban 2, 70300 Seremban, Negeri Sembilan, Malaysia";Seremban;PAPUA;70300;Indonesia;60189438268;;;26.736.812;1.019.093.394;https://maps.google.com/?cid=0x0:0xa7f2e856dcea2190;
hardware store;Toko Bahan Bangunan;Sin Huat Hin Hardware  Building Materials;"No.37, Jalan S2 G2, Garden Avenue Seremban 2, 70300 Seremban, Negeri Sembilan, Malaysia";Seremban;PAPUA;70300;Indonesia;6066318511;;;26.811.259;1.019.028.494;https://maps.google.com/?cid=0x0:0x67a597c2d0b6bb9e;
hardware store;hardware store;Distrik Serambakon;"Kabupaten Pegunungan Bintang, Papua";"Kabupaten Pegunungan Bintang, Papua";PAPUA;;Indonesia;;;;-48.557.903;1.405.009.203;https://maps.google.com/?cid=0x0:0x171e1a77608fe958;
hardware store;hardware store;Kec. Ok Aon;"Kabupaten Pegunungan Bintang, Papua";"Kabupaten Pegunungan Bintang, Papua";PAPUA;;Indonesia;;;;-48.531.394;1.406.404.082;https://maps.google.com/?cid=0x0:0xa9b9ad08f3a2029c;
hardware store;Toko Bahan Bangunan;O K Hardware Sdn. Bhd.;"33  35, Jalan Dataran Suria 15/7/1, Sek.15, 42300 Puncak Alam, Selangor, Malaysia";Puncak Alam;PAPUA;42300;Indonesia;60122993226;;;32.333.789;1.014.139.889;https://maps.google.com/?cid=0x0:0x5b628b4612be6c8a;
hardware store;Toko Bahan Bangunan;Soon Ann Hardware Enterprise;"32, Jalan Niaga Bestari 8, 42300 Puncak Alam, Selangor, Malaysia";Puncak Alam;PAPUA;42300;Indonesia;60122177463;;;32.352.162;1.014.276.066;https://maps.google.com/?cid=0x0:0xd27fd217e585f4a5;
hardware store;Toko Bahan Bangunan;Casa Hardware;"575Q+7GR, Mount Hagen Western Highlands Province, Papua Nugini";"Mount Hagen, Papua Nugini";PAPUA;;Indonesia;;;;-58.417.722;144.288.756;https://maps.google.com/?cid=0x0:0x5572b0cd99723bb6;
hardware store;Toko Perlengkapan Rumah;Hardware Haus;"46PG+8P9, Highlands Hwy, Mount Hagen Western Highlands Province, Papua Nugini";"Mount Hagen, Papua Nugini";PAPUA;;Indonesia;67573880325;;;-58.642.066;1.442.268.657;https://maps.google.com/?cid=0x0:0x76e2d5c7034f0bfa;
hardware store;Toko Perlengkapan Rumah;AZKO Kota Kasablanka;"Kota Kasablanka, Jl. Raya Casablanca No.88, RT.16/RW.5, Menteng Dalam, Kec. Tebet, Kota Jakarta Selatan, Daerah Khusus Ibukota Jakarta 12870";"Jl. Raya Casablanca No.88, RT.16/RW.5, Menteng Dalam, Kec. Tebet, Kota Jakarta Selatan";PAPUA;12870;Indonesia;085781411671;;;-62.222.965;1.068.423.884;https://maps.google.com/?cid=0x0:0x93342bf0e4ddbcb0;
hardware store;Toko;Toko ajb;"Jln inpres urfas, Kemon Jaya Sp V, Kec. Urei Faisei, Kabupaten Waropen, Papua 98663";"Kemon Jaya Sp V, Kec. Urei Faisei, Kabupaten Waropen";PAPUA;98663;Indonesia;082399530919;;;-2.209.432;136.415.572;https://maps.google.com/?cid=0x0:0x9d727fa236c3e1d6;
hardware store;Toko;TOKO AB;"QCVQ+FXM, Ureifasei Tiga/Paradoi, Kec. Urei Faisei, Kabupaten Waropen, Papua 98261";"Ureifasei Tiga/Paradoi, Kec. Urei Faisei, Kabupaten Waropen";PAPUA;98261;Indonesia;;;;-22.063.483;1.364.399.667;https://maps.google.com/?cid=0x0:0x7fdce44636edda7c;
hardware store;Toko Bahan Bangunan;Casa Hardware;"575Q+7GR, Mount Hagen Western Highlands Province, Papua Nugini";"Mount Hagen, Papua Nugini";PAPUA;;Indonesia;;;;-58.417.722;144.288.756;https://maps.google.com/?cid=0x0:0x5572b0cd99723bb6;
hardware store;hardware store;Distrik Awinbon;"Kabupaten Pegunungan Bintang, Papua";"Kabupaten Pegunungan Bintang, Papua";PAPUA;;Indonesia;;;;-50.077.298;1.401.517.908;https://maps.google.com/?cid=0x0:0x5666ce7a04d7f46e;
hardware store;Toko Bahan Bangunan;Tangkas Maju Hardware Sdn Bhd;"Kampung Bukit Perah, 21800 Ajil, Terengganu, Malaysia";Ajil;PAPUA;21800;Indonesia;6096862763;;;50.882.261;1.030.881.775;https://maps.google.com/?cid=0x0:0xd999bcaf8b3ebb74;
hardware store;Toko Bahan Bangunan;Ajil Hardware Trading;"388-B, Pekan Ajil, 21800 Ajil, Terengganu, Malaysia";Ajil;PAPUA;21800;Indonesia;6096861585;;;50.796.691;1.030.819.219;https://maps.google.com/?cid=0x0:0x3b0a4cb4d5f30c62;
hardware store;;Harald Nyborg;"Solgårdsvej 2, A, 5210 Odense NV, Denmark";"Odense NV, Denmark";PAPUA;;Indonesia;4563959595;;;554.084.834;103.396.365;https://maps.google.com/?cid=0x0:0xf75f16785a55ad0f;
hardware store;Pusat Perbelanjaan;Tarup Center;"Rugvang 36, 5210 Odense NV, Denmark";"Odense NV, Denmark";PAPUA;;Indonesia;4596132109;;;55.409.506;10.339.169;https://maps.google.com/?cid=0x0:0x30ee087e2a131e87;
hardware store;hardware store;Distrik Okhika;"Kabupaten Pegunungan Bintang, Papua";"Kabupaten Pegunungan Bintang, Papua";PAPUA;;Indonesia;;;;-46.641.089;1.406.782.097;https://maps.google.com/?cid=0x0:0xa0bdbb44f3322b7e;
hardware store;Toko Bahan Bangunan;Casa Hardware;"575Q+7GR, Mount Hagen Western Highlands Province, Papua Nugini";"Mount Hagen, Papua Nugini";PAPUA;;Indonesia;;;;-58.417.722;144.288.756;https://maps.google.com/?cid=0x0:0x5572b0cd99723bb6;
hardware store;Toko Perlengkapan Rumah;Hardware Haus;"46PG+8P9, Highlands Hwy, Mount Hagen Western Highlands Province, Papua Nugini";"Mount Hagen, Papua Nugini";PAPUA;;Indonesia;67573880325;;;-58.642.066;1.442.268.657;https://maps.google.com/?cid=0x0:0x76e2d5c7034f0bfa;
hardware store;hardware store;Papua 99574;"Kabupaten Pegunungan Bintang, Papua";"Kabupaten Pegunungan Bintang, Papua";PAPUA;;Indonesia;;;;-4.640.956;1.407.624.493;https://maps.google.com/?cid=0x0:0x8501ef2800861902;
hardware store;hardware store;Papua;;Papua;PAPUA;;Indonesia;;;;-4.269.928;1.380.803.529;https://maps.google.com/?cid=0x0:0xeba94e9c5eefe673;
hardware store;Kantor Perusahaan;Sampoerna Kayoe;"Jl. Jenderal Sudirman No.3, RT.3/RW.4, Kuningan, Karet Semanggi, Kecamatan Setiabudi, Kota Jakarta Selatan, Daerah Khusus Ibukota Jakarta 12930";"RT.3/RW.4, Kuningan, Karet Semanggi, Kecamatan Setiabudi, Kota Jakarta Selatan";PAPUA;12930;Indonesia;;;;-62.154.626;1.068.179.682;https://maps.google.com/?cid=0x0:0xc60d6fcb12bdbb0f;
hardware store;Kedai Kopi;Ciao Venezia;"Sampoerna Strategic Square North Tower, RT.3, RW.4, Karet Semanggi, Kota Jakarta Selatan, Daerah Khusus Ibukota Jakarta";"Kota Jakarta Selatan, Daerah Khusus Ibukota Jakarta";PAPUA;;Indonesia;081399971919;;;-62.170.431;1.068.183.911;https://maps.google.com/?cid=0x0:0xf7b5612c9707aae6;
hardware store;hardware store;N/A;;;PAPUA;;Indonesia;;;;;;https://maps.google.com/?cid=0x0:0xc60d6fcb12bdbb0fu0026onu003dNanu0026midu003d/g/11h84ws46r;
hardware store;Kedai Kopi;Starbucks;"Sampoerna Strategic Tower A Ground Floors Unit 03, Jl. Jenderal Sudirman Kav. 45-46, RT.10/RW.3, Karet Semanggi, Daerah Khusus Ibukota Jakarta 12930";"Jl. Jenderal Sudirman Kav. 45-46, RT.10/RW.3, Karet Semanggi";PAPUA;12930;Indonesia;02157950727;;;-62.171.081;1.068.183.994;https://maps.google.com/?cid=0x0:0xf6871f10c6333748;
hardware store;hardware store;N/A;;;PAPUA;;Indonesia;;;;;;https://maps.google.com/?cid=0x0:0xc60d6fcb12bdbb0fu0026onu003dIce+Latteu0026midu003d/g/11h84ws46r;
hardware store;hardware store;N/A;;;PAPUA;;Indonesia;;;;;;https://maps.google.com/?cid=0x0:0xc60d6fcb12bdbb0fu0026onu0026midu003d/g/11h84ws46r;
hardware store;hardware store;Oklip;"Oklip, Kabupaten Pegunungan Bintang, Papua";"Kabupaten Pegunungan Bintang, Papua";PAPUA;;Indonesia;;;;-47.937.697;1.407.676.451;https://maps.google.com/?cid=0x0:0xad23e1e8aeb137d7;
hardware store;hardware store;Oklip;"Kabupaten Pegunungan Bintang, Papua";"Kabupaten Pegunungan Bintang, Papua";PAPUA;;Indonesia;;;;-47.704.144;1.407.884.322;https://maps.google.com/?cid=0x0:0x10a6da9b53085467;
hardware store;Toko Bahan Bangunan;Casa Hardware;"575Q+7GR, Mount Hagen Western Highlands Province, Papua Nugini";"Mount Hagen, Papua Nugini";PAPUA;;Indonesia;;;;-58.417.722;144.288.756;https://maps.google.com/?cid=0x0:0x5572b0cd99723bb6;
hardware store;Toko Perlengkapan Rumah;Hardware Haus;"46PG+8P9, Highlands Hwy, Mount Hagen Western Highlands Province, Papua Nugini";"Mount Hagen, Papua Nugini";PAPUA;;Indonesia;67573880325;;;-58.642.066;1.442.268.657;https://maps.google.com/?cid=0x0:0x76e2d5c7034f0bfa;
hardware store;Toko Bahan Bangunan;Okay Hardware Sentul;"2062  2064, Jln Sentul Pasar, Taman Kosmo Jaya, 51000 Kuala Lumpur, Wilayah Persekutuan Kuala Lumpur, Malaysia";Kuala Lumpur;PAPUA;51000;Indonesia;60162106254;;;31.977.545;1.016.904.754;https://maps.google.com/?cid=0x0:0xf553151fdc90d184;
hardware store;Toko Perlengkapan Rumah;Hardware Haus;"46PG+8P9, Highlands Hwy, Mount Hagen Western Highlands Province, Papua Nugini";"Mount Hagen, Papua Nugini";PAPUA;;Indonesia;67573880325;;;-58.642.066;1.442.268.657;https://maps.google.com/?cid=0x0:0x76e2d5c7034f0bfa;
hardware store;Toko Bahan Bangunan;Casa Hardware;"575Q+7GR, Mount Hagen Western Highlands Province, Papua Nugini";"Mount Hagen, Papua Nugini";PAPUA;;Indonesia;;;;-58.417.722;144.288.756;https://maps.google.com/?cid=0x0:0x5572b0cd99723bb6;
hardware store;Toko Bahan Bangunan;Kow Hock Building Materials (Kulai) Sdn. Bhd.;"251, Jln Kenanga 29/8, Indahpura, 81000 Kulai, Johor, Malaysia";Kulai;PAPUA;81000;Indonesia;60165653398;;;16.415.725;1.036.167.503;https://maps.google.com/?cid=0x0:0x33756ba49a990041;
hardware store;Toko Bahan Bangunan;Okay Hardware Sentul;"2062  2064, Jln Sentul Pasar, Taman Kosmo Jaya, 51000 Kuala Lumpur, Wilayah Persekutuan Kuala Lumpur, Malaysia";Kuala Lumpur;PAPUA;51000;Indonesia;60162106254;;;31.977.545;1.016.904.754;https://maps.google.com/?cid=0x0:0xf553151fdc90d184;
hardware store;Toko Perlengkapan Rumah;The D.i.y Store;"Jln Kampung Bandar Dalam, Taman Kosmo Jaya, 51000 Kuala Lumpur, Sentul, Malaysia";Kuala Lumpur;PAPUA;51000;Indonesia;60340440228;;;31.958.762;1.016.906.153;https://maps.google.com/?cid=0x0:0x1dc58af175adfc57;
hardware store;Toko Bahan Bangunan;TOKO BAHAN BANGUNAN “TRINITY HOME”;"Jalan Baru Pasar Lama, Wahno, Kec. Abepura, Kota Jayapura, Papua 99224";"Wahno, Kec. Abepura, Kota Jayapura";PAPUA;99224;Indonesia;081232337934;;;-25.958.248;1.406.809.957;https://maps.google.com/?cid=0x0:0x41c321d86b054228;
hardware store;Toko Bahan Bangunan;"Cipta Jaya Bangunan, Jayapura";"Jl. Percetakan Negara No.94, Gurabesi, Kec. Jayapura Utara, Kota Jayapura, Papua 99111";"Gurabesi, Kec. Jayapura Utara, Kota Jayapura";PAPUA;99111;Indonesia;0967531277;;;-25.420.897;1.407.021.193;https://maps.google.com/?cid=0x0:0x2de894c0927bf6ca;
hardware store;Toko Bahan Bangunan;Bata Antasari 34;"34, Jl. Pangeran Antasari No.34, RT.4/RW.1, Cilandak Bar., Kec. Cilandak, Kota Jakarta Selatan, Daerah Khusus Ibukota Jakarta 12410";"Jl. Pangeran Antasari No.34, RT.4/RW.1, Cilandak Bar., Kec. Cilandak, Kota Jakarta Selatan";PAPUA;12410;Indonesia;087878732532;;;-62.876.305;1.068.068.238;https://maps.google.com/?cid=0x0:0xcce0749436190ef4;
hardware store;Toko Bahan Bangunan;toko bangunan Yep'Mum;"4Q38+6C4, Jl. Garuda, Arso Kota, Kec. Arso, Kabupaten Keerom, Papua 99468";"Jl. Garuda, Arso Kota, Kec. Arso, Kabupaten Keerom";PAPUA;99468;Indonesia;085244664394;;;-28.970.308;1.407.661.616;https://maps.google.com/?cid=0x0:0x9649c22840d7e67e;
hardware store;Toko Bahan Bangunan;TB Makmur Jaya;"Jl. Garuda kam yuwanain, Kec. Arso, Kabupaten Keerom, Papua 99361";"Kec. Arso, Kabupaten Keerom";PAPUA;99361;Indonesia;085211831980;;;-2.897.803;140.763.938;https://maps.google.com/?cid=0x0:0xc3d55026b5b47915;
hardware store;Toko Bahan Bangunan;Hardware haus;"CJWG+9C7, Wewak East Sepik Province, Papua Nugini";"Wewak, Papua Nugini";PAPUA;;Indonesia;;;;-35.540.823;1.436.260.325;https://maps.google.com/?cid=0x0:0x412d8995bec927ab;
hardware store;Toko Bahan Bangunan;Wira Komersil;"Jl Bandengan Selatan 84A%2F10 Pejagalan Penjaringan Jakarta Utara DKI Jakarta, RT.3/RW.16, Penjaringan, Kec. Penjaringan, Jkt Utara, Daerah Khusus Ibukota Jakarta 14450";"RT.3/RW.16, Penjaringan, Kec. Penjaringan, Jkt Utara";PAPUA;14450;Indonesia;0216690363;;;-61.370.277;1.067.942.696;https://maps.google.com/?cid=0x0:0x5dcf66836e71a5a9;
hardware store;Toko Bahan Bangunan;PD. Wijaya Sakti;"Jl. Muara Karang Selatan Blok CC-5 No. 32-A Pejagalan Penjaringan Jakarta Utara DKI Jakarta, RT.23/RW.8, Penjaringan, Kec. Penjaringan, Jkt Utara, Daerah Khusus Ibukota Jakarta 14450";"RT.23/RW.8, Penjaringan, Kec. Penjaringan, Jkt Utara";PAPUA;14450;Indonesia;0216679826;;;-61.300.661;1.067.854.335;https://maps.google.com/?cid=0x0:0xc1d582be37ae4c95;
hardware store;Toko Bahan Bangunan;Hardware Haus Depot;"G5WP+PRX, Port Moresby National Capital District, Papua Nugini";"Port Moresby, Papua Nugini";PAPUA;;Indonesia;67579254555;;;-9.453.144;1.471.871.122;https://maps.google.com/?cid=0x0:0x90af1a4bb255158c;
hardware store;hardware store;Murkim;"Kabupaten Pegunungan Bintang, Papua";"Kabupaten Pegunungan Bintang, Papua";PAPUA;;Indonesia;;;;-40.028.727;1.407.416.707;https://maps.google.com/?cid=0x0:0x9771017657678e7d;
hardware store;Toko Bahan Bangunan;Badili Hardware;"Klinki Street, Off Waigani Drive, Port Moresby, Papua Nugini";"Port Moresby, Papua Nugini";PAPUA;;Indonesia;6753037200;;;-9.448.217;147.182.907;https://maps.google.com/?cid=0x0:0x575627342c3422aa;
hardware store;Toko Suku Cadang Mobil;Biru Laut Baut  Alat Teknik;"Jl. KH. Noer Ali No.41, Bintara Jaya, Kec. Bekasi Bar., Kota Bks, Jawa Barat 17136";"Bintara Jaya, Kec. Bekasi Bar., Kota Bks";PAPUA;17136;Indonesia;081912014731;;;-62.495.205;1.069.499.903;https://maps.google.com/?cid=0x0:0xbedd14583c713876;
hardware store;Toko Suku Cadang Motor;Toko Biru Laut Grosir Baut;"Jl. KH. Noer Ali No.13, RT.007/RW.003, Jakasampurna, Kec. Bekasi Bar., Kota Bks, Jawa Barat 17145";"RT.007/RW.003, Jakasampurna, Kec. Bekasi Bar., Kota Bks";PAPUA;17145;Indonesia;;;;-6.249.386;1.069.511.479;https://maps.google.com/?cid=0x0:0x26461c2bc77e20e3;
hardware store;Toko Bahan Bangunan;Casa Hardware;"575Q+7GR, Mount Hagen Western Highlands Province, Papua Nugini";"Mount Hagen, Papua Nugini";PAPUA;;Indonesia;;;;-58.417.722;144.288.756;https://maps.google.com/?cid=0x0:0x5572b0cd99723bb6;
hardware store;Toko Perlengkapan Rumah;Hardware Haus;"46PG+8P9, Highlands Hwy, Mount Hagen Western Highlands Province, Papua Nugini";"Mount Hagen, Papua Nugini";PAPUA;;Indonesia;67573880325;;;-58.642.066;1.442.268.657;https://maps.google.com/?cid=0x0:0x76e2d5c7034f0bfa;
hardware store;Toko Bahan Bangunan;Ming Shin Hardware General Store;"Beaufort Highway, 1/2, Jalan Bukit Manggis, Bandar Papar, 89607 Papar, Sabah, Malaysia";Papar;PAPUA;89607;Indonesia;60163233627;;;5.727.189;115.934.387;https://maps.google.com/?cid=0x0:0xc50c66d315e713fc;
hardware store;hardware store;Papua 99572;"Kabupaten Pegunungan Bintang, Papua";"Kabupaten Pegunungan Bintang, Papua";PAPUA;;Indonesia;;;;-43.578.129;1.404.308.159;https://maps.google.com/?cid=0x0:0x3d3d35db4afd3dc1;
hardware store;Toko Bahan Bangunan;Sunlight Timber Hardware;"Sunlight Timber Hardware, kg patikang laut, Jalan Keningau Kimanis, 89000 Keningau, Sabah, Malaysia";Keningau;PAPUA;89000;Indonesia;;;;53.368.835;1.161.370.017;https://maps.google.com/?cid=0x0:0xae3feb2f987829d6;
hardware store;Toko Bahan Bangunan;Keningau Hardware Sdn Bhd;"Jalan Tenom - Keningau, 89000 Keningau, Sabah, Malaysia";Keningau;PAPUA;89000;Indonesia;6087338279;;;53.264.547;1.161.492.132;https://maps.google.com/?cid=0x0:0x809eae33c03142a0;
hardware store;Toko Bahan Bangunan;Tropiwood timber and hardware;"89150 Tuaran, Sabah, Malaysia";Tuaran;PAPUA;89150;Indonesia;60166055727;;;61.706.741;1.162.208.132;https://maps.google.com/?cid=0x0:0x9b9d7768b7124bcb;
hardware store;Toko Bahan Bangunan;TOKO KEYMART;"467R+FJ7, Jl. Diponegoro, Serui Kota, Kec. Yapen Sel., Kabupaten Kepulauan Yapen, Papua 98215";"Jl. Diponegoro, Serui Kota, Kec. Yapen Sel., Kabupaten Kepulauan Yapen";PAPUA;98215;Indonesia;;;;-18.862.936;1.362.415.923;https://maps.google.com/?cid=0x0:0x114d109271fad46;
hardware store;Toko Bahan Bangunan;Ken Hardware;"467R+FJ7, Jl. Diponegoro, Serui Kota, Kec. Yapen Sel., Kabupaten Kepulauan Yapen, Papua 98215";"Jl. Diponegoro, Serui Kota, Kec. Yapen Sel., Kabupaten Kepulauan Yapen";PAPUA;98215;Indonesia;;;;-18.863.257;1.362.415.418;https://maps.google.com/?cid=0x0:0x236952e7e235b610;
hardware store;Toko Bahan Bangunan;E E Hardware;"City of Bayugan, Agusan del Sur, Filipina";"City of Bayugan, Agusan del Sur, Filipina";PAPUA;;Indonesia;;;;8.713.766;1.257.552.179;https://maps.google.com/?cid=0x0:0xdc0ef33c6ff4dc30;
hardware store;Toko;Boyzcell;"GQGH+H9G, Nanggerang, Kec. Tajur Halang, Kabupaten Bogor, Jawa Barat 16320";"Nanggerang, Kec. Tajur Halang, Kabupaten Bogor";PAPUA;16320;Indonesia;081280926680;;;-64.735.682;1.067.784.564;https://maps.google.com/?cid=0x0:0xe0d65a49cc1b4af5;
hardware store;Kios;Konter Boy Cell;"Jl. Dudung Sukarta, Candali, Kec. Ranca Bungur, Kabupaten Bogor, Jawa Barat 16310";"Candali, Kec. Ranca Bungur, Kabupaten Bogor";PAPUA;16310;Indonesia;;;;-65.012.156;1.067.125.821;https://maps.google.com/?cid=0x0:0x646383b61fca5c43;
hardware store;hardware store;Distrik Pamek;"Kabupaten Pegunungan Bintang, Papua";"Kabupaten Pegunungan Bintang, Papua";PAPUA;;Indonesia;;;;-43.791.595;139.998.236;https://maps.google.com/?cid=0x0:0xed125e3af8269928;
hardware store;Toko Bahan Bangunan;Oi Lau Timber  Hardware Suppliers;"Port Moresby National Capital District, Papua Nugini";"Port Moresby, Papua Nugini";PAPUA;;Indonesia;6753236018;;;-94.495.639;1.471.897.277;https://maps.google.com/?cid=0x0:0xb05737aacf90c631;
hardware store;Toko Bahan Bangunan;Sunshine Hardware;"Kawai Dr, Port Moresby National Capital District, Papua Nugini";"Port Moresby, Papua Nugini";PAPUA;;Indonesia;6753233221;;;-94.479.798;1.471.871.482;https://maps.google.com/?cid=0x0:0x3d98e0d0ab5a64f6;
hardware store;Toko Bahan Bangunan;AIH Alaska Industrial Hardware Inc.;"12340 Old Glenn Hwy, Eagle River, AK 99577, Amerika Serikat";Old Glenn Hwy;PAPUA;12340;Indonesia;19076942988;;;613.321.664;-1.495.675.009;https://maps.google.com/?cid=0x0:0x5a2f3a5dd2f90f27;
hardware store;Toko Perlengkapan Rumah;Azko Radio Dalam;"Jl. Radio Dalam Raya No.17B 10, RT.10/RW.1, Gandaria Utara, Kec. Kby. Baru, Kota Jakarta Selatan, Daerah Khusus Ibukota Jakarta 12140";"RT.10/RW.1, Gandaria Utara, Kec. Kby. Baru, Kota Jakarta Selatan";PAPUA;12140;Indonesia;081584851025;;;-6.251.579;106.791.724;https://maps.google.com/?cid=0x0:0x923642051933a42b;
hardware store;Toko Perlengkapan Rumah;Azko Panglima Polim;"PQXX+M28, Jl. Panglima Polim No.73 1, Melawai, Kec. Kby. Baru, Kota Jakarta Selatan, Daerah Khusus Ibukota Jakarta 12160";"Jl. Panglima Polim No.73 1, Melawai, Kec. Kby. Baru, Kota Jakarta Selatan";PAPUA;12160;Indonesia;085215450928;;;-62.507.589;1.067.976.592;https://maps.google.com/?cid=0x0:0x58721b3df20e0768;
hardware store;hardware store;Nongme;"Kabupaten Pegunungan Bintang, Papua";"Kabupaten Pegunungan Bintang, Papua";PAPUA;;Indonesia;;;;-42.374.677;140.059.845;https://maps.google.com/?cid=0x0:0x74529e9836b33803;
hardware store;Toko bahan makanan;Alaska Commercial Company;"295 Main St E, Dillingham, AK 99576, Amerika Serikat";"Dillingham, AK";PAPUA;99576;Indonesia;19078425444;;;590.393.663;-1.584.665.797;https://maps.google.com/?cid=0x0:0xb8d605c1fe0e27e8;
home improvement;home improvement;Oksibil;"Tarangop, Kec. Kawor, Kabupaten Pegunungan Bintang, Papua";"Kabupaten Pegunungan Bintang, Papua";PAPUA;;Indonesia;;;;-5.080.177;140.635.803;https://maps.google.com/?cid=0x0:0xf18d2b627917ee12;
home improvement;home improvement;Kec. Tebet;"Kota Jakarta Selatan, Daerah Khusus Ibukota Jakarta";"Kota Jakarta Selatan, Daerah Khusus Ibukota Jakarta";PAPUA;;Indonesia;;;;-62.251.223;1.068.549.881;https://maps.google.com/?cid=0x0:0xd575e31c807295f9;
home improvement;Sekolah menengah;HOME WIFI;"SMK Negeri 1, Komplek perumahan guru, Kotdol, Distrik Oksibil, Kabupaten Pegunungan Bintang, Papua 99573";"Komplek perumahan guru, Kotdol, Distrik Oksibil, Kabupaten Pegunungan Bintang";PAPUA;99573;Indonesia;;;;-49.030.748;1.406.024.578;https://maps.google.com/?cid=0x0:0x8ed62cc1223ef378;
home improvement;home improvement;Kec. Kiwirok;"Kabupaten Pegunungan Bintang, Papua";"Kabupaten Pegunungan Bintang, Papua";PAPUA;;Indonesia;;;;-47.151.742;1.407.444.135;https://maps.google.com/?cid=0x0:0xfa9674635b933b35;
home improvement;Landasan Pacu;Bandar Udara Kiwirok;"7PPR+H3V, Oknanggul, Kec. Kiwirok, Kabupaten Pegunungan Bintang, Papua 99574";"Oknanggul, Kec. Kiwirok, Kabupaten Pegunungan Bintang";PAPUA;99574;Indonesia;;;;-47.135.108;1.407.401.754;https://maps.google.com/?cid=0x0:0x9a9ff19978c02dc1;
home improvement;Layanan Transportasi;Cv oktewe putra;"Okhim, Oklip, Kabupaten Pegunungan Bintang, Papua 99574";"Oklip, Kabupaten Pegunungan Bintang";PAPUA;99574;Indonesia;081292007179;;;-47.432.551;140.828.536;https://maps.google.com/?cid=0x0:0x1d6f694472d8e6d2;
home improvement;home improvement;Okbi;"Kabupaten Pegunungan Bintang, Papua";"Kabupaten Pegunungan Bintang, Papua";PAPUA;;Indonesia;;;;-46.040.293;1.404.514.913;https://maps.google.com/?cid=0x0:0x5eafc8bf76c1656f;
home improvement;home improvement;Distrik Batom;"Kabupaten Pegunungan Bintang, Papua";"Kabupaten Pegunungan Bintang, Papua";PAPUA;;Indonesia;;;;-44.466.638;1.408.794.807;https://maps.google.com/?cid=0x0:0x7c87b0b13ca08fe;
home improvement;home improvement;Borme;"Kabupaten Pegunungan Bintang, Papua";"Kabupaten Pegunungan Bintang, Papua";PAPUA;;Indonesia;;;;-43.227.031;1.403.894.858;https://maps.google.com/?cid=0x0:0x3ae0f9e7e82ab112;
home improvement;home improvement;"Eagle River, Alaska 99577";"Eagle River, Alaska, Amerika Serikat";"Eagle River, Alaska, Amerika Serikat";PAPUA;;Indonesia;;;;612.673.638;-1.492.891.675;https://maps.google.com/?cid=0x0:0xf46fe750b05ad7e4;
home improvement;home improvement;Microtel Inn  Suites by Wyndham Eagle River/Anchorage Are;"13049 Old Glenn Hwy, Eagle River, AK 99577, Amerika Serikat";Old Glenn Hwy;PAPUA;13049;Indonesia;19076226000;;;613.386.741;-149.561.794;https://maps.google.com/?cid=0x0:0xe9ffb16baefc8021;
home improvement;Layanan Transportasi;Cv oktewe putra;"Okhim, Oklip, Kabupaten Pegunungan Bintang, Papua 99574";"Oklip, Kabupaten Pegunungan Bintang";PAPUA;99574;Indonesia;081292007179;;;-47.432.551;140.828.536;https://maps.google.com/?cid=0x0:0x1d6f694472d8e6d2;
home improvement;Bandara;Lapangan Terbang Oklip;"6QQH+6V4, Delpem, Kec. Kiwirok, Kabupaten Pegunungan Bintang, Papua 99574";"Delpem, Kec. Kiwirok, Kabupaten Pegunungan Bintang";PAPUA;99574;Indonesia;;;;-47.619.791;1.407.796.898;https://maps.google.com/?cid=0x0:0xd96214bb23668064;
home improvement;home improvement;Kec. Kiwirok Tim.;"Kabupaten Pegunungan Bintang, Papua";"Kabupaten Pegunungan Bintang, Papua";PAPUA;;Indonesia;;;;-4.743.346;1.408.487.154;https://maps.google.com/?cid=0x0:0xc88801b2edd72d55;
home improvement;home improvement;Papua 99572;"Kabupaten Pegunungan Bintang, Papua";"Kabupaten Pegunungan Bintang, Papua";PAPUA;;Indonesia;;;;-43.578.129;1.404.308.159;https://maps.google.com/?cid=0x0:0x3d3d35db4afd3dc1;
home improvement;home improvement;Aboy;"Kabupaten Pegunungan Bintang, Papua";"Kabupaten Pegunungan Bintang, Papua";PAPUA;;Indonesia;;;;-4.237.846;1.405.964.124;https://maps.google.com/?cid=0x0:0x2598c921a3c62e1e;
home improvement;home improvement;Distrik Pepera;"Kabupaten Pegunungan Bintang, Papua";"Kabupaten Pegunungan Bintang, Papua";PAPUA;;Indonesia;;;;-48.872.459;1.407.305.111;https://maps.google.com/?cid=0x0:0x1239d5884917d2c1;
home improvement;;PT. Zamzani Berkah Solusindo;"Perkav DPRD DKI, Blok F8, RT.6/RW.5, Jatinegara, Kec. Cakung, Daerah Khusus Ibukota Jakarta";"Kota Jakarta Timur, Daerah Khusus Ibukota Jakarta";PAPUA;;Indonesia;081292696997;;;-61.948.379;1.069.313.902;https://maps.google.com/?cid=0x0:0xbfa406b84c9888e6;
home improvement;Produsen;PT. HJM;"Pergudangan Sentra Blok H3B Jalan Raya Kosambi Timur Kosambi, Kosambi Tim., Kosambi Timur, Kabupaten Tangerang, Banten 15213";"Kosambi Tim., Kosambi Timur, Kabupaten Tangerang";PAPUA;15213;Indonesia;0215555835;;;-6.080.824;1.067.002.786;https://maps.google.com/?cid=0x0:0x197b2b26041884d5;
home improvement;Pemasok Pipa;PT. Daffalindo Multi Sarana;"QV98+FXP, RT.7/RW.9, Bidara Cina, Kecamatan Jatinegara, Kota Jakarta Timur, Daerah Khusus Ibukota Jakarta 13330";"RT.7/RW.9, Bidara Cina, Kecamatan Jatinegara, Kota Jakarta Timur";PAPUA;13330;Indonesia;085260230269;;;-623.129;10.686.746;https://maps.google.com/?cid=0x0:0x8a4b4b0f26db856f;
home improvement;home improvement;Distrik Bime;"Kabupaten Pegunungan Bintang, Papua";"Kabupaten Pegunungan Bintang, Papua";PAPUA;;Indonesia;;;;-4.488.256;1.402.199.566;https://maps.google.com/?cid=0x0:0xdb4257b29554af6e;
home improvement;home improvement;"Eagle River, Alaska 99577";"Eagle River, Alaska, Amerika Serikat";"Eagle River, Alaska, Amerika Serikat";PAPUA;;Indonesia;;;;612.673.638;-1.492.891.675;https://maps.google.com/?cid=0x0:0xf46fe750b05ad7e4;
home improvement;home improvement;Microtel Inn  Suites by Wyndham Eagle River/Anchorage Are;"13049 Old Glenn Hwy, Eagle River, AK 99577, Amerika Serikat";Old Glenn Hwy;PAPUA;13049;Indonesia;19076226000;;;613.386.741;-149.561.794;https://maps.google.com/?cid=0x0:0xe9ffb16baefc8021;
home improvement;home improvement;Distrik Alemsom;"Kabupaten Pegunungan Bintang, Papua";"Kabupaten Pegunungan Bintang, Papua";PAPUA;;Indonesia;;;;-47.239.845;1.402.862.819;https://maps.google.com/?cid=0x0:0x2d79a847a7c70a92;
home improvement;home improvement;Kec. Ok Bape;"Kabupaten Pegunungan Bintang, Papua";"Kabupaten Pegunungan Bintang, Papua";PAPUA;;Indonesia;;;;-47.079.703;140.534.262;https://maps.google.com/?cid=0x0:0xddeed733d7c1a330;
home improvement;home improvement;Alaska Home Improvements;;;PAPUA;;Indonesia;19077484645;;;62.105.315;-1.497.129.325;https://maps.google.com/?cid=0x0:0xe65801a8dc16b957;
home improvement;home improvement;Distrik Kolomdol;"Kabupaten Pegunungan Bintang, Papua";"Kabupaten Pegunungan Bintang, Papua";PAPUA;;Indonesia;;;;-49.670.754;1.405.860.497;https://maps.google.com/?cid=0x0:0x24dc4f034dc31161;
home improvement;home improvement;Kec. Oksop;"Kabupaten Pegunungan Bintang, Papua";"Kabupaten Pegunungan Bintang, Papua";PAPUA;;Indonesia;;;;-47.324.178;1.404.101.474;https://maps.google.com/?cid=0x0:0xdb805f296f748353;
home improvement;home improvement;Oksop;"Kec. Oksop, Kabupaten Pegunungan Bintang, Papua";"Kabupaten Pegunungan Bintang, Papua";PAPUA;;Indonesia;;;;-47.889.956;1.404.566.612;https://maps.google.com/?cid=0x0:0xad34f79db6b37d84;
home improvement;home improvement;Distrik Serambakon;"Kabupaten Pegunungan Bintang, Papua";"Kabupaten Pegunungan Bintang, Papua";PAPUA;;Indonesia;;;;-48.557.903;1.405.009.203;https://maps.google.com/?cid=0x0:0x171e1a77608fe958;
home improvement;Kompleks Apartemen;PT FUJI HOME JAPAN;"Jl. Tukad Batanghari No.3, Panjer, Denpasar Selatan, Kota Denpasar, Bali 80225";"Panjer, Denpasar Selatan, Kota Denpasar";PAPUA;80225;Indonesia;03614723564;;;-86.781.354;1.152.298.775;https://maps.google.com/?cid=0x0:0x154f87a522138ffe;
home improvement;Komplek perumahan;Rumah kos;"CVQV+W9C, Timika Jaya, Kec. Mimika Baru, Kabupaten Mimika, Papua 99971";"Timika Jaya, Kec. Mimika Baru, Kabupaten Mimika";PAPUA;99971;Indonesia;;;;-45.598.023;1.368.934.662;https://maps.google.com/?cid=0x0:0x29a98fbf396339dd;
home improvement;home improvement;Kec. Ok Aon;"Kabupaten Pegunungan Bintang, Papua";"Kabupaten Pegunungan Bintang, Papua";PAPUA;;Indonesia;;;;-48.531.394;1.406.404.082;https://maps.google.com/?cid=0x0:0xa9b9ad08f3a2029c;
home improvement;home improvement;Kec. Kawor;"Kabupaten Pegunungan Bintang, Papua";"Kabupaten Pegunungan Bintang, Papua";PAPUA;;Indonesia;;;;-51.786.087;1.405.198.992;https://maps.google.com/?cid=0x0:0xf01e9c51aacc2971;
home improvement;home improvement;Awinbon;"Distrik Awinbon, Kabupaten Pegunungan Bintang, Papua";"Kabupaten Pegunungan Bintang, Papua";PAPUA;;Indonesia;;;;-50.949.847;1.402.965.945;https://maps.google.com/?cid=0x0:0xe99d57a9410afcef;
home improvement;home improvement;Distrik Awinbon;"Kabupaten Pegunungan Bintang, Papua";"Kabupaten Pegunungan Bintang, Papua";PAPUA;;Indonesia;;;;-50.077.298;1.401.517.908;https://maps.google.com/?cid=0x0:0x5666ce7a04d7f46e;
home improvement;home improvement;Distrik Tarup;"Kabupaten Pegunungan Bintang, Papua";"Kabupaten Pegunungan Bintang, Papua";PAPUA;;Indonesia;;;;-51.570.425;1.409.757.647;https://maps.google.com/?cid=0x0:0xf4c8730c873f717;
home improvement;Pemasok Produk Karet;Toko Lia Teknik;"Jl. Pangeran Jayakarta No.129 Blok C. 15, Mangga Dua Sel., Kecamatan Sawah Besar, Kota Jakarta Pusat, Daerah Khusus Ibukota Jakarta 10730";"Mangga Dua Sel., Kecamatan Sawah Besar, Kota Jakarta Pusat";PAPUA;10730;Indonesia;081398867488;;;-61.422.455;1.068.301.839;https://maps.google.com/?cid=0x0:0x1591938ee1b8c787;
home improvement;Toko Mebel;ToBe Utama Wood  Furniture kayu Jati;"Jl. Muncul Jl. Puspitek, Muncul, Kec. Setu, Kota Tangerang Selatan, Banten 15314";"Muncul, Kec. Setu, Kota Tangerang Selatan";PAPUA;15314;Indonesia;085888877588;;;-63.456.083;1.066.696.628;https://maps.google.com/?cid=0x0:0xc5bf6e1a75ef0396;
home improvement;home improvement;Distrik Okhika;"Kabupaten Pegunungan Bintang, Papua";"Kabupaten Pegunungan Bintang, Papua";PAPUA;;Indonesia;;;;-46.641.089;1.406.782.097;https://maps.google.com/?cid=0x0:0xa0bdbb44f3322b7e;
home improvement;home improvement;Papua 99574;"Kabupaten Pegunungan Bintang, Papua";"Kabupaten Pegunungan Bintang, Papua";PAPUA;;Indonesia;;;;-4.640.956;1.407.624.493;https://maps.google.com/?cid=0x0:0x8501ef2800861902;
home improvement;home improvement;Papua;;Papua;PAPUA;;Indonesia;;;;-4.269.928;1.380.803.529;https://maps.google.com/?cid=0x0:0xeba94e9c5eefe673;
home improvement;home improvement;Oklip;"Kabupaten Pegunungan Bintang, Papua";"Kabupaten Pegunungan Bintang, Papua";PAPUA;;Indonesia;;;;-47.704.144;1.407.884.322;https://maps.google.com/?cid=0x0:0x10a6da9b53085467;
home improvement;home improvement;Oklip;"Oklip, Kabupaten Pegunungan Bintang, Papua";"Kabupaten Pegunungan Bintang, Papua";PAPUA;;Indonesia;;;;-47.937.697;1.407.676.451;https://maps.google.com/?cid=0x0:0xad23e1e8aeb137d7;
home improvement;Layanan Transportasi;Cv oktewe putra;"Okhim, Oklip, Kabupaten Pegunungan Bintang, Papua 99574";"Oklip, Kabupaten Pegunungan Bintang";PAPUA;99574;Indonesia;081292007179;;;-47.432.551;140.828.536;https://maps.google.com/?cid=0x0:0x1d6f694472d8e6d2;
home improvement;Bandara;Lapangan Terbang Oklip;"6QQH+6V4, Delpem, Kec. Kiwirok, Kabupaten Pegunungan Bintang, Papua 99574";"Delpem, Kec. Kiwirok, Kabupaten Pegunungan Bintang";PAPUA;99574;Indonesia;;;;-47.619.791;1.407.796.898;https://maps.google.com/?cid=0x0:0xd96214bb23668064;
home improvement;home improvement;Okbemta;"Kabupaten Pegunungan Bintang, Papua";"Kabupaten Pegunungan Bintang, Papua";PAPUA;;Indonesia;;;;-44.740.931;1.407.208.989;https://maps.google.com/?cid=0x0:0x872bb79c2891d253;
home improvement;home improvement;Distrik Oksebang;"Kabupaten Pegunungan Bintang, Papua";"Kabupaten Pegunungan Bintang, Papua";PAPUA;;Indonesia;;;;-47.586.522;1.407.364.771;https://maps.google.com/?cid=0x0:0x145e92bd2f820feb;
home improvement;Toko Bahan Bangunan;PT.KANGBANG DEKORASI BANGUNAN;"2, Jl. Pinangsia I No.7c, RT.11/RW.1, Pinangsia, Kec. Taman Sari, Kota Jakarta Barat, Daerah Khusus Ibukota Jakarta 11110";"Jl. Pinangsia I No.7c, RT.11/RW.1, Pinangsia, Kec. Taman Sari, Kota Jakarta Barat";PAPUA;11110;Indonesia;02162305835;;;-61.405.357;106.815.198;https://maps.google.com/?cid=0x0:0xaabd98324b1db811;
home improvement;Toko Bahan Bangunan;KANGBANG OFFICIAL;"Jl. Pinangsia I No.7c, RT.11/RW.5, Pinangsia, Kec. Taman Sari, Kota Jakarta Barat, Daerah Khusus Ibukota Jakarta 11110";"RT.11/RW.5, Pinangsia, Kec. Taman Sari, Kota Jakarta Barat";PAPUA;11110;Indonesia;087878006059;;;-61.406.323;1.068.149.518;https://maps.google.com/?cid=0x0:0x7ddb43a4f03efc6a;
home improvement;Toko Bunga;Bahrodin Bonsai;"G7R7+6R8, Pagutan, Dlimas, Kec. Tegalrejo, Kabupaten Magelang, Jawa Tengah 56192";"Pagutan, Dlimas, Kec. Tegalrejo, Kabupaten Magelang";PAPUA;56192;Indonesia;085602975369;;;-74.595.573;1.102.644.559;https://maps.google.com/?cid=0x0:0xa4125fc4b7d78426;
home improvement;Penerbit;Majalah InfoSAWIT;"Blok AR No. 37, Jl. Bukit Golf Riverside Jl. Arcadia Raya, Bojong Nangka, Kec. Gn. Putri, Kabupaten Bogor, Jawa Barat 16963";"Jl. Bukit Golf Riverside Jl. Arcadia Raya, Bojong Nangka, Kec. Gn. Putri, Kabupaten Bogor";PAPUA;16963;Indonesia;081284832789;;;-64.219.516;1.069.089.746;https://maps.google.com/?cid=0x0:0x235dbcd8a3c0f5bd;
home improvement;home improvement;Papua 99572;"Kabupaten Pegunungan Bintang, Papua";"Kabupaten Pegunungan Bintang, Papua";PAPUA;;Indonesia;;;;-43.578.129;1.404.308.159;https://maps.google.com/?cid=0x0:0x3d3d35db4afd3dc1;
home improvement;home improvement;Distrik Okbab;"Kabupaten Pegunungan Bintang, Papua";"Kabupaten Pegunungan Bintang, Papua";PAPUA;;Indonesia;;;;-44.591.074;1.403.986.638;https://maps.google.com/?cid=0x0:0x230d9d286d136c26;
home improvement;home improvement;Papua 99576;"Kabupaten Pegunungan Bintang, Papua";"Kabupaten Pegunungan Bintang, Papua";PAPUA;;Indonesia;;;;-41.176.623;1.407.624.493;https://maps.google.com/?cid=0x0:0x9e236cdcf6328593;
home improvement;home improvement;Distrik Batani;"Kabupaten Pegunungan Bintang, Papua";"Kabupaten Pegunungan Bintang, Papua";PAPUA;;Indonesia;;;;-40.316.983;1.400.819.983;https://maps.google.com/?cid=0x0:0xe7564011ad7ca983;
home improvement;home improvement;Distrik Weime;"Kabupaten Pegunungan Bintang, Papua";"Kabupaten Pegunungan Bintang, Papua";PAPUA;;Indonesia;;;;-43.975.064;1.402.862.819;https://maps.google.com/?cid=0x0:0x3dfe9a068b232231;
home improvement;home improvement;Papua 99576;"Kabupaten Pegunungan Bintang, Papua";"Kabupaten Pegunungan Bintang, Papua";PAPUA;;Indonesia;;;;-41.176.623;1.407.624.493;https://maps.google.com/?cid=0x0:0x9e236cdcf6328593;
home improvement;Kantor Perusahaan;Mr. SAFETY Group;"Jl. Raya Kelapa Nias Blok GN No.011 - 012, Jl. Raya Kelapa Nias Blok GN No.011 - 012 1, RT.1/RW.6, Klp. Gading Bar., Kec. Klp. Gading, Jkt Utara, Daerah Khusus Ibukota Jakarta 14240";"Jl. Raya Kelapa Nias Blok GN No.011 - 012 1, RT.1/RW.6, Klp. Gading Bar., Kec. Klp. Gading, Jkt Utara";PAPUA;14240;Indonesia;02122459009;;;-61.535.738;1.069.079.614;https://maps.google.com/?cid=0x0:0x4deb1ab5d8e13f8b;
home improvement;Layanan reparasi;Service Center Wika | Service Wika Pemanas Air Jakarta;"Jl. Citra Garden 1 Blok A6 No.35, Jalan Peta Barat, Kalideres, RT.11/RW.10 Kali, RT.11/RW.10, Kalideres, Kec. Kalideres, Kota Jakarta Barat, Daerah Khusus Ibukota Jakarta 11840";"Jalan Peta Barat, Kalideres, RT.11/RW.10 Kali, RT.11/RW.10, Kalideres, Kec. Kalideres, Kota Jakarta Barat";PAPUA;11840;Indonesia;081311115117;;;-61.354.976;1.066.988.662;https://maps.google.com/?cid=0x0:0x508c4fe163bfd141;
home improvement;Kantor Perusahaan;HYLA INDONESIA (Headquarter) / PT. Hyla Abadi;"Jl. Utan Kayu Raya No.26 1, RT.1/RW.2, Utan Kayu Utara, Kec. Matraman, Kota Jakarta Timur, Daerah Khusus Ibukota Jakarta 13120";"RT.1/RW.2, Utan Kayu Utara, Kec. Matraman, Kota Jakarta Timur";PAPUA;13120;Indonesia;081911115889;;;-6.193.694;106.864.866;https://maps.google.com/?cid=0x0:0x5f18125fd3c5e5d5;
home improvement;Jasa Konstruksi dan Bangunan;PT. MAYKY LOVIC TANGGUH PERKASA;"Jl. Garuda No.26m, RT.1/RW.2, Kemayoran, Kec. Kemayoran, Kota Jakarta Pusat, Daerah Khusus Ibukota Jakarta 10620";"RT.1/RW.2, Kemayoran, Kec. Kemayoran, Kota Jakarta Pusat";PAPUA;10620;Indonesia;0214227280;;;-61.631.677;1.068.431.874;https://maps.google.com/?cid=0x0:0x9f6d5ced59b36662;
home improvement;Pemasok Peralatan Laboratorium;PT. Edonilab Mitra Nusantara;"Ruko Gropek, Jl. Jatibaru Gg. V No.49 Blok F3, Kp. Bali, Kecamatan Tanah Abang, Kota Jakarta Pusat, Daerah Khusus Ibukota Jakarta 10250";"Jl. Jatibaru Gg. V No.49 Blok F3, Kp. Bali, Kecamatan Tanah Abang, Kota Jakarta Pusat";PAPUA;10250;Indonesia;081319286001;;;-61.865.984;1.068.122.037;https://maps.google.com/?cid=0x0:0xbde29090429788a1;
home improvement;Toko Cat;???????? Hui Wei Paint  Hardware Enterprise;"360E, Jalan Low Hee Kong, Hilir Garden, 75050 Ujong Pasir, Melaka, Malaysia";Ujong Pasir;PAPUA;75050;Indonesia;;;;21.863.976;1.022.730.516;https://maps.google.com/?cid=0x0:0x144f1203465981f8;
home improvement;home improvement;Wei Li Hardware Simpang Ampat;"Wei Li Hardware, Pusat Perniagaan, 34, Jalan Perniagaan Star Avenue, Star Avenue, 14100 Simpang Ampat, Pulau Pinang, Malaysia";Simpang Ampat;PAPUA;14100;Indonesia;60164400768;;;52.646.297;1.004.764.918;https://maps.google.com/?cid=0x0:0xeb4fa20cdc4287e8;
home improvement;Kantor Perusahaan;"Sichuan Weizhen High-Tech Material Co.,Ltd.";"1509 Xiangdao Blvd, 1509, Qingbaijiang District, Chengdu, Sichuan, Tiongkok, 610399";"1509, Qingbaijiang District, Chengdu, Sichuan";PAPUA;610399;Indonesia;"8,62884E+11";;;3.086.249;10.426.814;https://maps.google.com/?cid=0x0:0xc0a6c47420f10077;
home improvement;Perusahaan Media;Indonetwork: Direktori Bisnis dan B2B Marketplace;"Gedung Buncit 36, Jalan Warung Jati Barat No. 36, Ragunan, Jakarta Selatan, Jakarta, Daerah Khusus Ibukota Jakarta 12550";"Jalan Warung Jati Barat No. 36, Ragunan, Jakarta Selatan, Jakarta";PAPUA;12550;Indonesia;08041787878;;;-62.834.608;106.826.814;https://maps.google.com/?cid=0x0:0x5e637d3e8ed64050;
home improvement;home improvement;Murkim;"Kabupaten Pegunungan Bintang, Papua";"Kabupaten Pegunungan Bintang, Papua";PAPUA;;Indonesia;;;;-40.028.727;1.407.416.707;https://maps.google.com/?cid=0x0:0x9771017657678e7d;
home improvement;home improvement;Distrik Mofinop;"Kabupaten Pegunungan Bintang, Papua";"Kabupaten Pegunungan Bintang, Papua";PAPUA;;Indonesia;;;;-40.924.047;1.408.872.648;https://maps.google.com/?cid=0x0:0x3a52071e7d49136a;
home improvement;home improvement;Kec. Yefta;"Kabupaten Pegunungan Bintang, Papua";"Kabupaten Pegunungan Bintang, Papua";PAPUA;;Indonesia;;;;-40.581.184;1.405.756.887;https://maps.google.com/?cid=0x0:0xf9d52738f42277c5;
home improvement;Toko Motorsport;Maticholic;"Jl. Inhoftank Gg. Tegallega, Pelindung Hewan, Kec. Astanaanyar, Kota Bandung, Jawa Barat 40243";"Pelindung Hewan, Kec. Astanaanyar, Kota Bandung";PAPUA;40243;Indonesia;085659160789;;;-69.389.861;1.076.030.299;https://maps.google.com/?cid=0x0:0x958fe29abc85b9a1;
home improvement;Toko Suku Cadang Motor;NoLimitz Maticshop;"Jl. Cijagra No.14 B-C, Cijagra, Kec. Lengkong, Kota Bandung, Jawa Barat 40265";"Cijagra, Kec. Lengkong, Kota Bandung";PAPUA;40265;Indonesia;02273514926;;;-69.435.784;1.076.269.875;https://maps.google.com/?cid=0x0:0xed6a5e029614f8f;
home improvement;home improvement;Teiraplu;"Kabupaten Pegunungan Bintang, Papua";"Kabupaten Pegunungan Bintang, Papua";PAPUA;;Indonesia;;;;-38.310.636;140.265.662;https://maps.google.com/?cid=0x0:0x7579560ea8064870;
home improvement;home improvement;Papua 99572;"Kabupaten Pegunungan Bintang, Papua";"Kabupaten Pegunungan Bintang, Papua";PAPUA;;Indonesia;;;;-43.578.129;1.404.308.159;https://maps.google.com/?cid=0x0:0x3d3d35db4afd3dc1;
home improvement;home improvement;Distrik Epumek;"Kabupaten Pegunungan Bintang, Papua";"Kabupaten Pegunungan Bintang, Papua";PAPUA;;Indonesia;;;;-44.168.435;1.400.803.953;https://maps.google.com/?cid=0x0:0xfae5de68ea47222c;
home improvement;home improvement;Distrik Pamek;"Kabupaten Pegunungan Bintang, Papua";"Kabupaten Pegunungan Bintang, Papua";PAPUA;;Indonesia;;;;-43.791.595;139.998.236;https://maps.google.com/?cid=0x0:0xed125e3af8269928;
home improvement;home improvement;Alaska Home Improvements;;;PAPUA;;Indonesia;19077484645;;;62.105.315;-1.497.129.325;https://maps.google.com/?cid=0x0:0xe65801a8dc16b957;
home improvement;Kantor Pemerintah;Lembaga Kebijakan Pengadaan Barang/Jasa Pemerintah;"Kompleks Rasuna Epicentrum, Jalan Epicentrum Tengah Lot 11 B, RT.2/RW.5, Karet Kuningan, Kecamatan Setiabudi, Kota Jakarta Selatan, Daerah Khusus Ibukota Jakarta 12940";"Jalan Epicentrum Tengah Lot 11 B, RT.2/RW.5, Karet Kuningan, Kecamatan Setiabudi, Kota Jakarta Selatan";PAPUA;12940;Indonesia;02129935577;;;-62.167.542;1.068.333.046;https://maps.google.com/?cid=0x0:0x7567dbac7e5450ee;
home improvement;Kantor Perusahaan;PT. Pino Module Perkasa;"Jl. Malabar No.54, Malabar, Kec. Lengkong, Kota Bandung, Jawa Barat 40262";"Malabar, Kec. Lengkong, Kota Bandung";PAPUA;40262;Indonesia;0227303040;;;-69.244.213;1.076.237.836;https://maps.google.com/?cid=0x0:0x1d3d5adc415f57dc;
home improvement;Toko Kosmetik;POYA HOME;"No. 657?, Section 1, Zhongqing Rd, North District, Taichung City, Taiwan 404";"North District, Taichung City, Taiwan";PAPUA;;Indonesia;"8,86423E+11";;;241.714.238;1.206.716.809;https://maps.google.com/?cid=0x0:0xcd5a2dd55b10cad0;
home improvement;Toko Kosmetik;POYA?? ????? | POYA HOME ?? ????? | ???? | ????|????;"No. 145?, Dachang 2nd Rd, Sanmin District, Kaohsiung City, Taiwan 807";"Sanmin District, Kaohsiung City, Taiwan";PAPUA;;Indonesia;88673943300;;;22.644.347;1.203.318.991;https://maps.google.com/?cid=0x0:0x47252e732d20525;
home improvement;Kantor Pemerintah;LPSE Provinsi DKI Jakarta;"Jl. Kebon Sirih No. 18 Blok H Lantai 19, Gambir, RT.11/RW.2, Gambir, Kecamatan Gambir, Kota Jakarta Pusat, Daerah Khusus Ibukota Jakarta 10110";"Gambir, RT.11/RW.2, Gambir, Kecamatan Gambir, Kota Jakarta Pusat";PAPUA;10110;Indonesia;0213823256;;;-61.823.481;1.068.284.063;https://maps.google.com/?cid=0x0:0x8d0be02811aed5d9;
home improvement;home improvement;Papua 99576;"Kabupaten Pegunungan Bintang, Papua";"Kabupaten Pegunungan Bintang, Papua";PAPUA;;Indonesia;;;;-41.176.623;1.407.624.493;https://maps.google.com/?cid=0x0:0x9e236cdcf6328593;
home improvement;home improvement;Nongme;"Kabupaten Pegunungan Bintang, Papua";"Kabupaten Pegunungan Bintang, Papua";PAPUA;;Indonesia;;;;-42.374.677;140.059.845;https://maps.google.com/?cid=0x0:0x74529e9836b33803;
home improvement;Toko bahan makanan;L  M Supplies;"429 2nd Ave W Suite 550, Dillingham, AK 99576, Amerika Serikat";"Dillingham, AK";PAPUA;99576;Indonesia;19078425241;;;590.403.011;-1.584.638.015;https://maps.google.com/?cid=0x0:0x466e55bfd1e28ea6;
