Category;Real Category;Business Name;Address;City;State;Postal Code;Country;Phone;Email;Website;Latitude;Longitude;Map Link;Details Link
mall;mall;Oksibil;"Tarangop, Kec. Kawor, Kabupaten Pegunungan Bintang, Papua";"Kabupaten Pegunungan Bintang, Papua";PAPUA;;Indonesia;;;;-5.080.177;140.635.803;https://maps.google.com/?cid=0x0:0xf18d2b627917ee12;
mall;Minimarket;Pasar Baru Oksibil;"3JJM+F72, jalan, Kabiding, Iwur, kalomdol, Papua 99573";"jalan, Kabiding, Iwur, kalomdol";PAPUA;99573;Indonesia;;;;-49.188.529;1.406.331.298;https://maps.google.com/?cid=0x0:0xdf9abcb64a261ed2;
mall;mall;Pasar Mabilabol Oksibil;"3JXJ+2FP, Mabilabol, Distrik Oksibil, Kabupaten Pegunungan Bintang, Papua 99573";"Mabilabol, Distrik Oksibil, Kabupaten Pegunungan Bintang";PAPUA;99573;Indonesia;;;;-49.024.073;1.406.311.971;https://maps.google.com/?cid=0x0:0x5a7f4531c7f788d2;
mall;Landasan Pacu;Bandar Udara Kiwirok;"7PPR+H3V, Oknanggul, Kec. Kiwirok, Kabupaten Pegunungan Bintang, Papua 99574";"Oknanggul, Kec. Kiwirok, Kabupaten Pegunungan Bintang";PAPUA;99574;Indonesia;;;;-47.135.108;1.407.401.754;https://maps.google.com/?cid=0x0:0x9a9ff19978c02dc1;
mall;mall;Kec. Kiwirok;"Kabupaten Pegunungan Bintang, Papua";"Kabupaten Pegunungan Bintang, Papua";PAPUA;;Indonesia;;;;-47.151.742;1.407.444.135;https://maps.google.com/?cid=0x0:0xfa9674635b933b35;
mall;Bandara;Bandar Udara Kiwi;"8P2C+WWQ, Kiwi, Kec. Kiwirok, Kabupaten Pegunungan Bintang, Papua 99574";"Kiwi, Kec. Kiwirok, Kabupaten Pegunungan Bintang";PAPUA;99574;Indonesia;;;;-46.976.622;1.407.223.698;https://maps.google.com/?cid=0x0:0x1f721eabfadb232a;
mall;mall;Okbi;"Kabupaten Pegunungan Bintang, Papua";"Kabupaten Pegunungan Bintang, Papua";PAPUA;;Indonesia;;;;-46.040.293;1.404.514.913;https://maps.google.com/?cid=0x0:0x5eafc8bf76c1656f;
mall;Minimarket;Pasar Baru Oksibil;"3JJM+F72, jalan, Kabiding, Iwur, kalomdol, Papua 99573";"jalan, Kabiding, Iwur, kalomdol";PAPUA;99573;Indonesia;;;;-49.188.529;1.406.331.298;https://maps.google.com/?cid=0x0:0xdf9abcb64a261ed2;
mall;Pusat Perbelanjaan;Mall Jayapura;"APO, Jl. Samratulangi, Bayangkara, Kec. Jayapura Utara, Kota Jayapura, Papua 99112";"Jl. Samratulangi, Bayangkara, Kec. Jayapura Utara, Kota Jayapura";PAPUA;99112;Indonesia;09675150000;;;-25.351.775;1.407.061.874;https://maps.google.com/?cid=0x0:0x54294cb27964023;
mall;mall;Distrik Batom;"Kabupaten Pegunungan Bintang, Papua";"Kabupaten Pegunungan Bintang, Papua";PAPUA;;Indonesia;;;;-44.466.638;1.408.794.807;https://maps.google.com/?cid=0x0:0x7c87b0b13ca08fe;
mall;mall;Borme;"Kabupaten Pegunungan Bintang, Papua";"Kabupaten Pegunungan Bintang, Papua";PAPUA;;Indonesia;;;;-43.227.031;1.403.894.858;https://maps.google.com/?cid=0x0:0x3ae0f9e7e82ab112;
mall;Toko Pakaian Olahraga;Jakarta Premium Outlets - Tangerang;"Jl. Jalur Sutera Boulevard No.41, RT.003/RW.006, Panunggangan Tim., Kec. Pinang, Kota Tangerang, Banten 15143";"RT.003/RW.006, Panunggangan Tim., Kec. Pinang, Kota Tangerang";PAPUA;15143;Indonesia;;;;-62.202.252;1.066.597.055;https://maps.google.com/?cid=0x0:0x8cd173626fe3f3c1;
mall;mall;Pasar Bime;"G669+XM6, Bime, Distrik Bime, Kabupaten Pegunungan Bintang, Papua 99577";"Bime, Distrik Bime, Kabupaten Pegunungan Bintang";PAPUA;99577;Indonesia;;;;-44.875.869;1.402.191.422;https://maps.google.com/?cid=0x0:0x86eb5f2bd5227f75;
mall;Pusat Perbelanjaan;Grand Indonesia Shopping Town;"Jl. M.H. Thamrin No.1, Menteng, Kec. Menteng, Kota Jakarta Pusat, Daerah Khusus Ibukota Jakarta 10310";"Menteng, Kec. Menteng, Kota Jakarta Pusat";PAPUA;10310;Indonesia;02123580001;;;-61.965.848;1.068.224.882;https://maps.google.com/?cid=0x0:0xccfcc89b95aaf1ae;
mall;Pusat Perbelanjaan;Grand Indonesia;"Jl. MH Thamrin No.1, Menteng, Kec. Menteng, Kota Jakarta Pusat, Daerah Khusus Ibukota Jakarta 10310";"Menteng, Kec. Menteng, Kota Jakarta Pusat";PAPUA;10310;Indonesia;02123580001;;;-61.950.412;1.068.210.081;https://maps.google.com/?cid=0x0:0xb04ce66a7cb711d9;
mall;Pusat Perbelanjaan;Plaza Menteng;"Jl. HOS. Cokroaminoto No.79 3, RT.3/RW.5, Menteng, Kec. Menteng, Kota Jakarta Pusat, Daerah Khusus Ibukota Jakarta 10310";"RT.3/RW.5, Menteng, Kec. Menteng, Kota Jakarta Pusat";PAPUA;10310;Indonesia;02131935709;;;-61.969.114;1.068.287.882;https://maps.google.com/?cid=0x0:0x1e3c5f01ffe75ef5;
mall;Stasiun Pengisian Kendaraan Listrik;Hyundai St. Pengisian;"Jl. M.H. Thamrin No.30, Gondangdia, Kec. Menteng, Kota Jakarta Pusat, Daerah Khusus Ibukota Jakarta 10350";"Gondangdia, Kec. Menteng, Kota Jakarta Pusat";PAPUA;10350;Indonesia;08001878878;;;-61.930.305;1.068.225.998;https://maps.google.com/?cid=0x0:0x31855cd7abaa0013;
mall;Restoran;DILL Gourmet Cafe;"Jl. M.H. Thamrin No.28-30 9, RT.9/RW.5, Gondangdia, Kec. Menteng, Kota Jakarta Pusat, Daerah Khusus Ibukota Jakarta 10350";"RT.9/RW.5, Gondangdia, Kec. Menteng, Kota Jakarta Pusat";PAPUA;10350;Indonesia;02129924512;;;-61.927.562;1.068.218.392;https://maps.google.com/?cid=0x0:0x459d4488c2df5aed;
mall;Bioskop;Plaza Indonesia XXI;"Jl. M.H. Thamrin No.28 30, RT.9/RW.5, Gondangdia, Menteng, Central Jakarta City, Jakarta 10350";"RT.9/RW.5, Gondangdia, Menteng, Central Jakarta City";PAPUA;10350;Indonesia;02139838779;;;-61.929.965;1.068.222.255;https://maps.google.com/?cid=0x0:0x1a4c89bcaba1f411;
mall;Bar Minuman Anggur;CORKSCREW Plaza Indonesia;"Plaza Indonesia, Jl. M.H. Thamrin No.28-30 9, RT.9/RW.5, Gondangdia, Kec. Menteng, Kota Jakarta Pusat, Daerah Khusus Ibukota Jakarta 10350";"Jl. M.H. Thamrin No.28-30 9, RT.9/RW.5, Gondangdia, Kec. Menteng, Kota Jakarta Pusat";PAPUA;10350;Indonesia;02131996659;;;-61.941.666;1.068.223.591;https://maps.google.com/?cid=0x0:0x9c403282687928fe;
mall;mall;Keraton at The Plaza;"Jl. M.H. Thamrin No.Kav. 15, Gondangdia, Kec. Menteng, Kota Jakarta Pusat, Daerah Khusus Ibukota Jakarta 10350";"Gondangdia, Kec. Menteng, Kota Jakarta Pusat";PAPUA;10350;Indonesia;02151011234;;;-61.920.998;1.068.217.527;https://maps.google.com/?cid=0x0:0x6b7300b1530f0b09;
mall;mall;Kec. Kiwirok Tim.;"Kabupaten Pegunungan Bintang, Papua";"Kabupaten Pegunungan Bintang, Papua";PAPUA;;Indonesia;;;;-4.743.346;1.408.487.154;https://maps.google.com/?cid=0x0:0xc88801b2edd72d55;
mall;mall;Papua 99572;"Kabupaten Pegunungan Bintang, Papua";"Kabupaten Pegunungan Bintang, Papua";PAPUA;;Indonesia;;;;-43.578.129;1.404.308.159;https://maps.google.com/?cid=0x0:0x3d3d35db4afd3dc1;
mall;Pusat Perbelanjaan;Mall Jayapura;"APO, Jl. Samratulangi, Bayangkara, Kec. Jayapura Utara, Kota Jayapura, Papua 99112";"Jl. Samratulangi, Bayangkara, Kec. Jayapura Utara, Kota Jayapura";PAPUA;99112;Indonesia;09675150000;;;-25.351.775;1.407.061.874;https://maps.google.com/?cid=0x0:0x54294cb27964023;
mall;mall;Pasar Bime;"G669+XM6, Bime, Distrik Bime, Kabupaten Pegunungan Bintang, Papua 99577";"Bime, Distrik Bime, Kabupaten Pegunungan Bintang";PAPUA;99577;Indonesia;;;;-44.875.869;1.402.191.422;https://maps.google.com/?cid=0x0:0x86eb5f2bd5227f75;
mall;Pusat Perbelanjaan;Mall Senayan City;"Jl. Asia Afrika No.Lot 19, Gelora, Kecamatan Tanah Abang, Kota Jakarta Pusat, Daerah Khusus Ibukota Jakarta 10270";"Gelora, Kecamatan Tanah Abang, Kota Jakarta Pusat";PAPUA;10270;Indonesia;02172781000;;;-62.271.953;1.067.970.117;https://maps.google.com/?cid=0x0:0x300c043104acc004;
mall;Pusat Perbelanjaan;ASHTA District 8;"Jl. Senopati No.83, Senayan, Kec. Kby. Baru, Kota Jakarta Selatan, Daerah Khusus Ibukota Jakarta 12190";"Senayan, Kec. Kby. Baru, Kota Jakarta Selatan";PAPUA;12190;Indonesia;02150262888;;;-6.229.976;1.068.070.846;https://maps.google.com/?cid=0x0:0x1042cab307c13c5f;
mall;Pusat Perbelanjaan;Aboe;"Jalan Komplek Kejaksaan Agung, blok b9, RT.2/RW.3, Pasar Minggu, South Jakarta City, Jakarta 12520";"blok b9, RT.2/RW.3, Pasar Minggu, South Jakarta City";PAPUA;12520;Indonesia;;;;-62.832.803;1.068.408.974;https://maps.google.com/?cid=0x0:0x644983321a4f3b08;
mall;Pusat Perbelanjaan;Mall Of Indonesia;"Jl. Boulevard Bar. Raya No.12, RT.18/RW.19, Klp. Gading Bar., Kec. Klp. Gading, Jkt Utara, Daerah Khusus Ibukota Jakarta 14240";"RT.18/RW.19, Klp. Gading Bar., Kec. Klp. Gading, Jkt Utara";PAPUA;14240;Indonesia;02145867888;;;-61.514.549;1.068.918.949;https://maps.google.com/?cid=0x0:0x3431c7aaadd1f1b6;
mall;Pusat Perbelanjaan;Ratu Plaza;"Jl. Jenderal Sudirman No.Kav. 9, RT.1/RW.3, Gelora, Kecamatan Tanah Abang, Kota Jakarta Pusat, Daerah Khusus Ibukota Jakarta 10270";"RT.1/RW.3, Gelora, Kecamatan Tanah Abang, Kota Jakarta Pusat";PAPUA;10270;Indonesia;0217394499;;;-62.266.481;1.068.015.903;https://maps.google.com/?cid=0x0:0x1fa8acd75c6678b;
mall;Mal outlet;Supermal Karawaci;"Jl. Boulevard Diponegoro No.105, Bencongan, Kec. Klp. Dua, Kabupaten Tangerang, Banten 15810";"Bencongan, Kec. Klp. Dua, Kabupaten Tangerang";PAPUA;15810;Indonesia;0215466666;;;-62.268.116;1.066.070.233;https://maps.google.com/?cid=0x0:0xc5927a7be82e23b8;
mall;mall;Toko ABOY JAYA;"Jl. Terentang Elok No.5, RT.5/RW.5, Pulo Gebang, Kec. Cakung, Kota Jakarta Timur, Daerah Khusus Ibukota Jakarta 13950";"RT.5/RW.5, Pulo Gebang, Kec. Cakung, Kota Jakarta Timur";PAPUA;13950;Indonesia;08783940791;;;-61.984.668;1.069.413.538;https://maps.google.com/?cid=0x0:0xf26fe4352ca5bd5a;
mall;Pusat Perbelanjaan;Grand ITC Permata Hijau.;"Jl. Arteri Permata Hijau No.11, RT.11/RW.10, Grogol Utara, Kec. Kby. Lama, Kota Jakarta Selatan, Daerah Khusus Ibukota Jakarta 12210";"RT.11/RW.10, Grogol Utara, Kec. Kby. Lama, Kota Jakarta Selatan";PAPUA;12210;Indonesia;02153663888;;;-6.221.082;1.067.834.284;https://maps.google.com/?cid=0x0:0x58635aeb951ccaec;
mall;Pusat Perbelanjaan;Mall Jayapura;"APO, Jl. Samratulangi, Bayangkara, Kec. Jayapura Utara, Kota Jayapura, Papua 99112";"Jl. Samratulangi, Bayangkara, Kec. Jayapura Utara, Kota Jayapura";PAPUA;99112;Indonesia;09675150000;;;-25.351.775;1.407.061.874;https://maps.google.com/?cid=0x0:0x54294cb27964023;
mall;mall;Distrik Pepera;"Kabupaten Pegunungan Bintang, Papua";"Kabupaten Pegunungan Bintang, Papua";PAPUA;;Indonesia;;;;-48.872.459;1.407.305.111;https://maps.google.com/?cid=0x0:0x1239d5884917d2c1;
mall;mall;Bandung cell;"3JWM+44G, Kotdol, Distrik Pepera, Kabupaten Pegunungan Bintang, Papua 99573";"Kotdol, Distrik Pepera, Kabupaten Pegunungan Bintang";PAPUA;99573;Indonesia;;;;-4.904.689;140.632.828;https://maps.google.com/?cid=0x0:0xffbb9d1113561e7a;
mall;mall;Pasar Mabilabol Oksibil;"3JXJ+2FP, Mabilabol, Distrik Oksibil, Kabupaten Pegunungan Bintang, Papua 99573";"Mabilabol, Distrik Oksibil, Kabupaten Pegunungan Bintang";PAPUA;99573;Indonesia;;;;-49.024.073;1.406.311.971;https://maps.google.com/?cid=0x0:0x5a7f4531c7f788d2;
mall;mall;Pasar Bime;"G669+XM6, Bime, Distrik Bime, Kabupaten Pegunungan Bintang, Papua 99577";"Bime, Distrik Bime, Kabupaten Pegunungan Bintang";PAPUA;99577;Indonesia;;;;-44.875.869;1.402.191.422;https://maps.google.com/?cid=0x0:0x86eb5f2bd5227f75;
mall;Pusat Perbelanjaan;Plaza Indonesia;"Jl. M.H. Thamrin No.Kav.28-30, Gondangdia, Kec. Menteng, Kota Jakarta Pusat, Daerah Khusus Ibukota Jakarta 10350";"Gondangdia, Kec. Menteng, Kota Jakarta Pusat";PAPUA;10350;Indonesia;02129920000;;;-61.935.977;1.068.219.468;https://maps.google.com/?cid=0x0:0x7d7fe17ad64a053f;
mall;Pusat Perbelanjaan;Grand Indonesia Shopping Town;"Jl. M.H. Thamrin No.1, Menteng, Kec. Menteng, Kota Jakarta Pusat, Daerah Khusus Ibukota Jakarta 10310";"Menteng, Kec. Menteng, Kota Jakarta Pusat";PAPUA;10310;Indonesia;02123580001;;;-61.965.848;1.068.224.882;https://maps.google.com/?cid=0x0:0xccfcc89b95aaf1ae;
mall;Stasiun Pengisian Kendaraan Listrik;Hyundai St. Pengisian;"Jl. M.H. Thamrin No.30, Gondangdia, Kec. Menteng, Kota Jakarta Pusat, Daerah Khusus Ibukota Jakarta 10350";"Gondangdia, Kec. Menteng, Kota Jakarta Pusat";PAPUA;10350;Indonesia;08001878878;;;-61.930.305;1.068.225.998;https://maps.google.com/?cid=0x0:0x31855cd7abaa0013;
mall;Pusat Perbelanjaan;Plaza Menteng;"Jl. HOS. Cokroaminoto No.79 3, RT.3/RW.5, Menteng, Kec. Menteng, Kota Jakarta Pusat, Daerah Khusus Ibukota Jakarta 10310";"RT.3/RW.5, Menteng, Kec. Menteng, Kota Jakarta Pusat";PAPUA;10310;Indonesia;02131935709;;;-61.969.114;1.068.287.882;https://maps.google.com/?cid=0x0:0x1e3c5f01ffe75ef5;
mall;Restoran;DILL Gourmet Cafe;"Jl. M.H. Thamrin No.28-30 9, RT.9/RW.5, Gondangdia, Kec. Menteng, Kota Jakarta Pusat, Daerah Khusus Ibukota Jakarta 10350";"RT.9/RW.5, Gondangdia, Kec. Menteng, Kota Jakarta Pusat";PAPUA;10350;Indonesia;02129924512;;;-61.927.562;1.068.218.392;https://maps.google.com/?cid=0x0:0x459d4488c2df5aed;
mall;Bioskop;Plaza Indonesia XXI;"Jl. M.H. Thamrin No.28 30, RT.9/RW.5, Gondangdia, Menteng, Central Jakarta City, Jakarta 10350";"RT.9/RW.5, Gondangdia, Menteng, Central Jakarta City";PAPUA;10350;Indonesia;02139838779;;;-61.929.965;1.068.222.255;https://maps.google.com/?cid=0x0:0x1a4c89bcaba1f411;
mall;Bar Minuman Anggur;CORKSCREW Plaza Indonesia;"Plaza Indonesia, Jl. M.H. Thamrin No.28-30 9, RT.9/RW.5, Gondangdia, Kec. Menteng, Kota Jakarta Pusat, Daerah Khusus Ibukota Jakarta 10350";"Jl. M.H. Thamrin No.28-30 9, RT.9/RW.5, Gondangdia, Kec. Menteng, Kota Jakarta Pusat";PAPUA;10350;Indonesia;02131996659;;;-61.941.666;1.068.223.591;https://maps.google.com/?cid=0x0:0x9c403282687928fe;
mall;mall;Keraton at The Plaza;"Jl. M.H. Thamrin No.Kav. 15, Gondangdia, Kec. Menteng, Kota Jakarta Pusat, Daerah Khusus Ibukota Jakarta 10350";"Gondangdia, Kec. Menteng, Kota Jakarta Pusat";PAPUA;10350;Indonesia;02151011234;;;-61.920.998;1.068.217.527;https://maps.google.com/?cid=0x0:0x6b7300b1530f0b09;
mall;mall;Distrik Alemsom;"Kabupaten Pegunungan Bintang, Papua";"Kabupaten Pegunungan Bintang, Papua";PAPUA;;Indonesia;;;;-47.239.845;1.402.862.819;https://maps.google.com/?cid=0x0:0x2d79a847a7c70a92;
mall;Pusat Perbelanjaan;Plaza Indonesia;"Jl. M.H. Thamrin No.Kav.28-30, Gondangdia, Kec. Menteng, Kota Jakarta Pusat, Daerah Khusus Ibukota Jakarta 10350";"Gondangdia, Kec. Menteng, Kota Jakarta Pusat";PAPUA;10350;Indonesia;02129920000;;;-61.935.977;1.068.219.468;https://maps.google.com/?cid=0x0:0x7d7fe17ad64a053f;
mall;Pusat Perbelanjaan;Grand Indonesia Shopping Town;"Jl. M.H. Thamrin No.1, Menteng, Kec. Menteng, Kota Jakarta Pusat, Daerah Khusus Ibukota Jakarta 10310";"Menteng, Kec. Menteng, Kota Jakarta Pusat";PAPUA;10310;Indonesia;02123580001;;;-61.965.848;1.068.224.882;https://maps.google.com/?cid=0x0:0xccfcc89b95aaf1ae;
mall;Pusat Perbelanjaan;Plaza Menteng;"Jl. HOS. Cokroaminoto No.79 3, RT.3/RW.5, Menteng, Kec. Menteng, Kota Jakarta Pusat, Daerah Khusus Ibukota Jakarta 10310";"RT.3/RW.5, Menteng, Kec. Menteng, Kota Jakarta Pusat";PAPUA;10310;Indonesia;02131935709;;;-61.969.114;1.068.287.882;https://maps.google.com/?cid=0x0:0x1e3c5f01ffe75ef5;
mall;Restoran;DILL Gourmet Cafe;"Jl. M.H. Thamrin No.28-30 9, RT.9/RW.5, Gondangdia, Kec. Menteng, Kota Jakarta Pusat, Daerah Khusus Ibukota Jakarta 10350";"RT.9/RW.5, Gondangdia, Kec. Menteng, Kota Jakarta Pusat";PAPUA;10350;Indonesia;02129924512;;;-61.927.562;1.068.218.392;https://maps.google.com/?cid=0x0:0x459d4488c2df5aed;
mall;Stasiun Pengisian Kendaraan Listrik;Hyundai St. Pengisian;"Jl. M.H. Thamrin No.30, Gondangdia, Kec. Menteng, Kota Jakarta Pusat, Daerah Khusus Ibukota Jakarta 10350";"Gondangdia, Kec. Menteng, Kota Jakarta Pusat";PAPUA;10350;Indonesia;08001878878;;;-61.930.305;1.068.225.998;https://maps.google.com/?cid=0x0:0x31855cd7abaa0013;
mall;Bioskop;Plaza Indonesia XXI;"Jl. M.H. Thamrin No.28 30, RT.9/RW.5, Gondangdia, Menteng, Central Jakarta City, Jakarta 10350";"RT.9/RW.5, Gondangdia, Menteng, Central Jakarta City";PAPUA;10350;Indonesia;02139838779;;;-61.929.965;1.068.222.255;https://maps.google.com/?cid=0x0:0x1a4c89bcaba1f411;
mall;Bar Minuman Anggur;CORKSCREW Plaza Indonesia;"Plaza Indonesia, Jl. M.H. Thamrin No.28-30 9, RT.9/RW.5, Gondangdia, Kec. Menteng, Kota Jakarta Pusat, Daerah Khusus Ibukota Jakarta 10350";"Jl. M.H. Thamrin No.28-30 9, RT.9/RW.5, Gondangdia, Kec. Menteng, Kota Jakarta Pusat";PAPUA;10350;Indonesia;02131996659;;;-61.941.666;1.068.223.591;https://maps.google.com/?cid=0x0:0x9c403282687928fe;
mall;mall;Keraton at The Plaza;"Jl. M.H. Thamrin No.Kav. 15, Gondangdia, Kec. Menteng, Kota Jakarta Pusat, Daerah Khusus Ibukota Jakarta 10350";"Gondangdia, Kec. Menteng, Kota Jakarta Pusat";PAPUA;10350;Indonesia;02151011234;;;-61.920.998;1.068.217.527;https://maps.google.com/?cid=0x0:0x6b7300b1530f0b09;
mall;Pusat Perbelanjaan;Mall Jayapura;"APO, Jl. Samratulangi, Bayangkara, Kec. Jayapura Utara, Kota Jayapura, Papua 99112";"Jl. Samratulangi, Bayangkara, Kec. Jayapura Utara, Kota Jayapura";PAPUA;99112;Indonesia;09675150000;;;-25.351.775;1.407.061.874;https://maps.google.com/?cid=0x0:0x54294cb27964023;
mall;Pusat Perbelanjaan;SAGA MALL;"Kota Baru, Kec. Abepura, Kota Jayapura, Papua 99351";"Kec. Abepura, Kota Jayapura";PAPUA;99351;Indonesia;;;;-26.105.845;1.406.654.189;https://maps.google.com/?cid=0x0:0xaf65e43ff84ff9e6;
mall;Kedai Kopi;JCO COFFEE  DONUTS MALL JAYAPURA;"Jl. Kab. No.99112, Bayangkara, Kec. Jayapura Utara, Kota Jayapura, Papua 99112";"Bayangkara, Kec. Jayapura Utara, Kota Jayapura";PAPUA;99112;Indonesia;;;;-25.353.252;1.407.060.198;https://maps.google.com/?cid=0x0:0x8cbe835113b8c269;
mall;mall;Kec. Ok Bape;"Kabupaten Pegunungan Bintang, Papua";"Kabupaten Pegunungan Bintang, Papua";PAPUA;;Indonesia;;;;-47.079.703;140.534.262;https://maps.google.com/?cid=0x0:0xddeed733d7c1a330;
mall;Pusat Perbelanjaan;Mall papua;"Jl. Gn. Aspen No.26, Bencongan, Kec. Klp. Dua, Kabupaten Tangerang, Banten 15810";"Bencongan, Kec. Klp. Dua, Kabupaten Tangerang";PAPUA;15810;Indonesia;;;;-62.338.406;1.065.937.941;https://maps.google.com/?cid=0x0:0xf2fc51e618acb94;
mall;Minimarket;Pasar Baru Oksibil;"3JJM+F72, jalan, Kabiding, Iwur, kalomdol, Papua 99573";"jalan, Kabiding, Iwur, kalomdol";PAPUA;99573;Indonesia;;;;-49.188.529;1.406.331.298;https://maps.google.com/?cid=0x0:0xdf9abcb64a261ed2;
mall;mall;Pasar Mabilabol Oksibil;"3JXJ+2FP, Mabilabol, Distrik Oksibil, Kabupaten Pegunungan Bintang, Papua 99573";"Mabilabol, Distrik Oksibil, Kabupaten Pegunungan Bintang";PAPUA;99573;Indonesia;;;;-49.024.073;1.406.311.971;https://maps.google.com/?cid=0x0:0x5a7f4531c7f788d2;
mall;mall;Distrik Kolomdol;"Kabupaten Pegunungan Bintang, Papua";"Kabupaten Pegunungan Bintang, Papua";PAPUA;;Indonesia;;;;-49.670.754;1.405.860.497;https://maps.google.com/?cid=0x0:0x24dc4f034dc31161;
mall;mall;Pasar Mabilabol Oksibil;"3JXJ+2FP, Mabilabol, Distrik Oksibil, Kabupaten Pegunungan Bintang, Papua 99573";"Mabilabol, Distrik Oksibil, Kabupaten Pegunungan Bintang";PAPUA;99573;Indonesia;;;;-49.024.073;1.406.311.971;https://maps.google.com/?cid=0x0:0x5a7f4531c7f788d2;
mall;Minimarket;Pasar Baru Oksibil;"3JJM+F72, jalan, Kabiding, Iwur, kalomdol, Papua 99573";"jalan, Kabiding, Iwur, kalomdol";PAPUA;99573;Indonesia;;;;-49.188.529;1.406.331.298;https://maps.google.com/?cid=0x0:0xdf9abcb64a261ed2;
mall;mall;Bandung cell;"3JWM+44G, Kotdol, Distrik Pepera, Kabupaten Pegunungan Bintang, Papua 99573";"Kotdol, Distrik Pepera, Kabupaten Pegunungan Bintang";PAPUA;99573;Indonesia;;;;-4.904.689;140.632.828;https://maps.google.com/?cid=0x0:0xffbb9d1113561e7a;
mall;Pusat Perbelanjaan;Grand Indonesia Shopping Town;"Jl. M.H. Thamrin No.1, Menteng, Kec. Menteng, Kota Jakarta Pusat, Daerah Khusus Ibukota Jakarta 10310";"Menteng, Kec. Menteng, Kota Jakarta Pusat";PAPUA;10310;Indonesia;02123580001;;;-61.965.848;1.068.224.882;https://maps.google.com/?cid=0x0:0xccfcc89b95aaf1ae;
mall;Pusat Perbelanjaan;Pondok Indah Mall 1;"Jl. Metro Pondok Indah No.Kav. 4, RT.1/RW.16, Pd. Pinang, Kec. Kby. Lama, Kota Jakarta Selatan, Daerah Khusus Ibukota Jakarta 12310";"RT.1/RW.16, Pd. Pinang, Kec. Kby. Lama, Kota Jakarta Selatan";PAPUA;12310;Indonesia;0217506750;;;-62.652.166;1.067.843.165;https://maps.google.com/?cid=0x0:0x682837113c4ea854;
mall;Pusat Perbelanjaan;Central Park;"Jl. Letjen S. Parman No.Kav. 28, Tj. Duren Sel., Kec. Grogol petamburan, Kota Jakarta Barat, Daerah Khusus Ibukota Jakarta 11470";"Tj. Duren Sel., Kec. Grogol petamburan, Kota Jakarta Barat";PAPUA;11470;Indonesia;02156989999;;;-61.771.373;1.067.909.788;https://maps.google.com/?cid=0x0:0xe816d65037c3207a;
mall;Pusat Perbelanjaan;Pondok Indah Mall 2;"Jl. Metro Pondok Indah, Pd. Pinang, Kec. Kby. Lama, Kota Jakarta Selatan, Daerah Khusus Ibukota Jakarta 12310";"Pd. Pinang, Kec. Kby. Lama, Kota Jakarta Selatan";PAPUA;12310;Indonesia;0217506750;;;-62.655.241;1.067.827.928;https://maps.google.com/?cid=0x0:0x203a5d09556daf5f;
mall;Toko Swalayan;Lotte Mart Bintaro;"Jl. Moh. Husni Thamrin Kav. Blok B7, Banten 15220";"Kota Tangerang Selatan, Banten";PAPUA;;Indonesia;02129310778;;;-62.744.229;1.067.241.695;https://maps.google.com/?cid=0x0:0x651be4b6b030eda9;
mall;Pusat Perbelanjaan;Mall Jayapura;"APO, Jl. Samratulangi, Bayangkara, Kec. Jayapura Utara, Kota Jayapura, Papua 99112";"Jl. Samratulangi, Bayangkara, Kec. Jayapura Utara, Kota Jayapura";PAPUA;99112;Indonesia;09675150000;;;-25.351.775;1.407.061.874;https://maps.google.com/?cid=0x0:0x54294cb27964023;
mall;mall;KIOS BINTANG MAS;"Unnamed Road, Kotdol, Distrik Pepera, Kabupaten Pegunungan Bintang, Papua 99573";"Kotdol, Distrik Pepera, Kabupaten Pegunungan Bintang";PAPUA;99573;Indonesia;;;;-4.901.116;1.406.219.772;https://maps.google.com/?cid=0x0:0xf922fc7016c9ce4a;
mall;mall;Kec. Oksop;"Kabupaten Pegunungan Bintang, Papua";"Kabupaten Pegunungan Bintang, Papua";PAPUA;;Indonesia;;;;-47.324.178;1.404.101.474;https://maps.google.com/?cid=0x0:0xdb805f296f748353;
mall;Kantor Pemerintah;Distrik oksop kabupaten pegunungan bintang;"7C96+23J, Mimin, Kec. Oksop, Kabupaten Pegunungan Bintang, Papua";"Kabupaten Pegunungan Bintang, Papua";PAPUA;;Indonesia;;;;-47.324.178;1.404.101.474;https://maps.google.com/?cid=0x0:0x97a1ca92ba0cbc77;
mall;Minimarket;Pasar Baru Oksibil;"3JJM+F72, jalan, Kabiding, Iwur, kalomdol, Papua 99573";"jalan, Kabiding, Iwur, kalomdol";PAPUA;99573;Indonesia;;;;-49.188.529;1.406.331.298;https://maps.google.com/?cid=0x0:0xdf9abcb64a261ed2;
mall;Kantor Perusahaan;Kantor Bupati Pegunungan Bintang;"4J5Q+JXM, Jl, Kotdol, Distrik Oksibil, Kabupaten Pegunungan Bintang, Papua 99573";"Jl, Kotdol, Distrik Oksibil, Kabupaten Pegunungan Bintang";PAPUA;99573;Indonesia;081374147717;;;-48.909.153;1.406.399.246;https://maps.google.com/?cid=0x0:0xcd74f43e666c2a33;
mall;mall;Pasar Mabilabol Oksibil;"3JXJ+2FP, Mabilabol, Distrik Oksibil, Kabupaten Pegunungan Bintang, Papua 99573";"Mabilabol, Distrik Oksibil, Kabupaten Pegunungan Bintang";PAPUA;99573;Indonesia;;;;-49.024.073;1.406.311.971;https://maps.google.com/?cid=0x0:0x5a7f4531c7f788d2;
mall;Kantor Pemerintah;Kantor DPRD Pegunungan Bintang;"4J5R+FVV, Jl. Kutdol, Tarangop, Kawor, Kotdol, Distrik Oksibil, Kabupaten Pegunungan Bintang, Papua 99573";"Jl. Kutdol, Tarangop, Kawor, Kotdol, Distrik Oksibil, Kabupaten Pegunungan Bintang";PAPUA;99573;Indonesia;;;;-48.912.715;1.406.421.661;https://maps.google.com/?cid=0x0:0xd1b912f918d18afe;
mall;mall;Distrik Serambakon;"Kabupaten Pegunungan Bintang, Papua";"Kabupaten Pegunungan Bintang, Papua";PAPUA;;Indonesia;;;;-48.557.903;1.405.009.203;https://maps.google.com/?cid=0x0:0x171e1a77608fe958;
mall;Pusat Perbelanjaan;Mall Kota Kasablanka;"Jl. Raya Casablanca No.Kav 88, Menteng Dalam, Kec. Tebet, Kota Jakarta Selatan, Daerah Khusus Ibukota Jakarta 12870";"Menteng Dalam, Kec. Tebet, Kota Jakarta Selatan";PAPUA;12870;Indonesia;02129465000;;;-62.240.353;1.068.425.979;https://maps.google.com/?cid=0x0:0xaf54cb631563acce;
mall;mall;Bandung cell;"3JWM+44G, Kotdol, Distrik Pepera, Kabupaten Pegunungan Bintang, Papua 99573";"Kotdol, Distrik Pepera, Kabupaten Pegunungan Bintang";PAPUA;99573;Indonesia;;;;-4.904.689;140.632.828;https://maps.google.com/?cid=0x0:0xffbb9d1113561e7a;
mall;mall;Pasar Mabilabol Oksibil;"3JXJ+2FP, Mabilabol, Distrik Oksibil, Kabupaten Pegunungan Bintang, Papua 99573";"Mabilabol, Distrik Oksibil, Kabupaten Pegunungan Bintang";PAPUA;99573;Indonesia;;;;-49.024.073;1.406.311.971;https://maps.google.com/?cid=0x0:0x5a7f4531c7f788d2;
mall;Pusat Perbelanjaan;Mega Mall Sorong;"Jalan Basuki Rahmat Klabulu, Malaimsimsa, Malaingkedi, Kec. Sorong Utara, Kota Sorong, Papua Bar. 98412";"Malaimsimsa, Malaingkedi, Kec. Sorong Utara, Kota Sorong";PAPUA;98412;Indonesia;;;;-0.8873097;1.313.012.842;https://maps.google.com/?cid=0x0:0x364e52ce8985aa7;
mall;Pusat Perbelanjaan;Wamena Mall;"WW4W+JH7, Wamena Kota, Distrik Wamena, Kabupaten Jayawijaya, Papua 99511";"Wamena Kota, Distrik Wamena, Kabupaten Jayawijaya";PAPUA;99511;Indonesia;081356954606;;;-40.934.521;1.389.464.176;https://maps.google.com/?cid=0x0:0x99f90a37cc207474;
mall;Minimarket;Pasar Baru Oksibil;"3JJM+F72, jalan, Kabiding, Iwur, kalomdol, Papua 99573";"jalan, Kabiding, Iwur, kalomdol";PAPUA;99573;Indonesia;;;;-49.188.529;1.406.331.298;https://maps.google.com/?cid=0x0:0xdf9abcb64a261ed2;
mall;Pusat Perbelanjaan;SAGA MALL;"Kota Baru, Kec. Abepura, Kota Jayapura, Papua 99351";"Kec. Abepura, Kota Jayapura";PAPUA;99351;Indonesia;;;;-26.105.845;1.406.654.189;https://maps.google.com/?cid=0x0:0xaf65e43ff84ff9e6;
mall;mall;Kec. Ok Aon;"Kabupaten Pegunungan Bintang, Papua";"Kabupaten Pegunungan Bintang, Papua";PAPUA;;Indonesia;;;;-48.531.394;1.406.404.082;https://maps.google.com/?cid=0x0:0xa9b9ad08f3a2029c;
mall;Pusat Perbelanjaan;Mall Jayapura;"APO, Jl. Samratulangi, Bayangkara, Kec. Jayapura Utara, Kota Jayapura, Papua 99112";"Jl. Samratulangi, Bayangkara, Kec. Jayapura Utara, Kota Jayapura";PAPUA;99112;Indonesia;09675150000;;;-25.351.775;1.407.061.874;https://maps.google.com/?cid=0x0:0x54294cb27964023;
mall;mall;Pasar Mabilabol Oksibil;"3JXJ+2FP, Mabilabol, Distrik Oksibil, Kabupaten Pegunungan Bintang, Papua 99573";"Mabilabol, Distrik Oksibil, Kabupaten Pegunungan Bintang";PAPUA;99573;Indonesia;;;;-49.024.073;1.406.311.971;https://maps.google.com/?cid=0x0:0x5a7f4531c7f788d2;
mall;mall;Bandung cell;"3JWM+44G, Kotdol, Distrik Pepera, Kabupaten Pegunungan Bintang, Papua 99573";"Kotdol, Distrik Pepera, Kabupaten Pegunungan Bintang";PAPUA;99573;Indonesia;;;;-4.904.689;140.632.828;https://maps.google.com/?cid=0x0:0xffbb9d1113561e7a;
mall;Toko Swalayan;Lotte Mart Bintaro;"Jl. Moh. Husni Thamrin Kav. Blok B7, Banten 15220";"Kota Tangerang Selatan, Banten";PAPUA;;Indonesia;02129310778;;;-62.744.229;1.067.241.695;https://maps.google.com/?cid=0x0:0x651be4b6b030eda9;
mall;Toko Pakaian;Mall Matahari Daan Mogot;"Jl. Daan Mogot, RT.8/RW.12, Kalideres, Kec. Kalideres, Kota Jakarta Barat, Daerah Khusus Ibukota Jakarta 11820";"RT.8/RW.12, Kalideres, Kec. Kalideres, Kota Jakarta Barat";PAPUA;11820;Indonesia;02154390154;;;-61.516.476;1.067.143.072;https://maps.google.com/?cid=0x0:0xa71f7f357281548c;
mall;mall;Am-an;"H3VR+474, Jl. Komodo III, Sindangmulya, Kec. Cibarusah, Kabupaten Bekasi, Jawa Barat 17340";"Jl. Komodo III, Sindangmulya, Kec. Cibarusah, Kabupaten Bekasi";PAPUA;17340;Indonesia;;;;-64.072.466;1.070.907.145;https://maps.google.com/?cid=0x0:0x7c209b5df50aace3;
mall;Pusat Perbelanjaan;Plaza Indonesia;"Jl. M.H. Thamrin No.Kav.28-30, Gondangdia, Kec. Menteng, Kota Jakarta Pusat, Daerah Khusus Ibukota Jakarta 10350";"Gondangdia, Kec. Menteng, Kota Jakarta Pusat";PAPUA;10350;Indonesia;02129920000;;;-61.935.977;1.068.219.468;https://maps.google.com/?cid=0x0:0x7d7fe17ad64a053f;
mall;mall;Ok;"QXV9+629, Jl. Wahab Affan, RT.002/RW.002, Medan Satria, Kecamatan Medan Satria, Kota Bks, Jawa Barat 17132";"Jl. Wahab Affan, RT.002/RW.002, Medan Satria, Kecamatan Medan Satria, Kota Bks";PAPUA;17132;Indonesia;;;;-62.069.678;1.069.675.989;https://maps.google.com/?cid=0x0:0x7e24d305a54fa721;
mall;mall;Papua 99575;"Kabupaten Pegunungan Bintang, Papua";"Kabupaten Pegunungan Bintang, Papua";PAPUA;;Indonesia;;;;-51.161.411;1.404.721.736;https://maps.google.com/?cid=0x0:0x19b958e8a9e9ca08;
mall;mall;Kec. Kawor;"Kabupaten Pegunungan Bintang, Papua";"Kabupaten Pegunungan Bintang, Papua";PAPUA;;Indonesia;;;;-51.786.087;1.405.198.992;https://maps.google.com/?cid=0x0:0xf01e9c51aacc2971;
mall;mall;TIM NET 01 XPER HotSpot  Kios Bahan Makanan;"W5H8+JXJ, Yelobib, Distrik Awinbon, Kabupaten Pegunungan Bintang, Papua 99575";"Yelobib, Distrik Awinbon, Kabupaten Pegunungan Bintang";PAPUA;99575;Indonesia;;;;-50.709.017;1.401.674.017;https://maps.google.com/?cid=0x0:0xed2478caad4f89bb;
mall;Pusat Perbelanjaan;Mall Jayapura;"APO, Jl. Samratulangi, Bayangkara, Kec. Jayapura Utara, Kota Jayapura, Papua 99112";"Jl. Samratulangi, Bayangkara, Kec. Jayapura Utara, Kota Jayapura";PAPUA;99112;Indonesia;09675150000;;;-25.351.775;1.407.061.874;https://maps.google.com/?cid=0x0:0x54294cb27964023;
mall;Minimarket;Pasar Baru Oksibil;"3JJM+F72, jalan, Kabiding, Iwur, kalomdol, Papua 99573";"jalan, Kabiding, Iwur, kalomdol";PAPUA;99573;Indonesia;;;;-49.188.529;1.406.331.298;https://maps.google.com/?cid=0x0:0xdf9abcb64a261ed2;
mall;Pusat Perbelanjaan;SAGA MALL;"Kota Baru, Kec. Abepura, Kota Jayapura, Papua 99351";"Kec. Abepura, Kota Jayapura";PAPUA;99351;Indonesia;;;;-26.105.845;1.406.654.189;https://maps.google.com/?cid=0x0:0xaf65e43ff84ff9e6;
mall;mall;Bandung cell;"3JWM+44G, Kotdol, Distrik Pepera, Kabupaten Pegunungan Bintang, Papua 99573";"Kotdol, Distrik Pepera, Kabupaten Pegunungan Bintang";PAPUA;99573;Indonesia;;;;-4.904.689;140.632.828;https://maps.google.com/?cid=0x0:0xffbb9d1113561e7a;
mall;Pusat Perbelanjaan;Lotte Shopping Avenue Mall;"Jl. Prof. DR. Satrio No.Kav.3, RW.5, Kuningan, Karet Kuningan, Kecamatan Setiabudi, Kota Jakarta Selatan, Daerah Khusus Ibukota Jakarta 12940";"RW.5, Kuningan, Karet Kuningan, Kecamatan Setiabudi, Kota Jakarta Selatan";PAPUA;12940;Indonesia;02129889292;;;-62.233.644;1.068.232.981;https://maps.google.com/?cid=0x0:0xe8323175da8b9770;
mall;Pusat Perbelanjaan;Mall Kota Kasablanka;"Jl. Raya Casablanca No.Kav 88, Menteng Dalam, Kec. Tebet, Kota Jakarta Selatan, Daerah Khusus Ibukota Jakarta 12870";"Menteng Dalam, Kec. Tebet, Kota Jakarta Selatan";PAPUA;12870;Indonesia;02129465000;;;-62.240.353;1.068.425.979;https://maps.google.com/?cid=0x0:0xaf54cb631563acce;
mall;Pusat Perbelanjaan;Pacific Place Mall;"Jl. Jend. Sudirman kav 52-53, Senayan, Kec. Kby. Baru, Kota Jakarta Selatan, Daerah Khusus Ibukota Jakarta 12190";"Senayan, Kec. Kby. Baru, Kota Jakarta Selatan";PAPUA;12190;Indonesia;02151402828;;;-62.240.197;1.068.101.858;https://maps.google.com/?cid=0x0:0xc4a608b34b5f03cc;
mall;Pusat Perbelanjaan;Mall Plaza Senayan;"Jl. Asia Afrika No.8, RT.1/RW.3, Gelora, Kecamatan Tanah Abang, Kota Jakarta Pusat, Daerah Khusus Ibukota Jakarta 10270";"RT.1/RW.3, Gelora, Kecamatan Tanah Abang, Kota Jakarta Pusat";PAPUA;10270;Indonesia;0215725555;;;-62.254.775;1.067.992.649;https://maps.google.com/?cid=0x0:0x788e3a1eef75ac94;
mall;Pusat Perbelanjaan;Ratu Plaza;"Jl. Jenderal Sudirman No.Kav. 9, RT.1/RW.3, Gelora, Kecamatan Tanah Abang, Kota Jakarta Pusat, Daerah Khusus Ibukota Jakarta 10270";"RT.1/RW.3, Gelora, Kecamatan Tanah Abang, Kota Jakarta Pusat";PAPUA;10270;Indonesia;0217394499;;;-62.266.481;1.068.015.903;https://maps.google.com/?cid=0x0:0x1fa8acd75c6678b;
mall;Pusat Perbelanjaan;Central Park;"Jl. Letjen S. Parman No.Kav. 28, Tj. Duren Sel., Kec. Grogol petamburan, Kota Jakarta Barat, Daerah Khusus Ibukota Jakarta 11470";"Tj. Duren Sel., Kec. Grogol petamburan, Kota Jakarta Barat";PAPUA;11470;Indonesia;02156989999;;;-61.771.373;1.067.909.788;https://maps.google.com/?cid=0x0:0xe816d65037c3207a;
mall;Pusat Perbelanjaan;Gandaria City;"Jl. Sultan Iskandar Muda, Gandaria, Kec. Kby. Lama, Kota Jakarta Selatan, Daerah Khusus Ibukota Jakarta 12240";"Gandaria, Kec. Kby. Lama, Kota Jakarta Selatan";PAPUA;12240;Indonesia;02129052888;;;-62.443.009;1.067.829.375;https://maps.google.com/?cid=0x0:0x6173704d396d5a99;
mall;Pusat Perbelanjaan;Kalibata city square;"Jl. Raya Kalibata No.1, Rawajati, Kec. Pancoran, Kota Jakarta Selatan, Daerah Khusus Ibukota Jakarta 12750";"Rawajati, Kec. Pancoran, Kota Jakarta Selatan";PAPUA;12750;Indonesia;;;;-62.562.715;1.068.521.776;https://maps.google.com/?cid=0x0:0x59db28d93506d0e6;
mall;Pusat Perbelanjaan;Grand Indonesia Shopping Town;"Jl. M.H. Thamrin No.1, Menteng, Kec. Menteng, Kota Jakarta Pusat, Daerah Khusus Ibukota Jakarta 10310";"Menteng, Kec. Menteng, Kota Jakarta Pusat";PAPUA;10310;Indonesia;02123580001;;;-61.965.848;1.068.224.882;https://maps.google.com/?cid=0x0:0xccfcc89b95aaf1ae;
mall;Pusat Perbelanjaan;Pondok Indah Mall 1;"Jl. Metro Pondok Indah No.Kav. 4, RT.1/RW.16, Pd. Pinang, Kec. Kby. Lama, Kota Jakarta Selatan, Daerah Khusus Ibukota Jakarta 12310";"RT.1/RW.16, Pd. Pinang, Kec. Kby. Lama, Kota Jakarta Selatan";PAPUA;12310;Indonesia;0217506750;;;-62.652.166;1.067.843.165;https://maps.google.com/?cid=0x0:0x682837113c4ea854;
mall;Pusat Perbelanjaan;Mall Taman Anggrek;"Jl. Letjen S. Parman, RT.12/RW.1, Tj. Duren Sel., Kec. Grogol petamburan, Kota Jakarta Barat, Daerah Khusus Ibukota Jakarta 11470";"RT.12/RW.1, Tj. Duren Sel., Kec. Grogol petamburan, Kota Jakarta Barat";PAPUA;11470;Indonesia;0215643777;;;-61.782.936;1.067.924.023;https://maps.google.com/?cid=0x0:0xb287bf108f4ef441;
mall;Pusat Perbelanjaan;Summarecon Mall Kelapa Gading;"Jl. Boulevard Raya, Klp. Gading Tim., Kec. Klp. Gading, Jkt Utara, Daerah Khusus Ibukota Jakarta 14240";"Klp. Gading Tim., Kec. Klp. Gading, Jkt Utara";PAPUA;14240;Indonesia;0214531101;;;-61.572.666;1.069.084.263;https://maps.google.com/?cid=0x0:0x1c1a278e20ff1c47;
mall;Pusat Perbelanjaan;Mall Senayan City;"Jl. Asia Afrika No.Lot 19, Gelora, Kecamatan Tanah Abang, Kota Jakarta Pusat, Daerah Khusus Ibukota Jakarta 10270";"Gelora, Kecamatan Tanah Abang, Kota Jakarta Pusat";PAPUA;10270;Indonesia;02172781000;;;-62.271.953;1.067.970.117;https://maps.google.com/?cid=0x0:0x300c043104acc004;
mall;Pusat Perbelanjaan;Mall Plaza Senayan;"Jl. Asia Afrika No.8, RT.1/RW.3, Gelora, Kecamatan Tanah Abang, Kota Jakarta Pusat, Daerah Khusus Ibukota Jakarta 10270";"RT.1/RW.3, Gelora, Kecamatan Tanah Abang, Kota Jakarta Pusat";PAPUA;10270;Indonesia;0215725555;;;-62.254.775;1.067.992.649;https://maps.google.com/?cid=0x0:0x788e3a1eef75ac94;
mall;Taman;Senayan Park;"Jl. Gerbang Pemuda No.3, RT.1/RW.3, Gelora, Kecamatan Tanah Abang, Kota Jakarta Pusat, Daerah Khusus Ibukota Jakarta 10270";"RT.1/RW.3, Gelora, Kecamatan Tanah Abang, Kota Jakarta Pusat";PAPUA;10270;Indonesia;0212512030;;;-62.128.077;1.068.036.757;https://maps.google.com/?cid=0x0:0xc0ea4d9a9d1b2936;
mall;Toko Swalayan;AEON Mall Tanjung Barat;"Jl. Raya Tj. Barat No.163, RT.12/RW.4, Tj. Bar., Kec. Jagakarsa, Kota Jakarta Selatan, Daerah Khusus Ibukota Jakarta 12530";"RT.12/RW.4, Tj. Bar., Kec. Jagakarsa, Kota Jakarta Selatan";PAPUA;12530;Indonesia;02150959888;;;-63.067.712;1.068.398.711;https://maps.google.com/?cid=0x0:0x5ce799145dbf8630;
mall;mall;TIM NET 01 XPER HotSpot  Kios Bahan Makanan;"W5H8+JXJ, Yelobib, Distrik Awinbon, Kabupaten Pegunungan Bintang, Papua 99575";"Yelobib, Distrik Awinbon, Kabupaten Pegunungan Bintang";PAPUA;99575;Indonesia;;;;-50.709.017;1.401.674.017;https://maps.google.com/?cid=0x0:0xed2478caad4f89bb;
mall;Pusat Perbelanjaan;Mall Of Indonesia;"Jl. Boulevard Bar. Raya No.12, RT.18/RW.19, Klp. Gading Bar., Kec. Klp. Gading, Jkt Utara, Daerah Khusus Ibukota Jakarta 14240";"RT.18/RW.19, Klp. Gading Bar., Kec. Klp. Gading, Jkt Utara";PAPUA;14240;Indonesia;02145867888;;;-61.514.549;1.068.918.949;https://maps.google.com/?cid=0x0:0x3431c7aaadd1f1b6;
mall;Pusat Perbelanjaan;Lippo Mall Kemang;"Jl. Pangeran Antasari No.36, RT.11/RW.5, Bangka, Kec. Mampang Prpt., Kota Jakarta Selatan, Daerah Khusus Ibukota Jakarta 12150";"RT.11/RW.5, Bangka, Kec. Mampang Prpt., Kota Jakarta Selatan";PAPUA;12150;Indonesia;;;;-62.612.579;10.681.286;https://maps.google.com/?cid=0x0:0x7b35536a57b28499;
mall;mall;Distrik Tarup;"Kabupaten Pegunungan Bintang, Papua";"Kabupaten Pegunungan Bintang, Papua";PAPUA;;Indonesia;;;;-51.570.425;1.409.757.647;https://maps.google.com/?cid=0x0:0xf4c8730c873f717;
mall;Pusat Perbelanjaan;Tarup Center;"Rugvang 36, 5210 Odense NV, Denmark";"Odense NV, Denmark";PAPUA;;Indonesia;4596132109;;;55.409.506;10.339.169;https://maps.google.com/?cid=0x0:0x30ee087e2a131e87;
mall;Pusat Perbelanjaan;Dalumcentret;"Dalumvej 42-44, 5250 Odense, Denmark";"Odense, Denmark";PAPUA;;Indonesia;;;;55.370.948;103.724.362;https://maps.google.com/?cid=0x0:0x3a65b1e1778e7fb8;
mall;Pesan-Bawa;D’let;"Rugvang 36, 5210 Odense, Denmark";"Odense Municipality, Denmark";PAPUA;;Indonesia;4531187050;;;554.088.152;103.398.809;https://maps.google.com/?cid=0x0:0xac4250cdf9bf202d;
mall;Pusat Perbelanjaan;Mall Jayapura;"APO, Jl. Samratulangi, Bayangkara, Kec. Jayapura Utara, Kota Jayapura, Papua 99112";"Jl. Samratulangi, Bayangkara, Kec. Jayapura Utara, Kota Jayapura";PAPUA;99112;Indonesia;09675150000;;;-25.351.775;1.407.061.874;https://maps.google.com/?cid=0x0:0x54294cb27964023;
mall;Pusat Perbelanjaan;SAGA MALL;"Kota Baru, Kec. Abepura, Kota Jayapura, Papua 99351";"Kec. Abepura, Kota Jayapura";PAPUA;99351;Indonesia;;;;-26.105.845;1.406.654.189;https://maps.google.com/?cid=0x0:0xaf65e43ff84ff9e6;
mall;Kedai Kopi;JCO COFFEE  DONUTS MALL JAYAPURA;"Jl. Kab. No.99112, Bayangkara, Kec. Jayapura Utara, Kota Jayapura, Papua 99112";"Bayangkara, Kec. Jayapura Utara, Kota Jayapura";PAPUA;99112;Indonesia;;;;-25.353.252;1.407.060.198;https://maps.google.com/?cid=0x0:0x8cbe835113b8c269;
mall;mall;Andhika Jaya;"Jl. Petak Baru No.30 5, RT.5/RW.2, Roa Malaka, Kec. Tambora, Kota Jakarta Barat, Daerah Khusus Ibukota Jakarta 11230";"RT.5/RW.2, Roa Malaka, Kec. Tambora, Kota Jakarta Barat";PAPUA;11230;Indonesia;;;;-61.389.577;1.068.097.673;https://maps.google.com/?cid=0x0:0x9cf8a86b0296be12;
mall;mall;OKshop;"Jl.kembu no.55, Jl. Cikunir Raya No.001, RT.006, Jaka Mulya, Kec. Bekasi Sel., Kota Bks, Jawa Barat 17145";"Jl. Cikunir Raya No.001, RT.006, Jaka Mulya, Kec. Bekasi Sel., Kota Bks";PAPUA;17145;Indonesia;089673101920;;;-62.612.343;1.069.585.729;https://maps.google.com/?cid=0x0:0x9ddc408060cb50b3;
mall;mall;Papua 99574;"Kabupaten Pegunungan Bintang, Papua";"Kabupaten Pegunungan Bintang, Papua";PAPUA;;Indonesia;;;;-4.640.956;1.407.624.493;https://maps.google.com/?cid=0x0:0x8501ef2800861902;
mall;Pusat Perbelanjaan;Mall Jayapura;"APO, Jl. Samratulangi, Bayangkara, Kec. Jayapura Utara, Kota Jayapura, Papua 99112";"Jl. Samratulangi, Bayangkara, Kec. Jayapura Utara, Kota Jayapura";PAPUA;99112;Indonesia;09675150000;;;-25.351.775;1.407.061.874;https://maps.google.com/?cid=0x0:0x54294cb27964023;
mall;Minimarket;Pasar Baru Oksibil;"3JJM+F72, jalan, Kabiding, Iwur, kalomdol, Papua 99573";"jalan, Kabiding, Iwur, kalomdol";PAPUA;99573;Indonesia;;;;-49.188.529;1.406.331.298;https://maps.google.com/?cid=0x0:0xdf9abcb64a261ed2;
mall;mall;Papua;;Papua;PAPUA;;Indonesia;;;;-4.269.928;1.380.803.529;https://maps.google.com/?cid=0x0:0xeba94e9c5eefe673;
mall;Pusat Perbelanjaan;Wamena Mall;"WW4W+JH7, Wamena Kota, Distrik Wamena, Kabupaten Jayawijaya, Papua 99511";"Wamena Kota, Distrik Wamena, Kabupaten Jayawijaya";PAPUA;99511;Indonesia;081356954606;;;-40.934.521;1.389.464.176;https://maps.google.com/?cid=0x0:0x99f90a37cc207474;
mall;Pasar Grosir Pakaian;Ramayana Abepura;"Jl. Raya Abepura, Kel. Vin, Kec. Jayapura Selatan, Wai Mhorock, Kec. Abepura, Kota Jayapura, Papua 99351";"Kel. Vin, Kec. Jayapura Selatan, Wai Mhorock, Kec. Abepura, Kota Jayapura";PAPUA;99351;Indonesia;0967584745;;;-2.604.339;1.406.736.756;https://maps.google.com/?cid=0x0:0x103c0acf73345917;
mall;Pusat Perbelanjaan;Mall Sentani City Square;"Jl. Raya Kemiri No.286, Hinekombe, Kec. Sentani, Kabupaten Jayapura, Papua 99352";"Hinekombe, Kec. Sentani, Kabupaten Jayapura";PAPUA;99352;Indonesia;082198389205;;;-25.632.484;1.405.006.043;https://maps.google.com/?cid=0x0:0x666e57130aca06b8;
mall;Toko Swalayan;Sagu Indah Plaza;"Jl. Ahmad Yani No.50, Gurabesi, Kec. Jayapura Utara, Kota Jayapura, Papua 99221";"Gurabesi, Kec. Jayapura Utara, Kota Jayapura";PAPUA;99221;Indonesia;;;;-25.436.844;1.407.014.125;https://maps.google.com/?cid=0x0:0x2abad4741c92629b;
mall;Pusat Perbelanjaan;SAGA MALL;"Kota Baru, Kec. Abepura, Kota Jayapura, Papua 99351";"Kec. Abepura, Kota Jayapura";PAPUA;99351;Indonesia;;;;-26.105.845;1.406.654.189;https://maps.google.com/?cid=0x0:0xaf65e43ff84ff9e6;
mall;Pusat Perbelanjaan;Mall papua;"Jl. Gn. Aspen No.26, Bencongan, Kec. Klp. Dua, Kabupaten Tangerang, Banten 15810";"Bencongan, Kec. Klp. Dua, Kabupaten Tangerang";PAPUA;15810;Indonesia;;;;-62.338.406;1.065.937.941;https://maps.google.com/?cid=0x0:0xf2fc51e618acb94;
mall;Pusat Perbelanjaan;Arion Mall;"Jl. Pemuda No.Kavling 3-4, RT.2/RW.7, Rawamangun, Kec. Pulo Gadung, Kota Jakarta Timur, Daerah Khusus Ibukota Jakarta 13220";"RT.2/RW.7, Rawamangun, Kec. Pulo Gadung, Kota Jakarta Timur";PAPUA;13220;Indonesia;0214711652;;;-61.938.923;106.890.485;https://maps.google.com/?cid=0x0:0x2c3ea95ddd6b2533;
mall;Minimarket;Pasar Baru Oksibil;"3JJM+F72, jalan, Kabiding, Iwur, kalomdol, Papua 99573";"jalan, Kabiding, Iwur, kalomdol";PAPUA;99573;Indonesia;;;;-49.188.529;1.406.331.298;https://maps.google.com/?cid=0x0:0xdf9abcb64a261ed2;
mall;Toko Swalayan;Lotte Mart Bintaro;"Jl. Moh. Husni Thamrin Kav. Blok B7, Banten 15220";"Kota Tangerang Selatan, Banten";PAPUA;;Indonesia;02129310778;;;-62.744.229;1.067.241.695;https://maps.google.com/?cid=0x0:0x651be4b6b030eda9;
mall;Toko Pakaian;Mall Matahari Daan Mogot;"Jl. Daan Mogot, RT.8/RW.12, Kalideres, Kec. Kalideres, Kota Jakarta Barat, Daerah Khusus Ibukota Jakarta 11820";"RT.8/RW.12, Kalideres, Kec. Kalideres, Kota Jakarta Barat";PAPUA;11820;Indonesia;02154390154;;;-61.516.476;1.067.143.072;https://maps.google.com/?cid=0x0:0xa71f7f357281548c;
mall;Pusat Perbelanjaan;Plaza Indonesia;"Jl. M.H. Thamrin No.Kav.28-30, Gondangdia, Kec. Menteng, Kota Jakarta Pusat, Daerah Khusus Ibukota Jakarta 10350";"Gondangdia, Kec. Menteng, Kota Jakarta Pusat";PAPUA;10350;Indonesia;02129920000;;;-61.935.977;1.068.219.468;https://maps.google.com/?cid=0x0:0x7d7fe17ad64a053f;
mall;Pusat Perbelanjaan;TerasKota;"CBD Lot VII B, Jl. Pahlawan Seribu, Lengkong Gudang, Kec. Serpong, Kota Tangerang Selatan, Banten 15322";"Jl. Pahlawan Seribu, Lengkong Gudang, Kec. Serpong, Kota Tangerang Selatan";PAPUA;15322;Indonesia;02155695758;;;-62.955.633;1.066.674.867;https://maps.google.com/?cid=0x0:0x77f0f9f1b6b6cc39;
mall;Toko Pakaian Dalam;Oysho;"Plaza Indonesia, Jl. M.H. Thamrin No.28-30 Lt.2, RT.9/RW.5, Gondangdia, Kec. Menteng, Kota Jakarta Pusat, Daerah Khusus Ibukota Jakarta 10350";"Jl. M.H. Thamrin No.28-30 Lt.2, RT.9/RW.5, Gondangdia, Kec. Menteng, Kota Jakarta Pusat";PAPUA;10350;Indonesia;02129922567;;;-61.936.912;1.068.221.943;https://maps.google.com/?cid=0x0:0x50197c5b6d726c7a;
mall;mall;Papua 99574;"Kabupaten Pegunungan Bintang, Papua";"Kabupaten Pegunungan Bintang, Papua";PAPUA;;Indonesia;;;;-4.640.956;1.407.624.493;https://maps.google.com/?cid=0x0:0x8501ef2800861902;
mall;Pusat Perbelanjaan;Pondok Indah Mall 1;"Jl. Metro Pondok Indah No.Kav. 4, RT.1/RW.16, Pd. Pinang, Kec. Kby. Lama, Kota Jakarta Selatan, Daerah Khusus Ibukota Jakarta 12310";"RT.1/RW.16, Pd. Pinang, Kec. Kby. Lama, Kota Jakarta Selatan";PAPUA;12310;Indonesia;0217506750;;;-62.652.166;1.067.843.165;https://maps.google.com/?cid=0x0:0x682837113c4ea854;
mall;Pusat Perbelanjaan;Grand Indonesia Shopping Town;"Jl. M.H. Thamrin No.1, Menteng, Kec. Menteng, Kota Jakarta Pusat, Daerah Khusus Ibukota Jakarta 10310";"Menteng, Kec. Menteng, Kota Jakarta Pusat";PAPUA;10310;Indonesia;02123580001;;;-61.965.848;1.068.224.882;https://maps.google.com/?cid=0x0:0xccfcc89b95aaf1ae;
mall;Pusat Perbelanjaan;Mall Senayan City;"Jl. Asia Afrika No.Lot 19, Gelora, Kecamatan Tanah Abang, Kota Jakarta Pusat, Daerah Khusus Ibukota Jakarta 10270";"Gelora, Kecamatan Tanah Abang, Kota Jakarta Pusat";PAPUA;10270;Indonesia;02172781000;;;-62.271.953;1.067.970.117;https://maps.google.com/?cid=0x0:0x300c043104acc004;
mall;Pusat Perbelanjaan;Central Park;"Jl. Letjen S. Parman No.Kav. 28, Tj. Duren Sel., Kec. Grogol petamburan, Kota Jakarta Barat, Daerah Khusus Ibukota Jakarta 11470";"Tj. Duren Sel., Kec. Grogol petamburan, Kota Jakarta Barat";PAPUA;11470;Indonesia;02156989999;;;-61.771.373;1.067.909.788;https://maps.google.com/?cid=0x0:0xe816d65037c3207a;
mall;Pusat Perbelanjaan;Plaza Indonesia;"Jl. M.H. Thamrin No.Kav.28-30, Gondangdia, Kec. Menteng, Kota Jakarta Pusat, Daerah Khusus Ibukota Jakarta 10350";"Gondangdia, Kec. Menteng, Kota Jakarta Pusat";PAPUA;10350;Indonesia;02129920000;;;-61.935.977;1.068.219.468;https://maps.google.com/?cid=0x0:0x7d7fe17ad64a053f;
mall;Pusat Perbelanjaan;Wamena Mall;"WW4W+JH7, Wamena Kota, Distrik Wamena, Kabupaten Jayawijaya, Papua 99511";"Wamena Kota, Distrik Wamena, Kabupaten Jayawijaya";PAPUA;99511;Indonesia;081356954606;;;-40.934.521;1.389.464.176;https://maps.google.com/?cid=0x0:0x99f90a37cc207474;
mall;Pusat Perbelanjaan;Mall Kota Kasablanka;"Jl. Raya Casablanca No.Kav 88, Menteng Dalam, Kec. Tebet, Kota Jakarta Selatan, Daerah Khusus Ibukota Jakarta 12870";"Menteng Dalam, Kec. Tebet, Kota Jakarta Selatan";PAPUA;12870;Indonesia;02129465000;;;-62.240.353;1.068.425.979;https://maps.google.com/?cid=0x0:0xaf54cb631563acce;
mall;Minimarket;Pasar Baru Oksibil;"3JJM+F72, jalan, Kabiding, Iwur, kalomdol, Papua 99573";"jalan, Kabiding, Iwur, kalomdol";PAPUA;99573;Indonesia;;;;-49.188.529;1.406.331.298;https://maps.google.com/?cid=0x0:0xdf9abcb64a261ed2;
mall;mall;Pasar Mabilabol Oksibil;"3JXJ+2FP, Mabilabol, Distrik Oksibil, Kabupaten Pegunungan Bintang, Papua 99573";"Mabilabol, Distrik Oksibil, Kabupaten Pegunungan Bintang";PAPUA;99573;Indonesia;;;;-49.024.073;1.406.311.971;https://maps.google.com/?cid=0x0:0x5a7f4531c7f788d2;
mall;mall;KIOS BINTANG MAS;"Unnamed Road, Kotdol, Distrik Pepera, Kabupaten Pegunungan Bintang, Papua 99573";"Kotdol, Distrik Pepera, Kabupaten Pegunungan Bintang";PAPUA;99573;Indonesia;;;;-4.901.116;1.406.219.772;https://maps.google.com/?cid=0x0:0xf922fc7016c9ce4a;
mall;mall;Bandung cell;"3JWM+44G, Kotdol, Distrik Pepera, Kabupaten Pegunungan Bintang, Papua 99573";"Kotdol, Distrik Pepera, Kabupaten Pegunungan Bintang";PAPUA;99573;Indonesia;;;;-4.904.689;140.632.828;https://maps.google.com/?cid=0x0:0xffbb9d1113561e7a;
mall;mall;Okbemta;"Kabupaten Pegunungan Bintang, Papua";"Kabupaten Pegunungan Bintang, Papua";PAPUA;;Indonesia;;;;-44.740.931;1.407.208.989;https://maps.google.com/?cid=0x0:0x872bb79c2891d253;
mall;Pusat Perbelanjaan;Grand Indonesia;"Jl. MH Thamrin No.1, Menteng, Kec. Menteng, Kota Jakarta Pusat, Daerah Khusus Ibukota Jakarta 10310";"Menteng, Kec. Menteng, Kota Jakarta Pusat";PAPUA;10310;Indonesia;02123580001;;;-61.950.412;1.068.210.081;https://maps.google.com/?cid=0x0:0xb04ce66a7cb711d9;
mall;Stasiun Pengisian Kendaraan Listrik;Hyundai St. Pengisian;"Jl. M.H. Thamrin No.30, Gondangdia, Kec. Menteng, Kota Jakarta Pusat, Daerah Khusus Ibukota Jakarta 10350";"Gondangdia, Kec. Menteng, Kota Jakarta Pusat";PAPUA;10350;Indonesia;08001878878;;;-61.930.305;1.068.225.998;https://maps.google.com/?cid=0x0:0x31855cd7abaa0013;
mall;Pusat Perbelanjaan;Plaza Menteng;"Jl. HOS. Cokroaminoto No.79 3, RT.3/RW.5, Menteng, Kec. Menteng, Kota Jakarta Pusat, Daerah Khusus Ibukota Jakarta 10310";"RT.3/RW.5, Menteng, Kec. Menteng, Kota Jakarta Pusat";PAPUA;10310;Indonesia;02131935709;;;-61.969.114;1.068.287.882;https://maps.google.com/?cid=0x0:0x1e3c5f01ffe75ef5;
mall;Restoran;DILL Gourmet Cafe;"Jl. M.H. Thamrin No.28-30 9, RT.9/RW.5, Gondangdia, Kec. Menteng, Kota Jakarta Pusat, Daerah Khusus Ibukota Jakarta 10350";"RT.9/RW.5, Gondangdia, Kec. Menteng, Kota Jakarta Pusat";PAPUA;10350;Indonesia;02129924512;;;-61.927.562;1.068.218.392;https://maps.google.com/?cid=0x0:0x459d4488c2df5aed;
mall;Bioskop;Plaza Indonesia XXI;"Jl. M.H. Thamrin No.28 30, RT.9/RW.5, Gondangdia, Menteng, Central Jakarta City, Jakarta 10350";"RT.9/RW.5, Gondangdia, Menteng, Central Jakarta City";PAPUA;10350;Indonesia;02139838779;;;-61.929.965;1.068.222.255;https://maps.google.com/?cid=0x0:0x1a4c89bcaba1f411;
mall;Bar Minuman Anggur;CORKSCREW Plaza Indonesia;"Plaza Indonesia, Jl. M.H. Thamrin No.28-30 9, RT.9/RW.5, Gondangdia, Kec. Menteng, Kota Jakarta Pusat, Daerah Khusus Ibukota Jakarta 10350";"Jl. M.H. Thamrin No.28-30 9, RT.9/RW.5, Gondangdia, Kec. Menteng, Kota Jakarta Pusat";PAPUA;10350;Indonesia;02131996659;;;-61.941.666;1.068.223.591;https://maps.google.com/?cid=0x0:0x9c403282687928fe;
mall;mall;Keraton at The Plaza;"Jl. M.H. Thamrin No.Kav. 15, Gondangdia, Kec. Menteng, Kota Jakarta Pusat, Daerah Khusus Ibukota Jakarta 10350";"Gondangdia, Kec. Menteng, Kota Jakarta Pusat";PAPUA;10350;Indonesia;02151011234;;;-61.920.998;1.068.217.527;https://maps.google.com/?cid=0x0:0x6b7300b1530f0b09;
mall;mall;Distrik Okbab;"Kabupaten Pegunungan Bintang, Papua";"Kabupaten Pegunungan Bintang, Papua";PAPUA;;Indonesia;;;;-44.591.074;1.403.986.638;https://maps.google.com/?cid=0x0:0x230d9d286d136c26;
mall;Pusat Perbelanjaan;Mall Jayapura;"APO, Jl. Samratulangi, Bayangkara, Kec. Jayapura Utara, Kota Jayapura, Papua 99112";"Jl. Samratulangi, Bayangkara, Kec. Jayapura Utara, Kota Jayapura";PAPUA;99112;Indonesia;09675150000;;;-25.351.775;1.407.061.874;https://maps.google.com/?cid=0x0:0x54294cb27964023;
mall;mall;Pasar Bime;"G669+XM6, Bime, Distrik Bime, Kabupaten Pegunungan Bintang, Papua 99577";"Bime, Distrik Bime, Kabupaten Pegunungan Bintang";PAPUA;99577;Indonesia;;;;-44.875.869;1.402.191.422;https://maps.google.com/?cid=0x0:0x86eb5f2bd5227f75;
mall;Pusat Perbelanjaan;Plaza Indonesia;"Jl. M.H. Thamrin No.Kav.28-30, Gondangdia, Kec. Menteng, Kota Jakarta Pusat, Daerah Khusus Ibukota Jakarta 10350";"Gondangdia, Kec. Menteng, Kota Jakarta Pusat";PAPUA;10350;Indonesia;02129920000;;;-61.935.977;1.068.219.468;https://maps.google.com/?cid=0x0:0x7d7fe17ad64a053f;
mall;Pusat Perbelanjaan;Grand Indonesia Shopping Town;"Jl. M.H. Thamrin No.1, Menteng, Kec. Menteng, Kota Jakarta Pusat, Daerah Khusus Ibukota Jakarta 10310";"Menteng, Kec. Menteng, Kota Jakarta Pusat";PAPUA;10310;Indonesia;02123580001;;;-61.965.848;1.068.224.882;https://maps.google.com/?cid=0x0:0xccfcc89b95aaf1ae;
mall;Pusat Perbelanjaan;Mall Jayapura;"APO, Jl. Samratulangi, Bayangkara, Kec. Jayapura Utara, Kota Jayapura, Papua 99112";"Jl. Samratulangi, Bayangkara, Kec. Jayapura Utara, Kota Jayapura";PAPUA;99112;Indonesia;09675150000;;;-25.351.775;1.407.061.874;https://maps.google.com/?cid=0x0:0x54294cb27964023;
mall;Pusat Perbelanjaan;SAGA MALL;"Kota Baru, Kec. Abepura, Kota Jayapura, Papua 99351";"Kec. Abepura, Kota Jayapura";PAPUA;99351;Indonesia;;;;-26.105.845;1.406.654.189;https://maps.google.com/?cid=0x0:0xaf65e43ff84ff9e6;
mall;Kedai Kopi;JCO COFFEE  DONUTS MALL JAYAPURA;"Jl. Kab. No.99112, Bayangkara, Kec. Jayapura Utara, Kota Jayapura, Papua 99112";"Bayangkara, Kec. Jayapura Utara, Kota Jayapura";PAPUA;99112;Indonesia;;;;-25.353.252;1.407.060.198;https://maps.google.com/?cid=0x0:0x8cbe835113b8c269;
mall;Toko Bahan Bangunan;"Omahbata - Toko Bata Expose , Toko Bata Tempel , Pabrik Roster Jakarta , Toko Roster";"Jl. Ciputat Raya No.59, RT.5/RW.2, Pd. Pinang, Kec. Kby. Lama, Kota Jakarta Selatan, Daerah Khusus Ibukota Jakarta 12310";"RT.5/RW.2, Pd. Pinang, Kec. Kby. Lama, Kota Jakarta Selatan";PAPUA;12310;Indonesia;081250050053;;;-62.656.927;1.067.752.628;https://maps.google.com/?cid=0x0:0x978761a979cda9cb;
mall;Toko Bahan Bangunan;Bata Antasari 34;"34, Jl. Pangeran Antasari No.34, RT.4/RW.1, Cilandak Bar., Kec. Cilandak, Kota Jakarta Selatan, Daerah Khusus Ibukota Jakarta 12410";"Jl. Pangeran Antasari No.34, RT.4/RW.1, Cilandak Bar., Kec. Cilandak, Kota Jakarta Selatan";PAPUA;12410;Indonesia;087878732532;;;-62.876.305;1.068.068.238;https://maps.google.com/?cid=0x0:0xcce0749436190ef4;
mall;Toko Aki Mobil;Toko Antasari;"Jalan Radio Dalam Raya No.40, Kebayoran Baru, RT.2/RW.8, Gandaria Utara, Kebayoran Baru, RT.2/RW.8, Gandaria Utara, Kec. Kby. Baru, Kota Jakarta Selatan, Daerah Khusus Ibukota Jakarta 12140";"Kebayoran Baru, RT.2/RW.8, Gandaria Utara, Kebayoran Baru, RT.2/RW.8, Gandaria Utara, Kec. Kby. Baru, Kota Jakarta Selatan";PAPUA;12140;Indonesia;08993779578;;;-62.561.781;1.067.902.583;https://maps.google.com/?cid=0x0:0xf180d919af59dc8d;
mall;Toko Sepatu;PT. Sepatu Bata Tbk. Bata Industrials;"Jl. R.A. Kartini No.Kav. 28, RT.8/RW.8, Cilandak Bar., Kec. Cilandak, Kota Jakarta Selatan, Daerah Khusus Ibukota Jakarta 12430";"RT.8/RW.8, Cilandak Bar., Kec. Cilandak, Kota Jakarta Selatan";PAPUA;12430;Indonesia;0217505353;;;-62.917.929;1.067.926.257;https://maps.google.com/?cid=0x0:0x90f5b5548df4f45f;
mall;mall;Papua 99576;"Kabupaten Pegunungan Bintang, Papua";"Kabupaten Pegunungan Bintang, Papua";PAPUA;;Indonesia;;;;-41.176.623;1.407.624.493;https://maps.google.com/?cid=0x0:0x9e236cdcf6328593;
mall;Pusat Perbelanjaan;Wamena Mall;"WW4W+JH7, Wamena Kota, Distrik Wamena, Kabupaten Jayawijaya, Papua 99511";"Wamena Kota, Distrik Wamena, Kabupaten Jayawijaya";PAPUA;99511;Indonesia;081356954606;;;-40.934.521;1.389.464.176;https://maps.google.com/?cid=0x0:0x99f90a37cc207474;
mall;Pusat Perbelanjaan;Mall Jayapura;"APO, Jl. Samratulangi, Bayangkara, Kec. Jayapura Utara, Kota Jayapura, Papua 99112";"Jl. Samratulangi, Bayangkara, Kec. Jayapura Utara, Kota Jayapura";PAPUA;99112;Indonesia;09675150000;;;-25.351.775;1.407.061.874;https://maps.google.com/?cid=0x0:0x54294cb27964023;
mall;Pusat Perbelanjaan;Plaza Indonesia;"Jl. M.H. Thamrin No.Kav.28-30, Gondangdia, Kec. Menteng, Kota Jakarta Pusat, Daerah Khusus Ibukota Jakarta 10350";"Gondangdia, Kec. Menteng, Kota Jakarta Pusat";PAPUA;10350;Indonesia;02129920000;;;-61.935.977;1.068.219.468;https://maps.google.com/?cid=0x0:0x7d7fe17ad64a053f;
mall;Pusat Perbelanjaan;Grand Indonesia Shopping Town;"Jl. M.H. Thamrin No.1, Menteng, Kec. Menteng, Kota Jakarta Pusat, Daerah Khusus Ibukota Jakarta 10310";"Menteng, Kec. Menteng, Kota Jakarta Pusat";PAPUA;10310;Indonesia;02123580001;;;-61.965.848;1.068.224.882;https://maps.google.com/?cid=0x0:0xccfcc89b95aaf1ae;
mall;Pusat Perbelanjaan;Grand Indonesia;"Jl. MH Thamrin No.1, Menteng, Kec. Menteng, Kota Jakarta Pusat, Daerah Khusus Ibukota Jakarta 10310";"Menteng, Kec. Menteng, Kota Jakarta Pusat";PAPUA;10310;Indonesia;02123580001;;;-61.950.412;1.068.210.081;https://maps.google.com/?cid=0x0:0xb04ce66a7cb711d9;
mall;Pusat Perbelanjaan;Plaza Menteng;"Jl. HOS. Cokroaminoto No.79 3, RT.3/RW.5, Menteng, Kec. Menteng, Kota Jakarta Pusat, Daerah Khusus Ibukota Jakarta 10310";"RT.3/RW.5, Menteng, Kec. Menteng, Kota Jakarta Pusat";PAPUA;10310;Indonesia;02131935709;;;-61.969.114;1.068.287.882;https://maps.google.com/?cid=0x0:0x1e3c5f01ffe75ef5;
mall;Stasiun Pengisian Kendaraan Listrik;Hyundai St. Pengisian;"Jl. M.H. Thamrin No.30, Gondangdia, Kec. Menteng, Kota Jakarta Pusat, Daerah Khusus Ibukota Jakarta 10350";"Gondangdia, Kec. Menteng, Kota Jakarta Pusat";PAPUA;10350;Indonesia;08001878878;;;-61.930.305;1.068.225.998;https://maps.google.com/?cid=0x0:0x31855cd7abaa0013;
mall;Restoran;DILL Gourmet Cafe;"Jl. M.H. Thamrin No.28-30 9, RT.9/RW.5, Gondangdia, Kec. Menteng, Kota Jakarta Pusat, Daerah Khusus Ibukota Jakarta 10350";"RT.9/RW.5, Gondangdia, Kec. Menteng, Kota Jakarta Pusat";PAPUA;10350;Indonesia;02129924512;;;-61.927.562;1.068.218.392;https://maps.google.com/?cid=0x0:0x459d4488c2df5aed;
mall;Bioskop;Plaza Indonesia XXI;"Jl. M.H. Thamrin No.28 30, RT.9/RW.5, Gondangdia, Menteng, Central Jakarta City, Jakarta 10350";"RT.9/RW.5, Gondangdia, Menteng, Central Jakarta City";PAPUA;10350;Indonesia;02139838779;;;-61.929.965;1.068.222.255;https://maps.google.com/?cid=0x0:0x1a4c89bcaba1f411;
mall;Bar Minuman Anggur;CORKSCREW Plaza Indonesia;"Plaza Indonesia, Jl. M.H. Thamrin No.28-30 9, RT.9/RW.5, Gondangdia, Kec. Menteng, Kota Jakarta Pusat, Daerah Khusus Ibukota Jakarta 10350";"Jl. M.H. Thamrin No.28-30 9, RT.9/RW.5, Gondangdia, Kec. Menteng, Kota Jakarta Pusat";PAPUA;10350;Indonesia;02131996659;;;-61.941.666;1.068.223.591;https://maps.google.com/?cid=0x0:0x9c403282687928fe;
mall;mall;Keraton at The Plaza;"Jl. M.H. Thamrin No.Kav. 15, Gondangdia, Kec. Menteng, Kota Jakarta Pusat, Daerah Khusus Ibukota Jakarta 10350";"Gondangdia, Kec. Menteng, Kota Jakarta Pusat";PAPUA;10350;Indonesia;02151011234;;;-61.920.998;1.068.217.527;https://maps.google.com/?cid=0x0:0x6b7300b1530f0b09;
mall;Pusat Perbelanjaan;Timika Mall;"57522, Jl. Hasanuddin No.9, Nawaripi, Mimika Baru, Mimika Regency, Papua 99971";"Jl. Hasanuddin No.9, Nawaripi, Mimika Baru, Mimika Regency";PAPUA;99971;Indonesia;;;;-45.673.682;1.368.869.612;https://maps.google.com/?cid=0x0:0x146edd1a60cab3dd;
mall;Restoran;RM Duta;"CVMP+3P8, Nawaripi, Kec. Mimika Baru, Kabupaten Mimika, Papua 99971";"Nawaripi, Kec. Mimika Baru, Kabupaten Mimika";PAPUA;99971;Indonesia;;;;-45.673.458;136.886.813;https://maps.google.com/?cid=0x0:0xc9a9476f7c104d5e;
mall;Pusat Perbelanjaan;Ramayana Timika;"Jl. Cendrawasih No.66, Kwamki, Kec. Mimika Baru, Kabupaten Mimika, Papua 99910";"Kwamki, Kec. Mimika Baru, Kabupaten Mimika";PAPUA;99910;Indonesia;081219332254;;;-45.408.303;1.368.776.915;https://maps.google.com/?cid=0x0:0x1129eedce4df0ad3;
mall;Pusat Perbelanjaan;Belakang Manokwari city mall;"43W7+F3H, Manokwari Bar., Kec. Manokwari Bar., Kabupaten Manokwari, Papua Bar. 98312";"Manokwari Bar., Kec. Manokwari Bar., Kabupaten Manokwari";PAPUA;98312;Indonesia;;;;-0.8538079;1.340.627.452;https://maps.google.com/?cid=0x0:0x59f633fd28048da4;
mall;Pusat Perbelanjaan;Manokwari City Mall (MCM);"Jl. Yos Sudarso Manokwari, Manokwari Bar., Kec. Manokwari Bar., Kabupaten Manokwari, Papua Bar. 98312";"Manokwari Bar., Kec. Manokwari Bar., Kabupaten Manokwari";PAPUA;98312;Indonesia;08114918899;;;-0.85693;1.340.678.051;https://maps.google.com/?cid=0x0:0x7e7b90df1d787501;
mall;Komplek perumahan;Fanindi Pantai;"43R9+J9P Bar, Padarni, Kec. Manokwari Bar., Kabupaten Manokwari, Papua Bar. 98312";"Padarni, Kec. Manokwari Bar., Kabupaten Manokwari";PAPUA;98312;Indonesia;081344477231;;;-0.8584193;1.340.684.588;https://maps.google.com/?cid=0x0:0xfea55ca67440bcde;
mall;mall;Murkim;"Kabupaten Pegunungan Bintang, Papua";"Kabupaten Pegunungan Bintang, Papua";PAPUA;;Indonesia;;;;-40.028.727;1.407.416.707;https://maps.google.com/?cid=0x0:0x9771017657678e7d;
mall;Jepang;Ichiban Sushi Manokwari City Mall;"Jl. Yos Sudarso, Manokwari Bar., Kec. Manokwari Bar., Kabupaten Manokwari, Papua Bar. 98312";"Manokwari Bar., Kec. Manokwari Bar., Kabupaten Manokwari";PAPUA;98312;Indonesia;;;;-0.85696;1.340.676.162;https://maps.google.com/?cid=0x0:0x345744965a30969a;
mall;mall;Distrik Mofinop;"Kabupaten Pegunungan Bintang, Papua";"Kabupaten Pegunungan Bintang, Papua";PAPUA;;Indonesia;;;;-40.924.047;1.408.872.648;https://maps.google.com/?cid=0x0:0x3a52071e7d49136a;
mall;Pusat Perbelanjaan;Mall Senayan City;"Jl. Asia Afrika No.Lot 19, Gelora, Kecamatan Tanah Abang, Kota Jakarta Pusat, Daerah Khusus Ibukota Jakarta 10270";"Gelora, Kecamatan Tanah Abang, Kota Jakarta Pusat";PAPUA;10270;Indonesia;02172781000;;;-62.271.953;1.067.970.117;https://maps.google.com/?cid=0x0:0x300c043104acc004;
mall;Pusat Perbelanjaan;Grand Indonesia Shopping Town;"Jl. M.H. Thamrin No.1, Menteng, Kec. Menteng, Kota Jakarta Pusat, Daerah Khusus Ibukota Jakarta 10310";"Menteng, Kec. Menteng, Kota Jakarta Pusat";PAPUA;10310;Indonesia;02123580001;;;-61.965.848;1.068.224.882;https://maps.google.com/?cid=0x0:0xccfcc89b95aaf1ae;
mall;Pusat Perbelanjaan;SAGA MALL;"Kota Baru, Kec. Abepura, Kota Jayapura, Papua 99351";"Kec. Abepura, Kota Jayapura";PAPUA;99351;Indonesia;;;;-26.105.845;1.406.654.189;https://maps.google.com/?cid=0x0:0xaf65e43ff84ff9e6;
mall;Pusat Perbelanjaan;Mall Jayapura;"APO, Jl. Samratulangi, Bayangkara, Kec. Jayapura Utara, Kota Jayapura, Papua 99112";"Jl. Samratulangi, Bayangkara, Kec. Jayapura Utara, Kota Jayapura";PAPUA;99112;Indonesia;09675150000;;;-25.351.775;1.407.061.874;https://maps.google.com/?cid=0x0:0x54294cb27964023;
mall;Perancang busana;Syaza Official;"Jl. Manunggal 2 No.10, RT.3/RW.2, Petukangan Sel., Kec. Pesanggrahan, Kota Jakarta Selatan, Daerah Khusus Ibukota Jakarta 12270";"RT.3/RW.2, Petukangan Sel., Kec. Pesanggrahan, Kota Jakarta Selatan";PAPUA;12270;Indonesia;085771629326;;;-62.456.651;1.067.507.173;https://maps.google.com/?cid=0x0:0x96da62e382106a9e;
mall;Kedai Kopi;JCO COFFEE  DONUTS MALL JAYAPURA;"Jl. Kab. No.99112, Bayangkara, Kec. Jayapura Utara, Kota Jayapura, Papua 99112";"Bayangkara, Kec. Jayapura Utara, Kota Jayapura";PAPUA;99112;Indonesia;;;;-25.353.252;1.407.060.198;https://maps.google.com/?cid=0x0:0x8cbe835113b8c269;
mall;Kios;AZ.store;"Jl. Manunggal 2 GG E No.44 9, RT.8/RW.2, Petukangan Sel., Kec. Pesanggrahan, Kota Jakarta Selatan, Daerah Khusus Ibukota Jakarta 12270";"RT.8/RW.2, Petukangan Sel., Kec. Pesanggrahan, Kota Jakarta Selatan";PAPUA;12270;Indonesia;081511187744;;;-62.440.118;1.067.502.015;https://maps.google.com/?cid=0x0:0x57d36e4c121b43bd;
mall;mall;Papua 99572;"Kabupaten Pegunungan Bintang, Papua";"Kabupaten Pegunungan Bintang, Papua";PAPUA;;Indonesia;;;;-43.578.129;1.404.308.159;https://maps.google.com/?cid=0x0:0x3d3d35db4afd3dc1;
mall;mall;Rap Taruli;"JM8G+PMX, Gn. Sindur, Kec. Gn. Sindur, Kabupaten Bogor, Jawa Barat 16340";"Gn. Sindur, Kec. Gn. Sindur, Kabupaten Bogor";PAPUA;16340;Indonesia;081383464098;;;-63.831.378;1.066.767.491;https://maps.google.com/?cid=0x0:0x75e7b190b92c3322;
mall;mall;Papua 99577;"Kabupaten Pegunungan Bintang, Papua";"Kabupaten Pegunungan Bintang, Papua";PAPUA;;Indonesia;;;;-42.076.915;1.401.009.527;https://maps.google.com/?cid=0x0:0x4787a220090af67d;
mall;Pusat Perbelanjaan;Mall Jayapura;"APO, Jl. Samratulangi, Bayangkara, Kec. Jayapura Utara, Kota Jayapura, Papua 99112";"Jl. Samratulangi, Bayangkara, Kec. Jayapura Utara, Kota Jayapura";PAPUA;99112;Indonesia;09675150000;;;-25.351.775;1.407.061.874;https://maps.google.com/?cid=0x0:0x54294cb27964023;
mall;mall;Pammana Jaya;"W827+G3M, Unnamed Road, Persatuan, Kec. Mandobo, Kabupaten Boven Digoel, Papua 99663";"Unnamed Road, Persatuan, Kec. Mandobo, Kabupaten Boven Digoel";PAPUA;99663;Indonesia;;;;-60.986.641;1.403.126.859;https://maps.google.com/?cid=0x0:0xfdabd2dd8df39b14;
mall;Area Mendaki;Assoma;"jl.wamena, Niniwi, Duram, Kabupaten Yahukimo, Papua 99706";"Niniwi, Duram, Kabupaten Yahukimo";PAPUA;99706;Indonesia;;;;-44.939.717;1.395.279.996;https://maps.google.com/?cid=0x0:0x416d5ed5565f74fd;
mall;Pusat Perbelanjaan;Anchorage 5th Avenue Mall;"320 W 5th Ave, Anchorage, AK 99501, Amerika Serikat";"Anchorage, AK";PAPUA;99501;Indonesia;"  Staf di JCPenney, Sephora, dan butik yang lebih kecil.>AManajemen dan Pemeliharaan: Simon Property Group mempekerjakan manajer, keamanan, dan staf fasilitas.Perhotelan: Vendor Sullivan's Steakhouse dan pusat jajanan mempekerjakan pelayan dan juru masak.>AJumlah pasti pekerjaan untuk mal tidak dilaporkan ke publik, dan arsip perusahaan Simon Property Group tidak merinci data berdasarkan properti. Umpan balik karyawan terbatas, tetapi ulasan Yelp menunjukkan lingkungan kerja yang positif bagi sebagian staf ritel, yang diimbangi oleh tantangan ritel yang umum seperti jam kerja yang panjang.>A>AReputasi>A>AAnchorage 5th Avenue Mall memiliki reputasi yang kuat sebagai tujuan belanja utama Alaska, dipuji karena:>AKeragaman Ritel: Menawarkan 110+ toko, termasuk toko-toko unik Alaska dan merek nasional seperti Apple dan Coach, yang tak tertandingi di tempat lain di negara bagian ini.>AAksesibilitas: Jembatan layang dan lokasi pusat kota membuatnya nyaman, terutama di musim dingin.>ABersantap: Sullivan's Steakhouse adalah favorit lokal dan turis, yang dikenal dengan steak dan jazz-nya.>ANamun, ulasan Yelp (total 61) menyoroti kritik:>ABeberapa orang lebih menyukai Dimond Center, mal Anchorage lainnya, karena suasananya atau perpaduan tokonya.>APenutupan Nordstrom tahun 2019 mengurangi prestise dan lalu lintas mal.";;;612.169.618;-149.888.269;https://maps.google.com/?cid=0x0:0x7e8a9413ab25d5d;
mall;Pusat Perbelanjaan;Great Alaska Mall;"113 W Northern Lights Blvd, Anchorage, AK 99503, Amerika Serikat";"Anchorage, AK";PAPUA;99503;Indonesia;;;;611.957.003;-1.498.847.806;https://maps.google.com/?cid=0x0:0x1fe87d33630e03f5;
mall;Toserba;JCPenney;"406 W 5th Ave, Anchorage, AK 99501, Amerika Serikat";"Anchorage, AK";PAPUA;99501;Indonesia;19072795656;;;61.216.996;-149.890.085;https://maps.google.com/?cid=0x0:0xc34ad89819b544f8;
mall;Toko Aksesori Ponsel;ZAGG 5th Avenue;"320 W 5th Ave #202, Anchorage, AK 99501, Amerika Serikat";"Anchorage, AK";PAPUA;99501;Indonesia;19073064183;;;61.217.238;-1.498.876.611;https://maps.google.com/?cid=0x0:0x3245a0a34984154b;
mall;Jasa Reparasi Komputer;Apple Anchorage 5th Avenue Mall;"320 W 5th Ave, Anchorage, AK 99501, Amerika Serikat";"Anchorage, AK";PAPUA;99501;Indonesia;19072571900;;;612.162.763;-1.498.883.225;https://maps.google.com/?cid=0x0:0x357b652fd20ad511;
mall;Restoran Amerika;Tent City Taphouse;"343 W 6th Ave, Anchorage, AK 99501, Amerika Serikat";"Anchorage, AK";PAPUA;99501;Indonesia;19076448368;;;612.167.385;-1.498.890.807;https://maps.google.com/?cid=0x0:0xb59573cfa9e3e8fa;
mall;Restoran Amerika;Midnight Sun Cafe;"245 W 5th Ave STE 106, Anchorage, AK 99501, Amerika Serikat";"Anchorage, AK";PAPUA;99501;Indonesia;19077430572;;;612.176.719;-1.498.869.763;https://maps.google.com/?cid=0x0:0x89bb065e0a0a2bd3;
mall;mall;Papua 99576;"Kabupaten Pegunungan Bintang, Papua";"Kabupaten Pegunungan Bintang, Papua";PAPUA;;Indonesia;;;;-41.176.623;1.407.624.493;https://maps.google.com/?cid=0x0:0x9e236cdcf6328593;
mall;Pusat Perbelanjaan;Mall Jayapura;"APO, Jl. Samratulangi, Bayangkara, Kec. Jayapura Utara, Kota Jayapura, Papua 99112";"Jl. Samratulangi, Bayangkara, Kec. Jayapura Utara, Kota Jayapura";PAPUA;99112;Indonesia;09675150000;;;-25.351.775;1.407.061.874;https://maps.google.com/?cid=0x0:0x54294cb27964023;
mall;Pusat Perbelanjaan;Mega Mall Sorong;"Jalan Basuki Rahmat Klabulu, Malaimsimsa, Malaingkedi, Kec. Sorong Utara, Kota Sorong, Papua Bar. 98412";"Malaimsimsa, Malaingkedi, Kec. Sorong Utara, Kota Sorong";PAPUA;98412;Indonesia;;;;-0.8873097;1.313.012.842;https://maps.google.com/?cid=0x0:0x364e52ce8985aa7;
mall;Pusat Perbelanjaan;Wamena Mall;"WW4W+JH7, Wamena Kota, Distrik Wamena, Kabupaten Jayawijaya, Papua 99511";"Wamena Kota, Distrik Wamena, Kabupaten Jayawijaya";PAPUA;99511;Indonesia;081356954606;;;-40.934.521;1.389.464.176;https://maps.google.com/?cid=0x0:0x99f90a37cc207474;
mall;Toserba;Mega Waena Departement Store;"Jl. Raya Waena Sentani, Waena, Kec. Heram, Kota Jayapura, Papua 99351";"Waena, Kec. Heram, Kota Jayapura";PAPUA;99351;Indonesia;;;;-25.973.349;1.406.348.789;https://maps.google.com/?cid=0x0:0xd96e42f2c11ca1e9;
mall;Pusat Perbelanjaan;Manokwari City Mall (MCM);"Jl. Yos Sudarso Manokwari, Manokwari Bar., Kec. Manokwari Bar., Kabupaten Manokwari, Papua Bar. 98312";"Manokwari Bar., Kec. Manokwari Bar., Kabupaten Manokwari";PAPUA;98312;Indonesia;08114918899;;;-0.85693;1.340.678.051;https://maps.google.com/?cid=0x0:0x7e7b90df1d787501;
mall;Pusat Perbelanjaan;Vision City Mega Mall;"Lot 7, 8  9, Section 429, 131 National Capital District, Waigani Dr, Port Moresby, Papua Nugini";"Port Moresby, Papua Nugini";PAPUA;;Indonesia;6753028555;;;-94.384.023;1.471.810.598;https://maps.google.com/?cid=0x0:0x6b6056559e073ba7;
mall;Taman;Mamouni;"JW24+X9W, Famek, Distrik Puldama, Kabupaten Yahukimo, Papua 99578";"Famek, Distrik Puldama, Kabupaten Yahukimo";PAPUA;99578;Indonesia;0635206875;;;-43.975.232;1.399.059.405;https://maps.google.com/?cid=0x0:0x38754dd214ab7f7;
mall;Pusat Perbelanjaan;RH Hypermarket Vision City;"Lot 7, 8  9, Section 429, 131 National Capital District, Waigani Drive Port Moresby NCD, 121, Papua Nugini";"Port Moresby, Papua Nugini";PAPUA;;Indonesia;6753028555;;;-9.438.292;1.471.817.697;https://maps.google.com/?cid=0x0:0xe13cc57c2d2c1c38;
mall;Pusat Perbelanjaan;Unity Mall  Supermarket;"H53P+H2C, Port Moresby National Capital District, Papua Nugini";"Port Moresby, Papua Nugini";PAPUA;;Indonesia;;;;-94.460.709;1.471.850.159;https://maps.google.com/?cid=0x0:0xef13b529603262a6;
mall;Kompleks Kondominium;Rangeview Plaza;"H56H+FR8, Port Moresby National Capital District, Papua Nugini";"Port Moresby, Papua Nugini";PAPUA;;Indonesia;67582407702;;;-94.388.387;1.471.795.862;https://maps.google.com/?cid=0x0:0xcdc4ba390e4b1232;
mall;Korea;Korean BBQ Restaurnt;"Vision City Mega Mall, Port Moresby National Capital District, Papua Nugini";"Port Moresby, Papua Nugini";PAPUA;;Indonesia;;;;-94.377.619;1.471.815.011;https://maps.google.com/?cid=0x0:0x343b553284f610fa;
mall;Toko Swalayan;AEON Mall Tanjung Barat;"Jl. Raya Tj. Barat No.163, RT.12/RW.4, Tj. Bar., Kec. Jagakarsa, Kota Jakarta Selatan, Daerah Khusus Ibukota Jakarta 12530";"RT.12/RW.4, Tj. Bar., Kec. Jagakarsa, Kota Jakarta Selatan";PAPUA;12530;Indonesia;02150959888;;;-63.067.712;1.068.398.711;https://maps.google.com/?cid=0x0:0x5ce799145dbf8630;
mall;Pusat Perbelanjaan;MargoCity;"Jl. Margonda Raya No.358, Kemiri Muka, Kecamatan Beji, Kota Depok, Jawa Barat 16423";"Kemiri Muka, Kecamatan Beji, Kota Depok";PAPUA;16423;Indonesia;02178870888;;;-6.372.967;1.068.344.235;https://maps.google.com/?cid=0x0:0xd3365350a2ebe2f;
mall;Pusat Perbelanjaan;AEON MALL Sentul City;"Jl. MH. Thamrin, Citaringgul, Kec. Babakan Madang, Kabupaten Bogor, Jawa Barat 16810";"Citaringgul, Kec. Babakan Madang, Kabupaten Bogor";PAPUA;16810;Indonesia;02184214540;;;-65.678.648;1.068.568.163;https://maps.google.com/?cid=0x0:0x68cbed37dfe846f9;
mall;Pusat Perbelanjaan;Mall @ Alam Sutera;"Jl. Jalur Sutera Bar. No.Kav. 16, RT.002/RW.003, Panunggangan Tim., Kec. Pinang, Kota Tangerang, Banten 15143";"RT.002/RW.003, Panunggangan Tim., Kec. Pinang, Kota Tangerang";PAPUA;15143;Indonesia;02130438899;;;-6.221.679;1.066.541.314;https://maps.google.com/?cid=0x0:0x7637aedafd55dea8;
supermarket;supermarket;Pasar Oksibil;"WJ9P+W8F, Jalan raya, Tarangop, Kawor, Pegunungan Bintang Regency, Papua";"Kabupaten Pegunungan Bintang, Papua";PAPUA;;Indonesia;;;;-5.080.177;140.635.803;https://maps.google.com/?cid=0x0:0x31587aaf96e1b0c7;
supermarket;supermarket;Oksibil;"Tarangop, Kec. Kawor, Kabupaten Pegunungan Bintang, Papua";"Kabupaten Pegunungan Bintang, Papua";PAPUA;;Indonesia;;;;-5.080.177;140.635.803;https://maps.google.com/?cid=0x0:0xf18d2b627917ee12;
supermarket;Pusat Perbelanjaan;“Kios Usaha Baru”;"3JVP+H6, Kotdol, Distrik Oksibil, Kabupaten Pegunungan Bintang, Papua 99573";"Kotdol, Distrik Oksibil, Kabupaten Pegunungan Bintang";PAPUA;99573;Indonesia;;;;-49.058.569;1.406.356.574;https://maps.google.com/?cid=0x0:0x731e5c9a203cea5;
supermarket;Polisi Sipil;Pasar Kiwirok;"7PPQ+VH6, Pomding, Kec. Kiwirok, Kabupaten Pegunungan Bintang, Papua 99574";"Pomding, Kec. Kiwirok, Kabupaten Pegunungan Bintang";PAPUA;99574;Indonesia;;;;-47.128.258;1.407.388.866;https://maps.google.com/?cid=0x0:0xd77f3ec17e9aebe6;
supermarket;Kantor Pemerintah Distrik;Polsek Kiwirok;"7PPQ+7H2, Oknanggul, Kec. Kiwirok, Kabupaten Pegunungan Bintang, Papua 99574";"Oknanggul, Kec. Kiwirok, Kabupaten Pegunungan Bintang";PAPUA;99574;Indonesia;;;;-47.143.675;1.407.389.018;https://maps.google.com/?cid=0x0:0x7941b2f8ad59563;
supermarket;supermarket;Okbi;"Kabupaten Pegunungan Bintang, Papua";"Kabupaten Pegunungan Bintang, Papua";PAPUA;;Indonesia;;;;-46.040.293;1.404.514.913;https://maps.google.com/?cid=0x0:0x5eafc8bf76c1656f;
supermarket;Pusat Perbelanjaan;Papua Supermarket  Dept. Store;"4869+F77 Bar, Sawagumu, Kec. Sorong Utara, Kota Sorong, Papua Bar. 98416";"Sawagumu, Kec. Sorong Utara, Kota Sorong";PAPUA;98416;Indonesia;09513160123;;;-0.888831;1.313.181.847;https://maps.google.com/?cid=0x0:0x7b5f0926a74ad213;
supermarket;supermarket;KIOS ADHE WIJAYA;"3JVM+X3P, Kotdol, Distrik Serambakon, Kabupaten Pegunungan Bintang, Papua 99573";"Kotdol, Distrik Serambakon, Kabupaten Pegunungan Bintang";PAPUA;99573;Indonesia;;;;-49.050.388;140.632.708;https://maps.google.com/?cid=0x0:0x310945925200c8a4;
supermarket;Supermarket Diskon;CV. Samudera;"9P4P+9J7, Jl. Sapta Taruna, Kroy, Kec. Kaimana, Kabupaten Kaimana, Papua Bar. 98654";"Jl. Sapta Taruna, Kroy, Kec. Kaimana, Kabupaten Kaimana";PAPUA;98654;Indonesia;;;;-36.440.992;1.337.365.536;https://maps.google.com/?cid=0x0:0x64165c860713d18;
supermarket;supermarket;Kios Kani;"HV3J+F3F, Batom, Distrik Batom, Kabupaten Pegunungan Bintang, Papua";"Kabupaten Pegunungan Bintang, Papua";PAPUA;;Indonesia;;;;-44.463.164;1.408.801.622;https://maps.google.com/?cid=0x0:0xbd9c4e33c12a9345;
supermarket;Toko Swalayan;Ranch Market Pesanggrahan;"1, Jl. Pesanggrahan No.2, Kembangan Sel., Kec. Kembangan, Kota Jakarta Barat, Daerah Khusus Ibukota Jakarta 11610";"Jl. Pesanggrahan No.2, Kembangan Sel., Kec. Kembangan, Kota Jakarta Barat";PAPUA;11610;Indonesia;02158304842;;;-61.883.181;1.067.561.831;https://maps.google.com/?cid=0x0:0x59972408c2ef6a6e;
supermarket;Toko Swalayan;KeSupermarket;"Jl. Pesanggrahan No.2 1, RT.1/RW.7, Kembangan Sel., Kec. Kembangan, Kota Jakarta Barat, Daerah Khusus Ibukota Jakarta 11610";"RT.1/RW.7, Kembangan Sel., Kec. Kembangan, Kota Jakarta Barat";PAPUA;11610;Indonesia;0215813999;;;-61.883.917;1.067.560.426;https://maps.google.com/?cid=0x0:0x6305af75ba489a7d;
supermarket;Jepang;Naminori Japanese Izakaya  Sushi Bar;"Jl. Pesanggrahan No.1, RT.2/RW.7, Kembangan Sel., Kec. Kembangan, Kota Jakarta Barat, Daerah Khusus Ibukota Jakarta 11610";"RT.2/RW.7, Kembangan Sel., Kec. Kembangan, Kota Jakarta Barat";PAPUA;11610;Indonesia;02122285138;;;-618.846;1.067.561.559;https://maps.google.com/?cid=0x0:0x56c9f46de8b24b3c;
supermarket;supermarket;Borme;"Kabupaten Pegunungan Bintang, Papua";"Kabupaten Pegunungan Bintang, Papua";PAPUA;;Indonesia;;;;-43.227.031;1.403.894.858;https://maps.google.com/?cid=0x0:0x3ae0f9e7e82ab112;
supermarket;supermarket;Smart Minimarket;"JP66+WCF, Banamepe, Edera, Kabupaten Mappi, Papua";"Kabupaten Mappi, Papua";PAPUA;;Indonesia;;;;-73.876.836;1.397.110.495;https://maps.google.com/?cid=0x0:0x7b9d0e61f96daf74;
supermarket;supermarket;Kios Kagembur;"CC38+7JR, Alukuni, Distrik Kembu, Kabupaten Tolikara, Papua 99562";"Alukuni, Distrik Kembu, Kabupaten Tolikara";PAPUA;99562;Indonesia;;;;-35.967.635;1.384.165.187;https://maps.google.com/?cid=0x0:0xa2301c10eef42ee4;
supermarket;Toko Swalayan;Aneka Buana Supermarket - Pondok Labu;"Jl. RS. Fatmawati Raya No.15, RT.2/RW.1, Pd. Labu, Kec. Cilandak, Kota Jakarta Selatan, Daerah Khusus Ibukota Jakarta 12450";"RT.2/RW.1, Pd. Labu, Kec. Cilandak, Kota Jakarta Selatan";PAPUA;12450;Indonesia;0217692010;;;-63.093.895;1.067.939.361;https://maps.google.com/?cid=0x0:0x3f7935d87cf91289;
supermarket;Toko Roti;Roti Goreng dan Cakwe Koh Uban;"Jl. Raya Cirendeu No.21, Cireundeu, Kec. Ciputat Tim., Kota Tangerang Selatan, Banten 15419";"Cireundeu, Kec. Ciputat Tim., Kota Tangerang Selatan";PAPUA;15419;Indonesia;;;;-63.114.719;1.067.710.393;https://maps.google.com/?cid=0x0:0x2874ebda0ee824;
supermarket;Polisi Sipil;Pasar Kiwirok;"7PPQ+VH6, Pomding, Kec. Kiwirok, Kabupaten Pegunungan Bintang, Papua 99574";"Pomding, Kec. Kiwirok, Kabupaten Pegunungan Bintang";PAPUA;99574;Indonesia;;;;-47.128.258;1.407.388.866;https://maps.google.com/?cid=0x0:0xd77f3ec17e9aebe6;
supermarket;Kantor Pemerintah Distrik;Polsek Kiwirok;"7PPQ+7H2, Oknanggul, Kec. Kiwirok, Kabupaten Pegunungan Bintang, Papua 99574";"Oknanggul, Kec. Kiwirok, Kabupaten Pegunungan Bintang";PAPUA;99574;Indonesia;;;;-47.143.675;1.407.389.018;https://maps.google.com/?cid=0x0:0x7941b2f8ad59563;
supermarket;supermarket;Papua 99572;"Kabupaten Pegunungan Bintang, Papua";"Kabupaten Pegunungan Bintang, Papua";PAPUA;;Indonesia;;;;-43.578.129;1.404.308.159;https://maps.google.com/?cid=0x0:0x3d3d35db4afd3dc1;
supermarket;Toko Swalayan;Surya Mart;"C8V2+G83, Jl. Irian Kepi, Kepi, Kec. Obaa, Kabupaten Mappi, Papua 99881";"Jl. Irian Kepi, Kepi, Kec. Obaa, Kabupaten Mappi";PAPUA;99881;Indonesia;085254867242;;;-65.562.444;1.393.007.867;https://maps.google.com/?cid=0x0:0x160bad2921fdf723;
supermarket;Toko bahan makanan;TOKO BERKAT ADONAY;"Jln.Papua Kompleks Ruko Block A, Massi, Kec. Dekai, Kabupaten Yahukimo, Papua 99571";"Massi, Kec. Dekai, Kabupaten Yahukimo";PAPUA;99571;Indonesia;081223355359;;;-48.624.737;1.394.857.426;https://maps.google.com/?cid=0x0:0xebc675faef4f92b5;
supermarket;Toko Swalayan;Ana Ogi 2 (Hj);"3JWM+J5M, Kotdol, Distrik Serambakon, Kabupaten Pegunungan Bintang, Papua 99573";"Kotdol, Distrik Serambakon, Kabupaten Pegunungan Bintang";PAPUA;99573;Indonesia;085255315378;;;-49.034.023;1.406.329.129;https://maps.google.com/?cid=0x0:0x57326a56c80e67eb;
supermarket;Kios;KIOS YUSUF;"Dabolding, Distrik Kolomdol, Kabupaten Pegunungan Bintang, Papua 99573";"Distrik Kolomdol, Kabupaten Pegunungan Bintang";PAPUA;99573;Indonesia;082300069989;;;-49.144.285;1.406.340.669;https://maps.google.com/?cid=0x0:0x5d6b5e1a999a70a;
supermarket;Toko Elektronik;Toko Avlyn;"C8V2+86C, Jl. Irian Kepi, Kepi, Kec. Obaa, Kabupaten Mappi, Papua 99881";"Jl. Irian Kepi, Kepi, Kec. Obaa, Kabupaten Mappi";PAPUA;99881;Indonesia;;;;-655.668;1.393.005.004;https://maps.google.com/?cid=0x0:0x12fabc22488236a0;
supermarket;Toko Swalayan;Kios Bayutra;"46HV+QC2, Jl. Nipah, Famboaman, Kec. Yapen Sel., Kabupaten Kepulauan Yapen, Papua 98213";"Jl. Nipah, Famboaman, Kec. Yapen Sel., Kabupaten Kepulauan Yapen";PAPUA;98213;Indonesia;;;;-18.706.197;1.362.435.076;https://maps.google.com/?cid=0x0:0x7f73d770b8e46fe3;
supermarket;Toko Swalayan;Avisa Shop;"VGMJ+3H6, Bintuni Tim., Distrik Bintuni, Kabupaten Teluk Bintuni, Papua Bar. 98364";"Bintuni Tim., Distrik Bintuni, Kabupaten Teluk Bintuni";PAPUA;98364;Indonesia;;;;-21.173.365;133.531.399;https://maps.google.com/?cid=0x0:0x73b8c03a5abda4db;
supermarket;Toko Swalayan;Papindo Supermarket;"7XMV+X6F, Buchanan Ave, Lae Morobe Province, Papua Nugini";"Lae, Papua Nugini";PAPUA;;Indonesia;6754723322;;;-6.715.068;1.469.930.577;https://maps.google.com/?cid=0x0:0x50fb7f483cef97f1;
supermarket;Toko Swalayan;Saga Supermarket;"CPW3+83X, Ardipura, Distrik Jayapura Selatan, Kota Jayapura, Papua 99222";"Ardipura, Distrik Jayapura Selatan, Kota Jayapura";PAPUA;99222;Indonesia;;;;-25.541.438;1.407.027.385;https://maps.google.com/?cid=0x0:0x287c7b2014785d97;
supermarket;Toko Swalayan;Kios misbah;"47G2+2WW, Warari, Kec. Yapen Sel., Kabupaten Kepulauan Yapen, Papua 98212";"Warari, Kec. Yapen Sel., Kabupaten Kepulauan Yapen";PAPUA;98212;Indonesia;081236974318;;;-18.748.841;1.362.523.177;https://maps.google.com/?cid=0x0:0x76d55831a7e822b3;
supermarket;Pusat Perbelanjaan;Saga Jayapura;"Jl. Ahmad Yani, Gurabesi, Kec. Jayapura Utara, Kota Jayapura, Papua 99222";"Gurabesi, Kec. Jayapura Utara, Kota Jayapura";PAPUA;99222;Indonesia;0811480554;;;-25.433.433;1.407.016.688;https://maps.google.com/?cid=0x0:0x68f0411e320c4afb;
supermarket;Toko bahan makanan;DEPOT SATRIA JOAN;"3JWM+GQV, Kotdol, Distrik Serambakon, Kabupaten Pegunungan Bintang, Papua 99573";"Kotdol, Distrik Serambakon, Kabupaten Pegunungan Bintang";PAPUA;99573;Indonesia;081343058967;;;-49.036.458;140.634.431;https://maps.google.com/?cid=0x0:0xef33d2d686115f88;
supermarket;Toko Swalayan;SAGA Fresh Dok V;"FP8F+CG5, Mandala, Kec. Jayapura Utara, Kota Jayapura, Papua";"Kota Jayapura, Papua";PAPUA;;Indonesia;0811481744;;;-25.339.841;1.407.238.702;https://maps.google.com/?cid=0x0:0x14ea247dbf0373ea;
supermarket;Toko umum;Kios Mama Andi;"7XX7+2Q3, Wuyukwi, Distrik Mulia, Kabupaten Puncak Jaya, Papua 98973";"Wuyukwi, Distrik Mulia, Kabupaten Puncak Jaya";PAPUA;98973;Indonesia;081247174537;;;-37.024.971;1.379.644.274;https://maps.google.com/?cid=0x0:0x461f852ed7f20fc1;
supermarket;supermarket;KIOS ADIRUTING;"4J25+F6, Kotdol, Distrik Oksibil, Kabupaten Pegunungan Bintang, Papua";"Kabupaten Pegunungan Bintang, Papua";PAPUA;;Indonesia;082398610373;;;-4.898.532;140.608.406;https://maps.google.com/?cid=0x0:0x5b80078145e70708;
supermarket;supermarket;Smart Minimarket;"JP66+WCF, Banamepe, Edera, Kabupaten Mappi, Papua";"Kabupaten Mappi, Papua";PAPUA;;Indonesia;;;;-73.876.836;1.397.110.495;https://maps.google.com/?cid=0x0:0x7b9d0e61f96daf74;
supermarket;Toko Perlengkapan Rumah;TOKO REZKY UTAMA;"F889+MH6, Obaa, Kec. Obaa, Kabupaten Mappi, Papua 99881";"Obaa, Kec. Obaa, Kabupaten Mappi";PAPUA;99881;Indonesia;;;;-6.533.338;1.393.188.849;https://maps.google.com/?cid=0x0:0x60e1f8f94c146258;
supermarket;Pusat Perbelanjaan;Saga Mart;"9MVG+F44, Jl. Baru Ps. Lama Abepura, Wai Mhorock, Kec. Abepura, Kota Jayapura, Papua 99225";"Jl. Baru Ps. Lama Abepura, Wai Mhorock, Kec. Abepura, Kota Jayapura";PAPUA;99225;Indonesia;;;;-26.063.557;1.406.753.333;https://maps.google.com/?cid=0x0:0x87e41d7df0d8cbcc;
supermarket;Toko bahan makanan;KIOS SYARWAN;"3JWP+92F, Unnamed Road, Kotdol, Distrik Pepera, Kabupaten Pegunungan Bintang, Papua 99573";"Unnamed Road, Kotdol, Distrik Pepera, Kabupaten Pegunungan Bintang";PAPUA;99573;Indonesia;082397510226;;;-49.040.674;1.406.350.395;https://maps.google.com/?cid=0x0:0xb08366d624776647;
supermarket;Minimarket;SAGA Supermarket  Dept. Store;"Jalan A. Yani, Ruko Kuda Laut, Klademak, Kecamatan Sorong Manoi, Kota Sorong, Papua Bar. 98414";"Ruko Kuda Laut, Klademak, Kecamatan Sorong Manoi, Kota Sorong";PAPUA;98414;Indonesia;0951322784;;;-0.8765248;1.312.576.755;https://maps.google.com/?cid=0x0:0x963043ed646a7e1e;
supermarket;Toko umum;BERKAT MART (kabiding);"3JXH+8C5, Kotdol, Distrik Pepera, Kabupaten Pegunungan Bintang, Papua 99573";"Kotdol, Distrik Pepera, Kabupaten Pegunungan Bintang";PAPUA;99573;Indonesia;082238784125;;;-49.017.417;1.406.285.945;https://maps.google.com/?cid=0x0:0x49624b845273d939;
supermarket;Kios;kios mul (kabiding);"3JXH+8MJ, Kotdol, Distrik Serambakon, Kabupaten Pegunungan Bintang, Papua 99573";"Kotdol, Distrik Serambakon, Kabupaten Pegunungan Bintang";PAPUA;99573;Indonesia;081222255289;;;-49.016.579;1.406.291.464;https://maps.google.com/?cid=0x0:0xc6cf20df51bf245d;
supermarket;Toko bahan makanan;Warung aboy;"H326+R65, Sukamanah, Kec. Jonggol, Kabupaten Bogor, Jawa Barat 16830";"Sukamanah, Kec. Jonggol, Kabupaten Bogor";PAPUA;16830;Indonesia;;;;-64.479.889;1.070.605.938;https://maps.google.com/?cid=0x0:0x3a346b4ee5271f59;
supermarket;Toko bahan makanan;Aboy Mart;"Jl. Raya Karangnunggal, Karangmekar, Kec. Karangnunggal, Kabupaten Tasikmalaya, Jawa Barat 46186";"Karangmekar, Kec. Karangnunggal, Kabupaten Tasikmalaya";PAPUA;46186;Indonesia;085294584040;;;-76.161.193;1.081.467.795;https://maps.google.com/?cid=0x0:0xe717d244a666f225;
supermarket;Toko bahan makanan;warung aby;"R237+2X2, RT.003/RW.017, Perwira, Kec. Bekasi Utara, Kota Bks, Jawa Barat 17124";"RT.003/RW.017, Perwira, Kec. Bekasi Utara, Kota Bks";PAPUA;17124;Indonesia;;;;-61.974.897;1.070.149.017;https://maps.google.com/?cid=0x0:0x95b1fd2c5b17d2f2;
supermarket;Toko bahan makanan;Toko Aboy;"Ciwangi, Kec. Bungursari, Kabupaten Purwakarta, Jawa Barat";"Kabupaten Purwakarta, Jawa Barat";PAPUA;;Indonesia;;;;-65.076.911;107.461.415;https://maps.google.com/?cid=0x0:0xa8a874faae3a206d;
supermarket;Toko bahan makanan;Diamond;"Jl. Permata Artha Gading No.18, RT.18/RW.8, Klp. Gading Bar., Kec. Klp. Gading, Jkt Utara, Daerah Khusus Ibukota Jakarta 14240";"RT.18/RW.8, Klp. Gading Bar., Kec. Klp. Gading, Jkt Utara";PAPUA;14240;Indonesia;02145863828;;;-61.464.444;1.068.922.506;https://maps.google.com/?cid=0x0:0x1b41fb935cae0e30;
supermarket;supermarket;Distrik Pepera;"Kabupaten Pegunungan Bintang, Papua";"Kabupaten Pegunungan Bintang, Papua";PAPUA;;Indonesia;;;;-48.872.459;1.407.305.111;https://maps.google.com/?cid=0x0:0x1239d5884917d2c1;
supermarket;Pusat Perbelanjaan;Papua Supermarket  Dept. Store;"4869+F77 Bar, Sawagumu, Kec. Sorong Utara, Kota Sorong, Papua Bar. 98416";"Sawagumu, Kec. Sorong Utara, Kota Sorong";PAPUA;98416;Indonesia;09513160123;;;-0.888831;1.313.181.847;https://maps.google.com/?cid=0x0:0x7b5f0926a74ad213;
supermarket;Toko bahan makanan;KIOS SYARWAN;"3JWP+92F, Unnamed Road, Kotdol, Distrik Pepera, Kabupaten Pegunungan Bintang, Papua 99573";"Unnamed Road, Kotdol, Distrik Pepera, Kabupaten Pegunungan Bintang";PAPUA;99573;Indonesia;082397510226;;;-49.040.674;1.406.350.395;https://maps.google.com/?cid=0x0:0xb08366d624776647;
supermarket;Toko bahan makanan;DEPOT SATRIA JOAN;"3JWM+GQV, Kotdol, Distrik Serambakon, Kabupaten Pegunungan Bintang, Papua 99573";"Kotdol, Distrik Serambakon, Kabupaten Pegunungan Bintang";PAPUA;99573;Indonesia;081343058967;;;-49.036.458;140.634.431;https://maps.google.com/?cid=0x0:0xef33d2d686115f88;
supermarket;Toko bahan makanan;kios makmur jaya;"3JWM+FV9, Unnamed Road, Kotdol, Distrik Pepera, Kabupaten Pegunungan Bintang, Papua 99573";"Unnamed Road, Kotdol, Distrik Pepera, Kabupaten Pegunungan Bintang";PAPUA;99573;Indonesia;;;;-49.038.496;140.634.726;https://maps.google.com/?cid=0x0:0xc39a5868b51aeab8;
supermarket;Toko Swalayan;Primo Supermarket Tembagapura;"Tembagapura, Kec. Tembagapura, Kabupaten Mimika, Papua 98972";"Kec. Tembagapura, Kabupaten Mimika";PAPUA;98972;Indonesia;;;;-41.423.125;1.370.900.625;https://maps.google.com/?cid=0x0:0x79e7c0e104f18094;
supermarket;Kios;KIOS YUSUF;"Dabolding, Distrik Kolomdol, Kabupaten Pegunungan Bintang, Papua 99573";"Distrik Kolomdol, Kabupaten Pegunungan Bintang";PAPUA;99573;Indonesia;082300069989;;;-49.144.285;1.406.340.669;https://maps.google.com/?cid=0x0:0x5d6b5e1a999a70a;
supermarket;Toko Swalayan;Saga Supermarket;"CPW3+83X, Ardipura, Distrik Jayapura Selatan, Kota Jayapura, Papua 99222";"Ardipura, Distrik Jayapura Selatan, Kota Jayapura";PAPUA;99222;Indonesia;;;;-25.541.438;1.407.027.385;https://maps.google.com/?cid=0x0:0x287c7b2014785d97;
supermarket;Toko bahan makanan;KIOS CES;"3JWH+J7P, Jl. Kuburan, Kotdol, Distrik Pepera, Kabupaten Pegunungan Bintang, Papua 99573";"Jl. Kuburan, Kotdol, Distrik Pepera, Kabupaten Pegunungan Bintang";PAPUA;99573;Indonesia;;;;-49.034.093;1.406.281.878;https://maps.google.com/?cid=0x0:0x29882a13bbde652c;
supermarket;Pusat Perbelanjaan;Saga Jayapura;"Jl. Ahmad Yani, Gurabesi, Kec. Jayapura Utara, Kota Jayapura, Papua 99222";"Gurabesi, Kec. Jayapura Utara, Kota Jayapura";PAPUA;99222;Indonesia;0811480554;;;-25.433.433;1.407.016.688;https://maps.google.com/?cid=0x0:0x68f0411e320c4afb;
supermarket;Toko Swalayan;SAGA WAENA;"CJ3M+HQ8, Jl. Raya Abepura - Sentani, Kp. Waena, Kec. Heram, Kota Jayapura, Papua 99225";"Jl. Raya Abepura - Sentani, Kp. Waena, Kec. Heram, Kota Jayapura";PAPUA;99225;Indonesia;;;;-25.961.192;1.406.345.177;https://maps.google.com/?cid=0x0:0xbe5416ad4f79e596;
supermarket;Toko Swalayan;Ana Ogi 2 (Hj);"3JWM+J5M, Kotdol, Distrik Serambakon, Kabupaten Pegunungan Bintang, Papua 99573";"Kotdol, Distrik Serambakon, Kabupaten Pegunungan Bintang";PAPUA;99573;Indonesia;085255315378;;;-49.034.023;1.406.329.129;https://maps.google.com/?cid=0x0:0x57326a56c80e67eb;
supermarket;Toko Swalayan;SAGA Fresh Dok V;"FP8F+CG5, Mandala, Kec. Jayapura Utara, Kota Jayapura, Papua";"Kota Jayapura, Papua";PAPUA;;Indonesia;0811481744;;;-25.339.841;1.407.238.702;https://maps.google.com/?cid=0x0:0x14ea247dbf0373ea;
supermarket;Minimarket;SAGA SUPERMARKET;"4PVX+WJ7, Jl. Inres Kalibagre, Mararena, Kec. Sarmi, Kabupaten Sarmi, Papua 99373";"Jl. Inres Kalibagre, Mararena, Kec. Sarmi, Kabupaten Sarmi";PAPUA;99373;Indonesia;0811488808;;;-18.551.351;138.749.118;https://maps.google.com/?cid=0x0:0x3a85515714116950;
supermarket;Pusat Perbelanjaan;Saga Mart;"9MVG+F44, Jl. Baru Ps. Lama Abepura, Wai Mhorock, Kec. Abepura, Kota Jayapura, Papua 99225";"Jl. Baru Ps. Lama Abepura, Wai Mhorock, Kec. Abepura, Kota Jayapura";PAPUA;99225;Indonesia;;;;-26.063.557;1.406.753.333;https://maps.google.com/?cid=0x0:0x87e41d7df0d8cbcc;
supermarket;Pusat Perbelanjaan;SAGA MALL;"Kota Baru, Kec. Abepura, Kota Jayapura, Papua 99351";"Kec. Abepura, Kota Jayapura";PAPUA;99351;Indonesia;;;;-26.105.845;1.406.654.189;https://maps.google.com/?cid=0x0:0xaf65e43ff84ff9e6;
supermarket;Kios;kios mul (kabiding);"3JXH+8MJ, Kotdol, Distrik Serambakon, Kabupaten Pegunungan Bintang, Papua 99573";"Kotdol, Distrik Serambakon, Kabupaten Pegunungan Bintang";PAPUA;99573;Indonesia;081222255289;;;-49.016.579;1.406.291.464;https://maps.google.com/?cid=0x0:0xc6cf20df51bf245d;
supermarket;Toko bahan makanan;Kios Mitra Vilamei;"3JWM+462, Kotdol, Distrik Serambakon, Kabupaten Pegunungan Bintang, Papua 99573";"Kotdol, Distrik Serambakon, Kabupaten Pegunungan Bintang";PAPUA;99573;Indonesia;082198066558;;;-49.047.482;1.406.330.265;https://maps.google.com/?cid=0x0:0x2e8c73352603ae5e;
supermarket;Toko;Kios Amadea;"Kompleks Perum kesehatan dan Aspol, Jalan, Kabiding, Distrik Oksibil, Kabupaten Pegunungan Bintang, Papua 99573";"Jalan, Kabiding, Distrik Oksibil, Kabupaten Pegunungan Bintang";PAPUA;99573;Indonesia;08124606051;;;-49.014.411;1.406.229.428;https://maps.google.com/?cid=0x0:0xfb420a2fa316017;
supermarket;supermarket;Distrik Bime;"Kabupaten Pegunungan Bintang, Papua";"Kabupaten Pegunungan Bintang, Papua";PAPUA;;Indonesia;;;;-4.488.256;1.402.199.566;https://maps.google.com/?cid=0x0:0xdb4257b29554af6e;
supermarket;Toko Swalayan;Ranch Market Pesanggrahan;"1, Jl. Pesanggrahan No.2, Kembangan Sel., Kec. Kembangan, Kota Jakarta Barat, Daerah Khusus Ibukota Jakarta 11610";"Jl. Pesanggrahan No.2, Kembangan Sel., Kec. Kembangan, Kota Jakarta Barat";PAPUA;11610;Indonesia;02158304842;;;-61.883.181;1.067.561.831;https://maps.google.com/?cid=0x0:0x59972408c2ef6a6e;
supermarket;Toko Swalayan;Ranch Market Darmawangsa;"Jl. Dharmawangsa VI Melawai Kebayoran Baru Jakarta Selatan DKI Jakarta RT.5, 5, RT.5/RW.1, Pulo, Kec. Kby. Baru, Kota Jakarta Selatan, Daerah Khusus Ibukota Jakarta 12160";"5, RT.5/RW.1, Pulo, Kec. Kby. Baru, Kota Jakarta Selatan";PAPUA;12160;Indonesia;02172786480;;;-6.252.685;1.068.014.196;https://maps.google.com/?cid=0x0:0x227f1cf75ffc7e1e;
supermarket;Pusat Perbelanjaan;Papua Supermarket  Dept. Store;"4869+F77 Bar, Sawagumu, Kec. Sorong Utara, Kota Sorong, Papua Bar. 98416";"Sawagumu, Kec. Sorong Utara, Kota Sorong";PAPUA;98416;Indonesia;09513160123;;;-0.888831;1.313.181.847;https://maps.google.com/?cid=0x0:0x7b5f0926a74ad213;
supermarket;Minimarket;SAGA Supermarket  Dept. Store;"Jalan A. Yani, Ruko Kuda Laut, Klademak, Kecamatan Sorong Manoi, Kota Sorong, Papua Bar. 98414";"Ruko Kuda Laut, Klademak, Kecamatan Sorong Manoi, Kota Sorong";PAPUA;98414;Indonesia;0951322784;;;-0.8765248;1.312.576.755;https://maps.google.com/?cid=0x0:0x963043ed646a7e1e;
supermarket;Komplek perumahan;Rumah Bpk Gustaf. L;"4859+784, Klawuyuk, Distrik Sorong Timur, Kota Sorong, Papua Bar. 98416";"Klawuyuk, Distrik Sorong Timur, Kota Sorong";PAPUA;98416;Indonesia;;;;-0.8918739;1.313.183.248;https://maps.google.com/?cid=0x0:0x30559e7e5eb96ee4;
supermarket;supermarket;Kec. Ok Bape;"Kabupaten Pegunungan Bintang, Papua";"Kabupaten Pegunungan Bintang, Papua";PAPUA;;Indonesia;;;;-47.079.703;140.534.262;https://maps.google.com/?cid=0x0:0xddeed733d7c1a330;
supermarket;Toko Swalayan;Surya Mart;"C8V2+G83, Jl. Irian Kepi, Kepi, Kec. Obaa, Kabupaten Mappi, Papua 99881";"Jl. Irian Kepi, Kepi, Kec. Obaa, Kabupaten Mappi";PAPUA;99881;Indonesia;085254867242;;;-65.562.444;1.393.007.867;https://maps.google.com/?cid=0x0:0x160bad2921fdf723;
supermarket;supermarket;Kios AGAPE;"FF58+G5M, Unnamed Road, Doyo Baru, Distrik Waibu, Kabupaten Jayapura, Papua 99352";"Unnamed Road, Doyo Baru, Distrik Waibu, Kabupaten Jayapura";PAPUA;99352;Indonesia;;;;-25.411.707;140.465.435;https://maps.google.com/?cid=0x0:0x47fd02aa4d54fb6c;
supermarket;Minimarket;SAGA Supermarket  Dept. Store;"Jalan A. Yani, Ruko Kuda Laut, Klademak, Kecamatan Sorong Manoi, Kota Sorong, Papua Bar. 98414";"Ruko Kuda Laut, Klademak, Kecamatan Sorong Manoi, Kota Sorong";PAPUA;98414;Indonesia;0951322784;;;-0.8765248;1.312.576.755;https://maps.google.com/?cid=0x0:0x963043ed646a7e1e;
supermarket;Komplek perumahan;Rumah Bpk Gustaf. L;"4859+784, Klawuyuk, Distrik Sorong Timur, Kota Sorong, Papua Bar. 98416";"Klawuyuk, Distrik Sorong Timur, Kota Sorong";PAPUA;98416;Indonesia;;;;-0.8918739;1.313.183.248;https://maps.google.com/?cid=0x0:0x30559e7e5eb96ee4;
supermarket;Toko bahan makanan;KERAMBA PANPER;"Unnamed Road, Doyo Lama, Distrik Waibu, Kabupaten Jayapura, Papua 99352";"Doyo Lama, Distrik Waibu, Kabupaten Jayapura";PAPUA;99352;Indonesia;082397758140;;;-25.723.817;1.404.535.468;https://maps.google.com/?cid=0x0:0x99681cfd0f029c29;
supermarket;Cagar Alam;Depapre;"Waiya, Distrik Depapre, Kabupaten Jayapura, Papua 99353";"Distrik Depapre, Kabupaten Jayapura";PAPUA;99353;Indonesia;0967536161;;;-24.634.125;1.403.660.779;https://maps.google.com/?cid=0x0:0x50fbd732ed5f5ad9;
supermarket;supermarket;Distrik Kolomdol;"Kabupaten Pegunungan Bintang, Papua";"Kabupaten Pegunungan Bintang, Papua";PAPUA;;Indonesia;;;;-49.670.754;1.405.860.497;https://maps.google.com/?cid=0x0:0x24dc4f034dc31161;
supermarket;Kios;KIOS YUSUF;"Dabolding, Distrik Kolomdol, Kabupaten Pegunungan Bintang, Papua 99573";"Distrik Kolomdol, Kabupaten Pegunungan Bintang";PAPUA;99573;Indonesia;082300069989;;;-49.144.285;1.406.340.669;https://maps.google.com/?cid=0x0:0x5d6b5e1a999a70a;
supermarket;supermarket;KIOS ADIRUTING;"4J25+F6, Kotdol, Distrik Oksibil, Kabupaten Pegunungan Bintang, Papua";"Kabupaten Pegunungan Bintang, Papua";PAPUA;;Indonesia;082398610373;;;-4.898.532;140.608.406;https://maps.google.com/?cid=0x0:0x5b80078145e70708;
supermarket;Toko umum;BERKAT MART (kabiding);"3JXH+8C5, Kotdol, Distrik Pepera, Kabupaten Pegunungan Bintang, Papua 99573";"Kotdol, Distrik Pepera, Kabupaten Pegunungan Bintang";PAPUA;99573;Indonesia;082238784125;;;-49.017.417;1.406.285.945;https://maps.google.com/?cid=0x0:0x49624b845273d939;
supermarket;Toko bahan makanan;kios makmur jaya;"3JWM+FV9, Unnamed Road, Kotdol, Distrik Pepera, Kabupaten Pegunungan Bintang, Papua 99573";"Unnamed Road, Kotdol, Distrik Pepera, Kabupaten Pegunungan Bintang";PAPUA;99573;Indonesia;;;;-49.038.496;140.634.726;https://maps.google.com/?cid=0x0:0xc39a5868b51aeab8;
supermarket;Toko;Kios Amadea;"Kompleks Perum kesehatan dan Aspol, Jalan, Kabiding, Distrik Oksibil, Kabupaten Pegunungan Bintang, Papua 99573";"Jalan, Kabiding, Distrik Oksibil, Kabupaten Pegunungan Bintang";PAPUA;99573;Indonesia;08124606051;;;-49.014.411;1.406.229.428;https://maps.google.com/?cid=0x0:0xfb420a2fa316017;
supermarket;Toko Swalayan;Ana Ogi 2 (Hj);"3JWM+J5M, Kotdol, Distrik Serambakon, Kabupaten Pegunungan Bintang, Papua 99573";"Kotdol, Distrik Serambakon, Kabupaten Pegunungan Bintang";PAPUA;99573;Indonesia;085255315378;;;-49.034.023;1.406.329.129;https://maps.google.com/?cid=0x0:0x57326a56c80e67eb;
supermarket;Toko bahan makanan;KIOS SYARWAN;"3JWP+92F, Unnamed Road, Kotdol, Distrik Pepera, Kabupaten Pegunungan Bintang, Papua 99573";"Unnamed Road, Kotdol, Distrik Pepera, Kabupaten Pegunungan Bintang";PAPUA;99573;Indonesia;082397510226;;;-49.040.674;1.406.350.395;https://maps.google.com/?cid=0x0:0xb08366d624776647;
supermarket;Toko bahan makanan;DEPOT SATRIA JOAN;"3JWM+GQV, Kotdol, Distrik Serambakon, Kabupaten Pegunungan Bintang, Papua 99573";"Kotdol, Distrik Serambakon, Kabupaten Pegunungan Bintang";PAPUA;99573;Indonesia;081343058967;;;-49.036.458;140.634.431;https://maps.google.com/?cid=0x0:0xef33d2d686115f88;
supermarket;Toko bahan makanan;Kios Mitra Vilamei;"3JWM+462, Kotdol, Distrik Serambakon, Kabupaten Pegunungan Bintang, Papua 99573";"Kotdol, Distrik Serambakon, Kabupaten Pegunungan Bintang";PAPUA;99573;Indonesia;082198066558;;;-49.047.482;1.406.330.265;https://maps.google.com/?cid=0x0:0x2e8c73352603ae5e;
supermarket;Toko bahan makanan;KIOS CES;"3JWH+J7P, Jl. Kuburan, Kotdol, Distrik Pepera, Kabupaten Pegunungan Bintang, Papua 99573";"Jl. Kuburan, Kotdol, Distrik Pepera, Kabupaten Pegunungan Bintang";PAPUA;99573;Indonesia;;;;-49.034.093;1.406.281.878;https://maps.google.com/?cid=0x0:0x29882a13bbde652c;
supermarket;Toko;Samudra Supermarket;"8PP2+F75, Kroy, Kec. Kaimana, Kabupaten Kaimana, Papua Bar. 98654";"Kroy, Kec. Kaimana, Kabupaten Kaimana";PAPUA;98654;Indonesia;08113189579;;;-36.631.656;1.337.002.039;https://maps.google.com/?cid=0x0:0x97575d1c37a98621;
supermarket;Toko Swalayan;GrandLucky - SCBD;"Kawasan Niaga Terpadu Sudirman (SCBD, Jl. Jenderal Sudirman LOT-12, Senayan, Kec. Kby. Baru, Kota Jakarta Selatan, Daerah Khusus Ibukota Jakarta 12190";"Jl. Jenderal Sudirman LOT-12, Senayan, Kec. Kby. Baru, Kota Jakarta Selatan";PAPUA;12190;Indonesia;0215153832;;;-622.691;1.068.059.153;https://maps.google.com/?cid=0x0:0x4efcd0d8d64cad53;
supermarket;Toko Swalayan;Ranch Market Darmawangsa;"Jl. Dharmawangsa VI Melawai Kebayoran Baru Jakarta Selatan DKI Jakarta RT.5, 5, RT.5/RW.1, Pulo, Kec. Kby. Baru, Kota Jakarta Selatan, Daerah Khusus Ibukota Jakarta 12160";"5, RT.5/RW.1, Pulo, Kec. Kby. Baru, Kota Jakarta Selatan";PAPUA;12160;Indonesia;02172786480;;;-6.252.685;1.068.014.196;https://maps.google.com/?cid=0x0:0x227f1cf75ffc7e1e;
supermarket;Toko Swalayan;Ranch Market Grand Indonesia;"Grand Indonesia Shoping Town East Mall, Jl. MH Thamrin No.1 Lantai LG, RT.1/RW.5, Menteng, Kec. Menteng, Kota Jakarta Pusat, Daerah Khusus Ibukota Jakarta 10310";"Jl. MH Thamrin No.1 Lantai LG, RT.1/RW.5, Menteng, Kec. Menteng, Kota Jakarta Pusat";PAPUA;10310;Indonesia;02123599054;;;-61.963.902;1.068.225.851;https://maps.google.com/?cid=0x0:0xdb199471a47076d0;
supermarket;;PT. Supra Boga Lestari Tbk;"Jl. Pesanggrahan No.2, RT.1/RW.7, Kembangan Sel., Kec. Kembangan, Kota Jakarta Barat, Daerah Khusus Ibukota Jakarta 11610";"RT.1/RW.7, Kembangan Sel., Kec. Kembangan, Kota Jakarta Barat";PAPUA;11610;Indonesia;02158351999;;;-61.883.671;1.067.560.847;https://maps.google.com/?cid=0x0:0x87dbdb3e958d6ff0;
supermarket;Toko Swalayan;Ranch Market Living World Alam Sutera;"Living World, Jl. Alam Sutera Boulevard No.kav. 21, Pakulonan, Serpong Utara, South Tangerang City, Banten 15325";"Jl. Alam Sutera Boulevard No.kav. 21, Pakulonan, Serpong Utara, South Tangerang City";PAPUA;15325;Indonesia;081252270571;;;-62.450.404;1.066.526.923;https://maps.google.com/?cid=0x0:0x5dfd20a0bc2695fa;
supermarket;Pusat Perbelanjaan;Papua Supermarket  Dept. Store;"4869+F77 Bar, Sawagumu, Kec. Sorong Utara, Kota Sorong, Papua Bar. 98416";"Sawagumu, Kec. Sorong Utara, Kota Sorong";PAPUA;98416;Indonesia;09513160123;;;-0.888831;1.313.181.847;https://maps.google.com/?cid=0x0:0x7b5f0926a74ad213;
supermarket;Minimarket;SAGA Supermarket  Dept. Store;"Jalan A. Yani, Ruko Kuda Laut, Klademak, Kecamatan Sorong Manoi, Kota Sorong, Papua Bar. 98414";"Ruko Kuda Laut, Klademak, Kecamatan Sorong Manoi, Kota Sorong";PAPUA;98414;Indonesia;0951322784;;;-0.8765248;1.312.576.755;https://maps.google.com/?cid=0x0:0x963043ed646a7e1e;
supermarket;Komplek perumahan;Rumah Bpk Gustaf. L;"4859+784, Klawuyuk, Distrik Sorong Timur, Kota Sorong, Papua Bar. 98416";"Klawuyuk, Distrik Sorong Timur, Kota Sorong";PAPUA;98416;Indonesia;;;;-0.8918739;1.313.183.248;https://maps.google.com/?cid=0x0:0x30559e7e5eb96ee4;
supermarket;supermarket;Kec. Oksop;"Kabupaten Pegunungan Bintang, Papua";"Kabupaten Pegunungan Bintang, Papua";PAPUA;;Indonesia;;;;-47.324.178;1.404.101.474;https://maps.google.com/?cid=0x0:0xdb805f296f748353;
supermarket;Toko Swalayan;Ana Ogi 2 (Hj);"3JWM+J5M, Kotdol, Distrik Serambakon, Kabupaten Pegunungan Bintang, Papua 99573";"Kotdol, Distrik Serambakon, Kabupaten Pegunungan Bintang";PAPUA;99573;Indonesia;085255315378;;;-49.034.023;1.406.329.129;https://maps.google.com/?cid=0x0:0x57326a56c80e67eb;
supermarket;Kios;KIOS YUSUF;"Dabolding, Distrik Kolomdol, Kabupaten Pegunungan Bintang, Papua 99573";"Distrik Kolomdol, Kabupaten Pegunungan Bintang";PAPUA;99573;Indonesia;082300069989;;;-49.144.285;1.406.340.669;https://maps.google.com/?cid=0x0:0x5d6b5e1a999a70a;
supermarket;supermarket;KIOS ADIRUTING;"4J25+F6, Kotdol, Distrik Oksibil, Kabupaten Pegunungan Bintang, Papua";"Kabupaten Pegunungan Bintang, Papua";PAPUA;;Indonesia;082398610373;;;-4.898.532;140.608.406;https://maps.google.com/?cid=0x0:0x5b80078145e70708;
supermarket;Toko bahan makanan;DEPOT SATRIA JOAN;"3JWM+GQV, Kotdol, Distrik Serambakon, Kabupaten Pegunungan Bintang, Papua 99573";"Kotdol, Distrik Serambakon, Kabupaten Pegunungan Bintang";PAPUA;99573;Indonesia;081343058967;;;-49.036.458;140.634.431;https://maps.google.com/?cid=0x0:0xef33d2d686115f88;
supermarket;Toko bahan makanan;KIOS SYARWAN;"3JWP+92F, Unnamed Road, Kotdol, Distrik Pepera, Kabupaten Pegunungan Bintang, Papua 99573";"Unnamed Road, Kotdol, Distrik Pepera, Kabupaten Pegunungan Bintang";PAPUA;99573;Indonesia;082397510226;;;-49.040.674;1.406.350.395;https://maps.google.com/?cid=0x0:0xb08366d624776647;
supermarket;Toko;Kios Amadea;"Kompleks Perum kesehatan dan Aspol, Jalan, Kabiding, Distrik Oksibil, Kabupaten Pegunungan Bintang, Papua 99573";"Jalan, Kabiding, Distrik Oksibil, Kabupaten Pegunungan Bintang";PAPUA;99573;Indonesia;08124606051;;;-49.014.411;1.406.229.428;https://maps.google.com/?cid=0x0:0xfb420a2fa316017;
supermarket;Kios;kios mul (kabiding);"3JXH+8MJ, Kotdol, Distrik Serambakon, Kabupaten Pegunungan Bintang, Papua 99573";"Kotdol, Distrik Serambakon, Kabupaten Pegunungan Bintang";PAPUA;99573;Indonesia;081222255289;;;-49.016.579;1.406.291.464;https://maps.google.com/?cid=0x0:0xc6cf20df51bf245d;
supermarket;Toko umum;BERKAT MART (kabiding);"3JXH+8C5, Kotdol, Distrik Pepera, Kabupaten Pegunungan Bintang, Papua 99573";"Kotdol, Distrik Pepera, Kabupaten Pegunungan Bintang";PAPUA;99573;Indonesia;082238784125;;;-49.017.417;1.406.285.945;https://maps.google.com/?cid=0x0:0x49624b845273d939;
supermarket;Kantor Pemerintah;Distrik oksop kabupaten pegunungan bintang;"7C96+23J, Mimin, Kec. Oksop, Kabupaten Pegunungan Bintang, Papua";"Kabupaten Pegunungan Bintang, Papua";PAPUA;;Indonesia;;;;-47.324.178;1.404.101.474;https://maps.google.com/?cid=0x0:0x97a1ca92ba0cbc77;
supermarket;Toko bahan makanan;kios makmur jaya;"3JWM+FV9, Unnamed Road, Kotdol, Distrik Pepera, Kabupaten Pegunungan Bintang, Papua 99573";"Unnamed Road, Kotdol, Distrik Pepera, Kabupaten Pegunungan Bintang";PAPUA;99573;Indonesia;;;;-49.038.496;140.634.726;https://maps.google.com/?cid=0x0:0xc39a5868b51aeab8;
supermarket;Toko bahan makanan;Kios Mitra Vilamei;"3JWM+462, Kotdol, Distrik Serambakon, Kabupaten Pegunungan Bintang, Papua 99573";"Kotdol, Distrik Serambakon, Kabupaten Pegunungan Bintang";PAPUA;99573;Indonesia;082198066558;;;-49.047.482;1.406.330.265;https://maps.google.com/?cid=0x0:0x2e8c73352603ae5e;
supermarket;Toko;Samudra Supermarket;"8PP2+F75, Kroy, Kec. Kaimana, Kabupaten Kaimana, Papua Bar. 98654";"Kroy, Kec. Kaimana, Kabupaten Kaimana";PAPUA;98654;Indonesia;08113189579;;;-36.631.656;1.337.002.039;https://maps.google.com/?cid=0x0:0x97575d1c37a98621;
supermarket;Toko bahan makanan;KIOS CES;"3JWH+J7P, Jl. Kuburan, Kotdol, Distrik Pepera, Kabupaten Pegunungan Bintang, Papua 99573";"Jl. Kuburan, Kotdol, Distrik Pepera, Kabupaten Pegunungan Bintang";PAPUA;99573;Indonesia;;;;-49.034.093;1.406.281.878;https://maps.google.com/?cid=0x0:0x29882a13bbde652c;
supermarket;supermarket;Distrik Serambakon;"Kabupaten Pegunungan Bintang, Papua";"Kabupaten Pegunungan Bintang, Papua";PAPUA;;Indonesia;;;;-48.557.903;1.405.009.203;https://maps.google.com/?cid=0x0:0x171e1a77608fe958;
supermarket;Toko bahan makanan;DEPOT SATRIA JOAN;"3JWM+GQV, Kotdol, Distrik Serambakon, Kabupaten Pegunungan Bintang, Papua 99573";"Kotdol, Distrik Serambakon, Kabupaten Pegunungan Bintang";PAPUA;99573;Indonesia;081343058967;;;-49.036.458;140.634.431;https://maps.google.com/?cid=0x0:0xef33d2d686115f88;
supermarket;Kios;kios mul (kabiding);"3JXH+8MJ, Kotdol, Distrik Serambakon, Kabupaten Pegunungan Bintang, Papua 99573";"Kotdol, Distrik Serambakon, Kabupaten Pegunungan Bintang";PAPUA;99573;Indonesia;081222255289;;;-49.016.579;1.406.291.464;https://maps.google.com/?cid=0x0:0xc6cf20df51bf245d;
supermarket;Toko bahan makanan;Kios Mitra Vilamei;"3JWM+462, Kotdol, Distrik Serambakon, Kabupaten Pegunungan Bintang, Papua 99573";"Kotdol, Distrik Serambakon, Kabupaten Pegunungan Bintang";PAPUA;99573;Indonesia;082198066558;;;-49.047.482;1.406.330.265;https://maps.google.com/?cid=0x0:0x2e8c73352603ae5e;
supermarket;Kios;KIOS YUSUF;"Dabolding, Distrik Kolomdol, Kabupaten Pegunungan Bintang, Papua 99573";"Distrik Kolomdol, Kabupaten Pegunungan Bintang";PAPUA;99573;Indonesia;082300069989;;;-49.144.285;1.406.340.669;https://maps.google.com/?cid=0x0:0x5d6b5e1a999a70a;
supermarket;Toko umum;BERKAT MART (kabiding);"3JXH+8C5, Kotdol, Distrik Pepera, Kabupaten Pegunungan Bintang, Papua 99573";"Kotdol, Distrik Pepera, Kabupaten Pegunungan Bintang";PAPUA;99573;Indonesia;082238784125;;;-49.017.417;1.406.285.945;https://maps.google.com/?cid=0x0:0x49624b845273d939;
supermarket;Toko bahan makanan;KIOS SYARWAN;"3JWP+92F, Unnamed Road, Kotdol, Distrik Pepera, Kabupaten Pegunungan Bintang, Papua 99573";"Unnamed Road, Kotdol, Distrik Pepera, Kabupaten Pegunungan Bintang";PAPUA;99573;Indonesia;082397510226;;;-49.040.674;1.406.350.395;https://maps.google.com/?cid=0x0:0xb08366d624776647;
supermarket;supermarket;KIOS ADIRUTING;"4J25+F6, Kotdol, Distrik Oksibil, Kabupaten Pegunungan Bintang, Papua";"Kabupaten Pegunungan Bintang, Papua";PAPUA;;Indonesia;082398610373;;;-4.898.532;140.608.406;https://maps.google.com/?cid=0x0:0x5b80078145e70708;
supermarket;Toko bahan makanan;kios makmur jaya;"3JWM+FV9, Unnamed Road, Kotdol, Distrik Pepera, Kabupaten Pegunungan Bintang, Papua 99573";"Unnamed Road, Kotdol, Distrik Pepera, Kabupaten Pegunungan Bintang";PAPUA;99573;Indonesia;;;;-49.038.496;140.634.726;https://maps.google.com/?cid=0x0:0xc39a5868b51aeab8;
supermarket;Toko;Kios Amadea;"Kompleks Perum kesehatan dan Aspol, Jalan, Kabiding, Distrik Oksibil, Kabupaten Pegunungan Bintang, Papua 99573";"Jalan, Kabiding, Distrik Oksibil, Kabupaten Pegunungan Bintang";PAPUA;99573;Indonesia;08124606051;;;-49.014.411;1.406.229.428;https://maps.google.com/?cid=0x0:0xfb420a2fa316017;
supermarket;Toko Swalayan;Ranch Market Grand Indonesia;"Grand Indonesia Shoping Town East Mall, Jl. MH Thamrin No.1 Lantai LG, RT.1/RW.5, Menteng, Kec. Menteng, Kota Jakarta Pusat, Daerah Khusus Ibukota Jakarta 10310";"Jl. MH Thamrin No.1 Lantai LG, RT.1/RW.5, Menteng, Kec. Menteng, Kota Jakarta Pusat";PAPUA;10310;Indonesia;02123599054;;;-61.963.902;1.068.225.851;https://maps.google.com/?cid=0x0:0xdb199471a47076d0;
supermarket;Pusat Perbelanjaan;Papua Supermarket  Dept. Store;"4869+F77 Bar, Sawagumu, Kec. Sorong Utara, Kota Sorong, Papua Bar. 98416";"Sawagumu, Kec. Sorong Utara, Kota Sorong";PAPUA;98416;Indonesia;09513160123;;;-0.888831;1.313.181.847;https://maps.google.com/?cid=0x0:0x7b5f0926a74ad213;
supermarket;Toko;Samudra Supermarket;"8PP2+F75, Kroy, Kec. Kaimana, Kabupaten Kaimana, Papua Bar. 98654";"Kroy, Kec. Kaimana, Kabupaten Kaimana";PAPUA;98654;Indonesia;08113189579;;;-36.631.656;1.337.002.039;https://maps.google.com/?cid=0x0:0x97575d1c37a98621;
supermarket;Toko Swalayan;Saga Supermarket;"CPW3+83X, Ardipura, Distrik Jayapura Selatan, Kota Jayapura, Papua 99222";"Ardipura, Distrik Jayapura Selatan, Kota Jayapura";PAPUA;99222;Indonesia;;;;-25.541.438;1.407.027.385;https://maps.google.com/?cid=0x0:0x287c7b2014785d97;
supermarket;Toko bahan makanan;KIOS CES;"3JWH+J7P, Jl. Kuburan, Kotdol, Distrik Pepera, Kabupaten Pegunungan Bintang, Papua 99573";"Jl. Kuburan, Kotdol, Distrik Pepera, Kabupaten Pegunungan Bintang";PAPUA;99573;Indonesia;;;;-49.034.093;1.406.281.878;https://maps.google.com/?cid=0x0:0x29882a13bbde652c;
supermarket;supermarket;KIOS ADHE WIJAYA;"3JVM+X3P, Kotdol, Distrik Serambakon, Kabupaten Pegunungan Bintang, Papua 99573";"Kotdol, Distrik Serambakon, Kabupaten Pegunungan Bintang";PAPUA;99573;Indonesia;;;;-49.050.388;140.632.708;https://maps.google.com/?cid=0x0:0x310945925200c8a4;
supermarket;supermarket;Kec. Ok Aon;"Kabupaten Pegunungan Bintang, Papua";"Kabupaten Pegunungan Bintang, Papua";PAPUA;;Indonesia;;;;-48.531.394;1.406.404.082;https://maps.google.com/?cid=0x0:0xa9b9ad08f3a2029c;
supermarket;Toko Swalayan;Ana Ogi 2 (Hj);"3JWM+J5M, Kotdol, Distrik Serambakon, Kabupaten Pegunungan Bintang, Papua 99573";"Kotdol, Distrik Serambakon, Kabupaten Pegunungan Bintang";PAPUA;99573;Indonesia;085255315378;;;-49.034.023;1.406.329.129;https://maps.google.com/?cid=0x0:0x57326a56c80e67eb;
supermarket;Kios;KIOS YUSUF;"Dabolding, Distrik Kolomdol, Kabupaten Pegunungan Bintang, Papua 99573";"Distrik Kolomdol, Kabupaten Pegunungan Bintang";PAPUA;99573;Indonesia;082300069989;;;-49.144.285;1.406.340.669;https://maps.google.com/?cid=0x0:0x5d6b5e1a999a70a;
supermarket;Toko bahan makanan;KIOS SYARWAN;"3JWP+92F, Unnamed Road, Kotdol, Distrik Pepera, Kabupaten Pegunungan Bintang, Papua 99573";"Unnamed Road, Kotdol, Distrik Pepera, Kabupaten Pegunungan Bintang";PAPUA;99573;Indonesia;082397510226;;;-49.040.674;1.406.350.395;https://maps.google.com/?cid=0x0:0xb08366d624776647;
supermarket;supermarket;KIOS ADIRUTING;"4J25+F6, Kotdol, Distrik Oksibil, Kabupaten Pegunungan Bintang, Papua";"Kabupaten Pegunungan Bintang, Papua";PAPUA;;Indonesia;082398610373;;;-4.898.532;140.608.406;https://maps.google.com/?cid=0x0:0x5b80078145e70708;
supermarket;Kios;kios mul (kabiding);"3JXH+8MJ, Kotdol, Distrik Serambakon, Kabupaten Pegunungan Bintang, Papua 99573";"Kotdol, Distrik Serambakon, Kabupaten Pegunungan Bintang";PAPUA;99573;Indonesia;081222255289;;;-49.016.579;1.406.291.464;https://maps.google.com/?cid=0x0:0xc6cf20df51bf245d;
supermarket;Toko bahan makanan;Kios Mitra Vilamei;"3JWM+462, Kotdol, Distrik Serambakon, Kabupaten Pegunungan Bintang, Papua 99573";"Kotdol, Distrik Serambakon, Kabupaten Pegunungan Bintang";PAPUA;99573;Indonesia;082198066558;;;-49.047.482;1.406.330.265;https://maps.google.com/?cid=0x0:0x2e8c73352603ae5e;
supermarket;Toko bahan makanan;kios makmur jaya;"3JWM+FV9, Unnamed Road, Kotdol, Distrik Pepera, Kabupaten Pegunungan Bintang, Papua 99573";"Unnamed Road, Kotdol, Distrik Pepera, Kabupaten Pegunungan Bintang";PAPUA;99573;Indonesia;;;;-49.038.496;140.634.726;https://maps.google.com/?cid=0x0:0xc39a5868b51aeab8;
supermarket;Toko umum;BERKAT MART (kabiding);"3JXH+8C5, Kotdol, Distrik Pepera, Kabupaten Pegunungan Bintang, Papua 99573";"Kotdol, Distrik Pepera, Kabupaten Pegunungan Bintang";PAPUA;99573;Indonesia;082238784125;;;-49.017.417;1.406.285.945;https://maps.google.com/?cid=0x0:0x49624b845273d939;
supermarket;Toko;Samudra Supermarket;"8PP2+F75, Kroy, Kec. Kaimana, Kabupaten Kaimana, Papua Bar. 98654";"Kroy, Kec. Kaimana, Kabupaten Kaimana";PAPUA;98654;Indonesia;08113189579;;;-36.631.656;1.337.002.039;https://maps.google.com/?cid=0x0:0x97575d1c37a98621;
supermarket;Toko;Kios Amadea;"Kompleks Perum kesehatan dan Aspol, Jalan, Kabiding, Distrik Oksibil, Kabupaten Pegunungan Bintang, Papua 99573";"Jalan, Kabiding, Distrik Oksibil, Kabupaten Pegunungan Bintang";PAPUA;99573;Indonesia;08124606051;;;-49.014.411;1.406.229.428;https://maps.google.com/?cid=0x0:0xfb420a2fa316017;
supermarket;Pusat Perbelanjaan;Papua Supermarket  Dept. Store;"4869+F77 Bar, Sawagumu, Kec. Sorong Utara, Kota Sorong, Papua Bar. 98416";"Sawagumu, Kec. Sorong Utara, Kota Sorong";PAPUA;98416;Indonesia;09513160123;;;-0.888831;1.313.181.847;https://maps.google.com/?cid=0x0:0x7b5f0926a74ad213;
supermarket;Toko bahan makanan;"Orange Supermarket, Merauke";"G95R+XP7, Jl. Raya Mandala, Maro, Kec. Merauke, Kabupaten Merauke, Papua 99614";"Jl. Raya Mandala, Maro, Kec. Merauke, Kabupaten Merauke";PAPUA;99614;Indonesia;;;;-84.900.962;1.403.917.897;https://maps.google.com/?cid=0x0:0xc0bfdbcaf1e7ef4c;
supermarket;Toko;SWALAYAN YOSIDO;"Jl. Dr. Sam Ratulangi, Oyehe, Distrik Nabire, Kabupaten Nabire, Papua 98811";"Oyehe, Distrik Nabire, Kabupaten Nabire";PAPUA;98811;Indonesia;085158125592;;;-33.591.841;1.355.029.322;https://maps.google.com/?cid=0x0:0x9d81296727523735;
supermarket;Toko Swalayan;Toko AA;"F48Q+XF3, Jl. Yos Sudarso, Bis Agats, Distrik Agats, Kabupaten Asmat, Papua 99777";"Jl. Yos Sudarso, Bis Agats, Distrik Agats, Kabupaten Asmat";PAPUA;99777;Indonesia;;;;-55.326.185;1.381.386.754;https://maps.google.com/?cid=0x0:0x1b27f8f545967398;
supermarket;Pusat Perbelanjaan;Saga Jayapura;"Jl. Ahmad Yani, Gurabesi, Kec. Jayapura Utara, Kota Jayapura, Papua 99222";"Gurabesi, Kec. Jayapura Utara, Kota Jayapura";PAPUA;99222;Indonesia;0811480554;;;-25.433.433;1.407.016.688;https://maps.google.com/?cid=0x0:0x68f0411e320c4afb;
supermarket;Toko Swalayan;Saga Supermarket;"CPW3+83X, Ardipura, Distrik Jayapura Selatan, Kota Jayapura, Papua 99222";"Ardipura, Distrik Jayapura Selatan, Kota Jayapura";PAPUA;99222;Indonesia;;;;-25.541.438;1.407.027.385;https://maps.google.com/?cid=0x0:0x287c7b2014785d97;
supermarket;Toko Swalayan;SAGA Fresh Dok V;"FP8F+CG5, Mandala, Kec. Jayapura Utara, Kota Jayapura, Papua";"Kota Jayapura, Papua";PAPUA;;Indonesia;0811481744;;;-25.339.841;1.407.238.702;https://maps.google.com/?cid=0x0:0x14ea247dbf0373ea;
supermarket;Toko Swalayan;Toko IHKSAN;"W7RM+VXQ, Unnamed Road, Makbalim, Mayamuk, Kabupaten Sorong, Papua Bar. 98451";"Unnamed Road, Makbalim, Mayamuk, Kabupaten Sorong";PAPUA;98451;Indonesia;085254648168;;;-10.577.797;1.312.849.884;https://maps.google.com/?cid=0x0:0x7a566b6312dafc59;
supermarket;Toko Swalayan;GrandLucky - SCBD;"Kawasan Niaga Terpadu Sudirman (SCBD, Jl. Jenderal Sudirman LOT-12, Senayan, Kec. Kby. Baru, Kota Jakarta Selatan, Daerah Khusus Ibukota Jakarta 12190";"Jl. Jenderal Sudirman LOT-12, Senayan, Kec. Kby. Baru, Kota Jakarta Selatan";PAPUA;12190;Indonesia;0215153832;;;-622.691;1.068.059.153;https://maps.google.com/?cid=0x0:0x4efcd0d8d64cad53;
supermarket;Toko bahan makanan;KIOS CES;"3JWH+J7P, Jl. Kuburan, Kotdol, Distrik Pepera, Kabupaten Pegunungan Bintang, Papua 99573";"Jl. Kuburan, Kotdol, Distrik Pepera, Kabupaten Pegunungan Bintang";PAPUA;99573;Indonesia;;;;-49.034.093;1.406.281.878;https://maps.google.com/?cid=0x0:0x29882a13bbde652c;
supermarket;Pusat Perbelanjaan;REDBOX Durian  Frozen Food Bogor;"Jl. KH. Ahmad Sya'yani RT. 03/07 mekarwangi, Kec. Tanah Sareal, RT.03/RW.07, Mekarwangi, Kec. Tanah Sereal, Kota Bogor, Jawa Barat 16168";"Kec. Tanah Sareal, RT.03/RW.07, Mekarwangi, Kec. Tanah Sereal, Kota Bogor";PAPUA;16168;Indonesia;081210603995;;;-65.218.367;106.777.248;https://maps.google.com/?cid=0x0:0xa3a111a3b75ac6af;
supermarket;Minimarket;REDBOX SNACK  COOKIES;"Jl. Kh. Ahmad Sya'yani Kp. masjid No.RT. 02/07, RT.03/RW.07, Mekarwangi, Kec. Tanah Sereal, Kota Bogor, Jawa Barat 16168";"RT.03/RW.07, Mekarwangi, Kec. Tanah Sereal, Kota Bogor";PAPUA;16168;Indonesia;081313444055;;;-65.205.005;1.067.771.584;https://maps.google.com/?cid=0x0:0x133d9e841c6d428;
supermarket;supermarket;Oke;"Q226+MH4, Unnamed Road, RT.002/RW.009, Margahayu, Kec. Bekasi Tim., Kota Bks, Jawa Barat 17113";"Unnamed Road, RT.002/RW.009, Margahayu, Kec. Bekasi Tim., Kota Bks";PAPUA;17113;Indonesia;;;;-62.483.573;107.011.457;https://maps.google.com/?cid=0x0:0x4f927af633550980;
supermarket;supermarket;Papua 99575;"Kabupaten Pegunungan Bintang, Papua";"Kabupaten Pegunungan Bintang, Papua";PAPUA;;Indonesia;;;;-51.161.411;1.404.721.736;https://maps.google.com/?cid=0x0:0x19b958e8a9e9ca08;
supermarket;supermarket;Bravo 7 pelabuhan;"W3XQ+3G, Yelobib, Distrik Awinbon, Kabupaten Pegunungan Bintang, Papua";"Kabupaten Pegunungan Bintang, Papua";PAPUA;;Indonesia;;;;-50.522.615;1.400.888.301;https://maps.google.com/?cid=0x0:0xef5c4c63ba9983bd;
supermarket;supermarket;Kios maikel 88puncak;"X57J+48J, Yelobib, Distrik Awinbon, Kabupaten Pegunungan Bintang, Papua 99575";"Yelobib, Distrik Awinbon, Kabupaten Pegunungan Bintang";PAPUA;99575;Indonesia;;;;-50.371.707;1.401.807.668;https://maps.google.com/?cid=0x0:0xf4204e47df64dadf;
supermarket;supermarket;Kios 33 Om Anak;"X563+FPX, Yelobib, Distrik Awinbon, Kabupaten Pegunungan Bintang, Papua 99575";"Yelobib, Distrik Awinbon, Kabupaten Pegunungan Bintang";PAPUA;99575;Indonesia;;;;-50.387.535;1.401.543.695;https://maps.google.com/?cid=0x0:0x8fa56d53dff9fa57;
supermarket;supermarket;Kec. Kawor;"Kabupaten Pegunungan Bintang, Papua";"Kabupaten Pegunungan Bintang, Papua";PAPUA;;Indonesia;;;;-51.786.087;1.405.198.992;https://maps.google.com/?cid=0x0:0xf01e9c51aacc2971;
supermarket;Kios;KIOS YUSUF;"Dabolding, Distrik Kolomdol, Kabupaten Pegunungan Bintang, Papua 99573";"Distrik Kolomdol, Kabupaten Pegunungan Bintang";PAPUA;99573;Indonesia;082300069989;;;-49.144.285;1.406.340.669;https://maps.google.com/?cid=0x0:0x5d6b5e1a999a70a;
supermarket;Toko umum;BERKAT MART (kabiding);"3JXH+8C5, Kotdol, Distrik Pepera, Kabupaten Pegunungan Bintang, Papua 99573";"Kotdol, Distrik Pepera, Kabupaten Pegunungan Bintang";PAPUA;99573;Indonesia;082238784125;;;-49.017.417;1.406.285.945;https://maps.google.com/?cid=0x0:0x49624b845273d939;
supermarket;Toko bahan makanan;DEPOT SATRIA JOAN;"3JWM+GQV, Kotdol, Distrik Serambakon, Kabupaten Pegunungan Bintang, Papua 99573";"Kotdol, Distrik Serambakon, Kabupaten Pegunungan Bintang";PAPUA;99573;Indonesia;081343058967;;;-49.036.458;140.634.431;https://maps.google.com/?cid=0x0:0xef33d2d686115f88;
supermarket;Toko bahan makanan;KIOS SYARWAN;"3JWP+92F, Unnamed Road, Kotdol, Distrik Pepera, Kabupaten Pegunungan Bintang, Papua 99573";"Unnamed Road, Kotdol, Distrik Pepera, Kabupaten Pegunungan Bintang";PAPUA;99573;Indonesia;082397510226;;;-49.040.674;1.406.350.395;https://maps.google.com/?cid=0x0:0xb08366d624776647;
supermarket;Toko bahan makanan;"Orange Supermarket, Merauke";"G95R+XP7, Jl. Raya Mandala, Maro, Kec. Merauke, Kabupaten Merauke, Papua 99614";"Jl. Raya Mandala, Maro, Kec. Merauke, Kabupaten Merauke";PAPUA;99614;Indonesia;;;;-84.900.962;1.403.917.897;https://maps.google.com/?cid=0x0:0xc0bfdbcaf1e7ef4c;
supermarket;Toko bahan makanan;kios makmur jaya;"3JWM+FV9, Unnamed Road, Kotdol, Distrik Pepera, Kabupaten Pegunungan Bintang, Papua 99573";"Unnamed Road, Kotdol, Distrik Pepera, Kabupaten Pegunungan Bintang";PAPUA;99573;Indonesia;;;;-49.038.496;140.634.726;https://maps.google.com/?cid=0x0:0xc39a5868b51aeab8;
supermarket;Kios;kios mul (kabiding);"3JXH+8MJ, Kotdol, Distrik Serambakon, Kabupaten Pegunungan Bintang, Papua 99573";"Kotdol, Distrik Serambakon, Kabupaten Pegunungan Bintang";PAPUA;99573;Indonesia;081222255289;;;-49.016.579;1.406.291.464;https://maps.google.com/?cid=0x0:0xc6cf20df51bf245d;
supermarket;Toko Swalayan;Ana Ogi 2 (Hj);"3JWM+J5M, Kotdol, Distrik Serambakon, Kabupaten Pegunungan Bintang, Papua 99573";"Kotdol, Distrik Serambakon, Kabupaten Pegunungan Bintang";PAPUA;99573;Indonesia;085255315378;;;-49.034.023;1.406.329.129;https://maps.google.com/?cid=0x0:0x57326a56c80e67eb;
supermarket;supermarket;KIOS ADIRUTING;"4J25+F6, Kotdol, Distrik Oksibil, Kabupaten Pegunungan Bintang, Papua";"Kabupaten Pegunungan Bintang, Papua";PAPUA;;Indonesia;082398610373;;;-4.898.532;140.608.406;https://maps.google.com/?cid=0x0:0x5b80078145e70708;
supermarket;Toko Swalayan;Ranch Market Pesanggrahan;"1, Jl. Pesanggrahan No.2, Kembangan Sel., Kec. Kembangan, Kota Jakarta Barat, Daerah Khusus Ibukota Jakarta 11610";"Jl. Pesanggrahan No.2, Kembangan Sel., Kec. Kembangan, Kota Jakarta Barat";PAPUA;11610;Indonesia;02158304842;;;-61.883.181;1.067.561.831;https://maps.google.com/?cid=0x0:0x59972408c2ef6a6e;
supermarket;Toko bahan makanan;KIOS CES;"3JWH+J7P, Jl. Kuburan, Kotdol, Distrik Pepera, Kabupaten Pegunungan Bintang, Papua 99573";"Jl. Kuburan, Kotdol, Distrik Pepera, Kabupaten Pegunungan Bintang";PAPUA;99573;Indonesia;;;;-49.034.093;1.406.281.878;https://maps.google.com/?cid=0x0:0x29882a13bbde652c;
supermarket;Toko bahan makanan;Kios Mitra Vilamei;"3JWM+462, Kotdol, Distrik Serambakon, Kabupaten Pegunungan Bintang, Papua 99573";"Kotdol, Distrik Serambakon, Kabupaten Pegunungan Bintang";PAPUA;99573;Indonesia;082198066558;;;-49.047.482;1.406.330.265;https://maps.google.com/?cid=0x0:0x2e8c73352603ae5e;
supermarket;Toko;Kios Amadea;"Kompleks Perum kesehatan dan Aspol, Jalan, Kabiding, Distrik Oksibil, Kabupaten Pegunungan Bintang, Papua 99573";"Jalan, Kabiding, Distrik Oksibil, Kabupaten Pegunungan Bintang";PAPUA;99573;Indonesia;08124606051;;;-49.014.411;1.406.229.428;https://maps.google.com/?cid=0x0:0xfb420a2fa316017;
supermarket;supermarket;KIOS ADHE WIJAYA;"3JVM+X3P, Kotdol, Distrik Serambakon, Kabupaten Pegunungan Bintang, Papua 99573";"Kotdol, Distrik Serambakon, Kabupaten Pegunungan Bintang";PAPUA;99573;Indonesia;;;;-49.050.388;140.632.708;https://maps.google.com/?cid=0x0:0x310945925200c8a4;
supermarket;Toko Swalayan;Ranch Market Darmawangsa;"Jl. Dharmawangsa VI Melawai Kebayoran Baru Jakarta Selatan DKI Jakarta RT.5, 5, RT.5/RW.1, Pulo, Kec. Kby. Baru, Kota Jakarta Selatan, Daerah Khusus Ibukota Jakarta 12160";"5, RT.5/RW.1, Pulo, Kec. Kby. Baru, Kota Jakarta Selatan";PAPUA;12160;Indonesia;02172786480;;;-6.252.685;1.068.014.196;https://maps.google.com/?cid=0x0:0x227f1cf75ffc7e1e;
supermarket;Toko Swalayan;Ranch Market Grand Indonesia;"Grand Indonesia Shoping Town East Mall, Jl. MH Thamrin No.1 Lantai LG, RT.1/RW.5, Menteng, Kec. Menteng, Kota Jakarta Pusat, Daerah Khusus Ibukota Jakarta 10310";"Jl. MH Thamrin No.1 Lantai LG, RT.1/RW.5, Menteng, Kec. Menteng, Kota Jakarta Pusat";PAPUA;10310;Indonesia;02123599054;;;-61.963.902;1.068.225.851;https://maps.google.com/?cid=0x0:0xdb199471a47076d0;
supermarket;Toko Swalayan;Ranch Market Kemang;"Jl. Kemang Raya No.66 68, RT.8/RW.2, Bangka, Mampang Prapatan, South Jakarta City, Jakarta 12730";"RT.8/RW.2, Bangka, Mampang Prapatan, South Jakarta City";PAPUA;12730;Indonesia;081382217182;;;-62.641.983;1.068.159.772;https://maps.google.com/?cid=0x0:0x8a811b9772a51004;
supermarket;Minimarket;KULA Swalayan Segar - Utama Raya;"Jl. Utama Raya No.5, Cengkareng Bar., Kecamatan Cengkareng, Kota Jakarta Barat, Daerah Khusus Ibukota Jakarta 13430";"Cengkareng Bar., Kecamatan Cengkareng, Kota Jakarta Barat";PAPUA;13430;Indonesia;085195910026;;;-61.501.716;106.726.378;https://maps.google.com/?cid=0x0:0xbf28071d6ab2dc91;
supermarket;;PT. Supra Boga Lestari Tbk;"Jl. Pesanggrahan No.2, RT.1/RW.7, Kembangan Sel., Kec. Kembangan, Kota Jakarta Barat, Daerah Khusus Ibukota Jakarta 11610";"RT.1/RW.7, Kembangan Sel., Kec. Kembangan, Kota Jakarta Barat";PAPUA;11610;Indonesia;02158351999;;;-61.883.671;1.067.560.847;https://maps.google.com/?cid=0x0:0x87dbdb3e958d6ff0;
supermarket;Toko Swalayan;Ranch Market Living World Alam Sutera;"Living World, Jl. Alam Sutera Boulevard No.kav. 21, Pakulonan, Serpong Utara, South Tangerang City, Banten 15325";"Jl. Alam Sutera Boulevard No.kav. 21, Pakulonan, Serpong Utara, South Tangerang City";PAPUA;15325;Indonesia;081252270571;;;-62.450.404;1.066.526.923;https://maps.google.com/?cid=0x0:0x5dfd20a0bc2695fa;
supermarket;Minimarket;KULA Swalayan Segar - Kramat Jaya;"Jl. Kramat Jaya Raya No.32, RT.1/RW.13, Semper Bar., Kec. Cilincing, Jkt Utara, Daerah Khusus Ibukota Jakarta 14270";"RT.1/RW.13, Semper Bar., Kec. Cilincing, Jkt Utara";PAPUA;14270;Indonesia;085195910025;;;-61.133.423;1.069.173.081;https://maps.google.com/?cid=0x0:0xd7270f92123c0ea0;
supermarket;Toko bahan makanan;Toko Wijaya;"Jl. Jemb. Tinggi No.12 1, RT.1/RW.9, Kb. Kacang, Kecamatan Tanah Abang, Kota Jakarta Pusat, Daerah Khusus Ibukota Jakarta 10240";"RT.1/RW.9, Kb. Kacang, Kecamatan Tanah Abang, Kota Jakarta Pusat";PAPUA;10240;Indonesia;0213141513;;;-61.889.269;1.068.129.859;https://maps.google.com/?cid=0x0:0x3506e2aad5047ad6;
supermarket;Toserba;Hapimart Taman Palem;"Jl. Kamal Raya Outer Ring Road, Cengkareng Tim., Kecamatan Cengkareng, Kota Jakarta Barat, Daerah Khusus Ibukota Jakarta 11730";"Cengkareng Tim., Kecamatan Cengkareng, Kota Jakarta Barat";PAPUA;11730;Indonesia;087821830513;;;-61.394.821;1.067.319.273;https://maps.google.com/?cid=0x0:0x11d41a977d8e21c9;
supermarket;Toko bahan makanan;Diamond;"Jl. Permata Artha Gading No.18, RT.18/RW.8, Klp. Gading Bar., Kec. Klp. Gading, Jkt Utara, Daerah Khusus Ibukota Jakarta 14240";"RT.18/RW.8, Klp. Gading Bar., Kec. Klp. Gading, Jkt Utara";PAPUA;14240;Indonesia;02145863828;;;-61.464.444;1.068.922.506;https://maps.google.com/?cid=0x0:0x1b41fb935cae0e30;
supermarket;Toko Swalayan;GrandLucky - SCBD;"Kawasan Niaga Terpadu Sudirman (SCBD, Jl. Jenderal Sudirman LOT-12, Senayan, Kec. Kby. Baru, Kota Jakarta Selatan, Daerah Khusus Ibukota Jakarta 12190";"Jl. Jenderal Sudirman LOT-12, Senayan, Kec. Kby. Baru, Kota Jakarta Selatan";PAPUA;12190;Indonesia;0215153832;;;-622.691;1.068.059.153;https://maps.google.com/?cid=0x0:0x4efcd0d8d64cad53;
supermarket;Toko Swalayan;Ranch Market Darmawangsa;"Jl. Dharmawangsa VI Melawai Kebayoran Baru Jakarta Selatan DKI Jakarta RT.5, 5, RT.5/RW.1, Pulo, Kec. Kby. Baru, Kota Jakarta Selatan, Daerah Khusus Ibukota Jakarta 12160";"5, RT.5/RW.1, Pulo, Kec. Kby. Baru, Kota Jakarta Selatan";PAPUA;12160;Indonesia;02172786480;;;-6.252.685;1.068.014.196;https://maps.google.com/?cid=0x0:0x227f1cf75ffc7e1e;
supermarket;Toko Swalayan;Ranch Market Grand Indonesia;"Grand Indonesia Shoping Town East Mall, Jl. MH Thamrin No.1 Lantai LG, RT.1/RW.5, Menteng, Kec. Menteng, Kota Jakarta Pusat, Daerah Khusus Ibukota Jakarta 10310";"Jl. MH Thamrin No.1 Lantai LG, RT.1/RW.5, Menteng, Kec. Menteng, Kota Jakarta Pusat";PAPUA;10310;Indonesia;02123599054;;;-61.963.902;1.068.225.851;https://maps.google.com/?cid=0x0:0xdb199471a47076d0;
supermarket;Toko Swalayan;GrandLucky - Radio Dalam;"Jl. Radio Dalam Raya No.9, RT.4/RW.4, Gandaria Utara, Kec. Kby. Baru, Kota Jakarta Selatan, Daerah Khusus Ibukota Jakarta 12140";"RT.4/RW.4, Gandaria Utara, Kec. Kby. Baru, Kota Jakarta Selatan";PAPUA;12140;Indonesia;0217398368;;;-62.538.402;1.067.907.062;https://maps.google.com/?cid=0x0:0x3a6b61772e479f77;
supermarket;Toko Swalayan;Ranch Market Kemang;"Jl. Kemang Raya No.66 68, RT.8/RW.2, Bangka, Mampang Prapatan, South Jakarta City, Jakarta 12730";"RT.8/RW.2, Bangka, Mampang Prapatan, South Jakarta City";PAPUA;12730;Indonesia;081382217182;;;-62.641.983;1.068.159.772;https://maps.google.com/?cid=0x0:0x8a811b9772a51004;
supermarket;Minimarket;Toko Awi;"Jl. Pos Pengumben Lama No.43, RT.6/RW.3, Srengseng, Kec. Kembangan, Kota Jakarta Barat, Daerah Khusus Ibukota Jakarta 11630";"RT.6/RW.3, Srengseng, Kec. Kembangan, Kota Jakarta Barat";PAPUA;11630;Indonesia;087782571717;;;-62.174.774;1.067.626.945;https://maps.google.com/?cid=0x0:0xce033b143b941961;
supermarket;;PT. Supra Boga Lestari Tbk;"Jl. Pesanggrahan No.2, RT.1/RW.7, Kembangan Sel., Kec. Kembangan, Kota Jakarta Barat, Daerah Khusus Ibukota Jakarta 11610";"RT.1/RW.7, Kembangan Sel., Kec. Kembangan, Kota Jakarta Barat";PAPUA;11610;Indonesia;02158351999;;;-61.883.671;1.067.560.847;https://maps.google.com/?cid=0x0:0x87dbdb3e958d6ff0;
supermarket;Toko Swalayan;Ranch Market Living World Alam Sutera;"Living World, Jl. Alam Sutera Boulevard No.kav. 21, Pakulonan, Serpong Utara, South Tangerang City, Banten 15325";"Jl. Alam Sutera Boulevard No.kav. 21, Pakulonan, Serpong Utara, South Tangerang City";PAPUA;15325;Indonesia;081252270571;;;-62.450.404;1.066.526.923;https://maps.google.com/?cid=0x0:0x5dfd20a0bc2695fa;
supermarket;supermarket;Distrik Awinbon;"Kabupaten Pegunungan Bintang, Papua";"Kabupaten Pegunungan Bintang, Papua";PAPUA;;Indonesia;;;;-50.077.298;1.401.517.908;https://maps.google.com/?cid=0x0:0x5666ce7a04d7f46e;
supermarket;supermarket;Bravo 7 pelabuhan;"W3XQ+3G, Yelobib, Distrik Awinbon, Kabupaten Pegunungan Bintang, Papua";"Kabupaten Pegunungan Bintang, Papua";PAPUA;;Indonesia;;;;-50.522.615;1.400.888.301;https://maps.google.com/?cid=0x0:0xef5c4c63ba9983bd;
supermarket;supermarket;Kios maikel 88puncak;"X57J+48J, Yelobib, Distrik Awinbon, Kabupaten Pegunungan Bintang, Papua 99575";"Yelobib, Distrik Awinbon, Kabupaten Pegunungan Bintang";PAPUA;99575;Indonesia;;;;-50.371.707;1.401.807.668;https://maps.google.com/?cid=0x0:0xf4204e47df64dadf;
supermarket;supermarket;Kios dan WiFi-Ku 85 Baru;"X555+QVV, Yelobib, Distrik Awinbon, Kabupaten Pegunungan Bintang, Papua 99575";"Yelobib, Distrik Awinbon, Kabupaten Pegunungan Bintang";PAPUA;99575;Indonesia;;;;-504.051;140.159.665;https://maps.google.com/?cid=0x0:0x8672791fe1343203;
supermarket;supermarket;Kios 33 Om Anak;"X563+FPX, Yelobib, Distrik Awinbon, Kabupaten Pegunungan Bintang, Papua 99575";"Yelobib, Distrik Awinbon, Kabupaten Pegunungan Bintang";PAPUA;99575;Indonesia;;;;-50.387.535;1.401.543.695;https://maps.google.com/?cid=0x0:0x8fa56d53dff9fa57;
supermarket;supermarket;Kios mm biak;"X5R2+F6X, Yelobib, Distrik Awinbon, Kabupaten Pegunungan Bintang, Papua";"Kabupaten Pegunungan Bintang, Papua";PAPUA;;Indonesia;;;;-50.087.684;1.401.506.071;https://maps.google.com/?cid=0x0:0xcdd18a74715697fe;
supermarket;supermarket;Kios Yotam Balingga;"X5R2+VQR, Yelobib, Distrik Awinbon, Kabupaten Pegunungan Bintang, Papua 99575";"Yelobib, Distrik Awinbon, Kabupaten Pegunungan Bintang";PAPUA;99575;Indonesia;;;;-50.077.611;1.401.518.815;https://maps.google.com/?cid=0x0:0xc78343d42359151a;
supermarket;supermarket;"Kios bama, mana sayang";"W6F4+26, Yelobib, Distrik Awinbon, Kabupaten Pegunungan Bintang, Papua";"Kabupaten Pegunungan Bintang, Papua";PAPUA;;Indonesia;;;;-50.774.587;1.402.056.158;https://maps.google.com/?cid=0x0:0x9a1dc4ab5508ff67;
supermarket;supermarket;Kios Satu Atap Lasinrang;"W7G4+P3W, Yelobib, Distrik Awinbon, Kabupaten Pegunungan Bintang, Papua";"Kabupaten Pegunungan Bintang, Papua";PAPUA;;Indonesia;;;;-50.731.278;1.402.552.032;https://maps.google.com/?cid=0x0:0xb259589f3cb84827;
supermarket;Toko Swalayan;Primo Supermarket Tembagapura;"Tembagapura, Kec. Tembagapura, Kabupaten Mimika, Papua 98972";"Kec. Tembagapura, Kabupaten Mimika";PAPUA;98972;Indonesia;;;;-41.423.125;1.370.900.625;https://maps.google.com/?cid=0x0:0x79e7c0e104f18094;
supermarket;Pusat Perbelanjaan;Primo Supermarket Ridge Camp;"V4R2+62, Tembagapura, Kec. Tembagapura, Kabupaten Mimika, Papua 98972";"Tembagapura, Kec. Tembagapura, Kabupaten Mimika";PAPUA;98972;Indonesia;;;;-4.109.473;1.371.002.082;https://maps.google.com/?cid=0x0:0x759edca03c3b320f;
supermarket;Pusat Perbelanjaan;Tarup Center;"Rugvang 36, 5210 Odense NV, Denmark";"Odense NV, Denmark";PAPUA;;Indonesia;4596132109;;;55.409.506;10.339.169;https://maps.google.com/?cid=0x0:0x30ee087e2a131e87;
supermarket;Toko bahan makanan;Løvbjerg;"Tarup Center, Rugvang 36-38, 5210 Odense, Denmark";"Odense, Denmark";PAPUA;;Indonesia;4596132100;;;554.094.741;103.389.258;https://maps.google.com/?cid=0x0:0xecceea1936ab1761;
supermarket;Kantor Pos;GLS Pakkeshop;"Rugvang 36, 5210 Odense, Denmark";"Odense Municipality, Denmark";PAPUA;;Indonesia;;;;554.094.703;103.385.458;https://maps.google.com/?cid=0x0:0x1bd99e57b73a0008;
supermarket;Pusat Perbelanjaan;Papua Supermarket  Dept. Store;"4869+F77 Bar, Sawagumu, Kec. Sorong Utara, Kota Sorong, Papua Bar. 98416";"Sawagumu, Kec. Sorong Utara, Kota Sorong";PAPUA;98416;Indonesia;09513160123;;;-0.888831;1.313.181.847;https://maps.google.com/?cid=0x0:0x7b5f0926a74ad213;
supermarket;Minimarket;SAGA Supermarket  Dept. Store;"Jalan A. Yani, Ruko Kuda Laut, Klademak, Kecamatan Sorong Manoi, Kota Sorong, Papua Bar. 98414";"Ruko Kuda Laut, Klademak, Kecamatan Sorong Manoi, Kota Sorong";PAPUA;98414;Indonesia;0951322784;;;-0.8765248;1.312.576.755;https://maps.google.com/?cid=0x0:0x963043ed646a7e1e;
supermarket;Komplek perumahan;Rumah Bpk Gustaf. L;"4859+784, Klawuyuk, Distrik Sorong Timur, Kota Sorong, Papua Bar. 98416";"Klawuyuk, Distrik Sorong Timur, Kota Sorong";PAPUA;98416;Indonesia;;;;-0.8918739;1.313.183.248;https://maps.google.com/?cid=0x0:0x30559e7e5eb96ee4;
supermarket;Supermarket Diskon;CV. Samudera;"9P4P+9J7, Jl. Sapta Taruna, Kroy, Kec. Kaimana, Kabupaten Kaimana, Papua Bar. 98654";"Jl. Sapta Taruna, Kroy, Kec. Kaimana, Kabupaten Kaimana";PAPUA;98654;Indonesia;;;;-36.440.992;1.337.365.536;https://maps.google.com/?cid=0x0:0x64165c860713d18;
supermarket;Toko bahan makanan;DEPOT SATRIA JOAN;"3JWM+GQV, Kotdol, Distrik Serambakon, Kabupaten Pegunungan Bintang, Papua 99573";"Kotdol, Distrik Serambakon, Kabupaten Pegunungan Bintang";PAPUA;99573;Indonesia;081343058967;;;-49.036.458;140.634.431;https://maps.google.com/?cid=0x0:0xef33d2d686115f88;
supermarket;Toko Swalayan;Ana Ogi 2 (Hj);"3JWM+J5M, Kotdol, Distrik Serambakon, Kabupaten Pegunungan Bintang, Papua 99573";"Kotdol, Distrik Serambakon, Kabupaten Pegunungan Bintang";PAPUA;99573;Indonesia;085255315378;;;-49.034.023;1.406.329.129;https://maps.google.com/?cid=0x0:0x57326a56c80e67eb;
supermarket;supermarket;Papua;;Papua;PAPUA;;Indonesia;;;;-4.269.928;1.380.803.529;https://maps.google.com/?cid=0x0:0xeba94e9c5eefe673;
supermarket;supermarket;Toko TRIPLE M;"8CP6+2FX, Asiki, Kec. Jair, Kabupaten Boven Digoel, Papua 99661";"Asiki, Kec. Jair, Kabupaten Boven Digoel";PAPUA;99661;Indonesia;;;;-66.648.753;1.404.112.333;https://maps.google.com/?cid=0x0:0x9e5bbb918f2021f5;
supermarket;Toko Swalayan;GrandLucky - SCBD;"Kawasan Niaga Terpadu Sudirman (SCBD, Jl. Jenderal Sudirman LOT-12, Senayan, Kec. Kby. Baru, Kota Jakarta Selatan, Daerah Khusus Ibukota Jakarta 12190";"Jl. Jenderal Sudirman LOT-12, Senayan, Kec. Kby. Baru, Kota Jakarta Selatan";PAPUA;12190;Indonesia;0215153832;;;-622.691;1.068.059.153;https://maps.google.com/?cid=0x0:0x4efcd0d8d64cad53;
supermarket;Toko makanan beku;Mugie frozen;"Jl. Sawah Lio No.I, RT.11/RW.1, Jemb. Lima, Kec. Tambora, Kota Jakarta Barat, Daerah Khusus Ibukota Jakarta 11250";"RT.11/RW.1, Jemb. Lima, Kec. Tambora, Kota Jakarta Barat";PAPUA;11250;Indonesia;085814561987;;;-61.466.015;1.068.060.013;https://maps.google.com/?cid=0x0:0x6b272c8d9ccd891a;
supermarket;Toko Swalayan;Grand Lucky - Puri Indah Mall 2;"Jl. Puri Agung No.1, RT.1/RW.2, Kembangan Sel., Kec. Kembangan, Kota Jakarta Barat, Daerah Khusus Ibukota Jakarta 11610";"RT.1/RW.2, Kembangan Sel., Kec. Kembangan, Kota Jakarta Barat";PAPUA;11610;Indonesia;;;;-61.871.437;1.067.327.179;https://maps.google.com/?cid=0x0:0x4990ba95e3f100b4;
supermarket;Toko Swalayan;Ranch Market Living World Alam Sutera;"Living World, Jl. Alam Sutera Boulevard No.kav. 21, Pakulonan, Serpong Utara, South Tangerang City, Banten 15325";"Jl. Alam Sutera Boulevard No.kav. 21, Pakulonan, Serpong Utara, South Tangerang City";PAPUA;15325;Indonesia;081252270571;;;-62.450.404;1.066.526.923;https://maps.google.com/?cid=0x0:0x5dfd20a0bc2695fa;
supermarket;supermarket;Papua 99574;"Kabupaten Pegunungan Bintang, Papua";"Kabupaten Pegunungan Bintang, Papua";PAPUA;;Indonesia;;;;-4.640.956;1.407.624.493;https://maps.google.com/?cid=0x0:0x8501ef2800861902;
supermarket;Kios;KIOS YUSUF;"Dabolding, Distrik Kolomdol, Kabupaten Pegunungan Bintang, Papua 99573";"Distrik Kolomdol, Kabupaten Pegunungan Bintang";PAPUA;99573;Indonesia;082300069989;;;-49.144.285;1.406.340.669;https://maps.google.com/?cid=0x0:0x5d6b5e1a999a70a;
supermarket;Toko umum;BERKAT MART (kabiding);"3JXH+8C5, Kotdol, Distrik Pepera, Kabupaten Pegunungan Bintang, Papua 99573";"Kotdol, Distrik Pepera, Kabupaten Pegunungan Bintang";PAPUA;99573;Indonesia;082238784125;;;-49.017.417;1.406.285.945;https://maps.google.com/?cid=0x0:0x49624b845273d939;
supermarket;Toko Swalayan;Ana Ogi 2 (Hj);"3JWM+J5M, Kotdol, Distrik Serambakon, Kabupaten Pegunungan Bintang, Papua 99573";"Kotdol, Distrik Serambakon, Kabupaten Pegunungan Bintang";PAPUA;99573;Indonesia;085255315378;;;-49.034.023;1.406.329.129;https://maps.google.com/?cid=0x0:0x57326a56c80e67eb;
supermarket;Toko bahan makanan;KIOS SYARWAN;"3JWP+92F, Unnamed Road, Kotdol, Distrik Pepera, Kabupaten Pegunungan Bintang, Papua 99573";"Unnamed Road, Kotdol, Distrik Pepera, Kabupaten Pegunungan Bintang";PAPUA;99573;Indonesia;082397510226;;;-49.040.674;1.406.350.395;https://maps.google.com/?cid=0x0:0xb08366d624776647;
supermarket;Kios;kios mul (kabiding);"3JXH+8MJ, Kotdol, Distrik Serambakon, Kabupaten Pegunungan Bintang, Papua 99573";"Kotdol, Distrik Serambakon, Kabupaten Pegunungan Bintang";PAPUA;99573;Indonesia;081222255289;;;-49.016.579;1.406.291.464;https://maps.google.com/?cid=0x0:0xc6cf20df51bf245d;
supermarket;Toko bahan makanan;DEPOT SATRIA JOAN;"3JWM+GQV, Kotdol, Distrik Serambakon, Kabupaten Pegunungan Bintang, Papua 99573";"Kotdol, Distrik Serambakon, Kabupaten Pegunungan Bintang";PAPUA;99573;Indonesia;081343058967;;;-49.036.458;140.634.431;https://maps.google.com/?cid=0x0:0xef33d2d686115f88;
supermarket;Toko;Kios Amadea;"Kompleks Perum kesehatan dan Aspol, Jalan, Kabiding, Distrik Oksibil, Kabupaten Pegunungan Bintang, Papua 99573";"Jalan, Kabiding, Distrik Oksibil, Kabupaten Pegunungan Bintang";PAPUA;99573;Indonesia;08124606051;;;-49.014.411;1.406.229.428;https://maps.google.com/?cid=0x0:0xfb420a2fa316017;
supermarket;Toko bahan makanan;kios makmur jaya;"3JWM+FV9, Unnamed Road, Kotdol, Distrik Pepera, Kabupaten Pegunungan Bintang, Papua 99573";"Unnamed Road, Kotdol, Distrik Pepera, Kabupaten Pegunungan Bintang";PAPUA;99573;Indonesia;;;;-49.038.496;140.634.726;https://maps.google.com/?cid=0x0:0xc39a5868b51aeab8;
supermarket;Toko bahan makanan;Kios Mitra Vilamei;"3JWM+462, Kotdol, Distrik Serambakon, Kabupaten Pegunungan Bintang, Papua 99573";"Kotdol, Distrik Serambakon, Kabupaten Pegunungan Bintang";PAPUA;99573;Indonesia;082198066558;;;-49.047.482;1.406.330.265;https://maps.google.com/?cid=0x0:0x2e8c73352603ae5e;
supermarket;Pusat Perbelanjaan;Papua Supermarket  Dept. Store;"4869+F77 Bar, Sawagumu, Kec. Sorong Utara, Kota Sorong, Papua Bar. 98416";"Sawagumu, Kec. Sorong Utara, Kota Sorong";PAPUA;98416;Indonesia;09513160123;;;-0.888831;1.313.181.847;https://maps.google.com/?cid=0x0:0x7b5f0926a74ad213;
supermarket;Toko bahan makanan;KIOS CES;"3JWH+J7P, Jl. Kuburan, Kotdol, Distrik Pepera, Kabupaten Pegunungan Bintang, Papua 99573";"Jl. Kuburan, Kotdol, Distrik Pepera, Kabupaten Pegunungan Bintang";PAPUA;99573;Indonesia;;;;-49.034.093;1.406.281.878;https://maps.google.com/?cid=0x0:0x29882a13bbde652c;
supermarket;supermarket;Kios Kani;"HV3J+F3F, Batom, Distrik Batom, Kabupaten Pegunungan Bintang, Papua";"Kabupaten Pegunungan Bintang, Papua";PAPUA;;Indonesia;;;;-44.463.164;1.408.801.622;https://maps.google.com/?cid=0x0:0xbd9c4e33c12a9345;
supermarket;supermarket;KIOS ADHE WIJAYA;"3JVM+X3P, Kotdol, Distrik Serambakon, Kabupaten Pegunungan Bintang, Papua 99573";"Kotdol, Distrik Serambakon, Kabupaten Pegunungan Bintang";PAPUA;99573;Indonesia;;;;-49.050.388;140.632.708;https://maps.google.com/?cid=0x0:0x310945925200c8a4;
supermarket;supermarket;Okbemta;"Kabupaten Pegunungan Bintang, Papua";"Kabupaten Pegunungan Bintang, Papua";PAPUA;;Indonesia;;;;-44.740.931;1.407.208.989;https://maps.google.com/?cid=0x0:0x872bb79c2891d253;
supermarket;supermarket;Distrik Oksebang;"Kabupaten Pegunungan Bintang, Papua";"Kabupaten Pegunungan Bintang, Papua";PAPUA;;Indonesia;;;;-47.586.522;1.407.364.771;https://maps.google.com/?cid=0x0:0x145e92bd2f820feb;
supermarket;Pusat Perbelanjaan;Papua Supermarket  Dept. Store;"4869+F77 Bar, Sawagumu, Kec. Sorong Utara, Kota Sorong, Papua Bar. 98416";"Sawagumu, Kec. Sorong Utara, Kota Sorong";PAPUA;98416;Indonesia;09513160123;;;-0.888831;1.313.181.847;https://maps.google.com/?cid=0x0:0x7b5f0926a74ad213;
supermarket;supermarket;KIOS ADHE WIJAYA;"3JVM+X3P, Kotdol, Distrik Serambakon, Kabupaten Pegunungan Bintang, Papua 99573";"Kotdol, Distrik Serambakon, Kabupaten Pegunungan Bintang";PAPUA;99573;Indonesia;;;;-49.050.388;140.632.708;https://maps.google.com/?cid=0x0:0x310945925200c8a4;
supermarket;Toko Swalayan;SAGA WAENA;"CJ3M+HQ8, Jl. Raya Abepura - Sentani, Kp. Waena, Kec. Heram, Kota Jayapura, Papua 99225";"Jl. Raya Abepura - Sentani, Kp. Waena, Kec. Heram, Kota Jayapura";PAPUA;99225;Indonesia;;;;-25.961.192;1.406.345.177;https://maps.google.com/?cid=0x0:0xbe5416ad4f79e596;
supermarket;Toko Rak;berkah jaya rak;"Kp. Ujung karawang, Pulo Gebang, Kec. Cakung, Kota Jakarta Timur, Daerah Khusus Ibukota Jakarta 13950";"Pulo Gebang, Kec. Cakung, Kota Jakarta Timur";PAPUA;13950;Indonesia;0881036804726;;;-61.981.205;1.069.436.833;https://maps.google.com/?cid=0x0:0xdeb0b9498aae59a1;
supermarket;supermarket;Distrik Okbab;"Kabupaten Pegunungan Bintang, Papua";"Kabupaten Pegunungan Bintang, Papua";PAPUA;;Indonesia;;;;-44.591.074;1.403.986.638;https://maps.google.com/?cid=0x0:0x230d9d286d136c26;
supermarket;Pusat Perbelanjaan;Papua Supermarket  Dept. Store;"4869+F77 Bar, Sawagumu, Kec. Sorong Utara, Kota Sorong, Papua Bar. 98416";"Sawagumu, Kec. Sorong Utara, Kota Sorong";PAPUA;98416;Indonesia;09513160123;;;-0.888831;1.313.181.847;https://maps.google.com/?cid=0x0:0x7b5f0926a74ad213;
supermarket;supermarket;Ana Ogi 1;"3JWM+H2C, Kotdol, Distrik Oksibil, Kabupaten Pegunungan Bintang, Papua 99573";"Kotdol, Distrik Oksibil, Kabupaten Pegunungan Bintang";PAPUA;99573;Indonesia;;;;-49.035.683;1.406.325.082;https://maps.google.com/?cid=0x0:0x974f7f02f7442e44;
supermarket;Minimarket;BESTMART SUPERMARKET;"Jl. Raya Klp. Satu, Sawar, Kec. Sarmi, Kabupaten Sarmi, Papua 99373";"Sawar, Kec. Sarmi, Kabupaten Sarmi";PAPUA;99373;Indonesia;082288888605;;;-1.890.639;1.387.527.702;https://maps.google.com/?cid=0x0:0xaba0253f793fcb9b;
supermarket;Gedung Apartemen;SWALAYAN SARMI;"4PVX+C38, Jl. Inres Kalibagre, Sarmi, Kec. Sarmi, Kabupaten Sarmi, Papua 99373";"Jl. Inres Kalibagre, Sarmi, Kec. Sarmi, Kabupaten Sarmi";PAPUA;99373;Indonesia;;;;-18.564.537;1.387.477.149;https://maps.google.com/?cid=0x0:0x962caa721c6345ee;
supermarket;supermarket;Papua 99576;"Kabupaten Pegunungan Bintang, Papua";"Kabupaten Pegunungan Bintang, Papua";PAPUA;;Indonesia;;;;-41.176.623;1.407.624.493;https://maps.google.com/?cid=0x0:0x9e236cdcf6328593;
supermarket;supermarket;Toko Sederhana RI-PNG Lestari Indah Shop;"WWQH+XGM, Tual, Distrik Mofinop, Kabupaten Pegunungan Bintang, Papua";"Kabupaten Pegunungan Bintang, Papua";PAPUA;;Indonesia;;;;-40.600.295;1.409.287.983;https://maps.google.com/?cid=0x0:0xa9f7b8d126d96fbe;
supermarket;supermarket;Kios Kani;"HV3J+F3F, Batom, Distrik Batom, Kabupaten Pegunungan Bintang, Papua";"Kabupaten Pegunungan Bintang, Papua";PAPUA;;Indonesia;;;;-44.463.164;1.408.801.622;https://maps.google.com/?cid=0x0:0xbd9c4e33c12a9345;
supermarket;supermarket;Papua 99576;"Kabupaten Pegunungan Bintang, Papua";"Kabupaten Pegunungan Bintang, Papua";PAPUA;;Indonesia;;;;-41.176.623;1.407.624.493;https://maps.google.com/?cid=0x0:0x9e236cdcf6328593;
supermarket;Pusat Perbelanjaan;Papua Supermarket  Dept. Store;"4869+F77 Bar, Sawagumu, Kec. Sorong Utara, Kota Sorong, Papua Bar. 98416";"Sawagumu, Kec. Sorong Utara, Kota Sorong";PAPUA;98416;Indonesia;09513160123;;;-0.888831;1.313.181.847;https://maps.google.com/?cid=0x0:0x7b5f0926a74ad213;
supermarket;Toko Swalayan;Surya Mart;"C8V2+G83, Jl. Irian Kepi, Kepi, Kec. Obaa, Kabupaten Mappi, Papua 99881";"Jl. Irian Kepi, Kepi, Kec. Obaa, Kabupaten Mappi";PAPUA;99881;Indonesia;085254867242;;;-65.562.444;1.393.007.867;https://maps.google.com/?cid=0x0:0x160bad2921fdf723;
supermarket;supermarket;Waena;"5QX7+88W, Arso I. / Sanggaria, Kec. Arso, Kabupaten Keerom, Papua 99468";"Arso I. / Sanggaria, Kec. Arso, Kabupaten Keerom";PAPUA;99468;Indonesia;082398662403;;;-28.016.309;1.407.633.324;https://maps.google.com/?cid=0x0:0x81643b4fea8fb6ac;
supermarket;Minimarket;SAGA Supermarket  Dept. Store;"Jalan A. Yani, Ruko Kuda Laut, Klademak, Kecamatan Sorong Manoi, Kota Sorong, Papua Bar. 98414";"Ruko Kuda Laut, Klademak, Kecamatan Sorong Manoi, Kota Sorong";PAPUA;98414;Indonesia;0951322784;;;-0.8765248;1.312.576.755;https://maps.google.com/?cid=0x0:0x963043ed646a7e1e;
supermarket;Komplek perumahan;Rumah Bpk Gustaf. L;"4859+784, Klawuyuk, Distrik Sorong Timur, Kota Sorong, Papua Bar. 98416";"Klawuyuk, Distrik Sorong Timur, Kota Sorong";PAPUA;98416;Indonesia;;;;-0.8918739;1.313.183.248;https://maps.google.com/?cid=0x0:0x30559e7e5eb96ee4;
supermarket;Toko Makanan;Weimar Official | Distributor Toko Kue Kering Snack Jakarta Barat;"Blok B9 No, Jl. Taman Palem Mutiara No.11, Cengkareng Tim., Kecamatan Cengkareng, Kota Jakarta Barat, Daerah Khusus Ibukota Jakarta 11730";"Jl. Taman Palem Mutiara No.11, Cengkareng Tim., Kecamatan Cengkareng, Kota Jakarta Barat";PAPUA;11730;Indonesia;081380038911;;;-61.425.294;1.067.319.642;https://maps.google.com/?cid=0x0:0x30c7e736d2d4ead3;
supermarket;Toko Makanan;Toko Idola Snack Jaya (DISTRIBUTOR SNACK);"Jl. Lingkungan III No.71 10, RT.10/RW.3, Tegal Alur, Kec. Kalideres, Kota Jakarta Barat, Daerah Khusus Ibukota Jakarta 11820";"RT.10/RW.3, Tegal Alur, Kec. Kalideres, Kota Jakarta Barat";PAPUA;11820;Indonesia;081314803613;;;-61.108.874;1.067.116.469;https://maps.google.com/?cid=0x0:0x842ee2530e3edffe;
supermarket;supermarket;Murkim;"Kabupaten Pegunungan Bintang, Papua";"Kabupaten Pegunungan Bintang, Papua";PAPUA;;Indonesia;;;;-40.028.727;1.407.416.707;https://maps.google.com/?cid=0x0:0x9771017657678e7d;
supermarket;Toko Swalayan;Toko Mujur;"36RC+8JF, Mur, Kec. Mambioman Bapai, Kabupaten Mappi, Papua 99872";"Mur, Kec. Mambioman Bapai, Kabupaten Mappi";PAPUA;99872;Indonesia;081311663253;;;-69.091.883;1.392.215.408;https://maps.google.com/?cid=0x0:0x3ac32eba1af23e22;
supermarket;supermarket;Kios Kagembur;"CC38+7JR, Alukuni, Distrik Kembu, Kabupaten Tolikara, Papua 99562";"Alukuni, Distrik Kembu, Kabupaten Tolikara";PAPUA;99562;Indonesia;;;;-35.967.635;1.384.165.187;https://maps.google.com/?cid=0x0:0xa2301c10eef42ee4;
supermarket;Grosir Barang Kelontong;MU SUPERMART SEGUNTOR;"VXMX+62, Taman Perikanan Jaya, 90000 Sandakan, Sabah, Malaysia";Sandakan;PAPUA;90000;Indonesia;;;;58.830.098;1.179.975.408;https://maps.google.com/?cid=0x0:0x1b0b622474cd4756;
supermarket;Hipermarket;MU MARKET BANDAR SIBUGA JAYA BATU 8 SANDAKAN;"BANDAR SIBUGA JAYA, LORONG 2, BATU 8, 90000 Sandakan, Sabah, Malaysia";Sandakan;PAPUA;90000;Indonesia;60198137719;;;58.826.361;1.180.336.313;https://maps.google.com/?cid=0x0:0x7537772b6797519a;
supermarket;supermarket;Toko Sederhana RI-PNG Lestari Indah Shop;"WWQH+XGM, Tual, Distrik Mofinop, Kabupaten Pegunungan Bintang, Papua";"Kabupaten Pegunungan Bintang, Papua";PAPUA;;Indonesia;;;;-40.600.295;1.409.287.983;https://maps.google.com/?cid=0x0:0xa9f7b8d126d96fbe;
supermarket;Toko bahan makanan;Molokai Mini Mart;"35 N Mohala St # 5M, Kaunakakai, HI 96748, Amerika Serikat";"Kaunakakai, HI";PAPUA;96748;Indonesia;18085534447;;;210.901.132;-1.570.206.491;https://maps.google.com/?cid=0x0:0x509a9eeb60309cb8;
supermarket;Toko bahan makanan;Friendly Market Center;"90 Ala Malama Ave, Kaunakakai, HI 96748, Amerika Serikat";"Kaunakakai, HI";PAPUA;96748;Indonesia;18085535595;;;21.090.517;-1.570.203.492;https://maps.google.com/?cid=0x0:0x9ee37e3933c35ff2;
supermarket;Pusat Perbelanjaan;GELAEL SUPERMARKET;"Jl. Halmahera No.1, Trikora, Kec. Jayapura Utara, Kota Jayapura, Papua 99111";"Trikora, Kec. Jayapura Utara, Kota Jayapura";PAPUA;99111;Indonesia;0967537260;;;-25.409.664;1.407.049.667;https://maps.google.com/?cid=0x0:0x5dac61c724bf3c86;
supermarket;Toko Swalayan;Ketrampilan tangan;"Jl. Halmahera, Gurabesi, Kec. Jayapura Utara, Kota Jayapura, Papua";"Kota Jayapura, Papua";PAPUA;;Indonesia;;;;-25.408.535;1.407.049.851;https://maps.google.com/?cid=0x0:0x36b5678de8280126;
supermarket;Bakso;Bakso Sederhana Jayapura;"Samping Gelael, Jl. Halmahera No.1, Trikora, Kec. Jayapura Utara, Kota Jayapura, Papua 99111";"Jl. Halmahera No.1, Trikora, Kec. Jayapura Utara, Kota Jayapura";PAPUA;99111;Indonesia;081247563026;;;-25.409.307;140.705.044;https://maps.google.com/?cid=0x0:0x9b7ce8aa16bdf0b1;
supermarket;Minimarket;SAGA Supermarket  Dept. Store;"Jalan A. Yani, Ruko Kuda Laut, Klademak, Kecamatan Sorong Manoi, Kota Sorong, Papua Bar. 98414";"Ruko Kuda Laut, Klademak, Kecamatan Sorong Manoi, Kota Sorong";PAPUA;98414;Indonesia;0951322784;;;-0.8765248;1.312.576.755;https://maps.google.com/?cid=0x0:0x963043ed646a7e1e;
supermarket;Komplek perumahan;Rumah Bpk Gustaf. L;"4859+784, Klawuyuk, Distrik Sorong Timur, Kota Sorong, Papua Bar. 98416";"Klawuyuk, Distrik Sorong Timur, Kota Sorong";PAPUA;98416;Indonesia;;;;-0.8918739;1.313.183.248;https://maps.google.com/?cid=0x0:0x30559e7e5eb96ee4;
supermarket;Toko Swalayan;Ranch Market Darmawangsa;"Jl. Dharmawangsa VI Melawai Kebayoran Baru Jakarta Selatan DKI Jakarta RT.5, 5, RT.5/RW.1, Pulo, Kec. Kby. Baru, Kota Jakarta Selatan, Daerah Khusus Ibukota Jakarta 12160";"5, RT.5/RW.1, Pulo, Kec. Kby. Baru, Kota Jakarta Selatan";PAPUA;12160;Indonesia;02172786480;;;-6.252.685;1.068.014.196;https://maps.google.com/?cid=0x0:0x227f1cf75ffc7e1e;
supermarket;Toko Swalayan;Ranch Market Pesanggrahan;"1, Jl. Pesanggrahan No.2, Kembangan Sel., Kec. Kembangan, Kota Jakarta Barat, Daerah Khusus Ibukota Jakarta 11610";"Jl. Pesanggrahan No.2, Kembangan Sel., Kec. Kembangan, Kota Jakarta Barat";PAPUA;11610;Indonesia;02158304842;;;-61.883.181;1.067.561.831;https://maps.google.com/?cid=0x0:0x59972408c2ef6a6e;
supermarket;;PT. Supra Boga Lestari Tbk;"Jl. Pesanggrahan No.2, RT.1/RW.7, Kembangan Sel., Kec. Kembangan, Kota Jakarta Barat, Daerah Khusus Ibukota Jakarta 11610";"RT.1/RW.7, Kembangan Sel., Kec. Kembangan, Kota Jakarta Barat";PAPUA;11610;Indonesia;02158351999;;;-61.883.671;1.067.560.847;https://maps.google.com/?cid=0x0:0x87dbdb3e958d6ff0;
supermarket;Toko Swalayan;Ranch Market Grand Indonesia;"Grand Indonesia Shoping Town East Mall, Jl. MH Thamrin No.1 Lantai LG, RT.1/RW.5, Menteng, Kec. Menteng, Kota Jakarta Pusat, Daerah Khusus Ibukota Jakarta 10310";"Jl. MH Thamrin No.1 Lantai LG, RT.1/RW.5, Menteng, Kec. Menteng, Kota Jakarta Pusat";PAPUA;10310;Indonesia;02123599054;;;-61.963.902;1.068.225.851;https://maps.google.com/?cid=0x0:0xdb199471a47076d0;
supermarket;Toko Bumbu;Toko Saudara;"Jl. Karang Anyar No.39 No.D, RT.15/RW.2, Karang Anyar, Kecamatan Sawah Besar, Kota Jakarta Pusat, Daerah Khusus Ibukota Jakarta 10740";"RT.15/RW.2, Karang Anyar, Kecamatan Sawah Besar, Kota Jakarta Pusat";PAPUA;10740;Indonesia;0216263250;;;-61.569.605;1.068.292.264;https://maps.google.com/?cid=0x0:0x5d1bd12f6a77708f;
supermarket;Toko Swalayan;GS THE FRESH JATIBENING;"Jl. Caman Raya No.7-24, RT.004/RW.003, Jatibening, Kec. Pd. Gede, Kota Bks, Jawa Barat 17412";"RT.004/RW.003, Jatibening, Kec. Pd. Gede, Kota Bks";PAPUA;17412;Indonesia;02184982211;;;-62.676.455;1.069.436.409;https://maps.google.com/?cid=0x0:0x2cdb50c3ee3206c;
supermarket;Toko Swalayan;Ranch Market Living World Alam Sutera;"Living World, Jl. Alam Sutera Boulevard No.kav. 21, Pakulonan, Serpong Utara, South Tangerang City, Banten 15325";"Jl. Alam Sutera Boulevard No.kav. 21, Pakulonan, Serpong Utara, South Tangerang City";PAPUA;15325;Indonesia;081252270571;;;-62.450.404;1.066.526.923;https://maps.google.com/?cid=0x0:0x5dfd20a0bc2695fa;
supermarket;Pasar;KELAPA PARUT/SANTAN IBU KARI;"Jl. D No.15 15, RT.15/RW.2, pasar, Kecamatan Sawah Besar, Kota Jakarta Pusat, Daerah Khusus Ibukota Jakarta 10740";"RT.15/RW.2, pasar, Kecamatan Sawah Besar, Kota Jakarta Pusat";PAPUA;10740;Indonesia;0895333945497;;;-61.566.771;106.829.209;https://maps.google.com/?cid=0x0:0xe9e6ecded7a68fce;
supermarket;Mal outlet;Saint Laurent;"Jl. M.H. Thamrin Kav. 28-30 Plaza Indonesia, Level 1 63-68A, Jakarta, 10350";Level 1 63-68A;PAPUA;10350;Indonesia;02129924098;;;-61.936.508;1.068.221.703;https://maps.google.com/?cid=0x0:0x29098b588bcf0143;
supermarket;Toko Swalayan;GS The Fresh Supermarket Kemang Pratama;"Linc Square Kemang Pratama, Jl. Kemang Pratama Raya, RT.004/RW.001, Bojong Rawalumbu, Kec. Rawalumbu, Kota Bks, Jawa Barat 17116";"Jl. Kemang Pratama Raya, RT.004/RW.001, Bojong Rawalumbu, Kec. Rawalumbu, Kota Bks";PAPUA;17116;Indonesia;02182416910;;;-62.779.418;1.069.910.558;https://maps.google.com/?cid=0x0:0x4ce692f4b9ef21ee;
supermarket;supermarket;Papua 99572;"Kabupaten Pegunungan Bintang, Papua";"Kabupaten Pegunungan Bintang, Papua";PAPUA;;Indonesia;;;;-43.578.129;1.404.308.159;https://maps.google.com/?cid=0x0:0x3d3d35db4afd3dc1;
supermarket;Kios;KIOS YUSUF;"Dabolding, Distrik Kolomdol, Kabupaten Pegunungan Bintang, Papua 99573";"Distrik Kolomdol, Kabupaten Pegunungan Bintang";PAPUA;99573;Indonesia;082300069989;;;-49.144.285;1.406.340.669;https://maps.google.com/?cid=0x0:0x5d6b5e1a999a70a;
supermarket;Toko bahan makanan;DEPOT SATRIA JOAN;"3JWM+GQV, Kotdol, Distrik Serambakon, Kabupaten Pegunungan Bintang, Papua 99573";"Kotdol, Distrik Serambakon, Kabupaten Pegunungan Bintang";PAPUA;99573;Indonesia;081343058967;;;-49.036.458;140.634.431;https://maps.google.com/?cid=0x0:0xef33d2d686115f88;
supermarket;supermarket;KIOS ADIRUTING;"4J25+F6, Kotdol, Distrik Oksibil, Kabupaten Pegunungan Bintang, Papua";"Kabupaten Pegunungan Bintang, Papua";PAPUA;;Indonesia;082398610373;;;-4.898.532;140.608.406;https://maps.google.com/?cid=0x0:0x5b80078145e70708;
supermarket;Toko Swalayan;Primo Supermarket Tembagapura;"Tembagapura, Kec. Tembagapura, Kabupaten Mimika, Papua 98972";"Kec. Tembagapura, Kabupaten Mimika";PAPUA;98972;Indonesia;;;;-41.423.125;1.370.900.625;https://maps.google.com/?cid=0x0:0x79e7c0e104f18094;
supermarket;Toko umum;BERKAT MART (kabiding);"3JXH+8C5, Kotdol, Distrik Pepera, Kabupaten Pegunungan Bintang, Papua 99573";"Kotdol, Distrik Pepera, Kabupaten Pegunungan Bintang";PAPUA;99573;Indonesia;082238784125;;;-49.017.417;1.406.285.945;https://maps.google.com/?cid=0x0:0x49624b845273d939;
supermarket;Toko Swalayan;Ana Ogi 2 (Hj);"3JWM+J5M, Kotdol, Distrik Serambakon, Kabupaten Pegunungan Bintang, Papua 99573";"Kotdol, Distrik Serambakon, Kabupaten Pegunungan Bintang";PAPUA;99573;Indonesia;085255315378;;;-49.034.023;1.406.329.129;https://maps.google.com/?cid=0x0:0x57326a56c80e67eb;
supermarket;Kios;kios mul (kabiding);"3JXH+8MJ, Kotdol, Distrik Serambakon, Kabupaten Pegunungan Bintang, Papua 99573";"Kotdol, Distrik Serambakon, Kabupaten Pegunungan Bintang";PAPUA;99573;Indonesia;081222255289;;;-49.016.579;1.406.291.464;https://maps.google.com/?cid=0x0:0xc6cf20df51bf245d;
supermarket;Toko bahan makanan;Kios Mitra Vilamei;"3JWM+462, Kotdol, Distrik Serambakon, Kabupaten Pegunungan Bintang, Papua 99573";"Kotdol, Distrik Serambakon, Kabupaten Pegunungan Bintang";PAPUA;99573;Indonesia;082198066558;;;-49.047.482;1.406.330.265;https://maps.google.com/?cid=0x0:0x2e8c73352603ae5e;
supermarket;Toko;Samudra Supermarket;"8PP2+F75, Kroy, Kec. Kaimana, Kabupaten Kaimana, Papua Bar. 98654";"Kroy, Kec. Kaimana, Kabupaten Kaimana";PAPUA;98654;Indonesia;08113189579;;;-36.631.656;1.337.002.039;https://maps.google.com/?cid=0x0:0x97575d1c37a98621;
supermarket;Toko bahan makanan;kios makmur jaya;"3JWM+FV9, Unnamed Road, Kotdol, Distrik Pepera, Kabupaten Pegunungan Bintang, Papua 99573";"Unnamed Road, Kotdol, Distrik Pepera, Kabupaten Pegunungan Bintang";PAPUA;99573;Indonesia;;;;-49.038.496;140.634.726;https://maps.google.com/?cid=0x0:0xc39a5868b51aeab8;
supermarket;Toko;Kios Amadea;"Kompleks Perum kesehatan dan Aspol, Jalan, Kabiding, Distrik Oksibil, Kabupaten Pegunungan Bintang, Papua 99573";"Jalan, Kabiding, Distrik Oksibil, Kabupaten Pegunungan Bintang";PAPUA;99573;Indonesia;08124606051;;;-49.014.411;1.406.229.428;https://maps.google.com/?cid=0x0:0xfb420a2fa316017;
supermarket;Toko bahan makanan;KIOS CES;"3JWH+J7P, Jl. Kuburan, Kotdol, Distrik Pepera, Kabupaten Pegunungan Bintang, Papua 99573";"Jl. Kuburan, Kotdol, Distrik Pepera, Kabupaten Pegunungan Bintang";PAPUA;99573;Indonesia;;;;-49.034.093;1.406.281.878;https://maps.google.com/?cid=0x0:0x29882a13bbde652c;
supermarket;Toko Swalayan;Toko Gubuk Tani;"HRFC+WGQ, Waisai, Kec. Waigeo Sel., Kabupaten Raja Ampat, Papua Bar. 98482";"Waisai, Kec. Waigeo Sel., Kabupaten Raja Ampat";PAPUA;98482;Indonesia;081343111508;;;-0.4251576;130.821.354;https://maps.google.com/?cid=0x0:0xd8f8dfe47f6582f8;
supermarket;Hipermarket;PUSAT PERBELANJAAN RR MART;"Jl. Baharuddin Yusuf, Tembilahan Hulu, Kec. Tembilahan Hulu, Kabupaten Indragiri Hilir, Riau 29214";"Tembilahan Hulu, Kec. Tembilahan Hulu, Kabupaten Indragiri Hilir";PAPUA;29214;Indonesia;085274097339;;;-0.3244735;1.031.479.898;https://maps.google.com/?cid=0x0:0x6ff98171792cd98;
supermarket;Minimarket;INDRAGIRI MART;"Jl. Trimas No.88, Tembilahan Kota, Kec. Tembilahan, Kabupaten Indragiri Hilir, Riau 29214";"Tembilahan Kota, Kec. Tembilahan, Kabupaten Indragiri Hilir";PAPUA;29214;Indonesia;;;;-0.3132942;1.031.515.464;https://maps.google.com/?cid=0x0:0xdcfb0ee7c5957f8b;
supermarket;supermarket;Distrik Epumek;"Kabupaten Pegunungan Bintang, Papua";"Kabupaten Pegunungan Bintang, Papua";PAPUA;;Indonesia;;;;-44.168.435;1.400.803.953;https://maps.google.com/?cid=0x0:0xfae5de68ea47222c;
supermarket;Pusat Perbelanjaan;Primo Supermarket Ridge Camp;"V4R2+62, Tembagapura, Kec. Tembagapura, Kabupaten Mimika, Papua 98972";"Tembagapura, Kec. Tembagapura, Kabupaten Mimika";PAPUA;98972;Indonesia;;;;-4.109.473;1.371.002.082;https://maps.google.com/?cid=0x0:0x759edca03c3b320f;
supermarket;supermarket;Toko TRIPLE M;"8CP6+2FX, Asiki, Kec. Jair, Kabupaten Boven Digoel, Papua 99661";"Asiki, Kec. Jair, Kabupaten Boven Digoel";PAPUA;99661;Indonesia;;;;-66.648.753;1.404.112.333;https://maps.google.com/?cid=0x0:0x9e5bbb918f2021f5;
supermarket;Pusat Perbelanjaan;Papua Supermarket  Dept. Store;"4869+F77 Bar, Sawagumu, Kec. Sorong Utara, Kota Sorong, Papua Bar. 98416";"Sawagumu, Kec. Sorong Utara, Kota Sorong";PAPUA;98416;Indonesia;09513160123;;;-0.888831;1.313.181.847;https://maps.google.com/?cid=0x0:0x7b5f0926a74ad213;
supermarket;supermarket;Papua 99577;"Kabupaten Pegunungan Bintang, Papua";"Kabupaten Pegunungan Bintang, Papua";PAPUA;;Indonesia;;;;-42.076.915;1.401.009.527;https://maps.google.com/?cid=0x0:0x4787a220090af67d;
supermarket;Pusat Perbelanjaan;Papua Supermarket  Dept. Store;"4869+F77 Bar, Sawagumu, Kec. Sorong Utara, Kota Sorong, Papua Bar. 98416";"Sawagumu, Kec. Sorong Utara, Kota Sorong";PAPUA;98416;Indonesia;09513160123;;;-0.888831;1.313.181.847;https://maps.google.com/?cid=0x0:0x7b5f0926a74ad213;
supermarket;Toko Swalayan;Ropan Market - Putikelek;"WW6R+33M, jl. putikelek, Kama, Distrik Wamena, Kabupaten Jayawijaya, Papua 99511";"jl. putikelek, Kama, Distrik Wamena, Kabupaten Jayawijaya";PAPUA;99511;Indonesia;;;;-40.897.979;1.389.401.757;https://maps.google.com/?cid=0x0:0x3dcb9f7da0fe347a;
supermarket;Toko Swalayan;Primo Supermarket Tembagapura;"Tembagapura, Kec. Tembagapura, Kabupaten Mimika, Papua 98972";"Kec. Tembagapura, Kabupaten Mimika";PAPUA;98972;Indonesia;;;;-41.423.125;1.370.900.625;https://maps.google.com/?cid=0x0:0x79e7c0e104f18094;
supermarket;Toko bahan makanan;DEPOT SATRIA JOAN;"3JWM+GQV, Kotdol, Distrik Serambakon, Kabupaten Pegunungan Bintang, Papua 99573";"Kotdol, Distrik Serambakon, Kabupaten Pegunungan Bintang";PAPUA;99573;Indonesia;081343058967;;;-49.036.458;140.634.431;https://maps.google.com/?cid=0x0:0xef33d2d686115f88;
supermarket;Minimarket;SAGA Supermarket  Dept. Store;"Jalan A. Yani, Ruko Kuda Laut, Klademak, Kecamatan Sorong Manoi, Kota Sorong, Papua Bar. 98414";"Ruko Kuda Laut, Klademak, Kecamatan Sorong Manoi, Kota Sorong";PAPUA;98414;Indonesia;0951322784;;;-0.8765248;1.312.576.755;https://maps.google.com/?cid=0x0:0x963043ed646a7e1e;
supermarket;Komplek perumahan;Rumah Bpk Gustaf. L;"4859+784, Klawuyuk, Distrik Sorong Timur, Kota Sorong, Papua Bar. 98416";"Klawuyuk, Distrik Sorong Timur, Kota Sorong";PAPUA;98416;Indonesia;;;;-0.8918739;1.313.183.248;https://maps.google.com/?cid=0x0:0x30559e7e5eb96ee4;
supermarket;supermarket;Distrik Pamek;"Kabupaten Pegunungan Bintang, Papua";"Kabupaten Pegunungan Bintang, Papua";PAPUA;;Indonesia;;;;-43.791.595;139.998.236;https://maps.google.com/?cid=0x0:0xed125e3af8269928;
supermarket;supermarket;Toko Sederhana RI-PNG Lestari Indah Shop;"WWQH+XGM, Tual, Distrik Mofinop, Kabupaten Pegunungan Bintang, Papua";"Kabupaten Pegunungan Bintang, Papua";PAPUA;;Indonesia;;;;-40.600.295;1.409.287.983;https://maps.google.com/?cid=0x0:0xa9f7b8d126d96fbe;
supermarket;Toko Swalayan;Nagalomuni Market;"7XRJ+565, Pruleme, Distrik Mulia, Kabupaten Puncak Jaya, Papua 98973";"Pruleme, Distrik Mulia, Kabupaten Puncak Jaya";PAPUA;98973;Indonesia;;;;-37.096.029;1.379.806.117;https://maps.google.com/?cid=0x0:0xdb6a90a01498712d;
supermarket;Toko bahan makanan;Papua Mart;"7XVG+F83, Pruleme, Distrik Mulia, Kabupaten Puncak Jaya, Papua";"Kabupaten Puncak Jaya, Papua";PAPUA;;Indonesia;;;;-37.063.653;1.379.757.822;https://maps.google.com/?cid=0x0:0xf49ab6ab8e5d1b97;
supermarket;Toko Swalayan;GS The Fresh Supermarket Kemang Pratama;"Linc Square Kemang Pratama, Jl. Kemang Pratama Raya, RT.004/RW.001, Bojong Rawalumbu, Kec. Rawalumbu, Kota Bks, Jawa Barat 17116";"Jl. Kemang Pratama Raya, RT.004/RW.001, Bojong Rawalumbu, Kec. Rawalumbu, Kota Bks";PAPUA;17116;Indonesia;02182416910;;;-62.779.418;1.069.910.558;https://maps.google.com/?cid=0x0:0x4ce692f4b9ef21ee;
supermarket;supermarket;NN Market;"219 Main St E, Dillingham, AK 99576, Amerika Serikat";"Dillingham, AK";PAPUA;99576;Indonesia;19078425283;;;590.390.485;-1.584.639.665;https://maps.google.com/?cid=0x0:0x2e5da5599c52cbaa;
supermarket;Toko Swalayan;GS The Fresh Mampang;"Jl. Buncit Raya No.301, Duren Tiga, Kec. Pancoran, Kota Jakarta Selatan, Daerah Khusus Ibukota Jakarta 12760";"Duren Tiga, Kec. Pancoran, Kota Jakarta Selatan";PAPUA;12760;Indonesia;02126961986;;;-6.256.991;106.828.987;https://maps.google.com/?cid=0x0:0x47a84d3b86619147;
supermarket;Pusat Perbelanjaan;GS The Fresh BOXIES;"Jl. Raya Tajur No.125, RT.01/RW.06, Tajur, Kec. Bogor Tim., Kota Bogor, Jawa Barat 16141";"RT.01/RW.06, Tajur, Kec. Bogor Tim., Kota Bogor";PAPUA;16141;Indonesia;;;;-66.338.534;1.068.265.902;https://maps.google.com/?cid=0x0:0xf2e999dd0f1bdf6;
