Category;Real Category;Business Name;Address;City;State;Postal Code;Country;Phone;Email;Website;Latitude;Longitude;Map Link;Details Link
komplek housing;komplek housing;Oksibil;"Tarangop, Kec. Kawor, Kabupaten Pegunungan Bintang, Papua";"Kabupaten Pegunungan Bintang, Papua";PAPUA;;Indonesia;;;;-5.080.177;140.635.803;https://maps.google.com/?cid=0x0:0xf18d2b627917ee12;
komplek housing;Sekolah menengah;HOME WIFI;"SMK Negeri 1, Komplek perumahan guru, Kotdol, Distrik Oksibil, Kabupaten Pegunungan Bintang, Papua 99573";"Komplek perumahan guru, Kotdol, Distrik Oksibil, Kabupaten Pegunungan Bintang";PAPUA;99573;Indonesia;;;;-49.030.748;1.406.024.578;https://maps.google.com/?cid=0x0:0x8ed62cc1223ef378;
komplek housing;Komplek perumahan;Okbifisil;"WJ9P+W8F, Tarangop, Kec. Kawor, Kabupaten Pegunungan Bintang, Papua";"Kabupaten Pegunungan Bintang, Papua";PAPUA;;Indonesia;;;;-5.080.177;140.635.803;https://maps.google.com/?cid=0x0:0x912c7d6e061b0e28;
komplek housing;komplek housing;"Delpem,Pegunungan Bintang,Papua,Indonesia";"8P2Q+V7, Kiwi, Kec. Kiwirok, Kabupaten Pegunungan Bintang, Papua";"Kabupaten Pegunungan Bintang, Papua";PAPUA;;Indonesia;;;;-46.975.286;1.407.383.683;https://maps.google.com/?cid=0x0:0x65d550938e3f142a;
komplek housing;komplek housing;Kec. Kiwirok;"Kabupaten Pegunungan Bintang, Papua";"Kabupaten Pegunungan Bintang, Papua";PAPUA;;Indonesia;;;;-47.151.742;1.407.444.135;https://maps.google.com/?cid=0x0:0xfa9674635b933b35;
komplek housing;Kantor Pemerintah;Pos TNI kiwirok;"7PMV+WQM, Oknanggul, Kec. Kiwirok, Kabupaten Pegunungan Bintang, Papua 99574";"Oknanggul, Kec. Kiwirok, Kabupaten Pegunungan Bintang";PAPUA;99574;Indonesia;;;;-47.151.742;1.407.444.135;https://maps.google.com/?cid=0x0:0x5676af0ccc68d8b6;
komplek housing;Perhimpunan Pengembang Perumahan;Kampung waibron;"CGR7+CC3, Borban, Distrik Okbab, Kabupaten Pegunungan Bintang, Papua";"Kabupaten Pegunungan Bintang, Papua";PAPUA;;Indonesia;;;;-45.589.872;1.405.135.589;https://maps.google.com/?cid=0x0:0x695c8c898eaec775;
komplek housing;komplek housing;Okbi;"Kabupaten Pegunungan Bintang, Papua";"Kabupaten Pegunungan Bintang, Papua";PAPUA;;Indonesia;;;;-46.040.293;1.404.514.913;https://maps.google.com/?cid=0x0:0x5eafc8bf76c1656f;
komplek housing;Perhimpunan Pengembang Perumahan;Manrten simalya;"CGR7+CC3, Borban, Distrik Okbab, Kabupaten Pegunungan Bintang, Papua";"Kabupaten Pegunungan Bintang, Papua";PAPUA;;Indonesia;;;;-45.589.872;1.405.135.589;https://maps.google.com/?cid=0x0:0x2288c4339c62777e;
komplek housing;komplek housing;Distrik Batom;"Kabupaten Pegunungan Bintang, Papua";"Kabupaten Pegunungan Bintang, Papua";PAPUA;;Indonesia;;;;-44.466.638;1.408.794.807;https://maps.google.com/?cid=0x0:0x7c87b0b13ca08fe;
komplek housing;Perhimpunan Pengembang Perumahan;ABUKEROM;"MW5X+JW6, Abukerom, Distrik Batom, Kabupaten Pegunungan Bintang, Papua";"Kabupaten Pegunungan Bintang, Papua";PAPUA;;Indonesia;;;;-43.409.643;1.409.497.647;https://maps.google.com/?cid=0x0:0xaaf9f4eb2a0c2fed;
komplek housing;komplek housing;Kampung Tual;"PV7P+GX4, Kampung Tual, Distrik Mofinop, Kabupaten Pegunungan Bintang, Papua 99576";"Kampung Tual, Distrik Mofinop, Kabupaten Pegunungan Bintang";PAPUA;99576;Indonesia;;;;-42.862.314;1.408.874.525;https://maps.google.com/?cid=0x0:0x3048e1426ceafafe;
komplek housing;komplek housing;Borme;"Kabupaten Pegunungan Bintang, Papua";"Kabupaten Pegunungan Bintang, Papua";PAPUA;;Indonesia;;;;-43.227.031;1.403.894.858;https://maps.google.com/?cid=0x0:0x3ae0f9e7e82ab112;
komplek housing;Komplek perumahan;Kampung Botorgon;"J6MH+RR4, Nomteren, Dekitamur, Kabupaten Pegunungan Bintang, Papua 99577";"Nomteren, Dekitamur, Kabupaten Pegunungan Bintang";PAPUA;99577;Indonesia;;;;-43.654.794;1.402.295.937;https://maps.google.com/?cid=0x0:0x88729fde2b8a1738;
komplek housing;Komplek perumahan;Kampung Turwe;"G66C+58, Bime, Distrik Bime, Kabupaten Pegunungan Bintang, Papua";"Kabupaten Pegunungan Bintang, Papua";PAPUA;;Indonesia;;;;-44.894.746;1.402.208.627;https://maps.google.com/?cid=0x0:0x8a80710961d553b1;
komplek housing;Bandara;Lapangan terbang Bamlyei;"J5XV+HCM, Dusun Taramnye, Youlban, Distrik Weime, Kabupaten Pegunungan Bintang, Papua 99577";"Dusun Taramnye, Youlban, Distrik Weime, Kabupaten Pegunungan Bintang";PAPUA;99577;Indonesia;;;;-43.510.315;1.401.935.468;https://maps.google.com/?cid=0x0:0xdeeb1d048f1f9846;
komplek housing;Pembangunan Perumahan;Kampung Purjo;"F6XP+9G, Bime, Distrik Bime, Kabupaten Pegunungan Bintang, Papua";"Kabupaten Pegunungan Bintang, Papua";PAPUA;;Indonesia;;;;-4.501.451;1.402.361.894;https://maps.google.com/?cid=0x0:0xe344645bd09e192d;
komplek housing;Komplek perumahan;Kampung Tely;"G69G+634, Bime, Distrik Bime, Kabupaten Pegunungan Bintang, Papua";"Kabupaten Pegunungan Bintang, Papua";PAPUA;;Indonesia;;;;-44.819.975;1.402.251.906;https://maps.google.com/?cid=0x0:0xb8309a16ae579c3;
komplek housing;komplek housing;"Delpem,Pegunungan Bintang,Papua,Indonesia";"8P2Q+V7, Kiwi, Kec. Kiwirok, Kabupaten Pegunungan Bintang, Papua";"Kabupaten Pegunungan Bintang, Papua";PAPUA;;Indonesia;;;;-46.975.286;1.407.383.683;https://maps.google.com/?cid=0x0:0x65d550938e3f142a;
komplek housing;Kantor Pemerintah;Pos TNI kiwirok;"7PMV+WQM, Oknanggul, Kec. Kiwirok, Kabupaten Pegunungan Bintang, Papua 99574";"Oknanggul, Kec. Kiwirok, Kabupaten Pegunungan Bintang";PAPUA;99574;Indonesia;;;;-47.151.742;1.407.444.135;https://maps.google.com/?cid=0x0:0x5676af0ccc68d8b6;
komplek housing;Komplek perumahan;Pos TNI PAMTAS;"7PPV+25J, Oknanggul, Kec. Kiwirok, Kabupaten Pegunungan Bintang, Papua";"Kabupaten Pegunungan Bintang, Papua";PAPUA;;Indonesia;;;;-47.149.075;1.407.428.764;https://maps.google.com/?cid=0x0:0xa58c88aa2aac0696;
komplek housing;komplek housing;Papua 99572;"Kabupaten Pegunungan Bintang, Papua";"Kabupaten Pegunungan Bintang, Papua";PAPUA;;Indonesia;;;;-43.578.129;1.404.308.159;https://maps.google.com/?cid=0x0:0x3d3d35db4afd3dc1;
komplek housing;Komplek perumahan;TERPONES;"2MG5+JC6, Lulis, Kec. Yefta, Kabupaten Pegunungan Bintang, Papua 99576";"Lulis, Kec. Yefta, Kabupaten Pegunungan Bintang";PAPUA;99576;Indonesia;;;;-39.729.291;1.406.593.839;https://maps.google.com/?cid=0x0:0x211ddd1e546bf856;
komplek housing;komplek housing;Amase;"QHJ6+XQX, Amase, Aboy, Kabupaten Pegunungan Bintang, Papua 99572";"Amase, Aboy, Kabupaten Pegunungan Bintang";PAPUA;99572;Indonesia;;;;-42.175.037;1.405.619.926;https://maps.google.com/?cid=0x0:0xd542b18f5c6bc572;
komplek housing;Perhimpunan Pengembang Perumahan;Kampung waibron;"CGR7+CC3, Borban, Distrik Okbab, Kabupaten Pegunungan Bintang, Papua";"Kabupaten Pegunungan Bintang, Papua";PAPUA;;Indonesia;;;;-45.589.872;1.405.135.589;https://maps.google.com/?cid=0x0:0x695c8c898eaec775;
komplek housing;Perhimpunan Pengembang Perumahan;Serly A.waimeni;"6G6W+8G, Usku, Saefen empat dua, Kabupaten Keerom, Papua";"Kabupaten Keerom, Papua";PAPUA;;Indonesia;;;;-37.891.875;1.405.463.125;https://maps.google.com/?cid=0x0:0x3f1f3ea6c8bbc32c;
komplek housing;Komplek perumahan;Pris;"XH4X+4MQ, Bris, Kec. Yefta, Kabupaten Pegunungan Bintang, Papua";"Kabupaten Pegunungan Bintang, Papua";PAPUA;;Indonesia;;;;-40.446.636;1.405.992.256;https://maps.google.com/?cid=0x0:0x162b213dce1625f4;
komplek housing;Perhimpunan Pengembang Perumahan;Kalimbu Palolo;"WHM8+Q44, Kalimbu, Palolo, Kabupaten Pegunungan Bintang, Papua 99572";"Kalimbu, Palolo, Kabupaten Pegunungan Bintang";PAPUA;99572;Indonesia;;;;-40.656.117;1.405.653.294;https://maps.google.com/?cid=0x0:0x6ddc1c2415d96874;
komplek housing;Perhimpunan Pengembang Perumahan;Manrten simalya;"CGR7+CC3, Borban, Distrik Okbab, Kabupaten Pegunungan Bintang, Papua";"Kabupaten Pegunungan Bintang, Papua";PAPUA;;Indonesia;;;;-45.589.872;1.405.135.589;https://maps.google.com/?cid=0x0:0x2288c4339c62777e;
komplek housing;Pembangunan Perumahan;Oksingsing;"3JCM+CQ9, Oksibil - Iwur, Molbib Silibib, Distrik Pepera, Kabupaten Pegunungan Bintang, Papua 99573";"Oksibil - Iwur, Molbib Silibib, Distrik Pepera, Kabupaten Pegunungan Bintang";PAPUA;99573;Indonesia;;;;-49.289.586;1.406.344.783;https://maps.google.com/?cid=0x0:0x6166f060bbe1a498;
komplek housing;Komplek perumahan;Perumahan Kesbangpol;"4JCR+WRX, Okdo, Kec. Ok Aon, Kabupaten Pegunungan Bintang, Papua";"Kabupaten Pegunungan Bintang, Papua";PAPUA;;Indonesia;;;;-48.776.272;1.406.421.081;https://maps.google.com/?cid=0x0:0x36c60e2687d16ef5;
komplek housing;Komplek perumahan;Bajaringan Oksibil;"3JXH+29, Kotdol, Distrik Oksibil, Kabupaten Pegunungan Bintang, Papua";"Kabupaten Pegunungan Bintang, Papua";PAPUA;;Indonesia;;;;-49.024.299;1.406.284.453;https://maps.google.com/?cid=0x0:0x8d20396d6232aab2;
komplek housing;Komplek perumahan;Komplek Komas asime;"G69G+634, Bime, Distrik Bime, Kabupaten Pegunungan Bintang, Papua";"Kabupaten Pegunungan Bintang, Papua";PAPUA;;Indonesia;;;;-44.819.975;1.402.251.906;https://maps.google.com/?cid=0x0:0xc9205e26fd3af469;
komplek housing;Komplek perumahan;Kampung Botorgon;"J6MH+RR4, Nomteren, Dekitamur, Kabupaten Pegunungan Bintang, Papua 99577";"Nomteren, Dekitamur, Kabupaten Pegunungan Bintang";PAPUA;99577;Indonesia;;;;-43.654.794;1.402.295.937;https://maps.google.com/?cid=0x0:0x88729fde2b8a1738;
komplek housing;Pembangunan Perumahan;Okbutup;"3JPG+M3F, Unnamed Road, Kabiding, Distrik Serambakon, Kabupaten Pegunungan Bintang, Papua 99573";"Unnamed Road, Kabiding, Distrik Serambakon, Kabupaten Pegunungan Bintang";PAPUA;99573;Indonesia;;;;-49.133.183;1.406.251.633;https://maps.google.com/?cid=0x0:0xa259732724f4c638;
komplek housing;Sekolah menengah;HOME WIFI;"SMK Negeri 1, Komplek perumahan guru, Kotdol, Distrik Oksibil, Kabupaten Pegunungan Bintang, Papua 99573";"Komplek perumahan guru, Kotdol, Distrik Oksibil, Kabupaten Pegunungan Bintang";PAPUA;99573;Indonesia;;;;-49.030.748;1.406.024.578;https://maps.google.com/?cid=0x0:0x8ed62cc1223ef378;
komplek housing;Komplek perumahan;KIOS OKDEMON 0707;"3JWM+GVV Komplek perumahan guru SMK Negeri egeri, Kotdol, Oksibil, Pegunungan Bintang Regency, Papua";"Kabupaten Pegunungan Bintang, Papua";PAPUA;;Indonesia;;;;-49.036.454;1.406.346.666;https://maps.google.com/?cid=0x0:0xd649047da36fdb64;
komplek housing;Komplek perumahan;Kampung Tely;"G69G+634, Bime, Distrik Bime, Kabupaten Pegunungan Bintang, Papua";"Kabupaten Pegunungan Bintang, Papua";PAPUA;;Indonesia;;;;-44.819.975;1.402.251.906;https://maps.google.com/?cid=0x0:0xb8309a16ae579c3;
komplek housing;Pembangunan Perumahan;Kampung Purjo;"F6XP+9G, Bime, Distrik Bime, Kabupaten Pegunungan Bintang, Papua";"Kabupaten Pegunungan Bintang, Papua";PAPUA;;Indonesia;;;;-4.501.451;1.402.361.894;https://maps.google.com/?cid=0x0:0xe344645bd09e192d;
komplek housing;Perhimpunan Pengembang Perumahan;CHALSEB ESCOM;"3JRF+5PM, Kabiding, Distrik Oksibil, Kabupaten Pegunungan Bintang, Papua 99573";"Kabiding, Distrik Oksibil, Kabupaten Pegunungan Bintang";PAPUA;99573;Indonesia;;;;-49.088.229;14.062.529;https://maps.google.com/?cid=0x0:0xdbd2d1ef8a038af1;
komplek housing;Komplek perumahan;Bulangkop;"5JFV+96W, Bulangkop, Kec. Ok Aon, Kabupaten Pegunungan Bintang, Papua";"Kabupaten Pegunungan Bintang, Papua";PAPUA;;Indonesia;;;;-48.265.146;1.406.430.658;https://maps.google.com/?cid=0x0:0x400c749e09c8f88;
komplek housing;komplek housing;Aboy;"Kabupaten Pegunungan Bintang, Papua";"Kabupaten Pegunungan Bintang, Papua";PAPUA;;Indonesia;;;;-4.237.846;1.405.964.124;https://maps.google.com/?cid=0x0:0x2598c921a3c62e1e;
komplek housing;Komplek perumahan;Pondok Gede Housing II;"Housing II, Jl. Raya Hankam, RT.001/RW.004, Jatirahayu, Pondok Gede, Bekasi, West Java";"Kota Bks, Jawa Barat";PAPUA;;Indonesia;;;;-62.876.701;1.069.147.674;https://maps.google.com/?cid=0x0:0x2a52e601c20d18f2;
komplek housing;Establishment;Ahzavi Residence Pondok Gede;"PW4J+JHQ, Jl. Celepuk I Ujung, RT.012/RW.014, Jatirahayu, Kec. Pd. Melati, Kota Bks, Jawa Barat 17414";"Jl. Celepuk I Ujung, RT.012/RW.014, Jatirahayu, Kec. Pd. Melati, Kota Bks";PAPUA;17414;Indonesia;;;;-62.934.194;1.069.314.803;https://maps.google.com/?cid=0x0:0x7b24a580738077da;
komplek housing;Komplek perumahan;Komplek Raya Housing Blok O;"PWC5+FRJ, RT.005/RW.011, Jatiwaringin, Kec. Pd. Gede, Kota Bks, Jawa Barat 17411";"RT.005/RW.011, Jatiwaringin, Kec. Pd. Gede, Kota Bks";PAPUA;17411;Indonesia;;;;-6.278.778;1.069.095.098;https://maps.google.com/?cid=0x0:0xb8ccec3d47633fb4;
komplek housing;Komplek perumahan;Pondok Gede Housing 1;"Jl. Cipta Raya No.45-3, RT.001/RW.003, Jatirahayu, Kec. Pd. Melati, Kota Bks, Jawa Barat 17414";"RT.001/RW.003, Jatirahayu, Kec. Pd. Melati, Kota Bks";PAPUA;17414;Indonesia;;;;-62.852.504;1.069.163.397;https://maps.google.com/?cid=0x0:0x3132afedbf38cd61;
komplek housing;Komplek perumahan;Komplek Abadi;"Jl. Kolonel Sugiono No.64, RT.5/RW.4, Duren Sawit, Kec. Duren Sawit, Kota Jakarta Timur, Daerah Khusus Ibukota Jakarta 13440";"RT.5/RW.4, Duren Sawit, Kec. Duren Sawit, Kota Jakarta Timur";PAPUA;13440;Indonesia;;;;-62.263.602;1.069.090.587;https://maps.google.com/?cid=0x0:0x411a933e73c7ea82;
komplek housing;Perumahan;Perumahan Lavana garden;"R2FH+MCH, Jl. Griya Asri Bahagia No.Blok F18, Bahagia, Kec. Babelan, Kabupaten Bekasi, Jawa Barat 17610";"Jl. Griya Asri Bahagia No.Blok F18, Bahagia, Kec. Babelan, Kabupaten Bekasi";PAPUA;17610;Indonesia;;;;-61.745.893;1.070.272.968;https://maps.google.com/?cid=0x0:0xf42d21236c661ad2;
komplek housing;komplek housing;Distrik Pepera;"Kabupaten Pegunungan Bintang, Papua";"Kabupaten Pegunungan Bintang, Papua";PAPUA;;Indonesia;;;;-48.872.459;1.407.305.111;https://maps.google.com/?cid=0x0:0x1239d5884917d2c1;
komplek housing;Sekolah menengah;HOME WIFI;"SMK Negeri 1, Komplek perumahan guru, Kotdol, Distrik Oksibil, Kabupaten Pegunungan Bintang, Papua 99573";"Komplek perumahan guru, Kotdol, Distrik Oksibil, Kabupaten Pegunungan Bintang";PAPUA;99573;Indonesia;;;;-49.030.748;1.406.024.578;https://maps.google.com/?cid=0x0:0x8ed62cc1223ef378;
komplek housing;Komplek perumahan;Perumahan Kesbangpol;"4JCR+WRX, Okdo, Kec. Ok Aon, Kabupaten Pegunungan Bintang, Papua";"Kabupaten Pegunungan Bintang, Papua";PAPUA;;Indonesia;;;;-48.776.272;1.406.421.081;https://maps.google.com/?cid=0x0:0x36c60e2687d16ef5;
komplek housing;Komplek perumahan;MM. MARIA;"3JXF+V3, Kotdol, Distrik Oksibil, Kabupaten Pegunungan Bintang, Papua 99573";"Kotdol, Distrik Oksibil, Kabupaten Pegunungan Bintang";PAPUA;99573;Indonesia;081332340803;;;-49.003.672;1.406.226.324;https://maps.google.com/?cid=0x0:0x8b883b0d8e4906;
komplek housing;Komplek perumahan;SEREH RESIDENCE;"CGQ5+VV6, Jl. Pos 7, Sereh, Kec. Sentani, Kabupaten Jayapura, Papua 99359";"Jl. Pos 7, Sereh, Kec. Sentani, Kabupaten Jayapura";PAPUA;99359;Indonesia;0811483429;;;-25.603.382;1.405.096.395;https://maps.google.com/?cid=0x0:0xb2986944607873e9;
komplek housing;Komplek perumahan;Dene Tibe;"3J62+8J5, Okmakot, Distrik Oksibil, Kabupaten Pegunungan Bintang, Papua 99573";"Okmakot, Distrik Oksibil, Kabupaten Pegunungan Bintang";PAPUA;99573;Indonesia;;;;-49.392.363;1.406.015.944;https://maps.google.com/?cid=0x0:0x93ee0609e6124444;
komplek housing;Komplek perumahan;Bulangkop;"5JFV+96W, Bulangkop, Kec. Ok Aon, Kabupaten Pegunungan Bintang, Papua";"Kabupaten Pegunungan Bintang, Papua";PAPUA;;Indonesia;;;;-48.265.146;1.406.430.658;https://maps.google.com/?cid=0x0:0x400c749e09c8f88;
komplek housing;Komplek perumahan;Area GCR FAMILY;"3JXH+48, Kotdol, Distrik Oksibil, Kabupaten Pegunungan Bintang, Papua";"Kabupaten Pegunungan Bintang, Papua";PAPUA;;Indonesia;;;;-49.022.281;1.406.282.716;https://maps.google.com/?cid=0x0:0x953292a1f915f916;
komplek housing;Pembangunan Perumahan;Oksingsing;"3JCM+CQ9, Oksibil - Iwur, Molbib Silibib, Distrik Pepera, Kabupaten Pegunungan Bintang, Papua 99573";"Oksibil - Iwur, Molbib Silibib, Distrik Pepera, Kabupaten Pegunungan Bintang";PAPUA;99573;Indonesia;;;;-49.289.586;1.406.344.783;https://maps.google.com/?cid=0x0:0x6166f060bbe1a498;
komplek housing;Perhimpunan Pengembang Perumahan;CHALSEB ESCOM;"3JRF+5PM, Kabiding, Distrik Oksibil, Kabupaten Pegunungan Bintang, Papua 99573";"Kabiding, Distrik Oksibil, Kabupaten Pegunungan Bintang";PAPUA;99573;Indonesia;;;;-49.088.229;14.062.529;https://maps.google.com/?cid=0x0:0xdbd2d1ef8a038af1;
komplek housing;Pembangunan Perumahan;Okbutup;"3JPG+M3F, Unnamed Road, Kabiding, Distrik Serambakon, Kabupaten Pegunungan Bintang, Papua 99573";"Unnamed Road, Kabiding, Distrik Serambakon, Kabupaten Pegunungan Bintang";PAPUA;99573;Indonesia;;;;-49.133.183;1.406.251.633;https://maps.google.com/?cid=0x0:0xa259732724f4c638;
komplek housing;Pembangunan Perumahan;Quripsil;"4J4R+QF, Kotdol, Distrik Oksibil, Kabupaten Pegunungan Bintang, Papua";"Kabupaten Pegunungan Bintang, Papua";PAPUA;;Indonesia;;;;-48.930.534;1.406.411.677;https://maps.google.com/?cid=0x0:0x6cdedc57df58cea8;
komplek housing;komplek housing;Dominggus Kapitarauw Home;"3JXF+57M, Kotdol, Distrik Oksibil, Kabupaten Pegunungan Bintang, Papua";"Kabupaten Pegunungan Bintang, Papua";PAPUA;;Indonesia;;;;-49.020.374;1.406.231.764;https://maps.google.com/?cid=0x0:0x3246a6b07f25955f;
komplek housing;Perumahan;"PERUMAHAN ANUGRAH REGENCY,HOLTEKAM";"9Q5M+PC, Holtekam, Kec. Muara Tami, Kota Jayapura, Papua";"Kota Jayapura, Papua";PAPUA;;Indonesia;;;;-26.406.717;1.407.839.135;https://maps.google.com/?cid=0x0:0x2de3934f59eacc45;
komplek housing;Komplek perumahan;KIOS OKDEMON 0707;"3JWM+GVV Komplek perumahan guru SMK Negeri egeri, Kotdol, Oksibil, Pegunungan Bintang Regency, Papua";"Kabupaten Pegunungan Bintang, Papua";PAPUA;;Indonesia;;;;-49.036.454;1.406.346.666;https://maps.google.com/?cid=0x0:0xd649047da36fdb64;
komplek housing;Komplek perumahan;Bajaringan Oksibil;"3JXH+29, Kotdol, Distrik Oksibil, Kabupaten Pegunungan Bintang, Papua";"Kabupaten Pegunungan Bintang, Papua";PAPUA;;Indonesia;;;;-49.024.299;1.406.284.453;https://maps.google.com/?cid=0x0:0x8d20396d6232aab2;
komplek housing;Rumah Sakit Pemerintah;Rumah Dinas Dokter Spesialis RSUD Oksibil;"Kabiding, Distrik Serambakon, Kabupaten Pegunungan Bintang, Papua 99573";"Distrik Serambakon, Kabupaten Pegunungan Bintang";PAPUA;99573;Indonesia;;;;-49.017.462;1.406.254.598;https://maps.google.com/?cid=0x0:0xcd3a80585b7912fd;
komplek housing;Komplek perumahan;Permata Legenda 2;"Jl. Raya Asem Jaya No.34, RT.010/RW.018, Mustikajaya, Kec. Mustika Jaya, Kota Bks, Jawa Barat 16340";"RT.010/RW.018, Mustikajaya, Kec. Mustika Jaya, Kota Bks";PAPUA;16340;Indonesia;;;;-6.306.153;1.070.190.326;https://maps.google.com/?cid=0x0:0x38a43b3c4d5e4f54;
komplek housing;komplek housing;KIOS YESIDA;;;PAPUA;;Indonesia;082129810406;;;-44.948.152;1.404.784.666;https://maps.google.com/?cid=0x0:0x2b6b3852cbb32d40;
komplek housing;Pengembang Realestat;PADMA TAMANSARI RESIDENCE;"Taman Sari, Kec. Setu, Kabupaten Bekasi, Jawa Barat 17320";"Kec. Setu, Kabupaten Bekasi";PAPUA;17320;Indonesia;081398386289;;;-63.608.813;1.070.282.974;https://maps.google.com/?cid=0x0:0x10402bbe9bd37856;
komplek housing;Komplek perumahan;La Palma Grande;"Jl. Raya Letjen R. Suprapto No.12, Cijengkol, Kec. Setu, Kabupaten Bekasi, Jawa Barat 17320";"Cijengkol, Kec. Setu, Kabupaten Bekasi";PAPUA;17320;Indonesia;02182622777;;;-63.222.274;1.070.382.499;https://maps.google.com/?cid=0x0:0x1b3090b1134275f9;
komplek housing;Pembangunan Perumahan;Perumahan Pondok Ungu Permai;"Jl. Raya Pd. Ungu Permai Melati 4 No.4 Blok B8, RT.002/RW.008, Kaliabang Tengah, Kec. Bekasi Utara, Kota Bks, Jawa Barat 17125";"RT.002/RW.008, Kaliabang Tengah, Kec. Bekasi Utara, Kota Bks";PAPUA;17125;Indonesia;;;;-61.764.808;1.070.012.361;https://maps.google.com/?cid=0x0:0x19c96507d85ecc28;
komplek housing;Komplek perumahan;Griya Artha Sukasari Residence;"Sukasari, Kec. Rajeg, Kabupaten Tangerang, Banten 15540";"Kec. Rajeg, Kabupaten Tangerang";PAPUA;15540;Indonesia;081389797521;;;-61.161.048;1.065.548.113;https://maps.google.com/?cid=0x0:0xfdef34f2e2561a94;
komplek housing;Perumahan;SAVANA RESIDENCE;"Jl. Raya Munjul, Munjul, Kec. Solear, Kabupaten Tangerang, Banten 15730";"Munjul, Kec. Solear, Kabupaten Tangerang";PAPUA;15730;Indonesia;0215995888;;;-62.800.927;1.064.575.075;https://maps.google.com/?cid=0x0:0x27e2989bc45d0c64;
komplek housing;komplek housing;kantor utama persada;"M354+M2J, Telajung, Kec. Cikarang Bar., Kabupaten Bekasi, Jawa Barat";"Kabupaten Bekasi, Jawa Barat";PAPUA;;Indonesia;085942191390;;;-63.407.819;1.070.550.168;https://maps.google.com/?cid=0x0:0xccdc0d22eedc7c11;
komplek housing;Perumahan;Jayasampurna Residence;"Kp Jl. Simpur No.Desa, Ciantra, Cikarang Selatan, Bekasi Regency, West Java 17530";"Ciantra, Cikarang Selatan, Bekasi Regency";PAPUA;17530;Indonesia;087872036938;;;-6.366.111;1.070.921.795;https://maps.google.com/?cid=0x0:0xd373af39d0d5ab0e;
komplek housing;Museum;Taman Mini Indonesia Indah;"Jl. Taman Mini Indonesia Indah, Ceger, Kec. Cipayung, Kota Jakarta Timur, Daerah Khusus Ibukota Jakarta 13820";"Ceger, Kec. Cipayung, Kota Jakarta Timur";PAPUA;13820;Indonesia;08041789789;;;-63.020.386;1.068.898.924;https://maps.google.com/?cid=0x0:0x73127b9ecf2da0c;
komplek housing;komplek housing;Apartment Patra Land Urbano;"Jl. Pintu Air No.29, Marga Mulya, Kec. Bekasi Utara, Kota Bks, Jawa Barat 17142";"Marga Mulya, Kec. Bekasi Utara, Kota Bks";PAPUA;17142;Indonesia;0895417300072;;;-62.345.585;1.069.980.497;https://maps.google.com/?cid=0x0:0xf8e2a2ed3cd1b20b;
komplek housing;Perusahaan Kereta Api;Bekasi;"Marga Mulya, Kec. Bekasi Utara, Kota Bks, Jawa Barat";"Kota Bks, Jawa Barat";PAPUA;;Indonesia;;;;-623.646;10.699.877;https://maps.google.com/?cid=0x0:0x6ad4a999fff63886;
komplek housing;komplek housing;Distrik Bime;"Kabupaten Pegunungan Bintang, Papua";"Kabupaten Pegunungan Bintang, Papua";PAPUA;;Indonesia;;;;-4.488.256;1.402.199.566;https://maps.google.com/?cid=0x0:0xdb4257b29554af6e;
komplek housing;Komplek perumahan;Komplek Komas asime;"G69G+634, Bime, Distrik Bime, Kabupaten Pegunungan Bintang, Papua";"Kabupaten Pegunungan Bintang, Papua";PAPUA;;Indonesia;;;;-44.819.975;1.402.251.906;https://maps.google.com/?cid=0x0:0xc9205e26fd3af469;
komplek housing;Perhimpunan Pengembang Perumahan;Wakidam;"G36C+72X, Wakidam, Distrik Epumek, Kabupaten Pegunungan Bintang, Papua 99577";"Wakidam, Distrik Epumek, Kabupaten Pegunungan Bintang";PAPUA;99577;Indonesia;;;;-44.892.524;1.400.701.193;https://maps.google.com/?cid=0x0:0xefb747cba1414959;
komplek housing;Komplek perumahan;Kampung Tely;"G69G+634, Bime, Distrik Bime, Kabupaten Pegunungan Bintang, Papua";"Kabupaten Pegunungan Bintang, Papua";PAPUA;;Indonesia;;;;-44.819.975;1.402.251.906;https://maps.google.com/?cid=0x0:0xb8309a16ae579c3;
komplek housing;Komplek perumahan;Kampung Imde;"JXCX+87Q, Imde, Distrik Pamek, Kabupaten Pegunungan Bintang, Papua";"Kabupaten Pegunungan Bintang, Papua";PAPUA;;Indonesia;;;;-43.791.595;139.998.236;https://maps.google.com/?cid=0x0:0x8c1c589db27098a1;
komplek housing;Bandara;Lapangan terbang Bamlyei;"J5XV+HCM, Dusun Taramnye, Youlban, Distrik Weime, Kabupaten Pegunungan Bintang, Papua 99577";"Dusun Taramnye, Youlban, Distrik Weime, Kabupaten Pegunungan Bintang";PAPUA;99577;Indonesia;;;;-43.510.315;1.401.935.468;https://maps.google.com/?cid=0x0:0xdeeb1d048f1f9846;
komplek housing;Pembangunan Perumahan;Kampung Purjo;"F6XP+9G, Bime, Distrik Bime, Kabupaten Pegunungan Bintang, Papua";"Kabupaten Pegunungan Bintang, Papua";PAPUA;;Indonesia;;;;-4.501.451;1.402.361.894;https://maps.google.com/?cid=0x0:0xe344645bd09e192d;
komplek housing;Komplek perumahan;Kampung Botorgon;"J6MH+RR4, Nomteren, Dekitamur, Kabupaten Pegunungan Bintang, Papua 99577";"Nomteren, Dekitamur, Kabupaten Pegunungan Bintang";PAPUA;99577;Indonesia;;;;-43.654.794;1.402.295.937;https://maps.google.com/?cid=0x0:0x88729fde2b8a1738;
komplek housing;Perhimpunan Pengembang Perumahan;Domidena;"JXCX+87Q, Imde, Distrik Pamek, Kabupaten Pegunungan Bintang, Papua";"Kabupaten Pegunungan Bintang, Papua";PAPUA;;Indonesia;;;;-43.791.595;139.998.236;https://maps.google.com/?cid=0x0:0x240533b90d8bc588;
komplek housing;Perhimpunan Pengembang Perumahan;Elia Mirin;"G2VC+5WV, Eipomek, Distrik Epumek, Kabupaten Pegunungan Bintang, Papua 99577";"Eipomek, Distrik Epumek, Kabupaten Pegunungan Bintang";PAPUA;99577;Indonesia;;;;-44.570.032;1.400.222.993;https://maps.google.com/?cid=0x0:0x6f1f06308fd24752;
komplek housing;Penginapan religi;Malokmala Sumtamob;"54CR+FRW, Yup, Distrik Suntamon, Kabupaten Yahukimo, Papua";"Kabupaten Yahukimo, Papua";PAPUA;;Indonesia;;;;-48.287.552;1.401.420.882;https://maps.google.com/?cid=0x0:0x888c997a4ec75e34;
komplek housing;komplek housing;Distrik Alemsom;"Kabupaten Pegunungan Bintang, Papua";"Kabupaten Pegunungan Bintang, Papua";PAPUA;;Indonesia;;;;-47.239.845;1.402.862.819;https://maps.google.com/?cid=0x0:0x2d79a847a7c70a92;
komplek housing;Komplek perumahan;Malokmala sumtamon;"657H+CW4, Suntamon, Distrik Suntamon, Kabupaten Yahukimo, Papua 99573";"Suntamon, Distrik Suntamon, Kabupaten Yahukimo";PAPUA;99573;Indonesia;081344115385;;;-47.864.997;1.401.798.365;https://maps.google.com/?cid=0x0:0xa63fbf0f58d3a94d;
komplek housing;komplek housing;Kec. Ok Bape;"Kabupaten Pegunungan Bintang, Papua";"Kabupaten Pegunungan Bintang, Papua";PAPUA;;Indonesia;;;;-47.079.703;140.534.262;https://maps.google.com/?cid=0x0:0xddeed733d7c1a330;
komplek housing;Komplek perumahan;Oke papua;"CVFP+PJG, Inauga, Kec. Mimika Baru, Kabupaten Mimika, Papua 99971";"Inauga, Kec. Mimika Baru, Kabupaten Mimika";PAPUA;99971;Indonesia;;;;-45.750.663;1.368.868.348;https://maps.google.com/?cid=0x0:0xa108ce81dde9ecf4;
komplek housing;Komplek perumahan;"Rumah Petrus Wameyob (YE9XAC, YG9XAQ, YG9XAS)";"Jl. Irian No.km. 03, RT.006/RW.001, Kepi, Kec. Obaa, Kabupaten Mappi, Papua";"Kabupaten Mappi, Papua";PAPUA;;Indonesia;;;;-65.458.021;1.393.044.607;https://maps.google.com/?cid=0x0:0x4503101340a95c42;
komplek housing;Pembangunan Perumahan;Okbutup;"3JPG+M3F, Unnamed Road, Kabiding, Distrik Serambakon, Kabupaten Pegunungan Bintang, Papua 99573";"Unnamed Road, Kabiding, Distrik Serambakon, Kabupaten Pegunungan Bintang";PAPUA;99573;Indonesia;;;;-49.133.183;1.406.251.633;https://maps.google.com/?cid=0x0:0xa259732724f4c638;
komplek housing;komplek housing;Distrik Kolomdol;"Kabupaten Pegunungan Bintang, Papua";"Kabupaten Pegunungan Bintang, Papua";PAPUA;;Indonesia;;;;-49.670.754;1.405.860.497;https://maps.google.com/?cid=0x0:0x24dc4f034dc31161;
komplek housing;Perhimpunan Pengembang Perumahan;Shela home;"4H4P+84J, Kotdol, Distrik Oksibil, Kabupaten Pegunungan Bintang, Papua 99573";"Kotdol, Distrik Oksibil, Kabupaten Pegunungan Bintang";PAPUA;99573;Indonesia;;;;-48.932.049;140.584.968;https://maps.google.com/?cid=0x0:0xa60db90d9bad3bb5;
komplek housing;Perhimpunan Pengembang Perumahan;CHALSEB ESCOM;"3JRF+5PM, Kabiding, Distrik Oksibil, Kabupaten Pegunungan Bintang, Papua 99573";"Kabiding, Distrik Oksibil, Kabupaten Pegunungan Bintang";PAPUA;99573;Indonesia;;;;-49.088.229;14.062.529;https://maps.google.com/?cid=0x0:0xdbd2d1ef8a038af1;
komplek housing;Komplek perumahan;Perumahan Kesbangpol;"4JCR+WRX, Okdo, Kec. Ok Aon, Kabupaten Pegunungan Bintang, Papua";"Kabupaten Pegunungan Bintang, Papua";PAPUA;;Indonesia;;;;-48.776.272;1.406.421.081;https://maps.google.com/?cid=0x0:0x36c60e2687d16ef5;
komplek housing;Komplek perumahan;Dene Tibe;"3J62+8J5, Okmakot, Distrik Oksibil, Kabupaten Pegunungan Bintang, Papua 99573";"Okmakot, Distrik Oksibil, Kabupaten Pegunungan Bintang";PAPUA;99573;Indonesia;;;;-49.392.363;1.406.015.944;https://maps.google.com/?cid=0x0:0x93ee0609e6124444;
komplek housing;komplek housing;Dominggus Kapitarauw Home;"3JXF+57M, Kotdol, Distrik Oksibil, Kabupaten Pegunungan Bintang, Papua";"Kabupaten Pegunungan Bintang, Papua";PAPUA;;Indonesia;;;;-49.020.374;1.406.231.764;https://maps.google.com/?cid=0x0:0x3246a6b07f25955f;
komplek housing;Pembangunan Perumahan;Quripsil;"4J4R+QF, Kotdol, Distrik Oksibil, Kabupaten Pegunungan Bintang, Papua";"Kabupaten Pegunungan Bintang, Papua";PAPUA;;Indonesia;;;;-48.930.534;1.406.411.677;https://maps.google.com/?cid=0x0:0x6cdedc57df58cea8;
komplek housing;Komplek perumahan;KIOS OKDEMON 0707;"3JWM+GVV Komplek perumahan guru SMK Negeri egeri, Kotdol, Oksibil, Pegunungan Bintang Regency, Papua";"Kabupaten Pegunungan Bintang, Papua";PAPUA;;Indonesia;;;;-49.036.454;1.406.346.666;https://maps.google.com/?cid=0x0:0xd649047da36fdb64;
komplek housing;Pembangunan Perumahan;Okbutup;"3JPG+M3F, Unnamed Road, Kabiding, Distrik Serambakon, Kabupaten Pegunungan Bintang, Papua 99573";"Unnamed Road, Kabiding, Distrik Serambakon, Kabupaten Pegunungan Bintang";PAPUA;99573;Indonesia;;;;-49.133.183;1.406.251.633;https://maps.google.com/?cid=0x0:0xa259732724f4c638;
komplek housing;Komplek perumahan;Bajaringan Oksibil;"3JXH+29, Kotdol, Distrik Oksibil, Kabupaten Pegunungan Bintang, Papua";"Kabupaten Pegunungan Bintang, Papua";PAPUA;;Indonesia;;;;-49.024.299;1.406.284.453;https://maps.google.com/?cid=0x0:0x8d20396d6232aab2;
komplek housing;Pembangunan Perumahan;Oksingsing;"3JCM+CQ9, Oksibil - Iwur, Molbib Silibib, Distrik Pepera, Kabupaten Pegunungan Bintang, Papua 99573";"Oksibil - Iwur, Molbib Silibib, Distrik Pepera, Kabupaten Pegunungan Bintang";PAPUA;99573;Indonesia;;;;-49.289.586;1.406.344.783;https://maps.google.com/?cid=0x0:0x6166f060bbe1a498;
komplek housing;Dewan;Mess DPRD pegunungan bintang;"4J6R+3X8 Mess DPRD, Kotdol, Distrik Oksibil, Kabupaten Pegunungan Bintang, Papua";"Kabupaten Pegunungan Bintang, Papua";PAPUA;;Indonesia;;;;-48.898.398;1.406.424.384;https://maps.google.com/?cid=0x0:0x51d62769c08a071f;
komplek housing;Komplek perumahan;MM. MARIA;"3JXF+V3, Kotdol, Distrik Oksibil, Kabupaten Pegunungan Bintang, Papua 99573";"Kotdol, Distrik Oksibil, Kabupaten Pegunungan Bintang";PAPUA;99573;Indonesia;081332340803;;;-49.003.672;1.406.226.324;https://maps.google.com/?cid=0x0:0x8b883b0d8e4906;
komplek housing;Komplek perumahan;Area GCR FAMILY;"3JXH+48, Kotdol, Distrik Oksibil, Kabupaten Pegunungan Bintang, Papua";"Kabupaten Pegunungan Bintang, Papua";PAPUA;;Indonesia;;;;-49.022.281;1.406.282.716;https://maps.google.com/?cid=0x0:0x953292a1f915f916;
komplek housing;Komplek perumahan;Koramil Oksibil pegunungan bintang;"WJ9P+W8F Koramil, Tarangop, Kec. Kawor, Kabupaten Pegunungan Bintang, Papua";"Kabupaten Pegunungan Bintang, Papua";PAPUA;;Indonesia;;;;-5.080.177;140.635.803;https://maps.google.com/?cid=0x0:0x5c996a7ac71c1c2a;
komplek housing;Komplek perumahan;Okbifisil;"WJ9P+W8F, Tarangop, Kec. Kawor, Kabupaten Pegunungan Bintang, Papua";"Kabupaten Pegunungan Bintang, Papua";PAPUA;;Indonesia;;;;-5.080.177;140.635.803;https://maps.google.com/?cid=0x0:0x912c7d6e061b0e28;
komplek housing;komplek housing;KIOS YESIDA;;;PAPUA;;Indonesia;082129810406;;;-44.948.152;1.404.784.666;https://maps.google.com/?cid=0x0:0x2b6b3852cbb32d40;
komplek housing;Rumah Sakit Pemerintah;Rumah Dinas Dokter Spesialis RSUD Oksibil;"Kabiding, Distrik Serambakon, Kabupaten Pegunungan Bintang, Papua 99573";"Distrik Serambakon, Kabupaten Pegunungan Bintang";PAPUA;99573;Indonesia;;;;-49.017.462;1.406.254.598;https://maps.google.com/?cid=0x0:0xcd3a80585b7912fd;
komplek housing;Komplek perumahan;Komplek Kologad;"Jl. Komp. Kologad No.49, RT.001/RW.009, Jatimakmur, Kec. Pd. Gede, Kota Bks, Jawa Barat 17414";"RT.001/RW.009, Jatimakmur, Kec. Pd. Gede, Kota Bks";PAPUA;17414;Indonesia;;;;-62.905.158;1.069.175.697;https://maps.google.com/?cid=0x0:0x96cf7e89dd8f5d2c;
komplek housing;Otoritas Perumahan;Kologad E 3;"Jl. Komp. Kologad E No.3, RT.001/RW.009, Jatirahayu, Pondok Melati, Bekasi, West Java 17414";"RT.001/RW.009, Jatirahayu, Pondok Melati, Bekasi";PAPUA;17414;Indonesia;;;;-62.903.615;1.069.185.663;https://maps.google.com/?cid=0x0:0xeb82154ab46c0511;
komplek housing;komplek housing;Kec. Oksop;"Kabupaten Pegunungan Bintang, Papua";"Kabupaten Pegunungan Bintang, Papua";PAPUA;;Indonesia;;;;-47.324.178;1.404.101.474;https://maps.google.com/?cid=0x0:0xdb805f296f748353;
komplek housing;komplek housing;Oksop;"Kec. Oksop, Kabupaten Pegunungan Bintang, Papua";"Kabupaten Pegunungan Bintang, Papua";PAPUA;;Indonesia;;;;-47.889.956;1.404.566.612;https://maps.google.com/?cid=0x0:0xad34f79db6b37d84;
komplek housing;Sekolah menengah;HOME WIFI;"SMK Negeri 1, Komplek perumahan guru, Kotdol, Distrik Oksibil, Kabupaten Pegunungan Bintang, Papua 99573";"Komplek perumahan guru, Kotdol, Distrik Oksibil, Kabupaten Pegunungan Bintang";PAPUA;99573;Indonesia;;;;-49.030.748;1.406.024.578;https://maps.google.com/?cid=0x0:0x8ed62cc1223ef378;
komplek housing;Pembangunan Perumahan;Okbutup;"3JPG+M3F, Unnamed Road, Kabiding, Distrik Serambakon, Kabupaten Pegunungan Bintang, Papua 99573";"Unnamed Road, Kabiding, Distrik Serambakon, Kabupaten Pegunungan Bintang";PAPUA;99573;Indonesia;;;;-49.133.183;1.406.251.633;https://maps.google.com/?cid=0x0:0xa259732724f4c638;
komplek housing;Pembangunan Perumahan;Oksingsing;"3JCM+CQ9, Oksibil - Iwur, Molbib Silibib, Distrik Pepera, Kabupaten Pegunungan Bintang, Papua 99573";"Oksibil - Iwur, Molbib Silibib, Distrik Pepera, Kabupaten Pegunungan Bintang";PAPUA;99573;Indonesia;;;;-49.289.586;1.406.344.783;https://maps.google.com/?cid=0x0:0x6166f060bbe1a498;
komplek housing;Komplek perumahan;MM. MARIA;"3JXF+V3, Kotdol, Distrik Oksibil, Kabupaten Pegunungan Bintang, Papua 99573";"Kotdol, Distrik Oksibil, Kabupaten Pegunungan Bintang";PAPUA;99573;Indonesia;081332340803;;;-49.003.672;1.406.226.324;https://maps.google.com/?cid=0x0:0x8b883b0d8e4906;
komplek housing;Perhimpunan Pengembang Perumahan;CHALSEB ESCOM;"3JRF+5PM, Kabiding, Distrik Oksibil, Kabupaten Pegunungan Bintang, Papua 99573";"Kabiding, Distrik Oksibil, Kabupaten Pegunungan Bintang";PAPUA;99573;Indonesia;;;;-49.088.229;14.062.529;https://maps.google.com/?cid=0x0:0xdbd2d1ef8a038af1;
komplek housing;Rumah Sakit Pemerintah;Rumah Dinas Dokter Spesialis RSUD Oksibil;"Kabiding, Distrik Serambakon, Kabupaten Pegunungan Bintang, Papua 99573";"Distrik Serambakon, Kabupaten Pegunungan Bintang";PAPUA;99573;Indonesia;;;;-49.017.462;1.406.254.598;https://maps.google.com/?cid=0x0:0xcd3a80585b7912fd;
komplek housing;komplek housing;KIOS YESIDA;;;PAPUA;;Indonesia;082129810406;;;-44.948.152;1.404.784.666;https://maps.google.com/?cid=0x0:0x2b6b3852cbb32d40;
komplek housing;komplek housing;Distrik Serambakon;"Kabupaten Pegunungan Bintang, Papua";"Kabupaten Pegunungan Bintang, Papua";PAPUA;;Indonesia;;;;-48.557.903;1.405.009.203;https://maps.google.com/?cid=0x0:0x171e1a77608fe958;
komplek housing;Perhimpunan Pengembang Perumahan;Shela home;"4H4P+84J, Kotdol, Distrik Oksibil, Kabupaten Pegunungan Bintang, Papua 99573";"Kotdol, Distrik Oksibil, Kabupaten Pegunungan Bintang";PAPUA;99573;Indonesia;;;;-48.932.049;140.584.968;https://maps.google.com/?cid=0x0:0xa60db90d9bad3bb5;
komplek housing;Pembangunan Perumahan;Okbutup;"3JPG+M3F, Unnamed Road, Kabiding, Distrik Serambakon, Kabupaten Pegunungan Bintang, Papua 99573";"Unnamed Road, Kabiding, Distrik Serambakon, Kabupaten Pegunungan Bintang";PAPUA;99573;Indonesia;;;;-49.133.183;1.406.251.633;https://maps.google.com/?cid=0x0:0xa259732724f4c638;
komplek housing;Perhimpunan Pengembang Perumahan;CHALSEB ESCOM;"3JRF+5PM, Kabiding, Distrik Oksibil, Kabupaten Pegunungan Bintang, Papua 99573";"Kabiding, Distrik Oksibil, Kabupaten Pegunungan Bintang";PAPUA;99573;Indonesia;;;;-49.088.229;14.062.529;https://maps.google.com/?cid=0x0:0xdbd2d1ef8a038af1;
komplek housing;Komplek perumahan;Dene Tibe;"3J62+8J5, Okmakot, Distrik Oksibil, Kabupaten Pegunungan Bintang, Papua 99573";"Okmakot, Distrik Oksibil, Kabupaten Pegunungan Bintang";PAPUA;99573;Indonesia;;;;-49.392.363;1.406.015.944;https://maps.google.com/?cid=0x0:0x93ee0609e6124444;
komplek housing;Komplek perumahan;Perumahan Kesbangpol;"4JCR+WRX, Okdo, Kec. Ok Aon, Kabupaten Pegunungan Bintang, Papua";"Kabupaten Pegunungan Bintang, Papua";PAPUA;;Indonesia;;;;-48.776.272;1.406.421.081;https://maps.google.com/?cid=0x0:0x36c60e2687d16ef5;
komplek housing;Rumah Sakit Pemerintah;Rumah Dinas Dokter Spesialis RSUD Oksibil;"Kabiding, Distrik Serambakon, Kabupaten Pegunungan Bintang, Papua 99573";"Distrik Serambakon, Kabupaten Pegunungan Bintang";PAPUA;99573;Indonesia;;;;-49.017.462;1.406.254.598;https://maps.google.com/?cid=0x0:0xcd3a80585b7912fd;
komplek housing;Dewan;Mess DPRD pegunungan bintang;"4J6R+3X8 Mess DPRD, Kotdol, Distrik Oksibil, Kabupaten Pegunungan Bintang, Papua";"Kabupaten Pegunungan Bintang, Papua";PAPUA;;Indonesia;;;;-48.898.398;1.406.424.384;https://maps.google.com/?cid=0x0:0x51d62769c08a071f;
komplek housing;komplek housing;Kec. Ok Aon;"Kabupaten Pegunungan Bintang, Papua";"Kabupaten Pegunungan Bintang, Papua";PAPUA;;Indonesia;;;;-48.531.394;1.406.404.082;https://maps.google.com/?cid=0x0:0xa9b9ad08f3a2029c;
komplek housing;Sekolah menengah;HOME WIFI;"SMK Negeri 1, Komplek perumahan guru, Kotdol, Distrik Oksibil, Kabupaten Pegunungan Bintang, Papua 99573";"Komplek perumahan guru, Kotdol, Distrik Oksibil, Kabupaten Pegunungan Bintang";PAPUA;99573;Indonesia;;;;-49.030.748;1.406.024.578;https://maps.google.com/?cid=0x0:0x8ed62cc1223ef378;
komplek housing;Komplek perumahan;KIOS OKDEMON 0707;"3JWM+GVV Komplek perumahan guru SMK Negeri egeri, Kotdol, Oksibil, Pegunungan Bintang Regency, Papua";"Kabupaten Pegunungan Bintang, Papua";PAPUA;;Indonesia;;;;-49.036.454;1.406.346.666;https://maps.google.com/?cid=0x0:0xd649047da36fdb64;
komplek housing;Komplek perumahan;Perumahan Kesbangpol;"4JCR+WRX, Okdo, Kec. Ok Aon, Kabupaten Pegunungan Bintang, Papua";"Kabupaten Pegunungan Bintang, Papua";PAPUA;;Indonesia;;;;-48.776.272;1.406.421.081;https://maps.google.com/?cid=0x0:0x36c60e2687d16ef5;
komplek housing;Dewan;Mess DPRD pegunungan bintang;"4J6R+3X8 Mess DPRD, Kotdol, Distrik Oksibil, Kabupaten Pegunungan Bintang, Papua";"Kabupaten Pegunungan Bintang, Papua";PAPUA;;Indonesia;;;;-48.898.398;1.406.424.384;https://maps.google.com/?cid=0x0:0x51d62769c08a071f;
komplek housing;Pembangunan Perumahan;Oksingsing;"3JCM+CQ9, Oksibil - Iwur, Molbib Silibib, Distrik Pepera, Kabupaten Pegunungan Bintang, Papua 99573";"Oksibil - Iwur, Molbib Silibib, Distrik Pepera, Kabupaten Pegunungan Bintang";PAPUA;99573;Indonesia;;;;-49.289.586;1.406.344.783;https://maps.google.com/?cid=0x0:0x6166f060bbe1a498;
komplek housing;Perhimpunan Pengembang Perumahan;Shela home;"4H4P+84J, Kotdol, Distrik Oksibil, Kabupaten Pegunungan Bintang, Papua 99573";"Kotdol, Distrik Oksibil, Kabupaten Pegunungan Bintang";PAPUA;99573;Indonesia;;;;-48.932.049;140.584.968;https://maps.google.com/?cid=0x0:0xa60db90d9bad3bb5;
komplek housing;Perhimpunan Pengembang Perumahan;CHALSEB ESCOM;"3JRF+5PM, Kabiding, Distrik Oksibil, Kabupaten Pegunungan Bintang, Papua 99573";"Kabiding, Distrik Oksibil, Kabupaten Pegunungan Bintang";PAPUA;99573;Indonesia;;;;-49.088.229;14.062.529;https://maps.google.com/?cid=0x0:0xdbd2d1ef8a038af1;
komplek housing;Pembangunan Perumahan;Okbutup;"3JPG+M3F, Unnamed Road, Kabiding, Distrik Serambakon, Kabupaten Pegunungan Bintang, Papua 99573";"Unnamed Road, Kabiding, Distrik Serambakon, Kabupaten Pegunungan Bintang";PAPUA;99573;Indonesia;;;;-49.133.183;1.406.251.633;https://maps.google.com/?cid=0x0:0xa259732724f4c638;
komplek housing;Pembangunan Perumahan;Quripsil;"4J4R+QF, Kotdol, Distrik Oksibil, Kabupaten Pegunungan Bintang, Papua";"Kabupaten Pegunungan Bintang, Papua";PAPUA;;Indonesia;;;;-48.930.534;1.406.411.677;https://maps.google.com/?cid=0x0:0x6cdedc57df58cea8;
komplek housing;Komplek perumahan;MM. MARIA;"3JXF+V3, Kotdol, Distrik Oksibil, Kabupaten Pegunungan Bintang, Papua 99573";"Kotdol, Distrik Oksibil, Kabupaten Pegunungan Bintang";PAPUA;99573;Indonesia;081332340803;;;-49.003.672;1.406.226.324;https://maps.google.com/?cid=0x0:0x8b883b0d8e4906;
komplek housing;Komplek perumahan;Bajaringan Oksibil;"3JXH+29, Kotdol, Distrik Oksibil, Kabupaten Pegunungan Bintang, Papua";"Kabupaten Pegunungan Bintang, Papua";PAPUA;;Indonesia;;;;-49.024.299;1.406.284.453;https://maps.google.com/?cid=0x0:0x8d20396d6232aab2;
komplek housing;komplek housing;Dominggus Kapitarauw Home;"3JXF+57M, Kotdol, Distrik Oksibil, Kabupaten Pegunungan Bintang, Papua";"Kabupaten Pegunungan Bintang, Papua";PAPUA;;Indonesia;;;;-49.020.374;1.406.231.764;https://maps.google.com/?cid=0x0:0x3246a6b07f25955f;
komplek housing;komplek housing;KIOS YESIDA;;;PAPUA;;Indonesia;082129810406;;;-44.948.152;1.404.784.666;https://maps.google.com/?cid=0x0:0x2b6b3852cbb32d40;
komplek housing;Komplek perumahan;Dene Tibe;"3J62+8J5, Okmakot, Distrik Oksibil, Kabupaten Pegunungan Bintang, Papua 99573";"Okmakot, Distrik Oksibil, Kabupaten Pegunungan Bintang";PAPUA;99573;Indonesia;;;;-49.392.363;1.406.015.944;https://maps.google.com/?cid=0x0:0x93ee0609e6124444;
komplek housing;Komplek perumahan;Area GCR FAMILY;"3JXH+48, Kotdol, Distrik Oksibil, Kabupaten Pegunungan Bintang, Papua";"Kabupaten Pegunungan Bintang, Papua";PAPUA;;Indonesia;;;;-49.022.281;1.406.282.716;https://maps.google.com/?cid=0x0:0x953292a1f915f916;
komplek housing;Rumah Sakit Pemerintah;Rumah Dinas Dokter Spesialis RSUD Oksibil;"Kabiding, Distrik Serambakon, Kabupaten Pegunungan Bintang, Papua 99573";"Distrik Serambakon, Kabupaten Pegunungan Bintang";PAPUA;99573;Indonesia;;;;-49.017.462;1.406.254.598;https://maps.google.com/?cid=0x0:0xcd3a80585b7912fd;
komplek housing;Sekolah menengah;SMK NEGERI 1 OKSIBIL;"Kotdol, Distrik Serambakon, Kabupaten Pegunungan Bintang, Papua 99573";"Distrik Serambakon, Kabupaten Pegunungan Bintang";PAPUA;99573;Indonesia;;;;-49.024.836;1.406.043.973;https://maps.google.com/?cid=0x0:0xc8d3e18c59c4b702;
komplek housing;komplek housing;Papua 99575;"Kabupaten Pegunungan Bintang, Papua";"Kabupaten Pegunungan Bintang, Papua";PAPUA;;Indonesia;;;;-51.161.411;1.404.721.736;https://maps.google.com/?cid=0x0:0x19b958e8a9e9ca08;
komplek housing;Komplek perumahan;Mess Kesehatan distrik Kawor;"RGC9+HXJ, Tarangop, Kec. Kawor, Kabupaten Pegunungan Bintang, Papua";"Kabupaten Pegunungan Bintang, Papua";PAPUA;;Indonesia;;;;-51.785.408;1.405.198.952;https://maps.google.com/?cid=0x0:0x13a68f890a7a5757;
komplek housing;Komplek perumahan;Okbifisil;"WJ9P+W8F, Tarangop, Kec. Kawor, Kabupaten Pegunungan Bintang, Papua";"Kabupaten Pegunungan Bintang, Papua";PAPUA;;Indonesia;;;;-5.080.177;140.635.803;https://maps.google.com/?cid=0x0:0x912c7d6e061b0e28;
komplek housing;Pembangunan Perumahan;Woman;"VXJC+XX5, Samboga, Distrik Seradala, Kabupaten Yahukimo, Papua";"Kabupaten Yahukimo, Papua";PAPUA;;Indonesia;;;;-51.176.023;1.399.724.868;https://maps.google.com/?cid=0x0:0x18acb4203edcd99b;
komplek housing;komplek housing;KIOS YESIDA;;;PAPUA;;Indonesia;082129810406;;;-44.948.152;1.404.784.666;https://maps.google.com/?cid=0x0:0x2b6b3852cbb32d40;
komplek housing;komplek housing;Kec. Kawor;"Kabupaten Pegunungan Bintang, Papua";"Kabupaten Pegunungan Bintang, Papua";PAPUA;;Indonesia;;;;-51.786.087;1.405.198.992;https://maps.google.com/?cid=0x0:0xf01e9c51aacc2971;
komplek housing;komplek housing;Awinbon;"Distrik Awinbon, Kabupaten Pegunungan Bintang, Papua";"Kabupaten Pegunungan Bintang, Papua";PAPUA;;Indonesia;;;;-50.949.847;1.402.965.945;https://maps.google.com/?cid=0x0:0xe99d57a9410afcef;
komplek housing;komplek housing;Distrik Awinbon;"Kabupaten Pegunungan Bintang, Papua";"Kabupaten Pegunungan Bintang, Papua";PAPUA;;Indonesia;;;;-50.077.298;1.401.517.908;https://maps.google.com/?cid=0x0:0x5666ce7a04d7f46e;
komplek housing;Pembangunan Perumahan;AGRADIYA RESIDENCE;"R395+P59, Jl. Kong Isah, Sriamur, Kec. Tambun Utara, Kabupaten Bekasi, Jawa Barat 17510";"Jl. Kong Isah, Sriamur, Kec. Tambun Utara, Kabupaten Bekasi";PAPUA;17510;Indonesia;;;;-61.807.045;1.070.579.747;https://maps.google.com/?cid=0x0:0xe8d814b60675ca1c;
komplek housing;Komplek perumahan;Bumi Dirgantara Permai;"RT.009/RW.011, Jatisari, Kec. Jatiasih, Kota Bks, Jawa Barat 17426";"Jatisari, Kec. Jatiasih, Kota Bks";PAPUA;17426;Indonesia;;;;-63.463.327;1.069.431.248;https://maps.google.com/?cid=0x0:0xf40af7137bfb745c;
komplek housing;Komplek perumahan;Rumah Bekasi;"Jl. Kemuning Indah Blok IG No.7, RT.004/RW.019, Pejuang, Kecamatan Medan Satria, Kota Bks, Jawa Barat 17131";"RT.004/RW.019, Pejuang, Kecamatan Medan Satria, Kota Bks";PAPUA;17131;Indonesia;;;;-61.766.155;1.069.809.249;https://maps.google.com/?cid=0x0:0x963711da2190ba04;
komplek housing;Komplek perumahan;WYNN RESIDENCE;"Jl. Cileutik, Taman Sari, Kec. Setu, Kabupaten Bekasi, Jawa Barat 17320";"Taman Sari, Kec. Setu, Kabupaten Bekasi";PAPUA;17320;Indonesia;082113156168;;;-6.363.971;1.070.231.541;https://maps.google.com/?cid=0x0:0x8807d49f439e58a3;
komplek housing;Agen real estat;Anwa Residence Bekasi;"Jl. Ahmad Yani, Pekayon, Kec. Bekasi Bar., Bekasi Barat, Jawa Barat 17148";"Pekayon, Kec. Bekasi Bar., Bekasi Barat";PAPUA;17148;Indonesia;085220749271;;;-62.545.098;1.069.901.644;https://maps.google.com/?cid=0x0:0x4e2bb36d6e7680d6;
komplek housing;Kantor Perusahaan;Grand Sukamulya Cisauk;"Jalan kampung Leuwiranji, Sukamulya, Kec. Rumpin, Kabupaten Bogor, Jawa Barat 16350";"Sukamulya, Kec. Rumpin, Kabupaten Bogor";PAPUA;16350;Indonesia;085780881004;;;-63.721.068;1.066.459.588;https://maps.google.com/?cid=0x0:0x13e210069e886101;
komplek housing;Komplek perumahan;Kavling rizqi akbar;"Jl. Sengon Timur I, Cijengkol, Kec. Setu, Kabupaten Bekasi, Jawa Barat 17320";"Cijengkol, Kec. Setu, Kabupaten Bekasi";PAPUA;17320;Indonesia;087763482004;;;-63.311.678;1.070.442.377;https://maps.google.com/?cid=0x0:0x88fd42d67a10852e;
komplek housing;Rumah wisata;Kontrakan Billi;"Jl. Srikandi Kel No.24, RT.004/RW.018, Pengasinan, Kec. Rawalumbu, Kota Bks, Jawa Barat 17115";"RT.004/RW.018, Pengasinan, Kec. Rawalumbu, Kota Bks";PAPUA;17115;Indonesia;;;;-62.762.427;1.070.156.327;https://maps.google.com/?cid=0x0:0x2c222ac37ddffd47;
komplek housing;komplek housing;Distrik Tarup;"Kabupaten Pegunungan Bintang, Papua";"Kabupaten Pegunungan Bintang, Papua";PAPUA;;Indonesia;;;;-51.570.425;1.409.757.647;https://maps.google.com/?cid=0x0:0xf4c8730c873f717;
komplek housing;Komplek perumahan;Okbifisil;"WJ9P+W8F, Tarangop, Kec. Kawor, Kabupaten Pegunungan Bintang, Papua";"Kabupaten Pegunungan Bintang, Papua";PAPUA;;Indonesia;;;;-5.080.177;140.635.803;https://maps.google.com/?cid=0x0:0x912c7d6e061b0e28;
komplek housing;Komplek perumahan;Koramil Oksibil pegunungan bintang;"WJ9P+W8F Koramil, Tarangop, Kec. Kawor, Kabupaten Pegunungan Bintang, Papua";"Kabupaten Pegunungan Bintang, Papua";PAPUA;;Indonesia;;;;-5.080.177;140.635.803;https://maps.google.com/?cid=0x0:0x5c996a7ac71c1c2a;
komplek housing;komplek housing;Komplek Housing;"Blok Bojong Nangka I, Jl. Ring Rudal Blok Bojong Nangka I No.68, RT.001/RW.007, Jatirahayu, Kec. Pd. Melati, Kota Bks, Jawa Barat 17414";"Jl. Ring Rudal Blok Bojong Nangka I No.68, RT.001/RW.007, Jatirahayu, Kec. Pd. Melati, Kota Bks";PAPUA;17414;Indonesia;;;;-6.293.724;1.069.165.114;https://maps.google.com/?cid=0x0:0x9c50464976dee674;
komplek housing;komplek housing;Tarup;"5210 Munisipalitas Odense, Denmark";"Tarup, Denmark";PAPUA;;Indonesia;;;;554.071.231;103.401.744;https://maps.google.com/?cid=0x0:0x26bf959637ec733e;
komplek housing;komplek housing;"Delpem,Pegunungan Bintang,Papua,Indonesia";"8P2Q+V7, Kiwi, Kec. Kiwirok, Kabupaten Pegunungan Bintang, Papua";"Kabupaten Pegunungan Bintang, Papua";PAPUA;;Indonesia;;;;-46.975.286;1.407.383.683;https://maps.google.com/?cid=0x0:0x65d550938e3f142a;
komplek housing;komplek housing;Distrik Okhika;"Kabupaten Pegunungan Bintang, Papua";"Kabupaten Pegunungan Bintang, Papua";PAPUA;;Indonesia;;;;-46.641.089;1.406.782.097;https://maps.google.com/?cid=0x0:0xa0bdbb44f3322b7e;
komplek housing;komplek housing;Papua 99574;"Kabupaten Pegunungan Bintang, Papua";"Kabupaten Pegunungan Bintang, Papua";PAPUA;;Indonesia;;;;-4.640.956;1.407.624.493;https://maps.google.com/?cid=0x0:0x8501ef2800861902;
komplek housing;komplek housing;Papua;;Papua;PAPUA;;Indonesia;;;;-4.269.928;1.380.803.529;https://maps.google.com/?cid=0x0:0xeba94e9c5eefe673;
komplek housing;komplek housing;Komplek Housing;"Blok Bojong Nangka I, Jl. Ring Rudal Blok Bojong Nangka I No.68, RT.001/RW.007, Jatirahayu, Kec. Pd. Melati, Kota Bks, Jawa Barat 17414";"Jl. Ring Rudal Blok Bojong Nangka I No.68, RT.001/RW.007, Jatirahayu, Kec. Pd. Melati, Kota Bks";PAPUA;17414;Indonesia;;;;-6.293.724;1.069.165.114;https://maps.google.com/?cid=0x0:0x9c50464976dee674;
komplek housing;komplek housing;Oklip;"Kabupaten Pegunungan Bintang, Papua";"Kabupaten Pegunungan Bintang, Papua";PAPUA;;Indonesia;;;;-47.704.144;1.407.884.322;https://maps.google.com/?cid=0x0:0x10a6da9b53085467;
komplek housing;komplek housing;Oklip;"Oklip, Kabupaten Pegunungan Bintang, Papua";"Kabupaten Pegunungan Bintang, Papua";PAPUA;;Indonesia;;;;-47.937.697;1.407.676.451;https://maps.google.com/?cid=0x0:0xad23e1e8aeb137d7;
komplek housing;Komplek perumahan;Komplek Raya Housing/Molek Blok B No. 4;"PW95+CQ7, Jl. Raya Housing, RT.006/RW.011, Jatiwaringin, Kec. Pd. Gede, Kota Bks, Jawa Barat 17411";"Jl. Raya Housing, RT.006/RW.011, Jatiwaringin, Kec. Pd. Gede, Kota Bks";PAPUA;17411;Indonesia;;;;-62.814.591;106.909.408;https://maps.google.com/?cid=0x0:0x47a4e28e626334ff;
komplek housing;Komplek perumahan;Green Orchid Residence Bekasi;"JWWQ+97R, Jatirangga, Kec. Jatisampurna, Kota Bks, Jawa Barat";"Kota Bks, Jawa Barat";PAPUA;;Indonesia;;;;-63.540.234;1.069.381.562;https://maps.google.com/?cid=0x0:0xe6597776f011271d;
komplek housing;komplek housing;Papua 99574;"Kabupaten Pegunungan Bintang, Papua";"Kabupaten Pegunungan Bintang, Papua";PAPUA;;Indonesia;;;;-4.640.956;1.407.624.493;https://maps.google.com/?cid=0x0:0x8501ef2800861902;
komplek housing;komplek housing;"Delpem,Pegunungan Bintang,Papua,Indonesia";"8P2Q+V7, Kiwi, Kec. Kiwirok, Kabupaten Pegunungan Bintang, Papua";"Kabupaten Pegunungan Bintang, Papua";PAPUA;;Indonesia;;;;-46.975.286;1.407.383.683;https://maps.google.com/?cid=0x0:0x65d550938e3f142a;
komplek housing;Sekolah menengah;HOME WIFI;"SMK Negeri 1, Komplek perumahan guru, Kotdol, Distrik Oksibil, Kabupaten Pegunungan Bintang, Papua 99573";"Komplek perumahan guru, Kotdol, Distrik Oksibil, Kabupaten Pegunungan Bintang";PAPUA;99573;Indonesia;;;;-49.030.748;1.406.024.578;https://maps.google.com/?cid=0x0:0x8ed62cc1223ef378;
komplek housing;Komplek perumahan;Perumahan Kesbangpol;"4JCR+WRX, Okdo, Kec. Ok Aon, Kabupaten Pegunungan Bintang, Papua";"Kabupaten Pegunungan Bintang, Papua";PAPUA;;Indonesia;;;;-48.776.272;1.406.421.081;https://maps.google.com/?cid=0x0:0x36c60e2687d16ef5;
komplek housing;Pembangunan Perumahan;Quripsil;"4J4R+QF, Kotdol, Distrik Oksibil, Kabupaten Pegunungan Bintang, Papua";"Kabupaten Pegunungan Bintang, Papua";PAPUA;;Indonesia;;;;-48.930.534;1.406.411.677;https://maps.google.com/?cid=0x0:0x6cdedc57df58cea8;
komplek housing;Komplek perumahan;Bulangkop;"5JFV+96W, Bulangkop, Kec. Ok Aon, Kabupaten Pegunungan Bintang, Papua";"Kabupaten Pegunungan Bintang, Papua";PAPUA;;Indonesia;;;;-48.265.146;1.406.430.658;https://maps.google.com/?cid=0x0:0x400c749e09c8f88;
komplek housing;Pembangunan Perumahan;Okbutup;"3JPG+M3F, Unnamed Road, Kabiding, Distrik Serambakon, Kabupaten Pegunungan Bintang, Papua 99573";"Unnamed Road, Kabiding, Distrik Serambakon, Kabupaten Pegunungan Bintang";PAPUA;99573;Indonesia;;;;-49.133.183;1.406.251.633;https://maps.google.com/?cid=0x0:0xa259732724f4c638;
komplek housing;komplek housing;Dominggus Kapitarauw Home;"3JXF+57M, Kotdol, Distrik Oksibil, Kabupaten Pegunungan Bintang, Papua";"Kabupaten Pegunungan Bintang, Papua";PAPUA;;Indonesia;;;;-49.020.374;1.406.231.764;https://maps.google.com/?cid=0x0:0x3246a6b07f25955f;
komplek housing;Perhimpunan Pengembang Perumahan;Shela home;"4H4P+84J, Kotdol, Distrik Oksibil, Kabupaten Pegunungan Bintang, Papua 99573";"Kotdol, Distrik Oksibil, Kabupaten Pegunungan Bintang";PAPUA;99573;Indonesia;;;;-48.932.049;140.584.968;https://maps.google.com/?cid=0x0:0xa60db90d9bad3bb5;
komplek housing;Perhimpunan Pengembang Perumahan;CHALSEB ESCOM;"3JRF+5PM, Kabiding, Distrik Oksibil, Kabupaten Pegunungan Bintang, Papua 99573";"Kabiding, Distrik Oksibil, Kabupaten Pegunungan Bintang";PAPUA;99573;Indonesia;;;;-49.088.229;14.062.529;https://maps.google.com/?cid=0x0:0xdbd2d1ef8a038af1;
komplek housing;Dewan;Mess DPRD pegunungan bintang;"4J6R+3X8 Mess DPRD, Kotdol, Distrik Oksibil, Kabupaten Pegunungan Bintang, Papua";"Kabupaten Pegunungan Bintang, Papua";PAPUA;;Indonesia;;;;-48.898.398;1.406.424.384;https://maps.google.com/?cid=0x0:0x51d62769c08a071f;
komplek housing;Komplek perumahan;MM. MARIA;"3JXF+V3, Kotdol, Distrik Oksibil, Kabupaten Pegunungan Bintang, Papua 99573";"Kotdol, Distrik Oksibil, Kabupaten Pegunungan Bintang";PAPUA;99573;Indonesia;081332340803;;;-49.003.672;1.406.226.324;https://maps.google.com/?cid=0x0:0x8b883b0d8e4906;
komplek housing;Komplek perumahan;KIOS OKDEMON 0707;"3JWM+GVV Komplek perumahan guru SMK Negeri egeri, Kotdol, Oksibil, Pegunungan Bintang Regency, Papua";"Kabupaten Pegunungan Bintang, Papua";PAPUA;;Indonesia;;;;-49.036.454;1.406.346.666;https://maps.google.com/?cid=0x0:0xd649047da36fdb64;
komplek housing;komplek housing;Kampung Tual;"PV7P+GX4, Kampung Tual, Distrik Mofinop, Kabupaten Pegunungan Bintang, Papua 99576";"Kampung Tual, Distrik Mofinop, Kabupaten Pegunungan Bintang";PAPUA;99576;Indonesia;;;;-42.862.314;1.408.874.525;https://maps.google.com/?cid=0x0:0x3048e1426ceafafe;
komplek housing;Komplek perumahan;Dene Tibe;"3J62+8J5, Okmakot, Distrik Oksibil, Kabupaten Pegunungan Bintang, Papua 99573";"Okmakot, Distrik Oksibil, Kabupaten Pegunungan Bintang";PAPUA;99573;Indonesia;;;;-49.392.363;1.406.015.944;https://maps.google.com/?cid=0x0:0x93ee0609e6124444;
komplek housing;Komplek perumahan;Bajaringan Oksibil;"3JXH+29, Kotdol, Distrik Oksibil, Kabupaten Pegunungan Bintang, Papua";"Kabupaten Pegunungan Bintang, Papua";PAPUA;;Indonesia;;;;-49.024.299;1.406.284.453;https://maps.google.com/?cid=0x0:0x8d20396d6232aab2;
komplek housing;Pembangunan Perumahan;Oksingsing;"3JCM+CQ9, Oksibil - Iwur, Molbib Silibib, Distrik Pepera, Kabupaten Pegunungan Bintang, Papua 99573";"Oksibil - Iwur, Molbib Silibib, Distrik Pepera, Kabupaten Pegunungan Bintang";PAPUA;99573;Indonesia;;;;-49.289.586;1.406.344.783;https://maps.google.com/?cid=0x0:0x6166f060bbe1a498;
komplek housing;Kantor Pemerintah;Pos TNI kiwirok;"7PMV+WQM, Oknanggul, Kec. Kiwirok, Kabupaten Pegunungan Bintang, Papua 99574";"Oknanggul, Kec. Kiwirok, Kabupaten Pegunungan Bintang";PAPUA;99574;Indonesia;;;;-47.151.742;1.407.444.135;https://maps.google.com/?cid=0x0:0x5676af0ccc68d8b6;
komplek housing;Komplek perumahan;Okbifisil;"WJ9P+W8F, Tarangop, Kec. Kawor, Kabupaten Pegunungan Bintang, Papua";"Kabupaten Pegunungan Bintang, Papua";PAPUA;;Indonesia;;;;-5.080.177;140.635.803;https://maps.google.com/?cid=0x0:0x912c7d6e061b0e28;
komplek housing;Perhimpunan Pengembang Perumahan;Kampung waibron;"CGR7+CC3, Borban, Distrik Okbab, Kabupaten Pegunungan Bintang, Papua";"Kabupaten Pegunungan Bintang, Papua";PAPUA;;Indonesia;;;;-45.589.872;1.405.135.589;https://maps.google.com/?cid=0x0:0x695c8c898eaec775;
komplek housing;komplek housing;Okbemta;"Kabupaten Pegunungan Bintang, Papua";"Kabupaten Pegunungan Bintang, Papua";PAPUA;;Indonesia;;;;-44.740.931;1.407.208.989;https://maps.google.com/?cid=0x0:0x872bb79c2891d253;
komplek housing;Kantor Pemerintah;Pos TNI kiwirok;"7PMV+WQM, Oknanggul, Kec. Kiwirok, Kabupaten Pegunungan Bintang, Papua 99574";"Oknanggul, Kec. Kiwirok, Kabupaten Pegunungan Bintang";PAPUA;99574;Indonesia;;;;-47.151.742;1.407.444.135;https://maps.google.com/?cid=0x0:0x5676af0ccc68d8b6;
komplek housing;Komplek perumahan;Pos TNI PAMTAS;"7PPV+25J, Oknanggul, Kec. Kiwirok, Kabupaten Pegunungan Bintang, Papua";"Kabupaten Pegunungan Bintang, Papua";PAPUA;;Indonesia;;;;-47.149.075;1.407.428.764;https://maps.google.com/?cid=0x0:0xa58c88aa2aac0696;
komplek housing;Perhimpunan Pengembang Perumahan;Kampung waibron;"CGR7+CC3, Borban, Distrik Okbab, Kabupaten Pegunungan Bintang, Papua";"Kabupaten Pegunungan Bintang, Papua";PAPUA;;Indonesia;;;;-45.589.872;1.405.135.589;https://maps.google.com/?cid=0x0:0x695c8c898eaec775;
komplek housing;Komplek perumahan;Arimkubun;"CGR7+CC3, Borban, Arimkubun, Kabupaten Pegunungan Bintang, Papua";"Kabupaten Pegunungan Bintang, Papua";PAPUA;;Indonesia;;;;-45.589.872;1.405.135.589;https://maps.google.com/?cid=0x0:0x9d97f844b041254;
komplek housing;komplek housing;Distrik Okbab;"Kabupaten Pegunungan Bintang, Papua";"Kabupaten Pegunungan Bintang, Papua";PAPUA;;Indonesia;;;;-44.591.074;1.403.986.638;https://maps.google.com/?cid=0x0:0x230d9d286d136c26;
komplek housing;Komplek perumahan;Komplek Komas asime;"G69G+634, Bime, Distrik Bime, Kabupaten Pegunungan Bintang, Papua";"Kabupaten Pegunungan Bintang, Papua";PAPUA;;Indonesia;;;;-44.819.975;1.402.251.906;https://maps.google.com/?cid=0x0:0xc9205e26fd3af469;
komplek housing;Komplek perumahan;Bulangkop;"5JFV+96W, Bulangkop, Kec. Ok Aon, Kabupaten Pegunungan Bintang, Papua";"Kabupaten Pegunungan Bintang, Papua";PAPUA;;Indonesia;;;;-48.265.146;1.406.430.658;https://maps.google.com/?cid=0x0:0x400c749e09c8f88;
komplek housing;komplek housing;Papua 99576;"Kabupaten Pegunungan Bintang, Papua";"Kabupaten Pegunungan Bintang, Papua";PAPUA;;Indonesia;;;;-41.176.623;1.407.624.493;https://maps.google.com/?cid=0x0:0x9e236cdcf6328593;
komplek housing;komplek housing;Papua;;Papua;PAPUA;;Indonesia;;;;-4.269.928;1.380.803.529;https://maps.google.com/?cid=0x0:0xeba94e9c5eefe673;
komplek housing;komplek housing;Distrik Batani;"Kabupaten Pegunungan Bintang, Papua";"Kabupaten Pegunungan Bintang, Papua";PAPUA;;Indonesia;;;;-40.316.983;1.400.819.983;https://maps.google.com/?cid=0x0:0xe7564011ad7ca983;
komplek housing;Establishment;Ahzavi Residence Pondok Gede;"PW4J+JHQ, Jl. Celepuk I Ujung, RT.012/RW.014, Jatirahayu, Kec. Pd. Melati, Kota Bks, Jawa Barat 17414";"Jl. Celepuk I Ujung, RT.012/RW.014, Jatirahayu, Kec. Pd. Melati, Kota Bks";PAPUA;17414;Indonesia;;;;-62.934.194;1.069.314.803;https://maps.google.com/?cid=0x0:0x7b24a580738077da;
komplek housing;Komplek perumahan;Komplek DDN B.23 Jatiwaringin pondok gede;"PW89+4F3, Jl. Cendrawasih, RT.001/RW.010, Jatimakmur, Kec. Pd. Gede, Kota Bks, Jawa Barat 17413";"Jl. Cendrawasih, RT.001/RW.010, Jatimakmur, Kec. Pd. Gede, Kota Bks";PAPUA;17413;Indonesia;;;;-62.847.437;106.918.686;https://maps.google.com/?cid=0x0:0x7d3cc1ed6198c39d;
komplek housing;Kantor Perusahaan;Komplek Dephan Mabes TNI blok L;"Jl. Mawar Kuning, RT.003/RW.018, Jatimakmur, Kec. Pd. Gede, Kota Bks, Jawa Barat 17413";"RT.003/RW.018, Jatimakmur, Kec. Pd. Gede, Kota Bks";PAPUA;17413;Indonesia;;;;-62.886.833;1.069.326.937;https://maps.google.com/?cid=0x0:0xad4a22ed7581f15f;
komplek housing;Komplek perumahan;Komplek Abadi;"Jl. Kolonel Sugiono No.64, RT.5/RW.4, Duren Sawit, Kec. Duren Sawit, Kota Jakarta Timur, Daerah Khusus Ibukota Jakarta 13440";"RT.5/RW.4, Duren Sawit, Kec. Duren Sawit, Kota Jakarta Timur";PAPUA;13440;Indonesia;;;;-62.263.602;1.069.090.587;https://maps.google.com/?cid=0x0:0x411a933e73c7ea82;
komplek housing;Perumahan;Perumahan Lavana garden;"R2FH+MCH, Jl. Griya Asri Bahagia No.Blok F18, Bahagia, Kec. Babelan, Kabupaten Bekasi, Jawa Barat 17610";"Jl. Griya Asri Bahagia No.Blok F18, Bahagia, Kec. Babelan, Kabupaten Bekasi";PAPUA;17610;Indonesia;;;;-61.745.893;1.070.272.968;https://maps.google.com/?cid=0x0:0xf42d21236c661ad2;
komplek housing;Komplek perumahan;KOMPLEK KEMHAN/MABES TNI;"Komplek Kemhan/Mabes TNI, Jl. Raya Jati Makmur Jl. Mawarkuning No.K-102, RT./rw:/RW.005, 018, Jatimakmur, Kec. Pd. Gede, Kota Bks, Jawa Barat";"Kota Bks, Jawa Barat";PAPUA;;Indonesia;;;;-62.837.045;1.069.218.279;https://maps.google.com/?cid=0x0:0x2fd61e446e384499;
komplek housing;Komplek perumahan;Komplek TNI AL Jatibening Indah;"PWMV+XVF, Jl. Raya Panggung, Jatibening, Kec. Pd. Gede, Kota Bks, Jawa Barat 17412";"Jl. Raya Panggung, Jatibening, Kec. Pd. Gede, Kota Bks";PAPUA;17412;Indonesia;;;;-62.650.656;106.944.662;https://maps.google.com/?cid=0x0:0xc0eab5400d653076;
komplek housing;Pembangunan Perumahan;Perumahan Pondok Ungu Permai;"Jl. Raya Pd. Ungu Permai Melati 4 No.4 Blok B8, RT.002/RW.008, Kaliabang Tengah, Kec. Bekasi Utara, Kota Bks, Jawa Barat 17125";"RT.002/RW.008, Kaliabang Tengah, Kec. Bekasi Utara, Kota Bks";PAPUA;17125;Indonesia;;;;-61.764.808;1.070.012.361;https://maps.google.com/?cid=0x0:0x19c96507d85ecc28;
komplek housing;Komplek perumahan;Jalan flamboyan Komplek Hankam Mabes TNI;"PW5J+9P5, Jl. Flamboyan, RT.002/RW.018, Jatimakmur, Kec. Pd. Gede, Kota Bks, Jawa Barat 17413";"Jl. Flamboyan, RT.002/RW.018, Jatimakmur, Kec. Pd. Gede, Kota Bks";PAPUA;17413;Indonesia;;;;-62.916.175;1.069.318.605;https://maps.google.com/?cid=0x0:0x236b1d3aa830e640;
komplek housing;Otoritas Perumahan;"Pondok Hijau Permai, Bekasi Timur";"Jl. Pd. Hijau Permai No.19 Blok I 1, RT.003/RW.011, Pengasinan, Kec. Rawalumbu, Kota Bks, Jawa Barat 17115";"RT.003/RW.011, Pengasinan, Kec. Rawalumbu, Kota Bks";PAPUA;17115;Indonesia;;;;-62.642.114;107.012.676;https://maps.google.com/?cid=0x0:0xdeeb9eb5035a2d13;
komplek housing;Komplek perumahan;Perumahan Sukamekar Regency jl tulip;"Perumahan jl tulip No.7, Sukamekar, Kec. Sukawangi, Kabupaten Bekasi, Jawa Barat 17620";"Sukamekar, Kec. Sukawangi, Kabupaten Bekasi";PAPUA;17620;Indonesia;085217816723;;;-61.592.578;1.070.494.817;https://maps.google.com/?cid=0x0:0x887e267912b51530;
komplek housing;Komplek perumahan;Mawar Tamansari Residence 2;"J2H8+PGC, Taman Sari, Kec. Setu, Kabupaten Bekasi, Jawa Barat";"Kabupaten Bekasi, Jawa Barat";PAPUA;;Indonesia;085215033538;;;-63.707.353;1.070.162.582;https://maps.google.com/?cid=0x0:0x9f244b8646b408a6;
komplek housing;komplek housing;Distrik Weime;"Kabupaten Pegunungan Bintang, Papua";"Kabupaten Pegunungan Bintang, Papua";PAPUA;;Indonesia;;;;-43.975.064;1.402.862.819;https://maps.google.com/?cid=0x0:0x3dfe9a068b232231;
komplek housing;Pengembang Realestat;Puri Harmoni Kertamukti;"Jl. Ir Soekarno-Hatta, Kertamukti, Kec. Cibitung, Kabupaten Bekasi, Jawa Barat 17520";"Kertamukti, Kec. Cibitung, Kabupaten Bekasi";PAPUA;17520;Indonesia;081299886807;;;-62.266.081;1.071.126.853;https://maps.google.com/?cid=0x0:0x61ccf131a58fa4dd;
komplek housing;Komplek perumahan;Vertihauz Jatisampurna;"Jl. Pabuaran Blok Ridho No.42, RT.006/RW.001, Jatiranggon, Kec. Jatisampurna, Kota Bks, Jawa Barat 17432";"RT.006/RW.001, Jatiranggon, Kec. Jatisampurna, Kota Bks";PAPUA;17432;Indonesia;;;;-63.420.994;1.069.339.318;https://maps.google.com/?cid=0x0:0x315e3e8e71c51e2a;
komplek housing;Pembangunan Perumahan;Vertihauz Limo 2;"VERTIHUZ LIMO Jl. Naman Iskandar No.2, Limo, Depok City, West Java 16515";"Limo, Depok City";PAPUA;16515;Indonesia;;;;-63.602.805;1.067.786.825;https://maps.google.com/?cid=0x0:0xfc7a5ba3bc87202c;
komplek housing;Komplek perumahan;Mutiara gading;"Ruko Pasadena, Jl. Mutiara Gading City No.18, Babelan Kota, Kec. Babelan, Kabupaten Bekasi, Jawa Barat 17610";"Jl. Mutiara Gading City No.18, Babelan Kota, Kec. Babelan, Kabupaten Bekasi";PAPUA;17610;Indonesia;;;;-61.593.859;107.009.945;https://maps.google.com/?cid=0x0:0xdbb85d524ebe9406;
komplek housing;Komplek perumahan;Bekasi Timur Regensi 7;"Jl. BTR 7 Raya, Burangkeng, Kec. Setu, Kabupaten Bekasi, Jawa Barat 17320";"Burangkeng, Kec. Setu, Kabupaten Bekasi";PAPUA;17320;Indonesia;;;;-63.283.991;1.070.207.633;https://maps.google.com/?cid=0x0:0x96866c38eae92c61;
komplek housing;Komplek perumahan;Vertihauz Pekayon;"Jl. Kp. Benda No.49, RT.006/RW.006, Jatirasa, Kec. Jatiasih, Kota Bks, Jawa Barat 17424";"RT.006/RW.006, Jatirasa, Kec. Jatiasih, Kota Bks";PAPUA;17424;Indonesia;;;;-62.824.486;1.069.733.579;https://maps.google.com/?cid=0x0:0xb11c509a22c9ba92;
komplek housing;komplek housing;Murkim;"Kabupaten Pegunungan Bintang, Papua";"Kabupaten Pegunungan Bintang, Papua";PAPUA;;Indonesia;;;;-40.028.727;1.407.416.707;https://maps.google.com/?cid=0x0:0x9771017657678e7d;
komplek housing;Komplek perumahan;TERPONES;"2MG5+JC6, Lulis, Kec. Yefta, Kabupaten Pegunungan Bintang, Papua 99576";"Lulis, Kec. Yefta, Kabupaten Pegunungan Bintang";PAPUA;99576;Indonesia;;;;-39.729.291;1.406.593.839;https://maps.google.com/?cid=0x0:0x211ddd1e546bf856;
komplek housing;Sekolah Dasar;TOWE HITAM;"3Q9C+J9, Usku, Senggi, Kabupaten Keerom, Papua";"Kabupaten Keerom, Papua";PAPUA;;Indonesia;;;;-3.930.924;140.770.979;https://maps.google.com/?cid=0x0:0x7fb3bec5ca4d8441;
komplek housing;Komplek perumahan;Komplek Raya Housing/Molek Blok B No. 4;"PW95+CQ7, Jl. Raya Housing, RT.006/RW.011, Jatiwaringin, Kec. Pd. Gede, Kota Bks, Jawa Barat 17411";"Jl. Raya Housing, RT.006/RW.011, Jatiwaringin, Kec. Pd. Gede, Kota Bks";PAPUA;17411;Indonesia;;;;-62.814.591;106.909.408;https://maps.google.com/?cid=0x0:0x47a4e28e626334ff;
komplek housing;Komplek perumahan;Perumahan Kyra Residence 3 kantor pemasaran;"Jl. Gudang Bin Ali, Bahagia, Kec. Babelan, Kabupaten Bekasi, Jawa Barat 17610";"Bahagia, Kec. Babelan, Kabupaten Bekasi";PAPUA;17610;Indonesia;082112762916;;;-61.945.388;1.070.274.494;https://maps.google.com/?cid=0x0:0x3874af9c9c530e23;
komplek housing;Komplek perumahan;ALEESHA RESIDENCE;"PXQH+HVG, Jl. Cendrawasih IV, RT.008/RW.012, Pekayon Jaya, Kec. Bekasi Sel., Kota Bks, Jawa Barat 17148";"Jl. Cendrawasih IV, RT.008/RW.012, Pekayon Jaya, Kec. Bekasi Sel., Kota Bks";PAPUA;17148;Indonesia;;;;-62.610.503;1.069.797.041;https://maps.google.com/?cid=0x0:0xb00936b9294ab24a;
komplek housing;Pembangunan Perumahan;Perumahan Bekasi Timur regency;"Bekasi Timur Regency, Perumahan Jl. Murai 3 No.27 blok H7, Cimuning, Kec. Mustika Jaya, Kota Bks, Jawa Barat 17151";"Perumahan Jl. Murai 3 No.27 blok H7, Cimuning, Kec. Mustika Jaya, Kota Bks";PAPUA;17151;Indonesia;;;;-63.272.098;1.070.154.304;https://maps.google.com/?cid=0x0:0x361d2c8e85e3eb75;
komplek housing;Perumahan;Perumahan Mutiara Gading City;"Cluster Madrid Perumahan Jl. Mutiara Gading City Blok Q09 No.56, Kedungjaya, Kec. Babelan, Kabupaten Bekasi, Jawa Barat";"Kabupaten Bekasi, Jawa Barat";PAPUA;;Indonesia;;;;-61.374.713;1.070.177.592;https://maps.google.com/?cid=0x0:0x5d240b57db5167ef;
komplek housing;komplek housing;Perumahan;"Perumahan Jl. Alinda II No.9 blok c3, RT.06/RW.027, Kaliabang Tengah, Kec. Bekasi Utara, Kota Bks, Jawa Barat 17125";"RT.06/RW.027, Kaliabang Tengah, Kec. Bekasi Utara, Kota Bks";PAPUA;17125;Indonesia;;;;-6.196.398;1.070.108.123;https://maps.google.com/?cid=0x0:0x717d52c2e715063b;
komplek housing;Komplek perumahan;RUMAH 2 LANTAI JATIASIH BEKASI;"Jl Kelurahan, RT.001/RW.002, Jatiluhur, Kec. Jatiasih, Kota Bks, Jawa Barat 17425";"RT.001/RW.002, Jatiluhur, Kec. Jatiasih, Kota Bks";PAPUA;17425;Indonesia;081387834545;;;-63.213.723;1.069.562.685;https://maps.google.com/?cid=0x0:0xf014845a68dd8998;
komplek housing;komplek housing;Kampung Tual;"PV7P+GX4, Kampung Tual, Distrik Mofinop, Kabupaten Pegunungan Bintang, Papua 99576";"Kampung Tual, Distrik Mofinop, Kabupaten Pegunungan Bintang";PAPUA;99576;Indonesia;;;;-42.862.314;1.408.874.525;https://maps.google.com/?cid=0x0:0x3048e1426ceafafe;
komplek housing;komplek housing;Distrik Mofinop;"Kabupaten Pegunungan Bintang, Papua";"Kabupaten Pegunungan Bintang, Papua";PAPUA;;Indonesia;;;;-40.924.047;1.408.872.648;https://maps.google.com/?cid=0x0:0x3a52071e7d49136a;
komplek housing;komplek housing;Kec. Yefta;"Kabupaten Pegunungan Bintang, Papua";"Kabupaten Pegunungan Bintang, Papua";PAPUA;;Indonesia;;;;-40.581.184;1.405.756.887;https://maps.google.com/?cid=0x0:0xf9d52738f42277c5;
komplek housing;Komplek perumahan;TERPONES;"2MG5+JC6, Lulis, Kec. Yefta, Kabupaten Pegunungan Bintang, Papua 99576";"Lulis, Kec. Yefta, Kabupaten Pegunungan Bintang";PAPUA;99576;Indonesia;;;;-39.729.291;1.406.593.839;https://maps.google.com/?cid=0x0:0x211ddd1e546bf856;
komplek housing;Komplek perumahan;Kampung Pris;"XJ74+PPR, Bris, Kec. Yefta, Kabupaten Pegunungan Bintang, Papua";"Kabupaten Pegunungan Bintang, Papua";PAPUA;;Indonesia;;;;-40.356.335;1.406.067.768;https://maps.google.com/?cid=0x0:0xe2e07fd250dfd776;
komplek housing;Perhimpunan Pengembang Perumahan;Kalimbu Palolo;"WHM8+Q44, Kalimbu, Palolo, Kabupaten Pegunungan Bintang, Papua 99572";"Kalimbu, Palolo, Kabupaten Pegunungan Bintang";PAPUA;99572;Indonesia;;;;-40.656.117;1.405.653.294;https://maps.google.com/?cid=0x0:0x6ddc1c2415d96874;
komplek housing;Sekolah Dasar;TOWE HITAM;"3Q9C+J9, Usku, Senggi, Kabupaten Keerom, Papua";"Kabupaten Keerom, Papua";PAPUA;;Indonesia;;;;-3.930.924;140.770.979;https://maps.google.com/?cid=0x0:0x7fb3bec5ca4d8441;
komplek housing;Komplek perumahan;Pondok Gede Housing II;"Housing II, Jl. Raya Hankam, RT.001/RW.004, Jatirahayu, Pondok Gede, Bekasi, West Java";"Kota Bks, Jawa Barat";PAPUA;;Indonesia;;;;-62.876.701;1.069.147.674;https://maps.google.com/?cid=0x0:0x2a52e601c20d18f2;
komplek housing;Pembangunan Perumahan;CLUSTER PERMATA ZAHRA RESIDENCE OFFICIAL;"Jl. H. Tari, Taman Rahayu, Kec. Setu, Kabupaten Bekasi, Jawa Barat 17320";"Taman Rahayu, Kec. Setu, Kabupaten Bekasi";PAPUA;17320;Indonesia;082328058020;;;-6.372.338;107.005.356;https://maps.google.com/?cid=0x0:0x59e819bbe55c5da2;
komplek housing;Agen Properti;ZARA RESIDENCE 2;"J3V3+JWF, Cibening, Kec. Setu, Kabupaten Bekasi, Jawa Barat 17320";"Cibening, Kec. Setu, Kabupaten Bekasi";PAPUA;17320;Indonesia;02129608332;;;-63.555.552;1.070.551.536;https://maps.google.com/?cid=0x0:0xe4a9dde58e7b0e04;
komplek housing;Perhimpunan Pengembang Perumahan;D'Golden Village;"J2RG+9QH, Jl. Awirarangan, Taman Sari, Kec. Setu, Kabupaten Bekasi, Jawa Barat 17320";"Jl. Awirarangan, Taman Sari, Kec. Setu, Kabupaten Bekasi";PAPUA;17320;Indonesia;081584338050;;;-63.591.545;1.070.269.075;https://maps.google.com/?cid=0x0:0x3db3ac46334b9ebf;
komplek housing;Komplek perumahan;TERPONES;"2MG5+JC6, Lulis, Kec. Yefta, Kabupaten Pegunungan Bintang, Papua 99576";"Lulis, Kec. Yefta, Kabupaten Pegunungan Bintang";PAPUA;99576;Indonesia;;;;-39.729.291;1.406.593.839;https://maps.google.com/?cid=0x0:0x211ddd1e546bf856;
komplek housing;komplek housing;Papua 99572;"Kabupaten Pegunungan Bintang, Papua";"Kabupaten Pegunungan Bintang, Papua";PAPUA;;Indonesia;;;;-43.578.129;1.404.308.159;https://maps.google.com/?cid=0x0:0x3d3d35db4afd3dc1;
komplek housing;Komplek perumahan;Kampung Pris;"XJ74+PPR, Bris, Kec. Yefta, Kabupaten Pegunungan Bintang, Papua";"Kabupaten Pegunungan Bintang, Papua";PAPUA;;Indonesia;;;;-40.356.335;1.406.067.768;https://maps.google.com/?cid=0x0:0xe2e07fd250dfd776;
komplek housing;Perhimpunan Pengembang Perumahan;Manrten simalya;"CGR7+CC3, Borban, Distrik Okbab, Kabupaten Pegunungan Bintang, Papua";"Kabupaten Pegunungan Bintang, Papua";PAPUA;;Indonesia;;;;-45.589.872;1.405.135.589;https://maps.google.com/?cid=0x0:0x2288c4339c62777e;
komplek housing;Perhimpunan Pengembang Perumahan;Kalimbu Palolo;"WHM8+Q44, Kalimbu, Palolo, Kabupaten Pegunungan Bintang, Papua 99572";"Kalimbu, Palolo, Kabupaten Pegunungan Bintang";PAPUA;99572;Indonesia;;;;-40.656.117;1.405.653.294;https://maps.google.com/?cid=0x0:0x6ddc1c2415d96874;
komplek housing;komplek housing;Pelabuhan Lama Kali Lulis;"WJ22+6Q, Lulis, Aboy, Kabupaten Pegunungan Bintang, Papua";"Kabupaten Pegunungan Bintang, Papua";PAPUA;;Indonesia;;;;-40.993.753;1.406.019.789;https://maps.google.com/?cid=0x0:0x74eeab5f4b1a8543;
komplek housing;Kompleks Townhouse;Pakubuwono Town House Telajung;"Pakubuwono Town House, Telajung, Kec. Cikarang Bar., Kabupaten Bekasi, Jawa Barat 17530";"Telajung, Kec. Cikarang Bar., Kabupaten Bekasi";PAPUA;17530;Indonesia;088212627395;;;-63.402.618;1.070.536.468;https://maps.google.com/?cid=0x0:0x7710a6ba0105b282;
komplek housing;Pembangunan Perumahan;Perumahan Villa Mutiara;"Jl. Mirah Raya Blk. W-AW No.4, Sawah Baru, Kec. Ciputat, Kota Tangerang Selatan, Banten 15413";"Sawah Baru, Kec. Ciputat, Kota Tangerang Selatan";PAPUA;15413;Indonesia;;;;-62.972.435;1.067.210.888;https://maps.google.com/?cid=0x0:0x9c97803849419901;
komplek housing;komplek housing;Perumahan;"Perumahan Jl. Alinda II No.9 blok c3, RT.06/RW.027, Kaliabang Tengah, Kec. Bekasi Utara, Kota Bks, Jawa Barat 17125";"RT.06/RW.027, Kaliabang Tengah, Kec. Bekasi Utara, Kota Bks";PAPUA;17125;Indonesia;;;;-6.196.398;1.070.108.123;https://maps.google.com/?cid=0x0:0x717d52c2e715063b;
komplek housing;Komplek perumahan;Perumahan Sapta Villa;"Jl. Sirojul Munir, Pakansari, Kec. Cibinong, Kabupaten Bogor, Jawa Barat 16915";"Pakansari, Kec. Cibinong, Kabupaten Bogor";PAPUA;16915;Indonesia;081270090101;;;-64.965.869;1.068.221.036;https://maps.google.com/?cid=0x0:0xba4d343ee861af86;
komplek housing;Perumahan;Bamboo Prime Residence;"Bambu Apus, Kec. Pamulang, Kota Tangerang Selatan, Banten 15415";"Kec. Pamulang, Kota Tangerang Selatan";PAPUA;15415;Indonesia;081319620006;;;-63.303.692;1.067.249.788;https://maps.google.com/?cid=0x0:0xfa37e412cf1ab783;
komplek housing;Komplek perumahan;Perumahan Kyra Residence 3 kantor pemasaran;"Jl. Gudang Bin Ali, Bahagia, Kec. Babelan, Kabupaten Bekasi, Jawa Barat 17610";"Bahagia, Kec. Babelan, Kabupaten Bekasi";PAPUA;17610;Indonesia;082112762916;;;-61.945.388;1.070.274.494;https://maps.google.com/?cid=0x0:0x3874af9c9c530e23;
komplek housing;komplek housing;Urbantown Serpong;"MPJ7+FFH, Jl. Raya Bukit Sarua, Serua, Kec. Ciputat, Kota Tangerang Selatan, Banten 15414";"Jl. Raya Bukit Sarua, Serua, Kec. Ciputat, Kota Tangerang Selatan";PAPUA;15414;Indonesia;081514241795;;;-63.192.611;1.067.135.857;https://maps.google.com/?cid=0x0:0x4f84dfdc6dbe59d5;
komplek housing;Kebun Binatang;Taman Margasatwa Ragunan;"Jl. Harsono Rm Dalam No.1, Ragunan, Ps. Minggu, Kota Jakarta Selatan, Daerah Khusus Ibukota Jakarta 12550";"Ragunan, Ps. Minggu, Kota Jakarta Selatan";PAPUA;12550;Indonesia;02178847114;;;-63.059.887;106.820.353;https://maps.google.com/?cid=0x0:0xf9dd2a3f5ab5069a;
komplek housing;Perhentian bus;Sudimara;"Jl. Jombang Raya No.37, Jombang, Kec. Ciputat, Kota Tangerang Selatan, Banten 15414";"Jombang, Kec. Ciputat, Kota Tangerang Selatan";PAPUA;15414;Indonesia;;;;-62.969.768;1.067.127.696;https://maps.google.com/?cid=0x0:0x222f1efa5bcb2d4a;
komplek housing;Komplek perumahan;Cluster Kyra Taruma Jaya;"VX5X+R3V, Jl. Pahlawan Setia, Pahlawan Setia, Kec. Tarumajaya, Kabupaten Bekasi, Jawa Barat 17216";"Jl. Pahlawan Setia, Pahlawan Setia, Kec. Tarumajaya, Kabupaten Bekasi";PAPUA;17216;Indonesia;089655979719;;;-61.403.838;1.069.976.826;https://maps.google.com/?cid=0x0:0x39d254a570c4a3dd;
komplek housing;Komplek perumahan;Jagakarsa Signature;"No.38JagakarsaKec, Jl. Raya Jagakarsa No.38, Jagakarsa, Kec. Jagakarsa, Kota Jakarta Selatan, Daerah Khusus Ibukota Jakarta 12620";"Jl. Raya Jagakarsa No.38, Jagakarsa, Kec. Jagakarsa, Kota Jakarta Selatan";PAPUA;12620;Indonesia;081288850038;;;-63.272.381;1.068.143.868;https://maps.google.com/?cid=0x0:0x4215443281912720;
komplek housing;Kompleks Apartemen;PERMATA HIJAU SUITES TOWER;"Jl. Bang Pitung No.55, Grogol Utara, Kec. Kby. Lama, Kota Jakarta Selatan, Daerah Khusus Ibukota Jakarta 12210";"Grogol Utara, Kec. Kby. Lama, Kota Jakarta Selatan";PAPUA;12210;Indonesia;02153669600;;;-6.212.319;1.067.840.397;https://maps.google.com/?cid=0x0:0x15d37cb593f58fd8;
komplek housing;komplek housing;Apartment Patra Land Urbano;"Jl. Pintu Air No.29, Marga Mulya, Kec. Bekasi Utara, Kota Bks, Jawa Barat 17142";"Marga Mulya, Kec. Bekasi Utara, Kota Bks";PAPUA;17142;Indonesia;0895417300072;;;-62.345.585;1.069.980.497;https://maps.google.com/?cid=0x0:0xf8e2a2ed3cd1b20b;
komplek housing;Museum;Taman Mini Indonesia Indah;"Jl. Taman Mini Indonesia Indah, Ceger, Kec. Cipayung, Kota Jakarta Timur, Daerah Khusus Ibukota Jakarta 13820";"Ceger, Kec. Cipayung, Kota Jakarta Timur";PAPUA;13820;Indonesia;08041789789;;;-63.020.386;1.068.898.924;https://maps.google.com/?cid=0x0:0x73127b9ecf2da0c;
komplek housing;Perusahaan Kereta Api;Bekasi;"Marga Mulya, Kec. Bekasi Utara, Kota Bks, Jawa Barat";"Kota Bks, Jawa Barat";PAPUA;;Indonesia;;;;-623.646;10.699.877;https://maps.google.com/?cid=0x0:0x6ad4a999fff63886;
komplek housing;Restoran;Ujung Harapan Bekasi;"R25G+5W7, Jl. Gudang Bin Ali, Bahagia, Kec. Babelan, Kabupaten Bekasi, Jawa Barat 17610";"Jl. Gudang Bin Ali, Bahagia, Kec. Babelan, Kabupaten Bekasi";PAPUA;17610;Indonesia;089654506920;;;-61.920.875;1.070.273.035;https://maps.google.com/?cid=0x0:0xf592b4c11aa556f4;
komplek housing;komplek housing;Distrik Epumek;"Kabupaten Pegunungan Bintang, Papua";"Kabupaten Pegunungan Bintang, Papua";PAPUA;;Indonesia;;;;-44.168.435;1.400.803.953;https://maps.google.com/?cid=0x0:0xfae5de68ea47222c;
komplek housing;Komplek perumahan;Kampung Imde;"JXCX+87Q, Imde, Distrik Pamek, Kabupaten Pegunungan Bintang, Papua";"Kabupaten Pegunungan Bintang, Papua";PAPUA;;Indonesia;;;;-43.791.595;139.998.236;https://maps.google.com/?cid=0x0:0x8c1c589db27098a1;
komplek housing;Perhimpunan Pengembang Perumahan;Wakidam;"G36C+72X, Wakidam, Distrik Epumek, Kabupaten Pegunungan Bintang, Papua 99577";"Wakidam, Distrik Epumek, Kabupaten Pegunungan Bintang";PAPUA;99577;Indonesia;;;;-44.892.524;1.400.701.193;https://maps.google.com/?cid=0x0:0xefb747cba1414959;
komplek housing;Perhimpunan Pengembang Perumahan;Elia Mirin;"G2VC+5WV, Eipomek, Distrik Epumek, Kabupaten Pegunungan Bintang, Papua 99577";"Eipomek, Distrik Epumek, Kabupaten Pegunungan Bintang";PAPUA;99577;Indonesia;;;;-44.570.032;1.400.222.993;https://maps.google.com/?cid=0x0:0x6f1f06308fd24752;
komplek housing;Komplek perumahan;Komplek Komas asime;"G69G+634, Bime, Distrik Bime, Kabupaten Pegunungan Bintang, Papua";"Kabupaten Pegunungan Bintang, Papua";PAPUA;;Indonesia;;;;-44.819.975;1.402.251.906;https://maps.google.com/?cid=0x0:0xc9205e26fd3af469;
komplek housing;Komplek perumahan;Kampung Turwe;"G66C+58, Bime, Distrik Bime, Kabupaten Pegunungan Bintang, Papua";"Kabupaten Pegunungan Bintang, Papua";PAPUA;;Indonesia;;;;-44.894.746;1.402.208.627;https://maps.google.com/?cid=0x0:0x8a80710961d553b1;
komplek housing;Komplek perumahan;Kampung Tely;"G69G+634, Bime, Distrik Bime, Kabupaten Pegunungan Bintang, Papua";"Kabupaten Pegunungan Bintang, Papua";PAPUA;;Indonesia;;;;-44.819.975;1.402.251.906;https://maps.google.com/?cid=0x0:0xb8309a16ae579c3;
komplek housing;Pembangunan Perumahan;Kampung Purjo;"F6XP+9G, Bime, Distrik Bime, Kabupaten Pegunungan Bintang, Papua";"Kabupaten Pegunungan Bintang, Papua";PAPUA;;Indonesia;;;;-4.501.451;1.402.361.894;https://maps.google.com/?cid=0x0:0xe344645bd09e192d;
komplek housing;komplek housing;Distrik Pamek;"Kabupaten Pegunungan Bintang, Papua";"Kabupaten Pegunungan Bintang, Papua";PAPUA;;Indonesia;;;;-43.791.595;139.998.236;https://maps.google.com/?cid=0x0:0xed125e3af8269928;
komplek housing;Perhimpunan Pengembang Perumahan;Wakidam;"G36C+72X, Wakidam, Distrik Epumek, Kabupaten Pegunungan Bintang, Papua 99577";"Wakidam, Distrik Epumek, Kabupaten Pegunungan Bintang";PAPUA;99577;Indonesia;;;;-44.892.524;1.400.701.193;https://maps.google.com/?cid=0x0:0xefb747cba1414959;
komplek housing;Perhimpunan Pengembang Perumahan;Elia Mirin;"G2VC+5WV, Eipomek, Distrik Epumek, Kabupaten Pegunungan Bintang, Papua 99577";"Eipomek, Distrik Epumek, Kabupaten Pegunungan Bintang";PAPUA;99577;Indonesia;;;;-44.570.032;1.400.222.993;https://maps.google.com/?cid=0x0:0x6f1f06308fd24752;
komplek housing;komplek housing;Papua 99576;"Kabupaten Pegunungan Bintang, Papua";"Kabupaten Pegunungan Bintang, Papua";PAPUA;;Indonesia;;;;-41.176.623;1.407.624.493;https://maps.google.com/?cid=0x0:0x9e236cdcf6328593;
komplek housing;Pembangunan Perumahan;Kampunf NDONBEY;"2XJ2+5R5, Dindey, Kec. Warmare, Kabupaten Manokwari, Papua Bar.";"Kabupaten Manokwari, Papua Bar.";PAPUA;;Indonesia;;;;-0.9696027;1.339.521.224;https://maps.google.com/?cid=0x0:0x1f22aa471cc2d17f;
komplek housing;komplek housing;"FzRaaMWGLqCQnesP7LS62QU-,null,null,1,null,""https://www.google.com/maps/preview/place/Rumah+Meilin/@-2.44565,117.8888,3986a,13.1y/datau003d!4m2!3m1!1s0x686cef953856aa87:0x70cb59bcf14deab7""";;;PAPUA;;Indonesia;081344831826;;;-244.565;1.178.888;https://maps.google.com/?cid=0x0:0x70cb59bcf14deab7;
perumahan;Komplek perumahan;Okbifisil;"WJ9P+W8F, Tarangop, Kec. Kawor, Kabupaten Pegunungan Bintang, Papua";"Kabupaten Pegunungan Bintang, Papua";PAPUA;;Indonesia;;;;-5.080.177;140.635.803;https://maps.google.com/?cid=0x0:0x912c7d6e061b0e28;
perumahan;perumahan;Oksibil;"Tarangop, Kec. Kawor, Kabupaten Pegunungan Bintang, Papua";"Kabupaten Pegunungan Bintang, Papua";PAPUA;;Indonesia;;;;-5.080.177;140.635.803;https://maps.google.com/?cid=0x0:0xf18d2b627917ee12;
perumahan;Komplek perumahan;Koramil Oksibil pegunungan bintang;"WJ9P+W8F Koramil, Tarangop, Kec. Kawor, Kabupaten Pegunungan Bintang, Papua";"Kabupaten Pegunungan Bintang, Papua";PAPUA;;Indonesia;;;;-5.080.177;140.635.803;https://maps.google.com/?cid=0x0:0x5c996a7ac71c1c2a;
perumahan;perumahan;Kec. Kiwirok;"Kabupaten Pegunungan Bintang, Papua";"Kabupaten Pegunungan Bintang, Papua";PAPUA;;Indonesia;;;;-47.151.742;1.407.444.135;https://maps.google.com/?cid=0x0:0xfa9674635b933b35;
perumahan;perumahan;"Delpem,Pegunungan Bintang,Papua,Indonesia";"8P2Q+V7, Kiwi, Kec. Kiwirok, Kabupaten Pegunungan Bintang, Papua";"Kabupaten Pegunungan Bintang, Papua";PAPUA;;Indonesia;;;;-46.975.286;1.407.383.683;https://maps.google.com/?cid=0x0:0x65d550938e3f142a;
perumahan;Kantor Pemerintah;Pos TNI kiwirok;"7PMV+WQM, Oknanggul, Kec. Kiwirok, Kabupaten Pegunungan Bintang, Papua 99574";"Oknanggul, Kec. Kiwirok, Kabupaten Pegunungan Bintang";PAPUA;99574;Indonesia;;;;-47.151.742;1.407.444.135;https://maps.google.com/?cid=0x0:0x5676af0ccc68d8b6;
perumahan;Landasan Pacu;Bandar Udara Kiwirok;"7PPR+H3V, Oknanggul, Kec. Kiwirok, Kabupaten Pegunungan Bintang, Papua 99574";"Oknanggul, Kec. Kiwirok, Kabupaten Pegunungan Bintang";PAPUA;99574;Indonesia;;;;-47.135.108;1.407.401.754;https://maps.google.com/?cid=0x0:0x9a9ff19978c02dc1;
perumahan;perumahan;Okbi;"Kabupaten Pegunungan Bintang, Papua";"Kabupaten Pegunungan Bintang, Papua";PAPUA;;Indonesia;;;;-46.040.293;1.404.514.913;https://maps.google.com/?cid=0x0:0x5eafc8bf76c1656f;
perumahan;Komplek perumahan;Arimkubun;"CGR7+CC3, Borban, Arimkubun, Kabupaten Pegunungan Bintang, Papua";"Kabupaten Pegunungan Bintang, Papua";PAPUA;;Indonesia;;;;-45.589.872;1.405.135.589;https://maps.google.com/?cid=0x0:0x9d97f844b041254;
perumahan;Perhimpunan Pengembang Perumahan;Kampung waibron;"CGR7+CC3, Borban, Distrik Okbab, Kabupaten Pegunungan Bintang, Papua";"Kabupaten Pegunungan Bintang, Papua";PAPUA;;Indonesia;;;;-45.589.872;1.405.135.589;https://maps.google.com/?cid=0x0:0x695c8c898eaec775;
perumahan;Perhimpunan Pengembang Perumahan;Desa Bumbakon;"892C+876, Mimin, Kec. Oksop, Kabupaten Pegunungan Bintang, Papua 99572";"Mimin, Kec. Oksop, Kabupaten Pegunungan Bintang";PAPUA;99572;Indonesia;;;;-46.992.388;1.403.706.582;https://maps.google.com/?cid=0x0:0x40ba7704e5bf8f8a;
perumahan;perumahan;Distrik Batom;"Kabupaten Pegunungan Bintang, Papua";"Kabupaten Pegunungan Bintang, Papua";PAPUA;;Indonesia;;;;-44.466.638;1.408.794.807;https://maps.google.com/?cid=0x0:0x7c87b0b13ca08fe;
perumahan;Perhimpunan Pengembang Perumahan;Kampung Batom Dua;"GVXG+QP, Batom 2, Distrik Batom, Kabupaten Pegunungan Bintang, Papua";"Kabupaten Pegunungan Bintang, Papua";PAPUA;;Indonesia;;;;-4.450.425;1.408.768.116;https://maps.google.com/?cid=0x0:0x814cc5374c64e823;
perumahan;Perhimpunan Pengembang Perumahan;Kamoung Batom satu;"HV3J+XQ, Batom, Distrik Batom, Kabupaten Pegunungan Bintang, Papua 99574";"Batom, Distrik Batom, Kabupaten Pegunungan Bintang";PAPUA;99574;Indonesia;;;;-44.456.943;1.408.808.589;https://maps.google.com/?cid=0x0:0x75589023cd2e6ee0;
perumahan;Perhimpunan Pengembang Perumahan;ABUKEROM;"MW5X+JW6, Abukerom, Distrik Batom, Kabupaten Pegunungan Bintang, Papua";"Kabupaten Pegunungan Bintang, Papua";PAPUA;;Indonesia;;;;-43.409.643;1.409.497.647;https://maps.google.com/?cid=0x0:0xaaf9f4eb2a0c2fed;
perumahan;perumahan;Kampung Tual;"PV7P+GX4, Kampung Tual, Distrik Mofinop, Kabupaten Pegunungan Bintang, Papua 99576";"Kampung Tual, Distrik Mofinop, Kabupaten Pegunungan Bintang";PAPUA;99576;Indonesia;;;;-42.862.314;1.408.874.525;https://maps.google.com/?cid=0x0:0x3048e1426ceafafe;
perumahan;Komplek perumahan;Calon Desa Dekitamur;"M6MR+5RX, Dekitamur, Distrik Weime, Kabupaten Pegunungan Bintang, Papua";"Kabupaten Pegunungan Bintang, Papua";PAPUA;;Indonesia;;;;-4.317.019;1.402.421.056;https://maps.google.com/?cid=0x0:0x657bc1de00262af0;
perumahan;perumahan;Borme;"Kabupaten Pegunungan Bintang, Papua";"Kabupaten Pegunungan Bintang, Papua";PAPUA;;Indonesia;;;;-43.227.031;1.403.894.858;https://maps.google.com/?cid=0x0:0x3ae0f9e7e82ab112;
perumahan;Taman;Kampung Teirame;"2C5V+98, Teriame, Teiraplu, Kabupaten Pegunungan Bintang, Papua";"Kabupaten Pegunungan Bintang, Papua";PAPUA;;Indonesia;;;;-3.991.582;1.404.433.313;https://maps.google.com/?cid=0x0:0x3b1ffe60386a1b39;
perumahan;Perhimpunan Pengembang Perumahan;Posko KKN UGR angkatan 23;"R8MQ+R49, Semban, Borme, Kabupaten Pegunungan Bintang, Papua";"Kabupaten Pegunungan Bintang, Papua";PAPUA;;Indonesia;085937413919;;;-41.654.724;1.403.378.622;https://maps.google.com/?cid=0x0:0xf2431d65ab934d4d;
perumahan;Komplek perumahan;Kampung Botorgon;"J6MH+RR4, Nomteren, Dekitamur, Kabupaten Pegunungan Bintang, Papua 99577";"Nomteren, Dekitamur, Kabupaten Pegunungan Bintang";PAPUA;99577;Indonesia;;;;-43.654.794;1.402.295.937;https://maps.google.com/?cid=0x0:0x88729fde2b8a1738;
perumahan;Pembangunan Perumahan;Kampung Purjo;"F6XP+9G, Bime, Distrik Bime, Kabupaten Pegunungan Bintang, Papua";"Kabupaten Pegunungan Bintang, Papua";PAPUA;;Indonesia;;;;-4.501.451;1.402.361.894;https://maps.google.com/?cid=0x0:0xe344645bd09e192d;
perumahan;Kantor Pemerintah;Pos TNI kiwirok;"7PMV+WQM, Oknanggul, Kec. Kiwirok, Kabupaten Pegunungan Bintang, Papua 99574";"Oknanggul, Kec. Kiwirok, Kabupaten Pegunungan Bintang";PAPUA;99574;Indonesia;;;;-47.151.742;1.407.444.135;https://maps.google.com/?cid=0x0:0x5676af0ccc68d8b6;
perumahan;Komplek perumahan;Pos TNI PAMTAS;"7PPV+25J, Oknanggul, Kec. Kiwirok, Kabupaten Pegunungan Bintang, Papua";"Kabupaten Pegunungan Bintang, Papua";PAPUA;;Indonesia;;;;-47.149.075;1.407.428.764;https://maps.google.com/?cid=0x0:0xa58c88aa2aac0696;
perumahan;perumahan;Papua 99572;"Kabupaten Pegunungan Bintang, Papua";"Kabupaten Pegunungan Bintang, Papua";PAPUA;;Indonesia;;;;-43.578.129;1.404.308.159;https://maps.google.com/?cid=0x0:0x3d3d35db4afd3dc1;
perumahan;perumahan;Amase;"QHJ6+XQX, Amase, Aboy, Kabupaten Pegunungan Bintang, Papua 99572";"Amase, Aboy, Kabupaten Pegunungan Bintang";PAPUA;99572;Indonesia;;;;-42.175.037;1.405.619.926;https://maps.google.com/?cid=0x0:0xd542b18f5c6bc572;
perumahan;Komplek perumahan;TERPONES;"2MG5+JC6, Lulis, Kec. Yefta, Kabupaten Pegunungan Bintang, Papua 99576";"Lulis, Kec. Yefta, Kabupaten Pegunungan Bintang";PAPUA;99576;Indonesia;;;;-39.729.291;1.406.593.839;https://maps.google.com/?cid=0x0:0x211ddd1e546bf856;
perumahan;perumahan;Pelabuhan Lama Kali Lulis;"WJ22+6Q, Lulis, Aboy, Kabupaten Pegunungan Bintang, Papua";"Kabupaten Pegunungan Bintang, Papua";PAPUA;;Indonesia;;;;-40.993.753;1.406.019.789;https://maps.google.com/?cid=0x0:0x74eeab5f4b1a8543;
perumahan;Komplek perumahan;Arimkubun;"CGR7+CC3, Borban, Arimkubun, Kabupaten Pegunungan Bintang, Papua";"Kabupaten Pegunungan Bintang, Papua";PAPUA;;Indonesia;;;;-45.589.872;1.405.135.589;https://maps.google.com/?cid=0x0:0x9d97f844b041254;
perumahan;Taman;Kampung Teirame;"2C5V+98, Teriame, Teiraplu, Kabupaten Pegunungan Bintang, Papua";"Kabupaten Pegunungan Bintang, Papua";PAPUA;;Indonesia;;;;-3.991.582;1.404.433.313;https://maps.google.com/?cid=0x0:0x3b1ffe60386a1b39;
perumahan;Perhimpunan Pengembang Perumahan;Desa Bumbakon;"892C+876, Mimin, Kec. Oksop, Kabupaten Pegunungan Bintang, Papua 99572";"Mimin, Kec. Oksop, Kabupaten Pegunungan Bintang";PAPUA;99572;Indonesia;;;;-46.992.388;1.403.706.582;https://maps.google.com/?cid=0x0:0x40ba7704e5bf8f8a;
perumahan;Perhimpunan Pengembang Perumahan;Serly A.waimeni;"6G6W+8G, Usku, Saefen empat dua, Kabupaten Keerom, Papua";"Kabupaten Keerom, Papua";PAPUA;;Indonesia;;;;-37.891.875;1.405.463.125;https://maps.google.com/?cid=0x0:0x3f1f3ea6c8bbc32c;
perumahan;Perhimpunan Pengembang Perumahan;Kampung waibron;"CGR7+CC3, Borban, Distrik Okbab, Kabupaten Pegunungan Bintang, Papua";"Kabupaten Pegunungan Bintang, Papua";PAPUA;;Indonesia;;;;-45.589.872;1.405.135.589;https://maps.google.com/?cid=0x0:0x695c8c898eaec775;
perumahan;Perhimpunan Pengembang Perumahan;Kalimbu Palolo;"WHM8+Q44, Kalimbu, Palolo, Kabupaten Pegunungan Bintang, Papua 99572";"Kalimbu, Palolo, Kabupaten Pegunungan Bintang";PAPUA;99572;Indonesia;;;;-40.656.117;1.405.653.294;https://maps.google.com/?cid=0x0:0x6ddc1c2415d96874;
perumahan;Komplek perumahan;Pris;"XH4X+4MQ, Bris, Kec. Yefta, Kabupaten Pegunungan Bintang, Papua";"Kabupaten Pegunungan Bintang, Papua";PAPUA;;Indonesia;;;;-40.446.636;1.405.992.256;https://maps.google.com/?cid=0x0:0x162b213dce1625f4;
perumahan;Perhimpunan Pengembang Perumahan;Manrten simalya;"CGR7+CC3, Borban, Distrik Okbab, Kabupaten Pegunungan Bintang, Papua";"Kabupaten Pegunungan Bintang, Papua";PAPUA;;Indonesia;;;;-45.589.872;1.405.135.589;https://maps.google.com/?cid=0x0:0x2288c4339c62777e;
perumahan;Pembangunan Perumahan;Aboy;"Jl. Bawal IV No.24, RT.04/RW.50, Bahagia, Kec. Babelan, Kabupaten Bekasi, Jawa Barat 17610";"RT.04/RW.50, Bahagia, Kec. Babelan, Kabupaten Bekasi";PAPUA;17610;Indonesia;;;;-61.791.269;10.702.355;https://maps.google.com/?cid=0x0:0x793123317c6cb50a;
perumahan;Pembangunan Perumahan;Pos aboy;"8JRC+3W5, Purasari, Kec. Leuwiliang, Kabupaten Bogor, Jawa Barat 16640";"Purasari, Kec. Leuwiliang, Kabupaten Bogor";PAPUA;16640;Indonesia;;;;-66.598.692;1.066.223.607;https://maps.google.com/?cid=0x0:0xb5eb4cadc7d4ccb;
perumahan;Pembangunan Perumahan;Aboy;"Jl. Cendrawasih IX No.61 Blok A, Jatimulya, Kec. Tambun Sel., Kabupaten Bekasi, Jawa Barat 17510";"Jatimulya, Kec. Tambun Sel., Kabupaten Bekasi";PAPUA;17510;Indonesia;;;;-62.652.545;1.070.202.312;https://maps.google.com/?cid=0x0:0x505f26ff2fb6576a;
perumahan;perumahan;Papua 99573;"Kabupaten Pegunungan Bintang, Papua";"Kabupaten Pegunungan Bintang, Papua";PAPUA;;Indonesia;;;;-48.818.513;1.404.308.159;https://maps.google.com/?cid=0x0:0x40383ba59a1dda2a;
perumahan;perumahan;Distrik Pepera;"Kabupaten Pegunungan Bintang, Papua";"Kabupaten Pegunungan Bintang, Papua";PAPUA;;Indonesia;;;;-48.872.459;1.407.305.111;https://maps.google.com/?cid=0x0:0x1239d5884917d2c1;
perumahan;perumahan;Distrik Bime;"Kabupaten Pegunungan Bintang, Papua";"Kabupaten Pegunungan Bintang, Papua";PAPUA;;Indonesia;;;;-4.488.256;1.402.199.566;https://maps.google.com/?cid=0x0:0xdb4257b29554af6e;
perumahan;Komplek perumahan;Kampung Tely;"G69G+634, Bime, Distrik Bime, Kabupaten Pegunungan Bintang, Papua";"Kabupaten Pegunungan Bintang, Papua";PAPUA;;Indonesia;;;;-44.819.975;1.402.251.906;https://maps.google.com/?cid=0x0:0xb8309a16ae579c3;
perumahan;Komplek perumahan;Kampung Turwe;"G66C+58, Bime, Distrik Bime, Kabupaten Pegunungan Bintang, Papua";"Kabupaten Pegunungan Bintang, Papua";PAPUA;;Indonesia;;;;-44.894.746;1.402.208.627;https://maps.google.com/?cid=0x0:0x8a80710961d553b1;
perumahan;Komplek perumahan;Komplek Komas asime;"G69G+634, Bime, Distrik Bime, Kabupaten Pegunungan Bintang, Papua";"Kabupaten Pegunungan Bintang, Papua";PAPUA;;Indonesia;;;;-44.819.975;1.402.251.906;https://maps.google.com/?cid=0x0:0xc9205e26fd3af469;
perumahan;Perhimpunan Pengembang Perumahan;Wakidam;"G36C+72X, Wakidam, Distrik Epumek, Kabupaten Pegunungan Bintang, Papua 99577";"Wakidam, Distrik Epumek, Kabupaten Pegunungan Bintang";PAPUA;99577;Indonesia;;;;-44.892.524;1.400.701.193;https://maps.google.com/?cid=0x0:0xefb747cba1414959;
perumahan;Komplek perumahan;Kampung Imde;"JXCX+87Q, Imde, Distrik Pamek, Kabupaten Pegunungan Bintang, Papua";"Kabupaten Pegunungan Bintang, Papua";PAPUA;;Indonesia;;;;-43.791.595;139.998.236;https://maps.google.com/?cid=0x0:0x8c1c589db27098a1;
perumahan;Pembangunan Perumahan;Kampung Purjo;"F6XP+9G, Bime, Distrik Bime, Kabupaten Pegunungan Bintang, Papua";"Kabupaten Pegunungan Bintang, Papua";PAPUA;;Indonesia;;;;-4.501.451;1.402.361.894;https://maps.google.com/?cid=0x0:0xe344645bd09e192d;
perumahan;Komplek perumahan;Kampung bunyire;"H48W+MVH, Bunyirye, Distrik Epumek, Kabupaten Pegunungan Bintang, Papua";"Kabupaten Pegunungan Bintang, Papua";PAPUA;;Indonesia;;;;-44.333.174;1.401.472.321;https://maps.google.com/?cid=0x0:0x9dbb6b4ece06e399;
perumahan;Perhimpunan Pengembang Perumahan;Elia Mirin;"G2VC+5WV, Eipomek, Distrik Epumek, Kabupaten Pegunungan Bintang, Papua 99577";"Eipomek, Distrik Epumek, Kabupaten Pegunungan Bintang";PAPUA;99577;Indonesia;;;;-44.570.032;1.400.222.993;https://maps.google.com/?cid=0x0:0x6f1f06308fd24752;
perumahan;Komplek perumahan;Kampung Botorgon;"J6MH+RR4, Nomteren, Dekitamur, Kabupaten Pegunungan Bintang, Papua 99577";"Nomteren, Dekitamur, Kabupaten Pegunungan Bintang";PAPUA;99577;Indonesia;;;;-43.654.794;1.402.295.937;https://maps.google.com/?cid=0x0:0x88729fde2b8a1738;
perumahan;Komplek perumahan;Calon Desa Dekitamur;"M6MR+5RX, Dekitamur, Distrik Weime, Kabupaten Pegunungan Bintang, Papua";"Kabupaten Pegunungan Bintang, Papua";PAPUA;;Indonesia;;;;-4.317.019;1.402.421.056;https://maps.google.com/?cid=0x0:0x657bc1de00262af0;
perumahan;Dinas Kesehatan;Puskesmas Bime;"G67C+934, Bime, Distrik Bime, Kabupaten Pegunungan Bintang, Papua 99577";"Bime, Distrik Bime, Kabupaten Pegunungan Bintang";PAPUA;99577;Indonesia;082239915991;;;-44.866.122;140.220.206;https://maps.google.com/?cid=0x0:0x8e6600a77d711855;
perumahan;Perhimpunan Pengembang Perumahan;Desa Bumbakon;"892C+876, Mimin, Kec. Oksop, Kabupaten Pegunungan Bintang, Papua 99572";"Mimin, Kec. Oksop, Kabupaten Pegunungan Bintang";PAPUA;99572;Indonesia;;;;-46.992.388;1.403.706.582;https://maps.google.com/?cid=0x0:0x40ba7704e5bf8f8a;
perumahan;Perhimpunan Pengembang Perumahan;Domidena;"JXCX+87Q, Imde, Distrik Pamek, Kabupaten Pegunungan Bintang, Papua";"Kabupaten Pegunungan Bintang, Papua";PAPUA;;Indonesia;;;;-43.791.595;139.998.236;https://maps.google.com/?cid=0x0:0x240533b90d8bc588;
perumahan;Komplek perumahan;Pamek;"JXCX+87Q, Imde, Distrik Pamek, Kabupaten Pegunungan Bintang, Papua";"Kabupaten Pegunungan Bintang, Papua";PAPUA;;Indonesia;;;;-43.791.595;139.998.236;https://maps.google.com/?cid=0x0:0x22adbb83945ecd28;
perumahan;Rumah Kayu;Rumah Prabowo;"G49F+MW, Turwe, Distrik Bime, Kabupaten Pegunungan Bintang, Papua";"Kabupaten Pegunungan Bintang, Papua";PAPUA;;Indonesia;;;;-44.808.738;1.401.248.059;https://maps.google.com/?cid=0x0:0xe13d3961a0f5a276;
perumahan;Komplek perumahan;Jual/Beli Rumah;"Sepatan, Kecamatan Pakuhaji, Kabupaten Tangerang, Banten 15520";"Kecamatan Pakuhaji, Kabupaten Tangerang";PAPUA;15520;Indonesia;085213675060;;;-61.186.354;1.065.760.811;https://maps.google.com/?cid=0x0:0xcaea0e544db46f0f;
perumahan;Komplek perumahan;Perumahan Mutiara Alam Permai;"Dsn.babakan Ciranggon 1, Pasirjengkol, Kec. Majalaya, Karawang, Jawa Barat 41371";"Pasirjengkol, Kec. Majalaya, Karawang";PAPUA;41371;Indonesia;082120857939;;;-63.084.309;107.357.724;https://maps.google.com/?cid=0x0:0xc6fbf7099f10641e;
perumahan;perumahan;Distrik Alemsom;"Kabupaten Pegunungan Bintang, Papua";"Kabupaten Pegunungan Bintang, Papua";PAPUA;;Indonesia;;;;-47.239.845;1.402.862.819;https://maps.google.com/?cid=0x0:0x2d79a847a7c70a92;
perumahan;Perhimpunan Pengembang Perumahan;Desa Bumbakon;"892C+876, Mimin, Kec. Oksop, Kabupaten Pegunungan Bintang, Papua 99572";"Mimin, Kec. Oksop, Kabupaten Pegunungan Bintang";PAPUA;99572;Indonesia;;;;-46.992.388;1.403.706.582;https://maps.google.com/?cid=0x0:0x40ba7704e5bf8f8a;
perumahan;Penginapan religi;Malokmala Sumtamob;"54CR+FRW, Yup, Distrik Suntamon, Kabupaten Yahukimo, Papua";"Kabupaten Yahukimo, Papua";PAPUA;;Indonesia;;;;-48.287.552;1.401.420.882;https://maps.google.com/?cid=0x0:0x888c997a4ec75e34;
perumahan;perumahan;Kec. Ok Bape;"Kabupaten Pegunungan Bintang, Papua";"Kabupaten Pegunungan Bintang, Papua";PAPUA;;Indonesia;;;;-47.079.703;140.534.262;https://maps.google.com/?cid=0x0:0xddeed733d7c1a330;
perumahan;Komplek perumahan;Oke papua;"CVFP+PJG, Inauga, Kec. Mimika Baru, Kabupaten Mimika, Papua 99971";"Inauga, Kec. Mimika Baru, Kabupaten Mimika";PAPUA;99971;Indonesia;;;;-45.750.663;1.368.868.348;https://maps.google.com/?cid=0x0:0xa108ce81dde9ecf4;
perumahan;Kantor Perusahaan;Perumahan Asisten Sekda Provinsi Papua;"FPJ5+PCW, Angkasapura, Kec. Jayapura Utara, Kota Jayapura, Papua 99114";"Angkasapura, Kec. Jayapura Utara, Kota Jayapura";PAPUA;99114;Indonesia;;;;-25.181.372;1.407.085.688;https://maps.google.com/?cid=0x0:0x735af2def5609d2c;
perumahan;Komplek perumahan;Perumahan KPR;"46GW+82Q, Frans Kaisiepo Yapen Selatan, Jl. Frans Kaisiepo, Famboaman, Yapen, Kabupaten Kepulauan Yapen, Papua 98213";"Frans Kaisiepo Yapen Selatan, Jl. Frans Kaisiepo, Famboaman, Yapen, Kabupaten Kepulauan Yapen";PAPUA;98213;Indonesia;;;;-18.741.624;136.245.108;https://maps.google.com/?cid=0x0:0xfddc6bd7236f381;
perumahan;Komplek perumahan;Okaitadi_paniai;"JF9H+CFJ, Kalibobo, Distrik Nabire, Kabupaten Nabire, Papua";"Kabupaten Nabire, Papua";PAPUA;;Indonesia;;;;-33.814.201;1.354.786.449;https://maps.google.com/?cid=0x0:0xeb869d9b85de85b4;
perumahan;Komplek perumahan;Bulangkop;"5JFV+96W, Bulangkop, Kec. Ok Aon, Kabupaten Pegunungan Bintang, Papua";"Kabupaten Pegunungan Bintang, Papua";PAPUA;;Indonesia;;;;-48.265.146;1.406.430.658;https://maps.google.com/?cid=0x0:0x400c749e09c8f88;
perumahan;perumahan;Kampung Okbon;"4P7J+462, Pepera, Distrik Pepera, Kabupaten Pegunungan Bintang, Papua";"Kabupaten Pegunungan Bintang, Papua";PAPUA;;Indonesia;;;;-48.872.459;1.407.305.111;https://maps.google.com/?cid=0x0:0x177130a43d05d238;
perumahan;Pembangunan Perumahan;Okbutup;"3JPG+M3F, Unnamed Road, Kabiding, Distrik Serambakon, Kabupaten Pegunungan Bintang, Papua 99573";"Unnamed Road, Kabiding, Distrik Serambakon, Kabupaten Pegunungan Bintang";PAPUA;99573;Indonesia;;;;-49.133.183;1.406.251.633;https://maps.google.com/?cid=0x0:0xa259732724f4c638;
perumahan;perumahan;Distrik Kolomdol;"Kabupaten Pegunungan Bintang, Papua";"Kabupaten Pegunungan Bintang, Papua";PAPUA;;Indonesia;;;;-49.670.754;1.405.860.497;https://maps.google.com/?cid=0x0:0x24dc4f034dc31161;
perumahan;Perhimpunan Pengembang Perumahan;Oknengan sosial;"3JMJ+W98, Kabiding, Distrik Kolomdol, Kabupaten Pegunungan Bintang, Papua";"Kabupaten Pegunungan Bintang, Papua";PAPUA;;Indonesia;;;;-49.152.178;1.406.309.629;https://maps.google.com/?cid=0x0:0x443bc9fd56d33855;
perumahan;Perhimpunan Pengembang Perumahan;Shela home;"4H4P+84J, Kotdol, Distrik Oksibil, Kabupaten Pegunungan Bintang, Papua 99573";"Kotdol, Distrik Oksibil, Kabupaten Pegunungan Bintang";PAPUA;99573;Indonesia;;;;-48.932.049;140.584.968;https://maps.google.com/?cid=0x0:0xa60db90d9bad3bb5;
perumahan;Perhimpunan Pengembang Perumahan;Kampung Esipding;"4H2Q+JXF, Kotdol, Distrik Serambakon, Kabupaten Pegunungan Bintang, Papua 99573";"Kotdol, Distrik Serambakon, Kabupaten Pegunungan Bintang";PAPUA;99573;Indonesia;;;;-48.984.474;1.405.899.224;https://maps.google.com/?cid=0x0:0x29dd22e15c1ac425;
perumahan;Sekolah menengah;HOME WIFI;"SMK Negeri 1, Komplek perumahan guru, Kotdol, Distrik Oksibil, Kabupaten Pegunungan Bintang, Papua 99573";"Komplek perumahan guru, Kotdol, Distrik Oksibil, Kabupaten Pegunungan Bintang";PAPUA;99573;Indonesia;;;;-49.030.748;1.406.024.578;https://maps.google.com/?cid=0x0:0x8ed62cc1223ef378;
perumahan;Perhimpunan Pengembang Perumahan;CHALSEB ESCOM;"3JRF+5PM, Kabiding, Distrik Oksibil, Kabupaten Pegunungan Bintang, Papua 99573";"Kabiding, Distrik Oksibil, Kabupaten Pegunungan Bintang";PAPUA;99573;Indonesia;;;;-49.088.229;14.062.529;https://maps.google.com/?cid=0x0:0xdbd2d1ef8a038af1;
perumahan;Komplek perumahan;Molbib Silibib;"3JFP+44V, Molbib Silibib, Distrik Oksibil, Kabupaten Pegunungan Bintang, Papua 99573";"Molbib Silibib, Distrik Oksibil, Kabupaten Pegunungan Bintang";PAPUA;99573;Indonesia;;;;-49.271.391;1.406.352.878;https://maps.google.com/?cid=0x0:0x4d20a7441ce9d133;
perumahan;Pembangunan Perumahan;Quripsil;"4J4R+QF, Kotdol, Distrik Oksibil, Kabupaten Pegunungan Bintang, Papua";"Kabupaten Pegunungan Bintang, Papua";PAPUA;;Indonesia;;;;-48.930.534;1.406.411.677;https://maps.google.com/?cid=0x0:0x6cdedc57df58cea8;
perumahan;Komplek perumahan;Dene Tibe;"3J62+8J5, Okmakot, Distrik Oksibil, Kabupaten Pegunungan Bintang, Papua 99573";"Okmakot, Distrik Oksibil, Kabupaten Pegunungan Bintang";PAPUA;99573;Indonesia;;;;-49.392.363;1.406.015.944;https://maps.google.com/?cid=0x0:0x93ee0609e6124444;
perumahan;Komplek perumahan;MM. MARIA;"3JXF+V3, Kotdol, Distrik Oksibil, Kabupaten Pegunungan Bintang, Papua 99573";"Kotdol, Distrik Oksibil, Kabupaten Pegunungan Bintang";PAPUA;99573;Indonesia;081332340803;;;-49.003.672;1.406.226.324;https://maps.google.com/?cid=0x0:0x8b883b0d8e4906;
perumahan;Pembangunan Perumahan;Feur Home;"3JXG+RJ3, Abickbor, Distrik Oksibil, Kabupaten Pegunungan Bintang, Papua";"Kabupaten Pegunungan Bintang, Papua";PAPUA;;Indonesia;;;;-49.004.875;1.406.265.469;https://maps.google.com/?cid=0x0:0x2483b17a284a10da;
perumahan;Pembangunan Perumahan;Fardianz;"3JWJ+365, Jln. YPPK, Kotdol, Distrik Oksibil, Kabupaten Pegunungan Bintang, Papua 99573";"Jln. YPPK, Kotdol, Distrik Oksibil, Kabupaten Pegunungan Bintang";PAPUA;99573;Indonesia;;;;-49.045.932;1.406.308.747;https://maps.google.com/?cid=0x0:0x2a3be4d00bea731f;
perumahan;Komplek perumahan;Bajaringan Oksibil;"3JXH+29, Kotdol, Distrik Oksibil, Kabupaten Pegunungan Bintang, Papua";"Kabupaten Pegunungan Bintang, Papua";PAPUA;;Indonesia;;;;-49.024.299;1.406.284.453;https://maps.google.com/?cid=0x0:0x8d20396d6232aab2;
perumahan;Komplek perumahan;Ok Tarkop Ki;"4J25+F6, Kotdol, Distrik Oksibil, Kabupaten Pegunungan Bintang, Papua";"Kabupaten Pegunungan Bintang, Papua";PAPUA;;Indonesia;;;;-489.876;140.608.035;https://maps.google.com/?cid=0x0:0x66de11caa7f2623d;
perumahan;Komplek perumahan;Area GCR FAMILY;"3JXH+48, Kotdol, Distrik Oksibil, Kabupaten Pegunungan Bintang, Papua";"Kabupaten Pegunungan Bintang, Papua";PAPUA;;Indonesia;;;;-49.022.281;1.406.282.716;https://maps.google.com/?cid=0x0:0x953292a1f915f916;
perumahan;perumahan;Dominggus Kapitarauw Home;"3JXF+57M, Kotdol, Distrik Oksibil, Kabupaten Pegunungan Bintang, Papua";"Kabupaten Pegunungan Bintang, Papua";PAPUA;;Indonesia;;;;-49.020.374;1.406.231.764;https://maps.google.com/?cid=0x0:0x3246a6b07f25955f;
perumahan;Komplek perumahan;Rumah Dinas Guru SPK2;"3JWH+8FC, Jl. Kuburan, Kotdol, Distrik Oksibil, Kabupaten Pegunungan Bintang, Papua 99573";"Jl. Kuburan, Kotdol, Distrik Oksibil, Kabupaten Pegunungan Bintang";PAPUA;99573;Indonesia;;;;-49.041.943;1.406.286.336;https://maps.google.com/?cid=0x0:0xe9d5920749fd19f6;
perumahan;Komplek perumahan;KIOS OKDEMON 0707;"3JWM+GVV Komplek perumahan guru SMK Negeri egeri, Kotdol, Oksibil, Pegunungan Bintang Regency, Papua";"Kabupaten Pegunungan Bintang, Papua";PAPUA;;Indonesia;;;;-49.036.454;1.406.346.666;https://maps.google.com/?cid=0x0:0xd649047da36fdb64;
perumahan;Pembangunan Perumahan;Oksingsing;"3JCM+CQ9, Oksibil - Iwur, Molbib Silibib, Distrik Pepera, Kabupaten Pegunungan Bintang, Papua 99573";"Oksibil - Iwur, Molbib Silibib, Distrik Pepera, Kabupaten Pegunungan Bintang";PAPUA;99573;Indonesia;;;;-49.289.586;1.406.344.783;https://maps.google.com/?cid=0x0:0x6166f060bbe1a498;
perumahan;Pembangunan Perumahan;Okbutup;"3JPG+M3F, Unnamed Road, Kabiding, Distrik Serambakon, Kabupaten Pegunungan Bintang, Papua 99573";"Unnamed Road, Kabiding, Distrik Serambakon, Kabupaten Pegunungan Bintang";PAPUA;99573;Indonesia;;;;-49.133.183;1.406.251.633;https://maps.google.com/?cid=0x0:0xa259732724f4c638;
perumahan;Pembangunan Perumahan;Kabiding Lok. I;"Kotdol, Distrik Oksibil, Kabupaten Pegunungan Bintang, Papua";"Kabupaten Pegunungan Bintang, Papua";PAPUA;;Indonesia;;;;-49.009.095;1.406.259.286;https://maps.google.com/?cid=0x0:0xd051aeb31255b469;
perumahan;Komplek perumahan;ABITKON;"3JQH+G7, Kabiding, Distrik Oksibil, Kabupaten Pegunungan Bintang, Papua";"Kabupaten Pegunungan Bintang, Papua";PAPUA;;Indonesia;;;;-4.911.156;140.628.196;https://maps.google.com/?cid=0x0:0xd7b5a50775024dc2;
perumahan;Komplek perumahan;Koramil Oksibil pegunungan bintang;"WJ9P+W8F Koramil, Tarangop, Kec. Kawor, Kabupaten Pegunungan Bintang, Papua";"Kabupaten Pegunungan Bintang, Papua";PAPUA;;Indonesia;;;;-5.080.177;140.635.803;https://maps.google.com/?cid=0x0:0x5c996a7ac71c1c2a;
perumahan;perumahan;Kec. Oksop;"Kabupaten Pegunungan Bintang, Papua";"Kabupaten Pegunungan Bintang, Papua";PAPUA;;Indonesia;;;;-47.324.178;1.404.101.474;https://maps.google.com/?cid=0x0:0xdb805f296f748353;
perumahan;perumahan;Oksop;"Kec. Oksop, Kabupaten Pegunungan Bintang, Papua";"Kabupaten Pegunungan Bintang, Papua";PAPUA;;Indonesia;;;;-47.889.956;1.404.566.612;https://maps.google.com/?cid=0x0:0xad34f79db6b37d84;
perumahan;Perhimpunan Pengembang Perumahan;Oknengan sosial;"3JMJ+W98, Kabiding, Distrik Kolomdol, Kabupaten Pegunungan Bintang, Papua";"Kabupaten Pegunungan Bintang, Papua";PAPUA;;Indonesia;;;;-49.152.178;1.406.309.629;https://maps.google.com/?cid=0x0:0x443bc9fd56d33855;
perumahan;Pembangunan Perumahan;Quripsil;"4J4R+QF, Kotdol, Distrik Oksibil, Kabupaten Pegunungan Bintang, Papua";"Kabupaten Pegunungan Bintang, Papua";PAPUA;;Indonesia;;;;-48.930.534;1.406.411.677;https://maps.google.com/?cid=0x0:0x6cdedc57df58cea8;
perumahan;Komplek perumahan;Bajaringan Oksibil;"3JXH+29, Kotdol, Distrik Oksibil, Kabupaten Pegunungan Bintang, Papua";"Kabupaten Pegunungan Bintang, Papua";PAPUA;;Indonesia;;;;-49.024.299;1.406.284.453;https://maps.google.com/?cid=0x0:0x8d20396d6232aab2;
perumahan;Pembangunan Perumahan;Feur Home;"3JXG+RJ3, Abickbor, Distrik Oksibil, Kabupaten Pegunungan Bintang, Papua";"Kabupaten Pegunungan Bintang, Papua";PAPUA;;Indonesia;;;;-49.004.875;1.406.265.469;https://maps.google.com/?cid=0x0:0x2483b17a284a10da;
perumahan;Sekolah menengah;HOME WIFI;"SMK Negeri 1, Komplek perumahan guru, Kotdol, Distrik Oksibil, Kabupaten Pegunungan Bintang, Papua 99573";"Komplek perumahan guru, Kotdol, Distrik Oksibil, Kabupaten Pegunungan Bintang";PAPUA;99573;Indonesia;;;;-49.030.748;1.406.024.578;https://maps.google.com/?cid=0x0:0x8ed62cc1223ef378;
perumahan;Perhimpunan Pengembang Perumahan;Desa Bumbakon;"892C+876, Mimin, Kec. Oksop, Kabupaten Pegunungan Bintang, Papua 99572";"Mimin, Kec. Oksop, Kabupaten Pegunungan Bintang";PAPUA;99572;Indonesia;;;;-46.992.388;1.403.706.582;https://maps.google.com/?cid=0x0:0x40ba7704e5bf8f8a;
perumahan;Komplek perumahan;KIOS OKDEMON 0707;"3JWM+GVV Komplek perumahan guru SMK Negeri egeri, Kotdol, Oksibil, Pegunungan Bintang Regency, Papua";"Kabupaten Pegunungan Bintang, Papua";PAPUA;;Indonesia;;;;-49.036.454;1.406.346.666;https://maps.google.com/?cid=0x0:0xd649047da36fdb64;
perumahan;Komplek perumahan;Ok Tarkop Ki;"4J25+F6, Kotdol, Distrik Oksibil, Kabupaten Pegunungan Bintang, Papua";"Kabupaten Pegunungan Bintang, Papua";PAPUA;;Indonesia;;;;-489.876;140.608.035;https://maps.google.com/?cid=0x0:0x66de11caa7f2623d;
perumahan;Pembangunan Perumahan;Oksingsing;"3JCM+CQ9, Oksibil - Iwur, Molbib Silibib, Distrik Pepera, Kabupaten Pegunungan Bintang, Papua 99573";"Oksibil - Iwur, Molbib Silibib, Distrik Pepera, Kabupaten Pegunungan Bintang";PAPUA;99573;Indonesia;;;;-49.289.586;1.406.344.783;https://maps.google.com/?cid=0x0:0x6166f060bbe1a498;
perumahan;Perhimpunan Pengembang Perumahan;Shela home;"4H4P+84J, Kotdol, Distrik Oksibil, Kabupaten Pegunungan Bintang, Papua 99573";"Kotdol, Distrik Oksibil, Kabupaten Pegunungan Bintang";PAPUA;99573;Indonesia;;;;-48.932.049;140.584.968;https://maps.google.com/?cid=0x0:0xa60db90d9bad3bb5;
perumahan;Komplek perumahan;MM. MARIA;"3JXF+V3, Kotdol, Distrik Oksibil, Kabupaten Pegunungan Bintang, Papua 99573";"Kotdol, Distrik Oksibil, Kabupaten Pegunungan Bintang";PAPUA;99573;Indonesia;081332340803;;;-49.003.672;1.406.226.324;https://maps.google.com/?cid=0x0:0x8b883b0d8e4906;
perumahan;Komplek perumahan;Bulangkop;"5JFV+96W, Bulangkop, Kec. Ok Aon, Kabupaten Pegunungan Bintang, Papua";"Kabupaten Pegunungan Bintang, Papua";PAPUA;;Indonesia;;;;-48.265.146;1.406.430.658;https://maps.google.com/?cid=0x0:0x400c749e09c8f88;
perumahan;Pembangunan Perumahan;Okbutup;"3JPG+M3F, Unnamed Road, Kabiding, Distrik Serambakon, Kabupaten Pegunungan Bintang, Papua 99573";"Unnamed Road, Kabiding, Distrik Serambakon, Kabupaten Pegunungan Bintang";PAPUA;99573;Indonesia;;;;-49.133.183;1.406.251.633;https://maps.google.com/?cid=0x0:0xa259732724f4c638;
perumahan;Perhimpunan Pengembang Perumahan;Kampung Esipding;"4H2Q+JXF, Kotdol, Distrik Serambakon, Kabupaten Pegunungan Bintang, Papua 99573";"Kotdol, Distrik Serambakon, Kabupaten Pegunungan Bintang";PAPUA;99573;Indonesia;;;;-48.984.474;1.405.899.224;https://maps.google.com/?cid=0x0:0x29dd22e15c1ac425;
perumahan;Pembangunan Perumahan;Angky Home;"3JPM+8FX, Okmakot, Distrik Oksibil, Kabupaten Pegunungan Bintang, Papua 99573";"Okmakot, Distrik Oksibil, Kabupaten Pegunungan Bintang";PAPUA;99573;Indonesia;;;;-49.141.495;1.406.337.222;https://maps.google.com/?cid=0x0:0xf0fae07de5359ec3;
perumahan;Komplek perumahan;ABITKON;"3JQH+G7, Kabiding, Distrik Oksibil, Kabupaten Pegunungan Bintang, Papua";"Kabupaten Pegunungan Bintang, Papua";PAPUA;;Indonesia;;;;-4.911.156;140.628.196;https://maps.google.com/?cid=0x0:0xd7b5a50775024dc2;
perumahan;Rumah Sakit Pemerintah;Rumah Dinas Dokter Spesialis RSUD Oksibil;"Kabiding, Distrik Serambakon, Kabupaten Pegunungan Bintang, Papua 99573";"Distrik Serambakon, Kabupaten Pegunungan Bintang";PAPUA;99573;Indonesia;;;;-49.017.462;1.406.254.598;https://maps.google.com/?cid=0x0:0xcd3a80585b7912fd;
perumahan;Pembangunan Perumahan;Kabiding Lok. I;"Kotdol, Distrik Oksibil, Kabupaten Pegunungan Bintang, Papua";"Kabupaten Pegunungan Bintang, Papua";PAPUA;;Indonesia;;;;-49.009.095;1.406.259.286;https://maps.google.com/?cid=0x0:0xd051aeb31255b469;
perumahan;perumahan;KIOS YESIDA;;;PAPUA;;Indonesia;082129810406;;;-44.948.152;1.404.784.666;https://maps.google.com/?cid=0x0:0x2b6b3852cbb32d40;
perumahan;perumahan;Distrik Serambakon;"Kabupaten Pegunungan Bintang, Papua";"Kabupaten Pegunungan Bintang, Papua";PAPUA;;Indonesia;;;;-48.557.903;1.405.009.203;https://maps.google.com/?cid=0x0:0x171e1a77608fe958;
perumahan;Perhimpunan Pengembang Perumahan;Kampung Esipding;"4H2Q+JXF, Kotdol, Distrik Serambakon, Kabupaten Pegunungan Bintang, Papua 99573";"Kotdol, Distrik Serambakon, Kabupaten Pegunungan Bintang";PAPUA;99573;Indonesia;;;;-48.984.474;1.405.899.224;https://maps.google.com/?cid=0x0:0x29dd22e15c1ac425;
perumahan;Perhimpunan Pengembang Perumahan;Kosan Denka;"3JQG+H4J, Kabiding, Distrik Serambakon, Kabupaten Pegunungan Bintang, Papua 99573";"Kabiding, Distrik Serambakon, Kabupaten Pegunungan Bintang";PAPUA;99573;Indonesia;;;;-4.911.049;1.406.252.786;https://maps.google.com/?cid=0x0:0xde325b88e272d3df;
perumahan;Pembangunan Perumahan;Okbutup;"3JPG+M3F, Unnamed Road, Kabiding, Distrik Serambakon, Kabupaten Pegunungan Bintang, Papua 99573";"Unnamed Road, Kabiding, Distrik Serambakon, Kabupaten Pegunungan Bintang";PAPUA;99573;Indonesia;;;;-49.133.183;1.406.251.633;https://maps.google.com/?cid=0x0:0xa259732724f4c638;
perumahan;Komplek perumahan;Perumahan Kesbangpol;"4JCR+WRX, Okdo, Kec. Ok Aon, Kabupaten Pegunungan Bintang, Papua";"Kabupaten Pegunungan Bintang, Papua";PAPUA;;Indonesia;;;;-48.776.272;1.406.421.081;https://maps.google.com/?cid=0x0:0x36c60e2687d16ef5;
perumahan;Perhimpunan Pengembang Perumahan;Desa Bumbakon;"892C+876, Mimin, Kec. Oksop, Kabupaten Pegunungan Bintang, Papua 99572";"Mimin, Kec. Oksop, Kabupaten Pegunungan Bintang";PAPUA;99572;Indonesia;;;;-46.992.388;1.403.706.582;https://maps.google.com/?cid=0x0:0x40ba7704e5bf8f8a;
perumahan;Perhimpunan Pengembang Perumahan;Shela home;"4H4P+84J, Kotdol, Distrik Oksibil, Kabupaten Pegunungan Bintang, Papua 99573";"Kotdol, Distrik Oksibil, Kabupaten Pegunungan Bintang";PAPUA;99573;Indonesia;;;;-48.932.049;140.584.968;https://maps.google.com/?cid=0x0:0xa60db90d9bad3bb5;
perumahan;Pembangunan Perumahan;Feur Home;"3JXG+RJ3, Abickbor, Distrik Oksibil, Kabupaten Pegunungan Bintang, Papua";"Kabupaten Pegunungan Bintang, Papua";PAPUA;;Indonesia;;;;-49.004.875;1.406.265.469;https://maps.google.com/?cid=0x0:0x2483b17a284a10da;
perumahan;Sekolah menengah;HOME WIFI;"SMK Negeri 1, Komplek perumahan guru, Kotdol, Distrik Oksibil, Kabupaten Pegunungan Bintang, Papua 99573";"Komplek perumahan guru, Kotdol, Distrik Oksibil, Kabupaten Pegunungan Bintang";PAPUA;99573;Indonesia;;;;-49.030.748;1.406.024.578;https://maps.google.com/?cid=0x0:0x8ed62cc1223ef378;
perumahan;Rumah Sakit Pemerintah;Rumah Dinas Dokter Spesialis RSUD Oksibil;"Kabiding, Distrik Serambakon, Kabupaten Pegunungan Bintang, Papua 99573";"Distrik Serambakon, Kabupaten Pegunungan Bintang";PAPUA;99573;Indonesia;;;;-49.017.462;1.406.254.598;https://maps.google.com/?cid=0x0:0xcd3a80585b7912fd;
perumahan;Perhimpunan Pengembang Perumahan;CHALSEB ESCOM;"3JRF+5PM, Kabiding, Distrik Oksibil, Kabupaten Pegunungan Bintang, Papua 99573";"Kabiding, Distrik Oksibil, Kabupaten Pegunungan Bintang";PAPUA;99573;Indonesia;;;;-49.088.229;14.062.529;https://maps.google.com/?cid=0x0:0xdbd2d1ef8a038af1;
perumahan;Komplek perumahan;ABITKON;"3JQH+G7, Kabiding, Distrik Oksibil, Kabupaten Pegunungan Bintang, Papua";"Kabupaten Pegunungan Bintang, Papua";PAPUA;;Indonesia;;;;-4.911.156;140.628.196;https://maps.google.com/?cid=0x0:0xd7b5a50775024dc2;
perumahan;perumahan;Kec. Ok Aon;"Kabupaten Pegunungan Bintang, Papua";"Kabupaten Pegunungan Bintang, Papua";PAPUA;;Indonesia;;;;-48.531.394;1.406.404.082;https://maps.google.com/?cid=0x0:0xa9b9ad08f3a2029c;
perumahan;Komplek perumahan;Perumahan Kesbangpol;"4JCR+WRX, Okdo, Kec. Ok Aon, Kabupaten Pegunungan Bintang, Papua";"Kabupaten Pegunungan Bintang, Papua";PAPUA;;Indonesia;;;;-48.776.272;1.406.421.081;https://maps.google.com/?cid=0x0:0x36c60e2687d16ef5;
perumahan;Perhimpunan Pengembang Perumahan;Oknengan sosial;"3JMJ+W98, Kabiding, Distrik Kolomdol, Kabupaten Pegunungan Bintang, Papua";"Kabupaten Pegunungan Bintang, Papua";PAPUA;;Indonesia;;;;-49.152.178;1.406.309.629;https://maps.google.com/?cid=0x0:0x443bc9fd56d33855;
perumahan;Pembangunan Perumahan;Quripsil;"4J4R+QF, Kotdol, Distrik Oksibil, Kabupaten Pegunungan Bintang, Papua";"Kabupaten Pegunungan Bintang, Papua";PAPUA;;Indonesia;;;;-48.930.534;1.406.411.677;https://maps.google.com/?cid=0x0:0x6cdedc57df58cea8;
perumahan;Komplek perumahan;Bulangkop;"5JFV+96W, Bulangkop, Kec. Ok Aon, Kabupaten Pegunungan Bintang, Papua";"Kabupaten Pegunungan Bintang, Papua";PAPUA;;Indonesia;;;;-48.265.146;1.406.430.658;https://maps.google.com/?cid=0x0:0x400c749e09c8f88;
perumahan;Komplek perumahan;MM. MARIA;"3JXF+V3, Kotdol, Distrik Oksibil, Kabupaten Pegunungan Bintang, Papua 99573";"Kotdol, Distrik Oksibil, Kabupaten Pegunungan Bintang";PAPUA;99573;Indonesia;081332340803;;;-49.003.672;1.406.226.324;https://maps.google.com/?cid=0x0:0x8b883b0d8e4906;
perumahan;Komplek perumahan;KIOS OKDEMON 0707;"3JWM+GVV Komplek perumahan guru SMK Negeri egeri, Kotdol, Oksibil, Pegunungan Bintang Regency, Papua";"Kabupaten Pegunungan Bintang, Papua";PAPUA;;Indonesia;;;;-49.036.454;1.406.346.666;https://maps.google.com/?cid=0x0:0xd649047da36fdb64;
perumahan;Komplek perumahan;Bajaringan Oksibil;"3JXH+29, Kotdol, Distrik Oksibil, Kabupaten Pegunungan Bintang, Papua";"Kabupaten Pegunungan Bintang, Papua";PAPUA;;Indonesia;;;;-49.024.299;1.406.284.453;https://maps.google.com/?cid=0x0:0x8d20396d6232aab2;
perumahan;Sekolah menengah;HOME WIFI;"SMK Negeri 1, Komplek perumahan guru, Kotdol, Distrik Oksibil, Kabupaten Pegunungan Bintang, Papua 99573";"Komplek perumahan guru, Kotdol, Distrik Oksibil, Kabupaten Pegunungan Bintang";PAPUA;99573;Indonesia;;;;-49.030.748;1.406.024.578;https://maps.google.com/?cid=0x0:0x8ed62cc1223ef378;
perumahan;Pembangunan Perumahan;Oksingsing;"3JCM+CQ9, Oksibil - Iwur, Molbib Silibib, Distrik Pepera, Kabupaten Pegunungan Bintang, Papua 99573";"Oksibil - Iwur, Molbib Silibib, Distrik Pepera, Kabupaten Pegunungan Bintang";PAPUA;99573;Indonesia;;;;-49.289.586;1.406.344.783;https://maps.google.com/?cid=0x0:0x6166f060bbe1a498;
perumahan;Dewan;Mess DPRD pegunungan bintang;"4J6R+3X8 Mess DPRD, Kotdol, Distrik Oksibil, Kabupaten Pegunungan Bintang, Papua";"Kabupaten Pegunungan Bintang, Papua";PAPUA;;Indonesia;;;;-48.898.398;1.406.424.384;https://maps.google.com/?cid=0x0:0x51d62769c08a071f;
perumahan;Pembangunan Perumahan;Angky Home;"3JPM+8FX, Okmakot, Distrik Oksibil, Kabupaten Pegunungan Bintang, Papua 99573";"Okmakot, Distrik Oksibil, Kabupaten Pegunungan Bintang";PAPUA;99573;Indonesia;;;;-49.141.495;1.406.337.222;https://maps.google.com/?cid=0x0:0xf0fae07de5359ec3;
perumahan;Pembangunan Perumahan;Okbutup;"3JPG+M3F, Unnamed Road, Kabiding, Distrik Serambakon, Kabupaten Pegunungan Bintang, Papua 99573";"Unnamed Road, Kabiding, Distrik Serambakon, Kabupaten Pegunungan Bintang";PAPUA;99573;Indonesia;;;;-49.133.183;1.406.251.633;https://maps.google.com/?cid=0x0:0xa259732724f4c638;
perumahan;Komplek perumahan;ABITKON;"3JQH+G7, Kabiding, Distrik Oksibil, Kabupaten Pegunungan Bintang, Papua";"Kabupaten Pegunungan Bintang, Papua";PAPUA;;Indonesia;;;;-4.911.156;140.628.196;https://maps.google.com/?cid=0x0:0xd7b5a50775024dc2;
perumahan;Perhimpunan Pengembang Perumahan;CHALSEB ESCOM;"3JRF+5PM, Kabiding, Distrik Oksibil, Kabupaten Pegunungan Bintang, Papua 99573";"Kabiding, Distrik Oksibil, Kabupaten Pegunungan Bintang";PAPUA;99573;Indonesia;;;;-49.088.229;14.062.529;https://maps.google.com/?cid=0x0:0xdbd2d1ef8a038af1;
perumahan;Pembangunan Perumahan;Fardianz;"3JWJ+365, Jln. YPPK, Kotdol, Distrik Oksibil, Kabupaten Pegunungan Bintang, Papua 99573";"Jln. YPPK, Kotdol, Distrik Oksibil, Kabupaten Pegunungan Bintang";PAPUA;99573;Indonesia;;;;-49.045.932;1.406.308.747;https://maps.google.com/?cid=0x0:0x2a3be4d00bea731f;
perumahan;Komplek perumahan;Komplek Perumahan Aom;"Jl. Taman Bahagia No.32, Benteng, Kec. Warudoyong, Kota Sukabumi, Jawa Barat 43132";"Benteng, Kec. Warudoyong, Kota Sukabumi";PAPUA;43132;Indonesia;085720845000;;;-69.250.749;1.069.197.476;https://maps.google.com/?cid=0x0:0x22663c1a7d17e251;
perumahan;Komplek perumahan;Ok Tarkop Ki;"4J25+F6, Kotdol, Distrik Oksibil, Kabupaten Pegunungan Bintang, Papua";"Kabupaten Pegunungan Bintang, Papua";PAPUA;;Indonesia;;;;-489.876;140.608.035;https://maps.google.com/?cid=0x0:0x66de11caa7f2623d;
perumahan;Komplek perumahan;Area GCR FAMILY;"3JXH+48, Kotdol, Distrik Oksibil, Kabupaten Pegunungan Bintang, Papua";"Kabupaten Pegunungan Bintang, Papua";PAPUA;;Indonesia;;;;-49.022.281;1.406.282.716;https://maps.google.com/?cid=0x0:0x953292a1f915f916;
perumahan;perumahan;Papua 99575;"Kabupaten Pegunungan Bintang, Papua";"Kabupaten Pegunungan Bintang, Papua";PAPUA;;Indonesia;;;;-51.161.411;1.404.721.736;https://maps.google.com/?cid=0x0:0x19b958e8a9e9ca08;
perumahan;perumahan;danowage;"R6V2+6X, Yelobib, Distrik Awinbon, Kabupaten Pegunungan Bintang, Papua";"Kabupaten Pegunungan Bintang, Papua";PAPUA;;Indonesia;;;;-5.156.967;140.202.453;https://maps.google.com/?cid=0x0:0x3ee5751a43366ae5;
perumahan;Komplek perumahan;Okbifisil;"WJ9P+W8F, Tarangop, Kec. Kawor, Kabupaten Pegunungan Bintang, Papua";"Kabupaten Pegunungan Bintang, Papua";PAPUA;;Indonesia;;;;-5.080.177;140.635.803;https://maps.google.com/?cid=0x0:0x912c7d6e061b0e28;
perumahan;Komplek perumahan;Mess Kesehatan distrik Kawor;"RGC9+HXJ, Tarangop, Kec. Kawor, Kabupaten Pegunungan Bintang, Papua";"Kabupaten Pegunungan Bintang, Papua";PAPUA;;Indonesia;;;;-51.785.408;1.405.198.952;https://maps.google.com/?cid=0x0:0x13a68f890a7a5757;
perumahan;Pembangunan Perumahan;Woman;"VXJC+XX5, Samboga, Distrik Seradala, Kabupaten Yahukimo, Papua";"Kabupaten Yahukimo, Papua";PAPUA;;Indonesia;;;;-51.176.023;1.399.724.868;https://maps.google.com/?cid=0x0:0x18acb4203edcd99b;
perumahan;Komplek perumahan;Distrik seradala kab yahukimo;"XXPH+C3G, Samboga, Distrik Seradala, Kabupaten Yahukimo, Papua 99575";"Samboga, Distrik Seradala, Kabupaten Yahukimo";PAPUA;99575;Indonesia;;;;-50.139.429;1.399.777.136;https://maps.google.com/?cid=0x0:0x3dd6ddbeadc94793;
perumahan;Kantor Pemerintah Distrik;Kampung Sinimburu;"PW4V+7C, Manggemahe, Yaniruma, Kabupaten Boven Digoel, Papua 99663";"Manggemahe, Yaniruma, Kabupaten Boven Digoel";PAPUA;99663;Indonesia;;;;-52.943.494;1.399.435.908;https://maps.google.com/?cid=0x0:0xf5beec574b8d22a6;
perumahan;Perhimpunan Pengembang Perumahan;Minning 1;"X49H+H6, Yelobib, Distrik Awinbon, Kabupaten Pegunungan Bintang, Papua";"Kabupaten Pegunungan Bintang, Papua";PAPUA;;Indonesia;;;;-50.310.642;1.401.280.584;https://maps.google.com/?cid=0x0:0x30f6c9f4a55327d6;
perumahan;Komplek perumahan;Minim ABE;"X487+XJ, Yelobib, Distrik Awinbon, Kabupaten Pegunungan Bintang, Papua";"Kabupaten Pegunungan Bintang, Papua";PAPUA;;Indonesia;;;;-50.326.111;1.401.141.111;https://maps.google.com/?cid=0x0:0x93bad2ca2955fbb6;
perumahan;perumahan;KIOS YESIDA;;;PAPUA;;Indonesia;082129810406;;;-44.948.152;1.404.784.666;https://maps.google.com/?cid=0x0:0x2b6b3852cbb32d40;
perumahan;perumahan;Awinbon;"Distrik Awinbon, Kabupaten Pegunungan Bintang, Papua";"Kabupaten Pegunungan Bintang, Papua";PAPUA;;Indonesia;;;;-50.949.847;1.402.965.945;https://maps.google.com/?cid=0x0:0xe99d57a9410afcef;
perumahan;perumahan;Distrik Awinbon;"Kabupaten Pegunungan Bintang, Papua";"Kabupaten Pegunungan Bintang, Papua";PAPUA;;Indonesia;;;;-50.077.298;1.401.517.908;https://maps.google.com/?cid=0x0:0x5666ce7a04d7f46e;
perumahan;perumahan;DaniNet TRISAN;"X4MQ+675, Yelobib, Distrik Awinbon, Kabupaten Pegunungan Bintang, Papua 99575";"Yelobib, Distrik Awinbon, Kabupaten Pegunungan Bintang";PAPUA;99575;Indonesia;;;;-50.169.859;140.138.231;https://maps.google.com/?cid=0x0:0xec177260c889fb77;
perumahan;perumahan;Bintang Kaliper;"W5JR+675, Yelobib, Distrik Awinbon, Kabupaten Pegunungan Bintang, Papua 99575";"Yelobib, Distrik Awinbon, Kabupaten Pegunungan Bintang";PAPUA;99575;Indonesia;;;;-5.069.496;140.190.733;https://maps.google.com/?cid=0x0:0x2342c6110343ff03;
perumahan;perumahan;WiFi Arul;"W7G4+R3G, Pisang pisang, boven digoel-oksibil, Yelobib, Distrik Awinbon, Kabupaten Pegunungan Bintang, Papua 99575";"Pisang pisang, boven digoel-oksibil, Yelobib, Distrik Awinbon, Kabupaten Pegunungan Bintang";PAPUA;99575;Indonesia;082198531277;;;-50.729.333;1.402.552;https://maps.google.com/?cid=0x0:0x881f655d9c031f09;
perumahan;perumahan;Kios Kakatua WiFi Kaliper;"W5HG+MMJ, Yelobib, Distrik Awinbon, Kabupaten Pegunungan Bintang, Papua 99575";"Yelobib, Distrik Awinbon, Kabupaten Pegunungan Bintang";PAPUA;99575;Indonesia;;;;-5.070.791;140.176.632;https://maps.google.com/?cid=0x0:0x1a9f4bf6f38d8c5;
perumahan;perumahan;Papua 99575;"Kabupaten Pegunungan Bintang, Papua";"Kabupaten Pegunungan Bintang, Papua";PAPUA;;Indonesia;;;;-51.161.411;1.404.721.736;https://maps.google.com/?cid=0x0:0x19b958e8a9e9ca08;
perumahan;perumahan;danowage;"R6V2+6X, Yelobib, Distrik Awinbon, Kabupaten Pegunungan Bintang, Papua";"Kabupaten Pegunungan Bintang, Papua";PAPUA;;Indonesia;;;;-5.156.967;140.202.453;https://maps.google.com/?cid=0x0:0x3ee5751a43366ae5;
perumahan;Perhimpunan Pengembang Perumahan;Minning 1;"X49H+H6, Yelobib, Distrik Awinbon, Kabupaten Pegunungan Bintang, Papua";"Kabupaten Pegunungan Bintang, Papua";PAPUA;;Indonesia;;;;-50.310.642;1.401.280.584;https://maps.google.com/?cid=0x0:0x30f6c9f4a55327d6;
perumahan;Komplek perumahan;Minim ABE;"X487+XJ, Yelobib, Distrik Awinbon, Kabupaten Pegunungan Bintang, Papua";"Kabupaten Pegunungan Bintang, Papua";PAPUA;;Indonesia;;;;-50.326.111;1.401.141.111;https://maps.google.com/?cid=0x0:0x93bad2ca2955fbb6;
perumahan;Komplek perumahan;Okbifisil;"WJ9P+W8F, Tarangop, Kec. Kawor, Kabupaten Pegunungan Bintang, Papua";"Kabupaten Pegunungan Bintang, Papua";PAPUA;;Indonesia;;;;-5.080.177;140.635.803;https://maps.google.com/?cid=0x0:0x912c7d6e061b0e28;
perumahan;Komplek perumahan;Koramil Oksibil pegunungan bintang;"WJ9P+W8F Koramil, Tarangop, Kec. Kawor, Kabupaten Pegunungan Bintang, Papua";"Kabupaten Pegunungan Bintang, Papua";PAPUA;;Indonesia;;;;-5.080.177;140.635.803;https://maps.google.com/?cid=0x0:0x5c996a7ac71c1c2a;
perumahan;Pembangunan Perumahan;Woman;"VXJC+XX5, Samboga, Distrik Seradala, Kabupaten Yahukimo, Papua";"Kabupaten Yahukimo, Papua";PAPUA;;Indonesia;;;;-51.176.023;1.399.724.868;https://maps.google.com/?cid=0x0:0x18acb4203edcd99b;
perumahan;Kantor Pemerintah Distrik;Kampung Sinimburu;"PW4V+7C, Manggemahe, Yaniruma, Kabupaten Boven Digoel, Papua 99663";"Manggemahe, Yaniruma, Kabupaten Boven Digoel";PAPUA;99663;Indonesia;;;;-52.943.494;1.399.435.908;https://maps.google.com/?cid=0x0:0xf5beec574b8d22a6;
perumahan;Komplek perumahan;Distrik seradala kab yahukimo;"XXPH+C3G, Samboga, Distrik Seradala, Kabupaten Yahukimo, Papua 99575";"Samboga, Distrik Seradala, Kabupaten Yahukimo";PAPUA;99575;Indonesia;;;;-50.139.429;1.399.777.136;https://maps.google.com/?cid=0x0:0x3dd6ddbeadc94793;
perumahan;perumahan;Distrik Tarup;"Kabupaten Pegunungan Bintang, Papua";"Kabupaten Pegunungan Bintang, Papua";PAPUA;;Indonesia;;;;-51.570.425;1.409.757.647;https://maps.google.com/?cid=0x0:0xf4c8730c873f717;
perumahan;Komplek perumahan;Okbifisil;"WJ9P+W8F, Tarangop, Kec. Kawor, Kabupaten Pegunungan Bintang, Papua";"Kabupaten Pegunungan Bintang, Papua";PAPUA;;Indonesia;;;;-5.080.177;140.635.803;https://maps.google.com/?cid=0x0:0x912c7d6e061b0e28;
perumahan;perumahan;Papua 99575;"Kabupaten Pegunungan Bintang, Papua";"Kabupaten Pegunungan Bintang, Papua";PAPUA;;Indonesia;;;;-51.161.411;1.404.721.736;https://maps.google.com/?cid=0x0:0x19b958e8a9e9ca08;
perumahan;perumahan;Distrik Okhika;"Kabupaten Pegunungan Bintang, Papua";"Kabupaten Pegunungan Bintang, Papua";PAPUA;;Indonesia;;;;-46.641.089;1.406.782.097;https://maps.google.com/?cid=0x0:0xa0bdbb44f3322b7e;
perumahan;perumahan;"Delpem,Pegunungan Bintang,Papua,Indonesia";"8P2Q+V7, Kiwi, Kec. Kiwirok, Kabupaten Pegunungan Bintang, Papua";"Kabupaten Pegunungan Bintang, Papua";PAPUA;;Indonesia;;;;-46.975.286;1.407.383.683;https://maps.google.com/?cid=0x0:0x65d550938e3f142a;
perumahan;Kantor Pemerintah;Pos TNI kiwirok;"7PMV+WQM, Oknanggul, Kec. Kiwirok, Kabupaten Pegunungan Bintang, Papua 99574";"Oknanggul, Kec. Kiwirok, Kabupaten Pegunungan Bintang";PAPUA;99574;Indonesia;;;;-47.151.742;1.407.444.135;https://maps.google.com/?cid=0x0:0x5676af0ccc68d8b6;
perumahan;perumahan;Papua 99574;"Kabupaten Pegunungan Bintang, Papua";"Kabupaten Pegunungan Bintang, Papua";PAPUA;;Indonesia;;;;-4.640.956;1.407.624.493;https://maps.google.com/?cid=0x0:0x8501ef2800861902;
perumahan;perumahan;Papua;;Papua;PAPUA;;Indonesia;;;;-4.269.928;1.380.803.529;https://maps.google.com/?cid=0x0:0xeba94e9c5eefe673;
perumahan;Komplek perumahan;Ringkang Kencana;"Kompek puskopad, Cisurupan, Kec. Cibiru, Kota Bandung, Jawa Barat 40614";"Cisurupan, Kec. Cibiru, Kota Bandung";PAPUA;40614;Indonesia;089615251971;;;-69.043.628;1.077.212.084;https://maps.google.com/?cid=0x0:0x433b1c616c3fb724;
perumahan;Restoran;ROOFTOP MICHIL;"Komplek puskopad, Jl. Nagrog, Cisurupan, Kec. Cibiru, Kota Bandung, Jawa Barat";"Kota Bandung, Jawa Barat";PAPUA;;Indonesia;08815164957;;;-69.044.774;1.077.220.974;https://maps.google.com/?cid=0x0:0x7797a1464529a5aa;
perumahan;perumahan;Oklip;"Oklip, Kabupaten Pegunungan Bintang, Papua";"Kabupaten Pegunungan Bintang, Papua";PAPUA;;Indonesia;;;;-47.937.697;1.407.676.451;https://maps.google.com/?cid=0x0:0xad23e1e8aeb137d7;
perumahan;Gereja;GEREJA BETHEL;"7R4H+PF9, Okhim, Oklip, Kabupaten Pegunungan Bintang, Papua 99574";"Okhim, Oklip, Kabupaten Pegunungan Bintang";PAPUA;99574;Indonesia;;;;-4.743.211;1.408.287.269;https://maps.google.com/?cid=0x0:0x40674ebb2319c01a;
perumahan;perumahan;Oklip;"Kabupaten Pegunungan Bintang, Papua";"Kabupaten Pegunungan Bintang, Papua";PAPUA;;Indonesia;;;;-47.704.144;1.407.884.322;https://maps.google.com/?cid=0x0:0x10a6da9b53085467;
perumahan;perumahan;Papua 99574;"Kabupaten Pegunungan Bintang, Papua";"Kabupaten Pegunungan Bintang, Papua";PAPUA;;Indonesia;;;;-4.640.956;1.407.624.493;https://maps.google.com/?cid=0x0:0x8501ef2800861902;
perumahan;perumahan;"Delpem,Pegunungan Bintang,Papua,Indonesia";"8P2Q+V7, Kiwi, Kec. Kiwirok, Kabupaten Pegunungan Bintang, Papua";"Kabupaten Pegunungan Bintang, Papua";PAPUA;;Indonesia;;;;-46.975.286;1.407.383.683;https://maps.google.com/?cid=0x0:0x65d550938e3f142a;
perumahan;Perhimpunan Pengembang Perumahan;Kampung Neeb;"HVFR+6G, Muara, Distrik Batom, Kabupaten Pegunungan Bintang, Papua";"Kabupaten Pegunungan Bintang, Papua";PAPUA;;Indonesia;;;;-44.269.663;140.891.302;https://maps.google.com/?cid=0x0:0xf1234a536b9190e;
perumahan;Perhimpunan Pengembang Perumahan;ABUKEROM;"MW5X+JW6, Abukerom, Distrik Batom, Kabupaten Pegunungan Bintang, Papua";"Kabupaten Pegunungan Bintang, Papua";PAPUA;;Indonesia;;;;-43.409.643;1.409.497.647;https://maps.google.com/?cid=0x0:0xaaf9f4eb2a0c2fed;
perumahan;Perhimpunan Pengembang Perumahan;Oknengan sosial;"3JMJ+W98, Kabiding, Distrik Kolomdol, Kabupaten Pegunungan Bintang, Papua";"Kabupaten Pegunungan Bintang, Papua";PAPUA;;Indonesia;;;;-49.152.178;1.406.309.629;https://maps.google.com/?cid=0x0:0x443bc9fd56d33855;
perumahan;Sekolah menengah;HOME WIFI;"SMK Negeri 1, Komplek perumahan guru, Kotdol, Distrik Oksibil, Kabupaten Pegunungan Bintang, Papua 99573";"Komplek perumahan guru, Kotdol, Distrik Oksibil, Kabupaten Pegunungan Bintang";PAPUA;99573;Indonesia;;;;-49.030.748;1.406.024.578;https://maps.google.com/?cid=0x0:0x8ed62cc1223ef378;
perumahan;Pembangunan Perumahan;Quripsil;"4J4R+QF, Kotdol, Distrik Oksibil, Kabupaten Pegunungan Bintang, Papua";"Kabupaten Pegunungan Bintang, Papua";PAPUA;;Indonesia;;;;-48.930.534;1.406.411.677;https://maps.google.com/?cid=0x0:0x6cdedc57df58cea8;
perumahan;Pembangunan Perumahan;Feur Home;"3JXG+RJ3, Abickbor, Distrik Oksibil, Kabupaten Pegunungan Bintang, Papua";"Kabupaten Pegunungan Bintang, Papua";PAPUA;;Indonesia;;;;-49.004.875;1.406.265.469;https://maps.google.com/?cid=0x0:0x2483b17a284a10da;
perumahan;Komplek perumahan;Bulangkop;"5JFV+96W, Bulangkop, Kec. Ok Aon, Kabupaten Pegunungan Bintang, Papua";"Kabupaten Pegunungan Bintang, Papua";PAPUA;;Indonesia;;;;-48.265.146;1.406.430.658;https://maps.google.com/?cid=0x0:0x400c749e09c8f88;
perumahan;Pembangunan Perumahan;Okbutup;"3JPG+M3F, Unnamed Road, Kabiding, Distrik Serambakon, Kabupaten Pegunungan Bintang, Papua 99573";"Unnamed Road, Kabiding, Distrik Serambakon, Kabupaten Pegunungan Bintang";PAPUA;99573;Indonesia;;;;-49.133.183;1.406.251.633;https://maps.google.com/?cid=0x0:0xa259732724f4c638;
perumahan;Komplek perumahan;MM. MARIA;"3JXF+V3, Kotdol, Distrik Oksibil, Kabupaten Pegunungan Bintang, Papua 99573";"Kotdol, Distrik Oksibil, Kabupaten Pegunungan Bintang";PAPUA;99573;Indonesia;081332340803;;;-49.003.672;1.406.226.324;https://maps.google.com/?cid=0x0:0x8b883b0d8e4906;
perumahan;Perhimpunan Pengembang Perumahan;Kamoung Batom satu;"HV3J+XQ, Batom, Distrik Batom, Kabupaten Pegunungan Bintang, Papua 99574";"Batom, Distrik Batom, Kabupaten Pegunungan Bintang";PAPUA;99574;Indonesia;;;;-44.456.943;1.408.808.589;https://maps.google.com/?cid=0x0:0x75589023cd2e6ee0;
perumahan;Komplek perumahan;Ok Tarkop Ki;"4J25+F6, Kotdol, Distrik Oksibil, Kabupaten Pegunungan Bintang, Papua";"Kabupaten Pegunungan Bintang, Papua";PAPUA;;Indonesia;;;;-489.876;140.608.035;https://maps.google.com/?cid=0x0:0x66de11caa7f2623d;
perumahan;Komplek perumahan;ABITKON;"3JQH+G7, Kabiding, Distrik Oksibil, Kabupaten Pegunungan Bintang, Papua";"Kabupaten Pegunungan Bintang, Papua";PAPUA;;Indonesia;;;;-4.911.156;140.628.196;https://maps.google.com/?cid=0x0:0xd7b5a50775024dc2;
perumahan;Komplek perumahan;Bajaringan Oksibil;"3JXH+29, Kotdol, Distrik Oksibil, Kabupaten Pegunungan Bintang, Papua";"Kabupaten Pegunungan Bintang, Papua";PAPUA;;Indonesia;;;;-49.024.299;1.406.284.453;https://maps.google.com/?cid=0x0:0x8d20396d6232aab2;
perumahan;Perhimpunan Pengembang Perumahan;Shela home;"4H4P+84J, Kotdol, Distrik Oksibil, Kabupaten Pegunungan Bintang, Papua 99573";"Kotdol, Distrik Oksibil, Kabupaten Pegunungan Bintang";PAPUA;99573;Indonesia;;;;-48.932.049;140.584.968;https://maps.google.com/?cid=0x0:0xa60db90d9bad3bb5;
perumahan;Komplek perumahan;KIOS OKDEMON 0707;"3JWM+GVV Komplek perumahan guru SMK Negeri egeri, Kotdol, Oksibil, Pegunungan Bintang Regency, Papua";"Kabupaten Pegunungan Bintang, Papua";PAPUA;;Indonesia;;;;-49.036.454;1.406.346.666;https://maps.google.com/?cid=0x0:0xd649047da36fdb64;
perumahan;Perhimpunan Pengembang Perumahan;CHALSEB ESCOM;"3JRF+5PM, Kabiding, Distrik Oksibil, Kabupaten Pegunungan Bintang, Papua 99573";"Kabiding, Distrik Oksibil, Kabupaten Pegunungan Bintang";PAPUA;99573;Indonesia;;;;-49.088.229;14.062.529;https://maps.google.com/?cid=0x0:0xdbd2d1ef8a038af1;
perumahan;Perhimpunan Pengembang Perumahan;Kampung Batom Dua;"GVXG+QP, Batom 2, Distrik Batom, Kabupaten Pegunungan Bintang, Papua";"Kabupaten Pegunungan Bintang, Papua";PAPUA;;Indonesia;;;;-4.450.425;1.408.768.116;https://maps.google.com/?cid=0x0:0x814cc5374c64e823;
perumahan;Dewan;Mess DPRD pegunungan bintang;"4J6R+3X8 Mess DPRD, Kotdol, Distrik Oksibil, Kabupaten Pegunungan Bintang, Papua";"Kabupaten Pegunungan Bintang, Papua";PAPUA;;Indonesia;;;;-48.898.398;1.406.424.384;https://maps.google.com/?cid=0x0:0x51d62769c08a071f;
perumahan;Pembangunan Perumahan;Oksingsing;"3JCM+CQ9, Oksibil - Iwur, Molbib Silibib, Distrik Pepera, Kabupaten Pegunungan Bintang, Papua 99573";"Oksibil - Iwur, Molbib Silibib, Distrik Pepera, Kabupaten Pegunungan Bintang";PAPUA;99573;Indonesia;;;;-49.289.586;1.406.344.783;https://maps.google.com/?cid=0x0:0x6166f060bbe1a498;
perumahan;Pembangunan Perumahan;Angky Home;"3JPM+8FX, Okmakot, Distrik Oksibil, Kabupaten Pegunungan Bintang, Papua 99573";"Okmakot, Distrik Oksibil, Kabupaten Pegunungan Bintang";PAPUA;99573;Indonesia;;;;-49.141.495;1.406.337.222;https://maps.google.com/?cid=0x0:0xf0fae07de5359ec3;
perumahan;Kantor Pemerintah;Pos TNI kiwirok;"7PMV+WQM, Oknanggul, Kec. Kiwirok, Kabupaten Pegunungan Bintang, Papua 99574";"Oknanggul, Kec. Kiwirok, Kabupaten Pegunungan Bintang";PAPUA;99574;Indonesia;;;;-47.151.742;1.407.444.135;https://maps.google.com/?cid=0x0:0x5676af0ccc68d8b6;
perumahan;perumahan;Distrik Oksebang;"Kabupaten Pegunungan Bintang, Papua";"Kabupaten Pegunungan Bintang, Papua";PAPUA;;Indonesia;;;;-47.586.522;1.407.364.771;https://maps.google.com/?cid=0x0:0x145e92bd2f820feb;
perumahan;perumahan;Kampung Okbon;"4P7J+462, Pepera, Distrik Pepera, Kabupaten Pegunungan Bintang, Papua";"Kabupaten Pegunungan Bintang, Papua";PAPUA;;Indonesia;;;;-48.872.459;1.407.305.111;https://maps.google.com/?cid=0x0:0x177130a43d05d238;
perumahan;Kantor Pemerintah;Pos TNI kiwirok;"7PMV+WQM, Oknanggul, Kec. Kiwirok, Kabupaten Pegunungan Bintang, Papua 99574";"Oknanggul, Kec. Kiwirok, Kabupaten Pegunungan Bintang";PAPUA;99574;Indonesia;;;;-47.151.742;1.407.444.135;https://maps.google.com/?cid=0x0:0x5676af0ccc68d8b6;
perumahan;perumahan;Distrik Okbab;"Kabupaten Pegunungan Bintang, Papua";"Kabupaten Pegunungan Bintang, Papua";PAPUA;;Indonesia;;;;-44.591.074;1.403.986.638;https://maps.google.com/?cid=0x0:0x230d9d286d136c26;
perumahan;Komplek perumahan;Arimkubun;"CGR7+CC3, Borban, Arimkubun, Kabupaten Pegunungan Bintang, Papua";"Kabupaten Pegunungan Bintang, Papua";PAPUA;;Indonesia;;;;-45.589.872;1.405.135.589;https://maps.google.com/?cid=0x0:0x9d97f844b041254;
perumahan;perumahan;Papua 99572;"Kabupaten Pegunungan Bintang, Papua";"Kabupaten Pegunungan Bintang, Papua";PAPUA;;Indonesia;;;;-43.578.129;1.404.308.159;https://maps.google.com/?cid=0x0:0x3d3d35db4afd3dc1;
perumahan;Perhimpunan Pengembang Perumahan;Kampung waibron;"CGR7+CC3, Borban, Distrik Okbab, Kabupaten Pegunungan Bintang, Papua";"Kabupaten Pegunungan Bintang, Papua";PAPUA;;Indonesia;;;;-45.589.872;1.405.135.589;https://maps.google.com/?cid=0x0:0x695c8c898eaec775;
perumahan;perumahan;Papua 99576;"Kabupaten Pegunungan Bintang, Papua";"Kabupaten Pegunungan Bintang, Papua";PAPUA;;Indonesia;;;;-41.176.623;1.407.624.493;https://maps.google.com/?cid=0x0:0x9e236cdcf6328593;
perumahan;perumahan;Distrik Batani;"Kabupaten Pegunungan Bintang, Papua";"Kabupaten Pegunungan Bintang, Papua";PAPUA;;Indonesia;;;;-40.316.983;1.400.819.983;https://maps.google.com/?cid=0x0:0xe7564011ad7ca983;
perumahan;Perumahan;"Perumahan Kintamani Residence, Pondok Petir";"Jl. Raya Pd. Petir, Pd. Petir, Kec. Bojongsari, Kota Depok, Jawa Barat 16517";"Pd. Petir, Kec. Bojongsari, Kota Depok";PAPUA;16517;Indonesia;;;;-63.681.939;1.067.299.545;https://maps.google.com/?cid=0x0:0xad955a5cdd6a31f7;
perumahan;Pembangunan Perumahan;Perumahan Kintamani;"Perumahan Kintamani. Blok A8 No. 18, RT.:25/08, Jejalenjaya, Kec. Tambun Utara, Kabupaten Bekasi, Jawa Barat 17510";"RT.:25/08, Jejalenjaya, Kec. Tambun Utara, Kabupaten Bekasi";PAPUA;17510;Indonesia;;;;-62.244.086;107.062.993;https://maps.google.com/?cid=0x0:0x37dadc4fc55fa1a;
perumahan;perumahan;Distrik Weime;"Kabupaten Pegunungan Bintang, Papua";"Kabupaten Pegunungan Bintang, Papua";PAPUA;;Indonesia;;;;-43.975.064;1.402.862.819;https://maps.google.com/?cid=0x0:0x3dfe9a068b232231;
perumahan;Otoritas Perumahan;Bekasi Green City;"R3J3+F86, Sriamur, Kec. Tambun Utara, Kabupaten Bekasi, Jawa Barat 17510";"Sriamur, Kec. Tambun Utara, Kabupaten Bekasi";PAPUA;17510;Indonesia;;;;-61.688.317;1.070.532.703;https://maps.google.com/?cid=0x0:0xf6c2db8f67f85249;
perumahan;Balai masyarakat;Cimider;"M9PP+MPC, Jl. Cimider Pasirmulya, Pasirmulya, Kec. Majalaya, Karawang, Jawa Barat 41371";"Jl. Cimider Pasirmulya, Pasirmulya, Kec. Majalaya, Karawang";PAPUA;41371;Indonesia;;;;-63.133.135;1.073.867.691;https://maps.google.com/?cid=0x0:0xa82fe600f8ebc83d;
perumahan;Loket Tol;exit toll sawangan;"JQ4M+36, Rangkapan Jaya, Kec. Pancoran Mas, Kota Depok, Jawa Barat 16435";"Rangkapan Jaya, Kec. Pancoran Mas, Kota Depok";PAPUA;16435;Indonesia;;;;-63.948.701;1.067.832.784;https://maps.google.com/?cid=0x0:0x65b9ef35116e0773;
perumahan;perumahan;Kampung Tual;"PV7P+GX4, Kampung Tual, Distrik Mofinop, Kabupaten Pegunungan Bintang, Papua 99576";"Kampung Tual, Distrik Mofinop, Kabupaten Pegunungan Bintang";PAPUA;99576;Indonesia;;;;-42.862.314;1.408.874.525;https://maps.google.com/?cid=0x0:0x3048e1426ceafafe;
perumahan;perumahan;Kec. Yefta;"Kabupaten Pegunungan Bintang, Papua";"Kabupaten Pegunungan Bintang, Papua";PAPUA;;Indonesia;;;;-40.581.184;1.405.756.887;https://maps.google.com/?cid=0x0:0xf9d52738f42277c5;
perumahan;Komplek perumahan;TERPONES;"2MG5+JC6, Lulis, Kec. Yefta, Kabupaten Pegunungan Bintang, Papua 99576";"Lulis, Kec. Yefta, Kabupaten Pegunungan Bintang";PAPUA;99576;Indonesia;;;;-39.729.291;1.406.593.839;https://maps.google.com/?cid=0x0:0x211ddd1e546bf856;
perumahan;Komplek perumahan;Kampung Pris;"XJ74+PPR, Bris, Kec. Yefta, Kabupaten Pegunungan Bintang, Papua";"Kabupaten Pegunungan Bintang, Papua";PAPUA;;Indonesia;;;;-40.356.335;1.406.067.768;https://maps.google.com/?cid=0x0:0xe2e07fd250dfd776;
perumahan;Perumahan;Perumahan Grand Efata;"CFP9+8CH, Doyo Lama, Distrik Waibu, Kabupaten Jayapura, Papua 99352";"Doyo Lama, Distrik Waibu, Kabupaten Jayapura";PAPUA;99352;Indonesia;;;;-25.641.837;1.404.685.974;https://maps.google.com/?cid=0x0:0xd788e1e3f1f92510;
perumahan;Perhimpunan Pengembang Perumahan;Kalimbu Palolo;"WHM8+Q44, Kalimbu, Palolo, Kabupaten Pegunungan Bintang, Papua 99572";"Kalimbu, Palolo, Kabupaten Pegunungan Bintang";PAPUA;99572;Indonesia;;;;-40.656.117;1.405.653.294;https://maps.google.com/?cid=0x0:0x6ddc1c2415d96874;
perumahan;perumahan;Pelabuhan Lama Kali Lulis;"WJ22+6Q, Lulis, Aboy, Kabupaten Pegunungan Bintang, Papua";"Kabupaten Pegunungan Bintang, Papua";PAPUA;;Indonesia;;;;-40.993.753;1.406.019.789;https://maps.google.com/?cid=0x0:0x74eeab5f4b1a8543;
perumahan;perumahan;Papua 99572;"Kabupaten Pegunungan Bintang, Papua";"Kabupaten Pegunungan Bintang, Papua";PAPUA;;Indonesia;;;;-43.578.129;1.404.308.159;https://maps.google.com/?cid=0x0:0x3d3d35db4afd3dc1;
perumahan;Taman;Kampung Teirame;"2C5V+98, Teriame, Teiraplu, Kabupaten Pegunungan Bintang, Papua";"Kabupaten Pegunungan Bintang, Papua";PAPUA;;Indonesia;;;;-3.991.582;1.404.433.313;https://maps.google.com/?cid=0x0:0x3b1ffe60386a1b39;
perumahan;Komplek perumahan;TERPONES;"2MG5+JC6, Lulis, Kec. Yefta, Kabupaten Pegunungan Bintang, Papua 99576";"Lulis, Kec. Yefta, Kabupaten Pegunungan Bintang";PAPUA;99576;Indonesia;;;;-39.729.291;1.406.593.839;https://maps.google.com/?cid=0x0:0x211ddd1e546bf856;
perumahan;Komplek perumahan;Pris;"XH4X+4MQ, Bris, Kec. Yefta, Kabupaten Pegunungan Bintang, Papua";"Kabupaten Pegunungan Bintang, Papua";PAPUA;;Indonesia;;;;-40.446.636;1.405.992.256;https://maps.google.com/?cid=0x0:0x162b213dce1625f4;
perumahan;Komplek perumahan;Arimkubun;"CGR7+CC3, Borban, Arimkubun, Kabupaten Pegunungan Bintang, Papua";"Kabupaten Pegunungan Bintang, Papua";PAPUA;;Indonesia;;;;-45.589.872;1.405.135.589;https://maps.google.com/?cid=0x0:0x9d97f844b041254;
perumahan;perumahan;Pelabuhan Lama Kali Lulis;"WJ22+6Q, Lulis, Aboy, Kabupaten Pegunungan Bintang, Papua";"Kabupaten Pegunungan Bintang, Papua";PAPUA;;Indonesia;;;;-40.993.753;1.406.019.789;https://maps.google.com/?cid=0x0:0x74eeab5f4b1a8543;
perumahan;Perhimpunan Pengembang Perumahan;Desa Bumbakon;"892C+876, Mimin, Kec. Oksop, Kabupaten Pegunungan Bintang, Papua 99572";"Mimin, Kec. Oksop, Kabupaten Pegunungan Bintang";PAPUA;99572;Indonesia;;;;-46.992.388;1.403.706.582;https://maps.google.com/?cid=0x0:0x40ba7704e5bf8f8a;
perumahan;Perhimpunan Pengembang Perumahan;Kalimbu Palolo;"WHM8+Q44, Kalimbu, Palolo, Kabupaten Pegunungan Bintang, Papua 99572";"Kalimbu, Palolo, Kabupaten Pegunungan Bintang";PAPUA;99572;Indonesia;;;;-40.656.117;1.405.653.294;https://maps.google.com/?cid=0x0:0x6ddc1c2415d96874;
perumahan;Perhimpunan Pengembang Perumahan;Manrten simalya;"CGR7+CC3, Borban, Distrik Okbab, Kabupaten Pegunungan Bintang, Papua";"Kabupaten Pegunungan Bintang, Papua";PAPUA;;Indonesia;;;;-45.589.872;1.405.135.589;https://maps.google.com/?cid=0x0:0x2288c4339c62777e;
perumahan;Perhimpunan Pengembang Perumahan;Kampung waibron;"CGR7+CC3, Borban, Distrik Okbab, Kabupaten Pegunungan Bintang, Papua";"Kabupaten Pegunungan Bintang, Papua";PAPUA;;Indonesia;;;;-45.589.872;1.405.135.589;https://maps.google.com/?cid=0x0:0x695c8c898eaec775;
perumahan;perumahan;Amase;"QHJ6+XQX, Amase, Aboy, Kabupaten Pegunungan Bintang, Papua 99572";"Amase, Aboy, Kabupaten Pegunungan Bintang";PAPUA;99572;Indonesia;;;;-42.175.037;1.405.619.926;https://maps.google.com/?cid=0x0:0xd542b18f5c6bc572;
perumahan;Perhimpunan Pengembang Perumahan;Serly A.waimeni;"6G6W+8G, Usku, Saefen empat dua, Kabupaten Keerom, Papua";"Kabupaten Keerom, Papua";PAPUA;;Indonesia;;;;-37.891.875;1.405.463.125;https://maps.google.com/?cid=0x0:0x3f1f3ea6c8bbc32c;
perumahan;Komplek perumahan;Calon Desa Dekitamur;"M6MR+5RX, Dekitamur, Distrik Weime, Kabupaten Pegunungan Bintang, Papua";"Kabupaten Pegunungan Bintang, Papua";PAPUA;;Indonesia;;;;-4.317.019;1.402.421.056;https://maps.google.com/?cid=0x0:0x657bc1de00262af0;
perumahan;Komplek perumahan;Kampung Tely;"G69G+634, Bime, Distrik Bime, Kabupaten Pegunungan Bintang, Papua";"Kabupaten Pegunungan Bintang, Papua";PAPUA;;Indonesia;;;;-44.819.975;1.402.251.906;https://maps.google.com/?cid=0x0:0xb8309a16ae579c3;
perumahan;Pembangunan Perumahan;Kampung Purjo;"F6XP+9G, Bime, Distrik Bime, Kabupaten Pegunungan Bintang, Papua";"Kabupaten Pegunungan Bintang, Papua";PAPUA;;Indonesia;;;;-4.501.451;1.402.361.894;https://maps.google.com/?cid=0x0:0xe344645bd09e192d;
perumahan;Pembangunan Perumahan;Quripsil;"4J4R+QF, Kotdol, Distrik Oksibil, Kabupaten Pegunungan Bintang, Papua";"Kabupaten Pegunungan Bintang, Papua";PAPUA;;Indonesia;;;;-48.930.534;1.406.411.677;https://maps.google.com/?cid=0x0:0x6cdedc57df58cea8;
perumahan;Komplek perumahan;Kampung Turwe;"G66C+58, Bime, Distrik Bime, Kabupaten Pegunungan Bintang, Papua";"Kabupaten Pegunungan Bintang, Papua";PAPUA;;Indonesia;;;;-44.894.746;1.402.208.627;https://maps.google.com/?cid=0x0:0x8a80710961d553b1;
perumahan;perumahan;Teiraplu;"Kabupaten Pegunungan Bintang, Papua";"Kabupaten Pegunungan Bintang, Papua";PAPUA;;Indonesia;;;;-38.310.636;140.265.662;https://maps.google.com/?cid=0x0:0x7579560ea8064870;
perumahan;Pembangunan Perumahan;Feur Home;"3JXG+RJ3, Abickbor, Distrik Oksibil, Kabupaten Pegunungan Bintang, Papua";"Kabupaten Pegunungan Bintang, Papua";PAPUA;;Indonesia;;;;-49.004.875;1.406.265.469;https://maps.google.com/?cid=0x0:0x2483b17a284a10da;
perumahan;Komplek perumahan;MM. MARIA;"3JXF+V3, Kotdol, Distrik Oksibil, Kabupaten Pegunungan Bintang, Papua 99573";"Kotdol, Distrik Oksibil, Kabupaten Pegunungan Bintang";PAPUA;99573;Indonesia;081332340803;;;-49.003.672;1.406.226.324;https://maps.google.com/?cid=0x0:0x8b883b0d8e4906;
perumahan;Perhimpunan Pengembang Perumahan;Posko KKN UGR angkatan 23;"R8MQ+R49, Semban, Borme, Kabupaten Pegunungan Bintang, Papua";"Kabupaten Pegunungan Bintang, Papua";PAPUA;;Indonesia;085937413919;;;-41.654.724;1.403.378.622;https://maps.google.com/?cid=0x0:0xf2431d65ab934d4d;
perumahan;perumahan;Distrik Epumek;"Kabupaten Pegunungan Bintang, Papua";"Kabupaten Pegunungan Bintang, Papua";PAPUA;;Indonesia;;;;-44.168.435;1.400.803.953;https://maps.google.com/?cid=0x0:0xfae5de68ea47222c;
perumahan;Komplek perumahan;Kampung Imde;"JXCX+87Q, Imde, Distrik Pamek, Kabupaten Pegunungan Bintang, Papua";"Kabupaten Pegunungan Bintang, Papua";PAPUA;;Indonesia;;;;-43.791.595;139.998.236;https://maps.google.com/?cid=0x0:0x8c1c589db27098a1;
perumahan;Perhimpunan Pengembang Perumahan;Wakidam;"G36C+72X, Wakidam, Distrik Epumek, Kabupaten Pegunungan Bintang, Papua 99577";"Wakidam, Distrik Epumek, Kabupaten Pegunungan Bintang";PAPUA;99577;Indonesia;;;;-44.892.524;1.400.701.193;https://maps.google.com/?cid=0x0:0xefb747cba1414959;
perumahan;Komplek perumahan;Kampung bunyire;"H48W+MVH, Bunyirye, Distrik Epumek, Kabupaten Pegunungan Bintang, Papua";"Kabupaten Pegunungan Bintang, Papua";PAPUA;;Indonesia;;;;-44.333.174;1.401.472.321;https://maps.google.com/?cid=0x0:0x9dbb6b4ece06e399;
perumahan;Komplek perumahan;Pamek;"JXCX+87Q, Imde, Distrik Pamek, Kabupaten Pegunungan Bintang, Papua";"Kabupaten Pegunungan Bintang, Papua";PAPUA;;Indonesia;;;;-43.791.595;139.998.236;https://maps.google.com/?cid=0x0:0x22adbb83945ecd28;
perumahan;Perhimpunan Pengembang Perumahan;Domidena;"JXCX+87Q, Imde, Distrik Pamek, Kabupaten Pegunungan Bintang, Papua";"Kabupaten Pegunungan Bintang, Papua";PAPUA;;Indonesia;;;;-43.791.595;139.998.236;https://maps.google.com/?cid=0x0:0x240533b90d8bc588;
perumahan;Komplek perumahan;Kampung Turwe;"G66C+58, Bime, Distrik Bime, Kabupaten Pegunungan Bintang, Papua";"Kabupaten Pegunungan Bintang, Papua";PAPUA;;Indonesia;;;;-44.894.746;1.402.208.627;https://maps.google.com/?cid=0x0:0x8a80710961d553b1;
perumahan;Komplek perumahan;Kampung Tely;"G69G+634, Bime, Distrik Bime, Kabupaten Pegunungan Bintang, Papua";"Kabupaten Pegunungan Bintang, Papua";PAPUA;;Indonesia;;;;-44.819.975;1.402.251.906;https://maps.google.com/?cid=0x0:0xb8309a16ae579c3;
perumahan;Komplek perumahan;Calon Desa Dekitamur;"M6MR+5RX, Dekitamur, Distrik Weime, Kabupaten Pegunungan Bintang, Papua";"Kabupaten Pegunungan Bintang, Papua";PAPUA;;Indonesia;;;;-4.317.019;1.402.421.056;https://maps.google.com/?cid=0x0:0x657bc1de00262af0;
perumahan;Pembangunan Perumahan;Kampung Purjo;"F6XP+9G, Bime, Distrik Bime, Kabupaten Pegunungan Bintang, Papua";"Kabupaten Pegunungan Bintang, Papua";PAPUA;;Indonesia;;;;-4.501.451;1.402.361.894;https://maps.google.com/?cid=0x0:0xe344645bd09e192d;
perumahan;Bandara;Lapangan terbang Bamlyei;"J5XV+HCM, Dusun Taramnye, Youlban, Distrik Weime, Kabupaten Pegunungan Bintang, Papua 99577";"Dusun Taramnye, Youlban, Distrik Weime, Kabupaten Pegunungan Bintang";PAPUA;99577;Indonesia;;;;-43.510.315;1.401.935.468;https://maps.google.com/?cid=0x0:0xdeeb1d048f1f9846;
perumahan;Hotel;Rumah vera;"J3RC+62H, Talemo, Distrik Epumek, Kabupaten Pegunungan Bintang, Papua 99577";"Talemo, Distrik Epumek, Kabupaten Pegunungan Bintang";PAPUA;99577;Indonesia;;;;-43.594.389;1.400.701.193;https://maps.google.com/?cid=0x0:0xee45b07dfcdd21e5;
perumahan;Komplek perumahan;Komplek Komas asime;"G69G+634, Bime, Distrik Bime, Kabupaten Pegunungan Bintang, Papua";"Kabupaten Pegunungan Bintang, Papua";PAPUA;;Indonesia;;;;-44.819.975;1.402.251.906;https://maps.google.com/?cid=0x0:0xc9205e26fd3af469;
perumahan;Komplek perumahan;Kampung Botorgon;"J6MH+RR4, Nomteren, Dekitamur, Kabupaten Pegunungan Bintang, Papua 99577";"Nomteren, Dekitamur, Kabupaten Pegunungan Bintang";PAPUA;99577;Indonesia;;;;-43.654.794;1.402.295.937;https://maps.google.com/?cid=0x0:0x88729fde2b8a1738;
perumahan;Komplek perumahan;Rumah Ungu Epoy;"Jl. Sawo Kecik 1 No.71, RT.1/RW.7, Bukit Duri, Kec. Tebet, Kota Jakarta Selatan, Daerah Khusus Ibukota Jakarta 12840";"RT.1/RW.7, Bukit Duri, Kec. Tebet, Kota Jakarta Selatan";PAPUA;12840;Indonesia;087775811105;;;-62.225.305;1.068.578.231;https://maps.google.com/?cid=0x0:0x4c26155a4d75af23;
perumahan;Komplek perumahan;Dwi utami;"Pesona mutiara tambun 2, Jl. AL Ikhlas No.10 blok c1, Sumberjaya, Kec. Tambun Sel., 1Bekasi, Jawa Barat 17510";"Jl. AL Ikhlas No.10 blok c1, Sumberjaya, Kec. Tambun Sel., 1Bekasi";PAPUA;17510;Indonesia;;;;-62.184.452;1.070.743.864;https://maps.google.com/?cid=0x0:0x899e64f361b033b6;
perumahan;perumahan;Distrik Pamek;"Kabupaten Pegunungan Bintang, Papua";"Kabupaten Pegunungan Bintang, Papua";PAPUA;;Indonesia;;;;-43.791.595;139.998.236;https://maps.google.com/?cid=0x0:0xed125e3af8269928;
perumahan;Perhimpunan Pengembang Perumahan;Elia Mirin;"G2VC+5WV, Eipomek, Distrik Epumek, Kabupaten Pegunungan Bintang, Papua 99577";"Eipomek, Distrik Epumek, Kabupaten Pegunungan Bintang";PAPUA;99577;Indonesia;;;;-44.570.032;1.400.222.993;https://maps.google.com/?cid=0x0:0x6f1f06308fd24752;
perumahan;Perhimpunan Pengembang Perumahan;Wakidam;"G36C+72X, Wakidam, Distrik Epumek, Kabupaten Pegunungan Bintang, Papua 99577";"Wakidam, Distrik Epumek, Kabupaten Pegunungan Bintang";PAPUA;99577;Indonesia;;;;-44.892.524;1.400.701.193;https://maps.google.com/?cid=0x0:0xefb747cba1414959;
perumahan;Perhimpunan Pengembang Perumahan;Domidena;"JXCX+87Q, Imde, Distrik Pamek, Kabupaten Pegunungan Bintang, Papua";"Kabupaten Pegunungan Bintang, Papua";PAPUA;;Indonesia;;;;-43.791.595;139.998.236;https://maps.google.com/?cid=0x0:0x240533b90d8bc588;
perumahan;Komplek perumahan;Pamek;"JXCX+87Q, Imde, Distrik Pamek, Kabupaten Pegunungan Bintang, Papua";"Kabupaten Pegunungan Bintang, Papua";PAPUA;;Indonesia;;;;-43.791.595;139.998.236;https://maps.google.com/?cid=0x0:0x22adbb83945ecd28;
perumahan;perumahan;Papua 99576;"Kabupaten Pegunungan Bintang, Papua";"Kabupaten Pegunungan Bintang, Papua";PAPUA;;Indonesia;;;;-41.176.623;1.407.624.493;https://maps.google.com/?cid=0x0:0x9e236cdcf6328593;
perumahan;perumahan;Nongme;"Kabupaten Pegunungan Bintang, Papua";"Kabupaten Pegunungan Bintang, Papua";PAPUA;;Indonesia;;;;-42.374.677;140.059.845;https://maps.google.com/?cid=0x0:0x74529e9836b33803;
perumahan;Komplek perumahan;Sunrise River Cileungsi;"Perumahan Sunrise River Cileungsi, Jl. Kubang blok AB no 8, Jatisari, Kec. Cileungsi, Kabupaten Bogor, Jawa Barat 16820";"Jl. Kubang blok AB no 8, Jatisari, Kec. Cileungsi, Kabupaten Bogor";PAPUA;16820;Indonesia;08119663637;;;-64.110.559;1.070.525.455;https://maps.google.com/?cid=0x0:0x6df7a805784a681;
