Category,Real Category,Business Name,Address,City,State,Postal Code,Country,Phone,Email,Website,Latitude,Longitude,Map Link,Details Link
hotel,hotel,Distrik Tiom,"Kabupaten Lanny Jaya, Papua","Kabupaten Lanny Jaya, Papua",PAPUA,,Indonesia,,,,-3.9277573,138.4557817,https://maps.google.com/?cid=0x0:0x1bdc1c8bed88c23f,
hotel,hotel,Hotel Baliem Pilamo,"Jl. Trikora No.114, Wamena Kota, Distrik Wamena, Kabupaten Jayawijaya, Papua 99511","Wamena Kota, Distrik Wamena, Kabupaten Jayawijaya",PAPUA,99511.0,Indonesia,81344090719.0,,,-4.089872,138.9452891,https://maps.google.com/?cid=0x0:0x4c66aca0c6c4c202,
hotel,hotel,"Swiss-Belhotel Jayapura, Papua","Pusat Bisnis Jayapura, Jl. Pacific Permai, Bayangkara, Kec. Jayapura Utara, Kota Jayapura, Papua 99112","Jl. Pacific Permai, Bayangkara, Kec. Jayapura Utara, Kota Jayapura",PAPUA,99112.0,Indonesia,967551888.0,,,-2.539046,140.711573,https://maps.google.com/?cid=0x0:0xbd14f75af0c6e48b,
hotel,hotel,Rimba Papua Hotel,"Jl. Kwamki Narama No. 1, Kwamki, Kec. Mimika Baru, Kabupaten Mimika, Papua 99971","Kwamki, Kec. Mimika Baru, Kabupaten Mimika",PAPUA,99971.0,Indonesia,901494949.0,,,-4.5151124,136.884599,https://maps.google.com/?cid=0x0:0xa65056700db32492,
hotel,hotel,Hotel Serayu,"Jl. Yos Sudarso No.10, Koperapoka, Kec. Mimika Baru, Kabupaten Mimika, Papua 99971","Koperapoka, Kec. Mimika Baru, Kabupaten Mimika",PAPUA,99971.0,Indonesia,82199984085.0,,,-4.5492995,136.8902348,https://maps.google.com/?cid=0x0:0xe357fb3041308a6c,
hotel,hotel,Horison Inn Relat Jayapura,"Jl. Pantai Klp. No.21 - 23, Argapura, Distrik Jayapura Selatan, Kota Jayapura, Papua","Kota Jayapura, Papua",PAPUA,,Indonesia,9675160779.0,,,-2.5537101,140.7148929,https://maps.google.com/?cid=0x0:0xb98fc1bbb5c5c494,
hotel,hotel,Hotel Rainbow,"Jl. Irian No.26, Wamena Kota, Distrik Wamena, Kabupaten Jayawijaya, Papua 99511","Wamena Kota, Distrik Wamena, Kabupaten Jayawijaya",PAPUA,99511.0,Indonesia,81248000685.0,,,-4.0943536,138.9419192,https://maps.google.com/?cid=0x0:0x8a8c32fe134fd547,
hotel,hotel,Hotel Karya Papua,"JGX6+2PM, Jl. R.E. Martadinata Kalinona, Nabarua, Distrik Nabire, Papua 98816","Jl. R.E. Martadinata Kalinona, Nabarua, Distrik Nabire",PAPUA,98816.0,Indonesia,82164655697.0,,,-3.3524082,135.5118114,https://maps.google.com/?cid=0x0:0x8196bf4b8aafbb3f,
hotel,hotel,Hotel Cartenz Wamena,"Jl. Yos Sudarso No.45, Hurekama, Distrik Wamena, Kabupaten Jayawijaya, Papua 99511","Hurekama, Distrik Wamena, Kabupaten Jayawijaya",PAPUA,99511.0,Indonesia,81344804750.0,,,-4.1012558,138.9376982,https://maps.google.com/?cid=0x0:0xf2c5765f17cbf383,
hotel,hotel,Hotel Anggrek,"Jl. Ambon No.1, Wamena Kota, Distrik Wamena, Kabupaten Jayawijaya, Papua 99511","Wamena Kota, Distrik Wamena, Kabupaten Jayawijaya",PAPUA,99511.0,Indonesia,,,,-4.0951401,138.9486951,https://maps.google.com/?cid=0x0:0x8c14510cd7032458,
hotel,hotel,Hotel Rivior Sarmi,"4PVX+XHH, Sarmi, Kec. Sarmi, Kabupaten Sarmi, Papua 99373","Sarmi, Kec. Sarmi, Kabupaten Sarmi",PAPUA,99373.0,Indonesia,81247768282.0,,,-1.8550507,138.7489752,https://maps.google.com/?cid=0x0:0x687222ae96a90f78,
hotel,hotel,SAMUMAMBO HOTEL,"jl. cenderawasih belakang manna bakerei, Kwamki, Kec. Mimika Baru, Kabupaten Mimika, Papua 99910","Kwamki, Kec. Mimika Baru, Kabupaten Mimika",PAPUA,99910.0,Indonesia,81344090664.0,,,-4.5424836,136.8797497,https://maps.google.com/?cid=0x0:0xcb5241de257efb93,
hotel,hotel,Hotel Cenderawasih,"9MWC+2PV, kotaraja ( jln asrama haji.. gang jeruk, Vim, Kec. Abepura, Kota Jayapura, Papua 99225","kotaraja ( jln asrama haji.. gang jeruk, Vim, Kec. Abepura, Kota Jayapura",PAPUA,99225.0,Indonesia,81340933105.0,,,-2.6048775,140.6717939,https://maps.google.com/?cid=0x0:0xc3d595f47206b49c,
hotel,hotel,Hotel Ratna Manunggal,"JL Penerangan No.2, Sentani Kota, Kec. Sentani, Kabupaten Jayapura, Papua 99359","Sentani Kota, Kec. Sentani, Kabupaten Jayapura",PAPUA,99359.0,Indonesia,967592277.0,,,-2.5664673,140.5131587,https://maps.google.com/?cid=0x0:0x48909e20fce419f9,
hotel,hotel,Hotel Dafonsoro,"Jl. Percetakan Negara No.20-24, Gurabesi, Kec. Jayapura Utara, Kota Jayapura, Papua 99221","Gurabesi, Kec. Jayapura Utara, Kota Jayapura",PAPUA,99221.0,Indonesia,85788877739.0,,,-2.5406973,140.7041061,https://maps.google.com/?cid=0x0:0xda20a7d826a77577,
hotel,hotel,Hotel Mutiara,"CM3C+873, Jl. Perkutut, Vim, Kec. Abepura, Kota Jayapura, Papua 99225","Jl. Perkutut, Vim, Kec. Abepura, Kota Jayapura",PAPUA,99225.0,Indonesia,81348430963.0,,,-2.5967398,140.6706613,https://maps.google.com/?cid=0x0:0xb730b0fce1d80fe4,
hotel,hotel,Jaya Hotel,"CVJP+XV2, Jl. Raya Sp1, Inauga, Kec. Mimika Baru, Kabupaten Mimika, Papua 99971","Jl. Raya Sp1, Inauga, Kec. Mimika Baru, Kabupaten Mimika",PAPUA,99971.0,Indonesia,87777677405.0,,,-4.5676146,136.8871472,https://maps.google.com/?cid=0x0:0x854e1f8dfba40a6c,
hotel,hotel,Hotel Matoa,"Jl. Ahmad Yani No.14, Gurabesi, Kec. Jayapura Utara, Kota Jayapura, Papua 99222","Gurabesi, Kec. Jayapura Utara, Kota Jayapura",PAPUA,99222.0,Indonesia,967531633.0,,,-2.5431901,140.7035183,https://maps.google.com/?cid=0x0:0x81bb053fbf57415d,
hotel,hotel,Hotel R6,"Jl.Cendrawasih SP2, Papua 99952","Kabupaten Mimika, Papua",PAPUA,,Indonesia,82245112457.0,,,-4.538464,136.8691429,https://maps.google.com/?cid=0x0:0xb392d58fbaabfb69,
hotel,hotel,Hotel Rannu Jaya,"WW6V+7RM, Wamena Kota, Distrik Wamena, Kabupaten Jayawijaya, Papua 99511","Wamena Kota, Distrik Wamena, Kabupaten Jayawijaya",PAPUA,99511.0,Indonesia,82195455765.0,,,-4.0892985,138.9445592,https://maps.google.com/?cid=0x0:0xdd25cadd9590097a,
hotel,hotel,Penginapan Paparisa Amungsa,"Koperapoka, Kec. Mimika Baru, Kabupaten Mimika, Papua 99971","Kec. Mimika Baru, Kabupaten Mimika",PAPUA,99971.0,Indonesia,81343206383.0,,,-4.5385795,136.8755667,https://maps.google.com/?cid=0x0:0xfd07a1d4446c8f23,
hotel,hotel,Hotel Greend Idaman,"Persatuan, Kec. Mandobo, Kabupaten Boven Digoel, Papua 99663","Kec. Mandobo, Kabupaten Boven Digoel",PAPUA,99663.0,Indonesia,82229338883.0,,,-6.1143736,140.3221803,https://maps.google.com/?cid=0x0:0x7e63bcf9bd853452,
hotel,hotel,HOTEL Timika Indah Papua,"Jl. Jend. Ahmad Yani, Kwamki, Kec. Mimika Baru, Kabupaten Mimika, Papua 99910","Kwamki, Kec. Mimika Baru, Kabupaten Mimika",PAPUA,99910.0,Indonesia,8114900888.0,,,-4.5450918,136.8950181,https://maps.google.com/?cid=0x0:0x678db0783377d5c6,
hotel,hotel,Hotel Sawitto 1,"FV4V+3QV, Timika Jaya, Kec. Mimika Baru, Kabupaten Mimika, Papua 99971","Timika Jaya, Kec. Mimika Baru, Kabupaten Mimika",PAPUA,99971.0,Indonesia,,,,-4.5447575,136.8944296,https://maps.google.com/?cid=0x0:0xa49800860bcb43de,
hotel,hotel,Tendy Hotel,"Jl. Trikora AA No.112, Wamena Kota, Distrik Wamena, Kabupaten Jayawijaya, Papua 99511","Wamena Kota, Distrik Wamena, Kabupaten Jayawijaya",PAPUA,99511.0,Indonesia,96931092.0,,,-4.0976762,138.9492496,https://maps.google.com/?cid=0x0:0xf05ddbb5560071c5,
hotel,Hotel,Nawi Abua Hotel,"3FG2+2GM, Unnamed Road, Bokon, Distrik Tiom, Kabupaten Lanny Jaya, Papua 99567","Unnamed Road, Bokon, Distrik Tiom, Kabupaten Lanny Jaya",PAPUA,99567.0,Indonesia,82141176656.0,,,-3.9249165,138.4513033,https://maps.google.com/?cid=0x0:0xcdfe8d49715d638e,
hotel,hotel,Pirime,"Distrik Pirime, Kabupaten Lanny Jaya, Papua","Kabupaten Lanny Jaya, Papua",PAPUA,,Indonesia,,,,-3.9796675,138.5237246,https://maps.google.com/?cid=0x0:0x8a23ad303f6ee4a7,
hotel,hotel,Hotel Baliem Pilamo,"Jl. Trikora No.114, Wamena Kota, Distrik Wamena, Kabupaten Jayawijaya, Papua 99511","Wamena Kota, Distrik Wamena, Kabupaten Jayawijaya",PAPUA,99511.0,Indonesia,81344090719.0,,,-4.089872,138.9452891,https://maps.google.com/?cid=0x0:0x4c66aca0c6c4c202,
hotel,hotel,Hotel Sahid Papua,"Jl. Klp. 2 No.18, Entrop, Distrik Jayapura Selatan, Kota Jayapura, Papua 99221","Entrop, Distrik Jayapura Selatan, Kota Jayapura",PAPUA,99221.0,Indonesia,8114814009.0,,,-2.5661461,140.6996539,https://maps.google.com/?cid=0x0:0x9c8a2fd141b3aa33,
hotel,hotel,Le Premiere Hotel,"Jl. Raya Kelapa Dua Entop. 18, Ardipura, Entrop, Jayapura Selatan, Jayapura City, Papua 99223","Ardipura, Entrop, Jayapura Selatan, Jayapura City",PAPUA,99223.0,Indonesia,967537999.0,,,-2.5681482,140.7023628,https://maps.google.com/?cid=0x0:0x6aff806f0b777278,
hotel,hotel,Hotel Karya Papua,"JGX6+2PM, Jl. R.E. Martadinata Kalinona, Nabarua, Distrik Nabire, Papua 98816","Jl. R.E. Martadinata Kalinona, Nabarua, Distrik Nabire",PAPUA,98816.0,Indonesia,82164655697.0,,,-3.3524082,135.5118114,https://maps.google.com/?cid=0x0:0x8196bf4b8aafbb3f,
hotel,hotel,Hotel Rivior Sarmi,"4PVX+XHH, Sarmi, Kec. Sarmi, Kabupaten Sarmi, Papua 99373","Sarmi, Kec. Sarmi, Kabupaten Sarmi",PAPUA,99373.0,Indonesia,81247768282.0,,,-1.8550507,138.7489752,https://maps.google.com/?cid=0x0:0x687222ae96a90f78,
hotel,hotel,Hotel Mutiara,"CM3C+873, Jl. Perkutut, Vim, Kec. Abepura, Kota Jayapura, Papua 99225","Jl. Perkutut, Vim, Kec. Abepura, Kota Jayapura",PAPUA,99225.0,Indonesia,81348430963.0,,,-2.5967398,140.6706613,https://maps.google.com/?cid=0x0:0xb730b0fce1d80fe4,
hotel,hotel,Permata Hotel,"Jl. Olahraga No.3, Gurabesi, Kec. Jayapura Utara, Kota Jayapura, Papua 99221","Gurabesi, Kec. Jayapura Utara, Kota Jayapura",PAPUA,99221.0,Indonesia,967531333.0,,,-2.5452281,140.7001697,https://maps.google.com/?cid=0x0:0xd56ba4291eb9d456,
hotel,hotel,Hotel Mapia,"Jl. Jend. Ahmad Yani No.23, Mandala, Kec. Biak Kota, Kabupaten Biak Numfor, Papua 98111","Mandala, Kec. Biak Kota, Kabupaten Biak Numfor",PAPUA,98111.0,Indonesia,98121383.0,,,-1.1848375,136.0856602,https://maps.google.com/?cid=0x0:0x15f6e40202cd7120,
hotel,hotel,Penginapan Paparisa Amungsa,"Koperapoka, Kec. Mimika Baru, Kabupaten Mimika, Papua 99971","Kec. Mimika Baru, Kabupaten Mimika",PAPUA,99971.0,Indonesia,81343206383.0,,,-4.5385795,136.8755667,https://maps.google.com/?cid=0x0:0xfd07a1d4446c8f23,
hotel,hotel,Kartini Hotel,"Unnamed Road, Gurabesi, Kec. Jayapura Utara, Kota Jayapura, Papua 99221","Gurabesi, Kec. Jayapura Utara, Kota Jayapura",PAPUA,99221.0,Indonesia,967531557.0,,,-2.5437639,140.69813,https://maps.google.com/?cid=0x0:0x67ced8468132987b,
hotel,hotel,Hotel Rannu Jaya,"WW6V+7RM, Wamena Kota, Distrik Wamena, Kabupaten Jayawijaya, Papua 99511","Wamena Kota, Distrik Wamena, Kabupaten Jayawijaya",PAPUA,99511.0,Indonesia,82195455765.0,,,-4.0892985,138.9445592,https://maps.google.com/?cid=0x0:0xdd25cadd9590097a,
hotel,hotel,Penginapan 69,"Kp. Waena, Kec. Heram, Kota Jayapura, Papua 99225","Kec. Heram, Kota Jayapura",PAPUA,99225.0,Indonesia,81248523621.0,,,-2.593495,140.6310796,https://maps.google.com/?cid=0x0:0x12711ec27878fab8,
hotel,hotel,Distrik Pirime,"Kabupaten Lanny Jaya, Papua","Kabupaten Lanny Jaya, Papua",PAPUA,,Indonesia,,,,-3.9709066,138.5398554,https://maps.google.com/?cid=0x0:0x29c8e21de16200b,
hotel,hotel,"Chugiak, Alaska 99567","Chugiak, Alaska, Amerika Serikat","Chugiak, Alaska, Amerika Serikat",PAPUA,,Indonesia,,,,61.4204758,-149.0721042,https://maps.google.com/?cid=0x0:0xa71eadb68e4ec62b,
hotel,hotel,Microtel Inn  Suites by Wyndham Eagle River/Anchorage Are,"13049 Old Glenn Hwy, Eagle River, AK 99577, Amerika Serikat",Old Glenn Hwy,PAPUA,13049.0,Indonesia,19076226000.0,,,61.3386741,-149.561794,https://maps.google.com/?cid=0x0:0xe9ffb16baefc8021,
hotel,hotel,BlueWater BaseCamp,"36474 Basecamp Ct, Chugiak, AK 99567, Amerika Serikat",Basecamp Ct,PAPUA,36474.0,Indonesia,19079318143.0,,,61.4207623,-149.2004351,https://maps.google.com/?cid=0x0:0xba4515b87ecdcc53,
hotel,hotel,Valley Hotel  24/7 Open CafÃ©,"606 S Alaska St, Palmer, AK 99645, Amerika Serikat","Palmer, AK",PAPUA,99645.0,Indonesia,19077453330.0,,,61.6012298,-149.1149201,https://maps.google.com/?cid=0x0:0x4cc09263e9c2f938,
hotel,hotel,,,,PAPUA,,Indonesia,,,,,,https://maps.google.com/?cid=0x0:0x3d770ba0805a9a34%7C/g/1thr6xgb%7Cen-ID,
hotel,hotel,Best Western Lake Lucille Inn,"1300 W Lake Lucille Dr, Wasilla, AK 99654, Amerika Serikat","Wasilla, AK",PAPUA,99654.0,Indonesia,19073731776.0,,,61.5770009,-149.4844673,https://maps.google.com/?cid=0x0:0x3d770ba0805a9a34,
hotel,hotel,,,,PAPUA,,Indonesia,,,,,,https://maps.google.com/?cid=0x0:0xda634baa250ef4ce%7C/g/1td650_r%7Cen-ID,
hotel,hotel,Grand View Inn  Suites,"2900 E Parks Hwy, Wasilla, AK 99654, Amerika Serikat","Wasilla, AK",PAPUA,99654.0,Indonesia,19073521700.0,,,61.5709038,-149.3766892,https://maps.google.com/?cid=0x0:0xda634baa250ef4ce,
hotel,hotel,Luluâs Tent  Event Glamping,"8982 S Old Glenn Hwy, Palmer, AK 99645, Amerika Serikat","Palmer, AK",PAPUA,99645.0,Indonesia,16035687849.0,,,61.4914335,-149.0765987,https://maps.google.com/?cid=0x0:0x5a8697cebd366b13,
hotel,hotel,Hyland Hotel,"333 Evergreen Ave, Palmer, AK 99645, Amerika Serikat","Palmer, AK",PAPUA,99645.0,Indonesia,19077951314.0,,,61.5996115,-149.1197658,https://maps.google.com/?cid=0x0:0x91be48e10fcef8af,
hotel,hotel,,,,PAPUA,,Indonesia,,,,,,https://maps.google.com/?cid=0x0:0xc7ffe5706b21d93c%7C/g/1hf0h9j9b%7Cen-ID,
hotel,hotel,Eagle Hotel,"918 S Colony Way, Palmer, AK 99645, Amerika Serikat","Palmer, AK",PAPUA,99645.0,Indonesia,19073339000.0,,,61.5980853,-149.1153657,https://maps.google.com/?cid=0x0:0xc7ffe5706b21d93c,
hotel,hotel,"Windbreak Hotel, Cafe  Lounge","2201 E Parks Hwy, Wasilla, AK 99654, Amerika Serikat","Wasilla, AK",PAPUA,99654.0,Indonesia,19073764484.0,,,61.5737309,-149.3948554,https://maps.google.com/?cid=0x0:0xd6e8b0463c2072f5,
hotel,hotel,Eagle River Lodge,"11111 Old Eagle River Rd, Eagle River, AK 99577, Amerika Serikat",Old Eagle River Rd,PAPUA,11111.0,Indonesia,19076945000.0,,,61.320606,-149.568617,https://maps.google.com/?cid=0x0:0x77e50f4faaaba6d9,
hotel,hotel,,,,PAPUA,,Indonesia,,,,,,https://maps.google.com/?cid=0x0:0xd6e8b0463c2072f5%7C/g/1tfpt_n5%7Cen-ID,
hotel,hotel,Kec. Makki,"Kabupaten Lanny Jaya, Papua","Kabupaten Lanny Jaya, Papua",PAPUA,,Indonesia,,,,-3.9681201,138.5837111,https://maps.google.com/?cid=0x0:0xe3c11b0df314eb63,
hotel,hotel,Maki Hotel,"Andifli, 07580 KaÅ/Antalya, Turki",KaÅ/Antalya,PAPUA,7580.0,Indonesia,902428363479.0,,,36.1965721,29.6464356,https://maps.google.com/?cid=0x0:0xcf960dec646f59fe,
hotel,hotel,Lantana Aparts - KaÅ'Ä±m,"Andifli Mah. HÃ¼kÃ¼met Cad. Koza Sok. No.19, 07580, Turki","KaÅ/Anatolia, Turki",PAPUA,,Indonesia,902428361568.0,,,36.1973186,29.6454141,https://maps.google.com/?cid=0x0:0x65d806402361801a,
hotel,hotel,Habesos Hotel,"KÃ¼Ã§Ã¼kÃ§akÄ±l PlajÄ± No:31, 07580 KaÅ/Antalya, Turki",KaÅ/Antalya,PAPUA,7580.0,Indonesia,902428362022.0,,,36.1981424,29.6439937,https://maps.google.com/?cid=0x0:0x28eccaba017d5397,
hotel,hotel,Hotel Linda,"Andifli, Koza Sk. No:29, 07580 KaÅ/Antalya, Turki",KaÅ/Antalya,PAPUA,7580.0,Indonesia,902428363084.0,,,36.1968293,29.6460559,https://maps.google.com/?cid=0x0:0xd94f2a595019897,
hotel,hotel,Nur Beach Hotel,"Andifli, HÃ¼kÃ¼met Cd. No:49, 07580 KaÅ/Antalya, Turki",KaÅ/Antalya,PAPUA,7580.0,Indonesia,902428361828.0,,,36.1969373,29.6451746,https://maps.google.com/?cid=0x0:0x508502a29a3089d8,
hotel,hotel,ÃakÄ±l Pansiyon,"Andifli, HÃ¼kÃ¼met Cd. No:43, 07580 KaÅ/Antalya, Turki",KaÅ/Antalya,PAPUA,7580.0,Indonesia,902428361532.0,,,36.1971256,29.6448126,https://maps.google.com/?cid=0x0:0xfcb1eb5ba86b9094,
hotel,hotel,KaputaÅ Beach,"Bezirgan, 07580 Kemer/KaÅ/Anatolia, Turki",Kemer/KaÅ/Anatolia,PAPUA,7580.0,Indonesia,,,,36.2289562,29.448939,https://maps.google.com/?cid=0x0:0xb0509cbcd714c4d5,
hotel,Perhentian bus,KaÅ,"Andifli, 07580 KaÅ/Anatolia, Turki",KaÅ/Anatolia,PAPUA,7580.0,Indonesia,,,,36.197874,29.642389,https://maps.google.com/?cid=0x0:0xe181793bd2e5c1cd,
hotel,hotel,Papua 99556,Papua,Papua,PAPUA,,Indonesia,,,,-3.7561908,138.6589406,https://maps.google.com/?cid=0x0:0x5a2842ee64e9fe01,
hotel,hotel,Hotel Grand Papua Sentani,"Jalan Sosial No.388, Hinekombe, Kec. Sentani, Kabupaten Jayapura, Papua 99352","Hinekombe, Kec. Sentani, Kabupaten Jayapura",PAPUA,99352.0,Indonesia,8114827899.0,,,-2.557344,140.4958181,https://maps.google.com/?cid=0x0:0x9afaf186d23bb377,
hotel,hotel,GRAND ALLISON SENTANI,"Jl. Raya Kemiri No.282, Hinekombe, Kec. Sentani, Kabupaten Jayapura, Papua 99359","Hinekombe, Kec. Sentani, Kabupaten Jayapura",PAPUA,99359.0,Indonesia,967592110.0,,,-2.5639057,140.5014423,https://maps.google.com/?cid=0x0:0xa7477e43d92fc166,
hotel,hotel,Hotel Gamalama,"9MP9+G56, Jl. Gerilyawan, Yobe, Kec. Abepura, Kota Jayapura, Papua 99351","Jl. Gerilyawan, Yobe, Kec. Abepura, Kota Jayapura",PAPUA,99351.0,Indonesia,85337358893.0,,,-2.6137021,140.6678935,https://maps.google.com/?cid=0x0:0xf95001e3d53d211,
hotel,hotel,HOTEL AINA,"CGM6+R9J, Jl. Raya Kemiri, Sentani Kota, Kec. Sentani, Kabupaten Jayapura, Papua","Kabupaten Jayapura, Papua",PAPUA,,Indonesia,85243960057.0,,,-2.5654218,140.5108844,https://maps.google.com/?cid=0x0:0xe10f3eb6fe778f83,
hotel,hotel,The Baliem Valley Resort,"Desa Sekan Kecamatan Siepkosi, Pugima, Distrik Wamena, Kabupaten Jayawijaya, Papua 80034","Pugima, Distrik Wamena, Kabupaten Jayawijaya",PAPUA,80034.0,Indonesia,,,,-4.0595129,139.0293485,https://maps.google.com/?cid=0x0:0xa5f70df54e54f86c,
hotel,hotel,Horison Inn Relat Jayapura,"Jl. Pantai Klp. No.21 - 23, Argapura, Distrik Jayapura Selatan, Kota Jayapura, Papua","Kota Jayapura, Papua",PAPUA,,Indonesia,9675160779.0,,,-2.5537101,140.7148929,https://maps.google.com/?cid=0x0:0xb98fc1bbb5c5c494,
hotel,hotel,Hotel Anggrek,"Jl. Ambon No.1, Wamena Kota, Distrik Wamena, Kabupaten Jayawijaya, Papua 99511","Wamena Kota, Distrik Wamena, Kabupaten Jayawijaya",PAPUA,99511.0,Indonesia,,,,-4.0951401,138.9486951,https://maps.google.com/?cid=0x0:0x8c14510cd7032458,
hotel,hotel,Hotel Pelangi,"Sentani Kota, Kec. Sentani, Kabupaten Jayapura, Papua 99359","Kec. Sentani, Kabupaten Jayapura",PAPUA,99359.0,Indonesia,81213918927.0,,,-2.5667488,140.513947,https://maps.google.com/?cid=0x0:0xb04c4ac2b4f29675,
hotel,hotel,Permata Hotel,"Jl. Olahraga No.3, Gurabesi, Kec. Jayapura Utara, Kota Jayapura, Papua 99221","Gurabesi, Kec. Jayapura Utara, Kota Jayapura",PAPUA,99221.0,Indonesia,967531333.0,,,-2.5452281,140.7001697,https://maps.google.com/?cid=0x0:0xd56ba4291eb9d456,
hotel,hotel,Galaxy Hotel Abepura,"Kp. Waena, Kec. Heram, Kota Jayapura, Papua 99351","Kec. Heram, Kota Jayapura",PAPUA,99351.0,Indonesia,81150500147.0,,,-2.5944039,140.6254198,https://maps.google.com/?cid=0x0:0xf9951793f247fc13,
hotel,hotel,Hotel Rivior Sarmi,"4PVX+XHH, Sarmi, Kec. Sarmi, Kabupaten Sarmi, Papua 99373","Sarmi, Kec. Sarmi, Kabupaten Sarmi",PAPUA,99373.0,Indonesia,81247768282.0,,,-1.8550507,138.7489752,https://maps.google.com/?cid=0x0:0x687222ae96a90f78,
hotel,hotel,AMABEL Hotel,"AP, Bayangkara, Kec. Jayapura Utara, Kota Jayapura, Papua 99112","Bayangkara, Kec. Jayapura Utara, Kota Jayapura",PAPUA,99112.0,Indonesia,967522102.0,,,-2.5354528,140.7046727,https://maps.google.com/?cid=0x0:0xd37dfedb9adff6b7,
hotel,hotel,Hotel Mutiara,"CM3C+873, Jl. Perkutut, Vim, Kec. Abepura, Kota Jayapura, Papua 99225","Jl. Perkutut, Vim, Kec. Abepura, Kota Jayapura",PAPUA,99225.0,Indonesia,81348430963.0,,,-2.5967398,140.6706613,https://maps.google.com/?cid=0x0:0xb730b0fce1d80fe4,
hotel,hotel,Hotel Rannu Jaya,"WW6V+7RM, Wamena Kota, Distrik Wamena, Kabupaten Jayawijaya, Papua 99511","Wamena Kota, Distrik Wamena, Kabupaten Jayawijaya",PAPUA,99511.0,Indonesia,82195455765.0,,,-4.0892985,138.9445592,https://maps.google.com/?cid=0x0:0xdd25cadd9590097a,
hotel,hotel,Hotel Matoa,"Jl. Ahmad Yani No.14, Gurabesi, Kec. Jayapura Utara, Kota Jayapura, Papua 99222","Gurabesi, Kec. Jayapura Utara, Kota Jayapura",PAPUA,99222.0,Indonesia,967531633.0,,,-2.5431901,140.7035183,https://maps.google.com/?cid=0x0:0x81bb053fbf57415d,
hotel,hotel,Hotel Viona,"Jalan, Argapura, Asei Kecil, Jayapura City, Papua 99351","Argapura, Asei Kecil, Jayapura City",PAPUA,99351.0,Indonesia,82198557373.0,,,-2.5590996,140.7120253,https://maps.google.com/?cid=0x0:0x991b43add0b147d8,
hotel,hotel,Hotel Ratna Manunggal,"JL Penerangan No.2, Sentani Kota, Kec. Sentani, Kabupaten Jayapura, Papua 99359","Sentani Kota, Kec. Sentani, Kabupaten Jayapura",PAPUA,99359.0,Indonesia,967592277.0,,,-2.5664673,140.5131587,https://maps.google.com/?cid=0x0:0x48909e20fce419f9,
hotel,hotel,Hotel Mapia,"Jl. Jend. Ahmad Yani No.23, Mandala, Kec. Biak Kota, Kabupaten Biak Numfor, Papua 98111","Mandala, Kec. Biak Kota, Kabupaten Biak Numfor",PAPUA,98111.0,Indonesia,98121383.0,,,-1.1848375,136.0856602,https://maps.google.com/?cid=0x0:0x15f6e40202cd7120,
hotel,hotel,Hotel Manna,"Jl. Imam Bonjol, Fandoi, Biak Papua, Kabupaten Biak Numfor, Papua 98112","Fandoi, Biak Papua, Kabupaten Biak Numfor",PAPUA,98112.0,Indonesia,98122224.0,,,-1.1808075,136.0821667,https://maps.google.com/?cid=0x0:0x58ba27a7cb3a5bd6,
hotel,hotel,Penginapan Paparisa Amungsa,"Koperapoka, Kec. Mimika Baru, Kabupaten Mimika, Papua 99971","Kec. Mimika Baru, Kabupaten Mimika",PAPUA,99971.0,Indonesia,81343206383.0,,,-4.5385795,136.8755667,https://maps.google.com/?cid=0x0:0xfd07a1d4446c8f23,
hotel,hotel,Distrik Gamelia,"Kabupaten Lanny Jaya, Papua","Kabupaten Lanny Jaya, Papua",PAPUA,,Indonesia,,,,-3.8864208,138.6713122,https://maps.google.com/?cid=0x0:0xd4cdc850c1f0ad1b,
hotel,hotel,Frontone Green Boutique Hotel,"Jl. Gerilyawan Jl. Bosnik BTN Kamkey No.111, Kamkey, Kec. Abepura, Kota Jayapura, Papua 99351","Kamkey, Kec. Abepura, Kota Jayapura",PAPUA,99351.0,Indonesia,967585010.0,,,-2.6140146,140.6711964,https://maps.google.com/?cid=0x0:0x4a570626468e5935,
hotel,hotel,,,,PAPUA,,Indonesia,,,,,,https://maps.google.com/?cid=0x0:0x4a570626468e5935%7C/g/11qg28n36t%7Cen-ID,
hotel,hotel,Hotel Karya Papua,"JGX6+2PM, Jl. R.E. Martadinata Kalinona, Nabarua, Distrik Nabire, Papua 98816","Jl. R.E. Martadinata Kalinona, Nabarua, Distrik Nabire",PAPUA,98816.0,Indonesia,82164655697.0,,,-3.3524082,135.5118114,https://maps.google.com/?cid=0x0:0x8196bf4b8aafbb3f,
hotel,hotel,Hotel Of Hasel,"Jl. Esau No.37 Mandala Pulau Biak, Mandala, Kec. Biak Kota, Kabupaten Biak Numfor, Papua 98111","Mandala, Kec. Biak Kota, Kabupaten Biak Numfor",PAPUA,98111.0,Indonesia,83119229269.0,,,-1.180235,136.0901681,https://maps.google.com/?cid=0x0:0x65d093f8a4282080,
hotel,hotel,BRILIAN HOME STAY,"Awabutu, Paniai Tim., Kabupaten Paniai, Papua 98726","Paniai Tim., Kabupaten Paniai",PAPUA,98726.0,Indonesia,,,,-3.9279032,136.374559,https://maps.google.com/?cid=0x0:0x7ec9835201b20301,
hotel,hotel,Amaris Hotel Dr. Satrio Kuningan - Jakarta,"7, Jl. Prof. DR. Satrio No.23, RW.2, Kuningan Tim., Kecamatan Setiabudi, Kota Jakarta Selatan, Daerah Khusus Ibukota Jakarta 12950","Jl. Prof. DR. Satrio No.23, RW.2, Kuningan Tim., Kecamatan Setiabudi, Kota Jakarta Selatan",PAPUA,12950.0,Indonesia,2129023336.0,,,-6.2256071,106.8296596,https://maps.google.com/?cid=0x0:0x9703a3bf392e02d5,
hotel,hotel,,,,PAPUA,,Indonesia,,,,,,https://maps.google.com/?cid=0x0:0x9703a3bf392e02d5%7C/g/11clzk9zfc%7Cen-ID,
hotel,hotel,Distrik Dimba,"Kabupaten Lanny Jaya, Papua","Kabupaten Lanny Jaya, Papua",PAPUA,,Indonesia,,,,-3.8454051,138.5426379,https://maps.google.com/?cid=0x0:0x36c26bec90d3b953,
hotel,hotel,Hotel Baliem Pilamo,"Jl. Trikora No.114, Wamena Kota, Distrik Wamena, Kabupaten Jayawijaya, Papua 99511","Wamena Kota, Distrik Wamena, Kabupaten Jayawijaya",PAPUA,99511.0,Indonesia,81344090719.0,,,-4.089872,138.9452891,https://maps.google.com/?cid=0x0:0x4c66aca0c6c4c202,
hotel,hotel,Hotel Sahid Papua,"Jl. Klp. 2 No.18, Entrop, Distrik Jayapura Selatan, Kota Jayapura, Papua 99221","Entrop, Distrik Jayapura Selatan, Kota Jayapura",PAPUA,99221.0,Indonesia,8114814009.0,,,-2.5661461,140.6996539,https://maps.google.com/?cid=0x0:0x9c8a2fd141b3aa33,
hotel,hotel,RAFA HOTEL,"9MXC+PQ7, Vim, Kec. Abepura, Kota Jayapura, Papua","Kota Jayapura, Papua",PAPUA,,Indonesia,,,,-2.6011488,140.6717368,https://maps.google.com/?cid=0x0:0x18c6cc75351cda98,
hotel,hotel,Arumbai Hotel,"Jl. Imam Bonjol No.2, Fandoi, Kec. Biak Kota, Kabupaten Biak Numfor, Papua 98111","Fandoi, Kec. Biak Kota, Kabupaten Biak Numfor",PAPUA,98111.0,Indonesia,,,,-1.1831962,136.0817419,https://maps.google.com/?cid=0x0:0x92f1df543a771343,
hotel,hotel,"Swiss-Belhotel Jayapura, Papua","Pusat Bisnis Jayapura, Jl. Pacific Permai, Bayangkara, Kec. Jayapura Utara, Kota Jayapura, Papua 99112","Jl. Pacific Permai, Bayangkara, Kec. Jayapura Utara, Kota Jayapura",PAPUA,99112.0,Indonesia,967551888.0,,,-2.539046,140.711573,https://maps.google.com/?cid=0x0:0xbd14f75af0c6e48b,
hotel,hotel,,,,PAPUA,,Indonesia,,,,,,https://maps.google.com/?cid=0x0:0xbd14f75af0c6e48b%7C/g/120xv389%7Cen-ID,
hotel,hotel,Asana Biak Papua,"Jl. M Yamin No.04, Mandala, Kec. Biak Kota, Kabupaten Biak Numfor, Papua 98111","Mandala, Kec. Biak Kota, Kabupaten Biak Numfor",PAPUA,98111.0,Indonesia,8114743111.0,,,-1.1918619,136.1049095,https://maps.google.com/?cid=0x0:0x94321ded15c5a4a3,
hotel,hotel,Agung Hotel,"R36V+MW8, Mandala, Kec. Biak Kota, Kabupaten Biak Numfor, Papua 98111","Mandala, Kec. Biak Kota, Kabupaten Biak Numfor",PAPUA,98111.0,Indonesia,,,,-1.1883413,136.0948382,https://maps.google.com/?cid=0x0:0x30d4b4e3f34c7a61,
hotel,hotel,SIP Azana Hotel Jayapura,"Jl. Ahmad Yani No.50, Gurabesi, Kec. Jayapura Utara, Kota Jayapura, Papua 99221","Gurabesi, Kec. Jayapura Utara, Kota Jayapura",PAPUA,99221.0,Indonesia,82197886688.0,,,-2.5436754,140.7014241,https://maps.google.com/?cid=0x0:0xc311c59465e76f9e,
hotel,hotel,Rimba Papua Hotel,"Jl. Kwamki Narama No. 1, Kwamki, Kec. Mimika Baru, Kabupaten Mimika, Papua 99971","Kwamki, Kec. Mimika Baru, Kabupaten Mimika",PAPUA,99971.0,Indonesia,901494949.0,,,-4.5151124,136.884599,https://maps.google.com/?cid=0x0:0xa65056700db32492,
hotel,hotel,Hotel Karya Papua,"JGX6+2PM, Jl. R.E. Martadinata Kalinona, Nabarua, Distrik Nabire, Papua 98816","Jl. R.E. Martadinata Kalinona, Nabarua, Distrik Nabire",PAPUA,98816.0,Indonesia,82164655697.0,,,-3.3524082,135.5118114,https://maps.google.com/?cid=0x0:0x8196bf4b8aafbb3f,
hotel,hotel,Numbay Hotel,"Jl. Trikora No.23, Dok V, Trikora, Kec. Jayapura Utara, Kota Jayapura, Papua 99114","Dok V, Trikora, Kec. Jayapura Utara, Kota Jayapura",PAPUA,99114.0,Indonesia,9675166939.0,,,-2.527363,140.7185297,https://maps.google.com/?cid=0x0:0x2a95e5b69088c98d,
hotel,hotel,Galaxy Hotel Abepura,"Kp. Waena, Kec. Heram, Kota Jayapura, Papua 99351","Kec. Heram, Kota Jayapura",PAPUA,99351.0,Indonesia,81150500147.0,,,-2.5944039,140.6254198,https://maps.google.com/?cid=0x0:0xf9951793f247fc13,
hotel,hotel,Hotel Mahavira I,"Karang Mulia, Distrik Nabire, Kabupaten Nabire, Papua 98811","Distrik Nabire, Kabupaten Nabire",PAPUA,98811.0,Indonesia,,,,-3.3731863,135.5098879,https://maps.google.com/?cid=0x0:0xeffead9206fb0816,
hotel,hotel,Hotel Mutiara,"CM3C+873, Jl. Perkutut, Vim, Kec. Abepura, Kota Jayapura, Papua 99225","Jl. Perkutut, Vim, Kec. Abepura, Kota Jayapura",PAPUA,99225.0,Indonesia,81348430963.0,,,-2.5967398,140.6706613,https://maps.google.com/?cid=0x0:0xb730b0fce1d80fe4,
hotel,hotel,Hotel Cenderawasih,"9MWC+2PV, kotaraja ( jln asrama haji.. gang jeruk, Vim, Kec. Abepura, Kota Jayapura, Papua 99225","kotaraja ( jln asrama haji.. gang jeruk, Vim, Kec. Abepura, Kota Jayapura",PAPUA,99225.0,Indonesia,81340933105.0,,,-2.6048775,140.6717939,https://maps.google.com/?cid=0x0:0xc3d595f47206b49c,
hotel,hotel,SAMUMAMBO HOTEL,"jl. cenderawasih belakang manna bakerei, Kwamki, Kec. Mimika Baru, Kabupaten Mimika, Papua 99910","Kwamki, Kec. Mimika Baru, Kabupaten Mimika",PAPUA,99910.0,Indonesia,81344090664.0,,,-4.5424836,136.8797497,https://maps.google.com/?cid=0x0:0xcb5241de257efb93,
hotel,hotel,Intsia Beach Hotel,"Jl. Walter Monginsidi No.7, Fandoi, Kec. Biak Kota, Kabupaten Biak Numfor, Papua 98111","Fandoi, Kec. Biak Kota, Kabupaten Biak Numfor",PAPUA,98111.0,Indonesia,98121891.0,,,-1.1862086,136.0837686,https://maps.google.com/?cid=0x0:0x564eb7930861f544,
hotel,hotel,Hotel Mapia,"Jl. Jend. Ahmad Yani No.23, Mandala, Kec. Biak Kota, Kabupaten Biak Numfor, Papua 98111","Mandala, Kec. Biak Kota, Kabupaten Biak Numfor",PAPUA,98111.0,Indonesia,98121383.0,,,-1.1848375,136.0856602,https://maps.google.com/?cid=0x0:0x15f6e40202cd7120,
hotel,hotel,AMABEL Hotel,"AP, Bayangkara, Kec. Jayapura Utara, Kota Jayapura, Papua 99112","Bayangkara, Kec. Jayapura Utara, Kota Jayapura",PAPUA,99112.0,Indonesia,967522102.0,,,-2.5354528,140.7046727,https://maps.google.com/?cid=0x0:0xd37dfedb9adff6b7,
hotel,hotel,Hotel Rannu Jaya,"WW6V+7RM, Wamena Kota, Distrik Wamena, Kabupaten Jayawijaya, Papua 99511","Wamena Kota, Distrik Wamena, Kabupaten Jayawijaya",PAPUA,99511.0,Indonesia,82195455765.0,,,-4.0892985,138.9445592,https://maps.google.com/?cid=0x0:0xdd25cadd9590097a,
hotel,hotel,Hotel Grand Papua Nabire,"Jln christina martha tiahahu No.gang, Kalibobo, Klp. Dua, Kabupaten Nabire, Papua 98818","Kalibobo, Klp. Dua, Kabupaten Nabire",PAPUA,98818.0,Indonesia,811485907.0,,,-3.3671756,135.4846675,https://maps.google.com/?cid=0x0:0x3f34c171d042cba3,
hotel,hotel,The Baliem Valley Resort,"Desa Sekan Kecamatan Siepkosi, Pugima, Distrik Wamena, Kabupaten Jayawijaya, Papua 80034","Pugima, Distrik Wamena, Kabupaten Jayawijaya",PAPUA,80034.0,Indonesia,,,,-4.0595129,139.0293485,https://maps.google.com/?cid=0x0:0xa5f70df54e54f86c,
hotel,hotel,Hotel Greend Idaman,"Persatuan, Kec. Mandobo, Kabupaten Boven Digoel, Papua 99663","Kec. Mandobo, Kabupaten Boven Digoel",PAPUA,99663.0,Indonesia,82229338883.0,,,-6.1143736,140.3221803,https://maps.google.com/?cid=0x0:0x7e63bcf9bd853452,
hotel,hotel,Hotel Dafonsoro,"Jl. Percetakan Negara No.20-24, Gurabesi, Kec. Jayapura Utara, Kota Jayapura, Papua 99221","Gurabesi, Kec. Jayapura Utara, Kota Jayapura",PAPUA,99221.0,Indonesia,85788877739.0,,,-2.5406973,140.7041061,https://maps.google.com/?cid=0x0:0xda20a7d826a77577,
hotel,hotel,Hotel Manna,"Jl. Imam Bonjol, Fandoi, Biak Papua, Kabupaten Biak Numfor, Papua 98112","Fandoi, Biak Papua, Kabupaten Biak Numfor",PAPUA,98112.0,Indonesia,98122224.0,,,-1.1808075,136.0821667,https://maps.google.com/?cid=0x0:0x58ba27a7cb3a5bd6,
hotel,hotel,Amaris Hotel Dr. Satrio Kuningan - Jakarta,"7, Jl. Prof. DR. Satrio No.23, RW.2, Kuningan Tim., Kecamatan Setiabudi, Kota Jakarta Selatan, Daerah Khusus Ibukota Jakarta 12950","Jl. Prof. DR. Satrio No.23, RW.2, Kuningan Tim., Kecamatan Setiabudi, Kota Jakarta Selatan",PAPUA,12950.0,Indonesia,2129023336.0,,,-6.2256071,106.8296596,https://maps.google.com/?cid=0x0:0x9703a3bf392e02d5,
hotel,hotel,,,,PAPUA,,Indonesia,,,,,,https://maps.google.com/?cid=0x0:0x9703a3bf392e02d5%7C/g/11clzk9zfc%7Cen-ID,
hotel,hotel,Maxone Hotel Jayapura,"Jl. Percetakan Negara No.8, Gurabesi, Kec. Jayapura Utara, Kota Jayapura, Papua 99111","Gurabesi, Kec. Jayapura Utara, Kota Jayapura",PAPUA,99111.0,Indonesia,9675166111.0,,,-2.5401262,140.705014,https://maps.google.com/?cid=0x0:0xf6723813ba2c0961,
hotel,hotel,SIP Azana Hotel Jayapura,"Jl. Ahmad Yani No.50, Gurabesi, Kec. Jayapura Utara, Kota Jayapura, Papua 99221","Gurabesi, Kec. Jayapura Utara, Kota Jayapura",PAPUA,99221.0,Indonesia,82197886688.0,,,-2.5436754,140.7014241,https://maps.google.com/?cid=0x0:0xc311c59465e76f9e,
hotel,hotel,Hotel Jasmine Jayapura,"Jl. Percetakan Negara No.8, Gurabesi, Kec. Jayapura Utara, Kota Jayapura, Papua 99111","Gurabesi, Kec. Jayapura Utara, Kota Jayapura",PAPUA,99111.0,Indonesia,967533222.0,,,-2.5402997,140.704585,https://maps.google.com/?cid=0x0:0x264fddf9f68e3b33,
hotel,hotel,Front One Hotel Jayapura,"Kompleks Ruko Jayapura, Jl. Pacific Permai No.C 39, Bayangkara, Kec. Jayapura Utara, Kota Jayapura, Papua 99111","Jl. Pacific Permai No.C 39, Bayangkara, Kec. Jayapura Utara, Kota Jayapura",PAPUA,99111.0,Indonesia,8114802000.0,,,-2.5381168,140.7118967,https://maps.google.com/?cid=0x0:0x797c69e00bad39f2,
hotel,hotel,Humbolt Bay Hotel,"FP27+W97, Numbai, Distrik Jayapura Selatan, Kota Jayapura, Papua","Kota Jayapura, Papua",PAPUA,,Indonesia,967535999.0,,,-2.5477038,140.713427,https://maps.google.com/?cid=0x0:0x8b8aac24279599d,
hotel,hotel,Horison Inn Relat Jayapura,"Jl. Pantai Klp. No.21 - 23, Argapura, Distrik Jayapura Selatan, Kota Jayapura, Papua","Kota Jayapura, Papua",PAPUA,,Indonesia,9675160779.0,,,-2.5537101,140.7148929,https://maps.google.com/?cid=0x0:0xb98fc1bbb5c5c494,
hotel,hotel,Pantai Base-G,"Tj. Ria, Kec. Jayapura Utara, Kota Jayapura, Papua","Kota Jayapura, Papua",PAPUA,,Indonesia,,,,-2.5174272,140.7397204,https://maps.google.com/?cid=0x0:0x9c239c300165aea7,
hotel,hotel,Papua 99563,Papua,Papua,PAPUA,,Indonesia,,,,-3.9612229,138.1597946,https://maps.google.com/?cid=0x0:0xb123b70d10849bd1,
hotel,hotel,Papua 99563,Papua,Papua,PAPUA,,Indonesia,,,,-3.9612229,138.1597946,https://maps.google.com/?cid=0x0:0xb123b70d10849bd1,
hotel,hotel,Hotel Baliem Pilamo,"Jl. Trikora No.114, Wamena Kota, Distrik Wamena, Kabupaten Jayawijaya, Papua 99511","Wamena Kota, Distrik Wamena, Kabupaten Jayawijaya",PAPUA,99511.0,Indonesia,81344090719.0,,,-4.089872,138.9452891,https://maps.google.com/?cid=0x0:0x4c66aca0c6c4c202,
hotel,hotel,Grand Baliem Hotel,"Jl. Sumbawa No.1, Wamena Kota, Wamena, Jayawijaya Regency, Papua 99511","Wamena Kota, Wamena, Jayawijaya Regency",PAPUA,99511.0,Indonesia,81211516887.0,,,-4.0970243,138.9489266,https://maps.google.com/?cid=0x0:0xd313b387275f5f0b,
hotel,hotel,Hotel Rainbow,"Jl. Irian No.26, Wamena Kota, Distrik Wamena, Kabupaten Jayawijaya, Papua 99511","Wamena Kota, Distrik Wamena, Kabupaten Jayawijaya",PAPUA,99511.0,Indonesia,81248000685.0,,,-4.0943536,138.9419192,https://maps.google.com/?cid=0x0:0x8a8c32fe134fd547,
hotel,hotel,Hotel Cartenz Wamena,"Jl. Yos Sudarso No.45, Hurekama, Distrik Wamena, Kabupaten Jayawijaya, Papua 99511","Hurekama, Distrik Wamena, Kabupaten Jayawijaya",PAPUA,99511.0,Indonesia,81344804750.0,,,-4.1012558,138.9376982,https://maps.google.com/?cid=0x0:0xf2c5765f17cbf383,
hotel,hotel,Hotel Anggrek,"Jl. Ambon No.1, Wamena Kota, Distrik Wamena, Kabupaten Jayawijaya, Papua 99511","Wamena Kota, Distrik Wamena, Kabupaten Jayawijaya",PAPUA,99511.0,Indonesia,,,,-4.0951401,138.9486951,https://maps.google.com/?cid=0x0:0x8c14510cd7032458,
hotel,hotel,Penginapan Paparisa Amungsa,"Koperapoka, Kec. Mimika Baru, Kabupaten Mimika, Papua 99971","Kec. Mimika Baru, Kabupaten Mimika",PAPUA,99971.0,Indonesia,81343206383.0,,,-4.5385795,136.8755667,https://maps.google.com/?cid=0x0:0xfd07a1d4446c8f23,
hotel,hotel,Hotel Rannu Jaya,"WW6V+7RM, Wamena Kota, Distrik Wamena, Kabupaten Jayawijaya, Papua 99511","Wamena Kota, Distrik Wamena, Kabupaten Jayawijaya",PAPUA,99511.0,Indonesia,82195455765.0,,,-4.0892985,138.9445592,https://maps.google.com/?cid=0x0:0xdd25cadd9590097a,
hotel,hotel,Rimba Papua Hotel,"Jl. Kwamki Narama No. 1, Kwamki, Kec. Mimika Baru, Kabupaten Mimika, Papua 99971","Kwamki, Kec. Mimika Baru, Kabupaten Mimika",PAPUA,99971.0,Indonesia,901494949.0,,,-4.5151124,136.884599,https://maps.google.com/?cid=0x0:0xa65056700db32492,
hotel,Hotel,Moder Muara,"64HW+843, Melekom, Kec. Tingginambut, Kabupaten Puncak Jaya, Papua 99563","Melekom, Kec. Tingginambut, Kabupaten Puncak Jaya",PAPUA,99563.0,Indonesia,,,,-3.7717391,138.1452991,https://maps.google.com/?cid=0x0:0x73999d9fe085cdec,
hotel,Hotel,Hotel Muliain,"7XMM+9VG, Pruleme, Distrik Mulia, Kabupaten Puncak Jaya, Papua 98973","Pruleme, Distrik Mulia, Kabupaten Puncak Jaya",PAPUA,98973.0,Indonesia,,,,-3.7179134,137.9849194,https://maps.google.com/?cid=0x0:0x27b549b9e5e5bb3,
hotel,Rumah wisata,Hotel Moro Seneng,"73VV+F76, Kalome / Pagargom, Kec. Tingginambut, Kabupaten Puncak Jaya, Papua 99563","Kalome / Pagargom, Kec. Tingginambut, Kabupaten Puncak Jaya",PAPUA,99563.0,Indonesia,,,,-3.7063461,138.0931362,https://maps.google.com/?cid=0x0:0x1110bde92e0b739,
hotel,Hotel,Red Wam Hotel,"7XX7+9F6, Wuyukwi, Distrik Mulia, Kabupaten Puncak Jaya, Papua 98973","Wuyukwi, Distrik Mulia, Kabupaten Puncak Jaya",PAPUA,98973.0,Indonesia,,,,-3.7007924,137.9638568,https://maps.google.com/?cid=0x0:0x3941752a3906fe3b,
hotel,Hotel,MULIA,"7WFX+VJX, Berelema, Distrik Mulia, Kabupaten Puncak Jaya, Papua 98973","Berelema, Distrik Mulia, Kabupaten Puncak Jaya",PAPUA,98973.0,Indonesia,,,,-3.7252683,137.9491211,https://maps.google.com/?cid=0x0:0x634251ba449f6712,
hotel,hotel,Papua 99567,"Kabupaten Lanny Jaya, Papua","Kabupaten Lanny Jaya, Papua",PAPUA,,Indonesia,,,,-3.8553159,138.4787258,https://maps.google.com/?cid=0x0:0x54dba557046d88de,
hotel,hotel,Hotel Baliem Pilamo,"Jl. Trikora No.114, Wamena Kota, Distrik Wamena, Kabupaten Jayawijaya, Papua 99511","Wamena Kota, Distrik Wamena, Kabupaten Jayawijaya",PAPUA,99511.0,Indonesia,81344090719.0,,,-4.089872,138.9452891,https://maps.google.com/?cid=0x0:0x4c66aca0c6c4c202,
hotel,hotel,Grand Baliem Hotel,"Jl. Sumbawa No.1, Wamena Kota, Wamena, Jayawijaya Regency, Papua 99511","Wamena Kota, Wamena, Jayawijaya Regency",PAPUA,99511.0,Indonesia,81211516887.0,,,-4.0970243,138.9489266,https://maps.google.com/?cid=0x0:0xd313b387275f5f0b,
hotel,hotel,Kec. Balingga,"Kabupaten Lanny Jaya, Papua","Kabupaten Lanny Jaya, Papua",PAPUA,,Indonesia,,,,-4.130659,138.3589086,https://maps.google.com/?cid=0x0:0x59418e32c4fc4580,
hotel,Hotel,Nawi Abua Hotel,"3FG2+2GM, Unnamed Road, Bokon, Distrik Tiom, Kabupaten Lanny Jaya, Papua 99567","Unnamed Road, Bokon, Distrik Tiom, Kabupaten Lanny Jaya",PAPUA,99567.0,Indonesia,82141176656.0,,,-3.9249165,138.4513033,https://maps.google.com/?cid=0x0:0xcdfe8d49715d638e,
hotel,hotel,Hotel Rannu Jaya,"WW6V+7RM, Wamena Kota, Distrik Wamena, Kabupaten Jayawijaya, Papua 99511","Wamena Kota, Distrik Wamena, Kabupaten Jayawijaya",PAPUA,99511.0,Indonesia,82195455765.0,,,-4.0892985,138.9445592,https://maps.google.com/?cid=0x0:0xdd25cadd9590097a,
hotel,hotel,Distrik Tiomneri,"Kabupaten Lanny Jaya, Papua","Kabupaten Lanny Jaya, Papua",PAPUA,,Indonesia,,,,-3.8761181,138.4009177,https://maps.google.com/?cid=0x0:0x88f4e9020ef9ade8,
hotel,hotel,Hotel Baliem Pilamo,"Jl. Trikora No.114, Wamena Kota, Distrik Wamena, Kabupaten Jayawijaya, Papua 99511","Wamena Kota, Distrik Wamena, Kabupaten Jayawijaya",PAPUA,99511.0,Indonesia,81344090719.0,,,-4.089872,138.9452891,https://maps.google.com/?cid=0x0:0x4c66aca0c6c4c202,
hotel,hotel,The Baliem Valley Resort,"Desa Sekan Kecamatan Siepkosi, Pugima, Distrik Wamena, Kabupaten Jayawijaya, Papua 80034","Pugima, Distrik Wamena, Kabupaten Jayawijaya",PAPUA,80034.0,Indonesia,,,,-4.0595129,139.0293485,https://maps.google.com/?cid=0x0:0xa5f70df54e54f86c,
hotel,hotel,Horison Inn Relat Jayapura,"Jl. Pantai Klp. No.21 - 23, Argapura, Distrik Jayapura Selatan, Kota Jayapura, Papua","Kota Jayapura, Papua",PAPUA,,Indonesia,9675160779.0,,,-2.5537101,140.7148929,https://maps.google.com/?cid=0x0:0xb98fc1bbb5c5c494,
hotel,hotel,Hotel Rainbow,"Jl. Irian No.26, Wamena Kota, Distrik Wamena, Kabupaten Jayawijaya, Papua 99511","Wamena Kota, Distrik Wamena, Kabupaten Jayawijaya",PAPUA,99511.0,Indonesia,81248000685.0,,,-4.0943536,138.9419192,https://maps.google.com/?cid=0x0:0x8a8c32fe134fd547,
hotel,hotel,Hotel Cartenz Wamena,"Jl. Yos Sudarso No.45, Hurekama, Distrik Wamena, Kabupaten Jayawijaya, Papua 99511","Hurekama, Distrik Wamena, Kabupaten Jayawijaya",PAPUA,99511.0,Indonesia,81344804750.0,,,-4.1012558,138.9376982,https://maps.google.com/?cid=0x0:0xf2c5765f17cbf383,
hotel,hotel,Hotel Anggrek,"Jl. Ambon No.1, Wamena Kota, Distrik Wamena, Kabupaten Jayawijaya, Papua 99511","Wamena Kota, Distrik Wamena, Kabupaten Jayawijaya",PAPUA,99511.0,Indonesia,,,,-4.0951401,138.9486951,https://maps.google.com/?cid=0x0:0x8c14510cd7032458,
hotel,hotel,Hotel Maureen,"46GR+P4R, Jl. Sudirman, Serui Kota, Kec. Yapen Sel., Kabupaten Kepulauan Yapen, Papua 98213","Jl. Sudirman, Serui Kota, Kec. Yapen Sel., Kabupaten Kepulauan Yapen",PAPUA,98213.0,Indonesia,81354165909.0,,,-1.8731433,136.2401965,https://maps.google.com/?cid=0x0:0xb028b61c6c000d80,
hotel,hotel,Hotel Karya Papua,"JGX6+2PM, Jl. R.E. Martadinata Kalinona, Nabarua, Distrik Nabire, Papua 98816","Jl. R.E. Martadinata Kalinona, Nabarua, Distrik Nabire",PAPUA,98816.0,Indonesia,82164655697.0,,,-3.3524082,135.5118114,https://maps.google.com/?cid=0x0:0x8196bf4b8aafbb3f,
hotel,hotel,Hotel Rivior Sarmi,"4PVX+XHH, Sarmi, Kec. Sarmi, Kabupaten Sarmi, Papua 99373","Sarmi, Kec. Sarmi, Kabupaten Sarmi",PAPUA,99373.0,Indonesia,81247768282.0,,,-1.8550507,138.7489752,https://maps.google.com/?cid=0x0:0x687222ae96a90f78,
hotel,hotel,Hotel Mutiara,"CM3C+873, Jl. Perkutut, Vim, Kec. Abepura, Kota Jayapura, Papua 99225","Jl. Perkutut, Vim, Kec. Abepura, Kota Jayapura",PAPUA,99225.0,Indonesia,81348430963.0,,,-2.5967398,140.6706613,https://maps.google.com/?cid=0x0:0xb730b0fce1d80fe4,
hotel,hotel,Hotel R6,"Jl.Cendrawasih SP2, Papua 99952","Kabupaten Mimika, Papua",PAPUA,,Indonesia,82245112457.0,,,-4.538464,136.8691429,https://maps.google.com/?cid=0x0:0xb392d58fbaabfb69,
hotel,hotel,Hotel Mapia,"Jl. Jend. Ahmad Yani No.23, Mandala, Kec. Biak Kota, Kabupaten Biak Numfor, Papua 98111","Mandala, Kec. Biak Kota, Kabupaten Biak Numfor",PAPUA,98111.0,Indonesia,98121383.0,,,-1.1848375,136.0856602,https://maps.google.com/?cid=0x0:0x15f6e40202cd7120,
hotel,hotel,Penginapan Paparisa Amungsa,"Koperapoka, Kec. Mimika Baru, Kabupaten Mimika, Papua 99971","Kec. Mimika Baru, Kabupaten Mimika",PAPUA,99971.0,Indonesia,81343206383.0,,,-4.5385795,136.8755667,https://maps.google.com/?cid=0x0:0xfd07a1d4446c8f23,
hotel,hotel,Hotel Rannu Jaya,"WW6V+7RM, Wamena Kota, Distrik Wamena, Kabupaten Jayawijaya, Papua 99511","Wamena Kota, Distrik Wamena, Kabupaten Jayawijaya",PAPUA,99511.0,Indonesia,82195455765.0,,,-4.0892985,138.9445592,https://maps.google.com/?cid=0x0:0xdd25cadd9590097a,
hotel,hotel,Tendy Hotel,"Jl. Trikora AA No.112, Wamena Kota, Distrik Wamena, Kabupaten Jayawijaya, Papua 99511","Wamena Kota, Distrik Wamena, Kabupaten Jayawijaya",PAPUA,99511.0,Indonesia,96931092.0,,,-4.0976762,138.9492496,https://maps.google.com/?cid=0x0:0xf05ddbb5560071c5,
hotel,hotel,Kartini Hotel,"Unnamed Road, Gurabesi, Kec. Jayapura Utara, Kota Jayapura, Papua 99221","Gurabesi, Kec. Jayapura Utara, Kota Jayapura",PAPUA,99221.0,Indonesia,967531557.0,,,-2.5437639,140.69813,https://maps.google.com/?cid=0x0:0x67ced8468132987b,
hotel,hotel,,,,PAPUA,,Indonesia,,,,,,https://maps.google.com/?cid=0x0:0xbd14f75af0c6e48b%7C/g/120xv389%7Cen-ID,
hotel,Hotel bintang 4,"Swiss-Belhotel Jayapura, Papua","Pusat Bisnis Jayapura, Jl. Pacific Permai, Bayangkara, Kec. Jayapura Utara, Kota Jayapura, Papua 99112","Jl. Pacific Permai, Bayangkara, Kec. Jayapura Utara, Kota Jayapura",PAPUA,99112.0,Indonesia,967551888.0,,,-2.539046,140.711573,https://maps.google.com/?cid=0x0:0xbd14f75af0c6e48b,
hotel,Hotel,Nawi Abua Hotel,"3FG2+2GM, Unnamed Road, Bokon, Distrik Tiom, Kabupaten Lanny Jaya, Papua 99567","Unnamed Road, Bokon, Distrik Tiom, Kabupaten Lanny Jaya",PAPUA,99567.0,Indonesia,82141176656.0,,,-3.9249165,138.4513033,https://maps.google.com/?cid=0x0:0xcdfe8d49715d638e,
hotel,Hotel,Moder Muara,"64HW+843, Melekom, Kec. Tingginambut, Kabupaten Puncak Jaya, Papua 99563","Melekom, Kec. Tingginambut, Kabupaten Puncak Jaya",PAPUA,99563.0,Indonesia,,,,-3.7717391,138.1452991,https://maps.google.com/?cid=0x0:0x73999d9fe085cdec,
hotel,hotel,Papua 99563,Papua,Papua,PAPUA,,Indonesia,,,,-3.9612229,138.1597946,https://maps.google.com/?cid=0x0:0xb123b70d10849bd1,
hotel,hotel,Hotel Karya Papua,"JGX6+2PM, Jl. R.E. Martadinata Kalinona, Nabarua, Distrik Nabire, Papua 98816","Jl. R.E. Martadinata Kalinona, Nabarua, Distrik Nabire",PAPUA,98816.0,Indonesia,82164655697.0,,,-3.3524082,135.5118114,https://maps.google.com/?cid=0x0:0x8196bf4b8aafbb3f,
hotel,hotel,Hotel Anggrek,"Jl. Ambon No.1, Wamena Kota, Distrik Wamena, Kabupaten Jayawijaya, Papua 99511","Wamena Kota, Distrik Wamena, Kabupaten Jayawijaya",PAPUA,99511.0,Indonesia,,,,-4.0951401,138.9486951,https://maps.google.com/?cid=0x0:0x8c14510cd7032458,
hotel,Hotel,Red Wam Hotel,"7XX7+9F6, Wuyukwi, Distrik Mulia, Kabupaten Puncak Jaya, Papua 98973","Wuyukwi, Distrik Mulia, Kabupaten Puncak Jaya",PAPUA,98973.0,Indonesia,,,,-3.7007924,137.9638568,https://maps.google.com/?cid=0x0:0x3941752a3906fe3b,
hotel,Hotel,Hotel Muliain,"7XMM+9VG, Pruleme, Distrik Mulia, Kabupaten Puncak Jaya, Papua 98973","Pruleme, Distrik Mulia, Kabupaten Puncak Jaya",PAPUA,98973.0,Indonesia,,,,-3.7179134,137.9849194,https://maps.google.com/?cid=0x0:0x27b549b9e5e5bb3,
hotel,Hotel,Nawi Abua Hotel,"3FG2+2GM, Unnamed Road, Bokon, Distrik Tiom, Kabupaten Lanny Jaya, Papua 99567","Unnamed Road, Bokon, Distrik Tiom, Kabupaten Lanny Jaya",PAPUA,99567.0,Indonesia,82141176656.0,,,-3.9249165,138.4513033,https://maps.google.com/?cid=0x0:0xcdfe8d49715d638e,
hotel,Rumah wisata,Hotel Moro Seneng,"73VV+F76, Kalome / Pagargom, Kec. Tingginambut, Kabupaten Puncak Jaya, Papua 99563","Kalome / Pagargom, Kec. Tingginambut, Kabupaten Puncak Jaya",PAPUA,99563.0,Indonesia,,,,-3.7063461,138.0931362,https://maps.google.com/?cid=0x0:0x1110bde92e0b739,
hotel,Hotel,MULIA,"7WFX+VJX, Berelema, Distrik Mulia, Kabupaten Puncak Jaya, Papua 98973","Berelema, Distrik Mulia, Kabupaten Puncak Jaya",PAPUA,98973.0,Indonesia,,,,-3.7252683,137.9491211,https://maps.google.com/?cid=0x0:0x634251ba449f6712,
hotel,Hotel,Moder Muara,"64HW+843, Melekom, Kec. Tingginambut, Kabupaten Puncak Jaya, Papua 99563","Melekom, Kec. Tingginambut, Kabupaten Puncak Jaya",PAPUA,99563.0,Indonesia,,,,-3.7717391,138.1452991,https://maps.google.com/?cid=0x0:0x73999d9fe085cdec,
hotel,hotel,Papua 99556,Papua,Papua,PAPUA,,Indonesia,,,,-3.7561908,138.6589406,https://maps.google.com/?cid=0x0:0x5a2842ee64e9fe01,
hotel,hotel,Hotel Baliem Pilamo,"Jl. Trikora No.114, Wamena Kota, Distrik Wamena, Kabupaten Jayawijaya, Papua 99511","Wamena Kota, Distrik Wamena, Kabupaten Jayawijaya",PAPUA,99511.0,Indonesia,81344090719.0,,,-4.089872,138.9452891,https://maps.google.com/?cid=0x0:0x4c66aca0c6c4c202,
hotel,hotel,Hotel Sahid Papua,"Jl. Klp. 2 No.18, Entrop, Distrik Jayapura Selatan, Kota Jayapura, Papua 99221","Entrop, Distrik Jayapura Selatan, Kota Jayapura",PAPUA,99221.0,Indonesia,8114814009.0,,,-2.5661461,140.6996539,https://maps.google.com/?cid=0x0:0x9c8a2fd141b3aa33,
hotel,hotel,"Swiss-Belhotel Jayapura, Papua","Pusat Bisnis Jayapura, Jl. Pacific Permai, Bayangkara, Kec. Jayapura Utara, Kota Jayapura, Papua 99112","Jl. Pacific Permai, Bayangkara, Kec. Jayapura Utara, Kota Jayapura",PAPUA,99112.0,Indonesia,967551888.0,,,-2.539046,140.711573,https://maps.google.com/?cid=0x0:0xbd14f75af0c6e48b,
hotel,hotel,,,,PAPUA,,Indonesia,,,,,,https://maps.google.com/?cid=0x0:0xbd14f75af0c6e48b%7C/g/120xv389%7Cen-ID,
hotel,hotel,Hotel Serayu,"Jl. Yos Sudarso No.10, Koperapoka, Kec. Mimika Baru, Kabupaten Mimika, Papua 99971","Koperapoka, Kec. Mimika Baru, Kabupaten Mimika",PAPUA,99971.0,Indonesia,82199984085.0,,,-4.5492995,136.8902348,https://maps.google.com/?cid=0x0:0xe357fb3041308a6c,
hotel,hotel,Asana Biak Papua,"Jl. M Yamin No.04, Mandala, Kec. Biak Kota, Kabupaten Biak Numfor, Papua 98111","Mandala, Kec. Biak Kota, Kabupaten Biak Numfor",PAPUA,98111.0,Indonesia,8114743111.0,,,-1.1918619,136.1049095,https://maps.google.com/?cid=0x0:0x94321ded15c5a4a3,
hotel,hotel,SIP Azana Hotel Jayapura,"Jl. Ahmad Yani No.50, Gurabesi, Kec. Jayapura Utara, Kota Jayapura, Papua 99221","Gurabesi, Kec. Jayapura Utara, Kota Jayapura",PAPUA,99221.0,Indonesia,82197886688.0,,,-2.5436754,140.7014241,https://maps.google.com/?cid=0x0:0xc311c59465e76f9e,
hotel,hotel,Agung Hotel,"R36V+MW8, Mandala, Kec. Biak Kota, Kabupaten Biak Numfor, Papua 98111","Mandala, Kec. Biak Kota, Kabupaten Biak Numfor",PAPUA,98111.0,Indonesia,,,,-1.1883413,136.0948382,https://maps.google.com/?cid=0x0:0x30d4b4e3f34c7a61,
hotel,hotel,Horison Inn Relat Jayapura,"Jl. Pantai Klp. No.21 - 23, Argapura, Distrik Jayapura Selatan, Kota Jayapura, Papua","Kota Jayapura, Papua",PAPUA,,Indonesia,9675160779.0,,,-2.5537101,140.7148929,https://maps.google.com/?cid=0x0:0xb98fc1bbb5c5c494,
hotel,hotel,Hotel Anggrek,"Jl. Ambon No.1, Wamena Kota, Distrik Wamena, Kabupaten Jayawijaya, Papua 99511","Wamena Kota, Distrik Wamena, Kabupaten Jayawijaya",PAPUA,99511.0,Indonesia,,,,-4.0951401,138.9486951,https://maps.google.com/?cid=0x0:0x8c14510cd7032458,
hotel,hotel,Hotel Karya Papua,"JGX6+2PM, Jl. R.E. Martadinata Kalinona, Nabarua, Distrik Nabire, Papua 98816","Jl. R.E. Martadinata Kalinona, Nabarua, Distrik Nabire",PAPUA,98816.0,Indonesia,82164655697.0,,,-3.3524082,135.5118114,https://maps.google.com/?cid=0x0:0x8196bf4b8aafbb3f,
hotel,hotel,Permata Hotel,"Jl. Olahraga No.3, Gurabesi, Kec. Jayapura Utara, Kota Jayapura, Papua 99221","Gurabesi, Kec. Jayapura Utara, Kota Jayapura",PAPUA,99221.0,Indonesia,967531333.0,,,-2.5452281,140.7001697,https://maps.google.com/?cid=0x0:0xd56ba4291eb9d456,
hotel,hotel,Galaxy Hotel Abepura,"Kp. Waena, Kec. Heram, Kota Jayapura, Papua 99351","Kec. Heram, Kota Jayapura",PAPUA,99351.0,Indonesia,81150500147.0,,,-2.5944039,140.6254198,https://maps.google.com/?cid=0x0:0xf9951793f247fc13,
hotel,hotel,Gerson Hotel Abepura  Cafe,"Jl. Bosnik BTN Kamkey, Awiyo, Kec. Abepura, Kota Jayapura, Papua 99351","Awiyo, Kec. Abepura, Kota Jayapura",PAPUA,99351.0,Indonesia,895417300072.0,,,-2.6194737,140.6739776,https://maps.google.com/?cid=0x0:0xee11e02b061cf5df,
hotel,hotel,Hotel Mutiara,"CM3C+873, Jl. Perkutut, Vim, Kec. Abepura, Kota Jayapura, Papua 99225","Jl. Perkutut, Vim, Kec. Abepura, Kota Jayapura",PAPUA,99225.0,Indonesia,81348430963.0,,,-2.5967398,140.6706613,https://maps.google.com/?cid=0x0:0xb730b0fce1d80fe4,
hotel,hotel,ORCHID PASIFIC HOTEL,"Belakang Mega, Jl. Raya Abepura, Kota Baru, Kec. Abepura, Kota Jayapura, Papua 99325","Jl. Raya Abepura, Kota Baru, Kec. Abepura, Kota Jayapura",PAPUA,99325.0,Indonesia,9675187812.0,,,-2.6114142,140.667015,https://maps.google.com/?cid=0x0:0xbc065b81f1bb1912,
hotel,hotel,Hotel Dafonsoro,"Jl. Percetakan Negara No.20-24, Gurabesi, Kec. Jayapura Utara, Kota Jayapura, Papua 99221","Gurabesi, Kec. Jayapura Utara, Kota Jayapura",PAPUA,99221.0,Indonesia,85788877739.0,,,-2.5406973,140.7041061,https://maps.google.com/?cid=0x0:0xda20a7d826a77577,
hotel,hotel,Hotel Mapia,"Jl. Jend. Ahmad Yani No.23, Mandala, Kec. Biak Kota, Kabupaten Biak Numfor, Papua 98111","Mandala, Kec. Biak Kota, Kabupaten Biak Numfor",PAPUA,98111.0,Indonesia,98121383.0,,,-1.1848375,136.0856602,https://maps.google.com/?cid=0x0:0x15f6e40202cd7120,
hotel,hotel,Penginapan Paparisa Amungsa,"Koperapoka, Kec. Mimika Baru, Kabupaten Mimika, Papua 99971","Kec. Mimika Baru, Kabupaten Mimika",PAPUA,99971.0,Indonesia,81343206383.0,,,-4.5385795,136.8755667,https://maps.google.com/?cid=0x0:0xfd07a1d4446c8f23,
hotel,hotel,Penginapan Tigadara,"9JVV+QR6, Jl. Raya Abepura - Sentani, Hedam, Kec. Heram, Kota Jayapura, Papua 99351","Jl. Raya Abepura - Sentani, Hedam, Kec. Heram, Kota Jayapura",PAPUA,99351.0,Indonesia,2129707601.0,,,-2.6054842,140.6444514,https://maps.google.com/?cid=0x0:0xfad88aa10fa4bd31,
hotel,hotel,Srafa Inn,"Jl. Sriwijaya No.21, Brambaken, kamorfuar, Kabupaten Biak Numfor, Papua 98111","Brambaken, kamorfuar, Kabupaten Biak Numfor",PAPUA,98111.0,Indonesia,981222662.0,,,-1.1595789,136.083491,https://maps.google.com/?cid=0x0:0x64679ba26e556e55,
hotel,hotel,Hotel Grand Papua Sentani,"Jalan Sosial No.388, Hinekombe, Kec. Sentani, Kabupaten Jayapura, Papua 99352","Hinekombe, Kec. Sentani, Kabupaten Jayapura",PAPUA,99352.0,Indonesia,8114827899.0,,,-2.557344,140.4958181,https://maps.google.com/?cid=0x0:0x9afaf186d23bb377,
hotel,hotel,Front One Budget Hotel,"Jl. Teruna Bhakti, Yabansai, Kec. Heram, Kota Jayapura, Papua 99351","Yabansai, Kec. Heram, Kota Jayapura",PAPUA,99351.0,Indonesia,8114707808.0,,,-2.5896396,140.6413153,https://maps.google.com/?cid=0x0:0x16b4d25d7d51567a,
hotel,hotel,FOX Hotel Jayapura,"Jl. Dr. Soetomo No.16, Gurabesi, Kec. Jayapura Utara, Kota Jayapura, Papua 99111","Gurabesi, Kec. Jayapura Utara, Kota Jayapura",PAPUA,99111.0,Indonesia,9675164888.0,,,-2.5446156,140.7012529,https://maps.google.com/?cid=0x0:0xd6f39a8936229b37,
hotel,hotel,,,,PAPUA,,Indonesia,,,,,,https://maps.google.com/?cid=0x0:0xd6f39a8936229b37%7C/g/11jht6pnrl%7Cen-ID,
hotel,hotel,Hotel Grand Papua Nabire,"Jln christina martha tiahahu No.gang, Kalibobo, Klp. Dua, Kabupaten Nabire, Papua 98818","Kalibobo, Klp. Dua, Kabupaten Nabire",PAPUA,98818.0,Indonesia,811485907.0,,,-3.3671756,135.4846675,https://maps.google.com/?cid=0x0:0x3f34c171d042cba3,
hotel,hotel,Rimba Papua Hotel,"Jl. Kwamki Narama No. 1, Kwamki, Kec. Mimika Baru, Kabupaten Mimika, Papua 99971","Kwamki, Kec. Mimika Baru, Kabupaten Mimika",PAPUA,99971.0,Indonesia,901494949.0,,,-4.5151124,136.884599,https://maps.google.com/?cid=0x0:0xa65056700db32492,
hotel,hotel,Hotel Manna,"Jl. Imam Bonjol, Fandoi, Biak Papua, Kabupaten Biak Numfor, Papua 98112","Fandoi, Biak Papua, Kabupaten Biak Numfor",PAPUA,98112.0,Indonesia,98122224.0,,,-1.1808075,136.0821667,https://maps.google.com/?cid=0x0:0x58ba27a7cb3a5bd6,
hotel,hotel,Papua 99563,Papua,Papua,PAPUA,,Indonesia,,,,-3.9612229,138.1597946,https://maps.google.com/?cid=0x0:0xb123b70d10849bd1,
hotel,hotel,Hotel Baliem Pilamo,"Jl. Trikora No.114, Wamena Kota, Distrik Wamena, Kabupaten Jayawijaya, Papua 99511","Wamena Kota, Distrik Wamena, Kabupaten Jayawijaya",PAPUA,99511.0,Indonesia,81344090719.0,,,-4.089872,138.9452891,https://maps.google.com/?cid=0x0:0x4c66aca0c6c4c202,
hotel,hotel,Grand Baliem Hotel,"Jl. Sumbawa No.1, Wamena Kota, Wamena, Jayawijaya Regency, Papua 99511","Wamena Kota, Wamena, Jayawijaya Regency",PAPUA,99511.0,Indonesia,81211516887.0,,,-4.0970243,138.9489266,https://maps.google.com/?cid=0x0:0xd313b387275f5f0b,
hotel,hotel,Hotel Rainbow,"Jl. Irian No.26, Wamena Kota, Distrik Wamena, Kabupaten Jayawijaya, Papua 99511","Wamena Kota, Distrik Wamena, Kabupaten Jayawijaya",PAPUA,99511.0,Indonesia,81248000685.0,,,-4.0943536,138.9419192,https://maps.google.com/?cid=0x0:0x8a8c32fe134fd547,
hotel,hotel,Hotel Cartenz Wamena,"Jl. Yos Sudarso No.45, Hurekama, Distrik Wamena, Kabupaten Jayawijaya, Papua 99511","Hurekama, Distrik Wamena, Kabupaten Jayawijaya",PAPUA,99511.0,Indonesia,81344804750.0,,,-4.1012558,138.9376982,https://maps.google.com/?cid=0x0:0xf2c5765f17cbf383,
hotel,hotel,Hotel Anggrek,"Jl. Ambon No.1, Wamena Kota, Distrik Wamena, Kabupaten Jayawijaya, Papua 99511","Wamena Kota, Distrik Wamena, Kabupaten Jayawijaya",PAPUA,99511.0,Indonesia,,,,-4.0951401,138.9486951,https://maps.google.com/?cid=0x0:0x8c14510cd7032458,
hotel,hotel,Penginapan Paparisa Amungsa,"Koperapoka, Kec. Mimika Baru, Kabupaten Mimika, Papua 99971","Kec. Mimika Baru, Kabupaten Mimika",PAPUA,99971.0,Indonesia,81343206383.0,,,-4.5385795,136.8755667,https://maps.google.com/?cid=0x0:0xfd07a1d4446c8f23,
hotel,hotel,Hotel Rannu Jaya,"WW6V+7RM, Wamena Kota, Distrik Wamena, Kabupaten Jayawijaya, Papua 99511","Wamena Kota, Distrik Wamena, Kabupaten Jayawijaya",PAPUA,99511.0,Indonesia,82195455765.0,,,-4.0892985,138.9445592,https://maps.google.com/?cid=0x0:0xdd25cadd9590097a,
hotel,hotel,Rimba Papua Hotel,"Jl. Kwamki Narama No. 1, Kwamki, Kec. Mimika Baru, Kabupaten Mimika, Papua 99971","Kwamki, Kec. Mimika Baru, Kabupaten Mimika",PAPUA,99971.0,Indonesia,901494949.0,,,-4.5151124,136.884599,https://maps.google.com/?cid=0x0:0xa65056700db32492,
hotel,Hotel,Moder Muara,"64HW+843, Melekom, Kec. Tingginambut, Kabupaten Puncak Jaya, Papua 99563","Melekom, Kec. Tingginambut, Kabupaten Puncak Jaya",PAPUA,99563.0,Indonesia,,,,-3.7717391,138.1452991,https://maps.google.com/?cid=0x0:0x73999d9fe085cdec,
hotel,Hotel,Hotel Muliain,"7XMM+9VG, Pruleme, Distrik Mulia, Kabupaten Puncak Jaya, Papua 98973","Pruleme, Distrik Mulia, Kabupaten Puncak Jaya",PAPUA,98973.0,Indonesia,,,,-3.7179134,137.9849194,https://maps.google.com/?cid=0x0:0x27b549b9e5e5bb3,
hotel,Hotel,Red Wam Hotel,"7XX7+9F6, Wuyukwi, Distrik Mulia, Kabupaten Puncak Jaya, Papua 98973","Wuyukwi, Distrik Mulia, Kabupaten Puncak Jaya",PAPUA,98973.0,Indonesia,,,,-3.7007924,137.9638568,https://maps.google.com/?cid=0x0:0x3941752a3906fe3b,
hotel,Rumah wisata,Hotel Moro Seneng,"73VV+F76, Kalome / Pagargom, Kec. Tingginambut, Kabupaten Puncak Jaya, Papua 99563","Kalome / Pagargom, Kec. Tingginambut, Kabupaten Puncak Jaya",PAPUA,99563.0,Indonesia,,,,-3.7063461,138.0931362,https://maps.google.com/?cid=0x0:0x1110bde92e0b739,
hotel,Hotel,MULIA,"7WFX+VJX, Berelema, Distrik Mulia, Kabupaten Puncak Jaya, Papua 98973","Berelema, Distrik Mulia, Kabupaten Puncak Jaya",PAPUA,98973.0,Indonesia,,,,-3.7252683,137.9491211,https://maps.google.com/?cid=0x0:0x634251ba449f6712,
hotel,hotel,Papua 99567,"Kabupaten Lanny Jaya, Papua","Kabupaten Lanny Jaya, Papua",PAPUA,,Indonesia,,,,-3.8553159,138.4787258,https://maps.google.com/?cid=0x0:0x54dba557046d88de,
hotel,hotel,Hotel Baliem Pilamo,"Jl. Trikora No.114, Wamena Kota, Distrik Wamena, Kabupaten Jayawijaya, Papua 99511","Wamena Kota, Distrik Wamena, Kabupaten Jayawijaya",PAPUA,99511.0,Indonesia,81344090719.0,,,-4.089872,138.9452891,https://maps.google.com/?cid=0x0:0x4c66aca0c6c4c202,
hotel,hotel,Hotel Sahid Papua,"Jl. Klp. 2 No.18, Entrop, Distrik Jayapura Selatan, Kota Jayapura, Papua 99221","Entrop, Distrik Jayapura Selatan, Kota Jayapura",PAPUA,99221.0,Indonesia,8114814009.0,,,-2.5661461,140.6996539,https://maps.google.com/?cid=0x0:0x9c8a2fd141b3aa33,
hotel,hotel,Grand Baliem Hotel,"Jl. Sumbawa No.1, Wamena Kota, Wamena, Jayawijaya Regency, Papua 99511","Wamena Kota, Wamena, Jayawijaya Regency",PAPUA,99511.0,Indonesia,81211516887.0,,,-4.0970243,138.9489266,https://maps.google.com/?cid=0x0:0xd313b387275f5f0b,
hotel,hotel,The Baliem Valley Resort,"Desa Sekan Kecamatan Siepkosi, Pugima, Distrik Wamena, Kabupaten Jayawijaya, Papua 80034","Pugima, Distrik Wamena, Kabupaten Jayawijaya",PAPUA,80034.0,Indonesia,,,,-4.0595129,139.0293485,https://maps.google.com/?cid=0x0:0xa5f70df54e54f86c,
hotel,hotel,Hotel Anggrek,"Jl. Ambon No.1, Wamena Kota, Distrik Wamena, Kabupaten Jayawijaya, Papua 99511","Wamena Kota, Distrik Wamena, Kabupaten Jayawijaya",PAPUA,99511.0,Indonesia,,,,-4.0951401,138.9486951,https://maps.google.com/?cid=0x0:0x8c14510cd7032458,
hotel,hotel,Kec. Balingga,"Kabupaten Lanny Jaya, Papua","Kabupaten Lanny Jaya, Papua",PAPUA,,Indonesia,,,,-4.130659,138.3589086,https://maps.google.com/?cid=0x0:0x59418e32c4fc4580,
hotel,Hotel,Nawi Abua Hotel,"3FG2+2GM, Unnamed Road, Bokon, Distrik Tiom, Kabupaten Lanny Jaya, Papua 99567","Unnamed Road, Bokon, Distrik Tiom, Kabupaten Lanny Jaya",PAPUA,99567.0,Indonesia,82141176656.0,,,-3.9249165,138.4513033,https://maps.google.com/?cid=0x0:0xcdfe8d49715d638e,
hotel,hotel,Hotel Rannu Jaya,"WW6V+7RM, Wamena Kota, Distrik Wamena, Kabupaten Jayawijaya, Papua 99511","Wamena Kota, Distrik Wamena, Kabupaten Jayawijaya",PAPUA,99511.0,Indonesia,82195455765.0,,,-4.0892985,138.9445592,https://maps.google.com/?cid=0x0:0xdd25cadd9590097a,
restaurant,restaurant,Distrik Tiom,"Kabupaten Lanny Jaya, Papua","Kabupaten Lanny Jaya, Papua",PAPUA,,Indonesia,,,,-3.9277573,138.4557817,https://maps.google.com/?cid=0x0:0x1bdc1c8bed88c23f,
restaurant,Sekolah Dasar,Kopi Tiom Lanny Mendek,"3FG2+5V, Bokon, Distrik Tiom, Kabupaten Lanny Jaya, Papua","Kabupaten Lanny Jaya, Papua",PAPUA,,Indonesia,,,,-3.9245543,138.4527285,https://maps.google.com/?cid=0x0:0xc5c29a5192f2e091,
restaurant,Kantor Pemerintah,"Dinas perhubungan DISHUBkabupaten Lanny jaya, Tiom","3CGW+9V, Oyi, Distrik Tiom, Kabupaten Lanny Jaya, Papua 99567","Oyi, Distrik Tiom, Kabupaten Lanny Jaya",PAPUA,99567.0,Indonesia,82254405176.0,,,-3.9240545,138.4472853,https://maps.google.com/?cid=0x0:0xeb87c159240f1fbb,
restaurant,Bar,RÅ«mu Private Room Grill,"Jl. Aditiyawarman No.71, Melawai, Kec. Kby. Baru, Kota Jakarta Selatan, Daerah Khusus Ibukota Jakarta 12160","Melawai, Kec. Kby. Baru, Kota Jakarta Selatan",PAPUA,12160.0,Indonesia,82121220009.0,,,-6.2426774,106.8039087,https://maps.google.com/?cid=0x0:0x94f4bbb640ab4374,
restaurant,Dim Sum,MyTen Coffee  Eatery,"Jalan Sektor VII No.2, Bintaro Jaya Xchange Mall LG - 132, CBD Bintaro Jaya Blok O, Pondok Jaya, Pondok Aren, South Tangerang City, Banten 15227","Bintaro Jaya Xchange Mall LG - 132, CBD Bintaro Jaya Blok O, Pondok Jaya, Pondok Aren, South Tangerang City",PAPUA,15227.0,Indonesia,82112341001.0,,,-6.2857935,106.7283331,https://maps.google.com/?cid=0x0:0x8165030d6f0e024b,
restaurant,Shabu Shabu,Letasu Neo Soho,"Jl. Letjen S. Parman No.28, RT.15/RW.7, Tj. Duren Sel., Kec. Grogol petamburan, Kota Jakarta Barat, Daerah Khusus Ibukota Jakarta 11470","RT.15/RW.7, Tj. Duren Sel., Kec. Grogol petamburan, Kota Jakarta Barat",PAPUA,11470.0,Indonesia,,,,-6.176095,106.7915949,https://maps.google.com/?cid=0x0:0xdd81b84efc4d04fd,
restaurant,Shabu Shabu,Shaburi Grand Indonesia,"Kb. Melati, Kecamatan Tanah Abang, Kota Jakarta Pusat, Daerah Khusus Ibukota Jakarta","Kota Jakarta Pusat, Daerah Khusus Ibukota Jakarta",PAPUA,,Indonesia,2123581265.0,,,-6.1950412,106.8199157,https://maps.google.com/?cid=0x0:0xa1a08b14491f83a8,
restaurant,Indonesia,Kedai Plaza 3 Pondok Indah,"Jl tb Simatupang No.5, RT.5/RW.17, Pd. Pinang, Kec. Kby. Lama, Jakarta, Daerah Khusus Ibukota Jakarta 12310","RT.5/RW.17, Pd. Pinang, Kec. Kby. Lama, Jakarta",PAPUA,12310.0,Indonesia,,,,-6.2833113,106.774464,https://maps.google.com/?cid=0x0:0xf0128941d59c8c5a,
restaurant,Thailand,BOLAN THAI KITCHEN ALAM SUTERA,"Ruko Spectra. 23C, Jl. Jalur Sutera Boulevard No.5, Panunggangan Tim., Kec. Pinang, Banten 15143","Jl. Jalur Sutera Boulevard No.5, Panunggangan Tim., Kec. Pinang",PAPUA,15143.0,Indonesia,81288833397.0,,,-6.2298676,106.6590361,https://maps.google.com/?cid=0x0:0xc3bf45f7dea142ce,
restaurant,Thailand,BO-LAN THAI PONDOK INDAH PLAZA 3,"Plaza 3 Pondok Indah, Jl: TB Simatupang No.3 Blok C, Pondok Pinang, Kebayoran Lama, South Jakarta City, Jakarta 12540","Jl: TB Simatupang No.3 Blok C, Pondok Pinang, Kebayoran Lama, South Jakarta City",PAPUA,12540.0,Indonesia,81288833394.0,,,-6.2836586,106.7748192,https://maps.google.com/?cid=0x0:0x9c4eee472a491191,
restaurant,Masakan Asia,Jittlada,"The Brezee L-21 Sampora Cisarua Kabupaten Tangerang, Sampora, Kec. Cisauk, Kabupaten Tangerang, Banten 15341","Sampora, Kec. Cisauk, Kabupaten Tangerang",PAPUA,15341.0,Indonesia,82127793602.0,,,-6.3016164,106.6542901,https://maps.google.com/?cid=0x0:0x46fd680354b6b298,
restaurant,Restoran,So Yummy Resto,"FV3Q+QR9, Kwamki, Kec. Mimika Baru, Kabupaten Mimika, Papua 99971","Kwamki, Kec. Mimika Baru, Kabupaten Mimika",PAPUA,99971.0,Indonesia,81240005760.0,,,-4.5455973,136.8896159,https://maps.google.com/?cid=0x0:0xad18f6a2fb6ee6f8,
restaurant,Restoran,So Yummy Bakery  Cafe,"Gedung Diana, Jl. Budi Utomo No.8 Lantai Dasar, Kwamki, Kec. Mimika Baru, Kabupaten Mimika, Papua 99971","Jl. Budi Utomo No.8 Lantai Dasar, Kwamki, Kec. Mimika Baru, Kabupaten Mimika",PAPUA,99971.0,Indonesia,9013264829.0,,,-4.5428654,136.8837126,https://maps.google.com/?cid=0x0:0x54ecba4b79b13ba2,
restaurant,Restoran,Warung So Yummy,"CVGG+845, Jl. Nawaripi Baru, Kamoro Jaya, Kec. Mimika Baru, Kabupaten Mimika, Papua 99971","Jl. Nawaripi Baru, Kamoro Jaya, Kec. Mimika Baru, Kabupaten Mimika",PAPUA,99971.0,Indonesia,,,,-4.5739942,136.874668,https://maps.google.com/?cid=0x0:0xd72b75dce15192c8,
restaurant,restaurant,,,,PAPUA,,Indonesia,,,,,,https://maps.google.com/?cid=0x0:0xad18f6a2fb6ee6f8u0026onu003dCapopucinou0026midu003d/g/11bxfx5_v9,
restaurant,restaurant,,,,PAPUA,,Indonesia,,,,,,https://maps.google.com/?cid=0x0:0xad18f6a2fb6ee6f8u0026onu003dHot+Lemon+tea2u0026midu003d/g/11bxfx5_v9,
restaurant,restaurant,,,,PAPUA,,Indonesia,,,,,,https://maps.google.com/?cid=0x0:0xad18f6a2fb6ee6f8u0026onu003dBreadu0026midu003d/g/11bxfx5_v9,
restaurant,restaurant,,,,PAPUA,,Indonesia,,,,,,https://maps.google.com/?cid=0x0:0xad18f6a2fb6ee6f8u0026onu003dIced+Teau0026midu003d/g/11bxfx5_v9,
restaurant,restaurant,,,,PAPUA,,Indonesia,,,,,,https://maps.google.com/?cid=0x0:0xad18f6a2fb6ee6f8u0026onu003dTomyam+Seafoodu0026midu003d/g/11bxfx5_v9,
restaurant,restaurant,,,,PAPUA,,Indonesia,,,,,,https://maps.google.com/?cid=0x0:0xad18f6a2fb6ee6f8u0026onu003dFrench+Friesu0026midu003d/g/11bxfx5_v9,
restaurant,restaurant,,,,PAPUA,,Indonesia,,,,,,https://maps.google.com/?cid=0x0:0xad18f6a2fb6ee6f8u0026onu003dHot+Chocolateu0026midu003d/g/11bxfx5_v9,
restaurant,restaurant,,,,PAPUA,,Indonesia,,,,,,https://maps.google.com/?cid=0x0:0xad18f6a2fb6ee6f8u0026onu003dIkan+Kuah+Kuningu0026midu003d/g/11bxfx5_v9,
restaurant,restaurant,,,,PAPUA,,Indonesia,,,,,,https://maps.google.com/?cid=0x0:0xad18f6a2fb6ee6f8u0026onu003dBihun+Siramu0026midu003d/g/11bxfx5_v9,
restaurant,restaurant,,,,PAPUA,,Indonesia,,,,,,https://maps.google.com/?cid=0x0:0xad18f6a2fb6ee6f8u0026onu003dPaket+Hematu0026midu003d/g/11bxfx5_v9,
restaurant,restaurant,,,,PAPUA,,Indonesia,,,,,,https://maps.google.com/?cid=0x0:0xad18f6a2fb6ee6f8u0026onu003dBihum+Kuahu0026midu003d/g/11bxfx5_v9,
restaurant,restaurant,,,,PAPUA,,Indonesia,,,,,,https://maps.google.com/?cid=0x0:0xad18f6a2fb6ee6f8u0026onu003dMie+Keringu0026midu003d/g/11bxfx5_v9,
restaurant,restaurant,,,,PAPUA,,Indonesia,,,,,,https://maps.google.com/?cid=0x0:0xad18f6a2fb6ee6f8u0026onu003dLalapan+Ayam+Paket+Au0026midu003d/g/11bxfx5_v9,
restaurant,restaurant,,,,PAPUA,,Indonesia,,,,,,https://maps.google.com/?cid=0x0:0xad18f6a2fb6ee6f8u0026onu003dCapcay+Gorengu0026midu003d/g/11bxfx5_v9,
restaurant,restaurant,,,,PAPUA,,Indonesia,,,,,,https://maps.google.com/?cid=0x0:0xad18f6a2fb6ee6f8u0026onu0026midu003d/g/11bxfx5_v9,
restaurant,restaurant,,,,PAPUA,,Indonesia,,,,,,https://maps.google.com/?cid=0x0:0xad18f6a2fb6ee6f8u0026onu003dJuice+Pinangu0026midu003d/g/11bxfx5_v9,
restaurant,Mesin Sangrai Kopi,Alenia Papua Coffee  Kitchen,"Jl. Kemang Raya No.66 B 8, RT.8/RW.2, Bangka, Kec. Mampang Prpt., Kota Jakarta Selatan, Daerah Khusus Ibukota Jakarta 12730","RT.8/RW.2, Bangka, Kec. Mampang Prpt., Kota Jakarta Selatan",PAPUA,12730.0,Indonesia,2171790141.0,,,-6.2638119,106.8158777,https://maps.google.com/?cid=0x0:0xe49807fcfab68b48,
restaurant,Restoran,Piro Restaurant  Cafe,"Jl. Pajajaran No.46, Pamulang Bar., Kec. Pamulang, Kota Tangerang Selatan, Banten 15417","Pamulang Bar., Kec. Pamulang, Kota Tangerang Selatan",PAPUA,15417.0,Indonesia,217492888.0,,,-6.3421993,106.7377223,https://maps.google.com/?cid=0x0:0xe1c22e36d0ad2e69,
restaurant,Mi,Emie Lapcoi 168,"Jl. Jelambar Selatan Raya No.11C, RT.10/RW.4, Jelambar Baru, Kec. Grogol petamburan, Kota Jakarta Barat, Daerah Khusus Ibukota Jakarta 1146","Kota Jakarta Barat, Daerah Khusus Ibukota Jakarta",PAPUA,,Indonesia,215635340.0,,,-6.1507126,106.7855245,https://maps.google.com/?cid=0x0:0xa06cb1e429f5395a,
restaurant,Bakso,Resto,"Kedaung 15, Banten 15415","Kota Tangerang Selatan, Banten",PAPUA,,Indonesia,83125103605.0,,,-6.3095902,106.7382216,https://maps.google.com/?cid=0x0:0x25c1fa7bfbc7589e,
restaurant,Sesuai untuk keluarga,Papaloi Thai Food,"Fresh Market Emerald Bintaro, Parigi, Kec. Pd. Aren, Kota Tangerang Selatan, Banten 15227","Parigi, Kec. Pd. Aren, Kota Tangerang Selatan",PAPUA,15227.0,Indonesia,,,,-6.2748118,106.7004978,https://maps.google.com/?cid=0x0:0x6cfca8cd9a820b1c,
restaurant,Restoran,Prime Steakhouse,Jl. Lingkar Mega Kuningan Kav. EI No. 1 Kawasan Mega Kuningan Kuningan Timur Setiabudi Jakarta Selatan DKI Jakarta,"Kota Jakarta Selatan, Daerah Khusus Ibukota Jakarta",PAPUA,,Indonesia,,,,-6.2281046,106.8256903,https://maps.google.com/?cid=0x0:0xa334ffb8a406428d,
restaurant,Restoran,Resto Prima'46,"Jl. Tebet Barat Dalam X No.2 15, RT.10/RW.5, Tebet Bar., Kec. Tebet, Kota Jakarta Selatan, Daerah Khusus Ibukota Jakarta 12810","RT.10/RW.5, Tebet Bar., Kec. Tebet, Kota Jakarta Selatan",PAPUA,12810.0,Indonesia,821116513113.0,,,-6.2421212,106.8516742,https://maps.google.com/?cid=0x0:0xfaf7b4c5eb96854,
restaurant,Restoran,Privy Italian American Steakhouse,"The Darmawangsa Square, Jl. Darmawangsa VI No.333 Lt.3 unit 331, RT.5/RW.1, Pulo, Kec. Kby. Baru, Kota Jakarta Selatan, Daerah Khusus Ibukota Jakarta 12160","Jl. Darmawangsa VI No.333 Lt.3 unit 331, RT.5/RW.1, Pulo, Kec. Kby. Baru, Kota Jakarta Selatan",PAPUA,12160.0,Indonesia,81119089508.0,,,-6.2533242,106.80143,https://maps.google.com/?cid=0x0:0xc688b88f453ed23f,
restaurant,restaurant,Maki,"Ilaga, Kabupaten Puncak, Papua","Kabupaten Puncak, Papua",PAPUA,,Indonesia,,,,-3.9251448,137.640596,https://maps.google.com/?cid=0x0:0xc724bd02059b3c43,
restaurant,restaurant,Kec. Makki,"Kabupaten Lanny Jaya, Papua","Kabupaten Lanny Jaya, Papua",PAPUA,,Indonesia,,,,-3.9681201,138.5837111,https://maps.google.com/?cid=0x0:0xe3c11b0df314eb63,
restaurant,restaurant,Papua,,Papua,PAPUA,,Indonesia,,,,-4.269928,138.0803529,https://maps.google.com/?cid=0x0:0xeba94e9c5eefe673,
restaurant,restaurant,Makki Resto,"Jl. Cilandak Tengah II No.8, RT.1/RW.1, Kemang, Cilandak Bar., Kec. Cilandak, Kota Jakarta Selatan, Daerah Khusus Ibukota Jakarta 12430","RT.1/RW.1, Kemang, Cilandak Bar., Kec. Cilandak, Kota Jakarta Selatan",PAPUA,12430.0,Indonesia,,,,-6.2891999,106.8034902,https://maps.google.com/?cid=0x0:0x4cf4461ec942b220,
restaurant,Indonesia,Warung MAKI,"Jalan Mampang Prapatan VIII Rt. 01 Rw. 01 No. 30, RT.1/RW.1, Tegal Parang, Kec. Mampang Prpt., Kota Jakarta Selatan, Daerah Khusus Ibukota Jakarta 12790","RT.1/RW.1, Tegal Parang, Kec. Mampang Prpt., Kota Jakarta Selatan",PAPUA,12790.0,Indonesia,,,,-6.2482061,106.826758,https://maps.google.com/?cid=0x0:0x25cf5c910ba1eed8,
restaurant,restaurant,Papua 99556,Papua,Papua,PAPUA,,Indonesia,,,,-3.7561908,138.6589406,https://maps.google.com/?cid=0x0:0x5a2842ee64e9fe01,
restaurant,Kantor Pemerintah,Gunarimo,"jln naik logot paga, Jln kimbim Jl. Pyramid, Asologaima, Muliama, Kabupaten Jayawijaya, Papua","Kabupaten Jayawijaya, Papua",PAPUA,,Indonesia,,,,-3.9327433,138.78402,https://maps.google.com/?cid=0x0:0xbea97391cecc3ae8,
restaurant,restaurant,winius wenda,"8GCX+5FQ winom weya distrik, Weyambi, Geya, Kabupaten Tolikara, Papua 99556","Weyambi, Geya, Kabupaten Tolikara",PAPUA,99556.0,Indonesia,82134810273.0,,,-3.6795336,138.5487397,https://maps.google.com/?cid=0x0:0x23163e707735d742,
restaurant,Italia,L'Osteria Pizza e Cucina Canggu,"Jl. Pemelisan Agung No.2, Tibubeneng, Kec. Kuta Utara, Kabupaten Badung, Bali 80361","Tibubeneng, Kec. Kuta Utara, Kabupaten Badung",PAPUA,80361.0,Indonesia,81246406188.0,,,-8.6591377,115.1379763,https://maps.google.com/?cid=0x0:0xde23f3201f0aa43,
restaurant,Italia,Cantina Bali Canggu,"Jl. Raya Semat No.16A, Canggu, Kec. Kuta Utara, Kabupaten Badung, Bali 80361","Canggu, Kec. Kuta Utara, Kabupaten Badung",PAPUA,80361.0,Indonesia,81246527781.0,,,-8.6532966,115.1429958,https://maps.google.com/?cid=0x0:0x5c4ed68eaf1d3102,
restaurant,Italia,Fucina Pizzeria Cucina Italiana,"Jl. Raya Semat, Tibubeneng, Kec. Kuta Utara, Kabupaten Badung, Bali 80361","Tibubeneng, Kec. Kuta Utara, Kabupaten Badung",PAPUA,80361.0,Indonesia,81238127245.0,,,-8.6571286,115.1408279,https://maps.google.com/?cid=0x0:0x3f32bd7e24be796b,
restaurant,restaurant,,,,PAPUA,,Indonesia,,,,,,https://maps.google.com/?cid=0x0:0xde23f3201f0aa43u0026onu003dDiavola+Pizzau0026midu003d/g/11n_s3rbk0,
restaurant,Italia,Pizza Fabbrica - Canggu,"Jl. Pantai Batu Mejan, Canggu, Kec. Kuta Utara, Kabupaten Badung, Bali 80351","Canggu, Kec. Kuta Utara, Kabupaten Badung",PAPUA,80351.0,Indonesia,81999330880.0,,,-8.6524306,115.1307766,https://maps.google.com/?cid=0x0:0x4a78117e27e7fde1,
restaurant,restaurant,,,,PAPUA,,Indonesia,,,,,,https://maps.google.com/?cid=0x0:0xde23f3201f0aa43u0026onu003dGnocchiu0026midu003d/g/11n_s3rbk0,
restaurant,restaurant,,,,PAPUA,,Indonesia,,,,,,https://maps.google.com/?cid=0x0:0xde23f3201f0aa43u0026onu003dTagliatelle+All%E2%80%99Anatrau0026midu003d/g/11n_s3rbk0,
restaurant,restaurant,,,,PAPUA,,Indonesia,,,,,,https://maps.google.com/?cid=0x0:0xde23f3201f0aa43u0026onu003dBurrata+Appetizeru0026midu003d/g/11n_s3rbk0,
restaurant,restaurant,,,,PAPUA,,Indonesia,,,,,,https://maps.google.com/?cid=0x0:0xde23f3201f0aa43u0026onu003dLasagna+Bologneseu0026midu003d/g/11n_s3rbk0,
restaurant,restaurant,,,,PAPUA,,Indonesia,,,,,,https://maps.google.com/?cid=0x0:0xde23f3201f0aa43u0026onu003dTruffle+Risottou0026midu003d/g/11n_s3rbk0,
restaurant,restaurant,,,,PAPUA,,Indonesia,,,,,,https://maps.google.com/?cid=0x0:0xde23f3201f0aa43u0026onu003dBruschetta+Al+Pomodorou0026midu003d/g/11n_s3rbk0,
restaurant,restaurant,,,,PAPUA,,Indonesia,,,,,,https://maps.google.com/?cid=0x0:0xde23f3201f0aa43u0026onu003dPasta+Carbonarau0026midu003d/g/11n_s3rbk0,
restaurant,restaurant,,,,PAPUA,,Indonesia,,,,,,https://maps.google.com/?cid=0x0:0xde23f3201f0aa43u0026onu003dAranciniu0026midu003d/g/11n_s3rbk0,
restaurant,restaurant,,,,PAPUA,,Indonesia,,,,,,https://maps.google.com/?cid=0x0:0xde23f3201f0aa43u0026onu003dPistachio+Tiramisuu0026midu003d/g/11n_s3rbk0,
restaurant,restaurant,,,,PAPUA,,Indonesia,,,,,,https://maps.google.com/?cid=0x0:0xde23f3201f0aa43u0026onu003dSquid+Ink+Spaghetti+with+Clamsu0026midu003d/g/11n_s3rbk0,
restaurant,restaurant,,,,PAPUA,,Indonesia,,,,,,https://maps.google.com/?cid=0x0:0xde23f3201f0aa43u0026onu003dBasil+Pesto+Pastau0026midu003d/g/11n_s3rbk0,
restaurant,restaurant,,,,PAPUA,,Indonesia,,,,,,https://maps.google.com/?cid=0x0:0xde23f3201f0aa43u0026onu003dCannoliu0026midu003d/g/11n_s3rbk0,
restaurant,restaurant,,,,PAPUA,,Indonesia,,,,,,https://maps.google.com/?cid=0x0:0xde23f3201f0aa43u0026onu003dTonnarelli+Cacio+E+Pepeu0026midu003d/g/11n_s3rbk0,
restaurant,restaurant,,,,PAPUA,,Indonesia,,,,,,https://maps.google.com/?cid=0x0:0xde23f3201f0aa43u0026onu003dTiramisu+Al+Caffeu0026midu003d/g/11n_s3rbk0,
restaurant,restaurant,,,,PAPUA,,Indonesia,,,,,,https://maps.google.com/?cid=0x0:0xde23f3201f0aa43u0026onu003dOctopus+Carpacciou0026midu003d/g/11n_s3rbk0,
restaurant,restaurant,,,,PAPUA,,Indonesia,,,,,,https://maps.google.com/?cid=0x0:0xde23f3201f0aa43u0026onu003dCookiesu0026midu003d/g/11n_s3rbk0,
restaurant,restaurant,,,,PAPUA,,Indonesia,,,,,,https://maps.google.com/?cid=0x0:0xde23f3201f0aa43u0026onu003dLava+Cake+Pistachiou0026midu003d/g/11n_s3rbk0,
restaurant,Italia,Osteria Gia Mall Pacific Place,"Pacific Place Mall, Ground Level Unit G-05D, SCBD Lot. 3, Jl. Jend. Sudirman kav 52-53 South No.5, RT.5/RW.3, Senayan, Kec. Kby. Baru, Jakarta, Daerah Khusus Ibukota Jakarta 12190","Ground Level Unit G-05D, SCBD Lot. 3, Jl. Jend. Sudirman kav 52-53 South No.5, RT.5/RW.3, Senayan, Kec. Kby. Baru, Jakarta",PAPUA,12190.0,Indonesia,81513153300.0,,,-6.2250515,106.8103228,https://maps.google.com/?cid=0x0:0x5c4a110b59e89f8d,
restaurant,Italia,Osteria Gia Plaza Indonesia,"Jl. M.H. Thamrin No.30, RT.9/RW.5, Gondangdia, Kec. Menteng, Kota Jakarta Pusat, Daerah Khusus Ibukota Jakarta 10350","RT.9/RW.5, Gondangdia, Kec. Menteng, Kota Jakarta Pusat",PAPUA,10350.0,Indonesia,81299073300.0,,,-6.1939355,106.8226376,https://maps.google.com/?cid=0x0:0xe0b15216c2b89678,
restaurant,Indonesia,Le Nusa Jakarta,"Jl. Wijaya IX No.11, Melawai, Kec. Kby. Baru, Kota Jakarta Selatan, Daerah Khusus Ibukota Jakarta 04315","Melawai, Kec. Kby. Baru, Kota Jakarta Selatan",PAPUA,4315.0,Indonesia,2138250336.0,,,-6.2473868,106.8023289,https://maps.google.com/?cid=0x0:0x1a7bd5a49fa3bf38,
restaurant,Italia,Osteria GIA Orange Groves PIK 2,"Orange Groves Pantai Indah Kapuk 2, Jl. KH Mas Mansyur No.01B Kavling Blok E22, Kabupaten Tangerang, Banten 15214","Jl. KH Mas Mansyur No.01B Kavling Blok E22, Kabupaten Tangerang",PAPUA,15214.0,Indonesia,8118450033.0,,,-6.0591362,106.6927915,https://maps.google.com/?cid=0x0:0x36cd0d290e441c7d,
restaurant,restaurant,Distrik Dimba,"Kabupaten Lanny Jaya, Papua","Kabupaten Lanny Jaya, Papua",PAPUA,,Indonesia,,,,-3.8454051,138.5426379,https://maps.google.com/?cid=0x0:0x36c26bec90d3b953,
restaurant,Restoran,Restaurant Yougwa,"CJ63+H23, Jl. Raya Abepura - Sentani, Asei Kecil, Kec. Sentani Tim., Kabupaten Jayapura, Papua 99351","Jl. Raya Abepura - Sentani, Asei Kecil, Kec. Sentani Tim., Kabupaten Jayapura",PAPUA,99351.0,Indonesia,8114801448.0,,,-2.5886245,140.602559,https://maps.google.com/?cid=0x0:0x65e60fc66014e79c,
restaurant,restaurant,Warung Makan Fikih,"3F98+55G, Gurika, Distrik Tiom, Kabupaten Lanny Jaya, Papua","Kabupaten Lanny Jaya, Papua",PAPUA,,Indonesia,,,,-3.9320744,138.4654458,https://maps.google.com/?cid=0x0:0xc69e61e0f9de402,
restaurant,Sesuai untuk keluarga,Jimbaran Ikan Bakar,"FP66+H5F, Jl. Pacific Permai, Bayangkara, Kec. Jayapura Utara, Kota Jayapura, Papua","Kota Jayapura, Papua",PAPUA,,Indonesia,,,,-2.5385726,140.7104342,https://maps.google.com/?cid=0x0:0xcc67bb0319b56bc8,
restaurant,Restoran,Yasbeer Cafe dan resto,"Engros, Kec. Abepura, Kota Jayapura, Papua","Kota Jayapura, Papua",PAPUA,,Indonesia,81248941111.0,,,-2.6005334,140.7153915,https://maps.google.com/?cid=0x0:0x34cbd734e60fa36b,
restaurant,Restoran,Djoeragan Dapur Resto and Cafe,"Engros, Kec. Abepura, Kota Jayapura, Papua","Kota Jayapura, Papua",PAPUA,,Indonesia,81292006323.0,,,-2.5999813,140.7147104,https://maps.google.com/?cid=0x0:0xb8853f9fee2cdbc,
restaurant,restaurant,,,,PAPUA,,Indonesia,,,,,,https://maps.google.com/?cid=0x0:0xb6125c5e0138c416u0026onu003dCafe+Latteu0026midu003d/g/11vm83vzyd,
restaurant,restaurant,,,,PAPUA,,Indonesia,,,,,,https://maps.google.com/?cid=0x0:0xb6125c5e0138c416u0026onu003dTahu+Cabe+Garamu0026midu003d/g/11vm83vzyd,
restaurant,restaurant,,,,PAPUA,,Indonesia,,,,,,https://maps.google.com/?cid=0x0:0xb6125c5e0138c416u0026onu003dNasi+Goreng+Ayamu0026midu003d/g/11vm83vzyd,
restaurant,restaurant,,,,PAPUA,,Indonesia,,,,,,https://maps.google.com/?cid=0x0:0xb6125c5e0138c416u0026onu003dCapcay+Ayamu0026midu003d/g/11vm83vzyd,
restaurant,restaurant,,,,PAPUA,,Indonesia,,,,,,https://maps.google.com/?cid=0x0:0xb6125c5e0138c416u0026onu003dSeafood+Platteru0026midu003d/g/11vm83vzyd,
restaurant,restaurant,,,,PAPUA,,Indonesia,,,,,,https://maps.google.com/?cid=0x0:0xb6125c5e0138c416u0026onu003dPapedau0026midu003d/g/11vm83vzyd,
restaurant,restaurant,,,,PAPUA,,Indonesia,,,,,,https://maps.google.com/?cid=0x0:0xb6125c5e0138c416u0026onu003dLobsteru0026midu003d/g/11vm83vzyd,
restaurant,restaurant,,,,PAPUA,,Indonesia,,,,,,https://maps.google.com/?cid=0x0:0xb6125c5e0138c416u0026onu003dCumi+Saus+Padang+Dan+Kangkungu0026midu003d/g/11vm83vzyd,
restaurant,restaurant,,,,PAPUA,,Indonesia,,,,,,https://maps.google.com/?cid=0x0:0xb6125c5e0138c416u0026onu0026midu003d/g/11vm83vzyd,
restaurant,Prasmanan,The Gallery Restaurant,"Hotel Ciputra Lt. 1 Jl. Letjen S. Parman No.1, RT.11/RW.1, Tj. Duren Utara, Kec. Grogol petamburan, Kota Jakarta Barat, Daerah Khusus Ibukota Jakarta 11470","RT.11/RW.1, Tj. Duren Utara, Kec. Grogol petamburan, Kota Jakarta Barat",PAPUA,11470.0,Indonesia,215660640.0,,,-6.1685121,106.7868299,https://maps.google.com/?cid=0x0:0x9b389be8884768,
restaurant,Restoran,Dim Sum Inc,"Plaza Festival, Jl. H. R. Rasuna Said No.22 Lantai Dasar, RT.2/RW.5, Karet Kuningan, Kecamatan Setiabudi, Kota Jakarta Selatan, Daerah Khusus Ibukota Jakarta 12920","Jl. H. R. Rasuna Said No.22 Lantai Dasar, RT.2/RW.5, Karet Kuningan, Kecamatan Setiabudi, Kota Jakarta Selatan",PAPUA,12920.0,Indonesia,215263178.0,,,-6.2215769,106.8331726,https://maps.google.com/?cid=0x0:0xf044f05e70d173d,
restaurant,restaurant,Papua 99563,Papua,Papua,PAPUA,,Indonesia,,,,-3.9612229,138.1597946,https://maps.google.com/?cid=0x0:0xb123b70d10849bd1,
restaurant,Restoran,Kemangi Cafe  Resto,"Jl. Pacific Permai, Bayangkara, Kec. Jayapura Utara, Kota Jayapura, Papua","Kota Jayapura, Papua",PAPUA,,Indonesia,82198688305.0,,,-2.5372488,140.7080492,https://maps.google.com/?cid=0x0:0xd1b499ee62b7474e,
restaurant,Prasmanan,La Brasserie Restaurant,"Jl. Jenderal Sudirman No.Kav 18 20, RT.10/RW.11, Karet Tengsin, Kecamatan Tanah Abang, Kota Jakarta Pusat, Daerah Khusus Ibukota Jakarta 10220","RT.10/RW.11, Karet Tengsin, Kecamatan Tanah Abang, Kota Jakarta Pusat",PAPUA,10220.0,Indonesia,,,,-6.213105,106.81872,https://maps.google.com/?cid=0x0:0xaac5e7534a420e95,
restaurant,Indonesia,Bebek Malio,"Jl. Tebet Timur Dalam Raya No.117, Tebet Tim., Kec. Tebet, Kota Jakarta Selatan, Daerah Khusus Ibukota Jakarta 12820","Tebet Tim., Kec. Tebet, Kota Jakarta Selatan",PAPUA,12820.0,Indonesia,2183789212.0,,,-6.237732,106.857037,https://maps.google.com/?cid=0x0:0x313672bfc3251be5,
restaurant,Restoran,Dapur Papua Resto (tag by EnCHy),"CH94+3PC, Jl. Raya Airport Sentani, Nendali, Kec. Sentani Tim., Kabupaten Jayapura, Papua 99359","Jl. Raya Airport Sentani, Nendali, Kec. Sentani Tim., Kabupaten Jayapura",PAPUA,99359.0,Indonesia,,,,-2.5823105,140.556775,https://maps.google.com/?cid=0x0:0x31316751d4c3a979,
restaurant,Kantor Pemerintah,Gunarimo,"jln naik logot paga, Jln kimbim Jl. Pyramid, Asologaima, Muliama, Kabupaten Jayawijaya, Papua","Kabupaten Jayawijaya, Papua",PAPUA,,Indonesia,,,,-3.9327433,138.78402,https://maps.google.com/?cid=0x0:0xbea97391cecc3ae8,
restaurant,restaurant,Papua 99563,Papua,Papua,PAPUA,,Indonesia,,,,-3.9612229,138.1597946,https://maps.google.com/?cid=0x0:0xb123b70d10849bd1,
restaurant,Restoran,RM Anugerah,"7XMQ+7HH, Pagaleme, Distrik Mulia, Kabupaten Puncak Jaya, Papua 98975","Pagaleme, Distrik Mulia, Kabupaten Puncak Jaya",PAPUA,98975.0,Indonesia,,,,-3.7168224,137.988993,https://maps.google.com/?cid=0x0:0x1b630c37e9b38dcc,
restaurant,,Warung Maleo  Juragan Pinang El Kumis,"73VV+H89, Kalome / Pagargom, Kec. Tingginambut, Kabupaten Puncak Jaya, Papua 99563","Kalome / Pagargom, Kec. Tingginambut, Kabupaten Puncak Jaya",PAPUA,99563.0,Indonesia,,,,-3.7060904,138.0933589,https://maps.google.com/?cid=0x0:0xf4e1e974e9dd6b85,
restaurant,Sate,Warung Biru,"7XPQ+4H8, Pagaleme, Distrik Mulia, Kabupaten Puncak Jaya, Papua 98975","Pagaleme, Distrik Mulia, Kabupaten Puncak Jaya",PAPUA,98975.0,Indonesia,,,,-3.7147206,137.9889552,https://maps.google.com/?cid=0x0:0x2941effa0c8b28f7,
restaurant,Mi,RM Barokah,"8X28+42H, Wuyukwi, Distrik Mulia, Kabupaten Puncak Jaya, Papua 98973","Wuyukwi, Distrik Mulia, Kabupaten Puncak Jaya",PAPUA,98973.0,Indonesia,,,,-3.6996957,137.9651121,https://maps.google.com/?cid=0x0:0xc0f5e27433afe182,
restaurant,Kedai Kopi,Lanny-Net,"75XW+JWM, Desa Wurak, Distrik Ilu, Kabupaten Puncak Jaya, Papua 99563","Desa Wurak, Distrik Ilu, Kabupaten Puncak Jaya",PAPUA,99563.0,Indonesia,81344454411.0,,,-3.7009041,138.197304,https://maps.google.com/?cid=0x0:0x9cd3d493da15ee07,
restaurant,Restoran,Warung Sate Bude Linda,"7XQH+G3F, Pruleme, Distrik Mulia, Kabupaten Puncak Jaya, Papua 98973","Pruleme, Distrik Mulia, Kabupaten Puncak Jaya",PAPUA,98973.0,Indonesia,,,,-3.7111967,137.9776632,https://maps.google.com/?cid=0x0:0x9954cf172f984c56,
restaurant,Padang,R.M MINANG JAYA,"Jl. Mulia gambut, kota lama, Distrik Mulia, Kabupaten Puncak Jaya, Papua 98915","kota lama, Distrik Mulia, Kabupaten Puncak Jaya",PAPUA,98915.0,Indonesia,81346313708.0,,,-3.7000817,137.9667389,https://maps.google.com/?cid=0x0:0x545829f3706e16c6,
restaurant,Padang,RM Puja Selera,"7XPJ+MC5, Unnamed Road, Pruleme, Distrik Mulia, Kabupaten Puncak Jaya, Papua 98973","Unnamed Road, Pruleme, Distrik Mulia, Kabupaten Puncak Jaya",PAPUA,98973.0,Indonesia,,,,-3.7133572,137.9811015,https://maps.google.com/?cid=0x0:0x5c5a8ec894f8337c,
restaurant,Padang,Warung Sari Minang,"7XW8+W4P, Unnamed Road, Wuyukwi, Distrik Mulia, Kabupaten Puncak Jaya, Papua 98973","Unnamed Road, Wuyukwi, Distrik Mulia, Kabupaten Puncak Jaya",PAPUA,98973.0,Indonesia,81340958395.0,,,-3.702675,137.965338,https://maps.google.com/?cid=0x0:0x76df75196d523d86,
restaurant,Mi,Rumah Makan Pakde,"7XX8+243, Wuyukwi, Distrik Mulia, Kabupaten Puncak Jaya, Papua 98973","Wuyukwi, Distrik Mulia, Kabupaten Puncak Jaya",PAPUA,98973.0,Indonesia,,,,-3.7024754,137.9653046,https://maps.google.com/?cid=0x0:0x717d5035d0b44952,
restaurant,Mi,Warung mie ayam solo,"7XRJ+729, Pruleme, Distrik Mulia, Kabupaten Puncak Jaya, Papua 98973","Pruleme, Distrik Mulia, Kabupaten Puncak Jaya",PAPUA,98973.0,Indonesia,,,,-3.709207,137.9801073,https://maps.google.com/?cid=0x0:0xf42c04d8f7191ccb,
restaurant,Restoran,RM Mie Ayam,"7XX8+PF6, Wuyukwi, Distrik Mulia, Kabupaten Puncak Jaya, Papua 98973","Wuyukwi, Distrik Mulia, Kabupaten Puncak Jaya",PAPUA,98973.0,Indonesia,,,,-3.7007117,137.9661327,https://maps.google.com/?cid=0x0:0xd9ccbd54282ff27e,
restaurant,Restoran,Paiton,"7XCM+8CH, Pagaleme, Distrik Mulia, Kabupaten Puncak Jaya, Papua","Kabupaten Puncak Jaya, Papua",PAPUA,,Indonesia,,,,-3.729199,137.983597,https://maps.google.com/?cid=0x0:0xa0579b24dc531450,
restaurant,Rumah Makan,Warung Pecel Bude Suryani,"8X28+243, Jalan, kandep, Distrik Mulia, Kabupaten Puncak Jaya, Papua 98973","Jalan, kandep, Distrik Mulia, Kabupaten Puncak Jaya",PAPUA,98973.0,Indonesia,85259034394.0,,,-3.7003995,137.9655851,https://maps.google.com/?cid=0x0:0xfa5acbc4b86540c2,
restaurant,restaurant,Papua 99567,"Kabupaten Lanny Jaya, Papua","Kabupaten Lanny Jaya, Papua",PAPUA,,Indonesia,,,,-3.8553159,138.4787258,https://maps.google.com/?cid=0x0:0x54dba557046d88de,
restaurant,restaurant,Rumah Makan Karubaga,"8F8H+7C9, Karubaga, Kec. Karubaga, Kabupaten Tolikara, Papua 99567","Karubaga, Kec. Karubaga, Kabupaten Tolikara",PAPUA,99567.0,Indonesia,,,,-3.6843481,138.4786024,https://maps.google.com/?cid=0x0:0x416ee39b0a4f1683,
restaurant,restaurant,Warung Makan Nirwana,"8F8G+RJF, Jalan Kesehatan, Karubaga, Kec. Karubaga, Kabupaten Tolikara, Papua 99567","Jalan Kesehatan, Karubaga, Kec. Karubaga, Kabupaten Tolikara",PAPUA,99567.0,Indonesia,82187842753.0,,,-3.6829339,138.4765406,https://maps.google.com/?cid=0x0:0x5b9ec1e0de1f1950,
restaurant,restaurant,Kec. Balingga,"Kabupaten Lanny Jaya, Papua","Kabupaten Lanny Jaya, Papua",PAPUA,,Indonesia,,,,-4.130659,138.3589086,https://maps.google.com/?cid=0x0:0x59418e32c4fc4580,
restaurant,restaurant,Distrik Tiomneri,"Kabupaten Lanny Jaya, Papua","Kabupaten Lanny Jaya, Papua",PAPUA,,Indonesia,,,,-3.8761181,138.4009177,https://maps.google.com/?cid=0x0:0x88f4e9020ef9ade8,
restaurant,,Warung Maleo  Juragan Pinang El Kumis,"73VV+H89, Kalome / Pagargom, Kec. Tingginambut, Kabupaten Puncak Jaya, Papua 99563","Kalome / Pagargom, Kec. Tingginambut, Kabupaten Puncak Jaya",PAPUA,99563.0,Indonesia,,,,-3.7060904,138.0933589,https://maps.google.com/?cid=0x0:0xf4e1e974e9dd6b85,
restaurant,Rumah Makan,RestoCafe Rumah Laut,"Jl. Koti, Numbai, Distrik Jayapura Selatan, Kota Jayapura, Papua 99222","Numbai, Distrik Jayapura Selatan, Kota Jayapura",PAPUA,99222.0,Indonesia,9675160842.0,,,-2.5443152,140.7078561,https://maps.google.com/?cid=0x0:0xa0b850e17d17f09d,
restaurant,restaurant,Papua 99563,Papua,Papua,PAPUA,,Indonesia,,,,-3.9612229,138.1597946,https://maps.google.com/?cid=0x0:0xb123b70d10849bd1,
restaurant,,Warung Maleo  Juragan Pinang El Kumis,"73VV+H89, Kalome / Pagargom, Kec. Tingginambut, Kabupaten Puncak Jaya, Papua 99563","Kalome / Pagargom, Kec. Tingginambut, Kabupaten Puncak Jaya",PAPUA,99563.0,Indonesia,,,,-3.7060904,138.0933589,https://maps.google.com/?cid=0x0:0xf4e1e974e9dd6b85,
restaurant,Restoran,RM Anugerah,"7XMQ+7HH, Pagaleme, Distrik Mulia, Kabupaten Puncak Jaya, Papua 98975","Pagaleme, Distrik Mulia, Kabupaten Puncak Jaya",PAPUA,98975.0,Indonesia,,,,-3.7168224,137.988993,https://maps.google.com/?cid=0x0:0x1b630c37e9b38dcc,
restaurant,Dapur Umum,Warung Segman,"7XX7+2Q7, Wuyukwi, Distrik Mulia, Kabupaten Puncak Jaya, Papua 98973","Wuyukwi, Distrik Mulia, Kabupaten Puncak Jaya",PAPUA,98973.0,Indonesia,85244167861.0,,,-3.7025417,137.9644578,https://maps.google.com/?cid=0x0:0xb70d2a8b2b6767b,
restaurant,Sate,Warung Biru,"7XPQ+4H8, Pagaleme, Distrik Mulia, Kabupaten Puncak Jaya, Papua 98975","Pagaleme, Distrik Mulia, Kabupaten Puncak Jaya",PAPUA,98975.0,Indonesia,,,,-3.7147206,137.9889552,https://maps.google.com/?cid=0x0:0x2941effa0c8b28f7,
restaurant,Mi,RM Barokah,"8X28+42H, Wuyukwi, Distrik Mulia, Kabupaten Puncak Jaya, Papua 98973","Wuyukwi, Distrik Mulia, Kabupaten Puncak Jaya",PAPUA,98973.0,Indonesia,,,,-3.6996957,137.9651121,https://maps.google.com/?cid=0x0:0xc0f5e27433afe182,
restaurant,Padang,RM Puja Selera,"7XPJ+MC5, Unnamed Road, Pruleme, Distrik Mulia, Kabupaten Puncak Jaya, Papua 98973","Unnamed Road, Pruleme, Distrik Mulia, Kabupaten Puncak Jaya",PAPUA,98973.0,Indonesia,,,,-3.7133572,137.9811015,https://maps.google.com/?cid=0x0:0x5c5a8ec894f8337c,
restaurant,Restoran,Restaurant Yougwa,"CJ63+H23, Jl. Raya Abepura - Sentani, Asei Kecil, Kec. Sentani Tim., Kabupaten Jayapura, Papua 99351","Jl. Raya Abepura - Sentani, Asei Kecil, Kec. Sentani Tim., Kabupaten Jayapura",PAPUA,99351.0,Indonesia,8114801448.0,,,-2.5886245,140.602559,https://maps.google.com/?cid=0x0:0x65e60fc66014e79c,
restaurant,Restoran,RM Mie Ayam,"7XX8+PF6, Wuyukwi, Distrik Mulia, Kabupaten Puncak Jaya, Papua 98973","Wuyukwi, Distrik Mulia, Kabupaten Puncak Jaya",PAPUA,98973.0,Indonesia,,,,-3.7007117,137.9661327,https://maps.google.com/?cid=0x0:0xd9ccbd54282ff27e,
restaurant,Padang,R.M MINANG JAYA,"Jl. Mulia gambut, kota lama, Distrik Mulia, Kabupaten Puncak Jaya, Papua 98915","kota lama, Distrik Mulia, Kabupaten Puncak Jaya",PAPUA,98915.0,Indonesia,81346313708.0,,,-3.7000817,137.9667389,https://maps.google.com/?cid=0x0:0x545829f3706e16c6,
restaurant,Restoran,Warung Sate Bude Linda,"7XQH+G3F, Pruleme, Distrik Mulia, Kabupaten Puncak Jaya, Papua 98973","Pruleme, Distrik Mulia, Kabupaten Puncak Jaya",PAPUA,98973.0,Indonesia,,,,-3.7111967,137.9776632,https://maps.google.com/?cid=0x0:0x9954cf172f984c56,
restaurant,Rumah Makan,RestoCafe Rumah Laut,"Jl. Koti, Numbai, Distrik Jayapura Selatan, Kota Jayapura, Papua 99222","Numbai, Distrik Jayapura Selatan, Kota Jayapura",PAPUA,99222.0,Indonesia,9675160842.0,,,-2.5443152,140.7078561,https://maps.google.com/?cid=0x0:0xa0b850e17d17f09d,
restaurant,Mi,Warung mie ayam solo,"7XRJ+729, Pruleme, Distrik Mulia, Kabupaten Puncak Jaya, Papua 98973","Pruleme, Distrik Mulia, Kabupaten Puncak Jaya",PAPUA,98973.0,Indonesia,,,,-3.709207,137.9801073,https://maps.google.com/?cid=0x0:0xf42c04d8f7191ccb,
restaurant,Padang,Warung Sari Minang,"7XW8+W4P, Unnamed Road, Wuyukwi, Distrik Mulia, Kabupaten Puncak Jaya, Papua 98973","Unnamed Road, Wuyukwi, Distrik Mulia, Kabupaten Puncak Jaya",PAPUA,98973.0,Indonesia,81340958395.0,,,-3.702675,137.965338,https://maps.google.com/?cid=0x0:0x76df75196d523d86,
restaurant,Mi,Rumah Makan Pakde,"7XX8+243, Wuyukwi, Distrik Mulia, Kabupaten Puncak Jaya, Papua 98973","Wuyukwi, Distrik Mulia, Kabupaten Puncak Jaya",PAPUA,98973.0,Indonesia,,,,-3.7024754,137.9653046,https://maps.google.com/?cid=0x0:0x717d5035d0b44952,
restaurant,Rumah Makan,Rumah Makan Sendok Garpu Jayapura,"Jl. Raya Abepura-Kotaraja Kota Baru, Wai Mhorock, Kec. Abepura, Kota Jayapura, Papua 99225","Wai Mhorock, Kec. Abepura, Kota Jayapura",PAPUA,99225.0,Indonesia,82310000123.0,,,-2.6057136,140.6694308,https://maps.google.com/?cid=0x0:0x9b347169a4f00047,
restaurant,Warnet,SEJAHTERA NET 11,"7XMJ+FH5, Pruleme, Distrik Mulia, Kabupaten Puncak Jaya, Papua 98973","Pruleme, Distrik Mulia, Kabupaten Puncak Jaya",PAPUA,98973.0,Indonesia,,,,-3.7163539,137.9814949,https://maps.google.com/?cid=0x0:0x2ac713c811acd32a,
restaurant,Restoran,Cristho Resto,"Jl. Raya Sentani - Waena, Asei Kecil, Kec. Sentani Tim., Kabupaten Jayapura, Papua 99351","Asei Kecil, Kec. Sentani Tim., Kabupaten Jayapura",PAPUA,99351.0,Indonesia,82248269002.0,,,-2.5885674,140.5954984,https://maps.google.com/?cid=0x0:0xe37fe4d7ad0bc892,
restaurant,Restoran,Restoran Pinang Sirih,"F9WW+QV2, Jl. Sesate, Bambu Pemali, Kec. Merauke, Kabupaten Merauke, Papua 99614","Jl. Sesate, Bambu Pemali, Kec. Merauke, Kabupaten Merauke",PAPUA,99614.0,Indonesia,82132128881.0,,,-8.5030737,140.3966377,https://maps.google.com/?cid=0x0:0x7c98c0bee5496ce9,
restaurant,Restoran,Paiton,"7XCM+8CH, Pagaleme, Distrik Mulia, Kabupaten Puncak Jaya, Papua","Kabupaten Puncak Jaya, Papua",PAPUA,,Indonesia,,,,-3.729199,137.983597,https://maps.google.com/?cid=0x0:0xa0579b24dc531450,
restaurant,Restoran,So Yummy Resto,"FV3Q+QR9, Kwamki, Kec. Mimika Baru, Kabupaten Mimika, Papua 99971","Kwamki, Kec. Mimika Baru, Kabupaten Mimika",PAPUA,99971.0,Indonesia,81240005760.0,,,-4.5455973,136.8896159,https://maps.google.com/?cid=0x0:0xad18f6a2fb6ee6f8,
restaurant,restaurant,Papua 99556,Papua,Papua,PAPUA,,Indonesia,,,,-3.7561908,138.6589406,https://maps.google.com/?cid=0x0:0x5a2842ee64e9fe01,
restaurant,Padang,Resto Yougwa Danau Sentani,"Jl. Batu Ceper No.73 15, RT.15/RW.1, Kb. Klp., Kecamatan Gambir, Kota Jakarta Pusat, Daerah Khusus Ibukota Jakarta 10120","RT.15/RW.1, Kb. Klp., Kecamatan Gambir, Kota Jakarta Pusat",PAPUA,10120.0,Indonesia,8119622272.0,,,-6.162043,106.8243928,https://maps.google.com/?cid=0x0:0xd6689d47fce71c89,
restaurant,Restoran,Restaurant Yougwa,"CJ63+H23, Jl. Raya Abepura - Sentani, Asei Kecil, Kec. Sentani Tim., Kabupaten Jayapura, Papua 99351","Jl. Raya Abepura - Sentani, Asei Kecil, Kec. Sentani Tim., Kabupaten Jayapura",PAPUA,99351.0,Indonesia,8114801448.0,,,-2.5886245,140.602559,https://maps.google.com/?cid=0x0:0x65e60fc66014e79c,
restaurant,Kafe,PUA-PUA CAFE,"Jl. Budi Utomo, Nawaripi, Kec. Mimika Baru, Kabupaten Mimika, Papua 99952","Nawaripi, Kec. Mimika Baru, Kabupaten Mimika",PAPUA,99952.0,Indonesia,82346750560.0,,,-4.5620805,136.8806057,https://maps.google.com/?cid=0x0:0xb7cc07f877baacb2,
restaurant,Mesin Sangrai Kopi,Alenia Papua Coffee  Kitchen,"Jl. Kemang Raya No.66 B 8, RT.8/RW.2, Bangka, Kec. Mampang Prpt., Kota Jakarta Selatan, Daerah Khusus Ibukota Jakarta 12730","RT.8/RW.2, Bangka, Kec. Mampang Prpt., Kota Jakarta Selatan",PAPUA,12730.0,Indonesia,2171790141.0,,,-6.2638119,106.8158777,https://maps.google.com/?cid=0x0:0xe49807fcfab68b48,
restaurant,Restoran,So Yummy Resto,"FV3Q+QR9, Kwamki, Kec. Mimika Baru, Kabupaten Mimika, Papua 99971","Kwamki, Kec. Mimika Baru, Kabupaten Mimika",PAPUA,99971.0,Indonesia,81240005760.0,,,-4.5455973,136.8896159,https://maps.google.com/?cid=0x0:0xad18f6a2fb6ee6f8,
restaurant,Restoran,Kedai Kompak (Makan Khas Papua),"PRVW+V63, RT.5/RW.4, Kalibata, Kec. Pancoran, Kota Jakarta Selatan, Daerah Khusus Ibukota Jakarta 12740","RT.5/RW.4, Kalibata, Kec. Pancoran, Kota Jakarta Selatan",PAPUA,12740.0,Indonesia,81344457456.0,,,-6.2553676,106.8455493,https://maps.google.com/?cid=0x0:0x1b02bfe369b6d08a,
restaurant,Restoran,Dapur Papua Resto (tag by EnCHy),"CH94+3PC, Jl. Raya Airport Sentani, Nendali, Kec. Sentani Tim., Kabupaten Jayapura, Papua 99359","Jl. Raya Airport Sentani, Nendali, Kec. Sentani Tim., Kabupaten Jayapura",PAPUA,99359.0,Indonesia,,,,-2.5823105,140.556775,https://maps.google.com/?cid=0x0:0x31316751d4c3a979,
restaurant,Rumah Makan,Rumah Makan Sendok Garpu Jayapura,"Jl. Raya Abepura-Kotaraja Kota Baru, Wai Mhorock, Kec. Abepura, Kota Jayapura, Papua 99225","Wai Mhorock, Kec. Abepura, Kota Jayapura",PAPUA,99225.0,Indonesia,82310000123.0,,,-2.6057136,140.6694308,https://maps.google.com/?cid=0x0:0x9b347169a4f00047,
restaurant,Kantor Pemerintah,Gunarimo,"jln naik logot paga, Jln kimbim Jl. Pyramid, Asologaima, Muliama, Kabupaten Jayawijaya, Papua","Kabupaten Jayawijaya, Papua",PAPUA,,Indonesia,,,,-3.9327433,138.78402,https://maps.google.com/?cid=0x0:0xbea97391cecc3ae8,
restaurant,restaurant,winius wenda,"8GCX+5FQ winom weya distrik, Weyambi, Geya, Kabupaten Tolikara, Papua 99556","Weyambi, Geya, Kabupaten Tolikara",PAPUA,99556.0,Indonesia,82134810273.0,,,-3.6795336,138.5487397,https://maps.google.com/?cid=0x0:0x23163e707735d742,
restaurant,restaurant,Kampung Tenondek Distrik koragi,"4QXF+J74, kampung tenondek, Distrik Bolakme, Kabupaten Jayawijaya, Papua 99555","kampung tenondek, Distrik Bolakme, Kabupaten Jayawijaya",PAPUA,99555.0,Indonesia,,,,-3.8509847,138.7731905,https://maps.google.com/?cid=0x0:0xa9fed39da76710fc,
restaurant,restaurant,KIOS GABRIEL,"7JFM+24M, puskesmas, Dogobak, Kelila, Central Mamberamo Regency, Papua","Kabupaten Mamberamo Tengah, Papua",PAPUA,,Indonesia,,,,-3.7274138,138.632803,https://maps.google.com/?cid=0x0:0xa0d37f21949d0ee2,
restaurant,Kafe,Cafe Vanggasgu,"Jl. Tongkol No.2, Argapura, Distrik Jayapura Selatan, Kota Jayapura, Papua","Kota Jayapura, Papua",PAPUA,,Indonesia,,,,-2.5491642,140.7145885,https://maps.google.com/?cid=0x0:0xc3600333b75a0f44,
restaurant,Rumah Makan,RestoCafe Rumah Laut,"Jl. Koti, Numbai, Distrik Jayapura Selatan, Kota Jayapura, Papua 99222","Numbai, Distrik Jayapura Selatan, Kota Jayapura",PAPUA,99222.0,Indonesia,9675160842.0,,,-2.5443152,140.7078561,https://maps.google.com/?cid=0x0:0xa0b850e17d17f09d,
restaurant,Hidangan Laut,B-One Restaurant,"FP45+5CR, Numbai, Distrik Jayapura Selatan, Kota Jayapura, Papua 99222","Numbai, Distrik Jayapura Selatan, Kota Jayapura",PAPUA,99222.0,Indonesia,81344533058.0,,,-2.5445125,140.7085143,https://maps.google.com/?cid=0x0:0xb8053f84d614fc3e,
restaurant,Indonesia,LAPO PORSEA - SCBD,"SCBD PARK, Jl. Jend. Sudirman kav 52-53 No.8B Lot 8, Senayan, Kec. Kby. Baru, Kota Jakarta Selatan, Daerah Khusus Ibukota Jakarta 12190","Jl. Jend. Sudirman kav 52-53 No.8B Lot 8, Senayan, Kec. Kby. Baru, Kota Jakarta Selatan",PAPUA,12190.0,Indonesia,82188886082.0,,,-6.2280413,106.8100248,https://maps.google.com/?cid=0x0:0x66f8511d880e96c0,
restaurant,Hidangan Laut,Pondok Laguna,"Jl. Batu Tulis Raya No.45, RT.3/RW.2, Kb. Klp., Kecamatan Gambir, Kota Jakarta Pusat, Daerah Khusus Ibukota Jakarta 10120","RT.3/RW.2, Kb. Klp., Kecamatan Gambir, Kota Jakarta Pusat",PAPUA,10120.0,Indonesia,213459991.0,,,-6.1627773,106.8252812,https://maps.google.com/?cid=0x0:0x80b5ed3537510e5f,
restaurant,restaurant,Papua 99563,Papua,Papua,PAPUA,,Indonesia,,,,-3.9612229,138.1597946,https://maps.google.com/?cid=0x0:0xb123b70d10849bd1,
restaurant,Restoran,RM Anugerah,"7XMQ+7HH, Pagaleme, Distrik Mulia, Kabupaten Puncak Jaya, Papua 98975","Pagaleme, Distrik Mulia, Kabupaten Puncak Jaya",PAPUA,98975.0,Indonesia,,,,-3.7168224,137.988993,https://maps.google.com/?cid=0x0:0x1b630c37e9b38dcc,
restaurant,,Warung Maleo  Juragan Pinang El Kumis,"73VV+H89, Kalome / Pagargom, Kec. Tingginambut, Kabupaten Puncak Jaya, Papua 99563","Kalome / Pagargom, Kec. Tingginambut, Kabupaten Puncak Jaya",PAPUA,99563.0,Indonesia,,,,-3.7060904,138.0933589,https://maps.google.com/?cid=0x0:0xf4e1e974e9dd6b85,
restaurant,Sate,Warung Biru,"7XPQ+4H8, Pagaleme, Distrik Mulia, Kabupaten Puncak Jaya, Papua 98975","Pagaleme, Distrik Mulia, Kabupaten Puncak Jaya",PAPUA,98975.0,Indonesia,,,,-3.7147206,137.9889552,https://maps.google.com/?cid=0x0:0x2941effa0c8b28f7,
restaurant,Mi,RM Barokah,"8X28+42H, Wuyukwi, Distrik Mulia, Kabupaten Puncak Jaya, Papua 98973","Wuyukwi, Distrik Mulia, Kabupaten Puncak Jaya",PAPUA,98973.0,Indonesia,,,,-3.6996957,137.9651121,https://maps.google.com/?cid=0x0:0xc0f5e27433afe182,
restaurant,Kedai Kopi,Lanny-Net,"75XW+JWM, Desa Wurak, Distrik Ilu, Kabupaten Puncak Jaya, Papua 99563","Desa Wurak, Distrik Ilu, Kabupaten Puncak Jaya",PAPUA,99563.0,Indonesia,81344454411.0,,,-3.7009041,138.197304,https://maps.google.com/?cid=0x0:0x9cd3d493da15ee07,
restaurant,Restoran,Warung Sate Bude Linda,"7XQH+G3F, Pruleme, Distrik Mulia, Kabupaten Puncak Jaya, Papua 98973","Pruleme, Distrik Mulia, Kabupaten Puncak Jaya",PAPUA,98973.0,Indonesia,,,,-3.7111967,137.9776632,https://maps.google.com/?cid=0x0:0x9954cf172f984c56,
restaurant,Padang,R.M MINANG JAYA,"Jl. Mulia gambut, kota lama, Distrik Mulia, Kabupaten Puncak Jaya, Papua 98915","kota lama, Distrik Mulia, Kabupaten Puncak Jaya",PAPUA,98915.0,Indonesia,81346313708.0,,,-3.7000817,137.9667389,https://maps.google.com/?cid=0x0:0x545829f3706e16c6,
restaurant,Padang,RM Puja Selera,"7XPJ+MC5, Unnamed Road, Pruleme, Distrik Mulia, Kabupaten Puncak Jaya, Papua 98973","Unnamed Road, Pruleme, Distrik Mulia, Kabupaten Puncak Jaya",PAPUA,98973.0,Indonesia,,,,-3.7133572,137.9811015,https://maps.google.com/?cid=0x0:0x5c5a8ec894f8337c,
restaurant,Padang,Warung Sari Minang,"7XW8+W4P, Unnamed Road, Wuyukwi, Distrik Mulia, Kabupaten Puncak Jaya, Papua 98973","Unnamed Road, Wuyukwi, Distrik Mulia, Kabupaten Puncak Jaya",PAPUA,98973.0,Indonesia,81340958395.0,,,-3.702675,137.965338,https://maps.google.com/?cid=0x0:0x76df75196d523d86,
restaurant,Mi,Rumah Makan Pakde,"7XX8+243, Wuyukwi, Distrik Mulia, Kabupaten Puncak Jaya, Papua 98973","Wuyukwi, Distrik Mulia, Kabupaten Puncak Jaya",PAPUA,98973.0,Indonesia,,,,-3.7024754,137.9653046,https://maps.google.com/?cid=0x0:0x717d5035d0b44952,
restaurant,Mi,Warung mie ayam solo,"7XRJ+729, Pruleme, Distrik Mulia, Kabupaten Puncak Jaya, Papua 98973","Pruleme, Distrik Mulia, Kabupaten Puncak Jaya",PAPUA,98973.0,Indonesia,,,,-3.709207,137.9801073,https://maps.google.com/?cid=0x0:0xf42c04d8f7191ccb,
restaurant,Restoran,RM Mie Ayam,"7XX8+PF6, Wuyukwi, Distrik Mulia, Kabupaten Puncak Jaya, Papua 98973","Wuyukwi, Distrik Mulia, Kabupaten Puncak Jaya",PAPUA,98973.0,Indonesia,,,,-3.7007117,137.9661327,https://maps.google.com/?cid=0x0:0xd9ccbd54282ff27e,
restaurant,Restoran,Paiton,"7XCM+8CH, Pagaleme, Distrik Mulia, Kabupaten Puncak Jaya, Papua","Kabupaten Puncak Jaya, Papua",PAPUA,,Indonesia,,,,-3.729199,137.983597,https://maps.google.com/?cid=0x0:0xa0579b24dc531450,
restaurant,Rumah Makan,Warung Pecel Bude Suryani,"8X28+243, Jalan, kandep, Distrik Mulia, Kabupaten Puncak Jaya, Papua 98973","Jalan, kandep, Distrik Mulia, Kabupaten Puncak Jaya",PAPUA,98973.0,Indonesia,85259034394.0,,,-3.7003995,137.9655851,https://maps.google.com/?cid=0x0:0xfa5acbc4b86540c2,
restaurant,restaurant,Papua 99567,"Kabupaten Lanny Jaya, Papua","Kabupaten Lanny Jaya, Papua",PAPUA,,Indonesia,,,,-3.8553159,138.4787258,https://maps.google.com/?cid=0x0:0x54dba557046d88de,
restaurant,restaurant,Rumah Makan Karubaga,"8F8H+7C9, Karubaga, Kec. Karubaga, Kabupaten Tolikara, Papua 99567","Karubaga, Kec. Karubaga, Kabupaten Tolikara",PAPUA,99567.0,Indonesia,,,,-3.6843481,138.4786024,https://maps.google.com/?cid=0x0:0x416ee39b0a4f1683,
restaurant,restaurant,Warung Makan Nirwana,"8F8G+RJF, Jalan Kesehatan, Karubaga, Kec. Karubaga, Kabupaten Tolikara, Papua 99567","Jalan Kesehatan, Karubaga, Kec. Karubaga, Kabupaten Tolikara",PAPUA,99567.0,Indonesia,82187842753.0,,,-3.6829339,138.4765406,https://maps.google.com/?cid=0x0:0x5b9ec1e0de1f1950,
restaurant,restaurant,Kec. Balingga,"Kabupaten Lanny Jaya, Papua","Kabupaten Lanny Jaya, Papua",PAPUA,,Indonesia,,,,-4.130659,138.3589086,https://maps.google.com/?cid=0x0:0x59418e32c4fc4580,
cafe,Sekolah Dasar,Kopi Tiom Lanny Mendek,"3FG2+5V, Bokon, Distrik Tiom, Kabupaten Lanny Jaya, Papua","Kabupaten Lanny Jaya, Papua",PAPUA,,Indonesia,,,,-3.9245543,138.4527285,https://maps.google.com/?cid=0x0:0xc5c29a5192f2e091,
cafe,Sekolah Dasar,SD Inpres Tiom,"3CFX+QC2, Unnamed Rd,, Bokon, Distrik Tiom, Kabupaten Lanny Jaya, Papua 99567","Unnamed Rd,, Bokon, Distrik Tiom, Kabupaten Lanny Jaya",PAPUA,99567.0,Indonesia,,,,-3.9256201,138.4485011,https://maps.google.com/?cid=0x0:0xcf0d4f00c89ca0f9,
cafe,Kafe,WARKOP MAS TIO T-M,"Jl. Kekupu No.61, RT.3/RW.2, Cipayung Jaya, Kec. Cipayung, Kota Depok, Jawa Barat 16437","RT.3/RW.2, Cipayung Jaya, Kec. Cipayung, Kota Depok",PAPUA,16437.0,Indonesia,85691288873.0,,,-6.4332852,106.7921538,https://maps.google.com/?cid=0x0:0x27e58e84082df3a2,
cafe,Kedai Kopi,Kedai Mamah Tio,"R3RV+3QV, Jl. Raya Srimahi Bekasi, Sukamaju, Kec. Tambelang, Kabupaten Bekasi, Jawa Barat 17620","Jl. Raya Srimahi Bekasi, Sukamaju, Kec. Tambelang, Kabupaten Bekasi",PAPUA,17620.0,Indonesia,,,,-6.1597536,107.0944273,https://maps.google.com/?cid=0x0:0x3af74231fdeea4ee,
cafe,Dim Sum,MyTen Coffee  Eatery,"Jalan Sektor VII No.2, Bintaro Jaya Xchange Mall LG - 132, CBD Bintaro Jaya Blok O, Pondok Jaya, Pondok Aren, South Tangerang City, Banten 15227","Bintaro Jaya Xchange Mall LG - 132, CBD Bintaro Jaya Blok O, Pondok Jaya, Pondok Aren, South Tangerang City",PAPUA,15227.0,Indonesia,82112341001.0,,,-6.2857935,106.7283331,https://maps.google.com/?cid=0x0:0x8165030d6f0e024b,
cafe,Kafe,Kawisari Cafe  Eatery,"Jl. Kebon Sirih No.77A, RT.1/RW.1, Kb. Sirih, Kec. Menteng, Kota Jakarta Pusat, Daerah Khusus Ibukota Jakarta 10340","RT.1/RW.1, Kb. Sirih, Kec. Menteng, Kota Jakarta Pusat",PAPUA,10340.0,Indonesia,87883195051.0,,,-6.1834199,106.825158,https://maps.google.com/?cid=0x0:0x4beb90a3196d57e5,
cafe,Kedai Kopi,Babah Koffie by Kawisari,"Jl. Kali Besar Barat No.28, RT.7/RW.3, Roa Malaka, Kec. Tambora, Kota Jakarta Barat, Daerah Khusus Ibukota Jakarta 11230","RT.7/RW.3, Roa Malaka, Kec. Tambora, Kota Jakarta Barat",PAPUA,11230.0,Indonesia,8118711248.0,,,-6.1346673,106.8110363,https://maps.google.com/?cid=0x0:0xdcdb6a4b78a3f03c,
cafe,Kedai Kopi,Sinilagi - Food and Coffee,"Ruko Puri Kencana. Jalan Puri Kencana Blok K7/3U, RT.11/RW.7, Kembangan Sel., Kec. Kembangan, Kota Jakarta Barat, Daerah Khusus Ibukota Jakarta 11610","RT.11/RW.7, Kembangan Sel., Kec. Kembangan, Kota Jakarta Barat",PAPUA,11610.0,Indonesia,,,,-6.1907131,106.7477643,https://maps.google.com/?cid=0x0:0x542750392acff889,
cafe,Restoran,Busy Cheese Cafe,"Jl. Melawai 3 3-30, RT.3/RW.1, Melawai, Kec. Kby. Baru, Kota Jakarta Selatan, Daerah Khusus Ibukota Jakarta 12160 Sultan, Jl. Iskandarsyah II No.Raya Lantai LG #W18, RT.JakaRT.3/RW.1, MelawaiKec, Kebayoran Baru, South Jakarta City, Jakarta 12160",Sultan,PAPUA,12160.0,Indonesia,,,,-6.2442922,106.8021217,https://maps.google.com/?cid=0x0:0xb8e910b34570830e,
cafe,Kedai Kopi,NOMAD COFFEE,"Ruko Tabespot BSD, Jl. BSD Raya Pusat Blok G1 No 10, masuk dari pintu samping, Lantai 2  3, Lengkong Kulon, Pagedangan, Tangerang Regency, Banten 15339","Jl. BSD Raya Pusat Blok G1 No 10, masuk dari pintu samping, Lantai 2  3, Lengkong Kulon, Pagedangan, Tangerang Regency",PAPUA,15339.0,Indonesia,81312399983.0,,,-6.2923012,106.6231596,https://maps.google.com/?cid=0x0:0x7c250bfd8eb8e55a,
cafe,Kedai Kopi,Tigre Coffee and Eatery,"Jl. Raya Taman Kopo Indah 2 Ruko 1A No.1, Rahayu, Kec. Margaasih, Kabupaten Bandung, Jawa Barat 40218","Rahayu, Kec. Margaasih, Kabupaten Bandung",PAPUA,40218.0,Indonesia,81910007799.0,,,-6.9579663,107.5613835,https://maps.google.com/?cid=0x0:0x698ac4a231bfe883,
cafe,Toko kopi,Titik Awal Kopitiam Jatinangor (TIWAL),"Jl. Kp. Geulis No.21, Sayang, Kec. Jatinangor, Kabupaten Sumedang, Jawa Barat 45363","Sayang, Kec. Jatinangor, Kabupaten Sumedang",PAPUA,45363.0,Indonesia,85321165927.0,,,-6.9374371,107.7708691,https://maps.google.com/?cid=0x0:0xe2128953f92bf9a2,
cafe,Kafe,cafe tio,"PQ88+5Q, Hutan, Kec. Ketambe, Kabupaten Aceh Tenggara, Aceh","Kabupaten Aceh Tenggara, Aceh",PAPUA,,Indonesia,,,,3.7153998,97.7669876,https://maps.google.com/?cid=0x0:0xc15c711809babd23,
cafe,Indonesia,Batavia Cafe,"PMFX+FX3, Jl. Emerald Boulevard, Parigi, Kec. Pd. Aren, Kota Tangerang Selatan, Banten 15227","Jl. Emerald Boulevard, Parigi, Kec. Pd. Aren, Kota Tangerang Selatan",PAPUA,15227.0,Indonesia,81280810031.0,,,-6.2764093,106.7000564,https://maps.google.com/?cid=0x0:0x704a7fab24efa0c3,
cafe,Restoran,Pit's Corner ( Papua Specialty Coffee ),"Jalan kasuari no.2 Dok V Atas, Mandala, Jayapura Utara, Jayapura City, Papua 99114","Mandala, Jayapura Utara, Jayapura City",PAPUA,99114.0,Indonesia,9675160443.0,,,-2.5310642,140.71875,https://maps.google.com/?cid=0x0:0xf39f3950a3bf5ed2,
cafe,Kedai Kopi,Pace Tan pu Kopitiam,"Jalan Pasifik Permai Blok B no 15, Kompleks Ruko Dok II, Jl. Pacific Permai No.16, Bayangkara, Kec. Jayapura Utara, Kota Jayapura, Papua 99111","Kompleks Ruko Dok II, Jl. Pacific Permai No.16, Bayangkara, Kec. Jayapura Utara, Kota Jayapura",PAPUA,99111.0,Indonesia,81376566794.0,,,-2.5373342,140.7092965,https://maps.google.com/?cid=0x0:0x1f1a43593e97ad0c,
cafe,Kedai Kopi,PILOS CAFE,"FP66+J79, Bayangkara, Kec. Jayapura Utara, Kota Jayapura, Papua","Kota Jayapura, Papua",PAPUA,,Indonesia,85237190567.0,,,-2.538451,140.7107331,https://maps.google.com/?cid=0x0:0x4c87e94ff2a84c0d,
cafe,cafe,,,,PAPUA,,Indonesia,,,,,,https://maps.google.com/?cid=0x0:0xf39f3950a3bf5ed2u0026onu003dPapua+Coffeeu0026midu003d/g/11bxf62kgj,
cafe,cafe,,,,PAPUA,,Indonesia,,,,,,https://maps.google.com/?cid=0x0:0xf39f3950a3bf5ed2u0026onu003dEvening+Coffeeu0026midu003d/g/11bxf62kgj,
cafe,cafe,,,,PAPUA,,Indonesia,,,,,,https://maps.google.com/?cid=0x0:0xf39f3950a3bf5ed2u0026onu003dBiji+Kopiu0026midu003d/g/11bxf62kgj,
cafe,cafe,,,,PAPUA,,Indonesia,,,,,,https://maps.google.com/?cid=0x0:0xf39f3950a3bf5ed2u0026onu003dKopi+Wamenau0026midu003d/g/11bxf62kgj,
cafe,cafe,,,,PAPUA,,Indonesia,,,,,,https://maps.google.com/?cid=0x0:0xf39f3950a3bf5ed2u0026onu003dIce+Cappuccinou0026midu003d/g/11bxf62kgj,
cafe,cafe,,,,PAPUA,,Indonesia,,,,,,https://maps.google.com/?cid=0x0:0xf39f3950a3bf5ed2u0026onu003dHot+Cafe+Latteu0026midu003d/g/11bxf62kgj,
cafe,cafe,,,,PAPUA,,Indonesia,,,,,,https://maps.google.com/?cid=0x0:0xf39f3950a3bf5ed2u0026onu003dMocacinou0026midu003d/g/11bxf62kgj,
cafe,cafe,,,,PAPUA,,Indonesia,,,,,,https://maps.google.com/?cid=0x0:0xf39f3950a3bf5ed2u0026onu003dNasi+Goreng+Biasau0026midu003d/g/11bxf62kgj,
cafe,cafe,,,,PAPUA,,Indonesia,,,,,,https://maps.google.com/?cid=0x0:0xf39f3950a3bf5ed2u0026onu003dPisang+Goreng+Pits+Corneru0026midu003d/g/11bxf62kgj,
cafe,cafe,,,,PAPUA,,Indonesia,,,,,,https://maps.google.com/?cid=0x0:0xf39f3950a3bf5ed2u0026onu003dTeriyaki+Rice+Bowlu0026midu003d/g/11bxf62kgj,
cafe,cafe,,,,PAPUA,,Indonesia,,,,,,https://maps.google.com/?cid=0x0:0xf39f3950a3bf5ed2u0026onu003dInfuse+Wateru0026midu003d/g/11bxf62kgj,
cafe,cafe,,,,PAPUA,,Indonesia,,,,,,https://maps.google.com/?cid=0x0:0xf39f3950a3bf5ed2u0026onu003dCinnamon+Cream+Cake+with+a+Cup+of+Espressou0026midu003d/g/11bxf62kgj,
cafe,cafe,,,,PAPUA,,Indonesia,,,,,,https://maps.google.com/?cid=0x0:0xf39f3950a3bf5ed2u0026onu003dBBQ+Chicken+Steaku0026midu003d/g/11bxf62kgj,
cafe,cafe,,,,PAPUA,,Indonesia,,,,,,https://maps.google.com/?cid=0x0:0xf39f3950a3bf5ed2u0026onu003dKerang+Asam+Manisu0026midu003d/g/11bxf62kgj,
cafe,cafe,,,,PAPUA,,Indonesia,,,,,,https://maps.google.com/?cid=0x0:0xf39f3950a3bf5ed2u0026onu003dWamena+Black+Coffee+of+the+Dayu0026midu003d/g/11bxf62kgj,
cafe,cafe,,,,PAPUA,,Indonesia,,,,,,https://maps.google.com/?cid=0x0:0xf39f3950a3bf5ed2u0026onu003dTuna+Grillu0026midu003d/g/11bxf62kgj,
cafe,cafe,,,,PAPUA,,Indonesia,,,,,,https://maps.google.com/?cid=0x0:0xf39f3950a3bf5ed2u0026onu003dUbi+Gorengu0026midu003d/g/11bxf62kgj,
cafe,cafe,,,,PAPUA,,Indonesia,,,,,,https://maps.google.com/?cid=0x0:0xf39f3950a3bf5ed2u0026onu003dPapua+Coffee+of+the+Dayu0026midu003d/g/11bxf62kgj,
cafe,cafe,,,,PAPUA,,Indonesia,,,,,,https://maps.google.com/?cid=0x0:0xf39f3950a3bf5ed2u0026onu003dv60+Papua+Coffeeu0026midu003d/g/11bxf62kgj,
cafe,Mesin Sangrai Kopi,Alenia Papua Coffee  Kitchen,"Jl. Kemang Raya No.66 B 8, RT.8/RW.2, Bangka, Kec. Mampang Prpt., Kota Jakarta Selatan, Daerah Khusus Ibukota Jakarta 12730","RT.8/RW.2, Bangka, Kec. Mampang Prpt., Kota Jakarta Selatan",PAPUA,12730.0,Indonesia,2171790141.0,,,-6.2638119,106.8158777,https://maps.google.com/?cid=0x0:0xe49807fcfab68b48,
cafe,Kafe,MOREAU Chocolatier's Cafe,"13, Jl. Kemang Raya No.31, RT.13/RW.1, Bangka, Kec. Mampang Prpt., Kota Jakarta Selatan, Daerah Khusus Ibukota Jakarta 12720","Jl. Kemang Raya No.31, RT.13/RW.1, Bangka, Kec. Mampang Prpt., Kota Jakarta Selatan",PAPUA,12720.0,Indonesia,217193638.0,,,-6.2552526,106.8141637,https://maps.google.com/?cid=0x0:0xb459c23350c846ac,
cafe,Kedai Kopi,Prime Coffee,"RWRJ+8C6, RT.1/RW.4, Sukapura, Kec. Cilincing, Jkt Utara, Daerah Khusus Ibukota Jakarta 13910","RT.1/RW.4, Sukapura, Kec. Cilincing, Jkt Utara",PAPUA,13910.0,Indonesia,85282695901.0,,,-6.1591662,106.9310229,https://maps.google.com/?cid=0x0:0x22d567d9b95443f8,
cafe,Restoran atau Kafe,PRIME TIME Food  Drink,"MRVC+R5M, Terminal, Jl. Harsono Rm Dalam, RT.2/RW.4, Ragunan, Ps. Minggu, Kota Jakarta Selatan, Daerah Khusus Ibukota Jakarta 12550","Terminal, Jl. Harsono Rm Dalam, RT.2/RW.4, Ragunan, Ps. Minggu, Kota Jakarta Selatan",PAPUA,12550.0,Indonesia,87770903185.0,,,-6.3054203,106.8204299,https://maps.google.com/?cid=0x0:0xb31b86f0aee81f4d,
cafe,Restoran,Pison Coffee Jakarta,"Jl. Kertanegara Jl. Senopati No.70, Rw. Bar., Kec. Kby. Baru, Kota Jakarta Selatan, Daerah Khusus Ibukota Jakarta 12160","Rw. Bar., Kec. Kby. Baru, Kota Jakarta Selatan",PAPUA,12160.0,Indonesia,2127081698.0,,,-6.2336553,106.8118554,https://maps.google.com/?cid=0x0:0xa7f64e78df23723a,
cafe,cafe,Papua 99555,"Kabupaten Jayawijaya, Papua","Kabupaten Jayawijaya, Papua",PAPUA,,Indonesia,,,,-3.9034136,138.7593128,https://maps.google.com/?cid=0x0:0xed60d8d8dddb4cef,
cafe,cafe,Papua,,Papua,PAPUA,,Indonesia,,,,-4.269928,138.0803529,https://maps.google.com/?cid=0x0:0xeba94e9c5eefe673,
cafe,Kafe,PUA-PUA CAFE,"Jl. Budi Utomo, Nawaripi, Kec. Mimika Baru, Kabupaten Mimika, Papua 99952","Nawaripi, Kec. Mimika Baru, Kabupaten Mimika",PAPUA,99952.0,Indonesia,82346750560.0,,,-4.5620805,136.8806057,https://maps.google.com/?cid=0x0:0xb7cc07f877baacb2,
cafe,Kafe,An Meke Coffee Roastery  Art Studio,"Wamena Kota, Distrik Wamena, Kabupaten Jayawijaya, Papua 99511","Distrik Wamena, Kabupaten Jayawijaya",PAPUA,99511.0,Indonesia,8114801176.0,,,-4.0914319,138.9426856,https://maps.google.com/?cid=0x0:0x8e8e117d96ce0b2f,
cafe,Kafe,Chique Cafe Biak,"Ruko Mandiri, Jl. Raya Bosnik, Karang Mulia, Biak, Biak Numfor Regency, Papua 98111","Jl. Raya Bosnik, Karang Mulia, Biak, Biak Numfor Regency",PAPUA,98111.0,Indonesia,,,,-1.1777377,136.0924942,https://maps.google.com/?cid=0x0:0xc3f4a9b7627e5188,
cafe,Kafe,Cafe And Resto Andalan,"4FHM+W4H, Massi, Kec. Dekai, Kabupaten Yahukimo, Papua","Kabupaten Yahukimo, Papua",PAPUA,,Indonesia,,,,-4.8701969,139.4828478,https://maps.google.com/?cid=0x0:0xd86932eb5eb3bdad,
cafe,Kedai Kopi,Markas ngopi Mak'E,"R3CV+3XC, Jl. Suci, Mandala, Kec. Biak Kota, Kabupaten Biak Numfor, Papua 98111","Jl. Suci, Mandala, Kec. Biak Kota, Kabupaten Biak Numfor",PAPUA,98111.0,Indonesia,,,,-1.1798108,136.0948868,https://maps.google.com/?cid=0x0:0xefc32580c07de596,
cafe,Rumah Makan,Warung ma'kia,"Dekat kios meysha, Belakang pasar Youtefa, Kota Jayapura, Papua 99351","Belakang pasar Youtefa, Kota Jayapura",PAPUA,99351.0,Indonesia,85345608489.0,,,-2.6088259,140.6824683,https://maps.google.com/?cid=0x0:0x1d3f9fc0181c0983,
cafe,cafe,Cafe Nongki,"R3HQ+M75, Samofa, Kec. Samofa, Kabupaten Biak Numfor, Papua 98111","Samofa, Kec. Samofa, Kabupaten Biak Numfor",PAPUA,98111.0,Indonesia,,,,-1.1708549,136.0882244,https://maps.google.com/?cid=0x0:0xd6fb6f4f8bc42468,
cafe,cafe,Rumah Makan Maknyos,"F6X3+WH8, Agham, Kec. Mambioman Bapai, Kabupaten Mappi, Papua 99871","Agham, Kec. Mambioman Bapai, Kabupaten Mappi",PAPUA,99871.0,Indonesia,,,,-6.5002049,139.2039576,https://maps.google.com/?cid=0x0:0x19f3706ae9591306,
cafe,Kafe,MAKI's Cafe,"MM4R+M32, Jl. Raya Puspitek, Buaran, Kec. Serpong, Kota Tangerang Selatan, Banten 15310","Jl. Raya Puspitek, Buaran, Kec. Serpong, Kota Tangerang Selatan",PAPUA,15310.0,Indonesia,,,,-6.3433714,106.6901378,https://maps.google.com/?cid=0x0:0x34987d707f62c365,
cafe,Kafe,Cafe mak kita,"3, Jl. Al-Mustaqim No.43, RT.3/RW.4, Mampang Prpt., Kec. Mampang Prpt., Kota Jakarta Selatan, Daerah Khusus Ibukota Jakarta 12790","Jl. Al-Mustaqim No.43, RT.3/RW.4, Mampang Prpt., Kec. Mampang Prpt., Kota Jakarta Selatan",PAPUA,12790.0,Indonesia,,,,-6.2419364,106.8315164,https://maps.google.com/?cid=0x0:0xe02e16253ac1b285,
cafe,Pastri,Makashiya Cafe and Kitchen,"RVQ3+93J, Jl. Casa, RT.13/RW.6, Kb. Kosong, Kec. Kemayoran, Kota Jakarta Pusat, Daerah Khusus Ibukota Jakarta 10630","Jl. Casa, RT.13/RW.6, Kb. Kosong, Kec. Kemayoran, Kota Jakarta Pusat",PAPUA,10630.0,Indonesia,81400670469.0,,,-6.1615409,106.8526545,https://maps.google.com/?cid=0x0:0xe037a3909b1ea2d1,
cafe,cafe,Maki Cafe (Cafe Muke Gile),"JR7C+4Q5, Jl. Turi 4, RT.4/RW.010, Beji Tim., Kecamatan Beji, Kota Depok, Jawa Barat 16423","Jl. Turi 4, RT.4/RW.010, Beji Tim., Kecamatan Beji, Kota Depok",PAPUA,16423.0,Indonesia,,,,-6.3872494,106.8219835,https://maps.google.com/?cid=0x0:0xd7d723247f3bf150,
cafe,cafe,Papua 99556,Papua,Papua,PAPUA,,Indonesia,,,,-3.7561908,138.6589406,https://maps.google.com/?cid=0x0:0x5a2842ee64e9fe01,
cafe,Kedai Kopi,Bukanagara Coffee  Roastery,"Ashta District 8 UG-30, SCBD Lot 28, RT.5/RW.3, Senayan, Jakarta, Kota Jakarta Selatan, Daerah Khusus Ibukota Jakarta 12190","SCBD Lot 28, RT.5/RW.3, Senayan, Jakarta, Kota Jakarta Selatan",PAPUA,12190.0,Indonesia,81572891416.0,,,-6.2293228,106.8067656,https://maps.google.com/?cid=0x0:0xaff0197dc2ff065f,
cafe,Kedai Kopi,Bukanagara Coffee  Roastery,"Graha CIMB Niaga, Jl. Jenderal Sudirman, RT.5/RW.3, Senayan, Kec. Kby. Baru, Kota Jakarta Selatan, Daerah Khusus Ibukota Jakarta 12190","Jl. Jenderal Sudirman, RT.5/RW.3, Senayan, Kec. Kby. Baru, Kota Jakarta Selatan",PAPUA,12190.0,Indonesia,81286849288.0,,,-6.225645,106.8061012,https://maps.google.com/?cid=0x0:0x3d951c94b8be13e0,
cafe,Kafe,Waanal Coffee And Resto,"Jl. Cendrawasih, Karang Senang, Kec. Kuala Kencana, Kabupaten Mimika, Papua 99910","Karang Senang, Kec. Kuala Kencana, Kabupaten Mimika",PAPUA,99910.0,Indonesia,81248677897.0,,,-4.4916566,136.8474106,https://maps.google.com/?cid=0x0:0xe6f6936c8a14d771,
cafe,Kedai Kopi,Sinilagi - Food and Coffee,"Ruko Puri Kencana. Jalan Puri Kencana Blok K7/3U, RT.11/RW.7, Kembangan Sel., Kec. Kembangan, Kota Jakarta Barat, Daerah Khusus Ibukota Jakarta 11610","RT.11/RW.7, Kembangan Sel., Kec. Kembangan, Kota Jakarta Barat",PAPUA,11610.0,Indonesia,,,,-6.1907131,106.7477643,https://maps.google.com/?cid=0x0:0x542750392acff889,
cafe,Kedai Kopi,Cafe Brata Mangi PNG,"Jl. Soa Siu, Mandala, Kec. Jayapura Utara, Kota Jayapura, Papua","Kota Jayapura, Papua",PAPUA,,Indonesia,82396138782.0,,,-2.5350311,140.717898,https://maps.google.com/?cid=0x0:0xf716be1fee265f,
cafe,cafe,winius wenda,"8GCX+5FQ winom weya distrik, Weyambi, Geya, Kabupaten Tolikara, Papua 99556","Weyambi, Geya, Kabupaten Tolikara",PAPUA,99556.0,Indonesia,82134810273.0,,,-3.6795336,138.5487397,https://maps.google.com/?cid=0x0:0x23163e707735d742,
cafe,Kantor Pemerintah,Gunarimo,"jln naik logot paga, Jln kimbim Jl. Pyramid, Asologaima, Muliama, Kabupaten Jayawijaya, Papua","Kabupaten Jayawijaya, Papua",PAPUA,,Indonesia,,,,-3.9327433,138.78402,https://maps.google.com/?cid=0x0:0xbea97391cecc3ae8,
cafe,cafe,KIOS GABRIEL,"7JFM+24M, puskesmas, Dogobak, Kelila, Central Mamberamo Regency, Papua","Kabupaten Mamberamo Tengah, Papua",PAPUA,,Indonesia,,,,-3.7274138,138.632803,https://maps.google.com/?cid=0x0:0xa0d37f21949d0ee2,
cafe,cafe,Bolakme bolevard river,"4R77+37V, Yelengga, Distrik Yalengga, Kabupaten Jayawijaya, Papua 99555","Yelengga, Distrik Yalengga, Kabupaten Jayawijaya",PAPUA,99555.0,Indonesia,,,,-3.8872749,138.8131692,https://maps.google.com/?cid=0x0:0x745061c094a4e5ab,
cafe,cafe,Kampung Tenondek Distrik koragi,"4QXF+J74, kampung tenondek, Distrik Bolakme, Kabupaten Jayawijaya, Papua 99555","kampung tenondek, Distrik Bolakme, Kabupaten Jayawijaya",PAPUA,99555.0,Indonesia,,,,-3.8509847,138.7731905,https://maps.google.com/?cid=0x0:0xa9fed39da76710fc,
cafe,Kedai Kopi,Nagara Coffee,"Ashta District 8, GF-I-01, Jl. Scbd Lot 28, RT.5/RW.3, Senayan, Kec. Kby. Baru, Kota Jakarta Selatan, Daerah Khusus Ibukota Jakarta 12190","GF-I-01, Jl. Scbd Lot 28, RT.5/RW.3, Senayan, Kec. Kby. Baru, Kota Jakarta Selatan",PAPUA,12190.0,Indonesia,81572891755.0,,,-6.228267,106.8066303,https://maps.google.com/?cid=0x0:0x4713b153c1966f48,
cafe,Kedai Kopi,Buzz Coffee SCBD,"Jl. Tulodong Atas No.14, RT.6/RW.3, Senayan, Kec. Kby. Baru, Kota Jakarta Selatan, Daerah Khusus Ibukota Jakarta 12190","RT.6/RW.3, Senayan, Kec. Kby. Baru, Kota Jakarta Selatan",PAPUA,12190.0,Indonesia,81228888816.0,,,-6.2305446,106.8088699,https://maps.google.com/?cid=0x0:0xe74a9ccf3761decb,
cafe,Kedai Kopi,Buka Mata Coffee Shop,"Jl. Pintu Satu Senayan, RT.1/RW.3, Gelora, Kecamatan Tanah Abang, Kota Jakarta Pusat, Daerah Khusus Ibukota Jakarta 10270","RT.1/RW.3, Gelora, Kecamatan Tanah Abang, Kota Jakarta Pusat",PAPUA,10270.0,Indonesia,81280199000.0,,,-6.2232038,106.8028798,https://maps.google.com/?cid=0x0:0x596a404a83f807a9,
cafe,cafe,,,,PAPUA,,Indonesia,,,,,,https://maps.google.com/?cid=0x0:0xaff0197dc2ff065fu0026onu003dHot+Cappuccinou0026midu003d/g/11qn96r9hx,
cafe,cafe,,,,PAPUA,,Indonesia,,,,,,https://maps.google.com/?cid=0x0:0xaff0197dc2ff065fu0026onu003dLatte+and+Soft+Cookiesu0026midu003d/g/11qn96r9hx,
cafe,cafe,,,,PAPUA,,Indonesia,,,,,,https://maps.google.com/?cid=0x0:0xaff0197dc2ff065fu0026onu003dCaffe+Latteu0026midu003d/g/11qn96r9hx,
cafe,cafe,,,,PAPUA,,Indonesia,,,,,,https://maps.google.com/?cid=0x0:0xaff0197dc2ff065fu0026onu003dCold+Brew+Coffee+Jellyu0026midu003d/g/11qn96r9hx,
cafe,cafe,,,,PAPUA,,Indonesia,,,,,,https://maps.google.com/?cid=0x0:0xaff0197dc2ff065fu0026onu003dEspressou0026midu003d/g/11qn96r9hx,
cafe,cafe,,,,PAPUA,,Indonesia,,,,,,https://maps.google.com/?cid=0x0:0xaff0197dc2ff065fu0026onu003dIced+Cappuccinou0026midu003d/g/11qn96r9hx,
cafe,cafe,,,,PAPUA,,Indonesia,,,,,,https://maps.google.com/?cid=0x0:0xaff0197dc2ff065fu0026onu003dMatcha+Latteu0026midu003d/g/11qn96r9hx,
cafe,cafe,,,,PAPUA,,Indonesia,,,,,,https://maps.google.com/?cid=0x0:0xaff0197dc2ff065fu0026onu003dHot+Coffee+v60u0026midu003d/g/11qn96r9hx,
cafe,cafe,,,,PAPUA,,Indonesia,,,,,,https://maps.google.com/?cid=0x0:0xaff0197dc2ff065fu0026onu003dIce+Americano+Coffeeu0026midu003d/g/11qn96r9hx,
cafe,cafe,,,,PAPUA,,Indonesia,,,,,,https://maps.google.com/?cid=0x0:0xaff0197dc2ff065fu0026onu003dAfogatou0026midu003d/g/11qn96r9hx,
cafe,cafe,,,,PAPUA,,Indonesia,,,,,,https://maps.google.com/?cid=0x0:0xaff0197dc2ff065fu0026onu003dGalbi+Chickenu0026midu003d/g/11qn96r9hx,
cafe,cafe,,,,PAPUA,,Indonesia,,,,,,https://maps.google.com/?cid=0x0:0xaff0197dc2ff065fu0026onu003dIce+Caff%C3%A8+Latte+Ice+Teau0026midu003d/g/11qn96r9hx,
cafe,cafe,,,,PAPUA,,Indonesia,,,,,,https://maps.google.com/?cid=0x0:0xaff0197dc2ff065fu0026onu003dEs+Kopi+Susu+Nagarau0026midu003d/g/11qn96r9hx,
cafe,cafe,,,,PAPUA,,Indonesia,,,,,,https://maps.google.com/?cid=0x0:0xaff0197dc2ff065fu0026onu003dHot+Chocolateu0026midu003d/g/11qn96r9hx,
cafe,cafe,,,,PAPUA,,Indonesia,,,,,,https://maps.google.com/?cid=0x0:0xaff0197dc2ff065fu0026onu003dIced+Latteu0026midu003d/g/11qn96r9hx,
cafe,cafe,Distrik Dimba,"Kabupaten Lanny Jaya, Papua","Kabupaten Lanny Jaya, Papua",PAPUA,,Indonesia,,,,-3.8454051,138.5426379,https://maps.google.com/?cid=0x0:0x36c26bec90d3b953,
cafe,Restoran,Pit's Corner ( Papua Specialty Coffee ),"Jalan kasuari no.2 Dok V Atas, Mandala, Jayapura Utara, Jayapura City, Papua 99114","Mandala, Jayapura Utara, Jayapura City",PAPUA,99114.0,Indonesia,9675160443.0,,,-2.5310642,140.71875,https://maps.google.com/?cid=0x0:0xf39f3950a3bf5ed2,
cafe,Restoran,Yasbeer Cafe dan resto,"Engros, Kec. Abepura, Kota Jayapura, Papua","Kota Jayapura, Papua",PAPUA,,Indonesia,81248941111.0,,,-2.6005334,140.7153915,https://maps.google.com/?cid=0x0:0x34cbd734e60fa36b,
cafe,Ikan Bakar,D'Jimbaran Papua,"9PX8+3VF, Engros, Kec. Abepura, Kota Jayapura, Papua","Kota Jayapura, Papua",PAPUA,,Indonesia,,,,-2.6020736,140.7168784,https://maps.google.com/?cid=0x0:0xb6125c5e0138c416,
cafe,Toko bahan makanan,Ibiza Coffee Shop,"Holtekamp Bridge, Tobati, Distrik Jayapura Selatan, Kota Jayapura, Papua","Kota Jayapura, Papua",PAPUA,,Indonesia,,,,-2.5912293,140.7138469,https://maps.google.com/?cid=0x0:0xff0cb137c224cdf4,
cafe,cafe,VENCO.ID (Venue Coffee),"Holtekam, Jl. Tobati-Holtekamp, Kota Jayapura, Papua","Kota Jayapura, Papua",PAPUA,,Indonesia,,,,-2.6083207,140.7207442,https://maps.google.com/?cid=0x0:0xc2f42675b1ffa716,
cafe,Kafe,D' IFA 88 CAFE,"Arso 2 kampung yuanain jln maleo2, Kabupaten Keerom, Papua 99368",Kabupaten Keerom,PAPUA,99368.0,Indonesia,82349588121.0,,,-2.8997741,140.7587958,https://maps.google.com/?cid=0x0:0xf31b4f7f22191f5e,
cafe,Kafe,Kopu Kopi CafÃ© (Coffee  Eatery),"Jl. Raya Abepura, Wahno, Kec. Abepura, Kota Jayapura, Papua 99224","Wahno, Kec. Abepura, Kota Jayapura",PAPUA,99224.0,Indonesia,81263800182.0,,,-2.5972248,140.6796506,https://maps.google.com/?cid=0x0:0x55eedda55f616417,
cafe,Kedai Kopi,Maja Coffee Spot,"Jl. Ardipura Raya No.7, Polimak, Genjer, Kota Jayapura, Papua 99223","Polimak, Genjer, Kota Jayapura",PAPUA,99223.0,Indonesia,,,,-2.5512799,140.7021103,https://maps.google.com/?cid=0x0:0x9fbbf1e08715a5d3,
cafe,Kedai Kopi,Kedai Limoenn,"Mandouw Dalam, Kontrakan samping kuburan sebelum tanjakan ke arah perumahan hadi, Kec. Samofa, Kabupaten Biak Numfor, Papua 98111","Kontrakan samping kuburan sebelum tanjakan ke arah perumahan hadi, Kec. Samofa, Kabupaten Biak Numfor",PAPUA,98111.0,Indonesia,82199095235.0,,,-1.1568059,136.091927,https://maps.google.com/?cid=0x0:0xbc5b6bba4513baf4,
cafe,Sekolah Dasar,Kopi Tiom Lanny Mendek,"3FG2+5V, Bokon, Distrik Tiom, Kabupaten Lanny Jaya, Papua","Kabupaten Lanny Jaya, Papua",PAPUA,,Indonesia,,,,-3.9245543,138.4527285,https://maps.google.com/?cid=0x0:0xc5c29a5192f2e091,
cafe,Kafe,cafe bakau holtekam kota jayapura,"9PRF+58, Nafri, Kec. Abepura, Kota Jayapura, Papua","Kota Jayapura, Papua",PAPUA,,Indonesia,8124022007.0,,,-2.6095335,140.7232587,https://maps.google.com/?cid=0x0:0x440c4543fd3a011e,
cafe,cafe,Papua,,Papua,PAPUA,,Indonesia,,,,-4.269928,138.0803529,https://maps.google.com/?cid=0x0:0xeba94e9c5eefe673,
cafe,Kedai Kopi,Kopi Diam,"Jl. Raya Pulo Mangga, Grogol, Kec. Limo, Kota Depok, Jawa Barat","Kota Depok, Jawa Barat",PAPUA,,Indonesia,85238614450.0,,,-6.3771658,106.784808,https://maps.google.com/?cid=0x0:0xae5ba130fef50037,
cafe,Kedai Kopi,Diatap Coffee  Eatery,"8, Jl. Curug Raya No.24, RT.008/RW.R.002, Jaticempaka, Kec. Pd. Gede, Kota Bks, Jawa Barat 17416","Jl. Curug Raya No.24, RT.008/RW.R.002, Jaticempaka, Kec. Pd. Gede, Kota Bks",PAPUA,17416.0,Indonesia,81213327081.0,,,-6.2565357,106.9253107,https://maps.google.com/?cid=0x0:0x98bef9fb664bcdb8,
cafe,Kedai Kopi,DIM'S Coffee and Eatery,"Jl. Panji Asmara No.A1, Kekalik Jaya, Kec. Sekarbela, Kota Mataram, Nusa Tenggara Bar. 83115","Kekalik Jaya, Kec. Sekarbela, Kota Mataram",PAPUA,83115.0,Indonesia,,,,-8.594669,116.0876302,https://maps.google.com/?cid=0x0:0x4ef635cd110cca,
cafe,Kafe,Dimitree Cafe,"Jl. Pangrango No.5, RT.04/RW.04, Babakan, Kecamatan Bogor Tengah, Kota Bogor, Jawa Barat 16128","RT.04/RW.04, Babakan, Kecamatan Bogor Tengah, Kota Bogor",PAPUA,16128.0,Indonesia,82126463393.0,,,-6.5895609,106.802522,https://maps.google.com/?cid=0x0:0x5e3333deaba3109f,
cafe,Rumah wisata,Ilir Padi Resto,"Jl. Babakan Bunga No.4, Tugu Utara, Kec. Cisarua, Jawa, Barat, Kabupaten Bogor, Jawa Barat 16750","Tugu Utara, Kec. Cisarua, Jawa, Barat, Kabupaten Bogor",PAPUA,16750.0,Indonesia,81117701977.0,,,-6.6824744,106.9480783,https://maps.google.com/?cid=0x0:0x8c520a66aee9e003,
cafe,Kafe,Dimitree Cafe Sentul City,"Jl. Siliwangi No.1, Sumur Batu, Kec. Babakan Madang, Kabupaten Bogor, Jawa Barat 16810","Sumur Batu, Kec. Babakan Madang, Kabupaten Bogor",PAPUA,16810.0,Indonesia,895333269003.0,,,-6.5839175,106.8810507,https://maps.google.com/?cid=0x0:0xef97c17588ce59d,
cafe,Kedai Kopi,Domo.id Coffee and Resto,"Jl. Mayor S.L. Tobing, Tugujaya, Kec. Cihideung, Kab. Tasikmalaya, Jawa Barat 46126","Tugujaya, Kec. Cihideung, Kab. Tasikmalaya",PAPUA,46126.0,Indonesia,81908192090.0,,,-7.3483123,108.2103954,https://maps.google.com/?cid=0x0:0x2e84527a2ba7d216,
cafe,Kedai Kopi,Dimitree Coffee Eatery,"Menteng, Kec. Bogor Bar., Kota Bogor, Jawa Barat","Kota Bogor, Jawa Barat",PAPUA,,Indonesia,,,,-6.5893481,106.78714,https://maps.google.com/?cid=0x0:0xc42d4efe827f88eb,
cafe,cafe,Papua 99563,Papua,Papua,PAPUA,,Indonesia,,,,-3.9612229,138.1597946,https://maps.google.com/?cid=0x0:0xb123b70d10849bd1,
cafe,Kafe,Namamia Coffee  Eatery,"49, Jl. Raya Pos Pengumben No.49, RT.7/RW.6, Sukabumi Sel., Kec. Kb. Jeruk, Kota Jakarta Barat, Daerah Khusus Ibukota Jakarta 11560","Jl. Raya Pos Pengumben No.49, RT.7/RW.6, Sukabumi Sel., Kec. Kb. Jeruk, Kota Jakarta Barat",PAPUA,11560.0,Indonesia,81389996490.0,,,-6.2168363,106.769162,https://maps.google.com/?cid=0x0:0x16510b5bcd29ff4,
cafe,Mesin Sangrai Kopi,Alenia Papua Coffee  Kitchen,"Jl. Kemang Raya No.66 B 8, RT.8/RW.2, Bangka, Kec. Mampang Prpt., Kota Jakarta Selatan, Daerah Khusus Ibukota Jakarta 12730","RT.8/RW.2, Bangka, Kec. Mampang Prpt., Kota Jakarta Selatan",PAPUA,12730.0,Indonesia,2171790141.0,,,-6.2638119,106.8158777,https://maps.google.com/?cid=0x0:0xe49807fcfab68b48,
cafe,cafe,Cafe Manise,"8CVJ+463, Asiki, Kec. Jair, Kabupaten Boven Digoel, Papua 99661","Asiki, Kec. Jair, Kabupaten Boven Digoel",PAPUA,99661.0,Indonesia,,,,-6.6572441,140.4305436,https://maps.google.com/?cid=0x0:0x4734b6fd56196e42,
cafe,Sunda,MÃ¡laga Resto,"M Building, Jl. Siliwangi Dalam No.1 Floor 1, Lb. Siliwangi, Kecamatan Coblong, Kota Bandung, Jawa Barat 40132","Jl. Siliwangi Dalam No.1 Floor 1, Lb. Siliwangi, Kecamatan Coblong, Kota Bandung",PAPUA,40132.0,Indonesia,82315443221.0,,,-6.8852669,107.6127399,https://maps.google.com/?cid=0x0:0xbc11ab76a90ed0f9,
cafe,Sunda,Kapulaga Indonesian Bistro,"Jl. Dayang Sumbi No.3, Lb. Siliwangi, Kecamatan Coblong, Kota Bandung, Jawa Barat 40132","Lb. Siliwangi, Kecamatan Coblong, Kota Bandung",PAPUA,40132.0,Indonesia,222506195.0,,,-6.8877778,107.6125,https://maps.google.com/?cid=0x0:0x321ef04e7de49f88,
cafe,Nasi,Resto ma'ning,"Jl. Malabar No.46, Malabar, Kec. Lengkong, Kota Bandung, Jawa Barat 40262","Malabar, Kec. Lengkong, Kota Bandung",PAPUA,40262.0,Indonesia,8888180631.0,,,-6.9228671,107.6243543,https://maps.google.com/?cid=0x0:0x3039fc99b8d3dd77,
cafe,cafe,,,,PAPUA,,Indonesia,,,,,,https://maps.google.com/?cid=0x0:0xbc11ab76a90ed0f9u0026onu003dFish+Rollu0026midu003d/g/11vs_mlx1h,
cafe,Dapur Umum,Dalaraos,"Jl. Siliwangi No.43, Cipaganti, Kecamatan Coblong, Kota Bandung, Jawa Barat 40131","Cipaganti, Kecamatan Coblong, Kota Bandung",PAPUA,40131.0,Indonesia,8112214343.0,,,-6.8845234,107.6062175,https://maps.google.com/?cid=0x0:0xd3b1c924f05aa346,
cafe,cafe,,,,PAPUA,,Indonesia,,,,,,https://maps.google.com/?cid=0x0:0xbc11ab76a90ed0f9u0026onu003dPollo+Rollu0026midu003d/g/11vs_mlx1h,
cafe,cafe,,,,PAPUA,,Indonesia,,,,,,https://maps.google.com/?cid=0x0:0xbc11ab76a90ed0f9u0026onu003dParis+Brestu0026midu003d/g/11vs_mlx1h,
cafe,cafe,,,,PAPUA,,Indonesia,,,,,,https://maps.google.com/?cid=0x0:0xbc11ab76a90ed0f9u0026onu003dPrawn+Gambasu0026midu003d/g/11vs_mlx1h,
cafe,cafe,,,,PAPUA,,Indonesia,,,,,,https://maps.google.com/?cid=0x0:0xbc11ab76a90ed0f9u0026onu003dShimeji+Soupu0026midu003d/g/11vs_mlx1h,
cafe,cafe,,,,PAPUA,,Indonesia,,,,,,https://maps.google.com/?cid=0x0:0xbc11ab76a90ed0f9u0026onu003dCheesecakeu0026midu003d/g/11vs_mlx1h,
cafe,cafe,,,,PAPUA,,Indonesia,,,,,,https://maps.google.com/?cid=0x0:0xbc11ab76a90ed0f9u0026onu003dChouxu0026midu003d/g/11vs_mlx1h,
cafe,cafe,,,,PAPUA,,Indonesia,,,,,,https://maps.google.com/?cid=0x0:0xbc11ab76a90ed0f9u0026onu003dKani+Saladu0026midu003d/g/11vs_mlx1h,
cafe,cafe,,,,PAPUA,,Indonesia,,,,,,https://maps.google.com/?cid=0x0:0xbc11ab76a90ed0f9u0026onu003dTanau+Roasted+Caulifloweru0026midu003d/g/11vs_mlx1h,
cafe,cafe,,,,PAPUA,,Indonesia,,,,,,https://maps.google.com/?cid=0x0:0xbc11ab76a90ed0f9u0026onu003dAllitas+De+Polio+Chickenu0026midu003d/g/11vs_mlx1h,
cafe,cafe,,,,PAPUA,,Indonesia,,,,,,https://maps.google.com/?cid=0x0:0xbc11ab76a90ed0f9u0026onu003dRed+Pepper+Polou0026midu003d/g/11vs_mlx1h,
cafe,cafe,,,,PAPUA,,Indonesia,,,,,,https://maps.google.com/?cid=0x0:0xbc11ab76a90ed0f9u0026onu003dPeaky+Peachu0026midu003d/g/11vs_mlx1h,
cafe,cafe,,,,PAPUA,,Indonesia,,,,,,https://maps.google.com/?cid=0x0:0xbc11ab76a90ed0f9u0026onu003dChocolate+Tartu0026midu003d/g/11vs_mlx1h,
cafe,cafe,,,,PAPUA,,Indonesia,,,,,,https://maps.google.com/?cid=0x0:0xbc11ab76a90ed0f9u0026onu003dTruffle+Mushroom+Pizzau0026midu003d/g/11vs_mlx1h,
cafe,cafe,,,,PAPUA,,Indonesia,,,,,,https://maps.google.com/?cid=0x0:0xbc11ab76a90ed0f9u0026onu003dNasi+Goreng+Cumi+Hitamu0026midu003d/g/11vs_mlx1h,
cafe,cafe,,,,PAPUA,,Indonesia,,,,,,https://maps.google.com/?cid=0x0:0xbc11ab76a90ed0f9u0026onu003dNasi+Goreng+Kampungu0026midu003d/g/11vs_mlx1h,
cafe,cafe,,,,PAPUA,,Indonesia,,,,,,https://maps.google.com/?cid=0x0:0xbc11ab76a90ed0f9u0026onu003dAyam+Betutu+Kuahu0026midu003d/g/11vs_mlx1h,
cafe,cafe,,,,PAPUA,,Indonesia,,,,,,https://maps.google.com/?cid=0x0:0xbc11ab76a90ed0f9u0026onu003dRigatoniu0026midu003d/g/11vs_mlx1h,
cafe,cafe,,,,PAPUA,,Indonesia,,,,,,https://maps.google.com/?cid=0x0:0xbc11ab76a90ed0f9u0026onu0026midu003d/g/11vs_mlx1h,
cafe,cafe,Papua 99563,Papua,Papua,PAPUA,,Indonesia,,,,-3.9612229,138.1597946,https://maps.google.com/?cid=0x0:0xb123b70d10849bd1,
cafe,,Warung Maleo  Juragan Pinang El Kumis,"73VV+H89, Kalome / Pagargom, Kec. Tingginambut, Kabupaten Puncak Jaya, Papua 99563","Kalome / Pagargom, Kec. Tingginambut, Kabupaten Puncak Jaya",PAPUA,99563.0,Indonesia,,,,-3.7060904,138.0933589,https://maps.google.com/?cid=0x0:0xf4e1e974e9dd6b85,
cafe,Kedai Kopi,Lanny-Net,"75XW+JWM, Desa Wurak, Distrik Ilu, Kabupaten Puncak Jaya, Papua 99563","Desa Wurak, Distrik Ilu, Kabupaten Puncak Jaya",PAPUA,99563.0,Indonesia,81344454411.0,,,-3.7009041,138.197304,https://maps.google.com/?cid=0x0:0x9cd3d493da15ee07,
cafe,Kedai Kopi,Cafe Brata Mangi PNG,"Jl. Soa Siu, Mandala, Kec. Jayapura Utara, Kota Jayapura, Papua","Kota Jayapura, Papua",PAPUA,,Indonesia,82396138782.0,,,-2.5350311,140.717898,https://maps.google.com/?cid=0x0:0xf716be1fee265f,
cafe,Dapur Umum,Warung Segman,"7XX7+2Q7, Wuyukwi, Distrik Mulia, Kabupaten Puncak Jaya, Papua 98973","Wuyukwi, Distrik Mulia, Kabupaten Puncak Jaya",PAPUA,98973.0,Indonesia,85244167861.0,,,-3.7025417,137.9644578,https://maps.google.com/?cid=0x0:0xb70d2a8b2b6767b,
cafe,Sate,Warung Biru,"7XPQ+4H8, Pagaleme, Distrik Mulia, Kabupaten Puncak Jaya, Papua 98975","Pagaleme, Distrik Mulia, Kabupaten Puncak Jaya",PAPUA,98975.0,Indonesia,,,,-3.7147206,137.9889552,https://maps.google.com/?cid=0x0:0x2941effa0c8b28f7,
cafe,Kedai Kopi,Kalome Kab Puncak Jaya Papua Tengah,"7XPQ+XP4, Pagaleme, Distrik Mulia, Kabupaten Puncak Jaya, Papua 98975","Pagaleme, Distrik Mulia, Kabupaten Puncak Jaya",PAPUA,98975.0,Indonesia,,,,-3.711764,137.98822,https://maps.google.com/?cid=0x0:0x567ba8629826eb17,
cafe,Mi,RM Barokah,"8X28+42H, Wuyukwi, Distrik Mulia, Kabupaten Puncak Jaya, Papua 98973","Wuyukwi, Distrik Mulia, Kabupaten Puncak Jaya",PAPUA,98973.0,Indonesia,,,,-3.6996957,137.9651121,https://maps.google.com/?cid=0x0:0xc0f5e27433afe182,
cafe,Padang,R.M MINANG JAYA,"Jl. Mulia gambut, kota lama, Distrik Mulia, Kabupaten Puncak Jaya, Papua 98915","kota lama, Distrik Mulia, Kabupaten Puncak Jaya",PAPUA,98915.0,Indonesia,81346313708.0,,,-3.7000817,137.9667389,https://maps.google.com/?cid=0x0:0x545829f3706e16c6,
cafe,Padang,RM Puja Selera,"7XPJ+MC5, Unnamed Road, Pruleme, Distrik Mulia, Kabupaten Puncak Jaya, Papua 98973","Unnamed Road, Pruleme, Distrik Mulia, Kabupaten Puncak Jaya",PAPUA,98973.0,Indonesia,,,,-3.7133572,137.9811015,https://maps.google.com/?cid=0x0:0x5c5a8ec894f8337c,
cafe,Warnet,SEJAHTERA NET 11,"7XMJ+FH5, Pruleme, Distrik Mulia, Kabupaten Puncak Jaya, Papua 98973","Pruleme, Distrik Mulia, Kabupaten Puncak Jaya",PAPUA,98973.0,Indonesia,,,,-3.7163539,137.9814949,https://maps.google.com/?cid=0x0:0x2ac713c811acd32a,
cafe,Restoran,Warung Sate Bude Linda,"7XQH+G3F, Pruleme, Distrik Mulia, Kabupaten Puncak Jaya, Papua 98973","Pruleme, Distrik Mulia, Kabupaten Puncak Jaya",PAPUA,98973.0,Indonesia,,,,-3.7111967,137.9776632,https://maps.google.com/?cid=0x0:0x9954cf172f984c56,
cafe,Padang,Warung Sari Minang,"7XW8+W4P, Unnamed Road, Wuyukwi, Distrik Mulia, Kabupaten Puncak Jaya, Papua 98973","Unnamed Road, Wuyukwi, Distrik Mulia, Kabupaten Puncak Jaya",PAPUA,98973.0,Indonesia,81340958395.0,,,-3.702675,137.965338,https://maps.google.com/?cid=0x0:0x76df75196d523d86,
cafe,Mi,Warung mie ayam solo,"7XRJ+729, Pruleme, Distrik Mulia, Kabupaten Puncak Jaya, Papua 98973","Pruleme, Distrik Mulia, Kabupaten Puncak Jaya",PAPUA,98973.0,Indonesia,,,,-3.709207,137.9801073,https://maps.google.com/?cid=0x0:0xf42c04d8f7191ccb,
cafe,Toko,Mulia,"7XRH+4QM, Pagaleme, Distrik Mulia, Kabupaten Puncak Jaya, Papua","Kabupaten Puncak Jaya, Papua",PAPUA,,Indonesia,,,,-3.7096699,137.9794169,https://maps.google.com/?cid=0x0:0xdca38a4d907a7d8d,
cafe,Mi,Rumah Makan Pakde,"7XX8+243, Wuyukwi, Distrik Mulia, Kabupaten Puncak Jaya, Papua 98973","Wuyukwi, Distrik Mulia, Kabupaten Puncak Jaya",PAPUA,98973.0,Indonesia,,,,-3.7024754,137.9653046,https://maps.google.com/?cid=0x0:0x717d5035d0b44952,
cafe,Restoran,Paiton,"7XCM+8CH, Pagaleme, Distrik Mulia, Kabupaten Puncak Jaya, Papua","Kabupaten Puncak Jaya, Papua",PAPUA,,Indonesia,,,,-3.729199,137.983597,https://maps.google.com/?cid=0x0:0xa0579b24dc531450,
cafe,Restoran,RM Mie Ayam,"7XX8+PF6, Wuyukwi, Distrik Mulia, Kabupaten Puncak Jaya, Papua 98973","Wuyukwi, Distrik Mulia, Kabupaten Puncak Jaya",PAPUA,98973.0,Indonesia,,,,-3.7007117,137.9661327,https://maps.google.com/?cid=0x0:0xd9ccbd54282ff27e,
cafe,Perkebunan Pohon,Rumah Kopi Dokome,"8X98+73, Wuyukwi, Distrik Mulia, Kabupaten Puncak Jaya, Papua","Kabupaten Puncak Jaya, Papua",PAPUA,,Indonesia,,,,-3.6817546,137.9651888,https://maps.google.com/?cid=0x0:0xfa716672ca2f70da,
cafe,Rumah Makan,Warung Pecel Bude Suryani,"8X28+243, Jalan, kandep, Distrik Mulia, Kabupaten Puncak Jaya, Papua 98973","Jalan, kandep, Distrik Mulia, Kabupaten Puncak Jaya",PAPUA,98973.0,Indonesia,85259034394.0,,,-3.7003995,137.9655851,https://maps.google.com/?cid=0x0:0xfa5acbc4b86540c2,
cafe,Kedai Kopi,Kopi Baringga,"10, Jl. Laut Banda No.14, RT.001/RW.4, Duren Sawit, Kec. Duren Sawit, Kota Jakarta Timur, Daerah Khusus Ibukota Jakarta 13440","Jl. Laut Banda No.14, RT.001/RW.4, Duren Sawit, Kec. Duren Sawit, Kota Jakarta Timur",PAPUA,13440.0,Indonesia,,,,-6.2333286,106.9116756,https://maps.google.com/?cid=0x0:0x33b3ff065ec15648,
cafe,Kafe,Cafe  resto GALUH,"HRR3+52R, Cakke, Kec. Anggeraja, Kabupaten Enrekang, Sulawesi Selatan 91752","Cakke, Kec. Anggeraja, Kabupaten Enrekang",PAPUA,91752.0,Indonesia,81342928981.0,,,-3.4095228,119.8025253,https://maps.google.com/?cid=0x0:0x70d69181685d25b0,
cafe,cafe,Papua 99567,"Kabupaten Lanny Jaya, Papua","Kabupaten Lanny Jaya, Papua",PAPUA,,Indonesia,,,,-3.8553159,138.4787258,https://maps.google.com/?cid=0x0:0x54dba557046d88de,
cafe,cafe,Studio 7 n RM. kuKusan,"8F8G+FGP, Karubaga, Kec. Karubaga, Kabupaten Tolikara, Papua","Kabupaten Tolikara, Papua",PAPUA,,Indonesia,81334411656.0,,,-3.6837789,138.4763233,https://maps.google.com/?cid=0x0:0xd6a3d5f9417028c6,
cafe,cafe,Rumah Makan Karubaga,"8F8H+7C9, Karubaga, Kec. Karubaga, Kabupaten Tolikara, Papua 99567","Karubaga, Kec. Karubaga, Kabupaten Tolikara",PAPUA,99567.0,Indonesia,,,,-3.6843481,138.4786024,https://maps.google.com/?cid=0x0:0x416ee39b0a4f1683,
cafe,Sekolah Dasar,Kopi Tiom Lanny Mendek,"3FG2+5V, Bokon, Distrik Tiom, Kabupaten Lanny Jaya, Papua","Kabupaten Lanny Jaya, Papua",PAPUA,,Indonesia,,,,-3.9245543,138.4527285,https://maps.google.com/?cid=0x0:0xc5c29a5192f2e091,
cafe,cafe,Kec. Balingga,"Kabupaten Lanny Jaya, Papua","Kabupaten Lanny Jaya, Papua",PAPUA,,Indonesia,,,,-4.130659,138.3589086,https://maps.google.com/?cid=0x0:0x59418e32c4fc4580,
cafe,Mesin Sangrai Kopi,Alenia Papua Coffee  Kitchen,"Jl. Kemang Raya No.66 B 8, RT.8/RW.2, Bangka, Kec. Mampang Prpt., Kota Jakarta Selatan, Daerah Khusus Ibukota Jakarta 12730","RT.8/RW.2, Bangka, Kec. Mampang Prpt., Kota Jakarta Selatan",PAPUA,12730.0,Indonesia,2171790141.0,,,-6.2638119,106.8158777,https://maps.google.com/?cid=0x0:0xe49807fcfab68b48,
cafe,cafe,Warung Makan Fikih,"3F98+55G, Gurika, Distrik Tiom, Kabupaten Lanny Jaya, Papua","Kabupaten Lanny Jaya, Papua",PAPUA,,Indonesia,,,,-3.9320744,138.4654458,https://maps.google.com/?cid=0x0:0xc69e61e0f9de402,
cafe,Kafe,Cafe  resto GALUH,"HRR3+52R, Cakke, Kec. Anggeraja, Kabupaten Enrekang, Sulawesi Selatan 91752","Cakke, Kec. Anggeraja, Kabupaten Enrekang",PAPUA,91752.0,Indonesia,81342928981.0,,,-3.4095228,119.8025253,https://maps.google.com/?cid=0x0:0x70d69181685d25b0,
cafe,cafe,Distrik Tiomneri,"Kabupaten Lanny Jaya, Papua","Kabupaten Lanny Jaya, Papua",PAPUA,,Indonesia,,,,-3.8761181,138.4009177,https://maps.google.com/?cid=0x0:0x88f4e9020ef9ade8,
cafe,Sekolah Dasar,Kopi Tiom Lanny Mendek,"3FG2+5V, Bokon, Distrik Tiom, Kabupaten Lanny Jaya, Papua","Kabupaten Lanny Jaya, Papua",PAPUA,,Indonesia,,,,-3.9245543,138.4527285,https://maps.google.com/?cid=0x0:0xc5c29a5192f2e091,
cafe,,Warung Maleo  Juragan Pinang El Kumis,"73VV+H89, Kalome / Pagargom, Kec. Tingginambut, Kabupaten Puncak Jaya, Papua 99563","Kalome / Pagargom, Kec. Tingginambut, Kabupaten Puncak Jaya",PAPUA,99563.0,Indonesia,,,,-3.7060904,138.0933589,https://maps.google.com/?cid=0x0:0xf4e1e974e9dd6b85,
cafe,cafe,Papua 99563,Papua,Papua,PAPUA,,Indonesia,,,,-3.9612229,138.1597946,https://maps.google.com/?cid=0x0:0xb123b70d10849bd1,
cafe,,Warung Maleo  Juragan Pinang El Kumis,"73VV+H89, Kalome / Pagargom, Kec. Tingginambut, Kabupaten Puncak Jaya, Papua 99563","Kalome / Pagargom, Kec. Tingginambut, Kabupaten Puncak Jaya",PAPUA,99563.0,Indonesia,,,,-3.7060904,138.0933589,https://maps.google.com/?cid=0x0:0xf4e1e974e9dd6b85,
cafe,Kedai Kopi,Lanny-Net,"75XW+JWM, Desa Wurak, Distrik Ilu, Kabupaten Puncak Jaya, Papua 99563","Desa Wurak, Distrik Ilu, Kabupaten Puncak Jaya",PAPUA,99563.0,Indonesia,81344454411.0,,,-3.7009041,138.197304,https://maps.google.com/?cid=0x0:0x9cd3d493da15ee07,
cafe,Kedai Kopi,Kalome Kab Puncak Jaya Papua Tengah,"7XPQ+XP4, Pagaleme, Distrik Mulia, Kabupaten Puncak Jaya, Papua 98975","Pagaleme, Distrik Mulia, Kabupaten Puncak Jaya",PAPUA,98975.0,Indonesia,,,,-3.711764,137.98822,https://maps.google.com/?cid=0x0:0x567ba8629826eb17,
cafe,Warnet,SEJAHTERA NET 11,"7XMJ+FH5, Pruleme, Distrik Mulia, Kabupaten Puncak Jaya, Papua 98973","Pruleme, Distrik Mulia, Kabupaten Puncak Jaya",PAPUA,98973.0,Indonesia,,,,-3.7163539,137.9814949,https://maps.google.com/?cid=0x0:0x2ac713c811acd32a,
cafe,Dapur Umum,Warung Segman,"7XX7+2Q7, Wuyukwi, Distrik Mulia, Kabupaten Puncak Jaya, Papua 98973","Wuyukwi, Distrik Mulia, Kabupaten Puncak Jaya",PAPUA,98973.0,Indonesia,85244167861.0,,,-3.7025417,137.9644578,https://maps.google.com/?cid=0x0:0xb70d2a8b2b6767b,
cafe,Mesin Sangrai Kopi,Alenia Papua Coffee  Kitchen,"Jl. Kemang Raya No.66 B 8, RT.8/RW.2, Bangka, Kec. Mampang Prpt., Kota Jakarta Selatan, Daerah Khusus Ibukota Jakarta 12730","RT.8/RW.2, Bangka, Kec. Mampang Prpt., Kota Jakarta Selatan",PAPUA,12730.0,Indonesia,2171790141.0,,,-6.2638119,106.8158777,https://maps.google.com/?cid=0x0:0xe49807fcfab68b48,
cafe,Sate,Warung Biru,"7XPQ+4H8, Pagaleme, Distrik Mulia, Kabupaten Puncak Jaya, Papua 98975","Pagaleme, Distrik Mulia, Kabupaten Puncak Jaya",PAPUA,98975.0,Indonesia,,,,-3.7147206,137.9889552,https://maps.google.com/?cid=0x0:0x2941effa0c8b28f7,
cafe,Mi,RM Barokah,"8X28+42H, Wuyukwi, Distrik Mulia, Kabupaten Puncak Jaya, Papua 98973","Wuyukwi, Distrik Mulia, Kabupaten Puncak Jaya",PAPUA,98973.0,Indonesia,,,,-3.6996957,137.9651121,https://maps.google.com/?cid=0x0:0xc0f5e27433afe182,
cafe,Padang,RM Puja Selera,"7XPJ+MC5, Unnamed Road, Pruleme, Distrik Mulia, Kabupaten Puncak Jaya, Papua 98973","Unnamed Road, Pruleme, Distrik Mulia, Kabupaten Puncak Jaya",PAPUA,98973.0,Indonesia,,,,-3.7133572,137.9811015,https://maps.google.com/?cid=0x0:0x5c5a8ec894f8337c,
cafe,Padang,R.M MINANG JAYA,"Jl. Mulia gambut, kota lama, Distrik Mulia, Kabupaten Puncak Jaya, Papua 98915","kota lama, Distrik Mulia, Kabupaten Puncak Jaya",PAPUA,98915.0,Indonesia,81346313708.0,,,-3.7000817,137.9667389,https://maps.google.com/?cid=0x0:0x545829f3706e16c6,
cafe,Mi,Warung mie ayam solo,"7XRJ+729, Pruleme, Distrik Mulia, Kabupaten Puncak Jaya, Papua 98973","Pruleme, Distrik Mulia, Kabupaten Puncak Jaya",PAPUA,98973.0,Indonesia,,,,-3.709207,137.9801073,https://maps.google.com/?cid=0x0:0xf42c04d8f7191ccb,
cafe,Restoran,RM Mie Ayam,"7XX8+PF6, Wuyukwi, Distrik Mulia, Kabupaten Puncak Jaya, Papua 98973","Wuyukwi, Distrik Mulia, Kabupaten Puncak Jaya",PAPUA,98973.0,Indonesia,,,,-3.7007117,137.9661327,https://maps.google.com/?cid=0x0:0xd9ccbd54282ff27e,
cafe,Toko Roti,Flavouw Cafe  Buddy Burger,"CGPC+2C2, Jl. Ifar Gn., Sentani Kota, Kec. Sentani, Kabupaten Jayapura, Papua 99359","Jl. Ifar Gn., Sentani Kota, Kec. Sentani, Kabupaten Jayapura",PAPUA,99359.0,Indonesia,81240364286.0,,,-2.5649762,140.5210037,https://maps.google.com/?cid=0x0:0x74b52879855faad0,
cafe,Padang,Warung Sari Minang,"7XW8+W4P, Unnamed Road, Wuyukwi, Distrik Mulia, Kabupaten Puncak Jaya, Papua 98973","Unnamed Road, Wuyukwi, Distrik Mulia, Kabupaten Puncak Jaya",PAPUA,98973.0,Indonesia,81340958395.0,,,-3.702675,137.965338,https://maps.google.com/?cid=0x0:0x76df75196d523d86,
cafe,Toko,Mulia,"7XRH+4QM, Pagaleme, Distrik Mulia, Kabupaten Puncak Jaya, Papua","Kabupaten Puncak Jaya, Papua",PAPUA,,Indonesia,,,,-3.7096699,137.9794169,https://maps.google.com/?cid=0x0:0xdca38a4d907a7d8d,
cafe,Restoran,Warung Sate Bude Linda,"7XQH+G3F, Pruleme, Distrik Mulia, Kabupaten Puncak Jaya, Papua 98973","Pruleme, Distrik Mulia, Kabupaten Puncak Jaya",PAPUA,98973.0,Indonesia,,,,-3.7111967,137.9776632,https://maps.google.com/?cid=0x0:0x9954cf172f984c56,
cafe,Kafe,Kopu Kopi CafÃ© (Coffee  Eatery),"Jl. Raya Abepura, Wahno, Kec. Abepura, Kota Jayapura, Papua 99224","Wahno, Kec. Abepura, Kota Jayapura",PAPUA,99224.0,Indonesia,81263800182.0,,,-2.5972248,140.6796506,https://maps.google.com/?cid=0x0:0x55eedda55f616417,
cafe,Italia,Cafe Kissa - Grand Indonesia,"Shinta Lobby, Grand Indonesia Mall, East Mall, Jl. Tlk. Betung I No.45A Ground Floor, RT.1/RW.5, Menteng, Kec. Menteng, Kota Jakarta Pusat, Daerah Khusus Ibukota Jakarta 10310","Grand Indonesia Mall, East Mall, Jl. Tlk. Betung I No.45A Ground Floor, RT.1/RW.5, Menteng, Kec. Menteng, Kota Jakarta Pusat",PAPUA,10310.0,Indonesia,8118001556.0,,,-6.1963714,106.8225994,https://maps.google.com/?cid=0x0:0x89e344c04d23a8ad,
cafe,Ramen,Kusuka Cafe  Resto,"Seberang Astra Honda, masuk lorong sebelah jayamart, Jl. Klp. 2 No.18, Entrop, Jayapura Selatan, Jayapura City, Papua 99221","masuk lorong sebelah jayamart, Jl. Klp. 2 No.18, Entrop, Jayapura Selatan, Jayapura City",PAPUA,99221.0,Indonesia,,,,-2.5689574,140.7025065,https://maps.google.com/?cid=0x0:0xc48e7a8e5d46dab5,
cafe,Mi,Rumah Makan Pakde,"7XX8+243, Wuyukwi, Distrik Mulia, Kabupaten Puncak Jaya, Papua 98973","Wuyukwi, Distrik Mulia, Kabupaten Puncak Jaya",PAPUA,98973.0,Indonesia,,,,-3.7024754,137.9653046,https://maps.google.com/?cid=0x0:0x717d5035d0b44952,
cafe,Perkebunan Pohon,Rumah Kopi Dokome,"8X98+73, Wuyukwi, Distrik Mulia, Kabupaten Puncak Jaya, Papua","Kabupaten Puncak Jaya, Papua",PAPUA,,Indonesia,,,,-3.6817546,137.9651888,https://maps.google.com/?cid=0x0:0xfa716672ca2f70da,
cafe,Restoran,Paiton,"7XCM+8CH, Pagaleme, Distrik Mulia, Kabupaten Puncak Jaya, Papua","Kabupaten Puncak Jaya, Papua",PAPUA,,Indonesia,,,,-3.729199,137.983597,https://maps.google.com/?cid=0x0:0xa0579b24dc531450,
cafe,Kedai Kopi,JPC Kemang Cafe,"Jl. Kemang Raya No.47C, Bangka, Kec. Mampang Prpt., Kota Jakarta Selatan, Daerah Khusus Ibukota Jakarta 12730","Bangka, Kec. Mampang Prpt., Kota Jakarta Selatan",PAPUA,12730.0,Indonesia,82112229256.0,,,-6.2651825,106.8162685,https://maps.google.com/?cid=0x0:0xc2e858ce7bda7b4d,
cafe,Kedai Kopi,Ngopi Ngapa - Kemang,"Jl. Kemang Timur No.27A, RT.10/RW.4, Bangka, Kec. Mampang Prpt., Kota Jakarta Selatan, Daerah Khusus Ibukota Jakarta 12730","RT.10/RW.4, Bangka, Kec. Mampang Prpt., Kota Jakarta Selatan",PAPUA,12730.0,Indonesia,85810697757.0,,,-6.2613738,106.8232623,https://maps.google.com/?cid=0x0:0x913b81e34c074145,
cafe,Kafe,Antipodean Coffee,"komplek hero kemang, Jl. Kemang Selatan I, RT.8/RW.3, Bangka, Kec. Mampang Prpt., Daerah Khusus Ibukota Jakarta 12730","Jl. Kemang Selatan I, RT.8/RW.3, Bangka, Kec. Mampang Prpt.",PAPUA,12730.0,Indonesia,217192364.0,,,-6.265255,106.8204611,https://maps.google.com/?cid=0x0:0x90c13e76e4090c38,
cafe,cafe,,,,PAPUA,,Indonesia,,,,,,https://maps.google.com/?cid=0x0:0xe49807fcfab68b48u0026onu003dPuding+Sagu+Kenariu0026midu003d/g/11f2m72ngq,
cafe,cafe,,,,PAPUA,,Indonesia,,,,,,https://maps.google.com/?cid=0x0:0xe49807fcfab68b48u0026onu003dPapeda+Ikan+Kuah+Kuningu0026midu003d/g/11f2m72ngq,
cafe,cafe,,,,PAPUA,,Indonesia,,,,,,https://maps.google.com/?cid=0x0:0xe49807fcfab68b48u0026onu003dNasi+Campur+Aleniau0026midu003d/g/11f2m72ngq,
cafe,cafe,Papua 99556,Papua,Papua,PAPUA,,Indonesia,,,,-3.7561908,138.6589406,https://maps.google.com/?cid=0x0:0x5a2842ee64e9fe01,
cafe,Mesin Sangrai Kopi,Alenia Papua Coffee  Kitchen,"Jl. Kemang Raya No.66 B 8, RT.8/RW.2, Bangka, Kec. Mampang Prpt., Kota Jakarta Selatan, Daerah Khusus Ibukota Jakarta 12730","RT.8/RW.2, Bangka, Kec. Mampang Prpt., Kota Jakarta Selatan",PAPUA,12730.0,Indonesia,2171790141.0,,,-6.2638119,106.8158777,https://maps.google.com/?cid=0x0:0xe49807fcfab68b48,
cafe,Kafe,PUA-PUA CAFE,"Jl. Budi Utomo, Nawaripi, Kec. Mimika Baru, Kabupaten Mimika, Papua 99952","Nawaripi, Kec. Mimika Baru, Kabupaten Mimika",PAPUA,99952.0,Indonesia,82346750560.0,,,-4.5620805,136.8806057,https://maps.google.com/?cid=0x0:0xb7cc07f877baacb2,
cafe,Restoran,Papua Cafe,"JV38+MF6, Kuala Kencana, Kec. Kuala Kencana, Kabupaten Mimika, Papua 99910","Kuala Kencana, Kec. Kuala Kencana, Kabupaten Mimika",PAPUA,99910.0,Indonesia,811490804.0,,,-4.395844,136.8661365,https://maps.google.com/?cid=0x0:0x314a0b94209cdb62,
cafe,Kafe,Cafe Vanggasgu,"Jl. Tongkol No.2, Argapura, Distrik Jayapura Selatan, Kota Jayapura, Papua","Kota Jayapura, Papua",PAPUA,,Indonesia,,,,-2.5491642,140.7145885,https://maps.google.com/?cid=0x0:0xc3600333b75a0f44,
cafe,Kedai Kopi,Bingga Caffeâ¢,"53PH+43C, Tanjung pepaya, Amban, pante, Kabupaten Manokwari, Papua Bar.","Kabupaten Manokwari, Papua Bar.",PAPUA,,Indonesia,,,,-0.8146919,134.0776453,https://maps.google.com/?cid=0x0:0x4130b88af0a2cc57,
cafe,Kedai Kopi,Sinilagi - Food and Coffee,"Ruko Puri Kencana. Jalan Puri Kencana Blok K7/3U, RT.11/RW.7, Kembangan Sel., Kec. Kembangan, Kota Jakarta Barat, Daerah Khusus Ibukota Jakarta 11610","RT.11/RW.7, Kembangan Sel., Kec. Kembangan, Kota Jakarta Barat",PAPUA,11610.0,Indonesia,,,,-6.1907131,106.7477643,https://maps.google.com/?cid=0x0:0x542750392acff889,
cafe,Kafe,Cafe Papua,"5F2V+WH4, Area Wisata Goa Pinus Dusun Brau, RT.01/RW.10, Gunungsari, Kec. Bumiaji, Kota Batu, Jawa Timur 65337","Area Wisata Goa Pinus Dusun Brau, RT.01/RW.10, Gunungsari, Kec. Bumiaji, Kota Batu",PAPUA,65337.0,Indonesia,81231397198.0,,,-7.8477279,112.4939593,https://maps.google.com/?cid=0x0:0xe6303db03d15bcb9,
cafe,Kedai Kopi,Meet Point Cafe,"samping polres, Jln. Yowanibi waibu, Kec. Sentani, Kabupaten Jayapura, Papua 99352","Jln. Yowanibi waibu, Kec. Sentani, Kabupaten Jayapura",PAPUA,99352.0,Indonesia,85397371157.0,,,-2.5444872,140.4607577,https://maps.google.com/?cid=0x0:0xa02b3d162126b15e,
cafe,Kafe,Papua Coffee,"Jl. Thamrin No. 60 Kompleks Pasar Kayu Potikelek, Wamena Kota, Distrik Wamena, Kabupaten Jayawijaya, Papua 99511","Wamena Kota, Distrik Wamena, Kabupaten Jayawijaya",PAPUA,99511.0,Indonesia,85656235388.0,,,-4.0946257,138.9480259,https://maps.google.com/?cid=0x0:0x43974bfab8599268,
cafe,Kantor Pemerintah,Gunarimo,"jln naik logot paga, Jln kimbim Jl. Pyramid, Asologaima, Muliama, Kabupaten Jayawijaya, Papua","Kabupaten Jayawijaya, Papua",PAPUA,,Indonesia,,,,-3.9327433,138.78402,https://maps.google.com/?cid=0x0:0xbea97391cecc3ae8,
cafe,Kafe,Djournal Coffee - Pacific Place,"Pacific Place Lantai 1, Jl. Jenderal Sudirman No.52-53 unit 1-73,74, RT.5/RW.3, Senayan, Jakarta, Kota Jakarta Selatan, Daerah Khusus Ibukota Jakarta 12190","Jl. Jenderal Sudirman No.52-53 unit 1-73,74, RT.5/RW.3, Senayan, Jakarta, Kota Jakarta Selatan",PAPUA,12190.0,Indonesia,2157973224.0,,,-6.224264,106.8101364,https://maps.google.com/?cid=0x0:0x16cc42d8933c07eb,
cafe,cafe,winius wenda,"8GCX+5FQ winom weya distrik, Weyambi, Geya, Kabupaten Tolikara, Papua 99556","Weyambi, Geya, Kabupaten Tolikara",PAPUA,99556.0,Indonesia,82134810273.0,,,-3.6795336,138.5487397,https://maps.google.com/?cid=0x0:0x23163e707735d742,
cafe,cafe,Bolakme bolevard river,"4R77+37V, Yelengga, Distrik Yalengga, Kabupaten Jayawijaya, Papua 99555","Yelengga, Distrik Yalengga, Kabupaten Jayawijaya",PAPUA,99555.0,Indonesia,,,,-3.8872749,138.8131692,https://maps.google.com/?cid=0x0:0x745061c094a4e5ab,
cafe,cafe,KIOS GABRIEL,"7JFM+24M, puskesmas, Dogobak, Kelila, Central Mamberamo Regency, Papua","Kabupaten Mamberamo Tengah, Papua",PAPUA,,Indonesia,,,,-3.7274138,138.632803,https://maps.google.com/?cid=0x0:0xa0d37f21949d0ee2,
cafe,cafe,Kampung Tenondek Distrik koragi,"4QXF+J74, kampung tenondek, Distrik Bolakme, Kabupaten Jayawijaya, Papua 99555","kampung tenondek, Distrik Bolakme, Kabupaten Jayawijaya",PAPUA,99555.0,Indonesia,,,,-3.8509847,138.7731905,https://maps.google.com/?cid=0x0:0xa9fed39da76710fc,
cafe,Kedai Kopi,NAMINOP (POGA Coffee),"Jl. Caringin Utara No.32, RT.15/RW.10, Cilandak Bar., Kec. Cilandak, Kota Jakarta Selatan, Daerah Khusus Ibukota Jakarta 12430","RT.15/RW.10, Cilandak Bar., Kec. Cilandak, Kota Jakarta Selatan",PAPUA,12430.0,Indonesia,81287914863.0,,,-6.283198,106.7926046,https://maps.google.com/?cid=0x0:0x8be6a21af4105df4,
cafe,Kedai Kopi,Cafe Poskopie,"8, Jl. Guntur No.10, RT.8/RW.1, Guntur, Kecamatan Setiabudi, Kota Jakarta Selatan, Daerah Khusus Ibukota Jakarta 12980","Jl. Guntur No.10, RT.8/RW.1, Guntur, Kecamatan Setiabudi, Kota Jakarta Selatan",PAPUA,12980.0,Indonesia,85810600715.0,,,-6.20677,106.838135,https://maps.google.com/?cid=0x0:0x6d0f9708a0083df4,
cafe,Kafe,Kafe Lapan Puluh,"12, Jl. Pangeran Antasari No.80, RT.12/RW.13, West Cilandak, Cilandak, South Jakarta City, Jakarta 12430","Jl. Pangeran Antasari No.80, RT.12/RW.13, West Cilandak, Cilandak, South Jakarta City",PAPUA,12430.0,Indonesia,,,,-6.2846212,106.8074022,https://maps.google.com/?cid=0x0:0x7c05c0c53cb61c75,
cafe,Kedai Kopi,+LAPANDUA COFFEE,"Jl. Setiabudi Raya No.25, Kuningan, Setia Budi, Kecamatan Setiabudi, Kota Jakarta Selatan, Daerah Khusus Ibukota Jakarta 12910","Kuningan, Setia Budi, Kecamatan Setiabudi, Kota Jakarta Selatan",PAPUA,12910.0,Indonesia,82118091923.0,,,-6.2110609,106.8241251,https://maps.google.com/?cid=0x0:0x3a8a425614f8b07b,
cafe,Kedai Kopi,Ngops.lah2020,"QQXJ+WM2, Jakarta Barat, RT.2/RW.9, Kb. Jeruk, Kec. Kb. Jeruk, Kota Jakarta Barat, Daerah Khusus Ibukota Jakarta 11530","Jakarta Barat, RT.2/RW.9, Kb. Jeruk, Kec. Kb. Jeruk, Kota Jakarta Barat",PAPUA,11530.0,Indonesia,895412997822.0,,,-6.2002272,106.781638,https://maps.google.com/?cid=0x0:0x5f4a16fa4534148c,
cafe,Kedai Kopi,Basecamp G.G.K.P,"Jl. Pemandangan 1 No.1 33, RT.7/RW.3, West Pademangan, Pademangan, North Jakarta City, Jakarta 14420","RT.7/RW.3, West Pademangan, Pademangan, North Jakarta City",PAPUA,14420.0,Indonesia,81398038386.0,,,-6.1400328,106.8352976,https://maps.google.com/?cid=0x0:0x3f50fecb0d790cfc,
cafe,Kedai Kopi,Kala Kopi Menggoda,"MRWX+FCF, RT.6/RW.5, Tj. Bar., Kec. Jagakarsa, Kota Jakarta Selatan, Daerah Khusus Ibukota Jakarta 12530","RT.6/RW.5, Tj. Bar., Kec. Jagakarsa, Kota Jakarta Selatan",PAPUA,12530.0,Indonesia,85726003530.0,,,-6.3038149,106.8485527,https://maps.google.com/?cid=0x0:0xe7eefb67960de142,
cafe,Kedai Kopi,Kopi Kamu Wijaya Jakarta Selatan,"Jl. Wijaya I No.62, RT.9/RW.5, Petogogan, Kec. Kby. Baru, Kota Jakarta Selatan, Daerah Khusus Ibukota Jakarta 12170","RT.9/RW.5, Petogogan, Kec. Kby. Baru, Kota Jakarta Selatan",PAPUA,12170.0,Indonesia,85121217296.0,,,-6.2444568,106.8094263,https://maps.google.com/?cid=0x0:0xdd88bc5dbf7fcdba,
cafe,cafe,Papua 99563,Papua,Papua,PAPUA,,Indonesia,,,,-3.9612229,138.1597946,https://maps.google.com/?cid=0x0:0xb123b70d10849bd1,
cafe,,Warung Maleo  Juragan Pinang El Kumis,"73VV+H89, Kalome / Pagargom, Kec. Tingginambut, Kabupaten Puncak Jaya, Papua 99563","Kalome / Pagargom, Kec. Tingginambut, Kabupaten Puncak Jaya",PAPUA,99563.0,Indonesia,,,,-3.7060904,138.0933589,https://maps.google.com/?cid=0x0:0xf4e1e974e9dd6b85,
cafe,Kedai Kopi,Lanny-Net,"75XW+JWM, Desa Wurak, Distrik Ilu, Kabupaten Puncak Jaya, Papua 99563","Desa Wurak, Distrik Ilu, Kabupaten Puncak Jaya",PAPUA,99563.0,Indonesia,81344454411.0,,,-3.7009041,138.197304,https://maps.google.com/?cid=0x0:0x9cd3d493da15ee07,
cafe,Kedai Kopi,Cafe Brata Mangi PNG,"Jl. Soa Siu, Mandala, Kec. Jayapura Utara, Kota Jayapura, Papua","Kota Jayapura, Papua",PAPUA,,Indonesia,82396138782.0,,,-2.5350311,140.717898,https://maps.google.com/?cid=0x0:0xf716be1fee265f,
cafe,Dapur Umum,Warung Segman,"7XX7+2Q7, Wuyukwi, Distrik Mulia, Kabupaten Puncak Jaya, Papua 98973","Wuyukwi, Distrik Mulia, Kabupaten Puncak Jaya",PAPUA,98973.0,Indonesia,85244167861.0,,,-3.7025417,137.9644578,https://maps.google.com/?cid=0x0:0xb70d2a8b2b6767b,
cafe,Sate,Warung Biru,"7XPQ+4H8, Pagaleme, Distrik Mulia, Kabupaten Puncak Jaya, Papua 98975","Pagaleme, Distrik Mulia, Kabupaten Puncak Jaya",PAPUA,98975.0,Indonesia,,,,-3.7147206,137.9889552,https://maps.google.com/?cid=0x0:0x2941effa0c8b28f7,
cafe,Kedai Kopi,Kalome Kab Puncak Jaya Papua Tengah,"7XPQ+XP4, Pagaleme, Distrik Mulia, Kabupaten Puncak Jaya, Papua 98975","Pagaleme, Distrik Mulia, Kabupaten Puncak Jaya",PAPUA,98975.0,Indonesia,,,,-3.711764,137.98822,https://maps.google.com/?cid=0x0:0x567ba8629826eb17,
cafe,Mi,RM Barokah,"8X28+42H, Wuyukwi, Distrik Mulia, Kabupaten Puncak Jaya, Papua 98973","Wuyukwi, Distrik Mulia, Kabupaten Puncak Jaya",PAPUA,98973.0,Indonesia,,,,-3.6996957,137.9651121,https://maps.google.com/?cid=0x0:0xc0f5e27433afe182,
cafe,Padang,R.M MINANG JAYA,"Jl. Mulia gambut, kota lama, Distrik Mulia, Kabupaten Puncak Jaya, Papua 98915","kota lama, Distrik Mulia, Kabupaten Puncak Jaya",PAPUA,98915.0,Indonesia,81346313708.0,,,-3.7000817,137.9667389,https://maps.google.com/?cid=0x0:0x545829f3706e16c6,
cafe,Padang,RM Puja Selera,"7XPJ+MC5, Unnamed Road, Pruleme, Distrik Mulia, Kabupaten Puncak Jaya, Papua 98973","Unnamed Road, Pruleme, Distrik Mulia, Kabupaten Puncak Jaya",PAPUA,98973.0,Indonesia,,,,-3.7133572,137.9811015,https://maps.google.com/?cid=0x0:0x5c5a8ec894f8337c,
cafe,Warnet,SEJAHTERA NET 11,"7XMJ+FH5, Pruleme, Distrik Mulia, Kabupaten Puncak Jaya, Papua 98973","Pruleme, Distrik Mulia, Kabupaten Puncak Jaya",PAPUA,98973.0,Indonesia,,,,-3.7163539,137.9814949,https://maps.google.com/?cid=0x0:0x2ac713c811acd32a,
cafe,Restoran,Warung Sate Bude Linda,"7XQH+G3F, Pruleme, Distrik Mulia, Kabupaten Puncak Jaya, Papua 98973","Pruleme, Distrik Mulia, Kabupaten Puncak Jaya",PAPUA,98973.0,Indonesia,,,,-3.7111967,137.9776632,https://maps.google.com/?cid=0x0:0x9954cf172f984c56,
cafe,Padang,Warung Sari Minang,"7XW8+W4P, Unnamed Road, Wuyukwi, Distrik Mulia, Kabupaten Puncak Jaya, Papua 98973","Unnamed Road, Wuyukwi, Distrik Mulia, Kabupaten Puncak Jaya",PAPUA,98973.0,Indonesia,81340958395.0,,,-3.702675,137.965338,https://maps.google.com/?cid=0x0:0x76df75196d523d86,
cafe,Mi,Warung mie ayam solo,"7XRJ+729, Pruleme, Distrik Mulia, Kabupaten Puncak Jaya, Papua 98973","Pruleme, Distrik Mulia, Kabupaten Puncak Jaya",PAPUA,98973.0,Indonesia,,,,-3.709207,137.9801073,https://maps.google.com/?cid=0x0:0xf42c04d8f7191ccb,
cafe,Toko,Mulia,"7XRH+4QM, Pagaleme, Distrik Mulia, Kabupaten Puncak Jaya, Papua","Kabupaten Puncak Jaya, Papua",PAPUA,,Indonesia,,,,-3.7096699,137.9794169,https://maps.google.com/?cid=0x0:0xdca38a4d907a7d8d,
cafe,Mi,Rumah Makan Pakde,"7XX8+243, Wuyukwi, Distrik Mulia, Kabupaten Puncak Jaya, Papua 98973","Wuyukwi, Distrik Mulia, Kabupaten Puncak Jaya",PAPUA,98973.0,Indonesia,,,,-3.7024754,137.9653046,https://maps.google.com/?cid=0x0:0x717d5035d0b44952,
cafe,Restoran,Paiton,"7XCM+8CH, Pagaleme, Distrik Mulia, Kabupaten Puncak Jaya, Papua","Kabupaten Puncak Jaya, Papua",PAPUA,,Indonesia,,,,-3.729199,137.983597,https://maps.google.com/?cid=0x0:0xa0579b24dc531450,
cafe,Restoran,RM Mie Ayam,"7XX8+PF6, Wuyukwi, Distrik Mulia, Kabupaten Puncak Jaya, Papua 98973","Wuyukwi, Distrik Mulia, Kabupaten Puncak Jaya",PAPUA,98973.0,Indonesia,,,,-3.7007117,137.9661327,https://maps.google.com/?cid=0x0:0xd9ccbd54282ff27e,
cafe,Perkebunan Pohon,Rumah Kopi Dokome,"8X98+73, Wuyukwi, Distrik Mulia, Kabupaten Puncak Jaya, Papua","Kabupaten Puncak Jaya, Papua",PAPUA,,Indonesia,,,,-3.6817546,137.9651888,https://maps.google.com/?cid=0x0:0xfa716672ca2f70da,
cafe,Rumah Makan,Warung Pecel Bude Suryani,"8X28+243, Jalan, kandep, Distrik Mulia, Kabupaten Puncak Jaya, Papua 98973","Jalan, kandep, Distrik Mulia, Kabupaten Puncak Jaya",PAPUA,98973.0,Indonesia,85259034394.0,,,-3.7003995,137.9655851,https://maps.google.com/?cid=0x0:0xfa5acbc4b86540c2,
cafe,Kedai Kopi,TOMORO COFFEE - Gedung City Plaza,"No.42RT, Jl. Gatot Subroto No.3, RT.3/RW.2, Kuningan Bar., Kec. Mampang Prpt., Kota Jakarta Selatan, Daerah Khusus Ibukota Jakarta 12710","Jl. Gatot Subroto No.3, RT.3/RW.2, Kuningan Bar., Kec. Mampang Prpt., Kota Jakarta Selatan",PAPUA,12710.0,Indonesia,81119207461.0,,,-6.2361996,106.8233396,https://maps.google.com/?cid=0x0:0xf6f838fcb2558e8,
cafe,cafe,Papua 99567,"Kabupaten Lanny Jaya, Papua","Kabupaten Lanny Jaya, Papua",PAPUA,,Indonesia,,,,-3.8553159,138.4787258,https://maps.google.com/?cid=0x0:0x54dba557046d88de,
cafe,cafe,Studio 7 n RM. kuKusan,"8F8G+FGP, Karubaga, Kec. Karubaga, Kabupaten Tolikara, Papua","Kabupaten Tolikara, Papua",PAPUA,,Indonesia,81334411656.0,,,-3.6837789,138.4763233,https://maps.google.com/?cid=0x0:0xd6a3d5f9417028c6,
cafe,cafe,Rumah Makan Karubaga,"8F8H+7C9, Karubaga, Kec. Karubaga, Kabupaten Tolikara, Papua 99567","Karubaga, Kec. Karubaga, Kabupaten Tolikara",PAPUA,99567.0,Indonesia,,,,-3.6843481,138.4786024,https://maps.google.com/?cid=0x0:0x416ee39b0a4f1683,
cafe,Sekolah Dasar,Kopi Tiom Lanny Mendek,"3FG2+5V, Bokon, Distrik Tiom, Kabupaten Lanny Jaya, Papua","Kabupaten Lanny Jaya, Papua",PAPUA,,Indonesia,,,,-3.9245543,138.4527285,https://maps.google.com/?cid=0x0:0xc5c29a5192f2e091,
cafe,cafe,Kec. Balingga,"Kabupaten Lanny Jaya, Papua","Kabupaten Lanny Jaya, Papua",PAPUA,,Indonesia,,,,-4.130659,138.3589086,https://maps.google.com/?cid=0x0:0x59418e32c4fc4580,
cafe,Mesin Sangrai Kopi,Alenia Papua Coffee  Kitchen,"Jl. Kemang Raya No.66 B 8, RT.8/RW.2, Bangka, Kec. Mampang Prpt., Kota Jakarta Selatan, Daerah Khusus Ibukota Jakarta 12730","RT.8/RW.2, Bangka, Kec. Mampang Prpt., Kota Jakarta Selatan",PAPUA,12730.0,Indonesia,2171790141.0,,,-6.2638119,106.8158777,https://maps.google.com/?cid=0x0:0xe49807fcfab68b48,
cafe,cafe,Warung Makan Fikih,"3F98+55G, Gurika, Distrik Tiom, Kabupaten Lanny Jaya, Papua","Kabupaten Lanny Jaya, Papua",PAPUA,,Indonesia,,,,-3.9320744,138.4654458,https://maps.google.com/?cid=0x0:0xc69e61e0f9de402,
cafe,Kafe,Cafe  resto GALUH,"HRR3+52R, Cakke, Kec. Anggeraja, Kabupaten Enrekang, Sulawesi Selatan 91752","Cakke, Kec. Anggeraja, Kabupaten Enrekang",PAPUA,91752.0,Indonesia,81342928981.0,,,-3.4095228,119.8025253,https://maps.google.com/?cid=0x0:0x70d69181685d25b0,
