Category,Real Category,Business Name,Address,City,State,Postal Code,Country,Phone,Email,Website,Latitude,Longitude,Map Link,Details Link
building materials,Toko Bahan Bangunan,Tiptore Building Material,"Jl. Poros Kuda Mati, Klp. Lima, Kec. Merauke, Kabupaten Merauke, Papua 99616","Klp. Lima, Kec. Merauke, Kabupaten Merauke",PAPUA,99616.0,Indonesia,82293657714.0,,,-8.5061763,140.4257632,https://maps.google.com/?cid=0x0:0xbf132c61e5517b30,
building materials,Toko Bahan Bangunan,Optima,"FCR2+RPJ, Jl. Raya Mandala, Mandala, Kec. Merauke, Kabupaten Merauke, Papua 99615","Jl. Raya Mandala, Mandala, Kec. Merauke, Kabupaten Merauke",PAPUA,99615.0,Indonesia,,,,-8.5079058,140.4017668,https://maps.google.com/?cid=0x0:0x1f6ecf2372c263ce,
building materials,building materials,Distrik Tiom,"Kabupaten Lanny Jaya, Papua","Kabupaten Lanny Jaya, Papua",PAPUA,,Indonesia,,,,-3.9277573,138.4557817,https://maps.google.com/?cid=0x0:0x1bdc1c8bed88c23f,
building materials,Toko Bahan Bangunan,TOKO YUDHA BANGUNAN 1,"VWXP+H7P, Jl. Bayangkara, Hurekama, Distrik Wamena, Kabupaten Jayawijaya, Papua 99511","Jl. Bayangkara, Hurekama, Distrik Wamena, Kabupaten Jayawijaya",PAPUA,99511.0,Indonesia,81344454364.0,,,-4.1010288,138.9356942,https://maps.google.com/?cid=0x0:0xa571c584f4c25eaa,
building materials,Toko Bahan Bangunan,Depo Bangunan Mbanyu Mili,"3VQM+2GP depan balai kampung sp 2, Prafi Mulia, Distrik Prafi, Kabupaten Manokwari, Papua Bar. 98356","Prafi Mulia, Distrik Prafi, Kabupaten Manokwari",PAPUA,98356.0,Indonesia,85254126242.0,,,-0.9124191,133.8838245,https://maps.google.com/?cid=0x0:0x72bb281db456c91a,
building materials,Toserba,TOKO MAJU MAKMUR,"4R8F+95V, Udapi Hilir, Distrik Prafi, Kabupaten Manokwari, Papua Bar. 98356","Udapi Hilir, Distrik Prafi, Kabupaten Manokwari",PAPUA,98356.0,Indonesia,,,,-0.884108,133.8229369,https://maps.google.com/?cid=0x0:0x5dd0e3c69ab93bdc,
building materials,Kantor Perusahaan,PT Tembaga Mulia Semanan Tbk,"Rd, Daan Mogot Rd Jl. Desa Semanan No.KM.16, RT.7/RW.6, Semanan, Kalideres, West Jakarta City, Jakarta 11850","Daan Mogot Rd Jl. Desa Semanan No.KM.16, RT.7/RW.6, Semanan, Kalideres, West Jakarta City",PAPUA,11850.0,Indonesia,216190128.0,,,-6.1566381,106.7088707,https://maps.google.com/?cid=0x0:0xc270c348c6ad697c,
building materials,Toko Batu,Kulit Batu Stone Veneer,"Jl. KH. Hasyim Ashari No.888, Nerogtog, Cipondoh, Kota Tangerang, Banten 15148","Nerogtog, Cipondoh, Kota Tangerang",PAPUA,15148.0,Indonesia,89623222600.0,,,-6.2096246,106.6881603,https://maps.google.com/?cid=0x0:0x4ea461a5d1d37391,
building materials,Toko Perlengkapan Rumah,NATURAL STONE OFFICIAL ( Cobek batu asli ) cobekbatutangerang,"Jl. KH. Hasyim Ashari No.9a, RT.05/RW.01, Nerogtog, Kec. Pinang, Kota Tangerang, Banten 15145","RT.05/RW.01, Nerogtog, Kec. Pinang, Kota Tangerang",PAPUA,15145.0,Indonesia,85624521083.0,,,-6.2103229,106.6883683,https://maps.google.com/?cid=0x0:0x304a66283546ffca,
building materials,Toko Bahan Bangunan,PT. Barito Pasifik Timber,"Jl. Koti No.8 A, Numbai, Distrik Jayapura Selatan, Kota Jayapura, Papua 99222","Numbai, Distrik Jayapura Selatan, Kota Jayapura",PAPUA,99222.0,Indonesia,967536672.0,,,-2.543737,140.706905,https://maps.google.com/?cid=0x0:0x3e2ccfcc476c37f1,
building materials,Toko Bahan Bangunan,Barito Pacific Timber Group,"Jl. Koti No.80-A, Mandala, Kec. Jayapura Utara, Kota Jayapura, Papua","Kota Jayapura, Papua",PAPUA,,Indonesia,967531945.0,,,-2.5325496,140.717552,https://maps.google.com/?cid=0x0:0xa88e0c9e5e01ef85,
building materials,building materials,Toko bangun mekar jaya,"RQCH+QJR, Maidei, Makimi, Kabupaten Nabire, Papua","Kabupaten Nabire, Papua",PAPUA,,Indonesia,,,,-3.178023,135.7790047,https://maps.google.com/?cid=0x0:0x35aa78ea8a53ed4c,
building materials,building materials,Distrik Gamelia,"Kabupaten Lanny Jaya, Papua","Kabupaten Lanny Jaya, Papua",PAPUA,,Indonesia,,,,-3.8864208,138.6713122,https://maps.google.com/?cid=0x0:0xd4cdc850c1f0ad1b,
building materials,Kantor Perusahaan,PT Global Indonesia Asia Sejahtera (GIAS) - Head Office,"Springhill Office Tower, Jl. Benyamin Sueb Lt 5 Unit A-H, East Pademangan, Pademangan, North Jakarta City, Jakarta 14410","Jl. Benyamin Sueb Lt 5 Unit A-H, East Pademangan, Pademangan, North Jakarta City",PAPUA,14410.0,Indonesia,2126051725.0,,,-6.149522,106.850688,https://maps.google.com/?cid=0x0:0x55b5496d4f7eb781,
building materials,Toko Bahan Bangunan,Buildozzer,"HMWC+3VH, Silalas, Kec. Medan Bar., Kota Medan, Sumatera Utara","Kota Medan, Sumatera Utara",PAPUA,,Indonesia,6180033335.0,,,3.5951956,98.6722227,https://maps.google.com/?cid=0x0:0x8fa85c3eab1bf261,
building materials,Toko Perlengkapan Atap,Bintang Atap I Jual Genteng Bitumen | Genteng Aspal,"Palem Ganda Asri 1 Blok A6 NO 1, RT.002/RW.016, Karang Tengah, Kec. Ciledug, Kota Tangerang, Banten 15157","RT.002/RW.016, Karang Tengah, Kec. Ciledug, Kota Tangerang",PAPUA,15157.0,Indonesia,81212643290.0,,,-6.22054,106.7083339,https://maps.google.com/?cid=0x0:0x8262ad01c05427ed,
building materials,Toko Perlengkapan Atap,TAMKO ROOFING INDONESIA,"Mall WTC Matahari, Ruko Royal Serpong No. 839, Jl. Raya Serpong Kilometer 7, Pd. Jagung, Kec. Serpong Utara, Kota Tangerang Selatan, Banten 15329","Ruko Royal Serpong No. 839, Jl. Raya Serpong Kilometer 7, Pd. Jagung, Kec. Serpong Utara, Kota Tangerang Selatan",PAPUA,15329.0,Indonesia,8129035312.0,,,-6.2650513,106.6557761,https://maps.google.com/?cid=0x0:0xf55f7bce30173872,
building materials,Pemasok Bahan Bangunan,PT. Grolen New Building Material Indonesia,"Jl. Bypass Krian No.Km.35, Parengan, Kraton, Kec. Krian, Kabupaten Sidoarjo, Jawa Timur 61262","Parengan, Kraton, Kec. Krian, Kabupaten Sidoarjo",PAPUA,61262.0,Indonesia,3199893313.0,,,-7.4056583,112.5580258,https://maps.google.com/?cid=0x0:0x5eac0691616fdff7,
building materials,Toko Bahan Bangunan,à¸à¸à¸. à¸ªà¸´à¸à¸à¸´à¸à¸±à¸à¸à¸¸à¹ à¸¡à¸´à¸à¸à¹à¹à¸®à¸¡,"157 à¸«à¸¡à¸¹à¹8 Nong Chok, Bangkok 10530, Thailand",Bangkok,PAPUA,10530.0,Indonesia,66944746563.0,,,13.8571634,100.8672928,https://maps.google.com/?cid=0x0:0x53a6987f07a48b62,
building materials,Gudang,Bottega  Artisan - Official,"Alam Sutera, Jl. Jalur Sutera No.23D, RT.002/RW.006, Panunggangan Tim., Kec. Pinang, Kota Tangerang, Banten 15143","Jl. Jalur Sutera No.23D, RT.002/RW.006, Panunggangan Tim., Kec. Pinang, Kota Tangerang",PAPUA,15143.0,Indonesia,81120209000.0,,,-6.2306425,106.6583423,https://maps.google.com/?cid=0x0:0x3377c0b176995a72,
building materials,Toko Bahan Bangunan,PT Global Indonesia Asia Sejahtera (GIAS Jambi),"Paal Merah, Kec. Jambi Sel., Kota Jambi, Jambi 36126","Kec. Jambi Sel., Kota Jambi",PAPUA,36126.0,Indonesia,741572377.0,,,-1.6390555,103.6376819,https://maps.google.com/?cid=0x0:0x626c8b48fc9f222e,
building materials,building materials,Distrik Dimba,"Kabupaten Lanny Jaya, Papua","Kabupaten Lanny Jaya, Papua",PAPUA,,Indonesia,,,,-3.8454051,138.5426379,https://maps.google.com/?cid=0x0:0x36c26bec90d3b953,
building materials,Toko Bahan Bangunan,Depo Bangunan Mbanyu Mili,"3VQM+2GP depan balai kampung sp 2, Prafi Mulia, Distrik Prafi, Kabupaten Manokwari, Papua Bar. 98356","Prafi Mulia, Distrik Prafi, Kabupaten Manokwari",PAPUA,98356.0,Indonesia,85254126242.0,,,-0.9124191,133.8838245,https://maps.google.com/?cid=0x0:0x72bb281db456c91a,
building materials,Toko Bahan Bangunan,TOKO SEMUWA,"Jl. Raya Doyo Baru, Doyo Baru, Distrik Waibu, Kabupaten Jayapura, Papua 99352","Doyo Baru, Distrik Waibu, Kabupaten Jayapura",PAPUA,99352.0,Indonesia,,,,-2.5412248,140.467993,https://maps.google.com/?cid=0x0:0x730a161bc4f81b34,
building materials,Toko Bahan Bangunan,Mj jaya,"Jl. Polres Sentani No. 4, Doyo Baru, Walibu, Doyo Baru, Distrik Waibu, Kabupaten Jayapura, Papua 99352","Doyo Baru, Walibu, Doyo Baru, Distrik Waibu, Kabupaten Jayapura",PAPUA,99352.0,Indonesia,82225559371.0,,,-2.5395027,140.4631717,https://maps.google.com/?cid=0x0:0x5375d617a30d59eb,
building materials,Toko Bahan Bangunan,toko bangunan Yep'Mum,"4Q38+6C4, Jl. Garuda, Arso Kota, Kec. Arso, Kabupaten Keerom, Papua 99468","Jl. Garuda, Arso Kota, Kec. Arso, Kabupaten Keerom",PAPUA,99468.0,Indonesia,85244664394.0,,,-2.8970308,140.7661616,https://maps.google.com/?cid=0x0:0x9649c22840d7e67e,
building materials,Toko Bahan Bangunan,Supermarket Multi Bangunan,"Jl Baru No.98, Wai Mhorock, Abepura, Jayapura City, Papua 99225","Wai Mhorock, Abepura, Jayapura City",PAPUA,99225.0,Indonesia,967588677.0,,,-2.6077336,140.6742812,https://maps.google.com/?cid=0x0:0x3b19f301c68f1d6f,
building materials,Toko bahan makanan,Toko bangunan ABADI JAYA,"Jl. Raya sarmi No.blok A, Bunyom, Distrik Nimbokrang, Kabupaten Jayapura, Papua 99361","Bunyom, Distrik Nimbokrang, Kabupaten Jayapura",PAPUA,99361.0,Indonesia,85382577209.0,,,-2.557175,140.1088301,https://maps.google.com/?cid=0x0:0x1ca51d4d8a0ae01a,
building materials,Toko,Toko Dua Sahabat/Jotun,"Jln. Trans Papua kilo 2, Kabupaten Boven Digoel","Kabupaten Boven Digoel, Papua",PAPUA,,Indonesia,,,,-6.0959217,140.3245587,https://maps.google.com/?cid=0x0:0xe788284fb59d6345,
building materials,Toko Bahan Bangunan,"Papua Bangunan, CV PAPUA ABADI","Jl. Basuki Rahmat No.780, Klawuyuk, Distrik Sorong Timur, Kota Sorong, Papua Bar. 98416","Klawuyuk, Distrik Sorong Timur, Kota Sorong",PAPUA,98416.0,Indonesia,81332017550.0,,,-0.8954087,131.3186922,https://maps.google.com/?cid=0x0:0x851804bc3aa7f033,
building materials,Toko Bahan Bangunan,TOKO BANGUNAN DIKA JAYA,"Jl. Dermaga Aikai. Enarotali Distrik Paniai Timur Kabupaten Paniai. Papua, Aikai, Paniai Tim., Enarotali, Papua 98711","Aikai, Paniai Tim., Enarotali",PAPUA,98711.0,Indonesia,81935935177.0,,,-3.9309089,136.3727901,https://maps.google.com/?cid=0x0:0x814ba48a8059765f,
building materials,Toko,DEPO BANGUNAN ANTARA,"9P3V+RPW, Jl. Utarum - Pasir Lombo Kaimana, Kroy, Kec. Kaimana, Kabupaten Kaimana, Papua Bar. 98654","Jl. Utarum - Pasir Lombo Kaimana, Kroy, Kec. Kaimana, Kabupaten Kaimana",PAPUA,98654.0,Indonesia,82139058164.0,,,-3.645392,133.7443299,https://maps.google.com/?cid=0x0:0xf09af454314ce848,
building materials,Toko Bahan Bangunan,Tiptore Building Material,"Jl. Poros Kuda Mati, Klp. Lima, Kec. Merauke, Kabupaten Merauke, Papua 99616","Klp. Lima, Kec. Merauke, Kabupaten Merauke",PAPUA,99616.0,Indonesia,82293657714.0,,,-8.5061763,140.4257632,https://maps.google.com/?cid=0x0:0xbf132c61e5517b30,
building materials,Toko Bahan Bangunan,TOKO BAHAN BANGUNAN âTRINITY HOMEâ,"Jalan Baru Pasar Lama, Wahno, Kec. Abepura, Kota Jayapura, Papua 99224","Wahno, Kec. Abepura, Kota Jayapura",PAPUA,99224.0,Indonesia,81232337934.0,,,-2.5958248,140.6809957,https://maps.google.com/?cid=0x0:0x41c321d86b054228,
building materials,Toko Bahan Bangunan,PAPUA BANGUNAN,"42GX+945, Wosi, Kec. Manokwari Bar., Kabupaten Manokwari, Papua Bar. 98312","Wosi, Kec. Manokwari Bar., Kabupaten Manokwari",PAPUA,98312.0,Indonesia,82198055550.0,,,-0.874101,134.0478473,https://maps.google.com/?cid=0x0:0x2c3683b193d9430f,
building materials,Pemotongan Kayu,Kantor kaca PT.SWPI,"Tim, Awunawai, Distrik Yapen Timur, Kabupaten Kepulauan Yapen, Papua 98252","Awunawai, Distrik Yapen Timur, Kabupaten Kepulauan Yapen",PAPUA,98252.0,Indonesia,,,,-1.8226475,136.7595672,https://maps.google.com/?cid=0x0:0xce8e51c2e764af51,
building materials,Toko bahan makanan,Toko Inti Pembangunan,"Sawar, Kec. Sarmi, Kabupaten Sarmi, Papua 99373","Kec. Sarmi, Kabupaten Sarmi",PAPUA,99373.0,Indonesia,81286929260.0,,,-1.8888753,138.7523781,https://maps.google.com/?cid=0x0:0xc62de493673b96c9,
building materials,Toko Bahan Bangunan,Pridia Toko Bangunan,"Jl. Raya Kemiri, Hinekombe, Kec. Sentani, Kabupaten Jayapura, Papua 99352","Hinekombe, Kec. Sentani, Kabupaten Jayapura",PAPUA,99352.0,Indonesia,967593251.0,,,-2.5652582,140.506106,https://maps.google.com/?cid=0x0:0xb1cbda9c54716314,
building materials,Toko Bahan Bangunan,Toko Bangunan Abadi Mandiri,"Jalan Poros Kakap Selatan, Jaifuri, Kec. Arso, Kabupaten Keerom, Papua 99468","Jaifuri, Kec. Arso, Kabupaten Keerom",PAPUA,99468.0,Indonesia,,,,-2.7865811,140.6195175,https://maps.google.com/?cid=0x0:0xae359660efbce11c,
building materials,Toko Bahan Bangunan,Toko Bangunan Agung Papua,"CJ2P+W8F, Jl. Raya Waena, Kp. Waena, Kec. Heram, Kota Jayapura, Papua 99351","Jl. Raya Waena, Kp. Waena, Kec. Heram, Kota Jayapura",PAPUA,99351.0,Indonesia,,,,-2.5976776,140.6357935,https://maps.google.com/?cid=0x0:0xe204736893cd26aa,
building materials,Toko Perlengkapan Rumah,"kios mitra(bangunan, dll)","4PHV+QV9, Asiaman, Kec. Arso, Kabupaten Keerom, Papua 99468","Asiaman, Kec. Arso, Kabupaten Keerom",PAPUA,99468.0,Indonesia,,,,-2.8705527,140.7453638,https://maps.google.com/?cid=0x0:0x9d79fbc97104de15,
building materials,Toserba,TOKO MAJU MAKMUR,"4R8F+95V, Udapi Hilir, Distrik Prafi, Kabupaten Manokwari, Papua Bar. 98356","Udapi Hilir, Distrik Prafi, Kabupaten Manokwari",PAPUA,98356.0,Indonesia,,,,-0.884108,133.8229369,https://maps.google.com/?cid=0x0:0x5dd0e3c69ab93bdc,
building materials,Toko Bahan Bangunan,Depo Bangunan Mbanyu Mili,"3VQM+2GP depan balai kampung sp 2, Prafi Mulia, Distrik Prafi, Kabupaten Manokwari, Papua Bar. 98356","Prafi Mulia, Distrik Prafi, Kabupaten Manokwari",PAPUA,98356.0,Indonesia,85254126242.0,,,-0.9124191,133.8838245,https://maps.google.com/?cid=0x0:0x72bb281db456c91a,
building materials,Toserba,TOKO MAJU MAKMUR,"4R8F+95V, Udapi Hilir, Distrik Prafi, Kabupaten Manokwari, Papua Bar. 98356","Udapi Hilir, Distrik Prafi, Kabupaten Manokwari",PAPUA,98356.0,Indonesia,,,,-0.884108,133.8229369,https://maps.google.com/?cid=0x0:0x5dd0e3c69ab93bdc,
building materials,building materials,Distrik Melagineri,"Kabupaten Lanny Jaya, Papua","Kabupaten Lanny Jaya, Papua",PAPUA,,Indonesia,,,,-3.9824061,138.3663998,https://maps.google.com/?cid=0x0:0x6c4ed0699cdb375,
building materials,building materials,Papua 99563,Papua,Papua,PAPUA,,Indonesia,,,,-3.9612229,138.1597946,https://maps.google.com/?cid=0x0:0xb123b70d10849bd1,
building materials,building materials,Kec. Balingga,"Kabupaten Lanny Jaya, Papua","Kabupaten Lanny Jaya, Papua",PAPUA,,Indonesia,,,,-4.130659,138.3589086,https://maps.google.com/?cid=0x0:0x59418e32c4fc4580,
building materials,Toko Bahan Bangunan,Bali Building Solutions,"Jl. Padang Udayana No.1, Padangsambian, Kec. Denpasar Bar., Kota Denpasar, Bali 80118","Padangsambian, Kec. Denpasar Bar., Kota Denpasar",PAPUA,80118.0,Indonesia,8113810033.0,,,-8.651246,115.1898701,https://maps.google.com/?cid=0x0:0xca57bc43f4a5c674,
building materials,building materials,Toko Mitra Bangunan,"8F8G+WJ5, Karubaga, Kec. Karubaga, Kabupaten Tolikara, Papua 99567","Karubaga, Kec. Karubaga, Kabupaten Tolikara",PAPUA,99567.0,Indonesia,81317225643.0,,,-3.682733,138.4766089,https://maps.google.com/?cid=0x0:0x94f019f9132886e9,
building materials,building materials,Kec. Balingga,"Kabupaten Lanny Jaya, Papua","Kabupaten Lanny Jaya, Papua",PAPUA,,Indonesia,,,,-4.130659,138.3589086,https://maps.google.com/?cid=0x0:0x59418e32c4fc4580,
building materials,Toko Bahan Bangunan,Tiptore Building Material,"Jl. Poros Kuda Mati, Klp. Lima, Kec. Merauke, Kabupaten Merauke, Papua 99616","Klp. Lima, Kec. Merauke, Kabupaten Merauke",PAPUA,99616.0,Indonesia,82293657714.0,,,-8.5061763,140.4257632,https://maps.google.com/?cid=0x0:0xbf132c61e5517b30,
building materials,Toko Bahan Bangunan,Optima,"FCR2+RPJ, Jl. Raya Mandala, Mandala, Kec. Merauke, Kabupaten Merauke, Papua 99615","Jl. Raya Mandala, Mandala, Kec. Merauke, Kabupaten Merauke",PAPUA,99615.0,Indonesia,,,,-8.5079058,140.4017668,https://maps.google.com/?cid=0x0:0x1f6ecf2372c263ce,
building materials,building materials,Distrik Tiomneri,"Kabupaten Lanny Jaya, Papua","Kabupaten Lanny Jaya, Papua",PAPUA,,Indonesia,,,,-3.8761181,138.4009177,https://maps.google.com/?cid=0x0:0x88f4e9020ef9ade8,
building materials,Toko,Jaya Bangun Utama,"6GH9+VPV, Unnamed Road, Iriati, Distrik Wasior, Kabupaten Teluk Wondama, Papua Bar. 98362","Unnamed Road, Iriati, Distrik Wasior, Kabupaten Teluk Wondama",PAPUA,98362.0,Indonesia,85298357980.0,,,-2.7702528,134.5193086,https://maps.google.com/?cid=0x0:0x7b7706dc36edb6d8,
building materials,Toko Bahan Bangunan,TOKO TOMIA UTAMA BANGUNAN,"7G87+W5P, Maniwak, Distrik Wasior, Kabupaten Teluk Wondama, Papua Bar. 98362","Maniwak, Distrik Wasior, Kabupaten Teluk Wondama",PAPUA,98362.0,Indonesia,81247372778.0,,,-2.7322358,134.5122614,https://maps.google.com/?cid=0x0:0x864ad61b8eeb23e4,
building materials,Gudang,PT KUS Building Supplies,"Jl. Pulau Nangka II Kav B 3-5, Komplek Pergudangan Daan Mogot Prima, Rw Buaya, RT.8/RW.2, Rw. Buaya, Kecamatan Cengkareng, Kota Jakarta Barat, Daerah Khusus Ibukota Jakarta 11740","Komplek Pergudangan Daan Mogot Prima, Rw Buaya, RT.8/RW.2, Rw. Buaya, Kecamatan Cengkareng, Kota Jakarta Barat",PAPUA,11740.0,Indonesia,2129024411.0,,,-6.1567473,106.7388307,https://maps.google.com/?cid=0x0:0x75a95e54a16a4270,
building materials,building materials,Papua 99556,Papua,Papua,PAPUA,,Indonesia,,,,-3.7561908,138.6589406,https://maps.google.com/?cid=0x0:0x5a2842ee64e9fe01,
building materials,Toko Bahan Bangunan,"Papua Bangunan, CV PAPUA ABADI","Jl. Basuki Rahmat No.780, Klawuyuk, Distrik Sorong Timur, Kota Sorong, Papua Bar. 98416","Klawuyuk, Distrik Sorong Timur, Kota Sorong",PAPUA,98416.0,Indonesia,81332017550.0,,,-0.8954087,131.3186922,https://maps.google.com/?cid=0x0:0x851804bc3aa7f033,
building materials,Toko Bahan Bangunan,Depo Bangunan Mbanyu Mili,"3VQM+2GP depan balai kampung sp 2, Prafi Mulia, Distrik Prafi, Kabupaten Manokwari, Papua Bar. 98356","Prafi Mulia, Distrik Prafi, Kabupaten Manokwari",PAPUA,98356.0,Indonesia,85254126242.0,,,-0.9124191,133.8838245,https://maps.google.com/?cid=0x0:0x72bb281db456c91a,
building materials,Toko Bahan Bangunan,Logam Indah UD,"Jl. Maluku Serui No.28, Serui Kota, Kec. Yapen Sel., Kabupaten Kepulauan Yapen, Papua 98213","Serui Kota, Kec. Yapen Sel., Kabupaten Kepulauan Yapen",PAPUA,98213.0,Indonesia,98331294.0,,,-1.8779526,136.2365759,https://maps.google.com/?cid=0x0:0xf5786c34fdbeaa00,
building materials,Toko Bahan Bangunan,Papua Karya Bakti,"VR6H+76P, Jl. Mangga Dua Abdad, RT.17/RW.11, Mangga Dua Sel., Kecamatan Sawah Besar, Kota Jakarta Pusat, Daerah Khusus Ibukota Jakarta 10730","Jl. Mangga Dua Abdad, RT.17/RW.11, Mangga Dua Sel., Kecamatan Sawah Besar, Kota Jakarta Pusat",PAPUA,10730.0,Indonesia,216018544.0,,,-6.139296,106.8280935,https://maps.google.com/?cid=0x0:0xa538f6438a760694,
building materials,Toko Bahan Bangunan,PT. Barito Pasifik Timber,"Jl. Koti No.8 A, Numbai, Distrik Jayapura Selatan, Kota Jayapura, Papua 99222","Numbai, Distrik Jayapura Selatan, Kota Jayapura",PAPUA,99222.0,Indonesia,967536672.0,,,-2.543737,140.706905,https://maps.google.com/?cid=0x0:0x3e2ccfcc476c37f1,
building materials,building materials,Toko Mitra Bangunan,"8F8G+WJ5, Karubaga, Kec. Karubaga, Kabupaten Tolikara, Papua 99567","Karubaga, Kec. Karubaga, Kabupaten Tolikara",PAPUA,99567.0,Indonesia,81317225643.0,,,-3.682733,138.4766089,https://maps.google.com/?cid=0x0:0x94f019f9132886e9,
building materials,building materials,Papua 99563,Papua,Papua,PAPUA,,Indonesia,,,,-3.9612229,138.1597946,https://maps.google.com/?cid=0x0:0xb123b70d10849bd1,
building materials,Toko Bahan Bangunan,Supermarket Multi Bangunan,"Jl Baru No.98, Wai Mhorock, Abepura, Jayapura City, Papua 99225","Wai Mhorock, Abepura, Jayapura City",PAPUA,99225.0,Indonesia,967588677.0,,,-2.6077336,140.6742812,https://maps.google.com/?cid=0x0:0x3b19f301c68f1d6f,
building materials,Toko Bahan Bangunan,PT. Barito Pasifik Timber,"Jl. Koti No.8 A, Numbai, Distrik Jayapura Selatan, Kota Jayapura, Papua 99222","Numbai, Distrik Jayapura Selatan, Kota Jayapura",PAPUA,99222.0,Indonesia,967536672.0,,,-2.543737,140.706905,https://maps.google.com/?cid=0x0:0x3e2ccfcc476c37f1,
building materials,building materials,Kec. Balingga,"Kabupaten Lanny Jaya, Papua","Kabupaten Lanny Jaya, Papua",PAPUA,,Indonesia,,,,-4.130659,138.3589086,https://maps.google.com/?cid=0x0:0x59418e32c4fc4580,
building materials,Toko Bahan Bangunan,Bali Building Solutions,"Jl. Padang Udayana No.1, Padangsambian, Kec. Denpasar Bar., Kota Denpasar, Bali 80118","Padangsambian, Kec. Denpasar Bar., Kota Denpasar",PAPUA,80118.0,Indonesia,8113810033.0,,,-8.651246,115.1898701,https://maps.google.com/?cid=0x0:0xca57bc43f4a5c674,
building materials,Toko Bahan Bangunan,BUILDING HARDWARE SOLUTION BALI,"Jl. Mahendradatta Selatan No.178, Padangsambian, Kec. Denpasar Bar., Kota Denpasar, Bali 80119","Padangsambian, Kec. Denpasar Bar., Kota Denpasar",PAPUA,80119.0,Indonesia,85783003968.0,,,-8.6830927,115.1886271,https://maps.google.com/?cid=0x0:0xd38ca0642e6459d2,
building materials,building materials,Toko Mitra Bangunan,"8F8G+WJ5, Karubaga, Kec. Karubaga, Kabupaten Tolikara, Papua 99567","Karubaga, Kec. Karubaga, Kabupaten Tolikara",PAPUA,99567.0,Indonesia,81317225643.0,,,-3.682733,138.4766089,https://maps.google.com/?cid=0x0:0x94f019f9132886e9,
building materials,building materials,Kec. Balingga,"Kabupaten Lanny Jaya, Papua","Kabupaten Lanny Jaya, Papua",PAPUA,,Indonesia,,,,-4.130659,138.3589086,https://maps.google.com/?cid=0x0:0x59418e32c4fc4580,
toko bangunan,toko bangunan,Distrik Tiom,"Kabupaten Lanny Jaya, Papua","Kabupaten Lanny Jaya, Papua",PAPUA,,Indonesia,,,,-3.9277573,138.4557817,https://maps.google.com/?cid=0x0:0x1bdc1c8bed88c23f,
toko bangunan,Toko Perlengkapan Rumah,TB. Tipon Jaya,"5RR7+3MR, Lembupunyo, Lembupurwo, Kec. Mirit, Kabupaten Kebumen, Jawa Tengah 54395","Lembupunyo, Lembupurwo, Kec. Mirit, Kabupaten Kebumen",PAPUA,54395.0,Indonesia,82324578043.0,,,-7.8097647,109.8141478,https://maps.google.com/?cid=0x0:0xdc934a9856b44273,
toko bangunan,Toko Bahan Bangunan,Toko Bangunan Rimba Jaya,"6R57+HQW, Krajan Timur, Patukgawemulyo, Kec. Mirit, Kabupaten Kebumen, Jawa Tengah 54395","Krajan Timur, Patukgawemulyo, Kec. Mirit, Kabupaten Kebumen",PAPUA,54395.0,Indonesia,81219925220.0,,,-7.791024,109.8144517,https://maps.google.com/?cid=0x0:0x1e37de325816fca7,
toko bangunan,toko bangunan,Toko Mitra Bangunan,"8F8G+WJ5, Karubaga, Kec. Karubaga, Kabupaten Tolikara, Papua 99567","Karubaga, Kec. Karubaga, Kabupaten Tolikara",PAPUA,99567.0,Indonesia,81317225643.0,,,-3.682733,138.4766089,https://maps.google.com/?cid=0x0:0x94f019f9132886e9,
toko bangunan,toko bangunan,Distrik Pirime,"Kabupaten Lanny Jaya, Papua","Kabupaten Lanny Jaya, Papua",PAPUA,,Indonesia,,,,-3.9709066,138.5398554,https://maps.google.com/?cid=0x0:0x29c8e21de16200b,
toko bangunan,toko bangunan,Pirime,"Distrik Pirime, Kabupaten Lanny Jaya, Papua","Kabupaten Lanny Jaya, Papua",PAPUA,,Indonesia,,,,-3.9796675,138.5237246,https://maps.google.com/?cid=0x0:0x8a23ad303f6ee4a7,
toko bangunan,Toko Bahan Bangunan,TB. SURYA PASIFIK,"Jl. Palem Indah No.10, Pd. Pucung, Kec. Pd. Aren, Kota Tangerang Selatan, Banten 15429","Pd. Pucung, Kec. Pd. Aren, Kota Tangerang Selatan",PAPUA,15429.0,Indonesia,8118957277.0,,,-6.2818993,106.7172954,https://maps.google.com/?cid=0x0:0xb5d55644be40a49e,
toko bangunan,Toko Bahan Bangunan,TOKO BANGUNAN DIKA JAYA,"Jl. Dermaga Aikai. Enarotali Distrik Paniai Timur Kabupaten Paniai. Papua, Aikai, Paniai Tim., Enarotali, Papua 98711","Aikai, Paniai Tim., Enarotali",PAPUA,98711.0,Indonesia,81935935177.0,,,-3.9309089,136.3727901,https://maps.google.com/?cid=0x0:0x814ba48a8059765f,
toko bangunan,Toko Bahan Bangunan,TOKO ADIPATI,"X72G+VV9, Unnamed Road, Wagete I, Kec. Tigi, Kabupaten Deiyai, Papua 98764","Unnamed Road, Wagete I, Kec. Tigi, Kabupaten Deiyai",PAPUA,98764.0,Indonesia,,,,-4.0478291,136.2772267,https://maps.google.com/?cid=0x0:0x5e5f483c1346142a,
toko bangunan,toko bangunan,Papua,,Papua,PAPUA,,Indonesia,,,,-4.269928,138.0803529,https://maps.google.com/?cid=0x0:0xeba94e9c5eefe673,
toko bangunan,Toko Swalayan,TOKO TALAGA MANDIRI,"Jln. Baliem, Massi, Kec. Dekai, Kabupaten Yahukimo, Papua 99702","Massi, Kec. Dekai, Kabupaten Yahukimo",PAPUA,99702.0,Indonesia,,,,-4.8683345,139.4792246,https://maps.google.com/?cid=0x0:0xf2142421622a7ed4,
toko bangunan,Toko Bahan Bangunan,TOKO BINTANG BANGUNAN,"Wai Mhorock, Kec. Abepura, Kota Jayapura, Papua 99225","Kec. Abepura, Kota Jayapura",PAPUA,99225.0,Indonesia,81211357969.0,,,-2.6065155,140.6747591,https://maps.google.com/?cid=0x0:0xedd7cb0b345a46c4,
toko bangunan,Toko Bahan Bangunan,Toko Maju Bangunan,"Jl. Mangga, Serui Kota, Kec. Yapen Sel., Kabupaten Kepulauan Yapen, Papua","Kabupaten Kepulauan Yapen, Papua",PAPUA,,Indonesia,,,,-1.8818407,136.2440069,https://maps.google.com/?cid=0x0:0xb489e2fdea623b09,
toko bangunan,toko bangunan,Toko Mitra Bangunan,"8F8G+WJ5, Karubaga, Kec. Karubaga, Kabupaten Tolikara, Papua 99567","Karubaga, Kec. Karubaga, Kabupaten Tolikara",PAPUA,99567.0,Indonesia,81317225643.0,,,-3.682733,138.4766089,https://maps.google.com/?cid=0x0:0x94f019f9132886e9,
toko bangunan,Toko Bahan Bangunan,Horukie Toko Bangunan,"R38J+883 Wa Toko Îá¨á¨-89Î3-Î541 kami, Fandoi, Kec. Biak Kota, Kabupaten Biak Numfor, Papua 98111","Fandoi, Kec. Biak Kota, Kabupaten Biak Numfor",PAPUA,98111.0,Indonesia,81344944374.0,,,-1.1842375,136.0807969,https://maps.google.com/?cid=0x0:0x9ef95c0249a63970,
toko bangunan,Toko Perlengkapan Rumah,Toko Bangunan Alvi Jaya Indah,"4PFV+QH8, Asiaman, Kec. Arso, Kabupaten Keerom, Papua 99468","Asiaman, Kec. Arso, Kabupaten Keerom",PAPUA,99468.0,Indonesia,81231225453.0,,,-2.875585,140.74395,https://maps.google.com/?cid=0x0:0x4b6b4fd47483a8a6,
toko bangunan,Toko Bahan Bangunan,Toko istana bangunan,"Legari Jaya, Makimi, Kabupaten Nabire, Papua 11087","Makimi, Kabupaten Nabire",PAPUA,11087.0,Indonesia,,,,-3.1686895,135.7463169,https://maps.google.com/?cid=0x0:0xd34d0e614c0d1bbc,
toko bangunan,Toko Bahan Bangunan,Toko Matrial,"6M6V+94M, Upt Arso XII / Traimilyan, Kec. Skanto, Kabupaten Keerom, Papua 99468","Upt Arso XII / Traimilyan, Kec. Skanto, Kabupaten Keerom",PAPUA,99468.0,Indonesia,82198629954.0,,,-2.7890377,140.6928093,https://maps.google.com/?cid=0x0:0x6b5906f3c0f111b2,
toko bangunan,Toko Bahan Bangunan,Toko bahan bangunan WIKA JAYA,"CJ4H+98P, Jl. Raya Sentani - Waena, Kp. Waena, Kec. Heram, Kota Jayapura, Papua 99351","Jl. Raya Sentani - Waena, Kp. Waena, Kec. Heram, Kota Jayapura",PAPUA,99351.0,Indonesia,,,,-2.5940232,140.628437,https://maps.google.com/?cid=0x0:0x7899e90c91cb28fb,
toko bangunan,Toko Bahan Bangunan,Toko SIGMA BANGUNAN,"37FM+2G5, Jl. Yos Sudarso, Tanama, Distrik Fakfak, Kabupaten Fakfak, Papua Bar. 98614","Jl. Yos Sudarso, Tanama, Distrik Fakfak, Kabupaten Fakfak",PAPUA,98614.0,Indonesia,,,,-2.9274959,132.2838546,https://maps.google.com/?cid=0x0:0x896756e6fcb2635d,
toko bangunan,Toko Bahan Bangunan,Toko Bangunan Lido,"9JWR+MWX, Hedam, Kec. Heram, Kota Jayapura, Papua","Kota Jayapura, Papua",PAPUA,,Indonesia,,,,-2.6032501,140.642373,https://maps.google.com/?cid=0x0:0xad1910e007cfc7ba,
toko bangunan,Toko Perlengkapan Rumah,Toko bangunan imam Maliki,"M67F+XF2, Jl. Manokwari - Bintuni, Margomulyo, Kec. Oransbari, Kab. Manokwari Selatan, Papua Bar. 98353","Jl. Manokwari - Bintuni, Margomulyo, Kec. Oransbari, Kab. Manokwari Selatan",PAPUA,98353.0,Indonesia,,,,-1.335116,134.2236557,https://maps.google.com/?cid=0x0:0x8146ca56ddd49935,
toko bangunan,Toko Bahan Bangunan,PAPUA BANGUNAN,"42GX+945, Wosi, Kec. Manokwari Bar., Kabupaten Manokwari, Papua Bar. 98312","Wosi, Kec. Manokwari Bar., Kabupaten Manokwari",PAPUA,98312.0,Indonesia,82198055550.0,,,-0.874101,134.0478473,https://maps.google.com/?cid=0x0:0x2c3683b193d9430f,
toko bangunan,,Toko bangunan Wahyu,"Jalan poros sp3, Makbusun, Mayamuk, Kabupaten Sorong, Papua Bar.","Kabupaten Sorong, Papua Bar.",PAPUA,,Indonesia,,,,-1.0336478,131.2906018,https://maps.google.com/?cid=0x0:0x751eb97fd9838c44,
toko bangunan,Toko Bahan Bangunan,TOKO KEYMART,"467R+FJ7, Jl. Diponegoro, Serui Kota, Kec. Yapen Sel., Kabupaten Kepulauan Yapen, Papua 98215","Jl. Diponegoro, Serui Kota, Kec. Yapen Sel., Kabupaten Kepulauan Yapen",PAPUA,98215.0,Indonesia,,,,-1.8862936,136.2415923,https://maps.google.com/?cid=0x0:0x114d109271fad46,
toko bangunan,Toko Bahan Bangunan,Toko Cat  Bangunan : MAKMUR BANGUNAN,"Jl. Percetakan Negara No.66D, Johar Baru, Kec. Johar Baru, Kota Jakarta Pusat, Daerah Khusus Ibukota Jakarta 10560","Johar Baru, Kec. Johar Baru, Kota Jakarta Pusat",PAPUA,10560.0,Indonesia,87885709000.0,,,-6.1881347,106.8633217,https://maps.google.com/?cid=0x0:0x7d97590353e5c577,
toko bangunan,Toko bahan makanan,Makishi Fish Market,"Ruko Golf Island, Jl. Pantai Indah Kapuk No.20, Kec. Penjaringan, Daerah Khusus Ibukota Jakarta 14470","Jl. Pantai Indah Kapuk No.20, Kec. Penjaringan",PAPUA,14470.0,Indonesia,82180000528.0,,,-6.0946601,106.7434256,https://maps.google.com/?cid=0x0:0x1562efb0c4098301,
toko bangunan,toko bangunan,Papua 99556,Papua,Papua,PAPUA,,Indonesia,,,,-3.7561908,138.6589406,https://maps.google.com/?cid=0x0:0x5a2842ee64e9fe01,
toko bangunan,toko bangunan,Distrik Gamelia,"Kabupaten Lanny Jaya, Papua","Kabupaten Lanny Jaya, Papua",PAPUA,,Indonesia,,,,-3.8864208,138.6713122,https://maps.google.com/?cid=0x0:0xd4cdc850c1f0ad1b,
toko bangunan,toko bangunan,Gamelia,"Distrik Gamelia, Kabupaten Lanny Jaya, Papua","Kabupaten Lanny Jaya, Papua",PAPUA,,Indonesia,,,,-3.8878224,138.5637543,https://maps.google.com/?cid=0x0:0x861ab72e22c3a6f2,
toko bangunan,toko bangunan,Toko Mitra Bangunan,"8F8G+WJ5, Karubaga, Kec. Karubaga, Kabupaten Tolikara, Papua 99567","Karubaga, Kec. Karubaga, Kabupaten Tolikara",PAPUA,99567.0,Indonesia,81317225643.0,,,-3.682733,138.4766089,https://maps.google.com/?cid=0x0:0x94f019f9132886e9,
toko bangunan,Toko Bahan Bangunan,TOKO BANGUNAN DIMAS,"Jl. Inspeksi Kali Grogol, Jl. Palmerah Utara No.19, RT.6/RW.7, Palmerah, Kec. Palmerah, Kota Jakarta Barat, Daerah Khusus Ibukota Jakarta 11480","Jl. Palmerah Utara No.19, RT.6/RW.7, Palmerah, Kec. Palmerah, Kota Jakarta Barat",PAPUA,11480.0,Indonesia,83892793352.0,,,-6.2050829,106.7927509,https://maps.google.com/?cid=0x0:0x91491aa9bbbc36b2,
toko bangunan,Toko Bahan Bangunan,TB. Bima Karya Bangunan,"Jl. Kemanggisan Pulo No.45, RT.5/RW.7, Palmerah, Kec. Palmerah, Kota Jakarta Barat, Daerah Khusus Ibukota Jakarta 11480","RT.5/RW.7, Palmerah, Kec. Palmerah, Kota Jakarta Barat",PAPUA,11480.0,Indonesia,83160635260.0,,,-6.200812,106.7901941,https://maps.google.com/?cid=0x0:0x4c0cce036e1d580d,
toko bangunan,toko bangunan,Papua 99563,Papua,Papua,PAPUA,,Indonesia,,,,-3.9612229,138.1597946,https://maps.google.com/?cid=0x0:0xb123b70d10849bd1,
toko bangunan,Toko bahan makanan,Toko bangunan ABADI JAYA,"Jl. Raya sarmi No.blok A, Bunyom, Distrik Nimbokrang, Kabupaten Jayapura, Papua 99361","Bunyom, Distrik Nimbokrang, Kabupaten Jayapura",PAPUA,99361.0,Indonesia,85382577209.0,,,-2.557175,140.1088301,https://maps.google.com/?cid=0x0:0x1ca51d4d8a0ae01a,
toko bangunan,Toko Bahan Bangunan,Mulia Jaya Toko Bangunan,"WW9Q+9M5, Jl. Hom-Hom, Hetuma, Distrik Wamena, Kabupaten Jayawijaya, Papua 99511","Jl. Hom-Hom, Hetuma, Distrik Wamena, Kabupaten Jayawijaya",PAPUA,99511.0,Indonesia,82121654001.0,,,-4.0816058,138.9392432,https://maps.google.com/?cid=0x0:0xe35085cf901d3afb,
toko bangunan,Toko Bahan Bangunan,Supermarket Multi Bangunan,"Jl Baru No.98, Wai Mhorock, Abepura, Jayapura City, Papua 99225","Wai Mhorock, Abepura, Jayapura City",PAPUA,99225.0,Indonesia,967588677.0,,,-2.6077336,140.6742812,https://maps.google.com/?cid=0x0:0x3b19f301c68f1d6f,
toko bangunan,Toko Bahan Bangunan,Toko bahan bangunan WIKA JAYA,"CJ4H+98P, Jl. Raya Sentani - Waena, Kp. Waena, Kec. Heram, Kota Jayapura, Papua 99351","Jl. Raya Sentani - Waena, Kp. Waena, Kec. Heram, Kota Jayapura",PAPUA,99351.0,Indonesia,,,,-2.5940232,140.628437,https://maps.google.com/?cid=0x0:0x7899e90c91cb28fb,
toko bangunan,Toko Bahan Bangunan,Toko Bangunan Agung Papua,"CJ2P+W8F, Jl. Raya Waena, Kp. Waena, Kec. Heram, Kota Jayapura, Papua 99351","Jl. Raya Waena, Kp. Waena, Kec. Heram, Kota Jayapura",PAPUA,99351.0,Indonesia,,,,-2.5976776,140.6357935,https://maps.google.com/?cid=0x0:0xe204736893cd26aa,
toko bangunan,toko bangunan,Papua 99563,Papua,Papua,PAPUA,,Indonesia,,,,-3.9612229,138.1597946,https://maps.google.com/?cid=0x0:0xb123b70d10849bd1,
toko bangunan,toko bangunan,Kec. Balingga,"Kabupaten Lanny Jaya, Papua","Kabupaten Lanny Jaya, Papua",PAPUA,,Indonesia,,,,-4.130659,138.3589086,https://maps.google.com/?cid=0x0:0x59418e32c4fc4580,
toko bangunan,Toko Bahan Bangunan,TOKO BANGUNAN GKL3,"Perumahan Griya Mulia Indah Jalan Sampora Blok G3 No.22, Jayamulya, Kec. Serang Baru, Kabupaten Bekasi, Jawa Barat 17330","Jayamulya, Kec. Serang Baru, Kabupaten Bekasi",PAPUA,17330.0,Indonesia,83815578040.0,,,-6.4219874,107.0784352,https://maps.google.com/?cid=0x0:0x12f020702e58df8,
toko bangunan,toko bangunan,Toko Mitra Bangunan,"8F8G+WJ5, Karubaga, Kec. Karubaga, Kabupaten Tolikara, Papua 99567","Karubaga, Kec. Karubaga, Kabupaten Tolikara",PAPUA,99567.0,Indonesia,81317225643.0,,,-3.682733,138.4766089,https://maps.google.com/?cid=0x0:0x94f019f9132886e9,
toko bangunan,toko bangunan,Toko Mitra Bangunan,"8F8G+WJ5, Karubaga, Kec. Karubaga, Kabupaten Tolikara, Papua 99567","Karubaga, Kec. Karubaga, Kabupaten Tolikara",PAPUA,99567.0,Indonesia,81317225643.0,,,-3.682733,138.4766089,https://maps.google.com/?cid=0x0:0x94f019f9132886e9,
toko bangunan,toko bangunan,Distrik Tiomneri,"Kabupaten Lanny Jaya, Papua","Kabupaten Lanny Jaya, Papua",PAPUA,,Indonesia,,,,-3.8761181,138.4009177,https://maps.google.com/?cid=0x0:0x88f4e9020ef9ade8,
toko bangunan,Toko Bahan Bangunan,Toko Bangunan Mutiara timur,"CJ3R+33F, Unnamed Road, Kp. Waena, Kec. Heram, Kota Jayapura, Papua 99225","Unnamed Road, Kp. Waena, Kec. Heram, Kota Jayapura",PAPUA,99225.0,Indonesia,,,,-2.5973134,140.6401625,https://maps.google.com/?cid=0x0:0x392e56b1342d758c,
toko bangunan,Toko,MATERIAL CIWUNI JAYA,"Pasuluhan, Kec. Walantaka, Kota Serang, Pabuaran, Kec. Walantaka, Kabupaten Serang, Banten 42183","Kec. Walantaka, Kota Serang, Pabuaran, Kec. Walantaka, Kabupaten Serang",PAPUA,42183.0,Indonesia,81911211100.0,,,-6.1623004,106.2359678,https://maps.google.com/?cid=0x0:0xb99b85e2c798b050,
toko bangunan,toko bangunan,Kuyawage,"Kec. Kuyawage, Kabupaten Lanny Jaya, Papua","Kabupaten Lanny Jaya, Papua",PAPUA,,Indonesia,,,,-4.0595007,137.9812152,https://maps.google.com/?cid=0x0:0xdf8f10dd57680968,
toko bangunan,toko bangunan,Papua 99563,Papua,Papua,PAPUA,,Indonesia,,,,-3.9612229,138.1597946,https://maps.google.com/?cid=0x0:0xb123b70d10849bd1,
toko bangunan,Toko Bahan Bangunan,Toko bahan bangunan WIKA JAYA,"CJ4H+98P, Jl. Raya Sentani - Waena, Kp. Waena, Kec. Heram, Kota Jayapura, Papua 99351","Jl. Raya Sentani - Waena, Kp. Waena, Kec. Heram, Kota Jayapura",PAPUA,99351.0,Indonesia,,,,-2.5940232,140.628437,https://maps.google.com/?cid=0x0:0x7899e90c91cb28fb,
toko bangunan,Jawa,Lalapan larasati,"CJ4H+98P, Jl. Raya Sentani - Waena, Kp. Waena, Kec. Heram, Kota Jayapura, Papua","Kota Jayapura, Papua",PAPUA,,Indonesia,,,,-2.5940414,140.6283275,https://maps.google.com/?cid=0x0:0x235eeeefcada1881,
toko bangunan,Toko Bahan Bangunan,Tuongku Jaya 3,"Jl. H. Jian No.10, RT.1/RW.3, Cipete Utara, Kec. Kby. Baru, Kota Jakarta Selatan, Daerah Khusus Ibukota Jakarta 12150","RT.1/RW.3, Cipete Utara, Kec. Kby. Baru, Kota Jakarta Selatan",PAPUA,12150.0,Indonesia,82113646433.0,,,-6.2610081,106.8057354,https://maps.google.com/?cid=0x0:0xae3e11be04a8f6d7,
toko bangunan,Toko Bahan Bangunan,Tuongku Jaya 6,"Jl. Jati Padang Raya No.16 7, RT.5/RW.3, Jati Padang, Ps. Minggu, Kota Jakarta Selatan, Daerah Khusus Ibukota Jakarta 12540","RT.5/RW.3, Jati Padang, Ps. Minggu, Kota Jakarta Selatan",PAPUA,12540.0,Indonesia,81287749106.0,,,-6.2883005,106.8291401,https://maps.google.com/?cid=0x0:0xdb9d9b6269fc75b8,
toko bangunan,toko bangunan,Papua 99556,Papua,Papua,PAPUA,,Indonesia,,,,-3.7561908,138.6589406,https://maps.google.com/?cid=0x0:0x5a2842ee64e9fe01,
toko bangunan,toko bangunan,Distrik Poga,"Kabupaten Lanny Jaya, Papua","Kabupaten Lanny Jaya, Papua",PAPUA,,Indonesia,,,,-3.8191274,138.5288912,https://maps.google.com/?cid=0x0:0x9bf4407b1fd21fa9,
toko bangunan,Toko Bahan Bangunan,Guna Karya. TB,"1, Jl. Muria Tanjakan No.20, RT.2/RW.2, Menteng Atas, Kecamatan Setiabudi, Kota Jakarta Selatan, Daerah Khusus Ibukota Jakarta 12960","Jl. Muria Tanjakan No.20, RT.2/RW.2, Menteng Atas, Kecamatan Setiabudi, Kota Jakarta Selatan",PAPUA,12960.0,Indonesia,81513523232.0,,,-6.2108588,106.8379406,https://maps.google.com/?cid=0x0:0x4547815bf964f6cb,
toko bangunan,toko bangunan,Papua 99563,Papua,Papua,PAPUA,,Indonesia,,,,-3.9612229,138.1597946,https://maps.google.com/?cid=0x0:0xb123b70d10849bd1,
toko bangunan,toko bangunan,Kec. Balingga,"Kabupaten Lanny Jaya, Papua","Kabupaten Lanny Jaya, Papua",PAPUA,,Indonesia,,,,-4.130659,138.3589086,https://maps.google.com/?cid=0x0:0x59418e32c4fc4580,
toko bangunan,Toko Bahan Bangunan,TOKO BANGUNAN GKL3,"Perumahan Griya Mulia Indah Jalan Sampora Blok G3 No.22, Jayamulya, Kec. Serang Baru, Kabupaten Bekasi, Jawa Barat 17330","Jayamulya, Kec. Serang Baru, Kabupaten Bekasi",PAPUA,17330.0,Indonesia,83815578040.0,,,-6.4219874,107.0784352,https://maps.google.com/?cid=0x0:0x12f020702e58df8,
toko bangunan,toko bangunan,Toko Mitra Bangunan,"8F8G+WJ5, Karubaga, Kec. Karubaga, Kabupaten Tolikara, Papua 99567","Karubaga, Kec. Karubaga, Kabupaten Tolikara",PAPUA,99567.0,Indonesia,81317225643.0,,,-3.682733,138.4766089,https://maps.google.com/?cid=0x0:0x94f019f9132886e9,
hardware store,hardware store,Distrik Tiom,"Kabupaten Lanny Jaya, Papua","Kabupaten Lanny Jaya, Papua",PAPUA,,Indonesia,,,,-3.9277573,138.4557817,https://maps.google.com/?cid=0x0:0x1bdc1c8bed88c23f,
hardware store,Pemasok aksesori perahu,PT. ANUGRAH SUKSES MARINE,"Jl. Cengkeh No.19 F 7, RT.7/RW.7, Pinangsia, Kec. Taman Sari, Kota Jakarta Barat, Daerah Khusus Ibukota Jakarta 11110","RT.7/RW.7, Pinangsia, Kec. Taman Sari, Kota Jakarta Barat",PAPUA,11110.0,Indonesia,216919595.0,,,-6.1324209,106.8121972,https://maps.google.com/?cid=0x0:0x25f85598830efa72,
hardware store,,Sumber Marine PD,"Jl. Cengkeh No.21B, RT.3/RW.6, Pinangsia, Kec. Taman Sari, Kota Jakarta Barat, Daerah Khusus Ibukota Jakarta 11110","RT.3/RW.6, Pinangsia, Kec. Taman Sari, Kota Jakarta Barat",PAPUA,11110.0,Indonesia,8176900631.0,,,-6.132253,106.8121759,https://maps.google.com/?cid=0x0:0x12d1ea6134291e2,
hardware store,Pasar,Sp 13,"FV3M+7FX, Kwamki, Kec. Mimika Baru, Kabupaten Mimika, Papua 99971","Kwamki, Kec. Mimika Baru, Kabupaten Mimika",PAPUA,99971.0,Indonesia,85386323991.0,,,-4.546759,136.8837207,https://maps.google.com/?cid=0x0:0x5a638596035fbeca,
hardware store,Toko umum,Pasar Rakyat SP-13 Bhintuka,"GRQ6+66M, Utikini Baru, Kec. Kuala Kencana, Kabupaten Mimika, Papua 99910","Utikini Baru, Kec. Kuala Kencana, Kabupaten Mimika",PAPUA,99910.0,Indonesia,51240500098.0,,,-4.4619131,136.8105494,https://maps.google.com/?cid=0x0:0x9e540b0e949deb67,
hardware store,Toko Bahan Bangunan,K-Primes Hardware Electrical  Agri Supply,"Saguday, Quirino, Filipina","Saguday, Quirino, Filipina",PAPUA,,Indonesia,,,,16.5399532,121.5639766,https://maps.google.com/?cid=0x0:0x32ae3da434d5a911,
hardware store,Toko Bahan Bangunan,Prime Depot Hardware  Construction Supply,"Brgy. P. Niogan Anilao Mabini, 4202 Batangas, Filipina","Mabini, Batangas, Filipina",PAPUA,,Indonesia,639278575992.0,,,13.7528278,120.9407635,https://maps.google.com/?cid=0x0:0xc964b03c10b9d612,
hardware store,Toko Bahan Bangunan,Mabini Construction Supply,"QW2R+V59, Mabini, 4202 Batangas, Filipina","Mabini, Batangas, Filipina",PAPUA,,Indonesia,,,,13.7522689,120.9404961,https://maps.google.com/?cid=0x0:0x6e8826fa2ca9559,
hardware store,Kios,Kios Magnet Rezeki,"C7QW+MG9, Jl. Irian Kepi, Kepi, Kec. Obaa, Kabupaten Mappi, Papua 99881","Jl. Irian Kepi, Kepi, Kec. Obaa, Kabupaten Mappi",PAPUA,99881.0,Indonesia,82398883636.0,,,-6.5603812,139.29617,https://maps.google.com/?cid=0x0:0x9935c49d03b065c5,
hardware store,Kios,KIOS MAIWA,"C8W2+4MX, Jl. Irian Kepi, Kepi, Kec. Obaa, Kabupaten Mappi, Papua 99881","Jl. Irian Kepi, Kepi, Kec. Obaa, Kabupaten Mappi",PAPUA,99881.0,Indonesia,,,,-6.5546301,139.3017373,https://maps.google.com/?cid=0x0:0x617df0ed68cff103,
hardware store,hardware store,Papua,,Papua,PAPUA,,Indonesia,,,,-4.269928,138.0803529,https://maps.google.com/?cid=0x0:0xeba94e9c5eefe673,
hardware store,Toko Bahan Bangunan,G. Flores Hardware,"X235+CFQ, Tagbilaran North Road, Clarin, Bohol, Filipina","Clarin, Bohol, Filipina",PAPUA,,Indonesia,,,,9.9535782,124.0087268,https://maps.google.com/?cid=0x0:0x4e769d7045cd2f37,
hardware store,Toko Bahan Bangunan,Virgilio Flores Hardware,"W37V+W76, Sagbayan, Bohol, Filipina","Sagbayan, Bohol, Filipina",PAPUA,,Indonesia,639215625988.0,,,9.9143047,124.0930981,https://maps.google.com/?cid=0x0:0x37d6e3bd83fc260c,
hardware store,Toko Bahan Bangunan,Badili Hardware - Lae,"Sect 29, Lot 7 Macdhui St, Lae, Papua Nugini","Lae, Papua Nugini",PAPUA,,Indonesia,6754731900.0,,,-6.7371068,146.9927215,https://maps.google.com/?cid=0x0:0x135d2e27bdc2fbcb,
hardware store,Toko Bahan Bangunan,GRACE HARDWARE  CONSTRUCTION SUPPLY,"Brgy. Putol Rd, San Jose, Batangas, Filipina","San Jose, Batangas, Filipina",PAPUA,,Indonesia,63437406491.0,,,13.8790595,121.0978212,https://maps.google.com/?cid=0x0:0x6db2a3d0911d039e,
hardware store,Toko Bahan Bangunan,S.J. Hardware,"V3FX+QC4, President Jose P. Laurel Hwy, San Jose, Batangas, Filipina","San Jose, Batangas, Filipina",PAPUA,,Indonesia,639178377878.0,,,13.8743862,121.0985795,https://maps.google.com/?cid=0x0:0x338f125b46b7f74a,
hardware store,Toko Bahan Bangunan,toko bangunan Yep'Mum,"4Q38+6C4, Jl. Garuda, Arso Kota, Kec. Arso, Kabupaten Keerom, Papua 99468","Jl. Garuda, Arso Kota, Kec. Arso, Kabupaten Keerom",PAPUA,99468.0,Indonesia,85244664394.0,,,-2.8970308,140.7661616,https://maps.google.com/?cid=0x0:0x9649c22840d7e67e,
hardware store,Toko Bahan Bangunan,TB Makmur Jaya,"Jl. Garuda kam yuwanain, Kec. Arso, Kabupaten Keerom, Papua 99361","Kec. Arso, Kabupaten Keerom",PAPUA,99361.0,Indonesia,85211831980.0,,,-2.897803,140.763938,https://maps.google.com/?cid=0x0:0xc3d55026b5b47915,
hardware store,Toko Bahan Bangunan,Badili Hardware Warehouse,"H3JJ+H4M Motukea, Port Moresby National Capital District, Papua Nugini","Port Moresby, Papua Nugini",PAPUA,,Indonesia,,,,-9.4185294,147.0802842,https://maps.google.com/?cid=0x0:0xeeba0610f3f60a02,
hardware store,Kamar Mandi Umum,Birchip Hardware store,"16 Cumming Ave, Birchip VIC 3483, Australia","Birchip VIC, Australia",PAPUA,,Indonesia,,,,-35.9828662,142.917785,https://maps.google.com/?cid=0x0:0xa7a9cdaa0db486b7,
hardware store,Kamar Mandi Umum,Public Toilets,"Birchip VIC 3483, Australia","Birchip VIC, Australia",PAPUA,,Indonesia,,,,-35.9797279,142.9115802,https://maps.google.com/?cid=0x0:0x8399f1c2f0e41496,
hardware store,hardware store,Papua 99563,Papua,Papua,PAPUA,,Indonesia,,,,-3.9612229,138.1597946,https://maps.google.com/?cid=0x0:0xb123b70d10849bd1,
hardware store,hardware store,Distrik Melagineri,"Kabupaten Lanny Jaya, Papua","Kabupaten Lanny Jaya, Papua",PAPUA,,Indonesia,,,,-3.9824061,138.3663998,https://maps.google.com/?cid=0x0:0x6c4ed0699cdb375,
hardware store,Toko Bahan Bangunan,Mabega Hardware Store,"C. MartÃ­nez Maldonado, 87, BailÃ©n-Miraflores, 29010 MÃ¡laga, Spanyol",MÃ¡laga,PAPUA,29010.0,Indonesia,34952090000.0,,,36.7213569,-4.4410379,https://maps.google.com/?cid=0x0:0x724326512787550d,
hardware store,Toko Bahan Bangunan,IDEAL Hardware Badili,"G5CH+P4V, Port Moresby National Capital District, Papua Nugini","Port Moresby, Papua Nugini",PAPUA,,Indonesia,67572020480.0,,,-9.4781441,147.1778033,https://maps.google.com/?cid=0x0:0xf8d36581cad3bd15,
hardware store,Toko Bahan Bangunan,IDEAL Hardware Erima,"H663+G96, Hubert Murray Hwy, Port Moresby National Capital District, Papua Nugini","Port Moresby, Papua Nugini",PAPUA,,Indonesia,,,,-9.4387057,147.2033947,https://maps.google.com/?cid=0x0:0xb0747cd07f864f3,
hardware store,hardware store,Kec. Balingga,"Kabupaten Lanny Jaya, Papua","Kabupaten Lanny Jaya, Papua",PAPUA,,Indonesia,,,,-4.130659,138.3589086,https://maps.google.com/?cid=0x0:0x59418e32c4fc4580,
hardware store,Toko Bahan Bangunan,Badili Hardware,"Klinki Street, Off Waigani Drive, Port Moresby, Papua Nugini","Port Moresby, Papua Nugini",PAPUA,,Indonesia,6753037200.0,,,-9.448217,147.182907,https://maps.google.com/?cid=0x0:0x575627342c3422aa,
hardware store,Toko Bahan Bangunan,Hardware Haus Depot,"G5WP+PRX, Port Moresby National Capital District, Papua Nugini","Port Moresby, Papua Nugini",PAPUA,,Indonesia,67579254555.0,,,-9.453144,147.1871122,https://maps.google.com/?cid=0x0:0x90af1a4bb255158c,
hardware store,Toko Bahan Bangunan,IDEAL Hardware Badili,"G5CH+P4V, Port Moresby National Capital District, Papua Nugini","Port Moresby, Papua Nugini",PAPUA,,Indonesia,67572020480.0,,,-9.4781441,147.1778033,https://maps.google.com/?cid=0x0:0xf8d36581cad3bd15,
hardware store,hardware store,Kec. Balingga,"Kabupaten Lanny Jaya, Papua","Kabupaten Lanny Jaya, Papua",PAPUA,,Indonesia,,,,-4.130659,138.3589086,https://maps.google.com/?cid=0x0:0x59418e32c4fc4580,
hardware store,Toko Bahan Bangunan,Tiptore Building Material,"Jl. Poros Kuda Mati, Klp. Lima, Kec. Merauke, Kabupaten Merauke, Papua 99616","Klp. Lima, Kec. Merauke, Kabupaten Merauke",PAPUA,99616.0,Indonesia,82293657714.0,,,-8.5061763,140.4257632,https://maps.google.com/?cid=0x0:0xbf132c61e5517b30,
hardware store,Toko Bahan Bangunan,Optima,"FCR2+RPJ, Jl. Raya Mandala, Mandala, Kec. Merauke, Kabupaten Merauke, Papua 99615","Jl. Raya Mandala, Mandala, Kec. Merauke, Kabupaten Merauke",PAPUA,99615.0,Indonesia,,,,-8.5079058,140.4017668,https://maps.google.com/?cid=0x0:0x1f6ecf2372c263ce,
hardware store,Toko Bahan Bangunan,BNBM HARDWARE MALAITA BRANCH,"7X9Q+CXG, Lae 411 Morobe Province, Papua Nugini","Lae, Papua Nugini",PAPUA,,Indonesia,6754726155.0,,,-6.7314343,146.9899444,https://maps.google.com/?cid=0x0:0xfea39eacef5b698e,
hardware store,Toko Bahan Bangunan,Casa Hardware,"575Q+7GR, Mount Hagen Western Highlands Province, Papua Nugini","Mount Hagen, Papua Nugini",PAPUA,,Indonesia,,,,-5.8417722,144.288756,https://maps.google.com/?cid=0x0:0x5572b0cd99723bb6,
hardware store,Toko Perlengkapan Rumah,Hardware Haus,"46PG+8P9, Highlands Hwy, Mount Hagen Western Highlands Province, Papua Nugini","Mount Hagen, Papua Nugini",PAPUA,,Indonesia,67573880325.0,,,-5.8642066,144.2268657,https://maps.google.com/?cid=0x0:0x76e2d5c7034f0bfa,
hardware store,Toko Bahan Bangunan,Pangangan Hardware,"WR49+WG3, Calape, Bohol, Filipina","Calape, Bohol, Filipina",PAPUA,,Indonesia,,,,9.9072679,123.8187912,https://maps.google.com/?cid=0x0:0x8e34a1dded6a4bc,
hardware store,hardware store,Papua 99556,Papua,Papua,PAPUA,,Indonesia,,,,-3.7561908,138.6589406,https://maps.google.com/?cid=0x0:0x5a2842ee64e9fe01,
hardware store,Toko Bahan Bangunan,Leon Enterprise Hardware,"H695+V6F, Port Moresby National Capital District, Papua Nugini","Port Moresby, Papua Nugini",PAPUA,,Indonesia,6753233332.0,,,-9.430317,147.2080566,https://maps.google.com/?cid=0x0:0x6c8b13d8f6cb1a60,
hardware store,Toko Perlengkapan Rumah,Leon Hardware Megastore Erima,"H695+Q2R, Hubert Murray Hwy, Port Moresby National Capital District, Papua Nugini","Port Moresby, Papua Nugini",PAPUA,,Indonesia,6753281777.0,,,-9.4305112,147.2075036,https://maps.google.com/?cid=0x0:0x33d77f6eb8f0259,
hardware store,Toko Elektronik,99 Parts,"Jl. KH. Hasyim Ashari No.73 75, RT.3/RW.5, Cideng, Gambir, Central Jakarta City, Jakarta 10150","RT.3/RW.5, Cideng, Gambir, Central Jakarta City",PAPUA,10150.0,Indonesia,,,,-6.166169,106.806876,https://maps.google.com/?cid=0x0:0x9d8a927c3a2dde15,
hardware store,Toko Bahan Bangunan,IDEAL Hardware Badili,"G5CH+P4V, Port Moresby National Capital District, Papua Nugini","Port Moresby, Papua Nugini",PAPUA,,Indonesia,67572020480.0,,,-9.4781441,147.1778033,https://maps.google.com/?cid=0x0:0xf8d36581cad3bd15,
hardware store,Toko Bahan Bangunan,IDEAL Hardware Erima,"H663+G96, Hubert Murray Hwy, Port Moresby National Capital District, Papua Nugini","Port Moresby, Papua Nugini",PAPUA,,Indonesia,,,,-9.4387057,147.2033947,https://maps.google.com/?cid=0x0:0xb0747cd07f864f3,
hardware store,hardware store,Kec. Balingga,"Kabupaten Lanny Jaya, Papua","Kabupaten Lanny Jaya, Papua",PAPUA,,Indonesia,,,,-4.130659,138.3589086,https://maps.google.com/?cid=0x0:0x59418e32c4fc4580,
hardware store,Toko Bahan Bangunan,Badili Hardware,"Klinki Street, Off Waigani Drive, Port Moresby, Papua Nugini","Port Moresby, Papua Nugini",PAPUA,,Indonesia,6753037200.0,,,-9.448217,147.182907,https://maps.google.com/?cid=0x0:0x575627342c3422aa,
hardware store,Toko Bahan Bangunan,Hardware Haus Depot,"G5WP+PRX, Port Moresby National Capital District, Papua Nugini","Port Moresby, Papua Nugini",PAPUA,,Indonesia,67579254555.0,,,-9.453144,147.1871122,https://maps.google.com/?cid=0x0:0x90af1a4bb255158c,
hardware store,Toko Bahan Bangunan,IDEAL Hardware Badili,"G5CH+P4V, Port Moresby National Capital District, Papua Nugini","Port Moresby, Papua Nugini",PAPUA,,Indonesia,67572020480.0,,,-9.4781441,147.1778033,https://maps.google.com/?cid=0x0:0xf8d36581cad3bd15,
hardware store,hardware store,Kec. Balingga,"Kabupaten Lanny Jaya, Papua","Kabupaten Lanny Jaya, Papua",PAPUA,,Indonesia,,,,-4.130659,138.3589086,https://maps.google.com/?cid=0x0:0x59418e32c4fc4580,
home improvement,home improvement,Distrik Tiom,"Kabupaten Lanny Jaya, Papua","Kabupaten Lanny Jaya, Papua",PAPUA,,Indonesia,,,,-3.9277573,138.4557817,https://maps.google.com/?cid=0x0:0x1bdc1c8bed88c23f,
home improvement,home improvement,Pirime,"Distrik Pirime, Kabupaten Lanny Jaya, Papua","Kabupaten Lanny Jaya, Papua",PAPUA,,Indonesia,,,,-3.9796675,138.5237246,https://maps.google.com/?cid=0x0:0x8a23ad303f6ee4a7,
home improvement,home improvement,Distrik Pirime,"Kabupaten Lanny Jaya, Papua","Kabupaten Lanny Jaya, Papua",PAPUA,,Indonesia,,,,-3.9709066,138.5398554,https://maps.google.com/?cid=0x0:0x29c8e21de16200b,
home improvement,Toko Bahan Bangunan,Prime Home Builder Enterprises,"South Road, National Highway, Banilad, Bacong, 6216 Negros Oriental, Filipina","Bacong, Negros Oriental, Filipina",PAPUA,,Indonesia,63355315665.0,,,9.2718491,123.2925201,https://maps.google.com/?cid=0x0:0x5cec32fa89bf7d81,
home improvement,Kantor Perusahaan,Hikari Prima Semesta. CV,"Ruko Niaga Zamrud Permata Legenda, JL. Mustika Jaya, Blok L.32 No.6, Lambangsari, Bekasi, Kabupaten Bekasi, Jawa Barat 17155","JL. Mustika Jaya, Blok L.32 No.6, Lambangsari, Bekasi, Kabupaten Bekasi",PAPUA,17155.0,Indonesia,2189321844.0,,,-6.2791053,107.0393545,https://maps.google.com/?cid=0x0:0xcc5f0039b2fd744c,
home improvement,Layanan Distribusi,Prima Media,"Daan Mogot Rd Blok B-03, Duri Kepa, Kebonjeruk, West Jakarta City, Jakarta 11750","Duri Kepa, Kebonjeruk, West Jakarta City",PAPUA,11750.0,Indonesia,2129672338.0,,,-6.164502,106.777546,https://maps.google.com/?cid=0x0:0x94ae47b5e9ca4168,
home improvement,,PT. Prima Media Investama,"Komplek Ruko Point 8 Blok B 03, Jl. Daan Mogot No.KM 14, RT.2/RW.14, 5, Kecamatan Cengkareng, Kota Jakarta Barat, Daerah Khusus Ibukota Jakarta 11840","Jl. Daan Mogot No.KM 14, RT.2/RW.14, 5, Kecamatan Cengkareng, Kota Jakarta Barat",PAPUA,11840.0,Indonesia,81770284595.0,,,-6.15479,106.7176729,https://maps.google.com/?cid=0x0:0x1ea1b669d88d4643,
home improvement,Produsen,"Hikari Prima Semesta, PT","Ruko Paviliun Shop, Jl. Industri Utara IV Blok SS No.39, Mekarmukti, Cikarang, Kabupaten Bekasi, Jawa Barat 17530","Jl. Industri Utara IV Blok SS No.39, Mekarmukti, Cikarang, Kabupaten Bekasi",PAPUA,17530.0,Indonesia,,,,-6.2989078,107.1595616,https://maps.google.com/?cid=0x0:0x7843f502cd6b5e34,
home improvement,Kantor Perusahaan,PT. PRIMAYUDHA MANDIRIJAYA (Sritex Group),"Dusun 3, Ngadirojo, Kec. Ampel, Kabupaten Boyolali, Jawa Tengah 57352","Ngadirojo, Kec. Ampel, Kabupaten Boyolali",PAPUA,57352.0,Indonesia,,,,-7.4208568,110.4985219,https://maps.google.com/?cid=0x0:0x721d976d2d87a6f8,
home improvement,Makanan Siap Saji,"Mcdonald's ,Matahari mall daan mogot","Mall, Jl. Daan Mogot No.km, RT.8/RW.12, Kalideres, Kec. Kalideres, Kota Jakarta Barat, Daerah Khusus Ibukota Jakarta 11840","Jl. Daan Mogot No.km, RT.8/RW.12, Kalideres, Kec. Kalideres, Kota Jakarta Barat",PAPUA,11840.0,Indonesia,8111927533.0,,,-6.1514036,106.7145228,https://maps.google.com/?cid=0x0:0x5ad8751dd5a7f44a,
home improvement,home improvement,Papua 99555,"Kabupaten Jayawijaya, Papua","Kabupaten Jayawijaya, Papua",PAPUA,,Indonesia,,,,-3.9034136,138.7593128,https://maps.google.com/?cid=0x0:0xed60d8d8dddb4cef,
home improvement,home improvement,Papua,,Papua,PAPUA,,Indonesia,,,,-4.269928,138.0803529,https://maps.google.com/?cid=0x0:0xeba94e9c5eefe673,
home improvement,Konsultan,PT. Makki  Makki,"Jl. Gatot Subroto No.Kav 27, RT.3/RW.3, Kuningan, Kuningan Tim., Kecamatan Setiabudi, Kota Jakarta Selatan, Daerah Khusus Ibukota Jakarta 12950","RT.3/RW.3, Kuningan, Kuningan Tim., Kecamatan Setiabudi, Kota Jakarta Selatan",PAPUA,12950.0,Indonesia,215260851.0,,,-6.2315821,106.821415,https://maps.google.com/?cid=0x0:0x53bb2d9168e6348d,
home improvement,Kantor Perusahaan,Menara Global,"Jl. Gatot Subroto No.Kav. 27, RT.3/RW.3, Kuningan, Kuningan Tim., Kecamatan Setiabudi, Kota Jakarta Selatan, Daerah Khusus Ibukota Jakarta 12950","RT.3/RW.3, Kuningan, Kuningan Tim., Kecamatan Setiabudi, Kota Jakarta Selatan",PAPUA,12950.0,Indonesia,215270050.0,,,-6.2315169,106.8214424,https://maps.google.com/?cid=0x0:0xdb83307ea3c79ea0,
home improvement,home improvement,Papua 99556,Papua,Papua,PAPUA,,Indonesia,,,,-3.7561908,138.6589406,https://maps.google.com/?cid=0x0:0x5a2842ee64e9fe01,
home improvement,home improvement,Distrik Gamelia,"Kabupaten Lanny Jaya, Papua","Kabupaten Lanny Jaya, Papua",PAPUA,,Indonesia,,,,-3.8864208,138.6713122,https://maps.google.com/?cid=0x0:0xd4cdc850c1f0ad1b,
home improvement,home improvement,Distrik Dimba,"Kabupaten Lanny Jaya, Papua","Kabupaten Lanny Jaya, Papua",PAPUA,,Indonesia,,,,-3.8454051,138.5426379,https://maps.google.com/?cid=0x0:0x36c26bec90d3b953,
home improvement,home improvement,Papua,,Papua,PAPUA,,Indonesia,,,,-4.269928,138.0803529,https://maps.google.com/?cid=0x0:0xeba94e9c5eefe673,
home improvement,Pemasok Produk Karet,Toko Lia Teknik,"Jl. Pangeran Jayakarta No.129 Blok C. 15, Mangga Dua Sel., Kecamatan Sawah Besar, Kota Jakarta Pusat, Daerah Khusus Ibukota Jakarta 10730","Mangga Dua Sel., Kecamatan Sawah Besar, Kota Jakarta Pusat",PAPUA,10730.0,Indonesia,81398867488.0,,,-6.1422455,106.8301839,https://maps.google.com/?cid=0x0:0x1591938ee1b8c787,
home improvement,home improvement,Papua 99563,Papua,Papua,PAPUA,,Indonesia,,,,-3.9612229,138.1597946,https://maps.google.com/?cid=0x0:0xb123b70d10849bd1,
home improvement,home improvement,Distrik Melagineri,"Kabupaten Lanny Jaya, Papua","Kabupaten Lanny Jaya, Papua",PAPUA,,Indonesia,,,,-3.9824061,138.3663998,https://maps.google.com/?cid=0x0:0x6c4ed0699cdb375,
home improvement,home improvement,Papua 99563,Papua,Papua,PAPUA,,Indonesia,,,,-3.9612229,138.1597946,https://maps.google.com/?cid=0x0:0xb123b70d10849bd1,
home improvement,Kantor Perusahaan,Tukang bangunan bali,"utara, Peguyangan, kangin, Kota Denpasar, Bali 80111","Peguyangan, kangin, Kota Denpasar",PAPUA,80111.0,Indonesia,85730357040.0,,,-8.6381065,115.2107539,https://maps.google.com/?cid=0x0:0xb3ee75961f609b8,
home improvement,Tukang Bangunan,Jasa Tukang Bangunan,"96PH+M66, Peguyangan Kangin, Kec. Denpasar Utara, Kota Denpasar, Bali 80238","Peguyangan Kangin, Kec. Denpasar Utara, Kota Denpasar",PAPUA,80238.0,Indonesia,87762383759.0,,,-8.6133317,115.2280285,https://maps.google.com/?cid=0x0:0xdb8ec28127c40758,
home improvement,home improvement,Papua 99567,"Kabupaten Lanny Jaya, Papua","Kabupaten Lanny Jaya, Papua",PAPUA,,Indonesia,,,,-3.8553159,138.4787258,https://maps.google.com/?cid=0x0:0x54dba557046d88de,
home improvement,home improvement,Kios Nefes Jaya,"8F8H+F6M, Karubaga, Kec. Karubaga, Kabupaten Tolikara, Papua","Kabupaten Tolikara, Papua",PAPUA,,Indonesia,,,,-3.6837916,138.4780573,https://maps.google.com/?cid=0x0:0xd60641ff7c33c1e4,
home improvement,home improvement,Daniel Malelak,"8F98+PF9, Biuk, Desa Suesama, Kabupaten Tolikara, Papua 99567","Biuk, Desa Suesama, Kabupaten Tolikara",PAPUA,99567.0,Indonesia,,,,-3.68071,138.4662327,https://maps.google.com/?cid=0x0:0x586e759df9b1e4a0,
home improvement,Kantor Perusahaan,Tukang bangunan bali,"utara, Peguyangan, kangin, Kota Denpasar, Bali 80111","Peguyangan, kangin, Kota Denpasar",PAPUA,80111.0,Indonesia,85730357040.0,,,-8.6381065,115.2107539,https://maps.google.com/?cid=0x0:0xb3ee75961f609b8,
home improvement,Tukang Bangunan,Jasa Tukang Bangunan,"96PH+M66, Peguyangan Kangin, Kec. Denpasar Utara, Kota Denpasar, Bali 80238","Peguyangan Kangin, Kec. Denpasar Utara, Kota Denpasar",PAPUA,80238.0,Indonesia,87762383759.0,,,-8.6133317,115.2280285,https://maps.google.com/?cid=0x0:0xdb8ec28127c40758,
home improvement,Dapur Umum,Tolineri,"39XC+6XX, Gubo, Distrik Tiomneri, Kabupaten Lanny Jaya, Papua","Kabupaten Lanny Jaya, Papua",PAPUA,,Indonesia,,,,-3.901893,138.372498,https://maps.google.com/?cid=0x0:0xd513966501ef21f6,
home improvement,Dapur Umum,Waney,"49GW+9V, Gubo, Distrik Tiomneri, Kabupaten Lanny Jaya, Papua","Kabupaten Lanny Jaya, Papua",PAPUA,,Indonesia,,,,-3.8740394,138.3971817,https://maps.google.com/?cid=0x0:0x427d17a898c761a3,
home improvement,home improvement,Distrik Tiomneri,"Kabupaten Lanny Jaya, Papua","Kabupaten Lanny Jaya, Papua",PAPUA,,Indonesia,,,,-3.8761181,138.4009177,https://maps.google.com/?cid=0x0:0x88f4e9020ef9ade8,
home improvement,home improvement,Kuyawage,"Kec. Kuyawage, Kabupaten Lanny Jaya, Papua","Kabupaten Lanny Jaya, Papua",PAPUA,,Indonesia,,,,-4.0595007,137.9812152,https://maps.google.com/?cid=0x0:0xdf8f10dd57680968,
home improvement,home improvement,Papua 99563,Papua,Papua,PAPUA,,Indonesia,,,,-3.9612229,138.1597946,https://maps.google.com/?cid=0x0:0xb123b70d10849bd1,
home improvement,home improvement,Kec. Kuyawage,"Kabupaten Lanny Jaya, Papua","Kabupaten Lanny Jaya, Papua",PAPUA,,Indonesia,,,,-4.01763,138.2047116,https://maps.google.com/?cid=0x0:0x7faf54ce606c3408,
home improvement,home improvement,Papua 99556,Papua,Papua,PAPUA,,Indonesia,,,,-3.7561908,138.6589406,https://maps.google.com/?cid=0x0:0x5a2842ee64e9fe01,
home improvement,Pemasok kunci,evomab,"Green Sedayu Bizpark Blok DM1 No.68, Jalan Daan Mogot Raya KM 18, Kalideres, RT.11/RW.6, Kalideres, Kec. Kalideres, Kota Jakarta Barat, Daerah Khusus Ibukota Jakarta 11850","Jalan Daan Mogot Raya KM 18, Kalideres, RT.11/RW.6, Kalideres, Kec. Kalideres, Kota Jakarta Barat",PAPUA,11850.0,Indonesia,2122952602.0,,,-6.1560283,106.6904625,https://maps.google.com/?cid=0x0:0x76b15ba1d7eb32b1,
home improvement,home improvement,,,,PAPUA,,Indonesia,8818807897.0,,,-6.2297465,106.829518,https://maps.google.com/?cid=0x0:0x369086e8162837,
home improvement,Toko Video Game,PS Enterprise,"ITC Mangga Dua, Jl. Mangga Dua Raya No.33 Lt. 2 Blok D, Ancol, Kec. Pademangan, Jkt Utara, Daerah Khusus Ibukota Jakarta 14430","Jl. Mangga Dua Raya No.33 Lt. 2 Blok D, Ancol, Kec. Pademangan, Jkt Utara",PAPUA,14430.0,Indonesia,2162300767.0,,,-6.1357258,106.8249841,https://maps.google.com/?cid=0x0:0xab3d2a1560345216,
home improvement,home improvement,Papua 99563,Papua,Papua,PAPUA,,Indonesia,,,,-3.9612229,138.1597946,https://maps.google.com/?cid=0x0:0xb123b70d10849bd1,
home improvement,Perusahaan Konstruksi,Bali Home Fix,"Jl. Sunset Road No.9a, Seminyak, Kec. Kuta, Kabupaten Badung, Bali 80361","Seminyak, Kec. Kuta, Kabupaten Badung",PAPUA,80361.0,Indonesia,81337886275.0,,,-8.689817,115.1729214,https://maps.google.com/?cid=0x0:0x9659c1761b4260e4,
home improvement,Perusahaan Konstruksi,Bali Home Fix Branch Office,"Jl Padang Luwih Gg Pura Bajangan.9A, Dalung, Badung, Bali. 80363, Denpasar, Bali 80361","Dalung, Badung, Bali.",PAPUA,80363.0,Indonesia,82235380025.0,,,-8.6276344,115.1757639,https://maps.google.com/?cid=0x0:0x2c321477502bcd7f,
home improvement,home improvement,Papua 99567,"Kabupaten Lanny Jaya, Papua","Kabupaten Lanny Jaya, Papua",PAPUA,,Indonesia,,,,-3.8553159,138.4787258,https://maps.google.com/?cid=0x0:0x54dba557046d88de,
home improvement,home improvement,Kios Nefes Jaya,"8F8H+F6M, Karubaga, Kec. Karubaga, Kabupaten Tolikara, Papua","Kabupaten Tolikara, Papua",PAPUA,,Indonesia,,,,-3.6837916,138.4780573,https://maps.google.com/?cid=0x0:0xd60641ff7c33c1e4,
home improvement,home improvement,Daniel Malelak,"8F98+PF9, Biuk, Desa Suesama, Kabupaten Tolikara, Papua 99567","Biuk, Desa Suesama, Kabupaten Tolikara",PAPUA,99567.0,Indonesia,,,,-3.68071,138.4662327,https://maps.google.com/?cid=0x0:0x586e759df9b1e4a0,
home improvement,Kantor Perusahaan,Tukang bangunan bali,"utara, Peguyangan, kangin, Kota Denpasar, Bali 80111","Peguyangan, kangin, Kota Denpasar",PAPUA,80111.0,Indonesia,85730357040.0,,,-8.6381065,115.2107539,https://maps.google.com/?cid=0x0:0xb3ee75961f609b8,
home improvement,Tukang Bangunan,Jasa Tukang Bangunan,"96PH+M66, Peguyangan Kangin, Kec. Denpasar Utara, Kota Denpasar, Bali 80238","Peguyangan Kangin, Kec. Denpasar Utara, Kota Denpasar",PAPUA,80238.0,Indonesia,87762383759.0,,,-8.6133317,115.2280285,https://maps.google.com/?cid=0x0:0xdb8ec28127c40758,
