Category,Real Category,Business Name,Address,City,State,Postal Code,Country,Phone,Email,Website,Latitude,Longitude,Map Link,Details Link
mall,mall,Distrik Tiom,"Kabupaten Lanny Jaya, Papua","Kabupaten Lanny Jaya, Papua",PAPUA,,Indonesia,,,,-3.9277573,138.4557817,https://maps.google.com/?cid=0x0:0x1bdc1c8bed88c23f,
mall,Toko,Pasar Tiom,"3FG2+QXH, Oyi, Distrik Tiom, Kabupaten Lanny Jaya, Papua 99567","Oyi, Distrik Tiom, Kabupaten Lanny Jaya",PAPUA,99567.0,Indonesia,,,,-3.9230623,138.4524939,https://maps.google.com/?cid=0x0:0x7aaeff27cf14362,
mall,Toko,Kios A2 Tiom,"3FH2+3QC, Oyi, Distrik Tiom, Kabupaten Lanny Jaya, Papua 99567","Oyi, Distrik Tiom, Kabupaten Lanny Jaya",PAPUA,99567.0,Indonesia,85211111090.0,,,-3.9223033,138.4518806,https://maps.google.com/?cid=0x0:0x754ec0b8094b6492,
mall,Pusat Perbelanjaan,Mall thamrin city,"Jl. Tlk. Betung Blvd, Kb. Melati, Kecamatan Tanah Abang, Kota Jakarta Pusat, Daerah Khusus Ibukota Jakarta 10230","Kb. Melati, Kecamatan Tanah Abang, Kota Jakarta Pusat",PAPUA,10230.0,Indonesia,,,,-6.1943235,106.8165473,https://maps.google.com/?cid=0x0:0x6d88d2cf987c6d20,
mall,,Tio,"Jl. Mesjid No.5A 14, RT.14/RW.1, Pejaten Bar., Ps. Minggu, Kota Jakarta Selatan, Daerah Khusus Ibukota Jakarta 12510","RT.14/RW.1, Pejaten Bar., Ps. Minggu, Kota Jakarta Selatan",PAPUA,12510.0,Indonesia,,,,-6.2669983,106.8403231,https://maps.google.com/?cid=0x0:0x1f2ded784b57c5cb,
mall,mall,Pirime,"Distrik Pirime, Kabupaten Lanny Jaya, Papua","Kabupaten Lanny Jaya, Papua",PAPUA,,Indonesia,,,,-3.9796675,138.5237246,https://maps.google.com/?cid=0x0:0x8a23ad303f6ee4a7,
mall,Toko Pakaian Olahraga,Jakarta Premium Outlets - Tangerang,"Jl. Jalur Sutera Boulevard No.41, RT.003/RW.006, Panunggangan Tim., Kec. Pinang, Kota Tangerang, Banten 15143","RT.003/RW.006, Panunggangan Tim., Kec. Pinang, Kota Tangerang",PAPUA,15143.0,Indonesia,,,,-6.2202252,106.6597055,https://maps.google.com/?cid=0x0:0x8cd173626fe3f3c1,
mall,mall,Imran Kevint,"4Q82+57R, Mararena, Kec. Sarmi, Kabupaten Sarmi, Papua 99373","Mararena, Kec. Sarmi, Kabupaten Sarmi",PAPUA,99373.0,Indonesia,,,,-1.8845052,138.750649,https://maps.google.com/?cid=0x0:0x5b8630be568b7070,
mall,Pusat Perbelanjaan,Pondok Indah Mall 2,"Jl. Metro Pondok Indah, Pd. Pinang, Kec. Kby. Lama, Kota Jakarta Selatan, Daerah Khusus Ibukota Jakarta 12310","Pd. Pinang, Kec. Kby. Lama, Kota Jakarta Selatan",PAPUA,12310.0,Indonesia,217506750.0,,,-6.2655241,106.7827928,https://maps.google.com/?cid=0x0:0x203a5d09556daf5f,
mall,Pusat Perbelanjaan,Pavilion Jakarta 2,"Pd. Indah Mall 3, RT.1, RW.16, Pd. Pinang, Kec. Kby. Lama, Kota Jakarta Selatan, Daerah Khusus Ibukota Jakarta 12310","RT.1, RW.16, Pd. Pinang, Kec. Kby. Lama, Kota Jakarta Selatan",PAPUA,12310.0,Indonesia,,,,-6.2636248,106.7831198,https://maps.google.com/?cid=0x0:0x755cc3d64ada2ce3,
mall,Pusat Perbelanjaan,Pondok Indah Mall,"Jl. Metro Pondok Indah, Pd. Pinang, Kec. Kby. Lama, Kota Jakarta Selatan, Daerah Khusus Ibukota Jakarta 12310","Pd. Pinang, Kec. Kby. Lama, Kota Jakarta Selatan",PAPUA,12310.0,Indonesia,,,,-6.2659735,106.7834605,https://maps.google.com/?cid=0x0:0xe3691ac8b0f9248,
mall,Toko bahan makanan,Prime Mall Dinga,"Paswala Qabrustan, Main Kharain-Mandibahawal din G.T Road, Dinga, Pakistan","Dinga, Pakistan",PAPUA,,Indonesia,923316291786.0,,,32.6461799,73.7126723,https://maps.google.com/?cid=0x0:0xfe95e2230d7cd32,
mall,Toko bahan makanan,super genral store,"JPQ9+F92, Dinga, Pakistan","Dinga, Pakistan",PAPUA,,Indonesia,923068623379.0,,,32.6386454,73.7184031,https://maps.google.com/?cid=0x0:0x90a6e4a0c86ec15d,
mall,mall,Kec. Makki,"Kabupaten Lanny Jaya, Papua","Kabupaten Lanny Jaya, Papua",PAPUA,,Indonesia,,,,-3.9681201,138.5837111,https://maps.google.com/?cid=0x0:0xe3c11b0df314eb63,
mall,mall,Papua,,Papua,PAPUA,,Indonesia,,,,-4.269928,138.0803529,https://maps.google.com/?cid=0x0:0xeba94e9c5eefe673,
mall,Kantor Pemerintah,KANTOR DISTRIK MAKIMI,"RPJX+9QG, JL MARILEPHY, Legari Jaya, Makimi, Kabupaten Nabire, Papua 98861","JL MARILEPHY, Legari Jaya, Makimi, Kabupaten Nabire",PAPUA,98861.0,Indonesia,,,,-3.1690656,135.7494623,https://maps.google.com/?cid=0x0:0x4089cc21707f07c,
mall,Toko Roti,MAKO BAKERY  CAKE Ruko Summarecon Bekasi,"Jl. Bulevar Ahmad Yani, RT.001/RW.011, Marga Mulya, Kec. Bekasi Utara, Kota Bks, Jawa Barat 17143","RT.001/RW.011, Marga Mulya, Kec. Bekasi Utara, Kota Bks",PAPUA,17143.0,Indonesia,82180882009.0,,,-6.2266857,106.9958013,https://maps.google.com/?cid=0x0:0xe0d2986b1a789a8b,
mall,Pusat Perbelanjaan,Plaza Metropolitan,"P3MF+M5H, Jl. Sultan Hasanudin, Tambun, Kec. Tambun Sel., Kabupaten Bekasi, Jawa Barat 17510","Jl. Sultan Hasanudin, Tambun, Kec. Tambun Sel., Kabupaten Bekasi",PAPUA,17510.0,Indonesia,,,,-6.2658245,107.0729753,https://maps.google.com/?cid=0x0:0xc75f4ba93174f67,
mall,mall,Makil,"Jl. Usman Naim No.15-2 11, RT.11/RW.4, Klp. Dua Wetan, Kec. Ciracas, Kota Jakarta Timur, Daerah Khusus Ibukota Jakarta 13730","RT.11/RW.4, Klp. Dua Wetan, Kec. Ciracas, Kota Jakarta Timur",PAPUA,13730.0,Indonesia,,,,-6.3353677,106.885222,https://maps.google.com/?cid=0x0:0x2d80fd11cfbd51ca,
mall,mall,Maquis Kobe Pondok Indah Mall 1,"Jl. Metro Pondok Indah , Pondok Indah Mall 2 Foodhall, RT.1/RW.16, Pd. Pinang, Kec. Kby. Lama, Kota Jakarta Selatan, Daerah Khusus Ibukota Jakarta 12310","Pondok Indah Mall 2 Foodhall, RT.1/RW.16, Pd. Pinang, Kec. Kby. Lama, Kota Jakarta Selatan",PAPUA,12310.0,Indonesia,2175920696.0,,,-6.264632,106.783171,https://maps.google.com/?cid=0x0:0xdba4b0fe65707a60,
mall,Pusat Perbelanjaan,Grand Indonesia Shopping Town,"Jl. M.H. Thamrin No.1, Menteng, Kec. Menteng, Kota Jakarta Pusat, Daerah Khusus Ibukota Jakarta 10310","Menteng, Kec. Menteng, Kota Jakarta Pusat",PAPUA,10310.0,Indonesia,2123580001.0,,,-6.1965848,106.8224882,https://maps.google.com/?cid=0x0:0xccfcc89b95aaf1ae,
mall,Pusat Perbelanjaan,Grand Indonesia,"Jl. MH Thamrin No.1, Menteng, Kec. Menteng, Kota Jakarta Pusat, Daerah Khusus Ibukota Jakarta 10310","Menteng, Kec. Menteng, Kota Jakarta Pusat",PAPUA,10310.0,Indonesia,2123580001.0,,,-6.1950412,106.8210081,https://maps.google.com/?cid=0x0:0xb04ce66a7cb711d9,
mall,Pusat Perbelanjaan,Plaza Indonesia,"Jl. M.H. Thamrin No.Kav.28-30, Gondangdia, Kec. Menteng, Kota Jakarta Pusat, Daerah Khusus Ibukota Jakarta 10350","Gondangdia, Kec. Menteng, Kota Jakarta Pusat",PAPUA,10350.0,Indonesia,2129920000.0,,,-6.1935977,106.8219468,https://maps.google.com/?cid=0x0:0x7d7fe17ad64a053f,
mall,Kafe,The Coffee Bean and Tea Leaf - Grand Indonesia,"Jl. Teluk Betung No.38, RT.4/RW.1, Kb. Melati, Kecamatan Tanah Abang, Kota Jakarta Pusat, Daerah Khusus Ibukota Jakarta 10230","RT.4/RW.1, Kb. Melati, Kecamatan Tanah Abang, Kota Jakarta Pusat",PAPUA,10230.0,Indonesia,2123580512.0,,,-6.1948541,106.8201944,https://maps.google.com/?cid=0x0:0xc6d728bcb41a3324,
mall,Toko Pakaian,GLAM ON Grand Indonesia,"LG 07-WM, Jl. M.H. Thamrin No.1, RT.1/RW.5, Kebon Melati, Central Jakarta City, Jakarta 10230","Jl. M.H. Thamrin No.1, RT.1/RW.5, Kebon Melati, Central Jakarta City",PAPUA,10230.0,Indonesia,81519237233.0,,,-6.1946937,106.8196057,https://maps.google.com/?cid=0x0:0xa685b35aeba07286,
mall,Pusat Perbelanjaan,Wamena Mall,"WW4W+JH7, Wamena Kota, Distrik Wamena, Kabupaten Jayawijaya, Papua 99511","Wamena Kota, Distrik Wamena, Kabupaten Jayawijaya",PAPUA,99511.0,Indonesia,81356954606.0,,,-4.0934521,138.9464176,https://maps.google.com/?cid=0x0:0x99f90a37cc207474,
mall,Pusat Perbelanjaan,Pasar Wamena,"WW4V+JJX, Jl. Irian, Wamena Kota, Distrik Wamena, Kabupaten Jayawijaya, Papua 99511","Jl. Irian, Wamena Kota, Distrik Wamena, Kabupaten Jayawijaya",PAPUA,99511.0,Indonesia,81240886222.0,,,-4.0933779,138.9441049,https://maps.google.com/?cid=0x0:0xb318b64a0be2e873,
mall,Pusat Perbelanjaan,Gandaria City,"Jl. Sultan Iskandar Muda, Gandaria, Kec. Kby. Lama, Kota Jakarta Selatan, Daerah Khusus Ibukota Jakarta 12240","Gandaria, Kec. Kby. Lama, Kota Jakarta Selatan",PAPUA,12240.0,Indonesia,2129052888.0,,,-6.2443009,106.7829375,https://maps.google.com/?cid=0x0:0x6173704d396d5a99,
mall,Hotel,Kos kosan ibu ril,"WW5W+R2W, Wamena Kota, Distrik Wamena, Kabupaten Jayawijaya, Papua 99511","Wamena Kota, Distrik Wamena, Kabupaten Jayawijaya",PAPUA,99511.0,Indonesia,,,,-4.0903585,138.9450464,https://maps.google.com/?cid=0x0:0xf95d1d09d2026d69,
mall,Pusat Perbelanjaan,Pejaten village,"PR9H+WJJ, Jl. Warung Jati Barat, RT.1/RW.5, Jati Padang, Ps. Minggu, Kota Jakarta Selatan, Daerah Khusus Ibukota Jakarta 12540","Jl. Warung Jati Barat, RT.1/RW.5, Jati Padang, Ps. Minggu, Kota Jakarta Selatan",PAPUA,12540.0,Indonesia,,,,-6.2801726,106.8290117,https://maps.google.com/?cid=0x0:0x2d11e0f500710979,
mall,mall,Distrik Dimba,"Kabupaten Lanny Jaya, Papua","Kabupaten Lanny Jaya, Papua",PAPUA,,Indonesia,,,,-3.8454051,138.5426379,https://maps.google.com/?cid=0x0:0x36c26bec90d3b953,
mall,Pusat Perbelanjaan,Mall Jayapura,"APO, Jl. Samratulangi, Bayangkara, Kec. Jayapura Utara, Kota Jayapura, Papua 99112","Jl. Samratulangi, Bayangkara, Kec. Jayapura Utara, Kota Jayapura",PAPUA,99112.0,Indonesia,9675150000.0,,,-2.5351775,140.7061874,https://maps.google.com/?cid=0x0:0x54294cb27964023,
mall,Pusat Perbelanjaan,SAGA MALL,"Kota Baru, Kec. Abepura, Kota Jayapura, Papua 99351","Kec. Abepura, Kota Jayapura",PAPUA,99351.0,Indonesia,,,,-2.6105845,140.6654189,https://maps.google.com/?cid=0x0:0xaf65e43ff84ff9e6,
mall,Toko,Kios A2 Tiom,"3FH2+3QC, Oyi, Distrik Tiom, Kabupaten Lanny Jaya, Papua 99567","Oyi, Distrik Tiom, Kabupaten Lanny Jaya",PAPUA,99567.0,Indonesia,85211111090.0,,,-3.9223033,138.4518806,https://maps.google.com/?cid=0x0:0x754ec0b8094b6492,
mall,Pusat Perbelanjaan,Mall Jayapura,"APO, Jl. Samratulangi, Bayangkara, Kec. Jayapura Utara, Kota Jayapura, Papua 99112","Jl. Samratulangi, Bayangkara, Kec. Jayapura Utara, Kota Jayapura",PAPUA,99112.0,Indonesia,9675150000.0,,,-2.5351775,140.7061874,https://maps.google.com/?cid=0x0:0x54294cb27964023,
mall,Pusat Perbelanjaan,SAGA MALL,"Kota Baru, Kec. Abepura, Kota Jayapura, Papua 99351","Kec. Abepura, Kota Jayapura",PAPUA,99351.0,Indonesia,,,,-2.6105845,140.6654189,https://maps.google.com/?cid=0x0:0xaf65e43ff84ff9e6,
mall,Kedai Kopi,JCO COFFEE  DONUTS MALL JAYAPURA,"Jl. Kab. No.99112, Bayangkara, Kec. Jayapura Utara, Kota Jayapura, Papua 99112","Bayangkara, Kec. Jayapura Utara, Kota Jayapura",PAPUA,99112.0,Indonesia,,,,-2.5353252,140.7060198,https://maps.google.com/?cid=0x0:0x8cbe835113b8c269,
mall,mall,Papua 99563,Papua,Papua,PAPUA,,Indonesia,,,,-3.9612229,138.1597946,https://maps.google.com/?cid=0x0:0xb123b70d10849bd1,
mall,Pusat Perbelanjaan,Wamena Mall,"WW4W+JH7, Wamena Kota, Distrik Wamena, Kabupaten Jayawijaya, Papua 99511","Wamena Kota, Distrik Wamena, Kabupaten Jayawijaya",PAPUA,99511.0,Indonesia,81356954606.0,,,-4.0934521,138.9464176,https://maps.google.com/?cid=0x0:0x99f90a37cc207474,
mall,Pusat Perbelanjaan,Mall Kota Kasablanka,"Jl. Raya Casablanca No.Kav 88, Menteng Dalam, Kec. Tebet, Kota Jakarta Selatan, Daerah Khusus Ibukota Jakarta 12870","Menteng Dalam, Kec. Tebet, Kota Jakarta Selatan",PAPUA,12870.0,Indonesia,2129465000.0,,,-6.2240353,106.8425979,https://maps.google.com/?cid=0x0:0xaf54cb631563acce,
mall,Restoran,Mala Kitchen Kelapa Gading,"Jl. Boulevard Raya No.11 Blok QJ3, RT.2/RW.12, West Kelapa Gading, Kelapa Gading, North Jakarta City, Jakarta 12420","RT.2/RW.12, West Kelapa Gading, Kelapa Gading, North Jakarta City",PAPUA,12420.0,Indonesia,81212970996.0,,,-6.146023,106.909409,https://maps.google.com/?cid=0x0:0x6fccc86639321b16,
mall,China,Mala Kitchen Aniva,"Ruko Aniva Junction Block FA No 51-52, Kec. Serpong, Kabupaten Tangerang, Banten 15336","Kec. Serpong, Kabupaten Tangerang",PAPUA,15336.0,Indonesia,81389811088.0,,,-6.2746916,106.619149,https://maps.google.com/?cid=0x0:0x65b11134c4b7aeb2,
mall,mall,Papua 99563,Papua,Papua,PAPUA,,Indonesia,,,,-3.9612229,138.1597946,https://maps.google.com/?cid=0x0:0xb123b70d10849bd1,
mall,Toko,TondokTa Digital,"7XRJ+3FF, Pruleme, Distrik Mulia, Kabupaten Puncak Jaya, Papua 98973","Pruleme, Distrik Mulia, Kabupaten Puncak Jaya",PAPUA,98973.0,Indonesia,82193045921.0,,,-3.7098017,137.9811647,https://maps.google.com/?cid=0x0:0x59e886f280bc4c44,
mall,Pusat Perbelanjaan,Mall Jayapura,"APO, Jl. Samratulangi, Bayangkara, Kec. Jayapura Utara, Kota Jayapura, Papua 99112","Jl. Samratulangi, Bayangkara, Kec. Jayapura Utara, Kota Jayapura",PAPUA,99112.0,Indonesia,9675150000.0,,,-2.5351775,140.7061874,https://maps.google.com/?cid=0x0:0x54294cb27964023,
mall,Konsultan,Program Malaria Perdhaki SR YCTP,"Kompleks Mulia Mini Mall, Jl Cenderawasih, Pagaleme, Distrik Mulia, Kabupaten Puncak Jaya, Papua Tengah","Kabupaten Puncak Jaya, Papua Tengah",PAPUA,,Indonesia,,,,-3.729199,137.983597,https://maps.google.com/?cid=0x0:0xb1abec6420d742d8,
mall,Pusat Perbelanjaan,Vision City Mega Mall,"Lot 7, 8  9, Section 429, 131 National Capital District, Waigani Dr, Port Moresby, Papua Nugini","Port Moresby, Papua Nugini",PAPUA,,Indonesia,6753028555.0,,,-9.4384023,147.1810598,https://maps.google.com/?cid=0x0:0x6b6056559e073ba7,
mall,Pusat Perbelanjaan,SAGA MALL,"Kota Baru, Kec. Abepura, Kota Jayapura, Papua 99351","Kec. Abepura, Kota Jayapura",PAPUA,99351.0,Indonesia,,,,-2.6105845,140.6654189,https://maps.google.com/?cid=0x0:0xaf65e43ff84ff9e6,
mall,Kedai Kopi,JCO COFFEE  DONUTS MALL JAYAPURA,"Jl. Kab. No.99112, Bayangkara, Kec. Jayapura Utara, Kota Jayapura, Papua 99112","Bayangkara, Kec. Jayapura Utara, Kota Jayapura",PAPUA,99112.0,Indonesia,,,,-2.5353252,140.7060198,https://maps.google.com/?cid=0x0:0x8cbe835113b8c269,
mall,Toko Swalayan,Hypermart Jayapura Mall,"Jl. Dr. Sam Ratulangi No.47, Bayangkara, Kec. Jayapura Utara, Kota Jayapura, Papua 99112","Bayangkara, Kec. Jayapura Utara, Kota Jayapura",PAPUA,99112.0,Indonesia,967522298.0,,,-2.5350388,140.7055769,https://maps.google.com/?cid=0x0:0xb1412384235d004a,
mall,mall,Papua 99567,"Kabupaten Lanny Jaya, Papua","Kabupaten Lanny Jaya, Papua",PAPUA,,Indonesia,,,,-3.8553159,138.4787258,https://maps.google.com/?cid=0x0:0x54dba557046d88de,
mall,Toko,Pasar Tiom,"3FG2+QXH, Oyi, Distrik Tiom, Kabupaten Lanny Jaya, Papua 99567","Oyi, Distrik Tiom, Kabupaten Lanny Jaya",PAPUA,99567.0,Indonesia,,,,-3.9230623,138.4524939,https://maps.google.com/?cid=0x0:0x7aaeff27cf14362,
mall,mall,Pertokoan Karubaga,"8F8G+FQH, Karubaga, Kec. Karubaga, Kabupaten Tolikara, Papua 99567","Karubaga, Kec. Karubaga, Kabupaten Tolikara",PAPUA,99567.0,Indonesia,,,,-3.6838055,138.4769706,https://maps.google.com/?cid=0x0:0xceb87030b3508a71,
mall,Pusat Perbelanjaan,Mall Jayapura,"APO, Jl. Samratulangi, Bayangkara, Kec. Jayapura Utara, Kota Jayapura, Papua 99112","Jl. Samratulangi, Bayangkara, Kec. Jayapura Utara, Kota Jayapura",PAPUA,99112.0,Indonesia,9675150000.0,,,-2.5351775,140.7061874,https://maps.google.com/?cid=0x0:0x54294cb27964023,
mall,Pusat Perbelanjaan,SAGA MALL,"Kota Baru, Kec. Abepura, Kota Jayapura, Papua 99351","Kec. Abepura, Kota Jayapura",PAPUA,99351.0,Indonesia,,,,-2.6105845,140.6654189,https://maps.google.com/?cid=0x0:0xaf65e43ff84ff9e6,
mall,Kedai Kopi,JCO COFFEE  DONUTS MALL JAYAPURA,"Jl. Kab. No.99112, Bayangkara, Kec. Jayapura Utara, Kota Jayapura, Papua 99112","Bayangkara, Kec. Jayapura Utara, Kota Jayapura",PAPUA,99112.0,Indonesia,,,,-2.5353252,140.7060198,https://maps.google.com/?cid=0x0:0x8cbe835113b8c269,
mall,Toko Swalayan,Hypermart Jayapura Mall,"Jl. Dr. Sam Ratulangi No.47, Bayangkara, Kec. Jayapura Utara, Kota Jayapura, Papua 99112","Bayangkara, Kec. Jayapura Utara, Kota Jayapura",PAPUA,99112.0,Indonesia,967522298.0,,,-2.5350388,140.7055769,https://maps.google.com/?cid=0x0:0xb1412384235d004a,
mall,Pusat Perbelanjaan,Vision City Mega Mall,"Lot 7, 8  9, Section 429, 131 National Capital District, Waigani Dr, Port Moresby, Papua Nugini","Port Moresby, Papua Nugini",PAPUA,,Indonesia,6753028555.0,,,-9.4384023,147.1810598,https://maps.google.com/?cid=0x0:0x6b6056559e073ba7,
mall,Pusat Perbelanjaan,RH Hypermarket Vision City,"Lot 7, 8  9, Section 429, 131 National Capital District, Waigani Drive Port Moresby NCD, 121, Papua Nugini","Port Moresby, Papua Nugini",PAPUA,,Indonesia,6753028555.0,,,-9.438292,147.1817697,https://maps.google.com/?cid=0x0:0xe13cc57c2d2c1c38,
mall,Pusat Perbelanjaan,Unity Mall  Supermarket,"H53P+H2C, Port Moresby National Capital District, Papua Nugini","Port Moresby, Papua Nugini",PAPUA,,Indonesia,,,,-9.4460709,147.1850159,https://maps.google.com/?cid=0x0:0xef13b529603262a6,
mall,Korea,Korean BBQ Restaurnt,"Vision City Mega Mall, Port Moresby National Capital District, Papua Nugini","Port Moresby, Papua Nugini",PAPUA,,Indonesia,,,,-9.4377619,147.1815011,https://maps.google.com/?cid=0x0:0x343b553284f610fa,
mall,Kompleks Kondominium,Rangeview Plaza,"H56H+FR8, Port Moresby National Capital District, Papua Nugini","Port Moresby, Papua Nugini",PAPUA,,Indonesia,67582407702.0,,,-9.4388387,147.1795862,https://maps.google.com/?cid=0x0:0xcdc4ba390e4b1232,
mall,mall,Distrik Tiomneri,"Kabupaten Lanny Jaya, Papua","Kabupaten Lanny Jaya, Papua",PAPUA,,Indonesia,,,,-3.8761181,138.4009177,https://maps.google.com/?cid=0x0:0x88f4e9020ef9ade8,
mall,Toko,Pasar Tiom,"3FG2+QXH, Oyi, Distrik Tiom, Kabupaten Lanny Jaya, Papua 99567","Oyi, Distrik Tiom, Kabupaten Lanny Jaya",PAPUA,99567.0,Indonesia,,,,-3.9230623,138.4524939,https://maps.google.com/?cid=0x0:0x7aaeff27cf14362,
mall,Toko,Kios A2 Tiom,"3FH2+3QC, Oyi, Distrik Tiom, Kabupaten Lanny Jaya, Papua 99567","Oyi, Distrik Tiom, Kabupaten Lanny Jaya",PAPUA,99567.0,Indonesia,85211111090.0,,,-3.9223033,138.4518806,https://maps.google.com/?cid=0x0:0x754ec0b8094b6492,
mall,mall,Papua 99563,Papua,Papua,PAPUA,,Indonesia,,,,-3.9612229,138.1597946,https://maps.google.com/?cid=0x0:0xb123b70d10849bd1,
mall,Toko,TondokTa Digital,"7XRJ+3FF, Pruleme, Distrik Mulia, Kabupaten Puncak Jaya, Papua 98973","Pruleme, Distrik Mulia, Kabupaten Puncak Jaya",PAPUA,98973.0,Indonesia,82193045921.0,,,-3.7098017,137.9811647,https://maps.google.com/?cid=0x0:0x59e886f280bc4c44,
mall,Pasar,Kios Kasmir,"7XRF+JM6, Pruleme, Distrik Mulia, Kabupaten Puncak Jaya, Papua 98973","Pruleme, Distrik Mulia, Kabupaten Puncak Jaya",PAPUA,98973.0,Indonesia,,,,-3.708839,137.974644,https://maps.google.com/?cid=0x0:0xecf70dfdeda677cc,
mall,Pusat Perbelanjaan,SAGA MALL,"Kota Baru, Kec. Abepura, Kota Jayapura, Papua 99351","Kec. Abepura, Kota Jayapura",PAPUA,99351.0,Indonesia,,,,-2.6105845,140.6654189,https://maps.google.com/?cid=0x0:0xaf65e43ff84ff9e6,
mall,Kedai Kopi,JCO COFFEE  DONUTS MALL JAYAPURA,"Jl. Kab. No.99112, Bayangkara, Kec. Jayapura Utara, Kota Jayapura, Papua 99112","Bayangkara, Kec. Jayapura Utara, Kota Jayapura",PAPUA,99112.0,Indonesia,,,,-2.5353252,140.7060198,https://maps.google.com/?cid=0x0:0x8cbe835113b8c269,
mall,Toko Swalayan,Hypermart Jayapura Mall,"Jl. Dr. Sam Ratulangi No.47, Bayangkara, Kec. Jayapura Utara, Kota Jayapura, Papua 99112","Bayangkara, Kec. Jayapura Utara, Kota Jayapura",PAPUA,99112.0,Indonesia,967522298.0,,,-2.5350388,140.7055769,https://maps.google.com/?cid=0x0:0xb1412384235d004a,
mall,Pusat Perbelanjaan,Mall Jayapura,"APO, Jl. Samratulangi, Bayangkara, Kec. Jayapura Utara, Kota Jayapura, Papua 99112","Jl. Samratulangi, Bayangkara, Kec. Jayapura Utara, Kota Jayapura",PAPUA,99112.0,Indonesia,9675150000.0,,,-2.5351775,140.7061874,https://maps.google.com/?cid=0x0:0x54294cb27964023,
mall,Pusat Perbelanjaan,SAGA MALL,"Kota Baru, Kec. Abepura, Kota Jayapura, Papua 99351","Kec. Abepura, Kota Jayapura",PAPUA,99351.0,Indonesia,,,,-2.6105845,140.6654189,https://maps.google.com/?cid=0x0:0xaf65e43ff84ff9e6,
mall,Kedai Kopi,JCO COFFEE  DONUTS MALL JAYAPURA,"Jl. Kab. No.99112, Bayangkara, Kec. Jayapura Utara, Kota Jayapura, Papua 99112","Bayangkara, Kec. Jayapura Utara, Kota Jayapura",PAPUA,99112.0,Indonesia,,,,-2.5353252,140.7060198,https://maps.google.com/?cid=0x0:0x8cbe835113b8c269,
mall,mall,Papua 99556,Papua,Papua,PAPUA,,Indonesia,,,,-3.7561908,138.6589406,https://maps.google.com/?cid=0x0:0x5a2842ee64e9fe01,
mall,Pusat Perbelanjaan,Mall papua,"Jl. Gn. Aspen No.26, Bencongan, Kec. Klp. Dua, Kabupaten Tangerang, Banten 15810","Bencongan, Kec. Klp. Dua, Kabupaten Tangerang",PAPUA,15810.0,Indonesia,,,,-6.2338406,106.5937941,https://maps.google.com/?cid=0x0:0xf2fc51e618acb94,
mall,mall,PAPENG BLOK JAYA,"4Q74+58P, Jl. Raya Klp. Satu, Sawar, Kec. Sarmi, Kabupaten Sarmi, Papua 99373","Jl. Raya Klp. Satu, Sawar, Kec. Sarmi, Kabupaten Sarmi",PAPUA,99373.0,Indonesia,,,,-1.8870373,138.7558415,https://maps.google.com/?cid=0x0:0x3d87ca03242c20f1,
mall,mall,Papua 99563,Papua,Papua,PAPUA,,Indonesia,,,,-3.9612229,138.1597946,https://maps.google.com/?cid=0x0:0xb123b70d10849bd1,
mall,Toko,TondokTa Digital,"7XRJ+3FF, Pruleme, Distrik Mulia, Kabupaten Puncak Jaya, Papua 98973","Pruleme, Distrik Mulia, Kabupaten Puncak Jaya",PAPUA,98973.0,Indonesia,82193045921.0,,,-3.7098017,137.9811647,https://maps.google.com/?cid=0x0:0x59e886f280bc4c44,
mall,Pusat Perbelanjaan,Mall Jayapura,"APO, Jl. Samratulangi, Bayangkara, Kec. Jayapura Utara, Kota Jayapura, Papua 99112","Jl. Samratulangi, Bayangkara, Kec. Jayapura Utara, Kota Jayapura",PAPUA,99112.0,Indonesia,9675150000.0,,,-2.5351775,140.7061874,https://maps.google.com/?cid=0x0:0x54294cb27964023,
mall,Pusat Perbelanjaan,Vision City Mega Mall,"Lot 7, 8  9, Section 429, 131 National Capital District, Waigani Dr, Port Moresby, Papua Nugini","Port Moresby, Papua Nugini",PAPUA,,Indonesia,6753028555.0,,,-9.4384023,147.1810598,https://maps.google.com/?cid=0x0:0x6b6056559e073ba7,
mall,Konsultan,Program Malaria Perdhaki SR YCTP,"Kompleks Mulia Mini Mall, Jl Cenderawasih, Pagaleme, Distrik Mulia, Kabupaten Puncak Jaya, Papua Tengah","Kabupaten Puncak Jaya, Papua Tengah",PAPUA,,Indonesia,,,,-3.729199,137.983597,https://maps.google.com/?cid=0x0:0xb1abec6420d742d8,
mall,Pusat Perbelanjaan,SAGA MALL,"Kota Baru, Kec. Abepura, Kota Jayapura, Papua 99351","Kec. Abepura, Kota Jayapura",PAPUA,99351.0,Indonesia,,,,-2.6105845,140.6654189,https://maps.google.com/?cid=0x0:0xaf65e43ff84ff9e6,
mall,Toko Swalayan,Hypermart Jayapura Mall,"Jl. Dr. Sam Ratulangi No.47, Bayangkara, Kec. Jayapura Utara, Kota Jayapura, Papua 99112","Bayangkara, Kec. Jayapura Utara, Kota Jayapura",PAPUA,99112.0,Indonesia,967522298.0,,,-2.5350388,140.7055769,https://maps.google.com/?cid=0x0:0xb1412384235d004a,
mall,Kedai Kopi,JCO COFFEE  DONUTS MALL JAYAPURA,"Jl. Kab. No.99112, Bayangkara, Kec. Jayapura Utara, Kota Jayapura, Papua 99112","Bayangkara, Kec. Jayapura Utara, Kota Jayapura",PAPUA,99112.0,Indonesia,,,,-2.5353252,140.7060198,https://maps.google.com/?cid=0x0:0x8cbe835113b8c269,
mall,mall,Papua 99567,"Kabupaten Lanny Jaya, Papua","Kabupaten Lanny Jaya, Papua",PAPUA,,Indonesia,,,,-3.8553159,138.4787258,https://maps.google.com/?cid=0x0:0x54dba557046d88de,
mall,Toko,Pasar Tiom,"3FG2+QXH, Oyi, Distrik Tiom, Kabupaten Lanny Jaya, Papua 99567","Oyi, Distrik Tiom, Kabupaten Lanny Jaya",PAPUA,99567.0,Indonesia,,,,-3.9230623,138.4524939,https://maps.google.com/?cid=0x0:0x7aaeff27cf14362,
mall,mall,Pertokoan Karubaga,"8F8G+FQH, Karubaga, Kec. Karubaga, Kabupaten Tolikara, Papua 99567","Karubaga, Kec. Karubaga, Kabupaten Tolikara",PAPUA,99567.0,Indonesia,,,,-3.6838055,138.4769706,https://maps.google.com/?cid=0x0:0xceb87030b3508a71,
mall,Pusat Perbelanjaan,Mall Jayapura,"APO, Jl. Samratulangi, Bayangkara, Kec. Jayapura Utara, Kota Jayapura, Papua 99112","Jl. Samratulangi, Bayangkara, Kec. Jayapura Utara, Kota Jayapura",PAPUA,99112.0,Indonesia,9675150000.0,,,-2.5351775,140.7061874,https://maps.google.com/?cid=0x0:0x54294cb27964023,
mall,Pusat Perbelanjaan,SAGA MALL,"Kota Baru, Kec. Abepura, Kota Jayapura, Papua 99351","Kec. Abepura, Kota Jayapura",PAPUA,99351.0,Indonesia,,,,-2.6105845,140.6654189,https://maps.google.com/?cid=0x0:0xaf65e43ff84ff9e6,
mall,Kedai Kopi,JCO COFFEE  DONUTS MALL JAYAPURA,"Jl. Kab. No.99112, Bayangkara, Kec. Jayapura Utara, Kota Jayapura, Papua 99112","Bayangkara, Kec. Jayapura Utara, Kota Jayapura",PAPUA,99112.0,Indonesia,,,,-2.5353252,140.7060198,https://maps.google.com/?cid=0x0:0x8cbe835113b8c269,
mall,Toko Swalayan,Hypermart Jayapura Mall,"Jl. Dr. Sam Ratulangi No.47, Bayangkara, Kec. Jayapura Utara, Kota Jayapura, Papua 99112","Bayangkara, Kec. Jayapura Utara, Kota Jayapura",PAPUA,99112.0,Indonesia,967522298.0,,,-2.5350388,140.7055769,https://maps.google.com/?cid=0x0:0xb1412384235d004a,
mall,Pusat Perbelanjaan,Vision City Mega Mall,"Lot 7, 8  9, Section 429, 131 National Capital District, Waigani Dr, Port Moresby, Papua Nugini","Port Moresby, Papua Nugini",PAPUA,,Indonesia,6753028555.0,,,-9.4384023,147.1810598,https://maps.google.com/?cid=0x0:0x6b6056559e073ba7,
mall,Pusat Perbelanjaan,RH Hypermarket Vision City,"Lot 7, 8  9, Section 429, 131 National Capital District, Waigani Drive Port Moresby NCD, 121, Papua Nugini","Port Moresby, Papua Nugini",PAPUA,,Indonesia,6753028555.0,,,-9.438292,147.1817697,https://maps.google.com/?cid=0x0:0xe13cc57c2d2c1c38,
mall,Pusat Perbelanjaan,Unity Mall  Supermarket,"H53P+H2C, Port Moresby National Capital District, Papua Nugini","Port Moresby, Papua Nugini",PAPUA,,Indonesia,,,,-9.4460709,147.1850159,https://maps.google.com/?cid=0x0:0xef13b529603262a6,
mall,Kompleks Kondominium,Rangeview Plaza,"H56H+FR8, Port Moresby National Capital District, Papua Nugini","Port Moresby, Papua Nugini",PAPUA,,Indonesia,67582407702.0,,,-9.4388387,147.1795862,https://maps.google.com/?cid=0x0:0xcdc4ba390e4b1232,
mall,Korea,Korean BBQ Restaurnt,"Vision City Mega Mall, Port Moresby National Capital District, Papua Nugini","Port Moresby, Papua Nugini",PAPUA,,Indonesia,,,,-9.4377619,147.1815011,https://maps.google.com/?cid=0x0:0x343b553284f610fa,
supermarket,supermarket,Distrik Tiom,"Kabupaten Lanny Jaya, Papua","Kabupaten Lanny Jaya, Papua",PAPUA,,Indonesia,,,,-3.9277573,138.4557817,https://maps.google.com/?cid=0x0:0x1bdc1c8bed88c23f,
supermarket,Toko,Pasar Tiom,"3FG2+QXH, Oyi, Distrik Tiom, Kabupaten Lanny Jaya, Papua 99567","Oyi, Distrik Tiom, Kabupaten Lanny Jaya",PAPUA,99567.0,Indonesia,,,,-3.9230623,138.4524939,https://maps.google.com/?cid=0x0:0x7aaeff27cf14362,
supermarket,Toko,Kios A2 Tiom,"3FH2+3QC, Oyi, Distrik Tiom, Kabupaten Lanny Jaya, Papua 99567","Oyi, Distrik Tiom, Kabupaten Lanny Jaya",PAPUA,99567.0,Indonesia,85211111090.0,,,-3.9223033,138.4518806,https://maps.google.com/?cid=0x0:0x754ec0b8094b6492,
supermarket,supermarket,KAONAQUA (isi ulang air minum/galon),"3F98+64, Gurika, Distrik Tiom, Kabupaten Lanny Jaya, Papua","Kabupaten Lanny Jaya, Papua",PAPUA,,Indonesia,8114893333.0,,,-3.9319779,138.4653078,https://maps.google.com/?cid=0x0:0x7ef243cb19333dbb,
supermarket,Toko Swalayan,Ranch Market Kemang,"Jl. Kemang Raya No.66 68, RT.8/RW.2, Bangka, Mampang Prapatan, South Jakarta City, Jakarta 12730","RT.8/RW.2, Bangka, Mampang Prapatan, South Jakarta City",PAPUA,12730.0,Indonesia,81382217182.0,,,-6.2641983,106.8159772,https://maps.google.com/?cid=0x0:0x8a811b9772a51004,
supermarket,Toko Makanan Sehat,Primo Supermarket Citos,"Town Square, Jl. TB Simatupang No.KAV.17 Lantai Dasar, West Cilandak, Cilandak, South Jakarta City, Jakarta 12430","Jl. TB Simatupang No.KAV.17 Lantai Dasar, West Cilandak, Cilandak, South Jakarta City",PAPUA,12430.0,Indonesia,2175920390.0,,,-6.2914315,106.7992178,https://maps.google.com/?cid=0x0:0x110a936a8d153b27,
supermarket,Toko bahan makanan,Tio market,"Q2CW+HR7, Jl. Karang Satria, Karangsatria, Kec. Tambun Utara, Kabupaten Bekasi, Jawa Barat 17510","Jl. Karang Satria, Karangsatria, Kec. Tambun Utara, Kabupaten Bekasi",PAPUA,17510.0,Indonesia,8818052169.0,,,-6.2285799,107.0470341,https://maps.google.com/?cid=0x0:0xee263804074e116a,
supermarket,Toko Swalayan,Fortuna Swalayan,"Jl. Moh. Kahfi 1 No.1 9, RT.9/RW.4, Cipedak, Kec. Jagakarsa, Kota Jakarta Selatan, Daerah Khusus Ibukota Jakarta 12630","RT.9/RW.4, Cipedak, Kec. Jagakarsa, Kota Jakarta Selatan",PAPUA,12630.0,Indonesia,2178885739.0,,,-6.3534406,106.8017381,https://maps.google.com/?cid=0x0:0x98646deb131851d7,
supermarket,Toko Swalayan,Ranch Market Pesanggrahan,"1, Jl. Pesanggrahan No.2, Kembangan Sel., Kec. Kembangan, Kota Jakarta Barat, Daerah Khusus Ibukota Jakarta 11610","Jl. Pesanggrahan No.2, Kembangan Sel., Kec. Kembangan, Kota Jakarta Barat",PAPUA,11610.0,Indonesia,2158304842.0,,,-6.1883181,106.7561831,https://maps.google.com/?cid=0x0:0x59972408c2ef6a6e,
supermarket,Toko Swalayan,Aneka Buana Cirendeu,"Jl. Raya Cirendeu No.38, Cireundeu, Kec. Ciputat Tim., Kota Tangerang Selatan, Banten 15419","Cireundeu, Kec. Ciputat Tim., Kota Tangerang Selatan",PAPUA,15419.0,Indonesia,217423906.0,,,-6.3117335,106.7705024,https://maps.google.com/?cid=0x0:0x1bfb5dff05fdda3c,
supermarket,Toko Swalayan,Aneka Buana Supermarket - Pondok Labu,"Jl. RS. Fatmawati Raya No.15, RT.2/RW.1, Pd. Labu, Kec. Cilandak, Kota Jakarta Selatan, Daerah Khusus Ibukota Jakarta 12450","RT.2/RW.1, Pd. Labu, Kec. Cilandak, Kota Jakarta Selatan",PAPUA,12450.0,Indonesia,217692010.0,,,-6.3093895,106.7939361,https://maps.google.com/?cid=0x0:0x3f7935d87cf91289,
supermarket,Toko Swalayan,GS Supermarket Jatiasih,"GsSupermarket :, Jl. Wibawa Mukti II No.125, RT.002/ RW017/RW.017, Jatiasih, Kec. Jatiasih, Kota Bks, Jawa Barat 17423","Jl. Wibawa Mukti II No.125, RT.002/ RW017/RW.017, Jatiasih, Kec. Jatiasih, Kota Bks",PAPUA,17423.0,Indonesia,2182736918.0,,,-6.3070579,106.955731,https://maps.google.com/?cid=0x0:0x74efd6ce433268e6,
supermarket,Toko Swalayan,Toko Tio,"Jl. Raya Syeh Quro, Cilewo, Kec. Talagasari, Karawang, Jawa Barat 41381","Cilewo, Kec. Talagasari, Karawang",PAPUA,41381.0,Indonesia,,,,-6.2919515,107.4208017,https://maps.google.com/?cid=0x0:0xce55926a457fd923,
supermarket,Toko Sofa,Hello M,"Jl. Raya Kutabumi Km. 1, Kutabumi, Kuta Baru, Kec. Ps. Kemis, Kabupaten Tangerang, Banten 15561","Kutabumi, Kuta Baru, Kec. Ps. Kemis, Kabupaten Tangerang",PAPUA,15561.0,Indonesia,8521008006.0,,,-6.1535961,106.58068,https://maps.google.com/?cid=0x0:0xe659b3ccb00a913,
supermarket,Restoran,Primo Cafe Resto,"PQ5X+GR3, RT.6/RW.9, Cilandak Bar., Kec. Cilandak, Kota Jakarta Selatan, Daerah Khusus Ibukota Jakarta 12430","RT.6/RW.9, Cilandak Bar., Kec. Cilandak, Kota Jakarta Selatan",PAPUA,12430.0,Indonesia,2175920390.0,,,-6.2912336,106.7995474,https://maps.google.com/?cid=0x0:0x855fc09279724dd6,
supermarket,Kantor Pemerintah,Pasar umum distrik pirime,"2GHQ+JWQ Pasar umum, Pirime, Distrik Pirime, Kabupaten Lanny Jaya, Papua","Kabupaten Lanny Jaya, Papua",PAPUA,,Indonesia,,,,-3.9709066,138.5398554,https://maps.google.com/?cid=0x0:0x448b0e9fc0863252,
supermarket,Komplek perumahan,KANTOR Distrik Pirime,"2GHQ+6FQ, Pirime, Distrik Pirime, Kabupaten Lanny Jaya, Papua","Kabupaten Lanny Jaya, Papua",PAPUA,,Indonesia,,,,-3.9719111,138.5387443,https://maps.google.com/?cid=0x0:0xc6e16382667fb8e2,
supermarket,Toko Swalayan,Ranch Market Grand Indonesia,"Grand Indonesia Shoping Town East Mall, Jl. MH Thamrin No.1 Lantai LG, RT.1/RW.5, Menteng, Kec. Menteng, Kota Jakarta Pusat, Daerah Khusus Ibukota Jakarta 10310","Jl. MH Thamrin No.1 Lantai LG, RT.1/RW.5, Menteng, Kec. Menteng, Kota Jakarta Pusat",PAPUA,10310.0,Indonesia,2123599054.0,,,-6.1963902,106.8225851,https://maps.google.com/?cid=0x0:0xdb199471a47076d0,
supermarket,Toko Swalayan,Ranch Market Pesanggrahan,"1, Jl. Pesanggrahan No.2, Kembangan Sel., Kec. Kembangan, Kota Jakarta Barat, Daerah Khusus Ibukota Jakarta 11610","Jl. Pesanggrahan No.2, Kembangan Sel., Kec. Kembangan, Kota Jakarta Barat",PAPUA,11610.0,Indonesia,2158304842.0,,,-6.1883181,106.7561831,https://maps.google.com/?cid=0x0:0x59972408c2ef6a6e,
supermarket,Toko Swalayan,Ranch Market PIM 3,"Jl. Sultan Iskandar Muda, RT.1/RW.16, Pd. Pinang, Kec. Kby. Lama, Kota Jakarta Selatan, Daerah Khusus Ibukota Jakarta 12310","RT.1/RW.16, Pd. Pinang, Kec. Kby. Lama, Kota Jakarta Selatan",PAPUA,12310.0,Indonesia,82125074549.0,,,-6.2637493,106.7827455,https://maps.google.com/?cid=0x0:0xd071aa2404fc5326,
supermarket,Toko Swalayan,Ranch Market Living World Alam Sutera,"Living World, Jl. Alam Sutera Boulevard No.kav. 21, Pakulonan, Serpong Utara, South Tangerang City, Banten 15325","Jl. Alam Sutera Boulevard No.kav. 21, Pakulonan, Serpong Utara, South Tangerang City",PAPUA,15325.0,Indonesia,81252270571.0,,,-6.2450404,106.6526923,https://maps.google.com/?cid=0x0:0x5dfd20a0bc2695fa,
supermarket,,PT. Supra Boga Lestari Tbk,"Jl. Pesanggrahan No.2, RT.1/RW.7, Kembangan Sel., Kec. Kembangan, Kota Jakarta Barat, Daerah Khusus Ibukota Jakarta 11610","RT.1/RW.7, Kembangan Sel., Kec. Kembangan, Kota Jakarta Barat",PAPUA,11610.0,Indonesia,2158351999.0,,,-6.1883671,106.7560847,https://maps.google.com/?cid=0x0:0x87dbdb3e958d6ff0,
supermarket,Toko Swalayan,FOODMART SUPERMARKET,"FOODMART SUPERMARKET, Lippo Mall Nusantara, Jl. Jend. Sudirman No.kav 50 Lt.B1, unit, Karet Semanggi, Kecamatan Setiabudi, Kota Jakarta Selatan, Daerah Khusus Ibukota Jakarta 12930","Lippo Mall Nusantara, Jl. Jend. Sudirman No.kav 50 Lt.B1, unit, Karet Semanggi, Kecamatan Setiabudi, Kota Jakarta Selatan",PAPUA,12930.0,Indonesia,8118331631.0,,,-6.2197194,106.8144731,https://maps.google.com/?cid=0x0:0x9d9b624afb9570f0,
supermarket,Toko Swalayan,Ranch Market Darmawangsa,"Jl. Dharmawangsa VI Melawai Kebayoran Baru Jakarta Selatan DKI Jakarta RT.5, 5, RT.5/RW.1, Pulo, Kec. Kby. Baru, Kota Jakarta Selatan, Daerah Khusus Ibukota Jakarta 12160","5, RT.5/RW.1, Pulo, Kec. Kby. Baru, Kota Jakarta Selatan",PAPUA,12160.0,Indonesia,2172786480.0,,,-6.252685,106.8014196,https://maps.google.com/?cid=0x0:0x227f1cf75ffc7e1e,
supermarket,Pasar,Pasar Makki,"2JHJ+RXR, Yugumia, Kec. Makki, Kabupaten Lanny Jaya, Papua 99567","Yugumia, Kec. Makki, Kabupaten Lanny Jaya",PAPUA,99567.0,Indonesia,,,,-3.9703865,138.6323795,https://maps.google.com/?cid=0x0:0xb41bd7ae3711872c,
supermarket,Pusat Perbelanjaan,Pasar Putikelek,"WW6R+56P, Jl. SD. Percobaan, Honelama, Distrik Wamena, Kabupaten Jayawijaya, Papua 99511","Jl. SD. Percobaan, Honelama, Distrik Wamena, Kabupaten Jayawijaya",PAPUA,99511.0,Indonesia,85210171071.0,,,-4.0895457,138.9405869,https://maps.google.com/?cid=0x0:0xc51666b075c1e469,
supermarket,supermarket,Papua,,Papua,PAPUA,,Indonesia,,,,-4.269928,138.0803529,https://maps.google.com/?cid=0x0:0xeba94e9c5eefe673,
supermarket,supermarket,Smart Minimarket,"JP66+WCF, Banamepe, Edera, Kabupaten Mappi, Papua","Kabupaten Mappi, Papua",PAPUA,,Indonesia,,,,-7.3876836,139.7110495,https://maps.google.com/?cid=0x0:0x7b9d0e61f96daf74,
supermarket,Toko umum,Kios Mama Andi,"7XX7+2Q3, Wuyukwi, Distrik Mulia, Kabupaten Puncak Jaya, Papua 98973","Wuyukwi, Distrik Mulia, Kabupaten Puncak Jaya",PAPUA,98973.0,Indonesia,81247174537.0,,,-3.7024971,137.9644274,https://maps.google.com/?cid=0x0:0x461f852ed7f20fc1,
supermarket,Toko Swalayan,Toko IHKSAN,"W7RM+VXQ, Unnamed Road, Makbalim, Mayamuk, Kabupaten Sorong, Papua Bar. 98451","Unnamed Road, Makbalim, Mayamuk, Kabupaten Sorong",PAPUA,98451.0,Indonesia,85254648168.0,,,-1.0577797,131.2849884,https://maps.google.com/?cid=0x0:0x7a566b6312dafc59,
supermarket,Toko Swalayan,Marymart,"Brigjen Marinir (Purn) Abraham O Atururi, Kabupaten Manokwari, Papua Bar. 98313",Kabupaten Manokwari,PAPUA,98313.0,Indonesia,85399967344.0,,,-0.9162916,134.0277939,https://maps.google.com/?cid=0x0:0x40e57b02f08f1232,
supermarket,Minimarket,Kios Pantai Maf,"JFQW+MGX, Jl. Sisingamangaraja, Morgo, Distrik Nabire, Kabupaten Nabire, Papua 98811","Jl. Sisingamangaraja, Morgo, Distrik Nabire, Kabupaten Nabire",PAPUA,98811.0,Indonesia,,,,-3.3607704,135.4963736,https://maps.google.com/?cid=0x0:0xd216ccf96d036563,
supermarket,Produsen makanan,KIOS MAMA KIKI 2,"CJ3M+P94, Kp. Waena, Kec. Heram, Kota Jayapura, Papua 99225","Kp. Waena, Kec. Heram, Kota Jayapura",PAPUA,99225.0,Indonesia,,,,-2.5957367,140.6334439,https://maps.google.com/?cid=0x0:0x6a71f176f580be8,
supermarket,Toko bahan makanan,Makishi Fish Market,"Ruko Golf Island, Jl. Pantai Indah Kapuk No.20, Kec. Penjaringan, Daerah Khusus Ibukota Jakarta 14470","Jl. Pantai Indah Kapuk No.20, Kec. Penjaringan",PAPUA,14470.0,Indonesia,82180000528.0,,,-6.0946601,106.7434256,https://maps.google.com/?cid=0x0:0x1562efb0c4098301,
supermarket,Minimarket,Makki,"Pasar Sunan Giri, Jl. Sunan Giri, RT.8/RW.15, Rawamangun, Kec. Pulo Gadung, Kota Jakarta Timur, Daerah Khusus Ibukota Jakarta 13220","Jl. Sunan Giri, RT.8/RW.15, Rawamangun, Kec. Pulo Gadung, Kota Jakarta Timur",PAPUA,13220.0,Indonesia,2182034474.0,,,-6.1958817,106.8824766,https://maps.google.com/?cid=0x0:0xcaf2cd93a4048ca5,
supermarket,Toko Swalayan,GrandLucky - SCBD,"Kawasan Niaga Terpadu Sudirman (SCBD, Jl. Jenderal Sudirman LOT-12, Senayan, Kec. Kby. Baru, Kota Jakarta Selatan, Daerah Khusus Ibukota Jakarta 12190","Jl. Jenderal Sudirman LOT-12, Senayan, Kec. Kby. Baru, Kota Jakarta Selatan",PAPUA,12190.0,Indonesia,215153832.0,,,-6.22691,106.8059153,https://maps.google.com/?cid=0x0:0x4efcd0d8d64cad53,
supermarket,Toko Swalayan,GrandLucky - Radio Dalam,"Jl. Radio Dalam Raya No.9, RT.4/RW.4, Gandaria Utara, Kec. Kby. Baru, Kota Jakarta Selatan, Daerah Khusus Ibukota Jakarta 12140","RT.4/RW.4, Gandaria Utara, Kec. Kby. Baru, Kota Jakarta Selatan",PAPUA,12140.0,Indonesia,217398368.0,,,-6.2538402,106.7907062,https://maps.google.com/?cid=0x0:0x3a6b61772e479f77,
supermarket,Toko bahan makanan,Diana Supermarket,"Jl. Budi Utomo No.8, Kwamki, Kec. Mimika Baru, Kabupaten Mimika, Papua 99971","Kwamki, Kec. Mimika Baru, Kabupaten Mimika",PAPUA,99971.0,Indonesia,901322829.0,,,-4.5427693,136.8837435,https://maps.google.com/?cid=0x0:0x4cea28f7389f57e8,
supermarket,Es Krim,Xiyue Ice Cream,"FV5M+3FQ, Kwamki, Kec. Mimika Baru, Kabupaten Mimika, Papua 99971","Kwamki, Kec. Mimika Baru, Kabupaten Mimika",PAPUA,99971.0,Indonesia,,,,-4.5422941,136.8837479,https://maps.google.com/?cid=0x0:0x1384da690e293f40,
supermarket,Restoran,So Yummy Bakery  Cafe,"Gedung Diana, Jl. Budi Utomo No.8 Lantai Dasar, Kwamki, Kec. Mimika Baru, Kabupaten Mimika, Papua 99971","Jl. Budi Utomo No.8 Lantai Dasar, Kwamki, Kec. Mimika Baru, Kabupaten Mimika",PAPUA,99971.0,Indonesia,9013264829.0,,,-4.5428654,136.8837126,https://maps.google.com/?cid=0x0:0x54ecba4b79b13ba2,
supermarket,Pusat Perbelanjaan,Diana Mall XXI,"Diana Mall Timika, Jl. Budi Utomo No.8 Lt. 6, Kwamki, Kec. Mimika Baru, Kabupaten Mimika, Papua 99971","Jl. Budi Utomo No.8 Lt. 6, Kwamki, Kec. Mimika Baru, Kabupaten Mimika",PAPUA,99971.0,Indonesia,8873070010.0,,,-4.5420634,136.8835379,https://maps.google.com/?cid=0x0:0x10f4b67038a1ac50,
supermarket,Toko Swalayan,The Gourmet by Ranch Market,"ASHTA Lantai Dasar Unit LG-01, Jl. Senopati No.Raya, RT.8/RW.3, Senayan, Kec. Kby. Baru, Kota Jakarta Selatan, Daerah Khusus Ibukota Jakarta 12190","Jl. Senopati No.Raya, RT.8/RW.3, Senayan, Kec. Kby. Baru, Kota Jakarta Selatan",PAPUA,12190.0,Indonesia,81282091909.0,,,-6.2292324,106.8067785,https://maps.google.com/?cid=0x0:0x32d5081bb2c4af19,
supermarket,Toko Swalayan,GS THE FRESH JATIBENING,"Jl. Caman Raya No.7-24, RT.004/RW.003, Jatibening, Kec. Pd. Gede, Kota Bks, Jawa Barat 17412","RT.004/RW.003, Jatibening, Kec. Pd. Gede, Kota Bks",PAPUA,17412.0,Indonesia,2184982211.0,,,-6.2676455,106.9436409,https://maps.google.com/?cid=0x0:0x2cdb50c3ee3206c,
supermarket,Toko Swalayan,GS The Fresh Supermarket Kemang Pratama,"Linc Square Kemang Pratama, Jl. Kemang Pratama Raya, RT.004/RW.001, Bojong Rawalumbu, Kec. Rawalumbu, Kota Bks, Jawa Barat 17116","Jl. Kemang Pratama Raya, RT.004/RW.001, Bojong Rawalumbu, Kec. Rawalumbu, Kota Bks",PAPUA,17116.0,Indonesia,2182416910.0,,,-6.2779418,106.9910558,https://maps.google.com/?cid=0x0:0x4ce692f4b9ef21ee,
supermarket,Toko Swalayan,GS The Fresh Alam Sutera,"Flavor Bliss, Jl. Alam Sutera Boulevard, Pakulonan, Kec. Serpong Utara, Kota Tangerang Selatan, Banten 15325","Jl. Alam Sutera Boulevard, Pakulonan, Kec. Serpong Utara, Kota Tangerang Selatan",PAPUA,15325.0,Indonesia,2150200763.0,,,-6.2429576,106.6509779,https://maps.google.com/?cid=0x0:0x2e1e78cfe6fb23eb,
supermarket,Toko Swalayan,GS Supermarket Jatiasih,"GsSupermarket :, Jl. Wibawa Mukti II No.125, RT.002/ RW017/RW.017, Jatiasih, Kec. Jatiasih, Kota Bks, Jawa Barat 17423","Jl. Wibawa Mukti II No.125, RT.002/ RW017/RW.017, Jatiasih, Kec. Jatiasih, Kota Bks",PAPUA,17423.0,Indonesia,2182736918.0,,,-6.3070579,106.955731,https://maps.google.com/?cid=0x0:0x74efd6ce433268e6,
supermarket,Toko bahan makanan,KERAMBA PANPER,"Unnamed Road, Doyo Lama, Distrik Waibu, Kabupaten Jayapura, Papua 99352","Doyo Lama, Distrik Waibu, Kabupaten Jayapura",PAPUA,99352.0,Indonesia,82397758140.0,,,-2.5723817,140.4535468,https://maps.google.com/?cid=0x0:0x99681cfd0f029c29,
supermarket,Cagar Alam,Depapre,"Waiya, Distrik Depapre, Kabupaten Jayapura, Papua 99353","Distrik Depapre, Kabupaten Jayapura",PAPUA,99353.0,Indonesia,967536161.0,,,-2.4634125,140.3660779,https://maps.google.com/?cid=0x0:0x50fbd732ed5f5ad9,
supermarket,Toserba,Mega Waena Departement Store,"Jl. Raya Waena Sentani, Waena, Kec. Heram, Kota Jayapura, Papua 99351","Waena, Kec. Heram, Kota Jayapura",PAPUA,99351.0,Indonesia,,,,-2.5973349,140.6348789,https://maps.google.com/?cid=0x0:0xd96e42f2c11ca1e9,
supermarket,Restoran,KFC Waena,"Jl. Raya Abepura - Sentani No.Kel, Kp. Waena, Kec. Heram, Kota Jayapura, Papua 99351","Kp. Waena, Kec. Heram, Kota Jayapura",PAPUA,99351.0,Indonesia,2114022.0,,,-2.5972915,140.6348464,https://maps.google.com/?cid=0x0:0x8f948d30ef674300,
supermarket,Pizza,Pizza Hut Restoran,"Mega Waena Deptstore, Jl. Raya Waena Sentani, Kp. Waena, Kec. Heram, Kota Jayapura, Papua 99351","Jl. Raya Waena Sentani, Kp. Waena, Kec. Heram, Kota Jayapura",PAPUA,99351.0,Indonesia,1500600.0,,,-2.5973019,140.6349077,https://maps.google.com/?cid=0x0:0xfc24606dfd7f5a32,
supermarket,Toko Swalayan,Daily Food Hall,"Bellagio Mall Kav. E 4.3, Jl. Mega Kuningan Barat, RT.5/RW.2, Kuningan, Kuningan Tim., Kecamatan Setiabudi, Kota Jakarta Selatan, Daerah Khusus Ibukota Jakarta 12950","Jl. Mega Kuningan Barat, RT.5/RW.2, Kuningan, Kuningan Tim., Kecamatan Setiabudi, Kota Jakarta Selatan",PAPUA,12950.0,Indonesia,,,,-6.2275173,106.8243531,https://maps.google.com/?cid=0x0:0xaeaa90605c58445e,
supermarket,Toko Swalayan,Ranch Market Pesanggrahan,"1, Jl. Pesanggrahan No.2, Kembangan Sel., Kec. Kembangan, Kota Jakarta Barat, Daerah Khusus Ibukota Jakarta 11610","Jl. Pesanggrahan No.2, Kembangan Sel., Kec. Kembangan, Kota Jakarta Barat",PAPUA,11610.0,Indonesia,2158304842.0,,,-6.1883181,106.7561831,https://maps.google.com/?cid=0x0:0x59972408c2ef6a6e,
supermarket,Minimarket,Daily Supermarket - Tebet Sarana Square,"Jl. Tebet Barat IV No.20, RT.8/RW.2, Tebet Bar., Kec. Tebet, Jakarta, Daerah Khusus Ibukota Jakarta 12810","RT.8/RW.2, Tebet Bar., Kec. Tebet, Jakarta",PAPUA,12810.0,Indonesia,,,,-6.2337357,106.8476898,https://maps.google.com/?cid=0x0:0x2f4be933ad972dbf,
supermarket,Toko bahan makanan,Diamond,"Jl. Permata Artha Gading No.18, RT.18/RW.8, Klp. Gading Bar., Kec. Klp. Gading, Jkt Utara, Daerah Khusus Ibukota Jakarta 14240","RT.18/RW.8, Klp. Gading Bar., Kec. Klp. Gading, Jkt Utara",PAPUA,14240.0,Indonesia,2145863828.0,,,-6.1464444,106.8922506,https://maps.google.com/?cid=0x0:0x1b41fb935cae0e30,
supermarket,Pusat Perbelanjaan,Daily Supermarket Puri Mansion,"Ruko Puri Mansion Blok C 2, RT.2/RW.1, Kembangan Sel., Kec. Kembangan, Kota Jakarta Barat, Daerah Khusus Ibukota Jakarta 11610","RT.2/RW.1, Kembangan Sel., Kec. Kembangan, Kota Jakarta Barat",PAPUA,11610.0,Indonesia,81944117272.0,,,-6.1782717,106.727934,https://maps.google.com/?cid=0x0:0xb5555bd3bf987072,
supermarket,Konsultan makanan dan minuman,Diamond Supermarket Revo Mall,"Jl. Ahmad Yani No.Kav 1, RT.005/RW.002, Pekayon Jaya, Kec. Bekasi Sel., Kota Bks, Jawa Barat 17148","RT.005/RW.002, Pekayon Jaya, Kec. Bekasi Sel., Kota Bks",PAPUA,17148.0,Indonesia,,,,-6.2537332,106.9900523,https://maps.google.com/?cid=0x0:0xafa72a1ab9ae4a8a,
supermarket,Supermarket Industri,Daily Supermarket - Bumi Serpong Damai,"Blok B2 No.10, Blk. B2 No.10, Pagedangan, Kec. Pagedangan, Kabupaten Tangerang, Banten 15339","Blk. B2 No.10, Pagedangan, Kec. Pagedangan, Kabupaten Tangerang",PAPUA,15339.0,Indonesia,8179077272.0,,,-6.293191,106.634071,https://maps.google.com/?cid=0x0:0x35a19498f12fc900,
supermarket,Toko Swalayan,GS Supermarket Jatiasih,"GsSupermarket :, Jl. Wibawa Mukti II No.125, RT.002/ RW017/RW.017, Jatiasih, Kec. Jatiasih, Kota Bks, Jawa Barat 17423","Jl. Wibawa Mukti II No.125, RT.002/ RW017/RW.017, Jatiasih, Kec. Jatiasih, Kota Bks",PAPUA,17423.0,Indonesia,2182736918.0,,,-6.3070579,106.955731,https://maps.google.com/?cid=0x0:0x74efd6ce433268e6,
supermarket,supermarket,Papua 99563,Papua,Papua,PAPUA,,Indonesia,,,,-3.9612229,138.1597946,https://maps.google.com/?cid=0x0:0xb123b70d10849bd1,
supermarket,Pusat Perbelanjaan,Papua Supermarket  Dept. Store,"4869+F77 Bar, Sawagumu, Kec. Sorong Utara, Kota Sorong, Papua Bar. 98416","Sawagumu, Kec. Sorong Utara, Kota Sorong",PAPUA,98416.0,Indonesia,9513160123.0,,,-0.888831,131.3181847,https://maps.google.com/?cid=0x0:0x7b5f0926a74ad213,
supermarket,supermarket,Kios manggioi,"Urei Faisei Dua, Kec. Urei Faisei, Kabupaten Waropen, Papua 98261","Kec. Urei Faisei, Kabupaten Waropen",PAPUA,98261.0,Indonesia,,,,-2.2121293,136.441672,https://maps.google.com/?cid=0x0:0xa75845398ab5bad6,
supermarket,Toko Swalayan,Nagalomuni Market,"7XRJ+565, Pruleme, Distrik Mulia, Kabupaten Puncak Jaya, Papua 98973","Pruleme, Distrik Mulia, Kabupaten Puncak Jaya",PAPUA,98973.0,Indonesia,,,,-3.7096029,137.9806117,https://maps.google.com/?cid=0x0:0xdb6a90a01498712d,
supermarket,supermarket,Papua 99563,Papua,Papua,PAPUA,,Indonesia,,,,-3.9612229,138.1597946,https://maps.google.com/?cid=0x0:0xb123b70d10849bd1,
supermarket,Toko Swalayan,Nagalomuni Market,"7XRJ+565, Pruleme, Distrik Mulia, Kabupaten Puncak Jaya, Papua 98973","Pruleme, Distrik Mulia, Kabupaten Puncak Jaya",PAPUA,98973.0,Indonesia,,,,-3.7096029,137.9806117,https://maps.google.com/?cid=0x0:0xdb6a90a01498712d,
supermarket,Toko Swalayan,Sejahtera,"7XMQ+MMR, Pagaleme, Distrik Mulia, Kabupaten Puncak Jaya, Papua 98975","Pagaleme, Distrik Mulia, Kabupaten Puncak Jaya",PAPUA,98975.0,Indonesia,,,,-3.7157736,137.9891495,https://maps.google.com/?cid=0x0:0xa0a1bfcfd7262206,
supermarket,Toko bahan makanan,Anaogi,"7XRG+38J, Pruleme, Distrik Mulia, Kabupaten Puncak Jaya, Papua 98973","Pruleme, Distrik Mulia, Kabupaten Puncak Jaya",PAPUA,98973.0,Indonesia,,,,-3.7097815,137.9757757,https://maps.google.com/?cid=0x0:0xc403186db4a6346f,
supermarket,Toko umum,Kios Mama Andi,"7XX7+2Q3, Wuyukwi, Distrik Mulia, Kabupaten Puncak Jaya, Papua 98973","Wuyukwi, Distrik Mulia, Kabupaten Puncak Jaya",PAPUA,98973.0,Indonesia,81247174537.0,,,-3.7024971,137.9644274,https://maps.google.com/?cid=0x0:0x461f852ed7f20fc1,
supermarket,Toko,Kios Alfath Padang,"8X28+3MJ, Jln. Muliagamvut, Wuyukwi, Distrik Mulia, Kabupaten Puncak Jaya, Papua 98973","Jln. Muliagamvut, Wuyukwi, Distrik Mulia, Kabupaten Puncak Jaya",PAPUA,98973.0,Indonesia,,,,-3.6997795,137.9666549,https://maps.google.com/?cid=0x0:0x44092575b6346aa9,
supermarket,Toko bahan makanan,Kios Patar,"7XQJ+43G, Pruleme, Distrik Mulia, Kabupaten Puncak Jaya, Papua 98973","Pruleme, Distrik Mulia, Kabupaten Puncak Jaya",PAPUA,98973.0,Indonesia,,,,-3.7121929,137.9802008,https://maps.google.com/?cid=0x0:0x37092153e0fef0e7,
supermarket,Pasar,Pasar Kota Lama,"7XX8+QGF, Wuyukwi, Distrik Mulia, Kabupaten Puncak Jaya, Papua 98973","Wuyukwi, Distrik Mulia, Kabupaten Puncak Jaya",PAPUA,98973.0,Indonesia,82259414404.0,,,-3.7005544,137.9663057,https://maps.google.com/?cid=0x0:0x20cb15b6e00524b0,
supermarket,Toko,Kios Galaxy,"7XJJ+PR2, Pruleme, Distrik Mulia, Kabupaten Puncak Jaya, Papua 98973","Pruleme, Distrik Mulia, Kabupaten Puncak Jaya",PAPUA,98973.0,Indonesia,,,,-3.7182409,137.9820233,https://maps.google.com/?cid=0x0:0xf82f8c7dfb18c1d8,
supermarket,Pasar,Pasar Kota Baru Mulia,"7XPJ+9GJ, Unnamed Road, Pruleme, Distrik Mulia, Kabupaten Puncak Jaya, Papua 98973","Unnamed Road, Pruleme, Distrik Mulia, Kabupaten Puncak Jaya",PAPUA,98973.0,Indonesia,,,,-3.7140354,137.9812554,https://maps.google.com/?cid=0x0:0x77ddec4f9d4258f4,
supermarket,Toko,Kios Makmur Jaya,"7XX8+QGF, Jalan ampera, kota lama, Distrik Mulia, Kabupaten Puncak Jaya, Papua","Kabupaten Puncak Jaya, Papua",PAPUA,,Indonesia,,,,-3.7005544,137.9663057,https://maps.google.com/?cid=0x0:0xf53c5259256c1cd7,
supermarket,Pasar,Pasar Sentral Mulia,"7XRH+FXP, Pruleme, Distrik Mulia, Kabupaten Puncak Jaya, Papua 98973","Pruleme, Distrik Mulia, Kabupaten Puncak Jaya",PAPUA,98973.0,Indonesia,,,,-3.7087895,137.9799508,https://maps.google.com/?cid=0x0:0x33f798c3e7d78f58,
supermarket,Toko Swalayan,Lily Small Shop,"7XRH+FXP, Pruleme, Distrik Mulia, Kabupaten Puncak Jaya, Papua 98973","Pruleme, Distrik Mulia, Kabupaten Puncak Jaya",PAPUA,98973.0,Indonesia,,,,-3.7089375,137.980184,https://maps.google.com/?cid=0x0:0x4977dc6d84870a7,
supermarket,Toko bahan makanan,Kios Putra,"7XMJ+PH3, Pruleme, Distrik Mulia, Kabupaten Puncak Jaya, Papua 98973","Pruleme, Distrik Mulia, Kabupaten Puncak Jaya",PAPUA,98973.0,Indonesia,,,,-3.7157364,137.9814369,https://maps.google.com/?cid=0x0:0x59d91a1e013e5a7,
supermarket,Kios,KIOS IFAH,"75XW+HXJ, Dolinggame, Distrik Ilu, Kabupaten Puncak Jaya, Papua","Kabupaten Puncak Jaya, Papua",PAPUA,,Indonesia,,,,-3.7010288,138.1973853,https://maps.google.com/?cid=0x0:0x69f16b82aac9458e,
supermarket,Toko bahan makanan,Melona,"7XQJ+258, Pagaleme, Distrik Mulia, Kabupaten Puncak Jaya, Papua","Kabupaten Puncak Jaya, Papua",PAPUA,,Indonesia,,,,-3.7124642,137.9804616,https://maps.google.com/?cid=0x0:0x5d1bd08abcbcfcb7,
supermarket,Toko Swalayan,Majumapan 5758 Group,"Jalan Papua, Wuyukwi, Distrix Mulia, Kabupaten Puncak Jaya, Papua 98973","Wuyukwi, Distrix Mulia, Kabupaten Puncak Jaya",PAPUA,98973.0,Indonesia,,,,-3.6833874,137.9603155,https://maps.google.com/?cid=0x0:0x18dcb31294a86d1e,
supermarket,Pasar,Nur Fadilah,"7XPJ+9GJ, Pruleme, Distrik Mulia, Kabupaten Puncak Jaya, Papua","Kabupaten Puncak Jaya, Papua",PAPUA,,Indonesia,82191996812.0,,,-3.7140376,137.9812576,https://maps.google.com/?cid=0x0:0x7740b6c1abf33b37,
supermarket,supermarket,Papua 99567,"Kabupaten Lanny Jaya, Papua","Kabupaten Lanny Jaya, Papua",PAPUA,,Indonesia,,,,-3.8553159,138.4787258,https://maps.google.com/?cid=0x0:0x54dba557046d88de,
supermarket,Pusat Perbelanjaan,GELAEL SUPERMARKET,"Jl. Halmahera No.1, Trikora, Kec. Jayapura Utara, Kota Jayapura, Papua 99111","Trikora, Kec. Jayapura Utara, Kota Jayapura",PAPUA,99111.0,Indonesia,967537260.0,,,-2.5409664,140.7049667,https://maps.google.com/?cid=0x0:0x5dac61c724bf3c86,
supermarket,Pusat Perbelanjaan,Papua Supermarket  Dept. Store,"4869+F77 Bar, Sawagumu, Kec. Sorong Utara, Kota Sorong, Papua Bar. 98416","Sawagumu, Kec. Sorong Utara, Kota Sorong",PAPUA,98416.0,Indonesia,9513160123.0,,,-0.888831,131.3181847,https://maps.google.com/?cid=0x0:0x7b5f0926a74ad213,
supermarket,Kios,KIOS IFAH,"75XW+HXJ, Dolinggame, Distrik Ilu, Kabupaten Puncak Jaya, Papua","Kabupaten Puncak Jaya, Papua",PAPUA,,Indonesia,,,,-3.7010288,138.1973853,https://maps.google.com/?cid=0x0:0x69f16b82aac9458e,
supermarket,supermarket,Papuamart,"8F7H+HFQ, Karubaga, Kec. Karubaga, Kabupaten Tolikara, Papua 99567","Karubaga, Kec. Karubaga, Kabupaten Tolikara",PAPUA,99567.0,Indonesia,82211028548.0,,,-3.6860415,138.4787244,https://maps.google.com/?cid=0x0:0x42f01a5a3eafbb7f,
supermarket,supermarket,Kios Kagembur,"CC38+7JR, Alukuni, Distrik Kembu, Kabupaten Tolikara, Papua 99562","Alukuni, Distrik Kembu, Kabupaten Tolikara",PAPUA,99562.0,Indonesia,,,,-3.5967635,138.4165187,https://maps.google.com/?cid=0x0:0xa2301c10eef42ee4,
supermarket,supermarket,Kios maqfira,"7FVF+W3G, Banggeri, Distrik Wugi, Kabupaten Tolikara, Papua 99567","Banggeri, Distrik Wugi, Kabupaten Tolikara",PAPUA,99567.0,Indonesia,,,,-3.7051826,138.4727157,https://maps.google.com/?cid=0x0:0xc81f875607cea709,
supermarket,supermarket,Aspan supermarket trikora,"PMRQ+53R, Trikora, Distrik Wamena, Kabupaten Jayawijaya, Papua","Kabupaten Jayawijaya, Papua",PAPUA,,Indonesia,,,,-4.259512,138.687625,https://maps.google.com/?cid=0x0:0xde6dff8441b87819,
supermarket,supermarket,Distrik Tiomneri,"Kabupaten Lanny Jaya, Papua","Kabupaten Lanny Jaya, Papua",PAPUA,,Indonesia,,,,-3.8761181,138.4009177,https://maps.google.com/?cid=0x0:0x88f4e9020ef9ade8,
supermarket,Toko,Pasar Tiom,"3FG2+QXH, Oyi, Distrik Tiom, Kabupaten Lanny Jaya, Papua 99567","Oyi, Distrik Tiom, Kabupaten Lanny Jaya",PAPUA,99567.0,Indonesia,,,,-3.9230623,138.4524939,https://maps.google.com/?cid=0x0:0x7aaeff27cf14362,
supermarket,Toko,Kios A2 Tiom,"3FH2+3QC, Oyi, Distrik Tiom, Kabupaten Lanny Jaya, Papua 99567","Oyi, Distrik Tiom, Kabupaten Lanny Jaya",PAPUA,99567.0,Indonesia,85211111090.0,,,-3.9223033,138.4518806,https://maps.google.com/?cid=0x0:0x754ec0b8094b6492,
supermarket,supermarket,Kios via,"Jl. Capt.M. Mully weya Kampung Kuwopaga Distrik Tiomneri Kabupaten Lanny jaya Propinsi Papua Pengunungan, 99595","Kabupaten Lanny Jaya, Papua",PAPUA,,Indonesia,,,,-3.8899037,138.4201273,https://maps.google.com/?cid=0x0:0x6094ea9a0bd22804,
supermarket,supermarket,Papua 99563,Papua,Papua,PAPUA,,Indonesia,,,,-3.9612229,138.1597946,https://maps.google.com/?cid=0x0:0xb123b70d10849bd1,
supermarket,Toko Swalayan,Nagalomuni Market,"7XRJ+565, Pruleme, Distrik Mulia, Kabupaten Puncak Jaya, Papua 98973","Pruleme, Distrik Mulia, Kabupaten Puncak Jaya",PAPUA,98973.0,Indonesia,,,,-3.7096029,137.9806117,https://maps.google.com/?cid=0x0:0xdb6a90a01498712d,
supermarket,Toko Swalayan,Sejahtera,"7XMQ+MMR, Pagaleme, Distrik Mulia, Kabupaten Puncak Jaya, Papua 98975","Pagaleme, Distrik Mulia, Kabupaten Puncak Jaya",PAPUA,98975.0,Indonesia,,,,-3.7157736,137.9891495,https://maps.google.com/?cid=0x0:0xa0a1bfcfd7262206,
supermarket,Toko bahan makanan,Anaogi,"7XRG+38J, Pruleme, Distrik Mulia, Kabupaten Puncak Jaya, Papua 98973","Pruleme, Distrik Mulia, Kabupaten Puncak Jaya",PAPUA,98973.0,Indonesia,,,,-3.7097815,137.9757757,https://maps.google.com/?cid=0x0:0xc403186db4a6346f,
supermarket,Toko umum,Kios Mama Andi,"7XX7+2Q3, Wuyukwi, Distrik Mulia, Kabupaten Puncak Jaya, Papua 98973","Wuyukwi, Distrik Mulia, Kabupaten Puncak Jaya",PAPUA,98973.0,Indonesia,81247174537.0,,,-3.7024971,137.9644274,https://maps.google.com/?cid=0x0:0x461f852ed7f20fc1,
supermarket,Toko,Kios Galaxy,"7XJJ+PR2, Pruleme, Distrik Mulia, Kabupaten Puncak Jaya, Papua 98973","Pruleme, Distrik Mulia, Kabupaten Puncak Jaya",PAPUA,98973.0,Indonesia,,,,-3.7182409,137.9820233,https://maps.google.com/?cid=0x0:0xf82f8c7dfb18c1d8,
supermarket,Toko bahan makanan,Kios Patar,"7XQJ+43G, Pruleme, Distrik Mulia, Kabupaten Puncak Jaya, Papua 98973","Pruleme, Distrik Mulia, Kabupaten Puncak Jaya",PAPUA,98973.0,Indonesia,,,,-3.7121929,137.9802008,https://maps.google.com/?cid=0x0:0x37092153e0fef0e7,
supermarket,Pasar,Pasar Kota Lama,"7XX8+QGF, Wuyukwi, Distrik Mulia, Kabupaten Puncak Jaya, Papua 98973","Wuyukwi, Distrik Mulia, Kabupaten Puncak Jaya",PAPUA,98973.0,Indonesia,82259414404.0,,,-3.7005544,137.9663057,https://maps.google.com/?cid=0x0:0x20cb15b6e00524b0,
supermarket,Pasar,Pasar Kota Baru Mulia,"7XPJ+9GJ, Unnamed Road, Pruleme, Distrik Mulia, Kabupaten Puncak Jaya, Papua 98973","Unnamed Road, Pruleme, Distrik Mulia, Kabupaten Puncak Jaya",PAPUA,98973.0,Indonesia,,,,-3.7140354,137.9812554,https://maps.google.com/?cid=0x0:0x77ddec4f9d4258f4,
supermarket,Toko Swalayan,GrandLucky - SCBD,"Kawasan Niaga Terpadu Sudirman (SCBD, Jl. Jenderal Sudirman LOT-12, Senayan, Kec. Kby. Baru, Kota Jakarta Selatan, Daerah Khusus Ibukota Jakarta 12190","Jl. Jenderal Sudirman LOT-12, Senayan, Kec. Kby. Baru, Kota Jakarta Selatan",PAPUA,12190.0,Indonesia,215153832.0,,,-6.22691,106.8059153,https://maps.google.com/?cid=0x0:0x4efcd0d8d64cad53,
supermarket,Toko,Kios Alfath Padang,"8X28+3MJ, Jln. Muliagamvut, Wuyukwi, Distrik Mulia, Kabupaten Puncak Jaya, Papua 98973","Jln. Muliagamvut, Wuyukwi, Distrik Mulia, Kabupaten Puncak Jaya",PAPUA,98973.0,Indonesia,,,,-3.6997795,137.9666549,https://maps.google.com/?cid=0x0:0x44092575b6346aa9,
supermarket,Toko,Kios Makmur Jaya,"7XX8+QGF, Jalan ampera, kota lama, Distrik Mulia, Kabupaten Puncak Jaya, Papua","Kabupaten Puncak Jaya, Papua",PAPUA,,Indonesia,,,,-3.7005544,137.9663057,https://maps.google.com/?cid=0x0:0xf53c5259256c1cd7,
supermarket,Toko Swalayan,Lily Small Shop,"7XRH+FXP, Pruleme, Distrik Mulia, Kabupaten Puncak Jaya, Papua 98973","Pruleme, Distrik Mulia, Kabupaten Puncak Jaya",PAPUA,98973.0,Indonesia,,,,-3.7089375,137.980184,https://maps.google.com/?cid=0x0:0x4977dc6d84870a7,
supermarket,Pasar,Pasar Sentral Mulia,"7XRH+FXP, Pruleme, Distrik Mulia, Kabupaten Puncak Jaya, Papua 98973","Pruleme, Distrik Mulia, Kabupaten Puncak Jaya",PAPUA,98973.0,Indonesia,,,,-3.7087895,137.9799508,https://maps.google.com/?cid=0x0:0x33f798c3e7d78f58,
supermarket,Toko bahan makanan,Kios Putra,"7XMJ+PH3, Pruleme, Distrik Mulia, Kabupaten Puncak Jaya, Papua 98973","Pruleme, Distrik Mulia, Kabupaten Puncak Jaya",PAPUA,98973.0,Indonesia,,,,-3.7157364,137.9814369,https://maps.google.com/?cid=0x0:0x59d91a1e013e5a7,
supermarket,Toko Swalayan,Ranch Market Grand Indonesia,"Grand Indonesia Shoping Town East Mall, Jl. MH Thamrin No.1 Lantai LG, RT.1/RW.5, Menteng, Kec. Menteng, Kota Jakarta Pusat, Daerah Khusus Ibukota Jakarta 10310","Jl. MH Thamrin No.1 Lantai LG, RT.1/RW.5, Menteng, Kec. Menteng, Kota Jakarta Pusat",PAPUA,10310.0,Indonesia,2123599054.0,,,-6.1963902,106.8225851,https://maps.google.com/?cid=0x0:0xdb199471a47076d0,
supermarket,Toko bahan makanan,Melona,"7XQJ+258, Pagaleme, Distrik Mulia, Kabupaten Puncak Jaya, Papua","Kabupaten Puncak Jaya, Papua",PAPUA,,Indonesia,,,,-3.7124642,137.9804616,https://maps.google.com/?cid=0x0:0x5d1bd08abcbcfcb7,
supermarket,Kios,KIOS IFAH,"75XW+HXJ, Dolinggame, Distrik Ilu, Kabupaten Puncak Jaya, Papua","Kabupaten Puncak Jaya, Papua",PAPUA,,Indonesia,,,,-3.7010288,138.1973853,https://maps.google.com/?cid=0x0:0x69f16b82aac9458e,
supermarket,Toko Swalayan,Majumapan 5758 Group,"Jalan Papua, Wuyukwi, Distrix Mulia, Kabupaten Puncak Jaya, Papua 98973","Wuyukwi, Distrix Mulia, Kabupaten Puncak Jaya",PAPUA,98973.0,Indonesia,,,,-3.6833874,137.9603155,https://maps.google.com/?cid=0x0:0x18dcb31294a86d1e,
supermarket,Pasar,Nur Fadilah,"7XPJ+9GJ, Pruleme, Distrik Mulia, Kabupaten Puncak Jaya, Papua","Kabupaten Puncak Jaya, Papua",PAPUA,,Indonesia,82191996812.0,,,-3.7140376,137.9812576,https://maps.google.com/?cid=0x0:0x7740b6c1abf33b37,
supermarket,Toko grosir,Toko GALLIO Jaya,"VMX8+83W, Jalan poros, Kago, gome, Kabupaten Puncak, Papua","Kabupaten Puncak, Papua",PAPUA,,Indonesia,,,,-4.1016255,137.6652051,https://maps.google.com/?cid=0x0:0x61eb4ffcdad6929b,
supermarket,Toko,Toko H2 Jaya,"7XQJ+9W4, Pruleme, Distrik Mulia, Kabupaten Puncak Jaya, Papua 98973","Pruleme, Distrik Mulia, Kabupaten Puncak Jaya",PAPUA,98973.0,Indonesia,,,,-3.7123726,137.9824079,https://maps.google.com/?cid=0x0:0x7a9f9cadfa86bd6e,
supermarket,supermarket,Papua 99556,Papua,Papua,PAPUA,,Indonesia,,,,-3.7561908,138.6589406,https://maps.google.com/?cid=0x0:0x5a2842ee64e9fe01,
supermarket,Pusat Perbelanjaan,Papua Supermarket  Dept. Store,"4869+F77 Bar, Sawagumu, Kec. Sorong Utara, Kota Sorong, Papua Bar. 98416","Sawagumu, Kec. Sorong Utara, Kota Sorong",PAPUA,98416.0,Indonesia,9513160123.0,,,-0.888831,131.3181847,https://maps.google.com/?cid=0x0:0x7b5f0926a74ad213,
supermarket,Toko Swalayan,Saga Supermarket,"CPW3+83X, Ardipura, Distrik Jayapura Selatan, Kota Jayapura, Papua 99222","Ardipura, Distrik Jayapura Selatan, Kota Jayapura",PAPUA,99222.0,Indonesia,,,,-2.5541438,140.7027385,https://maps.google.com/?cid=0x0:0x287c7b2014785d97,
supermarket,Toko Swalayan,Kios Fajar,"C7QW+MG9, Jl. Irian Kepi, Kepi, Kec. Obaa, Kabupaten Mappi, Papua 99881","Jl. Irian Kepi, Kepi, Kec. Obaa, Kabupaten Mappi",PAPUA,99881.0,Indonesia,82130193311.0,,,-6.5608432,139.2963647,https://maps.google.com/?cid=0x0:0x5c3d6588326964ff,
supermarket,Pusat Perbelanjaan,Saga Jayapura,"Jl. Ahmad Yani, Gurabesi, Kec. Jayapura Utara, Kota Jayapura, Papua 99222","Gurabesi, Kec. Jayapura Utara, Kota Jayapura",PAPUA,99222.0,Indonesia,811480554.0,,,-2.5433433,140.7016688,https://maps.google.com/?cid=0x0:0x68f0411e320c4afb,
supermarket,Toko bahan makanan,DEPOT SATRIA JOAN,"3JWM+GQV, Kotdol, Distrik Serambakon, Kabupaten Pegunungan Bintang, Papua 99573","Kotdol, Distrik Serambakon, Kabupaten Pegunungan Bintang",PAPUA,99573.0,Indonesia,81343058967.0,,,-4.9036458,140.634431,https://maps.google.com/?cid=0x0:0xef33d2d686115f88,
supermarket,Toko Swalayan,Primo Supermarket Tembagapura,"Tembagapura, Kec. Tembagapura, Kabupaten Mimika, Papua 98972","Kec. Tembagapura, Kabupaten Mimika",PAPUA,98972.0,Indonesia,,,,-4.1423125,137.0900625,https://maps.google.com/?cid=0x0:0x79e7c0e104f18094,
supermarket,Minimarket,TOKO RINI JAYA,"G3F9+8XQ, Jl. Poros Teminabuan-ayanmaru, depan RSUD, Keyen, Kec. Teminabuan, Kabupaten Sorong Selatan, Papua Bar. 98454","Jl. Poros Teminabuan-ayanmaru, depan RSUD, Keyen, Kec. Teminabuan, Kabupaten Sorong Selatan",PAPUA,98454.0,Indonesia,81248712033.0,,,-1.4766617,132.0699779,https://maps.google.com/?cid=0x0:0x8a9b092ff180067,
supermarket,Gereja,GBGP yope,"CVQV+MJW samping Diana 2, Jl. Hasanuddin, Nawaripi, Kec. Mimika Baru, Kabupaten Mimika, Papua 99971","Jl. Hasanuddin, Nawaripi, Kec. Mimika Baru, Kabupaten Mimika",PAPUA,99971.0,Indonesia,,,,-4.5607627,136.8940675,https://maps.google.com/?cid=0x0:0xbacaec8c984abb95,
supermarket,Toko Swalayan,Ropan Market - Putikelek,"WW6R+33M, jl. putikelek, Kama, Distrik Wamena, Kabupaten Jayawijaya, Papua 99511","jl. putikelek, Kama, Distrik Wamena, Kabupaten Jayawijaya",PAPUA,99511.0,Indonesia,,,,-4.0897979,138.9401757,https://maps.google.com/?cid=0x0:0x3dcb9f7da0fe347a,
supermarket,Toko Video Game,PS Enterprise,"ITC Mangga Dua, Jl. Mangga Dua Raya No.33 Lt. 2 Blok D, Ancol, Kec. Pademangan, Jkt Utara, Daerah Khusus Ibukota Jakarta 14430","Jl. Mangga Dua Raya No.33 Lt. 2 Blok D, Ancol, Kec. Pademangan, Jkt Utara",PAPUA,14430.0,Indonesia,2162300767.0,,,-6.1357258,106.8249841,https://maps.google.com/?cid=0x0:0xab3d2a1560345216,
supermarket,Toko Video Game,Butik Games,"Mangga Dua Mal Lantai 1 No. 17 A Jl. Arteri RW.5, RT.1/RW.12, Mangga Dua Sel., Kecamatan Sawah Besar, Kota Jakarta Pusat, Daerah Khusus Ibukota Jakarta 10730","RT.1/RW.12, Mangga Dua Sel., Kecamatan Sawah Besar, Kota Jakarta Pusat",PAPUA,10730.0,Indonesia,216128084.0,,,-6.1370722,106.8241574,https://maps.google.com/?cid=0x0:0x9d8b48f05d93ff8f,
supermarket,Toko Video Game,Play Grep,"Gedung ITC Mangga Dua Blok D No. 14, JL. Mangga Dua Raya, 14430, RT.11/RW.5, Ancol, Kec. Pademangan, Jkt Utara, Daerah Khusus Ibukota Jakarta 14430","JL. Mangga Dua Raya,",PAPUA,14430.0,Indonesia,216014973.0,,,-6.1355492,106.8244974,https://maps.google.com/?cid=0x0:0xaf92ee4602aac9d0,
supermarket,Toko Video Game,Toko Game,"VR7F+599, Mall Mangga Dua Lantai GF, Jl. Mangga Dua Raya, RT.1/RW.12, Mangga Dua Sel., Kecamatan Sawah Besar, Jkt Utara, Daerah Khusus Ibukota Jakarta 10730","Mall Mangga Dua Lantai GF, Jl. Mangga Dua Raya, RT.1/RW.12, Mangga Dua Sel., Kecamatan Sawah Besar, Jkt Utara",PAPUA,10730.0,Indonesia,2162316890.0,,,-6.1370969,106.8234831,https://maps.google.com/?cid=0x0:0xed88c48f0298de72,
supermarket,Pusat Perbelanjaan,ITC Mangga Dua,"Jl. Mangga Dua Raya, RT.11/RW.5, Ancol, Kec. Pademangan, Jkt Utara, Daerah Khusus Ibukota Jakarta 14430","RT.11/RW.5, Ancol, Kec. Pademangan, Jkt Utara",PAPUA,14430.0,Indonesia,216017771.0,,,-6.1360855,106.8243767,https://maps.google.com/?cid=0x0:0xab408191f954d871,
supermarket,supermarket,Papua 99563,Papua,Papua,PAPUA,,Indonesia,,,,-3.9612229,138.1597946,https://maps.google.com/?cid=0x0:0xb123b70d10849bd1,
supermarket,Toko Swalayan,Nagalomuni Market,"7XRJ+565, Pruleme, Distrik Mulia, Kabupaten Puncak Jaya, Papua 98973","Pruleme, Distrik Mulia, Kabupaten Puncak Jaya",PAPUA,98973.0,Indonesia,,,,-3.7096029,137.9806117,https://maps.google.com/?cid=0x0:0xdb6a90a01498712d,
supermarket,Toko Swalayan,Sejahtera,"7XMQ+MMR, Pagaleme, Distrik Mulia, Kabupaten Puncak Jaya, Papua 98975","Pagaleme, Distrik Mulia, Kabupaten Puncak Jaya",PAPUA,98975.0,Indonesia,,,,-3.7157736,137.9891495,https://maps.google.com/?cid=0x0:0xa0a1bfcfd7262206,
supermarket,Toko bahan makanan,Anaogi,"7XRG+38J, Pruleme, Distrik Mulia, Kabupaten Puncak Jaya, Papua 98973","Pruleme, Distrik Mulia, Kabupaten Puncak Jaya",PAPUA,98973.0,Indonesia,,,,-3.7097815,137.9757757,https://maps.google.com/?cid=0x0:0xc403186db4a6346f,
supermarket,Toko umum,Kios Mama Andi,"7XX7+2Q3, Wuyukwi, Distrik Mulia, Kabupaten Puncak Jaya, Papua 98973","Wuyukwi, Distrik Mulia, Kabupaten Puncak Jaya",PAPUA,98973.0,Indonesia,81247174537.0,,,-3.7024971,137.9644274,https://maps.google.com/?cid=0x0:0x461f852ed7f20fc1,
supermarket,Toko,Kios Alfath Padang,"8X28+3MJ, Jln. Muliagamvut, Wuyukwi, Distrik Mulia, Kabupaten Puncak Jaya, Papua 98973","Jln. Muliagamvut, Wuyukwi, Distrik Mulia, Kabupaten Puncak Jaya",PAPUA,98973.0,Indonesia,,,,-3.6997795,137.9666549,https://maps.google.com/?cid=0x0:0x44092575b6346aa9,
supermarket,Toko bahan makanan,Kios Patar,"7XQJ+43G, Pruleme, Distrik Mulia, Kabupaten Puncak Jaya, Papua 98973","Pruleme, Distrik Mulia, Kabupaten Puncak Jaya",PAPUA,98973.0,Indonesia,,,,-3.7121929,137.9802008,https://maps.google.com/?cid=0x0:0x37092153e0fef0e7,
supermarket,Pasar,Pasar Kota Lama,"7XX8+QGF, Wuyukwi, Distrik Mulia, Kabupaten Puncak Jaya, Papua 98973","Wuyukwi, Distrik Mulia, Kabupaten Puncak Jaya",PAPUA,98973.0,Indonesia,82259414404.0,,,-3.7005544,137.9663057,https://maps.google.com/?cid=0x0:0x20cb15b6e00524b0,
supermarket,Toko,Kios Galaxy,"7XJJ+PR2, Pruleme, Distrik Mulia, Kabupaten Puncak Jaya, Papua 98973","Pruleme, Distrik Mulia, Kabupaten Puncak Jaya",PAPUA,98973.0,Indonesia,,,,-3.7182409,137.9820233,https://maps.google.com/?cid=0x0:0xf82f8c7dfb18c1d8,
supermarket,Pasar,Pasar Kota Baru Mulia,"7XPJ+9GJ, Unnamed Road, Pruleme, Distrik Mulia, Kabupaten Puncak Jaya, Papua 98973","Unnamed Road, Pruleme, Distrik Mulia, Kabupaten Puncak Jaya",PAPUA,98973.0,Indonesia,,,,-3.7140354,137.9812554,https://maps.google.com/?cid=0x0:0x77ddec4f9d4258f4,
supermarket,Toko,Kios Makmur Jaya,"7XX8+QGF, Jalan ampera, kota lama, Distrik Mulia, Kabupaten Puncak Jaya, Papua","Kabupaten Puncak Jaya, Papua",PAPUA,,Indonesia,,,,-3.7005544,137.9663057,https://maps.google.com/?cid=0x0:0xf53c5259256c1cd7,
supermarket,Pasar,Pasar Sentral Mulia,"7XRH+FXP, Pruleme, Distrik Mulia, Kabupaten Puncak Jaya, Papua 98973","Pruleme, Distrik Mulia, Kabupaten Puncak Jaya",PAPUA,98973.0,Indonesia,,,,-3.7087895,137.9799508,https://maps.google.com/?cid=0x0:0x33f798c3e7d78f58,
supermarket,Toko Swalayan,Lily Small Shop,"7XRH+FXP, Pruleme, Distrik Mulia, Kabupaten Puncak Jaya, Papua 98973","Pruleme, Distrik Mulia, Kabupaten Puncak Jaya",PAPUA,98973.0,Indonesia,,,,-3.7089375,137.980184,https://maps.google.com/?cid=0x0:0x4977dc6d84870a7,
supermarket,Kios,KIOS IFAH,"75XW+HXJ, Dolinggame, Distrik Ilu, Kabupaten Puncak Jaya, Papua","Kabupaten Puncak Jaya, Papua",PAPUA,,Indonesia,,,,-3.7010288,138.1973853,https://maps.google.com/?cid=0x0:0x69f16b82aac9458e,
supermarket,Toko bahan makanan,Kios Putra,"7XMJ+PH3, Pruleme, Distrik Mulia, Kabupaten Puncak Jaya, Papua 98973","Pruleme, Distrik Mulia, Kabupaten Puncak Jaya",PAPUA,98973.0,Indonesia,,,,-3.7157364,137.9814369,https://maps.google.com/?cid=0x0:0x59d91a1e013e5a7,
supermarket,Toko bahan makanan,Melona,"7XQJ+258, Pagaleme, Distrik Mulia, Kabupaten Puncak Jaya, Papua","Kabupaten Puncak Jaya, Papua",PAPUA,,Indonesia,,,,-3.7124642,137.9804616,https://maps.google.com/?cid=0x0:0x5d1bd08abcbcfcb7,
supermarket,Toko Swalayan,Majumapan 5758 Group,"Jalan Papua, Wuyukwi, Distrix Mulia, Kabupaten Puncak Jaya, Papua 98973","Wuyukwi, Distrix Mulia, Kabupaten Puncak Jaya",PAPUA,98973.0,Indonesia,,,,-3.6833874,137.9603155,https://maps.google.com/?cid=0x0:0x18dcb31294a86d1e,
supermarket,Pasar,Nur Fadilah,"7XPJ+9GJ, Pruleme, Distrik Mulia, Kabupaten Puncak Jaya, Papua","Kabupaten Puncak Jaya, Papua",PAPUA,,Indonesia,82191996812.0,,,-3.7140376,137.9812576,https://maps.google.com/?cid=0x0:0x7740b6c1abf33b37,
supermarket,supermarket,Papua 99567,"Kabupaten Lanny Jaya, Papua","Kabupaten Lanny Jaya, Papua",PAPUA,,Indonesia,,,,-3.8553159,138.4787258,https://maps.google.com/?cid=0x0:0x54dba557046d88de,
supermarket,Pusat Perbelanjaan,GELAEL SUPERMARKET,"Jl. Halmahera No.1, Trikora, Kec. Jayapura Utara, Kota Jayapura, Papua 99111","Trikora, Kec. Jayapura Utara, Kota Jayapura",PAPUA,99111.0,Indonesia,967537260.0,,,-2.5409664,140.7049667,https://maps.google.com/?cid=0x0:0x5dac61c724bf3c86,
supermarket,Pusat Perbelanjaan,Papua Supermarket  Dept. Store,"4869+F77 Bar, Sawagumu, Kec. Sorong Utara, Kota Sorong, Papua Bar. 98416","Sawagumu, Kec. Sorong Utara, Kota Sorong",PAPUA,98416.0,Indonesia,9513160123.0,,,-0.888831,131.3181847,https://maps.google.com/?cid=0x0:0x7b5f0926a74ad213,
supermarket,Toko Swalayan,Papindo Supermarket,"7XMV+X6F, Buchanan Ave, Lae Morobe Province, Papua Nugini","Lae, Papua Nugini",PAPUA,,Indonesia,6754723322.0,,,-6.715068,146.9930577,https://maps.google.com/?cid=0x0:0x50fb7f483cef97f1,
supermarket,Kios,KIOS IFAH,"75XW+HXJ, Dolinggame, Distrik Ilu, Kabupaten Puncak Jaya, Papua","Kabupaten Puncak Jaya, Papua",PAPUA,,Indonesia,,,,-3.7010288,138.1973853,https://maps.google.com/?cid=0x0:0x69f16b82aac9458e,
supermarket,supermarket,Papuamart,"8F7H+HFQ, Karubaga, Kec. Karubaga, Kabupaten Tolikara, Papua 99567","Karubaga, Kec. Karubaga, Kabupaten Tolikara",PAPUA,99567.0,Indonesia,82211028548.0,,,-3.6860415,138.4787244,https://maps.google.com/?cid=0x0:0x42f01a5a3eafbb7f,
supermarket,supermarket,Kios Kagembur,"CC38+7JR, Alukuni, Distrik Kembu, Kabupaten Tolikara, Papua 99562","Alukuni, Distrik Kembu, Kabupaten Tolikara",PAPUA,99562.0,Indonesia,,,,-3.5967635,138.4165187,https://maps.google.com/?cid=0x0:0xa2301c10eef42ee4,
supermarket,supermarket,Kios maqfira,"7FVF+W3G, Banggeri, Distrik Wugi, Kabupaten Tolikara, Papua 99567","Banggeri, Distrik Wugi, Kabupaten Tolikara",PAPUA,99567.0,Indonesia,,,,-3.7051826,138.4727157,https://maps.google.com/?cid=0x0:0xc81f875607cea709,
supermarket,supermarket,Aspan supermarket trikora,"PMRQ+53R, Trikora, Distrik Wamena, Kabupaten Jayawijaya, Papua","Kabupaten Jayawijaya, Papua",PAPUA,,Indonesia,,,,-4.259512,138.687625,https://maps.google.com/?cid=0x0:0xde6dff8441b87819,
