Category;Real Category;Business Name;Address;City;State;Postal Code;Country;Phone;Latitude;Longitude;Map Link
"restaurant";"restaurant";"Kec. Banda Mulia";"Kabupaten Aceh Tamiang, Aceh";"Kabupaten Aceh Tamiang, Aceh";"ACEH";"";"Indonesia";"";"4.4405846";"98.1360921";"https://maps.google.com/?cid=0x0:0xe04c2bd9d3d421e8"
"restaurant";"Mi";"Mie Aceh KakSal";"C4HW+7FG, Unnamed Road, Telaga Meuku I, Kec. Banda Mulia, Kabupaten Aceh Tamiang, Aceh 24472";"Unnamed Road, Telaga Meuku I, Kec. Banda Mulia, Kabupaten Aceh Tamiang";"ACEH";"24472";"Indonesia";"";"4.4281912";"98.1461984";"https://maps.google.com/?cid=0x0:0x243c5cf4b4b39e6f"
"restaurant";"Kafe";"Den Kupi";"C4VR+37H, Unnamed Road, Matang Seuping, Kec. Banda Mulia, Kabupaten Aceh Tamiang, Aceh 24471";"Unnamed Road, Matang Seuping, Kec. Banda Mulia, Kabupaten Aceh Tamiang";"ACEH";"24471";"Indonesia";"";"4.4426978";"98.1407281";"https://maps.google.com/?cid=0x0:0x7fd530e9de861d16"
"restaurant";"Kafe";"CekGet Kupi";"C4MV+GQ4, Telaga Meuku I, Kec. Banda Mulia, Kabupaten Aceh Tamiang, Aceh 24472";"Telaga Meuku I, Kec. Banda Mulia, Kabupaten Aceh Tamiang";"ACEH";"24472";"Indonesia";"";"4.4337712";"98.1444643";"https://maps.google.com/?cid=0x0:0xfb7500078de50524"
"restaurant";"Mi";"Mie Aceh Bik Ani";"Jl. Kp. Besar, Gampong Besar, Kec. Banda Mulia, Kabupaten Aceh Tamiang, Aceh 24471";"Gampong Besar, Kec. Banda Mulia, Kabupaten Aceh Tamiang";"ACEH";"24471";"Indonesia";"";"4.421793";"98.1254393";"https://maps.google.com/?cid=0x0:0x6f647c6cf20399fd"
"restaurant";"Kafe";"Madi kupi";"C4MV+QHQ, Telaga Meuku I, Kec. Banda Mulia, Kabupaten Aceh Tamiang, Aceh 24472";"Telaga Meuku I, Kec. Banda Mulia, Kabupaten Aceh Tamiang";"ACEH";"24472";"Indonesia";"";"4.4344572";"98.1439956";"https://maps.google.com/?cid=0x0:0x4c0da8af99869569"
"restaurant";"Kedai Kopi";"Badroen CHITACI";"C4VM+476, sp.tiga telaga meuku dua, Telaga Meuku II, Kec. Banda Mulia, Kabupaten Aceh Tamiang, Aceh 24472";"sp.tiga telaga meuku dua, Telaga Meuku II, Kec. Banda Mulia, Kabupaten Aceh Tamiang";"ACEH";"24472";"Indonesia";" 085277146133";"4.4427752";"98.1331554";"https://maps.google.com/?cid=0x0:0xa7bae964b6ad7ccf"
"restaurant";"Restoran";"Grahcell";"93GQ+2RX, Jl. Medan Banda Aceh, Kebun Tj. Seumantoh, Kec. Karang Baru, Kabupaten Aceh Tamiang, Aceh 24471";"Jl. Medan Banda Aceh, Kebun Tj. Seumantoh, Kec. Karang Baru, Kabupaten Aceh Tamiang";"ACEH";"24471";"Indonesia";"";"4.3751016";"98.0896077";"https://maps.google.com/?cid=0x0:0x7936e3302bf3056e"
"restaurant";"Kafe";"Bang Karno Kupi";"F44P+V4J, Unnamed Road, Alur Nunang, Kec. Banda Mulia, Kabupaten Aceh Tamiang, Aceh 24471";"Unnamed Road, Alur Nunang, Kec. Banda Mulia, Kabupaten Aceh Tamiang";"ACEH";"24471";"Indonesia";"";"4.4572041";"98.135269";"https://maps.google.com/?cid=0x0:0xb2924ad5d9cc1c7"
"restaurant";"Kedai Kopi";"Warung miso pak sabar";"C4RP+6CP, Matang Seuping, Kec. Banda Mulia, Kabupaten Aceh Tamiang, Aceh";"Kabupaten Aceh Tamiang, Aceh";"ACEH";"";"Indonesia";" 081282711762";"4.4405846";"98.1360921";"https://maps.google.com/?cid=0x0:0xa322584d775efbee"
"restaurant";"Mi";"Mie Aceh hendri";"C4FG+C4X, Gampong Besar, Kec. Banda Mulia, Kabupaten Aceh Tamiang, Aceh 24471";"Gampong Besar, Kec. Banda Mulia, Kabupaten Aceh Tamiang";"ACEH";"24471";"Indonesia";" 082360112525";"4.4236049";"98.1253442";"https://maps.google.com/?cid=0x0:0x8bd41092a0b80703"
"restaurant";"Mi";"RR PONSEL";"Jl. Medan Banda Aceh, Tj. Seumantoh, Kec. Karang Baru, Kabupaten Aceh Tamiang, Aceh 24472";"Tj. Seumantoh, Kec. Karang Baru, Kabupaten Aceh Tamiang";"ACEH";"24472";"Indonesia";" 081265084338";"4.3671396";"98.092065";"https://maps.google.com/?cid=0x0:0x7a8c31180d3f324d"
"restaurant";"Restoran";"Cafe pinggir sungai";"934R+FX8, Tj. Seumantoh, Kec. Karang Baru, Kabupaten Aceh Tamiang, Aceh 24472";"Tj. Seumantoh, Kec. Karang Baru, Kabupaten Aceh Tamiang";"ACEH";"24472";"Indonesia";" 082171242164";"4.357173";"98.0928948";"https://maps.google.com/?cid=0x0:0xbbe3a9c10faa31e0"
"restaurant";"Bar";"Boba  Jus Anti Galau";"C4QM+56, Matang Seuping, Kec. Banda Mulia, Kabupaten Aceh Tamiang, Aceh";"Kabupaten Aceh Tamiang, Aceh";"ACEH";"";"Indonesia";" 082160715499";"4.4379314";"98.1330278";"https://maps.google.com/?cid=0x0:0xb12d9e9a7f344a1d"
"restaurant";"Restoran";"Cafe mukhale";"7RVM+R64, Unnamed Road, Pengidam, Kec. Bandar Pusaka, Kabupaten Aceh Tamiang, Aceh 24456";"Unnamed Road, Pengidam, Kec. Bandar Pusaka, Kabupaten Aceh Tamiang";"ACEH";"24456";"Indonesia";" 082369765678";"4.2945047";"97.8330639";"https://maps.google.com/?cid=0x0:0x8ff6bc4d4350f68d"
"restaurant";"restaurant";"Kec. Bandar Pusaka";"Kabupaten Aceh Tamiang, Aceh";"Kabupaten Aceh Tamiang, Aceh";"ACEH";"";"Indonesia";"";"4.2948637";"97.8778752";"https://maps.google.com/?cid=0x0:0x2b7834261cf3e187"
"restaurant";"Rumah Makan";"Warung pojok";"6WRV+R54, Blang Kandis, Kec. Bandar Pusaka, Kabupaten Aceh Tamiang, Aceh 24382";"Blang Kandis, Kec. Bandar Pusaka, Kabupaten Aceh Tamiang";"ACEH";"24382";"Indonesia";" 082274561188";"4.242005";"97.9429478";"https://maps.google.com/?cid=0x0:0xb9bb34b26b800122"
"restaurant";"Sarapan";"Warung Nasi Cik Kanti";"72F3+X2M, Aras Sembilan, Kec. Bandar Pusaka, Kabupaten Aceh Tamiang, Aceh 24456";"Aras Sembilan, Kec. Bandar Pusaka, Kabupaten Aceh Tamiang";"ACEH";"24456";"Indonesia";" 085711732583";"4.27497";"98.0025341";"https://maps.google.com/?cid=0x0:0x4e8a440bd442b7f3"
"restaurant";"Bakso";"Bakso ayunda putri";"7W36+HCF, Unnamed Road, Jambo Rambong, Kec. Bandar Pusaka, Kabupaten Aceh Tamiang, Aceh 24382";"Unnamed Road, Jambo Rambong, Kec. Bandar Pusaka, Kabupaten Aceh Tamiang";"ACEH";"24382";"Indonesia";" 082297235656";"4.2539313";"97.911043";"https://maps.google.com/?cid=0x0:0xd8d359bd9626f680"
"restaurant";"Kafe";"BOB WARKOP";"7VV8+5XF, Pantai Cempa, Kec. Bandar Pusaka, Kabupaten Aceh Tamiang, Aceh 24456";"Pantai Cempa, Kec. Bandar Pusaka, Kabupaten Aceh Tamiang";"ACEH";"24456";"Indonesia";" 082246839757";"4.2929366";"97.8674098";"https://maps.google.com/?cid=0x0:0xffbaccf7413103df"
"restaurant";"Bakso";"Bakso Pangsit Tunggal Roso Mas ULI";"7WGV+VW, Perupuk, Kec. Bandar Pusaka, Kabupaten Aceh Tamiang, Aceh";"Kabupaten Aceh Tamiang, Aceh";"ACEH";"";"Indonesia";"";"4.2771597";"97.9447848";"https://maps.google.com/?cid=0x0:0x8fb36ccd39ffb67e"
"restaurant";"Kedai Kopi";"WARUNG COLI";"6WPX+P82, Unnamed Road, Blang Kandis, Kec. Bandar Pusaka, Kabupaten Aceh Tamiang, Aceh 24382";"Unnamed Road, Blang Kandis, Kec. Bandar Pusaka, Kabupaten Aceh Tamiang";"ACEH";"24382";"Indonesia";"";"4.2367741";"97.9482713";"https://maps.google.com/?cid=0x0:0x1f7c99b7de3cfd44"
"restaurant";"Kedai Kopi";"PERMATA COFFE";"7VJ8+2M8, Simpang 3 Puskesmas, Babo, Kec. Bandar Pusaka, Kabupaten Aceh Tamiang, Aceh";"Kabupaten Aceh Tamiang, Aceh";"ACEH";"";"Indonesia";"";"4.2800483";"97.8667182";"https://maps.google.com/?cid=0x0:0x7a6ac99a9862ec47"
"restaurant";"Bakso";"Wroeng Kembar Bkt Krm";"6WQW+V76, Blang Kandis, Kec. Bandar Pusaka, Kabupaten Aceh Tamiang, Aceh 24382";"Blang Kandis, Kec. Bandar Pusaka, Kabupaten Aceh Tamiang";"ACEH";"24382";"Indonesia";" 081370696999";"4.2396546";"97.9456405";"https://maps.google.com/?cid=0x0:0xaa7e9b2af17e003a"
"restaurant";"Kafe";"Tamgo cafe";"7R6M+2J8, Pantai Cempa, Kec. Bandar Pusaka, Kabupaten Aceh Tamiang, Aceh";"Kabupaten Aceh Tamiang, Aceh";"ACEH";"";"Indonesia";"";"4.2600372";"97.8340757";"https://maps.google.com/?cid=0x0:0xb6d3229b8028a92c"
"restaurant";"Ayam";"Dapoor noona!";"Dusun Bangun Sari, Babo, Kec. Bandar Pusaka, Kabupaten Aceh Tamiang, Aceh 24478";"Babo, Kec. Bandar Pusaka, Kabupaten Aceh Tamiang";"ACEH";"24478";"Indonesia";" 082272789960";"4.2809042";"97.8848285";"https://maps.google.com/?cid=0x0:0xb3bd9cd900d0ea9b"
"restaurant";"Rumah Makan";"Tempat K,wan";"7VJM+89, Babo, Kec. Bandar Pusaka, Kabupaten Aceh Tamiang, Aceh";"Kabupaten Aceh Tamiang, Aceh";"ACEH";"";"Indonesia";"";"4.280837";"97.88339";"https://maps.google.com/?cid=0x0:0x5bd1e61ef1b6759f"
"restaurant";"Bakso";"Tempat K,wan";"7VJ8+2M8, Babo, Kec. Bandar Pusaka, Kabupaten Aceh Tamiang, Aceh";"Kabupaten Aceh Tamiang, Aceh";"ACEH";"";"Indonesia";"";"4.2800483";"97.8667182";"https://maps.google.com/?cid=0x0:0x78fc163079c82544"
"restaurant";"Kafe";"MIe aceh";"C568+C32, Suka Mulia Bendahara, Kec. Bendahara, Kabupaten Aceh Tamiang, Aceh 24472";"Suka Mulia Bendahara, Kec. Bendahara, Kabupaten Aceh Tamiang";"ACEH";"24472";"Indonesia";"";"4.4110174";"98.1651349";"https://maps.google.com/?cid=0x0:0xd4c717ebf84d8074"
"restaurant";"Toko Makanan";"Mie Aceh Apaman";"95M8+XV3, Raja, Kec. Bendahara, Kabupaten Aceh Tamiang, Aceh 24472";"Raja, Kec. Bendahara, Kabupaten Aceh Tamiang";"ACEH";"24472";"Indonesia";"";"4.3848961";"98.1671602";"https://maps.google.com/?cid=0x0:0xd928b19ff33a218a"
"restaurant";"restaurant";"Kec. Bendahara";"Kabupaten Aceh Tamiang, Aceh";"Kabupaten Aceh Tamiang, Aceh";"ACEH";"";"Indonesia";"";"4.4074501";"98.1695001";"https://maps.google.com/?cid=0x0:0xa3729d585ef6a9a8"
"restaurant";"Restoran";"Grahcell";"93GQ+2RX, Jl. Medan Banda Aceh, Kebun Tj. Seumantoh, Kec. Karang Baru, Kabupaten Aceh Tamiang, Aceh 24471";"Jl. Medan Banda Aceh, Kebun Tj. Seumantoh, Kec. Karang Baru, Kabupaten Aceh Tamiang";"ACEH";"24471";"Indonesia";"";"4.3751016";"98.0896077";"https://maps.google.com/?cid=0x0:0x7936e3302bf3056e"
"restaurant";"Mi";"Mie Aceh Bg Balah";"Matang Teupah, Kec. Bendahara, Kabupaten Aceh Tamiang, Aceh 24471";"Kec. Bendahara, Kabupaten Aceh Tamiang";"ACEH";"24471";"Indonesia";" 082368672761";"4.3914582";"98.0873974";"https://maps.google.com/?cid=0x0:0xec8de6f440f61cd9"
"restaurant";"Kedai Kopi";"D'HASAN KUPI";"Jl. Medan Banda Aceh No.Kp, Ie Bintah, Kec. Manyak Payed, Kabupaten Aceh Tamiang, Aceh 24471";"Ie Bintah, Kec. Manyak Payed, Kabupaten Aceh Tamiang";"ACEH";"24471";"Indonesia";" 085213930026";"4.4000464";"98.0659044";"https://maps.google.com/?cid=0x0:0x8395ec455e53a0d1"
"restaurant";"Brunch";"BAKSO POK ATIK";"Dusun 1, Marlempang, Kec. Bendahara, Kabupaten Aceh Tamiang, Aceh 24472";"Marlempang, Kec. Bendahara, Kabupaten Aceh Tamiang";"ACEH";"24472";"Indonesia";" 082286284430";"4.3777917";"98.1304798";"https://maps.google.com/?cid=0x0:0x82f6fa86c7193887"
"restaurant";"Kedai Kopi";"Jamboe Kami Caffee";"C55C+8H4, Unnamed Road, Bandar Baru, Kec. Bendahara, Kabupaten Aceh Tamiang, Aceh 24472";"Unnamed Road, Bandar Baru, Kec. Bendahara, Kabupaten Aceh Tamiang";"ACEH";"24472";"Indonesia";"";"4.4082628";"98.1714557";"https://maps.google.com/?cid=0x0:0x1f3248746cad01a3"
"restaurant";"Rumah Makan";"RUMAH MAKAN NIBONG RAYA";"93CR+J8V, Jl. Medan Banda Aceh, Kebun Tj. Seumantoh, Kec. Karang Baru, Kabupaten Aceh Tamiang, Aceh 24471";"Jl. Medan Banda Aceh, Kebun Tj. Seumantoh, Kec. Karang Baru, Kabupaten Aceh Tamiang";"ACEH";"24471";"Indonesia";" 082367374385";"4.3716177";"98.0907849";"https://maps.google.com/?cid=0x0:0x3d668f9af4bc95a5"
"restaurant";"Mi";"RR PONSEL";"Jl. Medan Banda Aceh, Tj. Seumantoh, Kec. Karang Baru, Kabupaten Aceh Tamiang, Aceh 24472";"Tj. Seumantoh, Kec. Karang Baru, Kabupaten Aceh Tamiang";"ACEH";"24472";"Indonesia";" 081265084338";"4.3671396";"98.092065";"https://maps.google.com/?cid=0x0:0x7a8c31180d3f324d"
"restaurant";"Kafe";"Babena Kupi";"93X8+W3Q, Ie Bintah, Kec. Manyak Payed, Kabupaten Aceh Tamiang, Aceh 24471";"Ie Bintah, Kec. Manyak Payed, Kabupaten Aceh Tamiang";"ACEH";"24471";"Indonesia";" 085253902010";"4.3998324";"98.0652416";"https://maps.google.com/?cid=0x0:0xad50fc5e7a0508c6"
"restaurant";"Bengkel Sepeda Motor";"Warung Abang DAAA";"94GX+4W3, Balai, Kec. Bendahara, Kabupaten Aceh Tamiang, Aceh 24472";"Balai, Kec. Bendahara, Kabupaten Aceh Tamiang";"ACEH";"24472";"Indonesia";" 082274480661";"4.3753001";"98.1497734";"https://maps.google.com/?cid=0x0:0x94efb0050ab69fb7"
"restaurant";"Kafe";"Busok Kupi";"C5F2+V5G, Seuneubok Aceh, Kec. Bendahara, Kabupaten Aceh Tamiang, Aceh 24472";"Seuneubok Aceh, Kec. Bendahara, Kabupaten Aceh Tamiang";"ACEH";"24472";"Indonesia";"";"4.4246904";"98.1504384";"https://maps.google.com/?cid=0x0:0x11203c61996838d5"
"restaurant";"Kedai Kopi";"Simpang 3 Kupi Bandar Khalifah";"C566+VMW, Bandar Khalifah, Kec. Bendahara, Kabupaten Aceh Tamiang, Aceh 24472";"Bandar Khalifah, Kec. Bendahara, Kabupaten Aceh Tamiang";"ACEH";"24472";"Indonesia";" 082370373004";"4.4122361";"98.1616941";"https://maps.google.com/?cid=0x0:0x2fca3e592e7f9a75"
"restaurant";"Nasi Goreng";"Rumah Makan Samalanga, Aceh Tamiang";"83PC+C95, Medang Ara, Kec. Karang Baru, Kabupaten Aceh Tamiang, Aceh 24476";"Medang Ara, Kec. Karang Baru, Kabupaten Aceh Tamiang";"ACEH";"24476";"Indonesia";"";"4.336017";"98.0709796";"https://maps.google.com/?cid=0x0:0xafbcd17f162a694c"
"restaurant";"restaurant";"Aceh 24476";"Kabupaten Aceh Tamiang, Aceh";"Kabupaten Aceh Tamiang, Aceh";"ACEH";"";"Indonesia";"";"4.3288776";"98.0628862";"https://maps.google.com/?cid=0x0:0x82d848b4ba041829"
"restaurant";"Kedai Kopi";"suddut kota coffee and space";"83C6+8PP, Jl. Lintas Sumatra, Gampong Johar, Kec. Karang Baru, Kabupaten Aceh Tamiang, Aceh 24476";"Jl. Lintas Sumatra, Gampong Johar, Kec. Karang Baru, Kabupaten Aceh Tamiang";"ACEH";"24476";"Indonesia";"";"4.32084";"98.0618322";"https://maps.google.com/?cid=0x0:0xf9dfd9a723b5ffef"
"restaurant";"Kedai Kopi";"WD Coffee";"Jl. Medan Banda Aceh, Tanah Terban, Kec. Karang Baru, Kabupaten Aceh Tamiang, Aceh";"Kabupaten Aceh Tamiang, Aceh";"ACEH";"";"Indonesia";" 081361411711";"4.3167287";"98.0594773";"https://maps.google.com/?cid=0x0:0xc7a51e44c3fa78d5"
"restaurant";"Restoran";"Cafe pinggir sungai";"934R+FX8, Tj. Seumantoh, Kec. Karang Baru, Kabupaten Aceh Tamiang, Aceh 24472";"Tj. Seumantoh, Kec. Karang Baru, Kabupaten Aceh Tamiang";"ACEH";"24472";"Indonesia";" 082171242164";"4.357173";"98.0928948";"https://maps.google.com/?cid=0x0:0xbbe3a9c10faa31e0"
"restaurant";"Restoran";"ANESKA Coffe  Resto";"Jl. Rantau, Kp. Durian, Kec. Rantau, Kabupaten Aceh Tamiang, Aceh";"Kabupaten Aceh Tamiang, Aceh";"ACEH";"";"Indonesia";" 081373570372";"4.2893001";"98.0797682";"https://maps.google.com/?cid=0x0:0x561af9b8493f2393"
"restaurant";"Kedai Kopi";"Ambang Batas";"Jl. Ir. H. Juanda Dalam No.10, Kota Kuala Simpang, Kec. Karang Baru, Kabupaten Aceh Tamiang, Aceh 24476";"Kota Kuala Simpang, Kec. Karang Baru, Kabupaten Aceh Tamiang";"ACEH";"24476";"Indonesia";"";"4.2918426";"98.0492892";"https://maps.google.com/?cid=0x0:0x5d201e3528f092b"
"restaurant";"Mi";"Kedai MieSo  Gorengan Wak Anik";"Dusun Inpres, Gampong Tupah, Kec. Karang Baru, Kualasimpang, Aceh 24476";"Gampong Tupah, Kec. Karang Baru, Kualasimpang";"ACEH";"24476";"Indonesia";" 081377481541";"4.3311985";"98.0537441";"https://maps.google.com/?cid=0x0:0xbc4004685da369a1"
"restaurant";"";"Nasi urap Pemadam Kelaparan II karang baru";"Gampong Bundar, Kec. Karang Baru, Kabupaten Aceh Tamiang, Aceh 24476";"Kec. Karang Baru, Kabupaten Aceh Tamiang";"ACEH";"24476";"Indonesia";" 081396319181";"4.2950261";"98.0486893";"https://maps.google.com/?cid=0x0:0x1b11af571d6ab90a"
"restaurant";"Kedai Kopi";"Sahdu";"83J9+8H2, Jl. Inpres, Pahlawan, Kec. Karang Baru, Kabupaten Aceh Tamiang, Aceh 24476";"Jl. Inpres, Pahlawan, Kec. Karang Baru, Kabupaten Aceh Tamiang";"ACEH";"24476";"Indonesia";"";"4.3307589";"98.0688901";"https://maps.google.com/?cid=0x0:0x28f90eca27a3bfee"
"restaurant";"Brunch";"WARUNG PUTRIDAHANI";"Medang Ara, Kec. Karang Baru, Kabupaten Aceh Tamiang, Aceh 24476";"Kec. Karang Baru, Kabupaten Aceh Tamiang";"ACEH";"24476";"Indonesia";"";"4.3385294";"98.07229";"https://maps.google.com/?cid=0x0:0x7590357d2d5737f7"
"restaurant";"Sarapan";"Sate Padang Mas Buyung";"8385+JPX, Jalan Ir. H. Juanda Dalam, Tanah Terban, Kec. Karang Baru, Kabupaten Aceh Tamiang, Aceh 24476";"Jalan Ir. H. Juanda Dalam, Tanah Terban, Kec. Karang Baru, Kabupaten Aceh Tamiang";"ACEH";"24476";"Indonesia";"";"4.3166161";"98.0593709";"https://maps.google.com/?cid=0x0:0x36644be2413d6f88"
"restaurant";"Rumah Makan";"Warong hijau";"8396+C46, Jl. Medan Banda Aceh, Tanah Terban, Kec. Karang Baru, Kabupaten Aceh Tamiang, Aceh 24476";"Jl. Medan Banda Aceh, Tanah Terban, Kec. Karang Baru, Kabupaten Aceh Tamiang";"ACEH";"24476";"Indonesia";"";"4.3185385";"98.0602539";"https://maps.google.com/?cid=0x0:0x18be6d0a28a02fb"
"restaurant";"Kafe";"RM 3 SAUDARA";"83RF+39H, Medang Ara, Kec. Karang Baru, Kabupaten Aceh Tamiang, Aceh 24476";"Medang Ara, Kec. Karang Baru, Kabupaten Aceh Tamiang";"ACEH";"24476";"Indonesia";"";"4.3402444";"98.0734094";"https://maps.google.com/?cid=0x0:0xb1f9296aa5dc5fba"
"restaurant";"Rumah Makan";"Resto Pondok Santai Sungai Liput";"63M7+W2R, Jl. Medan Banda Aceh, Pangkalan, Kec. Kejuruan Muda, Kabupaten Aceh Tamiang, Aceh 24475";"Jl. Medan Banda Aceh, Pangkalan, Kec. Kejuruan Muda, Kabupaten Aceh Tamiang";"ACEH";"24475";"Indonesia";" 082370880633";"4.234851";"98.062515";"https://maps.google.com/?cid=0x0:0xf5c5d042fc726a5c"
"restaurant";"restaurant";"Kec. Kejuruan Muda";"Kabupaten Aceh Tamiang, Aceh";"Kabupaten Aceh Tamiang, Aceh";"ACEH";"";"Indonesia";"";"4.2310452";"98.0585627";"https://maps.google.com/?cid=0x0:0x31c3ba765be70142"
"restaurant";"Rumah Makan";"SELERO AWAK";"Minuran, Jl. Medan Banda Aceh, Kabupaten Aceh Tamiang, Aceh 24456";"Jl. Medan Banda Aceh, Kabupaten Aceh Tamiang";"ACEH";"24456";"Indonesia";" 082248849595";"4.267521";"98.0592058";"https://maps.google.com/?cid=0x0:0x472f973ecea3743f"
"restaurant";"Restoran";"Rumah makan Rangkang Trieng";"7327+6Q9, Bukit Rata, Kec. Kejuruan Muda, Kabupaten Aceh Tamiang, Aceh 24475";"Bukit Rata, Kec. Kejuruan Muda, Kabupaten Aceh Tamiang";"ACEH";"24475";"Indonesia";" 082283113040";"4.2505331";"98.0644989";"https://maps.google.com/?cid=0x0:0x783b6922b02f4f16"
"restaurant";"Bakso";"Waroeng Pak Dee";"blok 9, Sungai Liput, Kec. Kejuruan Muda, Kabupaten Aceh Tamiang, Aceh 24475";"Sungai Liput, Kec. Kejuruan Muda, Kabupaten Aceh Tamiang";"ACEH";"24475";"Indonesia";"";"4.231463";"98.0562807";"https://maps.google.com/?cid=0x0:0xf0e2a722b498bfed"
"restaurant";"Kafe";"Rm Raiffa  Coffee";"7336+XV9, Jl. Lintas Sumatra, Pangkalan, Kec. Kejuruan Muda, Kabupaten Aceh Tamiang, Aceh 24475";"Jl. Lintas Sumatra, Pangkalan, Kec. Kejuruan Muda, Kabupaten Aceh Tamiang";"ACEH";"24475";"Indonesia";" 085275998094";"4.2549125";"98.0622289";"https://maps.google.com/?cid=0x0:0x7b5ebfefb3861795"
"restaurant";"Toko Roti";"@uzakia_ratubrownies";"73G8+F3R, Bukit Rata, Kec. Kejuruan Muda, Kabupaten Aceh Tamiang, Aceh 24458";"Bukit Rata, Kec. Kejuruan Muda, Kabupaten Aceh Tamiang";"ACEH";"24458";"Indonesia";" 085361001790";"4.2762351";"98.0651478";"https://maps.google.com/?cid=0x0:0x91a229f89bd0197f"
"restaurant";"Dapur Umum";"AYAM KRIUK";"736F+H35, Bukit Rata, Kec. Kejuruan Muda, Kabupaten Aceh Tamiang, Aceh 24475";"Bukit Rata, Kec. Kejuruan Muda, Kabupaten Aceh Tamiang";"ACEH";"24475";"Indonesia";" 082366364580";"4.2613833";"98.0727293";"https://maps.google.com/?cid=0x0:0xd0fb061cda755c6f"
"restaurant";"Restoran";"RM. BUK NONI";"53J2+GMJ, Jl. Lintas Sumatra, Seumadam, Kec. Kejuruan Muda, Kabupaten Aceh Tamiang, Aceh 24474";"Jl. Lintas Sumatra, Seumadam, Kec. Kejuruan Muda, Kabupaten Aceh Tamiang";"ACEH";"24474";"Indonesia";" 082366440935";"4.1813418";"98.0516264";"https://maps.google.com/?cid=0x0:0x2c7820ee6575a66b"
"restaurant";"Kafe";"SL KUPI";"Pangkalan, Kec. Kejuruan Muda, Kabupaten Aceh Tamiang, Aceh 24475";"Kec. Kejuruan Muda, Kabupaten Aceh Tamiang";"ACEH";"24475";"Indonesia";" 082294441447";"4.2309596";"98.0579303";"https://maps.google.com/?cid=0x0:0x2cfa512f15dde107"
"restaurant";"Restoran";"RM WBMY";"Jl. Medan - Banda Aceh, Pangkalan, Kec. Kejuruan Muda, Kabupaten Aceh Tamiang, Aceh 24475";"Pangkalan, Kec. Kejuruan Muda, Kabupaten Aceh Tamiang";"ACEH";"24475";"Indonesia";" 085296074959";"4.2519589";"98.0642284";"https://maps.google.com/?cid=0x0:0xab9fd9e1cec0a34d"
"restaurant";"Restoran";"Makan Steak grill coffe dessert";"Bukit Tempurung, Kota Kuala Simpang, Kabupaten Aceh Tamiang, Aceh 24475";"Kota Kuala Simpang, Kabupaten Aceh Tamiang";"ACEH";"24475";"Indonesia";" 082174034631";"4.286177";"98.0639621";"https://maps.google.com/?cid=0x0:0x2031f9478a004871"
"restaurant";"Restoran";"Warung Lontong Wak Pon Payabedi";"73F9+WGC, Bukit Rata, Kec. Kejuruan Muda, Kabupaten Aceh Tamiang, Aceh 24453";"Bukit Rata, Kec. Kejuruan Muda, Kabupaten Aceh Tamiang";"ACEH";"24453";"Indonesia";" 082368565362";"4.2748213";"98.068755";"https://maps.google.com/?cid=0x0:0x39d9ca075538d6ed"
"restaurant";"Mi";"Mie Aceh CekMan Sp.4";"73M6+M5R, Jl. Rantau, Perdamaian, Kota Kuala Simpang, Kabupaten Aceh Tamiang, Aceh 24456";"Jl. Rantau, Perdamaian, Kota Kuala Simpang, Kabupaten Aceh Tamiang";"ACEH";"24456";"Indonesia";" 085233332998";"4.2842301";"98.0603942";"https://maps.google.com/?cid=0x0:0x8c7b058236a63fce"
"restaurant";"restaurant";"Aceh 24475";"Kec. Linge, Kabupaten Aceh Tengah, Aceh";"Kabupaten Aceh Tengah, Aceh";"ACEH";"";"Indonesia";"";"4.2473925";"98.0738001";"https://maps.google.com/?cid=0x0:0x54d58570dde5bc9e"
"restaurant";"Kedai Kopi";"GOWA KAFE (coffee  resto)";"Jl. Medan Banda Aceh, Kota Lintang, Kota Kuala Simpang, Kabupaten Aceh Tamiang, Aceh 24475";"Kota Lintang, Kota Kuala Simpang, Kabupaten Aceh Tamiang";"ACEH";"24475";"Indonesia";" 082272336679";"4.2878161";"98.0582765";"https://maps.google.com/?cid=0x0:0x521b0aa11da1bb61"
"restaurant";"Soto";"Soto Dapur Ma'nyah";"73P5+4W7, Kota Kuala Simpang, Kabupaten Aceh Tamiang, Aceh 24456";"Kota Kuala Simpang, Kabupaten Aceh Tamiang";"ACEH";"24456";"Indonesia";"";"4.2852938";"98.0597856";"https://maps.google.com/?cid=0x0:0xca0c7aa7be1dfe55"
"restaurant";"Nasi Goreng";"RM.BOGOR";"Jl. Iskandar Muda No.2, Kota Kuala Simpang, Kabupaten Aceh Tamiang, Aceh 24456";"Kota Kuala Simpang, Kabupaten Aceh Tamiang";"ACEH";"24456";"Indonesia";"";"4.2847817";"98.0586732";"https://maps.google.com/?cid=0x0:0x551bc5812b405cf8"
"restaurant";"Kafe";"ATAP LANGIT ESPRESSO  BREW BAR";"Sriwijaya, Kota Kuala Simpang, Kabupaten Aceh Tamiang, Aceh 24456";"Kota Kuala Simpang, Kabupaten Aceh Tamiang";"ACEH";"24456";"Indonesia";" 085322010716";"4.2822693";"98.0586696";"https://maps.google.com/?cid=0x0:0x98b6c2d3e5c57e35"
"restaurant";"Restoran";"Rumah Makan family";"Jl. Iskandar Muda No.14, Kota Kuala Simpang, Kabupaten Aceh Tamiang, Aceh 24456";"Kota Kuala Simpang, Kabupaten Aceh Tamiang";"ACEH";"24456";"Indonesia";" 082162008580";"4.2840888";"98.0583734";"https://maps.google.com/?cid=0x0:0x6e85a28ddd17ea5f"
"restaurant";"Mi";"Mie Aceh Kuala Simpang";"73Q5+386, Kota Kuala Simpang, Kabupaten Aceh Tamiang, Aceh 24456";"Kota Kuala Simpang, Kabupaten Aceh Tamiang";"ACEH";"24456";"Indonesia";"";"4.2876642";"98.0582743";"https://maps.google.com/?cid=0x0:0x96b335c77a4e4516"
"restaurant";"Bakso";"Bakso Mas Bram Kualasimpang";"73M6+J8R, Perdamaian, Kota Kuala Simpang, Kabupaten Aceh Tamiang, Aceh 24456";"Perdamaian, Kota Kuala Simpang, Kabupaten Aceh Tamiang";"ACEH";"24456";"Indonesia";"";"4.2841227";"98.0607807";"https://maps.google.com/?cid=0x0:0x5f0a48a1efd4b760"
"restaurant";"Restoran";"ANESKA Coffe  Resto";"Jl. Rantau, Kp. Durian, Kec. Rantau, Kabupaten Aceh Tamiang, Aceh";"Kabupaten Aceh Tamiang, Aceh";"ACEH";"";"Indonesia";" 081373570372";"4.2893001";"98.0797682";"https://maps.google.com/?cid=0x0:0x561af9b8493f2393"
"restaurant";"Kedai Kopi";"The King Cafe";"73P5+RP7, Jl. Cut Nyak Dien, Kota Lintang, Kota Kuala Simpang, Kabupaten Aceh Tamiang, Aceh 24456";"Jl. Cut Nyak Dien, Kota Lintang, Kota Kuala Simpang, Kabupaten Aceh Tamiang";"ACEH";"24456";"Indonesia";" 081269487688";"4.2870473";"98.0593085";"https://maps.google.com/?cid=0x0:0x70644ea5b12c3b3"
"restaurant";"Padang";"Rm.padang Laweh";"Jl. Rantau, Bukit Tempurung, Kota Kuala Simpang, Kabupaten Aceh Tamiang, Aceh";"Kabupaten Aceh Tamiang, Aceh";"ACEH";"";"Indonesia";"";"4.2864338";"98.0640609";"https://maps.google.com/?cid=0x0:0xfad67d7512d550cd"
"restaurant";"Kedai Kopi";"Ambang Batas";"Jl. Ir. H. Juanda Dalam No.10, Kota Kuala Simpang, Kec. Karang Baru, Kabupaten Aceh Tamiang, Aceh 24476";"Kota Kuala Simpang, Kec. Karang Baru, Kabupaten Aceh Tamiang";"ACEH";"24476";"Indonesia";"";"4.2918426";"98.0492892";"https://maps.google.com/?cid=0x0:0x5d201e3528f092b"
"restaurant";"Kedai Kopi";"Sagoe Kupi";"Kota Kuala Simpang, Kabupaten Aceh Tamiang, Aceh 24456";"Kabupaten Aceh Tamiang";"ACEH";"24456";"Indonesia";" 085262284545";"4.2825875";"98.0599619";"https://maps.google.com/?cid=0x0:0xe2c7f998b9dc58cc"
"restaurant";"Bar Kopi Espresso";"GK Cafe Coffee  Eatery";"Jl. Mayjend Sutoyo, Kota Kuala Simpang, Kabupaten Aceh Tamiang, Aceh";"Kabupaten Aceh Tamiang, Aceh";"ACEH";"";"Indonesia";"";"4.2871876";"98.0581783";"https://maps.google.com/?cid=0x0:0x4993d1d90bf43168"
"restaurant";"Padang";"Rumah Makan Pidie Jaya";"C323+V42, Matang Ara Jawa, Kec. Manyak Payed, Kabupaten Aceh Tamiang, Aceh 24471";"Matang Ara Jawa, Kec. Manyak Payed, Kabupaten Aceh Tamiang";"ACEH";"24471";"Indonesia";"";"4.4021333";"98.0527717";"https://maps.google.com/?cid=0x0:0xe0c4e447024b526f"
"restaurant";"restaurant";"Aceh 24471";"Aceh";"Aceh";"ACEH";"";"Indonesia";"";"4.3465057";"97.8395151";"https://maps.google.com/?cid=0x0:0x6a96af07474c986b"
"restaurant";"Kafe";"Cafe Puncak";"C24R+HF3, Matang Cincin, Kec. Manyak Payed, Kabupaten Aceh Tamiang, Aceh 24471";"Matang Cincin, Kec. Manyak Payed, Kabupaten Aceh Tamiang";"ACEH";"24471";"Indonesia";"";"4.4063875";"98.0411695";"https://maps.google.com/?cid=0x0:0x26dfbd7f86c9346a"
"restaurant";"Kedai Kopi";"D'HASAN KUPI";"Jl. Medan Banda Aceh No.Kp, Ie Bintah, Kec. Manyak Payed, Kabupaten Aceh Tamiang, Aceh 24471";"Ie Bintah, Kec. Manyak Payed, Kabupaten Aceh Tamiang";"ACEH";"24471";"Indonesia";" 085213930026";"4.4000464";"98.0659044";"https://maps.google.com/?cid=0x0:0x8395ec455e53a0d1"
"restaurant";"Kafe";"Babena Kupi";"93X8+W3Q, Ie Bintah, Kec. Manyak Payed, Kabupaten Aceh Tamiang, Aceh 24471";"Ie Bintah, Kec. Manyak Payed, Kabupaten Aceh Tamiang";"ACEH";"24471";"Indonesia";" 085253902010";"4.3998324";"98.0652416";"https://maps.google.com/?cid=0x0:0xad50fc5e7a0508c6"
"restaurant";"Restoran";"Rumah Makan Kak Cut";"93XG+56J, Ie Bintah, Kec. Manyak Payed, Kabupaten Aceh Tamiang, Aceh 24471";"Ie Bintah, Kec. Manyak Payed, Kabupaten Aceh Tamiang";"ACEH";"24471";"Indonesia";" 085270118915";"4.3979582";"98.0755287";"https://maps.google.com/?cid=0x0:0xaa3af5b2a7a76a33"
"restaurant";"Sesuai untuk keluarga";"Warong santai bukit tinggi";"Buket Panjang II, Kec. Manyak Payed, Kabupaten Aceh Tamiang, Aceh 24471";"Kec. Manyak Payed, Kabupaten Aceh Tamiang";"ACEH";"24471";"Indonesia";"";"4.4059601";"98.0405138";"https://maps.google.com/?cid=0x0:0x2c3749ba3d384693"
"restaurant";"Makanan Kecil";"Rahamt";"C325+CJM, Gelanggang Merak, Kec. Manyak Payed, Kabupaten Aceh Tamiang, Aceh 24471";"Gelanggang Merak, Kec. Manyak Payed, Kabupaten Aceh Tamiang";"ACEH";"24471";"Indonesia";"";"4.4010886";"98.0590789";"https://maps.google.com/?cid=0x0:0x6fb245efea73e571"
"restaurant";"Padang";"RM. Jambo Baroena";"C25G+H7Q, Seuneubok Punti, Kec. Manyak Payed, Kabupaten Aceh Tamiang, Aceh 24471";"Seuneubok Punti, Kec. Manyak Payed, Kabupaten Aceh Tamiang";"ACEH";"24471";"Indonesia";"";"4.4089544";"98.025744";"https://maps.google.com/?cid=0x0:0x16aacf59d5d0601b"
"restaurant";"Kafe";"Rumah makan kakak adek";"C24V+F8Q, Jl. Medan - Banda Aceh, Buket Panjang II, Kec. Manyak Payed, Kabupaten Aceh Tamiang, Aceh 24471";"Jl. Medan - Banda Aceh, Buket Panjang II, Kec. Manyak Payed, Kabupaten Aceh Tamiang";"ACEH";"24471";"Indonesia";" 081360901111";"4.4062196";"98.0433682";"https://maps.google.com/?cid=0x0:0x2738d6d09ff7bb98"
"restaurant";"Nasi Goreng";"Rumah Makan Barona";"C23G+PWP, Paya Ketenggar, Kec. Manyak Payed, Kabupaten Aceh Tamiang, Aceh 24471";"Paya Ketenggar, Kec. Manyak Payed, Kabupaten Aceh Tamiang";"ACEH";"24471";"Indonesia";" 081377118276";"4.4043419";"98.0273403";"https://maps.google.com/?cid=0x0:0xef858d9ded971434"
"restaurant";"Kafe";"Mie Aceh Bombai";"C25G+H6V, Jl. Lintas Sumatra, Seuneubok Punti, Kec. Manyak Payed, Kabupaten Aceh Tamiang, Aceh 24471";"Jl. Lintas Sumatra, Seuneubok Punti, Kec. Manyak Payed, Kabupaten Aceh Tamiang";"ACEH";"24471";"Indonesia";"";"4.4089789";"98.0255466";"https://maps.google.com/?cid=0x0:0xb9e9a6f5bbec330b"
"restaurant";"Kedai Kopi";"Geulanggang kupi, rest  sport cafe";"Ie Bintah, Kec. Manyak Payed, Kabupaten Aceh Tamiang, Aceh 24471";"Kec. Manyak Payed, Kabupaten Aceh Tamiang";"ACEH";"24471";"Indonesia";" 085277213567";"4.4003002";"98.061667";"https://maps.google.com/?cid=0x0:0xe0fdd5f2756d7d6e"
"restaurant";"Padang";"RM. FAMILI MINANG";"93XC+GCQ, Dusun Pembangunan, Tualang Baru, Kec. Manyak Payed, Kabupaten Aceh Tamiang, Aceh 24471";"Dusun Pembangunan, Tualang Baru, Kec. Manyak Payed, Kabupaten Aceh Tamiang";"ACEH";"24471";"Indonesia";" 085297947627";"4.3988436";"98.0710954";"https://maps.google.com/?cid=0x0:0x17e41f2642c35e0e"
"restaurant";"Restoran";"ANESKA Coffe  Resto";"Jl. Rantau, Kp. Durian, Kec. Rantau, Kabupaten Aceh Tamiang, Aceh";"Kabupaten Aceh Tamiang, Aceh";"ACEH";"";"Indonesia";" 081373570372";"4.2893001";"98.0797682";"https://maps.google.com/?cid=0x0:0x561af9b8493f2393"
"restaurant";"restaurant";"Aceh 24474";"Kec. Kejuruan Muda, Kabupaten Aceh Tamiang, Aceh";"Kabupaten Aceh Tamiang, Aceh";"ACEH";"";"Indonesia";"";"4.2123421";"98.0247005";"https://maps.google.com/?cid=0x0:0xe116e26a288dda02"
"restaurant";"Rumah Makan";"Resto Pondok Santai Sungai Liput";"63M7+W2R, Jl. Medan Banda Aceh, Pangkalan, Kec. Kejuruan Muda, Kabupaten Aceh Tamiang, Aceh 24475";"Jl. Medan Banda Aceh, Pangkalan, Kec. Kejuruan Muda, Kabupaten Aceh Tamiang";"ACEH";"24475";"Indonesia";" 082370880633";"4.234851";"98.062515";"https://maps.google.com/?cid=0x0:0xf5c5d042fc726a5c"
"restaurant";"Kafe";"Aula Serba Guna JUWITA";"63G4+GWR, Jl. Lintas Sumatra, Sungai Liput, Kec. Kejuruan Muda, Kabupaten Aceh Tamiang, Aceh 24474";"Jl. Lintas Sumatra, Sungai Liput, Kec. Kejuruan Muda, Kabupaten Aceh Tamiang";"ACEH";"24474";"Indonesia";" 082365737277";"4.2263516";"98.0572724";"https://maps.google.com/?cid=0x0:0x3ee0a0a9afa1e303"
"restaurant";"Restoran";"RM. BUK NONI";"53J2+GMJ, Jl. Lintas Sumatra, Seumadam, Kec. Kejuruan Muda, Kabupaten Aceh Tamiang, Aceh 24474";"Jl. Lintas Sumatra, Seumadam, Kec. Kejuruan Muda, Kabupaten Aceh Tamiang";"ACEH";"24474";"Indonesia";" 082366440935";"4.1813418";"98.0516264";"https://maps.google.com/?cid=0x0:0x2c7820ee6575a66b"
"restaurant";"Kedai Kopi";"Kafe Alur Selawi";"63F4+7Q3, Jl. Medan Banda Aceh, Sungai Liput, Kec. Kejuruan Muda, Kabupaten Aceh Tamiang, Aceh 24474";"Jl. Medan Banda Aceh, Sungai Liput, Kec. Kejuruan Muda, Kabupaten Aceh Tamiang";"ACEH";"24474";"Indonesia";"";"4.2231299";"98.0569148";"https://maps.google.com/?cid=0x0:0xcfefa9abf05b2fbf"
"restaurant";"Kedai Kopi";"Es Coklat Mantap Perbatasan/Winda Cell";"43P8+Q4R, Karangjadi, Kec. Kejuruan Muda, Kabupaten Aceh Tamiang, Aceh 24474";"Karangjadi, Kec. Kejuruan Muda, Kabupaten Aceh Tamiang";"ACEH";"24474";"Indonesia";" 081263824609";"4.1372405";"98.065545";"https://maps.google.com/?cid=0x0:0x9556dffc44f297fd"
"restaurant";"Restoran";"RM.BUK ANI";"Seumadam, Kec. Kejuruan Muda, Kabupaten Aceh Tamiang, Aceh 24474";"Kec. Kejuruan Muda, Kabupaten Aceh Tamiang";"ACEH";"24474";"Indonesia";"";"4.1812635";"98.0516241";"https://maps.google.com/?cid=0x0:0x369aa0bead5db61b"
"restaurant";"Bakso";"Waroeng Pak Dee";"blok 9, Sungai Liput, Kec. Kejuruan Muda, Kabupaten Aceh Tamiang, Aceh 24475";"Sungai Liput, Kec. Kejuruan Muda, Kabupaten Aceh Tamiang";"ACEH";"24475";"Indonesia";"";"4.231463";"98.0562807";"https://maps.google.com/?cid=0x0:0xf0e2a722b498bfed"
"restaurant";"Restoran";"Warung kak Trisna";"43R7+GV8, Karangjadi, Kec. Kejuruan Muda, Kabupaten Aceh Tamiang, Aceh 24474";"Karangjadi, Kec. Kejuruan Muda, Kabupaten Aceh Tamiang";"ACEH";"24474";"Indonesia";"";"4.1412898";"98.0646887";"https://maps.google.com/?cid=0x0:0x71f479eeb1b4aff2"
"restaurant";"Kedai Kopi";"Warung Eko";"Jl. Medan - Banda Aceh, Sungai Liput, Kec. Kejuruan Muda, Kabupaten Aceh Tamiang, Aceh 24474";"Sungai Liput, Kec. Kejuruan Muda, Kabupaten Aceh Tamiang";"ACEH";"24474";"Indonesia";" 082267015757";"4.221725";"98.0567954";"https://maps.google.com/?cid=0x0:0x7e8dbfaf59eaa8a7"
"restaurant";"Kedai Kopi";"Warung Nasi Mbak Mala";"43Q7+GXP, Unnamed Road, Karangjadi, Kec. Kejuruan Muda, Kabupaten Aceh Tamiang, Aceh 24474";"Unnamed Road, Karangjadi, Kec. Kejuruan Muda, Kabupaten Aceh Tamiang";"ACEH";"24474";"Indonesia";"";"4.1388373";"98.0649636";"https://maps.google.com/?cid=0x0:0x70d5a64803bf0a11"
"restaurant";"Restoran";"Lesehan Gembira";"lesehan gembira, Suka jadi, Rantau, 24453, Suka Mulia, Kec. Rantau, Kabupaten Aceh Tamiang, Aceh 24453";"Suka jadi, Rantau,";"ACEH";"24453";"Indonesia";"";"4.2692158";"98.1106635";"https://maps.google.com/?cid=0x0:0xd4f31d22bc00b81c"
"restaurant";"Nasi Goreng";"WARUNG FAMILY SINYIK";"63J5+96X, pekan, Sungai Liput, Kec. Kejuruan Muda, Kabupaten Aceh Tamiang, Aceh 24475";"pekan, Sungai Liput, Kec. Kejuruan Muda, Kabupaten Aceh Tamiang";"ACEH";"24475";"Indonesia";"";"4.2309954";"98.058115";"https://maps.google.com/?cid=0x0:0xed4251d28722bef2"
"restaurant";"Restoran";"ANESKA Coffe  Resto";"Jl. Rantau, Kp. Durian, Kec. Rantau, Kabupaten Aceh Tamiang, Aceh";"Kabupaten Aceh Tamiang, Aceh";"ACEH";"";"Indonesia";" 081373570372";"4.2893001";"98.0797682";"https://maps.google.com/?cid=0x0:0x561af9b8493f2393"
"restaurant";"restaurant";"Aceh 24476";"Kabupaten Aceh Tamiang, Aceh";"Kabupaten Aceh Tamiang, Aceh";"ACEH";"";"Indonesia";"";"4.3288776";"98.0628862";"https://maps.google.com/?cid=0x0:0x82d848b4ba041829"
"restaurant";"Nasi Goreng";"Rumah Makan Samalanga, Aceh Tamiang";"83PC+C95, Medang Ara, Kec. Karang Baru, Kabupaten Aceh Tamiang, Aceh 24476";"Medang Ara, Kec. Karang Baru, Kabupaten Aceh Tamiang";"ACEH";"24476";"Indonesia";"";"4.336017";"98.0709796";"https://maps.google.com/?cid=0x0:0xafbcd17f162a694c"
"restaurant";"Restoran";"Waroeng sambal";"Jalan Ir.H.Juanda dusun sejah tera, Tanah Terban, Medan banda aceh, Kabupaten Aceh Tamiang, Aceh 24476";"Tanah Terban, Medan banda aceh, Kabupaten Aceh Tamiang";"ACEH";"24476";"Indonesia";" 082162088989";"4.3134826";"98.0567819";"https://maps.google.com/?cid=0x0:0xff3972bb2985e961"
"restaurant";"Mi";"Kedai MieSo  Gorengan Wak Anik";"Dusun Inpres, Gampong Tupah, Kec. Karang Baru, Kualasimpang, Aceh 24476";"Gampong Tupah, Kec. Karang Baru, Kualasimpang";"ACEH";"24476";"Indonesia";" 081377481541";"4.3311985";"98.0537441";"https://maps.google.com/?cid=0x0:0xbc4004685da369a1"
"restaurant";"Kafe";"ClaSsic cafe country";"73R5+5Q3, Kota Lintang, Kota Kuala Simpang, Kabupaten Aceh Tamiang, Aceh 24456";"Kota Lintang, Kota Kuala Simpang, Kabupaten Aceh Tamiang";"ACEH";"24456";"Indonesia";"";"4.2903977";"98.0594342";"https://maps.google.com/?cid=0x0:0x55ce3ae57b1475a"
"restaurant";"Restoran";"Makan Steak grill coffe dessert";"Bukit Tempurung, Kota Kuala Simpang, Kabupaten Aceh Tamiang, Aceh 24475";"Kota Kuala Simpang, Kabupaten Aceh Tamiang";"ACEH";"24475";"Indonesia";" 082174034631";"4.286177";"98.0639621";"https://maps.google.com/?cid=0x0:0x2031f9478a004871"
"restaurant";"Kedai Kopi";"Buk Sam";"83PC+G95, Jl. Medan Banda Aceh, Kebun Medang Ara, Kec. Karang Baru, Kabupaten Aceh Tamiang, Aceh 24476";"Jl. Medan Banda Aceh, Kebun Medang Ara, Kec. Karang Baru, Kabupaten Aceh Tamiang";"ACEH";"24476";"Indonesia";" 082275333698";"4.3362544";"98.0709713";"https://maps.google.com/?cid=0x0:0xb09f98d25047e9ab"
"restaurant";"Bakso";"BAKSO MANTEP 23";"73P8+WCF, Benua Raja, Kec. Rantau, Kabupaten Aceh Tamiang, Aceh 24476";"Benua Raja, Kec. Rantau, Kabupaten Aceh Tamiang";"ACEH";"24476";"Indonesia";" 083132125687";"4.2873126";"98.066047";"https://maps.google.com/?cid=0x0:0x1013b0475056bab"
"restaurant";"Kedai Kopi";"Sahdu";"83J9+8H2, Jl. Inpres, Pahlawan, Kec. Karang Baru, Kabupaten Aceh Tamiang, Aceh 24476";"Jl. Inpres, Pahlawan, Kec. Karang Baru, Kabupaten Aceh Tamiang";"ACEH";"24476";"Indonesia";"";"4.3307589";"98.0688901";"https://maps.google.com/?cid=0x0:0x28f90eca27a3bfee"
"restaurant";"Kafe";"Cafe Tenda";"Komplek Ruko GRR, Jl. Rantau, Landuh, Kota Kuala Simpang, Kabupaten Aceh Tamiang, Aceh 24476";"Jl. Rantau, Landuh, Kota Kuala Simpang, Kabupaten Aceh Tamiang";"ACEH";"24476";"Indonesia";" 085262919460";"4.2887624";"98.0682765";"https://maps.google.com/?cid=0x0:0x79146d5c43c134d9"
"restaurant";"Pangsit";"AL AQSHA";"83PC+GCW, Medang Ara, Kec. Karang Baru, Kabupaten Aceh Tamiang, Aceh 24476";"Medang Ara, Kec. Karang Baru, Kabupaten Aceh Tamiang";"ACEH";"24476";"Indonesia";" 085297100380";"4.3363655";"98.0710813";"https://maps.google.com/?cid=0x0:0x62394981186e79a2"
"restaurant";"Restoran";"AA Cafe";"Jl. Rantau No.26, Benua Raja, Kec. Rantau, Kabupaten Aceh Tamiang, Aceh 24456";"Benua Raja, Kec. Rantau, Kabupaten Aceh Tamiang";"ACEH";"24456";"Indonesia";" 081225307130";"4.288499";"98.0677773";"https://maps.google.com/?cid=0x0:0x62b1e0f730d375ac"
"restaurant";"Makanan Siap Saji";"Sha Dim Sum";"Dusun Subur, Kp. Durian, Kec. Rantau, Kabupaten Aceh Tamiang, Aceh 24476";"Kp. Durian, Kec. Rantau, Kabupaten Aceh Tamiang";"ACEH";"24476";"Indonesia";" 085218522876";"4.2999967";"98.0825579";"https://maps.google.com/?cid=0x0:0xc7e202bcb8481171"
"restaurant";"Bakso";"Pangsit Seruway";"953M+G39, Unnamed Road, Peukan Seuruway, Kec. Seuruway, Kabupaten Aceh Tamiang, Aceh 24472";"Unnamed Road, Peukan Seuruway, Kec. Seuruway, Kabupaten Aceh Tamiang";"ACEH";"24472";"Indonesia";"";"4.3537901";"98.1827358";"https://maps.google.com/?cid=0x0:0x70f05d53c14d34"
"restaurant";"restaurant";"Aceh 24473";"Aceh";"Aceh";"ACEH";"";"Indonesia";"";"4.2670304";"98.1393179";"https://maps.google.com/?cid=0x0:0x7edc8ec14cab902a"
"restaurant";"Rumah Makan";"SELERO AWAK";"Minuran, Jl. Medan Banda Aceh, Kabupaten Aceh Tamiang, Aceh 24456";"Jl. Medan Banda Aceh, Kabupaten Aceh Tamiang";"ACEH";"24456";"Indonesia";" 082248849595";"4.267521";"98.0592058";"https://maps.google.com/?cid=0x0:0x472f973ecea3743f"
"restaurant";"Bakso";"Bakso Seruway";"85X7+4MH, Binjai, Kec. Seuruway, Kabupaten Aceh Tamiang, Aceh 24671";"Binjai, Kec. Seuruway, Kabupaten Aceh Tamiang";"ACEH";"24671";"Indonesia";" 081263682343";"4.3478104";"98.1642386";"https://maps.google.com/?cid=0x0:0x682ef9cfeea40816"
"restaurant";"Kafe";"Agam Saboh kupi";"748M+MR9, Suka Mulia, Kec. Rantau, Kabupaten Aceh Tamiang, Aceh 24473";"Suka Mulia, Kec. Rantau, Kabupaten Aceh Tamiang";"ACEH";"24473";"Indonesia";" 081265417636";"4.2666634";"98.1346026";"https://maps.google.com/?cid=0x0:0xcbfd024b6a53c2ac"
"restaurant";"Restoran";"Lesehan Gembira";"lesehan gembira, Suka jadi, Rantau, 24453, Suka Mulia, Kec. Rantau, Kabupaten Aceh Tamiang, Aceh 24453";"Suka jadi, Rantau,";"ACEH";"24453";"Indonesia";"";"4.2692158";"98.1106635";"https://maps.google.com/?cid=0x0:0xd4f31d22bc00b81c"
"restaurant";"Restoran";"Bakso Yoona mini kafe";"748X+RWQ, Suka Mulia, Kec. Rantau, Kabupaten Aceh Tamiang, Aceh";"Kabupaten Aceh Tamiang, Aceh";"ACEH";"";"Indonesia";"";"4.2673932";"98.1494294";"https://maps.google.com/?cid=0x0:0x856cdb70a29372a8"
"restaurant";"Penyedia Layanan Internet";"Ameinet";"846P+66C, Sukarakyat, Suka Rakyat, Kec. Rantau, Kabupaten Aceh Tamiang, Aceh 24352";"Sukarakyat, Suka Rakyat, Kec. Rantau, Kabupaten Aceh Tamiang";"ACEH";"24352";"Indonesia";" 085260327988";"4.3105502";"98.1355209";"https://maps.google.com/?cid=0x0:0xbe95cc570fcaa03a"
"restaurant";"Kedai Kopi";"Sunsine 88";"7488+C98, Suka Mulia, Kec. Rantau, Kabupaten Aceh Tamiang, Aceh 24453";"Suka Mulia, Kec. Rantau, Kabupaten Aceh Tamiang";"ACEH";"24453";"Indonesia";"";"4.2660298";"98.1159525";"https://maps.google.com/?cid=0x0:0x979efcd7cf2f263a"
"restaurant";"Kafe";"warung Wak Leman";"75V3+276, Unnamed Road, Perk Gedung Biara, Kec. Seuruway, Kabupaten Aceh Tamiang, Aceh 24352";"Unnamed Road, Perk Gedung Biara, Kec. Seuruway, Kabupaten Aceh Tamiang";"ACEH";"24352";"Indonesia";"";"4.292527";"98.1531317";"https://maps.google.com/?cid=0x0:0x37dd4ac5dc3d64f7"
"restaurant";"Kafe";"Waroeng Pak Akhyar";"74RX+JR8, Jamur Jelatang, Kec. Rantau, Kabupaten Aceh Tamiang, Aceh 24352";"Jamur Jelatang, Kec. Rantau, Kabupaten Aceh Tamiang";"ACEH";"24352";"Indonesia";" 081264320109";"4.2915413";"98.149586";"https://maps.google.com/?cid=0x0:0x36ae57e3162ba058"
"restaurant";"Kafe";"Syanum coffee";"953H+5HF, Peukan Seuruway, Kec. Seuruway, Kabupaten Aceh Tamiang, Aceh 24472";"Peukan Seuruway, Kec. Seuruway, Kabupaten Aceh Tamiang";"ACEH";"24472";"Indonesia";"";"4.3529387";"98.1789213";"https://maps.google.com/?cid=0x0:0x568d155018f23ec3"
"restaurant";"Kedai Kopi";"Cafe Anggur";"74J3+8H3, Sukajadi, Kec. Rantau, Kabupaten Aceh Tamiang, Aceh";"Kabupaten Aceh Tamiang, Aceh";"ACEH";"";"Indonesia";"";"4.2807569";"98.1039267";"https://maps.google.com/?cid=0x0:0xf36c286c03fa1fcf"
"restaurant";"Nasi";"Warung Bu Ani";"74XR+JQV, Unnamed Road, Jamur Jelatang, Kec. Rantau, Kabupaten Aceh Tamiang, Aceh 24352";"Unnamed Road, Jamur Jelatang, Kec. Rantau, Kabupaten Aceh Tamiang";"ACEH";"24352";"Indonesia";" 081362257224";"4.2991073";"98.1419199";"https://maps.google.com/?cid=0x0:0xd0f6f5eb0217489a"
"restaurant";"restaurant";"Kec. Tamiang Hulu";"Kabupaten Aceh Tamiang, Aceh";"Kabupaten Aceh Tamiang, Aceh";"ACEH";"";"Indonesia";"";"4.1633008";"97.9539786";"https://maps.google.com/?cid=0x0:0x4376a9df79cb4397"
"restaurant";"Kafe";"Uza cafe basecamp";"5X73+833, Perk Pulau Tiga, Kec. Tamiang Hulu, Kabupaten Aceh Tamiang, Aceh 24478";"Perk Pulau Tiga, Kec. Tamiang Hulu, Kabupaten Aceh Tamiang";"ACEH";"24478";"Indonesia";" 082165690011";"4.163275";"97.952683";"https://maps.google.com/?cid=0x0:0x5bbbb84fa53513b0"
"restaurant";"Restoran";"Warung Pinggir Sungai";"Perk Pulau Tiga, Kec. Tamiang Hulu, Kabupaten Aceh Tamiang, Aceh 24478";"Kec. Tamiang Hulu, Kabupaten Aceh Tamiang";"ACEH";"24478";"Indonesia";" 085277107700";"4.1649933";"97.9471326";"https://maps.google.com/?cid=0x0:0xa70bb13d9986071b"
"restaurant";"Kafe";"Cafe AE";"Simpang Kiri, Kec. Tenggulun, Kabupaten Aceh Tamiang, Aceh 24477";"Kec. Tenggulun, Kabupaten Aceh Tamiang";"ACEH";"24477";"Indonesia";" 082297972381";"4.1141645";"97.9815351";"https://maps.google.com/?cid=0x0:0x105e527505d22b16"
"restaurant";"Kedai Kopi";"ADA Coffee";"Perk Pulau Tiga, Kec. Tamiang Hulu, Kabupaten Aceh Tamiang, Aceh 24478";"Kec. Tamiang Hulu, Kabupaten Aceh Tamiang";"ACEH";"24478";"Indonesia";" 082211396969";"4.1634936";"97.9521483";"https://maps.google.com/?cid=0x0:0xe6344e2a77391bb8"
"restaurant";"Kafe";"waroeng kupi ieng";"Perk Pulau Tiga, Kec. Tamiang Hulu, Kabupaten Aceh Tamiang, Aceh 24477";"Kec. Tamiang Hulu, Kabupaten Aceh Tamiang";"ACEH";"24477";"Indonesia";" 082219860012";"4.1672834";"97.9473276";"https://maps.google.com/?cid=0x0:0xee28cef2a879a6ad"
"restaurant";"Brunch";"Warung Zingga";"6WJC+CXF, Harum Sari, Kec. Tamiang Hulu, Kabupaten Aceh Tamiang, Aceh 24382";"Harum Sari, Kec. Tamiang Hulu, Kabupaten Aceh Tamiang";"ACEH";"24382";"Indonesia";"";"4.2310736";"97.9224127";"https://maps.google.com/?cid=0x0:0x7c9503bcb91a5740"
"restaurant";"Makanan Kecil";"Warung Mak Jum";"5WQX+G73, Perk Pulau Tiga, Kec. Tamiang Hulu, Kabupaten Aceh Tamiang, Aceh 24474";"Perk Pulau Tiga, Kec. Tamiang Hulu, Kabupaten Aceh Tamiang";"ACEH";"24474";"Indonesia";"";"4.1887546";"97.9481618";"https://maps.google.com/?cid=0x0:0x827c73f3e6b2263"
"restaurant";"Kafe";"Kafe mas pon";"4XQ6+797, Alur Tani I, Kec. Tamiang Hulu, Kabupaten Aceh Tamiang, Aceh";"Kabupaten Aceh Tamiang, Aceh";"ACEH";"";"Indonesia";" 085372982766";"4.1381737";"97.9609374";"https://maps.google.com/?cid=0x0:0x21718834128ed124"
"restaurant";"Brunch";"Pondok NAULY";"4X7J+877, Simpang Kiri, Kec. Tenggulun, Kabupaten Aceh Tamiang, Aceh 24477";"Simpang Kiri, Kec. Tenggulun, Kabupaten Aceh Tamiang";"ACEH";"24477";"Indonesia";"";"4.1132983";"97.9806783";"https://maps.google.com/?cid=0x0:0xaa7a18ed0654de80"
"restaurant";"Kafe";"Warung Mbak Nur";"5X53+WMW, desa, Perk Pulau Tiga, Kec. Tamiang Hulu, Kabupaten Aceh Tamiang, Aceh 24477";"desa, Perk Pulau Tiga, Kec. Tamiang Hulu, Kabupaten Aceh Tamiang";"ACEH";"24477";"Indonesia";"";"4.1598545";"97.9541881";"https://maps.google.com/?cid=0x0:0x916f4d92f76aee27"
"restaurant";"Kafe Coklat";"Basecamp Coffee";"Kaloy, Kec. Tamiang Hulu, Kabupaten Aceh Tamiang, Aceh 24382";"Kec. Tamiang Hulu, Kabupaten Aceh Tamiang";"ACEH";"24382";"Indonesia";" 08126083055";"4.166515";"97.9464433";"https://maps.google.com/?cid=0x0:0xc8a231db8b3bf2f3"
"restaurant";"Bakso";"WARUNG NDESO 99-2";"6WRV+PGM, Harum Sari, Kec. Tamiang Hulu, Kabupaten Aceh Tamiang, Aceh 24382";"Harum Sari, Kec. Tamiang Hulu, Kabupaten Aceh Tamiang";"ACEH";"24382";"Indonesia";"";"4.2412458";"97.9445742";"https://maps.google.com/?cid=0x0:0x8f0f263ca2f59f34"
"restaurant";"Kafe";"Warung Kopi Happy";"5W7X+RJM, Dusun Simpang Tiga, Kaloy, Kec. Tamiang Hulu, Kabupaten Aceh Tamiang, Aceh 24477";"Dusun Simpang Tiga, Kaloy, Kec. Tamiang Hulu, Kabupaten Aceh Tamiang";"ACEH";"24477";"Indonesia";" 085362650001";"4.1645935";"97.9490519";"https://maps.google.com/?cid=0x0:0x5703aa313a0d612d"
"restaurant";"restaurant";"Aceh 24477";"Kabupaten Aceh Tamiang, Aceh";"Kabupaten Aceh Tamiang, Aceh";"ACEH";"";"Indonesia";"";"3.9904163";"97.9157099";"https://maps.google.com/?cid=0x0:0x559940852b05002f"
"restaurant";"Restoran";"Warung Kak Ras";"2XMX+8WM, Unnamed Road, Tenggulun, Kec. Tenggulun, Kabupaten Aceh Tamiang, Aceh 24477";"Unnamed Road, Tenggulun, Kec. Tenggulun, Kabupaten Aceh Tamiang";"ACEH";"24477";"Indonesia";"";"4.0333481";"97.9997894";"https://maps.google.com/?cid=0x0:0xb9bfa08a96e9d21f"
"restaurant";"Restoran";"Warung pangsit mas p";"Tualang tukul rt 2, Tenggulun, Kec. Tenggulun, Kabupaten Aceh Tamiang, Aceh 24477";"Tenggulun, Kec. Tenggulun, Kabupaten Aceh Tamiang";"ACEH";"24477";"Indonesia";"";"4.0651643";"97.9869959";"https://maps.google.com/?cid=0x0:0x2eb33b666c712cf4"
"restaurant";"Kedai Kopi";"Ruko Seafood Perbatasan";"43R7+8W6, Karangjadi, Kec. Kejuruan Muda, Kabupaten Aceh Tamiang, Aceh 24474";"Karangjadi, Kec. Kejuruan Muda, Kabupaten Aceh Tamiang";"ACEH";"24474";"Indonesia";" 085296726665";"4.1407865";"98.0647693";"https://maps.google.com/?cid=0x0:0x1bb7323a5cc634b0"
"restaurant";"Brunch";"Warung Nenek Farida";"3WPR+969, Unnamed Road, Selamat, Kec. Tenggulun, Kabupaten Aceh Tamiang, Aceh 24477";"Unnamed Road, Selamat, Kec. Tenggulun, Kabupaten Aceh Tamiang";"ACEH";"24477";"Indonesia";" 085335000345";"4.0859128";"97.9406228";"https://maps.google.com/?cid=0x0:0xe4bad29bf5545fe"
"restaurant";"Restoran";"Warung Sate Bandung";"3WGP+XJC, Selamat, Kec. Tenggulun, Kabupaten Aceh Tamiang, Aceh 24477";"Selamat, Kec. Tenggulun, Kabupaten Aceh Tamiang";"ACEH";"24477";"Indonesia";"";"4.0774371";"97.9365297";"https://maps.google.com/?cid=0x0:0xc6c59d4f63272d05"
"restaurant";"Kafe";"Kedai nasi nek Tempang";"4X7J+MQF, Simpang Kiri, Kec. Tenggulun, Kabupaten Aceh Tamiang, Aceh 24477";"Simpang Kiri, Kec. Tenggulun, Kabupaten Aceh Tamiang";"ACEH";"24477";"Indonesia";"";"4.1139471";"97.981969";"https://maps.google.com/?cid=0x0:0xa147f1446a4743a5"
"restaurant";"Restoran";"Warung kak Trisna";"43R7+GV8, Karangjadi, Kec. Kejuruan Muda, Kabupaten Aceh Tamiang, Aceh 24474";"Karangjadi, Kec. Kejuruan Muda, Kabupaten Aceh Tamiang";"ACEH";"24474";"Indonesia";"";"4.1412898";"98.0646887";"https://maps.google.com/?cid=0x0:0x71f479eeb1b4aff2"
"restaurant";"Sarapan";"Waroeng Mie Kocok Medan Kak As";"3XR3+5WM, Selamat, Kec. Tenggulun, Kabupaten Aceh Tamiang, Aceh 24477";"Selamat, Kec. Tenggulun, Kabupaten Aceh Tamiang";"ACEH";"24477";"Indonesia";" 085321580457";"4.0904554";"97.9548064";"https://maps.google.com/?cid=0x0:0x9aeaf8ff396eb69e"
"restaurant";"Kafe";"Warung Bakso Mbak Anik";"3XQ2+9F7, Selamat, Kec. Tenggulun, Kabupaten Aceh Tamiang, Aceh 24477";"Selamat, Kec. Tenggulun, Kabupaten Aceh Tamiang";"ACEH";"24477";"Indonesia";" 081251728228";"4.088422";"97.951182";"https://maps.google.com/?cid=0x0:0xc2c2e04a3bd91fdf"
"restaurant";"Toko bahan makanan";"Kebab Laris Ummy Harun";"3X5W+6XC, Tenggulun, Kec. Tenggulun, Kabupaten Aceh Tamiang, Aceh 24477";"Tenggulun, Kec. Tenggulun, Kabupaten Aceh Tamiang";"ACEH";"24477";"Indonesia";" 081291552837";"4.0580537";"97.9974057";"https://maps.google.com/?cid=0x0:0x8162b427dbe45afc"
"restaurant";"Kedai Kopi";"Es Coklat Mantap Perbatasan/Winda Cell";"43P8+Q4R, Karangjadi, Kec. Kejuruan Muda, Kabupaten Aceh Tamiang, Aceh 24474";"Karangjadi, Kec. Kejuruan Muda, Kabupaten Aceh Tamiang";"ACEH";"24474";"Indonesia";" 081263824609";"4.1372405";"98.065545";"https://maps.google.com/?cid=0x0:0x9556dffc44f297fd"
"restaurant";"Prasmanan";"Warung seblak prasmanan";"3W6G+FJ9, Selamat, Kec. Tenggulun, Kabupaten Aceh Tamiang, Aceh 24477";"Selamat, Kec. Tenggulun, Kabupaten Aceh Tamiang";"ACEH";"24477";"Indonesia";"";"4.0611734";"97.9266015";"https://maps.google.com/?cid=0x0:0xf64f5dd8ef5734d8"
"restaurant";"Kedai Kopi";"Akmal wifi";"Tenggulun, Kec. Tenggulun, Kabupaten Aceh Tamiang, Aceh 24477";"Kec. Tenggulun, Kabupaten Aceh Tamiang";"ACEH";"24477";"Indonesia";" 082284541937";"4.0391534";"98.0017438";"https://maps.google.com/?cid=0x0:0xc3a90d0fa495f913"
"hotel";"hotel";"HOTEL MORIELISA";"Kebun Tanah Terban, Kec. Karang Baru, Kabupaten Aceh Tamiang, Aceh 24456";"Kec. Karang Baru, Kabupaten Aceh Tamiang";"ACEH";"24456";"Indonesia";" 082276005568";"4.3038101";"98.0460592";"https://maps.google.com/?cid=0x0:0x82d7277f3d84c4d7"
"hotel";"hotel";"Kec. Banda Mulia";"Kabupaten Aceh Tamiang, Aceh";"Kabupaten Aceh Tamiang, Aceh";"ACEH";"";"Indonesia";"";"4.4405846";"98.1360921";"https://maps.google.com/?cid=0x0:0xe04c2bd9d3d421e8"
"hotel";"hotel";"RedDoorz Syariah near Terminal Terpadu Langsa";"Jl. Prof. A Majid Ibrahim, Lhok Banie, Kec. Langsa Baro, Kota Langsa, Aceh 24355";"Lhok Banie, Kec. Langsa Baro, Kota Langsa";"ACEH";"24355";"Indonesia";" 0895417300072";"4.4944454";"97.9703029";"https://maps.google.com/?cid=0x0:0x73d047494d05cc84"
"hotel";"hotel";"N/A";"";"";"ACEH";"";"Indonesia";"";"";"";"https://maps.google.com/?cid=0x0:0xcd574ffcf9612089%7C/g/11hf26zvl8%7Cid-ID"
"hotel";"hotel";"Hotel De Farasat";"Jl. Nuruddin Ar-Raniry, Paya Bujok Tunong, Kec. Langsa Baro, Kota Langsa, Aceh 24375";"Paya Bujok Tunong, Kec. Langsa Baro, Kota Langsa";"ACEH";"24375";"Indonesia";" 082297781973";"4.4793713";"97.9483968";"https://maps.google.com/?cid=0x0:0x5398374b4b6e2476"
"hotel";"hotel";"De Farasat hotel";"FWHX+Q93, Paya Bujok Tunong, Kec. Langsa Baro, Kota Langsa, Aceh 24375";"Paya Bujok Tunong, Kec. Langsa Baro, Kota Langsa";"ACEH";"24375";"Indonesia";" 0895417300072";"4.479426";"97.948407";"https://maps.google.com/?cid=0x0:0x513c33c6b6a2658c"
"hotel";"hotel";"Grand Arya HOTEL";"depan kantor bupati, Dalam, Kec. Karang Baru, Kabupaten Aceh Tamiang, Aceh 24456";"Dalam, Kec. Karang Baru, Kabupaten Aceh Tamiang";"ACEH";"24456";"Indonesia";" 085370342929";"4.2990488";"98.0485579";"https://maps.google.com/?cid=0x0:0x87235e6a0b51271f"
"hotel";"hotel";"Losmen Diah Langsa";"Jl. Syiah Kuala No.1, Paya Bujok Blang Pase, Kec. Langsa Kota, Kota Langsa, Aceh 24354";"Paya Bujok Blang Pase, Kec. Langsa Kota, Kota Langsa";"ACEH";"24354";"Indonesia";" 085359005600";"4.4763487";"97.9666117";"https://maps.google.com/?cid=0x0:0x60d3cc1a093b8dfa"
"hotel";"hotel";"Hotel Harmoni";"Jalan Jend.A. Yani FXJ4+294 Langsa Kota, Paya Bujok Seuleumak, Kec. Langsa Baro, Kota Langsa, Aceh 24375";"Paya Bujok Seuleumak, Kec. Langsa Baro, Kota Langsa";"ACEH";"24375";"Indonesia";" 085766602039";"4.4800246";"97.9559562";"https://maps.google.com/?cid=0x0:0x80313c0381230f01"
"hotel";"hotel";"Hotel Jagoci Inn";"Komplek BTN Satelit Graha, Jalan Ir. H . Djuanda, Tanah Terban, Kec. Karang Baru, Kabupaten Aceh Tamiang, Aceh 24456";"Jalan Ir. H . Djuanda, Tanah Terban, Kec. Karang Baru, Kabupaten Aceh Tamiang";"ACEH";"24456";"Indonesia";" 082274221645";"4.305496";"98.04616";"https://maps.google.com/?cid=0x0:0x45024f5b389082bc"
"hotel";"hotel";"Hotel Kartika Langsa";"Jl. Jenderal Ahmad Yani No.214, Gampong Jawa, Kec. Langsa Kota, Kota Langsa, Aceh 24415";"Gampong Jawa, Kec. Langsa Kota, Kota Langsa";"ACEH";"24415";"Indonesia";" 081373981174";"4.4783568";"97.9573584";"https://maps.google.com/?cid=0x0:0xd9c5cf47b5d14bc6"
"hotel";"hotel";"L Ruma Langsa";"Jl. Iskandar Muda No.80, Paya Bujok Blang Pase, Kec. Langsa Kota, Kota Langsa, Aceh 24412";"Paya Bujok Blang Pase, Kec. Langsa Kota, Kota Langsa";"ACEH";"24412";"Indonesia";" 082288126080";"4.4732197";"97.9677348";"https://maps.google.com/?cid=0x0:0xf7921246ff91ece8"
"hotel";"hotel";"OYO 3077 Hotel Morielisa";"Kebun Tanah Terban, Kec. Karang Baru, Kabupaten Aceh Tamiang, Aceh 24456";"Kec. Karang Baru, Kabupaten Aceh Tamiang";"ACEH";"24456";"Indonesia";" 02129707601";"4.3042227";"98.0461194";"https://maps.google.com/?cid=0x0:0x3084c98662a3317e"
"hotel";"hotel";"Hanania House";"Lrg. Kirab Remaja, Paya Bujok Blang Pase, Kec. Langsa Kota, Kota Langsa, Aceh 24375";"Paya Bujok Blang Pase, Kec. Langsa Kota, Kota Langsa";"ACEH";"24375";"Indonesia";" 085297331700";"4.4760406";"97.9699259";"https://maps.google.com/?cid=0x0:0x1a7406fb807c4d8a"
"hotel";"hotel";"Kec. Bandar Pusaka";"Kabupaten Aceh Tamiang, Aceh";"Kabupaten Aceh Tamiang, Aceh";"ACEH";"";"Indonesia";"";"4.2948637";"97.8778752";"https://maps.google.com/?cid=0x0:0x2b7834261cf3e187"
"hotel";"hotel";"HOTEL MORIELISA";"Kebun Tanah Terban, Kec. Karang Baru, Kabupaten Aceh Tamiang, Aceh 24456";"Kec. Karang Baru, Kabupaten Aceh Tamiang";"ACEH";"24456";"Indonesia";" 082276005568";"4.3038101";"98.0460592";"https://maps.google.com/?cid=0x0:0x82d7277f3d84c4d7"
"hotel";"hotel";"PLUM Hotel Lading Banda Aceh";"Jl. Cut Mutia No.19, Kp. Baru, Kec. Baiturrahman, Kota Banda Aceh, Aceh 23242";"Kp. Baru, Kec. Baiturrahman, Kota Banda Aceh";"ACEH";"23242";"Indonesia";" 08116888089";"5.5558086";"95.3174426";"https://maps.google.com/?cid=0x0:0x9ff50911ab5454e1"
"hotel";"hotel";"Hotel De Farasat";"Jl. Nuruddin Ar-Raniry, Paya Bujok Tunong, Kec. Langsa Baro, Kota Langsa, Aceh 24375";"Paya Bujok Tunong, Kec. Langsa Baro, Kota Langsa";"ACEH";"24375";"Indonesia";" 082297781973";"4.4793713";"97.9483968";"https://maps.google.com/?cid=0x0:0x5398374b4b6e2476"
"hotel";"hotel";"RedDoorz Syariah near Terminal Terpadu Langsa";"Jl. Prof. A Majid Ibrahim, Lhok Banie, Kec. Langsa Baro, Kota Langsa, Aceh 24355";"Lhok Banie, Kec. Langsa Baro, Kota Langsa";"ACEH";"24355";"Indonesia";" 0895417300072";"4.4944454";"97.9703029";"https://maps.google.com/?cid=0x0:0x73d047494d05cc84"
"hotel";"hotel";"Grand Arya HOTEL";"depan kantor bupati, Dalam, Kec. Karang Baru, Kabupaten Aceh Tamiang, Aceh 24456";"Dalam, Kec. Karang Baru, Kabupaten Aceh Tamiang";"ACEH";"24456";"Indonesia";" 085370342929";"4.2990488";"98.0485579";"https://maps.google.com/?cid=0x0:0x87235e6a0b51271f"
"hotel";"hotel";"RedDoorz Syariah near Universitas Samudera Langsa";"Gampong Teungoh, Kec. Langsa Kota, Kota Langsa, Aceh 24354";"Kec. Langsa Kota, Kota Langsa";"ACEH";"24354";"Indonesia";" 02180629666";"4.4635775";"97.9776407";"https://maps.google.com/?cid=0x0:0xcd574ffcf9612089"
"hotel";"hotel";"N/A";"";"";"ACEH";"";"Indonesia";"";"";"";"https://maps.google.com/?cid=0x0:0xcd574ffcf9612089%7C/g/11hf26zvl8%7Cid-ID"
"hotel";"hotel";"Losmen Diah Langsa";"Jl. Syiah Kuala No.1, Paya Bujok Blang Pase, Kec. Langsa Kota, Kota Langsa, Aceh 24354";"Paya Bujok Blang Pase, Kec. Langsa Kota, Kota Langsa";"ACEH";"24354";"Indonesia";" 085359005600";"4.4763487";"97.9666117";"https://maps.google.com/?cid=0x0:0x60d3cc1a093b8dfa"
"hotel";"hotel";"Hotel Jagoci Inn";"Komplek BTN Satelit Graha, Jalan Ir. H . Djuanda, Tanah Terban, Kec. Karang Baru, Kabupaten Aceh Tamiang, Aceh 24456";"Jalan Ir. H . Djuanda, Tanah Terban, Kec. Karang Baru, Kabupaten Aceh Tamiang";"ACEH";"24456";"Indonesia";" 082274221645";"4.305496";"98.04616";"https://maps.google.com/?cid=0x0:0x45024f5b389082bc"
"hotel";"hotel";"De Farasat hotel";"FWHX+Q93, Paya Bujok Tunong, Kec. Langsa Baro, Kota Langsa, Aceh 24375";"Paya Bujok Tunong, Kec. Langsa Baro, Kota Langsa";"ACEH";"24375";"Indonesia";" 0895417300072";"4.479426";"97.948407";"https://maps.google.com/?cid=0x0:0x513c33c6b6a2658c"
"hotel";"hotel";"Hotel Kartika Langsa";"Jl. Jenderal Ahmad Yani No.214, Gampong Jawa, Kec. Langsa Kota, Kota Langsa, Aceh 24415";"Gampong Jawa, Kec. Langsa Kota, Kota Langsa";"ACEH";"24415";"Indonesia";" 081373981174";"4.4783568";"97.9573584";"https://maps.google.com/?cid=0x0:0xd9c5cf47b5d14bc6"
"hotel";"hotel";"HOTEL BESITANG";"Jl. Medan Banda Aceh No.KM. 106, RW.5, Bukit Selamat, Kec. Besitang, Kabupaten Langkat, Sumatera Utara 20859";"RW.5, Bukit Selamat, Kec. Besitang, Kabupaten Langkat";"ACEH";"20859";"Indonesia";" 085372110000";"4.0778084";"98.1167963";"https://maps.google.com/?cid=0x0:0x61aabf818cb031ac"
"hotel";"hotel";"OYO 3077 Hotel Morielisa";"Kebun Tanah Terban, Kec. Karang Baru, Kabupaten Aceh Tamiang, Aceh 24456";"Kec. Karang Baru, Kabupaten Aceh Tamiang";"ACEH";"24456";"Indonesia";" 02129707601";"4.3042227";"98.0461194";"https://maps.google.com/?cid=0x0:0x3084c98662a3317e"
"hotel";"hotel";"Kec. Bendahara";"Kabupaten Aceh Tamiang, Aceh";"Kabupaten Aceh Tamiang, Aceh";"ACEH";"";"Indonesia";"";"4.4074501";"98.1695001";"https://maps.google.com/?cid=0x0:0xa3729d585ef6a9a8"
"hotel";"hotel";"HOTEL MORIELISA";"Kebun Tanah Terban, Kec. Karang Baru, Kabupaten Aceh Tamiang, Aceh 24456";"Kec. Karang Baru, Kabupaten Aceh Tamiang";"ACEH";"24456";"Indonesia";" 082276005568";"4.3038101";"98.0460592";"https://maps.google.com/?cid=0x0:0x82d7277f3d84c4d7"
"hotel";"hotel";"Hotel Medan";"Jl. Jend. Ahmad Yani No.17, Peunayong, Kec. Kuta Alam, Kota Banda Aceh, Aceh";"Kota Banda Aceh, Aceh";"ACEH";"";"Indonesia";" 065121501";"5.5574522";"95.3187103";"https://maps.google.com/?cid=0x0:0x42083d304b99e444"
"hotel";"hotel";"Kumala Hotel Banda Aceh";"Jl. Prof. Ali Hasyimi No.9-10, Lamteh, Kec. Ulee Kareng, Kota Banda Aceh, Aceh 23118";"Lamteh, Kec. Ulee Kareng, Kota Banda Aceh";"ACEH";"23118";"Indonesia";" 08116835855";"5.5514115";"95.3453647";"https://maps.google.com/?cid=0x0:0x9828ac1cd87d07d0"
"hotel";"hotel";"N/A";"";"";"ACEH";"";"Indonesia";"";"";"";"https://maps.google.com/?cid=0x0:0x9828ac1cd87d07d0%7C/g/11ckqrc334%7Cid-ID"
"hotel";"hotel";"Ring Road Hotel";"Landom, Kec. Lueng Bata, Kota Banda Aceh, Aceh 23122";"Kec. Lueng Bata, Kota Banda Aceh";"ACEH";"23122";"Indonesia";" 02129707601";"5.5304327";"95.3305545";"https://maps.google.com/?cid=0x0:0x6c5799e4236c0a36"
"hotel";"hotel";"N/A";"";"";"ACEH";"";"Indonesia";"";"";"";"https://maps.google.com/?cid=0x0:0x6c5799e4236c0a36%7C/g/11b75qx7s2%7Cid-ID"
"hotel";"hotel";"Hotel 61";"Jl. T. Panglima Polem No.32-34, Laksana, Kec. Kuta Alam, Kota Banda Aceh, Aceh 23122";"Laksana, Kec. Kuta Alam, Kota Banda Aceh";"ACEH";"23122";"Indonesia";" 0651638866";"5.5593663";"95.3213398";"https://maps.google.com/?cid=0x0:0x4927c09f2ecd1f3c"
"hotel";"hotel";"N/A";"";"";"ACEH";"";"Indonesia";"";"";"";"https://maps.google.com/?cid=0x0:0x4927c09f2ecd1f3c%7C/g/1hc16zhd7%7Cid-ID"
"hotel";"hotel";"Daka Hotel";"Bandar Baru, Kec. Kuta Alam, Kota Banda Aceh, Aceh 24415";"Kec. Kuta Alam, Kota Banda Aceh";"ACEH";"24415";"Indonesia";" 02129707601";"5.5688125";"95.3340625";"https://maps.google.com/?cid=0x0:0x784a58a62a3073fc"
"hotel";"hotel";"Hotel Amoda dan Cafe";"Landom, Kec. Lueng Bata, Kota Banda Aceh, Aceh 23122";"Kec. Lueng Bata, Kota Banda Aceh";"ACEH";"23122";"Indonesia";" 06517316039";"5.5320287";"95.3386727";"https://maps.google.com/?cid=0x0:0xe8b4e4d38b5a3c6e"
"hotel";"hotel";"Ayani Hotel Banda Aceh";"Jl. Jend. Ahmad Yani No.20, Peunayong, Kec. Kuta Alam, Kota Banda Aceh, Aceh 23122";"Peunayong, Kec. Kuta Alam, Kota Banda Aceh";"ACEH";"23122";"Indonesia";" 06518012111";"5.5570339";"95.3193251";"https://maps.google.com/?cid=0x0:0xc7d116533d0b5450"
"hotel";"hotel";"N/A";"";"";"ACEH";"";"Indonesia";"";"";"";"https://maps.google.com/?cid=0x0:0xc7d116533d0b5450%7C/g/11c1l49977%7Cid-ID"
"hotel";"hotel";"Abaka Hotel";"H923+746, Lamglumpang, Kec. Ulee Kareng, Kota Banda Aceh, Aceh";"Kota Banda Aceh, Aceh";"ACEH";"";"Indonesia";" 08116820333";"5.5506624";"95.3527724";"https://maps.google.com/?cid=0x0:0x369db8e386d736b6"
"hotel";"hotel";"Aceh 24476";"Kabupaten Aceh Tamiang, Aceh";"Kabupaten Aceh Tamiang, Aceh";"ACEH";"";"Indonesia";"";"4.3288776";"98.0628862";"https://maps.google.com/?cid=0x0:0x82d848b4ba041829"
"hotel";"hotel";"HOTEL MORIELISA";"Kebun Tanah Terban, Kec. Karang Baru, Kabupaten Aceh Tamiang, Aceh 24456";"Kec. Karang Baru, Kabupaten Aceh Tamiang";"ACEH";"24456";"Indonesia";" 082276005568";"4.3038101";"98.0460592";"https://maps.google.com/?cid=0x0:0x82d7277f3d84c4d7"
"hotel";"hotel";"Kuta Karang Hotel";"Hotel near The Green 400 m, Islamic Center, Jl. Baiturrahim No.14, Lancang Garam, Banda Sakti, Lhokseumawe City, Aceh 24355";"Islamic Center, Jl. Baiturrahim No.14, Lancang Garam, Banda Sakti, Lhokseumawe City";"ACEH";"24355";"Indonesia";" 02129707601";"5.1816201";"97.1455875";"https://maps.google.com/?cid=0x0:0xf223d714c3080e23"
"hotel";"hotel";"Hotel Kuta Karang Baru";"54GV+CCP, Jl. Panglateh, Simpang Empat, Kec. Banda Sakti, Kota Lhokseumawe, Aceh 24351";"Jl. Panglateh, Simpang Empat, Kec. Banda Sakti, Kota Lhokseumawe";"ACEH";"24351";"Indonesia";" 02129707601";"5.1762103";"97.1435902";"https://maps.google.com/?cid=0x0:0x871c9eeab8441fdb"
"hotel";"hotel";"N/A";"";"";"ACEH";"";"Indonesia";"";"";"";"https://maps.google.com/?cid=0x0:0x871c9eeab8441fdb%7C/g/1pzrvc1lt%7Cid-ID"
"hotel";"hotel";"Hotel Jagoci Inn";"Komplek BTN Satelit Graha, Jalan Ir. H . Djuanda, Tanah Terban, Kec. Karang Baru, Kabupaten Aceh Tamiang, Aceh 24456";"Jalan Ir. H . Djuanda, Tanah Terban, Kec. Karang Baru, Kabupaten Aceh Tamiang";"ACEH";"24456";"Indonesia";" 082274221645";"4.305496";"98.04616";"https://maps.google.com/?cid=0x0:0x45024f5b389082bc"
"hotel";"hotel";"Grand Arya HOTEL";"depan kantor bupati, Dalam, Kec. Karang Baru, Kabupaten Aceh Tamiang, Aceh 24456";"Dalam, Kec. Karang Baru, Kabupaten Aceh Tamiang";"ACEH";"24456";"Indonesia";" 085370342929";"4.2990488";"98.0485579";"https://maps.google.com/?cid=0x0:0x87235e6a0b51271f"
"hotel";"hotel";"Hotel Medan";"Jl. Jend. Ahmad Yani No.17, Peunayong, Kec. Kuta Alam, Kota Banda Aceh, Aceh";"Kota Banda Aceh, Aceh";"ACEH";"";"Indonesia";" 065121501";"5.5574522";"95.3187103";"https://maps.google.com/?cid=0x0:0x42083d304b99e444"
"hotel";"hotel";"N/A";"";"";"ACEH";"";"Indonesia";"";"";"";"https://maps.google.com/?cid=0x0:0x42083d304b99e444%7C/g/1ptxwt8_b%7Cid-ID"
"hotel";"hotel";"OYO 3077 Hotel Morielisa";"Kebun Tanah Terban, Kec. Karang Baru, Kabupaten Aceh Tamiang, Aceh 24456";"Kec. Karang Baru, Kabupaten Aceh Tamiang";"ACEH";"24456";"Indonesia";" 02129707601";"4.3042227";"98.0461194";"https://maps.google.com/?cid=0x0:0x3084c98662a3317e"
"hotel";"hotel";"Hotel 61";"Jl. T. Panglima Polem No.32-34, Laksana, Kec. Kuta Alam, Kota Banda Aceh, Aceh 23122";"Laksana, Kec. Kuta Alam, Kota Banda Aceh";"ACEH";"23122";"Indonesia";" 0651638866";"5.5593663";"95.3213398";"https://maps.google.com/?cid=0x0:0x4927c09f2ecd1f3c"
"hotel";"hotel";"N/A";"";"";"ACEH";"";"Indonesia";"";"";"";"https://maps.google.com/?cid=0x0:0x4927c09f2ecd1f3c%7C/g/1hc16zhd7%7Cid-ID"
"hotel";"hotel";"HOTEL MORI";"Jl. Medan Banda Aceh, Kota Kuala Simpang, Kabupaten Aceh Tamiang, Aceh 24456";"Kota Kuala Simpang, Kabupaten Aceh Tamiang";"ACEH";"24456";"Indonesia";" 064131155";"4.2843384";"98.0581609";"https://maps.google.com/?cid=0x0:0x3d86e2a8a98a20cc"
"hotel";"hotel";"Cemerlang Hostel";"Gampong Bundar, Kec. Karang Baru, Kabupaten Aceh Tamiang, Aceh 24456";"Kec. Karang Baru, Kabupaten Aceh Tamiang";"ACEH";"24456";"Indonesia";" 085260103899";"4.2933633";"98.0492211";"https://maps.google.com/?cid=0x0:0x89f4fb68b8f1a1e5"
"hotel";"hotel";"Kec. Kejuruan Muda";"Kabupaten Aceh Tamiang, Aceh";"Kabupaten Aceh Tamiang, Aceh";"ACEH";"";"Indonesia";"";"4.2310452";"98.0585627";"https://maps.google.com/?cid=0x0:0x31c3ba765be70142"
"hotel";"hotel";"HOTEL MORIELISA";"Kebun Tanah Terban, Kec. Karang Baru, Kabupaten Aceh Tamiang, Aceh 24456";"Kec. Karang Baru, Kabupaten Aceh Tamiang";"ACEH";"24456";"Indonesia";" 082276005568";"4.3038101";"98.0460592";"https://maps.google.com/?cid=0x0:0x82d7277f3d84c4d7"
"hotel";"hotel";"Grand Arya HOTEL";"depan kantor bupati, Dalam, Kec. Karang Baru, Kabupaten Aceh Tamiang, Aceh 24456";"Dalam, Kec. Karang Baru, Kabupaten Aceh Tamiang";"ACEH";"24456";"Indonesia";" 085370342929";"4.2990488";"98.0485579";"https://maps.google.com/?cid=0x0:0x87235e6a0b51271f"
"hotel";"hotel";"OYO 3077 Hotel Morielisa";"Kebun Tanah Terban, Kec. Karang Baru, Kabupaten Aceh Tamiang, Aceh 24456";"Kec. Karang Baru, Kabupaten Aceh Tamiang";"ACEH";"24456";"Indonesia";" 02129707601";"4.3042227";"98.0461194";"https://maps.google.com/?cid=0x0:0x3084c98662a3317e"
"hotel";"hotel";"HOTEL BESITANG";"Jl. Medan Banda Aceh No.KM. 106, RW.5, Bukit Selamat, Kec. Besitang, Kabupaten Langkat, Sumatera Utara 20859";"RW.5, Bukit Selamat, Kec. Besitang, Kabupaten Langkat";"ACEH";"20859";"Indonesia";" 085372110000";"4.0778084";"98.1167963";"https://maps.google.com/?cid=0x0:0x61aabf818cb031ac"
"hotel";"hotel";"HOTEL MORI";"Jl. Medan Banda Aceh, Kota Kuala Simpang, Kabupaten Aceh Tamiang, Aceh 24456";"Kota Kuala Simpang, Kabupaten Aceh Tamiang";"ACEH";"24456";"Indonesia";" 064131155";"4.2843384";"98.0581609";"https://maps.google.com/?cid=0x0:0x3d86e2a8a98a20cc"
"hotel";"hotel";"Cemerlang Hostel";"Gampong Bundar, Kec. Karang Baru, Kabupaten Aceh Tamiang, Aceh 24456";"Kec. Karang Baru, Kabupaten Aceh Tamiang";"ACEH";"24456";"Indonesia";" 085260103899";"4.2933633";"98.0492211";"https://maps.google.com/?cid=0x0:0x89f4fb68b8f1a1e5"
"hotel";"hotel";"Kota Kuala Simpang";"Kabupaten Aceh Tamiang, Aceh";"Kabupaten Aceh Tamiang, Aceh";"ACEH";"";"Indonesia";"";"4.2856625";"98.060158";"https://maps.google.com/?cid=0x0:0x1c98c7d4ec51e5aa"
"hotel";"hotel";"HOTEL MORIELISA";"Kebun Tanah Terban, Kec. Karang Baru, Kabupaten Aceh Tamiang, Aceh 24456";"Kec. Karang Baru, Kabupaten Aceh Tamiang";"ACEH";"24456";"Indonesia";" 082276005568";"4.3038101";"98.0460592";"https://maps.google.com/?cid=0x0:0x82d7277f3d84c4d7"
"hotel";"hotel";"Grand Arya HOTEL";"depan kantor bupati, Dalam, Kec. Karang Baru, Kabupaten Aceh Tamiang, Aceh 24456";"Dalam, Kec. Karang Baru, Kabupaten Aceh Tamiang";"ACEH";"24456";"Indonesia";" 085370342929";"4.2990488";"98.0485579";"https://maps.google.com/?cid=0x0:0x87235e6a0b51271f"
"hotel";"hotel";"HOTEL MORI";"Jl. Medan Banda Aceh, Kota Kuala Simpang, Kabupaten Aceh Tamiang, Aceh 24456";"Kota Kuala Simpang, Kabupaten Aceh Tamiang";"ACEH";"24456";"Indonesia";" 064131155";"4.2843384";"98.0581609";"https://maps.google.com/?cid=0x0:0x3d86e2a8a98a20cc"
"hotel";"hotel";"Penginapan Intan Motel";"Jl. Kutacane-Tigabinanga Jl. Kutacane No.01, Lawe Perbunga, Kec. Babul Makmur, Kabupaten Aceh Tenggara, Aceh 24673";"Lawe Perbunga, Kec. Babul Makmur, Kabupaten Aceh Tenggara";"ACEH";"24673";"Indonesia";" 02129707601";"3.2966292";"97.9661431";"https://maps.google.com/?cid=0x0:0xc7af846cd0488b69"
"hotel";"hotel";"De Farasat hotel";"FWHX+Q93, Paya Bujok Tunong, Kec. Langsa Baro, Kota Langsa, Aceh 24375";"Paya Bujok Tunong, Kec. Langsa Baro, Kota Langsa";"ACEH";"24375";"Indonesia";" 0895417300072";"4.479426";"97.948407";"https://maps.google.com/?cid=0x0:0x513c33c6b6a2658c"
"hotel";"hotel";"Cemerlang Hostel";"Gampong Bundar, Kec. Karang Baru, Kabupaten Aceh Tamiang, Aceh 24456";"Kec. Karang Baru, Kabupaten Aceh Tamiang";"ACEH";"24456";"Indonesia";" 085260103899";"4.2933633";"98.0492211";"https://maps.google.com/?cid=0x0:0x89f4fb68b8f1a1e5"
"hotel";"hotel";"Hotel Harmoni";"Jalan Jend.A. Yani FXJ4+294 Langsa Kota, Paya Bujok Seuleumak, Kec. Langsa Baro, Kota Langsa, Aceh 24375";"Paya Bujok Seuleumak, Kec. Langsa Baro, Kota Langsa";"ACEH";"24375";"Indonesia";" 085766602039";"4.4800246";"97.9559562";"https://maps.google.com/?cid=0x0:0x80313c0381230f01"
"hotel";"hotel";"OYO 3077 Hotel Morielisa";"Kebun Tanah Terban, Kec. Karang Baru, Kabupaten Aceh Tamiang, Aceh 24456";"Kec. Karang Baru, Kabupaten Aceh Tamiang";"ACEH";"24456";"Indonesia";" 02129707601";"4.3042227";"98.0461194";"https://maps.google.com/?cid=0x0:0x3084c98662a3317e"
"hotel";"hotel";"Hotel Kartika Langsa";"Jl. Jenderal Ahmad Yani No.214, Gampong Jawa, Kec. Langsa Kota, Kota Langsa, Aceh 24415";"Gampong Jawa, Kec. Langsa Kota, Kota Langsa";"ACEH";"24415";"Indonesia";" 081373981174";"4.4783568";"97.9573584";"https://maps.google.com/?cid=0x0:0xd9c5cf47b5d14bc6"
"hotel";"hotel";"Mulia Hotel";"X8WQ+CMM, Kota Blangkejeren, Kec. Blangkejeren, Kabupaten Gayo Lues, Aceh 24653";"Kota Blangkejeren, Kec. Blangkejeren, Kabupaten Gayo Lues";"ACEH";"24653";"Indonesia";" 064221165";"3.9960965";"97.3391745";"https://maps.google.com/?cid=0x0:0x166c2acb77960e71"
"hotel";"hotel";"HOTEL BESITANG";"Jl. Medan Banda Aceh No.KM. 106, RW.5, Bukit Selamat, Kec. Besitang, Kabupaten Langkat, Sumatera Utara 20859";"RW.5, Bukit Selamat, Kec. Besitang, Kabupaten Langkat";"ACEH";"20859";"Indonesia";" 085372110000";"4.0778084";"98.1167963";"https://maps.google.com/?cid=0x0:0x61aabf818cb031ac"
"hotel";"hotel";"Kupula Guest House";"Jl. Kupula, Bandar Baru, Kec. Kuta Alam, Kota Banda Aceh, Aceh 24415";"Bandar Baru, Kec. Kuta Alam, Kota Banda Aceh";"ACEH";"24415";"Indonesia";" 02129707601";"5.5710111";"95.3367351";"https://maps.google.com/?cid=0x0:0xe0da0fd862d52833"
"hotel";"hotel";"N/A";"";"";"ACEH";"";"Indonesia";"";"";"";"https://maps.google.com/?cid=0x0:0xe0da0fd862d52833%7C/g/11j0jsczgd%7Cid-ID"
"hotel";"hotel";"Aceh 24471";"Aceh";"Aceh";"ACEH";"";"Indonesia";"";"4.3465057";"97.8395151";"https://maps.google.com/?cid=0x0:0x6a96af07474c986b"
"hotel";"hotel";"Parkside Petro Gayo Hotel Takengon";"Jl. Sengeda, Nunang Antara, Kec. Bebesen, Kabupaten Aceh Tengah, Aceh 24519";"Nunang Antara, Kec. Bebesen, Kabupaten Aceh Tengah";"ACEH";"24519";"Indonesia";" 082190638839";"4.6316281";"96.8539979";"https://maps.google.com/?cid=0x0:0x2b3f5320e65030a8"
"hotel";"hotel";"N/A";"";"";"ACEH";"";"Indonesia";"";"";"";"https://maps.google.com/?cid=0x0:0x2b3f5320e65030a8%7C/g/11h2p310xs%7Cid-ID"
"hotel";"hotel";"Portola Grand Renggali Hotel";"Danau, Kabupaten Aceh Tengah, Aceh 24519";"Kabupaten Aceh Tengah";"ACEH";"24519";"Indonesia";" 08116837100";"4.6121859";"96.8641628";"https://maps.google.com/?cid=0x0:0xcd3d745aa1299e22"
"hotel";"hotel";"Mabit Hotel Takengon";"Jln, Takengon - Bireuen, Kec. Bebesen, Kabupaten Aceh Tengah, Aceh 24552";"Takengon - Bireuen, Kec. Bebesen, Kabupaten Aceh Tengah";"ACEH";"24552";"Indonesia";" 085134609519";"4.6398362";"96.8395871";"https://maps.google.com/?cid=0x0:0x4268132256ddf98b"
"hotel";"hotel";"Fairuz Hotel Management By Calandra";"Jl. Qurata Aini No.190, Nunang Antara, Kec. Bebesen, Kabupaten Aceh Tengah, Aceh 24519";"Nunang Antara, Kec. Bebesen, Kabupaten Aceh Tengah";"ACEH";"24519";"Indonesia";" 081260713420";"4.6363454";"96.8487169";"https://maps.google.com/?cid=0x0:0xa2c9c1c19f06eab6"
"hotel";"hotel";"AL FATTAH Boutique Hotel, Cafe  Meeting Room";"Jl. Pendopo Bupati, Uring, Kec. Bukit, Kabupaten Bener Meriah, Aceh 24582";"Uring, Kec. Bukit, Kabupaten Bener Meriah";"ACEH";"24582";"Indonesia";" 082361148989";"4.7178927";"96.8698829";"https://maps.google.com/?cid=0x0:0xc23e1f56b6238849"
"hotel";"hotel";"Petro Inn Takengon";"Jl. Sengeda, Nunang Antara, Kec. Bebesen, Kabupaten Aceh Tengah, Aceh 24519";"Nunang Antara, Kec. Bebesen, Kabupaten Aceh Tengah";"ACEH";"24519";"Indonesia";" 085710765975";"4.6318419";"96.8535458";"https://maps.google.com/?cid=0x0:0xda70b7aebfa35504"
"hotel";"hotel";"HOTEL BAYU HILL";"Jl. Lebe Kader No.398 B, Merah Mersa, Kec. Bebesen, Kabupaten Aceh Tengah, Aceh 24552";"Merah Mersa, Kec. Bebesen, Kabupaten Aceh Tengah";"ACEH";"24552";"Indonesia";" 02129706666";"4.6232586";"96.8467951";"https://maps.google.com/?cid=0x0:0x949badc7113edbc0"
"hotel";"hotel";"N/A";"";"";"ACEH";"";"Indonesia";"";"";"";"https://maps.google.com/?cid=0x0:0x949badc7113edbc0%7C/g/11b6df79pf%7Cid-ID"
"hotel";"hotel";"HOTEL MORIELISA";"Kebun Tanah Terban, Kec. Karang Baru, Kabupaten Aceh Tamiang, Aceh 24456";"Kec. Karang Baru, Kabupaten Aceh Tamiang";"ACEH";"24456";"Indonesia";" 082276005568";"4.3038101";"98.0460592";"https://maps.google.com/?cid=0x0:0x82d7277f3d84c4d7"
"hotel";"hotel";"Hotel Riyadh";"Jl sagi onom, Nunang Antara, Kec. Bebesen, Kabupaten Aceh Tengah, Aceh 24517";"Nunang Antara, Kec. Bebesen, Kabupaten Aceh Tengah";"ACEH";"24517";"Indonesia";" 08116800566";"4.6327876";"96.855218";"https://maps.google.com/?cid=0x0:0x203c2dfb1204fe49"
"hotel";"hotel";"Depik Inn Guesthouse";"Lot Kala, Kec. Kebayakan, Kabupaten Aceh Tengah, Aceh 24519";"Kec. Kebayakan, Kabupaten Aceh Tengah";"ACEH";"24519";"Indonesia";" 082286115308";"4.6356933";"96.8599914";"https://maps.google.com/?cid=0x0:0x4fc666142e26f607"
"hotel";"hotel";"Hotel Belangi Syariah Takengon";"Jl. Soekarno - Hatta, Kebet, Kec. Bebesen, Kabupaten Aceh Tengah, Aceh 24471";"Kebet, Kec. Bebesen, Kabupaten Aceh Tengah";"ACEH";"24471";"Indonesia";" 085260849478";"4.6300304";"96.8344354";"https://maps.google.com/?cid=0x0:0x531d4f3480e41c41"
"hotel";"hotel";"Aceh 24474";"Kec. Kejuruan Muda, Kabupaten Aceh Tamiang, Aceh";"Kabupaten Aceh Tamiang, Aceh";"ACEH";"";"Indonesia";"";"4.2123421";"98.0247005";"https://maps.google.com/?cid=0x0:0xe116e26a288dda02"
"hotel";"hotel";"HOTEL MORIELISA";"Kebun Tanah Terban, Kec. Karang Baru, Kabupaten Aceh Tamiang, Aceh 24456";"Kec. Karang Baru, Kabupaten Aceh Tamiang";"ACEH";"24456";"Indonesia";" 082276005568";"4.3038101";"98.0460592";"https://maps.google.com/?cid=0x0:0x82d7277f3d84c4d7"
"hotel";"hotel";"Hotel Jagoci Inn";"Komplek BTN Satelit Graha, Jalan Ir. H . Djuanda, Tanah Terban, Kec. Karang Baru, Kabupaten Aceh Tamiang, Aceh 24456";"Jalan Ir. H . Djuanda, Tanah Terban, Kec. Karang Baru, Kabupaten Aceh Tamiang";"ACEH";"24456";"Indonesia";" 082274221645";"4.305496";"98.04616";"https://maps.google.com/?cid=0x0:0x45024f5b389082bc"
"hotel";"hotel";"HOTEL BESITANG";"Jl. Medan Banda Aceh No.KM. 106, RW.5, Bukit Selamat, Kec. Besitang, Kabupaten Langkat, Sumatera Utara 20859";"RW.5, Bukit Selamat, Kec. Besitang, Kabupaten Langkat";"ACEH";"20859";"Indonesia";" 085372110000";"4.0778084";"98.1167963";"https://maps.google.com/?cid=0x0:0x61aabf818cb031ac"
"hotel";"hotel";"OYO 3077 Hotel Morielisa";"Kebun Tanah Terban, Kec. Karang Baru, Kabupaten Aceh Tamiang, Aceh 24456";"Kec. Karang Baru, Kabupaten Aceh Tamiang";"ACEH";"24456";"Indonesia";" 02129707601";"4.3042227";"98.0461194";"https://maps.google.com/?cid=0x0:0x3084c98662a3317e"
"hotel";"hotel";"Hotel Metro";"Jl. T. Ben Mahmud No.31, Hilir, Kec. Tapak Tuan, Kabupaten Aceh Selatan, Aceh 23711";"Hilir, Kec. Tapak Tuan, Kabupaten Aceh Selatan";"ACEH";"23711";"Indonesia";"";"3.2565036";"97.1720143";"https://maps.google.com/?cid=0x0:0x63a5e21910110d9b"
"hotel";"hotel";"HOTEL MORI";"Jl. Medan Banda Aceh, Kota Kuala Simpang, Kabupaten Aceh Tamiang, Aceh 24456";"Kota Kuala Simpang, Kabupaten Aceh Tamiang";"ACEH";"24456";"Indonesia";" 064131155";"4.2843384";"98.0581609";"https://maps.google.com/?cid=0x0:0x3d86e2a8a98a20cc"
"hotel";"hotel";"Cemerlang Hostel";"Gampong Bundar, Kec. Karang Baru, Kabupaten Aceh Tamiang, Aceh 24456";"Kec. Karang Baru, Kabupaten Aceh Tamiang";"ACEH";"24456";"Indonesia";" 085260103899";"4.2933633";"98.0492211";"https://maps.google.com/?cid=0x0:0x89f4fb68b8f1a1e5"
"hotel";"hotel";"OYO 92207 Hotel Koperasi";"Jl. Soekarno - Hatta, Lamreung, Kec. Darul Imarah, Kabupaten Aceh Besar, Aceh 23242";"Lamreung, Kec. Darul Imarah, Kabupaten Aceh Besar";"ACEH";"23242";"Indonesia";" 02129707601";"5.5142687";"95.332543";"https://maps.google.com/?cid=0x0:0x222930da4d7b9e1b"
"hotel";"hotel";"RedDoorz Syariah near Simpang Surabaya Aceh";"Jl. Dr. Mr. Mohd Hasan No.1, Batoh, Kec. Lueng Bata, Kota Banda Aceh, Aceh 23123";"Batoh, Kec. Lueng Bata, Kota Banda Aceh";"ACEH";"23123";"Indonesia";" 0895417300072";"5.539059";"95.3299479";"https://maps.google.com/?cid=0x0:0xecec00d9decec450"
"hotel";"hotel";"Hotel Kartika Langsa";"Jl. Jenderal Ahmad Yani No.214, Gampong Jawa, Kec. Langsa Kota, Kota Langsa, Aceh 24415";"Gampong Jawa, Kec. Langsa Kota, Kota Langsa";"ACEH";"24415";"Indonesia";" 081373981174";"4.4783568";"97.9573584";"https://maps.google.com/?cid=0x0:0xd9c5cf47b5d14bc6"
"hotel";"hotel";"Permata Land Hotel  Resort";"Jl. Jend. Ahmad Yani No.133, Kartini, Kec. Rantau Utara, Kab. Labuhanbatu, Sumatera Utara 21411";"Kartini, Kec. Rantau Utara, Kab. Labuhanbatu";"ACEH";"21411";"Indonesia";" 082364407500";"2.0966402";"99.8336415";"https://maps.google.com/?cid=0x0:0x6ef11848e2651023"
"hotel";"hotel";"N/A";"";"";"ACEH";"";"Indonesia";"";"";"";"https://maps.google.com/?cid=0x0:0x6ef11848e2651023%7C/g/1pzsncsbx%7Cid-ID"
"hotel";"hotel";"Penginapan Intan Motel";"Jl. Kutacane-Tigabinanga Jl. Kutacane No.01, Lawe Perbunga, Kec. Babul Makmur, Kabupaten Aceh Tenggara, Aceh 24673";"Lawe Perbunga, Kec. Babul Makmur, Kabupaten Aceh Tenggara";"ACEH";"24673";"Indonesia";" 02129707601";"3.2966292";"97.9661431";"https://maps.google.com/?cid=0x0:0xc7af846cd0488b69"
"hotel";"hotel";"Aceh 24476";"Kabupaten Aceh Tamiang, Aceh";"Kabupaten Aceh Tamiang, Aceh";"ACEH";"";"Indonesia";"";"4.3288776";"98.0628862";"https://maps.google.com/?cid=0x0:0x82d848b4ba041829"
"hotel";"hotel";"HOTEL MORIELISA";"Kebun Tanah Terban, Kec. Karang Baru, Kabupaten Aceh Tamiang, Aceh 24456";"Kec. Karang Baru, Kabupaten Aceh Tamiang";"ACEH";"24456";"Indonesia";" 082276005568";"4.3038101";"98.0460592";"https://maps.google.com/?cid=0x0:0x82d7277f3d84c4d7"
"hotel";"hotel";"Hotel Jagoci Inn";"Komplek BTN Satelit Graha, Jalan Ir. H . Djuanda, Tanah Terban, Kec. Karang Baru, Kabupaten Aceh Tamiang, Aceh 24456";"Jalan Ir. H . Djuanda, Tanah Terban, Kec. Karang Baru, Kabupaten Aceh Tamiang";"ACEH";"24456";"Indonesia";" 082274221645";"4.305496";"98.04616";"https://maps.google.com/?cid=0x0:0x45024f5b389082bc"
"hotel";"hotel";"Grand Arya HOTEL";"depan kantor bupati, Dalam, Kec. Karang Baru, Kabupaten Aceh Tamiang, Aceh 24456";"Dalam, Kec. Karang Baru, Kabupaten Aceh Tamiang";"ACEH";"24456";"Indonesia";" 085370342929";"4.2990488";"98.0485579";"https://maps.google.com/?cid=0x0:0x87235e6a0b51271f"
"hotel";"hotel";"N/A";"";"";"ACEH";"";"Indonesia";"";"";"";"https://maps.google.com/?cid=0x0:0x70e72305d8d7d91%7C/m/0c3tz97%7Cid-ID"
"hotel";"hotel";"Seventeen Hotel";"Jl. Teuku Umar No.350, Seutui, Kec. Baiturrahman, Kota Banda Aceh, Aceh 23243";"Seutui, Kec. Baiturrahman, Kota Banda Aceh";"ACEH";"23243";"Indonesia";" 034971425588";"5.54001";"95.309364";"https://maps.google.com/?cid=0x0:0x8bf5e6dedb221119"
"hotel";"hotel";"OYO 3077 Hotel Morielisa";"Kebun Tanah Terban, Kec. Karang Baru, Kabupaten Aceh Tamiang, Aceh 24456";"Kec. Karang Baru, Kabupaten Aceh Tamiang";"ACEH";"24456";"Indonesia";" 02129707601";"4.3042227";"98.0461194";"https://maps.google.com/?cid=0x0:0x3084c98662a3317e"
"hotel";"hotel";"HOTEL MORI";"Jl. Medan Banda Aceh, Kota Kuala Simpang, Kabupaten Aceh Tamiang, Aceh 24456";"Kota Kuala Simpang, Kabupaten Aceh Tamiang";"ACEH";"24456";"Indonesia";" 064131155";"4.2843384";"98.0581609";"https://maps.google.com/?cid=0x0:0x3d86e2a8a98a20cc"
"hotel";"hotel";"SEI Hotel Banda Aceh";"Jl. Tanoh Abee No.71, Mulia, Kec. Kuta Alam, Kota Banda Aceh, Aceh 23123";"Mulia, Kec. Kuta Alam, Kota Banda Aceh";"ACEH";"23123";"Indonesia";" 082185106952";"5.5628844";"95.322844";"https://maps.google.com/?cid=0x0:0xd10e8fa03b750c2e"
"hotel";"hotel";"Cemerlang Hostel";"Gampong Bundar, Kec. Karang Baru, Kabupaten Aceh Tamiang, Aceh 24456";"Kec. Karang Baru, Kabupaten Aceh Tamiang";"ACEH";"24456";"Indonesia";" 085260103899";"4.2933633";"98.0492211";"https://maps.google.com/?cid=0x0:0x89f4fb68b8f1a1e5"
"hotel";"hotel";"HOTEL MORIELISA";"Kebun Tanah Terban, Kec. Karang Baru, Kabupaten Aceh Tamiang, Aceh 24456";"Kec. Karang Baru, Kabupaten Aceh Tamiang";"ACEH";"24456";"Indonesia";" 082276005568";"4.3038101";"98.0460592";"https://maps.google.com/?cid=0x0:0x82d7277f3d84c4d7"
"hotel";"hotel";"Aceh 24473";"Aceh";"Aceh";"ACEH";"";"Indonesia";"";"4.2670304";"98.1393179";"https://maps.google.com/?cid=0x0:0x7edc8ec14cab902a"
"hotel";"hotel";"Ayani Hotel Banda Aceh";"Jl. Jend. Ahmad Yani No.20, Peunayong, Kec. Kuta Alam, Kota Banda Aceh, Aceh 23122";"Peunayong, Kec. Kuta Alam, Kota Banda Aceh";"ACEH";"23122";"Indonesia";" 06518012111";"5.5570339";"95.3193251";"https://maps.google.com/?cid=0x0:0xc7d116533d0b5450"
"hotel";"hotel";"N/A";"";"";"ACEH";"";"Indonesia";"";"";"";"https://maps.google.com/?cid=0x0:0x4927c09f2ecd1f3c%7C/g/1hc16zhd7%7Cid-ID"
"hotel";"hotel";"Hotel 61";"Jl. T. Panglima Polem No.32-34, Laksana, Kec. Kuta Alam, Kota Banda Aceh, Aceh 23122";"Laksana, Kec. Kuta Alam, Kota Banda Aceh";"ACEH";"23122";"Indonesia";" 0651638866";"5.5593663";"95.3213398";"https://maps.google.com/?cid=0x0:0x4927c09f2ecd1f3c"
"hotel";"hotel";"Hotel Medan";"Jl. Jend. Ahmad Yani No.17, Peunayong, Kec. Kuta Alam, Kota Banda Aceh, Aceh";"Kota Banda Aceh, Aceh";"ACEH";"";"Indonesia";" 065121501";"5.5574522";"95.3187103";"https://maps.google.com/?cid=0x0:0x42083d304b99e444"
"hotel";"hotel";"N/A";"";"";"ACEH";"";"Indonesia";"";"";"";"https://maps.google.com/?cid=0x0:0x42083d304b99e444%7C/g/1ptxwt8_b%7Cid-ID"
"hotel";"hotel";"Seventeen Hotel";"Jl. Teuku Umar No.350, Seutui, Kec. Baiturrahman, Kota Banda Aceh, Aceh 23243";"Seutui, Kec. Baiturrahman, Kota Banda Aceh";"ACEH";"23243";"Indonesia";" 034971425588";"5.54001";"95.309364";"https://maps.google.com/?cid=0x0:0x8bf5e6dedb221119"
"hotel";"hotel";"PLUM Hotel Lading Banda Aceh";"Jl. Cut Mutia No.19, Kp. Baru, Kec. Baiturrahman, Kota Banda Aceh, Aceh 23242";"Kp. Baru, Kec. Baiturrahman, Kota Banda Aceh";"ACEH";"23242";"Indonesia";" 08116888089";"5.5558086";"95.3174426";"https://maps.google.com/?cid=0x0:0x9ff50911ab5454e1"
"hotel";"hotel";"Grand Arya HOTEL";"depan kantor bupati, Dalam, Kec. Karang Baru, Kabupaten Aceh Tamiang, Aceh 24456";"Dalam, Kec. Karang Baru, Kabupaten Aceh Tamiang";"ACEH";"24456";"Indonesia";" 085370342929";"4.2990488";"98.0485579";"https://maps.google.com/?cid=0x0:0x87235e6a0b51271f"
"hotel";"hotel";"Hotel Madinah";"Jl. T. Daud Beureueh, Kuta Alam, Bandar Baru, Kec. Kuta Alam, Kota Banda Aceh, Aceh";"Kota Banda Aceh, Aceh";"ACEH";"";"Indonesia";" 065121415";"5.5660745";"95.3373368";"https://maps.google.com/?cid=0x0:0x93db35951bec102a"
"hotel";"hotel";"Hotel Jagoci Inn";"Komplek BTN Satelit Graha, Jalan Ir. H . Djuanda, Tanah Terban, Kec. Karang Baru, Kabupaten Aceh Tamiang, Aceh 24456";"Jalan Ir. H . Djuanda, Tanah Terban, Kec. Karang Baru, Kabupaten Aceh Tamiang";"ACEH";"24456";"Indonesia";" 082274221645";"4.305496";"98.04616";"https://maps.google.com/?cid=0x0:0x45024f5b389082bc"
"hotel";"hotel";"Hotel Wisata Banda Aceh";"Jl. Jend. Ahmad Yani No.19-21, Peunayong, Kec. Kuta Alam, Kota Banda Aceh, Aceh";"Kota Banda Aceh, Aceh";"ACEH";"";"Indonesia";" 065121834";"5.5580418";"95.3189492";"https://maps.google.com/?cid=0x0:0xc6aedda62724c6a7"
"hotel";"hotel";"Collection O Peunayong Near Masjid Raya Baiturrahman Formerly Siwah Hotel";"Jl. Twk Moh Jl. H.T. Daudsyah No.18 - 20 18-20, Peunayong, Kec. Kuta Alam, Kota Banda Aceh, Aceh 23128";"Peunayong, Kec. Kuta Alam, Kota Banda Aceh";"ACEH";"23128";"Indonesia";" 02129707601";"5.5584961";"95.3205324";"https://maps.google.com/?cid=0x0:0xdedf0eb156b5ab9f"
"hotel";"hotel";"HOTEL MORIELISA";"Kebun Tanah Terban, Kec. Karang Baru, Kabupaten Aceh Tamiang, Aceh 24456";"Kec. Karang Baru, Kabupaten Aceh Tamiang";"ACEH";"24456";"Indonesia";" 082276005568";"4.3038101";"98.0460592";"https://maps.google.com/?cid=0x0:0x82d7277f3d84c4d7"
"hotel";"hotel";"Grand Arya HOTEL";"depan kantor bupati, Dalam, Kec. Karang Baru, Kabupaten Aceh Tamiang, Aceh 24456";"Dalam, Kec. Karang Baru, Kabupaten Aceh Tamiang";"ACEH";"24456";"Indonesia";" 085370342929";"4.2990488";"98.0485579";"https://maps.google.com/?cid=0x0:0x87235e6a0b51271f"
"hotel";"hotel";"Kec. Tamiang Hulu";"Kabupaten Aceh Tamiang, Aceh";"Kabupaten Aceh Tamiang, Aceh";"ACEH";"";"Indonesia";"";"4.1633008";"97.9539786";"https://maps.google.com/?cid=0x0:0x4376a9df79cb4397"
"hotel";"hotel";"OYO 3077 Hotel Morielisa";"Kebun Tanah Terban, Kec. Karang Baru, Kabupaten Aceh Tamiang, Aceh 24456";"Kec. Karang Baru, Kabupaten Aceh Tamiang";"ACEH";"24456";"Indonesia";" 02129707601";"4.3042227";"98.0461194";"https://maps.google.com/?cid=0x0:0x3084c98662a3317e"
"hotel";"hotel";"HOTEL MORI";"Jl. Medan Banda Aceh, Kota Kuala Simpang, Kabupaten Aceh Tamiang, Aceh 24456";"Kota Kuala Simpang, Kabupaten Aceh Tamiang";"ACEH";"24456";"Indonesia";" 064131155";"4.2843384";"98.0581609";"https://maps.google.com/?cid=0x0:0x3d86e2a8a98a20cc"
"hotel";"hotel";"Cemerlang Hostel";"Gampong Bundar, Kec. Karang Baru, Kabupaten Aceh Tamiang, Aceh 24456";"Kec. Karang Baru, Kabupaten Aceh Tamiang";"ACEH";"24456";"Indonesia";" 085260103899";"4.2933633";"98.0492211";"https://maps.google.com/?cid=0x0:0x89f4fb68b8f1a1e5"
"hotel";"Hotel";"Hotel fittry inn";"5X25+VJH, Alur Tani II, Kec. Tamiang Hulu, Kabupaten Aceh Tamiang, Aceh 24477";"Alur Tani II, Kec. Tamiang Hulu, Kabupaten Aceh Tamiang";"ACEH";"24477";"Indonesia";"";"4.152074";"97.9590397";"https://maps.google.com/?cid=0x0:0x4511f78671169a5e"
"hotel";"hotel";"Aceh 24477";"Kabupaten Aceh Tamiang, Aceh";"Kabupaten Aceh Tamiang, Aceh";"ACEH";"";"Indonesia";"";"3.9904163";"97.9157099";"https://maps.google.com/?cid=0x0:0x559940852b05002f"
"hotel";"hotel";"Hotel Jeddah";"JVG2+3F6, Jl. Sengeda, Takengon Tim., Kec. Lut Tawar, Kabupaten Aceh Tengah, Aceh 24519";"Jl. Sengeda, Takengon Tim., Kec. Lut Tawar, Kabupaten Aceh Tengah";"ACEH";"24519";"Indonesia";"";"4.6251691";"96.8511463";"https://maps.google.com/?cid=0x0:0xe57100aa15722138"
"hotel";"Kantor Pemerintah Distrik";"Bandar Udara Malikus Saleh";"6WHX+GJ9, Jl. Airport Malikussaleh, Pinto Makmur, Kec. Muara Batu, Kabupaten Aceh Utara, Aceh 24351";"Jl. Airport Malikussaleh, Pinto Makmur, Kec. Muara Batu, Kabupaten Aceh Utara";"ACEH";"24351";"Indonesia";"";"5.2287873";"96.9491057";"https://maps.google.com/?cid=0x0:0x184e1f55c4060615"
"hotel";"hotel";"Portola Grand Renggali Hotel";"Danau, Kabupaten Aceh Tengah, Aceh 24519";"Kabupaten Aceh Tengah";"ACEH";"24519";"Indonesia";" 08116837100";"4.6121859";"96.8641628";"https://maps.google.com/?cid=0x0:0xcd3d745aa1299e22"
"hotel";"Losmen";"Medan";"5WMP+G6J, Perk Pulau Tiga, Kec. Tamiang Hulu, Kabupaten Aceh Tamiang, Aceh";"Kabupaten Aceh Tamiang, Aceh";"ACEH";"";"Indonesia";"";"4.1838485";"97.9355045";"https://maps.google.com/?cid=0x0:0xc11ebd08166a6853"
"hotel";"hotel";"Hotel doni pesek";"4XP6+FG9, Alur Tani I, Kec. Tamiang Hulu, Kabupaten Aceh Tamiang, Aceh 24477";"Alur Tani I, Kec. Tamiang Hulu, Kabupaten Aceh Tamiang";"ACEH";"24477";"Indonesia";"";"4.1361574";"97.9613576";"https://maps.google.com/?cid=0x0:0xa6d9be4279c13d67"
"cafe";"Kafe";"CekGet Kupi";"C4MV+GQ4, Telaga Meuku I, Kec. Banda Mulia, Kabupaten Aceh Tamiang, Aceh 24472";"Telaga Meuku I, Kec. Banda Mulia, Kabupaten Aceh Tamiang";"ACEH";"24472";"Indonesia";"";"4.4337712";"98.1444643";"https://maps.google.com/?cid=0x0:0xfb7500078de50524"
"cafe";"Kafe";"Kupi Besar";"C4GH+R94, Gampong Besar, Kec. Banda Mulia, Kabupaten Aceh Tamiang, Aceh 24471";"Gampong Besar, Kec. Banda Mulia, Kabupaten Aceh Tamiang";"ACEH";"24471";"Indonesia";"";"4.4270206";"98.1284485";"https://maps.google.com/?cid=0x0:0x867f2412c9b0d8a0"
"cafe";"cafe";"Kec. Banda Mulia";"Kabupaten Aceh Tamiang, Aceh";"Kabupaten Aceh Tamiang, Aceh";"ACEH";"";"Indonesia";"";"4.4405846";"98.1360921";"https://maps.google.com/?cid=0x0:0xe04c2bd9d3d421e8"
"cafe";"Kafe";"OLA CAFE";"Sukajadi, Kec. Banda Mulia, Kabupaten Aceh Tamiang, Aceh 24471";"Kec. Banda Mulia, Kabupaten Aceh Tamiang";"ACEH";"24471";"Indonesia";" 082284809393";"4.404132";"98.1094205";"https://maps.google.com/?cid=0x0:0xb44a5e3a28665f5e"
"cafe";"Kafe";"Bang Karno Kupi";"F44P+V4J, Unnamed Road, Alur Nunang, Kec. Banda Mulia, Kabupaten Aceh Tamiang, Aceh 24471";"Unnamed Road, Alur Nunang, Kec. Banda Mulia, Kabupaten Aceh Tamiang";"ACEH";"24471";"Indonesia";"";"4.4572041";"98.135269";"https://maps.google.com/?cid=0x0:0xb2924ad5d9cc1c7"
"cafe";"Kedai Kopi";"Badroen CHITACI";"C4VM+476, sp.tiga telaga meuku dua, Telaga Meuku II, Kec. Banda Mulia, Kabupaten Aceh Tamiang, Aceh 24472";"sp.tiga telaga meuku dua, Telaga Meuku II, Kec. Banda Mulia, Kabupaten Aceh Tamiang";"ACEH";"24472";"Indonesia";" 085277146133";"4.4427752";"98.1331554";"https://maps.google.com/?cid=0x0:0xa7bae964b6ad7ccf"
"cafe";"Kafe";"Den Kupi";"C4VR+37H, Unnamed Road, Matang Seuping, Kec. Banda Mulia, Kabupaten Aceh Tamiang, Aceh 24471";"Unnamed Road, Matang Seuping, Kec. Banda Mulia, Kabupaten Aceh Tamiang";"ACEH";"24471";"Indonesia";"";"4.4426978";"98.1407281";"https://maps.google.com/?cid=0x0:0x7fd530e9de861d16"
"cafe";"Kafe";"Cam Kupi";"C4XW+G6H, Tj. Keramat, Kec. Banda Mulia, Kabupaten Aceh Tamiang, Aceh 24471";"Tj. Keramat, Kec. Banda Mulia, Kabupaten Aceh Tamiang";"ACEH";"24471";"Indonesia";"";"4.4488035";"98.1456063";"https://maps.google.com/?cid=0x0:0xe67e62d42e8ed9a1"
"cafe";"Kafe";"PAYA RAJA CAFFE";"94V5+8MF, Unnamed Road, Paya Raja, Kec. Banda Mulia, Kabupaten Aceh Tamiang, Aceh 24452";"Unnamed Road, Paya Raja, Kec. Banda Mulia, Kabupaten Aceh Tamiang";"ACEH";"24452";"Indonesia";"";"4.3933218";"98.1091695";"https://maps.google.com/?cid=0x0:0x8a69bba219b619b5"
"cafe";"Kafe";"Madi kupi";"C4MV+QHQ, Telaga Meuku I, Kec. Banda Mulia, Kabupaten Aceh Tamiang, Aceh 24472";"Telaga Meuku I, Kec. Banda Mulia, Kabupaten Aceh Tamiang";"ACEH";"24472";"Indonesia";"";"4.4344572";"98.1439956";"https://maps.google.com/?cid=0x0:0x4c0da8af99869569"
"cafe";"Kedai Kopi";"Warung miso pak sabar";"C4RP+6CP, Matang Seuping, Kec. Banda Mulia, Kabupaten Aceh Tamiang, Aceh";"Kabupaten Aceh Tamiang, Aceh";"ACEH";"";"Indonesia";" 081282711762";"4.4405846";"98.1360921";"https://maps.google.com/?cid=0x0:0xa322584d775efbee"
"cafe";"Kafe";"Warkop umprok";"upah, Suka Mulia Bendahara, Kec. Banda Mulia, Kabupaten Aceh Tamiang, Aceh 24471";"Suka Mulia Bendahara, Kec. Banda Mulia, Kabupaten Aceh Tamiang";"ACEH";"24471";"Indonesia";"";"4.3926618";"98.1101918";"https://maps.google.com/?cid=0x0:0x99777a09d0f0de70"
"cafe";"Kafe";"Poy kupi";"C4XW+G5M, Unnamed Road, Matang Seuping, Kec. Banda Mulia, Kabupaten Aceh Tamiang, Aceh 24471";"Unnamed Road, Matang Seuping, Kec. Banda Mulia, Kabupaten Aceh Tamiang";"ACEH";"24471";"Indonesia";"";"4.4488424";"98.1454175";"https://maps.google.com/?cid=0x0:0xbfb7fada054cb7af"
"cafe";"Kedai Kopi";"WARUNG WALET";"C4QF+7Q, Telaga Meuku II, Kec. Banda Mulia, Kabupaten Aceh Tamiang, Aceh";"Kabupaten Aceh Tamiang, Aceh";"ACEH";"";"Indonesia";"";"4.4381331";"98.1244348";"https://maps.google.com/?cid=0x0:0x11763569ba422b3c"
"cafe";"Restoran";"Cafe mukhale";"7RVM+R64, Unnamed Road, Pengidam, Kec. Bandar Pusaka, Kabupaten Aceh Tamiang, Aceh 24456";"Unnamed Road, Pengidam, Kec. Bandar Pusaka, Kabupaten Aceh Tamiang";"ACEH";"24456";"Indonesia";" 082369765678";"4.2945047";"97.8330639";"https://maps.google.com/?cid=0x0:0x8ff6bc4d4350f68d"
"cafe";"Kedai Kopi";"WARUNG COLI";"6WPX+P82, Unnamed Road, Blang Kandis, Kec. Bandar Pusaka, Kabupaten Aceh Tamiang, Aceh 24382";"Unnamed Road, Blang Kandis, Kec. Bandar Pusaka, Kabupaten Aceh Tamiang";"ACEH";"24382";"Indonesia";"";"4.2367741";"97.9482713";"https://maps.google.com/?cid=0x0:0x1f7c99b7de3cfd44"
"cafe";"cafe";"Kec. Bandar Pusaka";"Kabupaten Aceh Tamiang, Aceh";"Kabupaten Aceh Tamiang, Aceh";"ACEH";"";"Indonesia";"";"4.2948637";"97.8778752";"https://maps.google.com/?cid=0x0:0x2b7834261cf3e187"
"cafe";"Kafe";"BOB WARKOP";"7VV8+5XF, Pantai Cempa, Kec. Bandar Pusaka, Kabupaten Aceh Tamiang, Aceh 24456";"Pantai Cempa, Kec. Bandar Pusaka, Kabupaten Aceh Tamiang";"ACEH";"24456";"Indonesia";" 082246839757";"4.2929366";"97.8674098";"https://maps.google.com/?cid=0x0:0xffbaccf7413103df"
"cafe";"Kafe";"Tamgo cafe";"7R6M+2J8, Pantai Cempa, Kec. Bandar Pusaka, Kabupaten Aceh Tamiang, Aceh";"Kabupaten Aceh Tamiang, Aceh";"ACEH";"";"Indonesia";"";"4.2600372";"97.8340757";"https://maps.google.com/?cid=0x0:0xb6d3229b8028a92c"
"cafe";"Kedai Kopi";"Anfield Coffee Babo";"7VJ8+2M8, Babo, Kec. Bandar Pusaka, Kabupaten Aceh Tamiang, Aceh 24456";"Babo, Kec. Bandar Pusaka, Kabupaten Aceh Tamiang";"ACEH";"24456";"Indonesia";" 082360003773";"4.2800483";"97.8667182";"https://maps.google.com/?cid=0x0:0xccb4a88c8a72da20"
"cafe";"Kedai Kopi";"fatan caffe";"8R48+JP3, dese, Bengkelang, Kec. Bandar Pusaka, Kabupaten Aceh Tamiang, Aceh";"Kabupaten Aceh Tamiang, Aceh";"ACEH";"";"Indonesia";"";"4.3065191";"97.8167852";"https://maps.google.com/?cid=0x0:0xc29f0f95ee3d4d78"
"cafe";"Indonesia";"Nazira Coffe ( Serbejadi )";"8R58+2FM, Dusun Selamet, Ds, Bengkelang, Kec. Bandar Pusaka, Kabupaten Aceh Tamiang, Aceh 24456";"Dusun Selamet, Ds, Bengkelang, Kec. Bandar Pusaka, Kabupaten Aceh Tamiang";"ACEH";"24456";"Indonesia";"";"4.3075963";"97.8161579";"https://maps.google.com/?cid=0x0:0x9ab588050fcc90e6"
"cafe";"Kafe";"Uza cafe basecamp";"5X73+833, Perk Pulau Tiga, Kec. Tamiang Hulu, Kabupaten Aceh Tamiang, Aceh 24478";"Perk Pulau Tiga, Kec. Tamiang Hulu, Kabupaten Aceh Tamiang";"ACEH";"24478";"Indonesia";" 082165690011";"4.163275";"97.952683";"https://maps.google.com/?cid=0x0:0x5bbbb84fa53513b0"
"cafe";"cafe";"WARUNG JAJANAN KEKINIAN";"7VV9+8WQ, Babo, Kec. Bandar Pusaka, Kabupaten Aceh Tamiang, Aceh 24456";"Babo, Kec. Bandar Pusaka, Kabupaten Aceh Tamiang";"ACEH";"24456";"Indonesia";"";"4.2935687";"97.8702797";"https://maps.google.com/?cid=0x0:0x80d5b1704313a9c2"
"cafe";"Bakso";"Waroeng Kembar Sarnik";"6WQW+V72, Blang Kandis, Kec. Bandar Pusaka, Kabupaten Aceh Tamiang, Aceh 24382";"Blang Kandis, Kec. Bandar Pusaka, Kabupaten Aceh Tamiang";"ACEH";"24382";"Indonesia";" 0813706966699";"4.2396363";"97.9456533";"https://maps.google.com/?cid=0x0:0x9e2e94a483ae77f0"
"cafe";"Kedai Kopi";"Snart Cooffe";"6WQ7+HGP, Wono Sari, Kec. Tamiang Hulu, Kabupaten Aceh Tamiang, Aceh 24382";"Wono Sari, Kec. Tamiang Hulu, Kabupaten Aceh Tamiang";"ACEH";"24382";"Indonesia";"";"4.2389387";"97.913765";"https://maps.google.com/?cid=0x0:0xed0614dcbf87839e"
"cafe";"Kedai Kopi";"Warkop Pelabuhan Getek";"7WR6+QQ5, Sekumur, Kec. Sekerak, Kabupaten Aceh Tamiang, Aceh 24456";"Sekumur, Kec. Sekerak, Kabupaten Aceh Tamiang";"ACEH";"24456";"Indonesia";"";"4.2918787";"97.9119929";"https://maps.google.com/?cid=0x0:0x63ab2ca87fec8e12"
"cafe";"Kedai Kopi";"Warung ujung kak lia";"6XQ7+8VX, Blang Kandis, Kec. Bandar Pusaka, Kabupaten Aceh Tamiang, Aceh";"Kabupaten Aceh Tamiang, Aceh";"ACEH";"";"Indonesia";" 082315033966";"4.2383627";"97.9647353";"https://maps.google.com/?cid=0x0:0xaf10819bd4e14584"
"cafe";"cafe";"Aceh 24472";"Aceh";"Aceh";"ACEH";"";"Indonesia";"";"2.3382695";"98.068343";"https://maps.google.com/?cid=0x0:0x363115f1ffca2baf"
"cafe";"Kedai Kopi";"WD Coffee";"Jl. Medan Banda Aceh, Tanah Terban, Kec. Karang Baru, Kabupaten Aceh Tamiang, Aceh";"Kabupaten Aceh Tamiang, Aceh";"ACEH";"";"Indonesia";" 081361411711";"4.3167287";"98.0594773";"https://maps.google.com/?cid=0x0:0xc7a51e44c3fa78d5"
"cafe";"Kedai Kopi";"Coffee Bay";"Jl. Sultan Iskandar Muda, Gampong Pie, Kec. Meuraxa, Kota Banda Aceh, Aceh 23234";"Gampong Pie, Kec. Meuraxa, Kota Banda Aceh";"ACEH";"23234";"Indonesia";" 08116808116";"5.5549233";"95.2872244";"https://maps.google.com/?cid=0x0:0x331dc8d492b456b6"
"cafe";"Mesin Sangrai Kopi";"SeratusTiga Coffee Shop";"Jl. Prada Utama No.103, Peurada, Kec. Syiah Kuala, Kota Banda Aceh, Aceh 23115";"Peurada, Kec. Syiah Kuala, Kota Banda Aceh";"ACEH";"23115";"Indonesia";" 08116800525";"5.5715105";"95.3514739";"https://maps.google.com/?cid=0x0:0x5a3af873564111f2"
"cafe";"Kedai Kopi";"CIRCLE CAFE";"Jl. Gabus, Bandar Baru, Lampriet, Kota Banda Aceh, Aceh 23123";"Bandar Baru, Lampriet, Kota Banda Aceh";"ACEH";"23123";"Indonesia";" 085218000493";"5.5653058";"95.3355904";"https://maps.google.com/?cid=0x0:0xfb8a3c7e6c74e18c"
"cafe";"Kedai Kopi";"Bie Coffee";"Jl. Sejahtera No.12, Laksana, Kec. Kuta Alam, Kota Banda Aceh, Aceh 24415";"Laksana, Kec. Kuta Alam, Kota Banda Aceh";"ACEH";"24415";"Indonesia";"";"5.5599485";"95.3218795";"https://maps.google.com/?cid=0x0:0x5652fbd96569bc7a"
"cafe";"Kafe";"BENU COFFEE ROASTER BANDA BATOH";"Jl. AMD No.1, RW.2, Peunyeurat, Kec. Banda Raya, Kota Banda Aceh, Aceh 23245";"RW.2, Peunyeurat, Kec. Banda Raya, Kota Banda Aceh";"ACEH";"23245";"Indonesia";"";"5.5325572";"95.3273797";"https://maps.google.com/?cid=0x0:0x15187b4bd8804f1b"
"cafe";"Kedai Kopi";"Coffe And Resto Kuala Ulee Lheue";"H74M+HFP, Ulee Lheue, Kec. Meuraxa, Kota Banda Aceh, Aceh";"Kota Banda Aceh, Aceh";"ACEH";"";"Indonesia";" 085260101614";"5.5564603";"95.283706";"https://maps.google.com/?cid=0x0:0x3a1f453fcfb1ab19"
"cafe";"Kedai Kopi";"Sepetak coffe shop";"Jl. Gabus, Lampriet, Kec. Kuta Alam, Kota Banda Aceh, Aceh 23126";"Lampriet, Kec. Kuta Alam, Kota Banda Aceh";"ACEH";"23126";"Indonesia";" 081375606976";"5.5666168";"95.3369173";"https://maps.google.com/?cid=0x0:0xf553ae0e2341444d"
"cafe";"Kedai Kopi";"Kuta Alam Roastery";"H859+8M7, Peunayong, Kec. Kuta Alam, Kota Banda Aceh, Aceh";"Kota Banda Aceh, Aceh";"ACEH";"";"Indonesia";" 082183730735";"5.5585149";"95.3192563";"https://maps.google.com/?cid=0x0:0x19d5eeb2b401b704"
"cafe";"Kafe";"AREA COFFEE SPACE";"H85H+7RR, Jl. Tgk. Moh. Daud Beureueh, Kuta Alam, Kec. Kuta Alam, Kota Banda Aceh, Aceh";"Kota Banda Aceh, Aceh";"ACEH";"";"Indonesia";"";"5.5582492";"95.329513";"https://maps.google.com/?cid=0x0:0x2fd515e0ed3dd553"
"cafe";"Kedai Kopi";"3 In 1 Coffee Shop";"Jl. T. Panglima Nyak Makam, Lambhuk, Kec. Ulee Kareng, Kota Banda Aceh, Aceh 24415";"Lambhuk, Kec. Ulee Kareng, Kota Banda Aceh";"ACEH";"24415";"Indonesia";"";"5.5563869";"95.3441328";"https://maps.google.com/?cid=0x0:0x1f2c9012e28c4ec5"
"cafe";"Kedai Kopi";"Rumoeh Mirah Coffee";"H82C+C88, Peuniti, Kec. Baiturrahman, Kota Banda Aceh, Aceh 23127";"Peuniti, Kec. Baiturrahman, Kota Banda Aceh";"ACEH";"23127";"Indonesia";"";"5.551094";"95.3209213";"https://maps.google.com/?cid=0x0:0x1109474c7e8f2dc0"
"cafe";"Kafe";"E.N CAFE";"lamprit, Jl. Gabus No.22, Bandar Baru, Kota Banda Aceh, Aceh 23126";"Jl. Gabus No.22, Bandar Baru, Kota Banda Aceh";"ACEH";"23126";"Indonesia";"";"5.5656814";"95.3360097";"https://maps.google.com/?cid=0x0:0x6cb67f818bb86ebb"
"cafe";"Kedai Kopi";"suddut kota coffee and space";"83C6+8PP, Jl. Lintas Sumatra, Gampong Johar, Kec. Karang Baru, Kabupaten Aceh Tamiang, Aceh 24476";"Jl. Lintas Sumatra, Gampong Johar, Kec. Karang Baru, Kabupaten Aceh Tamiang";"ACEH";"24476";"Indonesia";"";"4.32084";"98.0618322";"https://maps.google.com/?cid=0x0:0xf9dfd9a723b5ffef"
"cafe";"cafe";"Aceh 24476";"Kabupaten Aceh Tamiang, Aceh";"Kabupaten Aceh Tamiang, Aceh";"ACEH";"";"Indonesia";"";"4.3288776";"98.0628862";"https://maps.google.com/?cid=0x0:0x82d848b4ba041829"
"cafe";"Kedai Kopi";"WD Coffee";"Jl. Medan Banda Aceh, Tanah Terban, Kec. Karang Baru, Kabupaten Aceh Tamiang, Aceh";"Kabupaten Aceh Tamiang, Aceh";"ACEH";"";"Indonesia";" 081361411711";"4.3167287";"98.0594773";"https://maps.google.com/?cid=0x0:0xc7a51e44c3fa78d5"
"cafe";"Kedai Kopi";"RUMOH KUPIE ATJEH";"Tj. Karang, Kec. Karang Baru, Kabupaten Aceh Tamiang, Aceh 24456";"Kec. Karang Baru, Kabupaten Aceh Tamiang";"ACEH";"24456";"Indonesia";"";"4.2906442";"98.0503439";"https://maps.google.com/?cid=0x0:0x696bd0c37e7b9a9a"
"cafe";"Kafe";"SINGGAH KUPI";"Jl. Medan Banda Aceh, Alur Bemban, Kec. Karang Baru, Kabupaten Aceh Tamiang, Aceh 24476";"Alur Bemban, Kec. Karang Baru, Kabupaten Aceh Tamiang";"ACEH";"24476";"Indonesia";" 085270258455";"4.3531904";"98.0802407";"https://maps.google.com/?cid=0x0:0x7e0382947b7c4d0e"
"cafe";"Kedai Kopi";"Coffee Care";"Dusun setia Desa Tanah Terban, Kecamatan Karang Baru, Kualasimpang, Kabupaten Aceh Tamiang, Aceh 24475";"Kecamatan Karang Baru, Kualasimpang, Kabupaten Aceh Tamiang";"ACEH";"24475";"Indonesia";" 082253685559";"4.307612";"98.052632";"https://maps.google.com/?cid=0x0:0xad7dd2cc20e7ee10"
"cafe";"Kedai Kopi";"Ambang Batas";"Jl. Ir. H. Juanda Dalam No.10, Kota Kuala Simpang, Kec. Karang Baru, Kabupaten Aceh Tamiang, Aceh 24476";"Kota Kuala Simpang, Kec. Karang Baru, Kabupaten Aceh Tamiang";"ACEH";"24476";"Indonesia";"";"4.2918426";"98.0492892";"https://maps.google.com/?cid=0x0:0x5d201e3528f092b"
"cafe";"Kafe";"Mahligai Cafe";"8363+4Q9, Jl. Medan Banda Aceh, Tanah Terban, Kec. Karang Baru, Kabupaten Aceh Tamiang, Aceh 24456";"Jl. Medan Banda Aceh, Tanah Terban, Kec. Karang Baru, Kabupaten Aceh Tamiang";"ACEH";"24456";"Indonesia";" 08126455837";"4.3102848";"98.0544737";"https://maps.google.com/?cid=0x0:0xa697c4e10c7ae43a"
"cafe";"Kafe";"Central Kupie";"Jl. Ir. H. Juanda Dalam, Gampong Bundar, Kec. Karang Baru, Kabupaten Aceh Tamiang, Aceh 24476";"Gampong Bundar, Kec. Karang Baru, Kabupaten Aceh Tamiang";"ACEH";"24476";"Indonesia";" 082237051216";"4.3002928";"98.047178";"https://maps.google.com/?cid=0x0:0x13f9f8897c040ab8"
"cafe";"Bar";"9SHOT coffee  billiard";"8364+W73, Tanah Terban, Kec. Karang Baru, Kabupaten Aceh Tamiang, Aceh 24456";"Tanah Terban, Kec. Karang Baru, Kabupaten Aceh Tamiang";"ACEH";"24456";"Indonesia";"";"4.312023";"98.055606";"https://maps.google.com/?cid=0x0:0xb6c97b6bfde88766"
"cafe";"Taman";"Kebun Anggur Kualasimpang Plus cafe";"8385+74J, Tanah Terban, Kec. Karang Baru, Kabupaten Aceh Tamiang, Aceh";"Kabupaten Aceh Tamiang, Aceh";"ACEH";"";"Indonesia";" 082297902458";"4.3157068";"98.0577653";"https://maps.google.com/?cid=0x0:0x87be551529576aa0"
"cafe";"Kedai Kopi";"Hause Coffee";"Jl. Melati kp. Bundar, Kota Kuala Simpang, Kec. Karang Baru, Kabupaten Aceh Tamiang, Aceh 24476";"Kota Kuala Simpang, Kec. Karang Baru, Kabupaten Aceh Tamiang";"ACEH";"24476";"Indonesia";" 085262623516";"4.2923492";"98.0486359";"https://maps.google.com/?cid=0x0:0xf6b93436c3cb9ba8"
"cafe";"Kedai Kopi";"Bersua Coffee Id";"Di samping mesjid AL-HUDA, Tanjung karang, dusun istana, kec. Karang baru, Kota Kuala Simpang, Kabupaten Aceh Tamiang, Aceh 24476";"Tanjung karang, dusun istana, kec. Karang baru, Kota Kuala Simpang, Kabupaten Aceh Tamiang";"ACEH";"24476";"Indonesia";" 082216045533";"4.2880856";"98.0513259";"https://maps.google.com/?cid=0x0:0xa0b4cfe2f274440f"
"cafe";"Nasi Goreng";"Rumah Makan Samalanga, Aceh Tamiang";"83PC+C95, Medang Ara, Kec. Karang Baru, Kabupaten Aceh Tamiang, Aceh 24476";"Medang Ara, Kec. Karang Baru, Kabupaten Aceh Tamiang";"ACEH";"24476";"Indonesia";"";"4.336017";"98.0709796";"https://maps.google.com/?cid=0x0:0xafbcd17f162a694c"
"cafe";"cafe";"Kec. Kejuruan Muda";"Kabupaten Aceh Tamiang, Aceh";"Kabupaten Aceh Tamiang, Aceh";"ACEH";"";"Indonesia";"";"4.2310452";"98.0585627";"https://maps.google.com/?cid=0x0:0x31c3ba765be70142"
"cafe";"Kedai Kopi";"Waroeng Dusun";"53M2+43X, Jl. Medan Banda Aceh, Seumadam, Kec. Kejuruan Muda, Kabupaten Aceh Tamiang, Aceh 24474";"Jl. Medan Banda Aceh, Seumadam, Kec. Kejuruan Muda, Kabupaten Aceh Tamiang";"ACEH";"24474";"Indonesia";" 082363854237";"4.1828678";"98.050249";"https://maps.google.com/?cid=0x0:0x77629e463153d522"
"cafe";"Kedai Kopi";"TEXAS COFFEE";"73H7+J8M, Unnamed Road, Bukit Rata, Kec. Kejuruan Muda, Kabupaten Aceh Tamiang, Aceh 24458";"Unnamed Road, Bukit Rata, Kec. Kejuruan Muda, Kabupaten Aceh Tamiang";"ACEH";"24458";"Indonesia";" 082273863346";"4.2790862";"98.0633123";"https://maps.google.com/?cid=0x0:0x9319a8649e971ff0"
"cafe";"Kedai Kopi";"Warung Eko";"Jl. Medan - Banda Aceh, Sungai Liput, Kec. Kejuruan Muda, Kabupaten Aceh Tamiang, Aceh 24474";"Sungai Liput, Kec. Kejuruan Muda, Kabupaten Aceh Tamiang";"ACEH";"24474";"Indonesia";" 082267015757";"4.221725";"98.0567954";"https://maps.google.com/?cid=0x0:0x7e8dbfaf59eaa8a7"
"cafe";"Pembangunan Perumahan";"Prabu Rifa Coffee";"7389+X48 Prabu Rifa Residence, Bukit Rata, Kejuruan Muda, Aceh Tamiang Regency, Aceh";"Kabupaten Aceh Tamiang, Aceh";"ACEH";"";"Indonesia";"";"4.2674052";"98.0678188";"https://maps.google.com/?cid=0x0:0x7207e64791236f92"
"cafe";"Kafe";"SL KUPI";"Pangkalan, Kec. Kejuruan Muda, Kabupaten Aceh Tamiang, Aceh 24475";"Kec. Kejuruan Muda, Kabupaten Aceh Tamiang";"ACEH";"24475";"Indonesia";" 082294441447";"4.2309596";"98.0579303";"https://maps.google.com/?cid=0x0:0x2cfa512f15dde107"
"cafe";"Kedai Kopi";"SP3 Kupi";"Perdamaian, Kota Kuala Simpang, Kabupaten Aceh Tamiang, Aceh";"Kabupaten Aceh Tamiang, Aceh";"ACEH";"";"Indonesia";"";"4.2811769";"98.0635683";"https://maps.google.com/?cid=0x0:0x133e9a1c4c4d28dc"
"cafe";"Kafe";"ATAP LANGIT ESPRESSO  BREW BAR";"Sriwijaya, Kota Kuala Simpang, Kabupaten Aceh Tamiang, Aceh 24456";"Kota Kuala Simpang, Kabupaten Aceh Tamiang";"ACEH";"24456";"Indonesia";" 085322010716";"4.2822693";"98.0586696";"https://maps.google.com/?cid=0x0:0x98b6c2d3e5c57e35"
"cafe";"Kedai Kopi";"Sagoe Kupi";"Kota Kuala Simpang, Kabupaten Aceh Tamiang, Aceh 24456";"Kabupaten Aceh Tamiang";"ACEH";"24456";"Indonesia";" 085262284545";"4.2825875";"98.0599619";"https://maps.google.com/?cid=0x0:0xe2c7f998b9dc58cc"
"cafe";"Kedai Kopi";"Oo Tamiang Cafe";"73Q2+6W4, Jl. Lintas Sumatra, Karang Baru, Kec. Karang Baru, Kabupaten Aceh Tamiang, Aceh 24456";"Jl. Lintas Sumatra, Karang Baru, Kec. Karang Baru, Kabupaten Aceh Tamiang";"ACEH";"24456";"Indonesia";" 082386028615";"4.2880013";"98.0523239";"https://maps.google.com/?cid=0x0:0xab8bd65ba41e4884"
"cafe";"Kedai Kopi";"Kafe Alur Selawi";"63F4+7Q3, Jl. Medan Banda Aceh, Sungai Liput, Kec. Kejuruan Muda, Kabupaten Aceh Tamiang, Aceh 24474";"Jl. Medan Banda Aceh, Sungai Liput, Kec. Kejuruan Muda, Kabupaten Aceh Tamiang";"ACEH";"24474";"Indonesia";"";"4.2231299";"98.0569148";"https://maps.google.com/?cid=0x0:0xcfefa9abf05b2fbf"
"cafe";"Kafe";"Waroenk Wak Jhon";"633G+8C6, Kp. Jawa, Kec. Kejuruan Muda, Kabupaten Aceh Tamiang, Aceh 24475";"Kp. Jawa, Kec. Kejuruan Muda, Kabupaten Aceh Tamiang";"ACEH";"24475";"Indonesia";" 085260103471";"4.2032768";"98.0760132";"https://maps.google.com/?cid=0x0:0x1cc3035e51e6a8fd"
"cafe";"Kafe";"Aula Serba Guna JUWITA";"63G4+GWR, Jl. Lintas Sumatra, Sungai Liput, Kec. Kejuruan Muda, Kabupaten Aceh Tamiang, Aceh 24474";"Jl. Lintas Sumatra, Sungai Liput, Kec. Kejuruan Muda, Kabupaten Aceh Tamiang";"ACEH";"24474";"Indonesia";" 082365737277";"4.2263516";"98.0572724";"https://maps.google.com/?cid=0x0:0x3ee0a0a9afa1e303"
"cafe";"Kedai Kopi";"Tongkrongan Nisa (Mini Cafe)";"53J2+GMJ, Jl. Lintas Sumatra, Seumadam, Kec. Kejuruan Muda, Kabupaten Aceh Tamiang, Aceh 24474";"Jl. Lintas Sumatra, Seumadam, Kec. Kejuruan Muda, Kabupaten Aceh Tamiang";"ACEH";"24474";"Indonesia";"";"4.1816082";"98.0514424";"https://maps.google.com/?cid=0x0:0x136e42fd5caa8dc9"
"cafe";"Kedai Kopi";"GOWA KAFE (coffee  resto)";"Jl. Medan Banda Aceh, Kota Lintang, Kota Kuala Simpang, Kabupaten Aceh Tamiang, Aceh 24475";"Kota Lintang, Kota Kuala Simpang, Kabupaten Aceh Tamiang";"ACEH";"24475";"Indonesia";" 082272336679";"4.2878161";"98.0582765";"https://maps.google.com/?cid=0x0:0x521b0aa11da1bb61"
"cafe";"Kafe";"ATAP LANGIT ESPRESSO  BREW BAR";"Sriwijaya, Kota Kuala Simpang, Kabupaten Aceh Tamiang, Aceh 24456";"Kota Kuala Simpang, Kabupaten Aceh Tamiang";"ACEH";"24456";"Indonesia";" 085322010716";"4.2822693";"98.0586696";"https://maps.google.com/?cid=0x0:0x98b6c2d3e5c57e35"
"cafe";"cafe";"Kota Kuala Simpang";"Kabupaten Aceh Tamiang, Aceh";"Kabupaten Aceh Tamiang, Aceh";"ACEH";"";"Indonesia";"";"4.2856625";"98.060158";"https://maps.google.com/?cid=0x0:0x1c98c7d4ec51e5aa"
"cafe";"Bar Kopi Espresso";"GK Cafe Coffee  Eatery";"Jl. Mayjend Sutoyo, Kota Kuala Simpang, Kabupaten Aceh Tamiang, Aceh";"Kabupaten Aceh Tamiang, Aceh";"ACEH";"";"Indonesia";"";"4.2871876";"98.0581783";"https://maps.google.com/?cid=0x0:0x4993d1d90bf43168"
"cafe";"Kedai Kopi";"Sagoe Kupi";"Kota Kuala Simpang, Kabupaten Aceh Tamiang, Aceh 24456";"Kabupaten Aceh Tamiang";"ACEH";"24456";"Indonesia";" 085262284545";"4.2825875";"98.0599619";"https://maps.google.com/?cid=0x0:0xe2c7f998b9dc58cc"
"cafe";"Kedai Kopi";"Coffee Time";"73J5+XC2, Sriwijaya, Kota Kuala Simpang, Kabupaten Aceh Tamiang, Aceh 24456";"Sriwijaya, Kota Kuala Simpang, Kabupaten Aceh Tamiang";"ACEH";"24456";"Indonesia";"";"4.2823887";"98.0585308";"https://maps.google.com/?cid=0x0:0x9a106688e1a384d8"
"cafe";"Kafe";"Berisik Coffee";"Jl letjen, S.Parman No.4, Kota Kuala Simpang, Kabupaten Aceh Tamiang, Aceh 24475";"S.Parman No.4, Kota Kuala Simpang, Kabupaten Aceh Tamiang";"ACEH";"24475";"Indonesia";" 081393480040";"4.2824652";"98.0589632";"https://maps.google.com/?cid=0x0:0x80fac5430d7a8f37"
"cafe";"Kedai Kopi";"The King Cafe";"73P5+RP7, Jl. Cut Nyak Dien, Kota Lintang, Kota Kuala Simpang, Kabupaten Aceh Tamiang, Aceh 24456";"Jl. Cut Nyak Dien, Kota Lintang, Kota Kuala Simpang, Kabupaten Aceh Tamiang";"ACEH";"24456";"Indonesia";" 081269487688";"4.2870473";"98.0593085";"https://maps.google.com/?cid=0x0:0x70644ea5b12c3b3"
"cafe";"Kedai Kopi";"SP3 Kupi";"Perdamaian, Kota Kuala Simpang, Kabupaten Aceh Tamiang, Aceh";"Kabupaten Aceh Tamiang, Aceh";"ACEH";"";"Indonesia";"";"4.2811769";"98.0635683";"https://maps.google.com/?cid=0x0:0x133e9a1c4c4d28dc"
"cafe";"Kafe";"MOVE ON COFFEE";"73M5+7WP, Kota Kuala Simpang, Kabupaten Aceh Tamiang, Aceh 24456";"Kota Kuala Simpang, Kabupaten Aceh Tamiang";"ACEH";"24456";"Indonesia";"";"4.283202";"98.0598332";"https://maps.google.com/?cid=0x0:0x59b1f21967987ef3"
"cafe";"Kedai Kopi";"Ambang Batas";"Jl. Ir. H. Juanda Dalam No.10, Kota Kuala Simpang, Kec. Karang Baru, Kabupaten Aceh Tamiang, Aceh 24476";"Kota Kuala Simpang, Kec. Karang Baru, Kabupaten Aceh Tamiang";"ACEH";"24476";"Indonesia";"";"4.2918426";"98.0492892";"https://maps.google.com/?cid=0x0:0x5d201e3528f092b"
"cafe";"Kedai Kopi";"Teras kupie";"73P6+2R8, Jl. Rantau, Bukit Tempurung, Kota Kuala Simpang, Kabupaten Aceh Tamiang, Aceh";"Kabupaten Aceh Tamiang, Aceh";"ACEH";"";"Indonesia";"";"4.2850413";"98.0620733";"https://maps.google.com/?cid=0x0:0x1655adee2e183864"
"cafe";"Kedai Kopi";"Haloji Coffee";"Jl. Rantau, Bukit Tempurung, Kota Kuala Simpang, Kabupaten Aceh Tamiang, Aceh 24475";"Bukit Tempurung, Kota Kuala Simpang, Kabupaten Aceh Tamiang";"ACEH";"24475";"Indonesia";" 082281390353";"4.287304";"98.0661447";"https://maps.google.com/?cid=0x0:0xf3c8e282d98bf9af"
"cafe";"Kafe";"CAFEONE";"73M5+CV7, Kota Kuala Simpang, Kabupaten Aceh Tamiang, Aceh 24456";"Kota Kuala Simpang, Kabupaten Aceh Tamiang";"ACEH";"24456";"Indonesia";" 085261823327";"4.2835335";"98.0596835";"https://maps.google.com/?cid=0x0:0x10c36344dbe69cf6"
"cafe";"Kedai Kopi";"Café Coffee";"C24G+P7P, Paya Ketenggar, Kec. Manyak Payed, Kabupaten Aceh Tamiang, Aceh 24471";"Paya Ketenggar, Kec. Manyak Payed, Kabupaten Aceh Tamiang";"ACEH";"24471";"Indonesia";" 083188123961";"4.4068463";"98.0256971";"https://maps.google.com/?cid=0x0:0xf904d536bd260fb0"
"cafe";"cafe";"Aceh 24471";"Aceh";"Aceh";"ACEH";"";"Indonesia";"";"4.3465057";"97.8395151";"https://maps.google.com/?cid=0x0:0x6a96af07474c986b"
"cafe";"Kafe";"Busri kafe";"C32F+CGF, Tualang Baru, Kec. Manyak Payed, Kabupaten Aceh Tamiang, Aceh 24471";"Tualang Baru, Kec. Manyak Payed, Kabupaten Aceh Tamiang";"ACEH";"24471";"Indonesia";"";"4.4010697";"98.0737962";"https://maps.google.com/?cid=0x0:0x2d7daa4ecf4a7ec6"
"cafe";"Mi";"Bombai Cafe";"C25G+F6G, Seuneubok Punti, Kec. Manyak Payed, Kabupaten Aceh Tamiang, Aceh 24471";"Seuneubok Punti, Kec. Manyak Payed, Kabupaten Aceh Tamiang";"ACEH";"24471";"Indonesia";"";"4.4086987";"98.0255796";"https://maps.google.com/?cid=0x0:0x4a143a1fcf404813"
"cafe";"Nasi";"Santai cafe ZuDiMon";"C24F+337, Paya Ketenggar, Kec. Manyak Payed, Kabupaten Aceh Tamiang, Aceh 24471";"Paya Ketenggar, Kec. Manyak Payed, Kabupaten Aceh Tamiang";"ACEH";"24471";"Indonesia";"";"4.4051565";"98.0226864";"https://maps.google.com/?cid=0x0:0x3dfa355e86655d5"
"cafe";"Kedai Kopi";"Kopi Pinang";"Jl. Medan - Banda Aceh, Gelanggang Merak, Kec. Manyak Payed, Kabupaten Aceh Tamiang, Aceh 24471";"Gelanggang Merak, Kec. Manyak Payed, Kabupaten Aceh Tamiang";"ACEH";"24471";"Indonesia";"";"4.3999512";"98.065778";"https://maps.google.com/?cid=0x0:0xe5c935a31924e369"
"cafe";"Kafe";"Gandis cafe";"C23W+QV6, Seuneubok Baru, Kec. Manyak Payed, Kabupaten Aceh Tamiang, Aceh 24471";"Seuneubok Baru, Kec. Manyak Payed, Kabupaten Aceh Tamiang";"ACEH";"24471";"Indonesia";" 082269437898";"4.4043817";"98.0480184";"https://maps.google.com/?cid=0x0:0xad9f4edfdad2bb5f"
"cafe";"Restoran";"Cafe sawah";"C366+PCX, Jl. Matang Ara Jawa, Gelanggang Merak, Kec. Manyak Payed, Kabupaten Aceh Tamiang, Aceh 24471";"Jl. Matang Ara Jawa, Gelanggang Merak, Kec. Manyak Payed, Kabupaten Aceh Tamiang";"ACEH";"24471";"Indonesia";"";"4.410794";"98.0605527";"https://maps.google.com/?cid=0x0:0x404da145bb2e96e8"
"cafe";"Kafe";"D,ichsan cafe";"C3J5+PM2, Tj. Neraca, Kec. Manyak Payed, Kabupaten Aceh Tamiang, Aceh 24471";"Tj. Neraca, Kec. Manyak Payed, Kabupaten Aceh Tamiang";"ACEH";"24471";"Indonesia";" 081373389394";"4.4317715";"98.0591477";"https://maps.google.com/?cid=0x0:0x5762448f48d9c3fb"
"cafe";"Kedai Kopi";"Ayam penyet N/A";"C23W+J9Q, Buket Panjang II, Kec. Manyak Payed, Kabupaten Aceh Tamiang, Aceh 24471";"Buket Panjang II, Kec. Manyak Payed, Kabupaten Aceh Tamiang";"ACEH";"24471";"Indonesia";" 085361983814";"4.4031636";"98.0459716";"https://maps.google.com/?cid=0x0:0x739655e734e1492b"
"cafe";"Kafe";"Cafe pesdo telor pinang (Markas Tasaba community)";"93XC+J55, Jl. Lintas Sumatra, Tualang Baru, Kec. Manyak Payed, Kabupaten Aceh Tamiang, Aceh 24471";"Jl. Lintas Sumatra, Tualang Baru, Kec. Manyak Payed, Kabupaten Aceh Tamiang";"ACEH";"24471";"Indonesia";"";"4.399014";"98.0704714";"https://maps.google.com/?cid=0x0:0x4b3ab780d86a9b39"
"cafe";"Kedai Kopi";"RZ coffee";"93WH+Q5W, Jl. Medan Banda Aceh, Tualang Baru, Kec. Manyak Payed, Kabupaten Aceh Tamiang, Aceh 24471";"Jl. Medan Banda Aceh, Tualang Baru, Kec. Manyak Payed, Kabupaten Aceh Tamiang";"ACEH";"24471";"Indonesia";" 082266026603";"4.3969813";"98.0779479";"https://maps.google.com/?cid=0x0:0xb09c6e6689990db7"
"cafe";"Kedai Kopi";"Oppie Coffe";"93XG+47H, Tualang Baru, Kec. Manyak Payed, Kabupaten Aceh Tamiang, Aceh 24471";"Tualang Baru, Kec. Manyak Payed, Kabupaten Aceh Tamiang";"ACEH";"24471";"Indonesia";"";"4.3978105";"98.0757438";"https://maps.google.com/?cid=0x0:0x2a85bcdcc870e8ec"
"cafe";"Kafe";"Simpang IV Kupi";"C3G8+CJ6, Tj. Neraca, Kec. Manyak Payed, Kabupaten Aceh Tamiang, Aceh 24471";"Tj. Neraca, Kec. Manyak Payed, Kabupaten Aceh Tamiang";"ACEH";"24471";"Indonesia";"";"4.4260483";"98.0665216";"https://maps.google.com/?cid=0x0:0xa0378b2ec6a2bd4d"
"cafe";"Kedai Kopi";"Waroeng Dusun";"53M2+43X, Jl. Medan Banda Aceh, Seumadam, Kec. Kejuruan Muda, Kabupaten Aceh Tamiang, Aceh 24474";"Jl. Medan Banda Aceh, Seumadam, Kec. Kejuruan Muda, Kabupaten Aceh Tamiang";"ACEH";"24474";"Indonesia";" 082363854237";"4.1828678";"98.050249";"https://maps.google.com/?cid=0x0:0x77629e463153d522"
"cafe";"cafe";"Aceh 24474";"Kec. Kejuruan Muda, Kabupaten Aceh Tamiang, Aceh";"Kabupaten Aceh Tamiang, Aceh";"ACEH";"";"Indonesia";"";"4.2123421";"98.0247005";"https://maps.google.com/?cid=0x0:0xe116e26a288dda02"
"cafe";"Restoran";"ANESKA Coffe  Resto";"Jl. Rantau, Kp. Durian, Kec. Rantau, Kabupaten Aceh Tamiang, Aceh";"Kabupaten Aceh Tamiang, Aceh";"ACEH";"";"Indonesia";" 081373570372";"4.2893001";"98.0797682";"https://maps.google.com/?cid=0x0:0x561af9b8493f2393"
"cafe";"Kafe";"Aula Serba Guna JUWITA";"63G4+GWR, Jl. Lintas Sumatra, Sungai Liput, Kec. Kejuruan Muda, Kabupaten Aceh Tamiang, Aceh 24474";"Jl. Lintas Sumatra, Sungai Liput, Kec. Kejuruan Muda, Kabupaten Aceh Tamiang";"ACEH";"24474";"Indonesia";" 082365737277";"4.2263516";"98.0572724";"https://maps.google.com/?cid=0x0:0x3ee0a0a9afa1e303"
"cafe";"Kedai Kopi";"Kafe Alur Selawi";"63F4+7Q3, Jl. Medan Banda Aceh, Sungai Liput, Kec. Kejuruan Muda, Kabupaten Aceh Tamiang, Aceh 24474";"Jl. Medan Banda Aceh, Sungai Liput, Kec. Kejuruan Muda, Kabupaten Aceh Tamiang";"ACEH";"24474";"Indonesia";"";"4.2231299";"98.0569148";"https://maps.google.com/?cid=0x0:0xcfefa9abf05b2fbf"
"cafe";"Petugas Perbatasan";"Jajanan perbatasan";"43R7+8WV, Jl. Lintas Sumatra, Seumadam, Kec. Kejuruan Muda, Kabupaten Aceh Tamiang, Aceh 24474";"Jl. Lintas Sumatra, Seumadam, Kec. Kejuruan Muda, Kabupaten Aceh Tamiang";"ACEH";"24474";"Indonesia";" 082339905041";"4.1408698";"98.064799";"https://maps.google.com/?cid=0x0:0x464f065e5369e104"
"cafe";"Kedai Kopi";"Warung Eko";"Jl. Medan - Banda Aceh, Sungai Liput, Kec. Kejuruan Muda, Kabupaten Aceh Tamiang, Aceh 24474";"Sungai Liput, Kec. Kejuruan Muda, Kabupaten Aceh Tamiang";"ACEH";"24474";"Indonesia";" 082267015757";"4.221725";"98.0567954";"https://maps.google.com/?cid=0x0:0x7e8dbfaf59eaa8a7"
"cafe";"Kedai Kopi";"Es Coklat Mantap Perbatasan/Winda Cell";"43P8+Q4R, Karangjadi, Kec. Kejuruan Muda, Kabupaten Aceh Tamiang, Aceh 24474";"Karangjadi, Kec. Kejuruan Muda, Kabupaten Aceh Tamiang";"ACEH";"24474";"Indonesia";" 081263824609";"4.1372405";"98.065545";"https://maps.google.com/?cid=0x0:0x9556dffc44f297fd"
"cafe";"Kedai Kopi";"Tongkrongan Nisa (Mini Cafe)";"53J2+GMJ, Jl. Lintas Sumatra, Seumadam, Kec. Kejuruan Muda, Kabupaten Aceh Tamiang, Aceh 24474";"Jl. Lintas Sumatra, Seumadam, Kec. Kejuruan Muda, Kabupaten Aceh Tamiang";"ACEH";"24474";"Indonesia";"";"4.1816082";"98.0514424";"https://maps.google.com/?cid=0x0:0x136e42fd5caa8dc9"
"cafe";"Makanan Kecil";"Warung Kupi Yah'At";"738C+5C4, Jalan Salahaji, Desa, Paya Bedi, Kec. Rantau, Kabupaten Aceh Tamiang, Aceh 24475";"Jalan Salahaji, Desa, Paya Bedi, Kec. Rantau, Kabupaten Aceh Tamiang";"ACEH";"24475";"Indonesia";"";"4.265387";"98.0710807";"https://maps.google.com/?cid=0x0:0x3aff63b6efa23732"
"cafe";"Kedai Kopi";"Batam coffe";"43R7+QQH, Jl. Medan Banda Aceh, Karangjadi, Kec. Kejuruan Muda, Kabupaten Aceh Tamiang, Aceh 24474";"Jl. Medan Banda Aceh, Karangjadi, Kec. Kejuruan Muda, Kabupaten Aceh Tamiang";"ACEH";"24474";"Indonesia";" 085270533031";"4.1419468";"98.0644969";"https://maps.google.com/?cid=0x0:0xf869181ac647d863"
"cafe";"Kafe";"SL KUPI";"Pangkalan, Kec. Kejuruan Muda, Kabupaten Aceh Tamiang, Aceh 24475";"Kec. Kejuruan Muda, Kabupaten Aceh Tamiang";"ACEH";"24475";"Indonesia";" 082294441447";"4.2309596";"98.0579303";"https://maps.google.com/?cid=0x0:0x2cfa512f15dde107"
"cafe";"Kedai Kopi";"WAROENG LANGITTEAMOFFICIAL";"737V+J7X, Unnamed Road, Ingin Jaya, Kec. Rantau, Kabupaten Aceh Tamiang, Aceh 24453";"Unnamed Road, Ingin Jaya, Kec. Rantau, Kabupaten Aceh Tamiang";"ACEH";"24453";"Indonesia";"";"4.2641217";"98.0932443";"https://maps.google.com/?cid=0x0:0x8e2ffa09d41ae139"
"cafe";"Restoran";"D'cafe ayam geprek";"62M3+552, Tj. Genteng, Kec. Kejuruan Muda, Kabupaten Aceh Tamiang, Aceh 24474";"Tj. Genteng, Kec. Kejuruan Muda, Kabupaten Aceh Tamiang";"ACEH";"24474";"Indonesia";"";"4.2328871";"98.0028892";"https://maps.google.com/?cid=0x0:0x3608bb947789e68d"
"cafe";"cafe";"Aceh 24476";"Kabupaten Aceh Tamiang, Aceh";"Kabupaten Aceh Tamiang, Aceh";"ACEH";"";"Indonesia";"";"4.3288776";"98.0628862";"https://maps.google.com/?cid=0x0:0x82d848b4ba041829"
"cafe";"Kedai Kopi";"suddut kota coffee and space";"83C6+8PP, Jl. Lintas Sumatra, Gampong Johar, Kec. Karang Baru, Kabupaten Aceh Tamiang, Aceh 24476";"Jl. Lintas Sumatra, Gampong Johar, Kec. Karang Baru, Kabupaten Aceh Tamiang";"ACEH";"24476";"Indonesia";"";"4.32084";"98.0618322";"https://maps.google.com/?cid=0x0:0xf9dfd9a723b5ffef"
"cafe";"Kedai Kopi";"WD Coffee";"Jl. Medan Banda Aceh, Tanah Terban, Kec. Karang Baru, Kabupaten Aceh Tamiang, Aceh";"Kabupaten Aceh Tamiang, Aceh";"ACEH";"";"Indonesia";" 081361411711";"4.3167287";"98.0594773";"https://maps.google.com/?cid=0x0:0xc7a51e44c3fa78d5"
"cafe";"Restoran";"ANESKA Coffe  Resto";"Jl. Rantau, Kp. Durian, Kec. Rantau, Kabupaten Aceh Tamiang, Aceh";"Kabupaten Aceh Tamiang, Aceh";"ACEH";"";"Indonesia";" 081373570372";"4.2893001";"98.0797682";"https://maps.google.com/?cid=0x0:0x561af9b8493f2393"
"cafe";"Kafe";"Gemini Cafe and Resto";"73Q9+HFC, Jl. Rantau, Benua Raja, Kec. Rantau, Kabupaten Aceh Tamiang, Aceh 24456";"Jl. Rantau, Benua Raja, Kec. Rantau, Kabupaten Aceh Tamiang";"ACEH";"24456";"Indonesia";" 085320907880";"4.2889394";"98.0686297";"https://maps.google.com/?cid=0x0:0x27c0b3657b8c21d8"
"cafe";"Kafe";"SINGGAH KUPI";"Jl. Medan Banda Aceh, Alur Bemban, Kec. Karang Baru, Kabupaten Aceh Tamiang, Aceh 24476";"Alur Bemban, Kec. Karang Baru, Kabupaten Aceh Tamiang";"ACEH";"24476";"Indonesia";" 085270258455";"4.3531904";"98.0802407";"https://maps.google.com/?cid=0x0:0x7e0382947b7c4d0e"
"cafe";"Kedai Kopi";"Tina Coffee";"73XM+F2W, Jl. Kualasimpang Kp. Durian, Rantau, Kp. Pertamina, Kamp Pertamina, Rantau, Aceh Tamiang Regency, Aceh 24476";"Jl. Kualasimpang Kp. Durian, Rantau, Kp. Pertamina, Kamp Pertamina, Rantau, Aceh Tamiang Regency";"ACEH";"24476";"Indonesia";"";"4.298725";"98.0825777";"https://maps.google.com/?cid=0x0:0xe5501c88e472756a"
"cafe";"Nasi Goreng";"Rumah Makan Samalanga, Aceh Tamiang";"83PC+C95, Medang Ara, Kec. Karang Baru, Kabupaten Aceh Tamiang, Aceh 24476";"Medang Ara, Kec. Karang Baru, Kabupaten Aceh Tamiang";"ACEH";"24476";"Indonesia";"";"4.336017";"98.0709796";"https://maps.google.com/?cid=0x0:0xafbcd17f162a694c"
"cafe";"Kafe";"Cafe N'cek Siti Bersaudara";"83FV+P88, dusun jawa, desa, Rantau Pauh, Kec. Rantau, Kabupaten Aceh Tamiang, Aceh 24476";"dusun jawa, desa, Rantau Pauh, Kec. Rantau, Kabupaten Aceh Tamiang";"ACEH";"24476";"Indonesia";" 085277369940";"4.3242785";"98.0933258";"https://maps.google.com/?cid=0x0:0x32eb6a50af248857"
"cafe";"Kedai Kopi";"Coffee Care";"Dusun setia Desa Tanah Terban, Kecamatan Karang Baru, Kualasimpang, Kabupaten Aceh Tamiang, Aceh 24475";"Kecamatan Karang Baru, Kualasimpang, Kabupaten Aceh Tamiang";"ACEH";"24475";"Indonesia";" 082253685559";"4.307612";"98.052632";"https://maps.google.com/?cid=0x0:0xad7dd2cc20e7ee10"
"cafe";"Bar Kopi Espresso";"GK Cafe Coffee  Eatery";"Jl. Mayjend Sutoyo, Kota Kuala Simpang, Kabupaten Aceh Tamiang, Aceh";"Kabupaten Aceh Tamiang, Aceh";"ACEH";"";"Indonesia";"";"4.2871876";"98.0581783";"https://maps.google.com/?cid=0x0:0x4993d1d90bf43168"
"cafe";"Bar";"9SHOT coffee  billiard";"8364+W73, Tanah Terban, Kec. Karang Baru, Kabupaten Aceh Tamiang, Aceh 24456";"Tanah Terban, Kec. Karang Baru, Kabupaten Aceh Tamiang";"ACEH";"24456";"Indonesia";"";"4.312023";"98.055606";"https://maps.google.com/?cid=0x0:0xb6c97b6bfde88766"
"cafe";"Kedai Kopi";"BEST CROWD COFFE";"73Q9+QWH, Benua Raja, Kec. Rantau, Kabupaten Aceh Tamiang, Aceh";"Kabupaten Aceh Tamiang, Aceh";"ACEH";"";"Indonesia";"";"4.2894427";"98.069859";"https://maps.google.com/?cid=0x0:0x5c17ed3b65ff0de6"
"cafe";"Kafe";"MANZIL Cafe";"73QG+MGM, Landuh, Kec. Rantau, Kabupaten Aceh Tamiang, Aceh 24476";"Landuh, Kec. Rantau, Kabupaten Aceh Tamiang";"ACEH";"24476";"Indonesia";"";"4.2891478";"98.0765615";"https://maps.google.com/?cid=0x0:0x9af0d233d68cbfc7"
"cafe";"Kafe";"Agam Saboh kupi";"748M+MR9, Suka Mulia, Kec. Rantau, Kabupaten Aceh Tamiang, Aceh 24473";"Suka Mulia, Kec. Rantau, Kabupaten Aceh Tamiang";"ACEH";"24473";"Indonesia";" 081265417636";"4.2666634";"98.1346026";"https://maps.google.com/?cid=0x0:0xcbfd024b6a53c2ac"
"cafe";"Kedai Kopi";"Casper coffe";"7489+PC8, Dusun damai, Suka Rahmat, Kec. Rantau, Kabupaten Aceh Tamiang, Aceh";"Kabupaten Aceh Tamiang, Aceh";"ACEH";"";"Indonesia";"";"4.26679";"98.118585";"https://maps.google.com/?cid=0x0:0xa5f1a9eb0b3e297a"
"cafe";"cafe";"Aceh 24473";"Aceh";"Aceh";"ACEH";"";"Indonesia";"";"4.2670304";"98.1393179";"https://maps.google.com/?cid=0x0:0x7edc8ec14cab902a"
"cafe";"Kafe";"Syanum coffee";"953H+5HF, Peukan Seuruway, Kec. Seuruway, Kabupaten Aceh Tamiang, Aceh 24472";"Peukan Seuruway, Kec. Seuruway, Kabupaten Aceh Tamiang";"ACEH";"24472";"Indonesia";"";"4.3529387";"98.1789213";"https://maps.google.com/?cid=0x0:0x568d155018f23ec3"
"cafe";"Kedai Kopi";"Syabab coffee  resto reborn";"Kebun Tanah Terban, Kec. Karang Baru, Kabupaten Aceh Tamiang, Aceh";"Kabupaten Aceh Tamiang, Aceh";"ACEH";"";"Indonesia";" 081362110030";"4.3027409";"98.0449748";"https://maps.google.com/?cid=0x0:0xb7b816ac56d04ec0"
"cafe";"Kedai Kopi";"LIVING COFFEE. Gerai seefood  coffee";"Asian Highway No.25, Gampong Bundar, Karang Baru, Aceh Tamiang Regency, Aceh 24456";"Gampong Bundar, Karang Baru, Aceh Tamiang Regency";"ACEH";"24456";"Indonesia";" 082275010121";"4.2945454";"98.0483017";"https://maps.google.com/?cid=0x0:0xb93fb67adc87512"
"cafe";"Restoran";"Sp3. Net";"749C+W34, Suka mulia, kampung lor, Kec. Rantau, Kabupaten Aceh Tamiang, Aceh 24352";"Suka mulia, kampung lor, Kec. Rantau, Kabupaten Aceh Tamiang";"ACEH";"24352";"Indonesia";"";"4.2697745";"98.1202024";"https://maps.google.com/?cid=0x0:0x4b6a87f7fca0acbc"
"cafe";"Penyedia Layanan Internet";"Ameinet";"846P+66C, Sukarakyat, Suka Rakyat, Kec. Rantau, Kabupaten Aceh Tamiang, Aceh 24352";"Sukarakyat, Suka Rakyat, Kec. Rantau, Kabupaten Aceh Tamiang";"ACEH";"24352";"Indonesia";" 085260327988";"4.3105502";"98.1355209";"https://maps.google.com/?cid=0x0:0xbe95cc570fcaa03a"
"cafe";"Restoran";"Bakso Yoona mini kafe";"748X+RWQ, Suka Mulia, Kec. Rantau, Kabupaten Aceh Tamiang, Aceh";"Kabupaten Aceh Tamiang, Aceh";"ACEH";"";"Indonesia";"";"4.2673932";"98.1494294";"https://maps.google.com/?cid=0x0:0x856cdb70a29372a8"
"cafe";"Kedai Kopi";"Cafe Ben Bun";"Batu Tiga Poncol, Poncol, Kec. Rantau, Kabupaten Aceh Tamiang, Aceh 24474";"Poncol, Kec. Rantau, Kabupaten Aceh Tamiang";"ACEH";"24474";"Indonesia";" 082250573824";"4.2673245";"98.1479729";"https://maps.google.com/?cid=0x0:0x79844f3dd84be7c4"
"cafe";"Kedai Kopi";"Senada Kopi Bakmie";"Kebun Tanah Terban, Kec. Karang Baru, Kabupaten Aceh Tamiang, Aceh 24456";"Kec. Karang Baru, Kabupaten Aceh Tamiang";"ACEH";"24456";"Indonesia";" 085372546661";"4.3029127";"98.0453724";"https://maps.google.com/?cid=0x0:0xcacdf2f343006c1b"
"cafe";"Pembangunan Perumahan";"Prabu Rifa Coffee";"7389+X48 Prabu Rifa Residence, Bukit Rata, Kejuruan Muda, Aceh Tamiang Regency, Aceh";"Kabupaten Aceh Tamiang, Aceh";"ACEH";"";"Indonesia";"";"4.2674052";"98.0678188";"https://maps.google.com/?cid=0x0:0x7207e64791236f92"
"cafe";"Kedai Kopi";"WD Coffee";"Jl. Medan Banda Aceh, Tanah Terban, Kec. Karang Baru, Kabupaten Aceh Tamiang, Aceh";"Kabupaten Aceh Tamiang, Aceh";"ACEH";"";"Indonesia";" 081361411711";"4.3167287";"98.0594773";"https://maps.google.com/?cid=0x0:0xc7a51e44c3fa78d5"
"cafe";"Kedai Kopi";"Singgah Sekejab Coffee";"954H+W22, Unnamed Road, Tangsi Lama, Kec. Seuruway, Kabupaten Aceh Tamiang, Aceh 24472";"Unnamed Road, Tangsi Lama, Kec. Seuruway, Kabupaten Aceh Tamiang";"ACEH";"24472";"Indonesia";" 085261334492";"4.357264";"98.177518";"https://maps.google.com/?cid=0x0:0x86c34bd9aaa3f880"
"cafe";"Kafe";"Uza cafe basecamp";"5X73+833, Perk Pulau Tiga, Kec. Tamiang Hulu, Kabupaten Aceh Tamiang, Aceh 24478";"Perk Pulau Tiga, Kec. Tamiang Hulu, Kabupaten Aceh Tamiang";"ACEH";"24478";"Indonesia";" 082165690011";"4.163275";"97.952683";"https://maps.google.com/?cid=0x0:0x5bbbb84fa53513b0"
"cafe";"cafe";"Kec. Tamiang Hulu";"Kabupaten Aceh Tamiang, Aceh";"Kabupaten Aceh Tamiang, Aceh";"ACEH";"";"Indonesia";"";"4.1633008";"97.9539786";"https://maps.google.com/?cid=0x0:0x4376a9df79cb4397"
"cafe";"Kafe";"Cafe AE";"Simpang Kiri, Kec. Tenggulun, Kabupaten Aceh Tamiang, Aceh 24477";"Kec. Tenggulun, Kabupaten Aceh Tamiang";"ACEH";"24477";"Indonesia";" 082297972381";"4.1141645";"97.9815351";"https://maps.google.com/?cid=0x0:0x105e527505d22b16"
"cafe";"Kedai Kopi";"RASYA CAFE";"5X72+P8F, Perk Pulau Tiga, Kec. Tamiang Hulu, Kabupaten Aceh Tamiang, Aceh 24477";"Perk Pulau Tiga, Kec. Tamiang Hulu, Kabupaten Aceh Tamiang";"ACEH";"24477";"Indonesia";"";"4.1643197";"97.9507947";"https://maps.google.com/?cid=0x0:0x98876d0ed9403683"
"cafe";"Kafe Coklat";"Basecamp Coffee";"Kaloy, Kec. Tamiang Hulu, Kabupaten Aceh Tamiang, Aceh 24382";"Kec. Tamiang Hulu, Kabupaten Aceh Tamiang";"ACEH";"24382";"Indonesia";" 08126083055";"4.166515";"97.9464433";"https://maps.google.com/?cid=0x0:0xc8a231db8b3bf2f3"
"cafe";"Restoran";"Warung Pinggir Sungai";"Perk Pulau Tiga, Kec. Tamiang Hulu, Kabupaten Aceh Tamiang, Aceh 24478";"Kec. Tamiang Hulu, Kabupaten Aceh Tamiang";"ACEH";"24478";"Indonesia";" 085277107700";"4.1649933";"97.9471326";"https://maps.google.com/?cid=0x0:0xa70bb13d9986071b"
"cafe";"Kafe";"waroeng kupi ieng";"Perk Pulau Tiga, Kec. Tamiang Hulu, Kabupaten Aceh Tamiang, Aceh 24477";"Kec. Tamiang Hulu, Kabupaten Aceh Tamiang";"ACEH";"24477";"Indonesia";" 082219860012";"4.1672834";"97.9473276";"https://maps.google.com/?cid=0x0:0xee28cef2a879a6ad"
"cafe";"Kafe";"Warung Kopi Happy";"5W7X+RJM, Dusun Simpang Tiga, Kaloy, Kec. Tamiang Hulu, Kabupaten Aceh Tamiang, Aceh 24477";"Dusun Simpang Tiga, Kaloy, Kec. Tamiang Hulu, Kabupaten Aceh Tamiang";"ACEH";"24477";"Indonesia";" 085362650001";"4.1645935";"97.9490519";"https://maps.google.com/?cid=0x0:0x5703aa313a0d612d"
"cafe";"Kedai Kopi";"Snart Cooffe";"6WQ7+HGP, Wono Sari, Kec. Tamiang Hulu, Kabupaten Aceh Tamiang, Aceh 24382";"Wono Sari, Kec. Tamiang Hulu, Kabupaten Aceh Tamiang";"ACEH";"24382";"Indonesia";"";"4.2389387";"97.913765";"https://maps.google.com/?cid=0x0:0xed0614dcbf87839e"
"cafe";"Kedai Kopi";"Kedai SWT";"6WJC+X8Q, Harum Sari, Kec. Tamiang Hulu, Kabupaten Aceh Tamiang, Aceh 24382";"Harum Sari, Kec. Tamiang Hulu, Kabupaten Aceh Tamiang";"ACEH";"24382";"Indonesia";"";"4.2322609";"97.9206856";"https://maps.google.com/?cid=0x0:0x29ae5353faf95f7e"
"cafe";"Kafe";"Kopi Kita";"5W7X+XCQ, Perk Pulau Tiga, Kec. Tamiang Hulu, Kabupaten Aceh Tamiang, Aceh 24477";"Perk Pulau Tiga, Kec. Tamiang Hulu, Kabupaten Aceh Tamiang";"ACEH";"24477";"Indonesia";"";"4.1645133";"97.9488092";"https://maps.google.com/?cid=0x0:0xd8559f149f47116c"
"cafe";"Kafe";"Warkop Putri";"6WJC+J2G, Unnamed Road, Harum Sari, Tamiang Hulu, Aceh Tamiang Regency, Aceh 24382";"Unnamed Road, Harum Sari, Tamiang Hulu, Aceh Tamiang Regency";"ACEH";"24382";"Indonesia";"";"4.2315536";"97.9200759";"https://maps.google.com/?cid=0x0:0xcf5da5ae971f7d2e"
"cafe";"Kafe";"Kafe mas pon";"4XQ6+797, Alur Tani I, Kec. Tamiang Hulu, Kabupaten Aceh Tamiang, Aceh";"Kabupaten Aceh Tamiang, Aceh";"ACEH";"";"Indonesia";" 085372982766";"4.1381737";"97.9609374";"https://maps.google.com/?cid=0x0:0x21718834128ed124"
"cafe";"Kafe";"Warung Mbak Nur";"5X53+WMW, desa, Perk Pulau Tiga, Kec. Tamiang Hulu, Kabupaten Aceh Tamiang, Aceh 24477";"desa, Perk Pulau Tiga, Kec. Tamiang Hulu, Kabupaten Aceh Tamiang";"ACEH";"24477";"Indonesia";"";"4.1598545";"97.9541881";"https://maps.google.com/?cid=0x0:0x916f4d92f76aee27"
"cafe";"Kafe";"Cafe AE";"Simpang Kiri, Kec. Tenggulun, Kabupaten Aceh Tamiang, Aceh 24477";"Kec. Tenggulun, Kabupaten Aceh Tamiang";"ACEH";"24477";"Indonesia";" 082297972381";"4.1141645";"97.9815351";"https://maps.google.com/?cid=0x0:0x105e527505d22b16"
"cafe";"cafe";"Aceh 24477";"Kabupaten Aceh Tamiang, Aceh";"Kabupaten Aceh Tamiang, Aceh";"ACEH";"";"Indonesia";"";"3.9904163";"97.9157099";"https://maps.google.com/?cid=0x0:0x559940852b05002f"
"cafe";"Kedai Kopi";"Reza Coffe";"2XFW+WX2, Tenggulun, Kec. Tenggulun, Kabupaten Aceh Tamiang, Aceh 24477";"Tenggulun, Kec. Tenggulun, Kabupaten Aceh Tamiang";"ACEH";"24477";"Indonesia";" 082299765258";"4.024768";"97.9973764";"https://maps.google.com/?cid=0x0:0x8e89bc3fb49bdc46"
"cafe";"Kafe";"Uza cafe basecamp";"5X73+833, Perk Pulau Tiga, Kec. Tamiang Hulu, Kabupaten Aceh Tamiang, Aceh 24478";"Perk Pulau Tiga, Kec. Tamiang Hulu, Kabupaten Aceh Tamiang";"ACEH";"24478";"Indonesia";" 082165690011";"4.163275";"97.952683";"https://maps.google.com/?cid=0x0:0x5bbbb84fa53513b0"
"cafe";"Bar Kopi Espresso";"Indieecofee";"3X6X+PPV, Tenggulun, Kec. Tenggulun, Kabupaten Aceh Tamiang, Aceh 24477";"Tenggulun, Kec. Tenggulun, Kabupaten Aceh Tamiang";"ACEH";"24477";"Indonesia";"";"4.0621866";"97.9989965";"https://maps.google.com/?cid=0x0:0x5c5c1a5625f462ca"
"cafe";"Kedai Kopi";"Warkop Simpang Kiri Tenggulun";"4X6J+9C5, Simpang Kiri, Kec. Tenggulun, Kabupaten Aceh Tamiang, Aceh 24477";"Simpang Kiri, Kec. Tenggulun, Kabupaten Aceh Tamiang";"ACEH";"24477";"Indonesia";"";"4.1108935";"97.9811054";"https://maps.google.com/?cid=0x0:0x11186097fe708e"
"cafe";"Kafe";"waroeng kupi ieng";"Perk Pulau Tiga, Kec. Tamiang Hulu, Kabupaten Aceh Tamiang, Aceh 24477";"Kec. Tamiang Hulu, Kabupaten Aceh Tamiang";"ACEH";"24477";"Indonesia";" 082219860012";"4.1672834";"97.9473276";"https://maps.google.com/?cid=0x0:0xee28cef2a879a6ad"
"cafe";"Brunch";"Pondok NAULY";"4X7J+877, Simpang Kiri, Kec. Tenggulun, Kabupaten Aceh Tamiang, Aceh 24477";"Simpang Kiri, Kec. Tenggulun, Kabupaten Aceh Tamiang";"ACEH";"24477";"Indonesia";"";"4.1132983";"97.9806783";"https://maps.google.com/?cid=0x0:0xaa7a18ed0654de80"
"cafe";"Kafe";"Wi Fi Pondok Cinta";"3WPV+45C, Unnamed Road, Selamat, Kec. Tenggulun, Kabupaten Aceh Tamiang, Aceh 24477";"Unnamed Road, Selamat, Kec. Tenggulun, Kabupaten Aceh Tamiang";"ACEH";"24477";"Indonesia";" 082363724138";"4.0853238";"97.9428768";"https://maps.google.com/?cid=0x0:0x87d3fad501b007d"
"cafe";"Bar Kopi Espresso";"Adam's jofoot";"4XWC+GJV, Tebing Tinggi, Kec. Tenggulun, Kabupaten Aceh Tamiang, Aceh 24477";"Tebing Tinggi, Kec. Tenggulun, Kabupaten Aceh Tamiang";"ACEH";"24477";"Indonesia";" 081266341193";"4.1463502";"97.9715446";"https://maps.google.com/?cid=0x0:0x5af6ad7e6ecf5a2d"
"cafe";"Restoran";"Warung Kak Ras";"2XMX+8WM, Unnamed Road, Tenggulun, Kec. Tenggulun, Kabupaten Aceh Tamiang, Aceh 24477";"Unnamed Road, Tenggulun, Kec. Tenggulun, Kabupaten Aceh Tamiang";"ACEH";"24477";"Indonesia";"";"4.0333481";"97.9997894";"https://maps.google.com/?cid=0x0:0xb9bfa08a96e9d21f"
"cafe";"Kedai Kopi";"Warung Mbak Rony";"3X5F+3V3, Tenggulun, Kec. Tenggulun, Kabupaten Aceh Tamiang, Aceh 24477";"Tenggulun, Kec. Tenggulun, Kabupaten Aceh Tamiang";"ACEH";"24477";"Indonesia";"";"4.0576285";"97.9746747";"https://maps.google.com/?cid=0x0:0xe25603a815ece0d7"
"cafe";"Kedai Kopi";"RASYA CAFE";"5X72+P8F, Perk Pulau Tiga, Kec. Tamiang Hulu, Kabupaten Aceh Tamiang, Aceh 24477";"Perk Pulau Tiga, Kec. Tamiang Hulu, Kabupaten Aceh Tamiang";"ACEH";"24477";"Indonesia";"";"4.1643197";"97.9507947";"https://maps.google.com/?cid=0x0:0x98876d0ed9403683"
"cafe";"Kedai Kopi";"ADA Coffee";"Perk Pulau Tiga, Kec. Tamiang Hulu, Kabupaten Aceh Tamiang, Aceh 24478";"Kec. Tamiang Hulu, Kabupaten Aceh Tamiang";"ACEH";"24478";"Indonesia";" 082211396969";"4.1634936";"97.9521483";"https://maps.google.com/?cid=0x0:0xe6344e2a77391bb8"
