Category;Real Category;Business Name;Address;City;State;Postal Code;Country;Phone;Latitude;Longitude;Map Link
"toko bangunan";"toko bangunan";"Kec. Banda Mulia";"Kabupaten Aceh Tamiang, Aceh";"Kabupaten Aceh Tamiang, Aceh";"ACEH";"";"Indonesia";"";"4.4405846";"98.1360921";"https://maps.google.com/?cid=0x0:0xe04c2bd9d3d421e8"
"toko bangunan";"Toko Bahan Bangunan";"Toko Tanjung Mulia Baru";"Jl. Letjend Suprapto No.8, Kota Kuala Simpang, Kabupaten Aceh Tamiang, Aceh 24475";"Kota Kuala Simpang, Kabupaten Aceh Tamiang";"ACEH";"24475";"Indonesia";" 082361611188";"4.2840128";"98.0601734";"https://maps.google.com/?cid=0x0:0x4f409804eac6f148"
"toko bangunan";"Pemasok Bahan Bangunan";"Nurta Jaya toko bangunan";"Ie Bintah, Kec. Manyak Payed, Kabupaten Aceh Tamiang, Aceh 24471";"Kec. Manyak Payed, Kabupaten Aceh Tamiang";"ACEH";"24471";"Indonesia";"";"4.3993038";"98.0680627";"https://maps.google.com/?cid=0x0:0x71f50b7c59ae06b4"
"toko bangunan";"Toko Perlengkapan Rumah";"TOKO BESI DAN BAHAN BANGUNAN CAHAYA ABADI";"93XC+G3J, Jl. Lintas Sumatra, Tualang Baru, Kec. Manyak Payed, Kabupaten Aceh Tamiang, Aceh 24471";"Jl. Lintas Sumatra, Tualang Baru, Kec. Manyak Payed, Kabupaten Aceh Tamiang";"ACEH";"24471";"Indonesia";" 082167658373";"4.3988716";"98.0700961";"https://maps.google.com/?cid=0x0:0x351e338af5b61e09"
"toko bangunan";"Toko Bahan Bangunan";"Toko Bangunan Umran";"Jl. Medan Banda Aceh No.63, Seumadam, Kec. Kejuruan Muda, Kabupaten Aceh Tamiang, Aceh 24474";"Seumadam, Kec. Kejuruan Muda, Kabupaten Aceh Tamiang";"ACEH";"24474";"Indonesia";" 08126476231";"4.1821682";"98.0517118";"https://maps.google.com/?cid=0x0:0xc1453692ad2b177f"
"toko bangunan";"Toko Perlengkapan Rumah";"Toko SH BANGUNAN";"Jl, Muka Sungai Kuruk, Kec. Seuruway, Kabupaten Aceh Tamiang, Aceh";"Kabupaten Aceh Tamiang, Aceh";"ACEH";"";"Indonesia";"";"4.3541556";"98.1853171";"https://maps.google.com/?cid=0x0:0x9851477dd1a1f493"
"toko bangunan";"Toko Bahan Bangunan";"ASNAH ALAT BANGUNAN";"953M+M6P, Unnamed Road, Peukan Seuruway, Kec. Seuruway, Kabupaten Aceh Tamiang, Aceh 24472";"Unnamed Road, Peukan Seuruway, Kec. Seuruway, Kabupaten Aceh Tamiang";"ACEH";"24472";"Indonesia";"";"4.3542106";"98.1830639";"https://maps.google.com/?cid=0x0:0x2ca039ce29a36dc9"
"toko bangunan";"Toko Bahan Bangunan";"Toko Bangunan RAYA MULIA 2";"Jl. Prada Utama, Lamgugob, Kec. Syiah Kuala, Kota Banda Aceh, Aceh";"Kota Banda Aceh, Aceh";"ACEH";"";"Indonesia";" 08116806596";"5.5749662";"95.3550309";"https://maps.google.com/?cid=0x0:0xd31eb58cf56fe415"
"toko bangunan";"Toko Bahan Bangunan";"Toko Bangunan Agung Mulia";"H88F+RP8, Jl. Teungku Di Blang, Mulia, Kec. Kuta Alam, Kota Banda Aceh, Aceh";"Kota Banda Aceh, Aceh";"ACEH";"";"Indonesia";" 082262506854";"5.567047";"95.3243291";"https://maps.google.com/?cid=0x0:0xa00ac4c4de2d7614"
"toko bangunan";"Toko Alat Tulis Kantor";"TOKO BANGUNAN PANDA PRIMA";"73P3+Q42, Kesehatan, Kec. Karang Baru, Kabupaten Aceh Tamiang, Aceh 24456";"Kesehatan, Kec. Karang Baru, Kabupaten Aceh Tamiang";"ACEH";"24456";"Indonesia";" 085260856696";"4.287018";"98.0526676";"https://maps.google.com/?cid=0x0:0x2125bb49c07f528d"
"toko bangunan";"Toko Bahan Bangunan";"Raya Mulia Bangunan";"Jl. Laksamana Malahayati, Labuy, Kec. Baitussalam, Kabupaten Aceh Besar, Aceh";"Kabupaten Aceh Besar, Aceh";"ACEH";"";"Indonesia";" 081360648269";"5.6141233";"95.3979678";"https://maps.google.com/?cid=0x0:0x27a59e95d3ee7b96"
"toko bangunan";"Toko Bahan Bangunan";"TOKO SUBUR JAYA";"Desa Simpang IV, Upah, Kec. Karang Baru, Kabupaten Aceh Tamiang, Aceh 24474";"Upah, Kec. Karang Baru, Kabupaten Aceh Tamiang";"ACEH";"24474";"Indonesia";" 085227072369";"4.3706584";"98.0962068";"https://maps.google.com/?cid=0x0:0x93900b7b6e6e7db1"
"toko bangunan";"Toko Bahan Bangunan";"Toko bangunan, arrohman";"Purwodadi, Kec. Kejuruan Muda, Kabupaten Aceh Tamiang, Aceh 24475";"Kec. Kejuruan Muda, Kabupaten Aceh Tamiang";"ACEH";"24475";"Indonesia";" 082316146356";"4.2182002";"98.0691677";"https://maps.google.com/?cid=0x0:0x8c52495e70679bb7"
"toko bangunan";"Pasar bahan bangunan";"TOKO bangunan semangat baru";"Alur Cucur, Kec. Rantau, Kabupaten Aceh Tamiang, Aceh";"Kabupaten Aceh Tamiang, Aceh";"ACEH";"";"Indonesia";" 082363836607";"4.3156605";"98.1092816";"https://maps.google.com/?cid=0x0:0xf8cdbba6c12b88d1"
"toko bangunan";"toko bangunan";"Kec. Bandar Pusaka";"Kabupaten Aceh Tamiang, Aceh";"Kabupaten Aceh Tamiang, Aceh";"ACEH";"";"Indonesia";"";"4.2948637";"97.8778752";"https://maps.google.com/?cid=0x0:0x2b7834261cf3e187"
"toko bangunan";"Toko Bahan Bangunan";"Toko bangunan";"7VVH+V2G, Babo, Kec. Bandar Pusaka, Kabupaten Aceh Tamiang, Aceh 24456";"Babo, Kec. Bandar Pusaka, Kabupaten Aceh Tamiang";"ACEH";"24456";"Indonesia";" 08527799912";"4.2946931";"97.8775738";"https://maps.google.com/?cid=0x0:0xcb5b4bb21b3fe6e0"
"toko bangunan";"Toko Perlengkapan Rumah";"Zainal";"7W36+H5X, Unnamed Road, Jambo Rambong, Kec. Bandar Pusaka, Kabupaten Aceh Tamiang, Aceh 24382";"Unnamed Road, Jambo Rambong, Kec. Bandar Pusaka, Kabupaten Aceh Tamiang";"ACEH";"24382";"Indonesia";"";"4.2539798";"97.9104986";"https://maps.google.com/?cid=0x0:0xf03a4ded06c8cac9"
"toko bangunan";"toko bangunan";"Kec. Bendahara";"Kabupaten Aceh Tamiang, Aceh";"Kabupaten Aceh Tamiang, Aceh";"ACEH";"";"Indonesia";"";"4.4074501";"98.1695001";"https://maps.google.com/?cid=0x0:0xa3729d585ef6a9a8"
"toko bangunan";"Pemasok Bahan Bangunan";"Nurta Jaya toko bangunan";"Ie Bintah, Kec. Manyak Payed, Kabupaten Aceh Tamiang, Aceh 24471";"Kec. Manyak Payed, Kabupaten Aceh Tamiang";"ACEH";"24471";"Indonesia";"";"4.3993038";"98.0680627";"https://maps.google.com/?cid=0x0:0x71f50b7c59ae06b4"
"toko bangunan";"Toko Bahan Bangunan";"Toko bangunan sinar utara";"95M6+RRW, Jl. Medan B. Aceh, Seuneubok Dalam Mesjid, Banda Aceh, Kabupaten Aceh Tamiang, Aceh 24472";"Jl. Medan B. Aceh, Seuneubok Dalam Mesjid, Banda Aceh, Kabupaten Aceh Tamiang";"ACEH";"24472";"Indonesia";" 085262303826";"4.3847402";"98.1627285";"https://maps.google.com/?cid=0x0:0x5ca1257abddb6f4e"
"toko bangunan";"Toko Bahan Bangunan";"ASNAH ALAT BANGUNAN";"953M+M6P, Unnamed Road, Peukan Seuruway, Kec. Seuruway, Kabupaten Aceh Tamiang, Aceh 24472";"Unnamed Road, Peukan Seuruway, Kec. Seuruway, Kabupaten Aceh Tamiang";"ACEH";"24472";"Indonesia";"";"4.3542106";"98.1830639";"https://maps.google.com/?cid=0x0:0x2ca039ce29a36dc9"
"toko bangunan";"Toko Perlengkapan Rumah";"Toko SH BANGUNAN";"Jl, Muka Sungai Kuruk, Kec. Seuruway, Kabupaten Aceh Tamiang, Aceh";"Kabupaten Aceh Tamiang, Aceh";"ACEH";"";"Indonesia";"";"4.3541556";"98.1853171";"https://maps.google.com/?cid=0x0:0x9851477dd1a1f493"
"toko bangunan";"Toko Perlengkapan Rumah";"AS JAYA";"953M+M5G, Peukan Seuruway, Kec. Seuruway, Kabupaten Aceh Tamiang, Aceh 24472";"Peukan Seuruway, Kec. Seuruway, Kabupaten Aceh Tamiang";"ACEH";"24472";"Indonesia";"";"4.3541603";"98.1828977";"https://maps.google.com/?cid=0x0:0x1f30c0ab5273b0e2"
"toko bangunan";"Toko Bahan Bangunan";"Toko bangunan roda selatan";"93CW+5QP, Jl. Tugu Opak, Simpang Empat, Kec. Karang Baru, Kabupaten Aceh Tamiang, Aceh";"Kabupaten Aceh Tamiang, Aceh";"ACEH";"";"Indonesia";"";"4.3703921";"98.0968975";"https://maps.google.com/?cid=0x0:0x957dd7eb1db72dda"
"toko bangunan";"Toko Bahan Bangunan";"Afdalzikri";"93GH+JGF, Kebun Tj. Seumantoh, Kec. Karang Baru, Kabupaten Aceh Tamiang, Aceh 24471";"Kebun Tj. Seumantoh, Kec. Karang Baru, Kabupaten Aceh Tamiang";"ACEH";"24471";"Indonesia";"";"4.3765619";"98.0788099";"https://maps.google.com/?cid=0x0:0xd8aea92cbd9f3d65"
"toko bangunan";"Toko Bahan Bangunan";"TOKO SUBUR JAYA";"Desa Simpang IV, Upah, Kec. Karang Baru, Kabupaten Aceh Tamiang, Aceh 24474";"Upah, Kec. Karang Baru, Kabupaten Aceh Tamiang";"ACEH";"24474";"Indonesia";" 085227072369";"4.3706584";"98.0962068";"https://maps.google.com/?cid=0x0:0x93900b7b6e6e7db1"
"toko bangunan";"Toko Bahan Bangunan";"Zahra Bangunan";"Jl. Dr. Mr. Mohd Hasan, Batoh, Kec. Lueng Bata, Kota Banda Aceh, Aceh 23127";"Batoh, Kec. Lueng Bata, Kota Banda Aceh";"ACEH";"23127";"Indonesia";" 083191742636";"5.5425651";"95.3305542";"https://maps.google.com/?cid=0x0:0x9785538145c2ac3"
"toko bangunan";"Toko Bahan Bangunan";"SULTAN JAYA(TOKO BANGUNAN)";"Jl. Bandara Sultan Iskandar Muda, Ajee Cut, Kec. Ingin Jaya, Kabupaten Aceh Besar, Aceh 24411";"Ajee Cut, Kec. Ingin Jaya, Kabupaten Aceh Besar";"ACEH";"24411";"Indonesia";" 085362992535";"5.510563";"95.3880613";"https://maps.google.com/?cid=0x0:0xaa81de74e089cb09"
"toko bangunan";"Toko Perlengkapan Rumah";"Toko bangunan pacific baru";"62Q4+HH4, Jl. PT. KKA, Paloh Lada, Kec. Dewantara, Kabupaten Aceh Utara, Aceh";"Kabupaten Aceh Utara, Aceh";"ACEH";"";"Indonesia";" 081321534311";"5.23888";"97.00644";"https://maps.google.com/?cid=0x0:0x7f761c0e1a87072"
"toko bangunan";"Toko Bahan Bangunan";"UD.SAUDARA( PAK LU )";"Peukan Seuruway, Kec. Seuruway, Kabupaten Aceh Tamiang, Aceh 24472";"Kec. Seuruway, Kabupaten Aceh Tamiang";"ACEH";"24472";"Indonesia";"";"4.3541822";"98.1829655";"https://maps.google.com/?cid=0x0:0xfa281a32eb99bbbd"
"toko bangunan";"Toko Bahan Bangunan";"Toko Bangunan Pacific Jaya";"62R4+5VM, Paloh Lada, Kec. Dewantara, Kabupaten Aceh Utara, Aceh";"Kabupaten Aceh Utara, Aceh";"ACEH";"";"Indonesia";"";"5.2404522";"97.0071786";"https://maps.google.com/?cid=0x0:0xb01dad4468be43c1"
"toko bangunan";"toko bangunan";"Aceh 24476";"Kabupaten Aceh Tamiang, Aceh";"Kabupaten Aceh Tamiang, Aceh";"ACEH";"";"Indonesia";"";"4.3288776";"98.0628862";"https://maps.google.com/?cid=0x0:0x82d848b4ba041829"
"toko bangunan";"Toko Alat Tulis Kantor";"TOKO BANGUNAN PANDA PRIMA";"73P3+Q42, Kesehatan, Kec. Karang Baru, Kabupaten Aceh Tamiang, Aceh 24456";"Kesehatan, Kec. Karang Baru, Kabupaten Aceh Tamiang";"ACEH";"24456";"Indonesia";" 085260856696";"4.287018";"98.0526676";"https://maps.google.com/?cid=0x0:0x2125bb49c07f528d"
"toko bangunan";"Toko Bahan Bangunan";"Irfab Gyfsum";"8385+WQ6, Jalan Medan Langsa, Karang Baru, Madang Ara, Gampong Johar, Kec. Karang Baru, Kabupaten Aceh Tamiang, Aceh 24476";"Jalan Medan Langsa, Karang Baru, Madang Ara, Gampong Johar, Kec. Karang Baru, Kabupaten Aceh Tamiang";"ACEH";"24476";"Indonesia";" 082160415169";"4.317295";"98.059384";"https://maps.google.com/?cid=0x0:0x4a63435d2a116859"
"toko bangunan";"Toko Bahan Bangunan";"Toko Tanjung Mulia Baru";"Jl. Letjend Suprapto No.8, Kota Kuala Simpang, Kabupaten Aceh Tamiang, Aceh 24475";"Kota Kuala Simpang, Kabupaten Aceh Tamiang";"ACEH";"24475";"Indonesia";" 082361611188";"4.2840128";"98.0601734";"https://maps.google.com/?cid=0x0:0x4f409804eac6f148"
"toko bangunan";"toko bangunan";"MISRA MANDIRI JAYA";"73P7+MQG, Bukit Tempurung, Kota Kuala Simpang, Kabupaten Aceh Tamiang, Aceh 24456";"Bukit Tempurung, Kota Kuala Simpang, Kabupaten Aceh Tamiang";"ACEH";"24456";"Indonesia";"";"4.2866875";"98.0644531";"https://maps.google.com/?cid=0x0:0xcb1908e601e41c6"
"toko bangunan";"Toko Kaca";"Toko Bangunan Bintang Jaya Kampung Durian";"Jl. Sapta Jaya dusun metro jaya, Kp. Durian, Kota Kuala Simpang, Kabupaten Aceh Tamiang, Aceh 24474";"Kp. Durian, Kota Kuala Simpang, Kabupaten Aceh Tamiang";"ACEH";"24474";"Indonesia";" 082259439707";"4.2953519";"98.083651";"https://maps.google.com/?cid=0x0:0x4f08d170b51aa435"
"toko bangunan";"Toko Bahan Bangunan";"UD Aceh Jaya Toko Bangunan Siti Asmawati";"83FV+W87, Alur Manis, Kec. Rantau, Kabupaten Aceh Tamiang, Aceh";"Kabupaten Aceh Tamiang, Aceh";"ACEH";"";"Indonesia";" 085210270282";"4.3247897";"98.0933082";"https://maps.google.com/?cid=0x0:0x360a77eff13df3dc"
"toko bangunan";"Toko Perlengkapan Rumah";"Marga Agung";"Jalan panglima polem No.7 9, RW.11, Kuala Simpang City, Aceh Tamiang Regency, Aceh 24456";"RW.11, Kuala Simpang City, Aceh Tamiang Regency";"ACEH";"24456";"Indonesia";" 0641333228";"4.283875";"98.0575874";"https://maps.google.com/?cid=0x0:0x98803e320738b95e"
"toko bangunan";"Toko Perlengkapan Rumah";"Toko Abadi Baja";"Jl. Cut Nyak Dien, Sriwijaya, Kota Kuala Simpang, Kabupaten Aceh Tamiang, Aceh 24456";"Sriwijaya, Kota Kuala Simpang, Kabupaten Aceh Tamiang";"ACEH";"24456";"Indonesia";"";"4.2825861";"98.0610626";"https://maps.google.com/?cid=0x0:0xbc15d01e42b99be1"
"toko bangunan";"Toko Bahan Bangunan";"Toko Bangunan UD. Famili ANEL";"73RC+8VW, Jalan, Benua Raja, Rantau, Aceh Tamiang Regency, Aceh";"Kabupaten Aceh Tamiang, Aceh";"ACEH";"";"Indonesia";"";"4.2908623";"98.0721965";"https://maps.google.com/?cid=0x0:0xc808d2785c513d16"
"toko bangunan";"Toko Bahan Bangunan";"AL FATH PLAFON";"Jl.Lintas Medan Jl. Medan Banda Aceh, Tanah Terban, Kec. Karang Baru, Kabupaten Aceh Tamiang, Aceh";"Kabupaten Aceh Tamiang, Aceh";"ACEH";"";"Indonesia";"";"4.3174148";"98.0594178";"https://maps.google.com/?cid=0x0:0x18b80f37bd569e4c"
"toko bangunan";"Toko Bahan Bangunan";"Toko Bangun Cemerlang";"72VX+2R3, Gampong Bundar, Kec. Karang Baru, Kabupaten Aceh Tamiang, Aceh 24456";"Gampong Bundar, Kec. Karang Baru, Kabupaten Aceh Tamiang";"ACEH";"24456";"Indonesia";"";"4.292512";"98.0495532";"https://maps.google.com/?cid=0x0:0x950e021d55993633"
"toko bangunan";"Toko Bahan Bangunan";"Tanjung K Gypsum";"73M6+R52, JL. IR. H. Juanda, Kuala Simpang, Aceh Tamiang, Kota Kuala Simpang, Banda Aceh, Kabupaten Aceh Tamiang, Aceh 24456";"JL. IR. H. Juanda, Kuala Simpang, Aceh Tamiang, Kota Kuala Simpang, Banda Aceh, Kabupaten Aceh Tamiang";"ACEH";"24456";"Indonesia";" 085260972932";"4.2845072";"98.0603957";"https://maps.google.com/?cid=0x0:0x8fe99a4bcbf347df"
"toko bangunan";"Toko Perlengkapan Rumah";"Toko SH BANGUNAN";"Jl, Muka Sungai Kuruk, Kec. Seuruway, Kabupaten Aceh Tamiang, Aceh";"Kabupaten Aceh Tamiang, Aceh";"ACEH";"";"Indonesia";"";"4.3541556";"98.1853171";"https://maps.google.com/?cid=0x0:0x9851477dd1a1f493"
"toko bangunan";"Toko Bahan Bangunan";"Toko Bangunan Umran";"Jl. Medan Banda Aceh No.63, Seumadam, Kec. Kejuruan Muda, Kabupaten Aceh Tamiang, Aceh 24474";"Seumadam, Kec. Kejuruan Muda, Kabupaten Aceh Tamiang";"ACEH";"24474";"Indonesia";" 08126476231";"4.1821682";"98.0517118";"https://maps.google.com/?cid=0x0:0xc1453692ad2b177f"
"toko bangunan";"toko bangunan";"Kec. Kejuruan Muda";"Kabupaten Aceh Tamiang, Aceh";"Kabupaten Aceh Tamiang, Aceh";"ACEH";"";"Indonesia";"";"4.2310452";"98.0585627";"https://maps.google.com/?cid=0x0:0x31c3ba765be70142"
"toko bangunan";"Toko Bahan Bangunan";"Toko Tanjung Mulia Baru";"Jl. Letjend Suprapto No.8, Kota Kuala Simpang, Kabupaten Aceh Tamiang, Aceh 24475";"Kota Kuala Simpang, Kabupaten Aceh Tamiang";"ACEH";"24475";"Indonesia";" 082361611188";"4.2840128";"98.0601734";"https://maps.google.com/?cid=0x0:0x4f409804eac6f148"
"toko bangunan";"Toko Bahan Bangunan";"Toko Cahaya Muda";"5X75+697, Perk Pulau Tiga, Kec. Tamiang Hulu, Kabupaten Aceh Tamiang, Aceh 24477";"Perk Pulau Tiga, Kec. Tamiang Hulu, Kabupaten Aceh Tamiang";"ACEH";"24477";"Indonesia";" 085260996888";"4.1630307";"97.9584191";"https://maps.google.com/?cid=0x0:0xd4b9e37b778ae27f"
"toko bangunan";"toko bangunan";"MISRA MANDIRI JAYA";"73P7+MQG, Bukit Tempurung, Kota Kuala Simpang, Kabupaten Aceh Tamiang, Aceh 24456";"Bukit Tempurung, Kota Kuala Simpang, Kabupaten Aceh Tamiang";"ACEH";"24456";"Indonesia";"";"4.2866875";"98.0644531";"https://maps.google.com/?cid=0x0:0xcb1908e601e41c6"
"toko bangunan";"Toko Alat Tulis Kantor";"TOKO BANGUNAN PANDA PRIMA";"73P3+Q42, Kesehatan, Kec. Karang Baru, Kabupaten Aceh Tamiang, Aceh 24456";"Kesehatan, Kec. Karang Baru, Kabupaten Aceh Tamiang";"ACEH";"24456";"Indonesia";" 085260856696";"4.287018";"98.0526676";"https://maps.google.com/?cid=0x0:0x2125bb49c07f528d"
"toko bangunan";"Toko Bahan Bangunan";"Tanjung K Gypsum";"73M6+R52, JL. IR. H. Juanda, Kuala Simpang, Aceh Tamiang, Kota Kuala Simpang, Banda Aceh, Kabupaten Aceh Tamiang, Aceh 24456";"JL. IR. H. Juanda, Kuala Simpang, Aceh Tamiang, Kota Kuala Simpang, Banda Aceh, Kabupaten Aceh Tamiang";"ACEH";"24456";"Indonesia";" 085260972932";"4.2845072";"98.0603957";"https://maps.google.com/?cid=0x0:0x8fe99a4bcbf347df"
"toko bangunan";"Toko Perlengkapan Rumah";"Toko Abadi Baja";"Jl. Cut Nyak Dien, Sriwijaya, Kota Kuala Simpang, Kabupaten Aceh Tamiang, Aceh 24456";"Sriwijaya, Kota Kuala Simpang, Kabupaten Aceh Tamiang";"ACEH";"24456";"Indonesia";"";"4.2825861";"98.0610626";"https://maps.google.com/?cid=0x0:0xbc15d01e42b99be1"
"toko bangunan";"Toko Perlengkapan Rumah";"Marga Agung";"Jalan panglima polem No.7 9, RW.11, Kuala Simpang City, Aceh Tamiang Regency, Aceh 24456";"RW.11, Kuala Simpang City, Aceh Tamiang Regency";"ACEH";"24456";"Indonesia";" 0641333228";"4.283875";"98.0575874";"https://maps.google.com/?cid=0x0:0x98803e320738b95e"
"toko bangunan";"Toko Bahan Bangunan";"PD. Bachtiar Ama";"63P7+H9Q, Pangkalan, Kec. Kejuruan Muda, Kabupaten Aceh Tamiang, Aceh 24475";"Pangkalan, Kec. Kejuruan Muda, Kabupaten Aceh Tamiang";"ACEH";"24475";"Indonesia";" 0620543091";"4.236475";"98.0634718";"https://maps.google.com/?cid=0x0:0xd4728685837f28ee"
"toko bangunan";"Pemasok Bahan Bangunan";"SUMBER BATU ALAM ACEH TAMIANG (BENUA RAJA)";"73QC+739, Benua Raja, Kec. Rantau, Kabupaten Aceh Tamiang, Aceh";"Kabupaten Aceh Tamiang, Aceh";"ACEH";"";"Indonesia";" 085254511251";"4.2881819";"98.0702637";"https://maps.google.com/?cid=0x0:0xf289b362d80572ad"
"toko bangunan";"Toko Kaca >>u0026 Cermin";"Dunia Kaca";"JL. Letjend. Suprapto, No. 10, Kota Kuala Simpang, Kabupaten Aceh Tamiang, Aceh 24456";"No. 10, Kota Kuala Simpang, Kabupaten Aceh Tamiang";"ACEH";"24456";"Indonesia";" 064131174";"4.283451";"98.059501";"https://maps.google.com/?cid=0x0:0xeb9d0d40f915be7a"
"toko bangunan";"Toko Bahan Bangunan";"toko bangunan haryono";"62H4+4XQ, Tj. Genteng, Kec. Kejuruan Muda, Kabupaten Aceh Tamiang, Aceh 24474";"Tj. Genteng, Kec. Kejuruan Muda, Kabupaten Aceh Tamiang";"ACEH";"24474";"Indonesia";"";"4.228019";"98.007308";"https://maps.google.com/?cid=0x0:0x69d521fd3acdb92e"
"toko bangunan";"Toko Bahan Bangunan";"Toko Besi Semesta";"Jl. Ahmad Yani No.15, Kota Kuala Simpang, Kabupaten Aceh Tamiang, Aceh 24456";"Kota Kuala Simpang, Kabupaten Aceh Tamiang";"ACEH";"24456";"Indonesia";" 064131243";"4.2848593";"98.0591487";"https://maps.google.com/?cid=0x0:0x9c76f173c40f573c"
"toko bangunan";"Toko Perlengkapan Rumah";"Marga Agung";"Jalan panglima polem No.7 9, RW.11, Kuala Simpang City, Aceh Tamiang Regency, Aceh 24456";"RW.11, Kuala Simpang City, Aceh Tamiang Regency";"ACEH";"24456";"Indonesia";" 0641333228";"4.283875";"98.0575874";"https://maps.google.com/?cid=0x0:0x98803e320738b95e"
"toko bangunan";"toko bangunan";"Aceh 24475";"Kec. Linge, Kabupaten Aceh Tengah, Aceh";"Kabupaten Aceh Tengah, Aceh";"ACEH";"";"Indonesia";"";"4.2473925";"98.0738001";"https://maps.google.com/?cid=0x0:0x54d58570dde5bc9e"
"toko bangunan";"Toko Perlengkapan Rumah";"TOKO AL RAZAQ PERABOT";"Jl. Letjend Suprapto, Kota Kuala Simpang, Kabupaten Aceh Tamiang, Aceh 24456";"Kota Kuala Simpang, Kabupaten Aceh Tamiang";"ACEH";"24456";"Indonesia";" 085213871353";"4.2838478";"98.0589618";"https://maps.google.com/?cid=0x0:0xedfff1e611000aca"
"toko bangunan";"Toko";"Bintang terang Kuala Simpang Aceh tamiang";"Jln k.s tubun No.4, Kota Kuala Simpang, Kabupaten Aceh Tamiang, Aceh 24475";"Kota Kuala Simpang, Kabupaten Aceh Tamiang";"ACEH";"24475";"Indonesia";" 085361553333";"4.283777";"98.058112";"https://maps.google.com/?cid=0x0:0x8e8e76edb9d73ac7"
"toko bangunan";"Toko";"TOKO PERABOT BINTANG TERANG 2";"73M5+GHP, Jl. Letjend Suprapto, Kota Kuala Simpang, Kabupaten Aceh Tamiang, Aceh 24456";"Jl. Letjend Suprapto, Kota Kuala Simpang, Kabupaten Aceh Tamiang";"ACEH";"24456";"Indonesia";"";"4.2838479";"98.058963";"https://maps.google.com/?cid=0x0:0x751f4f0b19b75878"
"toko bangunan";"Toko Perlengkapan Rumah";"Tamiang Perabot";"73M5+RW7, Unnamed Road, Kota Kuala Simpang, Kabupaten Aceh Tamiang, Aceh 24456";"Unnamed Road, Kota Kuala Simpang, Kabupaten Aceh Tamiang";"ACEH";"24456";"Indonesia";" 082168149069";"4.2845417";"98.059791";"https://maps.google.com/?cid=0x0:0xce295e85bb5ac46d"
"toko bangunan";"Toko Elektronik";"Toko Angkasa";"73P5+6VM, Jl. Cut Nyak Dien, Kota Kuala Simpang, Kabupaten Aceh Tamiang, Aceh 24456";"Jl. Cut Nyak Dien, Kota Kuala Simpang, Kabupaten Aceh Tamiang";"ACEH";"24456";"Indonesia";"";"4.2854626";"98.0596932";"https://maps.google.com/?cid=0x0:0x3d3469b59c3643cf"
"toko bangunan";"Pedagang tekstil";"Metro";"Jl. Letjend Suprapto No.6, Kota Kuala Simpang, Kabupaten Aceh Tamiang, Aceh 24456";"Kota Kuala Simpang, Kabupaten Aceh Tamiang";"ACEH";"24456";"Indonesia";" 064131070";"4.2837061";"98.0584593";"https://maps.google.com/?cid=0x0:0xd528d08760e56561"
"toko bangunan";"Toko Bahan Bangunan";"Toko bangunan roda selatan";"93CW+5QP, Jl. Tugu Opak, Simpang Empat, Kec. Karang Baru, Kabupaten Aceh Tamiang, Aceh";"Kabupaten Aceh Tamiang, Aceh";"ACEH";"";"Indonesia";"";"4.3703921";"98.0968975";"https://maps.google.com/?cid=0x0:0x957dd7eb1db72dda"
"toko bangunan";"Toko Kain Linen";"My Tex";"73P6+644, Bukit Tempurung, Kota Kuala Simpang, Kabupaten Aceh Tamiang, Aceh 24456";"Bukit Tempurung, Kota Kuala Simpang, Kabupaten Aceh Tamiang";"ACEH";"24456";"Indonesia";"";"4.2855015";"98.0603284";"https://maps.google.com/?cid=0x0:0xffa872db723a124c"
"toko bangunan";"Toko Mebel";"Ridho Perabot";"Jl M Dahlan No.44, Kota Kuala Simpang, Kabupaten Aceh Tamiang, Aceh 24456";"Kota Kuala Simpang, Kabupaten Aceh Tamiang";"ACEH";"24456";"Indonesia";" 082294863838";"4.2846741";"98.0590849";"https://maps.google.com/?cid=0x0:0x53c34355656bfbc7"
"toko bangunan";"Perhimpunan Pengembang Perumahan";"Kota lintang bawah";"Kota Kuala Simpang, Kabupaten Aceh Tamiang, Aceh";"Kabupaten Aceh Tamiang, Aceh";"ACEH";"";"Indonesia";" 083875720330";"4.2838371";"98.0581176";"https://maps.google.com/?cid=0x0:0xda609c3053a3b94d"
"toko bangunan";"Ahli Perhiasan";"Mewah";"JL. Jenderal Ahmad Yani, No. 26, A. Tamiang, Kota Kuala Simpang, Kabupaten Aceh Tamiang, Aceh 24456";"No. 26, A. Tamiang, Kota Kuala Simpang, Kabupaten Aceh Tamiang";"ACEH";"24456";"Indonesia";" 064132226";"4.2847721";"98.0593911";"https://maps.google.com/?cid=0x0:0x19b9a3eac9d705f0"
"toko bangunan";"Grosir";"TOKO JASA SAUDARA";"73P6+J49, Jl atas, Kota Lintang, Kota Kuala Simpang, Kabupaten Aceh Tamiang, Aceh 24456";"Jl atas, Kota Lintang, Kota Kuala Simpang, Kabupaten Aceh Tamiang";"ACEH";"24456";"Indonesia";" 082232100909";"4.2865375";"98.0603594";"https://maps.google.com/?cid=0x0:0xda9ecad90a94bb54"
"toko bangunan";"toko bangunan";"Aceh 24471";"Aceh";"Aceh";"ACEH";"";"Indonesia";"";"4.3465057";"97.8395151";"https://maps.google.com/?cid=0x0:0x6a96af07474c986b"
"toko bangunan";"Pemasok Bahan Bangunan";"Nurta Jaya toko bangunan";"Ie Bintah, Kec. Manyak Payed, Kabupaten Aceh Tamiang, Aceh 24471";"Kec. Manyak Payed, Kabupaten Aceh Tamiang";"ACEH";"24471";"Indonesia";"";"4.3993038";"98.0680627";"https://maps.google.com/?cid=0x0:0x71f50b7c59ae06b4"
"toko bangunan";"Toko Perlengkapan Rumah";"TOKO BESI DAN BAHAN BANGUNAN CAHAYA ABADI";"93XC+G3J, Jl. Lintas Sumatra, Tualang Baru, Kec. Manyak Payed, Kabupaten Aceh Tamiang, Aceh 24471";"Jl. Lintas Sumatra, Tualang Baru, Kec. Manyak Payed, Kabupaten Aceh Tamiang";"ACEH";"24471";"Indonesia";" 082167658373";"4.3988716";"98.0700961";"https://maps.google.com/?cid=0x0:0x351e338af5b61e09"
"toko bangunan";"Toko Bahan Bangunan";"Toko Setia Kawan";"JVF2+W48, Bale Atu, Kec. Lut Tawar, Kabupaten Aceh Tengah, Aceh 24519";"Bale Atu, Kec. Lut Tawar, Kabupaten Aceh Tengah";"ACEH";"24519";"Indonesia";" 064321692";"4.6247984";"96.8503199";"https://maps.google.com/?cid=0x0:0xf78c6bd2c4b87654"
"toko bangunan";"Toko Bahan Bangunan";"DUNIA KERAMIK";"Jl. Raya Bireuen - Takengon, Lut Kucak, Kec. Wih Pesam, Kabupaten Bener Meriah, Aceh 24471";"Lut Kucak, Kec. Wih Pesam, Kabupaten Bener Meriah";"ACEH";"24471";"Indonesia";" 085359224777";"4.7217518";"96.8076732";"https://maps.google.com/?cid=0x0:0x896396c6d007e666"
"toko bangunan";"Toko Bahan Bangunan";"Toko Tanjung Mulia Baru";"Jl. Letjend Suprapto No.8, Kota Kuala Simpang, Kabupaten Aceh Tamiang, Aceh 24475";"Kota Kuala Simpang, Kabupaten Aceh Tamiang";"ACEH";"24475";"Indonesia";" 082361611188";"4.2840128";"98.0601734";"https://maps.google.com/?cid=0x0:0x4f409804eac6f148"
"toko bangunan";"Toko Alat Tulis Kantor";"TOKO BANGUNAN PANDA PRIMA";"73P3+Q42, Kesehatan, Kec. Karang Baru, Kabupaten Aceh Tamiang, Aceh 24456";"Kesehatan, Kec. Karang Baru, Kabupaten Aceh Tamiang";"ACEH";"24456";"Indonesia";" 085260856696";"4.287018";"98.0526676";"https://maps.google.com/?cid=0x0:0x2125bb49c07f528d"
"toko bangunan";"Toko Bahan Bangunan";"Toko bangunan";"7VVH+V2G, Babo, Kec. Bandar Pusaka, Kabupaten Aceh Tamiang, Aceh 24456";"Babo, Kec. Bandar Pusaka, Kabupaten Aceh Tamiang";"ACEH";"24456";"Indonesia";" 08527799912";"4.2946931";"97.8775738";"https://maps.google.com/?cid=0x0:0xcb5b4bb21b3fe6e0"
"toko bangunan";"Toko Beras";"Toko Saudara Baru";"PQJW+83J, kabupaten b.meriah, Jl. Raya Bireuen - Takengon, Bener Mulie, Kec. Wih Pesam, Kabupaten Bener Meriah, Aceh 24471";"kabupaten b.meriah, Jl. Raya Bireuen - Takengon, Bener Mulie, Kec. Wih Pesam, Kabupaten Bener Meriah";"ACEH";"24471";"Indonesia";" 082239670406";"4.7308354";"96.7951392";"https://maps.google.com/?cid=0x0:0xa1e59d66d88131b0"
"toko bangunan";"Toko Bahan Bangunan";"MAJU BERSAMA";"6WV5+M66, Wono Sari, Kec. Tamiang Hulu, Kabupaten Aceh Tamiang, Aceh 24382";"Wono Sari, Kec. Tamiang Hulu, Kabupaten Aceh Tamiang";"ACEH";"24382";"Indonesia";" 085281788214";"4.2441543";"97.9080047";"https://maps.google.com/?cid=0x0:0xfcce97bffb40d002"
"toko bangunan";"Pasar bahan bangunan";"TOKO bangunan semangat baru";"Alur Cucur, Kec. Rantau, Kabupaten Aceh Tamiang, Aceh";"Kabupaten Aceh Tamiang, Aceh";"ACEH";"";"Indonesia";" 082363836607";"4.3156605";"98.1092816";"https://maps.google.com/?cid=0x0:0xf8cdbba6c12b88d1"
"toko bangunan";"toko bangunan";"MISRA MANDIRI JAYA";"73P7+MQG, Bukit Tempurung, Kota Kuala Simpang, Kabupaten Aceh Tamiang, Aceh 24456";"Bukit Tempurung, Kota Kuala Simpang, Kabupaten Aceh Tamiang";"ACEH";"24456";"Indonesia";"";"4.2866875";"98.0644531";"https://maps.google.com/?cid=0x0:0xcb1908e601e41c6"
"toko bangunan";"Toko Perlengkapan Rumah";"Toko SH BANGUNAN";"Jl, Muka Sungai Kuruk, Kec. Seuruway, Kabupaten Aceh Tamiang, Aceh";"Kabupaten Aceh Tamiang, Aceh";"ACEH";"";"Indonesia";"";"4.3541556";"98.1853171";"https://maps.google.com/?cid=0x0:0x9851477dd1a1f493"
"toko bangunan";"Toko Bahan Bangunan";"Toko Bangunan Umran";"Jl. Medan Banda Aceh No.63, Seumadam, Kec. Kejuruan Muda, Kabupaten Aceh Tamiang, Aceh 24474";"Seumadam, Kec. Kejuruan Muda, Kabupaten Aceh Tamiang";"ACEH";"24474";"Indonesia";" 08126476231";"4.1821682";"98.0517118";"https://maps.google.com/?cid=0x0:0xc1453692ad2b177f"
"toko bangunan";"Toko Bahan Bangunan";"Toko Cahaya Muda";"5X75+697, Perk Pulau Tiga, Kec. Tamiang Hulu, Kabupaten Aceh Tamiang, Aceh 24477";"Perk Pulau Tiga, Kec. Tamiang Hulu, Kabupaten Aceh Tamiang";"ACEH";"24477";"Indonesia";" 085260996888";"4.1630307";"97.9584191";"https://maps.google.com/?cid=0x0:0xd4b9e37b778ae27f"
"toko bangunan";"toko bangunan";"Aceh 24474";"Kec. Kejuruan Muda, Kabupaten Aceh Tamiang, Aceh";"Kabupaten Aceh Tamiang, Aceh";"ACEH";"";"Indonesia";"";"4.2123421";"98.0247005";"https://maps.google.com/?cid=0x0:0xe116e26a288dda02"
"toko bangunan";"Toko Bahan Bangunan";"Toko Bangunan Umran";"Jl. Medan Banda Aceh No.63, Seumadam, Kec. Kejuruan Muda, Kabupaten Aceh Tamiang, Aceh 24474";"Seumadam, Kec. Kejuruan Muda, Kabupaten Aceh Tamiang";"ACEH";"24474";"Indonesia";" 08126476231";"4.1821682";"98.0517118";"https://maps.google.com/?cid=0x0:0xc1453692ad2b177f"
"toko bangunan";"Toko Bahan Bangunan";"toko bangunan haryono";"62H4+4XQ, Tj. Genteng, Kec. Kejuruan Muda, Kabupaten Aceh Tamiang, Aceh 24474";"Tj. Genteng, Kec. Kejuruan Muda, Kabupaten Aceh Tamiang";"ACEH";"24474";"Indonesia";"";"4.228019";"98.007308";"https://maps.google.com/?cid=0x0:0x69d521fd3acdb92e"
"toko bangunan";"Toko Bahan Bangunan";"PD. Bachtiar Ama";"63P7+H9Q, Pangkalan, Kec. Kejuruan Muda, Kabupaten Aceh Tamiang, Aceh 24475";"Pangkalan, Kec. Kejuruan Muda, Kabupaten Aceh Tamiang";"ACEH";"24475";"Indonesia";" 0620543091";"4.236475";"98.0634718";"https://maps.google.com/?cid=0x0:0xd4728685837f28ee"
"toko bangunan";"Toko Bahan Bangunan";"MAJU BERSAMA";"6WV5+M66, Wono Sari, Kec. Tamiang Hulu, Kabupaten Aceh Tamiang, Aceh 24382";"Wono Sari, Kec. Tamiang Hulu, Kabupaten Aceh Tamiang";"ACEH";"24382";"Indonesia";" 085281788214";"4.2441543";"97.9080047";"https://maps.google.com/?cid=0x0:0xfcce97bffb40d002"
"toko bangunan";"Toko Bahan Bangunan";"BAHARI JAYA PLAPON";"63J5+767, Pangkalan, Kec. Kejuruan Muda, Kabupaten Aceh Tamiang, Aceh";"Kabupaten Aceh Tamiang, Aceh";"ACEH";"";"Indonesia";"";"4.2306583";"98.0580593";"https://maps.google.com/?cid=0x0:0xb92eb44c523b65d5"
"toko bangunan";"Toko Bahan Bangunan";"Toko Bangunan UD. Famili ANEL";"73RC+8VW, Jalan, Benua Raja, Rantau, Aceh Tamiang Regency, Aceh";"Kabupaten Aceh Tamiang, Aceh";"ACEH";"";"Indonesia";"";"4.2908623";"98.0721965";"https://maps.google.com/?cid=0x0:0xc808d2785c513d16"
"toko bangunan";"Pemasok Bahan Bangunan";"SUMBER BATU ALAM ACEH TAMIANG (BENUA RAJA)";"73QC+739, Benua Raja, Kec. Rantau, Kabupaten Aceh Tamiang, Aceh";"Kabupaten Aceh Tamiang, Aceh";"ACEH";"";"Indonesia";" 085254511251";"4.2881819";"98.0702637";"https://maps.google.com/?cid=0x0:0xf289b362d80572ad"
"toko bangunan";"Pasar bahan bangunan";"TOKO bangunan semangat baru";"Alur Cucur, Kec. Rantau, Kabupaten Aceh Tamiang, Aceh";"Kabupaten Aceh Tamiang, Aceh";"ACEH";"";"Indonesia";" 082363836607";"4.3156605";"98.1092816";"https://maps.google.com/?cid=0x0:0xf8cdbba6c12b88d1"
"toko bangunan";"Toko Alat Tulis Kantor";"TOKO BANGUNAN PANDA PRIMA";"73P3+Q42, Kesehatan, Kec. Karang Baru, Kabupaten Aceh Tamiang, Aceh 24456";"Kesehatan, Kec. Karang Baru, Kabupaten Aceh Tamiang";"ACEH";"24456";"Indonesia";" 085260856696";"4.287018";"98.0526676";"https://maps.google.com/?cid=0x0:0x2125bb49c07f528d"
"toko bangunan";"toko bangunan";"MISRA MANDIRI JAYA";"73P7+MQG, Bukit Tempurung, Kota Kuala Simpang, Kabupaten Aceh Tamiang, Aceh 24456";"Bukit Tempurung, Kota Kuala Simpang, Kabupaten Aceh Tamiang";"ACEH";"24456";"Indonesia";"";"4.2866875";"98.0644531";"https://maps.google.com/?cid=0x0:0xcb1908e601e41c6"
"toko bangunan";"Toko Bahan Bangunan";"Toko bangunan gunung lampu";"Jl. Rantau, Bukit Tempurung, Kota Kuala Simpang, Kabupaten Aceh Tamiang, Aceh 24475";"Bukit Tempurung, Kota Kuala Simpang, Kabupaten Aceh Tamiang";"ACEH";"24475";"Indonesia";" 082177325596";"4.2859138";"98.0631398";"https://maps.google.com/?cid=0x0:0x760175408c9aa1e9"
"toko bangunan";"Toko Perlengkapan Rumah";"Marga Agung";"Jalan panglima polem No.7 9, RW.11, Kuala Simpang City, Aceh Tamiang Regency, Aceh 24456";"RW.11, Kuala Simpang City, Aceh Tamiang Regency";"ACEH";"24456";"Indonesia";" 0641333228";"4.283875";"98.0575874";"https://maps.google.com/?cid=0x0:0x98803e320738b95e"
"toko bangunan";"toko bangunan";"Aceh 24476";"Kabupaten Aceh Tamiang, Aceh";"Kabupaten Aceh Tamiang, Aceh";"ACEH";"";"Indonesia";"";"4.3288776";"98.0628862";"https://maps.google.com/?cid=0x0:0x82d848b4ba041829"
"toko bangunan";"toko bangunan";"MISRA MANDIRI JAYA";"73P7+MQG, Bukit Tempurung, Kota Kuala Simpang, Kabupaten Aceh Tamiang, Aceh 24456";"Bukit Tempurung, Kota Kuala Simpang, Kabupaten Aceh Tamiang";"ACEH";"24456";"Indonesia";"";"4.2866875";"98.0644531";"https://maps.google.com/?cid=0x0:0xcb1908e601e41c6"
"toko bangunan";"Toko Bahan Bangunan";"Irfab Gyfsum";"8385+WQ6, Jalan Medan Langsa, Karang Baru, Madang Ara, Gampong Johar, Kec. Karang Baru, Kabupaten Aceh Tamiang, Aceh 24476";"Jalan Medan Langsa, Karang Baru, Madang Ara, Gampong Johar, Kec. Karang Baru, Kabupaten Aceh Tamiang";"ACEH";"24476";"Indonesia";" 082160415169";"4.317295";"98.059384";"https://maps.google.com/?cid=0x0:0x4a63435d2a116859"
"toko bangunan";"Toko Bahan Bangunan";"Toko bangunan sinar utara";"95M6+RRW, Jl. Medan B. Aceh, Seuneubok Dalam Mesjid, Banda Aceh, Kabupaten Aceh Tamiang, Aceh 24472";"Jl. Medan B. Aceh, Seuneubok Dalam Mesjid, Banda Aceh, Kabupaten Aceh Tamiang";"ACEH";"24472";"Indonesia";" 085262303826";"4.3847402";"98.1627285";"https://maps.google.com/?cid=0x0:0x5ca1257abddb6f4e"
"toko bangunan";"Pemasok Bahan Bangunan";"Nurta Jaya toko bangunan";"Ie Bintah, Kec. Manyak Payed, Kabupaten Aceh Tamiang, Aceh 24471";"Kec. Manyak Payed, Kabupaten Aceh Tamiang";"ACEH";"24471";"Indonesia";"";"4.3993038";"98.0680627";"https://maps.google.com/?cid=0x0:0x71f50b7c59ae06b4"
"toko bangunan";"Toko Kaca";"Toko Bangunan Bintang Jaya Kampung Durian";"Jl. Sapta Jaya dusun metro jaya, Kp. Durian, Kota Kuala Simpang, Kabupaten Aceh Tamiang, Aceh 24474";"Kp. Durian, Kota Kuala Simpang, Kabupaten Aceh Tamiang";"ACEH";"24474";"Indonesia";" 082259439707";"4.2953519";"98.083651";"https://maps.google.com/?cid=0x0:0x4f08d170b51aa435"
"toko bangunan";"Toko Perlengkapan Rumah";"Toko zack n co";"FX6C+5FJ, Jl. Karya, Sidodadi, Kec. Langsa Lama, Kota Langsa, Aceh 24354";"Jl. Karya, Sidodadi, Kec. Langsa Lama, Kota Langsa";"ACEH";"24354";"Indonesia";"";"4.4604681";"97.9711302";"https://maps.google.com/?cid=0x0:0x682875e2bfe4a707"
"toko bangunan";"Toko Perlengkapan Rumah";"Toko SH BANGUNAN";"Jl, Muka Sungai Kuruk, Kec. Seuruway, Kabupaten Aceh Tamiang, Aceh";"Kabupaten Aceh Tamiang, Aceh";"ACEH";"";"Indonesia";"";"4.3541556";"98.1853171";"https://maps.google.com/?cid=0x0:0x9851477dd1a1f493"
"toko bangunan";"Toko Alat Tulis Kantor";"TOKO BANGUNAN PANDA PRIMA";"73P3+Q42, Kesehatan, Kec. Karang Baru, Kabupaten Aceh Tamiang, Aceh 24456";"Kesehatan, Kec. Karang Baru, Kabupaten Aceh Tamiang";"ACEH";"24456";"Indonesia";" 085260856696";"4.287018";"98.0526676";"https://maps.google.com/?cid=0x0:0x2125bb49c07f528d"
"toko bangunan";"Toko Perlengkapan Rumah";"TOKO BESI DAN BAHAN BANGUNAN CAHAYA ABADI";"93XC+G3J, Jl. Lintas Sumatra, Tualang Baru, Kec. Manyak Payed, Kabupaten Aceh Tamiang, Aceh 24471";"Jl. Lintas Sumatra, Tualang Baru, Kec. Manyak Payed, Kabupaten Aceh Tamiang";"ACEH";"24471";"Indonesia";" 082167658373";"4.3988716";"98.0700961";"https://maps.google.com/?cid=0x0:0x351e338af5b61e09"
"toko bangunan";"Toko Bahan Bangunan";"toko muzakkir";"QVFR+4CH, Jl. Medan Banda Aceh, Dama Tutong, Kec. Peureulak, Kabupaten Aceh Timur, Aceh 24458";"Jl. Medan Banda Aceh, Dama Tutong, Kec. Peureulak, Kabupaten Aceh Timur";"ACEH";"24458";"Indonesia";" 082367292425";"4.7728101";"97.8911242";"https://maps.google.com/?cid=0x0:0x4251211ecb034132"
"toko bangunan";"Toko";"Toko Restoemi";"FXMF+74G, Matang Seulimeng, Kec. Langsa Bar., Kota Langsa, Aceh 24355";"Matang Seulimeng, Kec. Langsa Bar., Kota Langsa";"ACEH";"24355";"Indonesia";" 082370214773";"4.4831933";"97.9728245";"https://maps.google.com/?cid=0x0:0xa59443fd2f2c5e62"
"toko bangunan";"Toko";"Toko Tijarah";"GX26+R8C, Jl. Prof. A Majid Ibrahim, Lhok Banie, Kec. Langsa Bar., Kota Langsa, Aceh 24375";"Jl. Prof. A Majid Ibrahim, Lhok Banie, Kec. Langsa Bar., Kota Langsa";"ACEH";"24375";"Indonesia";"";"4.5020568";"97.9607747";"https://maps.google.com/?cid=0x0:0x45ec34620a131c83"
"toko bangunan";"Toko Bahan Bangunan";"Tanjung K Gypsum";"73M6+R52, JL. IR. H. Juanda, Kuala Simpang, Aceh Tamiang, Kota Kuala Simpang, Banda Aceh, Kabupaten Aceh Tamiang, Aceh 24456";"JL. IR. H. Juanda, Kuala Simpang, Aceh Tamiang, Kota Kuala Simpang, Banda Aceh, Kabupaten Aceh Tamiang";"ACEH";"24456";"Indonesia";" 085260972932";"4.2845072";"98.0603957";"https://maps.google.com/?cid=0x0:0x8fe99a4bcbf347df"
"toko bangunan";"toko bangunan";"MISRA MANDIRI JAYA";"73P7+MQG, Bukit Tempurung, Kota Kuala Simpang, Kabupaten Aceh Tamiang, Aceh 24456";"Bukit Tempurung, Kota Kuala Simpang, Kabupaten Aceh Tamiang";"ACEH";"24456";"Indonesia";"";"4.2866875";"98.0644531";"https://maps.google.com/?cid=0x0:0xcb1908e601e41c6"
"toko bangunan";"Toko Perlengkapan Rumah";"Toko SH BANGUNAN";"Jl, Muka Sungai Kuruk, Kec. Seuruway, Kabupaten Aceh Tamiang, Aceh";"Kabupaten Aceh Tamiang, Aceh";"ACEH";"";"Indonesia";"";"4.3541556";"98.1853171";"https://maps.google.com/?cid=0x0:0x9851477dd1a1f493"
"toko bangunan";"toko bangunan";"Aceh 24473";"Aceh";"Aceh";"ACEH";"";"Indonesia";"";"4.2670304";"98.1393179";"https://maps.google.com/?cid=0x0:0x7edc8ec14cab902a"
"toko bangunan";"Pemasok Bahan Bangunan";"SUMBER BATU ALAM ACEH TAMIANG (BENUA RAJA)";"73QC+739, Benua Raja, Kec. Rantau, Kabupaten Aceh Tamiang, Aceh";"Kabupaten Aceh Tamiang, Aceh";"ACEH";"";"Indonesia";" 085254511251";"4.2881819";"98.0702637";"https://maps.google.com/?cid=0x0:0xf289b362d80572ad"
"toko bangunan";"Toko Bahan Bangunan";"ASNAH ALAT BANGUNAN";"953M+M6P, Unnamed Road, Peukan Seuruway, Kec. Seuruway, Kabupaten Aceh Tamiang, Aceh 24472";"Unnamed Road, Peukan Seuruway, Kec. Seuruway, Kabupaten Aceh Tamiang";"ACEH";"24472";"Indonesia";"";"4.3542106";"98.1830639";"https://maps.google.com/?cid=0x0:0x2ca039ce29a36dc9"
"toko bangunan";"Pemasok Bahan Bangunan";"Nurta Jaya toko bangunan";"Ie Bintah, Kec. Manyak Payed, Kabupaten Aceh Tamiang, Aceh 24471";"Kec. Manyak Payed, Kabupaten Aceh Tamiang";"ACEH";"24471";"Indonesia";"";"4.3993038";"98.0680627";"https://maps.google.com/?cid=0x0:0x71f50b7c59ae06b4"
"toko bangunan";"Toko Perlengkapan Rumah";"AS JAYA";"953M+M5G, Peukan Seuruway, Kec. Seuruway, Kabupaten Aceh Tamiang, Aceh 24472";"Peukan Seuruway, Kec. Seuruway, Kabupaten Aceh Tamiang";"ACEH";"24472";"Indonesia";"";"4.3541603";"98.1828977";"https://maps.google.com/?cid=0x0:0x1f30c0ab5273b0e2"
"toko bangunan";"Toko Bahan Bangunan";"Toko bangunan, arrohman";"Purwodadi, Kec. Kejuruan Muda, Kabupaten Aceh Tamiang, Aceh 24475";"Kec. Kejuruan Muda, Kabupaten Aceh Tamiang";"ACEH";"24475";"Indonesia";" 082316146356";"4.2182002";"98.0691677";"https://maps.google.com/?cid=0x0:0x8c52495e70679bb7"
"toko bangunan";"Toko Bahan Bangunan";"Toko Bangunan Umran";"Jl. Medan Banda Aceh No.63, Seumadam, Kec. Kejuruan Muda, Kabupaten Aceh Tamiang, Aceh 24474";"Seumadam, Kec. Kejuruan Muda, Kabupaten Aceh Tamiang";"ACEH";"24474";"Indonesia";" 08126476231";"4.1821682";"98.0517118";"https://maps.google.com/?cid=0x0:0xc1453692ad2b177f"
"toko bangunan";"Toko Alat Tulis Kantor";"TOKO BANGUNAN PANDA PRIMA";"73P3+Q42, Kesehatan, Kec. Karang Baru, Kabupaten Aceh Tamiang, Aceh 24456";"Kesehatan, Kec. Karang Baru, Kabupaten Aceh Tamiang";"ACEH";"24456";"Indonesia";" 085260856696";"4.287018";"98.0526676";"https://maps.google.com/?cid=0x0:0x2125bb49c07f528d"
"toko bangunan";"Pasar bahan bangunan";"TOKO bangunan semangat baru";"Alur Cucur, Kec. Rantau, Kabupaten Aceh Tamiang, Aceh";"Kabupaten Aceh Tamiang, Aceh";"ACEH";"";"Indonesia";" 082363836607";"4.3156605";"98.1092816";"https://maps.google.com/?cid=0x0:0xf8cdbba6c12b88d1"
"toko bangunan";"Toko Bahan Bangunan";"Toko Bangunan UD. Famili ANEL";"73RC+8VW, Jalan, Benua Raja, Rantau, Aceh Tamiang Regency, Aceh";"Kabupaten Aceh Tamiang, Aceh";"ACEH";"";"Indonesia";"";"4.2908623";"98.0721965";"https://maps.google.com/?cid=0x0:0xc808d2785c513d16"
"toko bangunan";"Toko Kaca";"Toko Bangunan Bintang Jaya Kampung Durian";"Jl. Sapta Jaya dusun metro jaya, Kp. Durian, Kota Kuala Simpang, Kabupaten Aceh Tamiang, Aceh 24474";"Kp. Durian, Kota Kuala Simpang, Kabupaten Aceh Tamiang";"ACEH";"24474";"Indonesia";" 082259439707";"4.2953519";"98.083651";"https://maps.google.com/?cid=0x0:0x4f08d170b51aa435"
"toko bangunan";"Toko Bahan Bangunan";"Tanjung K Gypsum";"73M6+R52, JL. IR. H. Juanda, Kuala Simpang, Aceh Tamiang, Kota Kuala Simpang, Banda Aceh, Kabupaten Aceh Tamiang, Aceh 24456";"JL. IR. H. Juanda, Kuala Simpang, Aceh Tamiang, Kota Kuala Simpang, Banda Aceh, Kabupaten Aceh Tamiang";"ACEH";"24456";"Indonesia";" 085260972932";"4.2845072";"98.0603957";"https://maps.google.com/?cid=0x0:0x8fe99a4bcbf347df"
"toko bangunan";"toko bangunan";"Kec. Tamiang Hulu";"Kabupaten Aceh Tamiang, Aceh";"Kabupaten Aceh Tamiang, Aceh";"ACEH";"";"Indonesia";"";"4.1633008";"97.9539786";"https://maps.google.com/?cid=0x0:0x4376a9df79cb4397"
"toko bangunan";"Toko Bahan Bangunan";"Toko Cahaya Muda";"5X75+697, Perk Pulau Tiga, Kec. Tamiang Hulu, Kabupaten Aceh Tamiang, Aceh 24477";"Perk Pulau Tiga, Kec. Tamiang Hulu, Kabupaten Aceh Tamiang";"ACEH";"24477";"Indonesia";" 085260996888";"4.1630307";"97.9584191";"https://maps.google.com/?cid=0x0:0xd4b9e37b778ae27f"
"toko bangunan";"Toko Bahan Bangunan";"MAJU BERSAMA";"6WV5+M66, Wono Sari, Kec. Tamiang Hulu, Kabupaten Aceh Tamiang, Aceh 24382";"Wono Sari, Kec. Tamiang Hulu, Kabupaten Aceh Tamiang";"ACEH";"24382";"Indonesia";" 085281788214";"4.2441543";"97.9080047";"https://maps.google.com/?cid=0x0:0xfcce97bffb40d002"
"toko bangunan";"Toko Bahan Bangunan";"Toko Bangunan Umran";"Jl. Medan Banda Aceh No.63, Seumadam, Kec. Kejuruan Muda, Kabupaten Aceh Tamiang, Aceh 24474";"Seumadam, Kec. Kejuruan Muda, Kabupaten Aceh Tamiang";"ACEH";"24474";"Indonesia";" 08126476231";"4.1821682";"98.0517118";"https://maps.google.com/?cid=0x0:0xc1453692ad2b177f"
"toko bangunan";"Toko Perlengkapan Rumah";"Toko SH BANGUNAN";"Jl, Muka Sungai Kuruk, Kec. Seuruway, Kabupaten Aceh Tamiang, Aceh";"Kabupaten Aceh Tamiang, Aceh";"ACEH";"";"Indonesia";"";"4.3541556";"98.1853171";"https://maps.google.com/?cid=0x0:0x9851477dd1a1f493"
"toko bangunan";"Toko Perlengkapan Rumah";"Zainal";"7W36+H5X, Unnamed Road, Jambo Rambong, Kec. Bandar Pusaka, Kabupaten Aceh Tamiang, Aceh 24382";"Unnamed Road, Jambo Rambong, Kec. Bandar Pusaka, Kabupaten Aceh Tamiang";"ACEH";"24382";"Indonesia";"";"4.2539798";"97.9104986";"https://maps.google.com/?cid=0x0:0xf03a4ded06c8cac9"
"toko bangunan";"Toko Bahan Bangunan";"toko bangunan haryono";"62H4+4XQ, Tj. Genteng, Kec. Kejuruan Muda, Kabupaten Aceh Tamiang, Aceh 24474";"Tj. Genteng, Kec. Kejuruan Muda, Kabupaten Aceh Tamiang";"ACEH";"24474";"Indonesia";"";"4.228019";"98.007308";"https://maps.google.com/?cid=0x0:0x69d521fd3acdb92e"
"toko bangunan";"Toko Perlengkapan Rumah";"TOKO BESI DAN BAHAN BANGUNAN CAHAYA ABADI";"93XC+G3J, Jl. Lintas Sumatra, Tualang Baru, Kec. Manyak Payed, Kabupaten Aceh Tamiang, Aceh 24471";"Jl. Lintas Sumatra, Tualang Baru, Kec. Manyak Payed, Kabupaten Aceh Tamiang";"ACEH";"24471";"Indonesia";" 082167658373";"4.3988716";"98.0700961";"https://maps.google.com/?cid=0x0:0x351e338af5b61e09"
"toko bangunan";"Toko Alat Tulis Kantor";"TOKO BANGUNAN PANDA PRIMA";"73P3+Q42, Kesehatan, Kec. Karang Baru, Kabupaten Aceh Tamiang, Aceh 24456";"Kesehatan, Kec. Karang Baru, Kabupaten Aceh Tamiang";"ACEH";"24456";"Indonesia";" 085260856696";"4.287018";"98.0526676";"https://maps.google.com/?cid=0x0:0x2125bb49c07f528d"
"toko bangunan";"Toko Bahan Bangunan";"Toko Tanjung Mulia Baru";"Jl. Letjend Suprapto No.8, Kota Kuala Simpang, Kabupaten Aceh Tamiang, Aceh 24475";"Kota Kuala Simpang, Kabupaten Aceh Tamiang";"ACEH";"24475";"Indonesia";" 082361611188";"4.2840128";"98.0601734";"https://maps.google.com/?cid=0x0:0x4f409804eac6f148"
"toko bangunan";"Toko Bahan Bangunan";"Toko Bangun Cemerlang";"72VX+2R3, Gampong Bundar, Kec. Karang Baru, Kabupaten Aceh Tamiang, Aceh 24456";"Gampong Bundar, Kec. Karang Baru, Kabupaten Aceh Tamiang";"ACEH";"24456";"Indonesia";"";"4.292512";"98.0495532";"https://maps.google.com/?cid=0x0:0x950e021d55993633"
"toko bangunan";"Pemasok Bahan Bangunan";"Nurta Jaya toko bangunan";"Ie Bintah, Kec. Manyak Payed, Kabupaten Aceh Tamiang, Aceh 24471";"Kec. Manyak Payed, Kabupaten Aceh Tamiang";"ACEH";"24471";"Indonesia";"";"4.3993038";"98.0680627";"https://maps.google.com/?cid=0x0:0x71f50b7c59ae06b4"
"toko bangunan";"Toko Bahan Bangunan";"Toko Bangunan UD. Famili ANEL";"73RC+8VW, Jalan, Benua Raja, Rantau, Aceh Tamiang Regency, Aceh";"Kabupaten Aceh Tamiang, Aceh";"ACEH";"";"Indonesia";"";"4.2908623";"98.0721965";"https://maps.google.com/?cid=0x0:0xc808d2785c513d16"
"toko bangunan";"Toko Bahan Bangunan";"Toko bangunan, arrohman";"Purwodadi, Kec. Kejuruan Muda, Kabupaten Aceh Tamiang, Aceh 24475";"Kec. Kejuruan Muda, Kabupaten Aceh Tamiang";"ACEH";"24475";"Indonesia";" 082316146356";"4.2182002";"98.0691677";"https://maps.google.com/?cid=0x0:0x8c52495e70679bb7"
"toko bangunan";"toko bangunan";"Aceh 24477";"Kabupaten Aceh Tamiang, Aceh";"Kabupaten Aceh Tamiang, Aceh";"ACEH";"";"Indonesia";"";"3.9904163";"97.9157099";"https://maps.google.com/?cid=0x0:0x559940852b05002f"
"toko bangunan";"Toko Bahan Bangunan";"Toko Cahaya Muda";"5X75+697, Perk Pulau Tiga, Kec. Tamiang Hulu, Kabupaten Aceh Tamiang, Aceh 24477";"Perk Pulau Tiga, Kec. Tamiang Hulu, Kabupaten Aceh Tamiang";"ACEH";"24477";"Indonesia";" 085260996888";"4.1630307";"97.9584191";"https://maps.google.com/?cid=0x0:0xd4b9e37b778ae27f"
"toko bangunan";"Toko Bahan Bangunan";"Toko Bangunan Umran";"Jl. Medan Banda Aceh No.63, Seumadam, Kec. Kejuruan Muda, Kabupaten Aceh Tamiang, Aceh 24474";"Seumadam, Kec. Kejuruan Muda, Kabupaten Aceh Tamiang";"ACEH";"24474";"Indonesia";" 08126476231";"4.1821682";"98.0517118";"https://maps.google.com/?cid=0x0:0xc1453692ad2b177f"
"toko bangunan";"Toko Bahan Bangunan";"Toko bangunan, arrohman";"Purwodadi, Kec. Kejuruan Muda, Kabupaten Aceh Tamiang, Aceh 24475";"Kec. Kejuruan Muda, Kabupaten Aceh Tamiang";"ACEH";"24475";"Indonesia";" 082316146356";"4.2182002";"98.0691677";"https://maps.google.com/?cid=0x0:0x8c52495e70679bb7"
"toko bangunan";"Toko Bahan Bangunan";"Tanjung K Gypsum";"73M6+R52, JL. IR. H. Juanda, Kuala Simpang, Aceh Tamiang, Kota Kuala Simpang, Banda Aceh, Kabupaten Aceh Tamiang, Aceh 24456";"JL. IR. H. Juanda, Kuala Simpang, Aceh Tamiang, Kota Kuala Simpang, Banda Aceh, Kabupaten Aceh Tamiang";"ACEH";"24456";"Indonesia";" 085260972932";"4.2845072";"98.0603957";"https://maps.google.com/?cid=0x0:0x8fe99a4bcbf347df"
"toko bangunan";"Toko Bahan Bangunan";"MAJU BERSAMA";"6WV5+M66, Wono Sari, Kec. Tamiang Hulu, Kabupaten Aceh Tamiang, Aceh 24382";"Wono Sari, Kec. Tamiang Hulu, Kabupaten Aceh Tamiang";"ACEH";"24382";"Indonesia";" 085281788214";"4.2441543";"97.9080047";"https://maps.google.com/?cid=0x0:0xfcce97bffb40d002"
"toko bangunan";"toko bangunan";"MISRA MANDIRI JAYA";"73P7+MQG, Bukit Tempurung, Kota Kuala Simpang, Kabupaten Aceh Tamiang, Aceh 24456";"Bukit Tempurung, Kota Kuala Simpang, Kabupaten Aceh Tamiang";"ACEH";"24456";"Indonesia";"";"4.2866875";"98.0644531";"https://maps.google.com/?cid=0x0:0xcb1908e601e41c6"
"toko bangunan";"Toko Alat Tulis Kantor";"TOKO BANGUNAN PANDA PRIMA";"73P3+Q42, Kesehatan, Kec. Karang Baru, Kabupaten Aceh Tamiang, Aceh 24456";"Kesehatan, Kec. Karang Baru, Kabupaten Aceh Tamiang";"ACEH";"24456";"Indonesia";" 085260856696";"4.287018";"98.0526676";"https://maps.google.com/?cid=0x0:0x2125bb49c07f528d"
"toko bangunan";"Pemasok Bahan Bangunan";"Nurta Jaya toko bangunan";"Ie Bintah, Kec. Manyak Payed, Kabupaten Aceh Tamiang, Aceh 24471";"Kec. Manyak Payed, Kabupaten Aceh Tamiang";"ACEH";"24471";"Indonesia";"";"4.3993038";"98.0680627";"https://maps.google.com/?cid=0x0:0x71f50b7c59ae06b4"
"toko bangunan";"Toko Bahan Bangunan";"toko guna baru";"WQXC+VFG, Jl. Medan Banda Aceh, Kuta Blang, Kec. Idi Rayeuk, Kabupaten Aceh Timur, Aceh";"Kabupaten Aceh Timur, Aceh";"ACEH";"";"Indonesia";"";"4.9496962";"97.7712131";"https://maps.google.com/?cid=0x0:0x95566961f59d4fd2"
"toko bangunan";"Toko Kaca";"Toko Bangunan Bintang Jaya Kampung Durian";"Jl. Sapta Jaya dusun metro jaya, Kp. Durian, Kota Kuala Simpang, Kabupaten Aceh Tamiang, Aceh 24474";"Kp. Durian, Kota Kuala Simpang, Kabupaten Aceh Tamiang";"ACEH";"24474";"Indonesia";" 082259439707";"4.2953519";"98.083651";"https://maps.google.com/?cid=0x0:0x4f08d170b51aa435"
"toko bangunan";"Toko Bahan Bangunan";"Toko bangunan gunung lampu";"Jl. Rantau, Bukit Tempurung, Kota Kuala Simpang, Kabupaten Aceh Tamiang, Aceh 24475";"Bukit Tempurung, Kota Kuala Simpang, Kabupaten Aceh Tamiang";"ACEH";"24475";"Indonesia";" 082177325596";"4.2859138";"98.0631398";"https://maps.google.com/?cid=0x0:0x760175408c9aa1e9"
"toko bangunan";"Toko Bahan Bangunan";"Toko bangunan gerai daya";"WQVG+FHJ Depan PLN, Seuneubok Bacee, Kec. Idi Rayeuk, Kabupaten Aceh Timur, Aceh";"Kabupaten Aceh Timur, Aceh";"ACEH";"";"Indonesia";" 085270320872";"4.9437084";"97.7763885";"https://maps.google.com/?cid=0x0:0x7d012a0f613d8d1d"
"toko bangunan";"Toko Perlengkapan Rumah";"TOKO BESI DAN BAHAN BANGUNAN CAHAYA ABADI";"93XC+G3J, Jl. Lintas Sumatra, Tualang Baru, Kec. Manyak Payed, Kabupaten Aceh Tamiang, Aceh 24471";"Jl. Lintas Sumatra, Tualang Baru, Kec. Manyak Payed, Kabupaten Aceh Tamiang";"ACEH";"24471";"Indonesia";" 082167658373";"4.3988716";"98.0700961";"https://maps.google.com/?cid=0x0:0x351e338af5b61e09"
"building materials";"building materials";"Kec. Banda Mulia";"Kabupaten Aceh Tamiang, Aceh";"Kabupaten Aceh Tamiang, Aceh";"ACEH";"";"Indonesia";"";"4.4405846";"98.1360921";"https://maps.google.com/?cid=0x0:0xe04c2bd9d3d421e8"
"building materials";"Toko Bahan Bangunan";"Toko bangunan sinar utara";"95M6+RRW, Jl. Medan B. Aceh, Seuneubok Dalam Mesjid, Banda Aceh, Kabupaten Aceh Tamiang, Aceh 24472";"Jl. Medan B. Aceh, Seuneubok Dalam Mesjid, Banda Aceh, Kabupaten Aceh Tamiang";"ACEH";"24472";"Indonesia";" 085262303826";"4.3847402";"98.1627285";"https://maps.google.com/?cid=0x0:0x5ca1257abddb6f4e"
"building materials";"Toko Perlengkapan Rumah";"TOKO BESI DAN BAHAN BANGUNAN CAHAYA ABADI";"93XC+G3J, Jl. Lintas Sumatra, Tualang Baru, Kec. Manyak Payed, Kabupaten Aceh Tamiang, Aceh 24471";"Jl. Lintas Sumatra, Tualang Baru, Kec. Manyak Payed, Kabupaten Aceh Tamiang";"ACEH";"24471";"Indonesia";" 082167658373";"4.3988716";"98.0700961";"https://maps.google.com/?cid=0x0:0x351e338af5b61e09"
"building materials";"Toko Bahan Bangunan";"Afdalzikri";"93GH+JGF, Kebun Tj. Seumantoh, Kec. Karang Baru, Kabupaten Aceh Tamiang, Aceh 24471";"Kebun Tj. Seumantoh, Kec. Karang Baru, Kabupaten Aceh Tamiang";"ACEH";"24471";"Indonesia";"";"4.3765619";"98.0788099";"https://maps.google.com/?cid=0x0:0xd8aea92cbd9f3d65"
"building materials";"Toko Bahan Bangunan";"MULIA ATAP";"H82C+CRC, Peuniti, Kec. Baiturrahman, Kota Banda Aceh, Aceh";"Kota Banda Aceh, Aceh";"ACEH";"";"Indonesia";" 0811689496";"5.55106";"95.322016";"https://maps.google.com/?cid=0x0:0x11b76beab141a595"
"building materials";"Toko Perlengkapan Rumah";"Toko SH BANGUNAN";"Jl, Muka Sungai Kuruk, Kec. Seuruway, Kabupaten Aceh Tamiang, Aceh";"Kabupaten Aceh Tamiang, Aceh";"ACEH";"";"Indonesia";"";"4.3541556";"98.1853171";"https://maps.google.com/?cid=0x0:0x9851477dd1a1f493"
"building materials";"Toko Bahan Bangunan";"TOKO SUBUR JAYA";"Desa Simpang IV, Upah, Kec. Karang Baru, Kabupaten Aceh Tamiang, Aceh 24474";"Upah, Kec. Karang Baru, Kabupaten Aceh Tamiang";"ACEH";"24474";"Indonesia";" 085227072369";"4.3706584";"98.0962068";"https://maps.google.com/?cid=0x0:0x93900b7b6e6e7db1"
"building materials";"Toko Perlengkapan Rumah";"AS JAYA";"953M+M5G, Peukan Seuruway, Kec. Seuruway, Kabupaten Aceh Tamiang, Aceh 24472";"Peukan Seuruway, Kec. Seuruway, Kabupaten Aceh Tamiang";"ACEH";"24472";"Indonesia";"";"4.3541603";"98.1828977";"https://maps.google.com/?cid=0x0:0x1f30c0ab5273b0e2"
"building materials";"Toko Bahan Bangunan";"Toko Bangunan Agung Mulia";"H88F+RP8, Jl. Teungku Di Blang, Mulia, Kec. Kuta Alam, Kota Banda Aceh, Aceh";"Kota Banda Aceh, Aceh";"ACEH";"";"Indonesia";" 082262506854";"5.567047";"95.3243291";"https://maps.google.com/?cid=0x0:0xa00ac4c4de2d7614"
"building materials";"Toko Bahan Bangunan";"UD.SAUDARA( PAK LU )";"Peukan Seuruway, Kec. Seuruway, Kabupaten Aceh Tamiang, Aceh 24472";"Kec. Seuruway, Kabupaten Aceh Tamiang";"ACEH";"24472";"Indonesia";"";"4.3541822";"98.1829655";"https://maps.google.com/?cid=0x0:0xfa281a32eb99bbbd"
"building materials";"Toko Bahan Bangunan";"Baja Mulia";"549M+2VM, Jl. Medan - Banda Aceh, Mns Mee, Kec. Muara Dua, Kota Lhokseumawe, Aceh 24355";"Jl. Medan - Banda Aceh, Mns Mee, Kec. Muara Dua, Kota Lhokseumawe";"ACEH";"24355";"Indonesia";"";"5.1675873";"97.134682";"https://maps.google.com/?cid=0x0:0x9cdba375ece9aaa4"
"building materials";"Toko Bahan Bangunan";"Raya Mulia Bangunan";"Jl. Laksamana Malahayati, Labuy, Kec. Baitussalam, Kabupaten Aceh Besar, Aceh";"Kabupaten Aceh Besar, Aceh";"ACEH";"";"Indonesia";" 081360648269";"5.6141233";"95.3979678";"https://maps.google.com/?cid=0x0:0x27a59e95d3ee7b96"
"building materials";"Toko Bahan Bangunan";"Toko bangunan roda selatan";"93CW+5QP, Jl. Tugu Opak, Simpang Empat, Kec. Karang Baru, Kabupaten Aceh Tamiang, Aceh";"Kabupaten Aceh Tamiang, Aceh";"ACEH";"";"Indonesia";"";"4.3703921";"98.0968975";"https://maps.google.com/?cid=0x0:0x957dd7eb1db72dda"
"building materials";"building materials";"Toko Karya Mulia";"C33G+G3V, Tualang Baru, Kec. Manyak Payed, Kabupaten Aceh Tamiang, Aceh 24471";"Tualang Baru, Kec. Manyak Payed, Kabupaten Aceh Tamiang";"ACEH";"24471";"Indonesia";" 0641480027";"4.4038696";"98.0751645";"https://maps.google.com/?cid=0x0:0xf96905ba119aabab"
"building materials";"building materials";"Kec. Bandar Pusaka";"Kabupaten Aceh Tamiang, Aceh";"Kabupaten Aceh Tamiang, Aceh";"ACEH";"";"Indonesia";"";"4.2948637";"97.8778752";"https://maps.google.com/?cid=0x0:0x2b7834261cf3e187"
"building materials";"Toko Bahan Bangunan";"Toko bangunan";"7VVH+V2G, Babo, Kec. Bandar Pusaka, Kabupaten Aceh Tamiang, Aceh 24456";"Babo, Kec. Bandar Pusaka, Kabupaten Aceh Tamiang";"ACEH";"24456";"Indonesia";" 08527799912";"4.2946931";"97.8775738";"https://maps.google.com/?cid=0x0:0xcb5b4bb21b3fe6e0"
"building materials";"Toko Perlengkapan Rumah";"Zainal";"7W36+H5X, Unnamed Road, Jambo Rambong, Kec. Bandar Pusaka, Kabupaten Aceh Tamiang, Aceh 24382";"Unnamed Road, Jambo Rambong, Kec. Bandar Pusaka, Kabupaten Aceh Tamiang";"ACEH";"24382";"Indonesia";"";"4.2539798";"97.9104986";"https://maps.google.com/?cid=0x0:0xf03a4ded06c8cac9"
"building materials";"building materials";"Kec. Bendahara";"Kabupaten Aceh Tamiang, Aceh";"Kabupaten Aceh Tamiang, Aceh";"ACEH";"";"Indonesia";"";"4.4074501";"98.1695001";"https://maps.google.com/?cid=0x0:0xa3729d585ef6a9a8"
"building materials";"Toko Perlengkapan Rumah";"TOKO BESI DAN BAHAN BANGUNAN CAHAYA ABADI";"93XC+G3J, Jl. Lintas Sumatra, Tualang Baru, Kec. Manyak Payed, Kabupaten Aceh Tamiang, Aceh 24471";"Jl. Lintas Sumatra, Tualang Baru, Kec. Manyak Payed, Kabupaten Aceh Tamiang";"ACEH";"24471";"Indonesia";" 082167658373";"4.3988716";"98.0700961";"https://maps.google.com/?cid=0x0:0x351e338af5b61e09"
"building materials";"Toko Bahan Bangunan";"Toko bangunan sinar utara";"95M6+RRW, Jl. Medan B. Aceh, Seuneubok Dalam Mesjid, Banda Aceh, Kabupaten Aceh Tamiang, Aceh 24472";"Jl. Medan B. Aceh, Seuneubok Dalam Mesjid, Banda Aceh, Kabupaten Aceh Tamiang";"ACEH";"24472";"Indonesia";" 085262303826";"4.3847402";"98.1627285";"https://maps.google.com/?cid=0x0:0x5ca1257abddb6f4e"
"building materials";"Pemasok Bahan Bangunan";"Nurta Jaya toko bangunan";"Ie Bintah, Kec. Manyak Payed, Kabupaten Aceh Tamiang, Aceh 24471";"Kec. Manyak Payed, Kabupaten Aceh Tamiang";"ACEH";"24471";"Indonesia";"";"4.3993038";"98.0680627";"https://maps.google.com/?cid=0x0:0x71f50b7c59ae06b4"
"building materials";"Toko Bahan Bangunan";"Afdalzikri";"93GH+JGF, Kebun Tj. Seumantoh, Kec. Karang Baru, Kabupaten Aceh Tamiang, Aceh 24471";"Kebun Tj. Seumantoh, Kec. Karang Baru, Kabupaten Aceh Tamiang";"ACEH";"24471";"Indonesia";"";"4.3765619";"98.0788099";"https://maps.google.com/?cid=0x0:0xd8aea92cbd9f3d65"
"building materials";"Toko Perlengkapan Rumah";"AS JAYA";"953M+M5G, Peukan Seuruway, Kec. Seuruway, Kabupaten Aceh Tamiang, Aceh 24472";"Peukan Seuruway, Kec. Seuruway, Kabupaten Aceh Tamiang";"ACEH";"24472";"Indonesia";"";"4.3541603";"98.1828977";"https://maps.google.com/?cid=0x0:0x1f30c0ab5273b0e2"
"building materials";"Toko Bahan Bangunan";"TOKO SUBUR JAYA";"Desa Simpang IV, Upah, Kec. Karang Baru, Kabupaten Aceh Tamiang, Aceh 24474";"Upah, Kec. Karang Baru, Kabupaten Aceh Tamiang";"ACEH";"24474";"Indonesia";" 085227072369";"4.3706584";"98.0962068";"https://maps.google.com/?cid=0x0:0x93900b7b6e6e7db1"
"building materials";"Toko Bahan Bangunan";"UD.SAUDARA( PAK LU )";"Peukan Seuruway, Kec. Seuruway, Kabupaten Aceh Tamiang, Aceh 24472";"Kec. Seuruway, Kabupaten Aceh Tamiang";"ACEH";"24472";"Indonesia";"";"4.3541822";"98.1829655";"https://maps.google.com/?cid=0x0:0xfa281a32eb99bbbd"
"building materials";"Toko Bahan Bangunan";"Zahra Bangunan";"Jl. Dr. Mr. Mohd Hasan, Batoh, Kec. Lueng Bata, Kota Banda Aceh, Aceh 23127";"Batoh, Kec. Lueng Bata, Kota Banda Aceh";"ACEH";"23127";"Indonesia";" 083191742636";"5.5425651";"95.3305542";"https://maps.google.com/?cid=0x0:0x9785538145c2ac3"
"building materials";"Pemasok Bahan Bangunan";"SUMBER BATU ALAM ACEH TAMIANG (BENUA RAJA)";"73QC+739, Benua Raja, Kec. Rantau, Kabupaten Aceh Tamiang, Aceh";"Kabupaten Aceh Tamiang, Aceh";"ACEH";"";"Indonesia";" 085254511251";"4.2881819";"98.0702637";"https://maps.google.com/?cid=0x0:0xf289b362d80572ad"
"building materials";"Toko Bahan Bangunan";"Toko bangunan roda selatan";"93CW+5QP, Jl. Tugu Opak, Simpang Empat, Kec. Karang Baru, Kabupaten Aceh Tamiang, Aceh";"Kabupaten Aceh Tamiang, Aceh";"ACEH";"";"Indonesia";"";"4.3703921";"98.0968975";"https://maps.google.com/?cid=0x0:0x957dd7eb1db72dda"
"building materials";"Kontraktor Umum";"AVINA GROUP 4";"83H8+CM8, Jl. Medan Banda Aceh, Pahlawan, Kota Kuala Simpang, Kabupaten Aceh Tamiang, Aceh 24476";"Jl. Medan Banda Aceh, Pahlawan, Kota Kuala Simpang, Kabupaten Aceh Tamiang";"ACEH";"24476";"Indonesia";" 085358626088";"4.3285316";"98.0667069";"https://maps.google.com/?cid=0x0:0x960a63ac0e0e7dac"
"building materials";"Toko Bahan Bangunan";"Irfab Gyfsum";"8385+WQ6, Jalan Medan Langsa, Karang Baru, Madang Ara, Gampong Johar, Kec. Karang Baru, Kabupaten Aceh Tamiang, Aceh 24476";"Jalan Medan Langsa, Karang Baru, Madang Ara, Gampong Johar, Kec. Karang Baru, Kabupaten Aceh Tamiang";"ACEH";"24476";"Indonesia";" 082160415169";"4.317295";"98.059384";"https://maps.google.com/?cid=0x0:0x4a63435d2a116859"
"building materials";"Toko Bahan Bangunan";"Tanjung K Gypsum";"73M6+R52, JL. IR. H. Juanda, Kuala Simpang, Aceh Tamiang, Kota Kuala Simpang, Banda Aceh, Kabupaten Aceh Tamiang, Aceh 24456";"JL. IR. H. Juanda, Kuala Simpang, Aceh Tamiang, Kota Kuala Simpang, Banda Aceh, Kabupaten Aceh Tamiang";"ACEH";"24456";"Indonesia";" 085260972932";"4.2845072";"98.0603957";"https://maps.google.com/?cid=0x0:0x8fe99a4bcbf347df"
"building materials";"Toko Bahan Bangunan";"Irfab Gyfsum";"8385+WQ6, Jalan Medan Langsa, Karang Baru, Madang Ara, Gampong Johar, Kec. Karang Baru, Kabupaten Aceh Tamiang, Aceh 24476";"Jalan Medan Langsa, Karang Baru, Madang Ara, Gampong Johar, Kec. Karang Baru, Kabupaten Aceh Tamiang";"ACEH";"24476";"Indonesia";" 082160415169";"4.317295";"98.059384";"https://maps.google.com/?cid=0x0:0x4a63435d2a116859"
"building materials";"Pemasok Bahan Bangunan";"SUMBER BATU ALAM ACEH TAMIANG (BENUA RAJA)";"73QC+739, Benua Raja, Kec. Rantau, Kabupaten Aceh Tamiang, Aceh";"Kabupaten Aceh Tamiang, Aceh";"ACEH";"";"Indonesia";" 085254511251";"4.2881819";"98.0702637";"https://maps.google.com/?cid=0x0:0xf289b362d80572ad"
"building materials";"building materials";"Aceh 24476";"Kabupaten Aceh Tamiang, Aceh";"Kabupaten Aceh Tamiang, Aceh";"ACEH";"";"Indonesia";"";"4.3288776";"98.0628862";"https://maps.google.com/?cid=0x0:0x82d848b4ba041829"
"building materials";"Toko Alat Tulis Kantor";"TOKO BANGUNAN PANDA PRIMA";"73P3+Q42, Kesehatan, Kec. Karang Baru, Kabupaten Aceh Tamiang, Aceh 24456";"Kesehatan, Kec. Karang Baru, Kabupaten Aceh Tamiang";"ACEH";"24456";"Indonesia";" 085260856696";"4.287018";"98.0526676";"https://maps.google.com/?cid=0x0:0x2125bb49c07f528d"
"building materials";"Toko Bahan Bangunan";"AL FATH PLAFON";"Jl.Lintas Medan Jl. Medan Banda Aceh, Tanah Terban, Kec. Karang Baru, Kabupaten Aceh Tamiang, Aceh";"Kabupaten Aceh Tamiang, Aceh";"ACEH";"";"Indonesia";"";"4.3174148";"98.0594178";"https://maps.google.com/?cid=0x0:0x18b80f37bd569e4c"
"building materials";"Toko Bahan Bangunan";"Tanjung K Gypsum";"73M6+R52, JL. IR. H. Juanda, Kuala Simpang, Aceh Tamiang, Kota Kuala Simpang, Banda Aceh, Kabupaten Aceh Tamiang, Aceh 24456";"JL. IR. H. Juanda, Kuala Simpang, Aceh Tamiang, Kota Kuala Simpang, Banda Aceh, Kabupaten Aceh Tamiang";"ACEH";"24456";"Indonesia";" 085260972932";"4.2845072";"98.0603957";"https://maps.google.com/?cid=0x0:0x8fe99a4bcbf347df"
"building materials";"Toko Bahan Bangunan";"Toko Tanjung Mulia Baru";"Jl. Letjend Suprapto No.8, Kota Kuala Simpang, Kabupaten Aceh Tamiang, Aceh 24475";"Kota Kuala Simpang, Kabupaten Aceh Tamiang";"ACEH";"24475";"Indonesia";" 082361611188";"4.2840128";"98.0601734";"https://maps.google.com/?cid=0x0:0x4f409804eac6f148"
"building materials";"Toko Bahan Bangunan";"Toko Bangun Cemerlang";"72VX+2R3, Gampong Bundar, Kec. Karang Baru, Kabupaten Aceh Tamiang, Aceh 24456";"Gampong Bundar, Kec. Karang Baru, Kabupaten Aceh Tamiang";"ACEH";"24456";"Indonesia";"";"4.292512";"98.0495532";"https://maps.google.com/?cid=0x0:0x950e021d55993633"
"building materials";"building materials";"MISRA MANDIRI JAYA";"73P7+MQG, Bukit Tempurung, Kota Kuala Simpang, Kabupaten Aceh Tamiang, Aceh 24456";"Bukit Tempurung, Kota Kuala Simpang, Kabupaten Aceh Tamiang";"ACEH";"24456";"Indonesia";"";"4.2866875";"98.0644531";"https://maps.google.com/?cid=0x0:0xcb1908e601e41c6"
"building materials";"Toko Bahan Bangunan";"UD Aceh Jaya Toko Bangunan Siti Asmawati";"83FV+W87, Alur Manis, Kec. Rantau, Kabupaten Aceh Tamiang, Aceh";"Kabupaten Aceh Tamiang, Aceh";"ACEH";"";"Indonesia";" 085210270282";"4.3247897";"98.0933082";"https://maps.google.com/?cid=0x0:0x360a77eff13df3dc"
"building materials";"Toko Perlengkapan Rumah";"An-Naya Batu bata - jual batu bata tamiang";"Dusun sukarakyat, Gampong Tupah, Kota Kuala Simpang, Kabupaten Aceh Tamiang, Aceh 24476";"Gampong Tupah, Kota Kuala Simpang, Kabupaten Aceh Tamiang";"ACEH";"24476";"Indonesia";" 082376857175";"4.3251332";"98.0560659";"https://maps.google.com/?cid=0x0:0x87cdf1bfb8be3064"
"building materials";"Toko Perlengkapan Rumah";"Marga Agung";"Jalan panglima polem No.7 9, RW.11, Kuala Simpang City, Aceh Tamiang Regency, Aceh 24456";"RW.11, Kuala Simpang City, Aceh Tamiang Regency";"ACEH";"24456";"Indonesia";" 0641333228";"4.283875";"98.0575874";"https://maps.google.com/?cid=0x0:0x98803e320738b95e"
"building materials";"Toko Bahan Bangunan";"TOKO SUBUR JAYA";"Desa Simpang IV, Upah, Kec. Karang Baru, Kabupaten Aceh Tamiang, Aceh 24474";"Upah, Kec. Karang Baru, Kabupaten Aceh Tamiang";"ACEH";"24474";"Indonesia";" 085227072369";"4.3706584";"98.0962068";"https://maps.google.com/?cid=0x0:0x93900b7b6e6e7db1"
"building materials";"Toko Bahan Bangunan";"Afdalzikri";"93GH+JGF, Kebun Tj. Seumantoh, Kec. Karang Baru, Kabupaten Aceh Tamiang, Aceh 24471";"Kebun Tj. Seumantoh, Kec. Karang Baru, Kabupaten Aceh Tamiang";"ACEH";"24471";"Indonesia";"";"4.3765619";"98.0788099";"https://maps.google.com/?cid=0x0:0xd8aea92cbd9f3d65"
"building materials";"Toko Bahan Bangunan";"Toko Cahaya Muda";"5X75+697, Perk Pulau Tiga, Kec. Tamiang Hulu, Kabupaten Aceh Tamiang, Aceh 24477";"Perk Pulau Tiga, Kec. Tamiang Hulu, Kabupaten Aceh Tamiang";"ACEH";"24477";"Indonesia";" 085260996888";"4.1630307";"97.9584191";"https://maps.google.com/?cid=0x0:0xd4b9e37b778ae27f"
"building materials";"Toko Bahan Bangunan";"Toko Bangunan Umran";"Jl. Medan Banda Aceh No.63, Seumadam, Kec. Kejuruan Muda, Kabupaten Aceh Tamiang, Aceh 24474";"Seumadam, Kec. Kejuruan Muda, Kabupaten Aceh Tamiang";"ACEH";"24474";"Indonesia";" 08126476231";"4.1821682";"98.0517118";"https://maps.google.com/?cid=0x0:0xc1453692ad2b177f"
"building materials";"building materials";"Kec. Kejuruan Muda";"Kabupaten Aceh Tamiang, Aceh";"Kabupaten Aceh Tamiang, Aceh";"ACEH";"";"Indonesia";"";"4.2310452";"98.0585627";"https://maps.google.com/?cid=0x0:0x31c3ba765be70142"
"building materials";"Toko Bahan Bangunan";"Tanjung K Gypsum";"73M6+R52, JL. IR. H. Juanda, Kuala Simpang, Aceh Tamiang, Kota Kuala Simpang, Banda Aceh, Kabupaten Aceh Tamiang, Aceh 24456";"JL. IR. H. Juanda, Kuala Simpang, Aceh Tamiang, Kota Kuala Simpang, Banda Aceh, Kabupaten Aceh Tamiang";"ACEH";"24456";"Indonesia";" 085260972932";"4.2845072";"98.0603957";"https://maps.google.com/?cid=0x0:0x8fe99a4bcbf347df"
"building materials";"Toko Perlengkapan Rumah";"Marga Agung";"Jalan panglima polem No.7 9, RW.11, Kuala Simpang City, Aceh Tamiang Regency, Aceh 24456";"RW.11, Kuala Simpang City, Aceh Tamiang Regency";"ACEH";"24456";"Indonesia";" 0641333228";"4.283875";"98.0575874";"https://maps.google.com/?cid=0x0:0x98803e320738b95e"
"building materials";"building materials";"MISRA MANDIRI JAYA";"73P7+MQG, Bukit Tempurung, Kota Kuala Simpang, Kabupaten Aceh Tamiang, Aceh 24456";"Bukit Tempurung, Kota Kuala Simpang, Kabupaten Aceh Tamiang";"ACEH";"24456";"Indonesia";"";"4.2866875";"98.0644531";"https://maps.google.com/?cid=0x0:0xcb1908e601e41c6"
"building materials";"Pemasok Bahan Bangunan";"SUMBER BATU ALAM ACEH TAMIANG (BENUA RAJA)";"73QC+739, Benua Raja, Kec. Rantau, Kabupaten Aceh Tamiang, Aceh";"Kabupaten Aceh Tamiang, Aceh";"ACEH";"";"Indonesia";" 085254511251";"4.2881819";"98.0702637";"https://maps.google.com/?cid=0x0:0xf289b362d80572ad"
"building materials";"Toko Bahan Bangunan";"PD. Bachtiar Ama";"63P7+H9Q, Pangkalan, Kec. Kejuruan Muda, Kabupaten Aceh Tamiang, Aceh 24475";"Pangkalan, Kec. Kejuruan Muda, Kabupaten Aceh Tamiang";"ACEH";"24475";"Indonesia";" 0620543091";"4.236475";"98.0634718";"https://maps.google.com/?cid=0x0:0xd4728685837f28ee"
"building materials";"Toko Bahan Bangunan";"Toko Tanjung Mulia Baru";"Jl. Letjend Suprapto No.8, Kota Kuala Simpang, Kabupaten Aceh Tamiang, Aceh 24475";"Kota Kuala Simpang, Kabupaten Aceh Tamiang";"ACEH";"24475";"Indonesia";" 082361611188";"4.2840128";"98.0601734";"https://maps.google.com/?cid=0x0:0x4f409804eac6f148"
"building materials";"Toko Bahan Bangunan";"Irfab Gyfsum";"8385+WQ6, Jalan Medan Langsa, Karang Baru, Madang Ara, Gampong Johar, Kec. Karang Baru, Kabupaten Aceh Tamiang, Aceh 24476";"Jalan Medan Langsa, Karang Baru, Madang Ara, Gampong Johar, Kec. Karang Baru, Kabupaten Aceh Tamiang";"ACEH";"24476";"Indonesia";" 082160415169";"4.317295";"98.059384";"https://maps.google.com/?cid=0x0:0x4a63435d2a116859"
"building materials";"Toko Kaca >>u0026 Cermin";"Dunia Kaca";"JL. Letjend. Suprapto, No. 10, Kota Kuala Simpang, Kabupaten Aceh Tamiang, Aceh 24456";"No. 10, Kota Kuala Simpang, Kabupaten Aceh Tamiang";"ACEH";"24456";"Indonesia";" 064131174";"4.283451";"98.059501";"https://maps.google.com/?cid=0x0:0xeb9d0d40f915be7a"
"building materials";"Toko Alat Tulis Kantor";"TOKO BANGUNAN PANDA PRIMA";"73P3+Q42, Kesehatan, Kec. Karang Baru, Kabupaten Aceh Tamiang, Aceh 24456";"Kesehatan, Kec. Karang Baru, Kabupaten Aceh Tamiang";"ACEH";"24456";"Indonesia";" 085260856696";"4.287018";"98.0526676";"https://maps.google.com/?cid=0x0:0x2125bb49c07f528d"
"building materials";"Toko Bahan Bangunan";"BAHARI JAYA PLAPON";"63J5+767, Pangkalan, Kec. Kejuruan Muda, Kabupaten Aceh Tamiang, Aceh";"Kabupaten Aceh Tamiang, Aceh";"ACEH";"";"Indonesia";"";"4.2306583";"98.0580593";"https://maps.google.com/?cid=0x0:0xb92eb44c523b65d5"
"building materials";"Toko Bahan Bangunan";"Toko Besi Semesta";"Jl. Ahmad Yani No.15, Kota Kuala Simpang, Kabupaten Aceh Tamiang, Aceh 24456";"Kota Kuala Simpang, Kabupaten Aceh Tamiang";"ACEH";"24456";"Indonesia";" 064131243";"4.2848593";"98.0591487";"https://maps.google.com/?cid=0x0:0x9c76f173c40f573c"
"building materials";"Toko Perlengkapan Rumah";"Marga Agung";"Jalan panglima polem No.7 9, RW.11, Kuala Simpang City, Aceh Tamiang Regency, Aceh 24456";"RW.11, Kuala Simpang City, Aceh Tamiang Regency";"ACEH";"24456";"Indonesia";" 0641333228";"4.283875";"98.0575874";"https://maps.google.com/?cid=0x0:0x98803e320738b95e"
"building materials";"building materials";"Aceh 24475";"Kec. Linge, Kabupaten Aceh Tengah, Aceh";"Kabupaten Aceh Tengah, Aceh";"ACEH";"";"Indonesia";"";"4.2473925";"98.0738001";"https://maps.google.com/?cid=0x0:0x54d58570dde5bc9e"
"building materials";"Toko";"Samurai Paint - Marga Agung Kuala Simpang";"73M5+G3Q, Kota Kuala Simpang, Kabupaten Aceh Tamiang, Aceh 24456";"Kota Kuala Simpang, Kabupaten Aceh Tamiang";"ACEH";"24456";"Indonesia";" 085296599888";"4.2838419";"98.057729";"https://maps.google.com/?cid=0x0:0xfe061a33b4f8064e"
"building materials";"Toko Bahan Bangunan";"Tanjung K Gypsum";"73M6+R52, JL. IR. H. Juanda, Kuala Simpang, Aceh Tamiang, Kota Kuala Simpang, Banda Aceh, Kabupaten Aceh Tamiang, Aceh 24456";"JL. IR. H. Juanda, Kuala Simpang, Aceh Tamiang, Kota Kuala Simpang, Banda Aceh, Kabupaten Aceh Tamiang";"ACEH";"24456";"Indonesia";" 085260972932";"4.2845072";"98.0603957";"https://maps.google.com/?cid=0x0:0x8fe99a4bcbf347df"
"building materials";"Toko Perlengkapan Rumah";"Toko Abadi Baja";"Jl. Cut Nyak Dien, Sriwijaya, Kota Kuala Simpang, Kabupaten Aceh Tamiang, Aceh 24456";"Sriwijaya, Kota Kuala Simpang, Kabupaten Aceh Tamiang";"ACEH";"24456";"Indonesia";"";"4.2825861";"98.0610626";"https://maps.google.com/?cid=0x0:0xbc15d01e42b99be1"
"building materials";"Kontraktor Umum";"AVINA GROUP 4";"83H8+CM8, Jl. Medan Banda Aceh, Pahlawan, Kota Kuala Simpang, Kabupaten Aceh Tamiang, Aceh 24476";"Jl. Medan Banda Aceh, Pahlawan, Kota Kuala Simpang, Kabupaten Aceh Tamiang";"ACEH";"24476";"Indonesia";" 085358626088";"4.3285316";"98.0667069";"https://maps.google.com/?cid=0x0:0x960a63ac0e0e7dac"
"building materials";"Toko Kaca >>u0026 Cermin";"Dunia Kaca";"JL. Letjend. Suprapto, No. 10, Kota Kuala Simpang, Kabupaten Aceh Tamiang, Aceh 24456";"No. 10, Kota Kuala Simpang, Kabupaten Aceh Tamiang";"ACEH";"24456";"Indonesia";" 064131174";"4.283451";"98.059501";"https://maps.google.com/?cid=0x0:0xeb9d0d40f915be7a"
"building materials";"Toko Bahan Bangunan";"Toko Besi Semesta";"Jl. Ahmad Yani No.15, Kota Kuala Simpang, Kabupaten Aceh Tamiang, Aceh 24456";"Kota Kuala Simpang, Kabupaten Aceh Tamiang";"ACEH";"24456";"Indonesia";" 064131243";"4.2848593";"98.0591487";"https://maps.google.com/?cid=0x0:0x9c76f173c40f573c"
"building materials";"Toko Bahan Bangunan";"Toko bangunan gunung lampu";"Jl. Rantau, Bukit Tempurung, Kota Kuala Simpang, Kabupaten Aceh Tamiang, Aceh 24475";"Bukit Tempurung, Kota Kuala Simpang, Kabupaten Aceh Tamiang";"ACEH";"24475";"Indonesia";" 082177325596";"4.2859138";"98.0631398";"https://maps.google.com/?cid=0x0:0x760175408c9aa1e9"
"building materials";"building materials";"MISRA MANDIRI JAYA";"73P7+MQG, Bukit Tempurung, Kota Kuala Simpang, Kabupaten Aceh Tamiang, Aceh 24456";"Bukit Tempurung, Kota Kuala Simpang, Kabupaten Aceh Tamiang";"ACEH";"24456";"Indonesia";"";"4.2866875";"98.0644531";"https://maps.google.com/?cid=0x0:0xcb1908e601e41c6"
"building materials";"Toko Kaca >>u0026 Cermin";"TOKO.BINTANG KACA";"Bukit Tempurung, Kota Kuala Simpang, Kabupaten Aceh Tamiang, Aceh 24475";"Kota Kuala Simpang, Kabupaten Aceh Tamiang";"ACEH";"24475";"Indonesia";" 085296952972";"4.2855852";"98.062632";"https://maps.google.com/?cid=0x0:0xaf296efef7a0497"
"building materials";"Toko Kaca >>u0026 Cermin";"Toko Indah Kaca";"73P5+JJV, Kota Kuala Simpang, Kabupaten Aceh Tamiang, Aceh 24456";"Kota Kuala Simpang, Kabupaten Aceh Tamiang";"ACEH";"24456";"Indonesia";" 082272229606";"4.2866156";"98.0590519";"https://maps.google.com/?cid=0x0:0x63a626e3d5bdbf9d"
"building materials";"Toko Perlengkapan Rumah";"An-Naya Batu bata - jual batu bata tamiang";"Dusun sukarakyat, Gampong Tupah, Kota Kuala Simpang, Kabupaten Aceh Tamiang, Aceh 24476";"Gampong Tupah, Kota Kuala Simpang, Kabupaten Aceh Tamiang";"ACEH";"24476";"Indonesia";" 082376857175";"4.3251332";"98.0560659";"https://maps.google.com/?cid=0x0:0x87cdf1bfb8be3064"
"building materials";"Toko Kaca";"Toko Bangunan Bintang Jaya Kampung Durian";"Jl. Sapta Jaya dusun metro jaya, Kp. Durian, Kota Kuala Simpang, Kabupaten Aceh Tamiang, Aceh 24474";"Kp. Durian, Kota Kuala Simpang, Kabupaten Aceh Tamiang";"ACEH";"24474";"Indonesia";" 082259439707";"4.2953519";"98.083651";"https://maps.google.com/?cid=0x0:0x4f08d170b51aa435"
"building materials";"building materials";"Aceh 24471";"Aceh";"Aceh";"ACEH";"";"Indonesia";"";"4.3465057";"97.8395151";"https://maps.google.com/?cid=0x0:0x6a96af07474c986b"
"building materials";"Toko Perlengkapan Rumah";"TOKO BESI DAN BAHAN BANGUNAN CAHAYA ABADI";"93XC+G3J, Jl. Lintas Sumatra, Tualang Baru, Kec. Manyak Payed, Kabupaten Aceh Tamiang, Aceh 24471";"Jl. Lintas Sumatra, Tualang Baru, Kec. Manyak Payed, Kabupaten Aceh Tamiang";"ACEH";"24471";"Indonesia";" 082167658373";"4.3988716";"98.0700961";"https://maps.google.com/?cid=0x0:0x351e338af5b61e09"
"building materials";"Pemasok Bahan Bangunan";"Nurta Jaya toko bangunan";"Ie Bintah, Kec. Manyak Payed, Kabupaten Aceh Tamiang, Aceh 24471";"Kec. Manyak Payed, Kabupaten Aceh Tamiang";"ACEH";"24471";"Indonesia";"";"4.3993038";"98.0680627";"https://maps.google.com/?cid=0x0:0x71f50b7c59ae06b4"
"building materials";"Kantor Perusahaan";"PT. Tirtakencana Tatawarna Langsa";"Matang Cincin, Kec. Manyak Payed, Kabupaten Aceh Tamiang, Aceh 24471";"Kec. Manyak Payed, Kabupaten Aceh Tamiang";"ACEH";"24471";"Indonesia";" 06414849031";"4.4131304";"98.0437909";"https://maps.google.com/?cid=0x0:0xd50e805290d0a578"
"building materials";"Toko Bahan Bangunan";"TB Sulya Bersaudara";"Isaq, Jl. Takengon - Angkup, Uning, Kec. Pegasing, Kabupaten Aceh Tengah, Aceh";"Kabupaten Aceh Tengah, Aceh";"ACEH";"";"Indonesia";"";"4.6168366";"96.8183828";"https://maps.google.com/?cid=0x0:0xee7dd8e04d7ccce9"
"building materials";"Kontraktor Umum";"AVINA GROUP 4";"83H8+CM8, Jl. Medan Banda Aceh, Pahlawan, Kota Kuala Simpang, Kabupaten Aceh Tamiang, Aceh 24476";"Jl. Medan Banda Aceh, Pahlawan, Kota Kuala Simpang, Kabupaten Aceh Tamiang";"ACEH";"24476";"Indonesia";" 085358626088";"4.3285316";"98.0667069";"https://maps.google.com/?cid=0x0:0x960a63ac0e0e7dac"
"building materials";"Toko Bahan Bangunan";"DUNIA KERAMIK";"Jl. Raya Bireuen - Takengon, Lut Kucak, Kec. Wih Pesam, Kabupaten Bener Meriah, Aceh 24471";"Lut Kucak, Kec. Wih Pesam, Kabupaten Bener Meriah";"ACEH";"24471";"Indonesia";" 085359224777";"4.7217518";"96.8076732";"https://maps.google.com/?cid=0x0:0x896396c6d007e666"
"building materials";"Tukang Kayu";"Panglong Birahpanyang.ilham prabot";"PV49+WPW, Tingkem Bersatu, Kec. Bukit, Kabupaten Bener Meriah, Aceh 24582";"Tingkem Bersatu, Kec. Bukit, Kabupaten Bener Meriah";"ACEH";"24582";"Indonesia";" 085370141380";"4.7073703";"96.8693167";"https://maps.google.com/?cid=0x0:0x7f1bfc86a7f72be2"
"building materials";"Toko Bahan Bangunan";"MAJU BERSAMA";"6WV5+M66, Wono Sari, Kec. Tamiang Hulu, Kabupaten Aceh Tamiang, Aceh 24382";"Wono Sari, Kec. Tamiang Hulu, Kabupaten Aceh Tamiang";"ACEH";"24382";"Indonesia";" 085281788214";"4.2441543";"97.9080047";"https://maps.google.com/?cid=0x0:0xfcce97bffb40d002"
"building materials";"Toko Bahan Bangunan";"Tanjung K Gypsum";"73M6+R52, JL. IR. H. Juanda, Kuala Simpang, Aceh Tamiang, Kota Kuala Simpang, Banda Aceh, Kabupaten Aceh Tamiang, Aceh 24456";"JL. IR. H. Juanda, Kuala Simpang, Aceh Tamiang, Kota Kuala Simpang, Banda Aceh, Kabupaten Aceh Tamiang";"ACEH";"24456";"Indonesia";" 085260972932";"4.2845072";"98.0603957";"https://maps.google.com/?cid=0x0:0x8fe99a4bcbf347df"
"building materials";"Toko Perlengkapan Rumah";"An-Naya Batu bata - jual batu bata tamiang";"Dusun sukarakyat, Gampong Tupah, Kota Kuala Simpang, Kabupaten Aceh Tamiang, Aceh 24476";"Gampong Tupah, Kota Kuala Simpang, Kabupaten Aceh Tamiang";"ACEH";"24476";"Indonesia";" 082376857175";"4.3251332";"98.0560659";"https://maps.google.com/?cid=0x0:0x87cdf1bfb8be3064"
"building materials";"Toko Bahan Bangunan";"Toko besi  bangunan MITRA 02";"PR93+RWP, Lut Kucak, Kec. Wih Pesam, Kabupaten Bener Meriah, Aceh 24471";"Lut Kucak, Kec. Wih Pesam, Kabupaten Bener Meriah";"ACEH";"24471";"Indonesia";" 085207072729";"4.7195935";"96.8048397";"https://maps.google.com/?cid=0x0:0x1c9b0ffa0c4bc3b3"
"building materials";"Pemasok Bahan Bangunan";"SUMBER BATU ALAM ACEH TAMIANG (BENUA RAJA)";"73QC+739, Benua Raja, Kec. Rantau, Kabupaten Aceh Tamiang, Aceh";"Kabupaten Aceh Tamiang, Aceh";"ACEH";"";"Indonesia";" 085254511251";"4.2881819";"98.0702637";"https://maps.google.com/?cid=0x0:0xf289b362d80572ad"
"building materials";"Toko Bahan Bangunan";"Toko Setia Kawan";"JVF2+W48, Bale Atu, Kec. Lut Tawar, Kabupaten Aceh Tengah, Aceh 24519";"Bale Atu, Kec. Lut Tawar, Kabupaten Aceh Tengah";"ACEH";"24519";"Indonesia";" 064321692";"4.6247984";"96.8503199";"https://maps.google.com/?cid=0x0:0xf78c6bd2c4b87654"
"building materials";"Toko Bahan Bangunan";"Usaha Abang Adik";"Jl. Urip Sumodiharjo No.164, Sirandorung, Kec. Rantau Utara, Kab. Labuhanbatu, Sumatera Utara 21411";"Sirandorung, Kec. Rantau Utara, Kab. Labuhanbatu";"ACEH";"21411";"Indonesia";"";"2.0966891";"99.8277131";"https://maps.google.com/?cid=0x0:0xa99a6937ca90457"
"building materials";"building materials";"toko Bangunan";"7487+VVJ, Suka Rahmat, Kec. Rantau, Kabupaten Aceh Tamiang, Aceh 24453";"Suka Rahmat, Kec. Rantau, Kabupaten Aceh Tamiang";"ACEH";"24453";"Indonesia";" 085275616812";"4.267212";"98.1146509";"https://maps.google.com/?cid=0x0:0xd82aca300cd72db7"
"building materials";"Toko Bahan Bangunan";"Cahaya Baru Bahan Bangunan";"Jl. Kualuh No.19, Kartini, Kec. Rantau Utara, Kab. Labuhanbatu, Sumatera Utara 21411";"Kartini, Kec. Rantau Utara, Kab. Labuhanbatu";"ACEH";"21411";"Indonesia";" 082166270219";"2.0986713";"99.8304882";"https://maps.google.com/?cid=0x0:0x669369efb561664c"
"building materials";"building materials";"Aceh 24476";"Kabupaten Aceh Tamiang, Aceh";"Kabupaten Aceh Tamiang, Aceh";"ACEH";"";"Indonesia";"";"4.3288776";"98.0628862";"https://maps.google.com/?cid=0x0:0x82d848b4ba041829"
"building materials";"building materials";"MISRA MANDIRI JAYA";"73P7+MQG, Bukit Tempurung, Kota Kuala Simpang, Kabupaten Aceh Tamiang, Aceh 24456";"Bukit Tempurung, Kota Kuala Simpang, Kabupaten Aceh Tamiang";"ACEH";"24456";"Indonesia";"";"4.2866875";"98.0644531";"https://maps.google.com/?cid=0x0:0xcb1908e601e41c6"
"building materials";"Pemasok Bahan Bangunan";"SUMBER BATU ALAM ACEH TAMIANG (BENUA RAJA)";"73QC+739, Benua Raja, Kec. Rantau, Kabupaten Aceh Tamiang, Aceh";"Kabupaten Aceh Tamiang, Aceh";"ACEH";"";"Indonesia";" 085254511251";"4.2881819";"98.0702637";"https://maps.google.com/?cid=0x0:0xf289b362d80572ad"
"building materials";"Toko Bahan Bangunan";"Irfab Gyfsum";"8385+WQ6, Jalan Medan Langsa, Karang Baru, Madang Ara, Gampong Johar, Kec. Karang Baru, Kabupaten Aceh Tamiang, Aceh 24476";"Jalan Medan Langsa, Karang Baru, Madang Ara, Gampong Johar, Kec. Karang Baru, Kabupaten Aceh Tamiang";"ACEH";"24476";"Indonesia";" 082160415169";"4.317295";"98.059384";"https://maps.google.com/?cid=0x0:0x4a63435d2a116859"
"building materials";"Toko Bahan Bangunan";"AL FATH PLAFON";"Jl.Lintas Medan Jl. Medan Banda Aceh, Tanah Terban, Kec. Karang Baru, Kabupaten Aceh Tamiang, Aceh";"Kabupaten Aceh Tamiang, Aceh";"ACEH";"";"Indonesia";"";"4.3174148";"98.0594178";"https://maps.google.com/?cid=0x0:0x18b80f37bd569e4c"
"building materials";"Toko Bahan Bangunan";"Tanjung K Gypsum";"73M6+R52, JL. IR. H. Juanda, Kuala Simpang, Aceh Tamiang, Kota Kuala Simpang, Banda Aceh, Kabupaten Aceh Tamiang, Aceh 24456";"JL. IR. H. Juanda, Kuala Simpang, Aceh Tamiang, Kota Kuala Simpang, Banda Aceh, Kabupaten Aceh Tamiang";"ACEH";"24456";"Indonesia";" 085260972932";"4.2845072";"98.0603957";"https://maps.google.com/?cid=0x0:0x8fe99a4bcbf347df"
"building materials";"Toko Perlengkapan Rumah";"Marga Agung";"Jalan panglima polem No.7 9, RW.11, Kuala Simpang City, Aceh Tamiang Regency, Aceh 24456";"RW.11, Kuala Simpang City, Aceh Tamiang Regency";"ACEH";"24456";"Indonesia";" 0641333228";"4.283875";"98.0575874";"https://maps.google.com/?cid=0x0:0x98803e320738b95e"
"building materials";"Toko Perlengkapan Rumah";"An-Naya Batu bata - jual batu bata tamiang";"Dusun sukarakyat, Gampong Tupah, Kota Kuala Simpang, Kabupaten Aceh Tamiang, Aceh 24476";"Gampong Tupah, Kota Kuala Simpang, Kabupaten Aceh Tamiang";"ACEH";"24476";"Indonesia";" 082376857175";"4.3251332";"98.0560659";"https://maps.google.com/?cid=0x0:0x87cdf1bfb8be3064"
"building materials";"Toko Bahan Bangunan";"Rimba Jaya Usaha";"JL. Banda Aceh-Medan, Km. 14 No. 5, Banda Aceh, 23127";"Km. 14 No. 5";"ACEH";"23127";"Indonesia";" 065127357";"4.328267";"98.064823";"https://maps.google.com/?cid=0x0:0x390ae57f35052afa"
"building materials";"building materials";"Kec. Sekerak";"Kabupaten Aceh Tamiang, Aceh";"Kabupaten Aceh Tamiang, Aceh";"ACEH";"";"Indonesia";"";"4.2958911";"97.9123683";"https://maps.google.com/?cid=0x0:0x96396ea163cebc7f"
"building materials";"Pemasok Bahan Bangunan";"Batu bata press thoriq";"83G4+3C4, Dsn suka rakyat, Gampong Tupah, Kec kr. Baru, Kabupaten Aceh Tamiang, Aceh 24476";"Dsn suka rakyat, Gampong Tupah, Kec kr. Baru, Kabupaten Aceh Tamiang";"ACEH";"24476";"Indonesia";"";"4.3251332";"98.0560659";"https://maps.google.com/?cid=0x0:0xa3e809b9ed1008"
"building materials";"Toko Perlengkapan Rumah";"Toko SH BANGUNAN";"Jl, Muka Sungai Kuruk, Kec. Seuruway, Kabupaten Aceh Tamiang, Aceh";"Kabupaten Aceh Tamiang, Aceh";"ACEH";"";"Indonesia";"";"4.3541556";"98.1853171";"https://maps.google.com/?cid=0x0:0x9851477dd1a1f493"
"building materials";"building materials";"toko Bangunan";"7487+VVJ, Suka Rahmat, Kec. Rantau, Kabupaten Aceh Tamiang, Aceh 24453";"Suka Rahmat, Kec. Rantau, Kabupaten Aceh Tamiang";"ACEH";"24453";"Indonesia";" 085275616812";"4.267212";"98.1146509";"https://maps.google.com/?cid=0x0:0xd82aca300cd72db7"
"building materials";"Toko Bahan Bangunan";"ASNAH ALAT BANGUNAN";"953M+M6P, Unnamed Road, Peukan Seuruway, Kec. Seuruway, Kabupaten Aceh Tamiang, Aceh 24472";"Unnamed Road, Peukan Seuruway, Kec. Seuruway, Kabupaten Aceh Tamiang";"ACEH";"24472";"Indonesia";"";"4.3542106";"98.1830639";"https://maps.google.com/?cid=0x0:0x2ca039ce29a36dc9"
"building materials";"building materials";"HOTEL MORIELISA";"Kebun Tanah Terban, Kec. Karang Baru, Kabupaten Aceh Tamiang, Aceh 24456";"Kec. Karang Baru, Kabupaten Aceh Tamiang";"ACEH";"24456";"Indonesia";" 082276005568";"4.3038101";"98.0460592";"https://maps.google.com/?cid=0x0:0x82d7277f3d84c4d7"
"building materials";"building materials";"Kec. Tamiang Hulu";"Kabupaten Aceh Tamiang, Aceh";"Kabupaten Aceh Tamiang, Aceh";"ACEH";"";"Indonesia";"";"4.1633008";"97.9539786";"https://maps.google.com/?cid=0x0:0x4376a9df79cb4397"
"building materials";"Toko Bahan Bangunan";"Toko Cahaya Muda";"5X75+697, Perk Pulau Tiga, Kec. Tamiang Hulu, Kabupaten Aceh Tamiang, Aceh 24477";"Perk Pulau Tiga, Kec. Tamiang Hulu, Kabupaten Aceh Tamiang";"ACEH";"24477";"Indonesia";" 085260996888";"4.1630307";"97.9584191";"https://maps.google.com/?cid=0x0:0xd4b9e37b778ae27f"
"building materials";"Toko Bahan Bangunan";"MAJU BERSAMA";"6WV5+M66, Wono Sari, Kec. Tamiang Hulu, Kabupaten Aceh Tamiang, Aceh 24382";"Wono Sari, Kec. Tamiang Hulu, Kabupaten Aceh Tamiang";"ACEH";"24382";"Indonesia";" 085281788214";"4.2441543";"97.9080047";"https://maps.google.com/?cid=0x0:0xfcce97bffb40d002"
"building materials";"Toko Bahan Bangunan";"Toko Bangunan Umran";"Jl. Medan Banda Aceh No.63, Seumadam, Kec. Kejuruan Muda, Kabupaten Aceh Tamiang, Aceh 24474";"Seumadam, Kec. Kejuruan Muda, Kabupaten Aceh Tamiang";"ACEH";"24474";"Indonesia";" 08126476231";"4.1821682";"98.0517118";"https://maps.google.com/?cid=0x0:0xc1453692ad2b177f"
"building materials";"Toko Bahan Bangunan";"Toko Bangun Cemerlang";"72VX+2R3, Gampong Bundar, Kec. Karang Baru, Kabupaten Aceh Tamiang, Aceh 24456";"Gampong Bundar, Kec. Karang Baru, Kabupaten Aceh Tamiang";"ACEH";"24456";"Indonesia";"";"4.292512";"98.0495532";"https://maps.google.com/?cid=0x0:0x950e021d55993633"
"building materials";"Toko Bahan Bangunan";"PD. Bachtiar Ama";"63P7+H9Q, Pangkalan, Kec. Kejuruan Muda, Kabupaten Aceh Tamiang, Aceh 24475";"Pangkalan, Kec. Kejuruan Muda, Kabupaten Aceh Tamiang";"ACEH";"24475";"Indonesia";" 0620543091";"4.236475";"98.0634718";"https://maps.google.com/?cid=0x0:0xd4728685837f28ee"
"building materials";"Toko Bahan Bangunan";"toko bangunan haryono";"62H4+4XQ, Tj. Genteng, Kec. Kejuruan Muda, Kabupaten Aceh Tamiang, Aceh 24474";"Tj. Genteng, Kec. Kejuruan Muda, Kabupaten Aceh Tamiang";"ACEH";"24474";"Indonesia";"";"4.228019";"98.007308";"https://maps.google.com/?cid=0x0:0x69d521fd3acdb92e"
"building materials";"Toko Bahan Bangunan";"Toko Cahaya Muda";"5X75+697, Perk Pulau Tiga, Kec. Tamiang Hulu, Kabupaten Aceh Tamiang, Aceh 24477";"Perk Pulau Tiga, Kec. Tamiang Hulu, Kabupaten Aceh Tamiang";"ACEH";"24477";"Indonesia";" 085260996888";"4.1630307";"97.9584191";"https://maps.google.com/?cid=0x0:0xd4b9e37b778ae27f"
"building materials";"building materials";"Aceh 24477";"Kabupaten Aceh Tamiang, Aceh";"Kabupaten Aceh Tamiang, Aceh";"ACEH";"";"Indonesia";"";"3.9904163";"97.9157099";"https://maps.google.com/?cid=0x0:0x559940852b05002f"
"building materials";"Toko Bahan Bangunan";"MAJU BERSAMA";"6WV5+M66, Wono Sari, Kec. Tamiang Hulu, Kabupaten Aceh Tamiang, Aceh 24382";"Wono Sari, Kec. Tamiang Hulu, Kabupaten Aceh Tamiang";"ACEH";"24382";"Indonesia";" 085281788214";"4.2441543";"97.9080047";"https://maps.google.com/?cid=0x0:0xfcce97bffb40d002"
"building materials";"Toko Bahan Bangunan";"Tanjung K Gypsum";"73M6+R52, JL. IR. H. Juanda, Kuala Simpang, Aceh Tamiang, Kota Kuala Simpang, Banda Aceh, Kabupaten Aceh Tamiang, Aceh 24456";"JL. IR. H. Juanda, Kuala Simpang, Aceh Tamiang, Kota Kuala Simpang, Banda Aceh, Kabupaten Aceh Tamiang";"ACEH";"24456";"Indonesia";" 085260972932";"4.2845072";"98.0603957";"https://maps.google.com/?cid=0x0:0x8fe99a4bcbf347df"
"building materials";"Toko Bahan Bangunan";"Irfab Gyfsum";"8385+WQ6, Jalan Medan Langsa, Karang Baru, Madang Ara, Gampong Johar, Kec. Karang Baru, Kabupaten Aceh Tamiang, Aceh 24476";"Jalan Medan Langsa, Karang Baru, Madang Ara, Gampong Johar, Kec. Karang Baru, Kabupaten Aceh Tamiang";"ACEH";"24476";"Indonesia";" 082160415169";"4.317295";"98.059384";"https://maps.google.com/?cid=0x0:0x4a63435d2a116859"
"building materials";"Toko Bahan Bangunan";"Toko Tanjung Mulia Baru";"Jl. Letjend Suprapto No.8, Kota Kuala Simpang, Kabupaten Aceh Tamiang, Aceh 24475";"Kota Kuala Simpang, Kabupaten Aceh Tamiang";"ACEH";"24475";"Indonesia";" 082361611188";"4.2840128";"98.0601734";"https://maps.google.com/?cid=0x0:0x4f409804eac6f148"
"building materials";"Kontraktor Umum";"AVINA GROUP 4";"83H8+CM8, Jl. Medan Banda Aceh, Pahlawan, Kota Kuala Simpang, Kabupaten Aceh Tamiang, Aceh 24476";"Jl. Medan Banda Aceh, Pahlawan, Kota Kuala Simpang, Kabupaten Aceh Tamiang";"ACEH";"24476";"Indonesia";" 085358626088";"4.3285316";"98.0667069";"https://maps.google.com/?cid=0x0:0x960a63ac0e0e7dac"
"building materials";"Toko Bahan Bangunan";"Toko bangunan, arrohman";"Purwodadi, Kec. Kejuruan Muda, Kabupaten Aceh Tamiang, Aceh 24475";"Kec. Kejuruan Muda, Kabupaten Aceh Tamiang";"ACEH";"24475";"Indonesia";" 082316146356";"4.2182002";"98.0691677";"https://maps.google.com/?cid=0x0:0x8c52495e70679bb7"
"building materials";"Pemasok Bahan Bangunan";"SUMBER BATU ALAM ACEH TAMIANG (BENUA RAJA)";"73QC+739, Benua Raja, Kec. Rantau, Kabupaten Aceh Tamiang, Aceh";"Kabupaten Aceh Tamiang, Aceh";"ACEH";"";"Indonesia";" 085254511251";"4.2881819";"98.0702637";"https://maps.google.com/?cid=0x0:0xf289b362d80572ad"
"building materials";"building materials";"MISRA MANDIRI JAYA";"73P7+MQG, Bukit Tempurung, Kota Kuala Simpang, Kabupaten Aceh Tamiang, Aceh 24456";"Bukit Tempurung, Kota Kuala Simpang, Kabupaten Aceh Tamiang";"ACEH";"24456";"Indonesia";"";"4.2866875";"98.0644531";"https://maps.google.com/?cid=0x0:0xcb1908e601e41c6"
"building materials";"Toko Bahan Bangunan";"toko guna baru";"WQXC+VFG, Jl. Medan Banda Aceh, Kuta Blang, Kec. Idi Rayeuk, Kabupaten Aceh Timur, Aceh";"Kabupaten Aceh Timur, Aceh";"ACEH";"";"Indonesia";"";"4.9496962";"97.7712131";"https://maps.google.com/?cid=0x0:0x95566961f59d4fd2"
"building materials";"Toko Perlengkapan Rumah";"Toko SH BANGUNAN";"Jl, Muka Sungai Kuruk, Kec. Seuruway, Kabupaten Aceh Tamiang, Aceh";"Kabupaten Aceh Tamiang, Aceh";"ACEH";"";"Indonesia";"";"4.3541556";"98.1853171";"https://maps.google.com/?cid=0x0:0x9851477dd1a1f493"
"building materials";"Toko Bahan Bangunan";"Afdalzikri";"93GH+JGF, Kebun Tj. Seumantoh, Kec. Karang Baru, Kabupaten Aceh Tamiang, Aceh 24471";"Kebun Tj. Seumantoh, Kec. Karang Baru, Kabupaten Aceh Tamiang";"ACEH";"24471";"Indonesia";"";"4.3765619";"98.0788099";"https://maps.google.com/?cid=0x0:0xd8aea92cbd9f3d65"
"building materials";"Toko Perlengkapan Rumah";"TOKO BESI DAN BAHAN BANGUNAN CAHAYA ABADI";"93XC+G3J, Jl. Lintas Sumatra, Tualang Baru, Kec. Manyak Payed, Kabupaten Aceh Tamiang, Aceh 24471";"Jl. Lintas Sumatra, Tualang Baru, Kec. Manyak Payed, Kabupaten Aceh Tamiang";"ACEH";"24471";"Indonesia";" 082167658373";"4.3988716";"98.0700961";"https://maps.google.com/?cid=0x0:0x351e338af5b61e09"
"hardware store";"Toko Perlengkapan Rumah";"Toko SH BANGUNAN";"Jl, Muka Sungai Kuruk, Kec. Seuruway, Kabupaten Aceh Tamiang, Aceh";"Kabupaten Aceh Tamiang, Aceh";"ACEH";"";"Indonesia";"";"4.3541556";"98.1853171";"https://maps.google.com/?cid=0x0:0x9851477dd1a1f493"
"hardware store";"hardware store";"Kec. Banda Mulia";"Kabupaten Aceh Tamiang, Aceh";"Kabupaten Aceh Tamiang, Aceh";"ACEH";"";"Indonesia";"";"4.4405846";"98.1360921";"https://maps.google.com/?cid=0x0:0xe04c2bd9d3d421e8"
"hardware store";"Toko Fotokopi";"AYUN FOTOCOPY";"C4GF+M77, Jl. Telaga Meuku, Telaga Meuku II, Kec. Banda Mulia, Kabupaten Aceh Tamiang, Aceh 24471";"Jl. Telaga Meuku, Telaga Meuku II, Kec. Banda Mulia, Kabupaten Aceh Tamiang";"ACEH";"24471";"Indonesia";" 082274654171";"4.4266685";"98.1231772";"https://maps.google.com/?cid=0x0:0xb15a2333adf440c3"
"hardware store";"Toko Bahan Bangunan";"TOKO SUBUR JAYA";"Desa Simpang IV, Upah, Kec. Karang Baru, Kabupaten Aceh Tamiang, Aceh 24474";"Upah, Kec. Karang Baru, Kabupaten Aceh Tamiang";"ACEH";"24474";"Indonesia";" 085227072369";"4.3706584";"98.0962068";"https://maps.google.com/?cid=0x0:0x93900b7b6e6e7db1"
"hardware store";"Toko Ponsel";"Fera Data Store / FDS RELOAD / Global Distro / Jf Stuuffs Butik";"Kota Lintang Atas, Kota Lintang, Kota Kuala Simpang, Kabupaten Aceh Tamiang, Aceh 24456";"Kota Lintang, Kota Kuala Simpang, Kabupaten Aceh Tamiang";"ACEH";"24456";"Indonesia";" 082177777080";"4.2863561";"98.0606852";"https://maps.google.com/?cid=0x0:0x13774fa3d7ce8737"
"hardware store";"Toko Bahan Bangunan";"One HARDWARE";"Jl. Moh. Jam No.99, Kp. Baru, Kec. Baiturrahman, Kota Banda Aceh, Aceh 23242";"Kp. Baru, Kec. Baiturrahman, Kota Banda Aceh";"ACEH";"23242";"Indonesia";" 085296375922";"5.5533946";"95.3143585";"https://maps.google.com/?cid=0x0:0x96558df6ca96ec5a"
"hardware store";"Toko";"Dealer Honda Tualang Baru";"Tualang Baru, Kec. Manyak Payed, Kabupaten Aceh Tamiang, Aceh 24471";"Kec. Manyak Payed, Kabupaten Aceh Tamiang";"ACEH";"24471";"Indonesia";" 081262333177";"4.3982469";"98.074635";"https://maps.google.com/?cid=0x0:0x4c795ff7bad7922"
"hardware store";"Toko Bahan Bangunan";"Toko Bangunan RAYA MULIA 2";"Jl. Prada Utama, Lamgugob, Kec. Syiah Kuala, Kota Banda Aceh, Aceh";"Kota Banda Aceh, Aceh";"ACEH";"";"Indonesia";" 08116806596";"5.5749662";"95.3550309";"https://maps.google.com/?cid=0x0:0xd31eb58cf56fe415"
"hardware store";"Toko Fotokopi";"Fotocopy Dera";"C427+VV9, Sukajadi, Kec. Banda Mulia, Kabupaten Aceh Tamiang, Aceh";"Kabupaten Aceh Tamiang, Aceh";"ACEH";"";"Indonesia";"";"4.4021646";"98.1147418";"https://maps.google.com/?cid=0x0:0x363cfe50bed8ab2c"
"hardware store";"Toko Bahan Bangunan";"Toko bangunan sinar utara";"95M6+RRW, Jl. Medan B. Aceh, Seuneubok Dalam Mesjid, Banda Aceh, Kabupaten Aceh Tamiang, Aceh 24472";"Jl. Medan B. Aceh, Seuneubok Dalam Mesjid, Banda Aceh, Kabupaten Aceh Tamiang";"ACEH";"24472";"Indonesia";" 085262303826";"4.3847402";"98.1627285";"https://maps.google.com/?cid=0x0:0x5ca1257abddb6f4e"
"hardware store";"Toko Bahan Bangunan";"Mulia";"458Q+Q5Q, JL Malikul Dhahir, Syamtalira Bayu, Kedai Bayu, Mns Beunot, Banda Aceh, Kabupaten Aceh Utara, Aceh 24373";"JL Malikul Dhahir, Syamtalira Bayu, Kedai Bayu, Mns Beunot, Banda Aceh, Kabupaten Aceh Utara";"ACEH";"24373";"Indonesia";" 085260778560";"5.1169629";"97.1879848";"https://maps.google.com/?cid=0x0:0xdf68116aa3cb442f"
"hardware store";"Toko Bahan Bangunan";"Toko bangunan";"7VVH+V2G, Babo, Kec. Bandar Pusaka, Kabupaten Aceh Tamiang, Aceh 24456";"Babo, Kec. Bandar Pusaka, Kabupaten Aceh Tamiang";"ACEH";"24456";"Indonesia";" 08527799912";"4.2946931";"97.8775738";"https://maps.google.com/?cid=0x0:0xcb5b4bb21b3fe6e0"
"hardware store";"Toko Perlengkapan Rumah";"Zainal";"7W36+H5X, Unnamed Road, Jambo Rambong, Kec. Bandar Pusaka, Kabupaten Aceh Tamiang, Aceh 24382";"Unnamed Road, Jambo Rambong, Kec. Bandar Pusaka, Kabupaten Aceh Tamiang";"ACEH";"24382";"Indonesia";"";"4.2539798";"97.9104986";"https://maps.google.com/?cid=0x0:0xf03a4ded06c8cac9"
"hardware store";"hardware store";"Kec. Bendahara";"Kabupaten Aceh Tamiang, Aceh";"Kabupaten Aceh Tamiang, Aceh";"ACEH";"";"Indonesia";"";"4.4074501";"98.1695001";"https://maps.google.com/?cid=0x0:0xa3729d585ef6a9a8"
"hardware store";"Toko Perlengkapan Rumah";"Toko SH BANGUNAN";"Jl, Muka Sungai Kuruk, Kec. Seuruway, Kabupaten Aceh Tamiang, Aceh";"Kabupaten Aceh Tamiang, Aceh";"ACEH";"";"Indonesia";"";"4.3541556";"98.1853171";"https://maps.google.com/?cid=0x0:0x9851477dd1a1f493"
"hardware store";"Pemasok Bahan Bangunan";"Nurta Jaya toko bangunan";"Ie Bintah, Kec. Manyak Payed, Kabupaten Aceh Tamiang, Aceh 24471";"Kec. Manyak Payed, Kabupaten Aceh Tamiang";"ACEH";"24471";"Indonesia";"";"4.3993038";"98.0680627";"https://maps.google.com/?cid=0x0:0x71f50b7c59ae06b4"
"hardware store";"Toko Bahan Bangunan";"Irfab Gyfsum";"8385+WQ6, Jalan Medan Langsa, Karang Baru, Madang Ara, Gampong Johar, Kec. Karang Baru, Kabupaten Aceh Tamiang, Aceh 24476";"Jalan Medan Langsa, Karang Baru, Madang Ara, Gampong Johar, Kec. Karang Baru, Kabupaten Aceh Tamiang";"ACEH";"24476";"Indonesia";" 082160415169";"4.317295";"98.059384";"https://maps.google.com/?cid=0x0:0x4a63435d2a116859"
"hardware store";"Toko Bahan Bangunan";"TOKO SUBUR JAYA";"Desa Simpang IV, Upah, Kec. Karang Baru, Kabupaten Aceh Tamiang, Aceh 24474";"Upah, Kec. Karang Baru, Kabupaten Aceh Tamiang";"ACEH";"24474";"Indonesia";" 085227072369";"4.3706584";"98.0962068";"https://maps.google.com/?cid=0x0:0x93900b7b6e6e7db1"
"hardware store";"Toko Bahan Bangunan";"Toko Tanjung Mulia Baru";"Jl. Letjend Suprapto No.8, Kota Kuala Simpang, Kabupaten Aceh Tamiang, Aceh 24475";"Kota Kuala Simpang, Kabupaten Aceh Tamiang";"ACEH";"24475";"Indonesia";" 082361611188";"4.2840128";"98.0601734";"https://maps.google.com/?cid=0x0:0x4f409804eac6f148"
"hardware store";"Toko Alat Tulis";"Toko Panda";"73M5+FG7, Kota Kuala Simpang, Kabupaten Aceh Tamiang, Aceh 24456";"Kota Kuala Simpang, Kabupaten Aceh Tamiang";"ACEH";"24456";"Indonesia";" 082280543213";"4.2836508";"98.0588125";"https://maps.google.com/?cid=0x0:0x4654f1b0966746ee"
"hardware store";"Toko Kaca";"Toko Bangunan Bintang Jaya Kampung Durian";"Jl. Sapta Jaya dusun metro jaya, Kp. Durian, Kota Kuala Simpang, Kabupaten Aceh Tamiang, Aceh 24474";"Kp. Durian, Kota Kuala Simpang, Kabupaten Aceh Tamiang";"ACEH";"24474";"Indonesia";" 082259439707";"4.2953519";"98.083651";"https://maps.google.com/?cid=0x0:0x4f08d170b51aa435"
"hardware store";"Toko Fotokopi";"AYUN FOTOCOPY";"C4GF+M77, Jl. Telaga Meuku, Telaga Meuku II, Kec. Banda Mulia, Kabupaten Aceh Tamiang, Aceh 24471";"Jl. Telaga Meuku, Telaga Meuku II, Kec. Banda Mulia, Kabupaten Aceh Tamiang";"ACEH";"24471";"Indonesia";" 082274654171";"4.4266685";"98.1231772";"https://maps.google.com/?cid=0x0:0xb15a2333adf440c3"
"hardware store";"Toko";"Dealer Honda Tualang Baru";"Tualang Baru, Kec. Manyak Payed, Kabupaten Aceh Tamiang, Aceh 24471";"Kec. Manyak Payed, Kabupaten Aceh Tamiang";"ACEH";"24471";"Indonesia";" 081262333177";"4.3982469";"98.074635";"https://maps.google.com/?cid=0x0:0x4c795ff7bad7922"
"hardware store";"Toko Alat Tulis Kantor";"TOKO BANGUNAN PANDA PRIMA";"73P3+Q42, Kesehatan, Kec. Karang Baru, Kabupaten Aceh Tamiang, Aceh 24456";"Kesehatan, Kec. Karang Baru, Kabupaten Aceh Tamiang";"ACEH";"24456";"Indonesia";" 085260856696";"4.287018";"98.0526676";"https://maps.google.com/?cid=0x0:0x2125bb49c07f528d"
"hardware store";"Toko Bahan Bangunan";"Q Cons Hardware Enterprise";"Lot 4675, Kg.Sg.Kap, KM 51, Nami Rd, Felda Lubuk Merbau, 06300 Kuala Nerang, Kedah, Malaysia";"Kuala Nerang";"ACEH";"06300";"Indonesia";" +601115344736";"6.0522135";"100.7417431";"https://maps.google.com/?cid=0x0:0xfd6451a513417ae5"
"hardware store";"Toko Bahan Bangunan";"Toko bangunan gunung lampu";"Jl. Rantau, Bukit Tempurung, Kota Kuala Simpang, Kabupaten Aceh Tamiang, Aceh 24475";"Bukit Tempurung, Kota Kuala Simpang, Kabupaten Aceh Tamiang";"ACEH";"24475";"Indonesia";" 082177325596";"4.2859138";"98.0631398";"https://maps.google.com/?cid=0x0:0x760175408c9aa1e9"
"hardware store";"Toko Bahan Bangunan";"CHANG DENG ENTERPRISE";"06400 Kuala Nerang, Kedah, Malaysia";"Kuala Nerang";"ACEH";"06400";"Indonesia";"";"6.0895171";"100.6841612";"https://maps.google.com/?cid=0x0:0x4e47087c24201a1a"
"hardware store";"hardware store";"Aceh 24476";"Kabupaten Aceh Tamiang, Aceh";"Kabupaten Aceh Tamiang, Aceh";"ACEH";"";"Indonesia";"";"4.3288776";"98.0628862";"https://maps.google.com/?cid=0x0:0x82d848b4ba041829"
"hardware store";"Toko Bahan Bangunan";"Irfab Gyfsum";"8385+WQ6, Jalan Medan Langsa, Karang Baru, Madang Ara, Gampong Johar, Kec. Karang Baru, Kabupaten Aceh Tamiang, Aceh 24476";"Jalan Medan Langsa, Karang Baru, Madang Ara, Gampong Johar, Kec. Karang Baru, Kabupaten Aceh Tamiang";"ACEH";"24476";"Indonesia";" 082160415169";"4.317295";"98.059384";"https://maps.google.com/?cid=0x0:0x4a63435d2a116859"
"hardware store";"Toko Alat Tulis Kantor";"TOKO BANGUNAN PANDA PRIMA";"73P3+Q42, Kesehatan, Kec. Karang Baru, Kabupaten Aceh Tamiang, Aceh 24456";"Kesehatan, Kec. Karang Baru, Kabupaten Aceh Tamiang";"ACEH";"24456";"Indonesia";" 085260856696";"4.287018";"98.0526676";"https://maps.google.com/?cid=0x0:0x2125bb49c07f528d"
"hardware store";"Toko Ponsel";"Fera Data Store / FDS RELOAD / Global Distro / Jf Stuuffs Butik";"Kota Lintang Atas, Kota Lintang, Kota Kuala Simpang, Kabupaten Aceh Tamiang, Aceh 24456";"Kota Lintang, Kota Kuala Simpang, Kabupaten Aceh Tamiang";"ACEH";"24456";"Indonesia";" 082177777080";"4.2863561";"98.0606852";"https://maps.google.com/?cid=0x0:0x13774fa3d7ce8737"
"hardware store";"Toko Kaca";"Toko Bangunan Bintang Jaya Kampung Durian";"Jl. Sapta Jaya dusun metro jaya, Kp. Durian, Kota Kuala Simpang, Kabupaten Aceh Tamiang, Aceh 24474";"Kp. Durian, Kota Kuala Simpang, Kabupaten Aceh Tamiang";"ACEH";"24474";"Indonesia";" 082259439707";"4.2953519";"98.083651";"https://maps.google.com/?cid=0x0:0x4f08d170b51aa435"
"hardware store";"Toko Bahan Bangunan";"Toko bangunan gunung lampu";"Jl. Rantau, Bukit Tempurung, Kota Kuala Simpang, Kabupaten Aceh Tamiang, Aceh 24475";"Bukit Tempurung, Kota Kuala Simpang, Kabupaten Aceh Tamiang";"ACEH";"24475";"Indonesia";" 082177325596";"4.2859138";"98.0631398";"https://maps.google.com/?cid=0x0:0x760175408c9aa1e9"
"hardware store";"Toko Alat Tulis";"Toko Panda";"73M5+FG7, Kota Kuala Simpang, Kabupaten Aceh Tamiang, Aceh 24456";"Kota Kuala Simpang, Kabupaten Aceh Tamiang";"ACEH";"24456";"Indonesia";" 082280543213";"4.2836508";"98.0588125";"https://maps.google.com/?cid=0x0:0x4654f1b0966746ee"
"hardware store";"Toko Bahan Bangunan";"TOKO SUBUR JAYA";"Desa Simpang IV, Upah, Kec. Karang Baru, Kabupaten Aceh Tamiang, Aceh 24474";"Upah, Kec. Karang Baru, Kabupaten Aceh Tamiang";"ACEH";"24474";"Indonesia";" 085227072369";"4.3706584";"98.0962068";"https://maps.google.com/?cid=0x0:0x93900b7b6e6e7db1"
"hardware store";"Toko Bahan Bangunan";"Toko bangunan, arrohman";"Purwodadi, Kec. Kejuruan Muda, Kabupaten Aceh Tamiang, Aceh 24475";"Kec. Kejuruan Muda, Kabupaten Aceh Tamiang";"ACEH";"24475";"Indonesia";" 082316146356";"4.2182002";"98.0691677";"https://maps.google.com/?cid=0x0:0x8c52495e70679bb7"
"hardware store";"Pemasok Bahan Bangunan";"Nurta Jaya toko bangunan";"Ie Bintah, Kec. Manyak Payed, Kabupaten Aceh Tamiang, Aceh 24471";"Kec. Manyak Payed, Kabupaten Aceh Tamiang";"ACEH";"24471";"Indonesia";"";"4.3993038";"98.0680627";"https://maps.google.com/?cid=0x0:0x71f50b7c59ae06b4"
"hardware store";"Toko Komputer";"Logica Kreasi Komputer";"Jl. Lintas Sumatra Jl. Iskandar Muda No.11, Kota Kuala Simpang, Kabupaten Aceh Tamiang, Aceh 24475";"Kota Kuala Simpang, Kabupaten Aceh Tamiang";"ACEH";"24475";"Indonesia";" 085297712238";"4.2856953";"98.0592328";"https://maps.google.com/?cid=0x0:0x7fe6ea26284f0d07"
"hardware store";"Toko Ponsel";"NEW ASLISEL";"Jalan Ahmad yani No.35, Kota Kuala Simpang, Kabupaten Aceh Tamiang, Aceh 24475";"Kota Kuala Simpang, Kabupaten Aceh Tamiang";"ACEH";"24475";"Indonesia";" 085270297148";"4.284716";"98.059654";"https://maps.google.com/?cid=0x0:0xd123108b01afc4db"
"hardware store";"Kantor Perusahaan";"Fotocopy";"8355+QHW, Tanah Terban, Kec. Karang Baru, Kabupaten Aceh Tamiang, Aceh 24456";"Tanah Terban, Kec. Karang Baru, Kabupaten Aceh Tamiang";"ACEH";"24456";"Indonesia";"";"4.3089708";"98.0591811";"https://maps.google.com/?cid=0x0:0x2cac7a3019e6a5e1"
"hardware store";"Dealer Honda";"CV. Maju Jaya Prima";"Jalan Cut Nyak Dien No. 27 Gampong Bundar, Kota Kuala Simpang, Kec. Karang Baru, Aceh 24475";"Kota Kuala Simpang, Kec. Karang Baru";"ACEH";"24475";"Indonesia";" 085276154389";"4.2861574";"98.05938";"https://maps.google.com/?cid=0x0:0x4e2b8717536de927"
"hardware store";"Toko Bahan Bangunan";"Toko Bangunan Umran";"Jl. Medan Banda Aceh No.63, Seumadam, Kec. Kejuruan Muda, Kabupaten Aceh Tamiang, Aceh 24474";"Seumadam, Kec. Kejuruan Muda, Kabupaten Aceh Tamiang";"ACEH";"24474";"Indonesia";" 08126476231";"4.1821682";"98.0517118";"https://maps.google.com/?cid=0x0:0xc1453692ad2b177f"
"hardware store";"Toko Bahan Bangunan";"Toko bangunan, arrohman";"Purwodadi, Kec. Kejuruan Muda, Kabupaten Aceh Tamiang, Aceh 24475";"Kec. Kejuruan Muda, Kabupaten Aceh Tamiang";"ACEH";"24475";"Indonesia";" 082316146356";"4.2182002";"98.0691677";"https://maps.google.com/?cid=0x0:0x8c52495e70679bb7"
"hardware store";"hardware store";"Kec. Kejuruan Muda";"Kabupaten Aceh Tamiang, Aceh";"Kabupaten Aceh Tamiang, Aceh";"ACEH";"";"Indonesia";"";"4.2310452";"98.0585627";"https://maps.google.com/?cid=0x0:0x31c3ba765be70142"
"hardware store";"Toko Bahan Bangunan";"Toko Tanjung Mulia Baru";"Jl. Letjend Suprapto No.8, Kota Kuala Simpang, Kabupaten Aceh Tamiang, Aceh 24475";"Kota Kuala Simpang, Kabupaten Aceh Tamiang";"ACEH";"24475";"Indonesia";" 082361611188";"4.2840128";"98.0601734";"https://maps.google.com/?cid=0x0:0x4f409804eac6f148"
"hardware store";"Toko Bahan Bangunan";"Irfab Gyfsum";"8385+WQ6, Jalan Medan Langsa, Karang Baru, Madang Ara, Gampong Johar, Kec. Karang Baru, Kabupaten Aceh Tamiang, Aceh 24476";"Jalan Medan Langsa, Karang Baru, Madang Ara, Gampong Johar, Kec. Karang Baru, Kabupaten Aceh Tamiang";"ACEH";"24476";"Indonesia";" 082160415169";"4.317295";"98.059384";"https://maps.google.com/?cid=0x0:0x4a63435d2a116859"
"hardware store";"Toko Elektronik";"Om Met Service Elektronik Dan Menerima Sound System /Keyboard";"Pangkalan, Kec. Kejuruan Muda, Kabupaten Aceh Tamiang, Aceh 24474";"Kec. Kejuruan Muda, Kabupaten Aceh Tamiang";"ACEH";"24474";"Indonesia";" 082370672939";"4.2320462";"98.0515197";"https://maps.google.com/?cid=0x0:0x6992cf3219155494"
"hardware store";"Toko Alat Tulis Kantor";"TOKO BANGUNAN PANDA PRIMA";"73P3+Q42, Kesehatan, Kec. Karang Baru, Kabupaten Aceh Tamiang, Aceh 24456";"Kesehatan, Kec. Karang Baru, Kabupaten Aceh Tamiang";"ACEH";"24456";"Indonesia";" 085260856696";"4.287018";"98.0526676";"https://maps.google.com/?cid=0x0:0x2125bb49c07f528d"
"hardware store";"Toko Alat Tulis";"Toko Panda";"73M5+FG7, Kota Kuala Simpang, Kabupaten Aceh Tamiang, Aceh 24456";"Kota Kuala Simpang, Kabupaten Aceh Tamiang";"ACEH";"24456";"Indonesia";" 082280543213";"4.2836508";"98.0588125";"https://maps.google.com/?cid=0x0:0x4654f1b0966746ee"
"hardware store";"Toko Bahan Bangunan";"Toko bangunan gunung lampu";"Jl. Rantau, Bukit Tempurung, Kota Kuala Simpang, Kabupaten Aceh Tamiang, Aceh 24475";"Bukit Tempurung, Kota Kuala Simpang, Kabupaten Aceh Tamiang";"ACEH";"24475";"Indonesia";" 082177325596";"4.2859138";"98.0631398";"https://maps.google.com/?cid=0x0:0x760175408c9aa1e9"
"hardware store";"Toko Alat Tulis";"Arya Foto Kopi";"73P6+H6C, Kota Lintang, Kota Kuala Simpang, Kabupaten Aceh Tamiang, Aceh 24456";"Kota Lintang, Kota Kuala Simpang, Kabupaten Aceh Tamiang";"ACEH";"24456";"Indonesia";" 085261825082";"4.2864357";"98.0605106";"https://maps.google.com/?cid=0x0:0x309d6b404a42c7f7"
"hardware store";"Toko Alat Tulis Kantor";"Foto Copy Thoyyiba";"Jl. Letjend Suprapto, Kota Kuala Simpang, Kabupaten Aceh Tamiang, Aceh 24475";"Kota Kuala Simpang, Kabupaten Aceh Tamiang";"ACEH";"24475";"Indonesia";" 089512825597";"4.2837958";"98.0574731";"https://maps.google.com/?cid=0x0:0xb4cadc1e6bbee3e0"
"hardware store";"Dealer Honda";"CV HONDA PRIMA JAYA (3in1)";"Jl. IR. H.JUANDA DUSUN INPRES BUDAR KARANG BARU, Kota Kuala Simpang, Aceh 24456";"Kota Kuala Simpang";"ACEH";"24456";"Indonesia";" 085362666618";"4.2925001";"98.052144";"https://maps.google.com/?cid=0x0:0x1a82898d159922d2"
"hardware store";"Dealer Honda";"CV. Maju Jaya Prima";"Jalan Cut Nyak Dien No. 27 Gampong Bundar, Kota Kuala Simpang, Kec. Karang Baru, Aceh 24475";"Kota Kuala Simpang, Kec. Karang Baru";"ACEH";"24475";"Indonesia";" 085276154389";"4.2861574";"98.05938";"https://maps.google.com/?cid=0x0:0x4e2b8717536de927"
"hardware store";"Toko Kaca";"Toko Bangunan Bintang Jaya Kampung Durian";"Jl. Sapta Jaya dusun metro jaya, Kp. Durian, Kota Kuala Simpang, Kabupaten Aceh Tamiang, Aceh 24474";"Kp. Durian, Kota Kuala Simpang, Kabupaten Aceh Tamiang";"ACEH";"24474";"Indonesia";" 082259439707";"4.2953519";"98.083651";"https://maps.google.com/?cid=0x0:0x4f08d170b51aa435"
"hardware store";"hardware store";"Kota Kuala Simpang";"Kabupaten Aceh Tamiang, Aceh";"Kabupaten Aceh Tamiang, Aceh";"ACEH";"";"Indonesia";"";"4.2856625";"98.060158";"https://maps.google.com/?cid=0x0:0x1c98c7d4ec51e5aa"
"hardware store";"Toko Ponsel";"Fera Data Store / FDS RELOAD / Global Distro / Jf Stuuffs Butik";"Kota Lintang Atas, Kota Lintang, Kota Kuala Simpang, Kabupaten Aceh Tamiang, Aceh 24456";"Kota Lintang, Kota Kuala Simpang, Kabupaten Aceh Tamiang";"ACEH";"24456";"Indonesia";" 082177777080";"4.2863561";"98.0606852";"https://maps.google.com/?cid=0x0:0x13774fa3d7ce8737"
"hardware store";"Toko Perlengkapan Rumah";"TOKO AL RAZAQ PERABOT";"Jl. Letjend Suprapto, Kota Kuala Simpang, Kabupaten Aceh Tamiang, Aceh 24456";"Kota Kuala Simpang, Kabupaten Aceh Tamiang";"ACEH";"24456";"Indonesia";" 085213871353";"4.2838478";"98.0589618";"https://maps.google.com/?cid=0x0:0xedfff1e611000aca"
"hardware store";"Toko Ponsel";"NEW ASLISEL";"Jalan Ahmad yani No.35, Kota Kuala Simpang, Kabupaten Aceh Tamiang, Aceh 24475";"Kota Kuala Simpang, Kabupaten Aceh Tamiang";"ACEH";"24475";"Indonesia";" 085270297148";"4.284716";"98.059654";"https://maps.google.com/?cid=0x0:0xd123108b01afc4db"
"hardware store";"Toko Bahan Bangunan";"Toko Tanjung Mulia Baru";"Jl. Letjend Suprapto No.8, Kota Kuala Simpang, Kabupaten Aceh Tamiang, Aceh 24475";"Kota Kuala Simpang, Kabupaten Aceh Tamiang";"ACEH";"24475";"Indonesia";" 082361611188";"4.2840128";"98.0601734";"https://maps.google.com/?cid=0x0:0x4f409804eac6f148"
"hardware store";"Toko Alat Tulis";"Toko Panda";"73M5+FG7, Kota Kuala Simpang, Kabupaten Aceh Tamiang, Aceh 24456";"Kota Kuala Simpang, Kabupaten Aceh Tamiang";"ACEH";"24456";"Indonesia";" 082280543213";"4.2836508";"98.0588125";"https://maps.google.com/?cid=0x0:0x4654f1b0966746ee"
"hardware store";"Toko";"Bintang terang Kuala Simpang Aceh tamiang";"Jln k.s tubun No.4, Kota Kuala Simpang, Kabupaten Aceh Tamiang, Aceh 24475";"Kota Kuala Simpang, Kabupaten Aceh Tamiang";"ACEH";"24475";"Indonesia";" 085361553333";"4.283777";"98.058112";"https://maps.google.com/?cid=0x0:0x8e8e76edb9d73ac7"
"hardware store";"Toko Elektronik";"Toko Angkasa";"73P5+6VM, Jl. Cut Nyak Dien, Kota Kuala Simpang, Kabupaten Aceh Tamiang, Aceh 24456";"Jl. Cut Nyak Dien, Kota Kuala Simpang, Kabupaten Aceh Tamiang";"ACEH";"24456";"Indonesia";"";"4.2854626";"98.0596932";"https://maps.google.com/?cid=0x0:0x3d3469b59c3643cf"
"hardware store";"Toko Perlengkapan Rumah";"Tamiang Perabot";"73M5+RW7, Unnamed Road, Kota Kuala Simpang, Kabupaten Aceh Tamiang, Aceh 24456";"Unnamed Road, Kota Kuala Simpang, Kabupaten Aceh Tamiang";"ACEH";"24456";"Indonesia";" 082168149069";"4.2845417";"98.059791";"https://maps.google.com/?cid=0x0:0xce295e85bb5ac46d"
"hardware store";"Toko Ponsel";"EROPA CELLULAR";"73P5+2X3, Jl. Cut Nyak Dien, Kota Kuala Simpang, Kabupaten Aceh Tamiang, Aceh 24456";"Jl. Cut Nyak Dien, Kota Kuala Simpang, Kabupaten Aceh Tamiang";"ACEH";"24456";"Indonesia";"";"4.2850228";"98.0599098";"https://maps.google.com/?cid=0x0:0x826d0a254df66c68"
"hardware store";"Toko Alat Tulis";"Arya Foto Kopi";"73P6+H6C, Kota Lintang, Kota Kuala Simpang, Kabupaten Aceh Tamiang, Aceh 24456";"Kota Lintang, Kota Kuala Simpang, Kabupaten Aceh Tamiang";"ACEH";"24456";"Indonesia";" 085261825082";"4.2864357";"98.0605106";"https://maps.google.com/?cid=0x0:0x309d6b404a42c7f7"
"hardware store";"Toko Komputer";"Logica Kreasi Komputer";"Jl. Lintas Sumatra Jl. Iskandar Muda No.11, Kota Kuala Simpang, Kabupaten Aceh Tamiang, Aceh 24475";"Kota Kuala Simpang, Kabupaten Aceh Tamiang";"ACEH";"24475";"Indonesia";" 085297712238";"4.2856953";"98.0592328";"https://maps.google.com/?cid=0x0:0x7fe6ea26284f0d07"
"hardware store";"Pedagang tekstil";"Metro";"Jl. Letjend Suprapto No.6, Kota Kuala Simpang, Kabupaten Aceh Tamiang, Aceh 24456";"Kota Kuala Simpang, Kabupaten Aceh Tamiang";"ACEH";"24456";"Indonesia";" 064131070";"4.2837061";"98.0584593";"https://maps.google.com/?cid=0x0:0xd528d08760e56561"
"hardware store";"Toko Alat Tulis Kantor";"Foto Copy Thoyyiba";"Jl. Letjend Suprapto, Kota Kuala Simpang, Kabupaten Aceh Tamiang, Aceh 24475";"Kota Kuala Simpang, Kabupaten Aceh Tamiang";"ACEH";"24475";"Indonesia";" 089512825597";"4.2837958";"98.0574731";"https://maps.google.com/?cid=0x0:0xb4cadc1e6bbee3e0"
"hardware store";"Pusat Perbelanjaan";"MR.DIY";"Ruko Takengon Aceh Tengah, Jl. Lebe Kader, Blang Kolak I, Kec. Bebesen, Kabupaten Aceh Tengah, Aceh 24519";"Jl. Lebe Kader, Blang Kolak I, Kec. Bebesen, Kabupaten Aceh Tengah";"ACEH";"24519";"Indonesia";" 02130022789";"4.627258";"96.8452958";"https://maps.google.com/?cid=0x0:0x461543bbb0063485"
"hardware store";"Pemasok Bahan Bangunan";"Nurta Jaya toko bangunan";"Ie Bintah, Kec. Manyak Payed, Kabupaten Aceh Tamiang, Aceh 24471";"Kec. Manyak Payed, Kabupaten Aceh Tamiang";"ACEH";"24471";"Indonesia";"";"4.3993038";"98.0680627";"https://maps.google.com/?cid=0x0:0x71f50b7c59ae06b4"
"hardware store";"hardware store";"Aceh 24471";"Aceh";"Aceh";"ACEH";"";"Indonesia";"";"4.3465057";"97.8395151";"https://maps.google.com/?cid=0x0:0x6a96af07474c986b"
"hardware store";"Toko";"Dealer Honda Tualang Baru";"Tualang Baru, Kec. Manyak Payed, Kabupaten Aceh Tamiang, Aceh 24471";"Kec. Manyak Payed, Kabupaten Aceh Tamiang";"ACEH";"24471";"Indonesia";" 081262333177";"4.3982469";"98.074635";"https://maps.google.com/?cid=0x0:0x4c795ff7bad7922"
"hardware store";"Toko Perlengkapan Rumah";"Toko SH BANGUNAN";"Jl, Muka Sungai Kuruk, Kec. Seuruway, Kabupaten Aceh Tamiang, Aceh";"Kabupaten Aceh Tamiang, Aceh";"ACEH";"";"Indonesia";"";"4.3541556";"98.1853171";"https://maps.google.com/?cid=0x0:0x9851477dd1a1f493"
"hardware store";"Toko Bahan Bangunan";"TB Sulya Bersaudara";"Isaq, Jl. Takengon - Angkup, Uning, Kec. Pegasing, Kabupaten Aceh Tengah, Aceh";"Kabupaten Aceh Tengah, Aceh";"ACEH";"";"Indonesia";"";"4.6168366";"96.8183828";"https://maps.google.com/?cid=0x0:0xee7dd8e04d7ccce9"
"hardware store";"Toko Alat Tulis Kantor";"TOKO BANGUNAN PANDA PRIMA";"73P3+Q42, Kesehatan, Kec. Karang Baru, Kabupaten Aceh Tamiang, Aceh 24456";"Kesehatan, Kec. Karang Baru, Kabupaten Aceh Tamiang";"ACEH";"24456";"Indonesia";" 085260856696";"4.287018";"98.0526676";"https://maps.google.com/?cid=0x0:0x2125bb49c07f528d"
"hardware store";"Toko Bahan Bangunan";"Toko Tanjung Mulia Baru";"Jl. Letjend Suprapto No.8, Kota Kuala Simpang, Kabupaten Aceh Tamiang, Aceh 24475";"Kota Kuala Simpang, Kabupaten Aceh Tamiang";"ACEH";"24475";"Indonesia";" 082361611188";"4.2840128";"98.0601734";"https://maps.google.com/?cid=0x0:0x4f409804eac6f148"
"hardware store";"Toko Perlengkapan Rumah";"MR.DIY";"Ruko Langsa, Jl. Medan Banda Aceh Jl. Jenderal Ahmad Yani No.54, Gampong Jawa, Kec. Langsa Lama, Kota Langsa, Aceh 24355";"Jl. Medan Banda Aceh Jl. Jenderal Ahmad Yani No.54, Gampong Jawa, Kec. Langsa Lama, Kota Langsa";"ACEH";"24355";"Indonesia";" 02130022789";"4.4719542";"97.9661095";"https://maps.google.com/?cid=0x0:0x90e2f9f99148b39f"
"hardware store";"Toko Bahan Bangunan";"Sumber Setia";"JVF2+Q23, Bale Atu, Kec. Lut Tawar, Kabupaten Aceh Tengah, Aceh 24519";"Bale Atu, Kec. Lut Tawar, Kabupaten Aceh Tengah";"ACEH";"24519";"Indonesia";" 082364674462";"4.6243912";"96.8500313";"https://maps.google.com/?cid=0x0:0x807a7be40545f85e"
"hardware store";"Toko Fotokopi";"AYUN FOTOCOPY";"C4GF+M77, Jl. Telaga Meuku, Telaga Meuku II, Kec. Banda Mulia, Kabupaten Aceh Tamiang, Aceh 24471";"Jl. Telaga Meuku, Telaga Meuku II, Kec. Banda Mulia, Kabupaten Aceh Tamiang";"ACEH";"24471";"Indonesia";" 082274654171";"4.4266685";"98.1231772";"https://maps.google.com/?cid=0x0:0xb15a2333adf440c3"
"hardware store";"Toko Bahan Bangunan";"BERKAH JAYA BANGUNAN";"PANTAN DAMAR, Kec. Atu Lintang, Kabupaten Aceh Tengah, Aceh 24563";"Kec. Atu Lintang, Kabupaten Aceh Tengah";"ACEH";"24563";"Indonesia";" 085262481269";"4.4569413";"96.7748317";"https://maps.google.com/?cid=0x0:0xb8a18ecaae1d4e64"
"hardware store";"Toko Ponsel";"Fera Data Store / FDS RELOAD / Global Distro / Jf Stuuffs Butik";"Kota Lintang Atas, Kota Lintang, Kota Kuala Simpang, Kabupaten Aceh Tamiang, Aceh 24456";"Kota Lintang, Kota Kuala Simpang, Kabupaten Aceh Tamiang";"ACEH";"24456";"Indonesia";" 082177777080";"4.2863561";"98.0606852";"https://maps.google.com/?cid=0x0:0x13774fa3d7ce8737"
"hardware store";"Toko Bahan Bangunan";"TOKO SUBUR JAYA";"Desa Simpang IV, Upah, Kec. Karang Baru, Kabupaten Aceh Tamiang, Aceh 24474";"Upah, Kec. Karang Baru, Kabupaten Aceh Tamiang";"ACEH";"24474";"Indonesia";" 085227072369";"4.3706584";"98.0962068";"https://maps.google.com/?cid=0x0:0x93900b7b6e6e7db1"
"hardware store";"Toko Bahan Bangunan";"Toko bangunan gunung lampu";"Jl. Rantau, Bukit Tempurung, Kota Kuala Simpang, Kabupaten Aceh Tamiang, Aceh 24475";"Bukit Tempurung, Kota Kuala Simpang, Kabupaten Aceh Tamiang";"ACEH";"24475";"Indonesia";" 082177325596";"4.2859138";"98.0631398";"https://maps.google.com/?cid=0x0:0x760175408c9aa1e9"
"hardware store";"Toko Bahan Bangunan";"Toko Atari baru";"73P7+GC4, Jl. Rantau, Bukit Tempurung, Kota Kuala Simpang, Kabupaten Aceh Tamiang, Aceh";"Kabupaten Aceh Tamiang, Aceh";"ACEH";"";"Indonesia";"";"4.2862675";"98.0635779";"https://maps.google.com/?cid=0x0:0xf143120f59f1b297"
"hardware store";"Bengkel Bubut";"Times Hardware Trading";"127A, Jalan Besar, Kampung Baharu, 71200 Rantau, Negeri Sembilan, Malaysia";"Rantau";"ACEH";"71200";"Indonesia";" +6066941858";"2.5863197";"101.961855";"https://maps.google.com/?cid=0x0:0x5143b2f4f4b119aa"
"hardware store";"Toko Bahan Bangunan";"Irfab Gyfsum";"8385+WQ6, Jalan Medan Langsa, Karang Baru, Madang Ara, Gampong Johar, Kec. Karang Baru, Kabupaten Aceh Tamiang, Aceh 24476";"Jalan Medan Langsa, Karang Baru, Madang Ara, Gampong Johar, Kec. Karang Baru, Kabupaten Aceh Tamiang";"ACEH";"24476";"Indonesia";" 082160415169";"4.317295";"98.059384";"https://maps.google.com/?cid=0x0:0x4a63435d2a116859"
"hardware store";"hardware store";"Aceh 24476";"Kabupaten Aceh Tamiang, Aceh";"Kabupaten Aceh Tamiang, Aceh";"ACEH";"";"Indonesia";"";"4.3288776";"98.0628862";"https://maps.google.com/?cid=0x0:0x82d848b4ba041829"
"hardware store";"Toko Ponsel";"Fera Data Store / FDS RELOAD / Global Distro / Jf Stuuffs Butik";"Kota Lintang Atas, Kota Lintang, Kota Kuala Simpang, Kabupaten Aceh Tamiang, Aceh 24456";"Kota Lintang, Kota Kuala Simpang, Kabupaten Aceh Tamiang";"ACEH";"24456";"Indonesia";" 082177777080";"4.2863561";"98.0606852";"https://maps.google.com/?cid=0x0:0x13774fa3d7ce8737"
"hardware store";"Toko Alat Tulis Kantor";"TOKO BANGUNAN PANDA PRIMA";"73P3+Q42, Kesehatan, Kec. Karang Baru, Kabupaten Aceh Tamiang, Aceh 24456";"Kesehatan, Kec. Karang Baru, Kabupaten Aceh Tamiang";"ACEH";"24456";"Indonesia";" 085260856696";"4.287018";"98.0526676";"https://maps.google.com/?cid=0x0:0x2125bb49c07f528d"
"hardware store";"Toko Komputer";"Logica Kreasi Komputer";"Jl. Lintas Sumatra Jl. Iskandar Muda No.11, Kota Kuala Simpang, Kabupaten Aceh Tamiang, Aceh 24475";"Kota Kuala Simpang, Kabupaten Aceh Tamiang";"ACEH";"24475";"Indonesia";" 085297712238";"4.2856953";"98.0592328";"https://maps.google.com/?cid=0x0:0x7fe6ea26284f0d07"
"hardware store";"Toko Bahan Bangunan";"Toko bangunan gunung lampu";"Jl. Rantau, Bukit Tempurung, Kota Kuala Simpang, Kabupaten Aceh Tamiang, Aceh 24475";"Bukit Tempurung, Kota Kuala Simpang, Kabupaten Aceh Tamiang";"ACEH";"24475";"Indonesia";" 082177325596";"4.2859138";"98.0631398";"https://maps.google.com/?cid=0x0:0x760175408c9aa1e9"
"hardware store";"Toko Bahan Bangunan";"AL FATH PLAFON";"Jl.Lintas Medan Jl. Medan Banda Aceh, Tanah Terban, Kec. Karang Baru, Kabupaten Aceh Tamiang, Aceh";"Kabupaten Aceh Tamiang, Aceh";"ACEH";"";"Indonesia";"";"4.3174148";"98.0594178";"https://maps.google.com/?cid=0x0:0x18b80f37bd569e4c"
"hardware store";"hardware store";"Aceh 24473";"Aceh";"Aceh";"ACEH";"";"Indonesia";"";"4.2670304";"98.1393179";"https://maps.google.com/?cid=0x0:0x7edc8ec14cab902a"
"hardware store";"Toko Bahan Bangunan";"Toko Tanjung Mulia Baru";"Jl. Letjend Suprapto No.8, Kota Kuala Simpang, Kabupaten Aceh Tamiang, Aceh 24475";"Kota Kuala Simpang, Kabupaten Aceh Tamiang";"ACEH";"24475";"Indonesia";" 082361611188";"4.2840128";"98.0601734";"https://maps.google.com/?cid=0x0:0x4f409804eac6f148"
"hardware store";"Toko Perlengkapan Rumah";"Toko SH BANGUNAN";"Jl, Muka Sungai Kuruk, Kec. Seuruway, Kabupaten Aceh Tamiang, Aceh";"Kabupaten Aceh Tamiang, Aceh";"ACEH";"";"Indonesia";"";"4.3541556";"98.1853171";"https://maps.google.com/?cid=0x0:0x9851477dd1a1f493"
"hardware store";"Toko Bahan Bangunan";"Irfab Gyfsum";"8385+WQ6, Jalan Medan Langsa, Karang Baru, Madang Ara, Gampong Johar, Kec. Karang Baru, Kabupaten Aceh Tamiang, Aceh 24476";"Jalan Medan Langsa, Karang Baru, Madang Ara, Gampong Johar, Kec. Karang Baru, Kabupaten Aceh Tamiang";"ACEH";"24476";"Indonesia";" 082160415169";"4.317295";"98.059384";"https://maps.google.com/?cid=0x0:0x4a63435d2a116859"
"hardware store";"Toko Bahan Bangunan";"Toko bangunan, arrohman";"Purwodadi, Kec. Kejuruan Muda, Kabupaten Aceh Tamiang, Aceh 24475";"Kec. Kejuruan Muda, Kabupaten Aceh Tamiang";"ACEH";"24475";"Indonesia";" 082316146356";"4.2182002";"98.0691677";"https://maps.google.com/?cid=0x0:0x8c52495e70679bb7"
"hardware store";"Toko Bahan Bangunan";"Toko Bangunan Umran";"Jl. Medan Banda Aceh No.63, Seumadam, Kec. Kejuruan Muda, Kabupaten Aceh Tamiang, Aceh 24474";"Seumadam, Kec. Kejuruan Muda, Kabupaten Aceh Tamiang";"ACEH";"24474";"Indonesia";" 08126476231";"4.1821682";"98.0517118";"https://maps.google.com/?cid=0x0:0xc1453692ad2b177f"
"hardware store";"Pemasok Bahan Bangunan";"Nurta Jaya toko bangunan";"Ie Bintah, Kec. Manyak Payed, Kabupaten Aceh Tamiang, Aceh 24471";"Kec. Manyak Payed, Kabupaten Aceh Tamiang";"ACEH";"24471";"Indonesia";"";"4.3993038";"98.0680627";"https://maps.google.com/?cid=0x0:0x71f50b7c59ae06b4"
"hardware store";"Toko Bahan Bangunan";"Toko bangunan gunung lampu";"Jl. Rantau, Bukit Tempurung, Kota Kuala Simpang, Kabupaten Aceh Tamiang, Aceh 24475";"Bukit Tempurung, Kota Kuala Simpang, Kabupaten Aceh Tamiang";"ACEH";"24475";"Indonesia";" 082177325596";"4.2859138";"98.0631398";"https://maps.google.com/?cid=0x0:0x760175408c9aa1e9"
"hardware store";"Toko Bahan Bangunan";"ASNAH ALAT BANGUNAN";"953M+M6P, Unnamed Road, Peukan Seuruway, Kec. Seuruway, Kabupaten Aceh Tamiang, Aceh 24472";"Unnamed Road, Peukan Seuruway, Kec. Seuruway, Kabupaten Aceh Tamiang";"ACEH";"24472";"Indonesia";"";"4.3542106";"98.1830639";"https://maps.google.com/?cid=0x0:0x2ca039ce29a36dc9"
"hardware store";"Toko Ponsel";"Fera Data Store / FDS RELOAD / Global Distro / Jf Stuuffs Butik";"Kota Lintang Atas, Kota Lintang, Kota Kuala Simpang, Kabupaten Aceh Tamiang, Aceh 24456";"Kota Lintang, Kota Kuala Simpang, Kabupaten Aceh Tamiang";"ACEH";"24456";"Indonesia";" 082177777080";"4.2863561";"98.0606852";"https://maps.google.com/?cid=0x0:0x13774fa3d7ce8737"
"hardware store";"hardware store";"Kec. Tamiang Hulu";"Kabupaten Aceh Tamiang, Aceh";"Kabupaten Aceh Tamiang, Aceh";"ACEH";"";"Indonesia";"";"4.1633008";"97.9539786";"https://maps.google.com/?cid=0x0:0x4376a9df79cb4397"
"hardware store";"Toko Ponsel";"NEW ASLISEL";"Jalan Ahmad yani No.35, Kota Kuala Simpang, Kabupaten Aceh Tamiang, Aceh 24475";"Kota Kuala Simpang, Kabupaten Aceh Tamiang";"ACEH";"24475";"Indonesia";" 085270297148";"4.284716";"98.059654";"https://maps.google.com/?cid=0x0:0xd123108b01afc4db"
"hardware store";"Toko Ponsel";"Fera Data Store 2";"Jl. Letjend Suprapto No.6, Kota Kuala Simpang, Kabupaten Aceh Tamiang, Aceh 24456";"Kota Kuala Simpang, Kabupaten Aceh Tamiang";"ACEH";"24456";"Indonesia";" 082395955995";"4.2841021";"98.0585034";"https://maps.google.com/?cid=0x0:0xae817899d2e9b0cc"
"hardware store";"Toko Bahan Bangunan";"Toko Tanjung Mulia Baru";"Jl. Letjend Suprapto No.8, Kota Kuala Simpang, Kabupaten Aceh Tamiang, Aceh 24475";"Kota Kuala Simpang, Kabupaten Aceh Tamiang";"ACEH";"24475";"Indonesia";" 082361611188";"4.2840128";"98.0601734";"https://maps.google.com/?cid=0x0:0x4f409804eac6f148"
"hardware store";"Toko Bahan Bangunan";"Toko Bangunan Umran";"Jl. Medan Banda Aceh No.63, Seumadam, Kec. Kejuruan Muda, Kabupaten Aceh Tamiang, Aceh 24474";"Seumadam, Kec. Kejuruan Muda, Kabupaten Aceh Tamiang";"ACEH";"24474";"Indonesia";" 08126476231";"4.1821682";"98.0517118";"https://maps.google.com/?cid=0x0:0xc1453692ad2b177f"
"hardware store";"Toko Alat Tulis";"Toko Panda";"73M5+FG7, Kota Kuala Simpang, Kabupaten Aceh Tamiang, Aceh 24456";"Kota Kuala Simpang, Kabupaten Aceh Tamiang";"ACEH";"24456";"Indonesia";" 082280543213";"4.2836508";"98.0588125";"https://maps.google.com/?cid=0x0:0x4654f1b0966746ee"
"hardware store";"Toko Bahan Bangunan";"Toko bangunan, arrohman";"Purwodadi, Kec. Kejuruan Muda, Kabupaten Aceh Tamiang, Aceh 24475";"Kec. Kejuruan Muda, Kabupaten Aceh Tamiang";"ACEH";"24475";"Indonesia";" 082316146356";"4.2182002";"98.0691677";"https://maps.google.com/?cid=0x0:0x8c52495e70679bb7"
"hardware store";"Toko Bahan Bangunan";"Irfab Gyfsum";"8385+WQ6, Jalan Medan Langsa, Karang Baru, Madang Ara, Gampong Johar, Kec. Karang Baru, Kabupaten Aceh Tamiang, Aceh 24476";"Jalan Medan Langsa, Karang Baru, Madang Ara, Gampong Johar, Kec. Karang Baru, Kabupaten Aceh Tamiang";"ACEH";"24476";"Indonesia";" 082160415169";"4.317295";"98.059384";"https://maps.google.com/?cid=0x0:0x4a63435d2a116859"
"hardware store";"Toko Alat Tulis Kantor";"TOKO BANGUNAN PANDA PRIMA";"73P3+Q42, Kesehatan, Kec. Karang Baru, Kabupaten Aceh Tamiang, Aceh 24456";"Kesehatan, Kec. Karang Baru, Kabupaten Aceh Tamiang";"ACEH";"24456";"Indonesia";" 085260856696";"4.287018";"98.0526676";"https://maps.google.com/?cid=0x0:0x2125bb49c07f528d"
"hardware store";"Toko Bahan Bangunan";"Toko bangunan gunung lampu";"Jl. Rantau, Bukit Tempurung, Kota Kuala Simpang, Kabupaten Aceh Tamiang, Aceh 24475";"Bukit Tempurung, Kota Kuala Simpang, Kabupaten Aceh Tamiang";"ACEH";"24475";"Indonesia";" 082177325596";"4.2859138";"98.0631398";"https://maps.google.com/?cid=0x0:0x760175408c9aa1e9"
"hardware store";"Jasa Pasang Antena";"Ady parabola";"Depan sekolah MIS, Perk Pulau Tiga, Kec. Tamiang Hulu, Kabupaten Aceh Tamiang, Aceh 24478";"Perk Pulau Tiga, Kec. Tamiang Hulu, Kabupaten Aceh Tamiang";"ACEH";"24478";"Indonesia";" 082211223001";"4.1653396";"97.9488956";"https://maps.google.com/?cid=0x0:0x94b3d68d2a005552"
"hardware store";"Toko Elektronik";"Sembiring Com";"52PJ+492, Unnamed Road, Tj. Genteng, Kec. Kejuruan Muda, Kabupaten Aceh Tamiang, Aceh 24474";"Unnamed Road, Tj. Genteng, Kec. Kejuruan Muda, Kabupaten Aceh Tamiang";"ACEH";"24474";"Indonesia";" 082110152919";"4.185263";"98.0308751";"https://maps.google.com/?cid=0x0:0x8b15605176464ee0"
"hardware store";"Toko Elektronik";"Toko Angkasa";"73P5+6VM, Jl. Cut Nyak Dien, Kota Kuala Simpang, Kabupaten Aceh Tamiang, Aceh 24456";"Jl. Cut Nyak Dien, Kota Kuala Simpang, Kabupaten Aceh Tamiang";"ACEH";"24456";"Indonesia";"";"4.2854626";"98.0596932";"https://maps.google.com/?cid=0x0:0x3d3469b59c3643cf"
"hardware store";"hardware store";"Aceh 24477";"Kabupaten Aceh Tamiang, Aceh";"Kabupaten Aceh Tamiang, Aceh";"ACEH";"";"Indonesia";"";"3.9904163";"97.9157099";"https://maps.google.com/?cid=0x0:0x559940852b05002f"
"hardware store";"Pusat Perbelanjaan";"Murah Raya Hardware Store";"PQJW+542, Jl. Raya Bireuen - Takengon, Simpang Balek, Kec. Wih Pesam, Kabupaten Bener Meriah, Aceh 24471";"Jl. Raya Bireuen - Takengon, Simpang Balek, Kec. Wih Pesam, Kabupaten Bener Meriah";"ACEH";"24471";"Indonesia";" 085362706420";"4.7303786";"96.7952812";"https://maps.google.com/?cid=0x0:0x3e8fe0065713afdb"
"hardware store";"Toko Bahan Bangunan";"Toko Bangunan Umran";"Jl. Medan Banda Aceh No.63, Seumadam, Kec. Kejuruan Muda, Kabupaten Aceh Tamiang, Aceh 24474";"Seumadam, Kec. Kejuruan Muda, Kabupaten Aceh Tamiang";"ACEH";"24474";"Indonesia";" 08126476231";"4.1821682";"98.0517118";"https://maps.google.com/?cid=0x0:0xc1453692ad2b177f"
"hardware store";"Toko Bahan Bangunan";"Irfab Gyfsum";"8385+WQ6, Jalan Medan Langsa, Karang Baru, Madang Ara, Gampong Johar, Kec. Karang Baru, Kabupaten Aceh Tamiang, Aceh 24476";"Jalan Medan Langsa, Karang Baru, Madang Ara, Gampong Johar, Kec. Karang Baru, Kabupaten Aceh Tamiang";"ACEH";"24476";"Indonesia";" 082160415169";"4.317295";"98.059384";"https://maps.google.com/?cid=0x0:0x4a63435d2a116859"
"hardware store";"Pembangunan Perumahan";"Toko Bangun";"JPFF+87C, Pepayungen Angkup, Kec. Silih Nara, Kabupaten Aceh Tengah, Aceh 24773";"Pepayungen Angkup, Kec. Silih Nara, Kabupaten Aceh Tengah";"ACEH";"24773";"Indonesia";" 085270100087";"4.6233221";"96.7231395";"https://maps.google.com/?cid=0x0:0xae64854f1ba0b327"
"hardware store";"Pusat Perbelanjaan";"MR.DIY";"Ruko Takengon Aceh Tengah, Jl. Lebe Kader, Blang Kolak I, Kec. Bebesen, Kabupaten Aceh Tengah, Aceh 24519";"Jl. Lebe Kader, Blang Kolak I, Kec. Bebesen, Kabupaten Aceh Tengah";"ACEH";"24519";"Indonesia";" 02130022789";"4.627258";"96.8452958";"https://maps.google.com/?cid=0x0:0x461543bbb0063485"
"hardware store";"Toko Bahan Bangunan";"Juju RUDY tactical";"JRHW+6F9, Blang Kolak I, Kec. Bebesen, Kabupaten Aceh Tengah, Aceh 24519";"Blang Kolak I, Kec. Bebesen, Kabupaten Aceh Tengah";"ACEH";"24519";"Indonesia";"";"4.627982";"96.8461453";"https://maps.google.com/?cid=0x0:0x11a748c27d25422f"
"hardware store";"Toko Bahan Bangunan";"Mekar jaya";"JPFF+66F, Pepayungen Angkup, Kec. Silih Nara, Kabupaten Aceh Tengah, Aceh 24773";"Pepayungen Angkup, Kec. Silih Nara, Kabupaten Aceh Tengah";"ACEH";"24773";"Indonesia";"";"4.6230317";"96.7230546";"https://maps.google.com/?cid=0x0:0x10dfd1baef872070"
"hardware store";"Toko Bahan Bangunan";"TB Sulya Bersaudara";"Isaq, Jl. Takengon - Angkup, Uning, Kec. Pegasing, Kabupaten Aceh Tengah, Aceh";"Kabupaten Aceh Tengah, Aceh";"ACEH";"";"Indonesia";"";"4.6168366";"96.8183828";"https://maps.google.com/?cid=0x0:0xee7dd8e04d7ccce9"
"hardware store";"Toko Bahan Bangunan";"Toko Tanjung Mulia Baru";"Jl. Letjend Suprapto No.8, Kota Kuala Simpang, Kabupaten Aceh Tamiang, Aceh 24475";"Kota Kuala Simpang, Kabupaten Aceh Tamiang";"ACEH";"24475";"Indonesia";" 082361611188";"4.2840128";"98.0601734";"https://maps.google.com/?cid=0x0:0x4f409804eac6f148"
"hardware store";"Toko Bahan Bangunan";"Toko bangunan, arrohman";"Purwodadi, Kec. Kejuruan Muda, Kabupaten Aceh Tamiang, Aceh 24475";"Kec. Kejuruan Muda, Kabupaten Aceh Tamiang";"ACEH";"24475";"Indonesia";" 082316146356";"4.2182002";"98.0691677";"https://maps.google.com/?cid=0x0:0x8c52495e70679bb7"
"hardware store";"Toko Bahan Bangunan";"Sumber Setia";"JVF2+Q23, Bale Atu, Kec. Lut Tawar, Kabupaten Aceh Tengah, Aceh 24519";"Bale Atu, Kec. Lut Tawar, Kabupaten Aceh Tengah";"ACEH";"24519";"Indonesia";" 082364674462";"4.6243912";"96.8500313";"https://maps.google.com/?cid=0x0:0x807a7be40545f85e"
"hardware store";"Toko Bahan Bangunan";"Toko bangunan gunung lampu";"Jl. Rantau, Bukit Tempurung, Kota Kuala Simpang, Kabupaten Aceh Tamiang, Aceh 24475";"Bukit Tempurung, Kota Kuala Simpang, Kabupaten Aceh Tamiang";"ACEH";"24475";"Indonesia";" 082177325596";"4.2859138";"98.0631398";"https://maps.google.com/?cid=0x0:0x760175408c9aa1e9"
"hardware store";"Toko Ponsel";"AMELIA FOTO COPY  NAZWA PONSEL";"Simpang, Berawang Gading, Kec. Celala, Kabupaten Aceh Tengah, Aceh";"Kabupaten Aceh Tengah, Aceh";"ACEH";"";"Indonesia";" 085805140068";"4.5889882";"96.6866917";"https://maps.google.com/?cid=0x0:0xda6d9ad30885a3b8"
"supermarket bangunan";"Toko Bahan Bangunan";"Toko Tanjung Mulia Baru";"Jl. Letjend Suprapto No.8, Kota Kuala Simpang, Kabupaten Aceh Tamiang, Aceh 24475";"Kota Kuala Simpang, Kabupaten Aceh Tamiang";"ACEH";"24475";"Indonesia";" 082361611188";"4.2840128";"98.0601734";"https://maps.google.com/?cid=0x0:0x4f409804eac6f148"
"supermarket bangunan";"Toko Perlengkapan Rumah";"Toko SH BANGUNAN";"Jl, Muka Sungai Kuruk, Kec. Seuruway, Kabupaten Aceh Tamiang, Aceh";"Kabupaten Aceh Tamiang, Aceh";"ACEH";"";"Indonesia";"";"4.3541556";"98.1853171";"https://maps.google.com/?cid=0x0:0x9851477dd1a1f493"
"supermarket bangunan";"supermarket bangunan";"Kec. Banda Mulia";"Kabupaten Aceh Tamiang, Aceh";"Kabupaten Aceh Tamiang, Aceh";"ACEH";"";"Indonesia";"";"4.4405846";"98.1360921";"https://maps.google.com/?cid=0x0:0xe04c2bd9d3d421e8"
"supermarket bangunan";"Toko Bahan Bangunan";"Toko Bangunan RAYA MULIA 2";"Jl. Prada Utama, Lamgugob, Kec. Syiah Kuala, Kota Banda Aceh, Aceh";"Kota Banda Aceh, Aceh";"ACEH";"";"Indonesia";" 08116806596";"5.5749662";"95.3550309";"https://maps.google.com/?cid=0x0:0xd31eb58cf56fe415"
"supermarket bangunan";"Toko Perlengkapan Rumah";"TOKO BESI DAN BAHAN BANGUNAN CAHAYA ABADI";"93XC+G3J, Jl. Lintas Sumatra, Tualang Baru, Kec. Manyak Payed, Kabupaten Aceh Tamiang, Aceh 24471";"Jl. Lintas Sumatra, Tualang Baru, Kec. Manyak Payed, Kabupaten Aceh Tamiang";"ACEH";"24471";"Indonesia";" 082167658373";"4.3988716";"98.0700961";"https://maps.google.com/?cid=0x0:0x351e338af5b61e09"
"supermarket bangunan";"Toko Bahan Bangunan";"ASNAH ALAT BANGUNAN";"953M+M6P, Unnamed Road, Peukan Seuruway, Kec. Seuruway, Kabupaten Aceh Tamiang, Aceh 24472";"Unnamed Road, Peukan Seuruway, Kec. Seuruway, Kabupaten Aceh Tamiang";"ACEH";"24472";"Indonesia";"";"4.3542106";"98.1830639";"https://maps.google.com/?cid=0x0:0x2ca039ce29a36dc9"
"supermarket bangunan";"Pemasok Bahan Bangunan";"Nurta Jaya toko bangunan";"Ie Bintah, Kec. Manyak Payed, Kabupaten Aceh Tamiang, Aceh 24471";"Kec. Manyak Payed, Kabupaten Aceh Tamiang";"ACEH";"24471";"Indonesia";"";"4.3993038";"98.0680627";"https://maps.google.com/?cid=0x0:0x71f50b7c59ae06b4"
"supermarket bangunan";"Toko Bahan Bangunan";"Toko Bangunan Agung Mulia";"H88F+RP8, Jl. Teungku Di Blang, Mulia, Kec. Kuta Alam, Kota Banda Aceh, Aceh";"Kota Banda Aceh, Aceh";"ACEH";"";"Indonesia";" 082262506854";"5.567047";"95.3243291";"https://maps.google.com/?cid=0x0:0xa00ac4c4de2d7614"
"supermarket bangunan";"Toko Bahan Bangunan";"Toko Bangunan Umran";"Jl. Medan Banda Aceh No.63, Seumadam, Kec. Kejuruan Muda, Kabupaten Aceh Tamiang, Aceh 24474";"Seumadam, Kec. Kejuruan Muda, Kabupaten Aceh Tamiang";"ACEH";"24474";"Indonesia";" 08126476231";"4.1821682";"98.0517118";"https://maps.google.com/?cid=0x0:0xc1453692ad2b177f"
"supermarket bangunan";"Toko";"Toko Restoemi";"FXMF+74G, Matang Seulimeng, Kec. Langsa Bar., Kota Langsa, Aceh 24355";"Matang Seulimeng, Kec. Langsa Bar., Kota Langsa";"ACEH";"24355";"Indonesia";" 082370214773";"4.4831933";"97.9728245";"https://maps.google.com/?cid=0x0:0xa59443fd2f2c5e62"
"supermarket bangunan";"Toko Alat Tulis Kantor";"TOKO BANGUNAN PANDA PRIMA";"73P3+Q42, Kesehatan, Kec. Karang Baru, Kabupaten Aceh Tamiang, Aceh 24456";"Kesehatan, Kec. Karang Baru, Kabupaten Aceh Tamiang";"ACEH";"24456";"Indonesia";" 085260856696";"4.287018";"98.0526676";"https://maps.google.com/?cid=0x0:0x2125bb49c07f528d"
"supermarket bangunan";"Toko Perlengkapan Rumah";"Sepermarket Bahan Bangunan Asia Niaga";"Jl. Jenderal Ahmad Yani No.123, Blang Sinibong, Kec. Langsa Kota, Kota Langsa, Aceh 24375";"Blang Sinibong, Kec. Langsa Kota, Kota Langsa";"ACEH";"24375";"Indonesia";" 08116700155";"4.4725893";"97.9756602";"https://maps.google.com/?cid=0x0:0xbf87768a6495f87a"
"supermarket bangunan";"supermarket bangunan";"MISRA MANDIRI JAYA";"73P7+MQG, Bukit Tempurung, Kota Kuala Simpang, Kabupaten Aceh Tamiang, Aceh 24456";"Bukit Tempurung, Kota Kuala Simpang, Kabupaten Aceh Tamiang";"ACEH";"24456";"Indonesia";"";"4.2866875";"98.0644531";"https://maps.google.com/?cid=0x0:0xcb1908e601e41c6"
"supermarket bangunan";"Toko Bahan Bangunan";"Toko bangunan, arrohman";"Purwodadi, Kec. Kejuruan Muda, Kabupaten Aceh Tamiang, Aceh 24475";"Kec. Kejuruan Muda, Kabupaten Aceh Tamiang";"ACEH";"24475";"Indonesia";" 082316146356";"4.2182002";"98.0691677";"https://maps.google.com/?cid=0x0:0x8c52495e70679bb7"
"supermarket bangunan";"Toko Bahan Bangunan";"Toko bangunan";"7VVH+V2G, Babo, Kec. Bandar Pusaka, Kabupaten Aceh Tamiang, Aceh 24456";"Babo, Kec. Bandar Pusaka, Kabupaten Aceh Tamiang";"ACEH";"24456";"Indonesia";" 08527799912";"4.2946931";"97.8775738";"https://maps.google.com/?cid=0x0:0xcb5b4bb21b3fe6e0"
"supermarket bangunan";"Toko Perlengkapan Rumah";"Zainal";"7W36+H5X, Unnamed Road, Jambo Rambong, Kec. Bandar Pusaka, Kabupaten Aceh Tamiang, Aceh 24382";"Unnamed Road, Jambo Rambong, Kec. Bandar Pusaka, Kabupaten Aceh Tamiang";"ACEH";"24382";"Indonesia";"";"4.2539798";"97.9104986";"https://maps.google.com/?cid=0x0:0xf03a4ded06c8cac9"
"supermarket bangunan";"Toko Bahan Bangunan";"TOKO BESI BINTANG BANGUNAN";"Jl. Pocut Baren No.29, Keuramat, Kec. Kuta Alam, Kota Banda Aceh, Aceh 23126";"Keuramat, Kec. Kuta Alam, Kota Banda Aceh";"ACEH";"23126";"Indonesia";" 081360031288";"5.5617508";"95.3240203";"https://maps.google.com/?cid=0x0:0xa98c67e001462b53"
"supermarket bangunan";"supermarket bangunan";"Kec. Bendahara";"Kabupaten Aceh Tamiang, Aceh";"Kabupaten Aceh Tamiang, Aceh";"ACEH";"";"Indonesia";"";"4.4074501";"98.1695001";"https://maps.google.com/?cid=0x0:0xa3729d585ef6a9a8"
"supermarket bangunan";"Toko Bahan Bangunan";"Toko bangunan sinar utara";"95M6+RRW, Jl. Medan B. Aceh, Seuneubok Dalam Mesjid, Banda Aceh, Kabupaten Aceh Tamiang, Aceh 24472";"Jl. Medan B. Aceh, Seuneubok Dalam Mesjid, Banda Aceh, Kabupaten Aceh Tamiang";"ACEH";"24472";"Indonesia";" 085262303826";"4.3847402";"98.1627285";"https://maps.google.com/?cid=0x0:0x5ca1257abddb6f4e"
"supermarket bangunan";"Toko Bahan Bangunan";"ASNAH ALAT BANGUNAN";"953M+M6P, Unnamed Road, Peukan Seuruway, Kec. Seuruway, Kabupaten Aceh Tamiang, Aceh 24472";"Unnamed Road, Peukan Seuruway, Kec. Seuruway, Kabupaten Aceh Tamiang";"ACEH";"24472";"Indonesia";"";"4.3542106";"98.1830639";"https://maps.google.com/?cid=0x0:0x2ca039ce29a36dc9"
"supermarket bangunan";"Toko Bahan Bangunan";"TOKO SUBUR JAYA";"Desa Simpang IV, Upah, Kec. Karang Baru, Kabupaten Aceh Tamiang, Aceh 24474";"Upah, Kec. Karang Baru, Kabupaten Aceh Tamiang";"ACEH";"24474";"Indonesia";" 085227072369";"4.3706584";"98.0962068";"https://maps.google.com/?cid=0x0:0x93900b7b6e6e7db1"
"supermarket bangunan";"Toko Perlengkapan Rumah";"Toko SH BANGUNAN";"Jl, Muka Sungai Kuruk, Kec. Seuruway, Kabupaten Aceh Tamiang, Aceh";"Kabupaten Aceh Tamiang, Aceh";"ACEH";"";"Indonesia";"";"4.3541556";"98.1853171";"https://maps.google.com/?cid=0x0:0x9851477dd1a1f493"
"supermarket bangunan";"Pemasok Bahan Bangunan";"Nurta Jaya toko bangunan";"Ie Bintah, Kec. Manyak Payed, Kabupaten Aceh Tamiang, Aceh 24471";"Kec. Manyak Payed, Kabupaten Aceh Tamiang";"ACEH";"24471";"Indonesia";"";"4.3993038";"98.0680627";"https://maps.google.com/?cid=0x0:0x71f50b7c59ae06b4"
"supermarket bangunan";"Toko Perlengkapan Rumah";"AS JAYA";"953M+M5G, Peukan Seuruway, Kec. Seuruway, Kabupaten Aceh Tamiang, Aceh 24472";"Peukan Seuruway, Kec. Seuruway, Kabupaten Aceh Tamiang";"ACEH";"24472";"Indonesia";"";"4.3541603";"98.1828977";"https://maps.google.com/?cid=0x0:0x1f30c0ab5273b0e2"
"supermarket bangunan";"Toko Alat Tulis Kantor";"TOKO BANGUNAN PANDA PRIMA";"73P3+Q42, Kesehatan, Kec. Karang Baru, Kabupaten Aceh Tamiang, Aceh 24456";"Kesehatan, Kec. Karang Baru, Kabupaten Aceh Tamiang";"ACEH";"24456";"Indonesia";" 085260856696";"4.287018";"98.0526676";"https://maps.google.com/?cid=0x0:0x2125bb49c07f528d"
"supermarket bangunan";"Toko Perlengkapan Rumah";"Sepermarket Bahan Bangunan Asia Niaga";"Jl. Jenderal Ahmad Yani No.123, Blang Sinibong, Kec. Langsa Kota, Kota Langsa, Aceh 24375";"Blang Sinibong, Kec. Langsa Kota, Kota Langsa";"ACEH";"24375";"Indonesia";" 08116700155";"4.4725893";"97.9756602";"https://maps.google.com/?cid=0x0:0xbf87768a6495f87a"
"supermarket bangunan";"Pemasok Bahan Bangunan";"SUMBER BATU ALAM ACEH TAMIANG (BENUA RAJA)";"73QC+739, Benua Raja, Kec. Rantau, Kabupaten Aceh Tamiang, Aceh";"Kabupaten Aceh Tamiang, Aceh";"ACEH";"";"Indonesia";" 085254511251";"4.2881819";"98.0702637";"https://maps.google.com/?cid=0x0:0xf289b362d80572ad"
"supermarket bangunan";"Toko Bahan Bangunan";"Toko Tanjung Mulia Baru";"Jl. Letjend Suprapto No.8, Kota Kuala Simpang, Kabupaten Aceh Tamiang, Aceh 24475";"Kota Kuala Simpang, Kabupaten Aceh Tamiang";"ACEH";"24475";"Indonesia";" 082361611188";"4.2840128";"98.0601734";"https://maps.google.com/?cid=0x0:0x4f409804eac6f148"
"supermarket bangunan";"Toko Bahan Bangunan";"Zahra Bangunan";"Jl. Dr. Mr. Mohd Hasan, Batoh, Kec. Lueng Bata, Kota Banda Aceh, Aceh 23127";"Batoh, Kec. Lueng Bata, Kota Banda Aceh";"ACEH";"23127";"Indonesia";" 083191742636";"5.5425651";"95.3305542";"https://maps.google.com/?cid=0x0:0x9785538145c2ac3"
"supermarket bangunan";"Toko Perlengkapan Rumah";"Toko Abadi Baja";"Jl. Cut Nyak Dien, Sriwijaya, Kota Kuala Simpang, Kabupaten Aceh Tamiang, Aceh 24456";"Sriwijaya, Kota Kuala Simpang, Kabupaten Aceh Tamiang";"ACEH";"24456";"Indonesia";"";"4.2825861";"98.0610626";"https://maps.google.com/?cid=0x0:0xbc15d01e42b99be1"
"supermarket bangunan";"Toko";"Toko Tijarah";"GX26+R8C, Jl. Prof. A Majid Ibrahim, Lhok Banie, Kec. Langsa Bar., Kota Langsa, Aceh 24375";"Jl. Prof. A Majid Ibrahim, Lhok Banie, Kec. Langsa Bar., Kota Langsa";"ACEH";"24375";"Indonesia";"";"4.5020568";"97.9607747";"https://maps.google.com/?cid=0x0:0x45ec34620a131c83"
"supermarket bangunan";"supermarket bangunan";"Aceh 24476";"Kabupaten Aceh Tamiang, Aceh";"Kabupaten Aceh Tamiang, Aceh";"ACEH";"";"Indonesia";"";"4.3288776";"98.0628862";"https://maps.google.com/?cid=0x0:0x82d848b4ba041829"
"supermarket bangunan";"Toko Alat Tulis Kantor";"TOKO BANGUNAN PANDA PRIMA";"73P3+Q42, Kesehatan, Kec. Karang Baru, Kabupaten Aceh Tamiang, Aceh 24456";"Kesehatan, Kec. Karang Baru, Kabupaten Aceh Tamiang";"ACEH";"24456";"Indonesia";" 085260856696";"4.287018";"98.0526676";"https://maps.google.com/?cid=0x0:0x2125bb49c07f528d"
"supermarket bangunan";"Toko Bahan Bangunan";"Irfab Gyfsum";"8385+WQ6, Jalan Medan Langsa, Karang Baru, Madang Ara, Gampong Johar, Kec. Karang Baru, Kabupaten Aceh Tamiang, Aceh 24476";"Jalan Medan Langsa, Karang Baru, Madang Ara, Gampong Johar, Kec. Karang Baru, Kabupaten Aceh Tamiang";"ACEH";"24476";"Indonesia";" 082160415169";"4.317295";"98.059384";"https://maps.google.com/?cid=0x0:0x4a63435d2a116859"
"supermarket bangunan";"Toko Perlengkapan Rumah";"Toko SH BANGUNAN";"Jl, Muka Sungai Kuruk, Kec. Seuruway, Kabupaten Aceh Tamiang, Aceh";"Kabupaten Aceh Tamiang, Aceh";"ACEH";"";"Indonesia";"";"4.3541556";"98.1853171";"https://maps.google.com/?cid=0x0:0x9851477dd1a1f493"
"supermarket bangunan";"Toko Bahan Bangunan";"Toko Tanjung Mulia Baru";"Jl. Letjend Suprapto No.8, Kota Kuala Simpang, Kabupaten Aceh Tamiang, Aceh 24475";"Kota Kuala Simpang, Kabupaten Aceh Tamiang";"ACEH";"24475";"Indonesia";" 082361611188";"4.2840128";"98.0601734";"https://maps.google.com/?cid=0x0:0x4f409804eac6f148"
"supermarket bangunan";"Toko Bahan Bangunan";"Toko Bangun Cemerlang";"72VX+2R3, Gampong Bundar, Kec. Karang Baru, Kabupaten Aceh Tamiang, Aceh 24456";"Gampong Bundar, Kec. Karang Baru, Kabupaten Aceh Tamiang";"ACEH";"24456";"Indonesia";"";"4.292512";"98.0495532";"https://maps.google.com/?cid=0x0:0x950e021d55993633"
"supermarket bangunan";"Toko Bahan Bangunan";"UD Aceh Jaya Toko Bangunan Siti Asmawati";"83FV+W87, Alur Manis, Kec. Rantau, Kabupaten Aceh Tamiang, Aceh";"Kabupaten Aceh Tamiang, Aceh";"ACEH";"";"Indonesia";" 085210270282";"4.3247897";"98.0933082";"https://maps.google.com/?cid=0x0:0x360a77eff13df3dc"
"supermarket bangunan";"Pemasok Bahan Bangunan";"SUMBER BATU ALAM ACEH TAMIANG (BENUA RAJA)";"73QC+739, Benua Raja, Kec. Rantau, Kabupaten Aceh Tamiang, Aceh";"Kabupaten Aceh Tamiang, Aceh";"ACEH";"";"Indonesia";" 085254511251";"4.2881819";"98.0702637";"https://maps.google.com/?cid=0x0:0xf289b362d80572ad"
"supermarket bangunan";"Toko Kaca";"Toko Bangunan Bintang Jaya Kampung Durian";"Jl. Sapta Jaya dusun metro jaya, Kp. Durian, Kota Kuala Simpang, Kabupaten Aceh Tamiang, Aceh 24474";"Kp. Durian, Kota Kuala Simpang, Kabupaten Aceh Tamiang";"ACEH";"24474";"Indonesia";" 082259439707";"4.2953519";"98.083651";"https://maps.google.com/?cid=0x0:0x4f08d170b51aa435"
"supermarket bangunan";"Toko Perlengkapan Rumah";"Toko Abadi Baja";"Jl. Cut Nyak Dien, Sriwijaya, Kota Kuala Simpang, Kabupaten Aceh Tamiang, Aceh 24456";"Sriwijaya, Kota Kuala Simpang, Kabupaten Aceh Tamiang";"ACEH";"24456";"Indonesia";"";"4.2825861";"98.0610626";"https://maps.google.com/?cid=0x0:0xbc15d01e42b99be1"
"supermarket bangunan";"Toko Bahan Bangunan";"Toko Bangunan Umran";"Jl. Medan Banda Aceh No.63, Seumadam, Kec. Kejuruan Muda, Kabupaten Aceh Tamiang, Aceh 24474";"Seumadam, Kec. Kejuruan Muda, Kabupaten Aceh Tamiang";"ACEH";"24474";"Indonesia";" 08126476231";"4.1821682";"98.0517118";"https://maps.google.com/?cid=0x0:0xc1453692ad2b177f"
"supermarket bangunan";"Toko Perlengkapan Rumah";"TOKO BESI DAN BAHAN BANGUNAN CAHAYA ABADI";"93XC+G3J, Jl. Lintas Sumatra, Tualang Baru, Kec. Manyak Payed, Kabupaten Aceh Tamiang, Aceh 24471";"Jl. Lintas Sumatra, Tualang Baru, Kec. Manyak Payed, Kabupaten Aceh Tamiang";"ACEH";"24471";"Indonesia";" 082167658373";"4.3988716";"98.0700961";"https://maps.google.com/?cid=0x0:0x351e338af5b61e09"
"supermarket bangunan";"Toko Bahan Bangunan";"Toko bangunan, arrohman";"Purwodadi, Kec. Kejuruan Muda, Kabupaten Aceh Tamiang, Aceh 24475";"Kec. Kejuruan Muda, Kabupaten Aceh Tamiang";"ACEH";"24475";"Indonesia";" 082316146356";"4.2182002";"98.0691677";"https://maps.google.com/?cid=0x0:0x8c52495e70679bb7"
"supermarket bangunan";"Pasar bahan bangunan";"TOKO bangunan semangat baru";"Alur Cucur, Kec. Rantau, Kabupaten Aceh Tamiang, Aceh";"Kabupaten Aceh Tamiang, Aceh";"ACEH";"";"Indonesia";" 082363836607";"4.3156605";"98.1092816";"https://maps.google.com/?cid=0x0:0xf8cdbba6c12b88d1"
"supermarket bangunan";"supermarket bangunan";"Kec. Kejuruan Muda";"Kabupaten Aceh Tamiang, Aceh";"Kabupaten Aceh Tamiang, Aceh";"ACEH";"";"Indonesia";"";"4.2310452";"98.0585627";"https://maps.google.com/?cid=0x0:0x31c3ba765be70142"
"supermarket bangunan";"Toko Bahan Bangunan";"Toko Bangunan Umran";"Jl. Medan Banda Aceh No.63, Seumadam, Kec. Kejuruan Muda, Kabupaten Aceh Tamiang, Aceh 24474";"Seumadam, Kec. Kejuruan Muda, Kabupaten Aceh Tamiang";"ACEH";"24474";"Indonesia";" 08126476231";"4.1821682";"98.0517118";"https://maps.google.com/?cid=0x0:0xc1453692ad2b177f"
"supermarket bangunan";"Toko Bahan Bangunan";"Toko bangunan, arrohman";"Purwodadi, Kec. Kejuruan Muda, Kabupaten Aceh Tamiang, Aceh 24475";"Kec. Kejuruan Muda, Kabupaten Aceh Tamiang";"ACEH";"24475";"Indonesia";" 082316146356";"4.2182002";"98.0691677";"https://maps.google.com/?cid=0x0:0x8c52495e70679bb7"
"supermarket bangunan";"Toko Alat Tulis Kantor";"TOKO BANGUNAN PANDA PRIMA";"73P3+Q42, Kesehatan, Kec. Karang Baru, Kabupaten Aceh Tamiang, Aceh 24456";"Kesehatan, Kec. Karang Baru, Kabupaten Aceh Tamiang";"ACEH";"24456";"Indonesia";" 085260856696";"4.287018";"98.0526676";"https://maps.google.com/?cid=0x0:0x2125bb49c07f528d"
"supermarket bangunan";"supermarket bangunan";"MISRA MANDIRI JAYA";"73P7+MQG, Bukit Tempurung, Kota Kuala Simpang, Kabupaten Aceh Tamiang, Aceh 24456";"Bukit Tempurung, Kota Kuala Simpang, Kabupaten Aceh Tamiang";"ACEH";"24456";"Indonesia";"";"4.2866875";"98.0644531";"https://maps.google.com/?cid=0x0:0xcb1908e601e41c6"
"supermarket bangunan";"Toko Perlengkapan Rumah";"Marga Agung";"Jalan panglima polem No.7 9, RW.11, Kuala Simpang City, Aceh Tamiang Regency, Aceh 24456";"RW.11, Kuala Simpang City, Aceh Tamiang Regency";"ACEH";"24456";"Indonesia";" 0641333228";"4.283875";"98.0575874";"https://maps.google.com/?cid=0x0:0x98803e320738b95e"
"supermarket bangunan";"Pemasok Bahan Bangunan";"SUMBER BATU ALAM ACEH TAMIANG (BENUA RAJA)";"73QC+739, Benua Raja, Kec. Rantau, Kabupaten Aceh Tamiang, Aceh";"Kabupaten Aceh Tamiang, Aceh";"ACEH";"";"Indonesia";" 085254511251";"4.2881819";"98.0702637";"https://maps.google.com/?cid=0x0:0xf289b362d80572ad"
"supermarket bangunan";"Toko Bahan Bangunan";"PD. Bachtiar Ama";"63P7+H9Q, Pangkalan, Kec. Kejuruan Muda, Kabupaten Aceh Tamiang, Aceh 24475";"Pangkalan, Kec. Kejuruan Muda, Kabupaten Aceh Tamiang";"ACEH";"24475";"Indonesia";" 0620543091";"4.236475";"98.0634718";"https://maps.google.com/?cid=0x0:0xd4728685837f28ee"
"supermarket bangunan";"Toko Bahan Bangunan";"Toko Tanjung Mulia Baru";"Jl. Letjend Suprapto No.8, Kota Kuala Simpang, Kabupaten Aceh Tamiang, Aceh 24475";"Kota Kuala Simpang, Kabupaten Aceh Tamiang";"ACEH";"24475";"Indonesia";" 082361611188";"4.2840128";"98.0601734";"https://maps.google.com/?cid=0x0:0x4f409804eac6f148"
"supermarket bangunan";"Toko Bahan Bangunan";"toko bangunan haryono";"62H4+4XQ, Tj. Genteng, Kec. Kejuruan Muda, Kabupaten Aceh Tamiang, Aceh 24474";"Tj. Genteng, Kec. Kejuruan Muda, Kabupaten Aceh Tamiang";"ACEH";"24474";"Indonesia";"";"4.228019";"98.007308";"https://maps.google.com/?cid=0x0:0x69d521fd3acdb92e"
"supermarket bangunan";"Toko Perlengkapan Rumah";"Toko Abadi Baja";"Jl. Cut Nyak Dien, Sriwijaya, Kota Kuala Simpang, Kabupaten Aceh Tamiang, Aceh 24456";"Sriwijaya, Kota Kuala Simpang, Kabupaten Aceh Tamiang";"ACEH";"24456";"Indonesia";"";"4.2825861";"98.0610626";"https://maps.google.com/?cid=0x0:0xbc15d01e42b99be1"
"supermarket bangunan";"Toko Bahan Bangunan";"Tanjung K Gypsum";"73M6+R52, JL. IR. H. Juanda, Kuala Simpang, Aceh Tamiang, Kota Kuala Simpang, Banda Aceh, Kabupaten Aceh Tamiang, Aceh 24456";"JL. IR. H. Juanda, Kuala Simpang, Aceh Tamiang, Kota Kuala Simpang, Banda Aceh, Kabupaten Aceh Tamiang";"ACEH";"24456";"Indonesia";" 085260972932";"4.2845072";"98.0603957";"https://maps.google.com/?cid=0x0:0x8fe99a4bcbf347df"
"supermarket bangunan";"Toko Bahan Bangunan";"Toko Besi Semesta";"Jl. Ahmad Yani No.15, Kota Kuala Simpang, Kabupaten Aceh Tamiang, Aceh 24456";"Kota Kuala Simpang, Kabupaten Aceh Tamiang";"ACEH";"24456";"Indonesia";" 064131243";"4.2848593";"98.0591487";"https://maps.google.com/?cid=0x0:0x9c76f173c40f573c"
"supermarket bangunan";"Toko Bahan Bangunan";"Toko bangunan gunung lampu";"Jl. Rantau, Bukit Tempurung, Kota Kuala Simpang, Kabupaten Aceh Tamiang, Aceh 24475";"Bukit Tempurung, Kota Kuala Simpang, Kabupaten Aceh Tamiang";"ACEH";"24475";"Indonesia";" 082177325596";"4.2859138";"98.0631398";"https://maps.google.com/?cid=0x0:0x760175408c9aa1e9"
"supermarket bangunan";"supermarket bangunan";"Kota Kuala Simpang";"Kabupaten Aceh Tamiang, Aceh";"Kabupaten Aceh Tamiang, Aceh";"ACEH";"";"Indonesia";"";"4.2856625";"98.060158";"https://maps.google.com/?cid=0x0:0x1c98c7d4ec51e5aa"
"supermarket bangunan";"Toko Perlengkapan Rumah";"Marga Agung";"Jalan panglima polem No.7 9, RW.11, Kuala Simpang City, Aceh Tamiang Regency, Aceh 24456";"RW.11, Kuala Simpang City, Aceh Tamiang Regency";"ACEH";"24456";"Indonesia";" 0641333228";"4.283875";"98.0575874";"https://maps.google.com/?cid=0x0:0x98803e320738b95e"
"supermarket bangunan";"Toko Bahan Bangunan";"Toko bangunan gunung lampu";"Jl. Rantau, Bukit Tempurung, Kota Kuala Simpang, Kabupaten Aceh Tamiang, Aceh 24475";"Bukit Tempurung, Kota Kuala Simpang, Kabupaten Aceh Tamiang";"ACEH";"24475";"Indonesia";" 082177325596";"4.2859138";"98.0631398";"https://maps.google.com/?cid=0x0:0x760175408c9aa1e9"
"supermarket bangunan";"supermarket bangunan";"MISRA MANDIRI JAYA";"73P7+MQG, Bukit Tempurung, Kota Kuala Simpang, Kabupaten Aceh Tamiang, Aceh 24456";"Bukit Tempurung, Kota Kuala Simpang, Kabupaten Aceh Tamiang";"ACEH";"24456";"Indonesia";"";"4.2866875";"98.0644531";"https://maps.google.com/?cid=0x0:0xcb1908e601e41c6"
"supermarket bangunan";"Toko Perlengkapan Rumah";"Toko Abadi Baja";"Jl. Cut Nyak Dien, Sriwijaya, Kota Kuala Simpang, Kabupaten Aceh Tamiang, Aceh 24456";"Sriwijaya, Kota Kuala Simpang, Kabupaten Aceh Tamiang";"ACEH";"24456";"Indonesia";"";"4.2825861";"98.0610626";"https://maps.google.com/?cid=0x0:0xbc15d01e42b99be1"
"supermarket bangunan";"Toko Alat Tulis Kantor";"TOKO BANGUNAN PANDA PRIMA";"73P3+Q42, Kesehatan, Kec. Karang Baru, Kabupaten Aceh Tamiang, Aceh 24456";"Kesehatan, Kec. Karang Baru, Kabupaten Aceh Tamiang";"ACEH";"24456";"Indonesia";" 085260856696";"4.287018";"98.0526676";"https://maps.google.com/?cid=0x0:0x2125bb49c07f528d"
"supermarket bangunan";"Toko";"Samurai Paint - Marga Agung Kuala Simpang";"73M5+G3Q, Kota Kuala Simpang, Kabupaten Aceh Tamiang, Aceh 24456";"Kota Kuala Simpang, Kabupaten Aceh Tamiang";"ACEH";"24456";"Indonesia";" 085296599888";"4.2838419";"98.057729";"https://maps.google.com/?cid=0x0:0xfe061a33b4f8064e"
"supermarket bangunan";"Toko Bahan Bangunan";"Toko Besi Semesta";"Jl. Ahmad Yani No.15, Kota Kuala Simpang, Kabupaten Aceh Tamiang, Aceh 24456";"Kota Kuala Simpang, Kabupaten Aceh Tamiang";"ACEH";"24456";"Indonesia";" 064131243";"4.2848593";"98.0591487";"https://maps.google.com/?cid=0x0:0x9c76f173c40f573c"
"supermarket bangunan";"Toko Bahan Bangunan";"Tanjung K Gypsum";"73M6+R52, JL. IR. H. Juanda, Kuala Simpang, Aceh Tamiang, Kota Kuala Simpang, Banda Aceh, Kabupaten Aceh Tamiang, Aceh 24456";"JL. IR. H. Juanda, Kuala Simpang, Aceh Tamiang, Kota Kuala Simpang, Banda Aceh, Kabupaten Aceh Tamiang";"ACEH";"24456";"Indonesia";" 085260972932";"4.2845072";"98.0603957";"https://maps.google.com/?cid=0x0:0x8fe99a4bcbf347df"
"supermarket bangunan";"Pemasok Bahan Bangunan";"SUMBER BATU ALAM ACEH TAMIANG (BENUA RAJA)";"73QC+739, Benua Raja, Kec. Rantau, Kabupaten Aceh Tamiang, Aceh";"Kabupaten Aceh Tamiang, Aceh";"ACEH";"";"Indonesia";" 085254511251";"4.2881819";"98.0702637";"https://maps.google.com/?cid=0x0:0xf289b362d80572ad"
"supermarket bangunan";"Toko Perlengkapan Rumah";"Tamiang Perabot";"73M5+RW7, Unnamed Road, Kota Kuala Simpang, Kabupaten Aceh Tamiang, Aceh 24456";"Unnamed Road, Kota Kuala Simpang, Kabupaten Aceh Tamiang";"ACEH";"24456";"Indonesia";" 082168149069";"4.2845417";"98.059791";"https://maps.google.com/?cid=0x0:0xce295e85bb5ac46d"
"supermarket bangunan";"Toko Kaca >>u0026 Cermin";"Dunia Kaca";"JL. Letjend. Suprapto, No. 10, Kota Kuala Simpang, Kabupaten Aceh Tamiang, Aceh 24456";"No. 10, Kota Kuala Simpang, Kabupaten Aceh Tamiang";"ACEH";"24456";"Indonesia";" 064131174";"4.283451";"98.059501";"https://maps.google.com/?cid=0x0:0xeb9d0d40f915be7a"
"supermarket bangunan";"Toko Perlengkapan Rumah";"TOKO AL RAZAQ PERABOT";"Jl. Letjend Suprapto, Kota Kuala Simpang, Kabupaten Aceh Tamiang, Aceh 24456";"Kota Kuala Simpang, Kabupaten Aceh Tamiang";"ACEH";"24456";"Indonesia";" 085213871353";"4.2838478";"98.0589618";"https://maps.google.com/?cid=0x0:0xedfff1e611000aca"
"supermarket bangunan";"Toko";"Bintang terang Kuala Simpang Aceh tamiang";"Jln k.s tubun No.4, Kota Kuala Simpang, Kabupaten Aceh Tamiang, Aceh 24475";"Kota Kuala Simpang, Kabupaten Aceh Tamiang";"ACEH";"24475";"Indonesia";" 085361553333";"4.283777";"98.058112";"https://maps.google.com/?cid=0x0:0x8e8e76edb9d73ac7"
"supermarket bangunan";"Pemasok Bahan Bangunan";"Nurta Jaya toko bangunan";"Ie Bintah, Kec. Manyak Payed, Kabupaten Aceh Tamiang, Aceh 24471";"Kec. Manyak Payed, Kabupaten Aceh Tamiang";"ACEH";"24471";"Indonesia";"";"4.3993038";"98.0680627";"https://maps.google.com/?cid=0x0:0x71f50b7c59ae06b4"
"supermarket bangunan";"supermarket bangunan";"Aceh 24471";"Aceh";"Aceh";"ACEH";"";"Indonesia";"";"4.3465057";"97.8395151";"https://maps.google.com/?cid=0x0:0x6a96af07474c986b"
"supermarket bangunan";"Toko Perlengkapan Rumah";"TOKO BESI DAN BAHAN BANGUNAN CAHAYA ABADI";"93XC+G3J, Jl. Lintas Sumatra, Tualang Baru, Kec. Manyak Payed, Kabupaten Aceh Tamiang, Aceh 24471";"Jl. Lintas Sumatra, Tualang Baru, Kec. Manyak Payed, Kabupaten Aceh Tamiang";"ACEH";"24471";"Indonesia";" 082167658373";"4.3988716";"98.0700961";"https://maps.google.com/?cid=0x0:0x351e338af5b61e09"
"supermarket bangunan";"Toko Perlengkapan Rumah";"Toko SH BANGUNAN";"Jl, Muka Sungai Kuruk, Kec. Seuruway, Kabupaten Aceh Tamiang, Aceh";"Kabupaten Aceh Tamiang, Aceh";"ACEH";"";"Indonesia";"";"4.3541556";"98.1853171";"https://maps.google.com/?cid=0x0:0x9851477dd1a1f493"
"supermarket bangunan";"Toko Bahan Bangunan";"ASNAH ALAT BANGUNAN";"953M+M6P, Unnamed Road, Peukan Seuruway, Kec. Seuruway, Kabupaten Aceh Tamiang, Aceh 24472";"Unnamed Road, Peukan Seuruway, Kec. Seuruway, Kabupaten Aceh Tamiang";"ACEH";"24472";"Indonesia";"";"4.3542106";"98.1830639";"https://maps.google.com/?cid=0x0:0x2ca039ce29a36dc9"
"supermarket bangunan";"Toko Bahan Bangunan";"Toko bangunan";"7VVH+V2G, Babo, Kec. Bandar Pusaka, Kabupaten Aceh Tamiang, Aceh 24456";"Babo, Kec. Bandar Pusaka, Kabupaten Aceh Tamiang";"ACEH";"24456";"Indonesia";" 08527799912";"4.2946931";"97.8775738";"https://maps.google.com/?cid=0x0:0xcb5b4bb21b3fe6e0"
"supermarket bangunan";"Toko Bahan Bangunan";"MAJU BERSAMA";"6WV5+M66, Wono Sari, Kec. Tamiang Hulu, Kabupaten Aceh Tamiang, Aceh 24382";"Wono Sari, Kec. Tamiang Hulu, Kabupaten Aceh Tamiang";"ACEH";"24382";"Indonesia";" 085281788214";"4.2441543";"97.9080047";"https://maps.google.com/?cid=0x0:0xfcce97bffb40d002"
"supermarket bangunan";"supermarket bangunan";"MISRA MANDIRI JAYA";"73P7+MQG, Bukit Tempurung, Kota Kuala Simpang, Kabupaten Aceh Tamiang, Aceh 24456";"Bukit Tempurung, Kota Kuala Simpang, Kabupaten Aceh Tamiang";"ACEH";"24456";"Indonesia";"";"4.2866875";"98.0644531";"https://maps.google.com/?cid=0x0:0xcb1908e601e41c6"
"supermarket bangunan";"Toko Bahan Bangunan";"Toko Tanjung Mulia Baru";"Jl. Letjend Suprapto No.8, Kota Kuala Simpang, Kabupaten Aceh Tamiang, Aceh 24475";"Kota Kuala Simpang, Kabupaten Aceh Tamiang";"ACEH";"24475";"Indonesia";" 082361611188";"4.2840128";"98.0601734";"https://maps.google.com/?cid=0x0:0x4f409804eac6f148"
"supermarket bangunan";"Pemasok Bahan Bangunan";"SUMBER BATU ALAM ACEH TAMIANG (BENUA RAJA)";"73QC+739, Benua Raja, Kec. Rantau, Kabupaten Aceh Tamiang, Aceh";"Kabupaten Aceh Tamiang, Aceh";"ACEH";"";"Indonesia";" 085254511251";"4.2881819";"98.0702637";"https://maps.google.com/?cid=0x0:0xf289b362d80572ad"
"supermarket bangunan";"Pasar bahan bangunan";"TOKO bangunan semangat baru";"Alur Cucur, Kec. Rantau, Kabupaten Aceh Tamiang, Aceh";"Kabupaten Aceh Tamiang, Aceh";"ACEH";"";"Indonesia";" 082363836607";"4.3156605";"98.1092816";"https://maps.google.com/?cid=0x0:0xf8cdbba6c12b88d1"
"supermarket bangunan";"Toko Bahan Bangunan";"Toko Bangunan Umran";"Jl. Medan Banda Aceh No.63, Seumadam, Kec. Kejuruan Muda, Kabupaten Aceh Tamiang, Aceh 24474";"Seumadam, Kec. Kejuruan Muda, Kabupaten Aceh Tamiang";"ACEH";"24474";"Indonesia";" 08126476231";"4.1821682";"98.0517118";"https://maps.google.com/?cid=0x0:0xc1453692ad2b177f"
"supermarket bangunan";"Toko Perlengkapan Rumah";"Sepermarket Bahan Bangunan Asia Niaga";"Jl. Jenderal Ahmad Yani No.123, Blang Sinibong, Kec. Langsa Kota, Kota Langsa, Aceh 24375";"Blang Sinibong, Kec. Langsa Kota, Kota Langsa";"ACEH";"24375";"Indonesia";" 08116700155";"4.4725893";"97.9756602";"https://maps.google.com/?cid=0x0:0xbf87768a6495f87a"
"supermarket bangunan";"Kontraktor Umum";"AVINA GROUP 4";"83H8+CM8, Jl. Medan Banda Aceh, Pahlawan, Kota Kuala Simpang, Kabupaten Aceh Tamiang, Aceh 24476";"Jl. Medan Banda Aceh, Pahlawan, Kota Kuala Simpang, Kabupaten Aceh Tamiang";"ACEH";"24476";"Indonesia";" 085358626088";"4.3285316";"98.0667069";"https://maps.google.com/?cid=0x0:0x960a63ac0e0e7dac"
"supermarket bangunan";"Toko Bahan Bangunan";"Toko Bangunan Umran";"Jl. Medan Banda Aceh No.63, Seumadam, Kec. Kejuruan Muda, Kabupaten Aceh Tamiang, Aceh 24474";"Seumadam, Kec. Kejuruan Muda, Kabupaten Aceh Tamiang";"ACEH";"24474";"Indonesia";" 08126476231";"4.1821682";"98.0517118";"https://maps.google.com/?cid=0x0:0xc1453692ad2b177f"
"supermarket bangunan";"supermarket bangunan";"Aceh 24474";"Kec. Kejuruan Muda, Kabupaten Aceh Tamiang, Aceh";"Kabupaten Aceh Tamiang, Aceh";"ACEH";"";"Indonesia";"";"4.2123421";"98.0247005";"https://maps.google.com/?cid=0x0:0xe116e26a288dda02"
"supermarket bangunan";"Toko Bahan Bangunan";"Toko bangunan, arrohman";"Purwodadi, Kec. Kejuruan Muda, Kabupaten Aceh Tamiang, Aceh 24475";"Kec. Kejuruan Muda, Kabupaten Aceh Tamiang";"ACEH";"24475";"Indonesia";" 082316146356";"4.2182002";"98.0691677";"https://maps.google.com/?cid=0x0:0x8c52495e70679bb7"
"supermarket bangunan";"Toko Bahan Bangunan";"toko bangunan haryono";"62H4+4XQ, Tj. Genteng, Kec. Kejuruan Muda, Kabupaten Aceh Tamiang, Aceh 24474";"Tj. Genteng, Kec. Kejuruan Muda, Kabupaten Aceh Tamiang";"ACEH";"24474";"Indonesia";"";"4.228019";"98.007308";"https://maps.google.com/?cid=0x0:0x69d521fd3acdb92e"
"supermarket bangunan";"Toko Bahan Bangunan";"MAJU BERSAMA";"6WV5+M66, Wono Sari, Kec. Tamiang Hulu, Kabupaten Aceh Tamiang, Aceh 24382";"Wono Sari, Kec. Tamiang Hulu, Kabupaten Aceh Tamiang";"ACEH";"24382";"Indonesia";" 085281788214";"4.2441543";"97.9080047";"https://maps.google.com/?cid=0x0:0xfcce97bffb40d002"
"supermarket bangunan";"Toko Bahan Bangunan";"PD. Bachtiar Ama";"63P7+H9Q, Pangkalan, Kec. Kejuruan Muda, Kabupaten Aceh Tamiang, Aceh 24475";"Pangkalan, Kec. Kejuruan Muda, Kabupaten Aceh Tamiang";"ACEH";"24475";"Indonesia";" 0620543091";"4.236475";"98.0634718";"https://maps.google.com/?cid=0x0:0xd4728685837f28ee"
"supermarket bangunan";"Toko Bahan Bangunan";"BAHARI JAYA PLAPON";"63J5+767, Pangkalan, Kec. Kejuruan Muda, Kabupaten Aceh Tamiang, Aceh";"Kabupaten Aceh Tamiang, Aceh";"ACEH";"";"Indonesia";"";"4.2306583";"98.0580593";"https://maps.google.com/?cid=0x0:0xb92eb44c523b65d5"
"supermarket bangunan";"supermarket bangunan";"toko Bangunan";"7487+VVJ, Suka Rahmat, Kec. Rantau, Kabupaten Aceh Tamiang, Aceh 24453";"Suka Rahmat, Kec. Rantau, Kabupaten Aceh Tamiang";"ACEH";"24453";"Indonesia";" 085275616812";"4.267212";"98.1146509";"https://maps.google.com/?cid=0x0:0xd82aca300cd72db7"
"supermarket bangunan";"Toko Bahan Bangunan";"Toko Bangunan Harapan Baru";"3VH3+F97, Bakaran Batu, Kec. Rantau Sel., Kab. Labuhanbatu, Sumatera Utara 21418";"Bakaran Batu, Kec. Rantau Sel., Kab. Labuhanbatu";"ACEH";"21418";"Indonesia";" 085261666550";"2.0786682";"99.8534364";"https://maps.google.com/?cid=0x0:0xc7ff6cc7c37b364c"
"supermarket bangunan";"Toko Bahan Bangunan";"Cahaya Baru Bahan Bangunan";"Jl. Kualuh No.19, Kartini, Kec. Rantau Utara, Kab. Labuhanbatu, Sumatera Utara 21411";"Kartini, Kec. Rantau Utara, Kab. Labuhanbatu";"ACEH";"21411";"Indonesia";" 082166270219";"2.0986713";"99.8304882";"https://maps.google.com/?cid=0x0:0x669369efb561664c"
"supermarket bangunan";"Toko";"Toko budi (bangunan  tehnik)";"348X+6V6, Rantau Kanan, Kec. Tapin Utara, Kabupaten Tapin, Kalimantan Selatan 71152";"Rantau Kanan, Kec. Tapin Utara, Kabupaten Tapin";"ACEH";"71152";"Indonesia";" 051731250";"-2.9344749";"115.1496545";"https://maps.google.com/?cid=0x0:0xac043cadb80d415f"
"supermarket bangunan";"Toko Bahan Bangunan";"Pratama Supermarket Bahan Bangunan";"Jl. Raya Lemahabang No.27, Mekarmukti, Kec. Cikarang Utara, Kabupaten Bekasi, Jawa Barat 17530";"Mekarmukti, Kec. Cikarang Utara, Kabupaten Bekasi";"ACEH";"17530";"Indonesia";" 081401948281";"-6.2894221";"107.1531609";"https://maps.google.com/?cid=0x0:0x167f4446dd2fadda"
"supermarket bangunan";"Toko Bahan Bangunan";"Home Smart Rantauprapat";"Jl. SM. Raja No.63, Bakaran Batu, Kec. Rantau Sel., Kab. Labuhanbatu, Sumatera Utara 21421";"Bakaran Batu, Kec. Rantau Sel., Kab. Labuhanbatu";"ACEH";"21421";"Indonesia";" 062423822";"2.0892817";"99.8462142";"https://maps.google.com/?cid=0x0:0x7276b2ff8eeffdec"
"supermarket bangunan";"Pasar bahan bangunan";"TOKO bangunan semangat baru";"Alur Cucur, Kec. Rantau, Kabupaten Aceh Tamiang, Aceh";"Kabupaten Aceh Tamiang, Aceh";"ACEH";"";"Indonesia";" 082363836607";"4.3156605";"98.1092816";"https://maps.google.com/?cid=0x0:0xf8cdbba6c12b88d1"
"supermarket bangunan";"supermarket bangunan";"MISRA MANDIRI JAYA";"73P7+MQG, Bukit Tempurung, Kota Kuala Simpang, Kabupaten Aceh Tamiang, Aceh 24456";"Bukit Tempurung, Kota Kuala Simpang, Kabupaten Aceh Tamiang";"ACEH";"24456";"Indonesia";"";"4.2866875";"98.0644531";"https://maps.google.com/?cid=0x0:0xcb1908e601e41c6"
"supermarket bangunan";"supermarket bangunan";"Aceh 24476";"Kabupaten Aceh Tamiang, Aceh";"Kabupaten Aceh Tamiang, Aceh";"ACEH";"";"Indonesia";"";"4.3288776";"98.0628862";"https://maps.google.com/?cid=0x0:0x82d848b4ba041829"
"supermarket bangunan";"Pemasok Bahan Bangunan";"SUMBER BATU ALAM ACEH TAMIANG (BENUA RAJA)";"73QC+739, Benua Raja, Kec. Rantau, Kabupaten Aceh Tamiang, Aceh";"Kabupaten Aceh Tamiang, Aceh";"ACEH";"";"Indonesia";" 085254511251";"4.2881819";"98.0702637";"https://maps.google.com/?cid=0x0:0xf289b362d80572ad"
"supermarket bangunan";"Toko Perlengkapan Rumah";"Toko SH BANGUNAN";"Jl, Muka Sungai Kuruk, Kec. Seuruway, Kabupaten Aceh Tamiang, Aceh";"Kabupaten Aceh Tamiang, Aceh";"ACEH";"";"Indonesia";"";"4.3541556";"98.1853171";"https://maps.google.com/?cid=0x0:0x9851477dd1a1f493"
"supermarket bangunan";"Toko Perlengkapan Rumah";"Sepermarket Bahan Bangunan Asia Niaga";"Jl. Jenderal Ahmad Yani No.123, Blang Sinibong, Kec. Langsa Kota, Kota Langsa, Aceh 24375";"Blang Sinibong, Kec. Langsa Kota, Kota Langsa";"ACEH";"24375";"Indonesia";" 08116700155";"4.4725893";"97.9756602";"https://maps.google.com/?cid=0x0:0xbf87768a6495f87a"
"supermarket bangunan";"Toko Kaca";"Toko Bangunan Bintang Jaya Kampung Durian";"Jl. Sapta Jaya dusun metro jaya, Kp. Durian, Kota Kuala Simpang, Kabupaten Aceh Tamiang, Aceh 24474";"Kp. Durian, Kota Kuala Simpang, Kabupaten Aceh Tamiang";"ACEH";"24474";"Indonesia";" 082259439707";"4.2953519";"98.083651";"https://maps.google.com/?cid=0x0:0x4f08d170b51aa435"
"supermarket bangunan";"Toko Alat Tulis Kantor";"TOKO BANGUNAN PANDA PRIMA";"73P3+Q42, Kesehatan, Kec. Karang Baru, Kabupaten Aceh Tamiang, Aceh 24456";"Kesehatan, Kec. Karang Baru, Kabupaten Aceh Tamiang";"ACEH";"24456";"Indonesia";" 085260856696";"4.287018";"98.0526676";"https://maps.google.com/?cid=0x0:0x2125bb49c07f528d"
"supermarket bangunan";"Kontraktor Umum";"AVINA GROUP 4";"83H8+CM8, Jl. Medan Banda Aceh, Pahlawan, Kota Kuala Simpang, Kabupaten Aceh Tamiang, Aceh 24476";"Jl. Medan Banda Aceh, Pahlawan, Kota Kuala Simpang, Kabupaten Aceh Tamiang";"ACEH";"24476";"Indonesia";" 085358626088";"4.3285316";"98.0667069";"https://maps.google.com/?cid=0x0:0x960a63ac0e0e7dac"
"supermarket bangunan";"Toko Perlengkapan Rumah";"Marga Agung";"Jalan panglima polem No.7 9, RW.11, Kuala Simpang City, Aceh Tamiang Regency, Aceh 24456";"RW.11, Kuala Simpang City, Aceh Tamiang Regency";"ACEH";"24456";"Indonesia";" 0641333228";"4.283875";"98.0575874";"https://maps.google.com/?cid=0x0:0x98803e320738b95e"
"supermarket bangunan";"Toko Bahan Bangunan";"Toko Bangunan UD. Famili ANEL";"73RC+8VW, Jalan, Benua Raja, Rantau, Aceh Tamiang Regency, Aceh";"Kabupaten Aceh Tamiang, Aceh";"ACEH";"";"Indonesia";"";"4.2908623";"98.0721965";"https://maps.google.com/?cid=0x0:0xc808d2785c513d16"
"supermarket bangunan";"Toko Bahan Bangunan";"Rimba Jaya Usaha";"JL. Banda Aceh-Medan, Km. 14 No. 5, Banda Aceh, 23127";"Km. 14 No. 5";"ACEH";"23127";"Indonesia";" 065127357";"4.328267";"98.064823";"https://maps.google.com/?cid=0x0:0x390ae57f35052afa"
"supermarket bangunan";"Toko Bahan Bangunan";"UD Aceh Jaya Toko Bangunan Siti Asmawati";"83FV+W87, Alur Manis, Kec. Rantau, Kabupaten Aceh Tamiang, Aceh";"Kabupaten Aceh Tamiang, Aceh";"ACEH";"";"Indonesia";" 085210270282";"4.3247897";"98.0933082";"https://maps.google.com/?cid=0x0:0x360a77eff13df3dc"
"supermarket bangunan";"Toko Bahan Bangunan";"Toko Bangun Cemerlang";"72VX+2R3, Gampong Bundar, Kec. Karang Baru, Kabupaten Aceh Tamiang, Aceh 24456";"Gampong Bundar, Kec. Karang Baru, Kabupaten Aceh Tamiang";"ACEH";"24456";"Indonesia";"";"4.292512";"98.0495532";"https://maps.google.com/?cid=0x0:0x950e021d55993633"
"supermarket bangunan";"Toko Bahan Bangunan";"Tanjung K Gypsum";"73M6+R52, JL. IR. H. Juanda, Kuala Simpang, Aceh Tamiang, Kota Kuala Simpang, Banda Aceh, Kabupaten Aceh Tamiang, Aceh 24456";"JL. IR. H. Juanda, Kuala Simpang, Aceh Tamiang, Kota Kuala Simpang, Banda Aceh, Kabupaten Aceh Tamiang";"ACEH";"24456";"Indonesia";" 085260972932";"4.2845072";"98.0603957";"https://maps.google.com/?cid=0x0:0x8fe99a4bcbf347df"
"supermarket bangunan";"supermarket bangunan";"Aceh 24473";"Aceh";"Aceh";"ACEH";"";"Indonesia";"";"4.2670304";"98.1393179";"https://maps.google.com/?cid=0x0:0x7edc8ec14cab902a"
"supermarket bangunan";"Toko Perlengkapan Rumah";"Toko SH BANGUNAN";"Jl, Muka Sungai Kuruk, Kec. Seuruway, Kabupaten Aceh Tamiang, Aceh";"Kabupaten Aceh Tamiang, Aceh";"ACEH";"";"Indonesia";"";"4.3541556";"98.1853171";"https://maps.google.com/?cid=0x0:0x9851477dd1a1f493"
"supermarket bangunan";"supermarket bangunan";"MISRA MANDIRI JAYA";"73P7+MQG, Bukit Tempurung, Kota Kuala Simpang, Kabupaten Aceh Tamiang, Aceh 24456";"Bukit Tempurung, Kota Kuala Simpang, Kabupaten Aceh Tamiang";"ACEH";"24456";"Indonesia";"";"4.2866875";"98.0644531";"https://maps.google.com/?cid=0x0:0xcb1908e601e41c6"
"supermarket bangunan";"Toko Bahan Bangunan";"UD Aceh Jaya Toko Bangunan Siti Asmawati";"83FV+W87, Alur Manis, Kec. Rantau, Kabupaten Aceh Tamiang, Aceh";"Kabupaten Aceh Tamiang, Aceh";"ACEH";"";"Indonesia";" 085210270282";"4.3247897";"98.0933082";"https://maps.google.com/?cid=0x0:0x360a77eff13df3dc"
"supermarket bangunan";"Toko Perlengkapan Rumah";"Marga Agung";"Jalan panglima polem No.7 9, RW.11, Kuala Simpang City, Aceh Tamiang Regency, Aceh 24456";"RW.11, Kuala Simpang City, Aceh Tamiang Regency";"ACEH";"24456";"Indonesia";" 0641333228";"4.283875";"98.0575874";"https://maps.google.com/?cid=0x0:0x98803e320738b95e"
"supermarket bangunan";"Toko Perlengkapan Rumah";"AS JAYA";"953M+M5G, Peukan Seuruway, Kec. Seuruway, Kabupaten Aceh Tamiang, Aceh 24472";"Peukan Seuruway, Kec. Seuruway, Kabupaten Aceh Tamiang";"ACEH";"24472";"Indonesia";"";"4.3541603";"98.1828977";"https://maps.google.com/?cid=0x0:0x1f30c0ab5273b0e2"
"supermarket bangunan";"Toko Bahan Bangunan";"Toko Bangunan UD. Famili ANEL";"73RC+8VW, Jalan, Benua Raja, Rantau, Aceh Tamiang Regency, Aceh";"Kabupaten Aceh Tamiang, Aceh";"ACEH";"";"Indonesia";"";"4.2908623";"98.0721965";"https://maps.google.com/?cid=0x0:0xc808d2785c513d16"
"supermarket bangunan";"Pasar bahan bangunan";"TOKO bangunan semangat baru";"Alur Cucur, Kec. Rantau, Kabupaten Aceh Tamiang, Aceh";"Kabupaten Aceh Tamiang, Aceh";"ACEH";"";"Indonesia";" 082363836607";"4.3156605";"98.1092816";"https://maps.google.com/?cid=0x0:0xf8cdbba6c12b88d1"
"supermarket bangunan";"Toko Bahan Bangunan";"Toko Bangunan Umran";"Jl. Medan Banda Aceh No.63, Seumadam, Kec. Kejuruan Muda, Kabupaten Aceh Tamiang, Aceh 24474";"Seumadam, Kec. Kejuruan Muda, Kabupaten Aceh Tamiang";"ACEH";"24474";"Indonesia";" 08126476231";"4.1821682";"98.0517118";"https://maps.google.com/?cid=0x0:0xc1453692ad2b177f"
"supermarket bangunan";"Toko Bahan Bangunan";"Toko bangunan, arrohman";"Purwodadi, Kec. Kejuruan Muda, Kabupaten Aceh Tamiang, Aceh 24475";"Kec. Kejuruan Muda, Kabupaten Aceh Tamiang";"ACEH";"24475";"Indonesia";" 082316146356";"4.2182002";"98.0691677";"https://maps.google.com/?cid=0x0:0x8c52495e70679bb7"
"supermarket bangunan";"Toko";"Samurai Paint - Marga Agung Kuala Simpang";"73M5+G3Q, Kota Kuala Simpang, Kabupaten Aceh Tamiang, Aceh 24456";"Kota Kuala Simpang, Kabupaten Aceh Tamiang";"ACEH";"24456";"Indonesia";" 085296599888";"4.2838419";"98.057729";"https://maps.google.com/?cid=0x0:0xfe061a33b4f8064e"
"supermarket bangunan";"Toko Bahan Bangunan";"Toko bangunan sinar utara";"95M6+RRW, Jl. Medan B. Aceh, Seuneubok Dalam Mesjid, Banda Aceh, Kabupaten Aceh Tamiang, Aceh 24472";"Jl. Medan B. Aceh, Seuneubok Dalam Mesjid, Banda Aceh, Kabupaten Aceh Tamiang";"ACEH";"24472";"Indonesia";" 085262303826";"4.3847402";"98.1627285";"https://maps.google.com/?cid=0x0:0x5ca1257abddb6f4e"
"supermarket bangunan";"Pemasok Bahan Bangunan";"Nurta Jaya toko bangunan";"Ie Bintah, Kec. Manyak Payed, Kabupaten Aceh Tamiang, Aceh 24471";"Kec. Manyak Payed, Kabupaten Aceh Tamiang";"ACEH";"24471";"Indonesia";"";"4.3993038";"98.0680627";"https://maps.google.com/?cid=0x0:0x71f50b7c59ae06b4"
"supermarket bangunan";"Toko Bahan Bangunan";"MAJU BERSAMA";"6WV5+M66, Wono Sari, Kec. Tamiang Hulu, Kabupaten Aceh Tamiang, Aceh 24382";"Wono Sari, Kec. Tamiang Hulu, Kabupaten Aceh Tamiang";"ACEH";"24382";"Indonesia";" 085281788214";"4.2441543";"97.9080047";"https://maps.google.com/?cid=0x0:0xfcce97bffb40d002"
"supermarket bangunan";"Toko Bahan Bangunan";"Toko Cahaya Muda";"5X75+697, Perk Pulau Tiga, Kec. Tamiang Hulu, Kabupaten Aceh Tamiang, Aceh 24477";"Perk Pulau Tiga, Kec. Tamiang Hulu, Kabupaten Aceh Tamiang";"ACEH";"24477";"Indonesia";" 085260996888";"4.1630307";"97.9584191";"https://maps.google.com/?cid=0x0:0xd4b9e37b778ae27f"
"supermarket bangunan";"supermarket bangunan";"Kec. Tamiang Hulu";"Kabupaten Aceh Tamiang, Aceh";"Kabupaten Aceh Tamiang, Aceh";"ACEH";"";"Indonesia";"";"4.1633008";"97.9539786";"https://maps.google.com/?cid=0x0:0x4376a9df79cb4397"
"supermarket bangunan";"Toko Bahan Bangunan";"Toko Bangunan Umran";"Jl. Medan Banda Aceh No.63, Seumadam, Kec. Kejuruan Muda, Kabupaten Aceh Tamiang, Aceh 24474";"Seumadam, Kec. Kejuruan Muda, Kabupaten Aceh Tamiang";"ACEH";"24474";"Indonesia";" 08126476231";"4.1821682";"98.0517118";"https://maps.google.com/?cid=0x0:0xc1453692ad2b177f"
"supermarket bangunan";"Toko Bahan Bangunan";"toko bangunan haryono";"62H4+4XQ, Tj. Genteng, Kec. Kejuruan Muda, Kabupaten Aceh Tamiang, Aceh 24474";"Tj. Genteng, Kec. Kejuruan Muda, Kabupaten Aceh Tamiang";"ACEH";"24474";"Indonesia";"";"4.228019";"98.007308";"https://maps.google.com/?cid=0x0:0x69d521fd3acdb92e"
"supermarket bangunan";"Toko Perlengkapan Rumah";"TOKO BESI DAN BAHAN BANGUNAN CAHAYA ABADI";"93XC+G3J, Jl. Lintas Sumatra, Tualang Baru, Kec. Manyak Payed, Kabupaten Aceh Tamiang, Aceh 24471";"Jl. Lintas Sumatra, Tualang Baru, Kec. Manyak Payed, Kabupaten Aceh Tamiang";"ACEH";"24471";"Indonesia";" 082167658373";"4.3988716";"98.0700961";"https://maps.google.com/?cid=0x0:0x351e338af5b61e09"
"supermarket bangunan";"Toko Bahan Bangunan";"Toko Bangun Cemerlang";"72VX+2R3, Gampong Bundar, Kec. Karang Baru, Kabupaten Aceh Tamiang, Aceh 24456";"Gampong Bundar, Kec. Karang Baru, Kabupaten Aceh Tamiang";"ACEH";"24456";"Indonesia";"";"4.292512";"98.0495532";"https://maps.google.com/?cid=0x0:0x950e021d55993633"
"supermarket bangunan";"Pasar bahan bangunan";"TOKO bangunan semangat baru";"Alur Cucur, Kec. Rantau, Kabupaten Aceh Tamiang, Aceh";"Kabupaten Aceh Tamiang, Aceh";"ACEH";"";"Indonesia";" 082363836607";"4.3156605";"98.1092816";"https://maps.google.com/?cid=0x0:0xf8cdbba6c12b88d1"
"supermarket bangunan";"Toko Bahan Bangunan";"UD Aceh Jaya Toko Bangunan Siti Asmawati";"83FV+W87, Alur Manis, Kec. Rantau, Kabupaten Aceh Tamiang, Aceh";"Kabupaten Aceh Tamiang, Aceh";"ACEH";"";"Indonesia";" 085210270282";"4.3247897";"98.0933082";"https://maps.google.com/?cid=0x0:0x360a77eff13df3dc"
"supermarket bangunan";"Toko Bahan Bangunan";"Depo Bahan bangunan Putra Rejeki";"Jl. Pahlawan No.1, Area Sawah, Wanutengah, Kec. Parakan, Kabupaten Temanggung, Jawa Tengah 56254";"Area Sawah, Wanutengah, Kec. Parakan, Kabupaten Temanggung";"ACEH";"56254";"Indonesia";" 081215450976";"-7.286352";"110.1072338";"https://maps.google.com/?cid=0x0:0x4722e97aa28a364e"
"supermarket bangunan";"Toko Cat";"Bangunan Mart 2";"Tj. Hulu, Kec. Pontianak Tim., Kota Pontianak, Kalimantan Barat 78242";"Kec. Pontianak Tim., Kota Pontianak";"ACEH";"78242";"Indonesia";" 082351318054";"-0.0260609";"109.3757534";"https://maps.google.com/?cid=0x0:0xca0bca8732abc3df"
"supermarket bangunan";"Toko Bahan Bangunan";"TOKO CAT PROPAN BANGUNAN MART";"Jl. Major Alianyang, Kapur, Kec. Sungai Raya, Pontianak, Kalimantan Barat 78235";"Kapur, Kec. Sungai Raya, Pontianak";"ACEH";"78235";"Indonesia";" 08115638881";"-0.063949";"109.3798892";"https://maps.google.com/?cid=0x0:0x1e9db7fb8fe4d803"
"supermarket bangunan";"Toko Bahan Bangunan";"Toko Cahaya Muda";"5X75+697, Perk Pulau Tiga, Kec. Tamiang Hulu, Kabupaten Aceh Tamiang, Aceh 24477";"Perk Pulau Tiga, Kec. Tamiang Hulu, Kabupaten Aceh Tamiang";"ACEH";"24477";"Indonesia";" 085260996888";"4.1630307";"97.9584191";"https://maps.google.com/?cid=0x0:0xd4b9e37b778ae27f"
"supermarket bangunan";"supermarket bangunan";"Aceh 24477";"Kabupaten Aceh Tamiang, Aceh";"Kabupaten Aceh Tamiang, Aceh";"ACEH";"";"Indonesia";"";"3.9904163";"97.9157099";"https://maps.google.com/?cid=0x0:0x559940852b05002f"
"supermarket bangunan";"Toko Bahan Bangunan";"Toko Bangunan Umran";"Jl. Medan Banda Aceh No.63, Seumadam, Kec. Kejuruan Muda, Kabupaten Aceh Tamiang, Aceh 24474";"Seumadam, Kec. Kejuruan Muda, Kabupaten Aceh Tamiang";"ACEH";"24474";"Indonesia";" 08126476231";"4.1821682";"98.0517118";"https://maps.google.com/?cid=0x0:0xc1453692ad2b177f"
"supermarket bangunan";"Toko Bahan Bangunan";"ASNAH ALAT BANGUNAN";"953M+M6P, Unnamed Road, Peukan Seuruway, Kec. Seuruway, Kabupaten Aceh Tamiang, Aceh 24472";"Unnamed Road, Peukan Seuruway, Kec. Seuruway, Kabupaten Aceh Tamiang";"ACEH";"24472";"Indonesia";"";"4.3542106";"98.1830639";"https://maps.google.com/?cid=0x0:0x2ca039ce29a36dc9"
"supermarket bangunan";"Toko Perlengkapan Rumah";"Toko SH BANGUNAN";"Jl, Muka Sungai Kuruk, Kec. Seuruway, Kabupaten Aceh Tamiang, Aceh";"Kabupaten Aceh Tamiang, Aceh";"ACEH";"";"Indonesia";"";"4.3541556";"98.1853171";"https://maps.google.com/?cid=0x0:0x9851477dd1a1f493"
"supermarket bangunan";"Toko Bahan Bangunan";"Toko bangunan, arrohman";"Purwodadi, Kec. Kejuruan Muda, Kabupaten Aceh Tamiang, Aceh 24475";"Kec. Kejuruan Muda, Kabupaten Aceh Tamiang";"ACEH";"24475";"Indonesia";" 082316146356";"4.2182002";"98.0691677";"https://maps.google.com/?cid=0x0:0x8c52495e70679bb7"
"supermarket bangunan";"supermarket bangunan";"MISRA MANDIRI JAYA";"73P7+MQG, Bukit Tempurung, Kota Kuala Simpang, Kabupaten Aceh Tamiang, Aceh 24456";"Bukit Tempurung, Kota Kuala Simpang, Kabupaten Aceh Tamiang";"ACEH";"24456";"Indonesia";"";"4.2866875";"98.0644531";"https://maps.google.com/?cid=0x0:0xcb1908e601e41c6"
"supermarket bangunan";"Toko Bahan Bangunan";"Toko Bangunan UD. Famili ANEL";"73RC+8VW, Jalan, Benua Raja, Rantau, Aceh Tamiang Regency, Aceh";"Kabupaten Aceh Tamiang, Aceh";"ACEH";"";"Indonesia";"";"4.2908623";"98.0721965";"https://maps.google.com/?cid=0x0:0xc808d2785c513d16"
"supermarket bangunan";"Toko Bahan Bangunan";"Toko bangunan gunung lampu";"Jl. Rantau, Bukit Tempurung, Kota Kuala Simpang, Kabupaten Aceh Tamiang, Aceh 24475";"Bukit Tempurung, Kota Kuala Simpang, Kabupaten Aceh Tamiang";"ACEH";"24475";"Indonesia";" 082177325596";"4.2859138";"98.0631398";"https://maps.google.com/?cid=0x0:0x760175408c9aa1e9"
"supermarket bangunan";"Toko Bahan Bangunan";"toko guna baru";"WQXC+VFG, Jl. Medan Banda Aceh, Kuta Blang, Kec. Idi Rayeuk, Kabupaten Aceh Timur, Aceh";"Kabupaten Aceh Timur, Aceh";"ACEH";"";"Indonesia";"";"4.9496962";"97.7712131";"https://maps.google.com/?cid=0x0:0x95566961f59d4fd2"
"supermarket bangunan";"Toko Bahan Bangunan";"Irfab Gyfsum";"8385+WQ6, Jalan Medan Langsa, Karang Baru, Madang Ara, Gampong Johar, Kec. Karang Baru, Kabupaten Aceh Tamiang, Aceh 24476";"Jalan Medan Langsa, Karang Baru, Madang Ara, Gampong Johar, Kec. Karang Baru, Kabupaten Aceh Tamiang";"ACEH";"24476";"Indonesia";" 082160415169";"4.317295";"98.059384";"https://maps.google.com/?cid=0x0:0x4a63435d2a116859"
"supermarket bangunan";"Toko Bahan Bangunan";"Toko Tanjung Mulia Baru";"Jl. Letjend Suprapto No.8, Kota Kuala Simpang, Kabupaten Aceh Tamiang, Aceh 24475";"Kota Kuala Simpang, Kabupaten Aceh Tamiang";"ACEH";"24475";"Indonesia";" 082361611188";"4.2840128";"98.0601734";"https://maps.google.com/?cid=0x0:0x4f409804eac6f148"
"supermarket bangunan";"Pemasok Bahan Bangunan";"Nurta Jaya toko bangunan";"Ie Bintah, Kec. Manyak Payed, Kabupaten Aceh Tamiang, Aceh 24471";"Kec. Manyak Payed, Kabupaten Aceh Tamiang";"ACEH";"24471";"Indonesia";"";"4.3993038";"98.0680627";"https://maps.google.com/?cid=0x0:0x71f50b7c59ae06b4"
"supermarket bangunan";"Toko Bahan Bangunan";"toko bangunan haryono";"62H4+4XQ, Tj. Genteng, Kec. Kejuruan Muda, Kabupaten Aceh Tamiang, Aceh 24474";"Tj. Genteng, Kec. Kejuruan Muda, Kabupaten Aceh Tamiang";"ACEH";"24474";"Indonesia";"";"4.228019";"98.007308";"https://maps.google.com/?cid=0x0:0x69d521fd3acdb92e"
