Category;Real Category;Business Name;Address;City;State;Postal Code;Country;Phone;Latitude;Longitude;Map Link
"mall";"mall";"Kec. Banda Mulia";"Kabupaten Aceh Tamiang, Aceh";"Kabupaten Aceh Tamiang, Aceh";"ACEH";"";"Indonesia";"";"4.4405846";"98.1360921";"https://maps.google.com/?cid=0x0:0xe04c2bd9d3d421e8"
"mall";"Toko Herbal";"Halal Mart Mahdayani";"C4QQ+G22, Unnamed Road, Matang Seuping, Kec. Banda Mulia, Kabupaten Aceh Tamiang, Aceh 24471";"Unnamed Road, Matang Seuping, Kec. Banda Mulia, Kabupaten Aceh Tamiang";"ACEH";"24471";"Indonesia";" 085358842519";"4.4387684";"98.1375279";"https://maps.google.com/?cid=0x0:0x4bf2eea93e8d3547"
"mall";"Toko";"UD.RIDWAN TANI";"C4QP+JVM, Matang Seuping, Kec. Banda Mulia, Kabupaten Aceh Tamiang, Aceh 24471";"Matang Seuping, Kec. Banda Mulia, Kabupaten Aceh Tamiang";"ACEH";"24471";"Indonesia";" 08297028608";"4.439086";"98.137173";"https://maps.google.com/?cid=0x0:0x854e0ebee2d9afa3"
"mall";"Pusat Perbelanjaan";"B.M.B..BARU";"93XG+5G5, Jl. Medan Banda Aceh, Tualang Baru, Kec. Manyak Payed, Kabupaten Aceh Tamiang, Aceh 24471";"Jl. Medan Banda Aceh, Tualang Baru, Kec. Manyak Payed, Kabupaten Aceh Tamiang";"ACEH";"24471";"Indonesia";" 082236413514";"4.3978984";"98.0763544";"https://maps.google.com/?cid=0x0:0xb309eb2feabf6420"
"mall";"Pusat Perbelanjaan";"BC ACEH TAMIANG";"73M5+G6Q, Jl. Panglima Polem, Kota Kuala Simpang, Kabupaten Aceh Tamiang, Aceh 24456";"Jl. Panglima Polem, Kota Kuala Simpang, Kabupaten Aceh Tamiang";"ACEH";"24456";"Indonesia";" 081396301221";"4.2838371";"98.0581176";"https://maps.google.com/?cid=0x0:0x3dfc1db9a058117a"
"mall";"Toko umum";"Desi";"84FJ+HJG, Sukaramai II, Kec. Seuruway, Kabupaten Aceh Tamiang, Aceh";"Kabupaten Aceh Tamiang, Aceh";"ACEH";"";"Indonesia";"";"4.3244699";"98.1322067";"https://maps.google.com/?cid=0x0:0x947000d6fcb781fd"
"mall";"Pusat Perbelanjaan";"Gudang Rb";"86VF+XXC, Sei Kuruk II, Kec. Seuruway, Kabupaten Aceh Tamiang, Aceh 24352";"Sei Kuruk II, Kec. Seuruway, Kabupaten Aceh Tamiang";"ACEH";"24352";"Indonesia";" 081375840458";"4.3449297";"98.2248869";"https://maps.google.com/?cid=0x0:0xfdae51fb44e1e86e"
"mall";"Toko Swalayan";"Toko Azzikka";"Jl. Medan - Banda Aceh, Tualang Baru, Kec. Manyak Payed, Kabupaten Aceh Tamiang, Aceh 24471";"Tualang Baru, Kec. Manyak Payed, Kabupaten Aceh Tamiang";"ACEH";"24471";"Indonesia";"";"4.3994738";"98.0675747";"https://maps.google.com/?cid=0x0:0x92dd84c464f6a2da"
"mall";"Pedagang tekstil";"Basrija Store by Erdian";"JL. Nyak Umar No.19, Kota Kuala Simpang, Kabupaten Aceh Tamiang, Aceh 24456";"Kota Kuala Simpang, Kabupaten Aceh Tamiang";"ACEH";"24456";"Indonesia";" 085294076694";"4.2842846";"98.0592383";"https://maps.google.com/?cid=0x0:0xe43f71ebbb72071f"
"mall";"Kedai Kopi";"kede eceran";"C3J5+JR3, Ujong Tanjong, Kec. Manyak Payed, Kabupaten Aceh Tamiang, Aceh 24471";"Ujong Tanjong, Kec. Manyak Payed, Kabupaten Aceh Tamiang";"ACEH";"24471";"Indonesia";" 082282354204";"4.4315047";"98.0595426";"https://maps.google.com/?cid=0x0:0x4eb28ee4e83e121f"
"mall";"Bar";"BRAMBRUM BarbershopPomade";"Gampong Bundar, Kec. Karang Baru, Kabupaten Aceh Tamiang, Aceh 24456";"Kec. Karang Baru, Kabupaten Aceh Tamiang";"ACEH";"24456";"Indonesia";" 085380739046";"4.3019637";"98.0467415";"https://maps.google.com/?cid=0x0:0x4e44cddb54534c01"
"mall";"Gudang";"Gudang Ikan  Udang CV.Young Dhie Group";"953H+6H5, Peukan Seuruway, Kec. Seuruway, Kabupaten Aceh Tamiang, Aceh 24472";"Peukan Seuruway, Kec. Seuruway, Kabupaten Aceh Tamiang";"ACEH";"24472";"Indonesia";"";"4.3530081";"98.1789862";"https://maps.google.com/?cid=0x0:0xc1ab09db891ed63b"
"mall";"Toko Perlengkapan Rumah";"Tamiang Perabot";"73M5+RW7, Unnamed Road, Kota Kuala Simpang, Kabupaten Aceh Tamiang, Aceh 24456";"Unnamed Road, Kota Kuala Simpang, Kabupaten Aceh Tamiang";"ACEH";"24456";"Indonesia";" 082168149069";"4.2845417";"98.059791";"https://maps.google.com/?cid=0x0:0xce295e85bb5ac46d"
"mall";"Toko Perlengkapan Olah Raga Lari";"Medan Sports Aceh";"Jl. Mayjend Sutoyo No.87, Kota Kuala Simpang, Kabupaten Aceh Tamiang, Aceh 24475";"Kota Kuala Simpang, Kabupaten Aceh Tamiang";"ACEH";"24475";"Indonesia";" 085225000738";"4.2849864";"98.0573834";"https://maps.google.com/?cid=0x0:0xec001cb204a44515"
"mall";"mall";"Kec. Bandar Pusaka";"Kabupaten Aceh Tamiang, Aceh";"Kabupaten Aceh Tamiang, Aceh";"ACEH";"";"Indonesia";"";"4.2948637";"97.8778752";"https://maps.google.com/?cid=0x0:0x2b7834261cf3e187"
"mall";"Pusat Perbelanjaan";"Alexs";"6WRV+GQH, Unnamed Road, Harum Sari, Kec. Tamiang Hulu, Kabupaten Aceh Tamiang, Aceh 24382";"Unnamed Road, Harum Sari, Kec. Tamiang Hulu, Kabupaten Aceh Tamiang";"ACEH";"24382";"Indonesia";"";"4.2413216";"97.9444922";"https://maps.google.com/?cid=0x0:0x779343833d97a3d4"
"mall";"Pusat Perbelanjaan";"BC ACEH TAMIANG";"73M5+G6Q, Jl. Panglima Polem, Kota Kuala Simpang, Kabupaten Aceh Tamiang, Aceh 24456";"Jl. Panglima Polem, Kota Kuala Simpang, Kabupaten Aceh Tamiang";"ACEH";"24456";"Indonesia";" 081396301221";"4.2838371";"98.0581176";"https://maps.google.com/?cid=0x0:0x3dfc1db9a058117a"
"mall";"Toko bahan makanan";"Toko sembako lailan";"7VCR+72V, Babo, Kec. Bandar Pusaka, Kabupaten Aceh Tamiang, Aceh 24456";"Babo, Kec. Bandar Pusaka, Kabupaten Aceh Tamiang";"ACEH";"24456";"Indonesia";" 081269783282";"4.2707253";"97.8900376";"https://maps.google.com/?cid=0x0:0xcf428094d3824ea0"
"mall";"mall";"Toko Syam";"Bangun Sari, Unnamed Road, Babo, Kec. Bandar Pusaka, Kabupaten Aceh Tamiang, Aceh 24456";"Unnamed Road, Babo, Kec. Bandar Pusaka, Kabupaten Aceh Tamiang";"ACEH";"24456";"Indonesia";" 081397391205";"4.270728";"97.8900154";"https://maps.google.com/?cid=0x0:0x4e0d67d23ed7d2d6"
"mall";"mall";"Warung  Dorsemer Rais Khan Cell";"7VMJ+PHM, Babo, Kec. Bandar Pusaka, Kabupaten Aceh Tamiang, Aceh 24456";"Babo, Kec. Bandar Pusaka, Kabupaten Aceh Tamiang";"ACEH";"24456";"Indonesia";"";"4.2843297";"97.881416";"https://maps.google.com/?cid=0x0:0xbeb8c76c8f48ecdb"
"mall";"mall";"Kedai Ipit";"7RVX+69Q, Pantai Cempa, Kec. Bandar Pusaka, Kabupaten Aceh Tamiang, Aceh 24456";"Pantai Cempa, Kec. Bandar Pusaka, Kabupaten Aceh Tamiang";"ACEH";"24456";"Indonesia";"";"4.2930985";"97.8484857";"https://maps.google.com/?cid=0x0:0x1edb268db034168a"
"mall";"mall";"Olshop noni";"6WRV+XC6, Unnamed Road, Jambo Rambong, Kec. Bandar Pusaka, Kabupaten Aceh Tamiang, Aceh 24382";"Unnamed Road, Jambo Rambong, Kec. Bandar Pusaka, Kabupaten Aceh Tamiang";"ACEH";"24382";"Indonesia";" 082274477682";"4.2424108";"97.9435247";"https://maps.google.com/?cid=0x0:0x61969ba7ac3fe712"
"mall";"mall";"BUMI AGRO LESTARI";"7VR5+2P8, Pantai Cempa, Kec. Bandar Pusaka, Kabupaten Aceh Tamiang, Aceh 24456";"Pantai Cempa, Kec. Bandar Pusaka, Kabupaten Aceh Tamiang";"ACEH";"24456";"Indonesia";"";"4.290037";"97.859324";"https://maps.google.com/?cid=0x0:0xebfe88aa2f644975"
"mall";"mall";"Toko kak Wati";"7RJ6+6WW, Pengidam, Kec. Bandar Pusaka, Kabupaten Aceh Tamiang, Aceh";"Kabupaten Aceh Tamiang, Aceh";"ACEH";"";"Indonesia";"";"4.2806057";"97.8123224";"https://maps.google.com/?cid=0x0:0xab0d21b322da05f7"
"mall";"mall";"Pasar babao";"7VVH+V2F, Babo, Kec. Bandar Pusaka, Kabupaten Aceh Tamiang, Aceh 24456";"Babo, Kec. Bandar Pusaka, Kabupaten Aceh Tamiang";"ACEH";"24456";"Indonesia";"";"4.2946908";"97.8775493";"https://maps.google.com/?cid=0x0:0x3f0c2cfee3e74e5"
"mall";"Komplek perumahan";"GUDANG SBN";"72VV+G58, Gampong Bundar, Kec. Karang Baru, Kabupaten Aceh Tamiang, Aceh 24456";"Gampong Bundar, Kec. Karang Baru, Kabupaten Aceh Tamiang";"ACEH";"24456";"Indonesia";"";"4.2937948";"98.0429393";"https://maps.google.com/?cid=0x0:0x93dca99221f603ab"
"mall";"Komplek perumahan";"Pekan Harum Sari";"6WJC+HFJ, Harum Sari, Kec. Tamiang Hulu, Kabupaten Aceh Tamiang, Aceh 24382";"Harum Sari, Kec. Tamiang Hulu, Kabupaten Aceh Tamiang";"ACEH";"24382";"Indonesia";"";"4.2314558";"97.9211339";"https://maps.google.com/?cid=0x0:0xab25eb32af379c96"
"mall";"Kantor Perusahaan";"BUMK Maju Jaya Perk. P3";"5W8W+GXR, Perk Pulau Tiga, Kec. Tamiang Hulu, Kabupaten Aceh Tamiang, Aceh 24477";"Perk Pulau Tiga, Kec. Tamiang Hulu, Kabupaten Aceh Tamiang";"ACEH";"24477";"Indonesia";" 082273534648";"4.1663699";"97.9473877";"https://maps.google.com/?cid=0x0:0xcf2d93945f0f4d4b"
"mall";"Jasa Kurir";"Kak Ros Pengantin";"95M5+JV2, Unnamed Road, Seuneubok Dalam Mesjid, Kec. Bendahara, Kabupaten Aceh Tamiang, Aceh 24472";"Unnamed Road, Seuneubok Dalam Mesjid, Kec. Bendahara, Kabupaten Aceh Tamiang";"ACEH";"24472";"Indonesia";" 085206506392";"4.3840069";"98.1596411";"https://maps.google.com/?cid=0x0:0xc34d7b179187bb3b"
"mall";"mall";"Kec. Bendahara";"Kabupaten Aceh Tamiang, Aceh";"Kabupaten Aceh Tamiang, Aceh";"ACEH";"";"Indonesia";"";"4.4074501";"98.1695001";"https://maps.google.com/?cid=0x0:0xa3729d585ef6a9a8"
"mall";"Supermarket Industri";"INDOMARET PEKAN SERUWAY";"953M+H8R, Peukan Seuruway, Kec. Seuruway, Kabupaten Aceh Tamiang, Aceh 24472";"Peukan Seuruway, Kec. Seuruway, Kabupaten Aceh Tamiang";"ACEH";"24472";"Indonesia";"";"4.3539837";"98.1832745";"https://maps.google.com/?cid=0x0:0x9afc79abaa2eac4b"
"mall";"Toko Swalayan";"Toko Azzikka";"Jl. Medan - Banda Aceh, Tualang Baru, Kec. Manyak Payed, Kabupaten Aceh Tamiang, Aceh 24471";"Tualang Baru, Kec. Manyak Payed, Kabupaten Aceh Tamiang";"ACEH";"24471";"Indonesia";"";"4.3994738";"98.0675747";"https://maps.google.com/?cid=0x0:0x92dd84c464f6a2da"
"mall";"Gudang";"Gudang Ikan  Udang CV.Young Dhie Group";"953H+6H5, Peukan Seuruway, Kec. Seuruway, Kabupaten Aceh Tamiang, Aceh 24472";"Peukan Seuruway, Kec. Seuruway, Kabupaten Aceh Tamiang";"ACEH";"24472";"Indonesia";"";"4.3530081";"98.1789862";"https://maps.google.com/?cid=0x0:0xc1ab09db891ed63b"
"mall";"Pusat Perbelanjaan";"B.M.B..BARU";"93XG+5G5, Jl. Medan Banda Aceh, Tualang Baru, Kec. Manyak Payed, Kabupaten Aceh Tamiang, Aceh 24471";"Jl. Medan Banda Aceh, Tualang Baru, Kec. Manyak Payed, Kabupaten Aceh Tamiang";"ACEH";"24471";"Indonesia";" 082236413514";"4.3978984";"98.0763544";"https://maps.google.com/?cid=0x0:0xb309eb2feabf6420"
"mall";"Kantor Perusahaan";"KANTOR DOOR SMEER NUSANTARA";"953F+VR3, Unnamed Road, Tangsi Lama, Kec. Seuruway, Kabupaten Aceh Tamiang, Aceh 24472";"Unnamed Road, Tangsi Lama, Kec. Seuruway, Kabupaten Aceh Tamiang";"ACEH";"24472";"Indonesia";" 082218083669";"4.3546371";"98.174536";"https://maps.google.com/?cid=0x0:0x5bc5865d33efa174"
"mall";"Toko Ikan";"Lapak Ikan";"93CX+42R, Upah, Kec. Bendahara, Kabupaten Aceh Tamiang, Aceh 24472";"Upah, Kec. Bendahara, Kabupaten Aceh Tamiang";"ACEH";"24472";"Indonesia";" 085280341402";"4.3703643";"98.0975079";"https://maps.google.com/?cid=0x0:0x79398cdaebdae343"
"mall";"Toko Herbal";"Halal Mart Mahdayani";"C4QQ+G22, Unnamed Road, Matang Seuping, Kec. Banda Mulia, Kabupaten Aceh Tamiang, Aceh 24471";"Unnamed Road, Matang Seuping, Kec. Banda Mulia, Kabupaten Aceh Tamiang";"ACEH";"24471";"Indonesia";" 085358842519";"4.4387684";"98.1375279";"https://maps.google.com/?cid=0x0:0x4bf2eea93e8d3547"
"mall";"Toko Aksesori Mobil";"Jangkrek Sticker";"Simpang Empat, Kec. Karang Baru, Kabupaten Aceh Tamiang, Aceh 24471";"Kec. Karang Baru, Kabupaten Aceh Tamiang";"ACEH";"24471";"Indonesia";" 082168150212";"4.3688907";"98.0916644";"https://maps.google.com/?cid=0x0:0x8cf71ad59c729fcd"
"mall";"Kios";"Kedai Redee";"Paya Rahat, Kec. Banda Mulia, Kabupaten Aceh Tamiang, Aceh 24452";"Kec. Banda Mulia, Kabupaten Aceh Tamiang";"ACEH";"24452";"Indonesia";" 085283956070";"4.3935946";"98.1125541";"https://maps.google.com/?cid=0x0:0xdea54843261695f0"
"mall";"Kedai Kopi";"kede eceran";"C3J5+JR3, Ujong Tanjong, Kec. Manyak Payed, Kabupaten Aceh Tamiang, Aceh 24471";"Ujong Tanjong, Kec. Manyak Payed, Kabupaten Aceh Tamiang";"ACEH";"24471";"Indonesia";" 082282354204";"4.4315047";"98.0595426";"https://maps.google.com/?cid=0x0:0x4eb28ee4e83e121f"
"mall";"Pusat Perbelanjaan";"Toko Fauzan jaya 2";"93CW+7H4, Jl. Tugu Opak, Simpang Empat, Kec. Karang Baru, Kabupaten Aceh Tamiang, Aceh 24472";"Jl. Tugu Opak, Simpang Empat, Kec. Karang Baru, Kabupaten Aceh Tamiang";"ACEH";"24472";"Indonesia";"";"4.3706379";"98.096449";"https://maps.google.com/?cid=0x0:0x7d5157e7df0dbda3"
"mall";"Toko";"UD.RIDWAN TANI";"C4QP+JVM, Matang Seuping, Kec. Banda Mulia, Kabupaten Aceh Tamiang, Aceh 24471";"Matang Seuping, Kec. Banda Mulia, Kabupaten Aceh Tamiang";"ACEH";"24471";"Indonesia";" 08297028608";"4.439086";"98.137173";"https://maps.google.com/?cid=0x0:0x854e0ebee2d9afa3"
"mall";"mall";"Aceh 24476";"Kabupaten Aceh Tamiang, Aceh";"Kabupaten Aceh Tamiang, Aceh";"ACEH";"";"Indonesia";"";"4.3288776";"98.0628862";"https://maps.google.com/?cid=0x0:0x82d848b4ba041829"
"mall";"Toko Parfum";"S. A. Ponsel  Parfum";"Gampong Johar, Kec. Karang Baru, Kabupaten Aceh Tamiang, Aceh 24476";"Kec. Karang Baru, Kabupaten Aceh Tamiang";"ACEH";"24476";"Indonesia";" 081362114025";"4.3239514";"98.0642331";"https://maps.google.com/?cid=0x0:0x365a2ac919b868c3"
"mall";"Pusat Perbelanjaan";"BC ACEH TAMIANG";"73M5+G6Q, Jl. Panglima Polem, Kota Kuala Simpang, Kabupaten Aceh Tamiang, Aceh 24456";"Jl. Panglima Polem, Kota Kuala Simpang, Kabupaten Aceh Tamiang";"ACEH";"24456";"Indonesia";" 081396301221";"4.2838371";"98.0581176";"https://maps.google.com/?cid=0x0:0x3dfc1db9a058117a"
"mall";"Kantor Perusahaan";"Aceh Hidroponik";"Unnamed Road, Medang Ara, Kec. Karang Baru, Kabupaten Aceh Tamiang, Aceh 24476";"Medang Ara, Kec. Karang Baru, Kabupaten Aceh Tamiang";"ACEH";"24476";"Indonesia";" 082277736862";"4.3407133";"98.074027";"https://maps.google.com/?cid=0x0:0x380c0fcba5a8b31a"
"mall";"Komplek perumahan";"GUDANG SBN";"72VV+G58, Gampong Bundar, Kec. Karang Baru, Kabupaten Aceh Tamiang, Aceh 24456";"Gampong Bundar, Kec. Karang Baru, Kabupaten Aceh Tamiang";"ACEH";"24456";"Indonesia";"";"4.2937948";"98.0429393";"https://maps.google.com/?cid=0x0:0x93dca99221f603ab"
"mall";"Toko Kosmetik";"AFIFAH STORE";"83CR+6JH, Jalan, Alur Manis, Rantau, Aceh Tamiang Regency, Aceh 24476";"Jalan, Alur Manis, Rantau, Aceh Tamiang Regency";"ACEH";"24476";"Indonesia";" 082162290077";"4.3205691";"98.0915939";"https://maps.google.com/?cid=0x0:0x43db8ea51b517066"
"mall";"Pusat Perbelanjaan";"Sayur mayur";"Pasar pagi, Kota Kuala Simpang, Kabupaten Aceh Tamiang, Aceh 47752";"Kota Kuala Simpang, Kabupaten Aceh Tamiang";"ACEH";"47752";"Indonesia";" 082160683408";"4.2858259";"98.0600137";"https://maps.google.com/?cid=0x0:0x696bf108b3623fb4"
"mall";"Pusat Perbelanjaan";"Rumah Kreatif Tamiang";"73R2+55G, Jl. Ir. H. Juanda Dalam, Dalam, Kec. Karang Baru, Kabupaten Aceh Tamiang, Aceh";"Kabupaten Aceh Tamiang, Aceh";"ACEH";"";"Indonesia";"";"4.2904275";"98.0504671";"https://maps.google.com/?cid=0x0:0x8ffe30b4f917cc7b"
"mall";"Bar";"BRAMBRUM BarbershopPomade";"Gampong Bundar, Kec. Karang Baru, Kabupaten Aceh Tamiang, Aceh 24456";"Kec. Karang Baru, Kabupaten Aceh Tamiang";"ACEH";"24456";"Indonesia";" 085380739046";"4.3019637";"98.0467415";"https://maps.google.com/?cid=0x0:0x4e44cddb54534c01"
"mall";"Toko Pakaian";"Nazstore";"73V5+QCM, Kota Lintang, Kota Kuala Simpang, Kabupaten Aceh Tamiang, Aceh 24458";"Kota Lintang, Kota Kuala Simpang, Kabupaten Aceh Tamiang";"ACEH";"24458";"Indonesia";" 082261538986";"4.294462";"98.0585357";"https://maps.google.com/?cid=0x0:0xa2745f7c63ddc58c"
"mall";"Pembangunan Perumahan";"Pajak Pagi Rantau";"Unnamed Road,Kp. Pertamina, Kp. Pertamina, Kec. Rantau, Kabupaten Aceh Tamiang, Aceh 24476";"Kp. Pertamina, Kec. Rantau, Kabupaten Aceh Tamiang";"ACEH";"24476";"Indonesia";" 085262876035";"4.3302765";"98.0930452";"https://maps.google.com/?cid=0x0:0x5818d08af2340657"
"mall";"Grosir Buah";"Pajak Hongkong";"Pajak hongkong, Perdamaian, Kota Kuala Simpang, Kabupaten Aceh Tamiang, Aceh 24456";"Perdamaian, Kota Kuala Simpang, Kabupaten Aceh Tamiang";"ACEH";"24456";"Indonesia";"";"4.2845055";"98.0604438";"https://maps.google.com/?cid=0x0:0xc4b9b3876024431d"
"mall";"Pedagang tekstil";"Basrija Store by Erdian";"JL. Nyak Umar No.19, Kota Kuala Simpang, Kabupaten Aceh Tamiang, Aceh 24456";"Kota Kuala Simpang, Kabupaten Aceh Tamiang";"ACEH";"24456";"Indonesia";" 085294076694";"4.2842846";"98.0592383";"https://maps.google.com/?cid=0x0:0xe43f71ebbb72071f"
"mall";"Pemasok Air Minum Dalam Kemasan";"Depot Air Prima";"83H8+VW6, Jl. Medan - Banda Aceh, RW.Dusun Keluarga, Pahlawan, Kec. Karang Baru, Kabupaten Aceh Tamiang, Aceh 24476";"Jl. Medan - Banda Aceh, RW.Dusun Keluarga, Pahlawan, Kec. Karang Baru, Kabupaten Aceh Tamiang";"ACEH";"24476";"Indonesia";" 082276403265";"4.3296527";"98.0672576";"https://maps.google.com/?cid=0x0:0xfce6e34e29431b2a"
"mall";"Pusat Perbelanjaan";"BC ACEH TAMIANG";"73M5+G6Q, Jl. Panglima Polem, Kota Kuala Simpang, Kabupaten Aceh Tamiang, Aceh 24456";"Jl. Panglima Polem, Kota Kuala Simpang, Kabupaten Aceh Tamiang";"ACEH";"24456";"Indonesia";" 081396301221";"4.2838371";"98.0581176";"https://maps.google.com/?cid=0x0:0x3dfc1db9a058117a"
"mall";"mall";"Kec. Kejuruan Muda";"Kabupaten Aceh Tamiang, Aceh";"Kabupaten Aceh Tamiang, Aceh";"ACEH";"";"Indonesia";"";"4.2310452";"98.0585627";"https://maps.google.com/?cid=0x0:0x31c3ba765be70142"
"mall";"Toko Suvenir";"TOKO OLEH-OLEH JUNET KHAS ACEH";"Didepan warung nasi sumber rezeki, Jl. Medan - B. Aceh, Simpang, 3, Seumadam, Kec. Kejuruan Muda, Kabupaten Aceh Tamiang, Aceh 24474";"Jl. Medan - B. Aceh, Simpang, 3, Seumadam, Kec. Kejuruan Muda, Kabupaten Aceh Tamiang";"ACEH";"24474";"Indonesia";" 082275996118";"4.1805187";"98.051682";"https://maps.google.com/?cid=0x0:0x37f90312aac272f6"
"mall";"Toko bahan makanan";"OLEH - OLEH ACEH BU INONG";"53J2+6J3, Jl. Medan Banda Aceh, Seumadam, Kec. Kejuruan Muda, Kabupaten Aceh Tamiang, Aceh";"Kabupaten Aceh Tamiang, Aceh";"ACEH";"";"Indonesia";" 082253071672";"4.1805218";"98.0515352";"https://maps.google.com/?cid=0x0:0x2dbe9f8ad1bf11a0"
"mall";"Pusat Perbelanjaan";"Gustari";"7327+6V2, Bukit Rata, Kec. Kejuruan Muda, Kabupaten Aceh Tamiang, Aceh 24475";"Bukit Rata, Kec. Kejuruan Muda, Kabupaten Aceh Tamiang";"ACEH";"24475";"Indonesia";" 082283113040";"4.2505119";"98.0646257";"https://maps.google.com/?cid=0x0:0x732b00c8839c7901"
"mall";"Kantor Perusahaan";"BUMK Maju Jaya Perk. P3";"5W8W+GXR, Perk Pulau Tiga, Kec. Tamiang Hulu, Kabupaten Aceh Tamiang, Aceh 24477";"Perk Pulau Tiga, Kec. Tamiang Hulu, Kabupaten Aceh Tamiang";"ACEH";"24477";"Indonesia";" 082273534648";"4.1663699";"97.9473877";"https://maps.google.com/?cid=0x0:0xcf2d93945f0f4d4b"
"mall";"Grosir Buah";"Pajak Hongkong";"Pajak hongkong, Perdamaian, Kota Kuala Simpang, Kabupaten Aceh Tamiang, Aceh 24456";"Perdamaian, Kota Kuala Simpang, Kabupaten Aceh Tamiang";"ACEH";"24456";"Indonesia";"";"4.2845055";"98.0604438";"https://maps.google.com/?cid=0x0:0xc4b9b3876024431d"
"mall";"Pusat Perbelanjaan";"Sayur mayur";"Pasar pagi, Kota Kuala Simpang, Kabupaten Aceh Tamiang, Aceh 47752";"Kota Kuala Simpang, Kabupaten Aceh Tamiang";"ACEH";"47752";"Indonesia";" 082160683408";"4.2858259";"98.0600137";"https://maps.google.com/?cid=0x0:0x696bf108b3623fb4"
"mall";"Komplek perumahan";"GUDANG SBN";"72VV+G58, Gampong Bundar, Kec. Karang Baru, Kabupaten Aceh Tamiang, Aceh 24456";"Gampong Bundar, Kec. Karang Baru, Kabupaten Aceh Tamiang";"ACEH";"24456";"Indonesia";"";"4.2937948";"98.0429393";"https://maps.google.com/?cid=0x0:0x93dca99221f603ab"
"mall";"Toko Perlengkapan Rumah";"Tamiang Perabot";"73M5+RW7, Unnamed Road, Kota Kuala Simpang, Kabupaten Aceh Tamiang, Aceh 24456";"Unnamed Road, Kota Kuala Simpang, Kabupaten Aceh Tamiang";"ACEH";"24456";"Indonesia";" 082168149069";"4.2845417";"98.059791";"https://maps.google.com/?cid=0x0:0xce295e85bb5ac46d"
"mall";"Pusat Perbelanjaan";"Rumah Kreatif Tamiang";"73R2+55G, Jl. Ir. H. Juanda Dalam, Dalam, Kec. Karang Baru, Kabupaten Aceh Tamiang, Aceh";"Kabupaten Aceh Tamiang, Aceh";"ACEH";"";"Indonesia";"";"4.2904275";"98.0504671";"https://maps.google.com/?cid=0x0:0x8ffe30b4f917cc7b"
"mall";"Pusat Perbelanjaan";"YUAN SHOP";"63J2+W3P, Tj. Mancang, Kec. Kejuruan Muda, Kabupaten Aceh Tamiang, Aceh 24474";"Tj. Mancang, Kec. Kejuruan Muda, Kabupaten Aceh Tamiang";"ACEH";"24474";"Indonesia";" 085372439869";"4.2323405";"98.0501962";"https://maps.google.com/?cid=0x0:0x588c0abb308a8e17"
"mall";"Pedagang tekstil";"Basrija Store by Erdian";"JL. Nyak Umar No.19, Kota Kuala Simpang, Kabupaten Aceh Tamiang, Aceh 24456";"Kota Kuala Simpang, Kabupaten Aceh Tamiang";"ACEH";"24456";"Indonesia";" 085294076694";"4.2842846";"98.0592383";"https://maps.google.com/?cid=0x0:0xe43f71ebbb72071f"
"mall";"Tempat Cukur Rambut";"BENO BARBER SHOP";"4X6J+MCF, Simpang Kiri, Kec. Tenggulun, Kabupaten Aceh Tamiang, Aceh 24477";"Simpang Kiri, Kec. Tenggulun, Kabupaten Aceh Tamiang";"ACEH";"24477";"Indonesia";" 082218130338";"4.1116826";"97.981036";"https://maps.google.com/?cid=0x0:0x7255c3578af64179"
"mall";"mall";"Kota Kuala Simpang";"Kota Kuala Simpang, Kabupaten Aceh Tamiang, Aceh";"Kabupaten Aceh Tamiang, Aceh";"ACEH";"";"Indonesia";"";"4.283777";"98.0581119";"https://maps.google.com/?cid=0x0:0xfb03f665a8b9eb02"
"mall";"mall";"Aceh 24475";"Kec. Linge, Kabupaten Aceh Tengah, Aceh";"Kabupaten Aceh Tengah, Aceh";"ACEH";"";"Indonesia";"";"4.2473925";"98.0738001";"https://maps.google.com/?cid=0x0:0x54d58570dde5bc9e"
"mall";"Toko Perlengkapan Olah Raga Lari";"Medan Sports Aceh";"Jl. Mayjend Sutoyo No.87, Kota Kuala Simpang, Kabupaten Aceh Tamiang, Aceh 24475";"Kota Kuala Simpang, Kabupaten Aceh Tamiang";"ACEH";"24475";"Indonesia";" 085225000738";"4.2849864";"98.0573834";"https://maps.google.com/?cid=0x0:0xec001cb204a44515"
"mall";"Toko Perlengkapan Rumah";"Ida Olshop";"73J7+85V, Perdamaian, Kota Kuala Simpang, Kabupaten Aceh Tamiang, Aceh 24456";"Perdamaian, Kota Kuala Simpang, Kabupaten Aceh Tamiang";"ACEH";"24456";"Indonesia";"";"4.2808524";"98.0629324";"https://maps.google.com/?cid=0x0:0x11b34d825c99ffb9"
"mall";"Pusat Perbelanjaan";"Sayur mayur";"Pasar pagi, Kota Kuala Simpang, Kabupaten Aceh Tamiang, Aceh 47752";"Kota Kuala Simpang, Kabupaten Aceh Tamiang";"ACEH";"47752";"Indonesia";" 082160683408";"4.2858259";"98.0600137";"https://maps.google.com/?cid=0x0:0x696bf108b3623fb4"
"mall";"Pusat Perbelanjaan";"BC ACEH TAMIANG";"73M5+G6Q, Jl. Panglima Polem, Kota Kuala Simpang, Kabupaten Aceh Tamiang, Aceh 24456";"Jl. Panglima Polem, Kota Kuala Simpang, Kabupaten Aceh Tamiang";"ACEH";"24456";"Indonesia";" 081396301221";"4.2838371";"98.0581176";"https://maps.google.com/?cid=0x0:0x3dfc1db9a058117a"
"mall";"Toko Perlengkapan Rumah";"Tamiang Perabot";"73M5+RW7, Unnamed Road, Kota Kuala Simpang, Kabupaten Aceh Tamiang, Aceh 24456";"Unnamed Road, Kota Kuala Simpang, Kabupaten Aceh Tamiang";"ACEH";"24456";"Indonesia";" 082168149069";"4.2845417";"98.059791";"https://maps.google.com/?cid=0x0:0xce295e85bb5ac46d"
"mall";"Perhimpunan Pengembang Perumahan";"Kuala Simpang";"73P6+63V, Bukit Tempurung, Kota Kuala Simpang, Kabupaten Aceh Tamiang, Aceh";"Kabupaten Aceh Tamiang, Aceh";"ACEH";"";"Indonesia";" 089963524525";"4.2856137";"98.0601795";"https://maps.google.com/?cid=0x0:0x88eca4d2f01743f4"
"mall";"Ahli Perhiasan";"Toko lili cosmetik";"73M5+JJ2, Kota Kuala Simpang, Kabupaten Aceh Tamiang, Aceh 24456";"Kota Kuala Simpang, Kabupaten Aceh Tamiang";"ACEH";"24456";"Indonesia";"";"4.2840194";"98.0590015";"https://maps.google.com/?cid=0x0:0xadb9be6809dbbe1a"
"mall";"Grosir Buah";"Pajak Hongkong";"Pajak hongkong, Perdamaian, Kota Kuala Simpang, Kabupaten Aceh Tamiang, Aceh 24456";"Perdamaian, Kota Kuala Simpang, Kabupaten Aceh Tamiang";"ACEH";"24456";"Indonesia";"";"4.2845055";"98.0604438";"https://maps.google.com/?cid=0x0:0xc4b9b3876024431d"
"mall";"Toko Ponsel";"NEW ASLISEL";"Jalan Ahmad yani No.35, Kota Kuala Simpang, Kabupaten Aceh Tamiang, Aceh 24475";"Kota Kuala Simpang, Kabupaten Aceh Tamiang";"ACEH";"24475";"Indonesia";" 085270297148";"4.284716";"98.059654";"https://maps.google.com/?cid=0x0:0xd123108b01afc4db"
"mall";"Pedagang tekstil";"Basrija Store by Erdian";"JL. Nyak Umar No.19, Kota Kuala Simpang, Kabupaten Aceh Tamiang, Aceh 24456";"Kota Kuala Simpang, Kabupaten Aceh Tamiang";"ACEH";"24456";"Indonesia";" 085294076694";"4.2842846";"98.0592383";"https://maps.google.com/?cid=0x0:0xe43f71ebbb72071f"
"mall";"Toko Suvenir";"TOKO OLEH-OLEH JUNET KHAS ACEH";"Didepan warung nasi sumber rezeki, Jl. Medan - B. Aceh, Simpang, 3, Seumadam, Kec. Kejuruan Muda, Kabupaten Aceh Tamiang, Aceh 24474";"Jl. Medan - B. Aceh, Simpang, 3, Seumadam, Kec. Kejuruan Muda, Kabupaten Aceh Tamiang";"ACEH";"24474";"Indonesia";" 082275996118";"4.1805187";"98.051682";"https://maps.google.com/?cid=0x0:0x37f90312aac272f6"
"mall";"Toko bahan makanan";"SAQINA SWALAYAN";"Kode Pos, Jl. Kotalintang Atas No.4-10 Desa Kotalintang, Kota Kuala Simpang, Kabupaten Aceh Tamiang, Aceh 24475";"Jl. Kotalintang Atas No.4-10 Desa Kotalintang, Kota Kuala Simpang, Kabupaten Aceh Tamiang";"ACEH";"24475";"Indonesia";" 082272870801";"4.2862419";"98.0601654";"https://maps.google.com/?cid=0x0:0x4454e8d98c08493f"
"mall";"mall";"Aceh 24471";"Aceh";"Aceh";"ACEH";"";"Indonesia";"";"4.3465057";"97.8395151";"https://maps.google.com/?cid=0x0:0x6a96af07474c986b"
"mall";"Toko Swalayan";"Toko Azzikka";"Jl. Medan - Banda Aceh, Tualang Baru, Kec. Manyak Payed, Kabupaten Aceh Tamiang, Aceh 24471";"Tualang Baru, Kec. Manyak Payed, Kabupaten Aceh Tamiang";"ACEH";"24471";"Indonesia";"";"4.3994738";"98.0675747";"https://maps.google.com/?cid=0x0:0x92dd84c464f6a2da"
"mall";"Kedai Kopi";"kede eceran";"C3J5+JR3, Ujong Tanjong, Kec. Manyak Payed, Kabupaten Aceh Tamiang, Aceh 24471";"Ujong Tanjong, Kec. Manyak Payed, Kabupaten Aceh Tamiang";"ACEH";"24471";"Indonesia";" 082282354204";"4.4315047";"98.0595426";"https://maps.google.com/?cid=0x0:0x4eb28ee4e83e121f"
"mall";"Pembangunan Perumahan";"Dusun paya tem";"C3XG+9JJ, Dagang Setia, Kec. Manyak Payed, Kabupaten Aceh Tamiang, Aceh 24471";"Dagang Setia, Kec. Manyak Payed, Kabupaten Aceh Tamiang";"ACEH";"24471";"Indonesia";"";"4.4484696";"98.0765288";"https://maps.google.com/?cid=0x0:0x6f02864d6cce1158"
"mall";"Pusat Perbelanjaan";"rumah tia";"C3C4+F42, Matang Cincin, Kec. Manyak Payed, Kabupaten Aceh Tamiang, Aceh 24471";"Matang Cincin, Kec. Manyak Payed, Kabupaten Aceh Tamiang";"ACEH";"24471";"Indonesia";"";"4.4203133";"98.0560758";"https://maps.google.com/?cid=0x0:0xf71379f6b2d6306e"
"mall";"Kantor Pemerintah";"Kantor Kecamatan Manyak Payed";"93XF+J4H, Tualang Baru, Kec. Manyak Payed, Kabupaten Aceh Tamiang, Aceh 24471";"Tualang Baru, Kec. Manyak Payed, Kabupaten Aceh Tamiang";"ACEH";"24471";"Indonesia";"";"4.3990696";"98.0728518";"https://maps.google.com/?cid=0x0:0xa59b2162935f2df3"
"mall";"Toko Pakaian";"EF DISTRO";"Jl. Medan - Banda Aceh No.Kp, Ie Bintah, Kec. Manyak Payed, Kabupaten Aceh Tamiang, Aceh 24471";"Ie Bintah, Kec. Manyak Payed, Kabupaten Aceh Tamiang";"ACEH";"24471";"Indonesia";"";"4.3999103";"98.0664454";"https://maps.google.com/?cid=0x0:0x95a916b701806373"
"mall";"Toko Fotokopi";"Ozie.net FC, Percetakan, ATK, Foto Copy Dll.";"93XC+FGX, Tualang Cut, Kec. Manyak Payed, Kabupaten Aceh Tamiang, Aceh 24471";"Tualang Cut, Kec. Manyak Payed, Kabupaten Aceh Tamiang";"ACEH";"24471";"Indonesia";" 082274359001";"4.398736";"98.071355";"https://maps.google.com/?cid=0x0:0xc41060764a7f60c2"
"mall";"Komplek perumahan";"Griya Kartika Permai";"C23W+J9Q, Buket Panjang II, Kec. Manyak Payed, Kabupaten Aceh Tamiang, Aceh 24471";"Buket Panjang II, Kec. Manyak Payed, Kabupaten Aceh Tamiang";"ACEH";"24471";"Indonesia";"";"4.4040906";"98.0459969";"https://maps.google.com/?cid=0x0:0xb0d2ef422c087188"
"mall";"Bar";"BRAMBRUM BarbershopPomade";"Gampong Bundar, Kec. Karang Baru, Kabupaten Aceh Tamiang, Aceh 24456";"Kec. Karang Baru, Kabupaten Aceh Tamiang";"ACEH";"24456";"Indonesia";" 085380739046";"4.3019637";"98.0467415";"https://maps.google.com/?cid=0x0:0x4e44cddb54534c01"
"mall";"Sekolah Menengah Atas";"MAN 1 ACEH TAMIANG";"93XC+M4C, Tualang Baru, Kec. Manyak Payed, Kabupaten Aceh Tamiang, Aceh 24471";"Tualang Baru, Kec. Manyak Payed, Kabupaten Aceh Tamiang";"ACEH";"24471";"Indonesia";" 085266466029";"4.3992109";"98.0704852";"https://maps.google.com/?cid=0x0:0x15d71dee2e772452"
"mall";"Perhimpunan Pengembang Perumahan";"T.cut aceh tamiang";"C36F+XPQ, T cut, Kec. Manyak Payed, Kabupaten Aceh Tamiang, Aceh";"Kabupaten Aceh Tamiang, Aceh";"ACEH";"";"Indonesia";"";"4.4124564";"98.0743542";"https://maps.google.com/?cid=0x0:0x1e568c1a3826e490"
"mall";"Sekolah Dasar";"MIN 3 Aceh Tamiang";"C3WW+4MM, Mesjid, Kec. Manyak Payed, Kabupaten Aceh Tamiang, Aceh 24471";"Mesjid, Kec. Manyak Payed, Kabupaten Aceh Tamiang";"ACEH";"24471";"Indonesia";"";"4.4453256";"98.0966841";"https://maps.google.com/?cid=0x0:0x25734479583cbf1e"
"mall";"Sekolah Menengah Pertama";"SMP Negeri 1 Manyak Payed";"93XF+WJ2, Tualang Baru, Kec. Manyak Payed, Kabupaten Aceh Tamiang, Aceh 24471";"Tualang Baru, Kec. Manyak Payed, Kabupaten Aceh Tamiang";"ACEH";"24471";"Indonesia";"";"4.39977";"98.074";"https://maps.google.com/?cid=0x0:0xb8d48ac98ac428d0"
"mall";"mall";"Aceh 24474";"Kec. Kejuruan Muda, Kabupaten Aceh Tamiang, Aceh";"Kabupaten Aceh Tamiang, Aceh";"ACEH";"";"Indonesia";"";"4.2123421";"98.0247005";"https://maps.google.com/?cid=0x0:0xe116e26a288dda02"
"mall";"Toko Suvenir";"TOKO OLEH-OLEH JUNET KHAS ACEH";"Didepan warung nasi sumber rezeki, Jl. Medan - B. Aceh, Simpang, 3, Seumadam, Kec. Kejuruan Muda, Kabupaten Aceh Tamiang, Aceh 24474";"Jl. Medan - B. Aceh, Simpang, 3, Seumadam, Kec. Kejuruan Muda, Kabupaten Aceh Tamiang";"ACEH";"24474";"Indonesia";" 082275996118";"4.1805187";"98.051682";"https://maps.google.com/?cid=0x0:0x37f90312aac272f6"
"mall";"Toko Perlengkapan Rumah";"Cut yuyun olshop";"83CV+6HP, Gg. Sawah, Pipa, Kec. Rantau, Kabupaten Aceh Tamiang, Aceh 24474";"Gg. Sawah, Pipa, Kec. Rantau, Kabupaten Aceh Tamiang";"ACEH";"24474";"Indonesia";"";"4.3203879";"98.0934513";"https://maps.google.com/?cid=0x0:0x230b75f0b345322e"
"mall";"Pusat Perbelanjaan";"MubinOnestopshoping";"747C+RJ4, Suka Rahmat, Kec. Rantau, Kabupaten Aceh Tamiang, Aceh 24453";"Suka Rahmat, Kec. Rantau, Kabupaten Aceh Tamiang";"ACEH";"24453";"Indonesia";" 085260114488";"4.2645033";"98.1215849";"https://maps.google.com/?cid=0x0:0x873206f5487e728e"
"mall";"Pusat Perbelanjaan";"YUAN SHOP";"63J2+W3P, Tj. Mancang, Kec. Kejuruan Muda, Kabupaten Aceh Tamiang, Aceh 24474";"Tj. Mancang, Kec. Kejuruan Muda, Kabupaten Aceh Tamiang";"ACEH";"24474";"Indonesia";" 085372439869";"4.2323405";"98.0501962";"https://maps.google.com/?cid=0x0:0x588c0abb308a8e17"
"mall";"Pusat Perbelanjaan";"Kedai Pak Sarino";"6W3W+6P3, Unnamed Road, Tamiang Hulu, Perk Pulau Tiga, Kec. Tamiang Hulu, Kabupaten Aceh Tamiang, Aceh 24474";"Unnamed Road, Tamiang Hulu, Perk Pulau Tiga, Kec. Tamiang Hulu, Kabupaten Aceh Tamiang";"ACEH";"24474";"Indonesia";" 082274267089";"4.2030164";"97.9468009";"https://maps.google.com/?cid=0x0:0xfc1b00521e2ef8d0"
"mall";"Toko Swalayan";"Warung Mahfud";"748X+CFJ, Suka Mulia, Kec. Rantau, Kabupaten Aceh Tamiang, Aceh 24473";"Suka Mulia, Kec. Rantau, Kabupaten Aceh Tamiang";"ACEH";"24473";"Indonesia";" 082370721768";"4.2660792";"98.1486341";"https://maps.google.com/?cid=0x0:0xa50c1a35d347dace"
"mall";"Pusat Perbelanjaan";"Suzuya Mall Rantau Prapat";"Jl. SM. Raja, Bakaran Batu, Kec. Rantau Sel., Kab. Labuhanbatu, Sumatera Utara 21418";"Bakaran Batu, Kec. Rantau Sel., Kab. Labuhanbatu";"ACEH";"21418";"Indonesia";"";"2.0821821";"99.8521185";"https://maps.google.com/?cid=0x0:0x2ae73160b301c509"
"mall";"Mal outlet";"Suzuya City Mall";"3RWM+W77, Jl. Lintas Sumatra, Kartini, Kec. Rantau Utara, Kab. Labuhanbatu, Sumatera Utara 21411";"Jl. Lintas Sumatra, Kartini, Kec. Rantau Utara, Kab. Labuhanbatu";"ACEH";"21411";"Indonesia";"";"2.0972805";"99.8331848";"https://maps.google.com/?cid=0x0:0x4fc73a7e51056f58"
"mall";"Pusat Perbelanjaan";"Karisma";"Jl. Ranto Panjang, Snb Dalam, Kec. Rantau Peureulak, Kabupaten Aceh Timur, Aceh 24453";"Snb Dalam, Kec. Rantau Peureulak, Kabupaten Aceh Timur";"ACEH";"24453";"Indonesia";"";"4.8126838";"97.8185659";"https://maps.google.com/?cid=0x0:0x9e49a8b397d7c052"
"mall";"Toko Herbal";"Stokis HNI-HPAI Leni.Tamiang";"73WM+5GX, Jalan duku dasi, dusun metro jaya, Kp. Durian, Kec. Rantau, Kabupaten Aceh Tamiang, Aceh";"Kabupaten Aceh Tamiang, Aceh";"ACEH";"";"Indonesia";" 085270506302";"4.2954958";"98.0838512";"https://maps.google.com/?cid=0x0:0xd73d0f0bd500bc48"
"mall";"Pusat Perbelanjaan";"Ikan";"Suka Mulia, Kota Kuala Simpang, Kec. Rantau, Kabupaten Aceh Tamiang, Aceh 24474";"Kota Kuala Simpang, Kec. Rantau, Kabupaten Aceh Tamiang";"ACEH";"24474";"Indonesia";" 085280341402";"4.266075";"98.1486895";"https://maps.google.com/?cid=0x0:0x367b866bfb848daa"
"mall";"Toko Kosmetik";"AFIFAH STORE";"83CR+6JH, Jalan, Alur Manis, Rantau, Aceh Tamiang Regency, Aceh 24476";"Jalan, Alur Manis, Rantau, Aceh Tamiang Regency";"ACEH";"24476";"Indonesia";" 082162290077";"4.3205691";"98.0915939";"https://maps.google.com/?cid=0x0:0x43db8ea51b517066"
"mall";"Kedai Hidangan Penutup";"Grosir Telur Sukarahmat";"747C+W87, Suka Rahmat, Kec. Rantau, Kabupaten Aceh Tamiang, Aceh 24453";"Suka Rahmat, Kec. Rantau, Kabupaten Aceh Tamiang";"ACEH";"24453";"Indonesia";" 085276011476";"4.2647782";"98.120804";"https://maps.google.com/?cid=0x0:0xfb9447f869280f61"
"mall";"Toko Parfum";"S. A. Ponsel  Parfum";"Gampong Johar, Kec. Karang Baru, Kabupaten Aceh Tamiang, Aceh 24476";"Kec. Karang Baru, Kabupaten Aceh Tamiang";"ACEH";"24476";"Indonesia";" 081362114025";"4.3239514";"98.0642331";"https://maps.google.com/?cid=0x0:0x365a2ac919b868c3"
"mall";"mall";"Aceh 24476";"Kabupaten Aceh Tamiang, Aceh";"Kabupaten Aceh Tamiang, Aceh";"ACEH";"";"Indonesia";"";"4.3288776";"98.0628862";"https://maps.google.com/?cid=0x0:0x82d848b4ba041829"
"mall";"Toko Kosmetik";"AFIFAH STORE";"83CR+6JH, Jalan, Alur Manis, Rantau, Aceh Tamiang Regency, Aceh 24476";"Jalan, Alur Manis, Rantau, Aceh Tamiang Regency";"ACEH";"24476";"Indonesia";" 082162290077";"4.3205691";"98.0915939";"https://maps.google.com/?cid=0x0:0x43db8ea51b517066"
"mall";"Pusat Perbelanjaan";"Pusat agency Agustina";"73WJ+3P6 Masjid Miftahul Jannah, desa kampung duren kampung duren, samping, Kec. Rantau, Kabupaten Aceh Tamiang, Aceh 24476";"desa kampung duren kampung duren, samping, Kec. Rantau, Kabupaten Aceh Tamiang";"ACEH";"24476";"Indonesia";" 082368421700";"4.2951553";"98.0817557";"https://maps.google.com/?cid=0x0:0x95897d467f90388f"
"mall";"Toko bahan makanan";"Ricky Market";"Tanah Terban, Kec. Karang Baru, Kabupaten Aceh Tamiang, Aceh 24456";"Kec. Karang Baru, Kabupaten Aceh Tamiang";"ACEH";"24456";"Indonesia";" 082277187817";"4.3100105";"98.0572";"https://maps.google.com/?cid=0x0:0x877f5622f439b72c"
"mall";"Pembangunan Perumahan";"Pajak Pagi Rantau";"Unnamed Road,Kp. Pertamina, Kp. Pertamina, Kec. Rantau, Kabupaten Aceh Tamiang, Aceh 24476";"Kp. Pertamina, Kec. Rantau, Kabupaten Aceh Tamiang";"ACEH";"24476";"Indonesia";" 085262876035";"4.3302765";"98.0930452";"https://maps.google.com/?cid=0x0:0x5818d08af2340657"
"mall";"Toko Kosmetik";"Skin Care Si Mameh";"83JR+6CR, Jalan, Alur Manis, Rantau, Aceh Tamiang Regency, Aceh 24476";"Jalan, Alur Manis, Rantau, Aceh Tamiang Regency";"ACEH";"24476";"Indonesia";"";"4.3306229";"98.0910267";"https://maps.google.com/?cid=0x0:0xd61a7d7f0c40cba6"
"mall";"Toko Pakaian";"Nazstore";"73V5+QCM, Kota Lintang, Kota Kuala Simpang, Kabupaten Aceh Tamiang, Aceh 24458";"Kota Lintang, Kota Kuala Simpang, Kabupaten Aceh Tamiang";"ACEH";"24458";"Indonesia";" 082261538986";"4.294462";"98.0585357";"https://maps.google.com/?cid=0x0:0xa2745f7c63ddc58c"
"mall";"Pedagang tekstil";"Basrija Store by Erdian";"JL. Nyak Umar No.19, Kota Kuala Simpang, Kabupaten Aceh Tamiang, Aceh 24456";"Kota Kuala Simpang, Kabupaten Aceh Tamiang";"ACEH";"24456";"Indonesia";" 085294076694";"4.2842846";"98.0592383";"https://maps.google.com/?cid=0x0:0xe43f71ebbb72071f"
"mall";"Komplek perumahan";"GUDANG SBN";"72VV+G58, Gampong Bundar, Kec. Karang Baru, Kabupaten Aceh Tamiang, Aceh 24456";"Gampong Bundar, Kec. Karang Baru, Kabupaten Aceh Tamiang";"ACEH";"24456";"Indonesia";"";"4.2937948";"98.0429393";"https://maps.google.com/?cid=0x0:0x93dca99221f603ab"
"mall";"Pemasok Air Minum Dalam Kemasan";"Depot Air Prima";"83H8+VW6, Jl. Medan - Banda Aceh, RW.Dusun Keluarga, Pahlawan, Kec. Karang Baru, Kabupaten Aceh Tamiang, Aceh 24476";"Jl. Medan - Banda Aceh, RW.Dusun Keluarga, Pahlawan, Kec. Karang Baru, Kabupaten Aceh Tamiang";"ACEH";"24476";"Indonesia";" 082276403265";"4.3296527";"98.0672576";"https://maps.google.com/?cid=0x0:0xfce6e34e29431b2a"
"mall";"Grosir Buah";"Pajak Hongkong";"Pajak hongkong, Perdamaian, Kota Kuala Simpang, Kabupaten Aceh Tamiang, Aceh 24456";"Perdamaian, Kota Kuala Simpang, Kabupaten Aceh Tamiang";"ACEH";"24456";"Indonesia";"";"4.2845055";"98.0604438";"https://maps.google.com/?cid=0x0:0xc4b9b3876024431d"
"mall";"Pusat Perbelanjaan";"BC ACEH TAMIANG";"73M5+G6Q, Jl. Panglima Polem, Kota Kuala Simpang, Kabupaten Aceh Tamiang, Aceh 24456";"Jl. Panglima Polem, Kota Kuala Simpang, Kabupaten Aceh Tamiang";"ACEH";"24456";"Indonesia";" 081396301221";"4.2838371";"98.0581176";"https://maps.google.com/?cid=0x0:0x3dfc1db9a058117a"
"mall";"Toko";"kede bg ijal";"72VV+JG9, Unnamed Road, Gampong Bundar, Kec. Karang Baru, Kabupaten Aceh Tamiang, Aceh 24456";"Unnamed Road, Gampong Bundar, Kec. Karang Baru, Kabupaten Aceh Tamiang";"ACEH";"24456";"Indonesia";"";"4.2940432";"98.0438489";"https://maps.google.com/?cid=0x0:0x8bcd13389f9edc50"
"mall";"mall";"Aceh 24473";"Aceh";"Aceh";"ACEH";"";"Indonesia";"";"4.2670304";"98.1393179";"https://maps.google.com/?cid=0x0:0x7edc8ec14cab902a"
"mall";"Pusat Perbelanjaan";"MubinOnestopshoping";"747C+RJ4, Suka Rahmat, Kec. Rantau, Kabupaten Aceh Tamiang, Aceh 24453";"Suka Rahmat, Kec. Rantau, Kabupaten Aceh Tamiang";"ACEH";"24453";"Indonesia";" 085260114488";"4.2645033";"98.1215849";"https://maps.google.com/?cid=0x0:0x873206f5487e728e"
"mall";"Kedai Hidangan Penutup";"Grosir Telur Sukarahmat";"747C+W87, Suka Rahmat, Kec. Rantau, Kabupaten Aceh Tamiang, Aceh 24453";"Suka Rahmat, Kec. Rantau, Kabupaten Aceh Tamiang";"ACEH";"24453";"Indonesia";" 085276011476";"4.2647782";"98.120804";"https://maps.google.com/?cid=0x0:0xfb9447f869280f61"
"mall";"Supermarket Industri";"INDOMARET PEKAN SERUWAY";"953M+H8R, Peukan Seuruway, Kec. Seuruway, Kabupaten Aceh Tamiang, Aceh 24472";"Peukan Seuruway, Kec. Seuruway, Kabupaten Aceh Tamiang";"ACEH";"24472";"Indonesia";"";"4.3539837";"98.1832745";"https://maps.google.com/?cid=0x0:0x9afc79abaa2eac4b"
"mall";"Pusat Perbelanjaan";"Ikan";"Suka Mulia, Kota Kuala Simpang, Kec. Rantau, Kabupaten Aceh Tamiang, Aceh 24474";"Kota Kuala Simpang, Kec. Rantau, Kabupaten Aceh Tamiang";"ACEH";"24474";"Indonesia";" 085280341402";"4.266075";"98.1486895";"https://maps.google.com/?cid=0x0:0x367b866bfb848daa"
"mall";"Pusat Perbelanjaan";"Warung Zainuddin";"748X+JH7, Perkebunan Perapen, Kec. Pematang Jaya, Kabupaten Langkat, Sumatera Utara 24473";"Perkebunan Perapen, Kec. Pematang Jaya, Kabupaten Langkat";"ACEH";"24473";"Indonesia";" 085297424117";"4.2665258";"98.1489243";"https://maps.google.com/?cid=0x0:0x7fde52ed41b5ebb5"
"mall";"Toko bahan makanan";"Kede Wak Lan";"65M9+R33, Pematang Tengah, Kec. Pematang Jaya, Kabupaten Langkat, Sumatera Utara 20858";"Pematang Tengah, Kec. Pematang Jaya, Kabupaten Langkat";"ACEH";"20858";"Indonesia";" 081263292041";"4.2345172";"98.1676803";"https://maps.google.com/?cid=0x0:0xc0354dd981ffd738"
"mall";"Pusat Perbelanjaan";"Toko";"747X+MMC, Perkebunan Perapen, Kec. Pematang Jaya, Kabupaten Langkat, Sumatera Utara";"Kabupaten Langkat, Sumatera Utara";"ACEH";"";"Indonesia";"";"4.2641795";"98.1491387";"https://maps.google.com/?cid=0x0:0x96f29027cbf6b00b"
"mall";"Gedung Apartemen";"Rumah Bang Acan";"7625+G22, Serang Jaya Hilir, Kec. Pematang Jaya, Kabupaten Langkat, Sumatera Utara 20858";"Serang Jaya Hilir, Kec. Pematang Jaya, Kabupaten Langkat";"ACEH";"20858";"Indonesia";"";"4.2512541";"98.2075116";"https://maps.google.com/?cid=0x0:0x2484ac83c94291ec"
"mall";"mall";"Toko Uzi";"748X+CCQ, Suka Mulia, Kec. Rantau, Kabupaten Aceh Tamiang, Aceh 24473";"Suka Mulia, Kec. Rantau, Kabupaten Aceh Tamiang";"ACEH";"24473";"Indonesia";" 082253659071";"4.2660758";"98.148609";"https://maps.google.com/?cid=0x0:0xb3629e083f4925e1"
"mall";"mall";"Rafif Colection";"74CP+3C3, Suka Mulia, Kec. Rantau, Kabupaten Aceh Tamiang, Aceh 24473";"Suka Mulia, Kec. Rantau, Kabupaten Aceh Tamiang";"ACEH";"24473";"Indonesia";"";"4.2701375";"98.1360562";"https://maps.google.com/?cid=0x0:0xf1a307f79db493c6"
"mall";"Toko umum";"Desi";"84FJ+HJG, Sukaramai II, Kec. Seuruway, Kabupaten Aceh Tamiang, Aceh";"Kabupaten Aceh Tamiang, Aceh";"ACEH";"";"Indonesia";"";"4.3244699";"98.1322067";"https://maps.google.com/?cid=0x0:0x947000d6fcb781fd"
"mall";"Pedagang tekstil";"Basrija Store by Erdian";"JL. Nyak Umar No.19, Kota Kuala Simpang, Kabupaten Aceh Tamiang, Aceh 24456";"Kota Kuala Simpang, Kabupaten Aceh Tamiang";"ACEH";"24456";"Indonesia";" 085294076694";"4.2842846";"98.0592383";"https://maps.google.com/?cid=0x0:0xe43f71ebbb72071f"
"mall";"Pusat Perbelanjaan";"BC ACEH TAMIANG";"73M5+G6Q, Jl. Panglima Polem, Kota Kuala Simpang, Kabupaten Aceh Tamiang, Aceh 24456";"Jl. Panglima Polem, Kota Kuala Simpang, Kabupaten Aceh Tamiang";"ACEH";"24456";"Indonesia";" 081396301221";"4.2838371";"98.0581176";"https://maps.google.com/?cid=0x0:0x3dfc1db9a058117a"
"mall";"Pusat Perbelanjaan";"Alexs";"6WRV+GQH, Unnamed Road, Harum Sari, Kec. Tamiang Hulu, Kabupaten Aceh Tamiang, Aceh 24382";"Unnamed Road, Harum Sari, Kec. Tamiang Hulu, Kabupaten Aceh Tamiang";"ACEH";"24382";"Indonesia";"";"4.2413216";"97.9444922";"https://maps.google.com/?cid=0x0:0x779343833d97a3d4"
"mall";"mall";"Kec. Tamiang Hulu";"Kabupaten Aceh Tamiang, Aceh";"Kabupaten Aceh Tamiang, Aceh";"ACEH";"";"Indonesia";"";"4.1633008";"97.9539786";"https://maps.google.com/?cid=0x0:0x4376a9df79cb4397"
"mall";"Kantor Perusahaan";"BUMK Maju Jaya Perk. P3";"5W8W+GXR, Perk Pulau Tiga, Kec. Tamiang Hulu, Kabupaten Aceh Tamiang, Aceh 24477";"Perk Pulau Tiga, Kec. Tamiang Hulu, Kabupaten Aceh Tamiang";"ACEH";"24477";"Indonesia";" 082273534648";"4.1663699";"97.9473877";"https://maps.google.com/?cid=0x0:0xcf2d93945f0f4d4b"
"mall";"Pusat Perbelanjaan";"BM CENTER SALDO TITI BIRU";"Tulang niat desa, Selamat, Kec. Tenggulun, Kabupaten Aceh Tamiang, Aceh 24477";"Selamat, Kec. Tenggulun, Kabupaten Aceh Tamiang";"ACEH";"24477";"Indonesia";" 081260000345";"4.0858894";"97.9406268";"https://maps.google.com/?cid=0x0:0x2362347813b3f3e8"
"mall";"Komplek perumahan";"Pekan Harum Sari";"6WJC+HFJ, Harum Sari, Kec. Tamiang Hulu, Kabupaten Aceh Tamiang, Aceh 24382";"Harum Sari, Kec. Tamiang Hulu, Kabupaten Aceh Tamiang";"ACEH";"24382";"Indonesia";"";"4.2314558";"97.9211339";"https://maps.google.com/?cid=0x0:0xab25eb32af379c96"
"mall";"Pusat Perbelanjaan";"Kedai Pak Sarino";"6W3W+6P3, Unnamed Road, Tamiang Hulu, Perk Pulau Tiga, Kec. Tamiang Hulu, Kabupaten Aceh Tamiang, Aceh 24474";"Unnamed Road, Tamiang Hulu, Perk Pulau Tiga, Kec. Tamiang Hulu, Kabupaten Aceh Tamiang";"ACEH";"24474";"Indonesia";" 082274267089";"4.2030164";"97.9468009";"https://maps.google.com/?cid=0x0:0xfc1b00521e2ef8d0"
"mall";"Toko Peralatan dan Bahan Kue";"SERBA JAYA TOSERBA";"Peukan Simpang Tiga, Perk Pulau Tiga, Kec. Tamiang Hulu, Aceh 24478";"Perk Pulau Tiga, Kec. Tamiang Hulu";"ACEH";"24478";"Indonesia";"";"4.1651194";"97.9482641";"https://maps.google.com/?cid=0x0:0xc44a33af244f9a67"
"mall";"Dokter";"UD Lingga";"5W8X+2F8, Perk Pulau Tiga, Kec. Tamiang Hulu, Kabupaten Aceh Tamiang, Aceh 24477";"Perk Pulau Tiga, Kec. Tamiang Hulu, Kabupaten Aceh Tamiang";"ACEH";"24477";"Indonesia";" 082363400565";"4.1650462";"97.9487022";"https://maps.google.com/?cid=0x0:0xaf86219f76a7c21a"
"mall";"Pusat Perbelanjaan";"SINAR MUTIARA";"Pulo Tiga, Kec. Tamiang Hulu, Kabupaten Aceh Tamiang, Aceh 24477";"Kec. Tamiang Hulu, Kabupaten Aceh Tamiang";"ACEH";"24477";"Indonesia";"";"4.1655485";"97.9478614";"https://maps.google.com/?cid=0x0:0x4a8530e7d8bab554"
"mall";"Minimarket";"Toko Rizki Mulia ( Bince)";"5W7X+X97, Perk Pulau Tiga, Kec. Tamiang Hulu, Kabupaten Aceh Tamiang, Aceh 24477";"Perk Pulau Tiga, Kec. Tamiang Hulu, Kabupaten Aceh Tamiang";"ACEH";"24477";"Indonesia";" 082244595575";"4.1649167";"97.9484281";"https://maps.google.com/?cid=0x0:0x2c7b322025f8a2d4"
"mall";"Kantor Perusahaan";"IRFA WATER";"Dusun ingin jaya, desa, Perk Pulau Tiga, Kec. Tamiang Hulu, Kabupaten Aceh Tamiang, Aceh 24477";"desa, Perk Pulau Tiga, Kec. Tamiang Hulu, Kabupaten Aceh Tamiang";"ACEH";"24477";"Indonesia";" 081390929750";"4.1669555";"97.9474942";"https://maps.google.com/?cid=0x0:0x3c6ce185d481b66a"
"mall";"Pusat Perbelanjaan";"TOKO DITA";"3WHP+9QX, Selamat, Kec. Tenggulun, Kabupaten Aceh Tamiang, Aceh 24477";"Selamat, Kec. Tenggulun, Kabupaten Aceh Tamiang";"ACEH";"24477";"Indonesia";"";"4.0784862";"97.9369718";"https://maps.google.com/?cid=0x0:0x92afa663817888b4"
"mall";"Pusat Perbelanjaan";"Toko Mutiara Jaya";"Simpang Kiri, Kec. Tenggulun, Kabupaten Aceh Tamiang, Aceh 24477";"Kec. Tenggulun, Kabupaten Aceh Tamiang";"ACEH";"24477";"Indonesia";" 082168292049";"4.1117349";"97.9812811";"https://maps.google.com/?cid=0x0:0x9588201b8f3a4159"
"mall";"Toserba";"Kede sasa";"42F2+8R5, Rimba Sawang, Kec. Tenggulun, Kabupaten Aceh Tamiang, Aceh";"Kabupaten Aceh Tamiang, Aceh";"ACEH";"";"Indonesia";"";"4.123251";"98.002097";"https://maps.google.com/?cid=0x0:0xf3c5e23aedecdb3c"
"mall";"Toko Elektronik";"YUSUF PONSEL TENGGULUN";"Dusun Adil Makmur, Tenggulun, Kec. Tenggulun, Kabupaten Aceh Tamiang, Aceh 24477";"Tenggulun, Kec. Tenggulun, Kabupaten Aceh Tamiang";"ACEH";"24477";"Indonesia";" 082274752626";"4.0183697";"97.9918708";"https://maps.google.com/?cid=0x0:0x459e9a1cb1d144de"
"mall";"mall";"Aceh 24477";"Kabupaten Aceh Tamiang, Aceh";"Kabupaten Aceh Tamiang, Aceh";"ACEH";"";"Indonesia";"";"3.9904163";"97.9157099";"https://maps.google.com/?cid=0x0:0x559940852b05002f"
"mall";"Tempat Cukur Rambut";"BENO BARBER SHOP";"4X6J+MCF, Simpang Kiri, Kec. Tenggulun, Kabupaten Aceh Tamiang, Aceh 24477";"Simpang Kiri, Kec. Tenggulun, Kabupaten Aceh Tamiang";"ACEH";"24477";"Indonesia";" 082218130338";"4.1116826";"97.981036";"https://maps.google.com/?cid=0x0:0x7255c3578af64179"
"mall";"Toko bahan makanan";"Toko rika";"Jln, pucuk, Kec. Tenggulun, Kabupaten Aceh Tamiang, Aceh";"Kabupaten Aceh Tamiang, Aceh";"ACEH";"";"Indonesia";" 081360095005";"4.027862";"97.99659";"https://maps.google.com/?cid=0x0:0x502acff281794ea3"
"mall";"Dokter";"UD Lingga";"5W8X+2F8, Perk Pulau Tiga, Kec. Tamiang Hulu, Kabupaten Aceh Tamiang, Aceh 24477";"Perk Pulau Tiga, Kec. Tamiang Hulu, Kabupaten Aceh Tamiang";"ACEH";"24477";"Indonesia";" 082363400565";"4.1650462";"97.9487022";"https://maps.google.com/?cid=0x0:0xaf86219f76a7c21a"
"mall";"Kantor Perusahaan";"BUMK Maju Jaya Perk. P3";"5W8W+GXR, Perk Pulau Tiga, Kec. Tamiang Hulu, Kabupaten Aceh Tamiang, Aceh 24477";"Perk Pulau Tiga, Kec. Tamiang Hulu, Kabupaten Aceh Tamiang";"ACEH";"24477";"Indonesia";" 082273534648";"4.1663699";"97.9473877";"https://maps.google.com/?cid=0x0:0xcf2d93945f0f4d4b"
"mall";"Pusat Perbelanjaan";"TOKO DITA";"3WHP+9QX, Selamat, Kec. Tenggulun, Kabupaten Aceh Tamiang, Aceh 24477";"Selamat, Kec. Tenggulun, Kabupaten Aceh Tamiang";"ACEH";"24477";"Indonesia";"";"4.0784862";"97.9369718";"https://maps.google.com/?cid=0x0:0x92afa663817888b4"
"mall";"Pusat Perbelanjaan";"Toko Mutiara Jaya";"Simpang Kiri, Kec. Tenggulun, Kabupaten Aceh Tamiang, Aceh 24477";"Kec. Tenggulun, Kabupaten Aceh Tamiang";"ACEH";"24477";"Indonesia";" 082168292049";"4.1117349";"97.9812811";"https://maps.google.com/?cid=0x0:0x9588201b8f3a4159"
"mall";"Pusat Perbelanjaan";"Kedai mahdy";"4X2R+98P, Unnamed Road, Simpang Kiri, Kec. Tenggulun, Kabupaten Aceh Tamiang, Aceh 24477";"Unnamed Road, Simpang Kiri, Kec. Tenggulun, Kabupaten Aceh Tamiang";"ACEH";"24477";"Indonesia";" 082213040920";"4.1009678";"97.9908307";"https://maps.google.com/?cid=0x0:0x20c21e82281df2d4"
"mall";"Minimarket";"Toko Rizki Mulia ( Bince)";"5W7X+X97, Perk Pulau Tiga, Kec. Tamiang Hulu, Kabupaten Aceh Tamiang, Aceh 24477";"Perk Pulau Tiga, Kec. Tamiang Hulu, Kabupaten Aceh Tamiang";"ACEH";"24477";"Indonesia";" 082244595575";"4.1649167";"97.9484281";"https://maps.google.com/?cid=0x0:0x2c7b322025f8a2d4"
"mall";"Toserba";"Kede sasa";"42F2+8R5, Rimba Sawang, Kec. Tenggulun, Kabupaten Aceh Tamiang, Aceh";"Kabupaten Aceh Tamiang, Aceh";"ACEH";"";"Indonesia";"";"4.123251";"98.002097";"https://maps.google.com/?cid=0x0:0xf3c5e23aedecdb3c"
"mall";"Pusat Perbelanjaan";"SINAR MUTIARA";"Pulo Tiga, Kec. Tamiang Hulu, Kabupaten Aceh Tamiang, Aceh 24477";"Kec. Tamiang Hulu, Kabupaten Aceh Tamiang";"ACEH";"24477";"Indonesia";"";"4.1655485";"97.9478614";"https://maps.google.com/?cid=0x0:0x4a8530e7d8bab554"
"mall";"Toko Peralatan dan Bahan Kue";"SERBA JAYA TOSERBA";"Peukan Simpang Tiga, Perk Pulau Tiga, Kec. Tamiang Hulu, Aceh 24478";"Perk Pulau Tiga, Kec. Tamiang Hulu";"ACEH";"24478";"Indonesia";"";"4.1651194";"97.9482641";"https://maps.google.com/?cid=0x0:0xc44a33af244f9a67"
"mall";"Pusat Perbelanjaan";"Toko Nisa";"dusun 12 Langkat, Halaban, Kec. Besitang, Kabupaten Aceh Tamiang, Sumatera Utara 20859";"Halaban, Kec. Besitang, Kabupaten Aceh Tamiang";"ACEH";"20859";"Indonesia";"";"4.1342261";"98.0672816";"https://maps.google.com/?cid=0x0:0x289086a00af574e7"
"supermarket";"Penyedia Layanan Telekomunikasi";"Zm GroosMarket";"93CW+G8W, Jl. Tugu Opak, Simpang Empat, Kec. Karang Baru, Kabupaten Aceh Tamiang, Aceh 24472";"Jl. Tugu Opak, Simpang Empat, Kec. Karang Baru, Kabupaten Aceh Tamiang";"ACEH";"24472";"Indonesia";" 085277284284";"4.371354";"98.0958343";"https://maps.google.com/?cid=0x0:0x705bc6e2cf8ea170"
"supermarket";"supermarket";"Kec. Banda Mulia";"Kabupaten Aceh Tamiang, Aceh";"Kabupaten Aceh Tamiang, Aceh";"ACEH";"";"Indonesia";"";"4.4405846";"98.1360921";"https://maps.google.com/?cid=0x0:0xe04c2bd9d3d421e8"
"supermarket";"Toko";"TGM STORE";"Alur Nunang, Kec. Banda Mulia, Kabupaten Aceh Tamiang, Aceh 24471";"Kec. Banda Mulia, Kabupaten Aceh Tamiang";"ACEH";"24471";"Indonesia";" 082232185610";"4.4558041";"98.1355976";"https://maps.google.com/?cid=0x0:0x117ad11f484b60c5"
"supermarket";"Toko bahan makanan";"Kedai Swalayan";"jalan simpang 3 gedong biara,tangsi lama seruway, Tangsi Lama, Kec. Seuruway, Kabupaten Aceh Tamiang, Aceh 24472";"Tangsi Lama, Kec. Seuruway, Kabupaten Aceh Tamiang";"ACEH";"24472";"Indonesia";" 085359673734";"4.3565242";"98.1768274";"https://maps.google.com/?cid=0x0:0x491467cfcc29a4fd"
"supermarket";"Toko Roti";"Donat balqis";"Dusun dana bakti, Sukajadi, Kec. Banda Mulia, Kabupaten Aceh Tamiang, Aceh 24472";"Sukajadi, Kec. Banda Mulia, Kabupaten Aceh Tamiang";"ACEH";"24472";"Indonesia";" 081377427125";"4.4079219";"98.1128057";"https://maps.google.com/?cid=0x0:0x92e9fb966cfa8b58"
"supermarket";"Toko Herbal";"Halal Mart Distributor Indriastuti";"Dusun dana bakti, Sukajadi, Kec. Banda Mulia, Kabupaten Aceh Tamiang, Aceh 24472";"Sukajadi, Kec. Banda Mulia, Kabupaten Aceh Tamiang";"ACEH";"24472";"Indonesia";"";"4.4042762";"98.1091703";"https://maps.google.com/?cid=0x0:0x4124d27ac211bc86"
"supermarket";"Toko bahan makanan";"Mulia Swalayan";"H9F7+3XJ, Rukoh, Kec. Syiah Kuala, Kota Banda Aceh, Aceh";"Kota Banda Aceh, Aceh";"ACEH";"";"Indonesia";"";"5.5727018";"95.3648855";"https://maps.google.com/?cid=0x0:0x478e2307032652fb"
"supermarket";"Toko Swalayan";"Grosirmarket.alal falah";"93FQ+XXG, Jl. Tugu Opak, Simpang Empat, Kec. Karang Baru, Kabupaten Aceh Tamiang, Aceh 24471";"Jl. Tugu Opak, Simpang Empat, Kec. Karang Baru, Kabupaten Aceh Tamiang";"ACEH";"24471";"Indonesia";"";"4.3749312";"98.0899679";"https://maps.google.com/?cid=0x0:0xcabccc309790e41a"
"supermarket";"Kios";"Kedai Opung";"94V7+7X9, Suka Damai, Kec. Banda Mulia, Kabupaten Aceh Tamiang, Aceh 24452";"Suka Damai, Kec. Banda Mulia, Kabupaten Aceh Tamiang";"ACEH";"24452";"Indonesia";"";"4.3931535";"98.1149994";"https://maps.google.com/?cid=0x0:0x66c1c0cd860ad393"
"supermarket";"Pasar";"Pasar Jumat Telaga Meuku";"C4QP+V7P, Matang Seuping, Kec. Banda Mulia, Kabupaten Aceh Tamiang, Aceh 24471";"Matang Seuping, Kec. Banda Mulia, Kabupaten Aceh Tamiang";"ACEH";"24471";"Indonesia";"";"4.4397209";"98.1356968";"https://maps.google.com/?cid=0x0:0xda94e5adf0261632"
"supermarket";"Toko sembako pemerintah";"Dianti cell";"C4VM+3JJ, Jl. Telaga Meuku, Telaga Meuku II, Kec. Banda Mulia, Kabupaten Aceh Tamiang, Aceh 24471";"Jl. Telaga Meuku, Telaga Meuku II, Kec. Banda Mulia, Kabupaten Aceh Tamiang";"ACEH";"24471";"Indonesia";"";"4.4426248";"98.1340451";"https://maps.google.com/?cid=0x0:0x71ad405937127793"
"supermarket";"Pemasok Peralatan Pertanian";"UD.Upah Tani(Mitra Bumi Persada)";"93CW+M99, Upah, Kec. Bendahara, Kabupaten Aceh Tamiang, Aceh 24472";"Upah, Kec. Bendahara, Kabupaten Aceh Tamiang";"ACEH";"24472";"Indonesia";"";"4.3716601";"98.0959737";"https://maps.google.com/?cid=0x0:0xc6a3d2d682014123"
"supermarket";"Pemasok Air Minum Dalam Kemasan";"Depot air Eva water";"Unnamed Road, Sukajadi, Kec. Banda Mulia, Kabupaten Aceh Tamiang, Aceh 24471";"Sukajadi, Kec. Banda Mulia, Kabupaten Aceh Tamiang";"ACEH";"24471";"Indonesia";" 082228952652";"4.3923864";"98.1059517";"https://maps.google.com/?cid=0x0:0x3d98342684c97d00"
"supermarket";"Pasar";"Pasar Senin Paya Raja";"94V6+G23, Sukajadi, Kec. Banda Mulia, Kabupaten Aceh Tamiang, Aceh 24471";"Sukajadi, Kec. Banda Mulia, Kabupaten Aceh Tamiang";"ACEH";"24471";"Indonesia";"";"4.3937621";"98.1100493";"https://maps.google.com/?cid=0x0:0xd107ef267eb3c973"
"supermarket";"supermarket";"Kec. Bandar Pusaka";"Kabupaten Aceh Tamiang, Aceh";"Kabupaten Aceh Tamiang, Aceh";"ACEH";"";"Indonesia";"";"4.2948637";"97.8778752";"https://maps.google.com/?cid=0x0:0x2b7834261cf3e187"
"supermarket";"Toko Herbal";"AL-MART";"Babo, Kec. Bandar Pusaka, Kabupaten Aceh Tamiang, Aceh 24456";"Kec. Bandar Pusaka, Kabupaten Aceh Tamiang";"ACEH";"24456";"Indonesia";" 085261425993";"4.2948013";"97.8782954";"https://maps.google.com/?cid=0x0:0x30de166f4d340905"
"supermarket";"Toko bahan makanan";"Kios SRC Muhammad Syukur Rantau Bintang";"7VQW+GQ4, Rantau Bintang, Kec. Bandar Pusaka, Kabupaten Aceh Tamiang, Aceh 24456";"Rantau Bintang, Kec. Bandar Pusaka, Kabupaten Aceh Tamiang";"ACEH";"24456";"Indonesia";" 081397955972";"4.288759";"97.8969427";"https://maps.google.com/?cid=0x0:0x7d72ca64b2c73f85"
"supermarket";"Toko bahan makanan";"Kede mak rasmi";"Blang Kandis, Kec. Bandar Pusaka, Kabupaten Aceh Tamiang, Aceh 24382";"Kec. Bandar Pusaka, Kabupaten Aceh Tamiang";"ACEH";"24382";"Indonesia";" 082240149051";"4.2353353";"97.9556272";"https://maps.google.com/?cid=0x0:0x4135c3936d0f743b"
"supermarket";"Toko bahan makanan";"Kios Adi Suria Darma";"6XP3+938, Blang Kandis, Kec. Bandar Pusaka, Kabupaten Aceh Tamiang, Aceh";"Kabupaten Aceh Tamiang, Aceh";"ACEH";"";"Indonesia";"";"4.2359099";"97.9527108";"https://maps.google.com/?cid=0x0:0x4e2f65f07d1d46b7"
"supermarket";"Toko";"Kede kak jum";"7RVX+6XR, Pantai Cempa, Kec. Bandar Pusaka, Kabupaten Aceh Tamiang, Aceh 24456";"Pantai Cempa, Kec. Bandar Pusaka, Kabupaten Aceh Tamiang";"ACEH";"24456";"Indonesia";"";"4.2931001";"97.8498811";"https://maps.google.com/?cid=0x0:0xfa9ca16cad35285c"
"supermarket";"Toko bahan makanan";"SAQINA SWALAYAN";"Kode Pos, Jl. Kotalintang Atas No.4-10 Desa Kotalintang, Kota Kuala Simpang, Kabupaten Aceh Tamiang, Aceh 24475";"Jl. Kotalintang Atas No.4-10 Desa Kotalintang, Kota Kuala Simpang, Kabupaten Aceh Tamiang";"ACEH";"24475";"Indonesia";" 082272870801";"4.2862419";"98.0601654";"https://maps.google.com/?cid=0x0:0x4454e8d98c08493f"
"supermarket";"Konsultan makanan dan minuman";"DRP_YOSIA";"7336+WMF, Jl. Medan - Banda Aceh, kebun tengah, Kec. Kejuruan Muda, Kabupaten Aceh Tamiang, Aceh 24475";"Jl. Medan - Banda Aceh, kebun tengah, Kec. Kejuruan Muda, Kabupaten Aceh Tamiang";"ACEH";"24475";"Indonesia";" 081269664779";"4.2548122";"98.061671";"https://maps.google.com/?cid=0x0:0x2226657d3ff96f45"
"supermarket";"Minimarket";"Warung bu ida";"7V8R+MQ, Babo, Kec. Bandar Pusaka, Kabupaten Aceh Tamiang, Aceh 24456";"Babo, Kec. Bandar Pusaka, Kabupaten Aceh Tamiang";"ACEH";"24456";"Indonesia";" 081377391628";"4.2666576";"97.891875";"https://maps.google.com/?cid=0x0:0xa8745b8a83646688"
"supermarket";"Toko Swalayan";"Agz Drew";"7327+5RF, Bukit Rata, Kec. Kejuruan Muda, Kabupaten Aceh Tamiang, Aceh 24475";"Bukit Rata, Kec. Kejuruan Muda, Kabupaten Aceh Tamiang";"ACEH";"24475";"Indonesia";" 085277876659";"4.25044";"98.0645344";"https://maps.google.com/?cid=0x0:0x4f0d276aa011c8b9"
"supermarket";"Toko Swalayan";"ADA Market";"83RF+RVW, Jl. Medan Banda Aceh, Medang Ara, Kec. Karang Baru, Kabupaten Aceh Tamiang, Aceh";"Kabupaten Aceh Tamiang, Aceh";"ACEH";"";"Indonesia";" 082267857347";"4.3421174";"98.0746974";"https://maps.google.com/?cid=0x0:0xaa11179b9fe4e3f6"
"supermarket";"Kafe";"Depot Air Minum SYIFA WATER";"839Q+8QG, Jl. Kualasimpang Ds. Bukit Suling Desa, Rantau Pauh, Kec. Rantau, Kabupaten Aceh Tamiang, Aceh 24476";"Jl. Kualasimpang Ds. Bukit Suling Desa, Rantau Pauh, Kec. Rantau, Kabupaten Aceh Tamiang";"ACEH";"24476";"Indonesia";" 081361618310";"4.3183044";"98.0894426";"https://maps.google.com/?cid=0x0:0x42079fabfd1e1ba4"
"supermarket";"Toko bahan makanan";"Warung Kelontong  Hotspot Wifi Hakim";"72H3+PFR, Lubuk Sidup, Kec. Sekerak, Kabupaten Aceh Tamiang, Aceh 24456";"Lubuk Sidup, Kec. Sekerak, Kabupaten Aceh Tamiang";"ACEH";"24456";"Indonesia";"";"4.2793591";"98.0036427";"https://maps.google.com/?cid=0x0:0x47b38284e52a9caf"
"supermarket";"Toko bahan makanan";"Warung Haulian Nuri";"jl letjend suprapto No.6, Sekerak Kiri, Kec. Sekerak, Kabupaten Aceh Tamiang, Aceh 24456";"Sekerak Kiri, Kec. Sekerak, Kabupaten Aceh Tamiang";"ACEH";"24456";"Indonesia";"";"4.2661072";"98.0252988";"https://maps.google.com/?cid=0x0:0xaa6d3b8cc3d51683"
"supermarket";"Toko bahan makanan";"Kedai Swalayan";"jalan simpang 3 gedong biara,tangsi lama seruway, Tangsi Lama, Kec. Seuruway, Kabupaten Aceh Tamiang, Aceh 24472";"Tangsi Lama, Kec. Seuruway, Kabupaten Aceh Tamiang";"ACEH";"24472";"Indonesia";" 085359673734";"4.3565242";"98.1768274";"https://maps.google.com/?cid=0x0:0x491467cfcc29a4fd"
"supermarket";"supermarket";"Kec. Bendahara";"Kabupaten Aceh Tamiang, Aceh";"Kabupaten Aceh Tamiang, Aceh";"ACEH";"";"Indonesia";"";"4.4074501";"98.1695001";"https://maps.google.com/?cid=0x0:0xa3729d585ef6a9a8"
"supermarket";"Penyedia Layanan Telekomunikasi";"Zm GroosMarket";"93CW+G8W, Jl. Tugu Opak, Simpang Empat, Kec. Karang Baru, Kabupaten Aceh Tamiang, Aceh 24472";"Jl. Tugu Opak, Simpang Empat, Kec. Karang Baru, Kabupaten Aceh Tamiang";"ACEH";"24472";"Indonesia";" 085277284284";"4.371354";"98.0958343";"https://maps.google.com/?cid=0x0:0x705bc6e2cf8ea170"
"supermarket";"Pemasok Peralatan Pertanian";"UD.Upah Tani(Mitra Bumi Persada)";"93CW+M99, Upah, Kec. Bendahara, Kabupaten Aceh Tamiang, Aceh 24472";"Upah, Kec. Bendahara, Kabupaten Aceh Tamiang";"ACEH";"24472";"Indonesia";"";"4.3716601";"98.0959737";"https://maps.google.com/?cid=0x0:0xc6a3d2d682014123"
"supermarket";"Toko Makanan";"NAJAH CEMILAN";"953J+6XG, Peukan Seuruway, Kec. Seuruway, Kabupaten Aceh Tamiang, Aceh 24472";"Peukan Seuruway, Kec. Seuruway, Kabupaten Aceh Tamiang";"ACEH";"24472";"Indonesia";" 085297201098";"4.3530806";"98.1823887";"https://maps.google.com/?cid=0x0:0x77aafe7917780449"
"supermarket";"Toko bahan makanan";"Toko M. Nurdin (Pak Din)";"95X9+84G, Mesjid Sungai Iyu, Kec. Bendahara, Kabupaten Aceh Tamiang, Aceh 24472";"Mesjid Sungai Iyu, Kec. Bendahara, Kabupaten Aceh Tamiang";"ACEH";"24472";"Indonesia";" 085359622500";"4.3982379";"98.1680889";"https://maps.google.com/?cid=0x0:0x622b435a8a55ce63"
"supermarket";"Kios";"SRC Rantau";"9465+MG4, Jalan, Kebun Rantau, Rantau, Aceh Tamiang Regency, Aceh 24472";"Jalan, Kebun Rantau, Rantau, Aceh Tamiang Regency";"ACEH";"24472";"Indonesia";" 081397438908";"4.3616482";"98.1088176";"https://maps.google.com/?cid=0x0:0x76b866191f57f323"
"supermarket";"Toko";"Toko Foto Copy Afkar";"C548+9V5, Mesjid Sungai Iyu, Kec. Bendahara, Kabupaten Aceh Tamiang, Aceh 24472";"Mesjid Sungai Iyu, Kec. Bendahara, Kabupaten Aceh Tamiang";"ACEH";"24472";"Indonesia";" 085276873410";"4.4058959";"98.1672336";"https://maps.google.com/?cid=0x0:0xd54d22158edb3a98"
"supermarket";"Toko Komputer";"AMANAH TERPERCAYA";"Dusun Gelumpang, Binjai, Kec. Seruway, Kabupaten Aceh Tamiang, Aceh 24472";"Binjai, Kec. Seruway, Kabupaten Aceh Tamiang";"ACEH";"24472";"Indonesia";" 085227626310";"4.3552733";"98.1641602";"https://maps.google.com/?cid=0x0:0x401a195d6b091bba"
"supermarket";"Kafe";"Kedai Alfatihah";"Raja, Kec. Bendahara, Kabupaten Aceh Tamiang, Aceh 24472";"Kec. Bendahara, Kabupaten Aceh Tamiang";"ACEH";"24472";"Indonesia";"";"4.3683142";"98.1707414";"https://maps.google.com/?cid=0x0:0xa164361f346c234a"
"supermarket";"Toko Kosmetik";"Toko S2N Store";"Dusun surya, Perkebunan Upah, Kec. Bendahara, Kabupaten Aceh Tamiang, Aceh 24472";"Perkebunan Upah, Kec. Bendahara, Kabupaten Aceh Tamiang";"ACEH";"24472";"Indonesia";" 082274773228";"4.3707284";"98.1099776";"https://maps.google.com/?cid=0x0:0x9c59ec2c8705732e"
"supermarket";"Toko Swalayan";"SALMA MARKET";"DUSUN PEKAN, Mesjid Sungai Iyu, Kec. Bendahara, KUALASIMPNG, Aceh 24472";"Mesjid Sungai Iyu, Kec. Bendahara, KUALASIMPNG";"ACEH";"24472";"Indonesia";" 082274220050";"4.4054065";"98.1680532";"https://maps.google.com/?cid=0x0:0x890d35d05a42044"
"supermarket";"Toko Perlengkapan Rumah";"Prabot BERDIKARI Usman";"95M7+VXP, Lubuk Batil, Kec. Bendahara, Kabupaten Aceh Tamiang, Aceh 24472";"Lubuk Batil, Kec. Bendahara, Kabupaten Aceh Tamiang";"ACEH";"24472";"Indonesia";" 081265590817";"4.3847033";"98.1649409";"https://maps.google.com/?cid=0x0:0x108c3b69de0222ea"
"supermarket";"Layanan Pengiriman Barang Kelontong";"Sembako perbatasan desa";"Jln, Tangsi Lama, Kec. Seuruway, Kabupaten Aceh Tamiang, Aceh 24473";"Tangsi Lama, Kec. Seuruway, Kabupaten Aceh Tamiang";"ACEH";"24473";"Indonesia";" 081212597681";"4.3531239";"98.1724085";"https://maps.google.com/?cid=0x0:0x4be496ccdfa7772c"
"supermarket";"Toko Swalayan";"ADA Market";"83RF+RVW, Jl. Medan Banda Aceh, Medang Ara, Kec. Karang Baru, Kabupaten Aceh Tamiang, Aceh";"Kabupaten Aceh Tamiang, Aceh";"ACEH";"";"Indonesia";" 082267857347";"4.3421174";"98.0746974";"https://maps.google.com/?cid=0x0:0xaa11179b9fe4e3f6"
"supermarket";"Pusat Perbelanjaan";"Azqia Swalayan";"Jl. Lintas Sumatra Jl. Medan Banda Aceh No.B, kp bunda, Kec. Karang Baru, Kabupaten Aceh Tamiang, Aceh 24456";"kp bunda, Kec. Karang Baru, Kabupaten Aceh Tamiang";"ACEH";"24456";"Indonesia";"";"4.4000178";"98.0658966";"https://maps.google.com/?cid=0x0:0x8de322c095f33a2b"
"supermarket";"supermarket";"Aceh 24476";"Kabupaten Aceh Tamiang, Aceh";"Kabupaten Aceh Tamiang, Aceh";"ACEH";"";"Indonesia";"";"4.3288776";"98.0628862";"https://maps.google.com/?cid=0x0:0x82d848b4ba041829"
"supermarket";"Kafe";"Depot Air Minum SYIFA WATER";"839Q+8QG, Jl. Kualasimpang Ds. Bukit Suling Desa, Rantau Pauh, Kec. Rantau, Kabupaten Aceh Tamiang, Aceh 24476";"Jl. Kualasimpang Ds. Bukit Suling Desa, Rantau Pauh, Kec. Rantau, Kabupaten Aceh Tamiang";"ACEH";"24476";"Indonesia";" 081361618310";"4.3183044";"98.0894426";"https://maps.google.com/?cid=0x0:0x42079fabfd1e1ba4"
"supermarket";"Toko bahan makanan";"SAQINA SWALAYAN";"Kode Pos, Jl. Kotalintang Atas No.4-10 Desa Kotalintang, Kota Kuala Simpang, Kabupaten Aceh Tamiang, Aceh 24475";"Jl. Kotalintang Atas No.4-10 Desa Kotalintang, Kota Kuala Simpang, Kabupaten Aceh Tamiang";"ACEH";"24475";"Indonesia";" 082272870801";"4.2862419";"98.0601654";"https://maps.google.com/?cid=0x0:0x4454e8d98c08493f"
"supermarket";"Toko Perlengkapan Rumah";"Usaha Kelontong";"JL. Medan-Banda Aceh, No. 52, Bandar, Karang Baru, Gampong Tupah, Kec. Karang Baru, Kabupaten Aceh Tamiang, Aceh 24476";"No. 52, Bandar, Karang Baru, Gampong Tupah, Kec. Karang Baru, Kabupaten Aceh Tamiang";"ACEH";"24476";"Indonesia";" 085213226590";"4.317483";"98.058443";"https://maps.google.com/?cid=0x0:0x4db7e8a912ed0ff3"
"supermarket";"Komplek perumahan";"Minimoll";"Perumahan Mutiara Residence 2 Blok C No. 1 Desa, Tanah Terban, Kec. Karang Baru, Kabupaten Aceh Tamiang, Aceh 24458";"Tanah Terban, Kec. Karang Baru, Kabupaten Aceh Tamiang";"ACEH";"24458";"Indonesia";" 08112349665";"4.3079314";"98.0611632";"https://maps.google.com/?cid=0x0:0x369a165b7d3f33fa"
"supermarket";"Toko Perlengkapan Rumah";"Sophie.Tamiang";"83PC+GC2, Jl. Medan Banda Aceh, Kebun Medang Ara, Kec. Karang Baru, Kabupaten Aceh Tamiang, Aceh 24476";"Jl. Medan Banda Aceh, Kebun Medang Ara, Kec. Karang Baru, Kabupaten Aceh Tamiang";"ACEH";"24476";"Indonesia";" 082275333698";"4.3362578";"98.0710201";"https://maps.google.com/?cid=0x0:0xd9322934867cc8ac"
"supermarket";"Toko umum";"Halal Mart AC Rahmadaniar";"Dusun Damai, Desa Dalam, Kec. Karang Baru, Kabupaten Aceh Tamiang, Aceh 24476";"Desa Dalam, Kec. Karang Baru, Kabupaten Aceh Tamiang";"ACEH";"24476";"Indonesia";" 081361357451";"4.3026059";"98.0476514";"https://maps.google.com/?cid=0x0:0x40f8a8f750b5a049"
"supermarket";"Pusat Perbelanjaan";"Mumtaz Store Aceh";"8385+258 Dusun Sejahtera, Gg. Anggrek, Tanah Terban, Kec. Karang Baru, Kabupaten Aceh Tamiang, Aceh 24476";"Gg. Anggrek, Tanah Terban, Kec. Karang Baru, Kabupaten Aceh Tamiang";"ACEH";"24476";"Indonesia";" 082258228518";"4.3150313";"98.057955";"https://maps.google.com/?cid=0x0:0xbd7bbbb04edbcb4e"
"supermarket";"Pusat Perbelanjaan";"TOSERBA TAMIANG";"83QG+7Q, Medang Ara, Kec. Karang Baru, Kabupaten Aceh Tamiang, Aceh";"Kabupaten Aceh Tamiang, Aceh";"ACEH";"";"Indonesia";" 082160950816";"4.338166";"98.076895";"https://maps.google.com/?cid=0x0:0x7d29902e8ec8f2df"
"supermarket";"Kedai Kopi";"suddut kota coffee and space";"83C6+8PP, Jl. Lintas Sumatra, Gampong Johar, Kec. Karang Baru, Kabupaten Aceh Tamiang, Aceh 24476";"Jl. Lintas Sumatra, Gampong Johar, Kec. Karang Baru, Kabupaten Aceh Tamiang";"ACEH";"24476";"Indonesia";"";"4.32084";"98.0618322";"https://maps.google.com/?cid=0x0:0xf9dfd9a723b5ffef"
"supermarket";"Toko";"UD.Yahya";"73WJ+2QX, Kp. Durian, Kec. Rantau, Kabupaten Aceh Tamiang, Aceh 24476";"Kp. Durian, Kec. Rantau, Kabupaten Aceh Tamiang";"ACEH";"24476";"Indonesia";" 082367279178";"4.295108";"98.081994";"https://maps.google.com/?cid=0x0:0x32d58f1ef97faee0"
"supermarket";"Minimarket";"Alfamart Cut Nyak Dhien";"73Q5+498, Kota Lintang, Kota Kuala Simpang, Kabupaten Aceh Tamiang, Aceh 24456";"Kota Lintang, Kota Kuala Simpang, Kabupaten Aceh Tamiang";"ACEH";"24456";"Indonesia";"";"4.2877768";"98.0584681";"https://maps.google.com/?cid=0x0:0x44090b1c16b9b66c"
"supermarket";"Supermarket Industri";"Indomaret";"53J2+QM4, Seumadam, Kec. Kejuruan Muda, Kabupaten Aceh Tamiang, Aceh 24474";"Seumadam, Kec. Kejuruan Muda, Kabupaten Aceh Tamiang";"ACEH";"24474";"Indonesia";"";"4.1818957";"98.0517172";"https://maps.google.com/?cid=0x0:0x16bf8075d71a29c3"
"supermarket";"Kafe";"Warung bik Emik";"4XQV+FC9, Kebun Sungai Liput, Kec. Kejuruan Muda, Kabupaten Aceh Tamiang, Aceh 24477";"Kebun Sungai Liput, Kec. Kejuruan Muda, Kabupaten Aceh Tamiang";"ACEH";"24477";"Indonesia";"";"4.1386581";"97.9935958";"https://maps.google.com/?cid=0x0:0x4ada615605e0f4f9"
"supermarket";"supermarket";"Kec. Kejuruan Muda";"Kabupaten Aceh Tamiang, Aceh";"Kabupaten Aceh Tamiang, Aceh";"ACEH";"";"Indonesia";"";"4.2310452";"98.0585627";"https://maps.google.com/?cid=0x0:0x31c3ba765be70142"
"supermarket";"Konsultan makanan dan minuman";"DRP_YOSIA";"7336+WMF, Jl. Medan - Banda Aceh, kebun tengah, Kec. Kejuruan Muda, Kabupaten Aceh Tamiang, Aceh 24475";"Jl. Medan - Banda Aceh, kebun tengah, Kec. Kejuruan Muda, Kabupaten Aceh Tamiang";"ACEH";"24475";"Indonesia";" 081269664779";"4.2548122";"98.061671";"https://maps.google.com/?cid=0x0:0x2226657d3ff96f45"
"supermarket";"Toko bahan makanan";"Toko Madan";"Seumadam, Kec. Kejuruan Muda, Kabupaten Aceh Tamiang, Aceh 24474";"Kec. Kejuruan Muda, Kabupaten Aceh Tamiang";"ACEH";"24474";"Indonesia";" 081263761826";"4.1819011";"98.0517302";"https://maps.google.com/?cid=0x0:0x206dd046de75c2f"
"supermarket";"Toko Swalayan";"Agz Drew";"7327+5RF, Bukit Rata, Kec. Kejuruan Muda, Kabupaten Aceh Tamiang, Aceh 24475";"Bukit Rata, Kec. Kejuruan Muda, Kabupaten Aceh Tamiang";"ACEH";"24475";"Indonesia";" 085277876659";"4.25044";"98.0645344";"https://maps.google.com/?cid=0x0:0x4f0d276aa011c8b9"
"supermarket";"Minimarket";"Toko sembako ira";"5X4P+25W, Unnamed Road, Alur Selebu, Kec. Kejuruan Muda, Kabupaten Aceh Tamiang, Aceh 24477";"Unnamed Road, Alur Selebu, Kec. Kejuruan Muda, Kabupaten Aceh Tamiang";"ACEH";"24477";"Indonesia";"";"4.155109";"97.985452";"https://maps.google.com/?cid=0x0:0x8ea4b1d4bd8bccba"
"supermarket";"Minimarket";"Alfamidi Kota Kuala Simpang";"73P7+CJC, Bukit Tempurung, Kota Kuala Simpang, Kabupaten Aceh Tamiang, Aceh 24456";"Bukit Tempurung, Kota Kuala Simpang, Kabupaten Aceh Tamiang";"ACEH";"24456";"Indonesia";"";"4.2860688";"98.064011";"https://maps.google.com/?cid=0x0:0x72d0da6f13af3c02"
"supermarket";"Toko umum";"Kedai Eman";"62F6+4VV, Simpang Kanan, Kec. Kejuruan Muda, Kabupaten Aceh Tamiang, Aceh 24474";"Simpang Kanan, Kec. Kejuruan Muda, Kabupaten Aceh Tamiang";"ACEH";"24474";"Indonesia";"";"4.2228747";"98.0121741";"https://maps.google.com/?cid=0x0:0xbd58c368e1f5f191"
"supermarket";"Toko bahan makanan";"SAQINA SWALAYAN";"Kode Pos, Jl. Kotalintang Atas No.4-10 Desa Kotalintang, Kota Kuala Simpang, Kabupaten Aceh Tamiang, Aceh 24475";"Jl. Kotalintang Atas No.4-10 Desa Kotalintang, Kota Kuala Simpang, Kabupaten Aceh Tamiang";"ACEH";"24475";"Indonesia";" 082272870801";"4.2862419";"98.0601654";"https://maps.google.com/?cid=0x0:0x4454e8d98c08493f"
"supermarket";"Toko bahan makanan";"Indomaret ir.juanda";"73Q2+6Q3, Kesehatan, Kec. Karang Baru, Kabupaten Aceh Tamiang, Aceh 24456";"Kesehatan, Kec. Karang Baru, Kabupaten Aceh Tamiang";"ACEH";"24456";"Indonesia";"";"4.2880026";"98.0519217";"https://maps.google.com/?cid=0x0:0xec4a81c39632b01e"
"supermarket";"Toko Swalayan";"Kedai Lek Subur Bik Hartini";"6XHG+QGC, Gerenggam, Kec. Kejuruan Muda, Kabupaten Aceh Tamiang, Aceh 24382";"Gerenggam, Kec. Kejuruan Muda, Kabupaten Aceh Tamiang";"ACEH";"24382";"Indonesia";"";"4.2294415";"97.9762636";"https://maps.google.com/?cid=0x0:0x2b0da09513fb48c7"
"supermarket";"Minimarket";"Indomaret Sriwijaya Kuala Simpang";"73H4+JR6, Sriwijaya, Kota Kuala Simpang, Kabupaten Aceh Tamiang, Aceh";"Kabupaten Aceh Tamiang, Aceh";"ACEH";"";"Indonesia";"";"4.2790498";"98.0570165";"https://maps.google.com/?cid=0x0:0xe84c30ffd0ebfc2a"
"supermarket";"Minimarket";"Alfamart Cut Nyak Dhien";"73Q5+498, Kota Lintang, Kota Kuala Simpang, Kabupaten Aceh Tamiang, Aceh 24456";"Kota Lintang, Kota Kuala Simpang, Kabupaten Aceh Tamiang";"ACEH";"24456";"Indonesia";"";"4.2877768";"98.0584681";"https://maps.google.com/?cid=0x0:0x44090b1c16b9b66c"
"supermarket";"supermarket";"Aceh 24475";"Kec. Linge, Kabupaten Aceh Tengah, Aceh";"Kabupaten Aceh Tengah, Aceh";"ACEH";"";"Indonesia";"";"4.2473925";"98.0738001";"https://maps.google.com/?cid=0x0:0x54d58570dde5bc9e"
"supermarket";"Toko bahan makanan";"SAQINA SWALAYAN";"Kode Pos, Jl. Kotalintang Atas No.4-10 Desa Kotalintang, Kota Kuala Simpang, Kabupaten Aceh Tamiang, Aceh 24475";"Jl. Kotalintang Atas No.4-10 Desa Kotalintang, Kota Kuala Simpang, Kabupaten Aceh Tamiang";"ACEH";"24475";"Indonesia";" 082272870801";"4.2862419";"98.0601654";"https://maps.google.com/?cid=0x0:0x4454e8d98c08493f"
"supermarket";"Minimarket";"Alfamidi Kota Kuala Simpang";"73P7+CJC, Bukit Tempurung, Kota Kuala Simpang, Kabupaten Aceh Tamiang, Aceh 24456";"Bukit Tempurung, Kota Kuala Simpang, Kabupaten Aceh Tamiang";"ACEH";"24456";"Indonesia";"";"4.2860688";"98.064011";"https://maps.google.com/?cid=0x0:0x72d0da6f13af3c02"
"supermarket";"Toko Perlengkapan Olah Raga Lari";"All Sports";"Jl. Rantau, Bukit Tempurung, Kota Kuala Simpang, kualasimpang, Aceh 24475";"Bukit Tempurung, Kota Kuala Simpang, kualasimpang";"ACEH";"24475";"Indonesia";" 085260890650";"4.2855963";"98.0630805";"https://maps.google.com/?cid=0x0:0xa3c048bbd1dc2d2f"
"supermarket";"Toko Roti";"Toko Bahan Kue Ala.cake";"Jalan. Pasar Pagi No.3, Kota Lintang, Kota Kuala Simpang, Kabupaten Aceh Tamiang, Aceh 24475";"Kota Lintang, Kota Kuala Simpang, Kabupaten Aceh Tamiang";"ACEH";"24475";"Indonesia";" 085277502205";"4.2859746";"98.0608568";"https://maps.google.com/?cid=0x0:0x3eae29025074c6e7"
"supermarket";"Kedai Kopi";"Sagoe Kupi";"Kota Kuala Simpang, Kabupaten Aceh Tamiang, Aceh 24456";"Kabupaten Aceh Tamiang";"ACEH";"24456";"Indonesia";" 085262284545";"4.2825875";"98.0599619";"https://maps.google.com/?cid=0x0:0xe2c7f998b9dc58cc"
"supermarket";"Toko Swalayan";"Indomaret";"Jl. Cut Nyak Dien Kel. Kota Kuala Simpang, Lintang City, Kuala Simpang City, Aceh Tamiang Regency, Aceh 24475";"Lintang City, Kuala Simpang City, Aceh Tamiang Regency";"ACEH";"24475";"Indonesia";" 0816500580";"4.2878498";"98.0581954";"https://maps.google.com/?cid=0x0:0x5721af0ad87aaf7"
"supermarket";"Toko Pakaian Wanita";"Tiara Gallery Kualasimpang";"Jl. Kampung Durian, Desa Suka jadi, Dusun Dewi 2, Tamiang. 24474, Suka Mulia, Rantau, Aceh Tamiang Regency, Aceh 24453";"Tamiang.";"ACEH";"24474";"Indonesia";" 082366604555";"4.2712165";"98.1089994";"https://maps.google.com/?cid=0x0:0x4e85ae8bd3c4e8bb"
"supermarket";"Toko Rokok Elektrik";"Freedom Vape";"Unnamed Road, Kota Kuala Simpang, Kabupaten Aceh Tamiang, Aceh 24458";"Kota Kuala Simpang, Kabupaten Aceh Tamiang";"ACEH";"24458";"Indonesia";" 082259425153";"4.2839685";"98.0593005";"https://maps.google.com/?cid=0x0:0x8bc767e72361d9aa"
"supermarket";"Toko Aksesori Ponsel";"WS Store kuala simpang";"Jalan rantau kuala simpang ruko pertiwi Jalan rantau titi putih, Kota Kuala Simpang, Aceh 24475";"Kota Kuala Simpang";"ACEH";"24475";"Indonesia";" 083852365189";"4.2884938";"98.0683793";"https://maps.google.com/?cid=0x0:0x1c8efdf7892563f9"
"supermarket";"Kafe";"ATAP LANGIT ESPRESSO  BREW BAR";"Sriwijaya, Kota Kuala Simpang, Kabupaten Aceh Tamiang, Aceh 24456";"Kota Kuala Simpang, Kabupaten Aceh Tamiang";"ACEH";"24456";"Indonesia";" 085322010716";"4.2822693";"98.0586696";"https://maps.google.com/?cid=0x0:0x98b6c2d3e5c57e35"
"supermarket";"Kafe";"Warkop Simpang Kuala";"FXHH+HQP, Sungai Pauh, Kec. Langsa Kota, Kota Langsa, Aceh 24355";"Sungai Pauh, Kec. Langsa Kota, Kota Langsa";"ACEH";"24355";"Indonesia";"";"4.4789592";"97.9794602";"https://maps.google.com/?cid=0x0:0x2dbb219435d5a079"
"supermarket";"Pedagang tekstil";"Basrija Store by Erdian";"JL. Nyak Umar No.19, Kota Kuala Simpang, Kabupaten Aceh Tamiang, Aceh 24456";"Kota Kuala Simpang, Kabupaten Aceh Tamiang";"ACEH";"24456";"Indonesia";" 085294076694";"4.2842846";"98.0592383";"https://maps.google.com/?cid=0x0:0xe43f71ebbb72071f"
"supermarket";"Toko Jam";"Toko Jam New Garuda Kualasimpang";"Jl. Iskandar Muda, Kota Kuala Simpang, Kabupaten Aceh Tamiang, Aceh 24475";"Kota Kuala Simpang, Kabupaten Aceh Tamiang";"ACEH";"24475";"Indonesia";" 081360125088";"4.2856965";"98.0592343";"https://maps.google.com/?cid=0x0:0x79d29b206c179dba"
"supermarket";"supermarket";"Aceh 24471";"Aceh";"Aceh";"ACEH";"";"Indonesia";"";"4.3465057";"97.8395151";"https://maps.google.com/?cid=0x0:0x6a96af07474c986b"
"supermarket";"Minimarket";"SHAFA Mart";"93XC+H94, Dusun Pembangunan, Tualang Baru, Kec. Manyak Payed, Kabupaten Aceh Tamiang, Aceh 24471";"Dusun Pembangunan, Tualang Baru, Kec. Manyak Payed, Kabupaten Aceh Tamiang";"ACEH";"24471";"Indonesia";" 08116870512";"4.3988802";"98.070953";"https://maps.google.com/?cid=0x0:0x9588ba136bd0fd0"
"supermarket";"Toko bahan makanan";"Alfamart Tualang Cut";"93XC+JPG, Tualang Baru, Kec. Manyak Payed, Kabupaten Aceh Tamiang, Aceh 24471";"Tualang Baru, Kec. Manyak Payed, Kabupaten Aceh Tamiang";"ACEH";"24471";"Indonesia";"";"4.3990513";"98.0718405";"https://maps.google.com/?cid=0x0:0x10f1015fced904bd"
"supermarket";"Toko bahan makanan";"Ud Murah Raya(Houmangat Raya)";"C24F+CPG, Seuneubok Punti, Kec. Manyak Payed, Kabupaten Aceh Tamiang, Aceh 24471";"Seuneubok Punti, Kec. Manyak Payed, Kabupaten Aceh Tamiang";"ACEH";"24471";"Indonesia";"";"4.4060502";"98.0243233";"https://maps.google.com/?cid=0x0:0xc84967a7f77e47e0"
"supermarket";"Toko bahan makanan";"Toko Tani";"C328+239, Jalan, Gelanggang Merak, Manyak Payed, Aceh Tamiang Regency, Aceh 24471";"Jalan, Gelanggang Merak, Manyak Payed, Aceh Tamiang Regency";"ACEH";"24471";"Indonesia";"";"4.4000633";"98.0652393";"https://maps.google.com/?cid=0x0:0x6665252f4fc02bc6"
"supermarket";"Pusat Perbelanjaan";"Rumah Ahmad Fuadi";"C393+2RG, Matang Cincin, Kec. Manyak Payed, Kabupaten Aceh Tamiang, Aceh 24471";"Matang Cincin, Kec. Manyak Payed, Kabupaten Aceh Tamiang";"ACEH";"24471";"Indonesia";"";"4.4175615";"98.0545882";"https://maps.google.com/?cid=0x0:0x863377693218ac4c"
"supermarket";"Toko bahan makanan";"SAQINA SWALAYAN";"Kode Pos, Jl. Kotalintang Atas No.4-10 Desa Kotalintang, Kota Kuala Simpang, Kabupaten Aceh Tamiang, Aceh 24475";"Jl. Kotalintang Atas No.4-10 Desa Kotalintang, Kota Kuala Simpang, Kabupaten Aceh Tamiang";"ACEH";"24475";"Indonesia";" 082272870801";"4.2862419";"98.0601654";"https://maps.google.com/?cid=0x0:0x4454e8d98c08493f"
"supermarket";"Kafe";"Abas";"93X9+JWX, Jl. Lintas Sumatra, Tualang Baru, Kec. Manyak Payed, Kabupaten Aceh Tamiang, Aceh 24471";"Jl. Lintas Sumatra, Tualang Baru, Kec. Manyak Payed, Kabupaten Aceh Tamiang";"ACEH";"24471";"Indonesia";" 08527562998";"4.3991236";"98.0698475";"https://maps.google.com/?cid=0x0:0xcf8f37dcab7a61d3"
"supermarket";"Toko Swalayan";"Depot es kristal pratama saptamarga";"93XC+HJF, Ie Bintah, Kec. Manyak Payed, Kabupaten Aceh Tamiang, Aceh";"Kabupaten Aceh Tamiang, Aceh";"ACEH";"";"Indonesia";"";"4.3989252";"98.0715482";"https://maps.google.com/?cid=0x0:0xc72863b0f4889511"
"supermarket";"Perusahaan air mineral";"Rivo water";"92XW+P9C, Benteng Anyer, Kec. Manyak Payed, Kabupaten Aceh Tamiang, Aceh 24471";"Benteng Anyer, Kec. Manyak Payed, Kabupaten Aceh Tamiang";"ACEH";"24471";"Indonesia";"";"4.3993203";"98.0458792";"https://maps.google.com/?cid=0x0:0xf72bbf3ff2385f40"
"supermarket";"Toko";"ayam potong wak parno";"C387+43V, Matang Ara Jawa, Kec. Manyak Payed, Kabupaten Aceh Tamiang, Aceh 24471";"Matang Ara Jawa, Kec. Manyak Payed, Kabupaten Aceh Tamiang";"ACEH";"24471";"Indonesia";" 082165267781";"4.4153736";"98.0626687";"https://maps.google.com/?cid=0x0:0x5f5c597b56085057"
"supermarket";"Minimarket";"Alfamart Cut Nyak Dhien";"73Q5+498, Kota Lintang, Kota Kuala Simpang, Kabupaten Aceh Tamiang, Aceh 24456";"Kota Lintang, Kota Kuala Simpang, Kabupaten Aceh Tamiang";"ACEH";"24456";"Indonesia";"";"4.2877768";"98.0584681";"https://maps.google.com/?cid=0x0:0x44090b1c16b9b66c"
"supermarket";"Toko Pakaian";"Pakaian polos";"Jl. Medan Banda Aceh, Tualang Baru, Kec. Manyak Payed, Kabupaten Aceh Tamiang, Aceh 24471";"Tualang Baru, Kec. Manyak Payed, Kabupaten Aceh Tamiang";"ACEH";"24471";"Indonesia";"";"4.4018644";"98.0728035";"https://maps.google.com/?cid=0x0:0x70ceaa396143f807"
"supermarket";"Toko Swalayan";"Narata Swalayan";"FXCC+GQ2, Peukan Langsa, Kec. Langsa Kota, Kota Langsa, Aceh 24375";"Peukan Langsa, Kec. Langsa Kota, Kota Langsa";"ACEH";"24375";"Indonesia";"";"4.471271";"97.9718906";"https://maps.google.com/?cid=0x0:0x59539aad5b873999"
"supermarket";"supermarket";"Aceh 24474";"Kec. Kejuruan Muda, Kabupaten Aceh Tamiang, Aceh";"Kabupaten Aceh Tamiang, Aceh";"ACEH";"";"Indonesia";"";"4.2123421";"98.0247005";"https://maps.google.com/?cid=0x0:0xe116e26a288dda02"
"supermarket";"Kios";"SRC Rantau";"9465+MG4, Jalan, Kebun Rantau, Rantau, Aceh Tamiang Regency, Aceh 24472";"Jalan, Kebun Rantau, Rantau, Aceh Tamiang Regency";"ACEH";"24472";"Indonesia";" 081397438908";"4.3616482";"98.1088176";"https://maps.google.com/?cid=0x0:0x76b866191f57f323"
"supermarket";"Supermarket Industri";"Indomaret";"53J2+QM4, Seumadam, Kec. Kejuruan Muda, Kabupaten Aceh Tamiang, Aceh 24474";"Seumadam, Kec. Kejuruan Muda, Kabupaten Aceh Tamiang";"ACEH";"24474";"Indonesia";"";"4.1818957";"98.0517172";"https://maps.google.com/?cid=0x0:0x16bf8075d71a29c3"
"supermarket";"Toko Swalayan";"Warung Shaleh";"7489+QGV, Suka Mulia, Kec. Rantau, Kabupaten Aceh Tamiang, Aceh 24453";"Suka Mulia, Kec. Rantau, Kabupaten Aceh Tamiang";"ACEH";"24453";"Indonesia";"";"4.2669967";"98.1187942";"https://maps.google.com/?cid=0x0:0x9c327316a6a65bcc"
"supermarket";"Toko bahan makanan";"Toko Madan";"Seumadam, Kec. Kejuruan Muda, Kabupaten Aceh Tamiang, Aceh 24474";"Kec. Kejuruan Muda, Kabupaten Aceh Tamiang";"ACEH";"24474";"Indonesia";" 081263761826";"4.1819011";"98.0517302";"https://maps.google.com/?cid=0x0:0x206dd046de75c2f"
"supermarket";"Toko umum";"Kedai Eman";"62F6+4VV, Simpang Kanan, Kec. Kejuruan Muda, Kabupaten Aceh Tamiang, Aceh 24474";"Simpang Kanan, Kec. Kejuruan Muda, Kabupaten Aceh Tamiang";"ACEH";"24474";"Indonesia";"";"4.2228747";"98.0121741";"https://maps.google.com/?cid=0x0:0xbd58c368e1f5f191"
"supermarket";"Toko Swalayan";"ADA Market";"83RF+RVW, Jl. Medan Banda Aceh, Medang Ara, Kec. Karang Baru, Kabupaten Aceh Tamiang, Aceh";"Kabupaten Aceh Tamiang, Aceh";"ACEH";"";"Indonesia";" 082267857347";"4.3421174";"98.0746974";"https://maps.google.com/?cid=0x0:0xaa11179b9fe4e3f6"
"supermarket";"supermarket";"Aceh 24476";"Kabupaten Aceh Tamiang, Aceh";"Kabupaten Aceh Tamiang, Aceh";"ACEH";"";"Indonesia";"";"4.3288776";"98.0628862";"https://maps.google.com/?cid=0x0:0x82d848b4ba041829"
"supermarket";"Kafe";"Depot Air Minum SYIFA WATER";"839Q+8QG, Jl. Kualasimpang Ds. Bukit Suling Desa, Rantau Pauh, Kec. Rantau, Kabupaten Aceh Tamiang, Aceh 24476";"Jl. Kualasimpang Ds. Bukit Suling Desa, Rantau Pauh, Kec. Rantau, Kabupaten Aceh Tamiang";"ACEH";"24476";"Indonesia";" 081361618310";"4.3183044";"98.0894426";"https://maps.google.com/?cid=0x0:0x42079fabfd1e1ba4"
"supermarket";"Toko bahan makanan";"SAQINA SWALAYAN";"Kode Pos, Jl. Kotalintang Atas No.4-10 Desa Kotalintang, Kota Kuala Simpang, Kabupaten Aceh Tamiang, Aceh 24475";"Jl. Kotalintang Atas No.4-10 Desa Kotalintang, Kota Kuala Simpang, Kabupaten Aceh Tamiang";"ACEH";"24475";"Indonesia";" 082272870801";"4.2862419";"98.0601654";"https://maps.google.com/?cid=0x0:0x4454e8d98c08493f"
"supermarket";"Toko";"UD.Yahya";"73WJ+2QX, Kp. Durian, Kec. Rantau, Kabupaten Aceh Tamiang, Aceh 24476";"Kp. Durian, Kec. Rantau, Kabupaten Aceh Tamiang";"ACEH";"24476";"Indonesia";" 082367279178";"4.295108";"98.081994";"https://maps.google.com/?cid=0x0:0x32d58f1ef97faee0"
"supermarket";"Toko bahan makanan";"Zia Grosir Sembako";"Dusun Lalang, Alur Cucur, Kec. Rantau, Kabupaten Aceh Tamiang, Aceh 24474";"Alur Cucur, Kec. Rantau, Kabupaten Aceh Tamiang";"ACEH";"24474";"Indonesia";"";"4.3235908";"98.1011346";"https://maps.google.com/?cid=0x0:0x2564c48692187ed9"
"supermarket";"Toko";"Kedeh wak ulik";"73WJ+2QX, Kp. Durian, Kec. Rantau, Kabupaten Aceh Tamiang, Aceh 24476";"Kp. Durian, Kec. Rantau, Kabupaten Aceh Tamiang";"ACEH";"24476";"Indonesia";"";"4.2951362";"98.0819973";"https://maps.google.com/?cid=0x0:0xc81e0b94a0daff2e"
"supermarket";"Toko Perlengkapan Rumah";"Sophie.Tamiang";"83PC+GC2, Jl. Medan Banda Aceh, Kebun Medang Ara, Kec. Karang Baru, Kabupaten Aceh Tamiang, Aceh 24476";"Jl. Medan Banda Aceh, Kebun Medang Ara, Kec. Karang Baru, Kabupaten Aceh Tamiang";"ACEH";"24476";"Indonesia";" 082275333698";"4.3362578";"98.0710201";"https://maps.google.com/?cid=0x0:0xd9322934867cc8ac"
"supermarket";"Pusat Perbelanjaan";"Al-kahfi Market";"73QH+PXV, Jalan, Kampung Durian, Rantau, Aceh Tamiang Regency, Aceh 24476";"Jalan, Kampung Durian, Rantau, Aceh Tamiang Regency";"ACEH";"24476";"Indonesia";" 085373010010";"4.2893715";"98.0799127";"https://maps.google.com/?cid=0x0:0xdf5fc199c61c520f"
"supermarket";"Minimarket";"Indomaret SPBU Titi putih";"73Q8+9J4, Benua Raja, Kec. Rantau, Kabupaten Aceh Tamiang, Aceh 24456";"Benua Raja, Kec. Rantau, Kabupaten Aceh Tamiang";"ACEH";"24456";"Indonesia";"";"4.2883979";"98.0665639";"https://maps.google.com/?cid=0x0:0xf85e22202646a1f6"
"supermarket";"Minimarket";"Alfamart Cut Nyak Dhien";"73Q5+498, Kota Lintang, Kota Kuala Simpang, Kabupaten Aceh Tamiang, Aceh 24456";"Kota Lintang, Kota Kuala Simpang, Kabupaten Aceh Tamiang";"ACEH";"24456";"Indonesia";"";"4.2877768";"98.0584681";"https://maps.google.com/?cid=0x0:0x44090b1c16b9b66c"
"supermarket";"Minimarket";"Alfamidi Kota Kuala Simpang";"73P7+CJC, Bukit Tempurung, Kota Kuala Simpang, Kabupaten Aceh Tamiang, Aceh 24456";"Bukit Tempurung, Kota Kuala Simpang, Kabupaten Aceh Tamiang";"ACEH";"24456";"Indonesia";"";"4.2860688";"98.064011";"https://maps.google.com/?cid=0x0:0x72d0da6f13af3c02"
"supermarket";"Pusat Perbelanjaan";"TOKO SRC RAHMAD";"8322+236, Dalam, Kec. Karang Baru, Kabupaten Aceh Tamiang, Aceh 24456";"Dalam, Kec. Karang Baru, Kabupaten Aceh Tamiang";"ACEH";"24456";"Indonesia";" 085275216792";"4.3000304";"98.0501484";"https://maps.google.com/?cid=0x0:0x9a486f9c1229a734"
"supermarket";"Toko umum";"Super";"73R5+6HG, JL Cut Nyak Dhien, Kota Lintang, Kota Kuala Simpang, Aceh Tamiang, Kota Lintang, Langsa, Kabupaten Aceh Tamiang, Aceh 24456";"JL Cut Nyak Dhien, Kota Lintang, Kota Kuala Simpang, Aceh Tamiang, Kota Lintang, Langsa, Kabupaten Aceh Tamiang";"ACEH";"24456";"Indonesia";" 085261902740";"4.2905658";"98.0589652";"https://maps.google.com/?cid=0x0:0xefd2873909cd5cbf"
"supermarket";"supermarket";"Aceh 24473";"Aceh";"Aceh";"ACEH";"";"Indonesia";"";"4.2670304";"98.1393179";"https://maps.google.com/?cid=0x0:0x7edc8ec14cab902a"
"supermarket";"Pusat Perbelanjaan";"Azqia Swalayan";"Jl. Lintas Sumatra Jl. Medan Banda Aceh No.B, kp bunda, Kec. Karang Baru, Kabupaten Aceh Tamiang, Aceh 24456";"kp bunda, Kec. Karang Baru, Kabupaten Aceh Tamiang";"ACEH";"24456";"Indonesia";"";"4.4000178";"98.0658966";"https://maps.google.com/?cid=0x0:0x8de322c095f33a2b"
"supermarket";"Toko bahan makanan";"Kedai Swalayan";"jalan simpang 3 gedong biara,tangsi lama seruway, Tangsi Lama, Kec. Seuruway, Kabupaten Aceh Tamiang, Aceh 24472";"Tangsi Lama, Kec. Seuruway, Kabupaten Aceh Tamiang";"ACEH";"24472";"Indonesia";" 085359673734";"4.3565242";"98.1768274";"https://maps.google.com/?cid=0x0:0x491467cfcc29a4fd"
"supermarket";"Toko bahan makanan";"Warung Ismadi";"Suka Mulia, 24352, Rantau, Suka Mulia, Kec. Rantau, Kabupaten Aceh Tamiang, Aceh 24352";"24352, Rantau, Suka Mulia, Kec. Rantau, Kabupaten Aceh Tamiang";"ACEH";"24352";"Indonesia";"";"4.2699306";"98.1497727";"https://maps.google.com/?cid=0x0:0x22114d359e798133"
"supermarket";"Toko Swalayan";"Warung Shaleh";"7489+QGV, Suka Mulia, Kec. Rantau, Kabupaten Aceh Tamiang, Aceh 24453";"Suka Mulia, Kec. Rantau, Kabupaten Aceh Tamiang";"ACEH";"24453";"Indonesia";"";"4.2669967";"98.1187942";"https://maps.google.com/?cid=0x0:0x9c327316a6a65bcc"
"supermarket";"Kafe";"Depot Air Minum SYIFA WATER";"839Q+8QG, Jl. Kualasimpang Ds. Bukit Suling Desa, Rantau Pauh, Kec. Rantau, Kabupaten Aceh Tamiang, Aceh 24476";"Jl. Kualasimpang Ds. Bukit Suling Desa, Rantau Pauh, Kec. Rantau, Kabupaten Aceh Tamiang";"ACEH";"24476";"Indonesia";" 081361618310";"4.3183044";"98.0894426";"https://maps.google.com/?cid=0x0:0x42079fabfd1e1ba4"
"supermarket";"Toko bahan makanan";"SAQINA SWALAYAN";"Kode Pos, Jl. Kotalintang Atas No.4-10 Desa Kotalintang, Kota Kuala Simpang, Kabupaten Aceh Tamiang, Aceh 24475";"Jl. Kotalintang Atas No.4-10 Desa Kotalintang, Kota Kuala Simpang, Kabupaten Aceh Tamiang";"ACEH";"24475";"Indonesia";" 082272870801";"4.2862419";"98.0601654";"https://maps.google.com/?cid=0x0:0x4454e8d98c08493f"
"supermarket";"Penyedia Layanan Telekomunikasi";"Zm GroosMarket";"93CW+G8W, Jl. Tugu Opak, Simpang Empat, Kec. Karang Baru, Kabupaten Aceh Tamiang, Aceh 24472";"Jl. Tugu Opak, Simpang Empat, Kec. Karang Baru, Kabupaten Aceh Tamiang";"ACEH";"24472";"Indonesia";" 085277284284";"4.371354";"98.0958343";"https://maps.google.com/?cid=0x0:0x705bc6e2cf8ea170"
"supermarket";"Pasar";"Pasar Jumat Seruway";"953J+4H7, Unnamed Road, Peukan Seuruway, Kec. Seuruway, Kabupaten Aceh Tamiang, Aceh 24472";"Unnamed Road, Peukan Seuruway, Kec. Seuruway, Kabupaten Aceh Tamiang";"ACEH";"24472";"Indonesia";"";"4.3527856";"98.1814359";"https://maps.google.com/?cid=0x0:0x2cb2ec2fc3cecf18"
"supermarket";"Minimarket";"Indomaret Sriwijaya Kuala Simpang";"73H4+JR6, Sriwijaya, Kota Kuala Simpang, Kabupaten Aceh Tamiang, Aceh";"Kabupaten Aceh Tamiang, Aceh";"ACEH";"";"Indonesia";"";"4.2790498";"98.0570165";"https://maps.google.com/?cid=0x0:0xe84c30ffd0ebfc2a"
"supermarket";"Toko bahan makanan";"Zia Grosir Sembako";"Dusun Lalang, Alur Cucur, Kec. Rantau, Kabupaten Aceh Tamiang, Aceh 24474";"Alur Cucur, Kec. Rantau, Kabupaten Aceh Tamiang";"ACEH";"24474";"Indonesia";"";"4.3235908";"98.1011346";"https://maps.google.com/?cid=0x0:0x2564c48692187ed9"
"supermarket";"Toko Sepeda";"Sepeda Jaya";"C548+7R4, Mesjid Sungai Iyu, Kec. Bendahara, Kabupaten Aceh Tamiang, Aceh 24472";"Mesjid Sungai Iyu, Kec. Bendahara, Kabupaten Aceh Tamiang";"ACEH";"24472";"Indonesia";"";"4.4056413";"98.1670857";"https://maps.google.com/?cid=0x0:0x16d3269f7b74f057"
"supermarket";"Toko Swalayan";"Scholl Arini";"74M5+H53, Suka Rakyat, Kec. Rantau, Kabupaten Aceh Tamiang, Aceh";"Kabupaten Aceh Tamiang, Aceh";"ACEH";"";"Indonesia";"";"4.2838858";"98.1079166";"https://maps.google.com/?cid=0x0:0xb4e824d7f8073cf6"
"supermarket";"Toko Bahan Bangunan";"UD.APIN JAYA";"953M+M3H, Peukan Seuruway, Kec. Seuruway, Kabupaten Aceh Tamiang, Aceh 24472";"Peukan Seuruway, Kec. Seuruway, Kabupaten Aceh Tamiang";"ACEH";"24472";"Indonesia";"";"4.3541808";"98.1827483";"https://maps.google.com/?cid=0x0:0xceeab8052cb0cd14"
"supermarket";"supermarket";"Kec. Tamiang Hulu";"Kabupaten Aceh Tamiang, Aceh";"Kabupaten Aceh Tamiang, Aceh";"ACEH";"";"Indonesia";"";"4.1633008";"97.9539786";"https://maps.google.com/?cid=0x0:0x4376a9df79cb4397"
"supermarket";"Toko bahan makanan";"Toko.Dina sembako.p3";"Perk Pulau Tiga, Kec. Tamiang Hulu, Kabupaten Aceh Tamiang, Aceh 24477";"Kec. Tamiang Hulu, Kabupaten Aceh Tamiang";"ACEH";"24477";"Indonesia";" 081396623512";"4.1661872";"97.9477632";"https://maps.google.com/?cid=0x0:0x21cf32358a07a637"
"supermarket";"Dapur Umum";"Warung AA Batako";"5W4G+96V, Kaloy, Kec. Tamiang Hulu, Kabupaten Aceh Tamiang, Aceh 24382";"Kaloy, Kec. Tamiang Hulu, Kabupaten Aceh Tamiang";"ACEH";"24382";"Indonesia";"";"4.1559829";"97.9255374";"https://maps.google.com/?cid=0x0:0xc51b3ae1cc4c5336"
"supermarket";"Minimarket";"Warung Saiful";"5X25+GXR, Unnamed Road, Alur Tani II, Kec. Tamiang Hulu, Kabupaten Aceh Tamiang, Aceh 24477";"Unnamed Road, Alur Tani II, Kec. Tamiang Hulu, Kabupaten Aceh Tamiang";"ACEH";"24477";"Indonesia";"";"4.1513566";"97.9598982";"https://maps.google.com/?cid=0x0:0x3af7f768e419e3c8"
"supermarket";"Pusat Perbelanjaan";"Azqia Swalayan";"Jl. Lintas Sumatra Jl. Medan Banda Aceh No.B, kp bunda, Kec. Karang Baru, Kabupaten Aceh Tamiang, Aceh 24456";"kp bunda, Kec. Karang Baru, Kabupaten Aceh Tamiang";"ACEH";"24456";"Indonesia";"";"4.4000178";"98.0658966";"https://maps.google.com/?cid=0x0:0x8de322c095f33a2b"
"supermarket";"Toko bahan makanan";"SAQINA SWALAYAN";"Kode Pos, Jl. Kotalintang Atas No.4-10 Desa Kotalintang, Kota Kuala Simpang, Kabupaten Aceh Tamiang, Aceh 24475";"Jl. Kotalintang Atas No.4-10 Desa Kotalintang, Kota Kuala Simpang, Kabupaten Aceh Tamiang";"ACEH";"24475";"Indonesia";" 082272870801";"4.2862419";"98.0601654";"https://maps.google.com/?cid=0x0:0x4454e8d98c08493f"
"supermarket";"Minimarket";"Warung cik nita";"6W77+V6, Harum Sari, Kec. Tamiang Hulu, Kabupaten Aceh Tamiang, Aceh";"Kabupaten Aceh Tamiang, Aceh";"ACEH";"";"Indonesia";"";"4.2146305";"97.9130004";"https://maps.google.com/?cid=0x0:0x921d0ea4a1430456"
"supermarket";"Toko Swalayan";"Kede Wak tukini";"Jalan Pulautiga, Wono Sari, Kec. Tamiang Hulu, Kabupaten Aceh Tamiang, Aceh 24382";"Wono Sari, Kec. Tamiang Hulu, Kabupaten Aceh Tamiang";"ACEH";"24382";"Indonesia";" 082261155489";"4.2363372";"97.9097145";"https://maps.google.com/?cid=0x0:0x83f08c2dd17bd3d1"
"supermarket";"Minimarket";"Warung Kembar";"Desa dusun, Kaloy, Kec. Tamiang Hulu, Kabupaten Aceh Tamiang, Aceh 24382";"Kaloy, Kec. Tamiang Hulu, Kabupaten Aceh Tamiang";"ACEH";"24382";"Indonesia";" 082364365019";"4.1775361";"97.9098271";"https://maps.google.com/?cid=0x0:0x14b572fe5d6e521e"
"supermarket";"Toko bahan makanan";"Toko ipt";"5RF5+M42, Kaloy, Kec. Tamiang Hulu, Kabupaten Aceh Tamiang, Aceh";"Kabupaten Aceh Tamiang, Aceh";"ACEH";"";"Indonesia";" 082261321178";"4.1741326";"97.8077629";"https://maps.google.com/?cid=0x0:0xe616c34aaf64c3e5"
"supermarket";"Toko Herbal";"AL-MART";"Babo, Kec. Bandar Pusaka, Kabupaten Aceh Tamiang, Aceh 24456";"Kec. Bandar Pusaka, Kabupaten Aceh Tamiang";"ACEH";"24456";"Indonesia";" 085261425993";"4.2948013";"97.8782954";"https://maps.google.com/?cid=0x0:0x30de166f4d340905"
"supermarket";"Minimarket";"Alfamidi Kota Kuala Simpang";"73P7+CJC, Bukit Tempurung, Kota Kuala Simpang, Kabupaten Aceh Tamiang, Aceh 24456";"Bukit Tempurung, Kota Kuala Simpang, Kabupaten Aceh Tamiang";"ACEH";"24456";"Indonesia";"";"4.2860688";"98.064011";"https://maps.google.com/?cid=0x0:0x72d0da6f13af3c02"
"supermarket";"Toko bahan makanan";"Kios SRC Muhammad Syukur Rantau Bintang";"7VQW+GQ4, Rantau Bintang, Kec. Bandar Pusaka, Kabupaten Aceh Tamiang, Aceh 24456";"Rantau Bintang, Kec. Bandar Pusaka, Kabupaten Aceh Tamiang";"ACEH";"24456";"Indonesia";" 081397955972";"4.288759";"97.8969427";"https://maps.google.com/?cid=0x0:0x7d72ca64b2c73f85"
"supermarket";"Kafe";"Depot Air Minum SYIFA WATER";"839Q+8QG, Jl. Kualasimpang Ds. Bukit Suling Desa, Rantau Pauh, Kec. Rantau, Kabupaten Aceh Tamiang, Aceh 24476";"Jl. Kualasimpang Ds. Bukit Suling Desa, Rantau Pauh, Kec. Rantau, Kabupaten Aceh Tamiang";"ACEH";"24476";"Indonesia";" 081361618310";"4.3183044";"98.0894426";"https://maps.google.com/?cid=0x0:0x42079fabfd1e1ba4"
"supermarket";"supermarket";"Aceh 24477";"Kabupaten Aceh Tamiang, Aceh";"Kabupaten Aceh Tamiang, Aceh";"ACEH";"";"Indonesia";"";"3.9904163";"97.9157099";"https://maps.google.com/?cid=0x0:0x559940852b05002f"
"supermarket";"Toko bahan makanan";"Toko Daus julian";"4X6J+67R, Simpang Kiri, Kec. Tenggulun, Kabupaten Aceh Tamiang, Aceh 24477";"Simpang Kiri, Kec. Tenggulun, Kabupaten Aceh Tamiang";"ACEH";"24477";"Indonesia";" 081374601798";"4.1106215";"97.9806346";"https://maps.google.com/?cid=0x0:0xaee7f39e4a4d5f88"
"supermarket";"Grosir Barang Kelontong";"Grosir Kelontong Ibu Nining";"3XWR+2V4, Tenggulun, Kec. Tenggulun, Kabupaten Aceh Tamiang, Aceh 24477";"Tenggulun, Kec. Tenggulun, Kabupaten Aceh Tamiang";"ACEH";"24477";"Indonesia";" 081260980108";"4.0950213";"97.9921934";"https://maps.google.com/?cid=0x0:0x897c5220da3ee1e9"
"supermarket";"Kafe";"Warung bik Emik";"4XQV+FC9, Kebun Sungai Liput, Kec. Kejuruan Muda, Kabupaten Aceh Tamiang, Aceh 24477";"Kebun Sungai Liput, Kec. Kejuruan Muda, Kabupaten Aceh Tamiang";"ACEH";"24477";"Indonesia";"";"4.1386581";"97.9935958";"https://maps.google.com/?cid=0x0:0x4ada615605e0f4f9"
"supermarket";"Pusat Perbelanjaan";"Toko Ginting";"Jl. Medan - Banda Aceh No.114, Halaban, Kec. Besitang, Kabupaten Langkat, Sumatera Utara 20859";"Halaban, Kec. Besitang, Kabupaten Langkat";"ACEH";"20859";"Indonesia";"";"4.1123061";"98.0759453";"https://maps.google.com/?cid=0x0:0x1f919094834183fb"
"supermarket";"Toko bahan makanan";"Toko.Dina sembako.p3";"Perk Pulau Tiga, Kec. Tamiang Hulu, Kabupaten Aceh Tamiang, Aceh 24477";"Kec. Tamiang Hulu, Kabupaten Aceh Tamiang";"ACEH";"24477";"Indonesia";" 081396623512";"4.1661872";"97.9477632";"https://maps.google.com/?cid=0x0:0x21cf32358a07a637"
"supermarket";"Minimarket";"Toko sembako ira";"5X4P+25W, Unnamed Road, Alur Selebu, Kec. Kejuruan Muda, Kabupaten Aceh Tamiang, Aceh 24477";"Unnamed Road, Alur Selebu, Kec. Kejuruan Muda, Kabupaten Aceh Tamiang";"ACEH";"24477";"Indonesia";"";"4.155109";"97.985452";"https://maps.google.com/?cid=0x0:0x8ea4b1d4bd8bccba"
"supermarket";"Toko Perbaikan Ponsel";"Klinik Ponsel Servise Dan Vave";"5W7X+PP5, simpang tiga, pulau tiga, Kabupaten Aceh Tamiang, Aceh 24477";"simpang tiga, pulau tiga, Kabupaten Aceh Tamiang";"ACEH";"24477";"Indonesia";" 085762377692";"4.1642675";"97.9493524";"https://maps.google.com/?cid=0x0:0xd8849d9ad17f2612"
"supermarket";"Dapur Umum";"Warung AA Batako";"5W4G+96V, Kaloy, Kec. Tamiang Hulu, Kabupaten Aceh Tamiang, Aceh 24382";"Kaloy, Kec. Tamiang Hulu, Kabupaten Aceh Tamiang";"ACEH";"24382";"Indonesia";"";"4.1559829";"97.9255374";"https://maps.google.com/?cid=0x0:0xc51b3ae1cc4c5336"
"supermarket";"Pusat Perbelanjaan";"Azqia Swalayan";"Jl. Lintas Sumatra Jl. Medan Banda Aceh No.B, kp bunda, Kec. Karang Baru, Kabupaten Aceh Tamiang, Aceh 24456";"kp bunda, Kec. Karang Baru, Kabupaten Aceh Tamiang";"ACEH";"24456";"Indonesia";"";"4.4000178";"98.0658966";"https://maps.google.com/?cid=0x0:0x8de322c095f33a2b"
"supermarket";"supermarket";"kede nawer team";"5X63+GF3, Perk Pulau Tiga, Kec. Tamiang Hulu, Kabupaten Aceh Tamiang, Aceh";"Kabupaten Aceh Tamiang, Aceh";"ACEH";"";"Indonesia";"";"4.1612524";"97.9536795";"https://maps.google.com/?cid=0x0:0x46e271f6fe8a3be0"
"supermarket";"Toko bahan makanan";"SAQINA SWALAYAN";"Kode Pos, Jl. Kotalintang Atas No.4-10 Desa Kotalintang, Kota Kuala Simpang, Kabupaten Aceh Tamiang, Aceh 24475";"Jl. Kotalintang Atas No.4-10 Desa Kotalintang, Kota Kuala Simpang, Kabupaten Aceh Tamiang";"ACEH";"24475";"Indonesia";" 082272870801";"4.2862419";"98.0601654";"https://maps.google.com/?cid=0x0:0x4454e8d98c08493f"
"supermarket";"Minimarket";"Warung Saiful";"5X25+GXR, Unnamed Road, Alur Tani II, Kec. Tamiang Hulu, Kabupaten Aceh Tamiang, Aceh 24477";"Unnamed Road, Alur Tani II, Kec. Tamiang Hulu, Kabupaten Aceh Tamiang";"ACEH";"24477";"Indonesia";"";"4.1513566";"97.9598982";"https://maps.google.com/?cid=0x0:0x3af7f768e419e3c8"
"supermarket";"Kafe";"Depot Air Minum SYIFA WATER";"839Q+8QG, Jl. Kualasimpang Ds. Bukit Suling Desa, Rantau Pauh, Kec. Rantau, Kabupaten Aceh Tamiang, Aceh 24476";"Jl. Kualasimpang Ds. Bukit Suling Desa, Rantau Pauh, Kec. Rantau, Kabupaten Aceh Tamiang";"ACEH";"24476";"Indonesia";" 081361618310";"4.3183044";"98.0894426";"https://maps.google.com/?cid=0x0:0x42079fabfd1e1ba4"
