Category;Real Category;Business Name;Address;City;State;Postal Code;Country;Phone;Latitude;Longitude;Map Link
"perumahan";"Komplek perumahan";"Suka Mulia";"94R5+G3H, Upah, Kec. Banda Mulia, Kabupaten Aceh Tamiang, Aceh 24471";"Upah, Kec. Banda Mulia, Kabupaten Aceh Tamiang";"ACEH";"24471";"Indonesia";"";"4.3912826";"98.1068667";"https://maps.google.com/?cid=0x0:0xf622c2f937996260"
"perumahan";"Perumahan";"Rumah zakii";"C4Q5+JP5, Telaga Meuku II, Kec. Banda Mulia, Kabupaten Aceh Tamiang, Aceh";"Kabupaten Aceh Tamiang, Aceh";"ACEH";"";"Indonesia";"";"4.438847";"98.110041";"https://maps.google.com/?cid=0x0:0xe794c91b683766fd"
"perumahan";"perumahan";"Kec. Banda Mulia";"Kabupaten Aceh Tamiang, Aceh";"Kabupaten Aceh Tamiang, Aceh";"ACEH";"";"Indonesia";"";"4.4405846";"98.1360921";"https://maps.google.com/?cid=0x0:0xe04c2bd9d3d421e8"
"perumahan";"Perumahan";"Rumah adin";"F44P+MC9, Alur Nunang, Kec. Banda Mulia, Kabupaten Aceh Tamiang, Aceh";"Kabupaten Aceh Tamiang, Aceh";"ACEH";"";"Indonesia";"";"4.4566582";"98.1361118";"https://maps.google.com/?cid=0x0:0x867f02326f0bf8b3"
"perumahan";"Komplek perumahan";"Rumah NUR FAIZAH";"C4VM+GG6, Telaga Meuku II, Kec. Banda Mulia, Kabupaten Aceh Tamiang, Aceh 24471";"Telaga Meuku II, Kec. Banda Mulia, Kabupaten Aceh Tamiang";"ACEH";"24471";"Indonesia";" 082273611299";"4.4437938";"98.1337784";"https://maps.google.com/?cid=0x0:0x9995e7e2b94daa40"
"perumahan";"Komplek perumahan";"Rumah Sakimin Manisem";"C488+975, Sukajadi, Kec. Banda Mulia, Kabupaten Aceh Tamiang, Aceh 24471";"Sukajadi, Kec. Banda Mulia, Kabupaten Aceh Tamiang";"ACEH";"24471";"Indonesia";"";"4.4157149";"98.1157583";"https://maps.google.com/?cid=0x0:0x2dd1361378cbdf5e"
"perumahan";"Perumahan";"rumah ditaa";"C4QF+4X5, Telaga Meuku II, Kec. Banda Mulia, Kabupaten Aceh Tamiang, Aceh 24471";"Telaga Meuku II, Kec. Banda Mulia, Kabupaten Aceh Tamiang";"ACEH";"24471";"Indonesia";"";"4.4377511";"98.1249951";"https://maps.google.com/?cid=0x0:0xf29c6731e902d070"
"perumahan";"Makanan Kecil";"Warung miso pak sabar";"C497+GPQ, Gampong Besar, Kec. Banda Mulia, Kabupaten Aceh Tamiang, Aceh 24471";"Gampong Besar, Kec. Banda Mulia, Kabupaten Aceh Tamiang";"ACEH";"24471";"Indonesia";"";"4.4188361";"98.1143441";"https://maps.google.com/?cid=0x0:0x8fa09ec6243a86e1"
"perumahan";"Perumahan";"rumah wett";"C42F+JXJ, Marlempang, Kec. Banda Mulia, Kabupaten Aceh Tamiang, Aceh";"Kabupaten Aceh Tamiang, Aceh";"ACEH";"";"Indonesia";"";"4.4015866";"98.1249005";"https://maps.google.com/?cid=0x0:0xe27a85a0a5d731ed"
"perumahan";"Perumahan";"Rumah Riski";"F44P+996, Alur Nunang, Kec. Banda Mulia, Kabupaten Aceh Tamiang, Aceh";"Kabupaten Aceh Tamiang, Aceh";"ACEH";"";"Indonesia";"";"4.4559178";"98.1358772";"https://maps.google.com/?cid=0x0:0x85fb469704898981"
"perumahan";"Komplek perumahan";"Rumah Saya";"94V4+CMQ, Sukajadi, Kec. Banda Mulia, Kabupaten Aceh Tamiang, Aceh";"Kabupaten Aceh Tamiang, Aceh";"ACEH";"";"Indonesia";"";"4.3935827";"98.1067354";"https://maps.google.com/?cid=0x0:0x5b783c984a987a35"
"perumahan";"Perumahan";"Wahyu";"C4HF+M7, Gampong Besar, Kec. Banda Mulia, Kabupaten Aceh Tamiang, Aceh";"Kabupaten Aceh Tamiang, Aceh";"ACEH";"";"Indonesia";"";"4.4292164";"98.1232182";"https://maps.google.com/?cid=0x0:0xc06805983e9153fc"
"perumahan";"Komplek perumahan";"Rumah jamil";"C582+HGJ, Seuneubok Aceh, Kec. Bendahara, Kabupaten Aceh Tamiang, Aceh 24472";"Seuneubok Aceh, Kec. Bendahara, Kabupaten Aceh Tamiang";"ACEH";"24472";"Indonesia";"";"4.4167461";"98.1519752";"https://maps.google.com/?cid=0x0:0x7f46c59a286c4889"
"perumahan";"Perhimpunan Pengembang Perumahan";"Rumah Purnama";"F43R+G5J, Alur Nunang, Kec. Banda Mulia, Kabupaten Aceh Tamiang, Aceh";"Kabupaten Aceh Tamiang, Aceh";"ACEH";"";"Indonesia";"";"4.453833";"98.140383";"https://maps.google.com/?cid=0x0:0xfdf6b99d6c583cb"
"perumahan";"perumahan";"Kec. Bandar Pusaka";"Kabupaten Aceh Tamiang, Aceh";"Kabupaten Aceh Tamiang, Aceh";"ACEH";"";"Indonesia";"";"4.2948637";"97.8778752";"https://maps.google.com/?cid=0x0:0x2b7834261cf3e187"
"perumahan";"Rumah Kayu";"Rumah yani";"7V9R+C5F, Babo, Kec. Bandar Pusaka, Kabupaten Aceh Tamiang, Aceh";"Kabupaten Aceh Tamiang, Aceh";"ACEH";"";"Indonesia";"";"4.2685746";"97.8904231";"https://maps.google.com/?cid=0x0:0xd5c6d102903c630e"
"perumahan";"Komplek perumahan";"Rumah Bg Rambe";"6XPG+3WQ, Blang Kandis, Kec. Bandar Pusaka, Kabupaten Aceh Tamiang, Aceh";"Kabupaten Aceh Tamiang, Aceh";"ACEH";"";"Indonesia";"";"4.2352175";"97.9773648";"https://maps.google.com/?cid=0x0:0x58d5185e859a511b"
"perumahan";"perumahan";"Riper";"6WR5+W97, Wono Sari, Kec. Tamiang Hulu, Kabupaten Aceh Tamiang, Aceh 24382";"Wono Sari, Kec. Tamiang Hulu, Kabupaten Aceh Tamiang";"ACEH";"24382";"Indonesia";"";"4.2422834";"97.9084148";"https://maps.google.com/?cid=0x0:0x865310d86b74d46e"
"perumahan";"Komplek perumahan";"Erwin syahputra";"7V9R+JG4, Unnamed Road, Babo, Kec. Bandar Pusaka, Kabupaten Aceh Tamiang, Aceh 24456";"Unnamed Road, Babo, Kec. Bandar Pusaka, Kabupaten Aceh Tamiang";"ACEH";"24456";"Indonesia";"";"4.2690161";"97.8913208";"https://maps.google.com/?cid=0x0:0x2288982e6a7597ec"
"perumahan";"Komplek perumahan";"Rumah bg jol";"7R6M+2J8, Pantai Cempa, Kec. Bandar Pusaka, Kabupaten Aceh Tamiang, Aceh";"Kabupaten Aceh Tamiang, Aceh";"ACEH";"";"Indonesia";"";"4.2600372";"97.8340757";"https://maps.google.com/?cid=0x0:0x69761a6b4c08fd24"
"perumahan";"Komplek perumahan";"Rumah Della";"7W5C+MF2, Jambo Rambong, Kec. Bandar Pusaka, Kabupaten Aceh Tamiang, Aceh";"Kabupaten Aceh Tamiang, Aceh";"ACEH";"";"Indonesia";"";"4.2591448";"97.9211555";"https://maps.google.com/?cid=0x0:0x915f7325b27b1a33"
"perumahan";"Komplek perumahan";"Rumah Yogi";"7VJ8+2M8, dusun bangun sari, Babo, Kec. Bandar Pusaka, Kabupaten Aceh Tamiang, Aceh";"Kabupaten Aceh Tamiang, Aceh";"ACEH";"";"Indonesia";"";"4.2800483";"97.8667182";"https://maps.google.com/?cid=0x0:0x7640c84446d32a49"
"perumahan";"Komplek perumahan";"Rumah Bu Er";"7XP4+385, Perupuk, Kec. Bandar Pusaka, Kabupaten Aceh Tamiang, Aceh 24456";"Perupuk, Kec. Bandar Pusaka, Kabupaten Aceh Tamiang";"ACEH";"24456";"Indonesia";"";"4.2851251";"97.9558571";"https://maps.google.com/?cid=0x0:0x7480fee0e65f2f2a"
"perumahan";"Komplek perumahan";"Rumah Bagus gilang pratama";"7W26+VM7, Jambo Rambong, Kec. Bandar Pusaka, Kabupaten Aceh Tamiang, Aceh 24382";"Jambo Rambong, Kec. Bandar Pusaka, Kabupaten Aceh Tamiang";"ACEH";"24382";"Indonesia";"";"4.2521625";"97.9116719";"https://maps.google.com/?cid=0x0:0x662c6d3e046d5807"
"perumahan";"Komplek perumahan";"rumah pak kahar";"7XJ2+WMV, Perupuk, Kec. Bandar Pusaka, Kabupaten Aceh Tamiang, Aceh 24456";"Perupuk, Kec. Bandar Pusaka, Kabupaten Aceh Tamiang";"ACEH";"24456";"Indonesia";"";"4.2823668";"97.9516732";"https://maps.google.com/?cid=0x0:0x477ad48959cac20e"
"perumahan";"Kantor Perusahaan";"Komplek cempa atas";"7VV2+968, Pantai Cempa, Kec. Bandar Pusaka, Kabupaten Aceh Tamiang, Aceh 24456";"Pantai Cempa, Kec. Bandar Pusaka, Kabupaten Aceh Tamiang";"ACEH";"24456";"Indonesia";"";"4.2934045";"97.8505667";"https://maps.google.com/?cid=0x0:0xfb8da0cbca97d0ed"
"perumahan";"Perhimpunan Pengembang Perumahan";"Palang City";"Jalan Sunting - Babo, Palang, Serba, Kec. Bandar Pusaka, Kabupaten Aceh Tamiang, Aceh 24456";"Palang, Serba, Kec. Bandar Pusaka, Kabupaten Aceh Tamiang";"ACEH";"24456";"Indonesia";" 081311345559";"4.2769807";"97.9280153";"https://maps.google.com/?cid=0x0:0x1a065b7df90494f0"
"perumahan";"Komplek perumahan";"Rumah MUHAMMAD ILHAM";"7W5C+MF2, Jambo Rambong, Kec. Bandar Pusaka, Kabupaten Aceh Tamiang, Aceh";"Kabupaten Aceh Tamiang, Aceh";"ACEH";"";"Indonesia";"";"4.2591472";"97.9211557";"https://maps.google.com/?cid=0x0:0x247553494fabc1f3"
"perumahan";"perumahan";"Dusun tanjung keramat desa paya udang kecamatan seruway kabupaten Aceh tamiang";"95CV+HG, Paya Udang, Kec. Seuruway, Kabupaten Aceh Tamiang, Aceh";"Kabupaten Aceh Tamiang, Aceh";"ACEH";"";"Indonesia";"";"4.3714325";"98.1937592";"https://maps.google.com/?cid=0x0:0x2b4de80c336c8f96"
"perumahan";"perumahan";"Kec. Bendahara";"Kabupaten Aceh Tamiang, Aceh";"Kabupaten Aceh Tamiang, Aceh";"ACEH";"";"Indonesia";"";"4.4074501";"98.1695001";"https://maps.google.com/?cid=0x0:0xa3729d585ef6a9a8"
"perumahan";"Perhimpunan Pengembang Perumahan";"Kecamatan bendahara";"C673+5VG, Unnamed Road, Cinta Raja, Kec. Bendahara, Kabupaten Aceh Tamiang, Aceh 24472";"Unnamed Road, Cinta Raja, Kec. Bendahara, Kabupaten Aceh Tamiang";"ACEH";"24472";"Indonesia";"";"4.4129282";"98.2047171";"https://maps.google.com/?cid=0x0:0x6a344fa1c2fba1ff"
"perumahan";"Komplek perumahan";"Mery";"C32J+9HH, Matang Teupah, Kec. Bendahara, Kabupaten Aceh Tamiang, Aceh 24471";"Matang Teupah, Kec. Bendahara, Kabupaten Aceh Tamiang";"ACEH";"24471";"Indonesia";"";"4.4009378";"98.081484";"https://maps.google.com/?cid=0x0:0xcc0fa09ec9b40bf"
"perumahan";"Komplek perumahan";"Lambung blang";"95J3+MH4, Lambung Blang, Kec. Bendahara, Kabupaten Aceh Tamiang, Aceh 24472";"Lambung Blang, Kec. Bendahara, Kabupaten Aceh Tamiang";"ACEH";"24472";"Indonesia";"";"4.3805762";"98.1536757";"https://maps.google.com/?cid=0x0:0x232a56d8520f0d7d"
"perumahan";"perumahan";"Rumah Afri";"95FP+44M, Tj. Mulia, Kec. Bendahara, Kabupaten Aceh Tamiang, Aceh 24472";"Tj. Mulia, Kec. Bendahara, Kabupaten Aceh Tamiang";"ACEH";"24472";"Indonesia";"";"4.3734933";"98.1852433";"https://maps.google.com/?cid=0x0:0x7298193016fb6498"
"perumahan";"Tempat Penggilingan Beras";"PENGGILINGAN PADI";"9568+97J, Tanjung, Kec. Bendahara, Kabupaten Aceh Tamiang, Aceh 24472";"Tanjung, Kec. Bendahara, Kabupaten Aceh Tamiang";"ACEH";"24472";"Indonesia";"";"4.3609641";"98.1656387";"https://maps.google.com/?cid=0x0:0xfec5965e96804f50"
"perumahan";"Komplek perumahan";"Perumahan Nelayan Kuala Penaga";"C6M9+39Q, Kuala Geunting, Kec. Bendahara, Kabupaten Aceh Tamiang, Aceh 24472";"Kuala Geunting, Kec. Bendahara, Kabupaten Aceh Tamiang";"ACEH";"24472";"Indonesia";"";"4.4327217";"98.2184844";"https://maps.google.com/?cid=0x0:0xbffc6ed96ac52543"
"perumahan";"Komplek perumahan";"BAHGIA";"95VX+7R3, Rantau Pakam, Kec. Bendahara, Kabupaten Aceh Tamiang, Aceh 24472";"Rantau Pakam, Kec. Bendahara, Kabupaten Aceh Tamiang";"ACEH";"24472";"Indonesia";"";"4.3936077";"98.2004006";"https://maps.google.com/?cid=0x0:0xcc2ba1a29235e54a"
"perumahan";"Pemakaman";"Tengku Tinggi";"C52R+XCV, Cinta Raja, Kec. Bendahara, Kabupaten Aceh Tamiang, Aceh 24472";"Cinta Raja, Kec. Bendahara, Kabupaten Aceh Tamiang";"ACEH";"24472";"Indonesia";"";"4.4024636";"98.1909503";"https://maps.google.com/?cid=0x0:0x285c8da6e55fd8e1"
"perumahan";"Pembangunan Perumahan";"ApaNu, patch motorcycle tires";"C5C8+6M6, Bandar Khalifah, Kec. Bendahara, Kabupaten Aceh Tamiang, Aceh";"Kabupaten Aceh Tamiang, Aceh";"ACEH";"";"Indonesia";"";"4.420534";"98.1666337";"https://maps.google.com/?cid=0x0:0x474a8450032e7c29"
"perumahan";"Komplek perumahan";"Rumah Paksyah";"C47X+657, Seuneubok Aceh, Kec. Bendahara, Kabupaten Aceh Tamiang, Aceh 24472";"Seuneubok Aceh, Kec. Bendahara, Kabupaten Aceh Tamiang";"ACEH";"24472";"Indonesia";"";"4.4130252";"98.1479305";"https://maps.google.com/?cid=0x0:0x4e84b396d040ba8f"
"perumahan";"Komplek perumahan";"Rumah buyong ranu";"93FX+88V, Upah, Kec. Bendahara, Kabupaten Aceh Tamiang, Aceh 24472";"Upah, Kec. Bendahara, Kabupaten Aceh Tamiang";"ACEH";"24472";"Indonesia";"";"4.3740931";"98.0981566";"https://maps.google.com/?cid=0x0:0xae4a2a11880ee741"
"perumahan";"Komplek perumahan";"Rady";"C5F2+V5G, Seuneubok Aceh, Kec. Bendahara, Kabupaten Aceh Tamiang, Aceh 24472";"Seuneubok Aceh, Kec. Bendahara, Kabupaten Aceh Tamiang";"ACEH";"24472";"Indonesia";"";"4.4246834";"98.1504071";"https://maps.google.com/?cid=0x0:0xa1f8a2df38d90cd0"
"perumahan";"perumahan";"Aceh 24476";"Kabupaten Aceh Tamiang, Aceh";"Kabupaten Aceh Tamiang, Aceh";"ACEH";"";"Indonesia";"";"4.3288776";"98.0628862";"https://maps.google.com/?cid=0x0:0x82d848b4ba041829"
"perumahan";"Pembangunan Perumahan";"Peyek kacang";"Jl. Medan - Banda Aceh Kp No.Km 5, RW.23, Tanah Terban, Kec. Karang Baru, Kabupaten Aceh Tamiang, Aceh 24476";"RW.23, Tanah Terban, Kec. Karang Baru, Kabupaten Aceh Tamiang";"ACEH";"24476";"Indonesia";"";"4.3156897";"98.0599325";"https://maps.google.com/?cid=0x0:0x687682d04d83db25"
"perumahan";"Perumahan";"Perumahan Mutiara Residence III Karang Baru";"8346+2PR, Gampong Air Tenang, Kec. Karang Baru, Kabupaten Aceh Tamiang, Aceh 24458";"Gampong Air Tenang, Kec. Karang Baru, Kabupaten Aceh Tamiang";"ACEH";"24458";"Indonesia";"";"4.3051015";"98.0617713";"https://maps.google.com/?cid=0x0:0x8dbcd3522fb0a29"
"perumahan";"Komplek perumahan";"Perumahan Cempaka Indah";"832C+8CG, Gampong Air Tenang, Kec. Karang Baru, Kabupaten Aceh Tamiang, Aceh 24476";"Gampong Air Tenang, Kec. Karang Baru, Kabupaten Aceh Tamiang";"ACEH";"24476";"Indonesia";" 081265240749";"4.3008054";"98.0710715";"https://maps.google.com/?cid=0x0:0x6ae27c3c8d9c2f92"
"perumahan";"Komplek perumahan";"BTN Mutiara Residen II";"8356+593, Unnamed Road, Tanah Terban, Kec. Karang Baru, Kabupaten Aceh Tamiang, Aceh 24476";"Unnamed Road, Tanah Terban, Kec. Karang Baru, Kabupaten Aceh Tamiang";"ACEH";"24476";"Indonesia";"";"4.3078862";"98.0609153";"https://maps.google.com/?cid=0x0:0xb590b6202443a210"
"perumahan";"Perhimpunan Pengembang Perumahan";"Tempat Cocok Untuk Bercocok Tanam";"83H5+3GX, Gampong Tupah, Kec. Karang Baru, Kabupaten Aceh Tamiang, Aceh 24476";"Gampong Tupah, Kec. Karang Baru, Kabupaten Aceh Tamiang";"ACEH";"24476";"Indonesia";"";"4.3277393";"98.0588724";"https://maps.google.com/?cid=0x0:0xb3a3c63f4b460531"
"perumahan";"Komplek perumahan";"Rumah Drs. Abdul Muthalib";"8395+5WW, Tanah Terban, Kec. Karang Baru, Kabupaten Aceh Tamiang, Aceh 24476";"Tanah Terban, Kec. Karang Baru, Kabupaten Aceh Tamiang";"ACEH";"24476";"Indonesia";"";"4.3181764";"98.0598071";"https://maps.google.com/?cid=0x0:0x21234da6235bb259"
"perumahan";"Komplek perumahan";"Rumah ku";"83C6+J2G, Gampong Tupah, Kec. Karang Baru, Kabupaten Aceh Tamiang, Aceh 24476";"Gampong Tupah, Kec. Karang Baru, Kabupaten Aceh Tamiang";"ACEH";"24476";"Indonesia";"";"4.3215518";"98.0600703";"https://maps.google.com/?cid=0x0:0x9c3f6a87fe49d181"
"perumahan";"Pembangunan Perumahan";"Dusun Bahagia, Desa Rantau Panjang";"Dusun sejahtera, Rantau Panjang, Kec. Karang Baru, Kabupaten Aceh Tamiang, Aceh 24476";"Rantau Panjang, Kec. Karang Baru, Kabupaten Aceh Tamiang";"ACEH";"24476";"Indonesia";" 085371270504";"4.3312185";"98.0819866";"https://maps.google.com/?cid=0x0:0x60b9f1cd7328f687"
"perumahan";"Komplek perumahan";"Rumah Najmul cantik";"8395+2M9, Gampong Johar, Kec. Karang Baru, Kabupaten Aceh Tamiang, Aceh 24476";"Gampong Johar, Kec. Karang Baru, Kabupaten Aceh Tamiang";"ACEH";"24476";"Indonesia";"";"4.3175362";"98.0592464";"https://maps.google.com/?cid=0x0:0xa300f7e33ad6b314"
"perumahan";"Pembangunan Perumahan";"Perumahan Bumi Indah Nuansa";"83G5+QC, Gampong Tupah, Kec. Karang Baru, Kabupaten Aceh Tamiang, Aceh 24476";"Gampong Tupah, Kec. Karang Baru, Kabupaten Aceh Tamiang";"ACEH";"24476";"Indonesia";"";"4.3269872";"98.0585552";"https://maps.google.com/?cid=0x0:0x28cc43f983fdb0c0"
"perumahan";"Asosiasi pemilik rumah";"Rumah Ifat";"83PF+W4W, Medang Ara, Kec. Karang Baru, Kabupaten Aceh Tamiang, Aceh 24476";"Medang Ara, Kec. Karang Baru, Kabupaten Aceh Tamiang";"ACEH";"24476";"Indonesia";"";"4.3373629";"98.0728402";"https://maps.google.com/?cid=0x0:0xad4d2e5a62f3d2f"
"perumahan";"Komplek perumahan";"RUMAH SYUKURDI";"83C5+3WM, Desa Terban, Gang Bunga, Gampong Tupah, Kec. Karang Baru, Kabupaten Aceh Tamiang, Aceh 24476";"Desa Terban, Gang Bunga, Gampong Tupah, Kec. Karang Baru, Kabupaten Aceh Tamiang";"ACEH";"24476";"Indonesia";"";"4.3202022";"98.0597967";"https://maps.google.com/?cid=0x0:0x3b9d82657e14667f"
"perumahan";"Komplek perumahan";"rumah taya";"73X8+V49, Gampong Air Tenang, Kec. Karang Baru, Kabupaten Aceh Tamiang, Aceh 24458";"Gampong Air Tenang, Kec. Karang Baru, Kabupaten Aceh Tamiang";"ACEH";"24458";"Indonesia";"";"4.3003394";"98.0651662";"https://maps.google.com/?cid=0x0:0xe9b4823ead8bbbd1"
"perumahan";"perumahan";"Kec. Kejuruan Muda";"Kabupaten Aceh Tamiang, Aceh";"Kabupaten Aceh Tamiang, Aceh";"ACEH";"";"Indonesia";"";"4.2310452";"98.0585627";"https://maps.google.com/?cid=0x0:0x31c3ba765be70142"
"perumahan";"Pembangunan Perumahan";"Kejuruan Muda";"63F7+666, Sungai Liput, Kec. Kejuruan Muda, Kabupaten Aceh Tamiang, Aceh 24475";"Sungai Liput, Kec. Kejuruan Muda, Kabupaten Aceh Tamiang";"ACEH";"24475";"Indonesia";"";"4.2230306";"98.063006";"https://maps.google.com/?cid=0x0:0xc14a85c2d7fce0f1"
"perumahan";"Pembangunan Perumahan";"Perumahan Yusra Residence";"07, Jl. Medan - Banda Aceh No.12, Kota Kuala Simpang, Bukit Rata, Kec. Kejuruan Muda, Kabupaten Aceh Tamiang, Aceh 24476";"Jl. Medan - Banda Aceh No.12, Kota Kuala Simpang, Bukit Rata, Kec. Kejuruan Muda, Kabupaten Aceh Tamiang";"ACEH";"24476";"Indonesia";" 085373125055";"4.2755863";"98.0587044";"https://maps.google.com/?cid=0x0:0x72b4ecb226a37e3d"
"perumahan";"Komplek perumahan";"Perumahan bumi Iskandar muda qq Adam Faiz residence";"Dusun cempaka, Bukit Rata, Kec. Kejuruan Muda, Kabupaten Aceh Tamiang, Aceh 24475";"Bukit Rata, Kec. Kejuruan Muda, Kabupaten Aceh Tamiang";"ACEH";"24475";"Indonesia";" 085219685050";"4.2655784";"98.0669049";"https://maps.google.com/?cid=0x0:0x527230cef16b83ee"
"perumahan";"Komplek perumahan";"Rumah Saifullah";"63P7+VV, Bukit Rata, Kec. Kejuruan Muda, Kabupaten Aceh Tamiang, Aceh 24475";"Bukit Rata, Kec. Kejuruan Muda, Kabupaten Aceh Tamiang";"ACEH";"24475";"Indonesia";"";"4.2372402";"98.0647092";"https://maps.google.com/?cid=0x0:0xa5be402a721e51bc"
"perumahan";"Perumahan";"Rumah";"53J3+Q6P, Jl. Medan Banda Aceh, Seumadam, Kec. Kejuruan Muda, Kabupaten Aceh Tamiang, Aceh 24474";"Jl. Medan Banda Aceh, Seumadam, Kec. Kejuruan Muda, Kabupaten Aceh Tamiang";"ACEH";"24474";"Indonesia";"";"4.182025";"98.0529143";"https://maps.google.com/?cid=0x0:0x1b6172e63a58d8b"
"perumahan";"Komplek perumahan";"lintang home";"7X2V+GJV, Tj. Genteng, Kec. Kejuruan Muda, Kabupaten Aceh Tamiang, Aceh 24456";"Tj. Genteng, Kec. Kejuruan Muda, Kabupaten Aceh Tamiang";"ACEH";"24456";"Indonesia";"";"4.2513612";"97.9940571";"https://maps.google.com/?cid=0x0:0xc50b0bb29b5c4e33"
"perumahan";"Komplek perumahan";"Tanah RAFFASYA";"73G7+8V7, Bukit Rata, Kec. Kejuruan Muda, Kabupaten Aceh Tamiang, Aceh";"Kabupaten Aceh Tamiang, Aceh";"ACEH";"";"Indonesia";"";"4.2757877";"98.0646729";"https://maps.google.com/?cid=0x0:0xafdd1bed6dc28fd1"
"perumahan";"Komplek perumahan";"Rumah Tinggal";"63XC+XCP Indah II, Perumahan, Bukit Rata, Kec. Kejuruan Muda, Kabupaten Aceh Tamiang, Aceh";"Kabupaten Aceh Tamiang, Aceh";"ACEH";"";"Indonesia";"";"4.249962";"98.0710715";"https://maps.google.com/?cid=0x0:0x83b812353cd9bd85"
"perumahan";"Kedai Kopi";"Perumahan prabu rifa II";"7399+3GW, Bukit Rata, Kec. Kejuruan Muda, Kabupaten Aceh Tamiang, Aceh 24475";"Bukit Rata, Kec. Kejuruan Muda, Kabupaten Aceh Tamiang";"ACEH";"24475";"Indonesia";"";"4.2677254";"98.0688222";"https://maps.google.com/?cid=0x0:0xf810b8cfe7d813a9"
"perumahan";"Komplek perumahan";"Alur selawi";"63G4+GWR, Jl. Lintas Sumatra, Sungai Liput, Kec. Kejuruan Muda, Kabupaten Aceh Tamiang, Aceh 24474";"Jl. Lintas Sumatra, Sungai Liput, Kec. Kejuruan Muda, Kabupaten Aceh Tamiang";"ACEH";"24474";"Indonesia";"";"4.2268083";"98.0571176";"https://maps.google.com/?cid=0x0:0x41d6b6e2499f3327"
"perumahan";"Kantor Perusahaan";"Perumahan Agra (Permata Indah)";"736F+Q66, Bukit Rata, Kec. Kejuruan Muda, Kabupaten Aceh Tamiang, Aceh 24475";"Bukit Rata, Kec. Kejuruan Muda, Kabupaten Aceh Tamiang";"ACEH";"24475";"Indonesia";"";"4.2619199";"98.0730173";"https://maps.google.com/?cid=0x0:0xe228522e380088e8"
"perumahan";"Komplek perumahan";"Rumah Comel Aulia";"63G5+2W2, Sungai Liput, Kec. Kejuruan Muda, Kabupaten Aceh Tamiang, Aceh";"Kabupaten Aceh Tamiang, Aceh";"ACEH";"";"Indonesia";"";"4.2250132";"98.05978";"https://maps.google.com/?cid=0x0:0xf5b1955f938b84c3"
"perumahan";"Komplek perumahan";"Perum Griya Bukit Rata Indah 2";"73F8+QQ8, Gg. Melur, Bukit Rata, Kec. Kejuruan Muda, Kabupaten Aceh Tamiang, Aceh";"Kabupaten Aceh Tamiang, Aceh";"ACEH";"";"Indonesia";"";"4.2744217";"98.0669583";"https://maps.google.com/?cid=0x0:0x1b7b067f23d21d43"
"perumahan";"Perhimpunan Pengembang Perumahan";"Kota lintang bawah";"Kota Kuala Simpang, Kabupaten Aceh Tamiang, Aceh";"Kabupaten Aceh Tamiang, Aceh";"ACEH";"";"Indonesia";" 083875720330";"4.2838371";"98.0581176";"https://maps.google.com/?cid=0x0:0xda609c3053a3b94d"
"perumahan";"perumahan";"Kota Kuala Simpang";"Kabupaten Aceh Tamiang, Aceh";"Kabupaten Aceh Tamiang, Aceh";"ACEH";"";"Indonesia";"";"4.2856625";"98.060158";"https://maps.google.com/?cid=0x0:0x1c98c7d4ec51e5aa"
"perumahan";"Pembangunan Perumahan";"Perumahan Bukit Perdamaian";"73J7+MHQ, Perdamaian, Kota Kuala Simpang, Kabupaten Aceh Tamiang, Aceh 24456";"Perdamaian, Kota Kuala Simpang, Kabupaten Aceh Tamiang";"ACEH";"24456";"Indonesia";" 082363923233";"4.2817238";"98.0639873";"https://maps.google.com/?cid=0x0:0x2271babaae720b1"
"perumahan";"Pembangunan Perumahan";"Gg Sempurna";"73P8+HH2, Bukit Tempurung, Kota Kuala Simpang, Kabupaten Aceh Tamiang, Aceh 24456";"Bukit Tempurung, Kota Kuala Simpang, Kabupaten Aceh Tamiang";"ACEH";"24456";"Indonesia";"";"4.2863875";"98.0663906";"https://maps.google.com/?cid=0x0:0x12954e6f55b7eef8"
"perumahan";"Pembangunan Perumahan";"Siantar";"73P6+73R, Bukit Tempurung, Kota Kuala Simpang, Kabupaten Aceh Tamiang, Aceh 24456";"Bukit Tempurung, Kota Kuala Simpang, Kabupaten Aceh Tamiang";"ACEH";"24456";"Indonesia";"";"4.2857316";"98.0601299";"https://maps.google.com/?cid=0x0:0x897bd92ed326c158"
"perumahan";"Perhimpunan Pengembang Perumahan";"Komplek Gang melati";"73P8+G6X, Bukit Tempurung, Kota Kuala Simpang, Kabupaten Aceh Tamiang, Aceh 24456";"Bukit Tempurung, Kota Kuala Simpang, Kabupaten Aceh Tamiang";"ACEH";"24456";"Indonesia";"";"4.2863505";"98.0656102";"https://maps.google.com/?cid=0x0:0xc305db7c35c309e9"
"perumahan";"Pembangunan Perumahan";"Perumahan Yusra Residence";"07, Jl. Medan - Banda Aceh No.12, Kota Kuala Simpang, Bukit Rata, Kec. Kejuruan Muda, Kabupaten Aceh Tamiang, Aceh 24476";"Jl. Medan - Banda Aceh No.12, Kota Kuala Simpang, Bukit Rata, Kec. Kejuruan Muda, Kabupaten Aceh Tamiang";"ACEH";"24476";"Indonesia";" 085373125055";"4.2755863";"98.0587044";"https://maps.google.com/?cid=0x0:0x72b4ecb226a37e3d"
"perumahan";"Perumahan";"Perumahan duta balqis";"73J8+7F7, Jl. Tj. Rambut, Bukit Tempurung, Kota Kuala Simpang, Kabupaten Aceh Tamiang, Aceh";"Kabupaten Aceh Tamiang, Aceh";"ACEH";"";"Indonesia";" 08116840424";"4.2806546";"98.0661612";"https://maps.google.com/?cid=0x0:0x289eb1f57c902b1c"
"perumahan";"Perhimpunan Pengembang Perumahan";"Rumah";"Jl. Cut Nyak Dien No.41, Perdamaian, Kota Kuala Simpang, Kabupaten Aceh Tamiang, Aceh 24456";"Perdamaian, Kota Kuala Simpang, Kabupaten Aceh Tamiang";"ACEH";"24456";"Indonesia";"";"4.280761";"98.064119";"https://maps.google.com/?cid=0x0:0xa871dc9dca35fff2"
"perumahan";"Komplek perumahan";"Rumah biasa";"73M8+PWC, Bukit Tempurung, Kota Kuala Simpang, Kabupaten Aceh Tamiang, Aceh 24456";"Bukit Tempurung, Kota Kuala Simpang, Kabupaten Aceh Tamiang";"ACEH";"24456";"Indonesia";"";"4.2843662";"98.0672431";"https://maps.google.com/?cid=0x0:0x661f45d2166e0cc6"
"perumahan";"Perhimpunan Pengembang Perumahan";"Rumah fikri";"73P8+M9Q, Bukit Tempurung, Kota Kuala Simpang, Kabupaten Aceh Tamiang, Aceh 24456";"Bukit Tempurung, Kota Kuala Simpang, Kabupaten Aceh Tamiang";"ACEH";"24456";"Indonesia";"";"4.2867198";"98.065973";"https://maps.google.com/?cid=0x0:0x817bb2efb006bb53"
"perumahan";"Komplek perumahan";"Asra Residence 2";"Sedar, Jl. Pendidikan, Sriwijaya, Kuala Simpang City, Aceh Tamiang Regency, Aceh";"Kabupaten Aceh Tamiang, Aceh";"ACEH";"";"Indonesia";"";"4.2785299";"98.0600257";"https://maps.google.com/?cid=0x0:0x44fa19a84eafd023"
"perumahan";"Komplek perumahan";"Rumah keluarga M Radhy NS";"73M6+9G7, Perdamaian, Kota Kuala Simpang, Kabupaten Aceh Tamiang, Aceh";"Kabupaten Aceh Tamiang, Aceh";"ACEH";"";"Indonesia";"";"4.2834103";"98.0612981";"https://maps.google.com/?cid=0x0:0x34d6891061b247dd"
"perumahan";"Komplek perumahan";"Rumah pak yusri dan buk wardati";"73R7+437, Kota Lintang, Kota Kuala Simpang, Kabupaten Aceh Tamiang, Aceh";"Kabupaten Aceh Tamiang, Aceh";"ACEH";"";"Indonesia";"";"4.2902923";"98.0626841";"https://maps.google.com/?cid=0x0:0x4dd74e8b842e432d"
"perumahan";"Komplek perumahan";"Griya Kartika Permai";"C23W+J9Q, Buket Panjang II, Kec. Manyak Payed, Kabupaten Aceh Tamiang, Aceh 24471";"Buket Panjang II, Kec. Manyak Payed, Kabupaten Aceh Tamiang";"ACEH";"24471";"Indonesia";"";"4.4040906";"98.0459969";"https://maps.google.com/?cid=0x0:0xb0d2ef422c087188"
"perumahan";"Komplek perumahan";"Abati";"C359+XFP, Jl. Matang Ara Jawa, Gelanggang Merak, Kec. Manyak Payed, Kabupaten Aceh Tamiang, Aceh 24471";"Jl. Matang Ara Jawa, Gelanggang Merak, Kec. Manyak Payed, Kabupaten Aceh Tamiang";"ACEH";"24471";"Indonesia";"";"4.4104383";"98.0682845";"https://maps.google.com/?cid=0x0:0xe9297ab50b907682"
"perumahan";"perumahan";"Aceh 24471";"Aceh";"Aceh";"ACEH";"";"Indonesia";"";"4.3465057";"97.8395151";"https://maps.google.com/?cid=0x0:0x6a96af07474c986b"
"perumahan";"Komplek perumahan";"Rumah firas";"C32J+RHC, Tualang Baru, Kec. Manyak Payed, Kabupaten Aceh Tamiang, Aceh 24471";"Tualang Baru, Kec. Manyak Payed, Kabupaten Aceh Tamiang";"ACEH";"24471";"Indonesia";"";"4.4019825";"98.0820255";"https://maps.google.com/?cid=0x0:0x1cf3820c077d005f"
"perumahan";"Komplek perumahan";"Griya";"C23W+QV6, Benteng Anyer, Kec. Manyak Payed, Kabupaten Aceh Tamiang, Aceh 24471";"Benteng Anyer, Kec. Manyak Payed, Kabupaten Aceh Tamiang";"ACEH";"24471";"Indonesia";"";"4.4044125";"98.0471406";"https://maps.google.com/?cid=0x0:0xe9829b2df9f6bb5a"
"perumahan";"Komplek perumahan";"Rumah Tgk Nu";"C3G7+FRC, Tj. Neraca, Kec. Manyak Payed, Kabupaten Aceh Tamiang, Aceh 24471";"Tj. Neraca, Kec. Manyak Payed, Kabupaten Aceh Tamiang";"ACEH";"24471";"Indonesia";"";"4.426237";"98.0642142";"https://maps.google.com/?cid=0x0:0x4a917128d384749c"
"perumahan";"Komplek perumahan";"Ie bintah";"C349+JC5, Jalan, Gelanggang Merak, Manyak Payed, Aceh Tamiang Regency, Aceh 24471";"Jalan, Gelanggang Merak, Manyak Payed, Aceh Tamiang Regency";"ACEH";"24471";"Indonesia";"";"4.406515";"98.0686233";"https://maps.google.com/?cid=0x0:0xdeea98969b7fcce4"
"perumahan";"Komplek perumahan";"rumah Dewi";"92X6+7CG, Paya Ketenggar, Kec. Manyak Payed, Kabupaten Aceh Tamiang, Aceh 24471";"Paya Ketenggar, Kec. Manyak Payed, Kabupaten Aceh Tamiang";"ACEH";"24471";"Indonesia";"";"4.3981916";"98.0110677";"https://maps.google.com/?cid=0x0:0x21014e2c519dd571"
"perumahan";"Komplek perumahan";"Rumah mauliza";"C23G+39C, Paya Ketenggar, Kec. Manyak Payed, Kabupaten Aceh Tamiang, Aceh 24471";"Paya Ketenggar, Kec. Manyak Payed, Kabupaten Aceh Tamiang";"ACEH";"24471";"Indonesia";"";"4.4026995";"98.0258899";"https://maps.google.com/?cid=0x0:0xbcecfd15af1a6d7"
"perumahan";"Rumah Sakit";"Puskesmas Kec. Manyak Payed";"93XG+M7Q, Tualang Baru, Kec. Manyak Payed, Kabupaten Aceh Tamiang, Aceh 24471";"Tualang Baru, Kec. Manyak Payed, Kabupaten Aceh Tamiang";"ACEH";"24471";"Indonesia";"";"4.3992076";"98.0757273";"https://maps.google.com/?cid=0x0:0x325f7f1a0d2833e8"
"perumahan";"Komplek perumahan";"rumah Wak Tolo";"93XC+G3J, Jl. Lintas Sumatra, Tualang Baru, Kec. Manyak Payed, Kabupaten Aceh Tamiang, Aceh 24471";"Jl. Lintas Sumatra, Tualang Baru, Kec. Manyak Payed, Kabupaten Aceh Tamiang";"ACEH";"24471";"Indonesia";"";"4.398841";"98.0701491";"https://maps.google.com/?cid=0x0:0xf7509bd3dd044449"
"perumahan";"Perhimpunan Pengembang Perumahan";"Alpian Darmin";"C322+2X4, Seuneubok Baru, Kec. Manyak Payed, Kabupaten Aceh Tamiang, Aceh 24471";"Seuneubok Baru, Kec. Manyak Payed, Kabupaten Aceh Tamiang";"ACEH";"24471";"Indonesia";"";"4.400023";"98.0524467";"https://maps.google.com/?cid=0x0:0xf424ebf5ccaeae45"
"perumahan";"Komplek perumahan";"Rumah njid";"C3FC+2P8, Gelanggang Merak, Simpang Lhee, Kec. Manyak Payed, Kabupaten Aceh Tamiang, Aceh 24471";"Gelanggang Merak, Simpang Lhee, Kec. Manyak Payed, Kabupaten Aceh Tamiang";"ACEH";"24471";"Indonesia";"";"4.4226616";"98.0716832";"https://maps.google.com/?cid=0x0:0xa8fe502ff6a41665"
"perumahan";"Komplek perumahan";"Rumah runa";"93VM+PMQ, Sapta Marga, Kec. Manyak Payed, Kabupaten Aceh Tamiang, Aceh 24471";"Sapta Marga, Kec. Manyak Payed, Kabupaten Aceh Tamiang";"ACEH";"24471";"Indonesia";"";"4.3943338";"98.0842383";"https://maps.google.com/?cid=0x0:0x159ffee024c60169"
"perumahan";"perumahan";"Aceh 24474";"Kec. Kejuruan Muda, Kabupaten Aceh Tamiang, Aceh";"Kabupaten Aceh Tamiang, Aceh";"ACEH";"";"Indonesia";"";"4.2123421";"98.0247005";"https://maps.google.com/?cid=0x0:0xe116e26a288dda02"
"perumahan";"perumahan";"Rumah nek yateni";"53F4+7VV, Karangjadi, Kec. Kejuruan Muda, Kabupaten Aceh Tamiang, Sumatera Utara";"Kabupaten Aceh Tamiang, Sumatera Utara";"ACEH";"";"Indonesia";"";"4.1732301";"98.0571728";"https://maps.google.com/?cid=0x0:0x3cd5095cc744bee5"
"perumahan";"Komplek perumahan";"Keluarga ParTo";"6W3X+J2V, Perk Pulau Tiga, Kec. Tamiang Hulu, Kabupaten Aceh Tamiang, Aceh 24474";"Perk Pulau Tiga, Kec. Tamiang Hulu, Kabupaten Aceh Tamiang";"ACEH";"24474";"Indonesia";"";"4.2041074";"97.9475598";"https://maps.google.com/?cid=0x0:0xca36094ad9d29eb4"
"perumahan";"Kantor Perusahaan";"Perumahan komplek PT sisirau";"6337+279, Sidodadi, Kec. Kejuruan Muda, Kabupaten Aceh Tamiang, Aceh 24474";"Sidodadi, Kec. Kejuruan Muda, Kabupaten Aceh Tamiang";"ACEH";"24474";"Indonesia";"";"4.2025353";"98.0632383";"https://maps.google.com/?cid=0x0:0x76b1f7dd04b16175"
"perumahan";"Pembangunan Perumahan";"Jalan Utama Dan Alternatif Desa Suka Jaya Kec.Besitang Kab.Langkat";"53W6+9MF, Kp. Jawa, Kec. Kejuruan Muda, Kabupaten Aceh Tamiang, Aceh 24474";"Kp. Jawa, Kec. Kejuruan Muda, Kabupaten Aceh Tamiang";"ACEH";"24474";"Indonesia";"";"4.1959477";"98.0616672";"https://maps.google.com/?cid=0x0:0xc5bcd909b8e0b0cb"
"perumahan";"Komplek perumahan";"Alur selawi";"63G4+GWR, Jl. Lintas Sumatra, Sungai Liput, Kec. Kejuruan Muda, Kabupaten Aceh Tamiang, Aceh 24474";"Jl. Lintas Sumatra, Sungai Liput, Kec. Kejuruan Muda, Kabupaten Aceh Tamiang";"ACEH";"24474";"Indonesia";"";"4.2268083";"98.0571176";"https://maps.google.com/?cid=0x0:0x41d6b6e2499f3327"
"perumahan";"Komplek perumahan";"Rumah Comel Aulia";"63G5+2W2, Sungai Liput, Kec. Kejuruan Muda, Kabupaten Aceh Tamiang, Aceh";"Kabupaten Aceh Tamiang, Aceh";"ACEH";"";"Indonesia";"";"4.2250132";"98.05978";"https://maps.google.com/?cid=0x0:0xf5b1955f938b84c3"
"perumahan";"Komplek perumahan";"Perumahan Karyawan MOPOLI RAYA";"739X+63Q, Suka Mulia, Kec. Rantau, Kabupaten Aceh Tamiang, Aceh 24453";"Suka Mulia, Kec. Rantau, Kabupaten Aceh Tamiang";"ACEH";"24453";"Indonesia";"";"4.2680783";"98.0977487";"https://maps.google.com/?cid=0x0:0x7b5639d6aec36c59"
"perumahan";"perumahan";"Rumah dwi rahmayani";"63M7+6Q6, Sungai Liput, Kec. Kejuruan Muda, Kabupaten Aceh Tamiang, Aceh";"Kabupaten Aceh Tamiang, Aceh";"ACEH";"";"Indonesia";"";"4.2330293";"98.064376";"https://maps.google.com/?cid=0x0:0x9a463f3d4c29f24b"
"perumahan";"Komplek perumahan";"rumah Aulia Nabilla";"63G5+FHX, Sungai Liput, Kec. Kejuruan Muda, Kabupaten Aceh Tamiang, Aceh";"Kabupaten Aceh Tamiang, Aceh";"ACEH";"";"Indonesia";"";"4.2262434";"98.0589702";"https://maps.google.com/?cid=0x0:0xab3c5f5e5c60107d"
"perumahan";"Agricultural production";"Stsiun s liput";"63Q2+98G, Unnamed Road, Pangkalan, Kec. Kejuruan Muda, Kabupaten Aceh Tamiang, Aceh 24474";"Unnamed Road, Pangkalan, Kec. Kejuruan Muda, Kabupaten Aceh Tamiang";"ACEH";"24474";"Indonesia";" 082275239221";"4.2384422";"98.0508199";"https://maps.google.com/?cid=0x0:0x696e347b3ec6d8d6"
"perumahan";"Komplek perumahan";"Rumah anton";"739V+P4, Ingin Jaya, Kec. Rantau, Kabupaten Aceh Tamiang, Aceh 24453";"Ingin Jaya, Kec. Rantau, Kabupaten Aceh Tamiang";"ACEH";"24453";"Indonesia";"";"4.2692867";"98.0927865";"https://maps.google.com/?cid=0x0:0x9c63f9908485e7dc"
"perumahan";"Komplek perumahan";"Rumah Edi";"62R3+F2, Tj. Genteng, Kec. Kejuruan Muda, Kabupaten Aceh Tamiang, Aceh";"Kabupaten Aceh Tamiang, Aceh";"ACEH";"";"Indonesia";"";"4.2411614";"98.0025312";"https://maps.google.com/?cid=0x0:0x8219adb00d34c757"
"perumahan";"Perhimpunan Pengembang Perumahan";"Rumah peribadi Irwansyah";"6X9W+3XM, Tj. Genteng, Kec. Kejuruan Muda, Kabupaten Aceh Tamiang, Aceh 24474";"Tj. Genteng, Kec. Kejuruan Muda, Kabupaten Aceh Tamiang";"ACEH";"24474";"Indonesia";"";"4.2177025";"97.9974374";"https://maps.google.com/?cid=0x0:0x81bb51e53854b9e8"
"perumahan";"Pembangunan Perumahan";"Peyek kacang";"Jl. Medan - Banda Aceh Kp No.Km 5, RW.23, Tanah Terban, Kec. Karang Baru, Kabupaten Aceh Tamiang, Aceh 24476";"RW.23, Tanah Terban, Kec. Karang Baru, Kabupaten Aceh Tamiang";"ACEH";"24476";"Indonesia";"";"4.3156897";"98.0599325";"https://maps.google.com/?cid=0x0:0x687682d04d83db25"
"perumahan";"perumahan";"Aceh 24476";"Kabupaten Aceh Tamiang, Aceh";"Kabupaten Aceh Tamiang, Aceh";"ACEH";"";"Indonesia";"";"4.3288776";"98.0628862";"https://maps.google.com/?cid=0x0:0x82d848b4ba041829"
"perumahan";"Perhimpunan Pengembang Perumahan";"Tempat Cocok Untuk Bercocok Tanam";"83H5+3GX, Gampong Tupah, Kec. Karang Baru, Kabupaten Aceh Tamiang, Aceh 24476";"Gampong Tupah, Kec. Karang Baru, Kabupaten Aceh Tamiang";"ACEH";"24476";"Indonesia";"";"4.3277393";"98.0588724";"https://maps.google.com/?cid=0x0:0xb3a3c63f4b460531"
"perumahan";"Kantor Perusahaan";"Perumahan Waldy Residence";"8354+5X9, Tanah Terban, Kec. Karang Baru, Kabupaten Aceh Tamiang, Aceh 24456";"Tanah Terban, Kec. Karang Baru, Kabupaten Aceh Tamiang";"ACEH";"24456";"Indonesia";"";"4.3078616";"98.0574508";"https://maps.google.com/?cid=0x0:0x3775fc6576b1027f"
"perumahan";"Pembangunan Perumahan";"Dedi Vario Jinjit";"73WJ+5V6, Jl. Rantau, Kp. Durian, Kec. Rantau, Kabupaten Aceh Tamiang, Aceh 24476";"Jl. Rantau, Kp. Durian, Kec. Rantau, Kabupaten Aceh Tamiang";"ACEH";"24476";"Indonesia";" 085212590648";"4.2954135";"98.0821472";"https://maps.google.com/?cid=0x0:0x3ea60a749b0e3e87"
"perumahan";"Perhimpunan Pengembang Perumahan";"Griya Rizqy Residen II";"73Q9+JCR, Jl.Rantau Kp.Landuh, Benua Raja, Kec. Rantau, Kabupaten Aceh Tamiang, Aceh 24476";"Jl.Rantau Kp.Landuh, Benua Raja, Kec. Rantau, Kabupaten Aceh Tamiang";"ACEH";"24476";"Indonesia";" 081360183802";"4.2891016";"98.0685272";"https://maps.google.com/?cid=0x0:0xa0a93c7c9518e3d1"
"perumahan";"Komplek perumahan";"Perumahan Cempaka Indah";"8347+H4R, Gampong Air Tenang, Kec. Karang Baru, Kabupaten Aceh Tamiang, Aceh 24458";"Gampong Air Tenang, Kec. Karang Baru, Kabupaten Aceh Tamiang";"ACEH";"24458";"Indonesia";"";"4.3064831";"98.0627769";"https://maps.google.com/?cid=0x0:0x30ec200a714b57d3"
"perumahan";"Asosiasi pemilik rumah";"Rumah Ifat";"83PF+W4W, Medang Ara, Kec. Karang Baru, Kabupaten Aceh Tamiang, Aceh 24476";"Medang Ara, Kec. Karang Baru, Kabupaten Aceh Tamiang";"ACEH";"24476";"Indonesia";"";"4.3373629";"98.0728402";"https://maps.google.com/?cid=0x0:0xad4d2e5a62f3d2f"
"perumahan";"Pembangunan Perumahan";"Perumahan Bumi Indah Nuansa";"83G5+QC, Gampong Tupah, Kec. Karang Baru, Kabupaten Aceh Tamiang, Aceh 24476";"Gampong Tupah, Kec. Karang Baru, Kabupaten Aceh Tamiang";"ACEH";"24476";"Indonesia";"";"4.3269872";"98.0585552";"https://maps.google.com/?cid=0x0:0x28cc43f983fdb0c0"
"perumahan";"Komplek perumahan";"RUMAH SYUKURDI";"83C5+3WM, Desa Terban, Gang Bunga, Gampong Tupah, Kec. Karang Baru, Kabupaten Aceh Tamiang, Aceh 24476";"Desa Terban, Gang Bunga, Gampong Tupah, Kec. Karang Baru, Kabupaten Aceh Tamiang";"ACEH";"24476";"Indonesia";"";"4.3202022";"98.0597967";"https://maps.google.com/?cid=0x0:0x3b9d82657e14667f"
"perumahan";"Komplek perumahan";"Perumahan Zhava Permai";"839X+HMM, Dusun Lalang, Alur Cucur, Kec. Rantau, Kabupaten Aceh Tamiang, Aceh 24476";"Dusun Lalang, Alur Cucur, Kec. Rantau, Kabupaten Aceh Tamiang";"ACEH";"24476";"Indonesia";"";"4.3189584";"98.0991816";"https://maps.google.com/?cid=0x0:0x7f673b9550a796d4"
"perumahan";"Komplek perumahan";"Rumah Najmul cantik";"8395+2M9, Gampong Johar, Kec. Karang Baru, Kabupaten Aceh Tamiang, Aceh 24476";"Gampong Johar, Kec. Karang Baru, Kabupaten Aceh Tamiang";"ACEH";"24476";"Indonesia";"";"4.3175362";"98.0592464";"https://maps.google.com/?cid=0x0:0xa300f7e33ad6b314"
"perumahan";"Komplek perumahan";"Rumah ku";"83C6+J2G, Gampong Tupah, Kec. Karang Baru, Kabupaten Aceh Tamiang, Aceh 24476";"Gampong Tupah, Kec. Karang Baru, Kabupaten Aceh Tamiang";"ACEH";"24476";"Indonesia";"";"4.3215518";"98.0600703";"https://maps.google.com/?cid=0x0:0x9c3f6a87fe49d181"
"perumahan";"Komplek perumahan";"Rumah Drs. Abdul Muthalib";"8395+5WW, Tanah Terban, Kec. Karang Baru, Kabupaten Aceh Tamiang, Aceh 24476";"Tanah Terban, Kec. Karang Baru, Kabupaten Aceh Tamiang";"ACEH";"24476";"Indonesia";"";"4.3181764";"98.0598071";"https://maps.google.com/?cid=0x0:0x21234da6235bb259"
"perumahan";"Komplek perumahan";"Seruwai";"96C7+665, Paya Udang, Kec. Seuruway, Kabupaten Aceh Tamiang, Aceh";"Kabupaten Aceh Tamiang, Aceh";"ACEH";"";"Indonesia";"";"4.3705247";"98.2130958";"https://maps.google.com/?cid=0x0:0xc3e228bb527538cd"
"perumahan";"Perhimpunan Pengembang Perumahan";"Rumah Reva";"747G+PR8, Suka Mulia, Kec. Rantau, Kabupaten Aceh Tamiang, Aceh";"Kabupaten Aceh Tamiang, Aceh";"ACEH";"";"Indonesia";"";"4.2636395";"98.1275667";"https://maps.google.com/?cid=0x0:0x21b4bc6f15b1ff4f"
"perumahan";"perumahan";"Aceh 24473";"Aceh";"Aceh";"ACEH";"";"Indonesia";"";"4.2670304";"98.1393179";"https://maps.google.com/?cid=0x0:0x7edc8ec14cab902a"
"perumahan";"Komplek perumahan";"Rumah Tawang";"74FC+C9Q, Dusun rejo, Suka Rahmat, Kec. Rantau, Kabupaten Aceh Tamiang, Aceh 24473";"Dusun rejo, Suka Rahmat, Kec. Rantau, Kabupaten Aceh Tamiang";"ACEH";"24473";"Indonesia";"";"4.2730833";"98.12112";"https://maps.google.com/?cid=0x0:0xa4b4c8e0ec2360f8"
"perumahan";"Kantor Perusahaan";"Rumah Novi Swariyani";"74GV+FP2, Dusun Melati, Suka Mulia, Kec. Rantau, Kabupaten Aceh Tamiang, Aceh";"Kabupaten Aceh Tamiang, Aceh";"ACEH";"";"Indonesia";"";"4.276144";"98.1442736";"https://maps.google.com/?cid=0x0:0xc432b0e9e61ca83b"
"perumahan";"Komplek perumahan";"Perumahan Karyawan MOPOLI RAYA";"739X+63Q, Suka Mulia, Kec. Rantau, Kabupaten Aceh Tamiang, Aceh 24453";"Suka Mulia, Kec. Rantau, Kabupaten Aceh Tamiang";"ACEH";"24453";"Indonesia";"";"4.2680783";"98.0977487";"https://maps.google.com/?cid=0x0:0x7b5639d6aec36c59"
"perumahan";"Perhimpunan Pengembang Perumahan";"Rumah Ngatiman ( Wati )";"74PW+6C2, Desa suka mulia dusun anggrek, Kec. Rantau, Kabupaten Aceh Tamiang";"Kabupaten Aceh Tamiang, Aceh";"ACEH";"";"Indonesia";"";"4.2855052";"98.1460264";"https://maps.google.com/?cid=0x0:0xf9110308a9c6e491"
"perumahan";"Kantor Perusahaan";"Perumahan PKS Gedong Biara";"Jamur Jelatang, Rantau, Jamur Jelatang, Kec. Rantau, Kabupaten Aceh Tamiang, Aceh 24352";"Rantau, Jamur Jelatang, Kec. Rantau, Kabupaten Aceh Tamiang";"ACEH";"24352";"Indonesia";"";"4.2920736";"98.1527188";"https://maps.google.com/?cid=0x0:0x7916cea7ceb411d9"
"perumahan";"Komplek perumahan";"Suwarman Family's";"747G+72G, Suka Mulia, Kec. Rantau, Kabupaten Aceh Tamiang, Aceh 24453";"Suka Mulia, Kec. Rantau, Kabupaten Aceh Tamiang";"ACEH";"24453";"Indonesia";"";"4.262708";"98.1249911";"https://maps.google.com/?cid=0x0:0x8eae884260b00cfa"
"perumahan";"Komplek perumahan";"Rumah mamak";"75XM+PRR, Unnamed Road, Air Masin, Kec. Seuruway, Kabupaten Aceh Tamiang, Aceh 24392";"Unnamed Road, Air Masin, Kec. Seuruway, Kabupaten Aceh Tamiang";"ACEH";"24392";"Indonesia";"";"4.2993517";"98.1845063";"https://maps.google.com/?cid=0x0:0x9b01e706fea608ea"
"perumahan";"Komplek perumahan";"Rumah RZ";"74H2+8XJ, Suka Mulia, Kec. Rantau, Kabupaten Aceh Tamiang, Aceh";"Kabupaten Aceh Tamiang, Aceh";"ACEH";"";"Indonesia";"";"4.2783309";"98.1023788";"https://maps.google.com/?cid=0x0:0x2aaf3fcfb724a81"
"perumahan";"Asosiasi/organisasi";"Rumah ais";"747G+35G, Jl. Sapta Jaya, Suka Rahmat, Kec. Rantau, Kabupaten Aceh Tamiang, Aceh 24453";"Jl. Sapta Jaya, Suka Rahmat, Kec. Rantau, Kabupaten Aceh Tamiang";"ACEH";"24453";"Indonesia";"";"4.2626829";"98.1254404";"https://maps.google.com/?cid=0x0:0xbb84fac866534184"
"perumahan";"Komplek perumahan";"Rumah Diki Erlangga";"747H+8V, Suka Rahmat, Kec. Rantau, Kabupaten Aceh Tamiang, Aceh";"Kabupaten Aceh Tamiang, Aceh";"ACEH";"";"Indonesia";"";"4.2632965";"98.1296257";"https://maps.google.com/?cid=0x0:0xddb343af4a49cdda"
"perumahan";"Komplek perumahan";"Rumah Wahyu";"74JG+JV, Jamur Jelatang, Kec. Rantau, Kabupaten Aceh Tamiang, Aceh 24473";"Jamur Jelatang, Kec. Rantau, Kabupaten Aceh Tamiang";"ACEH";"24473";"Indonesia";"";"4.2822829";"98.1270222";"https://maps.google.com/?cid=0x0:0x6fb055a83e1a3f3d"
"perumahan";"Komplek perumahan";"Rumah ku";"5XV2+74, Perk Pulau Tiga, Kec. Tamiang Hulu, Kabupaten Aceh Tamiang, Aceh 24474";"Perk Pulau Tiga, Kec. Tamiang Hulu, Kabupaten Aceh Tamiang";"ACEH";"24474";"Indonesia";"";"4.1932319";"97.9503072";"https://maps.google.com/?cid=0x0:0xb4433da75b77cde6"
"perumahan";"perumahan";"Kec. Tamiang Hulu";"Kabupaten Aceh Tamiang, Aceh";"Kabupaten Aceh Tamiang, Aceh";"ACEH";"";"Indonesia";"";"4.1633008";"97.9539786";"https://maps.google.com/?cid=0x0:0x4376a9df79cb4397"
"perumahan";"Komplek perumahan";"Rumah inayah";"6WM9+CJ8, Harum Sari, Kec. Tamiang Hulu, Kabupaten Aceh Tamiang, Aceh 24382";"Harum Sari, Kec. Tamiang Hulu, Kabupaten Aceh Tamiang";"ACEH";"24382";"Indonesia";"";"4.2331427";"97.9196982";"https://maps.google.com/?cid=0x0:0xd655e902657cb7a0"
"perumahan";"Pembangunan Perumahan";"Karlina";"4XP6+MH, Alur Tani I, Kec. Tamiang Hulu, Kabupaten Aceh Tamiang, Aceh 24477";"Alur Tani I, Kec. Tamiang Hulu, Kabupaten Aceh Tamiang";"ACEH";"24477";"Indonesia";"";"4.137274";"97.9616001";"https://maps.google.com/?cid=0x0:0xece02381d2cdcf2"
"perumahan";"Komplek perumahan";"Perumahan morena";"5WJR+57M, Perk Pulau Tiga, Kec. Tamiang Hulu, Kabupaten Aceh Tamiang, Aceh";"Kabupaten Aceh Tamiang, Aceh";"ACEH";"";"Indonesia";"";"4.1804542";"97.9406717";"https://maps.google.com/?cid=0x0:0xd2ceb3ad95babd7c"
"perumahan";"Komplek perumahan";"Rumah Pak Tiwa";"3WPV+PQ, Selamat, Kec. Tenggulun, Kabupaten Aceh Tamiang, Aceh";"Kabupaten Aceh Tamiang, Aceh";"ACEH";"";"Indonesia";"";"4.0867759";"97.9444082";"https://maps.google.com/?cid=0x0:0x93b685f4516e22d6"
"perumahan";"Komplek perumahan";"Keluarga ParTo";"6W3X+J2V, Perk Pulau Tiga, Kec. Tamiang Hulu, Kabupaten Aceh Tamiang, Aceh 24474";"Perk Pulau Tiga, Kec. Tamiang Hulu, Kabupaten Aceh Tamiang";"ACEH";"24474";"Indonesia";"";"4.2041074";"97.9475598";"https://maps.google.com/?cid=0x0:0xca36094ad9d29eb4"
"perumahan";"Inspektur Tempat Tinggal";"Rumah saye";"5X93+3FJ Tmay Project, Perk Pulau Tiga, Kec. Tamiang Hulu, Kabupaten Aceh Tamiang, Aceh 24477";"Perk Pulau Tiga, Kec. Tamiang Hulu, Kabupaten Aceh Tamiang";"ACEH";"24477";"Indonesia";"";"4.1683497";"97.954036";"https://maps.google.com/?cid=0x0:0xccb1cb6eba303069"
"perumahan";"Komplek perumahan";"Pulau tiga aceh tamiang";"5X63+WV9, Perk Pulau Tiga, Kec. Tamiang Hulu, Kabupaten Aceh Tamiang, Aceh";"Kabupaten Aceh Tamiang, Aceh";"ACEH";"";"Indonesia";"";"4.1622924";"97.9547211";"https://maps.google.com/?cid=0x0:0x2a49b3e5bc180ca6"
"perumahan";"Komplek perumahan";"Rumah tinggal torak";"5W5X+26G, Bandar Khalifah, Kec. Tamiang Hulu, Kabupaten Aceh Tamiang, Aceh";"Kabupaten Aceh Tamiang, Aceh";"ACEH";"";"Indonesia";"";"4.1575576";"97.9480639";"https://maps.google.com/?cid=0x0:0x28ac46f2203c80a"
"perumahan";"perumahan";"Mbah kartak";"5WXC+7F6, Bandar Setia, Kec. Tamiang Hulu, Kabupaten Aceh Tamiang, Aceh 24382";"Bandar Setia, Kec. Tamiang Hulu, Kabupaten Aceh Tamiang";"ACEH";"24382";"Indonesia";"";"4.1981668";"97.9211555";"https://maps.google.com/?cid=0x0:0xee41e6fab4190bc6"
"perumahan";"Komplek perumahan";"Rumah pak WIT";"5X54+FH, Perk Pulau Tiga, Kec. Tamiang Hulu, Kabupaten Aceh Tamiang, Aceh";"Kabupaten Aceh Tamiang, Aceh";"ACEH";"";"Indonesia";"";"4.1590122";"97.9575573";"https://maps.google.com/?cid=0x0:0x22cef23cbbadf1bc"
"perumahan";"Komplek perumahan";"Rumah coklem";"5W4G+F7W, Kaloy, Kec. Tamiang Hulu, Kabupaten Aceh Tamiang, Aceh 24382";"Kaloy, Kec. Tamiang Hulu, Kabupaten Aceh Tamiang";"ACEH";"24382";"Indonesia";"";"4.1569291";"97.9257952";"https://maps.google.com/?cid=0x0:0x9c1d1865892ecc5"
"perumahan";"Pembangunan Perumahan";"Rumah pak muhar";"6WP8+VV6, Wono Sari, Kec. Tamiang Hulu, Kabupaten Aceh Tamiang, Aceh 24382";"Wono Sari, Kec. Tamiang Hulu, Kabupaten Aceh Tamiang";"ACEH";"24382";"Indonesia";"";"4.2369662";"97.9164896";"https://maps.google.com/?cid=0x0:0x2591364a15f4e757"
"perumahan";"perumahan";"Aceh 24477";"Kabupaten Aceh Tamiang, Aceh";"Kabupaten Aceh Tamiang, Aceh";"ACEH";"";"Indonesia";"";"3.9904163";"97.9157099";"https://maps.google.com/?cid=0x0:0x559940852b05002f"
"perumahan";"Inspektur Tempat Tinggal";"Rumah silae";"3XWR+2V4, Tenggulun, Kec. Tenggulun, Kabupaten Aceh Tamiang, Aceh 24477";"Tenggulun, Kec. Tenggulun, Kabupaten Aceh Tamiang";"ACEH";"24477";"Indonesia";"";"4.0950061";"97.992238";"https://maps.google.com/?cid=0x0:0x1e4191a73b6bc01d"
"perumahan";"Komplek perumahan";"Rumah Buk Nung Om Robin";"3XQ2+GH3, Selamat, Kec. Tenggulun, Kabupaten Aceh Tamiang, Aceh 24477";"Selamat, Kec. Tenggulun, Kabupaten Aceh Tamiang";"ACEH";"24477";"Indonesia";"";"4.0887607";"97.9514354";"https://maps.google.com/?cid=0x0:0xe892039bf51dc816"
"perumahan";"Komplek perumahan";"Putri House";"3234+QF, Tenggulun, Kec. Tenggulun, Kabupaten Aceh Tamiang, Aceh";"Kabupaten Aceh Tamiang, Aceh";"ACEH";"";"Indonesia";"";"4.0550921";"98.0069809";"https://maps.google.com/?cid=0x0:0x3ff489d6671c364f"
"perumahan";"Gudang";"Tenggulun Jaya";"3262+7W, Tenggulun, Kec. Tenggulun, Kabupaten Aceh Tamiang, Aceh 24477";"Tenggulun, Kec. Tenggulun, Kabupaten Aceh Tamiang";"ACEH";"24477";"Indonesia";"";"4.060708";"98.002252";"https://maps.google.com/?cid=0x0:0xaff56b0bb316360b"
"perumahan";"Kantor Perusahaan";"SISIRAU ESTATE OFFICE";"32GF+HJ5, Tenggulun, Kec. Tenggulun, Kabupaten Aceh Tamiang, Aceh 24477";"Tenggulun, Kec. Tenggulun, Kabupaten Aceh Tamiang";"ACEH";"24477";"Indonesia";"";"4.0763983";"98.0241168";"https://maps.google.com/?cid=0x0:0xa406fa3df6160452"
"perumahan";"Komplek perumahan";"Rumah Pak Tiwa";"3WPV+PQ, Selamat, Kec. Tenggulun, Kabupaten Aceh Tamiang, Aceh";"Kabupaten Aceh Tamiang, Aceh";"ACEH";"";"Indonesia";"";"4.0867759";"97.9444082";"https://maps.google.com/?cid=0x0:0x93b685f4516e22d6"
"perumahan";"Komplek perumahan";"Komplek Perumahan Karyawan PT. Bahruni";"428F+4C, Rimba Sawang, Kec. Tenggulun, Kabupaten Aceh Tamiang, Aceh";"Kabupaten Aceh Tamiang, Aceh";"ACEH";"";"Indonesia";"";"4.115254";"98.023523";"https://maps.google.com/?cid=0x0:0xc6cc134c6b13fe25"
"perumahan";"Pembangunan Perumahan";"Rumah Wak Surono (sawah)";"2XQW+3WM, Tenggulun, Kec. Tenggulun, Kabupaten Aceh Tamiang, Aceh";"Kabupaten Aceh Tamiang, Aceh";"ACEH";"";"Indonesia";"";"4.0373941";"97.9978497";"https://maps.google.com/?cid=0x0:0xe43b596ed56bfba4"
"perumahan";"Perkebunan Pohon";"Perumahan Sekundur PT. Evans Grup";"2297+49G, Tenggulun, Kec. Tenggulun, Kabupaten Aceh Tamiang, Aceh";"Kabupaten Aceh Tamiang, Aceh";"ACEH";"";"Indonesia";"";"4.0178153";"98.0134619";"https://maps.google.com/?cid=0x0:0xd366b95fa0c78e92"
"perumahan";"Komplek perumahan";"P.putih";"3W6G+FJ9, Selamat, Kec. Tenggulun, Kabupaten Aceh Tamiang, Aceh 24477";"Selamat, Kec. Tenggulun, Kabupaten Aceh Tamiang";"ACEH";"24477";"Indonesia";"";"4.0611734";"97.9266015";"https://maps.google.com/?cid=0x0:0x403190fd6f9dbd65"
"perumahan";"Pembangunan Perumahan";"Tulang tukol";"3XHM+Q8Q, Tenggulun, Kec. Tenggulun, Kabupaten Aceh Tamiang, Aceh 24477";"Tenggulun, Kec. Tenggulun, Kabupaten Aceh Tamiang";"ACEH";"24477";"Indonesia";"";"4.0794567";"97.9833722";"https://maps.google.com/?cid=0x0:0xc0aa533d4f0b88e"
"perumahan";"Toko Elektronik";"Kampung selamat";"3W8F+5F, Selamat, Kec. Tenggulun, Kabupaten Aceh Tamiang, Aceh";"Kabupaten Aceh Tamiang, Aceh";"ACEH";"";"Indonesia";"";"4.0642543";"97.9218317";"https://maps.google.com/?cid=0x0:0x59319c8dcfbde580"
"perumahan";"Perhimpunan Pengembang Perumahan";"Sawah cetak";"2XQW+3WM, Tenggulun, Kec. Tenggulun, Kabupaten Aceh Tamiang, Aceh";"Kabupaten Aceh Tamiang, Aceh";"ACEH";"";"Indonesia";"";"4.0377215";"97.9973012";"https://maps.google.com/?cid=0x0:0x2454b110800e727c"
"housing complex";"housing complex";"Kec. Banda Mulia";"Kabupaten Aceh Tamiang, Aceh";"Kabupaten Aceh Tamiang, Aceh";"ACEH";"";"Indonesia";"";"4.4405846";"98.1360921";"https://maps.google.com/?cid=0x0:0xe04c2bd9d3d421e8"
"housing complex";"Komplek perumahan";"Suka Mulia";"94R5+G3H, Upah, Kec. Banda Mulia, Kabupaten Aceh Tamiang, Aceh 24471";"Upah, Kec. Banda Mulia, Kabupaten Aceh Tamiang";"ACEH";"24471";"Indonesia";"";"4.3912826";"98.1068667";"https://maps.google.com/?cid=0x0:0xf622c2f937996260"
"housing complex";"Perumahan";"Rumah zakii";"C4Q5+JP5, Telaga Meuku II, Kec. Banda Mulia, Kabupaten Aceh Tamiang, Aceh";"Kabupaten Aceh Tamiang, Aceh";"ACEH";"";"Indonesia";"";"4.438847";"98.110041";"https://maps.google.com/?cid=0x0:0xe794c91b683766fd"
"housing complex";"Perumahan";"Rumah adin";"F44P+MC9, Alur Nunang, Kec. Banda Mulia, Kabupaten Aceh Tamiang, Aceh";"Kabupaten Aceh Tamiang, Aceh";"ACEH";"";"Indonesia";"";"4.4566582";"98.1361118";"https://maps.google.com/?cid=0x0:0x867f02326f0bf8b3"
"housing complex";"Komplek perumahan";"Rumah Sakimin Manisem";"C488+975, Sukajadi, Kec. Banda Mulia, Kabupaten Aceh Tamiang, Aceh 24471";"Sukajadi, Kec. Banda Mulia, Kabupaten Aceh Tamiang";"ACEH";"24471";"Indonesia";"";"4.4157149";"98.1157583";"https://maps.google.com/?cid=0x0:0x2dd1361378cbdf5e"
"housing complex";"Perumahan";"rumah wett";"C42F+JXJ, Marlempang, Kec. Banda Mulia, Kabupaten Aceh Tamiang, Aceh";"Kabupaten Aceh Tamiang, Aceh";"ACEH";"";"Indonesia";"";"4.4015866";"98.1249005";"https://maps.google.com/?cid=0x0:0xe27a85a0a5d731ed"
"housing complex";"Komplek perumahan";"Rumah jamil";"C582+HGJ, Seuneubok Aceh, Kec. Bendahara, Kabupaten Aceh Tamiang, Aceh 24472";"Seuneubok Aceh, Kec. Bendahara, Kabupaten Aceh Tamiang";"ACEH";"24472";"Indonesia";"";"4.4167461";"98.1519752";"https://maps.google.com/?cid=0x0:0x7f46c59a286c4889"
"housing complex";"housing complex";"Dusun tanjung keramat desa paya udang kecamatan seruway kabupaten Aceh tamiang";"95CV+HG, Paya Udang, Kec. Seuruway, Kabupaten Aceh Tamiang, Aceh";"Kabupaten Aceh Tamiang, Aceh";"ACEH";"";"Indonesia";"";"4.3714325";"98.1937592";"https://maps.google.com/?cid=0x0:0x2b4de80c336c8f96"
"housing complex";"Perumahan";"Wahyu";"C4HF+M7, Gampong Besar, Kec. Banda Mulia, Kabupaten Aceh Tamiang, Aceh";"Kabupaten Aceh Tamiang, Aceh";"ACEH";"";"Indonesia";"";"4.4292164";"98.1232182";"https://maps.google.com/?cid=0x0:0xc06805983e9153fc"
"housing complex";"Komplek perumahan";"Rumah NUR FAIZAH";"C4VM+GG6, Telaga Meuku II, Kec. Banda Mulia, Kabupaten Aceh Tamiang, Aceh 24471";"Telaga Meuku II, Kec. Banda Mulia, Kabupaten Aceh Tamiang";"ACEH";"24471";"Indonesia";" 082273611299";"4.4437938";"98.1337784";"https://maps.google.com/?cid=0x0:0x9995e7e2b94daa40"
"housing complex";"Komplek perumahan";"Rumah Saya";"94V4+CMQ, Sukajadi, Kec. Banda Mulia, Kabupaten Aceh Tamiang, Aceh";"Kabupaten Aceh Tamiang, Aceh";"ACEH";"";"Indonesia";"";"4.3935827";"98.1067354";"https://maps.google.com/?cid=0x0:0x5b783c984a987a35"
"housing complex";"Kantor Perusahaan";"Desa Suka Mulia BD";"C569+4PX, Jl. Pekan Sungai Iyu, Suka Mulia Bendahara, Kec. Bendahara, Kabupaten Aceh Tamiang, Aceh 24472";"Jl. Pekan Sungai Iyu, Suka Mulia Bendahara, Kec. Bendahara, Kabupaten Aceh Tamiang";"ACEH";"24472";"Indonesia";"";"4.4103568";"98.169364";"https://maps.google.com/?cid=0x0:0xe6737ed8b62b83de"
"housing complex";"Pembangunan Perumahan";"In house";"93FX+88V, Upah, Kec. Bendahara, Kabupaten Aceh Tamiang, Aceh 24472";"Upah, Kec. Bendahara, Kabupaten Aceh Tamiang";"ACEH";"24472";"Indonesia";"";"4.374536";"98.0982065";"https://maps.google.com/?cid=0x0:0x62408f1ba614ea6a"
"housing complex";"Komplek perumahan";"Rumah Bang Jubir";"C4VM+GG6, Telaga Meuku II, Kec. Banda Mulia, Kabupaten Aceh Tamiang, Aceh 24471";"Telaga Meuku II, Kec. Banda Mulia, Kabupaten Aceh Tamiang";"ACEH";"24471";"Indonesia";"";"4.4437476";"98.1338698";"https://maps.google.com/?cid=0x0:0x8b2318b4364d8a8c"
"housing complex";"Komplek perumahan";"Rumah Bu Er";"7XP4+385, Perupuk, Kec. Bandar Pusaka, Kabupaten Aceh Tamiang, Aceh 24456";"Perupuk, Kec. Bandar Pusaka, Kabupaten Aceh Tamiang";"ACEH";"24456";"Indonesia";"";"4.2851251";"97.9558571";"https://maps.google.com/?cid=0x0:0x7480fee0e65f2f2a"
"housing complex";"Komplek perumahan";"Bandar pusaka";"82W6+VCW, Kebun Seleleh, Kec. Karang Baru, Kabupaten Aceh Tamiang, Aceh";"Kabupaten Aceh Tamiang, Aceh";"ACEH";"";"Indonesia";"";"4.3472473";"98.0110677";"https://maps.google.com/?cid=0x0:0xd0ea0669deafeb38"
"housing complex";"housing complex";"Kec. Bandar Pusaka";"Kabupaten Aceh Tamiang, Aceh";"Kabupaten Aceh Tamiang, Aceh";"ACEH";"";"Indonesia";"";"4.2948637";"97.8778752";"https://maps.google.com/?cid=0x0:0x2b7834261cf3e187"
"housing complex";"housing complex";"Dusun tanjung keramat desa paya udang kecamatan seruway kabupaten Aceh tamiang";"95CV+HG, Paya Udang, Kec. Seuruway, Kabupaten Aceh Tamiang, Aceh";"Kabupaten Aceh Tamiang, Aceh";"ACEH";"";"Indonesia";"";"4.3714325";"98.1937592";"https://maps.google.com/?cid=0x0:0x2b4de80c336c8f96"
"housing complex";"housing complex";"Kec. Bendahara";"Kabupaten Aceh Tamiang, Aceh";"Kabupaten Aceh Tamiang, Aceh";"ACEH";"";"Indonesia";"";"4.4074501";"98.1695001";"https://maps.google.com/?cid=0x0:0xa3729d585ef6a9a8"
"housing complex";"Pembangunan Perumahan";"In house";"93FX+88V, Upah, Kec. Bendahara, Kabupaten Aceh Tamiang, Aceh 24472";"Upah, Kec. Bendahara, Kabupaten Aceh Tamiang";"ACEH";"24472";"Indonesia";"";"4.374536";"98.0982065";"https://maps.google.com/?cid=0x0:0x62408f1ba614ea6a"
"housing complex";"Perhimpunan Pengembang Perumahan";"Kecamatan bendahara";"C673+5VG, Unnamed Road, Cinta Raja, Kec. Bendahara, Kabupaten Aceh Tamiang, Aceh 24472";"Unnamed Road, Cinta Raja, Kec. Bendahara, Kabupaten Aceh Tamiang";"ACEH";"24472";"Indonesia";"";"4.4129282";"98.2047171";"https://maps.google.com/?cid=0x0:0x6a344fa1c2fba1ff"
"housing complex";"Komplek perumahan";"BAHGIA";"95VX+7R3, Rantau Pakam, Kec. Bendahara, Kabupaten Aceh Tamiang, Aceh 24472";"Rantau Pakam, Kec. Bendahara, Kabupaten Aceh Tamiang";"ACEH";"24472";"Indonesia";"";"4.3936077";"98.2004006";"https://maps.google.com/?cid=0x0:0xcc2ba1a29235e54a"
"housing complex";"Komplek perumahan";"Lambung blang";"95J3+MH4, Lambung Blang, Kec. Bendahara, Kabupaten Aceh Tamiang, Aceh 24472";"Lambung Blang, Kec. Bendahara, Kabupaten Aceh Tamiang";"ACEH";"24472";"Indonesia";"";"4.3805762";"98.1536757";"https://maps.google.com/?cid=0x0:0x232a56d8520f0d7d"
"housing complex";"Komplek perumahan";"Mery";"C32J+9HH, Matang Teupah, Kec. Bendahara, Kabupaten Aceh Tamiang, Aceh 24471";"Matang Teupah, Kec. Bendahara, Kabupaten Aceh Tamiang";"ACEH";"24471";"Indonesia";"";"4.4009378";"98.081484";"https://maps.google.com/?cid=0x0:0xcc0fa09ec9b40bf"
"housing complex";"Komplek perumahan";"Hilal";"9466+PRG, Kebun Rantau, Kec. Rantau, Kabupaten Aceh Tamiang, Aceh 24472";"Kebun Rantau, Kec. Rantau, Kabupaten Aceh Tamiang";"ACEH";"24472";"Indonesia";"";"4.3611359";"98.1123827";"https://maps.google.com/?cid=0x0:0x6edc12d64c02ea35"
"housing complex";"Kantor Pemerintah";"Bandar Khalifah, kabupaten Aceh tamiang kecamatan bendahara";"C5G5+V98, Bandar Khalifah, Kec. Bendahara, Kabupaten Aceh Tamiang, Aceh";"Kabupaten Aceh Tamiang, Aceh";"ACEH";"";"Indonesia";"";"4.4271704";"98.1584384";"https://maps.google.com/?cid=0x0:0x6365ba1dd5a6b155"
"housing complex";"housing complex";"Rumah Afri";"95FP+44M, Tj. Mulia, Kec. Bendahara, Kabupaten Aceh Tamiang, Aceh 24472";"Tj. Mulia, Kec. Bendahara, Kabupaten Aceh Tamiang";"ACEH";"24472";"Indonesia";"";"4.3734933";"98.1852433";"https://maps.google.com/?cid=0x0:0x7298193016fb6498"
"housing complex";"Pemakaman";"Tengku Tinggi";"C52R+XCV, Cinta Raja, Kec. Bendahara, Kabupaten Aceh Tamiang, Aceh 24472";"Cinta Raja, Kec. Bendahara, Kabupaten Aceh Tamiang";"ACEH";"24472";"Indonesia";"";"4.4024636";"98.1909503";"https://maps.google.com/?cid=0x0:0x285c8da6e55fd8e1"
"housing complex";"Komplek perumahan";"Rumah Paksyah";"C47X+657, Seuneubok Aceh, Kec. Bendahara, Kabupaten Aceh Tamiang, Aceh 24472";"Seuneubok Aceh, Kec. Bendahara, Kabupaten Aceh Tamiang";"ACEH";"24472";"Indonesia";"";"4.4130252";"98.1479305";"https://maps.google.com/?cid=0x0:0x4e84b396d040ba8f"
"housing complex";"Komplek perumahan";"Rady";"C5F2+V5G, Seuneubok Aceh, Kec. Bendahara, Kabupaten Aceh Tamiang, Aceh 24472";"Seuneubok Aceh, Kec. Bendahara, Kabupaten Aceh Tamiang";"ACEH";"24472";"Indonesia";"";"4.4246834";"98.1504071";"https://maps.google.com/?cid=0x0:0xa1f8a2df38d90cd0"
"housing complex";"Kantor Perusahaan";"Desa Suka Mulia BD";"C569+4PX, Jl. Pekan Sungai Iyu, Suka Mulia Bendahara, Kec. Bendahara, Kabupaten Aceh Tamiang, Aceh 24472";"Jl. Pekan Sungai Iyu, Suka Mulia Bendahara, Kec. Bendahara, Kabupaten Aceh Tamiang";"ACEH";"24472";"Indonesia";"";"4.4103568";"98.169364";"https://maps.google.com/?cid=0x0:0xe6737ed8b62b83de"
"housing complex";"Perumahan";"Perumahan Mutiara Residence III Karang Baru";"8346+2PR, Gampong Air Tenang, Kec. Karang Baru, Kabupaten Aceh Tamiang, Aceh 24458";"Gampong Air Tenang, Kec. Karang Baru, Kabupaten Aceh Tamiang";"ACEH";"24458";"Indonesia";"";"4.3051015";"98.0617713";"https://maps.google.com/?cid=0x0:0x8dbcd3522fb0a29"
"housing complex";"Kantor Perusahaan";"Perumahan Waldy Residence";"8354+5X9, Tanah Terban, Kec. Karang Baru, Kabupaten Aceh Tamiang, Aceh 24456";"Tanah Terban, Kec. Karang Baru, Kabupaten Aceh Tamiang";"ACEH";"24456";"Indonesia";"";"4.3078616";"98.0574508";"https://maps.google.com/?cid=0x0:0x3775fc6576b1027f"
"housing complex";"housing complex";"Aceh 24476";"Kabupaten Aceh Tamiang, Aceh";"Kabupaten Aceh Tamiang, Aceh";"ACEH";"";"Indonesia";"";"4.3288776";"98.0628862";"https://maps.google.com/?cid=0x0:0x82d848b4ba041829"
"housing complex";"Asosiasi pemilik rumah";"Rumah Ifat";"83PF+W4W, Medang Ara, Kec. Karang Baru, Kabupaten Aceh Tamiang, Aceh 24476";"Medang Ara, Kec. Karang Baru, Kabupaten Aceh Tamiang";"ACEH";"24476";"Indonesia";"";"4.3373629";"98.0728402";"https://maps.google.com/?cid=0x0:0xad4d2e5a62f3d2f"
"housing complex";"Perhimpunan Pengembang Perumahan";"Tempat Cocok Untuk Bercocok Tanam";"83H5+3GX, Gampong Tupah, Kec. Karang Baru, Kabupaten Aceh Tamiang, Aceh 24476";"Gampong Tupah, Kec. Karang Baru, Kabupaten Aceh Tamiang";"ACEH";"24476";"Indonesia";"";"4.3277393";"98.0588724";"https://maps.google.com/?cid=0x0:0xb3a3c63f4b460531"
"housing complex";"Komplek perumahan";"rumah taya";"73X8+V49, Gampong Air Tenang, Kec. Karang Baru, Kabupaten Aceh Tamiang, Aceh 24458";"Gampong Air Tenang, Kec. Karang Baru, Kabupaten Aceh Tamiang";"ACEH";"24458";"Indonesia";"";"4.3003394";"98.0651662";"https://maps.google.com/?cid=0x0:0xe9b4823ead8bbbd1"
"housing complex";"Komplek perumahan";"Rumah Khairuddin";"73V2+Q6J, Dalam, Kec. Karang Baru, Kabupaten Aceh Tamiang, Aceh 24456";"Dalam, Kec. Karang Baru, Kabupaten Aceh Tamiang";"ACEH";"24456";"Indonesia";"";"4.2944594";"98.0505722";"https://maps.google.com/?cid=0x0:0x4c23c6b459472b79"
"housing complex";"Komplek perumahan";"Rumah Laksmi Aulia";"8395+7G8, Gampong Tupah, Kec. Karang Baru, Kabupaten Aceh Tamiang, Aceh 24476";"Gampong Tupah, Kec. Karang Baru, Kabupaten Aceh Tamiang";"ACEH";"24476";"Indonesia";"";"4.3181315";"98.0588784";"https://maps.google.com/?cid=0x0:0xbc1db15bffa0d3b8"
"housing complex";"Otoritas Perumahan";"Perumahan Tamiang Premier Park (TPP)";"8363+6X4, Tanah Terban, Kec. Karang Baru, Kabupaten Aceh Tamiang, Aceh 24456";"Tanah Terban, Kec. Karang Baru, Kabupaten Aceh Tamiang";"ACEH";"24456";"Indonesia";"";"4.31041";"98.0557992";"https://maps.google.com/?cid=0x0:0x23ad8e8590448c57"
"housing complex";"Komplek perumahan";"Asra Residence 6";"8346+9RP, Gampong Air Tenang, Kec. Karang Baru, Kabupaten Aceh Tamiang, Aceh";"Kabupaten Aceh Tamiang, Aceh";"ACEH";"";"Indonesia";"";"4.3059702";"98.0620937";"https://maps.google.com/?cid=0x0:0x4d6d46c1b4315b5"
"housing complex";"Perhimpunan Pengembang Perumahan";"Istana johar estate";"Gampong Johar, Kec. Karang Baru, Kabupaten Aceh Tamiang, Aceh";"Kabupaten Aceh Tamiang, Aceh";"ACEH";"";"Indonesia";"";"4.3237977";"98.0688233";"https://maps.google.com/?cid=0x0:0x7e37755bf7dd7639"
"housing complex";"Perumahan";"Perumahan Naura Residence - IGONE";"73W2+8R5, Dalam, Kec. Karang Baru, Kabupaten Aceh Tamiang, Aceh";"Kabupaten Aceh Tamiang, Aceh";"ACEH";"";"Indonesia";"";"4.2959506";"98.0527452";"https://maps.google.com/?cid=0x0:0x969fa31d646f53d0"
"housing complex";"Komplek perumahan";"Mamba home";"73QF+964, Unnamed Road, Benua Raja, Rantau, Aceh Tamiang Regency, Aceh 24476";"Unnamed Road, Benua Raja, Rantau, Aceh Tamiang Regency";"ACEH";"24476";"Indonesia";"";"4.2883829";"98.0730931";"https://maps.google.com/?cid=0x0:0x224921d5ce37fe57"
"housing complex";"housing complex";"Rumahh pak heri";"83JF+GFM, Pahlawan, Kec. Karang Baru, Kabupaten Aceh Tamiang, Aceh 24476";"Pahlawan, Kec. Karang Baru, Kabupaten Aceh Tamiang";"ACEH";"24476";"Indonesia";"";"4.3305802";"98.0737462";"https://maps.google.com/?cid=0x0:0xf86cad94b9f41e0b"
"housing complex";"housing complex";"Kec. Kejuruan Muda";"Kabupaten Aceh Tamiang, Aceh";"Kabupaten Aceh Tamiang, Aceh";"ACEH";"";"Indonesia";"";"4.2310452";"98.0585627";"https://maps.google.com/?cid=0x0:0x31c3ba765be70142"
"housing complex";"Pembangunan Perumahan";"Perumahan Yusra Residence";"07, Jl. Medan - Banda Aceh No.12, Kota Kuala Simpang, Bukit Rata, Kec. Kejuruan Muda, Kabupaten Aceh Tamiang, Aceh 24476";"Jl. Medan - Banda Aceh No.12, Kota Kuala Simpang, Bukit Rata, Kec. Kejuruan Muda, Kabupaten Aceh Tamiang";"ACEH";"24476";"Indonesia";" 085373125055";"4.2755863";"98.0587044";"https://maps.google.com/?cid=0x0:0x72b4ecb226a37e3d"
"housing complex";"Pembangunan Perumahan";"Jalan Utama Dan Alternatif Desa Suka Jaya Kec.Besitang Kab.Langkat";"53W6+9MF, Kp. Jawa, Kec. Kejuruan Muda, Kabupaten Aceh Tamiang, Aceh 24474";"Kp. Jawa, Kec. Kejuruan Muda, Kabupaten Aceh Tamiang";"ACEH";"24474";"Indonesia";"";"4.1959477";"98.0616672";"https://maps.google.com/?cid=0x0:0xc5bcd909b8e0b0cb"
"housing complex";"Komplek perumahan";"Graha rajasa";"73F8+MCQ, Bukit Rata, Kec. Kejuruan Muda, Kabupaten Aceh Tamiang, Aceh";"Kabupaten Aceh Tamiang, Aceh";"ACEH";"";"Indonesia";"";"4.2744576";"98.066457";"https://maps.google.com/?cid=0x0:0xf9938b2022399374"
"housing complex";"housing complex";"Rumah dwi rahmayani";"63M7+6Q6, Sungai Liput, Kec. Kejuruan Muda, Kabupaten Aceh Tamiang, Aceh";"Kabupaten Aceh Tamiang, Aceh";"ACEH";"";"Indonesia";"";"4.2330293";"98.064376";"https://maps.google.com/?cid=0x0:0x9a463f3d4c29f24b"
"housing complex";"Komplek perumahan";"Halimatussakdiah";"63M4+F4Q, Jl. Tambang, pekan, Liput River, Kejuruan Muda, Aceh Tamiang Regency, Aceh 24474";"Jl. Tambang, pekan, Liput River, Kejuruan Muda, Aceh Tamiang Regency";"ACEH";"24474";"Indonesia";"";"4.2340618";"98.0546623";"https://maps.google.com/?cid=0x0:0xd0d5d231c992b733"
"housing complex";"Komplek perumahan";"Thedeck";"63XC+XCP, Bukit Rata, Kec. Kejuruan Muda, Kabupaten Aceh Tamiang, Aceh";"Kabupaten Aceh Tamiang, Aceh";"ACEH";"";"Indonesia";"";"4.249962";"98.0710715";"https://maps.google.com/?cid=0x0:0x8f1cd039fec1470d"
"housing complex";"Pembangunan Perumahan";"Lokasi kp";"6327+V49, AH25, Kp. Jawa, Kec. Kejuruan Muda, Kabupaten Aceh Tamiang, Aceh 24474";"AH25, Kp. Jawa, Kec. Kejuruan Muda, Kabupaten Aceh Tamiang";"ACEH";"24474";"Indonesia";"";"4.2021501";"98.0628661";"https://maps.google.com/?cid=0x0:0xe10d7db4f66ae2bb"
"housing complex";"housing complex";"Rumah nek yateni";"53F4+7VV, Karangjadi, Kec. Kejuruan Muda, Kabupaten Aceh Tamiang, Sumatera Utara";"Kabupaten Aceh Tamiang, Sumatera Utara";"ACEH";"";"Indonesia";"";"4.1732301";"98.0571728";"https://maps.google.com/?cid=0x0:0x3cd5095cc744bee5"
"housing complex";"Komplek perumahan";"Rumah Comel Aulia";"63G5+2W2, Sungai Liput, Kec. Kejuruan Muda, Kabupaten Aceh Tamiang, Aceh";"Kabupaten Aceh Tamiang, Aceh";"ACEH";"";"Indonesia";"";"4.2250132";"98.05978";"https://maps.google.com/?cid=0x0:0xf5b1955f938b84c3"
"housing complex";"Komplek perumahan";"rumah Aulia Nabilla";"63G5+FHX, Sungai Liput, Kec. Kejuruan Muda, Kabupaten Aceh Tamiang, Aceh";"Kabupaten Aceh Tamiang, Aceh";"ACEH";"";"Indonesia";"";"4.2262434";"98.0589702";"https://maps.google.com/?cid=0x0:0xab3c5f5e5c60107d"
"housing complex";"Komplek perumahan";"Rumah Icha";"6393+VV4, Sungai Liput, Kec. Kejuruan Muda, Kabupaten Aceh Tamiang, Aceh";"Kabupaten Aceh Tamiang, Aceh";"ACEH";"";"Indonesia";"";"4.2196498";"98.0547019";"https://maps.google.com/?cid=0x0:0x8f16c1fa92ce16fe"
"housing complex";"Pembangunan Perumahan";"Keyla house";"62XR+3CW, Dusun sepakat, Tj. Mancang, Kec. Kejuruan Muda, Kabupaten Aceh Tamiang, Aceh";"Kabupaten Aceh Tamiang, Aceh";"ACEH";"";"Indonesia";"";"4.2477348";"98.0410634";"https://maps.google.com/?cid=0x0:0xf29273371cd6aa14"
"housing complex";"Pertanian";"rumah kakek";"43X6+C37, Karangjadi, Kec. Kejuruan Muda, Kabupaten Aceh Tamiang, Aceh";"Kabupaten Aceh Tamiang, Aceh";"ACEH";"";"Indonesia";"";"4.1485349";"98.060158";"https://maps.google.com/?cid=0x0:0x3884db43da29a49e"
"housing complex";"Perhimpunan Pengembang Perumahan";"Kuala Simpang";"73Q2+VCF, Jl. Medan Banda Aceh, Tj. Karang, Kec. Karang Baru, Kabupaten Aceh Tamiang, Aceh 24456";"Jl. Medan Banda Aceh, Tj. Karang, Kec. Karang Baru, Kabupaten Aceh Tamiang";"ACEH";"24456";"Indonesia";"";"4.2896826";"98.0510341";"https://maps.google.com/?cid=0x0:0xb9e5aa9a5355adb8"
"housing complex";"Perhimpunan Pengembang Perumahan";"Kota lintang bawah";"Kota Kuala Simpang, Kabupaten Aceh Tamiang, Aceh";"Kabupaten Aceh Tamiang, Aceh";"ACEH";"";"Indonesia";" 083875720330";"4.2838371";"98.0581176";"https://maps.google.com/?cid=0x0:0xda609c3053a3b94d"
"housing complex";"housing complex";"Aceh 24475";"Kec. Linge, Kabupaten Aceh Tengah, Aceh";"Kabupaten Aceh Tengah, Aceh";"ACEH";"";"Indonesia";"";"4.2473925";"98.0738001";"https://maps.google.com/?cid=0x0:0x54d58570dde5bc9e"
"housing complex";"Pembangunan Perumahan";"Perumahan Yusra Residence";"07, Jl. Medan - Banda Aceh No.12, Kota Kuala Simpang, Bukit Rata, Kec. Kejuruan Muda, Kabupaten Aceh Tamiang, Aceh 24476";"Jl. Medan - Banda Aceh No.12, Kota Kuala Simpang, Bukit Rata, Kec. Kejuruan Muda, Kabupaten Aceh Tamiang";"ACEH";"24476";"Indonesia";" 085373125055";"4.2755863";"98.0587044";"https://maps.google.com/?cid=0x0:0x72b4ecb226a37e3d"
"housing complex";"Komplek perumahan";"Rumah keluarga M Radhy NS";"73M6+9G7, Perdamaian, Kota Kuala Simpang, Kabupaten Aceh Tamiang, Aceh";"Kabupaten Aceh Tamiang, Aceh";"ACEH";"";"Indonesia";"";"4.2834103";"98.0612981";"https://maps.google.com/?cid=0x0:0x34d6891061b247dd"
"housing complex";"Komplek perumahan";"Wedding Irham Dan Chyntia";"73P8+HH2, Bukit Tempurung, Kota Kuala Simpang, Kabupaten Aceh Tamiang, Aceh 24456";"Bukit Tempurung, Kota Kuala Simpang, Kabupaten Aceh Tamiang";"ACEH";"24456";"Indonesia";"";"4.286439";"98.0662559";"https://maps.google.com/?cid=0x0:0x55aa865e0a1fccda"
"housing complex";"Pembangunan Perumahan";"Asra Residence 3";"73H6+6CV, Sriwijaya, Kota Kuala Simpang, Kabupaten Aceh Tamiang, Aceh";"Kabupaten Aceh Tamiang, Aceh";"ACEH";"";"Indonesia";"";"4.2781203";"98.0610349";"https://maps.google.com/?cid=0x0:0x2dbc168749b18367"
"housing complex";"Komplek perumahan";"Rumah Hendra Cipta";"73J7+QGF, Perdamaian, Kota Kuala Simpang, Kabupaten Aceh Tamiang, Aceh 24456";"Perdamaian, Kota Kuala Simpang, Kabupaten Aceh Tamiang";"ACEH";"24456";"Indonesia";"";"4.28234";"98.0639756";"https://maps.google.com/?cid=0x0:0xd63be4b5051a28dd"
"housing complex";"Perumahan";"Perumahan duta balqis";"73J8+7F7, Jl. Tj. Rambut, Bukit Tempurung, Kota Kuala Simpang, Kabupaten Aceh Tamiang, Aceh";"Kabupaten Aceh Tamiang, Aceh";"ACEH";"";"Indonesia";" 08116840424";"4.2806546";"98.0661612";"https://maps.google.com/?cid=0x0:0x289eb1f57c902b1c"
"housing complex";"Kompleks Apartemen";"Kuala simpang";"83Q9+RQ9, Kebun Medang Ara, Kec. Karang Baru, Kabupaten Aceh Tamiang, Aceh";"Kabupaten Aceh Tamiang, Aceh";"ACEH";"";"Indonesia";"";"4.3395338";"98.0694711";"https://maps.google.com/?cid=0x0:0xb485542c02c08050"
"housing complex";"Perhimpunan Pengembang Perumahan";"Rantau";"73M6+87Q, Jl. Cujln, rantau Kota, Kota Kuala Simpang, Kabupaten Aceh Tamiang, Aceh 24456";"Jl. Cujln, rantau Kota, Kota Kuala Simpang, Kabupaten Aceh Tamiang";"ACEH";"24456";"Indonesia";"";"4.2864305";"98.0641917";"https://maps.google.com/?cid=0x0:0x73f2f4d221783138"
"housing complex";"Komplek perumahan";"Asra Residence 2";"Sedar, Jl. Pendidikan, Sriwijaya, Kuala Simpang City, Aceh Tamiang Regency, Aceh";"Kabupaten Aceh Tamiang, Aceh";"ACEH";"";"Indonesia";"";"4.2785299";"98.0600257";"https://maps.google.com/?cid=0x0:0x44fa19a84eafd023"
"housing complex";"Perhimpunan Pengembang Perumahan";"Rumah";"Jl. Cut Nyak Dien No.41, Perdamaian, Kota Kuala Simpang, Kabupaten Aceh Tamiang, Aceh 24456";"Perdamaian, Kota Kuala Simpang, Kabupaten Aceh Tamiang";"ACEH";"24456";"Indonesia";"";"4.280761";"98.064119";"https://maps.google.com/?cid=0x0:0xa871dc9dca35fff2"
"housing complex";"Komplek perumahan";"Salim seluler";"Paya bedi, dusun bakti, Perdamaian, Kota Kuala Simpang, Kabupaten Aceh Tamiang, Aceh 24475";"dusun bakti, Perdamaian, Kota Kuala Simpang, Kabupaten Aceh Tamiang";"ACEH";"24475";"Indonesia";" 083166419102";"4.2735922";"98.073533";"https://maps.google.com/?cid=0x0:0xc16e15b12e15cc3c"
"housing complex";"Komplek perumahan";"Griya Kartika Permai";"C23W+J9Q, Buket Panjang II, Kec. Manyak Payed, Kabupaten Aceh Tamiang, Aceh 24471";"Buket Panjang II, Kec. Manyak Payed, Kabupaten Aceh Tamiang";"ACEH";"24471";"Indonesia";"";"4.4040906";"98.0459969";"https://maps.google.com/?cid=0x0:0xb0d2ef422c087188"
"housing complex";"Komplek perumahan";"Dedek's house";"C34P+WVC, Pahlawan, Kec. Manyak Payed, Kabupaten Aceh Tamiang, Aceh 24471";"Pahlawan, Kec. Manyak Payed, Kabupaten Aceh Tamiang";"ACEH";"24471";"Indonesia";"";"4.4073051";"98.0871378";"https://maps.google.com/?cid=0x0:0x23c65e30b6608642"
"housing complex";"housing complex";"Aceh 24471";"Aceh";"Aceh";"ACEH";"";"Indonesia";"";"4.3465057";"97.8395151";"https://maps.google.com/?cid=0x0:0x6a96af07474c986b"
"housing complex";"Komplek perumahan";"Griya";"C23W+QV6, Benteng Anyer, Kec. Manyak Payed, Kabupaten Aceh Tamiang, Aceh 24471";"Benteng Anyer, Kec. Manyak Payed, Kabupaten Aceh Tamiang";"ACEH";"24471";"Indonesia";"";"4.4044125";"98.0471406";"https://maps.google.com/?cid=0x0:0xe9829b2df9f6bb5a"
"housing complex";"Komplek perumahan";"Rumah Tgk Nu";"C3G7+FRC, Tj. Neraca, Kec. Manyak Payed, Kabupaten Aceh Tamiang, Aceh 24471";"Tj. Neraca, Kec. Manyak Payed, Kabupaten Aceh Tamiang";"ACEH";"24471";"Indonesia";"";"4.426237";"98.0642142";"https://maps.google.com/?cid=0x0:0x4a917128d384749c"
"housing complex";"Komplek perumahan";"Rumah mauliza";"C23G+39C, Paya Ketenggar, Kec. Manyak Payed, Kabupaten Aceh Tamiang, Aceh 24471";"Paya Ketenggar, Kec. Manyak Payed, Kabupaten Aceh Tamiang";"ACEH";"24471";"Indonesia";"";"4.4026995";"98.0258899";"https://maps.google.com/?cid=0x0:0xbcecfd15af1a6d7"
"housing complex";"Komplek perumahan";"Kampung halaman";"C3JH+8VR, Seuneubok Cantek, Kec. Manyak Payed, Kabupaten Aceh Tamiang, Aceh 24471";"Seuneubok Cantek, Kec. Manyak Payed, Kabupaten Aceh Tamiang";"ACEH";"24471";"Indonesia";"";"4.4309737";"98.0801563";"https://maps.google.com/?cid=0x0:0xe93ec0261bf65551"
"housing complex";"Komplek perumahan";"Rumah Tgk Samiun Jalil";"C3VW+XC5, Mesjid, Kec. Manyak Payed, Kabupaten Aceh Tamiang, Aceh 24471";"Mesjid, Kec. Manyak Payed, Kabupaten Aceh Tamiang";"ACEH";"24471";"Indonesia";"";"4.4448968";"98.0961128";"https://maps.google.com/?cid=0x0:0xa9c84180e1a0d33"
"housing complex";"Komplek perumahan";"RUMAH BANG IR";"Matang Cincin, Kec. Manyak Payed, Kabupaten Aceh Tamiang, Aceh";"Kabupaten Aceh Tamiang, Aceh";"ACEH";"";"Indonesia";"";"4.4061341";"98.0471662";"https://maps.google.com/?cid=0x0:0x27fb2bc9fb408548"
"housing complex";"Komplek perumahan";"Rumah wagimo";"C23F+5V, Paya Ketenggar, Kec. Manyak Payed, Kabupaten Aceh Tamiang, Aceh 24471";"Paya Ketenggar, Kec. Manyak Payed, Kabupaten Aceh Tamiang";"ACEH";"24471";"Indonesia";"";"4.4029573";"98.0246319";"https://maps.google.com/?cid=0x0:0xc927bdd404892ce8"
"housing complex";"Pembangunan Perumahan";"Wandi";"C2PR+MM9, Seuneubok Pidie, Kec. Manyak Payed, Kabupaten Aceh Tamiang, Aceh";"Kabupaten Aceh Tamiang, Aceh";"ACEH";"";"Indonesia";"";"4.4366704";"98.0417294";"https://maps.google.com/?cid=0x0:0x64e06f5508b1b521"
"housing complex";"Komplek perumahan";"bg boys";"C3X3+RPP, Alue Sentang, Kec. Manyak Payed, Kabupaten Aceh Tamiang, Aceh 24471";"Alue Sentang, Kec. Manyak Payed, Kabupaten Aceh Tamiang";"ACEH";"24471";"Indonesia";"";"4.4495625";"98.0543293";"https://maps.google.com/?cid=0x0:0xffeb12a8d62e0d9"
"housing complex";"housing complex";"Simpang Empat Lelek Sidorejo";"FX79+4VM Simpang 4 Lelek, Sidorejo, Kec. Langsa Lama, Kota Langsa, Aceh";"Kota Langsa, Aceh";"ACEH";"";"Indonesia";"";"4.4628387";"97.9696637";"https://maps.google.com/?cid=0x0:0x106db782b2bddb8d"
"housing complex";"Pembangunan Perumahan";"Ruman aulia rahman";"C3RV+64C, Dusun darul makmur, Mesjid, Kec. Manyak Payed, Kabupaten Aceh Tamiang, Aceh 24471";"Dusun darul makmur, Mesjid, Kec. Manyak Payed, Kabupaten Aceh Tamiang";"ACEH";"24471";"Indonesia";"";"4.4405689";"98.0927789";"https://maps.google.com/?cid=0x0:0x1892726752d62155"
"housing complex";"housing complex";"Aceh 24474";"Kec. Kejuruan Muda, Kabupaten Aceh Tamiang, Aceh";"Kabupaten Aceh Tamiang, Aceh";"ACEH";"";"Indonesia";"";"4.2123421";"98.0247005";"https://maps.google.com/?cid=0x0:0xe116e26a288dda02"
"housing complex";"Komplek perumahan";"Halimatussakdiah";"63M4+F4Q, Jl. Tambang, pekan, Liput River, Kejuruan Muda, Aceh Tamiang Regency, Aceh 24474";"Jl. Tambang, pekan, Liput River, Kejuruan Muda, Aceh Tamiang Regency";"ACEH";"24474";"Indonesia";"";"4.2340618";"98.0546623";"https://maps.google.com/?cid=0x0:0xd0d5d231c992b733"
"housing complex";"housing complex";"Rumah nek yateni";"53F4+7VV, Karangjadi, Kec. Kejuruan Muda, Kabupaten Aceh Tamiang, Sumatera Utara";"Kabupaten Aceh Tamiang, Sumatera Utara";"ACEH";"";"Indonesia";"";"4.1732301";"98.0571728";"https://maps.google.com/?cid=0x0:0x3cd5095cc744bee5"
"housing complex";"Komplek perumahan";"Keluarga ParTo";"6W3X+J2V, Perk Pulau Tiga, Kec. Tamiang Hulu, Kabupaten Aceh Tamiang, Aceh 24474";"Perk Pulau Tiga, Kec. Tamiang Hulu, Kabupaten Aceh Tamiang";"ACEH";"24474";"Indonesia";"";"4.2041074";"97.9475598";"https://maps.google.com/?cid=0x0:0xca36094ad9d29eb4"
"housing complex";"housing complex";"Rumah dwi rahmayani";"63M7+6Q6, Sungai Liput, Kec. Kejuruan Muda, Kabupaten Aceh Tamiang, Aceh";"Kabupaten Aceh Tamiang, Aceh";"ACEH";"";"Indonesia";"";"4.2330293";"98.064376";"https://maps.google.com/?cid=0x0:0x9a463f3d4c29f24b"
"housing complex";"Komplek perumahan";"Rumah cemara";"747C+53P, Suka Rahmat, Kec. Rantau, Kabupaten Aceh Tamiang, Aceh";"Kabupaten Aceh Tamiang, Aceh";"ACEH";"";"Indonesia";"";"4.262957";"98.1202117";"https://maps.google.com/?cid=0x0:0xb4c229dd57f6816f"
"housing complex";"Perhimpunan Pengembang Perumahan";"KARYA INDAH RESIDENCE";"Paya Bedi, Kec. Rantau, Kabupaten Aceh Tamiang, Aceh 24453";"Kec. Rantau, Kabupaten Aceh Tamiang";"ACEH";"24453";"Indonesia";" 082321940007";"4.2787596";"98.0738468";"https://maps.google.com/?cid=0x0:0xb35fc9fbc63cf860"
"housing complex";"Perhimpunan Pengembang Perumahan";"Rumah hafizh";"738J+2QQ, Ingin Jaya, Kec. Rantau, Kabupaten Aceh Tamiang, Aceh";"Kabupaten Aceh Tamiang, Aceh";"ACEH";"";"Indonesia";"";"4.265095";"98.0819866";"https://maps.google.com/?cid=0x0:0x11f9944dec6cb80d"
"housing complex";"Komplek perumahan";"Rumah dzaky";"7467+FCP, Suka Rahmat, Kec. Rantau, Kabupaten Aceh Tamiang, Aceh";"Kabupaten Aceh Tamiang, Aceh";"ACEH";"";"Indonesia";"";"4.2612152";"98.1135825";"https://maps.google.com/?cid=0x0:0x9bbf7a0a39233fbc"
"housing complex";"Komplek perumahan";"Suwarman Family's";"747G+72G, Suka Mulia, Kec. Rantau, Kabupaten Aceh Tamiang, Aceh 24453";"Suka Mulia, Kec. Rantau, Kabupaten Aceh Tamiang";"ACEH";"24453";"Indonesia";"";"4.262708";"98.1249911";"https://maps.google.com/?cid=0x0:0x8eae884260b00cfa"
"housing complex";"Komplek perumahan";"Rumah Diki Erlangga";"747H+8V, Suka Rahmat, Kec. Rantau, Kabupaten Aceh Tamiang, Aceh";"Kabupaten Aceh Tamiang, Aceh";"ACEH";"";"Indonesia";"";"4.2632965";"98.1296257";"https://maps.google.com/?cid=0x0:0xddb343af4a49cdda"
"housing complex";"Komplek perumahan";"Dusun dami";"7488+FP9, Suka Rahmat, Kec. Rantau, Kabupaten Aceh Tamiang, Aceh";"Kabupaten Aceh Tamiang, Aceh";"ACEH";"";"Indonesia";"";"4.2661528";"98.1168668";"https://maps.google.com/?cid=0x0:0xc8166b275d77ab2c"
"housing complex";"Komplek perumahan";"M.nabil";"746G+FJF, Ingin Jaya, Kec. Rantau, Kabupaten Aceh Tamiang, Aceh 24453";"Ingin Jaya, Kec. Rantau, Kabupaten Aceh Tamiang";"ACEH";"24453";"Indonesia";"";"4.2611875";"98.1265469";"https://maps.google.com/?cid=0x0:0x3aea6dff3adcc851"
"housing complex";"Komplek perumahan";"Rumah mak dani";"748H+49, Suka Mulia, Kec. Rantau, Kabupaten Aceh Tamiang, Aceh";"Kabupaten Aceh Tamiang, Aceh";"ACEH";"";"Indonesia";"";"4.265357";"98.1284213";"https://maps.google.com/?cid=0x0:0x7db211806ac37412"
"housing complex";"Perhimpunan Pengembang Perumahan";"Tempat Cocok Untuk Bercocok Tanam";"83H5+3GX, Gampong Tupah, Kec. Karang Baru, Kabupaten Aceh Tamiang, Aceh 24476";"Gampong Tupah, Kec. Karang Baru, Kabupaten Aceh Tamiang";"ACEH";"24476";"Indonesia";"";"4.3277393";"98.0588724";"https://maps.google.com/?cid=0x0:0xb3a3c63f4b460531"
"housing complex";"housing complex";"Aceh 24476";"Kabupaten Aceh Tamiang, Aceh";"Kabupaten Aceh Tamiang, Aceh";"ACEH";"";"Indonesia";"";"4.3288776";"98.0628862";"https://maps.google.com/?cid=0x0:0x82d848b4ba041829"
"housing complex";"Komplek perumahan";"Mamba home";"73QF+964, Unnamed Road, Benua Raja, Rantau, Aceh Tamiang Regency, Aceh 24476";"Unnamed Road, Benua Raja, Rantau, Aceh Tamiang Regency";"ACEH";"24476";"Indonesia";"";"4.2883829";"98.0730931";"https://maps.google.com/?cid=0x0:0x224921d5ce37fe57"
"housing complex";"Perhimpunan Pengembang Perumahan";"USJ RESIDENCE 1";"73R9+G27, Benua Raja, Kec. Rantau, Kabupaten Aceh Tamiang, Aceh 24456";"Benua Raja, Kec. Rantau, Kabupaten Aceh Tamiang";"ACEH";"24456";"Indonesia";"";"4.2912752";"98.0675406";"https://maps.google.com/?cid=0x0:0x63d418a0815e0190"
"housing complex";"Kantor Perusahaan";"Perumahan Waldy Residence";"8354+5X9, Tanah Terban, Kec. Karang Baru, Kabupaten Aceh Tamiang, Aceh 24456";"Tanah Terban, Kec. Karang Baru, Kabupaten Aceh Tamiang";"ACEH";"24456";"Indonesia";"";"4.3078616";"98.0574508";"https://maps.google.com/?cid=0x0:0x3775fc6576b1027f"
"housing complex";"Komplek perumahan";"Rumah Drs. Abdul Muthalib";"8395+5WW, Tanah Terban, Kec. Karang Baru, Kabupaten Aceh Tamiang, Aceh 24476";"Tanah Terban, Kec. Karang Baru, Kabupaten Aceh Tamiang";"ACEH";"24476";"Indonesia";"";"4.3181764";"98.0598071";"https://maps.google.com/?cid=0x0:0x21234da6235bb259"
"housing complex";"Komplek perumahan";"Asra Residence 6";"8346+9RP, Gampong Air Tenang, Kec. Karang Baru, Kabupaten Aceh Tamiang, Aceh";"Kabupaten Aceh Tamiang, Aceh";"ACEH";"";"Indonesia";"";"4.3059702";"98.0620937";"https://maps.google.com/?cid=0x0:0x4d6d46c1b4315b5"
"housing complex";"Pembangunan Perumahan";"Perumahan Yusra Residence";"07, Jl. Medan - Banda Aceh No.12, Kota Kuala Simpang, Bukit Rata, Kec. Kejuruan Muda, Kabupaten Aceh Tamiang, Aceh 24476";"Jl. Medan - Banda Aceh No.12, Kota Kuala Simpang, Bukit Rata, Kec. Kejuruan Muda, Kabupaten Aceh Tamiang";"ACEH";"24476";"Indonesia";" 085373125055";"4.2755863";"98.0587044";"https://maps.google.com/?cid=0x0:0x72b4ecb226a37e3d"
"housing complex";"Pembangunan Perumahan";"Lorong batang meku";"83JC+QRM, Medang Ara, Kec. Karang Baru, Kabupaten Aceh Tamiang, Aceh 24476";"Medang Ara, Kec. Karang Baru, Kabupaten Aceh Tamiang";"ACEH";"24476";"Indonesia";"";"4.3319717";"98.0720517";"https://maps.google.com/?cid=0x0:0xede220c6ea2bdc0a"
"housing complex";"Asosiasi pemilik rumah";"Rumah Ifat";"83PF+W4W, Medang Ara, Kec. Karang Baru, Kabupaten Aceh Tamiang, Aceh 24476";"Medang Ara, Kec. Karang Baru, Kabupaten Aceh Tamiang";"ACEH";"24476";"Indonesia";"";"4.3373629";"98.0728402";"https://maps.google.com/?cid=0x0:0xad4d2e5a62f3d2f"
"housing complex";"Komplek perumahan";"Perumahan Cempaka Indah";"832C+8CG, Gampong Air Tenang, Kec. Karang Baru, Kabupaten Aceh Tamiang, Aceh 24476";"Gampong Air Tenang, Kec. Karang Baru, Kabupaten Aceh Tamiang";"ACEH";"24476";"Indonesia";" 081265240749";"4.3008054";"98.0710715";"https://maps.google.com/?cid=0x0:0x6ae27c3c8d9c2f92"
"housing complex";"Komplek perumahan";"Perumahan Pertiwi";"73Q9+GJ3, Benua Raja, Kec. Rantau, Kabupaten Aceh Tamiang, Aceh 24476";"Benua Raja, Kec. Rantau, Kabupaten Aceh Tamiang";"ACEH";"24476";"Indonesia";"";"4.2887743";"98.0690341";"https://maps.google.com/?cid=0x0:0x3733713e862af278"
"housing complex";"Pembangunan Perumahan";"Peyek kacang";"Jl. Medan - Banda Aceh Kp No.Km 5, RW.23, Tanah Terban, Kec. Karang Baru, Kabupaten Aceh Tamiang, Aceh 24476";"RW.23, Tanah Terban, Kec. Karang Baru, Kabupaten Aceh Tamiang";"ACEH";"24476";"Indonesia";"";"4.3156897";"98.0599325";"https://maps.google.com/?cid=0x0:0x687682d04d83db25"
"housing complex";"Komplek perumahan";"White House";"Unnamed Road, Benua Raja, Kec. Rantau, Kabupaten Aceh Tamiang, Aceh 24476";"Benua Raja, Kec. Rantau, Kabupaten Aceh Tamiang";"ACEH";"24476";"Indonesia";" 085211819200";"4.2914406";"98.0680555";"https://maps.google.com/?cid=0x0:0x36bba9503a9d63ad"
"housing complex";"Perhimpunan Pengembang Perumahan";"LOKASI PESTA AYU";"7582+P24, Suka Mulia, Kec. Rantau, Kabupaten Aceh Tamiang, Aceh 24473";"Suka Mulia, Kec. Rantau, Kabupaten Aceh Tamiang";"ACEH";"24473";"Indonesia";"";"4.2667607";"98.15007";"https://maps.google.com/?cid=0x0:0xdbcff872b7c042e6"
"housing complex";"housing complex";"Aceh 24473";"Aceh";"Aceh";"ACEH";"";"Indonesia";"";"4.2670304";"98.1393179";"https://maps.google.com/?cid=0x0:0x7edc8ec14cab902a"
"housing complex";"Perhimpunan Pengembang Perumahan";"Rumah Reva";"747G+PR8, Suka Mulia, Kec. Rantau, Kabupaten Aceh Tamiang, Aceh";"Kabupaten Aceh Tamiang, Aceh";"ACEH";"";"Indonesia";"";"4.2636395";"98.1275667";"https://maps.google.com/?cid=0x0:0x21b4bc6f15b1ff4f"
"housing complex";"Komplek perumahan";"Suwarman Family's";"747G+72G, Suka Mulia, Kec. Rantau, Kabupaten Aceh Tamiang, Aceh 24453";"Suka Mulia, Kec. Rantau, Kabupaten Aceh Tamiang";"ACEH";"24453";"Indonesia";"";"4.262708";"98.1249911";"https://maps.google.com/?cid=0x0:0x8eae884260b00cfa"
"housing complex";"Komplek perumahan";"Rumah cemara";"747C+53P, Suka Rahmat, Kec. Rantau, Kabupaten Aceh Tamiang, Aceh";"Kabupaten Aceh Tamiang, Aceh";"ACEH";"";"Indonesia";"";"4.262957";"98.1202117";"https://maps.google.com/?cid=0x0:0xb4c229dd57f6816f"
"housing complex";"Komplek perumahan";"Rumah mamak";"75XM+PRR, Unnamed Road, Air Masin, Kec. Seuruway, Kabupaten Aceh Tamiang, Aceh 24392";"Unnamed Road, Air Masin, Kec. Seuruway, Kabupaten Aceh Tamiang";"ACEH";"24392";"Indonesia";"";"4.2993517";"98.1845063";"https://maps.google.com/?cid=0x0:0x9b01e706fea608ea"
"housing complex";"Perhimpunan Pengembang Perumahan";"Rumah Ngatiman ( Wati )";"74PW+6C2, Desa suka mulia dusun anggrek, Kec. Rantau, Kabupaten Aceh Tamiang";"Kabupaten Aceh Tamiang, Aceh";"ACEH";"";"Indonesia";"";"4.2855052";"98.1460264";"https://maps.google.com/?cid=0x0:0xf9110308a9c6e491"
"housing complex";"Perhimpunan Pengembang Perumahan";"Danarpasaribu.MA";"846P+2H4, Jamur Jelatang, Kec. Rantau, Kabupaten Aceh Tamiang, Aceh 24352";"Jamur Jelatang, Kec. Rantau, Kabupaten Aceh Tamiang";"ACEH";"24352";"Indonesia";"";"4.3100165";"98.1364626";"https://maps.google.com/?cid=0x0:0x1c307dbb5cbb8c4d"
"housing complex";"Pembangunan Perumahan";"Perumahan nelayan Lubuk damar";"853X+PC6, Lubuk Damar, Kec. Seuruway, Kabupaten Aceh Tamiang, Aceh";"Kabupaten Aceh Tamiang, Aceh";"ACEH";"";"Indonesia";"";"4.30429";"98.1985153";"https://maps.google.com/?cid=0x0:0xe760f70d4925bf8f"
"housing complex";"Komplek perumahan";"Rumah Diki Erlangga";"747H+8V, Suka Rahmat, Kec. Rantau, Kabupaten Aceh Tamiang, Aceh";"Kabupaten Aceh Tamiang, Aceh";"ACEH";"";"Indonesia";"";"4.2632965";"98.1296257";"https://maps.google.com/?cid=0x0:0xddb343af4a49cdda"
"housing complex";"Komplek perumahan";"AC RO isi ulang";"844Q+WGV, Jamur Jelatang, Kec. Rantau, Kabupaten Aceh Tamiang, Aceh 24352";"Jamur Jelatang, Kec. Rantau, Kabupaten Aceh Tamiang";"ACEH";"24352";"Indonesia";"";"4.3071187";"98.1394068";"https://maps.google.com/?cid=0x0:0x232b9d929befdf54"
"housing complex";"Komplek perumahan";"LADON BATARA";"748M+363, Suka Mulia, Kec. Rantau, Kabupaten Aceh Tamiang, Aceh 24473";"Suka Mulia, Kec. Rantau, Kabupaten Aceh Tamiang";"ACEH";"24473";"Indonesia";"";"4.2650895";"98.1335892";"https://maps.google.com/?cid=0x0:0xa465bd6cdd0773ea"
"housing complex";"Kantor Perusahaan";"Rumah Novi Swariyani";"74GV+FP2, Dusun Melati, Suka Mulia, Kec. Rantau, Kabupaten Aceh Tamiang, Aceh";"Kabupaten Aceh Tamiang, Aceh";"ACEH";"";"Indonesia";"";"4.276144";"98.1442736";"https://maps.google.com/?cid=0x0:0xc432b0e9e61ca83b"
"housing complex";"Komplek perumahan";"Perumahan Karyawan MOPOLI RAYA";"739X+63Q, Suka Mulia, Kec. Rantau, Kabupaten Aceh Tamiang, Aceh 24453";"Suka Mulia, Kec. Rantau, Kabupaten Aceh Tamiang";"ACEH";"24453";"Indonesia";"";"4.2680783";"98.0977487";"https://maps.google.com/?cid=0x0:0x7b5639d6aec36c59"
"housing complex";"Komplek perumahan";"Rumah Yogi";"7VJ8+2M8, dusun bangun sari, Babo, Kec. Bandar Pusaka, Kabupaten Aceh Tamiang, Aceh";"Kabupaten Aceh Tamiang, Aceh";"ACEH";"";"Indonesia";"";"4.2800483";"97.8667182";"https://maps.google.com/?cid=0x0:0x7640c84446d32a49"
"housing complex";"Komplek perumahan";"Blok 8";"7VJ8+2M8, Babo, Kec. Bandar Pusaka, Kabupaten Aceh Tamiang, Aceh";"Kabupaten Aceh Tamiang, Aceh";"ACEH";"";"Indonesia";"";"4.2800483";"97.8667182";"https://maps.google.com/?cid=0x0:0xba76c22d9165e49b"
"housing complex";"housing complex";"Kec. Tamiang Hulu";"Kabupaten Aceh Tamiang, Aceh";"Kabupaten Aceh Tamiang, Aceh";"ACEH";"";"Indonesia";"";"4.1633008";"97.9539786";"https://maps.google.com/?cid=0x0:0x4376a9df79cb4397"
"housing complex";"Inspektur Tempat Tinggal";"Rumah silae";"3XWR+2V4, Tenggulun, Kec. Tenggulun, Kabupaten Aceh Tamiang, Aceh 24477";"Tenggulun, Kec. Tenggulun, Kabupaten Aceh Tamiang";"ACEH";"24477";"Indonesia";"";"4.0950061";"97.992238";"https://maps.google.com/?cid=0x0:0x1e4191a73b6bc01d"
"housing complex";"Komplek perumahan";"Rumah Buk Nung Om Robin";"3XQ2+GH3, Selamat, Kec. Tenggulun, Kabupaten Aceh Tamiang, Aceh 24477";"Selamat, Kec. Tenggulun, Kabupaten Aceh Tamiang";"ACEH";"24477";"Indonesia";"";"4.0887607";"97.9514354";"https://maps.google.com/?cid=0x0:0xe892039bf51dc816"
"housing complex";"housing complex";"Aceh 24477";"Kabupaten Aceh Tamiang, Aceh";"Kabupaten Aceh Tamiang, Aceh";"ACEH";"";"Indonesia";"";"3.9904163";"97.9157099";"https://maps.google.com/?cid=0x0:0x559940852b05002f"
"housing complex";"Komplek perumahan";"Komplek Perumahan Karyawan PT. Bahruni";"428F+4C, Rimba Sawang, Kec. Tenggulun, Kabupaten Aceh Tamiang, Aceh";"Kabupaten Aceh Tamiang, Aceh";"ACEH";"";"Indonesia";"";"4.115254";"98.023523";"https://maps.google.com/?cid=0x0:0xc6cc134c6b13fe25"
"housing complex";"Perkebunan Pohon";"Perumahan Sekundur PT. Evans Grup";"2297+49G, Tenggulun, Kec. Tenggulun, Kabupaten Aceh Tamiang, Aceh";"Kabupaten Aceh Tamiang, Aceh";"ACEH";"";"Indonesia";"";"4.0178153";"98.0134619";"https://maps.google.com/?cid=0x0:0xd366b95fa0c78e92"
"housing complex";"Komplek perumahan";"P.putih";"3W6G+FJ9, Selamat, Kec. Tenggulun, Kabupaten Aceh Tamiang, Aceh 24477";"Selamat, Kec. Tenggulun, Kabupaten Aceh Tamiang";"ACEH";"24477";"Indonesia";"";"4.0611734";"97.9266015";"https://maps.google.com/?cid=0x0:0x403190fd6f9dbd65"
"housing complex";"Komplek perumahan";"Rumah Pak Tiwa";"3WPV+PQ, Selamat, Kec. Tenggulun, Kabupaten Aceh Tamiang, Aceh";"Kabupaten Aceh Tamiang, Aceh";"ACEH";"";"Indonesia";"";"4.0867759";"97.9444082";"https://maps.google.com/?cid=0x0:0x93b685f4516e22d6"
"housing complex";"Toko Elektronik";"Kampung selamat";"3W8F+5F, Selamat, Kec. Tenggulun, Kabupaten Aceh Tamiang, Aceh";"Kabupaten Aceh Tamiang, Aceh";"ACEH";"";"Indonesia";"";"4.0642543";"97.9218317";"https://maps.google.com/?cid=0x0:0x59319c8dcfbde580"
"housing complex";"Rumah Kayu";"Sindi kns";"3XX6+VRG, Simpang Kiri, Kec. Tenggulun, Kabupaten Aceh Tamiang, Aceh 24477";"Simpang Kiri, Kec. Tenggulun, Kabupaten Aceh Tamiang";"ACEH";"24477";"Indonesia";"";"4.0996761";"97.9620835";"https://maps.google.com/?cid=0x0:0x2e6b9f0895524e22"
"housing complex";"Komplek perumahan";"Yuda";"3W8F+WV, Selamat, Kec. Tenggulun, Kabupaten Aceh Tamiang, Aceh";"Kabupaten Aceh Tamiang, Aceh";"ACEH";"";"Indonesia";" 082339185440";"4.0673278";"97.9246915";"https://maps.google.com/?cid=0x0:0x8bdaa579573757d5"
"housing complex";"Komplek perumahan";"Pamplet";"2294+W6W, dusun adil makmur ll, Tenggulun, Kec. Tenggulun, Kabupaten Aceh Tamiang, Aceh 24477";"dusun adil makmur ll, Tenggulun, Kec. Tenggulun, Kabupaten Aceh Tamiang";"ACEH";"24477";"Indonesia";"";"4.0200583";"98.00584";"https://maps.google.com/?cid=0x0:0x95ffad29e59fc67d"
"housing complex";"Komplek perumahan";"Andika house";"5W6V+839, Bandar Khalifah, Kec. Tamiang Hulu, Kabupaten Aceh Tamiang, Aceh";"Kabupaten Aceh Tamiang, Aceh";"ACEH";"";"Indonesia";"";"4.1607805";"97.9427236";"https://maps.google.com/?cid=0x0:0xe47a1fd0027d7d24"
"housing complex";"Komplek perumahan";"TPU suka maju";"42F2+8R5, Rimba Sawang, Kec. Tenggulun, Kabupaten Aceh Tamiang, Aceh";"Kabupaten Aceh Tamiang, Aceh";"ACEH";"";"Indonesia";"";"4.123251";"98.002097";"https://maps.google.com/?cid=0x0:0xaee7c3bcb204e19c"
"housing complex";"Komplek perumahan";"Rumah pak imam kasman";"3XPQ+R6, Tenggulun, Kec. Tenggulun, Kabupaten Aceh Tamiang, Aceh";"Kabupaten Aceh Tamiang, Aceh";"ACEH";"";"Indonesia";"";"4.0870813";"97.9880428";"https://maps.google.com/?cid=0x0:0xd4fdc14617334be8"
