Category,Real Category,Business Name,Address,City,State,Postal Code,Country,Phone,Email,Website,Latitude,Longitude,Map Link,Details Link
toko bangunan,toko bangunan,Azzahrah bata,"Kilo6 arah polda kaltara sebelum warung kelapa, Long Nyau, Sungai Tubu, Kabupaten Malinau, Kalimantan Utara","Kabupaten Malinau, Kalimantan Utara",KALIMANTAN UTARA,,Indonesia,,,,3.0730929,116.0413889,https://maps.google.com/?cid=0x0:0x2ba54ec86255c3cf,
toko bangunan,toko bangunan,Bahau Hulu,"Kabupaten Malinau, Kalimantan Utara","Kabupaten Malinau, Kalimantan Utara",KALIMANTAN UTARA,,Indonesia,,,,3.1532957,115.7575196,https://maps.google.com/?cid=0x0:0x196db92d2523facb,
toko bangunan,Toko Bahan Bangunan,Toko 88 bahan bangunan,"Malinau Kota, Kec. Malinau Kota, Kabupaten Malinau, Kalimantan Utara 77554","Kec. Malinau Kota, Kabupaten Malinau",KALIMANTAN UTARA,77554.0,Indonesia,83833052031.0,,,3.5837482,116.6245706,https://maps.google.com/?cid=0x0:0x995ee965ba072027,
toko bangunan,Toko Bahan Bangunan,Toko Makmur Jaya,"Jl. Panembahan No.RT.07 No.14, Malinau Kota, Kec. Malinau Kota, Kabupaten Malinau, Kalimantan Utara 77554","Malinau Kota, Kec. Malinau Kota, Kabupaten Malinau",KALIMANTAN UTARA,77554.0,Indonesia,85169995912.0,,,3.5894549,116.6227126,https://maps.google.com/?cid=0x0:0xec9717eadaeb8588,
toko bangunan,Toko Bahan Bangunan,TOKO BJR TRUSS PENAJAM IKN,"Jl. Propinsi No.5, Penajam, Kabupaten Penajam Paser Utara, Kalimantan Timur 76142","Penajam, Kabupaten Penajam Paser Utara",KALIMANTAN UTARA,76142.0,Indonesia,811545424.0,,,-1.2619936,116.7648304,https://maps.google.com/?cid=0x0:0x6d057caee41e6f72,
toko bangunan,Toko Bahan Bangunan,TOKO BALI BANGUNAN,"Nanga Mau, Kec. Kayan Hilir, Kabupaten Sintang, Kalimantan Barat 78693","Kec. Kayan Hilir, Kabupaten Sintang",KALIMANTAN UTARA,78693.0,Indonesia,,,,-0.1090834,111.9190342,https://maps.google.com/?cid=0x0:0xa444d9b05e3f6680,
toko bangunan,Toko Bahan Bangunan,Pasir SLH,"VWQG+2Q6, Nanga Mau, Kec. Kayan Hilir, Kabupaten Sintang, Kalimantan Barat 78693","Nanga Mau, Kec. Kayan Hilir, Kabupaten Sintang",KALIMANTAN UTARA,78693.0,Indonesia,,,,-0.1118668,111.9277168,https://maps.google.com/?cid=0x0:0xf3e51773ee403e6a,
toko bangunan,toko bangunan,Kalimantan Barat 78693,"Kabupaten Sintang, Kalimantan Barat","Kabupaten Sintang, Kalimantan Barat",KALIMANTAN UTARA,,Indonesia,,,,-0.0346027,111.9999435,https://maps.google.com/?cid=0x0:0xde0de64478083288,
toko bangunan,Toko Bahan Bangunan,Toko Mitra Jaya Bangunan,"HJG9+X3C Bandara RA Besing, Malinau Kota, Kec. Malinau Kota, Kabupaten Malinau, Kalimantan Utara 77554","Malinau Kota, Kec. Malinau Kota, Kabupaten Malinau",KALIMANTAN UTARA,77554.0,Indonesia,85169995912.0,,,3.5774367,116.617652,https://maps.google.com/?cid=0x0:0xea81baa680d48aa2,
toko bangunan,toko bangunan,Toko bangunan UD.RISKA,"HJQV+HMF, Malinau Kota, Kec. Malinau Kota, Kabupaten Malinau, Kalimantan Utara 77554","Malinau Kota, Kec. Malinau Kota, Kabupaten Malinau",KALIMANTAN UTARA,77554.0,Indonesia,,,,3.5889375,116.6441719,https://maps.google.com/?cid=0x0:0xaadfdee922feac2d,
toko bangunan,Toko Bahan Bangunan,T.B Berkat Jaya,"GGG8+R57, Pulau Sapi, Kec. Mentarang, Kabupaten Malinau, Kalimantan Utara 77554","Pulau Sapi, Kec. Mentarang, Kabupaten Malinau",KALIMANTAN UTARA,77554.0,Indonesia,8161999912.0,,,3.5270288,116.5154093,https://maps.google.com/?cid=0x0:0x4f9de76d4268b507,
toko bangunan,Toko Bahan Bangunan,Toko 88 bahan bangunan,"Malinau Kota, Kec. Malinau Kota, Kabupaten Malinau, Kalimantan Utara 77554","Kec. Malinau Kota, Kabupaten Malinau",KALIMANTAN UTARA,77554.0,Indonesia,83833052031.0,,,3.5837482,116.6245706,https://maps.google.com/?cid=0x0:0x995ee965ba072027,
toko bangunan,Toko Bahan Bangunan,Toko Cahaya Mulia Teknik,"HJ35+VG6, Malinau Hulu, Kec. Malinau Kota, Kabupaten Malinau, Kalimantan Utara 77554","Malinau Hulu, Kec. Malinau Kota, Kabupaten Malinau",KALIMANTAN UTARA,77554.0,Indonesia,83114785308.0,,,3.5546521,116.608772,https://maps.google.com/?cid=0x0:0xc27cc09e2878cb2d,
toko bangunan,Toko Bahan Bangunan,TOKO BALI BANGUNAN,"Nanga Mau, Kec. Kayan Hilir, Kabupaten Sintang, Kalimantan Barat 78693","Kec. Kayan Hilir, Kabupaten Sintang",KALIMANTAN UTARA,78693.0,Indonesia,,,,-0.1090834,111.9190342,https://maps.google.com/?cid=0x0:0xa444d9b05e3f6680,
toko bangunan,Toko Bahan Bangunan,Pelangi Jaya Toko Bangunan,"HJF3+MX9, Malinau Hulu, Kec. Malinau Kota, Kabupaten Malinau, Kalimantan Utara 77554","Malinau Hulu, Kec. Malinau Kota, Kabupaten Malinau",KALIMANTAN UTARA,77554.0,Indonesia,85169995912.0,,,3.5741683,116.6049787,https://maps.google.com/?cid=0x0:0xc4b9090c68b73393,
toko bangunan,Toko Bahan Bangunan,TOKO BJR TRUSS PENAJAM IKN,"Jl. Propinsi No.5, Penajam, Kabupaten Penajam Paser Utara, Kalimantan Timur 76142","Penajam, Kabupaten Penajam Paser Utara",KALIMANTAN UTARA,76142.0,Indonesia,811545424.0,,,-1.2619936,116.7648304,https://maps.google.com/?cid=0x0:0x6d057caee41e6f72,
toko bangunan,Toko Bahan Bangunan,Pasir SLH,"VWQG+2Q6, Nanga Mau, Kec. Kayan Hilir, Kabupaten Sintang, Kalimantan Barat 78693","Nanga Mau, Kec. Kayan Hilir, Kabupaten Sintang",KALIMANTAN UTARA,78693.0,Indonesia,,,,-0.1118668,111.9277168,https://maps.google.com/?cid=0x0:0xf3e51773ee403e6a,
toko bangunan,Toko Bahan Bangunan,Toko Abadi Jaya,"Jl. Panembahan No.3, RT.3, Malinau Kota, Kec. Malinau Kota, Kabupaten Malinau, Kalimantan Utara 77554","RT.3, Malinau Kota, Kec. Malinau Kota, Kabupaten Malinau",KALIMANTAN UTARA,77554.0,Indonesia,85169995912.0,,,3.5921656,116.6259137,https://maps.google.com/?cid=0x0:0xe025ea1ba7944119,
toko bangunan,Toko Bahan Bangunan,Pasir suloh,"VWQG+2Q6, Nanga Mau, Kec. Kayan Hilir, Kabupaten Sintang, Kalimantan Barat 78693","Nanga Mau, Kec. Kayan Hilir, Kabupaten Sintang",KALIMANTAN UTARA,78693.0,Indonesia,,,,-0.1118769,111.9277152,https://maps.google.com/?cid=0x0:0xa8b0768deeec6635,
toko bangunan,toko bangunan,Toko bangunan Rezeki lancar,"VWQ9+P86, Jl. Poros, Nanga Mau, Kec. Kayan Hilir, Kabupaten Sintang, Kalimantan Barat 78693","Jl. Poros, Nanga Mau, Kec. Kayan Hilir, Kabupaten Sintang",KALIMANTAN UTARA,78693.0,Indonesia,,,,-0.1107203,111.9182714,https://maps.google.com/?cid=0x0:0xaf4e3485645ed6cb,
toko bangunan,Toko Bahan Bangunan,Toko 88 bahan bangunan,"Malinau Kota, Kec. Malinau Kota, Kabupaten Malinau, Kalimantan Utara 77554","Kec. Malinau Kota, Kabupaten Malinau",KALIMANTAN UTARA,77554.0,Indonesia,83833052031.0,,,3.5837482,116.6245706,https://maps.google.com/?cid=0x0:0x995ee965ba072027,
toko bangunan,Toko Bahan Bangunan,Toko Makmur Jaya,"Jl. Panembahan No.RT.07 No.14, Malinau Kota, Kec. Malinau Kota, Kabupaten Malinau, Kalimantan Utara 77554","Malinau Kota, Kec. Malinau Kota, Kabupaten Malinau",KALIMANTAN UTARA,77554.0,Indonesia,85169995912.0,,,3.5894549,116.6227126,https://maps.google.com/?cid=0x0:0xec9717eadaeb8588,
toko bangunan,Toko Bahan Bangunan,Toko sami jaya,"GJ4V+2Q4 Tran Suruk, Nanga Suruk, Kec. Bunut Hulu, Kabupaten Kapuas Hulu, Kalimantan Barat","Kabupaten Kapuas Hulu, Kalimantan Barat",KALIMANTAN UTARA,,Indonesia,85822980821.0,,,0.5050175,112.6444467,https://maps.google.com/?cid=0x0:0xfdd853851f53f6a4,
toko bangunan,toko bangunan,Kec. Kayan Hulu,"Kabupaten Sintang, Kalimantan Barat","Kabupaten Sintang, Kalimantan Barat",KALIMANTAN UTARA,,Indonesia,,,,-0.0690749,112.3337769,https://maps.google.com/?cid=0x0:0x7fc8301ffc8f1190,
toko bangunan,toko bangunan,Kec. Kayan Hulu,"Kabupaten Malinau, Kalimantan Utara","Kabupaten Malinau, Kalimantan Utara",KALIMANTAN UTARA,,Indonesia,,,,1.7772932,115.0183619,https://maps.google.com/?cid=0x0:0x9aac24f2a499af17,
toko bangunan,toko bangunan,Kalimantan Barat 78694,"Kec. Kayan Hulu, Kabupaten Sintang, Kalimantan Barat","Kabupaten Sintang, Kalimantan Barat",KALIMANTAN UTARA,,Indonesia,,,,-0.0690749,112.3337769,https://maps.google.com/?cid=0x0:0xf1565987c85b5ec9,
toko bangunan,Toko Bahan Bangunan,TOKO BJR TRUSS PENAJAM IKN,"Jl. Propinsi No.5, Penajam, Kabupaten Penajam Paser Utara, Kalimantan Timur 76142","Penajam, Kabupaten Penajam Paser Utara",KALIMANTAN UTARA,76142.0,Indonesia,811545424.0,,,-1.2619936,116.7648304,https://maps.google.com/?cid=0x0:0x6d057caee41e6f72,
toko bangunan,Toko Bahan Bangunan,Toko 88 bahan bangunan,"Malinau Kota, Kec. Malinau Kota, Kabupaten Malinau, Kalimantan Utara 77554","Kec. Malinau Kota, Kabupaten Malinau",KALIMANTAN UTARA,77554.0,Indonesia,83833052031.0,,,3.5837482,116.6245706,https://maps.google.com/?cid=0x0:0x995ee965ba072027,
toko bangunan,Toko Bahan Bangunan,Toko Mitra Jaya Bangunan,"HJG9+X3C Bandara RA Besing, Malinau Kota, Kec. Malinau Kota, Kabupaten Malinau, Kalimantan Utara 77554","Malinau Kota, Kec. Malinau Kota, Kabupaten Malinau",KALIMANTAN UTARA,77554.0,Indonesia,85169995912.0,,,3.5774367,116.617652,https://maps.google.com/?cid=0x0:0xea81baa680d48aa2,
toko bangunan,Toko Bahan Bangunan,Toko Sinar Bangunan,"FFPJ+HG5, Unnamed Road, Boyan Tanjung, Kapuas Hulu Regency, West Kalimantan 78758","Unnamed Road, Boyan Tanjung, Kapuas Hulu Regency",KALIMANTAN UTARA,78758.0,Indonesia,85609166083.0,,,0.486391,112.481362,https://maps.google.com/?cid=0x0:0x6578c62c53319805,
toko bangunan,toko bangunan,Kalimantan Utara,,Kalimantan Utara,KALIMANTAN UTARA,,Indonesia,,,,3.0730929,116.0413889,https://maps.google.com/?cid=0x0:0x1911f0dd6846b988,
toko bangunan,Toko Bahan Bangunan,Pelangi Jaya Toko Bangunan,"HJF3+MX9, Malinau Hulu, Kec. Malinau Kota, Kabupaten Malinau, Kalimantan Utara 77554","Malinau Hulu, Kec. Malinau Kota, Kabupaten Malinau",KALIMANTAN UTARA,77554.0,Indonesia,85169995912.0,,,3.5741683,116.6049787,https://maps.google.com/?cid=0x0:0xc4b9090c68b73393,
toko bangunan,Toko Bahan Bangunan,TOKO WIJAYA,"Malinau Kota, Kec. Malinau Kota, Kabupaten Malinau, Kalimantan Utara 77554","Kec. Malinau Kota, Kabupaten Malinau",KALIMANTAN UTARA,77554.0,Indonesia,85169995912.0,,,3.577103,116.6175225,https://maps.google.com/?cid=0x0:0x20964ed7ac14e551,
toko bangunan,Toko Bahan Bangunan,Toko Abadi Jaya,"Jl. Panembahan No.3, RT.3, Malinau Kota, Kec. Malinau Kota, Kabupaten Malinau, Kalimantan Utara 77554","RT.3, Malinau Kota, Kec. Malinau Kota, Kabupaten Malinau",KALIMANTAN UTARA,77554.0,Indonesia,85169995912.0,,,3.5921656,116.6259137,https://maps.google.com/?cid=0x0:0xe025ea1ba7944119,
toko bangunan,Pemasok Bahan Bangunan,Indo Home Depo,"Jl. Kusuma Bangsa No.RT 31, Pamusian, Kec. Tarakan Tengah, Kota Tarakan, Kalimantan Utara 77116","Pamusian, Kec. Tarakan Tengah, Kota Tarakan",KALIMANTAN UTARA,77116.0,Indonesia,8125793968.0,,,3.3053692,117.6095652,https://maps.google.com/?cid=0x0:0xcb4be7962965248b,
toko bangunan,Pemasok Bahan Bangunan,Toko Bangunan HAWAII,"Selumit, Kec. Tarakan Tengah, Kota Tarakan, Kalimantan Utara","Kota Tarakan, Kalimantan Utara",KALIMANTAN UTARA,,Indonesia,818390267.0,,,3.2976553,117.5866094,https://maps.google.com/?cid=0x0:0xcca5f0c2fc7534ef,
toko bangunan,Toko Bahan Bangunan,Toko Bangunan Sumber Jaya,"VWQJ+96C, Pala Pulau, Kec. Putussibau Utara, Kabupaten Kapuas Hulu, Kalimantan Barat 78752","Pala Pulau, Kec. Putussibau Utara, Kabupaten Kapuas Hulu",KALIMANTAN UTARA,78752.0,Indonesia,83899586603.0,,,0.8884323,112.9305008,https://maps.google.com/?cid=0x0:0xb3941f2f5fb37be0,
toko bangunan,Toko Bahan Bangunan,HEMMART HARDWARE,"Gedung Gita Jalatama, Pamusian, Kec. Tarakan Tengah, Kota Tarakan, Kalimantan Utara","Kota Tarakan, Kalimantan Utara",KALIMANTAN UTARA,,Indonesia,83833052031.0,,,3.3085231,117.5973763,https://maps.google.com/?cid=0x0:0x8ad59488b5eae3d7,
toko bangunan,Toko Bahan Bangunan,TOKO BALI BANGUNAN,"Nanga Mau, Kec. Kayan Hilir, Kabupaten Sintang, Kalimantan Barat 78693","Kec. Kayan Hilir, Kabupaten Sintang",KALIMANTAN UTARA,78693.0,Indonesia,,,,-0.1090834,111.9190342,https://maps.google.com/?cid=0x0:0xa444d9b05e3f6680,
toko bangunan,Toko Bahan Bangunan,Pasir suloh,"VWQG+2Q6, Nanga Mau, Kec. Kayan Hilir, Kabupaten Sintang, Kalimantan Barat 78693","Nanga Mau, Kec. Kayan Hilir, Kabupaten Sintang",KALIMANTAN UTARA,78693.0,Indonesia,,,,-0.1118769,111.9277152,https://maps.google.com/?cid=0x0:0xa8b0768deeec6635,
toko bangunan,Toko Bahan Bangunan,TOKO BANGUNAN MITRA KITA,"Jalan Kirin Braun No.1, Putussibau Kota, Kec. Putussibau Utara, Kabupaten Kapuas Hulu, Kalimantan Barat 78711","Putussibau Kota, Kec. Putussibau Utara, Kabupaten Kapuas Hulu",KALIMANTAN UTARA,78711.0,Indonesia,85373031678.0,,,0.8871956,112.9238785,https://maps.google.com/?cid=0x0:0x637b6b248f4ae4f3,
toko bangunan,Toko bahan makanan,TOKO KAPUAS,"GXV5+VWF, Semitau Hilir, Kec. Semitau, Kabupaten Kapuas Hulu, Kalimantan Barat 78775","Semitau Hilir, Kec. Semitau, Kabupaten Kapuas Hulu",KALIMANTAN UTARA,78775.0,Indonesia,81345203008.0,,,0.5446978,111.9597953,https://maps.google.com/?cid=0x0:0xd10f43da66ce64fb,
toko bangunan,,toko material,"Desa tapus,jln brigjend h.hasan basri,no 012, rt 02, Kalimantan Selatan 71411",rt 02,KALIMANTAN UTARA,71411.0,Indonesia,8161999912.0,,,-2.4861841,115.2350268,https://maps.google.com/?cid=0x0:0x58491fe764e7ead9,
toko bangunan,Toko Bahan Bangunan,Toko bangunan sumber rayyan palampitan,"Jl. H. Saberan Effendi, Sungai Malang, Kec. Amuntai Tengah, Kabupaten Hulu Sungai Utara, Kalimantan Selatan","Kabupaten Hulu Sungai Utara, Kalimantan Selatan",KALIMANTAN UTARA,,Indonesia,,,,-2.4241741,115.2440059,https://maps.google.com/?cid=0x0:0xdf0dc072ebbe4e12,
toko bangunan,Toko Bahan Bangunan,Multi Bangunan,"Yos Sudarso No 3 RT 13 Depan Pasar Beringin, Selumit, Kec. Tarakan Tengah, Kota Tarakan, Kalimantan Utara 77113","Selumit, Kec. Tarakan Tengah, Kota Tarakan",KALIMANTAN UTARA,77113.0,Indonesia,83833052031.0,,,3.296871,117.5869582,https://maps.google.com/?cid=0x0:0xab1911412c7127b3,
toko bangunan,Toko Bahan Bangunan,Toko Bangunan Roda Gemilang,"Jl. Kolonel Sugiono No.107, Kapuas Kanan Hulu, Kec. Sintang, Kabupaten Sintang, Kalimantan Barat 78614","Kapuas Kanan Hulu, Kec. Sintang, Kabupaten Sintang",KALIMANTAN UTARA,78614.0,Indonesia,81258175965.0,,,0.0799613,111.4832268,https://maps.google.com/?cid=0x0:0x4b3f97f6811c7d89,
toko bangunan,Toko Bahan Bangunan,Pasir SLH,"VWQG+2Q6, Nanga Mau, Kec. Kayan Hilir, Kabupaten Sintang, Kalimantan Barat 78693","Nanga Mau, Kec. Kayan Hilir, Kabupaten Sintang",KALIMANTAN UTARA,78693.0,Indonesia,,,,-0.1118668,111.9277168,https://maps.google.com/?cid=0x0:0xf3e51773ee403e6a,
toko bangunan,toko bangunan,Toko bangunan Rezeki lancar,"VWQ9+P86, Jl. Poros, Nanga Mau, Kec. Kayan Hilir, Kabupaten Sintang, Kalimantan Barat 78693","Jl. Poros, Nanga Mau, Kec. Kayan Hilir, Kabupaten Sintang",KALIMANTAN UTARA,78693.0,Indonesia,,,,-0.1107203,111.9182714,https://maps.google.com/?cid=0x0:0xaf4e3485645ed6cb,
toko bangunan,toko bangunan,Kalimantan Timur 77573,"Kabupaten Malinau, Kalimantan Timur","Kabupaten Malinau, Kalimantan Timur",KALIMANTAN UTARA,,Indonesia,,,,1.4464714,115.188916,https://maps.google.com/?cid=0x0:0x791588811899f0cb,
toko bangunan,Toko Bahan Bangunan,Toko 88 bahan bangunan,"Malinau Kota, Kec. Malinau Kota, Kabupaten Malinau, Kalimantan Utara 77554","Kec. Malinau Kota, Kabupaten Malinau",KALIMANTAN UTARA,77554.0,Indonesia,83833052031.0,,,3.5837482,116.6245706,https://maps.google.com/?cid=0x0:0x995ee965ba072027,
toko bangunan,Toko,Toko Agsefi,"QWR2+MGX, Long Nawang, Kec. Kayan Hulu, Kabupaten Malinau, Kalimantan Utara 77572","Long Nawang, Kec. Kayan Hulu, Kabupaten Malinau",KALIMANTAN UTARA,77572.0,Indonesia,,,,1.7926953,114.9009776,https://maps.google.com/?cid=0x0:0x9fb6ec8de0979684,
toko bangunan,Toko Bahan Bangunan,Toko Makmur Jaya,"Jl. Panembahan No.RT.07 No.14, Malinau Kota, Kec. Malinau Kota, Kabupaten Malinau, Kalimantan Utara 77554","Malinau Kota, Kec. Malinau Kota, Kabupaten Malinau",KALIMANTAN UTARA,77554.0,Indonesia,85169995912.0,,,3.5894549,116.6227126,https://maps.google.com/?cid=0x0:0xec9717eadaeb8588,
toko bangunan,toko bangunan,Kec. Malinau Bar.,"Kabupaten Malinau, Kalimantan Utara","Kabupaten Malinau, Kalimantan Utara",KALIMANTAN UTARA,,Indonesia,,,,3.5374774,116.612704,https://maps.google.com/?cid=0x0:0xcb2568b300b5bd79,
toko bangunan,Toko Bahan Bangunan,Toko 88 bahan bangunan,"Malinau Kota, Kec. Malinau Kota, Kabupaten Malinau, Kalimantan Utara 77554","Kec. Malinau Kota, Kabupaten Malinau",KALIMANTAN UTARA,77554.0,Indonesia,83833052031.0,,,3.5837482,116.6245706,https://maps.google.com/?cid=0x0:0x995ee965ba072027,
toko bangunan,Toko Bahan Bangunan,Toko Mitra Jaya Bangunan,"HJG9+X3C Bandara RA Besing, Malinau Kota, Kec. Malinau Kota, Kabupaten Malinau, Kalimantan Utara 77554","Malinau Kota, Kec. Malinau Kota, Kabupaten Malinau",KALIMANTAN UTARA,77554.0,Indonesia,85169995912.0,,,3.5774367,116.617652,https://maps.google.com/?cid=0x0:0xea81baa680d48aa2,
toko bangunan,Toko Bahan Bangunan,Toko Cahaya Mulia Teknik,"HJ35+VG6, Malinau Hulu, Kec. Malinau Kota, Kabupaten Malinau, Kalimantan Utara 77554","Malinau Hulu, Kec. Malinau Kota, Kabupaten Malinau",KALIMANTAN UTARA,77554.0,Indonesia,83114785308.0,,,3.5546521,116.608772,https://maps.google.com/?cid=0x0:0xc27cc09e2878cb2d,
toko bangunan,Toko Bahan Bangunan,Pelangi Jaya Toko Bangunan,"HJF3+MX9, Malinau Hulu, Kec. Malinau Kota, Kabupaten Malinau, Kalimantan Utara 77554","Malinau Hulu, Kec. Malinau Kota, Kabupaten Malinau",KALIMANTAN UTARA,77554.0,Indonesia,85169995912.0,,,3.5741683,116.6049787,https://maps.google.com/?cid=0x0:0xc4b9090c68b73393,
toko bangunan,Toko Bahan Bangunan,TOKO WIJAYA,"Malinau Kota, Kec. Malinau Kota, Kabupaten Malinau, Kalimantan Utara 77554","Kec. Malinau Kota, Kabupaten Malinau",KALIMANTAN UTARA,77554.0,Indonesia,85169995912.0,,,3.577103,116.6175225,https://maps.google.com/?cid=0x0:0x20964ed7ac14e551,
toko bangunan,Toko Bahan Bangunan,Tb.Tunas Jaya,"HJF5+RV9, Jl. Raja Pandita, Pelita Kanaan, Kec. Malinau Kota, Kabupaten Malinau, Kalimantan Utara 77554","Jl. Raja Pandita, Pelita Kanaan, Kec. Malinau Kota, Kabupaten Malinau",KALIMANTAN UTARA,77554.0,Indonesia,85169995912.0,,,3.5745336,116.6097442,https://maps.google.com/?cid=0x0:0x9df0f4d85fe85645,
toko bangunan,Toko Bahan Bangunan,Toko Abadi Jaya,"Jl. Panembahan No.3, RT.3, Malinau Kota, Kec. Malinau Kota, Kabupaten Malinau, Kalimantan Utara 77554","RT.3, Malinau Kota, Kec. Malinau Kota, Kabupaten Malinau",KALIMANTAN UTARA,77554.0,Indonesia,85169995912.0,,,3.5921656,116.6259137,https://maps.google.com/?cid=0x0:0xe025ea1ba7944119,
toko bangunan,Toko Bahan Bangunan,Toko Makmur Jaya,"Jl. Panembahan No.RT.07 No.14, Malinau Kota, Kec. Malinau Kota, Kabupaten Malinau, Kalimantan Utara 77554","Malinau Kota, Kec. Malinau Kota, Kabupaten Malinau",KALIMANTAN UTARA,77554.0,Indonesia,85169995912.0,,,3.5894549,116.6227126,https://maps.google.com/?cid=0x0:0xec9717eadaeb8588,
toko bangunan,toko bangunan,Dunia Plafon Malinau,"HJF6+GV2, Jl. Raja Pandita, Malinau Hulu, Kec. Malinau Kota, Kabupaten Malinau, Kalimantan Utara 77554","Jl. Raja Pandita, Malinau Hulu, Kec. Malinau Kota, Kabupaten Malinau",KALIMANTAN UTARA,77554.0,Indonesia,85189989991.0,,,3.5737629,116.6121302,https://maps.google.com/?cid=0x0:0x7b83e74590d241d,
toko bangunan,Toko Swalayan,Jaya Indah 1,"HJF3+MW6, Malinau Hulu, Kec. Malinau Kota, Kabupaten Malinau, Kalimantan Utara 77554","Malinau Hulu, Kec. Malinau Kota, Kabupaten Malinau",KALIMANTAN UTARA,77554.0,Indonesia,85169995912.0,,,3.574152,116.604778,https://maps.google.com/?cid=0x0:0xc37b0bb236fb881f,
toko bangunan,Toko Bahan Bangunan,Toko Sinar Baru,"HJJC+MQH, Malinau Kota, Kec. Malinau Kota, Kabupaten Malinau, Kalimantan Utara 77554","Malinau Kota, Kec. Malinau Kota, Kabupaten Malinau",KALIMANTAN UTARA,77554.0,Indonesia,85169995912.0,,,3.5816905,116.6219794,https://maps.google.com/?cid=0x0:0x5a4d212c62ec0cc6,
toko bangunan,Kantor Perusahaan,Dan Rental Mobil 4x4,"HJ64+CVM, Malinau Hulu, Kec. Malinau Kota, Kabupaten Malinau, Kalimantan Utara 77554","Malinau Hulu, Kec. Malinau Kota, Kabupaten Malinau",KALIMANTAN UTARA,77554.0,Indonesia,81348598889.0,,,3.5610903,116.6071612,https://maps.google.com/?cid=0x0:0x94493a0bf917e85d,
toko bangunan,Toko Bahan Bangunan,Toko Yogo Jaya,"Jl. Gor, Malinau Kota, Kec. Malinau Kota, Kabupaten Malinau, Kalimantan Utara 77554","Malinau Kota, Kec. Malinau Kota, Kabupaten Malinau",KALIMANTAN UTARA,77554.0,Indonesia,82252593837.0,,,3.5732936,116.6231231,https://maps.google.com/?cid=0x0:0xff542ae23a37aa7c,
toko bangunan,Kantor Perusahaan,Inhutani PT Persero,"HJPC+F3M, Jl. Panembahan, Malinau Kota, Kec. Malinau Kota, Kabupaten Malinau, Kalimantan Utara 77554","Jl. Panembahan, Malinau Kota, Kec. Malinau Kota, Kabupaten Malinau",KALIMANTAN UTARA,77554.0,Indonesia,55321115.0,,,3.5862177,116.6201853,https://maps.google.com/?cid=0x0:0xc77cd90a207de541,
toko bangunan,Toko Bahan Bangunan,Bata merah berkualitas,"JJ2C+HQ6, Malinau Seberang, Kec. Malinau Utara, Kabupaten Malinau, Kalimantan Utara 77554","Malinau Seberang, Kec. Malinau Utara, Kabupaten Malinau",KALIMANTAN UTARA,77554.0,Indonesia,,,,3.6014152,116.6218969,https://maps.google.com/?cid=0x0:0x587c9cc39d7970c5,
toko bangunan,Toko Bahan Bangunan,Jl daring RT 2 pulau sapi,"GG9J+GH9, Pulau Sapi, Kec. Mentarang, Kabupaten Malinau, Kalimantan Utara 77554","Pulau Sapi, Kec. Mentarang, Kabupaten Malinau",KALIMANTAN UTARA,77554.0,Indonesia,81347363999.0,,,3.5187918,116.5314935,https://maps.google.com/?cid=0x0:0xda211fffd561f774,
toko bangunan,Toko Bahan Bangunan,Toko Pasti Jaya,"HJP9+JW4, Jl. Panembahan, Malinau Kota, Kec. Malinau Kota, Kabupaten Malinau, Kalimantan Utara 77554","Jl. Panembahan, Malinau Kota, Kec. Malinau Kota, Kabupaten Malinau",KALIMANTAN UTARA,77554.0,Indonesia,,,,3.586524,116.6198331,https://maps.google.com/?cid=0x0:0xbca0f3eb532e2417,
toko bangunan,Toko Perlengkapan Rumah,Toko HOOLA,"HJVG+4WJ, Malinau Kota, Kec. Malinau Kota, Kabupaten Malinau, Kalimantan Utara 77554","Malinau Kota, Kec. Malinau Kota, Kabupaten Malinau",KALIMANTAN UTARA,77554.0,Indonesia,85169995912.0,,,3.5928379,116.6272755,https://maps.google.com/?cid=0x0:0xf6b7478d4d7c7816,
toko bangunan,Grosir sayur,Toko sinar indah malinau seberang,"JJ4G+V8Q, Malinau Seberang, Kec. Malinau Utara, Kabupaten Malinau, Kalimantan Utara 77554","Malinau Seberang, Kec. Malinau Utara, Kabupaten Malinau",KALIMANTAN UTARA,77554.0,Indonesia,,,,3.6072064,116.6258551,https://maps.google.com/?cid=0x0:0xd896d8dc7f3388b,
toko bangunan,toko bangunan,Malinau,"Malinau Kota, Kec. Malinau Kota, Kabupaten Malinau, Kalimantan Timur","Kabupaten Malinau, Kalimantan Timur",KALIMANTAN UTARA,,Indonesia,,,,3.584221,116.647797,https://maps.google.com/?cid=0x0:0xa317c514e5ce8a42,
toko bangunan,Toko Bahan Bangunan,Toko 88 bahan bangunan,"Malinau Kota, Kec. Malinau Kota, Kabupaten Malinau, Kalimantan Utara 77554","Kec. Malinau Kota, Kabupaten Malinau",KALIMANTAN UTARA,77554.0,Indonesia,83833052031.0,,,3.5837482,116.6245706,https://maps.google.com/?cid=0x0:0x995ee965ba072027,
toko bangunan,Toko Bahan Bangunan,Toko Mitra Jaya Bangunan,"HJG9+X3C Bandara RA Besing, Malinau Kota, Kec. Malinau Kota, Kabupaten Malinau, Kalimantan Utara 77554","Malinau Kota, Kec. Malinau Kota, Kabupaten Malinau",KALIMANTAN UTARA,77554.0,Indonesia,85169995912.0,,,3.5774367,116.617652,https://maps.google.com/?cid=0x0:0xea81baa680d48aa2,
toko bangunan,Toko Bahan Bangunan,Toko Makmur Jaya,"Jl. Panembahan No.RT.07 No.14, Malinau Kota, Kec. Malinau Kota, Kabupaten Malinau, Kalimantan Utara 77554","Malinau Kota, Kec. Malinau Kota, Kabupaten Malinau",KALIMANTAN UTARA,77554.0,Indonesia,85169995912.0,,,3.5894549,116.6227126,https://maps.google.com/?cid=0x0:0xec9717eadaeb8588,
toko bangunan,Toko Bahan Bangunan,TOKO WIJAYA,"Malinau Kota, Kec. Malinau Kota, Kabupaten Malinau, Kalimantan Utara 77554","Kec. Malinau Kota, Kabupaten Malinau",KALIMANTAN UTARA,77554.0,Indonesia,85169995912.0,,,3.577103,116.6175225,https://maps.google.com/?cid=0x0:0x20964ed7ac14e551,
toko bangunan,Toko Bahan Bangunan,Toko Abadi Jaya,"Jl. Panembahan No.3, RT.3, Malinau Kota, Kec. Malinau Kota, Kabupaten Malinau, Kalimantan Utara 77554","RT.3, Malinau Kota, Kec. Malinau Kota, Kabupaten Malinau",KALIMANTAN UTARA,77554.0,Indonesia,85169995912.0,,,3.5921656,116.6259137,https://maps.google.com/?cid=0x0:0xe025ea1ba7944119,
toko bangunan,Toko Bahan Bangunan,Tb.Tunas Jaya,"HJF5+RV9, Jl. Raja Pandita, Pelita Kanaan, Kec. Malinau Kota, Kabupaten Malinau, Kalimantan Utara 77554","Jl. Raja Pandita, Pelita Kanaan, Kec. Malinau Kota, Kabupaten Malinau",KALIMANTAN UTARA,77554.0,Indonesia,85169995912.0,,,3.5745336,116.6097442,https://maps.google.com/?cid=0x0:0x9df0f4d85fe85645,
toko bangunan,Toko Bahan Bangunan,Toko Cahaya Mulia Teknik,"HJ35+VG6, Malinau Hulu, Kec. Malinau Kota, Kabupaten Malinau, Kalimantan Utara 77554","Malinau Hulu, Kec. Malinau Kota, Kabupaten Malinau",KALIMANTAN UTARA,77554.0,Indonesia,83114785308.0,,,3.5546521,116.608772,https://maps.google.com/?cid=0x0:0xc27cc09e2878cb2d,
toko bangunan,Toko Bahan Bangunan,Bata merah berkualitas,"JJ2C+HQ6, Malinau Seberang, Kec. Malinau Utara, Kabupaten Malinau, Kalimantan Utara 77554","Malinau Seberang, Kec. Malinau Utara, Kabupaten Malinau",KALIMANTAN UTARA,77554.0,Indonesia,,,,3.6014152,116.6218969,https://maps.google.com/?cid=0x0:0x587c9cc39d7970c5,
toko bangunan,Toko Bahan Bangunan,Toko Pasti Jaya,"HJP9+JW4, Jl. Panembahan, Malinau Kota, Kec. Malinau Kota, Kabupaten Malinau, Kalimantan Utara 77554","Jl. Panembahan, Malinau Kota, Kec. Malinau Kota, Kabupaten Malinau",KALIMANTAN UTARA,77554.0,Indonesia,,,,3.586524,116.6198331,https://maps.google.com/?cid=0x0:0xbca0f3eb532e2417,
toko bangunan,toko bangunan,Toko bangunan UD.RISKA,"HJQV+HMF, Malinau Kota, Kec. Malinau Kota, Kabupaten Malinau, Kalimantan Utara 77554","Malinau Kota, Kec. Malinau Kota, Kabupaten Malinau",KALIMANTAN UTARA,77554.0,Indonesia,,,,3.5889375,116.6441719,https://maps.google.com/?cid=0x0:0xaadfdee922feac2d,
toko bangunan,Toko Swalayan,Jaya Indah 1,"HJF3+MW6, Malinau Hulu, Kec. Malinau Kota, Kabupaten Malinau, Kalimantan Utara 77554","Malinau Hulu, Kec. Malinau Kota, Kabupaten Malinau",KALIMANTAN UTARA,77554.0,Indonesia,85169995912.0,,,3.574152,116.604778,https://maps.google.com/?cid=0x0:0xc37b0bb236fb881f,
toko bangunan,Toko Perlengkapan Rumah,Jual Batu Pecah Malinau,"HJWR+WM, Malinau Kota, Kec. Malinau Kota, Kabupaten Malinau, Kalimantan Utara 77554","Malinau Kota, Kec. Malinau Kota, Kabupaten Malinau",KALIMANTAN UTARA,77554.0,Indonesia,85252049024.0,,,3.5973138,116.6416992,https://maps.google.com/?cid=0x0:0x99db87000c9751f3,
toko bangunan,toko bangunan,Kec. Malinau Sel.,"Kabupaten Malinau, Kalimantan Utara","Kabupaten Malinau, Kalimantan Utara",KALIMANTAN UTARA,,Indonesia,,,,3.1674448,116.4704561,https://maps.google.com/?cid=0x0:0x4516403666700bfb,
toko bangunan,Toko Bahan Bangunan,Toko 88 bahan bangunan,"Malinau Kota, Kec. Malinau Kota, Kabupaten Malinau, Kalimantan Utara 77554","Kec. Malinau Kota, Kabupaten Malinau",KALIMANTAN UTARA,77554.0,Indonesia,83833052031.0,,,3.5837482,116.6245706,https://maps.google.com/?cid=0x0:0x995ee965ba072027,
toko bangunan,Toko Bahan Bangunan,Toko Mitra Jaya Bangunan,"HJG9+X3C Bandara RA Besing, Malinau Kota, Kec. Malinau Kota, Kabupaten Malinau, Kalimantan Utara 77554","Malinau Kota, Kec. Malinau Kota, Kabupaten Malinau",KALIMANTAN UTARA,77554.0,Indonesia,85169995912.0,,,3.5774367,116.617652,https://maps.google.com/?cid=0x0:0xea81baa680d48aa2,
toko bangunan,Toko Bahan Bangunan,TOKO WIJAYA,"Malinau Kota, Kec. Malinau Kota, Kabupaten Malinau, Kalimantan Utara 77554","Kec. Malinau Kota, Kabupaten Malinau",KALIMANTAN UTARA,77554.0,Indonesia,85169995912.0,,,3.577103,116.6175225,https://maps.google.com/?cid=0x0:0x20964ed7ac14e551,
toko bangunan,Toko Bahan Bangunan,Tb.Tunas Jaya,"HJF5+RV9, Jl. Raja Pandita, Pelita Kanaan, Kec. Malinau Kota, Kabupaten Malinau, Kalimantan Utara 77554","Jl. Raja Pandita, Pelita Kanaan, Kec. Malinau Kota, Kabupaten Malinau",KALIMANTAN UTARA,77554.0,Indonesia,85169995912.0,,,3.5745336,116.6097442,https://maps.google.com/?cid=0x0:0x9df0f4d85fe85645,
toko bangunan,Toko Bahan Bangunan,Toko Makmur Jaya,"Jl. Panembahan No.RT.07 No.14, Malinau Kota, Kec. Malinau Kota, Kabupaten Malinau, Kalimantan Utara 77554","Malinau Kota, Kec. Malinau Kota, Kabupaten Malinau",KALIMANTAN UTARA,77554.0,Indonesia,85169995912.0,,,3.5894549,116.6227126,https://maps.google.com/?cid=0x0:0xec9717eadaeb8588,
toko bangunan,Toko Bahan Bangunan,Toko Cahaya Mulia Teknik,"HJ35+VG6, Malinau Hulu, Kec. Malinau Kota, Kabupaten Malinau, Kalimantan Utara 77554","Malinau Hulu, Kec. Malinau Kota, Kabupaten Malinau",KALIMANTAN UTARA,77554.0,Indonesia,83114785308.0,,,3.5546521,116.608772,https://maps.google.com/?cid=0x0:0xc27cc09e2878cb2d,
toko bangunan,Toko Bahan Bangunan,Toko Abadi Jaya,"Jl. Panembahan No.3, RT.3, Malinau Kota, Kec. Malinau Kota, Kabupaten Malinau, Kalimantan Utara 77554","RT.3, Malinau Kota, Kec. Malinau Kota, Kabupaten Malinau",KALIMANTAN UTARA,77554.0,Indonesia,85169995912.0,,,3.5921656,116.6259137,https://maps.google.com/?cid=0x0:0xe025ea1ba7944119,
toko bangunan,Toko Bahan Bangunan,Toko Pasti Jaya,"HJP9+JW4, Jl. Panembahan, Malinau Kota, Kec. Malinau Kota, Kabupaten Malinau, Kalimantan Utara 77554","Jl. Panembahan, Malinau Kota, Kec. Malinau Kota, Kabupaten Malinau",KALIMANTAN UTARA,77554.0,Indonesia,,,,3.586524,116.6198331,https://maps.google.com/?cid=0x0:0xbca0f3eb532e2417,
toko bangunan,toko bangunan,Kec. Malinau Selatan Hilir,"Kabupaten Malinau, Kalimantan Utara","Kabupaten Malinau, Kalimantan Utara",KALIMANTAN UTARA,,Indonesia,,,,3.3146294,116.5577197,https://maps.google.com/?cid=0x0:0x3c0190dd52d21f13,
toko bangunan,Toko Bahan Bangunan,Toko 88 bahan bangunan,"Malinau Kota, Kec. Malinau Kota, Kabupaten Malinau, Kalimantan Utara 77554","Kec. Malinau Kota, Kabupaten Malinau",KALIMANTAN UTARA,77554.0,Indonesia,83833052031.0,,,3.5837482,116.6245706,https://maps.google.com/?cid=0x0:0x995ee965ba072027,
toko bangunan,Toko Bahan Bangunan,Toko Mitra Jaya Bangunan,"HJG9+X3C Bandara RA Besing, Malinau Kota, Kec. Malinau Kota, Kabupaten Malinau, Kalimantan Utara 77554","Malinau Kota, Kec. Malinau Kota, Kabupaten Malinau",KALIMANTAN UTARA,77554.0,Indonesia,85169995912.0,,,3.5774367,116.617652,https://maps.google.com/?cid=0x0:0xea81baa680d48aa2,
toko bangunan,Toko Bahan Bangunan,T.B Berkat Jaya,"GGG8+R57, Pulau Sapi, Kec. Mentarang, Kabupaten Malinau, Kalimantan Utara 77554","Pulau Sapi, Kec. Mentarang, Kabupaten Malinau",KALIMANTAN UTARA,77554.0,Indonesia,8161999912.0,,,3.5270288,116.5154093,https://maps.google.com/?cid=0x0:0x4f9de76d4268b507,
toko bangunan,Toko Bahan Bangunan,TOKO WIJAYA,"Malinau Kota, Kec. Malinau Kota, Kabupaten Malinau, Kalimantan Utara 77554","Kec. Malinau Kota, Kabupaten Malinau",KALIMANTAN UTARA,77554.0,Indonesia,85169995912.0,,,3.577103,116.6175225,https://maps.google.com/?cid=0x0:0x20964ed7ac14e551,
toko bangunan,Toko Bahan Bangunan,Tb.Tunas Jaya,"HJF5+RV9, Jl. Raja Pandita, Pelita Kanaan, Kec. Malinau Kota, Kabupaten Malinau, Kalimantan Utara 77554","Jl. Raja Pandita, Pelita Kanaan, Kec. Malinau Kota, Kabupaten Malinau",KALIMANTAN UTARA,77554.0,Indonesia,85169995912.0,,,3.5745336,116.6097442,https://maps.google.com/?cid=0x0:0x9df0f4d85fe85645,
toko bangunan,Toko Bahan Bangunan,Toko Makmur Jaya,"Jl. Panembahan No.RT.07 No.14, Malinau Kota, Kec. Malinau Kota, Kabupaten Malinau, Kalimantan Utara 77554","Malinau Kota, Kec. Malinau Kota, Kabupaten Malinau",KALIMANTAN UTARA,77554.0,Indonesia,85169995912.0,,,3.5894549,116.6227126,https://maps.google.com/?cid=0x0:0xec9717eadaeb8588,
toko bangunan,Toko Bahan Bangunan,Toko Cahaya Mulia Teknik,"HJ35+VG6, Malinau Hulu, Kec. Malinau Kota, Kabupaten Malinau, Kalimantan Utara 77554","Malinau Hulu, Kec. Malinau Kota, Kabupaten Malinau",KALIMANTAN UTARA,77554.0,Indonesia,83114785308.0,,,3.5546521,116.608772,https://maps.google.com/?cid=0x0:0xc27cc09e2878cb2d,
toko bangunan,Toko Bahan Bangunan,Toko Abadi Jaya,"Jl. Panembahan No.3, RT.3, Malinau Kota, Kec. Malinau Kota, Kabupaten Malinau, Kalimantan Utara 77554","RT.3, Malinau Kota, Kec. Malinau Kota, Kabupaten Malinau",KALIMANTAN UTARA,77554.0,Indonesia,85169995912.0,,,3.5921656,116.6259137,https://maps.google.com/?cid=0x0:0xe025ea1ba7944119,
toko bangunan,Toko Swalayan,Jaya Indah 1,"HJF3+MW6, Malinau Hulu, Kec. Malinau Kota, Kabupaten Malinau, Kalimantan Utara 77554","Malinau Hulu, Kec. Malinau Kota, Kabupaten Malinau",KALIMANTAN UTARA,77554.0,Indonesia,85169995912.0,,,3.574152,116.604778,https://maps.google.com/?cid=0x0:0xc37b0bb236fb881f,
toko bangunan,Toko Bahan Bangunan,Toko Pasti Jaya,"HJP9+JW4, Jl. Panembahan, Malinau Kota, Kec. Malinau Kota, Kabupaten Malinau, Kalimantan Utara 77554","Jl. Panembahan, Malinau Kota, Kec. Malinau Kota, Kabupaten Malinau",KALIMANTAN UTARA,77554.0,Indonesia,,,,3.586524,116.6198331,https://maps.google.com/?cid=0x0:0xbca0f3eb532e2417,
toko bangunan,Toko Elektronik,Toko Bintang Timur Electronik,"Jl. Raja Pandita No.RT. 12, Malinau Hulu, Kec. Malinau Kota, Kabupaten Malinau, Kalimantan Utara 77554","Malinau Hulu, Kec. Malinau Kota, Kabupaten Malinau",KALIMANTAN UTARA,77554.0,Indonesia,85247269111.0,,,3.5755299,116.6074202,https://maps.google.com/?cid=0x0:0x8482e4fca3119638,
toko bangunan,Toko bahan makanan,Toko Sumber S,"Malinau Kota, Kec. Malinau Kota, Kabupaten Malinau, Kalimantan Utara 77554","Kec. Malinau Kota, Kabupaten Malinau",KALIMANTAN UTARA,77554.0,Indonesia,82133899888.0,,,3.5722528,116.6053257,https://maps.google.com/?cid=0x0:0x3b0b7705dd4df1de,
toko bangunan,Toko Bahan Bangunan,Jl daring RT 2 pulau sapi,"GG9J+GH9, Pulau Sapi, Kec. Mentarang, Kabupaten Malinau, Kalimantan Utara 77554","Pulau Sapi, Kec. Mentarang, Kabupaten Malinau",KALIMANTAN UTARA,77554.0,Indonesia,81347363999.0,,,3.5187918,116.5314935,https://maps.google.com/?cid=0x0:0xda211fffd561f774,
toko bangunan,Toko Bahan Bangunan,Toko 88 bahan bangunan,"Malinau Kota, Kec. Malinau Kota, Kabupaten Malinau, Kalimantan Utara 77554","Kec. Malinau Kota, Kabupaten Malinau",KALIMANTAN UTARA,77554.0,Indonesia,83833052031.0,,,3.5837482,116.6245706,https://maps.google.com/?cid=0x0:0x995ee965ba072027,
toko bangunan,Toko Bahan Bangunan,Toko Makmur Jaya,"Jl. Panembahan No.RT.07 No.14, Malinau Kota, Kec. Malinau Kota, Kabupaten Malinau, Kalimantan Utara 77554","Malinau Kota, Kec. Malinau Kota, Kabupaten Malinau",KALIMANTAN UTARA,77554.0,Indonesia,85169995912.0,,,3.5894549,116.6227126,https://maps.google.com/?cid=0x0:0xec9717eadaeb8588,
toko bangunan,toko bangunan,Kalimantan Utara 77554,"Kabupaten Malinau, Kalimantan Utara","Kabupaten Malinau, Kalimantan Utara",KALIMANTAN UTARA,,Indonesia,,,,2.9234432,116.2304616,https://maps.google.com/?cid=0x0:0x100a8cc2c03a7e66,
toko bangunan,Toko Bahan Bangunan,Toko Mitra Jaya Bangunan,"HJG9+X3C Bandara RA Besing, Malinau Kota, Kec. Malinau Kota, Kabupaten Malinau, Kalimantan Utara 77554","Malinau Kota, Kec. Malinau Kota, Kabupaten Malinau",KALIMANTAN UTARA,77554.0,Indonesia,85169995912.0,,,3.5774367,116.617652,https://maps.google.com/?cid=0x0:0xea81baa680d48aa2,
toko bangunan,Toko Bahan Bangunan,Toko Cahaya Mulia Teknik,"HJ35+VG6, Malinau Hulu, Kec. Malinau Kota, Kabupaten Malinau, Kalimantan Utara 77554","Malinau Hulu, Kec. Malinau Kota, Kabupaten Malinau",KALIMANTAN UTARA,77554.0,Indonesia,83114785308.0,,,3.5546521,116.608772,https://maps.google.com/?cid=0x0:0xc27cc09e2878cb2d,
toko bangunan,Toko Bahan Bangunan,Tb.Tunas Jaya,"HJF5+RV9, Jl. Raja Pandita, Pelita Kanaan, Kec. Malinau Kota, Kabupaten Malinau, Kalimantan Utara 77554","Jl. Raja Pandita, Pelita Kanaan, Kec. Malinau Kota, Kabupaten Malinau",KALIMANTAN UTARA,77554.0,Indonesia,85169995912.0,,,3.5745336,116.6097442,https://maps.google.com/?cid=0x0:0x9df0f4d85fe85645,
toko bangunan,Toko Swalayan,Jaya Indah 1,"HJF3+MW6, Malinau Hulu, Kec. Malinau Kota, Kabupaten Malinau, Kalimantan Utara 77554","Malinau Hulu, Kec. Malinau Kota, Kabupaten Malinau",KALIMANTAN UTARA,77554.0,Indonesia,85169995912.0,,,3.574152,116.604778,https://maps.google.com/?cid=0x0:0xc37b0bb236fb881f,
toko bangunan,toko bangunan,Dunia Plafon Malinau,"HJF6+GV2, Jl. Raja Pandita, Malinau Hulu, Kec. Malinau Kota, Kabupaten Malinau, Kalimantan Utara 77554","Jl. Raja Pandita, Malinau Hulu, Kec. Malinau Kota, Kabupaten Malinau",KALIMANTAN UTARA,77554.0,Indonesia,85189989991.0,,,3.5737629,116.6121302,https://maps.google.com/?cid=0x0:0x7b83e74590d241d,
toko bangunan,Toko Bahan Bangunan,T.B Berkat Jaya,"GGG8+R57, Pulau Sapi, Kec. Mentarang, Kabupaten Malinau, Kalimantan Utara 77554","Pulau Sapi, Kec. Mentarang, Kabupaten Malinau",KALIMANTAN UTARA,77554.0,Indonesia,8161999912.0,,,3.5270288,116.5154093,https://maps.google.com/?cid=0x0:0x4f9de76d4268b507,
toko bangunan,Toko Bahan Bangunan,Toko Abadi Jaya,"Jl. Panembahan No.3, RT.3, Malinau Kota, Kec. Malinau Kota, Kabupaten Malinau, Kalimantan Utara 77554","RT.3, Malinau Kota, Kec. Malinau Kota, Kabupaten Malinau",KALIMANTAN UTARA,77554.0,Indonesia,85169995912.0,,,3.5921656,116.6259137,https://maps.google.com/?cid=0x0:0xe025ea1ba7944119,
toko bangunan,Toko Bahan Bangunan,TOKO WIJAYA,"Malinau Kota, Kec. Malinau Kota, Kabupaten Malinau, Kalimantan Utara 77554","Kec. Malinau Kota, Kabupaten Malinau",KALIMANTAN UTARA,77554.0,Indonesia,85169995912.0,,,3.577103,116.6175225,https://maps.google.com/?cid=0x0:0x20964ed7ac14e551,
toko bangunan,Toko Bahan Bangunan,Toko Sinar Baru,"HJJC+MQH, Malinau Kota, Kec. Malinau Kota, Kabupaten Malinau, Kalimantan Utara 77554","Malinau Kota, Kec. Malinau Kota, Kabupaten Malinau",KALIMANTAN UTARA,77554.0,Indonesia,85169995912.0,,,3.5816905,116.6219794,https://maps.google.com/?cid=0x0:0x5a4d212c62ec0cc6,
toko bangunan,Toko Bahan Bangunan,Bata merah berkualitas,"JJ2C+HQ6, Malinau Seberang, Kec. Malinau Utara, Kabupaten Malinau, Kalimantan Utara 77554","Malinau Seberang, Kec. Malinau Utara, Kabupaten Malinau",KALIMANTAN UTARA,77554.0,Indonesia,,,,3.6014152,116.6218969,https://maps.google.com/?cid=0x0:0x587c9cc39d7970c5,
toko bangunan,Kantor Perusahaan,Inhutani PT Persero,"HJPC+F3M, Jl. Panembahan, Malinau Kota, Kec. Malinau Kota, Kabupaten Malinau, Kalimantan Utara 77554","Jl. Panembahan, Malinau Kota, Kec. Malinau Kota, Kabupaten Malinau",KALIMANTAN UTARA,77554.0,Indonesia,55321115.0,,,3.5862177,116.6201853,https://maps.google.com/?cid=0x0:0xc77cd90a207de541,
toko bangunan,Kantor Perusahaan,Dan Rental Mobil 4x4,"HJ64+CVM, Malinau Hulu, Kec. Malinau Kota, Kabupaten Malinau, Kalimantan Utara 77554","Malinau Hulu, Kec. Malinau Kota, Kabupaten Malinau",KALIMANTAN UTARA,77554.0,Indonesia,81348598889.0,,,3.5610903,116.6071612,https://maps.google.com/?cid=0x0:0x94493a0bf917e85d,
toko bangunan,Toko Bahan Bangunan,Toko Pasti Jaya,"HJP9+JW4, Jl. Panembahan, Malinau Kota, Kec. Malinau Kota, Kabupaten Malinau, Kalimantan Utara 77554","Jl. Panembahan, Malinau Kota, Kec. Malinau Kota, Kabupaten Malinau",KALIMANTAN UTARA,77554.0,Indonesia,,,,3.586524,116.6198331,https://maps.google.com/?cid=0x0:0xbca0f3eb532e2417,
toko bangunan,Grosir sayur,Toko sinar indah malinau seberang,"JJ4G+V8Q, Malinau Seberang, Kec. Malinau Utara, Kabupaten Malinau, Kalimantan Utara 77554","Malinau Seberang, Kec. Malinau Utara, Kabupaten Malinau",KALIMANTAN UTARA,77554.0,Indonesia,,,,3.6072064,116.6258551,https://maps.google.com/?cid=0x0:0xd896d8dc7f3388b,
toko bangunan,Toko Bahan Bangunan,Toko Yogo Jaya,"Jl. Gor, Malinau Kota, Kec. Malinau Kota, Kabupaten Malinau, Kalimantan Utara 77554","Malinau Kota, Kec. Malinau Kota, Kabupaten Malinau",KALIMANTAN UTARA,77554.0,Indonesia,82252593837.0,,,3.5732936,116.6231231,https://maps.google.com/?cid=0x0:0xff542ae23a37aa7c,
toko bangunan,Toko Perlengkapan Rumah,PLAFON PVC MALINAU (PLAFONESIA),"Jl. AMD, RT.20/RW.NO 65, Malinau Kota, Kec. Malinau Kota, Kabupaten Malinau, Kalimantan Utara 77554","RT.20/RW.NO 65, Malinau Kota, Kec. Malinau Kota, Kabupaten Malinau",KALIMANTAN UTARA,77554.0,Indonesia,8115333347.0,,,3.5891279,116.6441285,https://maps.google.com/?cid=0x0:0x3ad64f2ded05694a,
toko bangunan,Toko Perlengkapan Rumah,Jual Batu Pecah Malinau,"HJWR+WM, Malinau Kota, Kec. Malinau Kota, Kabupaten Malinau, Kalimantan Utara 77554","Malinau Kota, Kec. Malinau Kota, Kabupaten Malinau",KALIMANTAN UTARA,77554.0,Indonesia,85252049024.0,,,3.5973138,116.6416992,https://maps.google.com/?cid=0x0:0x99db87000c9751f3,
toko bangunan,toko bangunan,Kec. Malinau Utara,"Kabupaten Malinau, Kalimantan Utara","Kabupaten Malinau, Kalimantan Utara",KALIMANTAN UTARA,,Indonesia,,,,3.5926011,116.6196331,https://maps.google.com/?cid=0x0:0xb9f35c1d23aa16b7,
toko bangunan,Toko Bahan Bangunan,Toko 88 bahan bangunan,"Malinau Kota, Kec. Malinau Kota, Kabupaten Malinau, Kalimantan Utara 77554","Kec. Malinau Kota, Kabupaten Malinau",KALIMANTAN UTARA,77554.0,Indonesia,83833052031.0,,,3.5837482,116.6245706,https://maps.google.com/?cid=0x0:0x995ee965ba072027,
toko bangunan,Toko Bahan Bangunan,Toko Mitra Jaya Bangunan,"HJG9+X3C Bandara RA Besing, Malinau Kota, Kec. Malinau Kota, Kabupaten Malinau, Kalimantan Utara 77554","Malinau Kota, Kec. Malinau Kota, Kabupaten Malinau",KALIMANTAN UTARA,77554.0,Indonesia,85169995912.0,,,3.5774367,116.617652,https://maps.google.com/?cid=0x0:0xea81baa680d48aa2,
toko bangunan,Toko Bahan Bangunan,Tb.Tunas Jaya,"HJF5+RV9, Jl. Raja Pandita, Pelita Kanaan, Kec. Malinau Kota, Kabupaten Malinau, Kalimantan Utara 77554","Jl. Raja Pandita, Pelita Kanaan, Kec. Malinau Kota, Kabupaten Malinau",KALIMANTAN UTARA,77554.0,Indonesia,85169995912.0,,,3.5745336,116.6097442,https://maps.google.com/?cid=0x0:0x9df0f4d85fe85645,
toko bangunan,Toko Bahan Bangunan,TOKO WIJAYA,"Malinau Kota, Kec. Malinau Kota, Kabupaten Malinau, Kalimantan Utara 77554","Kec. Malinau Kota, Kabupaten Malinau",KALIMANTAN UTARA,77554.0,Indonesia,85169995912.0,,,3.577103,116.6175225,https://maps.google.com/?cid=0x0:0x20964ed7ac14e551,
toko bangunan,Toko Bahan Bangunan,Toko Makmur Jaya,"Jl. Panembahan No.RT.07 No.14, Malinau Kota, Kec. Malinau Kota, Kabupaten Malinau, Kalimantan Utara 77554","Malinau Kota, Kec. Malinau Kota, Kabupaten Malinau",KALIMANTAN UTARA,77554.0,Indonesia,85169995912.0,,,3.5894549,116.6227126,https://maps.google.com/?cid=0x0:0xec9717eadaeb8588,
toko bangunan,Toko Bahan Bangunan,Toko Abadi Jaya,"Jl. Panembahan No.3, RT.3, Malinau Kota, Kec. Malinau Kota, Kabupaten Malinau, Kalimantan Utara 77554","RT.3, Malinau Kota, Kec. Malinau Kota, Kabupaten Malinau",KALIMANTAN UTARA,77554.0,Indonesia,85169995912.0,,,3.5921656,116.6259137,https://maps.google.com/?cid=0x0:0xe025ea1ba7944119,
toko bangunan,Toko Bahan Bangunan,Toko Cahaya Mulia Teknik,"HJ35+VG6, Malinau Hulu, Kec. Malinau Kota, Kabupaten Malinau, Kalimantan Utara 77554","Malinau Hulu, Kec. Malinau Kota, Kabupaten Malinau",KALIMANTAN UTARA,77554.0,Indonesia,83114785308.0,,,3.5546521,116.608772,https://maps.google.com/?cid=0x0:0xc27cc09e2878cb2d,
toko bangunan,toko bangunan,Dunia Plafon Malinau,"HJF6+GV2, Jl. Raja Pandita, Malinau Hulu, Kec. Malinau Kota, Kabupaten Malinau, Kalimantan Utara 77554","Jl. Raja Pandita, Malinau Hulu, Kec. Malinau Kota, Kabupaten Malinau",KALIMANTAN UTARA,77554.0,Indonesia,85189989991.0,,,3.5737629,116.6121302,https://maps.google.com/?cid=0x0:0x7b83e74590d241d,
toko bangunan,Toko Swalayan,Jaya Indah 1,"HJF3+MW6, Malinau Hulu, Kec. Malinau Kota, Kabupaten Malinau, Kalimantan Utara 77554","Malinau Hulu, Kec. Malinau Kota, Kabupaten Malinau",KALIMANTAN UTARA,77554.0,Indonesia,85169995912.0,,,3.574152,116.604778,https://maps.google.com/?cid=0x0:0xc37b0bb236fb881f,
toko bangunan,Toko Bahan Bangunan,Toko Sinar Baru,"HJJC+MQH, Malinau Kota, Kec. Malinau Kota, Kabupaten Malinau, Kalimantan Utara 77554","Malinau Kota, Kec. Malinau Kota, Kabupaten Malinau",KALIMANTAN UTARA,77554.0,Indonesia,85169995912.0,,,3.5816905,116.6219794,https://maps.google.com/?cid=0x0:0x5a4d212c62ec0cc6,
toko bangunan,Toko Bahan Bangunan,Bata merah berkualitas,"JJ2C+HQ6, Malinau Seberang, Kec. Malinau Utara, Kabupaten Malinau, Kalimantan Utara 77554","Malinau Seberang, Kec. Malinau Utara, Kabupaten Malinau",KALIMANTAN UTARA,77554.0,Indonesia,,,,3.6014152,116.6218969,https://maps.google.com/?cid=0x0:0x587c9cc39d7970c5,
toko bangunan,Kantor Perusahaan,Inhutani PT Persero,"HJPC+F3M, Jl. Panembahan, Malinau Kota, Kec. Malinau Kota, Kabupaten Malinau, Kalimantan Utara 77554","Jl. Panembahan, Malinau Kota, Kec. Malinau Kota, Kabupaten Malinau",KALIMANTAN UTARA,77554.0,Indonesia,55321115.0,,,3.5862177,116.6201853,https://maps.google.com/?cid=0x0:0xc77cd90a207de541,
toko bangunan,Toko Perlengkapan Rumah,Toko HOOLA,"HJVG+4WJ, Malinau Kota, Kec. Malinau Kota, Kabupaten Malinau, Kalimantan Utara 77554","Malinau Kota, Kec. Malinau Kota, Kabupaten Malinau",KALIMANTAN UTARA,77554.0,Indonesia,85169995912.0,,,3.5928379,116.6272755,https://maps.google.com/?cid=0x0:0xf6b7478d4d7c7816,
toko bangunan,Grosir sayur,Toko sinar indah malinau seberang,"JJ4G+V8Q, Malinau Seberang, Kec. Malinau Utara, Kabupaten Malinau, Kalimantan Utara 77554","Malinau Seberang, Kec. Malinau Utara, Kabupaten Malinau",KALIMANTAN UTARA,77554.0,Indonesia,,,,3.6072064,116.6258551,https://maps.google.com/?cid=0x0:0xd896d8dc7f3388b,
toko bangunan,Toko Bahan Bangunan,T.B Berkat Jaya,"GGG8+R57, Pulau Sapi, Kec. Mentarang, Kabupaten Malinau, Kalimantan Utara 77554","Pulau Sapi, Kec. Mentarang, Kabupaten Malinau",KALIMANTAN UTARA,77554.0,Indonesia,8161999912.0,,,3.5270288,116.5154093,https://maps.google.com/?cid=0x0:0x4f9de76d4268b507,
toko bangunan,Toko Bahan Bangunan,Toko Pasti Jaya,"HJP9+JW4, Jl. Panembahan, Malinau Kota, Kec. Malinau Kota, Kabupaten Malinau, Kalimantan Utara 77554","Jl. Panembahan, Malinau Kota, Kec. Malinau Kota, Kabupaten Malinau",KALIMANTAN UTARA,77554.0,Indonesia,,,,3.586524,116.6198331,https://maps.google.com/?cid=0x0:0xbca0f3eb532e2417,
toko bangunan,Toko Bahan Bangunan,Toko Yogo Jaya,"Jl. Gor, Malinau Kota, Kec. Malinau Kota, Kabupaten Malinau, Kalimantan Utara 77554","Malinau Kota, Kec. Malinau Kota, Kabupaten Malinau",KALIMANTAN UTARA,77554.0,Indonesia,82252593837.0,,,3.5732936,116.6231231,https://maps.google.com/?cid=0x0:0xff542ae23a37aa7c,
toko bangunan,Toko Perlengkapan Rumah,PLAFON PVC MALINAU (PLAFONESIA),"Jl. AMD, RT.20/RW.NO 65, Malinau Kota, Kec. Malinau Kota, Kabupaten Malinau, Kalimantan Utara 77554","RT.20/RW.NO 65, Malinau Kota, Kec. Malinau Kota, Kabupaten Malinau",KALIMANTAN UTARA,77554.0,Indonesia,8115333347.0,,,3.5891279,116.6441285,https://maps.google.com/?cid=0x0:0x3ad64f2ded05694a,
toko bangunan,Kantor Perusahaan,Dan Rental Mobil 4x4,"HJ64+CVM, Malinau Hulu, Kec. Malinau Kota, Kabupaten Malinau, Kalimantan Utara 77554","Malinau Hulu, Kec. Malinau Kota, Kabupaten Malinau",KALIMANTAN UTARA,77554.0,Indonesia,81348598889.0,,,3.5610903,116.6071612,https://maps.google.com/?cid=0x0:0x94493a0bf917e85d,
toko bangunan,toko bangunan,Kalimantan Utara 77555,"Kabupaten Malinau, Kalimantan Utara","Kabupaten Malinau, Kalimantan Utara",KALIMANTAN UTARA,,Indonesia,,,,3.4347306,116.1359431,https://maps.google.com/?cid=0x0:0xfbf6305152defd8,
toko bangunan,Toko Bahan Bangunan,Toko 88 bahan bangunan,"Malinau Kota, Kec. Malinau Kota, Kabupaten Malinau, Kalimantan Utara 77554","Kec. Malinau Kota, Kabupaten Malinau",KALIMANTAN UTARA,77554.0,Indonesia,83833052031.0,,,3.5837482,116.6245706,https://maps.google.com/?cid=0x0:0x995ee965ba072027,
toko bangunan,Toko Bahan Bangunan,T.B Berkat Jaya,"GGG8+R57, Pulau Sapi, Kec. Mentarang, Kabupaten Malinau, Kalimantan Utara 77554","Pulau Sapi, Kec. Mentarang, Kabupaten Malinau",KALIMANTAN UTARA,77554.0,Indonesia,8161999912.0,,,3.5270288,116.5154093,https://maps.google.com/?cid=0x0:0x4f9de76d4268b507,
toko bangunan,Toko Bahan Bangunan,Pelangi Jaya Toko Bangunan,"HJF3+MX9, Malinau Hulu, Kec. Malinau Kota, Kabupaten Malinau, Kalimantan Utara 77554","Malinau Hulu, Kec. Malinau Kota, Kabupaten Malinau",KALIMANTAN UTARA,77554.0,Indonesia,85169995912.0,,,3.5741683,116.6049787,https://maps.google.com/?cid=0x0:0xc4b9090c68b73393,
toko bangunan,Toko Bahan Bangunan,Tb.Tunas Jaya,"HJF5+RV9, Jl. Raja Pandita, Pelita Kanaan, Kec. Malinau Kota, Kabupaten Malinau, Kalimantan Utara 77554","Jl. Raja Pandita, Pelita Kanaan, Kec. Malinau Kota, Kabupaten Malinau",KALIMANTAN UTARA,77554.0,Indonesia,85169995912.0,,,3.5745336,116.6097442,https://maps.google.com/?cid=0x0:0x9df0f4d85fe85645,
toko bangunan,Toko Bahan Bangunan,Toko Abadi Jaya,"Jl. Panembahan No.3, RT.3, Malinau Kota, Kec. Malinau Kota, Kabupaten Malinau, Kalimantan Utara 77554","RT.3, Malinau Kota, Kec. Malinau Kota, Kabupaten Malinau",KALIMANTAN UTARA,77554.0,Indonesia,85169995912.0,,,3.5921656,116.6259137,https://maps.google.com/?cid=0x0:0xe025ea1ba7944119,
toko bangunan,Toko bahan makanan,Toko Sumber S,"Malinau Kota, Kec. Malinau Kota, Kabupaten Malinau, Kalimantan Utara 77554","Kec. Malinau Kota, Kabupaten Malinau",KALIMANTAN UTARA,77554.0,Indonesia,82133899888.0,,,3.5722528,116.6053257,https://maps.google.com/?cid=0x0:0x3b0b7705dd4df1de,
toko bangunan,toko bangunan,Azzahrah bata,"Kilo6 arah polda kaltara sebelum warung kelapa, Long Nyau, Sungai Tubu, Kabupaten Malinau, Kalimantan Utara","Kabupaten Malinau, Kalimantan Utara",KALIMANTAN UTARA,,Indonesia,,,,3.0730929,116.0413889,https://maps.google.com/?cid=0x0:0x2ba54ec86255c3cf,
toko bangunan,toko bangunan,"Galveston, Texas 77555","Galveston, Texas, Amerika Serikat","Galveston, Texas, Amerika Serikat",KALIMANTAN UTARA,,Indonesia,,,,29.3106102,-94.7772493,https://maps.google.com/?cid=0x0:0x357d9bc1853626e7,
toko bangunan,toko bangunan,Best Western Plus Seawall Inn  Suites by the Beach,"102 Seawall Blvd, Galveston, TX 77550, Amerika Serikat","Galveston, TX",KALIMANTAN UTARA,77550.0,Indonesia,14097667070.0,,,29.3111696,-94.7679046,https://maps.google.com/?cid=0x0:0xa532b4798b5a2df6,
toko bangunan,toko bangunan,Kalimantan Utara 77155,"Mentarang Hulu, Kabupaten Malinau, Kalimantan Utara","Kabupaten Malinau, Kalimantan Utara",KALIMANTAN UTARA,,Indonesia,,,,3.9141052,116.0886704,https://maps.google.com/?cid=0x0:0x74209607fa10efaf,
toko bangunan,Toko Bahan Bangunan,Toko 88 bahan bangunan,"Malinau Kota, Kec. Malinau Kota, Kabupaten Malinau, Kalimantan Utara 77554","Kec. Malinau Kota, Kabupaten Malinau",KALIMANTAN UTARA,77554.0,Indonesia,83833052031.0,,,3.5837482,116.6245706,https://maps.google.com/?cid=0x0:0x995ee965ba072027,
toko bangunan,Toko Bahan Bangunan,Pelangi Jaya Toko Bangunan,"HJF3+MX9, Malinau Hulu, Kec. Malinau Kota, Kabupaten Malinau, Kalimantan Utara 77554","Malinau Hulu, Kec. Malinau Kota, Kabupaten Malinau",KALIMANTAN UTARA,77554.0,Indonesia,85169995912.0,,,3.5741683,116.6049787,https://maps.google.com/?cid=0x0:0xc4b9090c68b73393,
toko bangunan,Toko Bahan Bangunan,Toko Mitra Jaya Bangunan,"HJG9+X3C Bandara RA Besing, Malinau Kota, Kec. Malinau Kota, Kabupaten Malinau, Kalimantan Utara 77554","Malinau Kota, Kec. Malinau Kota, Kabupaten Malinau",KALIMANTAN UTARA,77554.0,Indonesia,85169995912.0,,,3.5774367,116.617652,https://maps.google.com/?cid=0x0:0xea81baa680d48aa2,
toko bangunan,Toko Bahan Bangunan,Tb.Tunas Jaya,"HJF5+RV9, Jl. Raja Pandita, Pelita Kanaan, Kec. Malinau Kota, Kabupaten Malinau, Kalimantan Utara 77554","Jl. Raja Pandita, Pelita Kanaan, Kec. Malinau Kota, Kabupaten Malinau",KALIMANTAN UTARA,77554.0,Indonesia,85169995912.0,,,3.5745336,116.6097442,https://maps.google.com/?cid=0x0:0x9df0f4d85fe85645,
toko bangunan,toko bangunan,Azzahrah bata,"Kilo6 arah polda kaltara sebelum warung kelapa, Long Nyau, Sungai Tubu, Kabupaten Malinau, Kalimantan Utara","Kabupaten Malinau, Kalimantan Utara",KALIMANTAN UTARA,,Indonesia,,,,3.0730929,116.0413889,https://maps.google.com/?cid=0x0:0x2ba54ec86255c3cf,
toko bangunan,toko bangunan,Kalimantan Utara 77562,"Kabupaten Malinau, Kalimantan Utara","Kabupaten Malinau, Kalimantan Utara",KALIMANTAN UTARA,,Indonesia,,,,2.8627612,115.7575196,https://maps.google.com/?cid=0x0:0xfc58e4f0b107466e,
toko bangunan,Toko Bahan Bangunan,Toko Bangunan Sinar Mulya,"Pujungan, Kec. Pupuan, Kabupaten Tabanan, Bali 82163","Kec. Pupuan, Kabupaten Tabanan",KALIMANTAN UTARA,82163.0,Indonesia,81231645392.0,,,-8.3297636,115.0323279,https://maps.google.com/?cid=0x0:0xe4336c17192538fe,
toko bangunan,Toko Bahan Bangunan,SEDANA BANGUNAN,"MXPR+2M3, Jl. Pekutatan, Bantiran, Kec. Pupuan, Kabupaten Tabanan, Bali 82163","Jl. Pekutatan, Bantiran, Kec. Pupuan, Kabupaten Tabanan",KALIMANTAN UTARA,82163.0,Indonesia,87762922305.0,,,-8.3149975,114.991679,https://maps.google.com/?cid=0x0:0x883aa50626e1f0d8,
toko bangunan,Toko Bahan Bangunan,Toko 88 bahan bangunan,"Malinau Kota, Kec. Malinau Kota, Kabupaten Malinau, Kalimantan Utara 77554","Kec. Malinau Kota, Kabupaten Malinau",KALIMANTAN UTARA,77554.0,Indonesia,83833052031.0,,,3.5837482,116.6245706,https://maps.google.com/?cid=0x0:0x995ee965ba072027,
toko bangunan,Toko Bahan Bangunan,Toko Makmur Jaya,"Jl. Panembahan No.RT.07 No.14, Malinau Kota, Kec. Malinau Kota, Kabupaten Malinau, Kalimantan Utara 77554","Malinau Kota, Kec. Malinau Kota, Kabupaten Malinau",KALIMANTAN UTARA,77554.0,Indonesia,85169995912.0,,,3.5894549,116.6227126,https://maps.google.com/?cid=0x0:0xec9717eadaeb8588,
toko bangunan,Toko Bahan Bangunan,Toko Mitra Jaya Bangunan,"HJG9+X3C Bandara RA Besing, Malinau Kota, Kec. Malinau Kota, Kabupaten Malinau, Kalimantan Utara 77554","Malinau Kota, Kec. Malinau Kota, Kabupaten Malinau",KALIMANTAN UTARA,77554.0,Indonesia,85169995912.0,,,3.5774367,116.617652,https://maps.google.com/?cid=0x0:0xea81baa680d48aa2,
toko bangunan,toko bangunan,Kalimantan Utara 77555,"Kabupaten Malinau, Kalimantan Utara","Kabupaten Malinau, Kalimantan Utara",KALIMANTAN UTARA,,Indonesia,,,,3.4347306,116.1359431,https://maps.google.com/?cid=0x0:0xfbf6305152defd8,
toko bangunan,Toko Bahan Bangunan,Toko 88 bahan bangunan,"Malinau Kota, Kec. Malinau Kota, Kabupaten Malinau, Kalimantan Utara 77554","Kec. Malinau Kota, Kabupaten Malinau",KALIMANTAN UTARA,77554.0,Indonesia,83833052031.0,,,3.5837482,116.6245706,https://maps.google.com/?cid=0x0:0x995ee965ba072027,
toko bangunan,Toko Bahan Bangunan,Tb.Tunas Jaya,"HJF5+RV9, Jl. Raja Pandita, Pelita Kanaan, Kec. Malinau Kota, Kabupaten Malinau, Kalimantan Utara 77554","Jl. Raja Pandita, Pelita Kanaan, Kec. Malinau Kota, Kabupaten Malinau",KALIMANTAN UTARA,77554.0,Indonesia,85169995912.0,,,3.5745336,116.6097442,https://maps.google.com/?cid=0x0:0x9df0f4d85fe85645,
toko bangunan,Toko Bahan Bangunan,Toko Mitra Jaya Bangunan,"HJG9+X3C Bandara RA Besing, Malinau Kota, Kec. Malinau Kota, Kabupaten Malinau, Kalimantan Utara 77554","Malinau Kota, Kec. Malinau Kota, Kabupaten Malinau",KALIMANTAN UTARA,77554.0,Indonesia,85169995912.0,,,3.5774367,116.617652,https://maps.google.com/?cid=0x0:0xea81baa680d48aa2,
toko bangunan,Toko Bahan Bangunan,Toko Cahaya Mulia Teknik,"HJ35+VG6, Malinau Hulu, Kec. Malinau Kota, Kabupaten Malinau, Kalimantan Utara 77554","Malinau Hulu, Kec. Malinau Kota, Kabupaten Malinau",KALIMANTAN UTARA,77554.0,Indonesia,83114785308.0,,,3.5546521,116.608772,https://maps.google.com/?cid=0x0:0xc27cc09e2878cb2d,
toko bangunan,toko bangunan,Azzahrah bata,"Kilo6 arah polda kaltara sebelum warung kelapa, Long Nyau, Sungai Tubu, Kabupaten Malinau, Kalimantan Utara","Kabupaten Malinau, Kalimantan Utara",KALIMANTAN UTARA,,Indonesia,,,,3.0730929,116.0413889,https://maps.google.com/?cid=0x0:0x2ba54ec86255c3cf,
toko bangunan,Toko Bahan Bangunan,Toko Abadi Jaya,"Jl. Panembahan No.3, RT.3, Malinau Kota, Kec. Malinau Kota, Kabupaten Malinau, Kalimantan Utara 77554","RT.3, Malinau Kota, Kec. Malinau Kota, Kabupaten Malinau",KALIMANTAN UTARA,77554.0,Indonesia,85169995912.0,,,3.5921656,116.6259137,https://maps.google.com/?cid=0x0:0xe025ea1ba7944119,
toko bangunan,Toko Bahan Bangunan,Toko bangunan Sinar Bugis,"Jalan laning, muara, Mansapa, Nunukan Sel., Kabupaten Nunukan, Kalimantan Utara 77482","muara, Mansapa, Nunukan Sel., Kabupaten Nunukan",KALIMANTAN UTARA,77482.0,Indonesia,818390267.0,,,4.0656577,117.7398807,https://maps.google.com/?cid=0x0:0xea1bae64c137bed2,
toko bangunan,Toko Bahan Bangunan,Toko Pasti Jaya,"HJP9+JW4, Jl. Panembahan, Malinau Kota, Kec. Malinau Kota, Kabupaten Malinau, Kalimantan Utara 77554","Jl. Panembahan, Malinau Kota, Kec. Malinau Kota, Kabupaten Malinau",KALIMANTAN UTARA,77554.0,Indonesia,,,,3.586524,116.6198331,https://maps.google.com/?cid=0x0:0xbca0f3eb532e2417,
toko bangunan,Toko Bahan Bangunan,Toko Tempayan Tunas Jaya Sungai Tubu,"HJX6+Q8F, Malinau - Long Semamu, Respen Tubu, Kec. Malinau Utara, Kabupaten Malinau, Kalimantan Utara 77554","Malinau - Long Semamu, Respen Tubu, Kec. Malinau Utara, Kabupaten Malinau",KALIMANTAN UTARA,77554.0,Indonesia,,,,3.599432,116.610787,https://maps.google.com/?cid=0x0:0xf47dc1cd8d9657b3,
hardware store,hardware store,Bahau Hulu,"Kabupaten Malinau, Kalimantan Utara","Kabupaten Malinau, Kalimantan Utara",KALIMANTAN UTARA,,Indonesia,,,,3.1532957,115.7575196,https://maps.google.com/?cid=0x0:0x196db92d2523facb,
hardware store,Toko Bahan Bangunan,Hing Seng (Bahau) Hardware Trading Sdn. Bhd.,"No. 3, Taman Ria, Jalan Rompin, 72100 Bahau, Negeri Sembilan, Malaysia",Bahau,KALIMANTAN UTARA,72100.0,Indonesia,6064541161.0,,,2.8070574,102.4085172,https://maps.google.com/?cid=0x0:0x8c18796dafb522f8,
hardware store,Toko Bahan Bangunan,Kok Yeos Hardware Trading,"72100 Bahau, Negeri Sembilan, Malaysia",Bahau,KALIMANTAN UTARA,72100.0,Indonesia,6064546626.0,,,2.8082426,102.3871352,https://maps.google.com/?cid=0x0:0x221c1999883fdc24,
hardware store,hardware store,HINO PARTS SHOP BENGKEL 99,"Jl. Wolter Monginsidi Rt.vi No. 16 Malinau, Long Pipa, Kayan Hilir, Malinau Regency, North Kalimantan 77571","Long Pipa, Kayan Hilir, Malinau Regency",KALIMANTAN UTARA,77571.0,Indonesia,5427205785.0,,,2.0788216,115.4733554,https://maps.google.com/?cid=0x0:0x24af2fc6cee16ec4,
hardware store,Toko Bahan Bangunan,Jin Sa Hardware Sdn Bhd,"Kampung Jaya Baru, 90200 Kinabatangan, Sabah, Malaysia",Kinabatangan,KALIMANTAN UTARA,90200.0,Indonesia,6089561233.0,,,5.5796013,117.8627356,https://maps.google.com/?cid=0x0:0x1b08e3fd98054ef3,
hardware store,Toko Bahan Bangunan,Kim Hing Hardware  Timber Trading,"Kampung Lot M, 90000 Kinabatangan, Sabah, Malaysia",Kinabatangan,KALIMANTAN UTARA,90000.0,Indonesia,6089562633.0,,,5.5998393,117.8255895,https://maps.google.com/?cid=0x0:0xadd8db9ae8787cc1,
hardware store,hardware store,HINO PARTS SHOP BENGKEL 99,"Jl. Wolter Monginsidi Rt.vi No. 16 Malinau, Long Pipa, Kayan Hilir, Malinau Regency, North Kalimantan 77571","Long Pipa, Kayan Hilir, Malinau Regency",KALIMANTAN UTARA,77571.0,Indonesia,5427205785.0,,,2.0788216,115.4733554,https://maps.google.com/?cid=0x0:0x24af2fc6cee16ec4,
hardware store,Perusahaan elektronik,Bintang Borneo Electronik,"HJVG+3Q2, Malinau Kota, Kec. Malinau Kota, Kabupaten Malinau, Kalimantan Utara 77554","Malinau Kota, Kec. Malinau Kota, Kabupaten Malinau",KALIMANTAN UTARA,77554.0,Indonesia,83896432748.0,,,3.5926481,116.6269014,https://maps.google.com/?cid=0x0:0x73932860d1d70a05,
hardware store,Toko Elektronik,Toko Bintang Timur Electronik,"Jl. Raja Pandita No.RT. 12, Malinau Hulu, Kec. Malinau Kota, Kabupaten Malinau, Kalimantan Utara 77554","Malinau Hulu, Kec. Malinau Kota, Kabupaten Malinau",KALIMANTAN UTARA,77554.0,Indonesia,85247269111.0,,,3.5755299,116.6074202,https://maps.google.com/?cid=0x0:0x8482e4fca3119638,
hardware store,Toko Bahan Bangunan,Pasir SLH,"VWQG+2Q6, Nanga Mau, Kec. Kayan Hilir, Kabupaten Sintang, Kalimantan Barat 78693","Nanga Mau, Kec. Kayan Hilir, Kabupaten Sintang",KALIMANTAN UTARA,78693.0,Indonesia,,,,-0.1118668,111.9277168,https://maps.google.com/?cid=0x0:0xf3e51773ee403e6a,
hardware store,hardware store,Kalimantan Utara 77572,"Kabupaten Malinau, Kalimantan Utara","Kabupaten Malinau, Kalimantan Utara",KALIMANTAN UTARA,,Indonesia,,,,1.7685873,114.8567482,https://maps.google.com/?cid=0x0:0xc91e33de5fc1b909,
hardware store,hardware store,Kec. Kayan Hulu,"Kabupaten Sintang, Kalimantan Barat","Kabupaten Sintang, Kalimantan Barat",KALIMANTAN UTARA,,Indonesia,,,,-0.0690749,112.3337769,https://maps.google.com/?cid=0x0:0x7fc8301ffc8f1190,
hardware store,hardware store,Kec. Kayan Hulu,"Kabupaten Malinau, Kalimantan Utara","Kabupaten Malinau, Kalimantan Utara",KALIMANTAN UTARA,,Indonesia,,,,1.7772932,115.0183619,https://maps.google.com/?cid=0x0:0x9aac24f2a499af17,
hardware store,hardware store,Kalimantan Barat 78694,"Kec. Kayan Hulu, Kabupaten Sintang, Kalimantan Barat","Kabupaten Sintang, Kalimantan Barat",KALIMANTAN UTARA,,Indonesia,,,,-0.0690749,112.3337769,https://maps.google.com/?cid=0x0:0xf1565987c85b5ec9,
hardware store,hardware store,Kec. Kayan Hulu,"Kabupaten Malinau, Kalimantan Utara","Kabupaten Malinau, Kalimantan Utara",KALIMANTAN UTARA,,Indonesia,,,,1.7772932,115.0183619,https://maps.google.com/?cid=0x0:0x9aac24f2a499af17,
hardware store,hardware store,Kalimantan Utara,,Kalimantan Utara,KALIMANTAN UTARA,,Indonesia,,,,3.0730929,116.0413889,https://maps.google.com/?cid=0x0:0x1911f0dd6846b988,
hardware store,hardware store,Kalimantan Timur 77573,"Kabupaten Malinau, Kalimantan Timur","Kabupaten Malinau, Kalimantan Timur",KALIMANTAN UTARA,,Indonesia,,,,1.4464714,115.188916,https://maps.google.com/?cid=0x0:0x791588811899f0cb,
hardware store,hardware store,Kayan Sel.,"Kabupaten Malinau, Kalimantan Utara","Kabupaten Malinau, Kalimantan Utara",KALIMANTAN UTARA,,Indonesia,,,,1.5896563,114.9991464,https://maps.google.com/?cid=0x0:0xef1235acac1a8225,
hardware store,hardware store,Kec. Malinau Bar.,"Kabupaten Malinau, Kalimantan Utara","Kabupaten Malinau, Kalimantan Utara",KALIMANTAN UTARA,,Indonesia,,,,3.5374774,116.612704,https://maps.google.com/?cid=0x0:0xcb2568b300b5bd79,
hardware store,Pusat Perbelanjaan,MR.DIY,"Jl. Raja Pandita No. 047, RT.01 Teluk Sanggan, Malinau Hulu, Malinau Kota, Malinau Regency, North Kalimantan 77554","RT.01 Teluk Sanggan, Malinau Hulu, Malinau Kota, Malinau Regency",KALIMANTAN UTARA,77554.0,Indonesia,,,,3.548345,116.612551,https://maps.google.com/?cid=0x0:0x4d9b0205d6605d7b,
hardware store,Toko Bahan Bangunan,T.B Berkat Jaya,"GGG8+R57, Pulau Sapi, Kec. Mentarang, Kabupaten Malinau, Kalimantan Utara 77554","Pulau Sapi, Kec. Mentarang, Kabupaten Malinau",KALIMANTAN UTARA,77554.0,Indonesia,8161999912.0,,,3.5270288,116.5154093,https://maps.google.com/?cid=0x0:0x4f9de76d4268b507,
hardware store,Toko Bahan Bangunan,Toko Besi Holly Jaya Steel,"HJFF+FFP, Jl. Ahmad Yani, Malinau Kota, Kec. Malinau Kota, Kabupaten Malinau, Kalimantan Utara 77554","Jl. Ahmad Yani, Malinau Kota, Kec. Malinau Kota, Kabupaten Malinau",KALIMANTAN UTARA,77554.0,Indonesia,87737401068.0,,,3.5737008,116.6237132,https://maps.google.com/?cid=0x0:0xa905cbb1f62d9edd,
hardware store,Toko Bahan Bangunan,Toko Makmur Jaya,"Jl. Panembahan No.RT.07 No.14, Malinau Kota, Kec. Malinau Kota, Kabupaten Malinau, Kalimantan Utara 77554","Malinau Kota, Kec. Malinau Kota, Kabupaten Malinau",KALIMANTAN UTARA,77554.0,Indonesia,85169995912.0,,,3.5894549,116.6227126,https://maps.google.com/?cid=0x0:0xec9717eadaeb8588,
hardware store,Toko Bahan Bangunan,Pelangi Jaya Toko Bangunan,"HJF3+MX9, Malinau Hulu, Kec. Malinau Kota, Kabupaten Malinau, Kalimantan Utara 77554","Malinau Hulu, Kec. Malinau Kota, Kabupaten Malinau",KALIMANTAN UTARA,77554.0,Indonesia,85169995912.0,,,3.5741683,116.6049787,https://maps.google.com/?cid=0x0:0xc4b9090c68b73393,
hardware store,Toko,Toko Sumber Jaya,"Jl. Panembahan, Malinau Kota, Kec. Malinau Kota, Kabupaten Malinau, Kalimantan Utara 77554","Malinau Kota, Kec. Malinau Kota, Kabupaten Malinau",KALIMANTAN UTARA,77554.0,Indonesia,,,,3.5924814,116.6266724,https://maps.google.com/?cid=0x0:0x517097fc139570d4,
hardware store,Toko Alat Tulis Kantor,Toko Sinar Kawijaya,"HJ94+GWM, Malinau Hulu, Kec. Malinau Kota, Kabupaten Malinau, Kalimantan Utara 77554","Malinau Hulu, Kec. Malinau Kota, Kabupaten Malinau",KALIMANTAN UTARA,77554.0,Indonesia,811531818.0,,,3.5688421,116.6072968,https://maps.google.com/?cid=0x0:0x880b9f511a28e698,
hardware store,Toko Bahan Bangunan,Tb.Tunas Jaya,"HJF5+RV9, Jl. Raja Pandita, Pelita Kanaan, Kec. Malinau Kota, Kabupaten Malinau, Kalimantan Utara 77554","Jl. Raja Pandita, Pelita Kanaan, Kec. Malinau Kota, Kabupaten Malinau",KALIMANTAN UTARA,77554.0,Indonesia,85169995912.0,,,3.5745336,116.6097442,https://maps.google.com/?cid=0x0:0x9df0f4d85fe85645,
hardware store,Toko Bahan Bangunan,Toko Yogo Jaya,"Jl. Gor, Malinau Kota, Kec. Malinau Kota, Kabupaten Malinau, Kalimantan Utara 77554","Malinau Kota, Kec. Malinau Kota, Kabupaten Malinau",KALIMANTAN UTARA,77554.0,Indonesia,82252593837.0,,,3.5732936,116.6231231,https://maps.google.com/?cid=0x0:0xff542ae23a37aa7c,
hardware store,Toko Alat Tulis Kantor,Toko AGATHA,"Unnamed Road, Malinau Hulu, Kec. Malinau Kota, Kabupaten Malinau, Kalimantan Utara 77554","Malinau Hulu, Kec. Malinau Kota, Kabupaten Malinau",KALIMANTAN UTARA,77554.0,Indonesia,82155442334.0,,,3.5727953,116.6054335,https://maps.google.com/?cid=0x0:0x7bcd00b798614944,
hardware store,Toko Suku Cadang Mobil,Toko Muria Jaya Teknik,"HJMG+9VF, Malinau Kota, Kec. Malinau Kota, Kabupaten Malinau, Kalimantan Utara 77554","Malinau Kota, Kec. Malinau Kota, Kabupaten Malinau",KALIMANTAN UTARA,77554.0,Indonesia,55321659.0,,,3.583429,116.6271654,https://maps.google.com/?cid=0x0:0xb20de50d976930c9,
hardware store,Toko Elektronik,Toko Bintang Timur Electronik,"Jl. Raja Pandita No.RT. 12, Malinau Hulu, Kec. Malinau Kota, Kabupaten Malinau, Kalimantan Utara 77554","Malinau Hulu, Kec. Malinau Kota, Kabupaten Malinau",KALIMANTAN UTARA,77554.0,Indonesia,85247269111.0,,,3.5755299,116.6074202,https://maps.google.com/?cid=0x0:0x8482e4fca3119638,
hardware store,Toko,Toko Aneka Jaya,"HJRG+H36, Malinau Kota, Kec. Malinau Kota, Kabupaten Malinau, Kalimantan Utara 77554","Malinau Kota, Kec. Malinau Kota, Kabupaten Malinau",KALIMANTAN UTARA,77554.0,Indonesia,,,,3.591418,116.6251379,https://maps.google.com/?cid=0x0:0x2ccff47a2be8763,
hardware store,Toko Elektronik,TOKO JAYA ELEKTRONIK,"Malinau Kota, Kec. Malinau Kota, Kabupaten Malinau, Kalimantan Utara 77554","Kec. Malinau Kota, Kabupaten Malinau",KALIMANTAN UTARA,77554.0,Indonesia,81374135806.0,,,3.5802013,116.6210033,https://maps.google.com/?cid=0x0:0xd52a2bf8cc0346cc,
hardware store,Toko Aksesori Mobil,Wijaya teknik,"Jl. Raja Alam, Malinau Kota, Kec. Malinau Kota, Kabupaten Malinau, Kalimantan Utara 77554","Malinau Kota, Kec. Malinau Kota, Kabupaten Malinau",KALIMANTAN UTARA,77554.0,Indonesia,,,,3.5789085,116.6327086,https://maps.google.com/?cid=0x0:0x3638f2e6b5b85b97,
hardware store,Toko Alat Tulis Kantor,Sappo ATK  PRINT,"Jl. Raja Pandita, RT.08, Malinau Hulu, Kec. Malinau Kota, Kabupaten Malinau, Kalimantan Utara 77554","RT.08, Malinau Hulu, Kec. Malinau Kota, Kabupaten Malinau",KALIMANTAN UTARA,77554.0,Indonesia,81268631994.0,,,3.5682322,116.6044444,https://maps.google.com/?cid=0x0:0xec3f7a0e45a2ea43,
hardware store,Toko bahan makanan,Pasar Inai Desa Kuala Lapang,"GJQ5+9MQ Bar, Kuala Lapang, Kec. Malinau Bar., Kabupaten Malinau, Kalimantan Utara 77554","Kuala Lapang, Kec. Malinau Bar., Kabupaten Malinau",KALIMANTAN UTARA,77554.0,Indonesia,,,,3.538472,116.6092291,https://maps.google.com/?cid=0x0:0x2b0b1bc94204f662,
hardware store,Perusahaan elektronik,Bintang Borneo Electronik,"HJVG+3Q2, Malinau Kota, Kec. Malinau Kota, Kabupaten Malinau, Kalimantan Utara 77554","Malinau Kota, Kec. Malinau Kota, Kabupaten Malinau",KALIMANTAN UTARA,77554.0,Indonesia,83896432748.0,,,3.5926481,116.6269014,https://maps.google.com/?cid=0x0:0x73932860d1d70a05,
hardware store,Pasar Grosir Sayur,Galeri Hidroponik malinau,"HJMP+MHG, Jl. Swadaya, Malinau Kota, Kec. Malinau Kota, Kabupaten Malinau, Kalimantan Utara 77554","Jl. Swadaya, Malinau Kota, Kec. Malinau Kota, Kabupaten Malinau",KALIMANTAN UTARA,77554.0,Indonesia,8125407851.0,,,3.5841852,116.6364385,https://maps.google.com/?cid=0x0:0x4ffcc3eab15b90c1,
hardware store,Toko Bahan Bangunan,Toko 88 bahan bangunan,"Malinau Kota, Kec. Malinau Kota, Kabupaten Malinau, Kalimantan Utara 77554","Kec. Malinau Kota, Kabupaten Malinau",KALIMANTAN UTARA,77554.0,Indonesia,83833052031.0,,,3.5837482,116.6245706,https://maps.google.com/?cid=0x0:0x995ee965ba072027,
hardware store,Toko Elektronik,TOKO ANYSHA CELL  ELEKTRONIK 2,"Oppo, JL. Raja Pandhita RT 1, Malinau Hulu, Teluk Sanggan, Kec. Malinau Kota, Kabupaten Malinau, Kalimantan Utara 77554","JL. Raja Pandhita RT 1, Malinau Hulu, Teluk Sanggan, Kec. Malinau Kota, Kabupaten Malinau",KALIMANTAN UTARA,77554.0,Indonesia,82184918373.0,,,3.5465205,116.6121604,https://maps.google.com/?cid=0x0:0xb98313367a4e907f,
hardware store,Toko Bahan Bangunan,Toko Abadi Jaya,"Jl. Panembahan No.3, RT.3, Malinau Kota, Kec. Malinau Kota, Kabupaten Malinau, Kalimantan Utara 77554","RT.3, Malinau Kota, Kec. Malinau Kota, Kabupaten Malinau",KALIMANTAN UTARA,77554.0,Indonesia,85169995912.0,,,3.5921656,116.6259137,https://maps.google.com/?cid=0x0:0xe025ea1ba7944119,
hardware store,Toko Perbaikan Ponsel,Vien Shop,"Malinau Hilir, Kec. Malinau Kota, Kabupaten Malinau, Kalimantan Utara","Kabupaten Malinau, Kalimantan Utara",KALIMANTAN UTARA,,Indonesia,,,,3.5888125,116.6568125,https://maps.google.com/?cid=0x0:0x53b35a7949167f4b,
hardware store,Toko,BILL PHONE MALINAU,"Jl raja alam, Rt14, simpang 4 terminal No No.RT.4, Malinau Kota, Kec. Malinau Kota, Kabupaten Malinau, Kalimantan Utara 77554","Rt14, simpang 4 terminal No No.RT.4, Malinau Kota, Kec. Malinau Kota, Kabupaten Malinau",KALIMANTAN UTARA,77554.0,Indonesia,82184918373.0,,,3.5856399,116.6253407,https://maps.google.com/?cid=0x0:0xcc49a45131fbec72,
hardware store,Toko umum,TOKO TIAR.COM,"Jl. Pusat Perkantoran No.111, RT.09, Malinau Hulu, Kec. Malinau Kota, Kabupaten Malinau, Kalimantan Utara 77554","RT.09, Malinau Hulu, Kec. Malinau Kota, Kabupaten Malinau",KALIMANTAN UTARA,77554.0,Indonesia,85215244471.0,,,3.5684848,116.6079386,https://maps.google.com/?cid=0x0:0x1a952fea03df99ac,
hardware store,hardware store,Malinau,"Malinau Kota, Kec. Malinau Kota, Kabupaten Malinau, Kalimantan Timur","Kabupaten Malinau, Kalimantan Timur",KALIMANTAN UTARA,,Indonesia,,,,3.584221,116.647797,https://maps.google.com/?cid=0x0:0xa317c514e5ce8a42,
hardware store,Toko Elektronik,Toko Bintang Timur Electronik,"Jl. Raja Pandita No.RT. 12, Malinau Hulu, Kec. Malinau Kota, Kabupaten Malinau, Kalimantan Utara 77554","Malinau Hulu, Kec. Malinau Kota, Kabupaten Malinau",KALIMANTAN UTARA,77554.0,Indonesia,85247269111.0,,,3.5755299,116.6074202,https://maps.google.com/?cid=0x0:0x8482e4fca3119638,
hardware store,Toko Elektronik,TOKO JAYA ELEKTRONIK,"Malinau Kota, Kec. Malinau Kota, Kabupaten Malinau, Kalimantan Utara 77554","Kec. Malinau Kota, Kabupaten Malinau",KALIMANTAN UTARA,77554.0,Indonesia,81374135806.0,,,3.5802013,116.6210033,https://maps.google.com/?cid=0x0:0xd52a2bf8cc0346cc,
hardware store,Toko Bahan Bangunan,Toko Abadi Jaya,"Jl. Panembahan No.3, RT.3, Malinau Kota, Kec. Malinau Kota, Kabupaten Malinau, Kalimantan Utara 77554","RT.3, Malinau Kota, Kec. Malinau Kota, Kabupaten Malinau",KALIMANTAN UTARA,77554.0,Indonesia,85169995912.0,,,3.5921656,116.6259137,https://maps.google.com/?cid=0x0:0xe025ea1ba7944119,
hardware store,Perusahaan elektronik,Bintang Borneo Electronik,"HJVG+3Q2, Malinau Kota, Kec. Malinau Kota, Kabupaten Malinau, Kalimantan Utara 77554","Malinau Kota, Kec. Malinau Kota, Kabupaten Malinau",KALIMANTAN UTARA,77554.0,Indonesia,83896432748.0,,,3.5926481,116.6269014,https://maps.google.com/?cid=0x0:0x73932860d1d70a05,
hardware store,Toko,BILL PHONE MALINAU,"Jl raja alam, Rt14, simpang 4 terminal No No.RT.4, Malinau Kota, Kec. Malinau Kota, Kabupaten Malinau, Kalimantan Utara 77554","Rt14, simpang 4 terminal No No.RT.4, Malinau Kota, Kec. Malinau Kota, Kabupaten Malinau",KALIMANTAN UTARA,77554.0,Indonesia,82184918373.0,,,3.5856399,116.6253407,https://maps.google.com/?cid=0x0:0xcc49a45131fbec72,
hardware store,Toko Elektronik,Sharp Electronics Indonesia. PT,"JL. Panembahan No.23, RT.001, Malinau Kota, Kec. Malinau Kota, Kabupaten Malinau, Kalimantan Utara 77554","RT.001, Malinau Kota, Kec. Malinau Kota, Kabupaten Malinau",KALIMANTAN UTARA,77554.0,Indonesia,55321206.0,,,3.584867,116.648283,https://maps.google.com/?cid=0x0:0x27afef5c7b4b69e3,
hardware store,Toko Elektronik,TOKO ANYSHA CELL  ELEKTRONIK 2,"Oppo, JL. Raja Pandhita RT 1, Malinau Hulu, Teluk Sanggan, Kec. Malinau Kota, Kabupaten Malinau, Kalimantan Utara 77554","JL. Raja Pandhita RT 1, Malinau Hulu, Teluk Sanggan, Kec. Malinau Kota, Kabupaten Malinau",KALIMANTAN UTARA,77554.0,Indonesia,82184918373.0,,,3.5465205,116.6121604,https://maps.google.com/?cid=0x0:0xb98313367a4e907f,
hardware store,Toko Elektronik,Toko Walet  Listrik,"HJRM+FH8, Malinau Kota, Kec. Malinau Kota, Kabupaten Malinau, Kalimantan Utara 77554","Malinau Kota, Kec. Malinau Kota, Kabupaten Malinau",KALIMANTAN UTARA,77554.0,Indonesia,,,,3.5911516,116.6339587,https://maps.google.com/?cid=0x0:0x454a04d7808cc29b,
hardware store,Toko Elektronik,Seven Computer (Malinau),"HJVM+Q9F, Malinau Kota, Kec. Malinau Kota, Kabupaten Malinau, Kalimantan Utara 77554","Malinau Kota, Kec. Malinau Kota, Kabupaten Malinau",KALIMANTAN UTARA,77554.0,Indonesia,82352417779.0,,,3.5944364,116.6334368,https://maps.google.com/?cid=0x0:0x6076667d3e6d6d15,
hardware store,Toko Elektronik,Gitta Service Elektronik,"HJRH+24F, Malinau Kota, Kec. Malinau Kota, Kabupaten Malinau, Kalimantan Utara 77554","Malinau Kota, Kec. Malinau Kota, Kabupaten Malinau",KALIMANTAN UTARA,77554.0,Indonesia,85249313931.0,,,3.5900638,116.6277995,https://maps.google.com/?cid=0x0:0x95864e4876e28321,
hardware store,Toko Elektronik,Toko Komputer Malinau,"Unnamed Road, Malinau Seberang, Kec. Malinau Utara, Kabupaten Malinau, Kalimantan Utara 77554","Malinau Seberang, Kec. Malinau Utara, Kabupaten Malinau",KALIMANTAN UTARA,77554.0,Indonesia,85350276670.0,,,3.593207,116.6192242,https://maps.google.com/?cid=0x0:0xdd193918083cd6bf,
hardware store,Toko Ponsel,Hokiwa Cell,"Jalan Khosari RT 15, Malinau Kota, Kec. Malinau Kota, Kabupaten Malinau, Kalimantan Utara 77554","Malinau Kota, Kec. Malinau Kota, Kabupaten Malinau",KALIMANTAN UTARA,77554.0,Indonesia,,,,3.5888473,116.6244844,https://maps.google.com/?cid=0x0:0x17bb35a078315704,
hardware store,Toko Elektronik,Toke Evi Elektronik,"HJQF+V6M, Jl. Panembahan, Malinau Kota, Kec. Malinau Kota, Kabupaten Malinau, Kalimantan Utara 77554","Jl. Panembahan, Malinau Kota, Kec. Malinau Kota, Kabupaten Malinau",KALIMANTAN UTARA,77554.0,Indonesia,85247527222.0,,,3.5897225,116.6230589,https://maps.google.com/?cid=0x0:0xeca3566e6684edb5,
hardware store,Toko Ponsel,Widi Cell,"jl.A.kosasih 77554, Malinau Kota, Kec. Malinau Kota, Kabupaten Malinau, Kalimantan Utara 77554","Malinau Kota, Kec. Malinau Kota, Kabupaten Malinau",KALIMANTAN UTARA,77554.0,Indonesia,85346224444.0,,,3.5888492,116.6246568,https://maps.google.com/?cid=0x0:0x498fd0c391cd8a1b,
hardware store,hardware store,Dekranasda Kabupaten Malinau,"Jalan Panembahan RT. 08 Desa Malinau Kota, Samping Polsek, Kec. Malinau Kota, Kabupaten Malinau, Kalimantan Utara 77554","Samping Polsek, Kec. Malinau Kota, Kabupaten Malinau",KALIMANTAN UTARA,77554.0,Indonesia,82154575523.0,,,3.5888556,116.6221846,https://maps.google.com/?cid=0x0:0x44df28f6d8aeaa06,
hardware store,Toko Bahan Bangunan,Toko 88 bahan bangunan,"Malinau Kota, Kec. Malinau Kota, Kabupaten Malinau, Kalimantan Utara 77554","Kec. Malinau Kota, Kabupaten Malinau",KALIMANTAN UTARA,77554.0,Indonesia,83833052031.0,,,3.5837482,116.6245706,https://maps.google.com/?cid=0x0:0x995ee965ba072027,
hardware store,Toko Bahan Bangunan,Tb.Tunas Jaya,"HJF5+RV9, Jl. Raja Pandita, Pelita Kanaan, Kec. Malinau Kota, Kabupaten Malinau, Kalimantan Utara 77554","Jl. Raja Pandita, Pelita Kanaan, Kec. Malinau Kota, Kabupaten Malinau",KALIMANTAN UTARA,77554.0,Indonesia,85169995912.0,,,3.5745336,116.6097442,https://maps.google.com/?cid=0x0:0x9df0f4d85fe85645,
hardware store,Toko Ponsel,C'Lavie Phone,"HJM9+PJM, Jl. Panembahan No.10, Malinau Kota, Kec. Malinau Kota, Kabupaten Malinau, Kalimantan Utara 77554","Jl. Panembahan No.10, Malinau Kota, Kec. Malinau Kota, Kabupaten Malinau",KALIMANTAN UTARA,77554.0,Indonesia,85753000008.0,,,3.5870634,116.6199568,https://maps.google.com/?cid=0x0:0x18de582dc0a02107,
hardware store,hardware store,Kota malinau,"HJJJ+5F4, Malinau Kota, Kec. Malinau Kota, Kabupaten Malinau, Kalimantan Utara 77554","Malinau Kota, Kec. Malinau Kota, Kabupaten Malinau",KALIMANTAN UTARA,77554.0,Indonesia,,,,3.5803825,116.6312306,https://maps.google.com/?cid=0x0:0xfbbfd444b9af21a7,
hardware store,hardware store,Kec. Malinau Sel.,"Kabupaten Malinau, Kalimantan Utara","Kabupaten Malinau, Kalimantan Utara",KALIMANTAN UTARA,,Indonesia,,,,3.1674448,116.4704561,https://maps.google.com/?cid=0x0:0x4516403666700bfb,
hardware store,Toko Elektronik,Toko Bintang Timur Electronik,"Jl. Raja Pandita No.RT. 12, Malinau Hulu, Kec. Malinau Kota, Kabupaten Malinau, Kalimantan Utara 77554","Malinau Hulu, Kec. Malinau Kota, Kabupaten Malinau",KALIMANTAN UTARA,77554.0,Indonesia,85247269111.0,,,3.5755299,116.6074202,https://maps.google.com/?cid=0x0:0x8482e4fca3119638,
hardware store,Toko Perbaikan Ponsel,Vien Shop,"Malinau Hilir, Kec. Malinau Kota, Kabupaten Malinau, Kalimantan Utara","Kabupaten Malinau, Kalimantan Utara",KALIMANTAN UTARA,,Indonesia,,,,3.5888125,116.6568125,https://maps.google.com/?cid=0x0:0x53b35a7949167f4b,
hardware store,Studio Foto,Canon Digital,"5F9C+J5C, Long Loreh, Kec. Malinau Sel., Kabupaten Malinau, Kalimantan Utara 77554","Long Loreh, Kec. Malinau Sel., Kabupaten Malinau",KALIMANTAN UTARA,77554.0,Indonesia,,,,3.1690544,116.4703945,https://maps.google.com/?cid=0x0:0x5db25c45e0ee1b87,
hardware store,Toko,BILL PHONE MALINAU,"Jl raja alam, Rt14, simpang 4 terminal No No.RT.4, Malinau Kota, Kec. Malinau Kota, Kabupaten Malinau, Kalimantan Utara 77554","Rt14, simpang 4 terminal No No.RT.4, Malinau Kota, Kec. Malinau Kota, Kabupaten Malinau",KALIMANTAN UTARA,77554.0,Indonesia,82184918373.0,,,3.5856399,116.6253407,https://maps.google.com/?cid=0x0:0xcc49a45131fbec72,
hardware store,Toko Elektronik,TOKO ANYSHA CELL  ELEKTRONIK 2,"Oppo, JL. Raja Pandhita RT 1, Malinau Hulu, Teluk Sanggan, Kec. Malinau Kota, Kabupaten Malinau, Kalimantan Utara 77554","JL. Raja Pandhita RT 1, Malinau Hulu, Teluk Sanggan, Kec. Malinau Kota, Kabupaten Malinau",KALIMANTAN UTARA,77554.0,Indonesia,82184918373.0,,,3.5465205,116.6121604,https://maps.google.com/?cid=0x0:0xb98313367a4e907f,
hardware store,Perusahaan elektronik,Bintang Borneo Electronik,"HJVG+3Q2, Malinau Kota, Kec. Malinau Kota, Kabupaten Malinau, Kalimantan Utara 77554","Malinau Kota, Kec. Malinau Kota, Kabupaten Malinau",KALIMANTAN UTARA,77554.0,Indonesia,83896432748.0,,,3.5926481,116.6269014,https://maps.google.com/?cid=0x0:0x73932860d1d70a05,
hardware store,Toko Elektronik,Toko Walet  Listrik,"HJRM+FH8, Malinau Kota, Kec. Malinau Kota, Kabupaten Malinau, Kalimantan Utara 77554","Malinau Kota, Kec. Malinau Kota, Kabupaten Malinau",KALIMANTAN UTARA,77554.0,Indonesia,,,,3.5911516,116.6339587,https://maps.google.com/?cid=0x0:0x454a04d7808cc29b,
hardware store,Toko Elektronik,Toko Komputer Malinau,"Unnamed Road, Malinau Seberang, Kec. Malinau Utara, Kabupaten Malinau, Kalimantan Utara 77554","Malinau Seberang, Kec. Malinau Utara, Kabupaten Malinau",KALIMANTAN UTARA,77554.0,Indonesia,85350276670.0,,,3.593207,116.6192242,https://maps.google.com/?cid=0x0:0xdd193918083cd6bf,
hardware store,Toko Elektronik,Seven Computer (Malinau),"HJVM+Q9F, Malinau Kota, Kec. Malinau Kota, Kabupaten Malinau, Kalimantan Utara 77554","Malinau Kota, Kec. Malinau Kota, Kabupaten Malinau",KALIMANTAN UTARA,77554.0,Indonesia,82352417779.0,,,3.5944364,116.6334368,https://maps.google.com/?cid=0x0:0x6076667d3e6d6d15,
hardware store,Toko Ponsel,Hokiwa Cell,"Jalan Khosari RT 15, Malinau Kota, Kec. Malinau Kota, Kabupaten Malinau, Kalimantan Utara 77554","Malinau Kota, Kec. Malinau Kota, Kabupaten Malinau",KALIMANTAN UTARA,77554.0,Indonesia,,,,3.5888473,116.6244844,https://maps.google.com/?cid=0x0:0x17bb35a078315704,
hardware store,Toko Elektronik,Gitta Service Elektronik,"HJRH+24F, Malinau Kota, Kec. Malinau Kota, Kabupaten Malinau, Kalimantan Utara 77554","Malinau Kota, Kec. Malinau Kota, Kabupaten Malinau",KALIMANTAN UTARA,77554.0,Indonesia,85249313931.0,,,3.5900638,116.6277995,https://maps.google.com/?cid=0x0:0x95864e4876e28321,
hardware store,Toko Elektronik,Sharp Electronics Indonesia. PT,"JL. Panembahan No.23, RT.001, Malinau Kota, Kec. Malinau Kota, Kabupaten Malinau, Kalimantan Utara 77554","RT.001, Malinau Kota, Kec. Malinau Kota, Kabupaten Malinau",KALIMANTAN UTARA,77554.0,Indonesia,55321206.0,,,3.584867,116.648283,https://maps.google.com/?cid=0x0:0x27afef5c7b4b69e3,
hardware store,Toko Elektronik,Toke Evi Elektronik,"HJQF+V6M, Jl. Panembahan, Malinau Kota, Kec. Malinau Kota, Kabupaten Malinau, Kalimantan Utara 77554","Jl. Panembahan, Malinau Kota, Kec. Malinau Kota, Kabupaten Malinau",KALIMANTAN UTARA,77554.0,Indonesia,85247527222.0,,,3.5897225,116.6230589,https://maps.google.com/?cid=0x0:0xeca3566e6684edb5,
hardware store,Wilayah Lintas Alam,Desa Langap,"3FQ3+PWM, desa, Langap, Kec. Malinau Sel., Kabupaten Malinau, Kalimantan Utara 77554","desa, Langap, Kec. Malinau Sel., Kabupaten Malinau",KALIMANTAN UTARA,77554.0,Indonesia,,,,3.0893295,116.4547962,https://maps.google.com/?cid=0x0:0x689facd5dcb0e7e8,
hardware store,Studio Fotografi,Galeri Foto,"Jl. Alang Impang No.RT.05, desa langap, Kec. Malinau Sel., Kabupaten Malinau, Kalimantan Utara 77555","desa langap, Kec. Malinau Sel., Kabupaten Malinau",KALIMANTAN UTARA,77555.0,Indonesia,85187357508.0,,,3.1441363,116.4748018,https://maps.google.com/?cid=0x0:0x8c474cc695f9a32d,
hardware store,hardware store,Kec. Malinau Selatan Hilir,"Kabupaten Malinau, Kalimantan Utara","Kabupaten Malinau, Kalimantan Utara",KALIMANTAN UTARA,,Indonesia,,,,3.3146294,116.5577197,https://maps.google.com/?cid=0x0:0x3c0190dd52d21f13,
hardware store,Toko Bahan Bangunan,Toko 88 bahan bangunan,"Malinau Kota, Kec. Malinau Kota, Kabupaten Malinau, Kalimantan Utara 77554","Kec. Malinau Kota, Kabupaten Malinau",KALIMANTAN UTARA,77554.0,Indonesia,83833052031.0,,,3.5837482,116.6245706,https://maps.google.com/?cid=0x0:0x995ee965ba072027,
hardware store,Toko Bahan Bangunan,T.B Berkat Jaya,"GGG8+R57, Pulau Sapi, Kec. Mentarang, Kabupaten Malinau, Kalimantan Utara 77554","Pulau Sapi, Kec. Mentarang, Kabupaten Malinau",KALIMANTAN UTARA,77554.0,Indonesia,8161999912.0,,,3.5270288,116.5154093,https://maps.google.com/?cid=0x0:0x4f9de76d4268b507,
hardware store,Toko Perbaikan Ponsel,Vien Shop,"Malinau Hilir, Kec. Malinau Kota, Kabupaten Malinau, Kalimantan Utara","Kabupaten Malinau, Kalimantan Utara",KALIMANTAN UTARA,,Indonesia,,,,3.5888125,116.6568125,https://maps.google.com/?cid=0x0:0x53b35a7949167f4b,
hardware store,Toko Elektronik,Toko Bintang Timur Electronik,"Jl. Raja Pandita No.RT. 12, Malinau Hulu, Kec. Malinau Kota, Kabupaten Malinau, Kalimantan Utara 77554","Malinau Hulu, Kec. Malinau Kota, Kabupaten Malinau",KALIMANTAN UTARA,77554.0,Indonesia,85247269111.0,,,3.5755299,116.6074202,https://maps.google.com/?cid=0x0:0x8482e4fca3119638,
hardware store,Toko Elektronik,TOKO JAYA ELEKTRONIK,"Malinau Kota, Kec. Malinau Kota, Kabupaten Malinau, Kalimantan Utara 77554","Kec. Malinau Kota, Kabupaten Malinau",KALIMANTAN UTARA,77554.0,Indonesia,81374135806.0,,,3.5802013,116.6210033,https://maps.google.com/?cid=0x0:0xd52a2bf8cc0346cc,
hardware store,Toko Alat Tulis Kantor,Toko Sinar Kawijaya,"HJ94+GWM, Malinau Hulu, Kec. Malinau Kota, Kabupaten Malinau, Kalimantan Utara 77554","Malinau Hulu, Kec. Malinau Kota, Kabupaten Malinau",KALIMANTAN UTARA,77554.0,Indonesia,811531818.0,,,3.5688421,116.6072968,https://maps.google.com/?cid=0x0:0x880b9f511a28e698,
hardware store,Toko,BILL PHONE MALINAU,"Jl raja alam, Rt14, simpang 4 terminal No No.RT.4, Malinau Kota, Kec. Malinau Kota, Kabupaten Malinau, Kalimantan Utara 77554","Rt14, simpang 4 terminal No No.RT.4, Malinau Kota, Kec. Malinau Kota, Kabupaten Malinau",KALIMANTAN UTARA,77554.0,Indonesia,82184918373.0,,,3.5856399,116.6253407,https://maps.google.com/?cid=0x0:0xcc49a45131fbec72,
hardware store,Toko Elektronik,TOKO ANYSHA CELL  ELEKTRONIK 2,"Oppo, JL. Raja Pandhita RT 1, Malinau Hulu, Teluk Sanggan, Kec. Malinau Kota, Kabupaten Malinau, Kalimantan Utara 77554","JL. Raja Pandhita RT 1, Malinau Hulu, Teluk Sanggan, Kec. Malinau Kota, Kabupaten Malinau",KALIMANTAN UTARA,77554.0,Indonesia,82184918373.0,,,3.5465205,116.6121604,https://maps.google.com/?cid=0x0:0xb98313367a4e907f,
hardware store,Perusahaan elektronik,Bintang Borneo Electronik,"HJVG+3Q2, Malinau Kota, Kec. Malinau Kota, Kabupaten Malinau, Kalimantan Utara 77554","Malinau Kota, Kec. Malinau Kota, Kabupaten Malinau",KALIMANTAN UTARA,77554.0,Indonesia,83896432748.0,,,3.5926481,116.6269014,https://maps.google.com/?cid=0x0:0x73932860d1d70a05,
hardware store,Toko Alat Tulis Kantor,Toko AGATHA,"Unnamed Road, Malinau Hulu, Kec. Malinau Kota, Kabupaten Malinau, Kalimantan Utara 77554","Malinau Hulu, Kec. Malinau Kota, Kabupaten Malinau",KALIMANTAN UTARA,77554.0,Indonesia,82155442334.0,,,3.5727953,116.6054335,https://maps.google.com/?cid=0x0:0x7bcd00b798614944,
hardware store,Toko Elektronik,Toko Walet  Listrik,"HJRM+FH8, Malinau Kota, Kec. Malinau Kota, Kabupaten Malinau, Kalimantan Utara 77554","Malinau Kota, Kec. Malinau Kota, Kabupaten Malinau",KALIMANTAN UTARA,77554.0,Indonesia,,,,3.5911516,116.6339587,https://maps.google.com/?cid=0x0:0x454a04d7808cc29b,
hardware store,Toko Elektronik,Toko Komputer Malinau,"Unnamed Road, Malinau Seberang, Kec. Malinau Utara, Kabupaten Malinau, Kalimantan Utara 77554","Malinau Seberang, Kec. Malinau Utara, Kabupaten Malinau",KALIMANTAN UTARA,77554.0,Indonesia,85350276670.0,,,3.593207,116.6192242,https://maps.google.com/?cid=0x0:0xdd193918083cd6bf,
hardware store,Toko Elektronik,Seven Computer (Malinau),"HJVM+Q9F, Malinau Kota, Kec. Malinau Kota, Kabupaten Malinau, Kalimantan Utara 77554","Malinau Kota, Kec. Malinau Kota, Kabupaten Malinau",KALIMANTAN UTARA,77554.0,Indonesia,82352417779.0,,,3.5944364,116.6334368,https://maps.google.com/?cid=0x0:0x6076667d3e6d6d15,
hardware store,Toko Ponsel,Hokiwa Cell,"Jalan Khosari RT 15, Malinau Kota, Kec. Malinau Kota, Kabupaten Malinau, Kalimantan Utara 77554","Malinau Kota, Kec. Malinau Kota, Kabupaten Malinau",KALIMANTAN UTARA,77554.0,Indonesia,,,,3.5888473,116.6244844,https://maps.google.com/?cid=0x0:0x17bb35a078315704,
hardware store,Toko Elektronik,Sharp Electronics Indonesia. PT,"JL. Panembahan No.23, RT.001, Malinau Kota, Kec. Malinau Kota, Kabupaten Malinau, Kalimantan Utara 77554","RT.001, Malinau Kota, Kec. Malinau Kota, Kabupaten Malinau",KALIMANTAN UTARA,77554.0,Indonesia,55321206.0,,,3.584867,116.648283,https://maps.google.com/?cid=0x0:0x27afef5c7b4b69e3,
hardware store,Toko Bahan Bangunan,Tb.Tunas Jaya,"HJF5+RV9, Jl. Raja Pandita, Pelita Kanaan, Kec. Malinau Kota, Kabupaten Malinau, Kalimantan Utara 77554","Jl. Raja Pandita, Pelita Kanaan, Kec. Malinau Kota, Kabupaten Malinau",KALIMANTAN UTARA,77554.0,Indonesia,85169995912.0,,,3.5745336,116.6097442,https://maps.google.com/?cid=0x0:0x9df0f4d85fe85645,
hardware store,Toko Perbaikan Ponsel,Vien Shop,"Malinau Hilir, Kec. Malinau Kota, Kabupaten Malinau, Kalimantan Utara","Kabupaten Malinau, Kalimantan Utara",KALIMANTAN UTARA,,Indonesia,,,,3.5888125,116.6568125,https://maps.google.com/?cid=0x0:0x53b35a7949167f4b,
hardware store,,Vstore Malinau,"HJMX+M4M, Malinau Kota, Kec. Malinau Kota, Kabupaten Malinau, Kalimantan Utara","Kabupaten Malinau, Kalimantan Utara",KALIMANTAN UTARA,,Indonesia,,,,3.584221,116.647797,https://maps.google.com/?cid=0x0:0x9d90fc8aae121f7e,
hardware store,hardware store,Kalimantan Utara 77554,"Kabupaten Malinau, Kalimantan Utara","Kabupaten Malinau, Kalimantan Utara",KALIMANTAN UTARA,,Indonesia,,,,2.9234432,116.2304616,https://maps.google.com/?cid=0x0:0x100a8cc2c03a7e66,
hardware store,Toko,Toko Sumber Jaya,"Jl. Panembahan, Malinau Kota, Kec. Malinau Kota, Kabupaten Malinau, Kalimantan Utara 77554","Malinau Kota, Kec. Malinau Kota, Kabupaten Malinau",KALIMANTAN UTARA,77554.0,Indonesia,,,,3.5924814,116.6266724,https://maps.google.com/?cid=0x0:0x517097fc139570d4,
hardware store,Toko Bahan Bangunan,Toko Besi Holly Jaya Steel,"HJFF+FFP, Jl. Ahmad Yani, Malinau Kota, Kec. Malinau Kota, Kabupaten Malinau, Kalimantan Utara 77554","Jl. Ahmad Yani, Malinau Kota, Kec. Malinau Kota, Kabupaten Malinau",KALIMANTAN UTARA,77554.0,Indonesia,87737401068.0,,,3.5737008,116.6237132,https://maps.google.com/?cid=0x0:0xa905cbb1f62d9edd,
hardware store,Toko Bahan Bangunan,Pelangi Jaya Toko Bangunan,"HJF3+MX9, Malinau Hulu, Kec. Malinau Kota, Kabupaten Malinau, Kalimantan Utara 77554","Malinau Hulu, Kec. Malinau Kota, Kabupaten Malinau",KALIMANTAN UTARA,77554.0,Indonesia,85169995912.0,,,3.5741683,116.6049787,https://maps.google.com/?cid=0x0:0xc4b9090c68b73393,
hardware store,Pusat Perbelanjaan,MR.DIY,"Jl. Raja Pandita No. 047, RT.01 Teluk Sanggan, Malinau Hulu, Malinau Kota, Malinau Regency, North Kalimantan 77554","RT.01 Teluk Sanggan, Malinau Hulu, Malinau Kota, Malinau Regency",KALIMANTAN UTARA,77554.0,Indonesia,,,,3.548345,116.612551,https://maps.google.com/?cid=0x0:0x4d9b0205d6605d7b,
hardware store,Toko Bahan Bangunan,T.B Berkat Jaya,"GGG8+R57, Pulau Sapi, Kec. Mentarang, Kabupaten Malinau, Kalimantan Utara 77554","Pulau Sapi, Kec. Mentarang, Kabupaten Malinau",KALIMANTAN UTARA,77554.0,Indonesia,8161999912.0,,,3.5270288,116.5154093,https://maps.google.com/?cid=0x0:0x4f9de76d4268b507,
hardware store,Toko Bahan Bangunan,Toko Yogo Jaya,"Jl. Gor, Malinau Kota, Kec. Malinau Kota, Kabupaten Malinau, Kalimantan Utara 77554","Malinau Kota, Kec. Malinau Kota, Kabupaten Malinau",KALIMANTAN UTARA,77554.0,Indonesia,82252593837.0,,,3.5732936,116.6231231,https://maps.google.com/?cid=0x0:0xff542ae23a37aa7c,
hardware store,hardware store,Malinau Sel. Hulu,"Kabupaten Malinau, Kalimantan Utara","Kabupaten Malinau, Kalimantan Utara",KALIMANTAN UTARA,,Indonesia,,,,2.8489643,116.3249438,https://maps.google.com/?cid=0x0:0x1d54952845c0d2dc,
hardware store,Toko Perlengkapan Rumah,MR. DIY Terminal Baru Malinau,"Malinau Kota, Kec. Malinau Kota, Kabupaten Malinau, Kalimantan Utara 77554","Kec. Malinau Kota, Kabupaten Malinau",KALIMANTAN UTARA,77554.0,Indonesia,,,,3.5911713,116.6361383,https://maps.google.com/?cid=0x0:0x69529a1e51a6b9ca,
hardware store,Studio Foto,Canon Digital,"5F9C+J5C, Long Loreh, Kec. Malinau Sel., Kabupaten Malinau, Kalimantan Utara 77554","Long Loreh, Kec. Malinau Sel., Kabupaten Malinau",KALIMANTAN UTARA,77554.0,Indonesia,,,,3.1690544,116.4703945,https://maps.google.com/?cid=0x0:0x5db25c45e0ee1b87,
hardware store,Toko Suku Cadang Mobil,Toko Muria Jaya Teknik,"HJMG+9VF, Malinau Kota, Kec. Malinau Kota, Kabupaten Malinau, Kalimantan Utara 77554","Malinau Kota, Kec. Malinau Kota, Kabupaten Malinau",KALIMANTAN UTARA,77554.0,Indonesia,55321659.0,,,3.583429,116.6271654,https://maps.google.com/?cid=0x0:0xb20de50d976930c9,
hardware store,Toko Alat Tulis Kantor,Toko AGATHA,"Unnamed Road, Malinau Hulu, Kec. Malinau Kota, Kabupaten Malinau, Kalimantan Utara 77554","Malinau Hulu, Kec. Malinau Kota, Kabupaten Malinau",KALIMANTAN UTARA,77554.0,Indonesia,82155442334.0,,,3.5727953,116.6054335,https://maps.google.com/?cid=0x0:0x7bcd00b798614944,
hardware store,Toko Alat Tulis Kantor,Toko Sinar Kawijaya,"HJ94+GWM, Malinau Hulu, Kec. Malinau Kota, Kabupaten Malinau, Kalimantan Utara 77554","Malinau Hulu, Kec. Malinau Kota, Kabupaten Malinau",KALIMANTAN UTARA,77554.0,Indonesia,811531818.0,,,3.5688421,116.6072968,https://maps.google.com/?cid=0x0:0x880b9f511a28e698,
hardware store,Toko Bahan Bangunan,Tb.Tunas Jaya,"HJF5+RV9, Jl. Raja Pandita, Pelita Kanaan, Kec. Malinau Kota, Kabupaten Malinau, Kalimantan Utara 77554","Jl. Raja Pandita, Pelita Kanaan, Kec. Malinau Kota, Kabupaten Malinau",KALIMANTAN UTARA,77554.0,Indonesia,85169995912.0,,,3.5745336,116.6097442,https://maps.google.com/?cid=0x0:0x9df0f4d85fe85645,
hardware store,Toko,Toko Aneka Jaya,"HJRG+H36, Malinau Kota, Kec. Malinau Kota, Kabupaten Malinau, Kalimantan Utara 77554","Malinau Kota, Kec. Malinau Kota, Kabupaten Malinau",KALIMANTAN UTARA,77554.0,Indonesia,,,,3.591418,116.6251379,https://maps.google.com/?cid=0x0:0x2ccff47a2be8763,
hardware store,hardware store,Kec. Malinau Utara,"Kabupaten Malinau, Kalimantan Utara","Kabupaten Malinau, Kalimantan Utara",KALIMANTAN UTARA,,Indonesia,,,,3.5926011,116.6196331,https://maps.google.com/?cid=0x0:0xb9f35c1d23aa16b7,
hardware store,Toko Bahan Bangunan,Toko Makmur Jaya,"Jl. Panembahan No.RT.07 No.14, Malinau Kota, Kec. Malinau Kota, Kabupaten Malinau, Kalimantan Utara 77554","Malinau Kota, Kec. Malinau Kota, Kabupaten Malinau",KALIMANTAN UTARA,77554.0,Indonesia,85169995912.0,,,3.5894549,116.6227126,https://maps.google.com/?cid=0x0:0xec9717eadaeb8588,
hardware store,Toko Bahan Bangunan,Toko 88 bahan bangunan,"Malinau Kota, Kec. Malinau Kota, Kabupaten Malinau, Kalimantan Utara 77554","Kec. Malinau Kota, Kabupaten Malinau",KALIMANTAN UTARA,77554.0,Indonesia,83833052031.0,,,3.5837482,116.6245706,https://maps.google.com/?cid=0x0:0x995ee965ba072027,
hardware store,Toko Bahan Bangunan,Toko Besi Holly Jaya Steel,"HJFF+FFP, Jl. Ahmad Yani, Malinau Kota, Kec. Malinau Kota, Kabupaten Malinau, Kalimantan Utara 77554","Jl. Ahmad Yani, Malinau Kota, Kec. Malinau Kota, Kabupaten Malinau",KALIMANTAN UTARA,77554.0,Indonesia,87737401068.0,,,3.5737008,116.6237132,https://maps.google.com/?cid=0x0:0xa905cbb1f62d9edd,
hardware store,Toko Suku Cadang Mobil,Toko Muria Jaya Teknik,"HJMG+9VF, Malinau Kota, Kec. Malinau Kota, Kabupaten Malinau, Kalimantan Utara 77554","Malinau Kota, Kec. Malinau Kota, Kabupaten Malinau",KALIMANTAN UTARA,77554.0,Indonesia,55321659.0,,,3.583429,116.6271654,https://maps.google.com/?cid=0x0:0xb20de50d976930c9,
hardware store,Toko Bahan Bangunan,Pelangi Jaya Toko Bangunan,"HJF3+MX9, Malinau Hulu, Kec. Malinau Kota, Kabupaten Malinau, Kalimantan Utara 77554","Malinau Hulu, Kec. Malinau Kota, Kabupaten Malinau",KALIMANTAN UTARA,77554.0,Indonesia,85169995912.0,,,3.5741683,116.6049787,https://maps.google.com/?cid=0x0:0xc4b9090c68b73393,
hardware store,Toko Elektronik,Toko Bintang Timur Electronik,"Jl. Raja Pandita No.RT. 12, Malinau Hulu, Kec. Malinau Kota, Kabupaten Malinau, Kalimantan Utara 77554","Malinau Hulu, Kec. Malinau Kota, Kabupaten Malinau",KALIMANTAN UTARA,77554.0,Indonesia,85247269111.0,,,3.5755299,116.6074202,https://maps.google.com/?cid=0x0:0x8482e4fca3119638,
hardware store,Pusat Perbelanjaan,MR.DIY,"Jl. Raja Pandita No. 047, RT.01 Teluk Sanggan, Malinau Hulu, Malinau Kota, Malinau Regency, North Kalimantan 77554","RT.01 Teluk Sanggan, Malinau Hulu, Malinau Kota, Malinau Regency",KALIMANTAN UTARA,77554.0,Indonesia,,,,3.548345,116.612551,https://maps.google.com/?cid=0x0:0x4d9b0205d6605d7b,
hardware store,Toko Bahan Bangunan,Tb.Tunas Jaya,"HJF5+RV9, Jl. Raja Pandita, Pelita Kanaan, Kec. Malinau Kota, Kabupaten Malinau, Kalimantan Utara 77554","Jl. Raja Pandita, Pelita Kanaan, Kec. Malinau Kota, Kabupaten Malinau",KALIMANTAN UTARA,77554.0,Indonesia,85169995912.0,,,3.5745336,116.6097442,https://maps.google.com/?cid=0x0:0x9df0f4d85fe85645,
hardware store,Toko Bahan Bangunan,Toko Yogo Jaya,"Jl. Gor, Malinau Kota, Kec. Malinau Kota, Kabupaten Malinau, Kalimantan Utara 77554","Malinau Kota, Kec. Malinau Kota, Kabupaten Malinau",KALIMANTAN UTARA,77554.0,Indonesia,82252593837.0,,,3.5732936,116.6231231,https://maps.google.com/?cid=0x0:0xff542ae23a37aa7c,
hardware store,Toko,Toko Aneka Jaya,"HJRG+H36, Malinau Kota, Kec. Malinau Kota, Kabupaten Malinau, Kalimantan Utara 77554","Malinau Kota, Kec. Malinau Kota, Kabupaten Malinau",KALIMANTAN UTARA,77554.0,Indonesia,,,,3.591418,116.6251379,https://maps.google.com/?cid=0x0:0x2ccff47a2be8763,
hardware store,Toko Alat Tulis Kantor,Toko Sinar Kawijaya,"HJ94+GWM, Malinau Hulu, Kec. Malinau Kota, Kabupaten Malinau, Kalimantan Utara 77554","Malinau Hulu, Kec. Malinau Kota, Kabupaten Malinau",KALIMANTAN UTARA,77554.0,Indonesia,811531818.0,,,3.5688421,116.6072968,https://maps.google.com/?cid=0x0:0x880b9f511a28e698,
hardware store,Toko Elektronik,TOKO JAYA ELEKTRONIK,"Malinau Kota, Kec. Malinau Kota, Kabupaten Malinau, Kalimantan Utara 77554","Kec. Malinau Kota, Kabupaten Malinau",KALIMANTAN UTARA,77554.0,Indonesia,81374135806.0,,,3.5802013,116.6210033,https://maps.google.com/?cid=0x0:0xd52a2bf8cc0346cc,
hardware store,Toko Perbaikan Ponsel,Vien Shop,"Malinau Hilir, Kec. Malinau Kota, Kabupaten Malinau, Kalimantan Utara","Kabupaten Malinau, Kalimantan Utara",KALIMANTAN UTARA,,Indonesia,,,,3.5888125,116.6568125,https://maps.google.com/?cid=0x0:0x53b35a7949167f4b,
hardware store,Toko Alat Tulis Kantor,Toko AGATHA,"Unnamed Road, Malinau Hulu, Kec. Malinau Kota, Kabupaten Malinau, Kalimantan Utara 77554","Malinau Hulu, Kec. Malinau Kota, Kabupaten Malinau",KALIMANTAN UTARA,77554.0,Indonesia,82155442334.0,,,3.5727953,116.6054335,https://maps.google.com/?cid=0x0:0x7bcd00b798614944,
hardware store,Perusahaan elektronik,Bintang Borneo Electronik,"HJVG+3Q2, Malinau Kota, Kec. Malinau Kota, Kabupaten Malinau, Kalimantan Utara 77554","Malinau Kota, Kec. Malinau Kota, Kabupaten Malinau",KALIMANTAN UTARA,77554.0,Indonesia,83896432748.0,,,3.5926481,116.6269014,https://maps.google.com/?cid=0x0:0x73932860d1d70a05,
hardware store,Toko,BILL PHONE MALINAU,"Jl raja alam, Rt14, simpang 4 terminal No No.RT.4, Malinau Kota, Kec. Malinau Kota, Kabupaten Malinau, Kalimantan Utara 77554","Rt14, simpang 4 terminal No No.RT.4, Malinau Kota, Kec. Malinau Kota, Kabupaten Malinau",KALIMANTAN UTARA,77554.0,Indonesia,82184918373.0,,,3.5856399,116.6253407,https://maps.google.com/?cid=0x0:0xcc49a45131fbec72,
hardware store,Toko Elektronik,TOKO ANYSHA CELL  ELEKTRONIK 2,"Oppo, JL. Raja Pandhita RT 1, Malinau Hulu, Teluk Sanggan, Kec. Malinau Kota, Kabupaten Malinau, Kalimantan Utara 77554","JL. Raja Pandhita RT 1, Malinau Hulu, Teluk Sanggan, Kec. Malinau Kota, Kabupaten Malinau",KALIMANTAN UTARA,77554.0,Indonesia,82184918373.0,,,3.5465205,116.6121604,https://maps.google.com/?cid=0x0:0xb98313367a4e907f,
hardware store,Toko Aksesori Mobil,Wijaya teknik,"Jl. Raja Alam, Malinau Kota, Kec. Malinau Kota, Kabupaten Malinau, Kalimantan Utara 77554","Malinau Kota, Kec. Malinau Kota, Kabupaten Malinau",KALIMANTAN UTARA,77554.0,Indonesia,,,,3.5789085,116.6327086,https://maps.google.com/?cid=0x0:0x3638f2e6b5b85b97,
hardware store,Toko Elektronik,Toko Komputer Malinau,"Unnamed Road, Malinau Seberang, Kec. Malinau Utara, Kabupaten Malinau, Kalimantan Utara 77554","Malinau Seberang, Kec. Malinau Utara, Kabupaten Malinau",KALIMANTAN UTARA,77554.0,Indonesia,85350276670.0,,,3.593207,116.6192242,https://maps.google.com/?cid=0x0:0xdd193918083cd6bf,
hardware store,Toko Bahan Bangunan,Toko Abadi Jaya,"Jl. Panembahan No.3, RT.3, Malinau Kota, Kec. Malinau Kota, Kabupaten Malinau, Kalimantan Utara 77554","RT.3, Malinau Kota, Kec. Malinau Kota, Kabupaten Malinau",KALIMANTAN UTARA,77554.0,Indonesia,85169995912.0,,,3.5921656,116.6259137,https://maps.google.com/?cid=0x0:0xe025ea1ba7944119,
hardware store,Toko Bahan Bangunan,T.B Berkat Jaya,"GGG8+R57, Pulau Sapi, Kec. Mentarang, Kabupaten Malinau, Kalimantan Utara 77554","Pulau Sapi, Kec. Mentarang, Kabupaten Malinau",KALIMANTAN UTARA,77554.0,Indonesia,8161999912.0,,,3.5270288,116.5154093,https://maps.google.com/?cid=0x0:0x4f9de76d4268b507,
hardware store,Toko Bahan Bangunan,Toko 88 bahan bangunan,"Malinau Kota, Kec. Malinau Kota, Kabupaten Malinau, Kalimantan Utara 77554","Kec. Malinau Kota, Kabupaten Malinau",KALIMANTAN UTARA,77554.0,Indonesia,83833052031.0,,,3.5837482,116.6245706,https://maps.google.com/?cid=0x0:0x995ee965ba072027,
hardware store,Toko Bahan Bangunan,Toko Makmur Jaya,"Jl. Panembahan No.RT.07 No.14, Malinau Kota, Kec. Malinau Kota, Kabupaten Malinau, Kalimantan Utara 77554","Malinau Kota, Kec. Malinau Kota, Kabupaten Malinau",KALIMANTAN UTARA,77554.0,Indonesia,85169995912.0,,,3.5894549,116.6227126,https://maps.google.com/?cid=0x0:0xec9717eadaeb8588,
hardware store,Toko Bahan Bangunan,Merintaman Hardware Sdn. Bhd.,"LOT 3, BLOCK 2, BATU 4, Merintaman Point, Jalan Sipitang - Sindumin, 89850 Sipitang, Sabah, Malaysia",Sipitang,KALIMANTAN UTARA,89850.0,Indonesia,60199040294.0,,,5.0357946,115.5447086,https://maps.google.com/?cid=0x0:0x56aed11d63c5c92c,
hardware store,Toko,Toko Borneo,"WM3X+X66, Pa Kemut, Krayan, Kabupaten Nunukan, Kalimantan Utara 77456","Pa Kemut, Krayan, Kabupaten Nunukan",KALIMANTAN UTARA,77456.0,Indonesia,,,,3.9049024,115.6980072,https://maps.google.com/?cid=0x0:0x69b68bca084b87d,
hardware store,Toko,71,"Jl. Long Bawan, Pa Kemut, Krayan, Kabupaten Nunukan, Kalimantan Utara 77456","Pa Kemut, Krayan, Kabupaten Nunukan",KALIMANTAN UTARA,77456.0,Indonesia,81337777421.0,,,3.9044303,115.697338,https://maps.google.com/?cid=0x0:0xbb32e366a5b8a04d,
hardware store,hardware store,Kalimantan Utara 77155,"Mentarang Hulu, Kabupaten Malinau, Kalimantan Utara","Kabupaten Malinau, Kalimantan Utara",KALIMANTAN UTARA,,Indonesia,,,,3.9141052,116.0886704,https://maps.google.com/?cid=0x0:0x74209607fa10efaf,
hardware store,Toko Bahan Bangunan,Toko 88 bahan bangunan,"Malinau Kota, Kec. Malinau Kota, Kabupaten Malinau, Kalimantan Utara 77554","Kec. Malinau Kota, Kabupaten Malinau",KALIMANTAN UTARA,77554.0,Indonesia,83833052031.0,,,3.5837482,116.6245706,https://maps.google.com/?cid=0x0:0x995ee965ba072027,
hardware store,Toko,PING HARDWARE,"Jl. Duku, Tj. Selor Hilir, Kec. Tj. Selor, Kabupaten Bulungan, Kalimantan Utara 77212","Tj. Selor Hilir, Kec. Tj. Selor, Kabupaten Bulungan",KALIMANTAN UTARA,77212.0,Indonesia,85249690313.0,,,2.8482523,117.3702225,https://maps.google.com/?cid=0x0:0xe2884f6f1c8c1586,
hardware store,Toko Bahan Bangunan,Toko Sinar Jaya,"R9WC+72G, Jl. Langsat, Tj. Selor Hilir, Kec. Tj. Selor, Kabupaten Bulungan, Kalimantan Utara 77214","Jl. Langsat, Tj. Selor Hilir, Kec. Tj. Selor, Kabupaten Bulungan",KALIMANTAN UTARA,77214.0,Indonesia,83114785308.0,,,2.8456888,117.3700648,https://maps.google.com/?cid=0x0:0xccdd66a61ae0c64a,
hardware store,Toko Bahan Bangunan,Panchanan Hardwares Store,"7X6M+458, Unnamed Road, Hatgobindapur, West Bengal 713407, India","Unnamed Road, Hatgobindapur, West Bengal",KALIMANTAN UTARA,713407.0,Indonesia,919732088810.0,,,23.260287,87.9829539,https://maps.google.com/?cid=0x0:0xbb56079a01f3e34,
hardware store,hardware store,Kalimantan Timur 77573,"Kabupaten Malinau, Kalimantan Timur","Kabupaten Malinau, Kalimantan Timur",KALIMANTAN UTARA,,Indonesia,,,,1.4464714,115.188916,https://maps.google.com/?cid=0x0:0x791588811899f0cb,
hardware store,Toko,GT Hyper Hardware Sdn Bhd,"Lot 93249, Bt 16, Sungai Pelong, 47000 Sungai Buloh, Selangor, Malaysia",Sungai Buloh,KALIMANTAN UTARA,47000.0,Indonesia,60197907171.0,,,3.2099165,101.5360083,https://maps.google.com/?cid=0x0:0x69d85e85956817ee,
hardware store,Toko Bahan Bangunan,"Putri Hardware - Batu Bata, Pasir, Simen, Kayu, Besi @ Sungai Plong, Sungai Buloh","Jln Kuala Selangor, Kampung Sungai Pelong, 47000 Sungai Buloh, Selangor, Malaysia",Sungai Buloh,KALIMANTAN UTARA,47000.0,Indonesia,601133400057.0,,,3.2132824,101.5352378,https://maps.google.com/?cid=0x0:0x82f63275a2b28dca,
hardware store,Toko Bahan Bangunan,Tb.Tunas Jaya,"HJF5+RV9, Jl. Raja Pandita, Pelita Kanaan, Kec. Malinau Kota, Kabupaten Malinau, Kalimantan Utara 77554","Jl. Raja Pandita, Pelita Kanaan, Kec. Malinau Kota, Kabupaten Malinau",KALIMANTAN UTARA,77554.0,Indonesia,85169995912.0,,,3.5745336,116.6097442,https://maps.google.com/?cid=0x0:0x9df0f4d85fe85645,
hardware store,Toko Bahan Bangunan,Toko Mitra Jaya Bangunan,"HJG9+X3C Bandara RA Besing, Malinau Kota, Kec. Malinau Kota, Kabupaten Malinau, Kalimantan Utara 77554","Malinau Kota, Kec. Malinau Kota, Kabupaten Malinau",KALIMANTAN UTARA,77554.0,Indonesia,85169995912.0,,,3.5774367,116.617652,https://maps.google.com/?cid=0x0:0xea81baa680d48aa2,
hardware store,hardware store,Sungai Tubu,"Kabupaten Malinau, Kalimantan Utara","Kabupaten Malinau, Kalimantan Utara",KALIMANTAN UTARA,,Indonesia,,,,3.1431984,116.1359431,https://maps.google.com/?cid=0x0:0xd3c55a121bb6fc5b,
